{"zip_code":[
{"zip_code":"0028071","kana_pref":"ﾎｯｶｲﾄﾞｳ","kana_city":"ｻｯﾎﾟﾛｼｷﾀｸ","kana_address":"ｱｲﾉｻﾄ1ｼﾞｮｳ","pref":"北海道","city":"札幌市北区","address":"あいの里一条"},
{"zip_code":"0028072","kana_pref":"ﾎｯｶｲﾄﾞｳ","kana_city":"ｻｯﾎﾟﾛｼｷﾀｸ","kana_address":"ｱｲﾉｻﾄ2ｼﾞｮｳ","pref":"北海道","city":"札幌市北区","address":"あいの里二条"},
{"zip_code":"0028073","kana_pref":"ﾎｯｶｲﾄﾞｳ","kana_city":"ｻｯﾎﾟﾛｼｷﾀｸ","kana_address":"ｱｲﾉｻﾄ3ｼﾞｮｳ","pref":"北海道","city":"札幌市北区","address":"あいの里三条"},
{"zip_code":"0028074","kana_pref":"ﾎｯｶｲﾄﾞｳ","kana_city":"ｻｯﾎﾟﾛｼｷﾀｸ","kana_address":"ｱｲﾉｻﾄ4ｼﾞｮｳ","pref":"北海道","city":"札幌市北区","address":"あいの里四条"},
{"zip_code":"0028075","kana_pref":"ﾎｯｶｲﾄﾞｳ","kana_city":"ｻｯﾎﾟﾛｼｷﾀｸ","kana_address":"ｱｲﾉｻﾄ5ｼﾞｮｳ","pref":"北海道","city":"札幌市北区","address":"あいの里五条"},
{"zip_code":"0028021","kana_pref":"ﾎｯｶｲﾄﾞｳ","kana_city":"ｻｯﾎﾟﾛｼｷﾀｸ","kana_address":"ｼﾉﾛ1ｼﾞｮｳ","pref":"北海道","city":"札幌市北区","address":"篠路一条"},
{"zip_code":"0028022","kana_pref":"ﾎｯｶｲﾄﾞｳ","kana_city":"ｻｯﾎﾟﾛｼｷﾀｸ","kana_address":"ｼﾉﾛ2ｼﾞｮｳ","pref":"北海道","city":"札幌市北区","address":"篠路二条"},
{"zip_code":"0028023","kana_pref":"ﾎｯｶｲﾄﾞｳ","kana_city":"ｻｯﾎﾟﾛｼｷﾀｸ","kana_address":"ｼﾉﾛ3ｼﾞｮｳ","pref":"北海道","city":"札幌市北区","address":"篠路三条"},
{"zip_code":"0028024","kana_pref":"ﾎｯｶｲﾄﾞｳ","kana_city":"ｻｯﾎﾟﾛｼｷﾀｸ","kana_address":"ｼﾉﾛ4ｼﾞｮｳ","pref":"北海道","city":"札幌市北区","address":"篠路四条"},
{"zip_code":"0028025","kana_pref":"ﾎｯｶｲﾄﾞｳ","kana_city":"ｻｯﾎﾟﾛｼｷﾀｸ","kana_address":"ｼﾉﾛ5ｼﾞｮｳ","pref":"北海道","city":"札幌市北区","address":"篠路五条"},
{"zip_code":"0028026","kana_pref":"ﾎｯｶｲﾄﾞｳ","kana_city":"ｻｯﾎﾟﾛｼｷﾀｸ","kana_address":"ｼﾉﾛ6ｼﾞｮｳ","pref":"北海道","city":"札幌市北区","address":"篠路六条"},
{"zip_code":"0028027","kana_pref":"ﾎｯｶｲﾄﾞｳ","kana_city":"ｻｯﾎﾟﾛｼｷﾀｸ","kana_address":"ｼﾉﾛ7ｼﾞｮｳ","pref":"北海道","city":"札幌市北区","address":"篠路七条"},
{"zip_code":"0028028","kana_pref":"ﾎｯｶｲﾄﾞｳ","kana_city":"ｻｯﾎﾟﾛｼｷﾀｸ","kana_address":"ｼﾉﾛ8ｼﾞｮｳ","pref":"北海道","city":"札幌市北区","address":"篠路八条"},
{"zip_code":"0028029","kana_pref":"ﾎｯｶｲﾄﾞｳ","kana_city":"ｻｯﾎﾟﾛｼｷﾀｸ","kana_address":"ｼﾉﾛ9ｼﾞｮｳ","pref":"北海道","city":"札幌市北区","address":"篠路九条"},
{"zip_code":"0028030","kana_pref":"ﾎｯｶｲﾄﾞｳ","kana_city":"ｻｯﾎﾟﾛｼｷﾀｸ","kana_address":"ｼﾉﾛ10ｼﾞｮｳ","pref":"北海道","city":"札幌市北区","address":"篠路十条"},
{"zip_code":"0028052","kana_pref":"ﾎｯｶｲﾄﾞｳ","kana_city":"ｻｯﾎﾟﾛｼｷﾀｸ","kana_address":"ｼﾉﾛﾁｮｳｶﾐｼﾉﾛ","pref":"北海道","city":"札幌市北区","address":"篠路町上篠路"},
{"zip_code":"0028053","kana_pref":"ﾎｯｶｲﾄﾞｳ","kana_city":"ｻｯﾎﾟﾛｼｷﾀｸ","kana_address":"ｼﾉﾛﾁｮｳｼﾉﾛ","pref":"北海道","city":"札幌市北区","address":"篠路町篠路"},
{"zip_code":"0028051","kana_pref":"ﾎｯｶｲﾄﾞｳ","kana_city":"ｻｯﾎﾟﾛｼｷﾀｸ","kana_address":"ｼﾉﾛﾁｮｳﾀｲﾍｲ","pref":"北海道","city":"札幌市北区","address":"篠路町太平"},
{"zip_code":"0028054","kana_pref":"ﾎｯｶｲﾄﾞｳ","kana_city":"ｻｯﾎﾟﾛｼｷﾀｸ","kana_address":"ｼﾉﾛﾁｮｳﾀｸﾎｸ","pref":"北海道","city":"札幌市北区","address":"篠路町拓北"},
{"zip_code":"0028055","kana_pref":"ﾎｯｶｲﾄﾞｳ","kana_city":"ｻｯﾎﾟﾛｼｷﾀｸ","kana_address":"ｼﾉﾛﾁｮｳﾌｸｲ","pref":"北海道","city":"札幌市北区","address":"篠路町福移"},
{"zip_code":"0028001","kana_pref":"ﾎｯｶｲﾄﾞｳ","kana_city":"ｻｯﾎﾟﾛｼｷﾀｸ","kana_address":"ﾀｲﾍｲ1ｼﾞｮｳ","pref":"北海道","city":"札幌市北区","address":"太平一条"},
{"zip_code":"0028002","kana_pref":"ﾎｯｶｲﾄﾞｳ","kana_city":"ｻｯﾎﾟﾛｼｷﾀｸ","kana_address":"ﾀｲﾍｲ2ｼﾞｮｳ","pref":"北海道","city":"札幌市北区","address":"太平二条"},
{"zip_code":"0028003","kana_pref":"ﾎｯｶｲﾄﾞｳ","kana_city":"ｻｯﾎﾟﾛｼｷﾀｸ","kana_address":"ﾀｲﾍｲ3ｼﾞｮｳ","pref":"北海道","city":"札幌市北区","address":"太平三条"},
{"zip_code":"0028004","kana_pref":"ﾎｯｶｲﾄﾞｳ","kana_city":"ｻｯﾎﾟﾛｼｷﾀｸ","kana_address":"ﾀｲﾍｲ4ｼﾞｮｳ","pref":"北海道","city":"札幌市北区","address":"太平四条"},
{"zip_code":"0028005","kana_pref":"ﾎｯｶｲﾄﾞｳ","kana_city":"ｻｯﾎﾟﾛｼｷﾀｸ","kana_address":"ﾀｲﾍｲ5ｼﾞｮｳ","pref":"北海道","city":"札幌市北区","address":"太平五条"},
{"zip_code":"0028006","kana_pref":"ﾎｯｶｲﾄﾞｳ","kana_city":"ｻｯﾎﾟﾛｼｷﾀｸ","kana_address":"ﾀｲﾍｲ6ｼﾞｮｳ","pref":"北海道","city":"札幌市北区","address":"太平六条"},
{"zip_code":"0028007","kana_pref":"ﾎｯｶｲﾄﾞｳ","kana_city":"ｻｯﾎﾟﾛｼｷﾀｸ","kana_address":"ﾀｲﾍｲ7ｼﾞｮｳ","pref":"北海道","city":"札幌市北区","address":"太平七条"},
{"zip_code":"0028008","kana_pref":"ﾎｯｶｲﾄﾞｳ","kana_city":"ｻｯﾎﾟﾛｼｷﾀｸ","kana_address":"ﾀｲﾍｲ8ｼﾞｮｳ","pref":"北海道","city":"札幌市北区","address":"太平八条"},
{"zip_code":"0028009","kana_pref":"ﾎｯｶｲﾄﾞｳ","kana_city":"ｻｯﾎﾟﾛｼｷﾀｸ","kana_address":"ﾀｲﾍｲ9ｼﾞｮｳ","pref":"北海道","city":"札幌市北区","address":"太平九条"},
{"zip_code":"0028010","kana_pref":"ﾎｯｶｲﾄﾞｳ","kana_city":"ｻｯﾎﾟﾛｼｷﾀｸ","kana_address":"ﾀｲﾍｲ10ｼﾞｮｳ","pref":"北海道","city":"札幌市北区","address":"太平十条"},
{"zip_code":"0028011","kana_pref":"ﾎｯｶｲﾄﾞｳ","kana_city":"ｻｯﾎﾟﾛｼｷﾀｸ","kana_address":"ﾀｲﾍｲ11ｼﾞｮｳ","pref":"北海道","city":"札幌市北区","address":"太平十一条"},
{"zip_code":"0028012","kana_pref":"ﾎｯｶｲﾄﾞｳ","kana_city":"ｻｯﾎﾟﾛｼｷﾀｸ","kana_address":"ﾀｲﾍｲ12ｼﾞｮｳ","pref":"北海道","city":"札幌市北区","address":"太平十二条"},
{"zip_code":"0028061","kana_pref":"ﾎｯｶｲﾄﾞｳ","kana_city":"ｻｯﾎﾟﾛｼｷﾀｸ","kana_address":"ﾀｸﾎｸ1ｼﾞｮｳ","pref":"北海道","city":"札幌市北区","address":"拓北一条"},
{"zip_code":"0028062","kana_pref":"ﾎｯｶｲﾄﾞｳ","kana_city":"ｻｯﾎﾟﾛｼｷﾀｸ","kana_address":"ﾀｸﾎｸ2ｼﾞｮｳ","pref":"北海道","city":"札幌市北区","address":"拓北二条"},
{"zip_code":"0028063","kana_pref":"ﾎｯｶｲﾄﾞｳ","kana_city":"ｻｯﾎﾟﾛｼｷﾀｸ","kana_address":"ﾀｸﾎｸ3ｼﾞｮｳ","pref":"北海道","city":"札幌市北区","address":"拓北三条"},
{"zip_code":"0028064","kana_pref":"ﾎｯｶｲﾄﾞｳ","kana_city":"ｻｯﾎﾟﾛｼｷﾀｸ","kana_address":"ﾀｸﾎｸ4ｼﾞｮｳ","pref":"北海道","city":"札幌市北区","address":"拓北四条"},
{"zip_code":"0028065","kana_pref":"ﾎｯｶｲﾄﾞｳ","kana_city":"ｻｯﾎﾟﾛｼｷﾀｸ","kana_address":"ﾀｸﾎｸ5ｼﾞｮｳ","pref":"北海道","city":"札幌市北区","address":"拓北五条"},
{"zip_code":"0028066","kana_pref":"ﾎｯｶｲﾄﾞｳ","kana_city":"ｻｯﾎﾟﾛｼｷﾀｸ","kana_address":"ﾀｸﾎｸ6ｼﾞｮｳ","pref":"北海道","city":"札幌市北区","address":"拓北六条"},
{"zip_code":"0028067","kana_pref":"ﾎｯｶｲﾄﾞｳ","kana_city":"ｻｯﾎﾟﾛｼｷﾀｸ","kana_address":"ﾀｸﾎｸ7ｼﾞｮｳ","pref":"北海道","city":"札幌市北区","address":"拓北七条"},
{"zip_code":"0028068","kana_pref":"ﾎｯｶｲﾄﾞｳ","kana_city":"ｻｯﾎﾟﾛｼｷﾀｸ","kana_address":"ﾀｸﾎｸ8ｼﾞｮｳ","pref":"北海道","city":"札幌市北区","address":"拓北八条"},
{"zip_code":"0020851","kana_pref":"ﾎｯｶｲﾄﾞｳ","kana_city":"ｻｯﾎﾟﾛｼｷﾀｸ","kana_address":"ﾄﾝﾃﾞﾝ1ｼﾞｮｳ","pref":"北海道","city":"札幌市北区","address":"屯田一条"},
{"zip_code":"0020852","kana_pref":"ﾎｯｶｲﾄﾞｳ","kana_city":"ｻｯﾎﾟﾛｼｷﾀｸ","kana_address":"ﾄﾝﾃﾞﾝ2ｼﾞｮｳ","pref":"北海道","city":"札幌市北区","address":"屯田二条"},
{"zip_code":"0020853","kana_pref":"ﾎｯｶｲﾄﾞｳ","kana_city":"ｻｯﾎﾟﾛｼｷﾀｸ","kana_address":"ﾄﾝﾃﾞﾝ3ｼﾞｮｳ","pref":"北海道","city":"札幌市北区","address":"屯田三条"},
{"zip_code":"0020854","kana_pref":"ﾎｯｶｲﾄﾞｳ","kana_city":"ｻｯﾎﾟﾛｼｷﾀｸ","kana_address":"ﾄﾝﾃﾞﾝ4ｼﾞｮｳ","pref":"北海道","city":"札幌市北区","address":"屯田四条"},
{"zip_code":"0020855","kana_pref":"ﾎｯｶｲﾄﾞｳ","kana_city":"ｻｯﾎﾟﾛｼｷﾀｸ","kana_address":"ﾄﾝﾃﾞﾝ5ｼﾞｮｳ","pref":"北海道","city":"札幌市北区","address":"屯田五条"},
{"zip_code":"0020856","kana_pref":"ﾎｯｶｲﾄﾞｳ","kana_city":"ｻｯﾎﾟﾛｼｷﾀｸ","kana_address":"ﾄﾝﾃﾞﾝ6ｼﾞｮｳ","pref":"北海道","city":"札幌市北区","address":"屯田六条"},
{"zip_code":"0020857","kana_pref":"ﾎｯｶｲﾄﾞｳ","kana_city":"ｻｯﾎﾟﾛｼｷﾀｸ","kana_address":"ﾄﾝﾃﾞﾝ7ｼﾞｮｳ","pref":"北海道","city":"札幌市北区","address":"屯田七条"},
{"zip_code":"0020858","kana_pref":"ﾎｯｶｲﾄﾞｳ","kana_city":"ｻｯﾎﾟﾛｼｷﾀｸ","kana_address":"ﾄﾝﾃﾞﾝ8ｼﾞｮｳ","pref":"北海道","city":"札幌市北区","address":"屯田八条"},
{"zip_code":"0020859","kana_pref":"ﾎｯｶｲﾄﾞｳ","kana_city":"ｻｯﾎﾟﾛｼｷﾀｸ","kana_address":"ﾄﾝﾃﾞﾝ9ｼﾞｮｳ","pref":"北海道","city":"札幌市北区","address":"屯田九条"},
{"zip_code":"0020860","kana_pref":"ﾎｯｶｲﾄﾞｳ","kana_city":"ｻｯﾎﾟﾛｼｷﾀｸ","kana_address":"ﾄﾝﾃﾞﾝ10ｼﾞｮｳ","pref":"北海道","city":"札幌市北区","address":"屯田十条"},
{"zip_code":"0020861","kana_pref":"ﾎｯｶｲﾄﾞｳ","kana_city":"ｻｯﾎﾟﾛｼｷﾀｸ","kana_address":"ﾄﾝﾃﾞﾝ11ｼﾞｮｳ","pref":"北海道","city":"札幌市北区","address":"屯田十一条"},
{"zip_code":"0020865","kana_pref":"ﾎｯｶｲﾄﾞｳ","kana_city":"ｻｯﾎﾟﾛｼｷﾀｸ","kana_address":"ﾄﾝﾃﾞﾝﾁｮｳ","pref":"北海道","city":"札幌市北区","address":"屯田町"},
{"zip_code":"0028038","kana_pref":"ﾎｯｶｲﾄﾞｳ","kana_city":"ｻｯﾎﾟﾛｼｷﾀｸ","kana_address":"ﾆｼﾊﾞﾗﾄ","pref":"北海道","city":"札幌市北区","address":"西茨戸"},
{"zip_code":"0028031","kana_pref":"ﾎｯｶｲﾄﾞｳ","kana_city":"ｻｯﾎﾟﾛｼｷﾀｸ","kana_address":"ﾆｼﾊﾞﾗﾄ1ｼﾞｮｳ","pref":"北海道","city":"札幌市北区","address":"西茨戸一条"},
{"zip_code":"0028032","kana_pref":"ﾎｯｶｲﾄﾞｳ","kana_city":"ｻｯﾎﾟﾛｼｷﾀｸ","kana_address":"ﾆｼﾊﾞﾗﾄ2ｼﾞｮｳ","pref":"北海道","city":"札幌市北区","address":"西茨戸二条"},
{"zip_code":"0028033","kana_pref":"ﾎｯｶｲﾄﾞｳ","kana_city":"ｻｯﾎﾟﾛｼｷﾀｸ","kana_address":"ﾆｼﾊﾞﾗﾄ3ｼﾞｮｳ","pref":"北海道","city":"札幌市北区","address":"西茨戸三条"},
{"zip_code":"0028034","kana_pref":"ﾎｯｶｲﾄﾞｳ","kana_city":"ｻｯﾎﾟﾛｼｷﾀｸ","kana_address":"ﾆｼﾊﾞﾗﾄ4ｼﾞｮｳ","pref":"北海道","city":"札幌市北区","address":"西茨戸四条"},
{"zip_code":"0028035","kana_pref":"ﾎｯｶｲﾄﾞｳ","kana_city":"ｻｯﾎﾟﾛｼｷﾀｸ","kana_address":"ﾆｼﾊﾞﾗﾄ5ｼﾞｮｳ","pref":"北海道","city":"札幌市北区","address":"西茨戸五条"},
{"zip_code":"0028036","kana_pref":"ﾎｯｶｲﾄﾞｳ","kana_city":"ｻｯﾎﾟﾛｼｷﾀｸ","kana_address":"ﾆｼﾊﾞﾗﾄ6ｼﾞｮｳ","pref":"北海道","city":"札幌市北区","address":"西茨戸六条"},
{"zip_code":"0028037","kana_pref":"ﾎｯｶｲﾄﾞｳ","kana_city":"ｻｯﾎﾟﾛｼｷﾀｸ","kana_address":"ﾆｼﾊﾞﾗﾄ7ｼﾞｮｳ","pref":"北海道","city":"札幌市北区","address":"西茨戸七条"},
{"zip_code":"0028043","kana_pref":"ﾎｯｶｲﾄﾞｳ","kana_city":"ｻｯﾎﾟﾛｼｷﾀｸ","kana_address":"ﾋｶﾞｼﾊﾞﾗﾄ","pref":"北海道","city":"札幌市北区","address":"東茨戸"},
{"zip_code":"0028041","kana_pref":"ﾎｯｶｲﾄﾞｳ","kana_city":"ｻｯﾎﾟﾛｼｷﾀｸ","kana_address":"ﾋｶﾞｼﾊﾞﾗﾄ1ｼﾞｮｳ","pref":"北海道","city":"札幌市北区","address":"東茨戸一条"},
{"zip_code":"0028042","kana_pref":"ﾎｯｶｲﾄﾞｳ","kana_city":"ｻｯﾎﾟﾛｼｷﾀｸ","kana_address":"ﾋｶﾞｼﾊﾞﾗﾄ2ｼﾞｮｳ","pref":"北海道","city":"札幌市北区","address":"東茨戸二条"},
{"zip_code":"0028091","kana_pref":"ﾎｯｶｲﾄﾞｳ","kana_city":"ｻｯﾎﾟﾛｼｷﾀｸ","kana_address":"ﾐﾅﾐｱｲﾉｻﾄ","pref":"北海道","city":"札幌市北区","address":"南あいの里"},
{"zip_code":"0028081","kana_pref":"ﾎｯｶｲﾄﾞｳ","kana_city":"ｻｯﾎﾟﾛｼｷﾀｸ","kana_address":"ﾕﾘｶﾞﾊﾗ","pref":"北海道","city":"札幌市北区","address":"百合が原"},
{"zip_code":"0028082","kana_pref":"ﾎｯｶｲﾄﾞｳ","kana_city":"ｻｯﾎﾟﾛｼｷﾀｸ","kana_address":"ﾕﾘｶﾞﾊﾗｺｳｴﾝ","pref":"北海道","city":"札幌市北区","address":"百合が原公園"},
{"zip_code":"0028089","kana_pref":"ﾎｯｶｲﾄﾞｳ","kana_city":"ｲｼｶﾘｸﾞﾝﾄｳﾍﾞﾂﾁｮｳ","kana_address":"ﾋﾞﾄｴ","pref":"北海道","city":"石狩郡当別町","address":"ビトエ"}]}