{"zip_code":[
{"zip_code":"0030000","kana_pref":"ﾎｯｶｲﾄﾞｳ","kana_city":"ｻｯﾎﾟﾛｼｼﾛｲｼｸ","kana_address":"","pref":"北海道","city":"札幌市白石区","address":""},
{"zip_code":"0030851","kana_pref":"ﾎｯｶｲﾄﾞｳ","kana_city":"ｻｯﾎﾟﾛｼｼﾛｲｼｸ","kana_address":"ｶﾜｷﾀ1ｼﾞｮｳ","pref":"北海道","city":"札幌市白石区","address":"川北一条"},
{"zip_code":"0030852","kana_pref":"ﾎｯｶｲﾄﾞｳ","kana_city":"ｻｯﾎﾟﾛｼｼﾛｲｼｸ","kana_address":"ｶﾜｷﾀ2ｼﾞｮｳ","pref":"北海道","city":"札幌市白石区","address":"川北二条"},
{"zip_code":"0030853","kana_pref":"ﾎｯｶｲﾄﾞｳ","kana_city":"ｻｯﾎﾟﾛｼｼﾛｲｼｸ","kana_address":"ｶﾜｷﾀ3ｼﾞｮｳ","pref":"北海道","city":"札幌市白石区","address":"川北三条"},
{"zip_code":"0030854","kana_pref":"ﾎｯｶｲﾄﾞｳ","kana_city":"ｻｯﾎﾟﾛｼｼﾛｲｼｸ","kana_address":"ｶﾜｷﾀ4ｼﾞｮｳ","pref":"北海道","city":"札幌市白石区","address":"川北四条"},
{"zip_code":"0030855","kana_pref":"ﾎｯｶｲﾄﾞｳ","kana_city":"ｻｯﾎﾟﾛｼｼﾛｲｼｸ","kana_address":"ｶﾜｷﾀ5ｼﾞｮｳ","pref":"北海道","city":"札幌市白石区","address":"川北五条"},
{"zip_code":"0030869","kana_pref":"ﾎｯｶｲﾄﾞｳ","kana_city":"ｻｯﾎﾟﾛｼｼﾛｲｼｸ","kana_address":"ｶﾜｼﾓ","pref":"北海道","city":"札幌市白石区","address":"川下"},
{"zip_code":"0030861","kana_pref":"ﾎｯｶｲﾄﾞｳ","kana_city":"ｻｯﾎﾟﾛｼｼﾛｲｼｸ","kana_address":"ｶﾜｼﾓ1ｼﾞｮｳ","pref":"北海道","city":"札幌市白石区","address":"川下一条"},
{"zip_code":"0030862","kana_pref":"ﾎｯｶｲﾄﾞｳ","kana_city":"ｻｯﾎﾟﾛｼｼﾛｲｼｸ","kana_address":"ｶﾜｼﾓ2ｼﾞｮｳ","pref":"北海道","city":"札幌市白石区","address":"川下二条"},
{"zip_code":"0030863","kana_pref":"ﾎｯｶｲﾄﾞｳ","kana_city":"ｻｯﾎﾟﾛｼｼﾛｲｼｸ","kana_address":"ｶﾜｼﾓ3ｼﾞｮｳ","pref":"北海道","city":"札幌市白石区","address":"川下三条"},
{"zip_code":"0030864","kana_pref":"ﾎｯｶｲﾄﾞｳ","kana_city":"ｻｯﾎﾟﾛｼｼﾛｲｼｸ","kana_address":"ｶﾜｼﾓ4ｼﾞｮｳ","pref":"北海道","city":"札幌市白石区","address":"川下四条"},
{"zip_code":"0030865","kana_pref":"ﾎｯｶｲﾄﾞｳ","kana_city":"ｻｯﾎﾟﾛｼｼﾛｲｼｸ","kana_address":"ｶﾜｼﾓ5ｼﾞｮｳ","pref":"北海道","city":"札幌市白石区","address":"川下五条"},
{"zip_code":"0030859","kana_pref":"ﾎｯｶｲﾄﾞｳ","kana_city":"ｻｯﾎﾟﾛｼｼﾛｲｼｸ","kana_address":"ｶﾜｷﾀ","pref":"北海道","city":"札幌市白石区","address":"川北"},
{"zip_code":"0030801","kana_pref":"ﾎｯｶｲﾄﾞｳ","kana_city":"ｻｯﾎﾟﾛｼｼﾛｲｼｸ","kana_address":"ｷｸｽｲ1ｼﾞｮｳ","pref":"北海道","city":"札幌市白石区","address":"菊水一条"},
{"zip_code":"0030802","kana_pref":"ﾎｯｶｲﾄﾞｳ","kana_city":"ｻｯﾎﾟﾛｼｼﾛｲｼｸ","kana_address":"ｷｸｽｲ2ｼﾞｮｳ","pref":"北海道","city":"札幌市白石区","address":"菊水二条"},
{"zip_code":"0030803","kana_pref":"ﾎｯｶｲﾄﾞｳ","kana_city":"ｻｯﾎﾟﾛｼｼﾛｲｼｸ","kana_address":"ｷｸｽｲ3ｼﾞｮｳ","pref":"北海道","city":"札幌市白石区","address":"菊水三条"},
{"zip_code":"0030804","kana_pref":"ﾎｯｶｲﾄﾞｳ","kana_city":"ｻｯﾎﾟﾛｼｼﾛｲｼｸ","kana_address":"ｷｸｽｲ4ｼﾞｮｳ","pref":"北海道","city":"札幌市白石区","address":"菊水四条"},
{"zip_code":"0030805","kana_pref":"ﾎｯｶｲﾄﾞｳ","kana_city":"ｻｯﾎﾟﾛｼｼﾛｲｼｸ","kana_address":"ｷｸｽｲ5ｼﾞｮｳ","pref":"北海道","city":"札幌市白石区","address":"菊水五条"},
{"zip_code":"0030806","kana_pref":"ﾎｯｶｲﾄﾞｳ","kana_city":"ｻｯﾎﾟﾛｼｼﾛｲｼｸ","kana_address":"ｷｸｽｲ6ｼﾞｮｳ","pref":"北海道","city":"札幌市白石区","address":"菊水六条"},
{"zip_code":"0030807","kana_pref":"ﾎｯｶｲﾄﾞｳ","kana_city":"ｻｯﾎﾟﾛｼｼﾛｲｼｸ","kana_address":"ｷｸｽｲ7ｼﾞｮｳ","pref":"北海道","city":"札幌市白石区","address":"菊水七条"},
{"zip_code":"0030808","kana_pref":"ﾎｯｶｲﾄﾞｳ","kana_city":"ｻｯﾎﾟﾛｼｼﾛｲｼｸ","kana_address":"ｷｸｽｲ8ｼﾞｮｳ","pref":"北海道","city":"札幌市白石区","address":"菊水八条"},
{"zip_code":"0030809","kana_pref":"ﾎｯｶｲﾄﾞｳ","kana_city":"ｻｯﾎﾟﾛｼｼﾛｲｼｸ","kana_address":"ｷｸｽｲ9ｼﾞｮｳ","pref":"北海道","city":"札幌市白石区","address":"菊水九条"},
{"zip_code":"0030811","kana_pref":"ﾎｯｶｲﾄﾞｳ","kana_city":"ｻｯﾎﾟﾛｼｼﾛｲｼｸ","kana_address":"ｷｸｽｲｶﾐﾏﾁ1ｼﾞｮｳ","pref":"北海道","city":"札幌市白石区","address":"菊水上町一条"},
{"zip_code":"0030812","kana_pref":"ﾎｯｶｲﾄﾞｳ","kana_city":"ｻｯﾎﾟﾛｼｼﾛｲｼｸ","kana_address":"ｷｸｽｲｶﾐﾏﾁ2ｼﾞｮｳ","pref":"北海道","city":"札幌市白石区","address":"菊水上町二条"},
{"zip_code":"0030813","kana_pref":"ﾎｯｶｲﾄﾞｳ","kana_city":"ｻｯﾎﾟﾛｼｼﾛｲｼｸ","kana_address":"ｷｸｽｲｶﾐﾏﾁ3ｼﾞｮｳ","pref":"北海道","city":"札幌市白石区","address":"菊水上町三条"},
{"zip_code":"0030814","kana_pref":"ﾎｯｶｲﾄﾞｳ","kana_city":"ｻｯﾎﾟﾛｼｼﾛｲｼｸ","kana_address":"ｷｸｽｲｶﾐﾏﾁ4ｼﾞｮｳ","pref":"北海道","city":"札幌市白石区","address":"菊水上町四条"},
{"zip_code":"0030821","kana_pref":"ﾎｯｶｲﾄﾞｳ","kana_city":"ｻｯﾎﾟﾛｼｼﾛｲｼｸ","kana_address":"ｷｸｽｲﾓﾄﾏﾁ1ｼﾞｮｳ","pref":"北海道","city":"札幌市白石区","address":"菊水元町一条"},
{"zip_code":"0030822","kana_pref":"ﾎｯｶｲﾄﾞｳ","kana_city":"ｻｯﾎﾟﾛｼｼﾛｲｼｸ","kana_address":"ｷｸｽｲﾓﾄﾏﾁ2ｼﾞｮｳ","pref":"北海道","city":"札幌市白石区","address":"菊水元町二条"},
{"zip_code":"0030823","kana_pref":"ﾎｯｶｲﾄﾞｳ","kana_city":"ｻｯﾎﾟﾛｼｼﾛｲｼｸ","kana_address":"ｷｸｽｲﾓﾄﾏﾁ3ｼﾞｮｳ","pref":"北海道","city":"札幌市白石区","address":"菊水元町三条"},
{"zip_code":"0030824","kana_pref":"ﾎｯｶｲﾄﾞｳ","kana_city":"ｻｯﾎﾟﾛｼｼﾛｲｼｸ","kana_address":"ｷｸｽｲﾓﾄﾏﾁ4ｼﾞｮｳ","pref":"北海道","city":"札幌市白石区","address":"菊水元町四条"},
{"zip_code":"0030825","kana_pref":"ﾎｯｶｲﾄﾞｳ","kana_city":"ｻｯﾎﾟﾛｼｼﾛｲｼｸ","kana_address":"ｷｸｽｲﾓﾄﾏﾁ5ｼﾞｮｳ","pref":"北海道","city":"札幌市白石区","address":"菊水元町五条"},
{"zip_code":"0030826","kana_pref":"ﾎｯｶｲﾄﾞｳ","kana_city":"ｻｯﾎﾟﾛｼｼﾛｲｼｸ","kana_address":"ｷｸｽｲﾓﾄﾏﾁ6ｼﾞｮｳ","pref":"北海道","city":"札幌市白石区","address":"菊水元町六条"},
{"zip_code":"0030827","kana_pref":"ﾎｯｶｲﾄﾞｳ","kana_city":"ｻｯﾎﾟﾛｼｼﾛｲｼｸ","kana_address":"ｷｸｽｲﾓﾄﾏﾁ7ｼﾞｮｳ","pref":"北海道","city":"札幌市白石区","address":"菊水元町七条"},
{"zip_code":"0030828","kana_pref":"ﾎｯｶｲﾄﾞｳ","kana_city":"ｻｯﾎﾟﾛｼｼﾛｲｼｸ","kana_address":"ｷｸｽｲﾓﾄﾏﾁ8ｼﾞｮｳ","pref":"北海道","city":"札幌市白石区","address":"菊水元町八条"},
{"zip_code":"0030829","kana_pref":"ﾎｯｶｲﾄﾞｳ","kana_city":"ｻｯﾎﾟﾛｼｼﾛｲｼｸ","kana_address":"ｷｸｽｲﾓﾄﾏﾁ9ｼﾞｮｳ","pref":"北海道","city":"札幌市白石区","address":"菊水元町九条"},
{"zip_code":"0030830","kana_pref":"ﾎｯｶｲﾄﾞｳ","kana_city":"ｻｯﾎﾟﾛｼｼﾛｲｼｸ","kana_address":"ｷｸｽｲﾓﾄﾏﾁ10ｼﾞｮｳ","pref":"北海道","city":"札幌市白石区","address":"菊水元町十条"},
{"zip_code":"0030849","kana_pref":"ﾎｯｶｲﾄﾞｳ","kana_city":"ｻｯﾎﾟﾛｼｼﾛｲｼｸ","kana_address":"ｷﾀｺﾞｳ","pref":"北海道","city":"札幌市白石区","address":"北郷"},
{"zip_code":"0030831","kana_pref":"ﾎｯｶｲﾄﾞｳ","kana_city":"ｻｯﾎﾟﾛｼｼﾛｲｼｸ","kana_address":"ｷﾀｺﾞｳ1ｼﾞｮｳ","pref":"北海道","city":"札幌市白石区","address":"北郷一条"},
{"zip_code":"0030832","kana_pref":"ﾎｯｶｲﾄﾞｳ","kana_city":"ｻｯﾎﾟﾛｼｼﾛｲｼｸ","kana_address":"ｷﾀｺﾞｳ2ｼﾞｮｳ","pref":"北海道","city":"札幌市白石区","address":"北郷二条"},
{"zip_code":"0030833","kana_pref":"ﾎｯｶｲﾄﾞｳ","kana_city":"ｻｯﾎﾟﾛｼｼﾛｲｼｸ","kana_address":"ｷﾀｺﾞｳ3ｼﾞｮｳ","pref":"北海道","city":"札幌市白石区","address":"北郷三条"},
{"zip_code":"0030834","kana_pref":"ﾎｯｶｲﾄﾞｳ","kana_city":"ｻｯﾎﾟﾛｼｼﾛｲｼｸ","kana_address":"ｷﾀｺﾞｳ4ｼﾞｮｳ","pref":"北海道","city":"札幌市白石区","address":"北郷四条"},
{"zip_code":"0030835","kana_pref":"ﾎｯｶｲﾄﾞｳ","kana_city":"ｻｯﾎﾟﾛｼｼﾛｲｼｸ","kana_address":"ｷﾀｺﾞｳ5ｼﾞｮｳ","pref":"北海道","city":"札幌市白石区","address":"北郷五条"},
{"zip_code":"0030836","kana_pref":"ﾎｯｶｲﾄﾞｳ","kana_city":"ｻｯﾎﾟﾛｼｼﾛｲｼｸ","kana_address":"ｷﾀｺﾞｳ6ｼﾞｮｳ","pref":"北海道","city":"札幌市白石区","address":"北郷六条"},
{"zip_code":"0030837","kana_pref":"ﾎｯｶｲﾄﾞｳ","kana_city":"ｻｯﾎﾟﾛｼｼﾛｲｼｸ","kana_address":"ｷﾀｺﾞｳ7ｼﾞｮｳ","pref":"北海道","city":"札幌市白石区","address":"北郷七条"},
{"zip_code":"0030838","kana_pref":"ﾎｯｶｲﾄﾞｳ","kana_city":"ｻｯﾎﾟﾛｼｼﾛｲｼｸ","kana_address":"ｷﾀｺﾞｳ8ｼﾞｮｳ","pref":"北海道","city":"札幌市白石区","address":"北郷八条"},
{"zip_code":"0030839","kana_pref":"ﾎｯｶｲﾄﾞｳ","kana_city":"ｻｯﾎﾟﾛｼｼﾛｲｼｸ","kana_address":"ｷﾀｺﾞｳ9ｼﾞｮｳ","pref":"北海道","city":"札幌市白石区","address":"北郷九条"},
{"zip_code":"0030840","kana_pref":"ﾎｯｶｲﾄﾞｳ","kana_city":"ｻｯﾎﾟﾛｼｼﾛｲｼｸ","kana_address":"ｷﾀｺﾞｳ10ｼﾞｮｳ","pref":"北海道","city":"札幌市白石区","address":"北郷十条"},
{"zip_code":"0030021","kana_pref":"ﾎｯｶｲﾄﾞｳ","kana_city":"ｻｯﾎﾟﾛｼｼﾛｲｼｸ","kana_address":"ｻｶｴﾄﾞｵﾘ","pref":"北海道","city":"札幌市白石区","address":"栄通"},
{"zip_code":"0030011","kana_pref":"ﾎｯｶｲﾄﾞｳ","kana_city":"ｻｯﾎﾟﾛｼｼﾛｲｼｸ","kana_address":"ﾁｭｳｵｳ1ｼﾞｮｳ","pref":"北海道","city":"札幌市白石区","address":"中央一条"},
{"zip_code":"0030012","kana_pref":"ﾎｯｶｲﾄﾞｳ","kana_city":"ｻｯﾎﾟﾛｼｼﾛｲｼｸ","kana_address":"ﾁｭｳｵｳ2ｼﾞｮｳ","pref":"北海道","city":"札幌市白石区","address":"中央二条"},
{"zip_code":"0030013","kana_pref":"ﾎｯｶｲﾄﾞｳ","kana_city":"ｻｯﾎﾟﾛｼｼﾛｲｼｸ","kana_address":"ﾁｭｳｵｳ3ｼﾞｮｳ","pref":"北海道","city":"札幌市白石区","address":"中央三条"},
{"zip_code":"0030022","kana_pref":"ﾎｯｶｲﾄﾞｳ","kana_city":"ｻｯﾎﾟﾛｼｼﾛｲｼｸ","kana_address":"ﾅﾝｺﾞｳﾄﾞｵﾘ","pref":"北海道","city":"札幌市白石区","address":"南郷通"},
{"zip_code":"0030023","kana_pref":"ﾎｯｶｲﾄﾞｳ","kana_city":"ｻｯﾎﾟﾛｼｼﾛｲｼｸ","kana_address":"ﾅﾝｺﾞｳﾄﾞｵﾘ","pref":"北海道","city":"札幌市白石区","address":"南郷通"},
{"zip_code":"0030001","kana_pref":"ﾎｯｶｲﾄﾞｳ","kana_city":"ｻｯﾎﾟﾛｼｼﾛｲｼｸ","kana_address":"ﾋｶﾞｼｻｯﾎﾟﾛ1ｼﾞｮｳ","pref":"北海道","city":"札幌市白石区","address":"東札幌一条"},
{"zip_code":"0030002","kana_pref":"ﾎｯｶｲﾄﾞｳ","kana_city":"ｻｯﾎﾟﾛｼｼﾛｲｼｸ","kana_address":"ﾋｶﾞｼｻｯﾎﾟﾛ2ｼﾞｮｳ","pref":"北海道","city":"札幌市白石区","address":"東札幌二条"},
{"zip_code":"0030003","kana_pref":"ﾎｯｶｲﾄﾞｳ","kana_city":"ｻｯﾎﾟﾛｼｼﾛｲｼｸ","kana_address":"ﾋｶﾞｼｻｯﾎﾟﾛ3ｼﾞｮｳ","pref":"北海道","city":"札幌市白石区","address":"東札幌三条"},
{"zip_code":"0030004","kana_pref":"ﾎｯｶｲﾄﾞｳ","kana_city":"ｻｯﾎﾟﾛｼｼﾛｲｼｸ","kana_address":"ﾋｶﾞｼｻｯﾎﾟﾛ4ｼﾞｮｳ","pref":"北海道","city":"札幌市白石区","address":"東札幌四条"},
{"zip_code":"0030005","kana_pref":"ﾎｯｶｲﾄﾞｳ","kana_city":"ｻｯﾎﾟﾛｼｼﾛｲｼｸ","kana_address":"ﾋｶﾞｼｻｯﾎﾟﾛ5ｼﾞｮｳ","pref":"北海道","city":"札幌市白石区","address":"東札幌五条"},
{"zip_code":"0030006","kana_pref":"ﾎｯｶｲﾄﾞｳ","kana_city":"ｻｯﾎﾟﾛｼｼﾛｲｼｸ","kana_address":"ﾋｶﾞｼｻｯﾎﾟﾛ6ｼﾞｮｳ","pref":"北海道","city":"札幌市白石区","address":"東札幌六条"},
{"zip_code":"0030876","kana_pref":"ﾎｯｶｲﾄﾞｳ","kana_city":"ｻｯﾎﾟﾛｼｼﾛｲｼｸ","kana_address":"ﾋｶﾞｼﾖﾈｻﾄ","pref":"北海道","city":"札幌市白石区","address":"東米里"},
{"zip_code":"0030028","kana_pref":"ﾎｯｶｲﾄﾞｳ","kana_city":"ｻｯﾎﾟﾛｼｼﾛｲｼｸ","kana_address":"ﾍｲﾜﾄﾞｵﾘ","pref":"北海道","city":"札幌市白石区","address":"平和通"},
{"zip_code":"0030029","kana_pref":"ﾎｯｶｲﾄﾞｳ","kana_city":"ｻｯﾎﾟﾛｼｼﾛｲｼｸ","kana_address":"ﾍｲﾜﾄﾞｵﾘ","pref":"北海道","city":"札幌市白石区","address":"平和通"},
{"zip_code":"0030024","kana_pref":"ﾎｯｶｲﾄﾞｳ","kana_city":"ｻｯﾎﾟﾛｼｼﾛｲｼｸ","kana_address":"ﾎﾝｺﾞｳﾄﾞｵﾘ","pref":"北海道","city":"札幌市白石区","address":"本郷通"},
{"zip_code":"0030025","kana_pref":"ﾎｯｶｲﾄﾞｳ","kana_city":"ｻｯﾎﾟﾛｼｼﾛｲｼｸ","kana_address":"ﾎﾝｺﾞｳﾄﾞｵﾘ","pref":"北海道","city":"札幌市白石区","address":"本郷通"},
{"zip_code":"0030026","kana_pref":"ﾎｯｶｲﾄﾞｳ","kana_city":"ｻｯﾎﾟﾛｼｼﾛｲｼｸ","kana_address":"ﾎﾝﾄﾞｵﾘ","pref":"北海道","city":"札幌市白石区","address":"本通"},
{"zip_code":"0030027","kana_pref":"ﾎｯｶｲﾄﾞｳ","kana_city":"ｻｯﾎﾟﾛｼｼﾛｲｼｸ","kana_address":"ﾎﾝﾄﾞｵﾘ","pref":"北海道","city":"札幌市白石区","address":"本通"},
{"zip_code":"0030871","kana_pref":"ﾎｯｶｲﾄﾞｳ","kana_city":"ｻｯﾎﾟﾛｼｼﾛｲｼｸ","kana_address":"ﾖﾈｻﾄ1ｼﾞｮｳ","pref":"北海道","city":"札幌市白石区","address":"米里一条"},
{"zip_code":"0030872","kana_pref":"ﾎｯｶｲﾄﾞｳ","kana_city":"ｻｯﾎﾟﾛｼｼﾛｲｼｸ","kana_address":"ﾖﾈｻﾄ2ｼﾞｮｳ","pref":"北海道","city":"札幌市白石区","address":"米里二条"},
{"zip_code":"0030873","kana_pref":"ﾎｯｶｲﾄﾞｳ","kana_city":"ｻｯﾎﾟﾛｼｼﾛｲｼｸ","kana_address":"ﾖﾈｻﾄ3ｼﾞｮｳ","pref":"北海道","city":"札幌市白石区","address":"米里三条"},
{"zip_code":"0030874","kana_pref":"ﾎｯｶｲﾄﾞｳ","kana_city":"ｻｯﾎﾟﾛｼｼﾛｲｼｸ","kana_address":"ﾖﾈｻﾄ4ｼﾞｮｳ","pref":"北海道","city":"札幌市白石区","address":"米里四条"},
{"zip_code":"0030875","kana_pref":"ﾎｯｶｲﾄﾞｳ","kana_city":"ｻｯﾎﾟﾛｼｼﾛｲｼｸ","kana_address":"ﾖﾈｻﾄ5ｼﾞｮｳ","pref":"北海道","city":"札幌市白石区","address":"米里五条"},
{"zip_code":"0030030","kana_pref":"ﾎｯｶｲﾄﾞｳ","kana_city":"ｻｯﾎﾟﾛｼｼﾛｲｼｸ","kana_address":"ﾘｭｳﾂｳｾﾝﾀｰ","pref":"北海道","city":"札幌市白石区","address":"流通センター"}]}