{"zip_code":[
{"zip_code":"0040000","kana_pref":"ﾎｯｶｲﾄﾞｳ","kana_city":"ｻｯﾎﾟﾛｼｱﾂﾍﾞﾂｸ","kana_address":"","pref":"北海道","city":"札幌市厚別区","address":""},
{"zip_code":"0040021","kana_pref":"ﾎｯｶｲﾄﾞｳ","kana_city":"ｻｯﾎﾟﾛｼｱﾂﾍﾞﾂｸ","kana_address":"ｱｵﾊﾞﾁｮｳ","pref":"北海道","city":"札幌市厚別区","address":"青葉町"},
{"zip_code":"0040071","kana_pref":"ﾎｯｶｲﾄﾞｳ","kana_city":"ｻｯﾎﾟﾛｼｱﾂﾍﾞﾂｸ","kana_address":"ｱﾂﾍﾞﾂｷﾀ1ｼﾞｮｳ","pref":"北海道","city":"札幌市厚別区","address":"厚別北一条"},
{"zip_code":"0040072","kana_pref":"ﾎｯｶｲﾄﾞｳ","kana_city":"ｻｯﾎﾟﾛｼｱﾂﾍﾞﾂｸ","kana_address":"ｱﾂﾍﾞﾂｷﾀ2ｼﾞｮｳ","pref":"北海道","city":"札幌市厚別区","address":"厚別北二条"},
{"zip_code":"0040073","kana_pref":"ﾎｯｶｲﾄﾞｳ","kana_city":"ｻｯﾎﾟﾛｼｱﾂﾍﾞﾂｸ","kana_address":"ｱﾂﾍﾞﾂｷﾀ3ｼﾞｮｳ","pref":"北海道","city":"札幌市厚別区","address":"厚別北三条"},
{"zip_code":"0040074","kana_pref":"ﾎｯｶｲﾄﾞｳ","kana_city":"ｻｯﾎﾟﾛｼｱﾂﾍﾞﾂｸ","kana_address":"ｱﾂﾍﾞﾂｷﾀ4ｼﾞｮｳ","pref":"北海道","city":"札幌市厚別区","address":"厚別北四条"},
{"zip_code":"0040075","kana_pref":"ﾎｯｶｲﾄﾞｳ","kana_city":"ｻｯﾎﾟﾛｼｱﾂﾍﾞﾂｸ","kana_address":"ｱﾂﾍﾞﾂｷﾀ5ｼﾞｮｳ","pref":"北海道","city":"札幌市厚別区","address":"厚別北五条"},
{"zip_code":"0040076","kana_pref":"ﾎｯｶｲﾄﾞｳ","kana_city":"ｻｯﾎﾟﾛｼｱﾂﾍﾞﾂｸ","kana_address":"ｱﾂﾍﾞﾂｷﾀ6ｼﾞｮｳ","pref":"北海道","city":"札幌市厚別区","address":"厚別北六条"},
{"zip_code":"0040051","kana_pref":"ﾎｯｶｲﾄﾞｳ","kana_city":"ｻｯﾎﾟﾛｼｱﾂﾍﾞﾂｸ","kana_address":"ｱﾂﾍﾞﾂﾁｭｳｵｳ1ｼﾞｮｳ","pref":"北海道","city":"札幌市厚別区","address":"厚別中央一条"},
{"zip_code":"0040052","kana_pref":"ﾎｯｶｲﾄﾞｳ","kana_city":"ｻｯﾎﾟﾛｼｱﾂﾍﾞﾂｸ","kana_address":"ｱﾂﾍﾞﾂﾁｭｳｵｳ2ｼﾞｮｳ","pref":"北海道","city":"札幌市厚別区","address":"厚別中央二条"},
{"zip_code":"0040053","kana_pref":"ﾎｯｶｲﾄﾞｳ","kana_city":"ｻｯﾎﾟﾛｼｱﾂﾍﾞﾂｸ","kana_address":"ｱﾂﾍﾞﾂﾁｭｳｵｳ3ｼﾞｮｳ","pref":"北海道","city":"札幌市厚別区","address":"厚別中央三条"},
{"zip_code":"0040054","kana_pref":"ﾎｯｶｲﾄﾞｳ","kana_city":"ｻｯﾎﾟﾛｼｱﾂﾍﾞﾂｸ","kana_address":"ｱﾂﾍﾞﾂﾁｭｳｵｳ4ｼﾞｮｳ","pref":"北海道","city":"札幌市厚別区","address":"厚別中央四条"},
{"zip_code":"0040055","kana_pref":"ﾎｯｶｲﾄﾞｳ","kana_city":"ｻｯﾎﾟﾛｼｱﾂﾍﾞﾂｸ","kana_address":"ｱﾂﾍﾞﾂﾁｭｳｵｳ5ｼﾞｮｳ","pref":"北海道","city":"札幌市厚別区","address":"厚別中央五条"},
{"zip_code":"0040039","kana_pref":"ﾎｯｶｲﾄﾞｳ","kana_city":"ｻｯﾎﾟﾛｼｱﾂﾍﾞﾂｸ","kana_address":"ｱﾂﾍﾞﾂﾁｮｳｶﾐﾉｯﾎﾟﾛ","pref":"北海道","city":"札幌市厚別区","address":"厚別町上野幌"},
{"zip_code":"0040007","kana_pref":"ﾎｯｶｲﾄﾞｳ","kana_city":"ｻｯﾎﾟﾛｼｱﾂﾍﾞﾂｸ","kana_address":"ｱﾂﾍﾞﾂﾁｮｳｼﾓﾉｯﾎﾟﾛ","pref":"北海道","city":"札幌市厚別区","address":"厚別町下野幌"},
{"zip_code":"0040006","kana_pref":"ﾎｯｶｲﾄﾞｳ","kana_city":"ｻｯﾎﾟﾛｼｱﾂﾍﾞﾂｸ","kana_address":"ｱﾂﾍﾞﾂﾁｮｳｺﾉｯﾎﾟﾛ","pref":"北海道","city":"札幌市厚別区","address":"厚別町小野幌"},
{"zip_code":"0040069","kana_pref":"ﾎｯｶｲﾄﾞｳ","kana_city":"ｻｯﾎﾟﾛｼｱﾂﾍﾞﾂｸ","kana_address":"ｱﾂﾍﾞﾂﾁｮｳﾔﾏﾓﾄ","pref":"北海道","city":"札幌市厚別区","address":"厚別町山本"},
{"zip_code":"0040068","kana_pref":"ﾎｯｶｲﾄﾞｳ","kana_city":"ｻｯﾎﾟﾛｼｱﾂﾍﾞﾂｸ","kana_address":"ｱﾂﾍﾞﾂﾆｼ","pref":"北海道","city":"札幌市厚別区","address":"厚別西"},
{"zip_code":"0040061","kana_pref":"ﾎｯｶｲﾄﾞｳ","kana_city":"ｻｯﾎﾟﾛｼｱﾂﾍﾞﾂｸ","kana_address":"ｱﾂﾍﾞﾂﾆｼ1ｼﾞｮｳ","pref":"北海道","city":"札幌市厚別区","address":"厚別西一条"},
{"zip_code":"0040062","kana_pref":"ﾎｯｶｲﾄﾞｳ","kana_city":"ｻｯﾎﾟﾛｼｱﾂﾍﾞﾂｸ","kana_address":"ｱﾂﾍﾞﾂﾆｼ2ｼﾞｮｳ","pref":"北海道","city":"札幌市厚別区","address":"厚別西二条"},
{"zip_code":"0040063","kana_pref":"ﾎｯｶｲﾄﾞｳ","kana_city":"ｻｯﾎﾟﾛｼｱﾂﾍﾞﾂｸ","kana_address":"ｱﾂﾍﾞﾂﾆｼ3ｼﾞｮｳ","pref":"北海道","city":"札幌市厚別区","address":"厚別西三条"},
{"zip_code":"0040064","kana_pref":"ﾎｯｶｲﾄﾞｳ","kana_city":"ｻｯﾎﾟﾛｼｱﾂﾍﾞﾂｸ","kana_address":"ｱﾂﾍﾞﾂﾆｼ4ｼﾞｮｳ","pref":"北海道","city":"札幌市厚別区","address":"厚別西四条"},
{"zip_code":"0040065","kana_pref":"ﾎｯｶｲﾄﾞｳ","kana_city":"ｻｯﾎﾟﾛｼｱﾂﾍﾞﾂｸ","kana_address":"ｱﾂﾍﾞﾂﾆｼ5ｼﾞｮｳ","pref":"北海道","city":"札幌市厚別区","address":"厚別西五条"},
{"zip_code":"0040001","kana_pref":"ﾎｯｶｲﾄﾞｳ","kana_city":"ｻｯﾎﾟﾛｼｱﾂﾍﾞﾂｸ","kana_address":"ｱﾂﾍﾞﾂﾋｶﾞｼ1ｼﾞｮｳ","pref":"北海道","city":"札幌市厚別区","address":"厚別東一条"},
{"zip_code":"0040002","kana_pref":"ﾎｯｶｲﾄﾞｳ","kana_city":"ｻｯﾎﾟﾛｼｱﾂﾍﾞﾂｸ","kana_address":"ｱﾂﾍﾞﾂﾋｶﾞｼ2ｼﾞｮｳ","pref":"北海道","city":"札幌市厚別区","address":"厚別東二条"},
{"zip_code":"0040003","kana_pref":"ﾎｯｶｲﾄﾞｳ","kana_city":"ｻｯﾎﾟﾛｼｱﾂﾍﾞﾂｸ","kana_address":"ｱﾂﾍﾞﾂﾋｶﾞｼ3ｼﾞｮｳ","pref":"北海道","city":"札幌市厚別区","address":"厚別東三条"},
{"zip_code":"0040004","kana_pref":"ﾎｯｶｲﾄﾞｳ","kana_city":"ｻｯﾎﾟﾛｼｱﾂﾍﾞﾂｸ","kana_address":"ｱﾂﾍﾞﾂﾋｶﾞｼ4ｼﾞｮｳ","pref":"北海道","city":"札幌市厚別区","address":"厚別東四条"},
{"zip_code":"0040005","kana_pref":"ﾎｯｶｲﾄﾞｳ","kana_city":"ｻｯﾎﾟﾛｼｱﾂﾍﾞﾂｸ","kana_address":"ｱﾂﾍﾞﾂﾋｶﾞｼ5ｼﾞｮｳ","pref":"北海道","city":"札幌市厚別区","address":"厚別東五条"},
{"zip_code":"0040022","kana_pref":"ﾎｯｶｲﾄﾞｳ","kana_city":"ｻｯﾎﾟﾛｼｱﾂﾍﾞﾂｸ","kana_address":"ｱﾂﾍﾞﾂﾐﾅﾐ","pref":"北海道","city":"札幌市厚別区","address":"厚別南"},
{"zip_code":"0040041","kana_pref":"ﾎｯｶｲﾄﾞｳ","kana_city":"ｻｯﾎﾟﾛｼｱﾂﾍﾞﾂｸ","kana_address":"ｵｵﾔﾁﾋｶﾞｼ","pref":"北海道","city":"札幌市厚別区","address":"大谷地東"},
{"zip_code":"0040042","kana_pref":"ﾎｯｶｲﾄﾞｳ","kana_city":"ｻｯﾎﾟﾛｼｱﾂﾍﾞﾂｸ","kana_address":"ｵｵﾔﾁﾆｼ","pref":"北海道","city":"札幌市厚別区","address":"大谷地西"},
{"zip_code":"0040031","kana_pref":"ﾎｯｶｲﾄﾞｳ","kana_city":"ｻｯﾎﾟﾛｼｱﾂﾍﾞﾂｸ","kana_address":"ｶﾐﾉｯﾎﾟﾛ1ｼﾞｮｳ","pref":"北海道","city":"札幌市厚別区","address":"上野幌一条"},
{"zip_code":"0040032","kana_pref":"ﾎｯｶｲﾄﾞｳ","kana_city":"ｻｯﾎﾟﾛｼｱﾂﾍﾞﾂｸ","kana_address":"ｶﾐﾉｯﾎﾟﾛ2ｼﾞｮｳ","pref":"北海道","city":"札幌市厚別区","address":"上野幌二条"},
{"zip_code":"0040033","kana_pref":"ﾎｯｶｲﾄﾞｳ","kana_city":"ｻｯﾎﾟﾛｼｱﾂﾍﾞﾂｸ","kana_address":"ｶﾐﾉｯﾎﾟﾛ3ｼﾞｮｳ","pref":"北海道","city":"札幌市厚別区","address":"上野幌三条"},
{"zip_code":"0040015","kana_pref":"ﾎｯｶｲﾄﾞｳ","kana_city":"ｻｯﾎﾟﾛｼｱﾂﾍﾞﾂｸ","kana_address":"ｼﾓﾉｯﾎﾟﾛﾃｸﾉﾊﾟｰｸ","pref":"北海道","city":"札幌市厚別区","address":"下野幌テクノパーク"},
{"zip_code":"0040011","kana_pref":"ﾎｯｶｲﾄﾞｳ","kana_city":"ｻｯﾎﾟﾛｼｱﾂﾍﾞﾂｸ","kana_address":"ﾓﾐｼﾞﾀﾞｲﾋｶﾞｼ","pref":"北海道","city":"札幌市厚別区","address":"もみじ台東"},
{"zip_code":"0040013","kana_pref":"ﾎｯｶｲﾄﾞｳ","kana_city":"ｻｯﾎﾟﾛｼｱﾂﾍﾞﾂｸ","kana_address":"ﾓﾐｼﾞﾀﾞｲﾆｼ","pref":"北海道","city":"札幌市厚別区","address":"もみじ台西"},
{"zip_code":"0040012","kana_pref":"ﾎｯｶｲﾄﾞｳ","kana_city":"ｻｯﾎﾟﾛｼｱﾂﾍﾞﾂｸ","kana_address":"ﾓﾐｼﾞﾀﾞｲﾐﾅﾐ","pref":"北海道","city":"札幌市厚別区","address":"もみじ台南"},
{"zip_code":"0040014","kana_pref":"ﾎｯｶｲﾄﾞｳ","kana_city":"ｻｯﾎﾟﾛｼｱﾂﾍﾞﾂｸ","kana_address":"ﾓﾐｼﾞﾀﾞｲｷﾀ","pref":"北海道","city":"札幌市厚別区","address":"もみじ台北"},
{"zip_code":"0040000","kana_pref":"ﾎｯｶｲﾄﾞｳ","kana_city":"ｻｯﾎﾟﾛｼｷﾖﾀｸ","kana_address":"","pref":"北海道","city":"札幌市清田区","address":""},
{"zip_code":"0040821","kana_pref":"ﾎｯｶｲﾄﾞｳ","kana_city":"ｻｯﾎﾟﾛｼｷﾖﾀｸ","kana_address":"ｱﾘｱｹ","pref":"北海道","city":"札幌市清田区","address":"有明"},
{"zip_code":"0040811","kana_pref":"ﾎｯｶｲﾄﾞｳ","kana_city":"ｻｯﾎﾟﾛｼｷﾖﾀｸ","kana_address":"ｳﾂｸｼｶﾞｵｶ1ｼﾞｮｳ","pref":"北海道","city":"札幌市清田区","address":"美しが丘一条"},
{"zip_code":"0040812","kana_pref":"ﾎｯｶｲﾄﾞｳ","kana_city":"ｻｯﾎﾟﾛｼｷﾖﾀｸ","kana_address":"ｳﾂｸｼｶﾞｵｶ2ｼﾞｮｳ","pref":"北海道","city":"札幌市清田区","address":"美しが丘二条"},
{"zip_code":"0040813","kana_pref":"ﾎｯｶｲﾄﾞｳ","kana_city":"ｻｯﾎﾟﾛｼｷﾖﾀｸ","kana_address":"ｳﾂｸｼｶﾞｵｶ3ｼﾞｮｳ","pref":"北海道","city":"札幌市清田区","address":"美しが丘三条"},
{"zip_code":"0040814","kana_pref":"ﾎｯｶｲﾄﾞｳ","kana_city":"ｻｯﾎﾟﾛｼｷﾖﾀｸ","kana_address":"ｳﾂｸｼｶﾞｵｶ4ｼﾞｮｳ","pref":"北海道","city":"札幌市清田区","address":"美しが丘四条"},
{"zip_code":"0040815","kana_pref":"ﾎｯｶｲﾄﾞｳ","kana_city":"ｻｯﾎﾟﾛｼｷﾖﾀｸ","kana_address":"ｳﾂｸｼｶﾞｵｶ5ｼﾞｮｳ","pref":"北海道","city":"札幌市清田区","address":"美しが丘五条"},
{"zip_code":"0040861","kana_pref":"ﾎｯｶｲﾄﾞｳ","kana_city":"ｻｯﾎﾟﾛｼｷﾖﾀｸ","kana_address":"ｷﾀﾉ1ｼﾞｮｳ","pref":"北海道","city":"札幌市清田区","address":"北野一条"},
{"zip_code":"0040862","kana_pref":"ﾎｯｶｲﾄﾞｳ","kana_city":"ｻｯﾎﾟﾛｼｷﾖﾀｸ","kana_address":"ｷﾀﾉ2ｼﾞｮｳ","pref":"北海道","city":"札幌市清田区","address":"北野二条"},
{"zip_code":"0040863","kana_pref":"ﾎｯｶｲﾄﾞｳ","kana_city":"ｻｯﾎﾟﾛｼｷﾖﾀｸ","kana_address":"ｷﾀﾉ3ｼﾞｮｳ","pref":"北海道","city":"札幌市清田区","address":"北野三条"},
{"zip_code":"0040864","kana_pref":"ﾎｯｶｲﾄﾞｳ","kana_city":"ｻｯﾎﾟﾛｼｷﾖﾀｸ","kana_address":"ｷﾀﾉ4ｼﾞｮｳ","pref":"北海道","city":"札幌市清田区","address":"北野四条"},
{"zip_code":"0040865","kana_pref":"ﾎｯｶｲﾄﾞｳ","kana_city":"ｻｯﾎﾟﾛｼｷﾖﾀｸ","kana_address":"ｷﾀﾉ5ｼﾞｮｳ","pref":"北海道","city":"札幌市清田区","address":"北野五条"},
{"zip_code":"0040866","kana_pref":"ﾎｯｶｲﾄﾞｳ","kana_city":"ｻｯﾎﾟﾛｼｷﾖﾀｸ","kana_address":"ｷﾀﾉ6ｼﾞｮｳ","pref":"北海道","city":"札幌市清田区","address":"北野六条"},
{"zip_code":"0040867","kana_pref":"ﾎｯｶｲﾄﾞｳ","kana_city":"ｻｯﾎﾟﾛｼｷﾖﾀｸ","kana_address":"ｷﾀﾉ7ｼﾞｮｳ","pref":"北海道","city":"札幌市清田区","address":"北野七条"},
{"zip_code":"0040859","kana_pref":"ﾎｯｶｲﾄﾞｳ","kana_city":"ｻｯﾎﾟﾛｼｷﾖﾀｸ","kana_address":"ｷﾖﾀ","pref":"北海道","city":"札幌市清田区","address":"清田"},
{"zip_code":"0040841","kana_pref":"ﾎｯｶｲﾄﾞｳ","kana_city":"ｻｯﾎﾟﾛｼｷﾖﾀｸ","kana_address":"ｷﾖﾀ1ｼﾞｮｳ","pref":"北海道","city":"札幌市清田区","address":"清田一条"},
{"zip_code":"0040842","kana_pref":"ﾎｯｶｲﾄﾞｳ","kana_city":"ｻｯﾎﾟﾛｼｷﾖﾀｸ","kana_address":"ｷﾖﾀ2ｼﾞｮｳ","pref":"北海道","city":"札幌市清田区","address":"清田二条"},
{"zip_code":"0040843","kana_pref":"ﾎｯｶｲﾄﾞｳ","kana_city":"ｻｯﾎﾟﾛｼｷﾖﾀｸ","kana_address":"ｷﾖﾀ3ｼﾞｮｳ","pref":"北海道","city":"札幌市清田区","address":"清田三条"},
{"zip_code":"0040844","kana_pref":"ﾎｯｶｲﾄﾞｳ","kana_city":"ｻｯﾎﾟﾛｼｷﾖﾀｸ","kana_address":"ｷﾖﾀ4ｼﾞｮｳ","pref":"北海道","city":"札幌市清田区","address":"清田四条"},
{"zip_code":"0040845","kana_pref":"ﾎｯｶｲﾄﾞｳ","kana_city":"ｻｯﾎﾟﾛｼｷﾖﾀｸ","kana_address":"ｷﾖﾀ5ｼﾞｮｳ","pref":"北海道","city":"札幌市清田区","address":"清田五条"},
{"zip_code":"0040846","kana_pref":"ﾎｯｶｲﾄﾞｳ","kana_city":"ｻｯﾎﾟﾛｼｷﾖﾀｸ","kana_address":"ｷﾖﾀ6ｼﾞｮｳ","pref":"北海道","city":"札幌市清田区","address":"清田六条"},
{"zip_code":"0040847","kana_pref":"ﾎｯｶｲﾄﾞｳ","kana_city":"ｻｯﾎﾟﾛｼｷﾖﾀｸ","kana_address":"ｷﾖﾀ7ｼﾞｮｳ","pref":"北海道","city":"札幌市清田区","address":"清田七条"},
{"zip_code":"0040848","kana_pref":"ﾎｯｶｲﾄﾞｳ","kana_city":"ｻｯﾎﾟﾛｼｷﾖﾀｸ","kana_address":"ｷﾖﾀ8ｼﾞｮｳ","pref":"北海道","city":"札幌市清田区","address":"清田八条"},
{"zip_code":"0040849","kana_pref":"ﾎｯｶｲﾄﾞｳ","kana_city":"ｻｯﾎﾟﾛｼｷﾖﾀｸ","kana_address":"ｷﾖﾀ9ｼﾞｮｳ","pref":"北海道","city":"札幌市清田区","address":"清田九条"},
{"zip_code":"0040840","kana_pref":"ﾎｯｶｲﾄﾞｳ","kana_city":"ｻｯﾎﾟﾛｼｷﾖﾀｸ","kana_address":"ｷﾖﾀ10ｼﾞｮｳ","pref":"北海道","city":"札幌市清田区","address":"清田十条"},
{"zip_code":"0040809","kana_pref":"ﾎｯｶｲﾄﾞｳ","kana_city":"ｻｯﾎﾟﾛｼｷﾖﾀｸ","kana_address":"ｻﾄﾂﾞｶ","pref":"北海道","city":"札幌市清田区","address":"里塚"},
{"zip_code":"0040801","kana_pref":"ﾎｯｶｲﾄﾞｳ","kana_city":"ｻｯﾎﾟﾛｼｷﾖﾀｸ","kana_address":"ｻﾄﾂﾞｶ1ｼﾞｮｳ","pref":"北海道","city":"札幌市清田区","address":"里塚一条"},
{"zip_code":"0040802","kana_pref":"ﾎｯｶｲﾄﾞｳ","kana_city":"ｻｯﾎﾟﾛｼｷﾖﾀｸ","kana_address":"ｻﾄﾂﾞｶ2ｼﾞｮｳ","pref":"北海道","city":"札幌市清田区","address":"里塚二条"},
{"zip_code":"0040803","kana_pref":"ﾎｯｶｲﾄﾞｳ","kana_city":"ｻｯﾎﾟﾛｼｷﾖﾀｸ","kana_address":"ｻﾄﾂﾞｶ3ｼﾞｮｳ","pref":"北海道","city":"札幌市清田区","address":"里塚三条"},
{"zip_code":"0040804","kana_pref":"ﾎｯｶｲﾄﾞｳ","kana_city":"ｻｯﾎﾟﾛｼｷﾖﾀｸ","kana_address":"ｻﾄﾂﾞｶ4ｼﾞｮｳ","pref":"北海道","city":"札幌市清田区","address":"里塚四条"},
{"zip_code":"0040805","kana_pref":"ﾎｯｶｲﾄﾞｳ","kana_city":"ｻｯﾎﾟﾛｼｷﾖﾀｸ","kana_address":"ｻﾄﾂﾞｶﾐﾄﾞﾘｶﾞｵｶ","pref":"北海道","city":"札幌市清田区","address":"里塚緑ケ丘"},
{"zip_code":"0040839","kana_pref":"ﾎｯｶｲﾄﾞｳ","kana_city":"ｻｯﾎﾟﾛｼｷﾖﾀｸ","kana_address":"ｼﾝｴｲ","pref":"北海道","city":"札幌市清田区","address":"真栄"},
{"zip_code":"0040831","kana_pref":"ﾎｯｶｲﾄﾞｳ","kana_city":"ｻｯﾎﾟﾛｼｷﾖﾀｸ","kana_address":"ｼﾝｴｲ1ｼﾞｮｳ","pref":"北海道","city":"札幌市清田区","address":"真栄一条"},
{"zip_code":"0040832","kana_pref":"ﾎｯｶｲﾄﾞｳ","kana_city":"ｻｯﾎﾟﾛｼｷﾖﾀｸ","kana_address":"ｼﾝｴｲ2ｼﾞｮｳ","pref":"北海道","city":"札幌市清田区","address":"真栄二条"},
{"zip_code":"0040833","kana_pref":"ﾎｯｶｲﾄﾞｳ","kana_city":"ｻｯﾎﾟﾛｼｷﾖﾀｸ","kana_address":"ｼﾝｴｲ3ｼﾞｮｳ","pref":"北海道","city":"札幌市清田区","address":"真栄三条"},
{"zip_code":"0040834","kana_pref":"ﾎｯｶｲﾄﾞｳ","kana_city":"ｻｯﾎﾟﾛｼｷﾖﾀｸ","kana_address":"ｼﾝｴｲ4ｼﾞｮｳ","pref":"北海道","city":"札幌市清田区","address":"真栄四条"},
{"zip_code":"0040835","kana_pref":"ﾎｯｶｲﾄﾞｳ","kana_city":"ｻｯﾎﾟﾛｼｷﾖﾀｸ","kana_address":"ｼﾝｴｲ5ｼﾞｮｳ","pref":"北海道","city":"札幌市清田区","address":"真栄五条"},
{"zip_code":"0040836","kana_pref":"ﾎｯｶｲﾄﾞｳ","kana_city":"ｻｯﾎﾟﾛｼｷﾖﾀｸ","kana_address":"ｼﾝｴｲ6ｼﾞｮｳ","pref":"北海道","city":"札幌市清田区","address":"真栄六条"},
{"zip_code":"0040889","kana_pref":"ﾎｯｶｲﾄﾞｳ","kana_city":"ｻｯﾎﾟﾛｼｷﾖﾀｸ","kana_address":"ﾋﾗｵｶ","pref":"北海道","city":"札幌市清田区","address":"平岡"},
{"zip_code":"0040871","kana_pref":"ﾎｯｶｲﾄﾞｳ","kana_city":"ｻｯﾎﾟﾛｼｷﾖﾀｸ","kana_address":"ﾋﾗｵｶ1ｼﾞｮｳ","pref":"北海道","city":"札幌市清田区","address":"平岡一条"},
{"zip_code":"0040872","kana_pref":"ﾎｯｶｲﾄﾞｳ","kana_city":"ｻｯﾎﾟﾛｼｷﾖﾀｸ","kana_address":"ﾋﾗｵｶ2ｼﾞｮｳ","pref":"北海道","city":"札幌市清田区","address":"平岡二条"},
{"zip_code":"0040873","kana_pref":"ﾎｯｶｲﾄﾞｳ","kana_city":"ｻｯﾎﾟﾛｼｷﾖﾀｸ","kana_address":"ﾋﾗｵｶ3ｼﾞｮｳ","pref":"北海道","city":"札幌市清田区","address":"平岡三条"},
{"zip_code":"0040874","kana_pref":"ﾎｯｶｲﾄﾞｳ","kana_city":"ｻｯﾎﾟﾛｼｷﾖﾀｸ","kana_address":"ﾋﾗｵｶ4ｼﾞｮｳ","pref":"北海道","city":"札幌市清田区","address":"平岡四条"},
{"zip_code":"0040875","kana_pref":"ﾎｯｶｲﾄﾞｳ","kana_city":"ｻｯﾎﾟﾛｼｷﾖﾀｸ","kana_address":"ﾋﾗｵｶ5ｼﾞｮｳ","pref":"北海道","city":"札幌市清田区","address":"平岡五条"},
{"zip_code":"0040876","kana_pref":"ﾎｯｶｲﾄﾞｳ","kana_city":"ｻｯﾎﾟﾛｼｷﾖﾀｸ","kana_address":"ﾋﾗｵｶ6ｼﾞｮｳ","pref":"北海道","city":"札幌市清田区","address":"平岡六条"},
{"zip_code":"0040877","kana_pref":"ﾎｯｶｲﾄﾞｳ","kana_city":"ｻｯﾎﾟﾛｼｷﾖﾀｸ","kana_address":"ﾋﾗｵｶ7ｼﾞｮｳ","pref":"北海道","city":"札幌市清田区","address":"平岡七条"},
{"zip_code":"0040878","kana_pref":"ﾎｯｶｲﾄﾞｳ","kana_city":"ｻｯﾎﾟﾛｼｷﾖﾀｸ","kana_address":"ﾋﾗｵｶ8ｼﾞｮｳ","pref":"北海道","city":"札幌市清田区","address":"平岡八条"},
{"zip_code":"0040879","kana_pref":"ﾎｯｶｲﾄﾞｳ","kana_city":"ｻｯﾎﾟﾛｼｷﾖﾀｸ","kana_address":"ﾋﾗｵｶ9ｼﾞｮｳ","pref":"北海道","city":"札幌市清田区","address":"平岡九条"},
{"zip_code":"0040880","kana_pref":"ﾎｯｶｲﾄﾞｳ","kana_city":"ｻｯﾎﾟﾛｼｷﾖﾀｸ","kana_address":"ﾋﾗｵｶ10ｼﾞｮｳ","pref":"北海道","city":"札幌市清田区","address":"平岡十条"},
{"zip_code":"0040881","kana_pref":"ﾎｯｶｲﾄﾞｳ","kana_city":"ｻｯﾎﾟﾛｼｷﾖﾀｸ","kana_address":"ﾋﾗｵｶｺｳｴﾝ","pref":"北海道","city":"札幌市清田区","address":"平岡公園"},
{"zip_code":"0040882","kana_pref":"ﾎｯｶｲﾄﾞｳ","kana_city":"ｻｯﾎﾟﾛｼｷﾖﾀｸ","kana_address":"ﾋﾗｵｶｺｳｴﾝﾋｶﾞｼ","pref":"北海道","city":"札幌市清田区","address":"平岡公園東"}]}