{"zip_code":[
{"zip_code":"0100000","kana_pref":"ｱｷﾀｹﾝ","kana_city":"ｱｷﾀｼ","kana_address":"","pref":"秋田県","city":"秋田市","address":""},
{"zip_code":"0100831","kana_pref":"ｱｷﾀｹﾝ","kana_city":"ｱｷﾀｼ","kana_address":"ｱｻﾋｶﾜｷﾖｽﾐﾏﾁ","pref":"秋田県","city":"秋田市","address":"旭川清澄町"},
{"zip_code":"0100833","kana_pref":"ｱｷﾀｹﾝ","kana_city":"ｱｷﾀｼ","kana_address":"ｱｻﾋｶﾜｼﾝﾄｳﾀﾞﾋｶﾞｼﾏﾁ","pref":"秋田県","city":"秋田市","address":"旭川新藤田東町"},
{"zip_code":"0100832","kana_pref":"ｱｷﾀｹﾝ","kana_city":"ｱｷﾀｼ","kana_address":"ｱｻﾋｶﾜｼﾝﾄｳﾀﾞﾆｼﾏﾁ","pref":"秋田県","city":"秋田市","address":"旭川新藤田西町"},
{"zip_code":"0100834","kana_pref":"ｱｷﾀｹﾝ","kana_city":"ｱｷﾀｼ","kana_address":"ｱｻﾋｶﾜﾐﾅﾐﾏﾁ","pref":"秋田県","city":"秋田市","address":"旭川南町"},
{"zip_code":"0101613","kana_pref":"ｱｷﾀｹﾝ","kana_city":"ｱｷﾀｼ","kana_address":"ｱﾗﾔｱｻﾋﾏﾁ","pref":"秋田県","city":"秋田市","address":"新屋朝日町"},
{"zip_code":"0101632","kana_pref":"ｱｷﾀｹﾝ","kana_city":"ｱｷﾀｼ","kana_address":"ｱﾗﾔｵｵｶﾜﾏﾁ","pref":"秋田県","city":"秋田市","address":"新屋大川町"},
{"zip_code":"0101637","kana_pref":"ｱｷﾀｹﾝ","kana_city":"ｱｷﾀｼ","kana_address":"ｱﾗﾔｵｵｷﾞﾏﾁ","pref":"秋田県","city":"秋田市","address":"新屋扇町"},
{"zip_code":"0101634","kana_pref":"ｱｷﾀｹﾝ","kana_city":"ｱｷﾀｼ","kana_address":"ｱﾗﾔｵｷﾀﾏﾁ","pref":"秋田県","city":"秋田市","address":"新屋沖田町"},
{"zip_code":"0101638","kana_pref":"ｱｷﾀｹﾝ","kana_city":"ｱｷﾀｼ","kana_address":"ｱﾗﾔｵﾓﾃﾏﾁ","pref":"秋田県","city":"秋田市","address":"新屋表町"},
{"zip_code":"0101603","kana_pref":"ｱｷﾀｹﾝ","kana_city":"ｱｷﾀｼ","kana_address":"ｱﾗﾔｶﾂﾋﾗﾀﾞｲ","pref":"秋田県","city":"秋田市","address":"新屋勝平台"},
{"zip_code":"0101605","kana_pref":"ｱｷﾀｹﾝ","kana_city":"ｱｷﾀｼ","kana_address":"ｱﾗﾔｶﾂﾋﾗﾏﾁ","pref":"秋田県","city":"秋田市","address":"新屋勝平町"},
{"zip_code":"0101608","kana_pref":"ｱｷﾀｹﾝ","kana_city":"ｱｷﾀｼ","kana_address":"ｱﾗﾔｷﾀﾊﾏﾁｮｳ","pref":"秋田県","city":"秋田市","address":"新屋北浜町"},
{"zip_code":"0101621","kana_pref":"ｱｷﾀｹﾝ","kana_city":"ｱｷﾀｼ","kana_address":"ｱﾗﾔｸﾘﾀﾏﾁ","pref":"秋田県","city":"秋田市","address":"新屋栗田町"},
{"zip_code":"0101606","kana_pref":"ｱｷﾀｹﾝ","kana_city":"ｱｷﾀｼ","kana_address":"ｱﾗﾔｺﾄﾌﾞｷﾏﾁ","pref":"秋田県","city":"秋田市","address":"新屋寿町"},
{"zip_code":"0101602","kana_pref":"ｱｷﾀｹﾝ","kana_city":"ｱｷﾀｼ","kana_address":"ｱﾗﾔｼﾀｶﾜﾗﾏﾁ","pref":"秋田県","city":"秋田市","address":"新屋下川原町"},
{"zip_code":"0101642","kana_pref":"ｱｷﾀｹﾝ","kana_city":"ｱｷﾀｼ","kana_address":"ｱﾗﾔｼﾌﾞﾔﾏﾁ","pref":"秋田県","city":"秋田市","address":"新屋渋谷町"},
{"zip_code":"0101641","kana_pref":"ｱｷﾀｹﾝ","kana_city":"ｱｷﾀｼ","kana_address":"ｱﾗﾔﾀｶﾐﾏﾁ","pref":"秋田県","city":"秋田市","address":"新屋高美町"},
{"zip_code":"0101644","kana_pref":"ｱｷﾀｹﾝ","kana_city":"ｱｷﾀｼ","kana_address":"ｱﾗﾔﾀｼﾞﾘｻﾞﾜﾅｶﾏﾁ","pref":"秋田県","city":"秋田市","address":"新屋田尻沢中町"},
{"zip_code":"0101643","kana_pref":"ｱｷﾀｹﾝ","kana_city":"ｱｷﾀｼ","kana_address":"ｱﾗﾔﾀｼﾞﾘｻﾞﾜﾋｶﾞｼﾏﾁ","pref":"秋田県","city":"秋田市","address":"新屋田尻沢東町"},
{"zip_code":"0101645","kana_pref":"ｱｷﾀｹﾝ","kana_city":"ｱｷﾀｼ","kana_address":"ｱﾗﾔﾀｼﾞﾘｻﾞﾜﾆｼﾏﾁ","pref":"秋田県","city":"秋田市","address":"新屋田尻沢西町"},
{"zip_code":"0101611","kana_pref":"ｱｷﾀｹﾝ","kana_city":"ｱｷﾀｼ","kana_address":"ｱﾗﾔﾃﾝﾋﾞﾝﾉ","pref":"秋田県","city":"秋田市","address":"新屋天秤野"},
{"zip_code":"0101633","kana_pref":"ｱｷﾀｹﾝ","kana_city":"ｱｷﾀｼ","kana_address":"ｱﾗﾔﾄﾘｷﾏﾁ","pref":"秋田県","city":"秋田市","address":"新屋鳥木町"},
{"zip_code":"0101636","kana_pref":"ｱｷﾀｹﾝ","kana_city":"ｱｷﾀｼ","kana_address":"ｱﾗﾔﾋﾅｲﾏﾁ","pref":"秋田県","city":"秋田市","address":"新屋比内町"},
{"zip_code":"0101622","kana_pref":"ｱｷﾀｹﾝ","kana_city":"ｱｷﾀｼ","kana_address":"ｱﾗﾔﾋﾖｼﾏﾁ","pref":"秋田県","city":"秋田市","address":"新屋日吉町"},
{"zip_code":"0101615","kana_pref":"ｱｷﾀｹﾝ","kana_city":"ｱｷﾀｼ","kana_address":"ｱﾗﾔﾌﾅﾊﾞﾏﾁ","pref":"秋田県","city":"秋田市","address":"新屋船場町"},
{"zip_code":"0101635","kana_pref":"ｱｷﾀｹﾝ","kana_city":"ｱｷﾀｼ","kana_address":"ｱﾗﾔﾏｴﾉﾏﾁ","pref":"秋田県","city":"秋田市","address":"新屋前野町"},
{"zip_code":"0101617","kana_pref":"ｱｷﾀｹﾝ","kana_city":"ｱｷﾀｼ","kana_address":"ｱﾗﾔﾏﾂﾐｶﾞｵｶﾋｶﾞｼﾁｮｳ","pref":"秋田県","city":"秋田市","address":"新屋松美ガ丘東町"},
{"zip_code":"0101616","kana_pref":"ｱｷﾀｹﾝ","kana_city":"ｱｷﾀｼ","kana_address":"ｱﾗﾔﾏﾂﾐｶﾞｵｶﾐﾅﾐﾁｮｳ","pref":"秋田県","city":"秋田市","address":"新屋松美ガ丘南町"},
{"zip_code":"0101618","kana_pref":"ｱｷﾀｹﾝ","kana_city":"ｱｷﾀｼ","kana_address":"ｱﾗﾔﾏﾂﾐｶﾞｵｶｷﾀﾁｮｳ","pref":"秋田県","city":"秋田市","address":"新屋松美ガ丘北町"},
{"zip_code":"0101604","kana_pref":"ｱｷﾀｹﾝ","kana_city":"ｱｷﾀｼ","kana_address":"ｱﾗﾔﾏﾂﾐﾏﾁ","pref":"秋田県","city":"秋田市","address":"新屋松美町"},
{"zip_code":"0101607","kana_pref":"ｱｷﾀｹﾝ","kana_city":"ｱｷﾀｼ","kana_address":"ｱﾗﾔﾐﾅﾐﾊﾏﾏﾁ","pref":"秋田県","city":"秋田市","address":"新屋南浜町"},
{"zip_code":"0101631","kana_pref":"ｱｷﾀｹﾝ","kana_city":"ｱｷﾀｼ","kana_address":"ｱﾗﾔﾓﾄﾏﾁ","pref":"秋田県","city":"秋田市","address":"新屋元町"},
{"zip_code":"0101612","kana_pref":"ｱｷﾀｹﾝ","kana_city":"ｱｷﾀｼ","kana_address":"ｱﾗﾔﾕﾀｶﾏﾁ","pref":"秋田県","city":"秋田市","address":"新屋豊町"},
{"zip_code":"0101614","kana_pref":"ｱｷﾀｹﾝ","kana_city":"ｱｷﾀｼ","kana_address":"ｱﾗﾔﾜﾘﾔﾏﾏﾁ","pref":"秋田県","city":"秋田市","address":"新屋割山町"},
{"zip_code":"0101623","kana_pref":"ｱｷﾀｹﾝ","kana_city":"ｱｷﾀｼ","kana_address":"ｱﾗﾔﾏﾁ","pref":"秋田県","city":"秋田市","address":"新屋町"},
{"zip_code":"0100816","kana_pref":"ｱｷﾀｹﾝ","kana_city":"ｱｷﾀｼ","kana_address":"ｲｽﾞﾐ","pref":"秋田県","city":"秋田市","address":"泉"},
{"zip_code":"0100813","kana_pref":"ｱｷﾀｹﾝ","kana_city":"ｱｷﾀｼ","kana_address":"ｲｽﾞﾐｲﾁﾉﾂﾎﾞ","pref":"秋田県","city":"秋田市","address":"泉一ノ坪"},
{"zip_code":"0100811","kana_pref":"ｱｷﾀｹﾝ","kana_city":"ｱｷﾀｼ","kana_address":"ｲｽﾞﾐｶﾏﾉﾏﾁ","pref":"秋田県","city":"秋田市","address":"泉釜ノ町"},
{"zip_code":"0100916","kana_pref":"ｱｷﾀｹﾝ","kana_city":"ｱｷﾀｼ","kana_address":"ｲｽﾞﾐｷﾀ","pref":"秋田県","city":"秋田市","address":"泉北"},
{"zip_code":"0100817","kana_pref":"ｱｷﾀｹﾝ","kana_city":"ｱｷﾀｼ","kana_address":"ｲｽﾞﾐｽｶﾞﾉ","pref":"秋田県","city":"秋田市","address":"泉菅野"},
{"zip_code":"0100917","kana_pref":"ｱｷﾀｹﾝ","kana_city":"ｱｷﾀｼ","kana_address":"ｲｽﾞﾐﾁｭｳｵｳ","pref":"秋田県","city":"秋田市","address":"泉中央"},
{"zip_code":"0100815","kana_pref":"ｱｷﾀｹﾝ","kana_city":"ｱｷﾀｼ","kana_address":"ｲｽﾞﾐﾊﾞﾊﾞ","pref":"秋田県","city":"秋田市","address":"泉馬場"},
{"zip_code":"0100814","kana_pref":"ｱｷﾀｹﾝ","kana_city":"ｱｷﾀｼ","kana_address":"ｲｽﾞﾐﾋｶﾞｼﾏﾁ","pref":"秋田県","city":"秋田市","address":"泉東町"},
{"zip_code":"0100812","kana_pref":"ｱｷﾀｹﾝ","kana_city":"ｱｷﾀｼ","kana_address":"ｲｽﾞﾐﾐﾀｹﾈ","pref":"秋田県","city":"秋田市","address":"泉三嶽根"},
{"zip_code":"0100918","kana_pref":"ｱｷﾀｹﾝ","kana_city":"ｱｷﾀｼ","kana_address":"ｲｽﾞﾐﾐﾅﾐ","pref":"秋田県","city":"秋田市","address":"泉南"},
{"zip_code":"0100064","kana_pref":"ｱｷﾀｹﾝ","kana_city":"ｱｷﾀｼ","kana_address":"ｳｼｼﾞﾏ","pref":"秋田県","city":"秋田市","address":"牛島"},
{"zip_code":"0100062","kana_pref":"ｱｷﾀｹﾝ","kana_city":"ｱｷﾀｼ","kana_address":"ｳｼｼﾞﾏﾋｶﾞｼ","pref":"秋田県","city":"秋田市","address":"牛島東"},
{"zip_code":"0100063","kana_pref":"ｱｷﾀｹﾝ","kana_city":"ｱｷﾀｼ","kana_address":"ｳｼｼﾞﾏﾆｼ","pref":"秋田県","city":"秋田市","address":"牛島西"},
{"zip_code":"0100066","kana_pref":"ｱｷﾀｹﾝ","kana_city":"ｱｷﾀｼ","kana_address":"ｳｼｼﾞﾏﾐﾅﾐ","pref":"秋田県","city":"秋田市","address":"牛島南"},
{"zip_code":"0101436","kana_pref":"ｱｷﾀｹﾝ","kana_city":"ｱｷﾀｼ","kana_address":"ｵｵｽﾐ","pref":"秋田県","city":"秋田市","address":"大住"},
{"zip_code":"0100921","kana_pref":"ｱｷﾀｹﾝ","kana_city":"ｱｷﾀｼ","kana_address":"ｵｵﾏﾁ","pref":"秋田県","city":"秋田市","address":"大町"},
{"zip_code":"0101428","kana_pref":"ｱｷﾀｹﾝ","kana_city":"ｱｷﾀｼ","kana_address":"ｵｵﾋﾗﾀﾞｲ","pref":"秋田県","city":"秋田市","address":"大平台"},
{"zip_code":"0101424","kana_pref":"ｱｷﾀｹﾝ","kana_city":"ｱｷﾀｼ","kana_address":"ｵﾉﾊﾞ","pref":"秋田県","city":"秋田市","address":"御野場"},
{"zip_code":"0101425","kana_pref":"ｱｷﾀｹﾝ","kana_city":"ｱｷﾀｼ","kana_address":"ｵﾉﾊﾞｼﾝﾏﾁ","pref":"秋田県","city":"秋田市","address":"御野場新町"},
{"zip_code":"0100061","kana_pref":"ｱｷﾀｹﾝ","kana_city":"ｱｷﾀｼ","kana_address":"ｵﾛｼﾏﾁ","pref":"秋田県","city":"秋田市","address":"卸町"},
{"zip_code":"0100111","kana_pref":"ｱｷﾀｹﾝ","kana_city":"ｱｷﾀｼ","kana_address":"ｶﾅｱｼｲﾜｾ","pref":"秋田県","city":"秋田市","address":"金足岩瀬"},
{"zip_code":"0100113","kana_pref":"ｱｷﾀｹﾝ","kana_city":"ｱｷﾀｼ","kana_address":"ｶﾅｱｼｳﾗﾔﾏ","pref":"秋田県","city":"秋田市","address":"金足浦山"},
{"zip_code":"0100126","kana_pref":"ｱｷﾀｹﾝ","kana_city":"ｱｷﾀｼ","kana_address":"ｶﾅｱｼｵｲﾜｹ","pref":"秋田県","city":"秋田市","address":"金足追分"},
{"zip_code":"0100115","kana_pref":"ｱｷﾀｹﾝ","kana_city":"ｱｷﾀｼ","kana_address":"ｶﾅｱｼｵｵｼﾐｽﾞ","pref":"秋田県","city":"秋田市","address":"金足大清水"},
{"zip_code":"0100123","kana_pref":"ｱｷﾀｹﾝ","kana_city":"ｱｷﾀｼ","kana_address":"ｶﾅｱｼｶﾀﾀﾞ","pref":"秋田県","city":"秋田市","address":"金足片田"},
{"zip_code":"0100121","kana_pref":"ｱｷﾀｹﾝ","kana_city":"ｱｷﾀｼ","kana_address":"ｶﾅｱｼｸﾛｶﾜ","pref":"秋田県","city":"秋田市","address":"金足黒川"},
{"zip_code":"0100116","kana_pref":"ｱｷﾀｹﾝ","kana_city":"ｱｷﾀｼ","kana_address":"ｶﾅｱｼｺｲｽﾞﾐ","pref":"秋田県","city":"秋田市","address":"金足小泉"},
{"zip_code":"0100114","kana_pref":"ｱｷﾀｹﾝ","kana_city":"ｱｷﾀｼ","kana_address":"ｶﾅｱｼｼﾀｶﾘ","pref":"秋田県","city":"秋田市","address":"金足下刈"},
{"zip_code":"0100125","kana_pref":"ｱｷﾀｹﾝ","kana_city":"ｱｷﾀｼ","kana_address":"ｶﾅｱｼﾀｶｵｶ","pref":"秋田県","city":"秋田市","address":"金足高岡"},
{"zip_code":"0100124","kana_pref":"ｱｷﾀｹﾝ","kana_city":"ｱｷﾀｼ","kana_address":"ｶﾅｱｼﾆｵｻﾞｷ","pref":"秋田県","city":"秋田市","address":"金足鳰崎"},
{"zip_code":"0100112","kana_pref":"ｱｷﾀｹﾝ","kana_city":"ｱｷﾀｼ","kana_address":"ｶﾅｱｼﾎﾘｳﾁ","pref":"秋田県","city":"秋田市","address":"金足堀内"},
{"zip_code":"0100122","kana_pref":"ｱｷﾀｹﾝ","kana_city":"ｱｷﾀｼ","kana_address":"ｶﾅｱｼﾖｼﾀﾞ","pref":"秋田県","city":"秋田市","address":"金足吉田"},
{"zip_code":"0101403","kana_pref":"ｱｷﾀｹﾝ","kana_city":"ｱｷﾀｼ","kana_address":"ｶﾐｷﾀﾃｱﾗﾏｷ","pref":"秋田県","city":"秋田市","address":"上北手荒巻"},
{"zip_code":"0101401","kana_pref":"ｱｷﾀｹﾝ","kana_city":"ｱｷﾀｼ","kana_address":"ｶﾐｷﾀﾃｵｵｽｷﾞｻﾜ","pref":"秋田県","city":"秋田市","address":"上北手大杉沢"},
{"zip_code":"0101408","kana_pref":"ｱｷﾀｹﾝ","kana_city":"ｱｷﾀｼ","kana_address":"ｶﾐｷﾀﾃｵｵﾄﾞ","pref":"秋田県","city":"秋田市","address":"上北手大戸"},
{"zip_code":"0101405","kana_pref":"ｱｷﾀｹﾝ","kana_city":"ｱｷﾀｼ","kana_address":"ｶﾐｷﾀﾃｵｵﾔﾏﾀﾞ","pref":"秋田県","city":"秋田市","address":"上北手大山田"},
{"zip_code":"0101402","kana_pref":"ｱｷﾀｹﾝ","kana_city":"ｱｷﾀｼ","kana_address":"ｶﾐｷﾀﾃｵﾔﾏﾀﾞ","pref":"秋田県","city":"秋田市","address":"上北手小山田"},
{"zip_code":"0101404","kana_pref":"ｱｷﾀｹﾝ","kana_city":"ｱｷﾀｼ","kana_address":"ｶﾐｷﾀﾃｺﾉ","pref":"秋田県","city":"秋田市","address":"上北手古野"},
{"zip_code":"0101411","kana_pref":"ｱｷﾀｹﾝ","kana_city":"ｱｷﾀｼ","kana_address":"ｶﾐｷﾀﾃｺﾞｼｮﾉ","pref":"秋田県","city":"秋田市","address":"上北手御所野"},
{"zip_code":"0101406","kana_pref":"ｱｷﾀｹﾝ","kana_city":"ｱｷﾀｼ","kana_address":"ｶﾐｷﾀﾃｻﾙﾀ","pref":"秋田県","city":"秋田市","address":"上北手猿田"},
{"zip_code":"0101407","kana_pref":"ｱｷﾀｹﾝ","kana_city":"ｱｷﾀｼ","kana_address":"ｶﾐｷﾀﾃﾓﾓｻﾞｷ","pref":"秋田県","city":"秋田市","address":"上北手百崎"},
{"zip_code":"0100137","kana_pref":"ｱｷﾀｹﾝ","kana_city":"ｱｷﾀｼ","kana_address":"ｶﾐｼﾝｼﾞｮｳｲｼﾅｻﾞｶ","pref":"秋田県","city":"秋田市","address":"上新城石名坂"},
{"zip_code":"0100132","kana_pref":"ｱｷﾀｹﾝ","kana_city":"ｱｷﾀｼ","kana_address":"ｶﾐｼﾝｼﾞｮｳｵﾏﾀ","pref":"秋田県","city":"秋田市","address":"上新城小又"},
{"zip_code":"0100135","kana_pref":"ｱｷﾀｹﾝ","kana_city":"ｱｷﾀｼ","kana_address":"ｶﾐｼﾝｼﾞｮｳｺﾞｼﾞｯﾁｮｳ","pref":"秋田県","city":"秋田市","address":"上新城五十丁"},
{"zip_code":"0100131","kana_pref":"ｱｷﾀｹﾝ","kana_city":"ｱｷﾀｼ","kana_address":"ｶﾐｼﾝｼﾞｮｳｼﾗﾔﾏ","pref":"秋田県","city":"秋田市","address":"上新城白山"},
{"zip_code":"0100136","kana_pref":"ｱｷﾀｹﾝ","kana_city":"ｱｷﾀｼ","kana_address":"ｶﾐｼﾝｼﾞｮｳﾅｶ","pref":"秋田県","city":"秋田市","address":"上新城中"},
{"zip_code":"0100138","kana_pref":"ｱｷﾀｹﾝ","kana_city":"ｱｷﾀｼ","kana_address":"ｶﾐｼﾝｼﾞｮｳﾎﾀﾉ","pref":"秋田県","city":"秋田市","address":"上新城保多野"},
{"zip_code":"0100134","kana_pref":"ｱｷﾀｹﾝ","kana_city":"ｱｷﾀｼ","kana_address":"ｶﾐｼﾝｼﾞｮｳﾐﾁｶﾜ","pref":"秋田県","city":"秋田市","address":"上新城道川"},
{"zip_code":"0100133","kana_pref":"ｱｷﾀｹﾝ","kana_city":"ｱｷﾀｼ","kana_address":"ｶﾐｼﾝｼﾞｮｳﾕﾉｻﾄ","pref":"秋田県","city":"秋田市","address":"上新城湯ノ里"},
{"zip_code":"0100947","kana_pref":"ｱｷﾀｹﾝ","kana_city":"ｱｷﾀｼ","kana_address":"ｶﾜｼﾘｳｴﾉﾏﾁ","pref":"秋田県","city":"秋田市","address":"川尻上野町"},
{"zip_code":"0100942","kana_pref":"ｱｷﾀｹﾝ","kana_city":"ｱｷﾀｼ","kana_address":"ｶﾜｼﾘｵｵｶﾜﾏﾁ","pref":"秋田県","city":"秋田市","address":"川尻大川町"},
{"zip_code":"0100943","kana_pref":"ｱｷﾀｹﾝ","kana_city":"ｱｷﾀｼ","kana_address":"ｶﾜｼﾘｵﾔｽﾐﾏﾁ","pref":"秋田県","city":"秋田市","address":"川尻御休町"},
{"zip_code":"0100948","kana_pref":"ｱｷﾀｹﾝ","kana_city":"ｱｷﾀｼ","kana_address":"ｶﾜｼﾘｼﾝｶﾜﾏﾁ","pref":"秋田県","city":"秋田市","address":"川尻新川町"},
{"zip_code":"0100946","kana_pref":"ｱｷﾀｹﾝ","kana_city":"ｱｷﾀｼ","kana_address":"ｶﾜｼﾘｿｳｼｬﾏﾁ","pref":"秋田県","city":"秋田市","address":"川尻総社町"},
{"zip_code":"0100945","kana_pref":"ｱｷﾀｹﾝ","kana_city":"ｱｷﾀｼ","kana_address":"ｶﾜｼﾘﾐﾖｼﾏﾁ","pref":"秋田県","city":"秋田市","address":"川尻みよし町"},
{"zip_code":"0100944","kana_pref":"ｱｷﾀｹﾝ","kana_city":"ｱｷﾀｼ","kana_address":"ｶﾜｼﾘﾜｶﾊﾞﾏﾁ","pref":"秋田県","city":"秋田市","address":"川尻若葉町"},
{"zip_code":"0100941","kana_pref":"ｱｷﾀｹﾝ","kana_city":"ｱｷﾀｼ","kana_address":"ｶﾜｼﾘﾏﾁ","pref":"秋田県","city":"秋田市","address":"川尻町"},
{"zip_code":"0100935","kana_pref":"ｱｷﾀｹﾝ","kana_city":"ｱｷﾀｼ","kana_address":"ｶﾜﾓﾄｵｶﾞﾜﾏﾁ","pref":"秋田県","city":"秋田市","address":"川元小川町"},
{"zip_code":"0100932","kana_pref":"ｱｷﾀｹﾝ","kana_city":"ｱｷﾀｼ","kana_address":"ｶﾜﾓﾄｶｲﾜﾏﾁ","pref":"秋田県","city":"秋田市","address":"川元開和町"},
{"zip_code":"0100933","kana_pref":"ｱｷﾀｹﾝ","kana_city":"ｱｷﾀｼ","kana_address":"ｶﾜﾓﾄﾏﾂｵｶﾏﾁ","pref":"秋田県","city":"秋田市","address":"川元松丘町"},
{"zip_code":"0100934","kana_pref":"ｱｷﾀｹﾝ","kana_city":"ｱｷﾀｼ","kana_address":"ｶﾜﾓﾄﾑﾂﾐﾏﾁ","pref":"秋田県","city":"秋田市","address":"川元むつみ町"},
{"zip_code":"0100931","kana_pref":"ｱｷﾀｹﾝ","kana_city":"ｱｷﾀｼ","kana_address":"ｶﾜﾓﾄﾔﾏｼﾀﾏﾁ","pref":"秋田県","city":"秋田市","address":"川元山下町"},
{"zip_code":"0100925","kana_pref":"ｱｷﾀｹﾝ","kana_city":"ｱｷﾀｼ","kana_address":"ｷｮｸﾅﾝ","pref":"秋田県","city":"秋田市","address":"旭南"},
{"zip_code":"0100922","kana_pref":"ｱｷﾀｹﾝ","kana_city":"ｱｷﾀｼ","kana_address":"ｷｮｸﾎｸｻｶｴﾏﾁ","pref":"秋田県","city":"秋田市","address":"旭北栄町"},
{"zip_code":"0100924","kana_pref":"ｱｷﾀｹﾝ","kana_city":"ｱｷﾀｼ","kana_address":"ｷｮｸﾎｸﾃﾗﾏﾁ","pref":"秋田県","city":"秋田市","address":"旭北寺町"},
{"zip_code":"0100923","kana_pref":"ｱｷﾀｹﾝ","kana_city":"ｱｷﾀｼ","kana_address":"ｷｮｸﾎｸﾆｼｷﾏﾁ","pref":"秋田県","city":"秋田市","address":"旭北錦町"},
{"zip_code":"0100966","kana_pref":"ｱｷﾀｹﾝ","kana_city":"ｱｷﾀｼ","kana_address":"ｺｳﾖｳｱｵﾔｷﾞﾁｮｳ","pref":"秋田県","city":"秋田市","address":"高陽青柳町"},
{"zip_code":"0100967","kana_pref":"ｱｷﾀｹﾝ","kana_city":"ｱｷﾀｼ","kana_address":"ｺｳﾖｳｻｲﾜｲﾁｮｳ","pref":"秋田県","city":"秋田市","address":"高陽幸町"},
{"zip_code":"0101412","kana_pref":"ｱｷﾀｹﾝ","kana_city":"ｱｷﾀｼ","kana_address":"ｺﾞｼｮﾉｼﾓﾂﾂﾐ","pref":"秋田県","city":"秋田市","address":"御所野下堤"},
{"zip_code":"0101413","kana_pref":"ｱｷﾀｹﾝ","kana_city":"ｱｷﾀｼ","kana_address":"ｺﾞｼｮﾉｼﾞｿﾞｳﾃﾞﾝ","pref":"秋田県","city":"秋田市","address":"御所野地蔵田"},
{"zip_code":"0101419","kana_pref":"ｱｷﾀｹﾝ","kana_city":"ｱｷﾀｼ","kana_address":"ｺﾞｼｮﾉﾂﾂﾐﾀﾞｲ","pref":"秋田県","city":"秋田市","address":"御所野堤台"},
{"zip_code":"0101414","kana_pref":"ｱｷﾀｹﾝ","kana_city":"ｱｷﾀｼ","kana_address":"ｺﾞｼｮﾉﾓﾄﾏﾁ","pref":"秋田県","city":"秋田市","address":"御所野元町"},
{"zip_code":"0101415","kana_pref":"ｱｷﾀｹﾝ","kana_city":"ｱｷﾀｼ","kana_address":"ｺﾞｼｮﾉﾕﾓﾄ","pref":"秋田県","city":"秋田市","address":"御所野湯本"},
{"zip_code":"0100042","kana_pref":"ｱｷﾀｹﾝ","kana_city":"ｱｷﾀｼ","kana_address":"ｻｸﾗ","pref":"秋田県","city":"秋田市","address":"桜"},
{"zip_code":"0100043","kana_pref":"ｱｷﾀｹﾝ","kana_city":"ｱｷﾀｼ","kana_address":"ｻｸﾗｶﾞｵｶ","pref":"秋田県","city":"秋田市","address":"桜ガ丘"},
{"zip_code":"0100059","kana_pref":"ｱｷﾀｹﾝ","kana_city":"ｱｷﾀｼ","kana_address":"ｻｸﾗﾀﾞｲ","pref":"秋田県","city":"秋田市","address":"桜台"},
{"zip_code":"0100823","kana_pref":"ｱｷﾀｹﾝ","kana_city":"ｱｷﾀｼ","kana_address":"ｻﾝﾅｲ","pref":"秋田県","city":"秋田市","address":"山内"},
{"zip_code":"0100951","kana_pref":"ｱｷﾀｹﾝ","kana_city":"ｱｷﾀｼ","kana_address":"ｻﾝﾉｳ","pref":"秋田県","city":"秋田市","address":"山王"},
{"zip_code":"0100952","kana_pref":"ｱｷﾀｹﾝ","kana_city":"ｱｷﾀｼ","kana_address":"ｻﾝﾉｳｼﾝﾏﾁ","pref":"秋田県","city":"秋田市","address":"山王新町"},
{"zip_code":"0100955","kana_pref":"ｱｷﾀｹﾝ","kana_city":"ｱｷﾀｼ","kana_address":"ｻﾝﾉｳﾅｶｼﾞﾏﾏﾁ","pref":"秋田県","city":"秋田市","address":"山王中島町"},
{"zip_code":"0100953","kana_pref":"ｱｷﾀｹﾝ","kana_city":"ｱｷﾀｼ","kana_address":"ｻﾝﾉｳﾅｶｿﾞﾉﾏﾁ","pref":"秋田県","city":"秋田市","address":"山王中園町"},
{"zip_code":"0100954","kana_pref":"ｱｷﾀｹﾝ","kana_city":"ｱｷﾀｼ","kana_address":"ｻﾝﾉｳﾇﾏﾀﾏﾁ","pref":"秋田県","city":"秋田市","address":"山王沼田町"},
{"zip_code":"0100956","kana_pref":"ｱｷﾀｹﾝ","kana_city":"ｱｷﾀｼ","kana_address":"ｻﾝﾉｳﾘﾝｶｲﾏﾁ","pref":"秋田県","city":"秋田市","address":"山王臨海町"},
{"zip_code":"0100056","kana_pref":"ｱｷﾀｹﾝ","kana_city":"ｱｷﾀｼ","kana_address":"ｼﾓｷﾀﾃｸﾛｶﾜ","pref":"秋田県","city":"秋田市","address":"下北手黒川"},
{"zip_code":"0100058","kana_pref":"ｱｷﾀｹﾝ","kana_city":"ｱｷﾀｼ","kana_address":"ｼﾓｷﾀﾃｻｸﾗ","pref":"秋田県","city":"秋田市","address":"下北手桜"},
{"zip_code":"0100053","kana_pref":"ｱｷﾀｹﾝ","kana_city":"ｱｷﾀｼ","kana_address":"ｼﾓｷﾀﾃｻﾑｶﾜ","pref":"秋田県","city":"秋田市","address":"下北手寒川"},
{"zip_code":"0100054","kana_pref":"ｱｷﾀｹﾝ","kana_city":"ｱｷﾀｼ","kana_address":"ｼﾓｷﾀﾃﾀｶﾗｶﾜ","pref":"秋田県","city":"秋田市","address":"下北手宝川"},
{"zip_code":"0100055","kana_pref":"ｱｷﾀｹﾝ","kana_city":"ｱｷﾀｼ","kana_address":"ｼﾓｷﾀﾃﾄｵﾘｻﾜ","pref":"秋田県","city":"秋田市","address":"下北手通沢"},
{"zip_code":"0100057","kana_pref":"ｱｷﾀｹﾝ","kana_city":"ｱｷﾀｼ","kana_address":"ｼﾓｷﾀﾃﾅｼﾋﾗ","pref":"秋田県","city":"秋田市","address":"下北手梨平"},
{"zip_code":"0100051","kana_pref":"ｱｷﾀｹﾝ","kana_city":"ｱｷﾀｼ","kana_address":"ｼﾓｷﾀﾃﾏﾂｻｷ","pref":"秋田県","city":"秋田市","address":"下北手松崎"},
{"zip_code":"0100052","kana_pref":"ｱｷﾀｹﾝ","kana_city":"ｱｷﾀｼ","kana_address":"ｼﾓｷﾀﾃﾔﾅｷﾞﾀﾃ","pref":"秋田県","city":"秋田市","address":"下北手柳舘"},
{"zip_code":"0100142","kana_pref":"ｱｷﾀｹﾝ","kana_city":"ｱｷﾀｼ","kana_address":"ｼﾓｼﾝｼﾞｮｳｱｵｻﾞｷ","pref":"秋田県","city":"秋田市","address":"下新城青崎"},
{"zip_code":"0100144","kana_pref":"ｱｷﾀｹﾝ","kana_city":"ｱｷﾀｼ","kana_address":"ｼﾓｼﾝｼﾞｮｳｲﾜｷ","pref":"秋田県","city":"秋田市","address":"下新城岩城"},
{"zip_code":"0100143","kana_pref":"ｱｷﾀｹﾝ","kana_city":"ｱｷﾀｼ","kana_address":"ｼﾓｼﾝｼﾞｮｳｵﾄﾓ","pref":"秋田県","city":"秋田市","address":"下新城小友"},
{"zip_code":"0100145","kana_pref":"ｱｷﾀｹﾝ","kana_city":"ｱｷﾀｼ","kana_address":"ｼﾓｼﾝｼﾞｮｳｶｻｵｶ","pref":"秋田県","city":"秋田市","address":"下新城笠岡"},
{"zip_code":"0100146","kana_pref":"ｱｷﾀｹﾝ","kana_city":"ｱｷﾀｼ","kana_address":"ｼﾓｼﾝｼﾞｮｳﾅｶﾉ","pref":"秋田県","city":"秋田市","address":"下新城中野"},
{"zip_code":"0100141","kana_pref":"ｱｷﾀｹﾝ","kana_city":"ｱｷﾀｼ","kana_address":"ｼﾓｼﾝｼﾞｮｳﾅｶﾞｵｶ","pref":"秋田県","city":"秋田市","address":"下新城長岡"},
{"zip_code":"0101501","kana_pref":"ｱｷﾀｹﾝ","kana_city":"ｱｷﾀｼ","kana_address":"ｼﾓﾊﾏｶﾂﾗﾈ","pref":"秋田県","city":"秋田市","address":"下浜桂根"},
{"zip_code":"0101502","kana_pref":"ｱｷﾀｹﾝ","kana_city":"ｱｷﾀｼ","kana_address":"ｼﾓﾊﾏﾅｶﾞﾊﾏ","pref":"秋田県","city":"秋田市","address":"下浜長浜"},
{"zip_code":"0101506","kana_pref":"ｱｷﾀｹﾝ","kana_city":"ｱｷﾀｼ","kana_address":"ｼﾓﾊﾏﾅﾗﾀﾞ","pref":"秋田県","city":"秋田市","address":"下浜楢田"},
{"zip_code":"0101505","kana_pref":"ｱｷﾀｹﾝ","kana_city":"ｱｷﾀｼ","kana_address":"ｼﾓﾊﾏﾊｯﾀ","pref":"秋田県","city":"秋田市","address":"下浜八田"},
{"zip_code":"0101503","kana_pref":"ｱｷﾀｹﾝ","kana_city":"ｱｷﾀｼ","kana_address":"ｼﾓﾊﾏﾊﾈｶﾜ","pref":"秋田県","city":"秋田市","address":"下浜羽川"},
{"zip_code":"0101504","kana_pref":"ｱｷﾀｹﾝ","kana_city":"ｱｷﾀｼ","kana_address":"ｼﾓﾊﾏﾐｮｳｶﾞｻﾜ","pref":"秋田県","city":"秋田市","address":"下浜名ケ沢"},
{"zip_code":"0100826","kana_pref":"ｱｷﾀｹﾝ","kana_city":"ｱｷﾀｼ","kana_address":"ｼﾝﾄｳﾀﾞ","pref":"秋田県","city":"秋田市","address":"新藤田"},
{"zip_code":"0100872","kana_pref":"ｱｷﾀｹﾝ","kana_city":"ｱｷﾀｼ","kana_address":"ｾﾝｼｭｳｷﾀﾉﾏﾙ","pref":"秋田県","city":"秋田市","address":"千秋北の丸"},
{"zip_code":"0100874","kana_pref":"ｱｷﾀｹﾝ","kana_city":"ｱｷﾀｼ","kana_address":"ｾﾝｼｭｳｸﾎﾞﾀﾏﾁ","pref":"秋田県","city":"秋田市","address":"千秋久保田町"},
{"zip_code":"0100876","kana_pref":"ｱｷﾀｹﾝ","kana_city":"ｱｷﾀｼ","kana_address":"ｾﾝｼｭｳｺｳｴﾝ","pref":"秋田県","city":"秋田市","address":"千秋公園"},
{"zip_code":"0100873","kana_pref":"ｱｷﾀｹﾝ","kana_city":"ｱｷﾀｼ","kana_address":"ｾﾝｼｭｳｼﾞｮｳｶﾏﾁ","pref":"秋田県","city":"秋田市","address":"千秋城下町"},
{"zip_code":"0100871","kana_pref":"ｱｷﾀｹﾝ","kana_city":"ｱｷﾀｼ","kana_address":"ｾﾝｼｭｳﾅｶｼﾞﾏﾏﾁ","pref":"秋田県","city":"秋田市","address":"千秋中島町"},
{"zip_code":"0100875","kana_pref":"ｱｷﾀｹﾝ","kana_city":"ｱｷﾀｼ","kana_address":"ｾﾝｼｭｳﾒｲﾄｸﾏﾁ","pref":"秋田県","city":"秋田市","address":"千秋明徳町"},
{"zip_code":"0100877","kana_pref":"ｱｷﾀｹﾝ","kana_city":"ｱｷﾀｼ","kana_address":"ｾﾝｼｭｳﾔﾄﾞﾒﾏﾁ","pref":"秋田県","city":"秋田市","address":"千秋矢留町"},
{"zip_code":"0100822","kana_pref":"ｱｷﾀｹﾝ","kana_city":"ｱｷﾀｼ","kana_address":"ｿｴｶﾞﾜ","pref":"秋田県","city":"秋田市","address":"添川"},
{"zip_code":"0100802","kana_pref":"ｱｷﾀｹﾝ","kana_city":"ｱｷﾀｼ","kana_address":"ｿﾄｱｻﾋｶﾜ","pref":"秋田県","city":"秋田市","address":"外旭川"},
{"zip_code":"0100804","kana_pref":"ｱｷﾀｹﾝ","kana_city":"ｱｷﾀｼ","kana_address":"ｿﾄｱｻﾋｶﾜﾊﾁﾏﾝﾃﾞﾝ","pref":"秋田県","city":"秋田市","address":"外旭川八幡田"},
{"zip_code":"0100803","kana_pref":"ｱｷﾀｹﾝ","kana_city":"ｱｷﾀｼ","kana_address":"ｿﾄｱｻﾋｶﾜﾔﾂﾔﾅｷﾞ","pref":"秋田県","city":"秋田市","address":"外旭川八柳"},
{"zip_code":"0101105","kana_pref":"ｱｷﾀｹﾝ","kana_city":"ｱｷﾀｼ","kana_address":"ﾀｲﾍｲｸﾛｻﾜ","pref":"秋田県","city":"秋田市","address":"太平黒沢"},
{"zip_code":"0101104","kana_pref":"ｱｷﾀｹﾝ","kana_city":"ｱｷﾀｼ","kana_address":"ﾀｲﾍｲﾃﾗﾆﾜ","pref":"秋田県","city":"秋田市","address":"太平寺庭"},
{"zip_code":"0101103","kana_pref":"ｱｷﾀｹﾝ","kana_city":"ｱｷﾀｼ","kana_address":"ﾀｲﾍｲﾅｶｾﾞｷ","pref":"秋田県","city":"秋田市","address":"太平中関"},
{"zip_code":"0101101","kana_pref":"ｱｷﾀｹﾝ","kana_city":"ｱｷﾀｼ","kana_address":"ﾀｲﾍｲﾊｯﾀ","pref":"秋田県","city":"秋田市","address":"太平八田"},
{"zip_code":"0101102","kana_pref":"ｱｷﾀｹﾝ","kana_city":"ｱｷﾀｼ","kana_address":"ﾀｲﾍｲﾒﾅｶﾞｻｷ","pref":"秋田県","city":"秋田市","address":"太平目長崎"},
{"zip_code":"0101106","kana_pref":"ｱｷﾀｹﾝ","kana_city":"ｱｷﾀｼ","kana_address":"ﾀｲﾍｲﾔﾏﾔ","pref":"秋田県","city":"秋田市","address":"太平山谷"},
{"zip_code":"0100851","kana_pref":"ｱｷﾀｹﾝ","kana_city":"ｱｷﾀｼ","kana_address":"ﾃｶﾞﾀ","pref":"秋田県","city":"秋田市","address":"手形"},
{"zip_code":"0100861","kana_pref":"ｱｷﾀｹﾝ","kana_city":"ｱｷﾀｼ","kana_address":"ﾃｶﾞﾀｶﾗﾐﾃﾞﾝ","pref":"秋田県","city":"秋田市","address":"手形からみでん"},
{"zip_code":"0100852","kana_pref":"ｱｷﾀｹﾝ","kana_city":"ｱｷﾀｼ","kana_address":"ﾃｶﾞﾀｶﾞｸｴﾝﾏﾁ","pref":"秋田県","city":"秋田市","address":"手形学園町"},
{"zip_code":"0100863","kana_pref":"ｱｷﾀｹﾝ","kana_city":"ｱｷﾀｼ","kana_address":"ﾃｶﾞﾀｷｭｳｶﾏﾁ","pref":"秋田県","city":"秋田市","address":"手形休下町"},
{"zip_code":"0100865","kana_pref":"ｱｷﾀｹﾝ","kana_city":"ｱｷﾀｼ","kana_address":"ﾃｶﾞﾀｼﾝｻｶｴﾏﾁ","pref":"秋田県","city":"秋田市","address":"手形新栄町"},
{"zip_code":"0100864","kana_pref":"ｱｷﾀｹﾝ","kana_city":"ｱｷﾀｼ","kana_address":"ﾃｶﾞﾀｽﾐﾖｼﾁｮｳ","pref":"秋田県","city":"秋田市","address":"手形住吉町"},
{"zip_code":"0100862","kana_pref":"ｱｷﾀｹﾝ","kana_city":"ｱｷﾀｼ","kana_address":"ﾃｶﾞﾀﾀﾅｶ","pref":"秋田県","city":"秋田市","address":"手形田中"},
{"zip_code":"0100854","kana_pref":"ｱｷﾀｹﾝ","kana_city":"ｱｷﾀｼ","kana_address":"ﾃｶﾞﾀﾔﾏｻﾞｷﾁｮｳ","pref":"秋田県","city":"秋田市","address":"手形山崎町"},
{"zip_code":"0100844","kana_pref":"ｱｷﾀｹﾝ","kana_city":"ｱｷﾀｼ","kana_address":"ﾃｶﾞﾀﾔﾏﾅｶﾏﾁ","pref":"秋田県","city":"秋田市","address":"手形山中町"},
{"zip_code":"0100843","kana_pref":"ｱｷﾀｹﾝ","kana_city":"ｱｷﾀｼ","kana_address":"ﾃｶﾞﾀﾔﾏﾋｶﾞｼﾏﾁ","pref":"秋田県","city":"秋田市","address":"手形山東町"},
{"zip_code":"0100841","kana_pref":"ｱｷﾀｹﾝ","kana_city":"ｱｷﾀｼ","kana_address":"ﾃｶﾞﾀﾔﾏﾆｼﾏﾁ","pref":"秋田県","city":"秋田市","address":"手形山西町"},
{"zip_code":"0100845","kana_pref":"ｱｷﾀｹﾝ","kana_city":"ｱｷﾀｼ","kana_address":"ﾃｶﾞﾀﾔﾏﾐﾅﾐﾏﾁ","pref":"秋田県","city":"秋田市","address":"手形山南町"},
{"zip_code":"0100842","kana_pref":"ｱｷﾀｹﾝ","kana_city":"ｱｷﾀｼ","kana_address":"ﾃｶﾞﾀﾔﾏｷﾀﾏﾁ","pref":"秋田県","city":"秋田市","address":"手形山北町"},
{"zip_code":"0101651","kana_pref":"ｱｷﾀｹﾝ","kana_city":"ｱｷﾀｼ","kana_address":"ﾄﾖｲﾜｲｼﾀﾞｻﾞｶ","pref":"秋田県","city":"秋田市","address":"豊岩石田坂"},
{"zip_code":"0101653","kana_pref":"ｱｷﾀｹﾝ","kana_city":"ｱｷﾀｼ","kana_address":"ﾄﾖｲﾜｵﾔﾏ","pref":"秋田県","city":"秋田市","address":"豊岩小山"},
{"zip_code":"0101652","kana_pref":"ｱｷﾀｹﾝ","kana_city":"ｱｷﾀｼ","kana_address":"ﾄﾖｲﾜﾄﾖﾏｷ","pref":"秋田県","city":"秋田市","address":"豊岩豊巻"},
{"zip_code":"0100001","kana_pref":"ｱｷﾀｹﾝ","kana_city":"ｱｷﾀｼ","kana_address":"ﾅｶﾄﾞｵﾘ","pref":"秋田県","city":"秋田市","address":"中通"},
{"zip_code":"0100034","kana_pref":"ｱｷﾀｹﾝ","kana_city":"ｱｷﾀｼ","kana_address":"ﾅﾗﾔﾏ","pref":"秋田県","city":"秋田市","address":"楢山"},
{"zip_code":"0100037","kana_pref":"ｱｷﾀｹﾝ","kana_city":"ｱｷﾀｼ","kana_address":"ﾅﾗﾔﾏｱﾀｺﾞｼﾀ","pref":"秋田県","city":"秋田市","address":"楢山愛宕下"},
{"zip_code":"0100033","kana_pref":"ｱｷﾀｹﾝ","kana_city":"ｱｷﾀｼ","kana_address":"ﾅﾗﾔﾏｲｼﾂﾞｶﾁｮｳ","pref":"秋田県","city":"秋田市","address":"楢山石塚町"},
{"zip_code":"0100032","kana_pref":"ｱｷﾀｹﾝ","kana_city":"ｱｷﾀｼ","kana_address":"ﾅﾗﾔﾏｵｵﾀﾏﾁ","pref":"秋田県","city":"秋田市","address":"楢山太田町"},
{"zip_code":"0100031","kana_pref":"ｱｷﾀｹﾝ","kana_city":"ｱｷﾀｼ","kana_address":"ﾅﾗﾔﾏｵｵﾓﾄﾏﾁ","pref":"秋田県","city":"秋田市","address":"楢山大元町"},
{"zip_code":"0100029","kana_pref":"ｱｷﾀｹﾝ","kana_city":"ｱｷﾀｼ","kana_address":"ﾅﾗﾔﾏｶﾜｸﾞﾁｻｶｲ","pref":"秋田県","city":"秋田市","address":"楢山川口境"},
{"zip_code":"0100028","kana_pref":"ｱｷﾀｹﾝ","kana_city":"ｱｷﾀｼ","kana_address":"ﾅﾗﾔﾏｷｮｳﾜﾏﾁ","pref":"秋田県","city":"秋田市","address":"楢山共和町"},
{"zip_code":"0100036","kana_pref":"ｱｷﾀｹﾝ","kana_city":"ｱｷﾀｼ","kana_address":"ﾅﾗﾔﾏｷﾝｼｮｳﾏﾁ","pref":"秋田県","city":"秋田市","address":"楢山金照町"},
{"zip_code":"0100025","kana_pref":"ｱｷﾀｹﾝ","kana_city":"ｱｷﾀｼ","kana_address":"ﾅﾗﾔﾏｻﾀｹﾏﾁ","pref":"秋田県","city":"秋田市","address":"楢山佐竹町"},
{"zip_code":"0100038","kana_pref":"ｱｷﾀｹﾝ","kana_city":"ｱｷﾀｼ","kana_address":"ﾅﾗﾔﾏｼﾞｮｳﾅﾝｼﾝﾏﾁ","pref":"秋田県","city":"秋田市","address":"楢山城南新町"},
{"zip_code":"0100035","kana_pref":"ｱｷﾀｹﾝ","kana_city":"ｱｷﾀｼ","kana_address":"ﾅﾗﾔﾏｼﾞｮｳﾅﾝﾏﾁ","pref":"秋田県","city":"秋田市","address":"楢山城南町"},
{"zip_code":"0100021","kana_pref":"ｱｷﾀｹﾝ","kana_city":"ｱｷﾀｼ","kana_address":"ﾅﾗﾔﾏﾉﾎﾞﾘﾏﾁ","pref":"秋田県","city":"秋田市","address":"楢山登町"},
{"zip_code":"0100026","kana_pref":"ｱｷﾀｹﾝ","kana_city":"ｱｷﾀｼ","kana_address":"ﾅﾗﾔﾏﾌﾙｶﾜｼﾝﾏﾁ","pref":"秋田県","city":"秋田市","address":"楢山古川新町"},
{"zip_code":"0100023","kana_pref":"ｱｷﾀｹﾝ","kana_city":"ｱｷﾀｼ","kana_address":"ﾅﾗﾔﾏﾎﾝﾁｮｳ","pref":"秋田県","city":"秋田市","address":"楢山本町"},
{"zip_code":"0100024","kana_pref":"ｱｷﾀｹﾝ","kana_city":"ｱｷﾀｼ","kana_address":"ﾅﾗﾔﾏﾐﾅﾐｼﾝﾏﾁｶﾐﾁｮｳ","pref":"秋田県","city":"秋田市","address":"楢山南新町上丁"},
{"zip_code":"0100027","kana_pref":"ｱｷﾀｹﾝ","kana_city":"ｱｷﾀｼ","kana_address":"ﾅﾗﾔﾏﾐﾅﾐｼﾝﾏﾁｼﾓﾁｮｳ","pref":"秋田県","city":"秋田市","address":"楢山南新町下丁"},
{"zip_code":"0100022","kana_pref":"ｱｷﾀｹﾝ","kana_city":"ｱｷﾀｼ","kana_address":"ﾅﾗﾔﾏﾐﾅﾐﾅｶﾁｮｳ","pref":"秋田県","city":"秋田市","address":"楢山南中町"},
{"zip_code":"0101423","kana_pref":"ｱｷﾀｹﾝ","kana_city":"ｱｷﾀｼ","kana_address":"ﾆｲﾀﾞ","pref":"秋田県","city":"秋田市","address":"仁井田"},
{"zip_code":"0101435","kana_pref":"ｱｷﾀｹﾝ","kana_city":"ｱｷﾀｼ","kana_address":"ﾆｲﾀﾞｶﾀﾅｶﾁｮｳ","pref":"秋田県","city":"秋田市","address":"仁井田潟中町"},
{"zip_code":"0101426","kana_pref":"ｱｷﾀｹﾝ","kana_city":"ｱｷﾀｼ","kana_address":"ﾆｲﾀﾞｺﾅｶｼﾞﾏ","pref":"秋田県","city":"秋田市","address":"仁井田小中島"},
{"zip_code":"0101433","kana_pref":"ｱｷﾀｹﾝ","kana_city":"ｱｷﾀｼ","kana_address":"ﾆｲﾀﾞｻｶｴﾁｮｳ","pref":"秋田県","city":"秋田市","address":"仁井田栄町"},
{"zip_code":"0101427","kana_pref":"ｱｷﾀｹﾝ","kana_city":"ｱｷﾀｼ","kana_address":"ﾆｲﾀﾞｼﾝﾃﾞﾝ","pref":"秋田県","city":"秋田市","address":"仁井田新田"},
{"zip_code":"0101434","kana_pref":"ｱｷﾀｹﾝ","kana_city":"ｱｷﾀｼ","kana_address":"ﾆｲﾀﾞﾌｷﾐﾁｮｳ","pref":"秋田県","city":"秋田市","address":"仁井田蕗見町"},
{"zip_code":"0101432","kana_pref":"ｱｷﾀｹﾝ","kana_city":"ｱｷﾀｼ","kana_address":"ﾆｲﾀﾞﾌｸｼﾏ","pref":"秋田県","city":"秋田市","address":"仁井田福島"},
{"zip_code":"0101431","kana_pref":"ｱｷﾀｹﾝ","kana_city":"ｱｷﾀｼ","kana_address":"ﾆｲﾀﾞﾌﾀﾂﾔ","pref":"秋田県","city":"秋田市","address":"仁井田二ツ屋"},
{"zip_code":"0101421","kana_pref":"ｱｷﾀｹﾝ","kana_city":"ｱｷﾀｼ","kana_address":"ﾆｲﾀﾞﾎﾝﾁｮｳ","pref":"秋田県","city":"秋田市","address":"仁井田本町"},
{"zip_code":"0101437","kana_pref":"ｱｷﾀｹﾝ","kana_city":"ｱｷﾀｼ","kana_address":"ﾆｲﾀﾞﾐﾄﾞﾘﾁｮｳ","pref":"秋田県","city":"秋田市","address":"仁井田緑町"},
{"zip_code":"0101422","kana_pref":"ｱｷﾀｹﾝ","kana_city":"ｱｷﾀｼ","kana_address":"ﾆｲﾀﾞﾒﾅｶﾞﾀ","pref":"秋田県","city":"秋田市","address":"仁井田目長田"},
{"zip_code":"0100821","kana_pref":"ｱｷﾀｹﾝ","kana_city":"ｱｷﾀｼ","kana_address":"ﾆｺﾞﾘｶﾜ","pref":"秋田県","city":"秋田市","address":"濁川"},
{"zip_code":"0100824","kana_pref":"ｱｷﾀｹﾝ","kana_city":"ｱｷﾀｼ","kana_address":"ﾆﾍﾞﾂ","pref":"秋田県","city":"秋田市","address":"仁別"},
{"zip_code":"0101654","kana_pref":"ｱｷﾀｹﾝ","kana_city":"ｱｷﾀｼ","kana_address":"ﾊﾏﾀﾞ","pref":"秋田県","city":"秋田市","address":"浜田"},
{"zip_code":"0100065","kana_pref":"ｱｷﾀｹﾝ","kana_city":"ｱｷﾀｼ","kana_address":"ﾊﾞﾗｼﾞﾏ","pref":"秋田県","city":"秋田市","address":"茨島"},
{"zip_code":"0100003","kana_pref":"ｱｷﾀｹﾝ","kana_city":"ｱｷﾀｼ","kana_address":"ﾋｶﾞｼﾄﾞｵﾘ","pref":"秋田県","city":"秋田市","address":"東通"},
{"zip_code":"0100004","kana_pref":"ｱｷﾀｹﾝ","kana_city":"ｱｷﾀｼ","kana_address":"ﾋｶﾞｼﾄﾞｵﾘｶﾝﾉﾝﾏｴ","pref":"秋田県","city":"秋田市","address":"東通観音前"},
{"zip_code":"0100006","kana_pref":"ｱｷﾀｹﾝ","kana_city":"ｱｷﾀｼ","kana_address":"ﾋｶﾞｼﾄﾞｵﾘﾀﾃﾉｺｼ","pref":"秋田県","city":"秋田市","address":"東通館ノ越"},
{"zip_code":"0100002","kana_pref":"ｱｷﾀｹﾝ","kana_city":"ｱｷﾀｼ","kana_address":"ﾋｶﾞｼﾄﾞｵﾘﾅｶﾏﾁ","pref":"秋田県","city":"秋田市","address":"東通仲町"},
{"zip_code":"0100005","kana_pref":"ｱｷﾀｹﾝ","kana_city":"ｱｷﾀｼ","kana_address":"ﾋｶﾞｼﾄﾞｵﾘﾐｮｳﾃﾞﾝ","pref":"秋田県","city":"秋田市","address":"東通明田"},
{"zip_code":"0100041","kana_pref":"ｱｷﾀｹﾝ","kana_city":"ｱｷﾀｼ","kana_address":"ﾋﾛｵﾓﾃ","pref":"秋田県","city":"秋田市","address":"広面"},
{"zip_code":"0100853","kana_pref":"ｱｷﾀｹﾝ","kana_city":"ｱｷﾀｼ","kana_address":"ﾍﾋﾞﾉ","pref":"秋田県","city":"秋田市","address":"蛇野"},
{"zip_code":"0100915","kana_pref":"ｱｷﾀｹﾝ","kana_city":"ｱｷﾀｼ","kana_address":"ﾎﾄﾞﾉ","pref":"秋田県","city":"秋田市","address":"保戸野"},
{"zip_code":"0100902","kana_pref":"ｱｷﾀｹﾝ","kana_city":"ｱｷﾀｼ","kana_address":"ﾎﾄﾞﾉｶﾅｻﾏﾁ","pref":"秋田県","city":"秋田市","address":"保戸野金砂町"},
{"zip_code":"0100901","kana_pref":"ｱｷﾀｹﾝ","kana_city":"ｱｷﾀｼ","kana_address":"ﾎﾄﾞﾉｻｸﾗﾏﾁ","pref":"秋田県","city":"秋田市","address":"保戸野桜町"},
{"zip_code":"0100911","kana_pref":"ｱｷﾀｹﾝ","kana_city":"ｱｷﾀｼ","kana_address":"ﾎﾄﾞﾉｽﾜﾁｮｳ","pref":"秋田県","city":"秋田市","address":"保戸野すわ町"},
{"zip_code":"0100914","kana_pref":"ｱｷﾀｹﾝ","kana_city":"ｱｷﾀｼ","kana_address":"ﾎﾄﾞﾉﾁﾖﾀﾞﾏﾁ","pref":"秋田県","city":"秋田市","address":"保戸野千代田町"},
{"zip_code":"0100913","kana_pref":"ｱｷﾀｹﾝ","kana_city":"ｱｷﾀｼ","kana_address":"ﾎﾄﾞﾉﾃｯﾎﾟｳﾏﾁ","pref":"秋田県","city":"秋田市","address":"保戸野鉄砲町"},
{"zip_code":"0100912","kana_pref":"ｱｷﾀｹﾝ","kana_city":"ｱｷﾀｼ","kana_address":"ﾎﾄﾞﾉﾄｵﾘﾏﾁ","pref":"秋田県","city":"秋田市","address":"保戸野通町"},
{"zip_code":"0100905","kana_pref":"ｱｷﾀｹﾝ","kana_city":"ｱｷﾀｼ","kana_address":"ﾎﾄﾞﾉﾅｶﾁｮｳ","pref":"秋田県","city":"秋田市","address":"保戸野中町"},
{"zip_code":"0100903","kana_pref":"ｱｷﾀｹﾝ","kana_city":"ｱｷﾀｼ","kana_address":"ﾎﾄﾞﾉﾊｯﾁｮｳ","pref":"秋田県","city":"秋田市","address":"保戸野八丁"},
{"zip_code":"0100904","kana_pref":"ｱｷﾀｹﾝ","kana_city":"ｱｷﾀｼ","kana_address":"ﾎﾄﾞﾉﾊﾗﾉﾏﾁ","pref":"秋田県","city":"秋田市","address":"保戸野原の町"},
{"zip_code":"0100011","kana_pref":"ｱｷﾀｹﾝ","kana_city":"ｱｷﾀｼ","kana_address":"ﾐﾅﾐﾄﾞｵﾘｶﾒﾉﾁｮｳ","pref":"秋田県","city":"秋田市","address":"南通亀の町"},
{"zip_code":"0100013","kana_pref":"ｱｷﾀｹﾝ","kana_city":"ｱｷﾀｼ","kana_address":"ﾐﾅﾐﾄﾞｵﾘﾂｷｼﾞ","pref":"秋田県","city":"秋田市","address":"南通築地"},
{"zip_code":"0100012","kana_pref":"ｱｷﾀｹﾝ","kana_city":"ｱｷﾀｼ","kana_address":"ﾐﾅﾐﾄﾞｵﾘﾐｿﾉﾏﾁ","pref":"秋田県","city":"秋田市","address":"南通みその町"},
{"zip_code":"0100014","kana_pref":"ｱｷﾀｹﾝ","kana_city":"ｱｷﾀｼ","kana_address":"ﾐﾅﾐﾄﾞｵﾘﾐﾔﾀ","pref":"秋田県","city":"秋田市","address":"南通宮田"},
{"zip_code":"0101601","kana_pref":"ｱｷﾀｹﾝ","kana_city":"ｱｷﾀｼ","kana_address":"ﾑｶｲﾊﾏ","pref":"秋田県","city":"秋田市","address":"向浜"},
{"zip_code":"0100825","kana_pref":"ｱｷﾀｹﾝ","kana_city":"ｱｷﾀｼ","kana_address":"ﾔﾅｷﾞﾀﾞ","pref":"秋田県","city":"秋田市","address":"柳田"},
{"zip_code":"0100975","kana_pref":"ｱｷﾀｹﾝ","kana_city":"ｱｷﾀｼ","kana_address":"ﾔﾊﾞｾ","pref":"秋田県","city":"秋田市","address":"八橋"},
{"zip_code":"0100961","kana_pref":"ｱｷﾀｹﾝ","kana_city":"ｱｷﾀｼ","kana_address":"ﾔﾊﾞｾｲｻﾉ","pref":"秋田県","city":"秋田市","address":"八橋イサノ"},
{"zip_code":"0100974","kana_pref":"ｱｷﾀｹﾝ","kana_city":"ｱｷﾀｼ","kana_address":"ﾔﾊﾞｾｳﾝﾄﾞｳｺｳｴﾝ","pref":"秋田県","city":"秋田市","address":"八橋運動公園"},
{"zip_code":"0100963","kana_pref":"ｱｷﾀｹﾝ","kana_city":"ｱｷﾀｼ","kana_address":"ﾔﾊﾞｾｵｵﾇﾏﾁｮｳ","pref":"秋田県","city":"秋田市","address":"八橋大沼町"},
{"zip_code":"0100962","kana_pref":"ｱｷﾀｹﾝ","kana_city":"ｱｷﾀｼ","kana_address":"ﾔﾊﾞｾｵｵﾊﾀ","pref":"秋田県","city":"秋田市","address":"八橋大畑"},
{"zip_code":"0100965","kana_pref":"ｱｷﾀｹﾝ","kana_city":"ｱｷﾀｼ","kana_address":"ﾔﾊﾞｾｼﾝｶﾜﾑｶｲ","pref":"秋田県","city":"秋田市","address":"八橋新川向"},
{"zip_code":"0100977","kana_pref":"ｱｷﾀｹﾝ","kana_city":"ｱｷﾀｼ","kana_address":"ﾔﾊﾞｾﾀﾞｲﾄﾞｳﾋｶﾞｼ","pref":"秋田県","city":"秋田市","address":"八橋大道東"},
{"zip_code":"0100972","kana_pref":"ｱｷﾀｹﾝ","kana_city":"ｱｷﾀｼ","kana_address":"ﾔﾊﾞｾﾀｺﾞﾛｳ","pref":"秋田県","city":"秋田市","address":"八橋田五郎"},
{"zip_code":"0100964","kana_pref":"ｱｷﾀｹﾝ","kana_city":"ｱｷﾀｼ","kana_address":"ﾔﾊﾞｾﾄﾞｼﾞｮｳﾇﾏﾏﾁ","pref":"秋田県","city":"秋田市","address":"八橋鯲沼町"},
{"zip_code":"0100973","kana_pref":"ｱｷﾀｹﾝ","kana_city":"ｱｷﾀｼ","kana_address":"ﾔﾊﾞｾﾎﾝﾁｮｳ","pref":"秋田県","city":"秋田市","address":"八橋本町"},
{"zip_code":"0100976","kana_pref":"ｱｷﾀｹﾝ","kana_city":"ｱｷﾀｼ","kana_address":"ﾔﾊﾞｾﾐﾅﾐ","pref":"秋田県","city":"秋田市","address":"八橋南"},
{"zip_code":"0100971","kana_pref":"ｱｷﾀｹﾝ","kana_city":"ｱｷﾀｼ","kana_address":"ﾔﾊﾞｾﾐﾜﾁｮｳ","pref":"秋田県","city":"秋田市","address":"八橋三和町"},
{"zip_code":"0101429","kana_pref":"ｱｷﾀｹﾝ","kana_city":"ｱｷﾀｼ","kana_address":"ﾔﾏﾃﾀﾞｲ","pref":"秋田県","city":"秋田市","address":"山手台"},
{"zip_code":"0101231","kana_pref":"ｱｷﾀｹﾝ","kana_city":"ｱｷﾀｼ","kana_address":"ﾕｳﾜｱｲｶﾜ","pref":"秋田県","city":"秋田市","address":"雄和相川"},
{"zip_code":"0101341","kana_pref":"ｱｷﾀｹﾝ","kana_city":"ｱｷﾀｼ","kana_address":"ﾕｳﾜｱﾗﾜ","pref":"秋田県","city":"秋田市","address":"雄和新波"},
{"zip_code":"0101351","kana_pref":"ｱｷﾀｹﾝ","kana_city":"ｱｷﾀｼ","kana_address":"ﾕｳﾜｲｶﾘﾀﾞ","pref":"秋田県","city":"秋田市","address":"雄和碇田"},
{"zip_code":"0101222","kana_pref":"ｱｷﾀｹﾝ","kana_city":"ｱｷﾀｼ","kana_address":"ﾕｳﾜｲｼﾀﾞ","pref":"秋田県","city":"秋田市","address":"雄和石田"},
{"zip_code":"0101352","kana_pref":"ｱｷﾀｹﾝ","kana_city":"ｱｷﾀｼ","kana_address":"ﾕｳﾜｶﾔｶﾞｻﾜ","pref":"秋田県","city":"秋田市","address":"雄和萱ケ沢"},
{"zip_code":"0101225","kana_pref":"ｱｷﾀｹﾝ","kana_city":"ｱｷﾀｼ","kana_address":"ﾕｳﾜｻﾃﾞｺ","pref":"秋田県","city":"秋田市","address":"雄和左手子"},
{"zip_code":"0101202","kana_pref":"ｱｷﾀｹﾝ","kana_city":"ｱｷﾀｼ","kana_address":"ﾕｳﾜｼﾊﾞﾉｼﾝﾃﾞﾝ","pref":"秋田県","city":"秋田市","address":"雄和芝野新田"},
{"zip_code":"0101203","kana_pref":"ｱｷﾀｹﾝ","kana_city":"ｱｷﾀｼ","kana_address":"ﾕｳﾜｼﾓｸﾛｾ","pref":"秋田県","city":"秋田市","address":"雄和下黒瀬"},
{"zip_code":"0101342","kana_pref":"ｱｷﾀｹﾝ","kana_city":"ｱｷﾀｼ","kana_address":"ﾕｳﾜｼﾞﾝｶﾞﾑﾗ","pref":"秋田県","city":"秋田市","address":"雄和神ケ村"},
{"zip_code":"0101201","kana_pref":"ｱｷﾀｹﾝ","kana_city":"ｱｷﾀｼ","kana_address":"ﾕｳﾜﾀｸｻｶﾞﾜ","pref":"秋田県","city":"秋田市","address":"雄和田草川"},
{"zip_code":"0101224","kana_pref":"ｱｷﾀｹﾝ","kana_city":"ｱｷﾀｼ","kana_address":"ﾕｳﾜﾀﾈｻﾞﾜ","pref":"秋田県","city":"秋田市","address":"雄和種沢"},
{"zip_code":"0101343","kana_pref":"ｱｷﾀｹﾝ","kana_city":"ｱｷﾀｼ","kana_address":"ﾕｳﾜﾂﾅｷﾞ","pref":"秋田県","city":"秋田市","address":"雄和繋"},
{"zip_code":"0101211","kana_pref":"ｱｷﾀｹﾝ","kana_city":"ｱｷﾀｼ","kana_address":"ﾕｳﾜﾂﾊﾞｷｶﾜ","pref":"秋田県","city":"秋田市","address":"雄和椿川"},
{"zip_code":"0101232","kana_pref":"ｱｷﾀｹﾝ","kana_city":"ｱｷﾀｼ","kana_address":"ﾕｳﾜﾄｶﾞｻﾞﾜ","pref":"秋田県","city":"秋田市","address":"雄和戸賀沢"},
{"zip_code":"0101212","kana_pref":"ｱｷﾀｹﾝ","kana_city":"ｱｷﾀｼ","kana_address":"ﾕｳﾜﾋﾗｵﾄﾘ","pref":"秋田県","city":"秋田市","address":"雄和平尾鳥"},
{"zip_code":"0101221","kana_pref":"ｱｷﾀｹﾝ","kana_city":"ｱｷﾀｼ","kana_address":"ﾕｳﾜﾋﾗｻﾜ","pref":"秋田県","city":"秋田市","address":"雄和平沢"},
{"zip_code":"0101223","kana_pref":"ｱｷﾀｹﾝ","kana_city":"ｱｷﾀｼ","kana_address":"ﾕｳﾜﾐｮｳﾎｳ","pref":"秋田県","city":"秋田市","address":"雄和妙法"},
{"zip_code":"0101344","kana_pref":"ｱｷﾀｹﾝ","kana_city":"ｱｷﾀｼ","kana_address":"ﾕｳﾜﾑｶｲﾉ","pref":"秋田県","city":"秋田市","address":"雄和向野"},
{"zip_code":"0101233","kana_pref":"ｱｷﾀｹﾝ","kana_city":"ｱｷﾀｼ","kana_address":"ﾕｳﾜﾒﾒｷ","pref":"秋田県","city":"秋田市","address":"雄和女米木"},
{"zip_code":"0100044","kana_pref":"ｱｷﾀｹﾝ","kana_city":"ｱｷﾀｼ","kana_address":"ﾖｺﾓﾘ","pref":"秋田県","city":"秋田市","address":"横森"},
{"zip_code":"0101417","kana_pref":"ｱｷﾀｹﾝ","kana_city":"ｱｷﾀｼ","kana_address":"ﾖﾂｺﾞﾔ","pref":"秋田県","city":"秋田市","address":"四ツ小屋"},
{"zip_code":"0101418","kana_pref":"ｱｷﾀｹﾝ","kana_city":"ｱｷﾀｼ","kana_address":"ﾖﾂｺﾞﾔｺｱｼﾞ","pref":"秋田県","city":"秋田市","address":"四ツ小屋小阿地"},
{"zip_code":"0101416","kana_pref":"ｱｷﾀｹﾝ","kana_city":"ｱｷﾀｼ","kana_address":"ﾖﾂｺﾞﾔｽｴﾄﾞﾏﾂﾓﾄ","pref":"秋田県","city":"秋田市","address":"四ツ小屋末戸松本"},
{"zip_code":"0100500","kana_pref":"ｱｷﾀｹﾝ","kana_city":"ｵｶﾞｼ","kana_address":"","pref":"秋田県","city":"男鹿市","address":""},
{"zip_code":"0100353","kana_pref":"ｱｷﾀｹﾝ","kana_city":"ｵｶﾞｼ","kana_address":"ｲﾘｱｲｶﾐﾔ","pref":"秋田県","city":"男鹿市","address":"五里合神谷"},
{"zip_code":"0100352","kana_pref":"ｱｷﾀｹﾝ","kana_city":"ｵｶﾞｼ","kana_address":"ｲﾘｱｲｺﾄｶﾞﾜ","pref":"秋田県","city":"男鹿市","address":"五里合琴川"},
{"zip_code":"0100355","kana_pref":"ｱｷﾀｹﾝ","kana_city":"ｵｶﾞｼ","kana_address":"ｲﾘｱｲｼﾋﾞｶﾜ","pref":"秋田県","city":"男鹿市","address":"五里合鮪川"},
{"zip_code":"0100354","kana_pref":"ｱｷﾀｹﾝ","kana_city":"ｵｶﾞｼ","kana_address":"ｲﾘｱｲﾁｭｳｲｼ","pref":"秋田県","city":"男鹿市","address":"五里合中石"},
{"zip_code":"0100351","kana_pref":"ｱｷﾀｹﾝ","kana_city":"ｵｶﾞｼ","kana_address":"ｲﾘｱｲﾊｺｲ","pref":"秋田県","city":"男鹿市","address":"五里合箱井"},
{"zip_code":"0100421","kana_pref":"ｱｷﾀｹﾝ","kana_city":"ｵｶﾞｼ","kana_address":"ｳﾉｷ","pref":"秋田県","city":"男鹿市","address":"鵜木"},
{"zip_code":"0100664","kana_pref":"ｱｷﾀｹﾝ","kana_city":"ｵｶﾞｼ","kana_address":"ｵｶﾞﾅｶｺｸﾕｳﾁﾅｲ","pref":"秋田県","city":"男鹿市","address":"男鹿中国有地内"},
{"zip_code":"0100663","kana_pref":"ｱｷﾀｹﾝ","kana_city":"ｵｶﾞｼ","kana_address":"ｵｶﾞﾅｶﾀｷｶﾞﾜ","pref":"秋田県","city":"男鹿市","address":"男鹿中滝川"},
{"zip_code":"0100662","kana_pref":"ｱｷﾀｹﾝ","kana_city":"ｵｶﾞｼ","kana_address":"ｵｶﾞﾅｶﾅｶﾏｸﾞﾁ","pref":"秋田県","city":"男鹿市","address":"男鹿中中間口"},
{"zip_code":"0100661","kana_pref":"ｱｷﾀｹﾝ","kana_city":"ｵｶﾞｼ","kana_address":"ｵｶﾞﾅｶﾊﾏﾏｸﾞﾁ","pref":"秋田県","city":"男鹿市","address":"男鹿中浜間口"},
{"zip_code":"0100665","kana_pref":"ｱｷﾀｹﾝ","kana_city":"ｵｶﾞｼ","kana_address":"ｵｶﾞﾅｶﾔﾏﾏﾁ","pref":"秋田県","city":"男鹿市","address":"男鹿中山町"},
{"zip_code":"0100422","kana_pref":"ｱｷﾀｹﾝ","kana_city":"ｵｶﾞｼ","kana_address":"ｶｸﾏｻﾞｷ","pref":"秋田県","city":"男鹿市","address":"角間崎"},
{"zip_code":"0100681","kana_pref":"ｱｷﾀｹﾝ","kana_city":"ｵｶﾞｼ","kana_address":"ｷﾀｳﾗｱｲｶﾜ","pref":"秋田県","city":"男鹿市","address":"北浦相川"},
{"zip_code":"0100684","kana_pref":"ｱｷﾀｹﾝ","kana_city":"ｵｶﾞｼ","kana_address":"ｷﾀｳﾗｱﾝｾﾞﾝｼﾞ","pref":"秋田県","city":"男鹿市","address":"北浦安全寺"},
{"zip_code":"0100682","kana_pref":"ｱｷﾀｹﾝ","kana_city":"ｵｶﾞｼ","kana_address":"ｷﾀｳﾗｵﾓﾃﾏﾁ","pref":"秋田県","city":"男鹿市","address":"北浦表町"},
{"zip_code":"0100683","kana_pref":"ｱｷﾀｹﾝ","kana_city":"ｵｶﾞｼ","kana_address":"ｷﾀｳﾗｷﾀｳﾗ","pref":"秋田県","city":"男鹿市","address":"北浦北浦"},
{"zip_code":"0100685","kana_pref":"ｱｷﾀｹﾝ","kana_city":"ｵｶﾞｼ","kana_address":"ｷﾀｳﾗｼﾝｻﾞﾝ","pref":"秋田県","city":"男鹿市","address":"北浦真山"},
{"zip_code":"0100676","kana_pref":"ｱｷﾀｹﾝ","kana_city":"ｵｶﾞｼ","kana_address":"ｷﾀｳﾗﾆｼｸﾛｻﾜ","pref":"秋田県","city":"男鹿市","address":"北浦西黒沢"},
{"zip_code":"0100686","kana_pref":"ｱｷﾀｹﾝ","kana_city":"ｵｶﾞｼ","kana_address":"ｷﾀｳﾗﾆｼﾐｽﾞｸﾞﾁ","pref":"秋田県","city":"男鹿市","address":"北浦西水口"},
{"zip_code":"0100675","kana_pref":"ｱｷﾀｹﾝ","kana_city":"ｵｶﾞｼ","kana_address":"ｷﾀｳﾗﾆｭｳﾄﾞｳｻﾞｷ","pref":"秋田県","city":"男鹿市","address":"北浦入道崎"},
{"zip_code":"0100688","kana_pref":"ｱｷﾀｹﾝ","kana_city":"ｵｶﾞｼ","kana_address":"ｷﾀｳﾗﾉﾑﾗ","pref":"秋田県","city":"男鹿市","address":"北浦野村"},
{"zip_code":"0100687","kana_pref":"ｱｷﾀｹﾝ","kana_city":"ｵｶﾞｼ","kana_address":"ｷﾀｳﾗﾕﾓﾄ","pref":"秋田県","city":"男鹿市","address":"北浦湯本"},
{"zip_code":"0100671","kana_pref":"ｱｷﾀｹﾝ","kana_city":"ｵｶﾞｼ","kana_address":"ﾄｶﾞｶﾓｱｵｻ","pref":"秋田県","city":"男鹿市","address":"戸賀加茂青砂"},
{"zip_code":"0100673","kana_pref":"ｱｷﾀｹﾝ","kana_city":"ｵｶﾞｼ","kana_address":"ﾄｶﾞｼｵﾊﾏ","pref":"秋田県","city":"男鹿市","address":"戸賀塩浜"},
{"zip_code":"0100674","kana_pref":"ｱｷﾀｹﾝ","kana_city":"ｵｶﾞｼ","kana_address":"ﾄｶﾞﾄｶﾞ","pref":"秋田県","city":"男鹿市","address":"戸賀戸賀"},
{"zip_code":"0100672","kana_pref":"ｱｷﾀｹﾝ","kana_city":"ｵｶﾞｼ","kana_address":"ﾄｶﾞﾊﾏｼｵﾔ","pref":"秋田県","city":"男鹿市","address":"戸賀浜塩谷"},
{"zip_code":"0100401","kana_pref":"ｱｷﾀｹﾝ","kana_city":"ｵｶﾞｼ","kana_address":"ﾉｲｼ","pref":"秋田県","city":"男鹿市","address":"野石"},
{"zip_code":"0100423","kana_pref":"ｱｷﾀｹﾝ","kana_city":"ｵｶﾞｼ","kana_address":"ﾌｸｶﾞﾜ","pref":"秋田県","city":"男鹿市","address":"福川"},
{"zip_code":"0100411","kana_pref":"ｱｷﾀｹﾝ","kana_city":"ｵｶﾞｼ","kana_address":"ﾌｸﾒｻﾞﾜ","pref":"秋田県","city":"男鹿市","address":"福米沢"},
{"zip_code":"0100431","kana_pref":"ｱｷﾀｹﾝ","kana_city":"ｵｶﾞｼ","kana_address":"ﾌｯﾄ","pref":"秋田県","city":"男鹿市","address":"払戸"},
{"zip_code":"0100523","kana_pref":"ｱｷﾀｹﾝ","kana_city":"ｵｶﾞｼ","kana_address":"ﾌﾅｶﾞﾜﾐﾅﾄｵﾝﾅｶﾞﾜ","pref":"秋田県","city":"男鹿市","address":"船川港女川"},
{"zip_code":"0100503","kana_pref":"ｱｷﾀｹﾝ","kana_city":"ｵｶﾞｼ","kana_address":"ﾌﾅｶﾞﾜﾐﾅﾄｶﾈｶﾞﾜ","pref":"秋田県","city":"男鹿市","address":"船川港金川"},
{"zip_code":"0100534","kana_pref":"ｱｷﾀｹﾝ","kana_city":"ｵｶﾞｼ","kana_address":"ﾌﾅｶﾞﾜﾐﾅﾄｺﾊﾏ","pref":"秋田県","city":"男鹿市","address":"船川港小浜"},
{"zip_code":"0100533","kana_pref":"ｱｷﾀｹﾝ","kana_city":"ｵｶﾞｼ","kana_address":"ﾌﾅｶﾞﾜﾐﾅﾄｽｺﾞﾛｸ","pref":"秋田県","city":"男鹿市","address":"船川港双六"},
{"zip_code":"0100531","kana_pref":"ｱｷﾀｹﾝ","kana_city":"ｵｶﾞｼ","kana_address":"ﾌﾅｶﾞﾜﾐﾅﾄﾀﾞｲｼﾏ","pref":"秋田県","city":"男鹿市","address":"船川港台島"},
{"zip_code":"0100532","kana_pref":"ｱｷﾀｹﾝ","kana_city":"ｵｶﾞｼ","kana_address":"ﾌﾅｶﾞﾜﾐﾅﾄﾂﾊﾞｷ","pref":"秋田県","city":"男鹿市","address":"船川港椿"},
{"zip_code":"0100501","kana_pref":"ｱｷﾀｹﾝ","kana_city":"ｵｶﾞｼ","kana_address":"ﾌﾅｶﾞﾜﾐﾅﾄﾆｲﾔﾏ","pref":"秋田県","city":"男鹿市","address":"船川港仁井山"},
{"zip_code":"0100502","kana_pref":"ｱｷﾀｹﾝ","kana_city":"ｵｶﾞｼ","kana_address":"ﾌﾅｶﾞﾜﾐﾅﾄﾋﾂﾞﾒ","pref":"秋田県","city":"男鹿市","address":"船川港比詰"},
{"zip_code":"0100511","kana_pref":"ｱｷﾀｹﾝ","kana_city":"ｵｶﾞｼ","kana_address":"ﾌﾅｶﾞﾜﾐﾅﾄﾌﾅｶﾞﾜ","pref":"秋田県","city":"男鹿市","address":"船川港船川"},
{"zip_code":"0100535","kana_pref":"ｱｷﾀｹﾝ","kana_city":"ｵｶﾞｼ","kana_address":"ﾌﾅｶﾞﾜﾐﾅﾄﾎﾝｻﾞﾝﾓﾝｾﾞﾝ","pref":"秋田県","city":"男鹿市","address":"船川港本山門前"},
{"zip_code":"0100522","kana_pref":"ｱｷﾀｹﾝ","kana_city":"ｵｶﾞｼ","kana_address":"ﾌﾅｶﾞﾜﾐﾅﾄﾏｽｶﾞﾜ","pref":"秋田県","city":"男鹿市","address":"船川港増川"},
{"zip_code":"0100521","kana_pref":"ｱｷﾀｹﾝ","kana_city":"ｵｶﾞｼ","kana_address":"ﾌﾅｶﾞﾜﾐﾅﾄﾐﾅﾐﾋﾗｻﾜ","pref":"秋田県","city":"男鹿市","address":"船川港南平沢"},
{"zip_code":"0100341","kana_pref":"ｱｷﾀｹﾝ","kana_city":"ｵｶﾞｼ","kana_address":"ﾌﾅｺｼ","pref":"秋田県","city":"男鹿市","address":"船越"},
{"zip_code":"0100412","kana_pref":"ｱｷﾀｹﾝ","kana_city":"ｵｶﾞｼ","kana_address":"ﾎﾝﾅｲ","pref":"秋田県","city":"男鹿市","address":"本内"},
{"zip_code":"0100413","kana_pref":"ｱｷﾀｹﾝ","kana_city":"ｵｶﾞｼ","kana_address":"ﾏﾂｷｻﾜ","pref":"秋田県","city":"男鹿市","address":"松木沢"},
{"zip_code":"0100345","kana_pref":"ｱｷﾀｹﾝ","kana_city":"ｵｶﾞｼ","kana_address":"ﾜｷﾓﾄｳﾗﾀﾞ","pref":"秋田県","city":"男鹿市","address":"脇本浦田"},
{"zip_code":"0100343","kana_pref":"ｱｷﾀｹﾝ","kana_city":"ｵｶﾞｼ","kana_address":"ﾜｷﾓﾄﾀﾔｻﾞﾜ","pref":"秋田県","city":"男鹿市","address":"脇本田谷沢"},
{"zip_code":"0100346","kana_pref":"ｱｷﾀｹﾝ","kana_city":"ｵｶﾞｼ","kana_address":"ﾜｷﾓﾄﾀﾙｻﾞﾜ","pref":"秋田県","city":"男鹿市","address":"脇本樽沢"},
{"zip_code":"0100344","kana_pref":"ｱｷﾀｹﾝ","kana_city":"ｵｶﾞｼ","kana_address":"ﾜｷﾓﾄﾄﾐﾅｶﾞ","pref":"秋田県","city":"男鹿市","address":"脇本富永"},
{"zip_code":"0100347","kana_pref":"ｱｷﾀｹﾝ","kana_city":"ｵｶﾞｼ","kana_address":"ﾜｷﾓﾄﾓﾓｶﾜ","pref":"秋田県","city":"男鹿市","address":"脇本百川"},
{"zip_code":"0100342","kana_pref":"ｱｷﾀｹﾝ","kana_city":"ｵｶﾞｼ","kana_address":"ﾜｷﾓﾄﾜｷﾓﾄ","pref":"秋田県","city":"男鹿市","address":"脇本脇本"},
{"zip_code":"0100202","kana_pref":"ｱｷﾀｹﾝ","kana_city":"ｶﾀｶﾞﾐｼ","kana_address":"ﾃﾝﾉｳｵｵｻｷ","pref":"秋田県","city":"潟上市","address":"天王大崎"},
{"zip_code":"0100101","kana_pref":"ｱｷﾀｹﾝ","kana_city":"ｶﾀｶﾞﾐｼ","kana_address":"ﾃﾝﾉｳ","pref":"秋田県","city":"潟上市","address":"天王"},
{"zip_code":"0100201","kana_pref":"ｱｷﾀｹﾝ","kana_city":"ｶﾀｶﾞﾐｼ","kana_address":"ﾃﾝﾉｳ","pref":"秋田県","city":"潟上市","address":"天王"},
{"zip_code":"0100400","kana_pref":"ｱｷﾀｹﾝ","kana_city":"ﾐﾅﾐｱｷﾀｸﾞﾝｵｵｶﾞﾀﾑﾗ","kana_address":"","pref":"秋田県","city":"南秋田郡大潟村","address":""},
{"zip_code":"0100451","kana_pref":"ｱｷﾀｹﾝ","kana_city":"ﾐﾅﾐｱｷﾀｸﾞﾝｵｵｶﾞﾀﾑﾗ","kana_address":"ｵｵｶﾞﾀ","pref":"秋田県","city":"南秋田郡大潟村","address":"大潟"},
{"zip_code":"0100452","kana_pref":"ｱｷﾀｹﾝ","kana_city":"ﾐﾅﾐｱｷﾀｸﾞﾝｵｵｶﾞﾀﾑﾗ","kana_address":"ｶﾀｶﾞﾐ","pref":"秋田県","city":"南秋田郡大潟村","address":"方上"},
{"zip_code":"0100453","kana_pref":"ｱｷﾀｹﾝ","kana_city":"ﾐﾅﾐｱｷﾀｸﾞﾝｵｵｶﾞﾀﾑﾗ","kana_address":"ｶﾀｸﾞﾁ","pref":"秋田県","city":"南秋田郡大潟村","address":"方口"},
{"zip_code":"0100441","kana_pref":"ｱｷﾀｹﾝ","kana_city":"ﾐﾅﾐｱｷﾀｸﾞﾝｵｵｶﾞﾀﾑﾗ","kana_address":"ｷﾀ","pref":"秋田県","city":"南秋田郡大潟村","address":"北"},
{"zip_code":"0100443","kana_pref":"ｱｷﾀｹﾝ","kana_city":"ﾐﾅﾐｱｷﾀｸﾞﾝｵｵｶﾞﾀﾑﾗ","kana_address":"ﾁｭｳｵｳ","pref":"秋田県","city":"南秋田郡大潟村","address":"中央"},
{"zip_code":"0100454","kana_pref":"ｱｷﾀｹﾝ","kana_city":"ﾐﾅﾐｱｷﾀｸﾞﾝｵｵｶﾞﾀﾑﾗ","kana_address":"ﾅｶﾉ","pref":"秋田県","city":"南秋田郡大潟村","address":"中野"},
{"zip_code":"0100445","kana_pref":"ｱｷﾀｹﾝ","kana_city":"ﾐﾅﾐｱｷﾀｸﾞﾝｵｵｶﾞﾀﾑﾗ","kana_address":"ﾆｼ","pref":"秋田県","city":"南秋田郡大潟村","address":"西"},
{"zip_code":"0100455","kana_pref":"ｱｷﾀｹﾝ","kana_city":"ﾐﾅﾐｱｷﾀｸﾞﾝｵｵｶﾞﾀﾑﾗ","kana_address":"ﾆｼﾉ","pref":"秋田県","city":"南秋田郡大潟村","address":"西野"},
{"zip_code":"0100442","kana_pref":"ｱｷﾀｹﾝ","kana_city":"ﾐﾅﾐｱｷﾀｸﾞﾝｵｵｶﾞﾀﾑﾗ","kana_address":"ﾋｶﾞｼ","pref":"秋田県","city":"南秋田郡大潟村","address":"東"},
{"zip_code":"0100456","kana_pref":"ｱｷﾀｹﾝ","kana_city":"ﾐﾅﾐｱｷﾀｸﾞﾝｵｵｶﾞﾀﾑﾗ","kana_address":"ﾋｶﾞｼﾉ","pref":"秋田県","city":"南秋田郡大潟村","address":"東野"},
{"zip_code":"0100444","kana_pref":"ｱｷﾀｹﾝ","kana_city":"ﾐﾅﾐｱｷﾀｸﾞﾝｵｵｶﾞﾀﾑﾗ","kana_address":"ﾐﾅﾐ","pref":"秋田県","city":"南秋田郡大潟村","address":"南"}]}