{"zip_code":[
{"zip_code":"0120000","kana_pref":"ｱｷﾀｹﾝ","kana_city":"ﾕｻﾞﾜｼ","kana_address":"","pref":"秋田県","city":"湯沢市","address":""},
{"zip_code":"0120024","kana_pref":"ｱｷﾀｹﾝ","kana_city":"ﾕｻﾞﾜｼ","kana_address":"ｱｶﾂﾁ","pref":"秋田県","city":"湯沢市","address":"赤土"},
{"zip_code":"0120855","kana_pref":"ｱｷﾀｹﾝ","kana_city":"ﾕｻﾞﾜｼ","kana_address":"ｱﾀｺﾞﾁｮｳ","pref":"秋田県","city":"湯沢市","address":"愛宕町"},
{"zip_code":"0120042","kana_pref":"ｱｷﾀｹﾝ","kana_city":"ﾕｻﾞﾜｼ","kana_address":"ｱﾂﾞｷﾀ","pref":"秋田県","city":"湯沢市","address":"小豆田"},
{"zip_code":"0120852","kana_pref":"ｱｷﾀｹﾝ","kana_city":"ﾕｻﾞﾜｼ","kana_address":"ｱﾗﾏﾁ","pref":"秋田県","city":"湯沢市","address":"荒町"},
{"zip_code":"0120062","kana_pref":"ｱｷﾀｹﾝ","kana_city":"ﾕｻﾞﾜｼ","kana_address":"ｲｼﾂﾞｶ","pref":"秋田県","city":"湯沢市","address":"石塚"},
{"zip_code":"0120107","kana_pref":"ｱｷﾀｹﾝ","kana_city":"ﾕｻﾞﾜｼ","kana_address":"ｲﾅﾆﾜﾁｮｳ","pref":"秋田県","city":"湯沢市","address":"稲庭町"},
{"zip_code":"0120022","kana_pref":"ｱｷﾀｹﾝ","kana_city":"ﾕｻﾞﾜｼ","kana_address":"ｲﾜｲﾀﾞ","pref":"秋田県","city":"湯沢市","address":"祝田"},
{"zip_code":"0120801","kana_pref":"ｱｷﾀｹﾝ","kana_city":"ﾕｻﾞﾜｼ","kana_address":"ｲﾜｻｷ","pref":"秋田県","city":"湯沢市","address":"岩崎"},
{"zip_code":"0120834","kana_pref":"ｱｷﾀｹﾝ","kana_city":"ﾕｻﾞﾜｼ","kana_address":"ｲﾜﾉｻﾜﾔﾏ","pref":"秋田県","city":"湯沢市","address":"岩ノ沢山"},
{"zip_code":"0120842","kana_pref":"ｱｷﾀｹﾝ","kana_city":"ﾕｻﾞﾜｼ","kana_address":"ｳﾁﾀﾞﾃﾏﾁ","pref":"秋田県","city":"湯沢市","address":"内舘町"},
{"zip_code":"0120843","kana_pref":"ｱｷﾀｹﾝ","kana_city":"ﾕｻﾞﾜｼ","kana_address":"ｳﾁﾏﾁ","pref":"秋田県","city":"湯沢市","address":"内町"},
{"zip_code":"0120824","kana_pref":"ｱｷﾀｹﾝ","kana_city":"ﾕｻﾞﾜｼ","kana_address":"ｳﾗﾓﾝ","pref":"秋田県","city":"湯沢市","address":"裏門"},
{"zip_code":"0120014","kana_pref":"ｱｷﾀｹﾝ","kana_city":"ﾕｻﾞﾜｼ","kana_address":"ｵｵｸﾗﾔﾁ","pref":"秋田県","city":"湯沢市","address":"大倉谷地"},
{"zip_code":"0120026","kana_pref":"ｱｷﾀｹﾝ","kana_city":"ﾕｻﾞﾜｼ","kana_address":"ｵｵｼﾏ","pref":"秋田県","city":"湯沢市","address":"大島"},
{"zip_code":"0120841","kana_pref":"ｱｷﾀｹﾝ","kana_city":"ﾕｻﾞﾜｼ","kana_address":"ｵｵﾏﾁ","pref":"秋田県","city":"湯沢市","address":"大町"},
{"zip_code":"0120012","kana_pref":"ｱｷﾀｹﾝ","kana_city":"ﾕｻﾞﾜｼ","kana_address":"ｵｵﾓﾘ","pref":"秋田県","city":"湯沢市","address":"大森"},
{"zip_code":"0120045","kana_pref":"ｱｷﾀｹﾝ","kana_city":"ﾕｻﾞﾜｼ","kana_address":"ｵｶﾀﾞﾏﾁ","pref":"秋田県","city":"湯沢市","address":"岡田町"},
{"zip_code":"0120057","kana_pref":"ｱｷﾀｹﾝ","kana_city":"ﾕｻﾞﾜｼ","kana_address":"ｵｶﾞﾁﾀ","pref":"秋田県","city":"湯沢市","address":"雄勝田"},
{"zip_code":"0120856","kana_pref":"ｱｷﾀｹﾝ","kana_city":"ﾕｻﾞﾜｼ","kana_address":"ｵｶﾁﾏﾁ","pref":"秋田県","city":"湯沢市","address":"御囲地町"},
{"zip_code":"0120023","kana_pref":"ｱｷﾀｹﾝ","kana_city":"ﾕｻﾞﾜｼ","kana_address":"ｵｷﾀ","pref":"秋田県","city":"湯沢市","address":"沖田"},
{"zip_code":"0120037","kana_pref":"ｱｷﾀｹﾝ","kana_city":"ﾕｻﾞﾜｼ","kana_address":"ｵｷﾂﾙ","pref":"秋田県","city":"湯沢市","address":"沖鶴"},
{"zip_code":"0120827","kana_pref":"ｱｷﾀｹﾝ","kana_city":"ﾕｻﾞﾜｼ","kana_address":"ｵﾓﾃﾏﾁ","pref":"秋田県","city":"湯沢市","address":"表町"},
{"zip_code":"0120001","kana_pref":"ｱｷﾀｹﾝ","kana_city":"ﾕｻﾞﾜｼ","kana_address":"ｶｸﾏ","pref":"秋田県","city":"湯沢市","address":"角間"},
{"zip_code":"0120831","kana_pref":"ｱｷﾀｹﾝ","kana_city":"ﾕｻﾞﾜｼ","kana_address":"ｶｸﾏｻﾞﾜ","pref":"秋田県","city":"湯沢市","address":"角間沢"},
{"zip_code":"0120833","kana_pref":"ｱｷﾀｹﾝ","kana_city":"ﾕｻﾞﾜｼ","kana_address":"ｶｯｸｲｻﾜﾔﾏ","pref":"秋田県","city":"湯沢市","address":"カツクイ沢山"},
{"zip_code":"0120005","kana_pref":"ｱｷﾀｹﾝ","kana_city":"ﾕｻﾞﾜｼ","kana_address":"ｶﾅﾔ","pref":"秋田県","city":"湯沢市","address":"金谷"},
{"zip_code":"0120835","kana_pref":"ｱｷﾀｹﾝ","kana_city":"ﾕｻﾞﾜｼ","kana_address":"ｶﾈｳﾁｻﾞﾜ","pref":"秋田県","city":"湯沢市","address":"鉦打沢"},
{"zip_code":"0120836","kana_pref":"ｱｷﾀｹﾝ","kana_city":"ﾕｻﾞﾜｼ","kana_address":"ｶﾈﾎﾘｻﾞﾜﾔﾏ","pref":"秋田県","city":"湯沢市","address":"金堀沢山"},
{"zip_code":"0120864","kana_pref":"ｱｷﾀｹﾝ","kana_city":"ﾕｻﾞﾜｼ","kana_address":"ｶﾐｾｷ","pref":"秋田県","city":"湯沢市","address":"上関"},
{"zip_code":"0120003","kana_pref":"ｱｷﾀｹﾝ","kana_city":"ﾕｻﾞﾜｼ","kana_address":"ｶﾐﾆｲﾀﾞ","pref":"秋田県","city":"湯沢市","address":"上二井田"},
{"zip_code":"0120105","kana_pref":"ｱｷﾀｹﾝ","kana_city":"ﾕｻﾞﾜｼ","kana_address":"ｶﾜﾂﾗﾁｮｳ","pref":"秋田県","city":"湯沢市","address":"川連町"},
{"zip_code":"0120825","kana_pref":"ｱｷﾀｹﾝ","kana_city":"ﾕｻﾞﾜｼ","kana_address":"ｷﾀｱﾗﾏﾁ","pref":"秋田県","city":"湯沢市","address":"北荒町"},
{"zip_code":"0120015","kana_pref":"ｱｷﾀｹﾝ","kana_city":"ﾕｻﾞﾜｼ","kana_address":"ｸﾗｳﾁ","pref":"秋田県","city":"湯沢市","address":"倉内"},
{"zip_code":"0120021","kana_pref":"ｱｷﾀｹﾝ","kana_city":"ﾕｻﾞﾜｼ","kana_address":"ｺｶﾞﾈﾊﾗ","pref":"秋田県","city":"湯沢市","address":"黄金原"},
{"zip_code":"0120104","kana_pref":"ｱｷﾀｹﾝ","kana_city":"ﾕｻﾞﾜｼ","kana_address":"ｺﾏｶﾞﾀﾁｮｳ","pref":"秋田県","city":"湯沢市","address":"駒形町"},
{"zip_code":"0120845","kana_pref":"ｱｷﾀｹﾝ","kana_city":"ﾕｻﾞﾜｼ","kana_address":"ｻﾞｲﾓｸﾁｮｳ","pref":"秋田県","city":"湯沢市","address":"材木町"},
{"zip_code":"0120035","kana_pref":"ｱｷﾀｹﾝ","kana_city":"ﾕｻﾞﾜｼ","kana_address":"ｻｲﾜｲﾁｮｳ","pref":"秋田県","city":"湯沢市","address":"幸町"},
{"zip_code":"0120013","kana_pref":"ｱｷﾀｹﾝ","kana_city":"ﾕｻﾞﾜｼ","kana_address":"ｻｶｴﾀﾞ","pref":"秋田県","city":"湯沢市","address":"栄田"},
{"zip_code":"0120811","kana_pref":"ｱｷﾀｹﾝ","kana_city":"ﾕｻﾞﾜｼ","kana_address":"ｻｸﾗﾄﾞｵﾘ","pref":"秋田県","city":"湯沢市","address":"桜通り"},
{"zip_code":"0120824","kana_pref":"ｱｷﾀｹﾝ","kana_city":"ﾕｻﾞﾜｼ","kana_address":"ｻﾀｹﾁｮｳ","pref":"秋田県","city":"湯沢市","address":"佐竹町"},
{"zip_code":"0120033","kana_pref":"ｱｷﾀｹﾝ","kana_city":"ﾕｻﾞﾜｼ","kana_address":"ｼﾐｽﾞﾁｮｳ","pref":"秋田県","city":"湯沢市","address":"清水町"},
{"zip_code":"0120863","kana_pref":"ｱｷﾀｹﾝ","kana_city":"ﾕｻﾞﾜｼ","kana_address":"ｼﾓｾｷ","pref":"秋田県","city":"湯沢市","address":"下関"},
{"zip_code":"0120052","kana_pref":"ｱｷﾀｹﾝ","kana_city":"ﾕｻﾞﾜｼ","kana_address":"ｼﾓﾅｶｶﾞﾜﾗ","pref":"秋田県","city":"湯沢市","address":"下中川原"},
{"zip_code":"0120002","kana_pref":"ｱｷﾀｹﾝ","kana_city":"ﾕｻﾞﾜｼ","kana_address":"ｼﾓﾆｲﾀﾞ","pref":"秋田県","city":"湯沢市","address":"下二井田"},
{"zip_code":"0120822","kana_pref":"ｱｷﾀｹﾝ","kana_city":"ﾕｻﾞﾜｼ","kana_address":"ｼﾓﾔﾏﾔ","pref":"秋田県","city":"湯沢市","address":"下山谷"},
{"zip_code":"0120853","kana_pref":"ｱｷﾀｹﾝ","kana_city":"ﾕｻﾞﾜｼ","kana_address":"ｼﾝﾁｮｳ","pref":"秋田県","city":"湯沢市","address":"新町"},
{"zip_code":"0120804","kana_pref":"ｱｷﾀｹﾝ","kana_city":"ﾕｻﾞﾜｼ","kana_address":"ｽｷﾞｻﾜ","pref":"秋田県","city":"湯沢市","address":"杉沢"},
{"zip_code":"0120803","kana_pref":"ｱｷﾀｹﾝ","kana_city":"ﾕｻﾞﾜｼ","kana_address":"ｽｷﾞｻﾜｱﾗﾄｺﾛ","pref":"秋田県","city":"湯沢市","address":"杉沢新所"},
{"zip_code":"0120862","kana_pref":"ｱｷﾀｹﾝ","kana_city":"ﾕｻﾞﾜｼ","kana_address":"ｾｷｸﾞﾁ","pref":"秋田県","city":"湯沢市","address":"関口"},
{"zip_code":"0120016","kana_pref":"ｱｷﾀｹﾝ","kana_city":"ﾕｻﾞﾜｼ","kana_address":"ｾﾝｶﾞﾘ","pref":"秋田県","city":"湯沢市","address":"千刈"},
{"zip_code":"0120857","kana_pref":"ｱｷﾀｹﾝ","kana_city":"ﾕｻﾞﾜｼ","kana_address":"ｾﾝｺﾞｸﾁｮｳ","pref":"秋田県","city":"湯沢市","address":"千石町"},
{"zip_code":"0120814","kana_pref":"ｱｷﾀｹﾝ","kana_city":"ﾕｻﾞﾜｼ","kana_address":"ﾀﾞｲｸﾏﾁ","pref":"秋田県","city":"湯沢市","address":"大工町"},
{"zip_code":"0120008","kana_pref":"ｱｷﾀｹﾝ","kana_city":"ﾕｻﾞﾜｼ","kana_address":"ﾀｶﾏｴ","pref":"秋田県","city":"湯沢市","address":"高前"},
{"zip_code":"0120844","kana_pref":"ｱｷﾀｹﾝ","kana_city":"ﾕｻﾞﾜｼ","kana_address":"ﾀﾏﾁ","pref":"秋田県","city":"湯沢市","address":"田町"},
{"zip_code":"0120031","kana_pref":"ｱｷﾀｹﾝ","kana_city":"ﾕｻﾞﾜｼ","kana_address":"ﾂﾙﾀﾞﾃ","pref":"秋田県","city":"湯沢市","address":"鶴館"},
{"zip_code":"0120854","kana_pref":"ｱｷﾀｹﾝ","kana_city":"ﾕｻﾞﾜｼ","kana_address":"ﾄﾋﾞｶﾞｻﾜﾔﾏ","pref":"秋田県","city":"湯沢市","address":"鳶ケ沢山"},
{"zip_code":"0120053","kana_pref":"ｱｷﾀｹﾝ","kana_city":"ﾕｻﾞﾜｼ","kana_address":"ﾅｶｶﾞﾜﾗ","pref":"秋田県","city":"湯沢市","address":"中川原"},
{"zip_code":"0120041","kana_pref":"ｱｷﾀｹﾝ","kana_city":"ﾕｻﾞﾜｼ","kana_address":"ﾅｶﾉ","pref":"秋田県","city":"湯沢市","address":"中野"},
{"zip_code":"0120044","kana_pref":"ｱｷﾀｹﾝ","kana_city":"ﾕｻﾞﾜｼ","kana_address":"ﾅｶﾉﾉﾒ","pref":"秋田県","city":"湯沢市","address":"中野々目"},
{"zip_code":"0120802","kana_pref":"ｱｷﾀｹﾝ","kana_city":"ﾕｻﾞﾜｼ","kana_address":"ﾅﾘｻﾜ","pref":"秋田県","city":"湯沢市","address":"成沢"},
{"zip_code":"0120004","kana_pref":"ｱｷﾀｹﾝ","kana_city":"ﾕｻﾞﾜｼ","kana_address":"ﾆｲﾀﾞ","pref":"秋田県","city":"湯沢市","address":"二井田"},
{"zip_code":"0120868","kana_pref":"ｱｷﾀｹﾝ","kana_city":"ﾕｻﾞﾜｼ","kana_address":"ﾆｼｱﾀｺﾞﾁｮｳ","pref":"秋田県","city":"湯沢市","address":"西愛宕町"},
{"zip_code":"0120837","kana_pref":"ｱｷﾀｹﾝ","kana_city":"ﾕｻﾞﾜｼ","kana_address":"ﾆｼｶﾈﾎﾘｻﾞﾜﾔﾏ","pref":"秋田県","city":"湯沢市","address":"西金堀沢山"},
{"zip_code":"0120034","kana_pref":"ｱｷﾀｹﾝ","kana_city":"ﾕｻﾞﾜｼ","kana_address":"ﾆｼｼﾝﾏﾁ","pref":"秋田県","city":"湯沢市","address":"西新町"},
{"zip_code":"0120054","kana_pref":"ｱｷﾀｹﾝ","kana_city":"ﾕｻﾞﾜｼ","kana_address":"ﾆｼﾅｶｶﾞﾜﾗ","pref":"秋田県","city":"湯沢市","address":"西中川原"},
{"zip_code":"0120866","kana_pref":"ｱｷﾀｹﾝ","kana_city":"ﾕｻﾞﾜｼ","kana_address":"ﾆｼﾏﾂｻﾞﾜ","pref":"秋田県","city":"湯沢市","address":"西松沢"},
{"zip_code":"0120865","kana_pref":"ｱｷﾀｹﾝ","kana_city":"ﾕｻﾞﾜｼ","kana_address":"ﾇﾏﾄﾞｲ","pref":"秋田県","city":"湯沢市","address":"沼樋"},
{"zip_code":"0120812","kana_pref":"ｱｷﾀｹﾝ","kana_city":"ﾕｻﾞﾜｼ","kana_address":"ﾋｶﾞｼｱｶﾂﾁﾔﾏ","pref":"秋田県","city":"湯沢市","address":"東赤土山"},
{"zip_code":"0120861","kana_pref":"ｱｷﾀｹﾝ","kana_city":"ﾕｻﾞﾜｼ","kana_address":"ﾋｶﾞｼﾏﾂｻﾞﾜ","pref":"秋田県","city":"湯沢市","address":"東松沢"},
{"zip_code":"0120832","kana_pref":"ｱｷﾀｹﾝ","kana_city":"ﾕｻﾞﾜｼ","kana_address":"ﾋﾛｻﾜﾔﾏ","pref":"秋田県","city":"湯沢市","address":"広沢山"},
{"zip_code":"0120051","kana_pref":"ｱｷﾀｹﾝ","kana_city":"ﾕｻﾞﾜｼ","kana_address":"ﾌｶﾎﾞﾘ","pref":"秋田県","city":"湯沢市","address":"深堀"},
{"zip_code":"0120056","kana_pref":"ｱｷﾀｹﾝ","kana_city":"ﾕｻﾞﾜｼ","kana_address":"ﾌｼﾞﾊﾅ","pref":"秋田県","city":"湯沢市","address":"藤花"},
{"zip_code":"0120017","kana_pref":"ｱｷﾀｹﾝ","kana_city":"ﾕｻﾞﾜｼ","kana_address":"ﾌｼﾞﾐ","pref":"秋田県","city":"湯沢市","address":"富士見"},
{"zip_code":"0120851","kana_pref":"ｱｷﾀｹﾝ","kana_city":"ﾕｻﾞﾜｼ","kana_address":"ﾌｯﾊﾟﾘ","pref":"秋田県","city":"湯沢市","address":"吹張"},
{"zip_code":"0120815","kana_pref":"ｱｷﾀｹﾝ","kana_city":"ﾕｻﾞﾜｼ","kana_address":"ﾌﾙﾀﾞﾃ","pref":"秋田県","city":"湯沢市","address":"古館"},
{"zip_code":"0120838","kana_pref":"ｱｷﾀｹﾝ","kana_city":"ﾕｻﾞﾜｼ","kana_address":"ﾍﾋﾞﾉ","pref":"秋田県","city":"湯沢市","address":"蛇野"},
{"zip_code":"0120025","kana_pref":"ｱｷﾀｹﾝ","kana_city":"ﾕｻﾞﾜｼ","kana_address":"ﾏｴｼﾞﾏ","pref":"秋田県","city":"湯沢市","address":"前島"},
{"zip_code":"0120813","kana_pref":"ｱｷﾀｹﾝ","kana_city":"ﾕｻﾞﾜｼ","kana_address":"ﾏｴﾓﾘ","pref":"秋田県","city":"湯沢市","address":"前森"},
{"zip_code":"0120061","kana_pref":"ｱｷﾀｹﾝ","kana_city":"ﾕｻﾞﾜｼ","kana_address":"ﾏﾂｵｶ","pref":"秋田県","city":"湯沢市","address":"松岡"},
{"zip_code":"0120043","kana_pref":"ｱｷﾀｹﾝ","kana_city":"ﾕｻﾞﾜｼ","kana_address":"ﾏﾝｺﾞｸ","pref":"秋田県","city":"湯沢市","address":"万石"},
{"zip_code":"0120106","kana_pref":"ｱｷﾀｹﾝ","kana_city":"ﾕｻﾞﾜｼ","kana_address":"ﾐﾂﾅｼﾁｮｳ","pref":"秋田県","city":"湯沢市","address":"三梨町"},
{"zip_code":"0120183","kana_pref":"ｱｷﾀｹﾝ","kana_city":"ﾕｻﾞﾜｼ","kana_address":"ﾐﾅｾ","pref":"秋田県","city":"湯沢市","address":"皆瀬"},
{"zip_code":"0120867","kana_pref":"ｱｷﾀｹﾝ","kana_city":"ﾕｻﾞﾜｼ","kana_address":"ﾐﾅﾐﾀﾞｲ","pref":"秋田県","city":"湯沢市","address":"南台"},
{"zip_code":"0120032","kana_pref":"ｱｷﾀｹﾝ","kana_city":"ﾕｻﾞﾜｼ","kana_address":"ﾓﾄｼﾐｽﾞ","pref":"秋田県","city":"湯沢市","address":"元清水"},
{"zip_code":"0120011","kana_pref":"ｱｷﾀｹﾝ","kana_city":"ﾕｻﾞﾜｼ","kana_address":"ﾓﾘ","pref":"秋田県","city":"湯沢市","address":"森"},
{"zip_code":"0120006","kana_pref":"ｱｷﾀｹﾝ","kana_city":"ﾕｻﾞﾜｼ","kana_address":"ﾔﾅｷﾞﾀﾞ","pref":"秋田県","city":"湯沢市","address":"柳田"},
{"zip_code":"0120826","kana_pref":"ｱｷﾀｹﾝ","kana_city":"ﾕｻﾞﾜｼ","kana_address":"ﾔﾅｷﾞﾏﾁ","pref":"秋田県","city":"湯沢市","address":"柳町"},
{"zip_code":"0120055","kana_pref":"ｱｷﾀｹﾝ","kana_city":"ﾕｻﾞﾜｼ","kana_address":"ﾔﾏﾀﾞ","pref":"秋田県","city":"湯沢市","address":"山田"},
{"zip_code":"0120821","kana_pref":"ｱｷﾀｹﾝ","kana_city":"ﾕｻﾞﾜｼ","kana_address":"ﾔﾏﾔ","pref":"秋田県","city":"湯沢市","address":"山谷"},
{"zip_code":"0120007","kana_pref":"ｱｷﾀｹﾝ","kana_city":"ﾕｻﾞﾜｼ","kana_address":"ﾔﾜﾀ","pref":"秋田県","city":"湯沢市","address":"八幡"},
{"zip_code":"0120823","kana_pref":"ｱｷﾀｹﾝ","kana_city":"ﾕｻﾞﾜｼ","kana_address":"ﾕﾉｶﾐﾔﾏ","pref":"秋田県","city":"湯沢市","address":"湯ノ上山"},
{"zip_code":"0120823","kana_pref":"ｱｷﾀｹﾝ","kana_city":"ﾕｻﾞﾜｼ","kana_address":"ﾕﾉﾊﾗ","pref":"秋田県","city":"湯沢市","address":"湯ノ原"},
{"zip_code":"0120036","kana_pref":"ｱｷﾀｹﾝ","kana_city":"ﾕｻﾞﾜｼ","kana_address":"ﾘｮｳｼﾞﾝ","pref":"秋田県","city":"湯沢市","address":"両神"},
{"zip_code":"0120869","kana_pref":"ｱｷﾀｹﾝ","kana_city":"ﾕｻﾞﾜｼ","kana_address":"ﾜｶﾊﾞﾁｮｳ","pref":"秋田県","city":"湯沢市","address":"若葉町"},
{"zip_code":"0121100","kana_pref":"ｱｷﾀｹﾝ","kana_city":"ｵｶﾞﾁｸﾞﾝｳｺﾞﾏﾁ","kana_address":"","pref":"秋田県","city":"雄勝郡羽後町","address":""},
{"zip_code":"0121124","kana_pref":"ｱｷﾀｹﾝ","kana_city":"ｵｶﾞﾁｸﾞﾝｳｺﾞﾏﾁ","kana_address":"ｱｶﾊﾞｶﾏ","pref":"秋田県","city":"雄勝郡羽後町","address":"赤袴"},
{"zip_code":"0121136","kana_pref":"ｱｷﾀｹﾝ","kana_city":"ｵｶﾞﾁｸﾞﾝｳｺﾞﾏﾁ","kana_address":"ｲｲｻﾞﾜ","pref":"秋田県","city":"雄勝郡羽後町","address":"飯沢"},
{"zip_code":"0121121","kana_pref":"ｱｷﾀｹﾝ","kana_city":"ｵｶﾞﾁｸﾞﾝｳｺﾞﾏﾁ","kana_address":"ｵｵｸﾎﾞ","pref":"秋田県","city":"雄勝郡羽後町","address":"大久保"},
{"zip_code":"0121101","kana_pref":"ｱｷﾀｹﾝ","kana_city":"ｵｶﾞﾁｸﾞﾝｳｺﾞﾏﾁ","kana_address":"ｵｵｻﾜ","pref":"秋田県","city":"雄勝郡羽後町","address":"大沢"},
{"zip_code":"0121132","kana_pref":"ｱｷﾀｹﾝ","kana_city":"ｵｶﾞﾁｸﾞﾝｳｺﾞﾏﾁ","kana_address":"ｵｵﾄﾞ","pref":"秋田県","city":"雄勝郡羽後町","address":"大戸"},
{"zip_code":"0121123","kana_pref":"ｱｷﾀｹﾝ","kana_city":"ｵｶﾞﾁｸﾞﾝｳｺﾞﾏﾁ","kana_address":"ｶｲｻﾞﾜ","pref":"秋田県","city":"雄勝郡羽後町","address":"貝沢"},
{"zip_code":"0121122","kana_pref":"ｱｷﾀｹﾝ","kana_city":"ｵｶﾞﾁｸﾞﾝｳｺﾞﾏﾁ","kana_address":"ｶｼﾜﾊﾞﾗ","pref":"秋田県","city":"雄勝郡羽後町","address":"柏原"},
{"zip_code":"0121353","kana_pref":"ｱｷﾀｹﾝ","kana_city":"ｵｶﾞﾁｸﾞﾝｳｺﾞﾏﾁ","kana_address":"ｶﾐｾﾝﾄﾞｳ","pref":"秋田県","city":"雄勝郡羽後町","address":"上仙道"},
{"zip_code":"0121242","kana_pref":"ｱｷﾀｹﾝ","kana_city":"ｵｶﾞﾁｸﾞﾝｳｺﾞﾏﾁ","kana_address":"ｶﾐﾄｳﾏｲ","pref":"秋田県","city":"雄勝郡羽後町","address":"上到米"},
{"zip_code":"0121243","kana_pref":"ｱｷﾀｹﾝ","kana_city":"ｵｶﾞﾁｸﾞﾝｳｺﾞﾏﾁ","kana_address":"ｶﾙｲｻﾞﾜ","pref":"秋田県","city":"雄勝郡羽後町","address":"軽井沢"},
{"zip_code":"0121113","kana_pref":"ｱｷﾀｹﾝ","kana_city":"ｵｶﾞﾁｸﾞﾝｳｺﾞﾏﾁ","kana_address":"ｺｵﾘﾔﾏ","pref":"秋田県","city":"雄勝郡羽後町","address":"郡山"},
{"zip_code":"0121135","kana_pref":"ｱｷﾀｹﾝ","kana_city":"ｵｶﾞﾁｸﾞﾝｳｺﾞﾏﾁ","kana_address":"ｼｶﾅｲ","pref":"秋田県","city":"雄勝郡羽後町","address":"鹿内"},
{"zip_code":"0121111","kana_pref":"ｱｷﾀｹﾝ","kana_city":"ｵｶﾞﾁｸﾞﾝｳｺﾞﾏﾁ","kana_address":"ｼﾏﾀﾞｼﾝﾃﾞﾝ","pref":"秋田県","city":"雄勝郡羽後町","address":"嶋田新田"},
{"zip_code":"0121351","kana_pref":"ｱｷﾀｹﾝ","kana_city":"ｵｶﾞﾁｸﾞﾝｳｺﾞﾏﾁ","kana_address":"ｼﾓｾﾝﾄﾞｳ","pref":"秋田県","city":"雄勝郡羽後町","address":"下仙道"},
{"zip_code":"0121102","kana_pref":"ｱｷﾀｹﾝ","kana_city":"ｵｶﾞﾁｸﾞﾝｳｺﾞﾏﾁ","kana_address":"ｼﾝﾏﾁ","pref":"秋田県","city":"雄勝郡羽後町","address":"新町"},
{"zip_code":"0121126","kana_pref":"ｱｷﾀｹﾝ","kana_city":"ｵｶﾞﾁｸﾞﾝｳｺﾞﾏﾁ","kana_address":"ｽｷﾞﾉﾐﾔ","pref":"秋田県","city":"雄勝郡羽後町","address":"杉宮"},
{"zip_code":"0121116","kana_pref":"ｱｷﾀｹﾝ","kana_city":"ｵｶﾞﾁｸﾞﾝｳｺﾞﾏﾁ","kana_address":"ﾀｺｳﾀﾞ","pref":"秋田県","city":"雄勝郡羽後町","address":"高尾田"},
{"zip_code":"0121134","kana_pref":"ｱｷﾀｹﾝ","kana_city":"ｵｶﾞﾁｸﾞﾝｳｺﾞﾏﾁ","kana_address":"ﾀｻﾞﾜ","pref":"秋田県","city":"雄勝郡羽後町","address":"田沢"},
{"zip_code":"0121241","kana_pref":"ｱｷﾀｹﾝ","kana_city":"ｵｶﾞﾁｸﾞﾝｳｺﾞﾏﾁ","kana_address":"ﾀｼﾛ","pref":"秋田県","city":"雄勝郡羽後町","address":"田代"},
{"zip_code":"0121115","kana_pref":"ｱｷﾀｹﾝ","kana_city":"ｵｶﾞﾁｸﾞﾝｳｺﾞﾏﾁ","kana_address":"ﾀﾗﾀﾞ","pref":"秋田県","city":"雄勝郡羽後町","address":"足田"},
{"zip_code":"0121133","kana_pref":"ｱｷﾀｹﾝ","kana_city":"ｵｶﾞﾁｸﾞﾝｳｺﾞﾏﾁ","kana_address":"ﾄｺﾏｲ","pref":"秋田県","city":"雄勝郡羽後町","address":"床舞"},
{"zip_code":"0121352","kana_pref":"ｱｷﾀｹﾝ","kana_city":"ｵｶﾞﾁｸﾞﾝｳｺﾞﾏﾁ","kana_address":"ﾅｶｾﾝﾄﾞｳ","pref":"秋田県","city":"雄勝郡羽後町","address":"中仙道"},
{"zip_code":"0121131","kana_pref":"ｱｷﾀｹﾝ","kana_city":"ｵｶﾞﾁｸﾞﾝｳｺﾞﾏﾁ","kana_address":"ﾆｼﾓﾅｲ","pref":"秋田県","city":"雄勝郡羽後町","address":"西馬音内"},
{"zip_code":"0121137","kana_pref":"ｱｷﾀｹﾝ","kana_city":"ｵｶﾞﾁｸﾞﾝｳｺﾞﾏﾁ","kana_address":"ﾆｼﾓﾅｲﾎﾘﾏﾜﾘ","pref":"秋田県","city":"雄勝郡羽後町","address":"西馬音内堀回"},
{"zip_code":"0121114","kana_pref":"ｱｷﾀｹﾝ","kana_city":"ｵｶﾞﾁｸﾞﾝｳｺﾞﾏﾁ","kana_address":"ﾇｶﾂﾞｶ","pref":"秋田県","city":"雄勝郡羽後町","address":"糠塚"},
{"zip_code":"0121125","kana_pref":"ｱｷﾀｹﾝ","kana_city":"ｵｶﾞﾁｸﾞﾝｳｺﾞﾏﾁ","kana_address":"ﾉﾅｶ","pref":"秋田県","city":"雄勝郡羽後町","address":"野中"},
{"zip_code":"0121103","kana_pref":"ｱｷﾀｹﾝ","kana_city":"ｵｶﾞﾁｸﾞﾝｳｺﾞﾏﾁ","kana_address":"ﾊﾔｼｻﾞｷ","pref":"秋田県","city":"雄勝郡羽後町","address":"林崎"},
{"zip_code":"0121106","kana_pref":"ｱｷﾀｹﾝ","kana_city":"ｵｶﾞﾁｸﾞﾝｳｺﾞﾏﾁ","kana_address":"ﾎｯﾀｲ","pref":"秋田県","city":"雄勝郡羽後町","address":"払体"},
{"zip_code":"0121104","kana_pref":"ｱｷﾀｹﾝ","kana_city":"ｵｶﾞﾁｸﾞﾝｳｺﾞﾏﾁ","kana_address":"ﾎﾘｳﾁ","pref":"秋田県","city":"雄勝郡羽後町","address":"堀内"},
{"zip_code":"0121105","kana_pref":"ｱｷﾀｹﾝ","kana_city":"ｵｶﾞﾁｸﾞﾝｳｺﾞﾏﾁ","kana_address":"ﾐｽﾞｻﾜ","pref":"秋田県","city":"雄勝郡羽後町","address":"水沢"},
{"zip_code":"0121112","kana_pref":"ｱｷﾀｹﾝ","kana_city":"ｵｶﾞﾁｸﾞﾝｳｺﾞﾏﾁ","kana_address":"ﾑﾂｱｲ","pref":"秋田県","city":"雄勝郡羽後町","address":"睦合"}]}