{"zip_code":[
{"zip_code":"0130000","kana_pref":"ｱｷﾀｹﾝ","kana_city":"ﾖｺﾃｼ","kana_address":"","pref":"秋田県","city":"横手市","address":""},
{"zip_code":"0130073","kana_pref":"ｱｷﾀｹﾝ","kana_city":"ﾖｺﾃｼ","kana_address":"ｱｶｶﾞﾜ","pref":"秋田県","city":"横手市","address":"赤川"},
{"zip_code":"0130064","kana_pref":"ｱｷﾀｹﾝ","kana_city":"ﾖｺﾃｼ","kana_address":"ｱｶｻｶ","pref":"秋田県","city":"横手市","address":"赤坂"},
{"zip_code":"0130028","kana_pref":"ｱｷﾀｹﾝ","kana_city":"ﾖｺﾃｼ","kana_address":"ｱｻｸﾗﾁｮｳ","pref":"秋田県","city":"横手市","address":"朝倉町"},
{"zip_code":"0130033","kana_pref":"ｱｷﾀｹﾝ","kana_city":"ﾖｺﾃｼ","kana_address":"ｱｻﾋｶﾜ","pref":"秋田県","city":"横手市","address":"旭川"},
{"zip_code":"0130055","kana_pref":"ｱｷﾀｹﾝ","kana_city":"ﾖｺﾃｼ","kana_address":"ｱｻﾋｶﾞｵｶ","pref":"秋田県","city":"横手市","address":"朝日が丘"},
{"zip_code":"0130065","kana_pref":"ｱｷﾀｹﾝ","kana_city":"ﾖｺﾃｼ","kana_address":"ｲﾉｵｶ","pref":"秋田県","city":"横手市","address":"猪岡"},
{"zip_code":"0130068","kana_pref":"ｱｷﾀｹﾝ","kana_city":"ﾖｺﾃｼ","kana_address":"ｳﾒﾉｷﾏﾁ","pref":"秋田県","city":"横手市","address":"梅の木町"},
{"zip_code":"0130036","kana_pref":"ｱｷﾀｹﾝ","kana_city":"ﾖｺﾃｼ","kana_address":"ｴｷﾏｴﾁｮｳ","pref":"秋田県","city":"横手市","address":"駅前町"},
{"zip_code":"0130062","kana_pref":"ｱｷﾀｹﾝ","kana_city":"ﾖｺﾃｼ","kana_address":"ｴｷﾐﾅﾐ","pref":"秋田県","city":"横手市","address":"駅南"},
{"zip_code":"0130002","kana_pref":"ｱｷﾀｹﾝ","kana_city":"ﾖｺﾃｼ","kana_address":"ｵｲﾏﾜｼ","pref":"秋田県","city":"横手市","address":"追廻"},
{"zip_code":"0130041","kana_pref":"ｱｷﾀｹﾝ","kana_city":"ﾖｺﾃｼ","kana_address":"ｵｵｻﾜ","pref":"秋田県","city":"横手市","address":"大沢"},
{"zip_code":"0130007","kana_pref":"ｱｷﾀｹﾝ","kana_city":"ﾖｺﾃｼ","kana_address":"ｵｵﾄﾘﾏﾁ","pref":"秋田県","city":"横手市","address":"大鳥町"},
{"zip_code":"0130021","kana_pref":"ｱｷﾀｹﾝ","kana_city":"ﾖｺﾃｼ","kana_address":"ｵｵﾏﾁ","pref":"秋田県","city":"横手市","address":"大町"},
{"zip_code":"0130026","kana_pref":"ｱｷﾀｹﾝ","kana_city":"ﾖｺﾃｼ","kana_address":"ｵｵﾐﾄﾞﾏﾁ","pref":"秋田県","city":"横手市","address":"大水戸町"},
{"zip_code":"0130501","kana_pref":"ｱｷﾀｹﾝ","kana_city":"ﾖｺﾃｼ","kana_address":"ｵｵﾓﾘﾏﾁｲﾀｲﾀﾞ","pref":"秋田県","city":"横手市","address":"大森町板井田"},
{"zip_code":"0130546","kana_pref":"ｱｷﾀｹﾝ","kana_city":"ﾖｺﾃｼ","kana_address":"ｵｵﾓﾘﾏﾁｳｼｶﾞｻﾜ","pref":"秋田県","city":"横手市","address":"大森町牛ケ沢"},
{"zip_code":"0130511","kana_pref":"ｱｷﾀｹﾝ","kana_city":"ﾖｺﾃｼ","kana_address":"ｵｵﾓﾘﾏﾁｳｼﾅｶｼﾞﾏ","pref":"秋田県","city":"横手市","address":"大森町牛中島"},
{"zip_code":"0130552","kana_pref":"ｱｷﾀｹﾝ","kana_city":"ﾖｺﾃｼ","kana_address":"ｵｵﾓﾘﾏﾁｳﾜﾐｿﾞ","pref":"秋田県","city":"横手市","address":"大森町上溝"},
{"zip_code":"0130514","kana_pref":"ｱｷﾀｹﾝ","kana_city":"ﾖｺﾃｼ","kana_address":"ｵｵﾓﾘﾏﾁｵｵﾅｶｼﾞﾏ","pref":"秋田県","city":"横手市","address":"大森町大中島"},
{"zip_code":"0130521","kana_pref":"ｱｷﾀｹﾝ","kana_city":"ﾖｺﾃｼ","kana_address":"ｵｵﾓﾘﾏﾁｵｵﾓﾘ","pref":"秋田県","city":"横手市","address":"大森町大森"},
{"zip_code":"0130532","kana_pref":"ｱｷﾀｹﾝ","kana_city":"ﾖｺﾃｼ","kana_address":"ｵｵﾓﾘﾏﾁｸﾎﾞ","pref":"秋田県","city":"横手市","address":"大森町久保"},
{"zip_code":"0130562","kana_pref":"ｱｷﾀｹﾝ","kana_city":"ﾖｺﾃｼ","kana_address":"ｵｵﾓﾘﾏﾁｻｶﾍﾞ","pref":"秋田県","city":"横手市","address":"大森町坂部"},
{"zip_code":"0130531","kana_pref":"ｱｷﾀｹﾝ","kana_city":"ﾖｺﾃｼ","kana_address":"ｵｵﾓﾘﾏﾁｻﾄﾞ","pref":"秋田県","city":"横手市","address":"大森町佐渡"},
{"zip_code":"0130551","kana_pref":"ｱｷﾀｹﾝ","kana_city":"ﾖｺﾃｼ","kana_address":"ｵｵﾓﾘﾏﾁｻﾙﾀ","pref":"秋田県","city":"横手市","address":"大森町猿田"},
{"zip_code":"0130524","kana_pref":"ｱｷﾀｹﾝ","kana_city":"ﾖｺﾃｼ","kana_address":"ｵｵﾓﾘﾏﾁｼﾐｽﾞﾉｳｴ","pref":"秋田県","city":"横手市","address":"大森町清水上"},
{"zip_code":"0130536","kana_pref":"ｱｷﾀｹﾝ","kana_city":"ﾖｺﾃｼ","kana_address":"ｵｵﾓﾘﾏﾁｼﾝｻﾞﾝ","pref":"秋田県","city":"横手市","address":"大森町真山"},
{"zip_code":"0130525","kana_pref":"ｱｷﾀｹﾝ","kana_city":"ﾖｺﾃｼ","kana_address":"ｵｵﾓﾘﾏﾁｽｺﾞｳﾀ","pref":"秋田県","city":"横手市","address":"大森町菅生田"},
{"zip_code":"0130517","kana_pref":"ｱｷﾀｹﾝ","kana_city":"ﾖｺﾃｼ","kana_address":"ｵｵﾓﾘﾏﾁﾀｶｸﾁｼﾀﾐﾄﾂﾂﾐ","pref":"秋田県","city":"横手市","address":"大森町高口下水戸堤"},
{"zip_code":"0130542","kana_pref":"ｱｷﾀｹﾝ","kana_city":"ﾖｺﾃｼ","kana_address":"ｵｵﾓﾘﾏﾁﾀｶﾉﾅｶｼﾞﾏ","pref":"秋田県","city":"横手市","address":"大森町高野中島"},
{"zip_code":"0130544","kana_pref":"ｱｷﾀｹﾝ","kana_city":"ﾖｺﾃｼ","kana_address":"ｵｵﾓﾘﾏﾁﾁｮｳｽｹﾏｷ","pref":"秋田県","city":"横手市","address":"大森町長助巻"},
{"zip_code":"0130534","kana_pref":"ｱｷﾀｹﾝ","kana_city":"ﾖｺﾃｼ","kana_address":"ｵｵﾓﾘﾏﾁﾄｳｹﾞﾏﾁｶﾞｼﾗ","pref":"秋田県","city":"横手市","address":"大森町峠町頭"},
{"zip_code":"0130523","kana_pref":"ｱｷﾀｹﾝ","kana_city":"ﾖｺﾃｼ","kana_address":"ｵｵﾓﾘﾏﾁﾄﾞｳﾊﾞﾔｼ","pref":"秋田県","city":"横手市","address":"大森町堂林"},
{"zip_code":"0130503","kana_pref":"ｱｷﾀｹﾝ","kana_city":"ﾖｺﾃｼ","kana_address":"ｵｵﾓﾘﾏﾁﾄｵｶﾏﾁ","pref":"秋田県","city":"横手市","address":"大森町十日町"},
{"zip_code":"0130545","kana_pref":"ｱｷﾀｹﾝ","kana_city":"ﾖｺﾃｼ","kana_address":"ｵｵﾓﾘﾏﾁﾄﾞｼﾞｮｳﾇﾏ","pref":"秋田県","city":"横手市","address":"大森町鯲沼"},
{"zip_code":"0130541","kana_pref":"ｱｷﾀｹﾝ","kana_city":"ﾖｺﾃｼ","kana_address":"ｵｵﾓﾘﾏﾁﾅｶｼﾞﾏ","pref":"秋田県","city":"横手市","address":"大森町中嶋"},
{"zip_code":"0130533","kana_pref":"ｱｷﾀｹﾝ","kana_city":"ﾖｺﾃｼ","kana_address":"ｵｵﾓﾘﾏﾁﾅｶﾀ","pref":"秋田県","city":"横手市","address":"大森町中田"},
{"zip_code":"0130515","kana_pref":"ｱｷﾀｹﾝ","kana_city":"ﾖｺﾃｼ","kana_address":"ｵｵﾓﾘﾏﾁﾆｼﾅｶｼﾞﾏ","pref":"秋田県","city":"横手市","address":"大森町西中島"},
{"zip_code":"0130526","kana_pref":"ｱｷﾀｹﾝ","kana_city":"ﾖｺﾃｼ","kana_address":"ｵｵﾓﾘﾏﾁﾆｼﾉ","pref":"秋田県","city":"横手市","address":"大森町西野"},
{"zip_code":"0130502","kana_pref":"ｱｷﾀｹﾝ","kana_city":"ﾖｺﾃｼ","kana_address":"ｵｵﾓﾘﾏﾁﾊｶﾏｶﾞﾀ","pref":"秋田県","city":"横手市","address":"大森町袴形"},
{"zip_code":"0130516","kana_pref":"ｱｷﾀｹﾝ","kana_city":"ﾖｺﾃｼ","kana_address":"ｵｵﾓﾘﾏﾁﾋｶﾞｼﾅｶｼﾞﾏ","pref":"秋田県","city":"横手市","address":"大森町東中島"},
{"zip_code":"0130543","kana_pref":"ｱｷﾀｹﾝ","kana_city":"ﾖｺﾃｼ","kana_address":"ｵｵﾓﾘﾏﾁﾎﾝｺﾞｳ","pref":"秋田県","city":"横手市","address":"大森町本郷"},
{"zip_code":"0130535","kana_pref":"ｱｷﾀｹﾝ","kana_city":"ﾖｺﾃｼ","kana_address":"ｵｵﾓﾘﾏﾁﾏﾁﾀﾞ","pref":"秋田県","city":"横手市","address":"大森町町田"},
{"zip_code":"0130522","kana_pref":"ｱｷﾀｹﾝ","kana_city":"ﾖｺﾃｼ","kana_address":"ｵｵﾓﾘﾏﾁﾏﾁﾏﾜﾘ","pref":"秋田県","city":"横手市","address":"大森町町回"},
{"zip_code":"0130519","kana_pref":"ｱｷﾀｹﾝ","kana_city":"ﾖｺﾃｼ","kana_address":"ｵｵﾓﾘﾏﾁﾓﾁﾑｶｲ","pref":"秋田県","city":"横手市","address":"大森町持向"},
{"zip_code":"0130518","kana_pref":"ｱｷﾀｹﾝ","kana_city":"ﾖｺﾃｼ","kana_address":"ｵｵﾓﾘﾏﾁﾓﾝﾃﾝｶｶﾞﾐﾀﾞ","pref":"秋田県","city":"横手市","address":"大森町文天鏡田"},
{"zip_code":"0130561","kana_pref":"ｱｷﾀｹﾝ","kana_city":"ﾖｺﾃｼ","kana_address":"ｵｵﾓﾘﾏﾁﾔｻﾜｷﾞ","pref":"秋田県","city":"横手市","address":"大森町八沢木"},
{"zip_code":"0130512","kana_pref":"ｱｷﾀｹﾝ","kana_city":"ﾖｺﾃｼ","kana_address":"ｵｵﾓﾘﾏﾁﾕﾉｻﾜ","pref":"秋田県","city":"横手市","address":"大森町湯ノ沢"},
{"zip_code":"0130513","kana_pref":"ｱｷﾀｹﾝ","kana_city":"ﾖｺﾃｼ","kana_address":"ｵｵﾓﾘﾏﾁﾕﾉｼﾏ","pref":"秋田県","city":"横手市","address":"大森町湯ノ島"},
{"zip_code":"0130051","kana_pref":"ｱｷﾀｹﾝ","kana_city":"ﾖｺﾃｼ","kana_address":"ｵｵﾔｼﾝﾏﾁ","pref":"秋田県","city":"横手市","address":"大屋新町"},
{"zip_code":"0130052","kana_pref":"ｱｷﾀｹﾝ","kana_city":"ﾖｺﾃｼ","kana_address":"ｵｵﾔﾃﾗｳﾁ","pref":"秋田県","city":"横手市","address":"大屋寺内"},
{"zip_code":"0130201","kana_pref":"ｱｷﾀｹﾝ","kana_city":"ﾖｺﾃｼ","kana_address":"ｵﾓﾉｶﾞﾜﾏﾁｱｲﾂﾞｶ","pref":"秋田県","city":"横手市","address":"雄物川町会塚"},
{"zip_code":"0130205","kana_pref":"ｱｷﾀｹﾝ","kana_city":"ﾖｺﾃｼ","kana_address":"ｵﾓﾉｶﾞﾜﾏﾁｲﾏｼｭｸ","pref":"秋田県","city":"横手市","address":"雄物川町今宿"},
{"zip_code":"0130481","kana_pref":"ｱｷﾀｹﾝ","kana_city":"ﾖｺﾃｼ","kana_address":"ｵﾓﾉｶﾞﾜﾏﾁｳｽｲ","pref":"秋田県","city":"横手市","address":"雄物川町薄井"},
{"zip_code":"0130218","kana_pref":"ｱｷﾀｹﾝ","kana_city":"ﾖｺﾃｼ","kana_address":"ｵﾓﾉｶﾞﾜﾏﾁｵｵｻﾜ","pref":"秋田県","city":"横手市","address":"雄物川町大沢"},
{"zip_code":"0130214","kana_pref":"ｱｷﾀｹﾝ","kana_city":"ﾖｺﾃｼ","kana_address":"ｵﾓﾉｶﾞﾜﾏﾁｶｼﾜｷﾞ","pref":"秋田県","city":"横手市","address":"雄物川町柏木"},
{"zip_code":"0130215","kana_pref":"ｱｷﾀｹﾝ","kana_city":"ﾖｺﾃｼ","kana_address":"ｵﾓﾉｶﾞﾜﾏﾁｼﾞｮｳﾉ","pref":"秋田県","city":"横手市","address":"雄物川町常野"},
{"zip_code":"0130202","kana_pref":"ｱｷﾀｹﾝ","kana_city":"ﾖｺﾃｼ","kana_address":"ｵﾓﾉｶﾞﾜﾏﾁｽﾅｺﾞﾀ","pref":"秋田県","city":"横手市","address":"雄物川町砂子田"},
{"zip_code":"0130212","kana_pref":"ｱｷﾀｹﾝ","kana_city":"ﾖｺﾃｼ","kana_address":"ｵﾓﾉｶﾞﾜﾏﾁﾂｸﾘﾔﾏ","pref":"秋田県","city":"横手市","address":"雄物川町造山"},
{"zip_code":"0130203","kana_pref":"ｱｷﾀｹﾝ","kana_city":"ﾖｺﾃｼ","kana_address":"ｵﾓﾉｶﾞﾜﾏﾁﾄｳｻﾄ","pref":"秋田県","city":"横手市","address":"雄物川町東里"},
{"zip_code":"0130217","kana_pref":"ｱｷﾀｹﾝ","kana_city":"ﾖｺﾃｼ","kana_address":"ｵﾓﾉｶﾞﾜﾏﾁﾄﾞｳｼﾞ","pref":"秋田県","city":"横手市","address":"雄物川町道地"},
{"zip_code":"0130213","kana_pref":"ｱｷﾀｹﾝ","kana_city":"ﾖｺﾃｼ","kana_address":"ｵﾓﾉｶﾞﾜﾏﾁﾅﾝｶﾀ","pref":"秋田県","city":"横手市","address":"雄物川町南形"},
{"zip_code":"0130206","kana_pref":"ｱｷﾀｹﾝ","kana_city":"ﾖｺﾃｼ","kana_address":"ｵﾓﾉｶﾞﾜﾏﾁﾆｲﾔﾏ","pref":"秋田県","city":"横手市","address":"雄物川町二井山"},
{"zip_code":"0130216","kana_pref":"ｱｷﾀｹﾝ","kana_city":"ﾖｺﾃｼ","kana_address":"ｵﾓﾉｶﾞﾜﾏﾁﾆｼﾉ","pref":"秋田県","city":"横手市","address":"雄物川町西野"},
{"zip_code":"0130208","kana_pref":"ｱｷﾀｹﾝ","kana_city":"ﾖｺﾃｼ","kana_address":"ｵﾓﾉｶﾞﾜﾏﾁﾇﾏﾀﾞﾃ","pref":"秋田県","city":"横手市","address":"雄物川町沼館"},
{"zip_code":"0130211","kana_pref":"ｱｷﾀｹﾝ","kana_city":"ﾖｺﾃｼ","kana_address":"ｵﾓﾉｶﾞﾜﾏﾁﾌｶｲ","pref":"秋田県","city":"横手市","address":"雄物川町深井"},
{"zip_code":"0130207","kana_pref":"ｱｷﾀｹﾝ","kana_city":"ﾖｺﾃｼ","kana_address":"ｵﾓﾉｶﾞﾜﾏﾁﾔｶﾞﾐ","pref":"秋田県","city":"横手市","address":"雄物川町矢神"},
{"zip_code":"0130204","kana_pref":"ｱｷﾀｹﾝ","kana_city":"ﾖｺﾃｼ","kana_address":"ｵﾓﾉｶﾞﾜﾏﾁﾔﾁｼﾝﾃﾞﾝ","pref":"秋田県","city":"横手市","address":"雄物川町谷地新田"},
{"zip_code":"0130072","kana_pref":"ｱｷﾀｹﾝ","kana_city":"ﾖｺﾃｼ","kana_address":"ｵﾛｼﾏﾁ","pref":"秋田県","city":"横手市","address":"卸町"},
{"zip_code":"0130031","kana_pref":"ｱｷﾀｹﾝ","kana_city":"ﾖｺﾃｼ","kana_address":"ｶｼﾞﾏﾁ","pref":"秋田県","city":"横手市","address":"鍛冶町"},
{"zip_code":"0130813","kana_pref":"ｱｷﾀｹﾝ","kana_city":"ﾖｺﾃｼ","kana_address":"ｶﾈｻﾞﾜ","pref":"秋田県","city":"横手市","address":"金沢"},
{"zip_code":"0130814","kana_pref":"ｱｷﾀｹﾝ","kana_city":"ﾖｺﾃｼ","kana_address":"ｶﾈｻﾞﾜﾅｶﾉ","pref":"秋田県","city":"横手市","address":"金沢中野"},
{"zip_code":"0130812","kana_pref":"ｱｷﾀｹﾝ","kana_city":"ﾖｺﾃｼ","kana_address":"ｶﾈｻﾞﾜﾓﾄﾏﾁ","pref":"秋田県","city":"横手市","address":"金沢本町"},
{"zip_code":"0130014","kana_pref":"ｱｷﾀｹﾝ","kana_city":"ﾖｺﾃｼ","kana_address":"ｶﾐｳﾁﾏﾁ","pref":"秋田県","city":"横手市","address":"上内町"},
{"zip_code":"0130821","kana_pref":"ｱｷﾀｹﾝ","kana_city":"ﾖｺﾃｼ","kana_address":"ｶﾐｻﾞｶｲ","pref":"秋田県","city":"横手市","address":"上境"},
{"zip_code":"0130822","kana_pref":"ｱｷﾀｹﾝ","kana_city":"ﾖｺﾃｼ","kana_address":"ｶﾐﾊｯﾁｮｳ","pref":"秋田県","city":"横手市","address":"上八丁"},
{"zip_code":"0130032","kana_pref":"ｱｷﾀｹﾝ","kana_city":"ﾖｺﾃｼ","kana_address":"ｷﾖｶﾜﾁｮｳ","pref":"秋田県","city":"横手市","address":"清川町"},
{"zip_code":"0130826","kana_pref":"ｱｷﾀｹﾝ","kana_city":"ﾖｺﾃｼ","kana_address":"ｸﾛｶﾜ","pref":"秋田県","city":"横手市","address":"黒川"},
{"zip_code":"0130025","kana_pref":"ｱｷﾀｹﾝ","kana_city":"ﾖｺﾃｼ","kana_address":"ｺﾄﾌﾞｷﾁｮｳ","pref":"秋田県","city":"横手市","address":"寿町"},
{"zip_code":"0130005","kana_pref":"ｱｷﾀｹﾝ","kana_city":"ﾖｺﾃｼ","kana_address":"ｻｲﾜｲﾁｮｳ","pref":"秋田県","city":"横手市","address":"幸町"},
{"zip_code":"0130074","kana_pref":"ｱｷﾀｹﾝ","kana_city":"ﾖｺﾃｼ","kana_address":"ｻﾝﾎﾞﾝﾔﾅｷﾞ","pref":"秋田県","city":"横手市","address":"三本柳"},
{"zip_code":"0130069","kana_pref":"ｱｷﾀｹﾝ","kana_city":"ﾖｺﾃｼ","kana_address":"ｻﾝﾏｲﾊﾞｼ","pref":"秋田県","city":"横手市","address":"三枚橋"},
{"zip_code":"0130075","kana_pref":"ｱｷﾀｹﾝ","kana_city":"ﾖｺﾃｼ","kana_address":"ｼｽﾞｶﾏﾁ","pref":"秋田県","city":"横手市","address":"静町"},
{"zip_code":"0130056","kana_pref":"ｱｷﾀｹﾝ","kana_city":"ﾖｺﾃｼ","kana_address":"ｼﾐｽﾞﾏﾁｼﾝﾃﾞﾝ","pref":"秋田県","city":"横手市","address":"清水町新田"},
{"zip_code":"0130824","kana_pref":"ｱｷﾀｹﾝ","kana_city":"ﾖｺﾃｼ","kana_address":"ｼﾓｻﾞｶｲ","pref":"秋田県","city":"横手市","address":"下境"},
{"zip_code":"0130823","kana_pref":"ｱｷﾀｹﾝ","kana_city":"ﾖｺﾃｼ","kana_address":"ｼﾓﾊｯﾁｮｳ","pref":"秋田県","city":"横手市","address":"下八丁"},
{"zip_code":"0130017","kana_pref":"ｱｷﾀｹﾝ","kana_city":"ﾖｺﾃｼ","kana_address":"ｼﾞｬﾉｻｷﾏﾁ","pref":"秋田県","city":"横手市","address":"蛇の崎町"},
{"zip_code":"0130060","kana_pref":"ｱｷﾀｹﾝ","kana_city":"ﾖｺﾃｼ","kana_address":"ｼﾞｮｳﾘ","pref":"秋田県","city":"横手市","address":"条里"},
{"zip_code":"0130011","kana_pref":"ｱｷﾀｹﾝ","kana_city":"ﾖｺﾃｼ","kana_address":"ｼﾛﾆｼﾏﾁ","pref":"秋田県","city":"横手市","address":"城西町"},
{"zip_code":"0130013","kana_pref":"ｱｷﾀｹﾝ","kana_city":"ﾖｺﾃｼ","kana_address":"ｼﾛﾐﾅﾐﾏﾁ","pref":"秋田県","city":"横手市","address":"城南町"},
{"zip_code":"0130012","kana_pref":"ｱｷﾀｹﾝ","kana_city":"ﾖｺﾃｼ","kana_address":"ｼﾛﾔﾏﾏﾁ","pref":"秋田県","city":"横手市","address":"城山町"},
{"zip_code":"0130006","kana_pref":"ｱｷﾀｹﾝ","kana_city":"ﾖｺﾃｼ","kana_address":"ｼﾝｻﾞｶﾁｮｳ","pref":"秋田県","city":"横手市","address":"新坂町"},
{"zip_code":"0130046","kana_pref":"ｱｷﾀｹﾝ","kana_city":"ﾖｺﾃｼ","kana_address":"ｼﾝﾒｲﾁｮｳ","pref":"秋田県","city":"横手市","address":"神明町"},
{"zip_code":"0130001","kana_pref":"ｱｷﾀｹﾝ","kana_city":"ﾖｺﾃｼ","kana_address":"ｽｷﾞｻﾜ","pref":"秋田県","city":"横手市","address":"杉沢"},
{"zip_code":"0130076","kana_pref":"ｱｷﾀｹﾝ","kana_city":"ﾖｺﾃｼ","kana_address":"ｽｷﾞﾒ","pref":"秋田県","city":"横手市","address":"杉目"},
{"zip_code":"0130053","kana_pref":"ｱｷﾀｹﾝ","kana_city":"ﾖｺﾃｼ","kana_address":"ｿﾄﾉﾒ","pref":"秋田県","city":"横手市","address":"外目"},
{"zip_code":"0130003","kana_pref":"ｱｷﾀｹﾝ","kana_city":"ﾖｺﾃｼ","kana_address":"ﾀﾞｲﾄﾞｺﾛﾏﾁ","pref":"秋田県","city":"横手市","address":"台所町"},
{"zip_code":"0130459","kana_pref":"ｱｷﾀｹﾝ","kana_city":"ﾖｺﾃｼ","kana_address":"ﾀｲﾕｳｱｶﾇﾏ","pref":"秋田県","city":"横手市","address":"大雄赤沼"},
{"zip_code":"0130447","kana_pref":"ｱｷﾀｹﾝ","kana_city":"ﾖｺﾃｼ","kana_address":"ﾀｲﾕｳｱｸﾄﾞ","pref":"秋田県","city":"横手市","address":"大雄阿久戸"},
{"zip_code":"0130427","kana_pref":"ｱｷﾀｹﾝ","kana_city":"ﾖｺﾃｼ","kana_address":"ﾀｲﾕｳｱｹﾞ","pref":"秋田県","city":"横手市","address":"大雄阿気"},
{"zip_code":"0130484","kana_pref":"ｱｷﾀｹﾝ","kana_city":"ﾖｺﾃｼ","kana_address":"ﾀｲﾕｳｱﾗﾄｺﾛ","pref":"秋田県","city":"横手市","address":"大雄新処"},
{"zip_code":"0130464","kana_pref":"ｱｷﾀｹﾝ","kana_city":"ﾖｺﾃｼ","kana_address":"ﾀｲﾕｳｲｼﾓﾁ","pref":"秋田県","city":"横手市","address":"大雄石持"},
{"zip_code":"0130465","kana_pref":"ｱｷﾀｹﾝ","kana_city":"ﾖｺﾃｼ","kana_address":"ﾀｲﾕｳｲｼﾓﾁｼﾀ","pref":"秋田県","city":"横手市","address":"大雄石持下"},
{"zip_code":"0130463","kana_pref":"ｱｷﾀｹﾝ","kana_city":"ﾖｺﾃｼ","kana_address":"ﾀｲﾕｳｲｼﾓﾁﾏｴ","pref":"秋田県","city":"横手市","address":"大雄石持前"},
{"zip_code":"0130471","kana_pref":"ｱｷﾀｹﾝ","kana_city":"ﾖｺﾃｼ","kana_address":"ﾀｲﾕｳｲﾀﾊﾞｼｾｷｿﾞｲ","pref":"秋田県","city":"横手市","address":"大雄板橋堰添"},
{"zip_code":"0130353","kana_pref":"ｱｷﾀｹﾝ","kana_city":"ﾖｺﾃｼ","kana_address":"ﾀｲﾕｳｲﾁﾉｾｷ","pref":"秋田県","city":"横手市","address":"大雄一ノ関"},
{"zip_code":"0130352","kana_pref":"ｱｷﾀｹﾝ","kana_city":"ﾖｺﾃｼ","kana_address":"ﾀｲﾕｳｲﾁﾉｾｷﾋｶﾞｼ","pref":"秋田県","city":"横手市","address":"大雄一ノ関東"},
{"zip_code":"0130356","kana_pref":"ｱｷﾀｹﾝ","kana_city":"ﾖｺﾃｼ","kana_address":"ﾀｲﾕｳｲﾁﾉｾｷﾐﾅﾐ","pref":"秋田県","city":"横手市","address":"大雄一ノ関南"},
{"zip_code":"0130431","kana_pref":"ｱｷﾀｹﾝ","kana_city":"ﾖｺﾃｼ","kana_address":"ﾀｲﾕｳｳｼﾅｶｼﾞﾏ","pref":"秋田県","city":"横手市","address":"大雄牛中島"},
{"zip_code":"0130316","kana_pref":"ｱｷﾀｹﾝ","kana_city":"ﾖｺﾃｼ","kana_address":"ﾀｲﾕｳｳﾙｲﾔﾁ","pref":"秋田県","city":"横手市","address":"大雄潤井谷地"},
{"zip_code":"0130382","kana_pref":"ｱｷﾀｹﾝ","kana_city":"ﾖｺﾃｼ","kana_address":"ﾀｲﾕｳｳﾜｾｷﾋｶﾞｼ","pref":"秋田県","city":"横手市","address":"大雄上堰東"},
{"zip_code":"0130421","kana_pref":"ｱｷﾀｹﾝ","kana_city":"ﾖｺﾃｼ","kana_address":"ﾀｲﾕｳｴﾊﾞﾗ","pref":"秋田県","city":"横手市","address":"大雄江原"},
{"zip_code":"0130452","kana_pref":"ｱｷﾀｹﾝ","kana_city":"ﾖｺﾃｼ","kana_address":"ﾀｲﾕｳｵｵｾﾞｷ","pref":"秋田県","city":"横手市","address":"大雄大関"},
{"zip_code":"0130317","kana_pref":"ｱｷﾀｹﾝ","kana_city":"ﾖｺﾃｼ","kana_address":"ﾀｲﾕｳｵｵﾄﾞｶﾜﾊﾞﾀ","pref":"秋田県","city":"横手市","address":"大雄大戸川端"},
{"zip_code":"0130313","kana_pref":"ｱｷﾀｹﾝ","kana_city":"ﾖｺﾃｼ","kana_address":"ﾀｲﾕｳｵｵﾓﾘﾐﾁｷﾀ","pref":"秋田県","city":"横手市","address":"大雄大森道北"},
{"zip_code":"0130454","kana_pref":"ｱｷﾀｹﾝ","kana_city":"ﾖｺﾃｼ","kana_address":"ﾀｲﾕｳｵｵﾔﾁ","pref":"秋田県","city":"横手市","address":"大雄大谷地"},
{"zip_code":"0130455","kana_pref":"ｱｷﾀｹﾝ","kana_city":"ﾖｺﾃｼ","kana_address":"ﾀｲﾕｳｵｵﾔﾁﾆｼ","pref":"秋田県","city":"横手市","address":"大雄大谷地西"},
{"zip_code":"0130335","kana_pref":"ｱｷﾀｹﾝ","kana_city":"ﾖｺﾃｼ","kana_address":"ﾀｲﾕｳｵﾘﾊｼ","pref":"秋田県","city":"横手市","address":"大雄折橋"},
{"zip_code":"0130451","kana_pref":"ｱｷﾀｹﾝ","kana_city":"ﾖｺﾃｼ","kana_address":"ﾀｲﾕｳｵﾘﾊｼﾆｼ","pref":"秋田県","city":"横手市","address":"大雄折橋西"},
{"zip_code":"0130337","kana_pref":"ｱｷﾀｹﾝ","kana_city":"ﾖｺﾃｼ","kana_address":"ﾀｲﾕｳｵﾘﾊｼﾐﾅﾐ","pref":"秋田県","city":"横手市","address":"大雄折橋南"},
{"zip_code":"0130365","kana_pref":"ｱｷﾀｹﾝ","kana_city":"ﾖｺﾃｼ","kana_address":"ﾀｲﾕｳｶｼﾞﾑﾗ","pref":"秋田県","city":"横手市","address":"大雄鍛治村"},
{"zip_code":"0130359","kana_pref":"ｱｷﾀｹﾝ","kana_city":"ﾖｺﾃｼ","kana_address":"ﾀｲﾕｳｶｼﾜｷﾞ","pref":"秋田県","city":"横手市","address":"大雄柏木"},
{"zip_code":"0130362","kana_pref":"ｱｷﾀｹﾝ","kana_city":"ﾖｺﾃｼ","kana_address":"ﾀｲﾕｳｶｼﾜｷﾞｼﾀ","pref":"秋田県","city":"横手市","address":"大雄柏木下"},
{"zip_code":"0130361","kana_pref":"ｱｷﾀｹﾝ","kana_city":"ﾖｺﾃｼ","kana_address":"ﾀｲﾕｳｶｼﾜｷﾞﾆｼ","pref":"秋田県","city":"横手市","address":"大雄柏木西"},
{"zip_code":"0130305","kana_pref":"ｱｷﾀｹﾝ","kana_city":"ﾖｺﾃｼ","kana_address":"ﾀｲﾕｳｶｼﾜｷﾞﾐﾅﾐ","pref":"秋田県","city":"横手市","address":"大雄柏木南"},
{"zip_code":"0130404","kana_pref":"ｱｷﾀｹﾝ","kana_city":"ﾖｺﾃｼ","kana_address":"ﾀｲﾕｳｶﾐｶｼﾜｷﾞ","pref":"秋田県","city":"横手市","address":"大雄上柏木"},
{"zip_code":"0130355","kana_pref":"ｱｷﾀｹﾝ","kana_city":"ﾖｺﾃｼ","kana_address":"ﾀｲﾕｳｶﾐｻｸﾗﾓﾘ","pref":"秋田県","city":"横手市","address":"大雄上桜森"},
{"zip_code":"0130351","kana_pref":"ｱｷﾀｹﾝ","kana_city":"ﾖｺﾃｼ","kana_address":"ﾀｲﾕｳｶﾐﾀﾑﾗ","pref":"秋田県","city":"横手市","address":"大雄上田村"},
{"zip_code":"0130349","kana_pref":"ｱｷﾀｹﾝ","kana_city":"ﾖｺﾃｼ","kana_address":"ﾀｲﾕｳｶﾐﾀﾑﾗﾆｼ","pref":"秋田県","city":"横手市","address":"大雄上田村西"},
{"zip_code":"0130326","kana_pref":"ｱｷﾀｹﾝ","kana_city":"ﾖｺﾃｼ","kana_address":"ﾀｲﾕｳｶﾐﾀﾑﾗﾋｶﾞｼ","pref":"秋田県","city":"横手市","address":"大雄上田村東"},
{"zip_code":"0130372","kana_pref":"ｱｷﾀｹﾝ","kana_city":"ﾖｺﾃｼ","kana_address":"ﾀｲﾕｳｶﾐﾀﾑﾗﾐﾅﾐ","pref":"秋田県","city":"横手市","address":"大雄上田村南"},
{"zip_code":"0130408","kana_pref":"ｱｷﾀｹﾝ","kana_city":"ﾖｺﾃｼ","kana_address":"ﾀｲﾕｳｷﾀﾖﾂﾔ","pref":"秋田県","city":"横手市","address":"大雄北四津屋"},
{"zip_code":"0130354","kana_pref":"ｱｷﾀｹﾝ","kana_city":"ﾖｺﾃｼ","kana_address":"ﾀｲﾕｳｷﾂﾈﾂﾞｶ","pref":"秋田県","city":"横手市","address":"大雄狐塚"},
{"zip_code":"0130426","kana_pref":"ｱｷﾀｹﾝ","kana_city":"ﾖｺﾃｼ","kana_address":"ﾀｲﾕｳｷﾄﾞｸﾞﾁ","pref":"秋田県","city":"横手市","address":"大雄木戸口"},
{"zip_code":"0130438","kana_pref":"ｱｷﾀｹﾝ","kana_city":"ﾖｺﾃｼ","kana_address":"ﾀｲﾕｳｷﾄﾞｸﾞﾁｼﾀ","pref":"秋田県","city":"横手市","address":"大雄木戸口下"},
{"zip_code":"0130435","kana_pref":"ｱｷﾀｹﾝ","kana_city":"ﾖｺﾃｼ","kana_address":"ﾀｲﾕｳｷﾄﾞｸﾞﾁﾆｼ","pref":"秋田県","city":"横手市","address":"大雄木戸口西"},
{"zip_code":"0130314","kana_pref":"ｱｷﾀｹﾝ","kana_city":"ﾖｺﾃｼ","kana_address":"ﾀｲﾕｳｹｲｾｲﾂﾞｶ","pref":"秋田県","city":"横手市","address":"大雄傾城塚"},
{"zip_code":"0130336","kana_pref":"ｱｷﾀｹﾝ","kana_city":"ﾖｺﾃｼ","kana_address":"ﾀｲﾕｳｹｲｾｲﾂﾞｶﾐﾅﾐ","pref":"秋田県","city":"横手市","address":"大雄傾城塚南"},
{"zip_code":"0130437","kana_pref":"ｱｷﾀｹﾝ","kana_city":"ﾖｺﾃｼ","kana_address":"ﾀｲﾕｳｺﾊﾞﾔｼ","pref":"秋田県","city":"横手市","address":"大雄小林"},
{"zip_code":"0130436","kana_pref":"ｱｷﾀｹﾝ","kana_city":"ﾖｺﾃｼ","kana_address":"ﾀｲﾕｳｺﾊﾞﾔｼﾆｼ","pref":"秋田県","city":"横手市","address":"大雄小林西"},
{"zip_code":"0130324","kana_pref":"ｱｷﾀｹﾝ","kana_city":"ﾖｺﾃｼ","kana_address":"ﾀｲﾕｳｺﾝﾀﾞﾔﾁ","pref":"秋田県","city":"横手市","address":"大雄根田谷地"},
{"zip_code":"0130321","kana_pref":"ｱｷﾀｹﾝ","kana_city":"ﾖｺﾃｼ","kana_address":"ﾀｲﾕｳｺﾝﾀﾞﾔﾁﾆｼ","pref":"秋田県","city":"横手市","address":"大雄根田谷地西"},
{"zip_code":"0130323","kana_pref":"ｱｷﾀｹﾝ","kana_city":"ﾖｺﾃｼ","kana_address":"ﾀｲﾕｳｺﾝﾀﾞﾔﾁﾋｶﾞｼ","pref":"秋田県","city":"横手市","address":"大雄根田谷地東"},
{"zip_code":"0130318","kana_pref":"ｱｷﾀｹﾝ","kana_city":"ﾖｺﾃｼ","kana_address":"ﾀｲﾕｳｺﾝﾀﾞﾔﾁﾐﾅﾐ","pref":"秋田県","city":"横手市","address":"大雄根田谷地南"},
{"zip_code":"0130308","kana_pref":"ｱｷﾀｹﾝ","kana_city":"ﾖｺﾃｼ","kana_address":"ﾀｲﾕｳｻｶﾞﾘ","pref":"秋田県","city":"横手市","address":"大雄佐加里"},
{"zip_code":"0130309","kana_pref":"ｱｷﾀｹﾝ","kana_city":"ﾖｺﾃｼ","kana_address":"ﾀｲﾕｳｻｶﾞﾘﾐﾅﾐ","pref":"秋田県","city":"横手市","address":"大雄佐加里南"},
{"zip_code":"0130474","kana_pref":"ｱｷﾀｹﾝ","kana_city":"ﾖｺﾃｼ","kana_address":"ﾀｲﾕｳｻｸﾗﾓﾘ","pref":"秋田県","city":"横手市","address":"大雄桜森"},
{"zip_code":"0130363","kana_pref":"ｱｷﾀｹﾝ","kana_city":"ﾖｺﾃｼ","kana_address":"ﾀｲﾕｳｻｸﾗﾓﾘﾆｼ","pref":"秋田県","city":"横手市","address":"大雄桜森西"},
{"zip_code":"0130477","kana_pref":"ｱｷﾀｹﾝ","kana_city":"ﾖｺﾃｼ","kana_address":"ﾀｲﾕｳｻｸﾗﾓﾘﾋｶﾞｼ","pref":"秋田県","city":"横手市","address":"大雄桜森東"},
{"zip_code":"0130475","kana_pref":"ｱｷﾀｹﾝ","kana_city":"ﾖｺﾃｼ","kana_address":"ﾀｲﾕｳｻｸﾗﾓﾘﾏｴ","pref":"秋田県","city":"横手市","address":"大雄桜森前"},
{"zip_code":"0130434","kana_pref":"ｱｷﾀｹﾝ","kana_city":"ﾖｺﾃｼ","kana_address":"ﾀｲﾕｳｻﾝﾉｳ","pref":"秋田県","city":"横手市","address":"大雄山王"},
{"zip_code":"0130439","kana_pref":"ｱｷﾀｹﾝ","kana_city":"ﾖｺﾃｼ","kana_address":"ﾀｲﾕｳｻﾝﾉｳﾆｼ","pref":"秋田県","city":"横手市","address":"大雄山王西"},
{"zip_code":"0130315","kana_pref":"ｱｷﾀｹﾝ","kana_city":"ﾖｺﾃｼ","kana_address":"ﾀｲﾕｳｼﾀｺﾝﾀﾞﾔﾁ","pref":"秋田県","city":"横手市","address":"大雄下根田谷地"},
{"zip_code":"0130483","kana_pref":"ｱｷﾀｹﾝ","kana_city":"ﾖｺﾃｼ","kana_address":"ﾀｲﾕｳｼﾏﾀﾞ","pref":"秋田県","city":"横手市","address":"大雄島田"},
{"zip_code":"0130485","kana_pref":"ｱｷﾀｹﾝ","kana_city":"ﾖｺﾃｼ","kana_address":"ﾀｲﾕｳｼﾓｱﾗﾄｺﾛ","pref":"秋田県","city":"横手市","address":"大雄下新処"},
{"zip_code":"0130487","kana_pref":"ｱｷﾀｹﾝ","kana_city":"ﾖｺﾃｼ","kana_address":"ﾀｲﾕｳｼﾓﾀﾏﾁ","pref":"秋田県","city":"横手市","address":"大雄下田町"},
{"zip_code":"0130334","kana_pref":"ｱｷﾀｹﾝ","kana_city":"ﾖｺﾃｼ","kana_address":"ﾀｲﾕｳｼﾝﾏﾁ","pref":"秋田県","city":"横手市","address":"大雄新町"},
{"zip_code":"0130302","kana_pref":"ｱｷﾀｹﾝ","kana_city":"ﾖｺﾃｼ","kana_address":"ﾀｲﾕｳｼﾝﾏﾁｷﾀ","pref":"秋田県","city":"横手市","address":"大雄新町北"},
{"zip_code":"0130333","kana_pref":"ｱｷﾀｹﾝ","kana_city":"ﾖｺﾃｼ","kana_address":"ﾀｲﾕｳｼﾝﾏﾁﾆｼ","pref":"秋田県","city":"横手市","address":"大雄新町西"},
{"zip_code":"0130332","kana_pref":"ｱｷﾀｹﾝ","kana_city":"ﾖｺﾃｼ","kana_address":"ﾀｲﾕｳｼﾝﾏﾁﾆｼﾉｿﾞｲ","pref":"秋田県","city":"横手市","address":"大雄新町西野添"},
{"zip_code":"0130307","kana_pref":"ｱｷﾀｹﾝ","kana_city":"ﾖｺﾃｼ","kana_address":"ﾀｲﾕｳｼﾝﾏﾁﾋｶﾞｼ","pref":"秋田県","city":"横手市","address":"大雄新町東"},
{"zip_code":"0130304","kana_pref":"ｱｷﾀｹﾝ","kana_city":"ﾖｺﾃｼ","kana_address":"ﾀｲﾕｳｼﾝﾏﾁﾐﾅﾐ","pref":"秋田県","city":"横手市","address":"大雄新町南"},
{"zip_code":"0130344","kana_pref":"ｱｷﾀｹﾝ","kana_city":"ﾖｺﾃｼ","kana_address":"ﾀｲﾕｳｾｲﾍﾞｲﾆｼ","pref":"秋田県","city":"横手市","address":"大雄精兵西"},
{"zip_code":"0130342","kana_pref":"ｱｷﾀｹﾝ","kana_city":"ﾖｺﾃｼ","kana_address":"ﾀｲﾕｳｾｲﾍﾞｲﾑﾗ","pref":"秋田県","city":"横手市","address":"大雄精兵村"},
{"zip_code":"0130412","kana_pref":"ｱｷﾀｹﾝ","kana_city":"ﾖｺﾃｼ","kana_address":"ﾀｲﾕｳｾｾﾅｷﾞ","pref":"秋田県","city":"横手市","address":"大雄剰水"},
{"zip_code":"0130411","kana_pref":"ｱｷﾀｹﾝ","kana_city":"ﾖｺﾃｼ","kana_address":"ﾀｲﾕｳｾｾﾅｷﾞﾋｶﾞｼ","pref":"秋田県","city":"横手市","address":"大雄剰水東"},
{"zip_code":"0130457","kana_pref":"ｱｷﾀｹﾝ","kana_city":"ﾖｺﾃｼ","kana_address":"ﾀｲﾕｳﾀﾞｲｼﾞｼﾞﾋｶﾞｼ","pref":"秋田県","city":"横手市","address":"大雄大慈寺東"},
{"zip_code":"0130456","kana_pref":"ｱｷﾀｹﾝ","kana_city":"ﾖｺﾃｼ","kana_address":"ﾀｲﾕｳﾀﾞｲｼﾞｼﾞﾏｴ","pref":"秋田県","city":"横手市","address":"大雄大慈寺前"},
{"zip_code":"0130458","kana_pref":"ｱｷﾀｹﾝ","kana_city":"ﾖｺﾃｼ","kana_address":"ﾀｲﾕｳﾀﾞｲｼﾞｼﾞﾔﾁ","pref":"秋田県","city":"横手市","address":"大雄大慈寺谷地"},
{"zip_code":"0130443","kana_pref":"ｱｷﾀｹﾝ","kana_city":"ﾖｺﾃｼ","kana_address":"ﾀｲﾕｳﾀｶﾂﾞﾉ","pref":"秋田県","city":"横手市","address":"大雄高津野"},
{"zip_code":"0130442","kana_pref":"ｱｷﾀｹﾝ","kana_city":"ﾖｺﾃｼ","kana_address":"ﾀｲﾕｳﾀｶﾂﾞﾉｼﾀ","pref":"秋田県","city":"横手市","address":"大雄高津野下"},
{"zip_code":"0130348","kana_pref":"ｱｷﾀｹﾝ","kana_city":"ﾖｺﾃｼ","kana_address":"ﾀｲﾕｳﾀﾈﾓﾘ","pref":"秋田県","city":"横手市","address":"大雄田根森"},
{"zip_code":"0130343","kana_pref":"ｱｷﾀｹﾝ","kana_city":"ﾖｺﾃｼ","kana_address":"ﾀｲﾕｳﾀﾈﾓﾘﾆｼ","pref":"秋田県","city":"横手市","address":"大雄田根森西"},
{"zip_code":"0130325","kana_pref":"ｱｷﾀｹﾝ","kana_city":"ﾖｺﾃｼ","kana_address":"ﾀｲﾕｳﾀﾈﾓﾘﾋｶﾞｼ","pref":"秋田県","city":"横手市","address":"大雄田根森東"},
{"zip_code":"0130486","kana_pref":"ｱｷﾀｹﾝ","kana_city":"ﾖｺﾃｼ","kana_address":"ﾀｲﾕｳﾀﾏﾁ","pref":"秋田県","city":"横手市","address":"大雄田町"},
{"zip_code":"0130306","kana_pref":"ｱｷﾀｹﾝ","kana_city":"ﾖｺﾃｼ","kana_address":"ﾀｲﾕｳﾀﾑﾗ","pref":"秋田県","city":"横手市","address":"大雄田村"},
{"zip_code":"0130428","kana_pref":"ｱｷﾀｹﾝ","kana_city":"ﾖｺﾃｼ","kana_address":"ﾀｲﾕｳﾂﾙﾏｷﾀﾞ","pref":"秋田県","city":"横手市","address":"大雄鶴巻田"},
{"zip_code":"0130322","kana_pref":"ｱｷﾀｹﾝ","kana_city":"ﾖｺﾃｼ","kana_address":"ﾀｲﾕｳﾃﾞﾝｿﾞｳﾑﾗ","pref":"秋田県","city":"横手市","address":"大雄伝蔵村"},
{"zip_code":"0130423","kana_pref":"ｱｷﾀｹﾝ","kana_city":"ﾖｺﾃｼ","kana_address":"ﾀｲﾕｳﾄﾞｲｼﾞﾘ","pref":"秋田県","city":"横手市","address":"大雄土井尻"},
{"zip_code":"0130462","kana_pref":"ｱｷﾀｹﾝ","kana_city":"ﾖｺﾃｼ","kana_address":"ﾀｲﾕｳﾄﾖﾜｷ","pref":"秋田県","city":"横手市","address":"大雄樋脇"},
{"zip_code":"0130424","kana_pref":"ｱｷﾀｹﾝ","kana_city":"ﾖｺﾃｼ","kana_address":"ﾀｲﾕｳﾅｶﾀﾃｱｲ","pref":"秋田県","city":"横手市","address":"大雄中館合"},
{"zip_code":"0130312","kana_pref":"ｱｷﾀｹﾝ","kana_city":"ﾖｺﾃｼ","kana_address":"ﾀｲﾕｳﾅｶﾉ","pref":"秋田県","city":"横手市","address":"大雄中野"},
{"zip_code":"0130311","kana_pref":"ｱｷﾀｹﾝ","kana_city":"ﾖｺﾃｼ","kana_address":"ﾀｲﾕｳﾅｶﾉﾋｶﾞｼ","pref":"秋田県","city":"横手市","address":"大雄中野東"},
{"zip_code":"0130468","kana_pref":"ｱｷﾀｹﾝ","kana_city":"ﾖｺﾃｼ","kana_address":"ﾀｲﾕｳﾅｶﾔﾁ","pref":"秋田県","city":"横手市","address":"大雄中谷地"},
{"zip_code":"0130476","kana_pref":"ｱｷﾀｹﾝ","kana_city":"ﾖｺﾃｼ","kana_address":"ﾀｲﾕｳﾆｼｻｸﾗﾓﾘ","pref":"秋田県","city":"横手市","address":"大雄西桜森"},
{"zip_code":"0130425","kana_pref":"ｱｷﾀｹﾝ","kana_city":"ﾖｺﾃｼ","kana_address":"ﾀｲﾕｳﾆｼﾀﾃｱｲ","pref":"秋田県","city":"横手市","address":"大雄西館合"},
{"zip_code":"0130433","kana_pref":"ｱｷﾀｹﾝ","kana_city":"ﾖｺﾃｼ","kana_address":"ﾀｲﾕｳﾆｼﾅｶｼﾞﾏ","pref":"秋田県","city":"横手市","address":"大雄西中島"},
{"zip_code":"0130406","kana_pref":"ｱｷﾀｹﾝ","kana_city":"ﾖｺﾃｼ","kana_address":"ﾀｲﾕｳﾆｼﾖﾂﾔ","pref":"秋田県","city":"横手市","address":"大雄西四津屋"},
{"zip_code":"0130441","kana_pref":"ｱｷﾀｹﾝ","kana_city":"ﾖｺﾃｼ","kana_address":"ﾀｲﾕｳﾉﾅｶ","pref":"秋田県","city":"横手市","address":"大雄野中"},
{"zip_code":"0130446","kana_pref":"ｱｷﾀｹﾝ","kana_city":"ﾖｺﾃｼ","kana_address":"ﾀｲﾕｳﾉﾘｱｹﾞ","pref":"秋田県","city":"横手市","address":"大雄乗阿気"},
{"zip_code":"0130448","kana_pref":"ｱｷﾀｹﾝ","kana_city":"ﾖｺﾃｼ","kana_address":"ﾀｲﾕｳﾉﾘｱｹﾞｼﾀ","pref":"秋田県","city":"横手市","address":"大雄乗阿気下"},
{"zip_code":"0130472","kana_pref":"ｱｷﾀｹﾝ","kana_city":"ﾖｺﾃｼ","kana_address":"ﾀｲﾕｳﾋｶﾞｼｱｹﾞ","pref":"秋田県","city":"横手市","address":"大雄東阿気"},
{"zip_code":"0130473","kana_pref":"ｱｷﾀｹﾝ","kana_city":"ﾖｺﾃｼ","kana_address":"ﾀｲﾕｳﾋｶﾞｼｻｸﾗﾓﾘ","pref":"秋田県","city":"横手市","address":"大雄東桜森"},
{"zip_code":"0130331","kana_pref":"ｱｷﾀｹﾝ","kana_city":"ﾖｺﾃｼ","kana_address":"ﾀｲﾕｳﾋｶﾞｼﾀｶﾂﾞﾉ","pref":"秋田県","city":"横手市","address":"大雄東高津野"},
{"zip_code":"0130488","kana_pref":"ｱｷﾀｹﾝ","kana_city":"ﾖｺﾃｼ","kana_address":"ﾀｲﾕｳﾋｶﾞｼﾀﾃｱｲ","pref":"秋田県","city":"横手市","address":"大雄東館合"},
{"zip_code":"0130432","kana_pref":"ｱｷﾀｹﾝ","kana_city":"ﾖｺﾃｼ","kana_address":"ﾀｲﾕｳﾋｶﾞｼﾅｶｼﾞﾏ","pref":"秋田県","city":"横手市","address":"大雄東中島"},
{"zip_code":"0130409","kana_pref":"ｱｷﾀｹﾝ","kana_city":"ﾖｺﾃｼ","kana_address":"ﾀｲﾕｳﾋｶﾞｼﾖﾂﾔ","pref":"秋田県","city":"横手市","address":"大雄東四津屋"},
{"zip_code":"0130482","kana_pref":"ｱｷﾀｹﾝ","kana_city":"ﾖｺﾃｼ","kana_address":"ﾀｲﾕｳﾋﾗﾔﾅｷﾞ","pref":"秋田県","city":"横手市","address":"大雄平柳"},
{"zip_code":"0130301","kana_pref":"ｱｷﾀｹﾝ","kana_city":"ﾖｺﾃｼ","kana_address":"ﾀｲﾕｳﾌｸｼﾞﾏ","pref":"秋田県","city":"横手市","address":"大雄福島"},
{"zip_code":"0130303","kana_pref":"ｱｷﾀｹﾝ","kana_city":"ﾖｺﾃｼ","kana_address":"ﾀｲﾕｳﾌｸｼﾞﾏﾐﾅﾐ","pref":"秋田県","city":"横手市","address":"大雄福島南"},
{"zip_code":"0130364","kana_pref":"ｱｷﾀｹﾝ","kana_city":"ﾖｺﾃｼ","kana_address":"ﾀｲﾕｳﾌｸﾛﾔﾁ","pref":"秋田県","city":"横手市","address":"大雄袋谷地"},
{"zip_code":"0130414","kana_pref":"ｱｷﾀｹﾝ","kana_city":"ﾖｺﾃｼ","kana_address":"ﾀｲﾕｳﾌｼﾞﾏｷ","pref":"秋田県","city":"横手市","address":"大雄藤巻"},
{"zip_code":"0130416","kana_pref":"ｱｷﾀｹﾝ","kana_city":"ﾖｺﾃｼ","kana_address":"ﾀｲﾕｳﾌｼﾞﾏｷﾅｶｼﾞﾏ","pref":"秋田県","city":"横手市","address":"大雄藤巻中島"},
{"zip_code":"0130415","kana_pref":"ｱｷﾀｹﾝ","kana_city":"ﾖｺﾃｼ","kana_address":"ﾀｲﾕｳﾌｼﾞﾏｷﾆｼ","pref":"秋田県","city":"横手市","address":"大雄藤巻西"},
{"zip_code":"0130371","kana_pref":"ｱｷﾀｹﾝ","kana_city":"ﾖｺﾃｼ","kana_address":"ﾀｲﾕｳﾌﾞﾝｿﾞｳﾋﾞﾗｷ","pref":"秋田県","city":"横手市","address":"大雄文蔵開"},
{"zip_code":"0130345","kana_pref":"ｱｷﾀｹﾝ","kana_city":"ﾖｺﾃｼ","kana_address":"ﾀｲﾕｳﾎﾝｼﾞｮｳﾐﾁｷﾀｾｷﾏ","pref":"秋田県","city":"横手市","address":"大雄本庄道北堰間"},
{"zip_code":"0130347","kana_pref":"ｱｷﾀｹﾝ","kana_city":"ﾖｺﾃｼ","kana_address":"ﾀｲﾕｳﾎﾝｼﾞｮｳﾐﾁﾐﾅﾐ","pref":"秋田県","city":"横手市","address":"大雄本庄道南"},
{"zip_code":"0130385","kana_pref":"ｱｷﾀｹﾝ","kana_city":"ﾖｺﾃｼ","kana_address":"ﾀｲﾕｳﾏﾝｶｲ","pref":"秋田県","city":"横手市","address":"大雄万貝"},
{"zip_code":"0130422","kana_pref":"ｱｷﾀｹﾝ","kana_city":"ﾖｺﾃｼ","kana_address":"ﾀｲﾕｳﾐﾅﾐｱｹﾞ","pref":"秋田県","city":"横手市","address":"大雄南阿気"},
{"zip_code":"0130405","kana_pref":"ｱｷﾀｹﾝ","kana_city":"ﾖｺﾃｼ","kana_address":"ﾀｲﾕｳﾐﾅﾐﾖﾂﾔ","pref":"秋田県","city":"横手市","address":"大雄南四津屋"},
{"zip_code":"0130339","kana_pref":"ｱｷﾀｹﾝ","kana_city":"ﾖｺﾃｼ","kana_address":"ﾀｲﾕｳﾐﾐﾄﾞﾘ","pref":"秋田県","city":"横手市","address":"大雄耳取"},
{"zip_code":"0130338","kana_pref":"ｱｷﾀｹﾝ","kana_city":"ﾖｺﾃｼ","kana_address":"ﾀｲﾕｳﾐﾐﾄﾞﾘﾆｼ","pref":"秋田県","city":"横手市","address":"大雄耳取西"},
{"zip_code":"0130466","kana_pref":"ｱｷﾀｹﾝ","kana_city":"ﾖｺﾃｼ","kana_address":"ﾀｲﾕｳﾐﾑﾗ","pref":"秋田県","city":"横手市","address":"大雄三村"},
{"zip_code":"0130453","kana_pref":"ｱｷﾀｹﾝ","kana_city":"ﾖｺﾃｼ","kana_address":"ﾀｲﾕｳﾐﾑﾗｷﾀ","pref":"秋田県","city":"横手市","address":"大雄三村北"},
{"zip_code":"0130467","kana_pref":"ｱｷﾀｹﾝ","kana_city":"ﾖｺﾃｼ","kana_address":"ﾀｲﾕｳﾐﾑﾗﾆｼ","pref":"秋田県","city":"横手市","address":"大雄三村西"},
{"zip_code":"0130461","kana_pref":"ｱｷﾀｹﾝ","kana_city":"ﾖｺﾃｼ","kana_address":"ﾀｲﾕｳﾐﾑﾗﾋｶﾞｼ","pref":"秋田県","city":"横手市","address":"大雄三村東"},
{"zip_code":"0130429","kana_pref":"ｱｷﾀｹﾝ","kana_city":"ﾖｺﾃｼ","kana_address":"ﾀｲﾕｳﾐﾔｺｳｼﾞ","pref":"秋田県","city":"横手市","address":"大雄宮小路"},
{"zip_code":"0130413","kana_pref":"ｱｷﾀｹﾝ","kana_city":"ﾖｺﾃｼ","kana_address":"ﾀｲﾕｳﾐﾔﾀ","pref":"秋田県","city":"横手市","address":"大雄宮田"},
{"zip_code":"0130358","kana_pref":"ｱｷﾀｹﾝ","kana_city":"ﾖｺﾃｼ","kana_address":"ﾀｲﾕｳﾑｶｲ","pref":"秋田県","city":"横手市","address":"大雄向"},
{"zip_code":"0130445","kana_pref":"ｱｷﾀｹﾝ","kana_city":"ﾖｺﾃｼ","kana_address":"ﾀｲﾕｳﾑｶｲﾀﾞ","pref":"秋田県","city":"横手市","address":"大雄向田"},
{"zip_code":"0130444","kana_pref":"ｱｷﾀｹﾝ","kana_city":"ﾖｺﾃｼ","kana_address":"ﾀｲﾕｳﾑｶｲﾀﾞﾋｶﾞｼ","pref":"秋田県","city":"横手市","address":"大雄向田東"},
{"zip_code":"0130357","kana_pref":"ｱｷﾀｹﾝ","kana_city":"ﾖｺﾃｼ","kana_address":"ﾀｲﾕｳﾑｶｲﾋｶﾞｼ","pref":"秋田県","city":"横手市","address":"大雄向東"},
{"zip_code":"0130402","kana_pref":"ｱｷﾀｹﾝ","kana_city":"ﾖｺﾃｼ","kana_address":"ﾀｲﾕｳﾔｶﾞｼﾜ","pref":"秋田県","city":"横手市","address":"大雄八柏"},
{"zip_code":"0130379","kana_pref":"ｱｷﾀｹﾝ","kana_city":"ﾖｺﾃｼ","kana_address":"ﾀｲﾕｳﾔｶﾞｼﾜｲｴﾏ","pref":"秋田県","city":"横手市","address":"大雄八柏家間"},
{"zip_code":"0130376","kana_pref":"ｱｷﾀｹﾝ","kana_city":"ﾖｺﾃｼ","kana_address":"ﾀｲﾕｳﾔｶﾞｼﾜｳﾏﾐﾁｿﾞｲ","pref":"秋田県","city":"横手市","address":"大雄八柏馬道添"},
{"zip_code":"0130378","kana_pref":"ｱｷﾀｹﾝ","kana_city":"ﾖｺﾃｼ","kana_address":"ﾀｲﾕｳﾔｶﾞｼﾜｶｲﾄﾞｳｿﾞｲ","pref":"秋田県","city":"横手市","address":"大雄八柏街道添"},
{"zip_code":"0130375","kana_pref":"ｱｷﾀｹﾝ","kana_city":"ﾖｺﾃｼ","kana_address":"ﾀｲﾕｳﾔｶﾞｼﾜｶﾏﾌﾞﾀ","pref":"秋田県","city":"横手市","address":"大雄八柏釜蓋"},
{"zip_code":"0130381","kana_pref":"ｱｷﾀｹﾝ","kana_city":"ﾖｺﾃｼ","kana_address":"ﾀｲﾕｳﾔｶﾞｼﾜｼﾓﾑﾗ","pref":"秋田県","city":"横手市","address":"大雄八柏下村"},
{"zip_code":"0130377","kana_pref":"ｱｷﾀｹﾝ","kana_city":"ﾖｺﾃｼ","kana_address":"ﾀｲﾕｳﾔｶﾞｼﾜﾅｶﾑﾗ","pref":"秋田県","city":"横手市","address":"大雄八柏中村"},
{"zip_code":"0130374","kana_pref":"ｱｷﾀｹﾝ","kana_city":"ﾖｺﾃｼ","kana_address":"ﾀｲﾕｳﾔｶﾞｼﾜﾅｶﾑﾗﾋｶﾞｼ","pref":"秋田県","city":"横手市","address":"大雄八柏中村東"},
{"zip_code":"0130384","kana_pref":"ｱｷﾀｹﾝ","kana_city":"ﾖｺﾃｼ","kana_address":"ﾀｲﾕｳﾔｶﾞｼﾜﾑﾗｵﾓﾃ","pref":"秋田県","city":"横手市","address":"大雄八柏村表"},
{"zip_code":"0130383","kana_pref":"ｱｷﾀｹﾝ","kana_city":"ﾖｺﾃｼ","kana_address":"ﾀｲﾕｳﾔｶﾞｼﾜﾑﾗﾆｼ","pref":"秋田県","city":"横手市","address":"大雄八柏村西"},
{"zip_code":"0130373","kana_pref":"ｱｷﾀｹﾝ","kana_city":"ﾖｺﾃｼ","kana_address":"ﾀｲﾕｳﾔｶﾞｼﾜﾔﾁ","pref":"秋田県","city":"横手市","address":"大雄八柏谷地"},
{"zip_code":"0130327","kana_pref":"ｱｷﾀｹﾝ","kana_city":"ﾖｺﾃｼ","kana_address":"ﾀｲﾕｳﾔｹﾉ","pref":"秋田県","city":"横手市","address":"大雄焼野"},
{"zip_code":"0130341","kana_pref":"ｱｷﾀｹﾝ","kana_city":"ﾖｺﾃｼ","kana_address":"ﾀｲﾕｳﾖﾂﾔ","pref":"秋田県","city":"横手市","address":"大雄四ッ屋"},
{"zip_code":"0130407","kana_pref":"ｱｷﾀｹﾝ","kana_city":"ﾖｺﾃｼ","kana_address":"ﾀｲﾕｳﾖﾂﾔｼﾀ","pref":"秋田県","city":"横手市","address":"大雄四津屋下"},
{"zip_code":"0130346","kana_pref":"ｱｷﾀｹﾝ","kana_city":"ﾖｺﾃｼ","kana_address":"ﾀｲﾕｳﾖﾂﾔﾆｼ","pref":"秋田県","city":"横手市","address":"大雄四ツ屋西"},
{"zip_code":"0130319","kana_pref":"ｱｷﾀｹﾝ","kana_city":"ﾖｺﾃｼ","kana_address":"ﾀｲﾕｳﾖﾂﾔﾋｶﾞｼ","pref":"秋田県","city":"横手市","address":"大雄四ツ屋東"},
{"zip_code":"0130419","kana_pref":"ｱｷﾀｹﾝ","kana_city":"ﾖｺﾃｼ","kana_address":"ﾀｲﾕｳﾛｸﾁｮｳ","pref":"秋田県","city":"横手市","address":"大雄六町"},
{"zip_code":"0130417","kana_pref":"ｱｷﾀｹﾝ","kana_city":"ﾖｺﾃｼ","kana_address":"ﾀｲﾕｳﾛｸﾁｮｳｼﾀ","pref":"秋田県","city":"横手市","address":"大雄六町下"},
{"zip_code":"0130418","kana_pref":"ｱｷﾀｹﾝ","kana_city":"ﾖｺﾃｼ","kana_address":"ﾀｲﾕｳﾛｸﾁｮｳﾋｶﾞｼ","pref":"秋田県","city":"横手市","address":"大雄六町東"},
{"zip_code":"0130024","kana_pref":"ｱｷﾀｹﾝ","kana_city":"ﾖｺﾃｼ","kana_address":"ﾀﾅｶﾏﾁ","pref":"秋田県","city":"横手市","address":"田中町"},
{"zip_code":"0130023","kana_pref":"ｱｷﾀｹﾝ","kana_city":"ﾖｺﾃｼ","kana_address":"ﾁｭｳｵｳﾏﾁ","pref":"秋田県","city":"横手市","address":"中央町"},
{"zip_code":"0130066","kana_pref":"ｱｷﾀｹﾝ","kana_city":"ﾖｺﾃｼ","kana_address":"ﾂｶﾎﾞﾘ","pref":"秋田県","city":"横手市","address":"塚堀"},
{"zip_code":"0130016","kana_pref":"ｱｷﾀｹﾝ","kana_city":"ﾖｺﾃｼ","kana_address":"ﾈｷﾞｼﾁｮｳ","pref":"秋田県","city":"横手市","address":"根岸町"},
{"zip_code":"0130015","kana_pref":"ｱｷﾀｹﾝ","kana_city":"ﾖｺﾃｼ","kana_address":"ﾊｸﾞﾛﾁｮｳ","pref":"秋田県","city":"横手市","address":"羽黒町"},
{"zip_code":"0130825","kana_pref":"ｱｷﾀｹﾝ","kana_city":"ﾖｺﾃｼ","kana_address":"ﾋｬｸﾏﾝｶﾞﾘ","pref":"秋田県","city":"横手市","address":"百万刈"},
{"zip_code":"0130105","kana_pref":"ｱｷﾀｹﾝ","kana_city":"ﾖｺﾃｼ","kana_address":"ﾋﾗｶﾏﾁｱｻﾏｲ","pref":"秋田県","city":"横手市","address":"平鹿町浅舞"},
{"zip_code":"0130101","kana_pref":"ｱｷﾀｹﾝ","kana_city":"ﾖｺﾃｼ","kana_address":"ﾋﾗｶﾏﾁｶﾐﾖｼﾀﾞ","pref":"秋田県","city":"横手市","address":"平鹿町上吉田"},
{"zip_code":"0130103","kana_pref":"ｱｷﾀｹﾝ","kana_city":"ﾖｺﾃｼ","kana_address":"ﾋﾗｶﾏﾁｼﾓﾅﾍﾞｸﾗ","pref":"秋田県","city":"横手市","address":"平鹿町下鍋倉"},
{"zip_code":"0130107","kana_pref":"ｱｷﾀｹﾝ","kana_city":"ﾖｺﾃｼ","kana_address":"ﾋﾗｶﾏﾁｼﾓﾖｼﾀﾞ","pref":"秋田県","city":"横手市","address":"平鹿町下吉田"},
{"zip_code":"0130102","kana_pref":"ｱｷﾀｹﾝ","kana_city":"ﾖｺﾃｼ","kana_address":"ﾋﾗｶﾏﾁﾀﾞｲｺﾞ","pref":"秋田県","city":"横手市","address":"平鹿町醍醐"},
{"zip_code":"0130104","kana_pref":"ｱｷﾀｹﾝ","kana_city":"ﾖｺﾃｼ","kana_address":"ﾋﾗｶﾏﾁﾀﾙﾐﾅｲ","pref":"秋田県","city":"横手市","address":"平鹿町樽見内"},
{"zip_code":"0130106","kana_pref":"ｱｷﾀｹﾝ","kana_city":"ﾖｺﾃｼ","kana_address":"ﾋﾗｶﾏﾁﾅｶﾖｼﾀﾞ","pref":"秋田県","city":"横手市","address":"平鹿町中吉田"},
{"zip_code":"0130027","kana_pref":"ｱｷﾀｹﾝ","kana_city":"ﾖｺﾃｼ","kana_address":"ﾋﾗｼﾞｮｳﾏﾁ","pref":"秋田県","city":"横手市","address":"平城町"},
{"zip_code":"0130063","kana_pref":"ｱｷﾀｹﾝ","kana_city":"ﾖｺﾃｼ","kana_address":"ﾌｹｵｵﾂﾞﾂﾐ","pref":"秋田県","city":"横手市","address":"婦気大堤"},
{"zip_code":"0130019","kana_pref":"ｱｷﾀｹﾝ","kana_city":"ﾖｺﾃｼ","kana_address":"ﾌﾀﾊﾞﾁｮｳ","pref":"秋田県","city":"横手市","address":"二葉町"},
{"zip_code":"0130035","kana_pref":"ｱｷﾀｹﾝ","kana_city":"ﾖｺﾃｼ","kana_address":"ﾍｲﾜﾁｮｳ","pref":"秋田県","city":"横手市","address":"平和町"},
{"zip_code":"0130034","kana_pref":"ｱｷﾀｹﾝ","kana_city":"ﾖｺﾃｼ","kana_address":"ﾎﾝｺﾞｳﾁｮｳ","pref":"秋田県","city":"横手市","address":"本郷町"},
{"zip_code":"0130042","kana_pref":"ｱｷﾀｹﾝ","kana_city":"ﾖｺﾃｼ","kana_address":"ﾏｴｺﾞｳ","pref":"秋田県","city":"横手市","address":"前郷"},
{"zip_code":"0130038","kana_pref":"ｱｷﾀｹﾝ","kana_city":"ﾖｺﾃｼ","kana_address":"ﾏｴｺﾞｳｲﾁﾊﾞﾝﾁｮｳ","pref":"秋田県","city":"横手市","address":"前郷一番町"},
{"zip_code":"0130037","kana_pref":"ｱｷﾀｹﾝ","kana_city":"ﾖｺﾃｼ","kana_address":"ﾏｴｺﾞｳﾆﾊﾞﾝﾁｮｳ","pref":"秋田県","city":"横手市","address":"前郷二番町"},
{"zip_code":"0130047","kana_pref":"ｱｷﾀｹﾝ","kana_city":"ﾖｺﾃｼ","kana_address":"ﾏﾂﾊﾞﾗﾏﾁ","pref":"秋田県","city":"横手市","address":"松原町"},
{"zip_code":"0130045","kana_pref":"ｱｷﾀｹﾝ","kana_city":"ﾖｺﾃｼ","kana_address":"ﾐﾅﾐﾏﾁ","pref":"秋田県","city":"横手市","address":"南町"},
{"zip_code":"0130004","kana_pref":"ｱｷﾀｹﾝ","kana_city":"ﾖｺﾃｼ","kana_address":"ﾐｮｳｴｲﾁｮｳ","pref":"秋田県","city":"横手市","address":"明永町"},
{"zip_code":"0130008","kana_pref":"ｱｷﾀｹﾝ","kana_city":"ﾖｺﾃｼ","kana_address":"ﾑﾂﾅﾘ","pref":"秋田県","city":"横手市","address":"睦成"},
{"zip_code":"0130018","kana_pref":"ｱｷﾀｹﾝ","kana_city":"ﾖｺﾃｼ","kana_address":"ﾓﾄﾏﾁ","pref":"秋田県","city":"横手市","address":"本町"},
{"zip_code":"0130043","kana_pref":"ｱｷﾀｹﾝ","kana_city":"ﾖｺﾃｼ","kana_address":"ﾔｽﾀﾞ","pref":"秋田県","city":"横手市","address":"安田"},
{"zip_code":"0130048","kana_pref":"ｱｷﾀｹﾝ","kana_city":"ﾖｺﾃｼ","kana_address":"ﾔｽﾀﾞﾊﾗﾏﾁ","pref":"秋田県","city":"横手市","address":"安田原町"},
{"zip_code":"0130811","kana_pref":"ｱｷﾀｹﾝ","kana_city":"ﾖｺﾃｼ","kana_address":"ﾔｽﾓﾄ","pref":"秋田県","city":"横手市","address":"安本"},
{"zip_code":"0130054","kana_pref":"ｱｷﾀｹﾝ","kana_city":"ﾖｺﾃｼ","kana_address":"ﾔﾅｷﾞﾀﾞ","pref":"秋田県","city":"横手市","address":"柳田"},
{"zip_code":"0130071","kana_pref":"ｱｷﾀｹﾝ","kana_city":"ﾖｺﾃｼ","kana_address":"ﾔﾜﾀ","pref":"秋田県","city":"横手市","address":"八幡"},
{"zip_code":"0130061","kana_pref":"ｱｷﾀｹﾝ","kana_city":"ﾖｺﾃｼ","kana_address":"ﾖｺﾃﾏﾁ","pref":"秋田県","city":"横手市","address":"横手町"},
{"zip_code":"0130044","kana_pref":"ｱｷﾀｹﾝ","kana_city":"ﾖｺﾃｼ","kana_address":"ﾖｺﾔﾏﾁｮｳ","pref":"秋田県","city":"横手市","address":"横山町"},
{"zip_code":"0130022","kana_pref":"ｱｷﾀｹﾝ","kana_city":"ﾖｺﾃｼ","kana_address":"ﾖｯｶﾏﾁ","pref":"秋田県","city":"横手市","address":"四日町"}]}