{"zip_code":[
{"zip_code":"0140000","kana_pref":"ｱｷﾀｹﾝ","kana_city":"ﾀﾞｲｾﾝｼ","kana_address":"","pref":"秋田県","city":"大仙市","address":""},
{"zip_code":"0140013","kana_pref":"ｱｷﾀｹﾝ","kana_city":"ﾀﾞｲｾﾝｼ","kana_address":"ｱｻﾋﾏﾁ","pref":"秋田県","city":"大仙市","address":"朝日町"},
{"zip_code":"0140067","kana_pref":"ｱｷﾀｹﾝ","kana_city":"ﾀﾞｲｾﾝｼ","kana_address":"ｲｲﾀﾞ","pref":"秋田県","city":"大仙市","address":"飯田"},
{"zip_code":"0140004","kana_pref":"ｱｷﾀｹﾝ","kana_city":"ﾀﾞｲｾﾝｼ","kana_address":"ｲｽﾞﾐﾁｮｳ","pref":"秋田県","city":"大仙市","address":"泉町"},
{"zip_code":"0140112","kana_pref":"ｱｷﾀｹﾝ","kana_city":"ﾀﾞｲｾﾝｼ","kana_address":"ｲﾀﾐﾅｲ","pref":"秋田県","city":"大仙市","address":"板見内"},
{"zip_code":"0140073","kana_pref":"ｱｷﾀｹﾝ","kana_city":"ﾀﾞｲｾﾝｼ","kana_address":"ｳﾁｵﾄﾓ","pref":"秋田県","city":"大仙市","address":"内小友"},
{"zip_code":"0140714","kana_pref":"ｱｷﾀｹﾝ","kana_city":"ﾀﾞｲｾﾝｼ","kana_address":"ｵｵｶﾝﾅﾘ","pref":"秋田県","city":"大仙市","address":"大神成"},
{"zip_code":"0140022","kana_pref":"ｱｷﾀｹﾝ","kana_city":"ﾀﾞｲｾﾝｼ","kana_address":"ｵｵﾊﾅﾁｮｳ","pref":"秋田県","city":"大仙市","address":"大花町"},
{"zip_code":"0140031","kana_pref":"ｱｷﾀｹﾝ","kana_city":"ﾀﾞｲｾﾝｼ","kana_address":"ｵｵﾏｶﾞﾘ","pref":"秋田県","city":"大仙市","address":"大曲"},
{"zip_code":"0140055","kana_pref":"ｱｷﾀｹﾝ","kana_city":"ﾀﾞｲｾﾝｼ","kana_address":"ｵｵﾏｶﾞﾘｱｹﾎﾞﾉﾁｮｳ","pref":"秋田県","city":"大仙市","address":"大曲あけぼの町"},
{"zip_code":"0140068","kana_pref":"ｱｷﾀｹﾝ","kana_city":"ﾀﾞｲｾﾝｼ","kana_address":"ｵｵﾏｶﾞﾘｲｲﾀﾞﾁｮｳ","pref":"秋田県","city":"大仙市","address":"大曲飯田町"},
{"zip_code":"0140025","kana_pref":"ｱｷﾀｹﾝ","kana_city":"ﾀﾞｲｾﾝｼ","kana_address":"ｵｵﾏｶﾞﾘｵｵﾏﾁ","pref":"秋田県","city":"大仙市","address":"大曲大町"},
{"zip_code":"0140054","kana_pref":"ｱｷﾀｹﾝ","kana_city":"ﾀﾞｲｾﾝｼ","kana_address":"ｵｵﾏｶﾞﾘｶﾅﾔﾁｮｳ","pref":"秋田県","city":"大仙市","address":"大曲金谷町"},
{"zip_code":"0140048","kana_pref":"ｱｷﾀｹﾝ","kana_city":"ﾀﾞｲｾﾝｼ","kana_address":"ｵｵﾏｶﾞﾘｶﾐｵｵﾏﾁ","pref":"秋田県","city":"大仙市","address":"大曲上大町"},
{"zip_code":"0140062","kana_pref":"ｱｷﾀｹﾝ","kana_city":"ﾀﾞｲｾﾝｼ","kana_address":"ｵｵﾏｶﾞﾘｶﾐｻｶｴﾁｮｳ","pref":"秋田県","city":"大仙市","address":"大曲上栄町"},
{"zip_code":"0140052","kana_pref":"ｱｷﾀｹﾝ","kana_city":"ﾀﾞｲｾﾝｼ","kana_address":"ｵｵﾏｶﾞﾘｶﾜﾗﾁｮｳ","pref":"秋田県","city":"大仙市","address":"大曲川原町"},
{"zip_code":"0140023","kana_pref":"ｱｷﾀｹﾝ","kana_city":"ﾀﾞｲｾﾝｼ","kana_address":"ｵｵﾏｶﾞﾘｸﾛｾﾁｮｳ","pref":"秋田県","city":"大仙市","address":"大曲黒瀬町"},
{"zip_code":"0140061","kana_pref":"ｱｷﾀｹﾝ","kana_city":"ﾀﾞｲｾﾝｼ","kana_address":"ｵｵﾏｶﾞﾘｻｶｴﾁｮｳ","pref":"秋田県","city":"大仙市","address":"大曲栄町"},
{"zip_code":"0140015","kana_pref":"ｱｷﾀｹﾝ","kana_city":"ﾀﾞｲｾﾝｼ","kana_address":"ｵｵﾏｶﾞﾘｼﾛｶﾞﾈﾁｮｳ","pref":"秋田県","city":"大仙市","address":"大曲白金町"},
{"zip_code":"0140034","kana_pref":"ｱｷﾀｹﾝ","kana_city":"ﾀﾞｲｾﾝｼ","kana_address":"ｵｵﾏｶﾞﾘｽﾐﾖｼﾁｮｳ","pref":"秋田県","city":"大仙市","address":"大曲住吉町"},
{"zip_code":"0140047","kana_pref":"ｱｷﾀｹﾝ","kana_city":"ﾀﾞｲｾﾝｼ","kana_address":"ｵｵﾏｶﾞﾘｽﾜﾁｮｳ","pref":"秋田県","city":"大仙市","address":"大曲須和町"},
{"zip_code":"0140046","kana_pref":"ｱｷﾀｹﾝ","kana_city":"ﾀﾞｲｾﾝｼ","kana_address":"ｵｵﾏｶﾞﾘﾀﾏﾁ","pref":"秋田県","city":"大仙市","address":"大曲田町"},
{"zip_code":"0140027","kana_pref":"ｱｷﾀｹﾝ","kana_city":"ﾀﾞｲｾﾝｼ","kana_address":"ｵｵﾏｶﾞﾘﾄｵﾘﾏﾁ","pref":"秋田県","city":"大仙市","address":"大曲通町"},
{"zip_code":"0140043","kana_pref":"ｱｷﾀｹﾝ","kana_city":"ﾀﾞｲｾﾝｼ","kana_address":"ｵｵﾏｶﾞﾘﾄﾏｷﾁｮｳ","pref":"秋田県","city":"大仙市","address":"大曲戸巻町"},
{"zip_code":"0140024","kana_pref":"ｱｷﾀｹﾝ","kana_city":"ﾀﾞｲｾﾝｼ","kana_address":"ｵｵﾏｶﾞﾘﾅｶﾄﾞｵﾘﾏﾁ","pref":"秋田県","city":"大仙市","address":"大曲中通町"},
{"zip_code":"0140053","kana_pref":"ｱｷﾀｹﾝ","kana_city":"ﾀﾞｲｾﾝｼ","kana_address":"ｵｵﾏｶﾞﾘﾊﾅｿﾞﾉﾁｮｳ","pref":"秋田県","city":"大仙市","address":"大曲花園町"},
{"zip_code":"0140051","kana_pref":"ｱｷﾀｹﾝ","kana_city":"ﾀﾞｲｾﾝｼ","kana_address":"ｵｵﾏｶﾞﾘﾊﾏﾁｮｳ","pref":"秋田県","city":"大仙市","address":"大曲浜町"},
{"zip_code":"0140063","kana_pref":"ｱｷﾀｹﾝ","kana_city":"ﾀﾞｲｾﾝｼ","kana_address":"ｵｵﾏｶﾞﾘﾋﾉﾃﾞﾁｮｳ","pref":"秋田県","city":"大仙市","address":"大曲日の出町"},
{"zip_code":"0140014","kana_pref":"ｱｷﾀｹﾝ","kana_city":"ﾀﾞｲｾﾝｼ","kana_address":"ｵｵﾏｶﾞﾘﾌｸｽﾞﾐﾁｮｳ","pref":"秋田県","city":"大仙市","address":"大曲福住町"},
{"zip_code":"0140042","kana_pref":"ｱｷﾀｹﾝ","kana_city":"ﾀﾞｲｾﾝｼ","kana_address":"ｵｵﾏｶﾞﾘﾌｸﾐﾁｮｳ","pref":"秋田県","city":"大仙市","address":"大曲福見町"},
{"zip_code":"0140057","kana_pref":"ｱｷﾀｹﾝ","kana_city":"ﾀﾞｲｾﾝｼ","kana_address":"ｵｵﾏｶﾞﾘﾌﾅﾊﾞﾁｮｳ","pref":"秋田県","city":"大仙市","address":"大曲船場町"},
{"zip_code":"0140041","kana_pref":"ｱｷﾀｹﾝ","kana_city":"ﾀﾞｲｾﾝｼ","kana_address":"ｵｵﾏｶﾞﾘﾏﾙｺﾁｮｳ","pref":"秋田県","city":"大仙市","address":"大曲丸子町"},
{"zip_code":"0140026","kana_pref":"ｱｷﾀｹﾝ","kana_city":"ﾀﾞｲｾﾝｼ","kana_address":"ｵｵﾏｶﾞﾘﾏﾙﾉｳﾁﾏﾁ","pref":"秋田県","city":"大仙市","address":"大曲丸の内町"},
{"zip_code":"0140056","kana_pref":"ｱｷﾀｹﾝ","kana_city":"ﾀﾞｲｾﾝｼ","kana_address":"ｵｵﾏｶﾞﾘﾐﾄﾞﾘﾁｮｳ","pref":"秋田県","city":"大仙市","address":"大曲緑町"},
{"zip_code":"0140045","kana_pref":"ｱｷﾀｹﾝ","kana_city":"ﾀﾞｲｾﾝｼ","kana_address":"ｵｵﾏｶﾞﾘﾜｶﾊﾞﾁｮｳ","pref":"秋田県","city":"大仙市","address":"大曲若葉町"},
{"zip_code":"0140072","kana_pref":"ｱｷﾀｹﾝ","kana_city":"ﾀﾞｲｾﾝｼ","kana_address":"ｵｵﾏｶﾞﾘﾆｼﾈ","pref":"秋田県","city":"大仙市","address":"大曲西根"},
{"zip_code":"0140064","kana_pref":"ｱｷﾀｹﾝ","kana_city":"ﾀﾞｲｾﾝｼ","kana_address":"ｵﾇｷﾀｶﾊﾞﾀｹ","pref":"秋田県","city":"大仙市","address":"小貫高畑"},
{"zip_code":"0141413","kana_pref":"ｱｷﾀｹﾝ","kana_city":"ﾀﾞｲｾﾝｼ","kana_address":"ｶｸﾏｶﾞﾜﾏﾁ","pref":"秋田県","city":"大仙市","address":"角間川町"},
{"zip_code":"0140202","kana_pref":"ｱｷﾀｹﾝ","kana_city":"ﾀﾞｲｾﾝｼ","kana_address":"ｶﾐｳｸﾞｲｽﾉ","pref":"秋田県","city":"大仙市","address":"上鶯野"},
{"zip_code":"0140066","kana_pref":"ｱｷﾀｹﾝ","kana_city":"ﾀﾞｲｾﾝｼ","kana_address":"ｶﾜﾉﾒ","pref":"秋田県","city":"大仙市","address":"川目"},
{"zip_code":"0140203","kana_pref":"ｱｷﾀｹﾝ","kana_city":"ﾀﾞｲｾﾝｼ","kana_address":"ｷﾀﾅｶﾞﾉ","pref":"秋田県","city":"大仙市","address":"北長野"},
{"zip_code":"0140713","kana_pref":"ｱｷﾀｹﾝ","kana_city":"ﾀﾞｲｾﾝｼ","kana_address":"ｸﾘｻﾜ","pref":"秋田県","city":"大仙市","address":"栗沢"},
{"zip_code":"0140803","kana_pref":"ｱｷﾀｹﾝ","kana_city":"ﾀﾞｲｾﾝｼ","kana_address":"ｺｳｽﾞｹﾀ","pref":"秋田県","city":"大仙市","address":"上野田"},
{"zip_code":"0140012","kana_pref":"ｱｷﾀｹﾝ","kana_city":"ﾀﾞｲｾﾝｼ","kana_address":"ｻｲﾜｲﾁｮｳ","pref":"秋田県","city":"大仙市","address":"幸町"},
{"zip_code":"0140017","kana_pref":"ｱｷﾀｹﾝ","kana_city":"ﾀﾞｲｾﾝｼ","kana_address":"ｻﾉﾁｮｳ","pref":"秋田県","city":"大仙市","address":"佐野町"},
{"zip_code":"0140204","kana_pref":"ｱｷﾀｹﾝ","kana_city":"ﾀﾞｲｾﾝｼ","kana_address":"ｼﾐｽﾞ","pref":"秋田県","city":"大仙市","address":"清水"},
{"zip_code":"0140201","kana_pref":"ｱｷﾀｹﾝ","kana_city":"ﾀﾞｲｾﾝｼ","kana_address":"ｼﾓｳｸﾞｲｽﾉ","pref":"秋田県","city":"大仙市","address":"下鶯野"},
{"zip_code":"0140065","kana_pref":"ｱｷﾀｹﾝ","kana_city":"ﾀﾞｲｾﾝｼ","kana_address":"ｼﾓﾌｶｲ","pref":"秋田県","city":"大仙市","address":"下深井"},
{"zip_code":"0140103","kana_pref":"ｱｷﾀｹﾝ","kana_city":"ﾀﾞｲｾﾝｼ","kana_address":"ﾀｶｾﾞｷｶﾐｺﾞｳ","pref":"秋田県","city":"大仙市","address":"高関上郷"},
{"zip_code":"0140805","kana_pref":"ｱｷﾀｹﾝ","kana_city":"ﾀﾞｲｾﾝｼ","kana_address":"ﾀｶﾅｼ","pref":"秋田県","city":"大仙市","address":"高梨"},
{"zip_code":"0140801","kana_pref":"ｱｷﾀｹﾝ","kana_city":"ﾀﾞｲｾﾝｼ","kana_address":"ﾄﾁﾔ","pref":"秋田県","city":"大仙市","address":"戸地谷"},
{"zip_code":"0140044","kana_pref":"ｱｷﾀｹﾝ","kana_city":"ﾀﾞｲｾﾝｼ","kana_address":"ﾄﾏｷ","pref":"秋田県","city":"大仙市","address":"戸蒔"},
{"zip_code":"0140712","kana_pref":"ｱｷﾀｹﾝ","kana_city":"ﾀﾞｲｾﾝｼ","kana_address":"ﾄﾖｵｶ","pref":"秋田県","city":"大仙市","address":"豊岡"},
{"zip_code":"0140711","kana_pref":"ｱｷﾀｹﾝ","kana_city":"ﾀﾞｲｾﾝｼ","kana_address":"ﾄﾖｶﾜ","pref":"秋田県","city":"大仙市","address":"豊川"},
{"zip_code":"0140206","kana_pref":"ｱｷﾀｹﾝ","kana_city":"ﾀﾞｲｾﾝｼ","kana_address":"ﾅｶﾞﾄﾛ","pref":"秋田県","city":"大仙市","address":"長戸呂"},
{"zip_code":"0140207","kana_pref":"ｱｷﾀｹﾝ","kana_city":"ﾀﾞｲｾﾝｼ","kana_address":"ﾅｶﾞﾉ","pref":"秋田県","city":"大仙市","address":"長野"},
{"zip_code":"0140104","kana_pref":"ｱｷﾀｹﾝ","kana_city":"ﾀﾞｲｾﾝｼ","kana_address":"ﾆｲﾔｼﾞ","pref":"秋田県","city":"大仙市","address":"新谷地"},
{"zip_code":"0140804","kana_pref":"ｱｷﾀｹﾝ","kana_city":"ﾀﾞｲｾﾝｼ","kana_address":"ﾊｼﾓﾄ","pref":"秋田県","city":"大仙市","address":"橋本"},
{"zip_code":"0140001","kana_pref":"ｱｷﾀｹﾝ","kana_city":"ﾀﾞｲｾﾝｼ","kana_address":"ﾊﾅﾀﾞﾃ","pref":"秋田県","city":"大仙市","address":"花館"},
{"zip_code":"0140002","kana_pref":"ｱｷﾀｹﾝ","kana_city":"ﾀﾞｲｾﾝｼ","kana_address":"ﾊﾅﾀﾞﾃｶﾐﾁｮｳ","pref":"秋田県","city":"大仙市","address":"花館上町"},
{"zip_code":"0140006","kana_pref":"ｱｷﾀｹﾝ","kana_city":"ﾀﾞｲｾﾝｼ","kana_address":"ﾊﾅﾀﾞﾃﾅｶﾏﾁ","pref":"秋田県","city":"大仙市","address":"花館中町"},
{"zip_code":"0140005","kana_pref":"ｱｷﾀｹﾝ","kana_city":"ﾀﾞｲｾﾝｼ","kana_address":"ﾊﾅﾀﾞﾃﾔﾅｷﾞﾏﾁ","pref":"秋田県","city":"大仙市","address":"花館柳町"},
{"zip_code":"0140032","kana_pref":"ｱｷﾀｹﾝ","kana_city":"ﾀﾞｲｾﾝｼ","kana_address":"ﾋｶﾞｼｶﾜ","pref":"秋田県","city":"大仙市","address":"東川"},
{"zip_code":"0140071","kana_pref":"ｱｷﾀｹﾝ","kana_city":"ﾀﾞｲｾﾝｼ","kana_address":"ﾋﾙｶﾞﾜ","pref":"秋田県","city":"大仙市","address":"蛭川"},
{"zip_code":"0140114","kana_pref":"ｱｷﾀｹﾝ","kana_city":"ﾀﾞｲｾﾝｼ","kana_address":"ﾌｸﾀﾞ","pref":"秋田県","city":"大仙市","address":"福田"},
{"zip_code":"0140021","kana_pref":"ｱｷﾀｹﾝ","kana_city":"ﾀﾞｲｾﾝｼ","kana_address":"ﾌｸﾀﾞﾁｮｳ","pref":"秋田県","city":"大仙市","address":"福田町"},
{"zip_code":"0141412","kana_pref":"ｱｷﾀｹﾝ","kana_city":"ﾀﾞｲｾﾝｼ","kana_address":"ﾌｼﾞｷ","pref":"秋田県","city":"大仙市","address":"藤木"},
{"zip_code":"0140011","kana_pref":"ｱｷﾀｹﾝ","kana_city":"ﾀﾞｲｾﾝｼ","kana_address":"ﾌｼﾞﾐﾁｮｳ","pref":"秋田県","city":"大仙市","address":"富士見町"},
{"zip_code":"0140802","kana_pref":"ｱｷﾀｹﾝ","kana_city":"ﾀﾞｲｾﾝｼ","kana_address":"ﾎｯﾀ","pref":"秋田県","city":"大仙市","address":"払田"},
{"zip_code":"0140113","kana_pref":"ｱｷﾀｹﾝ","kana_city":"ﾀﾞｲｾﾝｼ","kana_address":"ﾎﾘﾐﾅｲ","pref":"秋田県","city":"大仙市","address":"堀見内"},
{"zip_code":"0140101","kana_pref":"ｱｷﾀｹﾝ","kana_city":"ﾀﾞｲｾﾝｼ","kana_address":"ﾏﾂｸﾗ","pref":"秋田県","city":"大仙市","address":"松倉"},
{"zip_code":"0140003","kana_pref":"ｱｷﾀｹﾝ","kana_city":"ﾀﾞｲｾﾝｼ","kana_address":"ﾐﾊﾗﾁｮｳ","pref":"秋田県","city":"大仙市","address":"美原町"},
{"zip_code":"0140205","kana_pref":"ｱｷﾀｹﾝ","kana_city":"ﾀﾞｲｾﾝｼ","kana_address":"ﾔﾘﾐﾅｲ","pref":"秋田県","city":"大仙市","address":"鑓見内"},
{"zip_code":"0140111","kana_pref":"ｱｷﾀｹﾝ","kana_city":"ﾀﾞｲｾﾝｼ","kana_address":"ﾖｺﾎﾞﾘ","pref":"秋田県","city":"大仙市","address":"横堀"},
{"zip_code":"0140102","kana_pref":"ｱｷﾀｹﾝ","kana_city":"ﾀﾞｲｾﾝｼ","kana_address":"ﾖﾂﾔ","pref":"秋田県","city":"大仙市","address":"四ツ屋"},
{"zip_code":"0141411","kana_pref":"ｱｷﾀｹﾝ","kana_city":"ﾀﾞｲｾﾝｼ","kana_address":"ﾛｸｺﾞｳﾆｼﾈ","pref":"秋田県","city":"大仙市","address":"六郷西根"},
{"zip_code":"0140016","kana_pref":"ｱｷﾀｹﾝ","kana_city":"ﾀﾞｲｾﾝｼ","kana_address":"ﾜｶﾀｹﾁｮｳ","pref":"秋田県","city":"大仙市","address":"若竹町"},
{"zip_code":"0140033","kana_pref":"ｱｷﾀｹﾝ","kana_city":"ﾀﾞｲｾﾝｼ","kana_address":"ﾜｺﾞｳ","pref":"秋田県","city":"大仙市","address":"和合"},
{"zip_code":"0140300","kana_pref":"ｱｷﾀｹﾝ","kana_city":"ｾﾝﾎﾞｸｼ","kana_address":"","pref":"秋田県","city":"仙北市","address":""},
{"zip_code":"0140373","kana_pref":"ｱｷﾀｹﾝ","kana_city":"ｾﾝﾎﾞｸｼ","kana_address":"ｶｸﾉﾀﾞﾃﾏﾁｲﾜｾ","pref":"秋田県","city":"仙北市","address":"角館町岩瀬"},
{"zip_code":"0140375","kana_pref":"ｱｷﾀｹﾝ","kana_city":"ｾﾝﾎﾞｸｼ","kana_address":"ｶｸﾉﾀﾞﾃﾏﾁｲﾜｾｼﾀﾉ","pref":"秋田県","city":"仙北市","address":"角館町岩瀬下タ野"},
{"zip_code":"0140316","kana_pref":"ｱｷﾀｹﾝ","kana_city":"ｾﾝﾎﾞｸｼ","kana_address":"ｶｸﾉﾀﾞﾃﾏﾁｲﾜｾﾏﾁ","pref":"秋田県","city":"仙北市","address":"角館町岩瀬町"},
{"zip_code":"0140374","kana_pref":"ｱｷﾀｹﾝ","kana_city":"ｾﾝﾎﾞｸｼ","kana_address":"ｶｸﾉﾀﾞﾃﾏﾁｳﾜﾉ","pref":"秋田県","city":"仙北市","address":"角館町上野"},
{"zip_code":"0140336","kana_pref":"ｱｷﾀｹﾝ","kana_city":"ｾﾝﾎﾞｸｼ","kana_address":"ｶｸﾉﾀﾞﾃﾏﾁｳﾗﾏﾁ","pref":"秋田県","city":"仙北市","address":"角館町裏町"},
{"zip_code":"0140364","kana_pref":"ｱｷﾀｹﾝ","kana_city":"ｾﾝﾎﾞｸｼ","kana_address":"ｶｸﾉﾀﾞﾃﾏﾁｵｵﾅｶｼﾞﾏ","pref":"秋田県","city":"仙北市","address":"角館町大中嶋"},
{"zip_code":"0140371","kana_pref":"ｱｷﾀｹﾝ","kana_city":"ｾﾝﾎﾞｸｼ","kana_address":"ｶｸﾉﾀﾞﾃﾏﾁｵｵﾌﾛ","pref":"秋田県","city":"仙北市","address":"角館町大風呂"},
{"zip_code":"0140347","kana_pref":"ｱｷﾀｹﾝ","kana_city":"ｾﾝﾎﾞｸｼ","kana_address":"ｶｸﾉﾀﾞﾃﾏﾁｵｶﾞﾀ","pref":"秋田県","city":"仙北市","address":"角館町小勝田"},
{"zip_code":"0140332","kana_pref":"ｱｷﾀｹﾝ","kana_city":"ｾﾝﾎﾞｸｼ","kana_address":"ｶｸﾉﾀﾞﾃﾏﾁｵｶﾁﾏﾁ","pref":"秋田県","city":"仙北市","address":"角館町歩行町"},
{"zip_code":"0140334","kana_pref":"ｱｷﾀｹﾝ","kana_city":"ｾﾝﾎﾞｸｼ","kana_address":"ｶｸﾉﾀﾞﾃﾏﾁｵﾓﾃﾏﾁｶﾐﾁｮｳ","pref":"秋田県","city":"仙北市","address":"角館町表町上丁"},
{"zip_code":"0140331","kana_pref":"ｱｷﾀｹﾝ","kana_city":"ｾﾝﾎﾞｸｼ","kana_address":"ｶｸﾉﾀﾞﾃﾏﾁｵﾓﾃﾏﾁｼﾓﾁｮｳ","pref":"秋田県","city":"仙北市","address":"角館町表町下丁"},
{"zip_code":"0140367","kana_pref":"ｱｷﾀｹﾝ","kana_city":"ｾﾝﾎﾞｸｼ","kana_address":"ｶｸﾉﾀﾞﾃﾏﾁｶﾂﾗｸ","pref":"秋田県","city":"仙北市","address":"角館町勝楽"},
{"zip_code":"0140362","kana_pref":"ｱｷﾀｹﾝ","kana_city":"ｾﾝﾎﾞｸｼ","kana_address":"ｶｸﾉﾀﾞﾃﾏﾁｶﾅﾔﾏｼﾀ","pref":"秋田県","city":"仙北市","address":"角館町金山下"},
{"zip_code":"0140327","kana_pref":"ｱｷﾀｹﾝ","kana_city":"ｾﾝﾎﾞｸｼ","kana_address":"ｶｸﾉﾀﾞﾃﾏﾁｶﾐｼﾝﾏﾁ","pref":"秋田県","city":"仙北市","address":"角館町上新町"},
{"zip_code":"0140369","kana_pref":"ｱｷﾀｹﾝ","kana_city":"ｾﾝﾎﾞｸｼ","kana_address":"ｶｸﾉﾀﾞﾃﾏﾁｶﾐｽｶﾞｻﾞﾜ","pref":"秋田県","city":"仙北市","address":"角館町上菅沢"},
{"zip_code":"0140346","kana_pref":"ｱｷﾀｹﾝ","kana_city":"ｾﾝﾎﾞｸｼ","kana_address":"ｶｸﾉﾀﾞﾃﾏﾁｶﾜﾗ","pref":"秋田県","city":"仙北市","address":"角館町川原"},
{"zip_code":"0140333","kana_pref":"ｱｷﾀｹﾝ","kana_city":"ｾﾝﾎﾞｸｼ","kana_address":"ｶｸﾉﾀﾞﾃﾏﾁｶﾜﾗﾏﾁ","pref":"秋田県","city":"仙北市","address":"角館町川原町"},
{"zip_code":"0140358","kana_pref":"ｱｷﾀｹﾝ","kana_city":"ｾﾝﾎﾞｸｼ","kana_address":"ｶｸﾉﾀﾞﾃﾏﾁｶﾜﾗﾏﾁｳｼﾛ","pref":"秋田県","city":"仙北市","address":"角館町川原町後"},
{"zip_code":"0140359","kana_pref":"ｱｷﾀｹﾝ","kana_city":"ｾﾝﾎﾞｸｼ","kana_address":"ｶｸﾉﾀﾞﾃﾏﾁｷﾀﾉ","pref":"秋田県","city":"仙北市","address":"角館町北野"},
{"zip_code":"0140341","kana_pref":"ｱｷﾀｹﾝ","kana_city":"ｾﾝﾎﾞｸｼ","kana_address":"ｶｸﾉﾀﾞﾃﾏﾁｸﾓｼｶﾘ","pref":"秋田県","city":"仙北市","address":"角館町雲然"},
{"zip_code":"0140372","kana_pref":"ｱｷﾀｹﾝ","kana_city":"ｾﾝﾎﾞｸｼ","kana_address":"ｶｸﾉﾀﾞﾃﾏﾁｺﾀﾞﾃ","pref":"秋田県","city":"仙北市","address":"角館町小館"},
{"zip_code":"0140324","kana_pref":"ｱｷﾀｹﾝ","kana_city":"ｾﾝﾎﾞｸｼ","kana_address":"ｶｸﾉﾀﾞﾃﾏﾁｺﾋﾞﾄﾏﾁ","pref":"秋田県","city":"仙北市","address":"角館町小人町"},
{"zip_code":"0140363","kana_pref":"ｱｷﾀｹﾝ","kana_city":"ｾﾝﾎﾞｸｼ","kana_address":"ｶｸﾉﾀﾞﾃﾏﾁｼﾀｶﾞﾜﾗ","pref":"秋田県","city":"仙北市","address":"角館町下川原"},
{"zip_code":"0140313","kana_pref":"ｱｷﾀｹﾝ","kana_city":"ｾﾝﾎﾞｸｼ","kana_address":"ｶｸﾉﾀﾞﾃﾏﾁｼﾓｲﾜｾﾏﾁ","pref":"秋田県","city":"仙北市","address":"角館町下岩瀬町"},
{"zip_code":"0140315","kana_pref":"ｱｷﾀｹﾝ","kana_city":"ｾﾝﾎﾞｸｼ","kana_address":"ｶｸﾉﾀﾞﾃﾏﾁｼﾓｼﾝﾏﾁ","pref":"秋田県","city":"仙北市","address":"角館町下新町"},
{"zip_code":"0140366","kana_pref":"ｱｷﾀｹﾝ","kana_city":"ｾﾝﾎﾞｸｼ","kana_address":"ｶｸﾉﾀﾞﾃﾏﾁｼﾓｽｶﾞｻﾞﾜ","pref":"秋田県","city":"仙北市","address":"角館町下菅沢"},
{"zip_code":"0140317","kana_pref":"ｱｷﾀｹﾝ","kana_city":"ｾﾝﾎﾞｸｼ","kana_address":"ｶｸﾉﾀﾞﾃﾏﾁｼﾓﾅｶﾏﾁ","pref":"秋田県","city":"仙北市","address":"角館町下中町"},
{"zip_code":"0140343","kana_pref":"ｱｷﾀｹﾝ","kana_city":"ｾﾝﾎﾞｸｼ","kana_address":"ｶｸﾉﾀﾞﾃﾏﾁｼﾓﾉﾌﾞ","pref":"秋田県","city":"仙北市","address":"角館町下延"},
{"zip_code":"0140302","kana_pref":"ｱｷﾀｹﾝ","kana_city":"ｾﾝﾎﾞｸｼ","kana_address":"ｶｸﾉﾀﾞﾃﾏﾁｼﾗｲﾜ","pref":"秋田県","city":"仙北市","address":"角館町白岩"},
{"zip_code":"0140365","kana_pref":"ｱｷﾀｹﾝ","kana_city":"ｾﾝﾎﾞｸｼ","kana_address":"ｶｸﾉﾀﾞﾃﾏﾁｽｶﾞｻﾞﾜ","pref":"秋田県","city":"仙北市","address":"角館町菅沢"},
{"zip_code":"0140303","kana_pref":"ｱｷﾀｹﾝ","kana_city":"ｾﾝﾎﾞｸｼ","kana_address":"ｶｸﾉﾀﾞﾃﾏﾁｿﾉﾀﾞ","pref":"秋田県","city":"仙北市","address":"角館町薗田"},
{"zip_code":"0140328","kana_pref":"ｱｷﾀｹﾝ","kana_city":"ｾﾝﾎﾞｸｼ","kana_address":"ｶｸﾉﾀﾞﾃﾏﾁﾀｹﾜﾗﾏﾁ","pref":"秋田県","city":"仙北市","address":"角館町竹原町"},
{"zip_code":"0140311","kana_pref":"ｱｷﾀｹﾝ","kana_city":"ｾﾝﾎﾞｸｼ","kana_address":"ｶｸﾉﾀﾞﾃﾏﾁﾀﾏﾁｶﾐﾁｮｳ","pref":"秋田県","city":"仙北市","address":"角館町田町上丁"},
{"zip_code":"0140312","kana_pref":"ｱｷﾀｹﾝ","kana_city":"ｾﾝﾎﾞｸｼ","kana_address":"ｶｸﾉﾀﾞﾃﾏﾁﾀﾏﾁｼﾓﾁｮｳ","pref":"秋田県","city":"仙北市","address":"角館町田町下丁"},
{"zip_code":"0140352","kana_pref":"ｱｷﾀｹﾝ","kana_city":"ｾﾝﾎﾞｸｼ","kana_address":"ｶｸﾉﾀﾞﾃﾏﾁﾄﾉﾔﾏ","pref":"秋田県","city":"仙北市","address":"角館町外ノ山"},
{"zip_code":"0140355","kana_pref":"ｱｷﾀｹﾝ","kana_city":"ｾﾝﾎﾞｸｼ","kana_address":"ｶｸﾉﾀﾞﾃﾏﾁﾄﾉﾔﾏｶﾝﾕｳﾁ","pref":"秋田県","city":"仙北市","address":"角館町外ノ山官有地"},
{"zip_code":"0140361","kana_pref":"ｱｷﾀｹﾝ","kana_city":"ｾﾝﾎﾞｸｼ","kana_address":"ｶｸﾉﾀﾞﾃﾏﾁﾄﾘｷｻﾞﾜ","pref":"秋田県","city":"仙北市","address":"角館町鳥木沢"},
{"zip_code":"0140368","kana_pref":"ｱｷﾀｹﾝ","kana_city":"ｾﾝﾎﾞｸｼ","kana_address":"ｶｸﾉﾀﾞﾃﾏﾁﾅｶｽｶﾞｻﾞﾜ","pref":"秋田県","city":"仙北市","address":"角館町中菅沢"},
{"zip_code":"0140318","kana_pref":"ｱｷﾀｹﾝ","kana_city":"ｾﾝﾎﾞｸｼ","kana_address":"ｶｸﾉﾀﾞﾃﾏﾁﾅｶﾏﾁ","pref":"秋田県","city":"仙北市","address":"角館町中町"},
{"zip_code":"0140322","kana_pref":"ｱｷﾀｹﾝ","kana_city":"ｾﾝﾎﾞｸｼ","kana_address":"ｶｸﾉﾀﾞﾃﾏﾁﾅﾉｶﾏﾁ","pref":"秋田県","city":"仙北市","address":"角館町七日町"},
{"zip_code":"0140321","kana_pref":"ｱｷﾀｹﾝ","kana_city":"ｾﾝﾎﾞｸｼ","kana_address":"ｶｸﾉﾀﾞﾃﾏﾁﾆｼｶﾂﾗｸﾏﾁ","pref":"秋田県","city":"仙北市","address":"角館町西勝楽町"},
{"zip_code":"0140379","kana_pref":"ｱｷﾀｹﾝ","kana_city":"ｾﾝﾎﾞｸｼ","kana_address":"ｶｸﾉﾀﾞﾃﾏﾁﾆｼｷﾀﾉ","pref":"秋田県","city":"仙北市","address":"角館町西北野"},
{"zip_code":"0140376","kana_pref":"ｱｷﾀｹﾝ","kana_city":"ｾﾝﾎﾞｸｼ","kana_address":"ｶｸﾉﾀﾞﾃﾏﾁﾆｼｼﾀﾉ","pref":"秋田県","city":"仙北市","address":"角館町西下タ野"},
{"zip_code":"0140353","kana_pref":"ｱｷﾀｹﾝ","kana_city":"ｾﾝﾎﾞｸｼ","kana_address":"ｶｸﾉﾀﾞﾃﾏﾁﾆｼｽｶﾞｻﾞﾜ","pref":"秋田県","city":"仙北市","address":"角館町西菅沢"},
{"zip_code":"0140377","kana_pref":"ｱｷﾀｹﾝ","kana_city":"ｾﾝﾎﾞｸｼ","kana_address":"ｶｸﾉﾀﾞﾃﾏﾁﾆｼﾀ","pref":"秋田県","city":"仙北市","address":"角館町西田"},
{"zip_code":"0140344","kana_pref":"ｱｷﾀｹﾝ","kana_city":"ｾﾝﾎﾞｸｼ","kana_address":"ｶｸﾉﾀﾞﾃﾏﾁﾆｼﾅｶﾞﾉ","pref":"秋田県","city":"仙北市","address":"角館町西長野"},
{"zip_code":"0140378","kana_pref":"ｱｷﾀｹﾝ","kana_city":"ｾﾝﾎﾞｸｼ","kana_address":"ｶｸﾉﾀﾞﾃﾏﾁﾆｼﾉｶﾜﾗ","pref":"秋田県","city":"仙北市","address":"角館町西野川原"},
{"zip_code":"0140342","kana_pref":"ｱｷﾀｹﾝ","kana_city":"ｾﾝﾎﾞｸｼ","kana_address":"ｶｸﾉﾀﾞﾃﾏﾁﾊﾁﾜﾘ","pref":"秋田県","city":"仙北市","address":"角館町八割"},
{"zip_code":"0140356","kana_pref":"ｱｷﾀｹﾝ","kana_city":"ｾﾝﾎﾞｸｼ","kana_address":"ｶｸﾉﾀﾞﾃﾏﾁﾊﾅﾊﾞ","pref":"秋田県","city":"仙北市","address":"角館町花場"},
{"zip_code":"0140357","kana_pref":"ｱｷﾀｹﾝ","kana_city":"ｾﾝﾎﾞｸｼ","kana_address":"ｶｸﾉﾀﾞﾃﾏﾁﾊﾅﾊﾞｼﾀ","pref":"秋田県","city":"仙北市","address":"角館町花場下"},
{"zip_code":"0140325","kana_pref":"ｱｷﾀｹﾝ","kana_city":"ｾﾝﾎﾞｸｼ","kana_address":"ｶｸﾉﾀﾞﾃﾏﾁﾋｶﾞｼｶﾂﾗｸﾁｮｳ","pref":"秋田県","city":"仙北市","address":"角館町東勝楽丁"},
{"zip_code":"0140301","kana_pref":"ｱｷﾀｹﾝ","kana_city":"ｾﾝﾎﾞｸｼ","kana_address":"ｶｸﾉﾀﾞﾃﾏﾁﾋﾛｸﾅｲ","pref":"秋田県","city":"仙北市","address":"角館町広久内"},
{"zip_code":"0140337","kana_pref":"ｱｷﾀｹﾝ","kana_city":"ｾﾝﾎﾞｸｼ","kana_address":"ｶｸﾉﾀﾞﾃﾏﾁﾌﾙｼﾛ","pref":"秋田県","city":"仙北市","address":"角館町古城"},
{"zip_code":"0140351","kana_pref":"ｱｷﾀｹﾝ","kana_city":"ｾﾝﾎﾞｸｼ","kana_address":"ｶｸﾉﾀﾞﾃﾏﾁﾌﾙｼﾛﾔﾏ","pref":"秋田県","city":"仙北市","address":"角館町古城山"},
{"zip_code":"0140335","kana_pref":"ｱｷﾀｹﾝ","kana_city":"ｾﾝﾎﾞｸｼ","kana_address":"ｶｸﾉﾀﾞﾃﾏﾁﾎｿｺﾞｴﾏﾁ","pref":"秋田県","city":"仙北市","address":"角館町細越町"},
{"zip_code":"0140354","kana_pref":"ｱｷﾀｹﾝ","kana_city":"ｾﾝﾎﾞｸｼ","kana_address":"ｶｸﾉﾀﾞﾃﾏﾁﾐｽﾞﾉﾒｻﾜ","pref":"秋田県","city":"仙北市","address":"角館町水ノ目沢"},
{"zip_code":"0140326","kana_pref":"ｱｷﾀｹﾝ","kana_city":"ｾﾝﾎﾞｸｼ","kana_address":"ｶｸﾉﾀﾞﾃﾏﾁﾔﾏﾈﾏﾁ","pref":"秋田県","city":"仙北市","address":"角館町山根町"},
{"zip_code":"0140345","kana_pref":"ｱｷﾀｹﾝ","kana_city":"ｾﾝﾎﾞｸｼ","kana_address":"ｶｸﾉﾀﾞﾃﾏﾁﾔﾏﾔｶﾜｻｷ","pref":"秋田県","city":"仙北市","address":"角館町山谷川崎"},
{"zip_code":"0140323","kana_pref":"ｱｷﾀｹﾝ","kana_city":"ｾﾝﾎﾞｸｼ","kana_address":"ｶｸﾉﾀﾞﾃﾏﾁﾖｺﾏﾁ","pref":"秋田県","city":"仙北市","address":"角館町横町"},
{"zip_code":"0141112","kana_pref":"ｱｷﾀｹﾝ","kana_city":"ｾﾝﾎﾞｸｼ","kana_address":"ﾀｻﾞﾜｺｳﾒｻﾞﾜ","pref":"秋田県","city":"仙北市","address":"田沢湖梅沢"},
{"zip_code":"0141111","kana_pref":"ｱｷﾀｹﾝ","kana_city":"ｾﾝﾎﾞｸｼ","kana_address":"ﾀｻﾞﾜｺｵｶｻﾞｷ","pref":"秋田県","city":"仙北市","address":"田沢湖岡崎"},
{"zip_code":"0141201","kana_pref":"ｱｷﾀｹﾝ","kana_city":"ｾﾝﾎﾞｸｼ","kana_address":"ﾀｻﾞﾜｺｵﾎﾞﾅｲ","pref":"秋田県","city":"仙北市","address":"田沢湖生保内"},
{"zip_code":"0141116","kana_pref":"ｱｷﾀｹﾝ","kana_city":"ｾﾝﾎﾞｸｼ","kana_address":"ﾀｻﾞﾜｺｶｸﾉﾀﾞﾃﾋｶﾞｼﾏｴｺﾞｳ","pref":"秋田県","city":"仙北市","address":"田沢湖角館東前郷"},
{"zip_code":"0141203","kana_pref":"ｱｷﾀｹﾝ","kana_city":"ｾﾝﾎﾞｸｼ","kana_address":"ﾀｻﾞﾜｺｶﾀ","pref":"秋田県","city":"仙北市","address":"田沢湖潟"},
{"zip_code":"0141115","kana_pref":"ｱｷﾀｹﾝ","kana_city":"ｾﾝﾎﾞｸｼ","kana_address":"ﾀｻﾞﾜｺｺﾏﾂ","pref":"秋田県","city":"仙北市","address":"田沢湖小松"},
{"zip_code":"0141202","kana_pref":"ｱｷﾀｹﾝ","kana_city":"ｾﾝﾎﾞｸｼ","kana_address":"ﾀｻﾞﾜｺｻｼﾏｷ","pref":"秋田県","city":"仙北市","address":"田沢湖刺巻"},
{"zip_code":"0141114","kana_pref":"ｱｷﾀｹﾝ","kana_city":"ｾﾝﾎﾞｸｼ","kana_address":"ﾀｻﾞﾜｺｼﾞﾝﾀﾞｲ","pref":"秋田県","city":"仙北市","address":"田沢湖神代"},
{"zip_code":"0141113","kana_pref":"ｱｷﾀｹﾝ","kana_city":"ｾﾝﾎﾞｸｼ","kana_address":"ﾀｻﾞﾜｺｿﾂﾀﾞ","pref":"秋田県","city":"仙北市","address":"田沢湖卒田"},
{"zip_code":"0141204","kana_pref":"ｱｷﾀｹﾝ","kana_city":"ｾﾝﾎﾞｸｼ","kana_address":"ﾀｻﾞﾜｺﾀｻﾞﾜ","pref":"秋田県","city":"仙北市","address":"田沢湖田沢"},
{"zip_code":"0141205","kana_pref":"ｱｷﾀｹﾝ","kana_city":"ｾﾝﾎﾞｸｼ","kana_address":"ﾀｻﾞﾜｺﾀﾏｶﾞﾜ","pref":"秋田県","city":"仙北市","address":"田沢湖玉川"},
{"zip_code":"0140515","kana_pref":"ｱｷﾀｹﾝ","kana_city":"ｾﾝﾎﾞｸｼ","kana_address":"ﾆｼｷﾁｮｳｶﾄﾞﾔ","pref":"秋田県","city":"仙北市","address":"西木町門屋"},
{"zip_code":"0140512","kana_pref":"ｱｷﾀｹﾝ","kana_city":"ｾﾝﾎﾞｸｼ","kana_address":"ﾆｼｷﾁｮｳｶﾐｱﾗｲ","pref":"秋田県","city":"仙北市","address":"西木町上荒井"},
{"zip_code":"0140601","kana_pref":"ｱｷﾀｹﾝ","kana_city":"ｾﾝﾎﾞｸｼ","kana_address":"ﾆｼｷﾁｮｳｶﾐﾋﾉｷﾅｲ","pref":"秋田県","city":"仙北市","address":"西木町上桧木内"},
{"zip_code":"0140513","kana_pref":"ｱｷﾀｹﾝ","kana_city":"ｾﾝﾎﾞｸｼ","kana_address":"ﾆｼｷﾁｮｳｺﾌﾞﾁﾉ","pref":"秋田県","city":"仙北市","address":"西木町小渕野"},
{"zip_code":"0140516","kana_pref":"ｱｷﾀｹﾝ","kana_city":"ｾﾝﾎﾞｸｼ","kana_address":"ﾆｼｷﾁｮｳｺﾔﾏﾀﾞ","pref":"秋田県","city":"仙北市","address":"西木町小山田"},
{"zip_code":"0140511","kana_pref":"ｱｷﾀｹﾝ","kana_city":"ｾﾝﾎﾞｸｼ","kana_address":"ﾆｼｷﾁｮｳｻｲﾐｮｳｼﾞ","pref":"秋田県","city":"仙北市","address":"西木町西明寺"},
{"zip_code":"0140514","kana_pref":"ｱｷﾀｹﾝ","kana_city":"ｾﾝﾎﾞｸｼ","kana_address":"ﾆｼｷﾁｮｳﾆｼｱﾗｲ","pref":"秋田県","city":"仙北市","address":"西木町西荒井"},
{"zip_code":"0140602","kana_pref":"ｱｷﾀｹﾝ","kana_city":"ｾﾝﾎﾞｸｼ","kana_address":"ﾆｼｷﾁｮｳﾋﾉｷﾅｲ","pref":"秋田県","city":"仙北市","address":"西木町桧木内"}]}