{"zip_code":[
{"zip_code":"0150000","kana_pref":"ｱｷﾀｹﾝ","kana_city":"ﾕﾘﾎﾝｼﾞｮｳｼ","kana_address":"","pref":"秋田県","city":"由利本荘市","address":""},
{"zip_code":"0150023","kana_pref":"ｱｷﾀｹﾝ","kana_city":"ﾕﾘﾎﾝｼﾞｮｳｼ","kana_address":"ｱｶﾀ","pref":"秋田県","city":"由利本荘市","address":"赤田"},
{"zip_code":"0150836","kana_pref":"ｱｷﾀｹﾝ","kana_city":"ﾕﾘﾎﾝｼﾞｮｳｼ","kana_address":"ｱｶﾇﾏｼﾀ","pref":"秋田県","city":"由利本荘市","address":"赤沼下"},
{"zip_code":"0150079","kana_pref":"ｱｷﾀｹﾝ","kana_city":"ﾕﾘﾎﾝｼﾞｮｳｼ","kana_address":"ｱｶﾇﾏｼﾀﾐﾁ","pref":"秋田県","city":"由利本荘市","address":"赤沼下道"},
{"zip_code":"0150071","kana_pref":"ｱｷﾀｹﾝ","kana_city":"ﾕﾘﾎﾝｼﾞｮｳｼ","kana_address":"ｱｶﾇﾏﾏﾁ","pref":"秋田県","city":"由利本荘市","address":"赤沼町"},
{"zip_code":"0150034","kana_pref":"ｱｷﾀｹﾝ","kana_city":"ﾕﾘﾎﾝｼﾞｮｳｼ","kana_address":"ｱｼｶﾜ","pref":"秋田県","city":"由利本荘市","address":"芦川"},
{"zip_code":"0150805","kana_pref":"ｱｷﾀｹﾝ","kana_city":"ﾕﾘﾎﾝｼﾞｮｳｼ","kana_address":"ｱﾌﾞﾗｺｳｼﾞ","pref":"秋田県","city":"由利本荘市","address":"油小路"},
{"zip_code":"0150084","kana_pref":"ｱｷﾀｹﾝ","kana_city":"ﾕﾘﾎﾝｼﾞｮｳｼ","kana_address":"ｱﾕｾ","pref":"秋田県","city":"由利本荘市","address":"鮎瀬"},
{"zip_code":"0150065","kana_pref":"ｱｷﾀｹﾝ","kana_city":"ﾕﾘﾎﾝｼﾞｮｳｼ","kana_address":"ｱﾗﾏﾁ","pref":"秋田県","city":"由利本荘市","address":"荒町"},
{"zip_code":"0150892","kana_pref":"ｱｷﾀｹﾝ","kana_city":"ﾕﾘﾎﾝｼﾞｮｳｼ","kana_address":"ｱﾘﾔﾏ","pref":"秋田県","city":"由利本荘市","address":"蟻山"},
{"zip_code":"0150301","kana_pref":"ｱｷﾀｹﾝ","kana_city":"ﾕﾘﾎﾝｼﾞｮｳｼ","kana_address":"ｲｲｻﾞﾜ","pref":"秋田県","city":"由利本荘市","address":"飯沢"},
{"zip_code":"0150311","kana_pref":"ｱｷﾀｹﾝ","kana_city":"ﾕﾘﾎﾝｼﾞｮｳｼ","kana_address":"ｲｶﾂﾞﾁ","pref":"秋田県","city":"由利本荘市","address":"五十土"},
{"zip_code":"0150012","kana_pref":"ｱｷﾀｹﾝ","kana_city":"ﾕﾘﾎﾝｼﾞｮｳｼ","kana_address":"ｲｼﾜｷ","pref":"秋田県","city":"由利本荘市","address":"石脇"},
{"zip_code":"0150013","kana_pref":"ｱｷﾀｹﾝ","kana_city":"ﾕﾘﾎﾝｼﾞｮｳｼ","kana_address":"ｲｼﾜｷ","pref":"秋田県","city":"由利本荘市","address":"石脇"},
{"zip_code":"0150014","kana_pref":"ｱｷﾀｹﾝ","kana_city":"ﾕﾘﾎﾝｼﾞｮｳｼ","kana_address":"ｲｼﾜｷ","pref":"秋田県","city":"由利本荘市","address":"石脇"},
{"zip_code":"0150011","kana_pref":"ｱｷﾀｹﾝ","kana_city":"ﾕﾘﾎﾝｼﾞｮｳｼ","kana_address":"ｲｼﾜｷ","pref":"秋田県","city":"由利本荘市","address":"石脇"},
{"zip_code":"0150823","kana_pref":"ｱｷﾀｹﾝ","kana_city":"ﾕﾘﾎﾝｼﾞｮｳｼ","kana_address":"ｲｽﾞﾐﾏﾁ","pref":"秋田県","city":"由利本荘市","address":"和泉町"},
{"zip_code":"0150852","kana_pref":"ｱｷﾀｹﾝ","kana_city":"ﾕﾘﾎﾝｼﾞｮｳｼ","kana_address":"ｲﾁﾊﾞﾝｾﾞｷ","pref":"秋田県","city":"由利本荘市","address":"一番堰"},
{"zip_code":"0150876","kana_pref":"ｱｷﾀｹﾝ","kana_city":"ﾕﾘﾎﾝｼﾞｮｳｼ","kana_address":"ｲﾄﾞｼﾞﾘ","pref":"秋田県","city":"由利本荘市","address":"井戸尻"},
{"zip_code":"0150834","kana_pref":"ｱｷﾀｹﾝ","kana_city":"ﾕﾘﾎﾝｼﾞｮｳｼ","kana_address":"ｲﾜﾌﾞﾁｼﾀ","pref":"秋田県","city":"由利本荘市","address":"岩渕下"},
{"zip_code":"0150814","kana_pref":"ｱｷﾀｹﾝ","kana_city":"ﾕﾘﾎﾝｼﾞｮｳｼ","kana_address":"ｳｼﾛﾏﾁ","pref":"秋田県","city":"由利本荘市","address":"後町"},
{"zip_code":"0150022","kana_pref":"ｱｷﾀｹﾝ","kana_city":"ﾕﾘﾎﾝｼﾞｮｳｼ","kana_address":"ｳﾁｸﾛｾ","pref":"秋田県","city":"由利本荘市","address":"内黒瀬"},
{"zip_code":"0150024","kana_pref":"ｱｷﾀｹﾝ","kana_city":"ﾕﾘﾎﾝｼﾞｮｳｼ","kana_address":"ｳﾃﾂ","pref":"秋田県","city":"由利本荘市","address":"内越"},
{"zip_code":"0150042","kana_pref":"ｱｷﾀｹﾝ","kana_city":"ﾕﾘﾎﾝｼﾞｮｳｼ","kana_address":"ｳﾒﾀﾞ","pref":"秋田県","city":"由利本荘市","address":"埋田"},
{"zip_code":"0150072","kana_pref":"ｱｷﾀｹﾝ","kana_city":"ﾕﾘﾎﾝｼﾞｮｳｼ","kana_address":"ｳﾗｵｻﾞｷﾏﾁ","pref":"秋田県","city":"由利本荘市","address":"裏尾崎町"},
{"zip_code":"0150094","kana_pref":"ｱｷﾀｹﾝ","kana_city":"ﾕﾘﾎﾝｼﾞｮｳｼ","kana_address":"ｳﾜﾉ","pref":"秋田県","city":"由利本荘市","address":"上野"},
{"zip_code":"0150856","kana_pref":"ｱｷﾀｹﾝ","kana_city":"ﾕﾘﾎﾝｼﾞｮｳｼ","kana_address":"ｴﾝｼｮｳﾜｷ","pref":"秋田県","city":"由利本荘市","address":"円正脇"},
{"zip_code":"0150864","kana_pref":"ｱｷﾀｹﾝ","kana_city":"ﾕﾘﾎﾝｼﾞｮｳｼ","kana_address":"ｵｵｸﾜﾏﾁ","pref":"秋田県","city":"由利本荘市","address":"大鍬町"},
{"zip_code":"0150093","kana_pref":"ｱｷﾀｹﾝ","kana_city":"ﾕﾘﾎﾝｼﾞｮｳｼ","kana_address":"ｵｵｻﾜ","pref":"秋田県","city":"由利本荘市","address":"大沢"},
{"zip_code":"0150868","kana_pref":"ｱｷﾀｹﾝ","kana_city":"ﾕﾘﾎﾝｼﾞｮｳｼ","kana_address":"ｵｵﾂﾞﾂﾐｼﾀ","pref":"秋田県","city":"由利本荘市","address":"大堤下"},
{"zip_code":"0150062","kana_pref":"ｱｷﾀｹﾝ","kana_city":"ﾕﾘﾎﾝｼﾞｮｳｼ","kana_address":"ｵｵﾅｶﾉｻﾜ","pref":"秋田県","city":"由利本荘市","address":"大中ノ沢"},
{"zip_code":"0150816","kana_pref":"ｱｷﾀｹﾝ","kana_city":"ﾕﾘﾎﾝｼﾞｮｳｼ","kana_address":"ｵｵﾏﾁ","pref":"秋田県","city":"由利本荘市","address":"大町"},
{"zip_code":"0150312","kana_pref":"ｱｷﾀｹﾝ","kana_city":"ﾕﾘﾎﾝｼﾞｮｳｼ","kana_address":"ｵｵﾐﾅｸﾁ","pref":"秋田県","city":"由利本荘市","address":"大水口"},
{"zip_code":"0150091","kana_pref":"ｱｷﾀｹﾝ","kana_city":"ﾕﾘﾎﾝｼﾞｮｳｼ","kana_address":"ｵｵﾔﾅ","pref":"秋田県","city":"由利本荘市","address":"大簗"},
{"zip_code":"0150021","kana_pref":"ｱｷﾀｹﾝ","kana_city":"ﾕﾘﾎﾝｼﾞｮｳｼ","kana_address":"ｵｵﾗ","pref":"秋田県","city":"由利本荘市","address":"大浦"},
{"zip_code":"0150811","kana_pref":"ｱｷﾀｹﾝ","kana_city":"ﾕﾘﾎﾝｼﾞｮｳｼ","kana_address":"ｵｹﾔﾏﾁ","pref":"秋田県","city":"由利本荘市","address":"桶屋町"},
{"zip_code":"0150871","kana_pref":"ｱｷﾀｹﾝ","kana_city":"ﾕﾘﾎﾝｼﾞｮｳｼ","kana_address":"ｵｻﾞｷ","pref":"秋田県","city":"由利本荘市","address":"尾崎"},
{"zip_code":"0150802","kana_pref":"ｱｷﾀｹﾝ","kana_city":"ﾕﾘﾎﾝｼﾞｮｳｼ","kana_address":"ｵﾓﾃｵｻﾞｷﾏﾁ","pref":"秋田県","city":"由利本荘市","address":"表尾崎町"},
{"zip_code":"0150035","kana_pref":"ｱｷﾀｹﾝ","kana_city":"ﾕﾘﾎﾝｼﾞｮｳｼ","kana_address":"ｵﾔｶﾜ","pref":"秋田県","city":"由利本荘市","address":"親川"},
{"zip_code":"0150812","kana_pref":"ｱｷﾀｹﾝ","kana_city":"ﾕﾘﾎﾝｼﾞｮｳｼ","kana_address":"ｶｼﾞﾏﾁ","pref":"秋田県","city":"由利本荘市","address":"鍛治町"},
{"zip_code":"0150826","kana_pref":"ｱｷﾀｹﾝ","kana_city":"ﾕﾘﾎﾝｼﾞｮｳｼ","kana_address":"ｶﾀﾏﾁ","pref":"秋田県","city":"由利本荘市","address":"片町"},
{"zip_code":"0150321","kana_pref":"ｱｷﾀｹﾝ","kana_city":"ﾕﾘﾎﾝｼﾞｮｳｼ","kana_address":"ｶﾆｻﾞﾜ","pref":"秋田県","city":"由利本荘市","address":"蟹沢"},
{"zip_code":"0150066","kana_pref":"ｱｷﾀｹﾝ","kana_city":"ﾕﾘﾎﾝｼﾞｮｳｼ","kana_address":"ｶﾈﾔﾏ","pref":"秋田県","city":"由利本荘市","address":"金山"},
{"zip_code":"0150854","kana_pref":"ｱｷﾀｹﾝ","kana_city":"ﾕﾘﾎﾝｼﾞｮｳｼ","kana_address":"ｶﾐｵｵﾉ","pref":"秋田県","city":"由利本荘市","address":"上大野"},
{"zip_code":"0150806","kana_pref":"ｱｷﾀｹﾝ","kana_city":"ﾕﾘﾎﾝｼﾞｮｳｼ","kana_address":"ｶﾐﾖｺﾏﾁ","pref":"秋田県","city":"由利本荘市","address":"上横町"},
{"zip_code":"0150085","kana_pref":"ｱｷﾀｹﾝ","kana_city":"ﾕﾘﾎﾝｼﾞｮｳｼ","kana_address":"ｶﾗｽｶﾜ","pref":"秋田県","city":"由利本荘市","address":"烏川"},
{"zip_code":"0150051","kana_pref":"ｱｷﾀｹﾝ","kana_city":"ﾕﾘﾎﾝｼﾞｮｳｼ","kana_address":"ｶﾜｸﾞﾁ","pref":"秋田県","city":"由利本荘市","address":"川口"},
{"zip_code":"0150331","kana_pref":"ｱｷﾀｹﾝ","kana_city":"ﾕﾘﾎﾝｼﾞｮｳｼ","kana_address":"ｶﾜﾆｼ","pref":"秋田県","city":"由利本荘市","address":"川西"},
{"zip_code":"0150872","kana_pref":"ｱｷﾀｹﾝ","kana_city":"ﾕﾘﾎﾝｼﾞｮｳｼ","kana_address":"ｶﾜﾗﾔﾁ","pref":"秋田県","city":"由利本荘市","address":"瓦谷地"},
{"zip_code":"0150825","kana_pref":"ｱｷﾀｹﾝ","kana_city":"ﾕﾘﾎﾝｼﾞｮｳｼ","kana_address":"ｶﾝﾉﾝﾏﾁ","pref":"秋田県","city":"由利本荘市","address":"観音町"},
{"zip_code":"0150878","kana_pref":"ｱｷﾀｹﾝ","kana_city":"ﾕﾘﾎﾝｼﾞｮｳｼ","kana_address":"ｶﾝﾉﾝﾓﾘ","pref":"秋田県","city":"由利本荘市","address":"観音森"},
{"zip_code":"0150831","kana_pref":"ｱｷﾀｹﾝ","kana_city":"ﾕﾘﾎﾝｼﾞｮｳｼ","kana_address":"ｷﾀｳﾗｼﾞ","pref":"秋田県","city":"由利本荘市","address":"北裏地"},
{"zip_code":"0150069","kana_pref":"ｱｷﾀｹﾝ","kana_city":"ﾕﾘﾎﾝｼﾞｮｳｼ","kana_address":"ｷﾀﾉﾏﾀ","pref":"秋田県","city":"由利本荘市","address":"北ノ股"},
{"zip_code":"0150884","kana_pref":"ｱｷﾀｹﾝ","kana_city":"ﾕﾘﾎﾝｼﾞｮｳｼ","kana_address":"ｷﾂﾈﾓﾘ","pref":"秋田県","city":"由利本荘市","address":"狐森"},
{"zip_code":"0150874","kana_pref":"ｱｷﾀｹﾝ","kana_city":"ﾕﾘﾎﾝｼﾞｮｳｼ","kana_address":"ｷｭｳｼﾞﾝﾁｮｳ","pref":"秋田県","city":"由利本荘市","address":"給人町"},
{"zip_code":"0150881","kana_pref":"ｱｷﾀｹﾝ","kana_city":"ﾕﾘﾎﾝｼﾞｮｳｼ","kana_address":"ｷﾘﾄﾞｵｼ","pref":"秋田県","city":"由利本荘市","address":"切通"},
{"zip_code":"0150045","kana_pref":"ｱｷﾀｹﾝ","kana_city":"ﾕﾘﾎﾝｼﾞｮｳｼ","kana_address":"ｸｽﾞﾉﾘ","pref":"秋田県","city":"由利本荘市","address":"葛法"},
{"zip_code":"0150302","kana_pref":"ｱｷﾀｹﾝ","kana_city":"ﾕﾘﾎﾝｼﾞｮｳｼ","kana_address":"ｸﾎﾞﾀ","pref":"秋田県","city":"由利本荘市","address":"久保田"},
{"zip_code":"0150361","kana_pref":"ｱｷﾀｹﾝ","kana_city":"ﾕﾘﾎﾝｼﾞｮｳｼ","kana_address":"ｸﾛｻﾜ","pref":"秋田県","city":"由利本荘市","address":"黒沢"},
{"zip_code":"0150883","kana_pref":"ｱｷﾀｹﾝ","kana_city":"ﾕﾘﾎﾝｼﾞｮｳｼ","kana_address":"ｹﾞﾁｶﾞｻﾜ","pref":"秋田県","city":"由利本荘市","address":"下地ケ沢"},
{"zip_code":"0150313","kana_pref":"ｱｷﾀｹﾝ","kana_city":"ﾕﾘﾎﾝｼﾞｮｳｼ","kana_address":"ｺｽｶﾞﾉ","pref":"秋田県","city":"由利本荘市","address":"小菅野"},
{"zip_code":"0150862","kana_pref":"ｱｷﾀｹﾝ","kana_city":"ﾕﾘﾎﾝｼﾞｮｳｼ","kana_address":"ｺﾋﾞﾄﾏﾁ","pref":"秋田県","city":"由利本荘市","address":"小人町"},
{"zip_code":"0150891","kana_pref":"ｱｷﾀｹﾝ","kana_city":"ﾕﾘﾎﾝｼﾞｮｳｼ","kana_address":"ｺﾎﾞｳｶﾞｻﾜ","pref":"秋田県","city":"由利本荘市","address":"小防ケ沢"},
{"zip_code":"0150861","kana_pref":"ｱｷﾀｹﾝ","kana_city":"ﾕﾘﾎﾝｼﾞｮｳｼ","kana_address":"ｺﾞﾓﾝ","pref":"秋田県","city":"由利本荘市","address":"御門"},
{"zip_code":"0150887","kana_pref":"ｱｷﾀｹﾝ","kana_city":"ﾕﾘﾎﾝｼﾞｮｳｼ","kana_address":"ｺﾝﾉﾔﾁ","pref":"秋田県","city":"由利本荘市","address":"今野谷地"},
{"zip_code":"0150821","kana_pref":"ｱｷﾀｹﾝ","kana_city":"ﾕﾘﾎﾝｼﾞｮｳｼ","kana_address":"ｻｶﾅﾏﾁ","pref":"秋田県","city":"由利本荘市","address":"肴町"},
{"zip_code":"0150074","kana_pref":"ｱｷﾀｹﾝ","kana_city":"ﾕﾘﾎﾝｼﾞｮｳｼ","kana_address":"ｻｸﾗｺｳｼﾞ","pref":"秋田県","city":"由利本荘市","address":"桜小路"},
{"zip_code":"0150073","kana_pref":"ｱｷﾀｹﾝ","kana_city":"ﾕﾘﾎﾝｼﾞｮｳｼ","kana_address":"ｻｻﾐﾁ","pref":"秋田県","city":"由利本荘市","address":"笹道"},
{"zip_code":"0150889","kana_pref":"ｱｷﾀｹﾝ","kana_city":"ﾕﾘﾎﾝｼﾞｮｳｼ","kana_address":"ｻﾄｳﾊﾞﾀｹ","pref":"秋田県","city":"由利本荘市","address":"砂糖畑"},
{"zip_code":"0150067","kana_pref":"ｱｷﾀｹﾝ","kana_city":"ﾕﾘﾎﾝｼﾞｮｳｼ","kana_address":"ｻﾝｼﾞｮｳ","pref":"秋田県","city":"由利本荘市","address":"三条"},
{"zip_code":"0150841","kana_pref":"ｱｷﾀｹﾝ","kana_city":"ﾕﾘﾎﾝｼﾞｮｳｼ","kana_address":"ｼﾓｵｵﾉ","pref":"秋田県","city":"由利本荘市","address":"下大野"},
{"zip_code":"0150832","kana_pref":"ｱｷﾀｹﾝ","kana_city":"ﾕﾘﾎﾝｼﾞｮｳｼ","kana_address":"ｼﾓｶﾜﾊﾗﾅｶｼﾞﾏ","pref":"秋田県","city":"由利本荘市","address":"下川原中島"},
{"zip_code":"0150322","kana_pref":"ｱｷﾀｹﾝ","kana_city":"ﾕﾘﾎﾝｼﾞｮｳｼ","kana_address":"ｼﾝｶﾐｼﾞｮｳ","pref":"秋田県","city":"由利本荘市","address":"新上条"},
{"zip_code":"0150303","kana_pref":"ｱｷﾀｹﾝ","kana_city":"ﾕﾘﾎﾝｼﾞｮｳｼ","kana_address":"ｼﾞﾝｶﾞﾓﾘ","pref":"秋田県","city":"由利本荘市","address":"陳ケ森"},
{"zip_code":"0150888","kana_pref":"ｱｷﾀｹﾝ","kana_city":"ﾕﾘﾎﾝｼﾞｮｳｼ","kana_address":"ｼﾝｸﾐﾁｮｳ","pref":"秋田県","city":"由利本荘市","address":"新組町"},
{"zip_code":"0150033","kana_pref":"ｱｷﾀｹﾝ","kana_city":"ﾕﾘﾎﾝｼﾞｮｳｼ","kana_address":"ｼﾝﾉｻﾜ","pref":"秋田県","city":"由利本荘市","address":"神沢"},
{"zip_code":"0150869","kana_pref":"ｱｷﾀｹﾝ","kana_city":"ﾕﾘﾎﾝｼﾞｮｳｼ","kana_address":"ｼﾞﾝﾊﾞﾀﾞｲ","pref":"秋田県","city":"由利本荘市","address":"陣場岱"},
{"zip_code":"0150833","kana_pref":"ｱｷﾀｹﾝ","kana_city":"ﾕﾘﾎﾝｼﾞｮｳｼ","kana_address":"ｽｸﾞﾐ","pref":"秋田県","city":"由利本荘市","address":"巣組"},
{"zip_code":"0150875","kana_pref":"ｱｷﾀｹﾝ","kana_city":"ﾕﾘﾎﾝｼﾞｮｳｼ","kana_address":"ｽﾅｺﾞｼﾀ","pref":"秋田県","city":"由利本荘市","address":"砂子下"},
{"zip_code":"0150351","kana_pref":"ｱｷﾀｹﾝ","kana_city":"ﾕﾘﾎﾝｼﾞｮｳｼ","kana_address":"ｾｷｸﾞﾁ","pref":"秋田県","city":"由利本荘市","address":"堰口"},
{"zip_code":"0150840","kana_pref":"ｱｷﾀｹﾝ","kana_city":"ﾕﾘﾎﾝｼﾞｮｳｼ","kana_address":"ｾｺﾞｼﾊﾞ","pref":"秋田県","city":"由利本荘市","address":"瀬越場"},
{"zip_code":"0150867","kana_pref":"ｱｷﾀｹﾝ","kana_city":"ﾕﾘﾎﾝｼﾞｮｳｼ","kana_address":"ｾﾝｶﾞﾘ","pref":"秋田県","city":"由利本荘市","address":"千刈"},
{"zip_code":"0150081","kana_pref":"ｱｷﾀｹﾝ","kana_city":"ﾕﾘﾎﾝｼﾞｮｳｼ","kana_address":"ｿﾘﾏﾁ","pref":"秋田県","city":"由利本荘市","address":"雪車町"},
{"zip_code":"0150083","kana_pref":"ｱｷﾀｹﾝ","kana_city":"ﾕﾘﾎﾝｼﾞｮｳｼ","kana_address":"ﾀｷﾉｻﾜ","pref":"秋田県","city":"由利本荘市","address":"滝ノ沢"},
{"zip_code":"0150086","kana_pref":"ｱｷﾀｹﾝ","kana_city":"ﾕﾘﾎﾝｼﾞｮｳｼ","kana_address":"ﾀﾃ","pref":"秋田県","city":"由利本荘市","address":"舘"},
{"zip_code":"0150063","kana_pref":"ｱｷﾀｹﾝ","kana_city":"ﾕﾘﾎﾝｼﾞｮｳｼ","kana_address":"ﾀﾃﾏｴ","pref":"秋田県","city":"由利本荘市","address":"舘前"},
{"zip_code":"0150804","kana_pref":"ｱｷﾀｹﾝ","kana_city":"ﾕﾘﾎﾝｼﾞｮｳｼ","kana_address":"ﾀﾆﾔﾏｺｳｼﾞ","pref":"秋田県","city":"由利本荘市","address":"谷山小路"},
{"zip_code":"0150822","kana_pref":"ｱｷﾀｹﾝ","kana_city":"ﾕﾘﾎﾝｼﾞｮｳｼ","kana_address":"ﾀﾏﾁ","pref":"秋田県","city":"由利本荘市","address":"田町"},
{"zip_code":"0150044","kana_pref":"ｱｷﾀｹﾝ","kana_city":"ﾕﾘﾎﾝｼﾞｮｳｼ","kana_address":"ﾀﾏﾉｲｹ","pref":"秋田県","city":"由利本荘市","address":"玉ノ池"},
{"zip_code":"0150504","kana_pref":"ｱｷﾀｹﾝ","kana_city":"ﾕﾘﾎﾝｼﾞｮｳｼ","kana_address":"ﾁｮｳｶｲﾏﾁｶﾐｶﾜｳﾁ","pref":"秋田県","city":"由利本荘市","address":"鳥海町上川内"},
{"zip_code":"0150721","kana_pref":"ｱｷﾀｹﾝ","kana_city":"ﾕﾘﾎﾝｼﾞｮｳｼ","kana_address":"ﾁｮｳｶｲﾏﾁｶﾐｼﾞﾈｺﾞ","pref":"秋田県","city":"由利本荘市","address":"鳥海町上笹子"},
{"zip_code":"0150515","kana_pref":"ｱｷﾀｹﾝ","kana_city":"ﾕﾘﾎﾝｼﾞｮｳｼ","kana_address":"ﾁｮｳｶｲﾏﾁｶﾐﾋﾀﾈ","pref":"秋田県","city":"由利本荘市","address":"鳥海町上直根"},
{"zip_code":"0150503","kana_pref":"ｱｷﾀｹﾝ","kana_city":"ﾕﾘﾎﾝｼﾞｮｳｼ","kana_address":"ﾁｮｳｶｲﾏﾁｸﾘｻﾜ","pref":"秋田県","city":"由利本荘市","address":"鳥海町栗沢"},
{"zip_code":"0150505","kana_pref":"ｱｷﾀｹﾝ","kana_city":"ﾕﾘﾎﾝｼﾞｮｳｼ","kana_address":"ﾁｮｳｶｲﾏﾁｺｶﾞﾜ","pref":"秋田県","city":"由利本荘市","address":"鳥海町小川"},
{"zip_code":"0150511","kana_pref":"ｱｷﾀｹﾝ","kana_city":"ﾕﾘﾎﾝｼﾞｮｳｼ","kana_address":"ﾁｮｳｶｲﾏﾁｻｲﾉｶﾐ","pref":"秋田県","city":"由利本荘市","address":"鳥海町戈之神"},
{"zip_code":"0150512","kana_pref":"ｱｷﾀｹﾝ","kana_city":"ﾕﾘﾎﾝｼﾞｮｳｼ","kana_address":"ﾁｮｳｶｲﾏﾁｻﾙｸﾗ","pref":"秋田県","city":"由利本荘市","address":"鳥海町猿倉"},
{"zip_code":"0150502","kana_pref":"ｱｷﾀｹﾝ","kana_city":"ﾕﾘﾎﾝｼﾞｮｳｼ","kana_address":"ﾁｮｳｶｲﾏﾁｼﾓｶﾜｳﾁ","pref":"秋田県","city":"由利本荘市","address":"鳥海町下川内"},
{"zip_code":"0150722","kana_pref":"ｱｷﾀｹﾝ","kana_city":"ﾕﾘﾎﾝｼﾞｮｳｼ","kana_address":"ﾁｮｳｶｲﾏﾁｼﾓｼﾞﾈｺﾞ","pref":"秋田県","city":"由利本荘市","address":"鳥海町下笹子"},
{"zip_code":"0150513","kana_pref":"ｱｷﾀｹﾝ","kana_city":"ﾕﾘﾎﾝｼﾞｮｳｼ","kana_address":"ﾁｮｳｶｲﾏﾁｼﾓﾋﾀﾈ","pref":"秋田県","city":"由利本荘市","address":"鳥海町下直根"},
{"zip_code":"0150514","kana_pref":"ｱｷﾀｹﾝ","kana_city":"ﾕﾘﾎﾝｼﾞｮｳｼ","kana_address":"ﾁｮｳｶｲﾏﾁﾅｶﾋﾀﾈ","pref":"秋田県","city":"由利本荘市","address":"鳥海町中直根"},
{"zip_code":"0150501","kana_pref":"ｱｷﾀｹﾝ","kana_city":"ﾕﾘﾎﾝｼﾞｮｳｼ","kana_address":"ﾁｮｳｶｲﾏﾁﾌｼﾐ","pref":"秋田県","city":"由利本荘市","address":"鳥海町伏見"},
{"zip_code":"0150516","kana_pref":"ｱｷﾀｹﾝ","kana_city":"ﾕﾘﾎﾝｼﾞｮｳｼ","kana_address":"ﾁｮｳｶｲﾏﾁﾓﾓﾔｹ","pref":"秋田県","city":"由利本荘市","address":"鳥海町百宅"},
{"zip_code":"0150886","kana_pref":"ｱｷﾀｹﾝ","kana_city":"ﾕﾘﾎﾝｼﾞｮｳｼ","kana_address":"ﾁｮｳﾚﾝﾊﾞ","pref":"秋田県","city":"由利本荘市","address":"調練場"},
{"zip_code":"0150323","kana_pref":"ｱｷﾀｹﾝ","kana_city":"ﾕﾘﾎﾝｼﾞｮｳｼ","kana_address":"ﾂﾁｸﾗ","pref":"秋田県","city":"由利本荘市","address":"土倉"},
{"zip_code":"0150054","kana_pref":"ｱｷﾀｹﾝ","kana_city":"ﾕﾘﾎﾝｼﾞｮｳｼ","kana_address":"ﾂﾁﾔ","pref":"秋田県","city":"由利本荘市","address":"土谷"},
{"zip_code":"0150055","kana_pref":"ｱｷﾀｹﾝ","kana_city":"ﾕﾘﾎﾝｼﾞｮｳｼ","kana_address":"ﾂﾁﾔ","pref":"秋田県","city":"由利本荘市","address":"土谷"},
{"zip_code":"0150866","kana_pref":"ｱｷﾀｹﾝ","kana_city":"ﾕﾘﾎﾝｼﾞｮｳｼ","kana_address":"ﾂﾂﾐﾜｷ","pref":"秋田県","city":"由利本荘市","address":"堤脇"},
{"zip_code":"0150873","kana_pref":"ｱｷﾀｹﾝ","kana_city":"ﾕﾘﾎﾝｼﾞｮｳｼ","kana_address":"ﾂﾙﾇﾏ","pref":"秋田県","city":"由利本荘市","address":"鶴沼"},
{"zip_code":"0150842","kana_pref":"ｱｷﾀｹﾝ","kana_city":"ﾕﾘﾎﾝｼﾞｮｳｼ","kana_address":"ﾃﾞﾄｳｴﾉ","pref":"秋田県","city":"由利本荘市","address":"出戸上野"},
{"zip_code":"0150837","kana_pref":"ｱｷﾀｹﾝ","kana_city":"ﾕﾘﾎﾝｼﾞｮｳｼ","kana_address":"ﾃﾞﾄﾏﾁ","pref":"秋田県","city":"由利本荘市","address":"出戸町"},
{"zip_code":"0150857","kana_pref":"ｱｷﾀｹﾝ","kana_city":"ﾕﾘﾎﾝｼﾞｮｳｼ","kana_address":"ﾃﾗｳｼﾛ","pref":"秋田県","city":"由利本荘市","address":"寺後"},
{"zip_code":"0150061","kana_pref":"ｱｷﾀｹﾝ","kana_city":"ﾕﾘﾎﾝｼﾞｮｳｼ","kana_address":"ﾄﾄﾞﾛｷ","pref":"秋田県","city":"由利本荘市","address":"二十六木"},
{"zip_code":"0150089","kana_pref":"ｱｷﾀｹﾝ","kana_city":"ﾕﾘﾎﾝｼﾞｮｳｼ","kana_address":"ﾄﾘﾀﾒ","pref":"秋田県","city":"由利本荘市","address":"鳥田目"},
{"zip_code":"0150803","kana_pref":"ｱｷﾀｹﾝ","kana_city":"ﾕﾘﾎﾝｼﾞｮｳｼ","kana_address":"ﾅｶﾀﾞﾃﾏﾁ","pref":"秋田県","city":"由利本荘市","address":"中竪町"},
{"zip_code":"0150851","kana_pref":"ｱｷﾀｹﾝ","kana_city":"ﾕﾘﾎﾝｼﾞｮｳｼ","kana_address":"ﾅｶﾎﾞﾝﾃﾝ","pref":"秋田県","city":"由利本荘市","address":"中梵天"},
{"zip_code":"0150817","kana_pref":"ｱｷﾀｹﾝ","kana_city":"ﾕﾘﾎﾝｼﾞｮｳｼ","kana_address":"ﾅｶﾏﾁ","pref":"秋田県","city":"由利本荘市","address":"中町"},
{"zip_code":"0150807","kana_pref":"ｱｷﾀｹﾝ","kana_city":"ﾕﾘﾎﾝｼﾞｮｳｼ","kana_address":"ﾅｶﾖｺﾏﾁ","pref":"秋田県","city":"由利本荘市","address":"中横町"},
{"zip_code":"0150865","kana_pref":"ｱｷﾀｹﾝ","kana_city":"ﾕﾘﾎﾝｼﾞｮｳｼ","kana_address":"ﾆｼｵｵｸﾜﾏﾁ","pref":"秋田県","city":"由利本荘市","address":"西大鍬町"},
{"zip_code":"0150882","kana_pref":"ｱｷﾀｹﾝ","kana_city":"ﾕﾘﾎﾝｼﾞｮｳｼ","kana_address":"ﾆｼｺﾋﾞﾄﾏﾁ","pref":"秋田県","city":"由利本荘市","address":"西小人町"},
{"zip_code":"0150352","kana_pref":"ｱｷﾀｹﾝ","kana_city":"ﾕﾘﾎﾝｼﾞｮｳｼ","kana_address":"ﾆｼｻﾜ","pref":"秋田県","city":"由利本荘市","address":"西沢"},
{"zip_code":"0150858","kana_pref":"ｱｷﾀｹﾝ","kana_city":"ﾕﾘﾎﾝｼﾞｮｳｼ","kana_address":"ﾆｼﾎﾞﾝﾃﾝ","pref":"秋田県","city":"由利本荘市","address":"西梵天"},
{"zip_code":"0150855","kana_pref":"ｱｷﾀｹﾝ","kana_city":"ﾕﾘﾎﾝｼﾞｮｳｼ","kana_address":"ﾆﾊﾞﾝｾﾞｷ","pref":"秋田県","city":"由利本荘市","address":"二番堰"},
{"zip_code":"0150877","kana_pref":"ｱｷﾀｹﾝ","kana_city":"ﾕﾘﾎﾝｼﾞｮｳｼ","kana_address":"ﾇﾚﾊﾏｷﾀ","pref":"秋田県","city":"由利本荘市","address":"濡浜北"},
{"zip_code":"0150052","kana_pref":"ｱｷﾀｹﾝ","kana_city":"ﾕﾘﾎﾝｼﾞｮｳｼ","kana_address":"ﾊﾀﾔ","pref":"秋田県","city":"由利本荘市","address":"畑谷"},
{"zip_code":"0150835","kana_pref":"ｱｷﾀｹﾝ","kana_city":"ﾕﾘﾎﾝｼﾞｮｳｼ","kana_address":"ﾊﾁﾏﾝｼﾀ","pref":"秋田県","city":"由利本荘市","address":"八幡下"},
{"zip_code":"0150075","kana_pref":"ｱｷﾀｹﾝ","kana_city":"ﾕﾘﾎﾝｼﾞｮｳｼ","kana_address":"ﾊﾅﾊﾞﾀﾏﾁ","pref":"秋田県","city":"由利本荘市","address":"花畑町"},
{"zip_code":"0150031","kana_pref":"ｱｷﾀｹﾝ","kana_city":"ﾕﾘﾎﾝｼﾞｮｳｼ","kana_address":"ﾊﾏｻﾝｶﾜ","pref":"秋田県","city":"由利本荘市","address":"浜三川"},
{"zip_code":"0150827","kana_pref":"ｱｷﾀｹﾝ","kana_city":"ﾕﾘﾎﾝｼﾞｮｳｼ","kana_address":"ﾊﾏﾉﾏﾁ","pref":"秋田県","city":"由利本荘市","address":"浜ノ町"},
{"zip_code":"0150362","kana_pref":"ｱｷﾀｹﾝ","kana_city":"ﾕﾘﾎﾝｼﾞｮｳｼ","kana_address":"ﾋｶﾞｼｱﾕｶﾜ","pref":"秋田県","city":"由利本荘市","address":"東鮎川"},
{"zip_code":"0150314","kana_pref":"ｱｷﾀｹﾝ","kana_city":"ﾕﾘﾎﾝｼﾞｮｳｼ","kana_address":"ﾋｶﾞｼﾅｶｻﾞﾜ","pref":"秋田県","city":"由利本荘市","address":"東中沢"},
{"zip_code":"0150843","kana_pref":"ｱｷﾀｹﾝ","kana_city":"ﾕﾘﾎﾝｼﾞｮｳｼ","kana_address":"ﾋｶﾞｼﾎﾞﾝﾃﾝ","pref":"秋田県","city":"由利本荘市","address":"東梵天"},
{"zip_code":"0150076","kana_pref":"ｱｷﾀｹﾝ","kana_city":"ﾕﾘﾎﾝｼﾞｮｳｼ","kana_address":"ﾋｶﾞｼﾏﾁ","pref":"秋田県","city":"由利本荘市","address":"東町"},
{"zip_code":"0150211","kana_pref":"ｱｷﾀｹﾝ","kana_city":"ﾕﾘﾎﾝｼﾞｮｳｼ","kana_address":"ﾋｶﾞｼﾕﾘｵｲｶﾀ","pref":"秋田県","city":"由利本荘市","address":"東由利老方"},
{"zip_code":"0150202","kana_pref":"ｱｷﾀｹﾝ","kana_city":"ﾕﾘﾎﾝｼﾞｮｳｼ","kana_address":"ﾋｶﾞｼﾕﾘｸﾗ","pref":"秋田県","city":"由利本荘市","address":"東由利蔵"},
{"zip_code":"0150231","kana_pref":"ｱｷﾀｹﾝ","kana_city":"ﾕﾘﾎﾝｼﾞｮｳｼ","kana_address":"ﾋｶﾞｼﾕﾘｸﾛﾌﾞﾁ","pref":"秋田県","city":"由利本荘市","address":"東由利黒渕"},
{"zip_code":"0150241","kana_pref":"ｱｷﾀｹﾝ","kana_city":"ﾕﾘﾎﾝｼﾞｮｳｼ","kana_address":"ﾋｶﾞｼﾕﾘｼｭｸ","pref":"秋田県","city":"由利本荘市","address":"東由利宿"},
{"zip_code":"0150242","kana_pref":"ｱｷﾀｹﾝ","kana_city":"ﾕﾘﾎﾝｼﾞｮｳｼ","kana_address":"ﾋｶﾞｼﾕﾘｽｷﾞﾓﾘ","pref":"秋田県","city":"由利本荘市","address":"東由利杉森"},
{"zip_code":"0150232","kana_pref":"ｱｷﾀｹﾝ","kana_city":"ﾕﾘﾎﾝｼﾞｮｳｼ","kana_address":"ﾋｶﾞｼﾕﾘﾀｼﾛ","pref":"秋田県","city":"由利本荘市","address":"東由利田代"},
{"zip_code":"0150221","kana_pref":"ｱｷﾀｹﾝ","kana_city":"ﾕﾘﾎﾝｼﾞｮｳｼ","kana_address":"ﾋｶﾞｼﾕﾘﾀﾃｱｲ","pref":"秋田県","city":"由利本荘市","address":"東由利舘合"},
{"zip_code":"0150201","kana_pref":"ｱｷﾀｹﾝ","kana_city":"ﾕﾘﾎﾝｼﾞｮｳｼ","kana_address":"ﾋｶﾞｼﾕﾘﾎｳﾅｲ","pref":"秋田県","city":"由利本荘市","address":"東由利法内"},
{"zip_code":"0150813","kana_pref":"ｱｷﾀｹﾝ","kana_city":"ﾕﾘﾎﾝｼﾞｮｳｼ","kana_address":"ﾋｷｼﾞﾏﾁ","pref":"秋田県","city":"由利本荘市","address":"日役町"},
{"zip_code":"0150353","kana_pref":"ｱｷﾀｹﾝ","kana_city":"ﾕﾘﾎﾝｼﾞｮｳｼ","kana_address":"ﾋﾗｲｼ","pref":"秋田県","city":"由利本荘市","address":"平石"},
{"zip_code":"0150053","kana_pref":"ｱｷﾀｹﾝ","kana_city":"ﾕﾘﾎﾝｼﾞｮｳｼ","kana_address":"ﾌｸﾔﾏ","pref":"秋田県","city":"由利本荘市","address":"福山"},
{"zip_code":"0150047","kana_pref":"ｱｷﾀｹﾝ","kana_city":"ﾕﾘﾎﾝｼﾞｮｳｼ","kana_address":"ﾌｼﾞｻｷ","pref":"秋田県","city":"由利本荘市","address":"藤崎"},
{"zip_code":"0150046","kana_pref":"ｱｷﾀｹﾝ","kana_city":"ﾕﾘﾎﾝｼﾞｮｳｼ","kana_address":"ﾌﾅｵｶ","pref":"秋田県","city":"由利本荘市","address":"船岡"},
{"zip_code":"0150890","kana_pref":"ｱｷﾀｹﾝ","kana_city":"ﾕﾘﾎﾝｼﾞｮｳｼ","kana_address":"ﾌﾅｶﾞﾀﾞｲ","pref":"秋田県","city":"由利本荘市","address":"船ケ台"},
{"zip_code":"0150863","kana_pref":"ｱｷﾀｹﾝ","kana_city":"ﾕﾘﾎﾝｼﾞｮｳｼ","kana_address":"ﾌﾓﾄﾞﾘｻﾜ","pref":"秋田県","city":"由利本荘市","address":"不戻沢"},
{"zip_code":"0150839","kana_pref":"ｱｷﾀｹﾝ","kana_city":"ﾕﾘﾎﾝｼﾞｮｳｼ","kana_address":"ﾌﾙｶﾜﾊﾞﾀ","pref":"秋田県","city":"由利本荘市","address":"古川端"},
{"zip_code":"0150824","kana_pref":"ｱｷﾀｹﾝ","kana_city":"ﾕﾘﾎﾝｼﾞｮｳｼ","kana_address":"ﾌﾙﾕｷﾏﾁ","pref":"秋田県","city":"由利本荘市","address":"古雪町"},
{"zip_code":"0150077","kana_pref":"ｱｷﾀｹﾝ","kana_city":"ﾕﾘﾎﾝｼﾞｮｳｼ","kana_address":"ﾎﾝﾀﾅｶﾏﾁ","pref":"秋田県","city":"由利本荘市","address":"本田仲町"},
{"zip_code":"0150838","kana_pref":"ｱｷﾀｹﾝ","kana_city":"ﾕﾘﾎﾝｼﾞｮｳｼ","kana_address":"ﾎﾞﾝﾃﾝﾔﾁ","pref":"秋田県","city":"由利本荘市","address":"梵天谷地"},
{"zip_code":"0150341","kana_pref":"ｱｷﾀｹﾝ","kana_city":"ﾕﾘﾎﾝｼﾞｮｳｼ","kana_address":"ﾏｴｺﾞｳ","pref":"秋田県","city":"由利本荘市","address":"前郷"},
{"zip_code":"0150304","kana_pref":"ｱｷﾀｹﾝ","kana_city":"ﾕﾘﾎﾝｼﾞｮｳｼ","kana_address":"ﾏｶﾞﾘｻﾜ","pref":"秋田県","city":"由利本荘市","address":"曲沢"},
{"zip_code":"0150363","kana_pref":"ｱｷﾀｹﾝ","kana_city":"ﾕﾘﾎﾝｼﾞｮｳｼ","kana_address":"ﾏﾁﾑﾗ","pref":"秋田県","city":"由利本荘市","address":"町村"},
{"zip_code":"0150853","kana_pref":"ｱｷﾀｹﾝ","kana_city":"ﾕﾘﾎﾝｼﾞｮｳｼ","kana_address":"ﾏﾂｶｲﾄﾞｳ","pref":"秋田県","city":"由利本荘市","address":"松街道"},
{"zip_code":"0150032","kana_pref":"ｱｷﾀｹﾝ","kana_city":"ﾕﾘﾎﾝｼﾞｮｳｼ","kana_address":"ﾏﾂｶﾞｻｷ","pref":"秋田県","city":"由利本荘市","address":"松ケ崎"},
{"zip_code":"0150064","kana_pref":"ｱｷﾀｹﾝ","kana_city":"ﾕﾘﾎﾝｼﾞｮｳｼ","kana_address":"ﾏﾝｶﾞﾝｼﾞ","pref":"秋田県","city":"由利本荘市","address":"万願寺"},
{"zip_code":"0150801","kana_pref":"ｱｷﾀｹﾝ","kana_city":"ﾕﾘﾎﾝｼﾞｮｳｼ","kana_address":"ﾐｸﾗﾏﾁ","pref":"秋田県","city":"由利本荘市","address":"美倉町"},
{"zip_code":"0150885","kana_pref":"ｱｷﾀｹﾝ","kana_city":"ﾕﾘﾎﾝｼﾞｮｳｼ","kana_address":"ﾐｽﾞﾊﾞﾔｼ","pref":"秋田県","city":"由利本荘市","address":"水林"},
{"zip_code":"0150068","kana_pref":"ｱｷﾀｹﾝ","kana_city":"ﾕﾘﾎﾝｼﾞｮｳｼ","kana_address":"ﾐﾅﾐﾉﾏﾀ","pref":"秋田県","city":"由利本荘市","address":"南ノ股"},
{"zip_code":"0150364","kana_pref":"ｱｷﾀｹﾝ","kana_city":"ﾕﾘﾎﾝｼﾞｮｳｼ","kana_address":"ﾐﾅﾐﾌｸﾀﾞ","pref":"秋田県","city":"由利本荘市","address":"南福田"},
{"zip_code":"0150043","kana_pref":"ｱｷﾀｹﾝ","kana_city":"ﾕﾘﾎﾝｼﾞｮｳｼ","kana_address":"ﾐﾔｳﾁ","pref":"秋田県","city":"由利本荘市","address":"宮内"},
{"zip_code":"0150082","kana_pref":"ｱｷﾀｹﾝ","kana_city":"ﾕﾘﾎﾝｼﾞｮｳｼ","kana_address":"ﾐﾔｻﾞﾜ","pref":"秋田県","city":"由利本荘市","address":"宮沢"},
{"zip_code":"0150332","kana_pref":"ｱｷﾀｹﾝ","kana_city":"ﾕﾘﾎﾝｼﾞｮｳｼ","kana_address":"ﾓﾘｺ","pref":"秋田県","city":"由利本荘市","address":"森子"},
{"zip_code":"0150088","kana_pref":"ｱｷﾀｹﾝ","kana_city":"ﾕﾘﾎﾝｼﾞｮｳｼ","kana_address":"ﾔｷﾞｭｳ","pref":"秋田県","city":"由利本荘市","address":"柳生"},
{"zip_code":"0150041","kana_pref":"ｱｷﾀｹﾝ","kana_city":"ﾕﾘﾎﾝｼﾞｮｳｼ","kana_address":"ﾔｸｼﾄﾞｳ","pref":"秋田県","city":"由利本荘市","address":"薬師堂"},
{"zip_code":"0150418","kana_pref":"ｱｷﾀｹﾝ","kana_city":"ﾕﾘﾎﾝｼﾞｮｳｼ","kana_address":"ﾔｼﾏﾏﾁｱﾗｻﾜ","pref":"秋田県","city":"由利本荘市","address":"矢島町荒沢"},
{"zip_code":"0150412","kana_pref":"ｱｷﾀｹﾝ","kana_city":"ﾕﾘﾎﾝｼﾞｮｳｼ","kana_address":"ﾔｼﾏﾏﾁｶﾜﾍﾞ","pref":"秋田県","city":"由利本荘市","address":"矢島町川辺"},
{"zip_code":"0150413","kana_pref":"ｱｷﾀｹﾝ","kana_city":"ﾕﾘﾎﾝｼﾞｮｳｼ","kana_address":"ﾔｼﾏﾏﾁｷｻﾗ","pref":"秋田県","city":"由利本荘市","address":"矢島町木在"},
{"zip_code":"0150416","kana_pref":"ｱｷﾀｹﾝ","kana_city":"ﾕﾘﾎﾝｼﾞｮｳｼ","kana_address":"ﾔｼﾏﾏﾁｻｶﾉｼﾀ","pref":"秋田県","city":"由利本荘市","address":"矢島町坂之下"},
{"zip_code":"0150411","kana_pref":"ｱｷﾀｹﾝ","kana_city":"ﾕﾘﾎﾝｼﾞｮｳｼ","kana_address":"ﾔｼﾏﾏﾁｼﾞｮｳﾅｲ","pref":"秋田県","city":"由利本荘市","address":"矢島町城内"},
{"zip_code":"0150415","kana_pref":"ｱｷﾀｹﾝ","kana_city":"ﾕﾘﾎﾝｼﾞｮｳｼ","kana_address":"ﾔｼﾏﾏﾁｼﾝｼﾞｮｳ","pref":"秋田県","city":"由利本荘市","address":"矢島町新荘"},
{"zip_code":"0150414","kana_pref":"ｱｷﾀｹﾝ","kana_city":"ﾕﾘﾎﾝｼﾞｮｳｼ","kana_address":"ﾔｼﾏﾏﾁﾀﾃｲｼ","pref":"秋田県","city":"由利本荘市","address":"矢島町立石"},
{"zip_code":"0150403","kana_pref":"ｱｷﾀｹﾝ","kana_city":"ﾕﾘﾎﾝｼﾞｮｳｼ","kana_address":"ﾔｼﾏﾏﾁﾀﾃﾏﾁ","pref":"秋田県","city":"由利本荘市","address":"矢島町舘町"},
{"zip_code":"0150401","kana_pref":"ｱｷﾀｹﾝ","kana_city":"ﾕﾘﾎﾝｼﾞｮｳｼ","kana_address":"ﾔｼﾏﾏﾁﾀﾅｶﾏﾁ","pref":"秋田県","city":"由利本荘市","address":"矢島町田中町"},
{"zip_code":"0150404","kana_pref":"ｱｷﾀｹﾝ","kana_city":"ﾕﾘﾎﾝｼﾞｮｳｼ","kana_address":"ﾔｼﾏﾏﾁﾅﾉｶﾏﾁ","pref":"秋田県","city":"由利本荘市","address":"矢島町七日町"},
{"zip_code":"0150417","kana_pref":"ｱｷﾀｹﾝ","kana_city":"ﾕﾘﾎﾝｼﾞｮｳｼ","kana_address":"ﾔｼﾏﾏﾁﾓﾄﾏﾁ","pref":"秋田県","city":"由利本荘市","address":"矢島町元町"},
{"zip_code":"0150402","kana_pref":"ｱｷﾀｹﾝ","kana_city":"ﾕﾘﾎﾝｼﾞｮｳｼ","kana_address":"ﾔｼﾏﾏﾁﾔｼﾏﾏﾁ","pref":"秋田県","city":"由利本荘市","address":"矢島町矢島町"},
{"zip_code":"0150078","kana_pref":"ｱｷﾀｹﾝ","kana_city":"ﾕﾘﾎﾝｼﾞｮｳｼ","kana_address":"ﾔﾁﾏﾁ","pref":"秋田県","city":"由利本荘市","address":"谷地町"},
{"zip_code":"0150243","kana_pref":"ｱｷﾀｹﾝ","kana_city":"ﾕﾘﾎﾝｼﾞｮｳｼ","kana_address":"ﾔﾏｳﾁ","pref":"秋田県","city":"由利本荘市","address":"山内"},
{"zip_code":"0150092","kana_pref":"ｱｷﾀｹﾝ","kana_city":"ﾕﾘﾎﾝｼﾞｮｳｼ","kana_address":"ﾔﾏｳﾁ","pref":"秋田県","city":"由利本荘市","address":"山内"},
{"zip_code":"0150025","kana_pref":"ｱｷﾀｹﾝ","kana_city":"ﾕﾘﾎﾝｼﾞｮｳｼ","kana_address":"ﾔﾏﾀﾞ","pref":"秋田県","city":"由利本荘市","address":"山田"},
{"zip_code":"0150333","kana_pref":"ｱｷﾀｹﾝ","kana_city":"ﾕﾘﾎﾝｼﾞｮｳｼ","kana_address":"ﾔﾏﾓﾄ","pref":"秋田県","city":"由利本荘市","address":"山本"},
{"zip_code":"0150087","kana_pref":"ｱｷﾀｹﾝ","kana_city":"ﾕﾘﾎﾝｼﾞｮｳｼ","kana_address":"ﾕｻﾞﾜ","pref":"秋田県","city":"由利本荘市","address":"湯沢"},
{"zip_code":"0150324","kana_pref":"ｱｷﾀｹﾝ","kana_city":"ﾕﾘﾎﾝｼﾞｮｳｼ","kana_address":"ﾖｼｻﾞﾜ","pref":"秋田県","city":"由利本荘市","address":"吉沢"},
{"zip_code":"0150815","kana_pref":"ｱｷﾀｹﾝ","kana_city":"ﾕﾘﾎﾝｼﾞｮｳｼ","kana_address":"ﾘｮｳｼﾏﾁ","pref":"秋田県","city":"由利本荘市","address":"猟師町"}]}