{"zip_code":[
{"zip_code":"0160000","kana_pref":"ｱｷﾀｹﾝ","kana_city":"ﾉｼﾛｼ","kana_address":"","pref":"秋田県","city":"能代市","address":""},
{"zip_code":"0160865","kana_pref":"ｱｷﾀｹﾝ","kana_city":"ﾉｼﾛｼ","kana_address":"ｱｵﾊﾞﾏﾁ","pref":"秋田県","city":"能代市","address":"青葉町"},
{"zip_code":"0160835","kana_pref":"ｱｷﾀｹﾝ","kana_city":"ﾉｼﾛｼ","kana_address":"ｱｶﾇﾏ","pref":"秋田県","city":"能代市","address":"赤沼"},
{"zip_code":"0160115","kana_pref":"ｱｷﾀｹﾝ","kana_city":"ﾉｼﾛｼ","kana_address":"ｱｸﾄﾞ","pref":"秋田県","city":"能代市","address":"悪戸"},
{"zip_code":"0160179","kana_pref":"ｱｷﾀｹﾝ","kana_city":"ﾉｼﾛｼ","kana_address":"ｱｻﾅｲ","pref":"秋田県","city":"能代市","address":"浅内"},
{"zip_code":"0160804","kana_pref":"ｱｷﾀｹﾝ","kana_city":"ﾉｼﾛｼ","kana_address":"ｱﾗﾏﾁ","pref":"秋田県","city":"能代市","address":"万町"},
{"zip_code":"0160102","kana_pref":"ｱｷﾀｹﾝ","kana_city":"ﾉｼﾛｼ","kana_address":"ｲｯﾎﾟﾝｷﾞ","pref":"秋田県","city":"能代市","address":"一本木"},
{"zip_code":"0160017","kana_pref":"ｱｷﾀｹﾝ","kana_city":"ﾉｼﾛｼ","kana_address":"ｲﾜｵ","pref":"秋田県","city":"能代市","address":"磐"},
{"zip_code":"0160143","kana_pref":"ｱｷﾀｹﾝ","kana_city":"ﾉｼﾛｼ","kana_address":"ｳｴﾉﾔﾏ","pref":"秋田県","city":"能代市","address":"上ノ山"},
{"zip_code":"0160144","kana_pref":"ｱｷﾀｹﾝ","kana_city":"ﾉｼﾛｼ","kana_address":"ｳｴﾉﾔﾏﾀﾞｲ","pref":"秋田県","city":"能代市","address":"上ノ山台"},
{"zip_code":"0160863","kana_pref":"ｱｷﾀｹﾝ","kana_city":"ﾉｼﾛｼ","kana_address":"ｳｼﾛﾔﾁ","pref":"秋田県","city":"能代市","address":"後谷地"},
{"zip_code":"0160136","kana_pref":"ｱｷﾀｹﾝ","kana_city":"ﾉｼﾛｼ","kana_address":"ｳﾄﾘ","pref":"秋田県","city":"能代市","address":"鵜鳥"},
{"zip_code":"0160137","kana_pref":"ｱｷﾀｹﾝ","kana_city":"ﾉｼﾛｼ","kana_address":"ｳﾄﾞﾘｱｸﾄﾞ","pref":"秋田県","city":"能代市","address":"鵜鳥悪戸"},
{"zip_code":"0160138","kana_pref":"ｱｷﾀｹﾝ","kana_city":"ﾉｼﾛｼ","kana_address":"ｳﾄﾞﾘｶﾞﾜﾗ","pref":"秋田県","city":"能代市","address":"鵜鳥川原"},
{"zip_code":"0160141","kana_pref":"ｱｷﾀｹﾝ","kana_city":"ﾉｼﾛｼ","kana_address":"ｳﾉｻﾜ","pref":"秋田県","city":"能代市","address":"鵜ノ沢"},
{"zip_code":"0160135","kana_pref":"ｱｷﾀｹﾝ","kana_city":"ﾉｼﾛｼ","kana_address":"ｳﾊﾞﾌﾄｺﾛ","pref":"秋田県","city":"能代市","address":"姥懐"},
{"zip_code":"0160842","kana_pref":"ｱｷﾀｹﾝ","kana_city":"ﾉｼﾛｼ","kana_address":"ｵｲﾜｹﾏﾁ","pref":"秋田県","city":"能代市","address":"追分町"},
{"zip_code":"0160122","kana_pref":"ｱｷﾀｹﾝ","kana_city":"ﾉｼﾛｼ","kana_address":"ｵｳｷﾞﾀﾞ","pref":"秋田県","city":"能代市","address":"扇田"},
{"zip_code":"0160162","kana_pref":"ｱｷﾀｹﾝ","kana_city":"ﾉｼﾛｼ","kana_address":"ｵｵｳﾁﾀﾞ","pref":"秋田県","city":"能代市","address":"大内田"},
{"zip_code":"0160181","kana_pref":"ｱｷﾀｹﾝ","kana_city":"ﾉｼﾛｼ","kana_address":"ｵｵｾﾏﾏｼﾀ","pref":"秋田県","city":"能代市","address":"大瀬儘下"},
{"zip_code":"0160164","kana_pref":"ｱｷﾀｹﾝ","kana_city":"ﾉｼﾛｼ","kana_address":"ｵｵﾂｶ","pref":"秋田県","city":"能代市","address":"大塚"},
{"zip_code":"0160805","kana_pref":"ｱｷﾀｹﾝ","kana_city":"ﾉｼﾛｼ","kana_address":"ｵｵﾃﾏﾁ","pref":"秋田県","city":"能代市","address":"大手町"},
{"zip_code":"0160803","kana_pref":"ｱｷﾀｹﾝ","kana_city":"ﾉｼﾛｼ","kana_address":"ｵｵﾏﾁ","pref":"秋田県","city":"能代市","address":"大町"},
{"zip_code":"0160155","kana_pref":"ｱｷﾀｹﾝ","kana_city":"ﾉｼﾛｼ","kana_address":"ｵｵﾓﾘ","pref":"秋田県","city":"能代市","address":"大森"},
{"zip_code":"0160807","kana_pref":"ｱｷﾀｹﾝ","kana_city":"ﾉｼﾛｼ","kana_address":"ｵｵﾓﾘﾔﾏ","pref":"秋田県","city":"能代市","address":"大森山"},
{"zip_code":"0160014","kana_pref":"ｱｷﾀｹﾝ","kana_city":"ﾉｼﾛｼ","kana_address":"ｵﾁｱｲ","pref":"秋田県","city":"能代市","address":"落合"},
{"zip_code":"0160884","kana_pref":"ｱｷﾀｹﾝ","kana_city":"ﾉｼﾛｼ","kana_address":"ｵﾛｼﾏﾁ","pref":"秋田県","city":"能代市","address":"卸町"},
{"zip_code":"0160876","kana_pref":"ｱｷﾀｹﾝ","kana_city":"ﾉｼﾛｼ","kana_address":"ｶｲｴｲｻﾞｶ","pref":"秋田県","city":"能代市","address":"海詠坂"},
{"zip_code":"0160121","kana_pref":"ｱｷﾀｹﾝ","kana_city":"ﾉｼﾛｼ","kana_address":"ｶｲﾗｹﾞﾌﾁ","pref":"秋田県","city":"能代市","address":"鰄渕"},
{"zip_code":"0160166","kana_pref":"ｱｷﾀｹﾝ","kana_city":"ﾉｼﾛｼ","kana_address":"ｶｼｺﾄﾞｺﾛ","pref":"秋田県","city":"能代市","address":"柏子所"},
{"zip_code":"0160153","kana_pref":"ｱｷﾀｹﾝ","kana_city":"ﾉｼﾛｼ","kana_address":"ｶﾐｾｷ","pref":"秋田県","city":"能代市","address":"上関"},
{"zip_code":"0160172","kana_pref":"ｱｷﾀｹﾝ","kana_city":"ﾉｼﾛｼ","kana_address":"ｶﾐﾌﾙｶﾜｼｷ","pref":"秋田県","city":"能代市","address":"上古川布"},
{"zip_code":"0160154","kana_pref":"ｱｷﾀｹﾝ","kana_city":"ﾉｼﾛｼ","kana_address":"ｶﾐﾔﾁ","pref":"秋田県","city":"能代市","address":"上谷地"},
{"zip_code":"0160182","kana_pref":"ｱｷﾀｹﾝ","kana_city":"ﾉｼﾛｼ","kana_address":"ｶﾐﾔﾅｷﾞ","pref":"秋田県","city":"能代市","address":"上柳"},
{"zip_code":"0160878","kana_pref":"ｱｷﾀｹﾝ","kana_city":"ﾉｼﾛｼ","kana_address":"ｶﾞﾘｭｳｻﾞﾝ","pref":"秋田県","city":"能代市","address":"臥竜山"},
{"zip_code":"0160171","kana_pref":"ｱｷﾀｹﾝ","kana_city":"ﾉｼﾛｼ","kana_address":"ｶﾜﾄｶﾞﾜ","pref":"秋田県","city":"能代市","address":"河戸川"},
{"zip_code":"0160802","kana_pref":"ｱｷﾀｹﾝ","kana_city":"ﾉｼﾛｼ","kana_address":"ｶﾜﾊﾞﾀﾏﾁ","pref":"秋田県","city":"能代市","address":"川反町"},
{"zip_code":"0160817","kana_pref":"ｱｷﾀｹﾝ","kana_city":"ﾉｼﾛｼ","kana_address":"ｶﾝﾏﾁ","pref":"秋田県","city":"能代市","address":"上町"},
{"zip_code":"0160178","kana_pref":"ｱｷﾀｹﾝ","kana_city":"ﾉｼﾛｼ","kana_address":"ｸﾛｳｻﾞｴﾓﾝｻｻﾀﾞｲ","pref":"秋田県","city":"能代市","address":"九郎左衛門笹台"},
{"zip_code":"0160892","kana_pref":"ｱｷﾀｹﾝ","kana_city":"ﾉｼﾛｼ","kana_address":"ｹｲﾘﾝﾏﾁ","pref":"秋田県","city":"能代市","address":"景林町"},
{"zip_code":"0160834","kana_pref":"ｱｷﾀｹﾝ","kana_city":"ﾉｼﾛｼ","kana_address":"ｹﾞﾅｲｻﾞｷ","pref":"秋田県","city":"能代市","address":"下内崎"},
{"zip_code":"0160883","kana_pref":"ｱｷﾀｹﾝ","kana_city":"ﾉｼﾛｼ","kana_address":"ｺﾞｳﾝﾀﾞｲ","pref":"秋田県","city":"能代市","address":"五雲岱"},
{"zip_code":"0160815","kana_pref":"ｱｷﾀｹﾝ","kana_city":"ﾉｼﾛｼ","kana_address":"ｺﾞｼﾅﾝﾏﾁ","pref":"秋田県","city":"能代市","address":"御指南町"},
{"zip_code":"0160177","kana_pref":"ｱｷﾀｹﾝ","kana_city":"ﾉｼﾛｼ","kana_address":"ｺﾞﾝｹﾞﾝﾀﾞｲ","pref":"秋田県","city":"能代市","address":"権現台"},
{"zip_code":"0160861","kana_pref":"ｱｷﾀｹﾝ","kana_city":"ﾉｼﾛｼ","kana_address":"ｻｲｶﾅｶﾞﾈ","pref":"秋田県","city":"能代市","address":"彩霞長根"},
{"zip_code":"0160846","kana_pref":"ｱｷﾀｹﾝ","kana_city":"ﾉｼﾛｼ","kana_address":"ｻｶｴﾏﾁ","pref":"秋田県","city":"能代市","address":"栄町"},
{"zip_code":"0160011","kana_pref":"ｱｷﾀｹﾝ","kana_city":"ﾉｼﾛｼ","kana_address":"ｻｶｶﾞﾀ","pref":"秋田県","city":"能代市","address":"坂形"},
{"zip_code":"0160167","kana_pref":"ｱｷﾀｹﾝ","kana_city":"ﾉｼﾛｼ","kana_address":"ｼｵｶﾗﾀﾞ","pref":"秋田県","city":"能代市","address":"塩干田"},
{"zip_code":"0160167","kana_pref":"ｱｷﾀｹﾝ","kana_city":"ﾉｼﾛｼ","kana_address":"ｼｵｶﾗﾀﾞﾏｴ","pref":"秋田県","city":"能代市","address":"塩干田前"},
{"zip_code":"0160168","kana_pref":"ｱｷﾀｹﾝ","kana_city":"ﾉｼﾛｼ","kana_address":"ｼﾞｯｼｭｳｻﾞｷ","pref":"秋田県","city":"能代市","address":"十洲崎"},
{"zip_code":"0160872","kana_pref":"ｱｷﾀｹﾝ","kana_city":"ﾉｼﾛｼ","kana_address":"ｼﾄﾞｳﾓﾘ","pref":"秋田県","city":"能代市","address":"芝童森"},
{"zip_code":"0160113","kana_pref":"ｱｷﾀｹﾝ","kana_city":"ﾉｼﾛｼ","kana_address":"ｼﾓｱｸﾄﾞ","pref":"秋田県","city":"能代市","address":"下悪戸"},
{"zip_code":"0160185","kana_pref":"ｱｷﾀｹﾝ","kana_city":"ﾉｼﾛｼ","kana_address":"ｼﾓｾ","pref":"秋田県","city":"能代市","address":"下瀬"},
{"zip_code":"0160104","kana_pref":"ｱｷﾀｹﾝ","kana_city":"ﾉｼﾛｼ","kana_address":"ｼﾓｾｷ","pref":"秋田県","city":"能代市","address":"下関"},
{"zip_code":"0160186","kana_pref":"ｱｷﾀｹﾝ","kana_city":"ﾉｼﾛｼ","kana_address":"ｼﾓﾉ","pref":"秋田県","city":"能代市","address":"下野"},
{"zip_code":"0160173","kana_pref":"ｱｷﾀｹﾝ","kana_city":"ﾉｼﾛｼ","kana_address":"ｼﾓﾌﾙｶﾜｼｷ","pref":"秋田県","city":"能代市","address":"下古川布"},
{"zip_code":"0160187","kana_pref":"ｱｷﾀｹﾝ","kana_city":"ﾉｼﾛｼ","kana_address":"ｼﾓﾔﾅｷﾞ","pref":"秋田県","city":"能代市","address":"下柳"},
{"zip_code":"0160862","kana_pref":"ｱｷﾀｹﾝ","kana_city":"ﾉｼﾛｼ","kana_address":"ｼﾞｭｲｷﾅｶﾞﾈ","pref":"秋田県","city":"能代市","address":"寿域長根"},
{"zip_code":"0160897","kana_pref":"ｱｷﾀｹﾝ","kana_city":"ﾉｼﾛｼ","kana_address":"ｼｮｳﾅﾝﾏﾁ","pref":"秋田県","city":"能代市","address":"昭南町"},
{"zip_code":"0160871","kana_pref":"ｱｷﾀｹﾝ","kana_city":"ﾉｼﾛｼ","kana_address":"ｼｮｳﾍｲﾀﾞｲ","pref":"秋田県","city":"能代市","address":"昇平岱"},
{"zip_code":"0160174","kana_pref":"ｱｷﾀｹﾝ","kana_city":"ﾉｼﾛｼ","kana_address":"ｼﾝｻﾞﾝﾏｴ","pref":"秋田県","city":"能代市","address":"新山前"},
{"zip_code":"0160895","kana_pref":"ｱｷﾀｹﾝ","kana_city":"ﾉｼﾛｼ","kana_address":"ｽｴﾋﾛﾏﾁ","pref":"秋田県","city":"能代市","address":"末広町"},
{"zip_code":"0160015","kana_pref":"ｱｷﾀｹﾝ","kana_city":"ﾉｼﾛｼ","kana_address":"ｽﾀﾞ","pref":"秋田県","city":"能代市","address":"須田"},
{"zip_code":"0160881","kana_pref":"ｱｷﾀｹﾝ","kana_city":"ﾉｼﾛｼ","kana_address":"ｽﾅﾄﾞﾒﾔﾏ","pref":"秋田県","city":"能代市","address":"砂留山"},
{"zip_code":"0160824","kana_pref":"ｱｷﾀｹﾝ","kana_city":"ﾉｼﾛｼ","kana_address":"ｽﾐﾖｼﾏﾁ","pref":"秋田県","city":"能代市","address":"住吉町"},
{"zip_code":"0160806","kana_pref":"ｱｷﾀｹﾝ","kana_city":"ﾉｼﾛｼ","kana_address":"ｾｲｽｹﾏﾁ","pref":"秋田県","city":"能代市","address":"清助町"},
{"zip_code":"0160877","kana_pref":"ｱｷﾀｹﾝ","kana_city":"ﾉｼﾛｼ","kana_address":"ｾﾝﾕｳﾅｶﾞﾈ","pref":"秋田県","city":"能代市","address":"仙遊長根"},
{"zip_code":"0160163","kana_pref":"ｱｷﾀｹﾝ","kana_city":"ﾉｼﾛｼ","kana_address":"ｿﾃﾞﾏﾀ","pref":"秋田県","city":"能代市","address":"袖又"},
{"zip_code":"0160001","kana_pref":"ｱｷﾀｹﾝ","kana_city":"ﾉｼﾛｼ","kana_address":"ｿﾄｱﾗﾏｷ","pref":"秋田県","city":"能代市","address":"外荒巻"},
{"zip_code":"0160146","kana_pref":"ｱｷﾀｹﾝ","kana_city":"ﾉｼﾛｼ","kana_address":"ｿﾄﾂﾂﾐ","pref":"秋田県","city":"能代市","address":"外堤"},
{"zip_code":"0160184","kana_pref":"ｱｷﾀｹﾝ","kana_city":"ﾉｼﾛｼ","kana_address":"ﾀｶﾊﾅ","pref":"秋田県","city":"能代市","address":"高塙"},
{"zip_code":"0160016","kana_pref":"ｱｷﾀｹﾝ","kana_city":"ﾉｼﾛｼ","kana_address":"ﾀｺｳ","pref":"秋田県","city":"能代市","address":"竹生"},
{"zip_code":"0160857","kana_pref":"ｱｷﾀｹﾝ","kana_city":"ﾉｼﾛｼ","kana_address":"ﾀｺﾑｶｲ","pref":"秋田県","city":"能代市","address":"田子向"},
{"zip_code":"0160123","kana_pref":"ｱｷﾀｹﾝ","kana_city":"ﾉｼﾛｼ","kana_address":"ﾀﾄﾞｺﾅｲ","pref":"秋田県","city":"能代市","address":"田床内"},
{"zip_code":"0160149","kana_pref":"ｱｷﾀｹﾝ","kana_city":"ﾉｼﾛｼ","kana_address":"ﾀﾅｶﾔﾁ","pref":"秋田県","city":"能代市","address":"田中谷地"},
{"zip_code":"0160165","kana_pref":"ｱｷﾀｹﾝ","kana_city":"ﾉｼﾛｼ","kana_address":"ﾀﾔ","pref":"秋田県","city":"能代市","address":"田屋"},
{"zip_code":"0160843","kana_pref":"ｱｷﾀｹﾝ","kana_city":"ﾉｼﾛｼ","kana_address":"ﾁｭｳﾜ","pref":"秋田県","city":"能代市","address":"中和"},
{"zip_code":"0160131","kana_pref":"ｱｷﾀｹﾝ","kana_city":"ﾉｼﾛｼ","kana_address":"ﾂﾙｶﾞﾀ","pref":"秋田県","city":"能代市","address":"鶴形"},
{"zip_code":"0160853","kana_pref":"ｱｷﾀｹﾝ","kana_city":"ﾉｼﾛｼ","kana_address":"ﾃﾞﾄｳｼﾛ","pref":"秋田県","city":"能代市","address":"出戸後"},
{"zip_code":"0160852","kana_pref":"ｱｷﾀｹﾝ","kana_city":"ﾉｼﾛｼ","kana_address":"ﾃﾞﾄﾎﾝﾏﾁ","pref":"秋田県","city":"能代市","address":"出戸本町"},
{"zip_code":"0160188","kana_pref":"ｱｷﾀｹﾝ","kana_city":"ﾉｼﾛｼ","kana_address":"ﾃﾗﾑｶｲ","pref":"秋田県","city":"能代市","address":"寺向"},
{"zip_code":"0160845","kana_pref":"ｱｷﾀｹﾝ","kana_city":"ﾉｼﾛｼ","kana_address":"ﾄｵﾘﾏﾁ","pref":"秋田県","city":"能代市","address":"通町"},
{"zip_code":"0160176","kana_pref":"ｱｷﾀｹﾝ","kana_city":"ﾉｼﾛｼ","kana_address":"ﾄｶﾞﾜﾑｶｲ","pref":"秋田県","city":"能代市","address":"戸川向"},
{"zip_code":"0160134","kana_pref":"ｱｷﾀｹﾝ","kana_city":"ﾉｼﾛｼ","kana_address":"ﾄｸｻｻﾞﾜ","pref":"秋田県","city":"能代市","address":"戸草沢"},
{"zip_code":"0160816","kana_pref":"ｱｷﾀｹﾝ","kana_city":"ﾉｼﾛｼ","kana_address":"ﾄﾐﾏﾁ","pref":"秋田県","city":"能代市","address":"富町"},
{"zip_code":"0160147","kana_pref":"ｱｷﾀｹﾝ","kana_city":"ﾉｼﾛｼ","kana_address":"ﾄﾔﾊﾞ","pref":"秋田県","city":"能代市","address":"鳥矢場"},
{"zip_code":"0160864","kana_pref":"ｱｷﾀｹﾝ","kana_city":"ﾉｼﾛｼ","kana_address":"ﾄﾘｺﾞﾔ","pref":"秋田県","city":"能代市","address":"鳥小屋"},
{"zip_code":"0160114","kana_pref":"ｱｷﾀｹﾝ","kana_city":"ﾉｼﾛｼ","kana_address":"ﾅｶｱｸﾄﾞ","pref":"秋田県","city":"能代市","address":"中悪戸"},
{"zip_code":"0160814","kana_pref":"ｱｷﾀｹﾝ","kana_city":"ﾉｼﾛｼ","kana_address":"ﾅｶｶﾞﾜﾗ","pref":"秋田県","city":"能代市","address":"中川原"},
{"zip_code":"0160156","kana_pref":"ｱｷﾀｹﾝ","kana_city":"ﾉｼﾛｼ","kana_address":"ﾅｶｻﾞﾜ","pref":"秋田県","city":"能代市","address":"中沢"},
{"zip_code":"0160812","kana_pref":"ｱｷﾀｹﾝ","kana_city":"ﾉｼﾛｼ","kana_address":"ﾅｶｼﾞﾏ","pref":"秋田県","city":"能代市","address":"中嶋"},
{"zip_code":"0160112","kana_pref":"ｱｷﾀｹﾝ","kana_city":"ﾉｼﾛｼ","kana_address":"ﾅｶｼﾞﾏ","pref":"秋田県","city":"能代市","address":"中嶋"},
{"zip_code":"0160101","kana_pref":"ｱｷﾀｹﾝ","kana_city":"ﾉｼﾛｼ","kana_address":"ﾅｶｾｷ","pref":"秋田県","city":"能代市","address":"中関"},
{"zip_code":"0160183","kana_pref":"ｱｷﾀｹﾝ","kana_city":"ﾉｼﾛｼ","kana_address":"ﾅｶﾔﾅｷﾞ","pref":"秋田県","city":"能代市","address":"中柳"},
{"zip_code":"0160873","kana_pref":"ｱｷﾀｹﾝ","kana_city":"ﾉｼﾛｼ","kana_address":"ﾅｶﾞｻｷ","pref":"秋田県","city":"能代市","address":"長崎"},
{"zip_code":"0160875","kana_pref":"ｱｷﾀｹﾝ","kana_city":"ﾉｼﾛｼ","kana_address":"ﾅﾝﾖｳｻﾞｷ","pref":"秋田県","city":"能代市","address":"南陽崎"},
{"zip_code":"0160111","kana_pref":"ｱｷﾀｹﾝ","kana_city":"ﾉｼﾛｼ","kana_address":"ﾆｲﾀﾞｼﾛﾔﾏ","pref":"秋田県","city":"能代市","address":"仁井田白山"},
{"zip_code":"0160837","kana_pref":"ｱｷﾀｹﾝ","kana_city":"ﾉｼﾛｼ","kana_address":"ﾆｼｱｶﾇﾏ","pref":"秋田県","city":"能代市","address":"西赤沼"},
{"zip_code":"0160855","kana_pref":"ｱｷﾀｹﾝ","kana_city":"ﾉｼﾛｼ","kana_address":"ﾆｼｵｵｾ","pref":"秋田県","city":"能代市","address":"西大瀬"},
{"zip_code":"0160891","kana_pref":"ｱｷﾀｹﾝ","kana_city":"ﾉｼﾛｼ","kana_address":"ﾆｼﾄﾞｵﾘﾏﾁ","pref":"秋田県","city":"能代市","address":"西通町"},
{"zip_code":"0160003","kana_pref":"ｱｷﾀｹﾝ","kana_city":"ﾉｼﾛｼ","kana_address":"ﾆﾊﾀ","pref":"秋田県","city":"能代市","address":"荷八田"},
{"zip_code":"0160874","kana_pref":"ｱｷﾀｹﾝ","kana_city":"ﾉｼﾛｼ","kana_address":"ﾇﾏﾉｳｴ","pref":"秋田県","city":"能代市","address":"沼ノ上"},
{"zip_code":"0160813","kana_pref":"ｱｷﾀｹﾝ","kana_city":"ﾉｼﾛｼ","kana_address":"ﾉｼﾛﾏﾁ","pref":"秋田県","city":"能代市","address":"能代町"},
{"zip_code":"0160894","kana_pref":"ｱｷﾀｹﾝ","kana_city":"ﾉｼﾛｼ","kana_address":"ﾊｷﾞﾉﾀﾞｲ","pref":"秋田県","city":"能代市","address":"萩の台"},
{"zip_code":"0160116","kana_pref":"ｱｷﾀｹﾝ","kana_city":"ﾉｼﾛｼ","kana_address":"ﾊﾀｵﾘｿﾘﾉﾒ","pref":"秋田県","city":"能代市","address":"機織轌ノ目"},
{"zip_code":"0160821","kana_pref":"ｱｷﾀｹﾝ","kana_city":"ﾉｼﾛｼ","kana_address":"ﾊﾀﾏﾁ","pref":"秋田県","city":"能代市","address":"畠町"},
{"zip_code":"0160844","kana_pref":"ｱｷﾀｹﾝ","kana_city":"ﾉｼﾛｼ","kana_address":"ﾊﾅｿﾞﾉﾏﾁ","pref":"秋田県","city":"能代市","address":"花園町"},
{"zip_code":"0160801","kana_pref":"ｱｷﾀｹﾝ","kana_city":"ﾉｼﾛｼ","kana_address":"ﾊﾏﾄﾞｵﾘﾏﾁ","pref":"秋田県","city":"能代市","address":"浜通町"},
{"zip_code":"0160157","kana_pref":"ｱｷﾀｹﾝ","kana_city":"ﾉｼﾛｼ","kana_address":"ﾊﾗｶﾞｲﾉｻﾜ","pref":"秋田県","city":"能代市","address":"腹鞁ノ沢"},
{"zip_code":"0160142","kana_pref":"ｱｷﾀｹﾝ","kana_city":"ﾉｼﾛｼ","kana_address":"ﾊﾝﾄｻﾞﾜ","pref":"秋田県","city":"能代市","address":"半戸沢"},
{"zip_code":"0160896","kana_pref":"ｱｷﾀｹﾝ","kana_city":"ﾉｼﾛｼ","kana_address":"ﾊﾝﾆｬﾏﾁ","pref":"秋田県","city":"能代市","address":"盤若町"},
{"zip_code":"0160836","kana_pref":"ｱｷﾀｹﾝ","kana_city":"ﾉｼﾛｼ","kana_address":"ﾋｶﾞｼｱｶﾇﾏ","pref":"秋田県","city":"能代市","address":"東赤沼"},
{"zip_code":"0160839","kana_pref":"ｱｷﾀｹﾝ","kana_city":"ﾉｼﾛｼ","kana_address":"ﾋｶﾞｼｵｵｾ","pref":"秋田県","city":"能代市","address":"東大瀬"},
{"zip_code":"0160822","kana_pref":"ｱｷﾀｹﾝ","kana_city":"ﾉｼﾛｼ","kana_address":"ﾋｶﾞｼﾏﾁ","pref":"秋田県","city":"能代市","address":"東町"},
{"zip_code":"0160012","kana_pref":"ｱｷﾀｹﾝ","kana_city":"ﾉｼﾛｼ","kana_address":"ﾋﾊﾀ","pref":"秋田県","city":"能代市","address":"比八田"},
{"zip_code":"0160148","kana_pref":"ｱｷﾀｹﾝ","kana_city":"ﾉｼﾛｼ","kana_address":"ﾋﾔｼﾐｽﾞ","pref":"秋田県","city":"能代市","address":"冷清水"},
{"zip_code":"0160151","kana_pref":"ｱｷﾀｹﾝ","kana_city":"ﾉｼﾛｼ","kana_address":"ﾋﾔﾏ","pref":"秋田県","city":"能代市","address":"檜山"},
{"zip_code":"0160811","kana_pref":"ｱｷﾀｹﾝ","kana_city":"ﾉｼﾛｼ","kana_address":"ﾋﾖｼﾏﾁ","pref":"秋田県","city":"能代市","address":"日吉町"},
{"zip_code":"0160808","kana_pref":"ｱｷﾀｹﾝ","kana_city":"ﾉｼﾛｼ","kana_address":"ﾋﾖﾘﾔﾏｼﾀ","pref":"秋田県","city":"能代市","address":"日和山下"},
{"zip_code":"0160856","kana_pref":"ｱｷﾀｹﾝ","kana_city":"ﾉｼﾛｼ","kana_address":"ﾌｼﾞﾔﾏ","pref":"秋田県","city":"能代市","address":"藤山"},
{"zip_code":"0160004","kana_pref":"ｱｷﾀｹﾝ","kana_city":"ﾉｼﾛｼ","kana_address":"ﾌｯｺｼ","pref":"秋田県","city":"能代市","address":"吹越"},
{"zip_code":"0160175","kana_pref":"ｱｷﾀｹﾝ","kana_city":"ﾉｼﾛｼ","kana_address":"ﾌﾙﾔｼｷ","pref":"秋田県","city":"能代市","address":"古屋布"},
{"zip_code":"0160879","kana_pref":"ｱｷﾀｹﾝ","kana_city":"ﾉｼﾛｼ","kana_address":"ﾌﾛｳﾀﾞｲ","pref":"秋田県","city":"能代市","address":"不老岱"},
{"zip_code":"0160882","kana_pref":"ｱｷﾀｹﾝ","kana_city":"ﾉｼﾛｼ","kana_address":"ﾎｳｵｳﾀﾞｲ","pref":"秋田県","city":"能代市","address":"鳳凰岱"},
{"zip_code":"0160169","kana_pref":"ｱｷﾀｹﾝ","kana_city":"ﾉｼﾛｼ","kana_address":"ﾎﾞｳｶﾞｻｷ","pref":"秋田県","city":"能代市","address":"坊ケ崎"},
{"zip_code":"0160854","kana_pref":"ｱｷﾀｹﾝ","kana_city":"ﾉｼﾛｼ","kana_address":"ﾎｳｼｮｳﾀﾞｲ","pref":"秋田県","city":"能代市","address":"豊祥岱"},
{"zip_code":"0160002","kana_pref":"ｱｷﾀｹﾝ","kana_city":"ﾉｼﾛｼ","kana_address":"ﾎﾉｷｾ","pref":"秋田県","city":"能代市","address":"朴瀬"},
{"zip_code":"0160005","kana_pref":"ｱｷﾀｹﾝ","kana_city":"ﾉｼﾛｼ","kana_address":"ﾏｶﾍﾞﾁ","pref":"秋田県","city":"能代市","address":"真壁地"},
{"zip_code":"0160132","kana_pref":"ｱｷﾀｹﾝ","kana_city":"ﾉｼﾛｼ","kana_address":"ﾏﾁｳｼﾛ","pref":"秋田県","city":"能代市","address":"町後"},
{"zip_code":"0160161","kana_pref":"ｱｷﾀｹﾝ","kana_city":"ﾉｼﾛｼ","kana_address":"ﾏﾂﾅｶﾞｼｷ","pref":"秋田県","city":"能代市","address":"松長布"},
{"zip_code":"0160893","kana_pref":"ｱｷﾀｹﾝ","kana_city":"ﾉｼﾛｼ","kana_address":"ﾏﾂﾐﾏﾁ","pref":"秋田県","city":"能代市","address":"松美町"},
{"zip_code":"0160851","kana_pref":"ｱｷﾀｹﾝ","kana_city":"ﾉｼﾛｼ","kana_address":"ﾐﾄﾞﾘﾏﾁ","pref":"秋田県","city":"能代市","address":"緑町"},
{"zip_code":"0160832","kana_pref":"ｱｷﾀｹﾝ","kana_city":"ﾉｼﾛｼ","kana_address":"ﾐﾅﾐﾓﾄﾏﾁ","pref":"秋田県","city":"能代市","address":"南元町"},
{"zip_code":"0160103","kana_pref":"ｱｷﾀｹﾝ","kana_city":"ﾉｼﾛｼ","kana_address":"ﾐﾔﾉﾏｴ","pref":"秋田県","city":"能代市","address":"宮ノ前"},
{"zip_code":"0160133","kana_pref":"ｱｷﾀｹﾝ","kana_city":"ﾉｼﾛｼ","kana_address":"ﾑｶｲﾀｵﾓﾃ","pref":"秋田県","city":"能代市","address":"向田表"},
{"zip_code":"0160013","kana_pref":"ｱｷﾀｹﾝ","kana_city":"ﾉｼﾛｼ","kana_address":"ﾑｶｲﾉｼﾛ","pref":"秋田県","city":"能代市","address":"向能代"},
{"zip_code":"0160833","kana_pref":"ｱｷﾀｹﾝ","kana_city":"ﾉｼﾛｼ","kana_address":"ﾒｲｼﾞﾏﾁ","pref":"秋田県","city":"能代市","address":"明治町"},
{"zip_code":"0160152","kana_pref":"ｱｷﾀｹﾝ","kana_city":"ﾉｼﾛｼ","kana_address":"ﾓﾀｲ","pref":"秋田県","city":"能代市","address":"母体"},
{"zip_code":"0160831","kana_pref":"ｱｷﾀｹﾝ","kana_city":"ﾉｼﾛｼ","kana_address":"ﾓﾄﾏﾁ","pref":"秋田県","city":"能代市","address":"元町"},
{"zip_code":"0160139","kana_pref":"ｱｷﾀｹﾝ","kana_city":"ﾉｼﾛｼ","kana_address":"ﾔﾁｳｴ","pref":"秋田県","city":"能代市","address":"谷地上"},
{"zip_code":"0160825","kana_pref":"ｱｷﾀｹﾝ","kana_city":"ﾉｼﾛｼ","kana_address":"ﾔﾅｷﾞﾏﾁ","pref":"秋田県","city":"能代市","address":"柳町"},
{"zip_code":"0160841","kana_pref":"ｱｷﾀｹﾝ","kana_city":"ﾉｼﾛｼ","kana_address":"ﾖｳｻﾝ","pref":"秋田県","city":"能代市","address":"養蚕"},
{"zip_code":"0160838","kana_pref":"ｱｷﾀｹﾝ","kana_city":"ﾉｼﾛｼ","kana_address":"ﾖｳｻﾝﾜｷ","pref":"秋田県","city":"能代市","address":"養蚕脇"},
{"zip_code":"0160145","kana_pref":"ｱｷﾀｹﾝ","kana_city":"ﾉｼﾛｼ","kana_address":"ﾜｶﾀ","pref":"秋田県","city":"能代市","address":"若田"},
{"zip_code":"0160823","kana_pref":"ｱｷﾀｹﾝ","kana_city":"ﾉｼﾛｼ","kana_address":"ﾜｶﾏﾂﾁｮｳ","pref":"秋田県","city":"能代市","address":"若松町"}]}