{"zip_code":[
{"zip_code":"0170000","kana_pref":"ｱｷﾀｹﾝ","kana_city":"ｵｵﾀﾞﾃｼ","kana_address":"","pref":"秋田県","city":"大館市","address":""},
{"zip_code":"0170806","kana_pref":"ｱｷﾀｹﾝ","kana_city":"ｵｵﾀﾞﾃｼ","kana_address":"ｱｲｿﾞﾒｻﾜﾅｶﾀｲ","pref":"秋田県","city":"大館市","address":"相染沢中岱"},
{"zip_code":"0170831","kana_pref":"ｱｷﾀｹﾝ","kana_city":"ｵｵﾀﾞﾃｼ","kana_address":"ｱｵﾊﾞﾁｮｳ","pref":"秋田県","city":"大館市","address":"青葉町"},
{"zip_code":"0170854","kana_pref":"ｱｷﾀｹﾝ","kana_city":"ｵｵﾀﾞﾃｼ","kana_address":"ｱｶｲｼ","pref":"秋田県","city":"大館市","address":"赤石"},
{"zip_code":"0170816","kana_pref":"ｱｷﾀｹﾝ","kana_city":"ｵｵﾀﾞﾃｼ","kana_address":"ｱｶﾀﾞﾃ","pref":"秋田県","city":"大館市","address":"赤館"},
{"zip_code":"0170814","kana_pref":"ｱｷﾀｹﾝ","kana_city":"ｵｵﾀﾞﾃｼ","kana_address":"ｱｶﾀﾞﾃﾁｮｳ","pref":"秋田県","city":"大館市","address":"赤館町"},
{"zip_code":"0170011","kana_pref":"ｱｷﾀｹﾝ","kana_city":"ｵｵﾀﾞﾃｼ","kana_address":"ｱｷﾋﾄﾄﾞﾒ","pref":"秋田県","city":"大館市","address":"商人留"},
{"zip_code":"0170025","kana_pref":"ｱｷﾀｹﾝ","kana_city":"ｵｵﾀﾞﾃｼ","kana_address":"ｱｼﾀﾞｺ","pref":"秋田県","city":"大館市","address":"芦田子"},
{"zip_code":"0170023","kana_pref":"ｱｷﾀｹﾝ","kana_city":"ｵｵﾀﾞﾃｼ","kana_address":"ｱｽﾞﾏ","pref":"秋田県","city":"大館市","address":"東"},
{"zip_code":"0170043","kana_pref":"ｱｷﾀｹﾝ","kana_city":"ｵｵﾀﾞﾃｼ","kana_address":"ｱﾘｳﾗ","pref":"秋田県","city":"大館市","address":"有浦"},
{"zip_code":"0170836","kana_pref":"ｱｷﾀｹﾝ","kana_city":"ｵｵﾀﾞﾃｼ","kana_address":"ｲｹﾅｲ","pref":"秋田県","city":"大館市","address":"池内"},
{"zip_code":"0170834","kana_pref":"ｱｷﾀｹﾝ","kana_city":"ｵｵﾀﾞﾃｼ","kana_address":"ｲｹﾅｲﾐﾁｳｴ","pref":"秋田県","city":"大館市","address":"池内道上"},
{"zip_code":"0170832","kana_pref":"ｱｷﾀｹﾝ","kana_city":"ｵｵﾀﾞﾃｼ","kana_address":"ｲｹﾅｲﾐﾁｼﾀ","pref":"秋田県","city":"大館市","address":"池内道下"},
{"zip_code":"0170845","kana_pref":"ｱｷﾀｹﾝ","kana_city":"ｵｵﾀﾞﾃｼ","kana_address":"ｲｽﾞﾐﾁｮｳ","pref":"秋田県","city":"大館市","address":"泉町"},
{"zip_code":"0170053","kana_pref":"ｱｷﾀｹﾝ","kana_city":"ｵｵﾀﾞﾃｼ","kana_address":"ｲﾀｺｲｼｻﾞｶｲ","pref":"秋田県","city":"大館市","address":"板子石境"},
{"zip_code":"0170853","kana_pref":"ｱｷﾀｹﾝ","kana_city":"ｵｵﾀﾞﾃｼ","kana_address":"ｲﾀｻﾞﾜ","pref":"秋田県","city":"大館市","address":"板沢"},
{"zip_code":"0170825","kana_pref":"ｱｷﾀｹﾝ","kana_city":"ｵｵﾀﾞﾃｼ","kana_address":"ｲｯｼﾝｲﾝﾐﾅﾐ","pref":"秋田県","city":"大館市","address":"一心院南"},
{"zip_code":"0170801","kana_pref":"ｱｷﾀｹﾝ","kana_city":"ｵｵﾀﾞﾃｼ","kana_address":"ｲｯﾎﾟﾝｽｷﾞ","pref":"秋田県","city":"大館市","address":"一本杉"},
{"zip_code":"0170857","kana_pref":"ｱｷﾀｹﾝ","kana_city":"ｵｵﾀﾞﾃｼ","kana_address":"ｲﾃﾞｶﾞﾜ","pref":"秋田県","city":"大館市","address":"出川"},
{"zip_code":"0170894","kana_pref":"ｱｷﾀｹﾝ","kana_city":"ｵｵﾀﾞﾃｼ","kana_address":"ｳﾗﾏﾁ","pref":"秋田県","city":"大館市","address":"裏町"},
{"zip_code":"0170817","kana_pref":"ｱｷﾀｹﾝ","kana_city":"ｵｵﾀﾞﾃｼ","kana_address":"ｳﾜﾏﾁ","pref":"秋田県","city":"大館市","address":"上町"},
{"zip_code":"0170837","kana_pref":"ｱｷﾀｹﾝ","kana_city":"ｵｵﾀﾞﾃｼ","kana_address":"ｴﾂﾘ","pref":"秋田県","city":"大館市","address":"餌釣"},
{"zip_code":"0170805","kana_pref":"ｱｷﾀｹﾝ","kana_city":"ｵｵﾀﾞﾃｼ","kana_address":"ｵｳｷﾞﾀﾞﾐﾁｼﾀ","pref":"秋田県","city":"大館市","address":"扇田道下"},
{"zip_code":"0170024","kana_pref":"ｱｷﾀｹﾝ","kana_city":"ｵｵﾀﾞﾃｼ","kana_address":"ｵｵｼｹﾞﾅｲ","pref":"秋田県","city":"大館市","address":"大茂内"},
{"zip_code":"0170041","kana_pref":"ｱｷﾀｹﾝ","kana_city":"ｵｵﾀﾞﾃｼ","kana_address":"ｵｵﾀｵﾓﾃ","pref":"秋田県","city":"大館市","address":"大田面"},
{"zip_code":"0170896","kana_pref":"ｱｷﾀｹﾝ","kana_city":"ｵｵﾀﾞﾃｼ","kana_address":"ｵｵﾀﾞﾃ","pref":"秋田県","city":"大館市","address":"大館"},
{"zip_code":"0170851","kana_pref":"ｱｷﾀｹﾝ","kana_city":"ｵｵﾀﾞﾃｼ","kana_address":"ｵｵﾋﾞﾗｷ","pref":"秋田県","city":"大館市","address":"大披"},
{"zip_code":"0170841","kana_pref":"ｱｷﾀｹﾝ","kana_city":"ｵｵﾀﾞﾃｼ","kana_address":"ｵｵﾏﾁ","pref":"秋田県","city":"大館市","address":"大町"},
{"zip_code":"0170044","kana_pref":"ｱｷﾀｹﾝ","kana_city":"ｵｵﾀﾞﾃｼ","kana_address":"ｵﾅﾘﾁｮｳ","pref":"秋田県","city":"大館市","address":"御成町"},
{"zip_code":"0170004","kana_pref":"ｱｷﾀｹﾝ","kana_city":"ｵｵﾀﾞﾃｼ","kana_address":"ｶｽﾀﾞ","pref":"秋田県","city":"大館市","address":"粕田"},
{"zip_code":"0170892","kana_pref":"ｱｷﾀｹﾝ","kana_city":"ｵｵﾀﾞﾃｼ","kana_address":"ｶﾀﾏﾁ","pref":"秋田県","city":"大館市","address":"片町"},
{"zip_code":"0170871","kana_pref":"ｱｷﾀｹﾝ","kana_city":"ｵｵﾀﾞﾃｼ","kana_address":"ｶﾀﾔﾏ","pref":"秋田県","city":"大館市","address":"片山"},
{"zip_code":"0170872","kana_pref":"ｱｷﾀｹﾝ","kana_city":"ｵｵﾀﾞﾃｼ","kana_address":"ｶﾀﾔﾏﾁｮｳ","pref":"秋田県","city":"大館市","address":"片山町"},
{"zip_code":"0170812","kana_pref":"ｱｷﾀｹﾝ","kana_city":"ｵｵﾀﾞﾃｼ","kana_address":"ｶﾈｻﾞｶ","pref":"秋田県","city":"大館市","address":"金坂"},
{"zip_code":"0170813","kana_pref":"ｱｷﾀｹﾝ","kana_city":"ｵｵﾀﾞﾃｼ","kana_address":"ｶﾈｻﾞｶｳｼﾛ","pref":"秋田県","city":"大館市","address":"金坂後"},
{"zip_code":"0170031","kana_pref":"ｱｷﾀｹﾝ","kana_city":"ｵｵﾀﾞﾃｼ","kana_address":"ｶﾐﾀﾞｲﾉ","pref":"秋田県","city":"大館市","address":"上代野"},
{"zip_code":"0170804","kana_pref":"ｱｷﾀｹﾝ","kana_city":"ｵｵﾀﾞﾃｼ","kana_address":"ｶﾗｻﾜ","pref":"秋田県","city":"大館市","address":"柄沢"},
{"zip_code":"0170878","kana_pref":"ｱｷﾀｹﾝ","kana_city":"ｵｵﾀﾞﾃｼ","kana_address":"ｶﾜｸﾞﾁ","pref":"秋田県","city":"大館市","address":"川口"},
{"zip_code":"0170042","kana_pref":"ｱｷﾀｹﾝ","kana_city":"ｵｵﾀﾞﾃｼ","kana_address":"ｶﾝﾉﾝﾄﾞｳ","pref":"秋田県","city":"大館市","address":"観音堂"},
{"zip_code":"0170866","kana_pref":"ｱｷﾀｹﾝ","kana_city":"ｵｵﾀﾞﾃｼ","kana_address":"ｷﾀｼﾝﾒｲﾁｮｳ","pref":"秋田県","city":"大館市","address":"北神明町"},
{"zip_code":"0170893","kana_pref":"ｱｷﾀｹﾝ","kana_city":"ｵｵﾀﾞﾃｼ","kana_address":"ｹｲｼﾞｮｳ","pref":"秋田県","city":"大館市","address":"桂城"},
{"zip_code":"0170014","kana_pref":"ｱｷﾀｹﾝ","kana_city":"ｵｵﾀﾞﾃｼ","kana_address":"ｺｼｬｶﾅｲﾐﾁｳｴ","pref":"秋田県","city":"大館市","address":"小釈迦内道上"},
{"zip_code":"0170015","kana_pref":"ｱｷﾀｹﾝ","kana_city":"ｵｵﾀﾞﾃｼ","kana_address":"ｺｼｬｶﾅｲﾐﾁｼﾀ","pref":"秋田県","city":"大館市","address":"小釈迦内道下"},
{"zip_code":"0170861","kana_pref":"ｱｷﾀｹﾝ","kana_city":"ｵｵﾀﾞﾃｼ","kana_address":"ｺﾀﾃﾁｮｳ","pref":"秋田県","city":"大館市","address":"小館町"},
{"zip_code":"0170835","kana_pref":"ｱｷﾀｹﾝ","kana_city":"ｵｵﾀﾞﾃｼ","kana_address":"ｺﾀﾞﾃﾊﾅ","pref":"秋田県","city":"大館市","address":"小館花"},
{"zip_code":"0170852","kana_pref":"ｱｷﾀｹﾝ","kana_city":"ｵｵﾀﾞﾃｼ","kana_address":"ｺﾊｶﾏ","pref":"秋田県","city":"大館市","address":"小袴"},
{"zip_code":"0170847","kana_pref":"ｱｷﾀｹﾝ","kana_city":"ｵｵﾀﾞﾃｼ","kana_address":"ｻｲﾜｲﾁｮｳ","pref":"秋田県","city":"大館市","address":"幸町"},
{"zip_code":"0170821","kana_pref":"ｱｷﾀｹﾝ","kana_city":"ｵｵﾀﾞﾃｼ","kana_address":"ｻｸﾗﾁｮｳ","pref":"秋田県","city":"大館市","address":"桜町"},
{"zip_code":"0170822","kana_pref":"ｱｷﾀｹﾝ","kana_city":"ｵｵﾀﾞﾃｼ","kana_address":"ｻｸﾗﾁｮｳﾐﾅﾐ","pref":"秋田県","city":"大館市","address":"桜町南"},
{"zip_code":"0170897","kana_pref":"ｱｷﾀｹﾝ","kana_city":"ｵｵﾀﾞﾃｼ","kana_address":"ｻﾝﾉﾏﾙ","pref":"秋田県","city":"大館市","address":"三ノ丸"},
{"zip_code":"0170022","kana_pref":"ｱｷﾀｹﾝ","kana_city":"ｵｵﾀﾞﾃｼ","kana_address":"ｼｹﾞﾅｲ","pref":"秋田県","city":"大館市","address":"茂内"},
{"zip_code":"0170046","kana_pref":"ｱｷﾀｹﾝ","kana_city":"ｵｵﾀﾞﾃｼ","kana_address":"ｼﾐｽﾞ","pref":"秋田県","city":"大館市","address":"清水"},
{"zip_code":"0170037","kana_pref":"ｱｷﾀｹﾝ","kana_city":"ｵｵﾀﾞﾃｼ","kana_address":"ｼﾐｽﾞｾｷｱｲ","pref":"秋田県","city":"大館市","address":"清水堰合"},
{"zip_code":"0170034","kana_pref":"ｱｷﾀｹﾝ","kana_city":"ｵｵﾀﾞﾃｼ","kana_address":"ｼﾓﾀﾞｲﾉ","pref":"秋田県","city":"大館市","address":"下代野"},
{"zip_code":"0170033","kana_pref":"ｱｷﾀｹﾝ","kana_city":"ｵｵﾀﾞﾃｼ","kana_address":"ｼﾓﾂﾅ","pref":"秋田県","city":"大館市","address":"下綱"},
{"zip_code":"0170012","kana_pref":"ｱｷﾀｹﾝ","kana_city":"ｵｵﾀﾞﾃｼ","kana_address":"ｼｬｶﾅｲ","pref":"秋田県","city":"大館市","address":"釈迦内"},
{"zip_code":"0170865","kana_pref":"ｱｷﾀｹﾝ","kana_city":"ｵｵﾀﾞﾃｼ","kana_address":"ｼﾞｮｳｾｲﾁｮｳ","pref":"秋田県","city":"大館市","address":"城西町"},
{"zip_code":"0170002","kana_pref":"ｱｷﾀｹﾝ","kana_city":"ｵｵﾀﾞﾃｼ","kana_address":"ｼﾗｻﾜ","pref":"秋田県","city":"大館市","address":"白沢"},
{"zip_code":"0170844","kana_pref":"ｱｷﾀｹﾝ","kana_city":"ｵｵﾀﾞﾃｼ","kana_address":"ｼﾝﾏﾁ","pref":"秋田県","city":"大館市","address":"新町"},
{"zip_code":"0170887","kana_pref":"ｱｷﾀｹﾝ","kana_city":"ｵｵﾀﾞﾃｼ","kana_address":"ｽｲﾓﾝﾁｮｳ","pref":"秋田県","city":"大館市","address":"水門町"},
{"zip_code":"0170888","kana_pref":"ｱｷﾀｹﾝ","kana_city":"ｵｵﾀﾞﾃｼ","kana_address":"ｽｲﾓﾝﾏｴ","pref":"秋田県","city":"大館市","address":"水門前"},
{"zip_code":"0170875","kana_pref":"ｱｷﾀｹﾝ","kana_city":"ｵｵﾀﾞﾃｼ","kana_address":"ｽﾐﾖｼﾁｮｳ","pref":"秋田県","city":"大館市","address":"住吉町"},
{"zip_code":"0170833","kana_pref":"ｱｷﾀｹﾝ","kana_city":"ｵｵﾀﾞﾃｼ","kana_address":"ｿﾞｳｶﾞﾊﾅ","pref":"秋田県","city":"大館市","address":"象ケ鼻"},
{"zip_code":"0170035","kana_pref":"ｱｷﾀｹﾝ","kana_city":"ｵｵﾀﾞﾃｼ","kana_address":"ﾀﾞｲﾉ","pref":"秋田県","city":"大館市","address":"代野"},
{"zip_code":"0170886","kana_pref":"ｱｷﾀｹﾝ","kana_city":"ｵｵﾀﾞﾃｼ","kana_address":"ﾀﾃｼﾀ","pref":"秋田県","city":"大館市","address":"館下"},
{"zip_code":"0170877","kana_pref":"ｱｷﾀｹﾝ","kana_city":"ｵｵﾀﾞﾃｼ","kana_address":"ﾀﾃﾊﾞﾅ","pref":"秋田県","city":"大館市","address":"立花"},
{"zip_code":"0170882","kana_pref":"ｱｷﾀｹﾝ","kana_city":"ｵｵﾀﾞﾃｼ","kana_address":"ﾃｯﾎﾟｳﾊﾞ","pref":"秋田県","city":"大館市","address":"鉄砲場"},
{"zip_code":"0170846","kana_pref":"ｱｷﾀｹﾝ","kana_city":"ｵｵﾀﾞﾃｼ","kana_address":"ﾄｷﾜｷﾞﾁｮｳ","pref":"秋田県","city":"大館市","address":"常盤木町"},
{"zip_code":"0170884","kana_pref":"ｱｷﾀｹﾝ","kana_city":"ｵｵﾀﾞﾃｼ","kana_address":"ﾄﾞﾋﾞﾔﾏｼﾀ","pref":"秋田県","city":"大館市","address":"土飛山下"},
{"zip_code":"0170867","kana_pref":"ｱｷﾀｹﾝ","kana_city":"ｵｵﾀﾞﾃｼ","kana_address":"ﾅｶｼﾝﾒｲﾁｮｳ","pref":"秋田県","city":"大館市","address":"中神明町"},
{"zip_code":"0170891","kana_pref":"ｱｷﾀｹﾝ","kana_city":"ｵｵﾀﾞﾃｼ","kana_address":"ﾅｶｼﾞｮｳ","pref":"秋田県","city":"大館市","address":"中城"},
{"zip_code":"0170843","kana_pref":"ｱｷﾀｹﾝ","kana_city":"ｵｵﾀﾞﾃｼ","kana_address":"ﾅｶﾏﾁ","pref":"秋田県","city":"大館市","address":"中町"},
{"zip_code":"0170045","kana_pref":"ｱｷﾀｹﾝ","kana_city":"ｵｵﾀﾞﾃｼ","kana_address":"ﾅｶﾐﾁ","pref":"秋田県","city":"大館市","address":"中道"},
{"zip_code":"0170839","kana_pref":"ｱｷﾀｹﾝ","kana_city":"ｵｵﾀﾞﾃｼ","kana_address":"ﾅｶﾔﾏ","pref":"秋田県","city":"大館市","address":"中山"},
{"zip_code":"0170881","kana_pref":"ｱｷﾀｹﾝ","kana_city":"ｵｵﾀﾞﾃｼ","kana_address":"ﾅｶﾞｷｶﾜﾐﾅﾐ","pref":"秋田県","city":"大館市","address":"長木川南"},
{"zip_code":"0170895","kana_pref":"ｱｷﾀｹﾝ","kana_city":"ｵｵﾀﾞﾃｼ","kana_address":"ﾅｶﾞｸﾗ","pref":"秋田県","city":"大館市","address":"長倉"},
{"zip_code":"0170802","kana_pref":"ｱｷﾀｹﾝ","kana_city":"ｵｵﾀﾞﾃｼ","kana_address":"ﾅｶﾞﾈﾔﾏｼﾀ","pref":"秋田県","city":"大館市","address":"長根山下"},
{"zip_code":"0170001","kana_pref":"ｱｷﾀｹﾝ","kana_city":"ｵｵﾀﾞﾃｼ","kana_address":"ﾅｶﾞﾊﾞｼﾘ","pref":"秋田県","city":"大館市","address":"長走"},
{"zip_code":"0170824","kana_pref":"ｱｷﾀｹﾝ","kana_city":"ｵｵﾀﾞﾃｼ","kana_address":"ﾅﾅﾏｶﾞﾘﾀｲ","pref":"秋田県","city":"大館市","address":"七曲岱"},
{"zip_code":"0170032","kana_pref":"ｱｷﾀｹﾝ","kana_city":"ｵｵﾀﾞﾃｼ","kana_address":"ﾆｲﾂﾞﾅ","pref":"秋田県","city":"大館市","address":"新綱"},
{"zip_code":"0170036","kana_pref":"ｱｷﾀｹﾝ","kana_city":"ｵｵﾀﾞﾃｼ","kana_address":"ﾆﾎﾝｽｷﾞｳｼﾛ","pref":"秋田県","city":"大館市","address":"二本杉後"},
{"zip_code":"0170055","kana_pref":"ｱｷﾀｹﾝ","kana_city":"ｵｵﾀﾞﾃｼ","kana_address":"ﾇﾏﾀﾃﾐﾁｳｴ","pref":"秋田県","city":"大館市","address":"沼館道上"},
{"zip_code":"0170056","kana_pref":"ｱｷﾀｹﾝ","kana_city":"ｵｵﾀﾞﾃｼ","kana_address":"ﾇﾏﾀﾃﾐﾁﾐﾅﾐ","pref":"秋田県","city":"大館市","address":"沼館道南"},
{"zip_code":"0170057","kana_pref":"ｱｷﾀｹﾝ","kana_city":"ｵｵﾀﾞﾃｼ","kana_address":"ﾇﾏﾀﾞﾃ","pref":"秋田県","city":"大館市","address":"沼館"},
{"zip_code":"0170862","kana_pref":"ｱｷﾀｹﾝ","kana_city":"ｵｵﾀﾞﾃｼ","kana_address":"ﾈｹﾞﾄ","pref":"秋田県","city":"大館市","address":"根下戸"},
{"zip_code":"0170864","kana_pref":"ｱｷﾀｹﾝ","kana_city":"ｵｵﾀﾞﾃｼ","kana_address":"ﾈｹﾞﾄｼﾝﾏﾁ","pref":"秋田県","city":"大館市","address":"根下戸新町"},
{"zip_code":"0170863","kana_pref":"ｱｷﾀｹﾝ","kana_city":"ｵｵﾀﾞﾃｼ","kana_address":"ﾈｹﾞﾄﾁｮｳ","pref":"秋田県","city":"大館市","address":"根下戸町"},
{"zip_code":"0170842","kana_pref":"ｱｷﾀｹﾝ","kana_city":"ｵｵﾀﾞﾃｼ","kana_address":"ﾊﾞｸﾛｳﾏﾁ","pref":"秋田県","city":"大館市","address":"馬喰町"},
{"zip_code":"0170003","kana_pref":"ｱｷﾀｹﾝ","kana_city":"ｵｵﾀﾞﾃｼ","kana_address":"ﾊｼｹﾞﾀ","pref":"秋田県","city":"大館市","address":"橋桁"},
{"zip_code":"0170811","kana_pref":"ｱｷﾀｹﾝ","kana_city":"ｵｵﾀﾞﾃｼ","kana_address":"ﾊﾁﾏﾝ","pref":"秋田県","city":"大館市","address":"八幡"},
{"zip_code":"0170823","kana_pref":"ｱｷﾀｹﾝ","kana_city":"ｵｵﾀﾞﾃｼ","kana_address":"ﾊﾁﾏﾝｻﾜﾀｲ","pref":"秋田県","city":"大館市","address":"八幡沢岱"},
{"zip_code":"0170005","kana_pref":"ｱｷﾀｹﾝ","kana_city":"ｵｵﾀﾞﾃｼ","kana_address":"ﾊﾅｵｶﾏﾁ","pref":"秋田県","city":"大館市","address":"花岡町"},
{"zip_code":"0170803","kana_pref":"ｱｷﾀｹﾝ","kana_city":"ｵｵﾀﾞﾃｼ","kana_address":"ﾋｶﾞｼﾀﾞｲ","pref":"秋田県","city":"大館市","address":"東台"},
{"zip_code":"0170855","kana_pref":"ｱｷﾀｹﾝ","kana_city":"ｵｵﾀﾞﾃｼ","kana_address":"ﾋﾂｻﾞｷ","pref":"秋田県","city":"大館市","address":"櫃崎"},
{"zip_code":"0170026","kana_pref":"ｱｷﾀｹﾝ","kana_city":"ｵｵﾀﾞﾃｼ","kana_address":"ﾌﾀﾂﾔｻｶｲ","pref":"秋田県","city":"大館市","address":"二ツ屋境"},
{"zip_code":"0170883","kana_pref":"ｱｷﾀｹﾝ","kana_city":"ｵｵﾀﾞﾃｼ","kana_address":"ﾌﾙｶﾜﾏﾁ","pref":"秋田県","city":"大館市","address":"古川町"},
{"zip_code":"0170815","kana_pref":"ｱｷﾀｹﾝ","kana_city":"ｵｵﾀﾞﾃｼ","kana_address":"ﾍﾀﾞﾚﾏﾁ","pref":"秋田県","city":"大館市","address":"部垂町"},
{"zip_code":"0170052","kana_pref":"ｱｷﾀｹﾝ","kana_city":"ｵｵﾀﾞﾃｼ","kana_address":"ﾏﾂｷ","pref":"秋田県","city":"大館市","address":"松木"},
{"zip_code":"0170054","kana_pref":"ｱｷﾀｹﾝ","kana_city":"ｵｵﾀﾞﾃｼ","kana_address":"ﾏﾂﾀﾞﾃ","pref":"秋田県","city":"大館市","address":"松館"},
{"zip_code":"0170051","kana_pref":"ｱｷﾀｹﾝ","kana_city":"ｵｵﾀﾞﾃｼ","kana_address":"ﾏﾂﾐﾈ","pref":"秋田県","city":"大館市","address":"松峰"},
{"zip_code":"0170873","kana_pref":"ｱｷﾀｹﾝ","kana_city":"ｵｵﾀﾞﾃｼ","kana_address":"ﾐｻｶ","pref":"秋田県","city":"大館市","address":"御坂"},
{"zip_code":"0170874","kana_pref":"ｱｷﾀｹﾝ","kana_city":"ｵｵﾀﾞﾃｼ","kana_address":"ﾐｿﾉﾁｮｳ","pref":"秋田県","city":"大館市","address":"美園町"},
{"zip_code":"0170868","kana_pref":"ｱｷﾀｹﾝ","kana_city":"ｵｵﾀﾞﾃｼ","kana_address":"ﾐﾅﾐｼﾝﾒｲﾁｮｳ","pref":"秋田県","city":"大館市","address":"南神明町"},
{"zip_code":"0170828","kana_pref":"ｱｷﾀｹﾝ","kana_city":"ｵｵﾀﾞﾃｼ","kana_address":"ﾑｶｲﾏﾁ","pref":"秋田県","city":"大館市","address":"向町"},
{"zip_code":"0170876","kana_pref":"ｱｷﾀｹﾝ","kana_city":"ｵｵﾀﾞﾃｼ","kana_address":"ﾓﾁﾀ","pref":"秋田県","city":"大館市","address":"餅田"},
{"zip_code":"0170827","kana_pref":"ｱｷﾀｹﾝ","kana_city":"ｵｵﾀﾞﾃｼ","kana_address":"ﾔﾁﾏﾁ","pref":"秋田県","city":"大館市","address":"谷地町"},
{"zip_code":"0170826","kana_pref":"ｱｷﾀｹﾝ","kana_city":"ｵｵﾀﾞﾃｼ","kana_address":"ﾔﾁﾏﾁｳｼﾛ","pref":"秋田県","city":"大館市","address":"谷地町後"},
{"zip_code":"0170838","kana_pref":"ｱｷﾀｹﾝ","kana_city":"ｵｵﾀﾞﾃｼ","kana_address":"ﾔﾏﾀﾞﾃ","pref":"秋田県","city":"大館市","address":"山館"},
{"zip_code":"0170021","kana_pref":"ｱｷﾀｹﾝ","kana_city":"ｵｵﾀﾞﾃｼ","kana_address":"ﾕｷｻﾜ","pref":"秋田県","city":"大館市","address":"雪沢"},
{"zip_code":"0170885","kana_pref":"ｱｷﾀｹﾝ","kana_city":"ｵｵﾀﾞﾃｼ","kana_address":"ﾕﾀｶﾁｮｳ","pref":"秋田県","city":"大館市","address":"豊町"},
{"zip_code":"0170200","kana_pref":"ｱｷﾀｹﾝ","kana_city":"ｶﾂﾞﾉｸﾞﾝｺｻｶﾏﾁ","kana_address":"","pref":"秋田県","city":"鹿角郡小坂町","address":""},
{"zip_code":"0170204","kana_pref":"ｱｷﾀｹﾝ","kana_city":"ｶﾂﾞﾉｸﾞﾝｺｻｶﾏﾁ","kana_address":"ｱﾗﾔ","pref":"秋田県","city":"鹿角郡小坂町","address":"荒谷"},
{"zip_code":"0170203","kana_pref":"ｱｷﾀｹﾝ","kana_city":"ｶﾂﾞﾉｸﾞﾝｺｻｶﾏﾁ","kana_address":"ｳﾜﾑｷ","pref":"秋田県","city":"鹿角郡小坂町","address":"上向"},
{"zip_code":"0170201","kana_pref":"ｱｷﾀｹﾝ","kana_city":"ｶﾂﾞﾉｸﾞﾝｺｻｶﾏﾁ","kana_address":"ｺｻｶ","pref":"秋田県","city":"鹿角郡小坂町","address":"小坂"},
{"zip_code":"0170202","kana_pref":"ｱｷﾀｹﾝ","kana_city":"ｶﾂﾞﾉｸﾞﾝｺｻｶﾏﾁ","kana_address":"ｺｻｶｺｳｻﾞﾝ","pref":"秋田県","city":"鹿角郡小坂町","address":"小坂鉱山"},
{"zip_code":"0170205","kana_pref":"ｱｷﾀｹﾝ","kana_city":"ｶﾂﾞﾉｸﾞﾝｺｻｶﾏﾁ","kana_address":"ﾀﾞｲﾁ","pref":"秋田県","city":"鹿角郡小坂町","address":"大地"}]}