{"zip_code":[
{"zip_code":"0185501","kana_pref":"ｱｵﾓﾘｹﾝ","kana_city":"ﾄﾜﾀﾞｼ","kana_address":"ｵｸｾ","pref":"青森県","city":"十和田市","address":"奥瀬"},
{"zip_code":"0182802","kana_pref":"ｱｷﾀｹﾝ","kana_city":"ﾉｼﾛｼ","kana_address":"ｱﾏﾅｲ","pref":"秋田県","city":"能代市","address":"天内"},
{"zip_code":"0182812","kana_pref":"ｱｷﾀｹﾝ","kana_city":"ﾉｼﾛｼ","kana_address":"ｵｵﾏｶﾞﾘ","pref":"秋田県","city":"能代市","address":"大曲"},
{"zip_code":"0182813","kana_pref":"ｱｷﾀｹﾝ","kana_city":"ﾉｼﾛｼ","kana_address":"ｶﾐｱｸﾄﾞ","pref":"秋田県","city":"能代市","address":"上悪土"},
{"zip_code":"0182814","kana_pref":"ｱｷﾀｹﾝ","kana_city":"ﾉｼﾛｼ","kana_address":"ｷﾂﾈﾓﾘ","pref":"秋田県","city":"能代市","address":"狐森"},
{"zip_code":"0182806","kana_pref":"ｱｷﾀｹﾝ","kana_city":"ﾉｼﾛｼ","kana_address":"ｸｷｻﾜ","pref":"秋田県","city":"能代市","address":"久喜沢"},
{"zip_code":"0182804","kana_pref":"ｱｷﾀｹﾝ","kana_city":"ﾉｼﾛｼ","kana_address":"ｻｲｶﾁ","pref":"秋田県","city":"能代市","address":"槐"},
{"zip_code":"0182811","kana_pref":"ｱｷﾀｹﾝ","kana_city":"ﾉｼﾛｼ","kana_address":"ｻﾝﾌﾞﾂ","pref":"秋田県","city":"能代市","address":"産物"},
{"zip_code":"0182815","kana_pref":"ｱｷﾀｹﾝ","kana_city":"ﾉｼﾛｼ","kana_address":"ﾄｳﾒﾝ","pref":"秋田県","city":"能代市","address":"東面"},
{"zip_code":"0182801","kana_pref":"ｱｷﾀｹﾝ","kana_city":"ﾉｼﾛｼ","kana_address":"ﾄｷﾜ","pref":"秋田県","city":"能代市","address":"常盤"},
{"zip_code":"0182805","kana_pref":"ｱｷﾀｹﾝ","kana_city":"ﾉｼﾛｼ","kana_address":"ﾄﾄﾞﾛｷ","pref":"秋田県","city":"能代市","address":"轟"},
{"zip_code":"0182803","kana_pref":"ｱｷﾀｹﾝ","kana_city":"ﾉｼﾛｼ","kana_address":"ﾄﾜﾘﾀﾞ","pref":"秋田県","city":"能代市","address":"外割田"},
{"zip_code":"0183101","kana_pref":"ｱｷﾀｹﾝ","kana_city":"ﾉｼﾛｼ","kana_address":"ﾌﾀﾂｲﾏﾁｱｿｳ","pref":"秋田県","city":"能代市","address":"二ツ井町麻生"},
{"zip_code":"0183116","kana_pref":"ｱｷﾀｹﾝ","kana_city":"ﾉｼﾛｼ","kana_address":"ﾌﾀﾂｲﾏﾁｲｴｳｼﾛ","pref":"秋田県","city":"能代市","address":"二ツ井町家後"},
{"zip_code":"0183119","kana_pref":"ｱｷﾀｹﾝ","kana_city":"ﾉｼﾛｼ","kana_address":"ﾌﾀﾂｲﾏﾁｳｽｲ","pref":"秋田県","city":"能代市","address":"二ツ井町薄井"},
{"zip_code":"0183131","kana_pref":"ｱｷﾀｹﾝ","kana_city":"ﾉｼﾛｼ","kana_address":"ﾌﾀﾂｲﾏﾁｳﾒﾅｲ","pref":"秋田県","city":"能代市","address":"二ツ井町梅内"},
{"zip_code":"0183118","kana_pref":"ｱｷﾀｹﾝ","kana_city":"ﾉｼﾛｼ","kana_address":"ﾌﾀﾂｲﾏﾁｳﾜﾀﾞｲ","pref":"秋田県","city":"能代市","address":"二ツ井町上台"},
{"zip_code":"0183142","kana_pref":"ｱｷﾀｹﾝ","kana_city":"ﾉｼﾛｼ","kana_address":"ﾌﾀﾂｲﾏﾁｳﾜﾉ","pref":"秋田県","city":"能代市","address":"二ツ井町上野"},
{"zip_code":"0183143","kana_pref":"ｱｷﾀｹﾝ","kana_city":"ﾉｼﾛｼ","kana_address":"ﾌﾀﾂｲﾏﾁｵｵﾀﾓﾃ","pref":"秋田県","city":"能代市","address":"二ツ井町太田面"},
{"zip_code":"0183115","kana_pref":"ｱｷﾀｹﾝ","kana_city":"ﾉｼﾛｼ","kana_address":"ﾌﾀﾂｲﾏﾁｶｲﾄﾞｳｳｴ","pref":"秋田県","city":"能代市","address":"二ツ井町海道上"},
{"zip_code":"0183105","kana_pref":"ｱｷﾀｹﾝ","kana_city":"ﾉｼﾛｼ","kana_address":"ﾌﾀﾂｲﾏﾁｶﾐﾔﾏｻﾞｷ","pref":"秋田県","city":"能代市","address":"二ツ井町上山崎"},
{"zip_code":"0183107","kana_pref":"ｱｷﾀｹﾝ","kana_city":"ﾉｼﾛｼ","kana_address":"ﾌﾀﾂｲﾏﾁｶﾘﾏﾀｲｼ","pref":"秋田県","city":"能代市","address":"二ツ井町苅又石"},
{"zip_code":"0183126","kana_pref":"ｱｷﾀｹﾝ","kana_city":"ﾉｼﾛｼ","kana_address":"ﾌﾀﾂｲﾏﾁｷﾂﾈﾀﾞｲ","pref":"秋田県","city":"能代市","address":"二ツ井町狐台"},
{"zip_code":"0183124","kana_pref":"ｱｷﾀｹﾝ","kana_city":"ﾉｼﾛｼ","kana_address":"ﾌﾀﾂｲﾏﾁｷﾘｲｼ","pref":"秋田県","city":"能代市","address":"二ツ井町切石"},
{"zip_code":"0183112","kana_pref":"ｱｷﾀｹﾝ","kana_city":"ﾉｼﾛｼ","kana_address":"ﾌﾀﾂｲﾏﾁｺｶﾞｹ","pref":"秋田県","city":"能代市","address":"二ツ井町小掛"},
{"zip_code":"0183141","kana_pref":"ｱｷﾀｹﾝ","kana_city":"ﾉｼﾛｼ","kana_address":"ﾌﾀﾂｲﾏﾁｺﾞｾﾝｶﾞﾘ","pref":"秋田県","city":"能代市","address":"二ツ井町五千苅"},
{"zip_code":"0183147","kana_pref":"ｱｷﾀｹﾝ","kana_city":"ﾉｼﾛｼ","kana_address":"ﾌﾀﾂｲﾏﾁｺﾂｷﾉｷ","pref":"秋田県","city":"能代市","address":"二ツ井町小槻木"},
{"zip_code":"0183102","kana_pref":"ｱｷﾀｹﾝ","kana_city":"ﾉｼﾛｼ","kana_address":"ﾌﾀﾂｲﾏﾁｺﾂﾅｷﾞ","pref":"秋田県","city":"能代市","address":"二ツ井町小繋"},
{"zip_code":"0183123","kana_pref":"ｱｷﾀｹﾝ","kana_city":"ﾉｼﾛｼ","kana_address":"ﾌﾀﾂｲﾏﾁｺﾏｶﾞﾀ","pref":"秋田県","city":"能代市","address":"二ツ井町駒形"},
{"zip_code":"0183114","kana_pref":"ｱｷﾀｹﾝ","kana_city":"ﾉｼﾛｼ","kana_address":"ﾌﾀﾂｲﾏﾁｻｸﾗﾀﾞｲ","pref":"秋田県","city":"能代市","address":"二ツ井町桜台"},
{"zip_code":"0183104","kana_pref":"ｱｷﾀｹﾝ","kana_city":"ﾉｼﾛｼ","kana_address":"ﾌﾀﾂｲﾏﾁｻﾜｸﾞﾁ","pref":"秋田県","city":"能代市","address":"二ツ井町沢口"},
{"zip_code":"0183151","kana_pref":"ｱｷﾀｹﾝ","kana_city":"ﾉｼﾛｼ","kana_address":"ﾌﾀﾂｲﾏﾁｻﾝｾﾞﾝｶﾞﾘ","pref":"秋田県","city":"能代市","address":"二ツ井町三千苅"},
{"zip_code":"0183157","kana_pref":"ｱｷﾀｹﾝ","kana_city":"ﾉｼﾛｼ","kana_address":"ﾌﾀﾂｲﾏﾁｼﾓﾉ","pref":"秋田県","city":"能代市","address":"二ツ井町下野"},
{"zip_code":"0183152","kana_pref":"ｱｷﾀｹﾝ","kana_city":"ﾉｼﾛｼ","kana_address":"ﾌﾀﾂｲﾏﾁｼﾓﾉｲｴｳｼﾛ","pref":"秋田県","city":"能代市","address":"二ツ井町下野家後"},
{"zip_code":"0183156","kana_pref":"ｱｷﾀｹﾝ","kana_city":"ﾉｼﾛｼ","kana_address":"ﾌﾀﾂｲﾏﾁｼﾓﾉｶﾜﾊﾞﾀ","pref":"秋田県","city":"能代市","address":"二ツ井町下野川端"},
{"zip_code":"0183128","kana_pref":"ｱｷﾀｹﾝ","kana_city":"ﾉｼﾛｼ","kana_address":"ﾌﾀﾂｲﾏﾁｼﾓﾋｴｶﾞﾗ","pref":"秋田県","city":"能代市","address":"二ツ井町下稗柄"},
{"zip_code":"0183134","kana_pref":"ｱｷﾀｹﾝ","kana_city":"ﾉｼﾛｼ","kana_address":"ﾌﾀﾂｲﾏﾁﾀｶｾｷ","pref":"秋田県","city":"能代市","address":"二ツ井町高関"},
{"zip_code":"0183111","kana_pref":"ｱｷﾀｹﾝ","kana_city":"ﾉｼﾛｼ","kana_address":"ﾌﾀﾂｲﾏﾁﾀｼﾛ","pref":"秋田県","city":"能代市","address":"二ツ井町田代"},
{"zip_code":"0183133","kana_pref":"ｱｷﾀｹﾝ","kana_city":"ﾉｼﾛｼ","kana_address":"ﾌﾀﾂｲﾏﾁﾀﾈ","pref":"秋田県","city":"能代市","address":"二ツ井町種"},
{"zip_code":"0183132","kana_pref":"ｱｷﾀｹﾝ","kana_city":"ﾉｼﾛｼ","kana_address":"ﾌﾀﾂｲﾏﾁﾀﾈ","pref":"秋田県","city":"能代市","address":"二ツ井町種"},
{"zip_code":"0183125","kana_pref":"ｱｷﾀｹﾝ","kana_city":"ﾉｼﾛｼ","kana_address":"ﾌﾀﾂｲﾏﾁﾁｬﾔｼﾀ","pref":"秋田県","city":"能代市","address":"二ツ井町茶屋下"},
{"zip_code":"0183117","kana_pref":"ｱｷﾀｹﾝ","kana_city":"ﾉｼﾛｼ","kana_address":"ﾌﾀﾂｲﾏﾁﾂｶﾉﾀﾞｲ","pref":"秋田県","city":"能代市","address":"二ツ井町塚台"},
{"zip_code":"0183148","kana_pref":"ｱｷﾀｹﾝ","kana_city":"ﾉｼﾛｼ","kana_address":"ﾌﾀﾂｲﾏﾁﾂｷﾉｷ","pref":"秋田県","city":"能代市","address":"二ツ井町槻ノ木"},
{"zip_code":"0183121","kana_pref":"ｱｷﾀｹﾝ","kana_city":"ﾉｼﾛｼ","kana_address":"ﾌﾀﾂｲﾏﾁﾄﾌﾞﾈ","pref":"秋田県","city":"能代市","address":"二ツ井町飛根"},
{"zip_code":"0183122","kana_pref":"ｱｷﾀｹﾝ","kana_city":"ﾉｼﾛｼ","kana_address":"ﾌﾀﾂｲﾏﾁﾄﾌﾞﾈ","pref":"秋田県","city":"能代市","address":"二ツ井町飛根"},
{"zip_code":"0183144","kana_pref":"ｱｷﾀｹﾝ","kana_city":"ﾉｼﾛｼ","kana_address":"ﾌﾀﾂｲﾏﾁﾅｶﾂﾎﾞ","pref":"秋田県","city":"能代市","address":"二ツ井町中坪"},
{"zip_code":"0183146","kana_pref":"ｱｷﾀｹﾝ","kana_city":"ﾉｼﾛｼ","kana_address":"ﾌﾀﾂｲﾏﾁﾅｶﾂﾎﾞﾐﾁｼﾀ","pref":"秋田県","city":"能代市","address":"二ツ井町中坪道下"},
{"zip_code":"0183153","kana_pref":"ｱｷﾀｹﾝ","kana_city":"ﾉｼﾛｼ","kana_address":"ﾌﾀﾂｲﾏﾁﾅﾒﾗｺｶﾜﾊﾞﾀ","pref":"秋田県","city":"能代市","address":"二ツ井町滑良子川端"},
{"zip_code":"0183103","kana_pref":"ｱｷﾀｹﾝ","kana_city":"ﾉｼﾛｼ","kana_address":"ﾌﾀﾂｲﾏﾁﾆｱｹﾞﾊﾞ","pref":"秋田県","city":"能代市","address":"二ツ井町荷上場"},
{"zip_code":"0183106","kana_pref":"ｱｷﾀｹﾝ","kana_city":"ﾉｼﾛｼ","kana_address":"ﾌﾀﾂｲﾏﾁﾆｺﾞﾘｶﾜ","pref":"秋田県","city":"能代市","address":"二ツ井町濁川"},
{"zip_code":"0183113","kana_pref":"ｱｷﾀｹﾝ","kana_city":"ﾉｼﾛｼ","kana_address":"ﾌﾀﾂｲﾏﾁﾆﾌﾞﾅ","pref":"秋田県","city":"能代市","address":"二ツ井町仁鮒"},
{"zip_code":"0183155","kana_pref":"ｱｷﾀｹﾝ","kana_city":"ﾉｼﾛｼ","kana_address":"ﾌﾀﾂｲﾏﾁﾋｲﾉ","pref":"秋田県","city":"能代市","address":"二ツ井町比井野"},
{"zip_code":"0183129","kana_pref":"ｱｷﾀｹﾝ","kana_city":"ﾉｼﾛｼ","kana_address":"ﾌﾀﾂｲﾏﾁﾋｴｶﾞﾗ","pref":"秋田県","city":"能代市","address":"二ツ井町稗柄"},
{"zip_code":"0183127","kana_pref":"ｱｷﾀｹﾝ","kana_city":"ﾉｼﾛｼ","kana_address":"ﾌﾀﾂｲﾏﾁﾋｴｶﾜﾊﾗ","pref":"秋田県","city":"能代市","address":"二ツ井町稗川原"},
{"zip_code":"0183154","kana_pref":"ｱｷﾀｹﾝ","kana_city":"ﾉｼﾛｼ","kana_address":"ﾌﾀﾂｲﾏﾁﾏﾁｼﾞﾘ","pref":"秋田県","city":"能代市","address":"二ツ井町町尻"},
{"zip_code":"0183145","kana_pref":"ｱｷﾀｹﾝ","kana_city":"ﾉｼﾛｼ","kana_address":"ﾌﾀﾂｲﾏﾁﾐﾁｶﾐﾅｶﾂﾎﾞ","pref":"秋田県","city":"能代市","address":"二ツ井町道上中坪"},
{"zip_code":"0183135","kana_pref":"ｱｷﾀｹﾝ","kana_city":"ﾉｼﾛｼ","kana_address":"ﾌﾀﾂｲﾏﾁﾔﾏﾈ","pref":"秋田県","city":"能代市","address":"二ツ井町山根"},
{"zip_code":"0183501","kana_pref":"ｱｷﾀｹﾝ","kana_city":"ｵｵﾀﾞﾃｼ","kana_address":"ｲﾜｾ","pref":"秋田県","city":"大館市","address":"岩瀬"},
{"zip_code":"0185754","kana_pref":"ｱｷﾀｹﾝ","kana_city":"ｵｵﾀﾞﾃｼ","kana_address":"ｵｵｼﾅｲ","pref":"秋田県","city":"大館市","address":"大子内"},
{"zip_code":"0185604","kana_pref":"ｱｷﾀｹﾝ","kana_city":"ｵｵﾀﾞﾃｼ","kana_address":"ｶﾙｲｻﾞﾜ","pref":"秋田県","city":"大館市","address":"軽井沢"},
{"zip_code":"0185606","kana_pref":"ｱｷﾀｹﾝ","kana_city":"ｵｵﾀﾞﾃｼ","kana_address":"ｸｽﾞﾜﾗ","pref":"秋田県","city":"大館市","address":"葛原"},
{"zip_code":"0185605","kana_pref":"ｱｷﾀｹﾝ","kana_city":"ｵｵﾀﾞﾃｼ","kana_address":"ｻﾙﾏ","pref":"秋田県","city":"大館市","address":"猿間"},
{"zip_code":"0185756","kana_pref":"ｱｷﾀｹﾝ","kana_city":"ｵｵﾀﾞﾃｼ","kana_address":"ｼﾀｶﾜﾗ","pref":"秋田県","city":"大館市","address":"下川原"},
{"zip_code":"0185601","kana_pref":"ｱｷﾀｹﾝ","kana_city":"ｵｵﾀﾞﾃｼ","kana_address":"ｼﾞｭｳﾆｼｮ","pref":"秋田県","city":"大館市","address":"十二所"},
{"zip_code":"0185755","kana_pref":"ｱｷﾀｹﾝ","kana_city":"ｵｵﾀﾞﾃｼ","kana_address":"ｽｷﾞｻﾜ","pref":"秋田県","city":"大館市","address":"杉沢"},
{"zip_code":"0183503","kana_pref":"ｱｷﾀｹﾝ","kana_city":"ｵｵﾀﾞﾃｼ","kana_address":"ｿﾄｶﾜﾗ","pref":"秋田県","city":"大館市","address":"外川原"},
{"zip_code":"0185602","kana_pref":"ｱｷﾀｹﾝ","kana_city":"ｵｵﾀﾞﾃｼ","kana_address":"ﾄﾞｳﾒｷ","pref":"秋田県","city":"大館市","address":"道目木"},
{"zip_code":"0183504","kana_pref":"ｱｷﾀｹﾝ","kana_city":"ｵｵﾀﾞﾃｼ","kana_address":"ﾅｶﾞｻｶ","pref":"秋田県","city":"大館市","address":"長坂"},
{"zip_code":"0185751","kana_pref":"ｱｷﾀｹﾝ","kana_city":"ｵｵﾀﾞﾃｼ","kana_address":"ﾆｲﾀﾞ","pref":"秋田県","city":"大館市","address":"二井田"},
{"zip_code":"0183505","kana_pref":"ｱｷﾀｹﾝ","kana_city":"ｵｵﾀﾞﾃｼ","kana_address":"ﾊﾔｸﾞﾁ","pref":"秋田県","city":"大館市","address":"早口"},
{"zip_code":"0185753","kana_pref":"ｱｷﾀｹﾝ","kana_city":"ｵｵﾀﾞﾃｼ","kana_address":"ﾋﾅｲﾏｴﾀﾞ","pref":"秋田県","city":"大館市","address":"比内前田"},
{"zip_code":"0185701","kana_pref":"ｱｷﾀｹﾝ","kana_city":"ｵｵﾀﾞﾃｼ","kana_address":"ﾋﾅｲﾏﾁｵｳｷﾞﾀ","pref":"秋田県","city":"大館市","address":"比内町扇田"},
{"zip_code":"0185851","kana_pref":"ｱｷﾀｹﾝ","kana_city":"ｵｵﾀﾞﾃｼ","kana_address":"ﾋﾅｲﾏﾁｵｵｸｿﾞ","pref":"秋田県","city":"大館市","address":"比内町大葛"},
{"zip_code":"0185743","kana_pref":"ｱｷﾀｹﾝ","kana_city":"ｵｵﾀﾞﾃｼ","kana_address":"ﾋﾅｲﾏﾁｵﾂﾎﾞｻﾞﾜ","pref":"秋田県","city":"大館市","address":"比内町小坪沢"},
{"zip_code":"0185745","kana_pref":"ｱｷﾀｹﾝ","kana_city":"ｵｵﾀﾞﾃｼ","kana_address":"ﾋﾅｲﾏﾁｶﾀｶﾞｲ","pref":"秋田県","city":"大館市","address":"比内町片貝"},
{"zip_code":"0185731","kana_pref":"ｱｷﾀｹﾝ","kana_city":"ｵｵﾀﾞﾃｼ","kana_address":"ﾋﾅｲﾏﾁｻｻﾀﾞﾃ","pref":"秋田県","city":"大館市","address":"比内町笹館"},
{"zip_code":"0185742","kana_pref":"ｱｷﾀｹﾝ","kana_city":"ｵｵﾀﾞﾃｼ","kana_address":"ﾋﾅｲﾏﾁｼﾗｻﾜﾐｽﾞｻﾜ","pref":"秋田県","city":"大館市","address":"比内町白沢水沢"},
{"zip_code":"0185741","kana_pref":"ｱｷﾀｹﾝ","kana_city":"ｵｵﾀﾞﾃｼ","kana_address":"ﾋﾅｲﾏﾁﾀｯｺ","pref":"秋田県","city":"大館市","address":"比内町達子"},
{"zip_code":"0185721","kana_pref":"ｱｷﾀｹﾝ","kana_city":"ｵｵﾀﾞﾃｼ","kana_address":"ﾋﾅｲﾏﾁﾄｯｺ","pref":"秋田県","city":"大館市","address":"比内町独鈷"},
{"zip_code":"0185722","kana_pref":"ｱｷﾀｹﾝ","kana_city":"ｵｵﾀﾞﾃｼ","kana_address":"ﾋﾅｲﾏﾁﾅｶﾉ","pref":"秋田県","city":"大館市","address":"比内町中野"},
{"zip_code":"0185712","kana_pref":"ｱｷﾀｹﾝ","kana_city":"ｵｵﾀﾞﾃｼ","kana_address":"ﾋﾅｲﾏﾁﾆｲﾀﾞﾃ","pref":"秋田県","city":"大館市","address":"比内町新館"},
{"zip_code":"0185711","kana_pref":"ｱｷﾀｹﾝ","kana_city":"ｵｵﾀﾞﾃｼ","kana_address":"ﾋﾅｲﾏﾁﾐｿﾅｲ","pref":"秋田県","city":"大館市","address":"比内町味噌内"},
{"zip_code":"0185744","kana_pref":"ｱｷﾀｹﾝ","kana_city":"ｵｵﾀﾞﾃｼ","kana_address":"ﾋﾅｲﾏﾁﾔｷﾞﾊｼ","pref":"秋田県","city":"大館市","address":"比内町八木橋"},
{"zip_code":"0185732","kana_pref":"ｱｷﾀｹﾝ","kana_city":"ｵｵﾀﾞﾃｼ","kana_address":"ﾋﾅｲﾏﾁﾔﾁﾅｶ","pref":"秋田県","city":"大館市","address":"比内町谷地中"},
{"zip_code":"0185603","kana_pref":"ｱｷﾀｹﾝ","kana_city":"ｵｵﾀﾞﾃｼ","kana_address":"ﾏｶﾞﾀ","pref":"秋田県","city":"大館市","address":"曲田"},
{"zip_code":"0185752","kana_pref":"ｱｷﾀｹﾝ","kana_city":"ｵｵﾀﾞﾃｼ","kana_address":"ﾓﾄﾐﾔ","pref":"秋田県","city":"大館市","address":"本宮"},
{"zip_code":"0183506","kana_pref":"ｱｷﾀｹﾝ","kana_city":"ｵｵﾀﾞﾃｼ","kana_address":"ﾔﾏｾ","pref":"秋田県","city":"大館市","address":"山瀬"},
{"zip_code":"0183502","kana_pref":"ｱｷﾀｹﾝ","kana_city":"ｵｵﾀﾞﾃｼ","kana_address":"ﾔﾏﾀﾞ","pref":"秋田県","city":"大館市","address":"山田"},
{"zip_code":"0185200","kana_pref":"ｱｷﾀｹﾝ","kana_city":"ｶﾂﾞﾉｼ","kana_address":"","pref":"秋田県","city":"鹿角市","address":""},
{"zip_code":"0185202","kana_pref":"ｱｷﾀｹﾝ","kana_city":"ｶﾂﾞﾉｼ","kana_address":"ｵｻﾘｻﾞﾜ","pref":"秋田県","city":"鹿角市","address":"尾去沢"},
{"zip_code":"0185332","kana_pref":"ｱｷﾀｹﾝ","kana_city":"ｶﾂﾞﾉｼ","kana_address":"ﾄﾜﾀﾞｳﾜﾑｶｲ","pref":"秋田県","city":"鹿角市","address":"十和田上向"},
{"zip_code":"0185421","kana_pref":"ｱｷﾀｹﾝ","kana_city":"ｶﾂﾞﾉｼ","kana_address":"ﾄﾜﾀﾞｵｵﾕ","pref":"秋田県","city":"鹿角市","address":"十和田大湯"},
{"zip_code":"0185333","kana_pref":"ｱｷﾀｹﾝ","kana_city":"ｶﾂﾞﾉｼ","kana_address":"ﾄﾜﾀﾞｵｶﾀﾞ","pref":"秋田県","city":"鹿角市","address":"十和田岡田"},
{"zip_code":"0185422","kana_pref":"ｱｷﾀｹﾝ","kana_city":"ｶﾂﾞﾉｼ","kana_address":"ﾄﾜﾀﾞｸｻｷﾞ","pref":"秋田県","city":"鹿角市","address":"十和田草木"},
{"zip_code":"0185334","kana_pref":"ｱｷﾀｹﾝ","kana_city":"ｶﾂﾞﾉｼ","kana_address":"ﾄﾜﾀﾞｹﾏﾅｲ","pref":"秋田県","city":"鹿角市","address":"十和田毛馬内"},
{"zip_code":"0185337","kana_pref":"ｱｷﾀｹﾝ","kana_city":"ｶﾂﾞﾉｼ","kana_address":"ﾄﾜﾀﾞｽｴﾋﾛ","pref":"秋田県","city":"鹿角市","address":"十和田末広"},
{"zip_code":"0185335","kana_pref":"ｱｷﾀｹﾝ","kana_city":"ｶﾂﾞﾉｼ","kana_address":"ﾄﾜﾀﾞｾﾀｲｼ","pref":"秋田県","city":"鹿角市","address":"十和田瀬田石"},
{"zip_code":"0185336","kana_pref":"ｱｷﾀｹﾝ","kana_city":"ｶﾂﾞﾉｼ","kana_address":"ﾄﾜﾀﾞﾆｼｷｷﾞ","pref":"秋田県","city":"鹿角市","address":"十和田錦木"},
{"zip_code":"0185331","kana_pref":"ｱｷﾀｹﾝ","kana_city":"ｶﾂﾞﾉｼ","kana_address":"ﾄﾜﾀﾞﾔﾏﾈ","pref":"秋田県","city":"鹿角市","address":"十和田山根"},
{"zip_code":"0185141","kana_pref":"ｱｷﾀｹﾝ","kana_city":"ｶﾂﾞﾉｼ","kana_address":"ﾊﾁﾏﾝﾀｲ","pref":"秋田県","city":"鹿角市","address":"八幡平"},
{"zip_code":"0185201","kana_pref":"ｱｷﾀｹﾝ","kana_city":"ｶﾂﾞﾉｼ","kana_address":"ﾊﾅﾜ","pref":"秋田県","city":"鹿角市","address":"花輪"},
{"zip_code":"0181215","kana_pref":"ｱｷﾀｹﾝ","kana_city":"ﾕﾘﾎﾝｼﾞｮｳｼ","kana_address":"ｲﾜｷｱｶﾋﾗ","pref":"秋田県","city":"由利本荘市","address":"岩城赤平"},
{"zip_code":"0181213","kana_pref":"ｱｷﾀｹﾝ","kana_city":"ﾕﾘﾎﾝｼﾞｮｳｼ","kana_address":"ｲﾜｷｲｽﾞﾐﾀ","pref":"秋田県","city":"由利本荘市","address":"岩城泉田"},
{"zip_code":"0181301","kana_pref":"ｱｷﾀｹﾝ","kana_city":"ﾕﾘﾎﾝｼﾞｮｳｼ","kana_address":"ｲﾜｷｳﾁﾐﾁｶﾜ","pref":"秋田県","city":"由利本荘市","address":"岩城内道川"},
{"zip_code":"0181302","kana_pref":"ｱｷﾀｹﾝ","kana_city":"ﾕﾘﾎﾝｼﾞｮｳｼ","kana_address":"ｲﾜｷｶｯﾃ","pref":"秋田県","city":"由利本荘市","address":"岩城勝手"},
{"zip_code":"0181225","kana_pref":"ｱｷﾀｹﾝ","kana_city":"ﾕﾘﾎﾝｼﾞｮｳｼ","kana_address":"ｲﾜｷｶﾐｸﾛｶﾜ","pref":"秋田県","city":"由利本荘市","address":"岩城上黒川"},
{"zip_code":"0181222","kana_pref":"ｱｷﾀｹﾝ","kana_city":"ﾕﾘﾎﾝｼﾞｮｳｼ","kana_address":"ｲﾜｷｶﾐﾍﾋﾞﾀ","pref":"秋田県","city":"由利本荘市","address":"岩城上蛇田"},
{"zip_code":"0181216","kana_pref":"ｱｷﾀｹﾝ","kana_city":"ﾕﾘﾎﾝｼﾞｮｳｼ","kana_address":"ｲﾜｷｶﾒﾀﾞｱﾀｺﾞﾏﾁ","pref":"秋田県","city":"由利本荘市","address":"岩城亀田愛宕町"},
{"zip_code":"0181218","kana_pref":"ｱｷﾀｹﾝ","kana_city":"ﾕﾘﾎﾝｼﾞｮｳｼ","kana_address":"ｲﾜｷｶﾒﾀﾞｵｵﾏﾁ","pref":"秋田県","city":"由利本荘市","address":"岩城亀田大町"},
{"zip_code":"0181217","kana_pref":"ｱｷﾀｹﾝ","kana_city":"ﾕﾘﾎﾝｼﾞｮｳｼ","kana_address":"ｲﾜｷｶﾒﾀﾞｶﾒﾀﾞﾏﾁ","pref":"秋田県","city":"由利本荘市","address":"岩城亀田亀田町"},
{"zip_code":"0181221","kana_pref":"ｱｷﾀｹﾝ","kana_city":"ﾕﾘﾎﾝｼﾞｮｳｼ","kana_address":"ｲﾜｷｶﾒﾀﾞﾓｶﾞﾐﾏﾁ","pref":"秋田県","city":"由利本荘市","address":"岩城亀田最上町"},
{"zip_code":"0181303","kana_pref":"ｱｷﾀｹﾝ","kana_city":"ﾕﾘﾎﾝｼﾞｮｳｼ","kana_address":"ｲﾜｷｷﾐｶﾞﾉ","pref":"秋田県","city":"由利本荘市","address":"岩城君ケ野"},
{"zip_code":"0181226","kana_pref":"ｱｷﾀｹﾝ","kana_city":"ﾕﾘﾎﾝｼﾞｮｳｼ","kana_address":"ｲﾜｷｼﾓｸﾛｶﾜ","pref":"秋田県","city":"由利本荘市","address":"岩城下黒川"},
{"zip_code":"0181223","kana_pref":"ｱｷﾀｹﾝ","kana_city":"ﾕﾘﾎﾝｼﾞｮｳｼ","kana_address":"ｲﾜｷｼﾓﾍﾋﾞﾀ","pref":"秋田県","city":"由利本荘市","address":"岩城下蛇田"},
{"zip_code":"0181211","kana_pref":"ｱｷﾀｹﾝ","kana_city":"ﾕﾘﾎﾝｼﾞｮｳｼ","kana_address":"ｲﾜｷﾀｷﾉﾏﾀ","pref":"秋田県","city":"由利本荘市","address":"岩城滝俣"},
{"zip_code":"0181214","kana_pref":"ｱｷﾀｹﾝ","kana_city":"ﾕﾘﾎﾝｼﾞｮｳｼ","kana_address":"ｲﾜｷﾄﾐﾀ","pref":"秋田県","city":"由利本荘市","address":"岩城富田"},
{"zip_code":"0181212","kana_pref":"ｱｷﾀｹﾝ","kana_city":"ﾕﾘﾎﾝｼﾞｮｳｼ","kana_address":"ｲﾜｷﾌｸﾉﾏﾀ","pref":"秋田県","city":"由利本荘市","address":"岩城福俣"},
{"zip_code":"0181305","kana_pref":"ｱｷﾀｹﾝ","kana_city":"ﾕﾘﾎﾝｼﾞｮｳｼ","kana_address":"ｲﾜｷﾌﾀｺﾞ","pref":"秋田県","city":"由利本荘市","address":"岩城二古"},
{"zip_code":"0181304","kana_pref":"ｱｷﾀｹﾝ","kana_city":"ﾕﾘﾎﾝｼﾞｮｳｼ","kana_address":"ｲﾜｷﾐﾁｶﾜ","pref":"秋田県","city":"由利本荘市","address":"岩城道川"},
{"zip_code":"0181224","kana_pref":"ｱｷﾀｹﾝ","kana_city":"ﾕﾘﾎﾝｼﾞｮｳｼ","kana_address":"ｲﾜｷﾛｸﾛﾀﾞ","pref":"秋田県","city":"由利本荘市","address":"岩城六呂田"},
{"zip_code":"0180904","kana_pref":"ｱｷﾀｹﾝ","kana_city":"ﾕﾘﾎﾝｼﾞｮｳｼ","kana_address":"ｲﾜﾉﾒｻﾞﾜ","pref":"秋田県","city":"由利本荘市","address":"岩野目沢"},
{"zip_code":"0180726","kana_pref":"ｱｷﾀｹﾝ","kana_city":"ﾕﾘﾎﾝｼﾞｮｳｼ","kana_address":"ｲﾜﾔﾌﾓﾄ","pref":"秋田県","city":"由利本荘市","address":"岩谷麓"},
{"zip_code":"0180711","kana_pref":"ｱｷﾀｹﾝ","kana_city":"ﾕﾘﾎﾝｼﾞｮｳｼ","kana_address":"ｲﾜﾔﾏﾁ","pref":"秋田県","city":"由利本荘市","address":"岩谷町"},
{"zip_code":"0180723","kana_pref":"ｱｷﾀｹﾝ","kana_city":"ﾕﾘﾎﾝｼﾞｮｳｼ","kana_address":"ｳｼﾃﾞﾗ","pref":"秋田県","city":"由利本荘市","address":"牛寺"},
{"zip_code":"0180731","kana_pref":"ｱｷﾀｹﾝ","kana_city":"ﾕﾘﾎﾝｼﾞｮｳｼ","kana_address":"ｵｵｳﾁｻﾝｶﾜ","pref":"秋田県","city":"由利本荘市","address":"大内三川"},
{"zip_code":"0180733","kana_pref":"ｱｷﾀｹﾝ","kana_city":"ﾕﾘﾎﾝｼﾞｮｳｼ","kana_address":"ｵｵｸﾗｻﾞﾜ","pref":"秋田県","city":"由利本荘市","address":"大倉沢"},
{"zip_code":"0180721","kana_pref":"ｱｷﾀｹﾝ","kana_city":"ﾕﾘﾎﾝｼﾞｮｳｼ","kana_address":"ｵｵﾀﾆ","pref":"秋田県","city":"由利本荘市","address":"大谷"},
{"zip_code":"0180841","kana_pref":"ｱｷﾀｹﾝ","kana_city":"ﾕﾘﾎﾝｼﾞｮｳｼ","kana_address":"ｶｶﾞｻﾜ","pref":"秋田県","city":"由利本荘市","address":"加賀沢"},
{"zip_code":"0180734","kana_pref":"ｱｷﾀｹﾝ","kana_city":"ﾕﾘﾎﾝｼﾞｮｳｼ","kana_address":"ｷﾀﾌｸﾀﾞ","pref":"秋田県","city":"由利本荘市","address":"北福田"},
{"zip_code":"0180852","kana_pref":"ｱｷﾀｹﾝ","kana_city":"ﾕﾘﾎﾝｼﾞｮｳｼ","kana_address":"ｸｽﾞｵｶ","pref":"秋田県","city":"由利本荘市","address":"葛岡"},
{"zip_code":"0180903","kana_pref":"ｱｷﾀｹﾝ","kana_city":"ﾕﾘﾎﾝｼﾞｮｳｼ","kana_address":"ｺｸﾞﾘﾔﾏ","pref":"秋田県","city":"由利本荘市","address":"小栗山"},
{"zip_code":"0180907","kana_pref":"ｱｷﾀｹﾝ","kana_city":"ﾕﾘﾎﾝｼﾞｮｳｼ","kana_address":"ｻｶﾍﾞ","pref":"秋田県","city":"由利本荘市","address":"坂部"},
{"zip_code":"0180842","kana_pref":"ｱｷﾀｹﾝ","kana_city":"ﾕﾘﾎﾝｼﾞｮｳｼ","kana_address":"ｼﾝｻﾜ","pref":"秋田県","city":"由利本荘市","address":"新沢"},
{"zip_code":"0180902","kana_pref":"ｱｷﾀｹﾝ","kana_city":"ﾕﾘﾎﾝｼﾞｮｳｼ","kana_address":"ｼﾝﾃﾞﾝ","pref":"秋田県","city":"由利本荘市","address":"新田"},
{"zip_code":"0180844","kana_pref":"ｱｷﾀｹﾝ","kana_city":"ﾕﾘﾎﾝｼﾞｮｳｼ","kana_address":"ﾀｶｵ","pref":"秋田県","city":"由利本荘市","address":"高尾"},
{"zip_code":"0180905","kana_pref":"ｱｷﾀｹﾝ","kana_city":"ﾕﾘﾎﾝｼﾞｮｳｼ","kana_address":"ﾀｷ","pref":"秋田県","city":"由利本荘市","address":"滝"},
{"zip_code":"0180732","kana_pref":"ｱｷﾀｹﾝ","kana_city":"ﾕﾘﾎﾝｼﾞｮｳｼ","kana_address":"ﾄｸｻﾜ","pref":"秋田県","city":"由利本荘市","address":"徳沢"},
{"zip_code":"0180853","kana_pref":"ｱｷﾀｹﾝ","kana_city":"ﾕﾘﾎﾝｼﾞｮｳｼ","kana_address":"ﾅｶﾞｻｶ","pref":"秋田県","city":"由利本荘市","address":"長坂"},
{"zip_code":"0180901","kana_pref":"ｱｷﾀｹﾝ","kana_city":"ﾕﾘﾎﾝｼﾞｮｳｼ","kana_address":"ﾅｶﾀｼﾛ","pref":"秋田県","city":"由利本荘市","address":"中田代"},
{"zip_code":"0180722","kana_pref":"ｱｷﾀｹﾝ","kana_city":"ﾕﾘﾎﾝｼﾞｮｳｼ","kana_address":"ﾅｶﾀﾞﾃ","pref":"秋田県","city":"由利本荘市","address":"中館"},
{"zip_code":"0180843","kana_pref":"ｱｷﾀｹﾝ","kana_city":"ﾕﾘﾎﾝｼﾞｮｳｼ","kana_address":"ﾅｶﾁｮｳ","pref":"秋田県","city":"由利本荘市","address":"中帳"},
{"zip_code":"0180845","kana_pref":"ｱｷﾀｹﾝ","kana_city":"ﾕﾘﾎﾝｼﾞｮｳｼ","kana_address":"ﾅｶﾉﾏﾀ","pref":"秋田県","city":"由利本荘市","address":"中俣"},
{"zip_code":"0180601","kana_pref":"ｱｷﾀｹﾝ","kana_city":"ﾕﾘﾎﾝｼﾞｮｳｼ","kana_address":"ﾆｼﾒﾏﾁｱﾏﾊｷﾞ","pref":"秋田県","city":"由利本荘市","address":"西目町海士剥"},
{"zip_code":"0180602","kana_pref":"ｱｷﾀｹﾝ","kana_city":"ﾕﾘﾎﾝｼﾞｮｳｼ","kana_address":"ﾆｼﾒﾏﾁﾃﾞﾄ","pref":"秋田県","city":"由利本荘市","address":"西目町出戸"},
{"zip_code":"0180603","kana_pref":"ｱｷﾀｹﾝ","kana_city":"ﾕﾘﾎﾝｼﾞｮｳｼ","kana_address":"ﾆｼﾒﾏﾁﾆｼﾒ","pref":"秋田県","city":"由利本荘市","address":"西目町西目"},
{"zip_code":"0180604","kana_pref":"ｱｷﾀｹﾝ","kana_city":"ﾕﾘﾎﾝｼﾞｮｳｼ","kana_address":"ﾆｼﾒﾏﾁﾇﾏﾀ","pref":"秋田県","city":"由利本荘市","address":"西目町沼田"},
{"zip_code":"0180854","kana_pref":"ｱｷﾀｹﾝ","kana_city":"ﾕﾘﾎﾝｼﾞｮｳｼ","kana_address":"ﾉｿﾞｷ","pref":"秋田県","city":"由利本荘市","address":"及位"},
{"zip_code":"0180906","kana_pref":"ｱｷﾀｹﾝ","kana_city":"ﾕﾘﾎﾝｼﾞｮｳｼ","kana_address":"ﾊﾋﾞﾛ","pref":"秋田県","city":"由利本荘市","address":"羽広"},
{"zip_code":"0180851","kana_pref":"ｱｷﾀｹﾝ","kana_city":"ﾕﾘﾎﾝｼﾞｮｳｼ","kana_address":"ﾋﾗｸﾞｷ","pref":"秋田県","city":"由利本荘市","address":"平岫"},
{"zip_code":"0180724","kana_pref":"ｱｷﾀｹﾝ","kana_city":"ﾕﾘﾎﾝｼﾞｮｳｼ","kana_address":"ﾌｶｻﾜ","pref":"秋田県","city":"由利本荘市","address":"深沢"},
{"zip_code":"0180855","kana_pref":"ｱｷﾀｹﾝ","kana_city":"ﾕﾘﾎﾝｼﾞｮｳｼ","kana_address":"ﾏﾂﾓﾄ","pref":"秋田県","city":"由利本荘市","address":"松本"},
{"zip_code":"0180725","kana_pref":"ｱｷﾀｹﾝ","kana_city":"ﾕﾘﾎﾝｼﾞｮｳｼ","kana_address":"ﾖﾈｻﾞｶ","pref":"秋田県","city":"由利本荘市","address":"米坂"},
{"zip_code":"0181400","kana_pref":"ｱｷﾀｹﾝ","kana_city":"ｶﾀｶﾞﾐｼ","kana_address":"","pref":"秋田県","city":"潟上市","address":""},
{"zip_code":"0181504","kana_pref":"ｱｷﾀｹﾝ","kana_city":"ｶﾀｶﾞﾐｼ","kana_address":"ｲｲﾀｶﾞﾜｲｲﾂﾞｶ","pref":"秋田県","city":"潟上市","address":"飯田川飯塚"},
{"zip_code":"0181501","kana_pref":"ｱｷﾀｹﾝ","kana_city":"ｶﾀｶﾞﾐｼ","kana_address":"ｲｲﾀｶﾞﾜｶﾈﾔﾏ","pref":"秋田県","city":"潟上市","address":"飯田川金山"},
{"zip_code":"0181502","kana_pref":"ｱｷﾀｹﾝ","kana_city":"ｶﾀｶﾞﾐｼ","kana_address":"ｲｲﾀｶﾞﾜｼﾓｱﾌﾞｶﾜ","pref":"秋田県","city":"潟上市","address":"飯田川下虻川"},
{"zip_code":"0181503","kana_pref":"ｱｷﾀｹﾝ","kana_city":"ｶﾀｶﾞﾐｼ","kana_address":"ｲｲﾀｶﾞﾜﾜﾀﾞｲﾓｶﾜ","pref":"秋田県","city":"潟上市","address":"飯田川和田妹川"},
{"zip_code":"0181401","kana_pref":"ｱｷﾀｹﾝ","kana_city":"ｶﾀｶﾞﾐｼ","kana_address":"ｼｮｳﾜｵｵｸﾎﾞ","pref":"秋田県","city":"潟上市","address":"昭和大久保"},
{"zip_code":"0181412","kana_pref":"ｱｷﾀｹﾝ","kana_city":"ｶﾀｶﾞﾐｼ","kana_address":"ｼｮｳﾜﾄﾖｶﾜｵｶｲﾄﾞ","pref":"秋田県","city":"潟上市","address":"昭和豊川岡井戸"},
{"zip_code":"0181411","kana_pref":"ｱｷﾀｹﾝ","kana_city":"ｶﾀｶﾞﾐｼ","kana_address":"ｼｮｳﾜﾄﾖｶﾜｶﾐｱﾌﾞｶﾜ","pref":"秋田県","city":"潟上市","address":"昭和豊川上虻川"},
{"zip_code":"0181414","kana_pref":"ｱｷﾀｹﾝ","kana_city":"ｶﾀｶﾞﾐｼ","kana_address":"ｼｮｳﾜﾄﾖｶﾜﾂｷﾉｷ","pref":"秋田県","city":"潟上市","address":"昭和豊川槻木"},
{"zip_code":"0181413","kana_pref":"ｱｷﾀｹﾝ","kana_city":"ｶﾀｶﾞﾐｼ","kana_address":"ｼｮｳﾜﾄﾖｶﾜﾌﾅﾊﾞｼ","pref":"秋田県","city":"潟上市","address":"昭和豊川船橋"},
{"zip_code":"0181416","kana_pref":"ｱｷﾀｹﾝ","kana_city":"ｶﾀｶﾞﾐｼ","kana_address":"ｼｮｳﾜﾄﾖｶﾜﾔﾏﾀﾞ","pref":"秋田県","city":"潟上市","address":"昭和豊川山田"},
{"zip_code":"0181415","kana_pref":"ｱｷﾀｹﾝ","kana_city":"ｶﾀｶﾞﾐｼ","kana_address":"ｼｮｳﾜﾄﾖｶﾜﾘｭｳｹﾞ","pref":"秋田県","city":"潟上市","address":"昭和豊川竜毛"},
{"zip_code":"0181403","kana_pref":"ｱｷﾀｹﾝ","kana_city":"ｶﾀｶﾞﾐｼ","kana_address":"ｼｮｳﾜﾊｯﾁｮｳﾒ","pref":"秋田県","city":"潟上市","address":"昭和八丁目"},
{"zip_code":"0181402","kana_pref":"ｱｷﾀｹﾝ","kana_city":"ｶﾀｶﾞﾐｼ","kana_address":"ｼｮｳﾜﾐﾀﾞﾚﾊﾞｼ","pref":"秋田県","city":"潟上市","address":"昭和乱橋"},
{"zip_code":"0183300","kana_pref":"ｱｷﾀｹﾝ","kana_city":"ｷﾀｱｷﾀｼ","kana_address":"","pref":"秋田県","city":"北秋田市","address":""},
{"zip_code":"0183313","kana_pref":"ｱｷﾀｹﾝ","kana_city":"ｷﾀｱｷﾀｼ","kana_address":"ｱｻﾋﾁｮｳ","pref":"秋田県","city":"北秋田市","address":"旭町"},
{"zip_code":"0184621","kana_pref":"ｱｷﾀｹﾝ","kana_city":"ｷﾀｱｷﾀｼ","kana_address":"ｱﾆｱﾗｾ","pref":"秋田県","city":"北秋田市","address":"阿仁荒瀬"},
{"zip_code":"0184623","kana_pref":"ｱｷﾀｹﾝ","kana_city":"ｷﾀｱｷﾀｼ","kana_address":"ｱﾆｱﾗｾｶﾞﾜﾋﾂﾊﾀ","pref":"秋田県","city":"北秋田市","address":"阿仁荒瀬川櫃畑"},
{"zip_code":"0184731","kana_pref":"ｱｷﾀｹﾝ","kana_city":"ｷﾀｱｷﾀｼ","kana_address":"ｱﾆｳｯﾄｳ","pref":"秋田県","city":"北秋田市","address":"阿仁打当"},
{"zip_code":"0184743","kana_pref":"ｱｷﾀｹﾝ","kana_city":"ｷﾀｱｷﾀｼ","kana_address":"ｱﾆｵｶｼﾅｲ","pref":"秋田県","city":"北秋田市","address":"阿仁笑内"},
{"zip_code":"0184624","kana_pref":"ｱｷﾀｹﾝ","kana_city":"ｷﾀｱｷﾀｼ","kana_address":"ｱﾆｶｷﾞﾉﾀｷ","pref":"秋田県","city":"北秋田市","address":"阿仁鍵ノ滝"},
{"zip_code":"0184745","kana_pref":"ｱｷﾀｹﾝ","kana_city":"ｷﾀｱｷﾀｼ","kana_address":"ｱﾆｶﾔｸｻ","pref":"秋田県","city":"北秋田市","address":"阿仁萱草"},
{"zip_code":"0184613","kana_pref":"ｱｷﾀｹﾝ","kana_city":"ｷﾀｱｷﾀｼ","kana_address":"ｱﾆｷﾞﾝｻﾞﾝ","pref":"秋田県","city":"北秋田市","address":"阿仁銀山"},
{"zip_code":"0184741","kana_pref":"ｱｷﾀｹﾝ","kana_city":"ｷﾀｱｷﾀｼ","kana_address":"ｱﾆｺｳﾔ","pref":"秋田県","city":"北秋田市","address":"阿仁幸屋"},
{"zip_code":"0184742","kana_pref":"ｱｷﾀｹﾝ","kana_city":"ｷﾀｱｷﾀｼ","kana_address":"ｱﾆｺｳﾔﾜﾀﾘ","pref":"秋田県","city":"北秋田市","address":"阿仁幸屋渡"},
{"zip_code":"0184603","kana_pref":"ｱｷﾀｹﾝ","kana_city":"ｷﾀｱｷﾀｼ","kana_address":"ｱﾆｺｻﾞﾏ","pref":"秋田県","city":"北秋田市","address":"阿仁小様"},
{"zip_code":"0184622","kana_pref":"ｱｷﾀｹﾝ","kana_city":"ｷﾀｱｷﾀｼ","kana_address":"ｱﾆｺｻﾜｺｳｻﾞﾝ","pref":"秋田県","city":"北秋田市","address":"阿仁小沢鉱山"},
{"zip_code":"0184602","kana_pref":"ｱｷﾀｹﾝ","kana_city":"ｷﾀｱｷﾀｼ","kana_address":"ｱﾆｺﾌﾞﾁ","pref":"秋田県","city":"北秋田市","address":"阿仁小渕"},
{"zip_code":"0184604","kana_pref":"ｱｷﾀｹﾝ","kana_city":"ｷﾀｱｷﾀｼ","kana_address":"ｱﾆｻﾝﾏｲｺｳｻﾞﾝ","pref":"秋田県","city":"北秋田市","address":"阿仁三枚鉱山"},
{"zip_code":"0184733","kana_pref":"ｱｷﾀｹﾝ","kana_city":"ｷﾀｱｷﾀｼ","kana_address":"ｱﾆﾄﾄﾘﾅｲ","pref":"秋田県","city":"北秋田市","address":"阿仁戸鳥内"},
{"zip_code":"0184734","kana_pref":"ｱｷﾀｹﾝ","kana_city":"ｷﾀｱｷﾀｼ","kana_address":"ｱﾆﾅｶﾞﾊﾀｹ","pref":"秋田県","city":"北秋田市","address":"阿仁長畑"},
{"zip_code":"0184732","kana_pref":"ｱｷﾀｹﾝ","kana_city":"ｷﾀｱｷﾀｼ","kana_address":"ｱﾆﾅｶﾑﾗ","pref":"秋田県","city":"北秋田市","address":"阿仁中村"},
{"zip_code":"0184744","kana_pref":"ｱｷﾀｹﾝ","kana_city":"ｷﾀｱｷﾀｼ","kana_address":"ｱﾆﾈｯｺ","pref":"秋田県","city":"北秋田市","address":"阿仁根子"},
{"zip_code":"0184735","kana_pref":"ｱｷﾀｹﾝ","kana_city":"ｷﾀｱｷﾀｼ","kana_address":"ｱﾆﾋﾀﾁﾅｲ","pref":"秋田県","city":"北秋田市","address":"阿仁比立内"},
{"zip_code":"0184746","kana_pref":"ｱｷﾀｹﾝ","kana_city":"ｷﾀｱｷﾀｼ","kana_address":"ｱﾆﾌｼｶｹﾞ","pref":"秋田県","city":"北秋田市","address":"阿仁伏影"},
{"zip_code":"0184515","kana_pref":"ｱｷﾀｹﾝ","kana_city":"ｷﾀｱｷﾀｼ","kana_address":"ｱﾆﾏｴﾀﾞ","pref":"秋田県","city":"北秋田市","address":"阿仁前田"},
{"zip_code":"0184612","kana_pref":"ｱｷﾀｹﾝ","kana_city":"ｷﾀｱｷﾀｼ","kana_address":"ｱﾆﾏｷﾞｻﾜｺｳｻﾞﾝ","pref":"秋田県","city":"北秋田市","address":"阿仁真木沢鉱山"},
{"zip_code":"0184611","kana_pref":"ｱｷﾀｹﾝ","kana_city":"ｷﾀｱｷﾀｼ","kana_address":"ｱﾆﾐｽﾞﾅｼ","pref":"秋田県","city":"北秋田市","address":"阿仁水無"},
{"zip_code":"0184601","kana_pref":"ｱｷﾀｹﾝ","kana_city":"ｷﾀｱｷﾀｼ","kana_address":"ｱﾆﾖｼﾀﾞ","pref":"秋田県","city":"北秋田市","address":"阿仁吉田"},
{"zip_code":"0183314","kana_pref":"ｱｷﾀｹﾝ","kana_city":"ｷﾀｱｷﾀｼ","kana_address":"ｲｾﾁｮｳ","pref":"秋田県","city":"北秋田市","address":"伊勢町"},
{"zip_code":"0183343","kana_pref":"ｱｷﾀｹﾝ","kana_city":"ｷﾀｱｷﾀｼ","kana_address":"ｲﾏｲｽﾞﾐ","pref":"秋田県","city":"北秋田市","address":"今泉"},
{"zip_code":"0184302","kana_pref":"ｱｷﾀｹﾝ","kana_city":"ｷﾀｱｷﾀｼ","kana_address":"ｳﾗﾀ","pref":"秋田県","city":"北秋田市","address":"浦田"},
{"zip_code":"0183324","kana_pref":"ｱｷﾀｹﾝ","kana_city":"ｷﾀｱｷﾀｼ","kana_address":"ｵｵﾏﾁ","pref":"秋田県","city":"北秋田市","address":"大町"},
{"zip_code":"0184516","kana_pref":"ｱｷﾀｹﾝ","kana_city":"ｷﾀｱｷﾀｼ","kana_address":"ｶﾂﾗｾ","pref":"秋田県","city":"北秋田市","address":"桂瀬"},
{"zip_code":"0184251","kana_pref":"ｱｷﾀｹﾝ","kana_city":"ｷﾀｱｷﾀｼ","kana_address":"ｶﾏﾉｻﾜ","pref":"秋田県","city":"北秋田市","address":"鎌沢"},
{"zip_code":"0184231","kana_pref":"ｱｷﾀｹﾝ","kana_city":"ｷﾀｱｷﾀｼ","kana_address":"ｶﾐｽｷﾞ","pref":"秋田県","city":"北秋田市","address":"上杉"},
{"zip_code":"0184211","kana_pref":"ｱｷﾀｹﾝ","kana_city":"ｷﾀｱｷﾀｼ","kana_address":"ｶﾜｲ","pref":"秋田県","city":"北秋田市","address":"川井"},
{"zip_code":"0184203","kana_pref":"ｱｷﾀｹﾝ","kana_city":"ｷﾀｱｷﾀｼ","kana_address":"ｷﾄﾞｲｼ","pref":"秋田県","city":"北秋田市","address":"木戸石"},
{"zip_code":"0183341","kana_pref":"ｱｷﾀｹﾝ","kana_city":"ｷﾀｱｷﾀｼ","kana_address":"ｸﾛｻﾜ","pref":"秋田県","city":"北秋田市","address":"黒沢"},
{"zip_code":"0184513","kana_pref":"ｱｷﾀｹﾝ","kana_city":"ｷﾀｱｷﾀｼ","kana_address":"ｺﾏﾀ","pref":"秋田県","city":"北秋田市","address":"小又"},
{"zip_code":"0184514","kana_pref":"ｱｷﾀｹﾝ","kana_city":"ｷﾀｱｷﾀｼ","kana_address":"ｺﾞﾐﾎﾘ","pref":"秋田県","city":"北秋田市","address":"五味堀"},
{"zip_code":"0183451","kana_pref":"ｱｷﾀｹﾝ","kana_city":"ｷﾀｱｷﾀｼ","kana_address":"ｺﾓﾘ","pref":"秋田県","city":"北秋田市","address":"小森"},
{"zip_code":"0184273","kana_pref":"ｱｷﾀｹﾝ","kana_city":"ｷﾀｱｷﾀｼ","kana_address":"ｺﾝﾀﾞ","pref":"秋田県","city":"北秋田市","address":"根田"},
{"zip_code":"0183311","kana_pref":"ｱｷﾀｹﾝ","kana_city":"ｷﾀｱｷﾀｼ","kana_address":"ｻﾞｲﾓｸﾁｮｳ","pref":"秋田県","city":"北秋田市","address":"材木町"},
{"zip_code":"0183302","kana_pref":"ｱｷﾀｹﾝ","kana_city":"ｷﾀｱｷﾀｼ","kana_address":"ｻｶｴ","pref":"秋田県","city":"北秋田市","address":"栄"},
{"zip_code":"0184221","kana_pref":"ｱｷﾀｹﾝ","kana_city":"ｷﾀｱｷﾀｼ","kana_address":"ｼﾓｽｷﾞ","pref":"秋田県","city":"北秋田市","address":"下杉"},
{"zip_code":"0183322","kana_pref":"ｱｷﾀｹﾝ","kana_city":"ｷﾀｱｷﾀｼ","kana_address":"ｽﾐﾖｼﾁｮｳ","pref":"秋田県","city":"北秋田市","address":"住吉町"},
{"zip_code":"0184282","kana_pref":"ｱｷﾀｹﾝ","kana_city":"ｷﾀｱｷﾀｼ","kana_address":"ｽﾓﾓﾀﾞｲ","pref":"秋田県","city":"北秋田市","address":"李岱"},
{"zip_code":"0184261","kana_pref":"ｱｷﾀｹﾝ","kana_city":"ｷﾀｱｷﾀｼ","kana_address":"ｾﾘｻﾜ","pref":"秋田県","city":"北秋田市","address":"芹沢"},
{"zip_code":"0183332","kana_pref":"ｱｷﾀｹﾝ","kana_city":"ｷﾀｱｷﾀｼ","kana_address":"ﾀｶﾉｽ","pref":"秋田県","city":"北秋田市","address":"鷹巣"},
{"zip_code":"0183331","kana_pref":"ｱｷﾀｹﾝ","kana_city":"ｷﾀｱｷﾀｼ","kana_address":"ﾀｶﾉｽ","pref":"秋田県","city":"北秋田市","address":"鷹巣"},
{"zip_code":"0183301","kana_pref":"ｱｷﾀｹﾝ","kana_city":"ｷﾀｱｷﾀｼ","kana_address":"ﾂﾂﾞﾚｺ","pref":"秋田県","city":"北秋田市","address":"綴子"},
{"zip_code":"0184241","kana_pref":"ｱｷﾀｹﾝ","kana_city":"ｷﾀｱｷﾀｼ","kana_address":"ﾄﾞｳｼﾞｮｳ","pref":"秋田県","city":"北秋田市","address":"道城"},
{"zip_code":"0183453","kana_pref":"ｱｷﾀｹﾝ","kana_city":"ｷﾀｱｷﾀｼ","kana_address":"ﾅｶﾔｼｷ","pref":"秋田県","city":"北秋田市","address":"中屋敷"},
{"zip_code":"0183452","kana_pref":"ｱｷﾀｹﾝ","kana_city":"ｷﾀｱｷﾀｼ","kana_address":"ﾅﾇｶｲﾁ","pref":"秋田県","city":"北秋田市","address":"七日市"},
{"zip_code":"0184272","kana_pref":"ｱｷﾀｹﾝ","kana_city":"ｷﾀｱｷﾀｼ","kana_address":"ﾆｲﾀﾞﾒ","pref":"秋田県","city":"北秋田市","address":"新田目"},
{"zip_code":"0184512","kana_pref":"ｱｷﾀｹﾝ","kana_city":"ｷﾀｱｷﾀｼ","kana_address":"ﾈﾓﾘﾀ","pref":"秋田県","city":"北秋田市","address":"根森田"},
{"zip_code":"0184202","kana_pref":"ｱｷﾀｹﾝ","kana_city":"ｷﾀｱｷﾀｼ","kana_address":"ﾊﾁﾏﾝﾀｲｼﾝﾃﾞﾝ","pref":"秋田県","city":"北秋田市","address":"八幡岱新田"},
{"zip_code":"0183312","kana_pref":"ｱｷﾀｹﾝ","kana_city":"ｷﾀｱｷﾀｼ","kana_address":"ﾊﾅｿﾞﾉﾁｮｳ","pref":"秋田県","city":"北秋田市","address":"花園町"},
{"zip_code":"0184281","kana_pref":"ｱｷﾀｹﾝ","kana_city":"ｷﾀｱｷﾀｼ","kana_address":"ﾊﾈﾔﾏ","pref":"秋田県","city":"北秋田市","address":"羽根山"},
{"zip_code":"0183316","kana_pref":"ｱｷﾀｹﾝ","kana_city":"ｷﾀｱｷﾀｼ","kana_address":"ﾋｶﾞｼﾖｺﾏﾁ","pref":"秋田県","city":"北秋田市","address":"東横町"},
{"zip_code":"0184271","kana_pref":"ｱｷﾀｹﾝ","kana_city":"ｷﾀｱｷﾀｼ","kana_address":"ﾌｸﾀﾞ","pref":"秋田県","city":"北秋田市","address":"福田"},
{"zip_code":"0183333","kana_pref":"ｱｷﾀｹﾝ","kana_city":"ｷﾀｱｷﾀｼ","kana_address":"ﾎﾞｳｻﾞﾜ","pref":"秋田県","city":"北秋田市","address":"坊沢"},
{"zip_code":"0184303","kana_pref":"ｱｷﾀｹﾝ","kana_city":"ｷﾀｱｷﾀｼ","kana_address":"ﾎﾝｼﾞｮｳ","pref":"秋田県","city":"北秋田市","address":"本城"},
{"zip_code":"0183342","kana_pref":"ｱｷﾀｹﾝ","kana_city":"ｷﾀｱｷﾀｼ","kana_address":"ﾏｴﾔﾏ","pref":"秋田県","city":"北秋田市","address":"前山"},
{"zip_code":"0184201","kana_pref":"ｱｷﾀｹﾝ","kana_city":"ｷﾀｱｷﾀｼ","kana_address":"ﾏｽｻﾞﾜ","pref":"秋田県","city":"北秋田市","address":"増沢"},
{"zip_code":"0183321","kana_pref":"ｱｷﾀｹﾝ","kana_city":"ｷﾀｱｷﾀｼ","kana_address":"ﾏﾂﾊﾞﾁｮｳ","pref":"秋田県","city":"北秋田市","address":"松葉町"},
{"zip_code":"0184263","kana_pref":"ｱｷﾀｹﾝ","kana_city":"ｷﾀｱｷﾀｼ","kana_address":"ﾐﾂｷﾀ","pref":"秋田県","city":"北秋田市","address":"三木田"},
{"zip_code":"0184262","kana_pref":"ｱｷﾀｹﾝ","kana_city":"ｷﾀｱｷﾀｼ","kana_address":"ﾐｯｻﾄ","pref":"秋田県","city":"北秋田市","address":"三里"},
{"zip_code":"0183315","kana_pref":"ｱｷﾀｹﾝ","kana_city":"ｷﾀｱｷﾀｼ","kana_address":"ﾐﾔﾏｴﾁｮｳ","pref":"秋田県","city":"北秋田市","address":"宮前町"},
{"zip_code":"0183325","kana_pref":"ｱｷﾀｹﾝ","kana_city":"ｷﾀｱｷﾀｼ","kana_address":"ﾓﾄﾏﾁ","pref":"秋田県","city":"北秋田市","address":"元町"},
{"zip_code":"0184511","kana_pref":"ｱｷﾀｹﾝ","kana_city":"ｷﾀｱｷﾀｼ","kana_address":"ﾓﾘﾖｼ","pref":"秋田県","city":"北秋田市","address":"森吉"},
{"zip_code":"0184301","kana_pref":"ｱｷﾀｹﾝ","kana_city":"ｷﾀｱｷﾀｼ","kana_address":"ﾖﾅｲｻﾞﾜ","pref":"秋田県","city":"北秋田市","address":"米内沢"},
{"zip_code":"0183323","kana_pref":"ｱｷﾀｹﾝ","kana_city":"ｷﾀｱｷﾀｼ","kana_address":"ﾖﾈｼﾛﾁｮｳ","pref":"秋田県","city":"北秋田市","address":"米代町"},
{"zip_code":"0183454","kana_pref":"ｱｷﾀｹﾝ","kana_city":"ｷﾀｱｷﾀｼ","kana_address":"ﾜｷｶﾞﾐ","pref":"秋田県","city":"北秋田市","address":"脇神"},
{"zip_code":"0180400","kana_pref":"ｱｷﾀｹﾝ","kana_city":"ﾆｶﾎｼ","kana_address":"","pref":"秋田県","city":"にかほ市","address":""},
{"zip_code":"0180431","kana_pref":"ｱｷﾀｹﾝ","kana_city":"ﾆｶﾎｼ","kana_address":"ｲｾｲｼﾞ","pref":"秋田県","city":"にかほ市","address":"伊勢居地"},
{"zip_code":"0180411","kana_pref":"ｱｷﾀｹﾝ","kana_city":"ﾆｶﾎｼ","kana_address":"ｲﾝﾅｲ","pref":"秋田県","city":"にかほ市","address":"院内"},
{"zip_code":"0180322","kana_pref":"ｱｷﾀｹﾝ","kana_city":"ﾆｶﾎｼ","kana_address":"ｵｵﾀｹ","pref":"秋田県","city":"にかほ市","address":"大竹"},
{"zip_code":"0180412","kana_pref":"ｱｷﾀｹﾝ","kana_city":"ﾆｶﾎｼ","kana_address":"ｵｸﾞﾆ","pref":"秋田県","city":"にかほ市","address":"小国"},
{"zip_code":"0180421","kana_pref":"ｱｷﾀｹﾝ","kana_city":"ﾆｶﾎｼ","kana_address":"ｶﾏｶﾞﾀｲ","pref":"秋田県","city":"にかほ市","address":"釜ケ台"},
{"zip_code":"0180126","kana_pref":"ｱｷﾀｹﾝ","kana_city":"ﾆｶﾎｼ","kana_address":"ｷｻｶﾀﾏﾁ1ﾁｮｳﾒｼｵｺｼ","pref":"秋田県","city":"にかほ市","address":"象潟町１丁目塩越"},
{"zip_code":"0180118","kana_pref":"ｱｷﾀｹﾝ","kana_city":"ﾆｶﾎｼ","kana_address":"ｷｻｶﾀﾏﾁ2ﾁｮｳﾒｼｵｺｼ","pref":"秋田県","city":"にかほ市","address":"象潟町２丁目塩越"},
{"zip_code":"0180119","kana_pref":"ｱｷﾀｹﾝ","kana_city":"ﾆｶﾎｼ","kana_address":"ｷｻｶﾀﾏﾁ3ﾁｮｳﾒｼｵｺｼ","pref":"秋田県","city":"にかほ市","address":"象潟町３丁目塩越"},
{"zip_code":"0180116","kana_pref":"ｱｷﾀｹﾝ","kana_city":"ﾆｶﾎｼ","kana_address":"ｷｻｶﾀﾏﾁ4ﾁｮｳﾒｼｵｺｼ","pref":"秋田県","city":"にかほ市","address":"象潟町４丁目塩越"},
{"zip_code":"0180106","kana_pref":"ｱｷﾀｹﾝ","kana_city":"ﾆｶﾎｼ","kana_address":"ｷｻｶﾀﾏﾁ5ﾁｮｳﾒｼｵｺｼ","pref":"秋田県","city":"にかほ市","address":"象潟町５丁目塩越"},
{"zip_code":"0180135","kana_pref":"ｱｷﾀｹﾝ","kana_city":"ﾆｶﾎｼ","kana_address":"ｷｻｶﾀﾏﾁｱﾗｲｶﾞﾏ","pref":"秋田県","city":"にかほ市","address":"象潟町洗釜"},
{"zip_code":"0180107","kana_pref":"ｱｷﾀｹﾝ","kana_city":"ﾆｶﾎｼ","kana_address":"ｷｻｶﾀﾏﾁｱﾗﾔｼﾀ","pref":"秋田県","city":"にかほ市","address":"象潟町荒屋下"},
{"zip_code":"0180105","kana_pref":"ｱｷﾀｹﾝ","kana_city":"ﾆｶﾎｼ","kana_address":"ｷｻｶﾀﾏﾁｱﾗﾔﾂﾞﾏ","pref":"秋田県","city":"にかほ市","address":"象潟町荒屋妻"},
{"zip_code":"0180112","kana_pref":"ｱｷﾀｹﾝ","kana_city":"ﾆｶﾎｼ","kana_address":"ｷｻｶﾀﾏﾁｲｴﾉｳｼﾛ","pref":"秋田県","city":"にかほ市","address":"象潟町家の後"},
{"zip_code":"0180108","kana_pref":"ｱｷﾀｹﾝ","kana_city":"ﾆｶﾎｼ","kana_address":"ｷｻｶﾀﾏﾁｲﾘｺﾉﾏ","pref":"秋田県","city":"にかほ市","address":"象潟町入湖の澗"},
{"zip_code":"0180115","kana_pref":"ｱｷﾀｹﾝ","kana_city":"ﾆｶﾎｼ","kana_address":"ｷｻｶﾀﾏﾁｳｼﾛﾀﾞ","pref":"秋田県","city":"にかほ市","address":"象潟町後田"},
{"zip_code":"0180136","kana_pref":"ｱｷﾀｹﾝ","kana_city":"ﾆｶﾎｼ","kana_address":"ｷｻｶﾀﾏﾁｵｵｻｶﾞﾜ","pref":"秋田県","city":"にかほ市","address":"象潟町大砂川"},
{"zip_code":"0180121","kana_pref":"ｱｷﾀｹﾝ","kana_city":"ﾆｶﾎｼ","kana_address":"ｷｻｶﾀﾏﾁｵｵｼｵｺｼ","pref":"秋田県","city":"にかほ市","address":"象潟町大塩越"},
{"zip_code":"0180142","kana_pref":"ｱｷﾀｹﾝ","kana_city":"ﾆｶﾎｼ","kana_address":"ｷｻｶﾀﾏﾁｵｵｽｺﾞｳ","pref":"秋田県","city":"にかほ市","address":"象潟町大須郷"},
{"zip_code":"0180162","kana_pref":"ｱｷﾀｹﾝ","kana_city":"ﾆｶﾎｼ","kana_address":"ｷｻｶﾀﾏﾁｵｵﾓﾘ","pref":"秋田県","city":"にかほ市","address":"象潟町大森"},
{"zip_code":"0180131","kana_pref":"ｱｷﾀｹﾝ","kana_city":"ﾆｶﾎｼ","kana_address":"ｷｻｶﾀﾏﾁｵｵﾔﾁ","pref":"秋田県","city":"にかほ市","address":"象潟町大谷地"},
{"zip_code":"0180114","kana_pref":"ｱｷﾀｹﾝ","kana_city":"ﾆｶﾎｼ","kana_address":"ｷｻｶﾀﾏﾁｵｷﾉﾀ","pref":"秋田県","city":"にかほ市","address":"象潟町沖の田"},
{"zip_code":"0180146","kana_pref":"ｱｷﾀｹﾝ","kana_city":"ﾆｶﾎｼ","kana_address":"ｷｻｶﾀﾏﾁｶﾊﾞﾔﾁ","pref":"秋田県","city":"にかほ市","address":"象潟町蒲谷池"},
{"zip_code":"0180103","kana_pref":"ｱｷﾀｹﾝ","kana_city":"ﾆｶﾎｼ","kana_address":"ｷｻｶﾀﾏﾁｶﾐｷﾂﾈﾓﾘ","pref":"秋田県","city":"にかほ市","address":"象潟町上狐森"},
{"zip_code":"0180184","kana_pref":"ｱｷﾀｹﾝ","kana_city":"ﾆｶﾎｼ","kana_address":"ｷｻｶﾀﾏﾁｶﾐｺｻｶ","pref":"秋田県","city":"にかほ市","address":"象潟町上小坂"},
{"zip_code":"0180188","kana_pref":"ｱｷﾀｹﾝ","kana_city":"ﾆｶﾎｼ","kana_address":"ｷｻｶﾀﾏﾁｶﾗｽｼﾞﾏ","pref":"秋田県","city":"にかほ市","address":"象潟町烏島"},
{"zip_code":"0180141","kana_pref":"ｱｷﾀｹﾝ","kana_city":"ﾆｶﾎｼ","kana_address":"ｷｻｶﾀﾏﾁｶﾜﾌｸﾛ","pref":"秋田県","city":"にかほ市","address":"象潟町川袋"},
{"zip_code":"0180109","kana_pref":"ｱｷﾀｹﾝ","kana_city":"ﾆｶﾎｼ","kana_address":"ｷｻｶﾀﾏﾁｶﾝﾑﾘｲｼｼﾀ","pref":"秋田県","city":"にかほ市","address":"象潟町冠石下"},
{"zip_code":"0180122","kana_pref":"ｱｷﾀｹﾝ","kana_city":"ﾆｶﾎｼ","kana_address":"ｷｻｶﾀﾏﾁｷｻｶﾀｼﾞﾏ","pref":"秋田県","city":"にかほ市","address":"象潟町象潟島"},
{"zip_code":"0180104","kana_pref":"ｱｷﾀｹﾝ","kana_city":"ﾆｶﾎｼ","kana_address":"ｷｻｶﾀﾏﾁｷﾂﾈﾓﾘ","pref":"秋田県","city":"にかほ市","address":"象潟町狐森"},
{"zip_code":"0180102","kana_pref":"ｱｷﾀｹﾝ","kana_city":"ﾆｶﾎｼ","kana_address":"ｷｻｶﾀﾏﾁｷﾄﾞｸﾞﾁ","pref":"秋田県","city":"にかほ市","address":"象潟町木戸口"},
{"zip_code":"0180145","kana_pref":"ｱｷﾀｹﾝ","kana_city":"ﾆｶﾎｼ","kana_address":"ｷｻｶﾀﾏﾁｹﾞﾝｿﾞｳｶﾞﾀ","pref":"秋田県","city":"にかほ市","address":"象潟町源蔵潟"},
{"zip_code":"0180187","kana_pref":"ｱｷﾀｹﾝ","kana_city":"ﾆｶﾎｼ","kana_address":"ｷｻｶﾀﾏﾁｺｶﾞﾗｽｼﾞﾏ","pref":"秋田県","city":"にかほ市","address":"象潟町小烏島"},
{"zip_code":"0180172","kana_pref":"ｱｷﾀｹﾝ","kana_city":"ﾆｶﾎｼ","kana_address":"ｷｻｶﾀﾏﾁｺｻｲﾉｶﾐ","pref":"秋田県","city":"にかほ市","address":"象潟町小才の神"},
{"zip_code":"0180183","kana_pref":"ｱｷﾀｹﾝ","kana_city":"ﾆｶﾎｼ","kana_address":"ｷｻｶﾀﾏﾁｺｻｶ","pref":"秋田県","city":"にかほ市","address":"象潟町小坂"},
{"zip_code":"0180143","kana_pref":"ｱｷﾀｹﾝ","kana_city":"ﾆｶﾎｼ","kana_address":"ｷｻｶﾀﾏﾁｺｻｶﾞﾜ","pref":"秋田県","city":"にかほ市","address":"象潟町小砂川"},
{"zip_code":"0180153","kana_pref":"ｱｷﾀｹﾝ","kana_city":"ﾆｶﾎｼ","kana_address":"ｷｻｶﾀﾏﾁｺﾀﾞｷ","pref":"秋田県","city":"にかほ市","address":"象潟町小滝"},
{"zip_code":"0180158","kana_pref":"ｱｷﾀｹﾝ","kana_city":"ﾆｶﾎｼ","kana_address":"ｷｻｶﾀﾏﾁｺﾄﾜｷ","pref":"秋田県","city":"にかほ市","address":"象潟町琴和喜"},
{"zip_code":"0180129","kana_pref":"ｱｷﾀｹﾝ","kana_city":"ﾆｶﾎｼ","kana_address":"ｷｻｶﾀﾏﾁｻｲﾉｶﾐ","pref":"秋田県","city":"にかほ市","address":"象潟町才の神"},
{"zip_code":"0180175","kana_pref":"ｱｷﾀｹﾝ","kana_city":"ﾆｶﾎｼ","kana_address":"ｷｻｶﾀﾏﾁｻｶﾉｼﾀ","pref":"秋田県","city":"にかほ市","address":"象潟町坂の下"},
{"zip_code":"0180148","kana_pref":"ｱｷﾀｹﾝ","kana_city":"ﾆｶﾎｼ","kana_address":"ｷｻｶﾀﾏﾁｼﾓﾊﾏﾔﾏ","pref":"秋田県","city":"にかほ市","address":"象潟町下浜山"},
{"zip_code":"0180181","kana_pref":"ｱｷﾀｹﾝ","kana_city":"ﾆｶﾎｼ","kana_address":"ｷｻｶﾀﾏﾁｼﾗﾔﾏﾄﾞｳ","pref":"秋田県","city":"にかほ市","address":"象潟町白山堂"},
{"zip_code":"0180133","kana_pref":"ｱｷﾀｹﾝ","kana_city":"ﾆｶﾎｼ","kana_address":"ｷｻｶﾀﾏﾁｾｷ","pref":"秋田県","city":"にかほ市","address":"象潟町関"},
{"zip_code":"0180161","kana_pref":"ｱｷﾀｹﾝ","kana_city":"ﾆｶﾎｼ","kana_address":"ｷｻｶﾀﾏﾁﾀﾞｲﾊﾝｺﾞｳ","pref":"秋田県","city":"にかほ市","address":"象潟町大飯郷"},
{"zip_code":"0180156","kana_pref":"ｱｷﾀｹﾝ","kana_city":"ﾆｶﾎｼ","kana_address":"ｷｻｶﾀﾏﾁﾀﾞｲﾓﾝｻﾞｷ","pref":"秋田県","city":"にかほ市","address":"象潟町大門先"},
{"zip_code":"0180166","kana_pref":"ｱｷﾀｹﾝ","kana_city":"ﾆｶﾎｼ","kana_address":"ｷｻｶﾀﾏﾁﾀｶﾀﾞ","pref":"秋田県","city":"にかほ市","address":"象潟町高田"},
{"zip_code":"0180157","kana_pref":"ｱｷﾀｹﾝ","kana_city":"ﾆｶﾎｼ","kana_address":"ｷｻｶﾀﾏﾁﾀｶﾊﾅｼ","pref":"秋田県","city":"にかほ市","address":"象潟町鷹放"},
{"zip_code":"0180147","kana_pref":"ｱｷﾀｹﾝ","kana_city":"ﾆｶﾎｼ","kana_address":"ｷｻｶﾀﾏﾁﾀﾃｲｼ","pref":"秋田県","city":"にかほ市","address":"象潟町立石"},
{"zip_code":"0180165","kana_pref":"ｱｷﾀｹﾝ","kana_city":"ﾆｶﾎｼ","kana_address":"ｷｻｶﾀﾏﾁﾀﾇｷﾓﾘ","pref":"秋田県","city":"にかほ市","address":"象潟町狸森"},
{"zip_code":"0180167","kana_pref":"ｱｷﾀｹﾝ","kana_city":"ﾆｶﾎｼ","kana_address":"ｷｻｶﾀﾏﾁﾀﾉｶﾐ","pref":"秋田県","city":"にかほ市","address":"象潟町田の神"},
{"zip_code":"0180128","kana_pref":"ｱｷﾀｹﾝ","kana_city":"ﾆｶﾎｼ","kana_address":"ｷｻｶﾀﾏﾁﾀﾛｳｼﾞﾏ","pref":"秋田県","city":"にかほ市","address":"象潟町太郎島"},
{"zip_code":"0180171","kana_pref":"ｱｷﾀｹﾝ","kana_city":"ﾆｶﾎｼ","kana_address":"ｷｻｶﾀﾏﾁﾂﾂﾞｷｼﾞﾏ","pref":"秋田県","city":"にかほ市","address":"象潟町続島"},
{"zip_code":"0180132","kana_pref":"ｱｷﾀｹﾝ","kana_city":"ﾆｶﾎｼ","kana_address":"ｷｻｶﾀﾏﾁﾄﾘﾉｳﾐ","pref":"秋田県","city":"にかほ市","address":"象潟町鳥の海"},
{"zip_code":"0180163","kana_pref":"ｱｷﾀｹﾝ","kana_city":"ﾆｶﾎｼ","kana_address":"ｷｻｶﾀﾏﾁﾅｶﾞｵｶ","pref":"秋田県","city":"にかほ市","address":"象潟町長岡"},
{"zip_code":"0180127","kana_pref":"ｱｷﾀｹﾝ","kana_city":"ﾆｶﾎｼ","kana_address":"ｷｻｶﾀﾏﾁﾅｶﾊﾞｼﾏﾁ","pref":"秋田県","city":"にかほ市","address":"象潟町中橋町"},
{"zip_code":"0180144","kana_pref":"ｱｷﾀｹﾝ","kana_city":"ﾆｶﾎｼ","kana_address":"ｷｻｶﾀﾏﾁﾅｶﾔﾁ","pref":"秋田県","city":"にかほ市","address":"象潟町中谷地"},
{"zip_code":"0180154","kana_pref":"ｱｷﾀｹﾝ","kana_city":"ﾆｶﾎｼ","kana_address":"ｷｻｶﾀﾏﾁﾆｶｲﾔﾁ","pref":"秋田県","city":"にかほ市","address":"象潟町二階谷地"},
{"zip_code":"0180134","kana_pref":"ｱｷﾀｹﾝ","kana_city":"ﾆｶﾎｼ","kana_address":"ｷｻｶﾀﾏﾁﾆｼﾅｶﾉｻﾜ","pref":"秋田県","city":"にかほ市","address":"象潟町西中野沢"},
{"zip_code":"0180125","kana_pref":"ｱｷﾀｹﾝ","kana_city":"ﾆｶﾎｼ","kana_address":"ｷｻｶﾀﾏﾁﾆﾉﾏﾙ","pref":"秋田県","city":"にかほ市","address":"象潟町二の丸"},
{"zip_code":"0180124","kana_pref":"ｱｷﾀｹﾝ","kana_city":"ﾆｶﾎｼ","kana_address":"ｷｻｶﾀﾏﾁﾆｭｳﾄﾞｳｼﾞﾏ","pref":"秋田県","city":"にかほ市","address":"象潟町入道島"},
{"zip_code":"0180186","kana_pref":"ｱｷﾀｹﾝ","kana_city":"ﾆｶﾎｼ","kana_address":"ｷｻｶﾀﾏﾁﾉｳｲﾝｼﾞﾏ","pref":"秋田県","city":"にかほ市","address":"象潟町能因島"},
{"zip_code":"0180113","kana_pref":"ｱｷﾀｹﾝ","kana_city":"ﾆｶﾎｼ","kana_address":"ｷｻｶﾀﾏﾁﾊﾏﾉﾀ","pref":"秋田県","city":"にかほ市","address":"象潟町浜の田"},
{"zip_code":"0180117","kana_pref":"ｱｷﾀｹﾝ","kana_city":"ﾆｶﾎｼ","kana_address":"ｷｻｶﾀﾏﾁﾊﾏﾊﾀ","pref":"秋田県","city":"にかほ市","address":"象潟町浜畑"},
{"zip_code":"0180101","kana_pref":"ｱｷﾀｹﾝ","kana_city":"ﾆｶﾎｼ","kana_address":"ｷｻｶﾀﾏﾁﾊﾏﾔﾏ","pref":"秋田県","city":"にかほ市","address":"象潟町浜山"},
{"zip_code":"0180174","kana_pref":"ｱｷﾀｹﾝ","kana_city":"ﾆｶﾎｼ","kana_address":"ｷｻｶﾀﾏﾁﾊﾔｼﾉｼﾀ","pref":"秋田県","city":"にかほ市","address":"象潟町林の下"},
{"zip_code":"0180182","kana_pref":"ｱｷﾀｹﾝ","kana_city":"ﾆｶﾎｼ","kana_address":"ｷｻｶﾀﾏﾁﾌﾄﾞｳｻﾜ","pref":"秋田県","city":"にかほ市","address":"象潟町不動沢"},
{"zip_code":"0180111","kana_pref":"ｱｷﾀｹﾝ","kana_city":"ﾆｶﾎｼ","kana_address":"ｷｻｶﾀﾏﾁﾌﾞﾄﾞｳｼﾞﾏ","pref":"秋田県","city":"にかほ市","address":"象潟町武道島"},
{"zip_code":"0180155","kana_pref":"ｱｷﾀｹﾝ","kana_city":"ﾆｶﾎｼ","kana_address":"ｷｻｶﾀﾏﾁﾍﾞﾝﾃﾝｼﾞﾏ","pref":"秋田県","city":"にかほ市","address":"象潟町弁天島"},
{"zip_code":"0180152","kana_pref":"ｱｷﾀｹﾝ","kana_city":"ﾆｶﾎｼ","kana_address":"ｷｻｶﾀﾏﾁﾎﾝｺﾞｳ","pref":"秋田県","city":"にかほ市","address":"象潟町本郷"},
{"zip_code":"0180164","kana_pref":"ｱｷﾀｹﾝ","kana_city":"ﾆｶﾎｼ","kana_address":"ｷｻｶﾀﾏﾁﾏﾙﾔﾏ","pref":"秋田県","city":"にかほ市","address":"象潟町丸山"},
{"zip_code":"0180123","kana_pref":"ｱｷﾀｹﾝ","kana_city":"ﾆｶﾎｼ","kana_address":"ｷｻｶﾀﾏﾁﾐｮｳｹﾝｼﾀ","pref":"秋田県","city":"にかほ市","address":"象潟町妙見下"},
{"zip_code":"0180185","kana_pref":"ｱｷﾀｹﾝ","kana_city":"ﾆｶﾎｼ","kana_address":"ｷｻｶﾀﾏﾁﾔｼｷﾀﾞ","pref":"秋田県","city":"にかほ市","address":"象潟町屋敷田"},
{"zip_code":"0180151","kana_pref":"ｱｷﾀｹﾝ","kana_city":"ﾆｶﾎｼ","kana_address":"ｷｻｶﾀﾏﾁﾖｺｵｶ","pref":"秋田県","city":"にかほ市","address":"象潟町横岡"},
{"zip_code":"0180176","kana_pref":"ｱｷﾀｹﾝ","kana_city":"ﾆｶﾎｼ","kana_address":"ｷｻｶﾀﾏﾁﾖｺﾔﾏ","pref":"秋田県","city":"にかほ市","address":"象潟町横山"},
{"zip_code":"0180173","kana_pref":"ｱｷﾀｹﾝ","kana_city":"ﾆｶﾎｼ","kana_address":"ｷｻｶﾀﾏﾁﾖｽﾐｲｹ","pref":"秋田県","city":"にかほ市","address":"象潟町四隅池"},
{"zip_code":"0180302","kana_pref":"ｱｷﾀｹﾝ","kana_city":"ﾆｶﾎｼ","kana_address":"ｸﾛｶﾜ","pref":"秋田県","city":"にかほ市","address":"黒川"},
{"zip_code":"0180311","kana_pref":"ｱｷﾀｹﾝ","kana_city":"ﾆｶﾎｼ","kana_address":"ｺﾉｳﾗ","pref":"秋田県","city":"にかほ市","address":"金浦"},
{"zip_code":"0180404","kana_pref":"ｱｷﾀｹﾝ","kana_city":"ﾆｶﾎｼ","kana_address":"ｾﾘﾀﾞ","pref":"秋田県","city":"にかほ市","address":"芹田"},
{"zip_code":"0180414","kana_pref":"ｱｷﾀｹﾝ","kana_city":"ﾆｶﾎｼ","kana_address":"ﾀﾂﾞｶﾐ","pref":"秋田県","city":"にかほ市","address":"田抓"},
{"zip_code":"0180434","kana_pref":"ｱｷﾀｹﾝ","kana_city":"ﾆｶﾎｼ","kana_address":"ﾃﾗﾀﾞ","pref":"秋田県","city":"にかほ市","address":"寺田"},
{"zip_code":"0180422","kana_pref":"ｱｷﾀｹﾝ","kana_city":"ﾆｶﾎｼ","kana_address":"ﾄｳｼ","pref":"秋田県","city":"にかほ市","address":"冬師"},
{"zip_code":"0180301","kana_pref":"ｱｷﾀｹﾝ","kana_city":"ﾆｶﾎｼ","kana_address":"ﾄﾋﾞ","pref":"秋田県","city":"にかほ市","address":"飛"},
{"zip_code":"0180435","kana_pref":"ｱｷﾀｹﾝ","kana_city":"ﾆｶﾎｼ","kana_address":"ﾅｶｻﾝﾁ","pref":"秋田県","city":"にかほ市","address":"中三地"},
{"zip_code":"0180433","kana_pref":"ｱｷﾀｹﾝ","kana_city":"ﾆｶﾎｼ","kana_address":"ﾊﾀ","pref":"秋田県","city":"にかほ市","address":"畑"},
{"zip_code":"0180413","kana_pref":"ｱｷﾀｹﾝ","kana_city":"ﾆｶﾎｼ","kana_address":"ﾊﾞﾊﾞ","pref":"秋田県","city":"にかほ市","address":"馬場"},
{"zip_code":"0180436","kana_pref":"ｱｷﾀｹﾝ","kana_city":"ﾆｶﾎｼ","kana_address":"ﾋﾒﾉ","pref":"秋田県","city":"にかほ市","address":"樋目野"},
{"zip_code":"0180402","kana_pref":"ｱｷﾀｹﾝ","kana_city":"ﾆｶﾎｼ","kana_address":"ﾋﾗｻﾜ","pref":"秋田県","city":"にかほ市","address":"平沢"},
{"zip_code":"0180321","kana_pref":"ｱｷﾀｹﾝ","kana_city":"ﾆｶﾎｼ","kana_address":"ﾏｴｶﾜ","pref":"秋田県","city":"にかほ市","address":"前川"},
{"zip_code":"0180432","kana_pref":"ｱｷﾀｹﾝ","kana_city":"ﾆｶﾎｼ","kana_address":"ﾐｽﾞｻﾜ","pref":"秋田県","city":"にかほ市","address":"水沢"},
{"zip_code":"0180403","kana_pref":"ｱｷﾀｹﾝ","kana_city":"ﾆｶﾎｼ","kana_address":"ﾐﾂﾓﾘ","pref":"秋田県","city":"にかほ市","address":"三森"},
{"zip_code":"0180401","kana_pref":"ｱｷﾀｹﾝ","kana_city":"ﾆｶﾎｼ","kana_address":"ﾘｮｳｾﾞﾝｼﾞ","pref":"秋田県","city":"にかほ市","address":"両前寺"},
{"zip_code":"0185511","kana_pref":"ｱｷﾀｹﾝ","kana_city":"ｶﾂﾞﾉｸﾞﾝｺｻｶﾏﾁ","kana_address":"ﾄﾜﾀﾞｺ","pref":"秋田県","city":"鹿角郡小坂町","address":"十和田湖"},
{"zip_code":"0184400","kana_pref":"ｱｷﾀｹﾝ","kana_city":"ｷﾀｱｷﾀｸﾞﾝｶﾐｺｱﾆﾑﾗ","kana_address":"","pref":"秋田県","city":"北秋田郡上小阿仁村","address":""},
{"zip_code":"0184431","kana_pref":"ｱｷﾀｹﾝ","kana_city":"ｷﾀｱｷﾀｸﾞﾝｶﾐｺｱﾆﾑﾗ","kana_address":"ｵｵﾊﾞﾔｼ","pref":"秋田県","city":"北秋田郡上小阿仁村","address":"大林"},
{"zip_code":"0184401","kana_pref":"ｱｷﾀｹﾝ","kana_city":"ｷﾀｱｷﾀｸﾞﾝｶﾐｺｱﾆﾑﾗ","kana_address":"ｵｷﾀｵﾓﾃ","pref":"秋田県","city":"北秋田郡上小阿仁村","address":"沖田面"},
{"zip_code":"0184421","kana_pref":"ｱｷﾀｹﾝ","kana_city":"ｷﾀｱｷﾀｸﾞﾝｶﾐｺｱﾆﾑﾗ","kana_address":"ｺｻﾜﾀﾞ","pref":"秋田県","city":"北秋田郡上小阿仁村","address":"小沢田"},
{"zip_code":"0184412","kana_pref":"ｱｷﾀｹﾝ","kana_city":"ｷﾀｱｷﾀｸﾞﾝｶﾐｺｱﾆﾑﾗ","kana_address":"ｺﾞﾀﾝｻﾞﾜ","pref":"秋田県","city":"北秋田郡上小阿仁村","address":"五反沢"},
{"zip_code":"0184413","kana_pref":"ｱｷﾀｹﾝ","kana_city":"ｷﾀｱｷﾀｸﾞﾝｶﾐｺｱﾆﾑﾗ","kana_address":"ｽｷﾞﾊﾅ","pref":"秋田県","city":"北秋田郡上小阿仁村","address":"杉花"},
{"zip_code":"0184422","kana_pref":"ｱｷﾀｹﾝ","kana_city":"ｷﾀｱｷﾀｸﾞﾝｶﾐｺｱﾆﾑﾗ","kana_address":"ﾄﾞｳｶﾞﾜ","pref":"秋田県","city":"北秋田郡上小阿仁村","address":"堂川"},
{"zip_code":"0184411","kana_pref":"ｱｷﾀｹﾝ","kana_city":"ｷﾀｱｷﾀｸﾞﾝｶﾐｺｱﾆﾑﾗ","kana_address":"ﾌｸﾀﾞﾃ","pref":"秋田県","city":"北秋田郡上小阿仁村","address":"福舘"},
{"zip_code":"0184423","kana_pref":"ｱｷﾀｹﾝ","kana_city":"ｷﾀｱｷﾀｸﾞﾝｶﾐｺｱﾆﾑﾗ","kana_address":"ﾌﾞｯｼｬ","pref":"秋田県","city":"北秋田郡上小阿仁村","address":"仏社"},
{"zip_code":"0184432","kana_pref":"ｱｷﾀｹﾝ","kana_city":"ｷﾀｱｷﾀｸﾞﾝｶﾐｺｱﾆﾑﾗ","kana_address":"ﾐﾅﾐｻﾞﾜ","pref":"秋田県","city":"北秋田郡上小阿仁村","address":"南沢"},
{"zip_code":"0183200","kana_pref":"ｱｷﾀｹﾝ","kana_city":"ﾔﾏﾓﾄｸﾞﾝﾌｼﾞｻﾄﾏﾁ","kana_address":"","pref":"秋田県","city":"山本郡藤里町","address":""},
{"zip_code":"0183203","kana_pref":"ｱｷﾀｹﾝ","kana_city":"ﾔﾏﾓﾄｸﾞﾝﾌｼﾞｻﾄﾏﾁ","kana_address":"ｵｵｻﾜ","pref":"秋田県","city":"山本郡藤里町","address":"大沢"},
{"zip_code":"0183205","kana_pref":"ｱｷﾀｹﾝ","kana_city":"ﾔﾏﾓﾄｸﾞﾝﾌｼﾞｻﾄﾏﾁ","kana_address":"ｶｽｹﾞ","pref":"秋田県","city":"山本郡藤里町","address":"粕毛"},
{"zip_code":"0183202","kana_pref":"ｱｷﾀｹﾝ","kana_city":"ﾔﾏﾓﾄｸﾞﾝﾌｼﾞｻﾄﾏﾁ","kana_address":"ﾀﾞｲﾗ","pref":"秋田県","city":"山本郡藤里町","address":"太良"},
{"zip_code":"0183201","kana_pref":"ｱｷﾀｹﾝ","kana_city":"ﾔﾏﾓﾄｸﾞﾝﾌｼﾞｻﾄﾏﾁ","kana_address":"ﾌｼﾞｺﾄ","pref":"秋田県","city":"山本郡藤里町","address":"藤琴"},
{"zip_code":"0183204","kana_pref":"ｱｷﾀｹﾝ","kana_city":"ﾔﾏﾓﾄｸﾞﾝﾌｼﾞｻﾄﾏﾁ","kana_address":"ﾔｻｶ","pref":"秋田県","city":"山本郡藤里町","address":"矢坂"},
{"zip_code":"0182400","kana_pref":"ｱｷﾀｹﾝ","kana_city":"ﾔﾏﾓﾄｸﾞﾝﾐﾀﾈﾁｮｳ","kana_address":"","pref":"秋田県","city":"山本郡三種町","address":""},
{"zip_code":"0182405","kana_pref":"ｱｷﾀｹﾝ","kana_city":"ﾔﾏﾓﾄｸﾞﾝﾐﾀﾈﾁｮｳ","kana_address":"ｱｼｻﾞｷ","pref":"秋田県","city":"山本郡三種町","address":"芦崎"},
{"zip_code":"0182102","kana_pref":"ｱｷﾀｹﾝ","kana_city":"ﾔﾏﾓﾄｸﾞﾝﾐﾀﾈﾁｮｳ","kana_address":"ｱﾏｾｶﾞﾜ","pref":"秋田県","city":"山本郡三種町","address":"天瀬川"},
{"zip_code":"0182401","kana_pref":"ｱｷﾀｹﾝ","kana_city":"ﾔﾏﾓﾄｸﾞﾝﾐﾀﾈﾁｮｳ","kana_address":"ｳｶﾜ","pref":"秋田県","city":"山本郡三種町","address":"鵜川"},
{"zip_code":"0182406","kana_pref":"ｱｷﾀｹﾝ","kana_city":"ﾔﾏﾓﾄｸﾞﾝﾐﾀﾈﾁｮｳ","kana_address":"ｵｵｸﾁ","pref":"秋田県","city":"山本郡三種町","address":"大口"},
{"zip_code":"0182104","kana_pref":"ｱｷﾀｹﾝ","kana_city":"ﾔﾏﾓﾄｸﾞﾝﾐﾀﾈﾁｮｳ","kana_address":"ｶﾄﾞ","pref":"秋田県","city":"山本郡三種町","address":"鹿渡"},
{"zip_code":"0182101","kana_pref":"ｱｷﾀｹﾝ","kana_city":"ﾔﾏﾓﾄｸﾞﾝﾐﾀﾈﾁｮｳ","kana_address":"ｶﾐｲﾜｶﾜ","pref":"秋田県","city":"山本郡三種町","address":"上岩川"},
{"zip_code":"0182402","kana_pref":"ｱｷﾀｹﾝ","kana_city":"ﾔﾏﾓﾄｸﾞﾝﾐﾀﾈﾁｮｳ","kana_address":"ｶﾜｼﾘ","pref":"秋田県","city":"山本郡三種町","address":"川尻"},
{"zip_code":"0182403","kana_pref":"ｱｷﾀｹﾝ","kana_city":"ﾔﾏﾓﾄｸﾞﾝﾐﾀﾈﾁｮｳ","kana_address":"ｸﾒｵｶｼﾝﾃﾞﾝ","pref":"秋田県","city":"山本郡三種町","address":"久米岡新田"},
{"zip_code":"0182103","kana_pref":"ｱｷﾀｹﾝ","kana_city":"ﾔﾏﾓﾄｸﾞﾝﾐﾀﾈﾁｮｳ","kana_address":"ｺｲｶﾜ","pref":"秋田県","city":"山本郡三種町","address":"鯉川"},
{"zip_code":"0182301","kana_pref":"ｱｷﾀｹﾝ","kana_city":"ﾔﾏﾓﾄｸﾞﾝﾐﾀﾈﾁｮｳ","kana_address":"ｼﾄﾊﾞｼ","pref":"秋田県","city":"山本郡三種町","address":"志戸橋"},
{"zip_code":"0182302","kana_pref":"ｱｷﾀｹﾝ","kana_city":"ﾔﾏﾓﾄｸﾞﾝﾐﾀﾈﾁｮｳ","kana_address":"ｼﾓｲﾜｶﾜ","pref":"秋田県","city":"山本郡三種町","address":"下岩川"},
{"zip_code":"0182305","kana_pref":"ｱｷﾀｹﾝ","kana_city":"ﾔﾏﾓﾄｸﾞﾝﾐﾀﾈﾁｮｳ","kana_address":"ｿﾄｵｶ","pref":"秋田県","city":"山本郡三種町","address":"外岡"},
{"zip_code":"0182404","kana_pref":"ｱｷﾀｹﾝ","kana_city":"ﾔﾏﾓﾄｸﾞﾝﾐﾀﾈﾁｮｳ","kana_address":"ﾄﾐｵｶｼﾝﾃﾞﾝ","pref":"秋田県","city":"山本郡三種町","address":"富岡新田"},
{"zip_code":"0182304","kana_pref":"ｱｷﾀｹﾝ","kana_city":"ﾔﾏﾓﾄｸﾞﾝﾐﾀﾈﾁｮｳ","kana_address":"ﾄﾖｵｶｷﾝﾃﾞﾝ","pref":"秋田県","city":"山本郡三種町","address":"豊岡金田"},
{"zip_code":"0182407","kana_pref":"ｱｷﾀｹﾝ","kana_city":"ﾔﾏﾓﾄｸﾞﾝﾐﾀﾈﾁｮｳ","kana_address":"ﾊﾏﾀﾞ","pref":"秋田県","city":"山本郡三種町","address":"浜田"},
{"zip_code":"0182303","kana_pref":"ｱｷﾀｹﾝ","kana_city":"ﾔﾏﾓﾄｸﾞﾝﾐﾀﾈﾁｮｳ","kana_address":"ﾓﾘﾀｹ","pref":"秋田県","city":"山本郡三種町","address":"森岳"},
{"zip_code":"0182500","kana_pref":"ｱｷﾀｹﾝ","kana_city":"ﾔﾏﾓﾄｸﾞﾝﾊｯﾎﾟｳﾁｮｳ","kana_address":"","pref":"秋田県","city":"山本郡八峰町","address":""},
{"zip_code":"0182637","kana_pref":"ｱｷﾀｹﾝ","kana_city":"ﾔﾏﾓﾄｸﾞﾝﾊｯﾎﾟｳﾁｮｳ","kana_address":"ﾊﾁﾓﾘｲｴﾉｳｼﾛ","pref":"秋田県","city":"山本郡八峰町","address":"八森家の後"},
{"zip_code":"0182643","kana_pref":"ｱｷﾀｹﾝ","kana_city":"ﾔﾏﾓﾄｸﾞﾝﾊｯﾎﾟｳﾁｮｳ","kana_address":"ﾊﾁﾓﾘｲｴﾉｶﾐ","pref":"秋田県","city":"山本郡八峰町","address":"八森家の上"},
{"zip_code":"0182622","kana_pref":"ｱｷﾀｹﾝ","kana_city":"ﾔﾏﾓﾄｸﾞﾝﾊｯﾎﾟｳﾁｮｳ","kana_address":"ﾊﾁﾓﾘｲｴﾉﾑｶｲ","pref":"秋田県","city":"山本郡八峰町","address":"八森家の向"},
{"zip_code":"0182615","kana_pref":"ｱｷﾀｹﾝ","kana_city":"ﾔﾏﾓﾄｸﾞﾝﾊｯﾎﾟｳﾁｮｳ","kana_address":"ﾊﾁﾓﾘｲｾﾊﾞﾁﾀﾞｲ","pref":"秋田県","city":"山本郡八峰町","address":"八森伊勢鉢台"},
{"zip_code":"0182676","kana_pref":"ｱｷﾀｹﾝ","kana_city":"ﾔﾏﾓﾄｸﾞﾝﾊｯﾎﾟｳﾁｮｳ","kana_address":"ﾊﾁﾓﾘｲｿﾑﾗ","pref":"秋田県","city":"山本郡八峰町","address":"八森磯村"},
{"zip_code":"0182611","kana_pref":"ｱｷﾀｹﾝ","kana_city":"ﾔﾏﾓﾄｸﾞﾝﾊｯﾎﾟｳﾁｮｳ","kana_address":"ﾊﾁﾓﾘｲﾜﾀﾞﾃ","pref":"秋田県","city":"山本郡八峰町","address":"八森岩館"},
{"zip_code":"0182605","kana_pref":"ｱｷﾀｹﾝ","kana_city":"ﾔﾏﾓﾄｸﾞﾝﾊｯﾎﾟｳﾁｮｳ","kana_address":"ﾊﾁﾓﾘｲﾜﾀﾞﾃﾂｶﾉﾀﾞｲ","pref":"秋田県","city":"山本郡八峰町","address":"八森岩館塚の台"},
{"zip_code":"0182608","kana_pref":"ｱｷﾀｹﾝ","kana_city":"ﾔﾏﾓﾄｸﾞﾝﾊｯﾎﾟｳﾁｮｳ","kana_address":"ﾊﾁﾓﾘｲﾜﾀﾞﾃﾑｶｲﾀﾞｲ","pref":"秋田県","city":"山本郡八峰町","address":"八森岩館向台"},
{"zip_code":"0182601","kana_pref":"ｱｷﾀｹﾝ","kana_city":"ﾔﾏﾓﾄｸﾞﾝﾊｯﾎﾟｳﾁｮｳ","kana_address":"ﾊﾁﾓﾘｵﾄﾉﾐｽﾞ","pref":"秋田県","city":"山本郡八峰町","address":"八森乙の水"},
{"zip_code":"0182675","kana_pref":"ｱｷﾀｹﾝ","kana_city":"ﾔﾏﾓﾄｸﾞﾝﾊｯﾎﾟｳﾁｮｳ","kana_address":"ﾊﾁﾓﾘｶｺﾞﾀ","pref":"秋田県","city":"山本郡八峰町","address":"八森篭田"},
{"zip_code":"0182609","kana_pref":"ｱｷﾀｹﾝ","kana_city":"ﾔﾏﾓﾄｸﾞﾝﾊｯﾎﾟｳﾁｮｳ","kana_address":"ﾊﾁﾓﾘｶﾄﾞﾉｻﾜ","pref":"秋田県","city":"山本郡八峰町","address":"八森門の沢"},
{"zip_code":"0182647","kana_pref":"ｱｷﾀｹﾝ","kana_city":"ﾔﾏﾓﾄｸﾞﾝﾊｯﾎﾟｳﾁｮｳ","kana_address":"ﾊﾁﾓﾘｶﾉｳﾗ","pref":"秋田県","city":"山本郡八峰町","address":"八森鹿の浦"},
{"zip_code":"0182606","kana_pref":"ｱｷﾀｹﾝ","kana_city":"ﾔﾏﾓﾄｸﾞﾝﾊｯﾎﾟｳﾁｮｳ","kana_address":"ﾊﾁﾓﾘｶﾏﾉｳｴ","pref":"秋田県","city":"山本郡八峰町","address":"八森釜の上"},
{"zip_code":"0182674","kana_pref":"ｱｷﾀｹﾝ","kana_city":"ﾔﾏﾓﾄｸﾞﾝﾊｯﾎﾟｳﾁｮｳ","kana_address":"ﾊﾁﾓﾘｶﾐｲｴｳｼﾛ","pref":"秋田県","city":"山本郡八峰町","address":"八森上家後"},
{"zip_code":"0182636","kana_pref":"ｱｷﾀｹﾝ","kana_city":"ﾔﾏﾓﾄｸﾞﾝﾊｯﾎﾟｳﾁｮｳ","kana_address":"ﾊﾁﾓﾘｶﾐｶｼﾞｽｹﾀﾞｲ","pref":"秋田県","city":"山本郡八峰町","address":"八森上嘉治助台"},
{"zip_code":"0182618","kana_pref":"ｱｷﾀｹﾝ","kana_city":"ﾔﾏﾓﾄｸﾞﾝﾊｯﾎﾟｳﾁｮｳ","kana_address":"ﾊﾁﾓﾘｷﾄﾞﾉｻﾜ","pref":"秋田県","city":"山本郡八峰町","address":"八森木戸の沢"},
{"zip_code":"0182653","kana_pref":"ｱｷﾀｹﾝ","kana_city":"ﾔﾏﾓﾄｸﾞﾝﾊｯﾎﾟｳﾁｮｳ","kana_address":"ﾊﾁﾓﾘｸﾗﾉｻﾜ","pref":"秋田県","city":"山本郡八峰町","address":"八森倉の沢"},
{"zip_code":"0182614","kana_pref":"ｱｷﾀｹﾝ","kana_city":"ﾔﾏﾓﾄｸﾞﾝﾊｯﾎﾟｳﾁｮｳ","kana_address":"ﾊﾁﾓﾘｺｲﾘｶﾜｲｴﾉｶﾐ","pref":"秋田県","city":"山本郡八峰町","address":"八森小入川家の上"},
{"zip_code":"0182613","kana_pref":"ｱｷﾀｹﾝ","kana_city":"ﾔﾏﾓﾄｸﾞﾝﾊｯﾎﾟｳﾁｮｳ","kana_address":"ﾊﾁﾓﾘｺｳｻﾞﾝ","pref":"秋田県","city":"山本郡八峰町","address":"八森鉱山"},
{"zip_code":"0182617","kana_pref":"ｱｷﾀｹﾝ","kana_city":"ﾔﾏﾓﾄｸﾞﾝﾊｯﾎﾟｳﾁｮｳ","kana_address":"ﾊﾁﾓﾘｺﾞｼｮﾉﾀﾞｲ","pref":"秋田県","city":"山本郡八峰町","address":"八森御所の台"},
{"zip_code":"0182631","kana_pref":"ｱｷﾀｹﾝ","kana_city":"ﾔﾏﾓﾄｸﾞﾝﾊｯﾎﾟｳﾁｮｳ","kana_address":"ﾊﾁﾓﾘｺﾞﾘﾝﾀﾞｲｹﾞﾀﾞﾝ","pref":"秋田県","city":"山本郡八峰町","address":"八森五輪台下段"},
{"zip_code":"0182633","kana_pref":"ｱｷﾀｹﾝ","kana_city":"ﾔﾏﾓﾄｸﾞﾝﾊｯﾎﾟｳﾁｮｳ","kana_address":"ﾊﾁﾓﾘｺﾞﾘﾝﾀﾞｲｼﾞｮｳﾀﾞﾝ","pref":"秋田県","city":"山本郡八峰町","address":"八森五輪台上段"},
{"zip_code":"0182632","kana_pref":"ｱｷﾀｹﾝ","kana_city":"ﾔﾏﾓﾄｸﾞﾝﾊｯﾎﾟｳﾁｮｳ","kana_address":"ﾊﾁﾓﾘｻﾝｼﾞｭｳｶﾞﾏ","pref":"秋田県","city":"山本郡八峰町","address":"八森三十釜"},
{"zip_code":"0182627","kana_pref":"ｱｷﾀｹﾝ","kana_city":"ﾔﾏﾓﾄｸﾞﾝﾊｯﾎﾟｳﾁｮｳ","kana_address":"ﾊﾁﾓﾘｻﾝﾅｲ","pref":"秋田県","city":"山本郡八峰町","address":"八森山内"},
{"zip_code":"0182625","kana_pref":"ｱｷﾀｹﾝ","kana_city":"ﾔﾏﾓﾄｸﾞﾝﾊｯﾎﾟｳﾁｮｳ","kana_address":"ﾊﾁﾓﾘｻﾝﾅｲﾀﾞｲ","pref":"秋田県","city":"山本郡八峰町","address":"八森山内台"},
{"zip_code":"0182672","kana_pref":"ｱｷﾀｹﾝ","kana_city":"ﾔﾏﾓﾄｸﾞﾝﾊｯﾎﾟｳﾁｮｳ","kana_address":"ﾊﾁﾓﾘｼﾓｲｴｳｼﾛ","pref":"秋田県","city":"山本郡八峰町","address":"八森下家後"},
{"zip_code":"0182635","kana_pref":"ｱｷﾀｹﾝ","kana_city":"ﾔﾏﾓﾄｸﾞﾝﾊｯﾎﾟｳﾁｮｳ","kana_address":"ﾊﾁﾓﾘｼﾓｶｼﾞｽｹﾀﾞｲ","pref":"秋田県","city":"山本郡八峰町","address":"八森下嘉治助台"},
{"zip_code":"0182651","kana_pref":"ｱｷﾀｹﾝ","kana_city":"ﾔﾏﾓﾄｸﾞﾝﾊｯﾎﾟｳﾁｮｳ","kana_address":"ﾊﾁﾓﾘｼﾓﾀﾃｼﾀ","pref":"秋田県","city":"山本郡八峰町","address":"八森下館下"},
{"zip_code":"0182662","kana_pref":"ｱｷﾀｹﾝ","kana_city":"ﾔﾏﾓﾄｸﾞﾝﾊｯﾎﾟｳﾁｮｳ","kana_address":"ﾊﾁﾓﾘｼﾝﾊﾏﾀﾞ","pref":"秋田県","city":"山本郡八峰町","address":"八森新浜田"},
{"zip_code":"0182634","kana_pref":"ｱｷﾀｹﾝ","kana_city":"ﾔﾏﾓﾄｸﾞﾝﾊｯﾎﾟｳﾁｮｳ","kana_address":"ﾊﾁﾓﾘﾀｷﾉｳｴ","pref":"秋田県","city":"山本郡八峰町","address":"八森滝の上"},
{"zip_code":"0182623","kana_pref":"ｱｷﾀｹﾝ","kana_city":"ﾔﾏﾓﾄｸﾞﾝﾊｯﾎﾟｳﾁｮｳ","kana_address":"ﾊﾁﾓﾘﾀｷﾉﾏ","pref":"秋田県","city":"山本郡八峰町","address":"八森滝ノ間"},
{"zip_code":"0182628","kana_pref":"ｱｷﾀｹﾝ","kana_city":"ﾔﾏﾓﾄｸﾞﾝﾊｯﾎﾟｳﾁｮｳ","kana_address":"ﾊﾁﾓﾘﾀﾃｲｼ","pref":"秋田県","city":"山本郡八峰町","address":"八森立石"},
{"zip_code":"0182602","kana_pref":"ｱｷﾀｹﾝ","kana_city":"ﾔﾏﾓﾄｸﾞﾝﾊｯﾎﾟｳﾁｮｳ","kana_address":"ﾊﾁﾓﾘﾁｺﾞｷ","pref":"秋田県","city":"山本郡八峰町","address":"八森チゴキ"},
{"zip_code":"0182621","kana_pref":"ｱｷﾀｹﾝ","kana_city":"ﾔﾏﾓﾄｸﾞﾝﾊｯﾎﾟｳﾁｮｳ","kana_address":"ﾊﾁﾓﾘﾁｬﾉｻﾜ","pref":"秋田県","city":"山本郡八峰町","address":"八森茶の沢"},
{"zip_code":"0182646","kana_pref":"ｱｷﾀｹﾝ","kana_city":"ﾔﾏﾓﾄｸﾞﾝﾊｯﾎﾟｳﾁｮｳ","kana_address":"ﾊﾁﾓﾘﾂｶﾉﾀﾞｲ","pref":"秋田県","city":"山本郡八峰町","address":"八森塚の台"},
{"zip_code":"0182642","kana_pref":"ｱｷﾀｹﾝ","kana_city":"ﾔﾏﾓﾄｸﾞﾝﾊｯﾎﾟｳﾁｮｳ","kana_address":"ﾊﾁﾓﾘﾂﾊﾞｷ","pref":"秋田県","city":"山本郡八峰町","address":"八森椿"},
{"zip_code":"0182644","kana_pref":"ｱｷﾀｹﾝ","kana_city":"ﾔﾏﾓﾄｸﾞﾝﾊｯﾎﾟｳﾁｮｳ","kana_address":"ﾊﾁﾓﾘﾂﾊﾞｷﾀﾞｲ","pref":"秋田県","city":"山本郡八峰町","address":"八森椿台"},
{"zip_code":"0182666","kana_pref":"ｱｷﾀｹﾝ","kana_city":"ﾔﾏﾓﾄｸﾞﾝﾊｯﾎﾟｳﾁｮｳ","kana_address":"ﾊﾁﾓﾘﾃﾗﾉｳｼﾛ","pref":"秋田県","city":"山本郡八峰町","address":"八森寺の後"},
{"zip_code":"0182665","kana_pref":"ｱｷﾀｹﾝ","kana_city":"ﾔﾏﾓﾄｸﾞﾝﾊｯﾎﾟｳﾁｮｳ","kana_address":"ﾊﾁﾓﾘﾃﾗﾉｳｼﾛｶﾜﾑｶｲ","pref":"秋田県","city":"山本郡八峰町","address":"八森寺の後川向"},
{"zip_code":"0182648","kana_pref":"ｱｷﾀｹﾝ","kana_city":"ﾔﾏﾓﾄｸﾞﾝﾊｯﾎﾟｳﾁｮｳ","kana_address":"ﾊﾁﾓﾘﾄﾏﾘﾀﾞｲ","pref":"秋田県","city":"山本郡八峰町","address":"八森泊台"},
{"zip_code":"0182663","kana_pref":"ｱｷﾀｹﾝ","kana_city":"ﾔﾏﾓﾄｸﾞﾝﾊｯﾎﾟｳﾁｮｳ","kana_address":"ﾊﾁﾓﾘﾄﾖﾅｶﾞ","pref":"秋田県","city":"山本郡八峰町","address":"八森樋長"},
{"zip_code":"0182673","kana_pref":"ｱｷﾀｹﾝ","kana_city":"ﾔﾏﾓﾄｸﾞﾝﾊｯﾎﾟｳﾁｮｳ","kana_address":"ﾊﾁﾓﾘﾅｶｲｴｳｼﾛ","pref":"秋田県","city":"山本郡八峰町","address":"八森中家後"},
{"zip_code":"0182619","kana_pref":"ｱｷﾀｹﾝ","kana_city":"ﾔﾏﾓﾄｸﾞﾝﾊｯﾎﾟｳﾁｮｳ","kana_address":"ﾊﾁﾓﾘﾅｶﾞｻｶ","pref":"秋田県","city":"山本郡八峰町","address":"八森長坂"},
{"zip_code":"0182645","kana_pref":"ｱｷﾀｹﾝ","kana_city":"ﾔﾏﾓﾄｸﾞﾝﾊｯﾎﾟｳﾁｮｳ","kana_address":"ﾊﾁﾓﾘﾅｶｼﾞﾏ","pref":"秋田県","city":"山本郡八峰町","address":"八森中嶋"},
{"zip_code":"0182641","kana_pref":"ｱｷﾀｹﾝ","kana_city":"ﾔﾏﾓﾄｸﾞﾝﾊｯﾎﾟｳﾁｮｳ","kana_address":"ﾊﾁﾓﾘﾅｶﾊﾏ","pref":"秋田県","city":"山本郡八峰町","address":"八森中浜"},
{"zip_code":"0182612","kana_pref":"ｱｷﾀｹﾝ","kana_city":"ﾔﾏﾓﾄｸﾞﾝﾊｯﾎﾟｳﾁｮｳ","kana_address":"ﾊﾁﾓﾘﾉｹｿﾘ","pref":"秋田県","city":"山本郡八峰町","address":"八森ノケソリ"},
{"zip_code":"0182678","kana_pref":"ｱｷﾀｹﾝ","kana_city":"ﾔﾏﾓﾄｸﾞﾝﾊｯﾎﾟｳﾁｮｳ","kana_address":"ﾊﾁﾓﾘﾊﾁﾓﾘ","pref":"秋田県","city":"山本郡八峰町","address":"八森八森"},
{"zip_code":"0182667","kana_pref":"ｱｷﾀｹﾝ","kana_city":"ﾔﾏﾓﾄｸﾞﾝﾊｯﾎﾟｳﾁｮｳ","kana_address":"ﾊﾁﾓﾘﾊﾁﾓﾘｲｴｳｼﾛ","pref":"秋田県","city":"山本郡八峰町","address":"八森八森家後"},
{"zip_code":"0182677","kana_pref":"ｱｷﾀｹﾝ","kana_city":"ﾔﾏﾓﾄｸﾞﾝﾊｯﾎﾟｳﾁｮｳ","kana_address":"ﾊﾁﾓﾘﾊﾁﾓﾘｳｼﾛ","pref":"秋田県","city":"山本郡八峰町","address":"八森八森後"},
{"zip_code":"0182661","kana_pref":"ｱｷﾀｹﾝ","kana_city":"ﾔﾏﾓﾄｸﾞﾝﾊｯﾎﾟｳﾁｮｳ","kana_address":"ﾊﾁﾓﾘﾊﾏﾀﾞ","pref":"秋田県","city":"山本郡八峰町","address":"八森浜田"},
{"zip_code":"0182607","kana_pref":"ｱｷﾀｹﾝ","kana_city":"ﾔﾏﾓﾄｸﾞﾝﾊｯﾎﾟｳﾁｮｳ","kana_address":"ﾊﾁﾓﾘﾊﾔｼﾉｻﾜ","pref":"秋田県","city":"山本郡八峰町","address":"八森林の沢"},
{"zip_code":"0182664","kana_pref":"ｱｷﾀｹﾝ","kana_city":"ﾔﾏﾓﾄｸﾞﾝﾊｯﾎﾟｳﾁｮｳ","kana_address":"ﾊﾁﾓﾘﾌﾙﾔｼｷ","pref":"秋田県","city":"山本郡八峰町","address":"八森古屋敷"},
{"zip_code":"0182616","kana_pref":"ｱｷﾀｹﾝ","kana_city":"ﾔﾏﾓﾄｸﾞﾝﾊｯﾎﾟｳﾁｮｳ","kana_address":"ﾊﾁﾓﾘﾐｻﾜ","pref":"秋田県","city":"山本郡八峰町","address":"八森三沢"},
{"zip_code":"0182638","kana_pref":"ｱｷﾀｹﾝ","kana_city":"ﾔﾏﾓﾄｸﾞﾝﾊｯﾎﾟｳﾁｮｳ","kana_address":"ﾊﾁﾓﾘﾓｳﾗ","pref":"秋田県","city":"山本郡八峰町","address":"八森茂浦"},
{"zip_code":"0182655","kana_pref":"ｱｷﾀｹﾝ","kana_city":"ﾔﾏﾓﾄｸﾞﾝﾊｯﾎﾟｳﾁｮｳ","kana_address":"ﾊﾁﾓﾘﾓﾄﾀﾞﾃ","pref":"秋田県","city":"山本郡八峰町","address":"八森本館"},
{"zip_code":"0182652","kana_pref":"ｱｷﾀｹﾝ","kana_city":"ﾔﾏﾓﾄｸﾞﾝﾊｯﾎﾟｳﾁｮｳ","kana_address":"ﾊﾁﾓﾘﾓﾄﾀﾞﾃﾅｶﾀﾞｲ","pref":"秋田県","city":"山本郡八峰町","address":"八森本館中台"},
{"zip_code":"0182603","kana_pref":"ｱｷﾀｹﾝ","kana_city":"ﾔﾏﾓﾄｸﾞﾝﾊｯﾎﾟｳﾁｮｳ","kana_address":"ﾊﾁﾓﾘﾓﾉﾐ","pref":"秋田県","city":"山本郡八峰町","address":"八森物見"},
{"zip_code":"0182654","kana_pref":"ｱｷﾀｹﾝ","kana_city":"ﾔﾏﾓﾄｸﾞﾝﾊｯﾎﾟｳﾁｮｳ","kana_address":"ﾊﾁﾓﾘﾓﾛｻﾜｸﾞﾁ","pref":"秋田県","city":"山本郡八峰町","address":"八森諸沢口"},
{"zip_code":"0182656","kana_pref":"ｱｷﾀｹﾝ","kana_city":"ﾔﾏﾓﾄｸﾞﾝﾊｯﾎﾟｳﾁｮｳ","kana_address":"ﾊﾁﾓﾘﾓﾛｻﾜｼﾓﾜｷ","pref":"秋田県","city":"山本郡八峰町","address":"八森諸沢下脇"},
{"zip_code":"0182671","kana_pref":"ｱｷﾀｹﾝ","kana_city":"ﾔﾏﾓﾄｸﾞﾝﾊｯﾎﾟｳﾁｮｳ","kana_address":"ﾊﾁﾓﾘﾕﾉｼﾘ","pref":"秋田県","city":"山本郡八峰町","address":"八森湯の尻"},
{"zip_code":"0182626","kana_pref":"ｱｷﾀｹﾝ","kana_city":"ﾔﾏﾓﾄｸﾞﾝﾊｯﾎﾟｳﾁｮｳ","kana_address":"ﾊﾁﾓﾘﾖｺﾏ","pref":"秋田県","city":"山本郡八峰町","address":"八森横間"},
{"zip_code":"0182624","kana_pref":"ｱｷﾀｹﾝ","kana_city":"ﾔﾏﾓﾄｸﾞﾝﾊｯﾎﾟｳﾁｮｳ","kana_address":"ﾊﾁﾓﾘﾖｺﾏﾀﾞｲ","pref":"秋田県","city":"山本郡八峰町","address":"八森横間台"},
{"zip_code":"0182604","kana_pref":"ｱｷﾀｹﾝ","kana_city":"ﾔﾏﾓﾄｸﾞﾝﾊｯﾎﾟｳﾁｮｳ","kana_address":"ﾊﾁﾓﾘﾜﾀﾞｵﾓﾃ","pref":"秋田県","city":"山本郡八峰町","address":"八森和田表"},
{"zip_code":"0182504","kana_pref":"ｱｷﾀｹﾝ","kana_city":"ﾔﾏﾓﾄｸﾞﾝﾊｯﾎﾟｳﾁｮｳ","kana_address":"ﾐﾈﾊﾏｲｼｶﾜ","pref":"秋田県","city":"山本郡八峰町","address":"峰浜石川"},
{"zip_code":"0182505","kana_pref":"ｱｷﾀｹﾝ","kana_city":"ﾔﾏﾓﾄｸﾞﾝﾊｯﾎﾟｳﾁｮｳ","kana_address":"ﾐﾈﾊﾏｳﾁｱﾗﾏｷ","pref":"秋田県","city":"山本郡八峰町","address":"峰浜内荒巻"},
{"zip_code":"0182511","kana_pref":"ｱｷﾀｹﾝ","kana_city":"ﾔﾏﾓﾄｸﾞﾝﾊｯﾎﾟｳﾁｮｳ","kana_address":"ﾐﾈﾊﾏｺｳﾔﾉ","pref":"秋田県","city":"山本郡八峰町","address":"峰浜高野々"},
{"zip_code":"0182506","kana_pref":"ｱｷﾀｹﾝ","kana_city":"ﾔﾏﾓﾄｸﾞﾝﾊｯﾎﾟｳﾁｮｳ","kana_address":"ﾐﾈﾊﾏｺﾃﾊｷﾞ","pref":"秋田県","city":"山本郡八峰町","address":"峰浜小手萩"},
{"zip_code":"0182508","kana_pref":"ｱｷﾀｹﾝ","kana_city":"ﾔﾏﾓﾄｸﾞﾝﾊｯﾎﾟｳﾁｮｳ","kana_address":"ﾐﾈﾊﾏｻｶｶﾞﾀ","pref":"秋田県","city":"山本郡八峰町","address":"峰浜坂形"},
{"zip_code":"0182507","kana_pref":"ｱｷﾀｹﾝ","kana_city":"ﾔﾏﾓﾄｸﾞﾝﾊｯﾎﾟｳﾁｮｳ","kana_address":"ﾐﾈﾊﾏﾀﾅｶ","pref":"秋田県","city":"山本郡八峰町","address":"峰浜田中"},
{"zip_code":"0182509","kana_pref":"ｱｷﾀｹﾝ","kana_city":"ﾔﾏﾓﾄｸﾞﾝﾊｯﾎﾟｳﾁｮｳ","kana_address":"ﾐﾈﾊﾏﾇﾏﾀ","pref":"秋田県","city":"山本郡八峰町","address":"峰浜沼田"},
{"zip_code":"0182512","kana_pref":"ｱｷﾀｹﾝ","kana_city":"ﾔﾏﾓﾄｸﾞﾝﾊｯﾎﾟｳﾁｮｳ","kana_address":"ﾐﾈﾊﾏﾊﾀﾔ","pref":"秋田県","city":"山本郡八峰町","address":"峰浜畑谷"},
{"zip_code":"0182503","kana_pref":"ｱｷﾀｹﾝ","kana_city":"ﾔﾏﾓﾄｸﾞﾝﾊｯﾎﾟｳﾁｮｳ","kana_address":"ﾐﾈﾊﾏﾊﾅﾜ","pref":"秋田県","city":"山本郡八峰町","address":"峰浜塙"},
{"zip_code":"0182501","kana_pref":"ｱｷﾀｹﾝ","kana_city":"ﾔﾏﾓﾄｸﾞﾝﾊｯﾎﾟｳﾁｮｳ","kana_address":"ﾐﾈﾊﾏﾐｽﾞｻﾜ","pref":"秋田県","city":"山本郡八峰町","address":"峰浜水沢"},
{"zip_code":"0182502","kana_pref":"ｱｷﾀｹﾝ","kana_city":"ﾔﾏﾓﾄｸﾞﾝﾊｯﾎﾟｳﾁｮｳ","kana_address":"ﾐﾈﾊﾏﾒﾅｶﾞﾀ","pref":"秋田県","city":"山本郡八峰町","address":"峰浜目名潟"},
{"zip_code":"0181700","kana_pref":"ｱｷﾀｹﾝ","kana_city":"ﾐﾅﾐｱｷﾀｸﾞﾝｺﾞｼﾞｮｳﾒﾏﾁ","kana_address":"","pref":"秋田県","city":"南秋田郡五城目町","address":""},
{"zip_code":"0181704","kana_pref":"ｱｷﾀｹﾝ","kana_city":"ﾐﾅﾐｱｷﾀｸﾞﾝｺﾞｼﾞｮｳﾒﾏﾁ","kana_address":"ｲｼﾀﾞﾛｯｶｿﾝｾｷｿﾞｲ","pref":"秋田県","city":"南秋田郡五城目町","address":"石田六ケ村堰添"},
{"zip_code":"0181743","kana_pref":"ｱｷﾀｹﾝ","kana_city":"ﾐﾅﾐｱｷﾀｸﾞﾝｺﾞｼﾞｮｳﾒﾏﾁ","kana_address":"ｲﾅﾘﾏｴ","pref":"秋田県","city":"南秋田郡五城目町","address":"稲荷前"},
{"zip_code":"0181851","kana_pref":"ｱｷﾀｹﾝ","kana_city":"ﾐﾅﾐｱｷﾀｸﾞﾝｺﾞｼﾞｮｳﾒﾏﾁ","kana_address":"ｳﾁｶﾜｱｻﾐﾅｲ","pref":"秋田県","city":"南秋田郡五城目町","address":"内川浅見内"},
{"zip_code":"0181857","kana_pref":"ｱｷﾀｹﾝ","kana_city":"ﾐﾅﾐｱｷﾀｸﾞﾝｺﾞｼﾞｮｳﾒﾏﾁ","kana_address":"ｳﾁｶﾜｵｸﾞﾗ","pref":"秋田県","city":"南秋田郡五城目町","address":"内川小倉"},
{"zip_code":"0181854","kana_pref":"ｱｷﾀｹﾝ","kana_city":"ﾐﾅﾐｱｷﾀｸﾞﾝｺﾞｼﾞｮｳﾒﾏﾁ","kana_address":"ｳﾁｶﾜｸﾛﾂﾁ","pref":"秋田県","city":"南秋田郡五城目町","address":"内川黒土"},
{"zip_code":"0181852","kana_pref":"ｱｷﾀｹﾝ","kana_city":"ﾐﾅﾐｱｷﾀｸﾞﾝｺﾞｼﾞｮｳﾒﾏﾁ","kana_address":"ｳﾁｶﾜﾕﾉﾏﾀ","pref":"秋田県","city":"南秋田郡五城目町","address":"内川湯ノ又"},
{"zip_code":"0181722","kana_pref":"ｱｷﾀｹﾝ","kana_city":"ﾐﾅﾐｱｷﾀｸﾞﾝｺﾞｼﾞｮｳﾒﾏﾁ","kana_address":"ｳﾉｷ","pref":"秋田県","city":"南秋田郡五城目町","address":"鵜ノ木"},
{"zip_code":"0181741","kana_pref":"ｱｷﾀｹﾝ","kana_city":"ﾐﾅﾐｱｷﾀｸﾞﾝｺﾞｼﾞｮｳﾒﾏﾁ","kana_address":"ｳﾗｵｵﾏﾁ","pref":"秋田県","city":"南秋田郡五城目町","address":"浦大町"},
{"zip_code":"0181742","kana_pref":"ｱｷﾀｹﾝ","kana_city":"ﾐﾅﾐｱｷﾀｸﾞﾝｺﾞｼﾞｮｳﾒﾏﾁ","kana_address":"ｳﾗﾖｺﾏﾁ","pref":"秋田県","city":"南秋田郡五城目町","address":"浦横町"},
{"zip_code":"0181705","kana_pref":"ｱｷﾀｹﾝ","kana_city":"ﾐﾅﾐｱｷﾀｸﾞﾝｺﾞｼﾞｮｳﾒﾏﾁ","kana_address":"ｳﾜﾏﾁ","pref":"秋田県","city":"南秋田郡五城目町","address":"上町"},
{"zip_code":"0181731","kana_pref":"ｱｷﾀｹﾝ","kana_city":"ﾐﾅﾐｱｷﾀｸﾞﾝｺﾞｼﾞｮｳﾒﾏﾁ","kana_address":"ｵｵｶﾜｲｼｻﾞｷ","pref":"秋田県","city":"南秋田郡五城目町","address":"大川石崎"},
{"zip_code":"0181734","kana_pref":"ｱｷﾀｹﾝ","kana_city":"ﾐﾅﾐｱｷﾀｸﾞﾝｺﾞｼﾞｮｳﾒﾏﾁ","kana_address":"ｵｵｶﾜｵｵｶﾜ","pref":"秋田県","city":"南秋田郡五城目町","address":"大川大川"},
{"zip_code":"0181735","kana_pref":"ｱｷﾀｹﾝ","kana_city":"ﾐﾅﾐｱｷﾀｸﾞﾝｺﾞｼﾞｮｳﾒﾏﾁ","kana_address":"ｵｵｶﾜｼﾓﾄﾖｸﾞﾁ","pref":"秋田県","city":"南秋田郡五城目町","address":"大川下樋口"},
{"zip_code":"0181732","kana_pref":"ｱｷﾀｹﾝ","kana_city":"ﾐﾅﾐｱｷﾀｸﾞﾝｺﾞｼﾞｮｳﾒﾏﾁ","kana_address":"ｵｵｶﾜﾆｼﾉ","pref":"秋田県","city":"南秋田郡五城目町","address":"大川西野"},
{"zip_code":"0181733","kana_pref":"ｱｷﾀｹﾝ","kana_city":"ﾐﾅﾐｱｷﾀｸﾞﾝｺﾞｼﾞｮｳﾒﾏﾁ","kana_address":"ｵｵｶﾜﾔﾁﾅｶ","pref":"秋田県","city":"南秋田郡五城目町","address":"大川谷地中"},
{"zip_code":"0181723","kana_pref":"ｱｷﾀｹﾝ","kana_city":"ﾐﾅﾐｱｷﾀｸﾞﾝｺﾞｼﾞｮｳﾒﾏﾁ","kana_address":"ｶﾐﾋｸﾞﾁ","pref":"秋田県","city":"南秋田郡五城目町","address":"上樋口"},
{"zip_code":"0181745","kana_pref":"ｱｷﾀｹﾝ","kana_city":"ﾐﾅﾐｱｷﾀｸﾞﾝｺﾞｼﾞｮｳﾒﾏﾁ","kana_address":"ｶﾜｻｷ","pref":"秋田県","city":"南秋田郡五城目町","address":"川崎"},
{"zip_code":"0181712","kana_pref":"ｱｷﾀｹﾝ","kana_city":"ﾐﾅﾐｱｷﾀｸﾞﾝｺﾞｼﾞｮｳﾒﾏﾁ","kana_address":"ｸﾎﾞ","pref":"秋田県","city":"南秋田郡五城目町","address":"久保"},
{"zip_code":"0181746","kana_pref":"ｱｷﾀｹﾝ","kana_city":"ﾐﾅﾐｱｷﾀｸﾞﾝｺﾞｼﾞｮｳﾒﾏﾁ","kana_address":"ｺｲｹ","pref":"秋田県","city":"南秋田郡五城目町","address":"小池"},
{"zip_code":"0181706","kana_pref":"ｱｷﾀｹﾝ","kana_city":"ﾐﾅﾐｱｷﾀｸﾞﾝｺﾞｼﾞｮｳﾒﾏﾁ","kana_address":"ｼﾀﾏﾁ","pref":"秋田県","city":"南秋田郡五城目町","address":"下タ町"},
{"zip_code":"0181744","kana_pref":"ｱｷﾀｹﾝ","kana_city":"ﾐﾅﾐｱｷﾀｸﾞﾝｺﾞｼﾞｮｳﾒﾏﾁ","kana_address":"ｼﾝﾒｲﾏｴ","pref":"秋田県","city":"南秋田郡五城目町","address":"神明前"},
{"zip_code":"0181702","kana_pref":"ｱｷﾀｹﾝ","kana_city":"ﾐﾅﾐｱｷﾀｸﾞﾝｺﾞｼﾞｮｳﾒﾏﾁ","kana_address":"ｽｷﾞｶﾞｻｷ","pref":"秋田県","city":"南秋田郡五城目町","address":"杉ケ崎"},
{"zip_code":"0181711","kana_pref":"ｱｷﾀｹﾝ","kana_city":"ﾐﾅﾐｱｷﾀｸﾞﾝｺﾞｼﾞｮｳﾒﾏﾁ","kana_address":"ﾀｶｻｷ","pref":"秋田県","city":"南秋田郡五城目町","address":"高崎"},
{"zip_code":"0181714","kana_pref":"ｱｷﾀｹﾝ","kana_city":"ﾐﾅﾐｱｷﾀｸﾞﾝｺﾞｼﾞｮｳﾒﾏﾁ","kana_address":"ﾀﾃｺﾞｼ","pref":"秋田県","city":"南秋田郡五城目町","address":"舘越"},
{"zip_code":"0181701","kana_pref":"ｱｷﾀｹﾝ","kana_city":"ﾐﾅﾐｱｷﾀｸﾞﾝｺﾞｼﾞｮｳﾒﾏﾁ","kana_address":"ﾄﾋﾝｻﾞﾜ","pref":"秋田県","city":"南秋田郡五城目町","address":"兎品沢"},
{"zip_code":"0181721","kana_pref":"ｱｷﾀｹﾝ","kana_city":"ﾐﾅﾐｱｷﾀｸﾞﾝｺﾞｼﾞｮｳﾒﾏﾁ","kana_address":"ﾅﾅｸﾗ","pref":"秋田県","city":"南秋田郡五城目町","address":"七倉"},
{"zip_code":"0181725","kana_pref":"ｱｷﾀｹﾝ","kana_city":"ﾐﾅﾐｱｷﾀｸﾞﾝｺﾞｼﾞｮｳﾒﾏﾁ","kana_address":"ﾆｼｲｿﾉﾒ","pref":"秋田県","city":"南秋田郡五城目町","address":"西磯ノ目"},
{"zip_code":"0181747","kana_pref":"ｱｷﾀｹﾝ","kana_city":"ﾐﾅﾐｱｷﾀｸﾞﾝｺﾞｼﾞｮｳﾒﾏﾁ","kana_address":"ﾉﾀﾞ","pref":"秋田県","city":"南秋田郡五城目町","address":"野田"},
{"zip_code":"0181703","kana_pref":"ｱｷﾀｹﾝ","kana_city":"ﾐﾅﾐｱｷﾀｸﾞﾝｺﾞｼﾞｮｳﾒﾏﾁ","kana_address":"ﾊｸﾞﾛﾏｴ","pref":"秋田県","city":"南秋田郡五城目町","address":"羽黒前"},
{"zip_code":"0181713","kana_pref":"ｱｷﾀｹﾝ","kana_city":"ﾐﾅﾐｱｷﾀｸﾞﾝｺﾞｼﾞｮｳﾒﾏﾁ","kana_address":"ﾊﾞﾊﾞﾒ","pref":"秋田県","city":"南秋田郡五城目町","address":"馬場目"},
{"zip_code":"0181724","kana_pref":"ｱｷﾀｹﾝ","kana_city":"ﾐﾅﾐｱｷﾀｸﾞﾝｺﾞｼﾞｮｳﾒﾏﾁ","kana_address":"ﾋｶﾞｼｲｿﾉﾒ","pref":"秋田県","city":"南秋田郡五城目町","address":"東磯ノ目"},
{"zip_code":"0181856","kana_pref":"ｱｷﾀｹﾝ","kana_city":"ﾐﾅﾐｱｷﾀｸﾞﾝｺﾞｼﾞｮｳﾒﾏﾁ","kana_address":"ﾌﾂﾅｲｼﾓｻﾝﾅｲ","pref":"秋田県","city":"南秋田郡五城目町","address":"富津内下山内"},
{"zip_code":"0181855","kana_pref":"ｱｷﾀｹﾝ","kana_city":"ﾐﾅﾐｱｷﾀｸﾞﾝｺﾞｼﾞｮｳﾒﾏﾁ","kana_address":"ﾌﾂﾅｲﾄﾐﾀ","pref":"秋田県","city":"南秋田郡五城目町","address":"富津内富田"},
{"zip_code":"0181853","kana_pref":"ｱｷﾀｹﾝ","kana_city":"ﾐﾅﾐｱｷﾀｸﾞﾝｺﾞｼﾞｮｳﾒﾏﾁ","kana_address":"ﾌﾂﾅｲﾅｶﾂﾏﾀ","pref":"秋田県","city":"南秋田郡五城目町","address":"富津内中津又"},
{"zip_code":"0181600","kana_pref":"ｱｷﾀｹﾝ","kana_city":"ﾐﾅﾐｱｷﾀｸﾞﾝﾊﾁﾛｳｶﾞﾀﾏﾁ","kana_address":"","pref":"秋田県","city":"南秋田郡八郎潟町","address":""},
{"zip_code":"0181621","kana_pref":"ｱｷﾀｹﾝ","kana_city":"ﾐﾅﾐｱｷﾀｸﾞﾝﾊﾁﾛｳｶﾞﾀﾏﾁ","kana_address":"ｲｴﾉｳｼﾛ","pref":"秋田県","city":"南秋田郡八郎潟町","address":"家の後"},
{"zip_code":"0181617","kana_pref":"ｱｷﾀｹﾝ","kana_city":"ﾐﾅﾐｱｷﾀｸﾞﾝﾊﾁﾛｳｶﾞﾀﾏﾁ","kana_address":"ｲｶﾘ","pref":"秋田県","city":"南秋田郡八郎潟町","address":"イカリ"},
{"zip_code":"0181602","kana_pref":"ｱｷﾀｹﾝ","kana_city":"ﾐﾅﾐｱｷﾀｸﾞﾝﾊﾁﾛｳｶﾞﾀﾏﾁ","kana_address":"ｳﾗｵｵﾏﾁ","pref":"秋田県","city":"南秋田郡八郎潟町","address":"浦大町"},
{"zip_code":"0181616","kana_pref":"ｱｷﾀｹﾝ","kana_city":"ﾐﾅﾐｱｷﾀｸﾞﾝﾊﾁﾛｳｶﾞﾀﾏﾁ","kana_address":"ｵｵﾐﾁ","pref":"秋田県","city":"南秋田郡八郎潟町","address":"大道"},
{"zip_code":"0181627","kana_pref":"ｱｷﾀｹﾝ","kana_city":"ﾐﾅﾐｱｷﾀｸﾞﾝﾊﾁﾛｳｶﾞﾀﾏﾁ","kana_address":"ｵｼｷﾘ","pref":"秋田県","city":"南秋田郡八郎潟町","address":"押切"},
{"zip_code":"0181615","kana_pref":"ｱｷﾀｹﾝ","kana_city":"ﾐﾅﾐｱｷﾀｸﾞﾝﾊﾁﾛｳｶﾞﾀﾏﾁ","kana_address":"ｶﾞﾏﾇﾏ","pref":"秋田県","city":"南秋田郡八郎潟町","address":"蒲沼"},
{"zip_code":"0181611","kana_pref":"ｱｷﾀｹﾝ","kana_city":"ﾐﾅﾐｱｷﾀｸﾞﾝﾊﾁﾛｳｶﾞﾀﾏﾁ","kana_address":"ｶﾐｵｷﾔﾁ","pref":"秋田県","city":"南秋田郡八郎潟町","address":"上沖谷地"},
{"zip_code":"0181613","kana_pref":"ｱｷﾀｹﾝ","kana_city":"ﾐﾅﾐｱｷﾀｸﾞﾝﾊﾁﾛｳｶﾞﾀﾏﾁ","kana_address":"ｶﾐﾋﾙﾈ","pref":"秋田県","city":"南秋田郡八郎潟町","address":"上昼根"},
{"zip_code":"0181618","kana_pref":"ｱｷﾀｹﾝ","kana_city":"ﾐﾅﾐｱｷﾀｸﾞﾝﾊﾁﾛｳｶﾞﾀﾏﾁ","kana_address":"ｶﾜｸﾞﾁ","pref":"秋田県","city":"南秋田郡八郎潟町","address":"川口"},
{"zip_code":"0181605","kana_pref":"ｱｷﾀｹﾝ","kana_city":"ﾐﾅﾐｱｷﾀｸﾞﾝﾊﾁﾛｳｶﾞﾀﾏﾁ","kana_address":"ｶﾜｻｷ","pref":"秋田県","city":"南秋田郡八郎潟町","address":"川崎"},
{"zip_code":"0181625","kana_pref":"ｱｷﾀｹﾝ","kana_city":"ﾐﾅﾐｱｷﾀｸﾞﾝﾊﾁﾛｳｶﾞﾀﾏﾁ","kana_address":"ｸﾎﾞﾐ","pref":"秋田県","city":"南秋田郡八郎潟町","address":"久保見"},
{"zip_code":"0181603","kana_pref":"ｱｷﾀｹﾝ","kana_city":"ﾐﾅﾐｱｷﾀｸﾞﾝﾊﾁﾛｳｶﾞﾀﾏﾁ","kana_address":"ｺｲｹ","pref":"秋田県","city":"南秋田郡八郎潟町","address":"小池"},
{"zip_code":"0181628","kana_pref":"ｱｷﾀｹﾝ","kana_city":"ﾐﾅﾐｱｷﾀｸﾞﾝﾊﾁﾛｳｶﾞﾀﾏﾁ","kana_address":"ｼﾏﾉｳﾁ","pref":"秋田県","city":"南秋田郡八郎潟町","address":"島ノ内"},
{"zip_code":"0181623","kana_pref":"ｱｷﾀｹﾝ","kana_city":"ﾐﾅﾐｱｷﾀｸﾞﾝﾊﾁﾛｳｶﾞﾀﾏﾁ","kana_address":"ｼﾓｶﾜﾗ","pref":"秋田県","city":"南秋田郡八郎潟町","address":"下川原"},
{"zip_code":"0181635","kana_pref":"ｱｷﾀｹﾝ","kana_city":"ﾐﾅﾐｱｷﾀｸﾞﾝﾊﾁﾛｳｶﾞﾀﾏﾁ","kana_address":"ｽｻｷ","pref":"秋田県","city":"南秋田郡八郎潟町","address":"洲先"},
{"zip_code":"0181624","kana_pref":"ｱｷﾀｹﾝ","kana_city":"ﾐﾅﾐｱｷﾀｸﾞﾝﾊﾁﾛｳｶﾞﾀﾏﾁ","kana_address":"ﾅｶｸﾎﾞ","pref":"秋田県","city":"南秋田郡八郎潟町","address":"中久保"},
{"zip_code":"0181629","kana_pref":"ｱｷﾀｹﾝ","kana_city":"ﾐﾅﾐｱｷﾀｸﾞﾝﾊﾁﾛｳｶﾞﾀﾏﾁ","kana_address":"ﾅｶｼﾞﾏ","pref":"秋田県","city":"南秋田郡八郎潟町","address":"中嶋"},
{"zip_code":"0181614","kana_pref":"ｱｷﾀｹﾝ","kana_city":"ﾐﾅﾐｱｷﾀｸﾞﾝﾊﾁﾛｳｶﾞﾀﾏﾁ","kana_address":"ﾅｶﾀﾞ","pref":"秋田県","city":"南秋田郡八郎潟町","address":"中田"},
{"zip_code":"0181633","kana_pref":"ｱｷﾀｹﾝ","kana_city":"ﾐﾅﾐｱｷﾀｸﾞﾝﾊﾁﾛｳｶﾞﾀﾏﾁ","kana_address":"ﾅｶﾔﾁ","pref":"秋田県","city":"南秋田郡八郎潟町","address":"中谷地"},
{"zip_code":"0181632","kana_pref":"ｱｷﾀｹﾝ","kana_city":"ﾐﾅﾐｱｷﾀｸﾞﾝﾊﾁﾛｳｶﾞﾀﾏﾁ","kana_address":"ﾅｶﾞﾇﾏ","pref":"秋田県","city":"南秋田郡八郎潟町","address":"長沼"},
{"zip_code":"0181634","kana_pref":"ｱｷﾀｹﾝ","kana_city":"ﾐﾅﾐｱｷﾀｸﾞﾝﾊﾁﾛｳｶﾞﾀﾏﾁ","kana_address":"ﾉｷｼﾏ","pref":"秋田県","city":"南秋田郡八郎潟町","address":"軒嶋"},
{"zip_code":"0181604","kana_pref":"ｱｷﾀｹﾝ","kana_city":"ﾐﾅﾐｱｷﾀｸﾞﾝﾊﾁﾛｳｶﾞﾀﾏﾁ","kana_address":"ﾉﾀﾞ","pref":"秋田県","city":"南秋田郡八郎潟町","address":"野田"},
{"zip_code":"0181631","kana_pref":"ｱｷﾀｹﾝ","kana_city":"ﾐﾅﾐｱｷﾀｸﾞﾝﾊﾁﾛｳｶﾞﾀﾏﾁ","kana_address":"ﾊﾁﾏﾇﾏ","pref":"秋田県","city":"南秋田郡八郎潟町","address":"八幡沼"},
{"zip_code":"0181622","kana_pref":"ｱｷﾀｹﾝ","kana_city":"ﾐﾅﾐｱｷﾀｸﾞﾝﾊﾁﾛｳｶﾞﾀﾏﾁ","kana_address":"ﾋﾄｲﾁ","pref":"秋田県","city":"南秋田郡八郎潟町","address":"一日市"},
{"zip_code":"0181612","kana_pref":"ｱｷﾀｹﾝ","kana_city":"ﾐﾅﾐｱｷﾀｸﾞﾝﾊﾁﾛｳｶﾞﾀﾏﾁ","kana_address":"ﾋﾙﾈｼﾀ","pref":"秋田県","city":"南秋田郡八郎潟町","address":"昼根下"},
{"zip_code":"0181626","kana_pref":"ｱｷﾀｹﾝ","kana_city":"ﾐﾅﾐｱｷﾀｸﾞﾝﾊﾁﾛｳｶﾞﾀﾏﾁ","kana_address":"ﾎｿｶﾜ","pref":"秋田県","city":"南秋田郡八郎潟町","address":"細川"},
{"zip_code":"0181601","kana_pref":"ｱｷﾀｹﾝ","kana_city":"ﾐﾅﾐｱｷﾀｸﾞﾝﾊﾁﾛｳｶﾞﾀﾏﾁ","kana_address":"ﾏｻｶ","pref":"秋田県","city":"南秋田郡八郎潟町","address":"真坂"},
{"zip_code":"0181606","kana_pref":"ｱｷﾀｹﾝ","kana_city":"ﾐﾅﾐｱｷﾀｸﾞﾝﾊﾁﾛｳｶﾞﾀﾏﾁ","kana_address":"ﾔｼｬﾌｸﾛ","pref":"秋田県","city":"南秋田郡八郎潟町","address":"夜叉袋"},
{"zip_code":"0181500","kana_pref":"ｱｷﾀｹﾝ","kana_city":"ﾐﾅﾐｱｷﾀｸﾞﾝｲｶﾜﾏﾁ","kana_address":"","pref":"秋田県","city":"南秋田郡井川町","address":""},
{"zip_code":"0181525","kana_pref":"ｱｷﾀｹﾝ","kana_city":"ﾐﾅﾐｱｷﾀｸﾞﾝｲｶﾜﾏﾁ","kana_address":"ｱｶｻﾜ","pref":"秋田県","city":"南秋田郡井川町","address":"赤沢"},
{"zip_code":"0181527","kana_pref":"ｱｷﾀｹﾝ","kana_city":"ﾐﾅﾐｱｷﾀｸﾞﾝｲｶﾜﾏﾁ","kana_address":"ｲﾅｲ","pref":"秋田県","city":"南秋田郡井川町","address":"井内"},
{"zip_code":"0181511","kana_pref":"ｱｷﾀｹﾝ","kana_city":"ﾐﾅﾐｱｷﾀｸﾞﾝｲｶﾜﾏﾁ","kana_address":"ｲﾏﾄﾞ","pref":"秋田県","city":"南秋田郡井川町","address":"今戸"},
{"zip_code":"0181514","kana_pref":"ｱｷﾀｹﾝ","kana_city":"ﾐﾅﾐｱｷﾀｸﾞﾝｲｶﾜﾏﾁ","kana_address":"ｳｼﾞｷ","pref":"秋田県","city":"南秋田郡井川町","address":"宇治木"},
{"zip_code":"0181524","kana_pref":"ｱｷﾀｹﾝ","kana_city":"ﾐﾅﾐｱｷﾀｸﾞﾝｲｶﾜﾏﾁ","kana_address":"ｵｵﾑｷﾞ","pref":"秋田県","city":"南秋田郡井川町","address":"大麦"},
{"zip_code":"0181512","kana_pref":"ｱｷﾀｹﾝ","kana_city":"ﾐﾅﾐｱｷﾀｸﾞﾝｲｶﾜﾏﾁ","kana_address":"ｷﾀｶﾜｼﾘ","pref":"秋田県","city":"南秋田郡井川町","address":"北川尻"},
{"zip_code":"0181513","kana_pref":"ｱｷﾀｹﾝ","kana_city":"ﾐﾅﾐｱｷﾀｸﾞﾝｲｶﾜﾏﾁ","kana_address":"ｸﾛﾂﾎﾞ","pref":"秋田県","city":"南秋田郡井川町","address":"黒坪"},
{"zip_code":"0181515","kana_pref":"ｱｷﾀｹﾝ","kana_city":"ﾐﾅﾐｱｷﾀｸﾞﾝｲｶﾜﾏﾁ","kana_address":"ｺﾀﾞｹﾊﾅ","pref":"秋田県","city":"南秋田郡井川町","address":"小竹花"},
{"zip_code":"0181523","kana_pref":"ｱｷﾀｹﾝ","kana_city":"ﾐﾅﾐｱｷﾀｸﾞﾝｲｶﾜﾏﾁ","kana_address":"ｻｶﾓﾄ","pref":"秋田県","city":"南秋田郡井川町","address":"坂本"},
{"zip_code":"0181526","kana_pref":"ｱｷﾀｹﾝ","kana_city":"ﾐﾅﾐｱｷﾀｸﾞﾝｲｶﾜﾏﾁ","kana_address":"ﾃﾗｻﾜ","pref":"秋田県","city":"南秋田郡井川町","address":"寺沢"},
{"zip_code":"0181528","kana_pref":"ｱｷﾀｹﾝ","kana_city":"ﾐﾅﾐｱｷﾀｸﾞﾝｲｶﾜﾏﾁ","kana_address":"ﾅﾓﾐﾀﾞ","pref":"秋田県","city":"南秋田郡井川町","address":"葹田"},
{"zip_code":"0181521","kana_pref":"ｱｷﾀｹﾝ","kana_city":"ﾐﾅﾐｱｷﾀｸﾞﾝｲｶﾜﾏﾁ","kana_address":"ﾊｯﾀｵｵｸﾗ","pref":"秋田県","city":"南秋田郡井川町","address":"八田大倉"},
{"zip_code":"0181516","kana_pref":"ｱｷﾀｹﾝ","kana_city":"ﾐﾅﾐｱｷﾀｸﾞﾝｲｶﾜﾏﾁ","kana_address":"ﾊﾏｲｶﾜ","pref":"秋田県","city":"南秋田郡井川町","address":"浜井川"},
{"zip_code":"0181522","kana_pref":"ｱｷﾀｹﾝ","kana_city":"ﾐﾅﾐｱｷﾀｸﾞﾝｲｶﾜﾏﾁ","kana_address":"ﾎﾉｺ","pref":"秋田県","city":"南秋田郡井川町","address":"保野子"}]}