{"zip_code":[
{"zip_code":"0192623","kana_pref":"ｱｷﾀｹﾝ","kana_city":"ｱｷﾀｼ","kana_address":"ｶﾜﾍﾞｱｶﾋﾗ","pref":"秋田県","city":"秋田市","address":"河辺赤平"},
{"zip_code":"0192741","kana_pref":"ｱｷﾀｹﾝ","kana_city":"ｱｷﾀｼ","kana_address":"ｶﾜﾍﾞｲﾜﾐ","pref":"秋田県","city":"秋田市","address":"河辺岩見"},
{"zip_code":"0192624","kana_pref":"ｱｷﾀｹﾝ","kana_city":"ｱｷﾀｼ","kana_address":"ｶﾜﾍﾞｵｵｻﾜ","pref":"秋田県","city":"秋田市","address":"河辺大沢"},
{"zip_code":"0192632","kana_pref":"ｱｷﾀｹﾝ","kana_city":"ｱｷﾀｼ","kana_address":"ｶﾜﾍﾞｵｵﾊﾞﾘﾉ","pref":"秋田県","city":"秋田市","address":"河辺大張野"},
{"zip_code":"0192625","kana_pref":"ｱｷﾀｹﾝ","kana_city":"ｱｷﾀｼ","kana_address":"ｶﾜﾍﾞｷﾀﾉﾀﾞｺｳﾔ","pref":"秋田県","city":"秋田市","address":"河辺北野田高屋"},
{"zip_code":"0192742","kana_pref":"ｱｷﾀｹﾝ","kana_city":"ｱｷﾀｼ","kana_address":"ｶﾜﾍﾞｻﾝﾅｲ","pref":"秋田県","city":"秋田市","address":"河辺三内"},
{"zip_code":"0192631","kana_pref":"ｱｷﾀｹﾝ","kana_city":"ｱｷﾀｼ","kana_address":"ｶﾜﾍﾞｼﾞﾝﾅｲ","pref":"秋田県","city":"秋田市","address":"河辺神内"},
{"zip_code":"0192622","kana_pref":"ｱｷﾀｹﾝ","kana_city":"ｱｷﾀｼ","kana_address":"ｶﾜﾍﾞﾀｶｵｶ","pref":"秋田県","city":"秋田市","address":"河辺高岡"},
{"zip_code":"0192611","kana_pref":"ｱｷﾀｹﾝ","kana_city":"ｱｷﾀｼ","kana_address":"ｶﾜﾍﾞﾄｼﾏ","pref":"秋田県","city":"秋田市","address":"河辺戸島"},
{"zip_code":"0192614","kana_pref":"ｱｷﾀｹﾝ","kana_city":"ｱｷﾀｼ","kana_address":"ｶﾜﾍﾞﾄﾖﾅﾘ","pref":"秋田県","city":"秋田市","address":"河辺豊成"},
{"zip_code":"0192612","kana_pref":"ｱｷﾀｹﾝ","kana_city":"ｱｷﾀｼ","kana_address":"ｶﾜﾍﾞﾊﾀﾔ","pref":"秋田県","city":"秋田市","address":"河辺畑谷"},
{"zip_code":"0192613","kana_pref":"ｱｷﾀｹﾝ","kana_city":"ｱｷﾀｼ","kana_address":"ｶﾜﾍﾞﾏﾂﾌﾞﾁ","pref":"秋田県","city":"秋田市","address":"河辺松渕"},
{"zip_code":"0192621","kana_pref":"ｱｷﾀｹﾝ","kana_city":"ｱｷﾀｼ","kana_address":"ｶﾜﾍﾞﾓﾛｲ","pref":"秋田県","city":"秋田市","address":"河辺諸井"},
{"zip_code":"0192601","kana_pref":"ｱｷﾀｹﾝ","kana_city":"ｱｷﾀｼ","kana_address":"ｶﾜﾍﾞﾜﾀﾞ","pref":"秋田県","city":"秋田市","address":"河辺和田"},
{"zip_code":"0191107","kana_pref":"ｱｷﾀｹﾝ","kana_city":"ﾖｺﾃｼ","kana_address":"ｻﾝﾅｲｲｶﾀﾞ","pref":"秋田県","city":"横手市","address":"山内筏"},
{"zip_code":"0191109","kana_pref":"ｱｷﾀｹﾝ","kana_city":"ﾖｺﾃｼ","kana_address":"ｻﾝﾅｲｵｵｻﾜ","pref":"秋田県","city":"横手市","address":"山内大沢"},
{"zip_code":"0191101","kana_pref":"ｱｷﾀｹﾝ","kana_city":"ﾖｺﾃｼ","kana_address":"ｻﾝﾅｲｵｵﾏﾂｶﾜ","pref":"秋田県","city":"横手市","address":"山内大松川"},
{"zip_code":"0191103","kana_pref":"ｱｷﾀｹﾝ","kana_city":"ﾖｺﾃｼ","kana_address":"ｻﾝﾅｲｸﾛｻﾜ","pref":"秋田県","city":"横手市","address":"山内黒沢"},
{"zip_code":"0191102","kana_pref":"ｱｷﾀｹﾝ","kana_city":"ﾖｺﾃｼ","kana_address":"ｻﾝﾅｲｺﾏﾂｶﾜ","pref":"秋田県","city":"横手市","address":"山内小松川"},
{"zip_code":"0191108","kana_pref":"ｱｷﾀｹﾝ","kana_city":"ﾖｺﾃｼ","kana_address":"ｻﾝﾅｲﾂﾁﾌﾞﾁ","pref":"秋田県","city":"横手市","address":"山内土渕"},
{"zip_code":"0191105","kana_pref":"ｱｷﾀｹﾝ","kana_city":"ﾖｺﾃｼ","kana_address":"ｻﾝﾅｲﾅﾝｺﾞｳ","pref":"秋田県","city":"横手市","address":"山内南郷"},
{"zip_code":"0191106","kana_pref":"ｱｷﾀｹﾝ","kana_city":"ﾖｺﾃｼ","kana_address":"ｻﾝﾅｲﾋﾗﾉｻﾜ","pref":"秋田県","city":"横手市","address":"山内平野沢"},
{"zip_code":"0191104","kana_pref":"ｱｷﾀｹﾝ","kana_city":"ﾖｺﾃｼ","kana_address":"ｻﾝﾅｲﾐﾂﾏﾀ","pref":"秋田県","city":"横手市","address":"山内三又"},
{"zip_code":"0190525","kana_pref":"ｱｷﾀｹﾝ","kana_city":"ﾖｺﾃｼ","kana_address":"ｼﾞｭｳﾓﾝｼﾞﾏﾁｱｹﾎﾞﾉﾁｮｳ","pref":"秋田県","city":"横手市","address":"十文字町曙町"},
{"zip_code":"0190513","kana_pref":"ｱｷﾀｹﾝ","kana_city":"ﾖｺﾃｼ","kana_address":"ｼﾞｭｳﾓﾝｼﾞﾏﾁｳｴﾀﾞ","pref":"秋田県","city":"横手市","address":"十文字町植田"},
{"zip_code":"0190501","kana_pref":"ｱｷﾀｹﾝ","kana_city":"ﾖｺﾃｼ","kana_address":"ｼﾞｭｳﾓﾝｼﾞﾏﾁｳﾃﾞｺｼ","pref":"秋田県","city":"横手市","address":"十文字町腕越"},
{"zip_code":"0190512","kana_pref":"ｱｷﾀｹﾝ","kana_city":"ﾖｺﾃｼ","kana_address":"ｼﾞｭｳﾓﾝｼﾞﾏﾁｴﾂｾﾞﾝ","pref":"秋田県","city":"横手市","address":"十文字町越前"},
{"zip_code":"0190529","kana_pref":"ｱｷﾀｹﾝ","kana_city":"ﾖｺﾃｼ","kana_address":"ｼﾞｭｳﾓﾝｼﾞﾏﾁｶｲﾄﾞｳｼﾀ","pref":"秋田県","city":"横手市","address":"十文字町海道下"},
{"zip_code":"0190511","kana_pref":"ｱｷﾀｹﾝ","kana_city":"ﾖｺﾃｼ","kana_address":"ｼﾞｭｳﾓﾝｼﾞﾏﾁｶﾅｴ","pref":"秋田県","city":"横手市","address":"十文字町鼎"},
{"zip_code":"0190531","kana_pref":"ｱｷﾀｹﾝ","kana_city":"ﾖｺﾃｼ","kana_address":"ｼﾞｭｳﾓﾝｼﾞﾏﾁｶﾐｻｷﾁﾋﾞﾗｷ","pref":"秋田県","city":"横手市","address":"十文字町上佐吉開"},
{"zip_code":"0190507","kana_pref":"ｱｷﾀｹﾝ","kana_city":"ﾖｺﾃｼ","kana_address":"ｼﾞｭｳﾓﾝｼﾞﾏﾁｶﾐﾅﾍﾞｸﾗ","pref":"秋田県","city":"横手市","address":"十文字町上鍋倉"},
{"zip_code":"0190517","kana_pref":"ｱｷﾀｹﾝ","kana_city":"ﾖｺﾃｼ","kana_address":"ｼﾞｭｳﾓﾝｼﾞﾏﾁｷｼﾞﾀ","pref":"秋田県","city":"横手市","address":"十文字町木下"},
{"zip_code":"0190516","kana_pref":"ｱｷﾀｹﾝ","kana_city":"ﾖｺﾃｼ","kana_address":"ｼﾞｭｳﾓﾝｼﾞﾏﾁｹﾞﾝﾀﾞｻﾏ","pref":"秋田県","city":"横手市","address":"十文字町源太左馬"},
{"zip_code":"0190506","kana_pref":"ｱｷﾀｹﾝ","kana_city":"ﾖｺﾃｼ","kana_address":"ｼﾞｭｳﾓﾝｼﾞﾏﾁｻｶﾞｴ","pref":"秋田県","city":"横手市","address":"十文字町佐賀会"},
{"zip_code":"0190528","kana_pref":"ｱｷﾀｹﾝ","kana_city":"ﾖｺﾃｼ","kana_address":"ｼﾞｭｳﾓﾝｼﾞﾏﾁｻｶｴﾁｮｳ","pref":"秋田県","city":"横手市","address":"十文字町栄町"},
{"zip_code":"0190533","kana_pref":"ｱｷﾀｹﾝ","kana_city":"ﾖｺﾃｼ","kana_address":"ｼﾞｭｳﾓﾝｼﾞﾏﾁｼﾓｻｷﾁﾋﾞﾗｷ","pref":"秋田県","city":"横手市","address":"十文字町下佐吉開"},
{"zip_code":"0190508","kana_pref":"ｱｷﾀｹﾝ","kana_city":"ﾖｺﾃｼ","kana_address":"ｼﾞｭｳﾓﾝｼﾞﾏﾁｼﾞｭｳｺﾞﾉｼﾝﾃﾞﾝ","pref":"秋田県","city":"横手市","address":"十文字町十五野新田"},
{"zip_code":"0190523","kana_pref":"ｱｷﾀｹﾝ","kana_city":"ﾖｺﾃｼ","kana_address":"ｼﾞｭｳﾓﾝｼﾞﾏﾁｼﾞｭｳﾓﾝｼﾞ","pref":"秋田県","city":"横手市","address":"十文字町十文字"},
{"zip_code":"0190527","kana_pref":"ｱｷﾀｹﾝ","kana_city":"ﾖｺﾃｼ","kana_address":"ｼﾞｭｳﾓﾝｼﾞﾏﾁﾀﾞｲﾄﾞｳﾋｶﾞｼ","pref":"秋田県","city":"横手市","address":"十文字町大道東"},
{"zip_code":"0190526","kana_pref":"ｱｷﾀｹﾝ","kana_city":"ﾖｺﾃｼ","kana_address":"ｼﾞｭｳﾓﾝｼﾞﾏﾁﾄｵﾘﾏﾁ","pref":"秋田県","city":"横手市","address":"十文字町通町"},
{"zip_code":"0190509","kana_pref":"ｱｷﾀｹﾝ","kana_city":"ﾖｺﾃｼ","kana_address":"ｼﾞｭｳﾓﾝｼﾞﾏﾁﾅｼﾉｷ","pref":"秋田県","city":"横手市","address":"十文字町梨木"},
{"zip_code":"0190505","kana_pref":"ｱｷﾀｹﾝ","kana_city":"ﾖｺﾃｼ","kana_address":"ｼﾞｭｳﾓﾝｼﾞﾏﾁﾆｲﾀﾞ","pref":"秋田県","city":"横手市","address":"十文字町仁井田"},
{"zip_code":"0190522","kana_pref":"ｱｷﾀｹﾝ","kana_city":"ﾖｺﾃｼ","kana_address":"ｼﾞｭｳﾓﾝｼﾞﾏﾁﾆｼｶﾐ","pref":"秋田県","city":"横手市","address":"十文字町西上"},
{"zip_code":"0190521","kana_pref":"ｱｷﾀｹﾝ","kana_city":"ﾖｺﾃｼ","kana_address":"ｼﾞｭｳﾓﾝｼﾞﾏﾁﾆｼｼﾀ","pref":"秋田県","city":"横手市","address":"十文字町西下"},
{"zip_code":"0190503","kana_pref":"ｱｷﾀｹﾝ","kana_city":"ﾖｺﾃｼ","kana_address":"ｼﾞｭｳﾓﾝｼﾞﾏﾁﾆｼﾊﾗ1ﾊﾞﾝﾁｮｳ","pref":"秋田県","city":"横手市","address":"十文字町西原１番町"},
{"zip_code":"0190502","kana_pref":"ｱｷﾀｹﾝ","kana_city":"ﾖｺﾃｼ","kana_address":"ｼﾞｭｳﾓﾝｼﾞﾏﾁﾆｼﾊﾗ2ﾊﾞﾝﾁｮｳ","pref":"秋田県","city":"横手市","address":"十文字町西原２番町"},
{"zip_code":"0190518","kana_pref":"ｱｷﾀｹﾝ","kana_city":"ﾖｺﾃｼ","kana_address":"ｼﾞｭｳﾓﾝｼﾞﾏﾁﾎｳﾘｭｳ","pref":"秋田県","city":"横手市","address":"十文字町宝竜"},
{"zip_code":"0190532","kana_pref":"ｱｷﾀｹﾝ","kana_city":"ﾖｺﾃｼ","kana_address":"ｼﾞｭｳﾓﾝｼﾞﾏﾁﾏﾄｳ","pref":"秋田県","city":"横手市","address":"十文字町麻当"},
{"zip_code":"0190514","kana_pref":"ｱｷﾀｹﾝ","kana_city":"ﾖｺﾃｼ","kana_address":"ｼﾞｭｳﾓﾝｼﾞﾏﾁﾑﾂｱｲ","pref":"秋田県","city":"横手市","address":"十文字町睦合"},
{"zip_code":"0190524","kana_pref":"ｱｷﾀｹﾝ","kana_city":"ﾖｺﾃｼ","kana_address":"ｼﾞｭｳﾓﾝｼﾞﾏﾁﾓﾄﾏﾁ","pref":"秋田県","city":"横手市","address":"十文字町本町"},
{"zip_code":"0190515","kana_pref":"ｱｷﾀｹﾝ","kana_city":"ﾖｺﾃｼ","kana_address":"ｼﾞｭｳﾓﾝｼﾞﾏﾁﾔﾁｼﾝﾃﾞﾝ","pref":"秋田県","city":"横手市","address":"十文字町谷地新田"},
{"zip_code":"0190711","kana_pref":"ｱｷﾀｹﾝ","kana_city":"ﾖｺﾃｼ","kana_address":"ﾏｽﾀﾞﾏﾁｵｷﾞﾉﾌｸﾛ","pref":"秋田県","city":"横手市","address":"増田町荻袋"},
{"zip_code":"0190702","kana_pref":"ｱｷﾀｹﾝ","kana_city":"ﾖｺﾃｼ","kana_address":"ﾏｽﾀﾞﾏﾁｶﾒﾀﾞ","pref":"秋田県","city":"横手市","address":"増田町亀田"},
{"zip_code":"0190712","kana_pref":"ｱｷﾀｹﾝ","kana_city":"ﾖｺﾃｼ","kana_address":"ﾏｽﾀﾞﾏﾁｸﾏﾉﾌﾁ","pref":"秋田県","city":"横手市","address":"増田町熊渕"},
{"zip_code":"0190705","kana_pref":"ｱｷﾀｹﾝ","kana_city":"ﾖｺﾃｼ","kana_address":"ﾏｽﾀﾞﾏﾁｻﾙﾊﾝﾅｲ","pref":"秋田県","city":"横手市","address":"増田町狙半内"},
{"zip_code":"0190714","kana_pref":"ｱｷﾀｹﾝ","kana_city":"ﾖｺﾃｼ","kana_address":"ﾏｽﾀﾞﾏﾁﾄﾅﾐ","pref":"秋田県","city":"横手市","address":"増田町戸波"},
{"zip_code":"0190701","kana_pref":"ｱｷﾀｹﾝ","kana_city":"ﾖｺﾃｼ","kana_address":"ﾏｽﾀﾞﾏﾁﾏｽﾀﾞ","pref":"秋田県","city":"横手市","address":"増田町増田"},
{"zip_code":"0190713","kana_pref":"ｱｷﾀｹﾝ","kana_city":"ﾖｺﾃｼ","kana_address":"ﾏｽﾀﾞﾏﾁﾐﾂﾏﾀ","pref":"秋田県","city":"横手市","address":"増田町三又"},
{"zip_code":"0190715","kana_pref":"ｱｷﾀｹﾝ","kana_city":"ﾖｺﾃｼ","kana_address":"ﾏｽﾀﾞﾏﾁﾔｷﾞ","pref":"秋田県","city":"横手市","address":"増田町八木"},
{"zip_code":"0190704","kana_pref":"ｱｷﾀｹﾝ","kana_city":"ﾖｺﾃｼ","kana_address":"ﾏｽﾀﾞﾏﾁﾕﾉｻﾜ","pref":"秋田県","city":"横手市","address":"増田町湯野沢"},
{"zip_code":"0190703","kana_pref":"ｱｷﾀｹﾝ","kana_city":"ﾖｺﾃｼ","kana_address":"ﾏｽﾀﾞﾏﾁﾖｼﾉ","pref":"秋田県","city":"横手市","address":"増田町吉野"},
{"zip_code":"0190402","kana_pref":"ｱｷﾀｹﾝ","kana_city":"ﾕｻﾞﾜｼ","kana_address":"ｱｲｶﾜ","pref":"秋田県","city":"湯沢市","address":"相川"},
{"zip_code":"0190321","kana_pref":"ｱｷﾀｹﾝ","kana_city":"ﾕｻﾞﾜｼ","kana_address":"ｱｷﾉﾐﾔ","pref":"秋田県","city":"湯沢市","address":"秋ノ宮"},
{"zip_code":"0190201","kana_pref":"ｱｷﾀｹﾝ","kana_city":"ﾕｻﾞﾜｼ","kana_address":"ｲｽﾞﾐｻﾜ","pref":"秋田県","city":"湯沢市","address":"泉沢"},
{"zip_code":"0190113","kana_pref":"ｱｷﾀｹﾝ","kana_city":"ﾕｻﾞﾜｼ","kana_address":"ｲﾝﾅｲｷﾞﾝｻﾞﾝﾏﾁ","pref":"秋田県","city":"湯沢市","address":"院内銀山町"},
{"zip_code":"0190403","kana_pref":"ｱｷﾀｹﾝ","kana_city":"ﾕｻﾞﾜｼ","kana_address":"ｳﾙｲﾝﾅｲ","pref":"秋田県","city":"湯沢市","address":"宇留院内"},
{"zip_code":"0190205","kana_pref":"ｱｷﾀｹﾝ","kana_city":"ﾕｻﾞﾜｼ","kana_address":"ｵﾉ","pref":"秋田県","city":"湯沢市","address":"小野"},
{"zip_code":"0190111","kana_pref":"ｱｷﾀｹﾝ","kana_city":"ﾕｻﾞﾜｼ","kana_address":"ｶﾐｲﾝﾅｲ","pref":"秋田県","city":"湯沢市","address":"上院内"},
{"zip_code":"0190202","kana_pref":"ｱｷﾀｹﾝ","kana_city":"ﾕｻﾞﾜｼ","kana_address":"ｸﾜｶﾞｻｷ","pref":"秋田県","city":"湯沢市","address":"桑崎"},
{"zip_code":"0190401","kana_pref":"ｱｷﾀｹﾝ","kana_city":"ﾕｻﾞﾜｼ","kana_address":"ｻｶﾏｷ","pref":"秋田県","city":"湯沢市","address":"酒蒔"},
{"zip_code":"0190112","kana_pref":"ｱｷﾀｹﾝ","kana_city":"ﾕｻﾞﾜｼ","kana_address":"ｼﾓｲﾝﾅｲ","pref":"秋田県","city":"湯沢市","address":"下院内"},
{"zip_code":"0190404","kana_pref":"ｱｷﾀｹﾝ","kana_city":"ﾕｻﾞﾜｼ","kana_address":"ﾀｶﾏﾂ","pref":"秋田県","city":"湯沢市","address":"高松"},
{"zip_code":"0190203","kana_pref":"ｱｷﾀｹﾝ","kana_city":"ﾕｻﾞﾜｼ","kana_address":"ﾃﾗｻﾜ","pref":"秋田県","city":"湯沢市","address":"寺沢"},
{"zip_code":"0190481","kana_pref":"ｱｷﾀｹﾝ","kana_city":"ﾕｻﾞﾜｼ","kana_address":"ﾐﾅｾ","pref":"秋田県","city":"湯沢市","address":"皆瀬"},
{"zip_code":"0190204","kana_pref":"ｱｷﾀｹﾝ","kana_city":"ﾕｻﾞﾜｼ","kana_address":"ﾖｺﾎﾞﾘ","pref":"秋田県","city":"湯沢市","address":"横堀"},
{"zip_code":"0192201","kana_pref":"ｱｷﾀｹﾝ","kana_city":"ﾀﾞｲｾﾝｼ","kana_address":"ｴﾝｷﾞｮｳｼﾞ","pref":"秋田県","city":"大仙市","address":"円行寺"},
{"zip_code":"0192202","kana_pref":"ｱｷﾀｹﾝ","kana_city":"ﾀﾞｲｾﾝｼ","kana_address":"ｵｵｻﾜｺﾞｳｼｭｸ","pref":"秋田県","city":"大仙市","address":"大沢郷宿"},
{"zip_code":"0192103","kana_pref":"ｱｷﾀｹﾝ","kana_city":"ﾀﾞｲｾﾝｼ","kana_address":"ｵｵｻﾜｺﾞｳﾃﾗ","pref":"秋田県","city":"大仙市","address":"大沢郷寺"},
{"zip_code":"0191616","kana_pref":"ｱｷﾀｹﾝ","kana_city":"ﾀﾞｲｾﾝｼ","kana_address":"ｵｵﾀﾁｮｳｴｲﾀﾞｲ","pref":"秋田県","city":"大仙市","address":"太田町永代"},
{"zip_code":"0191613","kana_pref":"ｱｷﾀｹﾝ","kana_city":"ﾀﾞｲｾﾝｼ","kana_address":"ｵｵﾀﾁｮｳｵｵﾀ","pref":"秋田県","city":"大仙市","address":"太田町太田"},
{"zip_code":"0191615","kana_pref":"ｱｷﾀｹﾝ","kana_city":"ﾀﾞｲｾﾝｼ","kana_address":"ｵｵﾀﾁｮｳｶﾜｸﾞﾁ","pref":"秋田県","city":"大仙市","address":"太田町川口"},
{"zip_code":"0191605","kana_pref":"ｱｷﾀｹﾝ","kana_city":"ﾀﾞｲｾﾝｼ","kana_address":"ｵｵﾀﾁｮｳｸﾆﾐ","pref":"秋田県","city":"大仙市","address":"太田町国見"},
{"zip_code":"0191612","kana_pref":"ｱｷﾀｹﾝ","kana_city":"ﾀﾞｲｾﾝｼ","kana_address":"ｵｵﾀﾁｮｳｺｶﾞﾅﾘ","pref":"秋田県","city":"大仙市","address":"太田町小神成"},
{"zip_code":"0191604","kana_pref":"ｱｷﾀｹﾝ","kana_city":"ﾀﾞｲｾﾝｼ","kana_address":"ｵｵﾀﾁｮｳｺﾏﾊﾞ","pref":"秋田県","city":"大仙市","address":"太田町駒場"},
{"zip_code":"0191611","kana_pref":"ｱｷﾀｹﾝ","kana_city":"ﾀﾞｲｾﾝｼ","kana_address":"ｵｵﾀﾁｮｳｻｲﾅｲ","pref":"秋田県","city":"大仙市","address":"太田町斉内"},
{"zip_code":"0191602","kana_pref":"ｱｷﾀｹﾝ","kana_city":"ﾀﾞｲｾﾝｼ","kana_address":"ｵｵﾀﾁｮｳｻﾝﾎﾞﾝｵｳｷﾞ","pref":"秋田県","city":"大仙市","address":"太田町三本扇"},
{"zip_code":"0191603","kana_pref":"ｱｷﾀｹﾝ","kana_city":"ﾀﾞｲｾﾝｼ","kana_address":"ｵｵﾀﾁｮｳﾅｶｻﾄ","pref":"秋田県","city":"大仙市","address":"太田町中里"},
{"zip_code":"0191614","kana_pref":"ｱｷﾀｹﾝ","kana_city":"ﾀﾞｲｾﾝｼ","kana_address":"ｵｵﾀﾁｮｳﾋｶﾞｼｲﾏｲｽﾞﾐ","pref":"秋田県","city":"大仙市","address":"太田町東今泉"},
{"zip_code":"0191601","kana_pref":"ｱｷﾀｹﾝ","kana_city":"ﾀﾞｲｾﾝｼ","kana_address":"ｵｵﾀﾁｮｳﾖｺｻﾜ","pref":"秋田県","city":"大仙市","address":"太田町横沢"},
{"zip_code":"0192331","kana_pref":"ｱｷﾀｹﾝ","kana_city":"ﾀﾞｲｾﾝｼ","kana_address":"ｵｵﾏｷ","pref":"秋田県","city":"大仙市","address":"大巻"},
{"zip_code":"0192333","kana_pref":"ｱｷﾀｹﾝ","kana_city":"ﾀﾞｲｾﾝｼ","kana_address":"ｶﾈﾔﾏｻﾜ","pref":"秋田県","city":"大仙市","address":"金山沢"},
{"zip_code":"0192112","kana_pref":"ｱｷﾀｹﾝ","kana_city":"ﾀﾞｲｾﾝｼ","kana_address":"ｶﾘﾜﾉ","pref":"秋田県","city":"大仙市","address":"刈和野"},
{"zip_code":"0191702","kana_pref":"ｱｷﾀｹﾝ","kana_city":"ﾀﾞｲｾﾝｼ","kana_address":"ｷﾀﾅﾗｵｶ","pref":"秋田県","city":"大仙市","address":"北楢岡"},
{"zip_code":"0192121","kana_pref":"ｱｷﾀｹﾝ","kana_city":"ﾀﾞｲｾﾝｼ","kana_address":"ｷﾀﾉﾒ","pref":"秋田県","city":"大仙市","address":"北野目"},
{"zip_code":"0192334","kana_pref":"ｱｷﾀｹﾝ","kana_city":"ﾀﾞｲｾﾝｼ","kana_address":"ｷﾊﾗﾀﾞ","pref":"秋田県","city":"大仙市","address":"木原田"},
{"zip_code":"0192412","kana_pref":"ｱｷﾀｹﾝ","kana_city":"ﾀﾞｲｾﾝｼ","kana_address":"ｷｮｳﾜｱﾗｶﾜ","pref":"秋田県","city":"大仙市","address":"協和荒川"},
{"zip_code":"0192521","kana_pref":"ｱｷﾀｹﾝ","kana_city":"ﾀﾞｲｾﾝｼ","kana_address":"ｷｮｳﾜｲﾅｻﾞﾜ","pref":"秋田県","city":"大仙市","address":"協和稲沢"},
{"zip_code":"0192413","kana_pref":"ｱｷﾀｹﾝ","kana_city":"ﾀﾞｲｾﾝｼ","kana_address":"ｷｮｳﾜｶﾐﾖﾄﾞｶﾜ","pref":"秋田県","city":"大仙市","address":"協和上淀川"},
{"zip_code":"0192441","kana_pref":"ｱｷﾀｹﾝ","kana_city":"ﾀﾞｲｾﾝｼ","kana_address":"ｷｮｳﾜｺﾀﾈ","pref":"秋田県","city":"大仙市","address":"協和小種"},
{"zip_code":"0192411","kana_pref":"ｱｷﾀｹﾝ","kana_city":"ﾀﾞｲｾﾝｼ","kana_address":"ｷｮｳﾜｻｶｲ","pref":"秋田県","city":"大仙市","address":"協和境"},
{"zip_code":"0192442","kana_pref":"ｱｷﾀｹﾝ","kana_city":"ﾀﾞｲｾﾝｼ","kana_address":"ｷｮｳﾜｼﾓﾖﾄﾞｶﾜ","pref":"秋田県","city":"大仙市","address":"協和下淀川"},
{"zip_code":"0192443","kana_pref":"ｱｷﾀｹﾝ","kana_city":"ﾀﾞｲｾﾝｼ","kana_address":"ｷｮｳﾜﾅｶﾖﾄﾞｶﾜ","pref":"秋田県","city":"大仙市","address":"協和中淀川"},
{"zip_code":"0192401","kana_pref":"ｱｷﾀｹﾝ","kana_city":"ﾀﾞｲｾﾝｼ","kana_address":"ｷｮｳﾜﾌﾅｵｶ","pref":"秋田県","city":"大仙市","address":"協和船岡"},
{"zip_code":"0192402","kana_pref":"ｱｷﾀｹﾝ","kana_city":"ﾀﾞｲｾﾝｼ","kana_address":"ｷｮｳﾜﾌﾈｻﾜ","pref":"秋田県","city":"大仙市","address":"協和船沢"},
{"zip_code":"0192431","kana_pref":"ｱｷﾀｹﾝ","kana_city":"ﾀﾞｲｾﾝｼ","kana_address":"ｷｮｳﾜﾐﾈﾖｼｶﾜ","pref":"秋田県","city":"大仙市","address":"協和峰吉川"},
{"zip_code":"0192332","kana_pref":"ｱｷﾀｹﾝ","kana_city":"ﾀﾞｲｾﾝｼ","kana_address":"ｸｼｮｳﾀﾞ","pref":"秋田県","city":"大仙市","address":"九升田"},
{"zip_code":"0192335","kana_pref":"ｱｷﾀｹﾝ","kana_city":"ﾀﾞｲｾﾝｼ","kana_address":"ｺﾜｸﾋﾞ","pref":"秋田県","city":"大仙市","address":"強首"},
{"zip_code":"0192204","kana_pref":"ｱｷﾀｹﾝ","kana_city":"ﾀﾞｲｾﾝｼ","kana_address":"ｼｮｳﾃｻﾞﾜ","pref":"秋田県","city":"大仙市","address":"正手沢"},
{"zip_code":"0191701","kana_pref":"ｱｷﾀｹﾝ","kana_city":"ﾀﾞｲｾﾝｼ","kana_address":"ｼﾞﾝｸﾞｳｼﾞ","pref":"秋田県","city":"大仙市","address":"神宮寺"},
{"zip_code":"0192205","kana_pref":"ｱｷﾀｹﾝ","kana_city":"ﾀﾞｲｾﾝｼ","kana_address":"ｽｷﾞﾔﾏﾀﾞ","pref":"秋田県","city":"大仙市","address":"杉山田"},
{"zip_code":"0192122","kana_pref":"ｱｷﾀｹﾝ","kana_city":"ﾀﾞｲｾﾝｼ","kana_address":"ﾀｶｼﾞｮｳ","pref":"秋田県","city":"大仙市","address":"高城"},
{"zip_code":"0192111","kana_pref":"ｱｷﾀｹﾝ","kana_city":"ﾀﾞｲｾﾝｼ","kana_address":"ﾂﾁｶﾜ","pref":"秋田県","city":"大仙市","address":"土川"},
{"zip_code":"0192123","kana_pref":"ｱｷﾀｹﾝ","kana_city":"ﾀﾞｲｾﾝｼ","kana_address":"ﾃﾗﾀﾞﾃ","pref":"秋田県","city":"大仙市","address":"寺館"},
{"zip_code":"0191949","kana_pref":"ｱｷﾀｹﾝ","kana_city":"ﾀﾞｲｾﾝｼ","kana_address":"ﾅﾝｶﾞｲｱｶﾊﾀ","pref":"秋田県","city":"大仙市","address":"南外赤畑"},
{"zip_code":"0191865","kana_pref":"ｱｷﾀｹﾝ","kana_city":"ﾀﾞｲｾﾝｼ","kana_address":"ﾅﾝｶﾞｲｱｶﾋﾗｳｼﾛﾉ","pref":"秋田県","city":"大仙市","address":"南外赤平後野"},
{"zip_code":"0191863","kana_pref":"ｱｷﾀｹﾝ","kana_city":"ﾀﾞｲｾﾝｼ","kana_address":"ﾅﾝｶﾞｲｱｶﾋﾗｶｲﾇﾏ","pref":"秋田県","city":"大仙市","address":"南外赤平貝沼"},
{"zip_code":"0191864","kana_pref":"ｱｷﾀｹﾝ","kana_city":"ﾀﾞｲｾﾝｼ","kana_address":"ﾅﾝｶﾞｲｱｶﾋﾗﾀﾞｲﾄﾞｳﾋｶﾞｼ","pref":"秋田県","city":"大仙市","address":"南外赤平大道東"},
{"zip_code":"0191866","kana_pref":"ｱｷﾀｹﾝ","kana_city":"ﾀﾞｲｾﾝｼ","kana_address":"ﾅﾝｶﾞｲｱｶﾋﾗﾀﾞｲﾉ","pref":"秋田県","city":"大仙市","address":"南外赤平台野"},
{"zip_code":"0191868","kana_pref":"ｱｷﾀｹﾝ","kana_city":"ﾀﾞｲｾﾝｼ","kana_address":"ﾅﾝｶﾞｲｱｶﾋﾗﾍｲｹ","pref":"秋田県","city":"大仙市","address":"南外赤平平家"},
{"zip_code":"0191858","kana_pref":"ｱｷﾀｹﾝ","kana_city":"ﾀﾞｲｾﾝｼ","kana_address":"ﾅﾝｶﾞｲｱｶﾋﾗﾛｸﾛｳｻﾜ","pref":"秋田県","city":"大仙市","address":"南外赤平六郎沢"},
{"zip_code":"0191901","kana_pref":"ｱｷﾀｹﾝ","kana_city":"ﾀﾞｲｾﾝｼ","kana_address":"ﾅﾝｶﾞｲｱｸﾄﾉ","pref":"秋田県","city":"大仙市","address":"南外悪戸野"},
{"zip_code":"0191835","kana_pref":"ｱｷﾀｹﾝ","kana_city":"ﾀﾞｲｾﾝｼ","kana_address":"ﾅﾝｶﾞｲｱｹﾞﾂﾁ","pref":"秋田県","city":"大仙市","address":"南外揚土"},
{"zip_code":"0191834","kana_pref":"ｱｷﾀｹﾝ","kana_city":"ﾀﾞｲｾﾝｼ","kana_address":"ﾅﾝｶﾞｲｱｹﾞﾂﾁﾔﾏ","pref":"秋田県","city":"大仙市","address":"南外揚土山"},
{"zip_code":"0191876","kana_pref":"ｱｷﾀｹﾝ","kana_city":"ﾀﾞｲｾﾝｼ","kana_address":"ﾅﾝｶﾞｲｱﾗﾔｼｷ","pref":"秋田県","city":"大仙市","address":"南外新屋布"},
{"zip_code":"0191916","kana_pref":"ｱｷﾀｹﾝ","kana_city":"ﾀﾞｲｾﾝｼ","kana_address":"ﾅﾝｶﾞｲｲｼﾎﾞﾄｹ","pref":"秋田県","city":"大仙市","address":"南外石仏"},
{"zip_code":"0191942","kana_pref":"ｱｷﾀｹﾝ","kana_city":"ﾀﾞｲｾﾝｼ","kana_address":"ﾅﾝｶﾞｲｲﾜｸﾗ","pref":"秋田県","city":"大仙市","address":"南外岩倉"},
{"zip_code":"0191945","kana_pref":"ｱｷﾀｹﾝ","kana_city":"ﾀﾞｲｾﾝｼ","kana_address":"ﾅﾝｶﾞｲｲﾜｾ","pref":"秋田県","city":"大仙市","address":"南外岩瀬"},
{"zip_code":"0191908","kana_pref":"ｱｷﾀｹﾝ","kana_city":"ﾀﾞｲｾﾝｼ","kana_address":"ﾅﾝｶﾞｲｳｴﾉ","pref":"秋田県","city":"大仙市","address":"南外上野"},
{"zip_code":"0191932","kana_pref":"ｱｷﾀｹﾝ","kana_city":"ﾀﾞｲｾﾝｼ","kana_address":"ﾅﾝｶﾞｲｵｵｸﾛﾓﾘ","pref":"秋田県","city":"大仙市","address":"南外大黒森"},
{"zip_code":"0191842","kana_pref":"ｱｷﾀｹﾝ","kana_city":"ﾀﾞｲｾﾝｼ","kana_address":"ﾅﾝｶﾞｲｵｵｽｷﾞ","pref":"秋田県","city":"大仙市","address":"南外大杉"},
{"zip_code":"0191843","kana_pref":"ｱｷﾀｹﾝ","kana_city":"ﾀﾞｲｾﾝｼ","kana_address":"ﾅﾝｶﾞｲｵｵｽｷﾞﾌﾀﾏﾀｽｷﾞ","pref":"秋田県","city":"大仙市","address":"南外大杉二タ又杉"},
{"zip_code":"0191841","kana_pref":"ｱｷﾀｹﾝ","kana_city":"ﾀﾞｲｾﾝｼ","kana_address":"ﾅﾝｶﾞｲｵｵｽｷﾞﾔﾏｷﾞｼ","pref":"秋田県","city":"大仙市","address":"南外大杉山岸"},
{"zip_code":"0191852","kana_pref":"ｱｷﾀｹﾝ","kana_city":"ﾀﾞｲｾﾝｼ","kana_address":"ﾅﾝｶﾞｲｵｵﾀ","pref":"秋田県","city":"大仙市","address":"南外太田"},
{"zip_code":"0191855","kana_pref":"ｱｷﾀｹﾝ","kana_city":"ﾀﾞｲｾﾝｼ","kana_address":"ﾅﾝｶﾞｲｵｵﾊﾞﾀ","pref":"秋田県","city":"大仙市","address":"南外大畑"},
{"zip_code":"0191857","kana_pref":"ｱｷﾀｹﾝ","kana_city":"ﾀﾞｲｾﾝｼ","kana_address":"ﾅﾝｶﾞｲｵｵﾊﾞﾀｸｸﾞﾘｻﾜ","pref":"秋田県","city":"大仙市","address":"南外大畑潜沢"},
{"zip_code":"0191856","kana_pref":"ｱｷﾀｹﾝ","kana_city":"ﾀﾞｲｾﾝｼ","kana_address":"ﾅﾝｶﾞｲｵｵﾊﾞﾀﾐﾔﾏ","pref":"秋田県","city":"大仙市","address":"南外大畑深山"},
{"zip_code":"0191935","kana_pref":"ｱｷﾀｹﾝ","kana_city":"ﾀﾞｲｾﾝｼ","kana_address":"ﾅﾝｶﾞｲｵｵﾋﾗ","pref":"秋田県","city":"大仙市","address":"南外大平"},
{"zip_code":"0191905","kana_pref":"ｱｷﾀｹﾝ","kana_city":"ﾀﾞｲｾﾝｼ","kana_address":"ﾅﾝｶﾞｲｵｵﾑｶｲ","pref":"秋田県","city":"大仙市","address":"南外大向"},
{"zip_code":"0191961","kana_pref":"ｱｷﾀｹﾝ","kana_city":"ﾀﾞｲｾﾝｼ","kana_address":"ﾅﾝｶﾞｲｵｵﾔﾅｷﾞ","pref":"秋田県","city":"大仙市","address":"南外大柳"},
{"zip_code":"0191882","kana_pref":"ｱｷﾀｹﾝ","kana_city":"ﾀﾞｲｾﾝｼ","kana_address":"ﾅﾝｶﾞｲｵｵﾜﾉ","pref":"秋田県","city":"大仙市","address":"南外大和野"},
{"zip_code":"0191812","kana_pref":"ｱｷﾀｹﾝ","kana_city":"ﾀﾞｲｾﾝｼ","kana_address":"ﾅﾝｶﾞｲｵｷﾀﾞ","pref":"秋田県","city":"大仙市","address":"南外沖田"},
{"zip_code":"0191875","kana_pref":"ｱｷﾀｹﾝ","kana_city":"ﾀﾞｲｾﾝｼ","kana_address":"ﾅﾝｶﾞｲｵﾁｱｲ","pref":"秋田県","city":"大仙市","address":"南外落合"},
{"zip_code":"0191906","kana_pref":"ｱｷﾀｹﾝ","kana_city":"ﾀﾞｲｾﾝｼ","kana_address":"ﾅﾝｶﾞｲｶﾅﾔ","pref":"秋田県","city":"大仙市","address":"南外金屋"},
{"zip_code":"0191956","kana_pref":"ｱｷﾀｹﾝ","kana_city":"ﾀﾞｲｾﾝｼ","kana_address":"ﾅﾝｶﾞｲｶﾐｱﾗﾏﾀ","pref":"秋田県","city":"大仙市","address":"南外上荒又"},
{"zip_code":"0191948","kana_pref":"ｱｷﾀｹﾝ","kana_city":"ﾀﾞｲｾﾝｼ","kana_address":"ﾅﾝｶﾞｲｶﾐｶﾏｻｶ","pref":"秋田県","city":"大仙市","address":"南外上釜坂"},
{"zip_code":"0191907","kana_pref":"ｱｷﾀｹﾝ","kana_city":"ﾀﾞｲｾﾝｼ","kana_address":"ﾅﾝｶﾞｲｶﾐｶﾏﾀ","pref":"秋田県","city":"大仙市","address":"南外上鎌田"},
{"zip_code":"0191816","kana_pref":"ｱｷﾀｹﾝ","kana_city":"ﾀﾞｲｾﾝｼ","kana_address":"ﾅﾝｶﾞｲｶﾐｷｼﾞｷ","pref":"秋田県","city":"大仙市","address":"南外上木直"},
{"zip_code":"0191926","kana_pref":"ｱｷﾀｹﾝ","kana_city":"ﾀﾞｲｾﾝｼ","kana_address":"ﾅﾝｶﾞｲｶﾐｸﾜﾀﾞｲ","pref":"秋田県","city":"大仙市","address":"南外上桑台"},
{"zip_code":"0191925","kana_pref":"ｱｷﾀｹﾝ","kana_city":"ﾀﾞｲｾﾝｼ","kana_address":"ﾅﾝｶﾞｲｶﾐｽﾉｻﾜ","pref":"秋田県","city":"大仙市","address":"南外上巣ノ沢"},
{"zip_code":"0191872","kana_pref":"ｱｷﾀｹﾝ","kana_city":"ﾀﾞｲｾﾝｼ","kana_address":"ﾅﾝｶﾞｲｶﾐﾅｶｼｭｸ","pref":"秋田県","city":"大仙市","address":"南外上中宿"},
{"zip_code":"0191922","kana_pref":"ｱｷﾀｹﾝ","kana_city":"ﾀﾞｲｾﾝｼ","kana_address":"ﾅﾝｶﾞｲｶﾐﾅｶﾉ","pref":"秋田県","city":"大仙市","address":"南外上中野"},
{"zip_code":"0191808","kana_pref":"ｱｷﾀｹﾝ","kana_city":"ﾀﾞｲｾﾝｼ","kana_address":"ﾅﾝｶﾞｲｶﾜｸﾞﾁ","pref":"秋田県","city":"大仙市","address":"南外川口"},
{"zip_code":"0191807","kana_pref":"ｱｷﾀｹﾝ","kana_city":"ﾀﾞｲｾﾝｼ","kana_address":"ﾅﾝｶﾞｲｶﾜｸﾞﾁﾎﾝﾁｮｳ","pref":"秋田県","city":"大仙市","address":"南外川口本町"},
{"zip_code":"0191817","kana_pref":"ｱｷﾀｹﾝ","kana_city":"ﾀﾞｲｾﾝｼ","kana_address":"ﾅﾝｶﾞｲｷｼﾞｷｻﾞﾜ","pref":"秋田県","city":"大仙市","address":"南外木直沢"},
{"zip_code":"0191834","kana_pref":"ｱｷﾀｹﾝ","kana_city":"ﾀﾞｲｾﾝｼ","kana_address":"ﾅﾝｶﾞｲｷﾀﾀﾞｸﾛｾ","pref":"秋田県","city":"大仙市","address":"南外北田黒瀬"},
{"zip_code":"0191832","kana_pref":"ｱｷﾀｹﾝ","kana_city":"ﾀﾞｲｾﾝｼ","kana_address":"ﾅﾝｶﾞｲｷﾀﾀﾞﾔﾏﾀﾞｶﾞｻﾜ","pref":"秋田県","city":"大仙市","address":"南外北田山田ケ沢"},
{"zip_code":"0191951","kana_pref":"ｱｷﾀｹﾝ","kana_city":"ﾀﾞｲｾﾝｼ","kana_address":"ﾅﾝｶﾞｲｸﾛﾀｷ","pref":"秋田県","city":"大仙市","address":"南外黒滝"},
{"zip_code":"0191937","kana_pref":"ｱｷﾀｹﾝ","kana_city":"ﾀﾞｲｾﾝｼ","kana_address":"ﾅﾝｶﾞｲｺｱﾗｻﾜ","pref":"秋田県","city":"大仙市","address":"南外小荒沢"},
{"zip_code":"0191847","kana_pref":"ｱｷﾀｹﾝ","kana_city":"ﾀﾞｲｾﾝｼ","kana_address":"ﾅﾝｶﾞｲｺｲﾃﾞ","pref":"秋田県","city":"大仙市","address":"南外小出"},
{"zip_code":"0191802","kana_pref":"ｱｷﾀｹﾝ","kana_city":"ﾀﾞｲｾﾝｼ","kana_address":"ﾅﾝｶﾞｲｺﾊﾙｷｻﾞﾜ","pref":"秋田県","city":"大仙市","address":"南外小春木沢"},
{"zip_code":"0191813","kana_pref":"ｱｷﾀｹﾝ","kana_city":"ﾀﾞｲｾﾝｼ","kana_address":"ﾅﾝｶﾞｲｻﾙｶﾞｾﾃﾞﾉ","pref":"秋田県","city":"大仙市","address":"南外猿ケ瀬出野"},
{"zip_code":"0191851","kana_pref":"ｱｷﾀｹﾝ","kana_city":"ﾀﾞｲｾﾝｼ","kana_address":"ﾅﾝｶﾞｲｻﾝｵｳﾀﾞｲ","pref":"秋田県","city":"大仙市","address":"南外山王台"},
{"zip_code":"0191957","kana_pref":"ｱｷﾀｹﾝ","kana_city":"ﾀﾞｲｾﾝｼ","kana_address":"ﾅﾝｶﾞｲｻﾞﾝｻﾞﾗ","pref":"秋田県","city":"大仙市","address":"南外小浪滝"},
{"zip_code":"0191938","kana_pref":"ｱｷﾀｹﾝ","kana_city":"ﾀﾞｲｾﾝｼ","kana_address":"ﾅﾝｶﾞｲｼﾓｱﾗｻﾜ","pref":"秋田県","city":"大仙市","address":"南外下荒沢"},
{"zip_code":"0191952","kana_pref":"ｱｷﾀｹﾝ","kana_city":"ﾀﾞｲｾﾝｼ","kana_address":"ﾅﾝｶﾞｲｼﾓｱﾗﾏﾀ","pref":"秋田県","city":"大仙市","address":"南外下荒又"},
{"zip_code":"0191947","kana_pref":"ｱｷﾀｹﾝ","kana_city":"ﾀﾞｲｾﾝｼ","kana_address":"ﾅﾝｶﾞｲｼﾓｶﾏｻｶ","pref":"秋田県","city":"大仙市","address":"南外下釜坂"},
{"zip_code":"0191903","kana_pref":"ｱｷﾀｹﾝ","kana_city":"ﾀﾞｲｾﾝｼ","kana_address":"ﾅﾝｶﾞｲｼﾓｶﾏﾀ","pref":"秋田県","city":"大仙市","address":"南外下鎌田"},
{"zip_code":"0191814","kana_pref":"ｱｷﾀｹﾝ","kana_city":"ﾀﾞｲｾﾝｼ","kana_address":"ﾅﾝｶﾞｲｼﾓｷｼﾞｷ","pref":"秋田県","city":"大仙市","address":"南外下木直"},
{"zip_code":"0191931","kana_pref":"ｱｷﾀｹﾝ","kana_city":"ﾀﾞｲｾﾝｼ","kana_address":"ﾅﾝｶﾞｲｼﾓﾀｷ","pref":"秋田県","city":"大仙市","address":"南外下滝"},
{"zip_code":"0191902","kana_pref":"ｱｷﾀｹﾝ","kana_city":"ﾀﾞｲｾﾝｼ","kana_address":"ﾅﾝｶﾞｲｼﾓﾌﾞｸﾛ","pref":"秋田県","city":"大仙市","address":"南外下袋"},
{"zip_code":"0191915","kana_pref":"ｱｷﾀｹﾝ","kana_city":"ﾀﾞｲｾﾝｼ","kana_address":"ﾅﾝｶﾞｲｼﾓﾕﾉﾏﾀ","pref":"秋田県","city":"大仙市","address":"南外下湯ノ又"},
{"zip_code":"0191946","kana_pref":"ｱｷﾀｹﾝ","kana_city":"ﾀﾞｲｾﾝｼ","kana_address":"ﾅﾝｶﾞｲｼﾞｭｳﾆﾉﾏｴ","pref":"秋田県","city":"大仙市","address":"南外十二ノ前"},
{"zip_code":"0191806","kana_pref":"ｱｷﾀｹﾝ","kana_city":"ﾀﾞｲｾﾝｼ","kana_address":"ﾅﾝｶﾞｲｼﾞｭｳﾆﾌｸﾛ","pref":"秋田県","city":"大仙市","address":"南外十二袋"},
{"zip_code":"0191848","kana_pref":"ｱｷﾀｹﾝ","kana_city":"ﾀﾞｲｾﾝｼ","kana_address":"ﾅﾝｶﾞｲｼﾘｶﾞｲﾀﾞ","pref":"秋田県","city":"大仙市","address":"南外鞦田"},
{"zip_code":"0191909","kana_pref":"ｱｷﾀｹﾝ","kana_city":"ﾀﾞｲｾﾝｼ","kana_address":"ﾅﾝｶﾞｲｽｷﾞﾊｼ","pref":"秋田県","city":"大仙市","address":"南外杉橋"},
{"zip_code":"0191923","kana_pref":"ｱｷﾀｹﾝ","kana_city":"ﾀﾞｲｾﾝｼ","kana_address":"ﾅﾝｶﾞｲｽﾉｻﾜ","pref":"秋田県","city":"大仙市","address":"南外巣ノ沢"},
{"zip_code":"0191924","kana_pref":"ｱｷﾀｹﾝ","kana_city":"ﾀﾞｲｾﾝｼ","kana_address":"ﾅﾝｶﾞｲｽﾉｻﾜｲｼｷﾘﾊﾞ","pref":"秋田県","city":"大仙市","address":"南外巣ノ沢石切場"},
{"zip_code":"0191953","kana_pref":"ｱｷﾀｹﾝ","kana_city":"ﾀﾞｲｾﾝｼ","kana_address":"ﾅﾝｶﾞｲｿﾄｵﾄﾓ","pref":"秋田県","city":"大仙市","address":"南外外小友"},
{"zip_code":"0191955","kana_pref":"ｱｷﾀｹﾝ","kana_city":"ﾀﾞｲｾﾝｼ","kana_address":"ﾅﾝｶﾞｲｿﾄﾔﾏ","pref":"秋田県","city":"大仙市","address":"南外外山"},
{"zip_code":"0191928","kana_pref":"ｱｷﾀｹﾝ","kana_city":"ﾀﾞｲｾﾝｼ","kana_address":"ﾅﾝｶﾞｲﾀｷﾅｶﾀｵﾓﾃ","pref":"秋田県","city":"大仙市","address":"南外滝中田表"},
{"zip_code":"0191933","kana_pref":"ｱｷﾀｹﾝ","kana_city":"ﾀﾞｲｾﾝｼ","kana_address":"ﾅﾝｶﾞｲﾀｷﾉｻﾜ","pref":"秋田県","city":"大仙市","address":"南外滝ノ沢"},
{"zip_code":"0191934","kana_pref":"ｱｷﾀｹﾝ","kana_city":"ﾀﾞｲｾﾝｼ","kana_address":"ﾅﾝｶﾞｲﾀｼﾞﾘ","pref":"秋田県","city":"大仙市","address":"南外田尻"},
{"zip_code":"0191873","kana_pref":"ｱｷﾀｹﾝ","kana_city":"ﾀﾞｲｾﾝｼ","kana_address":"ﾅﾝｶﾞｲﾀﾅｶ","pref":"秋田県","city":"大仙市","address":"南外田中"},
{"zip_code":"0191826","kana_pref":"ｱｷﾀｹﾝ","kana_city":"ﾀﾞｲｾﾝｼ","kana_address":"ﾅﾝｶﾞｲﾀﾅｶﾀ","pref":"秋田県","city":"大仙市","address":"南外田中田"},
{"zip_code":"0191827","kana_pref":"ｱｷﾀｹﾝ","kana_city":"ﾀﾞｲｾﾝｼ","kana_address":"ﾅﾝｶﾞｲﾀﾅｶﾀﾔﾏﾈ","pref":"秋田県","city":"大仙市","address":"南外田中田山根"},
{"zip_code":"0191822","kana_pref":"ｱｷﾀｹﾝ","kana_city":"ﾀﾞｲｾﾝｼ","kana_address":"ﾅﾝｶﾞｲﾀﾔﾑﾗ","pref":"秋田県","city":"大仙市","address":"南外田屋村"},
{"zip_code":"0191831","kana_pref":"ｱｷﾀｹﾝ","kana_city":"ﾀﾞｲｾﾝｼ","kana_address":"ﾅﾝｶﾞｲﾀﾞﾝﾉﾋﾗﾔﾏ","pref":"秋田県","city":"大仙市","address":"南外壇ノ平山"},
{"zip_code":"0191861","kana_pref":"ｱｷﾀｹﾝ","kana_city":"ﾀﾞｲｾﾝｼ","kana_address":"ﾅﾝｶﾞｲﾃﾗｻﾜ","pref":"秋田県","city":"大仙市","address":"南外寺沢"},
{"zip_code":"0191888","kana_pref":"ｱｷﾀｹﾝ","kana_city":"ﾀﾞｲｾﾝｼ","kana_address":"ﾅﾝｶﾞｲﾄﾞﾊﾞ","pref":"秋田県","city":"大仙市","address":"南外土場"},
{"zip_code":"0191936","kana_pref":"ｱｷﾀｹﾝ","kana_city":"ﾀﾞｲｾﾝｼ","kana_address":"ﾅﾝｶﾞｲﾅｶｱﾗｻﾜ","pref":"秋田県","city":"大仙市","address":"南外中荒沢"},
{"zip_code":"0191954","kana_pref":"ｱｷﾀｹﾝ","kana_city":"ﾀﾞｲｾﾝｼ","kana_address":"ﾅﾝｶﾞｲﾅｶｱﾗﾏﾀ","pref":"秋田県","city":"大仙市","address":"南外中荒又"},
{"zip_code":"0191927","kana_pref":"ｱｷﾀｹﾝ","kana_city":"ﾀﾞｲｾﾝｼ","kana_address":"ﾅﾝｶﾞｲﾅｶｸﾜﾀﾞｲ","pref":"秋田県","city":"大仙市","address":"南外中桑台"},
{"zip_code":"0191874","kana_pref":"ｱｷﾀｹﾝ","kana_city":"ﾀﾞｲｾﾝｼ","kana_address":"ﾅﾝｶﾞｲﾅｶｼｭｸ","pref":"秋田県","city":"大仙市","address":"南外中宿"},
{"zip_code":"0191921","kana_pref":"ｱｷﾀｹﾝ","kana_city":"ﾀﾞｲｾﾝｼ","kana_address":"ﾅﾝｶﾞｲﾅｶﾉ","pref":"秋田県","city":"大仙市","address":"南外中野"},
{"zip_code":"0191929","kana_pref":"ｱｷﾀｹﾝ","kana_city":"ﾀﾞｲｾﾝｼ","kana_address":"ﾅﾝｶﾞｲﾅｶﾉﾔﾏ","pref":"秋田県","city":"大仙市","address":"南外中野山"},
{"zip_code":"0191904","kana_pref":"ｱｷﾀｹﾝ","kana_city":"ﾀﾞｲｾﾝｼ","kana_address":"ﾅﾝｶﾞｲﾅｶﾌﾞｸﾛ","pref":"秋田県","city":"大仙市","address":"南外中袋"},
{"zip_code":"0191887","kana_pref":"ｱｷﾀｹﾝ","kana_city":"ﾀﾞｲｾﾝｼ","kana_address":"ﾅﾝｶﾞｲﾅｶﾜﾀﾘ","pref":"秋田県","city":"大仙市","address":"南外中渡"},
{"zip_code":"0191846","kana_pref":"ｱｷﾀｹﾝ","kana_city":"ﾀﾞｲｾﾝｼ","kana_address":"ﾅﾝｶﾞｲﾅｼｷﾀﾞ","pref":"秋田県","city":"大仙市","address":"南外梨木田"},
{"zip_code":"0191805","kana_pref":"ｱｷﾀｹﾝ","kana_city":"ﾀﾞｲｾﾝｼ","kana_address":"ﾅﾝｶﾞｲﾆｼｲﾀﾄﾞ","pref":"秋田県","city":"大仙市","address":"南外西板戸"},
{"zip_code":"0191804","kana_pref":"ｱｷﾀｹﾝ","kana_city":"ﾀﾞｲｾﾝｼ","kana_address":"ﾅﾝｶﾞｲﾆｼﾉ","pref":"秋田県","city":"大仙市","address":"南外西野"},
{"zip_code":"0191886","kana_pref":"ｱｷﾀｹﾝ","kana_city":"ﾀﾞｲｾﾝｼ","kana_address":"ﾅﾝｶﾞｲﾆｼﾉﾏﾀ","pref":"秋田県","city":"大仙市","address":"南外西ノ又"},
{"zip_code":"0191963","kana_pref":"ｱｷﾀｹﾝ","kana_city":"ﾀﾞｲｾﾝｼ","kana_address":"ﾅﾝｶﾞｲﾆｼﾉﾏﾀﾀｷﾉｻﾜ","pref":"秋田県","city":"大仙市","address":"南外西ノ又滝ノ沢"},
{"zip_code":"0191878","kana_pref":"ｱｷﾀｹﾝ","kana_city":"ﾀﾞｲｾﾝｼ","kana_address":"ﾅﾝｶﾞｲﾉｿﾞｷ","pref":"秋田県","city":"大仙市","address":"南外及位"},
{"zip_code":"0191884","kana_pref":"ｱｷﾀｹﾝ","kana_city":"ﾀﾞｲｾﾝｼ","kana_address":"ﾅﾝｶﾞｲﾊﾔｼﾉｻﾜ","pref":"秋田県","city":"大仙市","address":"南外林ノ沢"},
{"zip_code":"0191943","kana_pref":"ｱｷﾀｹﾝ","kana_city":"ﾀﾞｲｾﾝｼ","kana_address":"ﾅﾝｶﾞｲﾋﾄﾊﾈ","pref":"秋田県","city":"大仙市","address":"南外一ト刎"},
{"zip_code":"0191815","kana_pref":"ｱｷﾀｹﾝ","kana_city":"ﾀﾞｲｾﾝｼ","kana_address":"ﾅﾝｶﾞｲﾋﾗｶﾀ","pref":"秋田県","city":"大仙市","address":"南外平形"},
{"zip_code":"0191883","kana_pref":"ｱｷﾀｹﾝ","kana_city":"ﾀﾞｲｾﾝｼ","kana_address":"ﾅﾝｶﾞｲﾋﾗｻﾜ","pref":"秋田県","city":"大仙市","address":"南外平沢"},
{"zip_code":"0191918","kana_pref":"ｱｷﾀｹﾝ","kana_city":"ﾀﾞｲｾﾝｼ","kana_address":"ﾅﾝｶﾞｲﾋﾛｵﾓﾃ","pref":"秋田県","city":"大仙市","address":"南外広表"},
{"zip_code":"0191801","kana_pref":"ｱｷﾀｹﾝ","kana_city":"ﾀﾞｲｾﾝｼ","kana_address":"ﾅﾝｶﾞｲﾌﾞﾂﾄﾞﾀﾞｲ","pref":"秋田県","city":"大仙市","address":"南外物渡台"},
{"zip_code":"0191825","kana_pref":"ｱｷﾀｹﾝ","kana_city":"ﾀﾞｲｾﾝｼ","kana_address":"ﾅﾝｶﾞｲﾎﾞｳﾀﾞ","pref":"秋田県","city":"大仙市","address":"南外坊田"},
{"zip_code":"0191803","kana_pref":"ｱｷﾀｹﾝ","kana_city":"ﾀﾞｲｾﾝｼ","kana_address":"ﾅﾝｶﾞｲﾎﾞｳﾀﾞｲｼﾊｹﾞﾉｼﾀ","pref":"秋田県","city":"大仙市","address":"南外坊田石兀ノ下"},
{"zip_code":"0191853","kana_pref":"ｱｷﾀｹﾝ","kana_city":"ﾀﾞｲｾﾝｼ","kana_address":"ﾅﾝｶﾞｲﾎﾞｳﾀﾞｸﾛｻﾜ","pref":"秋田県","city":"大仙市","address":"南外坊田黒沢"},
{"zip_code":"0191911","kana_pref":"ｱｷﾀｹﾝ","kana_city":"ﾀﾞｲｾﾝｼ","kana_address":"ﾅﾝｶﾞｲﾎﾞｳﾑﾗ","pref":"秋田県","city":"大仙市","address":"南外坊村"},
{"zip_code":"0191941","kana_pref":"ｱｷﾀｹﾝ","kana_city":"ﾀﾞｲｾﾝｼ","kana_address":"ﾅﾝｶﾞｲﾏﾂｷﾀﾞ","pref":"秋田県","city":"大仙市","address":"南外松木田"},
{"zip_code":"0191912","kana_pref":"ｱｷﾀｹﾝ","kana_city":"ﾀﾞｲｾﾝｼ","kana_address":"ﾅﾝｶﾞｲﾏﾙｷﾊﾞｼ","pref":"秋田県","city":"大仙市","address":"南外丸木橋"},
{"zip_code":"0191939","kana_pref":"ｱｷﾀｹﾝ","kana_city":"ﾀﾞｲｾﾝｼ","kana_address":"ﾅﾝｶﾞｲﾐｽﾞｶﾐｻﾞﾜ","pref":"秋田県","city":"大仙市","address":"南外水上沢"},
{"zip_code":"0191877","kana_pref":"ｱｷﾀｹﾝ","kana_city":"ﾀﾞｲｾﾝｼ","kana_address":"ﾅﾝｶﾞｲﾐｽﾞｻﾜ","pref":"秋田県","city":"大仙市","address":"南外水沢"},
{"zip_code":"0191824","kana_pref":"ｱｷﾀｹﾝ","kana_city":"ﾀﾞｲｾﾝｼ","kana_address":"ﾅﾝｶﾞｲﾐﾔﾀ","pref":"秋田県","city":"大仙市","address":"南外宮田"},
{"zip_code":"0191958","kana_pref":"ｱｷﾀｹﾝ","kana_city":"ﾀﾞｲｾﾝｼ","kana_address":"ﾅﾝｶﾞｲﾑｶｲﾉｻﾜ","pref":"秋田県","city":"大仙市","address":"南外向ノ沢"},
{"zip_code":"0191881","kana_pref":"ｱｷﾀｹﾝ","kana_city":"ﾀﾞｲｾﾝｼ","kana_address":"ﾅﾝｶﾞｲﾑｸﾞﾗｻﾜ","pref":"秋田県","city":"大仙市","address":"南外葎沢"},
{"zip_code":"0191885","kana_pref":"ｱｷﾀｹﾝ","kana_city":"ﾀﾞｲｾﾝｼ","kana_address":"ﾅﾝｶﾞｲﾑｼﾞﾘﾊﾞｼ","pref":"秋田県","city":"大仙市","address":"南外無尻橋"},
{"zip_code":"0191811","kana_pref":"ｱｷﾀｹﾝ","kana_city":"ﾀﾞｲｾﾝｼ","kana_address":"ﾅﾝｶﾞｲﾓﾄｼｭｸ","pref":"秋田県","city":"大仙市","address":"南外本宿"},
{"zip_code":"0191917","kana_pref":"ｱｷﾀｹﾝ","kana_city":"ﾀﾞｲｾﾝｼ","kana_address":"ﾅﾝｶﾞｲﾔｸｼﾄﾞｳ","pref":"秋田県","city":"大仙市","address":"南外薬師堂"},
{"zip_code":"0191871","kana_pref":"ｱｷﾀｹﾝ","kana_city":"ﾀﾞｲｾﾝｼ","kana_address":"ﾅﾝｶﾞｲﾔﾁﾀﾞ","pref":"秋田県","city":"大仙市","address":"南外谷地田"},
{"zip_code":"0191913","kana_pref":"ｱｷﾀｹﾝ","kana_city":"ﾀﾞｲｾﾝｼ","kana_address":"ﾅﾝｶﾞｲﾕｶﾞﾐﾀﾞｲ","pref":"秋田県","city":"大仙市","address":"南外湯神台"},
{"zip_code":"0191914","kana_pref":"ｱｷﾀｹﾝ","kana_city":"ﾀﾞｲｾﾝｼ","kana_address":"ﾅﾝｶﾞｲﾕﾉﾏﾀ","pref":"秋田県","city":"大仙市","address":"南外湯ノ又"},
{"zip_code":"0191944","kana_pref":"ｱｷﾀｹﾝ","kana_city":"ﾀﾞｲｾﾝｼ","kana_address":"ﾅﾝｶﾞｲﾕﾓﾄ","pref":"秋田県","city":"大仙市","address":"南外湯元"},
{"zip_code":"0191962","kana_pref":"ｱｷﾀｹﾝ","kana_city":"ﾀﾞｲｾﾝｼ","kana_address":"ﾅﾝｶﾞｲﾜｶﾊﾞﾔｼ","pref":"秋田県","city":"大仙市","address":"南外若林"},
{"zip_code":"0191862","kana_pref":"ｱｷﾀｹﾝ","kana_city":"ﾀﾞｲｾﾝｼ","kana_address":"ﾅﾝｶﾞｲﾜｺﾞｳ","pref":"秋田県","city":"大仙市","address":"南外和合"},
{"zip_code":"0191400","kana_pref":"ｱｷﾀｹﾝ","kana_city":"ｾﾝﾎﾞｸｸﾞﾝﾐｻﾄﾁｮｳ","kana_address":"","pref":"秋田県","city":"仙北郡美郷町","address":""},
{"zip_code":"0191533","kana_pref":"ｱｷﾀｹﾝ","kana_city":"ｾﾝﾎﾞｸｸﾞﾝﾐｻﾄﾁｮｳ","kana_address":"ｱﾝｼﾞｮｳｼﾞ","pref":"秋田県","city":"仙北郡美郷町","address":"安城寺"},
{"zip_code":"0191234","kana_pref":"ｱｷﾀｹﾝ","kana_city":"ｾﾝﾎﾞｸｸﾞﾝﾐｻﾄﾁｮｳ","kana_address":"ｲｲﾂﾞﾒ","pref":"秋田県","city":"仙北郡美郷町","address":"飯詰"},
{"zip_code":"0191302","kana_pref":"ｱｷﾀｹﾝ","kana_city":"ｾﾝﾎﾞｸｸﾞﾝﾐｻﾄﾁｮｳ","kana_address":"ｶﾈｻﾞﾜ","pref":"秋田県","city":"仙北郡美郷町","address":"金沢"},
{"zip_code":"0191235","kana_pref":"ｱｷﾀｹﾝ","kana_city":"ｾﾝﾎﾞｸｸﾞﾝﾐｻﾄﾁｮｳ","kana_address":"ｶﾈｻﾞﾜﾆｼﾈ","pref":"秋田県","city":"仙北郡美郷町","address":"金沢西根"},
{"zip_code":"0191522","kana_pref":"ｱｷﾀｹﾝ","kana_city":"ｾﾝﾎﾞｸｸﾞﾝﾐｻﾄﾁｮｳ","kana_address":"ｶﾈｻﾞﾜﾋｶﾞｼﾈ","pref":"秋田県","city":"仙北郡美郷町","address":"金沢東根"},
{"zip_code":"0191236","kana_pref":"ｱｷﾀｹﾝ","kana_city":"ｾﾝﾎﾞｸｸﾞﾝﾐｻﾄﾁｮｳ","kana_address":"ｶﾐﾌｶｲ","pref":"秋田県","city":"仙北郡美郷町","address":"上深井"},
{"zip_code":"0191511","kana_pref":"ｱｷﾀｹﾝ","kana_city":"ｾﾝﾎﾞｸｸﾞﾝﾐｻﾄﾁｮｳ","kana_address":"ｸﾛｻﾜ","pref":"秋田県","city":"仙北郡美郷町","address":"黒沢"},
{"zip_code":"0191542","kana_pref":"ｱｷﾀｹﾝ","kana_city":"ｾﾝﾎﾞｸｸﾞﾝﾐｻﾄﾁｮｳ","kana_address":"ｺｱﾗｶﾜ","pref":"秋田県","city":"仙北郡美郷町","address":"小荒川"},
{"zip_code":"0191233","kana_pref":"ｱｷﾀｹﾝ","kana_city":"ｾﾝﾎﾞｸｸﾞﾝﾐｻﾄﾁｮｳ","kana_address":"ｻｶｲﾀﾞ","pref":"秋田県","city":"仙北郡美郷町","address":"境田"},
{"zip_code":"0191237","kana_pref":"ｱｷﾀｹﾝ","kana_city":"ｾﾝﾎﾞｸｸﾞﾝﾐｻﾄﾁｮｳ","kana_address":"ｻﾉ","pref":"秋田県","city":"仙北郡美郷町","address":"佐野"},
{"zip_code":"0191502","kana_pref":"ｱｷﾀｹﾝ","kana_city":"ｾﾝﾎﾞｸｸﾞﾝﾐｻﾄﾁｮｳ","kana_address":"ｾﾝﾔ","pref":"秋田県","city":"仙北郡美郷町","address":"千屋"},
{"zip_code":"0191541","kana_pref":"ｱｷﾀｹﾝ","kana_city":"ｾﾝﾎﾞｸｸﾞﾝﾐｻﾄﾁｮｳ","kana_address":"ﾂﾁｻﾞｷ","pref":"秋田県","city":"仙北郡美郷町","address":"土崎"},
{"zip_code":"0191232","kana_pref":"ｱｷﾀｹﾝ","kana_city":"ｾﾝﾎﾞｸｸﾞﾝﾐｻﾄﾁｮｳ","kana_address":"ﾃﾝｼﾞﾝﾄﾞｳ","pref":"秋田県","city":"仙北郡美郷町","address":"天神堂"},
{"zip_code":"0191521","kana_pref":"ｱｷﾀｹﾝ","kana_city":"ｾﾝﾎﾞｸｸﾞﾝﾐｻﾄﾁｮｳ","kana_address":"ﾅｶﾉ","pref":"秋田県","city":"仙北郡美郷町","address":"中野"},
{"zip_code":"0191501","kana_pref":"ｱｷﾀｹﾝ","kana_city":"ｾﾝﾎﾞｸｸﾞﾝﾐｻﾄﾁｮｳ","kana_address":"ﾅﾆﾜ","pref":"秋田県","city":"仙北郡美郷町","address":"浪花"},
{"zip_code":"0191301","kana_pref":"ｱｷﾀｹﾝ","kana_city":"ｾﾝﾎﾞｸｸﾞﾝﾐｻﾄﾁｮｳ","kana_address":"ﾉｱﾗﾏﾁ","pref":"秋田県","city":"仙北郡美郷町","address":"野荒町"},
{"zip_code":"0191402","kana_pref":"ｱｷﾀｹﾝ","kana_city":"ｾﾝﾎﾞｸｸﾞﾝﾐｻﾄﾁｮｳ","kana_address":"ﾉﾅｶ","pref":"秋田県","city":"仙北郡美郷町","address":"野中"},
{"zip_code":"0191531","kana_pref":"ｱｷﾀｹﾝ","kana_city":"ｾﾝﾎﾞｸｸﾞﾝﾐｻﾄﾁｮｳ","kana_address":"ﾊﾀﾔ","pref":"秋田県","city":"仙北郡美郷町","address":"畑屋"},
{"zip_code":"0191532","kana_pref":"ｱｷﾀｹﾝ","kana_city":"ｾﾝﾎﾞｸｸﾞﾝﾐｻﾄﾁｮｳ","kana_address":"ﾊﾇｷﾔﾁ","pref":"秋田県","city":"仙北郡美郷町","address":"羽貫谷地"},
{"zip_code":"0191512","kana_pref":"ｱｷﾀｹﾝ","kana_city":"ｾﾝﾎﾞｸｸﾞﾝﾐｻﾄﾁｮｳ","kana_address":"ﾎﾝﾄﾞｳｼﾛﾏﾜﾘ","pref":"秋田県","city":"仙北郡美郷町","address":"本堂城回"},
{"zip_code":"0191231","kana_pref":"ｱｷﾀｹﾝ","kana_city":"ｾﾝﾎﾞｸｸﾞﾝﾐｻﾄﾁｮｳ","kana_address":"ﾐﾅﾐﾏﾁ","pref":"秋田県","city":"仙北郡美郷町","address":"南町"},
{"zip_code":"0191401","kana_pref":"ｱｷﾀｹﾝ","kana_city":"ｾﾝﾎﾞｸｸﾞﾝﾐｻﾄﾁｮｳ","kana_address":"ﾔﾘﾀﾞ","pref":"秋田県","city":"仙北郡美郷町","address":"鑓田"},
{"zip_code":"0191404","kana_pref":"ｱｷﾀｹﾝ","kana_city":"ｾﾝﾎﾞｸｸﾞﾝﾐｻﾄﾁｮｳ","kana_address":"ﾛｸｺﾞｳ","pref":"秋田県","city":"仙北郡美郷町","address":"六郷"},
{"zip_code":"0191403","kana_pref":"ｱｷﾀｹﾝ","kana_city":"ｾﾝﾎﾞｸｸﾞﾝﾐｻﾄﾁｮｳ","kana_address":"ﾛｸｺﾞｳﾋｶﾞｼﾈ","pref":"秋田県","city":"仙北郡美郷町","address":"六郷東根"},
{"zip_code":"0190800","kana_pref":"ｱｷﾀｹﾝ","kana_city":"ｵｶﾞﾁｸﾞﾝﾋｶﾞｼﾅﾙｾﾑﾗ","kana_address":"","pref":"秋田県","city":"雄勝郡東成瀬村","address":""},
{"zip_code":"0190802","kana_pref":"ｱｷﾀｹﾝ","kana_city":"ｵｶﾞﾁｸﾞﾝﾋｶﾞｼﾅﾙｾﾑﾗ","kana_address":"ｲﾜｲｶﾜ","pref":"秋田県","city":"雄勝郡東成瀬村","address":"岩井川"},
{"zip_code":"0190801","kana_pref":"ｱｷﾀｹﾝ","kana_city":"ｵｶﾞﾁｸﾞﾝﾋｶﾞｼﾅﾙｾﾑﾗ","kana_address":"ﾀｺﾞﾅｲ","pref":"秋田県","city":"雄勝郡東成瀬村","address":"田子内"},
{"zip_code":"0190803","kana_pref":"ｱｷﾀｹﾝ","kana_city":"ｵｶﾞﾁｸﾞﾝﾋｶﾞｼﾅﾙｾﾑﾗ","kana_address":"ﾂﾊﾞｷｶﾜ","pref":"秋田県","city":"雄勝郡東成瀬村","address":"椿川"}]}