{"zip_code":[
{"zip_code":"0210000","kana_pref":"ｲﾜﾃｹﾝ","kana_city":"ｲﾁﾉｾｷｼ","kana_address":"","pref":"岩手県","city":"一関市","address":""},
{"zip_code":"0210853","kana_pref":"ｲﾜﾃｹﾝ","kana_city":"ｲﾁﾉｾｷｼ","kana_address":"ｱｲｻﾘ","pref":"岩手県","city":"一関市","address":"相去"},
{"zip_code":"0210031","kana_pref":"ｲﾜﾃｹﾝ","kana_city":"ｲﾁﾉｾｷｼ","kana_address":"ｱｵﾊﾞ","pref":"岩手県","city":"一関市","address":"青葉"},
{"zip_code":"0210041","kana_pref":"ｲﾜﾃｹﾝ","kana_city":"ｲﾁﾉｾｷｼ","kana_address":"ｱｺｵｷﾞ","pref":"岩手県","city":"一関市","address":"赤荻"},
{"zip_code":"0210864","kana_pref":"ｲﾜﾃｹﾝ","kana_city":"ｲﾁﾉｾｷｼ","kana_address":"ｱｻﾋﾁｮｳ","pref":"岩手県","city":"一関市","address":"旭町"},
{"zip_code":"0210008","kana_pref":"ｲﾜﾃｹﾝ","kana_city":"ｲﾁﾉｾｷｼ","kana_address":"ｲｼﾊﾞﾀｹ","pref":"岩手県","city":"一関市","address":"石畑"},
{"zip_code":"0210894","kana_pref":"ｲﾜﾃｹﾝ","kana_city":"ｲﾁﾉｾｷｼ","kana_address":"ｲﾜｲﾁｮｳ","pref":"岩手県","city":"一関市","address":"磐井町"},
{"zip_code":"0210834","kana_pref":"ｲﾜﾃｹﾝ","kana_city":"ｲﾁﾉｾｷｼ","kana_address":"ｳﾅﾝ","pref":"岩手県","city":"一関市","address":"宇南"},
{"zip_code":"0210867","kana_pref":"ｲﾜﾃｹﾝ","kana_city":"ｲﾁﾉｾｷｼ","kana_address":"ｴｷﾏｴ","pref":"岩手県","city":"一関市","address":"駅前"},
{"zip_code":"0210884","kana_pref":"ｲﾜﾃｹﾝ","kana_city":"ｲﾁﾉｾｷｼ","kana_address":"ｵｵﾃﾏﾁ","pref":"岩手県","city":"一関市","address":"大手町"},
{"zip_code":"0210881","kana_pref":"ｲﾜﾃｹﾝ","kana_city":"ｲﾁﾉｾｷｼ","kana_address":"ｵｵﾏﾁ","pref":"岩手県","city":"一関市","address":"大町"},
{"zip_code":"0210882","kana_pref":"ｲﾜﾃｹﾝ","kana_city":"ｲﾁﾉｾｷｼ","kana_address":"ｶﾐｵｵﾂｷｺｳｼﾞ","pref":"岩手県","city":"一関市","address":"上大槻街"},
{"zip_code":"0210007","kana_pref":"ｲﾜﾃｹﾝ","kana_city":"ｲﾁﾉｾｷｼ","kana_address":"ｶﾐﾋﾃﾞﾘ","pref":"岩手県","city":"一関市","address":"上日照"},
{"zip_code":"0210833","kana_pref":"ｲﾜﾃｹﾝ","kana_city":"ｲﾁﾉｾｷｼ","kana_address":"ｶﾗｶｲ","pref":"岩手県","city":"一関市","address":"柄貝"},
{"zip_code":"0210802","kana_pref":"ｲﾜﾃｹﾝ","kana_city":"ｲﾁﾉｾｷｼ","kana_address":"ｷﾀｼﾞｭｯｹﾝｺｳｼﾞ","pref":"岩手県","city":"一関市","address":"北十軒街"},
{"zip_code":"0210814","kana_pref":"ｲﾜﾃｹﾝ","kana_city":"ｲﾁﾉｾｷｼ","kana_address":"ｷﾀﾎｳﾘｮｳ","pref":"岩手県","city":"一関市","address":"北ほうりょう"},
{"zip_code":"0210811","kana_pref":"ｲﾜﾃｹﾝ","kana_city":"ｲﾁﾉｾｷｼ","kana_address":"ｸﾎﾞ","pref":"岩手県","city":"一関市","address":"久保"},
{"zip_code":"0210101","kana_pref":"ｲﾜﾃｹﾝ","kana_city":"ｲﾁﾉｾｷｼ","kana_address":"ｹﾞﾝﾋﾞﾁｮｳ","pref":"岩手県","city":"一関市","address":"厳美町"},
{"zip_code":"0210804","kana_pref":"ｲﾜﾃｹﾝ","kana_city":"ｲﾁﾉｾｷｼ","kana_address":"ｺﾞｼﾞｭｳﾆﾝﾏﾁ","pref":"岩手県","city":"一関市","address":"五十人町"},
{"zip_code":"0210022","kana_pref":"ｲﾜﾃｹﾝ","kana_city":"ｲﾁﾉｾｷｼ","kana_address":"ｺﾞﾀﾞｲﾁｮｳ","pref":"岩手県","city":"一関市","address":"五代町"},
{"zip_code":"0210052","kana_pref":"ｲﾜﾃｹﾝ","kana_city":"ｲﾁﾉｾｷｼ","kana_address":"ｺﾄﾌﾞｷﾁｮｳ","pref":"岩手県","city":"一関市","address":"寿町"},
{"zip_code":"0210024","kana_pref":"ｲﾜﾃｹﾝ","kana_city":"ｲﾁﾉｾｷｼ","kana_address":"ｻｲﾜｲﾁｮｳ","pref":"岩手県","city":"一関市","address":"幸町"},
{"zip_code":"0210891","kana_pref":"ｲﾜﾃｹﾝ","kana_city":"ｲﾁﾉｾｷｼ","kana_address":"ｻｸﾗｷﾞﾁｮｳ","pref":"岩手県","city":"一関市","address":"桜木町"},
{"zip_code":"0210801","kana_pref":"ｲﾜﾃｹﾝ","kana_city":"ｲﾁﾉｾｷｼ","kana_address":"ｻｸﾗｺｳｼﾞ","pref":"岩手県","city":"一関市","address":"桜街"},
{"zip_code":"0210852","kana_pref":"ｲﾜﾃｹﾝ","kana_city":"ｲﾁﾉｾｷｼ","kana_address":"ｻﾜ","pref":"岩手県","city":"一関市","address":"沢"},
{"zip_code":"0210832","kana_pref":"ｲﾜﾃｹﾝ","kana_city":"ｲﾁﾉｾｷｼ","kana_address":"ｻﾝﾀ","pref":"岩手県","city":"一関市","address":"散田"},
{"zip_code":"0210821","kana_pref":"ｲﾜﾃｹﾝ","kana_city":"ｲﾁﾉｾｷｼ","kana_address":"ｻﾝﾉｾｷ","pref":"岩手県","city":"一関市","address":"三関"},
{"zip_code":"0210893","kana_pref":"ｲﾜﾃｹﾝ","kana_city":"ｲﾁﾉｾｷｼ","kana_address":"ｼﾞｼｭﾏﾁ","pref":"岩手県","city":"一関市","address":"地主町"},
{"zip_code":"0210806","kana_pref":"ｲﾜﾃｹﾝ","kana_city":"ｲﾁﾉｾｷｼ","kana_address":"ｼﾓｵｵﾂｷｺｳｼﾞ","pref":"岩手県","city":"一関市","address":"下大槻街"},
{"zip_code":"0210877","kana_pref":"ｲﾜﾃｹﾝ","kana_city":"ｲﾁﾉｾｷｼ","kana_address":"ｼﾞｮｳﾅｲ","pref":"岩手県","city":"一関市","address":"城内"},
{"zip_code":"0210006","kana_pref":"ｲﾜﾃｹﾝ","kana_city":"ｲﾁﾉｾｷｼ","kana_address":"ｼﾞｮｳﾎﾞｳ","pref":"岩手県","city":"一関市","address":"上坊"},
{"zip_code":"0210883","kana_pref":"ｲﾜﾃｹﾝ","kana_city":"ｲﾁﾉｾｷｼ","kana_address":"ｼﾝｵｵﾏﾁ","pref":"岩手県","city":"一関市","address":"新大町"},
{"zip_code":"0210001","kana_pref":"ｲﾜﾃｹﾝ","kana_city":"ｲﾁﾉｾｷｼ","kana_address":"ｼﾝﾏﾁ","pref":"岩手県","city":"一関市","address":"新町"},
{"zip_code":"0210841","kana_pref":"ｲﾜﾃｹﾝ","kana_city":"ｲﾁﾉｾｷｼ","kana_address":"ｽｲｶﾜｺｳｼﾞ","pref":"岩手県","city":"一関市","address":"吸川街"},
{"zip_code":"0210032","kana_pref":"ｲﾜﾃｹﾝ","kana_city":"ｲﾁﾉｾｷｼ","kana_address":"ｽｴﾋﾛ","pref":"岩手県","city":"一関市","address":"末広"},
{"zip_code":"0210851","kana_pref":"ｲﾜﾃｹﾝ","kana_city":"ｲﾁﾉｾｷｼ","kana_address":"ｾｷｶﾞｵｶ","pref":"岩手県","city":"一関市","address":"関が丘"},
{"zip_code":"0210873","kana_pref":"ｲﾜﾃｹﾝ","kana_city":"ｲﾁﾉｾｷｼ","kana_address":"ﾀﾞｲﾏﾁ","pref":"岩手県","city":"一関市","address":"台町"},
{"zip_code":"0210875","kana_pref":"ｲﾜﾃｹﾝ","kana_city":"ｲﾁﾉｾｷｼ","kana_address":"ﾀｶｻｷﾁｮｳ","pref":"岩手県","city":"一関市","address":"高崎町"},
{"zip_code":"0210027","kana_pref":"ｲﾜﾃｹﾝ","kana_city":"ｲﾁﾉｾｷｼ","kana_address":"ﾀｹﾔﾏﾁｮｳ","pref":"岩手県","city":"一関市","address":"竹山町"},
{"zip_code":"0210885","kana_pref":"ｲﾜﾃｹﾝ","kana_city":"ｲﾁﾉｾｷｼ","kana_address":"ﾀﾑﾗﾁｮｳ","pref":"岩手県","city":"一関市","address":"田村町"},
{"zip_code":"0210844","kana_pref":"ｲﾜﾃｹﾝ","kana_city":"ｲﾁﾉｾｷｼ","kana_address":"ﾀﾝﾏﾁ","pref":"岩手県","city":"一関市","address":"反町"},
{"zip_code":"0210021","kana_pref":"ｲﾜﾃｹﾝ","kana_city":"ｲﾁﾉｾｷｼ","kana_address":"ﾁｭｳｵｳﾁｮｳ","pref":"岩手県","city":"一関市","address":"中央町"},
{"zip_code":"0210862","kana_pref":"ｲﾜﾃｹﾝ","kana_city":"ｲﾁﾉｾｷｼ","kana_address":"ﾁﾖﾀﾞﾁｮｳ","pref":"岩手県","city":"一関市","address":"千代田町"},
{"zip_code":"0210874","kana_pref":"ｲﾜﾃｹﾝ","kana_city":"ｲﾁﾉｾｷｼ","kana_address":"ﾂﾘﾔﾏ","pref":"岩手県","city":"一関市","address":"釣山"},
{"zip_code":"0210023","kana_pref":"ｲﾜﾃｹﾝ","kana_city":"ｲﾁﾉｾｷｼ","kana_address":"ﾄﾞｳﾔﾁｮｳ","pref":"岩手県","city":"一関市","address":"銅谷町"},
{"zip_code":"0210005","kana_pref":"ｲﾜﾃｹﾝ","kana_city":"ｲﾁﾉｾｷｼ","kana_address":"ﾅｶｻﾄ","pref":"岩手県","city":"一関市","address":"中里"},
{"zip_code":"0210002","kana_pref":"ｲﾜﾃｹﾝ","kana_city":"ｲﾁﾉｾｷｼ","kana_address":"ﾅｶｻﾄ","pref":"岩手県","city":"一関市","address":"中里"},
{"zip_code":"0210836","kana_pref":"ｲﾜﾃｹﾝ","kana_city":"ｲﾁﾉｾｷｼ","kana_address":"ﾅﾙｶﾞﾐ","pref":"岩手県","city":"一関市","address":"鳴神"},
{"zip_code":"0210865","kana_pref":"ｲﾜﾃｹﾝ","kana_city":"ｲﾁﾉｾｷｼ","kana_address":"ﾆｲﾔﾏ","pref":"岩手県","city":"一関市","address":"新山"},
{"zip_code":"0210854","kana_pref":"ｲﾜﾃｹﾝ","kana_city":"ｲﾁﾉｾｷｼ","kana_address":"ﾆｼｻﾞﾜ","pref":"岩手県","city":"一関市","address":"西沢"},
{"zip_code":"0210835","kana_pref":"ｲﾜﾃｹﾝ","kana_city":"ｲﾁﾉｾｷｼ","kana_address":"ﾆﾎﾝｷﾞ","pref":"岩手県","city":"一関市","address":"二本木"},
{"zip_code":"0210831","kana_pref":"ｲﾜﾃｹﾝ","kana_city":"ｲﾁﾉｾｷｼ","kana_address":"ﾇﾏﾀ","pref":"岩手県","city":"一関市","address":"沼田"},
{"zip_code":"0210102","kana_pref":"ｲﾜﾃｹﾝ","kana_city":"ｲﾁﾉｾｷｼ","kana_address":"ﾊｷﾞｼｮｳ","pref":"岩手県","city":"一関市","address":"萩荘"},
{"zip_code":"0210902","kana_pref":"ｲﾜﾃｹﾝ","kana_city":"ｲﾁﾉｾｷｼ","kana_address":"ﾊｷﾞｼｮｳ","pref":"岩手県","city":"一関市","address":"萩荘"},
{"zip_code":"0210861","kana_pref":"ｲﾜﾃｹﾝ","kana_city":"ｲﾁﾉｾｷｼ","kana_address":"ﾊﾀｵﾘﾔﾏ","pref":"岩手県","city":"一関市","address":"機織山"},
{"zip_code":"0210871","kana_pref":"ｲﾜﾃｹﾝ","kana_city":"ｲﾁﾉｾｷｼ","kana_address":"ﾊﾁﾏﾝﾁｮｳ","pref":"岩手県","city":"一関市","address":"八幡町"},
{"zip_code":"0210807","kana_pref":"ｲﾜﾃｹﾝ","kana_city":"ｲﾁﾉｾｷｼ","kana_address":"ﾋｶﾞｼｶｵｳﾁｮｳ","pref":"岩手県","city":"一関市","address":"東花王町"},
{"zip_code":"0210003","kana_pref":"ｲﾜﾃｹﾝ","kana_city":"ｲﾁﾉｾｷｼ","kana_address":"ﾋｶﾞｼｺﾞﾀﾞｲ","pref":"岩手県","city":"一関市","address":"東五代"},
{"zip_code":"0210892","kana_pref":"ｲﾜﾃｹﾝ","kana_city":"ｲﾁﾉｾｷｼ","kana_address":"ﾋｶﾞｼｼﾞｼｭﾏﾁ","pref":"岩手県","city":"一関市","address":"東地主町"},
{"zip_code":"0210822","kana_pref":"ｲﾜﾃｹﾝ","kana_city":"ｲﾁﾉｾｷｼ","kana_address":"ﾋｶﾞｼﾀﾞｲ","pref":"岩手県","city":"一関市","address":"東台"},
{"zip_code":"0210876","kana_pref":"ｲﾜﾃｹﾝ","kana_city":"ｲﾁﾉｾｷｼ","kana_address":"ﾋﾛｺｳｼﾞ","pref":"岩手県","city":"一関市","address":"広街"},
{"zip_code":"0210812","kana_pref":"ｲﾜﾃｹﾝ","kana_city":"ｲﾁﾉｾｷｼ","kana_address":"ﾋﾜﾀｼ","pref":"岩手県","city":"一関市","address":"樋渡"},
{"zip_code":"0210843","kana_pref":"ｲﾜﾃｹﾝ","kana_city":"ｲﾁﾉｾｷｼ","kana_address":"ﾌｶﾏﾁ","pref":"岩手県","city":"一関市","address":"深町"},
{"zip_code":"0210221","kana_pref":"ｲﾜﾃｹﾝ","kana_city":"ｲﾁﾉｾｷｼ","kana_address":"ﾏｲｶﾜ","pref":"岩手県","city":"一関市","address":"舞川"},
{"zip_code":"0210901","kana_pref":"ｲﾜﾃｹﾝ","kana_city":"ｲﾁﾉｾｷｼ","kana_address":"ﾏｼﾊﾞ","pref":"岩手県","city":"一関市","address":"真柴"},
{"zip_code":"0210004","kana_pref":"ｲﾜﾃｹﾝ","kana_city":"ｲﾁﾉｾｷｼ","kana_address":"ﾏﾁｳﾗ","pref":"岩手県","city":"一関市","address":"町浦"},
{"zip_code":"0210803","kana_pref":"ｲﾜﾃｹﾝ","kana_city":"ｲﾁﾉｾｷｼ","kana_address":"ﾐﾅﾐｼﾞｭｯｹﾝｺｳｼﾞ","pref":"岩手県","city":"一関市","address":"南十軒街"},
{"zip_code":"0210866","kana_pref":"ｲﾜﾃｹﾝ","kana_city":"ｲﾁﾉｾｷｼ","kana_address":"ﾐﾅﾐｼﾝﾏﾁ","pref":"岩手県","city":"一関市","address":"南新町"},
{"zip_code":"0210813","kana_pref":"ｲﾜﾃｹﾝ","kana_city":"ｲﾁﾉｾｷｼ","kana_address":"ﾐﾅﾐﾎｳﾘｮｳ","pref":"岩手県","city":"一関市","address":"南ほうりょう"},
{"zip_code":"0210863","kana_pref":"ｲﾜﾃｹﾝ","kana_city":"ｲﾁﾉｾｷｼ","kana_address":"ﾐﾅﾐﾏﾁ","pref":"岩手県","city":"一関市","address":"南町"},
{"zip_code":"0210872","kana_pref":"ｲﾜﾃｹﾝ","kana_city":"ｲﾁﾉｾｷｼ","kana_address":"ﾐﾔｻｶﾁｮｳ","pref":"岩手県","city":"一関市","address":"宮坂町"},
{"zip_code":"0210013","kana_pref":"ｲﾜﾃｹﾝ","kana_city":"ｲﾁﾉｾｷｼ","kana_address":"ﾐﾔｼﾀﾁｮｳ","pref":"岩手県","city":"一関市","address":"宮下町"},
{"zip_code":"0210012","kana_pref":"ｲﾜﾃｹﾝ","kana_city":"ｲﾁﾉｾｷｼ","kana_address":"ﾐﾔﾏｴﾁｮｳ","pref":"岩手県","city":"一関市","address":"宮前町"},
{"zip_code":"0210842","kana_pref":"ｲﾜﾃｹﾝ","kana_city":"ｲﾁﾉｾｷｼ","kana_address":"ﾔﾅｷﾞﾏﾁ","pref":"岩手県","city":"一関市","address":"柳町"},
{"zip_code":"0210063","kana_pref":"ｲﾜﾃｹﾝ","kana_city":"ｲﾁﾉｾｷｼ","kana_address":"ﾔﾏﾉﾒ","pref":"岩手県","city":"一関市","address":"山目"},
{"zip_code":"0210035","kana_pref":"ｲﾜﾃｹﾝ","kana_city":"ｲﾁﾉｾｷｼ","kana_address":"ﾔﾏﾉﾒ","pref":"岩手県","city":"一関市","address":"山目"},
{"zip_code":"0210054","kana_pref":"ｲﾜﾃｹﾝ","kana_city":"ｲﾁﾉｾｷｼ","kana_address":"ﾔﾏﾉﾒ","pref":"岩手県","city":"一関市","address":"山目"},
{"zip_code":"0210033","kana_pref":"ｲﾜﾃｹﾝ","kana_city":"ｲﾁﾉｾｷｼ","kana_address":"ﾔﾏﾉﾒ","pref":"岩手県","city":"一関市","address":"山目"},
{"zip_code":"0210064","kana_pref":"ｲﾜﾃｹﾝ","kana_city":"ｲﾁﾉｾｷｼ","kana_address":"ﾔﾏﾉﾒ","pref":"岩手県","city":"一関市","address":"山目"},
{"zip_code":"0210051","kana_pref":"ｲﾜﾃｹﾝ","kana_city":"ｲﾁﾉｾｷｼ","kana_address":"ﾔﾏﾉﾒ","pref":"岩手県","city":"一関市","address":"山目"},
{"zip_code":"0210036","kana_pref":"ｲﾜﾃｹﾝ","kana_city":"ｲﾁﾉｾｷｼ","kana_address":"ﾔﾏﾉﾒ","pref":"岩手県","city":"一関市","address":"山目"},
{"zip_code":"0210034","kana_pref":"ｲﾜﾃｹﾝ","kana_city":"ｲﾁﾉｾｷｼ","kana_address":"ﾔﾏﾉﾒ","pref":"岩手県","city":"一関市","address":"山目"},
{"zip_code":"0210061","kana_pref":"ｲﾜﾃｹﾝ","kana_city":"ｲﾁﾉｾｷｼ","kana_address":"ﾔﾏﾉﾒ","pref":"岩手県","city":"一関市","address":"山目"},
{"zip_code":"0210062","kana_pref":"ｲﾜﾃｹﾝ","kana_city":"ｲﾁﾉｾｷｼ","kana_address":"ﾔﾏﾉﾒ","pref":"岩手県","city":"一関市","address":"山目"},
{"zip_code":"0210055","kana_pref":"ｲﾜﾃｹﾝ","kana_city":"ｲﾁﾉｾｷｼ","kana_address":"ﾔﾏﾉﾒ","pref":"岩手県","city":"一関市","address":"山目"},
{"zip_code":"0210056","kana_pref":"ｲﾜﾃｹﾝ","kana_city":"ｲﾁﾉｾｷｼ","kana_address":"ﾔﾏﾉﾒ","pref":"岩手県","city":"一関市","address":"山目"},
{"zip_code":"0210053","kana_pref":"ｲﾜﾃｹﾝ","kana_city":"ｲﾁﾉｾｷｼ","kana_address":"ﾔﾏﾉﾒ","pref":"岩手県","city":"一関市","address":"山目"},
{"zip_code":"0210026","kana_pref":"ｲﾜﾃｹﾝ","kana_city":"ｲﾁﾉｾｷｼ","kana_address":"ﾔﾏﾉﾒ","pref":"岩手県","city":"一関市","address":"山目"},
{"zip_code":"0210025","kana_pref":"ｲﾜﾃｹﾝ","kana_city":"ｲﾁﾉｾｷｼ","kana_address":"ﾔﾏﾉﾒ","pref":"岩手県","city":"一関市","address":"山目"},
{"zip_code":"0210011","kana_pref":"ｲﾜﾃｹﾝ","kana_city":"ｲﾁﾉｾｷｼ","kana_address":"ﾔﾏﾉﾒﾏﾁ","pref":"岩手県","city":"一関市","address":"山目町"},
{"zip_code":"0210805","kana_pref":"ｲﾜﾃｹﾝ","kana_city":"ｲﾁﾉｾｷｼ","kana_address":"ﾕﾀｶﾏﾁ","pref":"岩手県","city":"一関市","address":"豊町"},
{"zip_code":"0210815","kana_pref":"ｲﾜﾃｹﾝ","kana_city":"ｲﾁﾉｾｷｼ","kana_address":"ﾖｳｶﾞｲ","pref":"岩手県","city":"一関市","address":"要害"},
{"zip_code":"0210014","kana_pref":"ｲﾜﾃｹﾝ","kana_city":"ｲﾁﾉｾｷｼ","kana_address":"ﾗﾝﾊﾞｲﾁｮｳ","pref":"岩手県","city":"一関市","address":"蘭梅町"}]}