{"zip_code":[
{"zip_code":"0230000","kana_pref":"ｲﾜﾃｹﾝ","kana_city":"ｵｳｼｭｳｼ","kana_address":"","pref":"岩手県","city":"奥州市","address":""},
{"zip_code":"0230402","kana_pref":"ｲﾜﾃｹﾝ","kana_city":"ｵｳｼｭｳｼ","kana_address":"ｲｻﾜｸｵﾔﾏ","pref":"岩手県","city":"奥州市","address":"胆沢区小山"},
{"zip_code":"0230401","kana_pref":"ｲﾜﾃｹﾝ","kana_city":"ｵｳｼｭｳｼ","kana_address":"ｲｻﾜｸﾅﾂﾀ","pref":"岩手県","city":"奥州市","address":"胆沢区南都田"},
{"zip_code":"0230403","kana_pref":"ｲﾜﾃｹﾝ","kana_city":"ｵｳｼｭｳｼ","kana_address":"ｲｻﾜｸﾜｶﾔﾅｷﾞ","pref":"岩手県","city":"奥州市","address":"胆沢区若柳"},
{"zip_code":"0231761","kana_pref":"ｲﾜﾃｹﾝ","kana_city":"ｵｳｼｭｳｼ","kana_address":"ｴｻｼｸｲﾃﾞ","pref":"岩手県","city":"奥州市","address":"江刺区伊手"},
{"zip_code":"0231132","kana_pref":"ｲﾜﾃｹﾝ","kana_city":"ｵｳｼｭｳｼ","kana_address":"ｴｻｼｸｲﾅｾ","pref":"岩手県","city":"奥州市","address":"江刺区稲瀬"},
{"zip_code":"0231101","kana_pref":"ｲﾜﾃｹﾝ","kana_city":"ｵｳｼｭｳｼ","kana_address":"ｴｻｼｸｲﾜﾔﾄﾞｳ","pref":"岩手県","city":"奥州市","address":"江刺区岩谷堂"},
{"zip_code":"0231111","kana_pref":"ｲﾜﾃｹﾝ","kana_city":"ｵｳｼｭｳｼ","kana_address":"ｴｻｼｸｵｵﾄﾞｵﾘ","pref":"岩手県","city":"奥州市","address":"江刺区大通り"},
{"zip_code":"0231131","kana_pref":"ｲﾜﾃｹﾝ","kana_city":"ｵｳｼｭｳｼ","kana_address":"ｴｻｼｸｵﾀﾞｷ","pref":"岩手県","city":"奥州市","address":"江刺区愛宕"},
{"zip_code":"0231121","kana_pref":"ｲﾜﾃｹﾝ","kana_city":"ｵｳｼｭｳｼ","kana_address":"ｴｻｼｸｵﾄｺｲｼ","pref":"岩手県","city":"奥州市","address":"江刺区男石"},
{"zip_code":"0231114","kana_pref":"ｲﾜﾃｹﾝ","kana_city":"ｵｳｼｭｳｼ","kana_address":"ｴｻｼｸｶﾜﾗﾏﾁ","pref":"岩手県","city":"奥州市","address":"江刺区川原町"},
{"zip_code":"0231118","kana_pref":"ｲﾜﾃｹﾝ","kana_city":"ｵｳｼｭｳｼ","kana_address":"ｴｻｼｸｻｶｴﾁｮｳ","pref":"岩手県","city":"奥州市","address":"江刺区栄町"},
{"zip_code":"0231105","kana_pref":"ｲﾜﾃｹﾝ","kana_city":"ｵｳｼｭｳｼ","kana_address":"ｴｻｼｸｽｷﾞﾉﾏﾁ","pref":"岩手県","city":"奥州市","address":"江刺区杉ノ町"},
{"zip_code":"0231125","kana_pref":"ｲﾜﾃｹﾝ","kana_city":"ｵｳｼｭｳｼ","kana_address":"ｴｻｼｸｾﾞﾆﾏﾁ","pref":"岩手県","city":"奥州市","address":"江刺区銭町"},
{"zip_code":"0231122","kana_pref":"ｲﾜﾃｹﾝ","kana_city":"ｵｳｼｭｳｼ","kana_address":"ｴｻｼｸﾀﾃﾔﾏ","pref":"岩手県","city":"奥州市","address":"江刺区舘山"},
{"zip_code":"0231134","kana_pref":"ｲﾜﾃｹﾝ","kana_city":"ｵｳｼｭｳｼ","kana_address":"ｴｻｼｸﾀﾏｻﾄ","pref":"岩手県","city":"奥州市","address":"江刺区玉里"},
{"zip_code":"0230171","kana_pref":"ｲﾜﾃｹﾝ","kana_city":"ｵｳｼｭｳｼ","kana_address":"ｴｻｼｸﾀﾜﾗ","pref":"岩手県","city":"奥州市","address":"江刺区田原"},
{"zip_code":"0231116","kana_pref":"ｲﾜﾃｹﾝ","kana_city":"ｵｳｼｭｳｼ","kana_address":"ｴｻｼｸﾁｮｳｾﾞﾝｼﾞ","pref":"岩手県","city":"奥州市","address":"江刺区重染寺"},
{"zip_code":"0231104","kana_pref":"ｲﾜﾃｹﾝ","kana_city":"ｵｳｼｭｳｼ","kana_address":"ｴｻｼｸﾄﾖﾀﾁｮｳ","pref":"岩手県","city":"奥州市","address":"江刺区豊田町"},
{"zip_code":"0231113","kana_pref":"ｲﾜﾃｹﾝ","kana_city":"ｵｳｼｭｳｼ","kana_address":"ｴｻｼｸﾅｶﾏﾁ","pref":"岩手県","city":"奥州市","address":"江刺区中町"},
{"zip_code":"0231103","kana_pref":"ｲﾜﾃｹﾝ","kana_city":"ｵｳｼｭｳｼ","kana_address":"ｴｻｼｸﾆｼｵｵﾄﾞｵﾘ","pref":"岩手県","city":"奥州市","address":"江刺区西大通り"},
{"zip_code":"0231133","kana_pref":"ｲﾜﾃｹﾝ","kana_city":"ｵｳｼｭｳｼ","kana_address":"ｴｻｼｸﾋﾛｾ","pref":"岩手県","city":"奥州市","address":"江刺区広瀬"},
{"zip_code":"0231762","kana_pref":"ｲﾜﾃｹﾝ","kana_city":"ｵｳｼｭｳｼ","kana_address":"ｴｻｼｸﾌｼﾞｻﾄ","pref":"岩手県","city":"奥州市","address":"江刺区藤里"},
{"zip_code":"0231115","kana_pref":"ｲﾜﾃｹﾝ","kana_city":"ｵｳｼｭｳｼ","kana_address":"ｴｻｼｸﾎﾝﾁｮｳ","pref":"岩手県","city":"奥州市","address":"江刺区本町"},
{"zip_code":"0231123","kana_pref":"ｲﾜﾃｹﾝ","kana_city":"ｵｳｼｭｳｼ","kana_address":"ｴｻｼｸﾏｴﾀﾞﾁｮｳ","pref":"岩手県","city":"奥州市","address":"江刺区前田町"},
{"zip_code":"0231112","kana_pref":"ｲﾜﾃｹﾝ","kana_city":"ｵｳｼｭｳｼ","kana_address":"ｴｻｼｸﾐﾅﾐｵｵﾄﾞｵﾘ","pref":"岩手県","city":"奥州市","address":"江刺区南大通り"},
{"zip_code":"0231117","kana_pref":"ｲﾜﾃｹﾝ","kana_city":"ｵｳｼｭｳｼ","kana_address":"ｴｻｼｸﾐﾅﾐﾏﾁ","pref":"岩手県","city":"奥州市","address":"江刺区南町"},
{"zip_code":"0231124","kana_pref":"ｲﾜﾃｹﾝ","kana_city":"ｵｳｼｭｳｼ","kana_address":"ｴｻｼｸﾑｲｶﾏﾁ","pref":"岩手県","city":"奥州市","address":"江刺区六日町"},
{"zip_code":"0231341","kana_pref":"ｲﾜﾃｹﾝ","kana_city":"ｵｳｼｭｳｼ","kana_address":"ｴｻｼｸﾔﾅｶﾞﾜ","pref":"岩手県","city":"奥州市","address":"江刺区梁川"},
{"zip_code":"0231102","kana_pref":"ｲﾜﾃｹﾝ","kana_city":"ｵｳｼｭｳｼ","kana_address":"ｴｻｼｸﾖｳｶﾏﾁ","pref":"岩手県","city":"奥州市","address":"江刺区八日町"},
{"zip_code":"0231551","kana_pref":"ｲﾜﾃｹﾝ","kana_city":"ｵｳｼｭｳｼ","kana_address":"ｴｻｼｸﾖﾈｻﾄ","pref":"岩手県","city":"奥州市","address":"江刺区米里"},
{"zip_code":"0230035","kana_pref":"ｲﾜﾃｹﾝ","kana_city":"ｵｳｼｭｳｼ","kana_address":"ﾐｽﾞｻﾜｸｱｶﾂﾁﾀﾞ","pref":"岩手県","city":"奥州市","address":"水沢区赤土田"},
{"zip_code":"0230041","kana_pref":"ｲﾜﾃｹﾝ","kana_city":"ｵｳｼｭｳｼ","kana_address":"ﾐｽﾞｻﾜｸｱｷﾊﾞﾁｮｳ","pref":"岩手県","city":"奥州市","address":"水沢区秋葉町"},
{"zip_code":"0230823","kana_pref":"ｲﾜﾃｹﾝ","kana_city":"ｵｳｼｭｳｼ","kana_address":"ﾐｽﾞｻﾜｸｱｻﾋﾁｮｳ","pref":"岩手県","city":"奥州市","address":"水沢区朝日町"},
{"zip_code":"0230818","kana_pref":"ｲﾜﾃｹﾝ","kana_city":"ｵｳｼｭｳｼ","kana_address":"ﾐｽﾞｻﾜｸｱｽﾞﾏﾁｮｳ","pref":"岩手県","city":"奥州市","address":"水沢区東町"},
{"zip_code":"0230831","kana_pref":"ｲﾜﾃｹﾝ","kana_city":"ｵｳｼｭｳｼ","kana_address":"ﾐｽﾞｻﾜｸｱﾈﾀｲﾁｮｳ","pref":"岩手県","city":"奥州市","address":"水沢区姉体町"},
{"zip_code":"0230824","kana_pref":"ｲﾜﾃｹﾝ","kana_city":"ｵｳｼｭｳｼ","kana_address":"ﾐｽﾞｻﾜｸｲｽﾞﾐﾁｮｳ","pref":"岩手県","city":"奥州市","address":"水沢区泉町"},
{"zip_code":"0230013","kana_pref":"ｲﾜﾃｹﾝ","kana_city":"ｵｳｼｭｳｼ","kana_address":"ﾐｽﾞｻﾜｸｲｯﾎﾟﾝﾔﾅｷﾞ","pref":"岩手県","city":"奥州市","address":"水沢区一本柳"},
{"zip_code":"0230011","kana_pref":"ｲﾜﾃｹﾝ","kana_city":"ｵｳｼｭｳｼ","kana_address":"ﾐｽﾞｻﾜｸｲﾅﾘﾀﾞ","pref":"岩手県","city":"奥州市","address":"水沢区稲荷田"},
{"zip_code":"0230898","kana_pref":"ｲﾜﾃｹﾝ","kana_city":"ｵｳｼｭｳｼ","kana_address":"ﾐｽﾞｻﾜｸｳｼﾛﾀﾞ","pref":"岩手県","city":"奥州市","address":"水沢区後田"},
{"zip_code":"0230057","kana_pref":"ｲﾜﾃｹﾝ","kana_city":"ｵｳｼｭｳｼ","kana_address":"ﾐｽﾞｻﾜｸｳﾜﾏﾁ","pref":"岩手県","city":"奥州市","address":"水沢区上町"},
{"zip_code":"0230854","kana_pref":"ｲﾜﾃｹﾝ","kana_city":"ｵｳｼｭｳｼ","kana_address":"ﾐｽﾞｻﾜｸｵｵｶﾞﾈﾁｮｳ","pref":"岩手県","city":"奥州市","address":"水沢区大鐘町"},
{"zip_code":"0230084","kana_pref":"ｲﾜﾃｹﾝ","kana_city":"ｵｳｼｭｳｼ","kana_address":"ﾐｽﾞｻﾜｸｵｵｶﾞﾐ","pref":"岩手県","city":"奥州市","address":"水沢区大上"},
{"zip_code":"0230053","kana_pref":"ｲﾜﾃｹﾝ","kana_city":"ｵｳｼｭｳｼ","kana_address":"ﾐｽﾞｻﾜｸｵｵﾃﾏﾁ","pref":"岩手県","city":"奥州市","address":"水沢区大手町"},
{"zip_code":"0230867","kana_pref":"ｲﾜﾃｹﾝ","kana_city":"ｵｳｼｭｳｼ","kana_address":"ﾐｽﾞｻﾜｸｵｵﾊｼ","pref":"岩手県","city":"奥州市","address":"水沢区大橋"},
{"zip_code":"0230802","kana_pref":"ｲﾜﾃｹﾝ","kana_city":"ｵｳｼｭｳｼ","kana_address":"ﾐｽﾞｻﾜｸｵｵﾊﾞﾀｹｺｳｼﾞ","pref":"岩手県","city":"奥州市","address":"水沢区大畑小路"},
{"zip_code":"0230045","kana_pref":"ｲﾜﾃｹﾝ","kana_city":"ｵｳｼｭｳｼ","kana_address":"ﾐｽﾞｻﾜｸｵｵﾏﾁ","pref":"岩手県","city":"奥州市","address":"水沢区大町"},
{"zip_code":"0230085","kana_pref":"ｲﾜﾃｹﾝ","kana_city":"ｵｳｼｭｳｼ","kana_address":"ﾐｽﾞｻﾜｸｵﾄﾞﾘｺ","pref":"岩手県","city":"奥州市","address":"水沢区踊子"},
{"zip_code":"0230001","kana_pref":"ｲﾜﾃｹﾝ","kana_city":"ｵｳｼｭｳｼ","kana_address":"ﾐｽﾞｻﾜｸｵﾛｼﾏﾁ","pref":"岩手県","city":"奥州市","address":"水沢区卸町"},
{"zip_code":"0230021","kana_pref":"ｲﾜﾃｹﾝ","kana_city":"ｵｳｼｭｳｼ","kana_address":"ﾐｽﾞｻﾜｸｶｹﾉｼﾀ","pref":"岩手県","city":"奥州市","address":"水沢区欠ノ下"},
{"zip_code":"0230051","kana_pref":"ｲﾜﾃｹﾝ","kana_city":"ｵｳｼｭｳｼ","kana_address":"ﾐｽﾞｻﾜｸｶｯﾃﾁｮｳ","pref":"岩手県","city":"奥州市","address":"水沢区勝手町"},
{"zip_code":"0230892","kana_pref":"ｲﾜﾃｹﾝ","kana_city":"ｵｳｼｭｳｼ","kana_address":"ﾐｽﾞｻﾜｸｶﾏﾀ","pref":"岩手県","city":"奥州市","address":"水沢区釜田"},
{"zip_code":"0230833","kana_pref":"ｲﾜﾃｹﾝ","kana_city":"ｵｳｼｭｳｼ","kana_address":"ﾐｽﾞｻﾜｸｶﾐｱﾈﾀｲ","pref":"岩手県","city":"奥州市","address":"水沢区上姉体"},
{"zip_code":"0230052","kana_pref":"ｲﾜﾃｹﾝ","kana_city":"ｵｳｼｭｳｼ","kana_address":"ﾐｽﾞｻﾜｸｶﾗﾒﾃﾁｮｳ","pref":"岩手県","city":"奥州市","address":"水沢区搦手丁"},
{"zip_code":"0230034","kana_pref":"ｲﾜﾃｹﾝ","kana_city":"ｵｳｼｭｳｼ","kana_address":"ﾐｽﾞｻﾜｸｶﾜｸﾞﾁﾏﾁ","pref":"岩手県","city":"奥州市","address":"水沢区川口町"},
{"zip_code":"0230863","kana_pref":"ｲﾜﾃｹﾝ","kana_city":"ｵｳｼｭｳｼ","kana_address":"ﾐｽﾞｻﾜｸｶﾜﾊﾞﾀ","pref":"岩手県","city":"奥州市","address":"水沢区川端"},
{"zip_code":"0230046","kana_pref":"ｲﾜﾃｹﾝ","kana_city":"ｵｳｼｭｳｼ","kana_address":"ﾐｽﾞｻﾜｸｶﾜﾗｺｳｼﾞ","pref":"岩手県","city":"奥州市","address":"水沢区川原小路"},
{"zip_code":"0230031","kana_pref":"ｲﾜﾃｹﾝ","kana_city":"ｵｳｼｭｳｼ","kana_address":"ﾐｽﾞｻﾜｸｷﾀｳｼｻﾞﾜ","pref":"岩手県","city":"奥州市","address":"水沢区北丑沢"},
{"zip_code":"0230036","kana_pref":"ｲﾜﾃｹﾝ","kana_city":"ｵｳｼｭｳｼ","kana_address":"ﾐｽﾞｻﾜｸｷﾀｸﾘﾊﾞﾔｼ","pref":"岩手県","city":"奥州市","address":"水沢区北栗林"},
{"zip_code":"0230881","kana_pref":"ｲﾜﾃｹﾝ","kana_city":"ｵｳｼｭｳｼ","kana_address":"ﾐｽﾞｻﾜｸｷﾀﾀﾞ","pref":"岩手県","city":"奥州市","address":"水沢区北田"},
{"zip_code":"0230092","kana_pref":"ｲﾜﾃｹﾝ","kana_city":"ｵｳｼｭｳｼ","kana_address":"ﾐｽﾞｻﾜｸｷﾀﾊﾝｺﾞｳ","pref":"岩手県","city":"奥州市","address":"水沢区北半郷"},
{"zip_code":"0230054","kana_pref":"ｲﾜﾃｹﾝ","kana_city":"ｵｳｼｭｳｼ","kana_address":"ﾐｽﾞｻﾜｸｷﾁｺｳｼﾞ","pref":"岩手県","city":"奥州市","address":"水沢区吉小路"},
{"zip_code":"0230056","kana_pref":"ｲﾜﾃｹﾝ","kana_city":"ｵｳｼｭｳｼ","kana_address":"ﾐｽﾞｻﾜｸｷｭｳﾃﾞﾝ","pref":"岩手県","city":"奥州市","address":"水沢区久田"},
{"zip_code":"0230101","kana_pref":"ｲﾜﾃｹﾝ","kana_city":"ｵｳｼｭｳｼ","kana_address":"ﾐｽﾞｻﾜｸｸﾛｲｼﾁｮｳ","pref":"岩手県","city":"奥州市","address":"水沢区黒石町"},
{"zip_code":"0230071","kana_pref":"ｲﾜﾃｹﾝ","kana_city":"ｵｳｼｭｳｼ","kana_address":"ﾐｽﾞｻﾜｸｸﾛｺ","pref":"岩手県","city":"奥州市","address":"水沢区黒子"},
{"zip_code":"0230077","kana_pref":"ｲﾜﾃｹﾝ","kana_city":"ｵｳｼｭｳｼ","kana_address":"ﾐｽﾞｻﾜｸｸﾜﾊﾞﾀ","pref":"岩手県","city":"奥州市","address":"水沢区桑畑"},
{"zip_code":"0230062","kana_pref":"ｲﾜﾃｹﾝ","kana_city":"ｵｳｼｭｳｼ","kana_address":"ﾐｽﾞｻﾜｸｺｲｼﾀﾞ","pref":"岩手県","city":"奥州市","address":"水沢区小石田"},
{"zip_code":"0230025","kana_pref":"ｲﾜﾃｹﾝ","kana_city":"ｵｳｼｭｳｼ","kana_address":"ﾐｽﾞｻﾜｸｺｳｱﾐ","pref":"岩手県","city":"奥州市","address":"水沢区高網"},
{"zip_code":"0230087","kana_pref":"ｲﾜﾃｹﾝ","kana_city":"ｵｳｼｭｳｼ","kana_address":"ﾐｽﾞｻﾜｸｺｳﾔｼｭｸ","pref":"岩手県","city":"奥州市","address":"水沢区高谷宿"},
{"zip_code":"0230055","kana_pref":"ｲﾜﾃｹﾝ","kana_city":"ｵｳｼｭｳｼ","kana_address":"ﾐｽﾞｻﾜｸｺｸｿﾞｳｺｳｼﾞ","pref":"岩手県","city":"奥州市","address":"水沢区虚空蔵小路"},
{"zip_code":"0230074","kana_pref":"ｲﾜﾃｹﾝ","kana_city":"ｵｳｼｭｳｼ","kana_address":"ﾐｽﾞｻﾜｸｺﾞｸﾗｸ","pref":"岩手県","city":"奥州市","address":"水沢区極楽"},
{"zip_code":"0230015","kana_pref":"ｲﾜﾃｹﾝ","kana_city":"ｵｳｼｭｳｼ","kana_address":"ﾐｽﾞｻﾜｸｺﾞｾﾝｶﾞﾘ","pref":"岩手県","city":"奥州市","address":"水沢区五千刈"},
{"zip_code":"0230018","kana_pref":"ｲﾜﾃｹﾝ","kana_city":"ｵｳｼｭｳｼ","kana_address":"ﾐｽﾞｻﾜｸｺﾅｶ","pref":"岩手県","city":"奥州市","address":"水沢区小中"},
{"zip_code":"0230094","kana_pref":"ｲﾜﾃｹﾝ","kana_city":"ｵｳｼｭｳｼ","kana_address":"ﾐｽﾞｻﾜｸｺﾞﾘﾝ","pref":"岩手県","city":"奥州市","address":"水沢区五輪"},
{"zip_code":"0230012","kana_pref":"ｲﾜﾃｹﾝ","kana_city":"ｵｳｼｭｳｼ","kana_address":"ﾐｽﾞｻﾜｸｻｲｶﾂﾀﾞ","pref":"岩手県","city":"奥州市","address":"水沢区斉勝田"},
{"zip_code":"0230805","kana_pref":"ｲﾜﾃｹﾝ","kana_city":"ｵｳｼｭｳｼ","kana_address":"ﾐｽﾞｻﾜｸｻｲﾉｶﾐ","pref":"岩手県","city":"奥州市","address":"水沢区斉の神"},
{"zip_code":"0230897","kana_pref":"ｲﾜﾃｹﾝ","kana_city":"ｵｳｼｭｳｼ","kana_address":"ﾐｽﾞｻﾜｸｻｸﾗｶﾜ","pref":"岩手県","city":"奥州市","address":"水沢区桜川"},
{"zip_code":"0230003","kana_pref":"ｲﾜﾃｹﾝ","kana_city":"ｵｳｼｭｳｼ","kana_address":"ﾐｽﾞｻﾜｸｻｸﾗｶﾜ","pref":"岩手県","city":"奥州市","address":"水沢区佐倉河"},
{"zip_code":"0230865","kana_pref":"ｲﾜﾃｹﾝ","kana_city":"ｵｳｼｭｳｼ","kana_address":"ﾐｽﾞｻﾜｸｻｸﾗﾔｼｷ","pref":"岩手県","city":"奥州市","address":"水沢区桜屋敷"},
{"zip_code":"0230872","kana_pref":"ｲﾜﾃｹﾝ","kana_city":"ｵｳｼｭｳｼ","kana_address":"ﾐｽﾞｻﾜｸｻｸﾗﾔｼｷﾆｼ","pref":"岩手県","city":"奥州市","address":"水沢区桜屋敷西"},
{"zip_code":"0230873","kana_pref":"ｲﾜﾃｹﾝ","kana_city":"ｵｳｼｭｳｼ","kana_address":"ﾐｽﾞｻﾜｸｻｻﾓﾘﾔﾁ","pref":"岩手県","city":"奥州市","address":"水沢区笹森谷地"},
{"zip_code":"0230026","kana_pref":"ｲﾜﾃｹﾝ","kana_city":"ｵｳｼｭｳｼ","kana_address":"ﾐｽﾞｻﾜｸｻﾄﾔﾘ","pref":"岩手県","city":"奥州市","address":"水沢区里鎗"},
{"zip_code":"0230044","kana_pref":"ｲﾜﾃｹﾝ","kana_city":"ｵｳｼｭｳｼ","kana_address":"ﾐｽﾞｻﾜｸｻﾝﾎﾞﾝｷﾞ","pref":"岩手県","city":"奥州市","address":"水沢区三本木"},
{"zip_code":"0230014","kana_pref":"ｲﾜﾃｹﾝ","kana_city":"ｵｳｼｭｳｼ","kana_address":"ﾐｽﾞｻﾜｸｼﾞｿﾞｳﾃﾞﾝ","pref":"岩手県","city":"奥州市","address":"水沢区地蔵田"},
{"zip_code":"0230017","kana_pref":"ｲﾜﾃｹﾝ","kana_city":"ｵｳｼｭｳｼ","kana_address":"ﾐｽﾞｻﾜｸｼﾌﾞﾀ","pref":"岩手県","city":"奥州市","address":"水沢区渋田"},
{"zip_code":"0230063","kana_pref":"ｲﾜﾃｹﾝ","kana_city":"ｵｳｼｭｳｼ","kana_address":"ﾐｽﾞｻﾜｸｼｮｳﾃﾝ","pref":"岩手県","city":"奥州市","address":"水沢区聖天"},
{"zip_code":"0230073","kana_pref":"ｲﾜﾃｹﾝ","kana_city":"ｵｳｼｭｳｼ","kana_address":"ﾐｽﾞｻﾜｸｼﾞﾘｮｳ","pref":"岩手県","city":"奥州市","address":"水沢区寺領"},
{"zip_code":"0230807","kana_pref":"ｲﾜﾃｹﾝ","kana_city":"ｵｳｼｭｳｼ","kana_address":"ﾐｽﾞｻﾜｸｼﾝｺｳｼﾞ","pref":"岩手県","city":"奥州市","address":"水沢区新小路"},
{"zip_code":"0230841","kana_pref":"ｲﾜﾃｹﾝ","kana_city":"ｵｳｼｭｳｼ","kana_address":"ﾐｽﾞｻﾜｸｼﾝｼﾞｮｳ","pref":"岩手県","city":"奥州市","address":"水沢区真城"},
{"zip_code":"0230842","kana_pref":"ｲﾜﾃｹﾝ","kana_city":"ｵｳｼｭｳｼ","kana_address":"ﾐｽﾞｻﾜｸｼﾝｼﾞｮｳｶﾞｵｶ","pref":"岩手県","city":"奥州市","address":"水沢区真城が丘"},
{"zip_code":"0230821","kana_pref":"ｲﾜﾃｹﾝ","kana_city":"ｵｳｼｭｳｼ","kana_address":"ﾐｽﾞｻﾜｸｼﾝﾒｲﾁｮｳ","pref":"岩手県","city":"奥州市","address":"水沢区神明町"},
{"zip_code":"0230095","kana_pref":"ｲﾜﾃｹﾝ","kana_city":"ｵｳｼｭｳｼ","kana_address":"ﾐｽﾞｻﾜｸｽｽﾞﾒﾀﾞ","pref":"岩手県","city":"奥州市","address":"水沢区雀田"},
{"zip_code":"0230866","kana_pref":"ｲﾜﾃｹﾝ","kana_city":"ｵｳｼｭｳｼ","kana_address":"ﾐｽﾞｻﾜｸｾｷｱｲ","pref":"岩手県","city":"奥州市","address":"水沢区堰合"},
{"zip_code":"0230083","kana_pref":"ｲﾜﾃｹﾝ","kana_city":"ｵｳｼｭｳｼ","kana_address":"ﾐｽﾞｻﾜｸｾﾞﾝｺﾞｳ","pref":"岩手県","city":"奥州市","address":"水沢区前郷"},
{"zip_code":"0230877","kana_pref":"ｲﾜﾃｹﾝ","kana_city":"ｵｳｼｭｳｼ","kana_address":"ﾐｽﾞｻﾜｸｿﾃﾞﾔﾁ","pref":"岩手県","city":"奥州市","address":"水沢区袖谷地"},
{"zip_code":"0230871","kana_pref":"ｲﾜﾃｹﾝ","kana_city":"ｵｳｼｭｳｼ","kana_address":"ﾐｽﾞｻﾜｸｿﾄﾔﾁ","pref":"岩手県","city":"奥州市","address":"水沢区外谷地"},
{"zip_code":"0230081","kana_pref":"ｲﾜﾃｹﾝ","kana_city":"ｵｳｼｭｳｼ","kana_address":"ﾐｽﾞｻﾜｸｿﾘﾏﾁ","pref":"岩手県","city":"奥州市","address":"水沢区橇町"},
{"zip_code":"0230827","kana_pref":"ｲﾜﾃｹﾝ","kana_city":"ｵｳｼｭｳｼ","kana_address":"ﾐｽﾞｻﾜｸﾀｲﾆﾁﾄﾞｵﾘ","pref":"岩手県","city":"奥州市","address":"水沢区太日通り"},
{"zip_code":"0230825","kana_pref":"ｲﾜﾃｹﾝ","kana_city":"ｵｳｼｭｳｼ","kana_address":"ﾐｽﾞｻﾜｸﾀﾞｲﾏﾁ","pref":"岩手県","city":"奥州市","address":"水沢区台町"},
{"zip_code":"0230894","kana_pref":"ｲﾜﾃｹﾝ","kana_city":"ｵｳｼｭｳｼ","kana_address":"ﾐｽﾞｻﾜｸﾀﾞｲﾐｮｳｼﾞﾝ","pref":"岩手県","city":"奥州市","address":"水沢区大明神"},
{"zip_code":"0230032","kana_pref":"ｲﾜﾃｹﾝ","kana_city":"ｵｳｼｭｳｼ","kana_address":"ﾐｽﾞｻﾜｸﾀｶﾞ","pref":"岩手県","city":"奥州市","address":"水沢区多賀"},
{"zip_code":"0230889","kana_pref":"ｲﾜﾃｹﾝ","kana_city":"ｵｳｼｭｳｼ","kana_address":"ﾐｽﾞｻﾜｸﾀｶﾔｼｷ","pref":"岩手県","city":"奥州市","address":"水沢区高屋敷"},
{"zip_code":"0230091","kana_pref":"ｲﾜﾃｹﾝ","kana_city":"ｵｳｼｭｳｼ","kana_address":"ﾐｽﾞｻﾜｸﾀｶﾔﾏ","pref":"岩手県","city":"奥州市","address":"水沢区高山"},
{"zip_code":"0230891","kana_pref":"ｲﾜﾃｹﾝ","kana_city":"ｵｳｼｭｳｼ","kana_address":"ﾐｽﾞｻﾜｸﾀｸﾐﾀﾞ","pref":"岩手県","city":"奥州市","address":"水沢区内匠田"},
{"zip_code":"0230803","kana_pref":"ｲﾜﾃｹﾝ","kana_city":"ｵｳｼｭｳｼ","kana_address":"ﾐｽﾞｻﾜｸﾀｺｳｼﾞ","pref":"岩手県","city":"奥州市","address":"水沢区田小路"},
{"zip_code":"0230047","kana_pref":"ｲﾜﾃｹﾝ","kana_city":"ｵｳｼｭｳｼ","kana_address":"ﾐｽﾞｻﾜｸﾀﾁﾏﾁ","pref":"岩手県","city":"奥州市","address":"水沢区立町"},
{"zip_code":"0230895","kana_pref":"ｲﾜﾃｹﾝ","kana_city":"ｵｳｼｭｳｼ","kana_address":"ﾐｽﾞｻﾜｸﾀﾋﾞﾊﾘ","pref":"岩手県","city":"奥州市","address":"水沢区足袋針"},
{"zip_code":"0230019","kana_pref":"ｲﾜﾃｹﾝ","kana_city":"ｵｳｼｭｳｼ","kana_address":"ﾐｽﾞｻﾜｸﾂｷﾀﾞﾃ","pref":"岩手県","city":"奥州市","address":"水沢区築舘"},
{"zip_code":"0230076","kana_pref":"ｲﾜﾃｹﾝ","kana_city":"ｵｳｼｭｳｼ","kana_address":"ﾐｽﾞｻﾜｸﾂｸﾘﾐﾁ","pref":"岩手県","city":"奥州市","address":"水沢区造道"},
{"zip_code":"0230876","kana_pref":"ｲﾜﾃｹﾝ","kana_city":"ｵｳｼｭｳｼ","kana_address":"ﾐｽﾞｻﾜｸﾂﾙﾌﾞﾁ","pref":"岩手県","city":"奥州市","address":"水沢区鶴淵"},
{"zip_code":"0230811","kana_pref":"ｲﾜﾃｹﾝ","kana_city":"ｵｳｼｭｳｼ","kana_address":"ﾐｽﾞｻﾜｸﾃﾗｺｳｼﾞ","pref":"岩手県","city":"奥州市","address":"水沢区寺小路"},
{"zip_code":"0230812","kana_pref":"ｲﾜﾃｹﾝ","kana_city":"ｵｳｼｭｳｼ","kana_address":"ﾐｽﾞｻﾜｸﾃﾗﾜｷ","pref":"岩手県","city":"奥州市","address":"水沢区寺脇"},
{"zip_code":"0230815","kana_pref":"ｲﾜﾃｹﾝ","kana_city":"ｵｳｼｭｳｼ","kana_address":"ﾐｽﾞｻﾜｸﾃﾝﾓﾝﾀﾞｲﾄﾞｵﾘ","pref":"岩手県","city":"奥州市","address":"水沢区天文台通り"},
{"zip_code":"0230064","kana_pref":"ｲﾜﾃｹﾝ","kana_city":"ｵｳｼｭｳｼ","kana_address":"ﾐｽﾞｻﾜｸﾄﾞｷﾀ","pref":"岩手県","city":"奥州市","address":"水沢区土器田"},
{"zip_code":"0230857","kana_pref":"ｲﾜﾃｹﾝ","kana_city":"ｵｳｼｭｳｼ","kana_address":"ﾐｽﾞｻﾜｸﾅｶｳﾜﾉﾁｮｳ","pref":"岩手県","city":"奥州市","address":"水沢区中上野町"},
{"zip_code":"0230022","kana_pref":"ｲﾜﾃｹﾝ","kana_city":"ｵｳｼｭｳｼ","kana_address":"ﾐｽﾞｻﾜｸﾅｶｼﾛ","pref":"岩手県","city":"奥州市","address":"水沢区中城"},
{"zip_code":"0230826","kana_pref":"ｲﾜﾃｹﾝ","kana_city":"ｵｳｼｭｳｼ","kana_address":"ﾐｽﾞｻﾜｸﾅｶﾀﾞﾁｮｳ","pref":"岩手県","city":"奥州市","address":"水沢区中田町"},
{"zip_code":"0230813","kana_pref":"ｲﾜﾃｹﾝ","kana_city":"ｵｳｼｭｳｼ","kana_address":"ﾐｽﾞｻﾜｸﾅｶﾏﾁ","pref":"岩手県","city":"奥州市","address":"水沢区中町"},
{"zip_code":"0230061","kana_pref":"ｲﾜﾃｹﾝ","kana_city":"ｵｳｼｭｳｼ","kana_address":"ﾐｽﾞｻﾜｸﾅｶﾞﾏﾁ","pref":"岩手県","city":"奥州市","address":"水沢区長町"},
{"zip_code":"0230024","kana_pref":"ｲﾜﾃｹﾝ","kana_city":"ｵｳｼｭｳｼ","kana_address":"ﾐｽﾞｻﾜｸﾅｺﾞﾘ","pref":"岩手県","city":"奥州市","address":"水沢区名残"},
{"zip_code":"0230856","kana_pref":"ｲﾜﾃｹﾝ","kana_city":"ｵｳｼｭｳｼ","kana_address":"ﾐｽﾞｻﾜｸﾆｼｳﾜﾉﾁｮｳ","pref":"岩手県","city":"奥州市","address":"水沢区西上野町"},
{"zip_code":"0230896","kana_pref":"ｲﾜﾃｹﾝ","kana_city":"ｵｳｼｭｳｼ","kana_address":"ﾐｽﾞｻﾜｸﾆｼｺｳﾃﾞﾝ","pref":"岩手県","city":"奥州市","address":"水沢区西光田"},
{"zip_code":"0230885","kana_pref":"ｲﾜﾃｹﾝ","kana_city":"ｵｳｼｭｳｼ","kana_address":"ﾐｽﾞｻﾜｸﾆｼﾀﾞ","pref":"岩手県","city":"奥州市","address":"水沢区西田"},
{"zip_code":"0230816","kana_pref":"ｲﾜﾃｹﾝ","kana_city":"ｵｳｼｭｳｼ","kana_address":"ﾐｽﾞｻﾜｸﾆｼﾏﾁ","pref":"岩手県","city":"奥州市","address":"水沢区西町"},
{"zip_code":"0230067","kana_pref":"ｲﾜﾃｹﾝ","kana_city":"ｵｳｼｭｳｼ","kana_address":"ﾐｽﾞｻﾜｸﾆﾀﾝﾀﾞ","pref":"岩手県","city":"奥州市","address":"水沢区二反田"},
{"zip_code":"0230102","kana_pref":"ｲﾜﾃｹﾝ","kana_city":"ｵｳｼｭｳｼ","kana_address":"ﾐｽﾞｻﾜｸﾊﾀﾞﾁｮｳｴｷﾋｶﾞｼ","pref":"岩手県","city":"奥州市","address":"水沢区羽田町駅東"},
{"zip_code":"0230104","kana_pref":"ｲﾜﾃｹﾝ","kana_city":"ｵｳｼｭｳｼ","kana_address":"ﾐｽﾞｻﾜｸﾊﾀﾞﾁｮｳｴｷﾏｴ","pref":"岩手県","city":"奥州市","address":"水沢区羽田町駅前"},
{"zip_code":"0230103","kana_pref":"ｲﾜﾃｹﾝ","kana_city":"ｵｳｼｭｳｼ","kana_address":"ﾐｽﾞｻﾜｸﾊﾀﾞﾁｮｳｴｷﾐﾅﾐ","pref":"岩手県","city":"奥州市","address":"水沢区羽田町駅南"},
{"zip_code":"0230106","kana_pref":"ｲﾜﾃｹﾝ","kana_city":"ｵｳｼｭｳｼ","kana_address":"ﾐｽﾞｻﾜｸﾊﾀﾞﾁｮｳｸﾎﾞ","pref":"岩手県","city":"奥州市","address":"水沢区羽田町久保"},
{"zip_code":"0230105","kana_pref":"ｲﾜﾃｹﾝ","kana_city":"ｵｳｼｭｳｼ","kana_address":"ﾐｽﾞｻﾜｸﾊﾀﾞﾁｮｳﾎｳｼｮｳ","pref":"岩手県","city":"奥州市","address":"水沢区羽田町宝生"},
{"zip_code":"0230107","kana_pref":"ｲﾜﾃｹﾝ","kana_city":"ｵｳｼｭｳｼ","kana_address":"ﾐｽﾞｻﾜｸﾊﾀﾞﾁｮｳﾎｳﾘｭｳｷﾞ","pref":"岩手県","city":"奥州市","address":"水沢区羽田町宝柳木"},
{"zip_code":"0230108","kana_pref":"ｲﾜﾃｹﾝ","kana_city":"ｵｳｼｭｳｼ","kana_address":"ﾐｽﾞｻﾜｸﾊﾀﾞﾁｮｳﾑｶｲﾊﾀ","pref":"岩手県","city":"奥州市","address":"水沢区羽田町向畑"},
{"zip_code":"0230832","kana_pref":"ｲﾜﾃｹﾝ","kana_city":"ｵｳｼｭｳｼ","kana_address":"ﾐｽﾞｻﾜｸﾊﾀﾞﾁｮｳ","pref":"岩手県","city":"奥州市","address":"水沢区羽田町"},
{"zip_code":"0230132","kana_pref":"ｲﾜﾃｹﾝ","kana_city":"ｵｳｼｭｳｼ","kana_address":"ﾐｽﾞｻﾜｸﾊﾀﾞﾁｮｳ","pref":"岩手県","city":"奥州市","address":"水沢区羽田町"},
{"zip_code":"0230888","kana_pref":"ｲﾜﾃｹﾝ","kana_city":"ｵｳｼｭｳｼ","kana_address":"ﾐｽﾞｻﾜｸﾊｯﾀﾝﾀﾞ","pref":"岩手県","city":"奥州市","address":"水沢区八反田"},
{"zip_code":"0230023","kana_pref":"ｲﾜﾃｹﾝ","kana_city":"ｵｳｼｭｳｼ","kana_address":"ﾐｽﾞｻﾜｸﾊｯﾀﾝﾏﾁ","pref":"岩手県","city":"奥州市","address":"水沢区八反町"},
{"zip_code":"0230829","kana_pref":"ｲﾜﾃｹﾝ","kana_city":"ｵｳｼｭｳｼ","kana_address":"ﾐｽﾞｻﾜｸﾊﾅｿﾞﾉﾁｮｳ","pref":"岩手県","city":"奥州市","address":"水沢区花園町"},
{"zip_code":"0230027","kana_pref":"ｲﾜﾃｹﾝ","kana_city":"ｵｳｼｭｳｼ","kana_address":"ﾐｽﾞｻﾜｸﾊﾊﾞｼﾀ","pref":"岩手県","city":"奥州市","address":"水沢区幅下"},
{"zip_code":"0230853","kana_pref":"ｲﾜﾃｹﾝ","kana_city":"ｵｳｼｭｳｼ","kana_address":"ﾐｽﾞｻﾜｸﾋｶﾞｼｳﾜﾉﾁｮｳ","pref":"岩手県","city":"奥州市","address":"水沢区東上野町"},
{"zip_code":"0230828","kana_pref":"ｲﾜﾃｹﾝ","kana_city":"ｵｳｼｭｳｼ","kana_address":"ﾐｽﾞｻﾜｸﾋｶﾞｼｵｵﾄﾞｵﾘ","pref":"岩手県","city":"奥州市","address":"水沢区東大通り"},
{"zip_code":"0230822","kana_pref":"ｲﾜﾃｹﾝ","kana_city":"ｵｳｼｭｳｼ","kana_address":"ﾐｽﾞｻﾜｸﾋｶﾞｼﾅｶﾄﾞｵﾘ","pref":"岩手県","city":"奥州市","address":"水沢区東中通り"},
{"zip_code":"0230082","kana_pref":"ｲﾜﾃｹﾝ","kana_city":"ｵｳｼｭｳｼ","kana_address":"ﾐｽﾞｻﾜｸﾋｶﾞｼﾊﾝｺﾞｳ","pref":"岩手県","city":"奥州市","address":"水沢区東半郷"},
{"zip_code":"0230808","kana_pref":"ｲﾜﾃｹﾝ","kana_city":"ｵｳｼｭｳｼ","kana_address":"ﾐｽﾞｻﾜｸﾋﾀｶｺｳｼﾞ","pref":"岩手県","city":"奥州市","address":"水沢区日高小路"},
{"zip_code":"0230806","kana_pref":"ｲﾜﾃｹﾝ","kana_city":"ｵｳｼｭｳｼ","kana_address":"ﾐｽﾞｻﾜｸﾋﾀｶﾆｼ","pref":"岩手県","city":"奥州市","address":"水沢区日高西"},
{"zip_code":"0230016","kana_pref":"ｲﾜﾃｹﾝ","kana_city":"ｵｳｼｭｳｼ","kana_address":"ﾐｽﾞｻﾜｸﾋﾗｻﾜ","pref":"岩手県","city":"奥州市","address":"水沢区平沢"},
{"zip_code":"0230072","kana_pref":"ｲﾜﾃｹﾝ","kana_city":"ｵｳｼｭｳｼ","kana_address":"ﾐｽﾞｻﾜｸﾋﾜﾀｼ","pref":"岩手県","city":"奥州市","address":"水沢区樋渡"},
{"zip_code":"0230862","kana_pref":"ｲﾜﾃｹﾝ","kana_city":"ｵｳｼｭｳｼ","kana_address":"ﾐｽﾞｻﾜｸﾌｸﾖｼﾁｮｳ","pref":"岩手県","city":"奥州市","address":"水沢区福吉町"},
{"zip_code":"0230814","kana_pref":"ｲﾜﾃｹﾝ","kana_city":"ｵｳｼｭｳｼ","kana_address":"ﾐｽﾞｻﾜｸﾌｸﾛﾏﾁ","pref":"岩手県","city":"奥州市","address":"水沢区袋町"},
{"zip_code":"0230882","kana_pref":"ｲﾜﾃｹﾝ","kana_city":"ｵｳｼｭｳｼ","kana_address":"ﾐｽﾞｻﾜｸﾌｸﾜﾗ","pref":"岩手県","city":"奥州市","address":"水沢区福原"},
{"zip_code":"0230033","kana_pref":"ｲﾜﾃｹﾝ","kana_city":"ｵｳｼｭｳｼ","kana_address":"ﾐｽﾞｻﾜｸﾌﾀﾞﾝﾁｮｳ","pref":"岩手県","city":"奥州市","address":"水沢区不断町"},
{"zip_code":"0230861","kana_pref":"ｲﾜﾃｹﾝ","kana_city":"ｵｳｼｭｳｼ","kana_address":"ﾐｽﾞｻﾜｸﾎｼｶﾞｵｶﾁｮｳ","pref":"岩手県","city":"奥州市","address":"水沢区星ガ丘町"},
{"zip_code":"0230058","kana_pref":"ｲﾜﾃｹﾝ","kana_city":"ｵｳｼｭｳｼ","kana_address":"ﾐｽﾞｻﾜｸﾎﾘﾉｳﾁ","pref":"岩手県","city":"奥州市","address":"水沢区堀ノ内"},
{"zip_code":"0230066","kana_pref":"ｲﾜﾃｹﾝ","kana_city":"ｵｳｼｭｳｼ","kana_address":"ﾐｽﾞｻﾜｸﾏｴﾀﾌﾞｸﾛ","pref":"岩手県","city":"奥州市","address":"水沢区前田袋"},
{"zip_code":"0230884","kana_pref":"ｲﾜﾃｹﾝ","kana_city":"ｵｳｼｭｳｼ","kana_address":"ﾐｽﾞｻﾜｸﾏｴﾔﾁ","pref":"岩手県","city":"奥州市","address":"水沢区前谷地"},
{"zip_code":"0230883","kana_pref":"ｲﾜﾃｹﾝ","kana_city":"ｵｳｼｭｳｼ","kana_address":"ﾐｽﾞｻﾜｸﾏﾁｳﾗ","pref":"岩手県","city":"奥州市","address":"水沢区町裏"},
{"zip_code":"0230093","kana_pref":"ｲﾜﾃｹﾝ","kana_city":"ｵｳｼｭｳｼ","kana_address":"ﾐｽﾞｻﾜｸﾐｽﾞｶﾞﾐ","pref":"岩手県","city":"奥州市","address":"水沢区水神"},
{"zip_code":"0230002","kana_pref":"ｲﾜﾃｹﾝ","kana_city":"ｵｳｼｭｳｼ","kana_address":"ﾐｽﾞｻﾜｸﾐｽﾞｻﾜｺｳｷﾞｮｳﾀﾞﾝﾁ","pref":"岩手県","city":"奥州市","address":"水沢区水沢工業団地"},
{"zip_code":"0230065","kana_pref":"ｲﾜﾃｹﾝ","kana_city":"ｵｳｼｭｳｼ","kana_address":"ﾐｽﾞｻﾜｸﾐｽﾞﾔﾏ","pref":"岩手県","city":"奥州市","address":"水沢区水山"},
{"zip_code":"0230043","kana_pref":"ｲﾜﾃｹﾝ","kana_city":"ｵｳｼｭｳｼ","kana_address":"ﾐｽﾞｻﾜｸﾐﾁｱｲ","pref":"岩手県","city":"奥州市","address":"水沢区道合"},
{"zip_code":"0230037","kana_pref":"ｲﾜﾃｹﾝ","kana_city":"ｵｳｼｭｳｼ","kana_address":"ﾐｽﾞｻﾜｸﾐﾅﾐｳｼｻﾞﾜ","pref":"岩手県","city":"奥州市","address":"水沢区南丑沢"},
{"zip_code":"0230855","kana_pref":"ｲﾜﾃｹﾝ","kana_city":"ｵｳｼｭｳｼ","kana_address":"ﾐｽﾞｻﾜｸﾐﾅﾐｵｵｶﾞﾈ","pref":"岩手県","city":"奥州市","address":"水沢区南大鐘"},
{"zip_code":"0230851","kana_pref":"ｲﾜﾃｹﾝ","kana_city":"ｵｳｼｭｳｼ","kana_address":"ﾐｽﾞｻﾜｸﾐﾅﾐﾏﾁ","pref":"岩手県","city":"奥州市","address":"水沢区南町"},
{"zip_code":"0230886","kana_pref":"ｲﾜﾃｹﾝ","kana_city":"ｵｳｼｭｳｼ","kana_address":"ﾐｽﾞｻﾜｸﾐﾅﾐﾔﾅｶ","pref":"岩手県","city":"奥州市","address":"水沢区南矢中"},
{"zip_code":"0230075","kana_pref":"ｲﾜﾃｹﾝ","kana_city":"ｵｳｼｭｳｼ","kana_address":"ﾐｽﾞｻﾜｸﾐﾉｸﾁ","pref":"岩手県","city":"奥州市","address":"水沢区水ノ口"},
{"zip_code":"0230817","kana_pref":"ｲﾜﾃｹﾝ","kana_city":"ｵｳｼｭｳｼ","kana_address":"ﾐｽﾞｻﾜｸﾐﾔｼﾀﾁｮｳ","pref":"岩手県","city":"奥州市","address":"水沢区宮下町"},
{"zip_code":"0230874","kana_pref":"ｲﾜﾃｹﾝ","kana_city":"ｵｳｼｭｳｼ","kana_address":"ﾐｽﾞｻﾜｸﾐﾜｹﾓﾘ","pref":"岩手県","city":"奥州市","address":"水沢区見分森"},
{"zip_code":"0230096","kana_pref":"ｲﾜﾃｹﾝ","kana_city":"ｵｳｼｭｳｼ","kana_address":"ﾐｽﾞｻﾜｸﾑｶｲﾀﾞ","pref":"岩手県","city":"奥州市","address":"水沢区向田"},
{"zip_code":"0230875","kana_pref":"ｲﾜﾃｹﾝ","kana_city":"ｵｳｼｭｳｼ","kana_address":"ﾐｽﾞｻﾜｸﾓﾘｼﾀ","pref":"岩手県","city":"奥州市","address":"水沢区森下"},
{"zip_code":"0230086","kana_pref":"ｲﾜﾃｹﾝ","kana_city":"ｵｳｼｭｳｼ","kana_address":"ﾐｽﾞｻﾜｸﾔﾁﾅｶ","pref":"岩手県","city":"奥州市","address":"水沢区谷地中"},
{"zip_code":"0230804","kana_pref":"ｲﾜﾃｹﾝ","kana_city":"ｵｳｼｭｳｼ","kana_address":"ﾐｽﾞｻﾜｸﾔﾁﾐｮｳｴﾝ","pref":"岩手県","city":"奥州市","address":"水沢区谷地明円"},
{"zip_code":"0230887","kana_pref":"ｲﾜﾃｹﾝ","kana_city":"ｵｳｼｭｳｼ","kana_address":"ﾐｽﾞｻﾜｸﾔﾅｶ","pref":"岩手県","city":"奥州市","address":"水沢区矢中"},
{"zip_code":"0230042","kana_pref":"ｲﾜﾃｹﾝ","kana_city":"ｵｳｼｭｳｼ","kana_address":"ﾐｽﾞｻﾜｸﾔﾅｷﾞﾏﾁ","pref":"岩手県","city":"奥州市","address":"水沢区柳町"},
{"zip_code":"0230852","kana_pref":"ｲﾜﾃｹﾝ","kana_city":"ｵｳｼｭｳｼ","kana_address":"ﾐｽﾞｻﾜｸﾔﾏｻﾞｷﾁｮｳ","pref":"岩手県","city":"奥州市","address":"水沢区山崎町"},
{"zip_code":"0230801","kana_pref":"ｲﾜﾃｹﾝ","kana_city":"ｵｳｼｭｳｼ","kana_address":"ﾐｽﾞｻﾜｸﾖｺﾏﾁ","pref":"岩手県","city":"奥州市","address":"水沢区横町"},
{"zip_code":"0230893","kana_pref":"ｲﾜﾃｹﾝ","kana_city":"ｵｳｼｭｳｼ","kana_address":"ﾐｽﾞｻﾜｸﾖﾓｷﾞﾀﾞ","pref":"岩手県","city":"奥州市","address":"水沢区蓬田"},
{"zip_code":"0230864","kana_pref":"ｲﾜﾃｹﾝ","kana_city":"ｵｳｼｭｳｼ","kana_address":"ﾐｽﾞｻﾜｸﾘｭｳｶﾞﾊﾞﾊﾞ","pref":"岩手県","city":"奥州市","address":"水沢区龍ケ馬場"}]}