{"zip_code":[
{"zip_code":"0240000","kana_pref":"ｲﾜﾃｹﾝ","kana_city":"ｷﾀｶﾐｼ","kana_address":"","pref":"岩手県","city":"北上市","address":""},
{"zip_code":"0240051","kana_pref":"ｲﾜﾃｹﾝ","kana_city":"ｷﾀｶﾐｼ","kana_address":"ｱｲｻﾘﾁｮｳ","pref":"岩手県","city":"北上市","address":"相去町"},
{"zip_code":"0240031","kana_pref":"ｲﾜﾃｹﾝ","kana_city":"ｷﾀｶﾐｼ","kana_address":"ｱｵﾔｷﾞﾁｮｳ","pref":"岩手県","city":"北上市","address":"青柳町"},
{"zip_code":"0240081","kana_pref":"ｲﾜﾃｹﾝ","kana_city":"ｷﾀｶﾐｼ","kana_address":"ｱﾘﾀﾁｮｳ","pref":"岩手県","city":"北上市","address":"有田町"},
{"zip_code":"0240001","kana_pref":"ｲﾜﾃｹﾝ","kana_city":"ｷﾀｶﾐｼ","kana_address":"ｲｲﾄﾖ","pref":"岩手県","city":"北上市","address":"飯豊"},
{"zip_code":"0240041","kana_pref":"ｲﾜﾃｹﾝ","kana_city":"ｷﾀｶﾐｼ","kana_address":"ｲﾅｾﾁｮｳ","pref":"岩手県","city":"北上市","address":"稲瀬町"},
{"zip_code":"0240021","kana_pref":"ｲﾜﾃｹﾝ","kana_city":"ｷﾀｶﾐｼ","kana_address":"ｳｴﾉﾁｮｳ","pref":"岩手県","city":"北上市","address":"上野町"},
{"zip_code":"0240054","kana_pref":"ｲﾜﾃｹﾝ","kana_city":"ｷﾀｶﾐｼ","kana_address":"ｵｵﾂﾂﾐﾋｶﾞｼ","pref":"岩手県","city":"北上市","address":"大堤東"},
{"zip_code":"0240053","kana_pref":"ｲﾜﾃｹﾝ","kana_city":"ｷﾀｶﾐｼ","kana_address":"ｵｵﾂﾂﾐﾆｼ","pref":"岩手県","city":"北上市","address":"大堤西"},
{"zip_code":"0240055","kana_pref":"ｲﾜﾃｹﾝ","kana_city":"ｷﾀｶﾐｼ","kana_address":"ｵｵﾂﾂﾐﾐﾅﾐ","pref":"岩手県","city":"北上市","address":"大堤南"},
{"zip_code":"0240052","kana_pref":"ｲﾜﾃｹﾝ","kana_city":"ｷﾀｶﾐｼ","kana_address":"ｵｵﾂﾂﾐｷﾀ","pref":"岩手県","city":"北上市","address":"大堤北"},
{"zip_code":"0240061","kana_pref":"ｲﾜﾃｹﾝ","kana_city":"ｷﾀｶﾐｼ","kana_address":"ｵｵﾄﾞｵﾘ","pref":"岩手県","city":"北上市","address":"大通り"},
{"zip_code":"0240091","kana_pref":"ｲﾜﾃｹﾝ","kana_city":"ｷﾀｶﾐｼ","kana_address":"ｵｵﾏｶﾞﾘﾁｮｳ","pref":"岩手県","city":"北上市","address":"大曲町"},
{"zip_code":"0240056","kana_pref":"ｲﾜﾃｹﾝ","kana_city":"ｷﾀｶﾐｼ","kana_address":"ｵﾆﾔﾅｷﾞﾁｮｳ","pref":"岩手県","city":"北上市","address":"鬼柳町"},
{"zip_code":"0240062","kana_pref":"ｲﾜﾃｹﾝ","kana_city":"ｷﾀｶﾐｼ","kana_address":"ｶｼﾞﾏﾁ","pref":"岩手県","city":"北上市","address":"鍛冶町"},
{"zip_code":"0240071","kana_pref":"ｲﾜﾃｹﾝ","kana_city":"ｷﾀｶﾐｼ","kana_address":"ｶﾐｴﾂﾞﾘｺ","pref":"岩手県","city":"北上市","address":"上江釣子"},
{"zip_code":"0240057","kana_pref":"ｲﾜﾃｹﾝ","kana_city":"ｷﾀｶﾐｼ","kana_address":"ｶﾐｵﾆﾔﾅｷﾞ","pref":"岩手県","city":"北上市","address":"上鬼柳"},
{"zip_code":"0240032","kana_pref":"ｲﾜﾃｹﾝ","kana_city":"ｷﾀｶﾐｼ","kana_address":"ｶﾜｷﾞｼ","pref":"岩手県","city":"北上市","address":"川岸"},
{"zip_code":"0240072","kana_pref":"ｲﾜﾃｹﾝ","kana_city":"ｷﾀｶﾐｼ","kana_address":"ｷﾀｵﾆﾔﾅｷﾞ","pref":"岩手県","city":"北上市","address":"北鬼柳"},
{"zip_code":"0240102","kana_pref":"ｲﾜﾃｹﾝ","kana_city":"ｷﾀｶﾐｼ","kana_address":"ｷﾀｺｳｷﾞｮｳﾀﾞﾝﾁ","pref":"岩手県","city":"北上市","address":"北工業団地"},
{"zip_code":"0240002","kana_pref":"ｲﾜﾃｹﾝ","kana_city":"ｷﾀｶﾐｼ","kana_address":"ｷﾀｺｳｷﾞｮｳﾀﾞﾝﾁ","pref":"岩手県","city":"北上市","address":"北工業団地"},
{"zip_code":"0240211","kana_pref":"ｲﾜﾃｹﾝ","kana_city":"ｷﾀｶﾐｼ","kana_address":"ｸﾁﾅｲﾁｮｳ","pref":"岩手県","city":"北上市","address":"口内町"},
{"zip_code":"0240063","kana_pref":"ｲﾜﾃｹﾝ","kana_city":"ｷﾀｶﾐｼ","kana_address":"ｸﾈﾝﾊﾞｼ","pref":"岩手県","city":"北上市","address":"九年橋"},
{"zip_code":"0240042","kana_pref":"ｲﾜﾃｹﾝ","kana_city":"ｷﾀｶﾐｼ","kana_address":"ｸﾛｲﾜ","pref":"岩手県","city":"北上市","address":"黒岩"},
{"zip_code":"0240022","kana_pref":"ｲﾜﾃｹﾝ","kana_city":"ｷﾀｶﾐｼ","kana_address":"ｸﾛｻﾜｼﾞﾘ","pref":"岩手県","city":"北上市","address":"黒沢尻"},
{"zip_code":"0240105","kana_pref":"ｲﾜﾃｹﾝ","kana_city":"ｷﾀｶﾐｼ","kana_address":"ｺﾄﾘｻﾞｷ","pref":"岩手県","city":"北上市","address":"小鳥崎"},
{"zip_code":"0240033","kana_pref":"ｲﾜﾃｹﾝ","kana_city":"ｷﾀｶﾐｼ","kana_address":"ｻｲﾜｲﾁｮｳ","pref":"岩手県","city":"北上市","address":"幸町"},
{"zip_code":"0240084","kana_pref":"ｲﾜﾃｹﾝ","kana_city":"ｷﾀｶﾐｼ","kana_address":"ｻｸﾗﾄﾞｵﾘ","pref":"岩手県","city":"北上市","address":"さくら通り"},
{"zip_code":"0240023","kana_pref":"ｲﾜﾃｹﾝ","kana_city":"ｷﾀｶﾐｼ","kana_address":"ｻﾄﾌﾞﾝ","pref":"岩手県","city":"北上市","address":"里分"},
{"zip_code":"0240103","kana_pref":"ｲﾜﾃｹﾝ","kana_city":"ｷﾀｶﾐｼ","kana_address":"ｻﾗｷ","pref":"岩手県","city":"北上市","address":"更木"},
{"zip_code":"0240073","kana_pref":"ｲﾜﾃｹﾝ","kana_city":"ｷﾀｶﾐｼ","kana_address":"ｼﾓｴﾂﾞﾘｺ","pref":"岩手県","city":"北上市","address":"下江釣子"},
{"zip_code":"0240058","kana_pref":"ｲﾜﾃｹﾝ","kana_city":"ｷﾀｶﾐｼ","kana_address":"ｼﾓｵﾆﾔﾅｷﾞ","pref":"岩手県","city":"北上市","address":"下鬼柳"},
{"zip_code":"0240092","kana_pref":"ｲﾜﾃｹﾝ","kana_city":"ｷﾀｶﾐｼ","kana_address":"ｼﾝｺｸﾁｮｳ","pref":"岩手県","city":"北上市","address":"新穀町"},
{"zip_code":"0240034","kana_pref":"ｲﾜﾃｹﾝ","kana_city":"ｷﾀｶﾐｼ","kana_address":"ｽﾜﾁｮｳ","pref":"岩手県","city":"北上市","address":"諏訪町"},
{"zip_code":"0240043","kana_pref":"ｲﾜﾃｹﾝ","kana_city":"ｷﾀｶﾐｼ","kana_address":"ﾀﾁﾊﾞﾅ","pref":"岩手県","city":"北上市","address":"立花"},
{"zip_code":"0240011","kana_pref":"ｲﾜﾃｹﾝ","kana_city":"ｷﾀｶﾐｼ","kana_address":"ﾂﾂﾐｶﾞｵｶ","pref":"岩手県","city":"北上市","address":"堤ケ丘"},
{"zip_code":"0240012","kana_pref":"ｲﾜﾃｹﾝ","kana_city":"ｷﾀｶﾐｼ","kana_address":"ﾄｷﾜﾀﾞｲ","pref":"岩手県","city":"北上市","address":"常盤台"},
{"zip_code":"0240024","kana_pref":"ｲﾜﾃｹﾝ","kana_city":"ｷﾀｶﾐｼ","kana_address":"ﾅｶﾉﾁｮｳ","pref":"岩手県","city":"北上市","address":"中野町"},
{"zip_code":"0240074","kana_pref":"ｲﾜﾃｹﾝ","kana_city":"ｷﾀｶﾐｼ","kana_address":"ﾅﾒｼﾀﾞ","pref":"岩手県","city":"北上市","address":"滑田"},
{"zip_code":"0240003","kana_pref":"ｲﾜﾃｹﾝ","kana_city":"ｷﾀｶﾐｼ","kana_address":"ﾅﾘﾀ","pref":"岩手県","city":"北上市","address":"成田"},
{"zip_code":"0240075","kana_pref":"ｲﾜﾃｹﾝ","kana_city":"ｷﾀｶﾐｼ","kana_address":"ﾆﾂﾍﾟｲ","pref":"岩手県","city":"北上市","address":"新平"},
{"zip_code":"0240076","kana_pref":"ｲﾜﾃｹﾝ","kana_city":"ｷﾀｶﾐｼ","kana_address":"ﾊﾄｵｶｻﾞｷ","pref":"岩手県","city":"北上市","address":"鳩岡崎"},
{"zip_code":"0240035","kana_pref":"ｲﾜﾃｹﾝ","kana_city":"ｷﾀｶﾐｼ","kana_address":"ﾊﾅｿﾞﾉﾁｮｳ","pref":"岩手県","city":"北上市","address":"花園町"},
{"zip_code":"0240044","kana_pref":"ｲﾜﾃｹﾝ","kana_city":"ｷﾀｶﾐｼ","kana_address":"ﾋﾗｻﾜ","pref":"岩手県","city":"北上市","address":"平沢"},
{"zip_code":"0240101","kana_pref":"ｲﾜﾃｹﾝ","kana_city":"ｷﾀｶﾐｼ","kana_address":"ﾌｼｳｼ","pref":"岩手県","city":"北上市","address":"臥牛"},
{"zip_code":"0240013","kana_pref":"ｲﾜﾃｹﾝ","kana_city":"ｷﾀｶﾐｼ","kana_address":"ﾌｼﾞｻﾜ","pref":"岩手県","city":"北上市","address":"藤沢"},
{"zip_code":"0240104","kana_pref":"ｲﾜﾃｹﾝ","kana_city":"ｷﾀｶﾐｼ","kana_address":"ﾌﾀｺﾞﾁｮｳ","pref":"岩手県","city":"北上市","address":"二子町"},
{"zip_code":"0240093","kana_pref":"ｲﾜﾃｹﾝ","kana_city":"ｷﾀｶﾐｼ","kana_address":"ﾎﾝｺﾞｸﾁｮｳ","pref":"岩手県","city":"北上市","address":"本石町"},
{"zip_code":"0240094","kana_pref":"ｲﾜﾃｹﾝ","kana_city":"ｷﾀｶﾐｼ","kana_address":"ﾎﾝﾄﾞｵﾘ","pref":"岩手県","city":"北上市","address":"本通り"},
{"zip_code":"0240025","kana_pref":"ｲﾜﾃｹﾝ","kana_city":"ｷﾀｶﾐｼ","kana_address":"ﾏｺﾞﾔｼｷ","pref":"岩手県","city":"北上市","address":"孫屋敷"},
{"zip_code":"0240082","kana_pref":"ｲﾜﾃｹﾝ","kana_city":"ｷﾀｶﾐｼ","kana_address":"ﾏﾁﾌﾞﾝ","pref":"岩手県","city":"北上市","address":"町分"},
{"zip_code":"0240004","kana_pref":"ｲﾜﾃｹﾝ","kana_city":"ｷﾀｶﾐｼ","kana_address":"ﾑﾗｻｷﾉ","pref":"岩手県","city":"北上市","address":"村崎野"},
{"zip_code":"0240083","kana_pref":"ｲﾜﾃｹﾝ","kana_city":"ｷﾀｶﾐｼ","kana_address":"ﾔﾅｷﾞﾊﾗﾁｮｳ","pref":"岩手県","city":"北上市","address":"柳原町"},
{"zip_code":"0240045","kana_pref":"ｲﾜﾃｹﾝ","kana_city":"ｷﾀｶﾐｼ","kana_address":"ﾕｻﾞﾜ","pref":"岩手県","city":"北上市","address":"湯沢"},
{"zip_code":"0240095","kana_pref":"ｲﾜﾃｹﾝ","kana_city":"ｷﾀｶﾐｼ","kana_address":"ﾖｼﾁｮｳ","pref":"岩手県","city":"北上市","address":"芳町"},
{"zip_code":"0240014","kana_pref":"ｲﾜﾃｹﾝ","kana_city":"ｷﾀｶﾐｼ","kana_address":"ﾘｭｳﾂｳｾﾝﾀｰ","pref":"岩手県","city":"北上市","address":"流通センター"},
{"zip_code":"0240064","kana_pref":"ｲﾜﾃｹﾝ","kana_city":"ｷﾀｶﾐｼ","kana_address":"ﾜｶﾐﾔﾁｮｳ","pref":"岩手県","city":"北上市","address":"若宮町"},
{"zip_code":"0240321","kana_pref":"ｲﾜﾃｹﾝ","kana_city":"ｷﾀｶﾐｼ","kana_address":"ﾜｶﾞﾁｮｳｲﾜｻｷ","pref":"岩手県","city":"北上市","address":"和賀町岩崎"},
{"zip_code":"0240322","kana_pref":"ｲﾜﾃｹﾝ","kana_city":"ｷﾀｶﾐｼ","kana_address":"ﾜｶﾞﾁｮｳｲﾜｻｷｼﾝﾃﾞﾝ","pref":"岩手県","city":"北上市","address":"和賀町岩崎新田"},
{"zip_code":"0240325","kana_pref":"ｲﾜﾃｹﾝ","kana_city":"ｷﾀｶﾐｼ","kana_address":"ﾜｶﾞﾁｮｳｲﾜｻﾜ","pref":"岩手県","city":"北上市","address":"和賀町岩沢"},
{"zip_code":"0240335","kana_pref":"ｲﾜﾃｹﾝ","kana_city":"ｷﾀｶﾐｼ","kana_address":"ﾜｶﾞﾁｮｳｺﾞﾄｳ","pref":"岩手県","city":"北上市","address":"和賀町後藤"},
{"zip_code":"0240323","kana_pref":"ｲﾜﾃｹﾝ","kana_city":"ｷﾀｶﾐｼ","kana_address":"ﾜｶﾞﾁｮｳｽｽﾏｺﾞ","pref":"岩手県","city":"北上市","address":"和賀町煤孫"},
{"zip_code":"0240326","kana_pref":"ｲﾜﾃｹﾝ","kana_city":"ｷﾀｶﾐｼ","kana_address":"ﾜｶﾞﾁｮｳｾﾝﾆﾝ","pref":"岩手県","city":"北上市","address":"和賀町仙人"},
{"zip_code":"0240332","kana_pref":"ｲﾜﾃｹﾝ","kana_city":"ｷﾀｶﾐｼ","kana_address":"ﾜｶﾞﾁｮｳﾀﾃｶﾜﾒ","pref":"岩手県","city":"北上市","address":"和賀町竪川目"},
{"zip_code":"0240333","kana_pref":"ｲﾜﾃｹﾝ","kana_city":"ｷﾀｶﾐｼ","kana_address":"ﾜｶﾞﾁｮｳﾅｶﾞﾇﾏ","pref":"岩手県","city":"北上市","address":"和賀町長沼"},
{"zip_code":"0240334","kana_pref":"ｲﾜﾃｹﾝ","kana_city":"ｷﾀｶﾐｼ","kana_address":"ﾜｶﾞﾁｮｳﾌｼﾞﾈ","pref":"岩手県","city":"北上市","address":"和賀町藤根"},
{"zip_code":"0240324","kana_pref":"ｲﾜﾃｹﾝ","kana_city":"ｷﾀｶﾐｼ","kana_address":"ﾜｶﾞﾁｮｳﾔﾏｸﾞﾁ","pref":"岩手県","city":"北上市","address":"和賀町山口"},
{"zip_code":"0240331","kana_pref":"ｲﾜﾃｹﾝ","kana_city":"ｷﾀｶﾐｼ","kana_address":"ﾜｶﾞﾁｮｳﾖｺｶﾜﾒ","pref":"岩手県","city":"北上市","address":"和賀町横川目"},
{"zip_code":"0240341","kana_pref":"ｲﾜﾃｹﾝ","kana_city":"ﾜｶﾞｸﾞﾝﾆｼﾜｶﾞﾏﾁ","kana_address":"ｽｷﾞﾅﾊﾀ44ﾁﾜﾘ","pref":"岩手県","city":"和賀郡西和賀町","address":"杉名畑４４地割"}]}