{"zip_code":[
{"zip_code":"0250000","kana_pref":"ｲﾜﾃｹﾝ","kana_city":"ﾊﾅﾏｷｼ","kana_address":"","pref":"岩手県","city":"花巻市","address":""},
{"zip_code":"0250067","kana_pref":"ｲﾜﾃｹﾝ","kana_city":"ﾊﾅﾏｷｼ","kana_address":"ｱｻｻﾞﾜ","pref":"岩手県","city":"花巻市","address":"浅沢"},
{"zip_code":"0250088","kana_pref":"ｲﾜﾃｹﾝ","kana_city":"ﾊﾅﾏｷｼ","kana_address":"ｱｽﾞﾏﾁｮｳ","pref":"岩手県","city":"花巻市","address":"東町"},
{"zip_code":"0250071","kana_pref":"ｲﾜﾃｹﾝ","kana_city":"ﾊﾅﾏｷｼ","kana_address":"ｱﾀｺﾞﾁｮｳ","pref":"岩手県","city":"花巻市","address":"愛宕町"},
{"zip_code":"0250095","kana_pref":"ｲﾜﾃｹﾝ","kana_city":"ﾊﾅﾏｷｼ","kana_address":"ｲｼｶﾞﾐﾁｮｳ","pref":"岩手県","city":"花巻市","address":"石神町"},
{"zip_code":"0250058","kana_pref":"ｲﾜﾃｹﾝ","kana_city":"ﾊﾅﾏｷｼ","kana_address":"ｲｯﾎﾟﾝｽｷﾞ","pref":"岩手県","city":"花巻市","address":"一本杉"},
{"zip_code":"0250042","kana_pref":"ｲﾜﾃｹﾝ","kana_city":"ﾊﾅﾏｷｼ","kana_address":"ｴﾝﾏﾝｼﾞ","pref":"岩手県","city":"花巻市","address":"円万寺"},
{"zip_code":"0250322","kana_pref":"ｲﾜﾃｹﾝ","kana_city":"ﾊﾅﾏｷｼ","kana_address":"ｵｵｶﾐｻﾞﾜ","pref":"岩手県","city":"花巻市","address":"狼沢"},
{"zip_code":"0250037","kana_pref":"ｲﾜﾃｹﾝ","kana_city":"ﾊﾅﾏｷｼ","kana_address":"ｵｵﾀ","pref":"岩手県","city":"花巻市","address":"太田"},
{"zip_code":"0250092","kana_pref":"ｲﾜﾃｹﾝ","kana_city":"ﾊﾅﾏｷｼ","kana_address":"ｵｵﾄﾞｵﾘ","pref":"岩手県","city":"花巻市","address":"大通り"},
{"zip_code":"0250303","kana_pref":"ｲﾜﾃｹﾝ","kana_city":"ﾊﾅﾏｷｼ","kana_address":"ｵｵﾊﾀ","pref":"岩手県","city":"花巻市","address":"大畑"},
{"zip_code":"0250026","kana_pref":"ｲﾜﾃｹﾝ","kana_city":"ﾊﾅﾏｷｼ","kana_address":"ｵｵﾔﾁ","pref":"岩手県","city":"花巻市","address":"大谷地"},
{"zip_code":"0250082","kana_pref":"ｲﾜﾃｹﾝ","kana_city":"ﾊﾅﾏｷｼ","kana_address":"ｵﾀﾔﾁｮｳ","pref":"岩手県","city":"花巻市","address":"御田屋町"},
{"zip_code":"0250311","kana_pref":"ｲﾜﾃｹﾝ","kana_city":"ﾊﾅﾏｷｼ","kana_address":"ｵﾛｼﾏﾁ","pref":"岩手県","city":"花巻市","address":"卸町"},
{"zip_code":"0250086","kana_pref":"ｲﾜﾃｹﾝ","kana_city":"ﾊﾅﾏｷｼ","kana_address":"ｶｼﾞﾏﾁ","pref":"岩手県","city":"花巻市","address":"鍛治町"},
{"zip_code":"0250075","kana_pref":"ｲﾜﾃｹﾝ","kana_city":"ﾊﾅﾏｷｼ","kana_address":"ｶｼﾞｮｳﾏﾁ","pref":"岩手県","city":"花巻市","address":"花城町"},
{"zip_code":"0250321","kana_pref":"ｲﾜﾃｹﾝ","kana_city":"ﾊﾅﾏｷｼ","kana_address":"ｶﾅﾔ","pref":"岩手県","city":"花巻市","address":"金矢"},
{"zip_code":"0250056","kana_pref":"ｲﾜﾃｹﾝ","kana_city":"ﾊﾅﾏｷｼ","kana_address":"ｶﾐｷﾀﾏﾝﾁｮｳﾒ","pref":"岩手県","city":"花巻市","address":"上北万丁目"},
{"zip_code":"0250062","kana_pref":"ｲﾜﾃｹﾝ","kana_city":"ﾊﾅﾏｷｼ","kana_address":"ｶﾐｺﾌﾞﾅﾄ","pref":"岩手県","city":"花巻市","address":"上小舟渡"},
{"zip_code":"0250032","kana_pref":"ｲﾜﾃｹﾝ","kana_city":"ﾊﾅﾏｷｼ","kana_address":"ｶﾐｽﾜ","pref":"岩手県","city":"花巻市","address":"上諏訪"},
{"zip_code":"0250087","kana_pref":"ｲﾜﾃｹﾝ","kana_city":"ﾊﾅﾏｷｼ","kana_address":"ｶﾐﾁｮｳ","pref":"岩手県","city":"花巻市","address":"上町"},
{"zip_code":"0250007","kana_pref":"ｲﾜﾃｹﾝ","kana_city":"ﾊﾅﾏｷｼ","kana_address":"ｶﾐﾆﾀﾅｲ","pref":"岩手県","city":"花巻市","address":"上似内"},
{"zip_code":"0250043","kana_pref":"ｲﾜﾃｹﾝ","kana_city":"ﾊﾅﾏｷｼ","kana_address":"ｶﾐﾈｺ","pref":"岩手県","city":"花巻市","address":"上根子"},
{"zip_code":"0250132","kana_pref":"ｲﾜﾃｹﾝ","kana_city":"ﾊﾅﾏｷｼ","kana_address":"ｷﾀｻｻﾏ","pref":"岩手県","city":"花巻市","address":"北笹間"},
{"zip_code":"0250301","kana_pref":"ｲﾜﾃｹﾝ","kana_city":"ﾊﾅﾏｷｼ","kana_address":"ｷﾀﾕｸﾞﾁ","pref":"岩手県","city":"花巻市","address":"北湯口"},
{"zip_code":"0250008","kana_pref":"ｲﾜﾃｹﾝ","kana_city":"ﾊﾅﾏｷｼ","kana_address":"ｸｳｺｳﾐﾅﾐ","pref":"岩手県","city":"花巻市","address":"空港南"},
{"zip_code":"0250004","kana_pref":"ｲﾜﾃｹﾝ","kana_city":"ﾊﾅﾏｷｼ","kana_address":"ｸｽﾞ","pref":"岩手県","city":"花巻市","address":"葛"},
{"zip_code":"0250253","kana_pref":"ｲﾜﾃｹﾝ","kana_city":"ﾊﾅﾏｷｼ","kana_address":"ｸﾀｼｻﾞﾜ","pref":"岩手県","city":"花巻市","address":"下シ沢"},
{"zip_code":"0250323","kana_pref":"ｲﾜﾃｹﾝ","kana_city":"ﾊﾅﾏｷｼ","kana_address":"ｸﾇｷﾞﾉﾒ","pref":"岩手県","city":"花巻市","address":"椚ノ目"},
{"zip_code":"0250013","kana_pref":"ｲﾜﾃｹﾝ","kana_city":"ﾊﾅﾏｷｼ","kana_address":"ｺｳﾀﾞ","pref":"岩手県","city":"花巻市","address":"幸田"},
{"zip_code":"0250012","kana_pref":"ｲﾜﾃｹﾝ","kana_city":"ﾊﾅﾏｷｼ","kana_address":"ｺｼｵｳ","pref":"岩手県","city":"花巻市","address":"胡四王"},
{"zip_code":"0250324","kana_pref":"ｲﾜﾃｹﾝ","kana_city":"ﾊﾅﾏｷｼ","kana_address":"ｺｾｶﾞﾜ","pref":"岩手県","city":"花巻市","address":"小瀬川"},
{"zip_code":"0250098","kana_pref":"ｲﾜﾃｹﾝ","kana_city":"ﾊﾅﾏｷｼ","kana_address":"ｻﾞｲﾓｸﾁｮｳ","pref":"岩手県","city":"花巻市","address":"材木町"},
{"zip_code":"0250074","kana_pref":"ｲﾜﾃｹﾝ","kana_city":"ﾊﾅﾏｷｼ","kana_address":"ｻｶﾓﾄﾁｮｳ","pref":"岩手県","city":"花巻市","address":"坂本町"},
{"zip_code":"0250094","kana_pref":"ｲﾜﾃｹﾝ","kana_city":"ﾊﾅﾏｷｼ","kana_address":"ｻｸﾗｷﾞﾁｮｳ","pref":"岩手県","city":"花巻市","address":"桜木町"},
{"zip_code":"0250064","kana_pref":"ｲﾜﾃｹﾝ","kana_city":"ﾊﾅﾏｷｼ","kana_address":"ｻｸﾗﾀﾞｲ","pref":"岩手県","city":"花巻市","address":"桜台"},
{"zip_code":"0250084","kana_pref":"ｲﾜﾃｹﾝ","kana_city":"ﾊﾅﾏｷｼ","kana_address":"ｻｸﾗﾏﾁ","pref":"岩手県","city":"花巻市","address":"桜町"},
{"zip_code":"0250081","kana_pref":"ｲﾜﾃｹﾝ","kana_city":"ﾊﾅﾏｷｼ","kana_address":"ｻﾄｶﾜｸﾞﾁﾏﾁ","pref":"岩手県","city":"花巻市","address":"里川口町"},
{"zip_code":"0250068","kana_pref":"ｲﾜﾃｹﾝ","kana_city":"ﾊﾅﾏｷｼ","kana_address":"ｼﾀﾊﾊﾞ","pref":"岩手県","city":"花巻市","address":"下幅"},
{"zip_code":"0250035","kana_pref":"ｲﾜﾃｹﾝ","kana_city":"ﾊﾅﾏｷｼ","kana_address":"ｼﾞﾂｿｳｼﾞ","pref":"岩手県","city":"花巻市","address":"実相寺"},
{"zip_code":"0250054","kana_pref":"ｲﾜﾃｹﾝ","kana_city":"ﾊﾅﾏｷｼ","kana_address":"ｼﾓｷﾀﾏﾝﾁｮｳﾒ","pref":"岩手県","city":"花巻市","address":"下北万丁目"},
{"zip_code":"0250063","kana_pref":"ｲﾜﾃｹﾝ","kana_city":"ﾊﾅﾏｷｼ","kana_address":"ｼﾓｺﾌﾞﾅﾄ","pref":"岩手県","city":"花巻市","address":"下小舟渡"},
{"zip_code":"0250006","kana_pref":"ｲﾜﾃｹﾝ","kana_city":"ﾊﾅﾏｷｼ","kana_address":"ｼﾓﾆﾀﾅｲ","pref":"岩手県","city":"花巻市","address":"下似内"},
{"zip_code":"0250025","kana_pref":"ｲﾜﾃｹﾝ","kana_city":"ﾊﾅﾏｷｼ","kana_address":"ｼﾓﾈｺ","pref":"岩手県","city":"花巻市","address":"下根子"},
{"zip_code":"0250022","kana_pref":"ｲﾜﾃｹﾝ","kana_city":"ﾊﾅﾏｷｼ","kana_address":"ｼﾞｭｳﾆﾁｮｳﾒ","pref":"岩手県","city":"花巻市","address":"十二丁目"},
{"zip_code":"0250076","kana_pref":"ｲﾜﾃｹﾝ","kana_city":"ﾊﾅﾏｷｼ","kana_address":"ｼﾞｮｳﾅｲ","pref":"岩手県","city":"花巻市","address":"城内"},
{"zip_code":"0250137","kana_pref":"ｲﾜﾃｹﾝ","kana_city":"ﾊﾅﾏｷｼ","kana_address":"ｼﾘﾀｲﾗｶﾞﾜ","pref":"岩手県","city":"花巻市","address":"尻平川"},
{"zip_code":"0250057","kana_pref":"ｲﾜﾃｹﾝ","kana_city":"ﾊﾅﾏｷｼ","kana_address":"ｼﾝﾃﾞﾝ","pref":"岩手県","city":"花巻市","address":"新田"},
{"zip_code":"0250079","kana_pref":"ｲﾜﾃｹﾝ","kana_city":"ﾊﾅﾏｷｼ","kana_address":"ｽｴﾋﾛﾁｮｳ","pref":"岩手県","city":"花巻市","address":"末広町"},
{"zip_code":"0250033","kana_pref":"ｲﾜﾃｹﾝ","kana_city":"ﾊﾅﾏｷｼ","kana_address":"ｽﾜ","pref":"岩手県","city":"花巻市","address":"諏訪"},
{"zip_code":"0250039","kana_pref":"ｲﾜﾃｹﾝ","kana_city":"ﾊﾅﾏｷｼ","kana_address":"ｽﾜﾁｮｳ","pref":"岩手県","city":"花巻市","address":"諏訪町"},
{"zip_code":"0250305","kana_pref":"ｲﾜﾃｹﾝ","kana_city":"ﾊﾅﾏｷｼ","kana_address":"ﾀﾞｲ","pref":"岩手県","city":"花巻市","address":"台"},
{"zip_code":"0250016","kana_pref":"ｲﾜﾃｹﾝ","kana_city":"ﾊﾅﾏｷｼ","kana_address":"ﾀｶｷ","pref":"岩手県","city":"花巻市","address":"高木"},
{"zip_code":"0250083","kana_pref":"ｲﾜﾃｹﾝ","kana_city":"ﾊﾅﾏｷｼ","kana_address":"ﾀｶﾀﾞ","pref":"岩手県","city":"花巻市","address":"高田"},
{"zip_code":"0250014","kana_pref":"ｲﾜﾃｹﾝ","kana_city":"ﾊﾅﾏｷｼ","kana_address":"ﾀｶﾏﾂ","pref":"岩手県","city":"花巻市","address":"高松"},
{"zip_code":"0250005","kana_pref":"ｲﾜﾃｹﾝ","kana_city":"ﾊﾅﾏｷｼ","kana_address":"ﾀﾁｶﾗ","pref":"岩手県","city":"花巻市","address":"田力"},
{"zip_code":"0250001","kana_pref":"ｲﾜﾃｹﾝ","kana_city":"ﾊﾅﾏｷｼ","kana_address":"ﾃﾝｶﾀﾞ","pref":"岩手県","city":"花巻市","address":"天下田"},
{"zip_code":"0250135","kana_pref":"ｲﾜﾃｹﾝ","kana_city":"ﾊﾅﾏｷｼ","kana_address":"ﾄﾁﾅｲ","pref":"岩手県","city":"花巻市","address":"栃内"},
{"zip_code":"0250131","kana_pref":"ｲﾜﾃｹﾝ","kana_city":"ﾊﾅﾏｷｼ","kana_address":"ﾄﾄﾞﾛｷ","pref":"岩手県","city":"花巻市","address":"轟木"},
{"zip_code":"0250251","kana_pref":"ｲﾜﾃｹﾝ","kana_city":"ﾊﾅﾏｷｼ","kana_address":"ﾄﾖｻﾜ","pref":"岩手県","city":"花巻市","address":"豊沢"},
{"zip_code":"0250089","kana_pref":"ｲﾜﾃｹﾝ","kana_city":"ﾊﾅﾏｷｼ","kana_address":"ﾄﾖｻﾜﾁｮｳ","pref":"岩手県","city":"花巻市","address":"豊沢町"},
{"zip_code":"0250053","kana_pref":"ｲﾜﾃｹﾝ","kana_city":"ﾊﾅﾏｷｼ","kana_address":"ﾅｶｷﾀﾏﾝﾁｮｳﾒ","pref":"岩手県","city":"花巻市","address":"中北万丁目"},
{"zip_code":"0250133","kana_pref":"ｲﾜﾃｹﾝ","kana_city":"ﾊﾅﾏｷｼ","kana_address":"ﾅｶｻｻﾏ","pref":"岩手県","city":"花巻市","address":"中笹間"},
{"zip_code":"0250036","kana_pref":"ｲﾜﾃｹﾝ","kana_city":"ﾊﾅﾏｷｼ","kana_address":"ﾅｶﾈｺ","pref":"岩手県","city":"花巻市","address":"中根子"},
{"zip_code":"0250077","kana_pref":"ｲﾜﾃｹﾝ","kana_city":"ﾊﾅﾏｷｼ","kana_address":"ﾅｶﾏﾁ","pref":"岩手県","city":"花巻市","address":"仲町"},
{"zip_code":"0250046","kana_pref":"ｲﾜﾃｹﾝ","kana_city":"ﾊﾅﾏｷｼ","kana_address":"ﾅﾍﾞｸﾗ","pref":"岩手県","city":"花巻市","address":"鍋倉"},
{"zip_code":"0250252","kana_pref":"ｲﾜﾃｹﾝ","kana_city":"ﾊﾅﾏｷｼ","kana_address":"ﾅﾏﾘ","pref":"岩手県","city":"花巻市","address":"鉛"},
{"zip_code":"0250023","kana_pref":"ｲﾜﾃｹﾝ","kana_city":"ﾊﾅﾏｷｼ","kana_address":"ﾅﾘﾀ","pref":"岩手県","city":"花巻市","address":"成田"},
{"zip_code":"0250021","kana_pref":"ｲﾜﾃｹﾝ","kana_city":"ﾊﾅﾏｷｼ","kana_address":"ﾅﾝｼﾞｮｳ","pref":"岩手県","city":"花巻市","address":"南城"},
{"zip_code":"0250091","kana_pref":"ｲﾜﾃｹﾝ","kana_city":"ﾊﾅﾏｷｼ","kana_address":"ﾆｼｵｵﾄﾞｵﾘ","pref":"岩手県","city":"花巻市","address":"西大通り"},
{"zip_code":"0250045","kana_pref":"ｲﾜﾃｹﾝ","kana_city":"ﾊﾅﾏｷｼ","kana_address":"ﾆｼﾊﾚﾔﾏ","pref":"岩手県","city":"花巻市","address":"西晴山"},
{"zip_code":"0250002","kana_pref":"ｲﾜﾃｹﾝ","kana_city":"ﾊﾅﾏｷｼ","kana_address":"ﾆｼﾐﾔﾉﾒ","pref":"岩手県","city":"花巻市","address":"西宮野目"},
{"zip_code":"0250312","kana_pref":"ｲﾜﾃｹﾝ","kana_city":"ﾊﾅﾏｷｼ","kana_address":"ﾆﾏｲﾊﾞｼ","pref":"岩手県","city":"花巻市","address":"二枚橋"},
{"zip_code":"0250314","kana_pref":"ｲﾜﾃｹﾝ","kana_city":"ﾊﾅﾏｷｼ","kana_address":"ﾆﾏｲﾊﾞｼﾏﾁｵｵﾄﾞｵﾘ","pref":"岩手県","city":"花巻市","address":"二枚橋町大通り"},
{"zip_code":"0250315","kana_pref":"ｲﾜﾃｹﾝ","kana_city":"ﾊﾅﾏｷｼ","kana_address":"ﾆﾏｲﾊﾞｼﾏﾁﾐﾅﾐ","pref":"岩手県","city":"花巻市","address":"二枚橋町南"},
{"zip_code":"0250313","kana_pref":"ｲﾜﾃｹﾝ","kana_city":"ﾊﾅﾏｷｼ","kana_address":"ﾆﾏｲﾊﾞｼﾏﾁｷﾀ","pref":"岩手県","city":"花巻市","address":"二枚橋町北"},
{"zip_code":"0250302","kana_pref":"ｲﾜﾃｹﾝ","kana_city":"ﾊﾅﾏｷｼ","kana_address":"ﾇｶﾂﾞｶ","pref":"岩手県","city":"花巻市","address":"糠塚"},
{"zip_code":"0250052","kana_pref":"ｲﾜﾃｹﾝ","kana_city":"ﾊﾅﾏｷｼ","kana_address":"ﾉﾀﾞ","pref":"岩手県","city":"花巻市","address":"野田"},
{"zip_code":"0250015","kana_pref":"ｲﾜﾃｹﾝ","kana_city":"ﾊﾅﾏｷｼ","kana_address":"ﾋｶﾞｼｼﾞｭｳﾆﾁｮｳﾒ","pref":"岩手県","city":"花巻市","address":"東十二丁目"},
{"zip_code":"0250003","kana_pref":"ｲﾜﾃｹﾝ","kana_city":"ﾊﾅﾏｷｼ","kana_address":"ﾋｶﾞｼﾐﾔﾉﾒ","pref":"岩手県","city":"花巻市","address":"東宮野目"},
{"zip_code":"0250041","kana_pref":"ｲﾜﾃｹﾝ","kana_city":"ﾊﾅﾏｷｼ","kana_address":"ﾋｻﾞﾀﾃ","pref":"岩手県","city":"花巻市","address":"膝立"},
{"zip_code":"0250073","kana_pref":"ｲﾜﾃｹﾝ","kana_city":"ﾊﾅﾏｷｼ","kana_address":"ﾋﾄｲﾁ","pref":"岩手県","city":"花巻市","address":"一日市"},
{"zip_code":"0250096","kana_pref":"ｲﾜﾃｹﾝ","kana_city":"ﾊﾅﾏｷｼ","kana_address":"ﾌｼﾞｻﾜﾁｮｳ","pref":"岩手県","city":"花巻市","address":"藤沢町"},
{"zip_code":"0250085","kana_pref":"ｲﾜﾃｹﾝ","kana_city":"ﾊﾅﾏｷｼ","kana_address":"ﾌﾀﾊﾞﾁｮｳ","pref":"岩手県","city":"花巻市","address":"双葉町"},
{"zip_code":"0250078","kana_pref":"ｲﾜﾃｹﾝ","kana_city":"ﾊﾅﾏｷｼ","kana_address":"ﾌﾂﾊﾟﾘﾁｮｳ","pref":"岩手県","city":"花巻市","address":"吹張町"},
{"zip_code":"0250031","kana_pref":"ｲﾜﾃｹﾝ","kana_city":"ﾊﾅﾏｷｼ","kana_address":"ﾌﾄﾞｳ","pref":"岩手県","city":"花巻市","address":"不動"},
{"zip_code":"0250038","kana_pref":"ｲﾜﾃｹﾝ","kana_city":"ﾊﾅﾏｷｼ","kana_address":"ﾌﾄﾞｳﾁｮｳ","pref":"岩手県","city":"花巻市","address":"不動町"},
{"zip_code":"0250065","kana_pref":"ｲﾜﾃｹﾝ","kana_city":"ﾊﾅﾏｷｼ","kana_address":"ﾎｼｶﾞｵｶ","pref":"岩手県","city":"花巻市","address":"星が丘"},
{"zip_code":"0250066","kana_pref":"ｲﾜﾃｹﾝ","kana_city":"ﾊﾅﾏｷｼ","kana_address":"ﾏﾂｿﾞﾉﾁｮｳ","pref":"岩手県","city":"花巻市","address":"松園町"},
{"zip_code":"0250093","kana_pref":"ｲﾜﾃｹﾝ","kana_city":"ﾊﾅﾏｷｼ","kana_address":"ﾐﾅﾐｶﾜﾗﾁｮｳ","pref":"岩手県","city":"花巻市","address":"南川原町"},
{"zip_code":"0250134","kana_pref":"ｲﾜﾃｹﾝ","kana_city":"ﾊﾅﾏｷｼ","kana_address":"ﾐﾅﾐｻｻﾏ","pref":"岩手県","city":"花巻市","address":"南笹間"},
{"zip_code":"0250051","kana_pref":"ｲﾜﾃｹﾝ","kana_city":"ﾊﾅﾏｷｼ","kana_address":"ﾐﾅﾐｼﾝﾃﾞﾝ","pref":"岩手県","city":"花巻市","address":"南新田"},
{"zip_code":"0250034","kana_pref":"ｲﾜﾃｹﾝ","kana_city":"ﾊﾅﾏｷｼ","kana_address":"ﾐﾅﾐｽﾜﾁｮｳ","pref":"岩手県","city":"花巻市","address":"南諏訪町"},
{"zip_code":"0250055","kana_pref":"ｲﾜﾃｹﾝ","kana_city":"ﾊﾅﾏｷｼ","kana_address":"ﾐﾅﾐﾏﾝﾁｮｳﾒ","pref":"岩手県","city":"花巻市","address":"南万丁目"},
{"zip_code":"0250061","kana_pref":"ｲﾜﾃｹﾝ","kana_city":"ﾊﾅﾏｷｼ","kana_address":"ﾓﾄﾀﾞﾃ","pref":"岩手県","city":"花巻市","address":"本館"},
{"zip_code":"0250011","kana_pref":"ｲﾜﾃｹﾝ","kana_city":"ﾊﾅﾏｷｼ","kana_address":"ﾔｻﾜ","pref":"岩手県","city":"花巻市","address":"矢沢"},
{"zip_code":"0250024","kana_pref":"ｲﾜﾃｹﾝ","kana_city":"ﾊﾅﾏｷｼ","kana_address":"ﾔﾏﾉｶﾐ","pref":"岩手県","city":"花巻市","address":"山の神"},
{"zip_code":"0250044","kana_pref":"ｲﾜﾃｹﾝ","kana_city":"ﾊﾅﾏｷｼ","kana_address":"ﾕｸﾞﾁ","pref":"岩手県","city":"花巻市","address":"湯口"},
{"zip_code":"0250244","kana_pref":"ｲﾜﾃｹﾝ","kana_city":"ﾊﾅﾏｷｼ","kana_address":"ﾕｸﾞﾁ","pref":"岩手県","city":"花巻市","address":"湯口"},
{"zip_code":"0250304","kana_pref":"ｲﾜﾃｹﾝ","kana_city":"ﾊﾅﾏｷｼ","kana_address":"ﾕﾓﾄ","pref":"岩手県","city":"花巻市","address":"湯本"},
{"zip_code":"0250136","kana_pref":"ｲﾜﾃｹﾝ","kana_city":"ﾊﾅﾏｷｼ","kana_address":"ﾖｺｼﾀﾞ","pref":"岩手県","city":"花巻市","address":"横志田"},
{"zip_code":"0250072","kana_pref":"ｲﾜﾃｹﾝ","kana_city":"ﾊﾅﾏｷｼ","kana_address":"ﾖｯｶﾏﾁ","pref":"岩手県","city":"花巻市","address":"四日町"},
{"zip_code":"0250097","kana_pref":"ｲﾜﾃｹﾝ","kana_city":"ﾊﾅﾏｷｼ","kana_address":"ﾜｶﾊﾞﾁｮｳ","pref":"岩手県","city":"花巻市","address":"若葉町"}]}