{"zip_code":[
{"zip_code":"0260000","kana_pref":"ｲﾜﾃｹﾝ","kana_city":"ｶﾏｲｼｼ","kana_address":"","pref":"岩手県","city":"釜石市","address":""},
{"zip_code":"0260012","kana_pref":"ｲﾜﾃｹﾝ","kana_city":"ｶﾏｲｼｼ","kana_address":"ｳｵｶﾞｼ","pref":"岩手県","city":"釜石市","address":"魚河岸"},
{"zip_code":"0260301","kana_pref":"ｲﾜﾃｹﾝ","kana_city":"ｶﾏｲｼｼ","kana_address":"ｳﾉｽﾏｲﾁｮｳ","pref":"岩手県","city":"釜石市","address":"鵜住居町"},
{"zip_code":"0260003","kana_pref":"ｲﾜﾃｹﾝ","kana_city":"ｶﾏｲｼｼ","kana_address":"ｳﾚｲｼﾁｮｳ","pref":"岩手県","city":"釜石市","address":"嬉石町"},
{"zip_code":"0260022","kana_pref":"ｲﾜﾃｹﾝ","kana_city":"ｶﾏｲｼｼ","kana_address":"ｵｵﾀﾀﾞｺｴﾁｮｳ","pref":"岩手県","city":"釜石市","address":"大只越町"},
{"zip_code":"0260002","kana_pref":"ｲﾜﾃｹﾝ","kana_city":"ｶﾏｲｼｼ","kana_address":"ｵｵﾀﾞｲﾗﾁｮｳ","pref":"岩手県","city":"釜石市","address":"大平町"},
{"zip_code":"0260024","kana_pref":"ｲﾜﾃｹﾝ","kana_city":"ｶﾏｲｼｼ","kana_address":"ｵｵﾏﾁ","pref":"岩手県","city":"釜石市","address":"大町"},
{"zip_code":"0260025","kana_pref":"ｲﾜﾃｹﾝ","kana_city":"ｶﾏｲｼｼ","kana_address":"ｵｵﾜﾀﾘﾁｮｳ","pref":"岩手県","city":"釜石市","address":"大渡町"},
{"zip_code":"0260302","kana_pref":"ｲﾜﾃｹﾝ","kana_city":"ｶﾏｲｼｼ","kana_address":"ｶﾀｷﾞｼﾁｮｳ","pref":"岩手県","city":"釜石市","address":"片岸町"},
{"zip_code":"0260055","kana_pref":"ｲﾜﾃｹﾝ","kana_city":"ｶﾏｲｼｼ","kana_address":"ｶｯｼﾁｮｳ","pref":"岩手県","city":"釜石市","address":"甲子町"},
{"zip_code":"0260026","kana_pref":"ｲﾜﾃｹﾝ","kana_city":"ｶﾏｲｼｼ","kana_address":"ｶﾏｲｼ","pref":"岩手県","city":"釜石市","address":"釜石"},
{"zip_code":"0260041","kana_pref":"ｲﾜﾃｹﾝ","kana_city":"ｶﾏｲｼｼ","kana_address":"ｶﾐﾅｶｼﾏﾁｮｳ","pref":"岩手県","city":"釜石市","address":"上中島町"},
{"zip_code":"0260412","kana_pref":"ｲﾜﾃｹﾝ","kana_city":"ｶﾏｲｼｼ","kana_address":"ｸﾘﾊﾞﾔｼﾁｮｳ","pref":"岩手県","city":"釜石市","address":"栗林町"},
{"zip_code":"0260042","kana_pref":"ｲﾜﾃｹﾝ","kana_city":"ｶﾏｲｼｼ","kana_address":"ｹﾞﾝﾀｻﾜﾁｮｳ","pref":"岩手県","city":"釜石市","address":"源太沢町"},
{"zip_code":"0260045","kana_pref":"ｲﾜﾃｹﾝ","kana_city":"ｶﾏｲｼｼ","kana_address":"ｺｶﾞﾜﾁｮｳ","pref":"岩手県","city":"釜石市","address":"小川町"},
{"zip_code":"0260052","kana_pref":"ｲﾜﾃｹﾝ","kana_city":"ｶﾏｲｼｼ","kana_address":"ｺｻﾉﾁｮｳ","pref":"岩手県","city":"釜石市","address":"小佐野町"},
{"zip_code":"0260033","kana_pref":"ｲﾜﾃｹﾝ","kana_city":"ｶﾏｲｼｼ","kana_address":"ｺﾏｷﾞﾁｮｳ","pref":"岩手県","city":"釜石市","address":"駒木町"},
{"zip_code":"0260046","kana_pref":"ｲﾜﾃｹﾝ","kana_city":"ｶﾏｲｼｼ","kana_address":"ｻｸﾗｷﾞﾁｮｳ","pref":"岩手県","city":"釜石市","address":"桜木町"},
{"zip_code":"0260053","kana_pref":"ｲﾜﾃｹﾝ","kana_city":"ｶﾏｲｼｼ","kana_address":"ｻﾀﾞﾅｲﾁｮｳ","pref":"岩手県","city":"釜石市","address":"定内町"},
{"zip_code":"0260015","kana_pref":"ｲﾜﾃｹﾝ","kana_city":"ｶﾏｲｼｼ","kana_address":"ｼﾝﾊﾏﾁｮｳ","pref":"岩手県","city":"釜石市","address":"新浜町"},
{"zip_code":"0260043","kana_pref":"ｲﾜﾃｹﾝ","kana_city":"ｶﾏｲｼｼ","kana_address":"ｼﾝﾏﾁ","pref":"岩手県","city":"釜石市","address":"新町"},
{"zip_code":"0260031","kana_pref":"ｲﾜﾃｹﾝ","kana_city":"ｶﾏｲｼｼ","kana_address":"ｽｽﾞｺﾁｮｳ","pref":"岩手県","city":"釜石市","address":"鈴子町"},
{"zip_code":"0260044","kana_pref":"ｲﾜﾃｹﾝ","kana_city":"ｶﾏｲｼｼ","kana_address":"ｽﾐﾖｼﾁｮｳ","pref":"岩手県","city":"釜石市","address":"住吉町"},
{"zip_code":"0260021","kana_pref":"ｲﾜﾃｹﾝ","kana_city":"ｶﾏｲｼｼ","kana_address":"ﾀﾀﾞｺｴﾁｮｳ","pref":"岩手県","city":"釜石市","address":"只越町"},
{"zip_code":"0260032","kana_pref":"ｲﾜﾃｹﾝ","kana_city":"ｶﾏｲｼｼ","kana_address":"ﾁﾄﾞﾘﾁｮｳ","pref":"岩手県","city":"釜石市","address":"千鳥町"},
{"zip_code":"0260023","kana_pref":"ｲﾜﾃｹﾝ","kana_city":"ｶﾏｲｼｼ","kana_address":"ﾃﾝｼﾞﾝﾁｮｳ","pref":"岩手県","city":"釜石市","address":"天神町"},
{"zip_code":"0260061","kana_pref":"ｲﾜﾃｹﾝ","kana_city":"ｶﾏｲｼｼ","kana_address":"ﾄｳﾆﾁｮｳ","pref":"岩手県","city":"釜石市","address":"唐丹町"},
{"zip_code":"0260121","kana_pref":"ｲﾜﾃｹﾝ","kana_city":"ｶﾏｲｼｼ","kana_address":"ﾄｳﾆﾁｮｳ","pref":"岩手県","city":"釜石市","address":"唐丹町"},
{"zip_code":"0260034","kana_pref":"ｲﾜﾃｹﾝ","kana_city":"ｶﾏｲｼｼ","kana_address":"ﾅｶﾂﾞﾏﾁｮｳ","pref":"岩手県","city":"釜石市","address":"中妻町"},
{"zip_code":"0260054","kana_pref":"ｲﾜﾃｹﾝ","kana_city":"ｶﾏｲｼｼ","kana_address":"ﾉﾀﾞﾁｮｳ","pref":"岩手県","city":"釜石市","address":"野田町"},
{"zip_code":"0260303","kana_pref":"ｲﾜﾃｹﾝ","kana_city":"ｶﾏｲｼｼ","kana_address":"ﾊｺｻﾞｷﾁｮｳ","pref":"岩手県","city":"釜石市","address":"箱崎町"},
{"zip_code":"0260411","kana_pref":"ｲﾜﾃｹﾝ","kana_city":"ｶﾏｲｼｼ","kana_address":"ﾊｼﾉﾁｮｳ","pref":"岩手県","city":"釜石市","address":"橋野町"},
{"zip_code":"0260013","kana_pref":"ｲﾜﾃｹﾝ","kana_city":"ｶﾏｲｼｼ","kana_address":"ﾊﾏﾁｮｳ","pref":"岩手県","city":"釜石市","address":"浜町"},
{"zip_code":"0260014","kana_pref":"ｲﾜﾃｹﾝ","kana_city":"ｶﾏｲｼｼ","kana_address":"ﾋｶﾞｼﾏｴﾁｮｳ","pref":"岩手県","city":"釜石市","address":"東前町"},
{"zip_code":"0260001","kana_pref":"ｲﾜﾃｹﾝ","kana_city":"ｶﾏｲｼｼ","kana_address":"ﾍｲﾀ","pref":"岩手県","city":"釜石市","address":"平田"},
{"zip_code":"0260004","kana_pref":"ｲﾜﾃｹﾝ","kana_city":"ｶﾏｲｼｼ","kana_address":"ﾏﾂﾊﾞﾗﾁｮｳ","pref":"岩手県","city":"釜石市","address":"松原町"},
{"zip_code":"0260011","kana_pref":"ｲﾜﾃｹﾝ","kana_city":"ｶﾏｲｼｼ","kana_address":"ﾐﾅﾄﾏﾁ","pref":"岩手県","city":"釜石市","address":"港町"},
{"zip_code":"0260035","kana_pref":"ｲﾜﾃｹﾝ","kana_city":"ｶﾏｲｼｼ","kana_address":"ﾔｸﾞﾓﾁｮｳ","pref":"岩手県","city":"釜石市","address":"八雲町"},
{"zip_code":"0260304","kana_pref":"ｲﾜﾃｹﾝ","kana_city":"ｶﾏｲｼｼ","kana_address":"ﾘｮｳｲｼﾁｮｳ","pref":"岩手県","city":"釜石市","address":"両石町"},
{"zip_code":"0260051","kana_pref":"ｲﾜﾃｹﾝ","kana_city":"ｶﾏｲｼｼ","kana_address":"ﾚｲｶﾞｸﾞﾁﾁｮｳ","pref":"岩手県","city":"釜石市","address":"礼ケ口町"}]}