{"zip_code":[
{"zip_code":"0270000","kana_pref":"ｲﾜﾃｹﾝ","kana_city":"ﾐﾔｺｼ","kana_address":"","pref":"岩手県","city":"宮古市","address":""},
{"zip_code":"0270202","kana_pref":"ｲﾜﾃｹﾝ","kana_city":"ﾐﾔｺｼ","kana_address":"ｱｶﾏｴ","pref":"岩手県","city":"宮古市","address":"赤前"},
{"zip_code":"0270092","kana_pref":"ｲﾜﾃｹﾝ","kana_city":"ﾐﾔｺｼ","kana_address":"ｱﾀｺﾞ","pref":"岩手県","city":"宮古市","address":"愛宕"},
{"zip_code":"0270086","kana_pref":"ｲﾜﾃｹﾝ","kana_city":"ﾐﾔｺｼ","kana_address":"ｱﾗﾏﾁ","pref":"岩手県","city":"宮古市","address":"新町"},
{"zip_code":"0270062","kana_pref":"ｲﾜﾃｹﾝ","kana_city":"ﾐﾔｺｼ","kana_address":"ｲｽﾞﾐﾁｮｳ","pref":"岩手県","city":"宮古市","address":"泉町"},
{"zip_code":"0270048","kana_pref":"ｲﾜﾃｹﾝ","kana_city":"ﾐﾔｺｼ","kana_address":"ｲﾀﾔ","pref":"岩手県","city":"宮古市","address":"板屋"},
{"zip_code":"0270054","kana_pref":"ｲﾜﾃｹﾝ","kana_city":"ﾐﾔｺｼ","kana_address":"ｵｵﾀ","pref":"岩手県","city":"宮古市","address":"太田"},
{"zip_code":"0270083","kana_pref":"ｲﾜﾃｹﾝ","kana_city":"ﾐﾔｺｼ","kana_address":"ｵｵﾄﾞｵﾘ","pref":"岩手県","city":"宮古市","address":"大通"},
{"zip_code":"0270112","kana_pref":"ｲﾜﾃｹﾝ","kana_city":"ﾐﾔｺｼ","kana_address":"ｵﾄﾍﾞ","pref":"岩手県","city":"宮古市","address":"音部"},
{"zip_code":"0270111","kana_pref":"ｲﾜﾃｹﾝ","kana_city":"ﾐﾔｺｼ","kana_address":"ｵﾓｴ","pref":"岩手県","city":"宮古市","address":"重茂"},
{"zip_code":"0270033","kana_pref":"ｲﾜﾃｹﾝ","kana_city":"ﾐﾔｺｼ","kana_address":"ｶﾈﾊﾏ","pref":"岩手県","city":"宮古市","address":"金浜"},
{"zip_code":"0270039","kana_pref":"ｲﾜﾃｹﾝ","kana_city":"ﾐﾔｺｼ","kana_address":"ｶﾅﾝ","pref":"岩手県","city":"宮古市","address":"河南"},
{"zip_code":"0270078","kana_pref":"ｲﾜﾃｹﾝ","kana_city":"ﾐﾔｺｼ","kana_address":"ｶﾓｻﾞｷﾁｮｳ","pref":"岩手県","city":"宮古市","address":"鴨崎町"},
{"zip_code":"0270042","kana_pref":"ｲﾜﾃｹﾝ","kana_city":"ﾐﾔｺｼ","kana_address":"ｶﾝﾀﾞｻﾞﾜﾁｮｳ","pref":"岩手県","city":"宮古市","address":"神田沢町"},
{"zip_code":"0270044","kana_pref":"ｲﾜﾃｹﾝ","kana_city":"ﾐﾔｺｼ","kana_address":"ｶﾝﾊﾟﾅ","pref":"岩手県","city":"宮古市","address":"上鼻"},
{"zip_code":"0270028","kana_pref":"ｲﾜﾃｹﾝ","kana_city":"ﾐﾔｺｼ","kana_address":"ｶﾝﾊﾞﾔｼ","pref":"岩手県","city":"宮古市","address":"神林"},
{"zip_code":"0270008","kana_pref":"ｲﾜﾃｹﾝ","kana_city":"ﾐﾔｺｼ","kana_address":"ｸﾏﾉﾁｮｳ","pref":"岩手県","city":"宮古市","address":"熊野町"},
{"zip_code":"0270085","kana_pref":"ｲﾜﾃｹﾝ","kana_city":"ﾐﾔｺｼ","kana_address":"ｸﾛﾀﾏﾁ","pref":"岩手県","city":"宮古市","address":"黒田町"},
{"zip_code":"0270065","kana_pref":"ｲﾜﾃｹﾝ","kana_city":"ﾐﾔｺｼ","kana_address":"ｸﾛﾓﾘﾁｮｳ","pref":"岩手県","city":"宮古市","address":"黒森町"},
{"zip_code":"0270006","kana_pref":"ｲﾜﾃｹﾝ","kana_city":"ﾐﾔｺｼ","kana_address":"ｸﾜｶﾞｻｷ","pref":"岩手県","city":"宮古市","address":"鍬ケ崎"},
{"zip_code":"0270046","kana_pref":"ｲﾜﾃｹﾝ","kana_city":"ﾐﾔｺｼ","kana_address":"ｹﾊﾞﾗｲﾁ","pref":"岩手県","city":"宮古市","address":"花原市"},
{"zip_code":"0270005","kana_pref":"ｲﾜﾃｹﾝ","kana_city":"ﾐﾔｺｼ","kana_address":"ｺｳｶﾞﾝｼﾞ","pref":"岩手県","city":"宮古市","address":"光岸地"},
{"zip_code":"0270071","kana_pref":"ｲﾜﾃｹﾝ","kana_city":"ﾐﾔｺｼ","kana_address":"ｺｻﾞﾜ","pref":"岩手県","city":"宮古市","address":"小沢"},
{"zip_code":"0270038","kana_pref":"ｲﾜﾃｹﾝ","kana_city":"ﾐﾔｺｼ","kana_address":"ｺﾔﾏﾀﾞ","pref":"岩手県","city":"宮古市","address":"小山田"},
{"zip_code":"0270076","kana_pref":"ｲﾜﾃｹﾝ","kana_city":"ﾐﾔｺｼ","kana_address":"ｻｶｴﾁｮｳ","pref":"岩手県","city":"宮古市","address":"栄町"},
{"zip_code":"0270096","kana_pref":"ｲﾜﾃｹﾝ","kana_city":"ﾐﾔｺｼ","kana_address":"ｻｷｸﾜｶﾞｻｷ","pref":"岩手県","city":"宮古市","address":"崎鍬ケ崎"},
{"zip_code":"0270097","kana_pref":"ｲﾜﾃｹﾝ","kana_city":"ﾐﾔｺｼ","kana_address":"ｻｷﾔﾏ","pref":"岩手県","city":"宮古市","address":"崎山"},
{"zip_code":"0270072","kana_pref":"ｲﾜﾃｹﾝ","kana_city":"ﾐﾔｺｼ","kana_address":"ｻﾂｷﾁｮｳ","pref":"岩手県","city":"宮古市","address":"五月町"},
{"zip_code":"0270095","kana_pref":"ｲﾜﾃｹﾝ","kana_city":"ﾐﾔｺｼ","kana_address":"ｻﾊﾞﾗ","pref":"岩手県","city":"宮古市","address":"佐原"},
{"zip_code":"0270088","kana_pref":"ｲﾜﾃｹﾝ","kana_city":"ﾐﾔｺｼ","kana_address":"ｻﾜﾀﾞ","pref":"岩手県","city":"宮古市","address":"沢田"},
{"zip_code":"0270201","kana_pref":"ｲﾜﾃｹﾝ","kana_city":"ﾐﾔｺｼ","kana_address":"ｼﾗﾊﾏ","pref":"岩手県","city":"宮古市","address":"白浜"},
{"zip_code":"0270081","kana_pref":"ｲﾜﾃｹﾝ","kana_city":"ﾐﾔｺｼ","kana_address":"ｼﾝｶﾜﾁｮｳ","pref":"岩手県","city":"宮古市","address":"新川町"},
{"zip_code":"0270084","kana_pref":"ｲﾜﾃｹﾝ","kana_city":"ﾐﾔｺｼ","kana_address":"ｽｴﾋﾛﾁｮｳ","pref":"岩手県","city":"宮古市","address":"末広町"},
{"zip_code":"0270058","kana_pref":"ｲﾜﾃｹﾝ","kana_city":"ﾐﾔｺｼ","kana_address":"ｾﾝﾄｸ","pref":"岩手県","city":"宮古市","address":"千徳"},
{"zip_code":"0270043","kana_pref":"ｲﾜﾃｹﾝ","kana_city":"ﾐﾔｺｼ","kana_address":"ｾﾝﾄｸﾏﾁ","pref":"岩手県","city":"宮古市","address":"千徳町"},
{"zip_code":"0270024","kana_pref":"ｲﾜﾃｹﾝ","kana_city":"ﾐﾔｺｼ","kana_address":"ｿｹｲ","pref":"岩手県","city":"宮古市","address":"磯鶏"},
{"zip_code":"0270022","kana_pref":"ｲﾜﾃｹﾝ","kana_city":"ﾐﾔｺｼ","kana_address":"ｿｹｲｲｼｻﾞｷ","pref":"岩手県","city":"宮古市","address":"磯鶏石崎"},
{"zip_code":"0270023","kana_pref":"ｲﾜﾃｹﾝ","kana_city":"ﾐﾔｺｼ","kana_address":"ｿｹｲｵｷ","pref":"岩手県","city":"宮古市","address":"磯鶏沖"},
{"zip_code":"0270027","kana_pref":"ｲﾜﾃｹﾝ","kana_city":"ﾐﾔｺｼ","kana_address":"ｿｹｲﾆｼ","pref":"岩手県","city":"宮古市","address":"磯鶏西"},
{"zip_code":"0270032","kana_pref":"ｲﾜﾃｹﾝ","kana_city":"ﾐﾔｺｼ","kana_address":"ﾀｶﾊﾏ","pref":"岩手県","city":"宮古市","address":"高浜"},
{"zip_code":"0270036","kana_pref":"ｲﾜﾃｹﾝ","kana_city":"ﾐﾔｺｼ","kana_address":"ﾀｸｻﾘ","pref":"岩手県","city":"宮古市","address":"田鎖"},
{"zip_code":"0270009","kana_pref":"ｲﾜﾃｹﾝ","kana_city":"ﾐﾔｺｼ","kana_address":"ﾀｺﾉﾊﾏﾁｮｳ","pref":"岩手県","city":"宮古市","address":"蛸の浜町"},
{"zip_code":"0270067","kana_pref":"ｲﾜﾃｹﾝ","kana_city":"ﾐﾔｺｼ","kana_address":"ﾀｼﾛ","pref":"岩手県","city":"宮古市","address":"田代"},
{"zip_code":"0270077","kana_pref":"ｲﾜﾃｹﾝ","kana_city":"ﾐﾔｺｼ","kana_address":"ﾀﾃｱｲﾁｮｳ","pref":"岩手県","city":"宮古市","address":"舘合町"},
{"zip_code":"0270066","kana_pref":"ｲﾜﾃｹﾝ","kana_city":"ﾐﾔｺｼ","kana_address":"ﾀﾉｶﾐ","pref":"岩手県","city":"宮古市","address":"田の神"},
{"zip_code":"0270359","kana_pref":"ｲﾜﾃｹﾝ","kana_city":"ﾐﾔｺｼ","kana_address":"ﾀﾛｳｱｵｸﾗ","pref":"岩手県","city":"宮古市","address":"田老青倉"},
{"zip_code":"0270322","kana_pref":"ｲﾜﾃｹﾝ","kana_city":"ﾐﾔｺｼ","kana_address":"ﾀﾛｳｱｵｻﾞﾘ","pref":"岩手県","city":"宮古市","address":"田老青砂里"},
{"zip_code":"0270375","kana_pref":"ｲﾜﾃｹﾝ","kana_city":"ﾐﾔｺｼ","kana_address":"ﾀﾛｳｱｵﾉﾀｷ","pref":"岩手県","city":"宮古市","address":"田老青野滝"},
{"zip_code":"0270374","kana_pref":"ｲﾜﾃｹﾝ","kana_city":"ﾐﾔｺｼ","kana_address":"ﾀﾛｳｱｵﾉﾀｷｷﾀ","pref":"岩手県","city":"宮古市","address":"田老青野滝北"},
{"zip_code":"0270376","kana_pref":"ｲﾜﾃｹﾝ","kana_city":"ﾐﾔｺｼ","kana_address":"ﾀﾛｳｱｵﾉﾀｷﾐﾅﾐ","pref":"岩手県","city":"宮古市","address":"田老青野滝南"},
{"zip_code":"0270305","kana_pref":"ｲﾜﾃｹﾝ","kana_city":"ﾐﾔｺｼ","kana_address":"ﾀﾛｳｱﾘﾔ","pref":"岩手県","city":"宮古市","address":"田老荒谷"},
{"zip_code":"0270321","kana_pref":"ｲﾜﾃｹﾝ","kana_city":"ﾐﾔｺｼ","kana_address":"ﾀﾛｳｵﾄﾍﾞ","pref":"岩手県","city":"宮古市","address":"田老乙部"},
{"zip_code":"0270379","kana_pref":"ｲﾜﾃｹﾝ","kana_city":"ﾐﾔｺｼ","kana_address":"ﾀﾛｳｵﾄﾍﾞﾉ","pref":"岩手県","city":"宮古市","address":"田老乙部野"},
{"zip_code":"0270378","kana_pref":"ｲﾜﾃｹﾝ","kana_city":"ﾐﾔｺｼ","kana_address":"ﾀﾛｳｵﾓﾂﾍﾞ","pref":"岩手県","city":"宮古市","address":"田老重津部"},
{"zip_code":"0270377","kana_pref":"ｲﾜﾃｹﾝ","kana_city":"ﾐﾔｺｼ","kana_address":"ﾀﾛｳｵﾓﾂﾍﾞｷﾀ","pref":"岩手県","city":"宮古市","address":"田老重津部北"},
{"zip_code":"0270332","kana_pref":"ｲﾜﾃｹﾝ","kana_city":"ﾐﾔｺｼ","kana_address":"ﾀﾛｳｶｼﾅｲ","pref":"岩手県","city":"宮古市","address":"田老樫内"},
{"zip_code":"0270382","kana_pref":"ｲﾜﾃｹﾝ","kana_city":"ﾐﾔｺｼ","kana_address":"ﾀﾛｳｶﾀﾏｷ","pref":"岩手県","city":"宮古市","address":"田老片巻"},
{"zip_code":"0270388","kana_pref":"ｲﾜﾃｹﾝ","kana_city":"ﾐﾔｺｼ","kana_address":"ﾀﾛｳｶﾐｵｷ","pref":"岩手県","city":"宮古市","address":"田老上沖"},
{"zip_code":"0270343","kana_pref":"ｲﾜﾃｹﾝ","kana_city":"ﾐﾔｺｼ","kana_address":"ﾀﾛｳｶﾐｺﾀﾞｼﾛ","pref":"岩手県","city":"宮古市","address":"田老上小田代"},
{"zip_code":"0270383","kana_pref":"ｲﾜﾃｹﾝ","kana_city":"ﾐﾔｺｼ","kana_address":"ﾀﾛｳｶﾐｾｯﾀｲ","pref":"岩手県","city":"宮古市","address":"田老上摂待"},
{"zip_code":"0270306","kana_pref":"ｲﾜﾃｹﾝ","kana_city":"ﾐﾔｺｼ","kana_address":"ﾀﾛｳｶﾜﾑｶｲ","pref":"岩手県","city":"宮古市","address":"田老川向"},
{"zip_code":"0270386","kana_pref":"ｲﾜﾃｹﾝ","kana_city":"ﾐﾔｺｼ","kana_address":"ﾀﾛｳｸﾙﾐﾊﾀ","pref":"岩手県","city":"宮古市","address":"田老胡桃畑"},
{"zip_code":"0270304","kana_pref":"ｲﾜﾃｹﾝ","kana_city":"ﾐﾔｺｼ","kana_address":"ﾀﾛｳｹﾗｽ","pref":"岩手県","city":"宮古市","address":"田老ケラス"},
{"zip_code":"0270312","kana_pref":"ｲﾜﾃｹﾝ","kana_city":"ﾐﾔｺｼ","kana_address":"ﾀﾛｳｺｼﾀﾞ","pref":"岩手県","city":"宮古市","address":"田老越田"},
{"zip_code":"0270342","kana_pref":"ｲﾜﾃｹﾝ","kana_city":"ﾐﾔｺｼ","kana_address":"ﾀﾛｳｺﾀﾞｼﾛ","pref":"岩手県","city":"宮古市","address":"田老小田代"},
{"zip_code":"0270351","kana_pref":"ｲﾜﾃｹﾝ","kana_city":"ﾐﾔｺｼ","kana_address":"ﾀﾛｳｺﾊﾞﾔｼ","pref":"岩手県","city":"宮古市","address":"田老小林"},
{"zip_code":"0270361","kana_pref":"ｲﾜﾃｹﾝ","kana_city":"ﾐﾔｺｼ","kana_address":"ﾀﾛｳｺﾎﾞﾘﾅｲ","pref":"岩手県","city":"宮古市","address":"田老小堀内"},
{"zip_code":"0270362","kana_pref":"ｲﾜﾃｹﾝ","kana_city":"ﾐﾔｺｼ","kana_address":"ﾀﾛｳｺﾎﾞﾘﾅｲﾐﾅﾐ","pref":"岩手県","city":"宮古市","address":"田老小堀内南"},
{"zip_code":"0270347","kana_pref":"ｲﾜﾃｹﾝ","kana_city":"ﾐﾔｺｼ","kana_address":"ﾀﾛｳｻｻﾐﾀｲﾗ","pref":"岩手県","city":"宮古市","address":"田老笹見平"},
{"zip_code":"0270345","kana_pref":"ｲﾜﾃｹﾝ","kana_city":"ﾐﾔｺｼ","kana_address":"ﾀﾛｳｼﾉｸﾗ","pref":"岩手県","city":"宮古市","address":"田老篠倉"},
{"zip_code":"0270385","kana_pref":"ｲﾜﾃｹﾝ","kana_city":"ﾐﾔｺｼ","kana_address":"ﾀﾛｳｼﾓｾｯﾀｲ","pref":"岩手県","city":"宮古市","address":"田老下摂待"},
{"zip_code":"0270313","kana_pref":"ｲﾜﾃｹﾝ","kana_city":"ﾐﾔｺｼ","kana_address":"ﾀﾛｳｼｭﾝﾀﾞﾂ","pref":"岩手県","city":"宮古市","address":"田老駿達"},
{"zip_code":"0270364","kana_pref":"ｲﾜﾃｹﾝ","kana_city":"ﾐﾔｺｼ","kana_address":"ﾀﾛｳｼﾝﾃﾞﾝ","pref":"岩手県","city":"宮古市","address":"田老新田"},
{"zip_code":"0270355","kana_pref":"ｲﾜﾃｹﾝ","kana_city":"ﾐﾔｺｼ","kana_address":"ﾀﾛｳｽｴﾏｴ","pref":"岩手県","city":"宮古市","address":"田老末前"},
{"zip_code":"0270367","kana_pref":"ｲﾜﾃｹﾝ","kana_city":"ﾐﾔｺｼ","kana_address":"ﾀﾛｳｽｽﾞｺｻﾜ","pref":"岩手県","city":"宮古市","address":"田老鈴子沢"},
{"zip_code":"0270384","kana_pref":"ｲﾜﾃｹﾝ","kana_city":"ﾐﾔｺｼ","kana_address":"ﾀﾛｳｾｯﾀｲ","pref":"岩手県","city":"宮古市","address":"田老摂待"},
{"zip_code":"0270365","kana_pref":"ｲﾜﾃｹﾝ","kana_city":"ﾐﾔｺｼ","kana_address":"ﾀﾛｳﾀｷﾉｻﾜ","pref":"岩手県","city":"宮古市","address":"田老滝の沢"},
{"zip_code":"0270344","kana_pref":"ｲﾜﾃｹﾝ","kana_city":"ﾐﾔｺｼ","kana_address":"ﾀﾛｳﾀﾂﾉｸﾁ","pref":"岩手県","city":"宮古市","address":"田老辰の口"},
{"zip_code":"0270301","kana_pref":"ｲﾜﾃｹﾝ","kana_city":"ﾐﾔｺｼ","kana_address":"ﾀﾛｳﾀﾃｶﾞﾓﾘ","pref":"岩手県","city":"宮古市","address":"田老館が森"},
{"zip_code":"0270358","kana_pref":"ｲﾜﾃｹﾝ","kana_city":"ﾐﾔｺｼ","kana_address":"ﾀﾛｳﾀﾃｺｼ","pref":"岩手県","city":"宮古市","address":"田老立腰"},
{"zip_code":"0270302","kana_pref":"ｲﾜﾃｹﾝ","kana_city":"ﾐﾔｺｼ","kana_address":"ﾀﾛｳﾀﾅｶ","pref":"岩手県","city":"宮古市","address":"田老田中"},
{"zip_code":"0270303","kana_pref":"ｲﾜﾃｹﾝ","kana_city":"ﾐﾔｺｼ","kana_address":"ﾀﾛｳﾀﾉｻﾜ","pref":"岩手県","city":"宮古市","address":"田老田の沢"},
{"zip_code":"0270363","kana_pref":"ｲﾜﾃｹﾝ","kana_city":"ﾐﾔｺｼ","kana_address":"ﾀﾛｳﾅｶﾞﾊﾞﾀｹ","pref":"岩手県","city":"宮古市","address":"田老長畑"},
{"zip_code":"0270346","kana_pref":"ｲﾜﾃｹﾝ","kana_city":"ﾐﾔｺｼ","kana_address":"ﾀﾛｳﾅﾅﾀｷ","pref":"岩手県","city":"宮古市","address":"田老七滝"},
{"zip_code":"0270331","kana_pref":"ｲﾜﾃｹﾝ","kana_city":"ﾐﾔｺｼ","kana_address":"ﾀﾛｳﾆｼﾑｶｲﾔﾏ","pref":"岩手県","city":"宮古市","address":"田老西向山"},
{"zip_code":"0270366","kana_pref":"ｲﾜﾃｹﾝ","kana_city":"ﾐﾔｺｼ","kana_address":"ﾀﾛｳﾆｯﾀﾀﾞｲﾗ","pref":"岩手県","city":"宮古市","address":"田老新田平"},
{"zip_code":"0270323","kana_pref":"ｲﾜﾃｹﾝ","kana_city":"ﾐﾔｺｼ","kana_address":"ﾀﾛｳﾉﾊﾗ","pref":"岩手県","city":"宮古市","address":"田老野原"},
{"zip_code":"0270387","kana_pref":"ｲﾜﾃｹﾝ","kana_city":"ﾐﾔｺｼ","kana_address":"ﾀﾛｳﾊﾀ","pref":"岩手県","city":"宮古市","address":"田老畑"},
{"zip_code":"0270333","kana_pref":"ｲﾜﾃｹﾝ","kana_city":"ﾐﾔｺｼ","kana_address":"ﾀﾛｳﾌﾙﾀ","pref":"岩手県","city":"宮古市","address":"田老古田"},
{"zip_code":"0270381","kana_pref":"ｲﾜﾃｹﾝ","kana_city":"ﾐﾔｺｼ","kana_address":"ﾀﾛｳﾎｼﾔﾏ","pref":"岩手県","city":"宮古市","address":"田老星山"},
{"zip_code":"0270371","kana_pref":"ｲﾜﾃｹﾝ","kana_city":"ﾐﾔｺｼ","kana_address":"ﾀﾛｳﾐｽﾞｻﾜ","pref":"岩手県","city":"宮古市","address":"田老水沢"},
{"zip_code":"0270372","kana_pref":"ｲﾜﾃｹﾝ","kana_city":"ﾐﾔｺｼ","kana_address":"ﾀﾛｳﾐｽﾞｻﾜﾐﾅﾐ","pref":"岩手県","city":"宮古市","address":"田老水沢南"},
{"zip_code":"0270357","kana_pref":"ｲﾜﾃｹﾝ","kana_city":"ﾐﾔｺｼ","kana_address":"ﾀﾛｳﾑｶｲｸﾜﾊﾀ","pref":"岩手県","city":"宮古市","address":"田老向桑畑"},
{"zip_code":"0270373","kana_pref":"ｲﾜﾃｹﾝ","kana_city":"ﾐﾔｺｼ","kana_address":"ﾀﾛｳﾑｶｲｼﾝﾃﾞﾝ","pref":"岩手県","city":"宮古市","address":"田老向新田"},
{"zip_code":"0270324","kana_pref":"ｲﾜﾃｹﾝ","kana_city":"ﾐﾔｺｼ","kana_address":"ﾀﾛｳﾑｶｲﾔﾏ","pref":"岩手県","city":"宮古市","address":"田老向山"},
{"zip_code":"0270354","kana_pref":"ｲﾜﾃｹﾝ","kana_city":"ﾐﾔｺｼ","kana_address":"ﾀﾛｳﾓﾘｻｷ","pref":"岩手県","city":"宮古市","address":"田老森崎"},
{"zip_code":"0270352","kana_pref":"ｲﾜﾃｹﾝ","kana_city":"ﾐﾔｺｼ","kana_address":"ﾀﾛｳﾔﾊﾀｽｲｼﾞﾝ","pref":"岩手県","city":"宮古市","address":"田老八幡水神"},
{"zip_code":"0270341","kana_pref":"ｲﾜﾃｹﾝ","kana_city":"ﾐﾔｺｼ","kana_address":"ﾀﾛｳﾖｳﾛﾁ","pref":"岩手県","city":"宮古市","address":"田老養呂地"},
{"zip_code":"0270311","kana_pref":"ｲﾜﾃｹﾝ","kana_city":"ﾐﾔｺｼ","kana_address":"ﾀﾛｳﾜﾉ","pref":"岩手県","city":"宮古市","address":"田老和野"},
{"zip_code":"0270353","kana_pref":"ｲﾜﾃｹﾝ","kana_city":"ﾐﾔｺｼ","kana_address":"ﾀﾛｳﾜﾏｷ","pref":"岩手県","city":"宮古市","address":"田老和蒔"},
{"zip_code":"0270356","kana_pref":"ｲﾜﾃｹﾝ","kana_city":"ﾐﾔｺｼ","kana_address":"ﾀﾛｳﾜﾔﾏ","pref":"岩手県","city":"宮古市","address":"田老和山"},
{"zip_code":"0270056","kana_pref":"ｲﾜﾃｹﾝ","kana_city":"ﾐﾔｺｼ","kana_address":"ﾁｶﾅｲ","pref":"岩手県","city":"宮古市","address":"近内"},
{"zip_code":"0270203","kana_pref":"ｲﾜﾃｹﾝ","kana_city":"ﾐﾔｺｼ","kana_address":"ﾂｶﾞﾙｲｼ","pref":"岩手県","city":"宮古市","address":"津軽石"},
{"zip_code":"0270091","kana_pref":"ｲﾜﾃｹﾝ","kana_city":"ﾐﾔｺｼ","kana_address":"ﾂｷｼﾞ","pref":"岩手県","city":"宮古市","address":"築地"},
{"zip_code":"0270093","kana_pref":"ｲﾜﾃｹﾝ","kana_city":"ﾐﾔｺｼ","kana_address":"ﾅｶｻﾄﾀﾞﾝﾁ","pref":"岩手県","city":"宮古市","address":"中里団地"},
{"zip_code":"0270034","kana_pref":"ｲﾜﾃｹﾝ","kana_city":"ﾐﾔｺｼ","kana_address":"ﾅｶﾞｻﾜ","pref":"岩手県","city":"宮古市","address":"長沢"},
{"zip_code":"0270055","kana_pref":"ｲﾜﾃｹﾝ","kana_city":"ﾐﾔｺｼ","kana_address":"ﾅｶﾞﾈ","pref":"岩手県","city":"宮古市","address":"長根"},
{"zip_code":"0270053","kana_pref":"ｲﾜﾃｹﾝ","kana_city":"ﾐﾔｺｼ","kana_address":"ﾅｶﾞﾏﾁ","pref":"岩手県","city":"宮古市","address":"長町"},
{"zip_code":"0270041","kana_pref":"ｲﾜﾃｹﾝ","kana_city":"ﾐﾔｺｼ","kana_address":"ﾆｼｶﾞｵｶ","pref":"岩手県","city":"宮古市","address":"西ケ丘"},
{"zip_code":"0270061","kana_pref":"ｲﾜﾃｹﾝ","kana_city":"ﾐﾔｺｼ","kana_address":"ﾆｼﾏﾁ","pref":"岩手県","city":"宮古市","address":"西町"},
{"zip_code":"0270047","kana_pref":"ｲﾜﾃｹﾝ","kana_city":"ﾐﾔｺｼ","kana_address":"ﾈｲﾁ","pref":"岩手県","city":"宮古市","address":"根市"},
{"zip_code":"0270035","kana_pref":"ｲﾜﾃｹﾝ","kana_city":"ﾐﾔｺｼ","kana_address":"ﾊﾅﾜ","pref":"岩手県","city":"宮古市","address":"花輪"},
{"zip_code":"0270007","kana_pref":"ｲﾜﾃｹﾝ","kana_city":"ﾐﾔｺｼ","kana_address":"ﾋｶｹﾞﾁｮｳ","pref":"岩手県","city":"宮古市","address":"日影町"},
{"zip_code":"0270001","kana_pref":"ｲﾜﾃｹﾝ","kana_city":"ﾐﾔｺｼ","kana_address":"ﾋﾀﾁﾊﾏﾁｮｳ","pref":"岩手県","city":"宮古市","address":"日立浜町"},
{"zip_code":"0270094","kana_pref":"ｲﾜﾃｹﾝ","kana_city":"ﾐﾔｺｼ","kana_address":"ﾋﾉﾃﾞﾁｮｳ","pref":"岩手県","city":"宮古市","address":"日の出町"},
{"zip_code":"0270029","kana_pref":"ｲﾜﾃｹﾝ","kana_city":"ﾐﾔｺｼ","kana_address":"ﾌｼﾞﾉｶﾜ","pref":"岩手県","city":"宮古市","address":"藤の川"},
{"zip_code":"0270021","kana_pref":"ｲﾜﾃｹﾝ","kana_city":"ﾐﾔｺｼ","kana_address":"ﾌｼﾞﾜﾗ","pref":"岩手県","city":"宮古市","address":"藤原"},
{"zip_code":"0270021","kana_pref":"ｲﾜﾃｹﾝ","kana_city":"ﾐﾔｺｼ","kana_address":"ﾌｼﾞﾜﾗｶﾐﾏﾁ","pref":"岩手県","city":"宮古市","address":"藤原上町"},
{"zip_code":"0270074","kana_pref":"ｲﾜﾃｹﾝ","kana_city":"ﾐﾔｺｼ","kana_address":"ﾎｸﾀﾞ","pref":"岩手県","city":"宮古市","address":"保久田"},
{"zip_code":"0270037","kana_pref":"ｲﾜﾃｹﾝ","kana_city":"ﾐﾔｺｼ","kana_address":"ﾏﾂﾔﾏ","pref":"岩手県","city":"宮古市","address":"松山"},
{"zip_code":"0270025","kana_pref":"ｲﾜﾃｹﾝ","kana_city":"ﾐﾔｺｼ","kana_address":"ﾐﾀ","pref":"岩手県","city":"宮古市","address":"実田"},
{"zip_code":"0270073","kana_pref":"ｲﾜﾃｹﾝ","kana_city":"ﾐﾔｺｼ","kana_address":"ﾐﾄﾞﾘｶﾞｵｶ","pref":"岩手県","city":"宮古市","address":"緑ケ丘"},
{"zip_code":"0270003","kana_pref":"ｲﾜﾃｹﾝ","kana_city":"ﾐﾔｺｼ","kana_address":"ﾐﾅﾄﾏﾁ","pref":"岩手県","city":"宮古市","address":"港町"},
{"zip_code":"0270051","kana_pref":"ｲﾜﾃｹﾝ","kana_city":"ﾐﾔｺｼ","kana_address":"ﾐﾅﾐﾏﾁ","pref":"岩手県","city":"宮古市","address":"南町"},
{"zip_code":"0270064","kana_pref":"ｲﾜﾃｹﾝ","kana_city":"ﾐﾔｺｼ","kana_address":"ﾐﾔｿﾞﾉ","pref":"岩手県","city":"宮古市","address":"宮園"},
{"zip_code":"0270052","kana_pref":"ｲﾜﾃｹﾝ","kana_city":"ﾐﾔｺｼ","kana_address":"ﾐﾔﾏﾁ","pref":"岩手県","city":"宮古市","address":"宮町"},
{"zip_code":"0270082","kana_pref":"ｲﾜﾃｹﾝ","kana_city":"ﾐﾔｺｼ","kana_address":"ﾑｶｲﾏﾁ","pref":"岩手県","city":"宮古市","address":"向町"},
{"zip_code":"0270089","kana_pref":"ｲﾜﾃｹﾝ","kana_city":"ﾐﾔｺｼ","kana_address":"ﾓﾄﾏﾁ","pref":"岩手県","city":"宮古市","address":"本町"},
{"zip_code":"0270031","kana_pref":"ｲﾜﾃｹﾝ","kana_city":"ﾐﾔｺｼ","kana_address":"ﾔｷﾞｻﾜ","pref":"岩手県","city":"宮古市","address":"八木沢"},
{"zip_code":"0270063","kana_pref":"ｲﾜﾃｹﾝ","kana_city":"ﾐﾔｺｼ","kana_address":"ﾔﾏｸﾞﾁ","pref":"岩手県","city":"宮古市","address":"山口"},
{"zip_code":"0270002","kana_pref":"ｲﾜﾃｹﾝ","kana_city":"ﾐﾔｺｼ","kana_address":"ﾔﾏﾈﾁｮｳ","pref":"岩手県","city":"宮古市","address":"山根町"},
{"zip_code":"0270087","kana_pref":"ｲﾜﾃｹﾝ","kana_city":"ﾐﾔｺｼ","kana_address":"ﾖｺﾏﾁ","pref":"岩手県","city":"宮古市","address":"横町"},
{"zip_code":"0270004","kana_pref":"ｲﾜﾃｹﾝ","kana_city":"ﾐﾔｺｼ","kana_address":"ﾘﾝｺｳﾄﾞｵﾘ","pref":"岩手県","city":"宮古市","address":"臨港通"},
{"zip_code":"0270045","kana_pref":"ｲﾜﾃｹﾝ","kana_city":"ﾐﾔｺｼ","kana_address":"ﾛｳｷ","pref":"岩手県","city":"宮古市","address":"老木"},
{"zip_code":"0270075","kana_pref":"ｲﾜﾃｹﾝ","kana_city":"ﾐﾔｺｼ","kana_address":"ﾜﾐﾏﾁ","pref":"岩手県","city":"宮古市","address":"和見町"},
{"zip_code":"0270026","kana_pref":"ｲﾜﾃｹﾝ","kana_city":"ﾐﾔｺｼ","kana_address":"ﾜﾑﾗ","pref":"岩手県","city":"宮古市","address":"上村"},
{"zip_code":"0270500","kana_pref":"ｲﾜﾃｹﾝ","kana_city":"ｼﾓﾍｲｸﾞﾝｲﾜｲｽﾞﾐﾁｮｳ","kana_address":"","pref":"岩手県","city":"下閉伊郡岩泉町","address":""},
{"zip_code":"0270611","kana_pref":"ｲﾜﾃｹﾝ","kana_city":"ｼﾓﾍｲｸﾞﾝｲﾜｲｽﾞﾐﾁｮｳ","kana_address":"ｱｯｶ","pref":"岩手県","city":"下閉伊郡岩泉町","address":"安家"},
{"zip_code":"0270508","kana_pref":"ｲﾜﾃｹﾝ","kana_city":"ｼﾓﾍｲｸﾞﾝｲﾜｲｽﾞﾐﾁｮｳ","kana_address":"ｱﾏﾋﾀｲ","pref":"岩手県","city":"下閉伊郡岩泉町","address":"尼額"},
{"zip_code":"0270501","kana_pref":"ｲﾜﾃｹﾝ","kana_city":"ｼﾓﾍｲｸﾞﾝｲﾜｲｽﾞﾐﾁｮｳ","kana_address":"ｲﾜｲｽﾞﾐ","pref":"岩手県","city":"下閉伊郡岩泉町","address":"岩泉"},
{"zip_code":"0270502","kana_pref":"ｲﾜﾃｹﾝ","kana_city":"ｼﾓﾍｲｸﾞﾝｲﾜｲｽﾞﾐﾁｮｳ","kana_address":"ｵﾄﾓ","pref":"岩手県","city":"下閉伊郡岩泉町","address":"乙茂"},
{"zip_code":"0270421","kana_pref":"ｲﾜﾃｹﾝ","kana_city":"ｼﾓﾍｲｸﾞﾝｲﾜｲｽﾞﾐﾁｮｳ","kana_address":"ｵﾓﾄ","pref":"岩手県","city":"下閉伊郡岩泉町","address":"小本"},
{"zip_code":"0270505","kana_pref":"ｲﾜﾃｹﾝ","kana_city":"ｼﾓﾍｲｸﾞﾝｲﾜｲｽﾞﾐﾁｮｳ","kana_address":"ｶﾐｳｹﾞｲ","pref":"岩手県","city":"下閉伊郡岩泉町","address":"上有芸"},
{"zip_code":"0270503","kana_pref":"ｲﾜﾃｹﾝ","kana_city":"ｼﾓﾍｲｸﾞﾝｲﾜｲｽﾞﾐﾁｮｳ","kana_address":"ｻﾙｻﾜ","pref":"岩手県","city":"下閉伊郡岩泉町","address":"猿沢"},
{"zip_code":"0270504","kana_pref":"ｲﾜﾃｹﾝ","kana_city":"ｼﾓﾍｲｸﾞﾝｲﾜｲｽﾞﾐﾁｮｳ","kana_address":"ｼﾓｳｹﾞｲ","pref":"岩手県","city":"下閉伊郡岩泉町","address":"下有芸"},
{"zip_code":"0270506","kana_pref":"ｲﾜﾃｹﾝ","kana_city":"ｼﾓﾍｲｸﾞﾝｲﾜｲｽﾞﾐﾁｮｳ","kana_address":"ｿｲﾘ","pref":"岩手県","city":"下閉伊郡岩泉町","address":"鼠入"},
{"zip_code":"0270423","kana_pref":"ｲﾜﾃｹﾝ","kana_city":"ｼﾓﾍｲｸﾞﾝｲﾜｲｽﾞﾐﾁｮｳ","kana_address":"ﾅｶｻﾄ","pref":"岩手県","city":"下閉伊郡岩泉町","address":"中里"},
{"zip_code":"0270422","kana_pref":"ｲﾜﾃｹﾝ","kana_city":"ｼﾓﾍｲｸﾞﾝｲﾜｲｽﾞﾐﾁｮｳ","kana_address":"ﾅｶｼﾏ","pref":"岩手県","city":"下閉伊郡岩泉町","address":"中島"},
{"zip_code":"0270507","kana_pref":"ｲﾜﾃｹﾝ","kana_city":"ｼﾓﾍｲｸﾞﾝｲﾜｲｽﾞﾐﾁｮｳ","kana_address":"ﾆｼｮｳｲｼ","pref":"岩手県","city":"下閉伊郡岩泉町","address":"二升石"},
{"zip_code":"0270424","kana_pref":"ｲﾜﾃｹﾝ","kana_city":"ｼﾓﾍｲｸﾞﾝｲﾜｲｽﾞﾐﾁｮｳ","kana_address":"ﾎﾛﾉ","pref":"岩手県","city":"下閉伊郡岩泉町","address":"袰野"}]}