{"zip_code":[
{"zip_code":"0284131","kana_pref":"ｲﾜﾃｹﾝ","kana_city":"ﾓﾘｵｶｼ","kana_address":"ﾀﾏﾔﾏｸｲﾓﾀﾞ","pref":"岩手県","city":"盛岡市","address":"玉山区芋田"},
{"zip_code":"0284135","kana_pref":"ｲﾜﾃｹﾝ","kana_city":"ﾓﾘｵｶｼ","kana_address":"ﾀﾏﾔﾏｸｶﾜｻｷ","pref":"岩手県","city":"盛岡市","address":"玉山区川崎"},
{"zip_code":"0284125","kana_pref":"ｲﾜﾃｹﾝ","kana_city":"ﾓﾘｵｶｼ","kana_address":"ﾀﾏﾔﾏｸｺｳﾏ","pref":"岩手県","city":"盛岡市","address":"玉山区好摩"},
{"zip_code":"0284132","kana_pref":"ｲﾜﾃｹﾝ","kana_city":"ﾓﾘｵｶｼ","kana_address":"ﾀﾏﾔﾏｸｼﾌﾞﾀﾐ","pref":"岩手県","city":"盛岡市","address":"玉山区渋民"},
{"zip_code":"0284134","kana_pref":"ｲﾜﾃｹﾝ","kana_city":"ﾓﾘｵｶｼ","kana_address":"ﾀﾏﾔﾏｸｼﾓﾀﾞ","pref":"岩手県","city":"盛岡市","address":"玉山区下田"},
{"zip_code":"0284122","kana_pref":"ｲﾜﾃｹﾝ","kana_city":"ﾓﾘｵｶｼ","kana_address":"ﾀﾏﾔﾏｸﾃﾗﾊﾞﾔｼ","pref":"岩手県","city":"盛岡市","address":"玉山区寺林"},
{"zip_code":"0284121","kana_pref":"ｲﾜﾃｹﾝ","kana_city":"ﾓﾘｵｶｼ","kana_address":"ﾀﾏﾔﾏｸﾅｶﾞｲ","pref":"岩手県","city":"盛岡市","address":"玉山区永井"},
{"zip_code":"0284124","kana_pref":"ｲﾜﾃｹﾝ","kana_city":"ﾓﾘｵｶｼ","kana_address":"ﾀﾏﾔﾏｸﾊﾞﾊﾞ","pref":"岩手県","city":"盛岡市","address":"玉山区馬場"},
{"zip_code":"0284123","kana_pref":"ｲﾜﾃｹﾝ","kana_city":"ﾓﾘｵｶｼ","kana_address":"ﾀﾏﾔﾏｸﾏｷﾎﾞﾘ","pref":"岩手県","city":"盛岡市","address":"玉山区巻堀"},
{"zip_code":"0284136","kana_pref":"ｲﾜﾃｹﾝ","kana_city":"ﾓﾘｵｶｼ","kana_address":"ﾀﾏﾔﾏｸﾏﾂﾅｲ","pref":"岩手県","city":"盛岡市","address":"玉山区松内"},
{"zip_code":"0284133","kana_pref":"ｲﾜﾃｹﾝ","kana_city":"ﾓﾘｵｶｼ","kana_address":"ﾀﾏﾔﾏｸﾓﾝｾﾞﾝｼﾞ","pref":"岩手県","city":"盛岡市","address":"玉山区門前寺"},
{"zip_code":"0282711","kana_pref":"ｲﾜﾃｹﾝ","kana_city":"ﾓﾘｵｶｼ","kana_address":"ﾀﾏﾔﾏｸﾔﾌﾞｶﾜ","pref":"岩手県","city":"盛岡市","address":"玉山区薮川"},
{"zip_code":"0282421","kana_pref":"ｲﾜﾃｹﾝ","kana_city":"ﾐﾔｺｼ","kana_address":"ｴﾂﾅｷﾞ","pref":"岩手県","city":"宮古市","address":"江繋"},
{"zip_code":"0282422","kana_pref":"ｲﾜﾃｹﾝ","kana_city":"ﾐﾔｺｼ","kana_address":"ｵｸﾞﾆ","pref":"岩手県","city":"宮古市","address":"小国"},
{"zip_code":"0282303","kana_pref":"ｲﾜﾃｹﾝ","kana_city":"ﾐﾔｺｼ","kana_address":"ｶﾀｽ","pref":"岩手県","city":"宮古市","address":"片巣"},
{"zip_code":"0282632","kana_pref":"ｲﾜﾃｹﾝ","kana_city":"ﾐﾔｺｼ","kana_address":"ｶﾄﾞﾏ","pref":"岩手県","city":"宮古市","address":"門馬"},
{"zip_code":"0282104","kana_pref":"ｲﾜﾃｹﾝ","kana_city":"ﾐﾔｺｼ","kana_address":"ｶﾘﾔ","pref":"岩手県","city":"宮古市","address":"刈屋"},
{"zip_code":"0282402","kana_pref":"ｲﾜﾃｹﾝ","kana_city":"ﾐﾔｺｼ","kana_address":"ｶﾜｲ","pref":"岩手県","city":"宮古市","address":"川井"},
{"zip_code":"0282302","kana_pref":"ｲﾜﾃｹﾝ","kana_city":"ﾐﾔｺｼ","kana_address":"ｶﾜｲ","pref":"岩手県","city":"宮古市","address":"川井"},
{"zip_code":"0282513","kana_pref":"ｲﾜﾃｹﾝ","kana_city":"ﾐﾔｺｼ","kana_address":"ｶﾜｳﾁ","pref":"岩手県","city":"宮古市","address":"川内"},
{"zip_code":"0282631","kana_pref":"ｲﾜﾃｹﾝ","kana_city":"ﾐﾔｺｼ","kana_address":"ｸｻﾞｶｲ","pref":"岩手県","city":"宮古市","address":"区界"},
{"zip_code":"0282512","kana_pref":"ｲﾜﾃｹﾝ","kana_city":"ﾐﾔｺｼ","kana_address":"ｽｽﾞｸﾅ","pref":"岩手県","city":"宮古市","address":"鈴久名"},
{"zip_code":"0282511","kana_pref":"ｲﾜﾃｹﾝ","kana_city":"ﾐﾔｺｼ","kana_address":"ﾅﾂﾔ","pref":"岩手県","city":"宮古市","address":"夏屋"},
{"zip_code":"0282504","kana_pref":"ｲﾜﾃｹﾝ","kana_city":"ﾐﾔｺｼ","kana_address":"ﾊｺｲｼ","pref":"岩手県","city":"宮古市","address":"箱石"},
{"zip_code":"0282304","kana_pref":"ｲﾜﾃｹﾝ","kana_city":"ﾐﾔｺｼ","kana_address":"ﾊｺｲｼ","pref":"岩手県","city":"宮古市","address":"箱石"},
{"zip_code":"0282103","kana_pref":"ｲﾜﾃｹﾝ","kana_city":"ﾐﾔｺｼ","kana_address":"ﾊﾗﾀｲ","pref":"岩手県","city":"宮古市","address":"腹帯"},
{"zip_code":"0282102","kana_pref":"ｲﾜﾃｹﾝ","kana_city":"ﾐﾔｺｼ","kana_address":"ﾋｷﾒ","pref":"岩手県","city":"宮古市","address":"蟇目"},
{"zip_code":"0282633","kana_pref":"ｲﾜﾃｹﾝ","kana_city":"ﾐﾔｺｼ","kana_address":"ﾋﾗﾂﾄ","pref":"岩手県","city":"宮古市","address":"平津戸"},
{"zip_code":"0282301","kana_pref":"ｲﾜﾃｹﾝ","kana_city":"ﾐﾔｺｼ","kana_address":"ﾌｯﾀ","pref":"岩手県","city":"宮古市","address":"古田"},
{"zip_code":"0282101","kana_pref":"ｲﾜﾃｹﾝ","kana_city":"ﾐﾔｺｼ","kana_address":"ﾓｲﾁ","pref":"岩手県","city":"宮古市","address":"茂市"},
{"zip_code":"0282105","kana_pref":"ｲﾜﾃｹﾝ","kana_city":"ﾐﾔｺｼ","kana_address":"ﾜｲﾅｲ","pref":"岩手県","city":"宮古市","address":"和井内"},
{"zip_code":"0283131","kana_pref":"ｲﾜﾃｹﾝ","kana_city":"ﾊﾅﾏｷｼ","kana_address":"ｲｼﾄﾞﾘﾔﾁｮｳｲﾉﾊﾅ","pref":"岩手県","city":"花巻市","address":"石鳥谷町猪鼻"},
{"zip_code":"0283151","kana_pref":"ｲﾜﾃｹﾝ","kana_city":"ﾊﾅﾏｷｼ","kana_address":"ｲｼﾄﾞﾘﾔﾁｮｳｴｿ","pref":"岩手県","city":"花巻市","address":"石鳥谷町江曽"},
{"zip_code":"0283185","kana_pref":"ｲﾜﾃｹﾝ","kana_city":"ﾊﾅﾏｷｼ","kana_address":"ｲｼﾄﾞﾘﾔﾁｮｳｵｵｾｶﾞﾜ","pref":"岩手県","city":"花巻市","address":"石鳥谷町大瀬川"},
{"zip_code":"0283102","kana_pref":"ｲﾜﾃｹﾝ","kana_city":"ﾊﾅﾏｷｼ","kana_address":"ｲｼﾄﾞﾘﾔﾁｮｳｶﾐｸﾞﾁ","pref":"岩手県","city":"花巻市","address":"石鳥谷町上口"},
{"zip_code":"0283172","kana_pref":"ｲﾜﾃｹﾝ","kana_city":"ﾊﾅﾏｷｼ","kana_address":"ｲｼﾄﾞﾘﾔﾁｮｳｷﾀﾃﾗﾊﾞﾔｼ","pref":"岩手県","city":"花巻市","address":"石鳥谷町北寺林"},
{"zip_code":"0283161","kana_pref":"ｲﾜﾃｹﾝ","kana_city":"ﾊﾅﾏｷｼ","kana_address":"ｲｼﾄﾞﾘﾔﾁｮｳｸﾛﾇﾏ","pref":"岩手県","city":"花巻市","address":"石鳥谷町黒沼"},
{"zip_code":"0283101","kana_pref":"ｲﾜﾃｹﾝ","kana_city":"ﾊﾅﾏｷｼ","kana_address":"ｲｼﾄﾞﾘﾔﾁｮｳｺｳﾁ","pref":"岩手県","city":"花巻市","address":"石鳥谷町好地"},
{"zip_code":"0283141","kana_pref":"ｲﾜﾃｹﾝ","kana_city":"ﾊﾅﾏｷｼ","kana_address":"ｲｼﾄﾞﾘﾔﾁｮｳｺﾞﾀﾞｲﾄﾞｳ","pref":"岩手県","city":"花巻市","address":"石鳥谷町五大堂"},
{"zip_code":"0283153","kana_pref":"ｲﾜﾃｹﾝ","kana_city":"ﾊﾅﾏｷｼ","kana_address":"ｲｼﾄﾞﾘﾔﾁｮｳｺﾓﾘﾊﾞﾔｼ","pref":"岩手県","city":"花巻市","address":"石鳥谷町小森林"},
{"zip_code":"0283182","kana_pref":"ｲﾜﾃｹﾝ","kana_city":"ﾊﾅﾏｷｼ","kana_address":"ｲｼﾄﾞﾘﾔﾁｮｳｼｮｳﾘﾝｼﾞ","pref":"岩手県","city":"花巻市","address":"石鳥谷町松林寺"},
{"zip_code":"0283133","kana_pref":"ｲﾜﾃｹﾝ","kana_city":"ﾊﾅﾏｷｼ","kana_address":"ｲｼﾄﾞﾘﾔﾁｮｳｾｷｸﾞﾁ","pref":"岩手県","city":"花巻市","address":"石鳥谷町関口"},
{"zip_code":"0283181","kana_pref":"ｲﾜﾃｹﾝ","kana_city":"ﾊﾅﾏｷｼ","kana_address":"ｲｼﾄﾞﾘﾔﾁｮｳﾀﾞｲｺｳｼﾞ","pref":"岩手県","city":"花巻市","address":"石鳥谷町大興寺"},
{"zip_code":"0283122","kana_pref":"ｲﾜﾃｹﾝ","kana_city":"ﾊﾅﾏｷｼ","kana_address":"ｲｼﾄﾞﾘﾔﾁｮｳﾀｷﾀ","pref":"岩手県","city":"花巻市","address":"石鳥谷町滝田"},
{"zip_code":"0283121","kana_pref":"ｲﾜﾃｹﾝ","kana_city":"ﾊﾅﾏｷｼ","kana_address":"ｲｼﾄﾞﾘﾔﾁｮｳﾄﾂﾞｶ","pref":"岩手県","city":"花巻市","address":"石鳥谷町戸塚"},
{"zip_code":"0283184","kana_pref":"ｲﾜﾃｹﾝ","kana_city":"ﾊﾅﾏｷｼ","kana_address":"ｲｼﾄﾞﾘﾔﾁｮｳﾄﾐｻﾜ","pref":"岩手県","city":"花巻市","address":"石鳥谷町富沢"},
{"zip_code":"0283171","kana_pref":"ｲﾜﾃｹﾝ","kana_city":"ﾊﾅﾏｷｼ","kana_address":"ｲｼﾄﾞﾘﾔﾁｮｳﾅｶﾃﾗﾊﾞﾔｼ","pref":"岩手県","city":"花巻市","address":"石鳥谷町中寺林"},
{"zip_code":"0283111","kana_pref":"ｲﾜﾃｹﾝ","kana_city":"ﾊﾅﾏｷｼ","kana_address":"ｲｼﾄﾞﾘﾔﾁｮｳﾆｲﾎﾞﾘ","pref":"岩手県","city":"花巻市","address":"石鳥谷町新堀"},
{"zip_code":"0283162","kana_pref":"ｲﾜﾃｹﾝ","kana_city":"ﾊﾅﾏｷｼ","kana_address":"ｲｼﾄﾞﾘﾔﾁｮｳﾆｼﾅｶｼﾞﾏ","pref":"岩手県","city":"花巻市","address":"石鳥谷町西中島"},
{"zip_code":"0283183","kana_pref":"ｲﾜﾃｹﾝ","kana_city":"ﾊﾅﾏｷｼ","kana_address":"ｲｼﾄﾞﾘﾔﾁｮｳﾊｾﾄﾞｳ","pref":"岩手県","city":"花巻市","address":"石鳥谷町長谷堂"},
{"zip_code":"0283163","kana_pref":"ｲﾜﾃｹﾝ","kana_city":"ﾊﾅﾏｷｼ","kana_address":"ｲｼﾄﾞﾘﾔﾁｮｳﾊﾁﾏﾝ","pref":"岩手県","city":"花巻市","address":"石鳥谷町八幡"},
{"zip_code":"0283132","kana_pref":"ｲﾜﾃｹﾝ","kana_city":"ﾊﾅﾏｷｼ","kana_address":"ｲｼﾄﾞﾘﾔﾁｮｳﾋｶﾞｼﾅｶｼﾏ","pref":"岩手県","city":"花巻市","address":"石鳥谷町東中島"},
{"zip_code":"0283152","kana_pref":"ｲﾜﾃｹﾝ","kana_city":"ﾊﾅﾏｷｼ","kana_address":"ｲｼﾄﾞﾘﾔﾁｮｳﾐﾅﾐﾃﾗﾊﾞﾔｼ","pref":"岩手県","city":"花巻市","address":"石鳥谷町南寺林"},
{"zip_code":"0283142","kana_pref":"ｲﾜﾃｹﾝ","kana_city":"ﾊﾅﾏｷｼ","kana_address":"ｲｼﾄﾞﾘﾔﾁｮｳﾔｴﾊﾀ","pref":"岩手県","city":"花巻市","address":"石鳥谷町八重畑"},
{"zip_code":"0283201","kana_pref":"ｲﾜﾃｹﾝ","kana_city":"ﾊﾅﾏｷｼ","kana_address":"ｵｵﾊｻﾏﾏﾁｳﾁｶﾜﾒ","pref":"岩手県","city":"花巻市","address":"大迫町内川目"},
{"zip_code":"0283203","kana_pref":"ｲﾜﾃｹﾝ","kana_city":"ﾊﾅﾏｷｼ","kana_address":"ｵｵﾊｻﾏﾏﾁｵｵﾊｻﾏ","pref":"岩手県","city":"花巻市","address":"大迫町大迫"},
{"zip_code":"0283204","kana_pref":"ｲﾜﾃｹﾝ","kana_city":"ﾊﾅﾏｷｼ","kana_address":"ｵｵﾊｻﾏﾏﾁｶﾒｶﾞﾓﾘ","pref":"岩手県","city":"花巻市","address":"大迫町亀ケ森"},
{"zip_code":"0283202","kana_pref":"ｲﾜﾃｹﾝ","kana_city":"ﾊﾅﾏｷｼ","kana_address":"ｵｵﾊｻﾏﾏﾁｿﾄｶﾜﾒ","pref":"岩手県","city":"花巻市","address":"大迫町外川目"},
{"zip_code":"0280115","kana_pref":"ｲﾜﾃｹﾝ","kana_city":"ﾊﾅﾏｷｼ","kana_address":"ﾄｳﾜﾁｮｳｱﾋｮｳ","pref":"岩手県","city":"花巻市","address":"東和町安俵"},
{"zip_code":"0280134","kana_pref":"ｲﾜﾃｹﾝ","kana_city":"ﾊﾅﾏｷｼ","kana_address":"ﾄｳﾜﾁｮｳｲｻｺﾞ","pref":"岩手県","city":"花巻市","address":"東和町砂子"},
{"zip_code":"0280103","kana_pref":"ｲﾜﾃｹﾝ","kana_city":"ﾊﾅﾏｷｼ","kana_address":"ﾄｳﾜﾁｮｳｲｼﾊﾄｵｶ","pref":"岩手県","city":"花巻市","address":"東和町石鳩岡"},
{"zip_code":"0280154","kana_pref":"ｲﾜﾃｹﾝ","kana_city":"ﾊﾅﾏｷｼ","kana_address":"ﾄｳﾜﾁｮｳｲｼﾓﾁ","pref":"岩手県","city":"花巻市","address":"東和町石持"},
{"zip_code":"0280151","kana_pref":"ｲﾜﾃｹﾝ","kana_city":"ﾊﾅﾏｷｼ","kana_address":"ﾄｳﾜﾁｮｳｵﾁｱｲ","pref":"岩手県","city":"花巻市","address":"東和町落合"},
{"zip_code":"0280121","kana_pref":"ｲﾜﾃｹﾝ","kana_city":"ﾊﾅﾏｷｼ","kana_address":"ﾄｳﾜﾁｮｳｵﾄﾓ","pref":"岩手県","city":"花巻市","address":"東和町小友"},
{"zip_code":"0280136","kana_pref":"ｲﾜﾃｹﾝ","kana_city":"ﾊﾅﾏｷｼ","kana_address":"ﾄｳﾜﾁｮｳｵﾊﾞﾗ","pref":"岩手県","city":"花巻市","address":"東和町小原"},
{"zip_code":"0280143","kana_pref":"ｲﾜﾃｹﾝ","kana_city":"ﾊﾅﾏｷｼ","kana_address":"ﾄｳﾜﾁｮｳｶﾐｳｷﾀ","pref":"岩手県","city":"花巻市","address":"東和町上浮田"},
{"zip_code":"0280107","kana_pref":"ｲﾜﾃｹﾝ","kana_city":"ﾊﾅﾏｷｼ","kana_address":"ﾄｳﾜﾁｮｳｷﾀｵﾔﾏﾀﾞ","pref":"岩手県","city":"花巻市","address":"東和町北小山田"},
{"zip_code":"0280102","kana_pref":"ｲﾜﾃｹﾝ","kana_city":"ﾊﾅﾏｷｼ","kana_address":"ﾄｳﾜﾁｮｳｷﾀｶﾜﾒ","pref":"岩手県","city":"花巻市","address":"東和町北川目"},
{"zip_code":"0280116","kana_pref":"ｲﾜﾃｹﾝ","kana_city":"ﾊﾅﾏｷｼ","kana_address":"ﾄｳﾜﾁｮｳｷﾀﾅﾙｼﾏ","pref":"岩手県","city":"花巻市","address":"東和町北成島"},
{"zip_code":"0280101","kana_pref":"ｲﾜﾃｹﾝ","kana_city":"ﾊﾅﾏｷｼ","kana_address":"ﾄｳﾜﾁｮｳｷﾀﾏｴﾀﾞ","pref":"岩手県","city":"花巻市","address":"東和町北前田"},
{"zip_code":"0280135","kana_pref":"ｲﾜﾃｹﾝ","kana_city":"ﾊﾅﾏｷｼ","kana_address":"ﾄｳﾜﾁｮｳｸﾗｻﾞﾜ","pref":"岩手県","city":"花巻市","address":"東和町倉沢"},
{"zip_code":"0280156","kana_pref":"ｲﾜﾃｹﾝ","kana_city":"ﾊﾅﾏｷｼ","kana_address":"ﾄｳﾜﾁｮｳｺｶﾞﾖｳ","pref":"岩手県","city":"花巻市","address":"東和町小通"},
{"zip_code":"0280142","kana_pref":"ｲﾜﾃｹﾝ","kana_city":"ﾊﾅﾏｷｼ","kana_address":"ﾄｳﾜﾁｮｳｺﾏｺﾞﾒ","pref":"岩手県","city":"花巻市","address":"東和町駒籠"},
{"zip_code":"0280141","kana_pref":"ｲﾜﾃｹﾝ","kana_city":"ﾊﾅﾏｷｼ","kana_address":"ﾄｳﾜﾁｮｳｼﾓｳｷﾀ","pref":"岩手県","city":"花巻市","address":"東和町下浮田"},
{"zip_code":"0280112","kana_pref":"ｲﾜﾃｹﾝ","kana_city":"ﾊﾅﾏｷｼ","kana_address":"ﾄｳﾜﾁｮｳｼﾝｼﾞ","pref":"岩手県","city":"花巻市","address":"東和町新地"},
{"zip_code":"0280106","kana_pref":"ｲﾜﾃｹﾝ","kana_city":"ﾊﾅﾏｷｼ","kana_address":"ﾄｳﾜﾁｮｳｿﾄﾔﾁ","pref":"岩手県","city":"花巻市","address":"東和町外谷地"},
{"zip_code":"0280133","kana_pref":"ｲﾜﾃｹﾝ","kana_city":"ﾊﾅﾏｷｼ","kana_address":"ﾄｳﾜﾁｮｳﾀｶｽﾄﾞｳ","pref":"岩手県","city":"花巻市","address":"東和町鷹巣堂"},
{"zip_code":"0280123","kana_pref":"ｲﾜﾃｹﾝ","kana_city":"ﾊﾅﾏｷｼ","kana_address":"ﾄｳﾜﾁｮｳﾀｾ","pref":"岩手県","city":"花巻市","address":"東和町田瀬"},
{"zip_code":"0280132","kana_pref":"ｲﾜﾃｹﾝ","kana_city":"ﾊﾅﾏｷｼ","kana_address":"ﾄｳﾜﾁｮｳﾀﾃﾊｻﾏ","pref":"岩手県","city":"花巻市","address":"東和町舘迫"},
{"zip_code":"0280122","kana_pref":"ｲﾜﾃｹﾝ","kana_city":"ﾊﾅﾏｷｼ","kana_address":"ﾄｳﾜﾁｮｳﾀﾆﾅｲ","pref":"岩手県","city":"花巻市","address":"東和町谷内"},
{"zip_code":"0280114","kana_pref":"ｲﾜﾃｹﾝ","kana_city":"ﾊﾅﾏｷｼ","kana_address":"ﾄｳﾜﾁｮｳﾂﾁｻﾞﾜ","pref":"岩手県","city":"花巻市","address":"東和町土沢"},
{"zip_code":"0280152","kana_pref":"ｲﾜﾃｹﾝ","kana_city":"ﾊﾅﾏｷｼ","kana_address":"ﾄｳﾜﾁｮｳﾄﾞｸｻﾜ","pref":"岩手県","city":"花巻市","address":"東和町毒沢"},
{"zip_code":"0280153","kana_pref":"ｲﾜﾃｹﾝ","kana_city":"ﾊﾅﾏｷｼ","kana_address":"ﾄｳﾜﾁｮｳﾅｶﾅｲ","pref":"岩手県","city":"花巻市","address":"東和町中内"},
{"zip_code":"0280113","kana_pref":"ｲﾜﾃｹﾝ","kana_city":"ﾊﾅﾏｷｼ","kana_address":"ﾄｳﾜﾁｮｳﾋｶﾞｼﾊﾙﾔﾏ","pref":"岩手県","city":"花巻市","address":"東和町東晴山"},
{"zip_code":"0280105","kana_pref":"ｲﾜﾃｹﾝ","kana_city":"ﾊﾅﾏｷｼ","kana_address":"ﾄｳﾜﾁｮｳﾏｴﾀﾞ","pref":"岩手県","city":"花巻市","address":"東和町前田"},
{"zip_code":"0280131","kana_pref":"ｲﾜﾃｹﾝ","kana_city":"ﾊﾅﾏｷｼ","kana_address":"ﾄｳﾜﾁｮｳﾏﾁｲ","pref":"岩手県","city":"花巻市","address":"東和町町井"},
{"zip_code":"0280104","kana_pref":"ｲﾜﾃｹﾝ","kana_city":"ﾊﾅﾏｷｼ","kana_address":"ﾄｳﾜﾁｮｳﾐﾅﾐｶﾜﾒ","pref":"岩手県","city":"花巻市","address":"東和町南川目"},
{"zip_code":"0280155","kana_pref":"ｲﾜﾃｹﾝ","kana_city":"ﾊﾅﾏｷｼ","kana_address":"ﾄｳﾜﾁｮｳﾐﾅﾐﾅﾙｼﾏ","pref":"岩手県","city":"花巻市","address":"東和町南成島"},
{"zip_code":"0280144","kana_pref":"ｲﾜﾃｹﾝ","kana_city":"ﾊﾅﾏｷｼ","kana_address":"ﾄｳﾜﾁｮｳﾐﾔﾀﾞ","pref":"岩手県","city":"花巻市","address":"東和町宮田"},
{"zip_code":"0280111","kana_pref":"ｲﾜﾃｹﾝ","kana_city":"ﾊﾅﾏｷｼ","kana_address":"ﾄｳﾜﾁｮｳﾓﾓﾉｻﾜ","pref":"岩手県","city":"花巻市","address":"東和町百ノ沢"},
{"zip_code":"0280000","kana_pref":"ｲﾜﾃｹﾝ","kana_city":"ｸｼﾞｼ","kana_address":"","pref":"岩手県","city":"久慈市","address":""},
{"zip_code":"0280014","kana_pref":"ｲﾜﾃｹﾝ","kana_city":"ｸｼﾞｼ","kana_address":"ｱｻﾋﾁｮｳ","pref":"岩手県","city":"久慈市","address":"旭町"},
{"zip_code":"0280063","kana_pref":"ｲﾜﾃｹﾝ","kana_city":"ｸｼﾞｼ","kana_address":"ｱﾗﾏﾁ","pref":"岩手県","city":"久慈市","address":"荒町"},
{"zip_code":"0288111","kana_pref":"ｲﾜﾃｹﾝ","kana_city":"ｸｼﾞｼ","kana_address":"ｳﾍﾞﾁｮｳ","pref":"岩手県","city":"久慈市","address":"宇部町"},
{"zip_code":"0280034","kana_pref":"ｲﾜﾃｹﾝ","kana_city":"ｸｼﾞｼ","kana_address":"ｴﾀﾞﾅﾘｻﾜ","pref":"岩手県","city":"久慈市","address":"枝成沢"},
{"zip_code":"0280091","kana_pref":"ｲﾜﾃｹﾝ","kana_city":"ｸｼﾞｼ","kana_address":"ｵｵｶﾜﾒﾁｮｳ","pref":"岩手県","city":"久慈市","address":"大川目町"},
{"zip_code":"0280083","kana_pref":"ｲﾜﾃｹﾝ","kana_city":"ｸｼﾞｼ","kana_address":"ｵｵｻﾜ","pref":"岩手県","city":"久慈市","address":"大沢"},
{"zip_code":"0280041","kana_pref":"ｲﾜﾃｹﾝ","kana_city":"ｸｼﾞｼ","kana_address":"ｵｻﾅｲﾁｮｳ","pref":"岩手県","city":"久慈市","address":"長内町"},
{"zip_code":"0280054","kana_pref":"ｲﾜﾃｹﾝ","kana_city":"ｸｼﾞｼ","kana_address":"ｶｼﾜｻﾞｷ","pref":"岩手県","city":"久慈市","address":"柏崎"},
{"zip_code":"0280051","kana_pref":"ｲﾜﾃｹﾝ","kana_city":"ｸｼﾞｼ","kana_address":"ｶﾜｻｷﾁｮｳ","pref":"岩手県","city":"久慈市","address":"川崎町"},
{"zip_code":"0280082","kana_pref":"ｲﾜﾃｹﾝ","kana_city":"ｸｼﾞｼ","kana_address":"ｶﾜﾇｷ","pref":"岩手県","city":"久慈市","address":"川貫"},
{"zip_code":"0280013","kana_pref":"ｲﾜﾃｹﾝ","kana_city":"ｸｼﾞｼ","kana_address":"ｷｮｳﾉﾓﾘ","pref":"岩手県","city":"久慈市","address":"京の森"},
{"zip_code":"0280015","kana_pref":"ｲﾜﾃｹﾝ","kana_city":"ｸｼﾞｼ","kana_address":"ｹﾞﾝﾄﾞｳ","pref":"岩手県","city":"久慈市","address":"源道"},
{"zip_code":"0280071","kana_pref":"ｲﾜﾃｹﾝ","kana_city":"ｸｼﾞｼ","kana_address":"ｺｸｼﾞﾁｮｳ","pref":"岩手県","city":"久慈市","address":"小久慈町"},
{"zip_code":"0280024","kana_pref":"ｲﾜﾃｹﾝ","kana_city":"ｸｼﾞｼ","kana_address":"ｻｶｴﾁｮｳ","pref":"岩手県","city":"久慈市","address":"栄町"},
{"zip_code":"0287801","kana_pref":"ｲﾜﾃｹﾝ","kana_city":"ｸｼﾞｼ","kana_address":"ｻﾑﾗｲﾊﾏﾁｮｳ","pref":"岩手県","city":"久慈市","address":"侍浜町"},
{"zip_code":"0280035","kana_pref":"ｲﾜﾃｹﾝ","kana_city":"ｸｼﾞｼ","kana_address":"ｻﾜｻﾄ","pref":"岩手県","city":"久慈市","address":"沢里"},
{"zip_code":"0280065","kana_pref":"ｲﾜﾃｹﾝ","kana_city":"ｸｼﾞｼ","kana_address":"ｼﾞｭｳﾊﾁﾆﾁﾏﾁ","pref":"岩手県","city":"久慈市","address":"十八日町"},
{"zip_code":"0280023","kana_pref":"ｲﾜﾃｹﾝ","kana_city":"ｸｼﾞｼ","kana_address":"ｼﾝﾅｶﾉﾊｼ","pref":"岩手県","city":"久慈市","address":"新中の橋"},
{"zip_code":"0280053","kana_pref":"ｲﾜﾃｹﾝ","kana_city":"ｸｼﾞｼ","kana_address":"ﾀｺｳ","pref":"岩手県","city":"久慈市","address":"田高"},
{"zip_code":"0280055","kana_pref":"ｲﾜﾃｹﾝ","kana_city":"ｸｼﾞｼ","kana_address":"ﾀﾂﾐﾁｮｳ","pref":"岩手県","city":"久慈市","address":"巽町"},
{"zip_code":"0280022","kana_pref":"ｲﾜﾃｹﾝ","kana_city":"ｸｼﾞｼ","kana_address":"ﾀﾔﾁｮｳ","pref":"岩手県","city":"久慈市","address":"田屋町"},
{"zip_code":"0280061","kana_pref":"ｲﾜﾃｹﾝ","kana_city":"ｸｼﾞｼ","kana_address":"ﾁｭｳｵｳ","pref":"岩手県","city":"久慈市","address":"中央"},
{"zip_code":"0280032","kana_pref":"ｲﾜﾃｹﾝ","kana_city":"ｸｼﾞｼ","kana_address":"ﾃﾗｻﾄ","pref":"岩手県","city":"久慈市","address":"寺里"},
{"zip_code":"0280031","kana_pref":"ｲﾜﾃｹﾝ","kana_city":"ｸｼﾞｼ","kana_address":"ﾃﾝｼﾞﾝﾄﾞｳ","pref":"岩手県","city":"久慈市","address":"天神堂"},
{"zip_code":"0280066","kana_pref":"ｲﾜﾃｹﾝ","kana_city":"ｸｼﾞｼ","kana_address":"ﾅｶﾉﾊｼ","pref":"岩手県","city":"久慈市","address":"中の橋"},
{"zip_code":"0280056","kana_pref":"ｲﾜﾃｹﾝ","kana_city":"ｸｼﾞｼ","kana_address":"ﾅｶﾏﾁ","pref":"岩手県","city":"久慈市","address":"中町"},
{"zip_code":"0280001","kana_pref":"ｲﾜﾃｹﾝ","kana_city":"ｸｼﾞｼ","kana_address":"ﾅﾂｲﾁｮｳ","pref":"岩手県","city":"久慈市","address":"夏井町"},
{"zip_code":"0280012","kana_pref":"ｲﾜﾃｹﾝ","kana_city":"ｸｼﾞｼ","kana_address":"ﾆｲﾀﾞ","pref":"岩手県","city":"久慈市","address":"新井田"},
{"zip_code":"0280081","kana_pref":"ｲﾜﾃｹﾝ","kana_city":"ｸｼﾞｼ","kana_address":"ﾆｼﾉｻﾜ","pref":"岩手県","city":"久慈市","address":"西の沢"},
{"zip_code":"0280062","kana_pref":"ｲﾜﾃｹﾝ","kana_city":"ｸｼﾞｼ","kana_address":"ﾆｼﾞｭｳﾊﾁﾆﾁﾏﾁ","pref":"岩手県","city":"久慈市","address":"二十八日町"},
{"zip_code":"0280033","kana_pref":"ｲﾜﾃｹﾝ","kana_city":"ｸｼﾞｼ","kana_address":"ﾊﾀｹﾀﾞ","pref":"岩手県","city":"久慈市","address":"畑田"},
{"zip_code":"0280052","kana_pref":"ｲﾜﾃｹﾝ","kana_city":"ｸｼﾞｼ","kana_address":"ﾎﾝﾁｮｳ","pref":"岩手県","city":"久慈市","address":"本町"},
{"zip_code":"0280011","kana_pref":"ｲﾜﾃｹﾝ","kana_city":"ｸｼﾞｼ","kana_address":"ﾐﾅﾄﾁｮｳ","pref":"岩手県","city":"久慈市","address":"湊町"},
{"zip_code":"0280021","kana_pref":"ｲﾜﾃｹﾝ","kana_city":"ｸｼﾞｼ","kana_address":"ﾓﾝｾﾞﾝ","pref":"岩手県","city":"久慈市","address":"門前"},
{"zip_code":"0288712","kana_pref":"ｲﾜﾃｹﾝ","kana_city":"ｸｼﾞｼ","kana_address":"ﾔﾏｶﾞﾀﾁｮｳｵｸﾞﾆ","pref":"岩手県","city":"久慈市","address":"山形町小国"},
{"zip_code":"0288602","kana_pref":"ｲﾜﾃｹﾝ","kana_city":"ｸｼﾞｼ","kana_address":"ﾔﾏｶﾞﾀﾁｮｳｶﾜｲ","pref":"岩手県","city":"久慈市","address":"山形町川井"},
{"zip_code":"0288713","kana_pref":"ｲﾜﾃｹﾝ","kana_city":"ｸｼﾞｼ","kana_address":"ﾔﾏｶﾞﾀﾁｮｳｼﾓﾊﾀ","pref":"岩手県","city":"久慈市","address":"山形町霜畑"},
{"zip_code":"0288711","kana_pref":"ｲﾜﾃｹﾝ","kana_city":"ｸｼﾞｼ","kana_address":"ﾔﾏｶﾞﾀﾁｮｳﾂﾅｷﾞ","pref":"岩手県","city":"久慈市","address":"山形町繋"},
{"zip_code":"0288603","kana_pref":"ｲﾜﾃｹﾝ","kana_city":"ｸｼﾞｼ","kana_address":"ﾔﾏｶﾞﾀﾁｮｳﾆｶﾙﾍﾞ","pref":"岩手県","city":"久慈市","address":"山形町荷軽部"},
{"zip_code":"0288604","kana_pref":"ｲﾜﾃｹﾝ","kana_city":"ｸｼﾞｼ","kana_address":"ﾔﾏｶﾞﾀﾁｮｳﾋﾉｻﾜ","pref":"岩手県","city":"久慈市","address":"山形町日野沢"},
{"zip_code":"0288601","kana_pref":"ｲﾜﾃｹﾝ","kana_city":"ｸｼﾞｼ","kana_address":"ﾔﾏｶﾞﾀﾁｮｳﾍﾛﾏﾁ","pref":"岩手県","city":"久慈市","address":"山形町戸呂町"},
{"zip_code":"0288605","kana_pref":"ｲﾜﾃｹﾝ","kana_city":"ｸｼﾞｼ","kana_address":"ﾔﾏｶﾞﾀﾁｮｳﾗｲﾅｲ","pref":"岩手県","city":"久慈市","address":"山形町来内"},
{"zip_code":"0288521","kana_pref":"ｲﾜﾃｹﾝ","kana_city":"ｸｼﾞｼ","kana_address":"ﾔﾏﾈﾁｮｳ","pref":"岩手県","city":"久慈市","address":"山根町"},
{"zip_code":"0280064","kana_pref":"ｲﾜﾃｹﾝ","kana_city":"ｸｼﾞｼ","kana_address":"ﾖｳｶﾁｮｳ","pref":"岩手県","city":"久慈市","address":"八日町"},
{"zip_code":"0280500","kana_pref":"ｲﾜﾃｹﾝ","kana_city":"ﾄｵﾉｼ","kana_address":"","pref":"岩手県","city":"遠野市","address":""},
{"zip_code":"0280503","kana_pref":"ｲﾜﾃｹﾝ","kana_city":"ﾄｵﾉｼ","kana_address":"ｱｵｻﾞｻﾁｮｳｱｵｻﾞｻ","pref":"岩手県","city":"遠野市","address":"青笹町青笹"},
{"zip_code":"0280502","kana_pref":"ｲﾜﾃｹﾝ","kana_city":"ﾄｵﾉｼ","kana_address":"ｱｵｻﾞｻﾁｮｳﾅｶｻﾞﾜ","pref":"岩手県","city":"遠野市","address":"青笹町中沢"},
{"zip_code":"0280501","kana_pref":"ｲﾜﾃｹﾝ","kana_city":"ﾄｵﾉｼ","kana_address":"ｱｵｻﾞｻﾁｮｳﾇｶﾏｴ","pref":"岩手県","city":"遠野市","address":"青笹町糠前"},
{"zip_code":"0280533","kana_pref":"ｲﾜﾃｹﾝ","kana_city":"ﾄｵﾉｼ","kana_address":"ｱﾔｵﾘﾁｮｳｶﾐｱﾔｵﾘ","pref":"岩手県","city":"遠野市","address":"綾織町上綾織"},
{"zip_code":"0280532","kana_pref":"ｲﾜﾃｹﾝ","kana_city":"ﾄｵﾉｼ","kana_address":"ｱﾔｵﾘﾁｮｳｼﾓｱﾔｵﾘ","pref":"岩手県","city":"遠野市","address":"綾織町下綾織"},
{"zip_code":"0280531","kana_pref":"ｲﾜﾃｹﾝ","kana_city":"ﾄｵﾉｼ","kana_address":"ｱﾔｵﾘﾁｮｳﾆｯｻﾄ","pref":"岩手県","city":"遠野市","address":"綾織町新里"},
{"zip_code":"0280534","kana_pref":"ｲﾜﾃｹﾝ","kana_city":"ﾄｵﾉｼ","kana_address":"ｱﾔｵﾘﾁｮｳﾐｻｻﾞｷ","pref":"岩手県","city":"遠野市","address":"綾織町みさ崎"},
{"zip_code":"0280511","kana_pref":"ｲﾜﾃｹﾝ","kana_city":"ﾄｵﾉｼ","kana_address":"ｳｸﾞｲｽｻﾞｷﾁｮｳ","pref":"岩手県","city":"遠野市","address":"鶯崎町"},
{"zip_code":"0280481","kana_pref":"ｲﾜﾃｹﾝ","kana_city":"ﾄｵﾉｼ","kana_address":"ｵﾄﾓﾁｮｳ","pref":"岩手県","city":"遠野市","address":"小友町"},
{"zip_code":"0280517","kana_pref":"ｲﾜﾃｹﾝ","kana_city":"ﾄｵﾉｼ","kana_address":"ｶﾐｸﾐﾁｮｳ","pref":"岩手県","city":"遠野市","address":"上組町"},
{"zip_code":"0280776","kana_pref":"ｲﾜﾃｹﾝ","kana_city":"ﾄｵﾉｼ","kana_address":"ｶﾐｺﾞｳﾁｮｳｲﾀｻﾞﾜ","pref":"岩手県","city":"遠野市","address":"上郷町板沢"},
{"zip_code":"0280771","kana_pref":"ｲﾜﾃｹﾝ","kana_city":"ﾄｵﾉｼ","kana_address":"ｶﾐｺﾞｳﾁｮｳｻﾋﾅｲ","pref":"岩手県","city":"遠野市","address":"上郷町佐比内"},
{"zip_code":"0280775","kana_pref":"ｲﾜﾃｹﾝ","kana_city":"ﾄｵﾉｼ","kana_address":"ｶﾐｺﾞｳﾁｮｳﾋﾗｸﾗ","pref":"岩手県","city":"遠野市","address":"上郷町平倉"},
{"zip_code":"0280773","kana_pref":"ｲﾜﾃｹﾝ","kana_city":"ﾄｵﾉｼ","kana_address":"ｶﾐｺﾞｳﾁｮｳﾋﾗﾉﾊﾗ","pref":"岩手県","city":"遠野市","address":"上郷町平野原"},
{"zip_code":"0280772","kana_pref":"ｲﾜﾃｹﾝ","kana_city":"ﾄｵﾉｼ","kana_address":"ｶﾐｺﾞｳﾁｮｳﾎｿｺﾞｴ","pref":"岩手県","city":"遠野市","address":"上郷町細越"},
{"zip_code":"0280774","kana_pref":"ｲﾜﾃｹﾝ","kana_city":"ﾄｵﾉｼ","kana_address":"ｶﾐｺﾞｳﾁｮｳﾗｲﾅｲ","pref":"岩手県","city":"遠野市","address":"上郷町来内"},
{"zip_code":"0280516","kana_pref":"ｲﾜﾃｹﾝ","kana_city":"ﾄｵﾉｼ","kana_address":"ｺｸﾁｮｳ","pref":"岩手県","city":"遠野市","address":"穀町"},
{"zip_code":"0280521","kana_pref":"ｲﾜﾃｹﾝ","kana_city":"ﾄｵﾉｼ","kana_address":"ｻﾞｲﾓｸﾁｮｳ","pref":"岩手県","city":"遠野市","address":"材木町"},
{"zip_code":"0280526","kana_pref":"ｲﾜﾃｹﾝ","kana_city":"ﾄｵﾉｼ","kana_address":"ｼﾓｸﾐﾁｮｳ","pref":"岩手県","city":"遠野市","address":"下組町"},
{"zip_code":"0280522","kana_pref":"ｲﾜﾃｹﾝ","kana_city":"ﾄｵﾉｼ","kana_address":"ｼﾝｺｸﾁｮｳ","pref":"岩手県","city":"遠野市","address":"新穀町"},
{"zip_code":"0280524","kana_pref":"ｲﾜﾃｹﾝ","kana_city":"ﾄｵﾉｼ","kana_address":"ｼﾝﾏﾁ","pref":"岩手県","city":"遠野市","address":"新町"},
{"zip_code":"0280527","kana_pref":"ｲﾜﾃｹﾝ","kana_city":"ﾄｵﾉｼ","kana_address":"ﾀﾞｲｸﾁｮｳ","pref":"岩手県","city":"遠野市","address":"大工町"},
{"zip_code":"0280523","kana_pref":"ｲﾜﾃｹﾝ","kana_city":"ﾄｵﾉｼ","kana_address":"ﾁｭｳｵｳﾄﾞｵﾘ","pref":"岩手県","city":"遠野市","address":"中央通り"},
{"zip_code":"0280662","kana_pref":"ｲﾜﾃｹﾝ","kana_city":"ﾄｵﾉｼ","kana_address":"ﾂｷﾓｳｼﾁｮｳｱｵﾀﾞｲ","pref":"岩手県","city":"遠野市","address":"附馬牛町安居台"},
{"zip_code":"0280661","kana_pref":"ｲﾜﾃｹﾝ","kana_city":"ﾄｵﾉｼ","kana_address":"ﾂｷﾓｳｼﾁｮｳｶﾐﾂｷﾓｳｼ","pref":"岩手県","city":"遠野市","address":"附馬牛町上附馬牛"},
{"zip_code":"0280663","kana_pref":"ｲﾜﾃｹﾝ","kana_city":"ﾄｵﾉｼ","kana_address":"ﾂｷﾓｳｼﾁｮｳｼﾓﾂｷﾓｳｼ","pref":"岩手県","city":"遠野市","address":"附馬牛町下附馬牛"},
{"zip_code":"0280664","kana_pref":"ｲﾜﾃｹﾝ","kana_city":"ﾄｵﾉｼ","kana_address":"ﾂｷﾓｳｼﾁｮｳﾄｳｾﾞﾝｼﾞ","pref":"岩手県","city":"遠野市","address":"附馬牛町東禅寺"},
{"zip_code":"0280554","kana_pref":"ｲﾜﾃｹﾝ","kana_city":"ﾄｵﾉｼ","kana_address":"ﾂﾁﾌﾞﾁﾁｮｳｲｲﾄﾖ","pref":"岩手県","city":"遠野市","address":"土淵町飯豊"},
{"zip_code":"0280553","kana_pref":"ｲﾜﾃｹﾝ","kana_city":"ﾄｵﾉｼ","kana_address":"ﾂﾁﾌﾞﾁﾁｮｳｶｼﾜｻﾞｷ","pref":"岩手県","city":"遠野市","address":"土淵町柏崎"},
{"zip_code":"0280555","kana_pref":"ｲﾜﾃｹﾝ","kana_city":"ﾄｵﾉｼ","kana_address":"ﾂﾁﾌﾞﾁﾁｮｳﾂﾁﾌﾞﾁ","pref":"岩手県","city":"遠野市","address":"土淵町土淵"},
{"zip_code":"0280551","kana_pref":"ｲﾜﾃｹﾝ","kana_city":"ﾄｵﾉｼ","kana_address":"ﾂﾁﾌﾞﾁﾁｮｳﾄﾁﾅｲ","pref":"岩手県","city":"遠野市","address":"土淵町栃内"},
{"zip_code":"0280552","kana_pref":"ｲﾜﾃｹﾝ","kana_city":"ﾄｵﾉｼ","kana_address":"ﾂﾁﾌﾞﾁﾁｮｳﾔﾏｸﾞﾁ","pref":"岩手県","city":"遠野市","address":"土淵町山口"},
{"zip_code":"0280514","kana_pref":"ｲﾜﾃｹﾝ","kana_city":"ﾄｵﾉｼ","kana_address":"ﾄｵﾉﾁｮｳ","pref":"岩手県","city":"遠野市","address":"遠野町"},
{"zip_code":"0280542","kana_pref":"ｲﾜﾃｹﾝ","kana_city":"ﾄｵﾉｼ","kana_address":"ﾊﾔｾﾁｮｳ","pref":"岩手県","city":"遠野市","address":"早瀬町"},
{"zip_code":"0280512","kana_pref":"ｲﾜﾃｹﾝ","kana_city":"ﾄｵﾉｼ","kana_address":"ﾋｶﾞｼｶﾐｸﾐﾁｮｳ","pref":"岩手県","city":"遠野市","address":"東上組町"},
{"zip_code":"0280513","kana_pref":"ｲﾜﾃｹﾝ","kana_city":"ﾄｵﾉｼ","kana_address":"ﾋｶﾞｼｺｸﾁｮｳ","pref":"岩手県","city":"遠野市","address":"東穀町"},
{"zip_code":"0280515","kana_pref":"ｲﾜﾃｹﾝ","kana_city":"ﾄｵﾉｼ","kana_address":"ﾋｶﾞｼﾀﾞﾃﾁｮｳ","pref":"岩手県","city":"遠野市","address":"東舘町"},
{"zip_code":"0280543","kana_pref":"ｲﾜﾃｹﾝ","kana_city":"ﾄｵﾉｼ","kana_address":"ﾏﾂｻﾞｷﾁｮｳｺｳｺｳｼﾞ","pref":"岩手県","city":"遠野市","address":"松崎町光興寺"},
{"zip_code":"0280545","kana_pref":"ｲﾜﾃｹﾝ","kana_city":"ﾄｵﾉｼ","kana_address":"ﾏﾂｻﾞｷﾁｮｳｺﾏｷﾞ","pref":"岩手県","city":"遠野市","address":"松崎町駒木"},
{"zip_code":"0280541","kana_pref":"ｲﾜﾃｹﾝ","kana_city":"ﾄｵﾉｼ","kana_address":"ﾏﾂｻﾞｷﾁｮｳｼﾗｲﾜ","pref":"岩手県","city":"遠野市","address":"松崎町白岩"},
{"zip_code":"0280544","kana_pref":"ｲﾜﾃｹﾝ","kana_city":"ﾄｵﾉｼ","kana_address":"ﾏﾂｻﾞｷﾁｮｳﾏﾂｻﾞｷ","pref":"岩手県","city":"遠野市","address":"松崎町松崎"},
{"zip_code":"0280302","kana_pref":"ｲﾜﾃｹﾝ","kana_city":"ﾄｵﾉｼ","kana_address":"ﾐﾔﾓﾘﾁｮｳｶﾐﾏｽｻﾞﾜ","pref":"岩手県","city":"遠野市","address":"宮守町上鱒沢"},
{"zip_code":"0280301","kana_pref":"ｲﾜﾃｹﾝ","kana_city":"ﾄｵﾉｼ","kana_address":"ﾐﾔﾓﾘﾁｮｳｶﾐﾐﾔﾓﾘ","pref":"岩手県","city":"遠野市","address":"宮守町上宮守"},
{"zip_code":"0280303","kana_pref":"ｲﾜﾃｹﾝ","kana_city":"ﾄｵﾉｼ","kana_address":"ﾐﾔﾓﾘﾁｮｳｼﾓﾏｽｻﾞﾜ","pref":"岩手県","city":"遠野市","address":"宮守町下鱒沢"},
{"zip_code":"0280304","kana_pref":"ｲﾜﾃｹﾝ","kana_city":"ﾄｵﾉｼ","kana_address":"ﾐﾔﾓﾘﾁｮｳｼﾓﾐﾔﾓﾘ","pref":"岩手県","city":"遠野市","address":"宮守町下宮守"},
{"zip_code":"0280305","kana_pref":"ｲﾜﾃｹﾝ","kana_city":"ﾄｵﾉｼ","kana_address":"ﾐﾔﾓﾘﾁｮｳﾀｯｿﾍﾞ","pref":"岩手県","city":"遠野市","address":"宮守町達曽部"},
{"zip_code":"0280525","kana_pref":"ｲﾜﾃｹﾝ","kana_city":"ﾄｵﾉｼ","kana_address":"ﾑｲｶﾏﾁ","pref":"岩手県","city":"遠野市","address":"六日町"},
{"zip_code":"0286100","kana_pref":"ｲﾜﾃｹﾝ","kana_city":"ﾆﾉﾍｼ","kana_address":"","pref":"岩手県","city":"二戸市","address":""},
{"zip_code":"0286723","kana_pref":"ｲﾜﾃｹﾝ","kana_city":"ﾆﾉﾍｼ","kana_address":"ｱｯﾋﾟ","pref":"岩手県","city":"二戸市","address":"安比"},
{"zip_code":"0286103","kana_pref":"ｲﾜﾃｹﾝ","kana_city":"ﾆﾉﾍｼ","kana_address":"ｲｼｷﾘﾄﾞｺﾛ","pref":"岩手県","city":"二戸市","address":"石切所"},
{"zip_code":"0285713","kana_pref":"ｲﾜﾃｹﾝ","kana_city":"ﾆﾉﾍｼ","kana_address":"ｶﾏｻﾞﾜ","pref":"岩手県","city":"二戸市","address":"釜沢"},
{"zip_code":"0286108","kana_pref":"ｲﾜﾃｹﾝ","kana_city":"ﾆﾉﾍｼ","kana_address":"ｶﾐﾄﾏｲ","pref":"岩手県","city":"二戸市","address":"上斗米"},
{"zip_code":"0285711","kana_pref":"ｲﾜﾃｹﾝ","kana_city":"ﾆﾉﾍｼ","kana_address":"ｷﾝﾀｲﾁ","pref":"岩手県","city":"二戸市","address":"金田一"},
{"zip_code":"0285702","kana_pref":"ｲﾜﾃｹﾝ","kana_city":"ﾆﾉﾍｼ","kana_address":"ｼﾓﾄﾏｲ","pref":"岩手県","city":"二戸市","address":"下斗米"},
{"zip_code":"0286102","kana_pref":"ｲﾜﾃｹﾝ","kana_city":"ﾆﾉﾍｼ","kana_address":"ｼﾓﾄﾏｲ","pref":"岩手県","city":"二戸市","address":"下斗米"},
{"zip_code":"0286857","kana_pref":"ｲﾜﾃｹﾝ","kana_city":"ﾆﾉﾍｼ","kana_address":"ｼﾞｮｳﾎﾞｳｼﾞﾏﾁｱｲﾅｻﾞﾜ","pref":"岩手県","city":"二戸市","address":"浄法寺町合名沢"},
{"zip_code":"0286944","kana_pref":"ｲﾜﾃｹﾝ","kana_city":"ﾆﾉﾍｼ","kana_address":"ｼﾞｮｳﾎﾞｳｼﾞﾏﾁｱｽｶ","pref":"岩手県","city":"二戸市","address":"浄法寺町飛鳥"},
{"zip_code":"0286945","kana_pref":"ｲﾜﾃｹﾝ","kana_city":"ﾆﾉﾍｼ","kana_address":"ｼﾞｮｳﾎﾞｳｼﾞﾏﾁｱｽｶﾔﾁ","pref":"岩手県","city":"二戸市","address":"浄法寺町飛鳥谷地"},
{"zip_code":"0286946","kana_pref":"ｲﾜﾃｹﾝ","kana_city":"ﾆﾉﾍｼ","kana_address":"ｼﾞｮｳﾎﾞｳｼﾞﾏﾁｱｯﾋﾟﾅｲ","pref":"岩手県","city":"二戸市","address":"浄法寺町安比内"},
{"zip_code":"0286947","kana_pref":"ｲﾜﾃｹﾝ","kana_city":"ﾆﾉﾍｼ","kana_address":"ｼﾞｮｳﾎﾞｳｼﾞﾏﾁｱｯﾋﾟﾅｲｻﾞﾜ","pref":"岩手県","city":"二戸市","address":"浄法寺町安比内沢"},
{"zip_code":"0286883","kana_pref":"ｲﾜﾃｹﾝ","kana_city":"ﾆﾉﾍｼ","kana_address":"ｼﾞｮｳﾎﾞｳｼﾞﾏﾁｱﾗﾔ","pref":"岩手県","city":"二戸市","address":"浄法寺町荒谷"},
{"zip_code":"0286837","kana_pref":"ｲﾜﾃｹﾝ","kana_city":"ﾆﾉﾍｼ","kana_address":"ｼﾞｮｳﾎﾞｳｼﾞﾏﾁｱﾗﾔｼｷ","pref":"岩手県","city":"二戸市","address":"浄法寺町荒屋敷"},
{"zip_code":"0286866","kana_pref":"ｲﾜﾃｹﾝ","kana_city":"ﾆﾉﾍｼ","kana_address":"ｼﾞｮｳﾎﾞｳｼﾞﾏﾁｲｲﾂﾞｶ","pref":"岩手県","city":"二戸市","address":"浄法寺町飯近"},
{"zip_code":"0286924","kana_pref":"ｲﾜﾃｹﾝ","kana_city":"ﾆﾉﾍｼ","kana_address":"ｼﾞｮｳﾎﾞｳｼﾞﾏﾁｲｴﾉｳｴ","pref":"岩手県","city":"二戸市","address":"浄法寺町家ノ上"},
{"zip_code":"0286877","kana_pref":"ｲﾜﾃｹﾝ","kana_city":"ﾆﾉﾍｼ","kana_address":"ｼﾞｮｳﾎﾞｳｼﾞﾏﾁｲｻｷｻﾞﾜ","pref":"岩手県","city":"二戸市","address":"浄法寺町伊崎沢"},
{"zip_code":"0286874","kana_pref":"ｲﾜﾃｹﾝ","kana_city":"ﾆﾉﾍｼ","kana_address":"ｼﾞｮｳﾎﾞｳｼﾞﾏﾁｲﾂﾀﾝﾀﾞ","pref":"岩手県","city":"二戸市","address":"浄法寺町一反田"},
{"zip_code":"0286847","kana_pref":"ｲﾜﾃｹﾝ","kana_city":"ﾆﾉﾍｼ","kana_address":"ｼﾞｮｳﾎﾞｳｼﾞﾏﾁｲﾜﾌﾞﾁ","pref":"岩手県","city":"二戸市","address":"浄法寺町岩渕"},
{"zip_code":"0286943","kana_pref":"ｲﾜﾃｹﾝ","kana_city":"ﾆﾉﾍｼ","kana_address":"ｼﾞｮｳﾎﾞｳｼﾞﾏﾁｳｼﾛｸﾎﾞ","pref":"岩手県","city":"二戸市","address":"浄法寺町後久保"},
{"zip_code":"0286848","kana_pref":"ｲﾜﾃｹﾝ","kana_city":"ﾆﾉﾍｼ","kana_address":"ｼﾞｮｳﾎﾞｳｼﾞﾏﾁｳﾄｻﾞｶ","pref":"岩手県","city":"二戸市","address":"浄法寺町ウト坂"},
{"zip_code":"0286819","kana_pref":"ｲﾜﾃｹﾝ","kana_city":"ﾆﾉﾍｼ","kana_address":"ｼﾞｮｳﾎﾞｳｼﾞﾏﾁｳﾏｱﾗｲﾊﾞ","pref":"岩手県","city":"二戸市","address":"浄法寺町馬洗場"},
{"zip_code":"0286879","kana_pref":"ｲﾜﾃｹﾝ","kana_city":"ﾆﾉﾍｼ","kana_address":"ｼﾞｮｳﾎﾞｳｼﾞﾏﾁｳﾒﾉｷ","pref":"岩手県","city":"二戸市","address":"浄法寺町梅ノ木"},
{"zip_code":"0286833","kana_pref":"ｲﾜﾃｹﾝ","kana_city":"ﾆﾉﾍｼ","kana_address":"ｼﾞｮｳﾎﾞｳｼﾞﾏﾁｳﾙｼｻﾞﾜ","pref":"岩手県","city":"二戸市","address":"浄法寺町漆沢"},
{"zip_code":"0286817","kana_pref":"ｲﾜﾃｹﾝ","kana_city":"ﾆﾉﾍｼ","kana_address":"ｼﾞｮｳﾎﾞｳｼﾞﾏﾁｳﾙｼｻﾞﾜｵｵｸﾎﾞ","pref":"岩手県","city":"二戸市","address":"浄法寺町漆沢大久保"},
{"zip_code":"0286832","kana_pref":"ｲﾜﾃｹﾝ","kana_city":"ﾆﾉﾍｼ","kana_address":"ｼﾞｮｳﾎﾞｳｼﾞﾏﾁｳﾙｼｻﾞﾜｶﾐﾀｲﾗ","pref":"岩手県","city":"二戸市","address":"浄法寺町漆沢上平"},
{"zip_code":"0286845","kana_pref":"ｲﾜﾃｹﾝ","kana_city":"ﾆﾉﾍｼ","kana_address":"ｼﾞｮｳﾎﾞｳｼﾞﾏﾁｳﾙｼｻﾞﾜｶﾐﾏｴﾀ","pref":"岩手県","city":"二戸市","address":"浄法寺町漆沢上前田"},
{"zip_code":"0286831","kana_pref":"ｲﾜﾃｹﾝ","kana_city":"ﾆﾉﾍｼ","kana_address":"ｼﾞｮｳﾎﾞｳｼﾞﾏﾁｳﾙｼｻﾞﾜｼﾓﾀｲﾗ","pref":"岩手県","city":"二戸市","address":"浄法寺町漆沢下平"},
{"zip_code":"0286835","kana_pref":"ｲﾜﾃｹﾝ","kana_city":"ﾆﾉﾍｼ","kana_address":"ｼﾞｮｳﾎﾞｳｼﾞﾏﾁｳﾙｼｻﾞﾜｼﾓﾏｴﾀ","pref":"岩手県","city":"二戸市","address":"浄法寺町漆沢下モ前田"},
{"zip_code":"0286822","kana_pref":"ｲﾜﾃｹﾝ","kana_city":"ﾆﾉﾍｼ","kana_address":"ｼﾞｮｳﾎﾞｳｼﾞﾏﾁｳﾙｼｻﾞﾜﾀﾃ","pref":"岩手県","city":"二戸市","address":"浄法寺町漆沢舘"},
{"zip_code":"0286842","kana_pref":"ｲﾜﾃｹﾝ","kana_city":"ﾆﾉﾍｼ","kana_address":"ｼﾞｮｳﾎﾞｳｼﾞﾏﾁｳﾙｼｻﾞﾜﾅｶﾏｴﾀ","pref":"岩手県","city":"二戸市","address":"浄法寺町漆沢中前田"},
{"zip_code":"0286985","kana_pref":"ｲﾜﾃｹﾝ","kana_city":"ﾆﾉﾍｼ","kana_address":"ｼﾞｮｳﾎﾞｳｼﾞﾏﾁｳﾙｼﾊﾞﾀ","pref":"岩手県","city":"二戸市","address":"浄法寺町漆畑"},
{"zip_code":"0286878","kana_pref":"ｲﾜﾃｹﾝ","kana_city":"ﾆﾉﾍｼ","kana_address":"ｼﾞｮｳﾎﾞｳｼﾞﾏﾁｳﾙｼﾊﾞﾗ","pref":"岩手県","city":"二戸市","address":"浄法寺町漆原"},
{"zip_code":"0286861","kana_pref":"ｲﾜﾃｹﾝ","kana_city":"ﾆﾉﾍｼ","kana_address":"ｼﾞｮｳﾎﾞｳｼﾞﾏﾁｳﾜﾉ","pref":"岩手県","city":"二戸市","address":"浄法寺町上野"},
{"zip_code":"0286873","kana_pref":"ｲﾜﾃｹﾝ","kana_city":"ﾆﾉﾍｼ","kana_address":"ｼﾞｮｳﾎﾞｳｼﾞﾏﾁｵｵｼﾀ","pref":"岩手県","city":"二戸市","address":"浄法寺町大志田"},
{"zip_code":"0286919","kana_pref":"ｲﾜﾃｹﾝ","kana_city":"ﾆﾉﾍｼ","kana_address":"ｼﾞｮｳﾎﾞｳｼﾞﾏﾁｵｵｼﾐｽﾞｱﾗﾔ","pref":"岩手県","city":"二戸市","address":"浄法寺町大清水荒屋"},
{"zip_code":"0286916","kana_pref":"ｲﾜﾃｹﾝ","kana_city":"ﾆﾉﾍｼ","kana_address":"ｼﾞｮｳﾎﾞｳｼﾞﾏﾁｵｵｼﾐｽﾞｼﾓﾀｲﾗ","pref":"岩手県","city":"二戸市","address":"浄法寺町大清水下モ平"},
{"zip_code":"0286929","kana_pref":"ｲﾜﾃｹﾝ","kana_city":"ﾆﾉﾍｼ","kana_address":"ｼﾞｮｳﾎﾞｳｼﾞﾏﾁｵｵｼﾐｽﾞｿﾗｸﾎﾞ","pref":"岩手県","city":"二戸市","address":"浄法寺町大清水空久保"},
{"zip_code":"0286917","kana_pref":"ｲﾜﾃｹﾝ","kana_city":"ﾆﾉﾍｼ","kana_address":"ｼﾞｮｳﾎﾞｳｼﾞﾏﾁｵｵｼﾐｽﾞﾏｴﾀ","pref":"岩手県","city":"二戸市","address":"浄法寺町大清水前田"},
{"zip_code":"0286813","kana_pref":"ｲﾜﾃｹﾝ","kana_city":"ﾆﾉﾍｼ","kana_address":"ｼﾞｮｳﾎﾞｳｼﾞﾏﾁｵｵﾀﾞｲﾗ","pref":"岩手県","city":"二戸市","address":"浄法寺町大平"},
{"zip_code":"0286958","kana_pref":"ｲﾜﾃｹﾝ","kana_city":"ﾆﾉﾍｼ","kana_address":"ｼﾞｮｳﾎﾞｳｼﾞﾏﾁｵｵﾃ","pref":"岩手県","city":"二戸市","address":"浄法寺町大手"},
{"zip_code":"0286937","kana_pref":"ｲﾜﾃｹﾝ","kana_city":"ﾆﾉﾍｼ","kana_address":"ｼﾞｮｳﾎﾞｳｼﾞﾏﾁｵｵﾊﾀ","pref":"岩手県","city":"二戸市","address":"浄法寺町大畑"},
{"zip_code":"0286849","kana_pref":"ｲﾜﾃｹﾝ","kana_city":"ﾆﾉﾍｼ","kana_address":"ｼﾞｮｳﾎﾞｳｼﾞﾏﾁｵｶﾓﾄ","pref":"岩手県","city":"二戸市","address":"浄法寺町岡本"},
{"zip_code":"0286844","kana_pref":"ｲﾜﾃｹﾝ","kana_city":"ﾆﾉﾍｼ","kana_address":"ｼﾞｮｳﾎﾞｳｼﾞﾏﾁｵｶﾓﾄﾏｴﾀ","pref":"岩手県","city":"二戸市","address":"浄法寺町岡本前田"},
{"zip_code":"0286939","kana_pref":"ｲﾜﾃｹﾝ","kana_city":"ﾆﾉﾍｼ","kana_address":"ｼﾞｮｳﾎﾞｳｼﾞﾏﾁｵｻﾙﾍﾞ","pref":"岩手県","city":"二戸市","address":"浄法寺町長流部"},
{"zip_code":"0286942","kana_pref":"ｲﾜﾃｹﾝ","kana_city":"ﾆﾉﾍｼ","kana_address":"ｼﾞｮｳﾎﾞｳｼﾞﾏﾁｵﾔﾏｸﾎﾞ","pref":"岩手県","city":"二戸市","address":"浄法寺町御山久保"},
{"zip_code":"0286938","kana_pref":"ｲﾜﾃｹﾝ","kana_city":"ﾆﾉﾍｼ","kana_address":"ｼﾞｮｳﾎﾞｳｼﾞﾏﾁｵﾝﾔﾏｳﾜﾀﾞｲ","pref":"岩手県","city":"二戸市","address":"浄法寺町御山上平"},
{"zip_code":"0286933","kana_pref":"ｲﾜﾃｹﾝ","kana_city":"ﾆﾉﾍｼ","kana_address":"ｼﾞｮｳﾎﾞｳｼﾞﾏﾁｵﾝﾔﾏｳﾜﾉ","pref":"岩手県","city":"二戸市","address":"浄法寺町御山上野"},
{"zip_code":"0286952","kana_pref":"ｲﾜﾃｹﾝ","kana_city":"ﾆﾉﾍｼ","kana_address":"ｼﾞｮｳﾎﾞｳｼﾞﾏﾁｵﾝﾔﾏｵｵｸﾎﾞ","pref":"岩手県","city":"二戸市","address":"浄法寺町御山大久保"},
{"zip_code":"0286935","kana_pref":"ｲﾜﾃｹﾝ","kana_city":"ﾆﾉﾍｼ","kana_address":"ｼﾞｮｳﾎﾞｳｼﾞﾏﾁｵﾝﾔﾏｼﾓﾏｴﾀ","pref":"岩手県","city":"二戸市","address":"浄法寺町御山下前田"},
{"zip_code":"0286948","kana_pref":"ｲﾜﾃｹﾝ","kana_city":"ﾆﾉﾍｼ","kana_address":"ｼﾞｮｳﾎﾞｳｼﾞﾏﾁｵﾝﾔﾏﾀﾃ","pref":"岩手県","city":"二戸市","address":"浄法寺町御山舘"},
{"zip_code":"0286941","kana_pref":"ｲﾜﾃｹﾝ","kana_city":"ﾆﾉﾍｼ","kana_address":"ｼﾞｮｳﾎﾞｳｼﾞﾏﾁｵﾝﾔﾏﾅｶﾏｴﾀ","pref":"岩手県","city":"二戸市","address":"浄法寺町御山中前田"},
{"zip_code":"0286949","kana_pref":"ｲﾜﾃｹﾝ","kana_city":"ﾆﾉﾍｼ","kana_address":"ｼﾞｮｳﾎﾞｳｼﾞﾏﾁｵﾝﾔﾏﾏｴﾀ","pref":"岩手県","city":"二戸市","address":"浄法寺町御山前田"},
{"zip_code":"0286966","kana_pref":"ｲﾜﾃｹﾝ","kana_city":"ﾆﾉﾍｼ","kana_address":"ｼﾞｮｳﾎﾞｳｼﾞﾏﾁｶｲｼｮｳ","pref":"岩手県","city":"二戸市","address":"浄法寺町海上"},
{"zip_code":"0286957","kana_pref":"ｲﾜﾃｹﾝ","kana_city":"ﾆﾉﾍｼ","kana_address":"ｼﾞｮｳﾎﾞｳｼﾞﾏﾁｶｲｼｮｳﾀﾞ","pref":"岩手県","city":"二戸市","address":"浄法寺町海上田"},
{"zip_code":"0286968","kana_pref":"ｲﾜﾃｹﾝ","kana_city":"ﾆﾉﾍｼ","kana_address":"ｼﾞｮｳﾎﾞｳｼﾞﾏﾁｶｲｼｮｳﾏｴﾀ","pref":"岩手県","city":"二戸市","address":"浄法寺町海上前田"},
{"zip_code":"0286818","kana_pref":"ｲﾜﾃｹﾝ","kana_city":"ﾆﾉﾍｼ","kana_address":"ｼﾞｮｳﾎﾞｳｼﾞﾏﾁｶｶﾞﾐﾀ","pref":"岩手県","city":"二戸市","address":"浄法寺町鏡田"},
{"zip_code":"0286984","kana_pref":"ｲﾜﾃｹﾝ","kana_city":"ﾆﾉﾍｼ","kana_address":"ｼﾞｮｳﾎﾞｳｼﾞﾏﾁｶｷﾉｷﾀｲﾗ","pref":"岩手県","city":"二戸市","address":"浄法寺町柿ノ木平"},
{"zip_code":"0286955","kana_pref":"ｲﾜﾃｹﾝ","kana_city":"ﾆﾉﾍｼ","kana_address":"ｼﾞｮｳﾎﾞｳｼﾞﾏﾁｶﾂﾗﾀﾞｲ","pref":"岩手県","city":"二戸市","address":"浄法寺町桂平"},
{"zip_code":"0286906","kana_pref":"ｲﾜﾃｹﾝ","kana_city":"ﾆﾉﾍｼ","kana_address":"ｼﾞｮｳﾎﾞｳｼﾞﾏﾁｶﾐｽｷﾞｻﾜ","pref":"岩手県","city":"二戸市","address":"浄法寺町上杉沢"},
{"zip_code":"0286856","kana_pref":"ｲﾜﾃｹﾝ","kana_city":"ﾆﾉﾍｼ","kana_address":"ｼﾞｮｳﾎﾞｳｼﾞﾏﾁｶﾐｿﾄﾉ","pref":"岩手県","city":"二戸市","address":"浄法寺町上外野"},
{"zip_code":"0286911","kana_pref":"ｲﾜﾃｹﾝ","kana_city":"ﾆﾉﾍｼ","kana_address":"ｼﾞｮｳﾎﾞｳｼﾞﾏﾁｶﾐﾏｴﾀ","pref":"岩手県","city":"二戸市","address":"浄法寺町上前田"},
{"zip_code":"0286816","kana_pref":"ｲﾜﾃｹﾝ","kana_city":"ﾆﾉﾍｼ","kana_address":"ｼﾞｮｳﾎﾞｳｼﾞﾏﾁｶﾐﾔﾁ","pref":"岩手県","city":"二戸市","address":"浄法寺町上谷地"},
{"zip_code":"0286826","kana_pref":"ｲﾜﾃｹﾝ","kana_city":"ﾆﾉﾍｼ","kana_address":"ｼﾞｮｳﾎﾞｳｼﾞﾏﾁｶﾜﾏﾀ","pref":"岩手県","city":"二戸市","address":"浄法寺町川又"},
{"zip_code":"0286926","kana_pref":"ｲﾜﾃｹﾝ","kana_city":"ﾆﾉﾍｼ","kana_address":"ｼﾞｮｳﾎﾞｳｼﾞﾏﾁｶﾝｻﾞｷ","pref":"岩手県","city":"二戸市","address":"浄法寺町門崎"},
{"zip_code":"0286953","kana_pref":"ｲﾜﾃｹﾝ","kana_city":"ﾆﾉﾍｼ","kana_address":"ｼﾞｮｳﾎﾞｳｼﾞﾏﾁｷｻﾜﾊﾞﾀﾑｶｲ","pref":"岩手県","city":"二戸市","address":"浄法寺町木沢畑向"},
{"zip_code":"0286814","kana_pref":"ｲﾜﾃｹﾝ","kana_city":"ﾆﾉﾍｼ","kana_address":"ｼﾞｮｳﾎﾞｳｼﾞﾏﾁｷﾀﾑﾗ","pref":"岩手県","city":"二戸市","address":"浄法寺町北村"},
{"zip_code":"0286981","kana_pref":"ｲﾜﾃｹﾝ","kana_city":"ﾆﾉﾍｼ","kana_address":"ｼﾞｮｳﾎﾞｳｼﾞﾏﾁｺﾞｱﾝ","pref":"岩手県","city":"二戸市","address":"浄法寺町五庵"},
{"zip_code":"0286851","kana_pref":"ｲﾜﾃｹﾝ","kana_city":"ﾆﾉﾍｼ","kana_address":"ｼﾞｮｳﾎﾞｳｼﾞﾏﾁｺｲｹ","pref":"岩手県","city":"二戸市","address":"浄法寺町小池"},
{"zip_code":"0286921","kana_pref":"ｲﾜﾃｹﾝ","kana_city":"ﾆﾉﾍｼ","kana_address":"ｼﾞｮｳﾎﾞｳｼﾞﾏﾁｺｲｽﾞﾐ","pref":"岩手県","city":"二戸市","address":"浄法寺町小泉"},
{"zip_code":"0286821","kana_pref":"ｲﾜﾃｹﾝ","kana_city":"ﾆﾉﾍｼ","kana_address":"ｼﾞｮｳﾎﾞｳｼﾞﾏﾁｺﾀﾞｲﾗ","pref":"岩手県","city":"二戸市","address":"浄法寺町小平"},
{"zip_code":"0286977","kana_pref":"ｲﾜﾃｹﾝ","kana_city":"ﾆﾉﾍｼ","kana_address":"ｼﾞｮｳﾎﾞｳｼﾞﾏﾁｺﾏｶﾞﾐﾈ","pref":"岩手県","city":"二戸市","address":"浄法寺町駒ケ嶺"},
{"zip_code":"0286973","kana_pref":"ｲﾜﾃｹﾝ","kana_city":"ﾆﾉﾍｼ","kana_address":"ｼﾞｮｳﾎﾞｳｼﾞﾏﾁｺﾏｶﾞﾐﾈﾀﾃ","pref":"岩手県","city":"二戸市","address":"浄法寺町駒ケ嶺舘"},
{"zip_code":"0286979","kana_pref":"ｲﾜﾃｹﾝ","kana_city":"ﾆﾉﾍｼ","kana_address":"ｼﾞｮｳﾎﾞｳｼﾞﾏﾁｺﾏｶﾞﾐﾈﾉﾀﾞ","pref":"岩手県","city":"二戸市","address":"浄法寺町駒ケ嶺野田"},
{"zip_code":"0286978","kana_pref":"ｲﾜﾃｹﾝ","kana_city":"ﾆﾉﾍｼ","kana_address":"ｼﾞｮｳﾎﾞｳｼﾞﾏﾁｺﾏｶﾞﾐﾈﾏｴﾀ","pref":"岩手県","city":"二戸市","address":"浄法寺町駒ケ嶺前田"},
{"zip_code":"0286963","kana_pref":"ｲﾜﾃｹﾝ","kana_city":"ﾆﾉﾍｼ","kana_address":"ｼﾞｮｳﾎﾞｳｼﾞﾏﾁｺﾏﾀ","pref":"岩手県","city":"二戸市","address":"浄法寺町小又"},
{"zip_code":"0286853","kana_pref":"ｲﾜﾃｹﾝ","kana_city":"ﾆﾉﾍｼ","kana_address":"ｼﾞｮｳﾎﾞｳｼﾞﾏﾁｻｲｶﾂﾀ","pref":"岩手県","city":"二戸市","address":"浄法寺町サイカツ田"},
{"zip_code":"0286918","kana_pref":"ｲﾜﾃｹﾝ","kana_city":"ﾆﾉﾍｼ","kana_address":"ｼﾞｮｳﾎﾞｳｼﾞﾏﾁｻｲｶﾂﾀｲﾗ","pref":"岩手県","city":"二戸市","address":"浄法寺町サイカツ平"},
{"zip_code":"0286903","kana_pref":"ｲﾜﾃｹﾝ","kana_city":"ﾆﾉﾍｼ","kana_address":"ｼﾞｮｳﾎﾞｳｼﾞﾏﾁｻｶﾓﾄ","pref":"岩手県","city":"二戸市","address":"浄法寺町坂本"},
{"zip_code":"0286972","kana_pref":"ｲﾜﾃｹﾝ","kana_city":"ﾆﾉﾍｼ","kana_address":"ｼﾞｮｳﾎﾞｳｼﾞﾏﾁｻｸﾗﾀﾞ","pref":"岩手県","city":"二戸市","address":"浄法寺町桜田"},
{"zip_code":"0286872","kana_pref":"ｲﾜﾃｹﾝ","kana_city":"ﾆﾉﾍｼ","kana_address":"ｼﾞｮｳﾎﾞｳｼﾞﾏﾁｻﾄｶﾜﾒ","pref":"岩手県","city":"二戸市","address":"浄法寺町里川目"},
{"zip_code":"0286904","kana_pref":"ｲﾜﾃｹﾝ","kana_city":"ﾆﾉﾍｼ","kana_address":"ｼﾞｮｳﾎﾞｳｼﾞﾏﾁｻﾄｼﾛ","pref":"岩手県","city":"二戸市","address":"浄法寺町里代"},
{"zip_code":"0286934","kana_pref":"ｲﾜﾃｹﾝ","kana_city":"ﾆﾉﾍｼ","kana_address":"ｼﾞｮｳﾎﾞｳｼﾞﾏﾁｻﾜﾀﾞ","pref":"岩手県","city":"二戸市","address":"浄法寺町沢田"},
{"zip_code":"0286928","kana_pref":"ｲﾜﾃｹﾝ","kana_city":"ﾆﾉﾍｼ","kana_address":"ｼﾞｮｳﾎﾞｳｼﾞﾏﾁｻﾝﾅｲ","pref":"岩手県","city":"二戸市","address":"浄法寺町山内"},
{"zip_code":"0286846","kana_pref":"ｲﾜﾃｹﾝ","kana_city":"ﾆﾉﾍｼ","kana_address":"ｼﾞｮｳﾎﾞｳｼﾞﾏﾁｼﾀﾏｴﾀ","pref":"岩手県","city":"二戸市","address":"浄法寺町下タ前田"},
{"zip_code":"0286923","kana_pref":"ｲﾜﾃｹﾝ","kana_city":"ﾆﾉﾍｼ","kana_address":"ｼﾞｮｳﾎﾞｳｼﾞﾏﾁｼﾀﾑﾗ","pref":"岩手県","city":"二戸市","address":"浄法寺町下村"},
{"zip_code":"0286931","kana_pref":"ｲﾜﾃｹﾝ","kana_city":"ﾆﾉﾍｼ","kana_address":"ｼﾞｮｳﾎﾞｳｼﾞﾏﾁｼﾂﾍﾟｲ","pref":"岩手県","city":"二戸市","address":"浄法寺町尻平"},
{"zip_code":"0286951","kana_pref":"ｲﾜﾃｹﾝ","kana_city":"ﾆﾉﾍｼ","kana_address":"ｼﾞｮｳﾎﾞｳｼﾞﾏﾁｼﾐｽﾞｼﾞﾘ","pref":"岩手県","city":"二戸市","address":"浄法寺町清水尻"},
{"zip_code":"0286907","kana_pref":"ｲﾜﾃｹﾝ","kana_city":"ﾆﾉﾍｼ","kana_address":"ｼﾞｮｳﾎﾞｳｼﾞﾏﾁｼﾓｶﾞﾀｲﾗ","pref":"岩手県","city":"二戸市","address":"浄法寺町季ケ平"},
{"zip_code":"0286812","kana_pref":"ｲﾜﾃｹﾝ","kana_city":"ﾆﾉﾍｼ","kana_address":"ｼﾞｮｳﾎﾞｳｼﾞﾏﾁｼﾓｻﾜ","pref":"岩手県","city":"二戸市","address":"浄法寺町下沢"},
{"zip_code":"0286913","kana_pref":"ｲﾜﾃｹﾝ","kana_city":"ﾆﾉﾍｼ","kana_address":"ｼﾞｮｳﾎﾞｳｼﾞﾏﾁｼﾓﾉｻﾜ","pref":"岩手県","city":"二戸市","address":"浄法寺町下ノ沢"},
{"zip_code":"0286983","kana_pref":"ｲﾜﾃｹﾝ","kana_city":"ﾆﾉﾍｼ","kana_address":"ｼﾞｮｳﾎﾞｳｼﾞﾏﾁｼﾓﾌｼﾞ","pref":"岩手県","city":"二戸市","address":"浄法寺町下藤"},
{"zip_code":"0286854","kana_pref":"ｲﾜﾃｹﾝ","kana_city":"ﾆﾉﾍｼ","kana_address":"ｼﾞｮｳﾎﾞｳｼﾞﾏﾁｼﾓﾏｴﾀ","pref":"岩手県","city":"二戸市","address":"浄法寺町下前田"},
{"zip_code":"0286915","kana_pref":"ｲﾜﾃｹﾝ","kana_city":"ﾆﾉﾍｼ","kana_address":"ｼﾞｮｳﾎﾞｳｼﾞﾏﾁｼﾓﾔｼｷ","pref":"岩手県","city":"二戸市","address":"浄法寺町霜屋敷"},
{"zip_code":"0286922","kana_pref":"ｲﾜﾃｹﾝ","kana_city":"ﾆﾉﾍｼ","kana_address":"ｼﾞｮｳﾎﾞｳｼﾞﾏﾁｼﾓﾔﾁ","pref":"岩手県","city":"二戸市","address":"浄法寺町下谷地"},
{"zip_code":"0286855","kana_pref":"ｲﾜﾃｹﾝ","kana_city":"ﾆﾉﾍｼ","kana_address":"ｼﾞｮｳﾎﾞｳｼﾞﾏﾁｼﾞｮｳﾎｳｼﾞ","pref":"岩手県","city":"二戸市","address":"浄法寺町浄法寺"},
{"zip_code":"0286884","kana_pref":"ｲﾜﾃｹﾝ","kana_city":"ﾆﾉﾍｼ","kana_address":"ｼﾞｮｳﾎﾞｳｼﾞﾏﾁｼﾝｻﾞﾝ","pref":"岩手県","city":"二戸市","address":"浄法寺町新山"},
{"zip_code":"0286836","kana_pref":"ｲﾜﾃｹﾝ","kana_city":"ﾆﾉﾍｼ","kana_address":"ｼﾞｮｳﾎﾞｳｼﾞﾏﾁｾｷﾀ","pref":"岩手県","city":"二戸市","address":"浄法寺町関田"},
{"zip_code":"0286967","kana_pref":"ｲﾜﾃｹﾝ","kana_city":"ﾆﾉﾍｼ","kana_address":"ｼﾞｮｳﾎﾞｳｼﾞﾏﾁｿｳｶﾞﾜﾗﾀﾞ","pref":"岩手県","city":"二戸市","address":"浄法寺町惣川原田"},
{"zip_code":"0286905","kana_pref":"ｲﾜﾃｹﾝ","kana_city":"ﾆﾉﾍｼ","kana_address":"ｼﾞｮｳﾎﾞｳｼﾞﾏﾁｿﾗｸﾎﾞ","pref":"岩手県","city":"二戸市","address":"浄法寺町空久保"},
{"zip_code":"0286956","kana_pref":"ｲﾜﾃｹﾝ","kana_city":"ﾆﾉﾍｼ","kana_address":"ｼﾞｮｳﾎﾞｳｼﾞﾏﾁﾀﾞｲﾎﾞｳ","pref":"岩手県","city":"二戸市","address":"浄法寺町大坊"},
{"zip_code":"0286961","kana_pref":"ｲﾜﾃｹﾝ","kana_city":"ﾆﾉﾍｼ","kana_address":"ｼﾞｮｳﾎﾞｳｼﾞﾏﾁﾀｷﾐﾊﾞｼ","pref":"岩手県","city":"二戸市","address":"浄法寺町滝見橋"},
{"zip_code":"0286876","kana_pref":"ｲﾜﾃｹﾝ","kana_city":"ﾆﾉﾍｼ","kana_address":"ｼﾞｮｳﾎﾞｳｼﾞﾏﾁﾀｺﾅｲｻﾞﾜ","pref":"岩手県","city":"二戸市","address":"浄法寺町田子内沢"},
{"zip_code":"0286875","kana_pref":"ｲﾜﾃｹﾝ","kana_city":"ﾆﾉﾍｼ","kana_address":"ｼﾞｮｳﾎﾞｳｼﾞﾏﾁﾀﾃ","pref":"岩手県","city":"二戸市","address":"浄法寺町舘"},
{"zip_code":"0286975","kana_pref":"ｲﾜﾃｹﾝ","kana_city":"ﾆﾉﾍｼ","kana_address":"ｼﾞｮｳﾎﾞｳｼﾞﾏﾁﾀﾖﾅｲ","pref":"岩手県","city":"二戸市","address":"浄法寺町田余内"},
{"zip_code":"0286868","kana_pref":"ｲﾜﾃｹﾝ","kana_city":"ﾆﾉﾍｼ","kana_address":"ｼﾞｮｳﾎﾞｳｼﾞﾏﾁﾁｮｳｼﾞｬﾊﾞﾅ","pref":"岩手県","city":"二戸市","address":"浄法寺町長者花"},
{"zip_code":"0286843","kana_pref":"ｲﾜﾃｹﾝ","kana_city":"ﾆﾉﾍｼ","kana_address":"ｼﾞｮｳﾎﾞｳｼﾞﾏﾁﾂﾂﾐｸﾞﾁ","pref":"岩手県","city":"二戸市","address":"浄法寺町堤口"},
{"zip_code":"0286811","kana_pref":"ｲﾜﾃｹﾝ","kana_city":"ﾆﾉﾍｼ","kana_address":"ｼﾞｮｳﾎﾞｳｼﾞﾏﾁﾃｸﾞﾗﾓﾘ","pref":"岩手県","city":"二戸市","address":"浄法寺町手倉森"},
{"zip_code":"0286862","kana_pref":"ｲﾜﾃｹﾝ","kana_city":"ﾆﾉﾍｼ","kana_address":"ｼﾞｮｳﾎﾞｳｼﾞﾏﾁﾃﾗﾉｳｴ","pref":"岩手県","city":"二戸市","address":"浄法寺町寺ノ上"},
{"zip_code":"0286976","kana_pref":"ｲﾜﾃｹﾝ","kana_city":"ﾆﾉﾍｼ","kana_address":"ｼﾞｮｳﾎﾞｳｼﾞﾏﾁﾄｲｸﾞﾁ","pref":"岩手県","city":"二戸市","address":"浄法寺町樋口"},
{"zip_code":"0286852","kana_pref":"ｲﾜﾃｹﾝ","kana_city":"ﾆﾉﾍｼ","kana_address":"ｼﾞｮｳﾎﾞｳｼﾞﾏﾁﾄｲﾀﾞ","pref":"岩手県","city":"二戸市","address":"浄法寺町樋田"},
{"zip_code":"0286825","kana_pref":"ｲﾜﾃｹﾝ","kana_city":"ﾆﾉﾍｼ","kana_address":"ｼﾞｮｳﾎﾞｳｼﾞﾏﾁﾅｶﾞｻｶ","pref":"岩手県","city":"二戸市","address":"浄法寺町長坂"},
{"zip_code":"0286936","kana_pref":"ｲﾜﾃｹﾝ","kana_city":"ﾆﾉﾍｼ","kana_address":"ｼﾞｮｳﾎﾞｳｼﾞﾏﾁﾅｶﾞﾄﾞﾛ","pref":"岩手県","city":"二戸市","address":"浄法寺町長渡路"},
{"zip_code":"0286974","kana_pref":"ｲﾜﾃｹﾝ","kana_city":"ﾆﾉﾍｼ","kana_address":"ｼﾞｮｳﾎﾞｳｼﾞﾏﾁﾅｶﾊﾀ","pref":"岩手県","city":"二戸市","address":"浄法寺町中畑"},
{"zip_code":"0286912","kana_pref":"ｲﾜﾃｹﾝ","kana_city":"ﾆﾉﾍｼ","kana_address":"ｼﾞｮｳﾎﾞｳｼﾞﾏﾁﾅｶﾏｴﾀ","pref":"岩手県","city":"二戸市","address":"浄法寺町中前田"},
{"zip_code":"0286824","kana_pref":"ｲﾜﾃｹﾝ","kana_city":"ﾆﾉﾍｼ","kana_address":"ｼﾞｮｳﾎﾞｳｼﾞﾏﾁﾆｼﾉｻﾜ","pref":"岩手県","city":"二戸市","address":"浄法寺町西ノ沢"},
{"zip_code":"0286964","kana_pref":"ｲﾜﾃｹﾝ","kana_city":"ﾆﾉﾍｼ","kana_address":"ｼﾞｮｳﾎﾞｳｼﾞﾏﾁﾇﾏｸﾎﾞ","pref":"岩手県","city":"二戸市","address":"浄法寺町沼久保"},
{"zip_code":"0286908","kana_pref":"ｲﾜﾃｹﾝ","kana_city":"ﾆﾉﾍｼ","kana_address":"ｼﾞｮｳﾎﾞｳｼﾞﾏﾁﾉｸﾞﾛｻﾜ","pref":"岩手県","city":"二戸市","address":"浄法寺町野黒沢"},
{"zip_code":"0286865","kana_pref":"ｲﾜﾃｹﾝ","kana_city":"ﾆﾉﾍｼ","kana_address":"ｼﾞｮｳﾎﾞｳｼﾞﾏﾁﾉﾀﾞ","pref":"岩手県","city":"二戸市","address":"浄法寺町野田"},
{"zip_code":"0286925","kana_pref":"ｲﾜﾃｹﾝ","kana_city":"ﾆﾉﾍｼ","kana_address":"ｼﾞｮｳﾎﾞｳｼﾞﾏﾁﾊﾞｲﾀ","pref":"岩手県","city":"二戸市","address":"浄法寺町梅田"},
{"zip_code":"0286863","kana_pref":"ｲﾜﾃｹﾝ","kana_city":"ﾆﾉﾍｼ","kana_address":"ｼﾞｮｳﾎﾞｳｼﾞﾏﾁﾊﾁﾏﾝﾀﾞﾃ","pref":"岩手県","city":"二戸市","address":"浄法寺町八幡舘"},
{"zip_code":"0286815","kana_pref":"ｲﾜﾃｹﾝ","kana_city":"ﾆﾉﾍｼ","kana_address":"ｼﾞｮｳﾎﾞｳｼﾞﾏﾁﾊｯﾎﾟｳｸﾞﾁ","pref":"岩手県","city":"二戸市","address":"浄法寺町八方口"},
{"zip_code":"0286962","kana_pref":"ｲﾜﾃｹﾝ","kana_city":"ﾆﾉﾍｼ","kana_address":"ｼﾞｮｳﾎﾞｳｼﾞﾏﾁﾊﾞﾊﾞﾑｶｲ","pref":"岩手県","city":"二戸市","address":"浄法寺町馬場向"},
{"zip_code":"0286969","kana_pref":"ｲﾜﾃｹﾝ","kana_city":"ﾆﾉﾍｼ","kana_address":"ｼﾞｮｳﾎﾞｳｼﾞﾏﾁﾊﾎｸﾞﾁ","pref":"岩手県","city":"二戸市","address":"浄法寺町端保口"},
{"zip_code":"0286954","kana_pref":"ｲﾜﾃｹﾝ","kana_city":"ﾆﾉﾍｼ","kana_address":"ｼﾞｮｳﾎﾞｳｼﾞﾏﾁﾊﾔｻｶ","pref":"岩手県","city":"二戸市","address":"浄法寺町早坂"},
{"zip_code":"0286882","kana_pref":"ｲﾜﾃｹﾝ","kana_city":"ﾆﾉﾍｼ","kana_address":"ｼﾞｮｳﾎﾞｳｼﾞﾏﾁﾊﾖﾅｲ","pref":"岩手県","city":"二戸市","address":"浄法寺町羽余内"},
{"zip_code":"0286901","kana_pref":"ｲﾜﾃｹﾝ","kana_city":"ﾆﾉﾍｼ","kana_address":"ｼﾞｮｳﾎﾞｳｼﾞﾏﾁﾌｶﾎﾞﾘ","pref":"岩手県","city":"二戸市","address":"浄法寺町深堀"},
{"zip_code":"0286834","kana_pref":"ｲﾜﾃｹﾝ","kana_city":"ﾆﾉﾍｼ","kana_address":"ｼﾞｮｳﾎﾞｳｼﾞﾏﾁﾎｿﾀﾞ","pref":"岩手県","city":"二戸市","address":"浄法寺町細田"},
{"zip_code":"0286841","kana_pref":"ｲﾜﾃｹﾝ","kana_city":"ﾆﾉﾍｼ","kana_address":"ｼﾞｮｳﾎﾞｳｼﾞﾏﾁﾏﾂｵｶ","pref":"岩手県","city":"二戸市","address":"浄法寺町松岡"},
{"zip_code":"0286932","kana_pref":"ｲﾜﾃｹﾝ","kana_city":"ﾆﾉﾍｼ","kana_address":"ｼﾞｮｳﾎﾞｳｼﾞﾏﾁﾏﾂﾊﾀ","pref":"岩手県","city":"二戸市","address":"浄法寺町松畑"},
{"zip_code":"0286823","kana_pref":"ｲﾜﾃｹﾝ","kana_city":"ﾆﾉﾍｼ","kana_address":"ｼﾞｮｳﾎﾞｳｼﾞﾏﾁﾐﾔｻﾞﾜ","pref":"岩手県","city":"二戸市","address":"浄法寺町宮沢"},
{"zip_code":"0286902","kana_pref":"ｲﾜﾃｹﾝ","kana_city":"ﾆﾉﾍｼ","kana_address":"ｼﾞｮｳﾎﾞｳｼﾞﾏﾁﾐｮｳｼﾞﾝｻﾞﾜ","pref":"岩手県","city":"二戸市","address":"浄法寺町明神沢"},
{"zip_code":"0286971","kana_pref":"ｲﾜﾃｹﾝ","kana_city":"ﾆﾉﾍｼ","kana_address":"ｼﾞｮｳﾎﾞｳｼﾞﾏﾁﾑｶｲｶﾞﾜﾗ","pref":"岩手県","city":"二戸市","address":"浄法寺町向川原"},
{"zip_code":"0286838","kana_pref":"ｲﾜﾃｹﾝ","kana_city":"ﾆﾉﾍｼ","kana_address":"ｼﾞｮｳﾎﾞｳｼﾞﾏﾁﾑｶｲﾀﾞ","pref":"岩手県","city":"二戸市","address":"浄法寺町向田"},
{"zip_code":"0286885","kana_pref":"ｲﾜﾃｹﾝ","kana_city":"ﾆﾉﾍｼ","kana_address":"ｼﾞｮｳﾎﾞｳｼﾞﾏﾁﾓﾘｺｼ","pref":"岩手県","city":"二戸市","address":"浄法寺町森越"},
{"zip_code":"0286864","kana_pref":"ｲﾜﾃｹﾝ","kana_city":"ﾆﾉﾍｼ","kana_address":"ｼﾞｮｳﾎﾞｳｼﾞﾏﾁﾓﾝｾﾞﾝﾑｶｲ","pref":"岩手県","city":"二戸市","address":"浄法寺町門前向"},
{"zip_code":"0286867","kana_pref":"ｲﾜﾃｹﾝ","kana_city":"ﾆﾉﾍｼ","kana_address":"ｼﾞｮｳﾎﾞｳｼﾞﾏﾁﾔｷﾊﾞ","pref":"岩手県","city":"二戸市","address":"浄法寺町焼場"},
{"zip_code":"0286871","kana_pref":"ｲﾜﾃｹﾝ","kana_city":"ﾆﾉﾍｼ","kana_address":"ｼﾞｮｳﾎﾞｳｼﾞﾏﾁﾔｽﾄﾞ","pref":"岩手県","city":"二戸市","address":"浄法寺町安戸"},
{"zip_code":"0286965","kana_pref":"ｲﾜﾃｹﾝ","kana_city":"ﾆﾉﾍｼ","kana_address":"ｼﾞｮｳﾎﾞｳｼﾞﾏﾁﾔﾁﾔｼｷ","pref":"岩手県","city":"二戸市","address":"浄法寺町谷地屋敷"},
{"zip_code":"0286982","kana_pref":"ｲﾜﾃｹﾝ","kana_city":"ﾆﾉﾍｼ","kana_address":"ｼﾞｮｳﾎﾞｳｼﾞﾏﾁﾔｯｷﾘ","pref":"岩手県","city":"二戸市","address":"浄法寺町焼切"},
{"zip_code":"0286927","kana_pref":"ｲﾜﾃｹﾝ","kana_city":"ﾆﾉﾍｼ","kana_address":"ｼﾞｮｳﾎﾞｳｼﾞﾏﾁﾕｻﾞﾜ","pref":"岩手県","city":"二戸市","address":"浄法寺町湯沢"},
{"zip_code":"0286914","kana_pref":"ｲﾜﾃｹﾝ","kana_city":"ﾆﾉﾍｼ","kana_address":"ｼﾞｮｳﾎﾞｳｼﾞﾏﾁﾜｲｽﾞﾐﾀ","pref":"岩手県","city":"二戸市","address":"浄法寺町和泉田"},
{"zip_code":"0286881","kana_pref":"ｲﾜﾃｹﾝ","kana_city":"ﾆﾉﾍｼ","kana_address":"ｼﾞｮｳﾎﾞｳｼﾞﾏﾁﾜﾀﾉﾊ","pref":"岩手県","city":"二戸市","address":"浄法寺町渡ノ羽"},
{"zip_code":"0286107","kana_pref":"ｲﾜﾃｹﾝ","kana_city":"ﾆﾉﾍｼ","kana_address":"ｼﾗﾄﾘ","pref":"岩手県","city":"二戸市","address":"白鳥"},
{"zip_code":"0286724","kana_pref":"ｲﾜﾃｹﾝ","kana_city":"ﾆﾉﾍｼ","kana_address":"ﾀﾙｻﾜ","pref":"岩手県","city":"二戸市","address":"足沢"},
{"zip_code":"0286106","kana_pref":"ｲﾜﾃｹﾝ","kana_city":"ﾆﾉﾍｼ","kana_address":"ﾆｻﾀｲ","pref":"岩手県","city":"二戸市","address":"仁左平"},
{"zip_code":"0286721","kana_pref":"ｲﾜﾃｹﾝ","kana_city":"ﾆﾉﾍｼ","kana_address":"ﾆﾀﾄﾞﾘ","pref":"岩手県","city":"二戸市","address":"似鳥"},
{"zip_code":"0285712","kana_pref":"ｲﾜﾃｹﾝ","kana_city":"ﾆﾉﾍｼ","kana_address":"ﾉﾉｳｴ","pref":"岩手県","city":"二戸市","address":"野々上"},
{"zip_code":"0286101","kana_pref":"ｲﾜﾃｹﾝ","kana_city":"ﾆﾉﾍｼ","kana_address":"ﾌｸｵｶ","pref":"岩手県","city":"二戸市","address":"福岡"},
{"zip_code":"0286722","kana_pref":"ｲﾜﾃｹﾝ","kana_city":"ﾆﾉﾍｼ","kana_address":"ﾌｸﾀﾞ","pref":"岩手県","city":"二戸市","address":"福田"},
{"zip_code":"0286105","kana_pref":"ｲﾜﾃｹﾝ","kana_city":"ﾆﾉﾍｼ","kana_address":"ﾎﾘﾉ","pref":"岩手県","city":"二戸市","address":"堀野"},
{"zip_code":"0286104","kana_pref":"ｲﾜﾃｹﾝ","kana_city":"ﾆﾉﾍｼ","kana_address":"ﾏｲｻﾜ","pref":"岩手県","city":"二戸市","address":"米沢"},
{"zip_code":"0287100","kana_pref":"ｲﾜﾃｹﾝ","kana_city":"ﾊﾁﾏﾝﾀｲｼ","kana_address":"","pref":"岩手県","city":"八幡平市","address":""},
{"zip_code":"0287619","kana_pref":"ｲﾜﾃｹﾝ","kana_city":"ﾊﾁﾏﾝﾀｲｼ","kana_address":"ｱｲｻﾞﾜ","pref":"岩手県","city":"八幡平市","address":"相沢"},
{"zip_code":"0287635","kana_pref":"ｲﾜﾃｹﾝ","kana_city":"ﾊﾁﾏﾝﾀｲｼ","kana_address":"ｱｲﾉﾔﾏ","pref":"岩手県","city":"八幡平市","address":"愛の山"},
{"zip_code":"0287526","kana_pref":"ｲﾜﾃｹﾝ","kana_city":"ﾊﾁﾏﾝﾀｲｼ","kana_address":"ｱｶｺﾀｲ","pref":"岩手県","city":"八幡平市","address":"赤子平"},
{"zip_code":"0287554","kana_pref":"ｲﾜﾃｹﾝ","kana_city":"ﾊﾁﾏﾝﾀｲｼ","kana_address":"ｱｶｻｶﾀ","pref":"岩手県","city":"八幡平市","address":"赤坂田"},
{"zip_code":"0287679","kana_pref":"ｲﾜﾃｹﾝ","kana_city":"ﾊﾁﾏﾝﾀｲｼ","kana_address":"ｱｼﾌﾞｶ","pref":"岩手県","city":"八幡平市","address":"足深"},
{"zip_code":"0287506","kana_pref":"ｲﾜﾃｹﾝ","kana_city":"ﾊﾁﾏﾝﾀｲｼ","kana_address":"ｱｼﾛﾃﾗﾀﾞ","pref":"岩手県","city":"八幡平市","address":"安代寺田"},
{"zip_code":"0287552","kana_pref":"ｲﾜﾃｹﾝ","kana_city":"ﾊﾁﾏﾝﾀｲｼ","kana_address":"ｱｼﾛﾖﾘｷ","pref":"岩手県","city":"八幡平市","address":"安代寄木"},
{"zip_code":"0287306","kana_pref":"ｲﾜﾃｹﾝ","kana_city":"ﾊﾁﾏﾝﾀｲｼ","kana_address":"ｱｯﾋﾟｺｳｹﾞﾝ","pref":"岩手県","city":"八幡平市","address":"安比高原"},
{"zip_code":"0287621","kana_pref":"ｲﾜﾃｹﾝ","kana_city":"ﾊﾁﾏﾝﾀｲｼ","kana_address":"ｱﾆｶﾜ","pref":"岩手県","city":"八幡平市","address":"兄川"},
{"zip_code":"0287622","kana_pref":"ｲﾜﾃｹﾝ","kana_city":"ﾊﾁﾏﾝﾀｲｼ","kana_address":"ｱﾆﾊﾀﾅｶｶﾜﾗ","pref":"岩手県","city":"八幡平市","address":"兄畑中川原"},
{"zip_code":"0287406","kana_pref":"ｲﾜﾃｹﾝ","kana_city":"ﾊﾁﾏﾝﾀｲｼ","kana_address":"ｱﾗｷﾀﾞ","pref":"岩手県","city":"八幡平市","address":"荒木田"},
{"zip_code":"0287534","kana_pref":"ｲﾜﾃｹﾝ","kana_city":"ﾊﾁﾏﾝﾀｲｼ","kana_address":"ｱﾗﾔｼﾝﾏﾁ","pref":"岩手県","city":"八幡平市","address":"荒屋新町"},
{"zip_code":"0287674","kana_pref":"ｲﾜﾃｹﾝ","kana_city":"ﾊﾁﾏﾝﾀｲｼ","kana_address":"ｲｴﾉｳﾗ","pref":"岩手県","city":"八幡平市","address":"家ノ裏"},
{"zip_code":"0287521","kana_pref":"ｲﾜﾃｹﾝ","kana_city":"ﾊﾁﾏﾝﾀｲｼ","kana_address":"ｲｼｶﾞﾐ","pref":"岩手県","city":"八幡平市","address":"石神"},
{"zip_code":"0287615","kana_pref":"ｲﾜﾃｹﾝ","kana_city":"ﾊﾁﾏﾝﾀｲｼ","kana_address":"ｲｼﾅｻﾞｶ","pref":"岩手県","city":"八幡平市","address":"石名坂"},
{"zip_code":"0287614","kana_pref":"ｲﾜﾃｹﾝ","kana_city":"ﾊﾁﾏﾝﾀｲｼ","kana_address":"ｲｼﾅｻﾞｶｼﾀ","pref":"岩手県","city":"八幡平市","address":"石名坂下タ"},
{"zip_code":"0287663","kana_pref":"ｲﾜﾃｹﾝ","kana_city":"ﾊﾁﾏﾝﾀｲｼ","kana_address":"ｲｼﾓﾘ","pref":"岩手県","city":"八幡平市","address":"石森"},
{"zip_code":"0287562","kana_pref":"ｲﾜﾃｹﾝ","kana_city":"ﾊﾁﾏﾝﾀｲｼ","kana_address":"ｲﾂｶｲﾁ","pref":"岩手県","city":"八幡平市","address":"五日市"},
{"zip_code":"0287501","kana_pref":"ｲﾜﾃｹﾝ","kana_city":"ﾊﾁﾏﾝﾀｲｼ","kana_address":"ｲﾜｷﾑｶｲ","pref":"岩手県","city":"八幡平市","address":"岩木向"},
{"zip_code":"0287505","kana_pref":"ｲﾜﾃｹﾝ","kana_city":"ﾊﾁﾏﾝﾀｲｼ","kana_address":"ｲﾜﾔ","pref":"岩手県","city":"八幡平市","address":"岩屋"},
{"zip_code":"0287531","kana_pref":"ｲﾜﾃｹﾝ","kana_city":"ﾊﾁﾏﾝﾀｲｼ","kana_address":"ｳｴﾉﾔﾏ","pref":"岩手県","city":"八幡平市","address":"上の山"},
{"zip_code":"0287602","kana_pref":"ｲﾜﾃｹﾝ","kana_city":"ﾊﾁﾏﾝﾀｲｼ","kana_address":"ｳｼﾔﾏ","pref":"岩手県","city":"八幡平市","address":"丑山"},
{"zip_code":"0287604","kana_pref":"ｲﾜﾃｹﾝ","kana_city":"ﾊﾁﾏﾝﾀｲｼ","kana_address":"ｳｼﾔﾏｸﾞﾁ","pref":"岩手県","city":"八幡平市","address":"丑山口"},
{"zip_code":"0287536","kana_pref":"ｲﾜﾃｹﾝ","kana_city":"ﾊﾁﾏﾝﾀｲｼ","kana_address":"ｳﾂﾀﾅｲ","pref":"岩手県","city":"八幡平市","address":"打田内"},
{"zip_code":"0287605","kana_pref":"ｲﾜﾃｹﾝ","kana_city":"ﾊﾁﾏﾝﾀｲｼ","kana_address":"ｳﾉﾄﾞﾘﾔﾁ","pref":"岩手県","city":"八幡平市","address":"鵜谷地"},
{"zip_code":"0287606","kana_pref":"ｲﾜﾃｹﾝ","kana_city":"ﾊﾁﾏﾝﾀｲｼ","kana_address":"ｳﾊﾞｺｲｼ","pref":"岩手県","city":"八幡平市","address":"姥子石"},
{"zip_code":"0287655","kana_pref":"ｲﾜﾃｹﾝ","kana_city":"ﾊﾁﾏﾝﾀｲｼ","kana_address":"ｳﾏｱｹﾞｻﾜ","pref":"岩手県","city":"八幡平市","address":"馬揚沢"},
{"zip_code":"0287403","kana_pref":"ｲﾜﾃｹﾝ","kana_city":"ﾊﾁﾏﾝﾀｲｼ","kana_address":"ｳﾜｾｷ","pref":"岩手県","city":"八幡平市","address":"上関"},
{"zip_code":"0287553","kana_pref":"ｲﾜﾃｹﾝ","kana_city":"ﾊﾁﾏﾝﾀｲｼ","kana_address":"ｵｳｷﾞﾊﾀ","pref":"岩手県","city":"八幡平市","address":"扇畑"},
{"zip_code":"0287661","kana_pref":"ｲﾜﾃｹﾝ","kana_city":"ﾊﾁﾏﾝﾀｲｼ","kana_address":"ｵｵｻﾜ","pref":"岩手県","city":"八幡平市","address":"大沢"},
{"zip_code":"0287664","kana_pref":"ｲﾜﾃｹﾝ","kana_city":"ﾊﾁﾏﾝﾀｲｼ","kana_address":"ｵｵｻﾜﾀﾞ","pref":"岩手県","city":"八幡平市","address":"大沢田"},
{"zip_code":"0287607","kana_pref":"ｲﾜﾃｹﾝ","kana_city":"ﾊﾁﾏﾝﾀｲｼ","kana_address":"ｵｵﾂﾗﾀｲﾗ","pref":"岩手県","city":"八幡平市","address":"大面平"},
{"zip_code":"0287111","kana_pref":"ｲﾜﾃｹﾝ","kana_city":"ﾊﾁﾏﾝﾀｲｼ","kana_address":"ｵｵﾌﾞｹ","pref":"岩手県","city":"八幡平市","address":"大更"},
{"zip_code":"0287624","kana_pref":"ｲﾜﾃｹﾝ","kana_city":"ﾊﾁﾏﾝﾀｲｼ","kana_address":"ｵｵﾏﾀｻﾜｸﾞﾁ","pref":"岩手県","city":"八幡平市","address":"大又沢口"},
{"zip_code":"0287611","kana_pref":"ｲﾜﾃｹﾝ","kana_city":"ﾊﾁﾏﾝﾀｲｼ","kana_address":"ｵｷﾀｵﾓﾃ","pref":"岩手県","city":"八幡平市","address":"沖田表"},
{"zip_code":"0287625","kana_pref":"ｲﾜﾃｹﾝ","kana_city":"ﾊﾁﾏﾝﾀｲｼ","kana_address":"ｵｷﾉﾀｲﾗ","pref":"岩手県","city":"八幡平市","address":"沖ノ平"},
{"zip_code":"0287617","kana_pref":"ｲﾜﾃｹﾝ","kana_city":"ﾊﾁﾏﾝﾀｲｼ","kana_address":"ｵﾘｶﾍﾞ","pref":"岩手県","city":"八幡平市","address":"折壁"},
{"zip_code":"0287612","kana_pref":"ｲﾜﾃｹﾝ","kana_city":"ﾊﾁﾏﾝﾀｲｼ","kana_address":"ｶｹﾀ","pref":"岩手県","city":"八幡平市","address":"欠田"},
{"zip_code":"0287303","kana_pref":"ｲﾜﾃｹﾝ","kana_city":"ﾊﾁﾏﾝﾀｲｼ","kana_address":"ｶｼﾜﾀﾞｲ","pref":"岩手県","city":"八幡平市","address":"柏台"},
{"zip_code":"0287402","kana_pref":"ｲﾜﾃｹﾝ","kana_city":"ﾊﾁﾏﾝﾀｲｼ","kana_address":"ｶﾀﾋﾞﾗ","pref":"岩手県","city":"八幡平市","address":"帷子"},
{"zip_code":"0287533","kana_pref":"ｲﾜﾃｹﾝ","kana_city":"ﾊﾁﾏﾝﾀｲｼ","kana_address":"ｶﾏｽﾀﾞ","pref":"岩手県","city":"八幡平市","address":"叺田"},
{"zip_code":"0287502","kana_pref":"ｲﾜﾃｹﾝ","kana_city":"ﾊﾁﾏﾝﾀｲｼ","kana_address":"ｶﾐｲﾜｷ","pref":"岩手県","city":"八幡平市","address":"上岩木"},
{"zip_code":"0287527","kana_pref":"ｲﾜﾃｹﾝ","kana_city":"ﾊﾁﾏﾝﾀｲｼ","kana_address":"ｶﾜﾗ","pref":"岩手県","city":"八幡平市","address":"川原"},
{"zip_code":"0287643","kana_pref":"ｲﾜﾃｹﾝ","kana_city":"ﾊﾁﾏﾝﾀｲｼ","kana_address":"ｷﾘﾄｵｼ","pref":"岩手県","city":"八幡平市","address":"切通"},
{"zip_code":"0287657","kana_pref":"ｲﾜﾃｹﾝ","kana_city":"ﾊﾁﾏﾝﾀｲｼ","kana_address":"ｸﾘｷﾀﾞ","pref":"岩手県","city":"八幡平市","address":"栗木田"},
{"zip_code":"0287555","kana_pref":"ｲﾜﾃｹﾝ","kana_city":"ﾊﾁﾏﾝﾀｲｼ","kana_address":"ｸﾛｻﾜ","pref":"岩手県","city":"八幡平市","address":"黒沢"},
{"zip_code":"0287628","kana_pref":"ｲﾜﾃｹﾝ","kana_city":"ﾊﾁﾏﾝﾀｲｼ","kana_address":"ｺｲﾜｲ","pref":"岩手県","city":"八幡平市","address":"小岩井"},
{"zip_code":"0287654","kana_pref":"ｲﾜﾃｹﾝ","kana_city":"ﾊﾁﾏﾝﾀｲｼ","kana_address":"ｺﾄｳｹﾞ","pref":"岩手県","city":"八幡平市","address":"小峠"},
{"zip_code":"0287632","kana_pref":"ｲﾜﾃｹﾝ","kana_city":"ﾊﾁﾏﾝﾀｲｼ","kana_address":"ｺﾊﾗﾐﾁﾉｳｴ","pref":"岩手県","city":"八幡平市","address":"小原道ノ上"},
{"zip_code":"0287638","kana_pref":"ｲﾜﾃｹﾝ","kana_city":"ﾊﾁﾏﾝﾀｲｼ","kana_address":"ｺﾊﾗﾐﾁﾉｼﾀ","pref":"岩手県","city":"八幡平市","address":"小原道ノ下"},
{"zip_code":"0287678","kana_pref":"ｲﾜﾃｹﾝ","kana_city":"ﾊﾁﾏﾝﾀｲｼ","kana_address":"ｺﾓﾘ","pref":"岩手県","city":"八幡平市","address":"小森"},
{"zip_code":"0287532","kana_pref":"ｲﾜﾃｹﾝ","kana_city":"ﾊﾁﾏﾝﾀｲｼ","kana_address":"ｺﾔﾅｷﾞﾀﾞ","pref":"岩手県","city":"八幡平市","address":"小柳田"},
{"zip_code":"0287543","kana_pref":"ｲﾜﾃｹﾝ","kana_city":"ﾊﾁﾏﾝﾀｲｼ","kana_address":"ｺﾔﾉﾊﾀ","pref":"岩手県","city":"八幡平市","address":"小屋畑"},
{"zip_code":"0287621","kana_pref":"ｲﾜﾃｹﾝ","kana_city":"ﾊﾁﾏﾝﾀｲｼ","kana_address":"ｻｸﾋﾗ","pref":"岩手県","city":"八幡平市","address":"作平"},
{"zip_code":"0287656","kana_pref":"ｲﾜﾃｹﾝ","kana_city":"ﾊﾁﾏﾝﾀｲｼ","kana_address":"ｻﾂﾞﾏ","pref":"岩手県","city":"八幡平市","address":"左妻"},
{"zip_code":"0287627","kana_pref":"ｲﾜﾃｹﾝ","kana_city":"ﾊﾁﾏﾝﾀｲｼ","kana_address":"ｻﾋﾅｲ","pref":"岩手県","city":"八幡平市","address":"佐比内"},
{"zip_code":"0287676","kana_pref":"ｲﾜﾃｹﾝ","kana_city":"ﾊﾁﾏﾝﾀｲｼ","kana_address":"ｻﾜｸﾞﾁ","pref":"岩手県","city":"八幡平市","address":"沢口"},
{"zip_code":"0287645","kana_pref":"ｲﾜﾃｹﾝ","kana_city":"ﾊﾁﾏﾝﾀｲｼ","kana_address":"ｼﾀｶﾜﾗ","pref":"岩手県","city":"八幡平市","address":"下タ川原"},
{"zip_code":"0287561","kana_pref":"ｲﾜﾃｹﾝ","kana_city":"ﾊﾁﾏﾝﾀｲｼ","kana_address":"ｼﾀﾏﾁ","pref":"岩手県","city":"八幡平市","address":"下町"},
{"zip_code":"0287535","kana_pref":"ｲﾜﾃｹﾝ","kana_city":"ﾊﾁﾏﾝﾀｲｼ","kana_address":"ｼﾐｽﾞ","pref":"岩手県","city":"八幡平市","address":"清水"},
{"zip_code":"0287675","kana_pref":"ｲﾜﾃｹﾝ","kana_city":"ﾊﾁﾏﾝﾀｲｼ","kana_address":"ｼﾓｶﾜﾗ","pref":"岩手県","city":"八幡平市","address":"下モ川原"},
{"zip_code":"0287511","kana_pref":"ｲﾜﾃｹﾝ","kana_city":"ﾊﾁﾏﾝﾀｲｼ","kana_address":"ｼﾓﾉﾀ","pref":"岩手県","city":"八幡平市","address":"下の田"},
{"zip_code":"0287618","kana_pref":"ｲﾜﾃｹﾝ","kana_city":"ﾊﾁﾏﾝﾀｲｼ","kana_address":"ｼﾞｬｲｼ","pref":"岩手県","city":"八幡平市","address":"蛇石"},
{"zip_code":"0287642","kana_pref":"ｲﾜﾃｹﾝ","kana_city":"ﾊﾁﾏﾝﾀｲｼ","kana_address":"ｼｮｳｾﾞﾝｶﾜﾗ","pref":"岩手県","city":"八幡平市","address":"勝善川原"},
{"zip_code":"0287629","kana_pref":"ｲﾜﾃｹﾝ","kana_city":"ﾊﾁﾏﾝﾀｲｼ","kana_address":"ｼﾗｻﾜｸﾞﾁ","pref":"岩手県","city":"八幡平市","address":"白沢口"},
{"zip_code":"0287551","kana_pref":"ｲﾜﾃｹﾝ","kana_city":"ﾊﾁﾏﾝﾀｲｼ","kana_address":"ｼﾝﾃﾞﾝ","pref":"岩手県","city":"八幡平市","address":"新田"},
{"zip_code":"0287662","kana_pref":"ｲﾜﾃｹﾝ","kana_city":"ﾊﾁﾏﾝﾀｲｼ","kana_address":"ｽｷﾞｻﾜ","pref":"岩手県","city":"八幡平市","address":"杉沢"},
{"zip_code":"0287644","kana_pref":"ｲﾜﾃｹﾝ","kana_city":"ﾊﾁﾏﾝﾀｲｼ","kana_address":"ｽｽﾞﾒﾅｶﾞﾈ","pref":"岩手県","city":"八幡平市","address":"雀長根"},
{"zip_code":"0287516","kana_pref":"ｲﾜﾃｹﾝ","kana_city":"ﾊﾁﾏﾝﾀｲｼ","kana_address":"ｾｷｻﾜｸﾞﾁ","pref":"岩手県","city":"八幡平市","address":"関沢口"},
{"zip_code":"0287631","kana_pref":"ｲﾜﾃｹﾝ","kana_city":"ﾊﾁﾏﾝﾀｲｼ","kana_address":"ｾﾉｻﾜ","pref":"岩手県","city":"八幡平市","address":"瀬ノ沢"},
{"zip_code":"0287405","kana_pref":"ｲﾜﾃｹﾝ","kana_city":"ﾊﾁﾏﾝﾀｲｼ","kana_address":"ﾀｲﾗﾀﾞﾃ","pref":"岩手県","city":"八幡平市","address":"平舘"},
{"zip_code":"0287542","kana_pref":"ｲﾜﾃｹﾝ","kana_city":"ﾊﾁﾏﾝﾀｲｼ","kana_address":"ﾀｶﾊﾀ","pref":"岩手県","city":"八幡平市","address":"高畑"},
{"zip_code":"0287566","kana_pref":"ｲﾜﾃｹﾝ","kana_city":"ﾊﾁﾏﾝﾀｲｼ","kana_address":"ﾀｷｻﾞﾜ","pref":"岩手県","city":"八幡平市","address":"滝沢"},
{"zip_code":"0287601","kana_pref":"ｲﾜﾃｹﾝ","kana_city":"ﾊﾁﾏﾝﾀｲｼ","kana_address":"ﾀｻﾞﾜ","pref":"岩手県","city":"八幡平市","address":"田沢"},
{"zip_code":"0287623","kana_pref":"ｲﾜﾃｹﾝ","kana_city":"ﾊﾁﾏﾝﾀｲｼ","kana_address":"ﾀﾃｲﾁ","pref":"岩手県","city":"八幡平市","address":"舘市"},
{"zip_code":"0287672","kana_pref":"ｲﾜﾃｹﾝ","kana_city":"ﾊﾁﾏﾝﾀｲｼ","kana_address":"ﾀﾅｶｼﾀ","pref":"岩手県","city":"八幡平市","address":"田中下タ"},
{"zip_code":"0287563","kana_pref":"ｲﾜﾃｹﾝ","kana_city":"ﾊﾁﾏﾝﾀｲｼ","kana_address":"ﾀﾉｻﾜ","pref":"岩手県","city":"八幡平市","address":"田の沢"},
{"zip_code":"0287677","kana_pref":"ｲﾜﾃｹﾝ","kana_city":"ﾊﾁﾏﾝﾀｲｼ","kana_address":"ﾀﾔﾏ","pref":"岩手県","city":"八幡平市","address":"田山"},
{"zip_code":"0287651","kana_pref":"ｲﾜﾃｹﾝ","kana_city":"ﾊﾁﾏﾝﾀｲｼ","kana_address":"ﾁｮｳｼﾞｬﾏｴ","pref":"岩手県","city":"八幡平市","address":"長者前"},
{"zip_code":"0287513","kana_pref":"ｲﾜﾃｹﾝ","kana_city":"ﾊﾁﾏﾝﾀｲｼ","kana_address":"ﾂﾁｻﾞﾜ","pref":"岩手県","city":"八幡平市","address":"土沢"},
{"zip_code":"0287523","kana_pref":"ｲﾜﾃｹﾝ","kana_city":"ﾊﾁﾏﾝﾀｲｼ","kana_address":"ﾂﾅｷﾞｻﾜ","pref":"岩手県","city":"八幡平市","address":"繋沢"},
{"zip_code":"0287541","kana_pref":"ｲﾜﾃｹﾝ","kana_city":"ﾊﾁﾏﾝﾀｲｼ","kana_address":"ﾃﾗｼﾀﾞ","pref":"岩手県","city":"八幡平市","address":"寺志田"},
{"zip_code":"0287112","kana_pref":"ｲﾜﾃｹﾝ","kana_city":"ﾊﾁﾏﾝﾀｲｼ","kana_address":"ﾃﾞﾝﾄﾞｳ","pref":"岩手県","city":"八幡平市","address":"田頭"},
{"zip_code":"0287303","kana_pref":"ｲﾜﾃｹﾝ","kana_city":"ﾊﾁﾏﾝﾀｲｼ","kana_address":"ﾄｳｼﾁｵﾝｾﾝ","pref":"岩手県","city":"八幡平市","address":"藤七温泉"},
{"zip_code":"0287626","kana_pref":"ｲﾜﾃｹﾝ","kana_city":"ﾊﾁﾏﾝﾀｲｼ","kana_address":"ﾄｸｻﾘ","pref":"岩手県","city":"八幡平市","address":"戸鎖"},
{"zip_code":"0287567","kana_pref":"ｲﾜﾃｹﾝ","kana_city":"ﾊﾁﾏﾝﾀｲｼ","kana_address":"ﾄｻﾞﾜ","pref":"岩手県","city":"八幡平市","address":"戸沢"},
{"zip_code":"0287673","kana_pref":"ｲﾜﾃｹﾝ","kana_city":"ﾊﾁﾏﾝﾀｲｼ","kana_address":"ﾄﾉｻｶｼﾀ","pref":"岩手県","city":"八幡平市","address":"殿坂下タ"},
{"zip_code":"0287514","kana_pref":"ｲﾜﾃｹﾝ","kana_city":"ﾊﾁﾏﾝﾀｲｼ","kana_address":"ﾅｶｻｲ","pref":"岩手県","city":"八幡平市","address":"中佐井"},
{"zip_code":"0287503","kana_pref":"ｲﾜﾃｹﾝ","kana_city":"ﾊﾁﾏﾝﾀｲｼ","kana_address":"ﾅｶﾀﾞ","pref":"岩手県","city":"八幡平市","address":"中田"},
{"zip_code":"0287401","kana_pref":"ｲﾜﾃｹﾝ","kana_city":"ﾊﾁﾏﾝﾀｲｼ","kana_address":"ﾆｼﾈﾃﾗﾀﾞ","pref":"岩手県","city":"八幡平市","address":"西根寺田"},
{"zip_code":"0287652","kana_pref":"ｲﾜﾃｹﾝ","kana_city":"ﾊﾁﾏﾝﾀｲｼ","kana_address":"ﾈｲｼ","pref":"岩手県","city":"八幡平市","address":"根石"},
{"zip_code":"0287301","kana_pref":"ｲﾜﾃｹﾝ","kana_city":"ﾊﾁﾏﾝﾀｲｼ","kana_address":"ﾉﾀﾞ","pref":"岩手県","city":"八幡平市","address":"野駄"},
{"zip_code":"0287302","kana_pref":"ｲﾜﾃｹﾝ","kana_city":"ﾊﾁﾏﾝﾀｲｼ","kana_address":"ﾊﾁﾏﾝﾀｲｵﾝｾﾝｷｮｳ","pref":"岩手県","city":"八幡平市","address":"八幡平温泉郷"},
{"zip_code":"0287671","kana_pref":"ｲﾜﾃｹﾝ","kana_city":"ﾊﾁﾏﾝﾀｲｼ","kana_address":"ﾊﾞﾊﾞｼﾀ","pref":"岩手県","city":"八幡平市","address":"馬場下"},
{"zip_code":"0287525","kana_pref":"ｲﾜﾃｹﾝ","kana_city":"ﾊﾁﾏﾝﾀｲｼ","kana_address":"ﾋｶｹﾞ","pref":"岩手県","city":"八幡平市","address":"日影"},
{"zip_code":"0287633","kana_pref":"ｲﾜﾃｹﾝ","kana_city":"ﾊﾁﾏﾝﾀｲｼ","kana_address":"ﾋﾄﾞﾛﾐﾁﾉｳｴ","pref":"岩手県","city":"八幡平市","address":"日泥道ノ上"},
{"zip_code":"0287637","kana_pref":"ｲﾜﾃｹﾝ","kana_city":"ﾊﾁﾏﾝﾀｲｼ","kana_address":"ﾋﾄﾞﾛﾐﾁﾉｼﾀ","pref":"岩手県","city":"八幡平市","address":"日泥道ノ下"},
{"zip_code":"0287113","kana_pref":"ｲﾜﾃｹﾝ","kana_city":"ﾊﾁﾏﾝﾀｲｼ","kana_address":"ﾋﾗｶｻ","pref":"岩手県","city":"八幡平市","address":"平笠"},
{"zip_code":"0287653","kana_pref":"ｲﾜﾃｹﾝ","kana_city":"ﾊﾁﾏﾝﾀｲｼ","kana_address":"ﾋﾗﾏﾀ","pref":"岩手県","city":"八幡平市","address":"平又"},
{"zip_code":"0287641","kana_pref":"ｲﾜﾃｹﾝ","kana_city":"ﾊﾁﾏﾝﾀｲｼ","kana_address":"ﾋﾛﾋﾞﾗ","pref":"岩手県","city":"八幡平市","address":"比路平"},
{"zip_code":"0287616","kana_pref":"ｲﾜﾃｹﾝ","kana_city":"ﾊﾁﾏﾝﾀｲｼ","kana_address":"ﾌﾀｺﾞ","pref":"岩手県","city":"八幡平市","address":"二タ子"},
{"zip_code":"0287515","kana_pref":"ｲﾜﾃｹﾝ","kana_city":"ﾊﾁﾏﾝﾀｲｼ","kana_address":"ﾌﾙﾔｼｷ","pref":"岩手県","city":"八幡平市","address":"古屋敷"},
{"zip_code":"0287556","kana_pref":"ｲﾜﾃｹﾝ","kana_city":"ﾊﾁﾏﾝﾀｲｼ","kana_address":"ﾎｼｻﾞﾜ","pref":"岩手県","city":"八幡平市","address":"星沢"},
{"zip_code":"0287557","kana_pref":"ｲﾜﾃｹﾝ","kana_city":"ﾊﾁﾏﾝﾀｲｼ","kana_address":"ﾎｿﾉ","pref":"岩手県","city":"八幡平市","address":"細野"},
{"zip_code":"0287544","kana_pref":"ｲﾜﾃｹﾝ","kana_city":"ﾊﾁﾏﾝﾀｲｼ","kana_address":"ﾎﾄｻﾞｶ","pref":"岩手県","city":"八幡平市","address":"保戸坂"},
{"zip_code":"0287404","kana_pref":"ｲﾜﾃｹﾝ","kana_city":"ﾊﾁﾏﾝﾀｲｼ","kana_address":"ﾎﾘｷﾘ","pref":"岩手県","city":"八幡平市","address":"堀切"},
{"zip_code":"0287504","kana_pref":"ｲﾜﾃｹﾝ","kana_city":"ﾊﾁﾏﾝﾀｲｼ","kana_address":"ﾏｴﾀﾞ","pref":"岩手県","city":"八幡平市","address":"前田"},
{"zip_code":"0287537","kana_pref":"ｲﾜﾃｹﾝ","kana_city":"ﾊﾁﾏﾝﾀｲｼ","kana_address":"ﾏｶﾞﾀ","pref":"岩手県","city":"八幡平市","address":"曲田"},
{"zip_code":"0287613","kana_pref":"ｲﾜﾃｹﾝ","kana_city":"ﾊﾁﾏﾝﾀｲｼ","kana_address":"ﾏﾀﾄｶﾜﾗ","pref":"岩手県","city":"八幡平市","address":"亦戸川原"},
{"zip_code":"0287305","kana_pref":"ｲﾜﾃｹﾝ","kana_city":"ﾊﾁﾏﾝﾀｲｼ","kana_address":"ﾏﾂｵ","pref":"岩手県","city":"八幡平市","address":"松尾"},
{"zip_code":"0287302","kana_pref":"ｲﾜﾃｹﾝ","kana_city":"ﾊﾁﾏﾝﾀｲｼ","kana_address":"ﾏﾂｵﾖﾘｷ","pref":"岩手県","city":"八幡平市","address":"松尾寄木"},
{"zip_code":"0287302","kana_pref":"ｲﾜﾃｹﾝ","kana_city":"ﾊﾁﾏﾝﾀｲｼ","kana_address":"ﾏﾂｶﾜｵﾝｾﾝ","pref":"岩手県","city":"八幡平市","address":"松川温泉"},
{"zip_code":"0287545","kana_pref":"ｲﾜﾃｹﾝ","kana_city":"ﾊﾁﾏﾝﾀｲｼ","kana_address":"ﾏﾂｷﾀﾞ","pref":"岩手県","city":"八幡平市","address":"松木田"},
{"zip_code":"0287304","kana_pref":"ｲﾜﾃｹﾝ","kana_city":"ﾊﾁﾏﾝﾀｲｼ","kana_address":"ﾐﾄﾞﾘｶﾞｵｶ","pref":"岩手県","city":"八幡平市","address":"緑ガ丘"},
{"zip_code":"0287565","kana_pref":"ｲﾜﾃｹﾝ","kana_city":"ﾊﾁﾏﾝﾀｲｼ","kana_address":"ﾒﾅｲﾁ","pref":"岩手県","city":"八幡平市","address":"目名市"},
{"zip_code":"0287603","kana_pref":"ｲﾜﾃｹﾝ","kana_city":"ﾊﾁﾏﾝﾀｲｼ","kana_address":"ﾔｶﾞﾐ","pref":"岩手県","city":"八幡平市","address":"矢神"},
{"zip_code":"0287564","kana_pref":"ｲﾜﾃｹﾝ","kana_city":"ﾊﾁﾏﾝﾀｲｼ","kana_address":"ﾔﾁﾀ","pref":"岩手県","city":"八幡平市","address":"谷地田"},
{"zip_code":"0287608","kana_pref":"ｲﾜﾃｹﾝ","kana_city":"ﾊﾁﾏﾝﾀｲｼ","kana_address":"ﾔﾁﾅｶ","pref":"岩手県","city":"八幡平市","address":"谷地中"},
{"zip_code":"0287512","kana_pref":"ｲﾜﾃｹﾝ","kana_city":"ﾊﾁﾏﾝﾀｲｼ","kana_address":"ﾔﾏｷﾞｼ","pref":"岩手県","city":"八幡平市","address":"山岸"},
{"zip_code":"0287522","kana_pref":"ｲﾜﾃｹﾝ","kana_city":"ﾊﾁﾏﾝﾀｲｼ","kana_address":"ﾔﾏｸﾞﾁ","pref":"岩手県","city":"八幡平市","address":"山口"},
{"zip_code":"0287524","kana_pref":"ｲﾜﾃｹﾝ","kana_city":"ﾊﾁﾏﾝﾀｲｼ","kana_address":"ﾕﾉｻﾜ","pref":"岩手県","city":"八幡平市","address":"湯の沢"},
{"zip_code":"0287634","kana_pref":"ｲﾜﾃｹﾝ","kana_city":"ﾊﾁﾏﾝﾀｲｼ","kana_address":"ﾜﾔｼｷﾐﾁﾉｳｴ","pref":"岩手県","city":"八幡平市","address":"和屋敷道ノ上"},
{"zip_code":"0287636","kana_pref":"ｲﾜﾃｹﾝ","kana_city":"ﾊﾁﾏﾝﾀｲｼ","kana_address":"ﾜﾔｼｷﾐﾁﾉｼﾀ","pref":"岩手県","city":"八幡平市","address":"和屋敷道ノ下"},
{"zip_code":"0285400","kana_pref":"ｲﾜﾃｹﾝ","kana_city":"ｲﾜﾃｸﾞﾝｸｽﾞﾏｷﾏﾁ","kana_address":"","pref":"岩手県","city":"岩手郡葛巻町","address":""},
{"zip_code":"0285403","kana_pref":"ｲﾜﾃｹﾝ","kana_city":"ｲﾜﾃｸﾞﾝｸｽﾞﾏｷﾏﾁ","kana_address":"ｴｶﾘ","pref":"岩手県","city":"岩手郡葛巻町","address":"江刈"},
{"zip_code":"0285102","kana_pref":"ｲﾜﾃｹﾝ","kana_city":"ｲﾜﾃｸﾞﾝｸｽﾞﾏｷﾏﾁ","kana_address":"ｸｽﾞﾏｷ(ﾀﾞｲ40ﾁﾜﾘ-ﾀﾞｲ45","pref":"岩手県","city":"岩手郡葛巻町","address":"葛巻（第４０地割〜第４５"},
{"zip_code":"0285102","kana_pref":"ｲﾜﾃｹﾝ","kana_city":"ｲﾜﾃｸﾞﾝｸｽﾞﾏｷﾏﾁ","kana_address":"ﾁﾜﾘ)","pref":"岩手県","city":"岩手郡葛巻町","address":"地割）"},
{"zip_code":"0285402","kana_pref":"ｲﾜﾃｹﾝ","kana_city":"ｲﾜﾃｸﾞﾝｸｽﾞﾏｷﾏﾁ","kana_address":"ｸｽﾞﾏｷ","pref":"岩手県","city":"岩手郡葛巻町","address":"葛巻"},
{"zip_code":"0285401","kana_pref":"ｲﾜﾃｹﾝ","kana_city":"ｲﾜﾃｸﾞﾝｸｽﾞﾏｷﾏﾁ","kana_address":"ﾀﾍﾞ","pref":"岩手県","city":"岩手郡葛巻町","address":"田部"},
{"zip_code":"0284300","kana_pref":"ｲﾜﾃｹﾝ","kana_city":"ｲﾜﾃｸﾞﾝｲﾜﾃﾏﾁ","kana_address":"","pref":"岩手県","city":"岩手郡岩手町","address":""},
{"zip_code":"0284307","kana_pref":"ｲﾜﾃｹﾝ","kana_city":"ｲﾜﾃｸﾞﾝｲﾜﾃﾏﾁ","kana_address":"ｲﾂｶｲﾁ","pref":"岩手県","city":"岩手郡岩手町","address":"五日市"},
{"zip_code":"0284421","kana_pref":"ｲﾜﾃｹﾝ","kana_city":"ｲﾜﾃｸﾞﾝｲﾜﾃﾏﾁ","kana_address":"ｲｯｶﾀｲ","pref":"岩手県","city":"岩手郡岩手町","address":"一方井"},
{"zip_code":"0284303","kana_pref":"ｲﾜﾃｹﾝ","kana_city":"ｲﾜﾃｸﾞﾝｲﾜﾃﾏﾁ","kana_address":"ｴｶﾘﾅｲ","pref":"岩手県","city":"岩手郡岩手町","address":"江刈内"},
{"zip_code":"0284211","kana_pref":"ｲﾜﾃｹﾝ","kana_city":"ｲﾜﾃｸﾞﾝｲﾜﾃﾏﾁ","kana_address":"ｶﾜｸﾞﾁ","pref":"岩手県","city":"岩手郡岩手町","address":"川口"},
{"zip_code":"0284305","kana_pref":"ｲﾜﾃｹﾝ","kana_city":"ｲﾜﾃｸﾞﾝｲﾜﾃﾏﾁ","kana_address":"ｸﾎﾞ","pref":"岩手県","city":"岩手郡岩手町","address":"久保"},
{"zip_code":"0284424","kana_pref":"ｲﾜﾃｹﾝ","kana_city":"ｲﾜﾃｸﾞﾝｲﾜﾃﾏﾁ","kana_address":"ｸﾛｲｼ","pref":"岩手県","city":"岩手郡岩手町","address":"黒石"},
{"zip_code":"0284426","kana_pref":"ｲﾜﾃｹﾝ","kana_city":"ｲﾜﾃｸﾞﾝｲﾜﾃﾏﾁ","kana_address":"ｸﾛﾅｲ","pref":"岩手県","city":"岩手郡岩手町","address":"黒内"},
{"zip_code":"0284304","kana_pref":"ｲﾜﾃｹﾝ","kana_city":"ｲﾜﾃｸﾞﾝｲﾜﾃﾏﾁ","kana_address":"ｺﾀﾞｷ","pref":"岩手県","city":"岩手郡岩手町","address":"子抱"},
{"zip_code":"0284302","kana_pref":"ｲﾜﾃｹﾝ","kana_city":"ｲﾜﾃｸﾞﾝｲﾜﾃﾏﾁ","kana_address":"ﾀﾞｲﾎﾞｳ","pref":"岩手県","city":"岩手郡岩手町","address":"大坊"},
{"zip_code":"0284423","kana_pref":"ｲﾜﾃｹﾝ","kana_city":"ｲﾜﾃｸﾞﾝｲﾜﾃﾏﾁ","kana_address":"ﾂﾁｶﾜ","pref":"岩手県","city":"岩手郡岩手町","address":"土川"},
{"zip_code":"0284301","kana_pref":"ｲﾜﾃｹﾝ","kana_city":"ｲﾜﾃｸﾞﾝｲﾜﾃﾏﾁ","kana_address":"ﾇﾏｸﾅｲ","pref":"岩手県","city":"岩手郡岩手町","address":"沼宮内"},
{"zip_code":"0284425","kana_pref":"ｲﾜﾃｹﾝ","kana_city":"ｲﾜﾃｸﾞﾝｲﾜﾃﾏﾁ","kana_address":"ﾊｷﾀ","pref":"岩手県","city":"岩手郡岩手町","address":"葉木田"},
{"zip_code":"0284422","kana_pref":"ｲﾜﾃｹﾝ","kana_city":"ｲﾜﾃｸﾞﾝｲﾜﾃﾏﾁ","kana_address":"ﾎﾞｳ","pref":"岩手県","city":"岩手郡岩手町","address":"坊"},
{"zip_code":"0284306","kana_pref":"ｲﾜﾃｹﾝ","kana_city":"ｲﾜﾃｸﾞﾝｲﾜﾃﾏﾁ","kana_address":"ﾐﾄﾞｳ","pref":"岩手県","city":"岩手郡岩手町","address":"御堂"},
{"zip_code":"0283300","kana_pref":"ｲﾜﾃｹﾝ","kana_city":"ｼﾜｸﾞﾝｼﾜﾁｮｳ","kana_address":"","pref":"岩手県","city":"紫波郡紫波町","address":""},
{"zip_code":"0283533","kana_pref":"ｲﾜﾃｹﾝ","kana_city":"ｼﾜｸﾞﾝｼﾜﾁｮｳ","kana_address":"ｱｶｻﾞﾜ","pref":"岩手県","city":"紫波郡紫波町","address":"赤沢"},
{"zip_code":"0283451","kana_pref":"ｲﾜﾃｹﾝ","kana_city":"ｼﾜｸﾞﾝｼﾜﾁｮｳ","kana_address":"ｲﾅﾌｼﾞ","pref":"岩手県","city":"紫波郡紫波町","address":"稲藤"},
{"zip_code":"0283311","kana_pref":"ｲﾜﾃｹﾝ","kana_city":"ｼﾜｸﾞﾝｼﾜﾁｮｳ","kana_address":"ｲﾇﾌﾞﾁ","pref":"岩手県","city":"紫波郡紫波町","address":"犬渕"},
{"zip_code":"0283312","kana_pref":"ｲﾜﾃｹﾝ","kana_city":"ｼﾜｸﾞﾝｼﾜﾁｮｳ","kana_address":"ｲﾇﾎｴﾓﾘ","pref":"岩手県","city":"紫波郡紫波町","address":"犬吠森"},
{"zip_code":"0283321","kana_pref":"ｲﾜﾃｹﾝ","kana_city":"ｼﾜｸﾞﾝｼﾜﾁｮｳ","kana_address":"ｴｶﾞﾗ","pref":"岩手県","city":"紫波郡紫波町","address":"江柄"},
{"zip_code":"0283314","kana_pref":"ｲﾜﾃｹﾝ","kana_city":"ｼﾜｸﾞﾝｼﾜﾁｮｳ","kana_address":"ｵｵﾏｷ","pref":"岩手県","city":"紫波郡紫波町","address":"大巻"},
{"zip_code":"0283452","kana_pref":"ｲﾜﾃｹﾝ","kana_city":"ｼﾜｸﾞﾝｼﾜﾁｮｳ","kana_address":"ｶﾀﾖｾ","pref":"岩手県","city":"紫波郡紫波町","address":"片寄"},
{"zip_code":"0283441","kana_pref":"ｲﾜﾃｹﾝ","kana_city":"ｼﾜｸﾞﾝｼﾜﾁｮｳ","kana_address":"ｶﾐﾋﾗｻﾜ","pref":"岩手県","city":"紫波郡紫波町","address":"上平沢"},
{"zip_code":"0283443","kana_pref":"ｲﾜﾃｹﾝ","kana_city":"ｼﾜｸﾞﾝｼﾜﾁｮｳ","kana_address":"ｶﾐﾏﾂﾓﾄ","pref":"岩手県","city":"紫波郡紫波町","address":"上松本"},
{"zip_code":"0283323","kana_pref":"ｲﾜﾃｹﾝ","kana_city":"ｼﾜｸﾞﾝｼﾜﾁｮｳ","kana_address":"ｷﾀｻﾞﾜ","pref":"岩手県","city":"紫波郡紫波町","address":"北沢"},
{"zip_code":"0283536","kana_pref":"ｲﾜﾃｹﾝ","kana_city":"ｼﾜｸﾞﾝｼﾜﾁｮｳ","kana_address":"ｷﾀﾀﾞ","pref":"岩手県","city":"紫波郡紫波町","address":"北田"},
{"zip_code":"0283309","kana_pref":"ｲﾜﾃｹﾝ","kana_city":"ｼﾜｸﾞﾝｼﾜﾁｮｳ","kana_address":"ｷﾀﾋﾂﾞﾒ","pref":"岩手県","city":"紫波郡紫波町","address":"北日詰"},
{"zip_code":"0283325","kana_pref":"ｲﾜﾃｹﾝ","kana_city":"ｼﾜｸﾞﾝｼﾜﾁｮｳ","kana_address":"ｸｻｶﾘ","pref":"岩手県","city":"紫波郡紫波町","address":"草刈"},
{"zip_code":"0283303","kana_pref":"ｲﾜﾃｹﾝ","kana_city":"ｼﾜｸﾞﾝｼﾜﾁｮｳ","kana_address":"ｺｳｽｲｼﾞ","pref":"岩手県","city":"紫波郡紫波町","address":"高水寺"},
{"zip_code":"0283444","kana_pref":"ｲﾜﾃｹﾝ","kana_city":"ｼﾜｸﾞﾝｼﾜﾁｮｳ","kana_address":"ｺﾔｼｷ","pref":"岩手県","city":"紫波郡紫波町","address":"小屋敷"},
{"zip_code":"0283307","kana_pref":"ｲﾜﾃｹﾝ","kana_city":"ｼﾜｸﾞﾝｼﾜﾁｮｳ","kana_address":"ｻｸﾗﾏﾁ","pref":"岩手県","city":"紫波郡紫波町","address":"桜町"},
{"zip_code":"0283316","kana_pref":"ｲﾜﾃｹﾝ","kana_city":"ｼﾜｸﾞﾝｼﾜﾁｮｳ","kana_address":"ｻﾋﾅｲ","pref":"岩手県","city":"紫波郡紫波町","address":"佐比内"},
{"zip_code":"0283446","kana_pref":"ｲﾜﾃｹﾝ","kana_city":"ｼﾜｸﾞﾝｼﾜﾁｮｳ","kana_address":"ｼﾓﾏﾂﾓﾄ","pref":"岩手県","city":"紫波郡紫波町","address":"下松本"},
{"zip_code":"0283318","kana_pref":"ｲﾜﾃｹﾝ","kana_city":"ｼﾜｸﾞﾝｼﾜﾁｮｳ","kana_address":"ｼﾜﾁｭｳｵｳｴｷﾏｴ","pref":"岩手県","city":"紫波郡紫波町","address":"紫波中央駅前"},
{"zip_code":"0283302","kana_pref":"ｲﾜﾃｹﾝ","kana_city":"ｼﾜｸﾞﾝｼﾜﾁｮｳ","kana_address":"ｼﾞﾝｶﾞｵｶ","pref":"岩手県","city":"紫波郡紫波町","address":"陣ケ岡"},
{"zip_code":"0283453","kana_pref":"ｲﾜﾃｹﾝ","kana_city":"ｼﾜｸﾞﾝｼﾜﾁｮｳ","kana_address":"ﾂﾁﾀﾞﾃ","pref":"岩手県","city":"紫波郡紫波町","address":"土舘"},
{"zip_code":"0283535","kana_pref":"ｲﾜﾃｹﾝ","kana_city":"ｼﾜｸﾞﾝｼﾜﾁｮｳ","kana_address":"ﾄｵﾔﾏ","pref":"岩手県","city":"紫波郡紫波町","address":"遠山"},
{"zip_code":"0283322","kana_pref":"ｲﾜﾃｹﾝ","kana_city":"ｼﾜｸﾞﾝｼﾜﾁｮｳ","kana_address":"ﾄﾁﾅｲ","pref":"岩手県","city":"紫波郡紫波町","address":"栃内"},
{"zip_code":"0283301","kana_pref":"ｲﾜﾃｹﾝ","kana_city":"ｼﾜｸﾞﾝｼﾜﾁｮｳ","kana_address":"ﾅｶｼﾞﾏ","pref":"岩手県","city":"紫波郡紫波町","address":"中島"},
{"zip_code":"0283326","kana_pref":"ｲﾜﾃｹﾝ","kana_city":"ｼﾜｸﾞﾝｼﾜﾁｮｳ","kana_address":"ﾆｼﾅｶﾞｵｶ","pref":"岩手県","city":"紫波郡紫波町","address":"西長岡"},
{"zip_code":"0283324","kana_pref":"ｲﾜﾃｹﾝ","kana_city":"ｼﾜｸﾞﾝｼﾜﾁｮｳ","kana_address":"ﾋｶﾞｼﾅｶﾞｵｶ","pref":"岩手県","city":"紫波郡紫波町","address":"東長岡"},
{"zip_code":"0283315","kana_pref":"ｲﾜﾃｹﾝ","kana_city":"ｼﾜｸﾞﾝｼﾜﾁｮｳ","kana_address":"ﾋｺﾍﾞ","pref":"岩手県","city":"紫波郡紫波町","address":"彦部"},
{"zip_code":"0283305","kana_pref":"ｲﾜﾃｹﾝ","kana_city":"ｼﾜｸﾞﾝｼﾜﾁｮｳ","kana_address":"ﾋﾂﾞﾒ","pref":"岩手県","city":"紫波郡紫波町","address":"日詰"},
{"zip_code":"0283306","kana_pref":"ｲﾜﾃｹﾝ","kana_city":"ｼﾜｸﾞﾝｼﾜﾁｮｳ","kana_address":"ﾋﾂﾞﾒﾆｼ","pref":"岩手県","city":"紫波郡紫波町","address":"日詰西"},
{"zip_code":"0283308","kana_pref":"ｲﾜﾃｹﾝ","kana_city":"ｼﾜｸﾞﾝｼﾜﾁｮｳ","kana_address":"ﾋﾗｻﾜ","pref":"岩手県","city":"紫波郡紫波町","address":"平沢"},
{"zip_code":"0283304","kana_pref":"ｲﾜﾃｹﾝ","kana_city":"ｼﾜｸﾞﾝｼﾜﾁｮｳ","kana_address":"ﾌﾂｶﾏﾁ","pref":"岩手県","city":"紫波郡紫波町","address":"二日町"},
{"zip_code":"0283532","kana_pref":"ｲﾜﾃｹﾝ","kana_city":"ｼﾜｸﾞﾝｼﾜﾁｮｳ","kana_address":"ﾌﾅｸﾎﾞ","pref":"岩手県","city":"紫波郡紫波町","address":"船久保"},
{"zip_code":"0283313","kana_pref":"ｲﾜﾃｹﾝ","kana_city":"ｼﾜｸﾞﾝｼﾜﾁｮｳ","kana_address":"ﾎｼﾔﾏ","pref":"岩手県","city":"紫波郡紫波町","address":"星山"},
{"zip_code":"0283442","kana_pref":"ｲﾜﾃｹﾝ","kana_city":"ｼﾜｸﾞﾝｼﾜﾁｮｳ","kana_address":"ﾏｽｻﾞﾜ","pref":"岩手県","city":"紫波郡紫波町","address":"升沢"},
{"zip_code":"0283445","kana_pref":"ｲﾜﾃｹﾝ","kana_city":"ｼﾜｸﾞﾝｼﾜﾁｮｳ","kana_address":"ﾐﾅﾐﾃﾞﾝﾎﾞｳｼﾞ","pref":"岩手県","city":"紫波郡紫波町","address":"南伝法寺"},
{"zip_code":"0283317","kana_pref":"ｲﾜﾃｹﾝ","kana_city":"ｼﾜｸﾞﾝｼﾜﾁｮｳ","kana_address":"ﾐﾅﾐﾋﾂﾞﾒ","pref":"岩手県","city":"紫波郡紫波町","address":"南日詰"},
{"zip_code":"0283447","kana_pref":"ｲﾜﾃｹﾝ","kana_city":"ｼﾜｸﾞﾝｼﾜﾁｮｳ","kana_address":"ﾐﾔﾃﾞ","pref":"岩手県","city":"紫波郡紫波町","address":"宮手"},
{"zip_code":"0283534","kana_pref":"ｲﾜﾃｹﾝ","kana_city":"ｼﾜｸﾞﾝｼﾜﾁｮｳ","kana_address":"ﾑﾗｻｷﾉ","pref":"岩手県","city":"紫波郡紫波町","address":"紫野"},
{"zip_code":"0283531","kana_pref":"ｲﾜﾃｹﾝ","kana_city":"ｼﾜｸﾞﾝｼﾜﾁｮｳ","kana_address":"ﾔﾏﾔ","pref":"岩手県","city":"紫波郡紫波町","address":"山屋"},
{"zip_code":"0283448","kana_pref":"ｲﾜﾃｹﾝ","kana_city":"ｼﾜｸﾞﾝｼﾜﾁｮｳ","kana_address":"ﾖｼﾐｽﾞ","pref":"岩手県","city":"紫波郡紫波町","address":"吉水"},
{"zip_code":"0283600","kana_pref":"ｲﾜﾃｹﾝ","kana_city":"ｼﾜｸﾞﾝﾔﾊﾊﾞﾁｮｳ","kana_address":"","pref":"岩手県","city":"紫波郡矢巾町","address":""},
{"zip_code":"0283605","kana_pref":"ｲﾜﾃｹﾝ","kana_city":"ｼﾜｸﾞﾝﾔﾊﾊﾞﾁｮｳ","kana_address":"ｱｲﾉﾉ","pref":"岩手県","city":"紫波郡矢巾町","address":"間野々"},
{"zip_code":"0283611","kana_pref":"ｲﾜﾃｹﾝ","kana_city":"ｼﾜｸﾞﾝﾔﾊﾊﾞﾁｮｳ","kana_address":"ｱｶﾊﾞﾔｼ","pref":"岩手県","city":"紫波郡矢巾町","address":"赤林"},
{"zip_code":"0283626","kana_pref":"ｲﾜﾃｹﾝ","kana_city":"ｼﾜｸﾞﾝﾔﾊﾊﾞﾁｮｳ","kana_address":"ｲﾜｼﾐｽﾞ","pref":"岩手県","city":"紫波郡矢巾町","address":"岩清水"},
{"zip_code":"0283617","kana_pref":"ｲﾜﾃｹﾝ","kana_city":"ｼﾜｸﾞﾝﾔﾊﾊﾞﾁｮｳ","kana_address":"ｵｵﾀ","pref":"岩手県","city":"紫波郡矢巾町","address":"太田"},
{"zip_code":"0283622","kana_pref":"ｲﾜﾃｹﾝ","kana_city":"ｼﾜｸﾞﾝﾔﾊﾊﾞﾁｮｳ","kana_address":"ｶﾐﾔﾂｷﾞ","pref":"岩手県","city":"紫波郡矢巾町","address":"上矢次"},
{"zip_code":"0283608","kana_pref":"ｲﾜﾃｹﾝ","kana_city":"ｼﾜｸﾞﾝﾔﾊﾊﾞﾁｮｳ","kana_address":"ｷﾀｺｵﾘﾔﾏ","pref":"岩手県","city":"紫波郡矢巾町","address":"北郡山"},
{"zip_code":"0283624","kana_pref":"ｲﾜﾃｹﾝ","kana_city":"ｼﾜｸﾞﾝﾔﾊﾊﾞﾁｮｳ","kana_address":"ｷﾀﾃﾞﾝﾎﾟｳｼﾞ","pref":"岩手県","city":"紫波郡矢巾町","address":"北伝法寺"},
{"zip_code":"0283613","kana_pref":"ｲﾜﾃｹﾝ","kana_city":"ｼﾜｸﾞﾝﾔﾊﾊﾞﾁｮｳ","kana_address":"ｷﾀﾔﾊﾊﾞ","pref":"岩手県","city":"紫波郡矢巾町","address":"北矢幅"},
{"zip_code":"0283623","kana_pref":"ｲﾜﾃｹﾝ","kana_city":"ｼﾜｸﾞﾝﾔﾊﾊﾞﾁｮｳ","kana_address":"ｹﾑﾔﾏ","pref":"岩手県","city":"紫波郡矢巾町","address":"煙山"},
{"zip_code":"0283607","kana_pref":"ｲﾜﾃｹﾝ","kana_city":"ｼﾜｸﾞﾝﾔﾊﾊﾞﾁｮｳ","kana_address":"ｺｳｽｲｼﾞ","pref":"岩手県","city":"紫波郡矢巾町","address":"高水寺"},
{"zip_code":"0283612","kana_pref":"ｲﾜﾃｹﾝ","kana_city":"ｼﾜｸﾞﾝﾔﾊﾊﾞﾁｮｳ","kana_address":"ｼﾓﾔﾂｷﾞ","pref":"岩手県","city":"紫波郡矢巾町","address":"下矢次"},
{"zip_code":"0283616","kana_pref":"ｲﾜﾃｹﾝ","kana_city":"ｼﾜｸﾞﾝﾔﾊﾊﾞﾁｮｳ","kana_address":"ｼﾗｻﾜ","pref":"岩手県","city":"紫波郡矢巾町","address":"白沢"},
{"zip_code":"0283601","kana_pref":"ｲﾜﾃｹﾝ","kana_city":"ｼﾜｸﾞﾝﾔﾊﾊﾞﾁｮｳ","kana_address":"ﾀｶﾀ","pref":"岩手県","city":"紫波郡矢巾町","address":"高田"},
{"zip_code":"0283606","kana_pref":"ｲﾜﾃｹﾝ","kana_city":"ｼﾜｸﾞﾝﾔﾊﾊﾞﾁｮｳ","kana_address":"ﾂﾁﾊｼ","pref":"岩手県","city":"紫波郡矢巾町","address":"土橋"},
{"zip_code":"0283603","kana_pref":"ｲﾜﾃｹﾝ","kana_city":"ｼﾜｸﾞﾝﾔﾊﾊﾞﾁｮｳ","kana_address":"ﾆｼﾄｸﾀ","pref":"岩手県","city":"紫波郡矢巾町","address":"西徳田"},
{"zip_code":"0283604","kana_pref":"ｲﾜﾃｹﾝ","kana_city":"ｼﾜｸﾞﾝﾔﾊﾊﾞﾁｮｳ","kana_address":"ﾋｶﾞｼﾄｸﾀ","pref":"岩手県","city":"紫波郡矢巾町","address":"東徳田"},
{"zip_code":"0283621","kana_pref":"ｲﾜﾃｹﾝ","kana_city":"ｼﾜｸﾞﾝﾔﾊﾊﾞﾁｮｳ","kana_address":"ﾋﾛﾐﾔｻﾜ","pref":"岩手県","city":"紫波郡矢巾町","address":"広宮沢"},
{"zip_code":"0283602","kana_pref":"ｲﾜﾃｹﾝ","kana_city":"ｼﾜｸﾞﾝﾔﾊﾊﾞﾁｮｳ","kana_address":"ﾌｼﾞｻﾜ","pref":"岩手県","city":"紫波郡矢巾町","address":"藤沢"},
{"zip_code":"0283614","kana_pref":"ｲﾜﾃｹﾝ","kana_city":"ｼﾜｸﾞﾝﾔﾊﾊﾞﾁｮｳ","kana_address":"ﾏﾀﾍﾞｴｼﾝﾃﾞﾝ","pref":"岩手県","city":"紫波郡矢巾町","address":"又兵エ新田"},
{"zip_code":"0283615","kana_pref":"ｲﾜﾃｹﾝ","kana_city":"ｼﾜｸﾞﾝﾔﾊﾊﾞﾁｮｳ","kana_address":"ﾐﾅﾐﾔﾊﾊﾞ","pref":"岩手県","city":"紫波郡矢巾町","address":"南矢幅"},
{"zip_code":"0283625","kana_pref":"ｲﾜﾃｹﾝ","kana_city":"ｼﾜｸﾞﾝﾔﾊﾊﾞﾁｮｳ","kana_address":"ﾑﾛｵｶ","pref":"岩手県","city":"紫波郡矢巾町","address":"室岡"},
{"zip_code":"0283627","kana_pref":"ｲﾜﾃｹﾝ","kana_city":"ｼﾜｸﾞﾝﾔﾊﾊﾞﾁｮｳ","kana_address":"ﾜﾐ","pref":"岩手県","city":"紫波郡矢巾町","address":"和味"},
{"zip_code":"0281100","kana_pref":"ｲﾜﾃｹﾝ","kana_city":"ｶﾐﾍｲｸﾞﾝｵｵﾂﾁﾁｮｳ","kana_address":"","pref":"岩手県","city":"上閉伊郡大槌町","address":""},
{"zip_code":"0281102","kana_pref":"ｲﾜﾃｹﾝ","kana_city":"ｶﾐﾍｲｸﾞﾝｵｵﾂﾁﾁｮｳ","kana_address":"ｱｶﾊﾏ","pref":"岩手県","city":"上閉伊郡大槌町","address":"赤浜"},
{"zip_code":"0281105","kana_pref":"ｲﾜﾃｹﾝ","kana_city":"ｶﾐﾍｲｸﾞﾝｵｵﾂﾁﾁｮｳ","kana_address":"ｱﾝﾄﾞ","pref":"岩手県","city":"上閉伊郡大槌町","address":"安渡"},
{"zip_code":"0281131","kana_pref":"ｲﾜﾃｹﾝ","kana_city":"ｶﾐﾍｲｸﾞﾝｵｵﾂﾁﾁｮｳ","kana_address":"ｵｵﾂﾁ","pref":"岩手県","city":"上閉伊郡大槌町","address":"大槌"},
{"zip_code":"0281112","kana_pref":"ｲﾜﾃｹﾝ","kana_city":"ｶﾐﾍｲｸﾞﾝｵｵﾂﾁﾁｮｳ","kana_address":"ｵｵﾏﾁ","pref":"岩手県","city":"上閉伊郡大槌町","address":"大町"},
{"zip_code":"0281132","kana_pref":"ｲﾜﾃｹﾝ","kana_city":"ｶﾐﾍｲｸﾞﾝｵｵﾂﾁﾁｮｳ","kana_address":"ｵｶﾞｸﾁ","pref":"岩手県","city":"上閉伊郡大槌町","address":"大ケ口"},
{"zip_code":"0281133","kana_pref":"ｲﾜﾃｹﾝ","kana_city":"ｶﾐﾍｲｸﾞﾝｵｵﾂﾁﾁｮｳ","kana_address":"ｶﾈｻﾞﾜ","pref":"岩手県","city":"上閉伊郡大槌町","address":"金沢"},
{"zip_code":"0281115","kana_pref":"ｲﾜﾃｹﾝ","kana_city":"ｶﾐﾍｲｸﾞﾝｵｵﾂﾁﾁｮｳ","kana_address":"ｶﾐﾁｮｳ","pref":"岩手県","city":"上閉伊郡大槌町","address":"上町"},
{"zip_code":"0281101","kana_pref":"ｲﾜﾃｹﾝ","kana_city":"ｶﾐﾍｲｸﾞﾝｵｵﾂﾁﾁｮｳ","kana_address":"ｷﾘｷﾘ","pref":"岩手県","city":"上閉伊郡大槌町","address":"吉里吉里"},
{"zip_code":"0281121","kana_pref":"ｲﾜﾃｹﾝ","kana_city":"ｶﾐﾍｲｸﾞﾝｵｵﾂﾁﾁｮｳ","kana_address":"ｺﾂﾞﾁ","pref":"岩手県","city":"上閉伊郡大槌町","address":"小鎚"},
{"zip_code":"0281114","kana_pref":"ｲﾜﾃｹﾝ","kana_city":"ｶﾐﾍｲｸﾞﾝｵｵﾂﾁﾁｮｳ","kana_address":"ｻｶｴﾁｮｳ","pref":"岩手県","city":"上閉伊郡大槌町","address":"栄町"},
{"zip_code":"0281122","kana_pref":"ｲﾜﾃｹﾝ","kana_city":"ｶﾐﾍｲｸﾞﾝｵｵﾂﾁﾁｮｳ","kana_address":"ｻｸﾗｷﾞﾁｮｳ","pref":"岩手県","city":"上閉伊郡大槌町","address":"桜木町"},
{"zip_code":"0281111","kana_pref":"ｲﾜﾃｹﾝ","kana_city":"ｶﾐﾍｲｸﾞﾝｵｵﾂﾁﾁｮｳ","kana_address":"ｼﾝﾁｮｳ","pref":"岩手県","city":"上閉伊郡大槌町","address":"新町"},
{"zip_code":"0281104","kana_pref":"ｲﾜﾃｹﾝ","kana_city":"ｶﾐﾍｲｸﾞﾝｵｵﾂﾁﾁｮｳ","kana_address":"ｼﾝﾐﾅﾄﾏﾁ","pref":"岩手県","city":"上閉伊郡大槌町","address":"新港町"},
{"zip_code":"0281117","kana_pref":"ｲﾜﾃｹﾝ","kana_city":"ｶﾐﾍｲｸﾞﾝｵｵﾂﾁﾁｮｳ","kana_address":"ｽｴﾋﾛﾁｮｳ","pref":"岩手県","city":"上閉伊郡大槌町","address":"末広町"},
{"zip_code":"0281113","kana_pref":"ｲﾜﾃｹﾝ","kana_city":"ｶﾐﾍｲｸﾞﾝｵｵﾂﾁﾁｮｳ","kana_address":"ｽｶﾁｮｳ","pref":"岩手県","city":"上閉伊郡大槌町","address":"須賀町"},
{"zip_code":"0281116","kana_pref":"ｲﾜﾃｹﾝ","kana_city":"ｶﾐﾍｲｸﾞﾝｵｵﾂﾁﾁｮｳ","kana_address":"ﾎﾝﾁｮｳ","pref":"岩手県","city":"上閉伊郡大槌町","address":"本町"},
{"zip_code":"0281103","kana_pref":"ｲﾜﾃｹﾝ","kana_city":"ｶﾐﾍｲｸﾞﾝｵｵﾂﾁﾁｮｳ","kana_address":"ﾐﾅﾄﾏﾁ","pref":"岩手県","city":"上閉伊郡大槌町","address":"港町"},
{"zip_code":"0281300","kana_pref":"ｲﾜﾃｹﾝ","kana_city":"ｼﾓﾍｲｸﾞﾝﾔﾏﾀﾞﾏﾁ","kana_address":"","pref":"岩手県","city":"下閉伊郡山田町","address":""},
{"zip_code":"0281303","kana_pref":"ｲﾜﾃｹﾝ","kana_city":"ｼﾓﾍｲｸﾞﾝﾔﾏﾀﾞﾏﾁ","kana_address":"ｱﾗｶﾜ","pref":"岩手県","city":"下閉伊郡山田町","address":"荒川"},
{"zip_code":"0281352","kana_pref":"ｲﾜﾃｹﾝ","kana_city":"ｼﾓﾍｲｸﾞﾝﾔﾏﾀﾞﾏﾁ","kana_address":"ｲｲｵｶ","pref":"岩手県","city":"下閉伊郡山田町","address":"飯岡"},
{"zip_code":"0281301","kana_pref":"ｲﾜﾃｹﾝ","kana_city":"ｼﾓﾍｲｸﾞﾝﾔﾏﾀﾞﾏﾁ","kana_address":"ｲｼﾄｳｹﾞ","pref":"岩手県","city":"下閉伊郡山田町","address":"石峠"},
{"zip_code":"0281311","kana_pref":"ｲﾜﾃｹﾝ","kana_city":"ｼﾓﾍｲｸﾞﾝﾔﾏﾀﾞﾏﾁ","kana_address":"ｵｵｻﾜ","pref":"岩手県","city":"下閉伊郡山田町","address":"大沢"},
{"zip_code":"0281361","kana_pref":"ｲﾜﾃｹﾝ","kana_city":"ｼﾓﾍｲｸﾞﾝﾔﾏﾀﾞﾏﾁ","kana_address":"ｵﾘｶｻ","pref":"岩手県","city":"下閉伊郡山田町","address":"織笠"},
{"zip_code":"0281342","kana_pref":"ｲﾜﾃｹﾝ","kana_city":"ｼﾓﾍｲｸﾞﾝﾔﾏﾀﾞﾏﾁ","kana_address":"ｶﾜﾑｶｲﾁｮｳ","pref":"岩手県","city":"下閉伊郡山田町","address":"川向町"},
{"zip_code":"0281331","kana_pref":"ｲﾜﾃｹﾝ","kana_city":"ｼﾓﾍｲｸﾞﾝﾔﾏﾀﾞﾏﾁ","kana_address":"ｷﾀﾊﾏﾁｮｳ","pref":"岩手県","city":"下閉伊郡山田町","address":"北浜町"},
{"zip_code":"0281333","kana_pref":"ｲﾜﾃｹﾝ","kana_city":"ｼﾓﾍｲｸﾞﾝﾔﾏﾀﾞﾏﾁ","kana_address":"ｺｳﾗｸﾁｮｳ","pref":"岩手県","city":"下閉伊郡山田町","address":"後楽町"},
{"zip_code":"0281343","kana_pref":"ｲﾜﾃｹﾝ","kana_city":"ｼﾓﾍｲｸﾞﾝﾔﾏﾀﾞﾏﾁ","kana_address":"ｻｶｲﾀﾞﾁｮｳ","pref":"岩手県","city":"下閉伊郡山田町","address":"境田町"},
{"zip_code":"0281332","kana_pref":"ｲﾜﾃｹﾝ","kana_city":"ｼﾓﾍｲｸﾞﾝﾔﾏﾀﾞﾏﾁ","kana_address":"ﾁｭｳｵｳﾁｮｳ","pref":"岩手県","city":"下閉伊郡山田町","address":"中央町"},
{"zip_code":"0281302","kana_pref":"ｲﾜﾃｹﾝ","kana_city":"ｼﾓﾍｲｸﾞﾝﾔﾏﾀﾞﾏﾁ","kana_address":"ﾄﾖﾏﾈ","pref":"岩手県","city":"下閉伊郡山田町","address":"豊間根"},
{"zip_code":"0281351","kana_pref":"ｲﾜﾃｹﾝ","kana_city":"ｼﾓﾍｲｸﾞﾝﾔﾏﾀﾞﾏﾁ","kana_address":"ﾅｶﾞｻｷ","pref":"岩手県","city":"下閉伊郡山田町","address":"長崎"},
{"zip_code":"0281341","kana_pref":"ｲﾜﾃｹﾝ","kana_city":"ｼﾓﾍｲｸﾞﾝﾔﾏﾀﾞﾏﾁ","kana_address":"ﾊﾁﾏﾝﾁｮｳ","pref":"岩手県","city":"下閉伊郡山田町","address":"八幡町"},
{"zip_code":"0281371","kana_pref":"ｲﾜﾃｹﾝ","kana_city":"ｼﾓﾍｲｸﾞﾝﾔﾏﾀﾞﾏﾁ","kana_address":"ﾌﾅｺｼ","pref":"岩手県","city":"下閉伊郡山田町","address":"船越"},
{"zip_code":"0281321","kana_pref":"ｲﾜﾃｹﾝ","kana_city":"ｼﾓﾍｲｸﾞﾝﾔﾏﾀﾞﾏﾁ","kana_address":"ﾔﾏﾀﾞ","pref":"岩手県","city":"下閉伊郡山田町","address":"山田"},
{"zip_code":"0282231","kana_pref":"ｲﾜﾃｹﾝ","kana_city":"ｼﾓﾍｲｸﾞﾝｲﾜｲｽﾞﾐﾁｮｳ","kana_address":"ｱｻﾅｲ","pref":"岩手県","city":"下閉伊郡岩泉町","address":"浅内"},
{"zip_code":"0285642","kana_pref":"ｲﾜﾃｹﾝ","kana_city":"ｼﾓﾍｲｸﾞﾝｲﾜｲｽﾞﾐﾁｮｳ","kana_address":"ｱﾅｻﾞﾜ","pref":"岩手県","city":"下閉伊郡岩泉町","address":"穴沢"},
{"zip_code":"0282232","kana_pref":"ｲﾜﾃｹﾝ","kana_city":"ｼﾓﾍｲｸﾞﾝｲﾜｲｽﾞﾐﾁｮｳ","kana_address":"ｵｵｶﾜ","pref":"岩手県","city":"下閉伊郡岩泉町","address":"大川"},
{"zip_code":"0285641","kana_pref":"ｲﾜﾃｹﾝ","kana_city":"ｼﾓﾍｲｸﾞﾝｲﾜｲｽﾞﾐﾁｮｳ","kana_address":"ｶﾄﾞ","pref":"岩手県","city":"下閉伊郡岩泉町","address":"門"},
{"zip_code":"0285633","kana_pref":"ｲﾜﾃｹﾝ","kana_city":"ｼﾓﾍｲｸﾞﾝｲﾜｲｽﾞﾐﾁｮｳ","kana_address":"ｶﾏﾂﾀ","pref":"岩手県","city":"下閉伊郡岩泉町","address":"釜津田"},
{"zip_code":"0282233","kana_pref":"ｲﾜﾃｹﾝ","kana_city":"ｼﾓﾍｲｸﾞﾝｲﾜｲｽﾞﾐﾁｮｳ","kana_address":"ｶﾏﾂﾀ","pref":"岩手県","city":"下閉伊郡岩泉町","address":"釜津田"},
{"zip_code":"0285643","kana_pref":"ｲﾜﾃｹﾝ","kana_city":"ｼﾓﾍｲｸﾞﾝｲﾜｲｽﾞﾐﾁｮｳ","kana_address":"ﾎﾛﾜﾀ","pref":"岩手県","city":"下閉伊郡岩泉町","address":"袰綿"},
{"zip_code":"0288400","kana_pref":"ｲﾜﾃｹﾝ","kana_city":"ｼﾓﾍｲｸﾞﾝﾀﾉﾊﾀﾑﾗ","kana_address":"","pref":"岩手県","city":"下閉伊郡田野畑村","address":""},
{"zip_code":"0288402","kana_pref":"ｲﾜﾃｹﾝ","kana_city":"ｼﾓﾍｲｸﾞﾝﾀﾉﾊﾀﾑﾗ","kana_address":"ｱｹﾄ","pref":"岩手県","city":"下閉伊郡田野畑村","address":"明戸"},
{"zip_code":"0288401","kana_pref":"ｲﾜﾃｹﾝ","kana_city":"ｼﾓﾍｲｸﾞﾝﾀﾉﾊﾀﾑﾗ","kana_address":"ｲﾁﾉﾜﾀﾘ","pref":"岩手県","city":"下閉伊郡田野畑村","address":"一の渡"},
{"zip_code":"0288401","kana_pref":"ｲﾜﾃｹﾝ","kana_city":"ｼﾓﾍｲｸﾞﾝﾀﾉﾊﾀﾑﾗ","kana_address":"ｴｿﾞﾓﾘ","pref":"岩手県","city":"下閉伊郡田野畑村","address":"蝦夷森"},
{"zip_code":"0288405","kana_pref":"ｲﾜﾃｹﾝ","kana_city":"ｼﾓﾍｲｸﾞﾝﾀﾉﾊﾀﾑﾗ","kana_address":"ｵｵｱｼ","pref":"岩手県","city":"下閉伊郡田野畑村","address":"大芦"},
{"zip_code":"0288401","kana_pref":"ｲﾜﾃｹﾝ","kana_city":"ｼﾓﾍｲｸﾞﾝﾀﾉﾊﾀﾑﾗ","kana_address":"ｵｵﾓﾘ","pref":"岩手県","city":"下閉伊郡田野畑村","address":"大森"},
{"zip_code":"0288401","kana_pref":"ｲﾜﾃｹﾝ","kana_city":"ｼﾓﾍｲｸﾞﾝﾀﾉﾊﾀﾑﾗ","kana_address":"ｵｶﾝﾖｳ","pref":"岩手県","city":"下閉伊郡田野畑村","address":"尾肝要"},
{"zip_code":"0288401","kana_pref":"ｲﾜﾃｹﾝ","kana_city":"ｼﾓﾍｲｸﾞﾝﾀﾉﾊﾀﾑﾗ","kana_address":"ｵｸﾁ","pref":"岩手県","city":"下閉伊郡田野畑村","address":"奥地"},
{"zip_code":"0288401","kana_pref":"ｲﾜﾃｹﾝ","kana_city":"ｼﾓﾍｲｸﾞﾝﾀﾉﾊﾀﾑﾗ","kana_address":"ｵｸﾁﾑｶｲ","pref":"岩手県","city":"下閉伊郡田野畑村","address":"奥地向"},
{"zip_code":"0288401","kana_pref":"ｲﾜﾃｹﾝ","kana_city":"ｼﾓﾍｲｸﾞﾝﾀﾉﾊﾀﾑﾗ","kana_address":"ｶﾔｶﾘｻﾜ","pref":"岩手県","city":"下閉伊郡田野畑村","address":"茅刈沢"},
{"zip_code":"0288407","kana_pref":"ｲﾜﾃｹﾝ","kana_city":"ｼﾓﾍｲｸﾞﾝﾀﾉﾊﾀﾑﾗ","kana_address":"ｶﾜﾀﾞｲ","pref":"岩手県","city":"下閉伊郡田野畑村","address":"川平"},
{"zip_code":"0288402","kana_pref":"ｲﾜﾃｹﾝ","kana_city":"ｼﾓﾍｲｸﾞﾝﾀﾉﾊﾀﾑﾗ","kana_address":"ｷﾀﾔﾏ","pref":"岩手県","city":"下閉伊郡田野畑村","address":"北山"},
{"zip_code":"0288405","kana_pref":"ｲﾜﾃｹﾝ","kana_city":"ｼﾓﾍｲｸﾞﾝﾀﾉﾊﾀﾑﾗ","kana_address":"ｷﾘｳｼ","pref":"岩手県","city":"下閉伊郡田野畑村","address":"切牛"},
{"zip_code":"0288406","kana_pref":"ｲﾜﾃｹﾝ","kana_city":"ｼﾓﾍｲｸﾞﾝﾀﾉﾊﾀﾑﾗ","kana_address":"ｻﾙﾔﾏ","pref":"岩手県","city":"下閉伊郡田野畑村","address":"猿山"},
{"zip_code":"0288404","kana_pref":"ｲﾜﾃｹﾝ","kana_city":"ｼﾓﾍｲｸﾞﾝﾀﾉﾊﾀﾑﾗ","kana_address":"ｼﾏﾉｺｼ","pref":"岩手県","city":"下閉伊郡田野畑村","address":"島越"},
{"zip_code":"0288407","kana_pref":"ｲﾜﾃｹﾝ","kana_city":"ｼﾓﾍｲｸﾞﾝﾀﾉﾊﾀﾑﾗ","kana_address":"ｽｹﾞﾉｸﾎﾞ","pref":"岩手県","city":"下閉伊郡田野畑村","address":"菅窪"},
{"zip_code":"0288401","kana_pref":"ｲﾜﾃｹﾝ","kana_city":"ｼﾓﾍｲｸﾞﾝﾀﾉﾊﾀﾑﾗ","kana_address":"ｽｺﾞｳ","pref":"岩手県","city":"下閉伊郡田野畑村","address":"巣合"},
{"zip_code":"0288401","kana_pref":"ｲﾜﾃｹﾝ","kana_city":"ｼﾓﾍｲｸﾞﾝﾀﾉﾊﾀﾑﾗ","kana_address":"ｾﾝｼﾞｮｳ","pref":"岩手県","city":"下閉伊郡田野畑村","address":"千丈"},
{"zip_code":"0288401","kana_pref":"ｲﾜﾃｹﾝ","kana_city":"ｼﾓﾍｲｸﾞﾝﾀﾉﾊﾀﾑﾗ","kana_address":"ｾﾝｿﾞｸ","pref":"岩手県","city":"下閉伊郡田野畑村","address":"千足"},
{"zip_code":"0288401","kana_pref":"ｲﾜﾃｹﾝ","kana_city":"ｼﾓﾍｲｸﾞﾝﾀﾉﾊﾀﾑﾗ","kana_address":"ﾀｷﾉｻﾜ","pref":"岩手県","city":"下閉伊郡田野畑村","address":"滝ノ沢"},
{"zip_code":"0288401","kana_pref":"ｲﾜﾃｹﾝ","kana_city":"ｼﾓﾍｲｸﾞﾝﾀﾉﾊﾀﾑﾗ","kana_address":"ﾀｼﾛ","pref":"岩手県","city":"下閉伊郡田野畑村","address":"田代"},
{"zip_code":"0288407","kana_pref":"ｲﾜﾃｹﾝ","kana_city":"ｼﾓﾍｲｸﾞﾝﾀﾉﾊﾀﾑﾗ","kana_address":"ﾀﾉﾊﾀ","pref":"岩手県","city":"下閉伊郡田野畑村","address":"田野畑"},
{"zip_code":"0288402","kana_pref":"ｲﾜﾃｹﾝ","kana_city":"ｼﾓﾍｲｸﾞﾝﾀﾉﾊﾀﾑﾗ","kana_address":"ﾂｸｴ","pref":"岩手県","city":"下閉伊郡田野畑村","address":"机"},
{"zip_code":"0288406","kana_pref":"ｲﾜﾃｹﾝ","kana_city":"ｼﾓﾍｲｸﾞﾝﾀﾉﾊﾀﾑﾗ","kana_address":"ﾄｼﾛﾍﾞ","pref":"岩手県","city":"下閉伊郡田野畑村","address":"年呂部"},
{"zip_code":"0288401","kana_pref":"ｲﾜﾃｹﾝ","kana_city":"ｼﾓﾍｲｸﾞﾝﾀﾉﾊﾀﾑﾗ","kana_address":"ﾅｶﾞﾈ","pref":"岩手県","city":"下閉伊郡田野畑村","address":"長根"},
{"zip_code":"0288406","kana_pref":"ｲﾜﾃｹﾝ","kana_city":"ｼﾓﾍｲｸﾞﾝﾀﾉﾊﾀﾑﾗ","kana_address":"ﾅﾅﾀｷ","pref":"岩手県","city":"下閉伊郡田野畑村","address":"七滝"},
{"zip_code":"0288401","kana_pref":"ｲﾜﾃｹﾝ","kana_city":"ｼﾓﾍｲｸﾞﾝﾀﾉﾊﾀﾑﾗ","kana_address":"ﾇﾏﾌﾞｸﾛ","pref":"岩手県","city":"下閉伊郡田野畑村","address":"沼袋"},
{"zip_code":"0288401","kana_pref":"ｲﾜﾃｹﾝ","kana_city":"ｼﾓﾍｲｸﾞﾝﾀﾉﾊﾀﾑﾗ","kana_address":"ﾈｷﾞﾁ","pref":"岩手県","city":"下閉伊郡田野畑村","address":"子木地"},
{"zip_code":"0288401","kana_pref":"ｲﾜﾃｹﾝ","kana_city":"ｼﾓﾍｲｸﾞﾝﾀﾉﾊﾀﾑﾗ","kana_address":"ﾈｷﾞﾔｼｷ","pref":"岩手県","city":"下閉伊郡田野畑村","address":"子木屋敷"},
{"zip_code":"0288401","kana_pref":"ｲﾜﾃｹﾝ","kana_city":"ｼﾓﾍｲｸﾞﾝﾀﾉﾊﾀﾑﾗ","kana_address":"ﾊｷﾞｭｳ","pref":"岩手県","city":"下閉伊郡田野畑村","address":"萩牛"},
{"zip_code":"0288405","kana_pref":"ｲﾜﾃｹﾝ","kana_city":"ｼﾓﾍｲｸﾞﾝﾀﾉﾊﾀﾑﾗ","kana_address":"ﾊﾏｲﾜｲｽﾞﾐ","pref":"岩手県","city":"下閉伊郡田野畑村","address":"浜岩泉"},
{"zip_code":"0288401","kana_pref":"ｲﾜﾃｹﾝ","kana_city":"ｼﾓﾍｲｸﾞﾝﾀﾉﾊﾀﾑﾗ","kana_address":"ﾋｶｹﾞ","pref":"岩手県","city":"下閉伊郡田野畑村","address":"日蔭"},
{"zip_code":"0288401","kana_pref":"ｲﾜﾃｹﾝ","kana_city":"ｼﾓﾍｲｸﾞﾝﾀﾉﾊﾀﾑﾗ","kana_address":"ﾋﾒﾏﾂ","pref":"岩手県","city":"下閉伊郡田野畑村","address":"姫松"},
{"zip_code":"0288405","kana_pref":"ｲﾜﾃｹﾝ","kana_city":"ｼﾓﾍｲｸﾞﾝﾀﾉﾊﾀﾑﾗ","kana_address":"ﾏｷﾞｻﾜ","pref":"岩手県","city":"下閉伊郡田野畑村","address":"真木沢"},
{"zip_code":"0288404","kana_pref":"ｲﾜﾃｹﾝ","kana_city":"ｼﾓﾍｲｸﾞﾝﾀﾉﾊﾀﾑﾗ","kana_address":"ﾏﾂﾏｴｻﾜ","pref":"岩手県","city":"下閉伊郡田野畑村","address":"松前沢"},
{"zip_code":"0288401","kana_pref":"ｲﾜﾃｹﾝ","kana_city":"ｼﾓﾍｲｸﾞﾝﾀﾉﾊﾀﾑﾗ","kana_address":"ﾐｻﾜ","pref":"岩手県","city":"下閉伊郡田野畑村","address":"三沢"},
{"zip_code":"0288405","kana_pref":"ｲﾜﾃｹﾝ","kana_city":"ｼﾓﾍｲｸﾞﾝﾀﾉﾊﾀﾑﾗ","kana_address":"ﾐﾅﾐｵｵｱｼ","pref":"岩手県","city":"下閉伊郡田野畑村","address":"南大芦"},
{"zip_code":"0288406","kana_pref":"ｲﾜﾃｹﾝ","kana_city":"ｼﾓﾍｲｸﾞﾝﾀﾉﾊﾀﾑﾗ","kana_address":"ﾑﾛﾊﾞ","pref":"岩手県","city":"下閉伊郡田野畑村","address":"室場"},
{"zip_code":"0288406","kana_pref":"ｲﾜﾃｹﾝ","kana_city":"ｼﾓﾍｲｸﾞﾝﾀﾉﾊﾀﾑﾗ","kana_address":"ﾒﾅ","pref":"岩手県","city":"下閉伊郡田野畑村","address":"目名"},
{"zip_code":"0288403","kana_pref":"ｲﾜﾃｹﾝ","kana_city":"ｼﾓﾍｲｸﾞﾝﾀﾉﾊﾀﾑﾗ","kana_address":"ﾗｶﾞ","pref":"岩手県","city":"下閉伊郡田野畑村","address":"羅賀"},
{"zip_code":"0288407","kana_pref":"ｲﾜﾃｹﾝ","kana_city":"ｼﾓﾍｲｸﾞﾝﾀﾉﾊﾀﾑﾗ","kana_address":"ﾜﾉ","pref":"岩手県","city":"下閉伊郡田野畑村","address":"和野"},
{"zip_code":"0288300","kana_pref":"ｲﾜﾃｹﾝ","kana_city":"ｼﾓﾍｲｸﾞﾝﾌﾀﾞｲﾑﾗ","kana_address":"","pref":"岩手県","city":"下閉伊郡普代村","address":""},
{"zip_code":"0288366","kana_pref":"ｲﾜﾃｹﾝ","kana_city":"ｼﾓﾍｲｸﾞﾝﾌﾀﾞｲﾑﾗ","kana_address":"ｱｼｵｲ","pref":"岩手県","city":"下閉伊郡普代村","address":"芦生"},
{"zip_code":"0288365","kana_pref":"ｲﾜﾃｹﾝ","kana_city":"ｼﾓﾍｲｸﾞﾝﾌﾀﾞｲﾑﾗ","kana_address":"ｱｼﾜﾀﾘ","pref":"岩手県","city":"下閉伊郡普代村","address":"芦渡"},
{"zip_code":"0288343","kana_pref":"ｲﾜﾃｹﾝ","kana_city":"ｼﾓﾍｲｸﾞﾝﾌﾀﾞｲﾑﾗ","kana_address":"ｳｴﾉﾔﾏ","pref":"岩手県","city":"下閉伊郡普代村","address":"上の山"},
{"zip_code":"0288362","kana_pref":"ｲﾜﾃｹﾝ","kana_city":"ｼﾓﾍｲｸﾞﾝﾌﾀﾞｲﾑﾗ","kana_address":"ｳﾈﾄﾞﾘ","pref":"岩手県","city":"下閉伊郡普代村","address":"卯子酉"},
{"zip_code":"0288331","kana_pref":"ｲﾜﾃｹﾝ","kana_city":"ｼﾓﾍｲｸﾞﾝﾌﾀﾞｲﾑﾗ","kana_address":"ｳﾙﾍﾞ","pref":"岩手県","city":"下閉伊郡普代村","address":"宇留部"},
{"zip_code":"0288345","kana_pref":"ｲﾜﾃｹﾝ","kana_city":"ｼﾓﾍｲｸﾞﾝﾌﾀﾞｲﾑﾗ","kana_address":"ｵｵﾀﾅﾍﾞ","pref":"岩手県","city":"下閉伊郡普代村","address":"太田名部"},
{"zip_code":"0288368","kana_pref":"ｲﾜﾃｹﾝ","kana_city":"ｼﾓﾍｲｸﾞﾝﾌﾀﾞｲﾑﾗ","kana_address":"ｶｼﾜｷﾞﾀﾞｲﾗ","pref":"岩手県","city":"下閉伊郡普代村","address":"柏木平"},
{"zip_code":"0288352","kana_pref":"ｲﾜﾃｹﾝ","kana_city":"ｼﾓﾍｲｸﾞﾝﾌﾀﾞｲﾑﾗ","kana_address":"ｶﾐﾑﾗ","pref":"岩手県","city":"下閉伊郡普代村","address":"上村"},
{"zip_code":"0288361","kana_pref":"ｲﾜﾃｹﾝ","kana_city":"ｼﾓﾍｲｸﾞﾝﾌﾀﾞｲﾑﾗ","kana_address":"ｷﾀﾉﾏﾀ","pref":"岩手県","city":"下閉伊郡普代村","address":"北ノ股"},
{"zip_code":"0288353","kana_pref":"ｲﾜﾃｹﾝ","kana_city":"ｼﾓﾍｲｸﾞﾝﾌﾀﾞｲﾑﾗ","kana_address":"ｸﾛｻｷ","pref":"岩手県","city":"下閉伊郡普代村","address":"黒崎"},
{"zip_code":"0288312","kana_pref":"ｲﾜﾃｹﾝ","kana_city":"ｼﾓﾍｲｸﾞﾝﾌﾀﾞｲﾑﾗ","kana_address":"ｺﾔﾁ","pref":"岩手県","city":"下閉伊郡普代村","address":"小谷地"},
{"zip_code":"0288303","kana_pref":"ｲﾜﾃｹﾝ","kana_city":"ｼﾓﾍｲｸﾞﾝﾌﾀﾞｲﾑﾗ","kana_address":"ｻﾜﾑｶｲ","pref":"岩手県","city":"下閉伊郡普代村","address":"沢向"},
{"zip_code":"0288351","kana_pref":"ｲﾜﾃｹﾝ","kana_city":"ｼﾓﾍｲｸﾞﾝﾌﾀﾞｲﾑﾗ","kana_address":"ｼﾓﾑﾗ","pref":"岩手県","city":"下閉伊郡普代村","address":"下村"},
{"zip_code":"0288311","kana_pref":"ｲﾜﾃｹﾝ","kana_city":"ｼﾓﾍｲｸﾞﾝﾌﾀﾞｲﾑﾗ","kana_address":"ｼﾗｲ","pref":"岩手県","city":"下閉伊郡普代村","address":"白井"},
{"zip_code":"0288313","kana_pref":"ｲﾜﾃｹﾝ","kana_city":"ｼﾓﾍｲｸﾞﾝﾌﾀﾞｲﾑﾗ","kana_address":"ﾂﾁﾄﾘﾊﾞ","pref":"岩手県","city":"下閉伊郡普代村","address":"土取場"},
{"zip_code":"0288336","kana_pref":"ｲﾜﾃｹﾝ","kana_city":"ｼﾓﾍｲｸﾞﾝﾌﾀﾞｲﾑﾗ","kana_address":"ﾂﾂﾐ","pref":"岩手県","city":"下閉伊郡普代村","address":"堤"},
{"zip_code":"0288322","kana_pref":"ｲﾜﾃｹﾝ","kana_city":"ｼﾓﾍｲｸﾞﾝﾌﾀﾞｲﾑﾗ","kana_address":"ﾃﾝﾊﾞｲｻﾞｶ","pref":"岩手県","city":"下閉伊郡普代村","address":"天拝坂"},
{"zip_code":"0288332","kana_pref":"ｲﾜﾃｹﾝ","kana_city":"ｼﾓﾍｲｸﾞﾝﾌﾀﾞｲﾑﾗ","kana_address":"ﾄﾞｳﾔ","pref":"岩手県","city":"下閉伊郡普代村","address":"銅屋"},
{"zip_code":"0288323","kana_pref":"ｲﾜﾃｹﾝ","kana_city":"ｼﾓﾍｲｸﾞﾝﾌﾀﾞｲﾑﾗ","kana_address":"ﾄﾘｲ","pref":"岩手県","city":"下閉伊郡普代村","address":"鳥居"},
{"zip_code":"0288334","kana_pref":"ｲﾜﾃｹﾝ","kana_city":"ｼﾓﾍｲｸﾞﾝﾌﾀﾞｲﾑﾗ","kana_address":"ﾅｶﾑﾗ","pref":"岩手県","city":"下閉伊郡普代村","address":"中村"},
{"zip_code":"0288344","kana_pref":"ｲﾜﾃｹﾝ","kana_city":"ｼﾓﾍｲｸﾞﾝﾌﾀﾞｲﾑﾗ","kana_address":"ﾅｶﾔﾏ","pref":"岩手県","city":"下閉伊郡普代村","address":"中山"},
{"zip_code":"0288321","kana_pref":"ｲﾜﾃｹﾝ","kana_city":"ｼﾓﾍｲｸﾞﾝﾌﾀﾞｲﾑﾗ","kana_address":"ﾉｸﾞﾙﾐ","pref":"岩手県","city":"下閉伊郡普代村","address":"野胡桃"},
{"zip_code":"0288367","kana_pref":"ｲﾜﾃｹﾝ","kana_city":"ｼﾓﾍｲｸﾞﾝﾌﾀﾞｲﾑﾗ","kana_address":"ﾊｷﾞｭｳ","pref":"岩手県","city":"下閉伊郡普代村","address":"萩牛"},
{"zip_code":"0288301","kana_pref":"ｲﾜﾃｹﾝ","kana_city":"ｼﾓﾍｲｸﾞﾝﾌﾀﾞｲﾑﾗ","kana_address":"ﾊﾞﾊﾞﾉ","pref":"岩手県","city":"下閉伊郡普代村","address":"馬場野"},
{"zip_code":"0288335","kana_pref":"ｲﾜﾃｹﾝ","kana_city":"ｼﾓﾍｲｸﾞﾝﾌﾀﾞｲﾑﾗ","kana_address":"ﾌﾀﾞｲ","pref":"岩手県","city":"下閉伊郡普代村","address":"普代"},
{"zip_code":"0288302","kana_pref":"ｲﾜﾃｹﾝ","kana_city":"ｼﾓﾍｲｸﾞﾝﾌﾀﾞｲﾑﾗ","kana_address":"ﾎﾘﾅｲ","pref":"岩手県","city":"下閉伊郡普代村","address":"堀内"},
{"zip_code":"0288364","kana_pref":"ｲﾜﾃｹﾝ","kana_city":"ｼﾓﾍｲｸﾞﾝﾌﾀﾞｲﾑﾗ","kana_address":"ﾐﾅﾐﾉﾏﾀ","pref":"岩手県","city":"下閉伊郡普代村","address":"南股"},
{"zip_code":"0288341","kana_pref":"ｲﾜﾃｹﾝ","kana_city":"ｼﾓﾍｲｸﾞﾝﾌﾀﾞｲﾑﾗ","kana_address":"ﾐｮｳｼﾞﾝ","pref":"岩手県","city":"下閉伊郡普代村","address":"明神"},
{"zip_code":"0288363","kana_pref":"ｲﾜﾃｹﾝ","kana_city":"ｼﾓﾍｲｸﾞﾝﾌﾀﾞｲﾑﾗ","kana_address":"ﾓｲﾁ","pref":"岩手県","city":"下閉伊郡普代村","address":"茂市"},
{"zip_code":"0288333","kana_pref":"ｲﾜﾃｹﾝ","kana_city":"ｼﾓﾍｲｸﾞﾝﾌﾀﾞｲﾑﾗ","kana_address":"ﾗｶﾞ","pref":"岩手県","city":"下閉伊郡普代村","address":"羅賀"},
{"zip_code":"0288342","kana_pref":"ｲﾜﾃｹﾝ","kana_city":"ｼﾓﾍｲｸﾞﾝﾌﾀﾞｲﾑﾗ","kana_address":"ﾜﾉﾔﾏ","pref":"岩手県","city":"下閉伊郡普代村","address":"和野山"},
{"zip_code":"0286300","kana_pref":"ｲﾜﾃｹﾝ","kana_city":"ｸﾉﾍｸﾞﾝｶﾙﾏｲﾏﾁ","kana_address":"","pref":"岩手県","city":"九戸郡軽米町","address":""},
{"zip_code":"0286223","kana_pref":"ｲﾜﾃｹﾝ","kana_city":"ｸﾉﾍｸﾞﾝｶﾙﾏｲﾏﾁ","kana_address":"ｴﾂﾞｶ","pref":"岩手県","city":"九戸郡軽米町","address":"狄塚"},
{"zip_code":"0286301","kana_pref":"ｲﾜﾃｹﾝ","kana_city":"ｸﾉﾍｸﾞﾝｶﾙﾏｲﾏﾁ","kana_address":"ｶﾐﾀﾞﾃ","pref":"岩手県","city":"九戸郡軽米町","address":"上舘"},
{"zip_code":"0286302","kana_pref":"ｲﾜﾃｹﾝ","kana_city":"ｸﾉﾍｸﾞﾝｶﾙﾏｲﾏﾁ","kana_address":"ｶﾙﾏｲ","pref":"岩手県","city":"九戸郡軽米町","address":"軽米"},
{"zip_code":"0286303","kana_pref":"ｲﾜﾃｹﾝ","kana_city":"ｸﾉﾍｸﾞﾝｶﾙﾏｲﾏﾁ","kana_address":"ｺｳｹ","pref":"岩手県","city":"九戸郡軽米町","address":"高家"},
{"zip_code":"0286411","kana_pref":"ｲﾜﾃｹﾝ","kana_city":"ｸﾉﾍｸﾞﾝｶﾙﾏｲﾏﾁ","kana_address":"ｺｶﾙﾏｲ","pref":"岩手県","city":"九戸郡軽米町","address":"小軽米"},
{"zip_code":"0286222","kana_pref":"ｲﾜﾃｹﾝ","kana_city":"ｸﾉﾍｸﾞﾝｶﾙﾏｲﾏﾁ","kana_address":"ｻﾝﾅｲ","pref":"岩手県","city":"九戸郡軽米町","address":"山内"},
{"zip_code":"0286304","kana_pref":"ｲﾜﾃｹﾝ","kana_city":"ｸﾉﾍｸﾞﾝｶﾙﾏｲﾏﾁ","kana_address":"ﾅｶﾞｸﾗ","pref":"岩手県","city":"九戸郡軽米町","address":"長倉"},
{"zip_code":"0286221","kana_pref":"ｲﾜﾃｹﾝ","kana_city":"ｸﾉﾍｸﾞﾝｶﾙﾏｲﾏﾁ","kana_address":"ﾊﾚﾔﾏ","pref":"岩手県","city":"九戸郡軽米町","address":"晴山"},
{"zip_code":"0286412","kana_pref":"ｲﾜﾃｹﾝ","kana_city":"ｸﾉﾍｸﾞﾝｶﾙﾏｲﾏﾁ","kana_address":"ﾍﾋﾞｸﾁ","pref":"岩手県","city":"九戸郡軽米町","address":"蛇口"},
{"zip_code":"0286413","kana_pref":"ｲﾜﾃｹﾝ","kana_city":"ｸﾉﾍｸﾞﾝｶﾙﾏｲﾏﾁ","kana_address":"ﾏﾙｺ","pref":"岩手県","city":"九戸郡軽米町","address":"円子"},
{"zip_code":"0288200","kana_pref":"ｲﾜﾃｹﾝ","kana_city":"ｸﾉﾍｸﾞﾝﾉﾀﾞﾑﾗ","kana_address":"","pref":"岩手県","city":"九戸郡野田村","address":""},
{"zip_code":"0288202","kana_pref":"ｲﾜﾃｹﾝ","kana_city":"ｸﾉﾍｸﾞﾝﾉﾀﾞﾑﾗ","kana_address":"ﾀﾏｶﾞﾜ","pref":"岩手県","city":"九戸郡野田村","address":"玉川"},
{"zip_code":"0288201","kana_pref":"ｲﾜﾃｹﾝ","kana_city":"ｸﾉﾍｸﾞﾝﾉﾀﾞﾑﾗ","kana_address":"ﾉﾀﾞ","pref":"岩手県","city":"九戸郡野田村","address":"野田"},
{"zip_code":"0286500","kana_pref":"ｲﾜﾃｹﾝ","kana_city":"ｸﾉﾍｸﾞﾝｸﾉﾍﾑﾗ","kana_address":"","pref":"岩手県","city":"九戸郡九戸村","address":""},
{"zip_code":"0286501","kana_pref":"ｲﾜﾃｹﾝ","kana_city":"ｸﾉﾍｸﾞﾝｸﾉﾍﾑﾗ","kana_address":"ｱﾗﾔ","pref":"岩手県","city":"九戸郡九戸村","address":"荒谷"},
{"zip_code":"0286502","kana_pref":"ｲﾜﾃｹﾝ","kana_city":"ｸﾉﾍｸﾞﾝｸﾉﾍﾑﾗ","kana_address":"ｲﾎﾞﾅｲ","pref":"岩手県","city":"九戸郡九戸村","address":"伊保内"},
{"zip_code":"0286505","kana_pref":"ｲﾜﾃｹﾝ","kana_city":"ｸﾉﾍｸﾞﾝｸﾉﾍﾑﾗ","kana_address":"ｴｻｼｶ","pref":"岩手県","city":"九戸郡九戸村","address":"江刺家"},
{"zip_code":"0286503","kana_pref":"ｲﾜﾃｹﾝ","kana_city":"ｸﾉﾍｸﾞﾝｸﾉﾍﾑﾗ","kana_address":"ｺｸﾞﾗ","pref":"岩手県","city":"九戸郡九戸村","address":"小倉"},
{"zip_code":"0286611","kana_pref":"ｲﾜﾃｹﾝ","kana_city":"ｸﾉﾍｸﾞﾝｸﾉﾍﾑﾗ","kana_address":"ｻﾝﾈ","pref":"岩手県","city":"九戸郡九戸村","address":"山根"},
{"zip_code":"0286504","kana_pref":"ｲﾜﾃｹﾝ","kana_city":"ｸﾉﾍｸﾞﾝｸﾉﾍﾑﾗ","kana_address":"ﾁｮｳｺｳｼﾞ","pref":"岩手県","city":"九戸郡九戸村","address":"長興寺"},
{"zip_code":"0286612","kana_pref":"ｲﾜﾃｹﾝ","kana_city":"ｸﾉﾍｸﾞﾝｸﾉﾍﾑﾗ","kana_address":"ﾄﾀﾞ","pref":"岩手県","city":"九戸郡九戸村","address":"戸田"},
{"zip_code":"0286506","kana_pref":"ｲﾜﾃｹﾝ","kana_city":"ｸﾉﾍｸﾞﾝｸﾉﾍﾑﾗ","kana_address":"ﾔﾏﾔ","pref":"岩手県","city":"九戸郡九戸村","address":"山屋"},
{"zip_code":"0286507","kana_pref":"ｲﾜﾃｹﾝ","kana_city":"ｸﾉﾍｸﾞﾝｸﾉﾍﾑﾗ","kana_address":"ﾕｷﾔ","pref":"岩手県","city":"九戸郡九戸村","address":"雪屋"},
{"zip_code":"0287900","kana_pref":"ｲﾜﾃｹﾝ","kana_city":"ｸﾉﾍｸﾞﾝﾋﾛﾉﾁｮｳ","kana_address":"","pref":"岩手県","city":"九戸郡洋野町","address":""},
{"zip_code":"0288803","kana_pref":"ｲﾜﾃｹﾝ","kana_city":"ｸﾉﾍｸﾞﾝﾋﾛﾉﾁｮｳ","kana_address":"ｱｺｷﾞ","pref":"岩手県","city":"九戸郡洋野町","address":"阿子木"},
{"zip_code":"0287905","kana_pref":"ｲﾜﾃｹﾝ","kana_city":"ｸﾉﾍｸﾞﾝﾋﾛﾉﾁｮｳ","kana_address":"ｳｹﾞ","pref":"岩手県","city":"九戸郡洋野町","address":"有家"},
{"zip_code":"0288802","kana_pref":"ｲﾜﾃｹﾝ","kana_city":"ｸﾉﾍｸﾞﾝﾋﾛﾉﾁｮｳ","kana_address":"ｵｵﾉ","pref":"岩手県","city":"九戸郡洋野町","address":"大野"},
{"zip_code":"0287904","kana_pref":"ｲﾜﾃｹﾝ","kana_city":"ｸﾉﾍｸﾞﾝﾋﾛﾉﾁｮｳ","kana_address":"ｵｺﾅｲ","pref":"岩手県","city":"九戸郡洋野町","address":"小子内"},
{"zip_code":"0288801","kana_pref":"ｲﾜﾃｹﾝ","kana_city":"ｸﾉﾍｸﾞﾝﾋﾛﾉﾁｮｳ","kana_address":"ｶﾐﾀﾞﾃ","pref":"岩手県","city":"九戸郡洋野町","address":"上館"},
{"zip_code":"0288804","kana_pref":"ｲﾜﾃｹﾝ","kana_city":"ｸﾉﾍｸﾞﾝﾋﾛﾉﾁｮｳ","kana_address":"ﾀｲｼﾏ","pref":"岩手県","city":"九戸郡洋野町","address":"帯島"},
{"zip_code":"0287915","kana_pref":"ｲﾜﾃｹﾝ","kana_city":"ｸﾉﾍｸﾞﾝﾋﾛﾉﾁｮｳ","kana_address":"ﾀﾈｲﾁﾀﾞｲ15ﾁﾜﾘ-ﾀﾞｲ21ﾁﾜﾘ","pref":"岩手県","city":"九戸郡洋野町","address":"種市第１５地割〜第２１地割"},
{"zip_code":"0287903","kana_pref":"ｲﾜﾃｹﾝ","kana_city":"ｸﾉﾍｸﾞﾝﾋﾛﾉﾁｮｳ","kana_address":"ﾀﾈｲﾁﾀﾞｲ1ﾁﾜﾘ-ﾀﾞｲ3ﾁﾜﾘ","pref":"岩手県","city":"九戸郡洋野町","address":"種市第１地割〜第３地割"},
{"zip_code":"0287914","kana_pref":"ｲﾜﾃｹﾝ","kana_city":"ｸﾉﾍｸﾞﾝﾋﾛﾉﾁｮｳ","kana_address":"ﾀﾈｲﾁﾀﾞｲ22ﾁﾜﾘ-ﾀﾞｲ23ﾁﾜﾘ","pref":"岩手県","city":"九戸郡洋野町","address":"種市第２２地割〜第２３地割"},
{"zip_code":"0287913","kana_pref":"ｲﾜﾃｹﾝ","kana_city":"ｸﾉﾍｸﾞﾝﾋﾛﾉﾁｮｳ","kana_address":"ﾀﾈｲﾁﾀﾞｲ24ﾁﾜﾘ-ﾀﾞｲ25ﾁﾜﾘ","pref":"岩手県","city":"九戸郡洋野町","address":"種市第２４地割〜第２５地割"},
{"zip_code":"0287912","kana_pref":"ｲﾜﾃｹﾝ","kana_city":"ｸﾉﾍｸﾞﾝﾋﾛﾉﾁｮｳ","kana_address":"ﾀﾈｲﾁﾀﾞｲ26ﾁﾜﾘ-ﾀﾞｲ38ﾁﾜﾘ","pref":"岩手県","city":"九戸郡洋野町","address":"種市第２６地割〜第３８地割"},
{"zip_code":"0287911","kana_pref":"ｲﾜﾃｹﾝ","kana_city":"ｸﾉﾍｸﾞﾝﾋﾛﾉﾁｮｳ","kana_address":"ﾀﾈｲﾁﾀﾞｲ39ﾁﾜﾘ-ﾀﾞｲ45ﾁﾜﾘ","pref":"岩手県","city":"九戸郡洋野町","address":"種市第３９地割〜第４５地割"},
{"zip_code":"0287918","kana_pref":"ｲﾜﾃｹﾝ","kana_city":"ｸﾉﾍｸﾞﾝﾋﾛﾉﾁｮｳ","kana_address":"ﾀﾈｲﾁﾀﾞｲ46ﾁﾜﾘ-ﾀﾞｲ49ﾁﾜﾘ","pref":"岩手県","city":"九戸郡洋野町","address":"種市第４６地割〜第４９地割"},
{"zip_code":"0287902","kana_pref":"ｲﾜﾃｹﾝ","kana_city":"ｸﾉﾍｸﾞﾝﾋﾛﾉﾁｮｳ","kana_address":"ﾀﾈｲﾁﾀﾞｲ4ﾁﾜﾘ-ﾀﾞｲ7ﾁﾜﾘ","pref":"岩手県","city":"九戸郡洋野町","address":"種市第４地割〜第７地割"},
{"zip_code":"0287917","kana_pref":"ｲﾜﾃｹﾝ","kana_city":"ｸﾉﾍｸﾞﾝﾋﾛﾉﾁｮｳ","kana_address":"ﾀﾈｲﾁﾀﾞｲ50ﾁﾜﾘ-ﾀﾞｲ70ﾁﾜﾘ","pref":"岩手県","city":"九戸郡洋野町","address":"種市第５０地割〜第７０地割"},
{"zip_code":"0287916","kana_pref":"ｲﾜﾃｹﾝ","kana_city":"ｸﾉﾍｸﾞﾝﾋﾛﾉﾁｮｳ","kana_address":"ﾀﾈｲﾁﾀﾞｲ71ﾁﾜﾘ-ﾀﾞｲ74ﾁﾜﾘ","pref":"岩手県","city":"九戸郡洋野町","address":"種市第７１地割〜第７４地割"},
{"zip_code":"0287901","kana_pref":"ｲﾜﾃｹﾝ","kana_city":"ｸﾉﾍｸﾞﾝﾋﾛﾉﾁｮｳ","kana_address":"ﾀﾈｲﾁﾀﾞｲ8ﾁﾜﾘ-ﾀﾞｲ14ﾁﾜﾘ","pref":"岩手県","city":"九戸郡洋野町","address":"種市第８地割〜第１４地割"},
{"zip_code":"0287906","kana_pref":"ｲﾜﾃｹﾝ","kana_city":"ｸﾉﾍｸﾞﾝﾋﾛﾉﾁｮｳ","kana_address":"ﾅｶﾉ","pref":"岩手県","city":"九戸郡洋野町","address":"中野"},
{"zip_code":"0288805","kana_pref":"ｲﾜﾃｹﾝ","kana_city":"ｸﾉﾍｸﾞﾝﾋﾛﾉﾁｮｳ","kana_address":"ﾐｽﾞｻﾜ","pref":"岩手県","city":"九戸郡洋野町","address":"水沢"},
{"zip_code":"0285300","kana_pref":"ｲﾜﾃｹﾝ","kana_city":"ﾆﾉﾍｸﾞﾝｲﾁﾉﾍﾏﾁ","kana_address":"","pref":"岩手県","city":"二戸郡一戸町","address":""},
{"zip_code":"0285222","kana_pref":"ｲﾜﾃｹﾝ","kana_city":"ﾆﾉﾍｸﾞﾝｲﾁﾉﾍﾏﾁ","kana_address":"ｱﾈﾀｲ","pref":"岩手県","city":"二戸郡一戸町","address":"姉帯"},
{"zip_code":"0285304","kana_pref":"ｲﾜﾃｹﾝ","kana_city":"ﾆﾉﾍｸﾞﾝｲﾁﾉﾍﾏﾁ","kana_address":"ｲｽﾞﾙﾏﾁ","pref":"岩手県","city":"二戸郡一戸町","address":"出ル町"},
{"zip_code":"0285312","kana_pref":"ｲﾜﾃｹﾝ","kana_city":"ﾆﾉﾍｸﾞﾝｲﾁﾉﾍﾏﾁ","kana_address":"ｲﾁﾉﾍ","pref":"岩手県","city":"二戸郡一戸町","address":"一戸"},
{"zip_code":"0285316","kana_pref":"ｲﾜﾃｹﾝ","kana_city":"ﾆﾉﾍｸﾞﾝｲﾁﾉﾍﾏﾁ","kana_address":"ｲﾜﾀﾞﾃ","pref":"岩手県","city":"二戸郡一戸町","address":"岩舘"},
{"zip_code":"0285131","kana_pref":"ｲﾜﾃｹﾝ","kana_city":"ﾆﾉﾍｸﾞﾝｲﾁﾉﾍﾏﾁ","kana_address":"ｳﾍﾞﾂ","pref":"岩手県","city":"二戸郡一戸町","address":"宇別"},
{"zip_code":"0285134","kana_pref":"ｲﾜﾃｹﾝ","kana_city":"ﾆﾉﾍｸﾞﾝｲﾁﾉﾍﾏﾁ","kana_address":"ｵｸﾅｶﾔﾏ","pref":"岩手県","city":"二戸郡一戸町","address":"奥中山"},
{"zip_code":"0285303","kana_pref":"ｲﾜﾃｹﾝ","kana_city":"ﾆﾉﾍｸﾞﾝｲﾁﾉﾍﾏﾁ","kana_address":"ｵﾄﾓ","pref":"岩手県","city":"二戸郡一戸町","address":"小友"},
{"zip_code":"0285223","kana_pref":"ｲﾜﾃｹﾝ","kana_city":"ﾆﾉﾍｸﾞﾝｲﾁﾉﾍﾏﾁ","kana_address":"ｵﾓｷﾞｼ","pref":"岩手県","city":"二戸郡一戸町","address":"面岸"},
{"zip_code":"0285311","kana_pref":"ｲﾜﾃｹﾝ","kana_city":"ﾆﾉﾍｸﾞﾝｲﾁﾉﾍﾏﾁ","kana_address":"ｺｳｾﾞﾝｼﾞ","pref":"岩手県","city":"二戸郡一戸町","address":"高善寺"},
{"zip_code":"0285221","kana_pref":"ｲﾜﾃｹﾝ","kana_city":"ﾆﾉﾍｸﾞﾝｲﾁﾉﾍﾏﾁ","kana_address":"ｺｽﾞﾔ","pref":"岩手県","city":"二戸郡一戸町","address":"小鳥谷"},
{"zip_code":"0285132","kana_pref":"ｲﾜﾃｹﾝ","kana_city":"ﾆﾉﾍｸﾞﾝｲﾁﾉﾍﾏﾁ","kana_address":"ｺﾂﾅｷﾞ","pref":"岩手県","city":"二戸郡一戸町","address":"小繋"},
{"zip_code":"0285301","kana_pref":"ｲﾜﾃｹﾝ","kana_city":"ﾆﾉﾍｸﾞﾝｲﾁﾉﾍﾏﾁ","kana_address":"ｻｲﾎｳｼﾞ","pref":"岩手県","city":"二戸郡一戸町","address":"西法寺"},
{"zip_code":"0285305","kana_pref":"ｲﾜﾃｹﾝ","kana_city":"ﾆﾉﾍｸﾞﾝｲﾁﾉﾍﾏﾁ","kana_address":"ﾂｷﾀﾞﾃ","pref":"岩手県","city":"二戸郡一戸町","address":"月舘"},
{"zip_code":"0285313","kana_pref":"ｲﾜﾃｹﾝ","kana_city":"ﾆﾉﾍｸﾞﾝｲﾁﾉﾍﾏﾁ","kana_address":"ﾄﾘｺﾞｴ","pref":"岩手県","city":"二戸郡一戸町","address":"鳥越"},
{"zip_code":"0285306","kana_pref":"ｲﾜﾃｹﾝ","kana_city":"ﾆﾉﾍｸﾞﾝｲﾁﾉﾍﾏﾁ","kana_address":"ﾅｶｻﾄ","pref":"岩手県","city":"二戸郡一戸町","address":"中里"},
{"zip_code":"0285233","kana_pref":"ｲﾜﾃｹﾝ","kana_city":"ﾆﾉﾍｸﾞﾝｲﾁﾉﾍﾏﾁ","kana_address":"ﾅｶﾔﾏ","pref":"岩手県","city":"二戸郡一戸町","address":"中山"},
{"zip_code":"0285133","kana_pref":"ｲﾜﾃｹﾝ","kana_city":"ﾆﾉﾍｸﾞﾝｲﾁﾉﾍﾏﾁ","kana_address":"ﾅｶﾔﾏ","pref":"岩手県","city":"二戸郡一戸町","address":"中山"},
{"zip_code":"0285314","kana_pref":"ｲﾜﾃｹﾝ","kana_city":"ﾆﾉﾍｸﾞﾝｲﾁﾉﾍﾏﾁ","kana_address":"ﾅﾗﾔﾏ","pref":"岩手県","city":"二戸郡一戸町","address":"楢山"},
{"zip_code":"0285315","kana_pref":"ｲﾜﾃｹﾝ","kana_city":"ﾆﾉﾍｸﾞﾝｲﾁﾉﾍﾏﾁ","kana_address":"ﾈｿﾘ","pref":"岩手県","city":"二戸郡一戸町","address":"根反"},
{"zip_code":"0285224","kana_pref":"ｲﾜﾃｹﾝ","kana_city":"ﾆﾉﾍｸﾞﾝｲﾁﾉﾍﾏﾁ","kana_address":"ﾋﾗﾇｶ","pref":"岩手県","city":"二戸郡一戸町","address":"平糠"},
{"zip_code":"0285302","kana_pref":"ｲﾜﾃｹﾝ","kana_city":"ﾆﾉﾍｸﾞﾝｲﾁﾉﾍﾏﾁ","kana_address":"ﾒｶﾞ","pref":"岩手県","city":"二戸郡一戸町","address":"女鹿"}]}