{"zip_code":[
{"zip_code":"0290202","kana_pref":"ｲﾜﾃｹﾝ","kana_city":"ｲﾁﾉｾｷｼ","kana_address":"ｶﾜｻｷﾁｮｳｳｽｷﾞﾇ","pref":"岩手県","city":"一関市","address":"川崎町薄衣"},
{"zip_code":"0290201","kana_pref":"ｲﾜﾃｹﾝ","kana_city":"ｲﾁﾉｾｷｼ","kana_address":"ｶﾜｻｷﾁｮｳｶﾝｻﾞｷ","pref":"岩手県","city":"一関市","address":"川崎町門崎"},
{"zip_code":"0290131","kana_pref":"ｲﾜﾃｹﾝ","kana_city":"ｲﾁﾉｾｷｼ","kana_address":"ｺｾﾞﾝｼﾞ","pref":"岩手県","city":"一関市","address":"狐禅寺"},
{"zip_code":"0290804","kana_pref":"ｲﾜﾃｹﾝ","kana_city":"ｲﾁﾉｾｷｼ","kana_address":"ｾﾝﾏﾔﾁｮｳｲﾜｼﾐｽﾞ","pref":"岩手県","city":"一関市","address":"千厩町磐清水"},
{"zip_code":"0291111","kana_pref":"ｲﾜﾃｹﾝ","kana_city":"ｲﾁﾉｾｷｼ","kana_address":"ｾﾝﾏﾔﾁｮｳｵｸﾀﾏ","pref":"岩手県","city":"一関市","address":"千厩町奥玉"},
{"zip_code":"0290801","kana_pref":"ｲﾜﾃｹﾝ","kana_city":"ｲﾁﾉｾｷｼ","kana_address":"ｾﾝﾏﾔﾁｮｳｷﾖﾀ","pref":"岩手県","city":"一関市","address":"千厩町清田"},
{"zip_code":"0290802","kana_pref":"ｲﾜﾃｹﾝ","kana_city":"ｲﾁﾉｾｷｼ","kana_address":"ｾﾝﾏﾔﾁｮｳｺﾅｼ","pref":"岩手県","city":"一関市","address":"千厩町小梨"},
{"zip_code":"0290803","kana_pref":"ｲﾜﾃｹﾝ","kana_city":"ｲﾁﾉｾｷｼ","kana_address":"ｾﾝﾏﾔﾁｮｳｾﾝﾏﾔ","pref":"岩手県","city":"一関市","address":"千厩町千厩"},
{"zip_code":"0290711","kana_pref":"ｲﾜﾃｹﾝ","kana_city":"ｲﾁﾉｾｷｼ","kana_address":"ﾀﾞｲﾄｳﾁｮｳｵｵﾊﾗ","pref":"岩手県","city":"一関市","address":"大東町大原"},
{"zip_code":"0290603","kana_pref":"ｲﾜﾃｹﾝ","kana_city":"ｲﾁﾉｾｷｼ","kana_address":"ﾀﾞｲﾄｳﾁｮｳｵｷﾀ","pref":"岩手県","city":"一関市","address":"大東町沖田"},
{"zip_code":"0290431","kana_pref":"ｲﾜﾃｹﾝ","kana_city":"ｲﾁﾉｾｷｼ","kana_address":"ﾀﾞｲﾄｳﾁｮｳｻﾙｻﾜ","pref":"岩手県","city":"一関市","address":"大東町猿沢"},
{"zip_code":"0290521","kana_pref":"ｲﾜﾃｹﾝ","kana_city":"ｲﾁﾉｾｷｼ","kana_address":"ﾀﾞｲﾄｳﾁｮｳｼﾌﾞﾀﾐ","pref":"岩手県","city":"一関市","address":"大東町渋民"},
{"zip_code":"0290523","kana_pref":"ｲﾜﾃｹﾝ","kana_city":"ｲﾁﾉｾｷｼ","kana_address":"ﾀﾞｲﾄｳﾁｮｳｽﾘｻﾜ","pref":"岩手県","city":"一関市","address":"大東町摺沢"},
{"zip_code":"0290522","kana_pref":"ｲﾜﾃｹﾝ","kana_city":"ｲﾁﾉｾｷｼ","kana_address":"ﾀﾞｲﾄｳﾁｮｳｿｹﾞｲ","pref":"岩手県","city":"一関市","address":"大東町曽慶"},
{"zip_code":"0290602","kana_pref":"ｲﾜﾃｹﾝ","kana_city":"ｲﾁﾉｾｷｼ","kana_address":"ﾀﾞｲﾄｳﾁｮｳﾄﾘｳﾐ","pref":"岩手県","city":"一関市","address":"大東町鳥海"},
{"zip_code":"0290601","kana_pref":"ｲﾜﾃｹﾝ","kana_city":"ｲﾁﾉｾｷｼ","kana_address":"ﾀﾞｲﾄｳﾁｮｳﾅｶｶﾞﾜ","pref":"岩手県","city":"一関市","address":"大東町中川"},
{"zip_code":"0290132","kana_pref":"ｲﾜﾃｹﾝ","kana_city":"ｲﾁﾉｾｷｼ","kana_address":"ﾀｷｻﾞﾜ","pref":"岩手県","city":"一関市","address":"滝沢"},
{"zip_code":"0293103","kana_pref":"ｲﾜﾃｹﾝ","kana_city":"ｲﾁﾉｾｷｼ","kana_address":"ﾊﾅｲｽﾞﾐﾁｮｳｵｲﾏﾂ","pref":"岩手県","city":"一関市","address":"花泉町老松"},
{"zip_code":"0293102","kana_pref":"ｲﾜﾃｹﾝ","kana_city":"ｲﾁﾉｾｷｼ","kana_address":"ﾊﾅｲｽﾞﾐﾁｮｳｶｻﾞﾜ","pref":"岩手県","city":"一関市","address":"花泉町金沢"},
{"zip_code":"0293206","kana_pref":"ｲﾜﾃｹﾝ","kana_city":"ｲﾁﾉｾｷｼ","kana_address":"ﾊﾅｲｽﾞﾐﾁｮｳﾅｶﾞｲ","pref":"岩手県","city":"一関市","address":"花泉町永井"},
{"zip_code":"0293101","kana_pref":"ｲﾜﾃｹﾝ","kana_city":"ｲﾁﾉｾｷｼ","kana_address":"ﾊﾅｲｽﾞﾐﾁｮｳﾊﾅｲｽﾞﾐ","pref":"岩手県","city":"一関市","address":"花泉町花泉"},
{"zip_code":"0293104","kana_pref":"ｲﾜﾃｹﾝ","kana_city":"ｲﾁﾉｾｷｼ","kana_address":"ﾊﾅｲｽﾞﾐﾁｮｳﾋｶﾀ","pref":"岩手県","city":"一関市","address":"花泉町日形"},
{"zip_code":"0293207","kana_pref":"ｲﾜﾃｹﾝ","kana_city":"ｲﾁﾉｾｷｼ","kana_address":"ﾊﾅｲｽﾞﾐﾁｮｳﾕｼﾏ","pref":"岩手県","city":"一関市","address":"花泉町油島"},
{"zip_code":"0293105","kana_pref":"ｲﾜﾃｹﾝ","kana_city":"ｲﾁﾉｾｷｼ","kana_address":"ﾊﾅｲｽﾞﾐﾁｮｳﾜｸﾂ","pref":"岩手県","city":"一関市","address":"花泉町涌津"},
{"zip_code":"0293205","kana_pref":"ｲﾜﾃｹﾝ","kana_city":"ｲﾁﾉｾｷｼ","kana_address":"ﾊﾅｲｽﾞﾐﾁｮｳﾜｸﾂ","pref":"岩手県","city":"一関市","address":"花泉町涌津"},
{"zip_code":"0290301","kana_pref":"ｲﾜﾃｹﾝ","kana_city":"ｲﾁﾉｾｷｼ","kana_address":"ﾋｶﾞｼﾔﾏﾁｮｳﾀｺｳﾂﾞ","pref":"岩手県","city":"一関市","address":"東山町田河津"},
{"zip_code":"0290302","kana_pref":"ｲﾜﾃｹﾝ","kana_city":"ｲﾁﾉｾｷｼ","kana_address":"ﾋｶﾞｼﾔﾏﾁｮｳﾅｶﾞｻｶ","pref":"岩手県","city":"一関市","address":"東山町長坂"},
{"zip_code":"0290303","kana_pref":"ｲﾜﾃｹﾝ","kana_city":"ｲﾁﾉｾｷｼ","kana_address":"ﾋｶﾞｼﾔﾏﾁｮｳﾏﾂｶﾜ","pref":"岩手県","city":"一関市","address":"東山町松川"},
{"zip_code":"0293522","kana_pref":"ｲﾜﾃｹﾝ","kana_city":"ｲﾁﾉｾｷｼ","kana_address":"ﾌｼﾞｻﾜﾁｮｳｵｵｶｺﾞ","pref":"岩手県","city":"一関市","address":"藤沢町大籠"},
{"zip_code":"0293311","kana_pref":"ｲﾜﾃｹﾝ","kana_city":"ｲﾁﾉｾｷｼ","kana_address":"ﾌｼﾞｻﾜﾁｮｳｷﾉﾐ","pref":"岩手県","city":"一関市","address":"藤沢町黄海"},
{"zip_code":"0293403","kana_pref":"ｲﾜﾃｹﾝ","kana_city":"ｲﾁﾉｾｷｼ","kana_address":"ﾌｼﾞｻﾜﾁｮｳｽﾅｺﾞﾀ","pref":"岩手県","city":"一関市","address":"藤沢町砂子田"},
{"zip_code":"0293404","kana_pref":"ｲﾜﾃｹﾝ","kana_city":"ｲﾁﾉｾｷｼ","kana_address":"ﾌｼﾞｻﾜﾁｮｳﾄｸﾀﾞ","pref":"岩手県","city":"一関市","address":"藤沢町徳田"},
{"zip_code":"0293402","kana_pref":"ｲﾜﾃｹﾝ","kana_city":"ｲﾁﾉｾｷｼ","kana_address":"ﾌｼﾞｻﾜﾁｮｳﾆｲﾇﾏ","pref":"岩手県","city":"一関市","address":"藤沢町新沼"},
{"zip_code":"0293406","kana_pref":"ｲﾜﾃｹﾝ","kana_city":"ｲﾁﾉｾｷｼ","kana_address":"ﾌｼﾞｻﾜﾁｮｳﾆｼｸﾞﾁ","pref":"岩手県","city":"一関市","address":"藤沢町西口"},
{"zip_code":"0293405","kana_pref":"ｲﾜﾃｹﾝ","kana_city":"ｲﾁﾉｾｷｼ","kana_address":"ﾌｼﾞｻﾜﾁｮｳﾌｼﾞｻﾜ","pref":"岩手県","city":"一関市","address":"藤沢町藤沢"},
{"zip_code":"0293521","kana_pref":"ｲﾜﾃｹﾝ","kana_city":"ｲﾁﾉｾｷｼ","kana_address":"ﾌｼﾞｻﾜﾁｮｳﾎﾛﾜ","pref":"岩手県","city":"一関市","address":"藤沢町保呂羽"},
{"zip_code":"0293401","kana_pref":"ｲﾜﾃｹﾝ","kana_city":"ｲﾁﾉｾｷｼ","kana_address":"ﾌｼﾞｻﾜﾁｮｳﾏｽｻﾞﾜ","pref":"岩手県","city":"一関市","address":"藤沢町増沢"},
{"zip_code":"0291201","kana_pref":"ｲﾜﾃｹﾝ","kana_city":"ｲﾁﾉｾｷｼ","kana_address":"ﾑﾛﾈﾁｮｳｵﾘｶﾍﾞ","pref":"岩手県","city":"一関市","address":"室根町折壁"},
{"zip_code":"0291211","kana_pref":"ｲﾜﾃｹﾝ","kana_city":"ｲﾁﾉｾｷｼ","kana_address":"ﾑﾛﾈﾁｮｳﾂﾔｶﾞﾜ","pref":"岩手県","city":"一関市","address":"室根町津谷川"},
{"zip_code":"0291202","kana_pref":"ｲﾜﾃｹﾝ","kana_city":"ｲﾁﾉｾｷｼ","kana_address":"ﾑﾛﾈﾁｮｳﾔｺﾞｼ","pref":"岩手県","city":"一関市","address":"室根町矢越"},
{"zip_code":"0290211","kana_pref":"ｲﾜﾃｹﾝ","kana_city":"ｲﾁﾉｾｷｼ","kana_address":"ﾔｻｶｴ","pref":"岩手県","city":"一関市","address":"弥栄"},
{"zip_code":"0292200","kana_pref":"ｲﾜﾃｹﾝ","kana_city":"ﾘｸｾﾞﾝﾀｶﾀｼ","kana_address":"","pref":"岩手県","city":"陸前高田市","address":""},
{"zip_code":"0292207","kana_pref":"ｲﾜﾃｹﾝ","kana_city":"ﾘｸｾﾞﾝﾀｶﾀｼ","kana_address":"ｵﾄﾓﾁｮｳ","pref":"岩手県","city":"陸前高田市","address":"小友町"},
{"zip_code":"0292204","kana_pref":"ｲﾜﾃｹﾝ","kana_city":"ﾘｸｾﾞﾝﾀｶﾀｼ","kana_address":"ｹｾﾝﾁｮｳ","pref":"岩手県","city":"陸前高田市","address":"気仙町"},
{"zip_code":"0292205","kana_pref":"ｲﾜﾃｹﾝ","kana_city":"ﾘｸｾﾞﾝﾀｶﾀｼ","kana_address":"ﾀｶﾀﾁｮｳ","pref":"岩手県","city":"陸前高田市","address":"高田町"},
{"zip_code":"0292203","kana_pref":"ｲﾜﾃｹﾝ","kana_city":"ﾘｸｾﾞﾝﾀｶﾀｼ","kana_address":"ﾀｹｺﾏﾁｮｳ","pref":"岩手県","city":"陸前高田市","address":"竹駒町"},
{"zip_code":"0292208","kana_pref":"ｲﾜﾃｹﾝ","kana_city":"ﾘｸｾﾞﾝﾀｶﾀｼ","kana_address":"ﾋﾛﾀﾁｮｳ","pref":"岩手県","city":"陸前高田市","address":"広田町"},
{"zip_code":"0292201","kana_pref":"ｲﾜﾃｹﾝ","kana_city":"ﾘｸｾﾞﾝﾀｶﾀｼ","kana_address":"ﾔﾊｷﾞﾁｮｳ","pref":"岩手県","city":"陸前高田市","address":"矢作町"},
{"zip_code":"0292202","kana_pref":"ｲﾜﾃｹﾝ","kana_city":"ﾘｸｾﾞﾝﾀｶﾀｼ","kana_address":"ﾖｺﾀﾁｮｳ","pref":"岩手県","city":"陸前高田市","address":"横田町"},
{"zip_code":"0292206","kana_pref":"ｲﾜﾃｹﾝ","kana_city":"ﾘｸｾﾞﾝﾀｶﾀｼ","kana_address":"ﾖﾈｻｷﾁｮｳ","pref":"岩手県","city":"陸前高田市","address":"米崎町"},
{"zip_code":"0294426","kana_pref":"ｲﾜﾃｹﾝ","kana_city":"ｵｳｼｭｳｼ","kana_address":"ｺﾛﾓｶﾞﾜｸｱﾀｺﾞｼﾀ","pref":"岩手県","city":"奥州市","address":"衣川区愛宕下"},
{"zip_code":"0294315","kana_pref":"ｲﾜﾃｹﾝ","kana_city":"ｵｳｼｭｳｼ","kana_address":"ｺﾛﾓｶﾞﾜｸｱﾏﾀﾞ","pref":"岩手県","city":"奥州市","address":"衣川区天田"},
{"zip_code":"0294365","kana_pref":"ｲﾜﾃｹﾝ","kana_city":"ｵｳｼｭｳｼ","kana_address":"ｺﾛﾓｶﾞﾜｸｱﾏﾂﾁ","pref":"岩手県","city":"奥州市","address":"衣川区天土"},
{"zip_code":"0294307","kana_pref":"ｲﾜﾃｹﾝ","kana_city":"ｵｳｼｭｳｼ","kana_address":"ｺﾛﾓｶﾞﾜｸｱﾘｳﾗ","pref":"岩手県","city":"奥州市","address":"衣川区有浦"},
{"zip_code":"0294434","kana_pref":"ｲﾜﾃｹﾝ","kana_city":"ｵｳｼｭｳｼ","kana_address":"ｺﾛﾓｶﾞﾜｸｲｹﾀﾞ","pref":"岩手県","city":"奥州市","address":"衣川区池田"},
{"zip_code":"0294433","kana_pref":"ｲﾜﾃｹﾝ","kana_city":"ｵｳｼｭｳｼ","kana_address":"ｺﾛﾓｶﾞﾜｸｲｹﾀﾞﾆｼ","pref":"岩手県","city":"奥州市","address":"衣川区池田西"},
{"zip_code":"0294381","kana_pref":"ｲﾜﾃｹﾝ","kana_city":"ｵｳｼｭｳｼ","kana_address":"ｺﾛﾓｶﾞﾜｸｲｼｶﾞｻﾜ","pref":"岩手県","city":"奥州市","address":"衣川区石ケ沢"},
{"zip_code":"0294384","kana_pref":"ｲﾜﾃｹﾝ","kana_city":"ｵｳｼｭｳｼ","kana_address":"ｺﾛﾓｶﾞﾜｸｲｼｶﾞﾐ","pref":"岩手県","city":"奥州市","address":"衣川区石神"},
{"zip_code":"0294313","kana_pref":"ｲﾜﾃｹﾝ","kana_city":"ｵｳｼｭｳｼ","kana_address":"ｺﾛﾓｶﾞﾜｸｲｼｭｳ","pref":"岩手県","city":"奥州市","address":"衣川区石生"},
{"zip_code":"0294322","kana_pref":"ｲﾜﾃｹﾝ","kana_city":"ｵｳｼｭｳｼ","kana_address":"ｺﾛﾓｶﾞﾜｸｲﾀｸﾗ","pref":"岩手県","city":"奥州市","address":"衣川区板倉"},
{"zip_code":"0294352","kana_pref":"ｲﾜﾃｹﾝ","kana_city":"ｵｳｼｭｳｼ","kana_address":"ｺﾛﾓｶﾞﾜｸｲﾜﾉｳｴ","pref":"岩手県","city":"奥州市","address":"衣川区岩の上"},
{"zip_code":"0294465","kana_pref":"ｲﾜﾃｹﾝ","kana_city":"ｵｳｼｭｳｼ","kana_address":"ｺﾛﾓｶﾞﾜｸｳｼﾛﾀｷﾉｻﾜ","pref":"岩手県","city":"奥州市","address":"衣川区後滝の沢"},
{"zip_code":"0294377","kana_pref":"ｲﾜﾃｹﾝ","kana_city":"ｵｳｼｭｳｼ","kana_address":"ｺﾛﾓｶﾞﾜｸｳｼﾛﾔﾏ","pref":"岩手県","city":"奥州市","address":"衣川区後山"},
{"zip_code":"0294482","kana_pref":"ｲﾜﾃｹﾝ","kana_city":"ｵｳｼｭｳｼ","kana_address":"ｺﾛﾓｶﾞﾜｸｳﾈﾊﾀ","pref":"岩手県","city":"奥州市","address":"衣川区畦畑"},
{"zip_code":"0294481","kana_pref":"ｲﾜﾃｹﾝ","kana_city":"ｵｳｼｭｳｼ","kana_address":"ｺﾛﾓｶﾞﾜｸｳﾈﾊﾀﾔﾏ","pref":"岩手県","city":"奥州市","address":"衣川区畦畑山"},
{"zip_code":"0294425","kana_pref":"ｲﾜﾃｹﾝ","kana_city":"ｵｳｼｭｳｼ","kana_address":"ｺﾛﾓｶﾞﾜｸｳﾈﾒｻﾞﾜ","pref":"岩手県","city":"奥州市","address":"衣川区采女沢"},
{"zip_code":"0294442","kana_pref":"ｲﾜﾃｹﾝ","kana_city":"ｵｳｼｭｳｼ","kana_address":"ｺﾛﾓｶﾞﾜｸｳﾜﾉ","pref":"岩手県","city":"奥州市","address":"衣川区上野"},
{"zip_code":"0294321","kana_pref":"ｲﾜﾃｹﾝ","kana_city":"ｵｳｼｭｳｼ","kana_address":"ｺﾛﾓｶﾞﾜｸｳﾝﾅﾝﾀﾞ","pref":"岩手県","city":"奥州市","address":"衣川区雲南田"},
{"zip_code":"0294436","kana_pref":"ｲﾜﾃｹﾝ","kana_city":"ｵｳｼｭｳｼ","kana_address":"ｺﾛﾓｶﾞﾜｸｵｵｲｼｶﾞｻﾜ","pref":"岩手県","city":"奥州市","address":"衣川区大石ケ沢"},
{"zip_code":"0294406","kana_pref":"ｲﾜﾃｹﾝ","kana_city":"ｵｳｼｭｳｼ","kana_address":"ｺﾛﾓｶﾞﾜｸｵｵｻﾞｶ","pref":"岩手県","city":"奥州市","address":"衣川区大坂"},
{"zip_code":"0294308","kana_pref":"ｲﾜﾃｹﾝ","kana_city":"ｵｳｼｭｳｼ","kana_address":"ｺﾛﾓｶﾞﾜｸｵｵﾀﾞｲﾗ","pref":"岩手県","city":"奥州市","address":"衣川区大平"},
{"zip_code":"0294419","kana_pref":"ｲﾜﾃｹﾝ","kana_city":"ｵｳｼｭｳｼ","kana_address":"ｺﾛﾓｶﾞﾜｸｵｵﾂﾗ","pref":"岩手県","city":"奥州市","address":"衣川区大面"},
{"zip_code":"0294347","kana_pref":"ｲﾜﾃｹﾝ","kana_city":"ｵｳｼｭｳｼ","kana_address":"ｺﾛﾓｶﾞﾜｸｵｵﾆｼ","pref":"岩手県","city":"奥州市","address":"衣川区大西"},
{"zip_code":"0294488","kana_pref":"ｲﾜﾃｹﾝ","kana_city":"ｵｳｼｭｳｼ","kana_address":"ｺﾛﾓｶﾞﾜｸｵｵﾊﾗ","pref":"岩手県","city":"奥州市","address":"衣川区大原"},
{"zip_code":"0294487","kana_pref":"ｲﾜﾃｹﾝ","kana_city":"ｵｳｼｭｳｼ","kana_address":"ｺﾛﾓｶﾞﾜｸｵｵﾊﾗﾔﾏ","pref":"岩手県","city":"奥州市","address":"衣川区大原山"},
{"zip_code":"0294383","kana_pref":"ｲﾜﾃｹﾝ","kana_city":"ｵｳｼｭｳｼ","kana_address":"ｺﾛﾓｶﾞﾜｸｵｷﾉﾉ","pref":"岩手県","city":"奥州市","address":"衣川区沖の野"},
{"zip_code":"0294435","kana_pref":"ｲﾜﾃｹﾝ","kana_city":"ｵｳｼｭｳｼ","kana_address":"ｺﾛﾓｶﾞﾜｸｵｼｷﾘ","pref":"岩手県","city":"奥州市","address":"衣川区押切"},
{"zip_code":"0294454","kana_pref":"ｲﾜﾃｹﾝ","kana_city":"ｵｳｼｭｳｼ","kana_address":"ｺﾛﾓｶﾞﾜｸｵﾓﾃ","pref":"岩手県","city":"奥州市","address":"衣川区表"},
{"zip_code":"0294386","kana_pref":"ｲﾜﾃｹﾝ","kana_city":"ｵｳｼｭｳｼ","kana_address":"ｺﾛﾓｶﾞﾜｸｵﾝﾅｲｼ","pref":"岩手県","city":"奥州市","address":"衣川区女石"},
{"zip_code":"0294326","kana_pref":"ｲﾜﾃｹﾝ","kana_city":"ｵｳｼｭｳｼ","kana_address":"ｺﾛﾓｶﾞﾜｸｶｹﾀﾞ","pref":"岩手県","city":"奥州市","address":"衣川区懸田"},
{"zip_code":"0294452","kana_pref":"ｲﾜﾃｹﾝ","kana_city":"ｵｳｼｭｳｼ","kana_address":"ｺﾛﾓｶﾞﾜｸｶﾞｯｻﾝ","pref":"岩手県","city":"奥州市","address":"衣川区月山"},
{"zip_code":"0294388","kana_pref":"ｲﾜﾃｹﾝ","kana_city":"ｵｳｼｭｳｼ","kana_address":"ｺﾛﾓｶﾞﾜｸｶﾐｵｵﾓﾘ","pref":"岩手県","city":"奥州市","address":"衣川区上大森"},
{"zip_code":"0294474","kana_pref":"ｲﾜﾃｹﾝ","kana_city":"ｵｳｼｭｳｼ","kana_address":"ｺﾛﾓｶﾞﾜｸｶﾐｶﾜｳﾁ","pref":"岩手県","city":"奥州市","address":"衣川区上河内"},
{"zip_code":"0294411","kana_pref":"ｲﾜﾃｹﾝ","kana_city":"ｵｳｼｭｳｼ","kana_address":"ｺﾛﾓｶﾞﾜｸｶﾐｺｳｼﾞ","pref":"岩手県","city":"奥州市","address":"衣川区上小路"},
{"zip_code":"0294491","kana_pref":"ｲﾜﾃｹﾝ","kana_city":"ｵｳｼｭｳｼ","kana_address":"ｺﾛﾓｶﾞﾜｸｶﾐﾀﾁｻﾜ","pref":"岩手県","city":"奥州市","address":"衣川区上立沢"},
{"zip_code":"0294329","kana_pref":"ｲﾜﾃｹﾝ","kana_city":"ｵｳｼｭｳｼ","kana_address":"ｺﾛﾓｶﾞﾜｸｶﾐﾃﾗﾀﾞ","pref":"岩手県","city":"奥州市","address":"衣川区上寺田"},
{"zip_code":"0294437","kana_pref":"ｲﾜﾃｹﾝ","kana_city":"ｵｳｼｭｳｼ","kana_address":"ｺﾛﾓｶﾞﾜｸｶﾗｶﾈ","pref":"岩手県","city":"奥州市","address":"衣川区唐金"},
{"zip_code":"0294446","kana_pref":"ｲﾜﾃｹﾝ","kana_city":"ｵｳｼｭｳｼ","kana_address":"ｺﾛﾓｶﾞﾜｸｶﾜﾊﾀ","pref":"岩手県","city":"奥州市","address":"衣川区川端"},
{"zip_code":"0294407","kana_pref":"ｲﾜﾃｹﾝ","kana_city":"ｵｳｼｭｳｼ","kana_address":"ｺﾛﾓｶﾞﾜｸｶﾝﾅﾘ","pref":"岩手県","city":"奥州市","address":"衣川区金成"},
{"zip_code":"0294303","kana_pref":"ｲﾜﾃｹﾝ","kana_city":"ｵｳｼｭｳｼ","kana_address":"ｺﾛﾓｶﾞﾜｸｷﾇﾊﾗ","pref":"岩手県","city":"奥州市","address":"衣川区衣原"},
{"zip_code":"0294353","kana_pref":"ｲﾜﾃｹﾝ","kana_city":"ｵｳｼｭｳｼ","kana_address":"ｺﾛﾓｶﾞﾜｸｷｭｳﾃﾞﾝ","pref":"岩手県","city":"奥州市","address":"衣川区旧殿"},
{"zip_code":"0294375","kana_pref":"ｲﾜﾃｹﾝ","kana_city":"ｵｳｼｭｳｼ","kana_address":"ｺﾛﾓｶﾞﾜｸｸﾗｶｹ","pref":"岩手県","city":"奥州市","address":"衣川区鞍掛"},
{"zip_code":"0294424","kana_pref":"ｲﾜﾃｹﾝ","kana_city":"ｵｳｼｭｳｼ","kana_address":"ｺﾛﾓｶﾞﾜｸｸﾘﾝﾄﾞｳ","pref":"岩手県","city":"奥州市","address":"衣川区九輪堂"},
{"zip_code":"0294405","kana_pref":"ｲﾜﾃｹﾝ","kana_city":"ｵｳｼｭｳｼ","kana_address":"ｺﾛﾓｶﾞﾜｸｸﾜﾉｷﾔﾁ","pref":"岩手県","city":"奥州市","address":"衣川区桑木谷地"},
{"zip_code":"0294317","kana_pref":"ｲﾜﾃｹﾝ","kana_city":"ｵｳｼｭｳｼ","kana_address":"ｺﾛﾓｶﾞﾜｸｸﾜﾊﾀ","pref":"岩手県","city":"奥州市","address":"衣川区桑畑"},
{"zip_code":"0294323","kana_pref":"ｲﾜﾃｹﾝ","kana_city":"ｵｳｼｭｳｼ","kana_address":"ｺﾛﾓｶﾞﾜｸｺｱﾝｼﾛ","pref":"岩手県","city":"奥州市","address":"衣川区小安代"},
{"zip_code":"0294306","kana_pref":"ｲﾜﾃｹﾝ","kana_city":"ｵｳｼｭｳｼ","kana_address":"ｺﾛﾓｶﾞﾜｸｺﾀﾞ","pref":"岩手県","city":"奥州市","address":"衣川区小田"},
{"zip_code":"0294432","kana_pref":"ｲﾜﾃｹﾝ","kana_city":"ｵｳｼｭｳｼ","kana_address":"ｺﾛﾓｶﾞﾜｸｺﾊﾞﾔｼ","pref":"岩手県","city":"奥州市","address":"衣川区小林"},
{"zip_code":"0294362","kana_pref":"ｲﾜﾃｹﾝ","kana_city":"ｵｳｼｭｳｼ","kana_address":"ｺﾛﾓｶﾞﾜｸｺﾊﾞﾔｼﾔﾏ","pref":"岩手県","city":"奥州市","address":"衣川区小林山"},
{"zip_code":"0294325","kana_pref":"ｲﾜﾃｹﾝ","kana_city":"ｵｳｼｭｳｼ","kana_address":"ｺﾛﾓｶﾞﾜｸｺﾏｻｲﾀ","pref":"岩手県","city":"奥州市","address":"衣川区小正板"},
{"zip_code":"0294333","kana_pref":"ｲﾜﾃｹﾝ","kana_city":"ｵｳｼｭｳｼ","kana_address":"ｺﾛﾓｶﾞﾜｸｺﾏﾊﾞ","pref":"岩手県","city":"奥州市","address":"衣川区駒場"},
{"zip_code":"0294344","kana_pref":"ｲﾜﾃｹﾝ","kana_city":"ｵｳｼｭｳｼ","kana_address":"ｺﾛﾓｶﾞﾜｸｻﾜﾀﾞ","pref":"岩手県","city":"奥州市","address":"衣川区沢田"},
{"zip_code":"0294444","kana_pref":"ｲﾜﾃｹﾝ","kana_city":"ｵｳｼｭｳｼ","kana_address":"ｺﾛﾓｶﾞﾜｸｼﾐｽﾞﾉｳｴ","pref":"岩手県","city":"奥州市","address":"衣川区清水の上"},
{"zip_code":"0294387","kana_pref":"ｲﾜﾃｹﾝ","kana_city":"ｵｳｼｭｳｼ","kana_address":"ｺﾛﾓｶﾞﾜｸｼﾓｵｵﾓﾘ","pref":"岩手県","city":"奥州市","address":"衣川区下大森"},
{"zip_code":"0294471","kana_pref":"ｲﾜﾃｹﾝ","kana_city":"ｵｳｼｭｳｼ","kana_address":"ｺﾛﾓｶﾞﾜｸｼﾓｶﾜｳﾁ","pref":"岩手県","city":"奥州市","address":"衣川区下河内"},
{"zip_code":"0294492","kana_pref":"ｲﾜﾃｹﾝ","kana_city":"ｵｳｼｭｳｼ","kana_address":"ｺﾛﾓｶﾞﾜｸｼﾓﾀﾁｻﾜ","pref":"岩手県","city":"奥州市","address":"衣川区下立沢"},
{"zip_code":"0294328","kana_pref":"ｲﾜﾃｹﾝ","kana_city":"ｵｳｼｭｳｼ","kana_address":"ｺﾛﾓｶﾞﾜｸｼﾓﾃﾗﾀﾞ","pref":"岩手県","city":"奥州市","address":"衣川区下寺田"},
{"zip_code":"0294378","kana_pref":"ｲﾜﾃｹﾝ","kana_city":"ｵｳｼｭｳｼ","kana_address":"ｺﾛﾓｶﾞﾜｸｼｮｳﾌﾞﾀﾞｲﾗ","pref":"岩手県","city":"奥州市","address":"衣川区菖蒲平"},
{"zip_code":"0294427","kana_pref":"ｲﾜﾃｹﾝ","kana_city":"ｵｳｼｭｳｼ","kana_address":"ｺﾛﾓｶﾞﾜｸｼﾞﾝﾊﾞｼﾀ","pref":"岩手県","city":"奥州市","address":"衣川区陣場下"},
{"zip_code":"0294348","kana_pref":"ｲﾜﾃｹﾝ","kana_city":"ｵｳｼｭｳｼ","kana_address":"ｺﾛﾓｶﾞﾜｸｽｷﾞﾉ","pref":"岩手県","city":"奥州市","address":"衣川区杉野"},
{"zip_code":"0294418","kana_pref":"ｲﾜﾃｹﾝ","kana_city":"ｵｳｼｭｳｼ","kana_address":"ｺﾛﾓｶﾞﾜｸｽｷﾞﾊﾞﾔｼ","pref":"岩手県","city":"奥州市","address":"衣川区杉林"},
{"zip_code":"0294413","kana_pref":"ｲﾜﾃｹﾝ","kana_city":"ｵｳｼｭｳｼ","kana_address":"ｺﾛﾓｶﾞﾜｸｾｷｼﾀ","pref":"岩手県","city":"奥州市","address":"衣川区堰下"},
{"zip_code":"0294382","kana_pref":"ｲﾜﾃｹﾝ","kana_city":"ｵｳｼｭｳｼ","kana_address":"ｺﾛﾓｶﾞﾜｸｾｷﾌﾞｸﾛ","pref":"岩手県","city":"奥州市","address":"衣川区関袋"},
{"zip_code":"0294422","kana_pref":"ｲﾜﾃｹﾝ","kana_city":"ｵｳｼｭｳｼ","kana_address":"ｺﾛﾓｶﾞﾜｸｾﾜﾗ","pref":"岩手県","city":"奥州市","address":"衣川区瀬原"},
{"zip_code":"0294423","kana_pref":"ｲﾜﾃｹﾝ","kana_city":"ｵｳｼｭｳｼ","kana_address":"ｺﾛﾓｶﾞﾜｸｾﾜﾗﾆｼｳﾗ","pref":"岩手県","city":"奥州市","address":"衣川区瀬原西浦"},
{"zip_code":"0294484","kana_pref":"ｲﾜﾃｹﾝ","kana_city":"ｵｳｼｭｳｼ","kana_address":"ｺﾛﾓｶﾞﾜｸｿｳﾐ","pref":"岩手県","city":"奥州市","address":"衣川区噌味"},
{"zip_code":"0294304","kana_pref":"ｲﾜﾃｹﾝ","kana_city":"ｵｳｼｭｳｼ","kana_address":"ｺﾛﾓｶﾞﾜｸｿﾄﾉｻﾜ","pref":"岩手県","city":"奥州市","address":"衣川区外の沢"},
{"zip_code":"0294486","kana_pref":"ｲﾜﾃｹﾝ","kana_city":"ｵｳｼｭｳｼ","kana_address":"ｺﾛﾓｶﾞﾜｸﾀｶﾉｽ","pref":"岩手県","city":"奥州市","address":"衣川区鷹の巣"},
{"zip_code":"0294342","kana_pref":"ｲﾜﾃｹﾝ","kana_city":"ｵｳｼｭｳｼ","kana_address":"ｺﾛﾓｶﾞﾜｸﾀｶﾎﾛ","pref":"岩手県","city":"奥州市","address":"衣川区高保呂"},
{"zip_code":"0294345","kana_pref":"ｲﾜﾃｹﾝ","kana_city":"ｵｳｼｭｳｼ","kana_address":"ｺﾛﾓｶﾞﾜｸﾀﾃｼﾛ","pref":"岩手県","city":"奥州市","address":"衣川区館城"},
{"zip_code":"0294431","kana_pref":"ｲﾜﾃｹﾝ","kana_city":"ｵｳｼｭｳｼ","kana_address":"ｺﾛﾓｶﾞﾜｸﾀﾅｶ","pref":"岩手県","city":"奥州市","address":"衣川区田中"},
{"zip_code":"0294439","kana_pref":"ｲﾜﾃｹﾝ","kana_city":"ｵｳｼｭｳｼ","kana_address":"ｺﾛﾓｶﾞﾜｸﾀﾅｶﾆｼ","pref":"岩手県","city":"奥州市","address":"衣川区田中西"},
{"zip_code":"0294408","kana_pref":"ｲﾜﾃｹﾝ","kana_city":"ｵｳｼｭｳｼ","kana_address":"ｺﾛﾓｶﾞﾜｸﾂﾁﾔ","pref":"岩手県","city":"奥州市","address":"衣川区土屋"},
{"zip_code":"0294404","kana_pref":"ｲﾜﾃｹﾝ","kana_city":"ｵｳｼｭｳｼ","kana_address":"ｺﾛﾓｶﾞﾜｸﾃﾗﾌﾞｸﾛ","pref":"岩手県","city":"奥州市","address":"衣川区寺袋"},
{"zip_code":"0294385","kana_pref":"ｲﾜﾃｹﾝ","kana_city":"ｵｳｼｭｳｼ","kana_address":"ｺﾛﾓｶﾞﾜｸﾄﾐｻﾜ","pref":"岩手県","city":"奥州市","address":"衣川区富沢"},
{"zip_code":"0294412","kana_pref":"ｲﾜﾃｹﾝ","kana_city":"ｵｳｼｭｳｼ","kana_address":"ｺﾛﾓｶﾞﾜｸﾄﾐﾀ","pref":"岩手県","city":"奥州市","address":"衣川区富田"},
{"zip_code":"0294417","kana_pref":"ｲﾜﾃｹﾝ","kana_city":"ｵｳｼｭｳｼ","kana_address":"ｺﾛﾓｶﾞﾜｸﾄﾐﾀﾏｴ","pref":"岩手県","city":"奥州市","address":"衣川区富田前"},
{"zip_code":"0294346","kana_pref":"ｲﾜﾃｹﾝ","kana_city":"ｵｳｼｭｳｼ","kana_address":"ｺﾛﾓｶﾞﾜｸﾄﾖﾏｷ","pref":"岩手県","city":"奥州市","address":"衣川区豊巻"},
{"zip_code":"0294389","kana_pref":"ｲﾜﾃｹﾝ","kana_city":"ｵｳｼｭｳｼ","kana_address":"ｺﾛﾓｶﾞﾜｸﾅｶﾞｲﾀｻﾜ","pref":"岩手県","city":"奥州市","address":"衣川区長板沢"},
{"zip_code":"0294472","kana_pref":"ｲﾜﾃｹﾝ","kana_city":"ｵｳｼｭｳｼ","kana_address":"ｺﾛﾓｶﾞﾜｸﾅｶｶﾜｳﾁ","pref":"岩手県","city":"奥州市","address":"衣川区中河内"},
{"zip_code":"0294305","kana_pref":"ｲﾜﾃｹﾝ","kana_city":"ｵｳｼｭｳｼ","kana_address":"ｺﾛﾓｶﾞﾜｸﾅｶﾞﾌｸﾛ","pref":"岩手県","city":"奥州市","address":"衣川区長袋"},
{"zip_code":"0294361","kana_pref":"ｲﾜﾃｹﾝ","kana_city":"ｵｳｼｭｳｼ","kana_address":"ｺﾛﾓｶﾞﾜｸﾅｶﾞﾌｸﾛ","pref":"岩手県","city":"奥州市","address":"衣川区長嚢"},
{"zip_code":"0294314","kana_pref":"ｲﾜﾃｹﾝ","kana_city":"ｵｳｼｭｳｼ","kana_address":"ｺﾛﾓｶﾞﾜｸﾅｶﾔｼｷ","pref":"岩手県","city":"奥州市","address":"衣川区中屋敷"},
{"zip_code":"0294475","kana_pref":"ｲﾜﾃｹﾝ","kana_city":"ｵｳｼｭｳｼ","kana_address":"ｺﾛﾓｶﾞﾜｸﾅｶﾔﾏ","pref":"岩手県","city":"奥州市","address":"衣川区中山"},
{"zip_code":"0294351","kana_pref":"ｲﾜﾃｹﾝ","kana_city":"ｵｳｼｭｳｼ","kana_address":"ｺﾛﾓｶﾞﾜｸﾅﾂｱｷ","pref":"岩手県","city":"奥州市","address":"衣川区夏秋"},
{"zip_code":"0294363","kana_pref":"ｲﾜﾃｹﾝ","kana_city":"ｵｳｼｭｳｼ","kana_address":"ｺﾛﾓｶﾞﾜｸﾅﾂﾅｼ","pref":"岩手県","city":"奥州市","address":"衣川区夏梨"},
{"zip_code":"0294445","kana_pref":"ｲﾜﾃｹﾝ","kana_city":"ｵｳｼｭｳｼ","kana_address":"ｺﾛﾓｶﾞﾜｸﾅﾉｶｲﾁﾊﾞ","pref":"岩手県","city":"奥州市","address":"衣川区七日市場"},
{"zip_code":"0294441","kana_pref":"ｲﾜﾃｹﾝ","kana_city":"ｵｳｼｭｳｼ","kana_address":"ｺﾛﾓｶﾞﾜｸﾅﾐｷﾏｴ","pref":"岩手県","city":"奥州市","address":"衣川区並木前"},
{"zip_code":"0294495","kana_pref":"ｲﾜﾃｹﾝ","kana_city":"ｵｳｼｭｳｼ","kana_address":"ｺﾛﾓｶﾞﾜｸﾅﾗﾊﾗ","pref":"岩手県","city":"奥州市","address":"衣川区楢原"},
{"zip_code":"0294494","kana_pref":"ｲﾜﾃｹﾝ","kana_city":"ｵｳｼｭｳｼ","kana_address":"ｺﾛﾓｶﾞﾜｸﾅﾗﾊﾗﾔﾏ","pref":"岩手県","city":"奥州市","address":"衣川区楢原山"},
{"zip_code":"0294364","kana_pref":"ｲﾜﾃｹﾝ","kana_city":"ｵｳｼｭｳｼ","kana_address":"ｺﾛﾓｶﾞﾜｸﾅﾚﾔﾏ","pref":"岩手県","city":"奥州市","address":"衣川区西風山"},
{"zip_code":"0294316","kana_pref":"ｲﾜﾃｹﾝ","kana_city":"ｵｳｼｭｳｼ","kana_address":"ｺﾛﾓｶﾞﾜｸﾅﾜｼﾛｻﾜ","pref":"岩手県","city":"奥州市","address":"衣川区苗代沢"},
{"zip_code":"0294456","kana_pref":"ｲﾜﾃｹﾝ","kana_city":"ｵｳｼｭｳｼ","kana_address":"ｺﾛﾓｶﾞﾜｸﾆｼｳﾗ","pref":"岩手県","city":"奥州市","address":"衣川区西裏"},
{"zip_code":"0294312","kana_pref":"ｲﾜﾃｹﾝ","kana_city":"ｵｳｼｭｳｼ","kana_address":"ｺﾛﾓｶﾞﾜｸﾆｼｸﾎﾞ","pref":"岩手県","city":"奥州市","address":"衣川区西窪"},
{"zip_code":"0294483","kana_pref":"ｲﾜﾃｹﾝ","kana_city":"ｵｳｼｭｳｼ","kana_address":"ｺﾛﾓｶﾞﾜｸﾇﾏﾉ","pref":"岩手県","city":"奥州市","address":"衣川区沼野"},
{"zip_code":"0294493","kana_pref":"ｲﾜﾃｹﾝ","kana_city":"ｵｳｼｭｳｼ","kana_address":"ｺﾛﾓｶﾞﾜｸﾉｻﾞｷ","pref":"岩手県","city":"奥州市","address":"衣川区野崎"},
{"zip_code":"0294354","kana_pref":"ｲﾜﾃｹﾝ","kana_city":"ｵｳｼｭｳｼ","kana_address":"ｺﾛﾓｶﾞﾜｸﾉｿﾞｷ","pref":"岩手県","city":"奥州市","address":"衣川区除"},
{"zip_code":"0294414","kana_pref":"ｲﾜﾃｹﾝ","kana_city":"ｵｳｼｭｳｼ","kana_address":"ｺﾛﾓｶﾞﾜｸﾉﾀﾞ","pref":"岩手県","city":"奥州市","address":"衣川区野田"},
{"zip_code":"0294343","kana_pref":"ｲﾜﾃｹﾝ","kana_city":"ｵｳｼｭｳｼ","kana_address":"ｺﾛﾓｶﾞﾜｸﾉﾄﾔｼｷ","pref":"岩手県","city":"奥州市","address":"衣川区能登屋敷"},
{"zip_code":"0294462","kana_pref":"ｲﾜﾃｹﾝ","kana_city":"ｵｳｼｭｳｼ","kana_address":"ｺﾛﾓｶﾞﾜｸﾊｯｾﾝ","pref":"岩手県","city":"奥州市","address":"衣川区八千"},
{"zip_code":"0294401","kana_pref":"ｲﾜﾃｹﾝ","kana_city":"ｵｳｼｭｳｼ","kana_address":"ｺﾛﾓｶﾞﾜｸﾊﾘﾔﾏ","pref":"岩手県","city":"奥州市","address":"衣川区張山"},
{"zip_code":"0294451","kana_pref":"ｲﾜﾃｹﾝ","kana_city":"ｵｳｼｭｳｼ","kana_address":"ｺﾛﾓｶﾞﾜｸﾋｶﾞｼｳﾗ","pref":"岩手県","city":"奥州市","address":"衣川区東裏"},
{"zip_code":"0294421","kana_pref":"ｲﾜﾃｹﾝ","kana_city":"ｵｳｼｭｳｼ","kana_address":"ｺﾛﾓｶﾞﾜｸﾋﾅﾀ","pref":"岩手県","city":"奥州市","address":"衣川区日向"},
{"zip_code":"0294371","kana_pref":"ｲﾜﾃｹﾝ","kana_city":"ｵｳｼｭｳｼ","kana_address":"ｺﾛﾓｶﾞﾜｸﾋﾔﾏｻﾜ","pref":"岩手県","city":"奥州市","address":"衣川区桧山沢"},
{"zip_code":"0294374","kana_pref":"ｲﾜﾃｹﾝ","kana_city":"ｵｳｼｭｳｼ","kana_address":"ｺﾛﾓｶﾞﾜｸﾋﾔﾏｻﾜﾔﾏ","pref":"岩手県","city":"奥州市","address":"衣川区桧山沢山"},
{"zip_code":"0294461","kana_pref":"ｲﾜﾃｹﾝ","kana_city":"ｵｳｼｭｳｼ","kana_address":"ｺﾛﾓｶﾞﾜｸﾋﾗ","pref":"岩手県","city":"奥州市","address":"衣川区平"},
{"zip_code":"0294331","kana_pref":"ｲﾜﾃｹﾝ","kana_city":"ｵｳｼｭｳｼ","kana_address":"ｺﾛﾓｶﾞﾜｸﾌｶｻﾜ","pref":"岩手県","city":"奥州市","address":"衣川区深沢"},
{"zip_code":"0294311","kana_pref":"ｲﾜﾃｹﾝ","kana_city":"ｵｳｼｭｳｼ","kana_address":"ｺﾛﾓｶﾞﾜｸﾌﾙﾀﾞﾃ","pref":"岩手県","city":"奥州市","address":"衣川区古館"},
{"zip_code":"0294332","kana_pref":"ｲﾜﾃｹﾝ","kana_city":"ｵｳｼｭｳｼ","kana_address":"ｺﾛﾓｶﾞﾜｸﾌﾙﾄﾞ","pref":"岩手県","city":"奥州市","address":"衣川区古戸"},
{"zip_code":"0294485","kana_pref":"ｲﾜﾃｹﾝ","kana_city":"ｵｳｼｭｳｼ","kana_address":"ｺﾛﾓｶﾞﾜｸﾎｳﾄｳﾔﾁ","pref":"岩手県","city":"奥州市","address":"衣川区宝塔谷地"},
{"zip_code":"0294402","kana_pref":"ｲﾜﾃｹﾝ","kana_city":"ｵｳｼｭｳｼ","kana_address":"ｺﾛﾓｶﾞﾜｸﾎｼﾔ","pref":"岩手県","city":"奥州市","address":"衣川区星屋"},
{"zip_code":"0294403","kana_pref":"ｲﾜﾃｹﾝ","kana_city":"ｵｳｼｭｳｼ","kana_address":"ｺﾛﾓｶﾞﾜｸﾎﾝﾀﾞﾜﾗ","pref":"岩手県","city":"奥州市","address":"衣川区本田原"},
{"zip_code":"0294496","kana_pref":"ｲﾜﾃｹﾝ","kana_city":"ｵｳｼｭｳｼ","kana_address":"ｺﾛﾓｶﾞﾜｸﾏｳﾁ","pref":"岩手県","city":"奥州市","address":"衣川区真打"},
{"zip_code":"0294464","kana_pref":"ｲﾜﾃｹﾝ","kana_city":"ｵｳｼｭｳｼ","kana_address":"ｺﾛﾓｶﾞﾜｸﾏｴﾀｷﾉｻﾜ","pref":"岩手県","city":"奥州市","address":"衣川区前滝の沢"},
{"zip_code":"0294327","kana_pref":"ｲﾜﾃｹﾝ","kana_city":"ｵｳｼｭｳｼ","kana_address":"ｺﾛﾓｶﾞﾜｸﾏｶﾞｹ","pref":"岩手県","city":"奥州市","address":"衣川区馬懸"},
{"zip_code":"0294324","kana_pref":"ｲﾜﾃｹﾝ","kana_city":"ｵｳｼｭｳｼ","kana_address":"ｺﾛﾓｶﾞﾜｸﾏｻｲﾀ","pref":"岩手県","city":"奥州市","address":"衣川区正板"},
{"zip_code":"0294372","kana_pref":"ｲﾜﾃｹﾝ","kana_city":"ｵｳｼｭｳｼ","kana_address":"ｺﾛﾓｶﾞﾜｸﾏﾂﾊﾞﾔｼ","pref":"岩手県","city":"奥州市","address":"衣川区松林"},
{"zip_code":"0294443","kana_pref":"ｲﾜﾃｹﾝ","kana_city":"ｵｳｼｭｳｼ","kana_address":"ｺﾛﾓｶﾞﾜｸﾑｲｶｲﾁﾊﾞ","pref":"岩手県","city":"奥州市","address":"衣川区六日市場"},
{"zip_code":"0294473","kana_pref":"ｲﾜﾃｹﾝ","kana_city":"ｵｳｼｭｳｼ","kana_address":"ｺﾛﾓｶﾞﾜｸﾑｶｲ","pref":"岩手県","city":"奥州市","address":"衣川区向"},
{"zip_code":"0294416","kana_pref":"ｲﾜﾃｹﾝ","kana_city":"ｵｳｼｭｳｼ","kana_address":"ｺﾛﾓｶﾞﾜｸﾑｶｲﾀﾞﾃ","pref":"岩手県","city":"奥州市","address":"衣川区向館"},
{"zip_code":"0294415","kana_pref":"ｲﾜﾃｹﾝ","kana_city":"ｵｳｼｭｳｼ","kana_address":"ｺﾛﾓｶﾞﾜｸﾑｶｲﾀﾞﾃﾔｷﾞ","pref":"岩手県","city":"奥州市","address":"衣川区向館谷起"},
{"zip_code":"0294438","kana_pref":"ｲﾜﾃｹﾝ","kana_city":"ｵｳｼｭｳｼ","kana_address":"ｺﾛﾓｶﾞﾜｸﾑﾛﾉｷ","pref":"岩手県","city":"奥州市","address":"衣川区室の木"},
{"zip_code":"0294334","kana_pref":"ｲﾜﾃｹﾝ","kana_city":"ｵｳｼｭｳｼ","kana_address":"ｺﾛﾓｶﾞﾜｸﾓｶﾞﾌｸﾛ","pref":"岩手県","city":"奥州市","address":"衣川区百ケ袋"},
{"zip_code":"0294497","kana_pref":"ｲﾜﾃｹﾝ","kana_city":"ｵｳｼｭｳｼ","kana_address":"ｺﾛﾓｶﾞﾜｸﾓﾁｺﾛﾊﾞｼ","pref":"岩手県","city":"奥州市","address":"衣川区餅転"},
{"zip_code":"0294376","kana_pref":"ｲﾜﾃｹﾝ","kana_city":"ｵｳｼｭｳｼ","kana_address":"ｺﾛﾓｶﾞﾜｸﾓﾄﾏｷ","pref":"岩手県","city":"奥州市","address":"衣川区本巻"},
{"zip_code":"0294355","kana_pref":"ｲﾜﾃｹﾝ","kana_city":"ｵｳｼｭｳｼ","kana_address":"ｺﾛﾓｶﾞﾜｸﾔﾏｷﾞｼ","pref":"岩手県","city":"奥州市","address":"衣川区山岸"},
{"zip_code":"0294453","kana_pref":"ｲﾜﾃｹﾝ","kana_city":"ｵｳｼｭｳｼ","kana_address":"ｺﾛﾓｶﾞﾜｸﾔﾏｸﾞﾁ","pref":"岩手県","city":"奥州市","address":"衣川区山口"},
{"zip_code":"0294373","kana_pref":"ｲﾜﾃｹﾝ","kana_city":"ｵｳｼｭｳｼ","kana_address":"ｺﾛﾓｶﾞﾜｸﾔﾏﾀﾞ","pref":"岩手県","city":"奥州市","address":"衣川区山田"},
{"zip_code":"0294455","kana_pref":"ｲﾜﾃｹﾝ","kana_city":"ｵｳｼｭｳｼ","kana_address":"ｺﾛﾓｶﾞﾜｸﾖｺﾐﾁｼﾀ","pref":"岩手県","city":"奥州市","address":"衣川区横道下"},
{"zip_code":"0294463","kana_pref":"ｲﾜﾃｹﾝ","kana_city":"ｵｳｼｭｳｼ","kana_address":"ｺﾛﾓｶﾞﾜｸﾖｼｶﾞｻﾜ","pref":"岩手県","city":"奥州市","address":"衣川区葭ケ沢"},
{"zip_code":"0294341","kana_pref":"ｲﾜﾃｹﾝ","kana_city":"ｵｳｼｭｳｼ","kana_address":"ｺﾛﾓｶﾞﾜｸﾛｸﾄﾞｳ","pref":"岩手県","city":"奥州市","address":"衣川区六道"},
{"zip_code":"0294205","kana_pref":"ｲﾜﾃｹﾝ","kana_city":"ｵｳｼｭｳｼ","kana_address":"ﾏｴｻﾜｸｱｲﾉｻﾜ","pref":"岩手県","city":"奥州市","address":"前沢区合ノ沢"},
{"zip_code":"0294206","kana_pref":"ｲﾜﾃｹﾝ","kana_city":"ｵｳｼｭｳｼ","kana_address":"ﾏｴｻﾜｸｱｶｻｶ","pref":"岩手県","city":"奥州市","address":"前沢区赤坂"},
{"zip_code":"0294207","kana_pref":"ｲﾜﾃｹﾝ","kana_city":"ｵｳｼｭｳｼ","kana_address":"ﾏｴｻﾜｸｱｶﾂﾗ","pref":"岩手県","city":"奥州市","address":"前沢区赤面"},
{"zip_code":"0294209","kana_pref":"ｲﾜﾃｹﾝ","kana_city":"ｵｳｼｭｳｼ","kana_address":"ﾏｴｻﾜｸｱｽｶﾄﾞｵﾘ","pref":"岩手県","city":"奥州市","address":"前沢区あすか通"},
{"zip_code":"0294205","kana_pref":"ｲﾜﾃｹﾝ","kana_city":"ｵｳｼｭｳｼ","kana_address":"ﾏｴｻﾜｸｱﾃﾗｻﾜ","pref":"岩手県","city":"奥州市","address":"前沢区安寺沢"},
{"zip_code":"0294201","kana_pref":"ｲﾜﾃｹﾝ","kana_city":"ｵｳｼｭｳｼ","kana_address":"ﾏｴｻﾜｸｱﾍﾞﾀﾃ","pref":"岩手県","city":"奥州市","address":"前沢区阿部舘"},
{"zip_code":"0294208","kana_pref":"ｲﾜﾃｹﾝ","kana_city":"ｵｳｼｭｳｼ","kana_address":"ﾏｴｻﾜｸｱﾜｶﾞｼﾏ","pref":"岩手県","city":"奥州市","address":"前沢区粟ケ島"},
{"zip_code":"0294205","kana_pref":"ｲﾜﾃｹﾝ","kana_city":"ｵｳｼｭｳｼ","kana_address":"ﾏｴｻﾜｸｲｼﾀﾞ","pref":"岩手県","city":"奥州市","address":"前沢区石田"},
{"zip_code":"0294205","kana_pref":"ｲﾜﾃｹﾝ","kana_city":"ｵｳｼｭｳｼ","kana_address":"ﾏｴｻﾜｸｲﾁﾉｻﾜ","pref":"岩手県","city":"奥州市","address":"前沢区一ノ沢"},
{"zip_code":"0294207","kana_pref":"ｲﾜﾃｹﾝ","kana_city":"ｵｳｼｭｳｼ","kana_address":"ﾏｴｻﾜｸｲｯﾎﾟﾝｽｷﾞ","pref":"岩手県","city":"奥州市","address":"前沢区一本杉"},
{"zip_code":"0294205","kana_pref":"ｲﾜﾃｹﾝ","kana_city":"ｵｳｼｭｳｼ","kana_address":"ﾏｴｻﾜｸｳﾉｷ","pref":"岩手県","city":"奥州市","address":"前沢区鵜ノ木"},
{"zip_code":"0294205","kana_pref":"ｲﾜﾃｹﾝ","kana_city":"ｵｳｼｭｳｼ","kana_address":"ﾏｴｻﾜｸｳﾉｷﾀﾞ","pref":"岩手県","city":"奥州市","address":"前沢区鵜ノ木田"},
{"zip_code":"0294206","kana_pref":"ｲﾜﾃｹﾝ","kana_city":"ｵｳｼｭｳｼ","kana_address":"ﾏｴｻﾜｸｳﾗｼﾝﾃﾞﾝ","pref":"岩手県","city":"奥州市","address":"前沢区裏新田"},
{"zip_code":"0294205","kana_pref":"ｲﾜﾃｹﾝ","kana_city":"ｵｳｼｭｳｼ","kana_address":"ﾏｴｻﾜｸｳﾙｼﾉ","pref":"岩手県","city":"奥州市","address":"前沢区うるし野"},
{"zip_code":"0294211","kana_pref":"ｲﾜﾃｹﾝ","kana_city":"ｵｳｼｭｳｼ","kana_address":"ﾏｴｻﾜｸｴｷﾋｶﾞｼ","pref":"岩手県","city":"奥州市","address":"前沢区駅東"},
{"zip_code":"0294207","kana_pref":"ｲﾜﾃｹﾝ","kana_city":"ｵｳｼｭｳｼ","kana_address":"ﾏｴｻﾜｸｵｵｻﾞｸﾗ","pref":"岩手県","city":"奥州市","address":"前沢区大桜"},
{"zip_code":"0294205","kana_pref":"ｲﾜﾃｹﾝ","kana_city":"ｵｳｼｭｳｼ","kana_address":"ﾏｴｻﾜｸｵｵﾌﾞｸﾛ","pref":"岩手県","city":"奥州市","address":"前沢区大袋"},
{"zip_code":"0294205","kana_pref":"ｲﾜﾃｹﾝ","kana_city":"ｵｳｼｭｳｼ","kana_address":"ﾏｴｻﾜｸｵｷﾀ","pref":"岩手県","city":"奥州市","address":"前沢区沖田"},
{"zip_code":"0294205","kana_pref":"ｲﾜﾃｹﾝ","kana_city":"ｵｳｼｭｳｼ","kana_address":"ﾏｴｻﾜｸｵｻﾜｸﾞﾁ","pref":"岩手県","city":"奥州市","address":"前沢区小沢口"},
{"zip_code":"0294208","kana_pref":"ｲﾜﾃｹﾝ","kana_city":"ｵｳｼｭｳｼ","kana_address":"ﾏｴｻﾜｸｶﾉﾊﾀ","pref":"岩手県","city":"奥州市","address":"前沢区河ノ畑"},
{"zip_code":"0294208","kana_pref":"ｲﾜﾃｹﾝ","kana_city":"ｵｳｼｭｳｼ","kana_address":"ﾏｴｻﾜｸｶﾌﾞｷ","pref":"岩手県","city":"奥州市","address":"前沢区株樹"},
{"zip_code":"0294205","kana_pref":"ｲﾜﾃｹﾝ","kana_city":"ｵｳｼｭｳｼ","kana_address":"ﾏｴｻﾜｸｶﾜｳﾁ","pref":"岩手県","city":"奥州市","address":"前沢区川内"},
{"zip_code":"0294203","kana_pref":"ｲﾜﾃｹﾝ","kana_city":"ｵｳｼｭｳｼ","kana_address":"ﾏｴｻﾜｸｷﾀｸﾎﾞ","pref":"岩手県","city":"奥州市","address":"前沢区北久保"},
{"zip_code":"0294206","kana_pref":"ｲﾜﾃｹﾝ","kana_city":"ｵｳｼｭｳｼ","kana_address":"ﾏｴｻﾜｸｷﾂﾈｲｼ","pref":"岩手県","city":"奥州市","address":"前沢区狐石"},
{"zip_code":"0294203","kana_pref":"ｲﾜﾃｹﾝ","kana_city":"ｵｳｼｭｳｼ","kana_address":"ﾏｴｻﾜｸｷﾂﾈﾄﾞｳ","pref":"岩手県","city":"奥州市","address":"前沢区狐堂"},
{"zip_code":"0294205","kana_pref":"ｲﾜﾃｹﾝ","kana_city":"ｵｳｼｭｳｼ","kana_address":"ﾏｴｻﾜｸｷﾇﾄﾒ","pref":"岩手県","city":"奥州市","address":"前沢区衣関"},
{"zip_code":"0294201","kana_pref":"ｲﾜﾃｹﾝ","kana_city":"ｵｳｼｭｳｼ","kana_address":"ﾏｴｻﾜｸｷｭｳﾃﾞﾝ","pref":"岩手県","city":"奥州市","address":"前沢区久田"},
{"zip_code":"0294201","kana_pref":"ｲﾜﾃｹﾝ","kana_city":"ｵｳｼｭｳｼ","kana_address":"ﾏｴｻﾜｸｹﾞﾝｼﾞｶﾞｻｷ","pref":"岩手県","city":"奥州市","address":"前沢区源氏ケ崎"},
{"zip_code":"0294208","kana_pref":"ｲﾜﾃｹﾝ","kana_city":"ｵｳｼｭｳｼ","kana_address":"ﾏｴｻﾜｸｺﾞｺﾞｳﾀ","pref":"岩手県","city":"奥州市","address":"前沢区五合田"},
{"zip_code":"0294207","kana_pref":"ｲﾜﾃｹﾝ","kana_city":"ｵｳｼｭｳｼ","kana_address":"ﾏｴｻﾜｸｺﾞｼﾞｭｳﾆﾝﾏﾁ","pref":"岩手県","city":"奥州市","address":"前沢区五十人町"},
{"zip_code":"0294201","kana_pref":"ｲﾜﾃｹﾝ","kana_city":"ｵｳｼｭｳｼ","kana_address":"ﾏｴｻﾜｸｺｼﾞｮｳ","pref":"岩手県","city":"奥州市","address":"前沢区古城"},
{"zip_code":"0294206","kana_pref":"ｲﾜﾃｹﾝ","kana_city":"ｵｳｼｭｳｼ","kana_address":"ﾏｴｻﾜｸｺﾏｽｲ","pref":"岩手県","city":"奥州市","address":"前沢区駒水"},
{"zip_code":"0294205","kana_pref":"ｲﾜﾃｹﾝ","kana_city":"ｵｳｼｭｳｼ","kana_address":"ﾏｴｻﾜｸｻﾄ","pref":"岩手県","city":"奥州市","address":"前沢区里"},
{"zip_code":"0294204","kana_pref":"ｲﾜﾃｹﾝ","kana_city":"ｵｳｼｭｳｼ","kana_address":"ﾏｴｻﾜｸｼﾀﾔｷﾞ","pref":"岩手県","city":"奥州市","address":"前沢区下谷起"},
{"zip_code":"0294204","kana_pref":"ｲﾜﾃｹﾝ","kana_city":"ｵｳｼｭｳｼ","kana_address":"ﾏｴｻﾜｸｼﾏ","pref":"岩手県","city":"奥州市","address":"前沢区島"},
{"zip_code":"0294205","kana_pref":"ｲﾜﾃｹﾝ","kana_city":"ｵｳｼｭｳｼ","kana_address":"ﾏｴｻﾜｸｼﾐｽﾞ","pref":"岩手県","city":"奥州市","address":"前沢区清水"},
{"zip_code":"0294207","kana_pref":"ｲﾜﾃｹﾝ","kana_city":"ｵｳｼｭｳｼ","kana_address":"ﾏｴｻﾜｸｼﾓｺｳｼﾞ","pref":"岩手県","city":"奥州市","address":"前沢区下小路"},
{"zip_code":"0294205","kana_pref":"ｲﾜﾃｹﾝ","kana_city":"ｵｳｼｭｳｼ","kana_address":"ﾏｴｻﾜｸｼﾞｬﾉﾊﾅ","pref":"岩手県","city":"奥州市","address":"前沢区蛇ノ鼻"},
{"zip_code":"0294204","kana_pref":"ｲﾜﾃｹﾝ","kana_city":"ｵｳｼｭｳｼ","kana_address":"ﾏｴｻﾜｸｼｭｸ","pref":"岩手県","city":"奥州市","address":"前沢区宿"},
{"zip_code":"0294202","kana_pref":"ｲﾜﾃｹﾝ","kana_city":"ｵｳｼｭｳｼ","kana_address":"ﾏｴｻﾜｸｼﾗﾔﾏ","pref":"岩手県","city":"奥州市","address":"前沢区白山"},
{"zip_code":"0294205","kana_pref":"ｲﾜﾃｹﾝ","kana_city":"ｵｳｼｭｳｼ","kana_address":"ﾏｴｻﾜｸｼﾛﾄﾘﾀﾞﾃ","pref":"岩手県","city":"奥州市","address":"前沢区白鳥舘"},
{"zip_code":"0294205","kana_pref":"ｲﾜﾃｹﾝ","kana_city":"ｵｳｼｭｳｼ","kana_address":"ﾏｴｻﾜｸｼﾝｼﾞｮｳ","pref":"岩手県","city":"奥州市","address":"前沢区新城"},
{"zip_code":"0294206","kana_pref":"ｲﾜﾃｹﾝ","kana_city":"ｵｳｼｭｳｼ","kana_address":"ﾏｴｻﾜｸｼﾞﾝﾊﾞ","pref":"岩手県","city":"奥州市","address":"前沢区陣場"},
{"zip_code":"0294208","kana_pref":"ｲﾜﾃｹﾝ","kana_city":"ｵｳｼｭｳｼ","kana_address":"ﾏｴｻﾜｸｼﾝﾏﾁ","pref":"岩手県","city":"奥州市","address":"前沢区新町"},
{"zip_code":"0294208","kana_pref":"ｲﾜﾃｹﾝ","kana_city":"ｵｳｼｭｳｼ","kana_address":"ﾏｴｻﾜｸｼﾝﾏﾁｳﾗ","pref":"岩手県","city":"奥州市","address":"前沢区新町裏"},
{"zip_code":"0294203","kana_pref":"ｲﾜﾃｹﾝ","kana_city":"ｵｳｼｭｳｼ","kana_address":"ﾏｴｻﾜｸｾｲﾎﾞ","pref":"岩手県","city":"奥州市","address":"前沢区生母"},
{"zip_code":"0294207","kana_pref":"ｲﾜﾃｹﾝ","kana_city":"ｵｳｼｭｳｼ","kana_address":"ﾏｴｻﾜｸﾀｲﾗｺｳｼﾞ","pref":"岩手県","city":"奥州市","address":"前沢区平小路"},
{"zip_code":"0294207","kana_pref":"ｲﾜﾃｹﾝ","kana_city":"ｵｳｼｭｳｼ","kana_address":"ﾏｴｻﾜｸﾀｲﾗﾏｴ","pref":"岩手県","city":"奥州市","address":"前沢区平前"},
{"zip_code":"0294208","kana_pref":"ｲﾜﾃｹﾝ","kana_city":"ｵｳｼｭｳｼ","kana_address":"ﾏｴｻﾜｸﾀﾞｲﾘﾝｼﾞｼﾀ","pref":"岩手県","city":"奥州市","address":"前沢区大林寺下"},
{"zip_code":"0294204","kana_pref":"ｲﾜﾃｹﾝ","kana_city":"ｵｳｼｭｳｼ","kana_address":"ﾏｴｻﾜｸﾀｶﾊﾀｹ","pref":"岩手県","city":"奥州市","address":"前沢区高畑"},
{"zip_code":"0294208","kana_pref":"ｲﾜﾃｹﾝ","kana_city":"ｵｳｼｭｳｼ","kana_address":"ﾏｴｻﾜｸﾀｹｻﾞﾜ","pref":"岩手県","city":"奥州市","address":"前沢区竹沢"},
{"zip_code":"0294208","kana_pref":"ｲﾜﾃｹﾝ","kana_city":"ｵｳｼｭｳｼ","kana_address":"ﾏｴｻﾜｸﾀﾃｲｼ","pref":"岩手県","city":"奥州市","address":"前沢区立石"},
{"zip_code":"0294204","kana_pref":"ｲﾜﾃｹﾝ","kana_city":"ｵｳｼｭｳｼ","kana_address":"ﾏｴｻﾜｸﾀﾅｶ","pref":"岩手県","city":"奥州市","address":"前沢区田中"},
{"zip_code":"0294208","kana_pref":"ｲﾜﾃｹﾝ","kana_city":"ｵｳｼｭｳｼ","kana_address":"ﾏｴｻﾜｸﾀﾊﾞﾀ","pref":"岩手県","city":"奥州市","address":"前沢区田畠"},
{"zip_code":"0294206","kana_pref":"ｲﾜﾃｹﾝ","kana_city":"ｵｳｼｭｳｼ","kana_address":"ﾏｴｻﾜｸﾀﾛｳｶﾞｻﾜ","pref":"岩手県","city":"奥州市","address":"前沢区太郎ケ沢"},
{"zip_code":"0294205","kana_pref":"ｲﾜﾃｹﾝ","kana_city":"ｵｳｼｭｳｼ","kana_address":"ﾏｴｻﾜｸﾂﾂﾐﾀﾞ","pref":"岩手県","city":"奥州市","address":"前沢区堤田"},
{"zip_code":"0294205","kana_pref":"ｲﾜﾃｹﾝ","kana_city":"ｵｳｼｭｳｼ","kana_address":"ﾏｴｻﾜｸﾃﾙｲﾀﾞﾃ","pref":"岩手県","city":"奥州市","address":"前沢区照井舘"},
{"zip_code":"0294207","kana_pref":"ｲﾜﾃｹﾝ","kana_city":"ｵｳｼｭｳｼ","kana_address":"ﾏｴｻﾜｸﾄｳｶﾞｻｷ","pref":"岩手県","city":"奥州市","address":"前沢区塔ケ崎"},
{"zip_code":"0294204","kana_pref":"ｲﾜﾃｹﾝ","kana_city":"ｵｳｼｭｳｼ","kana_address":"ﾏｴｻﾜｸﾄﾞｳﾊﾞ","pref":"岩手県","city":"奥州市","address":"前沢区道場"},
{"zip_code":"0294205","kana_pref":"ｲﾜﾃｹﾝ","kana_city":"ｵｳｼｭｳｼ","kana_address":"ﾏｴｻﾜｸﾄｸｻﾜ","pref":"岩手県","city":"奥州市","address":"前沢区徳沢"},
{"zip_code":"0294207","kana_pref":"ｲﾜﾃｹﾝ","kana_city":"ｵｳｼｭｳｼ","kana_address":"ﾏｴｻﾜｸﾄﾏﾘｶﾞｻｷ","pref":"岩手県","city":"奥州市","address":"前沢区泊ケ崎"},
{"zip_code":"0294204","kana_pref":"ｲﾜﾃｹﾝ","kana_city":"ｵｳｼｭｳｼ","kana_address":"ﾏｴｻﾜｸﾄﾘﾏﾁｺﾞﾔ","pref":"岩手県","city":"奥州市","address":"前沢区鳥待小屋"},
{"zip_code":"0294204","kana_pref":"ｲﾜﾃｹﾝ","kana_city":"ｵｳｼｭｳｼ","kana_address":"ﾏｴｻﾜｸﾅｶｸﾎﾞ","pref":"岩手県","city":"奥州市","address":"前沢区中久保"},
{"zip_code":"0294205","kana_pref":"ｲﾜﾃｹﾝ","kana_city":"ｵｳｼｭｳｼ","kana_address":"ﾏｴｻﾜｸﾅｶﾞｻﾜ","pref":"岩手県","city":"奥州市","address":"前沢区永沢"},
{"zip_code":"0294208","kana_pref":"ｲﾜﾃｹﾝ","kana_city":"ｵｳｼｭｳｼ","kana_address":"ﾏｴｻﾜｸﾅｶﾀﾞ","pref":"岩手県","city":"奥州市","address":"前沢区中田"},
{"zip_code":"0294204","kana_pref":"ｲﾜﾃｹﾝ","kana_city":"ｵｳｼｭｳｼ","kana_address":"ﾏｴｻﾜｸﾅｶﾞﾀﾞﾝ","pref":"岩手県","city":"奥州市","address":"前沢区長檀"},
{"zip_code":"0294205","kana_pref":"ｲﾜﾃｹﾝ","kana_city":"ｵｳｼｭｳｼ","kana_address":"ﾏｴｻﾜｸﾅｶﾞﾈ","pref":"岩手県","city":"奥州市","address":"前沢区長根"},
{"zip_code":"0294204","kana_pref":"ｲﾜﾃｹﾝ","kana_city":"ｵｳｼｭｳｼ","kana_address":"ﾏｴｻﾜｸﾅｶﾑﾗ","pref":"岩手県","city":"奥州市","address":"前沢区中村"},
{"zip_code":"0294205","kana_pref":"ｲﾜﾃｹﾝ","kana_city":"ｵｳｼｭｳｼ","kana_address":"ﾏｴｻﾜｸﾅｶﾔｼｷ","pref":"岩手県","city":"奥州市","address":"前沢区中屋敷"},
{"zip_code":"0294208","kana_pref":"ｲﾜﾃｹﾝ","kana_city":"ｵｳｼｭｳｼ","kana_address":"ﾏｴｻﾜｸﾅﾉｶﾏﾁ","pref":"岩手県","city":"奥州市","address":"前沢区七日町"},
{"zip_code":"0294208","kana_pref":"ｲﾜﾃｹﾝ","kana_city":"ｵｳｼｭｳｼ","kana_address":"ﾏｴｻﾜｸﾅﾉｶﾏﾁｳﾗ","pref":"岩手県","city":"奥州市","address":"前沢区七日町裏"},
{"zip_code":"0294205","kana_pref":"ｲﾜﾃｹﾝ","kana_city":"ｵｳｼｭｳｼ","kana_address":"ﾏｴｻﾜｸﾅﾐｱﾗｲ","pref":"岩手県","city":"奥州市","address":"前沢区浪洗"},
{"zip_code":"0294208","kana_pref":"ｲﾜﾃｹﾝ","kana_city":"ｵｳｼｭｳｼ","kana_address":"ﾏｴｻﾜｸﾆｼﾞｭｳﾆﾝﾏﾁ","pref":"岩手県","city":"奥州市","address":"前沢区二十人町"},
{"zip_code":"0294208","kana_pref":"ｲﾜﾃｹﾝ","kana_city":"ｵｳｼｭｳｼ","kana_address":"ﾏｴｻﾜｸﾆｼﾞｭｳﾆﾝﾏﾁｳﾗ","pref":"岩手県","city":"奥州市","address":"前沢区二十人町裏"},
{"zip_code":"0294205","kana_pref":"ｲﾜﾃｹﾝ","kana_city":"ｵｳｼｭｳｼ","kana_address":"ﾏｴｻﾜｸﾆﾉｻﾜ","pref":"岩手県","city":"奥州市","address":"前沢区二ノ沢"},
{"zip_code":"0294205","kana_pref":"ｲﾜﾃｹﾝ","kana_city":"ｵｳｼｭｳｼ","kana_address":"ﾏｴｻﾜｸﾇﾏｼﾞﾘ","pref":"岩手県","city":"奥州市","address":"前沢区沼尻"},
{"zip_code":"0294205","kana_pref":"ｲﾜﾃｹﾝ","kana_city":"ｵｳｼｭｳｼ","kana_address":"ﾏｴｻﾜｸﾇﾏﾉｻﾜ","pref":"岩手県","city":"奥州市","address":"前沢区沼ノ沢"},
{"zip_code":"0294205","kana_pref":"ｲﾜﾃｹﾝ","kana_city":"ｵｳｼｭｳｼ","kana_address":"ﾏｴｻﾜｸﾋﾅﾀ","pref":"岩手県","city":"奥州市","address":"前沢区日向"},
{"zip_code":"0294206","kana_pref":"ｲﾜﾃｹﾝ","kana_city":"ｵｳｼｭｳｼ","kana_address":"ﾏｴｻﾜｸﾋﾖｹﾏﾂ","pref":"岩手県","city":"奥州市","address":"前沢区日除松"},
{"zip_code":"0294205","kana_pref":"ｲﾜﾃｹﾝ","kana_city":"ｵｳｼｭｳｼ","kana_address":"ﾏｴｻﾜｸﾌｸﾖｳ","pref":"岩手県","city":"奥州市","address":"前沢区福養"},
{"zip_code":"0294204","kana_pref":"ｲﾜﾃｹﾝ","kana_city":"ｵｳｼｭｳｼ","kana_address":"ﾏｴｻﾜｸﾌﾙｶﾜ","pref":"岩手県","city":"奥州市","address":"前沢区古川"},
{"zip_code":"0294205","kana_pref":"ｲﾜﾃｹﾝ","kana_city":"ｵｳｼｭｳｼ","kana_address":"ﾏｴｻﾜｸﾎｼﾊﾞ","pref":"岩手県","city":"奥州市","address":"前沢区干場"},
{"zip_code":"0294205","kana_pref":"ｲﾜﾃｹﾝ","kana_city":"ｵｳｼｭｳｼ","kana_address":"ﾏｴｻﾜｸﾏｴﾉ","pref":"岩手県","city":"奥州市","address":"前沢区前野"},
{"zip_code":"0294206","kana_pref":"ｲﾜﾃｹﾝ","kana_city":"ｵｳｼｭｳｼ","kana_address":"ﾏｴｻﾜｸﾐｽﾓﾘ","pref":"岩手県","city":"奥州市","address":"前沢区簾森"},
{"zip_code":"0294207","kana_pref":"ｲﾜﾃｹﾝ","kana_city":"ｵｳｼｭｳｼ","kana_address":"ﾏｴｻﾜｸﾐｯｶﾏﾁ","pref":"岩手県","city":"奥州市","address":"前沢区三日町"},
{"zip_code":"0294207","kana_pref":"ｲﾜﾃｹﾝ","kana_city":"ｵｳｼｭｳｼ","kana_address":"ﾏｴｻﾜｸﾐｯｶﾏﾁｳﾗ","pref":"岩手県","city":"奥州市","address":"前沢区三日町浦"},
{"zip_code":"0294207","kana_pref":"ｲﾜﾃｹﾝ","kana_city":"ｵｳｼｭｳｼ","kana_address":"ﾏｴｻﾜｸﾐｯｶﾏﾁｼﾝｳﾗ","pref":"岩手県","city":"奥州市","address":"前沢区三日町新裏"},
{"zip_code":"0294205","kana_pref":"ｲﾜﾃｹﾝ","kana_city":"ｵｳｼｭｳｼ","kana_address":"ﾏｴｻﾜｸﾐﾅﾐｼﾞﾝﾊﾞ","pref":"岩手県","city":"奥州市","address":"前沢区南陣場"},
{"zip_code":"0294205","kana_pref":"ｲﾜﾃｹﾝ","kana_city":"ｵｳｼｭｳｼ","kana_address":"ﾏｴｻﾜｸﾐﾅﾐﾄｳｶﾞｻｷ","pref":"岩手県","city":"奥州市","address":"前沢区南塔ヶ崎"},
{"zip_code":"0294205","kana_pref":"ｲﾜﾃｹﾝ","kana_city":"ｵｳｼｭｳｼ","kana_address":"ﾏｴｻﾜｸﾐﾅﾐﾅｶｼﾞﾏ","pref":"岩手県","city":"奥州市","address":"前沢区南中島"},
{"zip_code":"0294204","kana_pref":"ｲﾜﾃｹﾝ","kana_city":"ｵｳｼｭｳｼ","kana_address":"ﾏｴｻﾜｸﾐﾅﾐﾏｴｻﾜ","pref":"岩手県","city":"奥州市","address":"前沢区南前沢"},
{"zip_code":"0294205","kana_pref":"ｲﾜﾃｹﾝ","kana_city":"ｵｳｼｭｳｼ","kana_address":"ﾏｴｻﾜｸﾐﾉﾜ","pref":"岩手県","city":"奥州市","address":"前沢区箕輪"},
{"zip_code":"0294204","kana_pref":"ｲﾜﾃｹﾝ","kana_city":"ｵｳｼｭｳｼ","kana_address":"ﾏｴｻﾜｸﾑｶｲﾀﾞ","pref":"岩手県","city":"奥州市","address":"前沢区向田"},
{"zip_code":"0294204","kana_pref":"ｲﾜﾃｹﾝ","kana_city":"ｵｳｼｭｳｼ","kana_address":"ﾏｴｻﾜｸﾓﾄｽｷﾞ","pref":"岩手県","city":"奥州市","address":"前沢区本杉"},
{"zip_code":"0294205","kana_pref":"ｲﾜﾃｹﾝ","kana_city":"ｵｳｼｭｳｼ","kana_address":"ﾏｴｻﾜｸﾓﾛﾃｻﾞﾜ","pref":"岩手県","city":"奥州市","address":"前沢区両手沢"},
{"zip_code":"0294205","kana_pref":"ｲﾜﾃｹﾝ","kana_city":"ｵｳｼｭｳｼ","kana_address":"ﾏｴｻﾜｸﾔｷﾞ","pref":"岩手県","city":"奥州市","address":"前沢区谷記"},
{"zip_code":"0294205","kana_pref":"ｲﾜﾃｹﾝ","kana_city":"ｵｳｼｭｳｼ","kana_address":"ﾏｴｻﾜｸﾔｷﾞ","pref":"岩手県","city":"奥州市","address":"前沢区谷起"},
{"zip_code":"0294205","kana_pref":"ｲﾜﾃｹﾝ","kana_city":"ｵｳｼｭｳｼ","kana_address":"ﾏｴｻﾜｸﾔｷﾞﾀ","pref":"岩手県","city":"奥州市","address":"前沢区谷記田"},
{"zip_code":"0294205","kana_pref":"ｲﾜﾃｹﾝ","kana_city":"ｵｳｼｭｳｼ","kana_address":"ﾏｴｻﾜｸﾔｷﾞﾀ","pref":"岩手県","city":"奥州市","address":"前沢区谷起田"},
{"zip_code":"0294205","kana_pref":"ｲﾜﾃｹﾝ","kana_city":"ｵｳｼｭｳｼ","kana_address":"ﾏｴｻﾜｸﾔｸﾞﾗﾏｴ","pref":"岩手県","city":"奥州市","address":"前沢区櫓前"},
{"zip_code":"0294207","kana_pref":"ｲﾜﾃｹﾝ","kana_city":"ｵｳｼｭｳｼ","kana_address":"ﾏｴｻﾜｸﾔｼｷ","pref":"岩手県","city":"奥州市","address":"前沢区屋敷"},
{"zip_code":"0294204","kana_pref":"ｲﾜﾃｹﾝ","kana_city":"ｵｳｼｭｳｼ","kana_address":"ﾏｴｻﾜｸﾔﾁ","pref":"岩手県","city":"奥州市","address":"前沢区谷地"},
{"zip_code":"0294208","kana_pref":"ｲﾜﾃｹﾝ","kana_city":"ｵｳｼｭｳｼ","kana_address":"ﾏｴｻﾜｸﾔﾏｼﾀ","pref":"岩手県","city":"奥州市","address":"前沢区山下"},
{"zip_code":"0294204","kana_pref":"ｲﾜﾃｹﾝ","kana_city":"ｵｳｼｭｳｼ","kana_address":"ﾏｴｻﾜｸﾔﾜﾀ","pref":"岩手県","city":"奥州市","address":"前沢区八幡"},
{"zip_code":"0294204","kana_pref":"ｲﾜﾃｹﾝ","kana_city":"ｵｳｼｭｳｼ","kana_address":"ﾏｴｻﾜｸﾔﾜﾀﾏｴ","pref":"岩手県","city":"奥州市","address":"前沢区八幡前"},
{"zip_code":"0294206","kana_pref":"ｲﾜﾃｹﾝ","kana_city":"ｵｳｼｭｳｼ","kana_address":"ﾏｴｻﾜｸﾖｳｶﾞﾓﾘ","pref":"岩手県","city":"奥州市","address":"前沢区養ケ森"},
{"zip_code":"0294205","kana_pref":"ｲﾜﾃｹﾝ","kana_city":"ｵｳｼｭｳｼ","kana_address":"ﾏｴｻﾜｸﾛｯﾎﾟﾝﾏﾂ","pref":"岩手県","city":"奥州市","address":"前沢区六本松"},
{"zip_code":"0295500","kana_pref":"ｲﾜﾃｹﾝ","kana_city":"ﾜｶﾞｸﾞﾝﾆｼﾜｶﾞﾏﾁ","kana_address":"","pref":"岩手県","city":"和賀郡西和賀町","address":""},
{"zip_code":"0295503","kana_pref":"ｲﾜﾃｹﾝ","kana_city":"ﾜｶﾞｸﾞﾝﾆｼﾜｶﾞﾏﾁ","kana_address":"ｱﾅｱｹ22ﾁﾜﾘ","pref":"岩手県","city":"和賀郡西和賀町","address":"穴明２２地割"},
{"zip_code":"0295503","kana_pref":"ｲﾜﾃｹﾝ","kana_city":"ﾜｶﾞｸﾞﾝﾆｼﾜｶﾞﾏﾁ","kana_address":"ｱﾅｱｹ23ﾁﾜﾘ","pref":"岩手県","city":"和賀郡西和賀町","address":"穴明２３地割"},
{"zip_code":"0295511","kana_pref":"ｲﾜﾃｹﾝ","kana_city":"ﾜｶﾞｸﾞﾝﾆｼﾜｶﾞﾏﾁ","kana_address":"ｳｴﾉﾉ39ﾁﾜﾘ","pref":"岩手県","city":"和賀郡西和賀町","address":"上野々３９地割"},
{"zip_code":"0295523","kana_pref":"ｲﾜﾃｹﾝ","kana_city":"ﾜｶﾞｸﾞﾝﾆｼﾜｶﾞﾏﾁ","kana_address":"ｴｯﾁｭｳﾊﾀ64ﾁﾜﾘ-ｴｯﾁｭｳﾊﾀ66ﾁﾜﾘ","pref":"岩手県","city":"和賀郡西和賀町","address":"越中畑６４地割〜越中畑６６地割"},
{"zip_code":"0295507","kana_pref":"ｲﾜﾃｹﾝ","kana_city":"ﾜｶﾞｸﾞﾝﾆｼﾜｶﾞﾏﾁ","kana_address":"ｵｵｸﾂ36ﾁﾜﾘ","pref":"岩手県","city":"和賀郡西和賀町","address":"大沓３６地割"},
{"zip_code":"0295521","kana_pref":"ｲﾜﾃｹﾝ","kana_city":"ﾜｶﾞｸﾞﾝﾆｼﾜｶﾞﾏﾁ","kana_address":"ｵｵﾜﾀﾘ57ﾁﾜﾘ","pref":"岩手県","city":"和賀郡西和賀町","address":"大渡５７地割"},
{"zip_code":"0295513","kana_pref":"ｲﾜﾃｹﾝ","kana_city":"ﾜｶﾞｸﾞﾝﾆｼﾜｶﾞﾏﾁ","kana_address":"ｶｯﾁ51ﾁﾜﾘ","pref":"岩手県","city":"和賀郡西和賀町","address":"甲子５１地割"},
{"zip_code":"0295523","kana_pref":"ｲﾜﾃｹﾝ","kana_city":"ﾜｶﾞｸﾞﾝﾆｼﾜｶﾞﾏﾁ","kana_address":"ｶﾂﾗｺﾞｻﾞﾜ75ﾁﾜﾘ","pref":"岩手県","city":"和賀郡西和賀町","address":"桂子沢７５地割"},
{"zip_code":"0295523","kana_pref":"ｲﾜﾃｹﾝ","kana_city":"ﾜｶﾞｸﾞﾝﾆｼﾜｶﾞﾏﾁ","kana_address":"ｶﾂﾗｺﾞｻﾞﾜ76ﾁﾜﾘ","pref":"岩手県","city":"和賀郡西和賀町","address":"桂子沢７６地割"},
{"zip_code":"0295502","kana_pref":"ｲﾜﾃｹﾝ","kana_city":"ﾜｶﾞｸﾞﾝﾆｼﾜｶﾞﾏﾁ","kana_address":"ｶﾊﾞｻﾜ16ﾁﾜﾘ","pref":"岩手県","city":"和賀郡西和賀町","address":"樺沢１６地割"},
{"zip_code":"0295502","kana_pref":"ｲﾜﾃｹﾝ","kana_city":"ﾜｶﾞｸﾞﾝﾆｼﾜｶﾞﾏﾁ","kana_address":"ｶﾊﾞｻﾜ17ﾁﾜﾘ","pref":"岩手県","city":"和賀郡西和賀町","address":"樺沢１７地割"},
{"zip_code":"0295512","kana_pref":"ｲﾜﾃｹﾝ","kana_city":"ﾜｶﾞｸﾞﾝﾆｼﾜｶﾞﾏﾁ","kana_address":"ｶﾜｼﾘ40ﾁﾜﾘ","pref":"岩手県","city":"和賀郡西和賀町","address":"川尻４０地割"},
{"zip_code":"0295512","kana_pref":"ｲﾜﾃｹﾝ","kana_city":"ﾜｶﾞｸﾞﾝﾆｼﾜｶﾞﾏﾁ","kana_address":"ｶﾜｼﾘ41ﾁﾜﾘ","pref":"岩手県","city":"和賀郡西和賀町","address":"川尻４１地割"},
{"zip_code":"0295513","kana_pref":"ｲﾜﾃｹﾝ","kana_city":"ﾜｶﾞｸﾞﾝﾆｼﾜｶﾞﾏﾁ","kana_address":"ｸｻｲｻﾞﾜ47ﾁﾜﾘ","pref":"岩手県","city":"和賀郡西和賀町","address":"草井沢４７地割"},
{"zip_code":"0295521","kana_pref":"ｲﾜﾃｹﾝ","kana_city":"ﾜｶﾞｸﾞﾝﾆｼﾜｶﾞﾏﾁ","kana_address":"ｺﾂﾅｷﾞｻﾞﾜ54ﾁﾜﾘ-ｺﾂﾅｷﾞｻﾞﾜ56ﾁﾜﾘ","pref":"岩手県","city":"和賀郡西和賀町","address":"小繋沢５４地割〜小繋沢５６地割"},
{"zip_code":"0295501","kana_pref":"ｲﾜﾃｹﾝ","kana_city":"ﾜｶﾞｸﾞﾝﾆｼﾜｶﾞﾏﾁ","kana_address":"ｻｿｳ1ﾁﾜﾘ-ｻｿｳ6ﾁﾜﾘ","pref":"岩手県","city":"和賀郡西和賀町","address":"左草１地割〜左草６地割"},
{"zip_code":"0295616","kana_pref":"ｲﾜﾃｹﾝ","kana_city":"ﾜｶﾞｸﾞﾝﾆｼﾜｶﾞﾏﾁ","kana_address":"ｻﾜｳﾁｲｽﾞﾐｻﾞﾜ","pref":"岩手県","city":"和賀郡西和賀町","address":"沢内泉沢"},
{"zip_code":"0295614","kana_pref":"ｲﾜﾃｹﾝ","kana_city":"ﾜｶﾞｸﾞﾝﾆｼﾜｶﾞﾏﾁ","kana_address":"ｻﾜｳﾁｵｵﾀ","pref":"岩手県","city":"和賀郡西和賀町","address":"沢内太田"},
{"zip_code":"0295612","kana_pref":"ｲﾜﾃｹﾝ","kana_city":"ﾜｶﾞｸﾞﾝﾆｼﾜｶﾞﾏﾁ","kana_address":"ｻﾜｳﾁｵｵﾉ","pref":"岩手県","city":"和賀郡西和賀町","address":"沢内大野"},
{"zip_code":"0295703","kana_pref":"ｲﾜﾃｹﾝ","kana_city":"ﾜｶﾞｸﾞﾝﾆｼﾜｶﾞﾏﾁ","kana_address":"ｻﾜｳﾁｶｲｻﾞﾜ","pref":"岩手県","city":"和賀郡西和賀町","address":"沢内貝沢"},
{"zip_code":"0295701","kana_pref":"ｲﾜﾃｹﾝ","kana_city":"ﾜｶﾞｸﾞﾝﾆｼﾜｶﾞﾏﾁ","kana_address":"ｻﾜｳﾁｶﾜﾌﾈ","pref":"岩手県","city":"和賀郡西和賀町","address":"沢内川舟"},
{"zip_code":"0295621","kana_pref":"ｲﾜﾃｹﾝ","kana_city":"ﾜｶﾞｸﾞﾝﾆｼﾜｶﾞﾏﾁ","kana_address":"ｻﾜｳﾁｹﾝﾊﾟﾝ","pref":"岩手県","city":"和賀郡西和賀町","address":"沢内鍵飯"},
{"zip_code":"0295615","kana_pref":"ｲﾜﾃｹﾝ","kana_city":"ﾜｶﾞｸﾞﾝﾆｼﾜｶﾞﾏﾁ","kana_address":"ｻﾜｳﾁｻﾙﾊｼ","pref":"岩手県","city":"和賀郡西和賀町","address":"沢内猿橋"},
{"zip_code":"0295611","kana_pref":"ｲﾜﾃｹﾝ","kana_city":"ﾜｶﾞｸﾞﾝﾆｼﾜｶﾞﾏﾁ","kana_address":"ｻﾜｳﾁｼﾝﾏﾁ","pref":"岩手県","city":"和賀郡西和賀町","address":"沢内新町"},
{"zip_code":"0295617","kana_pref":"ｲﾜﾃｹﾝ","kana_city":"ﾜｶﾞｸﾞﾝﾆｼﾜｶﾞﾏﾁ","kana_address":"ｻﾜｳﾁﾅｶﾞｾﾉ","pref":"岩手県","city":"和賀郡西和賀町","address":"沢内長瀬野"},
{"zip_code":"0295619","kana_pref":"ｲﾜﾃｹﾝ","kana_city":"ﾜｶﾞｸﾞﾝﾆｼﾜｶﾞﾏﾁ","kana_address":"ｻﾜｳﾁﾍﾞﾝﾃﾝ","pref":"岩手県","city":"和賀郡西和賀町","address":"沢内弁天"},
{"zip_code":"0295613","kana_pref":"ｲﾜﾃｹﾝ","kana_city":"ﾜｶﾞｸﾞﾝﾆｼﾜｶﾞﾏﾁ","kana_address":"ｻﾜｳﾁﾏｴｺﾞｳ","pref":"岩手県","city":"和賀郡西和賀町","address":"沢内前郷"},
{"zip_code":"0295618","kana_pref":"ｲﾜﾃｹﾝ","kana_city":"ﾜｶﾞｸﾞﾝﾆｼﾜｶﾞﾏﾁ","kana_address":"ｻﾜｳﾁﾘｮｳｻﾞﾜ","pref":"岩手県","city":"和賀郡西和賀町","address":"沢内両沢"},
{"zip_code":"0295702","kana_pref":"ｲﾜﾃｹﾝ","kana_city":"ﾜｶﾞｸﾞﾝﾆｼﾜｶﾞﾏﾁ","kana_address":"ｻﾜｳﾁﾜｶﾊﾀ","pref":"岩手県","city":"和賀郡西和賀町","address":"沢内若畑"},
{"zip_code":"0295523","kana_pref":"ｲﾜﾃｹﾝ","kana_city":"ﾜｶﾞｸﾞﾝﾆｼﾜｶﾞﾏﾁ","kana_address":"ｻﾜﾅｶ73ﾁﾜﾘ","pref":"岩手県","city":"和賀郡西和賀町","address":"沢中７３地割"},
{"zip_code":"0295523","kana_pref":"ｲﾜﾃｹﾝ","kana_city":"ﾜｶﾞｸﾞﾝﾆｼﾜｶﾞﾏﾁ","kana_address":"ｻﾜﾅｶ74ﾁﾜﾘ","pref":"岩手県","city":"和賀郡西和賀町","address":"沢中７４地割"},
{"zip_code":"0295502","kana_pref":"ｲﾜﾃｹﾝ","kana_city":"ﾜｶﾞｸﾞﾝﾆｼﾜｶﾞﾏﾁ","kana_address":"ｼﾀﾏｴ7ﾁﾜﾘ-ｼﾀﾏｴ14ﾁﾜﾘ","pref":"岩手県","city":"和賀郡西和賀町","address":"下前７地割〜下前１４地割"},
{"zip_code":"0295503","kana_pref":"ｲﾜﾃｹﾝ","kana_city":"ﾜｶﾞｸﾞﾝﾆｼﾜｶﾞﾏﾁ","kana_address":"ｼﾐｽﾞｶﾞﾉ18ﾁﾜﾘ","pref":"岩手県","city":"和賀郡西和賀町","address":"清水ケ野１８地割"},
{"zip_code":"0295501","kana_pref":"ｲﾜﾃｹﾝ","kana_city":"ﾜｶﾞｸﾞﾝﾆｼﾜｶﾞﾏﾁ","kana_address":"ｼﾓｻｿｳ77ﾁﾜﾘ-ｼﾓｻｿｳ80ﾁﾜﾘ","pref":"岩手県","city":"和賀郡西和賀町","address":"下左草７７地割〜下左草８０地割"},
{"zip_code":"0295523","kana_pref":"ｲﾜﾃｹﾝ","kana_city":"ﾜｶﾞｸﾞﾝﾆｼﾜｶﾞﾏﾁ","kana_address":"ｼﾛｷﾉ67ﾁﾜﾘ","pref":"岩手県","city":"和賀郡西和賀町","address":"白木野６７地割"},
{"zip_code":"0295513","kana_pref":"ｲﾜﾃｹﾝ","kana_city":"ﾜｶﾞｸﾞﾝﾆｼﾜｶﾞﾏﾁ","kana_address":"ｽｷﾞﾅﾊﾀ44ﾁﾜﾘ","pref":"岩手県","city":"和賀郡西和賀町","address":"杉名畑４４地割"},
{"zip_code":"0295522","kana_pref":"ｲﾜﾃｹﾝ","kana_city":"ﾜｶﾞｸﾞﾝﾆｼﾜｶﾞﾏﾁ","kana_address":"ｽｺﾞｳ63ﾁﾜﾘ","pref":"岩手県","city":"和賀郡西和賀町","address":"巣郷６３地割"},
{"zip_code":"0295504","kana_pref":"ｲﾜﾃｹﾝ","kana_city":"ﾜｶﾞｸﾞﾝﾆｼﾜｶﾞﾏﾁ","kana_address":"ﾂｷｻﾞﾜ25ﾁﾜﾘ-ﾂｷｻﾞﾜ28ﾁﾜﾘ","pref":"岩手県","city":"和賀郡西和賀町","address":"槻沢２５地割〜槻沢２８地割"},
{"zip_code":"0295502","kana_pref":"ｲﾜﾃｹﾝ","kana_city":"ﾜｶﾞｸﾞﾝﾆｼﾜｶﾞﾏﾁ","kana_address":"ﾄﾗｻﾜ15ﾁﾜﾘ","pref":"岩手県","city":"和賀郡西和賀町","address":"寅沢１５地割"},
{"zip_code":"0295522","kana_pref":"ｲﾜﾃｹﾝ","kana_city":"ﾜｶﾞｸﾞﾝﾆｼﾜｶﾞﾏﾁ","kana_address":"ﾅｶﾑﾗ58ﾁﾜﾘ","pref":"岩手県","city":"和賀郡西和賀町","address":"中村５８地割"},
{"zip_code":"0295522","kana_pref":"ｲﾜﾃｹﾝ","kana_city":"ﾜｶﾞｸﾞﾝﾆｼﾜｶﾞﾏﾁ","kana_address":"ﾅｶﾑﾗ59ﾁﾜﾘ","pref":"岩手県","city":"和賀郡西和賀町","address":"中村５９地割"},
{"zip_code":"0295522","kana_pref":"ｲﾜﾃｹﾝ","kana_city":"ﾜｶﾞｸﾞﾝﾆｼﾜｶﾞﾏﾁ","kana_address":"ﾉﾉｼｭｸ60ﾁﾜﾘ-ﾉﾉｼｭｸ62ﾁﾜﾘ","pref":"岩手県","city":"和賀郡西和賀町","address":"野々宿６０地割〜野々宿６２地割"},
{"zip_code":"0295523","kana_pref":"ｲﾜﾃｹﾝ","kana_city":"ﾜｶﾞｸﾞﾝﾆｼﾜｶﾞﾏﾁ","kana_address":"ﾎｿﾅｲ68ﾁﾜﾘ","pref":"岩手県","city":"和賀郡西和賀町","address":"細内６８地割"},
{"zip_code":"0295523","kana_pref":"ｲﾜﾃｹﾝ","kana_city":"ﾜｶﾞｸﾞﾝﾆｼﾜｶﾞﾏﾁ","kana_address":"ﾎｿﾅｲ69ﾁﾜﾘ","pref":"岩手県","city":"和賀郡西和賀町","address":"細内６９地割"},
{"zip_code":"0295513","kana_pref":"ｲﾜﾃｹﾝ","kana_city":"ﾜｶﾞｸﾞﾝﾆｼﾜｶﾞﾏﾁ","kana_address":"ﾎﾝﾅｲ46ﾁﾜﾘ","pref":"岩手県","city":"和賀郡西和賀町","address":"本内４６地割"},
{"zip_code":"0295503","kana_pref":"ｲﾜﾃｹﾝ","kana_city":"ﾜｶﾞｸﾞﾝﾆｼﾜｶﾞﾏﾁ","kana_address":"ﾏｷﾞﾉ24ﾁﾜﾘ","pref":"岩手県","city":"和賀郡西和賀町","address":"間木野２４地割"},
{"zip_code":"0295513","kana_pref":"ｲﾜﾃｹﾝ","kana_city":"ﾜｶﾞｸﾞﾝﾆｼﾜｶﾞﾏﾁ","kana_address":"ﾐﾐﾄﾞﾘ49ﾁﾜﾘ","pref":"岩手県","city":"和賀郡西和賀町","address":"耳取４９地割"},
{"zip_code":"0295513","kana_pref":"ｲﾜﾃｹﾝ","kana_city":"ﾜｶﾞｸﾞﾝﾆｼﾜｶﾞﾏﾁ","kana_address":"ﾓﾄﾔｼｷ48ﾁﾜﾘ","pref":"岩手県","city":"和賀郡西和賀町","address":"本屋敷４８地割"},
{"zip_code":"0295523","kana_pref":"ｲﾜﾃｹﾝ","kana_city":"ﾜｶﾞｸﾞﾝﾆｼﾜｶﾞﾏﾁ","kana_address":"ﾔﾅｷﾞｻﾞﾜ70ﾁﾜﾘ","pref":"岩手県","city":"和賀郡西和賀町","address":"柳沢７０地割"},
{"zip_code":"0295523","kana_pref":"ｲﾜﾃｹﾝ","kana_city":"ﾜｶﾞｸﾞﾝﾆｼﾜｶﾞﾏﾁ","kana_address":"ﾔﾅｷﾞｻﾞﾜ71ﾁﾜﾘ","pref":"岩手県","city":"和賀郡西和賀町","address":"柳沢７１地割"},
{"zip_code":"0295514","kana_pref":"ｲﾜﾃｹﾝ","kana_city":"ﾜｶﾞｸﾞﾝﾆｼﾜｶﾞﾏﾁ","kana_address":"ﾕｶﾞﾜ52ﾁﾜﾘ","pref":"岩手県","city":"和賀郡西和賀町","address":"湯川５２地割"},
{"zip_code":"0295514","kana_pref":"ｲﾜﾃｹﾝ","kana_city":"ﾜｶﾞｸﾞﾝﾆｼﾜｶﾞﾏﾁ","kana_address":"ﾕｶﾞﾜ53ﾁﾜﾘ","pref":"岩手県","city":"和賀郡西和賀町","address":"湯川５３地割"},
{"zip_code":"0295503","kana_pref":"ｲﾜﾃｹﾝ","kana_city":"ﾜｶﾞｸﾞﾝﾆｼﾜｶﾞﾏﾁ","kana_address":"ﾕﾀﾞ19ﾁﾜﾘ-ﾕﾀﾞ21ﾁﾜﾘ","pref":"岩手県","city":"和賀郡西和賀町","address":"湯田１９地割〜湯田２１地割"},
{"zip_code":"0295506","kana_pref":"ｲﾜﾃｹﾝ","kana_city":"ﾜｶﾞｸﾞﾝﾆｼﾜｶﾞﾏﾁ","kana_address":"ﾕﾉｻﾜ31ﾁﾜﾘ-ﾕﾉｻﾜ35ﾁﾜﾘ","pref":"岩手県","city":"和賀郡西和賀町","address":"湯之沢３１地割〜湯之沢３５地割"},
{"zip_code":"0295505","kana_pref":"ｲﾜﾃｹﾝ","kana_city":"ﾜｶﾞｸﾞﾝﾆｼﾜｶﾞﾏﾁ","kana_address":"ﾕﾓﾄ29ﾁﾜﾘ","pref":"岩手県","city":"和賀郡西和賀町","address":"湯本２９地割"},
{"zip_code":"0295505","kana_pref":"ｲﾜﾃｹﾝ","kana_city":"ﾜｶﾞｸﾞﾝﾆｼﾜｶﾞﾏﾁ","kana_address":"ﾕﾓﾄ30ﾁﾜﾘ","pref":"岩手県","city":"和賀郡西和賀町","address":"湯本３０地割"},
{"zip_code":"0295523","kana_pref":"ｲﾜﾃｹﾝ","kana_city":"ﾜｶﾞｸﾞﾝﾆｼﾜｶﾞﾏﾁ","kana_address":"ﾖｼｶﾞｻﾜ72ﾁﾜﾘ","pref":"岩手県","city":"和賀郡西和賀町","address":"芦ケ沢７２地割"},
{"zip_code":"0295513","kana_pref":"ｲﾜﾃｹﾝ","kana_city":"ﾜｶﾞｸﾞﾝﾆｼﾜｶﾞﾏﾁ","kana_address":"ﾜｼﾉｽ50ﾁﾜﾘ","pref":"岩手県","city":"和賀郡西和賀町","address":"鷲之巣５０地割"},
{"zip_code":"0294500","kana_pref":"ｲﾜﾃｹﾝ","kana_city":"ｲｻﾜｸﾞﾝｶﾈｶﾞｻｷﾁｮｳ","kana_address":"","pref":"岩手県","city":"胆沢郡金ケ崎町","address":""},
{"zip_code":"0294505","kana_pref":"ｲﾜﾃｹﾝ","kana_city":"ｲｻﾜｸﾞﾝｶﾈｶﾞｻｷﾁｮｳ","kana_address":"ﾅｶﾞｻｶｴ","pref":"岩手県","city":"胆沢郡金ケ崎町","address":"永栄"},
{"zip_code":"0294504","kana_pref":"ｲﾜﾃｹﾝ","kana_city":"ｲｻﾜｸﾞﾝｶﾈｶﾞｻｷﾁｮｳ","kana_address":"ﾅｶﾞｻﾜ","pref":"岩手県","city":"胆沢郡金ケ崎町","address":"永沢"},
{"zip_code":"0294503","kana_pref":"ｲﾜﾃｹﾝ","kana_city":"ｲｻﾜｸﾞﾝｶﾈｶﾞｻｷﾁｮｳ","kana_address":"ﾆｼﾈ","pref":"岩手県","city":"胆沢郡金ケ崎町","address":"西根"},
{"zip_code":"0294502","kana_pref":"ｲﾜﾃｹﾝ","kana_city":"ｲｻﾜｸﾞﾝｶﾈｶﾞｻｷﾁｮｳ","kana_address":"ﾐｶｼﾞﾘ","pref":"岩手県","city":"胆沢郡金ケ崎町","address":"三ケ尻"},
{"zip_code":"0294501","kana_pref":"ｲﾜﾃｹﾝ","kana_city":"ｲｻﾜｸﾞﾝｶﾈｶﾞｻｷﾁｮｳ","kana_address":"ﾛｸﾊﾗ","pref":"岩手県","city":"胆沢郡金ケ崎町","address":"六原"},
{"zip_code":"0294100","kana_pref":"ｲﾜﾃｹﾝ","kana_city":"ﾆｼｲﾜｲｸﾞﾝﾋﾗｲｽﾞﾐﾁｮｳ","kana_address":"","pref":"岩手県","city":"西磐井郡平泉町","address":""},
{"zip_code":"0294101","kana_pref":"ｲﾜﾃｹﾝ","kana_city":"ﾆｼｲﾜｲｸﾞﾝﾋﾗｲｽﾞﾐﾁｮｳ","kana_address":"ﾅｶﾞｼﾏ","pref":"岩手県","city":"西磐井郡平泉町","address":"長島"},
{"zip_code":"0294102","kana_pref":"ｲﾜﾃｹﾝ","kana_city":"ﾆｼｲﾜｲｸﾞﾝﾋﾗｲｽﾞﾐﾁｮｳ","kana_address":"ﾋﾗｲｽﾞﾐ","pref":"岩手県","city":"西磐井郡平泉町","address":"平泉"},
{"zip_code":"0292300","kana_pref":"ｲﾜﾃｹﾝ","kana_city":"ｹｾﾝｸﾞﾝｽﾐﾀﾁｮｳ","kana_address":"","pref":"岩手県","city":"気仙郡住田町","address":""},
{"zip_code":"0292501","kana_pref":"ｲﾜﾃｹﾝ","kana_city":"ｹｾﾝｸﾞﾝｽﾐﾀﾁｮｳ","kana_address":"ｶﾐｱﾘｽ","pref":"岩手県","city":"気仙郡住田町","address":"上有住"},
{"zip_code":"0292502","kana_pref":"ｲﾜﾃｹﾝ","kana_city":"ｹｾﾝｸﾞﾝｽﾐﾀﾁｮｳ","kana_address":"ｼﾓｱﾘｽ","pref":"岩手県","city":"気仙郡住田町","address":"下有住"},
{"zip_code":"0292311","kana_pref":"ｲﾜﾃｹﾝ","kana_city":"ｹｾﾝｸﾞﾝｽﾐﾀﾁｮｳ","kana_address":"ｾﾀﾏｲ","pref":"岩手県","city":"気仙郡住田町","address":"世田米"}]}