{"zip_code":[
{"zip_code":"0310000","kana_pref":"ｱｵﾓﾘｹﾝ","kana_city":"ﾊﾁﾉﾍｼ","kana_address":"","pref":"青森県","city":"八戸市","address":""},
{"zip_code":"0310804","kana_pref":"ｱｵﾓﾘｹﾝ","kana_city":"ﾊﾁﾉﾍｼ","kana_address":"ｱｵﾊﾞ","pref":"青森県","city":"八戸市","address":"青葉"},
{"zip_code":"0310824","kana_pref":"ｱｵﾓﾘｹﾝ","kana_city":"ﾊﾁﾉﾍｼ","kana_address":"ｱｻﾋｶﾞｵｶ","pref":"青森県","city":"八戸市","address":"旭ケ丘"},
{"zip_code":"0310055","kana_pref":"ｱｵﾓﾘｹﾝ","kana_city":"ﾊﾁﾉﾍｼ","kana_address":"ｱﾗﾏﾁ","pref":"青森県","city":"八戸市","address":"荒町"},
{"zip_code":"0310013","kana_pref":"ｱｵﾓﾘｹﾝ","kana_city":"ﾊﾁﾉﾍｼ","kana_address":"ｲｼﾃｱﾗｲ","pref":"青森県","city":"八戸市","address":"石手洗"},
{"zip_code":"0310054","kana_pref":"ｱｵﾓﾘｹﾝ","kana_city":"ﾊﾁﾉﾍｼ","kana_address":"ｲﾅﾘﾁｮｳ","pref":"青森県","city":"八戸市","address":"稲荷町"},
{"zip_code":"0310088","kana_pref":"ｱｵﾓﾘｹﾝ","kana_city":"ﾊﾁﾉﾍｼ","kana_address":"ｲﾜｲｽﾞﾐﾁｮｳ","pref":"青森県","city":"八戸市","address":"岩泉町"},
{"zip_code":"0310075","kana_pref":"ｱｵﾓﾘｹﾝ","kana_city":"ﾊﾁﾉﾍｼ","kana_address":"ｳﾁﾏﾙ","pref":"青森県","city":"八戸市","address":"内丸"},
{"zip_code":"0310073","kana_pref":"ｱｵﾓﾘｹﾝ","kana_city":"ﾊﾁﾉﾍｼ","kana_address":"ｳﾙｲﾁ","pref":"青森県","city":"八戸市","address":"売市"},
{"zip_code":"0310833","kana_pref":"ｱｵﾓﾘｹﾝ","kana_city":"ﾊﾁﾉﾍｼ","kana_address":"ｵｵｸﾎﾞ","pref":"青森県","city":"八戸市","address":"大久保"},
{"zip_code":"0310081","kana_pref":"ｱｵﾓﾘｹﾝ","kana_city":"ﾊﾁﾉﾍｼ","kana_address":"ｶｼﾜｻﾞｷ","pref":"青森県","city":"八戸市","address":"柏崎"},
{"zip_code":"0310053","kana_pref":"ｱｵﾓﾘｹﾝ","kana_city":"ﾊﾁﾉﾍｼ","kana_address":"ｶｼﾞｼﾁｮｳ","pref":"青森県","city":"八戸市","address":"徒士町"},
{"zip_code":"0310037","kana_pref":"ｱｵﾓﾘｹﾝ","kana_city":"ﾊﾁﾉﾍｼ","kana_address":"ｶｼﾞﾁｮｳ","pref":"青森県","city":"八戸市","address":"鍛冶町"},
{"zip_code":"0310843","kana_pref":"ｱｵﾓﾘｹﾝ","kana_city":"ﾊﾁﾉﾍｼ","kana_address":"ｶﾈﾊﾏ","pref":"青森県","city":"八戸市","address":"金浜"},
{"zip_code":"0310057","kana_pref":"ｱｵﾓﾘｹﾝ","kana_city":"ﾊﾁﾉﾍｼ","kana_address":"ｶﾐｶｼﾞｼﾁｮｳ","pref":"青森県","city":"八戸市","address":"上徒士町"},
{"zip_code":"0310058","kana_pref":"ｱｵﾓﾘｹﾝ","kana_city":"ﾊﾁﾉﾍｼ","kana_address":"ｶﾐｸﾐﾁｮｳ","pref":"青森県","city":"八戸市","address":"上組町"},
{"zip_code":"0310007","kana_pref":"ｱｵﾓﾘｹﾝ","kana_city":"ﾊﾁﾉﾍｼ","kana_address":"ｸｼﾋﾞｷ","pref":"青森県","city":"八戸市","address":"櫛引"},
{"zip_code":"0310083","kana_pref":"ｱｵﾓﾘｹﾝ","kana_city":"ﾊﾁﾉﾍｼ","kana_address":"ｸﾎﾞﾁｮｳ","pref":"青森県","city":"八戸市","address":"窪町"},
{"zip_code":"0310801","kana_pref":"ｱｵﾓﾘｹﾝ","kana_city":"ﾊﾁﾉﾍｼ","kana_address":"ｺｳﾖｳ","pref":"青森県","city":"八戸市","address":"江陽"},
{"zip_code":"0310802","kana_pref":"ｱｵﾓﾘｹﾝ","kana_city":"ﾊﾁﾉﾍｼ","kana_address":"ｺﾅｶﾉ","pref":"青森県","city":"八戸市","address":"小中野"},
{"zip_code":"0310023","kana_pref":"ｱｵﾓﾘｹﾝ","kana_city":"ﾊﾁﾉﾍｼ","kana_address":"ｺﾚｶﾜ","pref":"青森県","city":"八戸市","address":"是川"},
{"zip_code":"0310834","kana_pref":"ｱｵﾓﾘｹﾝ","kana_city":"ﾊﾁﾉﾍｼ","kana_address":"ｻｸﾗｶﾞｵｶ","pref":"青森県","city":"八戸市","address":"桜ケ丘"},
{"zip_code":"0310841","kana_pref":"ｱｵﾓﾘｹﾝ","kana_city":"ﾊﾁﾉﾍｼ","kana_address":"ｻﾒﾏﾁ","pref":"青森県","city":"八戸市","address":"鮫町"},
{"zip_code":"0310085","kana_pref":"ｱｵﾓﾘｹﾝ","kana_city":"ﾊﾁﾉﾍｼ","kana_address":"ｼﾞｭｳｲﾁﾆﾁﾏﾁ","pref":"青森県","city":"八戸市","address":"十一日町"},
{"zip_code":"0310042","kana_pref":"ｱｵﾓﾘｹﾝ","kana_city":"ﾊﾁﾉﾍｼ","kana_address":"ｼﾞｭｳｻﾝﾆﾁﾏﾁ","pref":"青森県","city":"八戸市","address":"十三日町"},
{"zip_code":"0310043","kana_pref":"ｱｵﾓﾘｹﾝ","kana_city":"ﾊﾁﾉﾍｼ","kana_address":"ｼﾞｭｳﾛｸﾆﾁﾏﾁ","pref":"青森県","city":"八戸市","address":"十六日町"},
{"zip_code":"0310084","kana_pref":"ｱｵﾓﾘｹﾝ","kana_city":"ﾊﾁﾉﾍｼ","kana_address":"ｼﾞｭｳﾊﾁﾆﾁﾏﾁ","pref":"青森県","city":"八戸市","address":"十八日町"},
{"zip_code":"0310082","kana_pref":"ｱｵﾓﾘｹﾝ","kana_city":"ﾊﾁﾉﾍｼ","kana_address":"ｼﾞｮｳｶｲﾁｮｳ","pref":"青森県","city":"八戸市","address":"常海町"},
{"zip_code":"0310047","kana_pref":"ｱｵﾓﾘｹﾝ","kana_city":"ﾊﾁﾉﾍｼ","kana_address":"ｼﾞｮｳﾊﾞﾝﾁｮｳ","pref":"青森県","city":"八戸市","address":"常番町"},
{"zip_code":"0310821","kana_pref":"ｱｵﾓﾘｹﾝ","kana_city":"ﾊﾁﾉﾍｼ","kana_address":"ｼﾛｶﾞﾈ","pref":"青森県","city":"八戸市","address":"白銀"},
{"zip_code":"0310832","kana_pref":"ｱｵﾓﾘｹﾝ","kana_city":"ﾊﾁﾉﾍｼ","kana_address":"ｼﾛｶﾞﾈﾀﾞｲ","pref":"青森県","city":"八戸市","address":"白銀台"},
{"zip_code":"0310822","kana_pref":"ｱｵﾓﾘｹﾝ","kana_city":"ﾊﾁﾉﾍｼ","kana_address":"ｼﾛｶﾞﾈﾏﾁ","pref":"青森県","city":"八戸市","address":"白銀町"},
{"zip_code":"0310072","kana_pref":"ｱｵﾓﾘｹﾝ","kana_city":"ﾊﾁﾉﾍｼ","kana_address":"ｼﾛｼﾀ","pref":"青森県","city":"八戸市","address":"城下"},
{"zip_code":"0310056","kana_pref":"ｱｵﾓﾘｹﾝ","kana_city":"ﾊﾁﾉﾍｼ","kana_address":"ｼﾝｱﾗﾏﾁ","pref":"青森県","city":"八戸市","address":"新荒町"},
{"zip_code":"0310811","kana_pref":"ｱｵﾓﾘｹﾝ","kana_city":"ﾊﾁﾉﾍｼ","kana_address":"ｼﾝﾐﾅﾄ","pref":"青森県","city":"八戸市","address":"新湊"},
{"zip_code":"0310803","kana_pref":"ｱｵﾓﾘｹﾝ","kana_city":"ﾊﾁﾉﾍｼ","kana_address":"ｽﾜ","pref":"青森県","city":"八戸市","address":"諏訪"},
{"zip_code":"0310036","kana_pref":"ｱｵﾓﾘｹﾝ","kana_city":"ﾊﾁﾉﾍｼ","kana_address":"ﾀﾞｲｸﾏﾁ","pref":"青森県","city":"八戸市","address":"大工町"},
{"zip_code":"0310034","kana_pref":"ｱｵﾓﾘｹﾝ","kana_city":"ﾊﾁﾉﾍｼ","kana_address":"ﾀｶｼｮｳｺｳｼﾞ","pref":"青森県","city":"八戸市","address":"鷹匠小路"},
{"zip_code":"0310011","kana_pref":"ｱｵﾓﾘｹﾝ","kana_city":"ﾊﾁﾉﾍｼ","kana_address":"ﾀﾑｶｲ","pref":"青森県","city":"八戸市","address":"田向"},
{"zip_code":"0310831","kana_pref":"ｱｵﾓﾘｹﾝ","kana_city":"ﾊﾁﾉﾍｼ","kana_address":"ﾁｯｺｳｶﾞｲ","pref":"青森県","city":"八戸市","address":"築港街"},
{"zip_code":"0310021","kana_pref":"ｱｵﾓﾘｹﾝ","kana_city":"ﾊﾁﾉﾍｼ","kana_address":"ﾁｮｳｼﾞｬ","pref":"青森県","city":"八戸市","address":"長者"},
{"zip_code":"0310087","kana_pref":"ｱｵﾓﾘｹﾝ","kana_city":"ﾊﾁﾉﾍｼ","kana_address":"ﾂｲﾀﾁﾏﾁ","pref":"青森県","city":"八戸市","address":"朔日町"},
{"zip_code":"0310051","kana_pref":"ｱｵﾓﾘｹﾝ","kana_city":"ﾊﾁﾉﾍｼ","kana_address":"ﾂﾂﾐﾁｮｳ","pref":"青森県","city":"八戸市","address":"堤町"},
{"zip_code":"0310035","kana_pref":"ｱｵﾓﾘｹﾝ","kana_city":"ﾊﾁﾉﾍｼ","kana_address":"ﾃﾗﾖｺﾁｮｳ","pref":"青森県","city":"八戸市","address":"寺横町"},
{"zip_code":"0310012","kana_pref":"ｱｵﾓﾘｹﾝ","kana_city":"ﾊﾁﾉﾍｼ","kana_address":"ﾄｵｶｲﾁ","pref":"青森県","city":"八戸市","address":"十日市"},
{"zip_code":"0310039","kana_pref":"ｱｵﾓﾘｹﾝ","kana_city":"ﾊﾁﾉﾍｼ","kana_address":"ﾄﾔﾍﾞﾁｮｳ","pref":"青森県","city":"八戸市","address":"鳥屋部町"},
{"zip_code":"0310002","kana_pref":"ｱｵﾓﾘｹﾝ","kana_city":"ﾊﾁﾉﾍｼ","kana_address":"ﾅｶｲﾊﾞﾔｼ","pref":"青森県","city":"八戸市","address":"中居林"},
{"zip_code":"0310077","kana_pref":"ｱｵﾓﾘｹﾝ","kana_city":"ﾊﾁﾉﾍｼ","kana_address":"ﾅｶﾞﾈ","pref":"青森県","city":"八戸市","address":"長根"},
{"zip_code":"0310089","kana_pref":"ｱｵﾓﾘｹﾝ","kana_city":"ﾊﾁﾉﾍｼ","kana_address":"ﾅｶﾞﾖｺﾁｮｳ","pref":"青森県","city":"八戸市","address":"長横町"},
{"zip_code":"0310115","kana_pref":"ｱｵﾓﾘｹﾝ","kana_city":"ﾊﾁﾉﾍｼ","kana_address":"ﾅﾝｺﾞｳｸｱｵﾂﾞｸﾘ","pref":"青森県","city":"八戸市","address":"南郷区泥障作"},
{"zip_code":"0310113","kana_pref":"ｱｵﾓﾘｹﾝ","kana_city":"ﾊﾁﾉﾍｼ","kana_address":"ﾅﾝｺﾞｳｸｲｽﾞﾐｼﾐｽﾞ","pref":"青森県","city":"八戸市","address":"南郷区泉清水"},
{"zip_code":"0310111","kana_pref":"ｱｵﾓﾘｹﾝ","kana_city":"ﾊﾁﾉﾍｼ","kana_address":"ﾅﾝｺﾞｳｸｲﾁﾉｻﾜ","pref":"青森県","city":"八戸市","address":"南郷区市野沢"},
{"zip_code":"0310112","kana_pref":"ｱｵﾓﾘｹﾝ","kana_city":"ﾊﾁﾉﾍｼ","kana_address":"ﾅﾝｺﾞｳｸｵｵﾓﾘ","pref":"青森県","city":"八戸市","address":"南郷区大森"},
{"zip_code":"0310201","kana_pref":"ｱｵﾓﾘｹﾝ","kana_city":"ﾊﾁﾉﾍｼ","kana_address":"ﾅﾝｺﾞｳｸｺﾛﾏｷｻﾜ","pref":"青森県","city":"八戸市","address":"南郷区頃巻沢"},
{"zip_code":"0310202","kana_pref":"ｱｵﾓﾘｹﾝ","kana_city":"ﾊﾁﾉﾍｼ","kana_address":"ﾅﾝｺﾞｳｸｼﾏﾓﾘ","pref":"青森県","city":"八戸市","address":"南郷区島守"},
{"zip_code":"0310114","kana_pref":"ｱｵﾓﾘｹﾝ","kana_city":"ﾊﾁﾉﾍｼ","kana_address":"ﾅﾝｺﾞｳｸﾅｶﾉ","pref":"青森県","city":"八戸市","address":"南郷区中野"},
{"zip_code":"0310813","kana_pref":"ｱｵﾓﾘｹﾝ","kana_city":"ﾊﾁﾉﾍｼ","kana_address":"ﾆｲﾀﾞ","pref":"青森県","city":"八戸市","address":"新井田"},
{"zip_code":"0310816","kana_pref":"ｱｵﾓﾘｹﾝ","kana_city":"ﾊﾁﾉﾍｼ","kana_address":"ﾆｲﾀﾞﾆｼ","pref":"青森県","city":"八戸市","address":"新井田西"},
{"zip_code":"0310041","kana_pref":"ｱｵﾓﾘｹﾝ","kana_city":"ﾊﾁﾉﾍｼ","kana_address":"ﾆｼﾞｭｳｻﾝﾆﾁﾏﾁ","pref":"青森県","city":"八戸市","address":"廿三日町"},
{"zip_code":"0310044","kana_pref":"ｱｵﾓﾘｹﾝ","kana_city":"ﾊﾁﾉﾍｼ","kana_address":"ﾆｼﾞｭｳﾛｸﾆﾁﾏﾁ","pref":"青森県","city":"八戸市","address":"廿六日町"},
{"zip_code":"0310022","kana_pref":"ｱｵﾓﾘｹﾝ","kana_city":"ﾊﾁﾉﾍｼ","kana_address":"ﾇｶﾂﾞｶ","pref":"青森県","city":"八戸市","address":"糠塚"},
{"zip_code":"0310071","kana_pref":"ｱｵﾓﾘｹﾝ","kana_city":"ﾊﾁﾉﾍｼ","kana_address":"ﾇﾏﾀﾞﾃ","pref":"青森県","city":"八戸市","address":"沼館"},
{"zip_code":"0310074","kana_pref":"ｱｵﾓﾘｹﾝ","kana_city":"ﾊﾁﾉﾍｼ","kana_address":"ﾊﾞﾊﾞﾁｮｳ","pref":"青森県","city":"八戸市","address":"馬場町"},
{"zip_code":"0310031","kana_pref":"ｱｵﾓﾘｹﾝ","kana_city":"ﾊﾁﾉﾍｼ","kana_address":"ﾊﾞﾝﾁｮｳ","pref":"青森県","city":"八戸市","address":"番町"},
{"zip_code":"0310003","kana_pref":"ｱｵﾓﾘｹﾝ","kana_city":"ﾊﾁﾉﾍｼ","kana_address":"ﾌｷｱｹﾞ","pref":"青森県","city":"八戸市","address":"吹上"},
{"zip_code":"0310076","kana_pref":"ｱｵﾓﾘｹﾝ","kana_city":"ﾊﾁﾉﾍｼ","kana_address":"ﾎﾘﾊﾞﾀﾁｮｳ","pref":"青森県","city":"八戸市","address":"堀端町"},
{"zip_code":"0310046","kana_pref":"ｱｵﾓﾘｹﾝ","kana_city":"ﾊﾁﾉﾍｼ","kana_address":"ﾏﾁｸﾐﾁｮｳ","pref":"青森県","city":"八戸市","address":"町組町"},
{"zip_code":"0310815","kana_pref":"ｱｵﾓﾘｹﾝ","kana_city":"ﾊﾁﾉﾍｼ","kana_address":"ﾏﾂﾀﾞﾃ","pref":"青森県","city":"八戸市","address":"松館"},
{"zip_code":"0310842","kana_pref":"ｱｵﾓﾘｹﾝ","kana_city":"ﾊﾁﾉﾍｼ","kana_address":"ﾐｻｷﾀﾞｲ","pref":"青森県","city":"八戸市","address":"岬台"},
{"zip_code":"0310032","kana_pref":"ｱｵﾓﾘｹﾝ","kana_city":"ﾊﾁﾉﾍｼ","kana_address":"ﾐｯｶﾏﾁ","pref":"青森県","city":"八戸市","address":"三日町"},
{"zip_code":"0310823","kana_pref":"ｱｵﾓﾘｹﾝ","kana_city":"ﾊﾁﾉﾍｼ","kana_address":"ﾐﾅﾄﾀｶﾀﾞｲ","pref":"青森県","city":"八戸市","address":"湊高台"},
{"zip_code":"0310812","kana_pref":"ｱｵﾓﾘｹﾝ","kana_city":"ﾊﾁﾉﾍｼ","kana_address":"ﾐﾅﾄﾏﾁ","pref":"青森県","city":"八戸市","address":"湊町"},
{"zip_code":"0310004","kana_pref":"ｱｵﾓﾘｹﾝ","kana_city":"ﾊﾁﾉﾍｼ","kana_address":"ﾐﾅﾐﾙｲｹ","pref":"青森県","city":"八戸市","address":"南類家"},
{"zip_code":"0310844","kana_pref":"ｱｵﾓﾘｹﾝ","kana_city":"ﾊﾁﾉﾍｼ","kana_address":"ﾐﾎﾉ","pref":"青森県","city":"八戸市","address":"美保野"},
{"zip_code":"0310814","kana_pref":"ｱｵﾓﾘｹﾝ","kana_city":"ﾊﾁﾉﾍｼ","kana_address":"ﾐｮｳ","pref":"青森県","city":"八戸市","address":"妙"},
{"zip_code":"0310033","kana_pref":"ｱｵﾓﾘｹﾝ","kana_city":"ﾊﾁﾉﾍｼ","kana_address":"ﾑｲｶﾏﾁ","pref":"青森県","city":"八戸市","address":"六日町"},
{"zip_code":"0310052","kana_pref":"ｱｵﾓﾘｹﾝ","kana_city":"ﾊﾁﾉﾍｼ","kana_address":"ﾓﾄｶｼﾞｼﾁｮｳ","pref":"青森県","city":"八戸市","address":"本徒士町"},
{"zip_code":"0310045","kana_pref":"ｱｵﾓﾘｹﾝ","kana_city":"ﾊﾁﾉﾍｼ","kana_address":"ﾓﾄｶｼﾞﾁｮｳ","pref":"青森県","city":"八戸市","address":"本鍛冶町"},
{"zip_code":"0310038","kana_pref":"ｱｵﾓﾘｹﾝ","kana_city":"ﾊﾁﾉﾍｼ","kana_address":"ﾔﾏﾌﾞｼｺｳｼﾞ","pref":"青森県","city":"八戸市","address":"山伏小路"},
{"zip_code":"0310086","kana_pref":"ｱｵﾓﾘｹﾝ","kana_city":"ﾊﾁﾉﾍｼ","kana_address":"ﾖｳｶﾏﾁ","pref":"青森県","city":"八戸市","address":"八日町"},
{"zip_code":"0310001","kana_pref":"ｱｵﾓﾘｹﾝ","kana_city":"ﾊﾁﾉﾍｼ","kana_address":"ﾙｲｹ","pref":"青森県","city":"八戸市","address":"類家"}]}