{"zip_code":[
{"zip_code":"0350000","kana_pref":"ｱｵﾓﾘｹﾝ","kana_city":"ﾑﾂｼ","kana_address":"","pref":"青森県","city":"むつ市","address":""},
{"zip_code":"0350044","kana_pref":"ｱｵﾓﾘｹﾝ","kana_city":"ﾑﾂｼ","kana_address":"ｱｶｶﾞﾜﾁｮｳ","pref":"青森県","city":"むつ市","address":"赤川町"},
{"zip_code":"0350076","kana_pref":"ｱｵﾓﾘｹﾝ","kana_city":"ﾑﾂｼ","kana_address":"ｱｻﾋﾁｮｳ","pref":"青森県","city":"むつ市","address":"旭町"},
{"zip_code":"0350079","kana_pref":"ｱｵﾓﾘｹﾝ","kana_city":"ﾑﾂｼ","kana_address":"ｱﾗｶﾜﾁｮｳ","pref":"青森県","city":"むつ市","address":"荒川町"},
{"zip_code":"0350092","kana_pref":"ｱｵﾓﾘｹﾝ","kana_city":"ﾑﾂｼ","kana_address":"ｳﾀﾞﾁｮｳ","pref":"青森県","city":"むつ市","address":"宇田町"},
{"zip_code":"0350054","kana_pref":"ｱｵﾓﾘｹﾝ","kana_city":"ﾑﾂｼ","kana_address":"ｴﾋﾞｶﾜﾁｮｳ","pref":"青森県","city":"むつ市","address":"海老川町"},
{"zip_code":"0350074","kana_pref":"ｱｵﾓﾘｹﾝ","kana_city":"ﾑﾂｼ","kana_address":"ｵｵﾀﾞｲﾗ","pref":"青森県","city":"むつ市","address":"大平"},
{"zip_code":"0350083","kana_pref":"ｱｵﾓﾘｹﾝ","kana_city":"ﾑﾂｼ","kana_address":"ｵｵﾀﾞｲﾗﾁｮｳ","pref":"青森県","city":"むつ市","address":"大平町"},
{"zip_code":"0350042","kana_pref":"ｱｵﾓﾘｹﾝ","kana_city":"ﾑﾂｼ","kana_address":"ｵｵﾏｶﾞﾘ","pref":"青森県","city":"むつ市","address":"大曲"},
{"zip_code":"0350096","kana_pref":"ｱｵﾓﾘｹﾝ","kana_city":"ﾑﾂｼ","kana_address":"ｵｵﾐﾅﾄ","pref":"青森県","city":"むつ市","address":"大湊"},
{"zip_code":"0350086","kana_pref":"ｱｵﾓﾘｹﾝ","kana_city":"ﾑﾂｼ","kana_address":"ｵｵﾐﾅﾄｶﾐﾏﾁ","pref":"青森県","city":"むつ市","address":"大湊上町"},
{"zip_code":"0350084","kana_pref":"ｱｵﾓﾘｹﾝ","kana_city":"ﾑﾂｼ","kana_address":"ｵｵﾐﾅﾄｼﾝﾁｮｳ","pref":"青森県","city":"むつ市","address":"大湊新町"},
{"zip_code":"0350085","kana_pref":"ｱｵﾓﾘｹﾝ","kana_city":"ﾑﾂｼ","kana_address":"ｵｵﾐﾅﾄﾊﾏﾁｮｳ","pref":"青森県","city":"むつ市","address":"大湊浜町"},
{"zip_code":"0350093","kana_pref":"ｱｵﾓﾘｹﾝ","kana_city":"ﾑﾂｼ","kana_address":"ｵｵﾐﾅﾄﾁｮｳ","pref":"青森県","city":"むつ市","address":"大湊町"},
{"zip_code":"0350011","kana_pref":"ｱｵﾓﾘｹﾝ","kana_city":"ﾑﾂｼ","kana_address":"ｵｸﾅｲ","pref":"青森県","city":"むつ市","address":"奥内"},
{"zip_code":"0350041","kana_pref":"ｱｵﾓﾘｹﾝ","kana_city":"ﾑﾂｼ","kana_address":"ｶﾅﾏｶﾞﾘ","pref":"青森県","city":"むつ市","address":"金曲"},
{"zip_code":"0350072","kana_pref":"ｱｵﾓﾘｹﾝ","kana_city":"ﾑﾂｼ","kana_address":"ｶﾅﾔ","pref":"青森県","city":"むつ市","address":"金谷"},
{"zip_code":"0350032","kana_pref":"ｱｵﾓﾘｹﾝ","kana_city":"ﾑﾂｼ","kana_address":"ｶﾐｶﾜﾁｮｳ","pref":"青森県","city":"むつ市","address":"上川町"},
{"zip_code":"0350091","kana_pref":"ｱｵﾓﾘｹﾝ","kana_city":"ﾑﾂｼ","kana_address":"ｶﾜﾓﾘﾁｮｳ","pref":"青森県","city":"むつ市","address":"川守町"},
{"zip_code":"0350036","kana_pref":"ｱｵﾓﾘｹﾝ","kana_city":"ﾑﾂｼ","kana_address":"ｸﾘﾔﾏﾁｮｳ","pref":"青森県","city":"むつ市","address":"栗山町"},
{"zip_code":"0350071","kana_pref":"ｱｵﾓﾘｹﾝ","kana_city":"ﾑﾂｼ","kana_address":"ｺｶﾞﾜﾏﾁ","pref":"青森県","city":"むつ市","address":"小川町"},
{"zip_code":"0350094","kana_pref":"ｱｵﾓﾘｹﾝ","kana_city":"ﾑﾂｼ","kana_address":"ｻｸﾗｷﾞﾁｮｳ","pref":"青森県","city":"むつ市","address":"桜木町"},
{"zip_code":"0350061","kana_pref":"ｱｵﾓﾘｹﾝ","kana_city":"ﾑﾂｼ","kana_address":"ｼﾓｷﾀﾁｮｳ","pref":"青森県","city":"むつ市","address":"下北町"},
{"zip_code":"0350067","kana_pref":"ｱｵﾓﾘｹﾝ","kana_city":"ﾑﾂｼ","kana_address":"ｼﾞｭｳﾆﾊﾞﾔｼ","pref":"青森県","city":"むつ市","address":"十二林"},
{"zip_code":"0350095","kana_pref":"ｱｵﾓﾘｹﾝ","kana_city":"ﾑﾂｼ","kana_address":"ｼﾞｮｳｶﾞｻﾜ","pref":"青森県","city":"むつ市","address":"城ケ沢"},
{"zip_code":"0350052","kana_pref":"ｱｵﾓﾘｹﾝ","kana_city":"ﾑﾂｼ","kana_address":"ｼｮｳﾜﾁｮｳ","pref":"青森県","city":"むつ市","address":"昭和町"},
{"zip_code":"0350051","kana_pref":"ｱｵﾓﾘｹﾝ","kana_city":"ﾑﾂｼ","kana_address":"ｼﾝﾏﾁ","pref":"青森県","city":"むつ市","address":"新町"},
{"zip_code":"0350022","kana_pref":"ｱｵﾓﾘｹﾝ","kana_city":"ﾑﾂｼ","kana_address":"ｾｷﾈ","pref":"青森県","city":"むつ市","address":"関根"},
{"zip_code":"0350021","kana_pref":"ｱｵﾓﾘｹﾝ","kana_city":"ﾑﾂｼ","kana_address":"ﾀﾅﾌﾞ","pref":"青森県","city":"むつ市","address":"田名部"},
{"zip_code":"0350034","kana_pref":"ｱｵﾓﾘｹﾝ","kana_city":"ﾑﾂｼ","kana_address":"ﾀﾅﾌﾞﾁｮｳ","pref":"青森県","city":"むつ市","address":"田名部町"},
{"zip_code":"0350073","kana_pref":"ｱｵﾓﾘｹﾝ","kana_city":"ﾑﾂｼ","kana_address":"ﾁｭｳｵｳ","pref":"青森県","city":"むつ市","address":"中央"},
{"zip_code":"0350055","kana_pref":"ｱｵﾓﾘｹﾝ","kana_city":"ﾑﾂｼ","kana_address":"ﾄﾏﾌﾞﾁｮｳ","pref":"青森県","city":"むつ市","address":"苫生町"},
{"zip_code":"0350012","kana_pref":"ｱｵﾓﾘｹﾝ","kana_city":"ﾑﾂｼ","kana_address":"ﾅｶﾉｻﾜ","pref":"青森県","city":"むつ市","address":"中野沢"},
{"zip_code":"0350062","kana_pref":"ｱｵﾓﾘｹﾝ","kana_city":"ﾑﾂｼ","kana_address":"ﾅｶﾏﾁ","pref":"青森県","city":"むつ市","address":"仲町"},
{"zip_code":"0350081","kana_pref":"ｱｵﾓﾘｹﾝ","kana_city":"ﾑﾂｼ","kana_address":"ﾅﾐｶﾜﾁｮｳ","pref":"青森県","city":"むつ市","address":"並川町"},
{"zip_code":"0350082","kana_pref":"ｱｵﾓﾘｹﾝ","kana_city":"ﾑﾂｼ","kana_address":"ﾌﾞﾝｷｮｳﾁｮｳ","pref":"青森県","city":"むつ市","address":"文京町"},
{"zip_code":"0350035","kana_pref":"ｱｵﾓﾘｹﾝ","kana_city":"ﾑﾂｼ","kana_address":"ﾎﾝﾏﾁ","pref":"青森県","city":"むつ市","address":"本町"},
{"zip_code":"0350075","kana_pref":"ｱｵﾓﾘｹﾝ","kana_city":"ﾑﾂｼ","kana_address":"ﾏｻｺﾞﾁｮｳ","pref":"青森県","city":"むつ市","address":"真砂町"},
{"zip_code":"0350045","kana_pref":"ｱｵﾓﾘｹﾝ","kana_city":"ﾑﾂｼ","kana_address":"ﾏﾂﾊﾞﾗﾁｮｳ","pref":"青森県","city":"むつ市","address":"松原町"},
{"zip_code":"0350078","kana_pref":"ｱｵﾓﾘｹﾝ","kana_city":"ﾑﾂｼ","kana_address":"ﾏﾂﾓﾘﾁｮｳ","pref":"青森県","city":"むつ市","address":"松森町"},
{"zip_code":"0350065","kana_pref":"ｱｵﾓﾘｹﾝ","kana_city":"ﾑﾂｼ","kana_address":"ﾏﾂﾔﾏﾁｮｳ","pref":"青森県","city":"むつ市","address":"松山町"},
{"zip_code":"0350068","kana_pref":"ｱｵﾓﾘｹﾝ","kana_city":"ﾑﾂｼ","kana_address":"ﾐｻﾄﾁｮｳ","pref":"青森県","city":"むつ市","address":"美里町"},
{"zip_code":"0350066","kana_pref":"ｱｵﾓﾘｹﾝ","kana_city":"ﾑﾂｼ","kana_address":"ﾐﾄﾞﾘｶﾞｵｶ","pref":"青森県","city":"むつ市","address":"緑ヶ丘"},
{"zip_code":"0350053","kana_pref":"ｱｵﾓﾘｹﾝ","kana_city":"ﾑﾂｼ","kana_address":"ﾐﾄﾞﾘﾁｮｳ","pref":"青森県","city":"むつ市","address":"緑町"},
{"zip_code":"0350064","kana_pref":"ｱｵﾓﾘｹﾝ","kana_city":"ﾑﾂｼ","kana_address":"ﾐﾅﾄﾏﾁ","pref":"青森県","city":"むつ市","address":"港町"},
{"zip_code":"0350043","kana_pref":"ｱｵﾓﾘｹﾝ","kana_city":"ﾑﾂｼ","kana_address":"ﾐﾅﾐｱｶｶﾞﾜﾁｮｳ","pref":"青森県","city":"むつ市","address":"南赤川町"},
{"zip_code":"0350046","kana_pref":"ｱｵﾓﾘｹﾝ","kana_city":"ﾑﾂｼ","kana_address":"ﾐﾅﾐﾏﾁ","pref":"青森県","city":"むつ市","address":"南町"},
{"zip_code":"0350031","kana_pref":"ｱｵﾓﾘｹﾝ","kana_city":"ﾑﾂｼ","kana_address":"ﾔﾅｷﾞﾏﾁ","pref":"青森県","city":"むつ市","address":"柳町"},
{"zip_code":"0350077","kana_pref":"ｱｵﾓﾘｹﾝ","kana_city":"ﾑﾂｼ","kana_address":"ﾔﾏﾀﾞﾁｮｳ","pref":"青森県","city":"むつ市","address":"山田町"},
{"zip_code":"0350033","kana_pref":"ｱｵﾓﾘｹﾝ","kana_city":"ﾑﾂｼ","kana_address":"ﾖｺﾑｶｲﾏﾁ","pref":"青森県","city":"むつ市","address":"横迎町"},
{"zip_code":"0350063","kana_pref":"ｱｵﾓﾘｹﾝ","kana_city":"ﾑﾂｼ","kana_address":"ﾜｶﾏﾂﾁｮｳ","pref":"青森県","city":"むつ市","address":"若松町"},
{"zip_code":"0350000","kana_pref":"ｱｵﾓﾘｹﾝ","kana_city":"ｼﾓｷﾀｸﾞﾝﾋｶﾞｼﾄﾞｵﾘﾑﾗ","kana_address":"","pref":"青森県","city":"下北郡東通村","address":""},
{"zip_code":"0350113","kana_pref":"ｱｵﾓﾘｹﾝ","kana_city":"ｼﾓｷﾀｸﾞﾝﾋｶﾞｼﾄﾞｵﾘﾑﾗ","kana_address":"ｲﾜﾔ","pref":"青森県","city":"下北郡東通村","address":"岩屋"},
{"zip_code":"0350001","kana_pref":"ｱｵﾓﾘｹﾝ","kana_city":"ｼﾓｷﾀｸﾞﾝﾋｶﾞｼﾄﾞｵﾘﾑﾗ","kana_address":"ｵｵﾘ","pref":"青森県","city":"下北郡東通村","address":"大利"},
{"zip_code":"0350104","kana_pref":"ｱｵﾓﾘｹﾝ","kana_city":"ｼﾓｷﾀｸﾞﾝﾋｶﾞｼﾄﾞｵﾘﾑﾗ","kana_address":"ｶﾞﾏﾉｻﾜ","pref":"青森県","city":"下北郡東通村","address":"蒲野沢"},
{"zip_code":"0350004","kana_pref":"ｱｵﾓﾘｹﾝ","kana_city":"ｼﾓｷﾀｸﾞﾝﾋｶﾞｼﾄﾞｵﾘﾑﾗ","kana_address":"ｶﾞﾏﾉｻﾜ","pref":"青森県","city":"下北郡東通村","address":"蒲野沢"},
{"zip_code":"0350112","kana_pref":"ｱｵﾓﾘｹﾝ","kana_city":"ｼﾓｷﾀｸﾞﾝﾋｶﾞｼﾄﾞｵﾘﾑﾗ","kana_address":"ｼﾂｶﾘ","pref":"青森県","city":"下北郡東通村","address":"尻労"},
{"zip_code":"0350111","kana_pref":"ｱｵﾓﾘｹﾝ","kana_city":"ｼﾓｷﾀｸﾞﾝﾋｶﾞｼﾄﾞｵﾘﾑﾗ","kana_address":"ｼﾘﾔ","pref":"青森県","city":"下北郡東通村","address":"尻屋"},
{"zip_code":"0350005","kana_pref":"ｱｵﾓﾘｹﾝ","kana_city":"ｼﾓｷﾀｸﾞﾝﾋｶﾞｼﾄﾞｵﾘﾑﾗ","kana_address":"ﾀﾔ","pref":"青森県","city":"下北郡東通村","address":"田屋"},
{"zip_code":"0350003","kana_pref":"ｱｵﾓﾘｹﾝ","kana_city":"ｼﾓｷﾀｸﾞﾝﾋｶﾞｼﾄﾞｵﾘﾑﾗ","kana_address":"ﾉｳｼ","pref":"青森県","city":"下北郡東通村","address":"野牛"},
{"zip_code":"0350103","kana_pref":"ｱｵﾓﾘｹﾝ","kana_city":"ｼﾓｷﾀｸﾞﾝﾋｶﾞｼﾄﾞｵﾘﾑﾗ","kana_address":"ﾉｳｼ","pref":"青森県","city":"下北郡東通村","address":"野牛"},
{"zip_code":"0350002","kana_pref":"ｱｵﾓﾘｹﾝ","kana_city":"ｼﾓｷﾀｸﾞﾝﾋｶﾞｼﾄﾞｵﾘﾑﾗ","kana_address":"ﾒﾅ","pref":"青森県","city":"下北郡東通村","address":"目名"}]}