{"zip_code":[
{"zip_code":"0370000","kana_pref":"ｱｵﾓﾘｹﾝ","kana_city":"ｺﾞｼｮｶﾞﾜﾗｼ","kana_address":"","pref":"青森県","city":"五所川原市","address":""},
{"zip_code":"0370401","kana_pref":"ｱｵﾓﾘｹﾝ","kana_city":"ｺﾞｼｮｶﾞﾜﾗｼ","kana_address":"ｱｲｳﾁ","pref":"青森県","city":"五所川原市","address":"相内"},
{"zip_code":"0370613","kana_pref":"ｱｵﾓﾘｹﾝ","kana_city":"ｺﾞｼｮｶﾞﾜﾗｼ","kana_address":"ｱｻｲ","pref":"青森県","city":"五所川原市","address":"浅井"},
{"zip_code":"0370062","kana_pref":"ｱｵﾓﾘｹﾝ","kana_city":"ｺﾞｼｮｶﾞﾜﾗｼ","kana_address":"ｱｻﾋﾁｮｳ","pref":"青森県","city":"五所川原市","address":"旭町"},
{"zip_code":"0370052","kana_pref":"ｱｵﾓﾘｹﾝ","kana_city":"ｺﾞｼｮｶﾞﾜﾗｼ","kana_address":"ｱｽﾞﾏﾁｮｳ","pref":"青森県","city":"五所川原市","address":"東町"},
{"zip_code":"0370002","kana_pref":"ｱｵﾓﾘｹﾝ","kana_city":"ｺﾞｼｮｶﾞﾜﾗｼ","kana_address":"ｲｲﾂﾞﾒ","pref":"青森県","city":"五所川原市","address":"飯詰"},
{"zip_code":"0370057","kana_pref":"ｱｵﾓﾘｹﾝ","kana_city":"ｺﾞｼｮｶﾞﾜﾗｼ","kana_address":"ｲｸｼﾏﾁｮｳ","pref":"青森県","city":"五所川原市","address":"幾島町"},
{"zip_code":"0370065","kana_pref":"ｱｵﾓﾘｹﾝ","kana_city":"ｺﾞｼｮｶﾞﾜﾗｼ","kana_address":"ｲｸｾﾓﾘ","pref":"青森県","city":"五所川原市","address":"幾世森"},
{"zip_code":"0370005","kana_pref":"ｱｵﾓﾘｹﾝ","kana_city":"ｺﾞｼｮｶﾞﾜﾗｼ","kana_address":"ｲｼｵｶ","pref":"青森県","city":"五所川原市","address":"石岡"},
{"zip_code":"0370404","kana_pref":"ｱｵﾓﾘｹﾝ","kana_city":"ｺﾞｼｮｶﾞﾜﾗｼ","kana_address":"ｲｿﾏﾂ","pref":"青森県","city":"五所川原市","address":"磯松"},
{"zip_code":"0370093","kana_pref":"ｱｵﾓﾘｹﾝ","kana_city":"ｺﾞｼｮｶﾞﾜﾗｼ","kana_address":"ｲﾁﾉﾂﾎﾞ","pref":"青森県","city":"五所川原市","address":"一野坪"},
{"zip_code":"0370014","kana_pref":"ｱｵﾓﾘｹﾝ","kana_city":"ｺﾞｼｮｶﾞﾜﾗｼ","kana_address":"ｲﾅﾐ","pref":"青森県","city":"五所川原市","address":"稲実"},
{"zip_code":"0370074","kana_pref":"ｱｵﾓﾘｹﾝ","kana_city":"ｺﾞｼｮｶﾞﾜﾗｼ","kana_address":"ｲﾜｷﾁｮｳ","pref":"青森県","city":"五所川原市","address":"岩木町"},
{"zip_code":"0370042","kana_pref":"ｱｵﾓﾘｹﾝ","kana_city":"ｺﾞｼｮｶﾞﾜﾗｼ","kana_address":"ｳｵｽﾏｽﾞ","pref":"青森県","city":"五所川原市","address":"不魚住"},
{"zip_code":"0370015","kana_pref":"ｱｵﾓﾘｹﾝ","kana_city":"ｺﾞｼｮｶﾞﾜﾗｼ","kana_address":"ｳﾊﾞﾔﾁ","pref":"青森県","city":"五所川原市","address":"姥萢"},
{"zip_code":"0370022","kana_pref":"ｱｵﾓﾘｹﾝ","kana_city":"ｺﾞｼｮｶﾞﾜﾗｼ","kana_address":"ｳﾒﾀ","pref":"青森県","city":"五所川原市","address":"梅田"},
{"zip_code":"0370017","kana_pref":"ｱｵﾓﾘｹﾝ","kana_city":"ｺﾞｼｮｶﾞﾜﾗｼ","kana_address":"ｳﾙｼｶﾜ","pref":"青森県","city":"五所川原市","address":"漆川"},
{"zip_code":"0370402","kana_pref":"ｱｵﾓﾘｹﾝ","kana_city":"ｺﾞｼｮｶﾞﾜﾗｼ","kana_address":"ｵｵﾀ","pref":"青森県","city":"五所川原市","address":"太田"},
{"zip_code":"0370063","kana_pref":"ｱｵﾓﾘｹﾝ","kana_city":"ｺﾞｼｮｶﾞﾜﾗｼ","kana_address":"ｵｵﾏﾁ","pref":"青森県","city":"五所川原市","address":"大町"},
{"zip_code":"0370092","kana_pref":"ｱｵﾓﾘｹﾝ","kana_city":"ｺﾞｼｮｶﾞﾜﾗｼ","kana_address":"ｵｷｲｲﾂﾞﾒ","pref":"青森県","city":"五所川原市","address":"沖飯詰"},
{"zip_code":"0370055","kana_pref":"ｱｵﾓﾘｹﾝ","kana_city":"ｺﾞｼｮｶﾞﾜﾗｼ","kana_address":"ｶｼﾜﾊﾞﾗﾁｮｳ","pref":"青森県","city":"五所川原市","address":"柏原町"},
{"zip_code":"0370202","kana_pref":"ｱｵﾓﾘｹﾝ","kana_city":"ｺﾞｼｮｶﾞﾜﾗｼ","kana_address":"ｶﾅｷﾞﾁｮｳ","pref":"青森県","city":"五所川原市","address":"金木町"},
{"zip_code":"0370204","kana_pref":"ｱｵﾓﾘｹﾝ","kana_city":"ｺﾞｼｮｶﾞﾜﾗｼ","kana_address":"ｶﾅｷﾞﾁｮｳｶｾ","pref":"青森県","city":"五所川原市","address":"金木町嘉瀬"},
{"zip_code":"0370201","kana_pref":"ｱｵﾓﾘｹﾝ","kana_city":"ｺﾞｼｮｶﾞﾜﾗｼ","kana_address":"ｶﾅｷﾞﾁｮｳｶﾜｸﾗ","pref":"青森県","city":"五所川原市","address":"金木町川倉"},
{"zip_code":"0370206","kana_pref":"ｱｵﾓﾘｹﾝ","kana_city":"ｺﾞｼｮｶﾞﾜﾗｼ","kana_address":"ｶﾅｷﾞﾁｮｳｶﾝﾊﾞﾗ","pref":"青森県","city":"五所川原市","address":"金木町神原"},
{"zip_code":"0370203","kana_pref":"ｱｵﾓﾘｹﾝ","kana_city":"ｺﾞｼｮｶﾞﾜﾗｼ","kana_address":"ｶﾅｷﾞﾁｮｳｷﾗｲﾁ","pref":"青森県","city":"五所川原市","address":"金木町喜良市"},
{"zip_code":"0370205","kana_pref":"ｱｵﾓﾘｹﾝ","kana_city":"ｺﾞｼｮｶﾞﾜﾗｼ","kana_address":"ｶﾅｷﾞﾁｮｳﾅｶｶｼﾜｷﾞ","pref":"青森県","city":"五所川原市","address":"金木町中柏木"},
{"zip_code":"0370208","kana_pref":"ｱｵﾓﾘｹﾝ","kana_city":"ｺﾞｼｮｶﾞﾜﾗｼ","kana_address":"ｶﾅｷﾞﾁｮｳﾌｼﾞｴﾀﾞ","pref":"青森県","city":"五所川原市","address":"金木町藤枝"},
{"zip_code":"0370207","kana_pref":"ｱｵﾓﾘｹﾝ","kana_city":"ｺﾞｼｮｶﾞﾜﾗｼ","kana_address":"ｶﾅｷﾞﾁｮｳﾏｷﾀ","pref":"青森県","city":"五所川原市","address":"金木町蒔田"},
{"zip_code":"0370011","kana_pref":"ｱｵﾓﾘｹﾝ","kana_city":"ｺﾞｼｮｶﾞﾜﾗｼ","kana_address":"ｶﾈﾔﾏ","pref":"青森県","city":"五所川原市","address":"金山"},
{"zip_code":"0370033","kana_pref":"ｱｵﾓﾘｹﾝ","kana_city":"ｺﾞｼｮｶﾞﾜﾗｼ","kana_address":"ｶﾏﾔﾁｮｳ","pref":"青森県","city":"五所川原市","address":"鎌谷町"},
{"zip_code":"0370054","kana_pref":"ｱｵﾓﾘｹﾝ","kana_city":"ｺﾞｼｮｶﾞﾜﾗｼ","kana_address":"ｶﾐﾋﾗｲﾏﾁ","pref":"青森県","city":"五所川原市","address":"上平井町"},
{"zip_code":"0370611","kana_pref":"ｱｵﾓﾘｹﾝ","kana_city":"ｺﾞｼｮｶﾞﾜﾗｼ","kana_address":"ｶﾐﾔﾏ","pref":"青森県","city":"五所川原市","address":"神山"},
{"zip_code":"0370004","kana_pref":"ｱｵﾓﾘｹﾝ","kana_city":"ｺﾞｼｮｶﾞﾜﾗｼ","kana_address":"ｶﾗｶｻﾔﾅｷﾞ","pref":"青森県","city":"五所川原市","address":"唐笠柳"},
{"zip_code":"0370032","kana_pref":"ｱｵﾓﾘｹﾝ","kana_city":"ｺﾞｼｮｶﾞﾜﾗｼ","kana_address":"ｶﾗｽﾓﾘ","pref":"青森県","city":"五所川原市","address":"烏森"},
{"zip_code":"0370072","kana_pref":"ｱｵﾓﾘｹﾝ","kana_city":"ｺﾞｼｮｶﾞﾜﾗｼ","kana_address":"ｶﾜﾊﾞﾀﾁｮｳ","pref":"青森県","city":"五所川原市","address":"川端町"},
{"zip_code":"0370094","kana_pref":"ｱｵﾓﾘｹﾝ","kana_city":"ｺﾞｼｮｶﾞﾜﾗｼ","kana_address":"ｶﾜﾔﾏ","pref":"青森県","city":"五所川原市","address":"川山"},
{"zip_code":"0370632","kana_pref":"ｱｵﾓﾘｹﾝ","kana_city":"ｺﾞｼｮｶﾞﾜﾗｼ","kana_address":"ｺｳﾔ","pref":"青森県","city":"五所川原市","address":"高野"},
{"zip_code":"0370076","kana_pref":"ｱｵﾓﾘｹﾝ","kana_city":"ｺﾞｼｮｶﾞﾜﾗｼ","kana_address":"ｺﾏｶﾞﾘ","pref":"青森県","city":"五所川原市","address":"小曲"},
{"zip_code":"0370046","kana_pref":"ｱｵﾓﾘｹﾝ","kana_city":"ｺﾞｼｮｶﾞﾜﾗｼ","kana_address":"ｻｶｴﾏﾁ","pref":"青森県","city":"五所川原市","address":"栄町"},
{"zip_code":"0370095","kana_pref":"ｱｵﾓﾘｹﾝ","kana_city":"ｺﾞｼｮｶﾞﾜﾗｼ","kana_address":"ｻｸﾗﾀﾞ","pref":"青森県","city":"五所川原市","address":"桜田"},
{"zip_code":"0370067","kana_pref":"ｱｵﾓﾘｹﾝ","kana_city":"ｺﾞｼｮｶﾞﾜﾗｼ","kana_address":"ｼｷｼﾏﾁｮｳ","pref":"青森県","city":"五所川原市","address":"敷島町"},
{"zip_code":"0370001","kana_pref":"ｱｵﾓﾘｹﾝ","kana_city":"ｺﾞｼｮｶﾞﾜﾗｼ","kana_address":"ｼﾓｲﾜｻｷ","pref":"青森県","city":"五所川原市","address":"下岩崎"},
{"zip_code":"0370064","kana_pref":"ｱｵﾓﾘｹﾝ","kana_city":"ｺﾞｼｮｶﾞﾜﾗｼ","kana_address":"ｼﾓﾋﾗｲﾏﾁ","pref":"青森県","city":"五所川原市","address":"下平井町"},
{"zip_code":"0370403","kana_pref":"ｱｵﾓﾘｹﾝ","kana_city":"ｺﾞｼｮｶﾞﾜﾗｼ","kana_address":"ｼﾞｭｳｻﾝ","pref":"青森県","city":"五所川原市","address":"十三"},
{"zip_code":"0370045","kana_pref":"ｱｵﾓﾘｹﾝ","kana_city":"ｺﾞｼｮｶﾞﾜﾗｼ","kana_address":"ｼﾝﾏﾁ","pref":"青森県","city":"五所川原市","address":"新町"},
{"zip_code":"0370081","kana_pref":"ｱｵﾓﾘｹﾝ","kana_city":"ｺﾞｼｮｶﾞﾜﾗｼ","kana_address":"ｼﾝﾐﾔ","pref":"青森県","city":"五所川原市","address":"新宮"},
{"zip_code":"0370083","kana_pref":"ｱｵﾓﾘｹﾝ","kana_city":"ｺﾞｼｮｶﾞﾜﾗｼ","kana_address":"ｼﾝﾐﾔﾁｮｳ","pref":"青森県","city":"五所川原市","address":"新宮町"},
{"zip_code":"0370056","kana_pref":"ｱｵﾓﾘｹﾝ","kana_city":"ｺﾞｼｮｶﾞﾜﾗｼ","kana_address":"ｽｴﾋﾛﾁｮｳ","pref":"青森県","city":"五所川原市","address":"末広町"},
{"zip_code":"0370084","kana_pref":"ｱｵﾓﾘｹﾝ","kana_city":"ｺﾞｼｮｶﾞﾜﾗｼ","kana_address":"ｿﾃﾂ","pref":"青森県","city":"五所川原市","address":"蘇鉄"},
{"zip_code":"0370087","kana_pref":"ｱｵﾓﾘｹﾝ","kana_city":"ｺﾞｼｮｶﾞﾜﾗｼ","kana_address":"ﾀｶｾ","pref":"青森県","city":"五所川原市","address":"高瀬"},
{"zip_code":"0370086","kana_pref":"ｱｵﾓﾘｹﾝ","kana_city":"ｺﾞｼｮｶﾞﾜﾗｼ","kana_address":"ﾀｶﾞﾜ","pref":"青森県","city":"五所川原市","address":"田川"},
{"zip_code":"0370091","kana_pref":"ｱｵﾓﾘｹﾝ","kana_city":"ｺﾞｼｮｶﾞﾜﾗｼ","kana_address":"ﾀﾁｳﾁ","pref":"青森県","city":"五所川原市","address":"太刀打"},
{"zip_code":"0370082","kana_pref":"ｱｵﾓﾘｹﾝ","kana_city":"ｺﾞｼｮｶﾞﾜﾗｼ","kana_address":"ﾀﾈｲ","pref":"青森県","city":"五所川原市","address":"種井"},
{"zip_code":"0370041","kana_pref":"ｱｵﾓﾘｹﾝ","kana_city":"ｺﾞｼｮｶﾞﾜﾗｼ","kana_address":"ﾀﾏﾁ","pref":"青森県","city":"五所川原市","address":"田町"},
{"zip_code":"0370623","kana_pref":"ｱｵﾓﾘｹﾝ","kana_city":"ｺﾞｼｮｶﾞﾜﾗｼ","kana_address":"ﾀﾜﾗﾓﾄ","pref":"青森県","city":"五所川原市","address":"俵元"},
{"zip_code":"0370036","kana_pref":"ｱｵﾓﾘｹﾝ","kana_city":"ｺﾞｼｮｶﾞﾜﾗｼ","kana_address":"ﾁｭｳｵｳ","pref":"青森県","city":"五所川原市","address":"中央"},
{"zip_code":"0370088","kana_pref":"ｱｵﾓﾘｹﾝ","kana_city":"ｺﾞｼｮｶﾞﾜﾗｼ","kana_address":"ﾂﾙｶﾞｵｶ","pref":"青森県","city":"五所川原市","address":"鶴ケ岡"},
{"zip_code":"0370075","kana_pref":"ｱｵﾓﾘｹﾝ","kana_city":"ｺﾞｼｮｶﾞﾜﾗｼ","kana_address":"ﾃﾗﾏﾁ","pref":"青森県","city":"五所川原市","address":"寺町"},
{"zip_code":"0370601","kana_pref":"ｱｵﾓﾘｹﾝ","kana_city":"ｺﾞｼｮｶﾞﾜﾗｼ","kana_address":"ﾄｻﾞﾜ","pref":"青森県","city":"五所川原市","address":"戸沢"},
{"zip_code":"0370621","kana_pref":"ｱｵﾓﾘｹﾝ","kana_city":"ｺﾞｼｮｶﾞﾜﾗｼ","kana_address":"ﾄﾖﾅﾘ","pref":"青森県","city":"五所川原市","address":"豊成"},
{"zip_code":"0370021","kana_pref":"ｱｵﾓﾘｹﾝ","kana_city":"ｺﾞｼｮｶﾞﾜﾗｼ","kana_address":"ﾅｶｲｽﾞﾐ","pref":"青森県","city":"五所川原市","address":"中泉"},
{"zip_code":"0370066","kana_pref":"ｱｵﾓﾘｹﾝ","kana_city":"ｺﾞｼｮｶﾞﾜﾗｼ","kana_address":"ﾅｶﾋﾗｲﾏﾁ","pref":"青森県","city":"五所川原市","address":"中平井町"},
{"zip_code":"0370097","kana_pref":"ｱｵﾓﾘｹﾝ","kana_city":"ｺﾞｼｮｶﾞﾜﾗｼ","kana_address":"ﾅｶﾞﾄﾐ","pref":"青森県","city":"五所川原市","address":"長富"},
{"zip_code":"0370068","kana_pref":"ｱｵﾓﾘｹﾝ","kana_city":"ｺﾞｼｮｶﾞﾜﾗｼ","kana_address":"ﾅｶﾞﾊｼ","pref":"青森県","city":"五所川原市","address":"長橋"},
{"zip_code":"0370025","kana_pref":"ｱｵﾓﾘｹﾝ","kana_city":"ｺﾞｼｮｶﾞﾜﾗｼ","kana_address":"ﾅﾅﾂﾀﾞﾃ","pref":"青森県","city":"五所川原市","address":"七ツ館"},
{"zip_code":"0370058","kana_pref":"ｱｵﾓﾘｹﾝ","kana_city":"ｺﾞｼｮｶﾞﾜﾗｼ","kana_address":"ﾆｼｷﾁｮｳ","pref":"青森県","city":"五所川原市","address":"錦町"},
{"zip_code":"0370053","kana_pref":"ｱｵﾓﾘｹﾝ","kana_city":"ｺﾞｼｮｶﾞﾜﾗｼ","kana_address":"ﾇﾉﾔﾁｮｳ","pref":"青森県","city":"五所川原市","address":"布屋町"},
{"zip_code":"0370614","kana_pref":"ｱｵﾓﾘｹﾝ","kana_city":"ｺﾞｼｮｶﾞﾜﾗｼ","kana_address":"ﾉｻﾞﾄ","pref":"青森県","city":"五所川原市","address":"野里"},
{"zip_code":"0370085","kana_pref":"ｱｵﾓﾘｹﾝ","kana_city":"ｺﾞｼｮｶﾞﾜﾗｼ","kana_address":"ﾊﾞｼｮｳ","pref":"青森県","city":"五所川原市","address":"芭蕉"},
{"zip_code":"0370043","kana_pref":"ｱｵﾓﾘｹﾝ","kana_city":"ｺﾞｼｮｶﾞﾜﾗｼ","kana_address":"ﾊｽﾇﾏ","pref":"青森県","city":"五所川原市","address":"蓮沼"},
{"zip_code":"0370641","kana_pref":"ｱｵﾓﾘｹﾝ","kana_city":"ｺﾞｼｮｶﾞﾜﾗｼ","kana_address":"ﾊﾉｷｻﾞﾜ","pref":"青森県","city":"五所川原市","address":"羽野木沢"},
{"zip_code":"0370622","kana_pref":"ｱｵﾓﾘｹﾝ","kana_city":"ｺﾞｼｮｶﾞﾜﾗｼ","kana_address":"ﾊﾗｺ","pref":"青森県","city":"五所川原市","address":"原子"},
{"zip_code":"0370096","kana_pref":"ｱｵﾓﾘｹﾝ","kana_city":"ｺﾞｼｮｶﾞﾜﾗｼ","kana_address":"ﾋﾞｼｬﾓﾝ","pref":"青森県","city":"五所川原市","address":"毘沙門"},
{"zip_code":"0370016","kana_pref":"ｱｵﾓﾘｹﾝ","kana_city":"ｺﾞｼｮｶﾞﾜﾗｼ","kana_address":"ﾋﾄﾂﾔ","pref":"青森県","city":"五所川原市","address":"一ツ谷"},
{"zip_code":"0370061","kana_pref":"ｱｵﾓﾘｹﾝ","kana_city":"ｺﾞｼｮｶﾞﾜﾗｼ","kana_address":"ﾋﾅﾀ","pref":"青森県","city":"五所川原市","address":"雛田"},
{"zip_code":"0370023","kana_pref":"ｱｵﾓﾘｹﾝ","kana_city":"ｺﾞｼｮｶﾞﾜﾗｼ","kana_address":"ﾋﾛﾀ","pref":"青森県","city":"五所川原市","address":"広田"},
{"zip_code":"0370003","kana_pref":"ｱｵﾓﾘｹﾝ","kana_city":"ｺﾞｼｮｶﾞﾜﾗｼ","kana_address":"ﾌｷﾊﾀ","pref":"青森県","city":"五所川原市","address":"吹畑"},
{"zip_code":"0370612","kana_pref":"ｱｵﾓﾘｹﾝ","kana_city":"ｺﾞｼｮｶﾞﾜﾗｼ","kana_address":"ﾌｸﾔﾏ","pref":"青森県","city":"五所川原市","address":"福山"},
{"zip_code":"0370071","kana_pref":"ｱｵﾓﾘｹﾝ","kana_city":"ｺﾞｼｮｶﾞﾜﾗｼ","kana_address":"ﾎﾝﾁｮｳ","pref":"青森県","city":"五所川原市","address":"本町"},
{"zip_code":"0370631","kana_pref":"ｱｵﾓﾘｹﾝ","kana_city":"ｺﾞｼｮｶﾞﾜﾗｼ","kana_address":"ﾏｴﾀﾞﾉﾒ","pref":"青森県","city":"五所川原市","address":"前田野目"},
{"zip_code":"0370006","kana_pref":"ｱｵﾓﾘｹﾝ","kana_city":"ｺﾞｼｮｶﾞﾜﾗｼ","kana_address":"ﾏﾂｼﾏﾁｮｳ","pref":"青森県","city":"五所川原市","address":"松島町"},
{"zip_code":"0370602","kana_pref":"ｱｵﾓﾘｹﾝ","kana_city":"ｺﾞｼｮｶﾞﾜﾗｼ","kana_address":"ﾏﾂﾉｷ","pref":"青森県","city":"五所川原市","address":"松野木"},
{"zip_code":"0370012","kana_pref":"ｱｵﾓﾘｹﾝ","kana_city":"ｺﾞｼｮｶﾞﾜﾗｼ","kana_address":"ﾐｽﾞﾉｵ","pref":"青森県","city":"五所川原市","address":"水野尾"},
{"zip_code":"0370024","kana_pref":"ｱｵﾓﾘｹﾝ","kana_city":"ｺﾞｼｮｶﾞﾜﾗｼ","kana_address":"ﾐﾄﾞﾘﾁｮｳ","pref":"青森県","city":"五所川原市","address":"みどり町"},
{"zip_code":"0370035","kana_pref":"ｱｵﾓﾘｹﾝ","kana_city":"ｺﾞｼｮｶﾞﾜﾗｼ","kana_address":"ﾐﾅﾄ","pref":"青森県","city":"五所川原市","address":"湊"},
{"zip_code":"0370089","kana_pref":"ｱｵﾓﾘｹﾝ","kana_city":"ｺﾞｼｮｶﾞﾜﾗｼ","kana_address":"ﾓｶﾞﾜ","pref":"青森県","city":"五所川原市","address":"藻川"},
{"zip_code":"0370642","kana_pref":"ｱｵﾓﾘｹﾝ","kana_city":"ｺﾞｼｮｶﾞﾜﾗｼ","kana_address":"ﾓｯｺｻﾞﾜ","pref":"青森県","city":"五所川原市","address":"持子沢"},
{"zip_code":"0370044","kana_pref":"ｱｵﾓﾘｹﾝ","kana_city":"ｺﾞｼｮｶﾞﾜﾗｼ","kana_address":"ﾓﾄﾏﾁ","pref":"青森県","city":"五所川原市","address":"元町"},
{"zip_code":"0370034","kana_pref":"ｱｵﾓﾘｹﾝ","kana_city":"ｺﾞｼｮｶﾞﾜﾗｼ","kana_address":"ﾔｴｷﾞｸ","pref":"青森県","city":"五所川原市","address":"八重菊"},
{"zip_code":"0370073","kana_pref":"ｱｵﾓﾘｹﾝ","kana_city":"ｺﾞｼｮｶﾞﾜﾗｼ","kana_address":"ﾔﾅｷﾞﾏﾁ","pref":"青森県","city":"五所川原市","address":"柳町"},
{"zip_code":"0370051","kana_pref":"ｱｵﾓﾘｹﾝ","kana_city":"ｺﾞｼｮｶﾞﾜﾗｼ","kana_address":"ﾔﾖｲﾁｮｳ","pref":"青森県","city":"五所川原市","address":"弥生町"},
{"zip_code":"0370013","kana_pref":"ｱｵﾓﾘｹﾝ","kana_city":"ｺﾞｼｮｶﾞﾜﾗｼ","kana_address":"ﾖﾈﾀ","pref":"青森県","city":"五所川原市","address":"米田"},
{"zip_code":"0370069","kana_pref":"ｱｵﾓﾘｹﾝ","kana_city":"ｺﾞｼｮｶﾞﾜﾗｼ","kana_address":"ﾜｶﾊﾞ","pref":"青森県","city":"五所川原市","address":"若葉"},
{"zip_code":"0370405","kana_pref":"ｱｵﾓﾘｹﾝ","kana_city":"ｺﾞｼｮｶﾞﾜﾗｼ","kana_address":"ﾜｷﾓﾄ","pref":"青森県","city":"五所川原市","address":"脇元"},
{"zip_code":"0370102","kana_pref":"ｱｵﾓﾘｹﾝ","kana_city":"ﾂｶﾞﾙｼ","kana_address":"ｲﾅｶﾞｷﾁｮｳｼｹﾞﾀ","pref":"青森県","city":"つがる市","address":"稲垣町繁田"},
{"zip_code":"0370101","kana_pref":"ｱｵﾓﾘｹﾝ","kana_city":"ﾂｶﾞﾙｼ","kana_address":"ｲﾅｶﾞｷﾁｮｳｼﾓｼｹﾞﾀ","pref":"青森県","city":"つがる市","address":"稲垣町下繁田"},
{"zip_code":"0370109","kana_pref":"ｱｵﾓﾘｹﾝ","kana_city":"ﾂｶﾞﾙｼ","kana_address":"ｲﾅｶﾞｷﾁｮｳﾁﾄｾ","pref":"青森県","city":"つがる市","address":"稲垣町千年"},
{"zip_code":"0370104","kana_pref":"ｱｵﾓﾘｹﾝ","kana_city":"ﾂｶﾞﾙｼ","kana_address":"ｲﾅｶﾞｷﾁｮｳﾄﾖｶﾜ","pref":"青森県","city":"つがる市","address":"稲垣町豊川"},
{"zip_code":"0370106","kana_pref":"ｱｵﾓﾘｹﾝ","kana_city":"ﾂｶﾞﾙｼ","kana_address":"ｲﾅｶﾞｷﾁｮｳﾇﾏｻﾞｷ","pref":"青森県","city":"つがる市","address":"稲垣町沼崎"},
{"zip_code":"0370107","kana_pref":"ｱｵﾓﾘｹﾝ","kana_city":"ﾂｶﾞﾙｼ","kana_address":"ｲﾅｶﾞｷﾁｮｳﾇﾏﾀﾞﾃ","pref":"青森県","city":"つがる市","address":"稲垣町沼舘"},
{"zip_code":"0370105","kana_pref":"ｱｵﾓﾘｹﾝ","kana_city":"ﾂｶﾞﾙｼ","kana_address":"ｲﾅｶﾞｷﾁｮｳﾌｸﾄﾐ","pref":"青森県","city":"つがる市","address":"稲垣町福富"},
{"zip_code":"0370103","kana_pref":"ｱｵﾓﾘｹﾝ","kana_city":"ﾂｶﾞﾙｼ","kana_address":"ｲﾅｶﾞｷﾁｮｳﾎﾂﾞﾐ","pref":"青森県","city":"つがる市","address":"稲垣町穂積"},
{"zip_code":"0370108","kana_pref":"ｱｵﾓﾘｹﾝ","kana_city":"ﾂｶﾞﾙｼ","kana_address":"ｲﾅｶﾞｷﾁｮｳﾖｼﾃﾞ","pref":"青森県","city":"つがる市","address":"稲垣町吉出"},
{"zip_code":"0370300","kana_pref":"ｱｵﾓﾘｹﾝ","kana_city":"ｷﾀﾂｶﾞﾙｸﾞﾝﾅｶﾄﾞﾏﾘﾏﾁ","kana_address":"","pref":"青森県","city":"北津軽郡中泊町","address":""},
{"zip_code":"0370316","kana_pref":"ｱｵﾓﾘｹﾝ","kana_city":"ｷﾀﾂｶﾞﾙｸﾞﾝﾅｶﾄﾞﾏﾘﾏﾁ","kana_address":"ｱｼﾉ","pref":"青森県","city":"北津軽郡中泊町","address":"芦野"},
{"zip_code":"0370301","kana_pref":"ｱｵﾓﾘｹﾝ","kana_city":"ｷﾀﾂｶﾞﾙｸﾞﾝﾅｶﾄﾞﾏﾘﾏﾁ","kana_address":"ｲﾏｲｽﾞﾐ","pref":"青森県","city":"北津軽郡中泊町","address":"今泉"},
{"zip_code":"0370302","kana_pref":"ｱｵﾓﾘｹﾝ","kana_city":"ｷﾀﾂｶﾞﾙｸﾞﾝﾅｶﾄﾞﾏﾘﾏﾁ","kana_address":"ｳｽｲﾁ","pref":"青森県","city":"北津軽郡中泊町","address":"薄市"},
{"zip_code":"0370311","kana_pref":"ｱｵﾓﾘｹﾝ","kana_city":"ｷﾀﾂｶﾞﾙｸﾞﾝﾅｶﾄﾞﾏﾘﾏﾁ","kana_address":"ｵｵｻﾜﾅｲ","pref":"青森県","city":"北津軽郡中泊町","address":"大沢内"},
{"zip_code":"0370304","kana_pref":"ｱｵﾓﾘｹﾝ","kana_city":"ｷﾀﾂｶﾞﾙｸﾞﾝﾅｶﾄﾞﾏﾘﾏﾁ","kana_address":"ｵｯﾍﾟﾂ","pref":"青森県","city":"北津軽郡中泊町","address":"尾別"},
{"zip_code":"0370512","kana_pref":"ｱｵﾓﾘｹﾝ","kana_city":"ｷﾀﾂｶﾞﾙｸﾞﾝﾅｶﾄﾞﾏﾘﾏﾁ","kana_address":"ｺﾄﾞﾏﾘｱｻﾏ","pref":"青森県","city":"北津軽郡中泊町","address":"小泊朝間"},
{"zip_code":"0370523","kana_pref":"ｱｵﾓﾘｹﾝ","kana_city":"ｷﾀﾂｶﾞﾙｸﾞﾝﾅｶﾄﾞﾏﾘﾏﾁ","kana_address":"ｺﾄﾞﾏﾘｲﾅﾘ","pref":"青森県","city":"北津軽郡中泊町","address":"小泊稲荷"},
{"zip_code":"0370541","kana_pref":"ｱｵﾓﾘｹﾝ","kana_city":"ｷﾀﾂｶﾞﾙｸﾞﾝﾅｶﾄﾞﾏﾘﾏﾁ","kana_address":"ｺﾄﾞﾏﾘｳｶﾞｲｻﾜ","pref":"青森県","city":"北津軽郡中泊町","address":"小泊嗽沢"},
{"zip_code":"0370534","kana_pref":"ｱｵﾓﾘｹﾝ","kana_city":"ｷﾀﾂｶﾞﾙｸﾞﾝﾅｶﾄﾞﾏﾘﾏﾁ","kana_address":"ｺﾄﾞﾏﾘｳﾙｼﾅｶﾞﾚ","pref":"青森県","city":"北津軽郡中泊町","address":"小泊漆流"},
{"zip_code":"0370542","kana_pref":"ｱｵﾓﾘｹﾝ","kana_city":"ｷﾀﾂｶﾞﾙｸﾞﾝﾅｶﾄﾞﾏﾘﾏﾁ","kana_address":"ｺﾄﾞﾏﾘｵｵﾔﾏﾅｶﾞﾈ","pref":"青森県","city":"北津軽郡中泊町","address":"小泊大山長根"},
{"zip_code":"0370535","kana_pref":"ｱｵﾓﾘｹﾝ","kana_city":"ｷﾀﾂｶﾞﾙｸﾞﾝﾅｶﾄﾞﾏﾘﾏﾁ","kana_address":"ｺﾄﾞﾏﾘｵｻｷﾐﾁ","pref":"青森県","city":"北津軽郡中泊町","address":"小泊尾崎道"},
{"zip_code":"0370521","kana_pref":"ｱｵﾓﾘｹﾝ","kana_city":"ｷﾀﾂｶﾞﾙｸﾞﾝﾅｶﾄﾞﾏﾘﾏﾁ","kana_address":"ｺﾄﾞﾏﾘｵﾘﾄ","pref":"青森県","city":"北津軽郡中泊町","address":"小泊折戸"},
{"zip_code":"0370522","kana_pref":"ｱｵﾓﾘｹﾝ","kana_city":"ｷﾀﾂｶﾞﾙｸﾞﾝﾅｶﾄﾞﾏﾘﾏﾁ","kana_address":"ｺﾄﾞﾏﾘｺﾄﾞﾏﾘ","pref":"青森県","city":"北津軽郡中泊町","address":"小泊小泊"},
{"zip_code":"0370525","kana_pref":"ｱｵﾓﾘｹﾝ","kana_city":"ｷﾀﾂｶﾞﾙｸﾞﾝﾅｶﾄﾞﾏﾘﾏﾁ","kana_address":"ｺﾄﾞﾏﾘｻﾒｶﾞｲ","pref":"青森県","city":"北津軽郡中泊町","address":"小泊鮫貝"},
{"zip_code":"0370538","kana_pref":"ｱｵﾓﾘｹﾝ","kana_city":"ｷﾀﾂｶﾞﾙｸﾞﾝﾅｶﾄﾞﾏﾘﾏﾁ","kana_address":"ｺﾄﾞﾏﾘｼﾀﾏｴ","pref":"青森県","city":"北津軽郡中泊町","address":"小泊下前"},
{"zip_code":"0370533","kana_pref":"ｱｵﾓﾘｹﾝ","kana_city":"ｷﾀﾂｶﾞﾙｸﾞﾝﾅｶﾄﾞﾏﾘﾏﾁ","kana_address":"ｺﾄﾞﾏﾘｼﾛｸﾗ","pref":"青森県","city":"北津軽郡中泊町","address":"小泊白倉"},
{"zip_code":"0370511","kana_pref":"ｱｵﾓﾘｹﾝ","kana_city":"ｷﾀﾂｶﾞﾙｸﾞﾝﾅｶﾄﾞﾏﾘﾏﾁ","kana_address":"ｺﾄﾞﾏﾘｽﾅﾔﾏ","pref":"青森県","city":"北津軽郡中泊町","address":"小泊砂山"},
{"zip_code":"0370531","kana_pref":"ｱｵﾓﾘｹﾝ","kana_city":"ｷﾀﾂｶﾞﾙｸﾞﾝﾅｶﾄﾞﾏﾘﾏﾁ","kana_address":"ｺﾄﾞﾏﾘﾅｶﾞｻｶ","pref":"青森県","city":"北津軽郡中泊町","address":"小泊長坂"},
{"zip_code":"0370536","kana_pref":"ｱｵﾓﾘｹﾝ","kana_city":"ｷﾀﾂｶﾞﾙｸﾞﾝﾅｶﾄﾞﾏﾘﾏﾁ","kana_address":"ｺﾄﾞﾏﾘﾅｶﾏ","pref":"青森県","city":"北津軽郡中泊町","address":"小泊中間"},
{"zip_code":"0370532","kana_pref":"ｱｵﾓﾘｹﾝ","kana_city":"ｷﾀﾂｶﾞﾙｸﾞﾝﾅｶﾄﾞﾏﾘﾏﾁ","kana_address":"ｺﾄﾞﾏﾘﾅｼｷﾀｲﾗ","pref":"青森県","city":"北津軽郡中泊町","address":"小泊梨子木平"},
{"zip_code":"0370514","kana_pref":"ｱｵﾓﾘｹﾝ","kana_city":"ｷﾀﾂｶﾞﾙｸﾞﾝﾅｶﾄﾞﾏﾘﾏﾁ","kana_address":"ｺﾄﾞﾏﾘﾊﾏﾉ","pref":"青森県","city":"北津軽郡中泊町","address":"小泊浜野"},
{"zip_code":"0370537","kana_pref":"ｱｵﾓﾘｹﾝ","kana_city":"ｷﾀﾂｶﾞﾙｸﾞﾝﾅｶﾄﾞﾏﾘﾏﾁ","kana_address":"ｺﾄﾞﾏﾘﾌﾁｲﾜ","pref":"青森県","city":"北津軽郡中泊町","address":"小泊渕岩"},
{"zip_code":"0370543","kana_pref":"ｱｵﾓﾘｹﾝ","kana_city":"ｷﾀﾂｶﾞﾙｸﾞﾝﾅｶﾄﾞﾏﾘﾏﾁ","kana_address":"ｺﾄﾞﾏﾘﾎﾞｳｽﾞｻﾜ","pref":"青森県","city":"北津軽郡中泊町","address":"小泊坊主沢"},
{"zip_code":"0370524","kana_pref":"ｱｵﾓﾘｹﾝ","kana_city":"ｷﾀﾂｶﾞﾙｸﾞﾝﾅｶﾄﾞﾏﾘﾏﾁ","kana_address":"ｺﾄﾞﾏﾘﾐｽﾞﾉﾏ","pref":"青森県","city":"北津軽郡中泊町","address":"小泊水澗"},
{"zip_code":"0370513","kana_pref":"ｱｵﾓﾘｹﾝ","kana_city":"ｷﾀﾂｶﾞﾙｸﾞﾝﾅｶﾄﾞﾏﾘﾏﾁ","kana_address":"ｺﾄﾞﾏﾘﾜﾘﾅｶﾞﾈ","pref":"青森県","city":"北津軽郡中泊町","address":"小泊割長根"},
{"zip_code":"0370303","kana_pref":"ｱｵﾓﾘｹﾝ","kana_city":"ｷﾀﾂｶﾞﾙｸﾞﾝﾅｶﾄﾞﾏﾘﾏﾁ","kana_address":"ﾀｶﾈ","pref":"青森県","city":"北津軽郡中泊町","address":"高根"},
{"zip_code":"0370318","kana_pref":"ｱｵﾓﾘｹﾝ","kana_city":"ｷﾀﾂｶﾞﾙｸﾞﾝﾅｶﾄﾞﾏﾘﾏﾁ","kana_address":"ﾀﾓｷﾞ","pref":"青森県","city":"北津軽郡中泊町","address":"田茂木"},
{"zip_code":"0370313","kana_pref":"ｱｵﾓﾘｹﾝ","kana_city":"ｷﾀﾂｶﾞﾙｸﾞﾝﾅｶﾄﾞﾏﾘﾏﾁ","kana_address":"ﾄﾐﾉ","pref":"青森県","city":"北津軽郡中泊町","address":"富野"},
{"zip_code":"0370315","kana_pref":"ｱｵﾓﾘｹﾝ","kana_city":"ｷﾀﾂｶﾞﾙｸﾞﾝﾅｶﾄﾞﾏﾘﾏﾁ","kana_address":"ﾄﾖｵｶ","pref":"青森県","city":"北津軽郡中泊町","address":"豊岡"},
{"zip_code":"0370312","kana_pref":"ｱｵﾓﾘｹﾝ","kana_city":"ｷﾀﾂｶﾞﾙｸﾞﾝﾅｶﾄﾞﾏﾘﾏﾁ","kana_address":"ﾄﾖｼﾏ","pref":"青森県","city":"北津軽郡中泊町","address":"豊島"},
{"zip_code":"0370305","kana_pref":"ｱｵﾓﾘｹﾝ","kana_city":"ｷﾀﾂｶﾞﾙｸﾞﾝﾅｶﾄﾞﾏﾘﾏﾁ","kana_address":"ﾅｶｻﾄ","pref":"青森県","city":"北津軽郡中泊町","address":"中里"},
{"zip_code":"0370317","kana_pref":"ｱｵﾓﾘｹﾝ","kana_city":"ｷﾀﾂｶﾞﾙｸﾞﾝﾅｶﾄﾞﾏﾘﾏﾁ","kana_address":"ﾅｶﾞﾄﾞﾛ","pref":"青森県","city":"北津軽郡中泊町","address":"長泥"},
{"zip_code":"0370309","kana_pref":"ｱｵﾓﾘｹﾝ","kana_city":"ｷﾀﾂｶﾞﾙｸﾞﾝﾅｶﾄﾞﾏﾘﾏﾁ","kana_address":"ﾊﾁﾏﾝ","pref":"青森県","city":"北津軽郡中泊町","address":"八幡"},
{"zip_code":"0370314","kana_pref":"ｱｵﾓﾘｹﾝ","kana_city":"ｷﾀﾂｶﾞﾙｸﾞﾝﾅｶﾄﾞﾏﾘﾏﾁ","kana_address":"ﾌｸｳﾗ","pref":"青森県","city":"北津軽郡中泊町","address":"福浦"},
{"zip_code":"0370308","kana_pref":"ｱｵﾓﾘｹﾝ","kana_city":"ｷﾀﾂｶﾞﾙｸﾞﾝﾅｶﾄﾞﾏﾘﾏﾁ","kana_address":"ﾌｺｳﾀﾞ","pref":"青森県","city":"北津軽郡中泊町","address":"深郷田"},
{"zip_code":"0370306","kana_pref":"ｱｵﾓﾘｹﾝ","kana_city":"ｷﾀﾂｶﾞﾙｸﾞﾝﾅｶﾄﾞﾏﾘﾏﾁ","kana_address":"ﾐﾔｶﾜ","pref":"青森県","city":"北津軽郡中泊町","address":"宮川"},
{"zip_code":"0370307","kana_pref":"ｱｵﾓﾘｹﾝ","kana_city":"ｷﾀﾂｶﾞﾙｸﾞﾝﾅｶﾄﾞﾏﾘﾏﾁ","kana_address":"ﾐﾔﾉｻﾜ","pref":"青森県","city":"北津軽郡中泊町","address":"宮野沢"}]}