{"zip_code":[
{"zip_code":"0380000","kana_pref":"ｱｵﾓﾘｹﾝ","kana_city":"ｱｵﾓﾘｼ","kana_address":"","pref":"青森県","city":"青森市","address":""},
{"zip_code":"0380056","kana_pref":"ｱｵﾓﾘｹﾝ","kana_city":"ｱｵﾓﾘｼ","kana_address":"ｱｽｶ","pref":"青森県","city":"青森市","address":"飛鳥"},
{"zip_code":"0380059","kana_pref":"ｱｵﾓﾘｹﾝ","kana_city":"ｱｵﾓﾘｼ","kana_address":"ｱﾌﾞﾗｶﾜ","pref":"青森県","city":"青森市","address":"油川"},
{"zip_code":"0380003","kana_pref":"ｱｵﾓﾘｹﾝ","kana_city":"ｱｵﾓﾘｼ","kana_address":"ｲｼｴ","pref":"青森県","city":"青森市","address":"石江"},
{"zip_code":"0380043","kana_pref":"ｱｵﾓﾘｹﾝ","kana_city":"ｱｵﾓﾘｼ","kana_address":"ｲﾜﾀﾘ","pref":"青森県","city":"青森市","address":"岩渡"},
{"zip_code":"0380051","kana_pref":"ｱｵﾓﾘｹﾝ","kana_city":"ｱｵﾓﾘｼ","kana_address":"ｳﾁﾏﾝﾍﾟ","pref":"青森県","city":"青森市","address":"内真部"},
{"zip_code":"0380041","kana_pref":"ｱｵﾓﾘｹﾝ","kana_city":"ｱｵﾓﾘｼ","kana_address":"ｵｶﾏﾁ","pref":"青森県","city":"青森市","address":"岡町"},
{"zip_code":"0380002","kana_pref":"ｱｵﾓﾘｹﾝ","kana_city":"ｱｵﾓﾘｼ","kana_address":"ｵｷﾀﾞﾃ","pref":"青森県","city":"青森市","address":"沖館"},
{"zip_code":"0380054","kana_pref":"ｱｵﾓﾘｹﾝ","kana_city":"ｱｵﾓﾘｼ","kana_address":"ｵｸﾅｲ","pref":"青森県","city":"青森市","address":"奥内"},
{"zip_code":"0380013","kana_pref":"ｱｵﾓﾘｹﾝ","kana_city":"ｱｵﾓﾘｼ","kana_address":"ｸｽｼ","pref":"青森県","city":"青森市","address":"久須志"},
{"zip_code":"0380032","kana_pref":"ｱｵﾓﾘｹﾝ","kana_city":"ｱｵﾓﾘｼ","kana_address":"ｻﾄﾐ","pref":"青森県","city":"青森市","address":"里見"},
{"zip_code":"0380031","kana_pref":"ｱｵﾓﾘｹﾝ","kana_city":"ｱｵﾓﾘｼ","kana_address":"ｻﾝﾅｲ","pref":"青森県","city":"青森市","address":"三内"},
{"zip_code":"0380011","kana_pref":"ｱｵﾓﾘｹﾝ","kana_city":"ｱｵﾓﾘｼ","kana_address":"ｼﾉﾀﾞ","pref":"青森県","city":"青森市","address":"篠田"},
{"zip_code":"0380052","kana_pref":"ｱｵﾓﾘｹﾝ","kana_city":"ｱｵﾓﾘｼ","kana_address":"ｼﾐｽﾞ","pref":"青森県","city":"青森市","address":"清水"},
{"zip_code":"0380042","kana_pref":"ｱｵﾓﾘｹﾝ","kana_city":"ｱｵﾓﾘｼ","kana_address":"ｼﾝｼﾞｮｳ","pref":"青森県","city":"青森市","address":"新城"},
{"zip_code":"0380055","kana_pref":"ｱｵﾓﾘｹﾝ","kana_city":"ｱｵﾓﾘｼ","kana_address":"ｾﾄｼ","pref":"青森県","city":"青森市","address":"瀬戸子"},
{"zip_code":"0380015","kana_pref":"ｱｵﾓﾘｹﾝ","kana_city":"ｱｵﾓﾘｼ","kana_address":"ｾﾝｶﾞﾘ","pref":"青森県","city":"青森市","address":"千刈"},
{"zip_code":"0380045","kana_pref":"ｱｵﾓﾘｹﾝ","kana_city":"ｱｵﾓﾘｼ","kana_address":"ﾂﾙｶﾞｻｶ","pref":"青森県","city":"青森市","address":"鶴ケ坂"},
{"zip_code":"0380046","kana_pref":"ｱｵﾓﾘｹﾝ","kana_city":"ｱｵﾓﾘｼ","kana_address":"ﾄｶﾄﾞ","pref":"青森県","city":"青森市","address":"戸門"},
{"zip_code":"0380004","kana_pref":"ｱｵﾓﾘｹﾝ","kana_city":"ｱｵﾓﾘｼ","kana_address":"ﾄﾐﾀ","pref":"青森県","city":"青森市","address":"富田"},
{"zip_code":"0381321","kana_pref":"ｱｵﾓﾘｹﾝ","kana_city":"ｱｵﾓﾘｼ","kana_address":"ﾅﾐｵｶｱｲｻﾞﾜ","pref":"青森県","city":"青森市","address":"浪岡相沢"},
{"zip_code":"0381313","kana_pref":"ｱｵﾓﾘｹﾝ","kana_city":"ｱｵﾓﾘｼ","kana_address":"ﾅﾐｵｶｶﾚｲｻﾞﾜ","pref":"青森県","city":"青森市","address":"浪岡王余魚沢"},
{"zip_code":"0381325","kana_pref":"ｱｵﾓﾘｹﾝ","kana_city":"ｱｵﾓﾘｼ","kana_address":"ﾅﾐｵｶｷﾀﾅｶﾉ","pref":"青森県","city":"青森市","address":"浪岡北中野"},
{"zip_code":"0381324","kana_pref":"ｱｵﾓﾘｹﾝ","kana_city":"ｱｵﾓﾘｼ","kana_address":"ﾅﾐｵｶｷﾁﾅｲ","pref":"青森県","city":"青森市","address":"浪岡吉内"},
{"zip_code":"0381343","kana_pref":"ｱｵﾓﾘｹﾝ","kana_city":"ｱｵﾓﾘｼ","kana_address":"ﾅﾐｵｶｺﾞｳｻﾝﾏｴ","pref":"青森県","city":"青森市","address":"浪岡郷山前"},
{"zip_code":"0381312","kana_pref":"ｱｵﾓﾘｹﾝ","kana_city":"ｱｵﾓﾘｼ","kana_address":"ﾅﾐｵｶｺﾞﾎﾝﾏﾂ","pref":"青森県","city":"青森市","address":"浪岡五本松"},
{"zip_code":"0381345","kana_pref":"ｱｵﾓﾘｹﾝ","kana_city":"ｱｵﾓﾘｼ","kana_address":"ﾅﾐｵｶｼﾓｲｼｶﾜ","pref":"青森県","city":"青森市","address":"浪岡下石川"},
{"zip_code":"0381332","kana_pref":"ｱｵﾓﾘｹﾝ","kana_city":"ｱｵﾓﾘｼ","kana_address":"ﾅﾐｵｶｼﾓﾄｶﾞﾜ","pref":"青森県","city":"青森市","address":"浪岡下十川"},
{"zip_code":"0381341","kana_pref":"ｱｵﾓﾘｹﾝ","kana_city":"ｱｵﾓﾘｼ","kana_address":"ﾅﾐｵｶｼﾛｶﾞﾈ","pref":"青森県","city":"青森市","address":"浪岡銀"},
{"zip_code":"0381305","kana_pref":"ｱｵﾓﾘｹﾝ","kana_city":"ｱｵﾓﾘｼ","kana_address":"ﾅﾐｵｶｽｷﾞｻﾜ","pref":"青森県","city":"青森市","address":"浪岡杉沢"},
{"zip_code":"0381301","kana_pref":"ｱｵﾓﾘｹﾝ","kana_city":"ｱｵﾓﾘｼ","kana_address":"ﾅﾐｵｶﾀﾞｲｼｬｶ","pref":"青森県","city":"青森市","address":"浪岡大釈迦"},
{"zip_code":"0381304","kana_pref":"ｱｵﾓﾘｹﾝ","kana_city":"ｱｵﾓﾘｼ","kana_address":"ﾅﾐｵｶﾀｶﾔｼｷ","pref":"青森県","city":"青森市","address":"浪岡高屋敷"},
{"zip_code":"0381342","kana_pref":"ｱｵﾓﾘｹﾝ","kana_city":"ｱｵﾓﾘｼ","kana_address":"ﾅﾐｵｶﾀﾙｻﾜ","pref":"青森県","city":"青森市","address":"浪岡樽沢"},
{"zip_code":"0381303","kana_pref":"ｱｵﾓﾘｹﾝ","kana_city":"ｱｵﾓﾘｼ","kana_address":"ﾅﾐｵｶﾄｸｻｲｼ","pref":"青森県","city":"青森市","address":"浪岡徳才子"},
{"zip_code":"0381302","kana_pref":"ｱｵﾓﾘｹﾝ","kana_city":"ｱｵﾓﾘｼ","kana_address":"ﾅﾐｵｶﾅｶﾞﾇﾏ","pref":"青森県","city":"青森市","address":"浪岡長沼"},
{"zip_code":"0381311","kana_pref":"ｱｵﾓﾘｹﾝ","kana_city":"ｱｵﾓﾘｼ","kana_address":"ﾅﾐｵｶﾅﾐｵｶ","pref":"青森県","city":"青森市","address":"浪岡浪岡"},
{"zip_code":"0381306","kana_pref":"ｱｵﾓﾘｹﾝ","kana_city":"ｱｵﾓﾘｼ","kana_address":"ﾅﾐｵｶﾌｸﾀﾞ","pref":"青森県","city":"青森市","address":"浪岡福田"},
{"zip_code":"0381322","kana_pref":"ｱｵﾓﾘｹﾝ","kana_city":"ｱｵﾓﾘｼ","kana_address":"ﾅﾐｵｶﾎｿﾉ","pref":"青森県","city":"青森市","address":"浪岡細野"},
{"zip_code":"0381323","kana_pref":"ｱｵﾓﾘｹﾝ","kana_city":"ｱｵﾓﾘｼ","kana_address":"ﾅﾐｵｶﾎﾝｺﾞｳ","pref":"青森県","city":"青森市","address":"浪岡本郷"},
{"zip_code":"0381333","kana_pref":"ｱｵﾓﾘｹﾝ","kana_city":"ｱｵﾓﾘｼ","kana_address":"ﾅﾐｵｶﾏｽﾀﾞﾃ","pref":"青森県","city":"青森市","address":"浪岡増館"},
{"zip_code":"0381331","kana_pref":"ｱｵﾓﾘｹﾝ","kana_city":"ｱｵﾓﾘｼ","kana_address":"ﾅﾐｵｶﾒｶﾞｻﾜ","pref":"青森県","city":"青森市","address":"浪岡女鹿沢"},
{"zip_code":"0381344","kana_pref":"ｱｵﾓﾘｹﾝ","kana_city":"ｱｵﾓﾘｼ","kana_address":"ﾅﾐｵｶﾖｼﾉﾀﾞ","pref":"青森県","city":"青森市","address":"浪岡吉野田"},
{"zip_code":"0380022","kana_pref":"ｱｵﾓﾘｹﾝ","kana_city":"ｱｵﾓﾘｼ","kana_address":"ﾅﾐﾀﾞﾃ","pref":"青森県","city":"青森市","address":"浪館"},
{"zip_code":"0380024","kana_pref":"ｱｵﾓﾘｹﾝ","kana_city":"ｱｵﾓﾘｼ","kana_address":"ﾅﾐﾀﾞﾃﾏｴﾀﾞ","pref":"青森県","city":"青森市","address":"浪館前田"},
{"zip_code":"0380014","kana_pref":"ｱｵﾓﾘｹﾝ","kana_city":"ｱｵﾓﾘｼ","kana_address":"ﾆｼﾀｷ","pref":"青森県","city":"青森市","address":"西滝"},
{"zip_code":"0380057","kana_pref":"ｱｵﾓﾘｹﾝ","kana_city":"ｱｵﾓﾘｼ","kana_address":"ﾆｼﾀｻﾞﾜ","pref":"青森県","city":"青森市","address":"西田沢"},
{"zip_code":"0380001","kana_pref":"ｱｵﾓﾘｹﾝ","kana_city":"ｱｵﾓﾘｼ","kana_address":"ﾆｯﾀ","pref":"青森県","city":"青森市","address":"新田"},
{"zip_code":"0380058","kana_pref":"ｱｵﾓﾘｹﾝ","kana_city":"ｱｵﾓﾘｼ","kana_address":"ﾊｼﾞﾛ","pref":"青森県","city":"青森市","address":"羽白"},
{"zip_code":"0380023","kana_pref":"ｱｵﾓﾘｹﾝ","kana_city":"ｱｵﾓﾘｼ","kana_address":"ﾎｿｺﾞｴ","pref":"青森県","city":"青森市","address":"細越"},
{"zip_code":"0380053","kana_pref":"ｱｵﾓﾘｹﾝ","kana_city":"ｱｵﾓﾘｼ","kana_address":"ﾏｴﾀﾞ","pref":"青森県","city":"青森市","address":"前田"},
{"zip_code":"0380044","kana_pref":"ｱｵﾓﾘｹﾝ","kana_city":"ｱｵﾓﾘｼ","kana_address":"ﾏｺﾞﾅｲ","pref":"青森県","city":"青森市","address":"孫内"},
{"zip_code":"0380006","kana_pref":"ｱｵﾓﾘｹﾝ","kana_city":"ｱｵﾓﾘｼ","kana_address":"ﾐﾖｼ","pref":"青森県","city":"青森市","address":"三好"},
{"zip_code":"0380021","kana_pref":"ｱｵﾓﾘｹﾝ","kana_city":"ｱｵﾓﾘｼ","kana_address":"ﾔｽﾀ","pref":"青森県","city":"青森市","address":"安田"},
{"zip_code":"0380012","kana_pref":"ｱｵﾓﾘｹﾝ","kana_city":"ｱｵﾓﾘｼ","kana_address":"ﾔﾅｶﾜ","pref":"青森県","city":"青森市","address":"柳川"},
{"zip_code":"0383615","kana_pref":"ｱｵﾓﾘｹﾝ","kana_city":"ﾋﾛｻｷｼ","kana_address":"ｱｵﾅｺﾞ","pref":"青森県","city":"弘前市","address":"青女子"},
{"zip_code":"0383613","kana_pref":"ｱｵﾓﾘｹﾝ","kana_city":"ﾋﾛｻｷｼ","kana_address":"ｵﾄﾓ","pref":"青森県","city":"弘前市","address":"小友"},
{"zip_code":"0383612","kana_pref":"ｱｵﾓﾘｹﾝ","kana_city":"ﾋﾛｻｷｼ","kana_address":"ｻｻﾀﾞﾃ","pref":"青森県","city":"弘前市","address":"笹舘"},
{"zip_code":"0383614","kana_pref":"ｱｵﾓﾘｹﾝ","kana_city":"ﾋﾛｻｷｼ","kana_address":"ﾀﾈｲﾁ","pref":"青森県","city":"弘前市","address":"種市"},
{"zip_code":"0383874","kana_pref":"ｱｵﾓﾘｹﾝ","kana_city":"ﾋﾛｻｷｼ","kana_address":"ﾂｶﾉ","pref":"青森県","city":"弘前市","address":"津賀野"},
{"zip_code":"0383611","kana_pref":"ｱｵﾓﾘｹﾝ","kana_city":"ﾋﾛｻｷｼ","kana_address":"ﾐﾜ","pref":"青森県","city":"弘前市","address":"三和"},
{"zip_code":"0383821","kana_pref":"ｱｵﾓﾘｹﾝ","kana_city":"ﾋﾛｻｷｼ","kana_address":"ﾓﾓﾀ","pref":"青森県","city":"弘前市","address":"百田"},
{"zip_code":"0383100","kana_pref":"ｱｵﾓﾘｹﾝ","kana_city":"ﾂｶﾞﾙｼ","kana_address":"","pref":"青森県","city":"つがる市","address":""},
{"zip_code":"0383305","kana_pref":"ｱｵﾓﾘｹﾝ","kana_city":"ﾂｶﾞﾙｼ","kana_address":"ｳｼｶﾞﾀﾁｮｳ","pref":"青森県","city":"つがる市","address":"牛潟町"},
{"zip_code":"0383107","kana_pref":"ｱｵﾓﾘｹﾝ","kana_city":"ﾂｶﾞﾙｼ","kana_address":"ｶｼﾜｲｾ","pref":"青森県","city":"つがる市","address":"柏稲盛"},
{"zip_code":"0383103","kana_pref":"ｱｵﾓﾘｹﾝ","kana_city":"ﾂｶﾞﾙｼ","kana_address":"ｶｼﾜｶﾐｺｶﾞﾜ","pref":"青森県","city":"つがる市","address":"柏上古川"},
{"zip_code":"0383104","kana_pref":"ｱｵﾓﾘｹﾝ","kana_city":"ﾂｶﾞﾙｼ","kana_address":"ｶｼﾜｸﾜﾉｷﾀﾞ","pref":"青森県","city":"つがる市","address":"柏桑野木田"},
{"zip_code":"0383101","kana_pref":"ｱｵﾓﾘｹﾝ","kana_city":"ﾂｶﾞﾙｼ","kana_address":"ｶｼﾜｻｷﾞｻｶ","pref":"青森県","city":"つがる市","address":"柏鷺坂"},
{"zip_code":"0383102","kana_pref":"ｱｵﾓﾘｹﾝ","kana_city":"ﾂｶﾞﾙｼ","kana_address":"ｶｼﾜｼﾓｺｶﾞﾜ","pref":"青森県","city":"つがる市","address":"柏下古川"},
{"zip_code":"0383106","kana_pref":"ｱｵﾓﾘｹﾝ","kana_city":"ﾂｶﾞﾙｼ","kana_address":"ｶｼﾜﾀﾏﾐｽﾞ","pref":"青森県","city":"つがる市","address":"柏玉水"},
{"zip_code":"0383105","kana_pref":"ｱｵﾓﾘｹﾝ","kana_city":"ﾂｶﾞﾙｼ","kana_address":"ｶｼﾜﾋﾛｽ","pref":"青森県","city":"つがる市","address":"柏広須"},
{"zip_code":"0383142","kana_pref":"ｱｵﾓﾘｹﾝ","kana_city":"ﾂｶﾞﾙｼ","kana_address":"ｷﾂﾞｸﾘｱｶﾈ","pref":"青森県","city":"つがる市","address":"木造赤根"},
{"zip_code":"0383144","kana_pref":"ｱｵﾓﾘｹﾝ","kana_city":"ﾂｶﾞﾙｼ","kana_address":"ｷﾂﾞｸﾘｱｹﾎﾞﾉ","pref":"青森県","city":"つがる市","address":"木造曙"},
{"zip_code":"0383124","kana_pref":"ｱｵﾓﾘｹﾝ","kana_city":"ﾂｶﾞﾙｼ","kana_address":"ｷﾂﾞｸﾘｱｻﾋ","pref":"青森県","city":"つがる市","address":"木造朝日"},
{"zip_code":"0383113","kana_pref":"ｱｵﾓﾘｹﾝ","kana_city":"ﾂｶﾞﾙｼ","kana_address":"ｷﾂﾞｸﾘｱｼﾇﾏ","pref":"青森県","city":"つがる市","address":"木造芦沼"},
{"zip_code":"0383273","kana_pref":"ｱｵﾓﾘｹﾝ","kana_city":"ﾂｶﾞﾙｼ","kana_address":"ｷﾂﾞｸﾘｲﾃﾞﾉｻﾄ","pref":"青森県","city":"つがる市","address":"木造出野里"},
{"zip_code":"0383141","kana_pref":"ｱｵﾓﾘｹﾝ","kana_city":"ﾂｶﾞﾙｼ","kana_address":"ｷﾂﾞｸﾘｳｷｽ","pref":"青森県","city":"つがる市","address":"木造浮巣"},
{"zip_code":"0383135","kana_pref":"ｱｵﾓﾘｹﾝ","kana_city":"ﾂｶﾞﾙｼ","kana_address":"ｷﾂﾞｸﾘｳﾗｸﾏﾁ","pref":"青森県","city":"つがる市","address":"木造有楽町"},
{"zip_code":"0383162","kana_pref":"ｱｵﾓﾘｹﾝ","kana_city":"ﾂｶﾞﾙｼ","kana_address":"ｷﾂﾞｸﾘｳﾗﾌﾈ","pref":"青森県","city":"つがる市","address":"木造浦船"},
{"zip_code":"0383122","kana_pref":"ｱｵﾓﾘｹﾝ","kana_city":"ﾂｶﾞﾙｼ","kana_address":"ｷﾂﾞｸﾘｵｲﾋﾛ","pref":"青森県","city":"つがる市","address":"木造追広"},
{"zip_code":"0383277","kana_pref":"ｱｵﾓﾘｹﾝ","kana_city":"ﾂｶﾞﾙｼ","kana_address":"ｷﾂﾞｸﾘｵｵﾊﾞﾀ","pref":"青森県","city":"つがる市","address":"木造大畑"},
{"zip_code":"0383285","kana_pref":"ｱｵﾓﾘｹﾝ","kana_city":"ﾂｶﾞﾙｼ","kana_address":"ｷﾂﾞｸﾘｵｵﾕﾏﾁ","pref":"青森県","city":"つがる市","address":"木造大湯町"},
{"zip_code":"0383272","kana_pref":"ｱｵﾓﾘｹﾝ","kana_city":"ﾂｶﾞﾙｼ","kana_address":"ｷﾂﾞｸﾘｶﾈﾀﾞﾃ","pref":"青森県","city":"つがる市","address":"木造兼館"},
{"zip_code":"0383284","kana_pref":"ｱｵﾓﾘｹﾝ","kana_city":"ﾂｶﾞﾙｼ","kana_address":"ｷﾂﾞｸﾘｶﾒｶﾞｵｶ","pref":"青森県","city":"つがる市","address":"木造亀ケ岡"},
{"zip_code":"0383112","kana_pref":"ｱｵﾓﾘｹﾝ","kana_city":"ﾂｶﾞﾙｼ","kana_address":"ｷﾂﾞｸﾘｶﾜﾖｹ","pref":"青森県","city":"つがる市","address":"木造川除"},
{"zip_code":"0383165","kana_pref":"ｱｵﾓﾘｹﾝ","kana_city":"ﾂｶﾞﾙｼ","kana_address":"ｷﾂﾞｸﾘｷｸｶﾜ","pref":"青森県","city":"つがる市","address":"木造菊川"},
{"zip_code":"0382806","kana_pref":"ｱｵﾓﾘｹﾝ","kana_city":"ﾂｶﾞﾙｼ","kana_address":"ｷﾂﾞｸﾘｺｼﾐｽﾞ","pref":"青森県","city":"つがる市","address":"木造越水"},
{"zip_code":"0382807","kana_pref":"ｱｵﾓﾘｹﾝ","kana_city":"ﾂｶﾞﾙｼ","kana_address":"ｷﾂﾞｸﾘｺﾏﾀﾞ","pref":"青森県","city":"つがる市","address":"木造駒田"},
{"zip_code":"0383286","kana_pref":"ｱｵﾓﾘｹﾝ","kana_city":"ﾂｶﾞﾙｼ","kana_address":"ｷﾂﾞｸﾘｺﾓﾂﾁ","pref":"青森県","city":"つがる市","address":"木造菰槌"},
{"zip_code":"0383159","kana_pref":"ｱｵﾓﾘｹﾝ","kana_city":"ﾂｶﾞﾙｼ","kana_address":"ｷﾂﾞｸﾘｻｸﾗｶﾞﾜ","pref":"青森県","city":"つがる市","address":"木造桜川"},
{"zip_code":"0383146","kana_pref":"ｱｵﾓﾘｹﾝ","kana_city":"ﾂｶﾞﾙｼ","kana_address":"ｷﾂﾞｸﾘｻｸﾗｷﾞ","pref":"青森県","city":"つがる市","address":"木造桜木"},
{"zip_code":"0383164","kana_pref":"ｱｵﾓﾘｹﾝ","kana_city":"ﾂｶﾞﾙｼ","kana_address":"ｷﾂﾞｸﾘｼﾊﾞﾀ","pref":"青森県","city":"つがる市","address":"木造柴田"},
{"zip_code":"0383132","kana_pref":"ｱｵﾓﾘｹﾝ","kana_city":"ﾂｶﾞﾙｼ","kana_address":"ｷﾂﾞｸﾘｼﾐｽﾞ","pref":"青森県","city":"つがる市","address":"木造清水"},
{"zip_code":"0383287","kana_pref":"ｱｵﾓﾘｹﾝ","kana_city":"ﾂｶﾞﾙｼ","kana_address":"ｷﾂﾞｸﾘｼﾓﾄｵﾔﾏｻﾄ","pref":"青森県","city":"つがる市","address":"木造下遠山里"},
{"zip_code":"0382803","kana_pref":"ｱｵﾓﾘｹﾝ","kana_city":"ﾂｶﾞﾙｼ","kana_address":"ｷﾂﾞｸﾘｼﾓﾌｸﾊﾗ","pref":"青森県","city":"つがる市","address":"木造下福原"},
{"zip_code":"0383133","kana_pref":"ｱｵﾓﾘｹﾝ","kana_city":"ﾂｶﾞﾙｼ","kana_address":"ｷﾂﾞｸﾘｽｴﾋﾛ","pref":"青森県","city":"つがる市","address":"木造末広"},
{"zip_code":"0383283","kana_pref":"ｱｵﾓﾘｹﾝ","kana_city":"ﾂｶﾞﾙｼ","kana_address":"ｷﾂﾞｸﾘﾀﾃｵｶ","pref":"青森県","city":"つがる市","address":"木造館岡"},
{"zip_code":"0383134","kana_pref":"ｱｵﾓﾘｹﾝ","kana_city":"ﾂｶﾞﾙｼ","kana_address":"ｷﾂﾞｸﾘﾀﾈﾄﾘ","pref":"青森県","city":"つがる市","address":"木造種取"},
{"zip_code":"0383131","kana_pref":"ｱｵﾓﾘｹﾝ","kana_city":"ﾂｶﾞﾙｼ","kana_address":"ｷﾂﾞｸﾘﾁﾄｾ","pref":"青森県","city":"つがる市","address":"木造千年"},
{"zip_code":"0383167","kana_pref":"ｱｵﾓﾘｹﾝ","kana_city":"ﾂｶﾞﾙｼ","kana_address":"ｷﾂﾞｸﾘﾁﾖﾀﾞ","pref":"青森県","city":"つがる市","address":"木造千代田"},
{"zip_code":"0383145","kana_pref":"ｱｵﾓﾘｹﾝ","kana_city":"ﾂｶﾞﾙｼ","kana_address":"ｷﾂﾞｸﾘﾁﾖﾏﾁ","pref":"青森県","city":"つがる市","address":"木造千代町"},
{"zip_code":"0383278","kana_pref":"ｱｵﾓﾘｹﾝ","kana_city":"ﾂｶﾞﾙｼ","kana_address":"ｷﾂﾞｸﾘﾂﾁﾀｷ","pref":"青森県","city":"つがる市","address":"木造土滝"},
{"zip_code":"0383125","kana_pref":"ｱｵﾓﾘｹﾝ","kana_city":"ﾂｶﾞﾙｼ","kana_address":"ｷﾂﾞｸﾘﾂﾙﾄﾞﾏﾘ","pref":"青森県","city":"つがる市","address":"木造鶴泊"},
{"zip_code":"0383288","kana_pref":"ｱｵﾓﾘｹﾝ","kana_city":"ﾂｶﾞﾙｼ","kana_address":"ｷﾂﾞｸﾘﾃﾞｷｼﾏ","pref":"青森県","city":"つがる市","address":"木造出来島"},
{"zip_code":"0383154","kana_pref":"ｱｵﾓﾘｹﾝ","kana_city":"ﾂｶﾞﾙｼ","kana_address":"ｷﾂﾞｸﾘﾃﾙﾋ","pref":"青森県","city":"つがる市","address":"木造照日"},
{"zip_code":"0383282","kana_pref":"ｱｵﾓﾘｹﾝ","kana_city":"ﾂｶﾞﾙｼ","kana_address":"ｷﾂﾞｸﾘﾄﾞｳｷｻﾞｶ","pref":"青森県","city":"つがる市","address":"木造筒木坂"},
{"zip_code":"0383111","kana_pref":"ｱｵﾓﾘｹﾝ","kana_city":"ﾂｶﾞﾙｼ","kana_address":"ｷﾂﾞｸﾘﾄﾖﾀﾞ","pref":"青森県","city":"つがる市","address":"木造豊田"},
{"zip_code":"0383275","kana_pref":"ｱｵﾓﾘｹﾝ","kana_city":"ﾂｶﾞﾙｼ","kana_address":"ｷﾂﾞｸﾘﾅｶﾞﾀ","pref":"青森県","city":"つがる市","address":"木造永田"},
{"zip_code":"0383163","kana_pref":"ｱｵﾓﾘｹﾝ","kana_city":"ﾂｶﾞﾙｼ","kana_address":"ｷﾂﾞｸﾘﾅｶﾀﾞﾃ","pref":"青森県","city":"つがる市","address":"木造中館"},
{"zip_code":"0383114","kana_pref":"ｱｵﾓﾘｹﾝ","kana_city":"ﾂｶﾞﾙｼ","kana_address":"ｷﾂﾞｸﾘﾅﾘﾀ","pref":"青森県","city":"つがる市","address":"木造成田"},
{"zip_code":"0383161","kana_pref":"ｱｵﾓﾘｹﾝ","kana_city":"ﾂｶﾞﾙｼ","kana_address":"ｷﾂﾞｸﾘﾆｺﾞﾘｶﾞﾜ","pref":"青森県","city":"つがる市","address":"木造濁川"},
{"zip_code":"0383153","kana_pref":"ｱｵﾓﾘｹﾝ","kana_city":"ﾂｶﾞﾙｼ","kana_address":"ｷﾂﾞｸﾘﾉﾐﾔ","pref":"青森県","city":"つがる市","address":"木造野宮"},
{"zip_code":"0383139","kana_pref":"ｱｵﾓﾘｹﾝ","kana_city":"ﾂｶﾞﾙｼ","kana_address":"ｷﾂﾞｸﾘﾊｷﾞﾅｶﾞﾚ","pref":"青森県","city":"つがる市","address":"木造萩流"},
{"zip_code":"0383136","kana_pref":"ｱｵﾓﾘｹﾝ","kana_city":"ﾂｶﾞﾙｼ","kana_address":"ｷﾂﾞｸﾘﾊｷﾞﾉ","pref":"青森県","city":"つがる市","address":"木造萩野"},
{"zip_code":"0383115","kana_pref":"ｱｵﾓﾘｹﾝ","kana_city":"ﾂｶﾞﾙｼ","kana_address":"ｷﾂﾞｸﾘﾊｽｶﾜ","pref":"青森県","city":"つがる市","address":"木造蓮川"},
{"zip_code":"0383276","kana_pref":"ｱｵﾓﾘｹﾝ","kana_city":"ﾂｶﾞﾙｼ","kana_address":"ｷﾂﾞｸﾘﾊﾔｼ","pref":"青森県","city":"つがる市","address":"木造林"},
{"zip_code":"0383121","kana_pref":"ｱｵﾓﾘｹﾝ","kana_city":"ﾂｶﾞﾙｼ","kana_address":"ｷﾂﾞｸﾘﾊﾔﾀ","pref":"青森県","city":"つがる市","address":"木造早田"},
{"zip_code":"0383143","kana_pref":"ｱｵﾓﾘｹﾝ","kana_city":"ﾂｶﾞﾙｼ","kana_address":"ｷﾂﾞｸﾘﾋﾅﾀ","pref":"青森県","city":"つがる市","address":"木造日向"},
{"zip_code":"0383281","kana_pref":"ｱｵﾓﾘｹﾝ","kana_city":"ﾂｶﾞﾙｼ","kana_address":"ｷﾂﾞｸﾘﾋﾗﾀｷ","pref":"青森県","city":"つがる市","address":"木造平滝"},
{"zip_code":"0382805","kana_pref":"ｱｵﾓﾘｹﾝ","kana_city":"ﾂｶﾞﾙｼ","kana_address":"ｷﾂﾞｸﾘﾋﾛｵｶ","pref":"青森県","city":"つがる市","address":"木造広岡"},
{"zip_code":"0382808","kana_pref":"ｱｵﾓﾘｹﾝ","kana_city":"ﾂｶﾞﾙｼ","kana_address":"ｷﾂﾞｸﾘﾌｷﾊﾗ","pref":"青森県","city":"つがる市","address":"木造吹原"},
{"zip_code":"0383166","kana_pref":"ｱｵﾓﾘｹﾝ","kana_city":"ﾂｶﾞﾙｼ","kana_address":"ｷﾂﾞｸﾘﾌｸﾊﾗ","pref":"青森県","city":"つがる市","address":"木造福原"},
{"zip_code":"0383158","kana_pref":"ｱｵﾓﾘｹﾝ","kana_city":"ﾂｶﾞﾙｼ","kana_address":"ｷﾂﾞｸﾘﾌｻﾏﾂ","pref":"青森県","city":"つがる市","address":"木造房松"},
{"zip_code":"0383152","kana_pref":"ｱｵﾓﾘｹﾝ","kana_city":"ﾂｶﾞﾙｼ","kana_address":"ｷﾂﾞｸﾘﾌｼﾞｵｶ","pref":"青森県","city":"つがる市","address":"木造藤岡"},
{"zip_code":"0383123","kana_pref":"ｱｵﾓﾘｹﾝ","kana_city":"ﾂｶﾞﾙｼ","kana_address":"ｷﾂﾞｸﾘﾌｼﾞﾀ","pref":"青森県","city":"つがる市","address":"木造藤田"},
{"zip_code":"0383155","kana_pref":"ｱｵﾓﾘｹﾝ","kana_city":"ﾂｶﾞﾙｼ","kana_address":"ｷﾂﾞｸﾘﾏｽﾀ","pref":"青森県","city":"つがる市","address":"木造増田"},
{"zip_code":"0382801","kana_pref":"ｱｵﾓﾘｹﾝ","kana_city":"ﾂｶﾞﾙｼ","kana_address":"ｷﾂﾞｸﾘﾏﾙﾔﾏ","pref":"青森県","city":"つがる市","address":"木造丸山"},
{"zip_code":"0382804","kana_pref":"ｱｵﾓﾘｹﾝ","kana_city":"ﾂｶﾞﾙｼ","kana_address":"ｷﾂﾞｸﾘﾐﾂﾀﾃ","pref":"青森県","city":"つがる市","address":"木造三ツ館"},
{"zip_code":"0383156","kana_pref":"ｱｵﾓﾘｹﾝ","kana_city":"ﾂｶﾞﾙｼ","kana_address":"ｷﾂﾞｸﾘﾐﾔｲ","pref":"青森県","city":"つがる市","address":"木造宮井"},
{"zip_code":"0383157","kana_pref":"ｱｵﾓﾘｹﾝ","kana_city":"ﾂｶﾞﾙｼ","kana_address":"ｷﾂﾞｸﾘﾐﾔｻﾞｷ","pref":"青森県","city":"つがる市","address":"木造宮崎"},
{"zip_code":"0383126","kana_pref":"ｱｵﾓﾘｹﾝ","kana_city":"ﾂｶﾞﾙｼ","kana_address":"ｷﾂﾞｸﾘﾓﾘｳﾁ","pref":"青森県","city":"つがる市","address":"木造森内"},
{"zip_code":"0383128","kana_pref":"ｱｵﾓﾘｹﾝ","kana_city":"ﾂｶﾞﾙｼ","kana_address":"ｷﾂﾞｸﾘﾓﾘﾓﾄ","pref":"青森県","city":"つがる市","address":"木造森本"},
{"zip_code":"0383127","kana_pref":"ｱｵﾓﾘｹﾝ","kana_city":"ﾂｶﾞﾙｼ","kana_address":"ｷﾂﾞｸﾘﾓﾘﾔﾏ","pref":"青森県","city":"つがる市","address":"木造森山"},
{"zip_code":"0383271","kana_pref":"ｱｵﾓﾘｹﾝ","kana_city":"ﾂｶﾞﾙｼ","kana_address":"ｷﾂﾞｸﾘﾖｼﾂﾞﾐ","pref":"青森県","city":"つがる市","address":"木造善積"},
{"zip_code":"0383274","kana_pref":"ｱｵﾓﾘｹﾝ","kana_city":"ﾂｶﾞﾙｼ","kana_address":"ｷﾂﾞｸﾘﾚﾝｹﾞﾀ","pref":"青森県","city":"つがる市","address":"木造蓮花田"},
{"zip_code":"0383151","kana_pref":"ｱｵﾓﾘｹﾝ","kana_city":"ﾂｶﾞﾙｼ","kana_address":"ｷﾂﾞｸﾘﾜｶﾀｹ","pref":"青森県","city":"つがる市","address":"木造若竹"},
{"zip_code":"0383138","kana_pref":"ｱｵﾓﾘｹﾝ","kana_city":"ﾂｶﾞﾙｼ","kana_address":"ｷﾂﾞｸﾘﾜｶﾐﾄﾞﾘ","pref":"青森県","city":"つがる市","address":"木造若緑"},
{"zip_code":"0383137","kana_pref":"ｱｵﾓﾘｹﾝ","kana_city":"ﾂｶﾞﾙｼ","kana_address":"ｷﾂﾞｸﾘﾜｶﾐﾔ","pref":"青森県","city":"つがる市","address":"木造若宮"},
{"zip_code":"0383304","kana_pref":"ｱｵﾓﾘｹﾝ","kana_city":"ﾂｶﾞﾙｼ","kana_address":"ｼﾀｼｬﾘｷﾁｮｳ","pref":"青森県","city":"つがる市","address":"下車力町"},
{"zip_code":"0383306","kana_pref":"ｱｵﾓﾘｹﾝ","kana_city":"ﾂｶﾞﾙｼ","kana_address":"ｼﾓｳｼｶﾞﾀﾁｮｳ","pref":"青森県","city":"つがる市","address":"下牛潟町"},
{"zip_code":"0383303","kana_pref":"ｱｵﾓﾘｹﾝ","kana_city":"ﾂｶﾞﾙｼ","kana_address":"ｼｬﾘｷﾁｮｳ","pref":"青森県","city":"つがる市","address":"車力町"},
{"zip_code":"0383301","kana_pref":"ｱｵﾓﾘｹﾝ","kana_city":"ﾂｶﾞﾙｼ","kana_address":"ﾄﾐﾔﾁﾁｮｳ","pref":"青森県","city":"つがる市","address":"富萢町"},
{"zip_code":"0383302","kana_pref":"ｱｵﾓﾘｹﾝ","kana_city":"ﾂｶﾞﾙｼ","kana_address":"ﾄﾖﾄﾐﾁｮｳ","pref":"青森県","city":"つがる市","address":"豊富町"},
{"zip_code":"0382818","kana_pref":"ｱｵﾓﾘｹﾝ","kana_city":"ﾂｶﾞﾙｼ","kana_address":"ﾓﾘﾀﾁｮｳｵｵﾀﾞﾃ","pref":"青森県","city":"つがる市","address":"森田町大館"},
{"zip_code":"0382811","kana_pref":"ｱｵﾓﾘｹﾝ","kana_city":"ﾂｶﾞﾙｼ","kana_address":"ﾓﾘﾀﾁｮｳｶﾐｱｲﾉ","pref":"青森県","city":"つがる市","address":"森田町上相野"},
{"zip_code":"0382812","kana_pref":"ｱｵﾓﾘｹﾝ","kana_city":"ﾂｶﾞﾙｼ","kana_address":"ﾓﾘﾀﾁｮｳｼﾓｱｲﾉ","pref":"青森県","city":"つがる市","address":"森田町下相野"},
{"zip_code":"0382817","kana_pref":"ｱｵﾓﾘｹﾝ","kana_city":"ﾂｶﾞﾙｼ","kana_address":"ﾓﾘﾀﾁｮｳﾄｺﾏｲ","pref":"青森県","city":"つがる市","address":"森田町床舞"},
{"zip_code":"0382814","kana_pref":"ｱｵﾓﾘｹﾝ","kana_city":"ﾂｶﾞﾙｼ","kana_address":"ﾓﾘﾀﾁｮｳﾅｶﾀ","pref":"青森県","city":"つがる市","address":"森田町中田"},
{"zip_code":"0382813","kana_pref":"ｱｵﾓﾘｹﾝ","kana_city":"ﾂｶﾞﾙｼ","kana_address":"ﾓﾘﾀﾁｮｳﾐｮｳﾄﾞｳｻﾞｷ","pref":"青森県","city":"つがる市","address":"森田町妙堂崎"},
{"zip_code":"0382816","kana_pref":"ｱｵﾓﾘｹﾝ","kana_city":"ﾂｶﾞﾙｼ","kana_address":"ﾓﾘﾀﾁｮｳﾓﾘﾀ","pref":"青森県","city":"つがる市","address":"森田町森田"},
{"zip_code":"0382815","kana_pref":"ｱｵﾓﾘｹﾝ","kana_city":"ﾂｶﾞﾙｼ","kana_address":"ﾓﾘﾀﾁｮｳﾔﾏﾀﾞ","pref":"青森県","city":"つがる市","address":"森田町山田"},
{"zip_code":"0380101","kana_pref":"ｱｵﾓﾘｹﾝ","kana_city":"ﾋﾗｶﾜｼ","kana_address":"ｲｶﾘｶﾞｾｷ","pref":"青森県","city":"平川市","address":"碇ケ関"},
{"zip_code":"0380101","kana_pref":"ｱｵﾓﾘｹﾝ","kana_city":"ﾋﾗｶﾜｼ","kana_address":"ｲｶﾘｶﾞｾｷｱｲｻﾞﾜ","pref":"青森県","city":"平川市","address":"碇ケ関相沢"},
{"zip_code":"0380101","kana_pref":"ｱｵﾓﾘｹﾝ","kana_city":"ﾋﾗｶﾜｼ","kana_address":"ｲｶﾘｶﾞｾｷｱﾊﾞﾗ","pref":"青森県","city":"平川市","address":"碇ケ関阿原"},
{"zip_code":"0380101","kana_pref":"ｱｵﾓﾘｹﾝ","kana_city":"ﾋﾗｶﾜｼ","kana_address":"ｲｶﾘｶﾞｾｷｲｶｽﾞﾁﾊﾞﾔｼ","pref":"青森県","city":"平川市","address":"碇ケ関雷林"},
{"zip_code":"0380101","kana_pref":"ｱｵﾓﾘｹﾝ","kana_city":"ﾋﾗｶﾜｼ","kana_address":"ｲｶﾘｶﾞｾｷｲｶﾘｲｼ","pref":"青森県","city":"平川市","address":"碇ケ関碇石"},
{"zip_code":"0380101","kana_pref":"ｱｵﾓﾘｹﾝ","kana_city":"ﾋﾗｶﾜｼ","kana_address":"ｲｶﾘｶﾞｾｷｲﾜｲ","pref":"青森県","city":"平川市","address":"碇ケ関岩井"},
{"zip_code":"0380101","kana_pref":"ｱｵﾓﾘｹﾝ","kana_city":"ﾋﾗｶﾜｼ","kana_address":"ｲｶﾘｶﾞｾｷｵｵﾊﾞﾀﾞｲﾗ","pref":"青森県","city":"平川市","address":"碇ケ関大葉平"},
{"zip_code":"0380101","kana_pref":"ｱｵﾓﾘｹﾝ","kana_city":"ﾋﾗｶﾜｼ","kana_address":"ｲｶﾘｶﾞｾｷｵｵﾗｸﾏｴ","pref":"青森県","city":"平川市","address":"碇ケ関大落前"},
{"zip_code":"0380101","kana_pref":"ｱｵﾓﾘｹﾝ","kana_city":"ﾋﾗｶﾜｼ","kana_address":"ｲｶﾘｶﾞｾｷｵﾘﾊｼ","pref":"青森県","city":"平川市","address":"碇ケ関折橋"},
{"zip_code":"0380101","kana_pref":"ｱｵﾓﾘｹﾝ","kana_city":"ﾋﾗｶﾜｼ","kana_address":"ｲｶﾘｶﾞｾｷｸｼﾞﾗﾓﾘ","pref":"青森県","city":"平川市","address":"碇ケ関鯨森"},
{"zip_code":"0380101","kana_pref":"ｱｵﾓﾘｹﾝ","kana_city":"ﾋﾗｶﾜｼ","kana_address":"ｲｶﾘｶﾞｾｷｺﾗｸﾏｴ","pref":"青森県","city":"平川市","address":"碇ケ関小落前"},
{"zip_code":"0380101","kana_pref":"ｱｵﾓﾘｹﾝ","kana_city":"ﾋﾗｶﾜｼ","kana_address":"ｲｶﾘｶﾞｾｷｻﾝｼﾞﾝﾄﾞｳ","pref":"青森県","city":"平川市","address":"碇ケ関山神堂"},
{"zip_code":"0380101","kana_pref":"ｱｵﾓﾘｹﾝ","kana_city":"ﾋﾗｶﾜｼ","kana_address":"ｲｶﾘｶﾞｾｷｼﾗｻﾜ","pref":"青森県","city":"平川市","address":"碇ケ関白沢"},
{"zip_code":"0380101","kana_pref":"ｱｵﾓﾘｹﾝ","kana_city":"ﾋﾗｶﾜｼ","kana_address":"ｲｶﾘｶﾞｾｷｽﾜﾀﾞｲﾗ","pref":"青森県","city":"平川市","address":"碇ケ関諏訪平"},
{"zip_code":"0380101","kana_pref":"ｱｵﾓﾘｹﾝ","kana_city":"ﾋﾗｶﾜｼ","kana_address":"ｲｶﾘｶﾞｾｷｿﾄｼﾗｻﾜ","pref":"青森県","city":"平川市","address":"碇ケ関外白沢"},
{"zip_code":"0380101","kana_pref":"ｱｵﾓﾘｹﾝ","kana_city":"ﾋﾗｶﾜｼ","kana_address":"ｲｶﾘｶﾞｾｷﾀｶﾀﾞ","pref":"青森県","city":"平川市","address":"碇ケ関高田"},
{"zip_code":"0380101","kana_pref":"ｱｵﾓﾘｹﾝ","kana_city":"ﾋﾗｶﾜｼ","kana_address":"ｲｶﾘｶﾞｾｷﾄｲｶﾞｻﾜ","pref":"青森県","city":"平川市","address":"碇ケ関樋ケ沢"},
{"zip_code":"0380101","kana_pref":"ｱｵﾓﾘｹﾝ","kana_city":"ﾋﾗｶﾜｼ","kana_address":"ｲｶﾘｶﾞｾｷﾆｼｲｶﾘｶﾞｾｷﾔﾏ","pref":"青森県","city":"平川市","address":"碇ケ関西碇ケ関山"},
{"zip_code":"0380101","kana_pref":"ｱｵﾓﾘｹﾝ","kana_city":"ﾋﾗｶﾜｼ","kana_address":"ｲｶﾘｶﾞｾｷﾋｶﾞｼｲｶﾘｶﾞｾｷﾔﾏ","pref":"青森県","city":"平川市","address":"碇ケ関東碇ケ関山"},
{"zip_code":"0380101","kana_pref":"ｱｵﾓﾘｹﾝ","kana_city":"ﾋﾗｶﾜｼ","kana_address":"ｲｶﾘｶﾞｾｷﾋﾉｸﾁ","pref":"青森県","city":"平川市","address":"碇ケ関樋ノ口"},
{"zip_code":"0380101","kana_pref":"ｱｵﾓﾘｹﾝ","kana_city":"ﾋﾗｶﾜｼ","kana_address":"ｲｶﾘｶﾞｾｷﾌﾅｵｶ","pref":"青森県","city":"平川市","address":"碇ケ関船岡"},
{"zip_code":"0380101","kana_pref":"ｱｵﾓﾘｹﾝ","kana_city":"ﾋﾗｶﾜｼ","kana_address":"ｲｶﾘｶﾞｾｷﾌﾐﾀｷﾞﾘ","pref":"青森県","city":"平川市","address":"碇ケ関踏田切"},
{"zip_code":"0380101","kana_pref":"ｱｵﾓﾘｹﾝ","kana_city":"ﾋﾗｶﾜｼ","kana_address":"ｲｶﾘｶﾞｾｷﾐｶｻﾔﾏ","pref":"青森県","city":"平川市","address":"碇ケ関三笠山"},
{"zip_code":"0380101","kana_pref":"ｱｵﾓﾘｹﾝ","kana_city":"ﾋﾗｶﾜｼ","kana_address":"ｲｶﾘｶﾞｾｷﾐｽﾞﾀﾒ","pref":"青森県","city":"平川市","address":"碇ケ関水溜"},
{"zip_code":"0380101","kana_pref":"ｱｵﾓﾘｹﾝ","kana_city":"ﾋﾗｶﾜｼ","kana_address":"ｲｶﾘｶﾞｾｷﾕﾑｶｲｶﾜｿﾞｴ","pref":"青森県","city":"平川市","address":"碇ケ関湯向川添"},
{"zip_code":"0380101","kana_pref":"ｱｵﾓﾘｹﾝ","kana_city":"ﾋﾗｶﾜｼ","kana_address":"ｲｶﾘｶﾞｾｷﾖｺﾏﾁ","pref":"青森県","city":"平川市","address":"碇ケ関横町"},
{"zip_code":"0380102","kana_pref":"ｱｵﾓﾘｹﾝ","kana_city":"ﾋﾗｶﾜｼ","kana_address":"ｲｶﾘｶﾞｾｷｺｶﾞｹｶﾐﾎﾄﾞﾓﾘ","pref":"青森県","city":"平川市","address":"碇ケ関古懸上程森"},
{"zip_code":"0380102","kana_pref":"ｱｵﾓﾘｹﾝ","kana_city":"ﾋﾗｶﾜｼ","kana_address":"ｲｶﾘｶﾞｾｷｺｶﾞｹｻﾜﾀﾞ","pref":"青森県","city":"平川市","address":"碇ケ関古懸沢田"},
{"zip_code":"0380102","kana_pref":"ｱｵﾓﾘｹﾝ","kana_city":"ﾋﾗｶﾜｼ","kana_address":"ｲｶﾘｶﾞｾｷｺｶﾞｹﾄｲｶﾞｻﾜ","pref":"青森県","city":"平川市","address":"碇ケ関古懸樋ケ沢"},
{"zip_code":"0380102","kana_pref":"ｱｵﾓﾘｹﾝ","kana_city":"ﾋﾗｶﾜｼ","kana_address":"ｲｶﾘｶﾞｾｷｺｶﾞｹﾄﾞｳﾉｳｴ","pref":"青森県","city":"平川市","address":"碇ケ関古懸堂ノ上"},
{"zip_code":"0380102","kana_pref":"ｱｵﾓﾘｹﾝ","kana_city":"ﾋﾗｶﾜｼ","kana_address":"ｲｶﾘｶﾞｾｷｺｶﾞｹﾄﾘｲ","pref":"青森県","city":"平川市","address":"碇ケ関古懸鳥井"},
{"zip_code":"0380102","kana_pref":"ｱｵﾓﾘｹﾝ","kana_city":"ﾋﾗｶﾜｼ","kana_address":"ｲｶﾘｶﾞｾｷｺｶﾞｹﾆｼﾌﾄﾞｳﾉ","pref":"青森県","city":"平川市","address":"碇ケ関古懸西不動野"},
{"zip_code":"0380102","kana_pref":"ｱｵﾓﾘｹﾝ","kana_city":"ﾋﾗｶﾜｼ","kana_address":"ｲｶﾘｶﾞｾｷｺｶﾞｹﾋｶﾞｼﾌﾄﾞｳﾉ","pref":"青森県","city":"平川市","address":"碇ケ関古懸東不動野"},
{"zip_code":"0380102","kana_pref":"ｱｵﾓﾘｹﾝ","kana_city":"ﾋﾗｶﾜｼ","kana_address":"ｲｶﾘｶﾞｾｷｺｶﾞｹﾌﾄﾞｳｻﾜｵｵｲｼ","pref":"青森県","city":"平川市","address":"碇ケ関古懸不動沢大石"},
{"zip_code":"0380102","kana_pref":"ｱｵﾓﾘｹﾝ","kana_city":"ﾋﾗｶﾜｼ","kana_address":"ｲｶﾘｶﾞｾｷｺｶﾞｹﾌﾄﾞｳﾉ","pref":"青森県","city":"平川市","address":"碇ケ関古懸不動野"},
{"zip_code":"0380102","kana_pref":"ｱｵﾓﾘｹﾝ","kana_city":"ﾋﾗｶﾜｼ","kana_address":"ｲｶﾘｶﾞｾｷｺｶﾞｹﾐﾅﾐﾌﾄﾞｳﾉ","pref":"青森県","city":"平川市","address":"碇ケ関古懸南不動野"},
{"zip_code":"0380102","kana_pref":"ｱｵﾓﾘｹﾝ","kana_city":"ﾋﾗｶﾜｼ","kana_address":"ｲｶﾘｶﾞｾｷｺｶﾞｹﾑｶｲﾔｽﾀﾞ","pref":"青森県","city":"平川市","address":"碇ケ関古懸向安田"},
{"zip_code":"0380102","kana_pref":"ｱｵﾓﾘｹﾝ","kana_city":"ﾋﾗｶﾜｼ","kana_address":"ｲｶﾘｶﾞｾｷｺｶﾞｹﾓﾝｾﾞﾝ","pref":"青森県","city":"平川市","address":"碇ケ関古懸門前"},
{"zip_code":"0380102","kana_pref":"ｱｵﾓﾘｹﾝ","kana_city":"ﾋﾗｶﾜｼ","kana_address":"ｲｶﾘｶﾞｾｷｺｶﾞｹﾓﾝｾﾞﾝﾔｷﾞｼ","pref":"青森県","city":"平川市","address":"碇ケ関古懸門前屋岸"},
{"zip_code":"0380102","kana_pref":"ｱｵﾓﾘｹﾝ","kana_city":"ﾋﾗｶﾜｼ","kana_address":"ｲｶﾘｶﾞｾｷｺｶﾞｹﾔｽﾀ","pref":"青森県","city":"平川市","address":"碇ケ関古懸安田"},
{"zip_code":"0380103","kana_pref":"ｱｵﾓﾘｹﾝ","kana_city":"ﾋﾗｶﾜｼ","kana_address":"ｲｶﾘｶﾞｾｷﾋｻﾖｼｲﾓｶﾞﾀｲﾗ","pref":"青森県","city":"平川市","address":"碇ケ関久吉蕷ケ平"},
{"zip_code":"0380103","kana_pref":"ｱｵﾓﾘｹﾝ","kana_city":"ﾋﾗｶﾜｼ","kana_address":"ｲｶﾘｶﾞｾｷﾋｻﾖｼﾆﾉﾜﾀﾘ","pref":"青森県","city":"平川市","address":"碇ケ関久吉二ノ渡"},
{"zip_code":"0380103","kana_pref":"ｱｵﾓﾘｹﾝ","kana_city":"ﾋﾗｶﾜｼ","kana_address":"ｲｶﾘｶﾞｾｷﾋｻﾖｼﾔﾏｷﾞｼ","pref":"青森県","city":"平川市","address":"碇ケ関久吉山岸"},
{"zip_code":"0382700","kana_pref":"ｱｵﾓﾘｹﾝ","kana_city":"ﾆｼﾂｶﾞﾙｸﾞﾝｱｼﾞｶﾞｻﾜﾏﾁ","kana_address":"","pref":"青森県","city":"西津軽郡鰺ヶ沢町","address":""},
{"zip_code":"0382731","kana_pref":"ｱｵﾓﾘｹﾝ","kana_city":"ﾆｼﾂｶﾞﾙｸﾞﾝｱｼﾞｶﾞｻﾜﾏﾁ","kana_address":"ｱｶｲｼﾏﾁ","pref":"青森県","city":"西津軽郡鰺ヶ沢町","address":"赤石町"},
{"zip_code":"0382714","kana_pref":"ｱｵﾓﾘｹﾝ","kana_city":"ﾆｼﾂｶﾞﾙｸﾞﾝｱｼﾞｶﾞｻﾜﾏﾁ","kana_address":"ｱｼﾔﾁﾏﾁ","pref":"青森県","city":"西津軽郡鰺ヶ沢町","address":"芦萢町"},
{"zip_code":"0382742","kana_pref":"ｱｵﾓﾘｹﾝ","kana_city":"ﾆｼﾂｶﾞﾙｸﾞﾝｱｼﾞｶﾞｻﾜﾏﾁ","kana_address":"ｱﾗﾏﾁ","pref":"青森県","city":"西津軽郡鰺ヶ沢町","address":"新町"},
{"zip_code":"0382735","kana_pref":"ｱｵﾓﾘｹﾝ","kana_city":"ﾆｼﾂｶﾞﾙｸﾞﾝｱｼﾞｶﾞｻﾜﾏﾁ","kana_address":"ｳﾊﾞﾌｸﾛﾏﾁ","pref":"青森県","city":"西津軽郡鰺ヶ沢町","address":"姥袋町"},
{"zip_code":"0382724","kana_pref":"ｱｵﾓﾘｹﾝ","kana_city":"ﾆｼﾂｶﾞﾙｸﾞﾝｱｼﾞｶﾞｻﾜﾏﾁ","kana_address":"ｵﾆﾌｸﾛﾏﾁ","pref":"青森県","city":"西津軽郡鰺ヶ沢町","address":"鬼袋町"},
{"zip_code":"0382701","kana_pref":"ｱｵﾓﾘｹﾝ","kana_city":"ﾆｼﾂｶﾞﾙｸﾞﾝｱｼﾞｶﾞｻﾜﾏﾁ","kana_address":"ｷﾀｳｷﾀﾏﾁ","pref":"青森県","city":"西津軽郡鰺ヶ沢町","address":"北浮田町"},
{"zip_code":"0382754","kana_pref":"ｱｵﾓﾘｹﾝ","kana_city":"ﾆｼﾂｶﾞﾙｸﾞﾝｱｼﾞｶﾞｻﾜﾏﾁ","kana_address":"ｺﾒﾏﾁ","pref":"青森県","city":"西津軽郡鰺ヶ沢町","address":"米町"},
{"zip_code":"0382722","kana_pref":"ｱｵﾓﾘｹﾝ","kana_city":"ﾆｼﾂｶﾞﾙｸﾞﾝｱｼﾞｶﾞｻﾜﾏﾁ","kana_address":"ｺﾓﾘﾏﾁ","pref":"青森県","city":"西津軽郡鰺ヶ沢町","address":"小森町"},
{"zip_code":"0382703","kana_pref":"ｱｵﾓﾘｹﾝ","kana_city":"ﾆｼﾂｶﾞﾙｸﾞﾝｱｼﾞｶﾞｻﾜﾏﾁ","kana_address":"ｺﾔｼｷﾏﾁ","pref":"青森県","city":"西津軽郡鰺ヶ沢町","address":"小屋敷町"},
{"zip_code":"0382745","kana_pref":"ｱｵﾓﾘｹﾝ","kana_city":"ﾆｼﾂｶﾞﾙｸﾞﾝｱｼﾞｶﾞｻﾜﾏﾁ","kana_address":"ｼﾝﾁﾏﾁ","pref":"青森県","city":"西津軽郡鰺ヶ沢町","address":"新地町"},
{"zip_code":"0382702","kana_pref":"ｱｵﾓﾘｹﾝ","kana_city":"ﾆｼﾂｶﾞﾙｸﾞﾝｱｼﾞｶﾞｻﾜﾏﾁ","kana_address":"ﾀﾃｲｼﾏﾁ","pref":"青森県","city":"西津軽郡鰺ヶ沢町","address":"建石町"},
{"zip_code":"0382733","kana_pref":"ｱｵﾓﾘｹﾝ","kana_city":"ﾆｼﾂｶﾞﾙｸﾞﾝｱｼﾞｶﾞｻﾜﾏﾁ","kana_address":"ﾀﾃﾏｴﾏﾁ","pref":"青森県","city":"西津軽郡鰺ヶ沢町","address":"館前町"},
{"zip_code":"0382751","kana_pref":"ｱｵﾓﾘｹﾝ","kana_city":"ﾆｼﾂｶﾞﾙｸﾞﾝｱｼﾞｶﾞｻﾜﾏﾁ","kana_address":"ﾀﾅｶﾏﾁ","pref":"青森県","city":"西津軽郡鰺ヶ沢町","address":"田中町"},
{"zip_code":"0382725","kana_pref":"ｱｵﾓﾘｹﾝ","kana_city":"ﾆｼﾂｶﾞﾙｸﾞﾝｱｼﾞｶﾞｻﾜﾏﾁ","kana_address":"ﾀﾈｻﾄﾏﾁ","pref":"青森県","city":"西津軽郡鰺ヶ沢町","address":"種里町"},
{"zip_code":"0382743","kana_pref":"ｱｵﾓﾘｹﾝ","kana_city":"ﾆｼﾂｶﾞﾙｸﾞﾝｱｼﾞｶﾞｻﾜﾏﾁ","kana_address":"ﾂﾘﾏﾁ","pref":"青森県","city":"西津軽郡鰺ヶ沢町","address":"釣町"},
{"zip_code":"0382711","kana_pref":"ｱｵﾓﾘｹﾝ","kana_city":"ﾆｼﾂｶﾞﾙｸﾞﾝｱｼﾞｶﾞｻﾜﾏﾁ","kana_address":"ﾅｶﾑﾗﾏﾁ","pref":"青森県","city":"西津軽郡鰺ヶ沢町","address":"中村町"},
{"zip_code":"0382712","kana_pref":"ｱｵﾓﾘｹﾝ","kana_city":"ﾆｼﾂｶﾞﾙｸﾞﾝｱｼﾞｶﾞｻﾜﾏﾁ","kana_address":"ﾅｶﾞﾀﾞｲﾏﾁ","pref":"青森県","city":"西津軽郡鰺ヶ沢町","address":"長平町"},
{"zip_code":"0382752","kana_pref":"ｱｵﾓﾘｹﾝ","kana_city":"ﾆｼﾂｶﾞﾙｸﾞﾝｱｼﾞｶﾞｻﾜﾏﾁ","kana_address":"ﾅﾅﾂｲｼﾏﾁ","pref":"青森県","city":"西津軽郡鰺ヶ沢町","address":"七ツ石町"},
{"zip_code":"0382741","kana_pref":"ｱｵﾓﾘｹﾝ","kana_city":"ﾆｼﾂｶﾞﾙｸﾞﾝｱｼﾞｶﾞｻﾜﾏﾁ","kana_address":"ﾊﾏﾏﾁ","pref":"青森県","city":"西津軽郡鰺ヶ沢町","address":"浜町"},
{"zip_code":"0382715","kana_pref":"ｱｵﾓﾘｹﾝ","kana_city":"ﾆｼﾂｶﾞﾙｸﾞﾝｱｼﾞｶﾞｻﾜﾏﾁ","kana_address":"ﾊﾏﾖｺｻﾜﾏﾁ","pref":"青森県","city":"西津軽郡鰺ヶ沢町","address":"浜横沢町"},
{"zip_code":"0382732","kana_pref":"ｱｵﾓﾘｹﾝ","kana_city":"ﾆｼﾂｶﾞﾙｸﾞﾝｱｼﾞｶﾞｻﾜﾏﾁ","kana_address":"ﾋﾃﾞﾘﾀﾏﾁ","pref":"青森県","city":"西津軽郡鰺ヶ沢町","address":"日照田町"},
{"zip_code":"0382723","kana_pref":"ｱｵﾓﾘｹﾝ","kana_city":"ﾆｼﾂｶﾞﾙｸﾞﾝｱｼﾞｶﾞｻﾜﾏﾁ","kana_address":"ﾋﾄﾂﾓﾘﾏﾁ","pref":"青森県","city":"西津軽郡鰺ヶ沢町","address":"一ツ森町"},
{"zip_code":"0382721","kana_pref":"ｱｵﾓﾘｹﾝ","kana_city":"ﾆｼﾂｶﾞﾙｸﾞﾝｱｼﾞｶﾞｻﾜﾏﾁ","kana_address":"ﾌｶﾔﾏﾁ","pref":"青森県","city":"西津軽郡鰺ヶ沢町","address":"深谷町"},
{"zip_code":"0382746","kana_pref":"ｱｵﾓﾘｹﾝ","kana_city":"ﾆｼﾂｶﾞﾙｸﾞﾝｱｼﾞｶﾞｻﾜﾏﾁ","kana_address":"ﾌﾈﾁｮｳ","pref":"青森県","city":"西津軽郡鰺ヶ沢町","address":"富根町"},
{"zip_code":"0382753","kana_pref":"ｱｵﾓﾘｹﾝ","kana_city":"ﾆｼﾂｶﾞﾙｸﾞﾝｱｼﾞｶﾞｻﾜﾏﾁ","kana_address":"ﾎﾝﾁｮｳ","pref":"青森県","city":"西津軽郡鰺ヶ沢町","address":"本町"},
{"zip_code":"0382761","kana_pref":"ｱｵﾓﾘｹﾝ","kana_city":"ﾆｼﾂｶﾞﾙｸﾞﾝｱｼﾞｶﾞｻﾜﾏﾁ","kana_address":"ﾏｲﾄﾏﾁ","pref":"青森県","city":"西津軽郡鰺ヶ沢町","address":"舞戸町"},
{"zip_code":"0382713","kana_pref":"ｱｵﾓﾘｹﾝ","kana_city":"ﾆｼﾂｶﾞﾙｸﾞﾝｱｼﾞｶﾞｻﾜﾏﾁ","kana_address":"ﾏﾂﾀﾞｲﾏﾁ","pref":"青森県","city":"西津軽郡鰺ヶ沢町","address":"松代町"},
{"zip_code":"0382705","kana_pref":"ｱｵﾓﾘｹﾝ","kana_city":"ﾆｼﾂｶﾞﾙｸﾞﾝｱｼﾞｶﾞｻﾜﾏﾁ","kana_address":"ﾐﾅﾐｳｷﾀﾏﾁ","pref":"青森県","city":"西津軽郡鰺ヶ沢町","address":"南浮田町"},
{"zip_code":"0382734","kana_pref":"ｱｵﾓﾘｹﾝ","kana_city":"ﾆｼﾂｶﾞﾙｸﾞﾝｱｼﾞｶﾞｻﾜﾏﾁ","kana_address":"ﾐﾅﾐｶﾅｻﾞﾜﾏﾁ","pref":"青森県","city":"西津軽郡鰺ヶ沢町","address":"南金沢町"},
{"zip_code":"0382704","kana_pref":"ｱｵﾓﾘｹﾝ","kana_city":"ﾆｼﾂｶﾞﾙｸﾞﾝｱｼﾞｶﾞｻﾜﾏﾁ","kana_address":"ﾕﾌﾞﾈﾏﾁ","pref":"青森県","city":"西津軽郡鰺ヶ沢町","address":"湯舟町"},
{"zip_code":"0382747","kana_pref":"ｱｵﾓﾘｹﾝ","kana_city":"ﾆｼﾂｶﾞﾙｸﾞﾝｱｼﾞｶﾞｻﾜﾏﾁ","kana_address":"ﾖﾄﾞﾏﾁ","pref":"青森県","city":"西津軽郡鰺ヶ沢町","address":"淀町"},
{"zip_code":"0382744","kana_pref":"ｱｵﾓﾘｹﾝ","kana_city":"ﾆｼﾂｶﾞﾙｸﾞﾝｱｼﾞｶﾞｻﾜﾏﾁ","kana_address":"ﾘｮｳｼﾏﾁ","pref":"青森県","city":"西津軽郡鰺ヶ沢町","address":"漁師町"},
{"zip_code":"0382300","kana_pref":"ｱｵﾓﾘｹﾝ","kana_city":"ﾆｼﾂｶﾞﾙｸﾞﾝﾌｶｳﾗﾏﾁ","kana_address":"","pref":"青森県","city":"西津軽郡深浦町","address":""},
{"zip_code":"0382502","kana_pref":"ｱｵﾓﾘｹﾝ","kana_city":"ﾆｼﾂｶﾞﾙｸﾞﾝﾌｶｳﾗﾏﾁ","kana_address":"ｲﾜｻｶ","pref":"青森県","city":"西津軽郡深浦町","address":"岩坂"},
{"zip_code":"0382202","kana_pref":"ｱｵﾓﾘｹﾝ","kana_city":"ﾆｼﾂｶﾞﾙｸﾞﾝﾌｶｳﾗﾏﾁ","kana_address":"ｲﾜｻｷ","pref":"青森県","city":"西津軽郡深浦町","address":"岩崎"},
{"zip_code":"0382413","kana_pref":"ｱｵﾓﾘｹﾝ","kana_city":"ﾆｼﾂｶﾞﾙｸﾞﾝﾌｶｳﾗﾏﾁ","kana_address":"ｵｲﾗｾ","pref":"青森県","city":"西津軽郡深浦町","address":"追良瀬"},
{"zip_code":"0382208","kana_pref":"ｱｵﾓﾘｹﾝ","kana_city":"ﾆｼﾂｶﾞﾙｸﾞﾝﾌｶｳﾗﾏﾁ","kana_address":"ｵｵﾏｺﾞｼ","pref":"青森県","city":"西津軽郡深浦町","address":"大間越"},
{"zip_code":"0382411","kana_pref":"ｱｵﾓﾘｹﾝ","kana_city":"ﾆｼﾂｶﾞﾙｸﾞﾝﾌｶｳﾗﾏﾁ","kana_address":"ｶｿｾ","pref":"青森県","city":"西津軽郡深浦町","address":"風合瀬"},
{"zip_code":"0382323","kana_pref":"ｱｵﾓﾘｹﾝ","kana_city":"ﾆｼﾂｶﾞﾙｸﾞﾝﾌｶｳﾗﾏﾁ","kana_address":"ｶﾐﾁｮｳｹｲﾀﾞｲﾗ","pref":"青森県","city":"西津軽郡深浦町","address":"上長慶平"},
{"zip_code":"0382504","kana_pref":"ｱｵﾓﾘｹﾝ","kana_city":"ﾆｼﾂｶﾞﾙｸﾞﾝﾌｶｳﾗﾏﾁ","kana_address":"ｷﾀｶﾈｶﾞｻﾜ","pref":"青森県","city":"西津軽郡深浦町","address":"北金ケ沢"},
{"zip_code":"0382207","kana_pref":"ｱｵﾓﾘｹﾝ","kana_city":"ﾆｼﾂｶﾞﾙｸﾞﾝﾌｶｳﾗﾏﾁ","kana_address":"ｸﾛｻｷ","pref":"青森県","city":"西津軽郡深浦町","address":"黒崎"},
{"zip_code":"0382201","kana_pref":"ｱｵﾓﾘｹﾝ","kana_city":"ﾆｼﾂｶﾞﾙｸﾞﾝﾌｶｳﾗﾏﾁ","kana_address":"ｻﾜﾍﾞ","pref":"青森県","city":"西津軽郡深浦町","address":"沢辺"},
{"zip_code":"0382203","kana_pref":"ｱｵﾓﾘｹﾝ","kana_city":"ﾆｼﾂｶﾞﾙｸﾞﾝﾌｶｳﾗﾏﾁ","kana_address":"ｼｮｳﾄﾞｳｼﾞﾘ","pref":"青森県","city":"西津軽郡深浦町","address":"正道尻"},
{"zip_code":"0382503","kana_pref":"ｱｵﾓﾘｹﾝ","kana_city":"ﾆｼﾂｶﾞﾙｸﾞﾝﾌｶｳﾗﾏﾁ","kana_address":"ｾｷ","pref":"青森県","city":"西津軽郡深浦町","address":"関"},
{"zip_code":"0382505","kana_pref":"ｱｵﾓﾘｹﾝ","kana_city":"ﾆｼﾂｶﾞﾙｸﾞﾝﾌｶｳﾗﾏﾁ","kana_address":"ﾀﾉｻﾜ","pref":"青森県","city":"西津軽郡深浦町","address":"田野沢"},
{"zip_code":"0382322","kana_pref":"ｱｵﾓﾘｹﾝ","kana_city":"ﾆｼﾂｶﾞﾙｸﾞﾝﾌｶｳﾗﾏﾁ","kana_address":"ﾁｮｳｹｲﾀﾞｲﾗ","pref":"青森県","city":"西津軽郡深浦町","address":"長慶平"},
{"zip_code":"0382326","kana_pref":"ｱｵﾓﾘｹﾝ","kana_city":"ﾆｼﾂｶﾞﾙｸﾞﾝﾌｶｳﾗﾏﾁ","kana_address":"ﾂｷﾔ","pref":"青森県","city":"西津軽郡深浦町","address":"月屋"},
{"zip_code":"0382412","kana_pref":"ｱｵﾓﾘｹﾝ","kana_city":"ﾆｼﾂｶﾞﾙｸﾞﾝﾌｶｳﾗﾏﾁ","kana_address":"ﾄﾄﾞﾛｷ","pref":"青森県","city":"西津軽郡深浦町","address":"驫木"},
{"zip_code":"0382204","kana_pref":"ｱｵﾓﾘｹﾝ","kana_city":"ﾆｼﾂｶﾞﾙｸﾞﾝﾌｶｳﾗﾏﾁ","kana_address":"ﾋｻﾀﾞ","pref":"青森県","city":"西津軽郡深浦町","address":"久田"},
{"zip_code":"0382321","kana_pref":"ｱｵﾓﾘｹﾝ","kana_city":"ﾆｼﾂｶﾞﾙｸﾞﾝﾌｶｳﾗﾏﾁ","kana_address":"ﾋﾛﾄ","pref":"青森県","city":"西津軽郡深浦町","address":"広戸"},
{"zip_code":"0382324","kana_pref":"ｱｵﾓﾘｹﾝ","kana_city":"ﾆｼﾂｶﾞﾙｸﾞﾝﾌｶｳﾗﾏﾁ","kana_address":"ﾌｶｳﾗ","pref":"青森県","city":"西津軽郡深浦町","address":"深浦"},
{"zip_code":"0382327","kana_pref":"ｱｵﾓﾘｹﾝ","kana_city":"ﾆｼﾂｶﾞﾙｸﾞﾝﾌｶｳﾗﾏﾁ","kana_address":"ﾍﾅｼ","pref":"青森県","city":"西津軽郡深浦町","address":"舮作"},
{"zip_code":"0382206","kana_pref":"ｱｵﾓﾘｹﾝ","kana_city":"ﾆｼﾂｶﾞﾙｸﾞﾝﾌｶｳﾗﾏﾁ","kana_address":"ﾏﾂｶﾐ","pref":"青森県","city":"西津軽郡深浦町","address":"松神"},
{"zip_code":"0382205","kana_pref":"ｱｵﾓﾘｹﾝ","kana_city":"ﾆｼﾂｶﾞﾙｸﾞﾝﾌｶｳﾗﾏﾁ","kana_address":"ﾓﾘﾔﾏ","pref":"青森県","city":"西津軽郡深浦町","address":"森山"},
{"zip_code":"0382501","kana_pref":"ｱｵﾓﾘｹﾝ","kana_city":"ﾆｼﾂｶﾞﾙｸﾞﾝﾌｶｳﾗﾏﾁ","kana_address":"ﾔﾅｷﾞﾀ","pref":"青森県","city":"西津軽郡深浦町","address":"柳田"},
{"zip_code":"0382325","kana_pref":"ｱｵﾓﾘｹﾝ","kana_city":"ﾆｼﾂｶﾞﾙｸﾞﾝﾌｶｳﾗﾏﾁ","kana_address":"ﾖｺｲｿ","pref":"青森県","city":"西津軽郡深浦町","address":"横磯"},
{"zip_code":"0383800","kana_pref":"ｱｵﾓﾘｹﾝ","kana_city":"ﾐﾅﾐﾂｶﾞﾙｸﾞﾝﾌｼﾞｻｷﾏﾁ","kana_address":"","pref":"青森県","city":"南津軽郡藤崎町","address":""},
{"zip_code":"0383837","kana_pref":"ｱｵﾓﾘｹﾝ","kana_city":"ﾐﾅﾐﾂｶﾞﾙｸﾞﾝﾌｼﾞｻｷﾏﾁ","kana_address":"ｶｼﾜｷﾞｾﾞｷ","pref":"青森県","city":"南津軽郡藤崎町","address":"柏木堰"},
{"zip_code":"0383833","kana_pref":"ｱｵﾓﾘｹﾝ","kana_city":"ﾐﾅﾐﾂｶﾞﾙｸﾞﾝﾌｼﾞｻｷﾏﾁ","kana_address":"ｶﾒｵｶ","pref":"青森県","city":"南津軽郡藤崎町","address":"亀岡"},
{"zip_code":"0381203","kana_pref":"ｱｵﾓﾘｹﾝ","kana_city":"ﾐﾅﾐﾂｶﾞﾙｸﾞﾝﾌｼﾞｻｷﾏﾁ","kana_address":"ｸﾞｲﾅﾀﾞﾃ","pref":"青森県","city":"南津軽郡藤崎町","address":"久井名舘"},
{"zip_code":"0383804","kana_pref":"ｱｵﾓﾘｹﾝ","kana_city":"ﾐﾅﾐﾂｶﾞﾙｸﾞﾝﾌｼﾞｻｷﾏﾁ","kana_address":"ｸｽﾞﾉ","pref":"青森県","city":"南津軽郡藤崎町","address":"葛野"},
{"zip_code":"0381206","kana_pref":"ｱｵﾓﾘｹﾝ","kana_city":"ﾐﾅﾐﾂｶﾞﾙｸﾞﾝﾌｼﾞｻｷﾏﾁ","kana_address":"ｺﾞｳｻﾝﾏｴ","pref":"青森県","city":"南津軽郡藤崎町","address":"郷山前"},
{"zip_code":"0383812","kana_pref":"ｱｵﾓﾘｹﾝ","kana_city":"ﾐﾅﾐﾂｶﾞﾙｸﾞﾝﾌｼﾞｻｷﾏﾁ","kana_address":"ｺﾊﾞﾀ","pref":"青森県","city":"南津軽郡藤崎町","address":"小畑"},
{"zip_code":"0383805","kana_pref":"ｱｵﾓﾘｹﾝ","kana_city":"ﾐﾅﾐﾂｶﾞﾙｸﾞﾝﾌｼﾞｻｷﾏﾁ","kana_address":"ｺﾞﾘﾝ","pref":"青森県","city":"南津軽郡藤崎町","address":"五林"},
{"zip_code":"0381216","kana_pref":"ｱｵﾓﾘｹﾝ","kana_city":"ﾐﾅﾐﾂｶﾞﾙｸﾞﾝﾌｼﾞｻｷﾏﾁ","kana_address":"ｻｶｷ","pref":"青森県","city":"南津軽郡藤崎町","address":"榊"},
{"zip_code":"0383836","kana_pref":"ｱｵﾓﾘｹﾝ","kana_city":"ﾐﾅﾐﾂｶﾞﾙｸﾞﾝﾌｼﾞｻｷﾏﾁ","kana_address":"ｼﾓﾀﾜﾗﾏｽ","pref":"青森県","city":"南津軽郡藤崎町","address":"下俵舛"},
{"zip_code":"0383835","kana_pref":"ｱｵﾓﾘｹﾝ","kana_city":"ﾐﾅﾐﾂｶﾞﾙｸﾞﾝﾌｼﾞｻｷﾏﾁ","kana_address":"ﾀﾜﾗﾏｽ","pref":"青森県","city":"南津軽郡藤崎町","address":"俵舛"},
{"zip_code":"0381214","kana_pref":"ｱｵﾓﾘｹﾝ","kana_city":"ﾐﾅﾐﾂｶﾞﾙｸﾞﾝﾌｼﾞｻｷﾏﾁ","kana_address":"ﾄｷﾜ","pref":"青森県","city":"南津軽郡藤崎町","address":"常盤"},
{"zip_code":"0381213","kana_pref":"ｱｵﾓﾘｹﾝ","kana_city":"ﾐﾅﾐﾂｶﾞﾙｸﾞﾝﾌｼﾞｻｷﾏﾁ","kana_address":"ﾄｸｹﾞ","pref":"青森県","city":"南津軽郡藤崎町","address":"徳下"},
{"zip_code":"0381202","kana_pref":"ｱｵﾓﾘｹﾝ","kana_city":"ﾐﾅﾐﾂｶﾞﾙｸﾞﾝﾌｼﾞｻｷﾏﾁ","kana_address":"ﾄﾐﾔﾅｷﾞ","pref":"青森県","city":"南津軽郡藤崎町","address":"富柳"},
{"zip_code":"0383811","kana_pref":"ｱｵﾓﾘｹﾝ","kana_city":"ﾐﾅﾐﾂｶﾞﾙｸﾞﾝﾌｼﾞｻｷﾏﾁ","kana_address":"ﾅｶｼﾞﾏ","pref":"青森県","city":"南津軽郡藤崎町","address":"中島"},
{"zip_code":"0383831","kana_pref":"ｱｵﾓﾘｹﾝ","kana_city":"ﾐﾅﾐﾂｶﾞﾙｸﾞﾝﾌｼﾞｻｷﾏﾁ","kana_address":"ﾅｶﾉﾒ","pref":"青森県","city":"南津軽郡藤崎町","address":"中野目"},
{"zip_code":"0383803","kana_pref":"ｱｵﾓﾘｹﾝ","kana_city":"ﾐﾅﾐﾂｶﾞﾙｸﾞﾝﾌｼﾞｻｷﾏﾁ","kana_address":"ﾆｼﾄﾖﾀﾞ","pref":"青森県","city":"南津軽郡藤崎町","address":"西豊田"},
{"zip_code":"0383834","kana_pref":"ｱｵﾓﾘｹﾝ","kana_city":"ﾐﾅﾐﾂｶﾞﾙｸﾞﾝﾌｼﾞｻｷﾏﾁ","kana_address":"ﾆｼﾅｶﾉﾒ","pref":"青森県","city":"南津軽郡藤崎町","address":"西中野目"},
{"zip_code":"0383806","kana_pref":"ｱｵﾓﾘｹﾝ","kana_city":"ﾐﾅﾐﾂｶﾞﾙｸﾞﾝﾌｼﾞｻｷﾏﾁ","kana_address":"ﾊﾔｼｻﾞｷ","pref":"青森県","city":"南津軽郡藤崎町","address":"林崎"},
{"zip_code":"0381211","kana_pref":"ｱｵﾓﾘｹﾝ","kana_city":"ﾐﾅﾐﾂｶﾞﾙｸﾞﾝﾌｼﾞｻｷﾏﾁ","kana_address":"ﾌｸｼﾏ","pref":"青森県","city":"南津軽郡藤崎町","address":"福島"},
{"zip_code":"0381201","kana_pref":"ｱｵﾓﾘｹﾝ","kana_city":"ﾐﾅﾐﾂｶﾞﾙｸﾞﾝﾌｼﾞｻｷﾏﾁ","kana_address":"ﾌｸﾀﾞﾃ","pref":"青森県","city":"南津軽郡藤崎町","address":"福舘"},
{"zip_code":"0383801","kana_pref":"ｱｵﾓﾘｹﾝ","kana_city":"ﾐﾅﾐﾂｶﾞﾙｸﾞﾝﾌｼﾞｻｷﾏﾁ","kana_address":"ﾌｼﾞｺｼ","pref":"青森県","city":"南津軽郡藤崎町","address":"藤越"},
{"zip_code":"0383802","kana_pref":"ｱｵﾓﾘｹﾝ","kana_city":"ﾐﾅﾐﾂｶﾞﾙｸﾞﾝﾌｼﾞｻｷﾏﾁ","kana_address":"ﾌｼﾞｻｷ","pref":"青森県","city":"南津軽郡藤崎町","address":"藤崎"},
{"zip_code":"0381207","kana_pref":"ｱｵﾓﾘｹﾝ","kana_city":"ﾐﾅﾐﾂｶﾞﾙｸﾞﾝﾌｼﾞｻｷﾏﾁ","kana_address":"ﾏｽﾀﾞﾃ","pref":"青森県","city":"南津軽郡藤崎町","address":"増館"},
{"zip_code":"0381204","kana_pref":"ｱｵﾓﾘｹﾝ","kana_city":"ﾐﾅﾐﾂｶﾞﾙｸﾞﾝﾌｼﾞｻｷﾏﾁ","kana_address":"ﾐｽﾞｷ","pref":"青森県","city":"南津軽郡藤崎町","address":"水木"},
{"zip_code":"0383814","kana_pref":"ｱｵﾓﾘｹﾝ","kana_city":"ﾐﾅﾐﾂｶﾞﾙｸﾞﾝﾌｼﾞｻｷﾏﾁ","kana_address":"ﾐｽﾞﾇﾏ","pref":"青森県","city":"南津軽郡藤崎町","address":"水沼"},
{"zip_code":"0381212","kana_pref":"ｱｵﾓﾘｹﾝ","kana_city":"ﾐﾅﾐﾂｶﾞﾙｸﾞﾝﾌｼﾞｻｷﾏﾁ","kana_address":"ﾐﾂﾔ","pref":"青森県","city":"南津軽郡藤崎町","address":"三ツ屋"},
{"zip_code":"0383813","kana_pref":"ｱｵﾓﾘｹﾝ","kana_city":"ﾐﾅﾐﾂｶﾞﾙｸﾞﾝﾌｼﾞｻｷﾏﾁ","kana_address":"ﾔｻﾞﾜ","pref":"青森県","city":"南津軽郡藤崎町","address":"矢沢"},
{"zip_code":"0381205","kana_pref":"ｱｵﾓﾘｹﾝ","kana_city":"ﾐﾅﾐﾂｶﾞﾙｸﾞﾝﾌｼﾞｻｷﾏﾁ","kana_address":"ﾖｼﾉﾀﾞ","pref":"青森県","city":"南津軽郡藤崎町","address":"吉野田"},
{"zip_code":"0383832","kana_pref":"ｱｵﾓﾘｹﾝ","kana_city":"ﾐﾅﾐﾂｶﾞﾙｸﾞﾝﾌｼﾞｻｷﾏﾁ","kana_address":"ﾖｼﾑｶｲ","pref":"青森県","city":"南津軽郡藤崎町","address":"吉向"},
{"zip_code":"0381215","kana_pref":"ｱｵﾓﾘｹﾝ","kana_city":"ﾐﾅﾐﾂｶﾞﾙｸﾞﾝﾌｼﾞｻｷﾏﾁ","kana_address":"ﾜｶﾏﾂ","pref":"青森県","city":"南津軽郡藤崎町","address":"若松"},
{"zip_code":"0380200","kana_pref":"ｱｵﾓﾘｹﾝ","kana_city":"ﾐﾅﾐﾂｶﾞﾙｸﾞﾝｵｵﾜﾆﾏﾁ","kana_address":"","pref":"青森県","city":"南津軽郡大鰐町","address":""},
{"zip_code":"0380233","kana_pref":"ｱｵﾓﾘｹﾝ","kana_city":"ﾐﾅﾐﾂｶﾞﾙｸﾞﾝｵｵﾜﾆﾏﾁ","kana_address":"ｲﾂﾞﾁ","pref":"青森県","city":"南津軽郡大鰐町","address":"居土"},
{"zip_code":"0380211","kana_pref":"ｱｵﾓﾘｹﾝ","kana_city":"ﾐﾅﾐﾂｶﾞﾙｸﾞﾝｵｵﾜﾆﾏﾁ","kana_address":"ｵｵﾜﾆ","pref":"青森県","city":"南津軽郡大鰐町","address":"大鰐"},
{"zip_code":"0380204","kana_pref":"ｱｵﾓﾘｹﾝ","kana_city":"ﾐﾅﾐﾂｶﾞﾙｸﾞﾝｵｵﾜﾆﾏﾁ","kana_address":"ｶﾛｳｼﾞ","pref":"青森県","city":"南津軽郡大鰐町","address":"唐牛"},
{"zip_code":"0380212","kana_pref":"ｱｵﾓﾘｹﾝ","kana_city":"ﾐﾅﾐﾂｶﾞﾙｸﾞﾝｵｵﾜﾆﾏﾁ","kana_address":"ｸﾗﾀﾞﾃ","pref":"青森県","city":"南津軽郡大鰐町","address":"蔵館"},
{"zip_code":"0380203","kana_pref":"ｱｵﾓﾘｹﾝ","kana_city":"ﾐﾅﾐﾂｶﾞﾙｸﾞﾝｵｵﾜﾆﾏﾁ","kana_address":"ｺﾏｷ","pref":"青森県","city":"南津軽郡大鰐町","address":"駒木"},
{"zip_code":"0380241","kana_pref":"ｱｵﾓﾘｹﾝ","kana_city":"ﾐﾅﾐﾂｶﾞﾙｸﾞﾝｵｵﾜﾆﾏﾁ","kana_address":"ｻﾊﾞｲｼ","pref":"青森県","city":"南津軽郡大鰐町","address":"鯖石"},
{"zip_code":"0380223","kana_pref":"ｱｵﾓﾘｹﾝ","kana_city":"ﾐﾅﾐﾂｶﾞﾙｸﾞﾝｵｵﾜﾆﾏﾁ","kana_address":"ｼﾏﾀﾞ","pref":"青森県","city":"南津軽郡大鰐町","address":"島田"},
{"zip_code":"0380231","kana_pref":"ｱｵﾓﾘｹﾝ","kana_city":"ﾐﾅﾐﾂｶﾞﾙｸﾞﾝｵｵﾜﾆﾏﾁ","kana_address":"ｼｭｸｶﾞﾜﾗ","pref":"青森県","city":"南津軽郡大鰐町","address":"宿川原"},
{"zip_code":"0380202","kana_pref":"ｱｵﾓﾘｹﾝ","kana_city":"ﾐﾅﾐﾂｶﾞﾙｸﾞﾝｵｵﾜﾆﾏﾁ","kana_address":"ﾅｶﾞﾐﾈ","pref":"青森県","city":"南津軽郡大鰐町","address":"長峰"},
{"zip_code":"0380201","kana_pref":"ｱｵﾓﾘｹﾝ","kana_city":"ﾐﾅﾐﾂｶﾞﾙｸﾞﾝｵｵﾜﾆﾏﾁ","kana_address":"ﾆｶﾞｷ","pref":"青森県","city":"南津軽郡大鰐町","address":"苦木"},
{"zip_code":"0380221","kana_pref":"ｱｵﾓﾘｹﾝ","kana_city":"ﾐﾅﾐﾂｶﾞﾙｸﾞﾝｵｵﾜﾆﾏﾁ","kana_address":"ﾆｼﾞｶｲ","pref":"青森県","city":"南津軽郡大鰐町","address":"虹貝"},
{"zip_code":"0380243","kana_pref":"ｱｵﾓﾘｹﾝ","kana_city":"ﾐﾅﾐﾂｶﾞﾙｸﾞﾝｵｵﾜﾆﾏﾁ","kana_address":"ﾊﾁﾏﾝﾀﾞﾃ","pref":"青森県","city":"南津軽郡大鰐町","address":"八幡館"},
{"zip_code":"0380222","kana_pref":"ｱｵﾓﾘｹﾝ","kana_city":"ﾐﾅﾐﾂｶﾞﾙｸﾞﾝｵｵﾜﾆﾏﾁ","kana_address":"ﾊﾔｾﾉ","pref":"青森県","city":"南津軽郡大鰐町","address":"早瀬野"},
{"zip_code":"0380232","kana_pref":"ｱｵﾓﾘｹﾝ","kana_city":"ﾐﾅﾐﾂｶﾞﾙｸﾞﾝｵｵﾜﾆﾏﾁ","kana_address":"ﾐﾂﾒﾅｲ","pref":"青森県","city":"南津軽郡大鰐町","address":"三ツ目内"},
{"zip_code":"0380242","kana_pref":"ｱｵﾓﾘｹﾝ","kana_city":"ﾐﾅﾐﾂｶﾞﾙｸﾞﾝｵｵﾜﾆﾏﾁ","kana_address":"ﾓﾘﾔﾏ","pref":"青森県","city":"南津軽郡大鰐町","address":"森山"},
{"zip_code":"0381100","kana_pref":"ｱｵﾓﾘｹﾝ","kana_city":"ﾐﾅﾐﾂｶﾞﾙｸﾞﾝｲﾅｶﾀﾞﾃﾑﾗ","kana_address":"","pref":"青森県","city":"南津軽郡田舎館村","address":""},
{"zip_code":"0381142","kana_pref":"ｱｵﾓﾘｹﾝ","kana_city":"ﾐﾅﾐﾂｶﾞﾙｸﾞﾝｲﾅｶﾀﾞﾃﾑﾗ","kana_address":"ｲｽﾞﾐ","pref":"青森県","city":"南津軽郡田舎館村","address":"和泉"},
{"zip_code":"0381113","kana_pref":"ｱｵﾓﾘｹﾝ","kana_city":"ﾐﾅﾐﾂｶﾞﾙｸﾞﾝｲﾅｶﾀﾞﾃﾑﾗ","kana_address":"ｲﾅｶﾀﾞﾃ","pref":"青森県","city":"南津軽郡田舎館村","address":"田舎舘"},
{"zip_code":"0381104","kana_pref":"ｱｵﾓﾘｹﾝ","kana_city":"ﾐﾅﾐﾂｶﾞﾙｸﾞﾝｲﾅｶﾀﾞﾃﾑﾗ","kana_address":"ｴﾀﾞｶﾞﾜ","pref":"青森県","city":"南津軽郡田舎館村","address":"枝川"},
{"zip_code":"0381133","kana_pref":"ｱｵﾓﾘｹﾝ","kana_city":"ﾐﾅﾐﾂｶﾞﾙｸﾞﾝｲﾅｶﾀﾞﾃﾑﾗ","kana_address":"ｵｵﾈｺ","pref":"青森県","city":"南津軽郡田舎館村","address":"大根子"},
{"zip_code":"0381131","kana_pref":"ｱｵﾓﾘｹﾝ","kana_city":"ﾐﾅﾐﾂｶﾞﾙｸﾞﾝｲﾅｶﾀﾞﾃﾑﾗ","kana_address":"ｵｵﾌｸﾛ","pref":"青森県","city":"南津軽郡田舎館村","address":"大袋"},
{"zip_code":"0381123","kana_pref":"ｱｵﾓﾘｹﾝ","kana_city":"ﾐﾅﾐﾂｶﾞﾙｸﾞﾝｲﾅｶﾀﾞﾃﾑﾗ","kana_address":"ｵｵﾏｶﾞﾘ","pref":"青森県","city":"南津軽郡田舎館村","address":"大曲"},
{"zip_code":"0381141","kana_pref":"ｱｵﾓﾘｹﾝ","kana_city":"ﾐﾅﾐﾂｶﾞﾙｸﾞﾝｲﾅｶﾀﾞﾃﾑﾗ","kana_address":"ｶﾜﾍﾞ","pref":"青森県","city":"南津軽郡田舎館村","address":"川部"},
{"zip_code":"0381143","kana_pref":"ｱｵﾓﾘｹﾝ","kana_city":"ﾐﾅﾐﾂｶﾞﾙｸﾞﾝｲﾅｶﾀﾞﾃﾑﾗ","kana_address":"ｻｶｲﾓﾘ","pref":"青森県","city":"南津軽郡田舎館村","address":"境森"},
{"zip_code":"0381103","kana_pref":"ｱｵﾓﾘｹﾝ","kana_city":"ﾐﾅﾐﾂｶﾞﾙｸﾞﾝｲﾅｶﾀﾞﾃﾑﾗ","kana_address":"ｼﾞｭｳﾆｶﾜﾗ","pref":"青森県","city":"南津軽郡田舎館村","address":"十二川原"},
{"zip_code":"0381132","kana_pref":"ｱｵﾓﾘｹﾝ","kana_city":"ﾐﾅﾐﾂｶﾞﾙｸﾞﾝｲﾅｶﾀﾞﾃﾑﾗ","kana_address":"ｽﾜﾄﾞｳ","pref":"青森県","city":"南津軽郡田舎館村","address":"諏訪堂"},
{"zip_code":"0381111","kana_pref":"ｱｵﾓﾘｹﾝ","kana_city":"ﾐﾅﾐﾂｶﾞﾙｸﾞﾝｲﾅｶﾀﾞﾃﾑﾗ","kana_address":"ﾀｶﾋ","pref":"青森県","city":"南津軽郡田舎館村","address":"高樋"},
{"zip_code":"0381112","kana_pref":"ｱｵﾓﾘｹﾝ","kana_city":"ﾐﾅﾐﾂｶﾞﾙｸﾞﾝｲﾅｶﾀﾞﾃﾑﾗ","kana_address":"ﾀﾚﾔﾅｷﾞ","pref":"青森県","city":"南津軽郡田舎館村","address":"垂柳"},
{"zip_code":"0381145","kana_pref":"ｱｵﾓﾘｹﾝ","kana_city":"ﾐﾅﾐﾂｶﾞﾙｸﾞﾝｲﾅｶﾀﾞﾃﾑﾗ","kana_address":"ﾂﾁﾔｸﾞﾗ","pref":"青森県","city":"南津軽郡田舎館村","address":"土矢倉"},
{"zip_code":"0381101","kana_pref":"ｱｵﾓﾘｹﾝ","kana_city":"ﾐﾅﾐﾂｶﾞﾙｸﾞﾝｲﾅｶﾀﾞﾃﾑﾗ","kana_address":"ﾄｳｺｳｼﾞ","pref":"青森県","city":"南津軽郡田舎館村","address":"東光寺"},
{"zip_code":"0381102","kana_pref":"ｱｵﾓﾘｹﾝ","kana_city":"ﾐﾅﾐﾂｶﾞﾙｸﾞﾝｲﾅｶﾀﾞﾃﾑﾗ","kana_address":"ﾄﾞｳﾉﾏｴ","pref":"青森県","city":"南津軽郡田舎館村","address":"堂野前"},
{"zip_code":"0381134","kana_pref":"ｱｵﾓﾘｹﾝ","kana_city":"ﾐﾅﾐﾂｶﾞﾙｸﾞﾝｲﾅｶﾀﾞﾃﾑﾗ","kana_address":"ﾄﾖﾏｷ","pref":"青森県","city":"南津軽郡田舎館村","address":"豊蒔"},
{"zip_code":"0381121","kana_pref":"ｱｵﾓﾘｹﾝ","kana_city":"ﾐﾅﾐﾂｶﾞﾙｸﾞﾝｲﾅｶﾀﾞﾃﾑﾗ","kana_address":"ﾊﾀｹﾅｶ","pref":"青森県","city":"南津軽郡田舎館村","address":"畑中"},
{"zip_code":"0381122","kana_pref":"ｱｵﾓﾘｹﾝ","kana_city":"ﾐﾅﾐﾂｶﾞﾙｸﾞﾝｲﾅｶﾀﾞﾃﾑﾗ","kana_address":"ﾊｯﾀﾝﾀﾞ","pref":"青森県","city":"南津軽郡田舎館村","address":"八反田"},
{"zip_code":"0381144","kana_pref":"ｱｵﾓﾘｹﾝ","kana_city":"ﾐﾅﾐﾂｶﾞﾙｸﾞﾝｲﾅｶﾀﾞﾃﾑﾗ","kana_address":"ﾏｴﾀﾔｼｷ","pref":"青森県","city":"南津軽郡田舎館村","address":"前田屋敷"},
{"zip_code":"0383600","kana_pref":"ｱｵﾓﾘｹﾝ","kana_city":"ｷﾀﾂｶﾞﾙｸﾞﾝｲﾀﾔﾅｷﾞﾏﾁ","kana_address":"","pref":"青森県","city":"北津軽郡板柳町","address":""},
{"zip_code":"0383683","kana_pref":"ｱｵﾓﾘｹﾝ","kana_city":"ｷﾀﾂｶﾞﾙｸﾞﾝｲﾀﾔﾅｷﾞﾏﾁ","kana_address":"ｱｶﾀﾞ","pref":"青森県","city":"北津軽郡板柳町","address":"赤田"},
{"zip_code":"0383651","kana_pref":"ｱｵﾓﾘｹﾝ","kana_city":"ｷﾀﾂｶﾞﾙｸﾞﾝｲﾀﾔﾅｷﾞﾏﾁ","kana_address":"ｲｲﾀﾞ","pref":"青森県","city":"北津軽郡板柳町","address":"飯田"},
{"zip_code":"0383682","kana_pref":"ｱｵﾓﾘｹﾝ","kana_city":"ｷﾀﾂｶﾞﾙｸﾞﾝｲﾀﾔﾅｷﾞﾏﾁ","kana_address":"ｲｼﾉ","pref":"青森県","city":"北津軽郡板柳町","address":"石野"},
{"zip_code":"0383685","kana_pref":"ｱｵﾓﾘｹﾝ","kana_city":"ｷﾀﾂｶﾞﾙｸﾞﾝｲﾀﾔﾅｷﾞﾏﾁ","kana_address":"ｲﾀﾔﾁｮｳ","pref":"青森県","city":"北津軽郡板柳町","address":"いたや町"},
{"zip_code":"0383662","kana_pref":"ｱｵﾓﾘｹﾝ","kana_city":"ｷﾀﾂｶﾞﾙｸﾞﾝｲﾀﾔﾅｷﾞﾏﾁ","kana_address":"ｲﾀﾔﾅｷﾞ","pref":"青森県","city":"北津軽郡板柳町","address":"板柳"},
{"zip_code":"0383642","kana_pref":"ｱｵﾓﾘｹﾝ","kana_city":"ｷﾀﾂｶﾞﾙｸﾞﾝｲﾀﾔﾅｷﾞﾏﾁ","kana_address":"ｵｵﾀ","pref":"青森県","city":"北津軽郡板柳町","address":"太田"},
{"zip_code":"0383635","kana_pref":"ｱｵﾓﾘｹﾝ","kana_city":"ｷﾀﾂｶﾞﾙｸﾞﾝｲﾀﾔﾅｷﾞﾏﾁ","kana_address":"ｵｵﾀﾜﾗ","pref":"青森県","city":"北津軽郡板柳町","address":"大俵"},
{"zip_code":"0383671","kana_pref":"ｱｵﾓﾘｹﾝ","kana_city":"ｷﾀﾂｶﾞﾙｸﾞﾝｲﾀﾔﾅｷﾞﾏﾁ","kana_address":"ｶｹｵﾁﾊﾞﾔｼ","pref":"青森県","city":"北津軽郡板柳町","address":"掛落林"},
{"zip_code":"0383632","kana_pref":"ｱｵﾓﾘｹﾝ","kana_city":"ｷﾀﾂｶﾞﾙｸﾞﾝｲﾀﾔﾅｷﾞﾏﾁ","kana_address":"ｶｼﾜｷﾞ","pref":"青森県","city":"北津軽郡板柳町","address":"柏木"},
{"zip_code":"0383633","kana_pref":"ｱｵﾓﾘｹﾝ","kana_city":"ｷﾀﾂｶﾞﾙｸﾞﾝｲﾀﾔﾅｷﾞﾏﾁ","kana_address":"ｷﾂﾈﾓﾘ","pref":"青森県","city":"北津軽郡板柳町","address":"狐森"},
{"zip_code":"0383636","kana_pref":"ｱｵﾓﾘｹﾝ","kana_city":"ｷﾀﾂｶﾞﾙｸﾞﾝｲﾀﾔﾅｷﾞﾏﾁ","kana_address":"ｺﾞｷｶﾞﾀ","pref":"青森県","city":"北津軽郡板柳町","address":"五幾形"},
{"zip_code":"0383673","kana_pref":"ｱｵﾓﾘｹﾝ","kana_city":"ｷﾀﾂｶﾞﾙｸﾞﾝｲﾀﾔﾅｷﾞﾏﾁ","kana_address":"ｺﾊﾀ","pref":"青森県","city":"北津軽郡板柳町","address":"小幡"},
{"zip_code":"0383621","kana_pref":"ｱｵﾓﾘｹﾝ","kana_city":"ｷﾀﾂｶﾞﾙｸﾞﾝｲﾀﾔﾅｷﾞﾏﾁ","kana_address":"ｺﾞﾘﾝﾀｲ","pref":"青森県","city":"北津軽郡板柳町","address":"五林平"},
{"zip_code":"0383684","kana_pref":"ｱｵﾓﾘｹﾝ","kana_city":"ｷﾀﾂｶﾞﾙｸﾞﾝｲﾀﾔﾅｷﾞﾏﾁ","kana_address":"ｻﾝｾﾞﾝｺﾞｸ","pref":"青森県","city":"北津軽郡板柳町","address":"三千石"},
{"zip_code":"0383623","kana_pref":"ｱｵﾓﾘｹﾝ","kana_city":"ｷﾀﾂｶﾞﾙｸﾞﾝｲﾀﾔﾅｷﾞﾏﾁ","kana_address":"ｼﾞｮｳｶｲﾊﾞｼ","pref":"青森県","city":"北津軽郡板柳町","address":"常海橋"},
{"zip_code":"0383634","kana_pref":"ｱｵﾓﾘｹﾝ","kana_city":"ｷﾀﾂｶﾞﾙｸﾞﾝｲﾀﾔﾅｷﾞﾏﾁ","kana_address":"ﾀｶﾏｽ","pref":"青森県","city":"北津軽郡板柳町","address":"高増"},
{"zip_code":"0383624","kana_pref":"ｱｵﾓﾘｹﾝ","kana_city":"ｷﾀﾂｶﾞﾙｸﾞﾝｲﾀﾔﾅｷﾞﾏﾁ","kana_address":"ﾀｷｲ","pref":"青森県","city":"北津軽郡板柳町","address":"滝井"},
{"zip_code":"0383625","kana_pref":"ｱｵﾓﾘｹﾝ","kana_city":"ｷﾀﾂｶﾞﾙｸﾞﾝｲﾀﾔﾅｷﾞﾏﾁ","kana_address":"ﾀﾃﾉｺｼ","pref":"青森県","city":"北津軽郡板柳町","address":"舘野越"},
{"zip_code":"0383645","kana_pref":"ｱｵﾓﾘｹﾝ","kana_city":"ｷﾀﾂｶﾞﾙｸﾞﾝｲﾀﾔﾅｷﾞﾏﾁ","kana_address":"ﾂｼﾞ","pref":"青森県","city":"北津軽郡板柳町","address":"辻"},
{"zip_code":"0383643","kana_pref":"ｱｵﾓﾘｹﾝ","kana_city":"ｷﾀﾂｶﾞﾙｸﾞﾝｲﾀﾔﾅｷﾞﾏﾁ","kana_address":"ﾅｶﾞﾉ","pref":"青森県","city":"北津軽郡板柳町","address":"長野"},
{"zip_code":"0383681","kana_pref":"ｱｵﾓﾘｹﾝ","kana_city":"ｷﾀﾂｶﾞﾙｸﾞﾝｲﾀﾔﾅｷﾞﾏﾁ","kana_address":"ﾉﾅｶ","pref":"青森県","city":"北津軽郡板柳町","address":"野中"},
{"zip_code":"0383672","kana_pref":"ｱｵﾓﾘｹﾝ","kana_city":"ｷﾀﾂｶﾞﾙｸﾞﾝｲﾀﾔﾅｷﾞﾏﾁ","kana_address":"ﾊｲﾇﾏ","pref":"青森県","city":"北津軽郡板柳町","address":"灰沼"},
{"zip_code":"0383641","kana_pref":"ｱｵﾓﾘｹﾝ","kana_city":"ｷﾀﾂｶﾞﾙｸﾞﾝｲﾀﾔﾅｷﾞﾏﾁ","kana_address":"ﾌｶﾐ","pref":"青森県","city":"北津軽郡板柳町","address":"深味"},
{"zip_code":"0383661","kana_pref":"ｱｵﾓﾘｹﾝ","kana_city":"ｷﾀﾂｶﾞﾙｸﾞﾝｲﾀﾔﾅｷﾞﾏﾁ","kana_address":"ﾌｸﾉﾀﾞ","pref":"青森県","city":"北津軽郡板柳町","address":"福野田"},
{"zip_code":"0383631","kana_pref":"ｱｵﾓﾘｹﾝ","kana_city":"ｷﾀﾂｶﾞﾙｸﾞﾝｲﾀﾔﾅｷﾞﾏﾁ","kana_address":"ﾎﾞﾀﾝﾓﾘ","pref":"青森県","city":"北津軽郡板柳町","address":"牡丹森"},
{"zip_code":"0383622","kana_pref":"ｱｵﾓﾘｹﾝ","kana_city":"ｷﾀﾂｶﾞﾙｸﾞﾝｲﾀﾔﾅｷﾞﾏﾁ","kana_address":"ﾕｳｶﾞｵｾﾞｷ","pref":"青森県","city":"北津軽郡板柳町","address":"夕顔関"},
{"zip_code":"0383644","kana_pref":"ｱｵﾓﾘｹﾝ","kana_city":"ｷﾀﾂｶﾞﾙｸﾞﾝｲﾀﾔﾅｷﾞﾏﾁ","kana_address":"ﾖｺｻﾜ","pref":"青森県","city":"北津軽郡板柳町","address":"横沢"},
{"zip_code":"0383500","kana_pref":"ｱｵﾓﾘｹﾝ","kana_city":"ｷﾀﾂｶﾞﾙｸﾞﾝﾂﾙﾀﾏﾁ","kana_address":"","pref":"青森県","city":"北津軽郡鶴田町","address":""},
{"zip_code":"0383501","kana_pref":"ｱｵﾓﾘｹﾝ","kana_city":"ｷﾀﾂｶﾞﾙｸﾞﾝﾂﾙﾀﾏﾁ","kana_address":"ｵｵﾏｷ","pref":"青森県","city":"北津軽郡鶴田町","address":"大巻"},
{"zip_code":"0383513","kana_pref":"ｱｵﾓﾘｹﾝ","kana_city":"ｷﾀﾂｶﾞﾙｸﾞﾝﾂﾙﾀﾏﾁ","kana_address":"ｵｷ","pref":"青森県","city":"北津軽郡鶴田町","address":"沖"},
{"zip_code":"0383541","kana_pref":"ｱｵﾓﾘｹﾝ","kana_city":"ｷﾀﾂｶﾞﾙｸﾞﾝﾂﾙﾀﾏﾁ","kana_address":"ｵﾊﾗ","pref":"青森県","city":"北津軽郡鶴田町","address":"尾原"},
{"zip_code":"0383531","kana_pref":"ｱｵﾓﾘｹﾝ","kana_city":"ｷﾀﾂｶﾞﾙｸﾞﾝﾂﾙﾀﾏﾁ","kana_address":"ｷﾂﾞﾂ","pref":"青森県","city":"北津軽郡鶴田町","address":"木筒"},
{"zip_code":"0383523","kana_pref":"ｱｵﾓﾘｹﾝ","kana_city":"ｷﾀﾂｶﾞﾙｸﾞﾝﾂﾙﾀﾏﾁ","kana_address":"ｸﾙﾐﾀﾞﾃ","pref":"青森県","city":"北津軽郡鶴田町","address":"胡桃舘"},
{"zip_code":"0383502","kana_pref":"ｱｵﾓﾘｹﾝ","kana_city":"ｷﾀﾂｶﾞﾙｸﾞﾝﾂﾙﾀﾏﾁ","kana_address":"ｺﾜﾏｷ","pref":"青森県","city":"北津軽郡鶴田町","address":"強巻"},
{"zip_code":"0383524","kana_pref":"ｱｵﾓﾘｹﾝ","kana_city":"ｷﾀﾂｶﾞﾙｸﾞﾝﾂﾙﾀﾏﾁ","kana_address":"ｻｶｲ","pref":"青森県","city":"北津軽郡鶴田町","address":"境"},
{"zip_code":"0383521","kana_pref":"ｱｵﾓﾘｹﾝ","kana_city":"ｷﾀﾂｶﾞﾙｸﾞﾝﾂﾙﾀﾏﾁ","kana_address":"ｼｮｳﾌﾞｶﾜ","pref":"青森県","city":"北津軽郡鶴田町","address":"菖蒲川"},
{"zip_code":"0383512","kana_pref":"ｱｵﾓﾘｹﾝ","kana_city":"ｷﾀﾂｶﾞﾙｸﾞﾝﾂﾙﾀﾏﾁ","kana_address":"ｾﾗｻﾞﾜ","pref":"青森県","city":"北津軽郡鶴田町","address":"瀬良沢"},
{"zip_code":"0383525","kana_pref":"ｱｵﾓﾘｹﾝ","kana_city":"ｷﾀﾂｶﾞﾙｸﾞﾝﾂﾙﾀﾏﾁ","kana_address":"ﾀﾞｲｼｮｳ","pref":"青森県","city":"北津軽郡鶴田町","address":"大性"},
{"zip_code":"0383503","kana_pref":"ｱｵﾓﾘｹﾝ","kana_city":"ｷﾀﾂｶﾞﾙｸﾞﾝﾂﾙﾀﾏﾁ","kana_address":"ﾂﾙﾀ","pref":"青森県","city":"北津軽郡鶴田町","address":"鶴田"},
{"zip_code":"0383522","kana_pref":"ｱｵﾓﾘｹﾝ","kana_city":"ｷﾀﾂｶﾞﾙｸﾞﾝﾂﾙﾀﾏﾁ","kana_address":"ﾂﾙﾄﾞﾏﾘ","pref":"青森県","city":"北津軽郡鶴田町","address":"鶴泊"},
{"zip_code":"0383514","kana_pref":"ｱｵﾓﾘｹﾝ","kana_city":"ｷﾀﾂｶﾞﾙｸﾞﾝﾂﾙﾀﾏﾁ","kana_address":"ﾅｶﾉ","pref":"青森県","city":"北津軽郡鶴田町","address":"中野"},
{"zip_code":"0383532","kana_pref":"ｱｵﾓﾘｹﾝ","kana_city":"ｷﾀﾂｶﾞﾙｸﾞﾝﾂﾙﾀﾏﾁ","kana_address":"ﾉｷﾞ","pref":"青森県","city":"北津軽郡鶴田町","address":"野木"},
{"zip_code":"0383542","kana_pref":"ｱｵﾓﾘｹﾝ","kana_city":"ｷﾀﾂｶﾞﾙｸﾞﾝﾂﾙﾀﾏﾁ","kana_address":"ﾏﾜﾘｾﾞｷ","pref":"青森県","city":"北津軽郡鶴田町","address":"廻堰"},
{"zip_code":"0383543","kana_pref":"ｱｵﾓﾘｹﾝ","kana_city":"ｷﾀﾂｶﾞﾙｸﾞﾝﾂﾙﾀﾏﾁ","kana_address":"ﾐｮｳﾄﾞｳｻﾞｷ","pref":"青森県","city":"北津軽郡鶴田町","address":"妙堂崎"},
{"zip_code":"0383515","kana_pref":"ｱｵﾓﾘｹﾝ","kana_city":"ｷﾀﾂｶﾞﾙｸﾞﾝﾂﾙﾀﾏﾁ","kana_address":"ﾔﾏﾐﾁ","pref":"青森県","city":"北津軽郡鶴田町","address":"山道"},
{"zip_code":"0383511","kana_pref":"ｱｵﾓﾘｹﾝ","kana_city":"ｷﾀﾂｶﾞﾙｸﾞﾝﾂﾙﾀﾏﾁ","kana_address":"ﾖｺﾔﾁ","pref":"青森県","city":"北津軽郡鶴田町","address":"横萢"}]}