{"zip_code":[
{"zip_code":"0393501","kana_pref":"ｱｵﾓﾘｹﾝ","kana_city":"ｱｵﾓﾘｼ","kana_address":"ｱｻﾑｼ","pref":"青森県","city":"青森市","address":"浅虫"},
{"zip_code":"0393502","kana_pref":"ｱｵﾓﾘｹﾝ","kana_city":"ｱｵﾓﾘｼ","kana_address":"ｸｸﾞﾘｻﾞｶ","pref":"青森県","city":"青森市","address":"久栗坂"},
{"zip_code":"0393506","kana_pref":"ｱｵﾓﾘｹﾝ","kana_city":"ｱｵﾓﾘｼ","kana_address":"ｻﾝﾎﾞﾝｷﾞ","pref":"青森県","city":"青森市","address":"三本木"},
{"zip_code":"0393524","kana_pref":"ｱｵﾓﾘｹﾝ","kana_city":"ｱｵﾓﾘｼ","kana_address":"ﾀｷｻﾜ","pref":"青森県","city":"青森市","address":"滝沢"},
{"zip_code":"0393503","kana_pref":"ｱｵﾓﾘｹﾝ","kana_city":"ｱｵﾓﾘｼ","kana_address":"ﾉﾅｲ","pref":"青森県","city":"青森市","address":"野内"},
{"zip_code":"0393507","kana_pref":"ｱｵﾓﾘｹﾝ","kana_city":"ｱｵﾓﾘｼ","kana_address":"ﾏﾔｼﾞﾘ","pref":"青森県","city":"青森市","address":"馬屋尻"},
{"zip_code":"0393505","kana_pref":"ｱｵﾓﾘｹﾝ","kana_city":"ｱｵﾓﾘｼ","kana_address":"ﾐﾔﾀ","pref":"青森県","city":"青森市","address":"宮田"},
{"zip_code":"0393504","kana_pref":"ｱｵﾓﾘｹﾝ","kana_city":"ｱｵﾓﾘｼ","kana_address":"ﾔﾀﾞ","pref":"青森県","city":"青森市","address":"矢田"},
{"zip_code":"0391165","kana_pref":"ｱｵﾓﾘｹﾝ","kana_city":"ﾊﾁﾉﾍｼ","kana_address":"ｲｼﾄﾞｳ","pref":"青森県","city":"八戸市","address":"石堂"},
{"zip_code":"0392241","kana_pref":"ｱｵﾓﾘｹﾝ","kana_city":"ﾊﾁﾉﾍｼ","kana_address":"ｲﾁｶﾜﾏﾁ","pref":"青森県","city":"八戸市","address":"市川町"},
{"zip_code":"0391102","kana_pref":"ｱｵﾓﾘｹﾝ","kana_city":"ﾊﾁﾉﾍｼ","kana_address":"ｲﾁﾊﾞﾝﾁｮｳ","pref":"青森県","city":"八戸市","address":"一番町"},
{"zip_code":"0391108","kana_pref":"ｱｵﾓﾘｹﾝ","kana_city":"ﾊﾁﾉﾍｼ","kana_address":"ｳﾜﾉ","pref":"青森県","city":"八戸市","address":"上野"},
{"zip_code":"0391121","kana_pref":"ｱｵﾓﾘｹﾝ","kana_city":"ﾊﾁﾉﾍｼ","kana_address":"ｵﾛｼｾﾝﾀｰ","pref":"青森県","city":"八戸市","address":"卸センター"},
{"zip_code":"0391161","kana_pref":"ｱｵﾓﾘｹﾝ","kana_city":"ﾊﾁﾉﾍｼ","kana_address":"ｶﾜﾗｷﾞ","pref":"青森県","city":"八戸市","address":"河原木"},
{"zip_code":"0392246","kana_pref":"ｱｵﾓﾘｹﾝ","kana_city":"ﾊﾁﾉﾍｼ","kana_address":"ｷｷｮｳﾉｺｳｷﾞｮｳﾀﾞﾝﾁ","pref":"青森県","city":"八戸市","address":"桔梗野工業団地"},
{"zip_code":"0392245","kana_pref":"ｱｵﾓﾘｹﾝ","kana_city":"ﾊﾁﾉﾍｼ","kana_address":"ｷﾀｲﾝﾀｰｺｳｷﾞｮｳﾀﾞﾝﾁ","pref":"青森県","city":"八戸市","address":"北インター工業団地"},
{"zip_code":"0391114","kana_pref":"ｱｵﾓﾘｹﾝ","kana_city":"ﾊﾁﾉﾍｼ","kana_address":"ｷﾀﾊｸｻﾝﾀﾞｲ","pref":"青森県","city":"八戸市","address":"北白山台"},
{"zip_code":"0391107","kana_pref":"ｱｵﾓﾘｹﾝ","kana_city":"ﾊﾁﾉﾍｼ","kana_address":"ｸｼﾋﾞｷ","pref":"青森県","city":"八戸市","address":"櫛引"},
{"zip_code":"0391160","kana_pref":"ｱｵﾓﾘｹﾝ","kana_city":"ﾊﾁﾉﾍｼ","kana_address":"ｺﾀﾞ","pref":"青森県","city":"八戸市","address":"小田"},
{"zip_code":"0391106","kana_pref":"ｱｵﾓﾘｹﾝ","kana_city":"ﾊﾁﾉﾍｼ","kana_address":"ｻｶｳｼ","pref":"青森県","city":"八戸市","address":"坂牛"},
{"zip_code":"0391167","kana_pref":"ｱｵﾓﾘｹﾝ","kana_city":"ﾊﾁﾉﾍｼ","kana_address":"ｻﾜｻﾄ","pref":"青森県","city":"八戸市","address":"沢里"},
{"zip_code":"0391164","kana_pref":"ｱｵﾓﾘｹﾝ","kana_city":"ﾊﾁﾉﾍｼ","kana_address":"ｼﾓﾅｶﾞ","pref":"青森県","city":"八戸市","address":"下長"},
{"zip_code":"0391101","kana_pref":"ｱｵﾓﾘｹﾝ","kana_city":"ﾊﾁﾉﾍｼ","kana_address":"ｼﾘｳﾁﾏﾁ","pref":"青森県","city":"八戸市","address":"尻内町"},
{"zip_code":"0391163","kana_pref":"ｱｵﾓﾘｹﾝ","kana_city":"ﾊﾁﾉﾍｼ","kana_address":"ﾀｶｽ","pref":"青森県","city":"八戸市","address":"高州"},
{"zip_code":"0392242","kana_pref":"ｱｵﾓﾘｹﾝ","kana_city":"ﾊﾁﾉﾍｼ","kana_address":"ﾀｶﾞﾀﾞｲ","pref":"青森県","city":"八戸市","address":"多賀台"},
{"zip_code":"0391104","kana_pref":"ｱｵﾓﾘｹﾝ","kana_city":"ﾊﾁﾉﾍｼ","kana_address":"ﾀﾓﾉｷ","pref":"青森県","city":"八戸市","address":"田面木"},
{"zip_code":"0391109","kana_pref":"ｱｵﾓﾘｹﾝ","kana_city":"ﾊﾁﾉﾍｼ","kana_address":"ﾄﾖｻｷﾏﾁ","pref":"青森県","city":"八戸市","address":"豊崎町"},
{"zip_code":"0391162","kana_pref":"ｱｵﾓﾘｹﾝ","kana_city":"ﾊﾁﾉﾍｼ","kana_address":"ﾄﾖｽ","pref":"青森県","city":"八戸市","address":"豊洲"},
{"zip_code":"0391103","kana_pref":"ｱｵﾓﾘｹﾝ","kana_city":"ﾊﾁﾉﾍｼ","kana_address":"ﾅｶﾞﾅﾜｼﾛ","pref":"青森県","city":"八戸市","address":"長苗代"},
{"zip_code":"0391113","kana_pref":"ｱｵﾓﾘｹﾝ","kana_city":"ﾊﾁﾉﾍｼ","kana_address":"ﾆｼﾊｸｻﾝﾀﾞｲ","pref":"青森県","city":"八戸市","address":"西白山台"},
{"zip_code":"0391166","kana_pref":"ｱｵﾓﾘｹﾝ","kana_city":"ﾊﾁﾉﾍｼ","kana_address":"ﾈｼﾞｮｳ","pref":"青森県","city":"八戸市","address":"根城"},
{"zip_code":"0391168","kana_pref":"ｱｵﾓﾘｹﾝ","kana_city":"ﾊﾁﾉﾍｼ","kana_address":"ﾊｯﾀﾛｳ","pref":"青森県","city":"八戸市","address":"八太郎"},
{"zip_code":"0391111","kana_pref":"ｱｵﾓﾘｹﾝ","kana_city":"ﾊﾁﾉﾍｼ","kana_address":"ﾋｶﾞｼﾊｸｻﾝﾀﾞｲ","pref":"青森県","city":"八戸市","address":"東白山台"},
{"zip_code":"0391169","kana_pref":"ｱｵﾓﾘｹﾝ","kana_city":"ﾊﾁﾉﾍｼ","kana_address":"ﾋﾊﾞｶﾘ","pref":"青森県","city":"八戸市","address":"日計"},
{"zip_code":"0392243","kana_pref":"ｱｵﾓﾘｹﾝ","kana_city":"ﾊﾁﾉﾍｼ","kana_address":"ﾏﾂｶﾞｵｶ","pref":"青森県","city":"八戸市","address":"松ケ丘"},
{"zip_code":"0391112","kana_pref":"ｱｵﾓﾘｹﾝ","kana_city":"ﾊﾁﾉﾍｼ","kana_address":"ﾐﾅﾐﾊｸｻﾝﾀﾞｲ","pref":"青森県","city":"八戸市","address":"南白山台"},
{"zip_code":"0391105","kana_pref":"ｱｵﾓﾘｹﾝ","kana_city":"ﾊﾁﾉﾍｼ","kana_address":"ﾔﾜﾀ","pref":"青森県","city":"八戸市","address":"八幡"},
{"zip_code":"0394401","kana_pref":"ｱｵﾓﾘｹﾝ","kana_city":"ﾑﾂｼ","kana_address":"ｵｵﾊﾀﾏﾁ","pref":"青森県","city":"むつ市","address":"大畑町"},
{"zip_code":"0394402","kana_pref":"ｱｵﾓﾘｹﾝ","kana_city":"ﾑﾂｼ","kana_address":"ｵｵﾊﾀﾏﾁｼｮｳﾂﾞｶﾞﾜ","pref":"青森県","city":"むつ市","address":"大畑町正津川"},
{"zip_code":"0395204","kana_pref":"ｱｵﾓﾘｹﾝ","kana_city":"ﾑﾂｼ","kana_address":"ｶﾜｳﾁﾏﾁｶｷｻﾞｷ","pref":"青森県","city":"むつ市","address":"川内町蛎崎"},
{"zip_code":"0395304","kana_pref":"ｱｵﾓﾘｹﾝ","kana_city":"ﾑﾂｼ","kana_address":"ｶﾜｳﾁﾏﾁｶｷｻﾞｷ","pref":"青森県","city":"むつ市","address":"川内町蛎崎"},
{"zip_code":"0395203","kana_pref":"ｱｵﾓﾘｹﾝ","kana_city":"ﾑﾂｼ","kana_address":"ｶﾜｳﾁﾏﾁｼｭｸﾉﾍ","pref":"青森県","city":"むつ市","address":"川内町宿野部"},
{"zip_code":"0395202","kana_pref":"ｱｵﾓﾘｹﾝ","kana_city":"ﾑﾂｼ","kana_address":"ｶﾜｳﾁﾏﾁﾋﾉｷｶﾞﾜ","pref":"青森県","city":"むつ市","address":"川内町桧川"},
{"zip_code":"0394701","kana_pref":"ｱｵﾓﾘｹﾝ","kana_city":"ﾑﾂｼ","kana_address":"ｶﾜｳﾁﾏﾁ","pref":"青森県","city":"むつ市","address":"川内町"},
{"zip_code":"0395201","kana_pref":"ｱｵﾓﾘｹﾝ","kana_city":"ﾑﾂｼ","kana_address":"ｶﾜｳﾁﾏﾁ","pref":"青森県","city":"むつ市","address":"川内町"},
{"zip_code":"0395345","kana_pref":"ｱｵﾓﾘｹﾝ","kana_city":"ﾑﾂｼ","kana_address":"ﾜｷﾉｻﾜｱｶｻｶ","pref":"青森県","city":"むつ市","address":"脇野沢赤坂"},
{"zip_code":"0395344","kana_pref":"ｱｵﾓﾘｹﾝ","kana_city":"ﾑﾂｼ","kana_address":"ﾜｷﾉｻﾜｲﾅﾀﾞｲﾗ","pref":"青森県","city":"むつ市","address":"脇野沢稲平"},
{"zip_code":"0395326","kana_pref":"ｱｵﾓﾘｹﾝ","kana_city":"ﾑﾂｼ","kana_address":"ﾜｷﾉｻﾜｶﾂﾗｻﾞﾜ","pref":"青森県","city":"むつ市","address":"脇野沢桂沢"},
{"zip_code":"0395335","kana_pref":"ｱｵﾓﾘｹﾝ","kana_city":"ﾑﾂｼ","kana_address":"ﾜｷﾉｻﾜｷﾅﾐ","pref":"青森県","city":"むつ市","address":"脇野沢寄浪"},
{"zip_code":"0395337","kana_pref":"ｱｵﾓﾘｹﾝ","kana_city":"ﾑﾂｼ","kana_address":"ﾜｷﾉｻﾜｸｿｳﾄﾞﾏﾘ","pref":"青森県","city":"むつ市","address":"脇野沢九艘泊"},
{"zip_code":"0395346","kana_pref":"ｱｵﾓﾘｹﾝ","kana_city":"ﾑﾂｼ","kana_address":"ﾜｷﾉｻﾜｸﾁﾋﾛ","pref":"青森県","city":"むつ市","address":"脇野沢口広"},
{"zip_code":"0395333","kana_pref":"ｱｵﾓﾘｹﾝ","kana_city":"ﾑﾂｼ","kana_address":"ﾜｷﾉｻﾜｸﾛｲﾜ","pref":"青森県","city":"むつ市","address":"脇野沢黒岩"},
{"zip_code":"0395321","kana_pref":"ｱｵﾓﾘｹﾝ","kana_city":"ﾑﾂｼ","kana_address":"ﾜｷﾉｻﾜｹﾞﾝﾄﾞｳｼﾛ","pref":"青森県","city":"むつ市","address":"脇野沢源藤城"},
{"zip_code":"0395343","kana_pref":"ｱｵﾓﾘｹﾝ","kana_city":"ﾑﾂｼ","kana_address":"ﾜｷﾉｻﾜｺｻｻﾜ","pref":"青森県","city":"むつ市","address":"脇野沢小サ沢"},
{"zip_code":"0395342","kana_pref":"ｱｵﾓﾘｹﾝ","kana_city":"ﾑﾂｼ","kana_address":"ﾜｷﾉｻﾜｺｻﾞﾜ","pref":"青森県","city":"むつ市","address":"脇野沢小沢"},
{"zip_code":"0395341","kana_pref":"ｱｵﾓﾘｹﾝ","kana_city":"ﾑﾂｼ","kana_address":"ﾜｷﾉｻﾜｼｶﾏﾀﾞｲﾗ","pref":"青森県","city":"むつ市","address":"脇野沢鹿間平"},
{"zip_code":"0395323","kana_pref":"ｱｵﾓﾘｹﾝ","kana_city":"ﾑﾂｼ","kana_address":"ﾜｷﾉｻﾜｼﾁﾋﾞｷ","pref":"青森県","city":"むつ市","address":"脇野沢七引"},
{"zip_code":"0395332","kana_pref":"ｱｵﾓﾘｹﾝ","kana_city":"ﾑﾂｼ","kana_address":"ﾜｷﾉｻﾜｾﾉｶﾜﾒ","pref":"青森県","city":"むつ市","address":"脇野沢瀬野川目"},
{"zip_code":"0395322","kana_pref":"ｱｵﾓﾘｹﾝ","kana_city":"ﾑﾂｼ","kana_address":"ﾜｷﾉｻﾜﾀｷﾔﾏ","pref":"青森県","city":"むつ市","address":"脇野沢滝山"},
{"zip_code":"0395336","kana_pref":"ｱｵﾓﾘｹﾝ","kana_city":"ﾑﾂｼ","kana_address":"ﾜｷﾉｻﾜﾀｺﾀﾞ","pref":"青森県","city":"むつ市","address":"脇野沢蛸田"},
{"zip_code":"0395325","kana_pref":"ｱｵﾓﾘｹﾝ","kana_city":"ﾑﾂｼ","kana_address":"ﾜｷﾉｻﾜﾀﾂｳﾁ","pref":"青森県","city":"むつ市","address":"脇野沢辰内"},
{"zip_code":"0395324","kana_pref":"ｱｵﾓﾘｹﾝ","kana_city":"ﾑﾂｼ","kana_address":"ﾜｷﾉｻﾜﾀﾉｶｼﾗ","pref":"青森県","city":"むつ市","address":"脇野沢田ノ頭"},
{"zip_code":"0395334","kana_pref":"ｱｵﾓﾘｹﾝ","kana_city":"ﾑﾂｼ","kana_address":"ﾜｷﾉｻﾜﾆｲﾀﾞ","pref":"青森県","city":"むつ市","address":"脇野沢新井田"},
{"zip_code":"0395327","kana_pref":"ｱｵﾓﾘｹﾝ","kana_city":"ﾑﾂｼ","kana_address":"ﾜｷﾉｻﾜﾎﾝｿﾝ","pref":"青森県","city":"むつ市","address":"脇野沢本村"},
{"zip_code":"0395331","kana_pref":"ｱｵﾓﾘｹﾝ","kana_city":"ﾑﾂｼ","kana_address":"ﾜｷﾉｻﾜﾜﾀﾑｶｲ","pref":"青森県","city":"むつ市","address":"脇野沢渡向"},
{"zip_code":"0393300","kana_pref":"ｱｵﾓﾘｹﾝ","kana_city":"ﾋｶﾞｼﾂｶﾞﾙｸﾞﾝﾋﾗﾅｲﾏﾁ","kana_address":"","pref":"青森県","city":"東津軽郡平内町","address":""},
{"zip_code":"0393312","kana_pref":"ｱｵﾓﾘｹﾝ","kana_city":"ﾋｶﾞｼﾂｶﾞﾙｸﾞﾝﾋﾗﾅｲﾏﾁ","kana_address":"ｱｻﾄﾞｺﾛ","pref":"青森県","city":"東津軽郡平内町","address":"浅所"},
{"zip_code":"0393364","kana_pref":"ｱｵﾓﾘｹﾝ","kana_city":"ﾋｶﾞｼﾂｶﾞﾙｸﾞﾝﾋﾗﾅｲﾏﾁ","kana_address":"ｱｽﾞｷｻﾜ","pref":"青森県","city":"東津軽郡平内町","address":"小豆沢"},
{"zip_code":"0393382","kana_pref":"ｱｵﾓﾘｹﾝ","kana_city":"ﾋｶﾞｼﾂｶﾞﾙｸﾞﾝﾋﾗﾅｲﾏﾁ","kana_address":"ｲﾉｳ","pref":"青森県","city":"東津軽郡平内町","address":"稲生"},
{"zip_code":"0393352","kana_pref":"ｱｵﾓﾘｹﾝ","kana_city":"ﾋｶﾞｼﾂｶﾞﾙｸﾞﾝﾋﾗﾅｲﾏﾁ","kana_address":"ｳﾁﾄﾞｳｼﾞ","pref":"青森県","city":"東津軽郡平内町","address":"内童子"},
{"zip_code":"0393343","kana_pref":"ｱｵﾓﾘｹﾝ","kana_city":"ﾋｶﾞｼﾂｶﾞﾙｸﾞﾝﾋﾗﾅｲﾏﾁ","kana_address":"ｶﾘﾊﾞｻﾜ","pref":"青森県","city":"東津軽郡平内町","address":"狩場沢"},
{"zip_code":"0393342","kana_pref":"ｱｵﾓﾘｹﾝ","kana_city":"ﾋｶﾞｼﾂｶﾞﾙｸﾞﾝﾋﾗﾅｲﾏﾁ","kana_address":"ｸﾁﾋﾛ","pref":"青森県","city":"東津軽郡平内町","address":"口広"},
{"zip_code":"0393321","kana_pref":"ｱｵﾓﾘｹﾝ","kana_city":"ﾋｶﾞｼﾂｶﾞﾙｸﾞﾝﾋﾗﾅｲﾏﾁ","kana_address":"ｺﾐﾅﾄ","pref":"青森県","city":"東津軽郡平内町","address":"小湊"},
{"zip_code":"0393332","kana_pref":"ｱｵﾓﾘｹﾝ","kana_city":"ﾋｶﾞｼﾂｶﾞﾙｸﾞﾝﾋﾗﾅｲﾏﾁ","kana_address":"ｼﾐｽﾞｶﾞﾜ","pref":"青森県","city":"東津軽郡平内町","address":"清水川"},
{"zip_code":"0393302","kana_pref":"ｱｵﾓﾘｹﾝ","kana_city":"ﾋｶﾞｼﾂｶﾞﾙｸﾞﾝﾋﾗﾅｲﾏﾁ","kana_address":"ｼﾗｽ","pref":"青森県","city":"東津軽郡平内町","address":"白砂"},
{"zip_code":"0393351","kana_pref":"ｱｵﾓﾘｹﾝ","kana_city":"ﾋｶﾞｼﾂｶﾞﾙｸﾞﾝﾋﾗﾅｲﾏﾁ","kana_address":"ｿﾄﾄﾞｳｼﾞ","pref":"青森県","city":"東津軽郡平内町","address":"外童子"},
{"zip_code":"0393353","kana_pref":"ｱｵﾓﾘｹﾝ","kana_city":"ﾋｶﾞｼﾂｶﾞﾙｸﾞﾝﾋﾗﾅｲﾏﾁ","kana_address":"ﾀﾓｷﾞ","pref":"青森県","city":"東津軽郡平内町","address":"田茂木"},
{"zip_code":"0393372","kana_pref":"ｱｵﾓﾘｹﾝ","kana_city":"ﾋｶﾞｼﾂｶﾞﾙｸﾞﾝﾋﾗﾅｲﾏﾁ","kana_address":"ﾂﾁﾔ","pref":"青森県","city":"東津軽郡平内町","address":"土屋"},
{"zip_code":"0393371","kana_pref":"ｱｵﾓﾘｹﾝ","kana_city":"ﾋｶﾞｼﾂｶﾞﾙｸﾞﾝﾋﾗﾅｲﾏﾁ","kana_address":"ﾅｶﾉ","pref":"青森県","city":"東津軽郡平内町","address":"中野"},
{"zip_code":"0393373","kana_pref":"ｱｵﾓﾘｹﾝ","kana_city":"ﾋｶﾞｼﾂｶﾞﾙｸﾞﾝﾋﾗﾅｲﾏﾁ","kana_address":"ﾅﾐｳﾁ","pref":"青森県","city":"東津軽郡平内町","address":"浪打"},
{"zip_code":"0393313","kana_pref":"ｱｵﾓﾘｹﾝ","kana_city":"ﾋｶﾞｼﾂｶﾞﾙｸﾞﾝﾋﾗﾅｲﾏﾁ","kana_address":"ﾇﾏﾀﾞﾃ","pref":"青森県","city":"東津軽郡平内町","address":"沼館"},
{"zip_code":"0393331","kana_pref":"ｱｵﾓﾘｹﾝ","kana_city":"ﾋｶﾞｼﾂｶﾞﾙｸﾞﾝﾋﾗﾅｲﾏﾁ","kana_address":"ﾊﾏｺﾞ","pref":"青森県","city":"東津軽郡平内町","address":"浜子"},
{"zip_code":"0393303","kana_pref":"ｱｵﾓﾘｹﾝ","kana_city":"ﾋｶﾞｼﾂｶﾞﾙｸﾞﾝﾋﾗﾅｲﾏﾁ","kana_address":"ﾋｶﾞｼﾀｷ","pref":"青森県","city":"東津軽郡平内町","address":"東滝"},
{"zip_code":"0393301","kana_pref":"ｱｵﾓﾘｹﾝ","kana_city":"ﾋｶﾞｼﾂｶﾞﾙｸﾞﾝﾋﾗﾅｲﾏﾁ","kana_address":"ﾋｶﾞｼﾀｻﾞﾜ","pref":"青森県","city":"東津軽郡平内町","address":"東田沢"},
{"zip_code":"0393315","kana_pref":"ｱｵﾓﾘｹﾝ","kana_city":"ﾋｶﾞｼﾂｶﾞﾙｸﾞﾝﾋﾗﾅｲﾏﾁ","kana_address":"ﾌｸｼﾏ","pref":"青森県","city":"東津軽郡平内町","address":"福島"},
{"zip_code":"0393311","kana_pref":"ｱｵﾓﾘｹﾝ","kana_city":"ﾋｶﾞｼﾂｶﾞﾙｸﾞﾝﾋﾗﾅｲﾏﾁ","kana_address":"ﾌｸﾀﾞﾃ","pref":"青森県","city":"東津軽郡平内町","address":"福館"},
{"zip_code":"0393361","kana_pref":"ｱｵﾓﾘｹﾝ","kana_city":"ﾋｶﾞｼﾂｶﾞﾙｸﾞﾝﾋﾗﾅｲﾏﾁ","kana_address":"ﾌｼﾞｻﾜ","pref":"青森県","city":"東津軽郡平内町","address":"藤沢"},
{"zip_code":"0393362","kana_pref":"ｱｵﾓﾘｹﾝ","kana_city":"ﾋｶﾞｼﾂｶﾞﾙｸﾞﾝﾋﾗﾅｲﾏﾁ","kana_address":"ﾏｽﾀ","pref":"青森県","city":"東津軽郡平内町","address":"増田"},
{"zip_code":"0393333","kana_pref":"ｱｵﾓﾘｹﾝ","kana_city":"ﾋｶﾞｼﾂｶﾞﾙｸﾞﾝﾋﾗﾅｲﾏﾁ","kana_address":"ﾏﾂﾉｷ","pref":"青森県","city":"東津軽郡平内町","address":"松野木"},
{"zip_code":"0393381","kana_pref":"ｱｵﾓﾘｹﾝ","kana_city":"ﾋｶﾞｼﾂｶﾞﾙｸﾞﾝﾋﾗﾅｲﾏﾁ","kana_address":"ﾓｳﾗ","pref":"青森県","city":"東津軽郡平内町","address":"茂浦"},
{"zip_code":"0393314","kana_pref":"ｱｵﾓﾘｹﾝ","kana_city":"ﾋｶﾞｼﾂｶﾞﾙｸﾞﾝﾋﾗﾅｲﾏﾁ","kana_address":"ﾓﾘﾀ","pref":"青森県","city":"東津軽郡平内町","address":"盛田"},
{"zip_code":"0393341","kana_pref":"ｱｵﾓﾘｹﾝ","kana_city":"ﾋｶﾞｼﾂｶﾞﾙｸﾞﾝﾋﾗﾅｲﾏﾁ","kana_address":"ﾔｸｼﾉ","pref":"青森県","city":"東津軽郡平内町","address":"薬師野"},
{"zip_code":"0393363","kana_pref":"ｱｵﾓﾘｹﾝ","kana_city":"ﾋｶﾞｼﾂｶﾞﾙｸﾞﾝﾋﾗﾅｲﾏﾁ","kana_address":"ﾔﾏｸﾞﾁ","pref":"青森県","city":"東津軽郡平内町","address":"山口"},
{"zip_code":"0393100","kana_pref":"ｱｵﾓﾘｹﾝ","kana_city":"ｶﾐｷﾀｸﾞﾝﾉﾍｼﾞﾏﾁ","kana_address":"","pref":"青森県","city":"上北郡野辺地町","address":""},
{"zip_code":"0393116","kana_pref":"ｱｵﾓﾘｹﾝ","kana_city":"ｶﾐｷﾀｸﾞﾝﾉﾍｼﾞﾏﾁ","kana_address":"ｱｶｻｶ","pref":"青森県","city":"上北郡野辺地町","address":"赤坂"},
{"zip_code":"0393108","kana_pref":"ｱｵﾓﾘｹﾝ","kana_city":"ｶﾐｷﾀｸﾞﾝﾉﾍｼﾞﾏﾁ","kana_address":"ｱﾘﾄ","pref":"青森県","city":"上北郡野辺地町","address":"有戸"},
{"zip_code":"0393105","kana_pref":"ｱｵﾓﾘｹﾝ","kana_city":"ｶﾐｷﾀｸﾞﾝﾉﾍｼﾞﾏﾁ","kana_address":"ｱﾘﾄﾄﾘｲﾀｲ","pref":"青森県","city":"上北郡野辺地町","address":"有戸鳥井平"},
{"zip_code":"0393178","kana_pref":"ｱｵﾓﾘｹﾝ","kana_city":"ｶﾐｷﾀｸﾞﾝﾉﾍｼﾞﾏﾁ","kana_address":"ｲｴﾉｳｴ","pref":"青森県","city":"上北郡野辺地町","address":"家ノ上"},
{"zip_code":"0393111","kana_pref":"ｱｵﾓﾘｹﾝ","kana_city":"ｶﾐｷﾀｸﾞﾝﾉﾍｼﾞﾏﾁ","kana_address":"ｲｼｶﾞﾐｳﾗ","pref":"青森県","city":"上北郡野辺地町","address":"石神裏"},
{"zip_code":"0393144","kana_pref":"ｱｵﾓﾘｹﾝ","kana_city":"ｶﾐｷﾀｸﾞﾝﾉﾍｼﾞﾏﾁ","kana_address":"ｲﾁﾉﾜﾀﾘ","pref":"青森県","city":"上北郡野辺地町","address":"一ノ渡"},
{"zip_code":"0393174","kana_pref":"ｱｵﾓﾘｹﾝ","kana_city":"ｶﾐｷﾀｸﾞﾝﾉﾍｼﾞﾏﾁ","kana_address":"ｵｵﾀﾞｲｼﾀ","pref":"青森県","city":"上北郡野辺地町","address":"大平下"},
{"zip_code":"0393104","kana_pref":"ｱｵﾓﾘｹﾝ","kana_city":"ｶﾐｷﾀｸﾞﾝﾉﾍｼﾞﾏﾁ","kana_address":"ｵｵﾂｷﾀｲ","pref":"青森県","city":"上北郡野辺地町","address":"大月平"},
{"zip_code":"0393107","kana_pref":"ｱｵﾓﾘｹﾝ","kana_city":"ｶﾐｷﾀｸﾞﾝﾉﾍｼﾞﾏﾁ","kana_address":"ｵｻﾞﾜﾀﾞｲ","pref":"青森県","city":"上北郡野辺地町","address":"小沢平"},
{"zip_code":"0393106","kana_pref":"ｱｵﾓﾘｹﾝ","kana_city":"ｶﾐｷﾀｸﾞﾝﾉﾍｼﾞﾏﾁ","kana_address":"ｶﾆﾀ","pref":"青森県","city":"上北郡野辺地町","address":"蟹田"},
{"zip_code":"0393174","kana_pref":"ｱｵﾓﾘｹﾝ","kana_city":"ｶﾐｷﾀｸﾞﾝﾉﾍｼﾞﾏﾁ","kana_address":"ｶﾐｶﾄﾞｶﾞｼﾗ","pref":"青森県","city":"上北郡野辺地町","address":"上河渡頭"},
{"zip_code":"0393127","kana_pref":"ｱｵﾓﾘｹﾝ","kana_city":"ｶﾐｷﾀｸﾞﾝﾉﾍｼﾞﾏﾁ","kana_address":"ｶﾐｶﾜﾗ","pref":"青森県","city":"上北郡野辺地町","address":"上川原"},
{"zip_code":"0393154","kana_pref":"ｱｵﾓﾘｹﾝ","kana_city":"ｶﾐｷﾀｸﾞﾝﾉﾍｼﾞﾏﾁ","kana_address":"ｶﾐｺﾅｶﾉ","pref":"青森県","city":"上北郡野辺地町","address":"上小中野"},
{"zip_code":"0393128","kana_pref":"ｱｵﾓﾘｹﾝ","kana_city":"ｶﾐｷﾀｸﾞﾝﾉﾍｼﾞﾏﾁ","kana_address":"ｶﾐﾏｴﾀﾞ","pref":"青森県","city":"上北郡野辺地町","address":"上前田"},
{"zip_code":"0393171","kana_pref":"ｱｵﾓﾘｹﾝ","kana_city":"ｶﾐｷﾀｸﾞﾝﾉﾍｼﾞﾏﾁ","kana_address":"ｶﾐﾐﾀﾗｾ","pref":"青森県","city":"上北郡野辺地町","address":"上御手洗瀬"},
{"zip_code":"0393143","kana_pref":"ｱｵﾓﾘｹﾝ","kana_city":"ｶﾐｷﾀｸﾞﾝﾉﾍｼﾞﾏﾁ","kana_address":"ｶﾜﾒ","pref":"青森県","city":"上北郡野辺地町","address":"川目"},
{"zip_code":"0393158","kana_pref":"ｱｵﾓﾘｹﾝ","kana_city":"ｶﾐｷﾀｸﾞﾝﾉﾍｼﾞﾏﾁ","kana_address":"ｶﾝﾉﾝﾊﾞﾔｼｳｼﾛ","pref":"青森県","city":"上北郡野辺地町","address":"観音林後"},
{"zip_code":"0393165","kana_pref":"ｱｵﾓﾘｹﾝ","kana_city":"ｶﾐｷﾀｸﾞﾝﾉﾍｼﾞﾏﾁ","kana_address":"ｶﾝﾉﾝﾊﾞﾔｼﾏｴﾀﾞ","pref":"青森県","city":"上北郡野辺地町","address":"観音林前田"},
{"zip_code":"0393159","kana_pref":"ｱｵﾓﾘｹﾝ","kana_city":"ｶﾐｷﾀｸﾞﾝﾉﾍｼﾞﾏﾁ","kana_address":"ｶﾝﾉﾝﾊﾞﾔｼﾜｷ","pref":"青森県","city":"上北郡野辺地町","address":"観音林脇"},
{"zip_code":"0393105","kana_pref":"ｱｵﾓﾘｹﾝ","kana_city":"ｶﾐｷﾀｸﾞﾝﾉﾍｼﾞﾏﾁ","kana_address":"ｷﾐｮｳ","pref":"青森県","city":"上北郡野辺地町","address":"木明"},
{"zip_code":"0393155","kana_pref":"ｱｵﾓﾘｹﾝ","kana_city":"ｶﾐｷﾀｸﾞﾝﾉﾍｼﾞﾏﾁ","kana_address":"ｷﾘｱｹ","pref":"青森県","city":"上北郡野辺地町","address":"切明"},
{"zip_code":"0393142","kana_pref":"ｱｵﾓﾘｹﾝ","kana_city":"ｶﾐｷﾀｸﾞﾝﾉﾍｼﾞﾏﾁ","kana_address":"ｸﾝﾃﾞﾝ","pref":"青森県","city":"上北郡野辺地町","address":"久田"},
{"zip_code":"0393162","kana_pref":"ｱｵﾓﾘｹﾝ","kana_city":"ｶﾐｷﾀｸﾞﾝﾉﾍｼﾞﾏﾁ","kana_address":"ｻｻﾀﾞﾃ","pref":"青森県","city":"上北郡野辺地町","address":"笹館"},
{"zip_code":"0393157","kana_pref":"ｱｵﾓﾘｹﾝ","kana_city":"ｶﾐｷﾀｸﾞﾝﾉﾍｼﾞﾏﾁ","kana_address":"ｼｼｻﾞﾜ","pref":"青森県","city":"上北郡野辺地町","address":"獅子沢"},
{"zip_code":"0393108","kana_pref":"ｱｵﾓﾘｹﾝ","kana_city":"ｶﾐｷﾀｸﾞﾝﾉﾍｼﾞﾏﾁ","kana_address":"ｼﾀﾐﾁ","pref":"青森県","city":"上北郡野辺地町","address":"下道"},
{"zip_code":"0393177","kana_pref":"ｱｵﾓﾘｹﾝ","kana_city":"ｶﾐｷﾀｸﾞﾝﾉﾍｼﾞﾏﾁ","kana_address":"ｼﾊﾞｻｷ","pref":"青森県","city":"上北郡野辺地町","address":"柴崎"},
{"zip_code":"0393174","kana_pref":"ｱｵﾓﾘｹﾝ","kana_city":"ｶﾐｷﾀｸﾞﾝﾉﾍｼﾞﾏﾁ","kana_address":"ｼﾓｶﾄﾞｶﾞｼﾗ","pref":"青森県","city":"上北郡野辺地町","address":"下河渡頭"},
{"zip_code":"0393152","kana_pref":"ｱｵﾓﾘｹﾝ","kana_city":"ｶﾐｷﾀｸﾞﾝﾉﾍｼﾞﾏﾁ","kana_address":"ｼﾓｺﾅｶﾉ","pref":"青森県","city":"上北郡野辺地町","address":"下小中野"},
{"zip_code":"0393117","kana_pref":"ｱｵﾓﾘｹﾝ","kana_city":"ｶﾐｷﾀｸﾞﾝﾉﾍｼﾞﾏﾁ","kana_address":"ｼﾓｻｶ","pref":"青森県","city":"上北郡野辺地町","address":"下坂"},
{"zip_code":"0393126","kana_pref":"ｱｵﾓﾘｹﾝ","kana_city":"ｶﾐｷﾀｸﾞﾝﾉﾍｼﾞﾏﾁ","kana_address":"ｼﾓﾏｴﾀﾞ","pref":"青森県","city":"上北郡野辺地町","address":"下前田"},
{"zip_code":"0393146","kana_pref":"ｱｵﾓﾘｹﾝ","kana_city":"ｶﾐｷﾀｸﾞﾝﾉﾍｼﾞﾏﾁ","kana_address":"ｼﾓﾏﾂﾉｷﾀｲ","pref":"青森県","city":"上北郡野辺地町","address":"下松ノ木平"},
{"zip_code":"0393171","kana_pref":"ｱｵﾓﾘｹﾝ","kana_city":"ｶﾐｷﾀｸﾞﾝﾉﾍｼﾞﾏﾁ","kana_address":"ｼﾓﾐﾀﾗｾ","pref":"青森県","city":"上北郡野辺地町","address":"下御手洗瀬"},
{"zip_code":"0393147","kana_pref":"ｱｵﾓﾘｹﾝ","kana_city":"ｶﾐｷﾀｸﾞﾝﾉﾍｼﾞﾏﾁ","kana_address":"ｼﾓﾖﾀｶﾞﾜ","pref":"青森県","city":"上北郡野辺地町","address":"下与田川"},
{"zip_code":"0393124","kana_pref":"ｱｵﾓﾘｹﾝ","kana_city":"ｶﾐｷﾀｸﾞﾝﾉﾍｼﾞﾏﾁ","kana_address":"ｼﾗｲﾜ","pref":"青森県","city":"上北郡野辺地町","address":"白岩"},
{"zip_code":"0393151","kana_pref":"ｱｵﾓﾘｹﾝ","kana_city":"ｶﾐｷﾀｸﾞﾝﾉﾍｼﾞﾏﾁ","kana_address":"ｼﾗｲﾜﾑｶｲ","pref":"青森県","city":"上北郡野辺地町","address":"白岩向"},
{"zip_code":"0393129","kana_pref":"ｱｵﾓﾘｹﾝ","kana_city":"ｶﾐｷﾀｸﾞﾝﾉﾍｼﾞﾏﾁ","kana_address":"ｼﾝﾃﾞﾝ","pref":"青森県","city":"上北郡野辺地町","address":"新田"},
{"zip_code":"0393163","kana_pref":"ｱｵﾓﾘｹﾝ","kana_city":"ｶﾐｷﾀｸﾞﾝﾉﾍｼﾞﾏﾁ","kana_address":"ｼﾝﾏﾁｳﾗ","pref":"青森県","city":"上北郡野辺地町","address":"新町裏"},
{"zip_code":"0393175","kana_pref":"ｱｵﾓﾘｹﾝ","kana_city":"ｶﾐｷﾀｸﾞﾝﾉﾍｼﾞﾏﾁ","kana_address":"ｼﾞﾂﾂﾞｷﾔﾏ","pref":"青森県","city":"上北郡野辺地町","address":"地続山"},
{"zip_code":"0393173","kana_pref":"ｱｵﾓﾘｹﾝ","kana_city":"ｶﾐｷﾀｸﾞﾝﾉﾍｼﾞﾏﾁ","kana_address":"ｼﾞﾝﾊﾞｶﾞﾜﾗ","pref":"青森県","city":"上北郡野辺地町","address":"陣場川原"},
{"zip_code":"0393114","kana_pref":"ｱｵﾓﾘｹﾝ","kana_city":"ｶﾐｷﾀｸﾞﾝﾉﾍｼﾞﾏﾁ","kana_address":"ｽｹｻｺｳｼﾞ","pref":"青森県","city":"上北郡野辺地町","address":"助佐小路"},
{"zip_code":"0393122","kana_pref":"ｱｵﾓﾘｹﾝ","kana_city":"ｶﾐｷﾀｸﾞﾝﾉﾍｼﾞﾏﾁ","kana_address":"ｿﾞｳﾖｼｻﾞﾜ","pref":"青森県","city":"上北郡野辺地町","address":"雑吉沢"},
{"zip_code":"0393171","kana_pref":"ｱｵﾓﾘｹﾝ","kana_city":"ｶﾐｷﾀｸﾞﾝﾉﾍｼﾞﾏﾁ","kana_address":"ﾀｷﾀ","pref":"青森県","city":"上北郡野辺地町","address":"滝田"},
{"zip_code":"0393103","kana_pref":"ｱｵﾓﾘｹﾝ","kana_city":"ｶﾐｷﾀｸﾞﾝﾉﾍｼﾞﾏﾁ","kana_address":"ﾀﾅﾌﾞﾐﾁ","pref":"青森県","city":"上北郡野辺地町","address":"田名部道"},
{"zip_code":"0393123","kana_pref":"ｱｵﾓﾘｹﾝ","kana_city":"ｶﾐｷﾀｸﾞﾝﾉﾍｼﾞﾏﾁ","kana_address":"ﾀﾈｶﾜ","pref":"青森県","city":"上北郡野辺地町","address":"種川"},
{"zip_code":"0393113","kana_pref":"ｱｵﾓﾘｹﾝ","kana_city":"ｶﾐｷﾀｸﾞﾝﾉﾍｼﾞﾏﾁ","kana_address":"ﾀﾊﾞｻﾐｻﾞﾜ","pref":"青森県","city":"上北郡野辺地町","address":"田狭沢"},
{"zip_code":"0393174","kana_pref":"ｱｵﾓﾘｹﾝ","kana_city":"ｶﾐｷﾀｸﾞﾝﾉﾍｼﾞﾏﾁ","kana_address":"ﾀﾊﾞﾀ","pref":"青森県","city":"上北郡野辺地町","address":"田端"},
{"zip_code":"0393115","kana_pref":"ｱｵﾓﾘｹﾝ","kana_city":"ｶﾐｷﾀｸﾞﾝﾉﾍｼﾞﾏﾁ","kana_address":"ﾀﾗﾉｷ","pref":"青森県","city":"上北郡野辺地町","address":"タラノ木"},
{"zip_code":"0393171","kana_pref":"ｱｵﾓﾘｹﾝ","kana_city":"ｶﾐｷﾀｸﾞﾝﾉﾍｼﾞﾏﾁ","kana_address":"ﾂｷﾉｷ","pref":"青森県","city":"上北郡野辺地町","address":"槻ノ木"},
{"zip_code":"0393118","kana_pref":"ｱｵﾓﾘｹﾝ","kana_city":"ｶﾐｷﾀｸﾞﾝﾉﾍｼﾞﾏﾁ","kana_address":"ﾃﾗﾉｻﾜ","pref":"青森県","city":"上北郡野辺地町","address":"寺ノ沢"},
{"zip_code":"0393129","kana_pref":"ｱｵﾓﾘｹﾝ","kana_city":"ｶﾐｷﾀｸﾞﾝﾉﾍｼﾞﾏﾁ","kana_address":"ﾄﾀﾞﾉｻﾜ","pref":"青森県","city":"上北郡野辺地町","address":"戸田ノ沢"},
{"zip_code":"0393172","kana_pref":"ｱｵﾓﾘｹﾝ","kana_city":"ｶﾐｷﾀｸﾞﾝﾉﾍｼﾞﾏﾁ","kana_address":"ﾄﾘｲﾀｲ","pref":"青森県","city":"上北郡野辺地町","address":"鳥井平"},
{"zip_code":"0393153","kana_pref":"ｱｵﾓﾘｹﾝ","kana_city":"ｶﾐｷﾀｸﾞﾝﾉﾍｼﾞﾏﾁ","kana_address":"ﾅｶｺﾅｶﾉ","pref":"青森県","city":"上北郡野辺地町","address":"中小中野"},
{"zip_code":"0393108","kana_pref":"ｱｵﾓﾘｹﾝ","kana_city":"ｶﾐｷﾀｸﾞﾝﾉﾍｼﾞﾏﾁ","kana_address":"ﾅｶﾀ","pref":"青森県","city":"上北郡野辺地町","address":"中田"},
{"zip_code":"0393112","kana_pref":"ｱｵﾓﾘｹﾝ","kana_city":"ｶﾐｷﾀｸﾞﾝﾉﾍｼﾞﾏﾁ","kana_address":"ﾅｶﾐﾁ","pref":"青森県","city":"上北郡野辺地町","address":"中道"},
{"zip_code":"0393143","kana_pref":"ｱｵﾓﾘｹﾝ","kana_city":"ｶﾐｷﾀｸﾞﾝﾉﾍｼﾞﾏﾁ","kana_address":"ﾅｶﾔｼｷ","pref":"青森県","city":"上北郡野辺地町","address":"中屋敷"},
{"zip_code":"0393176","kana_pref":"ｱｵﾓﾘｹﾝ","kana_city":"ｶﾐｷﾀｸﾞﾝﾉﾍｼﾞﾏﾁ","kana_address":"ﾅｶﾜﾀﾘ","pref":"青森県","city":"上北郡野辺地町","address":"中渡"},
{"zip_code":"0393141","kana_pref":"ｱｵﾓﾘｹﾝ","kana_city":"ｶﾐｷﾀｸﾞﾝﾉﾍｼﾞﾏﾁ","kana_address":"ﾅﾙｻﾜ","pref":"青森県","city":"上北郡野辺地町","address":"鳴沢"},
{"zip_code":"0393171","kana_pref":"ｱｵﾓﾘｹﾝ","kana_city":"ｶﾐｷﾀｸﾞﾝﾉﾍｼﾞﾏﾁ","kana_address":"ﾆﾎﾝｷ","pref":"青森県","city":"上北郡野辺地町","address":"二本木"},
{"zip_code":"0393167","kana_pref":"ｱｵﾓﾘｹﾝ","kana_city":"ｶﾐｷﾀｸﾞﾝﾉﾍｼﾞﾏﾁ","kana_address":"ﾆﾎﾝｷﾑｶｲ","pref":"青森県","city":"上北郡野辺地町","address":"二本木向"},
{"zip_code":"0393166","kana_pref":"ｱｵﾓﾘｹﾝ","kana_city":"ｶﾐｷﾀｸﾞﾝﾉﾍｼﾞﾏﾁ","kana_address":"ﾆﾎﾝｷﾑｶｲﾏｴﾀﾞ","pref":"青森県","city":"上北郡野辺地町","address":"二本木向前田"},
{"zip_code":"0393131","kana_pref":"ｱｵﾓﾘｹﾝ","kana_city":"ｶﾐｷﾀｸﾞﾝﾉﾍｼﾞﾏﾁ","kana_address":"ﾉﾍｼﾞ","pref":"青森県","city":"上北郡野辺地町","address":"野辺地"},
{"zip_code":"0393171","kana_pref":"ｱｵﾓﾘｹﾝ","kana_city":"ｶﾐｷﾀｸﾞﾝﾉﾍｼﾞﾏﾁ","kana_address":"ﾊﾀﾁﾀｲ","pref":"青森県","city":"上北郡野辺地町","address":"二十平"},
{"zip_code":"0393177","kana_pref":"ｱｵﾓﾘｹﾝ","kana_city":"ｶﾐｷﾀｸﾞﾝﾉﾍｼﾞﾏﾁ","kana_address":"ﾊﾉｷﾔﾁ","pref":"青森県","city":"上北郡野辺地町","address":"八ノ木谷地"},
{"zip_code":"0393101","kana_pref":"ｱｵﾓﾘｹﾝ","kana_city":"ｶﾐｷﾀｸﾞﾝﾉﾍｼﾞﾏﾁ","kana_address":"ﾊﾏｶｹ","pref":"青森県","city":"上北郡野辺地町","address":"浜掛"},
{"zip_code":"0393105","kana_pref":"ｱｵﾓﾘｹﾝ","kana_city":"ｶﾐｷﾀｸﾞﾝﾉﾍｼﾞﾏﾁ","kana_address":"ﾋｶﾞｼｵｵﾀｻﾜ","pref":"青森県","city":"上北郡野辺地町","address":"東太田沢"},
{"zip_code":"0393105","kana_pref":"ｱｵﾓﾘｹﾝ","kana_city":"ｶﾐｷﾀｸﾞﾝﾉﾍｼﾞﾏﾁ","kana_address":"ﾋｸｻﾊﾞｼ","pref":"青森県","city":"上北郡野辺地町","address":"干草橋"},
{"zip_code":"0393128","kana_pref":"ｱｵﾓﾘｹﾝ","kana_city":"ｶﾐｷﾀｸﾞﾝﾉﾍｼﾞﾏﾁ","kana_address":"ﾋﾙﾊﾞ","pref":"青森県","city":"上北郡野辺地町","address":"昼場"},
{"zip_code":"0393156","kana_pref":"ｱｵﾓﾘｹﾝ","kana_city":"ｶﾐｷﾀｸﾞﾝﾉﾍｼﾞﾏﾁ","kana_address":"ﾋﾞﾜﾉ","pref":"青森県","city":"上北郡野辺地町","address":"枇杷野"},
{"zip_code":"0393121","kana_pref":"ｱｵﾓﾘｹﾝ","kana_city":"ｶﾐｷﾀｸﾞﾝﾉﾍｼﾞﾏﾁ","kana_address":"ﾌﾅﾊﾞｼ","pref":"青森県","city":"上北郡野辺地町","address":"船橋"},
{"zip_code":"0393106","kana_pref":"ｱｵﾓﾘｹﾝ","kana_city":"ｶﾐｷﾀｸﾞﾝﾉﾍｼﾞﾏﾁ","kana_address":"ﾌﾙﾐｮｳﾏｴ","pref":"青森県","city":"上北郡野辺地町","address":"古明前"},
{"zip_code":"0393125","kana_pref":"ｱｵﾓﾘｹﾝ","kana_city":"ｶﾐｷﾀｸﾞﾝﾉﾍｼﾞﾏﾁ","kana_address":"ﾎﾞｳﾉﾂｶ","pref":"青森県","city":"上北郡野辺地町","address":"坊ノ塚"},
{"zip_code":"0393164","kana_pref":"ｱｵﾓﾘｹﾝ","kana_city":"ｶﾐｷﾀｸﾞﾝﾉﾍｼﾞﾏﾁ","kana_address":"ﾏｴﾀﾞ","pref":"青森県","city":"上北郡野辺地町","address":"前田"},
{"zip_code":"0393168","kana_pref":"ｱｵﾓﾘｹﾝ","kana_city":"ｶﾐｷﾀｸﾞﾝﾉﾍｼﾞﾏﾁ","kana_address":"ﾏｴﾋﾗ","pref":"青森県","city":"上北郡野辺地町","address":"前平"},
{"zip_code":"0393179","kana_pref":"ｱｵﾓﾘｹﾝ","kana_city":"ｶﾐｷﾀｸﾞﾝﾉﾍｼﾞﾏﾁ","kana_address":"ﾏｶﾄﾞ","pref":"青森県","city":"上北郡野辺地町","address":"馬門"},
{"zip_code":"0393161","kana_pref":"ｱｵﾓﾘｹﾝ","kana_city":"ｶﾐｷﾀｸﾞﾝﾉﾍｼﾞﾏﾁ","kana_address":"ﾏｶﾄﾞﾐﾁ","pref":"青森県","city":"上北郡野辺地町","address":"馬門道"},
{"zip_code":"0393157","kana_pref":"ｱｵﾓﾘｹﾝ","kana_city":"ｶﾐｷﾀｸﾞﾝﾉﾍｼﾞﾏﾁ","kana_address":"ﾏﾂﾉｷ","pref":"青森県","city":"上北郡野辺地町","address":"松ノ木"},
{"zip_code":"0393145","kana_pref":"ｱｵﾓﾘｹﾝ","kana_city":"ｶﾐｷﾀｸﾞﾝﾉﾍｼﾞﾏﾁ","kana_address":"ﾏﾂﾉｷﾀｲ","pref":"青森県","city":"上北郡野辺地町","address":"松ノ木平"},
{"zip_code":"0393171","kana_pref":"ｱｵﾓﾘｹﾝ","kana_city":"ｶﾐｷﾀｸﾞﾝﾉﾍｼﾞﾏﾁ","kana_address":"ﾐﾀﾗｾ","pref":"青森県","city":"上北郡野辺地町","address":"御手洗瀬"},
{"zip_code":"0393106","kana_pref":"ｱｵﾓﾘｹﾝ","kana_city":"ｶﾐｷﾀｸﾞﾝﾉﾍｼﾞﾏﾁ","kana_address":"ﾐｮｳﾏｴ","pref":"青森県","city":"上北郡野辺地町","address":"明前"},
{"zip_code":"0393109","kana_pref":"ｱｵﾓﾘｹﾝ","kana_city":"ｶﾐｷﾀｸﾞﾝﾉﾍｼﾞﾏﾁ","kana_address":"ﾑｶｲﾀﾞ","pref":"青森県","city":"上北郡野辺地町","address":"向田"},
{"zip_code":"0393129","kana_pref":"ｱｵﾓﾘｹﾝ","kana_city":"ｶﾐｷﾀｸﾞﾝﾉﾍｼﾞﾏﾁ","kana_address":"ﾓﾁｱﾜｶﾜﾗ","pref":"青森県","city":"上北郡野辺地町","address":"餅粟川原"},
{"zip_code":"0393175","kana_pref":"ｱｵﾓﾘｹﾝ","kana_city":"ｶﾐｷﾀｸﾞﾝﾉﾍｼﾞﾏﾁ","kana_address":"ﾕｻﾞﾜ","pref":"青森県","city":"上北郡野辺地町","address":"湯沢"},
{"zip_code":"0393175","kana_pref":"ｱｵﾓﾘｹﾝ","kana_city":"ｶﾐｷﾀｸﾞﾝﾉﾍｼﾞﾏﾁ","kana_address":"ﾕｻﾞﾜｼﾞﾘ","pref":"青森県","city":"上北郡野辺地町","address":"湯沢尻"},
{"zip_code":"0393148","kana_pref":"ｱｵﾓﾘｹﾝ","kana_city":"ｶﾐｷﾀｸﾞﾝﾉﾍｼﾞﾏﾁ","kana_address":"ﾖﾀｶﾞﾜｼﾞﾘ","pref":"青森県","city":"上北郡野辺地町","address":"与田川尻"},
{"zip_code":"0393102","kana_pref":"ｱｵﾓﾘｹﾝ","kana_city":"ｶﾐｷﾀｸﾞﾝﾉﾍｼﾞﾏﾁ","kana_address":"ﾖﾅｲｻﾜ","pref":"青森県","city":"上北郡野辺地町","address":"米内沢"},
{"zip_code":"0392500","kana_pref":"ｱｵﾓﾘｹﾝ","kana_city":"ｶﾐｷﾀｸﾞﾝｼﾁﾉﾍﾏﾁ","kana_address":"","pref":"青森県","city":"上北郡七戸町","address":""},
{"zip_code":"0392501","kana_pref":"ｱｵﾓﾘｹﾝ","kana_city":"ｶﾐｷﾀｸﾞﾝｼﾁﾉﾍﾏﾁ","kana_address":"ｱﾗｸﾏﾅｲ","pref":"青森県","city":"上北郡七戸町","address":"荒熊内"},
{"zip_code":"0392534","kana_pref":"ｱｵﾓﾘｹﾝ","kana_city":"ｶﾐｷﾀｸﾞﾝｼﾁﾉﾍﾏﾁ","kana_address":"ｱﾗﾔ","pref":"青森県","city":"上北郡七戸町","address":"荒屋"},
{"zip_code":"0392543","kana_pref":"ｱｵﾓﾘｹﾝ","kana_city":"ｶﾐｷﾀｸﾞﾝｼﾁﾉﾍﾏﾁ","kana_address":"ｱﾘﾀｻﾜ","pref":"青森県","city":"上北郡七戸町","address":"有田沢"},
{"zip_code":"0392816","kana_pref":"ｱｵﾓﾘｹﾝ","kana_city":"ｶﾐｷﾀｸﾞﾝｼﾁﾉﾍﾏﾁ","kana_address":"ｲｴﾉｳﾗ","pref":"青森県","city":"上北郡七戸町","address":"家ノ裏"},
{"zip_code":"0392825","kana_pref":"ｱｵﾓﾘｹﾝ","kana_city":"ｶﾐｷﾀｸﾞﾝｼﾁﾉﾍﾏﾁ","kana_address":"ｲｴﾉｶﾐ","pref":"青森県","city":"上北郡七戸町","address":"家ノ上"},
{"zip_code":"0392824","kana_pref":"ｱｵﾓﾘｹﾝ","kana_city":"ｶﾐｷﾀｸﾞﾝｼﾁﾉﾍﾏﾁ","kana_address":"ｲｴﾉｼﾀ","pref":"青森県","city":"上北郡七戸町","address":"家ノ下"},
{"zip_code":"0392833","kana_pref":"ｱｵﾓﾘｹﾝ","kana_city":"ｶﾐｷﾀｸﾞﾝｼﾁﾉﾍﾏﾁ","kana_address":"ｲｴﾉﾏｴ","pref":"青森県","city":"上北郡七戸町","address":"家ノ前"},
{"zip_code":"0392865","kana_pref":"ｱｵﾓﾘｹﾝ","kana_city":"ｶﾐｷﾀｸﾞﾝｼﾁﾉﾍﾏﾁ","kana_address":"ｲﾁﾉﾜﾀﾘ","pref":"青森県","city":"上北郡七戸町","address":"市ノ渡"},
{"zip_code":"0392561","kana_pref":"ｱｵﾓﾘｹﾝ","kana_city":"ｶﾐｷﾀｸﾞﾝｼﾁﾉﾍﾏﾁ","kana_address":"ｲﾁｮｳﾉｷ","pref":"青森県","city":"上北郡七戸町","address":"銀南木"},
{"zip_code":"0392741","kana_pref":"ｱｵﾓﾘｹﾝ","kana_city":"ｶﾐｷﾀｸﾞﾝｼﾁﾉﾍﾏﾁ","kana_address":"ｲﾉﾊﾅ","pref":"青森県","city":"上北郡七戸町","address":"猪ノ鼻"},
{"zip_code":"0392585","kana_pref":"ｱｵﾓﾘｹﾝ","kana_city":"ｶﾐｷﾀｸﾞﾝｼﾁﾉﾍﾏﾁ","kana_address":"ｳｴﾉﾔﾏ","pref":"青森県","city":"上北郡七戸町","address":"上ノ山"},
{"zip_code":"0392587","kana_pref":"ｱｵﾓﾘｹﾝ","kana_city":"ｶﾐｷﾀｸﾞﾝｼﾁﾉﾍﾏﾁ","kana_address":"ｳｴﾔﾀﾞ","pref":"青森県","city":"上北郡七戸町","address":"上屋田"},
{"zip_code":"0392584","kana_pref":"ｱｵﾓﾘｹﾝ","kana_city":"ｶﾐｷﾀｸﾞﾝｼﾁﾉﾍﾏﾁ","kana_address":"ｳｼﾛｶﾜﾗ","pref":"青森県","city":"上北郡七戸町","address":"後川原"},
{"zip_code":"0392731","kana_pref":"ｱｵﾓﾘｹﾝ","kana_city":"ｶﾐｷﾀｸﾞﾝｼﾁﾉﾍﾏﾁ","kana_address":"ｳｼﾛﾀｲﾗ","pref":"青森県","city":"上北郡七戸町","address":"後平"},
{"zip_code":"0392574","kana_pref":"ｱｵﾓﾘｹﾝ","kana_city":"ｶﾐｷﾀｸﾞﾝｼﾁﾉﾍﾏﾁ","kana_address":"ｳﾄﾞｳｻﾞｶ","pref":"青森県","city":"上北郡七戸町","address":"宇道坂"},
{"zip_code":"0392771","kana_pref":"ｱｵﾓﾘｹﾝ","kana_city":"ｶﾐｷﾀｸﾞﾝｼﾁﾉﾍﾏﾁ","kana_address":"ｳﾊﾞｻﾜ","pref":"青森県","city":"上北郡七戸町","address":"姥沢"},
{"zip_code":"0392586","kana_pref":"ｱｵﾓﾘｹﾝ","kana_city":"ｶﾐｷﾀｸﾞﾝｼﾁﾉﾍﾏﾁ","kana_address":"ｳﾐﾅｲ","pref":"青森県","city":"上北郡七戸町","address":"海内"},
{"zip_code":"0392526","kana_pref":"ｱｵﾓﾘｹﾝ","kana_city":"ｶﾐｷﾀｸﾞﾝｼﾁﾉﾍﾏﾁ","kana_address":"ｳﾜﾏﾁﾉ","pref":"青森県","city":"上北郡七戸町","address":"上町野"},
{"zip_code":"0392507","kana_pref":"ｱｵﾓﾘｹﾝ","kana_city":"ｶﾐｷﾀｸﾞﾝｼﾁﾉﾍﾏﾁ","kana_address":"ｴｿﾞﾊﾞﾅ","pref":"青森県","city":"上北郡七戸町","address":"えぞ花"},
{"zip_code":"0392756","kana_pref":"ｱｵﾓﾘｹﾝ","kana_city":"ｶﾐｷﾀｸﾞﾝｼﾁﾉﾍﾏﾁ","kana_address":"ｴﾉｷﾊﾞﾔｼｲｴﾉｳｼﾛ","pref":"青森県","city":"上北郡七戸町","address":"榎林家ノ後"},
{"zip_code":"0392755","kana_pref":"ｱｵﾓﾘｹﾝ","kana_city":"ｶﾐｷﾀｸﾞﾝｼﾁﾉﾍﾏﾁ","kana_address":"ｴﾉｷﾊﾞﾔｼｲｴﾉﾏｴ","pref":"青森県","city":"上北郡七戸町","address":"榎林家ノ前"},
{"zip_code":"0392779","kana_pref":"ｱｵﾓﾘｹﾝ","kana_city":"ｶﾐｷﾀｸﾞﾝｼﾁﾉﾍﾏﾁ","kana_address":"ｴﾉｷﾊﾞﾔｼﾌﾙﾔｼｷ","pref":"青森県","city":"上北郡七戸町","address":"榎林古屋敷"},
{"zip_code":"0392745","kana_pref":"ｱｵﾓﾘｹﾝ","kana_city":"ｶﾐｷﾀｸﾞﾝｼﾁﾉﾍﾏﾁ","kana_address":"ｴﾋﾞｽﾄﾞｳ","pref":"青森県","city":"上北郡七戸町","address":"夷堂"},
{"zip_code":"0392508","kana_pref":"ｱｵﾓﾘｹﾝ","kana_city":"ｶﾐｷﾀｸﾞﾝｼﾁﾉﾍﾏﾁ","kana_address":"ｵｵｲｹ","pref":"青森県","city":"上北郡七戸町","address":"大池"},
{"zip_code":"0392502","kana_pref":"ｱｵﾓﾘｹﾝ","kana_city":"ｶﾐｷﾀｸﾞﾝｼﾁﾉﾍﾏﾁ","kana_address":"ｵｵｻﾜ","pref":"青森県","city":"上北郡七戸町","address":"大沢"},
{"zip_code":"0392531","kana_pref":"ｱｵﾓﾘｹﾝ","kana_city":"ｶﾐｷﾀｸﾞﾝｼﾁﾉﾍﾏﾁ","kana_address":"ｵｵﾀ","pref":"青森県","city":"上北郡七戸町","address":"太田"},
{"zip_code":"0392821","kana_pref":"ｱｵﾓﾘｹﾝ","kana_city":"ｶﾐｷﾀｸﾞﾝｼﾁﾉﾍﾏﾁ","kana_address":"ｵｵﾀﾞｲﾗ","pref":"青森県","city":"上北郡七戸町","address":"大平"},
{"zip_code":"0392514","kana_pref":"ｱｵﾓﾘｹﾝ","kana_city":"ｶﾐｷﾀｸﾞﾝｼﾁﾉﾍﾏﾁ","kana_address":"ｵｵﾀﾉ","pref":"青森県","city":"上北郡七戸町","address":"太田野"},
{"zip_code":"0392532","kana_pref":"ｱｵﾓﾘｹﾝ","kana_city":"ｶﾐｷﾀｸﾞﾝｼﾁﾉﾍﾏﾁ","kana_address":"ｵｵﾊﾞﾔｼ","pref":"青森県","city":"上北郡七戸町","address":"大林"},
{"zip_code":"0392715","kana_pref":"ｱｵﾓﾘｹﾝ","kana_city":"ｶﾐｷﾀｸﾞﾝｼﾁﾉﾍﾏﾁ","kana_address":"ｵﾔﾏｶﾞｼﾗ","pref":"青森県","city":"上北郡七戸町","address":"尾山頭"},
{"zip_code":"0392751","kana_pref":"ｱｵﾓﾘｹﾝ","kana_city":"ｶﾐｷﾀｸﾞﾝｼﾁﾉﾍﾏﾁ","kana_address":"ｶｲﾂﾞｶｲｴﾉﾏｴ","pref":"青森県","city":"上北郡七戸町","address":"貝塚家ノ前"},
{"zip_code":"0392578","kana_pref":"ｱｵﾓﾘｹﾝ","kana_city":"ｶﾐｷﾀｸﾞﾝｼﾁﾉﾍﾏﾁ","kana_address":"ｶｲﾉｸﾁ","pref":"青森県","city":"上北郡七戸町","address":"貝ノ口"},
{"zip_code":"0392523","kana_pref":"ｱｵﾓﾘｹﾝ","kana_city":"ｶﾐｷﾀｸﾞﾝｼﾁﾉﾍﾏﾁ","kana_address":"ｶｹﾞﾂﾅｲ","pref":"青森県","city":"上北郡七戸町","address":"影津内"},
{"zip_code":"0392577","kana_pref":"ｱｵﾓﾘｹﾝ","kana_city":"ｶﾐｷﾀｸﾞﾝｼﾁﾉﾍﾏﾁ","kana_address":"ｶｼﾞﾊﾞﾔｼ","pref":"青森県","city":"上北郡七戸町","address":"鍛治林"},
{"zip_code":"0392831","kana_pref":"ｱｵﾓﾘｹﾝ","kana_city":"ｶﾐｷﾀｸﾞﾝｼﾁﾉﾍﾏﾁ","kana_address":"ｶﾅｻﾞﾜﾀｲﾗ","pref":"青森県","city":"上北郡七戸町","address":"金沢平"},
{"zip_code":"0392725","kana_pref":"ｱｵﾓﾘｹﾝ","kana_city":"ｶﾐｷﾀｸﾞﾝｼﾁﾉﾍﾏﾁ","kana_address":"ｶﾐｶﾜﾗ","pref":"青森県","city":"上北郡七戸町","address":"上川原"},
{"zip_code":"0392714","kana_pref":"ｱｵﾓﾘｹﾝ","kana_city":"ｶﾐｷﾀｸﾞﾝｼﾁﾉﾍﾏﾁ","kana_address":"ｶﾐｼﾀﾞ","pref":"青森県","city":"上北郡七戸町","address":"上志多"},
{"zip_code":"0392724","kana_pref":"ｱｵﾓﾘｹﾝ","kana_city":"ｶﾐｷﾀｸﾞﾝｼﾁﾉﾍﾏﾁ","kana_address":"ｶﾐﾀｲﾗ","pref":"青森県","city":"上北郡七戸町","address":"上平"},
{"zip_code":"0392533","kana_pref":"ｱｵﾓﾘｹﾝ","kana_city":"ｶﾐｷﾀｸﾞﾝｼﾁﾉﾍﾏﾁ","kana_address":"ｶﾜｻﾘ","pref":"青森県","city":"上北郡七戸町","address":"川去"},
{"zip_code":"0392712","kana_pref":"ｱｵﾓﾘｹﾝ","kana_city":"ｶﾐｷﾀｸﾞﾝｼﾁﾉﾍﾏﾁ","kana_address":"ｷﾀﾃﾝﾏﾀﾞﾃ","pref":"青森県","city":"上北郡七戸町","address":"北天間舘"},
{"zip_code":"0392562","kana_pref":"ｱｵﾓﾘｹﾝ","kana_city":"ｶﾐｷﾀｸﾞﾝｼﾁﾉﾍﾏﾁ","kana_address":"ｸﾗｵｶ","pref":"青森県","city":"上北郡七戸町","address":"倉岡"},
{"zip_code":"0392522","kana_pref":"ｱｵﾓﾘｹﾝ","kana_city":"ｶﾐｷﾀｸﾞﾝｼﾁﾉﾍﾏﾁ","kana_address":"ｸﾗｺｼ","pref":"青森県","city":"上北郡七戸町","address":"倉越"},
{"zip_code":"0392866","kana_pref":"ｱｵﾓﾘｹﾝ","kana_city":"ｶﾐｷﾀｸﾞﾝｼﾁﾉﾍﾏﾁ","kana_address":"ｸﾘﾉｷｻﾜ","pref":"青森県","city":"上北郡七戸町","address":"栗ノ木沢"},
{"zip_code":"0392877","kana_pref":"ｱｵﾓﾘｹﾝ","kana_city":"ｶﾐｷﾀｸﾞﾝｼﾁﾉﾍﾏﾁ","kana_address":"ｺﾞｱﾝﾉｼﾀ","pref":"青森県","city":"上北郡七戸町","address":"五庵ノ下"},
{"zip_code":"0392812","kana_pref":"ｱｵﾓﾘｹﾝ","kana_city":"ｶﾐｷﾀｸﾞﾝｼﾁﾉﾍﾏﾁ","kana_address":"ｺﾀﾞｼﾀ","pref":"青森県","city":"上北郡七戸町","address":"小田下"},
{"zip_code":"0392813","kana_pref":"ｱｵﾓﾘｹﾝ","kana_city":"ｶﾐｷﾀｸﾞﾝｼﾁﾉﾍﾏﾁ","kana_address":"ｺﾀﾞﾀｲ","pref":"青森県","city":"上北郡七戸町","address":"小田平"},
{"zip_code":"0392822","kana_pref":"ｱｵﾓﾘｹﾝ","kana_city":"ｶﾐｷﾀｸﾞﾝｼﾁﾉﾍﾏﾁ","kana_address":"ｺﾏﾀ","pref":"青森県","city":"上北郡七戸町","address":"小又"},
{"zip_code":"0392856","kana_pref":"ｱｵﾓﾘｹﾝ","kana_city":"ｶﾐｷﾀｸﾞﾝｼﾁﾉﾍﾏﾁ","kana_address":"ｺﾜｿﾅｴ","pref":"青森県","city":"上北郡七戸町","address":"古和備"},
{"zip_code":"0392537","kana_pref":"ｱｵﾓﾘｹﾝ","kana_city":"ｶﾐｷﾀｸﾞﾝｼﾁﾉﾍﾏﾁ","kana_address":"ｻｲﾉｶﾐ","pref":"青森県","city":"上北郡七戸町","address":"賽ノ神"},
{"zip_code":"0392753","kana_pref":"ｱｵﾓﾘｹﾝ","kana_city":"ｶﾐｷﾀｸﾞﾝｼﾁﾉﾍﾏﾁ","kana_address":"ｻｵｳﾁｶﾜﾗ","pref":"青森県","city":"上北郡七戸町","address":"竿打川原"},
{"zip_code":"0392778","kana_pref":"ｱｵﾓﾘｹﾝ","kana_city":"ｶﾐｷﾀｸﾞﾝｼﾁﾉﾍﾏﾁ","kana_address":"ｻｶﾉｿﾄ","pref":"青森県","city":"上北郡七戸町","address":"坂ノ外"},
{"zip_code":"0392575","kana_pref":"ｱｵﾓﾘｹﾝ","kana_city":"ｶﾐｷﾀｸﾞﾝｼﾁﾉﾍﾏﾁ","kana_address":"ｻｸﾀ","pref":"青森県","city":"上北郡七戸町","address":"作田"},
{"zip_code":"0392845","kana_pref":"ｱｵﾓﾘｹﾝ","kana_city":"ｶﾐｷﾀｸﾞﾝｼﾁﾉﾍﾏﾁ","kana_address":"ｻｸﾀﾐﾁ","pref":"青森県","city":"上北郡七戸町","address":"作田道"},
{"zip_code":"0392576","kana_pref":"ｱｵﾓﾘｹﾝ","kana_city":"ｶﾐｷﾀｸﾞﾝｼﾁﾉﾍﾏﾁ","kana_address":"ｻｸﾗﾀﾞ","pref":"青森県","city":"上北郡七戸町","address":"桜田"},
{"zip_code":"0392568","kana_pref":"ｱｵﾓﾘｹﾝ","kana_city":"ｶﾐｷﾀｸﾞﾝｼﾁﾉﾍﾏﾁ","kana_address":"ｻｸﾞﾐ","pref":"青森県","city":"上北郡七戸町","address":"左組"},
{"zip_code":"0392852","kana_pref":"ｱｵﾓﾘｹﾝ","kana_city":"ｶﾐｷﾀｸﾞﾝｼﾁﾉﾍﾏﾁ","kana_address":"ｻｿｳ","pref":"青森県","city":"上北郡七戸町","address":"さそう"},
{"zip_code":"0392853","kana_pref":"ｱｵﾓﾘｹﾝ","kana_city":"ｶﾐｷﾀｸﾞﾝｼﾁﾉﾍﾏﾁ","kana_address":"ｻｿｳﾀｲ","pref":"青森県","city":"上北郡七戸町","address":"さそう平"},
{"zip_code":"0392875","kana_pref":"ｱｵﾓﾘｹﾝ","kana_city":"ｶﾐｷﾀｸﾞﾝｼﾁﾉﾍﾏﾁ","kana_address":"ｻﾋﾞｼﾛ","pref":"青森県","city":"上北郡七戸町","address":"淋代"},
{"zip_code":"0392512","kana_pref":"ｱｵﾓﾘｹﾝ","kana_city":"ｶﾐｷﾀｸﾞﾝｼﾁﾉﾍﾏﾁ","kana_address":"ｻﾞﾙﾀ","pref":"青森県","city":"上北郡七戸町","address":"笊田"},
{"zip_code":"0392511","kana_pref":"ｱｵﾓﾘｹﾝ","kana_city":"ｶﾐｷﾀｸﾞﾝｼﾁﾉﾍﾏﾁ","kana_address":"ｻﾞﾙﾀｶﾜｸﾎﾞ","pref":"青森県","city":"上北郡七戸町","address":"笊田川久保"},
{"zip_code":"0392754","kana_pref":"ｱｵﾓﾘｹﾝ","kana_city":"ｶﾐｷﾀｸﾞﾝｼﾁﾉﾍﾏﾁ","kana_address":"ｼﾞｿﾞｳﾄﾞｳ","pref":"青森県","city":"上北郡七戸町","address":"地蔵堂"},
{"zip_code":"0392872","kana_pref":"ｱｵﾓﾘｹﾝ","kana_city":"ｶﾐｷﾀｸﾞﾝｼﾁﾉﾍﾏﾁ","kana_address":"ｼﾀｶﾜﾗ","pref":"青森県","city":"上北郡七戸町","address":"下タ川原"},
{"zip_code":"0392525","kana_pref":"ｱｵﾓﾘｹﾝ","kana_city":"ｶﾐｷﾀｸﾞﾝｼﾁﾉﾍﾏﾁ","kana_address":"ｼﾁﾉﾍ","pref":"青森県","city":"上北郡七戸町","address":"七戸"},
{"zip_code":"0392774","kana_pref":"ｱｵﾓﾘｹﾝ","kana_city":"ｶﾐｷﾀｸﾞﾝｼﾁﾉﾍﾏﾁ","kana_address":"ｼﾊﾞﾀﾞﾃﾐﾁﾉｼﾓ","pref":"青森県","city":"上北郡七戸町","address":"柴舘道ノ下"},
{"zip_code":"0392546","kana_pref":"ｱｵﾓﾘｹﾝ","kana_city":"ｶﾐｷﾀｸﾞﾝｼﾁﾉﾍﾏﾁ","kana_address":"ｼﾐｽﾞｶｼﾗ","pref":"青森県","city":"上北郡七戸町","address":"清水頭"},
{"zip_code":"0392721","kana_pref":"ｱｵﾓﾘｹﾝ","kana_city":"ｶﾐｷﾀｸﾞﾝｼﾁﾉﾍﾏﾁ","kana_address":"ｼﾓｶﾜﾗ","pref":"青森県","city":"上北郡七戸町","address":"志茂川原"},
{"zip_code":"0392864","kana_pref":"ｱｵﾓﾘｹﾝ","kana_city":"ｶﾐｷﾀｸﾞﾝｼﾁﾉﾍﾏﾁ","kana_address":"ｼﾓｶﾜﾗ","pref":"青森県","city":"上北郡七戸町","address":"下モ川原"},
{"zip_code":"0392723","kana_pref":"ｱｵﾓﾘｹﾝ","kana_city":"ｶﾐｷﾀｸﾞﾝｼﾁﾉﾍﾏﾁ","kana_address":"ｼﾓｼﾀ","pref":"青森県","city":"上北郡七戸町","address":"下志多"},
{"zip_code":"0392772","kana_pref":"ｱｵﾓﾘｹﾝ","kana_city":"ｶﾐｷﾀｸﾞﾝｼﾁﾉﾍﾏﾁ","kana_address":"ｼﾓﾀﾂﾎﾞ","pref":"青森県","city":"上北郡七戸町","address":"下田坪"},
{"zip_code":"0392841","kana_pref":"ｱｵﾓﾘｹﾝ","kana_city":"ｶﾐｷﾀｸﾞﾝｼﾁﾉﾍﾏﾁ","kana_address":"ｼﾓﾄﾘﾔﾍﾞ","pref":"青森県","city":"上北郡七戸町","address":"下鳥谷部"},
{"zip_code":"0392549","kana_pref":"ｱｵﾓﾘｹﾝ","kana_city":"ｶﾐｷﾀｸﾞﾝｼﾁﾉﾍﾏﾁ","kana_address":"ｼﾓﾐﾙﾏﾁ","pref":"青森県","city":"上北郡七戸町","address":"下見町"},
{"zip_code":"0392871","kana_pref":"ｱｵﾓﾘｹﾝ","kana_city":"ｶﾐｷﾀｸﾞﾝｼﾁﾉﾍﾏﾁ","kana_address":"ｼﾛｲｼ","pref":"青森県","city":"上北郡七戸町","address":"白石"},
{"zip_code":"0392572","kana_pref":"ｱｵﾓﾘｹﾝ","kana_city":"ｶﾐｷﾀｸﾞﾝｼﾁﾉﾍﾏﾁ","kana_address":"ｼﾛﾉｱﾄ","pref":"青森県","city":"上北郡七戸町","address":"城ノ後"},
{"zip_code":"0392565","kana_pref":"ｱｵﾓﾘｹﾝ","kana_city":"ｶﾐｷﾀｸﾞﾝｼﾁﾉﾍﾏﾁ","kana_address":"ｼﾞﾝﾊﾞ","pref":"青森県","city":"上北郡七戸町","address":"治部袋"},
{"zip_code":"0392726","kana_pref":"ｱｵﾓﾘｹﾝ","kana_city":"ｶﾐｷﾀｸﾞﾝｼﾁﾉﾍﾏﾁ","kana_address":"ｽﾓﾓｶﾜﾗ","pref":"青森県","city":"上北郡七戸町","address":"李川原"},
{"zip_code":"0392777","kana_pref":"ｱｵﾓﾘｹﾝ","kana_city":"ｶﾐｷﾀｸﾞﾝｼﾁﾉﾍﾏﾁ","kana_address":"ｽﾓﾓｻﾞﾜｲｴﾉｳｼﾛ","pref":"青森県","city":"上北郡七戸町","address":"李沢家ノ後"},
{"zip_code":"0392776","kana_pref":"ｱｵﾓﾘｹﾝ","kana_city":"ｶﾐｷﾀｸﾞﾝｼﾁﾉﾍﾏﾁ","kana_address":"ｽﾓﾓｻﾞﾜｲｴﾉﾏｴ","pref":"青森県","city":"上北郡七戸町","address":"李沢家ノ前"},
{"zip_code":"0392775","kana_pref":"ｱｵﾓﾘｹﾝ","kana_city":"ｶﾐｷﾀｸﾞﾝｼﾁﾉﾍﾏﾁ","kana_address":"ｽﾓﾓｻﾞﾜﾐﾁﾉｼﾓ","pref":"青森県","city":"上北郡七戸町","address":"李沢道ノ下"},
{"zip_code":"0392557","kana_pref":"ｱｵﾓﾘｹﾝ","kana_city":"ｶﾐｷﾀｸﾞﾝｼﾁﾉﾍﾏﾁ","kana_address":"ｾｲﾉ","pref":"青森県","city":"上北郡七戸町","address":"西野"},
{"zip_code":"0392876","kana_pref":"ｱｵﾓﾘｹﾝ","kana_city":"ｶﾐｷﾀｸﾞﾝｼﾁﾉﾍﾏﾁ","kana_address":"ｾｷｼﾛ","pref":"青森県","city":"上北郡七戸町","address":"堰代"},
{"zip_code":"0392851","kana_pref":"ｱｵﾓﾘｹﾝ","kana_city":"ｶﾐｷﾀｸﾞﾝｼﾁﾉﾍﾏﾁ","kana_address":"ｾｷﾈ","pref":"青森県","city":"上北郡七戸町","address":"堰根"},
{"zip_code":"0392515","kana_pref":"ｱｵﾓﾘｹﾝ","kana_city":"ｶﾐｷﾀｸﾞﾝｼﾁﾉﾍﾏﾁ","kana_address":"ｿｳｾﾞﾝ","pref":"青森県","city":"上北郡七戸町","address":"蒼前"},
{"zip_code":"0392855","kana_pref":"ｱｵﾓﾘｹﾝ","kana_city":"ｶﾐｷﾀｸﾞﾝｼﾁﾉﾍﾏﾁ","kana_address":"ｿｺﾀ","pref":"青森県","city":"上北郡七戸町","address":"底田"},
{"zip_code":"0392732","kana_pref":"ｱｵﾓﾘｹﾝ","kana_city":"ｶﾐｷﾀｸﾞﾝｼﾁﾉﾍﾏﾁ","kana_address":"ｿﾂｺｻﾞﾜ","pref":"青森県","city":"上北郡七戸町","address":"卒古沢"},
{"zip_code":"0392757","kana_pref":"ｱｵﾓﾘｹﾝ","kana_city":"ｶﾐｷﾀｸﾞﾝｼﾁﾉﾍﾏﾁ","kana_address":"ｿﾂｺｻﾞﾜﾐﾅﾐﾀｲ","pref":"青森県","city":"上北郡七戸町","address":"卒古沢南平"},
{"zip_code":"0392854","kana_pref":"ｱｵﾓﾘｹﾝ","kana_city":"ｶﾐｷﾀｸﾞﾝｼﾁﾉﾍﾏﾁ","kana_address":"ﾀｶｲﾅ","pref":"青森県","city":"上北郡七戸町","address":"高井名"},
{"zip_code":"0392558","kana_pref":"ｱｵﾓﾘｹﾝ","kana_city":"ｶﾐｷﾀｸﾞﾝｼﾁﾉﾍﾏﾁ","kana_address":"ﾀｶﾔｼｷ","pref":"青森県","city":"上北郡七戸町","address":"高屋敷"},
{"zip_code":"0392516","kana_pref":"ｱｵﾓﾘｹﾝ","kana_city":"ｶﾐｷﾀｸﾞﾝｼﾁﾉﾍﾏﾁ","kana_address":"ﾀﾃﾉ","pref":"青森県","city":"上北郡七戸町","address":"舘野"},
{"zip_code":"0392505","kana_pref":"ｱｵﾓﾘｹﾝ","kana_city":"ｶﾐｷﾀｸﾞﾝｼﾁﾉﾍﾏﾁ","kana_address":"ﾀﾃﾉｶﾞｼﾗ","pref":"青森県","city":"上北郡七戸町","address":"立野頭"},
{"zip_code":"0392823","kana_pref":"ｱｵﾓﾘｹﾝ","kana_city":"ｶﾐｷﾀｸﾞﾝｼﾁﾉﾍﾏﾁ","kana_address":"ﾀﾞﾃﾉｼﾀ","pref":"青森県","city":"上北郡七戸町","address":"館ノ下"},
{"zip_code":"0392744","kana_pref":"ｱｵﾓﾘｹﾝ","kana_city":"ｶﾐｷﾀｸﾞﾝｼﾁﾉﾍﾏﾁ","kana_address":"ﾂｶﾅｶﾞﾈ","pref":"青森県","city":"上北郡七戸町","address":"塚長根"},
{"zip_code":"0392747","kana_pref":"ｱｵﾓﾘｹﾝ","kana_city":"ｶﾐｷﾀｸﾞﾝｼﾁﾉﾍﾏﾁ","kana_address":"ﾂｸﾀｲｴﾉﾏｴ","pref":"青森県","city":"上北郡七戸町","address":"附田家ノ前"},
{"zip_code":"0392746","kana_pref":"ｱｵﾓﾘｹﾝ","kana_city":"ｶﾐｷﾀｸﾞﾝｼﾁﾉﾍﾏﾁ","kana_address":"ﾂｸﾀｶﾜﾒ","pref":"青森県","city":"上北郡七戸町","address":"附田川目"},
{"zip_code":"0392874","kana_pref":"ｱｵﾓﾘｹﾝ","kana_city":"ｶﾐｷﾀｸﾞﾝｼﾁﾉﾍﾏﾁ","kana_address":"ﾂﾎﾞｶﾜﾗ","pref":"青森県","city":"上北郡七戸町","address":"坪川原"},
{"zip_code":"0392552","kana_pref":"ｱｵﾓﾘｹﾝ","kana_city":"ｶﾐｷﾀｸﾞﾝｼﾁﾉﾍﾏﾁ","kana_address":"ﾂﾙｳﾁﾀ","pref":"青森県","city":"上北郡七戸町","address":"鶴打田"},
{"zip_code":"0392567","kana_pref":"ｱｵﾓﾘｹﾝ","kana_city":"ｶﾐｷﾀｸﾞﾝｼﾁﾉﾍﾏﾁ","kana_address":"ﾂﾙﾉｺﾀｲ","pref":"青森県","city":"上北郡七戸町","address":"鶴児平"},
{"zip_code":"0392844","kana_pref":"ｱｵﾓﾘｹﾝ","kana_city":"ｶﾐｷﾀｸﾞﾝｼﾁﾉﾍﾏﾁ","kana_address":"ﾃｼﾛﾓﾘ","pref":"青森県","city":"上北郡七戸町","address":"手代森"},
{"zip_code":"0392524","kana_pref":"ｱｵﾓﾘｹﾝ","kana_city":"ｶﾐｷﾀｸﾞﾝｼﾁﾉﾍﾏﾁ","kana_address":"ﾃﾗｳﾗ","pref":"青森県","city":"上北郡七戸町","address":"寺裏"},
{"zip_code":"0392743","kana_pref":"ｱｵﾓﾘｹﾝ","kana_city":"ｶﾐｷﾀｸﾞﾝｼﾁﾉﾍﾏﾁ","kana_address":"ﾃﾗｻﾜﾏｴ","pref":"青森県","city":"上北郡七戸町","address":"寺沢前"},
{"zip_code":"0392538","kana_pref":"ｱｵﾓﾘｹﾝ","kana_city":"ｶﾐｷﾀｸﾞﾝｼﾁﾉﾍﾏﾁ","kana_address":"ﾃﾗｼﾀ","pref":"青森県","city":"上北郡七戸町","address":"寺下"},
{"zip_code":"0392518","kana_pref":"ｱｵﾓﾘｹﾝ","kana_city":"ｶﾐｷﾀｸﾞﾝｼﾁﾉﾍﾏﾁ","kana_address":"ﾃﾝｼﾞﾝﾊﾞﾔｼ","pref":"青森県","city":"上北郡七戸町","address":"天神林"},
{"zip_code":"0392521","kana_pref":"ｱｵﾓﾘｹﾝ","kana_city":"ｶﾐｷﾀｸﾞﾝｼﾁﾉﾍﾏﾁ","kana_address":"ﾃﾝﾉｳ","pref":"青森県","city":"上北郡七戸町","address":"天王"},
{"zip_code":"0392811","kana_pref":"ｱｵﾓﾘｹﾝ","kana_city":"ｶﾐｷﾀｸﾞﾝｼﾁﾉﾍﾏﾁ","kana_address":"ﾃﾝﾏﾀﾞﾃｱﾗﾔ","pref":"青森県","city":"上北郡七戸町","address":"天間舘荒谷"},
{"zip_code":"0392861","kana_pref":"ｱｵﾓﾘｹﾝ","kana_city":"ｶﾐｷﾀｸﾞﾝｼﾁﾉﾍﾏﾁ","kana_address":"ﾃﾝﾏﾀﾞﾃｵｵｻﾜ","pref":"青森県","city":"上北郡七戸町","address":"天間舘大沢"},
{"zip_code":"0392873","kana_pref":"ｱｵﾓﾘｹﾝ","kana_city":"ｶﾐｷﾀｸﾞﾝｼﾁﾉﾍﾏﾁ","kana_address":"ﾃﾝﾏﾀﾞﾃｶﾝｽｲ","pref":"青森県","city":"上北郡七戸町","address":"天間舘寒水"},
{"zip_code":"0392857","kana_pref":"ｱｵﾓﾘｹﾝ","kana_city":"ｶﾐｷﾀｸﾞﾝｼﾁﾉﾍﾏﾁ","kana_address":"ﾃﾝﾏﾀﾞﾃｸﾗｺｼ","pref":"青森県","city":"上北郡七戸町","address":"天間舘倉越"},
{"zip_code":"0392733","kana_pref":"ｱｵﾓﾘｹﾝ","kana_city":"ｶﾐｷﾀｸﾞﾝｼﾁﾉﾍﾏﾁ","kana_address":"ﾃﾝﾏﾀﾞﾃﾏｴｶﾜﾗ","pref":"青森県","city":"上北郡七戸町","address":"天間舘前川原"},
{"zip_code":"0392863","kana_pref":"ｱｵﾓﾘｹﾝ","kana_city":"ｶﾐｷﾀｸﾞﾝｼﾁﾉﾍﾏﾁ","kana_address":"ﾄｼﾅｲ","pref":"青森県","city":"上北郡七戸町","address":"十枝内"},
{"zip_code":"0392579","kana_pref":"ｱｵﾓﾘｹﾝ","kana_city":"ｶﾐｷﾀｸﾞﾝｼﾁﾉﾍﾏﾁ","kana_address":"ﾄﾔｸﾉ","pref":"青森県","city":"上北郡七戸町","address":"十役野"},
{"zip_code":"0392503","kana_pref":"ｱｵﾓﾘｹﾝ","kana_city":"ｶﾐｷﾀｸﾞﾝｼﾁﾉﾍﾏﾁ","kana_address":"ﾄﾖﾏﾅｲ","pref":"青森県","city":"上北郡七戸町","address":"豊間内"},
{"zip_code":"0392846","kana_pref":"ｱｵﾓﾘｹﾝ","kana_city":"ｶﾐｷﾀｸﾞﾝｼﾁﾉﾍﾏﾁ","kana_address":"ﾄﾘﾔﾍﾞ","pref":"青森県","city":"上北郡七戸町","address":"鳥谷部"},
{"zip_code":"0392554","kana_pref":"ｱｵﾓﾘｹﾝ","kana_city":"ｶﾐｷﾀｸﾞﾝｼﾁﾉﾍﾏﾁ","kana_address":"ﾅｶｸﾞｷ","pref":"青森県","city":"上北郡七戸町","address":"中岫"},
{"zip_code":"0392782","kana_pref":"ｱｵﾓﾘｹﾝ","kana_city":"ｶﾐｷﾀｸﾞﾝｼﾁﾉﾍﾏﾁ","kana_address":"ﾅｶｸﾞｷｵｵﾀｼﾏ","pref":"青森県","city":"上北郡七戸町","address":"中岫太田嶋"},
{"zip_code":"0392784","kana_pref":"ｱｵﾓﾘｹﾝ","kana_city":"ｶﾐｷﾀｸﾞﾝｼﾁﾉﾍﾏﾁ","kana_address":"ﾅｶｸﾞｷﾅｶﾞｻﾜｼﾓ","pref":"青森県","city":"上北郡七戸町","address":"中岫長沢下"},
{"zip_code":"0392783","kana_pref":"ｱｵﾓﾘｹﾝ","kana_city":"ｶﾐｷﾀｸﾞﾝｼﾁﾉﾍﾏﾁ","kana_address":"ﾅｶｸﾞｷﾊﾞﾝﾔ","pref":"青森県","city":"上北郡七戸町","address":"中岫番屋"},
{"zip_code":"0392786","kana_pref":"ｱｵﾓﾘｹﾝ","kana_city":"ｶﾐｷﾀｸﾞﾝｼﾁﾉﾍﾏﾁ","kana_address":"ﾅｶｸﾞｷﾋｶﾞｼﾐﾁｿﾞｴ","pref":"青森県","city":"上北郡七戸町","address":"中岫東道添"},
{"zip_code":"0392785","kana_pref":"ｱｵﾓﾘｹﾝ","kana_city":"ｶﾐｷﾀｸﾞﾝｼﾁﾉﾍﾏﾁ","kana_address":"ﾅｶｸﾞｷﾑﾗﾉｶﾐ","pref":"青森県","city":"上北郡七戸町","address":"中岫村ノ上"},
{"zip_code":"0392711","kana_pref":"ｱｵﾓﾘｹﾝ","kana_city":"ｶﾐｷﾀｸﾞﾝｼﾁﾉﾍﾏﾁ","kana_address":"ﾅｶﾃﾝﾏﾀﾞﾃ","pref":"青森県","city":"上北郡七戸町","address":"中天間舘"},
{"zip_code":"0392842","kana_pref":"ｱｵﾓﾘｹﾝ","kana_city":"ｶﾐｷﾀｸﾞﾝｼﾁﾉﾍﾏﾁ","kana_address":"ﾅｶﾄﾘﾔ","pref":"青森県","city":"上北郡七戸町","address":"中鳥谷"},
{"zip_code":"0392826","kana_pref":"ｱｵﾓﾘｹﾝ","kana_city":"ｶﾐｷﾀｸﾞﾝｼﾁﾉﾍﾏﾁ","kana_address":"ﾅｶﾉ","pref":"青森県","city":"上北郡七戸町","address":"中野"},
{"zip_code":"0392539","kana_pref":"ｱｵﾓﾘｹﾝ","kana_city":"ｶﾐｷﾀｸﾞﾝｼﾁﾉﾍﾏﾁ","kana_address":"ﾅｶﾑﾗ","pref":"青森県","city":"上北郡七戸町","address":"中村"},
{"zip_code":"0392862","kana_pref":"ｱｵﾓﾘｹﾝ","kana_city":"ｶﾐｷﾀｸﾞﾝｼﾁﾉﾍﾏﾁ","kana_address":"ﾅﾂﾏｷﾞ","pref":"青森県","city":"上北郡七戸町","address":"夏間木"},
{"zip_code":"0392517","kana_pref":"ｱｵﾓﾘｹﾝ","kana_city":"ｶﾐｷﾀｸﾞﾝｼﾁﾉﾍﾏﾁ","kana_address":"ﾅﾂﾔｷ","pref":"青森県","city":"上北郡七戸町","address":"夏焼"},
{"zip_code":"0392582","kana_pref":"ｱｵﾓﾘｹﾝ","kana_city":"ｶﾐｷﾀｸﾞﾝｼﾁﾉﾍﾏﾁ","kana_address":"ﾆｼｶﾐｶﾜﾗ","pref":"青森県","city":"上北郡七戸町","address":"西上川原"},
{"zip_code":"0392556","kana_pref":"ｱｵﾓﾘｹﾝ","kana_city":"ｶﾐｷﾀｸﾞﾝｼﾁﾉﾍﾏﾁ","kana_address":"ﾆｼﾂｷﾉｷ","pref":"青森県","city":"上北郡七戸町","address":"西槻木"},
{"zip_code":"0392535","kana_pref":"ｱｵﾓﾘｹﾝ","kana_city":"ｶﾐｷﾀｸﾞﾝｼﾁﾉﾍﾏﾁ","kana_address":"ﾇﾏﾉｻﾜ","pref":"青森県","city":"上北郡七戸町","address":"沼ノ沢"},
{"zip_code":"0392536","kana_pref":"ｱｵﾓﾘｹﾝ","kana_city":"ｶﾐｷﾀｸﾞﾝｼﾁﾉﾍﾏﾁ","kana_address":"ﾉｻｶｹ","pref":"青森県","city":"上北郡七戸町","address":"野佐掛"},
{"zip_code":"0392801","kana_pref":"ｱｵﾓﾘｹﾝ","kana_city":"ｶﾐｷﾀｸﾞﾝｼﾁﾉﾍﾏﾁ","kana_address":"ﾉｻﾞｷ","pref":"青森県","city":"上北郡七戸町","address":"野崎"},
{"zip_code":"0392804","kana_pref":"ｱｵﾓﾘｹﾝ","kana_city":"ｶﾐｷﾀｸﾞﾝｼﾁﾉﾍﾏﾁ","kana_address":"ﾉｻﾞｷｷﾂﾈｸﾎﾞ","pref":"青森県","city":"上北郡七戸町","address":"野崎狐久保"},
{"zip_code":"0392802","kana_pref":"ｱｵﾓﾘｹﾝ","kana_city":"ｶﾐｷﾀｸﾞﾝｼﾁﾉﾍﾏﾁ","kana_address":"ﾉｻﾞｷﾏｴﾋﾗ","pref":"青森県","city":"上北郡七戸町","address":"野崎前平"},
{"zip_code":"0392803","kana_pref":"ｱｵﾓﾘｹﾝ","kana_city":"ｶﾐｷﾀｸﾞﾝｼﾁﾉﾍﾏﾁ","kana_address":"ﾉｻﾞｷﾓﾘﾉｼﾓ","pref":"青森県","city":"上北郡七戸町","address":"野崎森ノ下"},
{"zip_code":"0392573","kana_pref":"ｱｵﾓﾘｹﾝ","kana_city":"ｶﾐｷﾀｸﾞﾝｼﾁﾉﾍﾏﾁ","kana_address":"ﾉﾂﾂﾞｷ","pref":"青森県","city":"上北郡七戸町","address":"野続"},
{"zip_code":"0392542","kana_pref":"ｱｵﾓﾘｹﾝ","kana_city":"ｶﾐｷﾀｸﾞﾝｼﾁﾉﾍﾏﾁ","kana_address":"ﾊｷﾞﾉｻﾜ","pref":"青森県","city":"上北郡七戸町","address":"萩ノ沢"},
{"zip_code":"0392843","kana_pref":"ｱｵﾓﾘｹﾝ","kana_city":"ｶﾐｷﾀｸﾞﾝｼﾁﾉﾍﾏﾁ","kana_address":"ﾊｼﾉｶﾐ","pref":"青森県","city":"上北郡七戸町","address":"橋ノ上"},
{"zip_code":"0392752","kana_pref":"ｱｵﾓﾘｹﾝ","kana_city":"ｶﾐｷﾀｸﾞﾝｼﾁﾉﾍﾏﾁ","kana_address":"ﾊﾁﾓﾘﾀｲ","pref":"青森県","city":"上北郡七戸町","address":"鉢森平"},
{"zip_code":"0392544","kana_pref":"ｱｵﾓﾘｹﾝ","kana_city":"ｶﾐｷﾀｸﾞﾝｼﾁﾉﾍﾏﾁ","kana_address":"ﾊｯｸﾘﾀｲ","pref":"青森県","city":"上北郡七戸町","address":"八栗平"},
{"zip_code":"0392553","kana_pref":"ｱｵﾓﾘｹﾝ","kana_city":"ｶﾐｷﾀｸﾞﾝｼﾁﾉﾍﾏﾁ","kana_address":"ﾊｯｼｬｸﾄﾞｳ","pref":"青森県","city":"上北郡七戸町","address":"八尺堂"},
{"zip_code":"0392566","kana_pref":"ｱｵﾓﾘｹﾝ","kana_city":"ｶﾐｷﾀｸﾞﾝｼﾁﾉﾍﾏﾁ","kana_address":"ﾊﾅﾂﾓﾘ","pref":"青森県","city":"上北郡七戸町","address":"放森"},
{"zip_code":"0392781","kana_pref":"ｱｵﾓﾘｹﾝ","kana_city":"ｶﾐｷﾀｸﾞﾝｼﾁﾉﾍﾏﾁ","kana_address":"ﾊﾅﾏﾂﾊﾔｼﾉﾈ","pref":"青森県","city":"上北郡七戸町","address":"花松林ノ根"},
{"zip_code":"0392805","kana_pref":"ｱｵﾓﾘｹﾝ","kana_city":"ｶﾐｷﾀｸﾞﾝｼﾁﾉﾍﾏﾁ","kana_address":"ﾊﾗｸﾎﾞ","pref":"青森県","city":"上北郡七戸町","address":"原久保"},
{"zip_code":"0392581","kana_pref":"ｱｵﾓﾘｹﾝ","kana_city":"ｶﾐｷﾀｸﾞﾝｼﾁﾉﾍﾏﾁ","kana_address":"ﾋｶﾞｼｶﾐｶﾜﾗ","pref":"青森県","city":"上北郡七戸町","address":"東上川原"},
{"zip_code":"0392513","kana_pref":"ｱｵﾓﾘｹﾝ","kana_city":"ｶﾐｷﾀｸﾞﾝｼﾁﾉﾍﾏﾁ","kana_address":"ﾋｶﾞｼﾂｷﾉｷ","pref":"青森県","city":"上北郡七戸町","address":"東槻木"},
{"zip_code":"0392713","kana_pref":"ｱｵﾓﾘｹﾝ","kana_city":"ｶﾐｷﾀｸﾞﾝｼﾁﾉﾍﾏﾁ","kana_address":"ﾋｶﾞｼﾃﾝﾏﾀﾞﾃ","pref":"青森県","city":"上北郡七戸町","address":"東天間舘"},
{"zip_code":"0392506","kana_pref":"ｱｵﾓﾘｹﾝ","kana_city":"ｶﾐｷﾀｸﾞﾝｼﾁﾉﾍﾏﾁ","kana_address":"ﾋｻﾞﾓﾘ","pref":"青森県","city":"上北郡七戸町","address":"膝森"},
{"zip_code":"0392504","kana_pref":"ｱｵﾓﾘｹﾝ","kana_city":"ｶﾐｷﾀｸﾞﾝｼﾁﾉﾍﾏﾁ","kana_address":"ﾋﾔﾐｽﾞ","pref":"青森県","city":"上北郡七戸町","address":"寒水"},
{"zip_code":"0392761","kana_pref":"ｱｵﾓﾘｹﾝ","kana_city":"ｶﾐｷﾀｸﾞﾝｼﾁﾉﾍﾏﾁ","kana_address":"ﾌﾀﾂﾓﾘｲｴﾉｳｼﾛ","pref":"青森県","city":"上北郡七戸町","address":"二ツ森家ノ後"},
{"zip_code":"0392763","kana_pref":"ｱｵﾓﾘｹﾝ","kana_city":"ｶﾐｷﾀｸﾞﾝｼﾁﾉﾍﾏﾁ","kana_address":"ﾌﾀﾂﾓﾘｲｴﾉｵﾓﾃ","pref":"青森県","city":"上北郡七戸町","address":"二ツ森家ノ表"},
{"zip_code":"0392762","kana_pref":"ｱｵﾓﾘｹﾝ","kana_city":"ｶﾐｷﾀｸﾞﾝｼﾁﾉﾍﾏﾁ","kana_address":"ﾌﾀﾂﾓﾘｲｴﾉｼﾀ","pref":"青森県","city":"上北郡七戸町","address":"二ツ森家ノ下"},
{"zip_code":"0392742","kana_pref":"ｱｵﾓﾘｹﾝ","kana_city":"ｶﾐｷﾀｸﾞﾝｼﾁﾉﾍﾏﾁ","kana_address":"ﾌﾅﾊﾞﾑｶｲｶﾞﾜｸﾎﾞ","pref":"青森県","city":"上北郡七戸町","address":"舟場向川久保"},
{"zip_code":"0392564","kana_pref":"ｱｵﾓﾘｹﾝ","kana_city":"ｶﾐｷﾀｸﾞﾝｼﾁﾉﾍﾏﾁ","kana_address":"ﾌﾙﾔｼｷ","pref":"青森県","city":"上北郡七戸町","address":"古屋敷"},
{"zip_code":"0392545","kana_pref":"ｱｵﾓﾘｹﾝ","kana_city":"ｶﾐｷﾀｸﾞﾝｼﾁﾉﾍﾏﾁ","kana_address":"ﾍﾞｯｿｳ","pref":"青森県","city":"上北郡七戸町","address":"別曽"},
{"zip_code":"0392571","kana_pref":"ｱｵﾓﾘｹﾝ","kana_city":"ｶﾐｷﾀｸﾞﾝｼﾁﾉﾍﾏﾁ","kana_address":"ﾍﾋﾞｻｶ","pref":"青森県","city":"上北郡七戸町","address":"蛇坂"},
{"zip_code":"0392716","kana_pref":"ｱｵﾓﾘｹﾝ","kana_city":"ｶﾐｷﾀｸﾞﾝｼﾁﾉﾍﾏﾁ","kana_address":"ﾎﾞﾀﾞｲｷﾞ","pref":"青森県","city":"上北郡七戸町","address":"菩提木"},
{"zip_code":"0392583","kana_pref":"ｱｵﾓﾘｹﾝ","kana_city":"ｶﾐｷﾀｸﾞﾝｼﾁﾉﾍﾏﾁ","kana_address":"ﾏｴｶﾜﾗ","pref":"青森県","city":"上北郡七戸町","address":"前川原"},
{"zip_code":"0392773","kana_pref":"ｱｵﾓﾘｹﾝ","kana_city":"ｶﾐｷﾀｸﾞﾝｼﾁﾉﾍﾏﾁ","kana_address":"ﾏｴｻﾉ","pref":"青森県","city":"上北郡七戸町","address":"前左野"},
{"zip_code":"0392555","kana_pref":"ｱｵﾓﾘｹﾝ","kana_city":"ｶﾐｷﾀｸﾞﾝｼﾁﾉﾍﾏﾁ","kana_address":"ﾏｴﾀﾞ","pref":"青森県","city":"上北郡七戸町","address":"前田"},
{"zip_code":"0392569","kana_pref":"ｱｵﾓﾘｹﾝ","kana_city":"ｶﾐｷﾀｸﾞﾝｼﾁﾉﾍﾏﾁ","kana_address":"ﾏｶﾄﾞｶﾞﾜﾗ","pref":"青森県","city":"上北郡七戸町","address":"馬門川原"},
{"zip_code":"0392527","kana_pref":"ｱｵﾓﾘｹﾝ","kana_city":"ｶﾐｷﾀｸﾞﾝｼﾁﾉﾍﾏﾁ","kana_address":"ﾏﾁ","pref":"青森県","city":"上北郡七戸町","address":"町"},
{"zip_code":"0392835","kana_pref":"ｱｵﾓﾘｹﾝ","kana_city":"ｶﾐｷﾀｸﾞﾝｼﾁﾉﾍﾏﾁ","kana_address":"ﾏﾂｶﾞｻﾜ","pref":"青森県","city":"上北郡七戸町","address":"松ケ沢"},
{"zip_code":"0392832","kana_pref":"ｱｵﾓﾘｹﾝ","kana_city":"ｶﾐｷﾀｸﾞﾝｼﾁﾉﾍﾏﾁ","kana_address":"ﾐﾁﾉｶﾐ","pref":"青森県","city":"上北郡七戸町","address":"道ノ上"},
{"zip_code":"0392814","kana_pref":"ｱｵﾓﾘｹﾝ","kana_city":"ｶﾐｷﾀｸﾞﾝｼﾁﾉﾍﾏﾁ","kana_address":"ﾐﾁﾉｼﾓ","pref":"青森県","city":"上北郡七戸町","address":"道ノ下"},
{"zip_code":"0392748","kana_pref":"ｱｵﾓﾘｹﾝ","kana_city":"ｶﾐｷﾀｸﾞﾝｼﾁﾉﾍﾏﾁ","kana_address":"ﾐﾅﾐﾀﾞﾃﾑｶｲ","pref":"青森県","city":"上北郡七戸町","address":"南舘向"},
{"zip_code":"0392541","kana_pref":"ｱｵﾓﾘｹﾝ","kana_city":"ｶﾐｷﾀｸﾞﾝｼﾁﾉﾍﾏﾁ","kana_address":"ﾐﾔｺﾀｲ","pref":"青森県","city":"上北郡七戸町","address":"都平"},
{"zip_code":"0392548","kana_pref":"ｱｵﾓﾘｹﾝ","kana_city":"ｶﾐｷﾀｸﾞﾝｼﾁﾉﾍﾏﾁ","kana_address":"ﾐﾙﾏﾁ","pref":"青森県","city":"上北郡七戸町","address":"見町"},
{"zip_code":"0392722","kana_pref":"ｱｵﾓﾘｹﾝ","kana_city":"ｶﾐｷﾀｸﾞﾝｼﾁﾉﾍﾏﾁ","kana_address":"ﾑｶｲｶﾜﾗ","pref":"青森県","city":"上北郡七戸町","address":"向川原"},
{"zip_code":"0392563","kana_pref":"ｱｵﾓﾘｹﾝ","kana_city":"ｶﾐｷﾀｸﾞﾝｼﾁﾉﾍﾏﾁ","kana_address":"ﾑｶｲﾀｲ","pref":"青森県","city":"上北郡七戸町","address":"向平"},
{"zip_code":"0392834","kana_pref":"ｱｵﾓﾘｹﾝ","kana_city":"ｶﾐｷﾀｸﾞﾝｼﾁﾉﾍﾏﾁ","kana_address":"ﾑｶｲﾅｶﾉｶﾜﾑｶｲ","pref":"青森県","city":"上北郡七戸町","address":"向中野川向"},
{"zip_code":"0392828","kana_pref":"ｱｵﾓﾘｹﾝ","kana_city":"ｶﾐｷﾀｸﾞﾝｼﾁﾉﾍﾏﾁ","kana_address":"ﾓﾘｶﾞｻﾜ","pref":"青森県","city":"上北郡七戸町","address":"森ケ沢"},
{"zip_code":"0392827","kana_pref":"ｱｵﾓﾘｹﾝ","kana_city":"ｶﾐｷﾀｸﾞﾝｼﾁﾉﾍﾏﾁ","kana_address":"ﾓﾘﾉｶﾐ","pref":"青森県","city":"上北郡七戸町","address":"森ノ上"},
{"zip_code":"0392815","kana_pref":"ｱｵﾓﾘｹﾝ","kana_city":"ｶﾐｷﾀｸﾞﾝｼﾁﾉﾍﾏﾁ","kana_address":"ﾓﾘﾉｼﾓ","pref":"青森県","city":"上北郡七戸町","address":"森ノ下"},
{"zip_code":"0392551","kana_pref":"ｱｵﾓﾘｹﾝ","kana_city":"ｶﾐｷﾀｸﾞﾝｼﾁﾉﾍﾏﾁ","kana_address":"ﾔｸｼﾀｲ","pref":"青森県","city":"上北郡七戸町","address":"薬師平"},
{"zip_code":"0392547","kana_pref":"ｱｵﾓﾘｹﾝ","kana_city":"ｶﾐｷﾀｸﾞﾝｼﾁﾉﾍﾏﾁ","kana_address":"ﾔｸﾞﾗ","pref":"青森県","city":"上北郡七戸町","address":"矢倉"},
{"zip_code":"0392717","kana_pref":"ｱｵﾓﾘｹﾝ","kana_city":"ｶﾐｷﾀｸﾞﾝｼﾁﾉﾍﾏﾁ","kana_address":"ﾔﾅｷﾞﾀｲﾗ","pref":"青森県","city":"上北郡七戸町","address":"柳平"},
{"zip_code":"0392559","kana_pref":"ｱｵﾓﾘｹﾝ","kana_city":"ｶﾐｷﾀｸﾞﾝｼﾁﾉﾍﾏﾁ","kana_address":"ﾔﾏﾔ","pref":"青森県","city":"上北郡七戸町","address":"山屋"},
{"zip_code":"0392589","kana_pref":"ｱｵﾓﾘｹﾝ","kana_city":"ｶﾐｷﾀｸﾞﾝｼﾁﾉﾍﾏﾁ","kana_address":"ﾜﾀﾞ","pref":"青森県","city":"上北郡七戸町","address":"和田"},
{"zip_code":"0392588","kana_pref":"ｱｵﾓﾘｹﾝ","kana_city":"ｶﾐｷﾀｸﾞﾝｼﾁﾉﾍﾏﾁ","kana_address":"ﾜﾀﾞｼﾓ","pref":"青森県","city":"上北郡七戸町","address":"和田下"},
{"zip_code":"0392300","kana_pref":"ｱｵﾓﾘｹﾝ","kana_city":"ｶﾐｷﾀｸﾞﾝﾛｸﾉﾍﾏﾁ","kana_address":"","pref":"青森県","city":"上北郡六戸町","address":""},
{"zip_code":"0392371","kana_pref":"ｱｵﾓﾘｹﾝ","kana_city":"ｶﾐｷﾀｸﾞﾝﾛｸﾉﾍﾏﾁ","kana_address":"ｲﾇｵﾄｾ","pref":"青森県","city":"上北郡六戸町","address":"犬落瀬"},
{"zip_code":"0392372","kana_pref":"ｱｵﾓﾘｹﾝ","kana_city":"ｶﾐｷﾀｸﾞﾝﾛｸﾉﾍﾏﾁ","kana_address":"ｵﾘﾓ","pref":"青森県","city":"上北郡六戸町","address":"折茂"},
{"zip_code":"0392311","kana_pref":"ｱｵﾓﾘｹﾝ","kana_city":"ｶﾐｷﾀｸﾞﾝﾛｸﾉﾍﾏﾁ","kana_address":"ｶﾐﾖｼﾀﾞ","pref":"青森県","city":"上北郡六戸町","address":"上吉田"},
{"zip_code":"0392314","kana_pref":"ｱｵﾓﾘｹﾝ","kana_city":"ｶﾐｷﾀｸﾞﾝﾛｸﾉﾍﾏﾁ","kana_address":"ｺﾀﾞｲﾗ","pref":"青森県","city":"上北郡六戸町","address":"小平"},
{"zip_code":"0392312","kana_pref":"ｱｵﾓﾘｹﾝ","kana_city":"ｶﾐｷﾀｸﾞﾝﾛｸﾉﾍﾏﾁ","kana_address":"ｼﾓﾖｼﾀﾞ","pref":"青森県","city":"上北郡六戸町","address":"下吉田"},
{"zip_code":"0392313","kana_pref":"ｱｵﾓﾘｹﾝ","kana_city":"ｶﾐｷﾀｸﾞﾝﾛｸﾉﾍﾏﾁ","kana_address":"ﾂﾙﾊﾞﾐ","pref":"青森県","city":"上北郡六戸町","address":"鶴喰"},
{"zip_code":"0392315","kana_pref":"ｱｵﾓﾘｹﾝ","kana_city":"ｶﾐｷﾀｸﾞﾝﾛｸﾉﾍﾏﾁ","kana_address":"ﾔﾅｷﾞﾏﾁ","pref":"青森県","city":"上北郡六戸町","address":"柳町"},
{"zip_code":"0394100","kana_pref":"ｱｵﾓﾘｹﾝ","kana_city":"ｶﾐｷﾀｸﾞﾝﾖｺﾊﾏﾏﾁ","kana_address":"","pref":"青森県","city":"上北郡横浜町","address":""},
{"zip_code":"0394106","kana_pref":"ｱｵﾓﾘｹﾝ","kana_city":"ｶﾐｷﾀｸﾞﾝﾖｺﾊﾏﾏﾁ","kana_address":"ｱﾘﾊﾀ","pref":"青森県","city":"上北郡横浜町","address":"有畑"},
{"zip_code":"0394113","kana_pref":"ｱｵﾓﾘｹﾝ","kana_city":"ｶﾐｷﾀｸﾞﾝﾖｺﾊﾏﾏﾁ","kana_address":"ｲｴﾉﾏｴｶﾜﾒ","pref":"青森県","city":"上北郡横浜町","address":"家ノ前川目"},
{"zip_code":"0394115","kana_pref":"ｱｵﾓﾘｹﾝ","kana_city":"ｶﾐｷﾀｸﾞﾝﾖｺﾊﾏﾏﾁ","kana_address":"ｲﾅﾘﾀｲﾗ","pref":"青森県","city":"上北郡横浜町","address":"稲荷平"},
{"zip_code":"0394112","kana_pref":"ｱｵﾓﾘｹﾝ","kana_city":"ｶﾐｷﾀｸﾞﾝﾖｺﾊﾏﾏﾁ","kana_address":"ｴｿﾞｶﾞｻﾜﾀｲﾗ","pref":"青森県","city":"上北郡横浜町","address":"夷ケ沢平"},
{"zip_code":"0394111","kana_pref":"ｱｵﾓﾘｹﾝ","kana_city":"ｶﾐｷﾀｸﾞﾝﾖｺﾊﾏﾏﾁ","kana_address":"ｵｵﾊﾀ","pref":"青森県","city":"上北郡横浜町","address":"大畑"},
{"zip_code":"0394131","kana_pref":"ｱｵﾓﾘｹﾝ","kana_city":"ｶﾐｷﾀｸﾞﾝﾖｺﾊﾏﾏﾁ","kana_address":"ｶﾊﾞﾅｷ","pref":"青森県","city":"上北郡横浜町","address":"椛名木"},
{"zip_code":"0394142","kana_pref":"ｱｵﾓﾘｹﾝ","kana_city":"ｶﾐｷﾀｸﾞﾝﾖｺﾊﾏﾏﾁ","kana_address":"ｶﾐｲﾀﾔﾉｷ","pref":"青森県","city":"上北郡横浜町","address":"上イタヤノ木"},
{"zip_code":"0394123","kana_pref":"ｱｵﾓﾘｹﾝ","kana_city":"ｶﾐｷﾀｸﾞﾝﾖｺﾊﾏﾏﾁ","kana_address":"ｶﾔﾀｲﾗ","pref":"青森県","city":"上北郡横浜町","address":"茅平"},
{"zip_code":"0394124","kana_pref":"ｱｵﾓﾘｹﾝ","kana_city":"ｶﾐｷﾀｸﾞﾝﾖｺﾊﾏﾏﾁ","kana_address":"ｶﾜｼﾞﾘ","pref":"青森県","city":"上北郡横浜町","address":"川尻"},
{"zip_code":"0394103","kana_pref":"ｱｵﾓﾘｹﾝ","kana_city":"ｶﾐｷﾀｸﾞﾝﾖｺﾊﾏﾏﾁ","kana_address":"ｶﾜﾀﾛｳｶﾜﾒ","pref":"青森県","city":"上北郡横浜町","address":"川太郎川目"},
{"zip_code":"0394137","kana_pref":"ｱｵﾓﾘｹﾝ","kana_city":"ｶﾐｷﾀｸﾞﾝﾖｺﾊﾏﾏﾁ","kana_address":"ｼﾓｶﾞﾜﾗ","pref":"青森県","city":"上北郡横浜町","address":"下川原"},
{"zip_code":"0394104","kana_pref":"ｱｵﾓﾘｹﾝ","kana_city":"ｶﾐｷﾀｸﾞﾝﾖｺﾊﾏﾏﾁ","kana_address":"ｼﾓﾅﾜｼﾛｶﾜﾒ","pref":"青森県","city":"上北郡横浜町","address":"下苗代川目"},
{"zip_code":"0394133","kana_pref":"ｱｵﾓﾘｹﾝ","kana_city":"ｶﾐｷﾀｸﾞﾝﾖｺﾊﾏﾏﾁ","kana_address":"ﾀﾃﾉｳｼﾛ","pref":"青森県","city":"上北郡横浜町","address":"舘の後"},
{"zip_code":"0394132","kana_pref":"ｱｵﾓﾘｹﾝ","kana_city":"ｶﾐｷﾀｸﾞﾝﾖｺﾊﾏﾏﾁ","kana_address":"ﾀﾛｳｽﾀﾞ","pref":"青森県","city":"上北郡横浜町","address":"太郎須田"},
{"zip_code":"0394138","kana_pref":"ｱｵﾓﾘｹﾝ","kana_city":"ｶﾐｷﾀｸﾞﾝﾖｺﾊﾏﾏﾁ","kana_address":"ﾂｶﾅﾀｲﾗ","pref":"青森県","city":"上北郡横浜町","address":"塚名平"},
{"zip_code":"0394145","kana_pref":"ｱｵﾓﾘｹﾝ","kana_city":"ｶﾐｷﾀｸﾞﾝﾖｺﾊﾏﾏﾁ","kana_address":"ﾃﾗｼﾀ","pref":"青森県","city":"上北郡横浜町","address":"寺下"},
{"zip_code":"0394152","kana_pref":"ｱｵﾓﾘｹﾝ","kana_city":"ｶﾐｷﾀｸﾞﾝﾖｺﾊﾏﾏﾁ","kana_address":"ﾄﾞﾒｷ","pref":"青森県","city":"上北郡横浜町","address":"百目木"},
{"zip_code":"0394155","kana_pref":"ｱｵﾓﾘｹﾝ","kana_city":"ｶﾐｷﾀｸﾞﾝﾖｺﾊﾏﾏﾁ","kana_address":"ﾄﾖｻｶﾀｲﾗ","pref":"青森県","city":"上北郡横浜町","address":"豊栄平"},
{"zip_code":"0394122","kana_pref":"ｱｵﾓﾘｹﾝ","kana_city":"ｶﾐｷﾀｸﾞﾝﾖｺﾊﾏﾏﾁ","kana_address":"ﾄﾘｶﾞｳﾀ","pref":"青森県","city":"上北郡横浜町","address":"鶏ケ唄"},
{"zip_code":"0394116","kana_pref":"ｱｵﾓﾘｹﾝ","kana_city":"ｶﾐｷﾀｸﾞﾝﾖｺﾊﾏﾏﾁ","kana_address":"ﾅｶﾊﾀ","pref":"青森県","city":"上北郡横浜町","address":"中畑"},
{"zip_code":"0394105","kana_pref":"ｱｵﾓﾘｹﾝ","kana_city":"ｶﾐｷﾀｸﾞﾝﾖｺﾊﾏﾏﾁ","kana_address":"ﾅﾜｼﾛｶﾜﾒ","pref":"青森県","city":"上北郡横浜町","address":"苗代川目"},
{"zip_code":"0394117","kana_pref":"ｱｵﾓﾘｹﾝ","kana_city":"ｶﾐｷﾀｸﾞﾝﾖｺﾊﾏﾏﾁ","kana_address":"ﾆﾜﾄﾘｻﾞﾜ","pref":"青森県","city":"上北郡横浜町","address":"鶏沢"},
{"zip_code":"0394144","kana_pref":"ｱｵﾓﾘｹﾝ","kana_city":"ｶﾐｷﾀｸﾞﾝﾖｺﾊﾏﾏﾁ","kana_address":"ﾊﾏｶﾞｹ","pref":"青森県","city":"上北郡横浜町","address":"浜懸"},
{"zip_code":"0394102","kana_pref":"ｱｵﾓﾘｹﾝ","kana_city":"ｶﾐｷﾀｸﾞﾝﾖｺﾊﾏﾏﾁ","kana_address":"ﾊﾏﾀﾞ","pref":"青森県","city":"上北郡横浜町","address":"浜田"},
{"zip_code":"0394101","kana_pref":"ｱｵﾓﾘｹﾝ","kana_city":"ｶﾐｷﾀｸﾞﾝﾖｺﾊﾏﾏﾁ","kana_address":"ﾊﾔｼｼﾞﾘ","pref":"青森県","city":"上北郡横浜町","address":"林尻"},
{"zip_code":"0394135","kana_pref":"ｱｵﾓﾘｹﾝ","kana_city":"ｶﾐｷﾀｸﾞﾝﾖｺﾊﾏﾏﾁ","kana_address":"ﾊﾔｼﾉｳｼﾛ","pref":"青森県","city":"上北郡横浜町","address":"林の後"},
{"zip_code":"0394134","kana_pref":"ｱｵﾓﾘｹﾝ","kana_city":"ｶﾐｷﾀｸﾞﾝﾖｺﾊﾏﾏﾁ","kana_address":"ﾊﾔｼﾉﾜｷ","pref":"青森県","city":"上北郡横浜町","address":"林の脇"},
{"zip_code":"0394121","kana_pref":"ｱｵﾓﾘｹﾝ","kana_city":"ｶﾐｷﾀｸﾞﾝﾖｺﾊﾏﾏﾁ","kana_address":"ﾋﾉｷ","pref":"青森県","city":"上北郡横浜町","address":"桧木"},
{"zip_code":"0394156","kana_pref":"ｱｵﾓﾘｹﾝ","kana_city":"ｶﾐｷﾀｸﾞﾝﾖｺﾊﾏﾏﾁ","kana_address":"ﾋﾊﾞﾘﾀｲﾗ","pref":"青森県","city":"上北郡横浜町","address":"雲雀平"},
{"zip_code":"0394157","kana_pref":"ｱｵﾓﾘｹﾝ","kana_city":"ｶﾐｷﾀｸﾞﾝﾖｺﾊﾏﾏﾁ","kana_address":"ﾌﾀﾏﾀ","pref":"青森県","city":"上北郡横浜町","address":"二又"},
{"zip_code":"0394153","kana_pref":"ｱｵﾓﾘｹﾝ","kana_city":"ｶﾐｷﾀｸﾞﾝﾖｺﾊﾏﾏﾁ","kana_address":"ﾌｯｺｼ","pref":"青森県","city":"上北郡横浜町","address":"吹越"},
{"zip_code":"0394114","kana_pref":"ｱｵﾓﾘｹﾝ","kana_city":"ｶﾐｷﾀｸﾞﾝﾖｺﾊﾏﾏﾁ","kana_address":"ﾏﾒﾀﾞ","pref":"青森県","city":"上北郡横浜町","address":"大豆田"},
{"zip_code":"0394141","kana_pref":"ｱｵﾓﾘｹﾝ","kana_city":"ｶﾐｷﾀｸﾞﾝﾖｺﾊﾏﾏﾁ","kana_address":"ﾐﾎﾉ","pref":"青森県","city":"上北郡横浜町","address":"三保野"},
{"zip_code":"0394154","kana_pref":"ｱｵﾓﾘｹﾝ","kana_city":"ｶﾐｷﾀｸﾞﾝﾖｺﾊﾏﾏﾁ","kana_address":"ﾐｮｳｼﾞﾝﾀｲﾗ","pref":"青森県","city":"上北郡横浜町","address":"明神平"},
{"zip_code":"0394151","kana_pref":"ｱｵﾓﾘｹﾝ","kana_city":"ｶﾐｷﾀｸﾞﾝﾖｺﾊﾏﾏﾁ","kana_address":"ﾑｶｲﾀｲﾗ","pref":"青森県","city":"上北郡横浜町","address":"向平"},
{"zip_code":"0394143","kana_pref":"ｱｵﾓﾘｹﾝ","kana_city":"ｶﾐｷﾀｸﾞﾝﾖｺﾊﾏﾏﾁ","kana_address":"ﾔｼｷｶﾞﾀ","pref":"青森県","city":"上北郡横浜町","address":"屋敷形"},
{"zip_code":"0394136","kana_pref":"ｱｵﾓﾘｹﾝ","kana_city":"ｶﾐｷﾀｸﾞﾝﾖｺﾊﾏﾏﾁ","kana_address":"ﾖｺﾊﾏ","pref":"青森県","city":"上北郡横浜町","address":"横浜"},
{"zip_code":"0392600","kana_pref":"ｱｵﾓﾘｹﾝ","kana_city":"ｶﾐｷﾀｸﾞﾝﾄｳﾎｸﾏﾁ","kana_address":"","pref":"青森県","city":"上北郡東北町","address":""},
{"zip_code":"0392657","kana_pref":"ｱｵﾓﾘｹﾝ","kana_city":"ｶﾐｷﾀｸﾞﾝﾄｳﾎｸﾏﾁ","kana_address":"ｱｶｶﾞﾜﾐﾁ","pref":"青森県","city":"上北郡東北町","address":"赤川道"},
{"zip_code":"0392604","kana_pref":"ｱｵﾓﾘｹﾝ","kana_city":"ｶﾐｷﾀｸﾞﾝﾄｳﾎｸﾏﾁ","kana_address":"ｱｷｸﾎﾞ","pref":"青森県","city":"上北郡東北町","address":"空久保"},
{"zip_code":"0392406","kana_pref":"ｱｵﾓﾘｹﾝ","kana_city":"ｶﾐｷﾀｸﾞﾝﾄｳﾎｸﾏﾁ","kana_address":"ｱｻﾋｷﾀ","pref":"青森県","city":"上北郡東北町","address":"旭北"},
{"zip_code":"0392407","kana_pref":"ｱｵﾓﾘｹﾝ","kana_city":"ｶﾐｷﾀｸﾞﾝﾄｳﾎｸﾏﾁ","kana_address":"ｱｻﾋﾐﾅﾐ","pref":"青森県","city":"上北郡東北町","address":"旭南"},
{"zip_code":"0392685","kana_pref":"ｱｵﾓﾘｹﾝ","kana_city":"ｶﾐｷﾀｸﾞﾝﾄｳﾎｸﾏﾁ","kana_address":"ｲｴﾉｼﾀ","pref":"青森県","city":"上北郡東北町","address":"家ノ下タ"},
{"zip_code":"0392681","kana_pref":"ｱｵﾓﾘｹﾝ","kana_city":"ｶﾐｷﾀｸﾞﾝﾄｳﾎｸﾏﾁ","kana_address":"ｲｴﾉﾏｴ","pref":"青森県","city":"上北郡東北町","address":"家ノ前"},
{"zip_code":"0392602","kana_pref":"ｱｵﾓﾘｹﾝ","kana_city":"ｶﾐｷﾀｸﾞﾝﾄｳﾎｸﾏﾁ","kana_address":"ｲｶﾞﾗｼ","pref":"青森県","city":"上北郡東北町","address":"五十嵐"},
{"zip_code":"0392682","kana_pref":"ｱｵﾓﾘｹﾝ","kana_city":"ｶﾐｷﾀｸﾞﾝﾄｳﾎｸﾏﾁ","kana_address":"ｲｼｻﾞｶ","pref":"青森県","city":"上北郡東北町","address":"石坂"},
{"zip_code":"0392683","kana_pref":"ｱｵﾓﾘｹﾝ","kana_city":"ｶﾐｷﾀｸﾞﾝﾄｳﾎｸﾏﾁ","kana_address":"ｲﾀﾊﾞｼﾔﾏ","pref":"青森県","city":"上北郡東北町","address":"板橋山"},
{"zip_code":"0392626","kana_pref":"ｱｵﾓﾘｹﾝ","kana_city":"ｶﾐｷﾀｸﾞﾝﾄｳﾎｸﾏﾁ","kana_address":"ｳｼﾛｸﾎﾞ","pref":"青森県","city":"上北郡東北町","address":"後久保"},
{"zip_code":"0392655","kana_pref":"ｱｵﾓﾘｹﾝ","kana_city":"ｶﾐｷﾀｸﾞﾝﾄｳﾎｸﾏﾁ","kana_address":"ｳﾁｴﾋﾞｻﾜﾐﾁﾉｶﾐ","pref":"青森県","city":"上北郡東北町","address":"内蛯沢道ノ上"},
{"zip_code":"0392656","kana_pref":"ｱｵﾓﾘｹﾝ","kana_city":"ｶﾐｷﾀｸﾞﾝﾄｳﾎｸﾏﾁ","kana_address":"ｳﾁｴﾋﾞｻﾜﾑｶｲ","pref":"青森県","city":"上北郡東北町","address":"内蛯沢向"},
{"zip_code":"0392686","kana_pref":"ｱｵﾓﾘｹﾝ","kana_city":"ｶﾐｷﾀｸﾞﾝﾄｳﾎｸﾏﾁ","kana_address":"ｳﾄﾞｳｻｶ","pref":"青森県","city":"上北郡東北町","address":"宇道坂"},
{"zip_code":"0392607","kana_pref":"ｱｵﾓﾘｹﾝ","kana_city":"ｶﾐｷﾀｸﾞﾝﾄｳﾎｸﾏﾁ","kana_address":"ｳﾊﾞｻﾜ","pref":"青森県","city":"上北郡東北町","address":"姥沢"},
{"zip_code":"0392673","kana_pref":"ｱｵﾓﾘｹﾝ","kana_city":"ｶﾐｷﾀｸﾞﾝﾄｳﾎｸﾏﾁ","kana_address":"ｳﾏｼﾞﾘ","pref":"青森県","city":"上北郡東北町","address":"馬尻"},
{"zip_code":"0392401","kana_pref":"ｱｵﾓﾘｹﾝ","kana_city":"ｶﾐｷﾀｸﾞﾝﾄｳﾎｸﾏﾁ","kana_address":"ｳﾜﾉ","pref":"青森県","city":"上北郡東北町","address":"上野"},
{"zip_code":"0392612","kana_pref":"ｱｵﾓﾘｹﾝ","kana_city":"ｶﾐｷﾀｸﾞﾝﾄｳﾎｸﾏﾁ","kana_address":"ｵｲﾉｻﾜ","pref":"青森県","city":"上北郡東北町","address":"狼ノ沢"},
{"zip_code":"0392402","kana_pref":"ｱｵﾓﾘｹﾝ","kana_city":"ｶﾐｷﾀｸﾞﾝﾄｳﾎｸﾏﾁ","kana_address":"ｵｵｳﾗ","pref":"青森県","city":"上北郡東北町","address":"大浦"},
{"zip_code":"0392623","kana_pref":"ｱｵﾓﾘｹﾝ","kana_city":"ｶﾐｷﾀｸﾞﾝﾄｳﾎｸﾏﾁ","kana_address":"ｵｵｸﾎﾞ","pref":"青森県","city":"上北郡東北町","address":"大久保"},
{"zip_code":"0392651","kana_pref":"ｱｵﾓﾘｹﾝ","kana_city":"ｶﾐｷﾀｸﾞﾝﾄｳﾎｸﾏﾁ","kana_address":"ｵｵｻﾜ","pref":"青森県","city":"上北郡東北町","address":"大沢"},
{"zip_code":"0392683","kana_pref":"ｱｵﾓﾘｹﾝ","kana_city":"ｶﾐｷﾀｸﾞﾝﾄｳﾎｸﾏﾁ","kana_address":"ｵｵﾀﾞｲﾗ","pref":"青森県","city":"上北郡東北町","address":"大平"},
{"zip_code":"0392688","kana_pref":"ｱｵﾓﾘｹﾝ","kana_city":"ｶﾐｷﾀｸﾞﾝﾄｳﾎｸﾏﾁ","kana_address":"ｵｵﾅﾃﾞｻﾜ","pref":"青森県","city":"上北郡東北町","address":"大撫沢"},
{"zip_code":"0392673","kana_pref":"ｱｵﾓﾘｹﾝ","kana_city":"ｶﾐｷﾀｸﾞﾝﾄｳﾎｸﾏﾁ","kana_address":"ｵｵﾊﾀﾔ","pref":"青森県","city":"上北郡東北町","address":"大籏屋"},
{"zip_code":"0392636","kana_pref":"ｱｵﾓﾘｹﾝ","kana_city":"ｶﾐｷﾀｸﾞﾝﾄｳﾎｸﾏﾁ","kana_address":"ｵｵﾗｲﾉｶﾐ","pref":"青森県","city":"上北郡東北町","address":"往来ノ上"},
{"zip_code":"0392634","kana_pref":"ｱｵﾓﾘｹﾝ","kana_city":"ｶﾐｷﾀｸﾞﾝﾄｳﾎｸﾏﾁ","kana_address":"ｵｵﾗｲﾉｼﾓ","pref":"青森県","city":"上北郡東北町","address":"往来ノ下"},
{"zip_code":"0392671","kana_pref":"ｱｵﾓﾘｹﾝ","kana_city":"ｶﾐｷﾀｸﾞﾝﾄｳﾎｸﾏﾁ","kana_address":"ｵｻﾞﾜ","pref":"青森県","city":"上北郡東北町","address":"小沢"},
{"zip_code":"0392635","kana_pref":"ｱｵﾓﾘｹﾝ","kana_city":"ｶﾐｷﾀｸﾞﾝﾄｳﾎｸﾏﾁ","kana_address":"ｵﾂｺｼ","pref":"青森県","city":"上北郡東北町","address":"乙越"},
{"zip_code":"0392664","kana_pref":"ｱｵﾓﾘｹﾝ","kana_city":"ｶﾐｷﾀｸﾞﾝﾄｳﾎｸﾏﾁ","kana_address":"ｵｯﾄﾓ","pref":"青森県","city":"上北郡東北町","address":"乙供"},
{"zip_code":"0392666","kana_pref":"ｱｵﾓﾘｹﾝ","kana_city":"ｶﾐｷﾀｸﾞﾝﾄｳﾎｸﾏﾁ","kana_address":"ｵｯﾄﾓﾔﾏ","pref":"青森県","city":"上北郡東北町","address":"乙供山"},
{"zip_code":"0392643","kana_pref":"ｱｵﾓﾘｹﾝ","kana_city":"ｶﾐｷﾀｸﾞﾝﾄｳﾎｸﾏﾁ","kana_address":"ｵﾄﾍﾞﾐﾁﾉｶﾐ","pref":"青森県","city":"上北郡東北町","address":"乙部道ノ上"},
{"zip_code":"0392643","kana_pref":"ｱｵﾓﾘｹﾝ","kana_city":"ｶﾐｷﾀｸﾞﾝﾄｳﾎｸﾏﾁ","kana_address":"ｵﾄﾍﾞﾐﾁﾉｼﾓ","pref":"青森県","city":"上北郡東北町","address":"乙部道ノ下"},
{"zip_code":"0392601","kana_pref":"ｱｵﾓﾘｹﾝ","kana_city":"ｶﾐｷﾀｸﾞﾝﾄｳﾎｸﾏﾁ","kana_address":"ｶﾞｽﾀｲ","pref":"青森県","city":"上北郡東北町","address":"ガス平"},
{"zip_code":"0392606","kana_pref":"ｱｵﾓﾘｹﾝ","kana_city":"ｶﾐｷﾀｸﾞﾝﾄｳﾎｸﾏﾁ","kana_address":"ｶｿｼ","pref":"青森県","city":"上北郡東北町","address":"数牛"},
{"zip_code":"0392685","kana_pref":"ｱｵﾓﾘｹﾝ","kana_city":"ｶﾐｷﾀｸﾞﾝﾄｳﾎｸﾏﾁ","kana_address":"ｶﾐｲﾀﾊﾞｼｲｴﾉｳｼﾛ","pref":"青森県","city":"上北郡東北町","address":"上板橋家ノ後"},
{"zip_code":"0392404","kana_pref":"ｱｵﾓﾘｹﾝ","kana_city":"ｶﾐｷﾀｸﾞﾝﾄｳﾎｸﾏﾁ","kana_address":"ｶﾐｷﾀｷﾀ","pref":"青森県","city":"上北郡東北町","address":"上北北"},
{"zip_code":"0392405","kana_pref":"ｱｵﾓﾘｹﾝ","kana_city":"ｶﾐｷﾀｸﾞﾝﾄｳﾎｸﾏﾁ","kana_address":"ｶﾐｷﾀﾐﾅﾐ","pref":"青森県","city":"上北郡東北町","address":"上北南"},
{"zip_code":"0392626","kana_pref":"ｱｵﾓﾘｹﾝ","kana_city":"ｶﾐｷﾀｸﾞﾝﾄｳﾎｸﾏﾁ","kana_address":"ｶﾐｸﾎﾞ","pref":"青森県","city":"上北郡東北町","address":"上久保"},
{"zip_code":"0392661","kana_pref":"ｱｵﾓﾘｹﾝ","kana_city":"ｶﾐｷﾀｸﾞﾝﾄｳﾎｸﾏﾁ","kana_address":"ｶﾐｻｻﾊﾞｼ","pref":"青森県","city":"上北郡東北町","address":"上笹橋"},
{"zip_code":"0392687","kana_pref":"ｱｵﾓﾘｹﾝ","kana_city":"ｶﾐｷﾀｸﾞﾝﾄｳﾎｸﾏﾁ","kana_address":"ｶﾐｼﾐｽﾞﾒ","pref":"青森県","city":"上北郡東北町","address":"上清水目"},
{"zip_code":"0392668","kana_pref":"ｱｵﾓﾘｹﾝ","kana_city":"ｶﾐｷﾀｸﾞﾝﾄｳﾎｸﾏﾁ","kana_address":"ｷﾀｾﾞﾝﾏｴ","pref":"青森県","city":"上北郡東北町","address":"北膳前"},
{"zip_code":"0392678","kana_pref":"ｱｵﾓﾘｹﾝ","kana_city":"ｶﾐｷﾀｸﾞﾝﾄｳﾎｸﾏﾁ","kana_address":"ｷﾂﾈｻﾜﾔﾏ","pref":"青森県","city":"上北郡東北町","address":"狐沢山"},
{"zip_code":"0392616","kana_pref":"ｱｵﾓﾘｹﾝ","kana_city":"ｶﾐｷﾀｸﾞﾝﾄｳﾎｸﾏﾁ","kana_address":"ｷﾘｻｻﾞｶﾐﾁﾉｶﾐ","pref":"青森県","city":"上北郡東北町","address":"切左坂道ノ上"},
{"zip_code":"0392614","kana_pref":"ｱｵﾓﾘｹﾝ","kana_city":"ｶﾐｷﾀｸﾞﾝﾄｳﾎｸﾏﾁ","kana_address":"ｷﾘｻｻﾞｶﾐﾁﾉｼﾓ","pref":"青森県","city":"上北郡東北町","address":"切左坂道ノ下"},
{"zip_code":"0392672","kana_pref":"ｱｵﾓﾘｹﾝ","kana_city":"ｶﾐｷﾀｸﾞﾝﾄｳﾎｸﾏﾁ","kana_address":"ｸﾘﾔﾏｿﾞｲ","pref":"青森県","city":"上北郡東北町","address":"栗山添"},
{"zip_code":"0392641","kana_pref":"ｱｵﾓﾘｹﾝ","kana_city":"ｶﾐｷﾀｸﾞﾝﾄｳﾎｸﾏﾁ","kana_address":"ｺﾎﾞﾉｷ","pref":"青森県","city":"上北郡東北町","address":"枋木"},
{"zip_code":"0392686","kana_pref":"ｱｵﾓﾘｹﾝ","kana_city":"ｶﾐｷﾀｸﾞﾝﾄｳﾎｸﾏﾁ","kana_address":"ｻｲﾉｶﾐ","pref":"青森県","city":"上北郡東北町","address":"塞ノ神"},
{"zip_code":"0392678","kana_pref":"ｱｵﾓﾘｹﾝ","kana_city":"ｶﾐｷﾀｸﾞﾝﾄｳﾎｸﾏﾁ","kana_address":"ｻｶﾉｼﾀ","pref":"青森県","city":"上北郡東北町","address":"坂ノ下"},
{"zip_code":"0392605","kana_pref":"ｱｵﾓﾘｹﾝ","kana_city":"ｶﾐｷﾀｸﾞﾝﾄｳﾎｸﾏﾁ","kana_address":"ｻﾋﾞｼﾛ","pref":"青森県","city":"上北郡東北町","address":"淋代"},
{"zip_code":"0392627","kana_pref":"ｱｵﾓﾘｹﾝ","kana_city":"ｶﾐｷﾀｸﾞﾝﾄｳﾎｸﾏﾁ","kana_address":"ｼｯﾀﾏ","pref":"青森県","city":"上北郡東北町","address":"漆玉"},
{"zip_code":"0392668","kana_pref":"ｱｵﾓﾘｹﾝ","kana_city":"ｶﾐｷﾀｸﾞﾝﾄｳﾎｸﾏﾁ","kana_address":"ｼﾉﾅｲﾀｲ","pref":"青森県","city":"上北郡東北町","address":"篠内平"},
{"zip_code":"0392676","kana_pref":"ｱｵﾓﾘｹﾝ","kana_city":"ｶﾐｷﾀｸﾞﾝﾄｳﾎｸﾏﾁ","kana_address":"ｼﾓｲﾀﾊﾞｼ","pref":"青森県","city":"上北郡東北町","address":"下板橋"},
{"zip_code":"0392662","kana_pref":"ｱｵﾓﾘｹﾝ","kana_city":"ｶﾐｷﾀｸﾞﾝﾄｳﾎｸﾏﾁ","kana_address":"ｼﾓｻｻﾊﾞｼ","pref":"青森県","city":"上北郡東北町","address":"下笹橋"},
{"zip_code":"0392653","kana_pref":"ｱｵﾓﾘｹﾝ","kana_city":"ｶﾐｷﾀｸﾞﾝﾄｳﾎｸﾏﾁ","kana_address":"ｼﾓﾔﾏ","pref":"青森県","city":"上北郡東北町","address":"下山"},
{"zip_code":"0392633","kana_pref":"ｱｵﾓﾘｹﾝ","kana_city":"ｶﾐｷﾀｸﾞﾝﾄｳﾎｸﾏﾁ","kana_address":"ｽｶﾞﾗﾔｼｷ","pref":"青森県","city":"上北郡東北町","address":"素柄邸"},
{"zip_code":"0392667","kana_pref":"ｱｵﾓﾘｹﾝ","kana_city":"ｶﾐｷﾀｸﾞﾝﾄｳﾎｸﾏﾁ","kana_address":"ｾﾞﾝﾏｴ","pref":"青森県","city":"上北郡東北町","address":"膳前"},
{"zip_code":"0392686","kana_pref":"ｱｵﾓﾘｹﾝ","kana_city":"ｶﾐｷﾀｸﾞﾝﾄｳﾎｸﾏﾁ","kana_address":"ｿｴﾉｻﾜ","pref":"青森県","city":"上北郡東北町","address":"添ノ沢"},
{"zip_code":"0392647","kana_pref":"ｱｵﾓﾘｹﾝ","kana_city":"ｶﾐｷﾀｸﾞﾝﾄｳﾎｸﾏﾁ","kana_address":"ｿﾄｴﾋﾞｻﾜｳｼﾛｸﾎﾞ","pref":"青森県","city":"上北郡東北町","address":"外蛯沢後久保"},
{"zip_code":"0392648","kana_pref":"ｱｵﾓﾘｹﾝ","kana_city":"ｶﾐｷﾀｸﾞﾝﾄｳﾎｸﾏﾁ","kana_address":"ｿﾄｴﾋﾞｻﾜｷﾀｸﾎﾞ","pref":"青森県","city":"上北郡東北町","address":"外蛯沢北久保"},
{"zip_code":"0392646","kana_pref":"ｱｵﾓﾘｹﾝ","kana_city":"ｶﾐｷﾀｸﾞﾝﾄｳﾎｸﾏﾁ","kana_address":"ｿﾄｴﾋﾞｻﾜﾆｼﾀｲ","pref":"青森県","city":"上北郡東北町","address":"外蛯沢西平"},
{"zip_code":"0392645","kana_pref":"ｱｵﾓﾘｹﾝ","kana_city":"ｶﾐｷﾀｸﾞﾝﾄｳﾎｸﾏﾁ","kana_address":"ｿﾄｴﾋﾞｻﾜﾏｴﾀｲ","pref":"青森県","city":"上北郡東北町","address":"外蛯沢前平"},
{"zip_code":"0392605","kana_pref":"ｱｵﾓﾘｹﾝ","kana_city":"ｶﾐｷﾀｸﾞﾝﾄｳﾎｸﾏﾁ","kana_address":"ﾀｶﾓﾘ","pref":"青森県","city":"上北郡東北町","address":"高森"},
{"zip_code":"0392631","kana_pref":"ｱｵﾓﾘｹﾝ","kana_city":"ｶﾐｷﾀｸﾞﾝﾄｳﾎｸﾏﾁ","kana_address":"ﾀｷｻﾜﾀｲﾗ","pref":"青森県","city":"上北郡東北町","address":"滝沢平"},
{"zip_code":"0392635","kana_pref":"ｱｵﾓﾘｹﾝ","kana_city":"ｶﾐｷﾀｸﾞﾝﾄｳﾎｸﾏﾁ","kana_address":"ﾀﾞﾃ","pref":"青森県","city":"上北郡東北町","address":"舘"},
{"zip_code":"0392624","kana_pref":"ｱｵﾓﾘｹﾝ","kana_city":"ｶﾐｷﾀｸﾞﾝﾄｳﾎｸﾏﾁ","kana_address":"ﾀﾃﾅｲｸﾎﾞ","pref":"青森県","city":"上北郡東北町","address":"蓼内久保"},
{"zip_code":"0392663","kana_pref":"ｱｵﾓﾘｹﾝ","kana_city":"ｶﾐｷﾀｸﾞﾝﾄｳﾎｸﾏﾁ","kana_address":"ﾀﾞﾃﾊﾅ","pref":"青森県","city":"上北郡東北町","address":"舘花"},
{"zip_code":"0392621","kana_pref":"ｱｵﾓﾘｹﾝ","kana_city":"ｶﾐｷﾀｸﾞﾝﾄｳﾎｸﾏﾁ","kana_address":"ﾀﾉｻﾜ","pref":"青森県","city":"上北郡東北町","address":"田ノ沢"},
{"zip_code":"0392678","kana_pref":"ｱｵﾓﾘｹﾝ","kana_city":"ｶﾐｷﾀｸﾞﾝﾄｳﾎｸﾏﾁ","kana_address":"ﾀﾓｷﾞ","pref":"青森県","city":"上北郡東北町","address":"田面木"},
{"zip_code":"0392675","kana_pref":"ｱｵﾓﾘｹﾝ","kana_city":"ｶﾐｷﾀｸﾞﾝﾄｳﾎｸﾏﾁ","kana_address":"ﾁﾋﾞｷ","pref":"青森県","city":"上北郡東北町","address":"千曳"},
{"zip_code":"0392674","kana_pref":"ｱｵﾓﾘｹﾝ","kana_city":"ｶﾐｷﾀｸﾞﾝﾄｳﾎｸﾏﾁ","kana_address":"ﾁﾋﾞｷｼﾓﾔﾏ","pref":"青森県","city":"上北郡東北町","address":"千曳下山"},
{"zip_code":"0392678","kana_pref":"ｱｵﾓﾘｹﾝ","kana_city":"ｶﾐｷﾀｸﾞﾝﾄｳﾎｸﾏﾁ","kana_address":"ﾁｮｳｼﾞｬｸﾎﾞ","pref":"青森県","city":"上北郡東北町","address":"長者久保"},
{"zip_code":"0392626","kana_pref":"ｱｵﾓﾘｹﾝ","kana_city":"ｶﾐｷﾀｸﾞﾝﾄｳﾎｸﾏﾁ","kana_address":"ﾂﾂﾐｼﾞﾘ","pref":"青森県","city":"上北郡東北町","address":"堤尻"},
{"zip_code":"0392623","kana_pref":"ｱｵﾓﾘｹﾝ","kana_city":"ｶﾐｷﾀｸﾞﾝﾄｳﾎｸﾏﾁ","kana_address":"ﾂﾙｶﾞｻｷ","pref":"青森県","city":"上北郡東北町","address":"鶴ケ崎"},
{"zip_code":"0392654","kana_pref":"ｱｵﾓﾘｹﾝ","kana_city":"ｶﾐｷﾀｸﾞﾝﾄｳﾎｸﾏﾁ","kana_address":"ﾄｳﾉｻﾜﾔﾏ","pref":"青森県","city":"上北郡東北町","address":"塔ノ沢山"},
{"zip_code":"0392635","kana_pref":"ｱｵﾓﾘｹﾝ","kana_city":"ｶﾐｷﾀｸﾞﾝﾄｳﾎｸﾏﾁ","kana_address":"ﾄﾘｸﾞﾁﾀｲ","pref":"青森県","city":"上北郡東北町","address":"鳥口平"},
{"zip_code":"0392611","kana_pref":"ｱｵﾓﾘｹﾝ","kana_city":"ｶﾐｷﾀｸﾞﾝﾄｳﾎｸﾏﾁ","kana_address":"ﾅｶﾑﾗﾐﾁﾉｶﾐ","pref":"青森県","city":"上北郡東北町","address":"中村道ノ上"},
{"zip_code":"0392611","kana_pref":"ｱｵﾓﾘｹﾝ","kana_city":"ｶﾐｷﾀｸﾞﾝﾄｳﾎｸﾏﾁ","kana_address":"ﾅｶﾑﾗﾐﾁﾉｼﾓ","pref":"青森県","city":"上北郡東北町","address":"中村道ノ下"},
{"zip_code":"0392625","kana_pref":"ｱｵﾓﾘｹﾝ","kana_city":"ｶﾐｷﾀｸﾞﾝﾄｳﾎｸﾏﾁ","kana_address":"ﾅｶﾞｸﾎﾞ","pref":"青森県","city":"上北郡東北町","address":"長久保"},
{"zip_code":"0392403","kana_pref":"ｱｵﾓﾘｹﾝ","kana_city":"ｶﾐｷﾀｸﾞﾝﾄｳﾎｸﾏﾁ","kana_address":"ﾆｲﾀﾞﾃ","pref":"青森県","city":"上北郡東北町","address":"新舘"},
{"zip_code":"0392612","kana_pref":"ｱｵﾓﾘｹﾝ","kana_city":"ｶﾐｷﾀｸﾞﾝﾄｳﾎｸﾏﾁ","kana_address":"ﾇﾏｿｴｻﾉﾀｲﾗ","pref":"青森県","city":"上北郡東北町","address":"沼添左ノ平"},
{"zip_code":"0392613","kana_pref":"ｱｵﾓﾘｹﾝ","kana_city":"ｶﾐｷﾀｸﾞﾝﾄｳﾎｸﾏﾁ","kana_address":"ﾈﾉﾄﾘﾀｲ","pref":"青森県","city":"上北郡東北町","address":"子ノ鳥平"},
{"zip_code":"0392613","kana_pref":"ｱｵﾓﾘｹﾝ","kana_city":"ｶﾐｷﾀｸﾞﾝﾄｳﾎｸﾏﾁ","kana_address":"ﾉﾀﾞｶﾞｼﾗ","pref":"青森県","city":"上北郡東北町","address":"野田頭"},
{"zip_code":"0392613","kana_pref":"ｱｵﾓﾘｹﾝ","kana_city":"ｶﾐｷﾀｸﾞﾝﾄｳﾎｸﾏﾁ","kana_address":"ﾉﾀﾞｶﾞｼﾗﾔﾏ","pref":"青森県","city":"上北郡東北町","address":"野田頭山"},
{"zip_code":"0392613","kana_pref":"ｱｵﾓﾘｹﾝ","kana_city":"ｶﾐｷﾀｸﾞﾝﾄｳﾎｸﾏﾁ","kana_address":"ﾉﾀﾞｼﾞﾘ","pref":"青森県","city":"上北郡東北町","address":"野田尻"},
{"zip_code":"0392622","kana_pref":"ｱｵﾓﾘｹﾝ","kana_city":"ｶﾐｷﾀｸﾞﾝﾄｳﾎｸﾏﾁ","kana_address":"ﾊﾏｹﾄﾊﾞ","pref":"青森県","city":"上北郡東北町","address":"浜家苫"},
{"zip_code":"0392612","kana_pref":"ｱｵﾓﾘｹﾝ","kana_city":"ｶﾐｷﾀｸﾞﾝﾄｳﾎｸﾏﾁ","kana_address":"ﾊﾏﾀﾞｲ","pref":"青森県","city":"上北郡東北町","address":"浜台"},
{"zip_code":"0392687","kana_pref":"ｱｵﾓﾘｹﾝ","kana_city":"ｶﾐｷﾀｸﾞﾝﾄｳﾎｸﾏﾁ","kana_address":"ﾊﾔｼﾉｼﾀ","pref":"青森県","city":"上北郡東北町","address":"林ノ下"},
{"zip_code":"0392632","kana_pref":"ｱｵﾓﾘｹﾝ","kana_city":"ｶﾐｷﾀｸﾞﾝﾄｳﾎｸﾏﾁ","kana_address":"ﾋｶｹﾞﾊﾔｼﾉｶﾐﾔﾏ","pref":"青森県","city":"上北郡東北町","address":"日影林ノ上山"},
{"zip_code":"0392642","kana_pref":"ｱｵﾓﾘｹﾝ","kana_city":"ｶﾐｷﾀｸﾞﾝﾄｳﾎｸﾏﾁ","kana_address":"ﾋﾔﾐｽﾞ","pref":"青森県","city":"上北郡東北町","address":"寒水"},
{"zip_code":"0392642","kana_pref":"ｱｵﾓﾘｹﾝ","kana_city":"ｶﾐｷﾀｸﾞﾝﾄｳﾎｸﾏﾁ","kana_address":"ﾋﾔﾐｽﾞｼﾓ","pref":"青森県","city":"上北郡東北町","address":"寒水下"},
{"zip_code":"0392642","kana_pref":"ｱｵﾓﾘｹﾝ","kana_city":"ｶﾐｷﾀｸﾞﾝﾄｳﾎｸﾏﾁ","kana_address":"ﾋﾔﾐｽﾞﾔﾏ","pref":"青森県","city":"上北郡東北町","address":"寒水山"},
{"zip_code":"0392674","kana_pref":"ｱｵﾓﾘｹﾝ","kana_city":"ｶﾐｷﾀｸﾞﾝﾄｳﾎｸﾏﾁ","kana_address":"ﾌﾞｿﾞｳﾊﾗ","pref":"青森県","city":"上北郡東北町","address":"夫雑原"},
{"zip_code":"0392677","kana_pref":"ｱｵﾓﾘｹﾝ","kana_city":"ｶﾐｷﾀｸﾞﾝﾄｳﾎｸﾏﾁ","kana_address":"ﾌﾞｿﾞｳﾊﾗｼﾓﾔﾏ","pref":"青森県","city":"上北郡東北町","address":"夫雑原下山"},
{"zip_code":"0392622","kana_pref":"ｱｵﾓﾘｹﾝ","kana_city":"ｶﾐｷﾀｸﾞﾝﾄｳﾎｸﾏﾁ","kana_address":"ﾌﾈｶﾞｻﾜ","pref":"青森県","city":"上北郡東北町","address":"船ケ沢"},
{"zip_code":"0392624","kana_pref":"ｱｵﾓﾘｹﾝ","kana_city":"ｶﾐｷﾀｸﾞﾝﾄｳﾎｸﾏﾁ","kana_address":"ﾌﾙﾔｼｷ","pref":"青森県","city":"上北郡東北町","address":"古屋敷"},
{"zip_code":"0392615","kana_pref":"ｱｵﾓﾘｹﾝ","kana_city":"ｶﾐｷﾀｸﾞﾝﾄｳﾎｸﾏﾁ","kana_address":"ﾎｿﾂ","pref":"青森県","city":"上北郡東北町","address":"細津"},
{"zip_code":"0392602","kana_pref":"ｱｵﾓﾘｹﾝ","kana_city":"ｶﾐｷﾀｸﾞﾝﾄｳﾎｸﾏﾁ","kana_address":"ﾎｿﾂﾊｼﾉｶﾐ","pref":"青森県","city":"上北郡東北町","address":"細津橋ノ上"},
{"zip_code":"0392652","kana_pref":"ｱｵﾓﾘｹﾝ","kana_city":"ｶﾐｷﾀｸﾞﾝﾄｳﾎｸﾏﾁ","kana_address":"ﾎﾄｹｻﾜ","pref":"青森県","city":"上北郡東北町","address":"ほとけ沢"},
{"zip_code":"0392644","kana_pref":"ｱｵﾓﾘｹﾝ","kana_city":"ｶﾐｷﾀｸﾞﾝﾄｳﾎｸﾏﾁ","kana_address":"ﾎﾄﾞｻﾜｲｴﾉｶﾐ","pref":"青森県","city":"上北郡東北町","address":"保戸沢家ノ上"},
{"zip_code":"0392644","kana_pref":"ｱｵﾓﾘｹﾝ","kana_city":"ｶﾐｷﾀｸﾞﾝﾄｳﾎｸﾏﾁ","kana_address":"ﾎﾄﾞｻﾜｲｴﾉﾏｴ","pref":"青森県","city":"上北郡東北町","address":"保戸沢家ノ前"},
{"zip_code":"0392644","kana_pref":"ｱｵﾓﾘｹﾝ","kana_city":"ｶﾐｷﾀｸﾞﾝﾄｳﾎｸﾏﾁ","kana_address":"ﾎﾄﾞｻﾜｲｴﾉｳｼﾛ","pref":"青森県","city":"上北郡東北町","address":"保戸沢家ノ後"},
{"zip_code":"0392604","kana_pref":"ｱｵﾓﾘｹﾝ","kana_city":"ｶﾐｷﾀｸﾞﾝﾄｳﾎｸﾏﾁ","kana_address":"ﾏﾝｼﾞｭｳﾅｶﾞﾈ","pref":"青森県","city":"上北郡東北町","address":"饅頭長根"},
{"zip_code":"0392604","kana_pref":"ｱｵﾓﾘｹﾝ","kana_city":"ｶﾐｷﾀｸﾞﾝﾄｳﾎｸﾏﾁ","kana_address":"ﾐｽﾞﾅｶﾞﾚ","pref":"青森県","city":"上北郡東北町","address":"水流"},
{"zip_code":"0392617","kana_pref":"ｱｵﾓﾘｹﾝ","kana_city":"ｶﾐｷﾀｸﾞﾝﾄｳﾎｸﾏﾁ","kana_address":"ﾐｽﾞﾊﾐ","pref":"青森県","city":"上北郡東北町","address":"水喰"},
{"zip_code":"0392617","kana_pref":"ｱｵﾓﾘｹﾝ","kana_city":"ｶﾐｷﾀｸﾞﾝﾄｳﾎｸﾏﾁ","kana_address":"ﾐｽﾞﾊﾐﾑｶｲ","pref":"青森県","city":"上北郡東北町","address":"水喰向"},
{"zip_code":"0392624","kana_pref":"ｱｵﾓﾘｹﾝ","kana_city":"ｶﾐｷﾀｸﾞﾝﾄｳﾎｸﾏﾁ","kana_address":"ﾐﾁﾉｷﾀ","pref":"青森県","city":"上北郡東北町","address":"道ノ北"},
{"zip_code":"0392684","kana_pref":"ｱｵﾓﾘｹﾝ","kana_city":"ｶﾐｷﾀｸﾞﾝﾄｳﾎｸﾏﾁ","kana_address":"ﾑｶｲﾀｲ","pref":"青森県","city":"上北郡東北町","address":"向平"},
{"zip_code":"0392672","kana_pref":"ｱｵﾓﾘｹﾝ","kana_city":"ｶﾐｷﾀｸﾞﾝﾄｳﾎｸﾏﾁ","kana_address":"ﾑｶｲﾊﾀﾔ","pref":"青森県","city":"上北郡東北町","address":"向籏屋"},
{"zip_code":"0392673","kana_pref":"ｱｵﾓﾘｹﾝ","kana_city":"ｶﾐｷﾀｸﾞﾝﾄｳﾎｸﾏﾁ","kana_address":"ﾑｶｲﾔｼｷ","pref":"青森県","city":"上北郡東北町","address":"向屋敷"},
{"zip_code":"0392615","kana_pref":"ｱｵﾓﾘｹﾝ","kana_city":"ｶﾐｷﾀｸﾞﾝﾄｳﾎｸﾏﾁ","kana_address":"ﾓﾀﾞｼﾐﾁﾉｶﾐ","pref":"青森県","city":"上北郡東北町","address":"萌出道ノ上"},
{"zip_code":"0392615","kana_pref":"ｱｵﾓﾘｹﾝ","kana_city":"ｶﾐｷﾀｸﾞﾝﾄｳﾎｸﾏﾁ","kana_address":"ﾓﾀﾞｼﾐﾁﾉｼﾓ","pref":"青森県","city":"上北郡東北町","address":"萌出道ノ下"},
{"zip_code":"0392606","kana_pref":"ｱｵﾓﾘｹﾝ","kana_city":"ｶﾐｷﾀｸﾞﾝﾄｳﾎｸﾏﾁ","kana_address":"ﾔｼﾞｶﾞｼﾗ","pref":"青森県","city":"上北郡東北町","address":"谷地頭"},
{"zip_code":"0392665","kana_pref":"ｱｵﾓﾘｹﾝ","kana_city":"ｶﾐｷﾀｸﾞﾝﾄｳﾎｸﾏﾁ","kana_address":"ﾔﾅｷﾞｻﾞﾜ","pref":"青森県","city":"上北郡東北町","address":"柳沢"},
{"zip_code":"0392681","kana_pref":"ｱｵﾓﾘｹﾝ","kana_city":"ｶﾐｷﾀｸﾞﾝﾄｳﾎｸﾏﾁ","kana_address":"ﾔﾏｿﾞｲ","pref":"青森県","city":"上北郡東北町","address":"山添"},
{"zip_code":"0392673","kana_pref":"ｱｵﾓﾘｹﾝ","kana_city":"ｶﾐｷﾀｸﾞﾝﾄｳﾎｸﾏﾁ","kana_address":"ﾔﾏﾉｼﾀ","pref":"青森県","city":"上北郡東北町","address":"山ノ下"},
{"zip_code":"0392682","kana_pref":"ｱｵﾓﾘｹﾝ","kana_city":"ｶﾐｷﾀｸﾞﾝﾄｳﾎｸﾏﾁ","kana_address":"ﾕｻﾞﾜ","pref":"青森県","city":"上北郡東北町","address":"湯沢"},
{"zip_code":"0392604","kana_pref":"ｱｵﾓﾘｹﾝ","kana_city":"ｶﾐｷﾀｸﾞﾝﾄｳﾎｸﾏﾁ","kana_address":"ﾖｺｻﾜ","pref":"青森県","city":"上北郡東北町","address":"横沢"},
{"zip_code":"0392604","kana_pref":"ｱｵﾓﾘｹﾝ","kana_city":"ｶﾐｷﾀｸﾞﾝﾄｳﾎｸﾏﾁ","kana_address":"ﾖｺｻﾜｶﾞｼﾗ","pref":"青森県","city":"上北郡東北町","address":"横沢頭"},
{"zip_code":"0392603","kana_pref":"ｱｵﾓﾘｹﾝ","kana_city":"ｶﾐｷﾀｸﾞﾝﾄｳﾎｸﾏﾁ","kana_address":"ﾖｺｻﾜﾔﾏ","pref":"青森県","city":"上北郡東北町","address":"横沢山"},
{"zip_code":"0392623","kana_pref":"ｱｵﾓﾘｹﾝ","kana_city":"ｶﾐｷﾀｸﾞﾝﾄｳﾎｸﾏﾁ","kana_address":"ﾖｺｼﾀﾞ","pref":"青森県","city":"上北郡東北町","address":"横志多"},
{"zip_code":"0392633","kana_pref":"ｱｵﾓﾘｹﾝ","kana_city":"ｶﾐｷﾀｸﾞﾝﾄｳﾎｸﾏﾁ","kana_address":"ﾜﾔﾏﾀｲﾗ","pref":"青森県","city":"上北郡東北町","address":"和山平"},
{"zip_code":"0393200","kana_pref":"ｱｵﾓﾘｹﾝ","kana_city":"ｶﾐｷﾀｸﾞﾝﾛｯｶｼｮﾑﾗ","kana_address":"","pref":"青森県","city":"上北郡六ヶ所村","address":""},
{"zip_code":"0393212","kana_pref":"ｱｵﾓﾘｹﾝ","kana_city":"ｶﾐｷﾀｸﾞﾝﾛｯｶｼｮﾑﾗ","kana_address":"ｵﾌﾞﾁ","pref":"青森県","city":"上北郡六ヶ所村","address":"尾駮"},
{"zip_code":"0393215","kana_pref":"ｱｵﾓﾘｹﾝ","kana_city":"ｶﾐｷﾀｸﾞﾝﾛｯｶｼｮﾑﾗ","kana_address":"ｸﾗｳﾁ","pref":"青森県","city":"上北郡六ヶ所村","address":"倉内"},
{"zip_code":"0393213","kana_pref":"ｱｵﾓﾘｹﾝ","kana_city":"ｶﾐｷﾀｸﾞﾝﾛｯｶｼｮﾑﾗ","kana_address":"ﾀｶﾎｺ","pref":"青森県","city":"上北郡六ヶ所村","address":"鷹架"},
{"zip_code":"0393211","kana_pref":"ｱｵﾓﾘｹﾝ","kana_city":"ｶﾐｷﾀｸﾞﾝﾛｯｶｼｮﾑﾗ","kana_address":"ﾃﾞﾄ","pref":"青森県","city":"上北郡六ヶ所村","address":"出戸"},
{"zip_code":"0394301","kana_pref":"ｱｵﾓﾘｹﾝ","kana_city":"ｶﾐｷﾀｸﾞﾝﾛｯｶｼｮﾑﾗ","kana_address":"ﾄﾏﾘ","pref":"青森県","city":"上北郡六ヶ所村","address":"泊"},
{"zip_code":"0393214","kana_pref":"ｱｵﾓﾘｹﾝ","kana_city":"ｶﾐｷﾀｸﾞﾝﾛｯｶｼｮﾑﾗ","kana_address":"ﾋﾗﾇﾏ","pref":"青森県","city":"上北郡六ヶ所村","address":"平沼"},
{"zip_code":"0392200","kana_pref":"ｱｵﾓﾘｹﾝ","kana_city":"ｶﾐｷﾀｸﾞﾝｵｲﾗｾﾁｮｳ","kana_address":"","pref":"青森県","city":"上北郡おいらせ町","address":""},
{"zip_code":"0392189","kana_pref":"ｱｵﾓﾘｹﾝ","kana_city":"ｶﾐｷﾀｸﾞﾝｵｲﾗｾﾁｮｳ","kana_address":"ｱｵﾊﾞ","pref":"青森県","city":"上北郡おいらせ町","address":"青葉"},
{"zip_code":"0392147","kana_pref":"ｱｵﾓﾘｹﾝ","kana_city":"ｶﾐｷﾀｸﾞﾝｵｲﾗｾﾁｮｳ","kana_address":"ｱｶﾀﾞﾏｴ","pref":"青森県","city":"上北郡おいらせ町","address":"赤田前"},
{"zip_code":"0392116","kana_pref":"ｱｵﾓﾘｹﾝ","kana_city":"ｶﾐｷﾀｸﾞﾝｵｲﾗｾﾁｮｳ","kana_address":"ｱｷﾄﾞｳ","pref":"青森県","city":"上北郡おいらせ町","address":"秋堂"},
{"zip_code":"0392141","kana_pref":"ｱｵﾓﾘｹﾝ","kana_city":"ｶﾐｷﾀｸﾞﾝｵｲﾗｾﾁｮｳ","kana_address":"ｱｹﾄﾞ","pref":"青森県","city":"上北郡おいらせ町","address":"明土"},
{"zip_code":"0392165","kana_pref":"ｱｵﾓﾘｹﾝ","kana_city":"ｶﾐｷﾀｸﾞﾝｵｲﾗｾﾁｮｳ","kana_address":"ｱｺｳﾎﾞｳ","pref":"青森県","city":"上北郡おいらせ町","address":"阿光坊"},
{"zip_code":"0392172","kana_pref":"ｱｵﾓﾘｹﾝ","kana_city":"ｶﾐｷﾀｸﾞﾝｵｲﾗｾﾁｮｳ","kana_address":"ｱﾗｲﾀﾞｲ","pref":"青森県","city":"上北郡おいらせ町","address":"洗平"},
{"zip_code":"0392113","kana_pref":"ｱｵﾓﾘｹﾝ","kana_city":"ｶﾐｷﾀｸﾞﾝｵｲﾗｾﾁｮｳ","kana_address":"ｲﾇｹﾔﾁ","pref":"青森県","city":"上北郡おいらせ町","address":"犬毛谷地"},
{"zip_code":"0392217","kana_pref":"ｱｵﾓﾘｹﾝ","kana_city":"ｶﾐｷﾀｸﾞﾝｵｲﾗｾﾁｮｳ","kana_address":"ｳｼｺﾞﾒﾀｲ","pref":"青森県","city":"上北郡おいらせ町","address":"牛込平"},
{"zip_code":"0392216","kana_pref":"ｱｵﾓﾘｹﾝ","kana_city":"ｶﾐｷﾀｸﾞﾝｵｲﾗｾﾁｮｳ","kana_address":"ｳｼﾛﾀﾞ","pref":"青森県","city":"上北郡おいらせ町","address":"後田"},
{"zip_code":"0392182","kana_pref":"ｱｵﾓﾘｹﾝ","kana_city":"ｶﾐｷﾀｸﾞﾝｵｲﾗｾﾁｮｳ","kana_address":"ｳｽﾞﾗｸﾎﾞ","pref":"青森県","city":"上北郡おいらせ町","address":"鶉久保"},
{"zip_code":"0392183","kana_pref":"ｱｵﾓﾘｹﾝ","kana_city":"ｶﾐｷﾀｸﾞﾝｵｲﾗｾﾁｮｳ","kana_address":"ｳｽﾞﾗｸﾎﾞﾔﾏ","pref":"青森県","city":"上北郡おいらせ町","address":"鶉久保山"},
{"zip_code":"0392253","kana_pref":"ｱｵﾓﾘｹﾝ","kana_city":"ｶﾐｷﾀｸﾞﾝｵｲﾗｾﾁｮｳ","kana_address":"ｳｿﾉ","pref":"青森県","city":"上北郡おいらせ町","address":"獺野"},
{"zip_code":"0392225","kana_pref":"ｱｵﾓﾘｹﾝ","kana_city":"ｶﾐｷﾀｸﾞﾝｵｲﾗｾﾁｮｳ","kana_address":"ｶﾐｱｹﾄﾞｳ","pref":"青森県","city":"上北郡おいらせ町","address":"上明堂"},
{"zip_code":"0392133","kana_pref":"ｱｵﾓﾘｹﾝ","kana_city":"ｶﾐｷﾀｸﾞﾝｵｲﾗｾﾁｮｳ","kana_address":"ｶﾐｶﾜﾗ","pref":"青森県","city":"上北郡おいらせ町","address":"上川原"},
{"zip_code":"0392185","kana_pref":"ｱｵﾓﾘｹﾝ","kana_city":"ｶﾐｷﾀｸﾞﾝｵｲﾗｾﾁｮｳ","kana_address":"ｶﾐｸﾎﾞ","pref":"青森県","city":"上北郡おいらせ町","address":"上久保"},
{"zip_code":"0392221","kana_pref":"ｱｵﾓﾘｹﾝ","kana_city":"ｶﾐｷﾀｸﾞﾝｵｲﾗｾﾁｮｳ","kana_address":"ｶﾐﾏｴﾀﾞ","pref":"青森県","city":"上北郡おいらせ町","address":"上前田"},
{"zip_code":"0392145","kana_pref":"ｱｵﾓﾘｹﾝ","kana_city":"ｶﾐｷﾀｸﾞﾝｵｲﾗｾﾁｮｳ","kana_address":"ｶﾐﾔﾁ","pref":"青森県","city":"上北郡おいらせ町","address":"上谷地"},
{"zip_code":"0392117","kana_pref":"ｱｵﾓﾘｹﾝ","kana_city":"ｶﾐｷﾀｸﾞﾝｵｲﾗｾﾁｮｳ","kana_address":"ｶﾜﾊﾞﾀ","pref":"青森県","city":"上北郡おいらせ町","address":"川端"},
{"zip_code":"0392127","kana_pref":"ｱｵﾓﾘｹﾝ","kana_city":"ｶﾐｷﾀｸﾞﾝｵｲﾗｾﾁｮｳ","kana_address":"ｷｻﾞｷ","pref":"青森県","city":"上北郡おいらせ町","address":"木崎"},
{"zip_code":"0392186","kana_pref":"ｱｵﾓﾘｹﾝ","kana_city":"ｶﾐｷﾀｸﾞﾝｵｲﾗｾﾁｮｳ","kana_address":"ｷﾀｼﾓﾀﾞ","pref":"青森県","city":"上北郡おいらせ町","address":"北下田"},
{"zip_code":"0392252","kana_pref":"ｱｵﾓﾘｹﾝ","kana_city":"ｶﾐｷﾀｸﾞﾝｵｲﾗｾﾁｮｳ","kana_address":"ｸﾛｻｶﾔﾁ","pref":"青森県","city":"上北郡おいらせ町","address":"黒坂谷地"},
{"zip_code":"0392142","kana_pref":"ｱｵﾓﾘｹﾝ","kana_city":"ｶﾐｷﾀｸﾞﾝｵｲﾗｾﾁｮｳ","kana_address":"ｺﾏｴﾔﾁ","pref":"青森県","city":"上北郡おいらせ町","address":"小前谷地"},
{"zip_code":"0392124","kana_pref":"ｱｵﾓﾘｹﾝ","kana_city":"ｶﾐｷﾀｸﾞﾝｵｲﾗｾﾁｮｳ","kana_address":"ｻｶｲﾀﾞ","pref":"青森県","city":"上北郡おいらせ町","address":"境田"},
{"zip_code":"0392125","kana_pref":"ｱｵﾓﾘｹﾝ","kana_city":"ｶﾐｷﾀｸﾞﾝｵｲﾗｾﾁｮｳ","kana_address":"ｻﾝﾎﾞﾝｷﾞ","pref":"青森県","city":"上北郡おいらせ町","address":"三本木"},
{"zip_code":"0392224","kana_pref":"ｱｵﾓﾘｹﾝ","kana_city":"ｶﾐｷﾀｸﾞﾝｵｲﾗｾﾁｮｳ","kana_address":"ｼﾓｱｹﾄﾞｳ","pref":"青森県","city":"上北郡おいらせ町","address":"下明堂"},
{"zip_code":"0392121","kana_pref":"ｱｵﾓﾘｹﾝ","kana_city":"ｶﾐｷﾀｸﾞﾝｵｲﾗｾﾁｮｳ","kana_address":"ｼﾓｻｶｲ","pref":"青森県","city":"上北郡おいらせ町","address":"下境"},
{"zip_code":"0392222","kana_pref":"ｱｵﾓﾘｹﾝ","kana_city":"ｶﾐｷﾀｸﾞﾝｵｲﾗｾﾁｮｳ","kana_address":"ｼﾓﾏｴﾀﾞ","pref":"青森県","city":"上北郡おいらせ町","address":"下前田"},
{"zip_code":"0392215","kana_pref":"ｱｵﾓﾘｹﾝ","kana_city":"ｶﾐｷﾀｸﾞﾝｵｲﾗｾﾁｮｳ","kana_address":"ｼﾓﾔｼｷ","pref":"青森県","city":"上北郡おいらせ町","address":"下屋敷"},
{"zip_code":"0392143","kana_pref":"ｱｵﾓﾘｹﾝ","kana_city":"ｶﾐｷﾀｸﾞﾝｵｲﾗｾﾁｮｳ","kana_address":"ｼﾞｮｳｽｲｼﾀ","pref":"青森県","city":"上北郡おいらせ町","address":"上水下"},
{"zip_code":"0392226","kana_pref":"ｱｵﾓﾘｹﾝ","kana_city":"ｶﾐｷﾀｸﾞﾝｵｲﾗｾﾁｮｳ","kana_address":"ｼﾝｽｹｶﾜﾗ","pref":"青森県","city":"上北郡おいらせ町","address":"新助川原"},
{"zip_code":"0392211","kana_pref":"ｱｵﾓﾘｹﾝ","kana_city":"ｶﾐｷﾀｸﾞﾝｵｲﾗｾﾁｮｳ","kana_address":"ｼﾝﾃﾞﾝ","pref":"青森県","city":"上北郡おいらせ町","address":"新田"},
{"zip_code":"0392164","kana_pref":"ｱｵﾓﾘｹﾝ","kana_city":"ｶﾐｷﾀｸﾞﾝｵｲﾗｾﾁｮｳ","kana_address":"ｼﾝﾒｲﾏｴ","pref":"青森県","city":"上北郡おいらせ町","address":"神明前"},
{"zip_code":"0392180","kana_pref":"ｱｵﾓﾘｹﾝ","kana_city":"ｶﾐｷﾀｸﾞﾝｵｲﾗｾﾁｮｳ","kana_address":"ｽﾐﾖｼ","pref":"青森県","city":"上北郡おいらせ町","address":"住吉"},
{"zip_code":"0392235","kana_pref":"ｱｵﾓﾘｹﾝ","kana_city":"ｶﾐｷﾀｸﾞﾝｵｲﾗｾﾁｮｳ","kana_address":"ｾﾝｶﾞﾘﾀﾞ","pref":"青森県","city":"上北郡おいらせ町","address":"千刈田"},
{"zip_code":"0392128","kana_pref":"ｱｵﾓﾘｹﾝ","kana_city":"ｶﾐｷﾀｸﾞﾝｵｲﾗｾﾁｮｳ","kana_address":"ｿﾒﾔ","pref":"青森県","city":"上北郡おいらせ町","address":"染屋"},
{"zip_code":"0392114","kana_pref":"ｱｵﾓﾘｹﾝ","kana_city":"ｶﾐｷﾀｸﾞﾝｵｲﾗｾﾁｮｳ","kana_address":"ﾀｶﾀﾞ","pref":"青森県","city":"上北郡おいらせ町","address":"高田"},
{"zip_code":"0392144","kana_pref":"ｱｵﾓﾘｹﾝ","kana_city":"ｶﾐｷﾀｸﾞﾝｵｲﾗｾﾁｮｳ","kana_address":"ﾀｹﾉﾊｼ","pref":"青森県","city":"上北郡おいらせ町","address":"丈の端"},
{"zip_code":"0392135","kana_pref":"ｱｵﾓﾘｹﾝ","kana_city":"ｶﾐｷﾀｸﾞﾝｵｲﾗｾﾁｮｳ","kana_address":"ﾀﾁｼﾞｬ","pref":"青森県","city":"上北郡おいらせ町","address":"立蛇"},
{"zip_code":"0392163","kana_pref":"ｱｵﾓﾘｹﾝ","kana_city":"ｶﾐｷﾀｸﾞﾝｵｲﾗｾﾁｮｳ","kana_address":"ﾀﾃｺﾞｼ","pref":"青森県","city":"上北郡おいらせ町","address":"館越"},
{"zip_code":"0392255","kana_pref":"ｱｵﾓﾘｹﾝ","kana_city":"ｶﾐｷﾀｸﾞﾝｵｲﾗｾﾁｮｳ","kana_address":"ﾂﾁﾄﾘ","pref":"青森県","city":"上北郡おいらせ町","address":"土取"},
{"zip_code":"0392234","kana_pref":"ｱｵﾓﾘｹﾝ","kana_city":"ｶﾐｷﾀｸﾞﾝｵｲﾗｾﾁｮｳ","kana_address":"ﾂﾂﾐﾀﾞ","pref":"青森県","city":"上北郡おいらせ町","address":"堤田"},
{"zip_code":"0392102","kana_pref":"ｱｵﾓﾘｹﾝ","kana_city":"ｶﾐｷﾀｸﾞﾝｵｲﾗｾﾁｮｳ","kana_address":"ﾄﾖｻｶｴ","pref":"青森県","city":"上北郡おいらせ町","address":"豊栄"},
{"zip_code":"0392223","kana_pref":"ｱｵﾓﾘｹﾝ","kana_city":"ｶﾐｷﾀｸﾞﾝｵｲﾗｾﾁｮｳ","kana_address":"ﾅｴﾋﾗﾔﾁ","pref":"青森県","city":"上北郡おいらせ町","address":"苗平谷地"},
{"zip_code":"0392254","kana_pref":"ｱｵﾓﾘｹﾝ","kana_city":"ｶﾐｷﾀｸﾞﾝｵｲﾗｾﾁｮｳ","kana_address":"ﾅｴﾌﾘﾔﾁ","pref":"青森県","city":"上北郡おいらせ町","address":"苗振谷地"},
{"zip_code":"0392136","kana_pref":"ｱｵﾓﾘｹﾝ","kana_city":"ｶﾐｷﾀｸﾞﾝｵｲﾗｾﾁｮｳ","kana_address":"ﾅｶｼﾓﾀﾞ","pref":"青森県","city":"上北郡おいらせ町","address":"中下田"},
{"zip_code":"0392129","kana_pref":"ｱｵﾓﾘｹﾝ","kana_city":"ｶﾐｷﾀｸﾞﾝｵｲﾗｾﾁｮｳ","kana_address":"ﾅｶﾀｲｼﾓﾅｶﾞﾈﾔﾏ","pref":"青森県","city":"上北郡おいらせ町","address":"中平下長根山"},
{"zip_code":"0392112","kana_pref":"ｱｵﾓﾘｹﾝ","kana_city":"ｶﾐｷﾀｸﾞﾝｵｲﾗｾﾁｮｳ","kana_address":"ﾅｶﾉﾀｲ","pref":"青森県","city":"上北郡おいらせ町","address":"中野平"},
{"zip_code":"0392146","kana_pref":"ｱｵﾓﾘｹﾝ","kana_city":"ｶﾐｷﾀｸﾞﾝｵｲﾗｾﾁｮｳ","kana_address":"ﾅｶﾔﾁ","pref":"青森県","city":"上北郡おいらせ町","address":"中谷地"},
{"zip_code":"0392115","kana_pref":"ｱｵﾓﾘｹﾝ","kana_city":"ｶﾐｷﾀｸﾞﾝｵｲﾗｾﾁｮｳ","kana_address":"ﾅﾒｼ","pref":"青森県","city":"上北郡おいらせ町","address":"菜飯"},
{"zip_code":"0392111","kana_pref":"ｱｵﾓﾘｹﾝ","kana_city":"ｶﾐｷﾀｸﾞﾝｵｲﾗｾﾁｮｳ","kana_address":"ﾆｼｳｼﾛﾔﾁ","pref":"青森県","city":"上北郡おいらせ町","address":"西後谷地"},
{"zip_code":"0392171","kana_pref":"ｱｵﾓﾘｹﾝ","kana_city":"ｶﾐｷﾀｸﾞﾝｵｲﾗｾﾁｮｳ","kana_address":"ﾆｼｷ","pref":"青森県","city":"上北郡おいらせ町","address":"新敷"},
{"zip_code":"0392161","kana_pref":"ｱｵﾓﾘｹﾝ","kana_city":"ｶﾐｷﾀｸﾞﾝｵｲﾗｾﾁｮｳ","kana_address":"ﾆｼｼﾓｶﾜﾗ","pref":"青森県","city":"上北郡おいらせ町","address":"西下川原"},
{"zip_code":"0392123","kana_pref":"ｱｵﾓﾘｹﾝ","kana_city":"ｶﾐｷﾀｸﾞﾝｵｲﾗｾﾁｮｳ","kana_address":"ﾆｼｼﾓﾔﾁ","pref":"青森県","city":"上北郡おいらせ町","address":"西下谷地"},
{"zip_code":"0392132","kana_pref":"ｱｵﾓﾘｹﾝ","kana_city":"ｶﾐｷﾀｸﾞﾝｵｲﾗｾﾁｮｳ","kana_address":"ﾆｼﾏｴｶﾜﾗ","pref":"青森県","city":"上北郡おいらせ町","address":"西前川原"},
{"zip_code":"0392122","kana_pref":"ｱｵﾓﾘｹﾝ","kana_city":"ｶﾐｷﾀｸﾞﾝｵｲﾗｾﾁｮｳ","kana_address":"ﾇﾏｺﾔ","pref":"青森県","city":"上北郡おいらせ町","address":"沼小屋"},
{"zip_code":"0392233","kana_pref":"ｱｵﾓﾘｹﾝ","kana_city":"ｶﾐｷﾀｸﾞﾝｵｲﾗｾﾁｮｳ","kana_address":"ﾇﾏﾊﾀ","pref":"青森県","city":"上北郡おいらせ町","address":"沼端"},
{"zip_code":"0392134","kana_pref":"ｱｵﾓﾘｹﾝ","kana_city":"ｶﾐｷﾀｸﾞﾝｵｲﾗｾﾁｮｳ","kana_address":"ﾊｾｸﾀﾞﾘ","pref":"青森県","city":"上北郡おいらせ町","address":"馳下り"},
{"zip_code":"0392184","kana_pref":"ｱｵﾓﾘｹﾝ","kana_city":"ｶﾐｷﾀｸﾞﾝｵｲﾗｾﾁｮｳ","kana_address":"ﾊﾏﾐﾁ","pref":"青森県","city":"上北郡おいらせ町","address":"浜道"},
{"zip_code":"0392232","kana_pref":"ｱｵﾓﾘｹﾝ","kana_city":"ｶﾐｷﾀｸﾞﾝｵｲﾗｾﾁｮｳ","kana_address":"ﾋｶﾞｼｳｼﾛﾔﾁ","pref":"青森県","city":"上北郡おいらせ町","address":"東後谷地"},
{"zip_code":"0392212","kana_pref":"ｱｵﾓﾘｹﾝ","kana_city":"ｶﾐｷﾀｸﾞﾝｵｲﾗｾﾁｮｳ","kana_address":"ﾋｶﾞｼｼﾓｶﾜﾗ","pref":"青森県","city":"上北郡おいらせ町","address":"東下川原"},
{"zip_code":"0392231","kana_pref":"ｱｵﾓﾘｹﾝ","kana_city":"ｶﾐｷﾀｸﾞﾝｵｲﾗｾﾁｮｳ","kana_address":"ﾋｶﾞｼｼﾓﾔﾁ","pref":"青森県","city":"上北郡おいらせ町","address":"東下谷地"},
{"zip_code":"0392214","kana_pref":"ｱｵﾓﾘｹﾝ","kana_city":"ｶﾐｷﾀｸﾞﾝｵｲﾗｾﾁｮｳ","kana_address":"ﾋｶﾞｼﾏｴｶﾜﾗ","pref":"青森県","city":"上北郡おいらせ町","address":"東前川原"},
{"zip_code":"0392118","kana_pref":"ｱｵﾓﾘｹﾝ","kana_city":"ｶﾐｷﾀｸﾞﾝｵｲﾗｾﾁｮｳ","kana_address":"ﾋｺｼﾁｶﾞﾜﾗ","pref":"青森県","city":"上北郡おいらせ町","address":"彦七川原"},
{"zip_code":"0392203","kana_pref":"ｱｵﾓﾘｹﾝ","kana_city":"ｶﾐｷﾀｸﾞﾝｵｲﾗｾﾁｮｳ","kana_address":"ﾋﾄｶﾜﾒ","pref":"青森県","city":"上北郡おいらせ町","address":"一川目"},
{"zip_code":"0392204","kana_pref":"ｱｵﾓﾘｹﾝ","kana_city":"ｶﾐｷﾀｸﾞﾝｵｲﾗｾﾁｮｳ","kana_address":"ﾌｶｻﾜ","pref":"青森県","city":"上北郡おいらせ町","address":"深沢"},
{"zip_code":"0392205","kana_pref":"ｱｵﾓﾘｹﾝ","kana_city":"ｶﾐｷﾀｸﾞﾝｵｲﾗｾﾁｮｳ","kana_address":"ﾌｶｻﾜﾀｲ","pref":"青森県","city":"上北郡おいらせ町","address":"深沢平"},
{"zip_code":"0392173","kana_pref":"ｱｵﾓﾘｹﾝ","kana_city":"ｶﾐｷﾀｸﾞﾝｵｲﾗｾﾁｮｳ","kana_address":"ﾌｸﾍﾞ","pref":"青森県","city":"上北郡おいらせ町","address":"瓢"},
{"zip_code":"0392201","kana_pref":"ｱｵﾓﾘｹﾝ","kana_city":"ｶﾐｷﾀｸﾞﾝｵｲﾗｾﾁｮｳ","kana_address":"ﾌﾀｶﾜﾒ","pref":"青森県","city":"上北郡おいらせ町","address":"二川目"},
{"zip_code":"0392181","kana_pref":"ｱｵﾓﾘｹﾝ","kana_city":"ｶﾐｷﾀｸﾞﾝｵｲﾗｾﾁｮｳ","kana_address":"ﾌﾙﾏｷﾞﾔﾏ","pref":"青森県","city":"上北郡おいらせ町","address":"古間木山"},
{"zip_code":"0392213","kana_pref":"ｱｵﾓﾘｹﾝ","kana_city":"ｶﾐｷﾀｸﾞﾝｵｲﾗｾﾁｮｳ","kana_address":"ﾎﾘﾉｳﾁ","pref":"青森県","city":"上北郡おいらせ町","address":"堀ノ内"},
{"zip_code":"0392126","kana_pref":"ｱｵﾓﾘｹﾝ","kana_city":"ｶﾐｷﾀｸﾞﾝｵｲﾗｾﾁｮｳ","kana_address":"ﾏｷﾞ","pref":"青森県","city":"上北郡おいらせ町","address":"間木"},
{"zip_code":"0392206","kana_pref":"ｱｵﾓﾘｹﾝ","kana_city":"ｶﾐｷﾀｸﾞﾝｵｲﾗｾﾁｮｳ","kana_address":"ﾏﾂﾊﾞﾗ","pref":"青森県","city":"上北郡おいらせ町","address":"松原"},
{"zip_code":"0392187","kana_pref":"ｱｵﾓﾘｹﾝ","kana_city":"ｶﾐｷﾀｸﾞﾝｵｲﾗｾﾁｮｳ","kana_address":"ﾐﾄﾞﾘｶﾞｵｶ","pref":"青森県","city":"上北郡おいらせ町","address":"緑ケ丘"},
{"zip_code":"0392162","kana_pref":"ｱｵﾓﾘｹﾝ","kana_city":"ｶﾐｷﾀｸﾞﾝｵｲﾗｾﾁｮｳ","kana_address":"ﾐﾅﾐｼﾓﾀﾞ","pref":"青森県","city":"上北郡おいらせ町","address":"南下田"},
{"zip_code":"0392131","kana_pref":"ｱｵﾓﾘｹﾝ","kana_city":"ｶﾐｷﾀｸﾞﾝｵｲﾗｾﾁｮｳ","kana_address":"ﾑｶｲｶﾜﾗ","pref":"青森県","city":"上北郡おいらせ町","address":"向川原"},
{"zip_code":"0392251","kana_pref":"ｱｵﾓﾘｹﾝ","kana_city":"ｶﾐｷﾀｸﾞﾝｵｲﾗｾﾁｮｳ","kana_address":"ﾑｶｲｻｶ","pref":"青森県","city":"上北郡おいらせ町","address":"向坂"},
{"zip_code":"0392202","kana_pref":"ｱｵﾓﾘｹﾝ","kana_city":"ｶﾐｷﾀｸﾞﾝｵｲﾗｾﾁｮｳ","kana_address":"ﾑｶｲﾀｲ","pref":"青森県","city":"上北郡おいらせ町","address":"向平"},
{"zip_code":"0392151","kana_pref":"ｱｵﾓﾘｹﾝ","kana_city":"ｶﾐｷﾀｸﾞﾝｵｲﾗｾﾁｮｳ","kana_address":"ﾑｶｲﾔﾏ","pref":"青森県","city":"上北郡おいらせ町","address":"向山"},
{"zip_code":"0392152","kana_pref":"ｱｵﾓﾘｹﾝ","kana_city":"ｶﾐｷﾀｸﾞﾝｵｲﾗｾﾁｮｳ","kana_address":"ﾑｶｲﾔﾏﾋｶﾞｼ","pref":"青森県","city":"上北郡おいらせ町","address":"向山東"},
{"zip_code":"0392153","kana_pref":"ｱｵﾓﾘｹﾝ","kana_city":"ｶﾐｷﾀｸﾞﾝｵｲﾗｾﾁｮｳ","kana_address":"ﾔﾏｻﾞｷ","pref":"青森県","city":"上北郡おいらせ町","address":"山崎"},
{"zip_code":"0392236","kana_pref":"ｱｵﾓﾘｹﾝ","kana_city":"ｶﾐｷﾀｸﾞﾝｵｲﾗｾﾁｮｳ","kana_address":"ﾖｳｺｳﾀﾞｲ","pref":"青森県","city":"上北郡おいらせ町","address":"洋光台"},
{"zip_code":"0392188","kana_pref":"ｱｵﾓﾘｹﾝ","kana_city":"ｶﾐｷﾀｸﾞﾝｵｲﾗｾﾁｮｳ","kana_address":"ﾜｶﾊﾞ","pref":"青森県","city":"上北郡おいらせ町","address":"若葉"},
{"zip_code":"0394600","kana_pref":"ｱｵﾓﾘｹﾝ","kana_city":"ｼﾓｷﾀｸﾞﾝｵｵﾏﾏﾁ","kana_address":"","pref":"青森県","city":"下北郡大間町","address":""},
{"zip_code":"0394601","kana_pref":"ｱｵﾓﾘｹﾝ","kana_city":"ｼﾓｷﾀｸﾞﾝｵｵﾏﾏﾁ","kana_address":"ｵｵﾏ","pref":"青森県","city":"下北郡大間町","address":"大間"},
{"zip_code":"0394602","kana_pref":"ｱｵﾓﾘｹﾝ","kana_city":"ｼﾓｷﾀｸﾞﾝｵｵﾏﾏﾁ","kana_address":"ｵｺｯﾍﾟ","pref":"青森県","city":"下北郡大間町","address":"奥戸"},
{"zip_code":"0394223","kana_pref":"ｱｵﾓﾘｹﾝ","kana_city":"ｼﾓｷﾀｸﾞﾝﾋｶﾞｼﾄﾞｵﾘﾑﾗ","kana_address":"ｵﾀﾞﾉｻﾜ","pref":"青森県","city":"下北郡東通村","address":"小田野沢"},
{"zip_code":"0394221","kana_pref":"ｱｵﾓﾘｹﾝ","kana_city":"ｼﾓｷﾀｸﾞﾝﾋｶﾞｼﾄﾞｵﾘﾑﾗ","kana_address":"ｻﾙｶﾞﾓﾘ","pref":"青森県","city":"下北郡東通村","address":"猿ケ森"},
{"zip_code":"0394224","kana_pref":"ｱｵﾓﾘｹﾝ","kana_city":"ｼﾓｷﾀｸﾞﾝﾋｶﾞｼﾄﾞｵﾘﾑﾗ","kana_address":"ｼﾗﾇｶ","pref":"青森県","city":"下北郡東通村","address":"白糠"},
{"zip_code":"0394222","kana_pref":"ｱｵﾓﾘｹﾝ","kana_city":"ｼﾓｷﾀｸﾞﾝﾋｶﾞｼﾄﾞｵﾘﾑﾗ","kana_address":"ｽﾅｺﾞﾏﾀ","pref":"青森県","city":"下北郡東通村","address":"砂子又"},
{"zip_code":"0394500","kana_pref":"ｱｵﾓﾘｹﾝ","kana_city":"ｼﾓｷﾀｸﾞﾝｶｻﾞﾏｳﾗﾑﾗ","kana_address":"","pref":"青森県","city":"下北郡風間浦村","address":""},
{"zip_code":"0394502","kana_pref":"ｱｵﾓﾘｹﾝ","kana_city":"ｼﾓｷﾀｸﾞﾝｶｻﾞﾏｳﾗﾑﾗ","kana_address":"ｲｺｸﾏ","pref":"青森県","city":"下北郡風間浦村","address":"易国間"},
{"zip_code":"0394501","kana_pref":"ｱｵﾓﾘｹﾝ","kana_city":"ｼﾓｷﾀｸﾞﾝｶｻﾞﾏｳﾗﾑﾗ","kana_address":"ｼﾓﾌﾛ","pref":"青森県","city":"下北郡風間浦村","address":"下風呂"},
{"zip_code":"0394503","kana_pref":"ｱｵﾓﾘｹﾝ","kana_city":"ｼﾓｷﾀｸﾞﾝｶｻﾞﾏｳﾗﾑﾗ","kana_address":"ﾍﾋﾞｳﾗ","pref":"青森県","city":"下北郡風間浦村","address":"蛇浦"},
{"zip_code":"0394700","kana_pref":"ｱｵﾓﾘｹﾝ","kana_city":"ｼﾓｷﾀｸﾞﾝｻｲﾑﾗ","kana_address":"","pref":"青森県","city":"下北郡佐井村","address":""},
{"zip_code":"0394711","kana_pref":"ｱｵﾓﾘｹﾝ","kana_city":"ｼﾓｷﾀｸﾞﾝｻｲﾑﾗ","kana_address":"ｻｲ","pref":"青森県","city":"下北郡佐井村","address":"佐井"},
{"zip_code":"0394712","kana_pref":"ｱｵﾓﾘｹﾝ","kana_city":"ｼﾓｷﾀｸﾞﾝｻｲﾑﾗ","kana_address":"ﾁｮｳｺﾞ","pref":"青森県","city":"下北郡佐井村","address":"長後"},
{"zip_code":"0390100","kana_pref":"ｱｵﾓﾘｹﾝ","kana_city":"ｻﾝﾉﾍｸﾞﾝｻﾝﾉﾍﾏﾁ","kana_address":"","pref":"青森県","city":"三戸郡三戸町","address":""},
{"zip_code":"0390111","kana_pref":"ｱｵﾓﾘｹﾝ","kana_city":"ｻﾝﾉﾍｸﾞﾝｻﾝﾉﾍﾏﾁ","kana_address":"ｲｽﾞﾐﾔﾏ","pref":"青森県","city":"三戸郡三戸町","address":"泉山"},
{"zip_code":"0390112","kana_pref":"ｱｵﾓﾘｹﾝ","kana_city":"ｻﾝﾉﾍｸﾞﾝｻﾝﾉﾍﾏﾁ","kana_address":"ｳﾒﾅｲ","pref":"青森県","city":"三戸郡三戸町","address":"梅内"},
{"zip_code":"0390453","kana_pref":"ｱｵﾓﾘｹﾝ","kana_city":"ｻﾝﾉﾍｸﾞﾝｻﾝﾉﾍﾏﾁ","kana_address":"ｶｲﾓﾘ","pref":"青森県","city":"三戸郡三戸町","address":"貝守"},
{"zip_code":"0390141","kana_pref":"ｱｵﾓﾘｹﾝ","kana_city":"ｻﾝﾉﾍｸﾞﾝｻﾝﾉﾍﾏﾁ","kana_address":"ｶﾜﾓﾘﾀ","pref":"青森県","city":"三戸郡三戸町","address":"川守田"},
{"zip_code":"0390143","kana_pref":"ｱｵﾓﾘｹﾝ","kana_city":"ｻﾝﾉﾍｸﾞﾝｻﾝﾉﾍﾏﾁ","kana_address":"ｶﾜﾓﾘﾀﾏﾁ","pref":"青森県","city":"三戸郡三戸町","address":"川守田町"},
{"zip_code":"0390142","kana_pref":"ｱｵﾓﾘｹﾝ","kana_city":"ｻﾝﾉﾍｸﾞﾝｻﾝﾉﾍﾏﾁ","kana_address":"ｸｼﾞﾏﾁ","pref":"青森県","city":"三戸郡三戸町","address":"久慈町"},
{"zip_code":"0390132","kana_pref":"ｱｵﾓﾘｹﾝ","kana_city":"ｻﾝﾉﾍｸﾞﾝｻﾝﾉﾍﾏﾁ","kana_address":"ｻﾞｲﾌｺｳｼﾞﾏﾁ","pref":"青森県","city":"三戸郡三戸町","address":"在府小路町"},
{"zip_code":"0390451","kana_pref":"ｱｵﾓﾘｹﾝ","kana_city":"ｻﾝﾉﾍｸﾞﾝｻﾝﾉﾍﾏﾁ","kana_address":"ｼﾞｬﾇﾏ","pref":"青森県","city":"三戸郡三戸町","address":"蛇沼"},
{"zip_code":"0390134","kana_pref":"ｱｵﾓﾘｹﾝ","kana_city":"ｻﾝﾉﾍｸﾞﾝｻﾝﾉﾍﾏﾁ","kana_address":"ﾄﾞｳｼﾝﾁｮｳ","pref":"青森県","city":"三戸郡三戸町","address":"同心町"},
{"zip_code":"0390122","kana_pref":"ｱｵﾓﾘｹﾝ","kana_city":"ｻﾝﾉﾍｸﾞﾝｻﾝﾉﾍﾏﾁ","kana_address":"ﾄﾅｲ","pref":"青森県","city":"三戸郡三戸町","address":"斗内"},
{"zip_code":"0390121","kana_pref":"ｱｵﾓﾘｹﾝ","kana_city":"ｻﾝﾉﾍｸﾞﾝｻﾝﾉﾍﾏﾁ","kana_address":"ﾄﾖｶﾜ","pref":"青森県","city":"三戸郡三戸町","address":"豊川"},
{"zip_code":"0390452","kana_pref":"ｱｵﾓﾘｹﾝ","kana_city":"ｻﾝﾉﾍｸﾞﾝｻﾝﾉﾍﾏﾁ","kana_address":"ﾊｶﾏﾀﾞ","pref":"青森県","city":"三戸郡三戸町","address":"袴田"},
{"zip_code":"0390133","kana_pref":"ｱｵﾓﾘｹﾝ","kana_city":"ｻﾝﾉﾍｸﾞﾝｻﾝﾉﾍﾏﾁ","kana_address":"ﾊﾞｸﾛﾏﾁ","pref":"青森県","city":"三戸郡三戸町","address":"馬喰町"},
{"zip_code":"0390131","kana_pref":"ｱｵﾓﾘｹﾝ","kana_city":"ｻﾝﾉﾍｸﾞﾝｻﾝﾉﾍﾏﾁ","kana_address":"ﾌﾂｶﾏﾁ","pref":"青森県","city":"三戸郡三戸町","address":"二日町"},
{"zip_code":"0390144","kana_pref":"ｱｵﾓﾘｹﾝ","kana_city":"ｻﾝﾉﾍｸﾞﾝｻﾝﾉﾍﾏﾁ","kana_address":"ﾑｲｶﾏﾁ","pref":"青森県","city":"三戸郡三戸町","address":"六日町"},
{"zip_code":"0390113","kana_pref":"ｱｵﾓﾘｹﾝ","kana_city":"ｻﾝﾉﾍｸﾞﾝｻﾝﾉﾍﾏﾁ","kana_address":"ﾒﾄｷ","pref":"青森県","city":"三戸郡三戸町","address":"目時"},
{"zip_code":"0390135","kana_pref":"ｱｵﾓﾘｹﾝ","kana_city":"ｻﾝﾉﾍｸﾞﾝｻﾝﾉﾍﾏﾁ","kana_address":"ﾖｳｶﾏﾁ","pref":"青森県","city":"三戸郡三戸町","address":"八日町"},
{"zip_code":"0391500","kana_pref":"ｱｵﾓﾘｹﾝ","kana_city":"ｻﾝﾉﾍｸﾞﾝｺﾞﾉﾍﾏﾁ","kana_address":"","pref":"青森県","city":"三戸郡五戸町","address":""},
{"zip_code":"0391508","kana_pref":"ｱｵﾓﾘｹﾝ","kana_city":"ｻﾝﾉﾍｸﾞﾝｺﾞﾉﾍﾏﾁ","kana_address":"ｱｶｶﾞﾜ","pref":"青森県","city":"三戸郡五戸町","address":"赤川"},
{"zip_code":"0391508","kana_pref":"ｱｵﾓﾘｹﾝ","kana_city":"ｻﾝﾉﾍｸﾞﾝｺﾞﾉﾍﾏﾁ","kana_address":"ｱｶｶﾞﾜﾏｴ","pref":"青森県","city":"三戸郡五戸町","address":"赤川前"},
{"zip_code":"0391561","kana_pref":"ｱｵﾓﾘｹﾝ","kana_city":"ｻﾝﾉﾍｸﾞﾝｺﾞﾉﾍﾏﾁ","kana_address":"ｱｶｻｶ","pref":"青森県","city":"三戸郡五戸町","address":"赤坂"},
{"zip_code":"0391528","kana_pref":"ｱｵﾓﾘｹﾝ","kana_city":"ｻﾝﾉﾍｸﾞﾝｺﾞﾉﾍﾏﾁ","kana_address":"ｱｻﾐｽﾞ","pref":"青森県","city":"三戸郡五戸町","address":"浅水"},
{"zip_code":"0391536","kana_pref":"ｱｵﾓﾘｹﾝ","kana_city":"ｻﾝﾉﾍｸﾞﾝｺﾞﾉﾍﾏﾁ","kana_address":"ｱﾀｺﾞｳｼﾛ","pref":"青森県","city":"三戸郡五戸町","address":"愛宕後"},
{"zip_code":"0391536","kana_pref":"ｱｵﾓﾘｹﾝ","kana_city":"ｻﾝﾉﾍｸﾞﾝｺﾞﾉﾍﾏﾁ","kana_address":"ｱﾀｺﾞｼﾀ","pref":"青森県","city":"三戸郡五戸町","address":"愛宕下タ"},
{"zip_code":"0391536","kana_pref":"ｱｵﾓﾘｹﾝ","kana_city":"ｻﾝﾉﾍｸﾞﾝｺﾞﾉﾍﾏﾁ","kana_address":"ｱﾀｺﾞﾁｮｳ","pref":"青森県","city":"三戸郡五戸町","address":"愛宕丁"},
{"zip_code":"0391556","kana_pref":"ｱｵﾓﾘｹﾝ","kana_city":"ｻﾝﾉﾍｸﾞﾝｺﾞﾉﾍﾏﾁ","kana_address":"ｱﾌﾞﾗﾃﾞ","pref":"青森県","city":"三戸郡五戸町","address":"油出"},
{"zip_code":"0391534","kana_pref":"ｱｵﾓﾘｹﾝ","kana_city":"ｻﾝﾉﾍｸﾞﾝｺﾞﾉﾍﾏﾁ","kana_address":"ｱﾗﾏﾁ","pref":"青森県","city":"三戸郡五戸町","address":"荒町"},
{"zip_code":"0391521","kana_pref":"ｱｵﾓﾘｹﾝ","kana_city":"ｻﾝﾉﾍｸﾞﾝｺﾞﾉﾍﾏﾁ","kana_address":"ｲｵｸﾎﾞ","pref":"青森県","city":"三戸郡五戸町","address":"五百窪"},
{"zip_code":"0391539","kana_pref":"ｱｵﾓﾘｹﾝ","kana_city":"ｻﾝﾉﾍｸﾞﾝｺﾞﾉﾍﾏﾁ","kana_address":"ｲｼｻﾞﾜｻｶｲ","pref":"青森県","city":"三戸郡五戸町","address":"石沢境"},
{"zip_code":"0391505","kana_pref":"ｱｵﾓﾘｹﾝ","kana_city":"ｻﾝﾉﾍｸﾞﾝｺﾞﾉﾍﾏﾁ","kana_address":"ｲｼﾎﾞﾄｹ","pref":"青森県","city":"三戸郡五戸町","address":"石仏"},
{"zip_code":"0391505","kana_pref":"ｱｵﾓﾘｹﾝ","kana_city":"ｻﾝﾉﾍｸﾞﾝｺﾞﾉﾍﾏﾁ","kana_address":"ｲｼﾎﾞﾄｹｶﾐｶﾜﾗ","pref":"青森県","city":"三戸郡五戸町","address":"石仏上川原"},
{"zip_code":"0391505","kana_pref":"ｱｵﾓﾘｹﾝ","kana_city":"ｻﾝﾉﾍｸﾞﾝｺﾞﾉﾍﾏﾁ","kana_address":"ｲｼﾎﾞﾄｹｼﾓｶﾜﾗ","pref":"青森県","city":"三戸郡五戸町","address":"石仏下川原"},
{"zip_code":"0391505","kana_pref":"ｱｵﾓﾘｹﾝ","kana_city":"ｻﾝﾉﾍｸﾞﾝｺﾞﾉﾍﾏﾁ","kana_address":"ｲｼﾎﾞﾄｹﾏｴ","pref":"青森県","city":"三戸郡五戸町","address":"石仏前"},
{"zip_code":"0391521","kana_pref":"ｱｵﾓﾘｹﾝ","kana_city":"ｻﾝﾉﾍｸﾞﾝｺﾞﾉﾍﾏﾁ","kana_address":"ｲｽﾞﾐｸﾎﾞ","pref":"青森県","city":"三戸郡五戸町","address":"泉窪"},
{"zip_code":"0391516","kana_pref":"ｱｵﾓﾘｹﾝ","kana_city":"ｻﾝﾉﾍｸﾞﾝｺﾞﾉﾍﾏﾁ","kana_address":"ｲﾁｶﾜﾐﾁｼﾞｭｳﾓﾝｼﾞ","pref":"青森県","city":"三戸郡五戸町","address":"市川道十文字"},
{"zip_code":"0391568","kana_pref":"ｱｵﾓﾘｹﾝ","kana_city":"ｻﾝﾉﾍｸﾞﾝｺﾞﾉﾍﾏﾁ","kana_address":"ｲﾁｮｳﾉｷ","pref":"青森県","city":"三戸郡五戸町","address":"銀杏木"},
{"zip_code":"0391568","kana_pref":"ｱｵﾓﾘｹﾝ","kana_city":"ｻﾝﾉﾍｸﾞﾝｺﾞﾉﾍﾏﾁ","kana_address":"ｲﾁｮｳﾉｷﾏｴ","pref":"青森県","city":"三戸郡五戸町","address":"銀杏木前"},
{"zip_code":"0391568","kana_pref":"ｱｵﾓﾘｹﾝ","kana_city":"ｻﾝﾉﾍｸﾞﾝｺﾞﾉﾍﾏﾁ","kana_address":"ｲｯﾎﾟﾝｷﾞ","pref":"青森県","city":"三戸郡五戸町","address":"一本木"},
{"zip_code":"0391568","kana_pref":"ｱｵﾓﾘｹﾝ","kana_city":"ｻﾝﾉﾍｸﾞﾝｺﾞﾉﾍﾏﾁ","kana_address":"ｲｯﾎﾟﾝｷﾞﾏｴ","pref":"青森県","city":"三戸郡五戸町","address":"一本木前"},
{"zip_code":"0391504","kana_pref":"ｱｵﾓﾘｹﾝ","kana_city":"ｻﾝﾉﾍｸﾞﾝｺﾞﾉﾍﾏﾁ","kana_address":"ｳｻｷﾞﾅｲ","pref":"青森県","city":"三戸郡五戸町","address":"兎内"},
{"zip_code":"0391504","kana_pref":"ｱｵﾓﾘｹﾝ","kana_city":"ｻﾝﾉﾍｸﾞﾝｺﾞﾉﾍﾏﾁ","kana_address":"ｳｻｷﾞﾅｲｶﾐﾎﾄｻﾞﾜ","pref":"青森県","city":"三戸郡五戸町","address":"兎内上保土沢"},
{"zip_code":"0391504","kana_pref":"ｱｵﾓﾘｹﾝ","kana_city":"ｻﾝﾉﾍｸﾞﾝｺﾞﾉﾍﾏﾁ","kana_address":"ｳｻｷﾞﾅｲｼﾓﾎﾄｻﾞﾜ","pref":"青森県","city":"三戸郡五戸町","address":"兎内下保土沢"},
{"zip_code":"0391504","kana_pref":"ｱｵﾓﾘｹﾝ","kana_city":"ｻﾝﾉﾍｸﾞﾝｺﾞﾉﾍﾏﾁ","kana_address":"ｳｻｷﾞﾅｲｼﾓｶﾜﾗ","pref":"青森県","city":"三戸郡五戸町","address":"兎内下川原"},
{"zip_code":"0391504","kana_pref":"ｱｵﾓﾘｹﾝ","kana_city":"ｻﾝﾉﾍｸﾞﾝｺﾞﾉﾍﾏﾁ","kana_address":"ｳｻｷﾞﾅｲｼﾓﾔﾁ","pref":"青森県","city":"三戸郡五戸町","address":"兎内下谷地"},
{"zip_code":"0391552","kana_pref":"ｱｵﾓﾘｹﾝ","kana_city":"ｻﾝﾉﾍｸﾞﾝｺﾞﾉﾍﾏﾁ","kana_address":"ｳﾊﾞﾂﾞﾂﾐ","pref":"青森県","city":"三戸郡五戸町","address":"姥堤"},
{"zip_code":"0391537","kana_pref":"ｱｵﾓﾘｹﾝ","kana_city":"ｻﾝﾉﾍｸﾞﾝｺﾞﾉﾍﾏﾁ","kana_address":"ｳﾙｴﾅｶﾞﾈ","pref":"青森県","city":"三戸郡五戸町","address":"ウルエ長根"},
{"zip_code":"0391537","kana_pref":"ｱｵﾓﾘｹﾝ","kana_city":"ｻﾝﾉﾍｸﾞﾝｺﾞﾉﾍﾏﾁ","kana_address":"ｳﾙｴﾅｶﾞﾈｼﾀ","pref":"青森県","city":"三戸郡五戸町","address":"ウルエ長根下"},
{"zip_code":"0391507","kana_pref":"ｱｵﾓﾘｹﾝ","kana_city":"ｻﾝﾉﾍｸﾞﾝｺﾞﾉﾍﾏﾁ","kana_address":"ｴﾋﾞｶﾜｳｼﾛ","pref":"青森県","city":"三戸郡五戸町","address":"蛯川後"},
{"zip_code":"0391507","kana_pref":"ｱｵﾓﾘｹﾝ","kana_city":"ｻﾝﾉﾍｸﾞﾝｺﾞﾉﾍﾏﾁ","kana_address":"ｴﾋﾞｶﾜﾏｴｶﾜﾗ","pref":"青森県","city":"三戸郡五戸町","address":"蛯川前川原"},
{"zip_code":"0391507","kana_pref":"ｱｵﾓﾘｹﾝ","kana_city":"ｻﾝﾉﾍｸﾞﾝｺﾞﾉﾍﾏﾁ","kana_address":"ｴﾋﾞｶﾜﾑﾗ","pref":"青森県","city":"三戸郡五戸町","address":"蛯川村"},
{"zip_code":"0391537","kana_pref":"ｱｵﾓﾘｹﾝ","kana_city":"ｻﾝﾉﾍｸﾞﾝｺﾞﾉﾍﾏﾁ","kana_address":"ｵｲﾜｹ","pref":"青森県","city":"三戸郡五戸町","address":"追分"},
{"zip_code":"0391527","kana_pref":"ｱｵﾓﾘｹﾝ","kana_city":"ｻﾝﾉﾍｸﾞﾝｺﾞﾉﾍﾏﾁ","kana_address":"ｵｳｷﾞﾀﾞ","pref":"青森県","city":"三戸郡五戸町","address":"扇田"},
{"zip_code":"0391568","kana_pref":"ｱｵﾓﾘｹﾝ","kana_city":"ｻﾝﾉﾍｸﾞﾝｺﾞﾉﾍﾏﾁ","kana_address":"ｵｳﾀﾞ","pref":"青森県","city":"三戸郡五戸町","address":"應田"},
{"zip_code":"0391503","kana_pref":"ｱｵﾓﾘｹﾝ","kana_city":"ｻﾝﾉﾍｸﾞﾝｺﾞﾉﾍﾏﾁ","kana_address":"ｵｵｸﾎﾞ","pref":"青森県","city":"三戸郡五戸町","address":"大久保"},
{"zip_code":"0391521","kana_pref":"ｱｵﾓﾘｹﾝ","kana_city":"ｻﾝﾉﾍｸﾞﾝｺﾞﾉﾍﾏﾁ","kana_address":"ｵｵﾜﾀﾘ","pref":"青森県","city":"三戸郡五戸町","address":"大渡"},
{"zip_code":"0391521","kana_pref":"ｱｵﾓﾘｹﾝ","kana_city":"ｻﾝﾉﾍｸﾞﾝｺﾞﾉﾍﾏﾁ","kana_address":"ｵｵﾜﾀﾘﾐﾁﾉｼﾓ","pref":"青森県","city":"三戸郡五戸町","address":"大渡道ノ下"},
{"zip_code":"0391563","kana_pref":"ｱｵﾓﾘｹﾝ","kana_city":"ｻﾝﾉﾍｸﾞﾝｺﾞﾉﾍﾏﾁ","kana_address":"ｵｶﾔﾁ","pref":"青森県","city":"三戸郡五戸町","address":"岡谷地"},
{"zip_code":"0391511","kana_pref":"ｱｵﾓﾘｹﾝ","kana_city":"ｻﾝﾉﾍｸﾞﾝｺﾞﾉﾍﾏﾁ","kana_address":"ｶｼﾞﾔｸﾎﾞ","pref":"青森県","city":"三戸郡五戸町","address":"鍜冶屋窪"},
{"zip_code":"0391511","kana_pref":"ｱｵﾓﾘｹﾝ","kana_city":"ｻﾝﾉﾍｸﾞﾝｺﾞﾉﾍﾏﾁ","kana_address":"ｶｼﾞﾔｸﾎﾞｶﾐ","pref":"青森県","city":"三戸郡五戸町","address":"鍜冶屋窪上ミ"},
{"zip_code":"0391511","kana_pref":"ｱｵﾓﾘｹﾝ","kana_city":"ｻﾝﾉﾍｸﾞﾝｺﾞﾉﾍﾏﾁ","kana_address":"ｶｼﾞﾔｼｷ","pref":"青森県","city":"三戸郡五戸町","address":"鍜冶屋敷"},
{"zip_code":"0391501","kana_pref":"ｱｵﾓﾘｹﾝ","kana_city":"ｻﾝﾉﾍｸﾞﾝｺﾞﾉﾍﾏﾁ","kana_address":"ｶﾐｲﾁｶﾜ","pref":"青森県","city":"三戸郡五戸町","address":"上市川"},
{"zip_code":"0391504","kana_pref":"ｱｵﾓﾘｹﾝ","kana_city":"ｻﾝﾉﾍｸﾞﾝｺﾞﾉﾍﾏﾁ","kana_address":"ｶﾐｳｻｷﾞﾅｲ","pref":"青森県","city":"三戸郡五戸町","address":"上兎内"},
{"zip_code":"0391533","kana_pref":"ｱｵﾓﾘｹﾝ","kana_city":"ｻﾝﾉﾍｸﾞﾝｺﾞﾉﾍﾏﾁ","kana_address":"ｶﾐｵｵﾏﾁ","pref":"青森県","city":"三戸郡五戸町","address":"上大町"},
{"zip_code":"0391557","kana_pref":"ｱｵﾓﾘｹﾝ","kana_city":"ｻﾝﾉﾍｸﾞﾝｺﾞﾉﾍﾏﾁ","kana_address":"ｶﾐｶﾜﾗ","pref":"青森県","city":"三戸郡五戸町","address":"上川原"},
{"zip_code":"0391508","kana_pref":"ｱｵﾓﾘｹﾝ","kana_city":"ｻﾝﾉﾍｸﾞﾝｺﾞﾉﾍﾏﾁ","kana_address":"ｶﾐｼﾝﾐﾁ","pref":"青森県","city":"三戸郡五戸町","address":"上新道"},
{"zip_code":"0391567","kana_pref":"ｱｵﾓﾘｹﾝ","kana_city":"ｻﾝﾉﾍｸﾞﾝｺﾞﾉﾍﾏﾁ","kana_address":"ｶﾐﾀｲﾍｲﾗｸ","pref":"青森県","city":"三戸郡五戸町","address":"上大平楽"},
{"zip_code":"0391552","kana_pref":"ｱｵﾓﾘｹﾝ","kana_city":"ｻﾝﾉﾍｸﾞﾝｺﾞﾉﾍﾏﾁ","kana_address":"ｶﾐﾀｶﾀﾞ","pref":"青森県","city":"三戸郡五戸町","address":"上高田"},
{"zip_code":"0391526","kana_pref":"ｱｵﾓﾘｹﾝ","kana_city":"ｻﾝﾉﾍｸﾞﾝｺﾞﾉﾍﾏﾁ","kana_address":"ｶﾐﾅｶﾞｼﾀ","pref":"青森県","city":"三戸郡五戸町","address":"上長下"},
{"zip_code":"0391551","kana_pref":"ｱｵﾓﾘｹﾝ","kana_city":"ｻﾝﾉﾍｸﾞﾝｺﾞﾉﾍﾏﾁ","kana_address":"ｶﾐﾆｲﾀﾞ","pref":"青森県","city":"三戸郡五戸町","address":"上新井田"},
{"zip_code":"0391551","kana_pref":"ｱｵﾓﾘｹﾝ","kana_city":"ｻﾝﾉﾍｸﾞﾝｺﾞﾉﾍﾏﾁ","kana_address":"ｶﾐﾆｲﾀﾞﾏｴ","pref":"青森県","city":"三戸郡五戸町","address":"上新井田前"},
{"zip_code":"0391523","kana_pref":"ｱｵﾓﾘｹﾝ","kana_city":"ｻﾝﾉﾍｸﾞﾝｺﾞﾉﾍﾏﾁ","kana_address":"ｶﾐﾎﾄｻﾞﾜ","pref":"青森県","city":"三戸郡五戸町","address":"上保土沢"},
{"zip_code":"0391507","kana_pref":"ｱｵﾓﾘｹﾝ","kana_city":"ｻﾝﾉﾍｸﾞﾝｺﾞﾉﾍﾏﾁ","kana_address":"ｶﾐﾔﾁ","pref":"青森県","city":"三戸郡五戸町","address":"上谷地"},
{"zip_code":"0391568","kana_pref":"ｱｵﾓﾘｹﾝ","kana_city":"ｻﾝﾉﾍｸﾞﾝｺﾞﾉﾍﾏﾁ","kana_address":"ｶﾗｶｻﾏﾂ","pref":"青森県","city":"三戸郡五戸町","address":"傘松"},
{"zip_code":"0391568","kana_pref":"ｱｵﾓﾘｹﾝ","kana_city":"ｻﾝﾉﾍｸﾞﾝｺﾞﾉﾍﾏﾁ","kana_address":"ｶﾗｶｻﾏﾂﾏｴ","pref":"青森県","city":"三戸郡五戸町","address":"傘松前"},
{"zip_code":"0391554","kana_pref":"ｱｵﾓﾘｹﾝ","kana_city":"ｻﾝﾉﾍｸﾞﾝｺﾞﾉﾍﾏﾁ","kana_address":"ｶﾜﾗﾏﾁ","pref":"青森県","city":"三戸郡五戸町","address":"川原町"},
{"zip_code":"0391554","kana_pref":"ｱｵﾓﾘｹﾝ","kana_city":"ｻﾝﾉﾍｸﾞﾝｺﾞﾉﾍﾏﾁ","kana_address":"ｶﾜﾗﾏﾁｳﾗ","pref":"青森県","city":"三戸郡五戸町","address":"川原町裏"},
{"zip_code":"0391553","kana_pref":"ｱｵﾓﾘｹﾝ","kana_city":"ｻﾝﾉﾍｸﾞﾝｺﾞﾉﾍﾏﾁ","kana_address":"ｶﾜﾗﾏﾁｼﾓｳﾗ","pref":"青森県","city":"三戸郡五戸町","address":"川原町下裏"},
{"zip_code":"0391553","kana_pref":"ｱｵﾓﾘｹﾝ","kana_city":"ｻﾝﾉﾍｸﾞﾝｺﾞﾉﾍﾏﾁ","kana_address":"ｶﾜﾗﾏﾁﾆｼｳﾗ","pref":"青森県","city":"三戸郡五戸町","address":"川原町西裏"},
{"zip_code":"0391532","kana_pref":"ｱｵﾓﾘｹﾝ","kana_city":"ｻﾝﾉﾍｸﾞﾝｺﾞﾉﾍﾏﾁ","kana_address":"ｶﾝﾉﾝﾄﾞｳ","pref":"青森県","city":"三戸郡五戸町","address":"観音堂"},
{"zip_code":"0391531","kana_pref":"ｱｵﾓﾘｹﾝ","kana_city":"ｻﾝﾉﾍｸﾞﾝｺﾞﾉﾍﾏﾁ","kana_address":"ｷﾂﾈﾓﾘ","pref":"青森県","city":"三戸郡五戸町","address":"狐森"},
{"zip_code":"0391531","kana_pref":"ｱｵﾓﾘｹﾝ","kana_city":"ｻﾝﾉﾍｸﾞﾝｺﾞﾉﾍﾏﾁ","kana_address":"ｷﾂﾈﾓﾘｷﾀ","pref":"青森県","city":"三戸郡五戸町","address":"狐森北"},
{"zip_code":"0391521","kana_pref":"ｱｵﾓﾘｹﾝ","kana_city":"ｻﾝﾉﾍｸﾞﾝｺﾞﾉﾍﾏﾁ","kana_address":"ｷｭｳｿﾞｳｸﾎﾞ","pref":"青森県","city":"三戸郡五戸町","address":"久蔵窪"},
{"zip_code":"0392302","kana_pref":"ｱｵﾓﾘｹﾝ","kana_city":"ｻﾝﾉﾍｸﾞﾝｺﾞﾉﾍﾏﾁ","kana_address":"ｷﾘﾔﾅｲ","pref":"青森県","city":"三戸郡五戸町","address":"切谷内"},
{"zip_code":"0391502","kana_pref":"ｱｵﾓﾘｹﾝ","kana_city":"ｻﾝﾉﾍｸﾞﾝｺﾞﾉﾍﾏﾁ","kana_address":"ｷﾘﾔﾅｲ","pref":"青森県","city":"三戸郡五戸町","address":"切谷内"},
{"zip_code":"0391515","kana_pref":"ｱｵﾓﾘｹﾝ","kana_city":"ｻﾝﾉﾍｸﾞﾝｺﾞﾉﾍﾏﾁ","kana_address":"ｸﾏﾉｻﾜ","pref":"青森県","city":"三戸郡五戸町","address":"熊ノ沢"},
{"zip_code":"0391515","kana_pref":"ｱｵﾓﾘｹﾝ","kana_city":"ｻﾝﾉﾍｸﾞﾝｺﾞﾉﾍﾏﾁ","kana_address":"ｸﾏﾉｻﾜｶﾞｼﾗ","pref":"青森県","city":"三戸郡五戸町","address":"熊ノ沢頭"},
{"zip_code":"0391506","kana_pref":"ｱｵﾓﾘｹﾝ","kana_city":"ｻﾝﾉﾍｸﾞﾝｺﾞﾉﾍﾏﾁ","kana_address":"ｸﾏﾉﾊﾞﾔｼ","pref":"青森県","city":"三戸郡五戸町","address":"熊野林"},
{"zip_code":"0391506","kana_pref":"ｱｵﾓﾘｹﾝ","kana_city":"ｻﾝﾉﾍｸﾞﾝｺﾞﾉﾍﾏﾁ","kana_address":"ｸﾏﾉﾊﾞﾔｼｳｼﾛ","pref":"青森県","city":"三戸郡五戸町","address":"熊野林後"},
{"zip_code":"0391506","kana_pref":"ｱｵﾓﾘｹﾝ","kana_city":"ｻﾝﾉﾍｸﾞﾝｺﾞﾉﾍﾏﾁ","kana_address":"ｸﾏﾉﾊﾞﾔｼﾏｴ","pref":"青森県","city":"三戸郡五戸町","address":"熊野林前"},
{"zip_code":"0391701","kana_pref":"ｱｵﾓﾘｹﾝ","kana_city":"ｻﾝﾉﾍｸﾞﾝｺﾞﾉﾍﾏﾁ","kana_address":"ｸﾗｲｼｲｼｻﾞﾜ","pref":"青森県","city":"三戸郡五戸町","address":"倉石石沢"},
{"zip_code":"0391702","kana_pref":"ｱｵﾓﾘｹﾝ","kana_city":"ｻﾝﾉﾍｸﾞﾝｺﾞﾉﾍﾏﾁ","kana_address":"ｸﾗｲｼﾅｶｲﾁ","pref":"青森県","city":"三戸郡五戸町","address":"倉石中市"},
{"zip_code":"0391703","kana_pref":"ｱｵﾓﾘｹﾝ","kana_city":"ｻﾝﾉﾍｸﾞﾝｺﾞﾉﾍﾏﾁ","kana_address":"ｸﾗｲｼﾏﾀｼｹﾞ","pref":"青森県","city":"三戸郡五戸町","address":"倉石又重"},
{"zip_code":"0391563","kana_pref":"ｱｵﾓﾘｹﾝ","kana_city":"ｻﾝﾉﾍｸﾞﾝｺﾞﾉﾍﾏﾁ","kana_address":"ｹﾅｼﾓﾘ","pref":"青森県","city":"三戸郡五戸町","address":"毛無森"},
{"zip_code":"0391561","kana_pref":"ｱｵﾓﾘｹﾝ","kana_city":"ｻﾝﾉﾍｸﾞﾝｺﾞﾉﾍﾏﾁ","kana_address":"ｺｼｶｹｻﾞﾜ","pref":"青森県","city":"三戸郡五戸町","address":"越掛沢"},
{"zip_code":"0391561","kana_pref":"ｱｵﾓﾘｹﾝ","kana_city":"ｻﾝﾉﾍｸﾞﾝｺﾞﾉﾍﾏﾁ","kana_address":"ｺｼｶｹｻﾞﾜﾏｴ","pref":"青森県","city":"三戸郡五戸町","address":"越掛沢前"},
{"zip_code":"0391561","kana_pref":"ｱｵﾓﾘｹﾝ","kana_city":"ｻﾝﾉﾍｸﾞﾝｺﾞﾉﾍﾏﾁ","kana_address":"ｺｼｶｹｻﾞﾜﾐﾁﾉｼﾓ","pref":"青森県","city":"三戸郡五戸町","address":"越掛沢道下モ"},
{"zip_code":"0391522","kana_pref":"ｱｵﾓﾘｹﾝ","kana_city":"ｻﾝﾉﾍｸﾞﾝｺﾞﾉﾍﾏﾁ","kana_address":"ｺﾜﾀﾘ","pref":"青森県","city":"三戸郡五戸町","address":"小渡"},
{"zip_code":"0391522","kana_pref":"ｱｵﾓﾘｹﾝ","kana_city":"ｻﾝﾉﾍｸﾞﾝｺﾞﾉﾍﾏﾁ","kana_address":"ｺﾜﾀﾘｶﾞｼﾗ","pref":"青森県","city":"三戸郡五戸町","address":"小渡頭"},
{"zip_code":"0391566","kana_pref":"ｱｵﾓﾘｹﾝ","kana_city":"ｻﾝﾉﾍｸﾞﾝｺﾞﾉﾍﾏﾁ","kana_address":"ｻｲﾉｶﾐ","pref":"青森県","city":"三戸郡五戸町","address":"幸ノ神"},
{"zip_code":"0391566","kana_pref":"ｱｵﾓﾘｹﾝ","kana_city":"ｻﾝﾉﾍｸﾞﾝｺﾞﾉﾍﾏﾁ","kana_address":"ｻｲﾉｶﾐﾏｴ","pref":"青森県","city":"三戸郡五戸町","address":"幸ノ神前"},
{"zip_code":"0391503","kana_pref":"ｱｵﾓﾘｹﾝ","kana_city":"ｻﾝﾉﾍｸﾞﾝｺﾞﾉﾍﾏﾁ","kana_address":"ｻﾉｶﾐﾔﾁ","pref":"青森県","city":"三戸郡五戸町","address":"佐野上谷地"},
{"zip_code":"0391503","kana_pref":"ｱｵﾓﾘｹﾝ","kana_city":"ｻﾝﾉﾍｸﾞﾝｺﾞﾉﾍﾏﾁ","kana_address":"ｻﾒﾉｸﾁ","pref":"青森県","city":"三戸郡五戸町","address":"鮫ノ口"},
{"zip_code":"0391558","kana_pref":"ｱｵﾓﾘｹﾝ","kana_city":"ｻﾝﾉﾍｸﾞﾝｺﾞﾉﾍﾏﾁ","kana_address":"ｻﾜ","pref":"青森県","city":"三戸郡五戸町","address":"沢"},
{"zip_code":"0391517","kana_pref":"ｱｵﾓﾘｹﾝ","kana_city":"ｻﾝﾉﾍｸﾞﾝｺﾞﾉﾍﾏﾁ","kana_address":"ｻﾜﾑｶｲ","pref":"青森県","city":"三戸郡五戸町","address":"沢向"},
{"zip_code":"0391562","kana_pref":"ｱｵﾓﾘｹﾝ","kana_city":"ｻﾝﾉﾍｸﾞﾝｺﾞﾉﾍﾏﾁ","kana_address":"ｼｶﾅｲ","pref":"青森県","city":"三戸郡五戸町","address":"鹿内"},
{"zip_code":"0391562","kana_pref":"ｱｵﾓﾘｹﾝ","kana_city":"ｻﾝﾉﾍｸﾞﾝｺﾞﾉﾍﾏﾁ","kana_address":"ｼｶﾅｲｵｷ","pref":"青森県","city":"三戸郡五戸町","address":"鹿内沖"},
{"zip_code":"0391562","kana_pref":"ｱｵﾓﾘｹﾝ","kana_city":"ｻﾝﾉﾍｸﾞﾝｺﾞﾉﾍﾏﾁ","kana_address":"ｼｶﾅｲｼﾓ","pref":"青森県","city":"三戸郡五戸町","address":"鹿内下モ"},
{"zip_code":"0391562","kana_pref":"ｱｵﾓﾘｹﾝ","kana_city":"ｻﾝﾉﾍｸﾞﾝｺﾞﾉﾍﾏﾁ","kana_address":"ｼｶﾅｲﾏｴ","pref":"青森県","city":"三戸郡五戸町","address":"鹿内前"},
{"zip_code":"0391525","kana_pref":"ｱｵﾓﾘｹﾝ","kana_city":"ｻﾝﾉﾍｸﾞﾝｺﾞﾉﾍﾏﾁ","kana_address":"ｼﾞｿﾞｳﾀｲ","pref":"青森県","city":"三戸郡五戸町","address":"地蔵岱"},
{"zip_code":"0391546","kana_pref":"ｱｵﾓﾘｹﾝ","kana_city":"ｻﾝﾉﾍｸﾞﾝｺﾞﾉﾍﾏﾁ","kana_address":"ｼﾀﾉｻﾜ","pref":"青森県","city":"三戸郡五戸町","address":"下タノ沢"},
{"zip_code":"0391546","kana_pref":"ｱｵﾓﾘｹﾝ","kana_city":"ｻﾝﾉﾍｸﾞﾝｺﾞﾉﾍﾏﾁ","kana_address":"ｼﾀﾉｻﾜｶﾞｼﾗ","pref":"青森県","city":"三戸郡五戸町","address":"下タノ沢頭"},
{"zip_code":"0391559","kana_pref":"ｱｵﾓﾘｹﾝ","kana_city":"ｻﾝﾉﾍｸﾞﾝｺﾞﾉﾍﾏﾁ","kana_address":"ｼﾓｵｵﾏﾁ","pref":"青森県","city":"三戸郡五戸町","address":"下大町"},
{"zip_code":"0391518","kana_pref":"ｱｵﾓﾘｹﾝ","kana_city":"ｻﾝﾉﾍｸﾞﾝｺﾞﾉﾍﾏﾁ","kana_address":"ｼﾓｻﾜﾑｶｲ","pref":"青森県","city":"三戸郡五戸町","address":"下モ沢向"},
{"zip_code":"0391508","kana_pref":"ｱｵﾓﾘｹﾝ","kana_city":"ｻﾝﾉﾍｸﾞﾝｺﾞﾉﾍﾏﾁ","kana_address":"ｼﾓｼﾝﾐﾁ","pref":"青森県","city":"三戸郡五戸町","address":"下新道"},
{"zip_code":"0391567","kana_pref":"ｱｵﾓﾘｹﾝ","kana_city":"ｻﾝﾉﾍｸﾞﾝｺﾞﾉﾍﾏﾁ","kana_address":"ｼﾓﾀｲﾍｲﾗｸ","pref":"青森県","city":"三戸郡五戸町","address":"下大平楽"},
{"zip_code":"0391555","kana_pref":"ｱｵﾓﾘｹﾝ","kana_city":"ｻﾝﾉﾍｸﾞﾝｺﾞﾉﾍﾏﾁ","kana_address":"ｼﾓﾀｶﾀﾞ","pref":"青森県","city":"三戸郡五戸町","address":"下高田"},
{"zip_code":"0391514","kana_pref":"ｱｵﾓﾘｹﾝ","kana_city":"ｻﾝﾉﾍｸﾞﾝｺﾞﾉﾍﾏﾁ","kana_address":"ｼﾓﾅｶｻｷ","pref":"青森県","city":"三戸郡五戸町","address":"下中崎"},
{"zip_code":"0391526","kana_pref":"ｱｵﾓﾘｹﾝ","kana_city":"ｻﾝﾉﾍｸﾞﾝｺﾞﾉﾍﾏﾁ","kana_address":"ｼﾓﾅｶﾞｼﾀ","pref":"青森県","city":"三戸郡五戸町","address":"下長下"},
{"zip_code":"0391565","kana_pref":"ｱｵﾓﾘｹﾝ","kana_city":"ｻﾝﾉﾍｸﾞﾝｺﾞﾉﾍﾏﾁ","kana_address":"ｼﾓﾆｲﾀﾞ","pref":"青森県","city":"三戸郡五戸町","address":"下新井田"},
{"zip_code":"0391565","kana_pref":"ｱｵﾓﾘｹﾝ","kana_city":"ｻﾝﾉﾍｸﾞﾝｺﾞﾉﾍﾏﾁ","kana_address":"ｼﾓﾆｲﾀﾞﾏｴ","pref":"青森県","city":"三戸郡五戸町","address":"下新井田前"},
{"zip_code":"0391523","kana_pref":"ｱｵﾓﾘｹﾝ","kana_city":"ｻﾝﾉﾍｸﾞﾝｺﾞﾉﾍﾏﾁ","kana_address":"ｼﾓﾎﾄｻﾞﾜ","pref":"青森県","city":"三戸郡五戸町","address":"下保土沢"},
{"zip_code":"0391545","kana_pref":"ｱｵﾓﾘｹﾝ","kana_city":"ｻﾝﾉﾍｸﾞﾝｺﾞﾉﾍﾏﾁ","kana_address":"ｼｮｳﾊﾞｻﾜ","pref":"青森県","city":"三戸郡五戸町","address":"正場沢"},
{"zip_code":"0391545","kana_pref":"ｱｵﾓﾘｹﾝ","kana_city":"ｻﾝﾉﾍｸﾞﾝｺﾞﾉﾍﾏﾁ","kana_address":"ｼｮｳﾊﾞｻﾜﾅｶﾞﾈ","pref":"青森県","city":"三戸郡五戸町","address":"正場沢長根"},
{"zip_code":"0391515","kana_pref":"ｱｵﾓﾘｹﾝ","kana_city":"ｻﾝﾉﾍｸﾞﾝｺﾞﾉﾍﾏﾁ","kana_address":"ｼﾞﾛｳｻﾞｴﾓﾝﾅｶﾞﾈ","pref":"青森県","city":"三戸郡五戸町","address":"治郎左エ門長根"},
{"zip_code":"0391523","kana_pref":"ｱｵﾓﾘｹﾝ","kana_city":"ｻﾝﾉﾍｸﾞﾝｺﾞﾉﾍﾏﾁ","kana_address":"ｼﾝｿﾞｳﾅｶﾞﾈ","pref":"青森県","city":"三戸郡五戸町","address":"新蔵長根"},
{"zip_code":"0391535","kana_pref":"ｱｵﾓﾘｹﾝ","kana_city":"ｻﾝﾉﾍｸﾞﾝｺﾞﾉﾍﾏﾁ","kana_address":"ｼﾝﾁｮｳ","pref":"青森県","city":"三戸郡五戸町","address":"新丁"},
{"zip_code":"0391541","kana_pref":"ｱｵﾓﾘｹﾝ","kana_city":"ｻﾝﾉﾍｸﾞﾝｺﾞﾉﾍﾏﾁ","kana_address":"ｼﾝﾃﾞﾝｸﾎﾞ","pref":"青森県","city":"三戸郡五戸町","address":"新田窪"},
{"zip_code":"0391548","kana_pref":"ｱｵﾓﾘｹﾝ","kana_city":"ｻﾝﾉﾍｸﾞﾝｺﾞﾉﾍﾏﾁ","kana_address":"ｼﾝﾏﾁ","pref":"青森県","city":"三戸郡五戸町","address":"新町"},
{"zip_code":"0391547","kana_pref":"ｱｵﾓﾘｹﾝ","kana_city":"ｻﾝﾉﾍｸﾞﾝｺﾞﾉﾍﾏﾁ","kana_address":"ｼﾝﾒｲｳｼﾛ","pref":"青森県","city":"三戸郡五戸町","address":"神明後"},
{"zip_code":"0391526","kana_pref":"ｱｵﾓﾘｹﾝ","kana_city":"ｻﾝﾉﾍｸﾞﾝｺﾞﾉﾍﾏﾁ","kana_address":"ｿｳﾘﾝﾊﾞｼ","pref":"青森県","city":"三戸郡五戸町","address":"惣林橋"},
{"zip_code":"0391563","kana_pref":"ｱｵﾓﾘｹﾝ","kana_city":"ｻﾝﾉﾍｸﾞﾝｺﾞﾉﾍﾏﾁ","kana_address":"ﾀﾞｲｶﾞｸｻﾞﾜ","pref":"青森県","city":"三戸郡五戸町","address":"大学沢"},
{"zip_code":"0391563","kana_pref":"ｱｵﾓﾘｹﾝ","kana_city":"ｻﾝﾉﾍｸﾞﾝｺﾞﾉﾍﾏﾁ","kana_address":"ﾀﾞｲｶﾞｸｻﾞﾜﾑｶｲ","pref":"青森県","city":"三戸郡五戸町","address":"大学沢向"},
{"zip_code":"0391563","kana_pref":"ｱｵﾓﾘｹﾝ","kana_city":"ｻﾝﾉﾍｸﾞﾝｺﾞﾉﾍﾏﾁ","kana_address":"ﾀﾞｲｸｸﾎﾞ","pref":"青森県","city":"三戸郡五戸町","address":"大工窪"},
{"zip_code":"0391543","kana_pref":"ｱｵﾓﾘｹﾝ","kana_city":"ｻﾝﾉﾍｸﾞﾝｺﾞﾉﾍﾏﾁ","kana_address":"ﾀｹﾊﾗ","pref":"青森県","city":"三戸郡五戸町","address":"竹原"},
{"zip_code":"0391558","kana_pref":"ｱｵﾓﾘｹﾝ","kana_city":"ｻﾝﾉﾍｸﾞﾝｺﾞﾉﾍﾏﾁ","kana_address":"ﾀﾃ","pref":"青森県","city":"三戸郡五戸町","address":"館"},
{"zip_code":"0391511","kana_pref":"ｱｵﾓﾘｹﾝ","kana_city":"ｻﾝﾉﾍｸﾞﾝｺﾞﾉﾍﾏﾁ","kana_address":"ﾁｮｳﾂﾞｶ","pref":"青森県","city":"三戸郡五戸町","address":"丁塚"},
{"zip_code":"0391538","kana_pref":"ｱｵﾓﾘｹﾝ","kana_city":"ｻﾝﾉﾍｸﾞﾝｺﾞﾉﾍﾏﾁ","kana_address":"ﾂｶﾅｼﾀｲ","pref":"青森県","city":"三戸郡五戸町","address":"塚無岱"},
{"zip_code":"0391508","kana_pref":"ｱｵﾓﾘｹﾝ","kana_city":"ｻﾝﾉﾍｸﾞﾝｺﾞﾉﾍﾏﾁ","kana_address":"ﾂﾁﾄﾘﾊﾞ","pref":"青森県","city":"三戸郡五戸町","address":"土取場"},
{"zip_code":"0391529","kana_pref":"ｱｵﾓﾘｹﾝ","kana_city":"ｻﾝﾉﾍｸﾞﾝｺﾞﾉﾍﾏﾁ","kana_address":"ﾃｸﾞﾗﾊﾞｼ","pref":"青森県","city":"三戸郡五戸町","address":"手倉橋"},
{"zip_code":"0391554","kana_pref":"ｱｵﾓﾘｹﾝ","kana_city":"ｻﾝﾉﾍｸﾞﾝｺﾞﾉﾍﾏﾁ","kana_address":"ﾃﾞﾝﾍﾞｴﾁｮｳ","pref":"青森県","city":"三戸郡五戸町","address":"傳兵ヱ丁"},
{"zip_code":"0391519","kana_pref":"ｱｵﾓﾘｹﾝ","kana_city":"ｻﾝﾉﾍｸﾞﾝｺﾞﾉﾍﾏﾁ","kana_address":"ﾃﾝﾏﾝ","pref":"青森県","city":"三戸郡五戸町","address":"天満"},
{"zip_code":"0391519","kana_pref":"ｱｵﾓﾘｹﾝ","kana_city":"ｻﾝﾉﾍｸﾞﾝｺﾞﾉﾍﾏﾁ","kana_address":"ﾃﾝﾏﾝｳｼﾛ","pref":"青森県","city":"三戸郡五戸町","address":"天満後"},
{"zip_code":"0391519","kana_pref":"ｱｵﾓﾘｹﾝ","kana_city":"ｻﾝﾉﾍｸﾞﾝｺﾞﾉﾍﾏﾁ","kana_address":"ﾃﾝﾏﾝｼﾓｶﾜﾗ","pref":"青森県","city":"三戸郡五戸町","address":"天満下川原"},
{"zip_code":"0391546","kana_pref":"ｱｵﾓﾘｹﾝ","kana_city":"ｻﾝﾉﾍｸﾞﾝｺﾞﾉﾍﾏﾁ","kana_address":"ﾄﾞｲｶﾞｼﾗ","pref":"青森県","city":"三戸郡五戸町","address":"土井頭"},
{"zip_code":"0391552","kana_pref":"ｱｵﾓﾘｹﾝ","kana_city":"ｻﾝﾉﾍｸﾞﾝｺﾞﾉﾍﾏﾁ","kana_address":"ﾄﾞｳｸﾞﾁｶﾜﾗ","pref":"青森県","city":"三戸郡五戸町","address":"筒口川原"},
{"zip_code":"0391522","kana_pref":"ｱｵﾓﾘｹﾝ","kana_city":"ｻﾝﾉﾍｸﾞﾝｺﾞﾉﾍﾏﾁ","kana_address":"ﾄｸﾗｸﾎﾞ","pref":"青森県","city":"三戸郡五戸町","address":"徳良窪"},
{"zip_code":"0391524","kana_pref":"ｱｵﾓﾘｹﾝ","kana_city":"ｻﾝﾉﾍｸﾞﾝｺﾞﾉﾍﾏﾁ","kana_address":"ﾄﾖﾏﾅｲ","pref":"青森県","city":"三戸郡五戸町","address":"豊間内"},
{"zip_code":"0391514","kana_pref":"ｱｵﾓﾘｹﾝ","kana_city":"ｻﾝﾉﾍｸﾞﾝｺﾞﾉﾍﾏﾁ","kana_address":"ﾅｶｻﾞｷ","pref":"青森県","city":"三戸郡五戸町","address":"中崎"},
{"zip_code":"0391552","kana_pref":"ｱｵﾓﾘｹﾝ","kana_city":"ｻﾝﾉﾍｸﾞﾝｺﾞﾉﾍﾏﾁ","kana_address":"ﾅｶﾀｶﾀﾞ","pref":"青森県","city":"三戸郡五戸町","address":"中高田"},
{"zip_code":"0391539","kana_pref":"ｱｵﾓﾘｹﾝ","kana_city":"ｻﾝﾉﾍｸﾞﾝｺﾞﾉﾍﾏﾁ","kana_address":"ﾅｶﾉｻﾜ","pref":"青森県","city":"三戸郡五戸町","address":"中ノ沢"},
{"zip_code":"0391539","kana_pref":"ｱｵﾓﾘｹﾝ","kana_city":"ｻﾝﾉﾍｸﾞﾝｺﾞﾉﾍﾏﾁ","kana_address":"ﾅｶﾉｻﾜﾆｼﾊﾘ","pref":"青森県","city":"三戸郡五戸町","address":"中ノ沢西張"},
{"zip_code":"0391542","kana_pref":"ｱｵﾓﾘｹﾝ","kana_city":"ｻﾝﾉﾍｸﾞﾝｺﾞﾉﾍﾏﾁ","kana_address":"ﾅｶﾐﾁ","pref":"青森県","city":"三戸郡五戸町","address":"中道"},
{"zip_code":"0391542","kana_pref":"ｱｵﾓﾘｹﾝ","kana_city":"ｻﾝﾉﾍｸﾞﾝｺﾞﾉﾍﾏﾁ","kana_address":"ﾅｶﾐﾁｼﾞｭｳﾓﾝｼﾞ","pref":"青森県","city":"三戸郡五戸町","address":"中道十文字"},
{"zip_code":"0391507","kana_pref":"ｱｵﾓﾘｹﾝ","kana_city":"ｻﾝﾉﾍｸﾞﾝｺﾞﾉﾍﾏﾁ","kana_address":"ﾅｶﾓﾘ","pref":"青森県","city":"三戸郡五戸町","address":"中森"},
{"zip_code":"0391508","kana_pref":"ｱｵﾓﾘｹﾝ","kana_city":"ｻﾝﾉﾍｸﾞﾝｺﾞﾉﾍﾏﾁ","kana_address":"ﾅｶﾖﾘ","pref":"青森県","city":"三戸郡五戸町","address":"中寄"},
{"zip_code":"0391522","kana_pref":"ｱｵﾓﾘｹﾝ","kana_city":"ｻﾝﾉﾍｸﾞﾝｺﾞﾉﾍﾏﾁ","kana_address":"ﾅｼﾛｻﾞﾜ","pref":"青森県","city":"三戸郡五戸町","address":"苗代沢"},
{"zip_code":"0391544","kana_pref":"ｱｵﾓﾘｹﾝ","kana_city":"ｻﾝﾉﾍｸﾞﾝｺﾞﾉﾍﾏﾁ","kana_address":"ﾆｶｲﾀﾞｲﾗ","pref":"青森県","city":"三戸郡五戸町","address":"二階平"},
{"zip_code":"0391544","kana_pref":"ｱｵﾓﾘｹﾝ","kana_city":"ｻﾝﾉﾍｸﾞﾝｺﾞﾉﾍﾏﾁ","kana_address":"ﾆｶｲﾀﾞｲﾗｼﾀ","pref":"青森県","city":"三戸郡五戸町","address":"二階平下タ"},
{"zip_code":"0391512","kana_pref":"ｱｵﾓﾘｹﾝ","kana_city":"ｻﾝﾉﾍｸﾞﾝｺﾞﾉﾍﾏﾁ","kana_address":"ﾆｼﾉｻﾜ","pref":"青森県","city":"三戸郡五戸町","address":"西ノ沢"},
{"zip_code":"0391537","kana_pref":"ｱｵﾓﾘｹﾝ","kana_city":"ｻﾝﾉﾍｸﾞﾝｺﾞﾉﾍﾏﾁ","kana_address":"ﾆﾎﾝﾔﾅｷﾞ","pref":"青森県","city":"三戸郡五戸町","address":"二本柳"},
{"zip_code":"0391537","kana_pref":"ｱｵﾓﾘｹﾝ","kana_city":"ｻﾝﾉﾍｸﾞﾝｺﾞﾉﾍﾏﾁ","kana_address":"ﾆﾎﾝﾔﾅｷﾞﾑｶｲ","pref":"青森県","city":"三戸郡五戸町","address":"二本柳向"},
{"zip_code":"0391569","kana_pref":"ｱｵﾓﾘｹﾝ","kana_city":"ｻﾝﾉﾍｸﾞﾝｺﾞﾉﾍﾏﾁ","kana_address":"ﾈｷﾞｼ","pref":"青森県","city":"三戸郡五戸町","address":"根岸"},
{"zip_code":"0391533","kana_pref":"ｱｵﾓﾘｹﾝ","kana_city":"ｻﾝﾉﾍｸﾞﾝｺﾞﾉﾍﾏﾁ","kana_address":"ﾉﾂﾞｷ","pref":"青森県","city":"三戸郡五戸町","address":"野月"},
{"zip_code":"0391562","kana_pref":"ｱｵﾓﾘｹﾝ","kana_city":"ｻﾝﾉﾍｸﾞﾝｺﾞﾉﾍﾏﾁ","kana_address":"ﾊｸｻﾝ","pref":"青森県","city":"三戸郡五戸町","address":"白山"},
{"zip_code":"0391562","kana_pref":"ｱｵﾓﾘｹﾝ","kana_city":"ｻﾝﾉﾍｸﾞﾝｺﾞﾉﾍﾏﾁ","kana_address":"ﾊｸｻﾝﾏｴ","pref":"青森県","city":"三戸郡五戸町","address":"白山前"},
{"zip_code":"0391558","kana_pref":"ｱｵﾓﾘｹﾝ","kana_city":"ｻﾝﾉﾍｸﾞﾝｺﾞﾉﾍﾏﾁ","kana_address":"ﾊﾞｸﾛｳﾏﾁ","pref":"青森県","city":"三戸郡五戸町","address":"博労町"},
{"zip_code":"0391557","kana_pref":"ｱｵﾓﾘｹﾝ","kana_city":"ｻﾝﾉﾍｸﾞﾝｺﾞﾉﾍﾏﾁ","kana_address":"ﾊｯｹｲ","pref":"青森県","city":"三戸郡五戸町","address":"八景"},
{"zip_code":"0391565","kana_pref":"ｱｵﾓﾘｹﾝ","kana_city":"ｻﾝﾉﾍｸﾞﾝｺﾞﾉﾍﾏﾁ","kana_address":"ﾊﾅﾐﾁｶﾜﾗ","pref":"青森県","city":"三戸郡五戸町","address":"花道川原"},
{"zip_code":"0391538","kana_pref":"ｱｵﾓﾘｹﾝ","kana_city":"ｻﾝﾉﾍｸﾞﾝｺﾞﾉﾍﾏﾁ","kana_address":"ﾌﾙｶｲﾄﾞｳﾅｶﾞﾈ","pref":"青森県","city":"三戸郡五戸町","address":"古街道長根"},
{"zip_code":"0391513","kana_pref":"ｱｵﾓﾘｹﾝ","kana_city":"ｻﾝﾉﾍｸﾞﾝｺﾞﾉﾍﾏﾁ","kana_address":"ﾌﾙﾀﾞﾃ","pref":"青森県","city":"三戸郡五戸町","address":"古館"},
{"zip_code":"0391564","kana_pref":"ｱｵﾓﾘｹﾝ","kana_city":"ｻﾝﾉﾍｸﾞﾝｺﾞﾉﾍﾏﾁ","kana_address":"ﾌﾙﾀﾞﾃｼﾓｶﾜﾗ","pref":"青森県","city":"三戸郡五戸町","address":"古館下川原"},
{"zip_code":"0391513","kana_pref":"ｱｵﾓﾘｹﾝ","kana_city":"ｻﾝﾉﾍｸﾞﾝｺﾞﾉﾍﾏﾁ","kana_address":"ﾌﾙﾀﾞﾃﾑｶｲ","pref":"青森県","city":"三戸郡五戸町","address":"古館向"},
{"zip_code":"0391513","kana_pref":"ｱｵﾓﾘｹﾝ","kana_city":"ｻﾝﾉﾍｸﾞﾝｺﾞﾉﾍﾏﾁ","kana_address":"ﾌﾙﾀﾞﾃﾑｶｲｶﾜﾗ","pref":"青森県","city":"三戸郡五戸町","address":"古館向川原"},
{"zip_code":"0391513","kana_pref":"ｱｵﾓﾘｹﾝ","kana_city":"ｻﾝﾉﾍｸﾞﾝｺﾞﾉﾍﾏﾁ","kana_address":"ﾌﾙﾀﾞﾃﾜｷ","pref":"青森県","city":"三戸郡五戸町","address":"古館脇"},
{"zip_code":"0391555","kana_pref":"ｱｵﾓﾘｹﾝ","kana_city":"ｻﾝﾉﾍｸﾞﾝｺﾞﾉﾍﾏﾁ","kana_address":"ﾌﾙﾄﾞｳ","pref":"青森県","city":"三戸郡五戸町","address":"古堂"},
{"zip_code":"0391555","kana_pref":"ｱｵﾓﾘｹﾝ","kana_city":"ｻﾝﾉﾍｸﾞﾝｺﾞﾉﾍﾏﾁ","kana_address":"ﾌﾙﾄﾞｳｳｼﾛ","pref":"青森県","city":"三戸郡五戸町","address":"古堂後"},
{"zip_code":"0391563","kana_pref":"ｱｵﾓﾘｹﾝ","kana_city":"ｻﾝﾉﾍｸﾞﾝｺﾞﾉﾍﾏﾁ","kana_address":"ﾍｲｻｸﾎﾞ","pref":"青森県","city":"三戸郡五戸町","address":"平佐窪"},
{"zip_code":"0391558","kana_pref":"ｱｵﾓﾘｹﾝ","kana_city":"ｻﾝﾉﾍｸﾞﾝｺﾞﾉﾍﾏﾁ","kana_address":"ﾎﾘｱｲ","pref":"青森県","city":"三戸郡五戸町","address":"堀合"},
{"zip_code":"0391569","kana_pref":"ｱｵﾓﾘｹﾝ","kana_city":"ｻﾝﾉﾍｸﾞﾝｺﾞﾉﾍﾏﾁ","kana_address":"ﾑｼｵｲﾂﾞｶﾏｴ","pref":"青森県","city":"三戸郡五戸町","address":"虫追塚前"},
{"zip_code":"0391559","kana_pref":"ｱｵﾓﾘｹﾝ","kana_city":"ｻﾝﾉﾍｸﾞﾝｺﾞﾉﾍﾏﾁ","kana_address":"ﾖｺﾁｮｳ","pref":"青森県","city":"三戸郡五戸町","address":"横丁"},
{"zip_code":"0391564","kana_pref":"ｱｵﾓﾘｹﾝ","kana_city":"ｻﾝﾉﾍｸﾞﾝｺﾞﾉﾍﾏﾁ","kana_address":"ﾛｯｶｸ","pref":"青森県","city":"三戸郡五戸町","address":"六角"},
{"zip_code":"0390200","kana_pref":"ｱｵﾓﾘｹﾝ","kana_city":"ｻﾝﾉﾍｸﾞﾝﾀｯｺﾏﾁ","kana_address":"","pref":"青森県","city":"三戸郡田子町","address":""},
{"zip_code":"0390312","kana_pref":"ｱｵﾓﾘｹﾝ","kana_city":"ｻﾝﾉﾍｸﾞﾝﾀｯｺﾏﾁ","kana_address":"ｲｼｶﾞﾒ","pref":"青森県","city":"三戸郡田子町","address":"石亀"},
{"zip_code":"0390316","kana_pref":"ｱｵﾓﾘｹﾝ","kana_city":"ｻﾝﾉﾍｸﾞﾝﾀｯｺﾏﾁ","kana_address":"ｾｷ","pref":"青森県","city":"三戸郡田子町","address":"関"},
{"zip_code":"0390202","kana_pref":"ｱｵﾓﾘｹﾝ","kana_city":"ｻﾝﾉﾍｸﾞﾝﾀｯｺﾏﾁ","kana_address":"ｿｳﾏｲ","pref":"青森県","city":"三戸郡田子町","address":"相米"},
{"zip_code":"0390201","kana_pref":"ｱｵﾓﾘｹﾝ","kana_city":"ｻﾝﾉﾍｸﾞﾝﾀｯｺﾏﾁ","kana_address":"ﾀｯｺ","pref":"青森県","city":"三戸郡田子町","address":"田子"},
{"zip_code":"0390314","kana_pref":"ｱｵﾓﾘｹﾝ","kana_city":"ｻﾝﾉﾍｸﾞﾝﾀｯｺﾏﾁ","kana_address":"ﾄｳｾ","pref":"青森県","city":"三戸郡田子町","address":"遠瀬"},
{"zip_code":"0390315","kana_pref":"ｱｵﾓﾘｹﾝ","kana_city":"ｻﾝﾉﾍｸﾞﾝﾀｯｺﾏﾁ","kana_address":"ﾅﾂｻｶ","pref":"青森県","city":"三戸郡田子町","address":"夏坂"},
{"zip_code":"0390311","kana_pref":"ｱｵﾓﾘｹﾝ","kana_city":"ｻﾝﾉﾍｸﾞﾝﾀｯｺﾏﾁ","kana_address":"ﾊﾗ","pref":"青森県","city":"三戸郡田子町","address":"原"},
{"zip_code":"0390313","kana_pref":"ｱｵﾓﾘｹﾝ","kana_city":"ｻﾝﾉﾍｸﾞﾝﾀｯｺﾏﾁ","kana_address":"ﾓｲﾁ","pref":"青森県","city":"三戸郡田子町","address":"茂市"},
{"zip_code":"0390317","kana_pref":"ｱｵﾓﾘｹﾝ","kana_city":"ｻﾝﾉﾍｸﾞﾝﾀｯｺﾏﾁ","kana_address":"ﾔﾏｸﾞﾁ","pref":"青森県","city":"三戸郡田子町","address":"山口"},
{"zip_code":"0390100","kana_pref":"ｱｵﾓﾘｹﾝ","kana_city":"ｻﾝﾉﾍｸﾞﾝﾅﾝﾌﾞﾁｮｳ","kana_address":"","pref":"青森県","city":"三戸郡南部町","address":""},
{"zip_code":"0390606","kana_pref":"ｱｵﾓﾘｹﾝ","kana_city":"ｻﾝﾉﾍｸﾞﾝﾅﾝﾌﾞﾁｮｳ","kana_address":"ｱｲﾅｲ","pref":"青森県","city":"三戸郡南部町","address":"相内"},
{"zip_code":"0390106","kana_pref":"ｱｵﾓﾘｹﾝ","kana_city":"ｻﾝﾉﾍｸﾞﾝﾅﾝﾌﾞﾁｮｳ","kana_address":"ｱｲﾅｲ","pref":"青森県","city":"三戸郡南部町","address":"相内"},
{"zip_code":"0390102","kana_pref":"ｱｵﾓﾘｹﾝ","kana_city":"ｻﾝﾉﾍｸﾞﾝﾅﾝﾌﾞﾁｮｳ","kana_address":"ｱｶｲｼ","pref":"青森県","city":"三戸郡南部町","address":"赤石"},
{"zip_code":"0390103","kana_pref":"ｱｵﾓﾘｹﾝ","kana_city":"ｻﾝﾉﾍｸﾞﾝﾅﾝﾌﾞﾁｮｳ","kana_address":"ｵｵﾑｶｲ","pref":"青森県","city":"三戸郡南部町","address":"大向"},
{"zip_code":"0390105","kana_pref":"ｱｵﾓﾘｹﾝ","kana_city":"ｻﾝﾉﾍｸﾞﾝﾅﾝﾌﾞﾁｮｳ","kana_address":"ｵｷﾀｵﾓﾃ","pref":"青森県","city":"三戸郡南部町","address":"沖田面"},
{"zip_code":"0390801","kana_pref":"ｱｵﾓﾘｹﾝ","kana_city":"ｻﾝﾉﾍｸﾞﾝﾅﾝﾌﾞﾁｮｳ","kana_address":"ｶﾀｷﾞｼ","pref":"青森県","city":"三戸郡南部町","address":"片岸"},
{"zip_code":"0390812","kana_pref":"ｱｵﾓﾘｹﾝ","kana_city":"ｻﾝﾉﾍｸﾞﾝﾅﾝﾌﾞﾁｮｳ","kana_address":"ｶﾊﾞｷ","pref":"青森県","city":"三戸郡南部町","address":"椛木"},
{"zip_code":"0390501","kana_pref":"ｱｵﾓﾘｹﾝ","kana_city":"ｻﾝﾉﾍｸﾞﾝﾅﾝﾌﾞﾁｮｳ","kana_address":"ｶﾐﾅｸｲ","pref":"青森県","city":"三戸郡南部町","address":"上名久井"},
{"zip_code":"0390612","kana_pref":"ｱｵﾓﾘｹﾝ","kana_city":"ｻﾝﾉﾍｸﾞﾝﾅﾝﾌﾞﾁｮｳ","kana_address":"ｹﾝﾖｼ","pref":"青森県","city":"三戸郡南部町","address":"剣吉"},
{"zip_code":"0390805","kana_pref":"ｱｵﾓﾘｹﾝ","kana_city":"ｻﾝﾉﾍｸﾞﾝﾅﾝﾌﾞﾁｮｳ","kana_address":"ｺｲｽﾞﾐ","pref":"青森県","city":"三戸郡南部町","address":"小泉"},
{"zip_code":"0390814","kana_pref":"ｱｵﾓﾘｹﾝ","kana_city":"ｻﾝﾉﾍｸﾞﾝﾅﾝﾌﾞﾁｮｳ","kana_address":"ｺﾞﾐﾜﾀﾘ","pref":"青森県","city":"三戸郡南部町","address":"埖渡"},
{"zip_code":"0390104","kana_pref":"ｱｵﾓﾘｹﾝ","kana_city":"ｻﾝﾉﾍｸﾞﾝﾅﾝﾌﾞﾁｮｳ","kana_address":"ｺﾑｶｲ","pref":"青森県","city":"三戸郡南部町","address":"小向"},
{"zip_code":"0390502","kana_pref":"ｱｵﾓﾘｹﾝ","kana_city":"ｻﾝﾉﾍｸﾞﾝﾅﾝﾌﾞﾁｮｳ","kana_address":"ｼﾓﾅｸｲ","pref":"青森県","city":"三戸郡南部町","address":"下名久井"},
{"zip_code":"0390813","kana_pref":"ｱｵﾓﾘｹﾝ","kana_city":"ｻﾝﾉﾍｸﾞﾝﾅﾝﾌﾞﾁｮｳ","kana_address":"ｽｷﾞｻﾜ","pref":"青森県","city":"三戸郡南部町","address":"杉沢"},
{"zip_code":"0390503","kana_pref":"ｱｵﾓﾘｹﾝ","kana_city":"ｻﾝﾉﾍｸﾞﾝﾅﾝﾌﾞﾁｮｳ","kana_address":"ﾀｲﾗ","pref":"青森県","city":"三戸郡南部町","address":"平"},
{"zip_code":"0390507","kana_pref":"ｱｵﾓﾘｹﾝ","kana_city":"ｻﾝﾉﾍｸﾞﾝﾅﾝﾌﾞﾁｮｳ","kana_address":"ﾀｶｾ","pref":"青森県","city":"三戸郡南部町","address":"高瀬"},
{"zip_code":"0390804","kana_pref":"ｱｵﾓﾘｹﾝ","kana_city":"ｻﾝﾉﾍｸﾞﾝﾅﾝﾌﾞﾁｮｳ","kana_address":"ﾀｶﾊｼ","pref":"青森県","city":"三戸郡南部町","address":"高橋"},
{"zip_code":"0390101","kana_pref":"ｱｵﾓﾘｹﾝ","kana_city":"ｻﾝﾉﾍｸﾞﾝﾅﾝﾌﾞﾁｮｳ","kana_address":"ﾀﾏｶｹ","pref":"青森県","city":"三戸郡南部町","address":"玉掛"},
{"zip_code":"0390504","kana_pref":"ｱｵﾓﾘｹﾝ","kana_city":"ｻﾝﾉﾍｸﾞﾝﾅﾝﾌﾞﾁｮｳ","kana_address":"ﾁｮｳｼﾀﾅｲ","pref":"青森県","city":"三戸郡南部町","address":"鳥舌内"},
{"zip_code":"0390611","kana_pref":"ｱｵﾓﾘｹﾝ","kana_city":"ｻﾝﾉﾍｸﾞﾝﾅﾝﾌﾞﾁｮｳ","kana_address":"ﾄｶﾞ","pref":"青森県","city":"三戸郡南部町","address":"斗賀"},
{"zip_code":"0390802","kana_pref":"ｱｵﾓﾘｹﾝ","kana_city":"ｻﾝﾉﾍｸﾞﾝﾅﾝﾌﾞﾁｮｳ","kana_address":"ﾄﾏﾍﾞﾁ","pref":"青森県","city":"三戸郡南部町","address":"苫米地"},
{"zip_code":"0390505","kana_pref":"ｱｵﾓﾘｹﾝ","kana_city":"ｻﾝﾉﾍｸﾞﾝﾅﾝﾌﾞﾁｮｳ","kana_address":"ﾄﾔ","pref":"青森県","city":"三戸郡南部町","address":"鳥谷"},
{"zip_code":"0390614","kana_pref":"ｱｵﾓﾘｹﾝ","kana_city":"ｻﾝﾉﾍｸﾞﾝﾅﾝﾌﾞﾁｮｳ","kana_address":"ﾄﾗﾄ","pref":"青森県","city":"三戸郡南部町","address":"虎渡"},
{"zip_code":"0390815","kana_pref":"ｱｵﾓﾘｹﾝ","kana_city":"ｻﾝﾉﾍｸﾞﾝﾅﾝﾌﾞﾁｮｳ","kana_address":"ﾌｸﾀﾞ","pref":"青森県","city":"三戸郡南部町","address":"福田"},
{"zip_code":"0390506","kana_pref":"ｱｵﾓﾘｹﾝ","kana_city":"ｻﾝﾉﾍｸﾞﾝﾅﾝﾌﾞﾁｮｳ","kana_address":"ﾎｳｺｳｼﾞ","pref":"青森県","city":"三戸郡南部町","address":"法光寺"},
{"zip_code":"0390811","kana_pref":"ｱｵﾓﾘｹﾝ","kana_city":"ｻﾝﾉﾍｸﾞﾝﾅﾝﾌﾞﾁｮｳ","kana_address":"ﾎｳｼｵｶ","pref":"青森県","city":"三戸郡南部町","address":"法師岡"},
{"zip_code":"0390803","kana_pref":"ｱｵﾓﾘｹﾝ","kana_city":"ｻﾝﾉﾍｸﾞﾝﾅﾝﾌﾞﾁｮｳ","kana_address":"ﾑｷﾞｻﾜ","pref":"青森県","city":"三戸郡南部町","address":"麦沢"},
{"zip_code":"0390613","kana_pref":"ｱｵﾓﾘｹﾝ","kana_city":"ｻﾝﾉﾍｸﾞﾝﾅﾝﾌﾞﾁｮｳ","kana_address":"ﾓﾘｺｼ","pref":"青森県","city":"三戸郡南部町","address":"森越"},
{"zip_code":"0391200","kana_pref":"ｱｵﾓﾘｹﾝ","kana_city":"ｻﾝﾉﾍｸﾞﾝﾊｼｶﾐﾁｮｳ","kana_address":"","pref":"青森県","city":"三戸郡階上町","address":""},
{"zip_code":"0391202","kana_pref":"ｱｵﾓﾘｹﾝ","kana_city":"ｻﾝﾉﾍｸﾞﾝﾊｼｶﾐﾁｮｳ","kana_address":"ｱｶﾎﾞﾅｲ","pref":"青森県","city":"三戸郡階上町","address":"赤保内"},
{"zip_code":"0391207","kana_pref":"ｱｵﾓﾘｹﾝ","kana_city":"ｻﾝﾉﾍｸﾞﾝﾊｼｶﾐﾁｮｳ","kana_address":"ｶﾈﾔﾏｻﾜ","pref":"青森県","city":"三戸郡階上町","address":"金山沢"},
{"zip_code":"0391212","kana_pref":"ｱｵﾓﾘｹﾝ","kana_city":"ｻﾝﾉﾍｸﾞﾝﾊｼｶﾐﾁｮｳ","kana_address":"ｿｳｾﾞﾝﾆｼ","pref":"青森県","city":"三戸郡階上町","address":"蒼前西"},
{"zip_code":"0391211","kana_pref":"ｱｵﾓﾘｹﾝ","kana_city":"ｻﾝﾉﾍｸﾞﾝﾊｼｶﾐﾁｮｳ","kana_address":"ｿｳｾﾞﾝﾋｶﾞｼ","pref":"青森県","city":"三戸郡階上町","address":"蒼前東"},
{"zip_code":"0391206","kana_pref":"ｱｵﾓﾘｹﾝ","kana_city":"ｻﾝﾉﾍｸﾞﾝﾊｼｶﾐﾁｮｳ","kana_address":"ﾀｼﾛ","pref":"青森県","city":"三戸郡階上町","address":"田代"},
{"zip_code":"0391208","kana_pref":"ｱｵﾓﾘｹﾝ","kana_city":"ｻﾝﾉﾍｸﾞﾝﾊｼｶﾐﾁｮｳ","kana_address":"ﾂﾉｶﾞﾗｵﾘ","pref":"青森県","city":"三戸郡階上町","address":"角柄折"},
{"zip_code":"0391201","kana_pref":"ｱｵﾓﾘｹﾝ","kana_city":"ｻﾝﾉﾍｸﾞﾝﾊｼｶﾐﾁｮｳ","kana_address":"ﾄﾞｳﾌﾞﾂ","pref":"青森県","city":"三戸郡階上町","address":"道仏"},
{"zip_code":"0391203","kana_pref":"ｱｵﾓﾘｹﾝ","kana_city":"ｻﾝﾉﾍｸﾞﾝﾊｼｶﾐﾁｮｳ","kana_address":"ﾄﾔﾍﾞ","pref":"青森県","city":"三戸郡階上町","address":"鳥屋部"},
{"zip_code":"0391205","kana_pref":"ｱｵﾓﾘｹﾝ","kana_city":"ｻﾝﾉﾍｸﾞﾝﾊｼｶﾐﾁｮｳ","kana_address":"ﾊﾚﾔﾏｻﾜ","pref":"青森県","city":"三戸郡階上町","address":"晴山沢"},
{"zip_code":"0391204","kana_pref":"ｱｵﾓﾘｹﾝ","kana_city":"ｻﾝﾉﾍｸﾞﾝﾊｼｶﾐﾁｮｳ","kana_address":"ﾋﾗﾅｲ","pref":"青森県","city":"三戸郡階上町","address":"平内"},
{"zip_code":"0391800","kana_pref":"ｱｵﾓﾘｹﾝ","kana_city":"ｻﾝﾉﾍｸﾞﾝｼﾝｺﾞｳﾑﾗ","kana_address":"","pref":"青森県","city":"三戸郡新郷村","address":""},
{"zip_code":"0391802","kana_pref":"ｱｵﾓﾘｹﾝ","kana_city":"ｻﾝﾉﾍｸﾞﾝｼﾝｺﾞｳﾑﾗ","kana_address":"ｻｲｺﾞｼ","pref":"青森県","city":"三戸郡新郷村","address":"西越"},
{"zip_code":"0391801","kana_pref":"ｱｵﾓﾘｹﾝ","kana_city":"ｻﾝﾉﾍｸﾞﾝｼﾝｺﾞｳﾑﾗ","kana_address":"ﾍﾗｲ","pref":"青森県","city":"三戸郡新郷村","address":"戸来"}]}