{"zip_code":[
{"zip_code":"0400000","kana_pref":"ﾎｯｶｲﾄﾞｳ","kana_city":"ﾊｺﾀﾞﾃｼ","kana_address":"","pref":"北海道","city":"函館市","address":""},
{"zip_code":"0400044","kana_pref":"ﾎｯｶｲﾄﾞｳ","kana_city":"ﾊｺﾀﾞﾃｼ","kana_address":"ｱｵﾔｷﾞﾁｮｳ","pref":"北海道","city":"函館市","address":"青柳町"},
{"zip_code":"0400076","kana_pref":"ﾎｯｶｲﾄﾞｳ","kana_city":"ﾊｺﾀﾞﾃｼ","kana_address":"ｱｻﾉﾁｮｳ","pref":"北海道","city":"函館市","address":"浅野町"},
{"zip_code":"0400037","kana_pref":"ﾎｯｶｲﾄﾞｳ","kana_city":"ﾊｺﾀﾞﾃｼ","kana_address":"ｱｻﾋﾁｮｳ","pref":"北海道","city":"函館市","address":"旭町"},
{"zip_code":"0400057","kana_pref":"ﾎｯｶｲﾄﾞｳ","kana_city":"ﾊｺﾀﾞﾃｼ","kana_address":"ｲﾘﾌﾈﾁｮｳ","pref":"北海道","city":"函館市","address":"入舟町"},
{"zip_code":"0400023","kana_pref":"ﾎｯｶｲﾄﾞｳ","kana_city":"ﾊｺﾀﾞﾃｼ","kana_address":"ｳｶﾞｳﾗﾁｮｳ","pref":"北海道","city":"函館市","address":"宇賀浦町"},
{"zip_code":"0400071","kana_pref":"ﾎｯｶｲﾄﾞｳ","kana_city":"ﾊｺﾀﾞﾃｼ","kana_address":"ｵｲﾜｹﾁｮｳ","pref":"北海道","city":"函館市","address":"追分町"},
{"zip_code":"0400084","kana_pref":"ﾎｯｶｲﾄﾞｳ","kana_city":"ﾊｺﾀﾞﾃｼ","kana_address":"ｵｵｶﾜﾁｮｳ","pref":"北海道","city":"函館市","address":"大川町"},
{"zip_code":"0400064","kana_pref":"ﾎｯｶｲﾄﾞｳ","kana_city":"ﾊｺﾀﾞﾃｼ","kana_address":"ｵｵﾃﾏﾁ","pref":"北海道","city":"函館市","address":"大手町"},
{"zip_code":"0400062","kana_pref":"ﾎｯｶｲﾄﾞｳ","kana_city":"ﾊｺﾀﾞﾃｼ","kana_address":"ｵｵﾅﾜﾁｮｳ","pref":"北海道","city":"函館市","address":"大縄町"},
{"zip_code":"0400052","kana_pref":"ﾎｯｶｲﾄﾞｳ","kana_city":"ﾊｺﾀﾞﾃｼ","kana_address":"ｵｵﾏﾁ","pref":"北海道","city":"函館市","address":"大町"},
{"zip_code":"0400034","kana_pref":"ﾎｯｶｲﾄﾞｳ","kana_city":"ﾊｺﾀﾞﾃｼ","kana_address":"ｵｵﾓﾘﾁｮｳ","pref":"北海道","city":"函館市","address":"大森町"},
{"zip_code":"0400061","kana_pref":"ﾎｯｶｲﾄﾞｳ","kana_city":"ﾊｺﾀﾞﾃｼ","kana_address":"ｶｲｶﾞﾝﾁｮｳ","pref":"北海道","city":"函館市","address":"海岸町"},
{"zip_code":"0400031","kana_pref":"ﾎｯｶｲﾄﾞｳ","kana_city":"ﾊｺﾀﾞﾃｼ","kana_address":"ｶﾐｼﾝｶﾜﾁｮｳ","pref":"北海道","city":"函館市","address":"上新川町"},
{"zip_code":"0400072","kana_pref":"ﾎｯｶｲﾄﾞｳ","kana_city":"ﾊｺﾀﾞﾃｼ","kana_address":"ｶﾒﾀﾞﾏﾁ","pref":"北海道","city":"函館市","address":"亀田町"},
{"zip_code":"0400078","kana_pref":"ﾎｯｶｲﾄﾞｳ","kana_city":"ﾊｺﾀﾞﾃｼ","kana_address":"ｷﾀﾊﾏﾁｮｳ","pref":"北海道","city":"函館市","address":"北浜町"},
{"zip_code":"0400001","kana_pref":"ﾎｯｶｲﾄﾞｳ","kana_city":"ﾊｺﾀﾞﾃｼ","kana_address":"ｺﾞﾘｮｳｶｸﾁｮｳ","pref":"北海道","city":"函館市","address":"五稜郭町"},
{"zip_code":"0400041","kana_pref":"ﾎｯｶｲﾄﾞｳ","kana_city":"ﾊｺﾀﾞﾃｼ","kana_address":"ｻｶｴﾁｮｳ","pref":"北海道","city":"函館市","address":"栄町"},
{"zip_code":"0400036","kana_pref":"ﾎｯｶｲﾄﾞｳ","kana_city":"ﾊｺﾀﾞﾃｼ","kana_address":"ｼﾉﾉﾒﾁｮｳ","pref":"北海道","city":"函館市","address":"東雲町"},
{"zip_code":"0400082","kana_pref":"ﾎｯｶｲﾄﾞｳ","kana_city":"ﾊｺﾀﾞﾃｼ","kana_address":"ｼﾗﾄﾘﾁｮｳ","pref":"北海道","city":"函館市","address":"白鳥町"},
{"zip_code":"0400032","kana_pref":"ﾎｯｶｲﾄﾞｳ","kana_city":"ﾊｺﾀﾞﾃｼ","kana_address":"ｼﾝｶﾜﾁｮｳ","pref":"北海道","city":"函館市","address":"新川町"},
{"zip_code":"0400053","kana_pref":"ﾎｯｶｲﾄﾞｳ","kana_city":"ﾊｺﾀﾞﾃｼ","kana_address":"ｽｴﾋﾛﾁｮｳ","pref":"北海道","city":"函館市","address":"末広町"},
{"zip_code":"0400004","kana_pref":"ﾎｯｶｲﾄﾞｳ","kana_city":"ﾊｺﾀﾞﾃｼ","kana_address":"ｽｷﾞﾅﾐﾁｮｳ","pref":"北海道","city":"函館市","address":"杉並町"},
{"zip_code":"0400045","kana_pref":"ﾎｯｶｲﾄﾞｳ","kana_city":"ﾊｺﾀﾞﾃｼ","kana_address":"ｽﾐﾖｼﾁｮｳ","pref":"北海道","city":"函館市","address":"住吉町"},
{"zip_code":"0400024","kana_pref":"ﾎｯｶｲﾄﾞｳ","kana_city":"ﾊｺﾀﾞﾃｼ","kana_address":"ﾀｶﾓﾘﾁｮｳ","pref":"北海道","city":"函館市","address":"高盛町"},
{"zip_code":"0400081","kana_pref":"ﾎｯｶｲﾄﾞｳ","kana_city":"ﾊｺﾀﾞﾃｼ","kana_address":"ﾀﾔﾁｮｳ","pref":"北海道","city":"函館市","address":"田家町"},
{"zip_code":"0400033","kana_pref":"ﾎｯｶｲﾄﾞｳ","kana_city":"ﾊｺﾀﾞﾃｼ","kana_address":"ﾁﾄｾﾁｮｳ","pref":"北海道","city":"函館市","address":"千歳町"},
{"zip_code":"0400013","kana_pref":"ﾎｯｶｲﾄﾞｳ","kana_city":"ﾊｺﾀﾞﾃｼ","kana_address":"ﾁﾖｶﾞﾀﾞｲﾁｮｳ","pref":"北海道","city":"函館市","address":"千代台町"},
{"zip_code":"0400012","kana_pref":"ﾎｯｶｲﾄﾞｳ","kana_city":"ﾊｺﾀﾞﾃｼ","kana_address":"ﾄｷﾄｳﾁｮｳ","pref":"北海道","city":"函館市","address":"時任町"},
{"zip_code":"0400065","kana_pref":"ﾎｯｶｲﾄﾞｳ","kana_city":"ﾊｺﾀﾞﾃｼ","kana_address":"ﾄﾖｶﾜﾁｮｳ","pref":"北海道","city":"函館市","address":"豊川町"},
{"zip_code":"0400014","kana_pref":"ﾎｯｶｲﾄﾞｳ","kana_city":"ﾊｺﾀﾞﾃｼ","kana_address":"ﾅｶｼﾞﾏﾁｮｳ","pref":"北海道","city":"函館市","address":"中島町"},
{"zip_code":"0400083","kana_pref":"ﾎｯｶｲﾄﾞｳ","kana_city":"ﾊｺﾀﾞﾃｼ","kana_address":"ﾊﾁﾏﾝﾁｮｳ","pref":"北海道","city":"函館市","address":"八幡町"},
{"zip_code":"0400075","kana_pref":"ﾎｯｶｲﾄﾞｳ","kana_city":"ﾊｺﾀﾞﾃｼ","kana_address":"ﾊﾞﾝﾀﾞｲﾁｮｳ","pref":"北海道","city":"函館市","address":"万代町"},
{"zip_code":"0400042","kana_pref":"ﾎｯｶｲﾄﾞｳ","kana_city":"ﾊｺﾀﾞﾃｼ","kana_address":"ﾋｶﾞｼｶﾜﾁｮｳ","pref":"北海道","city":"函館市","address":"東川町"},
{"zip_code":"0400005","kana_pref":"ﾎｯｶｲﾄﾞｳ","kana_city":"ﾊｺﾀﾞﾃｼ","kana_address":"ﾋﾄﾐﾁｮｳ","pref":"北海道","city":"函館市","address":"人見町"},
{"zip_code":"0400022","kana_pref":"ﾎｯｶｲﾄﾞｳ","kana_city":"ﾊｺﾀﾞﾃｼ","kana_address":"ﾋﾉﾃﾞﾁｮｳ","pref":"北海道","city":"函館市","address":"日乃出町"},
{"zip_code":"0400055","kana_pref":"ﾎｯｶｲﾄﾞｳ","kana_city":"ﾊｺﾀﾞﾃｼ","kana_address":"ﾌﾅﾐﾁｮｳ","pref":"北海道","city":"函館市","address":"船見町"},
{"zip_code":"0400051","kana_pref":"ﾎｯｶｲﾄﾞｳ","kana_city":"ﾊｺﾀﾞﾃｼ","kana_address":"ﾍﾞﾝﾃﾝﾁｮｳ","pref":"北海道","city":"函館市","address":"弁天町"},
{"zip_code":"0400043","kana_pref":"ﾎｯｶｲﾄﾞｳ","kana_city":"ﾊｺﾀﾞﾃｼ","kana_address":"ﾎｳﾗｲﾁｮｳ","pref":"北海道","city":"函館市","address":"宝来町"},
{"zip_code":"0400025","kana_pref":"ﾎｯｶｲﾄﾞｳ","kana_city":"ﾊｺﾀﾞﾃｼ","kana_address":"ﾎﾘｶﾜﾁｮｳ","pref":"北海道","city":"函館市","address":"堀川町"},
{"zip_code":"0400011","kana_pref":"ﾎｯｶｲﾄﾞｳ","kana_city":"ﾊｺﾀﾞﾃｼ","kana_address":"ﾎﾝﾁｮｳ","pref":"北海道","city":"函館市","address":"本町"},
{"zip_code":"0400003","kana_pref":"ﾎｯｶｲﾄﾞｳ","kana_city":"ﾊｺﾀﾞﾃｼ","kana_address":"ﾏﾂｶｹﾞﾁｮｳ","pref":"北海道","city":"函館市","address":"松陰町"},
{"zip_code":"0400035","kana_pref":"ﾎｯｶｲﾄﾞｳ","kana_city":"ﾊｺﾀﾞﾃｼ","kana_address":"ﾏﾂｶｾﾞﾁｮｳ","pref":"北海道","city":"函館市","address":"松風町"},
{"zip_code":"0400074","kana_pref":"ﾎｯｶｲﾄﾞｳ","kana_city":"ﾊｺﾀﾞﾃｼ","kana_address":"ﾏﾂｶﾜﾁｮｳ","pref":"北海道","city":"函館市","address":"松川町"},
{"zip_code":"0400021","kana_pref":"ﾎｯｶｲﾄﾞｳ","kana_city":"ﾊｺﾀﾞﾃｼ","kana_address":"ﾏﾄﾊﾞﾁｮｳ","pref":"北海道","city":"函館市","address":"的場町"},
{"zip_code":"0400073","kana_pref":"ﾎｯｶｲﾄﾞｳ","kana_city":"ﾊｺﾀﾞﾃｼ","kana_address":"ﾐﾔﾏｴﾁｮｳ","pref":"北海道","city":"函館市","address":"宮前町"},
{"zip_code":"0400054","kana_pref":"ﾎｯｶｲﾄﾞｳ","kana_city":"ﾊｺﾀﾞﾃｼ","kana_address":"ﾓﾄﾏﾁ","pref":"北海道","city":"函館市","address":"元町"},
{"zip_code":"0400046","kana_pref":"ﾎｯｶｲﾄﾞｳ","kana_city":"ﾊｺﾀﾞﾃｼ","kana_address":"ﾔﾁｶﾞｼﾗﾁｮｳ","pref":"北海道","city":"函館市","address":"谷地頭町"},
{"zip_code":"0400015","kana_pref":"ﾎｯｶｲﾄﾞｳ","kana_city":"ﾊｺﾀﾞﾃｼ","kana_address":"ﾔﾅｶﾞﾜﾁｮｳ","pref":"北海道","city":"函館市","address":"梁川町"},
{"zip_code":"0400002","kana_pref":"ﾎｯｶｲﾄﾞｳ","kana_city":"ﾊｺﾀﾞﾃｼ","kana_address":"ﾔﾅｷﾞﾏﾁ","pref":"北海道","city":"函館市","address":"柳町"},
{"zip_code":"0400056","kana_pref":"ﾎｯｶｲﾄﾞｳ","kana_city":"ﾊｺﾀﾞﾃｼ","kana_address":"ﾔﾖｲﾁｮｳ","pref":"北海道","city":"函館市","address":"弥生町"},
{"zip_code":"0400077","kana_pref":"ﾎｯｶｲﾄﾞｳ","kana_city":"ﾊｺﾀﾞﾃｼ","kana_address":"ﾖｼｶﾜﾁｮｳ","pref":"北海道","city":"函館市","address":"吉川町"},
{"zip_code":"0400063","kana_pref":"ﾎｯｶｲﾄﾞｳ","kana_city":"ﾊｺﾀﾞﾃｼ","kana_address":"ﾜｶﾏﾂﾁｮｳ","pref":"北海道","city":"函館市","address":"若松町"}]}