{"zip_code":[
{"zip_code":"0410805","kana_pref":"ﾎｯｶｲﾄﾞｳ","kana_city":"ﾊｺﾀﾞﾃｼ","kana_address":"ｱｶｶﾞﾜ","pref":"北海道","city":"函館市","address":"赤川"},
{"zip_code":"0410804","kana_pref":"ﾎｯｶｲﾄﾞｳ","kana_city":"ﾊｺﾀﾞﾃｼ","kana_address":"ｱｶｶﾞﾜﾁｮｳ","pref":"北海道","city":"函館市","address":"赤川町"},
{"zip_code":"0410802","kana_pref":"ﾎｯｶｲﾄﾞｳ","kana_city":"ﾊｺﾀﾞﾃｼ","kana_address":"ｲｼｶﾜﾁｮｳ","pref":"北海道","city":"函館市","address":"石川町"},
{"zip_code":"0410261","kana_pref":"ﾎｯｶｲﾄﾞｳ","kana_city":"ﾊｺﾀﾞﾃｼ","kana_address":"ｲｼｻﾞｷﾁｮｳ","pref":"北海道","city":"函館市","address":"石崎町"},
{"zip_code":"0411624","kana_pref":"ﾎｯｶｲﾄﾞｳ","kana_city":"ﾊｺﾀﾞﾃｼ","kana_address":"ｲﾜﾄﾁｮｳ","pref":"北海道","city":"函館市","address":"岩戸町"},
{"zip_code":"0411613","kana_pref":"ﾎｯｶｲﾄﾞｳ","kana_city":"ﾊｺﾀﾞﾃｼ","kana_address":"ｳｽｼﾞﾘﾁｮｳ","pref":"北海道","city":"函館市","address":"臼尻町"},
{"zip_code":"0410613","kana_pref":"ﾎｯｶｲﾄﾞｳ","kana_city":"ﾊｺﾀﾞﾃｼ","kana_address":"ｴｶﾞﾐﾔﾏﾁｮｳ","pref":"北海道","city":"函館市","address":"絵紙山町"},
{"zip_code":"0410522","kana_pref":"ﾎｯｶｲﾄﾞｳ","kana_city":"ﾊｺﾀﾞﾃｼ","kana_address":"ｴｻﾝﾁｮｳ","pref":"北海道","city":"函館市","address":"恵山町"},
{"zip_code":"0410605","kana_pref":"ﾎｯｶｲﾄﾞｳ","kana_city":"ﾊｺﾀﾞﾃｼ","kana_address":"ｴｻﾝﾐｻｷﾁｮｳ","pref":"北海道","city":"函館市","address":"恵山岬町"},
{"zip_code":"0411622","kana_pref":"ﾎｯｶｲﾄﾞｳ","kana_city":"ﾊｺﾀﾞﾃｼ","kana_address":"ｵｵﾌﾈﾁｮｳ","pref":"北海道","city":"函館市","address":"大船町"},
{"zip_code":"0410403","kana_pref":"ﾎｯｶｲﾄﾞｳ","kana_city":"ﾊｺﾀﾞﾃｼ","kana_address":"ｵｵﾏﾁｮｳ","pref":"北海道","city":"函館市","address":"大澗町"},
{"zip_code":"0411603","kana_pref":"ﾎｯｶｲﾄﾞｳ","kana_city":"ﾊｺﾀﾞﾃｼ","kana_address":"ｵｻﾂﾍﾞﾁｮｳ","pref":"北海道","city":"函館市","address":"尾札部町"},
{"zip_code":"0410251","kana_pref":"ﾎｯｶｲﾄﾞｳ","kana_city":"ﾊｺﾀﾞﾃｼ","kana_address":"ｵﾔｽﾁｮｳ","pref":"北海道","city":"函館市","address":"小安町"},
{"zip_code":"0410253","kana_pref":"ﾎｯｶｲﾄﾞｳ","kana_city":"ﾊｺﾀﾞﾃｼ","kana_address":"ｵﾔｽﾔﾏﾁｮｳ","pref":"北海道","city":"函館市","address":"小安山町"},
{"zip_code":"0410523","kana_pref":"ﾎｯｶｲﾄﾞｳ","kana_city":"ﾊｺﾀﾞﾃｼ","kana_address":"ｶｼﾜﾉﾁｮｳ","pref":"北海道","city":"函館市","address":"柏野町"},
{"zip_code":"0410852","kana_pref":"ﾎｯｶｲﾄﾞｳ","kana_city":"ﾊｺﾀﾞﾃｼ","kana_address":"ｶｼﾞ","pref":"北海道","city":"函館市","address":"鍛治"},
{"zip_code":"0411611","kana_pref":"ﾎｯｶｲﾄﾞｳ","kana_city":"ﾊｺﾀﾞﾃｼ","kana_address":"ｶｯｸﾐﾁｮｳ","pref":"北海道","city":"函館市","address":"川汲町"},
{"zip_code":"0410252","kana_pref":"ﾎｯｶｲﾄﾞｳ","kana_city":"ﾊｺﾀﾞﾃｼ","kana_address":"ｶﾏﾔﾁｮｳ","pref":"北海道","city":"函館市","address":"釜谷町"},
{"zip_code":"0410832","kana_pref":"ﾎｯｶｲﾄﾞｳ","kana_city":"ﾊｺﾀﾞﾃｼ","kana_address":"ｶﾐﾔﾏ","pref":"北海道","city":"函館市","address":"神山"},
{"zip_code":"0410831","kana_pref":"ﾎｯｶｲﾄﾞｳ","kana_city":"ﾊｺﾀﾞﾃｼ","kana_address":"ｶﾐﾔﾏﾁｮｳ","pref":"北海道","city":"函館市","address":"神山町"},
{"zip_code":"0410803","kana_pref":"ﾎｯｶｲﾄﾞｳ","kana_city":"ﾊｺﾀﾞﾃｼ","kana_address":"ｶﾒﾀﾞﾅｶﾉﾁｮｳ","pref":"北海道","city":"函館市","address":"亀田中野町"},
{"zip_code":"0410813","kana_pref":"ﾎｯｶｲﾄﾞｳ","kana_city":"ﾊｺﾀﾞﾃｼ","kana_address":"ｶﾒﾀﾞﾎﾝﾁｮｳ","pref":"北海道","city":"函館市","address":"亀田本町"},
{"zip_code":"0410822","kana_pref":"ﾎｯｶｲﾄﾞｳ","kana_city":"ﾊｺﾀﾞﾃｼ","kana_address":"ｶﾒﾀﾞﾐﾅﾄﾁｮｳ","pref":"北海道","city":"函館市","address":"亀田港町"},
{"zip_code":"0410405","kana_pref":"ﾎｯｶｲﾄﾞｳ","kana_city":"ﾊｺﾀﾞﾃｼ","kana_address":"ｶﾜｶﾐﾁｮｳ","pref":"北海道","city":"函館市","address":"川上町"},
{"zip_code":"0410844","kana_pref":"ﾎｯｶｲﾄﾞｳ","kana_city":"ﾊｺﾀﾞﾃｼ","kana_address":"ｶﾜﾊﾗﾁｮｳ","pref":"北海道","city":"函館市","address":"川原町"},
{"zip_code":"0410808","kana_pref":"ﾎｯｶｲﾄﾞｳ","kana_city":"ﾊｺﾀﾞﾃｼ","kana_address":"ｷｷｮｳ","pref":"北海道","city":"函館市","address":"桔梗"},
{"zip_code":"0410801","kana_pref":"ﾎｯｶｲﾄﾞｳ","kana_city":"ﾊｺﾀﾞﾃｼ","kana_address":"ｷｷｮｳﾁｮｳ","pref":"北海道","city":"函館市","address":"桔梗町"},
{"zip_code":"0410807","kana_pref":"ﾎｯｶｲﾄﾞｳ","kana_city":"ﾊｺﾀﾞﾃｼ","kana_address":"ｷﾀﾐﾊﾗ","pref":"北海道","city":"函館市","address":"北美原"},
{"zip_code":"0410408","kana_pref":"ﾎｯｶｲﾄﾞｳ","kana_city":"ﾊｺﾀﾞﾃｼ","kana_address":"ｷﾁﾊﾀﾁｮｳ","pref":"北海道","city":"函館市","address":"吉畑町"},
{"zip_code":"0411602","kana_pref":"ﾎｯｶｲﾄﾞｳ","kana_city":"ﾊｺﾀﾞﾃｼ","kana_address":"ｷﾅｵｼﾁｮｳ","pref":"北海道","city":"函館市","address":"木直町"},
{"zip_code":"0410524","kana_pref":"ﾎｯｶｲﾄﾞｳ","kana_city":"ﾊｺﾀﾞﾃｼ","kana_address":"ｺﾌﾞｲﾁｮｳ","pref":"北海道","city":"函館市","address":"古武井町"},
{"zip_code":"0410301","kana_pref":"ﾎｯｶｲﾄﾞｳ","kana_city":"ﾊｺﾀﾞﾃｼ","kana_address":"ｼｵｸﾋﾞﾁｮｳ","pref":"北海道","city":"函館市","address":"汐首町"},
{"zip_code":"0410602","kana_pref":"ﾎｯｶｲﾄﾞｳ","kana_city":"ﾊｺﾀﾞﾃｼ","kana_address":"ｼﾏﾄﾞﾏﾘﾁｮｳ","pref":"北海道","city":"函館市","address":"島泊町"},
{"zip_code":"0410812","kana_pref":"ﾎｯｶｲﾄﾞｳ","kana_city":"ﾊｺﾀﾞﾃｼ","kana_address":"ｼｮｳﾜ","pref":"北海道","city":"函館市","address":"昭和"},
{"zip_code":"0410823","kana_pref":"ﾎｯｶｲﾄﾞｳ","kana_city":"ﾊｺﾀﾞﾃｼ","kana_address":"ｼｮｳﾜﾁｮｳ","pref":"北海道","city":"函館市","address":"昭和町"},
{"zip_code":"0410265","kana_pref":"ﾎｯｶｲﾄﾞｳ","kana_city":"ﾊｺﾀﾞﾃｼ","kana_address":"ｼﾛｲｼﾁｮｳ","pref":"北海道","city":"函館市","address":"白石町"},
{"zip_code":"0410606","kana_pref":"ﾎｯｶｲﾄﾞｳ","kana_city":"ﾊｺﾀﾞﾃｼ","kana_address":"ｼﾝｴｻﾝﾁｮｳ","pref":"北海道","city":"函館市","address":"新恵山町"},
{"zip_code":"0410837","kana_pref":"ﾎｯｶｲﾄﾞｳ","kana_city":"ﾊｺﾀﾞﾃｼ","kana_address":"ｼﾞﾝｶﾜ","pref":"北海道","city":"函館市","address":"陣川"},
{"zip_code":"0410833","kana_pref":"ﾎｯｶｲﾄﾞｳ","kana_city":"ﾊｺﾀﾞﾃｼ","kana_address":"ｼﾞﾝｶﾜﾁｮｳ","pref":"北海道","city":"函館市","address":"陣川町"},
{"zip_code":"0410601","kana_pref":"ﾎｯｶｲﾄﾞｳ","kana_city":"ﾊｺﾀﾞﾃｼ","kana_address":"ｼﾝﾊﾁﾏﾝﾁｮｳ","pref":"北海道","city":"函館市","address":"新八幡町"},
{"zip_code":"0410611","kana_pref":"ﾎｯｶｲﾄﾞｳ","kana_city":"ﾊｺﾀﾞﾃｼ","kana_address":"ｼﾝﾊﾏﾁｮｳ","pref":"北海道","city":"函館市","address":"新浜町"},
{"zip_code":"0410312","kana_pref":"ﾎｯｶｲﾄﾞｳ","kana_city":"ﾊｺﾀﾞﾃｼ","kana_address":"ｼﾝﾌﾀﾐﾁｮｳ","pref":"北海道","city":"函館市","address":"新二見町"},
{"zip_code":"0410302","kana_pref":"ﾎｯｶｲﾄﾞｳ","kana_city":"ﾊｺﾀﾞﾃｼ","kana_address":"ｾﾀﾗｲﾁｮｳ","pref":"北海道","city":"函館市","address":"瀬田来町"},
{"zip_code":"0410526","kana_pref":"ﾎｯｶｲﾄﾞｳ","kana_city":"ﾊｺﾀﾞﾃｼ","kana_address":"ﾀｶﾀﾞｲﾁｮｳ","pref":"北海道","city":"函館市","address":"高岱町"},
{"zip_code":"0410305","kana_pref":"ﾎｯｶｲﾄﾞｳ","kana_city":"ﾊｺﾀﾞﾃｼ","kana_address":"ﾀﾃﾏﾁ","pref":"北海道","city":"函館市","address":"館町"},
{"zip_code":"0410612","kana_pref":"ﾎｯｶｲﾄﾞｳ","kana_city":"ﾊｺﾀﾞﾃｼ","kana_address":"ﾁｮｳｼﾁｮｳ","pref":"北海道","city":"函館市","address":"銚子町"},
{"zip_code":"0410264","kana_pref":"ﾎｯｶｲﾄﾞｳ","kana_city":"ﾊｺﾀﾞﾃｼ","kana_address":"ﾂﾙﾉﾁｮｳ","pref":"北海道","city":"函館市","address":"鶴野町"},
{"zip_code":"0410304","kana_pref":"ﾎｯｶｲﾄﾞｳ","kana_city":"ﾊｺﾀﾞﾃｼ","kana_address":"ﾄﾏﾘﾏﾁ","pref":"北海道","city":"函館市","address":"泊町"},
{"zip_code":"0410603","kana_pref":"ﾎｯｶｲﾄﾞｳ","kana_city":"ﾊｺﾀﾞﾃｼ","kana_address":"ﾄﾐｳﾗﾁｮｳ","pref":"北海道","city":"函館市","address":"富浦町"},
{"zip_code":"0410811","kana_pref":"ﾎｯｶｲﾄﾞｳ","kana_city":"ﾊｺﾀﾞﾃｼ","kana_address":"ﾄﾐｵｶﾁｮｳ","pref":"北海道","city":"函館市","address":"富岡町"},
{"zip_code":"0410402","kana_pref":"ﾎｯｶｲﾄﾞｳ","kana_city":"ﾊｺﾀﾞﾃｼ","kana_address":"ﾄﾖｳﾗﾁｮｳ","pref":"北海道","city":"函館市","address":"豊浦町"},
{"zip_code":"0411621","kana_pref":"ﾎｯｶｲﾄﾞｳ","kana_city":"ﾊｺﾀﾞﾃｼ","kana_address":"ﾄﾖｻｷﾁｮｳ","pref":"北海道","city":"函館市","address":"豊崎町"},
{"zip_code":"0410263","kana_pref":"ﾎｯｶｲﾄﾞｳ","kana_city":"ﾊｺﾀﾞﾃｼ","kana_address":"ﾄﾖﾊﾗﾁｮｳ","pref":"北海道","city":"函館市","address":"豊原町"},
{"zip_code":"0410404","kana_pref":"ﾎｯｶｲﾄﾞｳ","kana_city":"ﾊｺﾀﾞﾃｼ","kana_address":"ﾅｶﾊﾏﾁｮｳ","pref":"北海道","city":"函館市","address":"中浜町"},
{"zip_code":"0410853","kana_pref":"ﾎｯｶｲﾄﾞｳ","kana_city":"ﾊｺﾀﾞﾃｼ","kana_address":"ﾅｶﾐﾁ","pref":"北海道","city":"函館市","address":"中道"},
{"zip_code":"0410824","kana_pref":"ﾎｯｶｲﾄﾞｳ","kana_city":"ﾊｺﾀﾞﾃｼ","kana_address":"ﾆｼｷｷｮｳﾁｮｳ","pref":"北海道","city":"函館市","address":"西桔梗町"},
{"zip_code":"0410843","kana_pref":"ﾎｯｶｲﾄﾞｳ","kana_city":"ﾊｺﾀﾞﾃｼ","kana_address":"ﾊﾅｿﾞﾉﾁｮｳ","pref":"北海道","city":"函館市","address":"花園町"},
{"zip_code":"0410311","kana_pref":"ﾎｯｶｲﾄﾞｳ","kana_city":"ﾊｺﾀﾞﾃｼ","kana_address":"ﾊﾏﾁｮｳ","pref":"北海道","city":"函館市","address":"浜町"},
{"zip_code":"0410313","kana_pref":"ﾎｯｶｲﾄﾞｳ","kana_city":"ﾊｺﾀﾞﾃｼ","kana_address":"ﾊﾗｷﾁｮｳ","pref":"北海道","city":"函館市","address":"原木町"},
{"zip_code":"0410401","kana_pref":"ﾎｯｶｲﾄﾞｳ","kana_city":"ﾊｺﾀﾞﾃｼ","kana_address":"ﾋｳﾗﾁｮｳ","pref":"北海道","city":"函館市","address":"日浦町"},
{"zip_code":"0410835","kana_pref":"ﾎｯｶｲﾄﾞｳ","kana_city":"ﾊｺﾀﾞﾃｼ","kana_address":"ﾋｶﾞｼﾔﾏ","pref":"北海道","city":"函館市","address":"東山"},
{"zip_code":"0410834","kana_pref":"ﾎｯｶｲﾄﾞｳ","kana_city":"ﾊｺﾀﾞﾃｼ","kana_address":"ﾋｶﾞｼﾔﾏﾁｮｳ","pref":"北海道","city":"函館市","address":"東山町"},
{"zip_code":"0410525","kana_pref":"ﾎｯｶｲﾄﾞｳ","kana_city":"ﾊｺﾀﾞﾃｼ","kana_address":"ﾋﾉﾊﾏﾁｮｳ","pref":"北海道","city":"函館市","address":"日ノ浜町"},
{"zip_code":"0410841","kana_pref":"ﾎｯｶｲﾄﾞｳ","kana_city":"ﾊｺﾀﾞﾃｼ","kana_address":"ﾋﾖｼﾁｮｳ","pref":"北海道","city":"函館市","address":"日吉町"},
{"zip_code":"0410407","kana_pref":"ﾎｯｶｲﾄﾞｳ","kana_city":"ﾊｺﾀﾞﾃｼ","kana_address":"ﾋﾖﾘﾔﾏﾁｮｳ","pref":"北海道","city":"函館市","address":"日和山町"},
{"zip_code":"0411623","kana_pref":"ﾎｯｶｲﾄﾞｳ","kana_city":"ﾊｺﾀﾞﾃｼ","kana_address":"ﾌﾀﾐﾁｮｳ","pref":"北海道","city":"函館市","address":"双見町"},
{"zip_code":"0410262","kana_pref":"ﾎｯｶｲﾄﾞｳ","kana_city":"ﾊｺﾀﾞﾃｼ","kana_address":"ﾌﾙｶﾜﾁｮｳ","pref":"北海道","city":"函館市","address":"古川町"},
{"zip_code":"0411601","kana_pref":"ﾎｯｶｲﾄﾞｳ","kana_city":"ﾊｺﾀﾞﾃｼ","kana_address":"ﾌﾙﾍﾞﾁｮｳ","pref":"北海道","city":"函館市","address":"古部町"},
{"zip_code":"0410303","kana_pref":"ﾎｯｶｲﾄﾞｳ","kana_city":"ﾊｺﾀﾞﾃｼ","kana_address":"ﾍﾞﾝｻﾞｲﾁｮｳ","pref":"北海道","city":"函館市","address":"弁才町"},
{"zip_code":"0410851","kana_pref":"ﾎｯｶｲﾄﾞｳ","kana_city":"ﾊｺﾀﾞﾃｼ","kana_address":"ﾎﾝﾄﾞｵﾘ","pref":"北海道","city":"函館市","address":"本通"},
{"zip_code":"0410306","kana_pref":"ﾎｯｶｲﾄﾞｳ","kana_city":"ﾊｺﾀﾞﾃｼ","kana_address":"ﾏﾙﾔﾏﾁｮｳ","pref":"北海道","city":"函館市","address":"丸山町"},
{"zip_code":"0410521","kana_pref":"ﾎｯｶｲﾄﾞｳ","kana_city":"ﾊｺﾀﾞﾃｼ","kana_address":"ﾐｻｷﾁｮｳ","pref":"北海道","city":"函館市","address":"御崎町"},
{"zip_code":"0410821","kana_pref":"ﾎｯｶｲﾄﾞｳ","kana_city":"ﾊｺﾀﾞﾃｼ","kana_address":"ﾐﾅﾄﾁｮｳ","pref":"北海道","city":"函館市","address":"港町"},
{"zip_code":"0410806","kana_pref":"ﾎｯｶｲﾄﾞｳ","kana_city":"ﾊｺﾀﾞﾃｼ","kana_address":"ﾐﾊﾗ","pref":"北海道","city":"函館市","address":"美原"},
{"zip_code":"0410406","kana_pref":"ﾎｯｶｲﾄﾞｳ","kana_city":"ﾊｺﾀﾞﾃｼ","kana_address":"ﾒﾅｶﾞﾜﾁｮｳ","pref":"北海道","city":"函館市","address":"女那川町"},
{"zip_code":"0410604","kana_pref":"ﾎｯｶｲﾄﾞｳ","kana_city":"ﾊｺﾀﾞﾃｼ","kana_address":"ﾓﾄﾑﾗﾁｮｳ","pref":"北海道","city":"函館市","address":"元村町"},
{"zip_code":"0411612","kana_pref":"ﾎｯｶｲﾄﾞｳ","kana_city":"ﾊｺﾀﾞﾃｼ","kana_address":"ﾔｽｳﾗﾁｮｳ","pref":"北海道","city":"函館市","address":"安浦町"},
{"zip_code":"0410836","kana_pref":"ﾎｯｶｲﾄﾞｳ","kana_city":"ﾊｺﾀﾞﾃｼ","kana_address":"ﾔﾏﾉﾃ","pref":"北海道","city":"函館市","address":"山の手"},
{"zip_code":"0411242","kana_pref":"ﾎｯｶｲﾄﾞｳ","kana_city":"ﾎｸﾄｼ","kana_address":"ｲﾁﾉﾜﾀﾘ","pref":"北海道","city":"北斗市","address":"市渡"},
{"zip_code":"0411223","kana_pref":"ﾎｯｶｲﾄﾞｳ","kana_city":"ﾎｸﾄｼ","kana_address":"ｲｯﾎﾟﾝｷﾞ","pref":"北海道","city":"北斗市","address":"一本木"},
{"zip_code":"0411241","kana_pref":"ﾎｯｶｲﾄﾞｳ","kana_city":"ﾎｸﾄｼ","kana_address":"ｲﾅｻﾄ","pref":"北海道","city":"北斗市","address":"稲里"},
{"zip_code":"0411213","kana_pref":"ﾎｯｶｲﾄﾞｳ","kana_city":"ﾎｸﾄｼ","kana_address":"ｶｲﾊﾂ","pref":"北海道","city":"北斗市","address":"開発"},
{"zip_code":"0411221","kana_pref":"ﾎｯｶｲﾄﾞｳ","kana_city":"ﾎｸﾄｼ","kana_address":"ｼﾐｽﾞｶﾜ","pref":"北海道","city":"北斗市","address":"清水川"},
{"zip_code":"0411211","kana_pref":"ﾎｯｶｲﾄﾞｳ","kana_city":"ﾎｸﾄｼ","kana_address":"ｼﾗｶﾜ","pref":"北海道","city":"北斗市","address":"白川"},
{"zip_code":"0411222","kana_pref":"ﾎｯｶｲﾄﾞｳ","kana_city":"ﾎｸﾄｼ","kana_address":"ﾁﾖﾀﾞ","pref":"北海道","city":"北斗市","address":"千代田"},
{"zip_code":"0411243","kana_pref":"ﾎｯｶｲﾄﾞｳ","kana_city":"ﾎｸﾄｼ","kana_address":"ﾅｶﾔﾏ","pref":"北海道","city":"北斗市","address":"中山"},
{"zip_code":"0411215","kana_pref":"ﾎｯｶｲﾄﾞｳ","kana_city":"ﾎｸﾄｼ","kana_address":"ﾊｷﾞﾉ","pref":"北海道","city":"北斗市","address":"萩野"},
{"zip_code":"0411214","kana_pref":"ﾎｯｶｲﾄﾞｳ","kana_city":"ﾎｸﾄｼ","kana_address":"ﾋｶﾞｼﾏｴ","pref":"北海道","city":"北斗市","address":"東前"},
{"zip_code":"0411225","kana_pref":"ﾎｯｶｲﾄﾞｳ","kana_city":"ﾎｸﾄｼ","kana_address":"ﾌﾐﾂﾞｷ","pref":"北海道","city":"北斗市","address":"文月"},
{"zip_code":"0411212","kana_pref":"ﾎｯｶｲﾄﾞｳ","kana_city":"ﾎｸﾄｼ","kana_address":"ﾎｿｲﾚ","pref":"北海道","city":"北斗市","address":"細入"},
{"zip_code":"0411251","kana_pref":"ﾎｯｶｲﾄﾞｳ","kana_city":"ﾎｸﾄｼ","kana_address":"ﾎﾝｺﾞｳ","pref":"北海道","city":"北斗市","address":"本郷"},
{"zip_code":"0411201","kana_pref":"ﾎｯｶｲﾄﾞｳ","kana_city":"ﾎｸﾄｼ","kana_address":"ﾎﾝﾁｮｳ","pref":"北海道","city":"北斗市","address":"本町"},
{"zip_code":"0411224","kana_pref":"ﾎｯｶｲﾄﾞｳ","kana_city":"ﾎｸﾄｼ","kana_address":"ﾐﾅﾐｵｵﾉ","pref":"北海道","city":"北斗市","address":"南大野"},
{"zip_code":"0411231","kana_pref":"ﾎｯｶｲﾄﾞｳ","kana_city":"ﾎｸﾄｼ","kana_address":"ﾑｶｲﾉ","pref":"北海道","city":"北斗市","address":"向野"},
{"zip_code":"0411226","kana_pref":"ﾎｯｶｲﾄﾞｳ","kana_city":"ﾎｸﾄｼ","kana_address":"ﾑﾗｳﾁ","pref":"北海道","city":"北斗市","address":"村内"},
{"zip_code":"0411244","kana_pref":"ﾎｯｶｲﾄﾞｳ","kana_city":"ﾎｸﾄｼ","kana_address":"ﾑﾗﾔﾏ","pref":"北海道","city":"北斗市","address":"村山"},
{"zip_code":"0411100","kana_pref":"ﾎｯｶｲﾄﾞｳ","kana_city":"ｶﾒﾀﾞｸﾞﾝﾅﾅｴﾁｮｳ","kana_address":"","pref":"北海道","city":"亀田郡七飯町","address":""},
{"zip_code":"0411136","kana_pref":"ﾎｯｶｲﾄﾞｳ","kana_city":"ｶﾒﾀﾞｸﾞﾝﾅﾅｴﾁｮｳ","kana_address":"ｲｲﾀﾞﾁｮｳ","pref":"北海道","city":"亀田郡七飯町","address":"飯田町"},
{"zip_code":"0411352","kana_pref":"ﾎｯｶｲﾄﾞｳ","kana_city":"ｶﾒﾀﾞｸﾞﾝﾅﾅｴﾁｮｳ","kana_address":"ｲｸｻｶﾞﾜ","pref":"北海道","city":"亀田郡七飯町","address":"軍川"},
{"zip_code":"0411122","kana_pref":"ﾎｯｶｲﾄﾞｳ","kana_city":"ｶﾒﾀﾞｸﾞﾝﾅﾅｴﾁｮｳ","kana_address":"ｵｵｶﾜ","pref":"北海道","city":"亀田郡七飯町","address":"大川"},
{"zip_code":"0411121","kana_pref":"ﾎｯｶｲﾄﾞｳ","kana_city":"ｶﾒﾀﾞｸﾞﾝﾅﾅｴﾁｮｳ","kana_address":"ｵｵﾅｶﾔﾏ","pref":"北海道","city":"亀田郡七飯町","address":"大中山"},
{"zip_code":"0411354","kana_pref":"ﾎｯｶｲﾄﾞｳ","kana_city":"ｶﾒﾀﾞｸﾞﾝﾅﾅｴﾁｮｳ","kana_address":"ｵｵﾇﾏﾁｮｳ","pref":"北海道","city":"亀田郡七飯町","address":"大沼町"},
{"zip_code":"0411353","kana_pref":"ﾎｯｶｲﾄﾞｳ","kana_city":"ｶﾒﾀﾞｸﾞﾝﾅﾅｴﾁｮｳ","kana_address":"ｶﾐｲｸｻｶﾞﾜ","pref":"北海道","city":"亀田郡七飯町","address":"上軍川"},
{"zip_code":"0411104","kana_pref":"ﾎｯｶｲﾄﾞｳ","kana_city":"ｶﾒﾀﾞｸﾞﾝﾅﾅｴﾁｮｳ","kana_address":"ｶﾐﾌｼﾞｼﾛ","pref":"北海道","city":"亀田郡七飯町","address":"上藤城"},
{"zip_code":"0411105","kana_pref":"ﾎｯｶｲﾄﾞｳ","kana_city":"ｶﾒﾀﾞｸﾞﾝﾅﾅｴﾁｮｳ","kana_address":"ｻｸﾗﾁｮｳ","pref":"北海道","city":"亀田郡七飯町","address":"桜町"},
{"zip_code":"0411134","kana_pref":"ﾎｯｶｲﾄﾞｳ","kana_city":"ｶﾒﾀﾞｸﾞﾝﾅﾅｴﾁｮｳ","kana_address":"ﾂﾙﾉ","pref":"北海道","city":"亀田郡七飯町","address":"鶴野"},
{"zip_code":"0411102","kana_pref":"ﾎｯｶｲﾄﾞｳ","kana_city":"ｶﾒﾀﾞｸﾞﾝﾅﾅｴﾁｮｳ","kana_address":"ﾄｳｹﾞｼﾀ","pref":"北海道","city":"亀田郡七飯町","address":"峠下"},
{"zip_code":"0411132","kana_pref":"ﾎｯｶｲﾄﾞｳ","kana_city":"ｶﾒﾀﾞｸﾞﾝﾅﾅｴﾁｮｳ","kana_address":"ﾄﾖﾀﾞ","pref":"北海道","city":"亀田郡七飯町","address":"豊田"},
{"zip_code":"0411133","kana_pref":"ﾎｯｶｲﾄﾞｳ","kana_city":"ｶﾒﾀﾞｸﾞﾝﾅﾅｴﾁｮｳ","kana_address":"ﾅｶｼﾞﾏ","pref":"北海道","city":"亀田郡七飯町","address":"中島"},
{"zip_code":"0411131","kana_pref":"ﾎｯｶｲﾄﾞｳ","kana_city":"ｶﾒﾀﾞｸﾞﾝﾅﾅｴﾁｮｳ","kana_address":"ﾅｶﾉ","pref":"北海道","city":"亀田郡七飯町","address":"中野"},
{"zip_code":"0411112","kana_pref":"ﾎｯｶｲﾄﾞｳ","kana_city":"ｶﾒﾀﾞｸﾞﾝﾅﾅｴﾁｮｳ","kana_address":"ﾅﾙｶﾜ","pref":"北海道","city":"亀田郡七飯町","address":"鳴川"},
{"zip_code":"0411112","kana_pref":"ﾎｯｶｲﾄﾞｳ","kana_city":"ｶﾒﾀﾞｸﾞﾝﾅﾅｴﾁｮｳ","kana_address":"ﾅﾙｶﾜﾁｮｳ","pref":"北海道","city":"亀田郡七飯町","address":"鳴川町"},
{"zip_code":"0411355","kana_pref":"ﾎｯｶｲﾄﾞｳ","kana_city":"ｶﾒﾀﾞｸﾞﾝﾅﾅｴﾁｮｳ","kana_address":"ﾆｼｵｵﾇﾏ","pref":"北海道","city":"亀田郡七飯町","address":"西大沼"},
{"zip_code":"0411101","kana_pref":"ﾎｯｶｲﾄﾞｳ","kana_city":"ｶﾒﾀﾞｸﾞﾝﾅﾅｴﾁｮｳ","kana_address":"ﾆﾔﾏ","pref":"北海道","city":"亀田郡七飯町","address":"仁山"},
{"zip_code":"0411351","kana_pref":"ﾎｯｶｲﾄﾞｳ","kana_city":"ｶﾒﾀﾞｸﾞﾝﾅﾅｴﾁｮｳ","kana_address":"ﾋｶﾞｼｵｵﾇﾏ","pref":"北海道","city":"亀田郡七飯町","address":"東大沼"},
{"zip_code":"0411103","kana_pref":"ﾎｯｶｲﾄﾞｳ","kana_city":"ｶﾒﾀﾞｸﾞﾝﾅﾅｴﾁｮｳ","kana_address":"ﾌｼﾞｼﾛ","pref":"北海道","city":"亀田郡七飯町","address":"藤城"},
{"zip_code":"0411111","kana_pref":"ﾎｯｶｲﾄﾞｳ","kana_city":"ｶﾒﾀﾞｸﾞﾝﾅﾅｴﾁｮｳ","kana_address":"ﾎﾝﾁｮｳ","pref":"北海道","city":"亀田郡七飯町","address":"本町"},
{"zip_code":"0411135","kana_pref":"ﾎｯｶｲﾄﾞｳ","kana_city":"ｶﾒﾀﾞｸﾞﾝﾅﾅｴﾁｮｳ","kana_address":"ﾐﾄﾞﾘﾁｮｳ","pref":"北海道","city":"亀田郡七飯町","address":"緑町"},
{"zip_code":"0411400","kana_pref":"ﾎｯｶｲﾄﾞｳ","kana_city":"ｶﾔﾍﾞｸﾞﾝｼｶﾍﾞﾁｮｳ","kana_address":"","pref":"北海道","city":"茅部郡鹿部町","address":""},
{"zip_code":"0411401","kana_pref":"ﾎｯｶｲﾄﾞｳ","kana_city":"ｶﾔﾍﾞｸﾞﾝｼｶﾍﾞﾁｮｳ","kana_address":"ｵｵｲﾜ","pref":"北海道","city":"茅部郡鹿部町","address":"大岩"},
{"zip_code":"0411405","kana_pref":"ﾎｯｶｲﾄﾞｳ","kana_city":"ｶﾔﾍﾞｸﾞﾝｼｶﾍﾞﾁｮｳ","kana_address":"ｺﾏﾐ","pref":"北海道","city":"茅部郡鹿部町","address":"駒見"},
{"zip_code":"0411402","kana_pref":"ﾎｯｶｲﾄﾞｳ","kana_city":"ｶﾔﾍﾞｸﾞﾝｼｶﾍﾞﾁｮｳ","kana_address":"ｼｶﾍﾞ","pref":"北海道","city":"茅部郡鹿部町","address":"鹿部"},
{"zip_code":"0411404","kana_pref":"ﾎｯｶｲﾄﾞｳ","kana_city":"ｶﾔﾍﾞｸﾞﾝｼｶﾍﾞﾁｮｳ","kana_address":"ﾎﾝﾍﾞﾂ","pref":"北海道","city":"茅部郡鹿部町","address":"本別"},
{"zip_code":"0411403","kana_pref":"ﾎｯｶｲﾄﾞｳ","kana_city":"ｶﾔﾍﾞｸﾞﾝｼｶﾍﾞﾁｮｳ","kana_address":"ﾐﾔﾊﾏ","pref":"北海道","city":"茅部郡鹿部町","address":"宮浜"}]}