{"zip_code":[
{"zip_code":"0420913","kana_pref":"ﾎｯｶｲﾄﾞｳ","kana_city":"ﾊｺﾀﾞﾃｼ","kana_address":"ｱｶｻｶﾁｮｳ","pref":"北海道","city":"函館市","address":"赤坂町"},
{"zip_code":"0420916","kana_pref":"ﾎｯｶｲﾄﾞｳ","kana_city":"ﾊｺﾀﾞﾃｼ","kana_address":"ｱｻﾋｵｶﾁｮｳ","pref":"北海道","city":"函館市","address":"旭岡町"},
{"zip_code":"0420904","kana_pref":"ﾎｯｶｲﾄﾞｳ","kana_city":"ﾊｺﾀﾞﾃｼ","kana_address":"ｲｵﾊﾗﾁｮｳ","pref":"北海道","city":"函館市","address":"庵原町"},
{"zip_code":"0420911","kana_pref":"ﾎｯｶｲﾄﾞｳ","kana_city":"ﾊｺﾀﾞﾃｼ","kana_address":"ｲｼｸﾗﾁｮｳ","pref":"北海道","city":"函館市","address":"石倉町"},
{"zip_code":"0420954","kana_pref":"ﾎｯｶｲﾄﾞｳ","kana_city":"ﾊｺﾀﾞﾃｼ","kana_address":"ｳｴﾉﾁｮｳ","pref":"北海道","city":"函館市","address":"上野町"},
{"zip_code":"0420931","kana_pref":"ﾎｯｶｲﾄﾞｳ","kana_city":"ﾊｺﾀﾞﾃｼ","kana_address":"ｴﾉﾓﾄﾁｮｳ","pref":"北海道","city":"函館市","address":"榎本町"},
{"zip_code":"0420942","kana_pref":"ﾎｯｶｲﾄﾞｳ","kana_city":"ﾊｺﾀﾞﾃｼ","kana_address":"ｶｼﾜｷﾞﾁｮｳ","pref":"北海道","city":"函館市","address":"柏木町"},
{"zip_code":"0420944","kana_pref":"ﾎｯｶｲﾄﾞｳ","kana_city":"ﾊｺﾀﾞﾃｼ","kana_address":"ｶﾅﾎﾘﾁｮｳ","pref":"北海道","city":"函館市","address":"金堀町"},
{"zip_code":"0420901","kana_pref":"ﾎｯｶｲﾄﾞｳ","kana_city":"ﾊｺﾀﾞﾃｼ","kana_address":"ｶﾞﾋﾞﾉﾁｮｳ","pref":"北海道","city":"函館市","address":"蛾眉野町"},
{"zip_code":"0420914","kana_pref":"ﾎｯｶｲﾄﾞｳ","kana_city":"ﾊｺﾀﾞﾃｼ","kana_address":"ｶﾐﾕﾉｶﾜﾁｮｳ","pref":"北海道","city":"函館市","address":"上湯川町"},
{"zip_code":"0420917","kana_pref":"ﾎｯｶｲﾄﾞｳ","kana_city":"ﾊｺﾀﾞﾃｼ","kana_address":"ｶﾒｵﾁｮｳ","pref":"北海道","city":"函館市","address":"亀尾町"},
{"zip_code":"0420935","kana_pref":"ﾎｯｶｲﾄﾞｳ","kana_city":"ﾊｺﾀﾞﾃｼ","kana_address":"ｺﾏﾊﾞﾁｮｳ","pref":"北海道","city":"函館市","address":"駒場町"},
{"zip_code":"0420923","kana_pref":"ﾎｯｶｲﾄﾞｳ","kana_city":"ﾊｺﾀﾞﾃｼ","kana_address":"ｼﾉﾘﾁｮｳ","pref":"北海道","city":"函館市","address":"志海苔町"},
{"zip_code":"0420921","kana_pref":"ﾎｯｶｲﾄﾞｳ","kana_city":"ﾊｺﾀﾞﾃｼ","kana_address":"ｼﾝﾐﾅﾄﾁｮｳ","pref":"北海道","city":"函館市","address":"新湊町"},
{"zip_code":"0420958","kana_pref":"ﾎｯｶｲﾄﾞｳ","kana_city":"ﾊｺﾀﾞﾃｼ","kana_address":"ｽｽﾞﾗﾝｵｶﾁｮｳ","pref":"北海道","city":"函館市","address":"鈴蘭丘町"},
{"zip_code":"0420951","kana_pref":"ﾎｯｶｲﾄﾞｳ","kana_city":"ﾊｺﾀﾞﾃｼ","kana_address":"ｾﾄｶﾞﾜﾁｮｳ","pref":"北海道","city":"函館市","address":"瀬戸川町"},
{"zip_code":"0420922","kana_pref":"ﾎｯｶｲﾄﾞｳ","kana_city":"ﾊｺﾀﾞﾃｼ","kana_address":"ｾﾞﾆｶﾒﾁｮｳ","pref":"北海道","city":"函館市","address":"銭亀町"},
{"zip_code":"0420955","kana_pref":"ﾎｯｶｲﾄﾞｳ","kana_city":"ﾊｺﾀﾞﾃｼ","kana_address":"ﾀｶｵｶﾁｮｳ","pref":"北海道","city":"函館市","address":"高丘町"},
{"zip_code":"0420952","kana_pref":"ﾎｯｶｲﾄﾞｳ","kana_city":"ﾊｺﾀﾞﾃｼ","kana_address":"ﾀｶﾏﾂﾁｮｳ","pref":"北海道","city":"函館市","address":"高松町"},
{"zip_code":"0420957","kana_pref":"ﾎｯｶｲﾄﾞｳ","kana_city":"ﾊｺﾀﾞﾃｼ","kana_address":"ﾀｷｻﾜﾁｮｳ","pref":"北海道","city":"函館市","address":"滝沢町"},
{"zip_code":"0420902","kana_pref":"ﾎｯｶｲﾄﾞｳ","kana_city":"ﾊｺﾀﾞﾃｼ","kana_address":"ﾃﾂｻﾞﾝﾁｮｳ","pref":"北海道","city":"函館市","address":"鉄山町"},
{"zip_code":"0420908","kana_pref":"ﾎｯｶｲﾄﾞｳ","kana_city":"ﾊｺﾀﾞﾃｼ","kana_address":"ﾄﾞｳｻﾞﾝﾁｮｳ","pref":"北海道","city":"函館市","address":"銅山町"},
{"zip_code":"0420953","kana_pref":"ﾎｯｶｲﾄﾞｳ","kana_city":"ﾊｺﾀﾞﾃｼ","kana_address":"ﾄｸﾗﾁｮｳ","pref":"北海道","city":"函館市","address":"戸倉町"},
{"zip_code":"0420912","kana_pref":"ﾎｯｶｲﾄﾞｳ","kana_city":"ﾊｺﾀﾞﾃｼ","kana_address":"ﾅｶﾉﾁｮｳ","pref":"北海道","city":"函館市","address":"中野町"},
{"zip_code":"0420915","kana_pref":"ﾎｯｶｲﾄﾞｳ","kana_city":"ﾊｺﾀﾞﾃｼ","kana_address":"ﾆｼｱｻﾋｵｶﾁｮｳ","pref":"北海道","city":"函館市","address":"西旭岡町"},
{"zip_code":"0420924","kana_pref":"ﾎｯｶｲﾄﾞｳ","kana_city":"ﾊｺﾀﾞﾃｼ","kana_address":"ﾈｻｷﾁｮｳ","pref":"北海道","city":"函館市","address":"根崎町"},
{"zip_code":"0420943","kana_pref":"ﾎｯｶｲﾄﾞｳ","kana_city":"ﾊｺﾀﾞﾃｼ","kana_address":"ﾉｷﾞﾏﾁ","pref":"北海道","city":"函館市","address":"乃木町"},
{"zip_code":"0420903","kana_pref":"ﾎｯｶｲﾄﾞｳ","kana_city":"ﾊｺﾀﾞﾃｼ","kana_address":"ﾋｶﾞｼﾊﾀﾁｮｳ","pref":"北海道","city":"函館市","address":"東畑町"},
{"zip_code":"0420934","kana_pref":"ﾎｯｶｲﾄﾞｳ","kana_city":"ﾊｺﾀﾞﾃｼ","kana_address":"ﾋﾛﾉﾁｮｳ","pref":"北海道","city":"函館市","address":"広野町"},
{"zip_code":"0420941","kana_pref":"ﾎｯｶｲﾄﾞｳ","kana_city":"ﾊｺﾀﾞﾃｼ","kana_address":"ﾌｶﾎﾞﾘﾁｮｳ","pref":"北海道","city":"函館市","address":"深堀町"},
{"zip_code":"0420918","kana_pref":"ﾎｯｶｲﾄﾞｳ","kana_city":"ﾊｺﾀﾞﾃｼ","kana_address":"ﾏｲﾊﾗﾁｮｳ","pref":"北海道","city":"函館市","address":"米原町"},
{"zip_code":"0420907","kana_pref":"ﾎｯｶｲﾄﾞｳ","kana_city":"ﾊｺﾀﾞﾃｼ","kana_address":"ﾏｽｶﾜﾁｮｳ","pref":"北海道","city":"函館市","address":"鱒川町"},
{"zip_code":"0420906","kana_pref":"ﾎｯｶｲﾄﾞｳ","kana_city":"ﾊｺﾀﾞﾃｼ","kana_address":"ﾐﾂﾓﾘﾁｮｳ","pref":"北海道","city":"函館市","address":"三森町"},
{"zip_code":"0420956","kana_pref":"ﾎｯｶｲﾄﾞｳ","kana_city":"ﾊｺﾀﾞﾃｼ","kana_address":"ﾐﾊﾗｼﾁｮｳ","pref":"北海道","city":"函館市","address":"見晴町"},
{"zip_code":"0420905","kana_pref":"ﾎｯｶｲﾄﾞｳ","kana_city":"ﾊｺﾀﾞﾃｼ","kana_address":"ﾓﾐｼﾞﾔﾏﾁｮｳ","pref":"北海道","city":"函館市","address":"紅葉山町"},
{"zip_code":"0420932","kana_pref":"ﾎｯｶｲﾄﾞｳ","kana_city":"ﾊｺﾀﾞﾃｼ","kana_address":"ﾕﾉｶﾜﾁｮｳ","pref":"北海道","city":"函館市","address":"湯川町"},
{"zip_code":"0420933","kana_pref":"ﾎｯｶｲﾄﾞｳ","kana_city":"ﾊｺﾀﾞﾃｼ","kana_address":"ﾕﾉﾊﾏﾁｮｳ","pref":"北海道","city":"函館市","address":"湯浜町"}]}