{"zip_code":[
{"zip_code":"0430332","kana_pref":"ﾎｯｶｲﾄﾞｳ","kana_city":"ﾌﾀﾐｸﾞﾝﾔｸﾓﾁｮｳ","kana_address":"ｸﾏｲｼｱｲﾇﾏﾁｮｳ","pref":"北海道","city":"二海郡八雲町","address":"熊石相沼町"},
{"zip_code":"0430402","kana_pref":"ﾎｯｶｲﾄﾞｳ","kana_city":"ﾌﾀﾐｸﾞﾝﾔｸﾓﾁｮｳ","kana_address":"ｸﾏｲｼｱﾕｶﾜﾁｮｳ","pref":"北海道","city":"二海郡八雲町","address":"熊石鮎川町"},
{"zip_code":"0430416","kana_pref":"ﾎｯｶｲﾄﾞｳ","kana_city":"ﾌﾀﾐｸﾞﾝﾔｸﾓﾁｮｳ","kana_address":"ｸﾏｲｼｳﾝｾｷﾁｮｳ","pref":"北海道","city":"二海郡八雲町","address":"熊石雲石町"},
{"zip_code":"0430405","kana_pref":"ﾎｯｶｲﾄﾞｳ","kana_city":"ﾌﾀﾐｸﾞﾝﾔｸﾓﾁｮｳ","kana_address":"ｸﾏｲｼｵｵﾀﾆﾁｮｳ","pref":"北海道","city":"二海郡八雲町","address":"熊石大谷町"},
{"zip_code":"0430331","kana_pref":"ﾎｯｶｲﾄﾞｳ","kana_city":"ﾌﾀﾐｸﾞﾝﾔｸﾓﾁｮｳ","kana_address":"ｸﾏｲｼｵﾘﾄﾁｮｳ","pref":"北海道","city":"二海郡八雲町","address":"熊石折戸町"},
{"zip_code":"0430335","kana_pref":"ﾎｯｶｲﾄﾞｳ","kana_city":"ﾌﾀﾐｸﾞﾝﾔｸﾓﾁｮｳ","kana_address":"ｸﾏｲｼｸﾛｲﾜﾁｮｳ","pref":"北海道","city":"二海郡八雲町","address":"熊石黒岩町"},
{"zip_code":"0430401","kana_pref":"ﾎｯｶｲﾄﾞｳ","kana_city":"ﾌﾀﾐｸﾞﾝﾔｸﾓﾁｮｳ","kana_address":"ｸﾏｲｼｹﾝﾆﾁﾁｮｳ","pref":"北海道","city":"二海郡八雲町","address":"熊石見日町"},
{"zip_code":"0430418","kana_pref":"ﾎｯｶｲﾄﾞｳ","kana_city":"ﾌﾀﾐｸﾞﾝﾔｸﾓﾁｮｳ","kana_address":"ｸﾏｲｼｾｷﾅｲﾁｮｳ","pref":"北海道","city":"二海郡八雲町","address":"熊石関内町"},
{"zip_code":"0430403","kana_pref":"ﾎｯｶｲﾄﾞｳ","kana_city":"ﾌﾀﾐｸﾞﾝﾔｸﾓﾁｮｳ","kana_address":"ｸﾏｲｼﾀｲﾗﾁｮｳ","pref":"北海道","city":"二海郡八雲町","address":"熊石平町"},
{"zip_code":"0430404","kana_pref":"ﾎｯｶｲﾄﾞｳ","kana_city":"ﾌﾀﾐｸﾞﾝﾔｸﾓﾁｮｳ","kana_address":"ｸﾏｲｼﾀﾀﾐｲﾜﾁｮｳ","pref":"北海道","city":"二海郡八雲町","address":"熊石畳岩町"},
{"zip_code":"0430333","kana_pref":"ﾎｯｶｲﾄﾞｳ","kana_city":"ﾌﾀﾐｸﾞﾝﾔｸﾓﾁｮｳ","kana_address":"ｸﾏｲｼﾀﾃﾋﾗﾁｮｳ","pref":"北海道","city":"二海郡八雲町","address":"熊石館平町"},
{"zip_code":"0430334","kana_pref":"ﾎｯｶｲﾄﾞｳ","kana_city":"ﾌﾀﾐｸﾞﾝﾔｸﾓﾁｮｳ","kana_address":"ｸﾏｲｼﾄﾏﾘｶﾜﾁｮｳ","pref":"北海道","city":"二海郡八雲町","address":"熊石泊川町"},
{"zip_code":"0430417","kana_pref":"ﾎｯｶｲﾄﾞｳ","kana_city":"ﾌﾀﾐｸﾞﾝﾔｸﾓﾁｮｳ","kana_address":"ｸﾏｲｼﾅﾙｶﾞﾐﾁｮｳ","pref":"北海道","city":"二海郡八雲町","address":"熊石鳴神町"},
{"zip_code":"0430419","kana_pref":"ﾎｯｶｲﾄﾞｳ","kana_city":"ﾌﾀﾐｸﾞﾝﾔｸﾓﾁｮｳ","kana_address":"ｸﾏｲｼﾆｼﾊﾏﾁｮｳ","pref":"北海道","city":"二海郡八雲町","address":"熊石西浜町"},
{"zip_code":"0430415","kana_pref":"ﾎｯｶｲﾄﾞｳ","kana_city":"ﾌﾀﾐｸﾞﾝﾔｸﾓﾁｮｳ","kana_address":"ｸﾏｲｼﾈｻﾞｷﾁｮｳ","pref":"北海道","city":"二海郡八雲町","address":"熊石根崎町"},
{"zip_code":"0430000","kana_pref":"ﾎｯｶｲﾄﾞｳ","kana_city":"ﾋﾔﾏｸﾞﾝｴｻｼﾁｮｳ","kana_address":"","pref":"北海道","city":"檜山郡江差町","address":""},
{"zip_code":"0430013","kana_pref":"ﾎｯｶｲﾄﾞｳ","kana_city":"ﾋﾔﾏｸﾞﾝｴｻｼﾁｮｳ","kana_address":"ｱｻﾋﾁｮｳ","pref":"北海道","city":"檜山郡江差町","address":"朝日町"},
{"zip_code":"0430031","kana_pref":"ﾎｯｶｲﾄﾞｳ","kana_city":"ﾋﾔﾏｸﾞﾝｴｻｼﾁｮｳ","kana_address":"ｱﾀｺﾞﾁｮｳ","pref":"北海道","city":"檜山郡江差町","address":"愛宕町"},
{"zip_code":"0430042","kana_pref":"ﾎｯｶｲﾄﾞｳ","kana_city":"ﾋﾔﾏｸﾞﾝｴｻｼﾁｮｳ","kana_address":"ｳｴﾉﾁｮｳ","pref":"北海道","city":"檜山郡江差町","address":"上野町"},
{"zip_code":"0430012","kana_pref":"ﾎｯｶｲﾄﾞｳ","kana_city":"ﾋﾔﾏｸﾞﾝｴｻｼﾁｮｳ","kana_address":"ｳｸﾞｲｶﾜﾁｮｳ","pref":"北海道","city":"檜山郡江差町","address":"鰔川町"},
{"zip_code":"0430041","kana_pref":"ﾎｯｶｲﾄﾞｳ","kana_city":"ﾋﾔﾏｸﾞﾝｴｻｼﾁｮｳ","kana_address":"ｳﾊﾞｶﾞﾐﾁｮｳ","pref":"北海道","city":"檜山郡江差町","address":"姥神町"},
{"zip_code":"0430046","kana_pref":"ﾎｯｶｲﾄﾞｳ","kana_city":"ﾋﾔﾏｸﾞﾝｴｻｼﾁｮｳ","kana_address":"ｴｻｼｺｳｷﾀﾌﾄｳ","pref":"北海道","city":"檜山郡江差町","address":"江差港北埠頭"},
{"zip_code":"0430016","kana_pref":"ﾎｯｶｲﾄﾞｳ","kana_city":"ﾋﾔﾏｸﾞﾝｴｻｼﾁｮｳ","kana_address":"ｴﾁｾﾞﾝﾏﾁ","pref":"北海道","city":"檜山郡江差町","address":"越前町"},
{"zip_code":"0430026","kana_pref":"ﾎｯｶｲﾄﾞｳ","kana_city":"ﾋﾔﾏｸﾞﾝｴｻｼﾁｮｳ","kana_address":"ｵｵﾏﾁｮｳ","pref":"北海道","city":"檜山郡江差町","address":"大澗町"},
{"zip_code":"0430014","kana_pref":"ﾎｯｶｲﾄﾞｳ","kana_city":"ﾋﾔﾏｸﾞﾝｴｻｼﾁｮｳ","kana_address":"ｵｸﾞﾛｯﾍﾟﾁｮｳ","pref":"北海道","city":"檜山郡江差町","address":"小黒部町"},
{"zip_code":"0430024","kana_pref":"ﾎｯｶｲﾄﾞｳ","kana_city":"ﾋﾔﾏｸﾞﾝｴｻｼﾁｮｳ","kana_address":"ｵﾔﾏﾁｮｳ","pref":"北海道","city":"檜山郡江差町","address":"尾山町"},
{"zip_code":"0430057","kana_pref":"ﾎｯｶｲﾄﾞｳ","kana_city":"ﾋﾔﾏｸﾞﾝｴｻｼﾁｮｳ","kana_address":"ｶｲｶﾞﾝﾁｮｳ","pref":"北海道","city":"檜山郡江差町","address":"海岸町"},
{"zip_code":"0430064","kana_pref":"ﾎｯｶｲﾄﾞｳ","kana_city":"ﾋﾔﾏｸﾞﾝｴｻｼﾁｮｳ","kana_address":"ｶｼﾜﾁｮｳ","pref":"北海道","city":"檜山郡江差町","address":"柏町"},
{"zip_code":"0430045","kana_pref":"ﾎｯｶｲﾄﾞｳ","kana_city":"ﾋﾔﾏｸﾞﾝｴｻｼﾁｮｳ","kana_address":"ｶﾓﾒｼﾞﾏ","pref":"北海道","city":"檜山郡江差町","address":"鴎島"},
{"zip_code":"0430011","kana_pref":"ﾎｯｶｲﾄﾞｳ","kana_city":"ﾋﾔﾏｸﾞﾝｴｻｼﾁｮｳ","kana_address":"ｺﾞﾘﾝｻﾞﾜﾁｮｳ","pref":"北海道","city":"檜山郡江差町","address":"五厘沢町"},
{"zip_code":"0430032","kana_pref":"ﾎｯｶｲﾄﾞｳ","kana_city":"ﾋﾔﾏｸﾞﾝｴｻｼﾁｮｳ","kana_address":"ｼﾝｴｲﾁｮｳ","pref":"北海道","city":"檜山郡江差町","address":"新栄町"},
{"zip_code":"0430053","kana_pref":"ﾎｯｶｲﾄﾞｳ","kana_city":"ﾋﾔﾏｸﾞﾝｴｻｼﾁｮｳ","kana_address":"ｼﾝﾁﾁｮｳ","pref":"北海道","city":"檜山郡江差町","address":"新地町"},
{"zip_code":"0430056","kana_pref":"ﾎｯｶｲﾄﾞｳ","kana_city":"ﾋﾔﾏｸﾞﾝｴｻｼﾁｮｳ","kana_address":"ｼﾞﾝﾔﾁｮｳ","pref":"北海道","city":"檜山郡江差町","address":"陣屋町"},
{"zip_code":"0430065","kana_pref":"ﾎｯｶｲﾄﾞｳ","kana_city":"ﾋﾔﾏｸﾞﾝｴｻｼﾁｮｳ","kana_address":"ｽﾅｶﾞﾜ","pref":"北海道","city":"檜山郡江差町","address":"砂川"},
{"zip_code":"0430023","kana_pref":"ﾎｯｶｲﾄﾞｳ","kana_city":"ﾋﾔﾏｸﾞﾝｴｻｼﾁｮｳ","kana_address":"ﾀｻﾞﾜﾁｮｳ","pref":"北海道","city":"檜山郡江差町","address":"田沢町"},
{"zip_code":"0430051","kana_pref":"ﾎｯｶｲﾄﾞｳ","kana_city":"ﾋﾔﾏｸﾞﾝｴｻｼﾁｮｳ","kana_address":"ﾂﾊﾞﾅﾁｮｳ","pref":"北海道","city":"檜山郡江差町","address":"津花町"},
{"zip_code":"0430066","kana_pref":"ﾎｯｶｲﾄﾞｳ","kana_city":"ﾋﾔﾏｸﾞﾝｴｻｼﾁｮｳ","kana_address":"ﾄﾄﾞｶﾞﾜﾁｮｳ","pref":"北海道","city":"檜山郡江差町","address":"とど川町"},
{"zip_code":"0430025","kana_pref":"ﾎｯｶｲﾄﾞｳ","kana_city":"ﾋﾔﾏｸﾞﾝｴｻｼﾁｮｳ","kana_address":"ﾄﾏﾘﾁｮｳ","pref":"北海道","city":"檜山郡江差町","address":"泊町"},
{"zip_code":"0430033","kana_pref":"ﾎｯｶｲﾄﾞｳ","kana_city":"ﾋﾔﾏｸﾞﾝｴｻｼﾁｮｳ","kana_address":"ﾄﾖｶﾜﾁｮｳ","pref":"北海道","city":"檜山郡江差町","address":"豊川町"},
{"zip_code":"0430015","kana_pref":"ﾎｯｶｲﾄﾞｳ","kana_city":"ﾋﾔﾏｸﾞﾝｴｻｼﾁｮｳ","kana_address":"ﾅｶｱﾐﾁｮｳ","pref":"北海道","city":"檜山郡江差町","address":"中網町"},
{"zip_code":"0430034","kana_pref":"ﾎｯｶｲﾄﾞｳ","kana_city":"ﾋﾔﾏｸﾞﾝｴｻｼﾁｮｳ","kana_address":"ﾅｶｳﾀﾁｮｳ","pref":"北海道","city":"檜山郡江差町","address":"中歌町"},
{"zip_code":"0430062","kana_pref":"ﾎｯｶｲﾄﾞｳ","kana_city":"ﾋﾔﾏｸﾞﾝｴｻｼﾁｮｳ","kana_address":"ﾊｷﾞﾉﾀｲ","pref":"北海道","city":"檜山郡江差町","address":"萩の岱"},
{"zip_code":"0430044","kana_pref":"ﾎｯｶｲﾄﾞｳ","kana_city":"ﾋﾔﾏｸﾞﾝｴｻｼﾁｮｳ","kana_address":"ﾊｼﾓﾄﾁｮｳ","pref":"北海道","city":"檜山郡江差町","address":"橋本町"},
{"zip_code":"0430036","kana_pref":"ﾎｯｶｲﾄﾞｳ","kana_city":"ﾋﾔﾏｸﾞﾝｴｻｼﾁｮｳ","kana_address":"ﾋｶﾞｼﾔﾏ","pref":"北海道","city":"檜山郡江差町","address":"東山"},
{"zip_code":"0430035","kana_pref":"ﾎｯｶｲﾄﾞｳ","kana_city":"ﾋﾔﾏｸﾞﾝｴｻｼﾁｮｳ","kana_address":"ﾋﾉｷﾀｲ","pref":"北海道","city":"檜山郡江差町","address":"桧岱"},
{"zip_code":"0430022","kana_pref":"ﾎｯｶｲﾄﾞｳ","kana_city":"ﾋﾔﾏｸﾞﾝｴｻｼﾁｮｳ","kana_address":"ﾌｼｷﾄﾞﾁｮｳ","pref":"北海道","city":"檜山郡江差町","address":"伏木戸町"},
{"zip_code":"0430043","kana_pref":"ﾎｯｶｲﾄﾞｳ","kana_city":"ﾋﾔﾏｸﾞﾝｴｻｼﾁｮｳ","kana_address":"ﾎﾝﾁｮｳ","pref":"北海道","city":"檜山郡江差町","address":"本町"},
{"zip_code":"0430055","kana_pref":"ﾎｯｶｲﾄﾞｳ","kana_city":"ﾋﾔﾏｸﾞﾝｴｻｼﾁｮｳ","kana_address":"ﾏﾙﾔﾏ","pref":"北海道","city":"檜山郡江差町","address":"円山"},
{"zip_code":"0430017","kana_pref":"ﾎｯｶｲﾄﾞｳ","kana_city":"ﾋﾔﾏｸﾞﾝｴｻｼﾁｮｳ","kana_address":"ﾐｽﾞﾎﾘﾁｮｳ","pref":"北海道","city":"檜山郡江差町","address":"水堀町"},
{"zip_code":"0430054","kana_pref":"ﾎｯｶｲﾄﾞｳ","kana_city":"ﾋﾔﾏｸﾞﾝｴｻｼﾁｮｳ","kana_address":"ﾐﾄﾞﾘｶﾞｵｶ","pref":"北海道","city":"檜山郡江差町","address":"緑丘"},
{"zip_code":"0430061","kana_pref":"ﾎｯｶｲﾄﾞｳ","kana_city":"ﾋﾔﾏｸﾞﾝｴｻｼﾁｮｳ","kana_address":"ﾐﾅﾐｶﾞｵｶ","pref":"北海道","city":"檜山郡江差町","address":"南が丘"},
{"zip_code":"0430063","kana_pref":"ﾎｯｶｲﾄﾞｳ","kana_city":"ﾋﾔﾏｸﾞﾝｴｻｼﾁｮｳ","kana_address":"ﾐﾅﾐﾊﾏﾁｮｳ","pref":"北海道","city":"檜山郡江差町","address":"南浜町"},
{"zip_code":"0430052","kana_pref":"ﾎｯｶｲﾄﾞｳ","kana_city":"ﾋﾔﾏｸﾞﾝｴｻｼﾁｮｳ","kana_address":"ﾓｼﾘﾁｮｳ","pref":"北海道","city":"檜山郡江差町","address":"茂尻町"},
{"zip_code":"0430021","kana_pref":"ﾎｯｶｲﾄﾞｳ","kana_city":"ﾋﾔﾏｸﾞﾝｴｻｼﾁｮｳ","kana_address":"ﾔﾅｷﾞｻﾞｷﾁｮｳ","pref":"北海道","city":"檜山郡江差町","address":"柳崎町"},
{"zip_code":"0431100","kana_pref":"ﾎｯｶｲﾄﾞｳ","kana_city":"ﾋﾔﾏｸﾞﾝｱｯｻﾌﾞﾁｮｳ","kana_address":"","pref":"北海道","city":"檜山郡厚沢部町","address":""},
{"zip_code":"0431232","kana_pref":"ﾎｯｶｲﾄﾞｳ","kana_city":"ﾋﾔﾏｸﾞﾝｱｯｻﾌﾞﾁｮｳ","kana_address":"ｱｲｵｲ","pref":"北海道","city":"檜山郡厚沢部町","address":"相生"},
{"zip_code":"0431111","kana_pref":"ﾎｯｶｲﾄﾞｳ","kana_city":"ﾋﾔﾏｸﾞﾝｱｯｻﾌﾞﾁｮｳ","kana_address":"ｱｶﾇﾏﾏﾁ","pref":"北海道","city":"檜山郡厚沢部町","address":"赤沼町"},
{"zip_code":"0431233","kana_pref":"ﾎｯｶｲﾄﾞｳ","kana_city":"ﾋﾔﾏｸﾞﾝｱｯｻﾌﾞﾁｮｳ","kana_address":"ｱｻﾋｵｶ","pref":"北海道","city":"檜山郡厚沢部町","address":"旭丘"},
{"zip_code":"0431102","kana_pref":"ﾎｯｶｲﾄﾞｳ","kana_city":"ﾋﾔﾏｸﾞﾝｱｯｻﾌﾞﾁｮｳ","kana_address":"ｲﾅﾐ","pref":"北海道","city":"檜山郡厚沢部町","address":"稲見"},
{"zip_code":"0431238","kana_pref":"ﾎｯｶｲﾄﾞｳ","kana_city":"ﾋﾔﾏｸﾞﾝｱｯｻﾌﾞﾁｮｳ","kana_address":"ｳｽﾞﾗ","pref":"北海道","city":"檜山郡厚沢部町","address":"鶉"},
{"zip_code":"0431237","kana_pref":"ﾎｯｶｲﾄﾞｳ","kana_city":"ﾋﾔﾏｸﾞﾝｱｯｻﾌﾞﾁｮｳ","kana_address":"ｳｽﾞﾗﾏﾁ","pref":"北海道","city":"檜山郡厚沢部町","address":"鶉町"},
{"zip_code":"0431104","kana_pref":"ﾎｯｶｲﾄﾞｳ","kana_city":"ﾋﾔﾏｸﾞﾝｱｯｻﾌﾞﾁｮｳ","kana_address":"ｶﾐｻﾄ","pref":"北海道","city":"檜山郡厚沢部町","address":"上里"},
{"zip_code":"0431116","kana_pref":"ﾎｯｶｲﾄﾞｳ","kana_city":"ﾋﾔﾏｸﾞﾝｱｯｻﾌﾞﾁｮｳ","kana_address":"ｶﾐﾉﾔﾏ","pref":"北海道","city":"檜山郡厚沢部町","address":"上の山"},
{"zip_code":"0431234","kana_pref":"ﾎｯｶｲﾄﾞｳ","kana_city":"ﾋﾔﾏｸﾞﾝｱｯｻﾌﾞﾁｮｳ","kana_address":"ｷﾏﾅｲ","pref":"北海道","city":"檜山郡厚沢部町","address":"木間内"},
{"zip_code":"0431231","kana_pref":"ﾎｯｶｲﾄﾞｳ","kana_city":"ﾋﾔﾏｸﾞﾝｱｯｻﾌﾞﾁｮｳ","kana_address":"ｷｮｳﾜ","pref":"北海道","city":"檜山郡厚沢部町","address":"共和"},
{"zip_code":"0431101","kana_pref":"ﾎｯｶｲﾄﾞｳ","kana_city":"ﾋﾔﾏｸﾞﾝｱｯｻﾌﾞﾁｮｳ","kana_address":"ｼﾐｽﾞ","pref":"北海道","city":"檜山郡厚沢部町","address":"清水"},
{"zip_code":"0431361","kana_pref":"ﾎｯｶｲﾄﾞｳ","kana_city":"ﾋﾔﾏｸﾞﾝｱｯｻﾌﾞﾁｮｳ","kana_address":"ｼｬﾉﾔﾏ","pref":"北海道","city":"檜山郡厚沢部町","address":"社の山"},
{"zip_code":"0431236","kana_pref":"ﾎｯｶｲﾄﾞｳ","kana_city":"ﾋﾔﾏｸﾞﾝｱｯｻﾌﾞﾁｮｳ","kana_address":"ｼｬﾉﾔﾏ","pref":"北海道","city":"檜山郡厚沢部町","address":"社の山"},
{"zip_code":"0431364","kana_pref":"ﾎｯｶｲﾄﾞｳ","kana_city":"ﾋﾔﾏｸﾞﾝｱｯｻﾌﾞﾁｮｳ","kana_address":"ｼﾛｵｶ","pref":"北海道","city":"檜山郡厚沢部町","address":"城丘"},
{"zip_code":"0431367","kana_pref":"ﾎｯｶｲﾄﾞｳ","kana_city":"ﾋﾔﾏｸﾞﾝｱｯｻﾌﾞﾁｮｳ","kana_address":"ｼﾝｴｲ","pref":"北海道","city":"檜山郡厚沢部町","address":"新栄"},
{"zip_code":"0431113","kana_pref":"ﾎｯｶｲﾄﾞｳ","kana_city":"ﾋﾔﾏｸﾞﾝｱｯｻﾌﾞﾁｮｳ","kana_address":"ｼﾝﾏﾁ","pref":"北海道","city":"檜山郡厚沢部町","address":"新町"},
{"zip_code":"0431362","kana_pref":"ﾎｯｶｲﾄﾞｳ","kana_city":"ﾋﾔﾏｸﾞﾝｱｯｻﾌﾞﾁｮｳ","kana_address":"ｽｶﾞ","pref":"北海道","city":"檜山郡厚沢部町","address":"須賀"},
{"zip_code":"0431103","kana_pref":"ﾎｯｶｲﾄﾞｳ","kana_city":"ﾋﾔﾏｸﾞﾝｱｯｻﾌﾞﾁｮｳ","kana_address":"ﾀｷﾉ","pref":"北海道","city":"檜山郡厚沢部町","address":"滝野"},
{"zip_code":"0431351","kana_pref":"ﾎｯｶｲﾄﾞｳ","kana_city":"ﾋﾔﾏｸﾞﾝｱｯｻﾌﾞﾁｮｳ","kana_address":"ﾀﾃﾏﾁ","pref":"北海道","city":"檜山郡厚沢部町","address":"館町"},
{"zip_code":"0431235","kana_pref":"ﾎｯｶｲﾄﾞｳ","kana_city":"ﾋﾔﾏｸﾞﾝｱｯｻﾌﾞﾁｮｳ","kana_address":"ﾄｳｹﾞｼﾀ","pref":"北海道","city":"檜山郡厚沢部町","address":"峠下"},
{"zip_code":"0431366","kana_pref":"ﾎｯｶｲﾄﾞｳ","kana_city":"ﾋﾔﾏｸﾞﾝｱｯｻﾌﾞﾁｮｳ","kana_address":"ﾄｳﾛ","pref":"北海道","city":"檜山郡厚沢部町","address":"当路"},
{"zip_code":"0431118","kana_pref":"ﾎｯｶｲﾄﾞｳ","kana_city":"ﾋﾔﾏｸﾞﾝｱｯｻﾌﾞﾁｮｳ","kana_address":"ﾄﾐｴｲ","pref":"北海道","city":"檜山郡厚沢部町","address":"富栄"},
{"zip_code":"0431363","kana_pref":"ﾎｯｶｲﾄﾞｳ","kana_city":"ﾋﾔﾏｸﾞﾝｱｯｻﾌﾞﾁｮｳ","kana_address":"ﾄﾐｻﾄ","pref":"北海道","city":"檜山郡厚沢部町","address":"富里"},
{"zip_code":"0431368","kana_pref":"ﾎｯｶｲﾄﾞｳ","kana_city":"ﾋﾔﾏｸﾞﾝｱｯｻﾌﾞﾁｮｳ","kana_address":"ﾅｶﾀﾃ","pref":"北海道","city":"檜山郡厚沢部町","address":"中館"},
{"zip_code":"0431114","kana_pref":"ﾎｯｶｲﾄﾞｳ","kana_city":"ﾋﾔﾏｸﾞﾝｱｯｻﾌﾞﾁｮｳ","kana_address":"ﾎﾝﾁｮｳ","pref":"北海道","city":"檜山郡厚沢部町","address":"本町"},
{"zip_code":"0431115","kana_pref":"ﾎｯｶｲﾄﾞｳ","kana_city":"ﾋﾔﾏｸﾞﾝｱｯｻﾌﾞﾁｮｳ","kana_address":"ﾏﾂｿﾞﾉﾏﾁ","pref":"北海道","city":"檜山郡厚沢部町","address":"松園町"},
{"zip_code":"0431112","kana_pref":"ﾎｯｶｲﾄﾞｳ","kana_city":"ﾋﾔﾏｸﾞﾝｱｯｻﾌﾞﾁｮｳ","kana_address":"ﾐﾄﾞﾘﾏﾁ","pref":"北海道","city":"檜山郡厚沢部町","address":"緑町"},
{"zip_code":"0431365","kana_pref":"ﾎｯｶｲﾄﾞｳ","kana_city":"ﾋﾔﾏｸﾞﾝｱｯｻﾌﾞﾁｮｳ","kana_address":"ﾐﾅﾐﾀﾃﾏﾁ","pref":"北海道","city":"檜山郡厚沢部町","address":"南館町"},
{"zip_code":"0431117","kana_pref":"ﾎｯｶｲﾄﾞｳ","kana_city":"ﾋﾔﾏｸﾞﾝｱｯｻﾌﾞﾁｮｳ","kana_address":"ﾐﾜ","pref":"北海道","city":"檜山郡厚沢部町","address":"美和"},
{"zip_code":"0430100","kana_pref":"ﾎｯｶｲﾄﾞｳ","kana_city":"ﾆｼｸﾞﾝｵﾄﾍﾞﾁｮｳ","kana_address":"","pref":"北海道","city":"爾志郡乙部町","address":""},
{"zip_code":"0430116","kana_pref":"ﾎｯｶｲﾄﾞｳ","kana_city":"ﾆｼｸﾞﾝｵﾄﾍﾞﾁｮｳ","kana_address":"ｱｻﾋﾀｲ","pref":"北海道","city":"爾志郡乙部町","address":"旭岱"},
{"zip_code":"0430114","kana_pref":"ﾎｯｶｲﾄﾞｳ","kana_city":"ﾆｼｸﾞﾝｵﾄﾍﾞﾁｮｳ","kana_address":"ｹﾞﾝﾅ","pref":"北海道","city":"爾志郡乙部町","address":"元和"},
{"zip_code":"0430112","kana_pref":"ﾎｯｶｲﾄﾞｳ","kana_city":"ﾆｼｸﾞﾝｵﾄﾍﾞﾁｮｳ","kana_address":"ｻｶｴﾉ","pref":"北海道","city":"爾志郡乙部町","address":"栄野"},
{"zip_code":"0430113","kana_pref":"ﾎｯｶｲﾄﾞｳ","kana_city":"ﾆｼｸﾞﾝｵﾄﾍﾞﾁｮｳ","kana_address":"ｻｶｴﾊﾏ","pref":"北海道","city":"爾志郡乙部町","address":"栄浜"},
{"zip_code":"0430233","kana_pref":"ﾎｯｶｲﾄﾞｳ","kana_city":"ﾆｼｸﾞﾝｵﾄﾍﾞﾁｮｳ","kana_address":"ｼｵﾐ","pref":"北海道","city":"爾志郡乙部町","address":"潮見"},
{"zip_code":"0430101","kana_pref":"ﾎｯｶｲﾄﾞｳ","kana_city":"ﾆｼｸﾞﾝｵﾄﾍﾞﾁｮｳ","kana_address":"ﾀｷｾ","pref":"北海道","city":"爾志郡乙部町","address":"滝瀬"},
{"zip_code":"0430104","kana_pref":"ﾎｯｶｲﾄﾞｳ","kana_city":"ﾆｼｸﾞﾝｵﾄﾍﾞﾁｮｳ","kana_address":"ﾀﾃｳﾗ","pref":"北海道","city":"爾志郡乙部町","address":"館浦"},
{"zip_code":"0430115","kana_pref":"ﾎｯｶｲﾄﾞｳ","kana_city":"ﾆｼｸﾞﾝｵﾄﾍﾞﾁｮｳ","kana_address":"ﾄﾐｵｶ","pref":"北海道","city":"爾志郡乙部町","address":"富岡"},
{"zip_code":"0430231","kana_pref":"ﾎｯｶｲﾄﾞｳ","kana_city":"ﾆｼｸﾞﾝｵﾄﾍﾞﾁｮｳ","kana_address":"ﾄﾖﾊﾏ","pref":"北海道","city":"爾志郡乙部町","address":"豊浜"},
{"zip_code":"0430111","kana_pref":"ﾎｯｶｲﾄﾞｳ","kana_city":"ﾆｼｸﾞﾝｵﾄﾍﾞﾁｮｳ","kana_address":"ﾄﾘﾔﾏ","pref":"北海道","city":"爾志郡乙部町","address":"鳥山"},
{"zip_code":"0430232","kana_pref":"ﾎｯｶｲﾄﾞｳ","kana_city":"ﾆｼｸﾞﾝｵﾄﾍﾞﾁｮｳ","kana_address":"ﾊﾅｲｿ","pref":"北海道","city":"爾志郡乙部町","address":"花磯"},
{"zip_code":"0430117","kana_pref":"ﾎｯｶｲﾄﾞｳ","kana_city":"ﾆｼｸﾞﾝｵﾄﾍﾞﾁｮｳ","kana_address":"ﾋﾒｶﾜ","pref":"北海道","city":"爾志郡乙部町","address":"姫川"},
{"zip_code":"0430234","kana_pref":"ﾎｯｶｲﾄﾞｳ","kana_city":"ﾆｼｸﾞﾝｵﾄﾍﾞﾁｮｳ","kana_address":"ﾐﾂﾔ","pref":"北海道","city":"爾志郡乙部町","address":"三ツ谷"},
{"zip_code":"0430103","kana_pref":"ﾎｯｶｲﾄﾞｳ","kana_city":"ﾆｼｸﾞﾝｵﾄﾍﾞﾁｮｳ","kana_address":"ﾐﾄﾞﾘﾏﾁ","pref":"北海道","city":"爾志郡乙部町","address":"緑町"},
{"zip_code":"0430102","kana_pref":"ﾎｯｶｲﾄﾞｳ","kana_city":"ﾆｼｸﾞﾝｵﾄﾍﾞﾁｮｳ","kana_address":"ﾓﾄﾏﾁ","pref":"北海道","city":"爾志郡乙部町","address":"元町"},
{"zip_code":"0431400","kana_pref":"ﾎｯｶｲﾄﾞｳ","kana_city":"ｵｸｼﾘｸﾞﾝｵｸｼﾘﾁｮｳ","kana_address":"","pref":"北海道","city":"奥尻郡奥尻町","address":""},
{"zip_code":"0431521","kana_pref":"ﾎｯｶｲﾄﾞｳ","kana_city":"ｵｸｼﾘｸﾞﾝｵｸｼﾘﾁｮｳ","kana_address":"ｱｵﾅｴ","pref":"北海道","city":"奥尻郡奥尻町","address":"青苗"},
{"zip_code":"0431402","kana_pref":"ﾎｯｶｲﾄﾞｳ","kana_city":"ｵｸｼﾘｸﾞﾝｵｸｼﾘﾁｮｳ","kana_address":"ｱｶｲｼ","pref":"北海道","city":"奥尻郡奥尻町","address":"赤石"},
{"zip_code":"0431405","kana_pref":"ﾎｯｶｲﾄﾞｳ","kana_city":"ｵｸｼﾘｸﾞﾝｵｸｼﾘﾁｮｳ","kana_address":"ｲﾅﾎ","pref":"北海道","city":"奥尻郡奥尻町","address":"稲穂"},
{"zip_code":"0431401","kana_pref":"ﾎｯｶｲﾄﾞｳ","kana_city":"ｵｸｼﾘｸﾞﾝｵｸｼﾘﾁｮｳ","kana_address":"ｵｸｼﾘ","pref":"北海道","city":"奥尻郡奥尻町","address":"奥尻"},
{"zip_code":"0431403","kana_pref":"ﾎｯｶｲﾄﾞｳ","kana_city":"ｵｸｼﾘｸﾞﾝｵｸｼﾘﾁｮｳ","kana_address":"ﾀﾏｳﾗ","pref":"北海道","city":"奥尻郡奥尻町","address":"球浦"},
{"zip_code":"0431522","kana_pref":"ﾎｯｶｲﾄﾞｳ","kana_city":"ｵｸｼﾘｸﾞﾝｵｸｼﾘﾁｮｳ","kana_address":"ﾄﾐｻﾄ","pref":"北海道","city":"奥尻郡奥尻町","address":"富里"},
{"zip_code":"0431523","kana_pref":"ﾎｯｶｲﾄﾞｳ","kana_city":"ｵｸｼﾘｸﾞﾝｵｸｼﾘﾁｮｳ","kana_address":"ﾏﾂｴ","pref":"北海道","city":"奥尻郡奥尻町","address":"松江"},
{"zip_code":"0431404","kana_pref":"ﾎｯｶｲﾄﾞｳ","kana_city":"ｵｸｼﾘｸﾞﾝｵｸｼﾘﾁｮｳ","kana_address":"ﾐﾔﾂ","pref":"北海道","city":"奥尻郡奥尻町","address":"宮津"},
{"zip_code":"0431525","kana_pref":"ﾎｯｶｲﾄﾞｳ","kana_city":"ｵｸｼﾘｸﾞﾝｵｸｼﾘﾁｮｳ","kana_address":"ﾕﾉﾊﾏ","pref":"北海道","city":"奥尻郡奥尻町","address":"湯浜"},
{"zip_code":"0431406","kana_pref":"ﾎｯｶｲﾄﾞｳ","kana_city":"ｵｸｼﾘｸﾞﾝｵｸｼﾘﾁｮｳ","kana_address":"ﾕﾉﾊﾏ","pref":"北海道","city":"奥尻郡奥尻町","address":"湯浜"},
{"zip_code":"0431524","kana_pref":"ﾎｯｶｲﾄﾞｳ","kana_city":"ｵｸｼﾘｸﾞﾝｵｸｼﾘﾁｮｳ","kana_address":"ﾖﾈｵｶ","pref":"北海道","city":"奥尻郡奥尻町","address":"米岡"},
{"zip_code":"0430501","kana_pref":"ﾎｯｶｲﾄﾞｳ","kana_city":"ｸﾄﾞｳｸﾞﾝｾﾀﾅﾁｮｳ","kana_address":"ﾀｲｾｲｸｵｵﾀ","pref":"北海道","city":"久遠郡せたな町","address":"大成区太田"},
{"zip_code":"0430515","kana_pref":"ﾎｯｶｲﾄﾞｳ","kana_city":"ｸﾄﾞｳｸﾞﾝｾﾀﾅﾁｮｳ","kana_address":"ﾀｲｾｲｸｶｲﾄﾘﾏ","pref":"北海道","city":"久遠郡せたな町","address":"大成区貝取澗"},
{"zip_code":"0430503","kana_pref":"ﾎｯｶｲﾄﾞｳ","kana_city":"ｸﾄﾞｳｸﾞﾝｾﾀﾅﾁｮｳ","kana_address":"ﾀｲｾｲｸｶﾐｳﾗ","pref":"北海道","city":"久遠郡せたな町","address":"大成区上浦"},
{"zip_code":"0430511","kana_pref":"ﾎｯｶｲﾄﾞｳ","kana_city":"ｸﾄﾞｳｸﾞﾝｾﾀﾅﾁｮｳ","kana_address":"ﾀｲｾｲｸｸﾄﾞｵ","pref":"北海道","city":"久遠郡せたな町","address":"大成区久遠"},
{"zip_code":"0430502","kana_pref":"ﾎｯｶｲﾄﾞｳ","kana_city":"ｸﾄﾞｳｸﾞﾝｾﾀﾅﾁｮｳ","kana_address":"ﾀｲｾｲｸﾄﾐｲｿ","pref":"北海道","city":"久遠郡せたな町","address":"大成区富磯"},
{"zip_code":"0430421","kana_pref":"ﾎｯｶｲﾄﾞｳ","kana_city":"ｸﾄﾞｳｸﾞﾝｾﾀﾅﾁｮｳ","kana_address":"ﾀｲｾｲｸﾅｶﾞｲｿ","pref":"北海道","city":"久遠郡せたな町","address":"大成区長磯"},
{"zip_code":"0430512","kana_pref":"ﾎｯｶｲﾄﾞｳ","kana_city":"ｸﾄﾞｳｸﾞﾝｾﾀﾅﾁｮｳ","kana_address":"ﾀｲｾｲｸﾊﾅｳﾀ","pref":"北海道","city":"久遠郡せたな町","address":"大成区花歌"},
{"zip_code":"0430514","kana_pref":"ﾎｯｶｲﾄﾞｳ","kana_city":"ｸﾄﾞｳｸﾞﾝｾﾀﾅﾁｮｳ","kana_address":"ﾀｲｾｲｸﾋﾗﾊﾏ","pref":"北海道","city":"久遠郡せたな町","address":"大成区平浜"},
{"zip_code":"0430505","kana_pref":"ﾎｯｶｲﾄﾞｳ","kana_city":"ｸﾄﾞｳｸﾞﾝｾﾀﾅﾁｮｳ","kana_address":"ﾀｲｾｲｸﾎﾝｼﾞﾝ","pref":"北海道","city":"久遠郡せたな町","address":"大成区本陣"},
{"zip_code":"0430504","kana_pref":"ﾎｯｶｲﾄﾞｳ","kana_city":"ｸﾄﾞｳｸﾞﾝｾﾀﾅﾁｮｳ","kana_address":"ﾀｲｾｲｸﾐﾔｺ","pref":"北海道","city":"久遠郡せたな町","address":"大成区都"},
{"zip_code":"0430513","kana_pref":"ﾎｯｶｲﾄﾞｳ","kana_city":"ｸﾄﾞｳｸﾞﾝｾﾀﾅﾁｮｳ","kana_address":"ﾀｲｾｲｸﾐﾔﾉ","pref":"北海道","city":"久遠郡せたな町","address":"大成区宮野"}]}