{"zip_code":[
{"zip_code":"0450032","kana_pref":"ﾎｯｶｲﾄﾞｳ","kana_city":"ｲﾜﾅｲｸﾞﾝｷｮｳﾜﾁｮｳ","kana_address":"ｵｲｺﾐ","pref":"北海道","city":"岩内郡共和町","address":"老古美"},
{"zip_code":"0450122","kana_pref":"ﾎｯｶｲﾄﾞｳ","kana_city":"ｲﾜﾅｲｸﾞﾝｷｮｳﾜﾁｮｳ","kana_address":"ﾊｯﾀﾘ","pref":"北海道","city":"岩内郡共和町","address":"発足"},
{"zip_code":"0450121","kana_pref":"ﾎｯｶｲﾄﾞｳ","kana_city":"ｲﾜﾅｲｸﾞﾝｷｮｳﾜﾁｮｳ","kana_address":"ﾎﾛﾆ","pref":"北海道","city":"岩内郡共和町","address":"幌似"},
{"zip_code":"0450123","kana_pref":"ﾎｯｶｲﾄﾞｳ","kana_city":"ｲﾜﾅｲｸﾞﾝｷｮｳﾜﾁｮｳ","kana_address":"ﾐﾔｵｶ","pref":"北海道","city":"岩内郡共和町","address":"宮丘"},
{"zip_code":"0450031","kana_pref":"ﾎｯｶｲﾄﾞｳ","kana_city":"ｲﾜﾅｲｸﾞﾝｷｮｳﾜﾁｮｳ","kana_address":"ﾘﾔﾑﾅｲ","pref":"北海道","city":"岩内郡共和町","address":"梨野舞納"},
{"zip_code":"0450000","kana_pref":"ﾎｯｶｲﾄﾞｳ","kana_city":"ｲﾜﾅｲｸﾞﾝｲﾜﾅｲﾁｮｳ","kana_address":"","pref":"北海道","city":"岩内郡岩内町","address":""},
{"zip_code":"0450023","kana_pref":"ﾎｯｶｲﾄﾞｳ","kana_city":"ｲﾜﾅｲｸﾞﾝｲﾜﾅｲﾁｮｳ","kana_address":"ｱｲｵｲ","pref":"北海道","city":"岩内郡岩内町","address":"相生"},
{"zip_code":"0450001","kana_pref":"ﾎｯｶｲﾄﾞｳ","kana_city":"ｲﾜﾅｲｸﾞﾝｲﾜﾅｲﾁｮｳ","kana_address":"ｵｵﾊﾏ","pref":"北海道","city":"岩内郡岩内町","address":"大浜"},
{"zip_code":"0450022","kana_pref":"ﾎｯｶｲﾄﾞｳ","kana_city":"ｲﾜﾅｲｸﾞﾝｲﾜﾅｲﾁｮｳ","kana_address":"ｷﾖｽﾞﾐ","pref":"北海道","city":"岩内郡岩内町","address":"清住"},
{"zip_code":"0450011","kana_pref":"ﾎｯｶｲﾄﾞｳ","kana_city":"ｲﾜﾅｲｸﾞﾝｲﾜﾅｲﾁｮｳ","kana_address":"ｻｶｴ","pref":"北海道","city":"岩内郡岩内町","address":"栄"},
{"zip_code":"0450025","kana_pref":"ﾎｯｶｲﾄﾞｳ","kana_city":"ｲﾜﾅｲｸﾞﾝｲﾜﾅｲﾁｮｳ","kana_address":"ｼｷｼﾏﾅｲ","pref":"北海道","city":"岩内郡岩内町","address":"敷島内"},
{"zip_code":"0450013","kana_pref":"ﾎｯｶｲﾄﾞｳ","kana_city":"ｲﾜﾅｲｸﾞﾝｲﾜﾅｲﾁｮｳ","kana_address":"ﾀｶﾀﾞｲ","pref":"北海道","city":"岩内郡岩内町","address":"高台"},
{"zip_code":"0450024","kana_pref":"ﾎｯｶｲﾄﾞｳ","kana_city":"ｲﾜﾅｲｸﾞﾝｲﾜﾅｲﾁｮｳ","kana_address":"ﾉﾂﾞｶ","pref":"北海道","city":"岩内郡岩内町","address":"野束"},
{"zip_code":"0450002","kana_pref":"ﾎｯｶｲﾄﾞｳ","kana_city":"ｲﾜﾅｲｸﾞﾝｲﾜﾅｲﾁｮｳ","kana_address":"ﾋｶﾞｼﾔﾏ","pref":"北海道","city":"岩内郡岩内町","address":"東山"},
{"zip_code":"0450003","kana_pref":"ﾎｯｶｲﾄﾞｳ","kana_city":"ｲﾜﾅｲｸﾞﾝｲﾜﾅｲﾁｮｳ","kana_address":"ﾏﾝﾀﾞｲ","pref":"北海道","city":"岩内郡岩内町","address":"万代"},
{"zip_code":"0450026","kana_pref":"ﾎｯｶｲﾄﾞｳ","kana_city":"ｲﾜﾅｲｸﾞﾝｲﾜﾅｲﾁｮｳ","kana_address":"ﾐｻｷ","pref":"北海道","city":"岩内郡岩内町","address":"御崎"},
{"zip_code":"0450012","kana_pref":"ﾎｯｶｲﾄﾞｳ","kana_city":"ｲﾜﾅｲｸﾞﾝｲﾜﾅｲﾁｮｳ","kana_address":"ﾐﾔｿﾞﾉ","pref":"北海道","city":"岩内郡岩内町","address":"宮園"},
{"zip_code":"0450021","kana_pref":"ﾎｯｶｲﾄﾞｳ","kana_city":"ｲﾜﾅｲｸﾞﾝｲﾜﾅｲﾁｮｳ","kana_address":"ﾔﾏﾄ","pref":"北海道","city":"岩内郡岩内町","address":"大和"},
{"zip_code":"0450200","kana_pref":"ﾎｯｶｲﾄﾞｳ","kana_city":"ﾌﾙｳｸﾞﾝﾄﾏﾘﾑﾗ","kana_address":"","pref":"北海道","city":"古宇郡泊村","address":""},
{"zip_code":"0450205","kana_pref":"ﾎｯｶｲﾄﾞｳ","kana_city":"ﾌﾙｳｸﾞﾝﾄﾏﾘﾑﾗ","kana_address":"ｵｷｼﾅｲﾑﾗ","pref":"北海道","city":"古宇郡泊村","address":"興志内村"},
{"zip_code":"0450202","kana_pref":"ﾎｯｶｲﾄﾞｳ","kana_city":"ﾌﾙｳｸﾞﾝﾄﾏﾘﾑﾗ","kana_address":"ｶﾔﾇﾏﾑﾗ","pref":"北海道","city":"古宇郡泊村","address":"茅沼村"},
{"zip_code":"0450204","kana_pref":"ﾎｯｶｲﾄﾞｳ","kana_city":"ﾌﾙｳｸﾞﾝﾄﾏﾘﾑﾗ","kana_address":"ｻｶｽﾞｷﾑﾗ","pref":"北海道","city":"古宇郡泊村","address":"盃村"},
{"zip_code":"0450203","kana_pref":"ﾎｯｶｲﾄﾞｳ","kana_city":"ﾌﾙｳｸﾞﾝﾄﾏﾘﾑﾗ","kana_address":"ﾄﾏﾘﾑﾗ","pref":"北海道","city":"古宇郡泊村","address":"泊村"},
{"zip_code":"0450201","kana_pref":"ﾎｯｶｲﾄﾞｳ","kana_city":"ﾌﾙｳｸﾞﾝﾄﾏﾘﾑﾗ","kana_address":"ﾎﾘｶｯﾌﾟﾑﾗ","pref":"北海道","city":"古宇郡泊村","address":"堀株村"},
{"zip_code":"0450300","kana_pref":"ﾎｯｶｲﾄﾞｳ","kana_city":"ﾌﾙｳｸﾞﾝｶﾓｴﾅｲﾑﾗ","kana_address":"","pref":"北海道","city":"古宇郡神恵内村","address":""},
{"zip_code":"0450302","kana_pref":"ﾎｯｶｲﾄﾞｳ","kana_city":"ﾌﾙｳｸﾞﾝｶﾓｴﾅｲﾑﾗ","kana_address":"ｱｶｲｼﾑﾗ","pref":"北海道","city":"古宇郡神恵内村","address":"赤石村"},
{"zip_code":"0450301","kana_pref":"ﾎｯｶｲﾄﾞｳ","kana_city":"ﾌﾙｳｸﾞﾝｶﾓｴﾅｲﾑﾗ","kana_address":"ｶﾓｴﾅｲﾑﾗ","pref":"北海道","city":"古宇郡神恵内村","address":"神恵内村"},
{"zip_code":"0450303","kana_pref":"ﾎｯｶｲﾄﾞｳ","kana_city":"ﾌﾙｳｸﾞﾝｶﾓｴﾅｲﾑﾗ","kana_address":"ｻﾝﾅｲﾑﾗ","pref":"北海道","city":"古宇郡神恵内村","address":"珊内村"}]}