{"zip_code":[
{"zip_code":"0470000","kana_pref":"ﾎｯｶｲﾄﾞｳ","kana_city":"ｵﾀﾙｼ","kana_address":"","pref":"北海道","city":"小樽市","address":""},
{"zip_code":"0470028","kana_pref":"ﾎｯｶｲﾄﾞｳ","kana_city":"ｵﾀﾙｼ","kana_address":"ｱｲｵｲﾁｮｳ","pref":"北海道","city":"小樽市","address":"相生町"},
{"zip_code":"0470046","kana_pref":"ﾎｯｶｲﾄﾞｳ","kana_city":"ｵﾀﾙｼ","kana_address":"ｱｶｲﾜ","pref":"北海道","city":"小樽市","address":"赤岩"},
{"zip_code":"0470035","kana_pref":"ﾎｯｶｲﾄﾞｳ","kana_city":"ｵﾀﾙｼ","kana_address":"ｱｻﾋﾏﾁ","pref":"北海道","city":"小樽市","address":"旭町"},
{"zip_code":"0470151","kana_pref":"ﾎｯｶｲﾄﾞｳ","kana_city":"ｵﾀﾙｼ","kana_address":"ｱｻﾘ","pref":"北海道","city":"小樽市","address":"朝里"},
{"zip_code":"0470154","kana_pref":"ﾎｯｶｲﾄﾞｳ","kana_city":"ｵﾀﾙｼ","kana_address":"ｱｻﾘｶﾞﾜｵﾝｾﾝ","pref":"北海道","city":"小樽市","address":"朝里川温泉"},
{"zip_code":"0470006","kana_pref":"ﾎｯｶｲﾄﾞｳ","kana_city":"ｵﾀﾙｼ","kana_address":"ｱﾘﾎﾛﾁｮｳ","pref":"北海道","city":"小樽市","address":"有幌町"},
{"zip_code":"0470038","kana_pref":"ﾎｯｶｲﾄﾞｳ","kana_city":"ｵﾀﾙｼ","kana_address":"ｲｼﾔﾏﾁｮｳ","pref":"北海道","city":"小樽市","address":"石山町"},
{"zip_code":"0470032","kana_pref":"ﾎｯｶｲﾄﾞｳ","kana_city":"ｵﾀﾙｼ","kana_address":"ｲﾅﾎ","pref":"北海道","city":"小樽市","address":"稲穂"},
{"zip_code":"0470021","kana_pref":"ﾎｯｶｲﾄﾞｳ","kana_city":"ｵﾀﾙｼ","kana_address":"ｲﾘﾌﾈ","pref":"北海道","city":"小樽市","address":"入船"},
{"zip_code":"0470031","kana_pref":"ﾎｯｶｲﾄﾞｳ","kana_city":"ｵﾀﾙｼ","kana_address":"ｲﾛﾅｲ","pref":"北海道","city":"小樽市","address":"色内"},
{"zip_code":"0470044","kana_pref":"ﾎｯｶｲﾄﾞｳ","kana_city":"ｵﾀﾙｼ","kana_address":"ｳﾒｶﾞｴﾁｮｳ","pref":"北海道","city":"小樽市","address":"梅ケ枝町"},
{"zip_code":"0470013","kana_pref":"ﾎｯｶｲﾄﾞｳ","kana_city":"ｵﾀﾙｼ","kana_address":"ｵｸｻﾜ","pref":"北海道","city":"小樽市","address":"奥沢"},
{"zip_code":"0470005","kana_pref":"ﾎｯｶｲﾄﾞｳ","kana_city":"ｵﾀﾙｼ","kana_address":"ｶﾂﾅｲﾁｮｳ","pref":"北海道","city":"小樽市","address":"勝納町"},
{"zip_code":"0470264","kana_pref":"ﾎｯｶｲﾄﾞｳ","kana_city":"ｵﾀﾙｼ","kana_address":"ｶﾂﾗｵｶﾁｮｳ","pref":"北海道","city":"小樽市","address":"桂岡町"},
{"zip_code":"0470037","kana_pref":"ﾎｯｶｲﾄﾞｳ","kana_city":"ｵﾀﾙｼ","kana_address":"ｻｲﾜｲ","pref":"北海道","city":"小樽市","address":"幸"},
{"zip_code":"0470027","kana_pref":"ﾎｯｶｲﾄﾞｳ","kana_city":"ｵﾀﾙｼ","kana_address":"ｻｶｲﾏﾁ","pref":"北海道","city":"小樽市","address":"堺町"},
{"zip_code":"0470156","kana_pref":"ﾎｯｶｲﾄﾞｳ","kana_city":"ｵﾀﾙｼ","kana_address":"ｻｸﾗ","pref":"北海道","city":"小樽市","address":"桜"},
{"zip_code":"0470002","kana_pref":"ﾎｯｶｲﾄﾞｳ","kana_city":"ｵﾀﾙｼ","kana_address":"ｼｵﾐﾀﾞｲ","pref":"北海道","city":"小樽市","address":"潮見台"},
{"zip_code":"0470026","kana_pref":"ﾎｯｶｲﾄﾞｳ","kana_city":"ｵﾀﾙｼ","kana_address":"ｼﾉﾉﾒﾁｮｳ","pref":"北海道","city":"小樽市","address":"東雲町"},
{"zip_code":"0470045","kana_pref":"ﾎｯｶｲﾄﾞｳ","kana_city":"ｵﾀﾙｼ","kana_address":"ｼﾐｽﾞﾁｮｳ","pref":"北海道","city":"小樽市","address":"清水町"},
{"zip_code":"0470047","kana_pref":"ﾎｯｶｲﾄﾞｳ","kana_city":"ｵﾀﾙｼ","kana_address":"ｼｭｸﾂ","pref":"北海道","city":"小樽市","address":"祝津"},
{"zip_code":"0470152","kana_pref":"ﾎｯｶｲﾄﾞｳ","kana_city":"ｵﾀﾙｼ","kana_address":"ｼﾝｺｳ","pref":"北海道","city":"小樽市","address":"新光"},
{"zip_code":"0470153","kana_pref":"ﾎｯｶｲﾄﾞｳ","kana_city":"ｵﾀﾙｼ","kana_address":"ｼﾝｺｳﾁｮｳ","pref":"北海道","city":"小樽市","address":"新光町"},
{"zip_code":"0470004","kana_pref":"ﾎｯｶｲﾄﾞｳ","kana_city":"ｵﾀﾙｼ","kana_address":"ｼﾝﾄﾐﾁｮｳ","pref":"北海道","city":"小樽市","address":"新富町"},
{"zip_code":"0470042","kana_pref":"ﾎｯｶｲﾄﾞｳ","kana_city":"ｵﾀﾙｼ","kana_address":"ｽｴﾋﾛﾁｮｳ","pref":"北海道","city":"小樽市","address":"末広町"},
{"zip_code":"0470014","kana_pref":"ﾎｯｶｲﾄﾞｳ","kana_city":"ｵﾀﾙｼ","kana_address":"ｽﾐﾉｴ","pref":"北海道","city":"小樽市","address":"住ノ江"},
{"zip_code":"0470015","kana_pref":"ﾎｯｶｲﾄﾞｳ","kana_city":"ｵﾀﾙｼ","kana_address":"ｽﾐﾖｼﾁｮｳ","pref":"北海道","city":"小樽市","address":"住吉町"},
{"zip_code":"0470261","kana_pref":"ﾎｯｶｲﾄﾞｳ","kana_city":"ｵﾀﾙｼ","kana_address":"ｾﾞﾆﾊﾞｺ","pref":"北海道","city":"小樽市","address":"銭函"},
{"zip_code":"0470048","kana_pref":"ﾎｯｶｲﾄﾞｳ","kana_city":"ｵﾀﾙｼ","kana_address":"ﾀｶｼﾏ","pref":"北海道","city":"小樽市","address":"高島"},
{"zip_code":"0470008","kana_pref":"ﾎｯｶｲﾄﾞｳ","kana_city":"ｵﾀﾙｼ","kana_address":"ﾁｯｺｳ","pref":"北海道","city":"小樽市","address":"築港"},
{"zip_code":"0470041","kana_pref":"ﾎｯｶｲﾄﾞｳ","kana_city":"ｵﾀﾙｼ","kana_address":"ﾃﾐﾔ","pref":"北海道","city":"小樽市","address":"手宮"},
{"zip_code":"0470012","kana_pref":"ﾎｯｶｲﾄﾞｳ","kana_city":"ｵﾀﾙｼ","kana_address":"ﾃﾝｸﾞﾔﾏ","pref":"北海道","city":"小樽市","address":"天狗山"},
{"zip_code":"0470011","kana_pref":"ﾎｯｶｲﾄﾞｳ","kana_city":"ｵﾀﾙｼ","kana_address":"ﾃﾝｼﾞﾝ","pref":"北海道","city":"小樽市","address":"天神"},
{"zip_code":"0470033","kana_pref":"ﾎｯｶｲﾄﾞｳ","kana_city":"ｵﾀﾙｼ","kana_address":"ﾄﾐｵｶ","pref":"北海道","city":"小樽市","address":"富岡"},
{"zip_code":"0470043","kana_pref":"ﾎｯｶｲﾄﾞｳ","kana_city":"ｵﾀﾙｼ","kana_address":"ﾄﾖｶﾜﾁｮｳ","pref":"北海道","city":"小樽市","address":"豊川町"},
{"zip_code":"0470036","kana_pref":"ﾎｯｶｲﾄﾞｳ","kana_city":"ｵﾀﾙｼ","kana_address":"ﾅｶﾞﾊｼ","pref":"北海道","city":"小樽市","address":"長橋"},
{"zip_code":"0470039","kana_pref":"ﾎｯｶｲﾄﾞｳ","kana_city":"ｵﾀﾙｼ","kana_address":"ﾆｼｷﾏﾁ","pref":"北海道","city":"小樽市","address":"錦町"},
{"zip_code":"0470016","kana_pref":"ﾎｯｶｲﾄﾞｳ","kana_city":"ｵﾀﾙｼ","kana_address":"ﾉﾌﾞｶﾁｮｳ","pref":"北海道","city":"小樽市","address":"信香町"},
{"zip_code":"0470024","kana_pref":"ﾎｯｶｲﾄﾞｳ","kana_city":"ｵﾀﾙｼ","kana_address":"ﾊﾅｿﾞﾉ","pref":"北海道","city":"小樽市","address":"花園"},
{"zip_code":"0470266","kana_pref":"ﾎｯｶｲﾄﾞｳ","kana_city":"ｵﾀﾙｼ","kana_address":"ﾊﾘｳｽﾁｮｳ","pref":"北海道","city":"小樽市","address":"張碓町"},
{"zip_code":"0470265","kana_pref":"ﾎｯｶｲﾄﾞｳ","kana_city":"ｵﾀﾙｼ","kana_address":"ﾊﾙｶﾁｮｳ","pref":"北海道","city":"小樽市","address":"春香町"},
{"zip_code":"0470157","kana_pref":"ﾎｯｶｲﾄﾞｳ","kana_city":"ｵﾀﾙｼ","kana_address":"ﾌﾅﾊﾏﾁｮｳ","pref":"北海道","city":"小樽市","address":"船浜町"},
{"zip_code":"0470155","kana_pref":"ﾎｯｶｲﾄﾞｳ","kana_city":"ｵﾀﾙｼ","kana_address":"ﾎﾞｳﾖｳﾀﾞｲ","pref":"北海道","city":"小樽市","address":"望洋台"},
{"zip_code":"0470262","kana_pref":"ﾎｯｶｲﾄﾞｳ","kana_city":"ｵﾀﾙｼ","kana_address":"ﾎｼﾉﾁｮｳ","pref":"北海道","city":"小樽市","address":"星野町"},
{"zip_code":"0470003","kana_pref":"ﾎｯｶｲﾄﾞｳ","kana_city":"ｵﾀﾙｼ","kana_address":"ﾏｻｶｴ","pref":"北海道","city":"小樽市","address":"真栄"},
{"zip_code":"0470022","kana_pref":"ﾎｯｶｲﾄﾞｳ","kana_city":"ｵﾀﾙｼ","kana_address":"ﾏﾂｶﾞｴ","pref":"北海道","city":"小樽市","address":"松ケ枝"},
{"zip_code":"0470034","kana_pref":"ﾎｯｶｲﾄﾞｳ","kana_city":"ｵﾀﾙｼ","kana_address":"ﾐﾄﾞﾘ","pref":"北海道","city":"小樽市","address":"緑"},
{"zip_code":"0470007","kana_pref":"ﾎｯｶｲﾄﾞｳ","kana_city":"ｵﾀﾙｼ","kana_address":"ﾐﾅﾄﾏﾁ","pref":"北海道","city":"小樽市","address":"港町"},
{"zip_code":"0470263","kana_pref":"ﾎｯｶｲﾄﾞｳ","kana_city":"ｵﾀﾙｼ","kana_address":"ﾐﾊﾗｼﾁｮｳ","pref":"北海道","city":"小樽市","address":"見晴町"},
{"zip_code":"0470023","kana_pref":"ﾎｯｶｲﾄﾞｳ","kana_city":"ｵﾀﾙｼ","kana_address":"ﾓｶﾞﾐ","pref":"北海道","city":"小樽市","address":"最上"},
{"zip_code":"0470025","kana_pref":"ﾎｯｶｲﾄﾞｳ","kana_city":"ｵﾀﾙｼ","kana_address":"ﾔﾏﾀﾞﾏﾁ","pref":"北海道","city":"小樽市","address":"山田町"},
{"zip_code":"0470001","kana_pref":"ﾎｯｶｲﾄﾞｳ","kana_city":"ｵﾀﾙｼ","kana_address":"ﾜｶﾀｹﾁｮｳ","pref":"北海道","city":"小樽市","address":"若竹町"},
{"zip_code":"0470017","kana_pref":"ﾎｯｶｲﾄﾞｳ","kana_city":"ｵﾀﾙｼ","kana_address":"ﾜｶﾏﾂ","pref":"北海道","city":"小樽市","address":"若松"}]}