{"zip_code":[
{"zip_code":"0482561","kana_pref":"ﾎｯｶｲﾄﾞｳ","kana_city":"ｵﾀﾙｼ","kana_address":"ｵｼｮﾛ","pref":"北海道","city":"小樽市","address":"忍路"},
{"zip_code":"0482671","kana_pref":"ﾎｯｶｲﾄﾞｳ","kana_city":"ｵﾀﾙｼ","kana_address":"ｵﾀﾓｲ","pref":"北海道","city":"小樽市","address":"オタモイ"},
{"zip_code":"0482672","kana_pref":"ﾎｯｶｲﾄﾞｳ","kana_city":"ｵﾀﾙｼ","kana_address":"ｼｵﾔ","pref":"北海道","city":"小樽市","address":"塩谷"},
{"zip_code":"0482673","kana_pref":"ﾎｯｶｲﾄﾞｳ","kana_city":"ｵﾀﾙｼ","kana_address":"ﾓﾓﾅｲ","pref":"北海道","city":"小樽市","address":"桃内"},
{"zip_code":"0482562","kana_pref":"ﾎｯｶｲﾄﾞｳ","kana_city":"ｵﾀﾙｼ","kana_address":"ﾗﾝｼﾏ","pref":"北海道","city":"小樽市","address":"蘭島"},
{"zip_code":"0480600","kana_pref":"ﾎｯｶｲﾄﾞｳ","kana_city":"ｼﾏﾏｷｸﾞﾝｼﾏﾏｷﾑﾗ","kana_address":"","pref":"北海道","city":"島牧郡島牧村","address":""},
{"zip_code":"0480602","kana_pref":"ﾎｯｶｲﾄﾞｳ","kana_city":"ｼﾏﾏｷｸﾞﾝｼﾏﾏｷﾑﾗ","kana_address":"ｳﾀｼﾏ","pref":"北海道","city":"島牧郡島牧村","address":"歌島"},
{"zip_code":"0480623","kana_pref":"ﾎｯｶｲﾄﾞｳ","kana_city":"ｼﾏﾏｷｸﾞﾝｼﾏﾏｷﾑﾗ","kana_address":"ｴﾉｼﾏ","pref":"北海道","city":"島牧郡島牧村","address":"江の島"},
{"zip_code":"0480613","kana_pref":"ﾎｯｶｲﾄﾞｳ","kana_city":"ｼﾏﾏｷｸﾞﾝｼﾏﾏｷﾑﾗ","kana_address":"ｵｵﾋﾞﾗ","pref":"北海道","city":"島牧郡島牧村","address":"大平"},
{"zip_code":"0480611","kana_pref":"ﾎｯｶｲﾄﾞｳ","kana_city":"ｼﾏﾏｷｸﾞﾝｼﾏﾏｷﾑﾗ","kana_address":"ｻｶｴｲｿ","pref":"北海道","city":"島牧郡島牧村","address":"栄磯"},
{"zip_code":"0480634","kana_pref":"ﾎｯｶｲﾄﾞｳ","kana_city":"ｼﾏﾏｷｸﾞﾝｼﾏﾏｷﾑﾗ","kana_address":"ｻｶｴﾊﾏ","pref":"北海道","city":"島牧郡島牧村","address":"栄浜"},
{"zip_code":"0480631","kana_pref":"ﾎｯｶｲﾄﾞｳ","kana_city":"ｼﾏﾏｷｸﾞﾝｼﾏﾏｷﾑﾗ","kana_address":"ﾁﾜｾ","pref":"北海道","city":"島牧郡島牧村","address":"千走"},
{"zip_code":"0480621","kana_pref":"ﾎｯｶｲﾄﾞｳ","kana_city":"ｼﾏﾏｷｸﾞﾝｼﾏﾏｷﾑﾗ","kana_address":"ﾄﾏﾘ","pref":"北海道","city":"島牧郡島牧村","address":"泊"},
{"zip_code":"0480601","kana_pref":"ﾎｯｶｲﾄﾞｳ","kana_city":"ｼﾏﾏｷｸﾞﾝｼﾏﾏｷﾑﾗ","kana_address":"ﾄﾐｳﾗ","pref":"北海道","city":"島牧郡島牧村","address":"富浦"},
{"zip_code":"0480612","kana_pref":"ﾎｯｶｲﾄﾞｳ","kana_city":"ｼﾏﾏｷｸﾞﾝｼﾏﾏｷﾑﾗ","kana_address":"ﾄﾖﾊﾏ","pref":"北海道","city":"島牧郡島牧村","address":"豊浜"},
{"zip_code":"0480622","kana_pref":"ﾎｯｶｲﾄﾞｳ","kana_city":"ｼﾏﾏｷｸﾞﾝｼﾏﾏｷﾑﾗ","kana_address":"ﾄﾖﾋﾗ","pref":"北海道","city":"島牧郡島牧村","address":"豊平"},
{"zip_code":"0480614","kana_pref":"ﾎｯｶｲﾄﾞｳ","kana_city":"ｼﾏﾏｷｸﾞﾝｼﾏﾏｷﾑﾗ","kana_address":"ﾅｶﾞﾄﾖﾏﾁ","pref":"北海道","city":"島牧郡島牧村","address":"永豊町"},
{"zip_code":"0480633","kana_pref":"ﾎｯｶｲﾄﾞｳ","kana_city":"ｼﾏﾏｷｸﾞﾝｼﾏﾏｷﾑﾗ","kana_address":"ﾊﾗｳﾀﾏﾁ","pref":"北海道","city":"島牧郡島牧村","address":"原歌町"},
{"zip_code":"0480603","kana_pref":"ﾎｯｶｲﾄﾞｳ","kana_city":"ｼﾏﾏｷｸﾞﾝｼﾏﾏｷﾑﾗ","kana_address":"ﾎﾝﾒ","pref":"北海道","city":"島牧郡島牧村","address":"本目"},
{"zip_code":"0480604","kana_pref":"ﾎｯｶｲﾄﾞｳ","kana_city":"ｼﾏﾏｷｸﾞﾝｼﾏﾏｷﾑﾗ","kana_address":"ﾐﾅﾄ","pref":"北海道","city":"島牧郡島牧村","address":"港"},
{"zip_code":"0480632","kana_pref":"ﾎｯｶｲﾄﾞｳ","kana_city":"ｼﾏﾏｷｸﾞﾝｼﾏﾏｷﾑﾗ","kana_address":"ﾓﾄﾏﾁ","pref":"北海道","city":"島牧郡島牧村","address":"元町"},
{"zip_code":"0480400","kana_pref":"ﾎｯｶｲﾄﾞｳ","kana_city":"ｽｯﾂｸﾞﾝｽｯﾂﾁｮｳ","kana_address":"","pref":"北海道","city":"寿都郡寿都町","address":""},
{"zip_code":"0480351","kana_pref":"ﾎｯｶｲﾄﾞｳ","kana_city":"ｽｯﾂｸﾞﾝｽｯﾂﾁｮｳ","kana_address":"ｲｿﾔﾁｮｳ","pref":"北海道","city":"寿都郡寿都町","address":"磯谷町"},
{"zip_code":"0480412","kana_pref":"ﾎｯｶｲﾄﾞｳ","kana_city":"ｽｯﾂｸﾞﾝｽｯﾂﾁｮｳ","kana_address":"ｲﾜｻｷﾁｮｳ","pref":"北海道","city":"寿都郡寿都町","address":"岩崎町"},
{"zip_code":"0480415","kana_pref":"ﾎｯｶｲﾄﾞｳ","kana_city":"ｽｯﾂｸﾞﾝｽｯﾂﾁｮｳ","kana_address":"ｳﾀｽﾂﾁｮｳ","pref":"北海道","city":"寿都郡寿都町","address":"歌棄町"},
{"zip_code":"0480404","kana_pref":"ﾎｯｶｲﾄﾞｳ","kana_city":"ｽｯﾂｸﾞﾝｽｯﾂﾁｮｳ","kana_address":"ｵｵｲｿﾁｮｳ","pref":"北海道","city":"寿都郡寿都町","address":"大磯町"},
{"zip_code":"0480405","kana_pref":"ﾎｯｶｲﾄﾞｳ","kana_city":"ｽｯﾂｸﾞﾝｽｯﾂﾁｮｳ","kana_address":"ｶｲｼﾝﾁｮｳ","pref":"北海道","city":"寿都郡寿都町","address":"開進町"},
{"zip_code":"0480401","kana_pref":"ﾎｯｶｲﾄﾞｳ","kana_city":"ｽｯﾂｸﾞﾝｽｯﾂﾁｮｳ","kana_address":"ｼﾝｴｲﾁｮｳ","pref":"北海道","city":"寿都郡寿都町","address":"新栄町"},
{"zip_code":"0480413","kana_pref":"ﾎｯｶｲﾄﾞｳ","kana_city":"ｽｯﾂｸﾞﾝｽｯﾂﾁｮｳ","kana_address":"ﾀﾙｷｼﾁｮｳ","pref":"北海道","city":"寿都郡寿都町","address":"樽岸町"},
{"zip_code":"0480406","kana_pref":"ﾎｯｶｲﾄﾞｳ","kana_city":"ｽｯﾂｸﾞﾝｽｯﾂﾁｮｳ","kana_address":"ﾄｼﾏﾁｮｳ","pref":"北海道","city":"寿都郡寿都町","address":"渡島町"},
{"zip_code":"0480403","kana_pref":"ﾎｯｶｲﾄﾞｳ","kana_city":"ｽｯﾂｸﾞﾝｽｯﾂﾁｮｳ","kana_address":"ﾏｻﾄﾞﾏﾘﾁｮｳ","pref":"北海道","city":"寿都郡寿都町","address":"政泊町"},
{"zip_code":"0480402","kana_pref":"ﾎｯｶｲﾄﾞｳ","kana_city":"ｽｯﾂｸﾞﾝｽｯﾂﾁｮｳ","kana_address":"ﾔｵｲﾁｮｳ","pref":"北海道","city":"寿都郡寿都町","address":"矢追町"},
{"zip_code":"0480414","kana_pref":"ﾎｯｶｲﾄﾞｳ","kana_city":"ｽｯﾂｸﾞﾝｽｯﾂﾁｮｳ","kana_address":"ﾕﾍﾞﾂﾁｮｳ","pref":"北海道","city":"寿都郡寿都町","address":"湯別町"},
{"zip_code":"0480411","kana_pref":"ﾎｯｶｲﾄﾞｳ","kana_city":"ｽｯﾂｸﾞﾝｽｯﾂﾁｮｳ","kana_address":"ﾛｸｼﾞｮｳﾁｮｳ","pref":"北海道","city":"寿都郡寿都町","address":"六条町"},
{"zip_code":"0480100","kana_pref":"ﾎｯｶｲﾄﾞｳ","kana_city":"ｽｯﾂｸﾞﾝｸﾛﾏﾂﾅｲﾁｮｳ","kana_address":"","pref":"北海道","city":"寿都郡黒松内町","address":""},
{"zip_code":"0480136","kana_pref":"ﾎｯｶｲﾄﾞｳ","kana_city":"ｽｯﾂｸﾞﾝｸﾛﾏﾂﾅｲﾁｮｳ","kana_address":"ｱｶｲｶﾜ","pref":"北海道","city":"寿都郡黒松内町","address":"赤井川"},
{"zip_code":"0480116","kana_pref":"ﾎｯｶｲﾄﾞｳ","kana_city":"ｽｯﾂｸﾞﾝｸﾛﾏﾂﾅｲﾁｮｳ","kana_address":"ｱｻﾋﾉ","pref":"北海道","city":"寿都郡黒松内町","address":"旭野"},
{"zip_code":"0480124","kana_pref":"ﾎｯｶｲﾄﾞｳ","kana_city":"ｽｯﾂｸﾞﾝｸﾛﾏﾂﾅｲﾁｮｳ","kana_address":"ｲｶﾞﾗｼ","pref":"北海道","city":"寿都郡黒松内町","address":"五十嵐"},
{"zip_code":"0480114","kana_pref":"ﾎｯｶｲﾄﾞｳ","kana_city":"ｽｯﾂｸﾞﾝｸﾛﾏﾂﾅｲﾁｮｳ","kana_address":"ｳﾀｻｲ","pref":"北海道","city":"寿都郡黒松内町","address":"歌才"},
{"zip_code":"0480133","kana_pref":"ﾎｯｶｲﾄﾞｳ","kana_city":"ｽｯﾂｸﾞﾝｸﾛﾏﾂﾅｲﾁｮｳ","kana_address":"ｵｵﾔﾁ","pref":"北海道","city":"寿都郡黒松内町","address":"大谷地"},
{"zip_code":"0480112","kana_pref":"ﾎｯｶｲﾄﾞｳ","kana_city":"ｽｯﾂｸﾞﾝｸﾛﾏﾂﾅｲﾁｮｳ","kana_address":"ｶｲｶﾗ","pref":"北海道","city":"寿都郡黒松内町","address":"貝殻"},
{"zip_code":"0480135","kana_pref":"ﾎｯｶｲﾄﾞｳ","kana_city":"ｽｯﾂｸﾞﾝｸﾛﾏﾂﾅｲﾁｮｳ","kana_address":"ｶｸｼﾞｭｳ","pref":"北海道","city":"寿都郡黒松内町","address":"角十"},
{"zip_code":"0480145","kana_pref":"ﾎｯｶｲﾄﾞｳ","kana_city":"ｽｯﾂｸﾞﾝｸﾛﾏﾂﾅｲﾁｮｳ","kana_address":"ｶﾐﾀｲｾｲ","pref":"北海道","city":"寿都郡黒松内町","address":"上大成"},
{"zip_code":"0480141","kana_pref":"ﾎｯｶｲﾄﾞｳ","kana_city":"ｽｯﾂｸﾞﾝｸﾛﾏﾂﾅｲﾁｮｳ","kana_address":"ｶﾐﾄﾖﾎﾛ","pref":"北海道","city":"寿都郡黒松内町","address":"上豊幌"},
{"zip_code":"0480126","kana_pref":"ﾎｯｶｲﾄﾞｳ","kana_city":"ｽｯﾂｸﾞﾝｸﾛﾏﾂﾅｲﾁｮｳ","kana_address":"ｷﾀｻｯｶｲ","pref":"北海道","city":"寿都郡黒松内町","address":"北作開"},
{"zip_code":"0480101","kana_pref":"ﾎｯｶｲﾄﾞｳ","kana_city":"ｽｯﾂｸﾞﾝｸﾛﾏﾂﾅｲﾁｮｳ","kana_address":"ｸﾛﾏﾂﾅｲ","pref":"北海道","city":"寿都郡黒松内町","address":"黒松内"},
{"zip_code":"0480134","kana_pref":"ﾎｯｶｲﾄﾞｳ","kana_city":"ｽｯﾂｸﾞﾝｸﾛﾏﾂﾅｲﾁｮｳ","kana_address":"ｼﾛｲｶﾜ","pref":"北海道","city":"寿都郡黒松内町","address":"白井川"},
{"zip_code":"0480122","kana_pref":"ﾎｯｶｲﾄﾞｳ","kana_city":"ｽｯﾂｸﾞﾝｸﾛﾏﾂﾅｲﾁｮｳ","kana_address":"ｼﾛｽﾞﾐ","pref":"北海道","city":"寿都郡黒松内町","address":"白炭"},
{"zip_code":"0480117","kana_pref":"ﾎｯｶｲﾄﾞｳ","kana_city":"ｽｯﾂｸﾞﾝｸﾛﾏﾂﾅｲﾁｮｳ","kana_address":"ｿｲﾍﾞﾂ","pref":"北海道","city":"寿都郡黒松内町","address":"添別"},
{"zip_code":"0480143","kana_pref":"ﾎｯｶｲﾄﾞｳ","kana_city":"ｽｯﾂｸﾞﾝｸﾛﾏﾂﾅｲﾁｮｳ","kana_address":"ﾀｲｾｲ","pref":"北海道","city":"寿都郡黒松内町","address":"大成"},
{"zip_code":"0480132","kana_pref":"ﾎｯｶｲﾄﾞｳ","kana_city":"ｽｯﾂｸﾞﾝｸﾛﾏﾂﾅｲﾁｮｳ","kana_address":"ﾁｮﾎﾟｼﾅｲ","pref":"北海道","city":"寿都郡黒松内町","address":"チョポシナイ"},
{"zip_code":"0480142","kana_pref":"ﾎｯｶｲﾄﾞｳ","kana_city":"ｽｯﾂｸﾞﾝｸﾛﾏﾂﾅｲﾁｮｳ","kana_address":"ﾄｳｴｲ","pref":"北海道","city":"寿都郡黒松内町","address":"東栄"},
{"zip_code":"0480113","kana_pref":"ﾎｯｶｲﾄﾞｳ","kana_city":"ｽｯﾂｸﾞﾝｸﾛﾏﾂﾅｲﾁｮｳ","kana_address":"ﾄﾖﾎﾛ","pref":"北海道","city":"寿都郡黒松内町","address":"豊幌"},
{"zip_code":"0480111","kana_pref":"ﾎｯｶｲﾄﾞｳ","kana_city":"ｽｯﾂｸﾞﾝｸﾛﾏﾂﾅｲﾁｮｳ","kana_address":"ﾅｶｻﾄ","pref":"北海道","city":"寿都郡黒松内町","address":"中里"},
{"zip_code":"0480123","kana_pref":"ﾎｯｶｲﾄﾞｳ","kana_city":"ｽｯﾂｸﾞﾝｸﾛﾏﾂﾅｲﾁｮｳ","kana_address":"ﾅｶﾉｶﾜ","pref":"北海道","city":"寿都郡黒松内町","address":"中ノ川"},
{"zip_code":"0480131","kana_pref":"ﾎｯｶｲﾄﾞｳ","kana_city":"ｽｯﾂｸﾞﾝｸﾛﾏﾂﾅｲﾁｮｳ","kana_address":"ﾆｼﾈｯﾌﾟｹﾞﾝﾔ","pref":"北海道","city":"寿都郡黒松内町","address":"西熱郛原野"},
{"zip_code":"0480115","kana_pref":"ﾎｯｶｲﾄﾞｳ","kana_city":"ｽｯﾂｸﾞﾝｸﾛﾏﾂﾅｲﾁｮｳ","kana_address":"ﾆｼﾉｻﾜ","pref":"北海道","city":"寿都郡黒松内町","address":"西沢"},
{"zip_code":"0480121","kana_pref":"ﾎｯｶｲﾄﾞｳ","kana_city":"ｽｯﾂｸﾞﾝｸﾛﾏﾂﾅｲﾁｮｳ","kana_address":"ﾈｯﾌﾟ","pref":"北海道","city":"寿都郡黒松内町","address":"熱郛"},
{"zip_code":"0480137","kana_pref":"ﾎｯｶｲﾄﾞｳ","kana_city":"ｽｯﾂｸﾞﾝｸﾛﾏﾂﾅｲﾁｮｳ","kana_address":"ﾊﾞﾊﾞｻﾜ","pref":"北海道","city":"寿都郡黒松内町","address":"婆沢"},
{"zip_code":"0480144","kana_pref":"ﾎｯｶｲﾄﾞｳ","kana_city":"ｽｯﾂｸﾞﾝｸﾛﾏﾂﾅｲﾁｮｳ","kana_address":"ﾋｶﾞｼｶﾜ","pref":"北海道","city":"寿都郡黒松内町","address":"東川"},
{"zip_code":"0480127","kana_pref":"ﾎｯｶｲﾄﾞｳ","kana_city":"ｽｯﾂｸﾞﾝｸﾛﾏﾂﾅｲﾁｮｳ","kana_address":"ﾐﾅﾐｻｯｶｲ","pref":"北海道","city":"寿都郡黒松内町","address":"南作開"},
{"zip_code":"0480125","kana_pref":"ﾎｯｶｲﾄﾞｳ","kana_city":"ｽｯﾂｸﾞﾝｸﾛﾏﾂﾅｲﾁｮｳ","kana_address":"ﾒﾅ","pref":"北海道","city":"寿都郡黒松内町","address":"目名"},
{"zip_code":"0481300","kana_pref":"ﾎｯｶｲﾄﾞｳ","kana_city":"ｲｿﾔｸﾞﾝﾗﾝｺｼﾁｮｳ","kana_address":"","pref":"北海道","city":"磯谷郡蘭越町","address":""},
{"zip_code":"0481251","kana_pref":"ﾎｯｶｲﾄﾞｳ","kana_city":"ｲｿﾔｸﾞﾝﾗﾝｺｼﾁｮｳ","kana_address":"ｱｲｵｲ","pref":"北海道","city":"磯谷郡蘭越町","address":"相生"},
{"zip_code":"0481265","kana_pref":"ﾎｯｶｲﾄﾞｳ","kana_city":"ｲｿﾔｸﾞﾝﾗﾝｺｼﾁｮｳ","kana_address":"ｱﾕｶﾜ","pref":"北海道","city":"磯谷郡蘭越町","address":"鮎川"},
{"zip_code":"0481305","kana_pref":"ﾎｯｶｲﾄﾞｳ","kana_city":"ｲｿﾔｸﾞﾝﾗﾝｺｼﾁｮｳ","kana_address":"ｵｵﾀﾆ","pref":"北海道","city":"磯谷郡蘭越町","address":"大谷"},
{"zip_code":"0481316","kana_pref":"ﾎｯｶｲﾄﾞｳ","kana_city":"ｲｿﾔｸﾞﾝﾗﾝｺｼﾁｮｳ","kana_address":"ｵｵﾏｶﾞﾘ","pref":"北海道","city":"磯谷郡蘭越町","address":"大曲"},
{"zip_code":"0481314","kana_pref":"ﾎｯｶｲﾄﾞｳ","kana_city":"ｲｿﾔｸﾞﾝﾗﾝｺｼﾁｮｳ","kana_address":"ｵﾅﾘ","pref":"北海道","city":"磯谷郡蘭越町","address":"御成"},
{"zip_code":"0481262","kana_pref":"ﾎｯｶｲﾄﾞｳ","kana_city":"ｲｿﾔｸﾞﾝﾗﾝｺｼﾁｮｳ","kana_address":"ｶｲｶﾜ","pref":"北海道","city":"磯谷郡蘭越町","address":"貝川"},
{"zip_code":"0481313","kana_pref":"ﾎｯｶｲﾄﾞｳ","kana_city":"ｲｿﾔｸﾞﾝﾗﾝｺｼﾁｮｳ","kana_address":"ｶﾐｻﾄ","pref":"北海道","city":"磯谷郡蘭越町","address":"上里"},
{"zip_code":"0481254","kana_pref":"ﾎｯｶｲﾄﾞｳ","kana_city":"ｲｿﾔｸﾞﾝﾗﾝｺｼﾁｮｳ","kana_address":"ｶﾐﾒﾅ","pref":"北海道","city":"磯谷郡蘭越町","address":"上目名"},
{"zip_code":"0481315","kana_pref":"ﾎｯｶｲﾄﾞｳ","kana_city":"ｲｿﾔｸﾞﾝﾗﾝｺｼﾁｮｳ","kana_address":"ｷｮｳｴｲ","pref":"北海道","city":"磯谷郡蘭越町","address":"共栄"},
{"zip_code":"0481323","kana_pref":"ﾎｯｶｲﾄﾞｳ","kana_city":"ｲｿﾔｸﾞﾝﾗﾝｺｼﾁｮｳ","kana_address":"ｺｶﾞﾈ","pref":"北海道","city":"磯谷郡蘭越町","address":"黄金"},
{"zip_code":"0481321","kana_pref":"ﾎｯｶｲﾄﾞｳ","kana_city":"ｲｿﾔｸﾞﾝﾗﾝｺｼﾁｮｳ","kana_address":"ｺﾝﾌﾞｵﾝｾﾝ","pref":"北海道","city":"磯谷郡蘭越町","address":"昆布温泉"},
{"zip_code":"0481302","kana_pref":"ﾎｯｶｲﾄﾞｳ","kana_city":"ｲｿﾔｸﾞﾝﾗﾝｺｼﾁｮｳ","kana_address":"ｺﾝﾌﾞﾏﾁ","pref":"北海道","city":"磯谷郡蘭越町","address":"昆布町"},
{"zip_code":"0481325","kana_pref":"ﾎｯｶｲﾄﾞｳ","kana_city":"ｲｿﾔｸﾞﾝﾗﾝｺｼﾁｮｳ","kana_address":"ｻｶｴ","pref":"北海道","city":"磯谷郡蘭越町","address":"栄"},
{"zip_code":"0481252","kana_pref":"ﾎｯｶｲﾄﾞｳ","kana_city":"ｲｿﾔｸﾞﾝﾗﾝｺｼﾁｮｳ","kana_address":"ｻﾇｷ","pref":"北海道","city":"磯谷郡蘭越町","address":"讃岐"},
{"zip_code":"0481264","kana_pref":"ﾎｯｶｲﾄﾞｳ","kana_city":"ｲｿﾔｸﾞﾝﾗﾝｺｼﾁｮｳ","kana_address":"ｼﾐｽﾞ","pref":"北海道","city":"磯谷郡蘭越町","address":"清水"},
{"zip_code":"0481253","kana_pref":"ﾎｯｶｲﾄﾞｳ","kana_city":"ｲｿﾔｸﾞﾝﾗﾝｺｼﾁｮｳ","kana_address":"ﾀｼﾓ","pref":"北海道","city":"磯谷郡蘭越町","address":"田下"},
{"zip_code":"0481303","kana_pref":"ﾎｯｶｲﾄﾞｳ","kana_city":"ｲｿﾔｸﾞﾝﾗﾝｺｼﾁｮｳ","kana_address":"ﾀﾁｶﾜ","pref":"北海道","city":"磯谷郡蘭越町","address":"立川"},
{"zip_code":"0481326","kana_pref":"ﾎｯｶｲﾄﾞｳ","kana_city":"ｲｿﾔｸﾞﾝﾗﾝｺｼﾁｮｳ","kana_address":"ﾄﾐｵｶ","pref":"北海道","city":"磯谷郡蘭越町","address":"富岡"},
{"zip_code":"0481324","kana_pref":"ﾎｯｶｲﾄﾞｳ","kana_city":"ｲｿﾔｸﾞﾝﾗﾝｺｼﾁｮｳ","kana_address":"ﾄﾖｸﾆ","pref":"北海道","city":"磯谷郡蘭越町","address":"豊国"},
{"zip_code":"0481307","kana_pref":"ﾎｯｶｲﾄﾞｳ","kana_city":"ｲｿﾔｸﾞﾝﾗﾝｺｼﾁｮｳ","kana_address":"ﾄﾝｶﾗ","pref":"北海道","city":"磯谷郡蘭越町","address":"トンカラ"},
{"zip_code":"0481307","kana_pref":"ﾎｯｶｲﾄﾞｳ","kana_city":"ｲｿﾔｸﾞﾝﾗﾝｺｼﾁｮｳ","kana_address":"ﾅｺﾏﾏﾁ","pref":"北海道","city":"磯谷郡蘭越町","address":"名駒町"},
{"zip_code":"0481327","kana_pref":"ﾎｯｶｲﾄﾞｳ","kana_city":"ｲｿﾔｸﾞﾝﾗﾝｺｼﾁｮｳ","kana_address":"ﾆｲﾐ","pref":"北海道","city":"磯谷郡蘭越町","address":"新見"},
{"zip_code":"0481316","kana_pref":"ﾎｯｶｲﾄﾞｳ","kana_city":"ｲｿﾔｸﾞﾝﾗﾝｺｼﾁｮｳ","kana_address":"ﾊﾂﾀ","pref":"北海道","city":"磯谷郡蘭越町","address":"初田"},
{"zip_code":"0481322","kana_pref":"ﾎｯｶｲﾄﾞｳ","kana_city":"ｲｿﾔｸﾞﾝﾗﾝｺｼﾁｮｳ","kana_address":"ﾋﾉﾃﾞ","pref":"北海道","city":"磯谷郡蘭越町","address":"日出"},
{"zip_code":"0481312","kana_pref":"ﾎｯｶｲﾄﾞｳ","kana_city":"ｲｿﾔｸﾞﾝﾗﾝｺｼﾁｮｳ","kana_address":"ﾋﾔﾐｽﾞ","pref":"北海道","city":"磯谷郡蘭越町","address":"冷水"},
{"zip_code":"0481263","kana_pref":"ﾎｯｶｲﾄﾞｳ","kana_city":"ｲｿﾔｸﾞﾝﾗﾝｺｼﾁｮｳ","kana_address":"ﾐｶｻ","pref":"北海道","city":"磯谷郡蘭越町","address":"三笠"},
{"zip_code":"0481304","kana_pref":"ﾎｯｶｲﾄﾞｳ","kana_city":"ｲｿﾔｸﾞﾝﾗﾝｺｼﾁｮｳ","kana_address":"ﾐｽﾞｶﾐ","pref":"北海道","city":"磯谷郡蘭越町","address":"水上"},
{"zip_code":"0481312","kana_pref":"ﾎｯｶｲﾄﾞｳ","kana_city":"ｲｿﾔｸﾞﾝﾗﾝｺｼﾁｮｳ","kana_address":"ﾐﾂﾜ","pref":"北海道","city":"磯谷郡蘭越町","address":"三和"},
{"zip_code":"0481341","kana_pref":"ﾎｯｶｲﾄﾞｳ","kana_city":"ｲｿﾔｸﾞﾝﾗﾝｺｼﾁｮｳ","kana_address":"ﾐﾅﾄﾏﾁ","pref":"北海道","city":"磯谷郡蘭越町","address":"港町"},
{"zip_code":"0481261","kana_pref":"ﾎｯｶｲﾄﾞｳ","kana_city":"ｲｿﾔｸﾞﾝﾗﾝｺｼﾁｮｳ","kana_address":"ﾒﾅﾏﾁ","pref":"北海道","city":"磯谷郡蘭越町","address":"目名町"},
{"zip_code":"0481321","kana_pref":"ﾎｯｶｲﾄﾞｳ","kana_city":"ｲｿﾔｸﾞﾝﾗﾝｺｼﾁｮｳ","kana_address":"ﾕﾉｻﾄ","pref":"北海道","city":"磯谷郡蘭越町","address":"湯里"},
{"zip_code":"0481311","kana_pref":"ﾎｯｶｲﾄﾞｳ","kana_city":"ｲｿﾔｸﾞﾝﾗﾝｺｼﾁｮｳ","kana_address":"ﾖｼｸﾆ","pref":"北海道","city":"磯谷郡蘭越町","address":"吉国"},
{"zip_code":"0481306","kana_pref":"ﾎｯｶｲﾄﾞｳ","kana_city":"ｲｿﾔｸﾞﾝﾗﾝｺｼﾁｮｳ","kana_address":"ﾖﾄﾞｶﾞﾜ","pref":"北海道","city":"磯谷郡蘭越町","address":"淀川"},
{"zip_code":"0481301","kana_pref":"ﾎｯｶｲﾄﾞｳ","kana_city":"ｲｿﾔｸﾞﾝﾗﾝｺｼﾁｮｳ","kana_address":"ﾗﾝｺｼﾏﾁ","pref":"北海道","city":"磯谷郡蘭越町","address":"蘭越町"},
{"zip_code":"0481500","kana_pref":"ﾎｯｶｲﾄﾞｳ","kana_city":"ｱﾌﾞﾀｸﾞﾝﾆｾｺﾁｮｳ","kana_address":"","pref":"北海道","city":"虻田郡ニセコ町","address":""},
{"zip_code":"0481531","kana_pref":"ﾎｯｶｲﾄﾞｳ","kana_city":"ｱﾌﾞﾀｸﾞﾝﾆｾｺﾁｮｳ","kana_address":"ｱﾘｼﾏ","pref":"北海道","city":"虻田郡ニセコ町","address":"有島"},
{"zip_code":"0481562","kana_pref":"ﾎｯｶｲﾄﾞｳ","kana_city":"ｱﾌﾞﾀｸﾞﾝﾆｾｺﾁｮｳ","kana_address":"ｶﾂﾗﾀﾞｲ","pref":"北海道","city":"虻田郡ニセコ町","address":"桂台"},
{"zip_code":"0481553","kana_pref":"ﾎｯｶｲﾄﾞｳ","kana_city":"ｱﾌﾞﾀｸﾞﾝﾆｾｺﾁｮｳ","kana_address":"ｸﾛｶﾜ","pref":"北海道","city":"虻田郡ニセコ町","address":"黒川"},
{"zip_code":"0481542","kana_pref":"ﾎｯｶｲﾄﾞｳ","kana_city":"ｱﾌﾞﾀｸﾞﾝﾆｾｺﾁｮｳ","kana_address":"ｺﾝﾄﾞｳ","pref":"北海道","city":"虻田郡ニセコ町","address":"近藤"},
{"zip_code":"0481551","kana_pref":"ﾎｯｶｲﾄﾞｳ","kana_city":"ｱﾌﾞﾀｸﾞﾝﾆｾｺﾁｮｳ","kana_address":"ｻﾄﾐ","pref":"北海道","city":"虻田郡ニセコ町","address":"里見"},
{"zip_code":"0481522","kana_pref":"ﾎｯｶｲﾄﾞｳ","kana_city":"ｱﾌﾞﾀｸﾞﾝﾆｾｺﾁｮｳ","kana_address":"ｿｶﾞ","pref":"北海道","city":"虻田郡ニセコ町","address":"曽我"},
{"zip_code":"0481512","kana_pref":"ﾎｯｶｲﾄﾞｳ","kana_city":"ｱﾌﾞﾀｸﾞﾝﾆｾｺﾁｮｳ","kana_address":"ﾁｭｳｵｳﾄﾞｵﾘ","pref":"北海道","city":"虻田郡ニセコ町","address":"中央通"},
{"zip_code":"0481554","kana_pref":"ﾎｯｶｲﾄﾞｳ","kana_city":"ｱﾌﾞﾀｸﾞﾝﾆｾｺﾁｮｳ","kana_address":"ﾄﾐｶﾜ","pref":"北海道","city":"虻田郡ニセコ町","address":"富川"},
{"zip_code":"0481543","kana_pref":"ﾎｯｶｲﾄﾞｳ","kana_city":"ｱﾌﾞﾀｸﾞﾝﾆｾｺﾁｮｳ","kana_address":"ﾄﾖｻﾄ","pref":"北海道","city":"虻田郡ニセコ町","address":"豊里"},
{"zip_code":"0481563","kana_pref":"ﾎｯｶｲﾄﾞｳ","kana_city":"ｱﾌﾞﾀｸﾞﾝﾆｾｺﾁｮｳ","kana_address":"ﾆｼﾄﾐ","pref":"北海道","city":"虻田郡ニセコ町","address":"西富"},
{"zip_code":"0481511","kana_pref":"ﾎｯｶｲﾄﾞｳ","kana_city":"ｱﾌﾞﾀｸﾞﾝﾆｾｺﾁｮｳ","kana_address":"ﾆｾｺ","pref":"北海道","city":"虻田郡ニセコ町","address":"ニセコ"},
{"zip_code":"0481521","kana_pref":"ﾎｯｶｲﾄﾞｳ","kana_city":"ｱﾌﾞﾀｸﾞﾝﾆｾｺﾁｮｳ","kana_address":"ﾋｶﾞｼﾔﾏ","pref":"北海道","city":"虻田郡ニセコ町","address":"東山"},
{"zip_code":"0481561","kana_pref":"ﾎｯｶｲﾄﾞｳ","kana_city":"ｱﾌﾞﾀｸﾞﾝﾆｾｺﾁｮｳ","kana_address":"ﾌｸｲ","pref":"北海道","city":"虻田郡ニセコ町","address":"福井"},
{"zip_code":"0481501","kana_pref":"ﾎｯｶｲﾄﾞｳ","kana_city":"ｱﾌﾞﾀｸﾞﾝﾆｾｺﾁｮｳ","kana_address":"ﾌｼﾞﾐ","pref":"北海道","city":"虻田郡ニセコ町","address":"富士見"},
{"zip_code":"0481502","kana_pref":"ﾎｯｶｲﾄﾞｳ","kana_city":"ｱﾌﾞﾀｸﾞﾝﾆｾｺﾁｮｳ","kana_address":"ﾎﾝﾄﾞｵﾘ","pref":"北海道","city":"虻田郡ニセコ町","address":"本通"},
{"zip_code":"0481552","kana_pref":"ﾎｯｶｲﾄﾞｳ","kana_city":"ｱﾌﾞﾀｸﾞﾝﾆｾｺﾁｮｳ","kana_address":"ﾐﾔﾀ","pref":"北海道","city":"虻田郡ニセコ町","address":"宮田"},
{"zip_code":"0481544","kana_pref":"ﾎｯｶｲﾄﾞｳ","kana_city":"ｱﾌﾞﾀｸﾞﾝﾆｾｺﾁｮｳ","kana_address":"ﾓﾄﾏﾁ","pref":"北海道","city":"虻田郡ニセコ町","address":"元町"},
{"zip_code":"0481541","kana_pref":"ﾎｯｶｲﾄﾞｳ","kana_city":"ｱﾌﾞﾀｸﾞﾝﾆｾｺﾁｮｳ","kana_address":"ﾖｳﾃｲ","pref":"北海道","city":"虻田郡ニセコ町","address":"羊蹄"},
{"zip_code":"0481600","kana_pref":"ﾎｯｶｲﾄﾞｳ","kana_city":"ｱﾌﾞﾀｸﾞﾝﾏｯｶﾘﾑﾗ","kana_address":"","pref":"北海道","city":"虻田郡真狩村","address":""},
{"zip_code":"0481602","kana_pref":"ﾎｯｶｲﾄﾞｳ","kana_city":"ｱﾌﾞﾀｸﾞﾝﾏｯｶﾘﾑﾗ","kana_address":"ｲｽﾞﾐ","pref":"北海道","city":"虻田郡真狩村","address":"泉"},
{"zip_code":"0481622","kana_pref":"ﾎｯｶｲﾄﾞｳ","kana_city":"ｱﾌﾞﾀｸﾞﾝﾏｯｶﾘﾑﾗ","kana_address":"ｶﾉ","pref":"北海道","city":"虻田郡真狩村","address":"加野"},
{"zip_code":"0481624","kana_pref":"ﾎｯｶｲﾄﾞｳ","kana_city":"ｱﾌﾞﾀｸﾞﾝﾏｯｶﾘﾑﾗ","kana_address":"ｶﾐｻﾄ","pref":"北海道","city":"虻田郡真狩村","address":"神里"},
{"zip_code":"0481623","kana_pref":"ﾎｯｶｲﾄﾞｳ","kana_city":"ｱﾌﾞﾀｸﾞﾝﾏｯｶﾘﾑﾗ","kana_address":"ｶﾜｻｷ","pref":"北海道","city":"虻田郡真狩村","address":"川崎"},
{"zip_code":"0481603","kana_pref":"ﾎｯｶｲﾄﾞｳ","kana_city":"ｱﾌﾞﾀｸﾞﾝﾏｯｶﾘﾑﾗ","kana_address":"ｷｮｳﾒｲ","pref":"北海道","city":"虻田郡真狩村","address":"共明"},
{"zip_code":"0481614","kana_pref":"ﾎｯｶｲﾄﾞｳ","kana_city":"ｱﾌﾞﾀｸﾞﾝﾏｯｶﾘﾑﾗ","kana_address":"ｻｸﾗｶﾞﾜ","pref":"北海道","city":"虻田郡真狩村","address":"桜川"},
{"zip_code":"0481604","kana_pref":"ﾎｯｶｲﾄﾞｳ","kana_city":"ｱﾌﾞﾀｸﾞﾝﾏｯｶﾘﾑﾗ","kana_address":"ﾄﾐｻﾄ","pref":"北海道","city":"虻田郡真狩村","address":"富里"},
{"zip_code":"0481621","kana_pref":"ﾎｯｶｲﾄﾞｳ","kana_city":"ｱﾌﾞﾀｸﾞﾝﾏｯｶﾘﾑﾗ","kana_address":"ﾄﾖｶﾜ","pref":"北海道","city":"虻田郡真狩村","address":"豊川"},
{"zip_code":"0481613","kana_pref":"ﾎｯｶｲﾄﾞｳ","kana_city":"ｱﾌﾞﾀｸﾞﾝﾏｯｶﾘﾑﾗ","kana_address":"ﾅﾝﾌﾞ","pref":"北海道","city":"虻田郡真狩村","address":"南部"},
{"zip_code":"0481611","kana_pref":"ﾎｯｶｲﾄﾞｳ","kana_city":"ｱﾌﾞﾀｸﾞﾝﾏｯｶﾘﾑﾗ","kana_address":"ﾋｶﾘ","pref":"北海道","city":"虻田郡真狩村","address":"光"},
{"zip_code":"0481631","kana_pref":"ﾎｯｶｲﾄﾞｳ","kana_city":"ｱﾌﾞﾀｸﾞﾝﾏｯｶﾘﾑﾗ","kana_address":"ﾏｯｶﾘ","pref":"北海道","city":"虻田郡真狩村","address":"真狩"},
{"zip_code":"0481615","kana_pref":"ﾎｯｶｲﾄﾞｳ","kana_city":"ｱﾌﾞﾀｸﾞﾝﾏｯｶﾘﾑﾗ","kana_address":"ﾐﾄﾞﾘｵｶ","pref":"北海道","city":"虻田郡真狩村","address":"緑岡"},
{"zip_code":"0481601","kana_pref":"ﾎｯｶｲﾄﾞｳ","kana_city":"ｱﾌﾞﾀｸﾞﾝﾏｯｶﾘﾑﾗ","kana_address":"ﾐﾊﾗ","pref":"北海道","city":"虻田郡真狩村","address":"美原"},
{"zip_code":"0481612","kana_pref":"ﾎｯｶｲﾄﾞｳ","kana_city":"ｱﾌﾞﾀｸﾞﾝﾏｯｶﾘﾑﾗ","kana_address":"ﾐﾊﾗｼ","pref":"北海道","city":"虻田郡真狩村","address":"見晴"},
{"zip_code":"0481605","kana_pref":"ﾎｯｶｲﾄﾞｳ","kana_city":"ｱﾌﾞﾀｸﾞﾝﾏｯｶﾘﾑﾗ","kana_address":"ﾔｼﾛ","pref":"北海道","city":"虻田郡真狩村","address":"社"},
{"zip_code":"0481700","kana_pref":"ﾎｯｶｲﾄﾞｳ","kana_city":"ｱﾌﾞﾀｸﾞﾝﾙｽﾂﾑﾗ","kana_address":"","pref":"北海道","city":"虻田郡留寿都村","address":""},
{"zip_code":"0481752","kana_pref":"ﾎｯｶｲﾄﾞｳ","kana_city":"ｱﾌﾞﾀｸﾞﾝﾙｽﾂﾑﾗ","kana_address":"ｱｻﾋﾉ","pref":"北海道","city":"虻田郡留寿都村","address":"旭野"},
{"zip_code":"0481711","kana_pref":"ﾎｯｶｲﾄﾞｳ","kana_city":"ｱﾌﾞﾀｸﾞﾝﾙｽﾂﾑﾗ","kana_address":"ｲｽﾞﾐｶﾜ","pref":"北海道","city":"虻田郡留寿都村","address":"泉川"},
{"zip_code":"0481722","kana_pref":"ﾎｯｶｲﾄﾞｳ","kana_city":"ｱﾌﾞﾀｸﾞﾝﾙｽﾂﾑﾗ","kana_address":"ｸﾛﾀﾞ","pref":"北海道","city":"虻田郡留寿都村","address":"黒田"},
{"zip_code":"0481723","kana_pref":"ﾎｯｶｲﾄﾞｳ","kana_city":"ｱﾌﾞﾀｸﾞﾝﾙｽﾂﾑﾗ","kana_address":"ｻﾝﾉﾊﾗ","pref":"北海道","city":"虻田郡留寿都村","address":"三ノ原"},
{"zip_code":"0481712","kana_pref":"ﾎｯｶｲﾄﾞｳ","kana_city":"ｱﾌﾞﾀｸﾞﾝﾙｽﾂﾑﾗ","kana_address":"ﾄﾖｵｶ","pref":"北海道","city":"虻田郡留寿都村","address":"豊岡"},
{"zip_code":"0481741","kana_pref":"ﾎｯｶｲﾄﾞｳ","kana_city":"ｱﾌﾞﾀｸﾞﾝﾙｽﾂﾑﾗ","kana_address":"ﾆｼﾉﾊﾗ","pref":"北海道","city":"虻田郡留寿都村","address":"西ノ原"},
{"zip_code":"0481751","kana_pref":"ﾎｯｶｲﾄﾞｳ","kana_city":"ｱﾌﾞﾀｸﾞﾝﾙｽﾂﾑﾗ","kana_address":"ﾉﾎﾞﾘ","pref":"北海道","city":"虻田郡留寿都村","address":"登"},
{"zip_code":"0481724","kana_pref":"ﾎｯｶｲﾄﾞｳ","kana_city":"ｱﾌﾞﾀｸﾞﾝﾙｽﾂﾑﾗ","kana_address":"ﾐﾄﾖ","pref":"北海道","city":"虻田郡留寿都村","address":"三豊"},
{"zip_code":"0481721","kana_pref":"ﾎｯｶｲﾄﾞｳ","kana_city":"ｱﾌﾞﾀｸﾞﾝﾙｽﾂﾑﾗ","kana_address":"ﾑｶｲｵｶ","pref":"北海道","city":"虻田郡留寿都村","address":"向丘"},
{"zip_code":"0481731","kana_pref":"ﾎｯｶｲﾄﾞｳ","kana_city":"ｱﾌﾞﾀｸﾞﾝﾙｽﾂﾑﾗ","kana_address":"ﾙｽﾂ","pref":"北海道","city":"虻田郡留寿都村","address":"留寿都"},
{"zip_code":"0482200","kana_pref":"ﾎｯｶｲﾄﾞｳ","kana_city":"ｲﾜﾅｲｸﾞﾝｷｮｳﾜﾁｮｳ","kana_address":"","pref":"北海道","city":"岩内郡共和町","address":""},
{"zip_code":"0482143","kana_pref":"ﾎｯｶｲﾄﾞｳ","kana_city":"ｲﾜﾅｲｸﾞﾝｷｮｳﾜﾁｮｳ","kana_address":"ｸﾆﾄﾐ","pref":"北海道","city":"岩内郡共和町","address":"国富"},
{"zip_code":"0482142","kana_pref":"ﾎｯｶｲﾄﾞｳ","kana_city":"ｲﾜﾅｲｸﾞﾝｷｮｳﾜﾁｮｳ","kana_address":"ｺｻﾞﾜ","pref":"北海道","city":"岩内郡共和町","address":"小沢"},
{"zip_code":"0482201","kana_pref":"ﾎｯｶｲﾄﾞｳ","kana_city":"ｲﾜﾅｲｸﾞﾝｷｮｳﾜﾁｮｳ","kana_address":"ﾏｴﾀﾞ","pref":"北海道","city":"岩内郡共和町","address":"前田"},
{"zip_code":"0482202","kana_pref":"ﾎｯｶｲﾄﾞｳ","kana_city":"ｲﾜﾅｲｸﾞﾝｷｮｳﾜﾁｮｳ","kana_address":"ﾐﾅﾐﾎﾛﾆ","pref":"北海道","city":"岩内郡共和町","address":"南幌似"},
{"zip_code":"0482141","kana_pref":"ﾎｯｶｲﾄﾞｳ","kana_city":"ｲﾜﾅｲｸﾞﾝｷｮｳﾜﾁｮｳ","kana_address":"ﾜｲｽ","pref":"北海道","city":"岩内郡共和町","address":"ワイス"},
{"zip_code":"0482400","kana_pref":"ﾎｯｶｲﾄﾞｳ","kana_city":"ﾖｲﾁｸﾞﾝﾆｷﾁｮｳ","kana_address":"","pref":"北海道","city":"余市郡仁木町","address":""},
{"zip_code":"0482401","kana_pref":"ﾎｯｶｲﾄﾞｳ","kana_city":"ﾖｲﾁｸﾞﾝﾆｷﾁｮｳ","kana_address":"ｱｻﾋﾀﾞｲ","pref":"北海道","city":"余市郡仁木町","address":"旭台"},
{"zip_code":"0482402","kana_pref":"ﾎｯｶｲﾄﾞｳ","kana_city":"ﾖｲﾁｸﾞﾝﾆｷﾁｮｳ","kana_address":"ｵｵｴ(1ﾁｮｳﾒ","pref":"北海道","city":"余市郡仁木町","address":"大江（１丁目"},
{"zip_code":"0482402","kana_pref":"ﾎｯｶｲﾄﾞｳ","kana_city":"ﾖｲﾁｸﾞﾝﾆｷﾁｮｳ","kana_address":"2ﾁｮｳﾒ","pref":"北海道","city":"余市郡仁木町","address":"２丁目"},
{"zip_code":"0482402","kana_pref":"ﾎｯｶｲﾄﾞｳ","kana_city":"ﾖｲﾁｸﾞﾝﾆｷﾁｮｳ","kana_address":"3ﾁｮｳﾒ5","pref":"北海道","city":"余市郡仁木町","address":"３丁目５"},
{"zip_code":"0482402","kana_pref":"ﾎｯｶｲﾄﾞｳ","kana_city":"ﾖｲﾁｸﾞﾝﾆｷﾁｮｳ","kana_address":"1","pref":"北海道","city":"余市郡仁木町","address":"１"},
{"zip_code":"0482402","kana_pref":"ﾎｯｶｲﾄﾞｳ","kana_city":"ﾖｲﾁｸﾞﾝﾆｷﾁｮｳ","kana_address":"3-4ﾊﾞﾝﾁ","pref":"北海道","city":"余市郡仁木町","address":"３−４番地"},
{"zip_code":"0482402","kana_pref":"ﾎｯｶｲﾄﾞｳ","kana_city":"ﾖｲﾁｸﾞﾝﾆｷﾁｮｳ","kana_address":"20ﾊﾞﾝﾁ","pref":"北海道","city":"余市郡仁木町","address":"２０番地"},
{"zip_code":"0482402","kana_pref":"ﾎｯｶｲﾄﾞｳ","kana_city":"ﾖｲﾁｸﾞﾝﾆｷﾁｮｳ","kana_address":"678ﾊﾞﾝﾁ","pref":"北海道","city":"余市郡仁木町","address":"６７８番地"},
{"zip_code":"0482402","kana_pref":"ﾎｯｶｲﾄﾞｳ","kana_city":"ﾖｲﾁｸﾞﾝﾆｷﾁｮｳ","kana_address":"687ﾊﾞﾝﾁ)","pref":"北海道","city":"余市郡仁木町","address":"６８７番地）"},
{"zip_code":"0482331","kana_pref":"ﾎｯｶｲﾄﾞｳ","kana_city":"ﾖｲﾁｸﾞﾝﾆｷﾁｮｳ","kana_address":"ｵｵｴ(2ﾁｮｳﾒ651","pref":"北海道","city":"余市郡仁木町","address":"大江（２丁目６５１"},
{"zip_code":"0482331","kana_pref":"ﾎｯｶｲﾄﾞｳ","kana_city":"ﾖｲﾁｸﾞﾝﾆｷﾁｮｳ","kana_address":"662","pref":"北海道","city":"余市郡仁木町","address":"６６２"},
{"zip_code":"0482331","kana_pref":"ﾎｯｶｲﾄﾞｳ","kana_city":"ﾖｲﾁｸﾞﾝﾆｷﾁｮｳ","kana_address":"668ﾊﾞﾝﾁ","pref":"北海道","city":"余市郡仁木町","address":"６６８番地"},
{"zip_code":"0482331","kana_pref":"ﾎｯｶｲﾄﾞｳ","kana_city":"ﾖｲﾁｸﾞﾝﾆｷﾁｮｳ","kana_address":"3ﾁｮｳﾒ103","pref":"北海道","city":"余市郡仁木町","address":"３丁目１０３"},
{"zip_code":"0482331","kana_pref":"ﾎｯｶｲﾄﾞｳ","kana_city":"ﾖｲﾁｸﾞﾝﾆｷﾁｮｳ","kana_address":"118","pref":"北海道","city":"余市郡仁木町","address":"１１８"},
{"zip_code":"0482331","kana_pref":"ﾎｯｶｲﾄﾞｳ","kana_city":"ﾖｲﾁｸﾞﾝﾆｷﾁｮｳ","kana_address":"","pref":"北海道","city":"余市郡仁木町","address":""},
{"zip_code":"0482331","kana_pref":"ﾎｯｶｲﾄﾞｳ","kana_city":"ﾖｲﾁｸﾞﾝﾆｷﾁｮｳ","kana_address":"210ﾊﾞﾝﾁ","pref":"北海道","city":"余市郡仁木町","address":"２１０番地"},
{"zip_code":"0482331","kana_pref":"ﾎｯｶｲﾄﾞｳ","kana_city":"ﾖｲﾁｸﾞﾝﾆｷﾁｮｳ","kana_address":"254ﾊﾞﾝﾁ","pref":"北海道","city":"余市郡仁木町","address":"２５４番地"},
{"zip_code":"0482331","kana_pref":"ﾎｯｶｲﾄﾞｳ","kana_city":"ﾖｲﾁｸﾞﾝﾆｷﾁｮｳ","kana_address":"267ﾊﾞﾝﾁ","pref":"北海道","city":"余市郡仁木町","address":"２６７番地"},
{"zip_code":"0482331","kana_pref":"ﾎｯｶｲﾄﾞｳ","kana_city":"ﾖｲﾁｸﾞﾝﾆｷﾁｮｳ","kana_address":"372ﾊﾞﾝﾁ","pref":"北海道","city":"余市郡仁木町","address":"３７２番地"},
{"zip_code":"0482331","kana_pref":"ﾎｯｶｲﾄﾞｳ","kana_city":"ﾖｲﾁｸﾞﾝﾆｷﾁｮｳ","kana_address":"444ﾊﾞﾝﾁ","pref":"北海道","city":"余市郡仁木町","address":"４４４番地"},
{"zip_code":"0482331","kana_pref":"ﾎｯｶｲﾄﾞｳ","kana_city":"ﾖｲﾁｸﾞﾝﾆｷﾁｮｳ","kana_address":"469ﾊﾞﾝﾁ)","pref":"北海道","city":"余市郡仁木町","address":"４６９番地）"},
{"zip_code":"0482334","kana_pref":"ﾎｯｶｲﾄﾞｳ","kana_city":"ﾖｲﾁｸﾞﾝﾆｷﾁｮｳ","kana_address":"ｵﾈﾅｲ","pref":"北海道","city":"余市郡仁木町","address":"尾根内"},
{"zip_code":"0482405","kana_pref":"ﾎｯｶｲﾄﾞｳ","kana_city":"ﾖｲﾁｸﾞﾝﾆｷﾁｮｳ","kana_address":"ｷﾀﾏﾁ","pref":"北海道","city":"余市郡仁木町","address":"北町"},
{"zip_code":"0482335","kana_pref":"ﾎｯｶｲﾄﾞｳ","kana_city":"ﾖｲﾁｸﾞﾝﾆｷﾁｮｳ","kana_address":"ｷﾞﾝｻﾞﾝ","pref":"北海道","city":"余市郡仁木町","address":"銀山"},
{"zip_code":"0482403","kana_pref":"ﾎｯｶｲﾄﾞｳ","kana_city":"ﾖｲﾁｸﾞﾝﾆｷﾁｮｳ","kana_address":"ｼｶﾘﾍﾞﾂ","pref":"北海道","city":"余市郡仁木町","address":"然別"},
{"zip_code":"0482404","kana_pref":"ﾎｯｶｲﾄﾞｳ","kana_city":"ﾖｲﾁｸﾞﾝﾆｷﾁｮｳ","kana_address":"ﾄﾉｶﾜ","pref":"北海道","city":"余市郡仁木町","address":"砥の川"},
{"zip_code":"0482332","kana_pref":"ﾎｯｶｲﾄﾞｳ","kana_city":"ﾖｲﾁｸﾞﾝﾆｷﾁｮｳ","kana_address":"ﾅｶﾞｻﾜﾆｼ","pref":"北海道","city":"余市郡仁木町","address":"長沢西"},
{"zip_code":"0482333","kana_pref":"ﾎｯｶｲﾄﾞｳ","kana_city":"ﾖｲﾁｸﾞﾝﾆｷﾁｮｳ","kana_address":"ﾅｶﾞｻﾜﾐﾅﾐ","pref":"北海道","city":"余市郡仁木町","address":"長沢南"},
{"zip_code":"0482406","kana_pref":"ﾎｯｶｲﾄﾞｳ","kana_city":"ﾖｲﾁｸﾞﾝﾆｷﾁｮｳ","kana_address":"ﾆｼﾏﾁ","pref":"北海道","city":"余市郡仁木町","address":"西町"},
{"zip_code":"0482411","kana_pref":"ﾎｯｶｲﾄﾞｳ","kana_city":"ﾖｲﾁｸﾞﾝﾆｷﾁｮｳ","kana_address":"ﾋｶﾞｼﾏﾁ","pref":"北海道","city":"余市郡仁木町","address":"東町"},
{"zip_code":"0482412","kana_pref":"ﾎｯｶｲﾄﾞｳ","kana_city":"ﾖｲﾁｸﾞﾝﾆｷﾁｮｳ","kana_address":"ﾋｶﾞｼﾏﾁﾐﾄﾞﾘｶﾞｵｶ","pref":"北海道","city":"余市郡仁木町","address":"東町緑ケ丘"},
{"zip_code":"0482413","kana_pref":"ﾎｯｶｲﾄﾞｳ","kana_city":"ﾖｲﾁｸﾞﾝﾆｷﾁｮｳ","kana_address":"ﾐﾅﾐﾏﾁ","pref":"北海道","city":"余市郡仁木町","address":"南町"}]}