{"zip_code":[
{"zip_code":"0490100","kana_pref":"ﾎｯｶｲﾄﾞｳ","kana_city":"ﾎｸﾄｼ","kana_address":"","pref":"北海道","city":"北斗市","address":""},
{"zip_code":"0490161","kana_pref":"ﾎｯｶｲﾄﾞｳ","kana_city":"ﾎｸﾄｼ","kana_address":"ｲﾅﾘ","pref":"北海道","city":"北斗市","address":"飯生"},
{"zip_code":"0490101","kana_pref":"ﾎｯｶｲﾄﾞｳ","kana_city":"ﾎｸﾄｼ","kana_address":"ｵｲﾜｹ","pref":"北海道","city":"北斗市","address":"追分"},
{"zip_code":"0490152","kana_pref":"ﾎｯｶｲﾄﾞｳ","kana_city":"ﾎｸﾄｼ","kana_address":"ｵｼｱｹﾞ","pref":"北海道","city":"北斗市","address":"押上"},
{"zip_code":"0490136","kana_pref":"ﾎｯｶｲﾄﾞｳ","kana_city":"ﾎｸﾄｼ","kana_address":"ｶﾞﾛｳ","pref":"北海道","city":"北斗市","address":"峨朗"},
{"zip_code":"0490157","kana_pref":"ﾎｯｶｲﾄﾞｳ","kana_city":"ﾎｸﾄｼ","kana_address":"ｷﾖｶﾜ","pref":"北海道","city":"北斗市","address":"清川"},
{"zip_code":"0490121","kana_pref":"ﾎｯｶｲﾄﾞｳ","kana_city":"ﾎｸﾄｼ","kana_address":"ｸﾈﾍﾞﾂ","pref":"北海道","city":"北斗市","address":"久根別"},
{"zip_code":"0490143","kana_pref":"ﾎｯｶｲﾄﾞｳ","kana_city":"ﾎｸﾄｼ","kana_address":"ｺｳｴﾝﾄﾞｵﾘ","pref":"北海道","city":"北斗市","address":"公園通"},
{"zip_code":"0490151","kana_pref":"ﾎｯｶｲﾄﾞｳ","kana_city":"ﾎｸﾄｼ","kana_address":"ｻｸﾗﾀｲ","pref":"北海道","city":"北斗市","address":"桜岱"},
{"zip_code":"0490142","kana_pref":"ﾎｯｶｲﾄﾞｳ","kana_city":"ﾎｸﾄｼ","kana_address":"ｼｮｳﾜ","pref":"北海道","city":"北斗市","address":"昭和"},
{"zip_code":"0490154","kana_pref":"ﾎｯｶｲﾄﾞｳ","kana_city":"ﾎｸﾄｼ","kana_address":"ｿｴﾔﾏ","pref":"北海道","city":"北斗市","address":"添山"},
{"zip_code":"0490153","kana_pref":"ﾎｯｶｲﾄﾞｳ","kana_city":"ﾎｸﾄｼ","kana_address":"ﾀﾞｲｸｶﾞﾜ","pref":"北海道","city":"北斗市","address":"大工川"},
{"zip_code":"0490132","kana_pref":"ﾎｯｶｲﾄﾞｳ","kana_city":"ﾎｸﾄｼ","kana_address":"ﾀﾞﾃﾉ","pref":"北海道","city":"北斗市","address":"館野"},
{"zip_code":"0490141","kana_pref":"ﾎｯｶｲﾄﾞｳ","kana_city":"ﾎｸﾄｼ","kana_address":"ﾀﾆﾖｼ","pref":"北海道","city":"北斗市","address":"谷好"},
{"zip_code":"0490162","kana_pref":"ﾎｯｶｲﾄﾞｳ","kana_city":"ﾎｸﾄｼ","kana_address":"ﾁｭｳｵｳ","pref":"北海道","city":"北斗市","address":"中央"},
{"zip_code":"0490282","kana_pref":"ﾎｯｶｲﾄﾞｳ","kana_city":"ﾎｸﾄｼ","kana_address":"ﾄｳﾍﾞﾂ","pref":"北海道","city":"北斗市","address":"当別"},
{"zip_code":"0490171","kana_pref":"ﾎｯｶｲﾄﾞｳ","kana_city":"ﾎｸﾄｼ","kana_address":"ﾄｷﾜ","pref":"北海道","city":"北斗市","address":"常盤"},
{"zip_code":"0490131","kana_pref":"ﾎｯｶｲﾄﾞｳ","kana_city":"ﾎｸﾄｼ","kana_address":"ﾄﾐｶﾞﾜ","pref":"北海道","city":"北斗市","address":"富川"},
{"zip_code":"0490155","kana_pref":"ﾎｯｶｲﾄﾞｳ","kana_city":"ﾎｸﾄｼ","kana_address":"ﾅｶﾉ","pref":"北海道","city":"北斗市","address":"中野"},
{"zip_code":"0490156","kana_pref":"ﾎｯｶｲﾄﾞｳ","kana_city":"ﾎｸﾄｼ","kana_address":"ﾅｶﾉﾄﾞｵﾘ","pref":"北海道","city":"北斗市","address":"中野通"},
{"zip_code":"0490111","kana_pref":"ﾎｯｶｲﾄﾞｳ","kana_city":"ﾎｸﾄｼ","kana_address":"ﾅﾅｴﾊﾏ","pref":"北海道","city":"北斗市","address":"七重浜"},
{"zip_code":"0490158","kana_pref":"ﾎｯｶｲﾄﾞｳ","kana_city":"ﾎｸﾄｼ","kana_address":"ﾉｻﾞｷ","pref":"北海道","city":"北斗市","address":"野崎"},
{"zip_code":"0490122","kana_pref":"ﾎｯｶｲﾄﾞｳ","kana_city":"ﾎｸﾄｼ","kana_address":"ﾋｶﾞｼﾊﾏ","pref":"北海道","city":"北斗市","address":"東浜"},
{"zip_code":"0490135","kana_pref":"ﾎｯｶｲﾄﾞｳ","kana_city":"ﾎｸﾄｼ","kana_address":"ﾐｽﾞﾅｼ","pref":"北海道","city":"北斗市","address":"水無"},
{"zip_code":"0490283","kana_pref":"ﾎｯｶｲﾄﾞｳ","kana_city":"ﾎｸﾄｼ","kana_address":"ﾐﾂｲｼ","pref":"北海道","city":"北斗市","address":"三ツ石"},
{"zip_code":"0490134","kana_pref":"ﾎｯｶｲﾄﾞｳ","kana_city":"ﾎｸﾄｼ","kana_address":"ﾐﾖｼ","pref":"北海道","city":"北斗市","address":"三好"},
{"zip_code":"0490281","kana_pref":"ﾎｯｶｲﾄﾞｳ","kana_city":"ﾎｸﾄｼ","kana_address":"ﾓﾍｼﾞ","pref":"北海道","city":"北斗市","address":"茂辺地"},
{"zip_code":"0490285","kana_pref":"ﾎｯｶｲﾄﾞｳ","kana_city":"ﾎｸﾄｼ","kana_address":"ﾓﾍｼﾞｲﾁﾉﾜﾀﾘ","pref":"北海道","city":"北斗市","address":"茂辺地市ノ渡"},
{"zip_code":"0490133","kana_pref":"ﾎｯｶｲﾄﾞｳ","kana_city":"ﾎｸﾄｼ","kana_address":"ﾔﾅｷﾞｻﾜ","pref":"北海道","city":"北斗市","address":"柳沢"},
{"zip_code":"0490286","kana_pref":"ﾎｯｶｲﾄﾞｳ","kana_city":"ﾎｸﾄｼ","kana_address":"ﾔﾌﾗｲ","pref":"北海道","city":"北斗市","address":"矢不来"},
{"zip_code":"0490284","kana_pref":"ﾎｯｶｲﾄﾞｳ","kana_city":"ﾎｸﾄｼ","kana_address":"ﾕﾉｻﾜ","pref":"北海道","city":"北斗市","address":"湯ノ沢"},
{"zip_code":"0491500","kana_pref":"ﾎｯｶｲﾄﾞｳ","kana_city":"ﾏﾂﾏｴｸﾞﾝﾏﾂﾏｴﾁｮｳ","kana_address":"","pref":"北海道","city":"松前郡松前町","address":""},
{"zip_code":"0491643","kana_pref":"ﾎｯｶｲﾄﾞｳ","kana_city":"ﾏﾂﾏｴｸﾞﾝﾏﾂﾏｴﾁｮｳ","kana_address":"ｱｶｶﾞﾐ","pref":"北海道","city":"松前郡松前町","address":"赤神"},
{"zip_code":"0491517","kana_pref":"ﾎｯｶｲﾄﾞｳ","kana_city":"ﾏﾂﾏｴｸﾞﾝﾏﾂﾏｴﾁｮｳ","kana_address":"ｱｻﾋ","pref":"北海道","city":"松前郡松前町","address":"朝日"},
{"zip_code":"0491504","kana_pref":"ﾎｯｶｲﾄﾞｳ","kana_city":"ﾏﾂﾏｴｸﾞﾝﾏﾂﾏｴﾁｮｳ","kana_address":"ｱﾀｺﾞ","pref":"北海道","city":"松前郡松前町","address":"愛宕"},
{"zip_code":"0491523","kana_pref":"ﾎｯｶｲﾄﾞｳ","kana_city":"ﾏﾂﾏｴｸﾞﾝﾏﾂﾏｴﾁｮｳ","kana_address":"ｱﾗﾔ","pref":"北海道","city":"松前郡松前町","address":"荒谷"},
{"zip_code":"0491771","kana_pref":"ﾎｯｶｲﾄﾞｳ","kana_city":"ﾏﾂﾏｴｸﾞﾝﾏﾂﾏｴﾁｮｳ","kana_address":"ｴﾗ","pref":"北海道","city":"松前郡松前町","address":"江良"},
{"zip_code":"0491503","kana_pref":"ﾎｯｶｲﾄﾞｳ","kana_city":"ﾏﾂﾏｴｸﾞﾝﾏﾂﾏｴﾁｮｳ","kana_address":"ｵｵｲｿ","pref":"北海道","city":"松前郡松前町","address":"大磯"},
{"zip_code":"0491522","kana_pref":"ﾎｯｶｲﾄﾞｳ","kana_city":"ﾏﾂﾏｴｸﾞﾝﾏﾂﾏｴﾁｮｳ","kana_address":"ｵｵｻﾜ","pref":"北海道","city":"松前郡松前町","address":"大沢"},
{"zip_code":"0491781","kana_pref":"ﾎｯｶｲﾄﾞｳ","kana_city":"ﾏﾂﾏｴｸﾞﾝﾏﾂﾏｴﾁｮｳ","kana_address":"ｵｵﾂ","pref":"北海道","city":"松前郡松前町","address":"大津"},
{"zip_code":"0491521","kana_pref":"ﾎｯｶｲﾄﾞｳ","kana_city":"ﾏﾂﾏｴｸﾞﾝﾏﾂﾏｴﾁｮｳ","kana_address":"ｶﾐｶﾜ","pref":"北海道","city":"松前郡松前町","address":"上川"},
{"zip_code":"0491761","kana_pref":"ﾎｯｶｲﾄﾞｳ","kana_city":"ﾏﾂﾏｴｸﾞﾝﾏﾂﾏｴﾁｮｳ","kana_address":"ｶﾐﾔﾏ","pref":"北海道","city":"松前郡松前町","address":"神山"},
{"zip_code":"0491506","kana_pref":"ﾎｯｶｲﾄﾞｳ","kana_city":"ﾏﾂﾏｴｸﾞﾝﾏﾂﾏｴﾁｮｳ","kana_address":"ｶﾗﾂ","pref":"北海道","city":"松前郡松前町","address":"唐津"},
{"zip_code":"0491783","kana_pref":"ﾎｯｶｲﾄﾞｳ","kana_city":"ﾏﾂﾏｴｸﾞﾝﾏﾂﾏｴﾁｮｳ","kana_address":"ｷﾖﾍﾞ","pref":"北海道","city":"松前郡松前町","address":"清部"},
{"zip_code":"0491784","kana_pref":"ﾎｯｶｲﾄﾞｳ","kana_city":"ﾏﾂﾏｴｸﾞﾝﾏﾂﾏｴﾁｮｳ","kana_address":"ｺﾊﾏ","pref":"北海道","city":"松前郡松前町","address":"小浜"},
{"zip_code":"0491642","kana_pref":"ﾎｯｶｲﾄﾞｳ","kana_city":"ﾏﾂﾏｴｸﾞﾝﾏﾂﾏｴﾁｮｳ","kana_address":"ｻﾂﾏｴ","pref":"北海道","city":"松前郡松前町","address":"札前"},
{"zip_code":"0491644","kana_pref":"ﾎｯｶｲﾄﾞｳ","kana_city":"ﾏﾂﾏｴｸﾞﾝﾏﾂﾏｴﾁｮｳ","kana_address":"ｼｽﾞｳﾗ","pref":"北海道","city":"松前郡松前町","address":"静浦"},
{"zip_code":"0491524","kana_pref":"ﾎｯｶｲﾄﾞｳ","kana_city":"ﾏﾂﾏｴｸﾞﾝﾏﾂﾏｴﾁｮｳ","kana_address":"ｼﾗｶﾐ","pref":"北海道","city":"松前郡松前町","address":"白神"},
{"zip_code":"0491763","kana_pref":"ﾎｯｶｲﾄﾞｳ","kana_city":"ﾏﾂﾏｴｸﾞﾝﾏﾂﾏｴﾁｮｳ","kana_address":"ｼﾗｻｶ","pref":"北海道","city":"松前郡松前町","address":"白坂"},
{"zip_code":"0491513","kana_pref":"ﾎｯｶｲﾄﾞｳ","kana_city":"ﾏﾂﾏｴｸﾞﾝﾏﾂﾏｴﾁｮｳ","kana_address":"ｼﾝﾒｲ","pref":"北海道","city":"松前郡松前町","address":"神明"},
{"zip_code":"0491782","kana_pref":"ﾎｯｶｲﾄﾞｳ","kana_city":"ﾏﾂﾏｴｸﾞﾝﾏﾂﾏｴﾁｮｳ","kana_address":"ﾀｶﾉ","pref":"北海道","city":"松前郡松前町","address":"高野"},
{"zip_code":"0491501","kana_pref":"ﾎｯｶｲﾄﾞｳ","kana_city":"ﾏﾂﾏｴｸﾞﾝﾏﾂﾏｴﾁｮｳ","kana_address":"ﾀﾃｲｼ","pref":"北海道","city":"松前郡松前町","address":"建石"},
{"zip_code":"0491641","kana_pref":"ﾎｯｶｲﾄﾞｳ","kana_city":"ﾏﾂﾏｴｸﾞﾝﾏﾂﾏｴﾁｮｳ","kana_address":"ﾀﾃﾊﾏ","pref":"北海道","city":"松前郡松前町","address":"館浜"},
{"zip_code":"0491515","kana_pref":"ﾎｯｶｲﾄﾞｳ","kana_city":"ﾏﾂﾏｴｸﾞﾝﾏﾂﾏｴﾁｮｳ","kana_address":"ﾂｷｼﾏ","pref":"北海道","city":"松前郡松前町","address":"月島"},
{"zip_code":"0491514","kana_pref":"ﾎｯｶｲﾄﾞｳ","kana_city":"ﾏﾂﾏｴｸﾞﾝﾏﾂﾏｴﾁｮｳ","kana_address":"ﾄﾖｵｶ","pref":"北海道","city":"松前郡松前町","address":"豊岡"},
{"zip_code":"0491507","kana_pref":"ﾎｯｶｲﾄﾞｳ","kana_city":"ﾏﾂﾏｴｸﾞﾝﾏﾂﾏｴﾁｮｳ","kana_address":"ﾆｼﾀﾞﾃ","pref":"北海道","city":"松前郡松前町","address":"西館"},
{"zip_code":"0491505","kana_pref":"ﾎｯｶｲﾄﾞｳ","kana_city":"ﾏﾂﾏｴｸﾞﾝﾏﾂﾏｴﾁｮｳ","kana_address":"ﾊｶﾀ","pref":"北海道","city":"松前郡松前町","address":"博多"},
{"zip_code":"0491762","kana_pref":"ﾎｯｶｲﾄﾞｳ","kana_city":"ﾏﾂﾏｴｸﾞﾝﾏﾂﾏｴﾁｮｳ","kana_address":"ﾊﾗｸﾞﾁ","pref":"北海道","city":"松前郡松前町","address":"原口"},
{"zip_code":"0491516","kana_pref":"ﾎｯｶｲﾄﾞｳ","kana_city":"ﾏﾂﾏｴｸﾞﾝﾏﾂﾏｴﾁｮｳ","kana_address":"ﾋｶﾞｼﾔﾏ","pref":"北海道","city":"松前郡松前町","address":"東山"},
{"zip_code":"0491512","kana_pref":"ﾎｯｶｲﾄﾞｳ","kana_city":"ﾏﾂﾏｴｸﾞﾝﾏﾂﾏｴﾁｮｳ","kana_address":"ﾌｸﾔﾏ","pref":"北海道","city":"松前郡松前町","address":"福山"},
{"zip_code":"0491764","kana_pref":"ﾎｯｶｲﾄﾞｳ","kana_city":"ﾏﾂﾏｴｸﾞﾝﾏﾂﾏｴﾁｮｳ","kana_address":"ﾌﾀｺﾞｴ","pref":"北海道","city":"松前郡松前町","address":"二越"},
{"zip_code":"0491502","kana_pref":"ﾎｯｶｲﾄﾞｳ","kana_city":"ﾏﾂﾏｴｸﾞﾝﾏﾂﾏｴﾁｮｳ","kana_address":"ﾍﾞﾝﾃﾝ","pref":"北海道","city":"松前郡松前町","address":"弁天"},
{"zip_code":"0491511","kana_pref":"ﾎｯｶｲﾄﾞｳ","kana_city":"ﾏﾂﾏｴｸﾞﾝﾏﾂﾏｴﾁｮｳ","kana_address":"ﾏﾂｼﾛ","pref":"北海道","city":"松前郡松前町","address":"松城"},
{"zip_code":"0491645","kana_pref":"ﾎｯｶｲﾄﾞｳ","kana_city":"ﾏﾂﾏｴｸﾞﾝﾏﾂﾏｴﾁｮｳ","kana_address":"ﾓｸﾞｻ","pref":"北海道","city":"松前郡松前町","address":"茂草"},
{"zip_code":"0491300","kana_pref":"ﾎｯｶｲﾄﾞｳ","kana_city":"ﾏﾂﾏｴｸﾞﾝﾌｸｼﾏﾁｮｳ","kana_address":"","pref":"北海道","city":"松前郡福島町","address":""},
{"zip_code":"0491325","kana_pref":"ﾎｯｶｲﾄﾞｳ","kana_city":"ﾏﾂﾏｴｸﾞﾝﾌｸｼﾏﾁｮｳ","kana_address":"ｲﾜﾍﾞ","pref":"北海道","city":"松前郡福島町","address":"岩部"},
{"zip_code":"0491312","kana_pref":"ﾎｯｶｲﾄﾞｳ","kana_city":"ﾏﾂﾏｴｸﾞﾝﾌｸｼﾏﾁｮｳ","kana_address":"ｳｴﾏﾁ","pref":"北海道","city":"松前郡福島町","address":"上町"},
{"zip_code":"0491323","kana_pref":"ﾎｯｶｲﾄﾞｳ","kana_city":"ﾏﾂﾏｴｸﾞﾝﾌｸｼﾏﾁｮｳ","kana_address":"ｳﾗﾜ","pref":"北海道","city":"松前郡福島町","address":"浦和"},
{"zip_code":"0491312","kana_pref":"ﾎｯｶｲﾄﾞｳ","kana_city":"ﾏﾂﾏｴｸﾞﾝﾌｸｼﾏﾁｮｳ","kana_address":"ｶﾜﾗﾏﾁ","pref":"北海道","city":"松前郡福島町","address":"川原町"},
{"zip_code":"0491322","kana_pref":"ﾎｯｶｲﾄﾞｳ","kana_city":"ﾏﾂﾏｴｸﾞﾝﾌｸｼﾏﾁｮｳ","kana_address":"ｼｵｶﾞﾏ","pref":"北海道","city":"松前郡福島町","address":"塩釜"},
{"zip_code":"0491301","kana_pref":"ﾎｯｶｲﾄﾞｳ","kana_city":"ﾏﾂﾏｴｸﾞﾝﾌｸｼﾏﾁｮｳ","kana_address":"ｼﾗﾌ","pref":"北海道","city":"松前郡福島町","address":"白符"},
{"zip_code":"0491331","kana_pref":"ﾎｯｶｲﾄﾞｳ","kana_city":"ﾏﾂﾏｴｸﾞﾝﾌｸｼﾏﾁｮｳ","kana_address":"ｼﾝｴｲﾁｮｳ","pref":"北海道","city":"松前郡福島町","address":"新栄町"},
{"zip_code":"0491332","kana_pref":"ﾎｯｶｲﾄﾞｳ","kana_city":"ﾏﾂﾏｴｸﾞﾝﾌｸｼﾏﾁｮｳ","kana_address":"ｾﾝｹﾞﾝ","pref":"北海道","city":"松前郡福島町","address":"千軒"},
{"zip_code":"0491312","kana_pref":"ﾎｯｶｲﾄﾞｳ","kana_city":"ﾏﾂﾏｴｸﾞﾝﾌｸｼﾏﾁｮｳ","kana_address":"ﾀﾃｺ","pref":"北海道","city":"松前郡福島町","address":"館古"},
{"zip_code":"0491454","kana_pref":"ﾎｯｶｲﾄﾞｳ","kana_city":"ﾏﾂﾏｴｸﾞﾝﾌｸｼﾏﾁｮｳ","kana_address":"ﾀﾃｻｷ","pref":"北海道","city":"松前郡福島町","address":"館崎"},
{"zip_code":"0491321","kana_pref":"ﾎｯｶｲﾄﾞｳ","kana_city":"ﾏﾂﾏｴｸﾞﾝﾌｸｼﾏﾁｮｳ","kana_address":"ﾂｷｻｷ","pref":"北海道","city":"松前郡福島町","address":"月崎"},
{"zip_code":"0491452","kana_pref":"ﾎｯｶｲﾄﾞｳ","kana_city":"ﾏﾂﾏｴｸﾞﾝﾌｸｼﾏﾁｮｳ","kana_address":"ﾄﾖﾊﾏ","pref":"北海道","city":"松前郡福島町","address":"豊浜"},
{"zip_code":"0491311","kana_pref":"ﾎｯｶｲﾄﾞｳ","kana_city":"ﾏﾂﾏｴｸﾞﾝﾌｸｼﾏﾁｮｳ","kana_address":"ﾋｸﾗ","pref":"北海道","city":"松前郡福島町","address":"桧倉"},
{"zip_code":"0491324","kana_pref":"ﾎｯｶｲﾄﾞｳ","kana_city":"ﾏﾂﾏｴｸﾞﾝﾌｸｼﾏﾁｮｳ","kana_address":"ﾋﾉﾃﾞ","pref":"北海道","city":"松前郡福島町","address":"日の出"},
{"zip_code":"0491302","kana_pref":"ﾎｯｶｲﾄﾞｳ","kana_city":"ﾏﾂﾏｴｸﾞﾝﾌｸｼﾏﾁｮｳ","kana_address":"ﾋｭｳｶﾞ","pref":"北海道","city":"松前郡福島町","address":"日向"},
{"zip_code":"0491312","kana_pref":"ﾎｯｶｲﾄﾞｳ","kana_city":"ﾏﾂﾏｴｸﾞﾝﾌｸｼﾏﾁｮｳ","kana_address":"ﾌｸｼﾏ","pref":"北海道","city":"松前郡福島町","address":"福島"},
{"zip_code":"0491312","kana_pref":"ﾎｯｶｲﾄﾞｳ","kana_city":"ﾏﾂﾏｴｸﾞﾝﾌｸｼﾏﾁｮｳ","kana_address":"ﾎﾝﾁｮｳ","pref":"北海道","city":"松前郡福島町","address":"本町"},
{"zip_code":"0491456","kana_pref":"ﾎｯｶｲﾄﾞｳ","kana_city":"ﾏﾂﾏｴｸﾞﾝﾌｸｼﾏﾁｮｳ","kana_address":"ﾏﾂｳﾗ","pref":"北海道","city":"松前郡福島町","address":"松浦"},
{"zip_code":"0491321","kana_pref":"ﾎｯｶｲﾄﾞｳ","kana_city":"ﾏﾂﾏｴｸﾞﾝﾌｸｼﾏﾁｮｳ","kana_address":"ﾏﾙﾔﾏﾀﾞﾝﾁ","pref":"北海道","city":"松前郡福島町","address":"丸山団地"},
{"zip_code":"0491331","kana_pref":"ﾎｯｶｲﾄﾞｳ","kana_city":"ﾏﾂﾏｴｸﾞﾝﾌｸｼﾏﾁｮｳ","kana_address":"ﾐﾀｹ","pref":"北海道","city":"松前郡福島町","address":"三岳"},
{"zip_code":"0491321","kana_pref":"ﾎｯｶｲﾄﾞｳ","kana_city":"ﾏﾂﾏｴｸﾞﾝﾌｸｼﾏﾁｮｳ","kana_address":"ﾐﾄﾞﾘﾁｮｳ","pref":"北海道","city":"松前郡福島町","address":"緑町"},
{"zip_code":"0491451","kana_pref":"ﾎｯｶｲﾄﾞｳ","kana_city":"ﾏﾂﾏｴｸﾞﾝﾌｸｼﾏﾁｮｳ","kana_address":"ﾐﾔｳﾀ","pref":"北海道","city":"松前郡福島町","address":"宮歌"},
{"zip_code":"0491453","kana_pref":"ﾎｯｶｲﾄﾞｳ","kana_city":"ﾏﾂﾏｴｸﾞﾝﾌｸｼﾏﾁｮｳ","kana_address":"ﾐﾔﾏ","pref":"北海道","city":"松前郡福島町","address":"美山"},
{"zip_code":"0491453","kana_pref":"ﾎｯｶｲﾄﾞｳ","kana_city":"ﾏﾂﾏｴｸﾞﾝﾌｸｼﾏﾁｮｳ","kana_address":"ﾖｼｵｶ","pref":"北海道","city":"松前郡福島町","address":"吉岡"},
{"zip_code":"0491312","kana_pref":"ﾎｯｶｲﾄﾞｳ","kana_city":"ﾏﾂﾏｴｸﾞﾝﾌｸｼﾏﾁｮｳ","kana_address":"ﾖｼﾀﾞﾏﾁ","pref":"北海道","city":"松前郡福島町","address":"吉田町"},
{"zip_code":"0491455","kana_pref":"ﾎｯｶｲﾄﾞｳ","kana_city":"ﾏﾂﾏｴｸﾞﾝﾌｸｼﾏﾁｮｳ","kana_address":"ﾖｼﾉ","pref":"北海道","city":"松前郡福島町","address":"吉野"},
{"zip_code":"0491100","kana_pref":"ﾎｯｶｲﾄﾞｳ","kana_city":"ｶﾐｲｿｸﾞﾝｼﾘｳﾁﾁｮｳ","kana_address":"","pref":"北海道","city":"上磯郡知内町","address":""},
{"zip_code":"0491103","kana_pref":"ﾎｯｶｲﾄﾞｳ","kana_city":"ｶﾐｲｿｸﾞﾝｼﾘｳﾁﾁｮｳ","kana_address":"ｵﾓﾅｲ","pref":"北海道","city":"上磯郡知内町","address":"重内"},
{"zip_code":"0491105","kana_pref":"ﾎｯｶｲﾄﾞｳ","kana_city":"ｶﾐｲｿｸﾞﾝｼﾘｳﾁﾁｮｳ","kana_address":"ｺﾀﾆｲｼ","pref":"北海道","city":"上磯郡知内町","address":"小谷石"},
{"zip_code":"0491107","kana_pref":"ﾎｯｶｲﾄﾞｳ","kana_city":"ｶﾐｲｿｸﾞﾝｼﾘｳﾁﾁｮｳ","kana_address":"ｼﾞｮｳﾗｲ","pref":"北海道","city":"上磯郡知内町","address":"上雷"},
{"zip_code":"0491101","kana_pref":"ﾎｯｶｲﾄﾞｳ","kana_city":"ｶﾐｲｿｸﾞﾝｼﾘｳﾁﾁｮｳ","kana_address":"ﾅｶﾉｶﾜ","pref":"北海道","city":"上磯郡知内町","address":"中ノ川"},
{"zip_code":"0491106","kana_pref":"ﾎｯｶｲﾄﾞｳ","kana_city":"ｶﾐｲｿｸﾞﾝｼﾘｳﾁﾁｮｳ","kana_address":"ﾓﾄﾏﾁ","pref":"北海道","city":"上磯郡知内町","address":"元町"},
{"zip_code":"0491102","kana_pref":"ﾎｯｶｲﾄﾞｳ","kana_city":"ｶﾐｲｿｸﾞﾝｼﾘｳﾁﾁｮｳ","kana_address":"ﾓﾘｺｼ","pref":"北海道","city":"上磯郡知内町","address":"森越"},
{"zip_code":"0491221","kana_pref":"ﾎｯｶｲﾄﾞｳ","kana_city":"ｶﾐｲｿｸﾞﾝｼﾘｳﾁﾁｮｳ","kana_address":"ﾕﾉｻﾄ","pref":"北海道","city":"上磯郡知内町","address":"湯ノ里"},
{"zip_code":"0491104","kana_pref":"ﾎｯｶｲﾄﾞｳ","kana_city":"ｶﾐｲｿｸﾞﾝｼﾘｳﾁﾁｮｳ","kana_address":"ﾜｷﾓﾄ","pref":"北海道","city":"上磯郡知内町","address":"涌元"},
{"zip_code":"0490400","kana_pref":"ﾎｯｶｲﾄﾞｳ","kana_city":"ｶﾐｲｿｸﾞﾝｷｺﾅｲﾁｮｳ","kana_address":"","pref":"北海道","city":"上磯郡木古内町","address":""},
{"zip_code":"0490405","kana_pref":"ﾎｯｶｲﾄﾞｳ","kana_city":"ｶﾐｲｿｸﾞﾝｷｺﾅｲﾁｮｳ","kana_address":"ｲｽﾞﾐｻﾜ","pref":"北海道","city":"上磯郡木古内町","address":"泉沢"},
{"zip_code":"0490454","kana_pref":"ﾎｯｶｲﾄﾞｳ","kana_city":"ｶﾐｲｿｸﾞﾝｷｺﾅｲﾁｮｳ","kana_address":"ｳﾘﾔ","pref":"北海道","city":"上磯郡木古内町","address":"瓜谷"},
{"zip_code":"0490401","kana_pref":"ﾎｯｶｲﾄﾞｳ","kana_city":"ｶﾐｲｿｸﾞﾝｷｺﾅｲﾁｮｳ","kana_address":"ｵｵｶﾏﾔ","pref":"北海道","city":"上磯郡木古内町","address":"大釜谷"},
{"zip_code":"0490453","kana_pref":"ﾎｯｶｲﾄﾞｳ","kana_city":"ｶﾐｲｿｸﾞﾝｷｺﾅｲﾁｮｳ","kana_address":"ｵｵｶﾜ","pref":"北海道","city":"上磯郡木古内町","address":"大川"},
{"zip_code":"0490412","kana_pref":"ﾎｯｶｲﾄﾞｳ","kana_city":"ｶﾐｲｿｸﾞﾝｷｺﾅｲﾁｮｳ","kana_address":"ｵｵﾋﾗ","pref":"北海道","city":"上磯郡木古内町","address":"大平"},
{"zip_code":"0490402","kana_pref":"ﾎｯｶｲﾄﾞｳ","kana_city":"ｶﾐｲｿｸﾞﾝｷｺﾅｲﾁｮｳ","kana_address":"ｵﾐﾔﾉ","pref":"北海道","city":"上磯郡木古内町","address":"御宮野"},
{"zip_code":"0490403","kana_pref":"ﾎｯｶｲﾄﾞｳ","kana_city":"ｶﾐｲｿｸﾞﾝｷｺﾅｲﾁｮｳ","kana_address":"ｶﾏﾔ","pref":"北海道","city":"上磯郡木古内町","address":"釜谷"},
{"zip_code":"0490404","kana_pref":"ﾎｯｶｲﾄﾞｳ","kana_city":"ｶﾐｲｿｸﾞﾝｷｺﾅｲﾁｮｳ","kana_address":"ｶﾒｶﾜ","pref":"北海道","city":"上磯郡木古内町","address":"亀川"},
{"zip_code":"0490431","kana_pref":"ﾎｯｶｲﾄﾞｳ","kana_city":"ｶﾐｲｿｸﾞﾝｷｺﾅｲﾁｮｳ","kana_address":"ｷｺﾅｲ","pref":"北海道","city":"上磯郡木古内町","address":"木古内"},
{"zip_code":"0490408","kana_pref":"ﾎｯｶｲﾄﾞｳ","kana_city":"ｶﾐｲｿｸﾞﾝｷｺﾅｲﾁｮｳ","kana_address":"ｺｳﾚﾝ","pref":"北海道","city":"上磯郡木古内町","address":"幸連"},
{"zip_code":"0490411","kana_pref":"ﾎｯｶｲﾄﾞｳ","kana_city":"ｶﾐｲｿｸﾞﾝｷｺﾅｲﾁｮｳ","kana_address":"ｻﾂｶﾘ","pref":"北海道","city":"上磯郡木古内町","address":"札苅"},
{"zip_code":"0490451","kana_pref":"ﾎｯｶｲﾄﾞｳ","kana_city":"ｶﾐｲｿｸﾞﾝｷｺﾅｲﾁｮｳ","kana_address":"ｼﾝﾐﾁ","pref":"北海道","city":"上磯郡木古内町","address":"新道"},
{"zip_code":"0490452","kana_pref":"ﾎｯｶｲﾄﾞｳ","kana_city":"ｶﾐｲｿｸﾞﾝｷｺﾅｲﾁｮｳ","kana_address":"ﾀﾃｶﾜ","pref":"北海道","city":"上磯郡木古内町","address":"建川"},
{"zip_code":"0490455","kana_pref":"ﾎｯｶｲﾄﾞｳ","kana_city":"ｶﾐｲｿｸﾞﾝｷｺﾅｲﾁｮｳ","kana_address":"ﾂﾙｵｶ","pref":"北海道","city":"上磯郡木古内町","address":"鶴岡"},
{"zip_code":"0490441","kana_pref":"ﾎｯｶｲﾄﾞｳ","kana_city":"ｶﾐｲｿｸﾞﾝｷｺﾅｲﾁｮｳ","kana_address":"ﾅｶﾉ","pref":"北海道","city":"上磯郡木古内町","address":"中野"},
{"zip_code":"0490406","kana_pref":"ﾎｯｶｲﾄﾞｳ","kana_city":"ｶﾐｲｿｸﾞﾝｷｺﾅｲﾁｮｳ","kana_address":"ﾆﾉﾀｲ","pref":"北海道","city":"上磯郡木古内町","address":"二乃岱"},
{"zip_code":"0490407","kana_pref":"ﾎｯｶｲﾄﾞｳ","kana_city":"ｶﾐｲｿｸﾞﾝｷｺﾅｲﾁｮｳ","kana_address":"ﾊｼｸﾚ","pref":"北海道","city":"上磯郡木古内町","address":"橋呉"},
{"zip_code":"0490422","kana_pref":"ﾎｯｶｲﾄﾞｳ","kana_city":"ｶﾐｲｿｸﾞﾝｷｺﾅｲﾁｮｳ","kana_address":"ﾎﾝﾁｮｳ","pref":"北海道","city":"上磯郡木古内町","address":"本町"},
{"zip_code":"0490421","kana_pref":"ﾎｯｶｲﾄﾞｳ","kana_city":"ｶﾐｲｿｸﾞﾝｷｺﾅｲﾁｮｳ","kana_address":"ﾏｴﾊﾏ","pref":"北海道","city":"上磯郡木古内町","address":"前浜"},
{"zip_code":"0492300","kana_pref":"ﾎｯｶｲﾄﾞｳ","kana_city":"ｶﾔﾍﾞｸﾞﾝﾓﾘﾏﾁ","kana_address":"","pref":"北海道","city":"茅部郡森町","address":""},
{"zip_code":"0492142","kana_pref":"ﾎｯｶｲﾄﾞｳ","kana_city":"ｶﾔﾍﾞｸﾞﾝﾓﾘﾏﾁ","kana_address":"ｱｶｲｶﾞﾜ","pref":"北海道","city":"茅部郡森町","address":"赤井川"},
{"zip_code":"0492463","kana_pref":"ﾎｯｶｲﾄﾞｳ","kana_city":"ｶﾔﾍﾞｸﾞﾝﾓﾘﾏﾁ","kana_address":"ｲｼｸﾗﾁｮｳ","pref":"北海道","city":"茅部郡森町","address":"石倉町"},
{"zip_code":"0492311","kana_pref":"ﾎｯｶｲﾄﾞｳ","kana_city":"ｶﾔﾍﾞｸﾞﾝﾓﾘﾏﾁ","kana_address":"ｳﾜﾀﾞｲﾁｮｳ","pref":"北海道","city":"茅部郡森町","address":"上台町"},
{"zip_code":"0492465","kana_pref":"ﾎｯｶｲﾄﾞｳ","kana_city":"ｶﾔﾍﾞｸﾞﾝﾓﾘﾏﾁ","kana_address":"ｴﾋﾞﾔﾁｮｳ","pref":"北海道","city":"茅部郡森町","address":"蛯谷町"},
{"zip_code":"0492301","kana_pref":"ﾎｯｶｲﾄﾞｳ","kana_city":"ｶﾔﾍﾞｸﾞﾝﾓﾘﾏﾁ","kana_address":"ｵｼﾛﾅｲﾁｮｳ","pref":"北海道","city":"茅部郡森町","address":"尾白内町"},
{"zip_code":"0492312","kana_pref":"ﾎｯｶｲﾄﾞｳ","kana_city":"ｶﾔﾍﾞｸﾞﾝﾓﾘﾏﾁ","kana_address":"ｶｽﾐﾀﾞｲ","pref":"北海道","city":"茅部郡森町","address":"霞台"},
{"zip_code":"0492327","kana_pref":"ﾎｯｶｲﾄﾞｳ","kana_city":"ｶﾔﾍﾞｸﾞﾝﾓﾘﾏﾁ","kana_address":"ｷﾖｽﾞﾐﾁｮｳ","pref":"北海道","city":"茅部郡森町","address":"清澄町"},
{"zip_code":"0492324","kana_pref":"ﾎｯｶｲﾄﾞｳ","kana_city":"ｶﾔﾍﾞｸﾞﾝﾓﾘﾏﾁ","kana_address":"ｸﾘｶﾞｵｶ","pref":"北海道","city":"茅部郡森町","address":"栗ケ丘"},
{"zip_code":"0492141","kana_pref":"ﾎｯｶｲﾄﾞｳ","kana_city":"ｶﾔﾍﾞｸﾞﾝﾓﾘﾏﾁ","kana_address":"ｺﾏｶﾞﾀｹ","pref":"北海道","city":"茅部郡森町","address":"駒ケ岳"},
{"zip_code":"0492308","kana_pref":"ﾎｯｶｲﾄﾞｳ","kana_city":"ｶﾔﾍﾞｸﾞﾝﾓﾘﾏﾁ","kana_address":"ｻｶｴﾏﾁ","pref":"北海道","city":"茅部郡森町","address":"栄町"},
{"zip_code":"0492222","kana_pref":"ﾎｯｶｲﾄﾞｳ","kana_city":"ｶﾔﾍﾞｸﾞﾝﾓﾘﾏﾁ","kana_address":"ｻﾜﾗ","pref":"北海道","city":"茅部郡森町","address":"砂原"},
{"zip_code":"0492221","kana_pref":"ﾎｯｶｲﾄﾞｳ","kana_city":"ｶﾔﾍﾞｸﾞﾝﾓﾘﾏﾁ","kana_address":"ｻﾜﾗﾆｼ","pref":"北海道","city":"茅部郡森町","address":"砂原西"},
{"zip_code":"0492223","kana_pref":"ﾎｯｶｲﾄﾞｳ","kana_city":"ｶﾔﾍﾞｸﾞﾝﾓﾘﾏﾁ","kana_address":"ｻﾜﾗﾋｶﾞｼ","pref":"北海道","city":"茅部郡森町","address":"砂原東"},
{"zip_code":"0492461","kana_pref":"ﾎｯｶｲﾄﾞｳ","kana_city":"ｶﾔﾍﾞｸﾞﾝﾓﾘﾏﾁ","kana_address":"ｻﾝﾀｲ","pref":"北海道","city":"茅部郡森町","address":"三岱"},
{"zip_code":"0492307","kana_pref":"ﾎｯｶｲﾄﾞｳ","kana_city":"ｶﾔﾍﾞｸﾞﾝﾓﾘﾏﾁ","kana_address":"ｼﾗｶﾜ","pref":"北海道","city":"茅部郡森町","address":"白川"},
{"zip_code":"0492304","kana_pref":"ﾎｯｶｲﾄﾞｳ","kana_city":"ｶﾔﾍﾞｸﾞﾝﾓﾘﾏﾁ","kana_address":"ｼﾝｶﾜﾁｮｳ","pref":"北海道","city":"茅部郡森町","address":"新川町"},
{"zip_code":"0492305","kana_pref":"ﾎｯｶｲﾄﾞｳ","kana_city":"ｶﾔﾍﾞｸﾞﾝﾓﾘﾏﾁ","kana_address":"ﾄｷﾜﾁｮｳ","pref":"北海道","city":"茅部郡森町","address":"常盤町"},
{"zip_code":"0492323","kana_pref":"ﾎｯｶｲﾄﾞｳ","kana_city":"ｶﾔﾍﾞｸﾞﾝﾓﾘﾏﾁ","kana_address":"ﾄﾘｻﾞｷﾁｮｳ","pref":"北海道","city":"茅部郡森町","address":"鳥崎町"},
{"zip_code":"0492462","kana_pref":"ﾎｯｶｲﾄﾞｳ","kana_city":"ｶﾔﾍﾞｸﾞﾝﾓﾘﾏﾁ","kana_address":"ﾆｺﾞﾘｶﾜ","pref":"北海道","city":"茅部郡森町","address":"濁川"},
{"zip_code":"0492303","kana_pref":"ﾎｯｶｲﾄﾞｳ","kana_city":"ｶﾔﾍﾞｸﾞﾝﾓﾘﾏﾁ","kana_address":"ﾋｶﾞｼﾓﾘﾁｮｳ","pref":"北海道","city":"茅部郡森町","address":"東森町"},
{"zip_code":"0492306","kana_pref":"ﾎｯｶｲﾄﾞｳ","kana_city":"ｶﾔﾍﾞｸﾞﾝﾓﾘﾏﾁ","kana_address":"ﾋﾒｶﾜ","pref":"北海道","city":"茅部郡森町","address":"姫川"},
{"zip_code":"0492322","kana_pref":"ﾎｯｶｲﾄﾞｳ","kana_city":"ｶﾔﾍﾞｸﾞﾝﾓﾘﾏﾁ","kana_address":"ﾌｼﾞﾐﾁｮｳ","pref":"北海道","city":"茅部郡森町","address":"富士見町"},
{"zip_code":"0492464","kana_pref":"ﾎｯｶｲﾄﾞｳ","kana_city":"ｶﾔﾍﾞｸﾞﾝﾓﾘﾏﾁ","kana_address":"ﾎﾝｶﾔﾍﾞﾁｮｳ","pref":"北海道","city":"茅部郡森町","address":"本茅部町"},
{"zip_code":"0492325","kana_pref":"ﾎｯｶｲﾄﾞｳ","kana_city":"ｶﾔﾍﾞｸﾞﾝﾓﾘﾏﾁ","kana_address":"ﾎﾝﾁｮｳ","pref":"北海道","city":"茅部郡森町","address":"本町"},
{"zip_code":"0492302","kana_pref":"ﾎｯｶｲﾄﾞｳ","kana_city":"ｶﾔﾍﾞｸﾞﾝﾓﾘﾏﾁ","kana_address":"ﾐﾅﾄﾏﾁ","pref":"北海道","city":"茅部郡森町","address":"港町"},
{"zip_code":"0492326","kana_pref":"ﾎｯｶｲﾄﾞｳ","kana_city":"ｶﾔﾍﾞｸﾞﾝﾓﾘﾏﾁ","kana_address":"ﾐﾕｷﾁｮｳ","pref":"北海道","city":"茅部郡森町","address":"御幸町"},
{"zip_code":"0492313","kana_pref":"ﾎｯｶｲﾄﾞｳ","kana_city":"ｶﾔﾍﾞｸﾞﾝﾓﾘﾏﾁ","kana_address":"ﾓﾘｶﾜﾁｮｳ","pref":"北海道","city":"茅部郡森町","address":"森川町"},
{"zip_code":"0492321","kana_pref":"ﾎｯｶｲﾄﾞｳ","kana_city":"ｶﾔﾍﾞｸﾞﾝﾓﾘﾏﾁ","kana_address":"ﾜｼﾉｷﾁｮｳ","pref":"北海道","city":"茅部郡森町","address":"鷲ノ木町"},
{"zip_code":"0493100","kana_pref":"ﾎｯｶｲﾄﾞｳ","kana_city":"ﾌﾀﾐｸﾞﾝﾔｸﾓﾁｮｳ","kana_address":"","pref":"北海道","city":"二海郡八雲町","address":""},
{"zip_code":"0493113","kana_pref":"ﾎｯｶｲﾄﾞｳ","kana_city":"ﾌﾀﾐｸﾞﾝﾔｸﾓﾁｮｳ","kana_address":"ｱｲｵｲﾁｮｳ","pref":"北海道","city":"二海郡八雲町","address":"相生町"},
{"zip_code":"0492561","kana_pref":"ﾎｯｶｲﾄﾞｳ","kana_city":"ﾌﾀﾐｸﾞﾝﾔｸﾓﾁｮｳ","kana_address":"ｱｻﾋｵｶ","pref":"北海道","city":"二海郡八雲町","address":"旭丘"},
{"zip_code":"0493125","kana_pref":"ﾎｯｶｲﾄﾞｳ","kana_city":"ﾌﾀﾐｸﾞﾝﾔｸﾓﾁｮｳ","kana_address":"ｱﾂﾀ","pref":"北海道","city":"二海郡八雲町","address":"熱田"},
{"zip_code":"0493115","kana_pref":"ﾎｯｶｲﾄﾞｳ","kana_city":"ﾌﾀﾐｸﾞﾝﾔｸﾓﾁｮｳ","kana_address":"ｲｽﾞﾓﾁｮｳ","pref":"北海道","city":"二海郡八雲町","address":"出雲町"},
{"zip_code":"0492564","kana_pref":"ﾎｯｶｲﾄﾞｳ","kana_city":"ﾌﾀﾐｸﾞﾝﾔｸﾓﾁｮｳ","kana_address":"ｲﾘｻﾜ","pref":"北海道","city":"二海郡八雲町","address":"入沢"},
{"zip_code":"0493104","kana_pref":"ﾎｯｶｲﾄﾞｳ","kana_city":"ﾌﾀﾐｸﾞﾝﾔｸﾓﾁｮｳ","kana_address":"ｳﾁｳﾗﾁｮｳ","pref":"北海道","city":"二海郡八雲町","address":"内浦町"},
{"zip_code":"0493126","kana_pref":"ﾎｯｶｲﾄﾞｳ","kana_city":"ﾌﾀﾐｸﾞﾝﾔｸﾓﾁｮｳ","kana_address":"ｵｵｼﾝ","pref":"北海道","city":"二海郡八雲町","address":"大新"},
{"zip_code":"0492562","kana_pref":"ﾎｯｶｲﾄﾞｳ","kana_city":"ﾌﾀﾐｸﾞﾝﾔｸﾓﾁｮｳ","kana_address":"ｵﾄｼﾍﾞ","pref":"北海道","city":"二海郡八雲町","address":"落部"},
{"zip_code":"0493127","kana_pref":"ﾎｯｶｲﾄﾞｳ","kana_city":"ﾌﾀﾐｸﾞﾝﾔｸﾓﾁｮｳ","kana_address":"ｶｽｶﾞ","pref":"北海道","city":"二海郡八雲町","address":"春日"},
{"zip_code":"0492566","kana_pref":"ﾎｯｶｲﾄﾞｳ","kana_city":"ﾌﾀﾐｸﾞﾝﾔｸﾓﾁｮｳ","kana_address":"ｶﾐﾉﾕ","pref":"北海道","city":"二海郡八雲町","address":"上の湯"},
{"zip_code":"0493121","kana_pref":"ﾎｯｶｲﾄﾞｳ","kana_city":"ﾌﾀﾐｸﾞﾝﾔｸﾓﾁｮｳ","kana_address":"ｶﾐﾔｸﾓ","pref":"北海道","city":"二海郡八雲町","address":"上八雲"},
{"zip_code":"0493341","kana_pref":"ﾎｯｶｲﾄﾞｳ","kana_city":"ﾌﾀﾐｸﾞﾝﾔｸﾓﾁｮｳ","kana_address":"ｸﾛｲﾜ","pref":"北海道","city":"二海郡八雲町","address":"黒岩"},
{"zip_code":"0493117","kana_pref":"ﾎｯｶｲﾄﾞｳ","kana_city":"ﾌﾀﾐｸﾞﾝﾔｸﾓﾁｮｳ","kana_address":"ｻｶｴﾁｮｳ","pref":"北海道","city":"二海郡八雲町","address":"栄町"},
{"zip_code":"0492563","kana_pref":"ﾎｯｶｲﾄﾞｳ","kana_city":"ﾌﾀﾐｸﾞﾝﾔｸﾓﾁｮｳ","kana_address":"ｻｶｴﾊﾏ","pref":"北海道","city":"二海郡八雲町","address":"栄浜"},
{"zip_code":"0492675","kana_pref":"ﾎｯｶｲﾄﾞｳ","kana_city":"ﾌﾀﾐｸﾞﾝﾔｸﾓﾁｮｳ","kana_address":"ｻｸﾗﾉ","pref":"北海道","city":"二海郡八雲町","address":"桜野"},
{"zip_code":"0493105","kana_pref":"ﾎｯｶｲﾄﾞｳ","kana_city":"ﾌﾀﾐｸﾞﾝﾔｸﾓﾁｮｳ","kana_address":"ｼﾉﾉﾒﾁｮｳ","pref":"北海道","city":"二海郡八雲町","address":"東雲町"},
{"zip_code":"0492565","kana_pref":"ﾎｯｶｲﾄﾞｳ","kana_city":"ﾌﾀﾐｸﾞﾝﾔｸﾓﾁｮｳ","kana_address":"ｼﾓﾉﾕ","pref":"北海道","city":"二海郡八雲町","address":"下の湯"},
{"zip_code":"0493112","kana_pref":"ﾎｯｶｲﾄﾞｳ","kana_city":"ﾌﾀﾐｸﾞﾝﾔｸﾓﾁｮｳ","kana_address":"ｽｴﾋﾛﾁｮｳ","pref":"北海道","city":"二海郡八雲町","address":"末広町"},
{"zip_code":"0493111","kana_pref":"ﾎｯｶｲﾄﾞｳ","kana_city":"ﾌﾀﾐｸﾞﾝﾔｸﾓﾁｮｳ","kana_address":"ｽﾐｿﾞﾒﾁｮｳ","pref":"北海道","city":"二海郡八雲町","address":"住初町"},
{"zip_code":"0493123","kana_pref":"ﾎｯｶｲﾄﾞｳ","kana_city":"ﾌﾀﾐｸﾞﾝﾔｸﾓﾁｮｳ","kana_address":"ﾀﾃｲﾜ","pref":"北海道","city":"二海郡八雲町","address":"立岩"},
{"zip_code":"0493121","kana_pref":"ﾎｯｶｲﾄﾞｳ","kana_city":"ﾌﾀﾐｸﾞﾝﾔｸﾓﾁｮｳ","kana_address":"ﾄﾐｻｷ","pref":"北海道","city":"二海郡八雲町","address":"富咲"},
{"zip_code":"0493103","kana_pref":"ﾎｯｶｲﾄﾞｳ","kana_city":"ﾌﾀﾐｸﾞﾝﾔｸﾓﾁｮｳ","kana_address":"ﾄﾖｶﾜﾁｮｳ","pref":"北海道","city":"二海郡八雲町","address":"豊河町"},
{"zip_code":"0493128","kana_pref":"ﾎｯｶｲﾄﾞｳ","kana_city":"ﾌﾀﾐｸﾞﾝﾔｸﾓﾁｮｳ","kana_address":"ﾅﾏﾘｶﾜ","pref":"北海道","city":"二海郡八雲町","address":"鉛川"},
{"zip_code":"0492672","kana_pref":"ﾎｯｶｲﾄﾞｳ","kana_city":"ﾌﾀﾐｸﾞﾝﾔｸﾓﾁｮｳ","kana_address":"ﾉﾀﾞｵｲ","pref":"北海道","city":"二海郡八雲町","address":"野田生"},
{"zip_code":"0493122","kana_pref":"ﾎｯｶｲﾄﾞｳ","kana_city":"ﾌﾀﾐｸﾞﾝﾔｸﾓﾁｮｳ","kana_address":"ﾊﾅｳﾗ","pref":"北海道","city":"二海郡八雲町","address":"花浦"},
{"zip_code":"0493124","kana_pref":"ﾎｯｶｲﾄﾞｳ","kana_city":"ﾌﾀﾐｸﾞﾝﾔｸﾓﾁｮｳ","kana_address":"ﾊﾏﾏﾂ","pref":"北海道","city":"二海郡八雲町","address":"浜松"},
{"zip_code":"0493102","kana_pref":"ﾎｯｶｲﾄﾞｳ","kana_city":"ﾌﾀﾐｸﾞﾝﾔｸﾓﾁｮｳ","kana_address":"ﾋｶﾞｼﾁｮｳ","pref":"北海道","city":"二海郡八雲町","address":"東町"},
{"zip_code":"0492673","kana_pref":"ﾎｯｶｲﾄﾞｳ","kana_city":"ﾌﾀﾐｸﾞﾝﾔｸﾓﾁｮｳ","kana_address":"ﾋｶﾞｼﾉ","pref":"北海道","city":"二海郡八雲町","address":"東野"},
{"zip_code":"0493106","kana_pref":"ﾎｯｶｲﾄﾞｳ","kana_city":"ﾌﾀﾐｸﾞﾝﾔｸﾓﾁｮｳ","kana_address":"ﾌｼﾞﾐﾁｮｳ","pref":"北海道","city":"二海郡八雲町","address":"富士見町"},
{"zip_code":"0493107","kana_pref":"ﾎｯｶｲﾄﾞｳ","kana_city":"ﾌﾀﾐｸﾞﾝﾔｸﾓﾁｮｳ","kana_address":"ﾎﾝﾁｮｳ","pref":"北海道","city":"二海郡八雲町","address":"本町"},
{"zip_code":"0493114","kana_pref":"ﾎｯｶｲﾄﾞｳ","kana_city":"ﾌﾀﾐｸﾞﾝﾔｸﾓﾁｮｳ","kana_address":"ﾐｽｷﾞﾁｮｳ","pref":"北海道","city":"二海郡八雲町","address":"三杉町"},
{"zip_code":"0493118","kana_pref":"ﾎｯｶｲﾄﾞｳ","kana_city":"ﾌﾀﾐｸﾞﾝﾔｸﾓﾁｮｳ","kana_address":"ﾐﾄﾞﾘﾁｮｳ","pref":"北海道","city":"二海郡八雲町","address":"緑町"},
{"zip_code":"0493116","kana_pref":"ﾎｯｶｲﾄﾞｳ","kana_city":"ﾌﾀﾐｸﾞﾝﾔｸﾓﾁｮｳ","kana_address":"ﾐﾔｿﾞﾉﾁｮｳ","pref":"北海道","city":"二海郡八雲町","address":"宮園町"},
{"zip_code":"0493101","kana_pref":"ﾎｯｶｲﾄﾞｳ","kana_city":"ﾌﾀﾐｸﾞﾝﾔｸﾓﾁｮｳ","kana_address":"ﾓﾄﾏﾁ","pref":"北海道","city":"二海郡八雲町","address":"元町"},
{"zip_code":"0492671","kana_pref":"ﾎｯｶｲﾄﾞｳ","kana_city":"ﾌﾀﾐｸﾞﾝﾔｸﾓﾁｮｳ","kana_address":"ﾔﾏｺｼ","pref":"北海道","city":"二海郡八雲町","address":"山越"},
{"zip_code":"0493342","kana_pref":"ﾎｯｶｲﾄﾞｳ","kana_city":"ﾌﾀﾐｸﾞﾝﾔｸﾓﾁｮｳ","kana_address":"ﾔﾏｻﾞｷ","pref":"北海道","city":"二海郡八雲町","address":"山崎"},
{"zip_code":"0492674","kana_pref":"ﾎｯｶｲﾄﾞｳ","kana_city":"ﾌﾀﾐｸﾞﾝﾔｸﾓﾁｮｳ","kana_address":"ﾜﾗﾋﾞﾉ","pref":"北海道","city":"二海郡八雲町","address":"わらび野"},
{"zip_code":"0493500","kana_pref":"ﾎｯｶｲﾄﾞｳ","kana_city":"ﾔﾏｺｼｸﾞﾝｵｼｬﾏﾝﾍﾞﾁｮｳ","kana_address":"","pref":"北海道","city":"山越郡長万部町","address":""},
{"zip_code":"0493521","kana_pref":"ﾎｯｶｲﾄﾞｳ","kana_city":"ﾔﾏｺｼｸﾞﾝｵｼｬﾏﾝﾍﾞﾁｮｳ","kana_address":"ｱｹﾎﾞﾉﾁｮｳ","pref":"北海道","city":"山越郡長万部町","address":"曙町"},
{"zip_code":"0493519","kana_pref":"ﾎｯｶｲﾄﾞｳ","kana_city":"ﾔﾏｺｼｸﾞﾝｵｼｬﾏﾝﾍﾞﾁｮｳ","kana_address":"ｱｻﾋﾊﾏ","pref":"北海道","city":"山越郡長万部町","address":"旭浜"},
{"zip_code":"0493511","kana_pref":"ﾎｯｶｲﾄﾞｳ","kana_city":"ﾔﾏｺｼｸﾞﾝｵｼｬﾏﾝﾍﾞﾁｮｳ","kana_address":"ｵｵﾊﾏ","pref":"北海道","city":"山越郡長万部町","address":"大浜"},
{"zip_code":"0493521","kana_pref":"ﾎｯｶｲﾄﾞｳ","kana_city":"ﾔﾏｺｼｸﾞﾝｵｼｬﾏﾝﾍﾞﾁｮｳ","kana_address":"ｵｵﾏﾁ","pref":"北海道","city":"山越郡長万部町","address":"大町"},
{"zip_code":"0493501","kana_pref":"ﾎｯｶｲﾄﾞｳ","kana_city":"ﾔﾏｺｼｸﾞﾝｵｼｬﾏﾝﾍﾞﾁｮｳ","kana_address":"ｵｵﾐﾈ","pref":"北海道","city":"山越郡長万部町","address":"大峰"},
{"zip_code":"0493521","kana_pref":"ﾎｯｶｲﾄﾞｳ","kana_city":"ﾔﾏｺｼｸﾞﾝｵｼｬﾏﾝﾍﾞﾁｮｳ","kana_address":"ｵｼｬﾏﾝﾍﾞ","pref":"北海道","city":"山越郡長万部町","address":"長万部"},
{"zip_code":"0493521","kana_pref":"ﾎｯｶｲﾄﾞｳ","kana_city":"ﾔﾏｺｼｸﾞﾝｵｼｬﾏﾝﾍﾞﾁｮｳ","kana_address":"ｵﾝｾﾝﾏﾁ","pref":"北海道","city":"山越郡長万部町","address":"温泉町"},
{"zip_code":"0493517","kana_pref":"ﾎｯｶｲﾄﾞｳ","kana_city":"ﾔﾏｺｼｸﾞﾝｵｼｬﾏﾝﾍﾞﾁｮｳ","kana_address":"ｷｮｳﾘﾂ","pref":"北海道","city":"山越郡長万部町","address":"共立"},
{"zip_code":"0493515","kana_pref":"ﾎｯｶｲﾄﾞｳ","kana_city":"ﾔﾏｺｼｸﾞﾝｵｼｬﾏﾝﾍﾞﾁｮｳ","kana_address":"ｸﾘｵｶ","pref":"北海道","city":"山越郡長万部町","address":"栗岡"},
{"zip_code":"0493462","kana_pref":"ﾎｯｶｲﾄﾞｳ","kana_city":"ﾔﾏｺｼｸﾞﾝｵｼｬﾏﾝﾍﾞﾁｮｳ","kana_address":"ｸﾝﾇｲ","pref":"北海道","city":"山越郡長万部町","address":"国縫"},
{"zip_code":"0493516","kana_pref":"ﾎｯｶｲﾄﾞｳ","kana_city":"ﾔﾏｺｼｸﾞﾝｵｼｬﾏﾝﾍﾞﾁｮｳ","kana_address":"ｻｶｴﾊﾗ","pref":"北海道","city":"山越郡長万部町","address":"栄原"},
{"zip_code":"0493518","kana_pref":"ﾎｯｶｲﾄﾞｳ","kana_city":"ﾔﾏｺｼｸﾞﾝｵｼｬﾏﾝﾍﾞﾁｮｳ","kana_address":"ｼｽﾞｶﾘ","pref":"北海道","city":"山越郡長万部町","address":"静狩"},
{"zip_code":"0495141","kana_pref":"ﾎｯｶｲﾄﾞｳ","kana_city":"ﾔﾏｺｼｸﾞﾝｵｼｬﾏﾝﾍﾞﾁｮｳ","kana_address":"ｼｽﾞｶﾘ","pref":"北海道","city":"山越郡長万部町","address":"静狩"},
{"zip_code":"0493521","kana_pref":"ﾎｯｶｲﾄﾞｳ","kana_city":"ﾔﾏｺｼｸﾞﾝｵｼｬﾏﾝﾍﾞﾁｮｳ","kana_address":"ｼﾝｶｲﾁｮｳ","pref":"北海道","city":"山越郡長万部町","address":"新開町"},
{"zip_code":"0493521","kana_pref":"ﾎｯｶｲﾄﾞｳ","kana_city":"ﾔﾏｺｼｸﾞﾝｵｼｬﾏﾝﾍﾞﾁｮｳ","kana_address":"ｼﾞﾝﾔﾏﾁ","pref":"北海道","city":"山越郡長万部町","address":"陣屋町"},
{"zip_code":"0493521","kana_pref":"ﾎｯｶｲﾄﾞｳ","kana_city":"ﾔﾏｺｼｸﾞﾝｵｼｬﾏﾝﾍﾞﾁｮｳ","kana_address":"ｽﾐﾖｼﾁｮｳ","pref":"北海道","city":"山越郡長万部町","address":"住吉町"},
{"zip_code":"0493521","kana_pref":"ﾎｯｶｲﾄﾞｳ","kana_city":"ﾔﾏｺｼｸﾞﾝｵｼｬﾏﾝﾍﾞﾁｮｳ","kana_address":"ﾀｶｻｺﾞﾁｮｳ","pref":"北海道","city":"山越郡長万部町","address":"高砂町"},
{"zip_code":"0493465","kana_pref":"ﾎｯｶｲﾄﾞｳ","kana_city":"ﾔﾏｺｼｸﾞﾝｵｼｬﾏﾝﾍﾞﾁｮｳ","kana_address":"ﾁｬﾔｶﾞﾜ","pref":"北海道","city":"山越郡長万部町","address":"茶屋川"},
{"zip_code":"0493502","kana_pref":"ﾎｯｶｲﾄﾞｳ","kana_city":"ﾔﾏｺｼｸﾞﾝｵｼｬﾏﾝﾍﾞﾁｮｳ","kana_address":"ﾁﾗｲ","pref":"北海道","city":"山越郡長万部町","address":"知来"},
{"zip_code":"0493514","kana_pref":"ﾎｯｶｲﾄﾞｳ","kana_city":"ﾔﾏｺｼｸﾞﾝｵｼｬﾏﾝﾍﾞﾁｮｳ","kana_address":"ﾄﾐﾉ","pref":"北海道","city":"山越郡長万部町","address":"富野"},
{"zip_code":"0493464","kana_pref":"ﾎｯｶｲﾄﾞｳ","kana_city":"ﾔﾏｺｼｸﾞﾝｵｼｬﾏﾝﾍﾞﾁｮｳ","kana_address":"ﾄﾖﾂ","pref":"北海道","city":"山越郡長万部町","address":"豊津"},
{"zip_code":"0493463","kana_pref":"ﾎｯｶｲﾄﾞｳ","kana_city":"ﾔﾏｺｼｸﾞﾝｵｼｬﾏﾝﾍﾞﾁｮｳ","kana_address":"ﾄﾖﾉ","pref":"北海道","city":"山越郡長万部町","address":"豊野"},
{"zip_code":"0493512","kana_pref":"ﾎｯｶｲﾄﾞｳ","kana_city":"ﾔﾏｺｼｸﾞﾝｵｼｬﾏﾝﾍﾞﾁｮｳ","kana_address":"ﾅｶﾉｻﾜ","pref":"北海道","city":"山越郡長万部町","address":"中の沢"},
{"zip_code":"0493461","kana_pref":"ﾎｯｶｲﾄﾞｳ","kana_city":"ﾔﾏｺｼｸﾞﾝｵｼｬﾏﾝﾍﾞﾁｮｳ","kana_address":"ﾊﾅｵｶ","pref":"北海道","city":"山越郡長万部町","address":"花岡"},
{"zip_code":"0493504","kana_pref":"ﾎｯｶｲﾄﾞｳ","kana_city":"ﾔﾏｺｼｸﾞﾝｵｼｬﾏﾝﾍﾞﾁｮｳ","kana_address":"ﾋﾞﾊﾀ","pref":"北海道","city":"山越郡長万部町","address":"美畑"},
{"zip_code":"0493513","kana_pref":"ﾎｯｶｲﾄﾞｳ","kana_city":"ﾔﾏｺｼｸﾞﾝｵｼｬﾏﾝﾍﾞﾁｮｳ","kana_address":"ﾋﾗｻﾄ","pref":"北海道","city":"山越郡長万部町","address":"平里"},
{"zip_code":"0493501","kana_pref":"ﾎｯｶｲﾄﾞｳ","kana_city":"ﾔﾏｺｼｸﾞﾝｵｼｬﾏﾝﾍﾞﾁｮｳ","kana_address":"ﾌﾀﾊﾞ","pref":"北海道","city":"山越郡長万部町","address":"双葉"},
{"zip_code":"0493521","kana_pref":"ﾎｯｶｲﾄﾞｳ","kana_city":"ﾔﾏｺｼｸﾞﾝｵｼｬﾏﾝﾍﾞﾁｮｳ","kana_address":"ﾎﾝﾁｮｳ","pref":"北海道","city":"山越郡長万部町","address":"本町"},
{"zip_code":"0493521","kana_pref":"ﾎｯｶｲﾄﾞｳ","kana_city":"ﾔﾏｺｼｸﾞﾝｵｼｬﾏﾝﾍﾞﾁｮｳ","kana_address":"ﾐﾅﾐｻｶｴﾁｮｳ","pref":"北海道","city":"山越郡長万部町","address":"南栄町"},
{"zip_code":"0493521","kana_pref":"ﾎｯｶｲﾄﾞｳ","kana_city":"ﾔﾏｺｼｸﾞﾝｵｼｬﾏﾝﾍﾞﾁｮｳ","kana_address":"ﾓﾄﾏﾁ","pref":"北海道","city":"山越郡長万部町","address":"元町"},
{"zip_code":"0493503","kana_pref":"ﾎｯｶｲﾄﾞｳ","kana_city":"ﾔﾏｺｼｸﾞﾝｵｼｬﾏﾝﾍﾞﾁｮｳ","kana_address":"ﾜﾗﾋﾞﾀｲ","pref":"北海道","city":"山越郡長万部町","address":"蕨岱"},
{"zip_code":"0490600","kana_pref":"ﾎｯｶｲﾄﾞｳ","kana_city":"ﾋﾔﾏｸﾞﾝｶﾐﾉｸﾆﾁｮｳ","kana_address":"","pref":"北海道","city":"檜山郡上ノ国町","address":""},
{"zip_code":"0490741","kana_pref":"ﾎｯｶｲﾄﾞｳ","kana_city":"ﾋﾔﾏｸﾞﾝｶﾐﾉｸﾆﾁｮｳ","kana_address":"ｲｼｻﾞｷ","pref":"北海道","city":"檜山郡上ノ国町","address":"石崎"},
{"zip_code":"0490621","kana_pref":"ﾎｯｶｲﾄﾞｳ","kana_city":"ﾋﾔﾏｸﾞﾝｶﾐﾉｸﾆﾁｮｳ","kana_address":"ｳﾁｺﾞｳ","pref":"北海道","city":"檜山郡上ノ国町","address":"内郷"},
{"zip_code":"0490607","kana_pref":"ﾎｯｶｲﾄﾞｳ","kana_city":"ﾋﾔﾏｸﾞﾝｶﾐﾉｸﾆﾁｮｳ","kana_address":"ｵｳｷﾞｲｼ","pref":"北海道","city":"檜山郡上ノ国町","address":"扇石"},
{"zip_code":"0490604","kana_pref":"ﾎｯｶｲﾄﾞｳ","kana_city":"ﾋﾔﾏｸﾞﾝｶﾐﾉｸﾆﾁｮｳ","kana_address":"ｵｵｱﾝｻﾞｲ","pref":"北海道","city":"檜山郡上ノ国町","address":"大安在"},
{"zip_code":"0490603","kana_pref":"ﾎｯｶｲﾄﾞｳ","kana_city":"ﾋﾔﾏｸﾞﾝｶﾐﾉｸﾆﾁｮｳ","kana_address":"ｵｵｻｷ","pref":"北海道","city":"檜山郡上ノ国町","address":"大崎"},
{"zip_code":"0490611","kana_pref":"ﾎｯｶｲﾄﾞｳ","kana_city":"ﾋﾔﾏｸﾞﾝｶﾐﾉｸﾆﾁｮｳ","kana_address":"ｵｵﾄﾞﾒ","pref":"北海道","city":"檜山郡上ノ国町","address":"大留"},
{"zip_code":"0490601","kana_pref":"ﾎｯｶｲﾄﾞｳ","kana_city":"ﾋﾔﾏｸﾞﾝｶﾐﾉｸﾆﾁｮｳ","kana_address":"ｶﾂﾔﾏ","pref":"北海道","city":"檜山郡上ノ国町","address":"勝山"},
{"zip_code":"0490626","kana_pref":"ﾎｯｶｲﾄﾞｳ","kana_city":"ﾋﾔﾏｸﾞﾝｶﾐﾉｸﾆﾁｮｳ","kana_address":"ｶﾂﾗｵｶ","pref":"北海道","city":"檜山郡上ノ国町","address":"桂岡"},
{"zip_code":"0490612","kana_pref":"ﾎｯｶｲﾄﾞｳ","kana_city":"ﾋﾔﾏｸﾞﾝｶﾐﾉｸﾆﾁｮｳ","kana_address":"ｶﾐﾉｸﾆ","pref":"北海道","city":"檜山郡上ノ国町","address":"上ノ国"},
{"zip_code":"0490622","kana_pref":"ﾎｯｶｲﾄﾞｳ","kana_city":"ﾋﾔﾏｸﾞﾝｶﾐﾉｸﾆﾁｮｳ","kana_address":"ｷﾀﾑﾗ","pref":"北海道","city":"檜山郡上ノ国町","address":"北村"},
{"zip_code":"0490606","kana_pref":"ﾎｯｶｲﾄﾞｳ","kana_city":"ﾋﾔﾏｸﾞﾝｶﾐﾉｸﾆﾁｮｳ","kana_address":"ｷﾉｺ","pref":"北海道","city":"檜山郡上ノ国町","address":"木ノ子"},
{"zip_code":"0490605","kana_pref":"ﾎｯｶｲﾄﾞｳ","kana_city":"ﾋﾔﾏｸﾞﾝｶﾐﾉｸﾆﾁｮｳ","kana_address":"ｺｱﾝｻﾞｲ","pref":"北海道","city":"檜山郡上ノ国町","address":"小安在"},
{"zip_code":"0490627","kana_pref":"ﾎｯｶｲﾄﾞｳ","kana_city":"ﾋﾔﾏｸﾞﾝｶﾐﾉｸﾆﾁｮｳ","kana_address":"ｺﾓﾘ","pref":"北海道","city":"檜山郡上ノ国町","address":"小森"},
{"zip_code":"0490608","kana_pref":"ﾎｯｶｲﾄﾞｳ","kana_city":"ﾋﾔﾏｸﾞﾝｶﾐﾉｸﾆﾁｮｳ","kana_address":"ｼｵﾌｷ","pref":"北海道","city":"檜山郡上ノ国町","address":"汐吹"},
{"zip_code":"0490623","kana_pref":"ﾎｯｶｲﾄﾞｳ","kana_city":"ﾋﾔﾏｸﾞﾝｶﾐﾉｸﾆﾁｮｳ","kana_address":"ｼﾝﾑﾗ","pref":"北海道","city":"檜山郡上ノ国町","address":"新村"},
{"zip_code":"0490561","kana_pref":"ﾎｯｶｲﾄﾞｳ","kana_city":"ﾋﾔﾏｸﾞﾝｶﾐﾉｸﾆﾁｮｳ","kana_address":"ｼﾝﾒｲ","pref":"北海道","city":"檜山郡上ノ国町","address":"神明"},
{"zip_code":"0490742","kana_pref":"ﾎｯｶｲﾄﾞｳ","kana_city":"ﾋﾔﾏｸﾞﾝｶﾐﾉｸﾆﾁｮｳ","kana_address":"ﾀﾃﾉ","pref":"北海道","city":"檜山郡上ノ国町","address":"館野"},
{"zip_code":"0490743","kana_pref":"ﾎｯｶｲﾄﾞｳ","kana_city":"ﾋﾔﾏｸﾞﾝｶﾐﾉｸﾆﾁｮｳ","kana_address":"ﾁｲｻｺﾞ","pref":"北海道","city":"檜山郡上ノ国町","address":"小砂子"},
{"zip_code":"0490625","kana_pref":"ﾎｯｶｲﾄﾞｳ","kana_city":"ﾋﾔﾏｸﾞﾝｶﾐﾉｸﾆﾁｮｳ","kana_address":"ﾄﾖﾀ","pref":"北海道","city":"檜山郡上ノ国町","address":"豊田"},
{"zip_code":"0490624","kana_pref":"ﾎｯｶｲﾄﾞｳ","kana_city":"ﾋﾔﾏｸﾞﾝｶﾐﾉｸﾆﾁｮｳ","kana_address":"ﾅｶｽﾀﾞ","pref":"北海道","city":"檜山郡上ノ国町","address":"中須田"},
{"zip_code":"0490744","kana_pref":"ﾎｯｶｲﾄﾞｳ","kana_city":"ﾋﾔﾏｸﾞﾝｶﾐﾉｸﾆﾁｮｳ","kana_address":"ﾊﾔｶﾜ","pref":"北海道","city":"檜山郡上ノ国町","address":"早川"},
{"zip_code":"0490564","kana_pref":"ﾎｯｶｲﾄﾞｳ","kana_city":"ﾋﾔﾏｸﾞﾝｶﾐﾉｸﾆﾁｮｳ","kana_address":"ﾊﾔｾ","pref":"北海道","city":"檜山郡上ノ国町","address":"早瀬"},
{"zip_code":"0490602","kana_pref":"ﾎｯｶｲﾄﾞｳ","kana_city":"ﾋﾔﾏｸﾞﾝｶﾐﾉｸﾆﾁｮｳ","kana_address":"ﾊﾗｳﾀ","pref":"北海道","city":"檜山郡上ノ国町","address":"原歌"},
{"zip_code":"0490563","kana_pref":"ﾎｯｶｲﾄﾞｳ","kana_city":"ﾋﾔﾏｸﾞﾝｶﾐﾉｸﾆﾁｮｳ","kana_address":"ﾐﾔｺｼ","pref":"北海道","city":"檜山郡上ノ国町","address":"宮越"},
{"zip_code":"0490613","kana_pref":"ﾎｯｶｲﾄﾞｳ","kana_city":"ﾋﾔﾏｸﾞﾝｶﾐﾉｸﾆﾁｮｳ","kana_address":"ﾑｶｲﾊﾏ","pref":"北海道","city":"檜山郡上ノ国町","address":"向浜"},
{"zip_code":"0490562","kana_pref":"ﾎｯｶｲﾄﾞｳ","kana_city":"ﾋﾔﾏｸﾞﾝｶﾐﾉｸﾆﾁｮｳ","kana_address":"ﾕﾉﾀｲ","pref":"北海道","city":"檜山郡上ノ国町","address":"湯ノ岱"},
{"zip_code":"0494300","kana_pref":"ﾎｯｶｲﾄﾞｳ","kana_city":"ｾﾀﾅｸﾞﾝｲﾏｶﾈﾁｮｳ","kana_address":"","pref":"北海道","city":"瀬棚郡今金町","address":""},
{"zip_code":"0494303","kana_pref":"ﾎｯｶｲﾄﾞｳ","kana_city":"ｾﾀﾅｸﾞﾝｲﾏｶﾈﾁｮｳ","kana_address":"ｱｹﾎﾞﾉﾁｮｳ","pref":"北海道","city":"瀬棚郡今金町","address":"曙町"},
{"zip_code":"0494312","kana_pref":"ﾎｯｶｲﾄﾞｳ","kana_city":"ｾﾀﾅｸﾞﾝｲﾏｶﾈﾁｮｳ","kana_address":"ｱｻﾋﾁｮｳ","pref":"北海道","city":"瀬棚郡今金町","address":"旭町"},
{"zip_code":"0494301","kana_pref":"ﾎｯｶｲﾄﾞｳ","kana_city":"ｾﾀﾅｸﾞﾝｲﾏｶﾈﾁｮｳ","kana_address":"ｱｽﾞﾏﾁｮｳ","pref":"北海道","city":"瀬棚郡今金町","address":"東町"},
{"zip_code":"0494325","kana_pref":"ﾎｯｶｲﾄﾞｳ","kana_city":"ｾﾀﾅｸﾞﾝｲﾏｶﾈﾁｮｳ","kana_address":"ｲﾅﾎ","pref":"北海道","city":"瀬棚郡今金町","address":"稲穂"},
{"zip_code":"0494308","kana_pref":"ﾎｯｶｲﾄﾞｳ","kana_city":"ｾﾀﾅｸﾞﾝｲﾏｶﾈﾁｮｳ","kana_address":"ｲﾏｶﾈ","pref":"北海道","city":"瀬棚郡今金町","address":"今金"},
{"zip_code":"0494155","kana_pref":"ﾎｯｶｲﾄﾞｳ","kana_city":"ｾﾀﾅｸﾞﾝｲﾏｶﾈﾁｮｳ","kana_address":"ｵｸｻﾜ","pref":"北海道","city":"瀬棚郡今金町","address":"奥沢"},
{"zip_code":"0494327","kana_pref":"ﾎｯｶｲﾄﾞｳ","kana_city":"ｾﾀﾅｸﾞﾝｲﾏｶﾈﾁｮｳ","kana_address":"ｶﾐｵｶ","pref":"北海道","city":"瀬棚郡今金町","address":"神丘"},
{"zip_code":"0494157","kana_pref":"ﾎｯｶｲﾄﾞｳ","kana_city":"ｾﾀﾅｸﾞﾝｲﾏｶﾈﾁｮｳ","kana_address":"ｶﾐﾀﾈｶﾞﾜ","pref":"北海道","city":"瀬棚郡今金町","address":"上種川"},
{"zip_code":"0494304","kana_pref":"ﾎｯｶｲﾄﾞｳ","kana_city":"ｾﾀﾅｸﾞﾝｲﾏｶﾈﾁｮｳ","kana_address":"ｶﾝﾉﾎﾞﾘ","pref":"北海道","city":"瀬棚郡今金町","address":"寒昇"},
{"zip_code":"0494335","kana_pref":"ﾎｯｶｲﾄﾞｳ","kana_city":"ｾﾀﾅｸﾞﾝｲﾏｶﾈﾁｮｳ","kana_address":"ｷﾝﾊﾞﾗ","pref":"北海道","city":"瀬棚郡今金町","address":"金原"},
{"zip_code":"0494311","kana_pref":"ﾎｯｶｲﾄﾞｳ","kana_city":"ｾﾀﾅｸﾞﾝｲﾏｶﾈﾁｮｳ","kana_address":"ｻｶｴﾁｮｳ","pref":"北海道","city":"瀬棚郡今金町","address":"栄町"},
{"zip_code":"0494326","kana_pref":"ﾎｯｶｲﾄﾞｳ","kana_city":"ｾﾀﾅｸﾞﾝｲﾏｶﾈﾁｮｳ","kana_address":"ｼｮｳｺｳﾀﾞﾝﾁ","pref":"北海道","city":"瀬棚郡今金町","address":"商工団地"},
{"zip_code":"0494314","kana_pref":"ﾎｯｶｲﾄﾞｳ","kana_city":"ｾﾀﾅｸﾞﾝｲﾏｶﾈﾁｮｳ","kana_address":"ｼｮｳﾜﾁｮｳ","pref":"北海道","city":"瀬棚郡今金町","address":"昭和町"},
{"zip_code":"0494332","kana_pref":"ﾎｯｶｲﾄﾞｳ","kana_city":"ｾﾀﾅｸﾞﾝｲﾏｶﾈﾁｮｳ","kana_address":"ｼﾗｲｼ","pref":"北海道","city":"瀬棚郡今金町","address":"白石"},
{"zip_code":"0494315","kana_pref":"ﾎｯｶｲﾄﾞｳ","kana_city":"ｾﾀﾅｸﾞﾝｲﾏｶﾈﾁｮｳ","kana_address":"ｽｴﾋﾛﾁｮｳ","pref":"北海道","city":"瀬棚郡今金町","address":"末広町"},
{"zip_code":"0494321","kana_pref":"ﾎｯｶｲﾄﾞｳ","kana_city":"ｾﾀﾅｸﾞﾝｲﾏｶﾈﾁｮｳ","kana_address":"ｽｽﾞｵｶ","pref":"北海道","city":"瀬棚郡今金町","address":"鈴岡"},
{"zip_code":"0494336","kana_pref":"ﾎｯｶｲﾄﾞｳ","kana_city":"ｾﾀﾅｸﾞﾝｲﾏｶﾈﾁｮｳ","kana_address":"ｽｽﾞｶﾈ","pref":"北海道","city":"瀬棚郡今金町","address":"鈴金"},
{"zip_code":"0494156","kana_pref":"ﾎｯｶｲﾄﾞｳ","kana_city":"ｾﾀﾅｸﾞﾝｲﾏｶﾈﾁｮｳ","kana_address":"ｽﾐﾖｼ","pref":"北海道","city":"瀬棚郡今金町","address":"住吉"},
{"zip_code":"0494306","kana_pref":"ﾎｯｶｲﾄﾞｳ","kana_city":"ｾﾀﾅｸﾞﾝｲﾏｶﾈﾁｮｳ","kana_address":"ﾀｶﾐﾁｮｳ","pref":"北海道","city":"瀬棚郡今金町","address":"高美町"},
{"zip_code":"0494331","kana_pref":"ﾎｯｶｲﾄﾞｳ","kana_city":"ｾﾀﾅｸﾞﾝｲﾏｶﾈﾁｮｳ","kana_address":"ﾀｼﾛ","pref":"北海道","city":"瀬棚郡今金町","address":"田代"},
{"zip_code":"0494324","kana_pref":"ﾎｯｶｲﾄﾞｳ","kana_city":"ｾﾀﾅｸﾞﾝｲﾏｶﾈﾁｮｳ","kana_address":"ﾀﾈｶﾜ","pref":"北海道","city":"瀬棚郡今金町","address":"種川"},
{"zip_code":"0494337","kana_pref":"ﾎｯｶｲﾄﾞｳ","kana_city":"ｾﾀﾅｸﾞﾝｲﾏｶﾈﾁｮｳ","kana_address":"ﾄﾖﾀ","pref":"北海道","city":"瀬棚郡今金町","address":"豊田"},
{"zip_code":"0494154","kana_pref":"ﾎｯｶｲﾄﾞｳ","kana_city":"ｾﾀﾅｸﾞﾝｲﾏｶﾈﾁｮｳ","kana_address":"ﾅｶｻﾄ","pref":"北海道","city":"瀬棚郡今金町","address":"中里"},
{"zip_code":"0494305","kana_pref":"ﾎｯｶｲﾄﾞｳ","kana_city":"ｾﾀﾅｸﾞﾝｲﾏｶﾈﾁｮｳ","kana_address":"ﾅﾝｴｲﾁｮｳ","pref":"北海道","city":"瀬棚郡今金町","address":"南栄町"},
{"zip_code":"0494333","kana_pref":"ﾎｯｶｲﾄﾞｳ","kana_city":"ｾﾀﾅｸﾞﾝｲﾏｶﾈﾁｮｳ","kana_address":"ﾆｯｼﾝ","pref":"北海道","city":"瀬棚郡今金町","address":"日進"},
{"zip_code":"0494307","kana_pref":"ﾎｯｶｲﾄﾞｳ","kana_city":"ｾﾀﾅｸﾞﾝｲﾏｶﾈﾁｮｳ","kana_address":"ﾊﾁﾏﾝﾁｮｳ","pref":"北海道","city":"瀬棚郡今金町","address":"八幡町"},
{"zip_code":"0494153","kana_pref":"ﾎｯｶｲﾄﾞｳ","kana_city":"ｾﾀﾅｸﾞﾝｲﾏｶﾈﾁｮｳ","kana_address":"ﾊﾅｲｼ","pref":"北海道","city":"瀬棚郡今金町","address":"花石"},
{"zip_code":"0494323","kana_pref":"ﾎｯｶｲﾄﾞｳ","kana_city":"ｾﾀﾅｸﾞﾝｲﾏｶﾈﾁｮｳ","kana_address":"ﾋｶﾘﾀﾞｲ","pref":"北海道","city":"瀬棚郡今金町","address":"光台"},
{"zip_code":"0494302","kana_pref":"ﾎｯｶｲﾄﾞｳ","kana_city":"ｾﾀﾅｸﾞﾝｲﾏｶﾈﾁｮｳ","kana_address":"ﾋﾉﾃﾞﾁｮｳ","pref":"北海道","city":"瀬棚郡今金町","address":"日の出町"},
{"zip_code":"0494151","kana_pref":"ﾎｯｶｲﾄﾞｳ","kana_city":"ｾﾀﾅｸﾞﾝｲﾏｶﾈﾁｮｳ","kana_address":"ﾋﾟﾘｶ","pref":"北海道","city":"瀬棚郡今金町","address":"美利河"},
{"zip_code":"0494313","kana_pref":"ﾎｯｶｲﾄﾞｳ","kana_city":"ｾﾀﾅｸﾞﾝｲﾏｶﾈﾁｮｳ","kana_address":"ﾎﾝﾁｮｳ","pref":"北海道","city":"瀬棚郡今金町","address":"本町"},
{"zip_code":"0494322","kana_pref":"ﾎｯｶｲﾄﾞｳ","kana_city":"ｾﾀﾅｸﾞﾝｲﾏｶﾈﾁｮｳ","kana_address":"ﾐｶｹﾞ","pref":"北海道","city":"瀬棚郡今金町","address":"御影"},
{"zip_code":"0494317","kana_pref":"ﾎｯｶｲﾄﾞｳ","kana_city":"ｾﾀﾅｸﾞﾝｲﾏｶﾈﾁｮｳ","kana_address":"ﾐﾄﾞﾘﾁｮｳ","pref":"北海道","city":"瀬棚郡今金町","address":"緑町"},
{"zip_code":"0494316","kana_pref":"ﾎｯｶｲﾄﾞｳ","kana_city":"ｾﾀﾅｸﾞﾝｲﾏｶﾈﾁｮｳ","kana_address":"ﾐﾅﾐﾁｮｳ","pref":"北海道","city":"瀬棚郡今金町","address":"南町"},
{"zip_code":"0494152","kana_pref":"ﾎｯｶｲﾄﾞｳ","kana_city":"ｾﾀﾅｸﾞﾝｲﾏｶﾈﾁｮｳ","kana_address":"ﾐﾔｼﾞﾏ","pref":"北海道","city":"瀬棚郡今金町","address":"宮島"},
{"zip_code":"0494334","kana_pref":"ﾎｯｶｲﾄﾞｳ","kana_city":"ｾﾀﾅｸﾞﾝｲﾏｶﾈﾁｮｳ","kana_address":"ﾔﾂｶ","pref":"北海道","city":"瀬棚郡今金町","address":"八束"},
{"zip_code":"0494318","kana_pref":"ﾎｯｶｲﾄﾞｳ","kana_city":"ｾﾀﾅｸﾞﾝｲﾏｶﾈﾁｮｳ","kana_address":"ﾔﾏﾄﾁｮｳ","pref":"北海道","city":"瀬棚郡今金町","address":"大和町"},
{"zip_code":"0494500","kana_pref":"ﾎｯｶｲﾄﾞｳ","kana_city":"ｸﾄﾞｳｸﾞﾝｾﾀﾅﾁｮｳ","kana_address":"","pref":"北海道","city":"久遠郡せたな町","address":""},
{"zip_code":"0494513","kana_pref":"ﾎｯｶｲﾄﾞｳ","kana_city":"ｸﾄﾞｳｸﾞﾝｾﾀﾅﾁｮｳ","kana_address":"ｷﾀﾋﾔﾏｸｱｲﾁ","pref":"北海道","city":"久遠郡せたな町","address":"北檜山区愛知"},
{"zip_code":"0494431","kana_pref":"ﾎｯｶｲﾄﾞｳ","kana_city":"ｸﾄﾞｳｸﾞﾝｾﾀﾅﾁｮｳ","kana_address":"ｷﾀﾋﾔﾏｸｵｸﾞﾗﾔﾏ","pref":"北海道","city":"久遠郡せたな町","address":"北檜山区小倉山"},
{"zip_code":"0494515","kana_pref":"ﾎｯｶｲﾄﾞｳ","kana_city":"ｸﾄﾞｳｸﾞﾝｾﾀﾅﾁｮｳ","kana_address":"ｷﾀﾋﾔﾏｸｶﾌﾞﾄﾉ","pref":"北海道","city":"久遠郡せたな町","address":"北檜山区兜野"},
{"zip_code":"0494501","kana_pref":"ﾎｯｶｲﾄﾞｳ","kana_city":"ｸﾄﾞｳｸﾞﾝｾﾀﾅﾁｮｳ","kana_address":"ｷﾀﾋﾔﾏｸｷﾀﾋﾔﾏ","pref":"北海道","city":"久遠郡せたな町","address":"北檜山区北檜山"},
{"zip_code":"0494516","kana_pref":"ﾎｯｶｲﾄﾞｳ","kana_city":"ｸﾄﾞｳｸﾞﾝｾﾀﾅﾁｮｳ","kana_address":"ｷﾀﾋﾔﾏｸｷｮｳﾜ","pref":"北海道","city":"久遠郡せたな町","address":"北檜山区共和"},
{"zip_code":"0494753","kana_pref":"ﾎｯｶｲﾄﾞｳ","kana_city":"ｸﾄﾞｳｸﾞﾝｾﾀﾅﾁｮｳ","kana_address":"ｷﾀﾋﾔﾏｸｺｶﾞﾜ","pref":"北海道","city":"久遠郡せたな町","address":"北檜山区小川"},
{"zip_code":"0494751","kana_pref":"ﾎｯｶｲﾄﾞｳ","kana_city":"ｸﾄﾞｳｸﾞﾝｾﾀﾅﾁｮｳ","kana_address":"ｷﾀﾋﾔﾏｸｻｶｴ","pref":"北海道","city":"久遠郡せたな町","address":"北檜山区栄"},
{"zip_code":"0494518","kana_pref":"ﾎｯｶｲﾄﾞｳ","kana_city":"ｸﾄﾞｳｸﾞﾝｾﾀﾅﾁｮｳ","kana_address":"ｷﾀﾋﾔﾏｸｼﾝｾｲ","pref":"北海道","city":"久遠郡せたな町","address":"北檜山区新成"},
{"zip_code":"0494512","kana_pref":"ﾎｯｶｲﾄﾞｳ","kana_city":"ｸﾄﾞｳｸﾞﾝｾﾀﾅﾁｮｳ","kana_address":"ｷﾀﾋﾔﾏｸﾄｸｼﾏ","pref":"北海道","city":"久遠郡せたな町","address":"北檜山区徳島"},
{"zip_code":"0494755","kana_pref":"ﾎｯｶｲﾄﾞｳ","kana_city":"ｸﾄﾞｳｸﾞﾝｾﾀﾅﾁｮｳ","kana_address":"ｷﾀﾋﾔﾏｸﾄﾐｻﾄ","pref":"北海道","city":"久遠郡せたな町","address":"北檜山区富里"},
{"zip_code":"0494514","kana_pref":"ﾎｯｶｲﾄﾞｳ","kana_city":"ｸﾄﾞｳｸﾞﾝｾﾀﾅﾁｮｳ","kana_address":"ｷﾀﾋﾔﾏｸﾄﾖｵｶ","pref":"北海道","city":"久遠郡せたな町","address":"北檜山区豊岡"},
{"zip_code":"0494434","kana_pref":"ﾎｯｶｲﾄﾞｳ","kana_city":"ｸﾄﾞｳｸﾞﾝｾﾀﾅﾁｮｳ","kana_address":"ｷﾀﾋﾔﾏｸﾆｼﾆﾜ","pref":"北海道","city":"久遠郡せたな町","address":"北檜山区西丹羽"},
{"zip_code":"0494433","kana_pref":"ﾎｯｶｲﾄﾞｳ","kana_city":"ｸﾄﾞｳｸﾞﾝｾﾀﾅﾁｮｳ","kana_address":"ｷﾀﾋﾔﾏｸﾆﾜ","pref":"北海道","city":"久遠郡せたな町","address":"北檜山区丹羽"},
{"zip_code":"0494432","kana_pref":"ﾎｯｶｲﾄﾞｳ","kana_city":"ｸﾄﾞｳｸﾞﾝｾﾀﾅﾁｮｳ","kana_address":"ｷﾀﾋﾔﾏｸﾋｶﾞｼﾆﾜ","pref":"北海道","city":"久遠郡せたな町","address":"北檜山区東丹羽"},
{"zip_code":"0494754","kana_pref":"ﾎｯｶｲﾄﾞｳ","kana_city":"ｸﾄﾞｳｸﾞﾝｾﾀﾅﾁｮｳ","kana_address":"ｷﾀﾋﾔﾏｸﾌﾀﾏﾀ","pref":"北海道","city":"久遠郡せたな町","address":"北檜山区二俣"},
{"zip_code":"0494517","kana_pref":"ﾎｯｶｲﾄﾞｳ","kana_city":"ｸﾄﾞｳｸﾞﾝｾﾀﾅﾁｮｳ","kana_address":"ｷﾀﾋﾔﾏｸﾌﾄﾛ","pref":"北海道","city":"久遠郡せたな町","address":"北檜山区太櫓"},
{"zip_code":"0494511","kana_pref":"ﾎｯｶｲﾄﾞｳ","kana_city":"ｸﾄﾞｳｸﾞﾝｾﾀﾅﾁｮｳ","kana_address":"ｷﾀﾋﾔﾏｸﾏﾂｵｶ","pref":"北海道","city":"久遠郡せたな町","address":"北檜山区松岡"},
{"zip_code":"0494752","kana_pref":"ﾎｯｶｲﾄﾞｳ","kana_city":"ｸﾄﾞｳｸﾞﾝｾﾀﾅﾁｮｳ","kana_address":"ｷﾀﾋﾔﾏｸﾜｶﾏﾂ","pref":"北海道","city":"久遠郡せたな町","address":"北檜山区若松"},
{"zip_code":"0494824","kana_pref":"ﾎｯｶｲﾄﾞｳ","kana_city":"ｸﾄﾞｳｸﾞﾝｾﾀﾅﾁｮｳ","kana_address":"ｾﾀﾅｸｷﾀｼﾏｳﾀ","pref":"北海道","city":"久遠郡せたな町","address":"瀬棚区北島歌"},
{"zip_code":"0494827","kana_pref":"ﾎｯｶｲﾄﾞｳ","kana_city":"ｸﾄﾞｳｸﾞﾝｾﾀﾅﾁｮｳ","kana_address":"ｾﾀﾅｸｷｮｳﾜ","pref":"北海道","city":"久遠郡せたな町","address":"瀬棚区共和"},
{"zip_code":"0494821","kana_pref":"ﾎｯｶｲﾄﾞｳ","kana_city":"ｸﾄﾞｳｸﾞﾝｾﾀﾅﾁｮｳ","kana_address":"ｾﾀﾅｸｻﾝﾎﾞﾝｽｷﾞ","pref":"北海道","city":"久遠郡せたな町","address":"瀬棚区三本杉"},
{"zip_code":"0494823","kana_pref":"ﾎｯｶｲﾄﾞｳ","kana_city":"ｸﾄﾞｳｸﾞﾝｾﾀﾅﾁｮｳ","kana_address":"ｾﾀﾅｸｼﾏｳﾀ","pref":"北海道","city":"久遠郡せたな町","address":"瀬棚区島歌"},
{"zip_code":"0494825","kana_pref":"ﾎｯｶｲﾄﾞｳ","kana_city":"ｸﾄﾞｳｸﾞﾝｾﾀﾅﾁｮｳ","kana_address":"ｾﾀﾅｸﾆｼｵｵｻﾄ","pref":"北海道","city":"久遠郡せたな町","address":"瀬棚区西大里"},
{"zip_code":"0494826","kana_pref":"ﾎｯｶｲﾄﾞｳ","kana_city":"ｸﾄﾞｳｸﾞﾝｾﾀﾅﾁｮｳ","kana_address":"ｾﾀﾅｸﾋｶﾞｼｵｵｻﾄ","pref":"北海道","city":"久遠郡せたな町","address":"瀬棚区東大里"},
{"zip_code":"0494816","kana_pref":"ﾎｯｶｲﾄﾞｳ","kana_city":"ｸﾄﾞｳｸﾞﾝｾﾀﾅﾁｮｳ","kana_address":"ｾﾀﾅｸﾎﾝﾁｮｳ","pref":"北海道","city":"久遠郡せたな町","address":"瀬棚区本町"},
{"zip_code":"0494801","kana_pref":"ﾎｯｶｲﾄﾞｳ","kana_city":"ｸﾄﾞｳｸﾞﾝｾﾀﾅﾁｮｳ","kana_address":"ｾﾀﾅｸﾎﾝﾁｮｳ","pref":"北海道","city":"久遠郡せたな町","address":"瀬棚区本町"},
{"zip_code":"0494802","kana_pref":"ﾎｯｶｲﾄﾞｳ","kana_city":"ｸﾄﾞｳｸﾞﾝｾﾀﾅﾁｮｳ","kana_address":"ｾﾀﾅｸﾎﾝﾁｮｳ","pref":"北海道","city":"久遠郡せたな町","address":"瀬棚区本町"},
{"zip_code":"0494803","kana_pref":"ﾎｯｶｲﾄﾞｳ","kana_city":"ｸﾄﾞｳｸﾞﾝｾﾀﾅﾁｮｳ","kana_address":"ｾﾀﾅｸﾎﾝﾁｮｳ","pref":"北海道","city":"久遠郡せたな町","address":"瀬棚区本町"},
{"zip_code":"0494804","kana_pref":"ﾎｯｶｲﾄﾞｳ","kana_city":"ｸﾄﾞｳｸﾞﾝｾﾀﾅﾁｮｳ","kana_address":"ｾﾀﾅｸﾎﾝﾁｮｳ","pref":"北海道","city":"久遠郡せたな町","address":"瀬棚区本町"},
{"zip_code":"0494805","kana_pref":"ﾎｯｶｲﾄﾞｳ","kana_city":"ｸﾄﾞｳｸﾞﾝｾﾀﾅﾁｮｳ","kana_address":"ｾﾀﾅｸﾎﾝﾁｮｳ","pref":"北海道","city":"久遠郡せたな町","address":"瀬棚区本町"},
{"zip_code":"0494811","kana_pref":"ﾎｯｶｲﾄﾞｳ","kana_city":"ｸﾄﾞｳｸﾞﾝｾﾀﾅﾁｮｳ","kana_address":"ｾﾀﾅｸﾎﾝﾁｮｳ","pref":"北海道","city":"久遠郡せたな町","address":"瀬棚区本町"},
{"zip_code":"0494812","kana_pref":"ﾎｯｶｲﾄﾞｳ","kana_city":"ｸﾄﾞｳｸﾞﾝｾﾀﾅﾁｮｳ","kana_address":"ｾﾀﾅｸﾎﾝﾁｮｳ","pref":"北海道","city":"久遠郡せたな町","address":"瀬棚区本町"},
{"zip_code":"0494813","kana_pref":"ﾎｯｶｲﾄﾞｳ","kana_city":"ｸﾄﾞｳｸﾞﾝｾﾀﾅﾁｮｳ","kana_address":"ｾﾀﾅｸﾎﾝﾁｮｳ","pref":"北海道","city":"久遠郡せたな町","address":"瀬棚区本町"},
{"zip_code":"0494814","kana_pref":"ﾎｯｶｲﾄﾞｳ","kana_city":"ｸﾄﾞｳｸﾞﾝｾﾀﾅﾁｮｳ","kana_address":"ｾﾀﾅｸﾎﾝﾁｮｳ","pref":"北海道","city":"久遠郡せたな町","address":"瀬棚区本町"},
{"zip_code":"0494815","kana_pref":"ﾎｯｶｲﾄﾞｳ","kana_city":"ｸﾄﾞｳｸﾞﾝｾﾀﾅﾁｮｳ","kana_address":"ｾﾀﾅｸﾎﾝﾁｮｳ","pref":"北海道","city":"久遠郡せたな町","address":"瀬棚区本町"},
{"zip_code":"0494828","kana_pref":"ﾎｯｶｲﾄﾞｳ","kana_city":"ｸﾄﾞｳｸﾞﾝｾﾀﾅﾁｮｳ","kana_address":"ｾﾀﾅｸﾐﾅﾐｶﾜ","pref":"北海道","city":"久遠郡せたな町","address":"瀬棚区南川"},
{"zip_code":"0494822","kana_pref":"ﾎｯｶｲﾄﾞｳ","kana_city":"ｸﾄﾞｳｸﾞﾝｾﾀﾅﾁｮｳ","kana_address":"ｾﾀﾅｸﾓﾄｳﾗ","pref":"北海道","city":"久遠郡せたな町","address":"瀬棚区元浦"},
{"zip_code":"0495400","kana_pref":"ﾎｯｶｲﾄﾞｳ","kana_city":"ｱﾌﾞﾀｸﾞﾝﾄﾖｳﾗﾁｮｳ","kana_address":"","pref":"北海道","city":"虻田郡豊浦町","address":""},
{"zip_code":"0495412","kana_pref":"ﾎｯｶｲﾄﾞｳ","kana_city":"ｱﾌﾞﾀｸﾞﾝﾄﾖｳﾗﾁｮｳ","kana_address":"ｱｻﾋﾁｮｳ","pref":"北海道","city":"虻田郡豊浦町","address":"旭町"},
{"zip_code":"0495332","kana_pref":"ﾎｯｶｲﾄﾞｳ","kana_city":"ｱﾌﾞﾀｸﾞﾝﾄﾖｳﾗﾁｮｳ","kana_address":"ｵｵｷｼ","pref":"北海道","city":"虻田郡豊浦町","address":"大岸"},
{"zip_code":"0495413","kana_pref":"ﾎｯｶｲﾄﾞｳ","kana_city":"ｱﾌﾞﾀｸﾞﾝﾄﾖｳﾗﾁｮｳ","kana_address":"ｶｲｶﾞﾝﾁｮｳ","pref":"北海道","city":"虻田郡豊浦町","address":"海岸町"},
{"zip_code":"0495407","kana_pref":"ﾎｯｶｲﾄﾞｳ","kana_city":"ｱﾌﾞﾀｸﾞﾝﾄﾖｳﾗﾁｮｳ","kana_address":"ｶﾐｲｽﾞﾐ","pref":"北海道","city":"虻田郡豊浦町","address":"上泉"},
{"zip_code":"0495414","kana_pref":"ﾎｯｶｲﾄﾞｳ","kana_city":"ｱﾌﾞﾀｸﾞﾝﾄﾖｳﾗﾁｮｳ","kana_address":"ｻｲﾜｲﾁｮｳ","pref":"北海道","city":"虻田郡豊浦町","address":"幸町"},
{"zip_code":"0495404","kana_pref":"ﾎｯｶｲﾄﾞｳ","kana_city":"ｱﾌﾞﾀｸﾞﾝﾄﾖｳﾗﾁｮｳ","kana_address":"ｻｸﾗ","pref":"北海道","city":"虻田郡豊浦町","address":"桜"},
{"zip_code":"0495411","kana_pref":"ﾎｯｶｲﾄﾞｳ","kana_city":"ｱﾌﾞﾀｸﾞﾝﾄﾖｳﾗﾁｮｳ","kana_address":"ｼﾉﾉﾒﾁｮｳ","pref":"北海道","city":"虻田郡豊浦町","address":"東雲町"},
{"zip_code":"0495408","kana_pref":"ﾎｯｶｲﾄﾞｳ","kana_city":"ｱﾌﾞﾀｸﾞﾝﾄﾖｳﾗﾁｮｳ","kana_address":"ｼﾝﾄﾐ","pref":"北海道","city":"虻田郡豊浦町","address":"新富"},
{"zip_code":"0495406","kana_pref":"ﾎｯｶｲﾄﾞｳ","kana_city":"ｱﾌﾞﾀｸﾞﾝﾄﾖｳﾗﾁｮｳ","kana_address":"ｼﾝﾔﾏﾅｼ","pref":"北海道","city":"虻田郡豊浦町","address":"新山梨"},
{"zip_code":"0495405","kana_pref":"ﾎｯｶｲﾄﾞｳ","kana_city":"ｱﾌﾞﾀｸﾞﾝﾄﾖｳﾗﾁｮｳ","kana_address":"ﾀｶｵｶ","pref":"北海道","city":"虻田郡豊浦町","address":"高岡"},
{"zip_code":"0495331","kana_pref":"ﾎｯｶｲﾄﾞｳ","kana_city":"ｱﾌﾞﾀｸﾞﾝﾄﾖｳﾗﾁｮｳ","kana_address":"ﾄﾖｲｽﾞﾐ","pref":"北海道","city":"虻田郡豊浦町","address":"豊泉"},
{"zip_code":"0495415","kana_pref":"ﾎｯｶｲﾄﾞｳ","kana_city":"ｱﾌﾞﾀｸﾞﾝﾄﾖｳﾗﾁｮｳ","kana_address":"ﾊﾏﾁｮｳ","pref":"北海道","city":"虻田郡豊浦町","address":"浜町"},
{"zip_code":"0495416","kana_pref":"ﾎｯｶｲﾄﾞｳ","kana_city":"ｱﾌﾞﾀｸﾞﾝﾄﾖｳﾗﾁｮｳ","kana_address":"ﾌﾅﾐﾁｮｳ","pref":"北海道","city":"虻田郡豊浦町","address":"船見町"},
{"zip_code":"0495403","kana_pref":"ﾎｯｶｲﾄﾞｳ","kana_city":"ｱﾌﾞﾀｸﾞﾝﾄﾖｳﾗﾁｮｳ","kana_address":"ﾐﾜ","pref":"北海道","city":"虻田郡豊浦町","address":"美和"},
{"zip_code":"0495402","kana_pref":"ﾎｯｶｲﾄﾞｳ","kana_city":"ｱﾌﾞﾀｸﾞﾝﾄﾖｳﾗﾁｮｳ","kana_address":"ﾔﾏﾄ","pref":"北海道","city":"虻田郡豊浦町","address":"大和"},
{"zip_code":"0495401","kana_pref":"ﾎｯｶｲﾄﾞｳ","kana_city":"ｱﾌﾞﾀｸﾞﾝﾄﾖｳﾗﾁｮｳ","kana_address":"ﾔﾏﾅｼ","pref":"北海道","city":"虻田郡豊浦町","address":"山梨"},
{"zip_code":"0495333","kana_pref":"ﾎｯｶｲﾄﾞｳ","kana_city":"ｱﾌﾞﾀｸﾞﾝﾄﾖｳﾗﾁｮｳ","kana_address":"ﾚﾌﾞﾝｹﾞ","pref":"北海道","city":"虻田郡豊浦町","address":"礼文華"},
{"zip_code":"0495731","kana_pref":"ﾎｯｶｲﾄﾞｳ","kana_city":"ｳｽｸﾞﾝｿｳﾍﾞﾂﾁｮｳ","kana_address":"ﾄｳﾔｺｵﾝｾﾝ","pref":"北海道","city":"有珠郡壮瞥町","address":"洞爺湖温泉"},
{"zip_code":"0495600","kana_pref":"ﾎｯｶｲﾄﾞｳ","kana_city":"ｱﾌﾞﾀｸﾞﾝﾄｳﾔｺﾁｮｳ","kana_address":"","pref":"北海道","city":"虻田郡洞爺湖町","address":""},
{"zip_code":"0495601","kana_pref":"ﾎｯｶｲﾄﾞｳ","kana_city":"ｱﾌﾞﾀｸﾞﾝﾄｳﾔｺﾁｮｳ","kana_address":"ｱｵﾊﾞﾁｮｳ","pref":"北海道","city":"虻田郡洞爺湖町","address":"青葉町"},
{"zip_code":"0495801","kana_pref":"ﾎｯｶｲﾄﾞｳ","kana_city":"ｱﾌﾞﾀｸﾞﾝﾄｳﾔｺﾁｮｳ","kana_address":"ｱｻﾋｳﾗ","pref":"北海道","city":"虻田郡洞爺湖町","address":"旭浦"},
{"zip_code":"0495611","kana_pref":"ﾎｯｶｲﾄﾞｳ","kana_city":"ｱﾌﾞﾀｸﾞﾝﾄｳﾔｺﾁｮｳ","kana_address":"ｱｻﾋﾁｮｳ","pref":"北海道","city":"虻田郡洞爺湖町","address":"旭町"},
{"zip_code":"0495602","kana_pref":"ﾎｯｶｲﾄﾞｳ","kana_city":"ｱﾌﾞﾀｸﾞﾝﾄｳﾔｺﾁｮｳ","kana_address":"ｲｽﾞﾐ","pref":"北海道","city":"虻田郡洞爺湖町","address":"泉"},
{"zip_code":"0495603","kana_pref":"ﾎｯｶｲﾄﾞｳ","kana_city":"ｱﾌﾞﾀｸﾞﾝﾄｳﾔｺﾁｮｳ","kana_address":"ｲﾘｴ","pref":"北海道","city":"虻田郡洞爺湖町","address":"入江"},
{"zip_code":"0495811","kana_pref":"ﾎｯｶｲﾄﾞｳ","kana_city":"ｱﾌﾞﾀｸﾞﾝﾄｳﾔｺﾁｮｳ","kana_address":"ｲﾜﾔ","pref":"北海道","city":"虻田郡洞爺湖町","address":"岩屋"},
{"zip_code":"0495612","kana_pref":"ﾎｯｶｲﾄﾞｳ","kana_city":"ｱﾌﾞﾀｸﾞﾝﾄｳﾔｺﾁｮｳ","kana_address":"ｵｵｲｿﾁｮｳ","pref":"北海道","city":"虻田郡洞爺湖町","address":"大磯町"},
{"zip_code":"0495821","kana_pref":"ﾎｯｶｲﾄﾞｳ","kana_city":"ｱﾌﾞﾀｸﾞﾝﾄｳﾔｺﾁｮｳ","kana_address":"ｵｵﾊﾗ","pref":"北海道","city":"虻田郡洞爺湖町","address":"大原"},
{"zip_code":"0495831","kana_pref":"ﾎｯｶｲﾄﾞｳ","kana_city":"ｱﾌﾞﾀｸﾞﾝﾄｳﾔｺﾁｮｳ","kana_address":"ｶｶﾞﾜ","pref":"北海道","city":"虻田郡洞爺湖町","address":"香川"},
{"zip_code":"0495812","kana_pref":"ﾎｯｶｲﾄﾞｳ","kana_city":"ｱﾌﾞﾀｸﾞﾝﾄｳﾔｺﾁｮｳ","kana_address":"ｶﾜﾋｶﾞｼ","pref":"北海道","city":"虻田郡洞爺湖町","address":"川東"},
{"zip_code":"0495604","kana_pref":"ﾎｯｶｲﾄﾞｳ","kana_city":"ｱﾌﾞﾀｸﾞﾝﾄｳﾔｺﾁｮｳ","kana_address":"ｻｶｴﾁｮｳ","pref":"北海道","city":"虻田郡洞爺湖町","address":"栄町"},
{"zip_code":"0495722","kana_pref":"ﾎｯｶｲﾄﾞｳ","kana_city":"ｱﾌﾞﾀｸﾞﾝﾄｳﾔｺﾁｮｳ","kana_address":"ｼﾐｽﾞ","pref":"北海道","city":"虻田郡洞爺湖町","address":"清水"},
{"zip_code":"0495613","kana_pref":"ﾎｯｶｲﾄﾞｳ","kana_city":"ｱﾌﾞﾀｸﾞﾝﾄｳﾔｺﾁｮｳ","kana_address":"ｼﾐｽﾞ","pref":"北海道","city":"虻田郡洞爺湖町","address":"清水"},
{"zip_code":"0495605","kana_pref":"ﾎｯｶｲﾄﾞｳ","kana_city":"ｱﾌﾞﾀｸﾞﾝﾄｳﾔｺﾁｮｳ","kana_address":"ﾀｶｻｺﾞﾁｮｳ","pref":"北海道","city":"虻田郡洞爺湖町","address":"高砂町"},
{"zip_code":"0495813","kana_pref":"ﾎｯｶｲﾄﾞｳ","kana_city":"ｱﾌﾞﾀｸﾞﾝﾄｳﾔｺﾁｮｳ","kana_address":"ﾀｶﾗﾀﾞ","pref":"北海道","city":"虻田郡洞爺湖町","address":"財田"},
{"zip_code":"0495723","kana_pref":"ﾎｯｶｲﾄﾞｳ","kana_city":"ｱﾌﾞﾀｸﾞﾝﾄｳﾔｺﾁｮｳ","kana_address":"ﾂｷｳﾗ","pref":"北海道","city":"虻田郡洞爺湖町","address":"月浦"},
{"zip_code":"0495721","kana_pref":"ﾎｯｶｲﾄﾞｳ","kana_city":"ｱﾌﾞﾀｸﾞﾝﾄｳﾔｺﾁｮｳ","kana_address":"ﾄｳﾔｺｵﾝｾﾝ","pref":"北海道","city":"虻田郡洞爺湖町","address":"洞爺湖温泉"},
{"zip_code":"0495802","kana_pref":"ﾎｯｶｲﾄﾞｳ","kana_city":"ｱﾌﾞﾀｸﾞﾝﾄｳﾔｺﾁｮｳ","kana_address":"ﾄｳﾔﾏﾁ","pref":"北海道","city":"虻田郡洞爺湖町","address":"洞爺町"},
{"zip_code":"0495822","kana_pref":"ﾎｯｶｲﾄﾞｳ","kana_city":"ｱﾌﾞﾀｸﾞﾝﾄｳﾔｺﾁｮｳ","kana_address":"ﾄﾐｵｶ","pref":"北海道","city":"虻田郡洞爺湖町","address":"富丘"},
{"zip_code":"0495832","kana_pref":"ﾎｯｶｲﾄﾞｳ","kana_city":"ｱﾌﾞﾀｸﾞﾝﾄｳﾔｺﾁｮｳ","kana_address":"ﾅﾙｶ","pref":"北海道","city":"虻田郡洞爺湖町","address":"成香"},
{"zip_code":"0495724","kana_pref":"ﾎｯｶｲﾄﾞｳ","kana_city":"ｱﾌﾞﾀｸﾞﾝﾄｳﾔｺﾁｮｳ","kana_address":"ﾊﾅﾜ","pref":"北海道","city":"虻田郡洞爺湖町","address":"花和"},
{"zip_code":"0495614","kana_pref":"ﾎｯｶｲﾄﾞｳ","kana_city":"ｱﾌﾞﾀｸﾞﾝﾄｳﾔｺﾁｮｳ","kana_address":"ﾊﾏﾁｮｳ","pref":"北海道","city":"虻田郡洞爺湖町","address":"浜町"},
{"zip_code":"0495814","kana_pref":"ﾎｯｶｲﾄﾞｳ","kana_city":"ｱﾌﾞﾀｸﾞﾝﾄｳﾔｺﾁｮｳ","kana_address":"ﾊﾔﾂｷ","pref":"北海道","city":"虻田郡洞爺湖町","address":"早月"},
{"zip_code":"0495833","kana_pref":"ﾎｯｶｲﾄﾞｳ","kana_city":"ｱﾌﾞﾀｸﾞﾝﾄｳﾔｺﾁｮｳ","kana_address":"ﾌｼﾐ","pref":"北海道","city":"虻田郡洞爺湖町","address":"伏見"},
{"zip_code":"0495615","kana_pref":"ﾎｯｶｲﾄﾞｳ","kana_city":"ｱﾌﾞﾀｸﾞﾝﾄｳﾔｺﾁｮｳ","kana_address":"ﾎﾝﾁｮｳ","pref":"北海道","city":"虻田郡洞爺湖町","address":"本町"},
{"zip_code":"0495616","kana_pref":"ﾎｯｶｲﾄﾞｳ","kana_city":"ｱﾌﾞﾀｸﾞﾝﾄｳﾔｺﾁｮｳ","kana_address":"ﾐﾄﾖ","pref":"北海道","city":"虻田郡洞爺湖町","address":"三豊"}]}