{"zip_code":[
{"zip_code":"0530000","kana_pref":"ﾎｯｶｲﾄﾞｳ","kana_city":"ﾄﾏｺﾏｲｼ","kana_address":"","pref":"北海道","city":"苫小牧市","address":""},
{"zip_code":"0530807","kana_pref":"ﾎｯｶｲﾄﾞｳ","kana_city":"ﾄﾏｺﾏｲｼ","kana_address":"ｱｵﾊﾞﾁｮｳ","pref":"北海道","city":"苫小牧市","address":"青葉町"},
{"zip_code":"0530054","kana_pref":"ﾎｯｶｲﾄﾞｳ","kana_city":"ﾄﾏｺﾏｲｼ","kana_address":"ｱｹﾉｼﾝﾏﾁ","pref":"北海道","city":"苫小牧市","address":"明野新町"},
{"zip_code":"0530051","kana_pref":"ﾎｯｶｲﾄﾞｳ","kana_city":"ﾄﾏｺﾏｲｼ","kana_address":"ｱｹﾉﾓﾄﾏﾁ","pref":"北海道","city":"苫小牧市","address":"明野元町"},
{"zip_code":"0530056","kana_pref":"ﾎｯｶｲﾄﾞｳ","kana_city":"ﾄﾏｺﾏｲｼ","kana_address":"ｱｹﾎﾞﾉﾁｮｳ","pref":"北海道","city":"苫小牧市","address":"あけぼの町"},
{"zip_code":"0530018","kana_pref":"ﾎｯｶｲﾄﾞｳ","kana_city":"ﾄﾏｺﾏｲｼ","kana_address":"ｱｻﾋﾏﾁ","pref":"北海道","city":"苫小牧市","address":"旭町"},
{"zip_code":"0530812","kana_pref":"ﾎｯｶｲﾄﾞｳ","kana_city":"ﾄﾏｺﾏｲｼ","kana_address":"ｱﾘｱｹﾁｮｳ","pref":"北海道","city":"苫小牧市","address":"有明町"},
{"zip_code":"0530047","kana_pref":"ﾎｯｶｲﾄﾞｳ","kana_city":"ﾄﾏｺﾏｲｼ","kana_address":"ｲｽﾞﾐﾁｮｳ","pref":"北海道","city":"苫小牧市","address":"泉町"},
{"zip_code":"0530001","kana_pref":"ﾎｯｶｲﾄﾞｳ","kana_city":"ﾄﾏｺﾏｲｼ","kana_address":"ｲｯﾎﾟﾝﾏﾂﾁｮｳ","pref":"北海道","city":"苫小牧市","address":"一本松町"},
{"zip_code":"0530814","kana_pref":"ﾎｯｶｲﾄﾞｳ","kana_city":"ﾄﾏｺﾏｲｼ","kana_address":"ｲﾄｲ","pref":"北海道","city":"苫小牧市","address":"糸井"},
{"zip_code":"0530003","kana_pref":"ﾎｯｶｲﾄﾞｳ","kana_city":"ﾄﾏｺﾏｲｼ","kana_address":"ｲﾘﾌﾈﾁｮｳ","pref":"北海道","city":"苫小牧市","address":"入船町"},
{"zip_code":"0530842","kana_pref":"ﾎｯｶｲﾄﾞｳ","kana_city":"ﾄﾏｺﾏｲｼ","kana_address":"ｳｽﾉｻﾜﾁｮｳ","pref":"北海道","city":"苫小牧市","address":"有珠の沢町"},
{"zip_code":"0530815","kana_pref":"ﾎｯｶｲﾄﾞｳ","kana_city":"ﾄﾏｺﾏｲｼ","kana_address":"ｴｲﾌｸﾁｮｳ","pref":"北海道","city":"苫小牧市","address":"永福町"},
{"zip_code":"0530027","kana_pref":"ﾎｯｶｲﾄﾞｳ","kana_city":"ﾄﾏｺﾏｲｼ","kana_address":"ｵｳｼﾞﾏﾁ","pref":"北海道","city":"苫小牧市","address":"王子町"},
{"zip_code":"0530024","kana_pref":"ﾎｯｶｲﾄﾞｳ","kana_city":"ﾄﾏｺﾏｲｼ","kana_address":"ｵｵﾏﾁ","pref":"北海道","city":"苫小牧市","address":"大町"},
{"zip_code":"0530044","kana_pref":"ﾎｯｶｲﾄﾞｳ","kana_city":"ﾄﾏｺﾏｲｼ","kana_address":"ｵﾄﾜﾁｮｳ","pref":"北海道","city":"苫小牧市","address":"音羽町"},
{"zip_code":"0530022","kana_pref":"ﾎｯｶｲﾄﾞｳ","kana_city":"ﾄﾏｺﾏｲｼ","kana_address":"ｵﾓﾃﾏﾁ","pref":"北海道","city":"苫小牧市","address":"表町"},
{"zip_code":"0530823","kana_pref":"ﾎｯｶｲﾄﾞｳ","kana_city":"ﾄﾏｺﾏｲｼ","kana_address":"ｶｼﾜｷﾞﾁｮｳ","pref":"北海道","city":"苫小牧市","address":"柏木町"},
{"zip_code":"0530031","kana_pref":"ﾎｯｶｲﾄﾞｳ","kana_city":"ﾄﾏｺﾏｲｼ","kana_address":"ｶｽｶﾞﾁｮｳ","pref":"北海道","city":"苫小牧市","address":"春日町"},
{"zip_code":"0530822","kana_pref":"ﾎｯｶｲﾄﾞｳ","kana_city":"ﾄﾏｺﾏｲｼ","kana_address":"ｶﾜｿﾞｴﾁｮｳ","pref":"北海道","city":"苫小牧市","address":"川沿町"},
{"zip_code":"0530033","kana_pref":"ﾎｯｶｲﾄﾞｳ","kana_city":"ﾄﾏｺﾏｲｼ","kana_address":"ｷﾊﾞﾁｮｳ","pref":"北海道","city":"苫小牧市","address":"木場町"},
{"zip_code":"0530854","kana_pref":"ﾎｯｶｲﾄﾞｳ","kana_city":"ﾄﾏｺﾏｲｼ","kana_address":"ｹｲﾎｸﾁｮｳ","pref":"北海道","city":"苫小牧市","address":"啓北町"},
{"zip_code":"0530813","kana_pref":"ﾎｯｶｲﾄﾞｳ","kana_city":"ﾄﾏｺﾏｲｼ","kana_address":"ｺｲﾄｲﾁｮｳ","pref":"北海道","city":"苫小牧市","address":"小糸井町"},
{"zip_code":"0530811","kana_pref":"ﾎｯｶｲﾄﾞｳ","kana_city":"ﾄﾏｺﾏｲｼ","kana_address":"ｺｳﾖｳﾁｮｳ","pref":"北海道","city":"苫小牧市","address":"光洋町"},
{"zip_code":"0530016","kana_pref":"ﾎｯｶｲﾄﾞｳ","kana_city":"ﾄﾏｺﾏｲｼ","kana_address":"ｺﾄﾌﾞｷﾁｮｳ","pref":"北海道","city":"苫小牧市","address":"寿町"},
{"zip_code":"0530026","kana_pref":"ﾎｯｶｲﾄﾞｳ","kana_city":"ﾄﾏｺﾏｲｼ","kana_address":"ｻｲﾜｲﾁｮｳ","pref":"北海道","city":"苫小牧市","address":"幸町"},
{"zip_code":"0530017","kana_pref":"ﾎｯｶｲﾄﾞｳ","kana_city":"ﾄﾏｺﾏｲｼ","kana_address":"ｻｶｴﾏﾁ","pref":"北海道","city":"苫小牧市","address":"栄町"},
{"zip_code":"0530832","kana_pref":"ﾎｯｶｲﾄﾞｳ","kana_city":"ﾄﾏｺﾏｲｼ","kana_address":"ｻｸﾗｷﾞﾁｮｳ","pref":"北海道","city":"苫小牧市","address":"桜木町"},
{"zip_code":"0530843","kana_pref":"ﾎｯｶｲﾄﾞｳ","kana_city":"ﾄﾏｺﾏｲｼ","kana_address":"ｻｸﾗｻﾞｶﾁｮｳ","pref":"北海道","city":"苫小牧市","address":"桜坂町"},
{"zip_code":"0530042","kana_pref":"ﾎｯｶｲﾄﾞｳ","kana_city":"ﾄﾏｺﾏｲｼ","kana_address":"ｻﾝｺｳﾁｮｳ","pref":"北海道","city":"苫小牧市","address":"三光町"},
{"zip_code":"0530012","kana_pref":"ﾎｯｶｲﾄﾞｳ","kana_city":"ﾄﾏｺﾏｲｼ","kana_address":"ｼｵﾐﾁｮｳ","pref":"北海道","city":"苫小牧市","address":"汐見町"},
{"zip_code":"0530034","kana_pref":"ﾎｯｶｲﾄﾞｳ","kana_city":"ﾄﾏｺﾏｲｼ","kana_address":"ｼﾐｽﾞﾁｮｳ","pref":"北海道","city":"苫小牧市","address":"清水町"},
{"zip_code":"0530821","kana_pref":"ﾎｯｶｲﾄﾞｳ","kana_city":"ﾄﾏｺﾏｲｼ","kana_address":"ｼﾗｶﾊﾞﾁｮｳ","pref":"北海道","city":"苫小牧市","address":"しらかば町"},
{"zip_code":"0530801","kana_pref":"ﾎｯｶｲﾄﾞｳ","kana_city":"ﾄﾏｺﾏｲｼ","kana_address":"ｼﾛｶﾞﾈﾁｮｳ","pref":"北海道","city":"苫小牧市","address":"白金町"},
{"zip_code":"0530052","kana_pref":"ﾎｯｶｲﾄﾞｳ","kana_city":"ﾄﾏｺﾏｲｼ","kana_address":"ｼﾝｶｲﾁｮｳ","pref":"北海道","city":"苫小牧市","address":"新開町"},
{"zip_code":"0530805","kana_pref":"ﾎｯｶｲﾄﾞｳ","kana_city":"ﾄﾏｺﾏｲｼ","kana_address":"ｼﾝﾄﾐﾁｮｳ","pref":"北海道","city":"苫小牧市","address":"新富町"},
{"zip_code":"0530006","kana_pref":"ﾎｯｶｲﾄﾞｳ","kana_city":"ﾄﾏｺﾏｲｼ","kana_address":"ｼﾝﾅｶﾉﾁｮｳ","pref":"北海道","city":"苫小牧市","address":"新中野町"},
{"zip_code":"0530055","kana_pref":"ﾎｯｶｲﾄﾞｳ","kana_city":"ﾄﾏｺﾏｲｼ","kana_address":"ｼﾝﾒｲﾁｮｳ","pref":"北海道","city":"苫小牧市","address":"新明町"},
{"zip_code":"0530011","kana_pref":"ﾎｯｶｲﾄﾞｳ","kana_city":"ﾄﾏｺﾏｲｼ","kana_address":"ｽｴﾋﾛﾁｮｳ","pref":"北海道","city":"苫小牧市","address":"末広町"},
{"zip_code":"0530046","kana_pref":"ﾎｯｶｲﾄﾞｳ","kana_city":"ﾄﾏｺﾏｲｼ","kana_address":"ｽﾐﾖｼﾁｮｳ","pref":"北海道","city":"苫小牧市","address":"住吉町"},
{"zip_code":"0530806","kana_pref":"ﾎｯｶｲﾄﾞｳ","kana_city":"ﾄﾏｺﾏｲｼ","kana_address":"ﾀｲｾｲﾁｮｳ","pref":"北海道","city":"苫小牧市","address":"大成町"},
{"zip_code":"0530035","kana_pref":"ﾎｯｶｲﾄﾞｳ","kana_city":"ﾄﾏｺﾏｲｼ","kana_address":"ﾀｶｵｶ","pref":"北海道","city":"苫小牧市","address":"高丘"},
{"zip_code":"0530013","kana_pref":"ﾎｯｶｲﾄﾞｳ","kana_city":"ﾄﾏｺﾏｲｼ","kana_address":"ﾀｶｻｺﾞﾁｮｳ","pref":"北海道","city":"苫小牧市","address":"高砂町"},
{"zip_code":"0530831","kana_pref":"ﾎｯｶｲﾄﾞｳ","kana_city":"ﾄﾏｺﾏｲｼ","kana_address":"ﾄﾖｶﾜﾁｮｳ","pref":"北海道","city":"苫小牧市","address":"豊川町"},
{"zip_code":"0530023","kana_pref":"ﾎｯｶｲﾄﾞｳ","kana_city":"ﾄﾏｺﾏｲｼ","kana_address":"ﾆｼｷﾏﾁ","pref":"北海道","city":"苫小牧市","address":"錦町"},
{"zip_code":"0530833","kana_pref":"ﾎｯｶｲﾄﾞｳ","kana_city":"ﾄﾏｺﾏｲｼ","kana_address":"ﾆｯｼﾝﾁｮｳ","pref":"北海道","city":"苫小牧市","address":"日新町"},
{"zip_code":"0530853","kana_pref":"ﾎｯｶｲﾄﾞｳ","kana_city":"ﾄﾏｺﾏｲｼ","kana_address":"ﾊﾅｿﾞﾉﾁｮｳ","pref":"北海道","city":"苫小牧市","address":"花園町"},
{"zip_code":"0530014","kana_pref":"ﾎｯｶｲﾄﾞｳ","kana_city":"ﾄﾏｺﾏｲｼ","kana_address":"ﾊﾏﾁｮｳ","pref":"北海道","city":"苫小牧市","address":"浜町"},
{"zip_code":"0530845","kana_pref":"ﾎｯｶｲﾄﾞｳ","kana_city":"ﾄﾏｺﾏｲｼ","kana_address":"ﾊﾏﾅｽﾁｮｳ","pref":"北海道","city":"苫小牧市","address":"はまなす町"},
{"zip_code":"0530002","kana_pref":"ﾎｯｶｲﾄﾞｳ","kana_city":"ﾄﾏｺﾏｲｼ","kana_address":"ﾊﾙﾐﾁｮｳ","pref":"北海道","city":"苫小牧市","address":"晴海町"},
{"zip_code":"0530043","kana_pref":"ﾎｯｶｲﾄﾞｳ","kana_city":"ﾄﾏｺﾏｲｼ","kana_address":"ﾋﾉﾃﾞﾁｮｳ","pref":"北海道","city":"苫小牧市","address":"日の出町"},
{"zip_code":"0530816","kana_pref":"ﾎｯｶｲﾄﾞｳ","kana_city":"ﾄﾏｺﾏｲｼ","kana_address":"ﾋﾖｼﾁｮｳ","pref":"北海道","city":"苫小牧市","address":"日吉町"},
{"zip_code":"0530045","kana_pref":"ﾎｯｶｲﾄﾞｳ","kana_city":"ﾄﾏｺﾏｲｼ","kana_address":"ﾌﾀﾊﾞﾁｮｳ","pref":"北海道","city":"苫小牧市","address":"双葉町"},
{"zip_code":"0530007","kana_pref":"ﾎｯｶｲﾄﾞｳ","kana_city":"ﾄﾏｺﾏｲｼ","kana_address":"ﾌﾅﾐﾁｮｳ","pref":"北海道","city":"苫小牧市","address":"船見町"},
{"zip_code":"0530852","kana_pref":"ﾎｯｶｲﾄﾞｳ","kana_city":"ﾄﾏｺﾏｲｼ","kana_address":"ﾎｯｺｳﾁｮｳ","pref":"北海道","city":"苫小牧市","address":"北光町"},
{"zip_code":"0530015","kana_pref":"ﾎｯｶｲﾄﾞｳ","kana_city":"ﾄﾏｺﾏｲｼ","kana_address":"ﾎﾝｺｳﾁｮｳ","pref":"北海道","city":"苫小牧市","address":"本幸町"},
{"zip_code":"0530025","kana_pref":"ﾎｯｶｲﾄﾞｳ","kana_city":"ﾄﾏｺﾏｲｼ","kana_address":"ﾎﾝﾁｮｳ","pref":"北海道","city":"苫小牧市","address":"本町"},
{"zip_code":"0530841","kana_pref":"ﾎｯｶｲﾄﾞｳ","kana_city":"ﾄﾏｺﾏｲｼ","kana_address":"ﾏﾂｶｾﾞﾁｮｳ","pref":"北海道","city":"苫小牧市","address":"松風町"},
{"zip_code":"0530041","kana_pref":"ﾎｯｶｲﾄﾞｳ","kana_city":"ﾄﾏｺﾏｲｼ","kana_address":"ﾐｿﾉﾁｮｳ","pref":"北海道","city":"苫小牧市","address":"美園町"},
{"zip_code":"0530032","kana_pref":"ﾎｯｶｲﾄﾞｳ","kana_city":"ﾄﾏｺﾏｲｼ","kana_address":"ﾐﾄﾞﾘﾏﾁ","pref":"北海道","city":"苫小牧市","address":"緑町"},
{"zip_code":"0530004","kana_pref":"ﾎｯｶｲﾄﾞｳ","kana_city":"ﾄﾏｺﾏｲｼ","kana_address":"ﾐﾅﾄﾏﾁ","pref":"北海道","city":"苫小牧市","address":"港町"},
{"zip_code":"0530844","kana_pref":"ﾎｯｶｲﾄﾞｳ","kana_city":"ﾄﾏｺﾏｲｼ","kana_address":"ﾐﾔﾉﾓﾘﾁｮｳ","pref":"北海道","city":"苫小牧市","address":"宮の森町"},
{"zip_code":"0530855","kana_pref":"ﾎｯｶｲﾄﾞｳ","kana_city":"ﾄﾏｺﾏｲｼ","kana_address":"ﾐﾔﾏﾁｮｳ","pref":"北海道","city":"苫小牧市","address":"見山町"},
{"zip_code":"0530005","kana_pref":"ﾎｯｶｲﾄﾞｳ","kana_city":"ﾄﾏｺﾏｲｼ","kana_address":"ﾓﾄﾅｶﾉﾁｮｳ","pref":"北海道","city":"苫小牧市","address":"元中野町"},
{"zip_code":"0530804","kana_pref":"ﾎｯｶｲﾄﾞｳ","kana_city":"ﾄﾏｺﾏｲｼ","kana_address":"ﾓﾄﾏﾁ","pref":"北海道","city":"苫小牧市","address":"元町"},
{"zip_code":"0530803","kana_pref":"ﾎｯｶｲﾄﾞｳ","kana_city":"ﾄﾏｺﾏｲｼ","kana_address":"ﾔｼﾛﾁｮｳ","pref":"北海道","city":"苫小牧市","address":"矢代町"},
{"zip_code":"0530053","kana_pref":"ﾎｯｶｲﾄﾞｳ","kana_city":"ﾄﾏｺﾏｲｼ","kana_address":"ﾔﾅｷﾞﾏﾁ","pref":"北海道","city":"苫小牧市","address":"柳町"},
{"zip_code":"0530851","kana_pref":"ﾎｯｶｲﾄﾞｳ","kana_city":"ﾄﾏｺﾏｲｼ","kana_address":"ﾔﾏﾃﾁｮｳ","pref":"北海道","city":"苫小牧市","address":"山手町"},
{"zip_code":"0530802","kana_pref":"ﾎｯｶｲﾄﾞｳ","kana_city":"ﾄﾏｺﾏｲｼ","kana_address":"ﾔﾖｲﾁｮｳ","pref":"北海道","city":"苫小牧市","address":"弥生町"},
{"zip_code":"0530021","kana_pref":"ﾎｯｶｲﾄﾞｳ","kana_city":"ﾄﾏｺﾏｲｼ","kana_address":"ﾜｶｸｻﾁｮｳ","pref":"北海道","city":"苫小牧市","address":"若草町"}]}