{"zip_code":[
{"zip_code":"0550000","kana_pref":"ﾎｯｶｲﾄﾞｳ","kana_city":"ｻﾙｸﾞﾝﾋﾀﾞｶﾁｮｳ","kana_address":"","pref":"北海道","city":"沙流郡日高町","address":""},
{"zip_code":"0552303","kana_pref":"ﾎｯｶｲﾄﾞｳ","kana_city":"ｻﾙｸﾞﾝﾋﾀﾞｶﾁｮｳ","kana_address":"ｻｶｴﾏﾁﾋｶﾞｼ","pref":"北海道","city":"沙流郡日高町","address":"栄町東"},
{"zip_code":"0552304","kana_pref":"ﾎｯｶｲﾄﾞｳ","kana_city":"ｻﾙｸﾞﾝﾋﾀﾞｶﾁｮｳ","kana_address":"ｻｶｴﾏﾁﾆｼ","pref":"北海道","city":"沙流郡日高町","address":"栄町西"},
{"zip_code":"0552305","kana_pref":"ﾎｯｶｲﾄﾞｳ","kana_city":"ｻﾙｸﾞﾝﾋﾀﾞｶﾁｮｳ","kana_address":"ｼﾝﾏﾁ","pref":"北海道","city":"沙流郡日高町","address":"新町"},
{"zip_code":"0552314","kana_pref":"ﾎｯｶｲﾄﾞｳ","kana_city":"ｻﾙｸﾞﾝﾋﾀﾞｶﾁｮｳ","kana_address":"ﾁｻｶ","pref":"北海道","city":"沙流郡日高町","address":"千栄"},
{"zip_code":"0552315","kana_pref":"ﾎｯｶｲﾄﾞｳ","kana_city":"ｻﾙｸﾞﾝﾋﾀﾞｶﾁｮｳ","kana_address":"ﾄﾐｵｶ","pref":"北海道","city":"沙流郡日高町","address":"富岡"},
{"zip_code":"0550001","kana_pref":"ﾎｯｶｲﾄﾞｳ","kana_city":"ｻﾙｸﾞﾝﾋﾀﾞｶﾁｮｳ","kana_address":"ﾄﾐｶﾜｷﾀ","pref":"北海道","city":"沙流郡日高町","address":"富川北"},
{"zip_code":"0550008","kana_pref":"ﾎｯｶｲﾄﾞｳ","kana_city":"ｻﾙｸﾞﾝﾋﾀﾞｶﾁｮｳ","kana_address":"ﾄﾐｶﾜｺﾏｵｶ","pref":"北海道","city":"沙流郡日高町","address":"富川駒丘"},
{"zip_code":"0550007","kana_pref":"ﾎｯｶｲﾄﾞｳ","kana_city":"ｻﾙｸﾞﾝﾋﾀﾞｶﾁｮｳ","kana_address":"ﾄﾐｶﾜﾆｼ","pref":"北海道","city":"沙流郡日高町","address":"富川西"},
{"zip_code":"0550004","kana_pref":"ﾎｯｶｲﾄﾞｳ","kana_city":"ｻﾙｸﾞﾝﾋﾀﾞｶﾁｮｳ","kana_address":"ﾄﾐｶﾜﾋｶﾞｼ","pref":"北海道","city":"沙流郡日高町","address":"富川東"},
{"zip_code":"0550006","kana_pref":"ﾎｯｶｲﾄﾞｳ","kana_city":"ｻﾙｸﾞﾝﾋﾀﾞｶﾁｮｳ","kana_address":"ﾄﾐｶﾜﾐﾅﾐ","pref":"北海道","city":"沙流郡日高町","address":"富川南"},
{"zip_code":"0550005","kana_pref":"ﾎｯｶｲﾄﾞｳ","kana_city":"ｻﾙｸﾞﾝﾋﾀﾞｶﾁｮｳ","kana_address":"ﾄﾐﾊﾏ","pref":"北海道","city":"沙流郡日高町","address":"富浜"},
{"zip_code":"0552311","kana_pref":"ﾎｯｶｲﾄﾞｳ","kana_city":"ｻﾙｸﾞﾝﾋﾀﾞｶﾁｮｳ","kana_address":"ﾋﾀﾞｶ","pref":"北海道","city":"沙流郡日高町","address":"日高"},
{"zip_code":"0552312","kana_pref":"ﾎｯｶｲﾄﾞｳ","kana_city":"ｻﾙｸﾞﾝﾋﾀﾞｶﾁｮｳ","kana_address":"ﾋﾀﾞｶ","pref":"北海道","city":"沙流郡日高町","address":"日高"},
{"zip_code":"0552313","kana_pref":"ﾎｯｶｲﾄﾞｳ","kana_city":"ｻﾙｸﾞﾝﾋﾀﾞｶﾁｮｳ","kana_address":"ﾋﾀﾞｶ","pref":"北海道","city":"沙流郡日高町","address":"日高"},
{"zip_code":"0550002","kana_pref":"ﾎｯｶｲﾄﾞｳ","kana_city":"ｻﾙｸﾞﾝﾋﾀﾞｶﾁｮｳ","kana_address":"ﾋﾞﾗｶﾞ","pref":"北海道","city":"沙流郡日高町","address":"平賀"},
{"zip_code":"0550003","kana_pref":"ﾎｯｶｲﾄﾞｳ","kana_city":"ｻﾙｸﾞﾝﾋﾀﾞｶﾁｮｳ","kana_address":"ﾌｸﾐﾂ","pref":"北海道","city":"沙流郡日高町","address":"福満"},
{"zip_code":"0552301","kana_pref":"ﾎｯｶｲﾄﾞｳ","kana_city":"ｻﾙｸﾞﾝﾋﾀﾞｶﾁｮｳ","kana_address":"ﾎﾝﾁｮｳﾋｶﾞｼ","pref":"北海道","city":"沙流郡日高町","address":"本町東"},
{"zip_code":"0552302","kana_pref":"ﾎｯｶｲﾄﾞｳ","kana_city":"ｻﾙｸﾞﾝﾋﾀﾞｶﾁｮｳ","kana_address":"ﾎﾝﾁｮｳﾆｼ","pref":"北海道","city":"沙流郡日高町","address":"本町西"},
{"zip_code":"0552307","kana_pref":"ﾎｯｶｲﾄﾞｳ","kana_city":"ｻﾙｸﾞﾝﾋﾀﾞｶﾁｮｳ","kana_address":"ﾏﾂｶｾﾞﾁｮｳ","pref":"北海道","city":"沙流郡日高町","address":"松風町"},
{"zip_code":"0552316","kana_pref":"ﾎｯｶｲﾄﾞｳ","kana_city":"ｻﾙｸﾞﾝﾋﾀﾞｶﾁｮｳ","kana_address":"ﾐﾂｲﾜ","pref":"北海道","city":"沙流郡日高町","address":"三岩"},
{"zip_code":"0552306","kana_pref":"ﾎｯｶｲﾄﾞｳ","kana_city":"ｻﾙｸﾞﾝﾋﾀﾞｶﾁｮｳ","kana_address":"ﾐﾔｼﾀﾁｮｳ","pref":"北海道","city":"沙流郡日高町","address":"宮下町"},
{"zip_code":"0552308","kana_pref":"ﾎｯｶｲﾄﾞｳ","kana_city":"ｻﾙｸﾞﾝﾋﾀﾞｶﾁｮｳ","kana_address":"ﾔﾏﾃﾁｮｳ","pref":"北海道","city":"沙流郡日高町","address":"山手町"},
{"zip_code":"0552309","kana_pref":"ﾎｯｶｲﾄﾞｳ","kana_city":"ｻﾙｸﾞﾝﾋﾀﾞｶﾁｮｳ","kana_address":"ﾜｶﾊﾞﾁｮｳ","pref":"北海道","city":"沙流郡日高町","address":"若葉町"},
{"zip_code":"0550100","kana_pref":"ﾎｯｶｲﾄﾞｳ","kana_city":"ｻﾙｸﾞﾝﾋﾞﾗﾄﾘﾁｮｳ","kana_address":"","pref":"北海道","city":"沙流郡平取町","address":""},
{"zip_code":"0550322","kana_pref":"ﾎｯｶｲﾄﾞｳ","kana_city":"ｻﾙｸﾞﾝﾋﾞﾗﾄﾘﾁｮｳ","kana_address":"ｱｻﾋ","pref":"北海道","city":"沙流郡平取町","address":"旭"},
{"zip_code":"0550414","kana_pref":"ﾎｯｶｲﾄﾞｳ","kana_city":"ｻﾙｸﾞﾝﾋﾞﾗﾄﾘﾁｮｳ","kana_address":"ｲﾜﾁｼ","pref":"北海道","city":"沙流郡平取町","address":"岩知志"},
{"zip_code":"0550325","kana_pref":"ﾎｯｶｲﾄﾞｳ","kana_city":"ｻﾙｸﾞﾝﾋﾞﾗﾄﾘﾁｮｳ","kana_address":"ｵｻﾁﾅｲ","pref":"北海道","city":"沙流郡平取町","address":"長知内"},
{"zip_code":"0550103","kana_pref":"ﾎｯｶｲﾄﾞｳ","kana_city":"ｻﾙｸﾞﾝﾋﾞﾗﾄﾘﾁｮｳ","kana_address":"ｶﾜﾑｶｲ","pref":"北海道","city":"沙流郡平取町","address":"川向"},
{"zip_code":"0550102","kana_pref":"ﾎｯｶｲﾄﾞｳ","kana_city":"ｻﾙｸﾞﾝﾋﾞﾗﾄﾘﾁｮｳ","kana_address":"ｺﾋﾞﾗ","pref":"北海道","city":"沙流郡平取町","address":"小平"},
{"zip_code":"0550105","kana_pref":"ﾎｯｶｲﾄﾞｳ","kana_city":"ｻﾙｸﾞﾝﾋﾞﾗﾄﾘﾁｮｳ","kana_address":"ｻﾙﾊﾞ","pref":"北海道","city":"沙流郡平取町","address":"去場"},
{"zip_code":"0550104","kana_pref":"ﾎｯｶｲﾄﾞｳ","kana_city":"ｻﾙｸﾞﾝﾋﾞﾗﾄﾘﾁｮｳ","kana_address":"ｼｳﾝｺﾂ","pref":"北海道","city":"沙流郡平取町","address":"紫雲古津"},
{"zip_code":"0550415","kana_pref":"ﾎｯｶｲﾄﾞｳ","kana_city":"ｻﾙｸﾞﾝﾋﾞﾗﾄﾘﾁｮｳ","kana_address":"ﾄﾖﾇｶ","pref":"北海道","city":"沙流郡平取町","address":"豊糠"},
{"zip_code":"0550324","kana_pref":"ﾎｯｶｲﾄﾞｳ","kana_city":"ｻﾙｸﾞﾝﾋﾞﾗﾄﾘﾁｮｳ","kana_address":"ﾆｵｲ","pref":"北海道","city":"沙流郡平取町","address":"荷負"},
{"zip_code":"0550413","kana_pref":"ﾎｯｶｲﾄﾞｳ","kana_city":"ｻﾙｸﾞﾝﾋﾞﾗﾄﾘﾁｮｳ","kana_address":"ﾆｾｳ","pref":"北海道","city":"沙流郡平取町","address":"仁世宇"},
{"zip_code":"0550106","kana_pref":"ﾎｯｶｲﾄﾞｳ","kana_city":"ｻﾙｸﾞﾝﾋﾞﾗﾄﾘﾁｮｳ","kana_address":"ﾆﾅ","pref":"北海道","city":"沙流郡平取町","address":"荷菜"},
{"zip_code":"0550101","kana_pref":"ﾎｯｶｲﾄﾞｳ","kana_city":"ｻﾙｸﾞﾝﾋﾞﾗﾄﾘﾁｮｳ","kana_address":"ﾆﾌﾞﾀﾆ","pref":"北海道","city":"沙流郡平取町","address":"二風谷"},
{"zip_code":"0550321","kana_pref":"ﾎｯｶｲﾄﾞｳ","kana_city":"ｻﾙｸﾞﾝﾋﾞﾗﾄﾘﾁｮｳ","kana_address":"ﾇｷﾍﾞﾂ","pref":"北海道","city":"沙流郡平取町","address":"貫気別"},
{"zip_code":"0550411","kana_pref":"ﾎｯｶｲﾄﾞｳ","kana_city":"ｻﾙｸﾞﾝﾋﾞﾗﾄﾘﾁｮｳ","kana_address":"ﾌﾚﾅｲﾁｮｳ","pref":"北海道","city":"沙流郡平取町","address":"振内町"},
{"zip_code":"0550412","kana_pref":"ﾎｯｶｲﾄﾞｳ","kana_city":"ｻﾙｸﾞﾝﾋﾞﾗﾄﾘﾁｮｳ","kana_address":"ﾎﾛｹｼ","pref":"北海道","city":"沙流郡平取町","address":"幌毛志"},
{"zip_code":"0550107","kana_pref":"ﾎｯｶｲﾄﾞｳ","kana_city":"ｻﾙｸﾞﾝﾋﾞﾗﾄﾘﾁｮｳ","kana_address":"ﾎﾝﾁｮｳ","pref":"北海道","city":"沙流郡平取町","address":"本町"},
{"zip_code":"0550323","kana_pref":"ﾎｯｶｲﾄﾞｳ","kana_city":"ｻﾙｸﾞﾝﾋﾞﾗﾄﾘﾁｮｳ","kana_address":"ﾒﾑ","pref":"北海道","city":"沙流郡平取町","address":"芽生"}]}