{"zip_code":[
{"zip_code":"0560000","kana_pref":"ﾎｯｶｲﾄﾞｳ","kana_city":"ﾋﾀﾞｶｸﾞﾝｼﾝﾋﾀﾞｶﾁｮｳ","kana_address":"","pref":"北海道","city":"日高郡新ひだか町","address":""},
{"zip_code":"0560019","kana_pref":"ﾎｯｶｲﾄﾞｳ","kana_city":"ﾋﾀﾞｶｸﾞﾝｼﾝﾋﾀﾞｶﾁｮｳ","kana_address":"ｼｽﾞﾅｲｱｵﾔｷﾞﾁｮｳ","pref":"北海道","city":"日高郡新ひだか町","address":"静内青柳町"},
{"zip_code":"0560003","kana_pref":"ﾎｯｶｲﾄﾞｳ","kana_city":"ﾋﾀﾞｶｸﾞﾝｼﾝﾋﾀﾞｶﾁｮｳ","kana_address":"ｼｽﾞﾅｲｱｻﾋﾁｮｳ","pref":"北海道","city":"日高郡新ひだか町","address":"静内旭町"},
{"zip_code":"0560013","kana_pref":"ﾎｯｶｲﾄﾞｳ","kana_city":"ﾋﾀﾞｶｸﾞﾝｼﾝﾋﾀﾞｶﾁｮｳ","kana_address":"ｼｽﾞﾅｲｲﾘﾌﾈﾁｮｳ","pref":"北海道","city":"日高郡新ひだか町","address":"静内入船町"},
{"zip_code":"0560015","kana_pref":"ﾎｯｶｲﾄﾞｳ","kana_city":"ﾋﾀﾞｶｸﾞﾝｼﾝﾋﾀﾞｶﾁｮｳ","kana_address":"ｼｽﾞﾅｲｶｲｶﾞﾝﾁｮｳ","pref":"北海道","city":"日高郡新ひだか町","address":"静内海岸町"},
{"zip_code":"0560028","kana_pref":"ﾎｯｶｲﾄﾞｳ","kana_city":"ﾋﾀﾞｶｸﾞﾝｼﾝﾋﾀﾞｶﾁｮｳ","kana_address":"ｼｽﾞﾅｲｶｼﾜﾀﾞｲ","pref":"北海道","city":"日高郡新ひだか町","address":"静内柏台"},
{"zip_code":"0560002","kana_pref":"ﾎｯｶｲﾄﾞｳ","kana_city":"ﾋﾀﾞｶｸﾞﾝｼﾝﾋﾀﾞｶﾁｮｳ","kana_address":"ｼｽﾞﾅｲｶﾐﾓﾘ","pref":"北海道","city":"日高郡新ひだか町","address":"静内神森"},
{"zip_code":"0560025","kana_pref":"ﾎｯｶｲﾄﾞｳ","kana_city":"ﾋﾀﾞｶｸﾞﾝｼﾝﾋﾀﾞｶﾁｮｳ","kana_address":"ｼｽﾞﾅｲｷﾊﾞﾁｮｳ","pref":"北海道","city":"日高郡新ひだか町","address":"静内木場町"},
{"zip_code":"0560005","kana_pref":"ﾎｯｶｲﾄﾞｳ","kana_city":"ﾋﾀﾞｶｸﾞﾝｼﾝﾋﾀﾞｶﾁｮｳ","kana_address":"ｼｽﾞﾅｲｺｳｾｲﾁｮｳ","pref":"北海道","city":"日高郡新ひだか町","address":"静内こうせい町"},
{"zip_code":"0560027","kana_pref":"ﾎｯｶｲﾄﾞｳ","kana_city":"ﾋﾀﾞｶｸﾞﾝｼﾝﾋﾀﾞｶﾁｮｳ","kana_address":"ｼｽﾞﾅｲｺﾏﾊﾞ","pref":"北海道","city":"日高郡新ひだか町","address":"静内駒場"},
{"zip_code":"0560007","kana_pref":"ﾎｯｶｲﾄﾞｳ","kana_city":"ﾋﾀﾞｶｸﾞﾝｼﾝﾋﾀﾞｶﾁｮｳ","kana_address":"ｼｽﾞﾅｲｼﾐｽﾞｵｶ","pref":"北海道","city":"日高郡新ひだか町","address":"静内清水丘"},
{"zip_code":"0560026","kana_pref":"ﾎｯｶｲﾄﾞｳ","kana_city":"ﾋﾀﾞｶｸﾞﾝｼﾝﾋﾀﾞｶﾁｮｳ","kana_address":"ｼｽﾞﾅｲｽｴﾋﾛﾁｮｳ","pref":"北海道","city":"日高郡新ひだか町","address":"静内末広町"},
{"zip_code":"0560022","kana_pref":"ﾎｯｶｲﾄﾞｳ","kana_city":"ﾋﾀﾞｶｸﾞﾝｼﾝﾋﾀﾞｶﾁｮｳ","kana_address":"ｼｽﾞﾅｲﾀｶｻｺﾞﾁｮｳ","pref":"北海道","city":"日高郡新ひだか町","address":"静内高砂町"},
{"zip_code":"0560146","kana_pref":"ﾎｯｶｲﾄﾞｳ","kana_city":"ﾋﾀﾞｶｸﾞﾝｼﾝﾋﾀﾞｶﾁｮｳ","kana_address":"ｼｽﾞﾅｲﾀｶﾐ","pref":"北海道","city":"日高郡新ひだか町","address":"静内高見"},
{"zip_code":"0560144","kana_pref":"ﾎｯｶｲﾄﾞｳ","kana_city":"ﾋﾀﾞｶｸﾞﾝｼﾝﾋﾀﾞｶﾁｮｳ","kana_address":"ｼｽﾞﾅｲﾀﾊﾗ","pref":"北海道","city":"日高郡新ひだか町","address":"静内田原"},
{"zip_code":"0560023","kana_pref":"ﾎｯｶｲﾄﾞｳ","kana_city":"ﾋﾀﾞｶｸﾞﾝｼﾝﾋﾀﾞｶﾁｮｳ","kana_address":"ｼｽﾞﾅｲﾄｷﾜﾁｮｳ","pref":"北海道","city":"日高郡新ひだか町","address":"静内ときわ町"},
{"zip_code":"0560143","kana_pref":"ﾎｯｶｲﾄﾞｳ","kana_city":"ﾋﾀﾞｶｸﾞﾝｼﾝﾋﾀﾞｶﾁｮｳ","kana_address":"ｼｽﾞﾅｲﾄﾖﾊﾀ","pref":"北海道","city":"日高郡新ひだか町","address":"静内豊畑"},
{"zip_code":"0560006","kana_pref":"ﾎｯｶｲﾄﾞｳ","kana_city":"ﾋﾀﾞｶｸﾞﾝｼﾝﾋﾀﾞｶﾁｮｳ","kana_address":"ｼｽﾞﾅｲﾅｶﾉﾁｮｳ","pref":"北海道","city":"日高郡新ひだか町","address":"静内中野町"},
{"zip_code":"0560142","kana_pref":"ﾎｯｶｲﾄﾞｳ","kana_city":"ﾋﾀﾞｶｸﾞﾝｼﾝﾋﾀﾞｶﾁｮｳ","kana_address":"ｼｽﾞﾅｲﾉﾔ","pref":"北海道","city":"日高郡新ひだか町","address":"静内農屋"},
{"zip_code":"0560021","kana_pref":"ﾎｯｶｲﾄﾞｳ","kana_city":"ﾋﾀﾞｶｸﾞﾝｼﾝﾋﾀﾞｶﾁｮｳ","kana_address":"ｼｽﾞﾅｲﾊﾅｿﾞﾉ","pref":"北海道","city":"日高郡新ひだか町","address":"静内花園"},
{"zip_code":"0560014","kana_pref":"ﾎｯｶｲﾄﾞｳ","kana_city":"ﾋﾀﾞｶｸﾞﾝｼﾝﾋﾀﾞｶﾁｮｳ","kana_address":"ｼｽﾞﾅｲﾌﾙｶﾜﾁｮｳ","pref":"北海道","city":"日高郡新ひだか町","address":"静内古川町"},
{"zip_code":"0560016","kana_pref":"ﾎｯｶｲﾄﾞｳ","kana_city":"ﾋﾀﾞｶｸﾞﾝｼﾝﾋﾀﾞｶﾁｮｳ","kana_address":"ｼｽﾞﾅｲﾎﾝﾁｮｳ","pref":"北海道","city":"日高郡新ひだか町","address":"静内本町"},
{"zip_code":"0560011","kana_pref":"ﾎｯｶｲﾄﾞｳ","kana_city":"ﾋﾀﾞｶｸﾞﾝｼﾝﾋﾀﾞｶﾁｮｳ","kana_address":"ｼｽﾞﾅｲﾏｳﾀ","pref":"北海道","city":"日高郡新ひだか町","address":"静内真歌"},
{"zip_code":"0560141","kana_pref":"ﾎｯｶｲﾄﾞｳ","kana_city":"ﾋﾀﾞｶｸﾞﾝｼﾝﾋﾀﾞｶﾁｮｳ","kana_address":"ｼｽﾞﾅｲﾐｿﾉ","pref":"北海道","city":"日高郡新ひだか町","address":"静内御園"},
{"zip_code":"0560004","kana_pref":"ﾎｯｶｲﾄﾞｳ","kana_city":"ﾋﾀﾞｶｸﾞﾝｼﾝﾋﾀﾞｶﾁｮｳ","kana_address":"ｼｽﾞﾅｲﾐﾄﾞﾘﾁｮｳ","pref":"北海道","city":"日高郡新ひだか町","address":"静内緑町"},
{"zip_code":"0560017","kana_pref":"ﾎｯｶｲﾄﾞｳ","kana_city":"ﾋﾀﾞｶｸﾞﾝｼﾝﾋﾀﾞｶﾁｮｳ","kana_address":"ｼｽﾞﾅｲﾐﾕｷﾁｮｳ","pref":"北海道","city":"日高郡新ひだか町","address":"静内御幸町"},
{"zip_code":"0560145","kana_pref":"ﾎｯｶｲﾄﾞｳ","kana_city":"ﾋﾀﾞｶｸﾞﾝｼﾝﾋﾀﾞｶﾁｮｳ","kana_address":"ｼｽﾞﾅｲﾒﾅ","pref":"北海道","city":"日高郡新ひだか町","address":"静内目名"},
{"zip_code":"0560001","kana_pref":"ﾎｯｶｲﾄﾞｳ","kana_city":"ﾋﾀﾞｶｸﾞﾝｼﾝﾋﾀﾞｶﾁｮｳ","kana_address":"ｼｽﾞﾅｲﾒﾅ","pref":"北海道","city":"日高郡新ひだか町","address":"静内目名"},
{"zip_code":"0560024","kana_pref":"ﾎｯｶｲﾄﾞｳ","kana_city":"ﾋﾀﾞｶｸﾞﾝｼﾝﾋﾀﾞｶﾁｮｳ","kana_address":"ｼｽﾞﾅｲﾔﾏﾃﾁｮｳ","pref":"北海道","city":"日高郡新ひだか町","address":"静内山手町"},
{"zip_code":"0560018","kana_pref":"ﾎｯｶｲﾄﾞｳ","kana_city":"ﾋﾀﾞｶｸﾞﾝｼﾝﾋﾀﾞｶﾁｮｳ","kana_address":"ｼｽﾞﾅｲﾖｼﾉﾁｮｳ","pref":"北海道","city":"日高郡新ひだか町","address":"静内吉野町"}]}