{"zip_code":[
{"zip_code":"0570000","kana_pref":"ﾎｯｶｲﾄﾞｳ","kana_city":"ｳﾗｶﾜｸﾞﾝｳﾗｶﾜﾁｮｳ","kana_address":"","pref":"北海道","city":"浦河郡浦河町","address":""},
{"zip_code":"0570011","kana_pref":"ﾎｯｶｲﾄﾞｳ","kana_city":"ｳﾗｶﾜｸﾞﾝｳﾗｶﾜﾁｮｳ","kana_address":"ｱｻﾋﾁｮｳ","pref":"北海道","city":"浦河郡浦河町","address":"旭町"},
{"zip_code":"0570035","kana_pref":"ﾎｯｶｲﾄﾞｳ","kana_city":"ｳﾗｶﾜｸﾞﾝｳﾗｶﾜﾁｮｳ","kana_address":"ｲｶﾝﾀｲ","pref":"北海道","city":"浦河郡浦河町","address":"井寒台"},
{"zip_code":"0570014","kana_pref":"ﾎｯｶｲﾄﾞｳ","kana_city":"ｳﾗｶﾜｸﾞﾝｳﾗｶﾜﾁｮｳ","kana_address":"ｲﾘﾌﾈﾁｮｳ","pref":"北海道","city":"浦河郡浦河町","address":"入船町"},
{"zip_code":"0570036","kana_pref":"ﾎｯｶｲﾄﾞｳ","kana_city":"ｳﾗｶﾜｸﾞﾝｳﾗｶﾜﾁｮｳ","kana_address":"ｴﾌﾞｴ","pref":"北海道","city":"浦河郡浦河町","address":"絵笛"},
{"zip_code":"0570013","kana_pref":"ﾎｯｶｲﾄﾞｳ","kana_city":"ｳﾗｶﾜｸﾞﾝｳﾗｶﾜﾁｮｳ","kana_address":"ｵｵﾄﾞｵﾘ","pref":"北海道","city":"浦河郡浦河町","address":"大通"},
{"zip_code":"0570173","kana_pref":"ﾎｯｶｲﾄﾞｳ","kana_city":"ｳﾗｶﾜｸﾞﾝｳﾗｶﾜﾁｮｳ","kana_address":"ｶﾐｷﾈｳｽ","pref":"北海道","city":"浦河郡浦河町","address":"上杵臼"},
{"zip_code":"0570174","kana_pref":"ﾎｯｶｲﾄﾞｳ","kana_city":"ｳﾗｶﾜｸﾞﾝｳﾗｶﾜﾁｮｳ","kana_address":"ｶﾐﾆｼﾁｬ","pref":"北海道","city":"浦河郡浦河町","address":"上西舎"},
{"zip_code":"0570027","kana_pref":"ﾎｯｶｲﾄﾞｳ","kana_city":"ｳﾗｶﾜｸﾞﾝｳﾗｶﾜﾁｮｳ","kana_address":"ｶﾐﾑｺｳﾍﾞﾂ","pref":"北海道","city":"浦河郡浦河町","address":"上向別"},
{"zip_code":"0570172","kana_pref":"ﾎｯｶｲﾄﾞｳ","kana_city":"ｳﾗｶﾜｸﾞﾝｳﾗｶﾜﾁｮｳ","kana_address":"ｷﾈｳｽ","pref":"北海道","city":"浦河郡浦河町","address":"杵臼"},
{"zip_code":"0570033","kana_pref":"ﾎｯｶｲﾄﾞｳ","kana_city":"ｳﾗｶﾜｸﾞﾝｳﾗｶﾜﾁｮｳ","kana_address":"ｻｶｲﾏﾁﾋｶﾞｼ","pref":"北海道","city":"浦河郡浦河町","address":"堺町東"},
{"zip_code":"0570034","kana_pref":"ﾎｯｶｲﾄﾞｳ","kana_city":"ｳﾗｶﾜｸﾞﾝｳﾗｶﾜﾁｮｳ","kana_address":"ｻｶｲﾏﾁﾆｼ","pref":"北海道","city":"浦河郡浦河町","address":"堺町西"},
{"zip_code":"0570023","kana_pref":"ﾎｯｶｲﾄﾞｳ","kana_city":"ｳﾗｶﾜｸﾞﾝｳﾗｶﾜﾁｮｳ","kana_address":"ｻｶｴｵｶ","pref":"北海道","city":"浦河郡浦河町","address":"栄丘"},
{"zip_code":"0570021","kana_pref":"ﾎｯｶｲﾄﾞｳ","kana_city":"ｳﾗｶﾜｸﾞﾝｳﾗｶﾜﾁｮｳ","kana_address":"ｼｵﾐﾁｮｳ","pref":"北海道","city":"浦河郡浦河町","address":"潮見町"},
{"zip_code":"0570022","kana_pref":"ﾎｯｶｲﾄﾞｳ","kana_city":"ｳﾗｶﾜｸﾞﾝｳﾗｶﾜﾁｮｳ","kana_address":"ｼｮｳﾍｲﾁｮｳ","pref":"北海道","city":"浦河郡浦河町","address":"昌平町"},
{"zip_code":"0570003","kana_pref":"ﾎｯｶｲﾄﾞｳ","kana_city":"ｳﾗｶﾜｸﾞﾝｳﾗｶﾜﾁｮｳ","kana_address":"ｼﾛｲｽﾞﾐ","pref":"北海道","city":"浦河郡浦河町","address":"白泉"},
{"zip_code":"0570004","kana_pref":"ﾎｯｶｲﾄﾞｳ","kana_city":"ｳﾗｶﾜｸﾞﾝｳﾗｶﾜﾁｮｳ","kana_address":"ﾂｷｻｯﾌﾟ","pref":"北海道","city":"浦河郡浦河町","address":"月寒"},
{"zip_code":"0570024","kana_pref":"ﾎｯｶｲﾄﾞｳ","kana_city":"ｳﾗｶﾜｸﾞﾝｳﾗｶﾜﾁｮｳ","kana_address":"ﾂｷｼﾞ","pref":"北海道","city":"浦河郡浦河町","address":"築地"},
{"zip_code":"0570012","kana_pref":"ﾎｯｶｲﾄﾞｳ","kana_city":"ｳﾗｶﾜｸﾞﾝｳﾗｶﾜﾁｮｳ","kana_address":"ﾄｷﾜﾁｮｳ","pref":"北海道","city":"浦河郡浦河町","address":"常盤町"},
{"zip_code":"0570171","kana_pref":"ﾎｯｶｲﾄﾞｳ","kana_city":"ｳﾗｶﾜｸﾞﾝｳﾗｶﾜﾁｮｳ","kana_address":"ﾆｼﾁｬ","pref":"北海道","city":"浦河郡浦河町","address":"西舎"},
{"zip_code":"0570002","kana_pref":"ﾎｯｶｲﾄﾞｳ","kana_city":"ｳﾗｶﾜｸﾞﾝｳﾗｶﾜﾁｮｳ","kana_address":"ﾆｼﾎﾛﾍﾞﾂ","pref":"北海道","city":"浦河郡浦河町","address":"西幌別"},
{"zip_code":"0570015","kana_pref":"ﾎｯｶｲﾄﾞｳ","kana_city":"ｳﾗｶﾜｸﾞﾝｳﾗｶﾜﾁｮｳ","kana_address":"ﾊﾏﾁｮｳ","pref":"北海道","city":"浦河郡浦河町","address":"浜町"},
{"zip_code":"0570005","kana_pref":"ﾎｯｶｲﾄﾞｳ","kana_city":"ｳﾗｶﾜｸﾞﾝｳﾗｶﾜﾁｮｳ","kana_address":"ﾋｶﾞｼﾁｮｳｳｼｵ","pref":"北海道","city":"浦河郡浦河町","address":"東町うしお"},
{"zip_code":"0570006","kana_pref":"ﾎｯｶｲﾄﾞｳ","kana_city":"ｳﾗｶﾜｸﾞﾝｳﾗｶﾜﾁｮｳ","kana_address":"ﾋｶﾞｼﾁｮｳｶｼﾜ","pref":"北海道","city":"浦河郡浦河町","address":"東町かしわ"},
{"zip_code":"0570007","kana_pref":"ﾎｯｶｲﾄﾞｳ","kana_city":"ｳﾗｶﾜｸﾞﾝｳﾗｶﾜﾁｮｳ","kana_address":"ﾋｶﾞｼﾁｮｳﾁﾉﾐ","pref":"北海道","city":"浦河郡浦河町","address":"東町ちのみ"},
{"zip_code":"0570001","kana_pref":"ﾎｯｶｲﾄﾞｳ","kana_city":"ｳﾗｶﾜｸﾞﾝｳﾗｶﾜﾁｮｳ","kana_address":"ﾋｶﾞｼﾎﾛﾍﾞﾂ","pref":"北海道","city":"浦河郡浦河町","address":"東幌別"},
{"zip_code":"0570025","kana_pref":"ﾎｯｶｲﾄﾞｳ","kana_city":"ｳﾗｶﾜｸﾞﾝｳﾗｶﾜﾁｮｳ","kana_address":"ﾐﾄﾞﾘﾏﾁ","pref":"北海道","city":"浦河郡浦河町","address":"緑町"},
{"zip_code":"0570031","kana_pref":"ﾎｯｶｲﾄﾞｳ","kana_city":"ｳﾗｶﾜｸﾞﾝｳﾗｶﾜﾁｮｳ","kana_address":"ﾑｺｳｶﾞｵｶﾋｶﾞｼ","pref":"北海道","city":"浦河郡浦河町","address":"向が丘東"},
{"zip_code":"0570032","kana_pref":"ﾎｯｶｲﾄﾞｳ","kana_city":"ｳﾗｶﾜｸﾞﾝｳﾗｶﾜﾁｮｳ","kana_address":"ﾑｺｳｶﾞｵｶﾆｼ","pref":"北海道","city":"浦河郡浦河町","address":"向が丘西"},
{"zip_code":"0570026","kana_pref":"ﾎｯｶｲﾄﾞｳ","kana_city":"ｳﾗｶﾜｸﾞﾝｳﾗｶﾜﾁｮｳ","kana_address":"ﾑｺｳﾍﾞﾂ","pref":"北海道","city":"浦河郡浦河町","address":"向別"}]}