{"zip_code":[
{"zip_code":"0580041","kana_pref":"ﾎｯｶｲﾄﾞｳ","kana_city":"ｳﾗｶﾜｸﾞﾝｳﾗｶﾜﾁｮｳ","kana_address":"ﾋｶﾞｼﾎﾛﾍﾞﾂ","pref":"北海道","city":"浦河郡浦河町","address":"東幌別"},
{"zip_code":"0580000","kana_pref":"ﾎｯｶｲﾄﾞｳ","kana_city":"ｻﾏﾆｸﾞﾝｻﾏﾆﾁｮｳ","kana_address":"","pref":"北海道","city":"様似郡様似町","address":""},
{"zip_code":"0580001","kana_pref":"ﾎｯｶｲﾄﾞｳ","kana_city":"ｻﾏﾆｸﾞﾝｻﾏﾆﾁｮｳ","kana_address":"ｱｻﾋ","pref":"北海道","city":"様似郡様似町","address":"旭"},
{"zip_code":"0580012","kana_pref":"ﾎｯｶｲﾄﾞｳ","kana_city":"ｻﾏﾆｸﾞﾝｻﾏﾆﾁｮｳ","kana_address":"ｱｻﾋｵｶ","pref":"北海道","city":"様似郡様似町","address":"朝日丘"},
{"zip_code":"0580033","kana_pref":"ﾎｯｶｲﾄﾞｳ","kana_city":"ｻﾏﾆｸﾞﾝｻﾏﾆﾁｮｳ","kana_address":"ｳﾄﾏ","pref":"北海道","city":"様似郡様似町","address":"鵜苫"},
{"zip_code":"0580014","kana_pref":"ﾎｯｶｲﾄﾞｳ","kana_city":"ｻﾏﾆｸﾞﾝｻﾏﾆﾁｮｳ","kana_address":"ｵｵﾄﾞｵﾘ","pref":"北海道","city":"様似郡様似町","address":"大通"},
{"zip_code":"0580022","kana_pref":"ﾎｯｶｲﾄﾞｳ","kana_city":"ｻﾏﾆｸﾞﾝｻﾏﾆﾁｮｳ","kana_address":"ｵｶﾀﾞ","pref":"北海道","city":"様似郡様似町","address":"岡田"},
{"zip_code":"0580024","kana_pref":"ﾎｯｶｲﾄﾞｳ","kana_city":"ｻﾏﾆｸﾞﾝｻﾏﾆﾁｮｳ","kana_address":"ｶｲｼｮﾏﾁ","pref":"北海道","city":"様似郡様似町","address":"会所町"},
{"zip_code":"0580023","kana_pref":"ﾎｯｶｲﾄﾞｳ","kana_city":"ｻﾏﾆｸﾞﾝｻﾏﾆﾁｮｳ","kana_address":"ｻｶｴﾏﾁ","pref":"北海道","city":"様似郡様似町","address":"栄町"},
{"zip_code":"0580027","kana_pref":"ﾎｯｶｲﾄﾞｳ","kana_city":"ｻﾏﾆｸﾞﾝｻﾏﾆﾁｮｳ","kana_address":"ｼｵﾐﾀﾞｲ","pref":"北海道","city":"様似郡様似町","address":"潮見台"},
{"zip_code":"0580021","kana_pref":"ﾎｯｶｲﾄﾞｳ","kana_city":"ｻﾏﾆｸﾞﾝｻﾏﾆﾁｮｳ","kana_address":"ｼﾝﾄﾐ","pref":"北海道","city":"様似郡様似町","address":"新富"},
{"zip_code":"0580011","kana_pref":"ﾎｯｶｲﾄﾞｳ","kana_city":"ｻﾏﾆｸﾞﾝｻﾏﾆﾁｮｳ","kana_address":"ﾀｼﾛ","pref":"北海道","city":"様似郡様似町","address":"田代"},
{"zip_code":"0580015","kana_pref":"ﾎｯｶｲﾄﾞｳ","kana_city":"ｻﾏﾆｸﾞﾝｻﾏﾆﾁｮｳ","kana_address":"ﾆｼｷﾏﾁ","pref":"北海道","city":"様似郡様似町","address":"錦町"},
{"zip_code":"0580031","kana_pref":"ﾎｯｶｲﾄﾞｳ","kana_city":"ｻﾏﾆｸﾞﾝｻﾏﾆﾁｮｳ","kana_address":"ﾆｼｻﾏﾆ","pref":"北海道","city":"様似郡様似町","address":"西様似"},
{"zip_code":"0580032","kana_pref":"ﾎｯｶｲﾄﾞｳ","kana_city":"ｻﾏﾆｸﾞﾝｻﾏﾆﾁｮｳ","kana_address":"ﾆｼﾏﾁ","pref":"北海道","city":"様似郡様似町","address":"西町"},
{"zip_code":"0580004","kana_pref":"ﾎｯｶｲﾄﾞｳ","kana_city":"ｻﾏﾆｸﾞﾝｻﾏﾆﾁｮｳ","kana_address":"ﾋﾗｳ","pref":"北海道","city":"様似郡様似町","address":"平宇"},
{"zip_code":"0580003","kana_pref":"ﾎｯｶｲﾄﾞｳ","kana_city":"ｻﾏﾆｸﾞﾝｻﾏﾆﾁｮｳ","kana_address":"ﾌﾕｼﾏ","pref":"北海道","city":"様似郡様似町","address":"冬島"},
{"zip_code":"0580002","kana_pref":"ﾎｯｶｲﾄﾞｳ","kana_city":"ｻﾏﾆｸﾞﾝｻﾏﾆﾁｮｳ","kana_address":"ﾎﾛﾏﾝ","pref":"北海道","city":"様似郡様似町","address":"幌満"},
{"zip_code":"0580026","kana_pref":"ﾎｯｶｲﾄﾞｳ","kana_city":"ｻﾏﾆｸﾞﾝｻﾏﾆﾁｮｳ","kana_address":"ﾎﾝﾁｮｳ","pref":"北海道","city":"様似郡様似町","address":"本町"},
{"zip_code":"0580013","kana_pref":"ﾎｯｶｲﾄﾞｳ","kana_city":"ｻﾏﾆｸﾞﾝｻﾏﾆﾁｮｳ","kana_address":"ﾐﾄﾞﾘﾏﾁ","pref":"北海道","city":"様似郡様似町","address":"緑町"},
{"zip_code":"0580025","kana_pref":"ﾎｯｶｲﾄﾞｳ","kana_city":"ｻﾏﾆｸﾞﾝｻﾏﾆﾁｮｳ","kana_address":"ﾐﾅﾄﾏﾁ","pref":"北海道","city":"様似郡様似町","address":"港町"},
{"zip_code":"0580200","kana_pref":"ﾎｯｶｲﾄﾞｳ","kana_city":"ﾎﾛｲｽﾞﾐｸﾞﾝｴﾘﾓﾁｮｳ","kana_address":"","pref":"北海道","city":"幌泉郡えりも町","address":""},
{"zip_code":"0580202","kana_pref":"ﾎｯｶｲﾄﾞｳ","kana_city":"ﾎﾛｲｽﾞﾐｸﾞﾝｴﾘﾓﾁｮｳ","kana_address":"ｳﾀﾍﾞﾂ","pref":"北海道","city":"幌泉郡えりも町","address":"歌別"},
{"zip_code":"0580342","kana_pref":"ﾎｯｶｲﾄﾞｳ","kana_city":"ﾎﾛｲｽﾞﾐｸﾞﾝｴﾘﾓﾁｮｳ","kana_address":"ｴﾘﾓﾐｻｷ","pref":"北海道","city":"幌泉郡えりも町","address":"えりも岬"},
{"zip_code":"0580421","kana_pref":"ﾎｯｶｲﾄﾞｳ","kana_city":"ﾎﾛｲｽﾞﾐｸﾞﾝｴﾘﾓﾁｮｳ","kana_address":"ｼｮﾔ","pref":"北海道","city":"幌泉郡えりも町","address":"庶野"},
{"zip_code":"0580203","kana_pref":"ﾎｯｶｲﾄﾞｳ","kana_city":"ﾎﾛｲｽﾞﾐｸﾞﾝｴﾘﾓﾁｮｳ","kana_address":"ｼﾝﾊﾏ","pref":"北海道","city":"幌泉郡えりも町","address":"新浜"},
{"zip_code":"0580207","kana_pref":"ﾎｯｶｲﾄﾞｳ","kana_city":"ﾎﾛｲｽﾞﾐｸﾞﾝｴﾘﾓﾁｮｳ","kana_address":"ﾁｶｳﾗ","pref":"北海道","city":"幌泉郡えりも町","address":"近浦"},
{"zip_code":"0580343","kana_pref":"ﾎｯｶｲﾄﾞｳ","kana_city":"ﾎﾛｲｽﾞﾐｸﾞﾝｴﾘﾓﾁｮｳ","kana_address":"ﾄｳﾖｳ","pref":"北海道","city":"幌泉郡えりも町","address":"東洋"},
{"zip_code":"0580201","kana_pref":"ﾎｯｶｲﾄﾞｳ","kana_city":"ﾎﾛｲｽﾞﾐｸﾞﾝｴﾘﾓﾁｮｳ","kana_address":"ﾄｳﾖｳ","pref":"北海道","city":"幌泉郡えりも町","address":"東洋"},
{"zip_code":"0580341","kana_pref":"ﾎｯｶｲﾄﾞｳ","kana_city":"ﾎﾛｲｽﾞﾐｸﾞﾝｴﾘﾓﾁｮｳ","kana_address":"ﾄﾏﾍﾞﾂ","pref":"北海道","city":"幌泉郡えりも町","address":"苫別"},
{"zip_code":"0580206","kana_pref":"ﾎｯｶｲﾄﾞｳ","kana_city":"ﾎﾛｲｽﾞﾐｸﾞﾝｴﾘﾓﾁｮｳ","kana_address":"ﾌｴﾏｲ","pref":"北海道","city":"幌泉郡えりも町","address":"笛舞"},
{"zip_code":"0580204","kana_pref":"ﾎｯｶｲﾄﾞｳ","kana_city":"ﾎﾛｲｽﾞﾐｸﾞﾝｴﾘﾓﾁｮｳ","kana_address":"ﾎﾝﾁｮｳ","pref":"北海道","city":"幌泉郡えりも町","address":"本町"},
{"zip_code":"0580422","kana_pref":"ﾎｯｶｲﾄﾞｳ","kana_city":"ﾎﾛｲｽﾞﾐｸﾞﾝｴﾘﾓﾁｮｳ","kana_address":"ﾒｸﾞﾛ","pref":"北海道","city":"幌泉郡えりも町","address":"目黒"},
{"zip_code":"0580205","kana_pref":"ﾎｯｶｲﾄﾞｳ","kana_city":"ﾎﾛｲｽﾞﾐｸﾞﾝｴﾘﾓﾁｮｳ","kana_address":"ﾔﾏﾄ","pref":"北海道","city":"幌泉郡えりも町","address":"大和"}]}