{"zip_code":[
{"zip_code":"0591366","kana_pref":"ﾎｯｶｲﾄﾞｳ","kana_city":"ﾄﾏｺﾏｲｼ","kana_address":"ｱｹﾎﾞﾉﾁｮｳ","pref":"北海道","city":"苫小牧市","address":"あけぼの町"},
{"zip_code":"0591375","kana_pref":"ﾎｯｶｲﾄﾞｳ","kana_city":"ﾄﾏｺﾏｲｼ","kana_address":"ｲｯﾎﾟﾝﾏﾂﾁｮｳ","pref":"北海道","city":"苫小牧市","address":"一本松町"},
{"zip_code":"0591365","kana_pref":"ﾎｯｶｲﾄﾞｳ","kana_city":"ﾄﾏｺﾏｲｼ","kana_address":"ｳｴﾅｴ","pref":"北海道","city":"苫小牧市","address":"植苗"},
{"zip_code":"0591362","kana_pref":"ﾎｯｶｲﾄﾞｳ","kana_city":"ﾄﾏｺﾏｲｼ","kana_address":"ｶｼﾜﾊﾞﾗ","pref":"北海道","city":"苫小牧市","address":"柏原"},
{"zip_code":"0591363","kana_pref":"ﾎｯｶｲﾄﾞｳ","kana_city":"ﾄﾏｺﾏｲｼ","kana_address":"ｼｽﾞｶﾜ","pref":"北海道","city":"苫小牧市","address":"静川"},
{"zip_code":"0591271","kana_pref":"ﾎｯｶｲﾄﾞｳ","kana_city":"ﾄﾏｺﾏｲｼ","kana_address":"ｽﾐｶﾜﾁｮｳ","pref":"北海道","city":"苫小牧市","address":"澄川町"},
{"zip_code":"0591263","kana_pref":"ﾎｯｶｲﾄﾞｳ","kana_city":"ﾄﾏｺﾏｲｼ","kana_address":"ｾｲｳﾝﾁｮｳ","pref":"北海道","city":"苫小牧市","address":"青雲町"},
{"zip_code":"0591302","kana_pref":"ﾎｯｶｲﾄﾞｳ","kana_city":"ﾄﾏｺﾏｲｼ","kana_address":"ﾀｸﾕｳﾆｼﾏﾁ","pref":"北海道","city":"苫小牧市","address":"拓勇西町"},
{"zip_code":"0591303","kana_pref":"ﾎｯｶｲﾄﾞｳ","kana_city":"ﾄﾏｺﾏｲｼ","kana_address":"ﾀｸﾕｳﾋｶﾞｼﾏﾁ","pref":"北海道","city":"苫小牧市","address":"拓勇東町"},
{"zip_code":"0591265","kana_pref":"ﾎｯｶｲﾄﾞｳ","kana_city":"ﾄﾏｺﾏｲｼ","kana_address":"ﾀﾙﾏｴ","pref":"北海道","city":"苫小牧市","address":"樽前"},
{"zip_code":"0591301","kana_pref":"ﾎｯｶｲﾄﾞｳ","kana_city":"ﾄﾏｺﾏｲｼ","kana_address":"ﾄｳｶｲﾁｮｳ","pref":"北海道","city":"苫小牧市","address":"東開町"},
{"zip_code":"0591261","kana_pref":"ﾎｯｶｲﾄﾞｳ","kana_city":"ﾄﾏｺﾏｲｼ","kana_address":"ﾄｷﾜﾁｮｳ","pref":"北海道","city":"苫小牧市","address":"ときわ町"},
{"zip_code":"0591275","kana_pref":"ﾎｯｶｲﾄﾞｳ","kana_city":"ﾄﾏｺﾏｲｼ","kana_address":"ﾆｼｷｵｶ","pref":"北海道","city":"苫小牧市","address":"錦岡"},
{"zip_code":"0591364","kana_pref":"ﾎｯｶｲﾄﾞｳ","kana_city":"ﾄﾏｺﾏｲｼ","kana_address":"ﾇﾏﾉﾊﾀ","pref":"北海道","city":"苫小牧市","address":"沼ノ端"},
{"zip_code":"0591272","kana_pref":"ﾎｯｶｲﾄﾞｳ","kana_city":"ﾄﾏｺﾏｲｼ","kana_address":"ﾉｿﾞﾐﾁｮｳ","pref":"北海道","city":"苫小牧市","address":"のぞみ町"},
{"zip_code":"0591276","kana_pref":"ﾎｯｶｲﾄﾞｳ","kana_city":"ﾄﾏｺﾏｲｼ","kana_address":"ﾊﾏﾅｽﾁｮｳ","pref":"北海道","city":"苫小牧市","address":"はまなす町"},
{"zip_code":"0591374","kana_pref":"ﾎｯｶｲﾄﾞｳ","kana_city":"ﾄﾏｺﾏｲｼ","kana_address":"ﾊﾙﾐﾁｮｳ","pref":"北海道","city":"苫小牧市","address":"晴海町"},
{"zip_code":"0591371","kana_pref":"ﾎｯｶｲﾄﾞｳ","kana_city":"ﾄﾏｺﾏｲｼ","kana_address":"ﾍﾞﾝﾃﾝ","pref":"北海道","city":"苫小牧市","address":"弁天"},
{"zip_code":"0591304","kana_pref":"ﾎｯｶｲﾄﾞｳ","kana_city":"ﾄﾏｺﾏｲｼ","kana_address":"ﾎｸｴｲﾁｮｳ","pref":"北海道","city":"苫小牧市","address":"北栄町"},
{"zip_code":"0591373","kana_pref":"ﾎｯｶｲﾄﾞｳ","kana_city":"ﾄﾏｺﾏｲｼ","kana_address":"ﾏｻｺﾞﾁｮｳ","pref":"北海道","city":"苫小牧市","address":"真砂町"},
{"zip_code":"0591361","kana_pref":"ﾎｯｶｲﾄﾞｳ","kana_city":"ﾄﾏｺﾏｲｼ","kana_address":"ﾐｻﾜ","pref":"北海道","city":"苫小牧市","address":"美沢"},
{"zip_code":"0591262","kana_pref":"ﾎｯｶｲﾄﾞｳ","kana_city":"ﾄﾏｺﾏｲｼ","kana_address":"ﾐﾊﾗﾏﾁ","pref":"北海道","city":"苫小牧市","address":"美原町"},
{"zip_code":"0591264","kana_pref":"ﾎｯｶｲﾄﾞｳ","kana_city":"ﾄﾏｺﾏｲｼ","kana_address":"ﾐﾔﾏｴﾁｮｳ","pref":"北海道","city":"苫小牧市","address":"宮前町"},
{"zip_code":"0591273","kana_pref":"ﾎｯｶｲﾄﾞｳ","kana_city":"ﾄﾏｺﾏｲｼ","kana_address":"ﾒｲﾄｸﾁｮｳ","pref":"北海道","city":"苫小牧市","address":"明徳町"},
{"zip_code":"0591274","kana_pref":"ﾎｯｶｲﾄﾞｳ","kana_city":"ﾄﾏｺﾏｲｼ","kana_address":"ﾓｴｷﾞﾁｮｳ","pref":"北海道","city":"苫小牧市","address":"もえぎ町"},
{"zip_code":"0591372","kana_pref":"ﾎｯｶｲﾄﾞｳ","kana_city":"ﾄﾏｺﾏｲｼ","kana_address":"ﾕｳﾌﾂ","pref":"北海道","city":"苫小牧市","address":"勇払"},
{"zip_code":"0590000","kana_pref":"ﾎｯｶｲﾄﾞｳ","kana_city":"ﾉﾎﾞﾘﾍﾞﾂｼ","kana_address":"","pref":"北海道","city":"登別市","address":""},
{"zip_code":"0590027","kana_pref":"ﾎｯｶｲﾄﾞｳ","kana_city":"ﾉﾎﾞﾘﾍﾞﾂｼ","kana_address":"ｱｵﾊﾞﾁｮｳ","pref":"北海道","city":"登別市","address":"青葉町"},
{"zip_code":"0590017","kana_pref":"ﾎｯｶｲﾄﾞｳ","kana_city":"ﾉﾎﾞﾘﾍﾞﾂｼ","kana_address":"ｶｼﾜｷﾞﾁｮｳ","pref":"北海道","city":"登別市","address":"柏木町"},
{"zip_code":"0590016","kana_pref":"ﾎｯｶｲﾄﾞｳ","kana_city":"ﾉﾎﾞﾘﾍﾞﾂｼ","kana_address":"ｶﾀｸﾗﾁｮｳ","pref":"北海道","city":"登別市","address":"片倉町"},
{"zip_code":"0590552","kana_pref":"ﾎｯｶｲﾄﾞｳ","kana_city":"ﾉﾎﾞﾘﾍﾞﾂｼ","kana_address":"ｶﾐﾉﾎﾞﾘﾍﾞﾂﾁｮｳ","pref":"北海道","city":"登別市","address":"上登別町"},
{"zip_code":"0590031","kana_pref":"ﾎｯｶｲﾄﾞｳ","kana_city":"ﾉﾎﾞﾘﾍﾞﾂｼ","kana_address":"ｶﾐﾜｼﾍﾞﾂﾁｮｳ","pref":"北海道","city":"登別市","address":"上鷲別町"},
{"zip_code":"0590553","kana_pref":"ﾎｯｶｲﾄﾞｳ","kana_city":"ﾉﾎﾞﾘﾍﾞﾂｼ","kana_address":"ｶﾙﾙｽﾁｮｳ","pref":"北海道","city":"登別市","address":"カルルス町"},
{"zip_code":"0590022","kana_pref":"ﾎｯｶｲﾄﾞｳ","kana_city":"ﾉﾎﾞﾘﾍﾞﾂｼ","kana_address":"ｶﾜｶﾐﾁｮｳ","pref":"北海道","city":"登別市","address":"川上町"},
{"zip_code":"0590021","kana_pref":"ﾎｯｶｲﾄﾞｳ","kana_city":"ﾉﾎﾞﾘﾍﾞﾂｼ","kana_address":"ｺｳｻﾞﾝﾁｮｳ","pref":"北海道","city":"登別市","address":"鉱山町"},
{"zip_code":"0590002","kana_pref":"ﾎｯｶｲﾄﾞｳ","kana_city":"ﾉﾎﾞﾘﾍﾞﾂｼ","kana_address":"ｻｲﾜｲﾁｮｳ","pref":"北海道","city":"登別市","address":"幸町"},
{"zip_code":"0590033","kana_pref":"ﾎｯｶｲﾄﾞｳ","kana_city":"ﾉﾎﾞﾘﾍﾞﾂｼ","kana_address":"ｻｶｴﾁｮｳ","pref":"北海道","city":"登別市","address":"栄町"},
{"zip_code":"0590023","kana_pref":"ﾎｯｶｲﾄﾞｳ","kana_city":"ﾉﾎﾞﾘﾍﾞﾂｼ","kana_address":"ｻｸﾗｷﾞﾁｮｳ","pref":"北海道","city":"登別市","address":"桜木町"},
{"zip_code":"0590005","kana_pref":"ﾎｯｶｲﾄﾞｳ","kana_city":"ﾉﾎﾞﾘﾍﾞﾂｼ","kana_address":"ｻﾂﾅｲﾁｮｳ(5","pref":"北海道","city":"登別市","address":"札内町（５"},
{"zip_code":"0590005","kana_pref":"ﾎｯｶｲﾄﾞｳ","kana_city":"ﾉﾎﾞﾘﾍﾞﾂｼ","kana_address":"9","pref":"北海道","city":"登別市","address":"９"},
{"zip_code":"0590005","kana_pref":"ﾎｯｶｲﾄﾞｳ","kana_city":"ﾉﾎﾞﾘﾍﾞﾂｼ","kana_address":"11-12","pref":"北海道","city":"登別市","address":"１１−１２"},
{"zip_code":"0590005","kana_pref":"ﾎｯｶｲﾄﾞｳ","kana_city":"ﾉﾎﾞﾘﾍﾞﾂｼ","kana_address":"36","pref":"北海道","city":"登別市","address":"３６"},
{"zip_code":"0590005","kana_pref":"ﾎｯｶｲﾄﾞｳ","kana_city":"ﾉﾎﾞﾘﾍﾞﾂｼ","kana_address":"42-2","pref":"北海道","city":"登別市","address":"４２−２"},
{"zip_code":"0590005","kana_pref":"ﾎｯｶｲﾄﾞｳ","kana_city":"ﾉﾎﾞﾘﾍﾞﾂｼ","kana_address":"62","pref":"北海道","city":"登別市","address":"６２"},
{"zip_code":"0590005","kana_pref":"ﾎｯｶｲﾄﾞｳ","kana_city":"ﾉﾎﾞﾘﾍﾞﾂｼ","kana_address":"80","pref":"北海道","city":"登別市","address":"８０"},
{"zip_code":"0590005","kana_pref":"ﾎｯｶｲﾄﾞｳ","kana_city":"ﾉﾎﾞﾘﾍﾞﾂｼ","kana_address":"95","pref":"北海道","city":"登別市","address":"９５"},
{"zip_code":"0590005","kana_pref":"ﾎｯｶｲﾄﾞｳ","kana_city":"ﾉﾎﾞﾘﾍﾞﾂｼ","kana_address":"","pref":"北海道","city":"登別市","address":""},
{"zip_code":"0590005","kana_pref":"ﾎｯｶｲﾄﾞｳ","kana_city":"ﾉﾎﾞﾘﾍﾞﾂｼ","kana_address":"184ﾊﾞﾝﾁ","pref":"北海道","city":"登別市","address":"１８４番地"},
{"zip_code":"0590005","kana_pref":"ﾎｯｶｲﾄﾞｳ","kana_city":"ﾉﾎﾞﾘﾍﾞﾂｼ","kana_address":"231ﾊﾞﾝﾁ","pref":"北海道","city":"登別市","address":"２３１番地"},
{"zip_code":"0590005","kana_pref":"ﾎｯｶｲﾄﾞｳ","kana_city":"ﾉﾎﾞﾘﾍﾞﾂｼ","kana_address":"389-2ﾊﾞﾝﾁ","pref":"北海道","city":"登別市","address":"３８９−２番地"},
{"zip_code":"0590005","kana_pref":"ﾎｯｶｲﾄﾞｳ","kana_city":"ﾉﾎﾞﾘﾍﾞﾂｼ","kana_address":"499ﾊﾞﾝﾁ","pref":"北海道","city":"登別市","address":"４９９番地"},
{"zip_code":"0590005","kana_pref":"ﾎｯｶｲﾄﾞｳ","kana_city":"ﾉﾎﾞﾘﾍﾞﾂｼ","kana_address":"500ﾊﾞﾝﾁ)","pref":"北海道","city":"登別市","address":"５００番地）"},
{"zip_code":"0590461","kana_pref":"ﾎｯｶｲﾄﾞｳ","kana_city":"ﾉﾎﾞﾘﾍﾞﾂｼ","kana_address":"ｻﾂﾅｲﾁｮｳ","pref":"北海道","city":"登別市","address":"札内町"},
{"zip_code":"0590001","kana_pref":"ﾎｯｶｲﾄﾞｳ","kana_city":"ﾉﾎﾞﾘﾍﾞﾂｼ","kana_address":"ｼﾝｴｲﾁｮｳ","pref":"北海道","city":"登別市","address":"新栄町"},
{"zip_code":"0590015","kana_pref":"ﾎｯｶｲﾄﾞｳ","kana_city":"ﾉﾎﾞﾘﾍﾞﾂｼ","kana_address":"ｼﾝｶﾜﾁｮｳ","pref":"北海道","city":"登別市","address":"新川町"},
{"zip_code":"0590032","kana_pref":"ﾎｯｶｲﾄﾞｳ","kana_city":"ﾉﾎﾞﾘﾍﾞﾂｼ","kana_address":"ｼﾝｾｲﾁｮｳ","pref":"北海道","city":"登別市","address":"新生町"},
{"zip_code":"0590003","kana_pref":"ﾎｯｶｲﾄﾞｳ","kana_city":"ﾉﾎﾞﾘﾍﾞﾂｼ","kana_address":"ﾁﾄｾﾁｮｳ","pref":"北海道","city":"登別市","address":"千歳町"},
{"zip_code":"0590012","kana_pref":"ﾎｯｶｲﾄﾞｳ","kana_city":"ﾉﾎﾞﾘﾍﾞﾂｼ","kana_address":"ﾁｭｳｵｳﾁｮｳ","pref":"北海道","city":"登別市","address":"中央町"},
{"zip_code":"0590011","kana_pref":"ﾎｯｶｲﾄﾞｳ","kana_city":"ﾉﾎﾞﾘﾍﾞﾂｼ","kana_address":"ﾄｷﾜﾁｮｳ","pref":"北海道","city":"登別市","address":"常盤町"},
{"zip_code":"0590462","kana_pref":"ﾎｯｶｲﾄﾞｳ","kana_city":"ﾉﾎﾞﾘﾍﾞﾂｼ","kana_address":"ﾄﾐｳﾗﾁｮｳ","pref":"北海道","city":"登別市","address":"富浦町"},
{"zip_code":"0590028","kana_pref":"ﾎｯｶｲﾄﾞｳ","kana_city":"ﾉﾎﾞﾘﾍﾞﾂｼ","kana_address":"ﾄﾝｹｼﾁｮｳ","pref":"北海道","city":"登別市","address":"富岸町"},
{"zip_code":"0590463","kana_pref":"ﾎｯｶｲﾄﾞｳ","kana_city":"ﾉﾎﾞﾘﾍﾞﾂｼ","kana_address":"ﾅｶﾉﾎﾞﾘﾍﾞﾂﾁｮｳ","pref":"北海道","city":"登別市","address":"中登別町"},
{"zip_code":"0590551","kana_pref":"ﾎｯｶｲﾄﾞｳ","kana_city":"ﾉﾎﾞﾘﾍﾞﾂｼ","kana_address":"ﾉﾎﾞﾘﾍﾞﾂｵﾝｾﾝﾁｮｳ","pref":"北海道","city":"登別市","address":"登別温泉町"},
{"zip_code":"0590464","kana_pref":"ﾎｯｶｲﾄﾞｳ","kana_city":"ﾉﾎﾞﾘﾍﾞﾂｼ","kana_address":"ﾉﾎﾞﾘﾍﾞﾂﾋｶﾞｼﾁｮｳ","pref":"北海道","city":"登別市","address":"登別東町"},
{"zip_code":"0590465","kana_pref":"ﾎｯｶｲﾄﾞｳ","kana_city":"ﾉﾎﾞﾘﾍﾞﾂｼ","kana_address":"ﾉﾎﾞﾘﾍﾞﾂﾎﾝﾁｮｳ","pref":"北海道","city":"登別市","address":"登別本町"},
{"zip_code":"0590466","kana_pref":"ﾎｯｶｲﾄﾞｳ","kana_city":"ﾉﾎﾞﾘﾍﾞﾂｼ","kana_address":"ﾉﾎﾞﾘﾍﾞﾂﾐﾅﾄﾁｮｳ","pref":"北海道","city":"登別市","address":"登別港町"},
{"zip_code":"0590014","kana_pref":"ﾎｯｶｲﾄﾞｳ","kana_city":"ﾉﾎﾞﾘﾍﾞﾂｼ","kana_address":"ﾌｼﾞﾁｮｳ","pref":"北海道","city":"登別市","address":"富士町"},
{"zip_code":"0590013","kana_pref":"ﾎｯｶｲﾄﾞｳ","kana_city":"ﾉﾎﾞﾘﾍﾞﾂｼ","kana_address":"ﾎﾛﾍﾞﾂﾁｮｳ","pref":"北海道","city":"登別市","address":"幌別町"},
{"zip_code":"0590036","kana_pref":"ﾎｯｶｲﾄﾞｳ","kana_city":"ﾉﾎﾞﾘﾍﾞﾂｼ","kana_address":"ﾐｿﾉﾁｮｳ","pref":"北海道","city":"登別市","address":"美園町"},
{"zip_code":"0590024","kana_pref":"ﾎｯｶｲﾄﾞｳ","kana_city":"ﾉﾎﾞﾘﾍﾞﾂｼ","kana_address":"ﾐﾄﾞﾘﾁｮｳ","pref":"北海道","city":"登別市","address":"緑町"},
{"zip_code":"0590025","kana_pref":"ﾎｯｶｲﾄﾞｳ","kana_city":"ﾉﾎﾞﾘﾍﾞﾂｼ","kana_address":"ﾔﾏﾄﾁｮｳ","pref":"北海道","city":"登別市","address":"大和町"},
{"zip_code":"0590004","kana_pref":"ﾎｯｶｲﾄﾞｳ","kana_city":"ﾉﾎﾞﾘﾍﾞﾂｼ","kana_address":"ﾗｲﾊﾞﾁｮｳ","pref":"北海道","city":"登別市","address":"来馬町"},
{"zip_code":"0590035","kana_pref":"ﾎｯｶｲﾄﾞｳ","kana_city":"ﾉﾎﾞﾘﾍﾞﾂｼ","kana_address":"ﾜｶｸｻﾁｮｳ","pref":"北海道","city":"登別市","address":"若草町"},
{"zip_code":"0590026","kana_pref":"ﾎｯｶｲﾄﾞｳ","kana_city":"ﾉﾎﾞﾘﾍﾞﾂｼ","kana_address":"ﾜｶﾔﾏﾁｮｳ","pref":"北海道","city":"登別市","address":"若山町"},
{"zip_code":"0590034","kana_pref":"ﾎｯｶｲﾄﾞｳ","kana_city":"ﾉﾎﾞﾘﾍﾞﾂｼ","kana_address":"ﾜｼﾍﾞﾂﾁｮｳ","pref":"北海道","city":"登別市","address":"鷲別町"},
{"zip_code":"0590151","kana_pref":"ﾎｯｶｲﾄﾞｳ","kana_city":"ﾀﾞﾃｼ","kana_address":"ｳｽﾁｮｳ","pref":"北海道","city":"伊達市","address":"有珠町"},
{"zip_code":"0590153","kana_pref":"ﾎｯｶｲﾄﾞｳ","kana_city":"ﾀﾞﾃｼ","kana_address":"ｵｵﾀﾞｲﾗﾁｮｳ","pref":"北海道","city":"伊達市","address":"大平町"},
{"zip_code":"0590152","kana_pref":"ﾎｯｶｲﾄﾞｳ","kana_city":"ﾀﾞﾃｼ","kana_address":"ｷﾀｳｽﾁｮｳ","pref":"北海道","city":"伊達市","address":"北有珠町"},
{"zip_code":"0590272","kana_pref":"ﾎｯｶｲﾄﾞｳ","kana_city":"ﾀﾞﾃｼ","kana_address":"ｷﾀｺｶﾞﾈﾁｮｳ","pref":"北海道","city":"伊達市","address":"北黄金町"},
{"zip_code":"0590275","kana_pref":"ﾎｯｶｲﾄﾞｳ","kana_city":"ﾀﾞﾃｼ","kana_address":"ｷﾀﾏﾚﾌﾁｮｳ","pref":"北海道","city":"伊達市","address":"北稀府町"},
{"zip_code":"0590274","kana_pref":"ﾎｯｶｲﾄﾞｳ","kana_city":"ﾀﾞﾃｼ","kana_address":"ﾅｶﾏﾚﾌﾁｮｳ","pref":"北海道","city":"伊達市","address":"中稀府町"},
{"zip_code":"0590154","kana_pref":"ﾎｯｶｲﾄﾞｳ","kana_city":"ﾀﾞﾃｼ","kana_address":"ﾋｶﾞｼｳｽﾁｮｳ","pref":"北海道","city":"伊達市","address":"東有珠町"},
{"zip_code":"0590156","kana_pref":"ﾎｯｶｲﾄﾞｳ","kana_city":"ﾀﾞﾃｼ","kana_address":"ﾐﾅﾐｳｽﾁｮｳ","pref":"北海道","city":"伊達市","address":"南有珠町"},
{"zip_code":"0590271","kana_pref":"ﾎｯｶｲﾄﾞｳ","kana_city":"ﾀﾞﾃｼ","kana_address":"ﾐﾅﾐｺｶﾞﾈﾁｮｳ","pref":"北海道","city":"伊達市","address":"南黄金町"},
{"zip_code":"0590273","kana_pref":"ﾎｯｶｲﾄﾞｳ","kana_city":"ﾀﾞﾃｼ","kana_address":"ﾐﾅﾐﾏﾚﾌﾁｮｳ","pref":"北海道","city":"伊達市","address":"南稀府町"},
{"zip_code":"0590157","kana_pref":"ﾎｯｶｲﾄﾞｳ","kana_city":"ﾀﾞﾃｼ","kana_address":"ﾑｶｲｳｽﾁｮｳ","pref":"北海道","city":"伊達市","address":"向有珠町"},
{"zip_code":"0590155","kana_pref":"ﾎｯｶｲﾄﾞｳ","kana_city":"ﾀﾞﾃｼ","kana_address":"ﾜｯｶｵｲﾁｮｳ","pref":"北海道","city":"伊達市","address":"若生町"},
{"zip_code":"0590900","kana_pref":"ﾎｯｶｲﾄﾞｳ","kana_city":"ｼﾗｵｲｸﾞﾝｼﾗｵｲﾁｮｳ","kana_address":"","pref":"北海道","city":"白老郡白老町","address":""},
{"zip_code":"0590921","kana_pref":"ﾎｯｶｲﾄﾞｳ","kana_city":"ｼﾗｵｲｸﾞﾝｼﾗｵｲﾁｮｳ","kana_address":"ｲｼﾔﾏ","pref":"北海道","city":"白老郡白老町","address":"石山"},
{"zip_code":"0590905","kana_pref":"ﾎｯｶｲﾄﾞｳ","kana_city":"ｼﾗｵｲｸﾞﾝｼﾗｵｲﾁｮｳ","kana_address":"ｵｵﾏﾁ","pref":"北海道","city":"白老郡白老町","address":"大町"},
{"zip_code":"0590915","kana_pref":"ﾎｯｶｲﾄﾞｳ","kana_city":"ｼﾗｵｲｸﾞﾝｼﾗｵｲﾁｮｳ","kana_address":"ｶﾜｿﾞｴ","pref":"北海道","city":"白老郡白老町","address":"川沿"},
{"zip_code":"0590923","kana_pref":"ﾎｯｶｲﾄﾞｳ","kana_city":"ｼﾗｵｲｸﾞﾝｼﾗｵｲﾁｮｳ","kana_address":"ｷﾀﾖｼﾊﾗ","pref":"北海道","city":"白老郡白老町","address":"北吉原"},
{"zip_code":"0590641","kana_pref":"ﾎｯｶｲﾄﾞｳ","kana_city":"ｼﾗｵｲｸﾞﾝｼﾗｵｲﾁｮｳ","kana_address":"ｺｼﾞｮｳﾊﾏ","pref":"北海道","city":"白老郡白老町","address":"虎杖浜"},
{"zip_code":"0590914","kana_pref":"ﾎｯｶｲﾄﾞｳ","kana_city":"ｼﾗｵｲｸﾞﾝｼﾗｵｲﾁｮｳ","kana_address":"ｻｶｴﾏﾁ","pref":"北海道","city":"白老郡白老町","address":"栄町"},
{"zip_code":"0590901","kana_pref":"ﾎｯｶｲﾄﾞｳ","kana_city":"ｼﾗｵｲｸﾞﾝｼﾗｵｲﾁｮｳ","kana_address":"ｼｬﾀﾞｲ","pref":"北海道","city":"白老郡白老町","address":"社台"},
{"zip_code":"0590912","kana_pref":"ﾎｯｶｲﾄﾞｳ","kana_city":"ｼﾗｵｲｸﾞﾝｼﾗｵｲﾁｮｳ","kana_address":"ｼﾞﾝﾔﾏﾁ","pref":"北海道","city":"白老郡白老町","address":"陣屋町"},
{"zip_code":"0590907","kana_pref":"ﾎｯｶｲﾄﾞｳ","kana_city":"ｼﾗｵｲｸﾞﾝｼﾗｵｲﾁｮｳ","kana_address":"ｽｴﾋﾛﾁｮｳ","pref":"北海道","city":"白老郡白老町","address":"末広町"},
{"zip_code":"0590916","kana_pref":"ﾎｯｶｲﾄﾞｳ","kana_city":"ｼﾗｵｲｸﾞﾝｼﾗｵｲﾁｮｳ","kana_address":"ﾀｶｻｺﾞﾁｮｳ","pref":"北海道","city":"白老郡白老町","address":"高砂町"},
{"zip_code":"0590642","kana_pref":"ﾎｯｶｲﾄﾞｳ","kana_city":"ｼﾗｵｲｸﾞﾝｼﾗｵｲﾁｮｳ","kana_address":"ﾀｹｳﾗ","pref":"北海道","city":"白老郡白老町","address":"竹浦"},
{"zip_code":"0590922","kana_pref":"ﾎｯｶｲﾄﾞｳ","kana_city":"ｼﾗｵｲｸﾞﾝｼﾗｵｲﾁｮｳ","kana_address":"ﾊｷﾞﾉ","pref":"北海道","city":"白老郡白老町","address":"萩野"},
{"zip_code":"0590904","kana_pref":"ﾎｯｶｲﾄﾞｳ","kana_city":"ｼﾗｵｲｸﾞﾝｼﾗｵｲﾁｮｳ","kana_address":"ﾋｶﾞｼﾏﾁ","pref":"北海道","city":"白老郡白老町","address":"東町"},
{"zip_code":"0590903","kana_pref":"ﾎｯｶｲﾄﾞｳ","kana_city":"ｼﾗｵｲｸﾞﾝｼﾗｵｲﾁｮｳ","kana_address":"ﾋﾉﾃﾞﾁｮｳ","pref":"北海道","city":"白老郡白老町","address":"日の出町"},
{"zip_code":"0590906","kana_pref":"ﾎｯｶｲﾄﾞｳ","kana_city":"ｼﾗｵｲｸﾞﾝｼﾗｵｲﾁｮｳ","kana_address":"ﾎﾝﾁｮｳ","pref":"北海道","city":"白老郡白老町","address":"本町"},
{"zip_code":"0590908","kana_pref":"ﾎｯｶｲﾄﾞｳ","kana_city":"ｼﾗｵｲｸﾞﾝｼﾗｵｲﾁｮｳ","kana_address":"ﾐﾄﾞﾘｶﾞｵｶ","pref":"北海道","city":"白老郡白老町","address":"緑丘"},
{"zip_code":"0590913","kana_pref":"ﾎｯｶｲﾄﾞｳ","kana_city":"ｼﾗｵｲｸﾞﾝｼﾗｵｲﾁｮｳ","kana_address":"ﾐﾄﾞﾘﾏﾁ","pref":"北海道","city":"白老郡白老町","address":"緑町"},
{"zip_code":"0590911","kana_pref":"ﾎｯｶｲﾄﾞｳ","kana_city":"ｼﾗｵｲｸﾞﾝｼﾗｵｲﾁｮｳ","kana_address":"ﾓﾘﾉ","pref":"北海道","city":"白老郡白老町","address":"森野"},
{"zip_code":"0590902","kana_pref":"ﾎｯｶｲﾄﾞｳ","kana_city":"ｼﾗｵｲｸﾞﾝｼﾗｵｲﾁｮｳ","kana_address":"ﾜｶｸｻﾁｮｳ","pref":"北海道","city":"白老郡白老町","address":"若草町"},
{"zip_code":"0591600","kana_pref":"ﾎｯｶｲﾄﾞｳ","kana_city":"ﾕｳﾌﾂｸﾞﾝｱﾂﾏﾁｮｳ","kana_address":"","pref":"北海道","city":"勇払郡厚真町","address":""},
{"zip_code":"0591606","kana_pref":"ﾎｯｶｲﾄﾞｳ","kana_city":"ﾕｳﾌﾂｸﾞﾝｱﾂﾏﾁｮｳ","kana_address":"ｱｻﾋ","pref":"北海道","city":"勇払郡厚真町","address":"朝日"},
{"zip_code":"0591746","kana_pref":"ﾎｯｶｲﾄﾞｳ","kana_city":"ﾕｳﾌﾂｸﾞﾝｱﾂﾏﾁｮｳ","kana_address":"ｳｴﾉ","pref":"北海道","city":"勇払郡厚真町","address":"上野"},
{"zip_code":"0591622","kana_pref":"ﾎｯｶｲﾄﾞｳ","kana_city":"ﾕｳﾌﾂｸﾞﾝｱﾂﾏﾁｮｳ","kana_address":"ｳﾘｭｳ","pref":"北海道","city":"勇払郡厚真町","address":"宇隆"},
{"zip_code":"0591602","kana_pref":"ﾎｯｶｲﾄﾞｳ","kana_city":"ﾕｳﾌﾂｸﾞﾝｱﾂﾏﾁｮｳ","kana_address":"ｵﾓﾃﾏﾁ","pref":"北海道","city":"勇払郡厚真町","address":"表町"},
{"zip_code":"0591741","kana_pref":"ﾎｯｶｲﾄﾞｳ","kana_city":"ﾕｳﾌﾂｸﾞﾝｱﾂﾏﾁｮｳ","kana_address":"ｶﾐｱﾂﾏ","pref":"北海道","city":"勇払郡厚真町","address":"上厚真"},
{"zip_code":"0591752","kana_pref":"ﾎｯｶｲﾄﾞｳ","kana_city":"ﾕｳﾌﾂｸﾞﾝｱﾂﾏﾁｮｳ","kana_address":"ｶﾙﾏｲ","pref":"北海道","city":"勇払郡厚真町","address":"軽舞"},
{"zip_code":"0591744","kana_pref":"ﾎｯｶｲﾄﾞｳ","kana_city":"ﾕｳﾌﾂｸﾞﾝｱﾂﾏﾁｮｳ","kana_address":"ｷｮｳｴｲ","pref":"北海道","city":"勇払郡厚真町","address":"共栄"},
{"zip_code":"0591601","kana_pref":"ﾎｯｶｲﾄﾞｳ","kana_city":"ﾕｳﾌﾂｸﾞﾝｱﾂﾏﾁｮｳ","kana_address":"ｷｮｳﾏﾁ","pref":"北海道","city":"勇払郡厚真町","address":"京町"},
{"zip_code":"0591743","kana_pref":"ﾎｯｶｲﾄﾞｳ","kana_city":"ﾕｳﾌﾂｸﾞﾝｱﾂﾏﾁｮｳ","kana_address":"ｷｮｳﾜ","pref":"北海道","city":"勇払郡厚真町","address":"共和"},
{"zip_code":"0591749","kana_pref":"ﾎｯｶｲﾄﾞｳ","kana_city":"ﾕｳﾌﾂｸﾞﾝｱﾂﾏﾁｮｳ","kana_address":"ｷﾖｽﾞﾐ","pref":"北海道","city":"勇払郡厚真町","address":"清住"},
{"zip_code":"0591751","kana_pref":"ﾎｯｶｲﾄﾞｳ","kana_city":"ﾕｳﾌﾂｸﾞﾝｱﾂﾏﾁｮｳ","kana_address":"ｺｲﾇﾏ","pref":"北海道","city":"勇払郡厚真町","address":"鯉沼"},
{"zip_code":"0591748","kana_pref":"ﾎｯｶｲﾄﾞｳ","kana_city":"ﾕｳﾌﾂｸﾞﾝｱﾂﾏﾁｮｳ","kana_address":"ｺｳﾜ","pref":"北海道","city":"勇払郡厚真町","address":"厚和"},
{"zip_code":"0591612","kana_pref":"ﾎｯｶｲﾄﾞｳ","kana_city":"ﾕｳﾌﾂｸﾞﾝｱﾂﾏﾁｮｳ","kana_address":"ｻｸﾗｵｶ","pref":"北海道","city":"勇払郡厚真町","address":"桜丘"},
{"zip_code":"0591754","kana_pref":"ﾎｯｶｲﾄﾞｳ","kana_city":"ﾕｳﾌﾂｸﾞﾝｱﾂﾏﾁｮｳ","kana_address":"ｼｶﾇﾏ","pref":"北海道","city":"勇払郡厚真町","address":"鹿沼"},
{"zip_code":"0591623","kana_pref":"ﾎｯｶｲﾄﾞｳ","kana_city":"ﾕｳﾌﾂｸﾞﾝｱﾂﾏﾁｮｳ","kana_address":"ｼﾝﾏﾁ","pref":"北海道","city":"勇払郡厚真町","address":"新町"},
{"zip_code":"0591615","kana_pref":"ﾎｯｶｲﾄﾞｳ","kana_city":"ﾕｳﾌﾂｸﾞﾝｱﾂﾏﾁｮｳ","kana_address":"ﾀｶｵｶ","pref":"北海道","city":"勇払郡厚真町","address":"高丘"},
{"zip_code":"0591621","kana_pref":"ﾎｯｶｲﾄﾞｳ","kana_city":"ﾕｳﾌﾂｸﾞﾝｱﾂﾏﾁｮｳ","kana_address":"ﾄｳﾜ","pref":"北海道","city":"勇払郡厚真町","address":"東和"},
{"zip_code":"0591614","kana_pref":"ﾎｯｶｲﾄﾞｳ","kana_city":"ﾕｳﾌﾂｸﾞﾝｱﾂﾏﾁｮｳ","kana_address":"ﾄﾐｻﾄ","pref":"北海道","city":"勇払郡厚真町","address":"富里"},
{"zip_code":"0591747","kana_pref":"ﾎｯｶｲﾄﾞｳ","kana_city":"ﾕｳﾌﾂｸﾞﾝｱﾂﾏﾁｮｳ","kana_address":"ﾄﾐﾉ","pref":"北海道","city":"勇払郡厚真町","address":"富野"},
{"zip_code":"0591753","kana_pref":"ﾎｯｶｲﾄﾞｳ","kana_city":"ﾕｳﾌﾂｸﾞﾝｱﾂﾏﾁｮｳ","kana_address":"ﾄﾖｵｶ","pref":"北海道","city":"勇払郡厚真町","address":"豊丘"},
{"zip_code":"0591745","kana_pref":"ﾎｯｶｲﾄﾞｳ","kana_city":"ﾕｳﾌﾂｸﾞﾝｱﾂﾏﾁｮｳ","kana_address":"ﾄﾖｶﾜ","pref":"北海道","city":"勇払郡厚真町","address":"豊川"},
{"zip_code":"0591624","kana_pref":"ﾎｯｶｲﾄﾞｳ","kana_city":"ﾕｳﾌﾂｸﾞﾝｱﾂﾏﾁｮｳ","kana_address":"ﾄﾖｻﾜ","pref":"北海道","city":"勇払郡厚真町","address":"豊沢"},
{"zip_code":"0591604","kana_pref":"ﾎｯｶｲﾄﾞｳ","kana_city":"ﾕｳﾌﾂｸﾞﾝｱﾂﾏﾁｮｳ","kana_address":"ﾆｼｷﾏﾁ","pref":"北海道","city":"勇払郡厚真町","address":"錦町"},
{"zip_code":"0591742","kana_pref":"ﾎｯｶｲﾄﾞｳ","kana_city":"ﾕｳﾌﾂｸﾞﾝｱﾂﾏﾁｮｳ","kana_address":"ﾊﾏｱﾂﾏ","pref":"北海道","city":"勇払郡厚真町","address":"浜厚真"},
{"zip_code":"0591611","kana_pref":"ﾎｯｶｲﾄﾞｳ","kana_city":"ﾕｳﾌﾂｸﾞﾝｱﾂﾏﾁｮｳ","kana_address":"ﾎﾛｻﾄ","pref":"北海道","city":"勇払郡厚真町","address":"幌里"},
{"zip_code":"0591616","kana_pref":"ﾎｯｶｲﾄﾞｳ","kana_city":"ﾕｳﾌﾂｸﾞﾝｱﾂﾏﾁｮｳ","kana_address":"ﾎﾛﾅｲ","pref":"北海道","city":"勇払郡厚真町","address":"幌内"},
{"zip_code":"0591605","kana_pref":"ﾎｯｶｲﾄﾞｳ","kana_city":"ﾕｳﾌﾂｸﾞﾝｱﾂﾏﾁｮｳ","kana_address":"ﾎﾝｺﾞｳ","pref":"北海道","city":"勇払郡厚真町","address":"本郷"},
{"zip_code":"0591603","kana_pref":"ﾎｯｶｲﾄﾞｳ","kana_city":"ﾕｳﾌﾂｸﾞﾝｱﾂﾏﾁｮｳ","kana_address":"ﾎﾝﾁｮｳ","pref":"北海道","city":"勇払郡厚真町","address":"本町"},
{"zip_code":"0591625","kana_pref":"ﾎｯｶｲﾄﾞｳ","kana_city":"ﾕｳﾌﾂｸﾞﾝｱﾂﾏﾁｮｳ","kana_address":"ﾐｻﾄ","pref":"北海道","city":"勇払郡厚真町","address":"美里"},
{"zip_code":"0591613","kana_pref":"ﾎｯｶｲﾄﾞｳ","kana_city":"ﾕｳﾌﾂｸﾞﾝｱﾂﾏﾁｮｳ","kana_address":"ﾖｼﾉ","pref":"北海道","city":"勇払郡厚真町","address":"吉野"},
{"zip_code":"0591500","kana_pref":"ﾎｯｶｲﾄﾞｳ","kana_city":"ﾕｳﾌﾂｸﾞﾝｱﾋﾞﾗﾁｮｳ","kana_address":"","pref":"北海道","city":"勇払郡安平町","address":""},
{"zip_code":"0591511","kana_pref":"ﾎｯｶｲﾄﾞｳ","kana_city":"ﾕｳﾌﾂｸﾞﾝｱﾋﾞﾗﾁｮｳ","kana_address":"ｱﾋﾞﾗ","pref":"北海道","city":"勇払郡安平町","address":"安平"},
{"zip_code":"0591941","kana_pref":"ﾎｯｶｲﾄﾞｳ","kana_city":"ﾕｳﾌﾂｸﾞﾝｱﾋﾞﾗﾁｮｳ","kana_address":"ｵｲﾜｹｱｵﾊﾞ","pref":"北海道","city":"勇払郡安平町","address":"追分青葉"},
{"zip_code":"0591983","kana_pref":"ﾎｯｶｲﾄﾞｳ","kana_city":"ﾕｳﾌﾂｸﾞﾝｱﾋﾞﾗﾁｮｳ","kana_address":"ｵｲﾜｹｱｻﾋ","pref":"北海道","city":"勇払郡安平町","address":"追分旭"},
{"zip_code":"0591921","kana_pref":"ﾎｯｶｲﾄﾞｳ","kana_city":"ﾕｳﾌﾂｸﾞﾝｱﾋﾞﾗﾁｮｳ","kana_address":"ｵｲﾜｹｶｼﾜｶﾞｵｶ","pref":"北海道","city":"勇払郡安平町","address":"追分柏が丘"},
{"zip_code":"0591985","kana_pref":"ﾎｯｶｲﾄﾞｳ","kana_city":"ﾕｳﾌﾂｸﾞﾝｱﾋﾞﾗﾁｮｳ","kana_address":"ｵｲﾜｹｶｽｶﾞ","pref":"北海道","city":"勇払郡安平町","address":"追分春日"},
{"zip_code":"0591984","kana_pref":"ﾎｯｶｲﾄﾞｳ","kana_city":"ﾕｳﾌﾂｸﾞﾝｱﾋﾞﾗﾁｮｳ","kana_address":"ｵｲﾜｹｺｳﾖｳ","pref":"北海道","city":"勇払郡安平町","address":"追分向陽"},
{"zip_code":"0591942","kana_pref":"ﾎｯｶｲﾄﾞｳ","kana_city":"ﾕｳﾌﾂｸﾞﾝｱﾋﾞﾗﾁｮｳ","kana_address":"ｵｲﾜｹｼﾗｶﾊﾞ","pref":"北海道","city":"勇払郡安平町","address":"追分白樺"},
{"zip_code":"0591931","kana_pref":"ﾎｯｶｲﾄﾞｳ","kana_city":"ﾕｳﾌﾂｸﾞﾝｱﾋﾞﾗﾁｮｳ","kana_address":"ｵｲﾜｹﾁｭｳｵｳ","pref":"北海道","city":"勇払郡安平町","address":"追分中央"},
{"zip_code":"0591961","kana_pref":"ﾎｯｶｲﾄﾞｳ","kana_city":"ﾕｳﾌﾂｸﾞﾝｱﾋﾞﾗﾁｮｳ","kana_address":"ｵｲﾜｹﾊﾅｿﾞﾉ","pref":"北海道","city":"勇払郡安平町","address":"追分花園"},
{"zip_code":"0591987","kana_pref":"ﾎｯｶｲﾄﾞｳ","kana_city":"ﾕｳﾌﾂｸﾞﾝｱﾋﾞﾗﾁｮｳ","kana_address":"ｵｲﾜｹﾎｳｴｲ","pref":"北海道","city":"勇払郡安平町","address":"追分豊栄"},
{"zip_code":"0591911","kana_pref":"ﾎｯｶｲﾄﾞｳ","kana_city":"ﾕｳﾌﾂｸﾞﾝｱﾋﾞﾗﾁｮｳ","kana_address":"ｵｲﾜｹﾎﾝﾁｮｳ","pref":"北海道","city":"勇払郡安平町","address":"追分本町"},
{"zip_code":"0591982","kana_pref":"ﾎｯｶｲﾄﾞｳ","kana_city":"ﾕｳﾌﾂｸﾞﾝｱﾋﾞﾗﾁｮｳ","kana_address":"ｵｲﾜｹﾐｿﾉ","pref":"北海道","city":"勇払郡安平町","address":"追分美園"},
{"zip_code":"0591971","kana_pref":"ﾎｯｶｲﾄﾞｳ","kana_city":"ﾕｳﾌﾂｸﾞﾝｱﾋﾞﾗﾁｮｳ","kana_address":"ｵｲﾜｹﾐﾄﾞﾘｶﾞｵｶ","pref":"北海道","city":"勇払郡安平町","address":"追分緑が丘"},
{"zip_code":"0591986","kana_pref":"ﾎｯｶｲﾄﾞｳ","kana_city":"ﾕｳﾌﾂｸﾞﾝｱﾋﾞﾗﾁｮｳ","kana_address":"ｵｲﾜｹﾔﾖｲ","pref":"北海道","city":"勇払郡安平町","address":"追分弥生"},
{"zip_code":"0591951","kana_pref":"ﾎｯｶｲﾄﾞｳ","kana_city":"ﾕｳﾌﾂｸﾞﾝｱﾋﾞﾗﾁｮｳ","kana_address":"ｵｲﾜｹﾜｶｸｻ","pref":"北海道","city":"勇払郡安平町","address":"追分若草"},
{"zip_code":"0591433","kana_pref":"ﾎｯｶｲﾄﾞｳ","kana_city":"ﾕｳﾌﾂｸﾞﾝｱﾋﾞﾗﾁｮｳ","kana_address":"ﾄｱｻ","pref":"北海道","city":"勇払郡安平町","address":"遠浅"},
{"zip_code":"0591501","kana_pref":"ﾎｯｶｲﾄﾞｳ","kana_city":"ﾕｳﾌﾂｸﾞﾝｱﾋﾞﾗﾁｮｳ","kana_address":"ﾊﾔｷﾀｵｵﾏﾁ","pref":"北海道","city":"勇払郡安平町","address":"早来大町"},
{"zip_code":"0591506","kana_pref":"ﾎｯｶｲﾄﾞｳ","kana_city":"ﾕｳﾌﾂｸﾞﾝｱﾋﾞﾗﾁｮｳ","kana_address":"ﾊﾔｷﾀｷﾀﾏﾁ","pref":"北海道","city":"勇払郡安平町","address":"早来北町"},
{"zip_code":"0591432","kana_pref":"ﾎｯｶｲﾄﾞｳ","kana_city":"ﾕｳﾌﾂｸﾞﾝｱﾋﾞﾗﾁｮｳ","kana_address":"ﾊﾔｷﾀｹﾞﾝﾌﾞ","pref":"北海道","city":"勇払郡安平町","address":"早来源武"},
{"zip_code":"0591505","kana_pref":"ﾎｯｶｲﾄﾞｳ","kana_city":"ﾕｳﾌﾂｸﾞﾝｱﾋﾞﾗﾁｮｳ","kana_address":"ﾊﾔｷﾀｻｶｴﾏﾁ","pref":"北海道","city":"勇払郡安平町","address":"早来栄町"},
{"zip_code":"0591431","kana_pref":"ﾎｯｶｲﾄﾞｳ","kana_city":"ﾕｳﾌﾂｸﾞﾝｱﾋﾞﾗﾁｮｳ","kana_address":"ﾊﾔｷﾀｼﾝｴｲ","pref":"北海道","city":"勇払郡安平町","address":"早来新栄"},
{"zip_code":"0591434","kana_pref":"ﾎｯｶｲﾄﾞｳ","kana_city":"ﾕｳﾌﾂｸﾞﾝｱﾋﾞﾗﾁｮｳ","kana_address":"ﾊﾔｷﾀﾄﾐｵｶ","pref":"北海道","city":"勇払郡安平町","address":"早来富岡"},
{"zip_code":"0591502","kana_pref":"ﾎｯｶｲﾄﾞｳ","kana_city":"ﾕｳﾌﾂｸﾞﾝｱﾋﾞﾗﾁｮｳ","kana_address":"ﾊﾔｷﾀﾎｸｼﾝ","pref":"北海道","city":"勇払郡安平町","address":"早来北進"},
{"zip_code":"0591512","kana_pref":"ﾎｯｶｲﾄﾞｳ","kana_city":"ﾕｳﾌﾂｸﾞﾝｱﾋﾞﾗﾁｮｳ","kana_address":"ﾊﾔｷﾀﾐｽﾞﾎ","pref":"北海道","city":"勇払郡安平町","address":"早来瑞穂"},
{"zip_code":"0591513","kana_pref":"ﾎｯｶｲﾄﾞｳ","kana_city":"ﾕｳﾌﾂｸﾞﾝｱﾋﾞﾗﾁｮｳ","kana_address":"ﾊﾔｷﾀﾐﾄﾞﾘｵｶ","pref":"北海道","city":"勇払郡安平町","address":"早来緑丘"},
{"zip_code":"0591504","kana_pref":"ﾎｯｶｲﾄﾞｳ","kana_city":"ﾕｳﾌﾂｸﾞﾝｱﾋﾞﾗﾁｮｳ","kana_address":"ﾊﾔｷﾀﾓﾘﾀ","pref":"北海道","city":"勇払郡安平町","address":"早来守田"},
{"zip_code":"0591503","kana_pref":"ﾎｯｶｲﾄﾞｳ","kana_city":"ﾕｳﾌﾂｸﾞﾝｱﾋﾞﾗﾁｮｳ","kana_address":"ﾋｶﾞｼﾊﾔｷﾀ","pref":"北海道","city":"勇払郡安平町","address":"東早来"},
{"zip_code":"0592127","kana_pref":"ﾎｯｶｲﾄﾞｳ","kana_city":"ｻﾙｸﾞﾝﾋﾀﾞｶﾁｮｳ","kana_address":"ｱｻﾋﾁｮｳ","pref":"北海道","city":"沙流郡日高町","address":"旭町"},
{"zip_code":"0592243","kana_pref":"ﾎｯｶｲﾄﾞｳ","kana_city":"ｻﾙｸﾞﾝﾋﾀﾞｶﾁｮｳ","kana_address":"ｱﾂｶﾞﾁｮｳ","pref":"北海道","city":"沙流郡日高町","address":"厚賀町"},
{"zip_code":"0592123","kana_pref":"ﾎｯｶｲﾄﾞｳ","kana_city":"ｻﾙｸﾞﾝﾋﾀﾞｶﾁｮｳ","kana_address":"ｲｸﾁｾ","pref":"北海道","city":"沙流郡日高町","address":"幾千世"},
{"zip_code":"0592244","kana_pref":"ﾎｯｶｲﾄﾞｳ","kana_city":"ｻﾙｸﾞﾝﾋﾀﾞｶﾁｮｳ","kana_address":"ｶﾊﾞﾘ","pref":"北海道","city":"沙流郡日高町","address":"賀張"},
{"zip_code":"0592245","kana_pref":"ﾎｯｶｲﾄﾞｳ","kana_city":"ｻﾙｸﾞﾝﾋﾀﾞｶﾁｮｳ","kana_address":"ｷﾖﾊﾀ","pref":"北海道","city":"沙流郡日高町","address":"清畠"},
{"zip_code":"0592124","kana_pref":"ﾎｯｶｲﾄﾞｳ","kana_city":"ｻﾙｸﾞﾝﾋﾀﾞｶﾁｮｳ","kana_address":"ｸﾗﾄﾐ","pref":"北海道","city":"沙流郡日高町","address":"庫富"},
{"zip_code":"0592331","kana_pref":"ﾎｯｶｲﾄﾞｳ","kana_city":"ｻﾙｸﾞﾝﾋﾀﾞｶﾁｮｳ","kana_address":"ｼｮｳﾜ","pref":"北海道","city":"沙流郡日高町","address":"正和"},
{"zip_code":"0592126","kana_pref":"ﾎｯｶｲﾄﾞｳ","kana_city":"ｻﾙｸﾞﾝﾋﾀﾞｶﾁｮｳ","kana_address":"ﾄﾖｻﾄ","pref":"北海道","city":"沙流郡日高町","address":"豊郷"},
{"zip_code":"0592241","kana_pref":"ﾎｯｶｲﾄﾞｳ","kana_city":"ｻﾙｸﾞﾝﾋﾀﾞｶﾁｮｳ","kana_address":"ﾄﾖﾀ","pref":"北海道","city":"沙流郡日高町","address":"豊田"},
{"zip_code":"0592125","kana_pref":"ﾎｯｶｲﾄﾞｳ","kana_city":"ｻﾙｸﾞﾝﾋﾀﾞｶﾁｮｳ","kana_address":"ﾋﾛﾄﾐ","pref":"北海道","city":"沙流郡日高町","address":"広富"},
{"zip_code":"0592122","kana_pref":"ﾎｯｶｲﾄﾞｳ","kana_city":"ｻﾙｸﾞﾝﾋﾀﾞｶﾁｮｳ","kana_address":"ﾐﾄﾞﾘﾁｮｳ","pref":"北海道","city":"沙流郡日高町","address":"緑町"},
{"zip_code":"0592242","kana_pref":"ﾎｯｶｲﾄﾞｳ","kana_city":"ｻﾙｸﾞﾝﾋﾀﾞｶﾁｮｳ","kana_address":"ﾐﾊﾗ","pref":"北海道","city":"沙流郡日高町","address":"美原"},
{"zip_code":"0592332","kana_pref":"ﾎｯｶｲﾄﾞｳ","kana_city":"ｻﾙｸﾞﾝﾋﾀﾞｶﾁｮｳ","kana_address":"ﾐﾜ","pref":"北海道","city":"沙流郡日高町","address":"三和"},
{"zip_code":"0592121","kana_pref":"ﾎｯｶｲﾄﾞｳ","kana_city":"ｻﾙｸﾞﾝﾋﾀﾞｶﾁｮｳ","kana_address":"ﾓﾝﾍﾞﾂﾎﾝﾁｮｳ","pref":"北海道","city":"沙流郡日高町","address":"門別本町"},
{"zip_code":"0592400","kana_pref":"ﾎｯｶｲﾄﾞｳ","kana_city":"ﾆｲｶｯﾌﾟｸﾞﾝﾆｲｶｯﾌﾟﾁｮｳ","kana_address":"","pref":"北海道","city":"新冠郡新冠町","address":""},
{"zip_code":"0592414","kana_pref":"ﾎｯｶｲﾄﾞｳ","kana_city":"ﾆｲｶｯﾌﾟｸﾞﾝﾆｲｶｯﾌﾟﾁｮｳ","kana_address":"ｱｻﾋ","pref":"北海道","city":"新冠郡新冠町","address":"朝日"},
{"zip_code":"0592404","kana_pref":"ﾎｯｶｲﾄﾞｳ","kana_city":"ﾆｲｶｯﾌﾟｸﾞﾝﾆｲｶｯﾌﾟﾁｮｳ","kana_address":"ｱｽﾞﾏﾁｮｳ","pref":"北海道","city":"新冠郡新冠町","address":"東町"},
{"zip_code":"0592423","kana_pref":"ﾎｯｶｲﾄﾞｳ","kana_city":"ﾆｲｶｯﾌﾟｸﾞﾝﾆｲｶｯﾌﾟﾁｮｳ","kana_address":"ｲｽﾞﾐ","pref":"北海道","city":"新冠郡新冠町","address":"泉"},
{"zip_code":"0592422","kana_pref":"ﾎｯｶｲﾄﾞｳ","kana_city":"ﾆｲｶｯﾌﾟｸﾞﾝﾆｲｶｯﾌﾟﾁｮｳ","kana_address":"ｲﾜｼﾐｽﾞ","pref":"北海道","city":"新冠郡新冠町","address":"岩清水"},
{"zip_code":"0592253","kana_pref":"ﾎｯｶｲﾄﾞｳ","kana_city":"ﾆｲｶｯﾌﾟｸﾞﾝﾆｲｶｯﾌﾟﾁｮｳ","kana_address":"ｵｵｶﾘﾍﾞ","pref":"北海道","city":"新冠郡新冠町","address":"大狩部"},
{"zip_code":"0592411","kana_pref":"ﾎｯｶｲﾄﾞｳ","kana_city":"ﾆｲｶｯﾌﾟｸﾞﾝﾆｲｶｯﾌﾟﾁｮｳ","kana_address":"ｵｵｶﾘﾍﾞ","pref":"北海道","city":"新冠郡新冠町","address":"大狩部"},
{"zip_code":"0592427","kana_pref":"ﾎｯｶｲﾄﾞｳ","kana_city":"ﾆｲｶｯﾌﾟｸﾞﾝﾆｲｶｯﾌﾟﾁｮｳ","kana_address":"ｵｵﾄﾐ","pref":"北海道","city":"新冠郡新冠町","address":"大富"},
{"zip_code":"0592251","kana_pref":"ﾎｯｶｲﾄﾞｳ","kana_city":"ﾆｲｶｯﾌﾟｸﾞﾝﾆｲｶｯﾌﾟﾁｮｳ","kana_address":"ｷｮｳｴｲ","pref":"北海道","city":"新冠郡新冠町","address":"共栄"},
{"zip_code":"0592424","kana_pref":"ﾎｯｶｲﾄﾞｳ","kana_city":"ﾆｲｶｯﾌﾟｸﾞﾝﾆｲｶｯﾌﾟﾁｮｳ","kana_address":"ｼﾝｴｲ","pref":"北海道","city":"新冠郡新冠町","address":"新栄"},
{"zip_code":"0592341","kana_pref":"ﾎｯｶｲﾄﾞｳ","kana_city":"ﾆｲｶｯﾌﾟｸﾞﾝﾆｲｶｯﾌﾟﾁｮｳ","kana_address":"ｼﾝﾜ","pref":"北海道","city":"新冠郡新冠町","address":"新和"},
{"zip_code":"0592412","kana_pref":"ﾎｯｶｲﾄﾞｳ","kana_city":"ﾆｲｶｯﾌﾟｸﾞﾝﾆｲｶｯﾌﾟﾁｮｳ","kana_address":"ｾｯﾌﾟﾁｮｳ","pref":"北海道","city":"新冠郡新冠町","address":"節婦町"},
{"zip_code":"0592343","kana_pref":"ﾎｯｶｲﾄﾞｳ","kana_city":"ﾆｲｶｯﾌﾟｸﾞﾝﾆｲｶｯﾌﾟﾁｮｳ","kana_address":"ﾀｲﾖｳ","pref":"北海道","city":"新冠郡新冠町","address":"太陽"},
{"zip_code":"0592413","kana_pref":"ﾎｯｶｲﾄﾞｳ","kana_city":"ﾆｲｶｯﾌﾟｸﾞﾝﾆｲｶｯﾌﾟﾁｮｳ","kana_address":"ﾀｶｴ","pref":"北海道","city":"新冠郡新冠町","address":"高江"},
{"zip_code":"0592402","kana_pref":"ﾎｯｶｲﾄﾞｳ","kana_city":"ﾆｲｶｯﾌﾟｸﾞﾝﾆｲｶｯﾌﾟﾁｮｳ","kana_address":"ﾁｭｳｵｳﾁｮｳ","pref":"北海道","city":"新冠郡新冠町","address":"中央町"},
{"zip_code":"0592418","kana_pref":"ﾎｯｶｲﾄﾞｳ","kana_city":"ﾆｲｶｯﾌﾟｸﾞﾝﾆｲｶｯﾌﾟﾁｮｳ","kana_address":"ﾆｼﾊｸﾂ","pref":"北海道","city":"新冠郡新冠町","address":"西泊津"},
{"zip_code":"0592426","kana_pref":"ﾎｯｶｲﾄﾞｳ","kana_city":"ﾆｲｶｯﾌﾟｸﾞﾝﾆｲｶｯﾌﾟﾁｮｳ","kana_address":"ﾊﾞﾝｾｲ","pref":"北海道","city":"新冠郡新冠町","address":"万世"},
{"zip_code":"0592344","kana_pref":"ﾎｯｶｲﾄﾞｳ","kana_city":"ﾆｲｶｯﾌﾟｸﾞﾝﾆｲｶｯﾌﾟﾁｮｳ","kana_address":"ﾋﾞｳ","pref":"北海道","city":"新冠郡新冠町","address":"美宇"},
{"zip_code":"0592252","kana_pref":"ﾎｯｶｲﾄﾞｳ","kana_city":"ﾆｲｶｯﾌﾟｸﾞﾝﾆｲｶｯﾌﾟﾁｮｳ","kana_address":"ﾋｶﾞｼｶﾜ","pref":"北海道","city":"新冠郡新冠町","address":"東川"},
{"zip_code":"0592417","kana_pref":"ﾎｯｶｲﾄﾞｳ","kana_city":"ﾆｲｶｯﾌﾟｸﾞﾝﾆｲｶｯﾌﾟﾁｮｳ","kana_address":"ﾋｶﾞｼﾊｸﾂ","pref":"北海道","city":"新冠郡新冠町","address":"東泊津"},
{"zip_code":"0592416","kana_pref":"ﾎｯｶｲﾄﾞｳ","kana_city":"ﾆｲｶｯﾌﾟｸﾞﾝﾆｲｶｯﾌﾟﾁｮｳ","kana_address":"ﾌﾙｷﾞｼ","pref":"北海道","city":"新冠郡新冠町","address":"古岸"},
{"zip_code":"0592403","kana_pref":"ﾎｯｶｲﾄﾞｳ","kana_city":"ﾆｲｶｯﾌﾟｸﾞﾝﾆｲｶｯﾌﾟﾁｮｳ","kana_address":"ﾎｸｾｲﾁｮｳ","pref":"北海道","city":"新冠郡新冠町","address":"北星町"},
{"zip_code":"0592401","kana_pref":"ﾎｯｶｲﾄﾞｳ","kana_city":"ﾆｲｶｯﾌﾟｸﾞﾝﾆｲｶｯﾌﾟﾁｮｳ","kana_address":"ﾎﾝﾁｮｳ","pref":"北海道","city":"新冠郡新冠町","address":"本町"},
{"zip_code":"0592415","kana_pref":"ﾎｯｶｲﾄﾞｳ","kana_city":"ﾆｲｶｯﾌﾟｸﾞﾝﾆｲｶｯﾌﾟﾁｮｳ","kana_address":"ﾐﾄﾞﾘｵｶ","pref":"北海道","city":"新冠郡新冠町","address":"緑丘"},
{"zip_code":"0592425","kana_pref":"ﾎｯｶｲﾄﾞｳ","kana_city":"ﾆｲｶｯﾌﾟｸﾞﾝﾆｲｶｯﾌﾟﾁｮｳ","kana_address":"ﾒｲﾜ","pref":"北海道","city":"新冠郡新冠町","address":"明和"},
{"zip_code":"0592342","kana_pref":"ﾎｯｶｲﾄﾞｳ","kana_city":"ﾆｲｶｯﾌﾟｸﾞﾝﾆｲｶｯﾌﾟﾁｮｳ","kana_address":"ﾘﾋﾞﾗ","pref":"北海道","city":"新冠郡新冠町","address":"里平"},
{"zip_code":"0592421","kana_pref":"ﾎｯｶｲﾄﾞｳ","kana_city":"ﾆｲｶｯﾌﾟｸﾞﾝﾆｲｶｯﾌﾟﾁｮｳ","kana_address":"ﾜｶｿﾞﾉ","pref":"北海道","city":"新冠郡新冠町","address":"若園"},
{"zip_code":"0593463","kana_pref":"ﾎｯｶｲﾄﾞｳ","kana_city":"ｳﾗｶﾜｸﾞﾝｳﾗｶﾜﾁｮｳ","kana_address":"ｱﾈﾁｬ","pref":"北海道","city":"浦河郡浦河町","address":"姉茶"},
{"zip_code":"0593451","kana_pref":"ﾎｯｶｲﾄﾞｳ","kana_city":"ｳﾗｶﾜｸﾞﾝｳﾗｶﾜﾁｮｳ","kana_address":"ｵｷﾞﾌｼﾁｮｳ","pref":"北海道","city":"浦河郡浦河町","address":"荻伏町"},
{"zip_code":"0593461","kana_pref":"ﾎｯｶｲﾄﾞｳ","kana_city":"ｳﾗｶﾜｸﾞﾝｳﾗｶﾜﾁｮｳ","kana_address":"ﾄｳｴｲ","pref":"北海道","city":"浦河郡浦河町","address":"東栄"},
{"zip_code":"0593462","kana_pref":"ﾎｯｶｲﾄﾞｳ","kana_city":"ｳﾗｶﾜｸﾞﾝｳﾗｶﾜﾁｮｳ","kana_address":"ﾄﾐｻﾄ","pref":"北海道","city":"浦河郡浦河町","address":"富里"},
{"zip_code":"0593454","kana_pref":"ﾎｯｶｲﾄﾞｳ","kana_city":"ｳﾗｶﾜｸﾞﾝｳﾗｶﾜﾁｮｳ","kana_address":"ﾉﾌﾞｶ","pref":"北海道","city":"浦河郡浦河町","address":"野深"},
{"zip_code":"0593453","kana_pref":"ﾎｯｶｲﾄﾞｳ","kana_city":"ｳﾗｶﾜｸﾞﾝｳﾗｶﾜﾁｮｳ","kana_address":"ﾐｽﾞﾎ","pref":"北海道","city":"浦河郡浦河町","address":"瑞穂"},
{"zip_code":"0592562","kana_pref":"ﾎｯｶｲﾄﾞｳ","kana_city":"ﾋﾀﾞｶｸﾞﾝｼﾝﾋﾀﾞｶﾁｮｳ","kana_address":"ｼｽﾞﾅｲｳﾗﾜ","pref":"北海道","city":"日高郡新ひだか町","address":"静内浦和"},
{"zip_code":"0592563","kana_pref":"ﾎｯｶｲﾄﾞｳ","kana_city":"ﾋﾀﾞｶｸﾞﾝｼﾝﾋﾀﾞｶﾁｮｳ","kana_address":"ｼｽﾞﾅｲｶﾜｱｲ","pref":"北海道","city":"日高郡新ひだか町","address":"静内川合"},
{"zip_code":"0592566","kana_pref":"ﾎｯｶｲﾄﾞｳ","kana_city":"ﾋﾀﾞｶｸﾞﾝｼﾝﾋﾀﾞｶﾁｮｳ","kana_address":"ｼｽﾞﾅｲﾄｳﾍﾞﾂ","pref":"北海道","city":"日高郡新ひだか町","address":"静内東別"},
{"zip_code":"0592564","kana_pref":"ﾎｯｶｲﾄﾞｳ","kana_city":"ﾋﾀﾞｶｸﾞﾝｼﾝﾋﾀﾞｶﾁｮｳ","kana_address":"ｼｽﾞﾅｲﾆｼｶﾜ","pref":"北海道","city":"日高郡新ひだか町","address":"静内西川"},
{"zip_code":"0592565","kana_pref":"ﾎｯｶｲﾄﾞｳ","kana_city":"ﾋﾀﾞｶｸﾞﾝｼﾝﾋﾀﾞｶﾁｮｳ","kana_address":"ｼｽﾞﾅｲﾊﾙﾀﾁ","pref":"北海道","city":"日高郡新ひだか町","address":"静内春立"},
{"zip_code":"0592561","kana_pref":"ﾎｯｶｲﾄﾞｳ","kana_city":"ﾋﾀﾞｶｸﾞﾝｼﾝﾋﾀﾞｶﾁｮｳ","kana_address":"ﾋｶﾞｼｼｽﾞﾅｲ","pref":"北海道","city":"日高郡新ひだか町","address":"東静内"},
{"zip_code":"0593107","kana_pref":"ﾎｯｶｲﾄﾞｳ","kana_city":"ﾋﾀﾞｶｸﾞﾝｼﾝﾋﾀﾞｶﾁｮｳ","kana_address":"ﾐﾂｲｼｱｻﾋﾁｮｳ","pref":"北海道","city":"日高郡新ひだか町","address":"三石旭町"},
{"zip_code":"0593352","kana_pref":"ﾎｯｶｲﾄﾞｳ","kana_city":"ﾋﾀﾞｶｸﾞﾝｼﾝﾋﾀﾞｶﾁｮｳ","kana_address":"ﾐﾂｲｼｲﾅﾐ","pref":"北海道","city":"日高郡新ひだか町","address":"三石稲見"},
{"zip_code":"0593351","kana_pref":"ﾎｯｶｲﾄﾞｳ","kana_city":"ﾋﾀﾞｶｸﾞﾝｼﾝﾋﾀﾞｶﾁｮｳ","kana_address":"ﾐﾂｲｼｳﾀﾌｴ","pref":"北海道","city":"日高郡新ひだか町","address":"三石歌笛"},
{"zip_code":"0593354","kana_pref":"ﾎｯｶｲﾄﾞｳ","kana_city":"ﾋﾀﾞｶｸﾞﾝｼﾝﾋﾀﾞｶﾁｮｳ","kana_address":"ﾐﾂｲｼｶﾜｶﾐ","pref":"北海道","city":"日高郡新ひだか町","address":"三石川上"},
{"zip_code":"0593353","kana_pref":"ﾎｯｶｲﾄﾞｳ","kana_city":"ﾋﾀﾞｶｸﾞﾝｼﾝﾋﾀﾞｶﾁｮｳ","kana_address":"ﾐﾂｲｼｷﾖｾ","pref":"北海道","city":"日高郡新ひだか町","address":"三石清瀬"},
{"zip_code":"0593233","kana_pref":"ﾎｯｶｲﾄﾞｳ","kana_city":"ﾋﾀﾞｶｸﾞﾝｼﾝﾋﾀﾞｶﾁｮｳ","kana_address":"ﾐﾂｲｼｹﾘﾏｲ","pref":"北海道","city":"日高郡新ひだか町","address":"三石鳧舞"},
{"zip_code":"0593111","kana_pref":"ﾎｯｶｲﾄﾞｳ","kana_city":"ﾋﾀﾞｶｸﾞﾝｼﾝﾋﾀﾞｶﾁｮｳ","kana_address":"ﾐﾂｲｼｺｼｳﾐﾁｮｳ","pref":"北海道","city":"日高郡新ひだか町","address":"三石越海町"},
{"zip_code":"0593101","kana_pref":"ﾎｯｶｲﾄﾞｳ","kana_city":"ﾋﾀﾞｶｸﾞﾝｼﾝﾋﾀﾞｶﾁｮｳ","kana_address":"ﾐﾂｲｼﾄﾐｻﾜ","pref":"北海道","city":"日高郡新ひだか町","address":"三石富沢"},
{"zip_code":"0593103","kana_pref":"ﾎｯｶｲﾄﾞｳ","kana_city":"ﾋﾀﾞｶｸﾞﾝｼﾝﾋﾀﾞｶﾁｮｳ","kana_address":"ﾐﾂｲｼﾄﾖｵｶ","pref":"北海道","city":"日高郡新ひだか町","address":"三石豊岡"},
{"zip_code":"0592571","kana_pref":"ﾎｯｶｲﾄﾞｳ","kana_city":"ﾋﾀﾞｶｸﾞﾝｼﾝﾋﾀﾞｶﾁｮｳ","kana_address":"ﾐﾂｲｼﾆｼﾊﾀ","pref":"北海道","city":"日高郡新ひだか町","address":"三石西端"},
{"zip_code":"0593106","kana_pref":"ﾎｯｶｲﾄﾞｳ","kana_city":"ﾋﾀﾞｶｸﾞﾝｼﾝﾋﾀﾞｶﾁｮｳ","kana_address":"ﾐﾂｲｼﾆｼﾎｳﾗｲ","pref":"北海道","city":"日高郡新ひだか町","address":"三石西蓬莱"},
{"zip_code":"0593105","kana_pref":"ﾎｯｶｲﾄﾞｳ","kana_city":"ﾋﾀﾞｶｸﾞﾝｼﾝﾋﾀﾞｶﾁｮｳ","kana_address":"ﾐﾂｲｼﾋｶﾞｼﾎｳﾗｲ","pref":"北海道","city":"日高郡新ひだか町","address":"三石東蓬莱"},
{"zip_code":"0593102","kana_pref":"ﾎｯｶｲﾄﾞｳ","kana_city":"ﾋﾀﾞｶｸﾞﾝｼﾝﾋﾀﾞｶﾁｮｳ","kana_address":"ﾐﾂｲｼﾌｸﾊﾀ","pref":"北海道","city":"日高郡新ひだか町","address":"三石福畑"},
{"zip_code":"0593104","kana_pref":"ﾎｯｶｲﾄﾞｳ","kana_city":"ﾋﾀﾞｶｸﾞﾝｼﾝﾋﾀﾞｶﾁｮｳ","kana_address":"ﾐﾂｲｼﾎｳｴｲ","pref":"北海道","city":"日高郡新ひだか町","address":"三石蓬栄"},
{"zip_code":"0593231","kana_pref":"ﾎｯｶｲﾄﾞｳ","kana_city":"ﾋﾀﾞｶｸﾞﾝｼﾝﾋﾀﾞｶﾁｮｳ","kana_address":"ﾐﾂｲｼﾎﾝｷﾘ","pref":"北海道","city":"日高郡新ひだか町","address":"三石本桐"},
{"zip_code":"0593108","kana_pref":"ﾎｯｶｲﾄﾞｳ","kana_city":"ﾋﾀﾞｶｸﾞﾝｼﾝﾋﾀﾞｶﾁｮｳ","kana_address":"ﾐﾂｲｼﾎﾝﾁｮｳ","pref":"北海道","city":"日高郡新ひだか町","address":"三石本町"},
{"zip_code":"0593355","kana_pref":"ﾎｯｶｲﾄﾞｳ","kana_city":"ﾋﾀﾞｶｸﾞﾝｼﾝﾋﾀﾞｶﾁｮｳ","kana_address":"ﾐﾂｲｼﾐｶﾜ","pref":"北海道","city":"日高郡新ひだか町","address":"三石美河"},
{"zip_code":"0593112","kana_pref":"ﾎｯｶｲﾄﾞｳ","kana_city":"ﾋﾀﾞｶｸﾞﾝｼﾝﾋﾀﾞｶﾁｮｳ","kana_address":"ﾐﾂｲｼﾐﾅﾄﾁｮｳ","pref":"北海道","city":"日高郡新ひだか町","address":"三石港町"},
{"zip_code":"0593232","kana_pref":"ﾎｯｶｲﾄﾞｳ","kana_city":"ﾋﾀﾞｶｸﾞﾝｼﾝﾋﾀﾞｶﾁｮｳ","kana_address":"ﾐﾂｲｼﾐﾉﾜ","pref":"北海道","city":"日高郡新ひだか町","address":"三石美野和"}]}