{"zip_code":[
{"zip_code":"0620000","kana_pref":"ﾎｯｶｲﾄﾞｳ","kana_city":"ｻｯﾎﾟﾛｼﾄﾖﾋﾗｸ","kana_address":"","pref":"北海道","city":"札幌市豊平区","address":""},
{"zip_code":"0620911","kana_pref":"ﾎｯｶｲﾄﾞｳ","kana_city":"ｻｯﾎﾟﾛｼﾄﾖﾋﾗｸ","kana_address":"ｱｻﾋﾏﾁ","pref":"北海道","city":"札幌市豊平区","address":"旭町"},
{"zip_code":"0620912","kana_pref":"ﾎｯｶｲﾄﾞｳ","kana_city":"ｻｯﾎﾟﾛｼﾄﾖﾋﾗｸ","kana_address":"ｽｲｼｬﾁｮｳ","pref":"北海道","city":"札幌市豊平区","address":"水車町"},
{"zip_code":"0620020","kana_pref":"ﾎｯｶｲﾄﾞｳ","kana_city":"ｻｯﾎﾟﾛｼﾄﾖﾋﾗｸ","kana_address":"ﾂｷｻﾑﾁｭｳｵｳﾄﾞｵﾘ","pref":"北海道","city":"札幌市豊平区","address":"月寒中央通"},
{"zip_code":"0620021","kana_pref":"ﾎｯｶｲﾄﾞｳ","kana_city":"ｻｯﾎﾟﾛｼﾄﾖﾋﾗｸ","kana_address":"ﾂｷｻﾑﾆｼ1ｼﾞｮｳ","pref":"北海道","city":"札幌市豊平区","address":"月寒西一条"},
{"zip_code":"0620022","kana_pref":"ﾎｯｶｲﾄﾞｳ","kana_city":"ｻｯﾎﾟﾛｼﾄﾖﾋﾗｸ","kana_address":"ﾂｷｻﾑﾆｼ2ｼﾞｮｳ","pref":"北海道","city":"札幌市豊平区","address":"月寒西二条"},
{"zip_code":"0620023","kana_pref":"ﾎｯｶｲﾄﾞｳ","kana_city":"ｻｯﾎﾟﾛｼﾄﾖﾋﾗｸ","kana_address":"ﾂｷｻﾑﾆｼ3ｼﾞｮｳ","pref":"北海道","city":"札幌市豊平区","address":"月寒西三条"},
{"zip_code":"0620024","kana_pref":"ﾎｯｶｲﾄﾞｳ","kana_city":"ｻｯﾎﾟﾛｼﾄﾖﾋﾗｸ","kana_address":"ﾂｷｻﾑﾆｼ4ｼﾞｮｳ","pref":"北海道","city":"札幌市豊平区","address":"月寒西四条"},
{"zip_code":"0620025","kana_pref":"ﾎｯｶｲﾄﾞｳ","kana_city":"ｻｯﾎﾟﾛｼﾄﾖﾋﾗｸ","kana_address":"ﾂｷｻﾑﾆｼ5ｼﾞｮｳ","pref":"北海道","city":"札幌市豊平区","address":"月寒西五条"},
{"zip_code":"0620051","kana_pref":"ﾎｯｶｲﾄﾞｳ","kana_city":"ｻｯﾎﾟﾛｼﾄﾖﾋﾗｸ","kana_address":"ﾂｷｻﾑﾋｶﾞｼ1ｼﾞｮｳ","pref":"北海道","city":"札幌市豊平区","address":"月寒東一条"},
{"zip_code":"0620052","kana_pref":"ﾎｯｶｲﾄﾞｳ","kana_city":"ｻｯﾎﾟﾛｼﾄﾖﾋﾗｸ","kana_address":"ﾂｷｻﾑﾋｶﾞｼ2ｼﾞｮｳ","pref":"北海道","city":"札幌市豊平区","address":"月寒東二条"},
{"zip_code":"0620053","kana_pref":"ﾎｯｶｲﾄﾞｳ","kana_city":"ｻｯﾎﾟﾛｼﾄﾖﾋﾗｸ","kana_address":"ﾂｷｻﾑﾋｶﾞｼ3ｼﾞｮｳ","pref":"北海道","city":"札幌市豊平区","address":"月寒東三条"},
{"zip_code":"0620054","kana_pref":"ﾎｯｶｲﾄﾞｳ","kana_city":"ｻｯﾎﾟﾛｼﾄﾖﾋﾗｸ","kana_address":"ﾂｷｻﾑﾋｶﾞｼ4ｼﾞｮｳ","pref":"北海道","city":"札幌市豊平区","address":"月寒東四条"},
{"zip_code":"0620055","kana_pref":"ﾎｯｶｲﾄﾞｳ","kana_city":"ｻｯﾎﾟﾛｼﾄﾖﾋﾗｸ","kana_address":"ﾂｷｻﾑﾋｶﾞｼ5ｼﾞｮｳ","pref":"北海道","city":"札幌市豊平区","address":"月寒東五条"},
{"zip_code":"0620901","kana_pref":"ﾎｯｶｲﾄﾞｳ","kana_city":"ｻｯﾎﾟﾛｼﾄﾖﾋﾗｸ","kana_address":"ﾄﾖﾋﾗ1ｼﾞｮｳ","pref":"北海道","city":"札幌市豊平区","address":"豊平一条"},
{"zip_code":"0620902","kana_pref":"ﾎｯｶｲﾄﾞｳ","kana_city":"ｻｯﾎﾟﾛｼﾄﾖﾋﾗｸ","kana_address":"ﾄﾖﾋﾗ2ｼﾞｮｳ","pref":"北海道","city":"札幌市豊平区","address":"豊平二条"},
{"zip_code":"0620903","kana_pref":"ﾎｯｶｲﾄﾞｳ","kana_city":"ｻｯﾎﾟﾛｼﾄﾖﾋﾗｸ","kana_address":"ﾄﾖﾋﾗ3ｼﾞｮｳ","pref":"北海道","city":"札幌市豊平区","address":"豊平三条"},
{"zip_code":"0620904","kana_pref":"ﾎｯｶｲﾄﾞｳ","kana_city":"ｻｯﾎﾟﾛｼﾄﾖﾋﾗｸ","kana_address":"ﾄﾖﾋﾗ4ｼﾞｮｳ","pref":"北海道","city":"札幌市豊平区","address":"豊平四条"},
{"zip_code":"0620905","kana_pref":"ﾎｯｶｲﾄﾞｳ","kana_city":"ｻｯﾎﾟﾛｼﾄﾖﾋﾗｸ","kana_address":"ﾄﾖﾋﾗ5ｼﾞｮｳ","pref":"北海道","city":"札幌市豊平区","address":"豊平五条"},
{"zip_code":"0620906","kana_pref":"ﾎｯｶｲﾄﾞｳ","kana_city":"ｻｯﾎﾟﾛｼﾄﾖﾋﾗｸ","kana_address":"ﾄﾖﾋﾗ6ｼﾞｮｳ","pref":"北海道","city":"札幌市豊平区","address":"豊平六条"},
{"zip_code":"0620907","kana_pref":"ﾎｯｶｲﾄﾞｳ","kana_city":"ｻｯﾎﾟﾛｼﾄﾖﾋﾗｸ","kana_address":"ﾄﾖﾋﾗ7ｼﾞｮｳ","pref":"北海道","city":"札幌市豊平区","address":"豊平七条"},
{"zip_code":"0620908","kana_pref":"ﾎｯｶｲﾄﾞｳ","kana_city":"ｻｯﾎﾟﾛｼﾄﾖﾋﾗｸ","kana_address":"ﾄﾖﾋﾗ8ｼﾞｮｳ","pref":"北海道","city":"札幌市豊平区","address":"豊平八条"},
{"zip_code":"0620909","kana_pref":"ﾎｯｶｲﾄﾞｳ","kana_city":"ｻｯﾎﾟﾛｼﾄﾖﾋﾗｸ","kana_address":"ﾄﾖﾋﾗ9ｼﾞｮｳ","pref":"北海道","city":"札幌市豊平区","address":"豊平九条"},
{"zip_code":"0620921","kana_pref":"ﾎｯｶｲﾄﾞｳ","kana_city":"ｻｯﾎﾟﾛｼﾄﾖﾋﾗｸ","kana_address":"ﾅｶﾉｼﾏ1ｼﾞｮｳ","pref":"北海道","city":"札幌市豊平区","address":"中の島一条"},
{"zip_code":"0620922","kana_pref":"ﾎｯｶｲﾄﾞｳ","kana_city":"ｻｯﾎﾟﾛｼﾄﾖﾋﾗｸ","kana_address":"ﾅｶﾉｼﾏ2ｼﾞｮｳ","pref":"北海道","city":"札幌市豊平区","address":"中の島二条"},
{"zip_code":"0620039","kana_pref":"ﾎｯｶｲﾄﾞｳ","kana_city":"ｻｯﾎﾟﾛｼﾄﾖﾋﾗｸ","kana_address":"ﾆｼｵｶ","pref":"北海道","city":"札幌市豊平区","address":"西岡"},
{"zip_code":"0620031","kana_pref":"ﾎｯｶｲﾄﾞｳ","kana_city":"ｻｯﾎﾟﾛｼﾄﾖﾋﾗｸ","kana_address":"ﾆｼｵｶ1ｼﾞｮｳ","pref":"北海道","city":"札幌市豊平区","address":"西岡一条"},
{"zip_code":"0620032","kana_pref":"ﾎｯｶｲﾄﾞｳ","kana_city":"ｻｯﾎﾟﾛｼﾄﾖﾋﾗｸ","kana_address":"ﾆｼｵｶ2ｼﾞｮｳ","pref":"北海道","city":"札幌市豊平区","address":"西岡二条"},
{"zip_code":"0620033","kana_pref":"ﾎｯｶｲﾄﾞｳ","kana_city":"ｻｯﾎﾟﾛｼﾄﾖﾋﾗｸ","kana_address":"ﾆｼｵｶ3ｼﾞｮｳ","pref":"北海道","city":"札幌市豊平区","address":"西岡三条"},
{"zip_code":"0620034","kana_pref":"ﾎｯｶｲﾄﾞｳ","kana_city":"ｻｯﾎﾟﾛｼﾄﾖﾋﾗｸ","kana_address":"ﾆｼｵｶ4ｼﾞｮｳ","pref":"北海道","city":"札幌市豊平区","address":"西岡四条"},
{"zip_code":"0620035","kana_pref":"ﾎｯｶｲﾄﾞｳ","kana_city":"ｻｯﾎﾟﾛｼﾄﾖﾋﾗｸ","kana_address":"ﾆｼｵｶ5ｼﾞｮｳ","pref":"北海道","city":"札幌市豊平区","address":"西岡五条"},
{"zip_code":"0620045","kana_pref":"ﾎｯｶｲﾄﾞｳ","kana_city":"ｻｯﾎﾟﾛｼﾄﾖﾋﾗｸ","kana_address":"ﾋﾂｼﾞｶﾞｵｶ","pref":"北海道","city":"札幌市豊平区","address":"羊ケ丘"},
{"zip_code":"0620931","kana_pref":"ﾎｯｶｲﾄﾞｳ","kana_city":"ｻｯﾎﾟﾛｼﾄﾖﾋﾗｸ","kana_address":"ﾋﾗｷﾞｼ1ｼﾞｮｳ","pref":"北海道","city":"札幌市豊平区","address":"平岸一条"},
{"zip_code":"0620932","kana_pref":"ﾎｯｶｲﾄﾞｳ","kana_city":"ｻｯﾎﾟﾛｼﾄﾖﾋﾗｸ","kana_address":"ﾋﾗｷﾞｼ2ｼﾞｮｳ","pref":"北海道","city":"札幌市豊平区","address":"平岸二条"},
{"zip_code":"0620933","kana_pref":"ﾎｯｶｲﾄﾞｳ","kana_city":"ｻｯﾎﾟﾛｼﾄﾖﾋﾗｸ","kana_address":"ﾋﾗｷﾞｼ3ｼﾞｮｳ","pref":"北海道","city":"札幌市豊平区","address":"平岸三条"},
{"zip_code":"0620934","kana_pref":"ﾎｯｶｲﾄﾞｳ","kana_city":"ｻｯﾎﾟﾛｼﾄﾖﾋﾗｸ","kana_address":"ﾋﾗｷﾞｼ4ｼﾞｮｳ","pref":"北海道","city":"札幌市豊平区","address":"平岸四条"},
{"zip_code":"0620935","kana_pref":"ﾎｯｶｲﾄﾞｳ","kana_city":"ｻｯﾎﾟﾛｼﾄﾖﾋﾗｸ","kana_address":"ﾋﾗｷﾞｼ5ｼﾞｮｳ","pref":"北海道","city":"札幌市豊平区","address":"平岸五条"},
{"zip_code":"0620936","kana_pref":"ﾎｯｶｲﾄﾞｳ","kana_city":"ｻｯﾎﾟﾛｼﾄﾖﾋﾗｸ","kana_address":"ﾋﾗｷﾞｼ6ｼﾞｮｳ","pref":"北海道","city":"札幌市豊平区","address":"平岸六条"},
{"zip_code":"0620937","kana_pref":"ﾎｯｶｲﾄﾞｳ","kana_city":"ｻｯﾎﾟﾛｼﾄﾖﾋﾗｸ","kana_address":"ﾋﾗｷﾞｼ7ｼﾞｮｳ","pref":"北海道","city":"札幌市豊平区","address":"平岸七条"},
{"zip_code":"0620938","kana_pref":"ﾎｯｶｲﾄﾞｳ","kana_city":"ｻｯﾎﾟﾛｼﾄﾖﾋﾗｸ","kana_address":"ﾋﾗｷﾞｼ8ｼﾞｮｳ","pref":"北海道","city":"札幌市豊平区","address":"平岸八条"},
{"zip_code":"0620041","kana_pref":"ﾎｯｶｲﾄﾞｳ","kana_city":"ｻｯﾎﾟﾛｼﾄﾖﾋﾗｸ","kana_address":"ﾌｸｽﾞﾐ1ｼﾞｮｳ","pref":"北海道","city":"札幌市豊平区","address":"福住一条"},
{"zip_code":"0620042","kana_pref":"ﾎｯｶｲﾄﾞｳ","kana_city":"ｻｯﾎﾟﾛｼﾄﾖﾋﾗｸ","kana_address":"ﾌｸｽﾞﾐ2ｼﾞｮｳ","pref":"北海道","city":"札幌市豊平区","address":"福住二条"},
{"zip_code":"0620043","kana_pref":"ﾎｯｶｲﾄﾞｳ","kana_city":"ｻｯﾎﾟﾛｼﾄﾖﾋﾗｸ","kana_address":"ﾌｸｽﾞﾐ3ｼﾞｮｳ","pref":"北海道","city":"札幌市豊平区","address":"福住三条"},
{"zip_code":"0620001","kana_pref":"ﾎｯｶｲﾄﾞｳ","kana_city":"ｻｯﾎﾟﾛｼﾄﾖﾋﾗｸ","kana_address":"ﾐｿﾉ1ｼﾞｮｳ","pref":"北海道","city":"札幌市豊平区","address":"美園一条"},
{"zip_code":"0620002","kana_pref":"ﾎｯｶｲﾄﾞｳ","kana_city":"ｻｯﾎﾟﾛｼﾄﾖﾋﾗｸ","kana_address":"ﾐｿﾉ2ｼﾞｮｳ","pref":"北海道","city":"札幌市豊平区","address":"美園二条"},
{"zip_code":"0620003","kana_pref":"ﾎｯｶｲﾄﾞｳ","kana_city":"ｻｯﾎﾟﾛｼﾄﾖﾋﾗｸ","kana_address":"ﾐｿﾉ3ｼﾞｮｳ","pref":"北海道","city":"札幌市豊平区","address":"美園三条"},
{"zip_code":"0620004","kana_pref":"ﾎｯｶｲﾄﾞｳ","kana_city":"ｻｯﾎﾟﾛｼﾄﾖﾋﾗｸ","kana_address":"ﾐｿﾉ4ｼﾞｮｳ","pref":"北海道","city":"札幌市豊平区","address":"美園四条"},
{"zip_code":"0620005","kana_pref":"ﾎｯｶｲﾄﾞｳ","kana_city":"ｻｯﾎﾟﾛｼﾄﾖﾋﾗｸ","kana_address":"ﾐｿﾉ5ｼﾞｮｳ","pref":"北海道","city":"札幌市豊平区","address":"美園五条"},
{"zip_code":"0620006","kana_pref":"ﾎｯｶｲﾄﾞｳ","kana_city":"ｻｯﾎﾟﾛｼﾄﾖﾋﾗｸ","kana_address":"ﾐｿﾉ6ｼﾞｮｳ","pref":"北海道","city":"札幌市豊平区","address":"美園六条"},
{"zip_code":"0620007","kana_pref":"ﾎｯｶｲﾄﾞｳ","kana_city":"ｻｯﾎﾟﾛｼﾄﾖﾋﾗｸ","kana_address":"ﾐｿﾉ7ｼﾞｮｳ","pref":"北海道","city":"札幌市豊平区","address":"美園七条"},
{"zip_code":"0620008","kana_pref":"ﾎｯｶｲﾄﾞｳ","kana_city":"ｻｯﾎﾟﾛｼﾄﾖﾋﾗｸ","kana_address":"ﾐｿﾉ8ｼﾞｮｳ","pref":"北海道","city":"札幌市豊平区","address":"美園八条"},
{"zip_code":"0620009","kana_pref":"ﾎｯｶｲﾄﾞｳ","kana_city":"ｻｯﾎﾟﾛｼﾄﾖﾋﾗｸ","kana_address":"ﾐｿﾉ9ｼﾞｮｳ","pref":"北海道","city":"札幌市豊平区","address":"美園九条"},
{"zip_code":"0620010","kana_pref":"ﾎｯｶｲﾄﾞｳ","kana_city":"ｻｯﾎﾟﾛｼﾄﾖﾋﾗｸ","kana_address":"ﾐｿﾉ10ｼﾞｮｳ","pref":"北海道","city":"札幌市豊平区","address":"美園十条"},
{"zip_code":"0620011","kana_pref":"ﾎｯｶｲﾄﾞｳ","kana_city":"ｻｯﾎﾟﾛｼﾄﾖﾋﾗｸ","kana_address":"ﾐｿﾉ11ｼﾞｮｳ","pref":"北海道","city":"札幌市豊平区","address":"美園十一条"},
{"zip_code":"0620012","kana_pref":"ﾎｯｶｲﾄﾞｳ","kana_city":"ｻｯﾎﾟﾛｼﾄﾖﾋﾗｸ","kana_address":"ﾐｿﾉ12ｼﾞｮｳ","pref":"北海道","city":"札幌市豊平区","address":"美園十二条"}]}