{"zip_code":[
{"zip_code":"0630000","kana_pref":"ﾎｯｶｲﾄﾞｳ","kana_city":"ｻｯﾎﾟﾛｼﾆｼｸ","kana_address":"","pref":"北海道","city":"札幌市西区","address":""},
{"zip_code":"0630811","kana_pref":"ﾎｯｶｲﾄﾞｳ","kana_city":"ｻｯﾎﾟﾛｼﾆｼｸ","kana_address":"ｺﾄﾆ1ｼﾞｮｳ","pref":"北海道","city":"札幌市西区","address":"琴似一条"},
{"zip_code":"0630812","kana_pref":"ﾎｯｶｲﾄﾞｳ","kana_city":"ｻｯﾎﾟﾛｼﾆｼｸ","kana_address":"ｺﾄﾆ2ｼﾞｮｳ","pref":"北海道","city":"札幌市西区","address":"琴似二条"},
{"zip_code":"0630813","kana_pref":"ﾎｯｶｲﾄﾞｳ","kana_city":"ｻｯﾎﾟﾛｼﾆｼｸ","kana_address":"ｺﾄﾆ3ｼﾞｮｳ","pref":"北海道","city":"札幌市西区","address":"琴似三条"},
{"zip_code":"0630814","kana_pref":"ﾎｯｶｲﾄﾞｳ","kana_city":"ｻｯﾎﾟﾛｼﾆｼｸ","kana_address":"ｺﾄﾆ4ｼﾞｮｳ","pref":"北海道","city":"札幌市西区","address":"琴似四条"},
{"zip_code":"0630011","kana_pref":"ﾎｯｶｲﾄﾞｳ","kana_city":"ｻｯﾎﾟﾛｼﾆｼｸ","kana_address":"ｺﾍﾞﾂｻﾞﾜ","pref":"北海道","city":"札幌市西区","address":"小別沢"},
{"zip_code":"0630049","kana_pref":"ﾎｯｶｲﾄﾞｳ","kana_city":"ｻｯﾎﾟﾛｼﾆｼｸ","kana_address":"ﾆｼﾉ","pref":"北海道","city":"札幌市西区","address":"西野"},
{"zip_code":"0630031","kana_pref":"ﾎｯｶｲﾄﾞｳ","kana_city":"ｻｯﾎﾟﾛｼﾆｼｸ","kana_address":"ﾆｼﾉ1ｼﾞｮｳ","pref":"北海道","city":"札幌市西区","address":"西野一条"},
{"zip_code":"0630032","kana_pref":"ﾎｯｶｲﾄﾞｳ","kana_city":"ｻｯﾎﾟﾛｼﾆｼｸ","kana_address":"ﾆｼﾉ2ｼﾞｮｳ","pref":"北海道","city":"札幌市西区","address":"西野二条"},
{"zip_code":"0630033","kana_pref":"ﾎｯｶｲﾄﾞｳ","kana_city":"ｻｯﾎﾟﾛｼﾆｼｸ","kana_address":"ﾆｼﾉ3ｼﾞｮｳ","pref":"北海道","city":"札幌市西区","address":"西野三条"},
{"zip_code":"0630034","kana_pref":"ﾎｯｶｲﾄﾞｳ","kana_city":"ｻｯﾎﾟﾛｼﾆｼｸ","kana_address":"ﾆｼﾉ4ｼﾞｮｳ","pref":"北海道","city":"札幌市西区","address":"西野四条"},
{"zip_code":"0630035","kana_pref":"ﾎｯｶｲﾄﾞｳ","kana_city":"ｻｯﾎﾟﾛｼﾆｼｸ","kana_address":"ﾆｼﾉ5ｼﾞｮｳ","pref":"北海道","city":"札幌市西区","address":"西野五条"},
{"zip_code":"0630036","kana_pref":"ﾎｯｶｲﾄﾞｳ","kana_city":"ｻｯﾎﾟﾛｼﾆｼｸ","kana_address":"ﾆｼﾉ6ｼﾞｮｳ","pref":"北海道","city":"札幌市西区","address":"西野六条"},
{"zip_code":"0630037","kana_pref":"ﾎｯｶｲﾄﾞｳ","kana_city":"ｻｯﾎﾟﾛｼﾆｼｸ","kana_address":"ﾆｼﾉ7ｼﾞｮｳ","pref":"北海道","city":"札幌市西区","address":"西野七条"},
{"zip_code":"0630038","kana_pref":"ﾎｯｶｲﾄﾞｳ","kana_city":"ｻｯﾎﾟﾛｼﾆｼｸ","kana_address":"ﾆｼﾉ8ｼﾞｮｳ","pref":"北海道","city":"札幌市西区","address":"西野八条"},
{"zip_code":"0630039","kana_pref":"ﾎｯｶｲﾄﾞｳ","kana_city":"ｻｯﾎﾟﾛｼﾆｼｸ","kana_address":"ﾆｼﾉ9ｼﾞｮｳ","pref":"北海道","city":"札幌市西区","address":"西野九条"},
{"zip_code":"0630040","kana_pref":"ﾎｯｶｲﾄﾞｳ","kana_city":"ｻｯﾎﾟﾛｼﾆｼｸ","kana_address":"ﾆｼﾉ10ｼﾞｮｳ","pref":"北海道","city":"札幌市西区","address":"西野十条"},
{"zip_code":"0630041","kana_pref":"ﾎｯｶｲﾄﾞｳ","kana_city":"ｻｯﾎﾟﾛｼﾆｼｸ","kana_address":"ﾆｼﾉ11ｼﾞｮｳ","pref":"北海道","city":"札幌市西区","address":"西野十一条"},
{"zip_code":"0630042","kana_pref":"ﾎｯｶｲﾄﾞｳ","kana_city":"ｻｯﾎﾟﾛｼﾆｼｸ","kana_address":"ﾆｼﾉ12ｼﾞｮｳ","pref":"北海道","city":"札幌市西区","address":"西野十二条"},
{"zip_code":"0630043","kana_pref":"ﾎｯｶｲﾄﾞｳ","kana_city":"ｻｯﾎﾟﾛｼﾆｼｸ","kana_address":"ﾆｼﾉ13ｼﾞｮｳ","pref":"北海道","city":"札幌市西区","address":"西野十三条"},
{"zip_code":"0630044","kana_pref":"ﾎｯｶｲﾄﾞｳ","kana_city":"ｻｯﾎﾟﾛｼﾆｼｸ","kana_address":"ﾆｼﾉ14ｼﾞｮｳ","pref":"北海道","city":"札幌市西区","address":"西野十四条"},
{"zip_code":"0630062","kana_pref":"ﾎｯｶｲﾄﾞｳ","kana_city":"ｻｯﾎﾟﾛｼﾆｼｸ","kana_address":"ﾆｼﾏﾁﾐﾅﾐ","pref":"北海道","city":"札幌市西区","address":"西町南"},
{"zip_code":"0630061","kana_pref":"ﾎｯｶｲﾄﾞｳ","kana_city":"ｻｯﾎﾟﾛｼﾆｼｸ","kana_address":"ﾆｼﾏﾁｷﾀ","pref":"北海道","city":"札幌市西区","address":"西町北"},
{"zip_code":"0630801","kana_pref":"ﾎｯｶｲﾄﾞｳ","kana_city":"ｻｯﾎﾟﾛｼﾆｼｸ","kana_address":"ﾆｼﾞｭｳﾖﾝｹﾝ1ｼﾞｮｳ","pref":"北海道","city":"札幌市西区","address":"二十四軒一条"},
{"zip_code":"0630802","kana_pref":"ﾎｯｶｲﾄﾞｳ","kana_city":"ｻｯﾎﾟﾛｼﾆｼｸ","kana_address":"ﾆｼﾞｭｳﾖﾝｹﾝ2ｼﾞｮｳ","pref":"北海道","city":"札幌市西区","address":"二十四軒二条"},
{"zip_code":"0630803","kana_pref":"ﾎｯｶｲﾄﾞｳ","kana_city":"ｻｯﾎﾟﾛｼﾆｼｸ","kana_address":"ﾆｼﾞｭｳﾖﾝｹﾝ3ｼﾞｮｳ","pref":"北海道","city":"札幌市西区","address":"二十四軒三条"},
{"zip_code":"0630804","kana_pref":"ﾎｯｶｲﾄﾞｳ","kana_city":"ｻｯﾎﾟﾛｼﾆｼｸ","kana_address":"ﾆｼﾞｭｳﾖﾝｹﾝ4ｼﾞｮｳ","pref":"北海道","city":"札幌市西区","address":"二十四軒四条"},
{"zip_code":"0630861","kana_pref":"ﾎｯｶｲﾄﾞｳ","kana_city":"ｻｯﾎﾟﾛｼﾆｼｸ","kana_address":"ﾊﾁｹﾝ1ｼﾞｮｳﾋｶﾞｼ","pref":"北海道","city":"札幌市西区","address":"八軒一条東"},
{"zip_code":"0630841","kana_pref":"ﾎｯｶｲﾄﾞｳ","kana_city":"ｻｯﾎﾟﾛｼﾆｼｸ","kana_address":"ﾊﾁｹﾝ1ｼﾞｮｳﾆｼ","pref":"北海道","city":"札幌市西区","address":"八軒一条西"},
{"zip_code":"0630862","kana_pref":"ﾎｯｶｲﾄﾞｳ","kana_city":"ｻｯﾎﾟﾛｼﾆｼｸ","kana_address":"ﾊﾁｹﾝ2ｼﾞｮｳﾋｶﾞｼ","pref":"北海道","city":"札幌市西区","address":"八軒二条東"},
{"zip_code":"0630842","kana_pref":"ﾎｯｶｲﾄﾞｳ","kana_city":"ｻｯﾎﾟﾛｼﾆｼｸ","kana_address":"ﾊﾁｹﾝ2ｼﾞｮｳﾆｼ","pref":"北海道","city":"札幌市西区","address":"八軒二条西"},
{"zip_code":"0630863","kana_pref":"ﾎｯｶｲﾄﾞｳ","kana_city":"ｻｯﾎﾟﾛｼﾆｼｸ","kana_address":"ﾊﾁｹﾝ3ｼﾞｮｳﾋｶﾞｼ","pref":"北海道","city":"札幌市西区","address":"八軒三条東"},
{"zip_code":"0630843","kana_pref":"ﾎｯｶｲﾄﾞｳ","kana_city":"ｻｯﾎﾟﾛｼﾆｼｸ","kana_address":"ﾊﾁｹﾝ3ｼﾞｮｳﾆｼ","pref":"北海道","city":"札幌市西区","address":"八軒三条西"},
{"zip_code":"0630864","kana_pref":"ﾎｯｶｲﾄﾞｳ","kana_city":"ｻｯﾎﾟﾛｼﾆｼｸ","kana_address":"ﾊﾁｹﾝ4ｼﾞｮｳﾋｶﾞｼ","pref":"北海道","city":"札幌市西区","address":"八軒四条東"},
{"zip_code":"0630844","kana_pref":"ﾎｯｶｲﾄﾞｳ","kana_city":"ｻｯﾎﾟﾛｼﾆｼｸ","kana_address":"ﾊﾁｹﾝ4ｼﾞｮｳﾆｼ","pref":"北海道","city":"札幌市西区","address":"八軒四条西"},
{"zip_code":"0630865","kana_pref":"ﾎｯｶｲﾄﾞｳ","kana_city":"ｻｯﾎﾟﾛｼﾆｼｸ","kana_address":"ﾊﾁｹﾝ5ｼﾞｮｳﾋｶﾞｼ","pref":"北海道","city":"札幌市西区","address":"八軒五条東"},
{"zip_code":"0630845","kana_pref":"ﾎｯｶｲﾄﾞｳ","kana_city":"ｻｯﾎﾟﾛｼﾆｼｸ","kana_address":"ﾊﾁｹﾝ5ｼﾞｮｳﾆｼ","pref":"北海道","city":"札幌市西区","address":"八軒五条西"},
{"zip_code":"0630866","kana_pref":"ﾎｯｶｲﾄﾞｳ","kana_city":"ｻｯﾎﾟﾛｼﾆｼｸ","kana_address":"ﾊﾁｹﾝ6ｼﾞｮｳﾋｶﾞｼ","pref":"北海道","city":"札幌市西区","address":"八軒六条東"},
{"zip_code":"0630846","kana_pref":"ﾎｯｶｲﾄﾞｳ","kana_city":"ｻｯﾎﾟﾛｼﾆｼｸ","kana_address":"ﾊﾁｹﾝ6ｼﾞｮｳﾆｼ","pref":"北海道","city":"札幌市西区","address":"八軒六条西"},
{"zip_code":"0630867","kana_pref":"ﾎｯｶｲﾄﾞｳ","kana_city":"ｻｯﾎﾟﾛｼﾆｼｸ","kana_address":"ﾊﾁｹﾝ7ｼﾞｮｳﾋｶﾞｼ","pref":"北海道","city":"札幌市西区","address":"八軒七条東"},
{"zip_code":"0630847","kana_pref":"ﾎｯｶｲﾄﾞｳ","kana_city":"ｻｯﾎﾟﾛｼﾆｼｸ","kana_address":"ﾊﾁｹﾝ7ｼﾞｮｳﾆｼ","pref":"北海道","city":"札幌市西区","address":"八軒七条西"},
{"zip_code":"0630868","kana_pref":"ﾎｯｶｲﾄﾞｳ","kana_city":"ｻｯﾎﾟﾛｼﾆｼｸ","kana_address":"ﾊﾁｹﾝ8ｼﾞｮｳﾋｶﾞｼ","pref":"北海道","city":"札幌市西区","address":"八軒八条東"},
{"zip_code":"0630848","kana_pref":"ﾎｯｶｲﾄﾞｳ","kana_city":"ｻｯﾎﾟﾛｼﾆｼｸ","kana_address":"ﾊﾁｹﾝ8ｼﾞｮｳﾆｼ","pref":"北海道","city":"札幌市西区","address":"八軒八条西"},
{"zip_code":"0630869","kana_pref":"ﾎｯｶｲﾄﾞｳ","kana_city":"ｻｯﾎﾟﾛｼﾆｼｸ","kana_address":"ﾊﾁｹﾝ9ｼﾞｮｳﾋｶﾞｼ","pref":"北海道","city":"札幌市西区","address":"八軒九条東"},
{"zip_code":"0630849","kana_pref":"ﾎｯｶｲﾄﾞｳ","kana_city":"ｻｯﾎﾟﾛｼﾆｼｸ","kana_address":"ﾊﾁｹﾝ9ｼﾞｮｳﾆｼ","pref":"北海道","city":"札幌市西区","address":"八軒九条西"},
{"zip_code":"0630870","kana_pref":"ﾎｯｶｲﾄﾞｳ","kana_city":"ｻｯﾎﾟﾛｼﾆｼｸ","kana_address":"ﾊﾁｹﾝ10ｼﾞｮｳﾋｶﾞｼ","pref":"北海道","city":"札幌市西区","address":"八軒十条東"},
{"zip_code":"0630850","kana_pref":"ﾎｯｶｲﾄﾞｳ","kana_city":"ｻｯﾎﾟﾛｼﾆｼｸ","kana_address":"ﾊﾁｹﾝ10ｼﾞｮｳﾆｼ","pref":"北海道","city":"札幌市西区","address":"八軒十条西"},
{"zip_code":"0630821","kana_pref":"ﾎｯｶｲﾄﾞｳ","kana_city":"ｻｯﾎﾟﾛｼﾆｼｸ","kana_address":"ﾊｯｻﾑ1ｼﾞｮｳ","pref":"北海道","city":"札幌市西区","address":"発寒一条"},
{"zip_code":"0630822","kana_pref":"ﾎｯｶｲﾄﾞｳ","kana_city":"ｻｯﾎﾟﾛｼﾆｼｸ","kana_address":"ﾊｯｻﾑ2ｼﾞｮｳ","pref":"北海道","city":"札幌市西区","address":"発寒二条"},
{"zip_code":"0630823","kana_pref":"ﾎｯｶｲﾄﾞｳ","kana_city":"ｻｯﾎﾟﾛｼﾆｼｸ","kana_address":"ﾊｯｻﾑ3ｼﾞｮｳ","pref":"北海道","city":"札幌市西区","address":"発寒三条"},
{"zip_code":"0630824","kana_pref":"ﾎｯｶｲﾄﾞｳ","kana_city":"ｻｯﾎﾟﾛｼﾆｼｸ","kana_address":"ﾊｯｻﾑ4ｼﾞｮｳ","pref":"北海道","city":"札幌市西区","address":"発寒四条"},
{"zip_code":"0630825","kana_pref":"ﾎｯｶｲﾄﾞｳ","kana_city":"ｻｯﾎﾟﾛｼﾆｼｸ","kana_address":"ﾊｯｻﾑ5ｼﾞｮｳ","pref":"北海道","city":"札幌市西区","address":"発寒五条"},
{"zip_code":"0630826","kana_pref":"ﾎｯｶｲﾄﾞｳ","kana_city":"ｻｯﾎﾟﾛｼﾆｼｸ","kana_address":"ﾊｯｻﾑ6ｼﾞｮｳ","pref":"北海道","city":"札幌市西区","address":"発寒六条"},
{"zip_code":"0630827","kana_pref":"ﾎｯｶｲﾄﾞｳ","kana_city":"ｻｯﾎﾟﾛｼﾆｼｸ","kana_address":"ﾊｯｻﾑ7ｼﾞｮｳ","pref":"北海道","city":"札幌市西区","address":"発寒七条"},
{"zip_code":"0630828","kana_pref":"ﾎｯｶｲﾄﾞｳ","kana_city":"ｻｯﾎﾟﾛｼﾆｼｸ","kana_address":"ﾊｯｻﾑ8ｼﾞｮｳ","pref":"北海道","city":"札幌市西区","address":"発寒八条"},
{"zip_code":"0630829","kana_pref":"ﾎｯｶｲﾄﾞｳ","kana_city":"ｻｯﾎﾟﾛｼﾆｼｸ","kana_address":"ﾊｯｻﾑ9ｼﾞｮｳ","pref":"北海道","city":"札幌市西区","address":"発寒九条"},
{"zip_code":"0630830","kana_pref":"ﾎｯｶｲﾄﾞｳ","kana_city":"ｻｯﾎﾟﾛｼﾆｼｸ","kana_address":"ﾊｯｻﾑ10ｼﾞｮｳ","pref":"北海道","city":"札幌市西区","address":"発寒十条"},
{"zip_code":"0630831","kana_pref":"ﾎｯｶｲﾄﾞｳ","kana_city":"ｻｯﾎﾟﾛｼﾆｼｸ","kana_address":"ﾊｯｻﾑ11ｼﾞｮｳ","pref":"北海道","city":"札幌市西区","address":"発寒十一条"},
{"zip_code":"0630832","kana_pref":"ﾎｯｶｲﾄﾞｳ","kana_city":"ｻｯﾎﾟﾛｼﾆｼｸ","kana_address":"ﾊｯｻﾑ12ｼﾞｮｳ","pref":"北海道","city":"札幌市西区","address":"発寒十二条"},
{"zip_code":"0630833","kana_pref":"ﾎｯｶｲﾄﾞｳ","kana_city":"ｻｯﾎﾟﾛｼﾆｼｸ","kana_address":"ﾊｯｻﾑ13ｼﾞｮｳ","pref":"北海道","city":"札幌市西区","address":"発寒十三条"},
{"zip_code":"0630834","kana_pref":"ﾎｯｶｲﾄﾞｳ","kana_city":"ｻｯﾎﾟﾛｼﾆｼｸ","kana_address":"ﾊｯｻﾑ14ｼﾞｮｳ","pref":"北海道","city":"札幌市西区","address":"発寒十四条"},
{"zip_code":"0630835","kana_pref":"ﾎｯｶｲﾄﾞｳ","kana_city":"ｻｯﾎﾟﾛｼﾆｼｸ","kana_address":"ﾊｯｻﾑ15ｼﾞｮｳ","pref":"北海道","city":"札幌市西区","address":"発寒十五条"},
{"zip_code":"0630836","kana_pref":"ﾎｯｶｲﾄﾞｳ","kana_city":"ｻｯﾎﾟﾛｼﾆｼｸ","kana_address":"ﾊｯｻﾑ16ｼﾞｮｳ","pref":"北海道","city":"札幌市西区","address":"発寒十六条"},
{"zip_code":"0630837","kana_pref":"ﾎｯｶｲﾄﾞｳ","kana_city":"ｻｯﾎﾟﾛｼﾆｼｸ","kana_address":"ﾊｯｻﾑ17ｼﾞｮｳ","pref":"北海道","city":"札幌市西区","address":"発寒十七条"},
{"zip_code":"0630012","kana_pref":"ﾎｯｶｲﾄﾞｳ","kana_city":"ｻｯﾎﾟﾛｼﾆｼｸ","kana_address":"ﾌｸｲ","pref":"北海道","city":"札幌市西区","address":"福井"},
{"zip_code":"0630029","kana_pref":"ﾎｯｶｲﾄﾞｳ","kana_city":"ｻｯﾎﾟﾛｼﾆｼｸ","kana_address":"ﾍｲﾜ","pref":"北海道","city":"札幌市西区","address":"平和"},
{"zip_code":"0630021","kana_pref":"ﾎｯｶｲﾄﾞｳ","kana_city":"ｻｯﾎﾟﾛｼﾆｼｸ","kana_address":"ﾍｲﾜ1ｼﾞｮｳ","pref":"北海道","city":"札幌市西区","address":"平和一条"},
{"zip_code":"0630022","kana_pref":"ﾎｯｶｲﾄﾞｳ","kana_city":"ｻｯﾎﾟﾛｼﾆｼｸ","kana_address":"ﾍｲﾜ2ｼﾞｮｳ","pref":"北海道","city":"札幌市西区","address":"平和二条"},
{"zip_code":"0630023","kana_pref":"ﾎｯｶｲﾄﾞｳ","kana_city":"ｻｯﾎﾟﾛｼﾆｼｸ","kana_address":"ﾍｲﾜ3ｼﾞｮｳ","pref":"北海道","city":"札幌市西区","address":"平和三条"},
{"zip_code":"0630059","kana_pref":"ﾎｯｶｲﾄﾞｳ","kana_city":"ｻｯﾎﾟﾛｼﾆｼｸ","kana_address":"ﾐﾔﾉｻﾜ","pref":"北海道","city":"札幌市西区","address":"宮の沢"},
{"zip_code":"0630051","kana_pref":"ﾎｯｶｲﾄﾞｳ","kana_city":"ｻｯﾎﾟﾛｼﾆｼｸ","kana_address":"ﾐﾔﾉｻﾜ1ｼﾞｮｳ","pref":"北海道","city":"札幌市西区","address":"宮の沢一条"},
{"zip_code":"0630052","kana_pref":"ﾎｯｶｲﾄﾞｳ","kana_city":"ｻｯﾎﾟﾛｼﾆｼｸ","kana_address":"ﾐﾔﾉｻﾜ2ｼﾞｮｳ","pref":"北海道","city":"札幌市西区","address":"宮の沢二条"},
{"zip_code":"0630053","kana_pref":"ﾎｯｶｲﾄﾞｳ","kana_city":"ｻｯﾎﾟﾛｼﾆｼｸ","kana_address":"ﾐﾔﾉｻﾜ3ｼﾞｮｳ","pref":"北海道","city":"札幌市西区","address":"宮の沢三条"},
{"zip_code":"0630054","kana_pref":"ﾎｯｶｲﾄﾞｳ","kana_city":"ｻｯﾎﾟﾛｼﾆｼｸ","kana_address":"ﾐﾔﾉｻﾜ4ｼﾞｮｳ","pref":"北海道","city":"札幌市西区","address":"宮の沢四条"},
{"zip_code":"0630009","kana_pref":"ﾎｯｶｲﾄﾞｳ","kana_city":"ｻｯﾎﾟﾛｼﾆｼｸ","kana_address":"ﾔﾏﾉﾃ","pref":"北海道","city":"札幌市西区","address":"山の手"},
{"zip_code":"0630001","kana_pref":"ﾎｯｶｲﾄﾞｳ","kana_city":"ｻｯﾎﾟﾛｼﾆｼｸ","kana_address":"ﾔﾏﾉﾃ1ｼﾞｮｳ","pref":"北海道","city":"札幌市西区","address":"山の手一条"},
{"zip_code":"0630002","kana_pref":"ﾎｯｶｲﾄﾞｳ","kana_city":"ｻｯﾎﾟﾛｼﾆｼｸ","kana_address":"ﾔﾏﾉﾃ2ｼﾞｮｳ","pref":"北海道","city":"札幌市西区","address":"山の手二条"},
{"zip_code":"0630003","kana_pref":"ﾎｯｶｲﾄﾞｳ","kana_city":"ｻｯﾎﾟﾛｼﾆｼｸ","kana_address":"ﾔﾏﾉﾃ3ｼﾞｮｳ","pref":"北海道","city":"札幌市西区","address":"山の手三条"},
{"zip_code":"0630004","kana_pref":"ﾎｯｶｲﾄﾞｳ","kana_city":"ｻｯﾎﾟﾛｼﾆｼｸ","kana_address":"ﾔﾏﾉﾃ4ｼﾞｮｳ","pref":"北海道","city":"札幌市西区","address":"山の手四条"},
{"zip_code":"0630005","kana_pref":"ﾎｯｶｲﾄﾞｳ","kana_city":"ｻｯﾎﾟﾛｼﾆｼｸ","kana_address":"ﾔﾏﾉﾃ5ｼﾞｮｳ","pref":"北海道","city":"札幌市西区","address":"山の手五条"},
{"zip_code":"0630006","kana_pref":"ﾎｯｶｲﾄﾞｳ","kana_city":"ｻｯﾎﾟﾛｼﾆｼｸ","kana_address":"ﾔﾏﾉﾃ6ｼﾞｮｳ","pref":"北海道","city":"札幌市西区","address":"山の手六条"},
{"zip_code":"0630007","kana_pref":"ﾎｯｶｲﾄﾞｳ","kana_city":"ｻｯﾎﾟﾛｼﾆｼｸ","kana_address":"ﾔﾏﾉﾃ7ｼﾞｮｳ","pref":"北海道","city":"札幌市西区","address":"山の手七条"}]}