{"zip_code":[
{"zip_code":"0650000","kana_pref":"ﾎｯｶｲﾄﾞｳ","kana_city":"ｻｯﾎﾟﾛｼﾋｶﾞｼｸ","kana_address":"","pref":"北海道","city":"札幌市東区","address":""},
{"zip_code":"0650004","kana_pref":"ﾎｯｶｲﾄﾞｳ","kana_city":"ｻｯﾎﾟﾛｼﾋｶﾞｼｸ","kana_address":"ｷﾀ4ｼﾞｮｳﾋｶﾞｼ","pref":"北海道","city":"札幌市東区","address":"北四条東"},
{"zip_code":"0650005","kana_pref":"ﾎｯｶｲﾄﾞｳ","kana_city":"ｻｯﾎﾟﾛｼﾋｶﾞｼｸ","kana_address":"ｷﾀ5ｼﾞｮｳﾋｶﾞｼ","pref":"北海道","city":"札幌市東区","address":"北五条東"},
{"zip_code":"0650006","kana_pref":"ﾎｯｶｲﾄﾞｳ","kana_city":"ｻｯﾎﾟﾛｼﾋｶﾞｼｸ","kana_address":"ｷﾀ6ｼﾞｮｳﾋｶﾞｼ","pref":"北海道","city":"札幌市東区","address":"北六条東"},
{"zip_code":"0650007","kana_pref":"ﾎｯｶｲﾄﾞｳ","kana_city":"ｻｯﾎﾟﾛｼﾋｶﾞｼｸ","kana_address":"ｷﾀ7ｼﾞｮｳﾋｶﾞｼ","pref":"北海道","city":"札幌市東区","address":"北七条東"},
{"zip_code":"0650008","kana_pref":"ﾎｯｶｲﾄﾞｳ","kana_city":"ｻｯﾎﾟﾛｼﾋｶﾞｼｸ","kana_address":"ｷﾀ8ｼﾞｮｳﾋｶﾞｼ","pref":"北海道","city":"札幌市東区","address":"北八条東"},
{"zip_code":"0650009","kana_pref":"ﾎｯｶｲﾄﾞｳ","kana_city":"ｻｯﾎﾟﾛｼﾋｶﾞｼｸ","kana_address":"ｷﾀ9ｼﾞｮｳﾋｶﾞｼ","pref":"北海道","city":"札幌市東区","address":"北九条東"},
{"zip_code":"0650010","kana_pref":"ﾎｯｶｲﾄﾞｳ","kana_city":"ｻｯﾎﾟﾛｼﾋｶﾞｼｸ","kana_address":"ｷﾀ10ｼﾞｮｳﾋｶﾞｼ","pref":"北海道","city":"札幌市東区","address":"北十条東"},
{"zip_code":"0650011","kana_pref":"ﾎｯｶｲﾄﾞｳ","kana_city":"ｻｯﾎﾟﾛｼﾋｶﾞｼｸ","kana_address":"ｷﾀ11ｼﾞｮｳﾋｶﾞｼ","pref":"北海道","city":"札幌市東区","address":"北十一条東"},
{"zip_code":"0650012","kana_pref":"ﾎｯｶｲﾄﾞｳ","kana_city":"ｻｯﾎﾟﾛｼﾋｶﾞｼｸ","kana_address":"ｷﾀ12ｼﾞｮｳﾋｶﾞｼ","pref":"北海道","city":"札幌市東区","address":"北十二条東"},
{"zip_code":"0650013","kana_pref":"ﾎｯｶｲﾄﾞｳ","kana_city":"ｻｯﾎﾟﾛｼﾋｶﾞｼｸ","kana_address":"ｷﾀ13ｼﾞｮｳﾋｶﾞｼ","pref":"北海道","city":"札幌市東区","address":"北十三条東"},
{"zip_code":"0650014","kana_pref":"ﾎｯｶｲﾄﾞｳ","kana_city":"ｻｯﾎﾟﾛｼﾋｶﾞｼｸ","kana_address":"ｷﾀ14ｼﾞｮｳﾋｶﾞｼ","pref":"北海道","city":"札幌市東区","address":"北十四条東"},
{"zip_code":"0650015","kana_pref":"ﾎｯｶｲﾄﾞｳ","kana_city":"ｻｯﾎﾟﾛｼﾋｶﾞｼｸ","kana_address":"ｷﾀ15ｼﾞｮｳﾋｶﾞｼ","pref":"北海道","city":"札幌市東区","address":"北十五条東"},
{"zip_code":"0650016","kana_pref":"ﾎｯｶｲﾄﾞｳ","kana_city":"ｻｯﾎﾟﾛｼﾋｶﾞｼｸ","kana_address":"ｷﾀ16ｼﾞｮｳﾋｶﾞｼ","pref":"北海道","city":"札幌市東区","address":"北十六条東"},
{"zip_code":"0650017","kana_pref":"ﾎｯｶｲﾄﾞｳ","kana_city":"ｻｯﾎﾟﾛｼﾋｶﾞｼｸ","kana_address":"ｷﾀ17ｼﾞｮｳﾋｶﾞｼ","pref":"北海道","city":"札幌市東区","address":"北十七条東"},
{"zip_code":"0650018","kana_pref":"ﾎｯｶｲﾄﾞｳ","kana_city":"ｻｯﾎﾟﾛｼﾋｶﾞｼｸ","kana_address":"ｷﾀ18ｼﾞｮｳﾋｶﾞｼ","pref":"北海道","city":"札幌市東区","address":"北十八条東"},
{"zip_code":"0650019","kana_pref":"ﾎｯｶｲﾄﾞｳ","kana_city":"ｻｯﾎﾟﾛｼﾋｶﾞｼｸ","kana_address":"ｷﾀ19ｼﾞｮｳﾋｶﾞｼ","pref":"北海道","city":"札幌市東区","address":"北十九条東"},
{"zip_code":"0650020","kana_pref":"ﾎｯｶｲﾄﾞｳ","kana_city":"ｻｯﾎﾟﾛｼﾋｶﾞｼｸ","kana_address":"ｷﾀ20ｼﾞｮｳﾋｶﾞｼ","pref":"北海道","city":"札幌市東区","address":"北二十条東"},
{"zip_code":"0650021","kana_pref":"ﾎｯｶｲﾄﾞｳ","kana_city":"ｻｯﾎﾟﾛｼﾋｶﾞｼｸ","kana_address":"ｷﾀ21ｼﾞｮｳﾋｶﾞｼ","pref":"北海道","city":"札幌市東区","address":"北二十一条東"},
{"zip_code":"0650022","kana_pref":"ﾎｯｶｲﾄﾞｳ","kana_city":"ｻｯﾎﾟﾛｼﾋｶﾞｼｸ","kana_address":"ｷﾀ22ｼﾞｮｳﾋｶﾞｼ","pref":"北海道","city":"札幌市東区","address":"北二十二条東"},
{"zip_code":"0650023","kana_pref":"ﾎｯｶｲﾄﾞｳ","kana_city":"ｻｯﾎﾟﾛｼﾋｶﾞｼｸ","kana_address":"ｷﾀ23ｼﾞｮｳﾋｶﾞｼ","pref":"北海道","city":"札幌市東区","address":"北二十三条東"},
{"zip_code":"0650024","kana_pref":"ﾎｯｶｲﾄﾞｳ","kana_city":"ｻｯﾎﾟﾛｼﾋｶﾞｼｸ","kana_address":"ｷﾀ24ｼﾞｮｳﾋｶﾞｼ","pref":"北海道","city":"札幌市東区","address":"北二十四条東"},
{"zip_code":"0650025","kana_pref":"ﾎｯｶｲﾄﾞｳ","kana_city":"ｻｯﾎﾟﾛｼﾋｶﾞｼｸ","kana_address":"ｷﾀ25ｼﾞｮｳﾋｶﾞｼ","pref":"北海道","city":"札幌市東区","address":"北二十五条東"},
{"zip_code":"0650026","kana_pref":"ﾎｯｶｲﾄﾞｳ","kana_city":"ｻｯﾎﾟﾛｼﾋｶﾞｼｸ","kana_address":"ｷﾀ26ｼﾞｮｳﾋｶﾞｼ","pref":"北海道","city":"札幌市東区","address":"北二十六条東"},
{"zip_code":"0650027","kana_pref":"ﾎｯｶｲﾄﾞｳ","kana_city":"ｻｯﾎﾟﾛｼﾋｶﾞｼｸ","kana_address":"ｷﾀ27ｼﾞｮｳﾋｶﾞｼ","pref":"北海道","city":"札幌市東区","address":"北二十七条東"},
{"zip_code":"0650028","kana_pref":"ﾎｯｶｲﾄﾞｳ","kana_city":"ｻｯﾎﾟﾛｼﾋｶﾞｼｸ","kana_address":"ｷﾀ28ｼﾞｮｳﾋｶﾞｼ","pref":"北海道","city":"札幌市東区","address":"北二十八条東"},
{"zip_code":"0650030","kana_pref":"ﾎｯｶｲﾄﾞｳ","kana_city":"ｻｯﾎﾟﾛｼﾋｶﾞｼｸ","kana_address":"ｷﾀ30ｼﾞｮｳﾋｶﾞｼ","pref":"北海道","city":"札幌市東区","address":"北三十条東"},
{"zip_code":"0650031","kana_pref":"ﾎｯｶｲﾄﾞｳ","kana_city":"ｻｯﾎﾟﾛｼﾋｶﾞｼｸ","kana_address":"ｷﾀ31ｼﾞｮｳﾋｶﾞｼ","pref":"北海道","city":"札幌市東区","address":"北三十一条東"},
{"zip_code":"0650032","kana_pref":"ﾎｯｶｲﾄﾞｳ","kana_city":"ｻｯﾎﾟﾛｼﾋｶﾞｼｸ","kana_address":"ｷﾀ32ｼﾞｮｳﾋｶﾞｼ","pref":"北海道","city":"札幌市東区","address":"北三十二条東"},
{"zip_code":"0650033","kana_pref":"ﾎｯｶｲﾄﾞｳ","kana_city":"ｻｯﾎﾟﾛｼﾋｶﾞｼｸ","kana_address":"ｷﾀ33ｼﾞｮｳﾋｶﾞｼ","pref":"北海道","city":"札幌市東区","address":"北三十三条東"},
{"zip_code":"0650043","kana_pref":"ﾎｯｶｲﾄﾞｳ","kana_city":"ｻｯﾎﾟﾛｼﾋｶﾞｼｸ","kana_address":"ﾅｴﾎﾞﾁｮｳ","pref":"北海道","city":"札幌市東区","address":"苗穂町"},
{"zip_code":"0650041","kana_pref":"ﾎｯｶｲﾄﾞｳ","kana_city":"ｻｯﾎﾟﾛｼﾋｶﾞｼｸ","kana_address":"ﾎﾝﾁｮｳ1ｼﾞｮｳ","pref":"北海道","city":"札幌市東区","address":"本町一条"},
{"zip_code":"0650042","kana_pref":"ﾎｯｶｲﾄﾞｳ","kana_city":"ｻｯﾎﾟﾛｼﾋｶﾞｼｸ","kana_address":"ﾎﾝﾁｮｳ2ｼﾞｮｳ","pref":"北海道","city":"札幌市東区","address":"本町二条"}]}