{"zip_code":[
{"zip_code":"0660271","kana_pref":"ﾎｯｶｲﾄﾞｳ","kana_city":"ﾄﾏｺﾏｲｼ","kana_address":"ﾏﾙﾔﾏ","pref":"北海道","city":"苫小牧市","address":"丸山"},
{"zip_code":"0660000","kana_pref":"ﾎｯｶｲﾄﾞｳ","kana_city":"ﾁﾄｾｼ","kana_address":"","pref":"北海道","city":"千歳市","address":""},
{"zip_code":"0660015","kana_pref":"ﾎｯｶｲﾄﾞｳ","kana_city":"ﾁﾄｾｼ","kana_address":"ｱｵﾊﾞ","pref":"北海道","city":"千歳市","address":"青葉"},
{"zip_code":"0660014","kana_pref":"ﾎｯｶｲﾄﾞｳ","kana_city":"ﾁﾄｾｼ","kana_address":"ｱｵﾊﾞｵｶ","pref":"北海道","city":"千歳市","address":"青葉丘"},
{"zip_code":"0660018","kana_pref":"ﾎｯｶｲﾄﾞｳ","kana_city":"ﾁﾄｾｼ","kana_address":"ｱｻﾋｶﾞｵｶ","pref":"北海道","city":"千歳市","address":"旭ケ丘"},
{"zip_code":"0660043","kana_pref":"ﾎｯｶｲﾄﾞｳ","kana_city":"ﾁﾄｾｼ","kana_address":"ｱｻﾋﾁｮｳ","pref":"北海道","city":"千歳市","address":"朝日町"},
{"zip_code":"0660076","kana_pref":"ﾎｯｶｲﾄﾞｳ","kana_city":"ﾁﾄｾｼ","kana_address":"ｱｽﾞｻ","pref":"北海道","city":"千歳市","address":"あずさ"},
{"zip_code":"0660004","kana_pref":"ﾎｯｶｲﾄﾞｳ","kana_city":"ﾁﾄｾｼ","kana_address":"ｲｽﾞﾐｻﾄ","pref":"北海道","city":"千歳市","address":"泉郷"},
{"zip_code":"0660051","kana_pref":"ﾎｯｶｲﾄﾞｳ","kana_city":"ﾁﾄｾｼ","kana_address":"ｲｽﾞﾐｻﾜ","pref":"北海道","city":"千歳市","address":"泉沢"},
{"zip_code":"0660029","kana_pref":"ﾎｯｶｲﾄﾞｳ","kana_city":"ﾁﾄｾｼ","kana_address":"ｲﾅﾎ","pref":"北海道","city":"千歳市","address":"稲穂"},
{"zip_code":"0660025","kana_pref":"ﾎｯｶｲﾄﾞｳ","kana_city":"ﾁﾄｾｼ","kana_address":"ｳﾒｶﾞｵｶ","pref":"北海道","city":"千歳市","address":"梅ケ丘"},
{"zip_code":"0660286","kana_pref":"ﾎｯｶｲﾄﾞｳ","kana_city":"ﾁﾄｾｼ","kana_address":"ｵｺﾀﾝ","pref":"北海道","city":"千歳市","address":"奥潭"},
{"zip_code":"0660001","kana_pref":"ﾎｯｶｲﾄﾞｳ","kana_city":"ﾁﾄｾｼ","kana_address":"ｵｻﾂ","pref":"北海道","city":"千歳市","address":"長都"},
{"zip_code":"0660031","kana_pref":"ﾎｯｶｲﾄﾞｳ","kana_city":"ﾁﾄｾｼ","kana_address":"ｵｻﾂｴｷﾏｴ","pref":"北海道","city":"千歳市","address":"長都駅前"},
{"zip_code":"0660013","kana_pref":"ﾎｯｶｲﾄﾞｳ","kana_city":"ﾁﾄｾｼ","kana_address":"ｶｼﾜﾀﾞｲ","pref":"北海道","city":"千歳市","address":"柏台"},
{"zip_code":"0660009","kana_pref":"ﾎｯｶｲﾄﾞｳ","kana_city":"ﾁﾄｾｼ","kana_address":"ｶｼﾜﾀﾞｲﾐﾅﾐ","pref":"北海道","city":"千歳市","address":"柏台南"},
{"zip_code":"0660065","kana_pref":"ﾎｯｶｲﾄﾞｳ","kana_city":"ﾁﾄｾｼ","kana_address":"ｶｽｶﾞﾁｮｳ","pref":"北海道","city":"千歳市","address":"春日町"},
{"zip_code":"0660067","kana_pref":"ﾎｯｶｲﾄﾞｳ","kana_city":"ﾁﾄｾｼ","kana_address":"ｶﾂﾗｷﾞ","pref":"北海道","city":"千歳市","address":"桂木"},
{"zip_code":"0660002","kana_pref":"ﾎｯｶｲﾄﾞｳ","kana_city":"ﾁﾄｾｼ","kana_address":"ｶﾏｶ","pref":"北海道","city":"千歳市","address":"釜加"},
{"zip_code":"0660077","kana_pref":"ﾎｯｶｲﾄﾞｳ","kana_city":"ﾁﾄｾｼ","kana_address":"ｶﾐｵｻﾂ","pref":"北海道","city":"千歳市","address":"上長都"},
{"zip_code":"0660075","kana_pref":"ﾎｯｶｲﾄﾞｳ","kana_city":"ﾁﾄｾｼ","kana_address":"ｷﾀｼﾅﾉ","pref":"北海道","city":"千歳市","address":"北信濃"},
{"zip_code":"0660005","kana_pref":"ﾎｯｶｲﾄﾞｳ","kana_city":"ﾁﾄｾｼ","kana_address":"ｷｮｳﾜ(88-2","pref":"北海道","city":"千歳市","address":"協和（８８−２"},
{"zip_code":"0660005","kana_pref":"ﾎｯｶｲﾄﾞｳ","kana_city":"ﾁﾄｾｼ","kana_address":"271-10","pref":"北海道","city":"千歳市","address":"２７１−１０"},
{"zip_code":"0660005","kana_pref":"ﾎｯｶｲﾄﾞｳ","kana_city":"ﾁﾄｾｼ","kana_address":"343-2","pref":"北海道","city":"千歳市","address":"３４３−２"},
{"zip_code":"0660005","kana_pref":"ﾎｯｶｲﾄﾞｳ","kana_city":"ﾁﾄｾｼ","kana_address":"404-1","pref":"北海道","city":"千歳市","address":"４０４−１"},
{"zip_code":"0660005","kana_pref":"ﾎｯｶｲﾄﾞｳ","kana_city":"ﾁﾄｾｼ","kana_address":"427-","pref":"北海道","city":"千歳市","address":"４２７−"},
{"zip_code":"0660005","kana_pref":"ﾎｯｶｲﾄﾞｳ","kana_city":"ﾁﾄｾｼ","kana_address":"3","pref":"北海道","city":"千歳市","address":"３"},
{"zip_code":"0660005","kana_pref":"ﾎｯｶｲﾄﾞｳ","kana_city":"ﾁﾄｾｼ","kana_address":"431-12","pref":"北海道","city":"千歳市","address":"４３１−１２"},
{"zip_code":"0660005","kana_pref":"ﾎｯｶｲﾄﾞｳ","kana_city":"ﾁﾄｾｼ","kana_address":"443-6","pref":"北海道","city":"千歳市","address":"４４３−６"},
{"zip_code":"0660005","kana_pref":"ﾎｯｶｲﾄﾞｳ","kana_city":"ﾁﾄｾｼ","kana_address":"608-2","pref":"北海道","city":"千歳市","address":"６０８−２"},
{"zip_code":"0660005","kana_pref":"ﾎｯｶｲﾄﾞｳ","kana_city":"ﾁﾄｾｼ","kana_address":"641-8","pref":"北海道","city":"千歳市","address":"６４１−８"},
{"zip_code":"0660005","kana_pref":"ﾎｯｶｲﾄﾞｳ","kana_city":"ﾁﾄｾｼ","kana_address":"814","pref":"北海道","city":"千歳市","address":"８１４"},
{"zip_code":"0660005","kana_pref":"ﾎｯｶｲﾄﾞｳ","kana_city":"ﾁﾄｾｼ","kana_address":"842-","pref":"北海道","city":"千歳市","address":"８４２−"},
{"zip_code":"0660005","kana_pref":"ﾎｯｶｲﾄﾞｳ","kana_city":"ﾁﾄｾｼ","kana_address":"5ﾊﾞﾝﾁ","pref":"北海道","city":"千歳市","address":"５番地"},
{"zip_code":"0660005","kana_pref":"ﾎｯｶｲﾄﾞｳ","kana_city":"ﾁﾄｾｼ","kana_address":"1137-3ﾊﾞﾝﾁ","pref":"北海道","city":"千歳市","address":"１１３７−３番地"},
{"zip_code":"0660005","kana_pref":"ﾎｯｶｲﾄﾞｳ","kana_city":"ﾁﾄｾｼ","kana_address":"1392ﾊﾞﾝﾁ","pref":"北海道","city":"千歳市","address":"１３９２番地"},
{"zip_code":"0660005","kana_pref":"ﾎｯｶｲﾄﾞｳ","kana_city":"ﾁﾄｾｼ","kana_address":"1657ﾊﾞﾝﾁ","pref":"北海道","city":"千歳市","address":"１６５７番地"},
{"zip_code":"0660005","kana_pref":"ﾎｯｶｲﾄﾞｳ","kana_city":"ﾁﾄｾｼ","kana_address":"1752ﾊﾞﾝﾁ)","pref":"北海道","city":"千歳市","address":"１７５２番地）"},
{"zip_code":"0660082","kana_pref":"ﾎｯｶｲﾄﾞｳ","kana_city":"ﾁﾄｾｼ","kana_address":"ｺｳﾌｸ","pref":"北海道","city":"千歳市","address":"幸福"},
{"zip_code":"0660023","kana_pref":"ﾎｯｶｲﾄﾞｳ","kana_city":"ﾁﾄｾｼ","kana_address":"ｺﾄﾌﾞｷ","pref":"北海道","city":"千歳市","address":"寿"},
{"zip_code":"0660011","kana_pref":"ﾎｯｶｲﾄﾞｳ","kana_city":"ﾁﾄｾｼ","kana_address":"ｺﾏｻﾄ","pref":"北海道","city":"千歳市","address":"駒里"},
{"zip_code":"0660063","kana_pref":"ﾎｯｶｲﾄﾞｳ","kana_city":"ﾁﾄｾｼ","kana_address":"ｻｲﾜｲﾁｮｳ","pref":"北海道","city":"千歳市","address":"幸町"},
{"zip_code":"0660061","kana_pref":"ﾎｯｶｲﾄﾞｳ","kana_city":"ﾁﾄｾｼ","kana_address":"ｻｶｴﾁｮｳ","pref":"北海道","city":"千歳市","address":"栄町"},
{"zip_code":"0660071","kana_pref":"ﾎｯｶｲﾄﾞｳ","kana_city":"ﾁﾄｾｼ","kana_address":"ｻｸﾗｷﾞ","pref":"北海道","city":"千歳市","address":"桜木"},
{"zip_code":"0660055","kana_pref":"ﾎｯｶｲﾄﾞｳ","kana_city":"ﾁﾄｾｼ","kana_address":"ｻﾄﾐ","pref":"北海道","city":"千歳市","address":"里美"},
{"zip_code":"0660281","kana_pref":"ﾎｯｶｲﾄﾞｳ","kana_city":"ﾁﾄｾｼ","kana_address":"ｼｺﾂｺｵﾝｾﾝ","pref":"北海道","city":"千歳市","address":"支笏湖温泉"},
{"zip_code":"0660284","kana_pref":"ﾎｯｶｲﾄﾞｳ","kana_city":"ﾁﾄｾｼ","kana_address":"ｼｼｬﾓﾅｲ","pref":"北海道","city":"千歳市","address":"支寒内"},
{"zip_code":"0660038","kana_pref":"ﾎｯｶｲﾄﾞｳ","kana_city":"ﾁﾄｾｼ","kana_address":"ｼﾅﾉ","pref":"北海道","city":"千歳市","address":"信濃"},
{"zip_code":"0660042","kana_pref":"ﾎｯｶｲﾄﾞｳ","kana_city":"ﾁﾄｾｼ","kana_address":"ｼﾉﾉﾒﾁｮｳ","pref":"北海道","city":"千歳市","address":"東雲町"},
{"zip_code":"0660041","kana_pref":"ﾎｯｶｲﾄﾞｳ","kana_city":"ﾁﾄｾｼ","kana_address":"ｼﾐｽﾞﾁｮｳ","pref":"北海道","city":"千歳市","address":"清水町"},
{"zip_code":"0660072","kana_pref":"ﾎｯｶｲﾄﾞｳ","kana_city":"ﾁﾄｾｼ","kana_address":"ｼﾞﾕｳｶﾞｵｶ","pref":"北海道","city":"千歳市","address":"自由ケ丘"},
{"zip_code":"0660006","kana_pref":"ﾎｯｶｲﾄﾞｳ","kana_city":"ﾁﾄｾｼ","kana_address":"ｼｭｸﾊﾞｲ","pref":"北海道","city":"千歳市","address":"祝梅"},
{"zip_code":"0660056","kana_pref":"ﾎｯｶｲﾄﾞｳ","kana_city":"ﾁﾄｾｼ","kana_address":"ｼﾗｶﾊﾞ","pref":"北海道","city":"千歳市","address":"白樺"},
{"zip_code":"0660069","kana_pref":"ﾎｯｶｲﾄﾞｳ","kana_city":"ﾁﾄｾｼ","kana_address":"ｼﾝｾｲ","pref":"北海道","city":"千歳市","address":"新星"},
{"zip_code":"0660046","kana_pref":"ﾎｯｶｲﾄﾞｳ","kana_city":"ﾁﾄｾｼ","kana_address":"ｼﾝﾁｮｳ","pref":"北海道","city":"千歳市","address":"真町"},
{"zip_code":"0660037","kana_pref":"ﾎｯｶｲﾄﾞｳ","kana_city":"ﾁﾄｾｼ","kana_address":"ｼﾝﾄﾐ","pref":"北海道","city":"千歳市","address":"新富"},
{"zip_code":"0660282","kana_pref":"ﾎｯｶｲﾄﾞｳ","kana_city":"ﾁﾄｾｼ","kana_address":"ｽｲﾒｲｷｮｳ","pref":"北海道","city":"千歳市","address":"水明郷"},
{"zip_code":"0660027","kana_pref":"ﾎｯｶｲﾄﾞｳ","kana_city":"ﾁﾄｾｼ","kana_address":"ｽｴﾋﾛ","pref":"北海道","city":"千歳市","address":"末広"},
{"zip_code":"0660026","kana_pref":"ﾎｯｶｲﾄﾞｳ","kana_city":"ﾁﾄｾｼ","kana_address":"ｽﾐﾖｼ","pref":"北海道","city":"千歳市","address":"住吉"},
{"zip_code":"0660081","kana_pref":"ﾎｯｶｲﾄﾞｳ","kana_city":"ﾁﾄｾｼ","kana_address":"ｾｲﾘｭｳ","pref":"北海道","city":"千歳市","address":"清流"},
{"zip_code":"0660035","kana_pref":"ﾎｯｶｲﾄﾞｳ","kana_city":"ﾁﾄｾｼ","kana_address":"ﾀｶﾀﾞｲ","pref":"北海道","city":"千歳市","address":"高台"},
{"zip_code":"0660007","kana_pref":"ﾎｯｶｲﾄﾞｳ","kana_city":"ﾁﾄｾｼ","kana_address":"ﾁｭｳｵｳ","pref":"北海道","city":"千歳市","address":"中央"},
{"zip_code":"0660062","kana_pref":"ﾎｯｶｲﾄﾞｳ","kana_city":"ﾁﾄｾｼ","kana_address":"ﾁﾖﾀﾞﾁｮｳ","pref":"北海道","city":"千歳市","address":"千代田町"},
{"zip_code":"0660021","kana_pref":"ﾎｯｶｲﾄﾞｳ","kana_city":"ﾁﾄｾｼ","kana_address":"ﾄｳｺｳ","pref":"北海道","city":"千歳市","address":"東郊"},
{"zip_code":"0660034","kana_pref":"ﾎｯｶｲﾄﾞｳ","kana_city":"ﾁﾄｾｼ","kana_address":"ﾄﾐｵｶ","pref":"北海道","city":"千歳市","address":"富丘"},
{"zip_code":"0660022","kana_pref":"ﾎｯｶｲﾄﾞｳ","kana_city":"ﾁﾄｾｼ","kana_address":"ﾄﾖｻﾄ","pref":"北海道","city":"千歳市","address":"豊里"},
{"zip_code":"0660064","kana_pref":"ﾎｯｶｲﾄﾞｳ","kana_city":"ﾁﾄｾｼ","kana_address":"ﾆｼｷﾁｮｳ","pref":"北海道","city":"千歳市","address":"錦町"},
{"zip_code":"0660008","kana_pref":"ﾎｯｶｲﾄﾞｳ","kana_city":"ﾁﾄｾｼ","kana_address":"ﾈｼｺｼ","pref":"北海道","city":"千歳市","address":"根志越"},
{"zip_code":"0660054","kana_pref":"ﾎｯｶｲﾄﾞｳ","kana_city":"ﾁﾄｾｼ","kana_address":"ﾊｸﾖｳ","pref":"北海道","city":"千歳市","address":"柏陽"},
{"zip_code":"0660028","kana_pref":"ﾎｯｶｲﾄﾞｳ","kana_city":"ﾁﾄｾｼ","kana_address":"ﾊﾅｿﾞﾉ","pref":"北海道","city":"千歳市","address":"花園"},
{"zip_code":"0660017","kana_pref":"ﾎｯｶｲﾄﾞｳ","kana_city":"ﾁﾄｾｼ","kana_address":"ﾋﾉﾃﾞ","pref":"北海道","city":"千歳市","address":"日の出"},
{"zip_code":"0660016","kana_pref":"ﾎｯｶｲﾄﾞｳ","kana_city":"ﾁﾄｾｼ","kana_address":"ﾋﾉﾃﾞｵｶ","pref":"北海道","city":"千歳市","address":"日の出丘"},
{"zip_code":"0660012","kana_pref":"ﾎｯｶｲﾄﾞｳ","kana_city":"ﾁﾄｾｼ","kana_address":"ﾋﾞﾋﾞ","pref":"北海道","city":"千歳市","address":"美々"},
{"zip_code":"0660285","kana_pref":"ﾎｯｶｲﾄﾞｳ","kana_city":"ﾁﾄｾｼ","kana_address":"ﾋﾞﾌｴ","pref":"北海道","city":"千歳市","address":"美笛"},
{"zip_code":"0660053","kana_pref":"ﾎｯｶｲﾄﾞｳ","kana_city":"ﾁﾄｾｼ","kana_address":"ﾌｸｽﾞﾐ","pref":"北海道","city":"千歳市","address":"福住"},
{"zip_code":"0660039","kana_pref":"ﾎｯｶｲﾄﾞｳ","kana_city":"ﾁﾄｾｼ","kana_address":"ﾌｼﾞ","pref":"北海道","city":"千歳市","address":"富士"},
{"zip_code":"0660052","kana_pref":"ﾎｯｶｲﾄﾞｳ","kana_city":"ﾁﾄｾｼ","kana_address":"ﾌﾞﾝｷｮｳ","pref":"北海道","city":"千歳市","address":"文京"},
{"zip_code":"0660044","kana_pref":"ﾎｯｶｲﾄﾞｳ","kana_city":"ﾁﾄｾｼ","kana_address":"ﾍｲﾜ","pref":"北海道","city":"千歳市","address":"平和"},
{"zip_code":"0660036","kana_pref":"ﾎｯｶｲﾄﾞｳ","kana_city":"ﾁﾄｾｼ","kana_address":"ﾎｸｴｲ","pref":"北海道","city":"千歳市","address":"北栄"},
{"zip_code":"0660073","kana_pref":"ﾎｯｶｲﾄﾞｳ","kana_city":"ﾁﾄｾｼ","kana_address":"ﾎｸﾄ","pref":"北海道","city":"千歳市","address":"北斗"},
{"zip_code":"0660032","kana_pref":"ﾎｯｶｲﾄﾞｳ","kana_city":"ﾁﾄｾｼ","kana_address":"ﾎｸﾖｳ","pref":"北海道","city":"千歳市","address":"北陽"},
{"zip_code":"0660033","kana_pref":"ﾎｯｶｲﾄﾞｳ","kana_city":"ﾁﾄｾｼ","kana_address":"ﾎｯｺｳ","pref":"北海道","city":"千歳市","address":"北光"},
{"zip_code":"0660287","kana_pref":"ﾎｯｶｲﾄﾞｳ","kana_city":"ﾁﾄｾｼ","kana_address":"ﾎﾟﾛﾋﾟﾅｲ","pref":"北海道","city":"千歳市","address":"幌美内"},
{"zip_code":"0660047","kana_pref":"ﾎｯｶｲﾄﾞｳ","kana_city":"ﾁﾄｾｼ","kana_address":"ﾎﾝﾁｮｳ","pref":"北海道","city":"千歳市","address":"本町"},
{"zip_code":"0660045","kana_pref":"ﾎｯｶｲﾄﾞｳ","kana_city":"ﾁﾄｾｼ","kana_address":"ﾏﾏﾁ","pref":"北海道","city":"千歳市","address":"真々地"},
{"zip_code":"0660074","kana_pref":"ﾎｯｶｲﾄﾞｳ","kana_city":"ﾁﾄｾｼ","kana_address":"ﾐﾄﾞﾘﾁｮｳ","pref":"北海道","city":"千歳市","address":"緑町"},
{"zip_code":"0660003","kana_pref":"ﾎｯｶｲﾄﾞｳ","kana_city":"ﾁﾄｾｼ","kana_address":"ﾐﾔｺ","pref":"北海道","city":"千歳市","address":"都"},
{"zip_code":"0660283","kana_pref":"ﾎｯｶｲﾄﾞｳ","kana_city":"ﾁﾄｾｼ","kana_address":"ﾓﾗｯﾌﾟ","pref":"北海道","city":"千歳市","address":"モラップ"},
{"zip_code":"0660066","kana_pref":"ﾎｯｶｲﾄﾞｳ","kana_city":"ﾁﾄｾｼ","kana_address":"ﾔﾏﾄ","pref":"北海道","city":"千歳市","address":"大和"},
{"zip_code":"0660024","kana_pref":"ﾎｯｶｲﾄﾞｳ","kana_city":"ﾁﾄｾｼ","kana_address":"ﾔﾖｲ","pref":"北海道","city":"千歳市","address":"弥生"},
{"zip_code":"0660078","kana_pref":"ﾎｯｶｲﾄﾞｳ","kana_city":"ﾁﾄｾｼ","kana_address":"ﾕｳﾏｲ","pref":"北海道","city":"千歳市","address":"勇舞"},
{"zip_code":"0660068","kana_pref":"ﾎｯｶｲﾄﾞｳ","kana_city":"ﾁﾄｾｼ","kana_address":"ﾗﾝｺｼ","pref":"北海道","city":"千歳市","address":"蘭越"},
{"zip_code":"0660019","kana_pref":"ﾎｯｶｲﾄﾞｳ","kana_city":"ﾁﾄｾｼ","kana_address":"ﾘｭｳﾂｳ","pref":"北海道","city":"千歳市","address":"流通"},
{"zip_code":"0660057","kana_pref":"ﾎｯｶｲﾄﾞｳ","kana_city":"ﾁﾄｾｼ","kana_address":"ﾜｶｸｻ","pref":"北海道","city":"千歳市","address":"若草"}]}