{"zip_code":[
{"zip_code":"0680400","kana_pref":"ﾎｯｶｲﾄﾞｳ","kana_city":"ﾕｳﾊﾞﾘｼ","kana_address":"","pref":"北海道","city":"夕張市","address":""},
{"zip_code":"0680405","kana_pref":"ﾎｯｶｲﾄﾞｳ","kana_city":"ﾕｳﾊﾞﾘｼ","kana_address":"ｱｻﾋﾏﾁ","pref":"北海道","city":"夕張市","address":"旭町"},
{"zip_code":"0680754","kana_pref":"ﾎｯｶｲﾄﾞｳ","kana_city":"ﾕｳﾊﾞﾘｼ","kana_address":"ｶｴﾃﾞ","pref":"北海道","city":"夕張市","address":"楓"},
{"zip_code":"0680662","kana_pref":"ﾎｯｶｲﾄﾞｳ","kana_city":"ﾕｳﾊﾞﾘｼ","kana_address":"ｶｼﾏｱｶｼﾁｮｳ","pref":"北海道","city":"夕張市","address":"鹿島明石町"},
{"zip_code":"0680673","kana_pref":"ﾎｯｶｲﾄﾞｳ","kana_city":"ﾕｳﾊﾞﾘｼ","kana_address":"ｶｼﾏｻｶｴﾁｮｳ","pref":"北海道","city":"夕張市","address":"鹿島栄町"},
{"zip_code":"0680661","kana_pref":"ﾎｯｶｲﾄﾞｳ","kana_city":"ﾕｳﾊﾞﾘｼ","kana_address":"ｶｼﾏｼﾛｶﾞﾈ","pref":"北海道","city":"夕張市","address":"鹿島白金"},
{"zip_code":"0680665","kana_pref":"ﾎｯｶｲﾄﾞｳ","kana_city":"ﾕｳﾊﾞﾘｼ","kana_address":"ｶｼﾏﾀｶﾗﾁｮｳ","pref":"北海道","city":"夕張市","address":"鹿島宝町"},
{"zip_code":"0680663","kana_pref":"ﾎｯｶｲﾄﾞｳ","kana_city":"ﾕｳﾊﾞﾘｼ","kana_address":"ｶｼﾏﾁﾄｾﾁｮｳ","pref":"北海道","city":"夕張市","address":"鹿島千年町"},
{"zip_code":"0680664","kana_pref":"ﾎｯｶｲﾄﾞｳ","kana_city":"ﾕｳﾊﾞﾘｼ","kana_address":"ｶｼﾏﾆｼｷﾁｮｳ","pref":"北海道","city":"夕張市","address":"鹿島錦町"},
{"zip_code":"0680672","kana_pref":"ﾎｯｶｲﾄﾞｳ","kana_city":"ﾕｳﾊﾞﾘｼ","kana_address":"ｶｼﾏﾌｼﾞﾐﾁｮｳ","pref":"北海道","city":"夕張市","address":"鹿島富士見町"},
{"zip_code":"0680675","kana_pref":"ﾎｯｶｲﾄﾞｳ","kana_city":"ﾕｳﾊﾞﾘｼ","kana_address":"ｶｼﾏﾎｸｴｲﾁｮｳ","pref":"北海道","city":"夕張市","address":"鹿島北栄町"},
{"zip_code":"0680671","kana_pref":"ﾎｯｶｲﾄﾞｳ","kana_city":"ﾕｳﾊﾞﾘｼ","kana_address":"ｶｼﾏﾐﾄﾞﾘﾁｮｳ","pref":"北海道","city":"夕張市","address":"鹿島緑町"},
{"zip_code":"0680674","kana_pref":"ﾎｯｶｲﾄﾞｳ","kana_city":"ﾕｳﾊﾞﾘｼ","kana_address":"ｶｼﾏﾖﾖｷﾞﾁｮｳ","pref":"北海道","city":"夕張市","address":"鹿島代々木町"},
{"zip_code":"0680413","kana_pref":"ﾎｯｶｲﾄﾞｳ","kana_city":"ﾕｳﾊﾞﾘｼ","kana_address":"ｼｶﾉﾀﾆ","pref":"北海道","city":"夕張市","address":"鹿の谷"},
{"zip_code":"0680412","kana_pref":"ﾎｯｶｲﾄﾞｳ","kana_city":"ﾕｳﾊﾞﾘｼ","kana_address":"ｼｶﾉﾀﾆﾋｶﾞｼｵｶﾁｮｳ","pref":"北海道","city":"夕張市","address":"鹿の谷東丘町"},
{"zip_code":"0680414","kana_pref":"ﾎｯｶｲﾄﾞｳ","kana_city":"ﾕｳﾊﾞﾘｼ","kana_address":"ｼｶﾉﾀﾆﾔﾏﾃﾁｮｳ","pref":"北海道","city":"夕張市","address":"鹿の谷山手町"},
{"zip_code":"0680531","kana_pref":"ﾎｯｶｲﾄﾞｳ","kana_city":"ﾕｳﾊﾞﾘｼ","kana_address":"ｼﾐｽﾞｻﾜ","pref":"北海道","city":"夕張市","address":"清水沢"},
{"zip_code":"0680532","kana_pref":"ﾎｯｶｲﾄﾞｳ","kana_city":"ﾕｳﾊﾞﾘｼ","kana_address":"ｼﾐｽﾞｻﾜｾｲｴｲﾁｮｳ","pref":"北海道","city":"夕張市","address":"清水沢清栄町"},
{"zip_code":"0680533","kana_pref":"ﾎｯｶｲﾄﾞｳ","kana_city":"ﾕｳﾊﾞﾘｼ","kana_address":"ｼﾐｽﾞｻﾜｾｲｺﾁｮｳ","pref":"北海道","city":"夕張市","address":"清水沢清湖町"},
{"zip_code":"0680535","kana_pref":"ﾎｯｶｲﾄﾞｳ","kana_city":"ﾕｳﾊﾞﾘｼ","kana_address":"ｼﾐｽﾞｻﾜｾｲﾘｮｳﾁｮｳ","pref":"北海道","city":"夕張市","address":"清水沢清陵町"},
{"zip_code":"0680534","kana_pref":"ﾎｯｶｲﾄﾞｳ","kana_city":"ﾕｳﾊﾞﾘｼ","kana_address":"ｼﾐｽﾞｻﾜﾐﾔﾏｴﾁｮｳ","pref":"北海道","city":"夕張市","address":"清水沢宮前町"},
{"zip_code":"0680402","kana_pref":"ﾎｯｶｲﾄﾞｳ","kana_city":"ﾕｳﾊﾞﾘｼ","kana_address":"ｼｬｺｳ","pref":"北海道","city":"夕張市","address":"社光"},
{"zip_code":"0680404","kana_pref":"ﾎｯｶｲﾄﾞｳ","kana_city":"ﾕｳﾊﾞﾘｼ","kana_address":"ｼｮｳﾜ","pref":"北海道","city":"夕張市","address":"昭和"},
{"zip_code":"0680411","kana_pref":"ﾎｯｶｲﾄﾞｳ","kana_city":"ﾕｳﾊﾞﾘｼ","kana_address":"ｽｴﾋﾛ","pref":"北海道","city":"夕張市","address":"末広"},
{"zip_code":"0680406","kana_pref":"ﾎｯｶｲﾄﾞｳ","kana_city":"ﾕｳﾊﾞﾘｼ","kana_address":"ｽﾐｿﾞﾒ","pref":"北海道","city":"夕張市","address":"住初"},
{"zip_code":"0680401","kana_pref":"ﾎｯｶｲﾄﾞｳ","kana_city":"ﾕｳﾊﾞﾘｼ","kana_address":"ﾀｶﾏﾂ","pref":"北海道","city":"夕張市","address":"高松"},
{"zip_code":"0680756","kana_pref":"ﾎｯｶｲﾄﾞｳ","kana_city":"ﾕｳﾊﾞﾘｼ","kana_address":"ﾀｷﾉｳｴ","pref":"北海道","city":"夕張市","address":"滝ノ上"},
{"zip_code":"0680424","kana_pref":"ﾎｯｶｲﾄﾞｳ","kana_city":"ﾕｳﾊﾞﾘｼ","kana_address":"ﾁﾖﾀﾞ","pref":"北海道","city":"夕張市","address":"千代田"},
{"zip_code":"0680409","kana_pref":"ﾎｯｶｲﾄﾞｳ","kana_city":"ﾕｳﾊﾞﾘｼ","kana_address":"ﾃｲﾐ","pref":"北海道","city":"夕張市","address":"丁未"},
{"zip_code":"0680421","kana_pref":"ﾎｯｶｲﾄﾞｳ","kana_city":"ﾕｳﾊﾞﾘｼ","kana_address":"ﾄｷﾜ","pref":"北海道","city":"夕張市","address":"常盤"},
{"zip_code":"0680408","kana_pref":"ﾎｯｶｲﾄﾞｳ","kana_city":"ﾕｳﾊﾞﾘｼ","kana_address":"ﾄﾐｵｶ","pref":"北海道","city":"夕張市","address":"富岡"},
{"zip_code":"0680426","kana_pref":"ﾎｯｶｲﾄﾞｳ","kana_city":"ﾕｳﾊﾞﾘｼ","kana_address":"ﾄﾐﾉ","pref":"北海道","city":"夕張市","address":"富野"},
{"zip_code":"0680546","kana_pref":"ﾎｯｶｲﾄﾞｳ","kana_city":"ﾕｳﾊﾞﾘｼ","kana_address":"ﾅﾝﾌﾞｱｵﾊﾞﾁｮｳ","pref":"北海道","city":"夕張市","address":"南部青葉町"},
{"zip_code":"0680545","kana_pref":"ﾎｯｶｲﾄﾞｳ","kana_city":"ﾕｳﾊﾞﾘｼ","kana_address":"ﾅﾝﾌﾞｱｽﾞﾏﾁｮｳ","pref":"北海道","city":"夕張市","address":"南部東町"},
{"zip_code":"0680541","kana_pref":"ﾎｯｶｲﾄﾞｳ","kana_city":"ﾕｳﾊﾞﾘｼ","kana_address":"ﾅﾝﾌﾞｴﾝﾎﾛﾁｮｳ","pref":"北海道","city":"夕張市","address":"南部遠幌町"},
{"zip_code":"0680544","kana_pref":"ﾎｯｶｲﾄﾞｳ","kana_city":"ﾕｳﾊﾞﾘｼ","kana_address":"ﾅﾝﾌﾞｵｵﾐﾔﾁｮｳ","pref":"北海道","city":"夕張市","address":"南部大宮町"},
{"zip_code":"0680546","kana_pref":"ﾎｯｶｲﾄﾞｳ","kana_city":"ﾕｳﾊﾞﾘｼ","kana_address":"ﾅﾝﾌﾞｷｸｽｲﾁｮｳ","pref":"北海道","city":"夕張市","address":"南部菊水町"},
{"zip_code":"0680548","kana_pref":"ﾎｯｶｲﾄﾞｳ","kana_city":"ﾕｳﾊﾞﾘｼ","kana_address":"ﾅﾝﾌﾞｺｳﾅﾝﾁｮｳ","pref":"北海道","city":"夕張市","address":"南部幌南町"},
{"zip_code":"0680547","kana_pref":"ﾎｯｶｲﾄﾞｳ","kana_city":"ﾕｳﾊﾞﾘｼ","kana_address":"ﾅﾝﾌﾞｼﾝｺｳﾁｮｳ","pref":"北海道","city":"夕張市","address":"南部新光町"},
{"zip_code":"0680540","kana_pref":"ﾎｯｶｲﾄﾞｳ","kana_city":"ﾕｳﾊﾞﾘｼ","kana_address":"ﾅﾝﾌﾞｽﾐﾉｴﾁｮｳ","pref":"北海道","city":"夕張市","address":"南部住の江町"},
{"zip_code":"0680549","kana_pref":"ﾎｯｶｲﾄﾞｳ","kana_city":"ﾕｳﾊﾞﾘｼ","kana_address":"ﾅﾝﾌﾞﾀｹﾐﾁｮｳ","pref":"北海道","city":"夕張市","address":"南部岳見町"},
{"zip_code":"0680542","kana_pref":"ﾎｯｶｲﾄﾞｳ","kana_city":"ﾕｳﾊﾞﾘｼ","kana_address":"ﾅﾝﾌﾞﾕｳﾅﾝﾁｮｳ","pref":"北海道","city":"夕張市","address":"南部夕南町"},
{"zip_code":"0680543","kana_pref":"ﾎｯｶｲﾄﾞｳ","kana_city":"ﾕｳﾊﾞﾘｼ","kana_address":"ﾅﾝﾌﾞﾜｶﾐﾁｮｳ","pref":"北海道","city":"夕張市","address":"南部若美町"},
{"zip_code":"0680751","kana_pref":"ﾎｯｶｲﾄﾞｳ","kana_city":"ﾕｳﾊﾞﾘｼ","kana_address":"ﾇﾏﾉｻﾜ","pref":"北海道","city":"夕張市","address":"沼ノ沢"},
{"zip_code":"0680753","kana_pref":"ﾎｯｶｲﾄﾞｳ","kana_city":"ﾕｳﾊﾞﾘｼ","kana_address":"ﾉﾎﾞﾘｶﾜ","pref":"北海道","city":"夕張市","address":"登川"},
{"zip_code":"0680422","kana_pref":"ﾎｯｶｲﾄﾞｳ","kana_city":"ﾕｳﾊﾞﾘｼ","kana_address":"ﾋﾖｼ","pref":"北海道","city":"夕張市","address":"日吉"},
{"zip_code":"0680407","kana_pref":"ﾎｯｶｲﾄﾞｳ","kana_city":"ﾕｳﾊﾞﾘｼ","kana_address":"ﾌｸｽﾞﾐ","pref":"北海道","city":"夕張市","address":"福住"},
{"zip_code":"0680423","kana_pref":"ﾎｯｶｲﾄﾞｳ","kana_city":"ﾕｳﾊﾞﾘｼ","kana_address":"ﾍｲﾜ","pref":"北海道","city":"夕張市","address":"平和"},
{"zip_code":"0680403","kana_pref":"ﾎｯｶｲﾄﾞｳ","kana_city":"ﾕｳﾊﾞﾘｼ","kana_address":"ﾎﾝﾁｮｳ","pref":"北海道","city":"夕張市","address":"本町"},
{"zip_code":"0680752","kana_pref":"ﾎｯｶｲﾄﾞｳ","kana_city":"ﾕｳﾊﾞﾘｼ","kana_address":"ﾏﾔﾁ","pref":"北海道","city":"夕張市","address":"真谷地"},
{"zip_code":"0680536","kana_pref":"ﾎｯｶｲﾄﾞｳ","kana_city":"ﾕｳﾊﾞﾘｼ","kana_address":"ﾐﾅﾐｼﾐｽﾞｻﾜ","pref":"北海道","city":"夕張市","address":"南清水沢"},
{"zip_code":"0680755","kana_pref":"ﾎｯｶｲﾄﾞｳ","kana_city":"ﾕｳﾊﾞﾘｼ","kana_address":"ﾓﾐｼﾞﾔﾏ","pref":"北海道","city":"夕張市","address":"紅葉山"},
{"zip_code":"0680425","kana_pref":"ﾎｯｶｲﾄﾞｳ","kana_city":"ﾕｳﾊﾞﾘｼ","kana_address":"ﾜｶﾅ","pref":"北海道","city":"夕張市","address":"若菜"},
{"zip_code":"0680000","kana_pref":"ﾎｯｶｲﾄﾞｳ","kana_city":"ｲﾜﾐｻﾞﾜｼ","kana_address":"","pref":"北海道","city":"岩見沢市","address":""},
{"zip_code":"0683185","kana_pref":"ﾎｯｶｲﾄﾞｳ","kana_city":"ｲﾜﾐｻﾞﾜｼ","kana_address":"ｱｻﾋﾁｮｳ","pref":"北海道","city":"岩見沢市","address":"朝日町"},
{"zip_code":"0680035","kana_pref":"ﾎｯｶｲﾄﾞｳ","kana_city":"ｲﾜﾐｻﾞﾜｼ","kana_address":"ｱﾘｱｹﾁｮｳﾁｭｳｵｳ","pref":"北海道","city":"岩見沢市","address":"有明町中央"},
{"zip_code":"0680034","kana_pref":"ﾎｯｶｲﾄﾞｳ","kana_city":"ｲﾜﾐｻﾞﾜｼ","kana_address":"ｱﾘｱｹﾁｮｳﾐﾅﾐ","pref":"北海道","city":"岩見沢市","address":"有明町南"},
{"zip_code":"0680829","kana_pref":"ﾎｯｶｲﾄﾞｳ","kana_city":"ｲﾜﾐｻﾞﾜｼ","kana_address":"ｶｴﾃﾞﾁｮｳ","pref":"北海道","city":"岩見沢市","address":"かえで町"},
{"zip_code":"0680827","kana_pref":"ﾎｯｶｲﾄﾞｳ","kana_city":"ｲﾜﾐｻﾞﾜｼ","kana_address":"ｶｽｶﾞﾁｮｳ","pref":"北海道","city":"岩見沢市","address":"春日町"},
{"zip_code":"0680847","kana_pref":"ﾎｯｶｲﾄﾞｳ","kana_city":"ｲﾜﾐｻﾞﾜｼ","kana_address":"ｶﾈｺﾁｮｳ","pref":"北海道","city":"岩見沢市","address":"金子町"},
{"zip_code":"0680836","kana_pref":"ﾎｯｶｲﾄﾞｳ","kana_city":"ｲﾜﾐｻﾞﾜｼ","kana_address":"ｶﾐｼﾌﾞﾝﾁｮｳ","pref":"北海道","city":"岩見沢市","address":"上志文町"},
{"zip_code":"0680057","kana_pref":"ﾎｯｶｲﾄﾞｳ","kana_city":"ｲﾜﾐｻﾞﾜｼ","kana_address":"ｷﾀﾎﾝﾁｮｳﾋｶﾞｼ","pref":"北海道","city":"岩見沢市","address":"北本町東"},
{"zip_code":"0680053","kana_pref":"ﾎｯｶｲﾄﾞｳ","kana_city":"ｲﾜﾐｻﾞﾜｼ","kana_address":"ｷﾀﾎﾝﾁｮｳﾆｼ","pref":"北海道","city":"岩見沢市","address":"北本町西"},
{"zip_code":"0680041","kana_pref":"ﾎｯｶｲﾄﾞｳ","kana_city":"ｲﾜﾐｻﾞﾜｼ","kana_address":"ｷﾀ1ｼﾞｮｳﾆｼ","pref":"北海道","city":"岩見沢市","address":"北一条西"},
{"zip_code":"0680042","kana_pref":"ﾎｯｶｲﾄﾞｳ","kana_city":"ｲﾜﾐｻﾞﾜｼ","kana_address":"ｷﾀ2ｼﾞｮｳﾆｼ","pref":"北海道","city":"岩見沢市","address":"北二条西"},
{"zip_code":"0680043","kana_pref":"ﾎｯｶｲﾄﾞｳ","kana_city":"ｲﾜﾐｻﾞﾜｼ","kana_address":"ｷﾀ3ｼﾞｮｳﾆｼ","pref":"北海道","city":"岩見沢市","address":"北三条西"},
{"zip_code":"0680044","kana_pref":"ﾎｯｶｲﾄﾞｳ","kana_city":"ｲﾜﾐｻﾞﾜｼ","kana_address":"ｷﾀ4ｼﾞｮｳﾆｼ","pref":"北海道","city":"岩見沢市","address":"北四条西"},
{"zip_code":"0680045","kana_pref":"ﾎｯｶｲﾄﾞｳ","kana_city":"ｲﾜﾐｻﾞﾜｼ","kana_address":"ｷﾀ5ｼﾞｮｳﾆｼ","pref":"北海道","city":"岩見沢市","address":"北五条西"},
{"zip_code":"0680061","kana_pref":"ﾎｯｶｲﾄﾞｳ","kana_city":"ｲﾜﾐｻﾞﾜｼ","kana_address":"ｷﾀ6ｼﾞｮｳﾆｼ","pref":"北海道","city":"岩見沢市","address":"北六条西"},
{"zip_code":"0681213","kana_pref":"ﾎｯｶｲﾄﾞｳ","kana_city":"ｲﾜﾐｻﾞﾜｼ","kana_address":"ｷﾀﾑﾗｱｶｶﾞﾜ","pref":"北海道","city":"岩見沢市","address":"北村赤川"},
{"zip_code":"0681203","kana_pref":"ﾎｯｶｲﾄﾞｳ","kana_city":"ｲﾜﾐｻﾞﾜｼ","kana_address":"ｷﾀﾑﾗｵｵﾈｶﾞｲ","pref":"北海道","city":"岩見沢市","address":"北村大願"},
{"zip_code":"0681204","kana_pref":"ﾎｯｶｲﾄﾞｳ","kana_city":"ｲﾜﾐｻﾞﾜｼ","kana_address":"ｷﾀﾑﾗｻｶｴﾏﾁ","pref":"北海道","city":"岩見沢市","address":"北村栄町"},
{"zip_code":"0681212","kana_pref":"ﾎｯｶｲﾄﾞｳ","kana_city":"ｲﾜﾐｻﾞﾜｼ","kana_address":"ｷﾀﾑﾗﾁｭｳｵｳ","pref":"北海道","city":"岩見沢市","address":"北村中央"},
{"zip_code":"0681205","kana_pref":"ﾎｯｶｲﾄﾞｳ","kana_city":"ｲﾜﾐｻﾞﾜｼ","kana_address":"ｷﾀﾑﾗﾄﾖｻﾄ","pref":"北海道","city":"岩見沢市","address":"北村豊里"},
{"zip_code":"0681202","kana_pref":"ﾎｯｶｲﾄﾞｳ","kana_city":"ｲﾜﾐｻﾞﾜｼ","kana_address":"ｷﾀﾑﾗﾅｶｺﾞﾔ","pref":"北海道","city":"岩見沢市","address":"北村中小屋"},
{"zip_code":"0681214","kana_pref":"ﾎｯｶｲﾄﾞｳ","kana_city":"ｲﾜﾐｻﾞﾜｼ","kana_address":"ｷﾀﾑﾗﾋﾞﾊﾞｲﾀｯﾌﾟ","pref":"北海道","city":"岩見沢市","address":"北村美唄達布"},
{"zip_code":"0681201","kana_pref":"ﾎｯｶｲﾄﾞｳ","kana_city":"ｲﾜﾐｻﾞﾜｼ","kana_address":"ｷﾀﾑﾗﾎｳｾｲ","pref":"北海道","city":"岩見沢市","address":"北村豊正"},
{"zip_code":"0681161","kana_pref":"ﾎｯｶｲﾄﾞｳ","kana_city":"ｲﾜﾐｻﾞﾜｼ","kana_address":"ｷﾀﾑﾗﾎｸﾄ","pref":"北海道","city":"岩見沢市","address":"北村北都"},
{"zip_code":"0681211","kana_pref":"ﾎｯｶｲﾄﾞｳ","kana_city":"ｲﾜﾐｻﾞﾜｼ","kana_address":"ｷﾀﾑﾗﾎｸﾄ","pref":"北海道","city":"岩見沢市","address":"北村北都"},
{"zip_code":"0681215","kana_pref":"ﾎｯｶｲﾄﾞｳ","kana_city":"ｲﾜﾐｻﾞﾜｼ","kana_address":"ｷﾀﾑﾗﾎﾛﾀｯﾌﾟ","pref":"北海道","city":"岩見沢市","address":"北村幌達布"},
{"zip_code":"0680106","kana_pref":"ﾎｯｶｲﾄﾞｳ","kana_city":"ｲﾜﾐｻﾞﾜｼ","kana_address":"ｸﾘｻﾜﾁｮｳｴﾁｾﾞﾝ","pref":"北海道","city":"岩見沢市","address":"栗沢町越前"},
{"zip_code":"0680112","kana_pref":"ﾎｯｶｲﾄﾞｳ","kana_city":"ｲﾜﾐｻﾞﾜｼ","kana_address":"ｸﾘｻﾜﾁｮｳｶﾐﾎﾛ","pref":"北海道","city":"岩見沢市","address":"栗沢町上幌"},
{"zip_code":"0680133","kana_pref":"ﾎｯｶｲﾄﾞｳ","kana_city":"ｲﾜﾐｻﾞﾜｼ","kana_address":"ｸﾘｻﾜﾁｮｳｶﾓｶﾞﾜ","pref":"北海道","city":"岩見沢市","address":"栗沢町加茂川"},
{"zip_code":"0680122","kana_pref":"ﾎｯｶｲﾄﾞｳ","kana_city":"ｲﾜﾐｻﾞﾜｼ","kana_address":"ｸﾘｻﾜﾁｮｳｷﾀｻﾁﾎ","pref":"北海道","city":"岩見沢市","address":"栗沢町北幸穂"},
{"zip_code":"0680121","kana_pref":"ﾎｯｶｲﾄﾞｳ","kana_city":"ｲﾜﾐｻﾞﾜｼ","kana_address":"ｸﾘｻﾜﾁｮｳｷﾀﾎﾝﾁｮｳ","pref":"北海道","city":"岩見沢市","address":"栗沢町北本町"},
{"zip_code":"0680135","kana_pref":"ﾎｯｶｲﾄﾞｳ","kana_city":"ｲﾜﾐｻﾞﾜｼ","kana_address":"ｸﾘｻﾜﾁｮｳｷﾞﾌ","pref":"北海道","city":"岩見沢市","address":"栗沢町岐阜"},
{"zip_code":"0680134","kana_pref":"ﾎｯｶｲﾄﾞｳ","kana_city":"ｲﾜﾐｻﾞﾜｼ","kana_address":"ｸﾘｻﾜﾁｮｳｸﾘｵｶ","pref":"北海道","city":"岩見沢市","address":"栗沢町栗丘"},
{"zip_code":"0680102","kana_pref":"ﾎｯｶｲﾄﾞｳ","kana_city":"ｲﾜﾐｻﾞﾜｼ","kana_address":"ｸﾘｻﾜﾁｮｳｸﾘﾍﾞ","pref":"北海道","city":"岩見沢市","address":"栗沢町栗部"},
{"zip_code":"0680104","kana_pref":"ﾎｯｶｲﾄﾞｳ","kana_city":"ｲﾜﾐｻﾞﾜｼ","kana_address":"ｸﾘｻﾜﾁｮｳｺｳｾｲ","pref":"北海道","city":"岩見沢市","address":"栗沢町耕成"},
{"zip_code":"0680131","kana_pref":"ﾎｯｶｲﾄﾞｳ","kana_city":"ｲﾜﾐｻﾞﾜｼ","kana_address":"ｸﾘｻﾜﾁｮｳｺﾆｼ","pref":"北海道","city":"岩見沢市","address":"栗沢町小西"},
{"zip_code":"0680124","kana_pref":"ﾎｯｶｲﾄﾞｳ","kana_city":"ｲﾜﾐｻﾞﾜｼ","kana_address":"ｸﾘｻﾜﾁｮｳｻﾁﾎﾁｮｳ","pref":"北海道","city":"岩見沢市","address":"栗沢町幸穂町"},
{"zip_code":"0680105","kana_pref":"ﾎｯｶｲﾄﾞｳ","kana_city":"ｲﾜﾐｻﾞﾜｼ","kana_address":"ｸﾘｻﾜﾁｮｳｼﾞｷｮｳ","pref":"北海道","city":"岩見沢市","address":"栗沢町自協"},
{"zip_code":"0680103","kana_pref":"ﾎｯｶｲﾄﾞｳ","kana_city":"ｲﾜﾐｻﾞﾜｼ","kana_address":"ｸﾘｻﾜﾁｮｳﾄﾅﾐ","pref":"北海道","city":"岩見沢市","address":"栗沢町砺波"},
{"zip_code":"0680126","kana_pref":"ﾎｯｶｲﾄﾞｳ","kana_city":"ｲﾜﾐｻﾞﾜｼ","kana_address":"ｸﾘｻﾜﾁｮｳﾆｼﾎﾝﾁｮｳ","pref":"北海道","city":"岩見沢市","address":"栗沢町西本町"},
{"zip_code":"0683165","kana_pref":"ﾎｯｶｲﾄﾞｳ","kana_city":"ｲﾜﾐｻﾞﾜｼ","kana_address":"ｸﾘｻﾜﾁｮｳﾆｼﾏﾝｼﾞ","pref":"北海道","city":"岩見沢市","address":"栗沢町西万字"},
{"zip_code":"0680123","kana_pref":"ﾎｯｶｲﾄﾞｳ","kana_city":"ｲﾜﾐｻﾞﾜｼ","kana_address":"ｸﾘｻﾜﾁｮｳﾋｶﾞｼﾎﾝﾁｮｳ","pref":"北海道","city":"岩見沢市","address":"栗沢町東本町"},
{"zip_code":"0680136","kana_pref":"ﾎｯｶｲﾄﾞｳ","kana_city":"ｲﾜﾐｻﾞﾜｼ","kana_address":"ｸﾘｻﾜﾁｮｳﾋｯｾｲ","pref":"北海道","city":"岩見沢市","address":"栗沢町必成"},
{"zip_code":"0680101","kana_pref":"ﾎｯｶｲﾄﾞｳ","kana_city":"ｲﾜﾐｻﾞﾜｼ","kana_address":"ｸﾘｻﾜﾁｮｳﾎｸﾄ","pref":"北海道","city":"岩見沢市","address":"栗沢町北斗"},
{"zip_code":"0680127","kana_pref":"ﾎｯｶｲﾄﾞｳ","kana_city":"ｲﾜﾐｻﾞﾜｼ","kana_address":"ｸﾘｻﾜﾁｮｳﾎﾝﾁｮｳ","pref":"北海道","city":"岩見沢市","address":"栗沢町本町"},
{"zip_code":"0683154","kana_pref":"ﾎｯｶｲﾄﾞｳ","kana_city":"ｲﾜﾐｻﾞﾜｼ","kana_address":"ｸﾘｻﾜﾁｮｳﾏﾝｼﾞｱｹﾎﾞﾉﾏﾁ","pref":"北海道","city":"岩見沢市","address":"栗沢町万字曙町"},
{"zip_code":"0683162","kana_pref":"ﾎｯｶｲﾄﾞｳ","kana_city":"ｲﾜﾐｻﾞﾜｼ","kana_address":"ｸﾘｻﾜﾁｮｳﾏﾝｼﾞｱｻﾋﾏﾁ","pref":"北海道","city":"岩見沢市","address":"栗沢町万字旭町"},
{"zip_code":"0683151","kana_pref":"ﾎｯｶｲﾄﾞｳ","kana_city":"ｲﾜﾐｻﾞﾜｼ","kana_address":"ｸﾘｻﾜﾁｮｳﾏﾝｼﾞｵｵﾀｲﾗ","pref":"北海道","city":"岩見沢市","address":"栗沢町万字大平"},
{"zip_code":"0683155","kana_pref":"ﾎｯｶｲﾄﾞｳ","kana_city":"ｲﾜﾐｻﾞﾜｼ","kana_address":"ｸﾘｻﾜﾁｮｳﾏﾝｼﾞｺﾄﾌﾞｷﾁｮｳ","pref":"北海道","city":"岩見沢市","address":"栗沢町万字寿町"},
{"zip_code":"0683152","kana_pref":"ﾎｯｶｲﾄﾞｳ","kana_city":"ｲﾜﾐｻﾞﾜｼ","kana_address":"ｸﾘｻﾜﾁｮｳﾏﾝｼﾞｻｲﾜｲﾁｮｳ","pref":"北海道","city":"岩見沢市","address":"栗沢町万字幸町"},
{"zip_code":"0683158","kana_pref":"ﾎｯｶｲﾄﾞｳ","kana_city":"ｲﾜﾐｻﾞﾜｼ","kana_address":"ｸﾘｻﾜﾁｮｳﾏﾝｼﾞﾄﾓｴﾁｮｳ","pref":"北海道","city":"岩見沢市","address":"栗沢町万字巴町"},
{"zip_code":"0683153","kana_pref":"ﾎｯｶｲﾄﾞｳ","kana_city":"ｲﾜﾐｻﾞﾜｼ","kana_address":"ｸﾘｻﾜﾁｮｳﾏﾝｼﾞﾅｶﾏﾁ","pref":"北海道","city":"岩見沢市","address":"栗沢町万字仲町"},
{"zip_code":"0683164","kana_pref":"ﾎｯｶｲﾄﾞｳ","kana_city":"ｲﾜﾐｻﾞﾜｼ","kana_address":"ｸﾘｻﾜﾁｮｳﾏﾝｼﾞﾆｼｷﾏﾁ","pref":"北海道","city":"岩見沢市","address":"栗沢町万字錦町"},
{"zip_code":"0683163","kana_pref":"ﾎｯｶｲﾄﾞｳ","kana_city":"ｲﾜﾐｻﾞﾜｼ","kana_address":"ｸﾘｻﾜﾁｮｳﾏﾝｼﾞﾆｼﾊﾗﾏﾁ","pref":"北海道","city":"岩見沢市","address":"栗沢町万字西原町"},
{"zip_code":"0683156","kana_pref":"ﾎｯｶｲﾄﾞｳ","kana_city":"ｲﾜﾐｻﾞﾜｼ","kana_address":"ｸﾘｻﾜﾁｮｳﾏﾝｼﾞﾊﾅﾌﾞｻﾁｮｳ","pref":"北海道","city":"岩見沢市","address":"栗沢町万字英町"},
{"zip_code":"0683159","kana_pref":"ﾎｯｶｲﾄﾞｳ","kana_city":"ｲﾜﾐｻﾞﾜｼ","kana_address":"ｸﾘｻﾜﾁｮｳﾏﾝｼﾞﾌﾀﾐﾁｮｳ","pref":"北海道","city":"岩見沢市","address":"栗沢町万字二見町"},
{"zip_code":"0683157","kana_pref":"ﾎｯｶｲﾄﾞｳ","kana_city":"ｲﾜﾐｻﾞﾜｼ","kana_address":"ｸﾘｻﾜﾁｮｳﾏﾝｼﾞﾑﾂﾐﾁｮｳ","pref":"北海道","city":"岩見沢市","address":"栗沢町万字睦町"},
{"zip_code":"0680132","kana_pref":"ﾎｯｶｲﾄﾞｳ","kana_city":"ｲﾜﾐｻﾞﾜｼ","kana_address":"ｸﾘｻﾜﾁｮｳﾐﾅﾐｻﾁﾎ","pref":"北海道","city":"岩見沢市","address":"栗沢町南幸穂"},
{"zip_code":"0680125","kana_pref":"ﾎｯｶｲﾄﾞｳ","kana_city":"ｲﾜﾐｻﾞﾜｼ","kana_address":"ｸﾘｻﾜﾁｮｳﾐﾅﾐﾎﾝﾁｮｳ","pref":"北海道","city":"岩見沢市","address":"栗沢町南本町"},
{"zip_code":"0683161","kana_pref":"ﾎｯｶｲﾄﾞｳ","kana_city":"ｲﾜﾐｻﾞﾜｼ","kana_address":"ｸﾘｻﾜﾁｮｳﾐﾔﾑﾗ","pref":"北海道","city":"岩見沢市","address":"栗沢町宮村"},
{"zip_code":"0680113","kana_pref":"ﾎｯｶｲﾄﾞｳ","kana_city":"ｲﾜﾐｻﾞﾜｼ","kana_address":"ｸﾘｻﾜﾁｮｳﾐﾔﾑﾗ","pref":"北海道","city":"岩見沢市","address":"栗沢町宮村"},
{"zip_code":"0683183","kana_pref":"ﾎｯｶｲﾄﾞｳ","kana_city":"ｲﾜﾐｻﾞﾜｼ","kana_address":"ｸﾘｻﾜﾁｮｳﾐﾙﾄｶｴﾃﾞﾁｮｳ","pref":"北海道","city":"岩見沢市","address":"栗沢町美流渡楓町"},
{"zip_code":"0683172","kana_pref":"ﾎｯｶｲﾄﾞｳ","kana_city":"ｲﾜﾐｻﾞﾜｼ","kana_address":"ｸﾘｻﾜﾁｮｳﾐﾙﾄｻｶｴﾁｮｳ","pref":"北海道","city":"岩見沢市","address":"栗沢町美流渡栄町"},
{"zip_code":"0683179","kana_pref":"ﾎｯｶｲﾄﾞｳ","kana_city":"ｲﾜﾐｻﾞﾜｼ","kana_address":"ｸﾘｻﾜﾁｮｳﾐﾙﾄｻｸﾗﾏﾁ","pref":"北海道","city":"岩見沢市","address":"栗沢町美流渡桜町"},
{"zip_code":"0683177","kana_pref":"ﾎｯｶｲﾄﾞｳ","kana_city":"ｲﾜﾐｻﾞﾜｼ","kana_address":"ｸﾘｻﾜﾁｮｳﾐﾙﾄｽｴﾋﾛﾁｮｳ","pref":"北海道","city":"岩見沢市","address":"栗沢町美流渡末広町"},
{"zip_code":"0683176","kana_pref":"ﾎｯｶｲﾄﾞｳ","kana_city":"ｲﾜﾐｻﾞﾜｼ","kana_address":"ｸﾘｻﾜﾁｮｳﾐﾙﾄﾄｳｴｲﾁｮｳ","pref":"北海道","city":"岩見沢市","address":"栗沢町美流渡東栄町"},
{"zip_code":"0683178","kana_pref":"ﾎｯｶｲﾄﾞｳ","kana_city":"ｲﾜﾐｻﾞﾜｼ","kana_address":"ｸﾘｻﾜﾁｮｳﾐﾙﾄﾆｼｷﾁｮｳ","pref":"北海道","city":"岩見沢市","address":"栗沢町美流渡錦町"},
{"zip_code":"0683175","kana_pref":"ﾎｯｶｲﾄﾞｳ","kana_city":"ｲﾜﾐｻﾞﾜｼ","kana_address":"ｸﾘｻﾜﾁｮｳﾐﾙﾄﾆｼﾏﾁ","pref":"北海道","city":"岩見沢市","address":"栗沢町美流渡西町"},
{"zip_code":"0683180","kana_pref":"ﾎｯｶｲﾄﾞｳ","kana_city":"ｲﾜﾐｻﾞﾜｼ","kana_address":"ｸﾘｻﾜﾁｮｳﾐﾙﾄﾋｶﾞｼﾏﾁ","pref":"北海道","city":"岩見沢市","address":"栗沢町美流渡東町"},
{"zip_code":"0683171","kana_pref":"ﾎｯｶｲﾄﾞｳ","kana_city":"ｲﾜﾐｻﾞﾜｼ","kana_address":"ｸﾘｻﾜﾁｮｳﾐﾙﾄﾎﾝﾁｮｳ","pref":"北海道","city":"岩見沢市","address":"栗沢町美流渡本町"},
{"zip_code":"0683182","kana_pref":"ﾎｯｶｲﾄﾞｳ","kana_city":"ｲﾜﾐｻﾞﾜｼ","kana_address":"ｸﾘｻﾜﾁｮｳﾐﾙﾄﾐﾄﾞﾘﾏﾁ","pref":"北海道","city":"岩見沢市","address":"栗沢町美流渡緑町"},
{"zip_code":"0683181","kana_pref":"ﾎｯｶｲﾄﾞｳ","kana_city":"ｲﾜﾐｻﾞﾜｼ","kana_address":"ｸﾘｻﾜﾁｮｳﾐﾙﾄﾐﾅﾐﾏﾁ","pref":"北海道","city":"岩見沢市","address":"栗沢町美流渡南町"},
{"zip_code":"0683174","kana_pref":"ﾎｯｶｲﾄﾞｳ","kana_city":"ｲﾜﾐｻﾞﾜｼ","kana_address":"ｸﾘｻﾜﾁｮｳﾐﾙﾄﾖｼﾉﾁｮｳ","pref":"北海道","city":"岩見沢市","address":"栗沢町美流渡吉野町"},
{"zip_code":"0683173","kana_pref":"ﾎｯｶｲﾄﾞｳ","kana_city":"ｲﾜﾐｻﾞﾜｼ","kana_address":"ｸﾘｻﾜﾁｮｳﾐﾙﾄﾜｶﾊﾞﾁｮｳ","pref":"北海道","city":"岩見沢市","address":"栗沢町美流渡若葉町"},
{"zip_code":"0680115","kana_pref":"ﾎｯｶｲﾄﾞｳ","kana_city":"ｲﾜﾐｻﾞﾜｼ","kana_address":"ｸﾘｻﾜﾁｮｳﾓｶﾞﾐ","pref":"北海道","city":"岩見沢市","address":"栗沢町最上"},
{"zip_code":"0680114","kana_pref":"ﾎｯｶｲﾄﾞｳ","kana_city":"ｲﾜﾐｻﾞﾜｼ","kana_address":"ｸﾘｻﾜﾁｮｳﾓｾｳｼ","pref":"北海道","city":"岩見沢市","address":"栗沢町茂世丑"},
{"zip_code":"0680111","kana_pref":"ﾎｯｶｲﾄﾞｳ","kana_city":"ｲﾜﾐｻﾞﾜｼ","kana_address":"ｸﾘｻﾜﾁｮｳﾕﾗ","pref":"北海道","city":"岩見沢市","address":"栗沢町由良"},
{"zip_code":"0680834","kana_pref":"ﾎｯｶｲﾄﾞｳ","kana_city":"ｲﾜﾐｻﾞﾜｼ","kana_address":"ｺﾏｿﾞﾉ","pref":"北海道","city":"岩見沢市","address":"駒園"},
{"zip_code":"0680821","kana_pref":"ﾎｯｶｲﾄﾞｳ","kana_city":"ｲﾜﾐｻﾞﾜｼ","kana_address":"ｻｶｴﾏﾁ","pref":"北海道","city":"岩見沢市","address":"栄町"},
{"zip_code":"0680058","kana_pref":"ﾎｯｶｲﾄﾞｳ","kana_city":"ｲﾜﾐｻﾞﾜｼ","kana_address":"ｻｸﾗｷﾞ1ｼﾞｮｳ","pref":"北海道","city":"岩見沢市","address":"桜木一条"},
{"zip_code":"0680833","kana_pref":"ﾎｯｶｲﾄﾞｳ","kana_city":"ｲﾜﾐｻﾞﾜｼ","kana_address":"ｼﾌﾞﾝﾁｮｳ","pref":"北海道","city":"岩見沢市","address":"志文町"},
{"zip_code":"0680841","kana_pref":"ﾎｯｶｲﾄﾞｳ","kana_city":"ｲﾜﾐｻﾞﾜｼ","kana_address":"ｼﾌﾞﾝﾎﾝﾁｮｳ1ｼﾞｮｳ","pref":"北海道","city":"岩見沢市","address":"志文本町一条"},
{"zip_code":"0680842","kana_pref":"ﾎｯｶｲﾄﾞｳ","kana_city":"ｲﾜﾐｻﾞﾜｼ","kana_address":"ｼﾌﾞﾝﾎﾝﾁｮｳ2ｼﾞｮｳ","pref":"北海道","city":"岩見沢市","address":"志文本町二条"},
{"zip_code":"0680843","kana_pref":"ﾎｯｶｲﾄﾞｳ","kana_city":"ｲﾜﾐｻﾞﾜｼ","kana_address":"ｼﾌﾞﾝﾎﾝﾁｮｳ3ｼﾞｮｳ","pref":"北海道","city":"岩見沢市","address":"志文本町三条"},
{"zip_code":"0680844","kana_pref":"ﾎｯｶｲﾄﾞｳ","kana_city":"ｲﾜﾐｻﾞﾜｼ","kana_address":"ｼﾌﾞﾝﾎﾝﾁｮｳ4ｼﾞｮｳ","pref":"北海道","city":"岩見沢市","address":"志文本町四条"},
{"zip_code":"0680845","kana_pref":"ﾎｯｶｲﾄﾞｳ","kana_city":"ｲﾜﾐｻﾞﾜｼ","kana_address":"ｼﾌﾞﾝﾎﾝﾁｮｳ5ｼﾞｮｳ","pref":"北海道","city":"岩見沢市","address":"志文本町五条"},
{"zip_code":"0683186","kana_pref":"ﾎｯｶｲﾄﾞｳ","kana_city":"ｲﾜﾐｻﾞﾜｼ","kana_address":"ｼﾐｽﾞﾁｮｳ","pref":"北海道","city":"岩見沢市","address":"清水町"},
{"zip_code":"0680846","kana_pref":"ﾎｯｶｲﾄﾞｳ","kana_city":"ｲﾜﾐｻﾞﾜｼ","kana_address":"ｼﾓｼﾌﾞﾝﾁｮｳ","pref":"北海道","city":"岩見沢市","address":"下志文町"},
{"zip_code":"0680818","kana_pref":"ﾎｯｶｲﾄﾞｳ","kana_city":"ｲﾜﾐｻﾞﾜｼ","kana_address":"ﾅﾐｷﾁｮｳ","pref":"北海道","city":"岩見沢市","address":"並木町"},
{"zip_code":"0683187","kana_pref":"ﾎｯｶｲﾄﾞｳ","kana_city":"ｲﾜﾐｻﾞﾜｼ","kana_address":"ﾅﾗﾁｮｳ","pref":"北海道","city":"岩見沢市","address":"奈良町"},
{"zip_code":"0680048","kana_pref":"ﾎｯｶｲﾄﾞｳ","kana_city":"ｲﾜﾐｻﾞﾜｼ","kana_address":"ﾆｼｶﾜﾁｮｳ","pref":"北海道","city":"岩見沢市","address":"西川町"},
{"zip_code":"0680828","kana_pref":"ﾎｯｶｲﾄﾞｳ","kana_city":"ｲﾜﾐｻﾞﾜｼ","kana_address":"ﾊﾄｶﾞｵｶ","pref":"北海道","city":"岩見沢市","address":"鳩が丘"},
{"zip_code":"0680015","kana_pref":"ﾎｯｶｲﾄﾞｳ","kana_city":"ｲﾜﾐｻﾞﾜｼ","kana_address":"ﾋｶﾞｼﾏﾁ","pref":"北海道","city":"岩見沢市","address":"東町"},
{"zip_code":"0680013","kana_pref":"ﾎｯｶｲﾄﾞｳ","kana_city":"ｲﾜﾐｻﾞﾜｼ","kana_address":"ﾋｶﾞｼﾏﾁ1ｼﾞｮｳ","pref":"北海道","city":"岩見沢市","address":"東町一条"},
{"zip_code":"0680014","kana_pref":"ﾎｯｶｲﾄﾞｳ","kana_city":"ｲﾜﾐｻﾞﾜｼ","kana_address":"ﾋｶﾞｼﾏﾁ2ｼﾞｮｳ","pref":"北海道","city":"岩見沢市","address":"東町二条"},
{"zip_code":"0680820","kana_pref":"ﾎｯｶｲﾄﾞｳ","kana_city":"ｲﾜﾐｻﾞﾜｼ","kana_address":"ﾋｶﾞｼﾔﾏ","pref":"北海道","city":"岩見沢市","address":"東山"},
{"zip_code":"0680826","kana_pref":"ﾎｯｶｲﾄﾞｳ","kana_city":"ｲﾜﾐｻﾞﾜｼ","kana_address":"ﾋｶﾞｼﾔﾏﾁｮｳ","pref":"北海道","city":"岩見沢市","address":"東山町"},
{"zip_code":"0680823","kana_pref":"ﾎｯｶｲﾄﾞｳ","kana_city":"ｲﾜﾐｻﾞﾜｼ","kana_address":"ﾋﾉﾃﾞﾐﾅﾐ","pref":"北海道","city":"岩見沢市","address":"日の出南"},
{"zip_code":"0680824","kana_pref":"ﾎｯｶｲﾄﾞｳ","kana_city":"ｲﾜﾐｻﾞﾜｼ","kana_address":"ﾋﾉﾃﾞｷﾀ","pref":"北海道","city":"岩見沢市","address":"日の出北"},
{"zip_code":"0680822","kana_pref":"ﾎｯｶｲﾄﾞｳ","kana_city":"ｲﾜﾐｻﾞﾜｼ","kana_address":"ﾋﾉﾃﾞﾀﾞｲ","pref":"北海道","city":"岩見沢市","address":"日の出台"},
{"zip_code":"0680825","kana_pref":"ﾎｯｶｲﾄﾞｳ","kana_city":"ｲﾜﾐｻﾞﾜｼ","kana_address":"ﾋﾉﾃﾞﾁｮｳ","pref":"北海道","city":"岩見沢市","address":"日の出町"},
{"zip_code":"0680831","kana_pref":"ﾎｯｶｲﾄﾞｳ","kana_city":"ｲﾜﾐｻﾞﾜｼ","kana_address":"ﾌｼﾞﾁｮｳ1ｼﾞｮｳ","pref":"北海道","city":"岩見沢市","address":"ふじ町一条"},
{"zip_code":"0680832","kana_pref":"ﾎｯｶｲﾄﾞｳ","kana_city":"ｲﾜﾐｻﾞﾜｼ","kana_address":"ﾌｼﾞﾁｮｳ2ｼﾞｮｳ","pref":"北海道","city":"岩見沢市","address":"ふじ町二条"},
{"zip_code":"0680837","kana_pref":"ﾎｯｶｲﾄﾞｳ","kana_city":"ｲﾜﾐｻﾞﾜｼ","kana_address":"ﾎｳｽｲﾁｮｳ","pref":"北海道","city":"岩見沢市","address":"宝水町"},
{"zip_code":"0680811","kana_pref":"ﾎｯｶｲﾄﾞｳ","kana_city":"ｲﾜﾐｻﾞﾜｼ","kana_address":"ﾐｿﾉ1ｼﾞｮｳ","pref":"北海道","city":"岩見沢市","address":"美園一条"},
{"zip_code":"0680812","kana_pref":"ﾎｯｶｲﾄﾞｳ","kana_city":"ｲﾜﾐｻﾞﾜｼ","kana_address":"ﾐｿﾉ2ｼﾞｮｳ","pref":"北海道","city":"岩見沢市","address":"美園二条"},
{"zip_code":"0680813","kana_pref":"ﾎｯｶｲﾄﾞｳ","kana_city":"ｲﾜﾐｻﾞﾜｼ","kana_address":"ﾐｿﾉ3ｼﾞｮｳ","pref":"北海道","city":"岩見沢市","address":"美園三条"},
{"zip_code":"0680814","kana_pref":"ﾎｯｶｲﾄﾞｳ","kana_city":"ｲﾜﾐｻﾞﾜｼ","kana_address":"ﾐｿﾉ4ｼﾞｮｳ","pref":"北海道","city":"岩見沢市","address":"美園四条"},
{"zip_code":"0680815","kana_pref":"ﾎｯｶｲﾄﾞｳ","kana_city":"ｲﾜﾐｻﾞﾜｼ","kana_address":"ﾐｿﾉ5ｼﾞｮｳ","pref":"北海道","city":"岩見沢市","address":"美園五条"},
{"zip_code":"0680816","kana_pref":"ﾎｯｶｲﾄﾞｳ","kana_city":"ｲﾜﾐｻﾞﾜｼ","kana_address":"ﾐｿﾉ6ｼﾞｮｳ","pref":"北海道","city":"岩見沢市","address":"美園六条"},
{"zip_code":"0680817","kana_pref":"ﾎｯｶｲﾄﾞｳ","kana_city":"ｲﾜﾐｻﾞﾜｼ","kana_address":"ﾐｿﾉ7ｼﾞｮｳ","pref":"北海道","city":"岩見沢市","address":"美園七条"},
{"zip_code":"0680835","kana_pref":"ﾎｯｶｲﾄﾞｳ","kana_city":"ｲﾜﾐｻﾞﾜｼ","kana_address":"ﾐﾄﾞﾘｶﾞｵｶ","pref":"北海道","city":"岩見沢市","address":"緑が丘"},
{"zip_code":"0680046","kana_pref":"ﾎｯｶｲﾄﾞｳ","kana_city":"ｲﾜﾐｻﾞﾜｼ","kana_address":"ﾐﾄﾞﾘﾁｮｳ","pref":"北海道","city":"岩見沢市","address":"緑町"},
{"zip_code":"0680810","kana_pref":"ﾎｯｶｲﾄﾞｳ","kana_city":"ｲﾜﾐｻﾞﾜｼ","kana_address":"ﾐﾅﾐﾏﾁ","pref":"北海道","city":"岩見沢市","address":"南町"},
{"zip_code":"0680801","kana_pref":"ﾎｯｶｲﾄﾞｳ","kana_city":"ｲﾜﾐｻﾞﾜｼ","kana_address":"ﾐﾅﾐﾏﾁ1ｼﾞｮｳ","pref":"北海道","city":"岩見沢市","address":"南町一条"},
{"zip_code":"0680802","kana_pref":"ﾎｯｶｲﾄﾞｳ","kana_city":"ｲﾜﾐｻﾞﾜｼ","kana_address":"ﾐﾅﾐﾏﾁ2ｼﾞｮｳ","pref":"北海道","city":"岩見沢市","address":"南町二条"},
{"zip_code":"0680803","kana_pref":"ﾎｯｶｲﾄﾞｳ","kana_city":"ｲﾜﾐｻﾞﾜｼ","kana_address":"ﾐﾅﾐﾏﾁ3ｼﾞｮｳ","pref":"北海道","city":"岩見沢市","address":"南町三条"},
{"zip_code":"0680804","kana_pref":"ﾎｯｶｲﾄﾞｳ","kana_city":"ｲﾜﾐｻﾞﾜｼ","kana_address":"ﾐﾅﾐﾏﾁ4ｼﾞｮｳ","pref":"北海道","city":"岩見沢市","address":"南町四条"},
{"zip_code":"0680805","kana_pref":"ﾎｯｶｲﾄﾞｳ","kana_city":"ｲﾜﾐｻﾞﾜｼ","kana_address":"ﾐﾅﾐﾏﾁ5ｼﾞｮｳ","pref":"北海道","city":"岩見沢市","address":"南町五条"},
{"zip_code":"0680806","kana_pref":"ﾎｯｶｲﾄﾞｳ","kana_city":"ｲﾜﾐｻﾞﾜｼ","kana_address":"ﾐﾅﾐﾏﾁ6ｼﾞｮｳ","pref":"北海道","city":"岩見沢市","address":"南町六条"},
{"zip_code":"0680807","kana_pref":"ﾎｯｶｲﾄﾞｳ","kana_city":"ｲﾜﾐｻﾞﾜｼ","kana_address":"ﾐﾅﾐﾏﾁ7ｼﾞｮｳ","pref":"北海道","city":"岩見沢市","address":"南町七条"},
{"zip_code":"0680808","kana_pref":"ﾎｯｶｲﾄﾞｳ","kana_city":"ｲﾜﾐｻﾞﾜｼ","kana_address":"ﾐﾅﾐﾏﾁ8ｼﾞｮｳ","pref":"北海道","city":"岩見沢市","address":"南町八条"},
{"zip_code":"0680809","kana_pref":"ﾎｯｶｲﾄﾞｳ","kana_city":"ｲﾜﾐｻﾞﾜｼ","kana_address":"ﾐﾅﾐﾏﾁ9ｼﾞｮｳ","pref":"北海道","city":"岩見沢市","address":"南町九条"},
{"zip_code":"0680016","kana_pref":"ﾎｯｶｲﾄﾞｳ","kana_city":"ｲﾜﾐｻﾞﾜｼ","kana_address":"ﾐﾉﾘﾁｮｳ","pref":"北海道","city":"岩見沢市","address":"稔町"},
{"zip_code":"0683188","kana_pref":"ﾎｯｶｲﾄﾞｳ","kana_city":"ｲﾜﾐｻﾞﾜｼ","kana_address":"ﾓｳﾖｳﾁｮｳ","pref":"北海道","city":"岩見沢市","address":"毛陽町"},
{"zip_code":"0680054","kana_pref":"ﾎｯｶｲﾄﾞｳ","kana_city":"ｲﾜﾐｻﾞﾜｼ","kana_address":"ﾓﾄﾏﾁ1ｼﾞｮｳﾋｶﾞｼ","pref":"北海道","city":"岩見沢市","address":"元町一条東"},
{"zip_code":"0680051","kana_pref":"ﾎｯｶｲﾄﾞｳ","kana_city":"ｲﾜﾐｻﾞﾜｼ","kana_address":"ﾓﾄﾏﾁ1ｼﾞｮｳﾆｼ","pref":"北海道","city":"岩見沢市","address":"元町一条西"},
{"zip_code":"0680055","kana_pref":"ﾎｯｶｲﾄﾞｳ","kana_city":"ｲﾜﾐｻﾞﾜｼ","kana_address":"ﾓﾄﾏﾁ2ｼﾞｮｳﾋｶﾞｼ","pref":"北海道","city":"岩見沢市","address":"元町二条東"},
{"zip_code":"0680052","kana_pref":"ﾎｯｶｲﾄﾞｳ","kana_city":"ｲﾜﾐｻﾞﾜｼ","kana_address":"ﾓﾄﾏﾁ2ｼﾞｮｳﾆｼ","pref":"北海道","city":"岩見沢市","address":"元町二条西"},
{"zip_code":"0680056","kana_pref":"ﾎｯｶｲﾄﾞｳ","kana_city":"ｲﾜﾐｻﾞﾜｼ","kana_address":"ﾓﾄﾏﾁ3ｼﾞｮｳﾋｶﾞｼ","pref":"北海道","city":"岩見沢市","address":"元町三条東"},
{"zip_code":"0680851","kana_pref":"ﾎｯｶｲﾄﾞｳ","kana_city":"ｲﾜﾐｻﾞﾜｼ","kana_address":"ﾔﾏﾄ1ｼﾞｮｳ","pref":"北海道","city":"岩見沢市","address":"大和一条"},
{"zip_code":"0680852","kana_pref":"ﾎｯｶｲﾄﾞｳ","kana_city":"ｲﾜﾐｻﾞﾜｼ","kana_address":"ﾔﾏﾄ2ｼﾞｮｳ","pref":"北海道","city":"岩見沢市","address":"大和二条"},
{"zip_code":"0680853","kana_pref":"ﾎｯｶｲﾄﾞｳ","kana_city":"ｲﾜﾐｻﾞﾜｼ","kana_address":"ﾔﾏﾄ3ｼﾞｮｳ","pref":"北海道","city":"岩見沢市","address":"大和三条"},
{"zip_code":"0680854","kana_pref":"ﾎｯｶｲﾄﾞｳ","kana_city":"ｲﾜﾐｻﾞﾜｼ","kana_address":"ﾔﾏﾄ4ｼﾞｮｳ","pref":"北海道","city":"岩見沢市","address":"大和四条"},
{"zip_code":"0680855","kana_pref":"ﾎｯｶｲﾄﾞｳ","kana_city":"ｲﾜﾐｻﾞﾜｼ","kana_address":"ﾔﾏﾄﾁｮｳ","pref":"北海道","city":"岩見沢市","address":"大和町"},
{"zip_code":"0680830","kana_pref":"ﾎｯｶｲﾄﾞｳ","kana_city":"ｲﾜﾐｻﾞﾜｼ","kana_address":"ﾜｶｺﾏ","pref":"北海道","city":"岩見沢市","address":"若駒"},
{"zip_code":"0680047","kana_pref":"ﾎｯｶｲﾄﾞｳ","kana_city":"ｲﾜﾐｻﾞﾜｼ","kana_address":"ﾜｶﾏﾂﾁｮｳ","pref":"北海道","city":"岩見沢市","address":"若松町"},
{"zip_code":"0680001","kana_pref":"ﾎｯｶｲﾄﾞｳ","kana_city":"ｲﾜﾐｻﾞﾜｼ","kana_address":"1ｼﾞｮｳﾋｶﾞｼ","pref":"北海道","city":"岩見沢市","address":"一条東"},
{"zip_code":"0680021","kana_pref":"ﾎｯｶｲﾄﾞｳ","kana_city":"ｲﾜﾐｻﾞﾜｼ","kana_address":"1ｼﾞｮｳﾆｼ","pref":"北海道","city":"岩見沢市","address":"一条西"},
{"zip_code":"0680002","kana_pref":"ﾎｯｶｲﾄﾞｳ","kana_city":"ｲﾜﾐｻﾞﾜｼ","kana_address":"2ｼﾞｮｳﾋｶﾞｼ","pref":"北海道","city":"岩見沢市","address":"二条東"},
{"zip_code":"0680022","kana_pref":"ﾎｯｶｲﾄﾞｳ","kana_city":"ｲﾜﾐｻﾞﾜｼ","kana_address":"2ｼﾞｮｳﾆｼ","pref":"北海道","city":"岩見沢市","address":"二条西"},
{"zip_code":"0680003","kana_pref":"ﾎｯｶｲﾄﾞｳ","kana_city":"ｲﾜﾐｻﾞﾜｼ","kana_address":"3ｼﾞｮｳﾋｶﾞｼ","pref":"北海道","city":"岩見沢市","address":"三条東"},
{"zip_code":"0680023","kana_pref":"ﾎｯｶｲﾄﾞｳ","kana_city":"ｲﾜﾐｻﾞﾜｼ","kana_address":"3ｼﾞｮｳﾆｼ","pref":"北海道","city":"岩見沢市","address":"三条西"},
{"zip_code":"0680004","kana_pref":"ﾎｯｶｲﾄﾞｳ","kana_city":"ｲﾜﾐｻﾞﾜｼ","kana_address":"4ｼﾞｮｳﾋｶﾞｼ","pref":"北海道","city":"岩見沢市","address":"四条東"},
{"zip_code":"0680024","kana_pref":"ﾎｯｶｲﾄﾞｳ","kana_city":"ｲﾜﾐｻﾞﾜｼ","kana_address":"4ｼﾞｮｳﾆｼ","pref":"北海道","city":"岩見沢市","address":"四条西"},
{"zip_code":"0680005","kana_pref":"ﾎｯｶｲﾄﾞｳ","kana_city":"ｲﾜﾐｻﾞﾜｼ","kana_address":"5ｼﾞｮｳﾋｶﾞｼ","pref":"北海道","city":"岩見沢市","address":"五条東"},
{"zip_code":"0680025","kana_pref":"ﾎｯｶｲﾄﾞｳ","kana_city":"ｲﾜﾐｻﾞﾜｼ","kana_address":"5ｼﾞｮｳﾆｼ","pref":"北海道","city":"岩見沢市","address":"五条西"},
{"zip_code":"0680006","kana_pref":"ﾎｯｶｲﾄﾞｳ","kana_city":"ｲﾜﾐｻﾞﾜｼ","kana_address":"6ｼﾞｮｳﾋｶﾞｼ","pref":"北海道","city":"岩見沢市","address":"六条東"},
{"zip_code":"0680026","kana_pref":"ﾎｯｶｲﾄﾞｳ","kana_city":"ｲﾜﾐｻﾞﾜｼ","kana_address":"6ｼﾞｮｳﾆｼ","pref":"北海道","city":"岩見沢市","address":"六条西"},
{"zip_code":"0680007","kana_pref":"ﾎｯｶｲﾄﾞｳ","kana_city":"ｲﾜﾐｻﾞﾜｼ","kana_address":"7ｼﾞｮｳﾋｶﾞｼ","pref":"北海道","city":"岩見沢市","address":"七条東"},
{"zip_code":"0680027","kana_pref":"ﾎｯｶｲﾄﾞｳ","kana_city":"ｲﾜﾐｻﾞﾜｼ","kana_address":"7ｼﾞｮｳﾆｼ","pref":"北海道","city":"岩見沢市","address":"七条西"},
{"zip_code":"0680008","kana_pref":"ﾎｯｶｲﾄﾞｳ","kana_city":"ｲﾜﾐｻﾞﾜｼ","kana_address":"8ｼﾞｮｳﾋｶﾞｼ","pref":"北海道","city":"岩見沢市","address":"八条東"},
{"zip_code":"0680028","kana_pref":"ﾎｯｶｲﾄﾞｳ","kana_city":"ｲﾜﾐｻﾞﾜｼ","kana_address":"8ｼﾞｮｳﾆｼ","pref":"北海道","city":"岩見沢市","address":"八条西"},
{"zip_code":"0680009","kana_pref":"ﾎｯｶｲﾄﾞｳ","kana_city":"ｲﾜﾐｻﾞﾜｼ","kana_address":"9ｼﾞｮｳﾋｶﾞｼ","pref":"北海道","city":"岩見沢市","address":"九条東"},
{"zip_code":"0680029","kana_pref":"ﾎｯｶｲﾄﾞｳ","kana_city":"ｲﾜﾐｻﾞﾜｼ","kana_address":"9ｼﾞｮｳﾆｼ","pref":"北海道","city":"岩見沢市","address":"九条西"},
{"zip_code":"0680010","kana_pref":"ﾎｯｶｲﾄﾞｳ","kana_city":"ｲﾜﾐｻﾞﾜｼ","kana_address":"10ｼﾞｮｳﾋｶﾞｼ","pref":"北海道","city":"岩見沢市","address":"十条東"},
{"zip_code":"0680030","kana_pref":"ﾎｯｶｲﾄﾞｳ","kana_city":"ｲﾜﾐｻﾞﾜｼ","kana_address":"10ｼﾞｮｳﾆｼ","pref":"北海道","city":"岩見沢市","address":"十条西"},
{"zip_code":"0680011","kana_pref":"ﾎｯｶｲﾄﾞｳ","kana_city":"ｲﾜﾐｻﾞﾜｼ","kana_address":"11ｼﾞｮｳﾋｶﾞｼ","pref":"北海道","city":"岩見沢市","address":"十一条東"},
{"zip_code":"0680031","kana_pref":"ﾎｯｶｲﾄﾞｳ","kana_city":"ｲﾜﾐｻﾞﾜｼ","kana_address":"11ｼﾞｮｳﾆｼ","pref":"北海道","city":"岩見沢市","address":"十一条西"},
{"zip_code":"0680012","kana_pref":"ﾎｯｶｲﾄﾞｳ","kana_city":"ｲﾜﾐｻﾞﾜｼ","kana_address":"12ｼﾞｮｳﾋｶﾞｼ","pref":"北海道","city":"岩見沢市","address":"十二条東"},
{"zip_code":"0680032","kana_pref":"ﾎｯｶｲﾄﾞｳ","kana_city":"ｲﾜﾐｻﾞﾜｼ","kana_address":"12ｼﾞｮｳﾆｼ","pref":"北海道","city":"岩見沢市","address":"十二条西"},
{"zip_code":"0680033","kana_pref":"ﾎｯｶｲﾄﾞｳ","kana_city":"ｲﾜﾐｻﾞﾜｼ","kana_address":"13ｼﾞｮｳﾆｼ","pref":"北海道","city":"岩見沢市","address":"十三条西"},
{"zip_code":"0682181","kana_pref":"ﾎｯｶｲﾄﾞｳ","kana_city":"ﾋﾞﾊﾞｲｼ","kana_address":"ｺｳｼｭﾅｲﾁｮｳﾐﾅﾐ","pref":"北海道","city":"美唄市","address":"光珠内町南"},
{"zip_code":"0682100","kana_pref":"ﾎｯｶｲﾄﾞｳ","kana_city":"ﾐｶｻｼ","kana_address":"","pref":"北海道","city":"三笠市","address":""},
{"zip_code":"0682151","kana_pref":"ﾎｯｶｲﾄﾞｳ","kana_city":"ﾐｶｻｼ","kana_address":"ｱﾘｱｹﾁｮｳ","pref":"北海道","city":"三笠市","address":"有明町"},
{"zip_code":"0682112","kana_pref":"ﾎｯｶｲﾄﾞｳ","kana_city":"ﾐｶｻｼ","kana_address":"ｲｸｼｭﾝﾍﾞﾂｶﾜﾑｶｲﾁｮｳ","pref":"北海道","city":"三笠市","address":"幾春別川向町"},
{"zip_code":"0682114","kana_pref":"ﾎｯｶｲﾄﾞｳ","kana_city":"ﾐｶｻｼ","kana_address":"ｲｸｼｭﾝﾍﾞﾂｸﾘｵｶﾁｮｳ","pref":"北海道","city":"三笠市","address":"幾春別栗丘町"},
{"zip_code":"0682118","kana_pref":"ﾎｯｶｲﾄﾞｳ","kana_city":"ﾐｶｻｼ","kana_address":"ｲｸｼｭﾝﾍﾞﾂｾﾝｼﾞｭｳﾁｮｳ","pref":"北海道","city":"三笠市","address":"幾春別千住町"},
{"zip_code":"0682115","kana_pref":"ﾎｯｶｲﾄﾞｳ","kana_city":"ﾐｶｻｼ","kana_address":"ｲｸｼｭﾝﾍﾞﾂﾀｷﾐﾁｮｳ","pref":"北海道","city":"三笠市","address":"幾春別滝見町"},
{"zip_code":"0682117","kana_pref":"ﾎｯｶｲﾄﾞｳ","kana_city":"ﾐｶｻｼ","kana_address":"ｲｸｼｭﾝﾍﾞﾂﾅｶｼﾞﾏﾁｮｳ","pref":"北海道","city":"三笠市","address":"幾春別中島町"},
{"zip_code":"0682111","kana_pref":"ﾎｯｶｲﾄﾞｳ","kana_city":"ﾐｶｻｼ","kana_address":"ｲｸｼｭﾝﾍﾞﾂﾆｼｷﾁｮｳ","pref":"北海道","city":"三笠市","address":"幾春別錦町"},
{"zip_code":"0682113","kana_pref":"ﾎｯｶｲﾄﾞｳ","kana_city":"ﾐｶｻｼ","kana_address":"ｲｸｼｭﾝﾍﾞﾂﾔﾏﾃﾁｮｳ","pref":"北海道","city":"三笠市","address":"幾春別山手町"},
{"zip_code":"0682116","kana_pref":"ﾎｯｶｲﾄﾞｳ","kana_city":"ﾐｶｻｼ","kana_address":"ｲｸｼｭﾝﾍﾞﾂﾁｮｳ","pref":"北海道","city":"三笠市","address":"幾春別町"},
{"zip_code":"0682164","kana_pref":"ﾎｯｶｲﾄﾞｳ","kana_city":"ﾐｶｻｼ","kana_address":"ｲﾁｷｼﾘ","pref":"北海道","city":"三笠市","address":"いちきしり"},
{"zip_code":"0682167","kana_pref":"ﾎｯｶｲﾄﾞｳ","kana_city":"ﾐｶｻｼ","kana_address":"ｵｵｻﾄ","pref":"北海道","city":"三笠市","address":"大里"},
{"zip_code":"0682165","kana_pref":"ﾎｯｶｲﾄﾞｳ","kana_city":"ﾐｶｻｼ","kana_address":"ｵｶﾔﾏ","pref":"北海道","city":"三笠市","address":"岡山"},
{"zip_code":"0682108","kana_pref":"ﾎｯｶｲﾄﾞｳ","kana_city":"ﾐｶｻｼ","kana_address":"ｶｼﾜﾁｮｳ","pref":"北海道","city":"三笠市","address":"柏町"},
{"zip_code":"0682101","kana_pref":"ﾎｯｶｲﾄﾞｳ","kana_city":"ﾐｶｻｼ","kana_address":"ｶﾂﾗｻﾞﾜ","pref":"北海道","city":"三笠市","address":"桂沢"},
{"zip_code":"0682166","kana_pref":"ﾎｯｶｲﾄﾞｳ","kana_city":"ﾐｶｻｼ","kana_address":"ｶﾔﾉ","pref":"北海道","city":"三笠市","address":"萱野"},
{"zip_code":"0682162","kana_pref":"ﾎｯｶｲﾄﾞｳ","kana_city":"ﾐｶｻｼ","kana_address":"ｶﾜﾅｲ","pref":"北海道","city":"三笠市","address":"川内"},
{"zip_code":"0682105","kana_pref":"ﾎｯｶｲﾄﾞｳ","kana_city":"ﾐｶｻｼ","kana_address":"ｷﾖｽﾞﾐﾁｮｳ","pref":"北海道","city":"三笠市","address":"清住町"},
{"zip_code":"0682153","kana_pref":"ﾎｯｶｲﾄﾞｳ","kana_city":"ﾐｶｻｼ","kana_address":"ｻｲﾜｲﾁｮｳ","pref":"北海道","city":"三笠市","address":"幸町"},
{"zip_code":"0682155","kana_pref":"ﾎｯｶｲﾄﾞｳ","kana_city":"ﾐｶｻｼ","kana_address":"ｻｶｷﾁｮｳ","pref":"北海道","city":"三笠市","address":"榊町"},
{"zip_code":"0682154","kana_pref":"ﾎｯｶｲﾄﾞｳ","kana_city":"ﾐｶｻｼ","kana_address":"ﾀｶﾐﾁｮｳ","pref":"北海道","city":"三笠市","address":"高美町"},
{"zip_code":"0682152","kana_pref":"ﾎｯｶｲﾄﾞｳ","kana_city":"ﾐｶｻｼ","kana_address":"ﾀｶﾞﾁｮｳ","pref":"北海道","city":"三笠市","address":"多賀町"},
{"zip_code":"0682163","kana_pref":"ﾎｯｶｲﾄﾞｳ","kana_city":"ﾐｶｻｼ","kana_address":"ﾀｯﾌﾟ","pref":"北海道","city":"三笠市","address":"達布"},
{"zip_code":"0682158","kana_pref":"ﾎｯｶｲﾄﾞｳ","kana_city":"ﾐｶｻｼ","kana_address":"ﾂﾂﾐﾁｮｳ","pref":"北海道","city":"三笠市","address":"堤町"},
{"zip_code":"0682137","kana_pref":"ﾎｯｶｲﾄﾞｳ","kana_city":"ﾐｶｻｼ","kana_address":"ﾄｳﾏﾂｱｵﾔﾏﾁｮｳ","pref":"北海道","city":"三笠市","address":"唐松青山町"},
{"zip_code":"0682136","kana_pref":"ﾎｯｶｲﾄﾞｳ","kana_city":"ﾐｶｻｼ","kana_address":"ﾄｳﾏﾂｻｶｴﾁｮｳ","pref":"北海道","city":"三笠市","address":"唐松栄町"},
{"zip_code":"0682131","kana_pref":"ﾎｯｶｲﾄﾞｳ","kana_city":"ﾐｶｻｼ","kana_address":"ﾄｳﾏﾂｼｭﾝｺｳﾁｮｳ","pref":"北海道","city":"三笠市","address":"唐松春光町"},
{"zip_code":"0682134","kana_pref":"ﾎｯｶｲﾄﾞｳ","kana_city":"ﾐｶｻｼ","kana_address":"ﾄｳﾏﾂﾁﾖﾀﾞﾁｮｳ","pref":"北海道","city":"三笠市","address":"唐松千代田町"},
{"zip_code":"0682133","kana_pref":"ﾎｯｶｲﾄﾞｳ","kana_city":"ﾐｶｻｼ","kana_address":"ﾄｳﾏﾂﾄｷﾜﾁｮｳ","pref":"北海道","city":"三笠市","address":"唐松常盤町"},
{"zip_code":"0682132","kana_pref":"ﾎｯｶｲﾄﾞｳ","kana_city":"ﾐｶｻｼ","kana_address":"ﾄｳﾏﾂﾐﾄﾞﾘﾁｮｳ","pref":"北海道","city":"三笠市","address":"唐松緑町"},
{"zip_code":"0682135","kana_pref":"ﾎｯｶｲﾄﾞｳ","kana_city":"ﾐｶｻｼ","kana_address":"ﾄｳﾏﾂﾁｮｳ","pref":"北海道","city":"三笠市","address":"唐松町"},
{"zip_code":"0682102","kana_pref":"ﾎｯｶｲﾄﾞｳ","kana_city":"ﾐｶｻｼ","kana_address":"ﾆｼｶﾂﾗｻﾞﾜ","pref":"北海道","city":"三笠市","address":"西桂沢"},
{"zip_code":"0682104","kana_pref":"ﾎｯｶｲﾄﾞｳ","kana_city":"ﾐｶｻｼ","kana_address":"ﾋｶﾞｼｷﾖｽﾞﾐﾁｮｳ","pref":"北海道","city":"三笠市","address":"東清住町"},
{"zip_code":"0682146","kana_pref":"ﾎｯｶｲﾄﾞｳ","kana_city":"ﾐｶｻｼ","kana_address":"ﾎﾛﾅｲｶｽｶﾞﾁｮｳ","pref":"北海道","city":"三笠市","address":"幌内春日町"},
{"zip_code":"0682144","kana_pref":"ﾎｯｶｲﾄﾞｳ","kana_city":"ﾐｶｻｼ","kana_address":"ﾎﾛﾅｲｶﾅﾔﾁｮｳ","pref":"北海道","city":"三笠市","address":"幌内金谷町"},
{"zip_code":"0682147","kana_pref":"ﾎｯｶｲﾄﾞｳ","kana_city":"ﾐｶｻｼ","kana_address":"ﾎﾛﾅｲｼﾝｴｲﾁｮｳ","pref":"北海道","city":"三笠市","address":"幌内新栄町"},
{"zip_code":"0682142","kana_pref":"ﾎｯｶｲﾄﾞｳ","kana_city":"ﾐｶｻｼ","kana_address":"ﾎﾛﾅｲｽﾐﾖｼﾁｮｳ","pref":"北海道","city":"三笠市","address":"幌内住吉町"},
{"zip_code":"0682148","kana_pref":"ﾎｯｶｲﾄﾞｳ","kana_city":"ﾐｶｻｼ","kana_address":"ﾎﾛﾅｲﾊﾂﾈﾁｮｳ","pref":"北海道","city":"三笠市","address":"幌内初音町"},
{"zip_code":"0682143","kana_pref":"ﾎｯｶｲﾄﾞｳ","kana_city":"ﾐｶｻｼ","kana_address":"ﾎﾛﾅｲﾎｸｾｲﾁｮｳ","pref":"北海道","city":"三笠市","address":"幌内北星町"},
{"zip_code":"0682145","kana_pref":"ﾎｯｶｲﾄﾞｳ","kana_city":"ﾐｶｻｼ","kana_address":"ﾎﾛﾅｲﾁｮｳ","pref":"北海道","city":"三笠市","address":"幌内町"},
{"zip_code":"0682161","kana_pref":"ﾎｯｶｲﾄﾞｳ","kana_city":"ﾐｶｻｼ","kana_address":"ﾎﾝｺﾞｳﾁｮｳ","pref":"北海道","city":"三笠市","address":"本郷町"},
{"zip_code":"0682141","kana_pref":"ﾎｯｶｲﾄﾞｳ","kana_city":"ﾐｶｻｼ","kana_address":"ﾎﾝﾁｮｳ","pref":"北海道","city":"三笠市","address":"本町"},
{"zip_code":"0682103","kana_pref":"ﾎｯｶｲﾄﾞｳ","kana_city":"ﾐｶｻｼ","kana_address":"ﾎﾟﾝﾍﾞﾂｼﾝﾏﾁ","pref":"北海道","city":"三笠市","address":"奔別新町"},
{"zip_code":"0682106","kana_pref":"ﾎｯｶｲﾄﾞｳ","kana_city":"ﾐｶｻｼ","kana_address":"ﾐｿﾉﾁｮｳ","pref":"北海道","city":"三笠市","address":"美園町"},
{"zip_code":"0682156","kana_pref":"ﾎｯｶｲﾄﾞｳ","kana_city":"ﾐｶｻｼ","kana_address":"ﾐﾔﾓﾄﾁｮｳ","pref":"北海道","city":"三笠市","address":"宮本町"},
{"zip_code":"0682168","kana_pref":"ﾎｯｶｲﾄﾞｳ","kana_city":"ﾐｶｻｼ","kana_address":"ﾐﾜ","pref":"北海道","city":"三笠市","address":"美和"},
{"zip_code":"0682121","kana_pref":"ﾎｯｶｲﾄﾞｳ","kana_city":"ﾐｶｻｼ","kana_address":"ﾔﾖｲｻｸﾗｷﾞﾁｮｳ","pref":"北海道","city":"三笠市","address":"弥生桜木町"},
{"zip_code":"0682125","kana_pref":"ﾎｯｶｲﾄﾞｳ","kana_city":"ﾐｶｻｼ","kana_address":"ﾔﾖｲﾀﾁﾊﾞﾅﾁｮｳ","pref":"北海道","city":"三笠市","address":"弥生橘町"},
{"zip_code":"0682122","kana_pref":"ﾎｯｶｲﾄﾞｳ","kana_city":"ﾐｶｻｼ","kana_address":"ﾔﾖｲﾅﾐｷﾁｮｳ","pref":"北海道","city":"三笠市","address":"弥生並木町"},
{"zip_code":"0682124","kana_pref":"ﾎｯｶｲﾄﾞｳ","kana_city":"ﾐｶｻｼ","kana_address":"ﾔﾖｲﾊﾅｿﾞﾉﾁｮｳ","pref":"北海道","city":"三笠市","address":"弥生花園町"},
{"zip_code":"0682128","kana_pref":"ﾎｯｶｲﾄﾞｳ","kana_city":"ﾐｶｻｼ","kana_address":"ﾔﾖｲﾌｼﾞｴﾁｮｳ","pref":"北海道","city":"三笠市","address":"弥生藤枝町"},
{"zip_code":"0682123","kana_pref":"ﾎｯｶｲﾄﾞｳ","kana_city":"ﾐｶｻｼ","kana_address":"ﾔﾖｲﾓﾓﾔﾏﾁｮｳ","pref":"北海道","city":"三笠市","address":"弥生桃山町"},
{"zip_code":"0682127","kana_pref":"ﾎｯｶｲﾄﾞｳ","kana_city":"ﾐｶｻｼ","kana_address":"ﾔﾖｲﾔﾅｷﾞﾁｮｳ","pref":"北海道","city":"三笠市","address":"弥生柳町"},
{"zip_code":"0682126","kana_pref":"ﾎｯｶｲﾄﾞｳ","kana_city":"ﾐｶｻｼ","kana_address":"ﾔﾖｲﾁｮｳ","pref":"北海道","city":"三笠市","address":"弥生町"},
{"zip_code":"0682107","kana_pref":"ﾎｯｶｲﾄﾞｳ","kana_city":"ﾐｶｻｼ","kana_address":"ﾜｶｸｻﾁｮｳ","pref":"北海道","city":"三笠市","address":"若草町"},
{"zip_code":"0682157","kana_pref":"ﾎｯｶｲﾄﾞｳ","kana_city":"ﾐｶｻｼ","kana_address":"ﾜｶﾏﾂﾁｮｳ","pref":"北海道","city":"三笠市","address":"若松町"},
{"zip_code":"0681100","kana_pref":"ﾎｯｶｲﾄﾞｳ","kana_city":"ｲｼｶﾘｸﾞﾝｼﾝｼﾉﾂﾑﾗ","kana_address":"","pref":"北海道","city":"石狩郡新篠津村","address":""},
{"zip_code":"0681112","kana_pref":"ﾎｯｶｲﾄﾞｳ","kana_city":"ｲｼｶﾘｸﾞﾝｼﾝｼﾉﾂﾑﾗ","kana_address":"ｱｹﾎﾞﾉ","pref":"北海道","city":"石狩郡新篠津村","address":"あけぼの"},
{"zip_code":"0681102","kana_pref":"ﾎｯｶｲﾄﾞｳ","kana_city":"ｲｼｶﾘｸﾞﾝｼﾝｼﾉﾂﾑﾗ","kana_address":"ｲﾅﾎ","pref":"北海道","city":"石狩郡新篠津村","address":"いなほ"},
{"zip_code":"0681104","kana_pref":"ﾎｯｶｲﾄﾞｳ","kana_city":"ｲｼｶﾘｸﾞﾝｼﾝｼﾉﾂﾑﾗ","kana_address":"ｶﾂﾗ","pref":"北海道","city":"石狩郡新篠津村","address":"かつら"},
{"zip_code":"0681125","kana_pref":"ﾎｯｶｲﾄﾞｳ","kana_city":"ｲｼｶﾘｸﾞﾝｼﾝｼﾉﾂﾑﾗ","kana_address":"ｶﾐｼﾉﾂ","pref":"北海道","city":"石狩郡新篠津村","address":"上篠津"},
{"zip_code":"0681116","kana_pref":"ﾎｯｶｲﾄﾞｳ","kana_city":"ｲｼｶﾘｸﾞﾝｼﾝｼﾉﾂﾑﾗ","kana_address":"ｶﾐﾀｯﾌﾟ","pref":"北海道","city":"石狩郡新篠津村","address":"上達布"},
{"zip_code":"0681123","kana_pref":"ﾎｯｶｲﾄﾞｳ","kana_city":"ｲｼｶﾘｸﾞﾝｼﾝｼﾉﾂﾑﾗ","kana_address":"ｶﾜｶﾐ","pref":"北海道","city":"石狩郡新篠津村","address":"川上"},
{"zip_code":"0681152","kana_pref":"ﾎｯｶｲﾄﾞｳ","kana_city":"ｲｼｶﾘｸﾞﾝｼﾝｼﾉﾂﾑﾗ","kana_address":"ｶﾜｼﾓ","pref":"北海道","city":"石狩郡新篠津村","address":"川下"},
{"zip_code":"0681131","kana_pref":"ﾎｯｶｲﾄﾞｳ","kana_city":"ｲｼｶﾘｸﾞﾝｼﾝｼﾉﾂﾑﾗ","kana_address":"ｷｾﾝ","pref":"北海道","city":"石狩郡新篠津村","address":"基線"},
{"zip_code":"0681134","kana_pref":"ﾎｯｶｲﾄﾞｳ","kana_city":"ｲｼｶﾘｸﾞﾝｼﾝｼﾉﾂﾑﾗ","kana_address":"ｼｿｳ","pref":"北海道","city":"石狩郡新篠津村","address":"宍粟"},
{"zip_code":"0681136","kana_pref":"ﾎｯｶｲﾄﾞｳ","kana_city":"ｲｼｶﾘｸﾞﾝｼﾝｼﾉﾂﾑﾗ","kana_address":"ｼﾓﾀｯﾌﾟ","pref":"北海道","city":"石狩郡新篠津村","address":"下達布"},
{"zip_code":"0681142","kana_pref":"ﾎｯｶｲﾄﾞｳ","kana_city":"ｲｼｶﾘｸﾞﾝｼﾝｼﾉﾂﾑﾗ","kana_address":"ｼﾝｶﾊﾞ","pref":"北海道","city":"石狩郡新篠津村","address":"新樺"},
{"zip_code":"0681146","kana_pref":"ﾎｯｶｲﾄﾞｳ","kana_city":"ｲｼｶﾘｸﾞﾝｼﾝｼﾉﾂﾑﾗ","kana_address":"ｼﾝﾀｶｸﾗ","pref":"北海道","city":"石狩郡新篠津村","address":"新高倉"},
{"zip_code":"0681138","kana_pref":"ﾎｯｶｲﾄﾞｳ","kana_city":"ｲｼｶﾘｸﾞﾝｼﾝｼﾉﾂﾑﾗ","kana_address":"ｼﾝﾆｼｼﾉﾂ","pref":"北海道","city":"石狩郡新篠津村","address":"新西篠津"},
{"zip_code":"0681121","kana_pref":"ﾎｯｶｲﾄﾞｳ","kana_city":"ｲｼｶﾘｸﾞﾝｼﾝｼﾉﾂﾑﾗ","kana_address":"ｼﾝﾕｳ","pref":"北海道","city":"石狩郡新篠津村","address":"新湧"},
{"zip_code":"0681124","kana_pref":"ﾎｯｶｲﾄﾞｳ","kana_city":"ｲｼｶﾘｸﾞﾝｼﾝｼﾉﾂﾑﾗ","kana_address":"ﾀｶｸﾗ","pref":"北海道","city":"石狩郡新篠津村","address":"高倉"},
{"zip_code":"0681144","kana_pref":"ﾎｯｶｲﾄﾞｳ","kana_city":"ｲｼｶﾘｸﾞﾝｼﾝｼﾉﾂﾑﾗ","kana_address":"ﾀｸｼﾝ","pref":"北海道","city":"石狩郡新篠津村","address":"拓新"},
{"zip_code":"0681143","kana_pref":"ﾎｯｶｲﾄﾞｳ","kana_city":"ｲｼｶﾘｸﾞﾝｼﾝｼﾉﾂﾑﾗ","kana_address":"ﾀｹﾀﾞ","pref":"北海道","city":"石狩郡新篠津村","address":"武田"},
{"zip_code":"0681111","kana_pref":"ﾎｯｶｲﾄﾞｳ","kana_city":"ｲｼｶﾘｸﾞﾝｼﾝｼﾉﾂﾑﾗ","kana_address":"ﾄｳﾒｲ","pref":"北海道","city":"石狩郡新篠津村","address":"東明"},
{"zip_code":"0681126","kana_pref":"ﾎｯｶｲﾄﾞｳ","kana_city":"ｲｼｶﾘｸﾞﾝｼﾝｼﾉﾂﾑﾗ","kana_address":"ﾄﾖｶﾞｵｶ","pref":"北海道","city":"石狩郡新篠津村","address":"豊ケ丘"},
{"zip_code":"0681132","kana_pref":"ﾎｯｶｲﾄﾞｳ","kana_city":"ｲｼｶﾘｸﾞﾝｼﾝｼﾉﾂﾑﾗ","kana_address":"ﾄﾖﾉ","pref":"北海道","city":"石狩郡新篠津村","address":"豊野"},
{"zip_code":"0681137","kana_pref":"ﾎｯｶｲﾄﾞｳ","kana_city":"ｲｼｶﾘｸﾞﾝｼﾝｼﾉﾂﾑﾗ","kana_address":"ﾅｶｼﾉﾂ","pref":"北海道","city":"石狩郡新篠津村","address":"中篠津"},
{"zip_code":"0681153","kana_pref":"ﾎｯｶｲﾄﾞｳ","kana_city":"ｲｼｶﾘｸﾞﾝｼﾝｼﾉﾂﾑﾗ","kana_address":"ﾅｶﾊﾗ","pref":"北海道","city":"石狩郡新篠津村","address":"中原"},
{"zip_code":"0681141","kana_pref":"ﾎｯｶｲﾄﾞｳ","kana_city":"ｲｼｶﾘｸﾞﾝｼﾝｼﾉﾂﾑﾗ","kana_address":"ﾆｼｼﾉﾂ","pref":"北海道","city":"石狩郡新篠津村","address":"西篠津"},
{"zip_code":"0681145","kana_pref":"ﾎｯｶｲﾄﾞｳ","kana_city":"ｲｼｶﾘｸﾞﾝｼﾝｼﾉﾂﾑﾗ","kana_address":"ﾆｼﾀｶｸﾗ","pref":"北海道","city":"石狩郡新篠津村","address":"西高倉"},
{"zip_code":"0681103","kana_pref":"ﾎｯｶｲﾄﾞｳ","kana_city":"ｲｼｶﾘｸﾞﾝｼﾝｼﾉﾂﾑﾗ","kana_address":"ﾆｼﾉｻﾄ","pref":"北海道","city":"石狩郡新篠津村","address":"西の里"},
{"zip_code":"0681151","kana_pref":"ﾎｯｶｲﾄﾞｳ","kana_city":"ｲｼｶﾘｸﾞﾝｼﾝｼﾉﾂﾑﾗ","kana_address":"ﾆｼﾊﾗ","pref":"北海道","city":"石狩郡新篠津村","address":"西原"},
{"zip_code":"0681127","kana_pref":"ﾎｯｶｲﾄﾞｳ","kana_city":"ｲｼｶﾘｸﾞﾝｼﾝｼﾉﾂﾑﾗ","kana_address":"ﾇﾏﾉﾊﾀ","pref":"北海道","city":"石狩郡新篠津村","address":"沼之端"},
{"zip_code":"0681135","kana_pref":"ﾎｯｶｲﾄﾞｳ","kana_city":"ｲｼｶﾘｸﾞﾝｼﾝｼﾉﾂﾑﾗ","kana_address":"ﾌｸﾛﾀｯﾌﾟ","pref":"北海道","city":"石狩郡新篠津村","address":"袋達布"},
{"zip_code":"0681113","kana_pref":"ﾎｯｶｲﾄﾞｳ","kana_city":"ｲｼｶﾘｸﾞﾝｼﾝｼﾉﾂﾑﾗ","kana_address":"ﾌﾗﾜ","pref":"北海道","city":"石狩郡新篠津村","address":"ふらわ"},
{"zip_code":"0681133","kana_pref":"ﾎｯｶｲﾄﾞｳ","kana_city":"ｲｼｶﾘｸﾞﾝｼﾝｼﾉﾂﾑﾗ","kana_address":"ﾍｲｱﾝ","pref":"北海道","city":"石狩郡新篠津村","address":"平安"},
{"zip_code":"0681122","kana_pref":"ﾎｯｶｲﾄﾞｳ","kana_city":"ｲｼｶﾘｸﾞﾝｼﾝｼﾉﾂﾑﾗ","kana_address":"ﾎｸｼﾝ","pref":"北海道","city":"石狩郡新篠津村","address":"北新"},
{"zip_code":"0681115","kana_pref":"ﾎｯｶｲﾄﾞｳ","kana_city":"ｲｼｶﾘｸﾞﾝｼﾝｼﾉﾂﾑﾗ","kana_address":"ﾐｽﾞﾎ","pref":"北海道","city":"石狩郡新篠津村","address":"みずほ"},
{"zip_code":"0681114","kana_pref":"ﾎｯｶｲﾄﾞｳ","kana_city":"ｲｼｶﾘｸﾞﾝｼﾝｼﾉﾂﾑﾗ","kana_address":"ﾐﾅﾐｶﾞｵｶ","pref":"北海道","city":"石狩郡新篠津村","address":"南ケ丘"},
{"zip_code":"0681105","kana_pref":"ﾎｯｶｲﾄﾞｳ","kana_city":"ｲｼｶﾘｸﾞﾝｼﾝｼﾉﾂﾑﾗ","kana_address":"ﾐﾉﾘ","pref":"北海道","city":"石狩郡新篠津村","address":"みのり"},
{"zip_code":"0681101","kana_pref":"ﾎｯｶｲﾄﾞｳ","kana_city":"ｲｼｶﾘｸﾞﾝｼﾝｼﾉﾂﾑﾗ","kana_address":"ﾓｴﾃﾞ","pref":"北海道","city":"石狩郡新篠津村","address":"萌出"},
{"zip_code":"0680351","kana_pref":"ﾎｯｶｲﾄﾞｳ","kana_city":"ﾕｳﾊﾞﾘｸﾞﾝｸﾘﾔﾏﾁｮｳ","kana_address":"ｱﾉﾛ","pref":"北海道","city":"夕張郡栗山町","address":"阿野呂"},
{"zip_code":"0680352","kana_pref":"ﾎｯｶｲﾄﾞｳ","kana_city":"ﾕｳﾊﾞﾘｸﾞﾝｸﾘﾔﾏﾁｮｳ","kana_address":"ｵｵｲﾜｹ","pref":"北海道","city":"夕張郡栗山町","address":"大井分"},
{"zip_code":"0680358","kana_pref":"ﾎｯｶｲﾄﾞｳ","kana_city":"ﾕｳﾊﾞﾘｸﾞﾝｸﾘﾔﾏﾁｮｳ","kana_address":"ｻｸﾗﾔﾏ","pref":"北海道","city":"夕張郡栗山町","address":"桜山"},
{"zip_code":"0680361","kana_pref":"ﾎｯｶｲﾄﾞｳ","kana_city":"ﾕｳﾊﾞﾘｸﾞﾝｸﾘﾔﾏﾁｮｳ","kana_address":"ﾀｷｼﾀ","pref":"北海道","city":"夕張郡栗山町","address":"滝下"},
{"zip_code":"0680353","kana_pref":"ﾎｯｶｲﾄﾞｳ","kana_city":"ﾕｳﾊﾞﾘｸﾞﾝｸﾘﾔﾏﾁｮｳ","kana_address":"ﾂｷﾞﾀﾃ","pref":"北海道","city":"夕張郡栗山町","address":"継立"},
{"zip_code":"0680354","kana_pref":"ﾎｯｶｲﾄﾞｳ","kana_city":"ﾕｳﾊﾞﾘｸﾞﾝｸﾘﾔﾏﾁｮｳ","kana_address":"ﾋﾉﾃﾞ","pref":"北海道","city":"夕張郡栗山町","address":"日出"},
{"zip_code":"0680362","kana_pref":"ﾎｯｶｲﾄﾞｳ","kana_city":"ﾕｳﾊﾞﾘｸﾞﾝｸﾘﾔﾏﾁｮｳ","kana_address":"ﾏﾙﾔﾏ","pref":"北海道","city":"夕張郡栗山町","address":"円山"},
{"zip_code":"0680363","kana_pref":"ﾎｯｶｲﾄﾞｳ","kana_city":"ﾕｳﾊﾞﾘｸﾞﾝｸﾘﾔﾏﾁｮｳ","kana_address":"ﾏﾙﾔﾏﾋｶﾞｼﾔﾏ","pref":"北海道","city":"夕張郡栗山町","address":"円山東山"},
{"zip_code":"0680355","kana_pref":"ﾎｯｶｲﾄﾞｳ","kana_city":"ﾕｳﾊﾞﾘｸﾞﾝｸﾘﾔﾏﾁｮｳ","kana_address":"ﾐｿﾉ","pref":"北海道","city":"夕張郡栗山町","address":"御園"},
{"zip_code":"0680356","kana_pref":"ﾎｯｶｲﾄﾞｳ","kana_city":"ﾕｳﾊﾞﾘｸﾞﾝｸﾘﾔﾏﾁｮｳ","kana_address":"ﾐﾅﾐｶｸﾀ","pref":"北海道","city":"夕張郡栗山町","address":"南角田"},
{"zip_code":"0680357","kana_pref":"ﾎｯｶｲﾄﾞｳ","kana_city":"ﾕｳﾊﾞﾘｸﾞﾝｸﾘﾔﾏﾁｮｳ","kana_address":"ﾐﾅﾐｶﾞｸﾃﾞﾝ","pref":"北海道","city":"夕張郡栗山町","address":"南学田"},
{"zip_code":"0681231","kana_pref":"ﾎｯｶｲﾄﾞｳ","kana_city":"ｶﾊﾞﾄｸﾞﾝﾂｷｶﾞﾀﾁｮｳ","kana_address":"ｶﾘｻﾄ","pref":"北海道","city":"樺戸郡月形町","address":"雁里"}]}