{"zip_code":[
{"zip_code":"0690384","kana_pref":"ﾎｯｶｲﾄﾞｳ","kana_city":"ｲﾜﾐｻﾞﾜｼ","kana_address":"ｵﾁｬﾉﾐｽﾞﾁｮｳ","pref":"北海道","city":"岩見沢市","address":"御茶の水町"},
{"zip_code":"0690361","kana_pref":"ﾎｯｶｲﾄﾞｳ","kana_city":"ｲﾜﾐｻﾞﾜｼ","kana_address":"ｶﾐﾎﾛﾑｲｷﾀ1ｼﾞｮｳ","pref":"北海道","city":"岩見沢市","address":"上幌向北一条"},
{"zip_code":"0690362","kana_pref":"ﾎｯｶｲﾄﾞｳ","kana_city":"ｲﾜﾐｻﾞﾜｼ","kana_address":"ｶﾐﾎﾛﾑｲﾐﾅﾐ1ｼﾞｮｳ","pref":"北海道","city":"岩見沢市","address":"上幌向南一条"},
{"zip_code":"0690363","kana_pref":"ﾎｯｶｲﾄﾞｳ","kana_city":"ｲﾜﾐｻﾞﾜｼ","kana_address":"ｶﾐﾎﾛﾑｲﾐﾅﾐ2ｼﾞｮｳ","pref":"北海道","city":"岩見沢市","address":"上幌向南二条"},
{"zip_code":"0690364","kana_pref":"ﾎｯｶｲﾄﾞｳ","kana_city":"ｲﾜﾐｻﾞﾜｼ","kana_address":"ｶﾐﾎﾛﾑｲﾐﾅﾐ3ｼﾞｮｳ","pref":"北海道","city":"岩見沢市","address":"上幌向南三条"},
{"zip_code":"0690365","kana_pref":"ﾎｯｶｲﾄﾞｳ","kana_city":"ｲﾜﾐｻﾞﾜｼ","kana_address":"ｶﾐﾎﾛﾑｲﾁｮｳ","pref":"北海道","city":"岩見沢市","address":"上幌向町"},
{"zip_code":"0690351","kana_pref":"ﾎｯｶｲﾄﾞｳ","kana_city":"ｲﾜﾐｻﾞﾜｼ","kana_address":"ｷﾀﾑﾗｽﾅﾊﾏ","pref":"北海道","city":"岩見沢市","address":"北村砂浜"},
{"zip_code":"0690376","kana_pref":"ﾎｯｶｲﾄﾞｳ","kana_city":"ｲﾜﾐｻﾞﾜｼ","kana_address":"ﾅｶﾎﾛﾑｲﾁｮｳ","pref":"北海道","city":"岩見沢市","address":"中幌向町"},
{"zip_code":"0690366","kana_pref":"ﾎｯｶｲﾄﾞｳ","kana_city":"ｲﾜﾐｻﾞﾜｼ","kana_address":"ﾌﾀﾊﾞﾁｮｳ","pref":"北海道","city":"岩見沢市","address":"双葉町"},
{"zip_code":"0690381","kana_pref":"ﾎｯｶｲﾄﾞｳ","kana_city":"ｲﾜﾐｻﾞﾜｼ","kana_address":"ﾎﾛﾑｲｷﾀ1ｼﾞｮｳ","pref":"北海道","city":"岩見沢市","address":"幌向北一条"},
{"zip_code":"0690382","kana_pref":"ﾎｯｶｲﾄﾞｳ","kana_city":"ｲﾜﾐｻﾞﾜｼ","kana_address":"ﾎﾛﾑｲｷﾀ2ｼﾞｮｳ","pref":"北海道","city":"岩見沢市","address":"幌向北二条"},
{"zip_code":"0690371","kana_pref":"ﾎｯｶｲﾄﾞｳ","kana_city":"ｲﾜﾐｻﾞﾜｼ","kana_address":"ﾎﾛﾑｲﾐﾅﾐ1ｼﾞｮｳ","pref":"北海道","city":"岩見沢市","address":"幌向南一条"},
{"zip_code":"0690372","kana_pref":"ﾎｯｶｲﾄﾞｳ","kana_city":"ｲﾜﾐｻﾞﾜｼ","kana_address":"ﾎﾛﾑｲﾐﾅﾐ2ｼﾞｮｳ","pref":"北海道","city":"岩見沢市","address":"幌向南二条"},
{"zip_code":"0690373","kana_pref":"ﾎｯｶｲﾄﾞｳ","kana_city":"ｲﾜﾐｻﾞﾜｼ","kana_address":"ﾎﾛﾑｲﾐﾅﾐ3ｼﾞｮｳ","pref":"北海道","city":"岩見沢市","address":"幌向南三条"},
{"zip_code":"0690374","kana_pref":"ﾎｯｶｲﾄﾞｳ","kana_city":"ｲﾜﾐｻﾞﾜｼ","kana_address":"ﾎﾛﾑｲﾐﾅﾐ4ｼﾞｮｳ","pref":"北海道","city":"岩見沢市","address":"幌向南四条"},
{"zip_code":"0690375","kana_pref":"ﾎｯｶｲﾄﾞｳ","kana_city":"ｲﾜﾐｻﾞﾜｼ","kana_address":"ﾎﾛﾑｲﾐﾅﾐ5ｼﾞｮｳ","pref":"北海道","city":"岩見沢市","address":"幌向南五条"},
{"zip_code":"0690383","kana_pref":"ﾎｯｶｲﾄﾞｳ","kana_city":"ｲﾜﾐｻﾞﾜｼ","kana_address":"ﾎﾛﾑｲﾁｮｳ","pref":"北海道","city":"岩見沢市","address":"幌向町"},
{"zip_code":"0690826","kana_pref":"ﾎｯｶｲﾄﾞｳ","kana_city":"ｴﾍﾞﾂｼ","kana_address":"ｱｻﾋｶﾞｵｶ","pref":"北海道","city":"江別市","address":"あさひが丘"},
{"zip_code":"0690845","kana_pref":"ﾎｯｶｲﾄﾞｳ","kana_city":"ｴﾍﾞﾂｼ","kana_address":"ｵｵｱｻ","pref":"北海道","city":"江別市","address":"大麻"},
{"zip_code":"0690864","kana_pref":"ﾎｯｶｲﾄﾞｳ","kana_city":"ｴﾍﾞﾂｼ","kana_address":"ｵｵｱｻｲｽﾞﾐﾁｮｳ","pref":"北海道","city":"江別市","address":"大麻泉町"},
{"zip_code":"0690843","kana_pref":"ﾎｯｶｲﾄﾞｳ","kana_city":"ｴﾍﾞﾂｼ","kana_address":"ｵｵｱｻｵｳｷﾞﾏﾁ","pref":"北海道","city":"江別市","address":"大麻扇町"},
{"zip_code":"0690861","kana_pref":"ﾎｯｶｲﾄﾞｳ","kana_city":"ｴﾍﾞﾂｼ","kana_address":"ｵｵｱｻｷﾀﾏﾁ","pref":"北海道","city":"江別市","address":"大麻北町"},
{"zip_code":"0690862","kana_pref":"ﾎｯｶｲﾄﾞｳ","kana_city":"ｴﾍﾞﾂｼ","kana_address":"ｵｵｱｻｻｶｴﾏﾁ","pref":"北海道","city":"江別市","address":"大麻栄町"},
{"zip_code":"0690846","kana_pref":"ﾎｯｶｲﾄﾞｳ","kana_city":"ｴﾍﾞﾂｼ","kana_address":"ｵｵｱｻｻｸﾗｷﾞﾁｮｳ","pref":"北海道","city":"江別市","address":"大麻桜木町"},
{"zip_code":"0690842","kana_pref":"ﾎｯｶｲﾄﾞｳ","kana_city":"ｴﾍﾞﾂｼ","kana_address":"ｵｵｱｻｻﾜﾏﾁ","pref":"北海道","city":"江別市","address":"大麻沢町"},
{"zip_code":"0690863","kana_pref":"ﾎｯｶｲﾄﾞｳ","kana_city":"ｴﾍﾞﾂｼ","kana_address":"ｵｵｱｻｼﾝﾏﾁ","pref":"北海道","city":"江別市","address":"大麻新町"},
{"zip_code":"0690851","kana_pref":"ﾎｯｶｲﾄﾞｳ","kana_city":"ｴﾍﾞﾂｼ","kana_address":"ｵｵｱｻｿﾉﾏﾁ","pref":"北海道","city":"江別市","address":"大麻園町"},
{"zip_code":"0690853","kana_pref":"ﾎｯｶｲﾄﾞｳ","kana_city":"ｴﾍﾞﾂｼ","kana_address":"ｵｵｱｻﾀｶﾏﾁ","pref":"北海道","city":"江別市","address":"大麻高町"},
{"zip_code":"0690854","kana_pref":"ﾎｯｶｲﾄﾞｳ","kana_city":"ｴﾍﾞﾂｼ","kana_address":"ｵｵｱｻﾅｶﾏﾁ","pref":"北海道","city":"江別市","address":"大麻中町"},
{"zip_code":"0690844","kana_pref":"ﾎｯｶｲﾄﾞｳ","kana_city":"ｴﾍﾞﾂｼ","kana_address":"ｵｵｱｻﾆｼﾏﾁ","pref":"北海道","city":"江別市","address":"大麻西町"},
{"zip_code":"0690866","kana_pref":"ﾎｯｶｲﾄﾞｳ","kana_city":"ｴﾍﾞﾂｼ","kana_address":"ｵｵｱｻﾊﾙﾐﾁｮｳ","pref":"北海道","city":"江別市","address":"大麻晴美町"},
{"zip_code":"0690852","kana_pref":"ﾎｯｶｲﾄﾞｳ","kana_city":"ｴﾍﾞﾂｼ","kana_address":"ｵｵｱｻﾋｶﾞｼﾏﾁ","pref":"北海道","city":"江別市","address":"大麻東町"},
{"zip_code":"0690847","kana_pref":"ﾎｯｶｲﾄﾞｳ","kana_city":"ｴﾍﾞﾂｼ","kana_address":"ｵｵｱｻﾋｶﾘﾏﾁ","pref":"北海道","city":"江別市","address":"大麻ひかり町"},
{"zip_code":"0690865","kana_pref":"ﾎｯｶｲﾄﾞｳ","kana_city":"ｴﾍﾞﾂｼ","kana_address":"ｵｵｱｻﾐﾅｷﾁｮｳ","pref":"北海道","city":"江別市","address":"大麻南樹町"},
{"zip_code":"0690855","kana_pref":"ﾎｯｶｲﾄﾞｳ","kana_city":"ｴﾍﾞﾂｼ","kana_address":"ｵｵｱｻﾐﾔﾏﾁ","pref":"北海道","city":"江別市","address":"大麻宮町"},
{"zip_code":"0690841","kana_pref":"ﾎｯｶｲﾄﾞｳ","kana_city":"ｴﾍﾞﾂｼ","kana_address":"ｵｵｱｻﾓﾄﾏﾁ","pref":"北海道","city":"江別市","address":"大麻元町"},
{"zip_code":"0690812","kana_pref":"ﾎｯｶｲﾄﾞｳ","kana_city":"ｴﾍﾞﾂｼ","kana_address":"ｻｲﾜｲﾁｮｳ","pref":"北海道","city":"江別市","address":"幸町"},
{"zip_code":"0690806","kana_pref":"ﾎｯｶｲﾄﾞｳ","kana_city":"ｴﾍﾞﾂｼ","kana_address":"ｼﾝｴｲﾀﾞｲ","pref":"北海道","city":"江別市","address":"新栄台"},
{"zip_code":"0690801","kana_pref":"ﾎｯｶｲﾄﾞｳ","kana_city":"ｴﾍﾞﾂｼ","kana_address":"ﾁｭｳｵｳﾁｮｳ","pref":"北海道","city":"江別市","address":"中央町"},
{"zip_code":"0690811","kana_pref":"ﾎｯｶｲﾄﾞｳ","kana_city":"ｴﾍﾞﾂｼ","kana_address":"ﾆｼｷﾁｮｳ","pref":"北海道","city":"江別市","address":"錦町"},
{"zip_code":"0690832","kana_pref":"ﾎｯｶｲﾄﾞｳ","kana_city":"ｴﾍﾞﾂｼ","kana_address":"ﾆｼﾉｯﾎﾟﾛ","pref":"北海道","city":"江別市","address":"西野幌"},
{"zip_code":"0690802","kana_pref":"ﾎｯｶｲﾄﾞｳ","kana_city":"ｴﾍﾞﾂｼ","kana_address":"ﾉｯﾎﾟﾛｺﾄﾌﾞｷﾁｮｳ","pref":"北海道","city":"江別市","address":"野幌寿町"},
{"zip_code":"0690815","kana_pref":"ﾎｯｶｲﾄﾞｳ","kana_city":"ｴﾍﾞﾂｼ","kana_address":"ﾉｯﾎﾟﾛｽｴﾋﾛﾁｮｳ","pref":"北海道","city":"江別市","address":"野幌末広町"},
{"zip_code":"0690816","kana_pref":"ﾎｯｶｲﾄﾞｳ","kana_city":"ｴﾍﾞﾂｼ","kana_address":"ﾉｯﾎﾟﾛｽﾐﾖｼﾁｮｳ","pref":"北海道","city":"江別市","address":"野幌住吉町"},
{"zip_code":"0690803","kana_pref":"ﾎｯｶｲﾄﾞｳ","kana_city":"ｴﾍﾞﾂｼ","kana_address":"ﾉｯﾎﾟﾛﾄﾝﾃﾞﾝﾁｮｳ","pref":"北海道","city":"江別市","address":"野幌屯田町"},
{"zip_code":"0690825","kana_pref":"ﾎｯｶｲﾄﾞｳ","kana_city":"ｴﾍﾞﾂｼ","kana_address":"ﾉｯﾎﾟﾛﾋｶﾞｼﾏﾁ","pref":"北海道","city":"江別市","address":"野幌東町"},
{"zip_code":"0690814","kana_pref":"ﾎｯｶｲﾄﾞｳ","kana_city":"ｴﾍﾞﾂｼ","kana_address":"ﾉｯﾎﾟﾛﾏﾂﾅﾐﾁｮｳ","pref":"北海道","city":"江別市","address":"野幌松並町"},
{"zip_code":"0690804","kana_pref":"ﾎｯｶｲﾄﾞｳ","kana_city":"ｴﾍﾞﾂｼ","kana_address":"ﾉｯﾎﾟﾛﾐﾕｷﾁｮｳ","pref":"北海道","city":"江別市","address":"野幌美幸町"},
{"zip_code":"0690817","kana_pref":"ﾎｯｶｲﾄﾞｳ","kana_city":"ｴﾍﾞﾂｼ","kana_address":"ﾉｯﾎﾟﾛﾖﾖｷﾞﾁｮｳ","pref":"北海道","city":"江別市","address":"野幌代々木町"},
{"zip_code":"0690831","kana_pref":"ﾎｯｶｲﾄﾞｳ","kana_city":"ｴﾍﾞﾂｼ","kana_address":"ﾉｯﾎﾟﾛﾜｶﾊﾞﾁｮｳ","pref":"北海道","city":"江別市","address":"野幌若葉町"},
{"zip_code":"0690813","kana_pref":"ﾎｯｶｲﾄﾞｳ","kana_city":"ｴﾍﾞﾂｼ","kana_address":"ﾉｯﾎﾟﾛﾁｮｳ","pref":"北海道","city":"江別市","address":"野幌町"},
{"zip_code":"0690822","kana_pref":"ﾎｯｶｲﾄﾞｳ","kana_city":"ｴﾍﾞﾂｼ","kana_address":"ﾋｶﾞｼﾉｯﾎﾟﾛ","pref":"北海道","city":"江別市","address":"東野幌"},
{"zip_code":"0690821","kana_pref":"ﾎｯｶｲﾄﾞｳ","kana_city":"ｴﾍﾞﾂｼ","kana_address":"ﾋｶﾞｼﾉｯﾎﾟﾛﾁｮｳ","pref":"北海道","city":"江別市","address":"東野幌町"},
{"zip_code":"0690824","kana_pref":"ﾎｯｶｲﾄﾞｳ","kana_city":"ｴﾍﾞﾂｼ","kana_address":"ﾋｶﾞｼﾉｯﾎﾟﾛﾎﾝﾁｮｳ","pref":"北海道","city":"江別市","address":"東野幌本町"},
{"zip_code":"0690833","kana_pref":"ﾎｯｶｲﾄﾞｳ","kana_city":"ｴﾍﾞﾂｼ","kana_address":"ﾌﾞﾝｷｮｳﾀﾞｲ","pref":"北海道","city":"江別市","address":"文京台"},
{"zip_code":"0690834","kana_pref":"ﾎｯｶｲﾄﾞｳ","kana_city":"ｴﾍﾞﾂｼ","kana_address":"ﾌﾞﾝｷｮｳﾀﾞｲﾋｶﾞｼﾏﾁ","pref":"北海道","city":"江別市","address":"文京台東町"},
{"zip_code":"0690836","kana_pref":"ﾎｯｶｲﾄﾞｳ","kana_city":"ｴﾍﾞﾂｼ","kana_address":"ﾌﾞﾝｷｮｳﾀﾞｲﾐﾄﾞﾘﾏﾁ","pref":"北海道","city":"江別市","address":"文京台緑町"},
{"zip_code":"0690835","kana_pref":"ﾎｯｶｲﾄﾞｳ","kana_city":"ｴﾍﾞﾂｼ","kana_address":"ﾌﾞﾝｷｮｳﾀﾞｲﾐﾅﾐﾏﾁ","pref":"北海道","city":"江別市","address":"文京台南町"},
{"zip_code":"0690823","kana_pref":"ﾎｯｶｲﾄﾞｳ","kana_city":"ｴﾍﾞﾂｼ","kana_address":"ﾐﾄﾞﾘｶﾞｵｶ","pref":"北海道","city":"江別市","address":"緑ケ丘"},
{"zip_code":"0690867","kana_pref":"ﾎｯｶｲﾄﾞｳ","kana_city":"ｴﾍﾞﾂｼ","kana_address":"ﾓﾄﾉｯﾎﾟﾛ","pref":"北海道","city":"江別市","address":"元野幌"},
{"zip_code":"0690805","kana_pref":"ﾎｯｶｲﾄﾞｳ","kana_city":"ｴﾍﾞﾂｼ","kana_address":"ﾓﾄﾉｯﾎﾟﾛ","pref":"北海道","city":"江別市","address":"元野幌"},
{"zip_code":"0691182","kana_pref":"ﾎｯｶｲﾄﾞｳ","kana_city":"ﾁﾄｾｼ","kana_address":"ｷｮｳﾜ","pref":"北海道","city":"千歳市","address":"協和"},
{"zip_code":"0691184","kana_pref":"ﾎｯｶｲﾄﾞｳ","kana_city":"ﾁﾄｾｼ","kana_address":"ﾆｲｶﾜ","pref":"北海道","city":"千歳市","address":"新川"},
{"zip_code":"0691181","kana_pref":"ﾎｯｶｲﾄﾞｳ","kana_city":"ﾁﾄｾｼ","kana_address":"ﾋｶﾞｼｵｶ","pref":"北海道","city":"千歳市","address":"東丘"},
{"zip_code":"0691183","kana_pref":"ﾎｯｶｲﾄﾞｳ","kana_city":"ﾁﾄｾｼ","kana_address":"ﾎﾛｶ","pref":"北海道","city":"千歳市","address":"幌加"},
{"zip_code":"0690200","kana_pref":"ﾎｯｶｲﾄﾞｳ","kana_city":"ｿﾗﾁｸﾞﾝﾅﾝﾎﾟﾛﾁｮｳ","kana_address":"","pref":"北海道","city":"空知郡南幌町","address":""},
{"zip_code":"0690239","kana_pref":"ﾎｯｶｲﾄﾞｳ","kana_city":"ｿﾗﾁｸﾞﾝﾅﾝﾎﾟﾛﾁｮｳ","kana_address":"ｲﾅﾎ","pref":"北海道","city":"空知郡南幌町","address":"稲穂"},
{"zip_code":"0690231","kana_pref":"ﾎｯｶｲﾄﾞｳ","kana_city":"ｿﾗﾁｸﾞﾝﾅﾝﾎﾟﾛﾁｮｳ","kana_address":"ｷﾀﾏﾁ","pref":"北海道","city":"空知郡南幌町","address":"北町"},
{"zip_code":"0690237","kana_pref":"ﾎｯｶｲﾄﾞｳ","kana_city":"ｿﾗﾁｸﾞﾝﾅﾝﾎﾟﾛﾁｮｳ","kana_address":"ｻｶｴﾏﾁ","pref":"北海道","city":"空知郡南幌町","address":"栄町"},
{"zip_code":"0690235","kana_pref":"ﾎｯｶｲﾄﾞｳ","kana_city":"ｿﾗﾁｸﾞﾝﾅﾝﾎﾟﾛﾁｮｳ","kana_address":"ﾁｭｳｵｳ","pref":"北海道","city":"空知郡南幌町","address":"中央"},
{"zip_code":"0690236","kana_pref":"ﾎｯｶｲﾄﾞｳ","kana_city":"ｿﾗﾁｸﾞﾝﾅﾝﾎﾟﾛﾁｮｳ","kana_address":"ﾆｼﾏﾁ","pref":"北海道","city":"空知郡南幌町","address":"西町"},
{"zip_code":"0690233","kana_pref":"ﾎｯｶｲﾄﾞｳ","kana_city":"ｿﾗﾁｸﾞﾝﾅﾝﾎﾟﾛﾁｮｳ","kana_address":"ﾋｶﾞｼﾏﾁ","pref":"北海道","city":"空知郡南幌町","address":"東町"},
{"zip_code":"0690234","kana_pref":"ﾎｯｶｲﾄﾞｳ","kana_city":"ｿﾗﾁｸﾞﾝﾅﾝﾎﾟﾛﾁｮｳ","kana_address":"ﾐｿﾉ","pref":"北海道","city":"空知郡南幌町","address":"美園"},
{"zip_code":"0690232","kana_pref":"ﾎｯｶｲﾄﾞｳ","kana_city":"ｿﾗﾁｸﾞﾝﾅﾝﾎﾟﾛﾁｮｳ","kana_address":"ﾐﾄﾞﾘﾏﾁ","pref":"北海道","city":"空知郡南幌町","address":"緑町"},
{"zip_code":"0690207","kana_pref":"ﾎｯｶｲﾄﾞｳ","kana_city":"ｿﾗﾁｸﾞﾝﾅﾝﾎﾟﾛﾁｮｳ","kana_address":"ﾐﾅﾐ7ｾﾝﾆｼ","pref":"北海道","city":"空知郡南幌町","address":"南７線西"},
{"zip_code":"0690208","kana_pref":"ﾎｯｶｲﾄﾞｳ","kana_city":"ｿﾗﾁｸﾞﾝﾅﾝﾎﾟﾛﾁｮｳ","kana_address":"ﾐﾅﾐ8ｾﾝﾆｼ","pref":"北海道","city":"空知郡南幌町","address":"南８線西"},
{"zip_code":"0690209","kana_pref":"ﾎｯｶｲﾄﾞｳ","kana_city":"ｿﾗﾁｸﾞﾝﾅﾝﾎﾟﾛﾁｮｳ","kana_address":"ﾐﾅﾐ9ｾﾝﾆｼ","pref":"北海道","city":"空知郡南幌町","address":"南９線西"},
{"zip_code":"0690210","kana_pref":"ﾎｯｶｲﾄﾞｳ","kana_city":"ｿﾗﾁｸﾞﾝﾅﾝﾎﾟﾛﾁｮｳ","kana_address":"ﾐﾅﾐ10ｾﾝﾆｼ","pref":"北海道","city":"空知郡南幌町","address":"南１０線西"},
{"zip_code":"0690211","kana_pref":"ﾎｯｶｲﾄﾞｳ","kana_city":"ｿﾗﾁｸﾞﾝﾅﾝﾎﾟﾛﾁｮｳ","kana_address":"ﾐﾅﾐ11ｾﾝﾆｼ","pref":"北海道","city":"空知郡南幌町","address":"南１１線西"},
{"zip_code":"0690212","kana_pref":"ﾎｯｶｲﾄﾞｳ","kana_city":"ｿﾗﾁｸﾞﾝﾅﾝﾎﾟﾛﾁｮｳ","kana_address":"ﾐﾅﾐ12ｾﾝﾆｼ","pref":"北海道","city":"空知郡南幌町","address":"南１２線西"},
{"zip_code":"0690213","kana_pref":"ﾎｯｶｲﾄﾞｳ","kana_city":"ｿﾗﾁｸﾞﾝﾅﾝﾎﾟﾛﾁｮｳ","kana_address":"ﾐﾅﾐ13ｾﾝﾆｼ","pref":"北海道","city":"空知郡南幌町","address":"南１３線西"},
{"zip_code":"0690214","kana_pref":"ﾎｯｶｲﾄﾞｳ","kana_city":"ｿﾗﾁｸﾞﾝﾅﾝﾎﾟﾛﾁｮｳ","kana_address":"ﾐﾅﾐ14ｾﾝﾆｼ","pref":"北海道","city":"空知郡南幌町","address":"南１４線西"},
{"zip_code":"0690215","kana_pref":"ﾎｯｶｲﾄﾞｳ","kana_city":"ｿﾗﾁｸﾞﾝﾅﾝﾎﾟﾛﾁｮｳ","kana_address":"ﾐﾅﾐ15ｾﾝﾆｼ","pref":"北海道","city":"空知郡南幌町","address":"南１５線西"},
{"zip_code":"0690216","kana_pref":"ﾎｯｶｲﾄﾞｳ","kana_city":"ｿﾗﾁｸﾞﾝﾅﾝﾎﾟﾛﾁｮｳ","kana_address":"ﾐﾅﾐ16ｾﾝﾆｼ","pref":"北海道","city":"空知郡南幌町","address":"南１６線西"},
{"zip_code":"0690217","kana_pref":"ﾎｯｶｲﾄﾞｳ","kana_city":"ｿﾗﾁｸﾞﾝﾅﾝﾎﾟﾛﾁｮｳ","kana_address":"ﾐﾅﾐ17ｾﾝﾆｼ","pref":"北海道","city":"空知郡南幌町","address":"南１７線西"},
{"zip_code":"0690218","kana_pref":"ﾎｯｶｲﾄﾞｳ","kana_city":"ｿﾗﾁｸﾞﾝﾅﾝﾎﾟﾛﾁｮｳ","kana_address":"ﾐﾅﾐ18ｾﾝﾆｼ","pref":"北海道","city":"空知郡南幌町","address":"南１８線西"},
{"zip_code":"0690219","kana_pref":"ﾎｯｶｲﾄﾞｳ","kana_city":"ｿﾗﾁｸﾞﾝﾅﾝﾎﾟﾛﾁｮｳ","kana_address":"ﾐﾅﾐ19ｾﾝﾆｼ","pref":"北海道","city":"空知郡南幌町","address":"南１９線西"},
{"zip_code":"0690220","kana_pref":"ﾎｯｶｲﾄﾞｳ","kana_city":"ｿﾗﾁｸﾞﾝﾅﾝﾎﾟﾛﾁｮｳ","kana_address":"ﾐﾅﾐ20ｾﾝﾆｼ","pref":"北海道","city":"空知郡南幌町","address":"南２０線西"},
{"zip_code":"0690221","kana_pref":"ﾎｯｶｲﾄﾞｳ","kana_city":"ｿﾗﾁｸﾞﾝﾅﾝﾎﾟﾛﾁｮｳ","kana_address":"ﾐﾅﾐ21ｾﾝﾆｼ","pref":"北海道","city":"空知郡南幌町","address":"南２１線西"},
{"zip_code":"0690238","kana_pref":"ﾎｯｶｲﾄﾞｳ","kana_city":"ｿﾗﾁｸﾞﾝﾅﾝﾎﾟﾛﾁｮｳ","kana_address":"ﾓﾄﾏﾁ","pref":"北海道","city":"空知郡南幌町","address":"元町"},
{"zip_code":"0691200","kana_pref":"ﾎｯｶｲﾄﾞｳ","kana_city":"ﾕｳﾊﾞﾘｸﾞﾝﾕﾆﾁｮｳ","kana_address":"","pref":"北海道","city":"夕張郡由仁町","address":""},
{"zip_code":"0691211","kana_pref":"ﾎｯｶｲﾄﾞｳ","kana_city":"ﾕｳﾊﾞﾘｸﾞﾝﾕﾆﾁｮｳ","kana_address":"ｲﾜﾅｲ","pref":"北海道","city":"夕張郡由仁町","address":"岩内"},
{"zip_code":"0691207","kana_pref":"ﾎｯｶｲﾄﾞｳ","kana_city":"ﾕｳﾊﾞﾘｸﾞﾝﾕﾆﾁｮｳ","kana_address":"ｳﾏｵｲ","pref":"北海道","city":"夕張郡由仁町","address":"馬追"},
{"zip_code":"0691141","kana_pref":"ﾎｯｶｲﾄﾞｳ","kana_city":"ﾕｳﾊﾞﾘｸﾞﾝﾕﾆﾁｮｳ","kana_address":"ｶﾜﾊﾞﾀ","pref":"北海道","city":"夕張郡由仁町","address":"川端"},
{"zip_code":"0691215","kana_pref":"ﾎｯｶｲﾄﾞｳ","kana_city":"ﾕｳﾊﾞﾘｸﾞﾝﾕﾆﾁｮｳ","kana_address":"ｸﾏﾓﾄ","pref":"北海道","city":"夕張郡由仁町","address":"熊本"},
{"zip_code":"0691136","kana_pref":"ﾎｯｶｲﾄﾞｳ","kana_city":"ﾕｳﾊﾞﾘｸﾞﾝﾕﾆﾁｮｳ","kana_address":"ｸﾏﾓﾄ","pref":"北海道","city":"夕張郡由仁町","address":"熊本"},
{"zip_code":"0691217","kana_pref":"ﾎｯｶｲﾄﾞｳ","kana_city":"ﾕｳﾊﾞﾘｸﾞﾝﾕﾆﾁｮｳ","kana_address":"ｺｳｴｲ","pref":"北海道","city":"夕張郡由仁町","address":"光栄"},
{"zip_code":"0691204","kana_pref":"ﾎｯｶｲﾄﾞｳ","kana_city":"ﾕｳﾊﾞﾘｸﾞﾝﾕﾆﾁｮｳ","kana_address":"ｼﾝｺｳ","pref":"北海道","city":"夕張郡由仁町","address":"新光"},
{"zip_code":"0691205","kana_pref":"ﾎｯｶｲﾄﾞｳ","kana_city":"ﾕｳﾊﾞﾘｸﾞﾝﾕﾆﾁｮｳ","kana_address":"ﾁｭｳｵｳ","pref":"北海道","city":"夕張郡由仁町","address":"中央"},
{"zip_code":"0691203","kana_pref":"ﾎｯｶｲﾄﾞｳ","kana_city":"ﾕｳﾊﾞﾘｸﾞﾝﾕﾆﾁｮｳ","kana_address":"ﾄｳｴｲ","pref":"北海道","city":"夕張郡由仁町","address":"東栄"},
{"zip_code":"0691219","kana_pref":"ﾎｯｶｲﾄﾞｳ","kana_city":"ﾕｳﾊﾞﾘｸﾞﾝﾕﾆﾁｮｳ","kana_address":"ﾄｳｺｳ","pref":"北海道","city":"夕張郡由仁町","address":"東光"},
{"zip_code":"0691143","kana_pref":"ﾎｯｶｲﾄﾞｳ","kana_city":"ﾕｳﾊﾞﾘｸﾞﾝﾕﾆﾁｮｳ","kana_address":"ﾅｶﾐｶﾜ","pref":"北海道","city":"夕張郡由仁町","address":"中三川"},
{"zip_code":"0691214","kana_pref":"ﾎｯｶｲﾄﾞｳ","kana_city":"ﾕｳﾊﾞﾘｸﾞﾝﾕﾆﾁｮｳ","kana_address":"ﾆｼﾐｶﾜ","pref":"北海道","city":"夕張郡由仁町","address":"西三川"},
{"zip_code":"0691135","kana_pref":"ﾎｯｶｲﾄﾞｳ","kana_city":"ﾕｳﾊﾞﾘｸﾞﾝﾕﾆﾁｮｳ","kana_address":"ﾆｼﾐｶﾜ","pref":"北海道","city":"夕張郡由仁町","address":"西三川"},
{"zip_code":"0691142","kana_pref":"ﾎｯｶｲﾄﾞｳ","kana_city":"ﾕｳﾊﾞﾘｸﾞﾝﾕﾆﾁｮｳ","kana_address":"ﾋｶﾞｼﾐｶﾜ","pref":"北海道","city":"夕張郡由仁町","address":"東三川"},
{"zip_code":"0691218","kana_pref":"ﾎｯｶｲﾄﾞｳ","kana_city":"ﾕｳﾊﾞﾘｸﾞﾝﾕﾆﾁｮｳ","kana_address":"ﾌｼﾐ","pref":"北海道","city":"夕張郡由仁町","address":"伏見"},
{"zip_code":"0691202","kana_pref":"ﾎｯｶｲﾄﾞｳ","kana_city":"ﾕｳﾊﾞﾘｸﾞﾝﾕﾆﾁｮｳ","kana_address":"ﾌﾙｶﾜ","pref":"北海道","city":"夕張郡由仁町","address":"古川"},
{"zip_code":"0691216","kana_pref":"ﾎｯｶｲﾄﾞｳ","kana_city":"ﾕｳﾊﾞﾘｸﾞﾝﾕﾆﾁｮｳ","kana_address":"ﾌﾙｻﾝ","pref":"北海道","city":"夕張郡由仁町","address":"古山"},
{"zip_code":"0691201","kana_pref":"ﾎｯｶｲﾄﾞｳ","kana_city":"ﾕｳﾊﾞﾘｸﾞﾝﾕﾆﾁｮｳ","kana_address":"ﾎｸｴｲ","pref":"北海道","city":"夕張郡由仁町","address":"北栄"},
{"zip_code":"0691206","kana_pref":"ﾎｯｶｲﾄﾞｳ","kana_city":"ﾕｳﾊﾞﾘｸﾞﾝﾕﾆﾁｮｳ","kana_address":"ﾎﾝﾏﾁ","pref":"北海道","city":"夕張郡由仁町","address":"本町"},
{"zip_code":"0691133","kana_pref":"ﾎｯｶｲﾄﾞｳ","kana_city":"ﾕｳﾊﾞﾘｸﾞﾝﾕﾆﾁｮｳ","kana_address":"ﾐｶﾜｱｻﾋﾏﾁ","pref":"北海道","city":"夕張郡由仁町","address":"三川旭町"},
{"zip_code":"0691131","kana_pref":"ﾎｯｶｲﾄﾞｳ","kana_city":"ﾕｳﾊﾞﾘｸﾞﾝﾕﾆﾁｮｳ","kana_address":"ﾐｶﾜｲｽﾞﾐﾏﾁ","pref":"北海道","city":"夕張郡由仁町","address":"三川泉町"},
{"zip_code":"0691132","kana_pref":"ﾎｯｶｲﾄﾞｳ","kana_city":"ﾕｳﾊﾞﾘｸﾞﾝﾕﾆﾁｮｳ","kana_address":"ﾐｶﾜﾆｼｷﾏﾁ","pref":"北海道","city":"夕張郡由仁町","address":"三川錦町"},
{"zip_code":"0691134","kana_pref":"ﾎｯｶｲﾄﾞｳ","kana_city":"ﾕｳﾊﾞﾘｸﾞﾝﾕﾆﾁｮｳ","kana_address":"ﾐｶﾜﾐﾄﾞﾘﾏﾁ","pref":"北海道","city":"夕張郡由仁町","address":"三川緑町"},
{"zip_code":"0691213","kana_pref":"ﾎｯｶｲﾄﾞｳ","kana_city":"ﾕｳﾊﾞﾘｸﾞﾝﾕﾆﾁｮｳ","kana_address":"ﾓﾄﾐｶﾜ","pref":"北海道","city":"夕張郡由仁町","address":"本三川"},
{"zip_code":"0691144","kana_pref":"ﾎｯｶｲﾄﾞｳ","kana_city":"ﾕｳﾊﾞﾘｸﾞﾝﾕﾆﾁｮｳ","kana_address":"ﾓﾄﾐｶﾜ","pref":"北海道","city":"夕張郡由仁町","address":"本三川"},
{"zip_code":"0691208","kana_pref":"ﾎｯｶｲﾄﾞｳ","kana_city":"ﾕｳﾊﾞﾘｸﾞﾝﾕﾆﾁｮｳ","kana_address":"ﾔﾏｶﾞﾀ","pref":"北海道","city":"夕張郡由仁町","address":"山形"},
{"zip_code":"0691212","kana_pref":"ﾎｯｶｲﾄﾞｳ","kana_city":"ﾕｳﾊﾞﾘｸﾞﾝﾕﾆﾁｮｳ","kana_address":"ﾔﾏﾏｽ","pref":"北海道","city":"夕張郡由仁町","address":"山桝"},
{"zip_code":"0691300","kana_pref":"ﾎｯｶｲﾄﾞｳ","kana_city":"ﾕｳﾊﾞﾘｸﾞﾝﾅｶﾞﾇﾏﾁｮｳ","kana_address":"","pref":"北海道","city":"夕張郡長沼町","address":""},
{"zip_code":"0691335","kana_pref":"ﾎｯｶｲﾄﾞｳ","kana_city":"ﾕｳﾊﾞﾘｸﾞﾝﾅｶﾞﾇﾏﾁｮｳ","kana_address":"ｱｶﾈ","pref":"北海道","city":"夕張郡長沼町","address":"あかね"},
{"zip_code":"0691344","kana_pref":"ﾎｯｶｲﾄﾞｳ","kana_city":"ﾕｳﾊﾞﾘｸﾞﾝﾅｶﾞﾇﾏﾁｮｳ","kana_address":"ｱｹﾎﾞﾉﾁｮｳ","pref":"北海道","city":"夕張郡長沼町","address":"曙町"},
{"zip_code":"0691343","kana_pref":"ﾎｯｶｲﾄﾞｳ","kana_city":"ﾕｳﾊﾞﾘｸﾞﾝﾅｶﾞﾇﾏﾁｮｳ","kana_address":"ｱｻﾋﾏﾁ","pref":"北海道","city":"夕張郡長沼町","address":"旭町"},
{"zip_code":"0691321","kana_pref":"ﾎｯｶｲﾄﾞｳ","kana_city":"ﾕｳﾊﾞﾘｸﾞﾝﾅｶﾞﾇﾏﾁｮｳ","kana_address":"ｳﾏｵｲ","pref":"北海道","city":"夕張郡長沼町","address":"馬追"},
{"zip_code":"0691322","kana_pref":"ﾎｯｶｲﾄﾞｳ","kana_city":"ﾕｳﾊﾞﾘｸﾞﾝﾅｶﾞﾇﾏﾁｮｳ","kana_address":"ｳﾏｵｲｹﾞﾝﾔ","pref":"北海道","city":"夕張郡長沼町","address":"馬追原野"},
{"zip_code":"0691316","kana_pref":"ﾎｯｶｲﾄﾞｳ","kana_city":"ﾕｳﾊﾞﾘｸﾞﾝﾅｶﾞﾇﾏﾁｮｳ","kana_address":"ｶｶﾞﾀﾞﾝﾀｲ","pref":"北海道","city":"夕張郡長沼町","address":"加賀団体"},
{"zip_code":"0691336","kana_pref":"ﾎｯｶｲﾄﾞｳ","kana_city":"ﾕｳﾊﾞﾘｸﾞﾝﾅｶﾞﾇﾏﾁｮｳ","kana_address":"ｶﾜｿﾞｲ","pref":"北海道","city":"夕張郡長沼町","address":"川沿"},
{"zip_code":"0691304","kana_pref":"ﾎｯｶｲﾄﾞｳ","kana_city":"ﾕｳﾊﾞﾘｸﾞﾝﾅｶﾞﾇﾏﾁｮｳ","kana_address":"ｷﾀｲﾁｸ","pref":"北海道","city":"夕張郡長沼町","address":"北市区"},
{"zip_code":"0691347","kana_pref":"ﾎｯｶｲﾄﾞｳ","kana_city":"ﾕｳﾊﾞﾘｸﾞﾝﾅｶﾞﾇﾏﾁｮｳ","kana_address":"ｷﾀﾏﾁ","pref":"北海道","city":"夕張郡長沼町","address":"北町"},
{"zip_code":"0691329","kana_pref":"ﾎｯｶｲﾄﾞｳ","kana_city":"ﾕｳﾊﾞﾘｸﾞﾝﾅｶﾞﾇﾏﾁｮｳ","kana_address":"ｷﾂﾞﾏﾘ","pref":"北海道","city":"夕張郡長沼町","address":"木詰"},
{"zip_code":"0691331","kana_pref":"ﾎｯｶｲﾄﾞｳ","kana_city":"ﾕｳﾊﾞﾘｸﾞﾝﾅｶﾞﾇﾏﾁｮｳ","kana_address":"ｷﾞﾝｻﾞ","pref":"北海道","city":"夕張郡長沼町","address":"銀座"},
{"zip_code":"0691336","kana_pref":"ﾎｯｶｲﾄﾞｳ","kana_city":"ﾕｳﾊﾞﾘｸﾞﾝﾅｶﾞﾇﾏﾁｮｳ","kana_address":"ｻｶｴﾏﾁ","pref":"北海道","city":"夕張郡長沼町","address":"栄町"},
{"zip_code":"0691320","kana_pref":"ﾎｯｶｲﾄﾞｳ","kana_city":"ﾕｳﾊﾞﾘｸﾞﾝﾅｶﾞﾇﾏﾁｮｳ","kana_address":"ｼｶﾞｲﾁ","pref":"北海道","city":"夕張郡長沼町","address":"市街地"},
{"zip_code":"0691345","kana_pref":"ﾎｯｶｲﾄﾞｳ","kana_city":"ﾕｳﾊﾞﾘｸﾞﾝﾅｶﾞﾇﾏﾁｮｳ","kana_address":"ｼﾗｶﾊﾞ","pref":"北海道","city":"夕張郡長沼町","address":"しらかば"},
{"zip_code":"0691332","kana_pref":"ﾎｯｶｲﾄﾞｳ","kana_city":"ﾕｳﾊﾞﾘｸﾞﾝﾅｶﾞﾇﾏﾁｮｳ","kana_address":"ﾁｭｳｵｳ","pref":"北海道","city":"夕張郡長沼町","address":"中央"},
{"zip_code":"0691334","kana_pref":"ﾎｯｶｲﾄﾞｳ","kana_city":"ﾕｳﾊﾞﾘｸﾞﾝﾅｶﾞﾇﾏﾁｮｳ","kana_address":"ﾆｼｷﾏﾁｷﾀ","pref":"北海道","city":"夕張郡長沼町","address":"錦町北"},
{"zip_code":"0691334","kana_pref":"ﾎｯｶｲﾄﾞｳ","kana_city":"ﾕｳﾊﾞﾘｸﾞﾝﾅｶﾞﾇﾏﾁｮｳ","kana_address":"ﾆｼｷﾏﾁﾐﾅﾐ","pref":"北海道","city":"夕張郡長沼町","address":"錦町南"},
{"zip_code":"0691346","kana_pref":"ﾎｯｶｲﾄﾞｳ","kana_city":"ﾕｳﾊﾞﾘｸﾞﾝﾅｶﾞﾇﾏﾁｮｳ","kana_address":"ﾆｼﾏﾁ","pref":"北海道","city":"夕張郡長沼町","address":"西町"},
{"zip_code":"0691318","kana_pref":"ﾎｯｶｲﾄﾞｳ","kana_city":"ﾕｳﾊﾞﾘｸﾞﾝﾅｶﾞﾇﾏﾁｮｳ","kana_address":"ﾆｼ1ｾﾝｷﾀ","pref":"北海道","city":"夕張郡長沼町","address":"西１線北"},
{"zip_code":"0691471","kana_pref":"ﾎｯｶｲﾄﾞｳ","kana_city":"ﾕｳﾊﾞﾘｸﾞﾝﾅｶﾞﾇﾏﾁｮｳ","kana_address":"ﾆｼ1ｾﾝﾐﾅﾐ","pref":"北海道","city":"夕張郡長沼町","address":"西１線南"},
{"zip_code":"0691318","kana_pref":"ﾎｯｶｲﾄﾞｳ","kana_city":"ﾕｳﾊﾞﾘｸﾞﾝﾅｶﾞﾇﾏﾁｮｳ","kana_address":"ﾆｼ2ｾﾝｷﾀ","pref":"北海道","city":"夕張郡長沼町","address":"西２線北"},
{"zip_code":"0691472","kana_pref":"ﾎｯｶｲﾄﾞｳ","kana_city":"ﾕｳﾊﾞﾘｸﾞﾝﾅｶﾞﾇﾏﾁｮｳ","kana_address":"ﾆｼ2ｾﾝﾐﾅﾐ","pref":"北海道","city":"夕張郡長沼町","address":"西２線南"},
{"zip_code":"0691318","kana_pref":"ﾎｯｶｲﾄﾞｳ","kana_city":"ﾕｳﾊﾞﾘｸﾞﾝﾅｶﾞﾇﾏﾁｮｳ","kana_address":"ﾆｼ3ｾﾝｷﾀ","pref":"北海道","city":"夕張郡長沼町","address":"西３線北"},
{"zip_code":"0691473","kana_pref":"ﾎｯｶｲﾄﾞｳ","kana_city":"ﾕｳﾊﾞﾘｸﾞﾝﾅｶﾞﾇﾏﾁｮｳ","kana_address":"ﾆｼ3ｾﾝﾐﾅﾐ","pref":"北海道","city":"夕張郡長沼町","address":"西３線南"},
{"zip_code":"0691318","kana_pref":"ﾎｯｶｲﾄﾞｳ","kana_city":"ﾕｳﾊﾞﾘｸﾞﾝﾅｶﾞﾇﾏﾁｮｳ","kana_address":"ﾆｼ4ｾﾝｷﾀ","pref":"北海道","city":"夕張郡長沼町","address":"西４線北"},
{"zip_code":"0691474","kana_pref":"ﾎｯｶｲﾄﾞｳ","kana_city":"ﾕｳﾊﾞﾘｸﾞﾝﾅｶﾞﾇﾏﾁｮｳ","kana_address":"ﾆｼ4ｾﾝﾐﾅﾐ","pref":"北海道","city":"夕張郡長沼町","address":"西４線南"},
{"zip_code":"0691318","kana_pref":"ﾎｯｶｲﾄﾞｳ","kana_city":"ﾕｳﾊﾞﾘｸﾞﾝﾅｶﾞﾇﾏﾁｮｳ","kana_address":"ﾆｼ5ｾﾝｷﾀ","pref":"北海道","city":"夕張郡長沼町","address":"西５線北"},
{"zip_code":"0691475","kana_pref":"ﾎｯｶｲﾄﾞｳ","kana_city":"ﾕｳﾊﾞﾘｸﾞﾝﾅｶﾞﾇﾏﾁｮｳ","kana_address":"ﾆｼ5ｾﾝﾐﾅﾐ","pref":"北海道","city":"夕張郡長沼町","address":"西５線南"},
{"zip_code":"0691318","kana_pref":"ﾎｯｶｲﾄﾞｳ","kana_city":"ﾕｳﾊﾞﾘｸﾞﾝﾅｶﾞﾇﾏﾁｮｳ","kana_address":"ﾆｼ6ｾﾝｷﾀ","pref":"北海道","city":"夕張郡長沼町","address":"西６線北"},
{"zip_code":"0691476","kana_pref":"ﾎｯｶｲﾄﾞｳ","kana_city":"ﾕｳﾊﾞﾘｸﾞﾝﾅｶﾞﾇﾏﾁｮｳ","kana_address":"ﾆｼ6ｾﾝﾐﾅﾐ","pref":"北海道","city":"夕張郡長沼町","address":"西６線南"},
{"zip_code":"0691318","kana_pref":"ﾎｯｶｲﾄﾞｳ","kana_city":"ﾕｳﾊﾞﾘｸﾞﾝﾅｶﾞﾇﾏﾁｮｳ","kana_address":"ﾆｼ7ｾﾝｷﾀ","pref":"北海道","city":"夕張郡長沼町","address":"西７線北"},
{"zip_code":"0691477","kana_pref":"ﾎｯｶｲﾄﾞｳ","kana_city":"ﾕｳﾊﾞﾘｸﾞﾝﾅｶﾞﾇﾏﾁｮｳ","kana_address":"ﾆｼ7ｾﾝﾐﾅﾐ","pref":"北海道","city":"夕張郡長沼町","address":"西７線南"},
{"zip_code":"0691318","kana_pref":"ﾎｯｶｲﾄﾞｳ","kana_city":"ﾕｳﾊﾞﾘｸﾞﾝﾅｶﾞﾇﾏﾁｮｳ","kana_address":"ﾆｼ8ｾﾝｷﾀ","pref":"北海道","city":"夕張郡長沼町","address":"西８線北"},
{"zip_code":"0691478","kana_pref":"ﾎｯｶｲﾄﾞｳ","kana_city":"ﾕｳﾊﾞﾘｸﾞﾝﾅｶﾞﾇﾏﾁｮｳ","kana_address":"ﾆｼ8ｾﾝﾐﾅﾐ","pref":"北海道","city":"夕張郡長沼町","address":"西８線南"},
{"zip_code":"0691479","kana_pref":"ﾎｯｶｲﾄﾞｳ","kana_city":"ﾕｳﾊﾞﾘｸﾞﾝﾅｶﾞﾇﾏﾁｮｳ","kana_address":"ﾆｼ9ｾﾝﾐﾅﾐ","pref":"北海道","city":"夕張郡長沼町","address":"西９線南"},
{"zip_code":"0691480","kana_pref":"ﾎｯｶｲﾄﾞｳ","kana_city":"ﾕｳﾊﾞﾘｸﾞﾝﾅｶﾞﾇﾏﾁｮｳ","kana_address":"ﾆｼ10ｾﾝﾐﾅﾐ","pref":"北海道","city":"夕張郡長沼町","address":"西１０線南"},
{"zip_code":"0691481","kana_pref":"ﾎｯｶｲﾄﾞｳ","kana_city":"ﾕｳﾊﾞﾘｸﾞﾝﾅｶﾞﾇﾏﾁｮｳ","kana_address":"ﾆｼ11ｾﾝﾐﾅﾐ","pref":"北海道","city":"夕張郡長沼町","address":"西１１線南"},
{"zip_code":"0691482","kana_pref":"ﾎｯｶｲﾄﾞｳ","kana_city":"ﾕｳﾊﾞﾘｸﾞﾝﾅｶﾞﾇﾏﾁｮｳ","kana_address":"ﾆｼ12ｾﾝﾐﾅﾐ","pref":"北海道","city":"夕張郡長沼町","address":"西１２線南"},
{"zip_code":"0691483","kana_pref":"ﾎｯｶｲﾄﾞｳ","kana_city":"ﾕｳﾊﾞﾘｸﾞﾝﾅｶﾞﾇﾏﾁｮｳ","kana_address":"ﾆｼ13ｾﾝﾐﾅﾐ","pref":"北海道","city":"夕張郡長沼町","address":"西１３線南"},
{"zip_code":"0691484","kana_pref":"ﾎｯｶｲﾄﾞｳ","kana_city":"ﾕｳﾊﾞﾘｸﾞﾝﾅｶﾞﾇﾏﾁｮｳ","kana_address":"ﾆｼ14ｾﾝﾐﾅﾐ","pref":"北海道","city":"夕張郡長沼町","address":"西１４線南"},
{"zip_code":"0691342","kana_pref":"ﾎｯｶｲﾄﾞｳ","kana_city":"ﾕｳﾊﾞﾘｸﾞﾝﾅｶﾞﾇﾏﾁｮｳ","kana_address":"ﾋｶﾞｼﾏﾁ","pref":"北海道","city":"夕張郡長沼町","address":"東町"},
{"zip_code":"0691317","kana_pref":"ﾎｯｶｲﾄﾞｳ","kana_city":"ﾕｳﾊﾞﾘｸﾞﾝﾅｶﾞﾇﾏﾁｮｳ","kana_address":"ﾋｶﾞｼ1ｾﾝｷﾀ","pref":"北海道","city":"夕張郡長沼町","address":"東１線北"},
{"zip_code":"0691451","kana_pref":"ﾎｯｶｲﾄﾞｳ","kana_city":"ﾕｳﾊﾞﾘｸﾞﾝﾅｶﾞﾇﾏﾁｮｳ","kana_address":"ﾋｶﾞｼ1ｾﾝﾐﾅﾐ","pref":"北海道","city":"夕張郡長沼町","address":"東１線南"},
{"zip_code":"0691317","kana_pref":"ﾎｯｶｲﾄﾞｳ","kana_city":"ﾕｳﾊﾞﾘｸﾞﾝﾅｶﾞﾇﾏﾁｮｳ","kana_address":"ﾋｶﾞｼ2ｾﾝｷﾀ","pref":"北海道","city":"夕張郡長沼町","address":"東２線北"},
{"zip_code":"0691452","kana_pref":"ﾎｯｶｲﾄﾞｳ","kana_city":"ﾕｳﾊﾞﾘｸﾞﾝﾅｶﾞﾇﾏﾁｮｳ","kana_address":"ﾋｶﾞｼ2ｾﾝﾐﾅﾐ","pref":"北海道","city":"夕張郡長沼町","address":"東２線南"},
{"zip_code":"0691317","kana_pref":"ﾎｯｶｲﾄﾞｳ","kana_city":"ﾕｳﾊﾞﾘｸﾞﾝﾅｶﾞﾇﾏﾁｮｳ","kana_address":"ﾋｶﾞｼ3ｾﾝｷﾀ","pref":"北海道","city":"夕張郡長沼町","address":"東３線北"},
{"zip_code":"0691453","kana_pref":"ﾎｯｶｲﾄﾞｳ","kana_city":"ﾕｳﾊﾞﾘｸﾞﾝﾅｶﾞﾇﾏﾁｮｳ","kana_address":"ﾋｶﾞｼ3ｾﾝﾐﾅﾐ","pref":"北海道","city":"夕張郡長沼町","address":"東３線南"},
{"zip_code":"0691317","kana_pref":"ﾎｯｶｲﾄﾞｳ","kana_city":"ﾕｳﾊﾞﾘｸﾞﾝﾅｶﾞﾇﾏﾁｮｳ","kana_address":"ﾋｶﾞｼ4ｾﾝｷﾀ","pref":"北海道","city":"夕張郡長沼町","address":"東４線北"},
{"zip_code":"0691454","kana_pref":"ﾎｯｶｲﾄﾞｳ","kana_city":"ﾕｳﾊﾞﾘｸﾞﾝﾅｶﾞﾇﾏﾁｮｳ","kana_address":"ﾋｶﾞｼ4ｾﾝﾐﾅﾐ","pref":"北海道","city":"夕張郡長沼町","address":"東４線南"},
{"zip_code":"0691317","kana_pref":"ﾎｯｶｲﾄﾞｳ","kana_city":"ﾕｳﾊﾞﾘｸﾞﾝﾅｶﾞﾇﾏﾁｮｳ","kana_address":"ﾋｶﾞｼ5ｾﾝｷﾀ","pref":"北海道","city":"夕張郡長沼町","address":"東５線北"},
{"zip_code":"0691455","kana_pref":"ﾎｯｶｲﾄﾞｳ","kana_city":"ﾕｳﾊﾞﾘｸﾞﾝﾅｶﾞﾇﾏﾁｮｳ","kana_address":"ﾋｶﾞｼ5ｾﾝﾐﾅﾐ","pref":"北海道","city":"夕張郡長沼町","address":"東５線南"},
{"zip_code":"0691317","kana_pref":"ﾎｯｶｲﾄﾞｳ","kana_city":"ﾕｳﾊﾞﾘｸﾞﾝﾅｶﾞﾇﾏﾁｮｳ","kana_address":"ﾋｶﾞｼ6ｾﾝｷﾀ","pref":"北海道","city":"夕張郡長沼町","address":"東６線北"},
{"zip_code":"0691456","kana_pref":"ﾎｯｶｲﾄﾞｳ","kana_city":"ﾕｳﾊﾞﾘｸﾞﾝﾅｶﾞﾇﾏﾁｮｳ","kana_address":"ﾋｶﾞｼ6ｾﾝﾐﾅﾐ","pref":"北海道","city":"夕張郡長沼町","address":"東６線南"},
{"zip_code":"0691317","kana_pref":"ﾎｯｶｲﾄﾞｳ","kana_city":"ﾕｳﾊﾞﾘｸﾞﾝﾅｶﾞﾇﾏﾁｮｳ","kana_address":"ﾋｶﾞｼ7ｾﾝｷﾀ","pref":"北海道","city":"夕張郡長沼町","address":"東７線北"},
{"zip_code":"0691457","kana_pref":"ﾎｯｶｲﾄﾞｳ","kana_city":"ﾕｳﾊﾞﾘｸﾞﾝﾅｶﾞﾇﾏﾁｮｳ","kana_address":"ﾋｶﾞｼ7ｾﾝﾐﾅﾐ","pref":"北海道","city":"夕張郡長沼町","address":"東７線南"},
{"zip_code":"0691317","kana_pref":"ﾎｯｶｲﾄﾞｳ","kana_city":"ﾕｳﾊﾞﾘｸﾞﾝﾅｶﾞﾇﾏﾁｮｳ","kana_address":"ﾋｶﾞｼ8ｾﾝｷﾀ","pref":"北海道","city":"夕張郡長沼町","address":"東８線北"},
{"zip_code":"0691458","kana_pref":"ﾎｯｶｲﾄﾞｳ","kana_city":"ﾕｳﾊﾞﾘｸﾞﾝﾅｶﾞﾇﾏﾁｮｳ","kana_address":"ﾋｶﾞｼ8ｾﾝﾐﾅﾐ","pref":"北海道","city":"夕張郡長沼町","address":"東８線南"},
{"zip_code":"0691317","kana_pref":"ﾎｯｶｲﾄﾞｳ","kana_city":"ﾕｳﾊﾞﾘｸﾞﾝﾅｶﾞﾇﾏﾁｮｳ","kana_address":"ﾋｶﾞｼ9ｾﾝｷﾀ","pref":"北海道","city":"夕張郡長沼町","address":"東９線北"},
{"zip_code":"0691459","kana_pref":"ﾎｯｶｲﾄﾞｳ","kana_city":"ﾕｳﾊﾞﾘｸﾞﾝﾅｶﾞﾇﾏﾁｮｳ","kana_address":"ﾋｶﾞｼ9ｾﾝﾐﾅﾐ","pref":"北海道","city":"夕張郡長沼町","address":"東９線南"},
{"zip_code":"0691317","kana_pref":"ﾎｯｶｲﾄﾞｳ","kana_city":"ﾕｳﾊﾞﾘｸﾞﾝﾅｶﾞﾇﾏﾁｮｳ","kana_address":"ﾋｶﾞｼ10ｾﾝｷﾀ","pref":"北海道","city":"夕張郡長沼町","address":"東１０線北"},
{"zip_code":"0691460","kana_pref":"ﾎｯｶｲﾄﾞｳ","kana_city":"ﾕｳﾊﾞﾘｸﾞﾝﾅｶﾞﾇﾏﾁｮｳ","kana_address":"ﾋｶﾞｼ10ｾﾝﾐﾅﾐ","pref":"北海道","city":"夕張郡長沼町","address":"東１０線南"},
{"zip_code":"0691317","kana_pref":"ﾎｯｶｲﾄﾞｳ","kana_city":"ﾕｳﾊﾞﾘｸﾞﾝﾅｶﾞﾇﾏﾁｮｳ","kana_address":"ﾋｶﾞｼ11ｾﾝｷﾀ","pref":"北海道","city":"夕張郡長沼町","address":"東１１線北"},
{"zip_code":"0691461","kana_pref":"ﾎｯｶｲﾄﾞｳ","kana_city":"ﾕｳﾊﾞﾘｸﾞﾝﾅｶﾞﾇﾏﾁｮｳ","kana_address":"ﾋｶﾞｼ11ｾﾝﾐﾅﾐ","pref":"北海道","city":"夕張郡長沼町","address":"東１１線南"},
{"zip_code":"0691462","kana_pref":"ﾎｯｶｲﾄﾞｳ","kana_city":"ﾕｳﾊﾞﾘｸﾞﾝﾅｶﾞﾇﾏﾁｮｳ","kana_address":"ﾋｶﾞｼ12ｾﾝﾐﾅﾐ","pref":"北海道","city":"夕張郡長沼町","address":"東１２線南"},
{"zip_code":"0691463","kana_pref":"ﾎｯｶｲﾄﾞｳ","kana_city":"ﾕｳﾊﾞﾘｸﾞﾝﾅｶﾞﾇﾏﾁｮｳ","kana_address":"ﾋｶﾞｼ13ｾﾝﾐﾅﾐ","pref":"北海道","city":"夕張郡長沼町","address":"東１３線南"},
{"zip_code":"0691311","kana_pref":"ﾎｯｶｲﾄﾞｳ","kana_city":"ﾕｳﾊﾞﾘｸﾞﾝﾅｶﾞﾇﾏﾁｮｳ","kana_address":"ﾌｼｺ","pref":"北海道","city":"夕張郡長沼町","address":"フシコ"},
{"zip_code":"0691464","kana_pref":"ﾎｯｶｲﾄﾞｳ","kana_city":"ﾕｳﾊﾞﾘｸﾞﾝﾅｶﾞﾇﾏﾁｮｳ","kana_address":"ﾎﾛﾅｲ","pref":"北海道","city":"夕張郡長沼町","address":"幌内"},
{"zip_code":"0691329","kana_pref":"ﾎｯｶｲﾄﾞｳ","kana_city":"ﾕｳﾊﾞﾘｸﾞﾝﾅｶﾞﾇﾏﾁｮｳ","kana_address":"ﾎﾛﾑｲｹﾞﾝﾔ","pref":"北海道","city":"夕張郡長沼町","address":"幌向原野"},
{"zip_code":"0691333","kana_pref":"ﾎｯｶｲﾄﾞｳ","kana_city":"ﾕｳﾊﾞﾘｸﾞﾝﾅｶﾞﾇﾏﾁｮｳ","kana_address":"ﾎﾝﾁｮｳ","pref":"北海道","city":"夕張郡長沼町","address":"本町"},
{"zip_code":"0691315","kana_pref":"ﾎｯｶｲﾄﾞｳ","kana_city":"ﾕｳﾊﾞﾘｸﾞﾝﾅｶﾞﾇﾏﾁｮｳ","kana_address":"ﾐﾅﾐﾏﾁ","pref":"北海道","city":"夕張郡長沼町","address":"南町"},
{"zip_code":"0691341","kana_pref":"ﾎｯｶｲﾄﾞｳ","kana_city":"ﾕｳﾊﾞﾘｸﾞﾝﾅｶﾞﾇﾏﾁｮｳ","kana_address":"ﾐﾔｼﾀ","pref":"北海道","city":"夕張郡長沼町","address":"宮下"},
{"zip_code":"0691301","kana_pref":"ﾎｯｶｲﾄﾞｳ","kana_city":"ﾕｳﾊﾞﾘｸﾞﾝﾅｶﾞﾇﾏﾁｮｳ","kana_address":"1ｸ","pref":"北海道","city":"夕張郡長沼町","address":"１区"},
{"zip_code":"0691302","kana_pref":"ﾎｯｶｲﾄﾞｳ","kana_city":"ﾕｳﾊﾞﾘｸﾞﾝﾅｶﾞﾇﾏﾁｮｳ","kana_address":"2ｸ","pref":"北海道","city":"夕張郡長沼町","address":"２区"},
{"zip_code":"0691303","kana_pref":"ﾎｯｶｲﾄﾞｳ","kana_city":"ﾕｳﾊﾞﾘｸﾞﾝﾅｶﾞﾇﾏﾁｮｳ","kana_address":"3ｸ","pref":"北海道","city":"夕張郡長沼町","address":"３区"},
{"zip_code":"0691304","kana_pref":"ﾎｯｶｲﾄﾞｳ","kana_city":"ﾕｳﾊﾞﾘｸﾞﾝﾅｶﾞﾇﾏﾁｮｳ","kana_address":"4ｸ","pref":"北海道","city":"夕張郡長沼町","address":"４区"},
{"zip_code":"0691305","kana_pref":"ﾎｯｶｲﾄﾞｳ","kana_city":"ﾕｳﾊﾞﾘｸﾞﾝﾅｶﾞﾇﾏﾁｮｳ","kana_address":"5ｸ","pref":"北海道","city":"夕張郡長沼町","address":"５区"},
{"zip_code":"0691306","kana_pref":"ﾎｯｶｲﾄﾞｳ","kana_city":"ﾕｳﾊﾞﾘｸﾞﾝﾅｶﾞﾇﾏﾁｮｳ","kana_address":"6ｸ","pref":"北海道","city":"夕張郡長沼町","address":"６区"},
{"zip_code":"0691307","kana_pref":"ﾎｯｶｲﾄﾞｳ","kana_city":"ﾕｳﾊﾞﾘｸﾞﾝﾅｶﾞﾇﾏﾁｮｳ","kana_address":"7ｸ","pref":"北海道","city":"夕張郡長沼町","address":"７区"},
{"zip_code":"0691308","kana_pref":"ﾎｯｶｲﾄﾞｳ","kana_city":"ﾕｳﾊﾞﾘｸﾞﾝﾅｶﾞﾇﾏﾁｮｳ","kana_address":"8ｸ","pref":"北海道","city":"夕張郡長沼町","address":"８区"},
{"zip_code":"0691309","kana_pref":"ﾎｯｶｲﾄﾞｳ","kana_city":"ﾕｳﾊﾞﾘｸﾞﾝﾅｶﾞﾇﾏﾁｮｳ","kana_address":"9ｸ","pref":"北海道","city":"夕張郡長沼町","address":"９区"},
{"zip_code":"0691310","kana_pref":"ﾎｯｶｲﾄﾞｳ","kana_city":"ﾕｳﾊﾞﾘｸﾞﾝﾅｶﾞﾇﾏﾁｮｳ","kana_address":"10ｸ","pref":"北海道","city":"夕張郡長沼町","address":"１０区"},
{"zip_code":"0691311","kana_pref":"ﾎｯｶｲﾄﾞｳ","kana_city":"ﾕｳﾊﾞﾘｸﾞﾝﾅｶﾞﾇﾏﾁｮｳ","kana_address":"11ｸ","pref":"北海道","city":"夕張郡長沼町","address":"１１区"},
{"zip_code":"0691312","kana_pref":"ﾎｯｶｲﾄﾞｳ","kana_city":"ﾕｳﾊﾞﾘｸﾞﾝﾅｶﾞﾇﾏﾁｮｳ","kana_address":"12ｸ","pref":"北海道","city":"夕張郡長沼町","address":"１２区"},
{"zip_code":"0691313","kana_pref":"ﾎｯｶｲﾄﾞｳ","kana_city":"ﾕｳﾊﾞﾘｸﾞﾝﾅｶﾞﾇﾏﾁｮｳ","kana_address":"13ｸ","pref":"北海道","city":"夕張郡長沼町","address":"１３区"},
{"zip_code":"0691314","kana_pref":"ﾎｯｶｲﾄﾞｳ","kana_city":"ﾕｳﾊﾞﾘｸﾞﾝﾅｶﾞﾇﾏﾁｮｳ","kana_address":"14ｸ","pref":"北海道","city":"夕張郡長沼町","address":"１４区"},
{"zip_code":"0691315","kana_pref":"ﾎｯｶｲﾄﾞｳ","kana_city":"ﾕｳﾊﾞﾘｸﾞﾝﾅｶﾞﾇﾏﾁｮｳ","kana_address":"15ｸ","pref":"北海道","city":"夕張郡長沼町","address":"１５区"},
{"zip_code":"0691316","kana_pref":"ﾎｯｶｲﾄﾞｳ","kana_city":"ﾕｳﾊﾞﾘｸﾞﾝﾅｶﾞﾇﾏﾁｮｳ","kana_address":"16ｸ","pref":"北海道","city":"夕張郡長沼町","address":"１６区"},
{"zip_code":"0691329","kana_pref":"ﾎｯｶｲﾄﾞｳ","kana_city":"ﾕｳﾊﾞﾘｸﾞﾝﾅｶﾞﾇﾏﾁｮｳ","kana_address":"29ｸ","pref":"北海道","city":"夕張郡長沼町","address":"２９区"},
{"zip_code":"0691485","kana_pref":"ﾎｯｶｲﾄﾞｳ","kana_city":"ﾕｳﾊﾞﾘｸﾞﾝﾅｶﾞﾇﾏﾁｮｳ","kana_address":"30ｸ","pref":"北海道","city":"夕張郡長沼町","address":"３０区"},
{"zip_code":"0691500","kana_pref":"ﾎｯｶｲﾄﾞｳ","kana_city":"ﾕｳﾊﾞﾘｸﾞﾝｸﾘﾔﾏﾁｮｳ","kana_address":"","pref":"北海道","city":"夕張郡栗山町","address":""},
{"zip_code":"0691513","kana_pref":"ﾎｯｶｲﾄﾞｳ","kana_city":"ﾕｳﾊﾞﾘｸﾞﾝｸﾘﾔﾏﾁｮｳ","kana_address":"ｱｻﾋ","pref":"北海道","city":"夕張郡栗山町","address":"朝日"},
{"zip_code":"0691507","kana_pref":"ﾎｯｶｲﾄﾞｳ","kana_city":"ﾕｳﾊﾞﾘｸﾞﾝｸﾘﾔﾏﾁｮｳ","kana_address":"ｱｻﾋﾀﾞｲ","pref":"北海道","city":"夕張郡栗山町","address":"旭台"},
{"zip_code":"0691503","kana_pref":"ﾎｯｶｲﾄﾞｳ","kana_city":"ﾕｳﾊﾞﾘｸﾞﾝｸﾘﾔﾏﾁｮｳ","kana_address":"ｳｴﾝﾍﾞﾂ","pref":"北海道","city":"夕張郡栗山町","address":"雨煙別"},
{"zip_code":"0691524","kana_pref":"ﾎｯｶｲﾄﾞｳ","kana_city":"ﾕｳﾊﾞﾘｸﾞﾝｸﾘﾔﾏﾁｮｳ","kana_address":"ｶｸﾀ","pref":"北海道","city":"夕張郡栗山町","address":"角田"},
{"zip_code":"0691504","kana_pref":"ﾎｯｶｲﾄﾞｳ","kana_city":"ﾕｳﾊﾞﾘｸﾞﾝｸﾘﾔﾏﾁｮｳ","kana_address":"ｷﾀｶﾞｸﾃﾞﾝ","pref":"北海道","city":"夕張郡栗山町","address":"北学田"},
{"zip_code":"0691506","kana_pref":"ﾎｯｶｲﾄﾞｳ","kana_city":"ﾕｳﾊﾞﾘｸﾞﾝｸﾘﾔﾏﾁｮｳ","kana_address":"ｷﾅｳｽ","pref":"北海道","city":"夕張郡栗山町","address":"杵臼"},
{"zip_code":"0691523","kana_pref":"ﾎｯｶｲﾄﾞｳ","kana_city":"ﾕｳﾊﾞﾘｸﾞﾝｸﾘﾔﾏﾁｮｳ","kana_address":"ｷｮｳﾜ","pref":"北海道","city":"夕張郡栗山町","address":"共和"},
{"zip_code":"0691501","kana_pref":"ﾎｯｶｲﾄﾞｳ","kana_city":"ﾕｳﾊﾞﾘｸﾞﾝｸﾘﾔﾏﾁｮｳ","kana_address":"ｻｸﾗｵｶ","pref":"北海道","city":"夕張郡栗山町","address":"桜丘"},
{"zip_code":"0691505","kana_pref":"ﾎｯｶｲﾄﾞｳ","kana_city":"ﾕｳﾊﾞﾘｸﾞﾝｸﾘﾔﾏﾁｮｳ","kana_address":"ｻｸﾗﾔﾏ","pref":"北海道","city":"夕張郡栗山町","address":"桜山"},
{"zip_code":"0691511","kana_pref":"ﾎｯｶｲﾄﾞｳ","kana_city":"ﾕｳﾊﾞﾘｸﾞﾝｸﾘﾔﾏﾁｮｳ","kana_address":"ﾁｭｳｵｳ","pref":"北海道","city":"夕張郡栗山町","address":"中央"},
{"zip_code":"0691522","kana_pref":"ﾎｯｶｲﾄﾞｳ","kana_city":"ﾕｳﾊﾞﾘｸﾞﾝｸﾘﾔﾏﾁｮｳ","kana_address":"ﾅｶｻﾄ","pref":"北海道","city":"夕張郡栗山町","address":"中里"},
{"zip_code":"0691521","kana_pref":"ﾎｯｶｲﾄﾞｳ","kana_city":"ﾕｳﾊﾞﾘｸﾞﾝｸﾘﾔﾏﾁｮｳ","kana_address":"ﾆｼｷ","pref":"北海道","city":"夕張郡栗山町","address":"錦"},
{"zip_code":"0691502","kana_pref":"ﾎｯｶｲﾄﾞｳ","kana_city":"ﾕｳﾊﾞﾘｸﾞﾝｸﾘﾔﾏﾁｮｳ","kana_address":"ﾊﾄﾔﾏ","pref":"北海道","city":"夕張郡栗山町","address":"鳩山"},
{"zip_code":"0691526","kana_pref":"ﾎｯｶｲﾄﾞｳ","kana_city":"ﾕｳﾊﾞﾘｸﾞﾝｸﾘﾔﾏﾁｮｳ","kana_address":"ﾌｼﾞ","pref":"北海道","city":"夕張郡栗山町","address":"富士"},
{"zip_code":"0691505","kana_pref":"ﾎｯｶｲﾄﾞｳ","kana_city":"ﾕｳﾊﾞﾘｸﾞﾝｸﾘﾔﾏﾁｮｳ","kana_address":"ﾎﾝｻﾜ","pref":"北海道","city":"夕張郡栗山町","address":"本沢"},
{"zip_code":"0691512","kana_pref":"ﾎｯｶｲﾄﾞｳ","kana_city":"ﾕｳﾊﾞﾘｸﾞﾝｸﾘﾔﾏﾁｮｳ","kana_address":"ﾏﾂｶｾﾞ","pref":"北海道","city":"夕張郡栗山町","address":"松風"},
{"zip_code":"0691525","kana_pref":"ﾎｯｶｲﾄﾞｳ","kana_city":"ﾕｳﾊﾞﾘｸﾞﾝｸﾘﾔﾏﾁｮｳ","kana_address":"ﾐｶﾂﾞｷ","pref":"北海道","city":"夕張郡栗山町","address":"三日月"},
{"zip_code":"0691503","kana_pref":"ﾎｯｶｲﾄﾞｳ","kana_city":"ﾕｳﾊﾞﾘｸﾞﾝｸﾘﾔﾏﾁｮｳ","kana_address":"ﾐﾄﾞﾘｵｶ","pref":"北海道","city":"夕張郡栗山町","address":"緑丘"},
{"zip_code":"0691502","kana_pref":"ﾎｯｶｲﾄﾞｳ","kana_city":"ﾕｳﾊﾞﾘｸﾞﾝｸﾘﾔﾏﾁｮｳ","kana_address":"ﾓﾘ","pref":"北海道","city":"夕張郡栗山町","address":"森"},
{"zip_code":"0691508","kana_pref":"ﾎｯｶｲﾄﾞｳ","kana_city":"ﾕｳﾊﾞﾘｸﾞﾝｸﾘﾔﾏﾁｮｳ","kana_address":"ﾕﾁ","pref":"北海道","city":"夕張郡栗山町","address":"湯地"}]}