{"zip_code":[
{"zip_code":"0700000","kana_pref":"ﾎｯｶｲﾄﾞｳ","kana_city":"ｱｻﾋｶﾜｼ","kana_address":"","pref":"北海道","city":"旭川市","address":""},
{"zip_code":"0700072","kana_pref":"ﾎｯｶｲﾄﾞｳ","kana_city":"ｱｻﾋｶﾜｼ","kana_address":"ｱｹﾎﾞﾉｷﾀ2ｼﾞｮｳ","pref":"北海道","city":"旭川市","address":"曙北２条"},
{"zip_code":"0700073","kana_pref":"ﾎｯｶｲﾄﾞｳ","kana_city":"ｱｻﾋｶﾜｼ","kana_address":"ｱｹﾎﾞﾉｷﾀ3ｼﾞｮｳ","pref":"北海道","city":"旭川市","address":"曙北３条"},
{"zip_code":"0700061","kana_pref":"ﾎｯｶｲﾄﾞｳ","kana_city":"ｱｻﾋｶﾜｼ","kana_address":"ｱｹﾎﾞﾉ1ｼﾞｮｳ","pref":"北海道","city":"旭川市","address":"曙１条"},
{"zip_code":"0700062","kana_pref":"ﾎｯｶｲﾄﾞｳ","kana_city":"ｱｻﾋｶﾜｼ","kana_address":"ｱｹﾎﾞﾉ2ｼﾞｮｳ","pref":"北海道","city":"旭川市","address":"曙２条"},
{"zip_code":"0700063","kana_pref":"ﾎｯｶｲﾄﾞｳ","kana_city":"ｱｻﾋｶﾜｼ","kana_address":"ｱｹﾎﾞﾉ3ｼﾞｮｳ","pref":"北海道","city":"旭川市","address":"曙３条"},
{"zip_code":"0700822","kana_pref":"ﾎｯｶｲﾄﾞｳ","kana_city":"ｱｻﾋｶﾜｼ","kana_address":"ｱｻﾋｶﾞｵｶ","pref":"北海道","city":"旭川市","address":"旭岡"},
{"zip_code":"0700831","kana_pref":"ﾎｯｶｲﾄﾞｳ","kana_city":"ｱｻﾋｶﾜｼ","kana_address":"ｱｻﾋﾏﾁ1ｼﾞｮｳ","pref":"北海道","city":"旭川市","address":"旭町１条"},
{"zip_code":"0700832","kana_pref":"ﾎｯｶｲﾄﾞｳ","kana_city":"ｱｻﾋｶﾜｼ","kana_address":"ｱｻﾋﾏﾁ2ｼﾞｮｳ","pref":"北海道","city":"旭川市","address":"旭町２条"},
{"zip_code":"0708051","kana_pref":"ﾎｯｶｲﾄﾞｳ","kana_city":"ｱｻﾋｶﾜｼ","kana_address":"ｴﾀﾝﾍﾞﾂﾁｮｳｱﾗｼﾔﾏ","pref":"北海道","city":"旭川市","address":"江丹別町嵐山"},
{"zip_code":"0708052","kana_pref":"ﾎｯｶｲﾄﾞｳ","kana_city":"ｱｻﾋｶﾜｼ","kana_address":"ｴﾀﾝﾍﾞﾂﾁｮｳｶｽｶﾞ","pref":"北海道","city":"旭川市","address":"江丹別町春日"},
{"zip_code":"0708053","kana_pref":"ﾎｯｶｲﾄﾞｳ","kana_city":"ｱｻﾋｶﾜｼ","kana_address":"ｴﾀﾝﾍﾞﾂﾁｮｳｷｮｳﾜ","pref":"北海道","city":"旭川市","address":"江丹別町共和"},
{"zip_code":"0700841","kana_pref":"ﾎｯｶｲﾄﾞｳ","kana_city":"ｱｻﾋｶﾜｼ","kana_address":"ｵｵﾏﾁ1ｼﾞｮｳ","pref":"北海道","city":"旭川市","address":"大町１条"},
{"zip_code":"0700842","kana_pref":"ﾎｯｶｲﾄﾞｳ","kana_city":"ｱｻﾋｶﾜｼ","kana_address":"ｵｵﾏﾁ2ｼﾞｮｳ","pref":"北海道","city":"旭川市","address":"大町２条"},
{"zip_code":"0700843","kana_pref":"ﾎｯｶｲﾄﾞｳ","kana_city":"ｱｻﾋｶﾜｼ","kana_address":"ｵｵﾏﾁ3ｼﾞｮｳ","pref":"北海道","city":"旭川市","address":"大町３条"},
{"zip_code":"0708001","kana_pref":"ﾎｯｶｲﾄﾞｳ","kana_city":"ｱｻﾋｶﾜｼ","kana_address":"ｶｸﾞﾗ1ｼﾞｮｳ","pref":"北海道","city":"旭川市","address":"神楽１条"},
{"zip_code":"0708002","kana_pref":"ﾎｯｶｲﾄﾞｳ","kana_city":"ｱｻﾋｶﾜｼ","kana_address":"ｶｸﾞﾗ2ｼﾞｮｳ","pref":"北海道","city":"旭川市","address":"神楽２条"},
{"zip_code":"0708003","kana_pref":"ﾎｯｶｲﾄﾞｳ","kana_city":"ｱｻﾋｶﾜｼ","kana_address":"ｶｸﾞﾗ3ｼﾞｮｳ","pref":"北海道","city":"旭川市","address":"神楽３条"},
{"zip_code":"0708004","kana_pref":"ﾎｯｶｲﾄﾞｳ","kana_city":"ｱｻﾋｶﾜｼ","kana_address":"ｶｸﾞﾗ4ｼﾞｮｳ","pref":"北海道","city":"旭川市","address":"神楽４条"},
{"zip_code":"0708005","kana_pref":"ﾎｯｶｲﾄﾞｳ","kana_city":"ｱｻﾋｶﾜｼ","kana_address":"ｶｸﾞﾗ5ｼﾞｮｳ","pref":"北海道","city":"旭川市","address":"神楽５条"},
{"zip_code":"0708006","kana_pref":"ﾎｯｶｲﾄﾞｳ","kana_city":"ｱｻﾋｶﾜｼ","kana_address":"ｶｸﾞﾗ6ｼﾞｮｳ","pref":"北海道","city":"旭川市","address":"神楽６条"},
{"zip_code":"0708007","kana_pref":"ﾎｯｶｲﾄﾞｳ","kana_city":"ｱｻﾋｶﾜｼ","kana_address":"ｶｸﾞﾗ7ｼﾞｮｳ","pref":"北海道","city":"旭川市","address":"神楽７条"},
{"zip_code":"0700041","kana_pref":"ﾎｯｶｲﾄﾞｳ","kana_city":"ｱｻﾋｶﾜｼ","kana_address":"ｶﾐﾄｷﾜﾁｮｳ","pref":"北海道","city":"旭川市","address":"上常盤町"},
{"zip_code":"0708011","kana_pref":"ﾎｯｶｲﾄﾞｳ","kana_city":"ｱｻﾋｶﾜｼ","kana_address":"ｶﾑｲ1ｼﾞｮｳ","pref":"北海道","city":"旭川市","address":"神居１条"},
{"zip_code":"0708012","kana_pref":"ﾎｯｶｲﾄﾞｳ","kana_city":"ｱｻﾋｶﾜｼ","kana_address":"ｶﾑｲ2ｼﾞｮｳ","pref":"北海道","city":"旭川市","address":"神居２条"},
{"zip_code":"0708013","kana_pref":"ﾎｯｶｲﾄﾞｳ","kana_city":"ｱｻﾋｶﾜｼ","kana_address":"ｶﾑｲ3ｼﾞｮｳ","pref":"北海道","city":"旭川市","address":"神居３条"},
{"zip_code":"0708014","kana_pref":"ﾎｯｶｲﾄﾞｳ","kana_city":"ｱｻﾋｶﾜｼ","kana_address":"ｶﾑｲ4ｼﾞｮｳ","pref":"北海道","city":"旭川市","address":"神居４条"},
{"zip_code":"0708015","kana_pref":"ﾎｯｶｲﾄﾞｳ","kana_city":"ｱｻﾋｶﾜｼ","kana_address":"ｶﾑｲ5ｼﾞｮｳ","pref":"北海道","city":"旭川市","address":"神居５条"},
{"zip_code":"0708016","kana_pref":"ﾎｯｶｲﾄﾞｳ","kana_city":"ｱｻﾋｶﾜｼ","kana_address":"ｶﾑｲ6ｼﾞｮｳ","pref":"北海道","city":"旭川市","address":"神居６条"},
{"zip_code":"0708017","kana_pref":"ﾎｯｶｲﾄﾞｳ","kana_city":"ｱｻﾋｶﾜｼ","kana_address":"ｶﾑｲ7ｼﾞｮｳ","pref":"北海道","city":"旭川市","address":"神居７条"},
{"zip_code":"0708018","kana_pref":"ﾎｯｶｲﾄﾞｳ","kana_city":"ｱｻﾋｶﾜｼ","kana_address":"ｶﾑｲ8ｼﾞｮｳ","pref":"北海道","city":"旭川市","address":"神居８条"},
{"zip_code":"0708019","kana_pref":"ﾎｯｶｲﾄﾞｳ","kana_city":"ｱｻﾋｶﾜｼ","kana_address":"ｶﾑｲ9ｼﾞｮｳ","pref":"北海道","city":"旭川市","address":"神居９条"},
{"zip_code":"0708033","kana_pref":"ﾎｯｶｲﾄﾞｳ","kana_city":"ｱｻﾋｶﾜｼ","kana_address":"ｶﾑｲﾁｮｳｳﾌﾞﾝ","pref":"北海道","city":"旭川市","address":"神居町雨紛"},
{"zip_code":"0708034","kana_pref":"ﾎｯｶｲﾄﾞｳ","kana_city":"ｱｻﾋｶﾜｼ","kana_address":"ｶﾑｲﾁｮｳｶﾐｳﾌﾞﾝ","pref":"北海道","city":"旭川市","address":"神居町上雨紛"},
{"zip_code":"0708026","kana_pref":"ﾎｯｶｲﾄﾞｳ","kana_city":"ｱｻﾋｶﾜｼ","kana_address":"ｶﾑｲﾁｮｳｶﾐｵｶ","pref":"北海道","city":"旭川市","address":"神居町神岡"},
{"zip_code":"0708032","kana_pref":"ﾎｯｶｲﾄﾞｳ","kana_city":"ｱｻﾋｶﾜｼ","kana_address":"ｶﾑｲﾁｮｳｷｮｳｴｲ","pref":"北海道","city":"旭川市","address":"神居町共栄"},
{"zip_code":"0708031","kana_pref":"ﾎｯｶｲﾄﾞｳ","kana_city":"ｱｻﾋｶﾜｼ","kana_address":"ｶﾑｲﾁｮｳｼﾝｶ","pref":"北海道","city":"旭川市","address":"神居町神華"},
{"zip_code":"0708022","kana_pref":"ﾎｯｶｲﾄﾞｳ","kana_city":"ｱｻﾋｶﾜｼ","kana_address":"ｶﾑｲﾁｮｳﾀﾞｲﾊﾞ","pref":"北海道","city":"旭川市","address":"神居町台場"},
{"zip_code":"0708021","kana_pref":"ﾎｯｶｲﾄﾞｳ","kana_city":"ｱｻﾋｶﾜｼ","kana_address":"ｶﾑｲﾁｮｳﾁｭｳﾜ","pref":"北海道","city":"旭川市","address":"神居町忠和"},
{"zip_code":"0708025","kana_pref":"ﾎｯｶｲﾄﾞｳ","kana_city":"ｱｻﾋｶﾜｼ","kana_address":"ｶﾑｲﾁｮｳﾄﾐｵｶ","pref":"北海道","city":"旭川市","address":"神居町富岡"},
{"zip_code":"0708024","kana_pref":"ﾎｯｶｲﾄﾞｳ","kana_city":"ｱｻﾋｶﾜｼ","kana_address":"ｶﾑｲﾁｮｳﾄﾐｻﾜ","pref":"北海道","city":"旭川市","address":"神居町富沢"},
{"zip_code":"0708023","kana_pref":"ﾎｯｶｲﾄﾞｳ","kana_city":"ｱｻﾋｶﾜｼ","kana_address":"ｶﾑｲﾁｮｳﾊﾙｼﾅｲ","pref":"北海道","city":"旭川市","address":"神居町春志内"},
{"zip_code":"0700081","kana_pref":"ﾎｯｶｲﾄﾞｳ","kana_city":"ｱｻﾋｶﾜｼ","kana_address":"ｶﾒｷﾁ1ｼﾞｮｳ","pref":"北海道","city":"旭川市","address":"亀吉１条"},
{"zip_code":"0700082","kana_pref":"ﾎｯｶｲﾄﾞｳ","kana_city":"ｱｻﾋｶﾜｼ","kana_address":"ｶﾒｷﾁ2ｼﾞｮｳ","pref":"北海道","city":"旭川市","address":"亀吉２条"},
{"zip_code":"0700083","kana_pref":"ﾎｯｶｲﾄﾞｳ","kana_city":"ｱｻﾋｶﾜｼ","kana_address":"ｶﾒｷﾁ3ｼﾞｮｳ","pref":"北海道","city":"旭川市","address":"亀吉３条"},
{"zip_code":"0700811","kana_pref":"ﾎｯｶｲﾄﾞｳ","kana_city":"ｱｻﾋｶﾜｼ","kana_address":"ｶﾜﾊﾞﾀﾁｮｳ1ｼﾞｮｳ","pref":"北海道","city":"旭川市","address":"川端町１条"},
{"zip_code":"0700812","kana_pref":"ﾎｯｶｲﾄﾞｳ","kana_city":"ｱｻﾋｶﾜｼ","kana_address":"ｶﾜﾊﾞﾀﾁｮｳ2ｼﾞｮｳ","pref":"北海道","city":"旭川市","address":"川端町２条"},
{"zip_code":"0700813","kana_pref":"ﾎｯｶｲﾄﾞｳ","kana_city":"ｱｻﾋｶﾜｼ","kana_address":"ｶﾜﾊﾞﾀﾁｮｳ3ｼﾞｮｳ","pref":"北海道","city":"旭川市","address":"川端町３条"},
{"zip_code":"0700814","kana_pref":"ﾎｯｶｲﾄﾞｳ","kana_city":"ｱｻﾋｶﾜｼ","kana_address":"ｶﾜﾊﾞﾀﾁｮｳ4ｼﾞｮｳ","pref":"北海道","city":"旭川市","address":"川端町４条"},
{"zip_code":"0700815","kana_pref":"ﾎｯｶｲﾄﾞｳ","kana_city":"ｱｻﾋｶﾜｼ","kana_address":"ｶﾜﾊﾞﾀﾁｮｳ5ｼﾞｮｳ","pref":"北海道","city":"旭川市","address":"川端町５条"},
{"zip_code":"0700816","kana_pref":"ﾎｯｶｲﾄﾞｳ","kana_city":"ｱｻﾋｶﾜｼ","kana_address":"ｶﾜﾊﾞﾀﾁｮｳ6ｼﾞｮｳ","pref":"北海道","city":"旭川市","address":"川端町６条"},
{"zip_code":"0700817","kana_pref":"ﾎｯｶｲﾄﾞｳ","kana_city":"ｱｻﾋｶﾜｼ","kana_address":"ｶﾜﾊﾞﾀﾁｮｳ7ｼﾞｮｳ","pref":"北海道","city":"旭川市","address":"川端町７条"},
{"zip_code":"0700029","kana_pref":"ﾎｯｶｲﾄﾞｳ","kana_city":"ｱｻﾋｶﾜｼ","kana_address":"ｷﾝｾｲﾁｮｳ","pref":"北海道","city":"旭川市","address":"金星町"},
{"zip_code":"0700871","kana_pref":"ﾎｯｶｲﾄﾞｳ","kana_city":"ｱｻﾋｶﾜｼ","kana_address":"ｼｭﾝｺｳ1ｼﾞｮｳ","pref":"北海道","city":"旭川市","address":"春光１条"},
{"zip_code":"0700872","kana_pref":"ﾎｯｶｲﾄﾞｳ","kana_city":"ｱｻﾋｶﾜｼ","kana_address":"ｼｭﾝｺｳ2ｼﾞｮｳ","pref":"北海道","city":"旭川市","address":"春光２条"},
{"zip_code":"0700873","kana_pref":"ﾎｯｶｲﾄﾞｳ","kana_city":"ｱｻﾋｶﾜｼ","kana_address":"ｼｭﾝｺｳ3ｼﾞｮｳ","pref":"北海道","city":"旭川市","address":"春光３条"},
{"zip_code":"0700874","kana_pref":"ﾎｯｶｲﾄﾞｳ","kana_city":"ｱｻﾋｶﾜｼ","kana_address":"ｼｭﾝｺｳ4ｼﾞｮｳ","pref":"北海道","city":"旭川市","address":"春光４条"},
{"zip_code":"0700875","kana_pref":"ﾎｯｶｲﾄﾞｳ","kana_city":"ｱｻﾋｶﾜｼ","kana_address":"ｼｭﾝｺｳ5ｼﾞｮｳ","pref":"北海道","city":"旭川市","address":"春光５条"},
{"zip_code":"0700876","kana_pref":"ﾎｯｶｲﾄﾞｳ","kana_city":"ｱｻﾋｶﾜｼ","kana_address":"ｼｭﾝｺｳ6ｼﾞｮｳ","pref":"北海道","city":"旭川市","address":"春光６条"},
{"zip_code":"0700877","kana_pref":"ﾎｯｶｲﾄﾞｳ","kana_city":"ｱｻﾋｶﾜｼ","kana_address":"ｼｭﾝｺｳ7ｼﾞｮｳ","pref":"北海道","city":"旭川市","address":"春光７条"},
{"zip_code":"0700902","kana_pref":"ﾎｯｶｲﾄﾞｳ","kana_city":"ｱｻﾋｶﾜｼ","kana_address":"ｼｭﾝｺｳﾁｮｳ","pref":"北海道","city":"旭川市","address":"春光町"},
{"zip_code":"0700014","kana_pref":"ﾎｯｶｲﾄﾞｳ","kana_city":"ｱｻﾋｶﾜｼ","kana_address":"ｼﾝｾｲﾁｮｳ","pref":"北海道","city":"旭川市","address":"新星町"},
{"zip_code":"0700001","kana_pref":"ﾎｯｶｲﾄﾞｳ","kana_city":"ｱｻﾋｶﾜｼ","kana_address":"ｼﾝﾄﾐ1ｼﾞｮｳ","pref":"北海道","city":"旭川市","address":"新富１条"},
{"zip_code":"0700002","kana_pref":"ﾎｯｶｲﾄﾞｳ","kana_city":"ｱｻﾋｶﾜｼ","kana_address":"ｼﾝﾄﾐ2ｼﾞｮｳ","pref":"北海道","city":"旭川市","address":"新富２条"},
{"zip_code":"0700003","kana_pref":"ﾎｯｶｲﾄﾞｳ","kana_city":"ｱｻﾋｶﾜｼ","kana_address":"ｼﾝﾄﾐ3ｼﾞｮｳ","pref":"北海道","city":"旭川市","address":"新富３条"},
{"zip_code":"0700864","kana_pref":"ﾎｯｶｲﾄﾞｳ","kana_city":"ｱｻﾋｶﾜｼ","kana_address":"ｽﾐﾖｼ4ｼﾞｮｳ","pref":"北海道","city":"旭川市","address":"住吉４条"},
{"zip_code":"0700865","kana_pref":"ﾎｯｶｲﾄﾞｳ","kana_city":"ｱｻﾋｶﾜｼ","kana_address":"ｽﾐﾖｼ5ｼﾞｮｳ","pref":"北海道","city":"旭川市","address":"住吉５条"},
{"zip_code":"0700866","kana_pref":"ﾎｯｶｲﾄﾞｳ","kana_city":"ｱｻﾋｶﾜｼ","kana_address":"ｽﾐﾖｼ6ｼﾞｮｳ","pref":"北海道","city":"旭川市","address":"住吉６条"},
{"zip_code":"0700867","kana_pref":"ﾎｯｶｲﾄﾞｳ","kana_city":"ｱｻﾋｶﾜｼ","kana_address":"ｽﾐﾖｼ7ｼﾞｮｳ","pref":"北海道","city":"旭川市","address":"住吉７条"},
{"zip_code":"0700010","kana_pref":"ﾎｯｶｲﾄﾞｳ","kana_city":"ｱｻﾋｶﾜｼ","kana_address":"ﾀｲｾﾂﾄﾞｵﾘ","pref":"北海道","city":"旭川市","address":"大雪通"},
{"zip_code":"0708071","kana_pref":"ﾎｯｶｲﾄﾞｳ","kana_city":"ｱｻﾋｶﾜｼ","kana_address":"ﾀﾞｲﾊﾞ1ｼﾞｮｳ","pref":"北海道","city":"旭川市","address":"台場１条"},
{"zip_code":"0708072","kana_pref":"ﾎｯｶｲﾄﾞｳ","kana_city":"ｱｻﾋｶﾜｼ","kana_address":"ﾀﾞｲﾊﾞ2ｼﾞｮｳ","pref":"北海道","city":"旭川市","address":"台場２条"},
{"zip_code":"0708073","kana_pref":"ﾎｯｶｲﾄﾞｳ","kana_city":"ｱｻﾋｶﾜｼ","kana_address":"ﾀﾞｲﾊﾞ3ｼﾞｮｳ","pref":"北海道","city":"旭川市","address":"台場３条"},
{"zip_code":"0708074","kana_pref":"ﾎｯｶｲﾄﾞｳ","kana_city":"ｱｻﾋｶﾜｼ","kana_address":"ﾀﾞｲﾊﾞ4ｼﾞｮｳ","pref":"北海道","city":"旭川市","address":"台場４条"},
{"zip_code":"0708027","kana_pref":"ﾎｯｶｲﾄﾞｳ","kana_city":"ｱｻﾋｶﾜｼ","kana_address":"ﾀﾞｲﾊﾞﾋｶﾞｼ","pref":"北海道","city":"旭川市","address":"台場東"},
{"zip_code":"0708061","kana_pref":"ﾎｯｶｲﾄﾞｳ","kana_city":"ｱｻﾋｶﾜｼ","kana_address":"ﾀｶｻｺﾞﾀﾞｲ","pref":"北海道","city":"旭川市","address":"高砂台"},
{"zip_code":"0700821","kana_pref":"ﾎｯｶｲﾄﾞｳ","kana_city":"ｱｻﾋｶﾜｼ","kana_address":"ﾁｶﾌﾞﾐﾁｮｳ","pref":"北海道","city":"旭川市","address":"近文町"},
{"zip_code":"0708041","kana_pref":"ﾎｯｶｲﾄﾞｳ","kana_city":"ｱｻﾋｶﾜｼ","kana_address":"ﾁｭｳﾜ1ｼﾞｮｳ","pref":"北海道","city":"旭川市","address":"忠和１条"},
{"zip_code":"0708042","kana_pref":"ﾎｯｶｲﾄﾞｳ","kana_city":"ｱｻﾋｶﾜｼ","kana_address":"ﾁｭｳﾜ2ｼﾞｮｳ","pref":"北海道","city":"旭川市","address":"忠和２条"},
{"zip_code":"0708043","kana_pref":"ﾎｯｶｲﾄﾞｳ","kana_city":"ｱｻﾋｶﾜｼ","kana_address":"ﾁｭｳﾜ3ｼﾞｮｳ","pref":"北海道","city":"旭川市","address":"忠和３条"},
{"zip_code":"0708044","kana_pref":"ﾎｯｶｲﾄﾞｳ","kana_city":"ｱｻﾋｶﾜｼ","kana_address":"ﾁｭｳﾜ4ｼﾞｮｳ","pref":"北海道","city":"旭川市","address":"忠和４条"},
{"zip_code":"0708045","kana_pref":"ﾎｯｶｲﾄﾞｳ","kana_city":"ｱｻﾋｶﾜｼ","kana_address":"ﾁｭｳﾜ5ｼﾞｮｳ","pref":"北海道","city":"旭川市","address":"忠和５条"},
{"zip_code":"0708046","kana_pref":"ﾎｯｶｲﾄﾞｳ","kana_city":"ｱｻﾋｶﾜｼ","kana_address":"ﾁｭｳﾜ6ｼﾞｮｳ","pref":"北海道","city":"旭川市","address":"忠和６条"},
{"zip_code":"0708047","kana_pref":"ﾎｯｶｲﾄﾞｳ","kana_city":"ｱｻﾋｶﾜｼ","kana_address":"ﾁｭｳﾜ7ｼﾞｮｳ","pref":"北海道","city":"旭川市","address":"忠和７条"},
{"zip_code":"0708048","kana_pref":"ﾎｯｶｲﾄﾞｳ","kana_city":"ｱｻﾋｶﾜｼ","kana_address":"ﾁｭｳﾜ8ｼﾞｮｳ","pref":"北海道","city":"旭川市","address":"忠和８条"},
{"zip_code":"0708049","kana_pref":"ﾎｯｶｲﾄﾞｳ","kana_city":"ｱｻﾋｶﾜｼ","kana_address":"ﾁｭｳﾜ9ｼﾞｮｳ","pref":"北海道","city":"旭川市","address":"忠和９条"},
{"zip_code":"0700044","kana_pref":"ﾎｯｶｲﾄﾞｳ","kana_city":"ｱｻﾋｶﾜｼ","kana_address":"ﾄｷﾜｺｳｴﾝ","pref":"北海道","city":"旭川市","address":"常磐公園"},
{"zip_code":"0700043","kana_pref":"ﾎｯｶｲﾄﾞｳ","kana_city":"ｱｻﾋｶﾜｼ","kana_address":"ﾄｷﾜﾄﾞｵﾘ","pref":"北海道","city":"旭川市","address":"常盤通"},
{"zip_code":"0700042","kana_pref":"ﾎｯｶｲﾄﾞｳ","kana_city":"ｱｻﾋｶﾜｼ","kana_address":"ﾅｶﾄｷﾜﾁｮｳ","pref":"北海道","city":"旭川市","address":"中常盤町"},
{"zip_code":"0700824","kana_pref":"ﾎｯｶｲﾄﾞｳ","kana_city":"ｱｻﾋｶﾜｼ","kana_address":"ﾆｼｷﾏﾁ","pref":"北海道","city":"旭川市","address":"錦町"},
{"zip_code":"0700901","kana_pref":"ﾎｯｶｲﾄﾞｳ","kana_city":"ｱｻﾋｶﾜｼ","kana_address":"ﾊﾅｻｷﾁｮｳ","pref":"北海道","city":"旭川市","address":"花咲町"},
{"zip_code":"0700013","kana_pref":"ﾎｯｶｲﾄﾞｳ","kana_city":"ｱｻﾋｶﾜｼ","kana_address":"ﾊﾟﾙﾌﾟﾁｮｳ","pref":"北海道","city":"旭川市","address":"パルプ町"},
{"zip_code":"0700011","kana_pref":"ﾎｯｶｲﾄﾞｳ","kana_city":"ｱｻﾋｶﾜｼ","kana_address":"ﾊﾟﾙﾌﾟﾁｮｳ1ｼﾞｮｳ","pref":"北海道","city":"旭川市","address":"パルプ町１条"},
{"zip_code":"0700012","kana_pref":"ﾎｯｶｲﾄﾞｳ","kana_city":"ｱｻﾋｶﾜｼ","kana_address":"ﾊﾟﾙﾌﾟﾁｮｳ2ｼﾞｮｳ","pref":"北海道","city":"旭川市","address":"パルプ町２条"},
{"zip_code":"0700021","kana_pref":"ﾎｯｶｲﾄﾞｳ","kana_city":"ｱｻﾋｶﾜｼ","kana_address":"ﾋｶﾞｼ1ｼﾞｮｳ","pref":"北海道","city":"旭川市","address":"東１条"},
{"zip_code":"0700022","kana_pref":"ﾎｯｶｲﾄﾞｳ","kana_city":"ｱｻﾋｶﾜｼ","kana_address":"ﾋｶﾞｼ2ｼﾞｮｳ","pref":"北海道","city":"旭川市","address":"東２条"},
{"zip_code":"0700023","kana_pref":"ﾎｯｶｲﾄﾞｳ","kana_city":"ｱｻﾋｶﾜｼ","kana_address":"ﾋｶﾞｼ3ｼﾞｮｳ","pref":"北海道","city":"旭川市","address":"東３条"},
{"zip_code":"0700024","kana_pref":"ﾎｯｶｲﾄﾞｳ","kana_city":"ｱｻﾋｶﾜｼ","kana_address":"ﾋｶﾞｼ4ｼﾞｮｳ","pref":"北海道","city":"旭川市","address":"東４条"},
{"zip_code":"0700025","kana_pref":"ﾎｯｶｲﾄﾞｳ","kana_city":"ｱｻﾋｶﾜｼ","kana_address":"ﾋｶﾞｼ5ｼﾞｮｳ","pref":"北海道","city":"旭川市","address":"東５条"},
{"zip_code":"0700026","kana_pref":"ﾎｯｶｲﾄﾞｳ","kana_city":"ｱｻﾋｶﾜｼ","kana_address":"ﾋｶﾞｼ6ｼﾞｮｳ","pref":"北海道","city":"旭川市","address":"東６条"},
{"zip_code":"0700027","kana_pref":"ﾎｯｶｲﾄﾞｳ","kana_city":"ｱｻﾋｶﾜｼ","kana_address":"ﾋｶﾞｼ7ｼﾞｮｳ","pref":"北海道","city":"旭川市","address":"東７条"},
{"zip_code":"0700028","kana_pref":"ﾎｯｶｲﾄﾞｳ","kana_city":"ｱｻﾋｶﾜｼ","kana_address":"ﾋｶﾞｼ8ｼﾞｮｳ","pref":"北海道","city":"旭川市","address":"東８条"},
{"zip_code":"0700825","kana_pref":"ﾎｯｶｲﾄﾞｳ","kana_city":"ｱｻﾋｶﾜｼ","kana_address":"ﾎｸﾓﾝﾁｮｳ","pref":"北海道","city":"旭川市","address":"北門町"},
{"zip_code":"0700823","kana_pref":"ﾎｯｶｲﾄﾞｳ","kana_city":"ｱｻﾋｶﾜｼ","kana_address":"ﾐﾄﾞﾘﾏﾁ","pref":"北海道","city":"旭川市","address":"緑町"},
{"zip_code":"0708028","kana_pref":"ﾎｯｶｲﾄﾞｳ","kana_city":"ｱｻﾋｶﾜｼ","kana_address":"ﾐﾅﾐｶﾞｵｶ","pref":"北海道","city":"旭川市","address":"南が丘"},
{"zip_code":"0700030","kana_pref":"ﾎｯｶｲﾄﾞｳ","kana_city":"ｱｻﾋｶﾜｼ","kana_address":"ﾐﾔｼﾀﾄﾞｵﾘ","pref":"北海道","city":"旭川市","address":"宮下通"},
{"zip_code":"0700810","kana_pref":"ﾎｯｶｲﾄﾞｳ","kana_city":"ｱｻﾋｶﾜｼ","kana_address":"ﾓﾄﾏﾁ","pref":"北海道","city":"旭川市","address":"本町"},
{"zip_code":"0700971","kana_pref":"ﾎｯｶｲﾄﾞｳ","kana_city":"ｱｻﾋｶﾜｼ","kana_address":"4ｸ1ｼﾞｮｳ","pref":"北海道","city":"旭川市","address":"４区１条"},
{"zip_code":"0700972","kana_pref":"ﾎｯｶｲﾄﾞｳ","kana_city":"ｱｻﾋｶﾜｼ","kana_address":"4ｸ2ｼﾞｮｳ","pref":"北海道","city":"旭川市","address":"４区２条"},
{"zip_code":"0700973","kana_pref":"ﾎｯｶｲﾄﾞｳ","kana_city":"ｱｻﾋｶﾜｼ","kana_address":"4ｸ3ｼﾞｮｳ","pref":"北海道","city":"旭川市","address":"４区３条"},
{"zip_code":"0700031","kana_pref":"ﾎｯｶｲﾄﾞｳ","kana_city":"ｱｻﾋｶﾜｼ","kana_address":"1ｼﾞｮｳﾄﾞｵﾘ","pref":"北海道","city":"旭川市","address":"１条通"},
{"zip_code":"0700032","kana_pref":"ﾎｯｶｲﾄﾞｳ","kana_city":"ｱｻﾋｶﾜｼ","kana_address":"2ｼﾞｮｳﾄﾞｵﾘ","pref":"北海道","city":"旭川市","address":"２条通"},
{"zip_code":"0700052","kana_pref":"ﾎｯｶｲﾄﾞｳ","kana_city":"ｱｻﾋｶﾜｼ","kana_address":"2ｼﾞｮｳﾆｼ","pref":"北海道","city":"旭川市","address":"２条西"},
{"zip_code":"0700033","kana_pref":"ﾎｯｶｲﾄﾞｳ","kana_city":"ｱｻﾋｶﾜｼ","kana_address":"3ｼﾞｮｳﾄﾞｵﾘ","pref":"北海道","city":"旭川市","address":"３条通"},
{"zip_code":"0700053","kana_pref":"ﾎｯｶｲﾄﾞｳ","kana_city":"ｱｻﾋｶﾜｼ","kana_address":"3ｼﾞｮｳﾆｼ","pref":"北海道","city":"旭川市","address":"３条西"},
{"zip_code":"0700034","kana_pref":"ﾎｯｶｲﾄﾞｳ","kana_city":"ｱｻﾋｶﾜｼ","kana_address":"4ｼﾞｮｳﾄﾞｵﾘ","pref":"北海道","city":"旭川市","address":"４条通"},
{"zip_code":"0700054","kana_pref":"ﾎｯｶｲﾄﾞｳ","kana_city":"ｱｻﾋｶﾜｼ","kana_address":"4ｼﾞｮｳﾆｼ","pref":"北海道","city":"旭川市","address":"４条西"},
{"zip_code":"0700035","kana_pref":"ﾎｯｶｲﾄﾞｳ","kana_city":"ｱｻﾋｶﾜｼ","kana_address":"5ｼﾞｮｳﾄﾞｵﾘ","pref":"北海道","city":"旭川市","address":"５条通"},
{"zip_code":"0700055","kana_pref":"ﾎｯｶｲﾄﾞｳ","kana_city":"ｱｻﾋｶﾜｼ","kana_address":"5ｼﾞｮｳﾆｼ","pref":"北海道","city":"旭川市","address":"５条西"},
{"zip_code":"0700036","kana_pref":"ﾎｯｶｲﾄﾞｳ","kana_city":"ｱｻﾋｶﾜｼ","kana_address":"6ｼﾞｮｳﾄﾞｵﾘ","pref":"北海道","city":"旭川市","address":"６条通"},
{"zip_code":"0700056","kana_pref":"ﾎｯｶｲﾄﾞｳ","kana_city":"ｱｻﾋｶﾜｼ","kana_address":"6ｼﾞｮｳﾆｼ","pref":"北海道","city":"旭川市","address":"６条西"},
{"zip_code":"0700037","kana_pref":"ﾎｯｶｲﾄﾞｳ","kana_city":"ｱｻﾋｶﾜｼ","kana_address":"7ｼﾞｮｳﾄﾞｵﾘ","pref":"北海道","city":"旭川市","address":"７条通"},
{"zip_code":"0700057","kana_pref":"ﾎｯｶｲﾄﾞｳ","kana_city":"ｱｻﾋｶﾜｼ","kana_address":"7ｼﾞｮｳﾆｼ","pref":"北海道","city":"旭川市","address":"７条西"},
{"zip_code":"0700038","kana_pref":"ﾎｯｶｲﾄﾞｳ","kana_city":"ｱｻﾋｶﾜｼ","kana_address":"8ｼﾞｮｳﾄﾞｵﾘ","pref":"北海道","city":"旭川市","address":"８条通"},
{"zip_code":"0700058","kana_pref":"ﾎｯｶｲﾄﾞｳ","kana_city":"ｱｻﾋｶﾜｼ","kana_address":"8ｼﾞｮｳﾆｼ","pref":"北海道","city":"旭川市","address":"８条西"},
{"zip_code":"0700039","kana_pref":"ﾎｯｶｲﾄﾞｳ","kana_city":"ｱｻﾋｶﾜｼ","kana_address":"9ｼﾞｮｳﾄﾞｵﾘ","pref":"北海道","city":"旭川市","address":"９条通"},
{"zip_code":"0700059","kana_pref":"ﾎｯｶｲﾄﾞｳ","kana_city":"ｱｻﾋｶﾜｼ","kana_address":"9ｼﾞｮｳﾆｼ","pref":"北海道","city":"旭川市","address":"９条西"},
{"zip_code":"0700040","kana_pref":"ﾎｯｶｲﾄﾞｳ","kana_city":"ｱｻﾋｶﾜｼ","kana_address":"10ｼﾞｮｳﾄﾞｵﾘ","pref":"北海道","city":"旭川市","address":"１０条通"}]}