{"zip_code":[
{"zip_code":"0730000","kana_pref":"ﾎｯｶｲﾄﾞｳ","kana_city":"ﾀｷｶﾜｼ","kana_address":"","pref":"北海道","city":"滝川市","address":""},
{"zip_code":"0730015","kana_pref":"ﾎｯｶｲﾄﾞｳ","kana_city":"ﾀｷｶﾜｼ","kana_address":"ｱｻﾋﾏﾁﾋｶﾞｼ","pref":"北海道","city":"滝川市","address":"朝日町東"},
{"zip_code":"0730018","kana_pref":"ﾎｯｶｲﾄﾞｳ","kana_city":"ﾀｷｶﾜｼ","kana_address":"ｱｻﾋﾏﾁﾆｼ","pref":"北海道","city":"滝川市","address":"朝日町西"},
{"zip_code":"0730045","kana_pref":"ﾎｯｶｲﾄﾞｳ","kana_city":"ﾀｷｶﾜｼ","kana_address":"ｱﾘｱｹﾁｮｳ","pref":"北海道","city":"滝川市","address":"有明町"},
{"zip_code":"0730042","kana_pref":"ﾎｯｶｲﾄﾞｳ","kana_city":"ﾀｷｶﾜｼ","kana_address":"ｲｽﾞﾐﾏﾁ","pref":"北海道","city":"滝川市","address":"泉町"},
{"zip_code":"0730016","kana_pref":"ﾎｯｶｲﾄﾞｳ","kana_city":"ﾀｷｶﾜｼ","kana_address":"ｲﾁﾉｻｶﾁｮｳﾋｶﾞｼ","pref":"北海道","city":"滝川市","address":"一の坂町東"},
{"zip_code":"0730017","kana_pref":"ﾎｯｶｲﾄﾞｳ","kana_city":"ﾀｷｶﾜｼ","kana_address":"ｲﾁﾉｻｶﾁｮｳﾆｼ","pref":"北海道","city":"滝川市","address":"一の坂町西"},
{"zip_code":"0730046","kana_pref":"ﾎｯｶｲﾄﾞｳ","kana_city":"ﾀｷｶﾜｼ","kana_address":"ｵｳｷﾞﾏﾁ","pref":"北海道","city":"滝川市","address":"扇町"},
{"zip_code":"0730022","kana_pref":"ﾎｯｶｲﾄﾞｳ","kana_city":"ﾀｷｶﾜｼ","kana_address":"ｵｵﾏﾁ","pref":"北海道","city":"滝川市","address":"大町"},
{"zip_code":"0730036","kana_pref":"ﾎｯｶｲﾄﾞｳ","kana_city":"ﾀｷｶﾜｼ","kana_address":"ｶｹﾞﾂﾁｮｳ","pref":"北海道","city":"滝川市","address":"花月町"},
{"zip_code":"0730001","kana_pref":"ﾎｯｶｲﾄﾞｳ","kana_city":"ﾀｷｶﾜｼ","kana_address":"ｷﾀﾀｷﾉｶﾜ","pref":"北海道","city":"滝川市","address":"北滝の川"},
{"zip_code":"0730012","kana_pref":"ﾎｯｶｲﾄﾞｳ","kana_city":"ﾀｷｶﾜｼ","kana_address":"ｺｶﾞﾈﾏﾁﾋｶﾞｼ","pref":"北海道","city":"滝川市","address":"黄金町東"},
{"zip_code":"0730011","kana_pref":"ﾎｯｶｲﾄﾞｳ","kana_city":"ﾀｷｶﾜｼ","kana_address":"ｺｶﾞﾈﾏﾁﾆｼ","pref":"北海道","city":"滝川市","address":"黄金町西"},
{"zip_code":"0730043","kana_pref":"ﾎｯｶｲﾄﾞｳ","kana_city":"ﾀｷｶﾜｼ","kana_address":"ｻｲﾜｲﾁｮｳ","pref":"北海道","city":"滝川市","address":"幸町"},
{"zip_code":"0730031","kana_pref":"ﾎｯｶｲﾄﾞｳ","kana_city":"ﾀｷｶﾜｼ","kana_address":"ｻｶｴﾏﾁ","pref":"北海道","city":"滝川市","address":"栄町"},
{"zip_code":"0730033","kana_pref":"ﾎｯｶｲﾄﾞｳ","kana_city":"ﾀｷｶﾜｼ","kana_address":"ｼﾝﾏﾁ","pref":"北海道","city":"滝川市","address":"新町"},
{"zip_code":"0730034","kana_pref":"ﾎｯｶｲﾄﾞｳ","kana_city":"ﾀｷｶﾜｼ","kana_address":"ｿﾗﾁﾁｮｳ","pref":"北海道","city":"滝川市","address":"空知町"},
{"zip_code":"0730004","kana_pref":"ﾎｯｶｲﾄﾞｳ","kana_city":"ﾀｷｶﾜｼ","kana_address":"ﾀｷﾉｶﾜﾁｮｳﾋｶﾞｼ","pref":"北海道","city":"滝川市","address":"滝の川町東"},
{"zip_code":"0730003","kana_pref":"ﾎｯｶｲﾄﾞｳ","kana_city":"ﾀｷｶﾜｼ","kana_address":"ﾀｷﾉｶﾜﾁｮｳﾆｼ","pref":"北海道","city":"滝川市","address":"滝の川町西"},
{"zip_code":"0730002","kana_pref":"ﾎｯｶｲﾄﾞｳ","kana_city":"ﾀｷｶﾜｼ","kana_address":"ﾄﾝﾃﾞﾝﾁｮｳﾆｼ","pref":"北海道","city":"滝川市","address":"屯田町西"},
{"zip_code":"0730035","kana_pref":"ﾎｯｶｲﾄﾞｳ","kana_city":"ﾀｷｶﾜｼ","kana_address":"ﾅｶｼﾞﾏﾁｮｳ","pref":"北海道","city":"滝川市","address":"中島町"},
{"zip_code":"0730041","kana_pref":"ﾎｯｶｲﾄﾞｳ","kana_city":"ﾀｷｶﾜｼ","kana_address":"ﾆｼﾀｷｶﾜ","pref":"北海道","city":"滝川市","address":"西滝川"},
{"zip_code":"0730044","kana_pref":"ﾎｯｶｲﾄﾞｳ","kana_city":"ﾀｷｶﾜｼ","kana_address":"ﾆｼﾏﾁ","pref":"北海道","city":"滝川市","address":"西町"},
{"zip_code":"0730005","kana_pref":"ﾎｯｶｲﾄﾞｳ","kana_city":"ﾀｷｶﾜｼ","kana_address":"ﾆﾉｻｶﾁｮｳﾋｶﾞｼ","pref":"北海道","city":"滝川市","address":"二の坂町東"},
{"zip_code":"0730006","kana_pref":"ﾎｯｶｲﾄﾞｳ","kana_city":"ﾀｷｶﾜｼ","kana_address":"ﾆﾉｻｶﾁｮｳﾆｼ","pref":"北海道","city":"滝川市","address":"二の坂町西"},
{"zip_code":"0730026","kana_pref":"ﾎｯｶｲﾄﾞｳ","kana_city":"ﾀｷｶﾜｼ","kana_address":"ﾋｶﾞｼﾀｷｶﾜ","pref":"北海道","city":"滝川市","address":"東滝川"},
{"zip_code":"0730027","kana_pref":"ﾎｯｶｲﾄﾞｳ","kana_city":"ﾀｷｶﾜｼ","kana_address":"ﾋｶﾞｼﾀｷｶﾜﾁｮｳ","pref":"北海道","city":"滝川市","address":"東滝川町"},
{"zip_code":"0730024","kana_pref":"ﾎｯｶｲﾄﾞｳ","kana_city":"ﾀｷｶﾜｼ","kana_address":"ﾋｶﾞｼﾏﾁ","pref":"北海道","city":"滝川市","address":"東町"},
{"zip_code":"0730014","kana_pref":"ﾎｯｶｲﾄﾞｳ","kana_city":"ﾀｷｶﾜｼ","kana_address":"ﾌﾞﾝｷｮｳﾁｮｳ","pref":"北海道","city":"滝川市","address":"文京町"},
{"zip_code":"0730021","kana_pref":"ﾎｯｶｲﾄﾞｳ","kana_city":"ﾀｷｶﾜｼ","kana_address":"ﾎﾝﾏﾁ","pref":"北海道","city":"滝川市","address":"本町"},
{"zip_code":"0730023","kana_pref":"ﾎｯｶｲﾄﾞｳ","kana_city":"ﾀｷｶﾜｼ","kana_address":"ﾐﾄﾞﾘﾏﾁ","pref":"北海道","city":"滝川市","address":"緑町"},
{"zip_code":"0730013","kana_pref":"ﾎｯｶｲﾄﾞｳ","kana_city":"ﾀｷｶﾜｼ","kana_address":"ﾐﾅﾐﾀｷﾉｶﾜ","pref":"北海道","city":"滝川市","address":"南滝の川"},
{"zip_code":"0730032","kana_pref":"ﾎｯｶｲﾄﾞｳ","kana_city":"ﾀｷｶﾜｼ","kana_address":"ﾐｮｳｼﾞﾝﾁｮｳ","pref":"北海道","city":"滝川市","address":"明神町"},
{"zip_code":"0730025","kana_pref":"ﾎｯｶｲﾄﾞｳ","kana_city":"ﾀｷｶﾜｼ","kana_address":"ﾘｭｳﾂｳﾀﾞﾝﾁ","pref":"北海道","city":"滝川市","address":"流通団地"},
{"zip_code":"0730100","kana_pref":"ﾎｯｶｲﾄﾞｳ","kana_city":"ｽﾅｶﾞﾜｼ","kana_address":"","pref":"北海道","city":"砂川市","address":""},
{"zip_code":"0730107","kana_pref":"ﾎｯｶｲﾄﾞｳ","kana_city":"ｽﾅｶﾞﾜｼ","kana_address":"ｲﾁﾉｻﾜ","pref":"北海道","city":"砂川市","address":"一の沢"},
{"zip_code":"0730116","kana_pref":"ﾎｯｶｲﾄﾞｳ","kana_city":"ｽﾅｶﾞﾜｼ","kana_address":"ｳｽﾞﾗ","pref":"北海道","city":"砂川市","address":"鶉"},
{"zip_code":"0730118","kana_pref":"ﾎｯｶｲﾄﾞｳ","kana_city":"ｽﾅｶﾞﾜｼ","kana_address":"ｷﾀﾖｼﾉﾁｮｳ","pref":"北海道","city":"砂川市","address":"北吉野町"},
{"zip_code":"0730177","kana_pref":"ﾎｯｶｲﾄﾞｳ","kana_city":"ｽﾅｶﾞﾜｼ","kana_address":"ｿﾗﾁﾌﾞﾄ","pref":"北海道","city":"砂川市","address":"空知太"},
{"zip_code":"0730106","kana_pref":"ﾎｯｶｲﾄﾞｳ","kana_city":"ｽﾅｶﾞﾜｼ","kana_address":"ｿﾗﾁﾌﾞﾄ","pref":"北海道","city":"砂川市","address":"空知太"},
{"zip_code":"0730171","kana_pref":"ﾎｯｶｲﾄﾞｳ","kana_city":"ｽﾅｶﾞﾜｼ","kana_address":"ｿﾗﾁﾌﾞﾄﾆｼ1ｼﾞｮｳ","pref":"北海道","city":"砂川市","address":"空知太西一条"},
{"zip_code":"0730172","kana_pref":"ﾎｯｶｲﾄﾞｳ","kana_city":"ｽﾅｶﾞﾜｼ","kana_address":"ｿﾗﾁﾌﾞﾄﾆｼ2ｼﾞｮｳ","pref":"北海道","city":"砂川市","address":"空知太西二条"},
{"zip_code":"0730173","kana_pref":"ﾎｯｶｲﾄﾞｳ","kana_city":"ｽﾅｶﾞﾜｼ","kana_address":"ｿﾗﾁﾌﾞﾄﾆｼ3ｼﾞｮｳ","pref":"北海道","city":"砂川市","address":"空知太西三条"},
{"zip_code":"0730174","kana_pref":"ﾎｯｶｲﾄﾞｳ","kana_city":"ｽﾅｶﾞﾜｼ","kana_address":"ｿﾗﾁﾌﾞﾄﾆｼ4ｼﾞｮｳ","pref":"北海道","city":"砂川市","address":"空知太西四条"},
{"zip_code":"0730175","kana_pref":"ﾎｯｶｲﾄﾞｳ","kana_city":"ｽﾅｶﾞﾜｼ","kana_address":"ｿﾗﾁﾌﾞﾄﾆｼ5ｼﾞｮｳ","pref":"北海道","city":"砂川市","address":"空知太西五条"},
{"zip_code":"0730176","kana_pref":"ﾎｯｶｲﾄﾞｳ","kana_city":"ｽﾅｶﾞﾜｼ","kana_address":"ｿﾗﾁﾌﾞﾄﾆｼ6ｼﾞｮｳ","pref":"北海道","city":"砂川市","address":"空知太西六条"},
{"zip_code":"0730101","kana_pref":"ﾎｯｶｲﾄﾞｳ","kana_city":"ｽﾅｶﾞﾜｼ","kana_address":"ｿﾗﾁﾌﾞﾄﾋｶﾞｼ1ｼﾞｮｳ","pref":"北海道","city":"砂川市","address":"空知太東一条"},
{"zip_code":"0730102","kana_pref":"ﾎｯｶｲﾄﾞｳ","kana_city":"ｽﾅｶﾞﾜｼ","kana_address":"ｿﾗﾁﾌﾞﾄﾋｶﾞｼ2ｼﾞｮｳ","pref":"北海道","city":"砂川市","address":"空知太東二条"},
{"zip_code":"0730103","kana_pref":"ﾎｯｶｲﾄﾞｳ","kana_city":"ｽﾅｶﾞﾜｼ","kana_address":"ｿﾗﾁﾌﾞﾄﾋｶﾞｼ3ｼﾞｮｳ","pref":"北海道","city":"砂川市","address":"空知太東三条"},
{"zip_code":"0730104","kana_pref":"ﾎｯｶｲﾄﾞｳ","kana_city":"ｽﾅｶﾞﾜｼ","kana_address":"ｿﾗﾁﾌﾞﾄﾋｶﾞｼ4ｼﾞｮｳ","pref":"北海道","city":"砂川市","address":"空知太東四条"},
{"zip_code":"0730105","kana_pref":"ﾎｯｶｲﾄﾞｳ","kana_city":"ｽﾅｶﾞﾜｼ","kana_address":"ｿﾗﾁﾌﾞﾄﾋｶﾞｼ5ｼﾞｮｳ","pref":"北海道","city":"砂川市","address":"空知太東五条"},
{"zip_code":"0730085","kana_pref":"ﾎｯｶｲﾄﾞｳ","kana_city":"ｽﾅｶﾞﾜｼ","kana_address":"ﾄﾐﾋﾗ","pref":"北海道","city":"砂川市","address":"富平"},
{"zip_code":"0730138","kana_pref":"ﾎｯｶｲﾄﾞｳ","kana_city":"ｽﾅｶﾞﾜｼ","kana_address":"ﾄﾖﾇﾏﾁｮｳ","pref":"北海道","city":"砂川市","address":"豊沼町"},
{"zip_code":"0730148","kana_pref":"ﾎｯｶｲﾄﾞｳ","kana_city":"ｽﾅｶﾞﾜｼ","kana_address":"ﾆｼﾄﾖﾇﾏ","pref":"北海道","city":"砂川市","address":"西豊沼"},
{"zip_code":"0730141","kana_pref":"ﾎｯｶｲﾄﾞｳ","kana_city":"ｽﾅｶﾞﾜｼ","kana_address":"ﾆｼ1ｼﾞｮｳﾐﾅﾐ","pref":"北海道","city":"砂川市","address":"西一条南"},
{"zip_code":"0730161","kana_pref":"ﾎｯｶｲﾄﾞｳ","kana_city":"ｽﾅｶﾞﾜｼ","kana_address":"ﾆｼ1ｼﾞｮｳｷﾀ","pref":"北海道","city":"砂川市","address":"西一条北"},
{"zip_code":"0730142","kana_pref":"ﾎｯｶｲﾄﾞｳ","kana_city":"ｽﾅｶﾞﾜｼ","kana_address":"ﾆｼ2ｼﾞｮｳﾐﾅﾐ","pref":"北海道","city":"砂川市","address":"西二条南"},
{"zip_code":"0730162","kana_pref":"ﾎｯｶｲﾄﾞｳ","kana_city":"ｽﾅｶﾞﾜｼ","kana_address":"ﾆｼ2ｼﾞｮｳｷﾀ","pref":"北海道","city":"砂川市","address":"西二条北"},
{"zip_code":"0730143","kana_pref":"ﾎｯｶｲﾄﾞｳ","kana_city":"ｽﾅｶﾞﾜｼ","kana_address":"ﾆｼ3ｼﾞｮｳﾐﾅﾐ","pref":"北海道","city":"砂川市","address":"西三条南"},
{"zip_code":"0730163","kana_pref":"ﾎｯｶｲﾄﾞｳ","kana_city":"ｽﾅｶﾞﾜｼ","kana_address":"ﾆｼ3ｼﾞｮｳｷﾀ","pref":"北海道","city":"砂川市","address":"西三条北"},
{"zip_code":"0730144","kana_pref":"ﾎｯｶｲﾄﾞｳ","kana_city":"ｽﾅｶﾞﾜｼ","kana_address":"ﾆｼ4ｼﾞｮｳﾐﾅﾐ","pref":"北海道","city":"砂川市","address":"西四条南"},
{"zip_code":"0730164","kana_pref":"ﾎｯｶｲﾄﾞｳ","kana_city":"ｽﾅｶﾞﾜｼ","kana_address":"ﾆｼ4ｼﾞｮｳｷﾀ","pref":"北海道","city":"砂川市","address":"西四条北"},
{"zip_code":"0730145","kana_pref":"ﾎｯｶｲﾄﾞｳ","kana_city":"ｽﾅｶﾞﾜｼ","kana_address":"ﾆｼ5ｼﾞｮｳﾐﾅﾐ","pref":"北海道","city":"砂川市","address":"西五条南"},
{"zip_code":"0730165","kana_pref":"ﾎｯｶｲﾄﾞｳ","kana_city":"ｽﾅｶﾞﾜｼ","kana_address":"ﾆｼ5ｼﾞｮｳｷﾀ","pref":"北海道","city":"砂川市","address":"西五条北"},
{"zip_code":"0730146","kana_pref":"ﾎｯｶｲﾄﾞｳ","kana_city":"ｽﾅｶﾞﾜｼ","kana_address":"ﾆｼ6ｼﾞｮｳﾐﾅﾐ","pref":"北海道","city":"砂川市","address":"西六条南"},
{"zip_code":"0730166","kana_pref":"ﾎｯｶｲﾄﾞｳ","kana_city":"ｽﾅｶﾞﾜｼ","kana_address":"ﾆｼ6ｼﾞｮｳｷﾀ","pref":"北海道","city":"砂川市","address":"西六条北"},
{"zip_code":"0730147","kana_pref":"ﾎｯｶｲﾄﾞｳ","kana_city":"ｽﾅｶﾞﾜｼ","kana_address":"ﾆｼ7ｼﾞｮｳﾐﾅﾐ","pref":"北海道","city":"砂川市","address":"西七条南"},
{"zip_code":"0730167","kana_pref":"ﾎｯｶｲﾄﾞｳ","kana_city":"ｽﾅｶﾞﾜｼ","kana_address":"ﾆｼ7ｼﾞｮｳｷﾀ","pref":"北海道","city":"砂川市","address":"西七条北"},
{"zip_code":"0730168","kana_pref":"ﾎｯｶｲﾄﾞｳ","kana_city":"ｽﾅｶﾞﾜｼ","kana_address":"ﾆｼ8ｼﾞｮｳｷﾀ","pref":"北海道","city":"砂川市","address":"西八条北"},
{"zip_code":"0730111","kana_pref":"ﾎｯｶｲﾄﾞｳ","kana_city":"ｽﾅｶﾞﾜｼ","kana_address":"ﾊﾙﾐ1ｼﾞｮｳｷﾀ","pref":"北海道","city":"砂川市","address":"晴見一条北"},
{"zip_code":"0730112","kana_pref":"ﾎｯｶｲﾄﾞｳ","kana_city":"ｽﾅｶﾞﾜｼ","kana_address":"ﾊﾙﾐ2ｼﾞｮｳｷﾀ","pref":"北海道","city":"砂川市","address":"晴見二条北"},
{"zip_code":"0730113","kana_pref":"ﾎｯｶｲﾄﾞｳ","kana_city":"ｽﾅｶﾞﾜｼ","kana_address":"ﾊﾙﾐ3ｼﾞｮｳｷﾀ","pref":"北海道","city":"砂川市","address":"晴見三条北"},
{"zip_code":"0730114","kana_pref":"ﾎｯｶｲﾄﾞｳ","kana_city":"ｽﾅｶﾞﾜｼ","kana_address":"ﾊﾙﾐ4ｼﾞｮｳｷﾀ","pref":"北海道","city":"砂川市","address":"晴見四条北"},
{"zip_code":"0730126","kana_pref":"ﾎｯｶｲﾄﾞｳ","kana_city":"ｽﾅｶﾞﾜｼ","kana_address":"ﾋｶﾞｼﾄﾖﾇﾏ","pref":"北海道","city":"砂川市","address":"東豊沼"},
{"zip_code":"0730131","kana_pref":"ﾎｯｶｲﾄﾞｳ","kana_city":"ｽﾅｶﾞﾜｼ","kana_address":"ﾋｶﾞｼ1ｼﾞｮｳﾐﾅﾐ","pref":"北海道","city":"砂川市","address":"東一条南"},
{"zip_code":"0730151","kana_pref":"ﾎｯｶｲﾄﾞｳ","kana_city":"ｽﾅｶﾞﾜｼ","kana_address":"ﾋｶﾞｼ1ｼﾞｮｳｷﾀ","pref":"北海道","city":"砂川市","address":"東一条北"},
{"zip_code":"0730132","kana_pref":"ﾎｯｶｲﾄﾞｳ","kana_city":"ｽﾅｶﾞﾜｼ","kana_address":"ﾋｶﾞｼ2ｼﾞｮｳﾐﾅﾐ","pref":"北海道","city":"砂川市","address":"東二条南"},
{"zip_code":"0730152","kana_pref":"ﾎｯｶｲﾄﾞｳ","kana_city":"ｽﾅｶﾞﾜｼ","kana_address":"ﾋｶﾞｼ2ｼﾞｮｳｷﾀ","pref":"北海道","city":"砂川市","address":"東二条北"},
{"zip_code":"0730153","kana_pref":"ﾎｯｶｲﾄﾞｳ","kana_city":"ｽﾅｶﾞﾜｼ","kana_address":"ﾋｶﾞｼ3ｼﾞｮｳｷﾀ","pref":"北海道","city":"砂川市","address":"東三条北"},
{"zip_code":"0730133","kana_pref":"ﾎｯｶｲﾄﾞｳ","kana_city":"ｽﾅｶﾞﾜｼ","kana_address":"ﾋｶﾞｼ3ｼﾞｮｳﾐﾅﾐ","pref":"北海道","city":"砂川市","address":"東三条南"},
{"zip_code":"0730134","kana_pref":"ﾎｯｶｲﾄﾞｳ","kana_city":"ｽﾅｶﾞﾜｼ","kana_address":"ﾋｶﾞｼ4ｼﾞｮｳﾐﾅﾐ","pref":"北海道","city":"砂川市","address":"東四条南"},
{"zip_code":"0730154","kana_pref":"ﾎｯｶｲﾄﾞｳ","kana_city":"ｽﾅｶﾞﾜｼ","kana_address":"ﾋｶﾞｼ4ｼﾞｮｳｷﾀ","pref":"北海道","city":"砂川市","address":"東四条北"},
{"zip_code":"0730135","kana_pref":"ﾎｯｶｲﾄﾞｳ","kana_city":"ｽﾅｶﾞﾜｼ","kana_address":"ﾋｶﾞｼ5ｼﾞｮｳﾐﾅﾐ","pref":"北海道","city":"砂川市","address":"東五条南"},
{"zip_code":"0730155","kana_pref":"ﾎｯｶｲﾄﾞｳ","kana_city":"ｽﾅｶﾞﾜｼ","kana_address":"ﾋｶﾞｼ5ｼﾞｮｳｷﾀ","pref":"北海道","city":"砂川市","address":"東五条北"},
{"zip_code":"0730136","kana_pref":"ﾎｯｶｲﾄﾞｳ","kana_city":"ｽﾅｶﾞﾜｼ","kana_address":"ﾋｶﾞｼ6ｼﾞｮｳﾐﾅﾐ","pref":"北海道","city":"砂川市","address":"東六条南"},
{"zip_code":"0730156","kana_pref":"ﾎｯｶｲﾄﾞｳ","kana_city":"ｽﾅｶﾞﾜｼ","kana_address":"ﾋｶﾞｼ6ｼﾞｮｳｷﾀ","pref":"北海道","city":"砂川市","address":"東六条北"},
{"zip_code":"0730137","kana_pref":"ﾎｯｶｲﾄﾞｳ","kana_city":"ｽﾅｶﾞﾜｼ","kana_address":"ﾋｶﾞｼ7ｼﾞｮｳﾐﾅﾐ","pref":"北海道","city":"砂川市","address":"東七条南"},
{"zip_code":"0730127","kana_pref":"ﾎｯｶｲﾄﾞｳ","kana_city":"ｽﾅｶﾞﾜｼ","kana_address":"ﾋﾉﾃﾞ1ｼﾞｮｳﾐﾅﾐ","pref":"北海道","city":"砂川市","address":"日の出一条南"},
{"zip_code":"0730178","kana_pref":"ﾎｯｶｲﾄﾞｳ","kana_city":"ｽﾅｶﾞﾜｼ","kana_address":"ﾌｸﾛﾁ","pref":"北海道","city":"砂川市","address":"袋地"},
{"zip_code":"0730108","kana_pref":"ﾎｯｶｲﾄﾞｳ","kana_city":"ｽﾅｶﾞﾜｼ","kana_address":"ﾎｯｺｳ","pref":"北海道","city":"砂川市","address":"北光"},
{"zip_code":"0730157","kana_pref":"ﾎｯｶｲﾄﾞｳ","kana_city":"ｽﾅｶﾞﾜｼ","kana_address":"ﾐｻｺﾞﾁｮｳ","pref":"北海道","city":"砂川市","address":"三砂町"},
{"zip_code":"0730117","kana_pref":"ﾎｯｶｲﾄﾞｳ","kana_city":"ｽﾅｶﾞﾜｼ","kana_address":"ﾐﾅﾐﾖｼﾉﾁｮｳ","pref":"北海道","city":"砂川市","address":"南吉野町"},
{"zip_code":"0730125","kana_pref":"ﾎｯｶｲﾄﾞｳ","kana_city":"ｽﾅｶﾞﾜｼ","kana_address":"ﾐﾔｷﾞﾉｻﾜ","pref":"北海道","city":"砂川市","address":"宮城の沢"},
{"zip_code":"0730115","kana_pref":"ﾎｯｶｲﾄﾞｳ","kana_city":"ｽﾅｶﾞﾜｼ","kana_address":"ﾔｹﾔﾏ","pref":"北海道","city":"砂川市","address":"焼山"},
{"zip_code":"0730121","kana_pref":"ﾎｯｶｲﾄﾞｳ","kana_city":"ｽﾅｶﾞﾜｼ","kana_address":"ﾖｼﾉ1ｼﾞｮｳﾐﾅﾐ","pref":"北海道","city":"砂川市","address":"吉野一条南"},
{"zip_code":"0730158","kana_pref":"ﾎｯｶｲﾄﾞｳ","kana_city":"ｽﾅｶﾞﾜｼ","kana_address":"ﾖｼﾉ1ｼﾞｮｳｷﾀ","pref":"北海道","city":"砂川市","address":"吉野一条北"},
{"zip_code":"0730122","kana_pref":"ﾎｯｶｲﾄﾞｳ","kana_city":"ｽﾅｶﾞﾜｼ","kana_address":"ﾖｼﾉ2ｼﾞｮｳﾐﾅﾐ","pref":"北海道","city":"砂川市","address":"吉野二条南"},
{"zip_code":"0730159","kana_pref":"ﾎｯｶｲﾄﾞｳ","kana_city":"ｽﾅｶﾞﾜｼ","kana_address":"ﾖｼﾉ2ｼﾞｮｳｷﾀ","pref":"北海道","city":"砂川市","address":"吉野二条北"},
{"zip_code":"0730123","kana_pref":"ﾎｯｶｲﾄﾞｳ","kana_city":"ｽﾅｶﾞﾜｼ","kana_address":"ﾖｼﾉ3ｼﾞｮｳﾐﾅﾐ","pref":"北海道","city":"砂川市","address":"吉野三条南"},
{"zip_code":"0730124","kana_pref":"ﾎｯｶｲﾄﾞｳ","kana_city":"ｽﾅｶﾞﾜｼ","kana_address":"ﾖｼﾉ4ｼﾞｮｳﾐﾅﾐ","pref":"北海道","city":"砂川市","address":"吉野四条南"},
{"zip_code":"0730400","kana_pref":"ﾎｯｶｲﾄﾞｳ","kana_city":"ｳﾀｼﾅｲｼ","kana_address":"","pref":"北海道","city":"歌志内市","address":""},
{"zip_code":"0730404","kana_pref":"ﾎｯｶｲﾄﾞｳ","kana_city":"ｳﾀｼﾅｲｼ","kana_address":"ｶｼﾝ","pref":"北海道","city":"歌志内市","address":"歌神"},
{"zip_code":"0730401","kana_pref":"ﾎｯｶｲﾄﾞｳ","kana_city":"ｳﾀｼﾅｲｼ","kana_address":"ｶﾐｳﾀ","pref":"北海道","city":"歌志内市","address":"上歌"},
{"zip_code":"0730405","kana_pref":"ﾎｯｶｲﾄﾞｳ","kana_city":"ｳﾀｼﾅｲｼ","kana_address":"ｶﾓｲ","pref":"北海道","city":"歌志内市","address":"神威"},
{"zip_code":"0730402","kana_pref":"ﾎｯｶｲﾄﾞｳ","kana_city":"ｳﾀｼﾅｲｼ","kana_address":"ﾄｳｺｳ","pref":"北海道","city":"歌志内市","address":"東光"},
{"zip_code":"0730406","kana_pref":"ﾎｯｶｲﾄﾞｳ","kana_city":"ｳﾀｼﾅｲｼ","kana_address":"ﾅｶﾑﾗ","pref":"北海道","city":"歌志内市","address":"中村"},
{"zip_code":"0730403","kana_pref":"ﾎｯｶｲﾄﾞｳ","kana_city":"ｳﾀｼﾅｲｼ","kana_address":"ﾎﾝﾁｮｳ","pref":"北海道","city":"歌志内市","address":"本町"},
{"zip_code":"0730407","kana_pref":"ﾎｯｶｲﾄﾞｳ","kana_city":"ｳﾀｼﾅｲｼ","kana_address":"ﾓﾝｼﾞｭ","pref":"北海道","city":"歌志内市","address":"文珠"},
{"zip_code":"0730200","kana_pref":"ﾎｯｶｲﾄﾞｳ","kana_city":"ｿﾗﾁｸﾞﾝｶﾐｽﾅｶﾞﾜﾁｮｳ","kana_address":"","pref":"北海道","city":"空知郡上砂川町","address":""},
{"zip_code":"0730205","kana_pref":"ﾎｯｶｲﾄﾞｳ","kana_city":"ｿﾗﾁｸﾞﾝｶﾐｽﾅｶﾞﾜﾁｮｳ","kana_address":"ｱｻｺﾏ","pref":"北海道","city":"空知郡上砂川町","address":"朝駒"},
{"zip_code":"0730212","kana_pref":"ﾎｯｶｲﾄﾞｳ","kana_city":"ｿﾗﾁｸﾞﾝｶﾐｽﾅｶﾞﾜﾁｮｳ","kana_address":"ｳｽﾞﾗ","pref":"北海道","city":"空知郡上砂川町","address":"鶉"},
{"zip_code":"0730221","kana_pref":"ﾎｯｶｲﾄﾞｳ","kana_city":"ｿﾗﾁｸﾞﾝｶﾐｽﾅｶﾞﾜﾁｮｳ","kana_address":"ｳｽﾞﾗﾎﾝﾁｮｳ","pref":"北海道","city":"空知郡上砂川町","address":"鶉本町"},
{"zip_code":"0730222","kana_pref":"ﾎｯｶｲﾄﾞｳ","kana_city":"ｿﾗﾁｸﾞﾝｶﾐｽﾅｶﾞﾜﾁｮｳ","kana_address":"ｼﾓｳｽﾞﾗ","pref":"北海道","city":"空知郡上砂川町","address":"下鶉"},
{"zip_code":"0730201","kana_pref":"ﾎｯｶｲﾄﾞｳ","kana_city":"ｿﾗﾁｸﾞﾝｶﾐｽﾅｶﾞﾜﾁｮｳ","kana_address":"ﾁｭｳｵｳ","pref":"北海道","city":"空知郡上砂川町","address":"中央"},
{"zip_code":"0730203","kana_pref":"ﾎｯｶｲﾄﾞｳ","kana_city":"ｿﾗﾁｸﾞﾝｶﾐｽﾅｶﾞﾜﾁｮｳ","kana_address":"ﾅｶﾏﾁ","pref":"北海道","city":"空知郡上砂川町","address":"中町"},
{"zip_code":"0730211","kana_pref":"ﾎｯｶｲﾄﾞｳ","kana_city":"ｿﾗﾁｸﾞﾝｶﾐｽﾅｶﾞﾜﾁｮｳ","kana_address":"ﾋｶﾞｼｳｽﾞﾗ","pref":"北海道","city":"空知郡上砂川町","address":"東鶉"},
{"zip_code":"0730202","kana_pref":"ﾎｯｶｲﾄﾞｳ","kana_city":"ｿﾗﾁｸﾞﾝｶﾐｽﾅｶﾞﾜﾁｮｳ","kana_address":"ﾋｶﾞｼﾏﾁ","pref":"北海道","city":"空知郡上砂川町","address":"東町"},
{"zip_code":"0730206","kana_pref":"ﾎｯｶｲﾄﾞｳ","kana_city":"ｿﾗﾁｸﾞﾝｶﾐｽﾅｶﾞﾜﾁｮｳ","kana_address":"ﾋｶﾞｼﾔﾏ","pref":"北海道","city":"空知郡上砂川町","address":"東山"},
{"zip_code":"0730204","kana_pref":"ﾎｯｶｲﾄﾞｳ","kana_city":"ｿﾗﾁｸﾞﾝｶﾐｽﾅｶﾞﾜﾁｮｳ","kana_address":"ﾎﾝﾏﾁ","pref":"北海道","city":"空知郡上砂川町","address":"本町"},
{"zip_code":"0730213","kana_pref":"ﾎｯｶｲﾄﾞｳ","kana_city":"ｿﾗﾁｸﾞﾝｶﾐｽﾅｶﾞﾜﾁｮｳ","kana_address":"ﾐﾄﾞﾘｶﾞｵｶ","pref":"北海道","city":"空知郡上砂川町","address":"緑が丘"},
{"zip_code":"0731100","kana_pref":"ﾎｯｶｲﾄﾞｳ","kana_city":"ｶﾊﾞﾄｸﾞﾝｼﾝﾄﾂｶﾜﾁｮｳ","kana_address":"","pref":"北海道","city":"樺戸郡新十津川町","address":""},
{"zip_code":"0731321","kana_pref":"ﾎｯｶｲﾄﾞｳ","kana_city":"ｶﾊﾞﾄｸﾞﾝｼﾝﾄﾂｶﾜﾁｮｳ","kana_address":"ｶﾞｸｴﾝ","pref":"北海道","city":"樺戸郡新十津川町","address":"学園"},
{"zip_code":"0731105","kana_pref":"ﾎｯｶｲﾄﾞｳ","kana_city":"ｶﾊﾞﾄｸﾞﾝｼﾝﾄﾂｶﾜﾁｮｳ","kana_address":"ｶｹﾞﾂ","pref":"北海道","city":"樺戸郡新十津川町","address":"花月"},
{"zip_code":"0731101","kana_pref":"ﾎｯｶｲﾄﾞｳ","kana_city":"ｶﾊﾞﾄｸﾞﾝｼﾝﾄﾂｶﾜﾁｮｳ","kana_address":"ｼｽﾝ","pref":"北海道","city":"樺戸郡新十津川町","address":"士寸"},
{"zip_code":"0731106","kana_pref":"ﾎｯｶｲﾄﾞｳ","kana_city":"ｶﾊﾞﾄｸﾞﾝｼﾝﾄﾂｶﾜﾁｮｳ","kana_address":"ｿｳｼﾝ","pref":"北海道","city":"樺戸郡新十津川町","address":"総進"},
{"zip_code":"0731103","kana_pref":"ﾎｯｶｲﾄﾞｳ","kana_city":"ｶﾊﾞﾄｸﾞﾝｼﾝﾄﾂｶﾜﾁｮｳ","kana_address":"ﾁｭｳｵｳ","pref":"北海道","city":"樺戸郡新十津川町","address":"中央"},
{"zip_code":"0731107","kana_pref":"ﾎｯｶｲﾄﾞｳ","kana_city":"ｶﾊﾞﾄｸﾞﾝｼﾝﾄﾂｶﾜﾁｮｳ","kana_address":"ﾄｯﾌﾟ","pref":"北海道","city":"樺戸郡新十津川町","address":"トップ"},
{"zip_code":"0731323","kana_pref":"ﾎｯｶｲﾄﾞｳ","kana_city":"ｶﾊﾞﾄｸﾞﾝｼﾝﾄﾂｶﾜﾁｮｳ","kana_address":"ﾎﾛｶ","pref":"北海道","city":"樺戸郡新十津川町","address":"幌加"},
{"zip_code":"0731102","kana_pref":"ﾎｯｶｲﾄﾞｳ","kana_city":"ｶﾊﾞﾄｸﾞﾝｼﾝﾄﾂｶﾜﾁｮｳ","kana_address":"ﾔﾏﾄ","pref":"北海道","city":"樺戸郡新十津川町","address":"大和"},
{"zip_code":"0730181","kana_pref":"ﾎｯｶｲﾄﾞｳ","kana_city":"ｶﾊﾞﾄｸﾞﾝｼﾝﾄﾂｶﾜﾁｮｳ","kana_address":"ﾔﾖｲ","pref":"北海道","city":"樺戸郡新十津川町","address":"弥生"},
{"zip_code":"0731104","kana_pref":"ﾎｯｶｲﾄﾞｳ","kana_city":"ｶﾊﾞﾄｸﾞﾝｼﾝﾄﾂｶﾜﾁｮｳ","kana_address":"ﾔﾖｲ","pref":"北海道","city":"樺戸郡新十津川町","address":"弥生"},
{"zip_code":"0731322","kana_pref":"ﾎｯｶｲﾄﾞｳ","kana_city":"ｶﾊﾞﾄｸﾞﾝｼﾝﾄﾂｶﾜﾁｮｳ","kana_address":"ﾖｼﾉ","pref":"北海道","city":"樺戸郡新十津川町","address":"吉野"}]}