{"zip_code":[
{"zip_code":"0741182","kana_pref":"ﾎｯｶｲﾄﾞｳ","kana_city":"ｱｻﾋｶﾜｼ","kana_address":"ｶﾑｲﾁｮｳﾄﾖｻﾄ","pref":"北海道","city":"旭川市","address":"神居町豊里"},
{"zip_code":"0741181","kana_pref":"ﾎｯｶｲﾄﾞｳ","kana_city":"ｱｻﾋｶﾜｼ","kana_address":"ｶﾑｲﾁｮｳﾆｼｵｶ","pref":"北海道","city":"旭川市","address":"神居町西丘"},
{"zip_code":"0740000","kana_pref":"ﾎｯｶｲﾄﾞｳ","kana_city":"ﾌｶｶﾞﾜｼ","kana_address":"","pref":"北海道","city":"深川市","address":""},
{"zip_code":"0740001","kana_pref":"ﾎｯｶｲﾄﾞｳ","kana_city":"ﾌｶｶﾞﾜｼ","kana_address":"1ｼﾞｮｳ","pref":"北海道","city":"深川市","address":"一条"},
{"zip_code":"0740002","kana_pref":"ﾎｯｶｲﾄﾞｳ","kana_city":"ﾌｶｶﾞﾜｼ","kana_address":"2ｼﾞｮｳ","pref":"北海道","city":"深川市","address":"二条"},
{"zip_code":"0740003","kana_pref":"ﾎｯｶｲﾄﾞｳ","kana_city":"ﾌｶｶﾞﾜｼ","kana_address":"3ｼﾞｮｳ","pref":"北海道","city":"深川市","address":"三条"},
{"zip_code":"0740004","kana_pref":"ﾎｯｶｲﾄﾞｳ","kana_city":"ﾌｶｶﾞﾜｼ","kana_address":"4ｼﾞｮｳ","pref":"北海道","city":"深川市","address":"四条"},
{"zip_code":"0740005","kana_pref":"ﾎｯｶｲﾄﾞｳ","kana_city":"ﾌｶｶﾞﾜｼ","kana_address":"5ｼﾞｮｳ","pref":"北海道","city":"深川市","address":"五条"},
{"zip_code":"0740006","kana_pref":"ﾎｯｶｲﾄﾞｳ","kana_city":"ﾌｶｶﾞﾜｼ","kana_address":"6ｼﾞｮｳ","pref":"北海道","city":"深川市","address":"六条"},
{"zip_code":"0740007","kana_pref":"ﾎｯｶｲﾄﾞｳ","kana_city":"ﾌｶｶﾞﾜｼ","kana_address":"7ｼﾞｮｳ","pref":"北海道","city":"深川市","address":"七条"},
{"zip_code":"0740008","kana_pref":"ﾎｯｶｲﾄﾞｳ","kana_city":"ﾌｶｶﾞﾜｼ","kana_address":"8ｼﾞｮｳ","pref":"北海道","city":"深川市","address":"八条"},
{"zip_code":"0740009","kana_pref":"ﾎｯｶｲﾄﾞｳ","kana_city":"ﾌｶｶﾞﾜｼ","kana_address":"9ｼﾞｮｳ","pref":"北海道","city":"深川市","address":"九条"},
{"zip_code":"0740031","kana_pref":"ﾎｯｶｲﾄﾞｳ","kana_city":"ﾌｶｶﾞﾜｼ","kana_address":"ｱｹﾎﾞﾉﾁｮｳ","pref":"北海道","city":"深川市","address":"あけぼの町"},
{"zip_code":"0740028","kana_pref":"ﾎｯｶｲﾄﾞｳ","kana_city":"ﾌｶｶﾞﾜｼ","kana_address":"ｲﾁﾔﾝﾁｮｳ","pref":"北海道","city":"深川市","address":"一已町"},
{"zip_code":"0740021","kana_pref":"ﾎｯｶｲﾄﾞｳ","kana_city":"ﾌｶｶﾞﾜｼ","kana_address":"ｲﾅﾎﾁｮｳ","pref":"北海道","city":"深川市","address":"稲穂町"},
{"zip_code":"0740143","kana_pref":"ﾎｯｶｲﾄﾞｳ","kana_city":"ﾌｶｶﾞﾜｼ","kana_address":"ｳｯｶ","pref":"北海道","city":"深川市","address":"ウッカ"},
{"zip_code":"0740142","kana_pref":"ﾎｯｶｲﾄﾞｳ","kana_city":"ﾌｶｶﾞﾜｼ","kana_address":"ｳﾏ","pref":"北海道","city":"深川市","address":"宇摩"},
{"zip_code":"0741273","kana_pref":"ﾎｯｶｲﾄﾞｳ","kana_city":"ﾌｶｶﾞﾜｼ","kana_address":"ｵﾄｴﾁｮｳ","pref":"北海道","city":"深川市","address":"音江町"},
{"zip_code":"0741276","kana_pref":"ﾎｯｶｲﾄﾞｳ","kana_city":"ﾌｶｶﾞﾜｼ","kana_address":"ｵﾄｴﾁｮｳ","pref":"北海道","city":"深川市","address":"音江町"},
{"zip_code":"0741273","kana_pref":"ﾎｯｶｲﾄﾞｳ","kana_city":"ﾌｶｶﾞﾜｼ","kana_address":"ｵﾄｴﾁｮｳ","pref":"北海道","city":"深川市","address":"音江町"},
{"zip_code":"0741162","kana_pref":"ﾎｯｶｲﾄﾞｳ","kana_city":"ﾌｶｶﾞﾜｼ","kana_address":"ｵﾄｴﾁｮｳ","pref":"北海道","city":"深川市","address":"音江町"},
{"zip_code":"0741164","kana_pref":"ﾎｯｶｲﾄﾞｳ","kana_city":"ﾌｶｶﾞﾜｼ","kana_address":"ｵﾄｴﾁｮｳ","pref":"北海道","city":"深川市","address":"音江町"},
{"zip_code":"0741272","kana_pref":"ﾎｯｶｲﾄﾞｳ","kana_city":"ﾌｶｶﾞﾜｼ","kana_address":"ｵﾄｴﾁｮｳ","pref":"北海道","city":"深川市","address":"音江町"},
{"zip_code":"0741161","kana_pref":"ﾎｯｶｲﾄﾞｳ","kana_city":"ﾌｶｶﾞﾜｼ","kana_address":"ｵﾄｴﾁｮｳ","pref":"北海道","city":"深川市","address":"音江町"},
{"zip_code":"0741275","kana_pref":"ﾎｯｶｲﾄﾞｳ","kana_city":"ﾌｶｶﾞﾜｼ","kana_address":"ｵﾄｴﾁｮｳ","pref":"北海道","city":"深川市","address":"音江町"},
{"zip_code":"0741274","kana_pref":"ﾎｯｶｲﾄﾞｳ","kana_city":"ﾌｶｶﾞﾜｼ","kana_address":"ｵﾄｴﾁｮｳ","pref":"北海道","city":"深川市","address":"音江町"},
{"zip_code":"0741271","kana_pref":"ﾎｯｶｲﾄﾞｳ","kana_city":"ﾌｶｶﾞﾜｼ","kana_address":"ｵﾄｴﾁｮｳ","pref":"北海道","city":"深川市","address":"音江町"},
{"zip_code":"0741163","kana_pref":"ﾎｯｶｲﾄﾞｳ","kana_city":"ﾌｶｶﾞﾜｼ","kana_address":"ｵﾄｴﾁｮｳ","pref":"北海道","city":"深川市","address":"音江町"},
{"zip_code":"0740014","kana_pref":"ﾎｯｶｲﾄﾞｳ","kana_city":"ﾌｶｶﾞﾜｼ","kana_address":"ｶｲｾｲﾁｮｳ","pref":"北海道","city":"深川市","address":"開西町"},
{"zip_code":"0740024","kana_pref":"ﾎｯｶｲﾄﾞｳ","kana_city":"ﾌｶｶﾞﾜｼ","kana_address":"ｼﾝｺｳﾁｮｳ","pref":"北海道","city":"深川市","address":"新光町"},
{"zip_code":"0740023","kana_pref":"ﾎｯｶｲﾄﾞｳ","kana_city":"ﾌｶｶﾞﾜｼ","kana_address":"ﾀｲｼﾏﾁ","pref":"北海道","city":"深川市","address":"太子町"},
{"zip_code":"0740144","kana_pref":"ﾎｯｶｲﾄﾞｳ","kana_city":"ﾌｶｶﾞﾜｼ","kana_address":"ﾀｶﾄﾞﾏﾘ","pref":"北海道","city":"深川市","address":"鷹泊"},
{"zip_code":"0740141","kana_pref":"ﾎｯｶｲﾄﾞｳ","kana_city":"ﾌｶｶﾞﾜｼ","kana_address":"ﾀﾄﾞｼ","pref":"北海道","city":"深川市","address":"多度志"},
{"zip_code":"0740147","kana_pref":"ﾎｯｶｲﾄﾞｳ","kana_city":"ﾌｶｶﾞﾜｼ","kana_address":"ﾀﾄﾞｼﾐﾅﾐ","pref":"北海道","city":"深川市","address":"多度志南"},
{"zip_code":"0740025","kana_pref":"ﾎｯｶｲﾄﾞｳ","kana_city":"ﾌｶｶﾞﾜｼ","kana_address":"ﾆｼｷﾏﾁ","pref":"北海道","city":"深川市","address":"錦町"},
{"zip_code":"0740027","kana_pref":"ﾎｯｶｲﾄﾞｳ","kana_city":"ﾌｶｶﾞﾜｼ","kana_address":"ﾆｼｷﾏﾁｷﾀ","pref":"北海道","city":"深川市","address":"錦町北"},
{"zip_code":"0740026","kana_pref":"ﾎｯｶｲﾄﾞｳ","kana_city":"ﾌｶｶﾞﾜｼ","kana_address":"ﾆｼｷﾏﾁﾆｼ","pref":"北海道","city":"深川市","address":"錦町西"},
{"zip_code":"0740012","kana_pref":"ﾎｯｶｲﾄﾞｳ","kana_city":"ﾌｶｶﾞﾜｼ","kana_address":"ﾆｼﾏﾁ","pref":"北海道","city":"深川市","address":"西町"},
{"zip_code":"0741271","kana_pref":"ﾎｯｶｲﾄﾞｳ","kana_city":"ﾌｶｶﾞﾜｼ","kana_address":"ﾋﾛｻﾄﾁｮｳ","pref":"北海道","city":"深川市","address":"広里町"},
{"zip_code":"0740013","kana_pref":"ﾎｯｶｲﾄﾞｳ","kana_city":"ﾌｶｶﾞﾜｼ","kana_address":"ﾌﾞﾝｺｳﾁｮｳ","pref":"北海道","city":"深川市","address":"文光町"},
{"zip_code":"0740022","kana_pref":"ﾎｯｶｲﾄﾞｳ","kana_city":"ﾌｶｶﾞﾜｼ","kana_address":"ﾎﾂｺｳﾁｮｳ","pref":"北海道","city":"深川市","address":"北光町"},
{"zip_code":"0740145","kana_pref":"ﾎｯｶｲﾄﾞｳ","kana_city":"ﾌｶｶﾞﾜｼ","kana_address":"ﾎﾛﾅｲ","pref":"北海道","city":"深川市","address":"幌内"},
{"zip_code":"0740011","kana_pref":"ﾎｯｶｲﾄﾞｳ","kana_city":"ﾌｶｶﾞﾜｼ","kana_address":"ﾐﾄﾞﾘﾏﾁ","pref":"北海道","city":"深川市","address":"緑町"},
{"zip_code":"0740015","kana_pref":"ﾎｯｶｲﾄﾞｳ","kana_city":"ﾌｶｶﾞﾜｼ","kana_address":"ﾒﾑ","pref":"北海道","city":"深川市","address":"メム"},
{"zip_code":"0740146","kana_pref":"ﾎｯｶｲﾄﾞｳ","kana_city":"ﾌｶｶﾞﾜｼ","kana_address":"ﾕﾅｲ","pref":"北海道","city":"深川市","address":"湯内"},
{"zip_code":"0740400","kana_pref":"ﾎｯｶｲﾄﾞｳ","kana_city":"ｳﾘｭｳｸﾞﾝﾎﾛｶﾅｲﾁｮｳ","kana_address":"","pref":"北海道","city":"雨竜郡幌加内町","address":""},
{"zip_code":"0740413","kana_pref":"ﾎｯｶｲﾄﾞｳ","kana_city":"ｳﾘｭｳｸﾞﾝﾎﾛｶﾅｲﾁｮｳ","kana_address":"ｳｴﾝﾅｲ","pref":"北海道","city":"雨竜郡幌加内町","address":"雨煙内"},
{"zip_code":"0740424","kana_pref":"ﾎｯｶｲﾄﾞｳ","kana_city":"ｳﾘｭｳｸﾞﾝﾎﾛｶﾅｲﾁｮｳ","kana_address":"ｳｴﾝﾍﾞﾂ","pref":"北海道","city":"雨竜郡幌加内町","address":"雨煙別"},
{"zip_code":"0740744","kana_pref":"ﾎｯｶｲﾄﾞｳ","kana_city":"ｳﾘｭｳｸﾞﾝﾎﾛｶﾅｲﾁｮｳ","kana_address":"ｵｵﾏｶﾞﾘ","pref":"北海道","city":"雨竜郡幌加内町","address":"大曲"},
{"zip_code":"0740415","kana_pref":"ﾎｯｶｲﾄﾞｳ","kana_city":"ｳﾘｭｳｸﾞﾝﾎﾛｶﾅｲﾁｮｳ","kana_address":"ｵｻﾙﾅｲ","pref":"北海道","city":"雨竜郡幌加内町","address":"長留内"},
{"zip_code":"0740423","kana_pref":"ﾎｯｶｲﾄﾞｳ","kana_city":"ｳﾘｭｳｸﾞﾝﾎﾛｶﾅｲﾁｮｳ","kana_address":"ｶﾐﾎﾛｶﾅｲ","pref":"北海道","city":"雨竜郡幌加内町","address":"上幌加内"},
{"zip_code":"0740743","kana_pref":"ﾎｯｶｲﾄﾞｳ","kana_city":"ｳﾘｭｳｸﾞﾝﾎﾛｶﾅｲﾁｮｳ","kana_address":"ｷｮｳｴｲ","pref":"北海道","city":"雨竜郡幌加内町","address":"共栄"},
{"zip_code":"0740403","kana_pref":"ﾎｯｶｲﾄﾞｳ","kana_city":"ｳﾘｭｳｸﾞﾝﾎﾛｶﾅｲﾁｮｳ","kana_address":"ｼﾓﾎﾛｶﾅｲ","pref":"北海道","city":"雨竜郡幌加内町","address":"下幌加内"},
{"zip_code":"0740742","kana_pref":"ﾎｯｶｲﾄﾞｳ","kana_city":"ｳﾘｭｳｸﾞﾝﾎﾛｶﾅｲﾁｮｳ","kana_address":"ｼｭﾏﾘﾅｲ","pref":"北海道","city":"雨竜郡幌加内町","address":"朱鞠内"},
{"zip_code":"0740422","kana_pref":"ﾎｯｶｲﾄﾞｳ","kana_city":"ｳﾘｭｳｸﾞﾝﾎﾛｶﾅｲﾁｮｳ","kana_address":"ｼﾝｺｳ","pref":"北海道","city":"雨竜郡幌加内町","address":"振興"},
{"zip_code":"0740747","kana_pref":"ﾎｯｶｲﾄﾞｳ","kana_city":"ｳﾘｭｳｸﾞﾝﾎﾛｶﾅｲﾁｮｳ","kana_address":"ｼﾝﾄﾐ","pref":"北海道","city":"雨竜郡幌加内町","address":"新富"},
{"zip_code":"0740402","kana_pref":"ﾎｯｶｲﾄﾞｳ","kana_city":"ｳﾘｭｳｸﾞﾝﾎﾛｶﾅｲﾁｮｳ","kana_address":"ｼﾝﾅﾘｳ","pref":"北海道","city":"雨竜郡幌加内町","address":"新成生"},
{"zip_code":"0740412","kana_pref":"ﾎｯｶｲﾄﾞｳ","kana_city":"ｳﾘｭｳｸﾞﾝﾎﾛｶﾅｲﾁｮｳ","kana_address":"ｼﾝﾜ","pref":"北海道","city":"雨竜郡幌加内町","address":"親和"},
{"zip_code":"0740414","kana_pref":"ﾎｯｶｲﾄﾞｳ","kana_city":"ｳﾘｭｳｸﾞﾝﾎﾛｶﾅｲﾁｮｳ","kana_address":"ｾｲｹﾞﾂ","pref":"北海道","city":"雨竜郡幌加内町","address":"清月"},
{"zip_code":"0740425","kana_pref":"ﾎｯｶｲﾄﾞｳ","kana_city":"ｳﾘｭｳｸﾞﾝﾎﾛｶﾅｲﾁｮｳ","kana_address":"ｾｲﾜﾀﾞｲ1","pref":"北海道","city":"雨竜郡幌加内町","address":"政和第一"},
{"zip_code":"0740426","kana_pref":"ﾎｯｶｲﾄﾞｳ","kana_city":"ｳﾘｭｳｸﾞﾝﾎﾛｶﾅｲﾁｮｳ","kana_address":"ｾｲﾜﾀﾞｲ2","pref":"北海道","city":"雨竜郡幌加内町","address":"政和第二"},
{"zip_code":"0740427","kana_pref":"ﾎｯｶｲﾄﾞｳ","kana_city":"ｳﾘｭｳｸﾞﾝﾎﾛｶﾅｲﾁｮｳ","kana_address":"ｾｲﾜﾀﾞｲ3","pref":"北海道","city":"雨竜郡幌加内町","address":"政和第三"},
{"zip_code":"0740746","kana_pref":"ﾎｯｶｲﾄﾞｳ","kana_city":"ｳﾘｭｳｸﾞﾝﾎﾛｶﾅｲﾁｮｳ","kana_address":"ｿｴｳｼﾅｲ","pref":"北海道","city":"雨竜郡幌加内町","address":"添牛内"},
{"zip_code":"0740421","kana_pref":"ﾎｯｶｲﾄﾞｳ","kana_city":"ｳﾘｭｳｸﾞﾝﾎﾛｶﾅｲﾁｮｳ","kana_address":"ﾄｳｴｲ","pref":"北海道","city":"雨竜郡幌加内町","address":"東栄"},
{"zip_code":"0740404","kana_pref":"ﾎｯｶｲﾄﾞｳ","kana_city":"ｳﾘｭｳｸﾞﾝﾎﾛｶﾅｲﾁｮｳ","kana_address":"ﾇﾏｳｼ","pref":"北海道","city":"雨竜郡幌加内町","address":"沼牛"},
{"zip_code":"0740401","kana_pref":"ﾎｯｶｲﾄﾞｳ","kana_city":"ｳﾘｭｳｸﾞﾝﾎﾛｶﾅｲﾁｮｳ","kana_address":"ﾍｲﾜ","pref":"北海道","city":"雨竜郡幌加内町","address":"平和"},
{"zip_code":"0740745","kana_pref":"ﾎｯｶｲﾄﾞｳ","kana_city":"ｳﾘｭｳｸﾞﾝﾎﾛｶﾅｲﾁｮｳ","kana_address":"ﾎｸｾｲ","pref":"北海道","city":"雨竜郡幌加内町","address":"北星"},
{"zip_code":"0740411","kana_pref":"ﾎｯｶｲﾄﾞｳ","kana_city":"ｳﾘｭｳｸﾞﾝﾎﾛｶﾅｲﾁｮｳ","kana_address":"ﾎﾛｶﾅｲ","pref":"北海道","city":"雨竜郡幌加内町","address":"幌加内"},
{"zip_code":"0740741","kana_pref":"ﾎｯｶｲﾄﾞｳ","kana_city":"ｳﾘｭｳｸﾞﾝﾎﾛｶﾅｲﾁｮｳ","kana_address":"ﾓｼﾘ","pref":"北海道","city":"雨竜郡幌加内町","address":"母子里"},
{"zip_code":"0740405","kana_pref":"ﾎｯｶｲﾄﾞｳ","kana_city":"ｳﾘｭｳｸﾞﾝﾎﾛｶﾅｲﾁｮｳ","kana_address":"ﾔｳﾝﾅｲ","pref":"北海道","city":"雨竜郡幌加内町","address":"弥運内"}]}