{"zip_code":[
{"zip_code":"0750000","kana_pref":"ﾎｯｶｲﾄﾞｳ","kana_city":"ｱｼﾍﾞﾂｼ","kana_address":"","pref":"北海道","city":"芦別市","address":""},
{"zip_code":"0750165","kana_pref":"ﾎｯｶｲﾄﾞｳ","kana_city":"ｱｼﾍﾞﾂｼ","kana_address":"ｱｵｷｻﾜ","pref":"北海道","city":"芦別市","address":"青木沢"},
{"zip_code":"0750036","kana_pref":"ﾎｯｶｲﾄﾞｳ","kana_city":"ｱｼﾍﾞﾂｼ","kana_address":"ｱｻﾋﾁｮｳ","pref":"北海道","city":"芦別市","address":"旭町"},
{"zip_code":"0750035","kana_pref":"ﾎｯｶｲﾄﾞｳ","kana_city":"ｱｼﾍﾞﾂｼ","kana_address":"ｱｻﾋﾏﾁﾕﾔ","pref":"北海道","city":"芦別市","address":"旭町油谷"},
{"zip_code":"0750166","kana_pref":"ﾎｯｶｲﾄﾞｳ","kana_city":"ｱｼﾍﾞﾂｼ","kana_address":"ｶﾜｷﾞｼ","pref":"北海道","city":"芦別市","address":"川岸"},
{"zip_code":"0750011","kana_pref":"ﾎｯｶｲﾄﾞｳ","kana_city":"ｱｼﾍﾞﾂｼ","kana_address":"ｷﾀ1ｼﾞｮｳﾋｶﾞｼ","pref":"北海道","city":"芦別市","address":"北一条東"},
{"zip_code":"0750001","kana_pref":"ﾎｯｶｲﾄﾞｳ","kana_city":"ｱｼﾍﾞﾂｼ","kana_address":"ｷﾀ1ｼﾞｮｳﾆｼ","pref":"北海道","city":"芦別市","address":"北一条西"},
{"zip_code":"0750012","kana_pref":"ﾎｯｶｲﾄﾞｳ","kana_city":"ｱｼﾍﾞﾂｼ","kana_address":"ｷﾀ2ｼﾞｮｳﾋｶﾞｼ","pref":"北海道","city":"芦別市","address":"北二条東"},
{"zip_code":"0750002","kana_pref":"ﾎｯｶｲﾄﾞｳ","kana_city":"ｱｼﾍﾞﾂｼ","kana_address":"ｷﾀ2ｼﾞｮｳﾆｼ","pref":"北海道","city":"芦別市","address":"北二条西"},
{"zip_code":"0750013","kana_pref":"ﾎｯｶｲﾄﾞｳ","kana_city":"ｱｼﾍﾞﾂｼ","kana_address":"ｷﾀ3ｼﾞｮｳﾋｶﾞｼ","pref":"北海道","city":"芦別市","address":"北三条東"},
{"zip_code":"0750003","kana_pref":"ﾎｯｶｲﾄﾞｳ","kana_city":"ｱｼﾍﾞﾂｼ","kana_address":"ｷﾀ3ｼﾞｮｳﾆｼ","pref":"北海道","city":"芦別市","address":"北三条西"},
{"zip_code":"0750014","kana_pref":"ﾎｯｶｲﾄﾞｳ","kana_city":"ｱｼﾍﾞﾂｼ","kana_address":"ｷﾀ4ｼﾞｮｳﾋｶﾞｼ","pref":"北海道","city":"芦別市","address":"北四条東"},
{"zip_code":"0750004","kana_pref":"ﾎｯｶｲﾄﾞｳ","kana_city":"ｱｼﾍﾞﾂｼ","kana_address":"ｷﾀ4ｼﾞｮｳﾆｼ","pref":"北海道","city":"芦別市","address":"北四条西"},
{"zip_code":"0750015","kana_pref":"ﾎｯｶｲﾄﾞｳ","kana_city":"ｱｼﾍﾞﾂｼ","kana_address":"ｷﾀ5ｼﾞｮｳﾋｶﾞｼ","pref":"北海道","city":"芦別市","address":"北五条東"},
{"zip_code":"0750005","kana_pref":"ﾎｯｶｲﾄﾞｳ","kana_city":"ｱｼﾍﾞﾂｼ","kana_address":"ｷﾀ5ｼﾞｮｳﾆｼ","pref":"北海道","city":"芦別市","address":"北五条西"},
{"zip_code":"0750016","kana_pref":"ﾎｯｶｲﾄﾞｳ","kana_city":"ｱｼﾍﾞﾂｼ","kana_address":"ｷﾀ6ｼﾞｮｳﾋｶﾞｼ","pref":"北海道","city":"芦別市","address":"北六条東"},
{"zip_code":"0750006","kana_pref":"ﾎｯｶｲﾄﾞｳ","kana_city":"ｱｼﾍﾞﾂｼ","kana_address":"ｷﾀ6ｼﾞｮｳﾆｼ","pref":"北海道","city":"芦別市","address":"北六条西"},
{"zip_code":"0750007","kana_pref":"ﾎｯｶｲﾄﾞｳ","kana_city":"ｱｼﾍﾞﾂｼ","kana_address":"ｷﾀ7ｼﾞｮｳﾆｼ","pref":"北海道","city":"芦別市","address":"北七条西"},
{"zip_code":"0750252","kana_pref":"ﾎｯｶｲﾄﾞｳ","kana_city":"ｱｼﾍﾞﾂｼ","kana_address":"ｺｶﾞﾈﾁｮｳ","pref":"北海道","city":"芦別市","address":"黄金町"},
{"zip_code":"0750251","kana_pref":"ﾎｯｶｲﾄﾞｳ","kana_city":"ｱｼﾍﾞﾂｼ","kana_address":"ｼﾝｼﾞｮｳﾁｮｳ","pref":"北海道","city":"芦別市","address":"新城町"},
{"zip_code":"0750019","kana_pref":"ﾎｯｶｲﾄﾞｳ","kana_city":"ｱｼﾍﾞﾂｼ","kana_address":"ﾀｶﾈﾁｮｳ","pref":"北海道","city":"芦別市","address":"高根町"},
{"zip_code":"0750018","kana_pref":"ﾎｯｶｲﾄﾞｳ","kana_city":"ｱｼﾍﾞﾂｼ","kana_address":"ﾄｷﾜﾁｮｳ","pref":"北海道","city":"芦別市","address":"常磐町"},
{"zip_code":"0750254","kana_pref":"ﾎｯｶｲﾄﾞｳ","kana_city":"ｱｼﾍﾞﾂｼ","kana_address":"ﾄﾖｵｶ","pref":"北海道","city":"芦別市","address":"豊岡"},
{"zip_code":"0750253","kana_pref":"ﾎｯｶｲﾄﾞｳ","kana_city":"ｱｼﾍﾞﾂｼ","kana_address":"ﾄﾖｵｶﾁｮｳ","pref":"北海道","city":"芦別市","address":"豊岡町"},
{"zip_code":"0750167","kana_pref":"ﾎｯｶｲﾄﾞｳ","kana_city":"ｱｼﾍﾞﾂｼ","kana_address":"ﾅｶﾉｵｶﾁｮｳ","pref":"北海道","city":"芦別市","address":"中の丘町"},
{"zip_code":"0750161","kana_pref":"ﾎｯｶｲﾄﾞｳ","kana_city":"ｱｼﾍﾞﾂｼ","kana_address":"ﾆｼｱｼﾍﾞﾂﾁｮｳ","pref":"北海道","city":"芦別市","address":"西芦別町"},
{"zip_code":"0750162","kana_pref":"ﾎｯｶｲﾄﾞｳ","kana_city":"ｱｼﾍﾞﾂｼ","kana_address":"ﾋｶﾞｼﾗｲｼﾞｮｳﾁｮｳ","pref":"北海道","city":"芦別市","address":"東頼城町"},
{"zip_code":"0750017","kana_pref":"ﾎｯｶｲﾄﾞｳ","kana_city":"ｱｼﾍﾞﾂｼ","kana_address":"ﾌｸｽﾞﾐﾁｮｳ","pref":"北海道","city":"芦別市","address":"福住町"},
{"zip_code":"0750034","kana_pref":"ﾎｯｶｲﾄﾞｳ","kana_city":"ｱｼﾍﾞﾂｼ","kana_address":"ﾎﾛﾅｲ","pref":"北海道","city":"芦別市","address":"幌内"},
{"zip_code":"0750041","kana_pref":"ﾎｯｶｲﾄﾞｳ","kana_city":"ｱｼﾍﾞﾂｼ","kana_address":"ﾎﾝﾁｮｳ","pref":"北海道","city":"芦別市","address":"本町"},
{"zip_code":"0750031","kana_pref":"ﾎｯｶｲﾄﾞｳ","kana_city":"ｱｼﾍﾞﾂｼ","kana_address":"ﾐﾅﾐ1ｼﾞｮｳﾋｶﾞｼ","pref":"北海道","city":"芦別市","address":"南一条東"},
{"zip_code":"0750021","kana_pref":"ﾎｯｶｲﾄﾞｳ","kana_city":"ｱｼﾍﾞﾂｼ","kana_address":"ﾐﾅﾐ1ｼﾞｮｳﾆｼ","pref":"北海道","city":"芦別市","address":"南一条西"},
{"zip_code":"0750032","kana_pref":"ﾎｯｶｲﾄﾞｳ","kana_city":"ｱｼﾍﾞﾂｼ","kana_address":"ﾐﾅﾐ2ｼﾞｮｳﾋｶﾞｼ","pref":"北海道","city":"芦別市","address":"南二条東"},
{"zip_code":"0750033","kana_pref":"ﾎｯｶｲﾄﾞｳ","kana_city":"ｱｼﾍﾞﾂｼ","kana_address":"ﾐﾅﾐ3ｼﾞｮｳﾋｶﾞｼ","pref":"北海道","city":"芦別市","address":"南三条東"},
{"zip_code":"0750164","kana_pref":"ﾎｯｶｲﾄﾞｳ","kana_city":"ｱｼﾍﾞﾂｼ","kana_address":"ﾗｲｼﾞｮｳﾁｮｳ","pref":"北海道","city":"芦別市","address":"頼城町"},
{"zip_code":"0750163","kana_pref":"ﾎｯｶｲﾄﾞｳ","kana_city":"ｱｼﾍﾞﾂｼ","kana_address":"ﾛｸｾﾝﾁｮｳ","pref":"北海道","city":"芦別市","address":"緑泉町"}]}