{"zip_code":[
{"zip_code":"0760081","kana_pref":"ﾎｯｶｲﾄﾞｳ","kana_city":"ｱｼﾍﾞﾂｼ","kana_address":"ｲｽﾞﾐ","pref":"北海道","city":"芦別市","address":"泉"},
{"zip_code":"0760000","kana_pref":"ﾎｯｶｲﾄﾞｳ","kana_city":"ﾌﾗﾉｼ","kana_address":"","pref":"北海道","city":"富良野市","address":""},
{"zip_code":"0760026","kana_pref":"ﾎｯｶｲﾄﾞｳ","kana_city":"ﾌﾗﾉｼ","kana_address":"ｱｻﾋﾏﾁ","pref":"北海道","city":"富良野市","address":"朝日町"},
{"zip_code":"0760008","kana_pref":"ﾎｯｶｲﾄﾞｳ","kana_city":"ﾌﾗﾉｼ","kana_address":"ｵｳｷﾞﾏﾁ","pref":"北海道","city":"富良野市","address":"扇町"},
{"zip_code":"0760035","kana_pref":"ﾎｯｶｲﾄﾞｳ","kana_city":"ﾌﾗﾉｼ","kana_address":"ｶﾞｸﾃﾞﾝｻﾝｸ","pref":"北海道","city":"富良野市","address":"学田三区"},
{"zip_code":"0760054","kana_pref":"ﾎｯｶｲﾄﾞｳ","kana_city":"ﾌﾗﾉｼ","kana_address":"ｶｽｶﾞﾁｮｳ","pref":"北海道","city":"富良野市","address":"春日町"},
{"zip_code":"0760038","kana_pref":"ﾎｯｶｲﾄﾞｳ","kana_city":"ﾌﾗﾉｼ","kana_address":"ｶﾂﾗｷﾞﾁｮｳ","pref":"北海道","city":"富良野市","address":"桂木町"},
{"zip_code":"0760014","kana_pref":"ﾎｯｶｲﾄﾞｳ","kana_city":"ﾌﾗﾉｼ","kana_address":"ｶﾐｺﾞｸ","pref":"北海道","city":"富良野市","address":"上五区"},
{"zip_code":"0760015","kana_pref":"ﾎｯｶｲﾄﾞｳ","kana_city":"ﾌﾗﾉｼ","kana_address":"ｶﾐｺﾞﾘｮｳ","pref":"北海道","city":"富良野市","address":"上御料"},
{"zip_code":"0760059","kana_pref":"ﾎｯｶｲﾄﾞｳ","kana_city":"ﾌﾗﾉｼ","kana_address":"ｷﾀｱｻﾏﾁ","pref":"北海道","city":"富良野市","address":"北麻町"},
{"zip_code":"0760001","kana_pref":"ﾎｯｶｲﾄﾞｳ","kana_city":"ﾌﾗﾉｼ","kana_address":"ｷﾀｵｳｷﾞﾔﾏ","pref":"北海道","city":"富良野市","address":"北扇山"},
{"zip_code":"0760044","kana_pref":"ﾎｯｶｲﾄﾞｳ","kana_city":"ﾌﾗﾉｼ","kana_address":"ｷﾀｵｵﾇﾏ","pref":"北海道","city":"富良野市","address":"北大沼"},
{"zip_code":"0760034","kana_pref":"ﾎｯｶｲﾄﾞｳ","kana_city":"ﾌﾗﾉｼ","kana_address":"ｷﾀﾉﾐﾈﾁｮｳ","pref":"北海道","city":"富良野市","address":"北の峰町"},
{"zip_code":"0760175","kana_pref":"ﾎｯｶｲﾄﾞｳ","kana_city":"ﾌﾗﾉｼ","kana_address":"ｷﾀﾌﾚﾍﾞﾂ","pref":"北海道","city":"富良野市","address":"北布礼別"},
{"zip_code":"0760165","kana_pref":"ﾎｯｶｲﾄﾞｳ","kana_city":"ﾌﾗﾉｼ","kana_address":"ｷﾀﾛｸｺﾞｳ","pref":"北海道","city":"富良野市","address":"北麓郷"},
{"zip_code":"0760024","kana_pref":"ﾎｯｶｲﾄﾞｳ","kana_city":"ﾌﾗﾉｼ","kana_address":"ｻｲﾜｲﾁｮｳ","pref":"北海道","city":"富良野市","address":"幸町"},
{"zip_code":"0760023","kana_pref":"ﾎｯｶｲﾄﾞｳ","kana_city":"ﾌﾗﾉｼ","kana_address":"ｻｶｴﾏﾁ","pref":"北海道","city":"富良野市","address":"栄町"},
{"zip_code":"0760039","kana_pref":"ﾎｯｶｲﾄﾞｳ","kana_city":"ﾌﾗﾉｼ","kana_address":"ｼﾅﾉｻﾜ","pref":"北海道","city":"富良野市","address":"信濃沢"},
{"zip_code":"0760050","kana_pref":"ﾎｯｶｲﾄﾞｳ","kana_city":"ﾌﾗﾉｼ","kana_address":"ｼﾉﾉﾒﾁｮｳ","pref":"北海道","city":"富良野市","address":"東雲町"},
{"zip_code":"0760036","kana_pref":"ﾎｯｶｲﾄﾞｳ","kana_city":"ﾌﾗﾉｼ","kana_address":"ｼﾏﾉｼﾀ","pref":"北海道","city":"富良野市","address":"島ノ下"},
{"zip_code":"0760048","kana_pref":"ﾎｯｶｲﾄﾞｳ","kana_city":"ﾌﾗﾉｼ","kana_address":"ｼﾐｽﾞﾔﾏ","pref":"北海道","city":"富良野市","address":"清水山"},
{"zip_code":"0760012","kana_pref":"ﾎｯｶｲﾄﾞｳ","kana_city":"ﾌﾗﾉｼ","kana_address":"ｼﾓｺﾞｸ","pref":"北海道","city":"富良野市","address":"下五区"},
{"zip_code":"0760017","kana_pref":"ﾎｯｶｲﾄﾞｳ","kana_city":"ﾌﾗﾉｼ","kana_address":"ｼﾓｺﾞﾘｮｳ","pref":"北海道","city":"富良野市","address":"下御料"},
{"zip_code":"0760058","kana_pref":"ﾎｯｶｲﾄﾞｳ","kana_city":"ﾌﾗﾉｼ","kana_address":"ｼﾝｺｳﾁｮｳ","pref":"北海道","city":"富良野市","address":"新光町"},
{"zip_code":"0760033","kana_pref":"ﾎｯｶｲﾄﾞｳ","kana_city":"ﾌﾗﾉｼ","kana_address":"ｼﾝﾄﾐﾁｮｳ","pref":"北海道","city":"富良野市","address":"新富町"},
{"zip_code":"0760011","kana_pref":"ﾎｯｶｲﾄﾞｳ","kana_city":"ﾌﾗﾉｼ","kana_address":"ｽｴﾋﾛﾁｮｳ","pref":"北海道","city":"富良野市","address":"末広町"},
{"zip_code":"0760057","kana_pref":"ﾎｯｶｲﾄﾞｳ","kana_city":"ﾌﾗﾉｼ","kana_address":"ｽﾐﾖｼﾁｮｳ","pref":"北海道","city":"富良野市","address":"住吉町"},
{"zip_code":"0760204","kana_pref":"ﾎｯｶｲﾄﾞｳ","kana_city":"ﾌﾗﾉｼ","kana_address":"ﾀｲﾗｻﾞﾜ","pref":"北海道","city":"富良野市","address":"平沢"},
{"zip_code":"0760183","kana_pref":"ﾎｯｶｲﾄﾞｳ","kana_city":"ﾌﾗﾉｼ","kana_address":"ﾄﾐｵｶｺｳｾｲ","pref":"北海道","city":"富良野市","address":"富丘更生"},
{"zip_code":"0760013","kana_pref":"ﾎｯｶｲﾄﾞｳ","kana_city":"ﾌﾗﾉｼ","kana_address":"ﾅｶｺﾞｸ","pref":"北海道","city":"富良野市","address":"中五区"},
{"zip_code":"0760016","kana_pref":"ﾎｯｶｲﾄﾞｳ","kana_city":"ﾌﾗﾉｼ","kana_address":"ﾅｶｺﾞﾘｮｳ","pref":"北海道","city":"富良野市","address":"中御料"},
{"zip_code":"0760176","kana_pref":"ﾎｯｶｲﾄﾞｳ","kana_city":"ﾌﾗﾉｼ","kana_address":"ﾅｶﾌﾚﾍﾞﾂ","pref":"北海道","city":"富良野市","address":"中布礼別"},
{"zip_code":"0760055","kana_pref":"ﾎｯｶｲﾄﾞｳ","kana_city":"ﾌﾗﾉｼ","kana_address":"ﾆｼｱｻﾏﾁ","pref":"北海道","city":"富良野市","address":"西麻町"},
{"zip_code":"0760006","kana_pref":"ﾎｯｶｲﾄﾞｳ","kana_city":"ﾌﾗﾉｼ","kana_address":"ﾆｼｵｳｷﾞﾔﾏ","pref":"北海道","city":"富良野市","address":"西扇山"},
{"zip_code":"0760047","kana_pref":"ﾎｯｶｲﾄﾞｳ","kana_city":"ﾌﾗﾉｼ","kana_address":"ﾆｼｶﾞｸﾃﾞﾝﾆｸ","pref":"北海道","city":"富良野市","address":"西学田二区"},
{"zip_code":"0760028","kana_pref":"ﾎｯｶｲﾄﾞｳ","kana_city":"ﾌﾗﾉｼ","kana_address":"ﾆｼｷﾏﾁ","pref":"北海道","city":"富良野市","address":"錦町"},
{"zip_code":"0760201","kana_pref":"ﾎｯｶｲﾄﾞｳ","kana_city":"ﾌﾗﾉｼ","kana_address":"ﾆｼﾀｯﾌﾟ","pref":"北海道","city":"富良野市","address":"西達布"},
{"zip_code":"0760182","kana_pref":"ﾎｯｶｲﾄﾞｳ","kana_city":"ﾌﾗﾉｼ","kana_address":"ﾆｼﾄﾐｵｶ","pref":"北海道","city":"富良野市","address":"西富丘"},
{"zip_code":"0760042","kana_pref":"ﾎｯｶｲﾄﾞｳ","kana_city":"ﾌﾗﾉｼ","kana_address":"ﾆｼﾄﾘﾇﾏ","pref":"北海道","city":"富良野市","address":"西鳥沼"},
{"zip_code":"0760173","kana_pref":"ﾎｯｶｲﾄﾞｳ","kana_city":"ﾌﾗﾉｼ","kana_address":"ﾆｼﾌﾚﾍﾞﾂ","pref":"北海道","city":"富良野市","address":"西布礼別"},
{"zip_code":"0760037","kana_pref":"ﾎｯｶｲﾄﾞｳ","kana_city":"ﾌﾗﾉｼ","kana_address":"ﾆｼﾏﾁ","pref":"北海道","city":"富良野市","address":"西町"},
{"zip_code":"0760163","kana_pref":"ﾎｯｶｲﾄﾞｳ","kana_city":"ﾌﾗﾉｼ","kana_address":"ﾆｼﾛｸｺﾞｳ","pref":"北海道","city":"富良野市","address":"西麓郷"},
{"zip_code":"0760003","kana_pref":"ﾎｯｶｲﾄﾞｳ","kana_city":"ﾌﾗﾉｼ","kana_address":"ﾇﾉﾍﾞｲｼﾜﾀ","pref":"北海道","city":"富良野市","address":"布部石綿"},
{"zip_code":"0760004","kana_pref":"ﾎｯｶｲﾄﾞｳ","kana_city":"ﾌﾗﾉｼ","kana_address":"ﾇﾉﾍﾞｼｶﾞｲﾁ","pref":"北海道","city":"富良野市","address":"布部市街地"},
{"zip_code":"0760005","kana_pref":"ﾎｯｶｲﾄﾞｳ","kana_city":"ﾌﾗﾉｼ","kana_address":"ﾇﾉﾍﾞｲﾁ","pref":"北海道","city":"富良野市","address":"布部一"},
{"zip_code":"0760027","kana_pref":"ﾎｯｶｲﾄﾞｳ","kana_city":"ﾌﾗﾉｼ","kana_address":"ﾊﾅｿﾞﾉﾁｮｳ","pref":"北海道","city":"富良野市","address":"花園町"},
{"zip_code":"0760051","kana_pref":"ﾎｯｶｲﾄﾞｳ","kana_city":"ﾌﾗﾉｼ","kana_address":"ﾋｶﾞｼｱｻﾏﾁ","pref":"北海道","city":"富良野市","address":"東麻町"},
{"zip_code":"0760045","kana_pref":"ﾎｯｶｲﾄﾞｳ","kana_city":"ﾌﾗﾉｼ","kana_address":"ﾋｶﾞｼｶﾞｸﾃﾞﾝﾆｸ","pref":"北海道","city":"富良野市","address":"東学田二区"},
{"zip_code":"0760181","kana_pref":"ﾎｯｶｲﾄﾞｳ","kana_city":"ﾌﾗﾉｼ","kana_address":"ﾋｶﾞｼﾄﾐｵｶ","pref":"北海道","city":"富良野市","address":"東富丘"},
{"zip_code":"0760041","kana_pref":"ﾎｯｶｲﾄﾞｳ","kana_city":"ﾌﾗﾉｼ","kana_address":"ﾋｶﾞｼﾄﾘﾇﾏ","pref":"北海道","city":"富良野市","address":"東鳥沼"},
{"zip_code":"0760172","kana_pref":"ﾎｯｶｲﾄﾞｳ","kana_city":"ﾌﾗﾉｼ","kana_address":"ﾋｶﾞｼﾌﾚﾍﾞﾂ","pref":"北海道","city":"富良野市","address":"東布礼別"},
{"zip_code":"0760053","kana_pref":"ﾎｯｶｲﾄﾞｳ","kana_city":"ﾌﾗﾉｼ","kana_address":"ﾋｶﾞｼﾏﾁ","pref":"北海道","city":"富良野市","address":"東町"},
{"zip_code":"0760202","kana_pref":"ﾎｯｶｲﾄﾞｳ","kana_city":"ﾌﾗﾉｼ","kana_address":"ﾋｶﾞｼﾔﾏ","pref":"北海道","city":"富良野市","address":"東山"},
{"zip_code":"0760162","kana_pref":"ﾎｯｶｲﾄﾞｳ","kana_city":"ﾌﾗﾉｼ","kana_address":"ﾋｶﾞｼﾛｸｺﾞｳ","pref":"北海道","city":"富良野市","address":"東麓郷"},
{"zip_code":"0760025","kana_pref":"ﾎｯｶｲﾄﾞｳ","kana_city":"ﾌﾗﾉｼ","kana_address":"ﾋﾉﾃﾞﾏﾁ","pref":"北海道","city":"富良野市","address":"日の出町"},
{"zip_code":"0760171","kana_pref":"ﾎｯｶｲﾄﾞｳ","kana_city":"ﾌﾗﾉｼ","kana_address":"ﾌﾚﾍﾞﾂｼｶﾞｲﾁ","pref":"北海道","city":"富良野市","address":"布礼別市街地"},
{"zip_code":"0760046","kana_pref":"ﾎｯｶｲﾄﾞｳ","kana_city":"ﾌﾗﾉｼ","kana_address":"ﾎｸﾄﾁｮｳ","pref":"北海道","city":"富良野市","address":"北斗町"},
{"zip_code":"0760056","kana_pref":"ﾎｯｶｲﾄﾞｳ","kana_city":"ﾌﾗﾉｼ","kana_address":"ﾐｽﾞﾎﾁｮｳ","pref":"北海道","city":"富良野市","address":"瑞穂町"},
{"zip_code":"0760021","kana_pref":"ﾎｯｶｲﾄﾞｳ","kana_city":"ﾌﾗﾉｼ","kana_address":"ﾐﾄﾞﾘﾏﾁ","pref":"北海道","city":"富良野市","address":"緑町"},
{"zip_code":"0760052","kana_pref":"ﾎｯｶｲﾄﾞｳ","kana_city":"ﾌﾗﾉｼ","kana_address":"ﾐﾅﾐｱｻﾏﾁ","pref":"北海道","city":"富良野市","address":"南麻町"},
{"zip_code":"0760002","kana_pref":"ﾎｯｶｲﾄﾞｳ","kana_city":"ﾌﾗﾉｼ","kana_address":"ﾐﾅﾐｵｳｷﾞﾔﾏ","pref":"北海道","city":"富良野市","address":"南扇山"},
{"zip_code":"0760043","kana_pref":"ﾎｯｶｲﾄﾞｳ","kana_city":"ﾌﾗﾉｼ","kana_address":"ﾐﾅﾐｵｵﾇﾏ","pref":"北海道","city":"富良野市","address":"南大沼"},
{"zip_code":"0760174","kana_pref":"ﾎｯｶｲﾄﾞｳ","kana_city":"ﾌﾗﾉｼ","kana_address":"ﾐﾅﾐﾌﾚﾍﾞﾂ","pref":"北海道","city":"富良野市","address":"南布礼別"},
{"zip_code":"0760007","kana_pref":"ﾎｯｶｲﾄﾞｳ","kana_city":"ﾌﾗﾉｼ","kana_address":"ﾐﾅﾐﾏﾁ","pref":"北海道","city":"富良野市","address":"南町"},
{"zip_code":"0760164","kana_pref":"ﾎｯｶｲﾄﾞｳ","kana_city":"ﾌﾗﾉｼ","kana_address":"ﾐﾅﾐﾛｸｺﾞｳ","pref":"北海道","city":"富良野市","address":"南麓郷"},
{"zip_code":"0760031","kana_pref":"ﾎｯｶｲﾄﾞｳ","kana_city":"ﾌﾗﾉｼ","kana_address":"ﾓﾄﾏﾁ","pref":"北海道","city":"富良野市","address":"本町"},
{"zip_code":"0760184","kana_pref":"ﾎｯｶｲﾄﾞｳ","kana_city":"ﾌﾗﾉｼ","kana_address":"ﾔﾊﾀｵｶ","pref":"北海道","city":"富良野市","address":"八幡丘"},
{"zip_code":"0760018","kana_pref":"ﾎｯｶｲﾄﾞｳ","kana_city":"ﾌﾗﾉｼ","kana_address":"ﾔﾖｲﾁｮｳ","pref":"北海道","city":"富良野市","address":"弥生町"},
{"zip_code":"0760203","kana_pref":"ﾎｯｶｲﾄﾞｳ","kana_city":"ﾌﾗﾉｼ","kana_address":"ﾛｳｾｯﾌﾟ","pref":"北海道","city":"富良野市","address":"老節布"},
{"zip_code":"0760161","kana_pref":"ﾎｯｶｲﾄﾞｳ","kana_city":"ﾌﾗﾉｼ","kana_address":"ﾛｸｺﾞｳｼｶﾞｲﾁ","pref":"北海道","city":"富良野市","address":"麓郷市街地"},
{"zip_code":"0760022","kana_pref":"ﾎｯｶｲﾄﾞｳ","kana_city":"ﾌﾗﾉｼ","kana_address":"ﾜｶﾊﾞﾁｮｳ","pref":"北海道","city":"富良野市","address":"若葉町"},
{"zip_code":"0760032","kana_pref":"ﾎｯｶｲﾄﾞｳ","kana_city":"ﾌﾗﾉｼ","kana_address":"ﾜｶﾏﾂﾁｮｳ","pref":"北海道","city":"富良野市","address":"若松町"}]}