{"zip_code":[
{"zip_code":"0788311","kana_pref":"ﾎｯｶｲﾄﾞｳ","kana_city":"ｱｻﾋｶﾜｼ","kana_address":"ｶｸﾞﾗｵｶ1ｼﾞｮｳ","pref":"北海道","city":"旭川市","address":"神楽岡１条"},
{"zip_code":"0788312","kana_pref":"ﾎｯｶｲﾄﾞｳ","kana_city":"ｱｻﾋｶﾜｼ","kana_address":"ｶｸﾞﾗｵｶ2ｼﾞｮｳ","pref":"北海道","city":"旭川市","address":"神楽岡２条"},
{"zip_code":"0788313","kana_pref":"ﾎｯｶｲﾄﾞｳ","kana_city":"ｱｻﾋｶﾜｼ","kana_address":"ｶｸﾞﾗｵｶ3ｼﾞｮｳ","pref":"北海道","city":"旭川市","address":"神楽岡３条"},
{"zip_code":"0788314","kana_pref":"ﾎｯｶｲﾄﾞｳ","kana_city":"ｱｻﾋｶﾜｼ","kana_address":"ｶｸﾞﾗｵｶ4ｼﾞｮｳ","pref":"北海道","city":"旭川市","address":"神楽岡４条"},
{"zip_code":"0788315","kana_pref":"ﾎｯｶｲﾄﾞｳ","kana_city":"ｱｻﾋｶﾜｼ","kana_address":"ｶｸﾞﾗｵｶ5ｼﾞｮｳ","pref":"北海道","city":"旭川市","address":"神楽岡５条"},
{"zip_code":"0788316","kana_pref":"ﾎｯｶｲﾄﾞｳ","kana_city":"ｱｻﾋｶﾜｼ","kana_address":"ｶｸﾞﾗｵｶ6ｼﾞｮｳ","pref":"北海道","city":"旭川市","address":"神楽岡６条"},
{"zip_code":"0788317","kana_pref":"ﾎｯｶｲﾄﾞｳ","kana_city":"ｱｻﾋｶﾜｼ","kana_address":"ｶｸﾞﾗｵｶ7ｼﾞｮｳ","pref":"北海道","city":"旭川市","address":"神楽岡７条"},
{"zip_code":"0788318","kana_pref":"ﾎｯｶｲﾄﾞｳ","kana_city":"ｱｻﾋｶﾜｼ","kana_address":"ｶｸﾞﾗｵｶ8ｼﾞｮｳ","pref":"北海道","city":"旭川市","address":"神楽岡８条"},
{"zip_code":"0788319","kana_pref":"ﾎｯｶｲﾄﾞｳ","kana_city":"ｱｻﾋｶﾜｼ","kana_address":"ｶｸﾞﾗｵｶ9ｼﾞｮｳ","pref":"北海道","city":"旭川市","address":"神楽岡９条"},
{"zip_code":"0788320","kana_pref":"ﾎｯｶｲﾄﾞｳ","kana_city":"ｱｻﾋｶﾜｼ","kana_address":"ｶｸﾞﾗｵｶ10ｼﾞｮｳ","pref":"北海道","city":"旭川市","address":"神楽岡１０条"},
{"zip_code":"0788321","kana_pref":"ﾎｯｶｲﾄﾞｳ","kana_city":"ｱｻﾋｶﾜｼ","kana_address":"ｶｸﾞﾗｵｶ11ｼﾞｮｳ","pref":"北海道","city":"旭川市","address":"神楽岡１１条"},
{"zip_code":"0788322","kana_pref":"ﾎｯｶｲﾄﾞｳ","kana_city":"ｱｻﾋｶﾜｼ","kana_address":"ｶｸﾞﾗｵｶ12ｼﾞｮｳ","pref":"北海道","city":"旭川市","address":"神楽岡１２条"},
{"zip_code":"0788323","kana_pref":"ﾎｯｶｲﾄﾞｳ","kana_city":"ｱｻﾋｶﾜｼ","kana_address":"ｶｸﾞﾗｵｶ13ｼﾞｮｳ","pref":"北海道","city":"旭川市","address":"神楽岡１３条"},
{"zip_code":"0788324","kana_pref":"ﾎｯｶｲﾄﾞｳ","kana_city":"ｱｻﾋｶﾜｼ","kana_address":"ｶｸﾞﾗｵｶ14ｼﾞｮｳ","pref":"北海道","city":"旭川市","address":"神楽岡１４条"},
{"zip_code":"0788325","kana_pref":"ﾎｯｶｲﾄﾞｳ","kana_city":"ｱｻﾋｶﾜｼ","kana_address":"ｶｸﾞﾗｵｶ15ｼﾞｮｳ","pref":"北海道","city":"旭川市","address":"神楽岡１５条"},
{"zip_code":"0788326","kana_pref":"ﾎｯｶｲﾄﾞｳ","kana_city":"ｱｻﾋｶﾜｼ","kana_address":"ｶｸﾞﾗｵｶ16ｼﾞｮｳ","pref":"北海道","city":"旭川市","address":"神楽岡１６条"},
{"zip_code":"0788327","kana_pref":"ﾎｯｶｲﾄﾞｳ","kana_city":"ｱｻﾋｶﾜｼ","kana_address":"ｶｸﾞﾗｵｶｺｳｴﾝ","pref":"北海道","city":"旭川市","address":"神楽岡公園"},
{"zip_code":"0780185","kana_pref":"ﾎｯｶｲﾄﾞｳ","kana_city":"ｱｻﾋｶﾜｼ","kana_address":"ｶﾑｲﾁｮｳｶﾑｲｺﾀﾝ","pref":"北海道","city":"旭川市","address":"神居町神居古潭"},
{"zip_code":"0780186","kana_pref":"ﾎｯｶｲﾄﾞｳ","kana_city":"ｱｻﾋｶﾜｼ","kana_address":"ｶﾑｲﾁｮｳﾆｼｵｶ","pref":"北海道","city":"旭川市","address":"神居町西丘"},
{"zip_code":"0788371","kana_pref":"ﾎｯｶｲﾄﾞｳ","kana_city":"ｱｻﾋｶﾜｼ","kana_address":"ｷｮｸｼﾝ1ｼﾞｮｳ","pref":"北海道","city":"旭川市","address":"旭神１条"},
{"zip_code":"0788372","kana_pref":"ﾎｯｶｲﾄﾞｳ","kana_city":"ｱｻﾋｶﾜｼ","kana_address":"ｷｮｸｼﾝ2ｼﾞｮｳ","pref":"北海道","city":"旭川市","address":"旭神２条"},
{"zip_code":"0788373","kana_pref":"ﾎｯｶｲﾄﾞｳ","kana_city":"ｱｻﾋｶﾜｼ","kana_address":"ｷｮｸｼﾝ3ｼﾞｮｳ","pref":"北海道","city":"旭川市","address":"旭神３条"},
{"zip_code":"0788308","kana_pref":"ﾎｯｶｲﾄﾞｳ","kana_city":"ｱｻﾋｶﾜｼ","kana_address":"ｷｮｸｼﾝﾁｮｳ","pref":"北海道","city":"旭川市","address":"旭神町"},
{"zip_code":"0788271","kana_pref":"ﾎｯｶｲﾄﾞｳ","kana_city":"ｱｻﾋｶﾜｼ","kana_address":"ｺｳｷﾞｮｳﾀﾞﾝﾁ1ｼﾞｮｳ","pref":"北海道","city":"旭川市","address":"工業団地１条"},
{"zip_code":"0788272","kana_pref":"ﾎｯｶｲﾄﾞｳ","kana_city":"ｱｻﾋｶﾜｼ","kana_address":"ｺｳｷﾞｮｳﾀﾞﾝﾁ2ｼﾞｮｳ","pref":"北海道","city":"旭川市","address":"工業団地２条"},
{"zip_code":"0788273","kana_pref":"ﾎｯｶｲﾄﾞｳ","kana_city":"ｱｻﾋｶﾜｼ","kana_address":"ｺｳｷﾞｮｳﾀﾞﾝﾁ3ｼﾞｮｳ","pref":"北海道","city":"旭川市","address":"工業団地３条"},
{"zip_code":"0788274","kana_pref":"ﾎｯｶｲﾄﾞｳ","kana_city":"ｱｻﾋｶﾜｼ","kana_address":"ｺｳｷﾞｮｳﾀﾞﾝﾁ4ｼﾞｮｳ","pref":"北海道","city":"旭川市","address":"工業団地４条"},
{"zip_code":"0788275","kana_pref":"ﾎｯｶｲﾄﾞｳ","kana_city":"ｱｻﾋｶﾜｼ","kana_address":"ｺｳｷﾞｮｳﾀﾞﾝﾁ5ｼﾞｮｳ","pref":"北海道","city":"旭川市","address":"工業団地５条"},
{"zip_code":"0788341","kana_pref":"ﾎｯｶｲﾄﾞｳ","kana_city":"ｱｻﾋｶﾜｼ","kana_address":"ﾄｳｺｳ1ｼﾞｮｳ","pref":"北海道","city":"旭川市","address":"東光１条"},
{"zip_code":"0788342","kana_pref":"ﾎｯｶｲﾄﾞｳ","kana_city":"ｱｻﾋｶﾜｼ","kana_address":"ﾄｳｺｳ2ｼﾞｮｳ","pref":"北海道","city":"旭川市","address":"東光２条"},
{"zip_code":"0788343","kana_pref":"ﾎｯｶｲﾄﾞｳ","kana_city":"ｱｻﾋｶﾜｼ","kana_address":"ﾄｳｺｳ3ｼﾞｮｳ","pref":"北海道","city":"旭川市","address":"東光３条"},
{"zip_code":"0788344","kana_pref":"ﾎｯｶｲﾄﾞｳ","kana_city":"ｱｻﾋｶﾜｼ","kana_address":"ﾄｳｺｳ4ｼﾞｮｳ","pref":"北海道","city":"旭川市","address":"東光４条"},
{"zip_code":"0788345","kana_pref":"ﾎｯｶｲﾄﾞｳ","kana_city":"ｱｻﾋｶﾜｼ","kana_address":"ﾄｳｺｳ5ｼﾞｮｳ","pref":"北海道","city":"旭川市","address":"東光５条"},
{"zip_code":"0788346","kana_pref":"ﾎｯｶｲﾄﾞｳ","kana_city":"ｱｻﾋｶﾜｼ","kana_address":"ﾄｳｺｳ6ｼﾞｮｳ","pref":"北海道","city":"旭川市","address":"東光６条"},
{"zip_code":"0788347","kana_pref":"ﾎｯｶｲﾄﾞｳ","kana_city":"ｱｻﾋｶﾜｼ","kana_address":"ﾄｳｺｳ7ｼﾞｮｳ","pref":"北海道","city":"旭川市","address":"東光７条"},
{"zip_code":"0788348","kana_pref":"ﾎｯｶｲﾄﾞｳ","kana_city":"ｱｻﾋｶﾜｼ","kana_address":"ﾄｳｺｳ8ｼﾞｮｳ","pref":"北海道","city":"旭川市","address":"東光８条"},
{"zip_code":"0788349","kana_pref":"ﾎｯｶｲﾄﾞｳ","kana_city":"ｱｻﾋｶﾜｼ","kana_address":"ﾄｳｺｳ9ｼﾞｮｳ","pref":"北海道","city":"旭川市","address":"東光９条"},
{"zip_code":"0788350","kana_pref":"ﾎｯｶｲﾄﾞｳ","kana_city":"ｱｻﾋｶﾜｼ","kana_address":"ﾄｳｺｳ10ｼﾞｮｳ","pref":"北海道","city":"旭川市","address":"東光１０条"},
{"zip_code":"0788351","kana_pref":"ﾎｯｶｲﾄﾞｳ","kana_city":"ｱｻﾋｶﾜｼ","kana_address":"ﾄｳｺｳ11ｼﾞｮｳ","pref":"北海道","city":"旭川市","address":"東光１１条"},
{"zip_code":"0788352","kana_pref":"ﾎｯｶｲﾄﾞｳ","kana_city":"ｱｻﾋｶﾜｼ","kana_address":"ﾄｳｺｳ12ｼﾞｮｳ","pref":"北海道","city":"旭川市","address":"東光１２条"},
{"zip_code":"0788353","kana_pref":"ﾎｯｶｲﾄﾞｳ","kana_city":"ｱｻﾋｶﾜｼ","kana_address":"ﾄｳｺｳ13ｼﾞｮｳ","pref":"北海道","city":"旭川市","address":"東光１３条"},
{"zip_code":"0788354","kana_pref":"ﾎｯｶｲﾄﾞｳ","kana_city":"ｱｻﾋｶﾜｼ","kana_address":"ﾄｳｺｳ14ｼﾞｮｳ","pref":"北海道","city":"旭川市","address":"東光１４条"},
{"zip_code":"0788355","kana_pref":"ﾎｯｶｲﾄﾞｳ","kana_city":"ｱｻﾋｶﾜｼ","kana_address":"ﾄｳｺｳ15ｼﾞｮｳ","pref":"北海道","city":"旭川市","address":"東光１５条"},
{"zip_code":"0788356","kana_pref":"ﾎｯｶｲﾄﾞｳ","kana_city":"ｱｻﾋｶﾜｼ","kana_address":"ﾄｳｺｳ16ｼﾞｮｳ","pref":"北海道","city":"旭川市","address":"東光１６条"},
{"zip_code":"0788357","kana_pref":"ﾎｯｶｲﾄﾞｳ","kana_city":"ｱｻﾋｶﾜｼ","kana_address":"ﾄｳｺｳ17ｼﾞｮｳ","pref":"北海道","city":"旭川市","address":"東光１７条"},
{"zip_code":"0788358","kana_pref":"ﾎｯｶｲﾄﾞｳ","kana_city":"ｱｻﾋｶﾜｼ","kana_address":"ﾄｳｺｳ18ｼﾞｮｳ","pref":"北海道","city":"旭川市","address":"東光１８条"},
{"zip_code":"0788359","kana_pref":"ﾎｯｶｲﾄﾞｳ","kana_city":"ｱｻﾋｶﾜｼ","kana_address":"ﾄｳｺｳ19ｼﾞｮｳ","pref":"北海道","city":"旭川市","address":"東光１９条"},
{"zip_code":"0788360","kana_pref":"ﾎｯｶｲﾄﾞｳ","kana_city":"ｱｻﾋｶﾜｼ","kana_address":"ﾄｳｺｳ20ｼﾞｮｳ","pref":"北海道","city":"旭川市","address":"東光２０条"},
{"zip_code":"0788361","kana_pref":"ﾎｯｶｲﾄﾞｳ","kana_city":"ｱｻﾋｶﾜｼ","kana_address":"ﾄｳｺｳ21ｼﾞｮｳ","pref":"北海道","city":"旭川市","address":"東光２１条"},
{"zip_code":"0788362","kana_pref":"ﾎｯｶｲﾄﾞｳ","kana_city":"ｱｻﾋｶﾜｼ","kana_address":"ﾄｳｺｳ22ｼﾞｮｳ","pref":"北海道","city":"旭川市","address":"東光２２条"},
{"zip_code":"0788363","kana_pref":"ﾎｯｶｲﾄﾞｳ","kana_city":"ｱｻﾋｶﾜｼ","kana_address":"ﾄｳｺｳ23ｼﾞｮｳ","pref":"北海道","city":"旭川市","address":"東光２３条"},
{"zip_code":"0788364","kana_pref":"ﾎｯｶｲﾄﾞｳ","kana_city":"ｱｻﾋｶﾜｼ","kana_address":"ﾄｳｺｳ24ｼﾞｮｳ","pref":"北海道","city":"旭川市","address":"東光２４条"},
{"zip_code":"0788365","kana_pref":"ﾎｯｶｲﾄﾞｳ","kana_city":"ｱｻﾋｶﾜｼ","kana_address":"ﾄｳｺｳ25ｼﾞｮｳ","pref":"北海道","city":"旭川市","address":"東光２５条"},
{"zip_code":"0788366","kana_pref":"ﾎｯｶｲﾄﾞｳ","kana_city":"ｱｻﾋｶﾜｼ","kana_address":"ﾄｳｺｳ26ｼﾞｮｳ","pref":"北海道","city":"旭川市","address":"東光２６条"},
{"zip_code":"0788367","kana_pref":"ﾎｯｶｲﾄﾞｳ","kana_city":"ｱｻﾋｶﾜｼ","kana_address":"ﾄｳｺｳ27ｼﾞｮｳ","pref":"北海道","city":"旭川市","address":"東光２７条"},
{"zip_code":"0788231","kana_pref":"ﾎｯｶｲﾄﾞｳ","kana_city":"ｱｻﾋｶﾜｼ","kana_address":"ﾄﾖｵｶ1ｼﾞｮｳ","pref":"北海道","city":"旭川市","address":"豊岡１条"},
{"zip_code":"0788232","kana_pref":"ﾎｯｶｲﾄﾞｳ","kana_city":"ｱｻﾋｶﾜｼ","kana_address":"ﾄﾖｵｶ2ｼﾞｮｳ","pref":"北海道","city":"旭川市","address":"豊岡２条"},
{"zip_code":"0788233","kana_pref":"ﾎｯｶｲﾄﾞｳ","kana_city":"ｱｻﾋｶﾜｼ","kana_address":"ﾄﾖｵｶ3ｼﾞｮｳ","pref":"北海道","city":"旭川市","address":"豊岡３条"},
{"zip_code":"0788234","kana_pref":"ﾎｯｶｲﾄﾞｳ","kana_city":"ｱｻﾋｶﾜｼ","kana_address":"ﾄﾖｵｶ4ｼﾞｮｳ","pref":"北海道","city":"旭川市","address":"豊岡４条"},
{"zip_code":"0788235","kana_pref":"ﾎｯｶｲﾄﾞｳ","kana_city":"ｱｻﾋｶﾜｼ","kana_address":"ﾄﾖｵｶ5ｼﾞｮｳ","pref":"北海道","city":"旭川市","address":"豊岡５条"},
{"zip_code":"0788236","kana_pref":"ﾎｯｶｲﾄﾞｳ","kana_city":"ｱｻﾋｶﾜｼ","kana_address":"ﾄﾖｵｶ6ｼﾞｮｳ","pref":"北海道","city":"旭川市","address":"豊岡６条"},
{"zip_code":"0788237","kana_pref":"ﾎｯｶｲﾄﾞｳ","kana_city":"ｱｻﾋｶﾜｼ","kana_address":"ﾄﾖｵｶ7ｼﾞｮｳ","pref":"北海道","city":"旭川市","address":"豊岡７条"},
{"zip_code":"0788238","kana_pref":"ﾎｯｶｲﾄﾞｳ","kana_city":"ｱｻﾋｶﾜｼ","kana_address":"ﾄﾖｵｶ8ｼﾞｮｳ","pref":"北海道","city":"旭川市","address":"豊岡８条"},
{"zip_code":"0788239","kana_pref":"ﾎｯｶｲﾄﾞｳ","kana_city":"ｱｻﾋｶﾜｼ","kana_address":"ﾄﾖｵｶ9ｼﾞｮｳ","pref":"北海道","city":"旭川市","address":"豊岡９条"},
{"zip_code":"0788240","kana_pref":"ﾎｯｶｲﾄﾞｳ","kana_city":"ｱｻﾋｶﾜｼ","kana_address":"ﾄﾖｵｶ10ｼﾞｮｳ","pref":"北海道","city":"旭川市","address":"豊岡１０条"},
{"zip_code":"0788241","kana_pref":"ﾎｯｶｲﾄﾞｳ","kana_city":"ｱｻﾋｶﾜｼ","kana_address":"ﾄﾖｵｶ11ｼﾞｮｳ","pref":"北海道","city":"旭川市","address":"豊岡１１条"},
{"zip_code":"0788242","kana_pref":"ﾎｯｶｲﾄﾞｳ","kana_city":"ｱｻﾋｶﾜｼ","kana_address":"ﾄﾖｵｶ12ｼﾞｮｳ","pref":"北海道","city":"旭川市","address":"豊岡１２条"},
{"zip_code":"0788243","kana_pref":"ﾎｯｶｲﾄﾞｳ","kana_city":"ｱｻﾋｶﾜｼ","kana_address":"ﾄﾖｵｶ13ｼﾞｮｳ","pref":"北海道","city":"旭川市","address":"豊岡１３条"},
{"zip_code":"0788244","kana_pref":"ﾎｯｶｲﾄﾞｳ","kana_city":"ｱｻﾋｶﾜｼ","kana_address":"ﾄﾖｵｶ14ｼﾞｮｳ","pref":"北海道","city":"旭川市","address":"豊岡１４条"},
{"zip_code":"0788245","kana_pref":"ﾎｯｶｲﾄﾞｳ","kana_city":"ｱｻﾋｶﾜｼ","kana_address":"ﾄﾖｵｶ15ｼﾞｮｳ","pref":"北海道","city":"旭川市","address":"豊岡１５条"},
{"zip_code":"0788246","kana_pref":"ﾎｯｶｲﾄﾞｳ","kana_city":"ｱｻﾋｶﾜｼ","kana_address":"ﾄﾖｵｶ16ｼﾞｮｳ","pref":"北海道","city":"旭川市","address":"豊岡１６条"},
{"zip_code":"0788381","kana_pref":"ﾎｯｶｲﾄﾞｳ","kana_city":"ｱｻﾋｶﾜｼ","kana_address":"ﾆｼｶｸﾞﾗ1ｾﾝ","pref":"北海道","city":"旭川市","address":"西神楽１線"},
{"zip_code":"0788382","kana_pref":"ﾎｯｶｲﾄﾞｳ","kana_city":"ｱｻﾋｶﾜｼ","kana_address":"ﾆｼｶｸﾞﾗ2ｾﾝ","pref":"北海道","city":"旭川市","address":"西神楽２線"},
{"zip_code":"0788383","kana_pref":"ﾎｯｶｲﾄﾞｳ","kana_city":"ｱｻﾋｶﾜｼ","kana_address":"ﾆｼｶｸﾞﾗ3ｾﾝ","pref":"北海道","city":"旭川市","address":"西神楽３線"},
{"zip_code":"0788821","kana_pref":"ﾎｯｶｲﾄﾞｳ","kana_city":"ｱｻﾋｶﾜｼ","kana_address":"ﾆｼｺﾞﾘｮｳ1ｼﾞｮｳ","pref":"北海道","city":"旭川市","address":"西御料１条"},
{"zip_code":"0788822","kana_pref":"ﾎｯｶｲﾄﾞｳ","kana_city":"ｱｻﾋｶﾜｼ","kana_address":"ﾆｼｺﾞﾘｮｳ2ｼﾞｮｳ","pref":"北海道","city":"旭川市","address":"西御料２条"},
{"zip_code":"0788823","kana_pref":"ﾎｯｶｲﾄﾞｳ","kana_city":"ｱｻﾋｶﾜｼ","kana_address":"ﾆｼｺﾞﾘｮｳ3ｼﾞｮｳ","pref":"北海道","city":"旭川市","address":"西御料３条"},
{"zip_code":"0788824","kana_pref":"ﾎｯｶｲﾄﾞｳ","kana_city":"ｱｻﾋｶﾜｼ","kana_address":"ﾆｼｺﾞﾘｮｳ4ｼﾞｮｳ","pref":"北海道","city":"旭川市","address":"西御料４条"},
{"zip_code":"0788825","kana_pref":"ﾎｯｶｲﾄﾞｳ","kana_city":"ｱｻﾋｶﾜｼ","kana_address":"ﾆｼｺﾞﾘｮｳ5ｼﾞｮｳ","pref":"北海道","city":"旭川市","address":"西御料５条"},
{"zip_code":"0788251","kana_pref":"ﾎｯｶｲﾄﾞｳ","kana_city":"ｱｻﾋｶﾜｼ","kana_address":"ﾋｶﾞｼｱｻﾋｶﾜｷﾀ1ｼﾞｮｳ","pref":"北海道","city":"旭川市","address":"東旭川北１条"},
{"zip_code":"0788252","kana_pref":"ﾎｯｶｲﾄﾞｳ","kana_city":"ｱｻﾋｶﾜｼ","kana_address":"ﾋｶﾞｼｱｻﾋｶﾜｷﾀ2ｼﾞｮｳ","pref":"北海道","city":"旭川市","address":"東旭川北２条"},
{"zip_code":"0788253","kana_pref":"ﾎｯｶｲﾄﾞｳ","kana_city":"ｱｻﾋｶﾜｼ","kana_address":"ﾋｶﾞｼｱｻﾋｶﾜｷﾀ3ｼﾞｮｳ","pref":"北海道","city":"旭川市","address":"東旭川北３条"},
{"zip_code":"0788207","kana_pref":"ﾎｯｶｲﾄﾞｳ","kana_city":"ｱｻﾋｶﾜｼ","kana_address":"ﾋｶﾞｼｱｻﾋｶﾜﾁｮｳｶﾐﾍｲｿﾝ","pref":"北海道","city":"旭川市","address":"東旭川町上兵村"},
{"zip_code":"0788208","kana_pref":"ﾎｯｶｲﾄﾞｳ","kana_city":"ｱｻﾋｶﾜｼ","kana_address":"ﾋｶﾞｼｱｻﾋｶﾜﾁｮｳｼﾓﾍｲｿﾝ","pref":"北海道","city":"旭川市","address":"東旭川町下兵村"},
{"zip_code":"0788340","kana_pref":"ﾎｯｶｲﾄﾞｳ","kana_city":"ｱｻﾋｶﾜｼ","kana_address":"ﾋｶﾞｼｱｻﾋｶﾜﾁｮｳｷｮｳｴｲ","pref":"北海道","city":"旭川市","address":"東旭川町共栄"},
{"zip_code":"0788368","kana_pref":"ﾎｯｶｲﾄﾞｳ","kana_city":"ｱｻﾋｶﾜｼ","kana_address":"ﾋｶﾞｼｱｻﾋｶﾜﾁｮｳｷｮｸｾｲ","pref":"北海道","city":"旭川市","address":"東旭川町旭正"},
{"zip_code":"0788205","kana_pref":"ﾎｯｶｲﾄﾞｳ","kana_city":"ｱｻﾋｶﾜｼ","kana_address":"ﾋｶﾞｼｱｻﾋｶﾜﾁｮｳｸﾗﾇﾏ","pref":"北海道","city":"旭川市","address":"東旭川町倉沼"},
{"zip_code":"0788204","kana_pref":"ﾎｯｶｲﾄﾞｳ","kana_city":"ｱｻﾋｶﾜｼ","kana_address":"ﾋｶﾞｼｱｻﾋｶﾜﾁｮｳｻｸﾗｵｶ","pref":"北海道","city":"旭川市","address":"東旭川町桜岡"},
{"zip_code":"0788206","kana_pref":"ﾎｯｶｲﾄﾞｳ","kana_city":"ｱｻﾋｶﾜｼ","kana_address":"ﾋｶﾞｼｱｻﾋｶﾜﾁｮｳﾁｭｳﾍﾞﾂ","pref":"北海道","city":"旭川市","address":"東旭川町忠別"},
{"zip_code":"0788202","kana_pref":"ﾎｯｶｲﾄﾞｳ","kana_city":"ｱｻﾋｶﾜｼ","kana_address":"ﾋｶﾞｼｱｻﾋｶﾜﾁｮｳﾄﾖﾀ","pref":"北海道","city":"旭川市","address":"東旭川町豊田"},
{"zip_code":"0781272","kana_pref":"ﾎｯｶｲﾄﾞｳ","kana_city":"ｱｻﾋｶﾜｼ","kana_address":"ﾋｶﾞｼｱｻﾋｶﾜﾁｮｳﾄﾖﾀ","pref":"北海道","city":"旭川市","address":"東旭川町豊田"},
{"zip_code":"0788201","kana_pref":"ﾎｯｶｲﾄﾞｳ","kana_city":"ｱｻﾋｶﾜｼ","kana_address":"ﾋｶﾞｼｱｻﾋｶﾜﾁｮｳﾋｶﾞｼｻｸﾗｵｶ","pref":"北海道","city":"旭川市","address":"東旭川町東桜岡"},
{"zip_code":"0781271","kana_pref":"ﾎｯｶｲﾄﾞｳ","kana_city":"ｱｻﾋｶﾜｼ","kana_address":"ﾋｶﾞｼｱｻﾋｶﾜﾁｮｳﾋｶﾞｼｻｸﾗｵｶ","pref":"北海道","city":"旭川市","address":"東旭川町東桜岡"},
{"zip_code":"0788203","kana_pref":"ﾎｯｶｲﾄﾞｳ","kana_city":"ｱｻﾋｶﾜｼ","kana_address":"ﾋｶﾞｼｱｻﾋｶﾜﾁｮｳﾋﾉﾃﾞ","pref":"北海道","city":"旭川市","address":"東旭川町日ノ出"},
{"zip_code":"0781274","kana_pref":"ﾎｯｶｲﾄﾞｳ","kana_city":"ｱｻﾋｶﾜｼ","kana_address":"ﾋｶﾞｼｱｻﾋｶﾜﾁｮｳﾐｽﾞﾎ","pref":"北海道","city":"旭川市","address":"東旭川町瑞穂"},
{"zip_code":"0781273","kana_pref":"ﾎｯｶｲﾄﾞｳ","kana_city":"ｱｻﾋｶﾜｼ","kana_address":"ﾋｶﾞｼｱｻﾋｶﾜﾁｮｳﾖﾈﾊﾗ","pref":"北海道","city":"旭川市","address":"東旭川町米原"},
{"zip_code":"0788261","kana_pref":"ﾎｯｶｲﾄﾞｳ","kana_city":"ｱｻﾋｶﾜｼ","kana_address":"ﾋｶﾞｼｱｻﾋｶﾜﾐﾅﾐ1ｼﾞｮｳ","pref":"北海道","city":"旭川市","address":"東旭川南１条"},
{"zip_code":"0788262","kana_pref":"ﾎｯｶｲﾄﾞｳ","kana_city":"ｱｻﾋｶﾜｼ","kana_address":"ﾋｶﾞｼｱｻﾋｶﾜﾐﾅﾐ2ｼﾞｮｳ","pref":"北海道","city":"旭川市","address":"東旭川南２条"},
{"zip_code":"0788301","kana_pref":"ﾎｯｶｲﾄﾞｳ","kana_city":"ｱｻﾋｶﾜｼ","kana_address":"ﾐﾄﾞﾘｶﾞｵｶ1ｼﾞｮｳ","pref":"北海道","city":"旭川市","address":"緑が丘１条"},
{"zip_code":"0788302","kana_pref":"ﾎｯｶｲﾄﾞｳ","kana_city":"ｱｻﾋｶﾜｼ","kana_address":"ﾐﾄﾞﾘｶﾞｵｶ2ｼﾞｮｳ","pref":"北海道","city":"旭川市","address":"緑が丘２条"},
{"zip_code":"0788303","kana_pref":"ﾎｯｶｲﾄﾞｳ","kana_city":"ｱｻﾋｶﾜｼ","kana_address":"ﾐﾄﾞﾘｶﾞｵｶ3ｼﾞｮｳ","pref":"北海道","city":"旭川市","address":"緑が丘３条"},
{"zip_code":"0788304","kana_pref":"ﾎｯｶｲﾄﾞｳ","kana_city":"ｱｻﾋｶﾜｼ","kana_address":"ﾐﾄﾞﾘｶﾞｵｶ4ｼﾞｮｳ","pref":"北海道","city":"旭川市","address":"緑が丘４条"},
{"zip_code":"0788305","kana_pref":"ﾎｯｶｲﾄﾞｳ","kana_city":"ｱｻﾋｶﾜｼ","kana_address":"ﾐﾄﾞﾘｶﾞｵｶ5ｼﾞｮｳ","pref":"北海道","city":"旭川市","address":"緑が丘５条"},
{"zip_code":"0788801","kana_pref":"ﾎｯｶｲﾄﾞｳ","kana_city":"ｱｻﾋｶﾜｼ","kana_address":"ﾐﾄﾞﾘｶﾞｵｶﾋｶﾞｼ1ｼﾞｮｳ","pref":"北海道","city":"旭川市","address":"緑が丘東１条"},
{"zip_code":"0788802","kana_pref":"ﾎｯｶｲﾄﾞｳ","kana_city":"ｱｻﾋｶﾜｼ","kana_address":"ﾐﾄﾞﾘｶﾞｵｶﾋｶﾞｼ2ｼﾞｮｳ","pref":"北海道","city":"旭川市","address":"緑が丘東２条"},
{"zip_code":"0788803","kana_pref":"ﾎｯｶｲﾄﾞｳ","kana_city":"ｱｻﾋｶﾜｼ","kana_address":"ﾐﾄﾞﾘｶﾞｵｶﾋｶﾞｼ3ｼﾞｮｳ","pref":"北海道","city":"旭川市","address":"緑が丘東３条"},
{"zip_code":"0788804","kana_pref":"ﾎｯｶｲﾄﾞｳ","kana_city":"ｱｻﾋｶﾜｼ","kana_address":"ﾐﾄﾞﾘｶﾞｵｶﾋｶﾞｼ4ｼﾞｮｳ","pref":"北海道","city":"旭川市","address":"緑が丘東４条"},
{"zip_code":"0788805","kana_pref":"ﾎｯｶｲﾄﾞｳ","kana_city":"ｱｻﾋｶﾜｼ","kana_address":"ﾐﾄﾞﾘｶﾞｵｶﾋｶﾞｼ5ｼﾞｮｳ","pref":"北海道","city":"旭川市","address":"緑が丘東５条"},
{"zip_code":"0788811","kana_pref":"ﾎｯｶｲﾄﾞｳ","kana_city":"ｱｻﾋｶﾜｼ","kana_address":"ﾐﾄﾞﾘｶﾞｵｶﾐﾅﾐ1ｼﾞｮｳ","pref":"北海道","city":"旭川市","address":"緑が丘南１条"},
{"zip_code":"0788812","kana_pref":"ﾎｯｶｲﾄﾞｳ","kana_city":"ｱｻﾋｶﾜｼ","kana_address":"ﾐﾄﾞﾘｶﾞｵｶﾐﾅﾐ2ｼﾞｮｳ","pref":"北海道","city":"旭川市","address":"緑が丘南２条"},
{"zip_code":"0788813","kana_pref":"ﾎｯｶｲﾄﾞｳ","kana_city":"ｱｻﾋｶﾜｼ","kana_address":"ﾐﾄﾞﾘｶﾞｵｶﾐﾅﾐ3ｼﾞｮｳ","pref":"北海道","city":"旭川市","address":"緑が丘南３条"},
{"zip_code":"0788814","kana_pref":"ﾎｯｶｲﾄﾞｳ","kana_city":"ｱｻﾋｶﾜｼ","kana_address":"ﾐﾄﾞﾘｶﾞｵｶﾐﾅﾐ4ｼﾞｮｳ","pref":"北海道","city":"旭川市","address":"緑が丘南４条"},
{"zip_code":"0788815","kana_pref":"ﾎｯｶｲﾄﾞｳ","kana_city":"ｱｻﾋｶﾜｼ","kana_address":"ﾐﾄﾞﾘｶﾞｵｶﾐﾅﾐ5ｼﾞｮｳ","pref":"北海道","city":"旭川市","address":"緑が丘南５条"},
{"zip_code":"0788331","kana_pref":"ﾎｯｶｲﾄﾞｳ","kana_city":"ｱｻﾋｶﾜｼ","kana_address":"ﾐﾅﾐ1ｼﾞｮｳﾄﾞｵﾘ","pref":"北海道","city":"旭川市","address":"南１条通"},
{"zip_code":"0788332","kana_pref":"ﾎｯｶｲﾄﾞｳ","kana_city":"ｱｻﾋｶﾜｼ","kana_address":"ﾐﾅﾐ2ｼﾞｮｳﾄﾞｵﾘ","pref":"北海道","city":"旭川市","address":"南２条通"},
{"zip_code":"0788333","kana_pref":"ﾎｯｶｲﾄﾞｳ","kana_city":"ｱｻﾋｶﾜｼ","kana_address":"ﾐﾅﾐ3ｼﾞｮｳﾄﾞｵﾘ","pref":"北海道","city":"旭川市","address":"南３条通"},
{"zip_code":"0788334","kana_pref":"ﾎｯｶｲﾄﾞｳ","kana_city":"ｱｻﾋｶﾜｼ","kana_address":"ﾐﾅﾐ4ｼﾞｮｳﾄﾞｵﾘ","pref":"北海道","city":"旭川市","address":"南４条通"},
{"zip_code":"0788335","kana_pref":"ﾎｯｶｲﾄﾞｳ","kana_city":"ｱｻﾋｶﾜｼ","kana_address":"ﾐﾅﾐ5ｼﾞｮｳﾄﾞｵﾘ","pref":"北海道","city":"旭川市","address":"南５条通"},
{"zip_code":"0788336","kana_pref":"ﾎｯｶｲﾄﾞｳ","kana_city":"ｱｻﾋｶﾜｼ","kana_address":"ﾐﾅﾐ6ｼﾞｮｳﾄﾞｵﾘ","pref":"北海道","city":"旭川市","address":"南６条通"},
{"zip_code":"0788337","kana_pref":"ﾎｯｶｲﾄﾞｳ","kana_city":"ｱｻﾋｶﾜｼ","kana_address":"ﾐﾅﾐ7ｼﾞｮｳﾄﾞｵﾘ","pref":"北海道","city":"旭川市","address":"南７条通"},
{"zip_code":"0788338","kana_pref":"ﾎｯｶｲﾄﾞｳ","kana_city":"ｱｻﾋｶﾜｼ","kana_address":"ﾐﾅﾐ8ｼﾞｮｳﾄﾞｵﾘ","pref":"北海道","city":"旭川市","address":"南８条通"},
{"zip_code":"0788339","kana_pref":"ﾎｯｶｲﾄﾞｳ","kana_city":"ｱｻﾋｶﾜｼ","kana_address":"ﾐﾅﾐ9ｼﾞｮｳﾄﾞｵﾘ","pref":"北海道","city":"旭川市","address":"南９条通"},
{"zip_code":"0788330","kana_pref":"ﾎｯｶｲﾄﾞｳ","kana_city":"ｱｻﾋｶﾜｼ","kana_address":"ﾐﾔｼﾀﾄﾞｵﾘ","pref":"北海道","city":"旭川市","address":"宮下通"},
{"zip_code":"0788329","kana_pref":"ﾎｯｶｲﾄﾞｳ","kana_city":"ｱｻﾋｶﾜｼ","kana_address":"ﾐﾔﾏｴﾄﾞｵﾘﾋｶﾞｼ","pref":"北海道","city":"旭川市","address":"宮前通東"},
{"zip_code":"0788328","kana_pref":"ﾎｯｶｲﾄﾞｳ","kana_city":"ｱｻﾋｶﾜｼ","kana_address":"ﾐﾔﾏｴﾄﾞｵﾘﾆｼ","pref":"北海道","city":"旭川市","address":"宮前通西"},
{"zip_code":"0788211","kana_pref":"ﾎｯｶｲﾄﾞｳ","kana_city":"ｱｻﾋｶﾜｼ","kana_address":"1ｼﾞｮｳﾄﾞｵﾘ","pref":"北海道","city":"旭川市","address":"１条通"},
{"zip_code":"0788212","kana_pref":"ﾎｯｶｲﾄﾞｳ","kana_city":"ｱｻﾋｶﾜｼ","kana_address":"2ｼﾞｮｳﾄﾞｵﾘ","pref":"北海道","city":"旭川市","address":"２条通"},
{"zip_code":"0788213","kana_pref":"ﾎｯｶｲﾄﾞｳ","kana_city":"ｱｻﾋｶﾜｼ","kana_address":"3ｼﾞｮｳﾄﾞｵﾘ","pref":"北海道","city":"旭川市","address":"３条通"},
{"zip_code":"0788214","kana_pref":"ﾎｯｶｲﾄﾞｳ","kana_city":"ｱｻﾋｶﾜｼ","kana_address":"4ｼﾞｮｳﾄﾞｵﾘ","pref":"北海道","city":"旭川市","address":"４条通"},
{"zip_code":"0788215","kana_pref":"ﾎｯｶｲﾄﾞｳ","kana_city":"ｱｻﾋｶﾜｼ","kana_address":"5ｼﾞｮｳﾄﾞｵﾘ","pref":"北海道","city":"旭川市","address":"５条通"},
{"zip_code":"0788216","kana_pref":"ﾎｯｶｲﾄﾞｳ","kana_city":"ｱｻﾋｶﾜｼ","kana_address":"6ｼﾞｮｳﾄﾞｵﾘ","pref":"北海道","city":"旭川市","address":"６条通"},
{"zip_code":"0788217","kana_pref":"ﾎｯｶｲﾄﾞｳ","kana_city":"ｱｻﾋｶﾜｼ","kana_address":"7ｼﾞｮｳﾄﾞｵﾘ","pref":"北海道","city":"旭川市","address":"７条通"},
{"zip_code":"0788218","kana_pref":"ﾎｯｶｲﾄﾞｳ","kana_city":"ｱｻﾋｶﾜｼ","kana_address":"8ｼﾞｮｳﾄﾞｵﾘ","pref":"北海道","city":"旭川市","address":"８条通"},
{"zip_code":"0788219","kana_pref":"ﾎｯｶｲﾄﾞｳ","kana_city":"ｱｻﾋｶﾜｼ","kana_address":"9ｼﾞｮｳﾄﾞｵﾘ","pref":"北海道","city":"旭川市","address":"９条通"},
{"zip_code":"0788220","kana_pref":"ﾎｯｶｲﾄﾞｳ","kana_city":"ｱｻﾋｶﾜｼ","kana_address":"10ｼﾞｮｳﾄﾞｵﾘ","pref":"北海道","city":"旭川市","address":"１０条通"},
{"zip_code":"0788221","kana_pref":"ﾎｯｶｲﾄﾞｳ","kana_city":"ｱｻﾋｶﾜｼ","kana_address":"11ｼﾞｮｳﾄﾞｵﾘ","pref":"北海道","city":"旭川市","address":"１１条通"},
{"zip_code":"0783167","kana_pref":"ﾎｯｶｲﾄﾞｳ","kana_city":"ﾙﾓｲｼ","kana_address":"ﾀﾙﾏｯﾌﾟﾁｮｳ","pref":"北海道","city":"留萌市","address":"樽真布町"},
{"zip_code":"0783166","kana_pref":"ﾎｯｶｲﾄﾞｳ","kana_city":"ﾙﾓｲｼ","kana_address":"ﾅｶﾎﾛﾁｮｳ","pref":"北海道","city":"留萌市","address":"中幌町"},
{"zip_code":"0783162","kana_pref":"ﾎｯｶｲﾄﾞｳ","kana_city":"ﾙﾓｲｼ","kana_address":"ﾋｶﾞｼﾎﾛﾁｮｳ","pref":"北海道","city":"留萌市","address":"東幌町"},
{"zip_code":"0783165","kana_pref":"ﾎｯｶｲﾄﾞｳ","kana_city":"ﾙﾓｲｼ","kana_address":"ﾌｼﾞﾔﾏﾁｮｳ","pref":"北海道","city":"留萌市","address":"藤山町"},
{"zip_code":"0783168","kana_pref":"ﾎｯｶｲﾄﾞｳ","kana_city":"ﾙﾓｲｼ","kana_address":"ﾎﾛﾇｶﾁｮｳ","pref":"北海道","city":"留萌市","address":"幌糠町"},
{"zip_code":"0783163","kana_pref":"ﾎｯｶｲﾄﾞｳ","kana_city":"ﾙﾓｲｼ","kana_address":"ﾐﾅﾐﾎﾛﾁｮｳ","pref":"北海道","city":"留萌市","address":"南幌町"},
{"zip_code":"0783161","kana_pref":"ﾎｯｶｲﾄﾞｳ","kana_city":"ﾙﾓｲｼ","kana_address":"ﾙﾓｲﾑﾗ","pref":"北海道","city":"留萌市","address":"留萌村"},
{"zip_code":"0783164","kana_pref":"ﾎｯｶｲﾄﾞｳ","kana_city":"ﾙﾓｲｼ","kana_address":"ﾙﾓｲﾑﾗ","pref":"北海道","city":"留萌市","address":"留萌村"},
{"zip_code":"0783165","kana_pref":"ﾎｯｶｲﾄﾞｳ","kana_city":"ﾙﾓｲｼ","kana_address":"ﾙﾓｲｹﾞﾝﾔ","pref":"北海道","city":"留萌市","address":"留萌原野"},
{"zip_code":"0780151","kana_pref":"ﾎｯｶｲﾄﾞｳ","kana_city":"ﾌｶｶﾞﾜｼ","kana_address":"ｵｻﾑﾅｲﾁｮｳ","pref":"北海道","city":"深川市","address":"納内町"},
{"zip_code":"0780153","kana_pref":"ﾎｯｶｲﾄﾞｳ","kana_city":"ﾌｶｶﾞﾜｼ","kana_address":"ｵｻﾑﾅｲﾁｮｳｷﾀ","pref":"北海道","city":"深川市","address":"納内町北"},
{"zip_code":"0780154","kana_pref":"ﾎｯｶｲﾄﾞｳ","kana_city":"ﾌｶｶﾞﾜｼ","kana_address":"ｵｻﾑﾅｲﾁｮｳｸﾞﾘｰﾝﾀｳﾝ","pref":"北海道","city":"深川市","address":"納内町グリーンタウン"},
{"zip_code":"0780152","kana_pref":"ﾎｯｶｲﾄﾞｳ","kana_city":"ﾌｶｶﾞﾜｼ","kana_address":"ｵﾄｴﾁｮｳ","pref":"北海道","city":"深川市","address":"音江町"},
{"zip_code":"0782651","kana_pref":"ﾎｯｶｲﾄﾞｳ","kana_city":"ｶﾊﾞﾄｸﾞﾝｼﾝﾄﾂｶﾜﾁｮｳ","kana_address":"ﾐｻﾜ","pref":"北海道","city":"樺戸郡新十津川町","address":"美沢"},
{"zip_code":"0782100","kana_pref":"ﾎｯｶｲﾄﾞｳ","kana_city":"ｳﾘｭｳｸﾞﾝﾁｯﾌﾟﾍﾞﾂﾁｮｳ","kana_address":"","pref":"北海道","city":"雨竜郡秩父別町","address":""},
{"zip_code":"0782121","kana_pref":"ﾎｯｶｲﾄﾞｳ","kana_city":"ｳﾘｭｳｸﾞﾝﾁｯﾌﾟﾍﾞﾂﾁｮｳ","kana_address":"ﾀｷﾉｶﾐ","pref":"北海道","city":"雨竜郡秩父別町","address":"滝の上"},
{"zip_code":"0782122","kana_pref":"ﾎｯｶｲﾄﾞｳ","kana_city":"ｳﾘｭｳｸﾞﾝﾁｯﾌﾟﾍﾞﾂﾁｮｳ","kana_address":"ﾅｶﾔﾏ","pref":"北海道","city":"雨竜郡秩父別町","address":"中山"},
{"zip_code":"0782123","kana_pref":"ﾎｯｶｲﾄﾞｳ","kana_city":"ｳﾘｭｳｸﾞﾝﾁｯﾌﾟﾍﾞﾂﾁｮｳ","kana_address":"ﾋｶﾞｼﾔﾏ","pref":"北海道","city":"雨竜郡秩父別町","address":"東山"},
{"zip_code":"0782124","kana_pref":"ﾎｯｶｲﾄﾞｳ","kana_city":"ｳﾘｭｳｸﾞﾝﾁｯﾌﾟﾍﾞﾂﾁｮｳ","kana_address":"ﾐﾅﾐﾔﾏ","pref":"北海道","city":"雨竜郡秩父別町","address":"南山"},
{"zip_code":"0782111","kana_pref":"ﾎｯｶｲﾄﾞｳ","kana_city":"ｳﾘｭｳｸﾞﾝﾁｯﾌﾟﾍﾞﾂﾁｮｳ","kana_address":"ﾐﾅﾐ1ｼﾞｮｳ","pref":"北海道","city":"雨竜郡秩父別町","address":"南１条"},
{"zip_code":"0782112","kana_pref":"ﾎｯｶｲﾄﾞｳ","kana_city":"ｳﾘｭｳｸﾞﾝﾁｯﾌﾟﾍﾞﾂﾁｮｳ","kana_address":"ﾐﾅﾐ2ｼﾞｮｳ","pref":"北海道","city":"雨竜郡秩父別町","address":"南２条"},
{"zip_code":"0782101","kana_pref":"ﾎｯｶｲﾄﾞｳ","kana_city":"ｳﾘｭｳｸﾞﾝﾁｯﾌﾟﾍﾞﾂﾁｮｳ","kana_address":"1ｼﾞｮｳ","pref":"北海道","city":"雨竜郡秩父別町","address":"１条"},
{"zip_code":"0782102","kana_pref":"ﾎｯｶｲﾄﾞｳ","kana_city":"ｳﾘｭｳｸﾞﾝﾁｯﾌﾟﾍﾞﾂﾁｮｳ","kana_address":"2ｼﾞｮｳ","pref":"北海道","city":"雨竜郡秩父別町","address":"２条"},
{"zip_code":"0782103","kana_pref":"ﾎｯｶｲﾄﾞｳ","kana_city":"ｳﾘｭｳｸﾞﾝﾁｯﾌﾟﾍﾞﾂﾁｮｳ","kana_address":"3ｼﾞｮｳ","pref":"北海道","city":"雨竜郡秩父別町","address":"３条"},
{"zip_code":"0782104","kana_pref":"ﾎｯｶｲﾄﾞｳ","kana_city":"ｳﾘｭｳｸﾞﾝﾁｯﾌﾟﾍﾞﾂﾁｮｳ","kana_address":"4ｼﾞｮｳ","pref":"北海道","city":"雨竜郡秩父別町","address":"４条"},
{"zip_code":"0782105","kana_pref":"ﾎｯｶｲﾄﾞｳ","kana_city":"ｳﾘｭｳｸﾞﾝﾁｯﾌﾟﾍﾞﾂﾁｮｳ","kana_address":"5ｼﾞｮｳ","pref":"北海道","city":"雨竜郡秩父別町","address":"５条"},
{"zip_code":"0782106","kana_pref":"ﾎｯｶｲﾄﾞｳ","kana_city":"ｳﾘｭｳｸﾞﾝﾁｯﾌﾟﾍﾞﾂﾁｮｳ","kana_address":"6ｼﾞｮｳ","pref":"北海道","city":"雨竜郡秩父別町","address":"６条"},
{"zip_code":"0782107","kana_pref":"ﾎｯｶｲﾄﾞｳ","kana_city":"ｳﾘｭｳｸﾞﾝﾁｯﾌﾟﾍﾞﾂﾁｮｳ","kana_address":"7ｼﾞｮｳ","pref":"北海道","city":"雨竜郡秩父別町","address":"７条"},
{"zip_code":"0782108","kana_pref":"ﾎｯｶｲﾄﾞｳ","kana_city":"ｳﾘｭｳｸﾞﾝﾁｯﾌﾟﾍﾞﾂﾁｮｳ","kana_address":"8ｼﾞｮｳ","pref":"北海道","city":"雨竜郡秩父別町","address":"８条"},
{"zip_code":"0782109","kana_pref":"ﾎｯｶｲﾄﾞｳ","kana_city":"ｳﾘｭｳｸﾞﾝﾁｯﾌﾟﾍﾞﾂﾁｮｳ","kana_address":"9ｼﾞｮｳ","pref":"北海道","city":"雨竜郡秩父別町","address":"９条"},
{"zip_code":"0782600","kana_pref":"ﾎｯｶｲﾄﾞｳ","kana_city":"ｳﾘｭｳｸﾞﾝｳﾘｭｳﾁｮｳ","kana_address":"","pref":"北海道","city":"雨竜郡雨竜町","address":""},
{"zip_code":"0782631","kana_pref":"ﾎｯｶｲﾄﾞｳ","kana_city":"ｳﾘｭｳｸﾞﾝｳﾘｭｳﾁｮｳ","kana_address":"ﾀﾞｲ1ﾁｮｳﾅｲ","pref":"北海道","city":"雨竜郡雨竜町","address":"第１町内"},
{"zip_code":"0782632","kana_pref":"ﾎｯｶｲﾄﾞｳ","kana_city":"ｳﾘｭｳｸﾞﾝｳﾘｭｳﾁｮｳ","kana_address":"ﾀﾞｲ2ﾁｮｳﾅｲ","pref":"北海道","city":"雨竜郡雨竜町","address":"第２町内"},
{"zip_code":"0782633","kana_pref":"ﾎｯｶｲﾄﾞｳ","kana_city":"ｳﾘｭｳｸﾞﾝｳﾘｭｳﾁｮｳ","kana_address":"ﾀﾞｲ3ﾁｮｳﾅｲ","pref":"北海道","city":"雨竜郡雨竜町","address":"第３町内"},
{"zip_code":"0782634","kana_pref":"ﾎｯｶｲﾄﾞｳ","kana_city":"ｳﾘｭｳｸﾞﾝｳﾘｭｳﾁｮｳ","kana_address":"ﾀﾞｲ4ﾁｮｳﾅｲ","pref":"北海道","city":"雨竜郡雨竜町","address":"第４町内"},
{"zip_code":"0782531","kana_pref":"ﾎｯｶｲﾄﾞｳ","kana_city":"ｳﾘｭｳｸﾞﾝｳﾘｭｳﾁｮｳ","kana_address":"ﾀﾞｲ5ﾁｮｳﾅｲ","pref":"北海道","city":"雨竜郡雨竜町","address":"第５町内"},
{"zip_code":"0782635","kana_pref":"ﾎｯｶｲﾄﾞｳ","kana_city":"ｳﾘｭｳｸﾞﾝｳﾘｭｳﾁｮｳ","kana_address":"ﾀﾞｲ5ﾁｮｳﾅｲ","pref":"北海道","city":"雨竜郡雨竜町","address":"第５町内"},
{"zip_code":"0782636","kana_pref":"ﾎｯｶｲﾄﾞｳ","kana_city":"ｳﾘｭｳｸﾞﾝｳﾘｭｳﾁｮｳ","kana_address":"ﾀﾞｲ6ﾁｮｳﾅｲ","pref":"北海道","city":"雨竜郡雨竜町","address":"第６町内"},
{"zip_code":"0782637","kana_pref":"ﾎｯｶｲﾄﾞｳ","kana_city":"ｳﾘｭｳｸﾞﾝｳﾘｭｳﾁｮｳ","kana_address":"ﾀﾞｲ7ﾁｮｳﾅｲ","pref":"北海道","city":"雨竜郡雨竜町","address":"第７町内"},
{"zip_code":"0782638","kana_pref":"ﾎｯｶｲﾄﾞｳ","kana_city":"ｳﾘｭｳｸﾞﾝｳﾘｭｳﾁｮｳ","kana_address":"ﾀﾞｲ8ﾁｮｳﾅｲ","pref":"北海道","city":"雨竜郡雨竜町","address":"第８町内"},
{"zip_code":"0782639","kana_pref":"ﾎｯｶｲﾄﾞｳ","kana_city":"ｳﾘｭｳｸﾞﾝｳﾘｭｳﾁｮｳ","kana_address":"ﾀﾞｲ9ﾁｮｳﾅｲ","pref":"北海道","city":"雨竜郡雨竜町","address":"第９町内"},
{"zip_code":"0782641","kana_pref":"ﾎｯｶｲﾄﾞｳ","kana_city":"ｳﾘｭｳｸﾞﾝｳﾘｭｳﾁｮｳ","kana_address":"ﾀﾞｲ10ﾁｮｳﾅｲ","pref":"北海道","city":"雨竜郡雨竜町","address":"第１０町内"},
{"zip_code":"0782642","kana_pref":"ﾎｯｶｲﾄﾞｳ","kana_city":"ｳﾘｭｳｸﾞﾝｳﾘｭｳﾁｮｳ","kana_address":"ﾀﾞｲ11ﾁｮｳﾅｲ","pref":"北海道","city":"雨竜郡雨竜町","address":"第１１町内"},
{"zip_code":"0782500","kana_pref":"ﾎｯｶｲﾄﾞｳ","kana_city":"ｳﾘｭｳｸﾞﾝﾎｸﾘｭｳﾁｮｳ","kana_address":"","pref":"北海道","city":"雨竜郡北竜町","address":""},
{"zip_code":"0782511","kana_pref":"ﾎｯｶｲﾄﾞｳ","kana_city":"ｳﾘｭｳｸﾞﾝﾎｸﾘｭｳﾁｮｳ","kana_address":"ｲﾀﾔ","pref":"北海道","city":"雨竜郡北竜町","address":"板谷"},
{"zip_code":"0782502","kana_pref":"ﾎｯｶｲﾄﾞｳ","kana_city":"ｳﾘｭｳｸﾞﾝﾎｸﾘｭｳﾁｮｳ","kana_address":"ｲﾜﾑﾗ","pref":"北海道","city":"雨竜郡北竜町","address":"岩村"},
{"zip_code":"0782514","kana_pref":"ﾎｯｶｲﾄﾞｳ","kana_city":"ｳﾘｭｳｸﾞﾝﾎｸﾘｭｳﾁｮｳ","kana_address":"ｴﾀｲﾍﾞﾂ","pref":"北海道","city":"雨竜郡北竜町","address":"恵岱別"},
{"zip_code":"0782516","kana_pref":"ﾎｯｶｲﾄﾞｳ","kana_city":"ｳﾘｭｳｸﾞﾝﾎｸﾘｭｳﾁｮｳ","kana_address":"ﾆｼｶﾜ","pref":"北海道","city":"雨竜郡北竜町","address":"西川"},
{"zip_code":"0782501","kana_pref":"ﾎｯｶｲﾄﾞｳ","kana_city":"ｳﾘｭｳｸﾞﾝﾎｸﾘｭｳﾁｮｳ","kana_address":"ﾋﾞﾊﾞｳｼ","pref":"北海道","city":"雨竜郡北竜町","address":"美葉牛"},
{"zip_code":"0782503","kana_pref":"ﾎｯｶｲﾄﾞｳ","kana_city":"ｳﾘｭｳｸﾞﾝﾎｸﾘｭｳﾁｮｳ","kana_address":"ﾍｷｽｲ","pref":"北海道","city":"雨竜郡北竜町","address":"碧水"},
{"zip_code":"0782513","kana_pref":"ﾎｯｶｲﾄﾞｳ","kana_city":"ｳﾘｭｳｸﾞﾝﾎｸﾘｭｳﾁｮｳ","kana_address":"ﾐﾀﾆ","pref":"北海道","city":"雨竜郡北竜町","address":"三谷"},
{"zip_code":"0782512","kana_pref":"ﾎｯｶｲﾄﾞｳ","kana_city":"ｳﾘｭｳｸﾞﾝﾎｸﾘｭｳﾁｮｳ","kana_address":"ﾔﾜﾗ","pref":"北海道","city":"雨竜郡北竜町","address":"和"},
{"zip_code":"0782515","kana_pref":"ﾎｯｶｲﾄﾞｳ","kana_city":"ｳﾘｭｳｸﾞﾝﾎｸﾘｭｳﾁｮｳ","kana_address":"ﾘｭｳｻｲ","pref":"北海道","city":"雨竜郡北竜町","address":"竜西"},
{"zip_code":"0782200","kana_pref":"ﾎｯｶｲﾄﾞｳ","kana_city":"ｳﾘｭｳｸﾞﾝﾇﾏﾀﾁｮｳ","kana_address":"","pref":"北海道","city":"雨竜郡沼田町","address":""},
{"zip_code":"0782201","kana_pref":"ﾎｯｶｲﾄﾞｳ","kana_city":"ｳﾘｭｳｸﾞﾝﾇﾏﾀﾁｮｳ","kana_address":"ｱｻﾋﾏﾁ","pref":"北海道","city":"雨竜郡沼田町","address":"旭町"},
{"zip_code":"0782224","kana_pref":"ﾎｯｶｲﾄﾞｳ","kana_city":"ｳﾘｭｳｸﾞﾝﾇﾏﾀﾁｮｳ","kana_address":"ｴﾋﾞｼﾏ","pref":"北海道","city":"雨竜郡沼田町","address":"恵比島"},
{"zip_code":"0782205","kana_pref":"ﾎｯｶｲﾄﾞｳ","kana_city":"ｳﾘｭｳｸﾞﾝﾇﾏﾀﾁｮｳ","kana_address":"ｷﾀ1ｼﾞｮｳ","pref":"北海道","city":"雨竜郡沼田町","address":"北一条"},
{"zip_code":"0782213","kana_pref":"ﾎｯｶｲﾄﾞｳ","kana_city":"ｳﾘｭｳｸﾞﾝﾇﾏﾀﾁｮｳ","kana_address":"ｷｮｳｾｲ","pref":"北海道","city":"雨竜郡沼田町","address":"共成"},
{"zip_code":"0782211","kana_pref":"ﾎｯｶｲﾄﾞｳ","kana_city":"ｳﾘｭｳｸﾞﾝﾇﾏﾀﾁｮｳ","kana_address":"ｺｳｼﾝ","pref":"北海道","city":"雨竜郡沼田町","address":"更新"},
{"zip_code":"0782214","kana_pref":"ﾎｯｶｲﾄﾞｳ","kana_city":"ｳﾘｭｳｸﾞﾝﾇﾏﾀﾁｮｳ","kana_address":"ﾀｶﾎ","pref":"北海道","city":"雨竜郡沼田町","address":"高穂"},
{"zip_code":"0782212","kana_pref":"ﾎｯｶｲﾄﾞｳ","kana_city":"ｳﾘｭｳｸﾞﾝﾇﾏﾀﾁｮｳ","kana_address":"ﾄｳﾖ","pref":"北海道","city":"雨竜郡沼田町","address":"東予"},
{"zip_code":"0782204","kana_pref":"ﾎｯｶｲﾄﾞｳ","kana_city":"ｳﾘｭｳｸﾞﾝﾇﾏﾀﾁｮｳ","kana_address":"ﾆｼﾏﾁ","pref":"北海道","city":"雨竜郡沼田町","address":"西町"},
{"zip_code":"0782222","kana_pref":"ﾎｯｶｲﾄﾞｳ","kana_city":"ｳﾘｭｳｸﾞﾝﾇﾏﾀﾁｮｳ","kana_address":"ﾇﾏﾀ","pref":"北海道","city":"雨竜郡沼田町","address":"沼田"},
{"zip_code":"0782223","kana_pref":"ﾎｯｶｲﾄﾞｳ","kana_city":"ｳﾘｭｳｸﾞﾝﾇﾏﾀﾁｮｳ","kana_address":"ﾎｸﾘｭｳ","pref":"北海道","city":"雨竜郡沼田町","address":"北竜"},
{"zip_code":"0782225","kana_pref":"ﾎｯｶｲﾄﾞｳ","kana_city":"ｳﾘｭｳｸﾞﾝﾇﾏﾀﾁｮｳ","kana_address":"ﾎﾛｼﾝ","pref":"北海道","city":"雨竜郡沼田町","address":"幌新"},
{"zip_code":"0782203","kana_pref":"ﾎｯｶｲﾄﾞｳ","kana_city":"ｳﾘｭｳｸﾞﾝﾇﾏﾀﾁｮｳ","kana_address":"ﾎﾝﾄﾞｵﾘ","pref":"北海道","city":"雨竜郡沼田町","address":"本通"},
{"zip_code":"0782221","kana_pref":"ﾎｯｶｲﾄﾞｳ","kana_city":"ｳﾘｭｳｸﾞﾝﾇﾏﾀﾁｮｳ","kana_address":"ﾏｯﾌﾟ","pref":"北海道","city":"雨竜郡沼田町","address":"真布"},
{"zip_code":"0782206","kana_pref":"ﾎｯｶｲﾄﾞｳ","kana_city":"ｳﾘｭｳｸﾞﾝﾇﾏﾀﾁｮｳ","kana_address":"ﾐﾄﾞﾘﾏﾁ","pref":"北海道","city":"雨竜郡沼田町","address":"緑町"},
{"zip_code":"0782202","kana_pref":"ﾎｯｶｲﾄﾞｳ","kana_city":"ｳﾘｭｳｸﾞﾝﾇﾏﾀﾁｮｳ","kana_address":"ﾐﾅﾐ1ｼﾞｮｳ","pref":"北海道","city":"雨竜郡沼田町","address":"南一条"},
{"zip_code":"0781300","kana_pref":"ﾎｯｶｲﾄﾞｳ","kana_city":"ｶﾐｶﾜｸﾞﾝﾄｳﾏﾁｮｳ","kana_address":"","pref":"北海道","city":"上川郡当麻町","address":""},
{"zip_code":"0781333","kana_pref":"ﾎｯｶｲﾄﾞｳ","kana_city":"ｶﾐｶﾜｸﾞﾝﾄｳﾏﾁｮｳ","kana_address":"ｲｶｳｼ","pref":"北海道","city":"上川郡当麻町","address":"伊香牛"},
{"zip_code":"0781332","kana_pref":"ﾎｯｶｲﾄﾞｳ","kana_city":"ｶﾐｶﾜｸﾞﾝﾄｳﾏﾁｮｳ","kana_address":"ｳｴﾝﾍﾞﾂ","pref":"北海道","city":"上川郡当麻町","address":"宇園別"},
{"zip_code":"0781341","kana_pref":"ﾎｯｶｲﾄﾞｳ","kana_city":"ｶﾐｶﾜｸﾞﾝﾄｳﾏﾁｮｳ","kana_address":"ｶｲﾒｲ","pref":"北海道","city":"上川郡当麻町","address":"開明"},
{"zip_code":"0781331","kana_pref":"ﾎｯｶｲﾄﾞｳ","kana_city":"ｶﾐｶﾜｸﾞﾝﾄｳﾏﾁｮｳ","kana_address":"ﾁｭｳｵｳ","pref":"北海道","city":"上川郡当麻町","address":"中央"},
{"zip_code":"0781337","kana_pref":"ﾎｯｶｲﾄﾞｳ","kana_city":"ｶﾐｶﾜｸﾞﾝﾄｳﾏﾁｮｳ","kana_address":"ﾋｶﾞｼ","pref":"北海道","city":"上川郡当麻町","address":"東"},
{"zip_code":"0781334","kana_pref":"ﾎｯｶｲﾄﾞｳ","kana_city":"ｶﾐｶﾜｸﾞﾝﾄｳﾏﾁｮｳ","kana_address":"ﾎｸｾｲ","pref":"北海道","city":"上川郡当麻町","address":"北星"},
{"zip_code":"0781335","kana_pref":"ﾎｯｶｲﾄﾞｳ","kana_city":"ｶﾐｶﾜｸﾞﾝﾄｳﾏﾁｮｳ","kana_address":"ﾛｸｺﾞｳ","pref":"北海道","city":"上川郡当麻町","address":"緑郷"},
{"zip_code":"0781313","kana_pref":"ﾎｯｶｲﾄﾞｳ","kana_city":"ｶﾐｶﾜｸﾞﾝﾄｳﾏﾁｮｳ","kana_address":"3ｼﾞｮｳﾋｶﾞｼ","pref":"北海道","city":"上川郡当麻町","address":"三条東"},
{"zip_code":"0781303","kana_pref":"ﾎｯｶｲﾄﾞｳ","kana_city":"ｶﾐｶﾜｸﾞﾝﾄｳﾏﾁｮｳ","kana_address":"3ｼﾞｮｳﾆｼ","pref":"北海道","city":"上川郡当麻町","address":"三条西"},
{"zip_code":"0781314","kana_pref":"ﾎｯｶｲﾄﾞｳ","kana_city":"ｶﾐｶﾜｸﾞﾝﾄｳﾏﾁｮｳ","kana_address":"4ｼﾞｮｳﾋｶﾞｼ","pref":"北海道","city":"上川郡当麻町","address":"四条東"},
{"zip_code":"0781304","kana_pref":"ﾎｯｶｲﾄﾞｳ","kana_city":"ｶﾐｶﾜｸﾞﾝﾄｳﾏﾁｮｳ","kana_address":"4ｼﾞｮｳﾆｼ","pref":"北海道","city":"上川郡当麻町","address":"四条西"},
{"zip_code":"0781324","kana_pref":"ﾎｯｶｲﾄﾞｳ","kana_city":"ｶﾐｶﾜｸﾞﾝﾄｳﾏﾁｮｳ","kana_address":"4ｼﾞｮｳﾐﾅﾐ","pref":"北海道","city":"上川郡当麻町","address":"四条南"},
{"zip_code":"0781315","kana_pref":"ﾎｯｶｲﾄﾞｳ","kana_city":"ｶﾐｶﾜｸﾞﾝﾄｳﾏﾁｮｳ","kana_address":"5ｼﾞｮｳﾋｶﾞｼ","pref":"北海道","city":"上川郡当麻町","address":"五条東"},
{"zip_code":"0781305","kana_pref":"ﾎｯｶｲﾄﾞｳ","kana_city":"ｶﾐｶﾜｸﾞﾝﾄｳﾏﾁｮｳ","kana_address":"5ｼﾞｮｳﾆｼ","pref":"北海道","city":"上川郡当麻町","address":"五条西"},
{"zip_code":"0781316","kana_pref":"ﾎｯｶｲﾄﾞｳ","kana_city":"ｶﾐｶﾜｸﾞﾝﾄｳﾏﾁｮｳ","kana_address":"6ｼﾞｮｳﾋｶﾞｼ","pref":"北海道","city":"上川郡当麻町","address":"六条東"},
{"zip_code":"0781306","kana_pref":"ﾎｯｶｲﾄﾞｳ","kana_city":"ｶﾐｶﾜｸﾞﾝﾄｳﾏﾁｮｳ","kana_address":"6ｼﾞｮｳﾆｼ","pref":"北海道","city":"上川郡当麻町","address":"六条西"},
{"zip_code":"0780300","kana_pref":"ﾎｯｶｲﾄﾞｳ","kana_city":"ｶﾐｶﾜｸﾞﾝﾋﾟｯﾌﾟﾁｮｳ","kana_address":"","pref":"北海道","city":"上川郡比布町","address":""},
{"zip_code":"0780310","kana_pref":"ﾎｯｶｲﾄﾞｳ","kana_city":"ｶﾐｶﾜｸﾞﾝﾋﾟｯﾌﾟﾁｮｳ","kana_address":"ｷｾﾝ","pref":"北海道","city":"上川郡比布町","address":"基線"},
{"zip_code":"0780348","kana_pref":"ﾎｯｶｲﾄﾞｳ","kana_city":"ｶﾐｶﾜｸﾞﾝﾋﾟｯﾌﾟﾁｮｳ","kana_address":"ｷﾀﾏﾁ","pref":"北海道","city":"上川郡比布町","address":"北町"},
{"zip_code":"0780321","kana_pref":"ﾎｯｶｲﾄﾞｳ","kana_city":"ｶﾐｶﾜｸﾞﾝﾋﾟｯﾌﾟﾁｮｳ","kana_address":"ｷﾀ1ｾﾝ","pref":"北海道","city":"上川郡比布町","address":"北１線"},
{"zip_code":"0780322","kana_pref":"ﾎｯｶｲﾄﾞｳ","kana_city":"ｶﾐｶﾜｸﾞﾝﾋﾟｯﾌﾟﾁｮｳ","kana_address":"ｷﾀ2ｾﾝ","pref":"北海道","city":"上川郡比布町","address":"北２線"},
{"zip_code":"0780323","kana_pref":"ﾎｯｶｲﾄﾞｳ","kana_city":"ｶﾐｶﾜｸﾞﾝﾋﾟｯﾌﾟﾁｮｳ","kana_address":"ｷﾀ3ｾﾝ","pref":"北海道","city":"上川郡比布町","address":"北３線"},
{"zip_code":"0780324","kana_pref":"ﾎｯｶｲﾄﾞｳ","kana_city":"ｶﾐｶﾜｸﾞﾝﾋﾟｯﾌﾟﾁｮｳ","kana_address":"ｷﾀ4ｾﾝ","pref":"北海道","city":"上川郡比布町","address":"北４線"},
{"zip_code":"0780325","kana_pref":"ﾎｯｶｲﾄﾞｳ","kana_city":"ｶﾐｶﾜｸﾞﾝﾋﾟｯﾌﾟﾁｮｳ","kana_address":"ｷﾀ5ｾﾝ","pref":"北海道","city":"上川郡比布町","address":"北５線"},
{"zip_code":"0780326","kana_pref":"ﾎｯｶｲﾄﾞｳ","kana_city":"ｶﾐｶﾜｸﾞﾝﾋﾟｯﾌﾟﾁｮｳ","kana_address":"ｷﾀ6ｾﾝ","pref":"北海道","city":"上川郡比布町","address":"北６線"},
{"zip_code":"0780327","kana_pref":"ﾎｯｶｲﾄﾞｳ","kana_city":"ｶﾐｶﾜｸﾞﾝﾋﾟｯﾌﾟﾁｮｳ","kana_address":"ｷﾀ7ｾﾝ","pref":"北海道","city":"上川郡比布町","address":"北７線"},
{"zip_code":"0780328","kana_pref":"ﾎｯｶｲﾄﾞｳ","kana_city":"ｶﾐｶﾜｸﾞﾝﾋﾟｯﾌﾟﾁｮｳ","kana_address":"ｷﾀ8ｾﾝ","pref":"北海道","city":"上川郡比布町","address":"北８線"},
{"zip_code":"0780329","kana_pref":"ﾎｯｶｲﾄﾞｳ","kana_city":"ｶﾐｶﾜｸﾞﾝﾋﾟｯﾌﾟﾁｮｳ","kana_address":"ｷﾀ9ｾﾝ","pref":"北海道","city":"上川郡比布町","address":"北９線"},
{"zip_code":"0780330","kana_pref":"ﾎｯｶｲﾄﾞｳ","kana_city":"ｶﾐｶﾜｸﾞﾝﾋﾟｯﾌﾟﾁｮｳ","kana_address":"ｷﾀ10ｾﾝ","pref":"北海道","city":"上川郡比布町","address":"北１０線"},
{"zip_code":"0780331","kana_pref":"ﾎｯｶｲﾄﾞｳ","kana_city":"ｶﾐｶﾜｸﾞﾝﾋﾟｯﾌﾟﾁｮｳ","kana_address":"ｷﾀ11ｾﾝ","pref":"北海道","city":"上川郡比布町","address":"北１１線"},
{"zip_code":"0780332","kana_pref":"ﾎｯｶｲﾄﾞｳ","kana_city":"ｶﾐｶﾜｸﾞﾝﾋﾟｯﾌﾟﾁｮｳ","kana_address":"ｷﾀ12ｾﾝ","pref":"北海道","city":"上川郡比布町","address":"北１２線"},
{"zip_code":"0780333","kana_pref":"ﾎｯｶｲﾄﾞｳ","kana_city":"ｶﾐｶﾜｸﾞﾝﾋﾟｯﾌﾟﾁｮｳ","kana_address":"ｷﾀ13ｾﾝ","pref":"北海道","city":"上川郡比布町","address":"北１３線"},
{"zip_code":"0780334","kana_pref":"ﾎｯｶｲﾄﾞｳ","kana_city":"ｶﾐｶﾜｸﾞﾝﾋﾟｯﾌﾟﾁｮｳ","kana_address":"ｷﾀ14ｾﾝ","pref":"北海道","city":"上川郡比布町","address":"北１４線"},
{"zip_code":"0780335","kana_pref":"ﾎｯｶｲﾄﾞｳ","kana_city":"ｶﾐｶﾜｸﾞﾝﾋﾟｯﾌﾟﾁｮｳ","kana_address":"ｷﾀ15ｾﾝ","pref":"北海道","city":"上川郡比布町","address":"北１５線"},
{"zip_code":"0780349","kana_pref":"ﾎｯｶｲﾄﾞｳ","kana_city":"ｶﾐｶﾜｸﾞﾝﾋﾟｯﾌﾟﾁｮｳ","kana_address":"ｺﾄﾌﾞｷﾏﾁ","pref":"北海道","city":"上川郡比布町","address":"寿町"},
{"zip_code":"0780341","kana_pref":"ﾎｯｶｲﾄﾞｳ","kana_city":"ｶﾐｶﾜｸﾞﾝﾋﾟｯﾌﾟﾁｮｳ","kana_address":"ｼｶﾞｲﾁ","pref":"北海道","city":"上川郡比布町","address":"市街地"},
{"zip_code":"0780346","kana_pref":"ﾎｯｶｲﾄﾞｳ","kana_city":"ｶﾐｶﾜｸﾞﾝﾋﾟｯﾌﾟﾁｮｳ","kana_address":"ｼﾝﾏﾁ","pref":"北海道","city":"上川郡比布町","address":"新町"},
{"zip_code":"0780343","kana_pref":"ﾎｯｶｲﾄﾞｳ","kana_city":"ｶﾐｶﾜｸﾞﾝﾋﾟｯﾌﾟﾁｮｳ","kana_address":"ﾅｶﾏﾁ","pref":"北海道","city":"上川郡比布町","address":"中町"},
{"zip_code":"0780342","kana_pref":"ﾎｯｶｲﾄﾞｳ","kana_city":"ｶﾐｶﾜｸﾞﾝﾋﾟｯﾌﾟﾁｮｳ","kana_address":"ﾆｼﾏﾁ","pref":"北海道","city":"上川郡比布町","address":"西町"},
{"zip_code":"0780347","kana_pref":"ﾎｯｶｲﾄﾞｳ","kana_city":"ｶﾐｶﾜｸﾞﾝﾋﾟｯﾌﾟﾁｮｳ","kana_address":"ﾋｶﾞｼﾏﾁ","pref":"北海道","city":"上川郡比布町","address":"東町"},
{"zip_code":"0780344","kana_pref":"ﾎｯｶｲﾄﾞｳ","kana_city":"ｶﾐｶﾜｸﾞﾝﾋﾟｯﾌﾟﾁｮｳ","kana_address":"ﾐﾄﾞﾘﾏﾁ","pref":"北海道","city":"上川郡比布町","address":"緑町"},
{"zip_code":"0780311","kana_pref":"ﾎｯｶｲﾄﾞｳ","kana_city":"ｶﾐｶﾜｸﾞﾝﾋﾟｯﾌﾟﾁｮｳ","kana_address":"ﾐﾅﾐ1ｾﾝ","pref":"北海道","city":"上川郡比布町","address":"南１線"},
{"zip_code":"0780345","kana_pref":"ﾎｯｶｲﾄﾞｳ","kana_city":"ｶﾐｶﾜｸﾞﾝﾋﾟｯﾌﾟﾁｮｳ","kana_address":"ﾐﾅﾐﾏﾁ","pref":"北海道","city":"上川郡比布町","address":"南町"},
{"zip_code":"0781400","kana_pref":"ﾎｯｶｲﾄﾞｳ","kana_city":"ｶﾐｶﾜｸﾞﾝｱｲﾍﾞﾂﾁｮｳ","kana_address":"","pref":"北海道","city":"上川郡愛別町","address":""},
{"zip_code":"0781653","kana_pref":"ﾎｯｶｲﾄﾞｳ","kana_city":"ｶﾐｶﾜｸﾞﾝｱｲﾍﾞﾂﾁｮｳ","kana_address":"ｱｲｻﾞﾝ","pref":"北海道","city":"上川郡愛別町","address":"愛山"},
{"zip_code":"0781654","kana_pref":"ﾎｯｶｲﾄﾞｳ","kana_city":"ｶﾐｶﾜｸﾞﾝｱｲﾍﾞﾂﾁｮｳ","kana_address":"ｱｲｻﾞﾝﾁｮｳ","pref":"北海道","city":"上川郡愛別町","address":"愛山町"},
{"zip_code":"0781401","kana_pref":"ﾎｯｶｲﾄﾞｳ","kana_city":"ｶﾐｶﾜｸﾞﾝｱｲﾍﾞﾂﾁｮｳ","kana_address":"ｱｲﾍﾞﾂ","pref":"北海道","city":"上川郡愛別町","address":"愛別"},
{"zip_code":"0781411","kana_pref":"ﾎｯｶｲﾄﾞｳ","kana_city":"ｶﾐｶﾜｸﾞﾝｱｲﾍﾞﾂﾁｮｳ","kana_address":"ｶﾅﾄﾐ","pref":"北海道","city":"上川郡愛別町","address":"金富"},
{"zip_code":"0781404","kana_pref":"ﾎｯｶｲﾄﾞｳ","kana_city":"ｶﾐｶﾜｸﾞﾝｱｲﾍﾞﾂﾁｮｳ","kana_address":"ｷﾀﾏﾁ","pref":"北海道","city":"上川郡愛別町","address":"北町"},
{"zip_code":"0781414","kana_pref":"ﾎｯｶｲﾄﾞｳ","kana_city":"ｶﾐｶﾜｸﾞﾝｱｲﾍﾞﾂﾁｮｳ","kana_address":"ｷｮｳﾜ","pref":"北海道","city":"上川郡愛別町","address":"協和"},
{"zip_code":"0781412","kana_pref":"ﾎｯｶｲﾄﾞｳ","kana_city":"ｶﾐｶﾜｸﾞﾝｱｲﾍﾞﾂﾁｮｳ","kana_address":"ｺｳｾｲ","pref":"北海道","city":"上川郡愛別町","address":"厚生"},
{"zip_code":"0781652","kana_pref":"ﾎｯｶｲﾄﾞｳ","kana_city":"ｶﾐｶﾜｸﾞﾝｱｲﾍﾞﾂﾁｮｳ","kana_address":"ﾁｭｳｵｳ","pref":"北海道","city":"上川郡愛別町","address":"中央"},
{"zip_code":"0781415","kana_pref":"ﾎｯｶｲﾄﾞｳ","kana_city":"ｶﾐｶﾜｸﾞﾝｱｲﾍﾞﾂﾁｮｳ","kana_address":"ﾄｸｾｲ","pref":"北海道","city":"上川郡愛別町","address":"徳星"},
{"zip_code":"0781651","kana_pref":"ﾎｯｶｲﾄﾞｳ","kana_city":"ｶﾐｶﾜｸﾞﾝｱｲﾍﾞﾂﾁｮｳ","kana_address":"ﾄﾖｻﾄ","pref":"北海道","city":"上川郡愛別町","address":"豊里"},
{"zip_code":"0781402","kana_pref":"ﾎｯｶｲﾄﾞｳ","kana_city":"ｶﾐｶﾜｸﾞﾝｱｲﾍﾞﾂﾁｮｳ","kana_address":"ﾋｶﾞｼﾏﾁ","pref":"北海道","city":"上川郡愛別町","address":"東町"},
{"zip_code":"0781413","kana_pref":"ﾎｯｶｲﾄﾞｳ","kana_city":"ｶﾐｶﾜｸﾞﾝｱｲﾍﾞﾂﾁｮｳ","kana_address":"ﾌｼｺ","pref":"北海道","city":"上川郡愛別町","address":"伏古"},
{"zip_code":"0781405","kana_pref":"ﾎｯｶｲﾄﾞｳ","kana_city":"ｶﾐｶﾜｸﾞﾝｱｲﾍﾞﾂﾁｮｳ","kana_address":"ﾎﾝﾁｮｳ","pref":"北海道","city":"上川郡愛別町","address":"本町"},
{"zip_code":"0781403","kana_pref":"ﾎｯｶｲﾄﾞｳ","kana_city":"ｶﾐｶﾜｸﾞﾝｱｲﾍﾞﾂﾁｮｳ","kana_address":"ﾐﾅﾐﾏﾁ","pref":"北海道","city":"上川郡愛別町","address":"南町"},
{"zip_code":"0781700","kana_pref":"ﾎｯｶｲﾄﾞｳ","kana_city":"ｶﾐｶﾜｸﾞﾝｶﾐｶﾜﾁｮｳ","kana_address":"","pref":"北海道","city":"上川郡上川町","address":""},
{"zip_code":"0781761","kana_pref":"ﾎｯｶｲﾄﾞｳ","kana_city":"ｶﾐｶﾜｸﾞﾝｶﾐｶﾜﾁｮｳ","kana_address":"ｱｻﾋﾏﾁ","pref":"北海道","city":"上川郡上川町","address":"旭町"},
{"zip_code":"0781752","kana_pref":"ﾎｯｶｲﾄﾞｳ","kana_city":"ｶﾐｶﾜｸﾞﾝｶﾐｶﾜﾁｮｳ","kana_address":"ｶﾜﾊﾞﾀﾁｮｳ","pref":"北海道","city":"上川郡上川町","address":"川端町"},
{"zip_code":"0781721","kana_pref":"ﾎｯｶｲﾄﾞｳ","kana_city":"ｶﾐｶﾜｸﾞﾝｶﾐｶﾜﾁｮｳ","kana_address":"ｷｸｽｲ","pref":"北海道","city":"上川郡上川町","address":"菊水"},
{"zip_code":"0781744","kana_pref":"ﾎｯｶｲﾄﾞｳ","kana_city":"ｶﾐｶﾜｸﾞﾝｶﾐｶﾜﾁｮｳ","kana_address":"ｷﾀﾏﾁ","pref":"北海道","city":"上川郡上川町","address":"北町"},
{"zip_code":"0781732","kana_pref":"ﾎｯｶｲﾄﾞｳ","kana_city":"ｶﾐｶﾜｸﾞﾝｶﾐｶﾜﾁｮｳ","kana_address":"ｷｮｳｼﾝ","pref":"北海道","city":"上川郡上川町","address":"共進"},
{"zip_code":"0781711","kana_pref":"ﾎｯｶｲﾄﾞｳ","kana_city":"ｶﾐｶﾜｸﾞﾝｶﾐｶﾜﾁｮｳ","kana_address":"ｷﾖｶﾜ","pref":"北海道","city":"上川郡上川町","address":"清川"},
{"zip_code":"0781775","kana_pref":"ﾎｯｶｲﾄﾞｳ","kana_city":"ｶﾐｶﾜｸﾞﾝｶﾐｶﾜﾁｮｳ","kana_address":"ｺｼｼﾞ","pref":"北海道","city":"上川郡上川町","address":"越路"},
{"zip_code":"0781733","kana_pref":"ﾎｯｶｲﾄﾞｳ","kana_city":"ｶﾐｶﾜｸﾞﾝｶﾐｶﾜﾁｮｳ","kana_address":"ｻｶｴﾏﾁ","pref":"北海道","city":"上川郡上川町","address":"栄町"},
{"zip_code":"0781712","kana_pref":"ﾎｯｶｲﾄﾞｳ","kana_city":"ｶﾐｶﾜｸﾞﾝｶﾐｶﾜﾁｮｳ","kana_address":"ｼﾗｶﾜ","pref":"北海道","city":"上川郡上川町","address":"白川"},
{"zip_code":"0781722","kana_pref":"ﾎｯｶｲﾄﾞｳ","kana_city":"ｶﾐｶﾜｸﾞﾝｶﾐｶﾜﾁｮｳ","kana_address":"ｼﾝｺｳﾁｮｳ","pref":"北海道","city":"上川郡上川町","address":"新光町"},
{"zip_code":"0781762","kana_pref":"ﾎｯｶｲﾄﾞｳ","kana_city":"ｶﾐｶﾜｸﾞﾝｶﾐｶﾜﾁｮｳ","kana_address":"ｼﾝﾏﾁ","pref":"北海道","city":"上川郡上川町","address":"新町"},
{"zip_code":"0781701","kana_pref":"ﾎｯｶｲﾄﾞｳ","kana_city":"ｶﾐｶﾜｸﾞﾝｶﾐｶﾜﾁｮｳ","kana_address":"ｿｳｳﾝｷｮｳ","pref":"北海道","city":"上川郡上川町","address":"層雲峡"},
{"zip_code":"0781741","kana_pref":"ﾎｯｶｲﾄﾞｳ","kana_city":"ｶﾐｶﾜｸﾞﾝｶﾐｶﾜﾁｮｳ","kana_address":"ﾁｭｳｵｳﾁｮｳ","pref":"北海道","city":"上川郡上川町","address":"中央町"},
{"zip_code":"0781772","kana_pref":"ﾎｯｶｲﾄﾞｳ","kana_city":"ｶﾐｶﾜｸﾞﾝｶﾐｶﾜﾁｮｳ","kana_address":"ﾃﾝﾏｸ","pref":"北海道","city":"上川郡上川町","address":"天幕"},
{"zip_code":"0781731","kana_pref":"ﾎｯｶｲﾄﾞｳ","kana_city":"ｶﾐｶﾜｸﾞﾝｶﾐｶﾜﾁｮｳ","kana_address":"ﾄｳｳﾝ","pref":"北海道","city":"上川郡上川町","address":"東雲"},
{"zip_code":"0781774","kana_pref":"ﾎｯｶｲﾄﾞｳ","kana_city":"ｶﾐｶﾜｸﾞﾝｶﾐｶﾜﾁｮｳ","kana_address":"ﾄﾖﾊﾗ","pref":"北海道","city":"上川郡上川町","address":"豊原"},
{"zip_code":"0781771","kana_pref":"ﾎｯｶｲﾄﾞｳ","kana_city":"ｶﾐｶﾜｸﾞﾝｶﾐｶﾜﾁｮｳ","kana_address":"ﾅｶｺｼ","pref":"北海道","city":"上川郡上川町","address":"中越"},
{"zip_code":"0781742","kana_pref":"ﾎｯｶｲﾄﾞｳ","kana_city":"ｶﾐｶﾜｸﾞﾝｶﾐｶﾜﾁｮｳ","kana_address":"ﾆｼﾏﾁ","pref":"北海道","city":"上川郡上川町","address":"西町"},
{"zip_code":"0781773","kana_pref":"ﾎｯｶｲﾄﾞｳ","kana_city":"ｶﾐｶﾜｸﾞﾝｶﾐｶﾜﾁｮｳ","kana_address":"ﾆｯﾄｳ","pref":"北海道","city":"上川郡上川町","address":"日東"},
{"zip_code":"0781743","kana_pref":"ﾎｯｶｲﾄﾞｳ","kana_city":"ｶﾐｶﾜｸﾞﾝｶﾐｶﾜﾁｮｳ","kana_address":"ﾊﾅｿﾞﾉﾁｮｳ","pref":"北海道","city":"上川郡上川町","address":"花園町"},
{"zip_code":"0781763","kana_pref":"ﾎｯｶｲﾄﾞｳ","kana_city":"ｶﾐｶﾜｸﾞﾝｶﾐｶﾜﾁｮｳ","kana_address":"ﾋｶﾞｼﾏﾁ","pref":"北海道","city":"上川郡上川町","address":"東町"},
{"zip_code":"0781751","kana_pref":"ﾎｯｶｲﾄﾞｳ","kana_city":"ｶﾐｶﾜｸﾞﾝｶﾐｶﾜﾁｮｳ","kana_address":"ﾎﾝﾁｮｳ","pref":"北海道","city":"上川郡上川町","address":"本町"},
{"zip_code":"0781753","kana_pref":"ﾎｯｶｲﾄﾞｳ","kana_city":"ｶﾐｶﾜｸﾞﾝｶﾐｶﾜﾁｮｳ","kana_address":"ﾐﾅﾐﾏﾁ","pref":"北海道","city":"上川郡上川町","address":"南町"},
{"zip_code":"0783300","kana_pref":"ﾎｯｶｲﾄﾞｳ","kana_city":"ﾙﾓｲｸﾞﾝｵﾋﾞﾗﾁｮｳ","kana_address":"","pref":"北海道","city":"留萌郡小平町","address":""},
{"zip_code":"0783302","kana_pref":"ﾎｯｶｲﾄﾞｳ","kana_city":"ﾙﾓｲｸﾞﾝｵﾋﾞﾗﾁｮｳ","kana_address":"ｳｽﾔ","pref":"北海道","city":"留萌郡小平町","address":"臼谷"},
{"zip_code":"0783457","kana_pref":"ﾎｯｶｲﾄﾞｳ","kana_city":"ﾙﾓｲｸﾞﾝｵﾋﾞﾗﾁｮｳ","kana_address":"ｵｵﾄﾄﾞ","pref":"北海道","city":"留萌郡小平町","address":"大椴"},
{"zip_code":"0783309","kana_pref":"ﾎｯｶｲﾄﾞｳ","kana_city":"ﾙﾓｲｸﾞﾝｵﾋﾞﾗﾁｮｳ","kana_address":"ｵｷﾅｲ","pref":"北海道","city":"留萌郡小平町","address":"沖内"},
{"zip_code":"0783452","kana_pref":"ﾎｯｶｲﾄﾞｳ","kana_city":"ﾙﾓｲｸﾞﾝｵﾋﾞﾗﾁｮｳ","kana_address":"ｵﾆｼｶｾﾝﾏﾂ","pref":"北海道","city":"留萌郡小平町","address":"鬼鹿千松"},
{"zip_code":"0783442","kana_pref":"ﾎｯｶｲﾄﾞｳ","kana_city":"ﾙﾓｲｸﾞﾝｵﾋﾞﾗﾁｮｳ","kana_address":"ｵﾆｼｶﾀｼﾛ","pref":"北海道","city":"留萌郡小平町","address":"鬼鹿田代"},
{"zip_code":"0783456","kana_pref":"ﾎｯｶｲﾄﾞｳ","kana_city":"ﾙﾓｲｸﾞﾝｵﾋﾞﾗﾁｮｳ","kana_address":"ｵﾆｼｶﾄﾐｵｶ","pref":"北海道","city":"留萌郡小平町","address":"鬼鹿富岡"},
{"zip_code":"0783451","kana_pref":"ﾎｯｶｲﾄﾞｳ","kana_city":"ﾙﾓｲｸﾞﾝｵﾋﾞﾗﾁｮｳ","kana_address":"ｵﾆｼｶﾄﾖﾊﾏ","pref":"北海道","city":"留萌郡小平町","address":"鬼鹿豊浜"},
{"zip_code":"0783455","kana_pref":"ﾎｯｶｲﾄﾞｳ","kana_city":"ﾙﾓｲｸﾞﾝｵﾋﾞﾗﾁｮｳ","kana_address":"ｵﾆｼｶﾋﾃﾞｳﾗ","pref":"北海道","city":"留萌郡小平町","address":"鬼鹿秀浦"},
{"zip_code":"0783454","kana_pref":"ﾎｯｶｲﾄﾞｳ","kana_city":"ﾙﾓｲｸﾞﾝｵﾋﾞﾗﾁｮｳ","kana_address":"ｵﾆｼｶﾋﾛﾄﾐ","pref":"北海道","city":"留萌郡小平町","address":"鬼鹿広富"},
{"zip_code":"0783441","kana_pref":"ﾎｯｶｲﾄﾞｳ","kana_city":"ﾙﾓｲｸﾞﾝｵﾋﾞﾗﾁｮｳ","kana_address":"ｵﾆｼｶﾐﾅﾄﾏﾁ","pref":"北海道","city":"留萌郡小平町","address":"鬼鹿港町"},
{"zip_code":"0783453","kana_pref":"ﾎｯｶｲﾄﾞｳ","kana_city":"ﾙﾓｲｸﾞﾝｵﾋﾞﾗﾁｮｳ","kana_address":"ｵﾆｼｶﾓﾄﾊﾏ","pref":"北海道","city":"留萌郡小平町","address":"鬼鹿元浜"},
{"zip_code":"0783301","kana_pref":"ﾎｯｶｲﾄﾞｳ","kana_city":"ﾙﾓｲｸﾞﾝｵﾋﾞﾗﾁｮｳ","kana_address":"ｵﾋﾞﾗﾁｮｳ","pref":"北海道","city":"留萌郡小平町","address":"小平町"},
{"zip_code":"0783306","kana_pref":"ﾎｯｶｲﾄﾞｳ","kana_city":"ﾙﾓｲｸﾞﾝｵﾋﾞﾗﾁｮｳ","kana_address":"ｷｸｵｶ","pref":"北海道","city":"留萌郡小平町","address":"菊岡"},
{"zip_code":"0783308","kana_pref":"ﾎｯｶｲﾄﾞｳ","kana_city":"ﾙﾓｲｸﾞﾝｵﾋﾞﾗﾁｮｳ","kana_address":"ｷﾌ","pref":"北海道","city":"留萌郡小平町","address":"岐富"},
{"zip_code":"0783305","kana_pref":"ﾎｯｶｲﾄﾞｳ","kana_city":"ﾙﾓｲｸﾞﾝｵﾋﾞﾗﾁｮｳ","kana_address":"ｿｳｴﾝ","pref":"北海道","city":"留萌郡小平町","address":"桑園"},
{"zip_code":"0783312","kana_pref":"ﾎｯｶｲﾄﾞｳ","kana_city":"ﾙﾓｲｸﾞﾝｵﾋﾞﾗﾁｮｳ","kana_address":"ﾄﾐｻﾄ","pref":"北海道","city":"留萌郡小平町","address":"富里"},
{"zip_code":"0783307","kana_pref":"ﾎｯｶｲﾄﾞｳ","kana_city":"ﾙﾓｲｸﾞﾝｵﾋﾞﾗﾁｮｳ","kana_address":"ﾄﾖｵｶ","pref":"北海道","city":"留萌郡小平町","address":"豊岡"},
{"zip_code":"0783303","kana_pref":"ﾎｯｶｲﾄﾞｳ","kana_city":"ﾙﾓｲｸﾞﾝｵﾋﾞﾗﾁｮｳ","kana_address":"ﾄﾖﾋﾗ","pref":"北海道","city":"留萌郡小平町","address":"豊平"},
{"zip_code":"0783311","kana_pref":"ﾎｯｶｲﾄﾞｳ","kana_city":"ﾙﾓｲｸﾞﾝｵﾋﾞﾗﾁｮｳ","kana_address":"ﾊﾅｵｶ","pref":"北海道","city":"留萌郡小平町","address":"花岡"},
{"zip_code":"0783313","kana_pref":"ﾎｯｶｲﾄﾞｳ","kana_city":"ﾙﾓｲｸﾞﾝｵﾋﾞﾗﾁｮｳ","kana_address":"ﾍｲﾜ","pref":"北海道","city":"留萌郡小平町","address":"平和"},
{"zip_code":"0783304","kana_pref":"ﾎｯｶｲﾄﾞｳ","kana_city":"ﾙﾓｲｸﾞﾝｵﾋﾞﾗﾁｮｳ","kana_address":"ﾎﾝｺﾞｳ","pref":"北海道","city":"留萌郡小平町","address":"本郷"},
{"zip_code":"0783700","kana_pref":"ﾎｯｶｲﾄﾞｳ","kana_city":"ﾄﾏﾏｴｸﾞﾝﾄﾏﾏｴﾁｮｳ","kana_address":"","pref":"北海道","city":"苫前郡苫前町","address":""},
{"zip_code":"0783711","kana_pref":"ﾎｯｶｲﾄﾞｳ","kana_city":"ﾄﾏﾏｴｸﾞﾝﾄﾏﾏｴﾁｮｳ","kana_address":"ｱｻﾋ","pref":"北海道","city":"苫前郡苫前町","address":"旭"},
{"zip_code":"0783634","kana_pref":"ﾎｯｶｲﾄﾞｳ","kana_city":"ﾄﾏﾏｴｸﾞﾝﾄﾏﾏｴﾁｮｳ","kana_address":"ｲﾜﾐ","pref":"北海道","city":"苫前郡苫前町","address":"岩見"},
{"zip_code":"0783712","kana_pref":"ﾎｯｶｲﾄﾞｳ","kana_city":"ﾄﾏﾏｴｸﾞﾝﾄﾏﾏｴﾁｮｳ","kana_address":"ｳｴﾋﾗ","pref":"北海道","city":"苫前郡苫前町","address":"上平"},
{"zip_code":"0783713","kana_pref":"ﾎｯｶｲﾄﾞｳ","kana_city":"ﾄﾏﾏｴｸﾞﾝﾄﾏﾏｴﾁｮｳ","kana_address":"ｵｺﾂ","pref":"北海道","city":"苫前郡苫前町","address":"興津"},
{"zip_code":"0783631","kana_pref":"ﾎｯｶｲﾄﾞｳ","kana_city":"ﾄﾏﾏｴｸﾞﾝﾄﾏﾏｴﾁｮｳ","kana_address":"ｶｶﾞﾜ","pref":"北海道","city":"苫前郡苫前町","address":"香川"},
{"zip_code":"0783714","kana_pref":"ﾎｯｶｲﾄﾞｳ","kana_city":"ﾄﾏﾏｴｸﾞﾝﾄﾏﾏｴﾁｮｳ","kana_address":"ｶｶﾞﾜ","pref":"北海道","city":"苫前郡苫前町","address":"香川"},
{"zip_code":"0783636","kana_pref":"ﾎｯｶｲﾄﾞｳ","kana_city":"ﾄﾏﾏｴｸﾞﾝﾄﾏﾏｴﾁｮｳ","kana_address":"ｷﾘﾀﾁ","pref":"北海道","city":"苫前郡苫前町","address":"霧立"},
{"zip_code":"0783633","kana_pref":"ﾎｯｶｲﾄﾞｳ","kana_city":"ﾄﾏﾏｴｸﾞﾝﾄﾏﾏｴﾁｮｳ","kana_address":"ｺｶﾞﾜ","pref":"北海道","city":"苫前郡苫前町","address":"小川"},
{"zip_code":"0783637","kana_pref":"ﾎｯｶｲﾄﾞｳ","kana_city":"ﾄﾏﾏｴｸﾞﾝﾄﾏﾏｴﾁｮｳ","kana_address":"ｺｺﾉｴ","pref":"北海道","city":"苫前郡苫前町","address":"九重"},
{"zip_code":"0783621","kana_pref":"ﾎｯｶｲﾄﾞｳ","kana_city":"ﾄﾏﾏｴｸﾞﾝﾄﾏﾏｴﾁｮｳ","kana_address":"ｺﾀﾝﾍﾞﾂ","pref":"北海道","city":"苫前郡苫前町","address":"古丹別"},
{"zip_code":"0783702","kana_pref":"ﾎｯｶｲﾄﾞｳ","kana_city":"ﾄﾏﾏｴｸﾞﾝﾄﾏﾏｴﾁｮｳ","kana_address":"ｻｶｴﾊﾏ","pref":"北海道","city":"苫前郡苫前町","address":"栄浜"},
{"zip_code":"0783638","kana_pref":"ﾎｯｶｲﾄﾞｳ","kana_city":"ﾄﾏﾏｴｸﾞﾝﾄﾏﾏｴﾁｮｳ","kana_address":"ｻﾝｹｲ","pref":"北海道","city":"苫前郡苫前町","address":"三渓"},
{"zip_code":"0783715","kana_pref":"ﾎｯｶｲﾄﾞｳ","kana_city":"ﾄﾏﾏｴｸﾞﾝﾄﾏﾏｴﾁｮｳ","kana_address":"ｼｮｳﾜ","pref":"北海道","city":"苫前郡苫前町","address":"昭和"},
{"zip_code":"0783701","kana_pref":"ﾎｯｶｲﾄﾞｳ","kana_city":"ﾄﾏﾏｴｸﾞﾝﾄﾏﾏｴﾁｮｳ","kana_address":"ﾄﾏﾏｴ","pref":"北海道","city":"苫前郡苫前町","address":"苫前"},
{"zip_code":"0783716","kana_pref":"ﾎｯｶｲﾄﾞｳ","kana_city":"ﾄﾏﾏｴｸﾞﾝﾄﾏﾏｴﾁｮｳ","kana_address":"ﾄﾖｳﾗ","pref":"北海道","city":"苫前郡苫前町","address":"豊浦"},
{"zip_code":"0783632","kana_pref":"ﾎｯｶｲﾄﾞｳ","kana_city":"ﾄﾏﾏｴｸﾞﾝﾄﾏﾏｴﾁｮｳ","kana_address":"ﾅｶﾞｼﾏ","pref":"北海道","city":"苫前郡苫前町","address":"長島"},
{"zip_code":"0783635","kana_pref":"ﾎｯｶｲﾄﾞｳ","kana_city":"ﾄﾏﾏｴｸﾞﾝﾄﾏﾏｴﾁｮｳ","kana_address":"ﾋｶﾞｼｶﾜ","pref":"北海道","city":"苫前郡苫前町","address":"東川"},
{"zip_code":"0783717","kana_pref":"ﾎｯｶｲﾄﾞｳ","kana_city":"ﾄﾏﾏｴｸﾞﾝﾄﾏﾏｴﾁｮｳ","kana_address":"ﾐﾄﾖ","pref":"北海道","city":"苫前郡苫前町","address":"三豊"},
{"zip_code":"0783541","kana_pref":"ﾎｯｶｲﾄﾞｳ","kana_city":"ﾄﾏﾏｴｸﾞﾝﾄﾏﾏｴﾁｮｳ","kana_address":"ﾘｷﾋﾞﾙ","pref":"北海道","city":"苫前郡苫前町","address":"力昼"},
{"zip_code":"0784100","kana_pref":"ﾎｯｶｲﾄﾞｳ","kana_city":"ﾄﾏﾏｴｸﾞﾝﾊﾎﾞﾛﾁｮｳ","kana_address":"","pref":"北海道","city":"苫前郡羽幌町","address":""},
{"zip_code":"0784144","kana_pref":"ﾎｯｶｲﾄﾞｳ","kana_city":"ﾄﾏﾏｴｸﾞﾝﾊﾎﾞﾛﾁｮｳ","kana_address":"ｱｹﾎﾞﾉ","pref":"北海道","city":"苫前郡羽幌町","address":"曙"},
{"zip_code":"0784117","kana_pref":"ﾎｯｶｲﾄﾞｳ","kana_city":"ﾄﾏﾏｴｸﾞﾝﾊﾎﾞﾛﾁｮｳ","kana_address":"ｱｻﾋ","pref":"北海道","city":"苫前郡羽幌町","address":"朝日"},
{"zip_code":"0784142","kana_pref":"ﾎｯｶｲﾄﾞｳ","kana_city":"ﾄﾏﾏｴｸﾞﾝﾊﾎﾞﾛﾁｮｳ","kana_address":"ｶﾐﾁｸ","pref":"北海道","city":"苫前郡羽幌町","address":"上築"},
{"zip_code":"0784134","kana_pref":"ﾎｯｶｲﾄﾞｳ","kana_city":"ﾄﾏﾏｴｸﾞﾝﾊﾎﾞﾛﾁｮｳ","kana_address":"ｶﾐﾊﾎﾞﾛ","pref":"北海道","city":"苫前郡羽幌町","address":"上羽幌"},
{"zip_code":"0784110","kana_pref":"ﾎｯｶｲﾄﾞｳ","kana_city":"ﾄﾏﾏｴｸﾞﾝﾊﾎﾞﾛﾁｮｳ","kana_address":"ｷﾀｵｵﾄﾞｵﾘ","pref":"北海道","city":"苫前郡羽幌町","address":"北大通"},
{"zip_code":"0784119","kana_pref":"ﾎｯｶｲﾄﾞｳ","kana_city":"ﾄﾏﾏｴｸﾞﾝﾊﾎﾞﾛﾁｮｳ","kana_address":"ｷﾀﾏﾁ","pref":"北海道","city":"苫前郡羽幌町","address":"北町"},
{"zip_code":"0784111","kana_pref":"ﾎｯｶｲﾄﾞｳ","kana_city":"ﾄﾏﾏｴｸﾞﾝﾊﾎﾞﾛﾁｮｳ","kana_address":"ｷﾀ1ｼﾞｮｳ","pref":"北海道","city":"苫前郡羽幌町","address":"北一条"},
{"zip_code":"0784112","kana_pref":"ﾎｯｶｲﾄﾞｳ","kana_city":"ﾄﾏﾏｴｸﾞﾝﾊﾎﾞﾛﾁｮｳ","kana_address":"ｷﾀ2ｼﾞｮｳ","pref":"北海道","city":"苫前郡羽幌町","address":"北二条"},
{"zip_code":"0784113","kana_pref":"ﾎｯｶｲﾄﾞｳ","kana_city":"ﾄﾏﾏｴｸﾞﾝﾊﾎﾞﾛﾁｮｳ","kana_address":"ｷﾀ3ｼﾞｮｳ","pref":"北海道","city":"苫前郡羽幌町","address":"北三条"},
{"zip_code":"0784114","kana_pref":"ﾎｯｶｲﾄﾞｳ","kana_city":"ﾄﾏﾏｴｸﾞﾝﾊﾎﾞﾛﾁｮｳ","kana_address":"ｷﾀ4ｼﾞｮｳ","pref":"北海道","city":"苫前郡羽幌町","address":"北四条"},
{"zip_code":"0784115","kana_pref":"ﾎｯｶｲﾄﾞｳ","kana_city":"ﾄﾏﾏｴｸﾞﾝﾊﾎﾞﾛﾁｮｳ","kana_address":"ｷﾀ5ｼﾞｮｳ","pref":"北海道","city":"苫前郡羽幌町","address":"北五条"},
{"zip_code":"0784116","kana_pref":"ﾎｯｶｲﾄﾞｳ","kana_city":"ﾄﾏﾏｴｸﾞﾝﾊﾎﾞﾛﾁｮｳ","kana_address":"ｷﾀ6ｼﾞｮｳ","pref":"北海道","city":"苫前郡羽幌町","address":"北六条"},
{"zip_code":"0784131","kana_pref":"ﾎｯｶｲﾄﾞｳ","kana_city":"ﾄﾏﾏｴｸﾞﾝﾊﾎﾞﾛﾁｮｳ","kana_address":"ｺﾄﾌﾞｷﾁｮｳ","pref":"北海道","city":"苫前郡羽幌町","address":"寿町"},
{"zip_code":"0784121","kana_pref":"ﾎｯｶｲﾄﾞｳ","kana_city":"ﾄﾏﾏｴｸﾞﾝﾊﾎﾞﾛﾁｮｳ","kana_address":"ｻｲﾜｲﾁｮｳ","pref":"北海道","city":"苫前郡羽幌町","address":"幸町"},
{"zip_code":"0784123","kana_pref":"ﾎｯｶｲﾄﾞｳ","kana_city":"ﾄﾏﾏｴｸﾞﾝﾊﾎﾞﾛﾁｮｳ","kana_address":"ｻｶｴﾏﾁ","pref":"北海道","city":"苫前郡羽幌町","address":"栄町"},
{"zip_code":"0784140","kana_pref":"ﾎｯｶｲﾄﾞｳ","kana_city":"ﾄﾏﾏｴｸﾞﾝﾊﾎﾞﾛﾁｮｳ","kana_address":"ｼｵﾐ","pref":"北海道","city":"苫前郡羽幌町","address":"汐見"},
{"zip_code":"0784133","kana_pref":"ﾎｯｶｲﾄﾞｳ","kana_city":"ﾄﾏﾏｴｸﾞﾝﾊﾎﾞﾛﾁｮｳ","kana_address":"ﾀｲﾗ","pref":"北海道","city":"苫前郡羽幌町","address":"平"},
{"zip_code":"0784143","kana_pref":"ﾎｯｶｲﾄﾞｳ","kana_city":"ﾄﾏﾏｴｸﾞﾝﾊﾎﾞﾛﾁｮｳ","kana_address":"ﾀｶﾀﾞｲ","pref":"北海道","city":"苫前郡羽幌町","address":"高台"},
{"zip_code":"0784141","kana_pref":"ﾎｯｶｲﾄﾞｳ","kana_city":"ﾄﾏﾏｴｸﾞﾝﾊﾎﾞﾛﾁｮｳ","kana_address":"ﾁｸﾍﾞﾂ","pref":"北海道","city":"苫前郡羽幌町","address":"築別"},
{"zip_code":"0784145","kana_pref":"ﾎｯｶｲﾄﾞｳ","kana_city":"ﾄﾏﾏｴｸﾞﾝﾊﾎﾞﾛﾁｮｳ","kana_address":"ﾁｸﾍﾞﾂﾀﾝｺｳ","pref":"北海道","city":"苫前郡羽幌町","address":"築別炭砿"},
{"zip_code":"0784132","kana_pref":"ﾎｯｶｲﾄﾞｳ","kana_city":"ﾄﾏﾏｴｸﾞﾝﾊﾎﾞﾛﾁｮｳ","kana_address":"ﾁｭｳｵｳ","pref":"北海道","city":"苫前郡羽幌町","address":"中央"},
{"zip_code":"0783951","kana_pref":"ﾎｯｶｲﾄﾞｳ","kana_city":"ﾄﾏﾏｴｸﾞﾝﾊﾎﾞﾛﾁｮｳ","kana_address":"ﾃｳﾘ","pref":"北海道","city":"苫前郡羽幌町","address":"天売"},
{"zip_code":"0783953","kana_pref":"ﾎｯｶｲﾄﾞｳ","kana_city":"ﾄﾏﾏｴｸﾞﾝﾊﾎﾞﾛﾁｮｳ","kana_address":"ﾃｳﾘ","pref":"北海道","city":"苫前郡羽幌町","address":"天売"},
{"zip_code":"0783952","kana_pref":"ﾎｯｶｲﾄﾞｳ","kana_city":"ﾄﾏﾏｴｸﾞﾝﾊﾎﾞﾛﾁｮｳ","kana_address":"ﾃｳﾘ","pref":"北海道","city":"苫前郡羽幌町","address":"天売"},
{"zip_code":"0783955","kana_pref":"ﾎｯｶｲﾄﾞｳ","kana_city":"ﾄﾏﾏｴｸﾞﾝﾊﾎﾞﾛﾁｮｳ","kana_address":"ﾃｳﾘ","pref":"北海道","city":"苫前郡羽幌町","address":"天売"},
{"zip_code":"0783954","kana_pref":"ﾎｯｶｲﾄﾞｳ","kana_city":"ﾄﾏﾏｴｸﾞﾝﾊﾎﾞﾛﾁｮｳ","kana_address":"ﾃｳﾘ","pref":"北海道","city":"苫前郡羽幌町","address":"天売"},
{"zip_code":"0784118","kana_pref":"ﾎｯｶｲﾄﾞｳ","kana_city":"ﾄﾏﾏｴｸﾞﾝﾊﾎﾞﾛﾁｮｳ","kana_address":"ﾊﾏﾏﾁ","pref":"北海道","city":"苫前郡羽幌町","address":"浜町"},
{"zip_code":"0784130","kana_pref":"ﾎｯｶｲﾄﾞｳ","kana_city":"ﾄﾏﾏｴｸﾞﾝﾊﾎﾞﾛﾁｮｳ","kana_address":"ﾐﾄﾞﾘﾏﾁ","pref":"北海道","city":"苫前郡羽幌町","address":"緑町"},
{"zip_code":"0784120","kana_pref":"ﾎｯｶｲﾄﾞｳ","kana_city":"ﾄﾏﾏｴｸﾞﾝﾊﾎﾞﾛﾁｮｳ","kana_address":"ﾐﾅﾄﾏﾁ","pref":"北海道","city":"苫前郡羽幌町","address":"港町"},
{"zip_code":"0784108","kana_pref":"ﾎｯｶｲﾄﾞｳ","kana_city":"ﾄﾏﾏｴｸﾞﾝﾊﾎﾞﾛﾁｮｳ","kana_address":"ﾐﾅﾐｵｵﾄﾞｵﾘ","pref":"北海道","city":"苫前郡羽幌町","address":"南大通"},
{"zip_code":"0784122","kana_pref":"ﾎｯｶｲﾄﾞｳ","kana_city":"ﾄﾏﾏｴｸﾞﾝﾊﾎﾞﾛﾁｮｳ","kana_address":"ﾐﾅﾐﾏﾁ","pref":"北海道","city":"苫前郡羽幌町","address":"南町"},
{"zip_code":"0784101","kana_pref":"ﾎｯｶｲﾄﾞｳ","kana_city":"ﾄﾏﾏｴｸﾞﾝﾊﾎﾞﾛﾁｮｳ","kana_address":"ﾐﾅﾐ1ｼﾞｮｳ","pref":"北海道","city":"苫前郡羽幌町","address":"南一条"},
{"zip_code":"0784102","kana_pref":"ﾎｯｶｲﾄﾞｳ","kana_city":"ﾄﾏﾏｴｸﾞﾝﾊﾎﾞﾛﾁｮｳ","kana_address":"ﾐﾅﾐ2ｼﾞｮｳ","pref":"北海道","city":"苫前郡羽幌町","address":"南二条"},
{"zip_code":"0784103","kana_pref":"ﾎｯｶｲﾄﾞｳ","kana_city":"ﾄﾏﾏｴｸﾞﾝﾊﾎﾞﾛﾁｮｳ","kana_address":"ﾐﾅﾐ3ｼﾞｮｳ","pref":"北海道","city":"苫前郡羽幌町","address":"南三条"},
{"zip_code":"0784104","kana_pref":"ﾎｯｶｲﾄﾞｳ","kana_city":"ﾄﾏﾏｴｸﾞﾝﾊﾎﾞﾛﾁｮｳ","kana_address":"ﾐﾅﾐ4ｼﾞｮｳ","pref":"北海道","city":"苫前郡羽幌町","address":"南四条"},
{"zip_code":"0784105","kana_pref":"ﾎｯｶｲﾄﾞｳ","kana_city":"ﾄﾏﾏｴｸﾞﾝﾊﾎﾞﾛﾁｮｳ","kana_address":"ﾐﾅﾐ5ｼﾞｮｳ","pref":"北海道","city":"苫前郡羽幌町","address":"南五条"},
{"zip_code":"0784106","kana_pref":"ﾎｯｶｲﾄﾞｳ","kana_city":"ﾄﾏﾏｴｸﾞﾝﾊﾎﾞﾛﾁｮｳ","kana_address":"ﾐﾅﾐ6ｼﾞｮｳ","pref":"北海道","city":"苫前郡羽幌町","address":"南六条"},
{"zip_code":"0784107","kana_pref":"ﾎｯｶｲﾄﾞｳ","kana_city":"ﾄﾏﾏｴｸﾞﾝﾊﾎﾞﾛﾁｮｳ","kana_address":"ﾐﾅﾐ7ｼﾞｮｳ","pref":"北海道","city":"苫前郡羽幌町","address":"南七条"},
{"zip_code":"0783871","kana_pref":"ﾎｯｶｲﾄﾞｳ","kana_city":"ﾄﾏﾏｴｸﾞﾝﾊﾎﾞﾛﾁｮｳ","kana_address":"ﾔｷﾞｼﾘ","pref":"北海道","city":"苫前郡羽幌町","address":"焼尻"},
{"zip_code":"0784400","kana_pref":"ﾎｯｶｲﾄﾞｳ","kana_city":"ﾄﾏﾏｴｸﾞﾝｼｮｻﾝﾍﾞﾂﾑﾗ","kana_address":"","pref":"北海道","city":"苫前郡初山別村","address":""},
{"zip_code":"0784432","kana_pref":"ﾎｯｶｲﾄﾞｳ","kana_city":"ﾄﾏﾏｴｸﾞﾝｼｮｻﾝﾍﾞﾂﾑﾗ","kana_address":"ｱｹｻﾄ","pref":"北海道","city":"苫前郡初山別村","address":"明里"},
{"zip_code":"0784411","kana_pref":"ﾎｯｶｲﾄﾞｳ","kana_city":"ﾄﾏﾏｴｸﾞﾝｼｮｻﾝﾍﾞﾂﾑﾗ","kana_address":"ｱﾘｱｹ","pref":"北海道","city":"苫前郡初山別村","address":"有明"},
{"zip_code":"0784433","kana_pref":"ﾎｯｶｲﾄﾞｳ","kana_city":"ﾄﾏﾏｴｸﾞﾝｼｮｻﾝﾍﾞﾂﾑﾗ","kana_address":"ｷｮｳｾｲ","pref":"北海道","city":"苫前郡初山別村","address":"共成"},
{"zip_code":"0784412","kana_pref":"ﾎｯｶｲﾄﾞｳ","kana_city":"ﾄﾏﾏｴｸﾞﾝｼｮｻﾝﾍﾞﾂﾑﾗ","kana_address":"ｻｶｴ","pref":"北海道","city":"苫前郡初山別村","address":"栄"},
{"zip_code":"0784421","kana_pref":"ﾎｯｶｲﾄﾞｳ","kana_city":"ﾄﾏﾏｴｸﾞﾝｼｮｻﾝﾍﾞﾂﾑﾗ","kana_address":"ｼｮｻﾝﾍﾞﾂ","pref":"北海道","city":"苫前郡初山別村","address":"初山別"},
{"zip_code":"0784422","kana_pref":"ﾎｯｶｲﾄﾞｳ","kana_city":"ﾄﾏﾏｴｸﾞﾝｼｮｻﾝﾍﾞﾂﾑﾗ","kana_address":"ﾁﾖﾀﾞ","pref":"北海道","city":"苫前郡初山別村","address":"千代田"},
{"zip_code":"0784431","kana_pref":"ﾎｯｶｲﾄﾞｳ","kana_city":"ﾄﾏﾏｴｸﾞﾝｼｮｻﾝﾍﾞﾂﾑﾗ","kana_address":"ﾄﾖｻｷ","pref":"北海道","city":"苫前郡初山別村","address":"豊岬"}]}