{"zip_code":[
{"zip_code":"0800000","kana_pref":"ﾎｯｶｲﾄﾞｳ","kana_city":"ｵﾋﾞﾋﾛｼ","kana_address":"","pref":"北海道","city":"帯広市","address":""},
{"zip_code":"0800835","kana_pref":"ﾎｯｶｲﾄﾞｳ","kana_city":"ｵﾋﾞﾋﾛｼ","kana_address":"ｲﾅﾀﾞﾁｮｳ","pref":"北海道","city":"帯広市","address":"稲田町"},
{"zip_code":"0800833","kana_pref":"ﾎｯｶｲﾄﾞｳ","kana_city":"ｵﾋﾞﾋﾛｼ","kana_address":"ｲﾅﾀﾞﾁｮｳｷｾﾝ","pref":"北海道","city":"帯広市","address":"稲田町基線"},
{"zip_code":"0800832","kana_pref":"ﾎｯｶｲﾄﾞｳ","kana_city":"ｵﾋﾞﾋﾛｼ","kana_address":"ｲﾅﾀﾞﾁｮｳﾋｶﾞｼ","pref":"北海道","city":"帯広市","address":"稲田町東"},
{"zip_code":"0800834","kana_pref":"ﾎｯｶｲﾄﾞｳ","kana_city":"ｵﾋﾞﾋﾛｼ","kana_address":"ｲﾅﾀﾞﾁｮｳﾆｼ","pref":"北海道","city":"帯広市","address":"稲田町西"},
{"zip_code":"0800831","kana_pref":"ﾎｯｶｲﾄﾞｳ","kana_city":"ｵﾋﾞﾋﾛｼ","kana_address":"ｲﾅﾀﾞﾁｮｳﾐﾅﾐ","pref":"北海道","city":"帯広市","address":"稲田町南"},
{"zip_code":"0802121","kana_pref":"ﾎｯｶｲﾄﾞｳ","kana_city":"ｵﾋﾞﾋﾛｼ","kana_address":"ｲﾜﾅｲﾁｮｳ","pref":"北海道","city":"帯広市","address":"岩内町"},
{"zip_code":"0802122","kana_pref":"ﾎｯｶｲﾄﾞｳ","kana_city":"ｵﾋﾞﾋﾛｼ","kana_address":"ｲﾜﾅｲﾁｮｳﾀﾞｲ1ｷｾﾝ","pref":"北海道","city":"帯広市","address":"岩内町第１基線"},
{"zip_code":"0802124","kana_pref":"ﾎｯｶｲﾄﾞｳ","kana_city":"ｵﾋﾞﾋﾛｼ","kana_address":"ｲﾜﾅｲﾁｮｳﾋｶﾞｼ","pref":"北海道","city":"帯広市","address":"岩内町東"},
{"zip_code":"0802123","kana_pref":"ﾎｯｶｲﾄﾞｳ","kana_city":"ｵﾋﾞﾋﾛｼ","kana_address":"ｲﾜﾅｲﾁｮｳﾆｼ","pref":"北海道","city":"帯広市","address":"岩内町西"},
{"zip_code":"0800816","kana_pref":"ﾎｯｶｲﾄﾞｳ","kana_city":"ｵﾋﾞﾋﾛｼ","kana_address":"ｵｵｶﾜﾁｮｳ","pref":"北海道","city":"帯広市","address":"大川町"},
{"zip_code":"0800838","kana_pref":"ﾎｯｶｲﾄﾞｳ","kana_city":"ｵﾋﾞﾋﾛｼ","kana_address":"ｵｵｿﾞﾗﾁｮｳ","pref":"北海道","city":"帯広市","address":"大空町"},
{"zip_code":"0800010","kana_pref":"ﾎｯｶｲﾄﾞｳ","kana_city":"ｵﾋﾞﾋﾛｼ","kana_address":"ｵｵﾄﾞｵﾘﾐﾅﾐ","pref":"北海道","city":"帯広市","address":"大通南"},
{"zip_code":"0800030","kana_pref":"ﾎｯｶｲﾄﾞｳ","kana_city":"ｵﾋﾞﾋﾛｼ","kana_address":"ｵｵﾄﾞｵﾘｷﾀ","pref":"北海道","city":"帯広市","address":"大通北"},
{"zip_code":"0802334","kana_pref":"ﾎｯｶｲﾄﾞｳ","kana_city":"ｵﾋﾞﾋﾛｼ","kana_address":"ｶﾐｵﾋﾞﾋﾛﾁｮｳ","pref":"北海道","city":"帯広市","address":"上帯広町"},
{"zip_code":"0802111","kana_pref":"ﾎｯｶｲﾄﾞｳ","kana_city":"ｵﾋﾞﾋﾛｼ","kana_address":"ｶﾐｷﾖｶﾜﾁｮｳ","pref":"北海道","city":"帯広市","address":"上清川町"},
{"zip_code":"0802112","kana_pref":"ﾎｯｶｲﾄﾞｳ","kana_city":"ｵﾋﾞﾋﾛｼ","kana_address":"ｶﾐｷﾖｶﾜﾁｮｳｷｾﾝ","pref":"北海道","city":"帯広市","address":"上清川町基線"},
{"zip_code":"0802114","kana_pref":"ﾎｯｶｲﾄﾞｳ","kana_city":"ｵﾋﾞﾋﾛｼ","kana_address":"ｶﾐｷﾖｶﾜﾁｮｳﾋｶﾞｼ","pref":"北海道","city":"帯広市","address":"上清川町東"},
{"zip_code":"0802113","kana_pref":"ﾎｯｶｲﾄﾞｳ","kana_city":"ｵﾋﾞﾋﾛｼ","kana_address":"ｶﾐｷﾖｶﾜﾁｮｳﾆｼ","pref":"北海道","city":"帯広市","address":"上清川町西"},
{"zip_code":"0802101","kana_pref":"ﾎｯｶｲﾄﾞｳ","kana_city":"ｵﾋﾞﾋﾛｼ","kana_address":"ｷﾖｶﾜﾁｮｳ","pref":"北海道","city":"帯広市","address":"清川町"},
{"zip_code":"0802102","kana_pref":"ﾎｯｶｲﾄﾞｳ","kana_city":"ｵﾋﾞﾋﾛｼ","kana_address":"ｷﾖｶﾜﾁｮｳｷｾﾝ","pref":"北海道","city":"帯広市","address":"清川町基線"},
{"zip_code":"0802115","kana_pref":"ﾎｯｶｲﾄﾞｳ","kana_city":"ｵﾋﾞﾋﾛｼ","kana_address":"ｷﾖｶﾜﾁｮｳﾅｶﾄﾞｵﾘ","pref":"北海道","city":"帯広市","address":"清川町仲通"},
{"zip_code":"0802116","kana_pref":"ﾎｯｶｲﾄﾞｳ","kana_city":"ｵﾋﾞﾋﾛｼ","kana_address":"ｷﾖｶﾜﾁｮｳﾎﾝﾄﾞｵﾘ","pref":"北海道","city":"帯広市","address":"清川町本通"},
{"zip_code":"0802104","kana_pref":"ﾎｯｶｲﾄﾞｳ","kana_city":"ｵﾋﾞﾋﾛｼ","kana_address":"ｷﾖｶﾜﾁｮｳﾋｶﾞｼ","pref":"北海道","city":"帯広市","address":"清川町東"},
{"zip_code":"0802103","kana_pref":"ﾎｯｶｲﾄﾞｳ","kana_city":"ｵﾋﾞﾋﾛｼ","kana_address":"ｷﾖｶﾜﾁｮｳﾆｼ","pref":"北海道","city":"帯広市","address":"清川町西"},
{"zip_code":"0800836","kana_pref":"ﾎｯｶｲﾄﾞｳ","kana_city":"ｵﾋﾞﾋﾛｼ","kana_address":"ｸｳｺｳﾐﾅﾐﾏﾁ","pref":"北海道","city":"帯広市","address":"空港南町"},
{"zip_code":"0800837","kana_pref":"ﾎｯｶｲﾄﾞｳ","kana_city":"ｵﾋﾞﾋﾛｼ","kana_address":"ｸｳｺｳﾐﾅﾐﾏﾁﾐﾅﾐ","pref":"北海道","city":"帯広市","address":"空港南町南"},
{"zip_code":"0800847","kana_pref":"ﾎｯｶｲﾄﾞｳ","kana_city":"ｵﾋﾞﾋﾛｼ","kana_address":"ｺｳｴﾝﾋｶﾞｼﾏﾁ","pref":"北海道","city":"帯広市","address":"公園東町"},
{"zip_code":"0800848","kana_pref":"ﾎｯｶｲﾄﾞｳ","kana_city":"ｵﾋﾞﾋﾛｼ","kana_address":"ｼﾞﾕｳｶﾞｵｶ","pref":"北海道","city":"帯広市","address":"自由が丘"},
{"zip_code":"0802476","kana_pref":"ﾎｯｶｲﾄﾞｳ","kana_city":"ｵﾋﾞﾋﾛｼ","kana_address":"ｼﾞﾕｳｶﾞｵｶ","pref":"北海道","city":"帯広市","address":"自由が丘"},
{"zip_code":"0800050","kana_pref":"ﾎｯｶｲﾄﾞｳ","kana_city":"ｵﾋﾞﾋﾛｼ","kana_address":"ｼﾗｶﾊﾞ16ｼﾞｮｳﾋｶﾞｼ","pref":"北海道","city":"帯広市","address":"白樺十六条東"},
{"zip_code":"0800051","kana_pref":"ﾎｯｶｲﾄﾞｳ","kana_city":"ｵﾋﾞﾋﾛｼ","kana_address":"ｼﾗｶﾊﾞ16ｼﾞｮｳﾆｼ","pref":"北海道","city":"帯広市","address":"白樺十六条西"},
{"zip_code":"0800052","kana_pref":"ﾎｯｶｲﾄﾞｳ","kana_city":"ｵﾋﾞﾋﾛｼ","kana_address":"ｼﾝﾏﾁﾋｶﾞｼ","pref":"北海道","city":"帯広市","address":"新町東"},
{"zip_code":"0800053","kana_pref":"ﾎｯｶｲﾄﾞｳ","kana_city":"ｵﾋﾞﾋﾛｼ","kana_address":"ｼﾝﾏﾁﾆｼ","pref":"北海道","city":"帯広市","address":"新町西"},
{"zip_code":"0802105","kana_pref":"ﾎｯｶｲﾄﾞｳ","kana_city":"ｵﾋﾞﾋﾛｼ","kana_address":"ﾀｲﾍｲﾁｮｳ","pref":"北海道","city":"帯広市","address":"太平町"},
{"zip_code":"0802117","kana_pref":"ﾎｯｶｲﾄﾞｳ","kana_city":"ｵﾋﾞﾋﾛｼ","kana_address":"ﾀｲﾍｲﾁｮｳﾆｼ","pref":"北海道","city":"帯広市","address":"太平町西"},
{"zip_code":"0802337","kana_pref":"ﾎｯｶｲﾄﾞｳ","kana_city":"ｵﾋﾞﾋﾛｼ","kana_address":"ﾀｸｾｲﾁｮｳ","pref":"北海道","city":"帯広市","address":"拓成町"},
{"zip_code":"0800011","kana_pref":"ﾎｯｶｲﾄﾞｳ","kana_city":"ｵﾋﾞﾋﾛｼ","kana_address":"ﾆｼ1ｼﾞｮｳﾐﾅﾐ","pref":"北海道","city":"帯広市","address":"西一条南"},
{"zip_code":"0800031","kana_pref":"ﾎｯｶｲﾄﾞｳ","kana_city":"ｵﾋﾞﾋﾛｼ","kana_address":"ﾆｼ1ｼﾞｮｳｷﾀ","pref":"北海道","city":"帯広市","address":"西一条北"},
{"zip_code":"0800012","kana_pref":"ﾎｯｶｲﾄﾞｳ","kana_city":"ｵﾋﾞﾋﾛｼ","kana_address":"ﾆｼ2ｼﾞｮｳﾐﾅﾐ","pref":"北海道","city":"帯広市","address":"西二条南"},
{"zip_code":"0800032","kana_pref":"ﾎｯｶｲﾄﾞｳ","kana_city":"ｵﾋﾞﾋﾛｼ","kana_address":"ﾆｼ2ｼﾞｮｳｷﾀ","pref":"北海道","city":"帯広市","address":"西二条北"},
{"zip_code":"0800013","kana_pref":"ﾎｯｶｲﾄﾞｳ","kana_city":"ｵﾋﾞﾋﾛｼ","kana_address":"ﾆｼ3ｼﾞｮｳﾐﾅﾐ","pref":"北海道","city":"帯広市","address":"西三条南"},
{"zip_code":"0800033","kana_pref":"ﾎｯｶｲﾄﾞｳ","kana_city":"ｵﾋﾞﾋﾛｼ","kana_address":"ﾆｼ3ｼﾞｮｳｷﾀ","pref":"北海道","city":"帯広市","address":"西三条北"},
{"zip_code":"0800014","kana_pref":"ﾎｯｶｲﾄﾞｳ","kana_city":"ｵﾋﾞﾋﾛｼ","kana_address":"ﾆｼ4ｼﾞｮｳﾐﾅﾐ","pref":"北海道","city":"帯広市","address":"西四条南"},
{"zip_code":"0800034","kana_pref":"ﾎｯｶｲﾄﾞｳ","kana_city":"ｵﾋﾞﾋﾛｼ","kana_address":"ﾆｼ4ｼﾞｮｳｷﾀ","pref":"北海道","city":"帯広市","address":"西四条北"},
{"zip_code":"0800015","kana_pref":"ﾎｯｶｲﾄﾞｳ","kana_city":"ｵﾋﾞﾋﾛｼ","kana_address":"ﾆｼ5ｼﾞｮｳﾐﾅﾐ","pref":"北海道","city":"帯広市","address":"西五条南"},
{"zip_code":"0800035","kana_pref":"ﾎｯｶｲﾄﾞｳ","kana_city":"ｵﾋﾞﾋﾛｼ","kana_address":"ﾆｼ5ｼﾞｮｳｷﾀ","pref":"北海道","city":"帯広市","address":"西五条北"},
{"zip_code":"0800016","kana_pref":"ﾎｯｶｲﾄﾞｳ","kana_city":"ｵﾋﾞﾋﾛｼ","kana_address":"ﾆｼ6ｼﾞｮｳﾐﾅﾐ","pref":"北海道","city":"帯広市","address":"西六条南"},
{"zip_code":"0800036","kana_pref":"ﾎｯｶｲﾄﾞｳ","kana_city":"ｵﾋﾞﾋﾛｼ","kana_address":"ﾆｼ6ｼﾞｮｳｷﾀ","pref":"北海道","city":"帯広市","address":"西六条北"},
{"zip_code":"0800017","kana_pref":"ﾎｯｶｲﾄﾞｳ","kana_city":"ｵﾋﾞﾋﾛｼ","kana_address":"ﾆｼ7ｼﾞｮｳﾐﾅﾐ","pref":"北海道","city":"帯広市","address":"西七条南"},
{"zip_code":"0800037","kana_pref":"ﾎｯｶｲﾄﾞｳ","kana_city":"ｵﾋﾞﾋﾛｼ","kana_address":"ﾆｼ7ｼﾞｮｳｷﾀ","pref":"北海道","city":"帯広市","address":"西七条北"},
{"zip_code":"0800018","kana_pref":"ﾎｯｶｲﾄﾞｳ","kana_city":"ｵﾋﾞﾋﾛｼ","kana_address":"ﾆｼ8ｼﾞｮｳﾐﾅﾐ","pref":"北海道","city":"帯広市","address":"西八条南"},
{"zip_code":"0800038","kana_pref":"ﾎｯｶｲﾄﾞｳ","kana_city":"ｵﾋﾞﾋﾛｼ","kana_address":"ﾆｼ8ｼﾞｮｳｷﾀ","pref":"北海道","city":"帯広市","address":"西八条北"},
{"zip_code":"0800019","kana_pref":"ﾎｯｶｲﾄﾞｳ","kana_city":"ｵﾋﾞﾋﾛｼ","kana_address":"ﾆｼ9ｼﾞｮｳﾐﾅﾐ","pref":"北海道","city":"帯広市","address":"西九条南"},
{"zip_code":"0800039","kana_pref":"ﾎｯｶｲﾄﾞｳ","kana_city":"ｵﾋﾞﾋﾛｼ","kana_address":"ﾆｼ9ｼﾞｮｳｷﾀ","pref":"北海道","city":"帯広市","address":"西九条北"},
{"zip_code":"0800020","kana_pref":"ﾎｯｶｲﾄﾞｳ","kana_city":"ｵﾋﾞﾋﾛｼ","kana_address":"ﾆｼ10ｼﾞｮｳﾐﾅﾐ","pref":"北海道","city":"帯広市","address":"西十条南"},
{"zip_code":"0800040","kana_pref":"ﾎｯｶｲﾄﾞｳ","kana_city":"ｵﾋﾞﾋﾛｼ","kana_address":"ﾆｼ10ｼﾞｮｳｷﾀ","pref":"北海道","city":"帯広市","address":"西十条北"},
{"zip_code":"0800021","kana_pref":"ﾎｯｶｲﾄﾞｳ","kana_city":"ｵﾋﾞﾋﾛｼ","kana_address":"ﾆｼ11ｼﾞｮｳﾐﾅﾐ","pref":"北海道","city":"帯広市","address":"西十一条南"},
{"zip_code":"0800041","kana_pref":"ﾎｯｶｲﾄﾞｳ","kana_city":"ｵﾋﾞﾋﾛｼ","kana_address":"ﾆｼ11ｼﾞｮｳｷﾀ","pref":"北海道","city":"帯広市","address":"西十一条北"},
{"zip_code":"0800022","kana_pref":"ﾎｯｶｲﾄﾞｳ","kana_city":"ｵﾋﾞﾋﾛｼ","kana_address":"ﾆｼ12ｼﾞｮｳﾐﾅﾐ","pref":"北海道","city":"帯広市","address":"西十二条南"},
{"zip_code":"0800042","kana_pref":"ﾎｯｶｲﾄﾞｳ","kana_city":"ｵﾋﾞﾋﾛｼ","kana_address":"ﾆｼ12ｼﾞｮｳｷﾀ","pref":"北海道","city":"帯広市","address":"西十二条北"},
{"zip_code":"0800023","kana_pref":"ﾎｯｶｲﾄﾞｳ","kana_city":"ｵﾋﾞﾋﾛｼ","kana_address":"ﾆｼ13ｼﾞｮｳﾐﾅﾐ","pref":"北海道","city":"帯広市","address":"西十三条南"},
{"zip_code":"0800043","kana_pref":"ﾎｯｶｲﾄﾞｳ","kana_city":"ｵﾋﾞﾋﾛｼ","kana_address":"ﾆｼ13ｼﾞｮｳｷﾀ","pref":"北海道","city":"帯広市","address":"西十三条北"},
{"zip_code":"0800024","kana_pref":"ﾎｯｶｲﾄﾞｳ","kana_city":"ｵﾋﾞﾋﾛｼ","kana_address":"ﾆｼ14ｼﾞｮｳﾐﾅﾐ","pref":"北海道","city":"帯広市","address":"西十四条南"},
{"zip_code":"0800044","kana_pref":"ﾎｯｶｲﾄﾞｳ","kana_city":"ｵﾋﾞﾋﾛｼ","kana_address":"ﾆｼ14ｼﾞｮｳｷﾀ","pref":"北海道","city":"帯広市","address":"西十四条北"},
{"zip_code":"0800025","kana_pref":"ﾎｯｶｲﾄﾞｳ","kana_city":"ｵﾋﾞﾋﾛｼ","kana_address":"ﾆｼ15ｼﾞｮｳﾐﾅﾐ","pref":"北海道","city":"帯広市","address":"西十五条南"},
{"zip_code":"0800045","kana_pref":"ﾎｯｶｲﾄﾞｳ","kana_city":"ｵﾋﾞﾋﾛｼ","kana_address":"ﾆｼ15ｼﾞｮｳｷﾀ","pref":"北海道","city":"帯広市","address":"西十五条北"},
{"zip_code":"0800026","kana_pref":"ﾎｯｶｲﾄﾞｳ","kana_city":"ｵﾋﾞﾋﾛｼ","kana_address":"ﾆｼ16ｼﾞｮｳﾐﾅﾐ","pref":"北海道","city":"帯広市","address":"西十六条南"},
{"zip_code":"0800046","kana_pref":"ﾎｯｶｲﾄﾞｳ","kana_city":"ｵﾋﾞﾋﾛｼ","kana_address":"ﾆｼ16ｼﾞｮｳｷﾀ","pref":"北海道","city":"帯広市","address":"西十六条北"},
{"zip_code":"0800027","kana_pref":"ﾎｯｶｲﾄﾞｳ","kana_city":"ｵﾋﾞﾋﾛｼ","kana_address":"ﾆｼ17ｼﾞｮｳﾐﾅﾐ","pref":"北海道","city":"帯広市","address":"西十七条南"},
{"zip_code":"0800047","kana_pref":"ﾎｯｶｲﾄﾞｳ","kana_city":"ｵﾋﾞﾋﾛｼ","kana_address":"ﾆｼ17ｼﾞｮｳｷﾀ","pref":"北海道","city":"帯広市","address":"西十七条北"},
{"zip_code":"0800028","kana_pref":"ﾎｯｶｲﾄﾞｳ","kana_city":"ｵﾋﾞﾋﾛｼ","kana_address":"ﾆｼ18ｼﾞｮｳﾐﾅﾐ","pref":"北海道","city":"帯広市","address":"西十八条南"},
{"zip_code":"0800048","kana_pref":"ﾎｯｶｲﾄﾞｳ","kana_city":"ｵﾋﾞﾋﾛｼ","kana_address":"ﾆｼ18ｼﾞｮｳｷﾀ","pref":"北海道","city":"帯広市","address":"西十八条北"},
{"zip_code":"0802469","kana_pref":"ﾎｯｶｲﾄﾞｳ","kana_city":"ｵﾋﾞﾋﾛｼ","kana_address":"ﾆｼ19ｼﾞｮｳﾐﾅﾐ","pref":"北海道","city":"帯広市","address":"西十九条南"},
{"zip_code":"0800029","kana_pref":"ﾎｯｶｲﾄﾞｳ","kana_city":"ｵﾋﾞﾋﾛｼ","kana_address":"ﾆｼ19ｼﾞｮｳﾐﾅﾐ","pref":"北海道","city":"帯広市","address":"西十九条南"},
{"zip_code":"0802459","kana_pref":"ﾎｯｶｲﾄﾞｳ","kana_city":"ｵﾋﾞﾋﾛｼ","kana_address":"ﾆｼ19ｼﾞｮｳｷﾀ","pref":"北海道","city":"帯広市","address":"西十九条北"},
{"zip_code":"0802470","kana_pref":"ﾎｯｶｲﾄﾞｳ","kana_city":"ｵﾋﾞﾋﾛｼ","kana_address":"ﾆｼ20ｼﾞｮｳﾐﾅﾐ","pref":"北海道","city":"帯広市","address":"西二十条南"},
{"zip_code":"0802460","kana_pref":"ﾎｯｶｲﾄﾞｳ","kana_city":"ｵﾋﾞﾋﾛｼ","kana_address":"ﾆｼ20ｼﾞｮｳｷﾀ","pref":"北海道","city":"帯広市","address":"西二十条北"},
{"zip_code":"0802471","kana_pref":"ﾎｯｶｲﾄﾞｳ","kana_city":"ｵﾋﾞﾋﾛｼ","kana_address":"ﾆｼ21ｼﾞｮｳﾐﾅﾐ","pref":"北海道","city":"帯広市","address":"西二十一条南"},
{"zip_code":"0802461","kana_pref":"ﾎｯｶｲﾄﾞｳ","kana_city":"ｵﾋﾞﾋﾛｼ","kana_address":"ﾆｼ21ｼﾞｮｳｷﾀ","pref":"北海道","city":"帯広市","address":"西二十一条北"},
{"zip_code":"0802472","kana_pref":"ﾎｯｶｲﾄﾞｳ","kana_city":"ｵﾋﾞﾋﾛｼ","kana_address":"ﾆｼ22ｼﾞｮｳﾐﾅﾐ","pref":"北海道","city":"帯広市","address":"西二十二条南"},
{"zip_code":"0802462","kana_pref":"ﾎｯｶｲﾄﾞｳ","kana_city":"ｵﾋﾞﾋﾛｼ","kana_address":"ﾆｼ22ｼﾞｮｳｷﾀ","pref":"北海道","city":"帯広市","address":"西二十二条北"},
{"zip_code":"0802473","kana_pref":"ﾎｯｶｲﾄﾞｳ","kana_city":"ｵﾋﾞﾋﾛｼ","kana_address":"ﾆｼ23ｼﾞｮｳﾐﾅﾐ","pref":"北海道","city":"帯広市","address":"西二十三条南"},
{"zip_code":"0802463","kana_pref":"ﾎｯｶｲﾄﾞｳ","kana_city":"ｵﾋﾞﾋﾛｼ","kana_address":"ﾆｼ23ｼﾞｮｳｷﾀ","pref":"北海道","city":"帯広市","address":"西二十三条北"},
{"zip_code":"0802474","kana_pref":"ﾎｯｶｲﾄﾞｳ","kana_city":"ｵﾋﾞﾋﾛｼ","kana_address":"ﾆｼ24ｼﾞｮｳﾐﾅﾐ","pref":"北海道","city":"帯広市","address":"西二十四条南"},
{"zip_code":"0802464","kana_pref":"ﾎｯｶｲﾄﾞｳ","kana_city":"ｵﾋﾞﾋﾛｼ","kana_address":"ﾆｼ24ｼﾞｮｳｷﾀ","pref":"北海道","city":"帯広市","address":"西二十四条北"},
{"zip_code":"0802475","kana_pref":"ﾎｯｶｲﾄﾞｳ","kana_city":"ｵﾋﾞﾋﾛｼ","kana_address":"ﾆｼ25ｼﾞｮｳﾐﾅﾐ","pref":"北海道","city":"帯広市","address":"西二十五条南"},
{"zip_code":"0802465","kana_pref":"ﾎｯｶｲﾄﾞｳ","kana_city":"ｵﾋﾞﾋﾛｼ","kana_address":"ﾆｼ25ｼﾞｮｳｷﾀ","pref":"北海道","city":"帯広市","address":"西二十五条北"},
{"zip_code":"0800057","kana_pref":"ﾎｯｶｲﾄﾞｳ","kana_city":"ｵﾋﾞﾋﾛｼ","kana_address":"ﾊｸﾘﾝﾀﾞｲﾅｶﾏﾁ","pref":"北海道","city":"帯広市","address":"柏林台中町"},
{"zip_code":"0800055","kana_pref":"ﾎｯｶｲﾄﾞｳ","kana_city":"ｵﾋﾞﾋﾛｼ","kana_address":"ﾊｸﾘﾝﾀﾞｲﾋｶﾞｼﾏﾁ","pref":"北海道","city":"帯広市","address":"柏林台東町"},
{"zip_code":"0800058","kana_pref":"ﾎｯｶｲﾄﾞｳ","kana_city":"ｵﾋﾞﾋﾛｼ","kana_address":"ﾊｸﾘﾝﾀﾞｲﾆｼﾏﾁ","pref":"北海道","city":"帯広市","address":"柏林台西町"},
{"zip_code":"0800056","kana_pref":"ﾎｯｶｲﾄﾞｳ","kana_city":"ｵﾋﾞﾋﾛｼ","kana_address":"ﾊｸﾘﾝﾀﾞｲﾐﾅﾐﾏﾁ","pref":"北海道","city":"帯広市","address":"柏林台南町"},
{"zip_code":"0800054","kana_pref":"ﾎｯｶｲﾄﾞｳ","kana_city":"ｵﾋﾞﾋﾛｼ","kana_address":"ﾊｸﾘﾝﾀﾞｲｷﾀﾏﾁ","pref":"北海道","city":"帯広市","address":"柏林台北町"},
{"zip_code":"0802333","kana_pref":"ﾎｯｶｲﾄﾞｳ","kana_city":"ｵﾋﾞﾋﾛｼ","kana_address":"ﾋﾞｴｲﾁｮｳ","pref":"北海道","city":"帯広市","address":"美栄町"},
{"zip_code":"0802106","kana_pref":"ﾎｯｶｲﾄﾞｳ","kana_city":"ｵﾋﾞﾋﾛｼ","kana_address":"ﾋﾞｴｲﾁｮｳ","pref":"北海道","city":"帯広市","address":"美栄町"},
{"zip_code":"0800801","kana_pref":"ﾎｯｶｲﾄﾞｳ","kana_city":"ｵﾋﾞﾋﾛｼ","kana_address":"ﾋｶﾞｼ1ｼﾞｮｳﾐﾅﾐ","pref":"北海道","city":"帯広市","address":"東一条南"},
{"zip_code":"0800821","kana_pref":"ﾎｯｶｲﾄﾞｳ","kana_city":"ｵﾋﾞﾋﾛｼ","kana_address":"ﾋｶﾞｼ1ｼﾞｮｳｷﾀ","pref":"北海道","city":"帯広市","address":"東一条北"},
{"zip_code":"0800802","kana_pref":"ﾎｯｶｲﾄﾞｳ","kana_city":"ｵﾋﾞﾋﾛｼ","kana_address":"ﾋｶﾞｼ2ｼﾞｮｳﾐﾅﾐ","pref":"北海道","city":"帯広市","address":"東二条南"},
{"zip_code":"0800822","kana_pref":"ﾎｯｶｲﾄﾞｳ","kana_city":"ｵﾋﾞﾋﾛｼ","kana_address":"ﾋｶﾞｼ2ｼﾞｮｳｷﾀ","pref":"北海道","city":"帯広市","address":"東二条北"},
{"zip_code":"0800803","kana_pref":"ﾎｯｶｲﾄﾞｳ","kana_city":"ｵﾋﾞﾋﾛｼ","kana_address":"ﾋｶﾞｼ3ｼﾞｮｳﾐﾅﾐ","pref":"北海道","city":"帯広市","address":"東三条南"},
{"zip_code":"0800823","kana_pref":"ﾎｯｶｲﾄﾞｳ","kana_city":"ｵﾋﾞﾋﾛｼ","kana_address":"ﾋｶﾞｼ3ｼﾞｮｳｷﾀ","pref":"北海道","city":"帯広市","address":"東三条北"},
{"zip_code":"0800804","kana_pref":"ﾎｯｶｲﾄﾞｳ","kana_city":"ｵﾋﾞﾋﾛｼ","kana_address":"ﾋｶﾞｼ4ｼﾞｮｳﾐﾅﾐ","pref":"北海道","city":"帯広市","address":"東四条南"},
{"zip_code":"0800824","kana_pref":"ﾎｯｶｲﾄﾞｳ","kana_city":"ｵﾋﾞﾋﾛｼ","kana_address":"ﾋｶﾞｼ4ｼﾞｮｳｷﾀ","pref":"北海道","city":"帯広市","address":"東四条北"},
{"zip_code":"0800805","kana_pref":"ﾎｯｶｲﾄﾞｳ","kana_city":"ｵﾋﾞﾋﾛｼ","kana_address":"ﾋｶﾞｼ5ｼﾞｮｳﾐﾅﾐ","pref":"北海道","city":"帯広市","address":"東五条南"},
{"zip_code":"0800806","kana_pref":"ﾎｯｶｲﾄﾞｳ","kana_city":"ｵﾋﾞﾋﾛｼ","kana_address":"ﾋｶﾞｼ6ｼﾞｮｳﾐﾅﾐ","pref":"北海道","city":"帯広市","address":"東六条南"},
{"zip_code":"0800807","kana_pref":"ﾎｯｶｲﾄﾞｳ","kana_city":"ｵﾋﾞﾋﾛｼ","kana_address":"ﾋｶﾞｼ7ｼﾞｮｳﾐﾅﾐ","pref":"北海道","city":"帯広市","address":"東七条南"},
{"zip_code":"0800808","kana_pref":"ﾎｯｶｲﾄﾞｳ","kana_city":"ｵﾋﾞﾋﾛｼ","kana_address":"ﾋｶﾞｼ8ｼﾞｮｳﾐﾅﾐ","pref":"北海道","city":"帯広市","address":"東八条南"},
{"zip_code":"0800809","kana_pref":"ﾎｯｶｲﾄﾞｳ","kana_city":"ｵﾋﾞﾋﾛｼ","kana_address":"ﾋｶﾞｼ9ｼﾞｮｳﾐﾅﾐ","pref":"北海道","city":"帯広市","address":"東九条南"},
{"zip_code":"0800810","kana_pref":"ﾎｯｶｲﾄﾞｳ","kana_city":"ｵﾋﾞﾋﾛｼ","kana_address":"ﾋｶﾞｼ10ｼﾞｮｳﾐﾅﾐ","pref":"北海道","city":"帯広市","address":"東十条南"},
{"zip_code":"0800811","kana_pref":"ﾎｯｶｲﾄﾞｳ","kana_city":"ｵﾋﾞﾋﾛｼ","kana_address":"ﾋｶﾞｼ11ｼﾞｮｳﾐﾅﾐ","pref":"北海道","city":"帯広市","address":"東十一条南"},
{"zip_code":"0800812","kana_pref":"ﾎｯｶｲﾄﾞｳ","kana_city":"ｵﾋﾞﾋﾛｼ","kana_address":"ﾋｶﾞｼ12ｼﾞｮｳﾐﾅﾐ","pref":"北海道","city":"帯広市","address":"東十二条南"},
{"zip_code":"0800813","kana_pref":"ﾎｯｶｲﾄﾞｳ","kana_city":"ｵﾋﾞﾋﾛｼ","kana_address":"ﾋｶﾞｼ13ｼﾞｮｳﾐﾅﾐ","pref":"北海道","city":"帯広市","address":"東十三条南"},
{"zip_code":"0800814","kana_pref":"ﾎｯｶｲﾄﾞｳ","kana_city":"ｵﾋﾞﾋﾛｼ","kana_address":"ﾋｶﾞｼ14ｼﾞｮｳﾐﾅﾐ","pref":"北海道","city":"帯広市","address":"東十四条南"},
{"zip_code":"0800815","kana_pref":"ﾎｯｶｲﾄﾞｳ","kana_city":"ｵﾋﾞﾋﾛｼ","kana_address":"ﾋｶﾞｼ15ｼﾞｮｳﾐﾅﾐ","pref":"北海道","city":"帯広市","address":"東十五条南"},
{"zip_code":"0802335","kana_pref":"ﾎｯｶｲﾄﾞｳ","kana_city":"ｵﾋﾞﾋﾛｼ","kana_address":"ﾋﾛﾉﾁｮｳ","pref":"北海道","city":"帯広市","address":"広野町"},
{"zip_code":"0802332","kana_pref":"ﾎｯｶｲﾄﾞｳ","kana_city":"ｵﾋﾞﾋﾛｼ","kana_address":"ﾌｼﾞﾁｮｳ","pref":"北海道","city":"帯広市","address":"富士町"},
{"zip_code":"0800846","kana_pref":"ﾎｯｶｲﾄﾞｳ","kana_city":"ｵﾋﾞﾋﾛｼ","kana_address":"ﾐﾄﾞﾘｶﾞｵｶ","pref":"北海道","city":"帯広市","address":"緑ケ丘"},
{"zip_code":"0800844","kana_pref":"ﾎｯｶｲﾄﾞｳ","kana_city":"ｵﾋﾞﾋﾛｼ","kana_address":"ﾐﾄﾞﾘｶﾞｵｶﾋｶﾞｼﾄﾞｵﾘﾋｶﾞｼ","pref":"北海道","city":"帯広市","address":"緑ケ丘東通東"},
{"zip_code":"0800845","kana_pref":"ﾎｯｶｲﾄﾞｳ","kana_city":"ｵﾋﾞﾋﾛｼ","kana_address":"ﾐﾄﾞﾘｶﾞｵｶﾋｶﾞｼﾄﾞｵﾘﾆｼ","pref":"北海道","city":"帯広市","address":"緑ケ丘東通西"},
{"zip_code":"0800841","kana_pref":"ﾎｯｶｲﾄﾞｳ","kana_city":"ｵﾋﾞﾋﾛｼ","kana_address":"ﾐﾄﾞﾘｶﾞｵｶ1ｼﾞｮｳﾄﾞｵﾘ","pref":"北海道","city":"帯広市","address":"緑ケ丘一条通"},
{"zip_code":"0800842","kana_pref":"ﾎｯｶｲﾄﾞｳ","kana_city":"ｵﾋﾞﾋﾛｼ","kana_address":"ﾐﾄﾞﾘｶﾞｵｶ2ｼﾞｮｳﾄﾞｵﾘ","pref":"北海道","city":"帯広市","address":"緑ケ丘二条通"},
{"zip_code":"0800843","kana_pref":"ﾎｯｶｲﾄﾞｳ","kana_city":"ｵﾋﾞﾋﾛｼ","kana_address":"ﾐﾄﾞﾘｶﾞｵｶ3ｼﾞｮｳﾄﾞｵﾘ","pref":"北海道","city":"帯広市","address":"緑ケ丘三条通"},
{"zip_code":"0800862","kana_pref":"ﾎｯｶｲﾄﾞｳ","kana_city":"ｵﾋﾞﾋﾛｼ","kana_address":"ﾐﾅﾐﾉﾓﾘﾆｼ","pref":"北海道","city":"帯広市","address":"南の森西"},
{"zip_code":"0800861","kana_pref":"ﾎｯｶｲﾄﾞｳ","kana_city":"ｵﾋﾞﾋﾛｼ","kana_address":"ﾐﾅﾐﾉﾓﾘﾋｶﾞｼ","pref":"北海道","city":"帯広市","address":"南の森東"},
{"zip_code":"0800857","kana_pref":"ﾎｯｶｲﾄﾞｳ","kana_city":"ｵﾋﾞﾋﾛｼ","kana_address":"ﾐﾅﾐﾏﾁ","pref":"北海道","city":"帯広市","address":"南町"},
{"zip_code":"0800851","kana_pref":"ﾎｯｶｲﾄﾞｳ","kana_city":"ｵﾋﾞﾋﾛｼ","kana_address":"ﾐﾅﾐﾏﾁﾋｶﾞｼ1ｼﾞｮｳ","pref":"北海道","city":"帯広市","address":"南町東一条"},
{"zip_code":"0800852","kana_pref":"ﾎｯｶｲﾄﾞｳ","kana_city":"ｵﾋﾞﾋﾛｼ","kana_address":"ﾐﾅﾐﾏﾁﾋｶﾞｼ2ｼﾞｮｳ","pref":"北海道","city":"帯広市","address":"南町東二条"},
{"zip_code":"0800853","kana_pref":"ﾎｯｶｲﾄﾞｳ","kana_city":"ｵﾋﾞﾋﾛｼ","kana_address":"ﾐﾅﾐﾏﾁﾋｶﾞｼ3ｼﾞｮｳ","pref":"北海道","city":"帯広市","address":"南町東三条"},
{"zip_code":"0800854","kana_pref":"ﾎｯｶｲﾄﾞｳ","kana_city":"ｵﾋﾞﾋﾛｼ","kana_address":"ﾐﾅﾐﾏﾁﾋｶﾞｼ4ｼﾞｮｳ","pref":"北海道","city":"帯広市","address":"南町東四条"},
{"zip_code":"0800855","kana_pref":"ﾎｯｶｲﾄﾞｳ","kana_city":"ｵﾋﾞﾋﾛｼ","kana_address":"ﾐﾅﾐﾏﾁﾋｶﾞｼ5ｼﾞｮｳ","pref":"北海道","city":"帯広市","address":"南町東五条"},
{"zip_code":"0800856","kana_pref":"ﾎｯｶｲﾄﾞｳ","kana_city":"ｵﾋﾞﾋﾛｼ","kana_address":"ﾐﾅﾐﾏﾁﾐﾅﾐ","pref":"北海道","city":"帯広市","address":"南町南"},
{"zip_code":"0802331","kana_pref":"ﾎｯｶｲﾄﾞｳ","kana_city":"ｵﾋﾞﾋﾛｼ","kana_address":"ﾓﾄｲﾏﾂﾁｮｳ","pref":"北海道","city":"帯広市","address":"基松町"},
{"zip_code":"0802336","kana_pref":"ﾎｯｶｲﾄﾞｳ","kana_city":"ｵﾋﾞﾋﾛｼ","kana_address":"ﾔﾁﾖﾁｮｳ","pref":"北海道","city":"帯広市","address":"八千代町"},
{"zip_code":"0800817","kana_pref":"ﾎｯｶｲﾄﾞｳ","kana_city":"ｵﾋﾞﾋﾛｼ","kana_address":"ﾖﾀﾞﾁｮｳ","pref":"北海道","city":"帯広市","address":"依田町"},
{"zip_code":"0800100","kana_pref":"ﾎｯｶｲﾄﾞｳ","kana_city":"ｶﾄｳｸﾞﾝｵﾄﾌｹﾁｮｳ","kana_address":"","pref":"北海道","city":"河東郡音更町","address":""},
{"zip_code":"0800101","kana_pref":"ﾎｯｶｲﾄﾞｳ","kana_city":"ｶﾄｳｸﾞﾝｵﾄﾌｹﾁｮｳ","kana_address":"ｵｵﾄﾞｵﾘ","pref":"北海道","city":"河東郡音更町","address":"大通"},
{"zip_code":"0800102","kana_pref":"ﾎｯｶｲﾄﾞｳ","kana_city":"ｶﾄｳｸﾞﾝｵﾄﾌｹﾁｮｳ","kana_address":"ｵｵﾄﾞｵﾘｷﾀ","pref":"北海道","city":"河東郡音更町","address":"大通北"},
{"zip_code":"0800271","kana_pref":"ﾎｯｶｲﾄﾞｳ","kana_city":"ｶﾄｳｸﾞﾝｵﾄﾌｹﾁｮｳ","kana_address":"ｵｻﾙｼ","pref":"北海道","city":"河東郡音更町","address":"長流枝"},
{"zip_code":"0800271","kana_pref":"ﾎｯｶｲﾄﾞｳ","kana_city":"ｶﾄｳｸﾞﾝｵﾄﾌｹﾁｮｳ","kana_address":"ｵｻﾙｼｶﾝｾﾝ","pref":"北海道","city":"河東郡音更町","address":"長流枝幹線"},
{"zip_code":"0800341","kana_pref":"ﾎｯｶｲﾄﾞｳ","kana_city":"ｶﾄｳｸﾞﾝｵﾄﾌｹﾁｮｳ","kana_address":"ｵﾄﾌｹ","pref":"北海道","city":"河東郡音更町","address":"音更"},
{"zip_code":"0800575","kana_pref":"ﾎｯｶｲﾄﾞｳ","kana_city":"ｶﾄｳｸﾞﾝｵﾄﾌｹﾁｮｳ","kana_address":"ｶﾐｼｶﾘﾍﾞﾂ","pref":"北海道","city":"河東郡音更町","address":"上然別"},
{"zip_code":"0800306","kana_pref":"ﾎｯｶｲﾄﾞｳ","kana_city":"ｶﾄｳｸﾞﾝｵﾄﾌｹﾁｮｳ","kana_address":"ｷﾀｽｽﾞﾗﾝﾐﾅﾐ","pref":"北海道","city":"河東郡音更町","address":"北鈴蘭南"},
{"zip_code":"0800305","kana_pref":"ﾎｯｶｲﾄﾞｳ","kana_city":"ｶﾄｳｸﾞﾝｵﾄﾌｹﾁｮｳ","kana_address":"ｷﾀｽｽﾞﾗﾝｷﾀ","pref":"北海道","city":"河東郡音更町","address":"北鈴蘭北"},
{"zip_code":"0800111","kana_pref":"ﾎｯｶｲﾄﾞｳ","kana_city":"ｶﾄｳｸﾞﾝｵﾄﾌｹﾁｮｳ","kana_address":"ｷﾉｵｵﾄﾞｵﾘﾋｶﾞｼ","pref":"北海道","city":"河東郡音更町","address":"木野大通東"},
{"zip_code":"0800301","kana_pref":"ﾎｯｶｲﾄﾞｳ","kana_city":"ｶﾄｳｸﾞﾝｵﾄﾌｹﾁｮｳ","kana_address":"ｷﾉｵｵﾄﾞｵﾘﾆｼ","pref":"北海道","city":"河東郡音更町","address":"木野大通西"},
{"zip_code":"0800303","kana_pref":"ﾎｯｶｲﾄﾞｳ","kana_city":"ｶﾄｳｸﾞﾝｵﾄﾌｹﾁｮｳ","kana_address":"ｷﾉｺｳｴﾝｼﾀﾏﾁ","pref":"北海道","city":"河東郡音更町","address":"木野公園下町"},
{"zip_code":"0800304","kana_pref":"ﾎｯｶｲﾄﾞｳ","kana_city":"ｶﾄｳｸﾞﾝｵﾄﾌｹﾁｮｳ","kana_address":"ｷﾉｼﾝﾏﾁ","pref":"北海道","city":"河東郡音更町","address":"木野新町"},
{"zip_code":"0800302","kana_pref":"ﾎｯｶｲﾄﾞｳ","kana_city":"ｶﾄｳｸﾞﾝｵﾄﾌｹﾁｮｳ","kana_address":"ｷﾉﾆｼﾄﾞｵﾘ","pref":"北海道","city":"河東郡音更町","address":"木野西通"},
{"zip_code":"0800112","kana_pref":"ﾎｯｶｲﾄﾞｳ","kana_city":"ｶﾄｳｸﾞﾝｵﾄﾌｹﾁｮｳ","kana_address":"ｷﾉﾋｶﾞｼﾄﾞｵﾘ","pref":"北海道","city":"河東郡音更町","address":"木野東通"},
{"zip_code":"0800335","kana_pref":"ﾎｯｶｲﾄﾞｳ","kana_city":"ｶﾄｳｸﾞﾝｵﾄﾌｹﾁｮｳ","kana_address":"ｷﾎﾞｳｶﾞｵｶ","pref":"北海道","city":"河東郡音更町","address":"希望が丘"},
{"zip_code":"0800315","kana_pref":"ﾎｯｶｲﾄﾞｳ","kana_city":"ｶﾄｳｸﾞﾝｵﾄﾌｹﾁｮｳ","kana_address":"ｷｮｳｴｲﾀﾞｲﾋｶﾞｼ","pref":"北海道","city":"河東郡音更町","address":"共栄台東"},
{"zip_code":"0800314","kana_pref":"ﾎｯｶｲﾄﾞｳ","kana_city":"ｶﾄｳｸﾞﾝｵﾄﾌｹﾁｮｳ","kana_address":"ｷｮｳｴｲﾀﾞｲﾆｼ","pref":"北海道","city":"河東郡音更町","address":"共栄台西"},
{"zip_code":"0800571","kana_pref":"ﾎｯｶｲﾄﾞｳ","kana_city":"ｶﾄｳｸﾞﾝｵﾄﾌｹﾁｮｳ","kana_address":"ｺﾏﾊﾞ","pref":"北海道","city":"河東郡音更町","address":"駒場"},
{"zip_code":"0800564","kana_pref":"ﾎｯｶｲﾄﾞｳ","kana_city":"ｶﾄｳｸﾞﾝｵﾄﾌｹﾁｮｳ","kana_address":"ｺﾏﾊﾞｷﾀﾏﾁ","pref":"北海道","city":"河東郡音更町","address":"駒場北町"},
{"zip_code":"0800564","kana_pref":"ﾎｯｶｲﾄﾞｳ","kana_city":"ｶﾄｳｸﾞﾝｵﾄﾌｹﾁｮｳ","kana_address":"ｺﾏﾊﾞｷﾀ1ｼﾞｮｳﾄﾞｵﾘ","pref":"北海道","city":"河東郡音更町","address":"駒場北１条通"},
{"zip_code":"0800564","kana_pref":"ﾎｯｶｲﾄﾞｳ","kana_city":"ｶﾄｳｸﾞﾝｵﾄﾌｹﾁｮｳ","kana_address":"ｺﾏﾊﾞｷﾀ2ｼﾞｮｳﾄﾞｵﾘ","pref":"北海道","city":"河東郡音更町","address":"駒場北２条通"},
{"zip_code":"0800572","kana_pref":"ﾎｯｶｲﾄﾞｳ","kana_city":"ｶﾄｳｸﾞﾝｵﾄﾌｹﾁｮｳ","kana_address":"ｺﾏﾊﾞﾅﾐｷ","pref":"北海道","city":"河東郡音更町","address":"駒場並木"},
{"zip_code":"0800563","kana_pref":"ﾎｯｶｲﾄﾞｳ","kana_city":"ｶﾄｳｸﾞﾝｵﾄﾌｹﾁｮｳ","kana_address":"ｺﾏﾊﾞﾍｲﾜﾀﾞｲ","pref":"北海道","city":"河東郡音更町","address":"駒場平和台"},
{"zip_code":"0800565","kana_pref":"ﾎｯｶｲﾄﾞｳ","kana_city":"ｶﾄｳｸﾞﾝｵﾄﾌｹﾁｮｳ","kana_address":"ｺﾏﾊﾞﾎﾝﾄﾞｵﾘ","pref":"北海道","city":"河東郡音更町","address":"駒場本通"},
{"zip_code":"0800566","kana_pref":"ﾎｯｶｲﾄﾞｳ","kana_city":"ｶﾄｳｸﾞﾝｵﾄﾌｹﾁｮｳ","kana_address":"ｺﾏﾊﾞﾐﾅﾐ1ｼﾞｮｳﾄﾞｵﾘ","pref":"北海道","city":"河東郡音更町","address":"駒場南１条通"},
{"zip_code":"0800566","kana_pref":"ﾎｯｶｲﾄﾞｳ","kana_city":"ｶﾄｳｸﾞﾝｵﾄﾌｹﾁｮｳ","kana_address":"ｺﾏﾊﾞﾐﾅﾐ2ｼﾞｮｳﾄﾞｵﾘ","pref":"北海道","city":"河東郡音更町","address":"駒場南２条通"},
{"zip_code":"0800567","kana_pref":"ﾎｯｶｲﾄﾞｳ","kana_city":"ｶﾄｳｸﾞﾝｵﾄﾌｹﾁｮｳ","kana_address":"ｺﾏﾊﾞﾐﾅﾐ3ｼﾞｮｳﾄﾞｵﾘ","pref":"北海道","city":"河東郡音更町","address":"駒場南３条通"},
{"zip_code":"0800567","kana_pref":"ﾎｯｶｲﾄﾞｳ","kana_city":"ｶﾄｳｸﾞﾝｵﾄﾌｹﾁｮｳ","kana_address":"ｺﾏﾊﾞﾐﾅﾐ4ｼﾞｮｳﾄﾞｵﾘ","pref":"北海道","city":"河東郡音更町","address":"駒場南４条通"},
{"zip_code":"0800568","kana_pref":"ﾎｯｶｲﾄﾞｳ","kana_city":"ｶﾄｳｸﾞﾝｵﾄﾌｹﾁｮｳ","kana_address":"ｺﾏﾊﾞﾋｶﾞｼ","pref":"北海道","city":"河東郡音更町","address":"駒場東"},
{"zip_code":"0800574","kana_pref":"ﾎｯｶｲﾄﾞｳ","kana_city":"ｶﾄｳｸﾞﾝｵﾄﾌｹﾁｮｳ","kana_address":"ｺﾏﾊﾞﾆｼ","pref":"北海道","city":"河東郡音更町","address":"駒場西"},
{"zip_code":"0800573","kana_pref":"ﾎｯｶｲﾄﾞｳ","kana_city":"ｶﾄｳｸﾞﾝｵﾄﾌｹﾁｮｳ","kana_address":"ｺﾏﾊﾞﾐﾅﾐ","pref":"北海道","city":"河東郡音更町","address":"駒場南"},
{"zip_code":"0800321","kana_pref":"ﾎｯｶｲﾄﾞｳ","kana_city":"ｶﾄｳｸﾞﾝｵﾄﾌｹﾁｮｳ","kana_address":"ｻｸﾗｶﾞｵｶ","pref":"北海道","city":"河東郡音更町","address":"桜が丘"},
{"zip_code":"0800322","kana_pref":"ﾎｯｶｲﾄﾞｳ","kana_city":"ｶﾄｳｸﾞﾝｵﾄﾌｹﾁｮｳ","kana_address":"ｻｸﾗｶﾞｵｶﾆｼ","pref":"北海道","city":"河東郡音更町","address":"桜が丘西"},
{"zip_code":"0800351","kana_pref":"ﾎｯｶｲﾄﾞｳ","kana_city":"ｶﾄｳｸﾞﾝｵﾄﾌｹﾁｮｳ","kana_address":"ｼｶﾘﾍﾞﾂ","pref":"北海道","city":"河東郡音更町","address":"然別"},
{"zip_code":"0800342","kana_pref":"ﾎｯｶｲﾄﾞｳ","kana_city":"ｶﾄｳｸﾞﾝｵﾄﾌｹﾁｮｳ","kana_address":"ｼﾓｵﾄﾌｹ","pref":"北海道","city":"河東郡音更町","address":"下音更"},
{"zip_code":"0800272","kana_pref":"ﾎｯｶｲﾄﾞｳ","kana_city":"ｶﾄｳｸﾞﾝｵﾄﾌｹﾁｮｳ","kana_address":"ｼﾓｼﾎﾛ","pref":"北海道","city":"河東郡音更町","address":"下士幌"},
{"zip_code":"0800272","kana_pref":"ﾎｯｶｲﾄﾞｳ","kana_city":"ｶﾄｳｸﾞﾝｵﾄﾌｹﾁｮｳ","kana_address":"ｼﾓｼﾎﾛｶﾝｾﾝ","pref":"北海道","city":"河東郡音更町","address":"下士幌幹線"},
{"zip_code":"0800104","kana_pref":"ﾎｯｶｲﾄﾞｳ","kana_city":"ｶﾄｳｸﾞﾝｵﾄﾌｹﾁｮｳ","kana_address":"ｼﾝﾄﾞｵﾘ","pref":"北海道","city":"河東郡音更町","address":"新通"},
{"zip_code":"0800105","kana_pref":"ﾎｯｶｲﾄﾞｳ","kana_city":"ｶﾄｳｸﾞﾝｵﾄﾌｹﾁｮｳ","kana_address":"ｼﾝﾄﾞｵﾘｷﾀ","pref":"北海道","city":"河東郡音更町","address":"新通北"},
{"zip_code":"0800313","kana_pref":"ﾎｯｶｲﾄﾞｳ","kana_city":"ｶﾄｳｸﾞﾝｵﾄﾌｹﾁｮｳ","kana_address":"ｽｽﾞﾗﾝｺｳｴﾝ","pref":"北海道","city":"河東郡音更町","address":"鈴蘭公園"},
{"zip_code":"0800361","kana_pref":"ﾎｯｶｲﾄﾞｳ","kana_city":"ｶﾄｳｸﾞﾝｵﾄﾌｹﾁｮｳ","kana_address":"ｽｽﾞﾗﾝﾀﾞｲｷﾀﾏﾁ","pref":"北海道","city":"河東郡音更町","address":"すずらん台北町"},
{"zip_code":"0800362","kana_pref":"ﾎｯｶｲﾄﾞｳ","kana_city":"ｶﾄｳｸﾞﾝｵﾄﾌｹﾁｮｳ","kana_address":"ｽｽﾞﾗﾝﾀﾞｲﾅｶﾏﾁ","pref":"北海道","city":"河東郡音更町","address":"すずらん台仲町"},
{"zip_code":"0800363","kana_pref":"ﾎｯｶｲﾄﾞｳ","kana_city":"ｶﾄｳｸﾞﾝｵﾄﾌｹﾁｮｳ","kana_address":"ｽｽﾞﾗﾝﾀﾞｲﾐﾅﾐﾏﾁ","pref":"北海道","city":"河東郡音更町","address":"すずらん台南町"},
{"zip_code":"0800323","kana_pref":"ﾎｯｶｲﾄﾞｳ","kana_city":"ｶﾄｳｸﾞﾝｵﾄﾌｹﾁｮｳ","kana_address":"ｽﾐﾖｼﾀﾞｲ","pref":"北海道","city":"河東郡音更町","address":"住吉台"},
{"zip_code":"0800345","kana_pref":"ﾎｯｶｲﾄﾞｳ","kana_city":"ｶﾄｳｸﾞﾝｵﾄﾌｹﾁｮｳ","kana_address":"ﾀｶｸﾗ","pref":"北海道","city":"河東郡音更町","address":"高倉"},
{"zip_code":"0800151","kana_pref":"ﾎｯｶｲﾄﾞｳ","kana_city":"ｶﾄｳｸﾞﾝｵﾄﾌｹﾁｮｳ","kana_address":"ﾄｳﾜ","pref":"北海道","city":"河東郡音更町","address":"東和"},
{"zip_code":"0800261","kana_pref":"ﾎｯｶｲﾄﾞｳ","kana_city":"ｶﾄｳｸﾞﾝｵﾄﾌｹﾁｮｳ","kana_address":"ﾄｶﾁｶﾞﾜｵﾝｾﾝ","pref":"北海道","city":"河東郡音更町","address":"十勝川温泉"},
{"zip_code":"0800263","kana_pref":"ﾎｯｶｲﾄﾞｳ","kana_city":"ｶﾄｳｸﾞﾝｵﾄﾌｹﾁｮｳ","kana_address":"ﾄｶﾁｶﾞﾜｵﾝｾﾝﾐﾅﾐ","pref":"北海道","city":"河東郡音更町","address":"十勝川温泉南"},
{"zip_code":"0800262","kana_pref":"ﾎｯｶｲﾄﾞｳ","kana_city":"ｶﾄｳｸﾞﾝｵﾄﾌｹﾁｮｳ","kana_address":"ﾄｶﾁｶﾞﾜｵﾝｾﾝｷﾀ","pref":"北海道","city":"河東郡音更町","address":"十勝川温泉北"},
{"zip_code":"0800561","kana_pref":"ﾎｯｶｲﾄﾞｳ","kana_city":"ｶﾄｳｸﾞﾝｵﾄﾌｹﾁｮｳ","kana_address":"ﾄﾖﾀ","pref":"北海道","city":"河東郡音更町","address":"豊田"},
{"zip_code":"0800578","kana_pref":"ﾎｯｶｲﾄﾞｳ","kana_city":"ｶﾄｳｸﾞﾝｵﾄﾌｹﾁｮｳ","kana_address":"ﾅｶｵﾄﾌｹ","pref":"北海道","city":"河東郡音更町","address":"中音更"},
{"zip_code":"0800309","kana_pref":"ﾎｯｶｲﾄﾞｳ","kana_city":"ｶﾄｳｸﾞﾝｵﾄﾌｹﾁｮｳ","kana_address":"ﾅｶｽｽﾞﾗﾝﾓﾄﾏﾁ","pref":"北海道","city":"河東郡音更町","address":"中鈴蘭元町"},
{"zip_code":"0800308","kana_pref":"ﾎｯｶｲﾄﾞｳ","kana_city":"ｶﾄｳｸﾞﾝｵﾄﾌｹﾁｮｳ","kana_address":"ﾅｶｽｽﾞﾗﾝﾐﾅﾐ","pref":"北海道","city":"河東郡音更町","address":"中鈴蘭南"},
{"zip_code":"0800307","kana_pref":"ﾎｯｶｲﾄﾞｳ","kana_city":"ｶﾄｳｸﾞﾝｵﾄﾌｹﾁｮｳ","kana_address":"ﾅｶｽｽﾞﾗﾝｷﾀ","pref":"北海道","city":"河東郡音更町","address":"中鈴蘭北"},
{"zip_code":"0800577","kana_pref":"ﾎｯｶｲﾄﾞｳ","kana_city":"ｶﾄｳｸﾞﾝｵﾄﾌｹﾁｮｳ","kana_address":"ﾆｼﾅｶｵﾄﾌｹ","pref":"北海道","city":"河東郡音更町","address":"西中音更"},
{"zip_code":"0800325","kana_pref":"ﾎｯｶｲﾄﾞｳ","kana_city":"ｶﾄｳｸﾞﾝｵﾄﾌｹﾁｮｳ","kana_address":"ﾊｸｼﾞｭﾀﾞｲ","pref":"北海道","city":"河東郡音更町","address":"柏寿台"},
{"zip_code":"0800562","kana_pref":"ﾎｯｶｲﾄﾞｳ","kana_city":"ｶﾄｳｸﾞﾝｵﾄﾌｹﾁｮｳ","kana_address":"ﾋｶﾞｼｵﾄﾌｹ","pref":"北海道","city":"河東郡音更町","address":"東音更"},
{"zip_code":"0800343","kana_pref":"ﾎｯｶｲﾄﾞｳ","kana_city":"ｶﾄｳｸﾞﾝｵﾄﾌｹﾁｮｳ","kana_address":"ﾋｶﾞｼｼｶﾘ","pref":"北海道","city":"河東郡音更町","address":"東士狩"},
{"zip_code":"0800106","kana_pref":"ﾎｯｶｲﾄﾞｳ","kana_city":"ｶﾄｳｸﾞﾝｵﾄﾌｹﾁｮｳ","kana_address":"ﾋｶﾞｼﾄﾞｵﾘ","pref":"北海道","city":"河東郡音更町","address":"東通"},
{"zip_code":"0800162","kana_pref":"ﾎｯｶｲﾄﾞｳ","kana_city":"ｶﾄｳｸﾞﾝｵﾄﾌｹﾁｮｳ","kana_address":"ﾋﾋﾞｷﾉﾅｶﾏﾁ","pref":"北海道","city":"河東郡音更町","address":"ひびき野仲町"},
{"zip_code":"0800161","kana_pref":"ﾎｯｶｲﾄﾞｳ","kana_city":"ｶﾄｳｸﾞﾝｵﾄﾌｹﾁｮｳ","kana_address":"ﾋﾋﾞｷﾉﾋｶﾞｼﾏﾁ","pref":"北海道","city":"河東郡音更町","address":"ひびき野東町"},
{"zip_code":"0800163","kana_pref":"ﾎｯｶｲﾄﾞｳ","kana_city":"ｶﾄｳｸﾞﾝｵﾄﾌｹﾁｮｳ","kana_address":"ﾋﾋﾞｷﾉﾆｼﾏﾁ","pref":"北海道","city":"河東郡音更町","address":"ひびき野西町"},
{"zip_code":"0800137","kana_pref":"ﾎｯｶｲﾄﾞｳ","kana_city":"ｶﾄｳｸﾞﾝｵﾄﾌｹﾁｮｳ","kana_address":"ﾎｳﾗｲﾐﾅﾐ1ｼﾞｮｳ","pref":"北海道","city":"河東郡音更町","address":"宝来南一条"},
{"zip_code":"0800138","kana_pref":"ﾎｯｶｲﾄﾞｳ","kana_city":"ｶﾄｳｸﾞﾝｵﾄﾌｹﾁｮｳ","kana_address":"ﾎｳﾗｲﾐﾅﾐ2ｼﾞｮｳ","pref":"北海道","city":"河東郡音更町","address":"宝来南二条"},
{"zip_code":"0800141","kana_pref":"ﾎｯｶｲﾄﾞｳ","kana_city":"ｶﾄｳｸﾞﾝｵﾄﾌｹﾁｮｳ","kana_address":"ﾎｳﾗｲｷﾀ1ｼﾞｮｳ","pref":"北海道","city":"河東郡音更町","address":"宝来北一条"},
{"zip_code":"0800142","kana_pref":"ﾎｯｶｲﾄﾞｳ","kana_city":"ｶﾄｳｸﾞﾝｵﾄﾌｹﾁｮｳ","kana_address":"ﾎｳﾗｲｷﾀ2ｼﾞｮｳ","pref":"北海道","city":"河東郡音更町","address":"宝来北二条"},
{"zip_code":"0800143","kana_pref":"ﾎｯｶｲﾄﾞｳ","kana_city":"ｶﾄｳｸﾞﾝｵﾄﾌｹﾁｮｳ","kana_address":"ﾎｳﾗｲｷﾀ3ｼﾞｮｳ","pref":"北海道","city":"河東郡音更町","address":"宝来北三条"},
{"zip_code":"0800144","kana_pref":"ﾎｯｶｲﾄﾞｳ","kana_city":"ｶﾄｳｸﾞﾝｵﾄﾌｹﾁｮｳ","kana_address":"ﾎｳﾗｲｷﾀ4ｼﾞｮｳ","pref":"北海道","city":"河東郡音更町","address":"宝来北四条"},
{"zip_code":"0800145","kana_pref":"ﾎｯｶｲﾄﾞｳ","kana_city":"ｶﾄｳｸﾞﾝｵﾄﾌｹﾁｮｳ","kana_address":"ﾎｳﾗｲｷﾀ5ｼﾞｮｳ","pref":"北海道","city":"河東郡音更町","address":"宝来北五条"},
{"zip_code":"0800146","kana_pref":"ﾎｯｶｲﾄﾞｳ","kana_city":"ｶﾄｳｸﾞﾝｵﾄﾌｹﾁｮｳ","kana_address":"ﾎｳﾗｲｷﾀ6ｼﾞｮｳ","pref":"北海道","city":"河東郡音更町","address":"宝来北六条"},
{"zip_code":"0800135","kana_pref":"ﾎｯｶｲﾄﾞｳ","kana_city":"ｶﾄｳｸﾞﾝｵﾄﾌｹﾁｮｳ","kana_address":"ﾎｳﾗｲﾅｶﾏﾁﾐﾅﾐ","pref":"北海道","city":"河東郡音更町","address":"宝来仲町南"},
{"zip_code":"0800132","kana_pref":"ﾎｯｶｲﾄﾞｳ","kana_city":"ｶﾄｳｸﾞﾝｵﾄﾌｹﾁｮｳ","kana_address":"ﾎｳﾗｲﾅｶﾏﾁｷﾀ","pref":"北海道","city":"河東郡音更町","address":"宝来仲町北"},
{"zip_code":"0800136","kana_pref":"ﾎｯｶｲﾄﾞｳ","kana_city":"ｶﾄｳｸﾞﾝｵﾄﾌｹﾁｮｳ","kana_address":"ﾎｳﾗｲﾋｶﾞｼﾏﾁﾐﾅﾐ","pref":"北海道","city":"河東郡音更町","address":"宝来東町南"},
{"zip_code":"0800133","kana_pref":"ﾎｯｶｲﾄﾞｳ","kana_city":"ｶﾄｳｸﾞﾝｵﾄﾌｹﾁｮｳ","kana_address":"ﾎｳﾗｲﾋｶﾞｼﾏﾁｷﾀ","pref":"北海道","city":"河東郡音更町","address":"宝来東町北"},
{"zip_code":"0800139","kana_pref":"ﾎｯｶｲﾄﾞｳ","kana_city":"ｶﾄｳｸﾞﾝｵﾄﾌｹﾁｮｳ","kana_address":"ﾎｳﾗｲﾆｼﾏﾁｷﾀ","pref":"北海道","city":"河東郡音更町","address":"宝来西町北"},
{"zip_code":"0800134","kana_pref":"ﾎｯｶｲﾄﾞｳ","kana_city":"ｶﾄｳｸﾞﾝｵﾄﾌｹﾁｮｳ","kana_address":"ﾎｳﾗｲﾆｼﾏﾁﾐﾅﾐ","pref":"北海道","city":"河東郡音更町","address":"宝来西町南"},
{"zip_code":"0800131","kana_pref":"ﾎｯｶｲﾄﾞｳ","kana_city":"ｶﾄｳｸﾞﾝｵﾄﾌｹﾁｮｳ","kana_address":"ﾎｳﾗｲﾎﾝﾄﾞｵﾘ","pref":"北海道","city":"河東郡音更町","address":"宝来本通"},
{"zip_code":"0800326","kana_pref":"ﾎｯｶｲﾄﾞｳ","kana_city":"ｶﾄｳｸﾞﾝｵﾄﾌｹﾁｮｳ","kana_address":"ﾎｸﾒｲﾀﾞｲ","pref":"北海道","city":"河東郡音更町","address":"北明台"},
{"zip_code":"0800327","kana_pref":"ﾎｯｶｲﾄﾞｳ","kana_city":"ｶﾄｳｸﾞﾝｵﾄﾌｹﾁｮｳ","kana_address":"ﾎｸﾖｳﾀﾞｲ","pref":"北海道","city":"河東郡音更町","address":"北陽台"},
{"zip_code":"0800344","kana_pref":"ﾎｯｶｲﾄﾞｳ","kana_city":"ｶﾄｳｸﾞﾝｵﾄﾌｹﾁｮｳ","kana_address":"ﾏﾝﾈﾝ","pref":"北海道","city":"河東郡音更町","address":"万年"},
{"zip_code":"0800334","kana_pref":"ﾎｯｶｲﾄﾞｳ","kana_city":"ｶﾄｳｸﾞﾝｵﾄﾌｹﾁｮｳ","kana_address":"ﾐﾄﾞﾘｶﾞｵｶ","pref":"北海道","city":"河東郡音更町","address":"緑が丘"},
{"zip_code":"0800312","kana_pref":"ﾎｯｶｲﾄﾞｳ","kana_city":"ｶﾄｳｸﾞﾝｵﾄﾌｹﾁｮｳ","kana_address":"ﾐﾅﾐｽｽﾞﾗﾝﾐﾅﾐ","pref":"北海道","city":"河東郡音更町","address":"南鈴蘭南"},
{"zip_code":"0800311","kana_pref":"ﾎｯｶｲﾄﾞｳ","kana_city":"ｶﾄｳｸﾞﾝｵﾄﾌｹﾁｮｳ","kana_address":"ﾐﾅﾐｽｽﾞﾗﾝｷﾀ","pref":"北海道","city":"河東郡音更町","address":"南鈴蘭北"},
{"zip_code":"0800324","kana_pref":"ﾎｯｶｲﾄﾞｳ","kana_city":"ｶﾄｳｸﾞﾝｵﾄﾌｹﾁｮｳ","kana_address":"ﾐﾅﾐｽﾐﾖｼﾀﾞｲ","pref":"北海道","city":"河東郡音更町","address":"南住吉台"},
{"zip_code":"0800576","kana_pref":"ﾎｯｶｲﾄﾞｳ","kana_city":"ｶﾄｳｸﾞﾝｵﾄﾌｹﾁｮｳ","kana_address":"ﾐﾅﾐﾅｶｵﾄﾌｹ","pref":"北海道","city":"河東郡音更町","address":"南中音更"},
{"zip_code":"0800103","kana_pref":"ﾎｯｶｲﾄﾞｳ","kana_city":"ｶﾄｳｸﾞﾝｵﾄﾌｹﾁｮｳ","kana_address":"ﾓﾄﾏﾁ","pref":"北海道","city":"河東郡音更町","address":"元町"},
{"zip_code":"0800121","kana_pref":"ﾎｯｶｲﾄﾞｳ","kana_city":"ｶﾄｳｸﾞﾝｵﾄﾌｹﾁｮｳ","kana_address":"ﾔﾅｷﾞﾏﾁｷﾀｸ","pref":"北海道","city":"河東郡音更町","address":"柳町北区"},
{"zip_code":"0800122","kana_pref":"ﾎｯｶｲﾄﾞｳ","kana_city":"ｶﾄｳｸﾞﾝｵﾄﾌｹﾁｮｳ","kana_address":"ﾔﾅｷﾞﾏﾁﾅｶｸ","pref":"北海道","city":"河東郡音更町","address":"柳町仲区"},
{"zip_code":"0800123","kana_pref":"ﾎｯｶｲﾄﾞｳ","kana_city":"ｶﾄｳｸﾞﾝｵﾄﾌｹﾁｮｳ","kana_address":"ﾔﾅｷﾞﾏﾁﾐﾅﾐｸ","pref":"北海道","city":"河東郡音更町","address":"柳町南区"},
{"zip_code":"0800330","kana_pref":"ﾎｯｶｲﾄﾞｳ","kana_city":"ｶﾄｳｸﾞﾝｵﾄﾌｹﾁｮｳ","kana_address":"ﾕｳﾋｶﾞｵｶ","pref":"北海道","city":"河東郡音更町","address":"雄飛が丘"},
{"zip_code":"0800332","kana_pref":"ﾎｯｶｲﾄﾞｳ","kana_city":"ｶﾄｳｸﾞﾝｵﾄﾌｹﾁｮｳ","kana_address":"ﾕｳﾋｶﾞｵｶﾅｶｸ","pref":"北海道","city":"河東郡音更町","address":"雄飛が丘仲区"},
{"zip_code":"0800333","kana_pref":"ﾎｯｶｲﾄﾞｳ","kana_city":"ｶﾄｳｸﾞﾝｵﾄﾌｹﾁｮｳ","kana_address":"ﾕｳﾋｶﾞｵｶﾐﾅﾐｸ","pref":"北海道","city":"河東郡音更町","address":"雄飛が丘南区"},
{"zip_code":"0800331","kana_pref":"ﾎｯｶｲﾄﾞｳ","kana_city":"ｶﾄｳｸﾞﾝｵﾄﾌｹﾁｮｳ","kana_address":"ﾕｳﾋｶﾞｵｶｷﾀｸ","pref":"北海道","city":"河東郡音更町","address":"雄飛が丘北区"},
{"zip_code":"0800317","kana_pref":"ﾎｯｶｲﾄﾞｳ","kana_city":"ｶﾄｳｸﾞﾝｵﾄﾌｹﾁｮｳ","kana_address":"ﾘｮｸﾖｳﾀﾞｲﾅｶｸ","pref":"北海道","city":"河東郡音更町","address":"緑陽台仲区"},
{"zip_code":"0800318","kana_pref":"ﾎｯｶｲﾄﾞｳ","kana_city":"ｶﾄｳｸﾞﾝｵﾄﾌｹﾁｮｳ","kana_address":"ﾘｮｸﾖｳﾀﾞｲﾐﾅﾐｸ","pref":"北海道","city":"河東郡音更町","address":"緑陽台南区"},
{"zip_code":"0800316","kana_pref":"ﾎｯｶｲﾄﾞｳ","kana_city":"ｶﾄｳｸﾞﾝｵﾄﾌｹﾁｮｳ","kana_address":"ﾘｮｸﾖｳﾀﾞｲｷﾀｸ","pref":"北海道","city":"河東郡音更町","address":"緑陽台北区"},
{"zip_code":"0801200","kana_pref":"ﾎｯｶｲﾄﾞｳ","kana_city":"ｶﾄｳｸﾞﾝｼﾎﾛﾁｮｳ","kana_address":"","pref":"北海道","city":"河東郡士幌町","address":""},
{"zip_code":"0801203","kana_pref":"ﾎｯｶｲﾄﾞｳ","kana_city":"ｶﾄｳｸﾞﾝｼﾎﾛﾁｮｳ","kana_address":"ｲｺｲ","pref":"北海道","city":"河東郡士幌町","address":"いこい"},
{"zip_code":"0801278","kana_pref":"ﾎｯｶｲﾄﾞｳ","kana_city":"ｶﾄｳｸﾞﾝｼﾎﾛﾁｮｳ","kana_address":"ｴｲｼﾝ","pref":"北海道","city":"河東郡士幌町","address":"栄進"},
{"zip_code":"0801223","kana_pref":"ﾎｯｶｲﾄﾞｳ","kana_city":"ｶﾄｳｸﾞﾝｼﾎﾛﾁｮｳ","kana_address":"ｵｵﾄﾞｵﾘ","pref":"北海道","city":"河東郡士幌町","address":"大通"},
{"zip_code":"0801226","kana_pref":"ﾎｯｶｲﾄﾞｳ","kana_city":"ｶﾄｳｸﾞﾝｼﾎﾛﾁｮｳ","kana_address":"ｵｵﾄﾞｵﾘﾆｼ","pref":"北海道","city":"河東郡士幌町","address":"大通西"},
{"zip_code":"0801286","kana_pref":"ﾎｯｶｲﾄﾞｳ","kana_city":"ｶﾄｳｸﾞﾝｼﾎﾛﾁｮｳ","kana_address":"ｶｲｳﾝ","pref":"北海道","city":"河東郡士幌町","address":"開運"},
{"zip_code":"0801244","kana_pref":"ﾎｯｶｲﾄﾞｳ","kana_city":"ｶﾄｳｸﾞﾝｼﾎﾛﾁｮｳ","kana_address":"ｶｼﾜ","pref":"北海道","city":"河東郡士幌町","address":"柏"},
{"zip_code":"0801248","kana_pref":"ﾎｯｶｲﾄﾞｳ","kana_city":"ｶﾄｳｸﾞﾝｼﾎﾛﾁｮｳ","kana_address":"ｶｼﾜﾉ","pref":"北海道","city":"河東郡士幌町","address":"柏野"},
{"zip_code":"0801288","kana_pref":"ﾎｯｶｲﾄﾞｳ","kana_city":"ｶﾄｳｸﾞﾝｼﾎﾛﾁｮｳ","kana_address":"ｷﾀｶﾐｵﾘﾍﾞ","pref":"北海道","city":"河東郡士幌町","address":"北上居辺"},
{"zip_code":"0801274","kana_pref":"ﾎｯｶｲﾄﾞｳ","kana_city":"ｶﾄｳｸﾞﾝｼﾎﾛﾁｮｳ","kana_address":"ｷｮｳｴｷ","pref":"北海道","city":"河東郡士幌町","address":"共益"},
{"zip_code":"0801245","kana_pref":"ﾎｯｶｲﾄﾞｳ","kana_city":"ｶﾄｳｸﾞﾝｼﾎﾛﾁｮｳ","kana_address":"ｷｮｳｾｲ","pref":"北海道","city":"河東郡士幌町","address":"共成"},
{"zip_code":"0801189","kana_pref":"ﾎｯｶｲﾄﾞｳ","kana_city":"ｶﾄｳｸﾞﾝｼﾎﾛﾁｮｳ","kana_address":"ｷｮｳﾎｳ","pref":"北海道","city":"河東郡士幌町","address":"共豊"},
{"zip_code":"0801267","kana_pref":"ﾎｯｶｲﾄﾞｳ","kana_city":"ｶﾄｳｸﾞﾝｼﾎﾛﾁｮｳ","kana_address":"ｷｮｳﾘﾂ","pref":"北海道","city":"河東郡士幌町","address":"共立"},
{"zip_code":"0801284","kana_pref":"ﾎｯｶｲﾄﾞｳ","kana_city":"ｶﾄｳｸﾞﾝｼﾎﾛﾁｮｳ","kana_address":"ｷﾖｽﾞﾐ","pref":"北海道","city":"河東郡士幌町","address":"清澄"},
{"zip_code":"0801216","kana_pref":"ﾎｯｶｲﾄﾞｳ","kana_city":"ｶﾄｳｸﾞﾝｼﾎﾛﾁｮｳ","kana_address":"ｺｳﾄｸ","pref":"北海道","city":"河東郡士幌町","address":"高徳"},
{"zip_code":"0801221","kana_pref":"ﾎｯｶｲﾄﾞｳ","kana_city":"ｶﾄｳｸﾞﾝｼﾎﾛﾁｮｳ","kana_address":"ｺﾞｼﾞｮｳ","pref":"北海道","city":"河東郡士幌町","address":"互譲"},
{"zip_code":"0801275","kana_pref":"ﾎｯｶｲﾄﾞｳ","kana_city":"ｶﾄｳｸﾞﾝｼﾎﾛﾁｮｳ","kana_address":"ｺﾏｸｻ","pref":"北海道","city":"河東郡士幌町","address":"コマクサ"},
{"zip_code":"0801256","kana_pref":"ﾎｯｶｲﾄﾞｳ","kana_city":"ｶﾄｳｸﾞﾝｼﾎﾛﾁｮｳ","kana_address":"ｻｸﾗ","pref":"北海道","city":"河東郡士幌町","address":"佐倉"},
{"zip_code":"0801189","kana_pref":"ﾎｯｶｲﾄﾞｳ","kana_city":"ｶﾄｳｸﾞﾝｼﾎﾛﾁｮｳ","kana_address":"ｼﾎﾛ","pref":"北海道","city":"河東郡士幌町","address":"士幌"},
{"zip_code":"0801253","kana_pref":"ﾎｯｶｲﾄﾞｳ","kana_city":"ｶﾄｳｸﾞﾝｼﾎﾛﾁｮｳ","kana_address":"ｼﾎﾛ","pref":"北海道","city":"河東郡士幌町","address":"士幌"},
{"zip_code":"0801246","kana_pref":"ﾎｯｶｲﾄﾞｳ","kana_city":"ｶﾄｳｸﾞﾝｼﾎﾛﾁｮｳ","kana_address":"ｼﾎﾛ","pref":"北海道","city":"河東郡士幌町","address":"士幌"},
{"zip_code":"0801254","kana_pref":"ﾎｯｶｲﾄﾞｳ","kana_city":"ｶﾄｳｸﾞﾝｼﾎﾛﾁｮｳ","kana_address":"ｼﾎﾛ","pref":"北海道","city":"河東郡士幌町","address":"士幌"},
{"zip_code":"0801285","kana_pref":"ﾎｯｶｲﾄﾞｳ","kana_city":"ｶﾄｳｸﾞﾝｼﾎﾛﾁｮｳ","kana_address":"ｼﾓｵﾘﾍﾞ","pref":"北海道","city":"河東郡士幌町","address":"下居辺"},
{"zip_code":"0801265","kana_pref":"ﾎｯｶｲﾄﾞｳ","kana_city":"ｶﾄｳｸﾞﾝｼﾎﾛﾁｮｳ","kana_address":"ｼﾝｴｲ","pref":"北海道","city":"河東郡士幌町","address":"新栄"},
{"zip_code":"0801222","kana_pref":"ﾎｯｶｲﾄﾞｳ","kana_city":"ｶﾄｳｸﾞﾝｼﾎﾛﾁｮｳ","kana_address":"ｼﾝｴﾝ","pref":"北海道","city":"河東郡士幌町","address":"神苑"},
{"zip_code":"0801255","kana_pref":"ﾎｯｶｲﾄﾞｳ","kana_city":"ｶﾄｳｸﾞﾝｼﾎﾛﾁｮｳ","kana_address":"ｼﾝｺｳ","pref":"北海道","city":"河東郡士幌町","address":"新光"},
{"zip_code":"0801251","kana_pref":"ﾎｯｶｲﾄﾞｳ","kana_city":"ｶﾄｳｸﾞﾝｼﾎﾛﾁｮｳ","kana_address":"ｼﾝｾｲ","pref":"北海道","city":"河東郡士幌町","address":"新盛"},
{"zip_code":"0801213","kana_pref":"ﾎｯｶｲﾄﾞｳ","kana_city":"ｶﾄｳｸﾞﾝｼﾎﾛﾁｮｳ","kana_address":"ｼﾝｾｲ","pref":"北海道","city":"河東郡士幌町","address":"新生"},
{"zip_code":"0801283","kana_pref":"ﾎｯｶｲﾄﾞｳ","kana_city":"ｶﾄｳｸﾞﾝｼﾎﾛﾁｮｳ","kana_address":"ﾀｶｻｺﾞ","pref":"北海道","city":"河東郡士幌町","address":"高砂"},
{"zip_code":"0801227","kana_pref":"ﾎｯｶｲﾄﾞｳ","kana_city":"ｶﾄｳｸﾞﾝｼﾎﾛﾁｮｳ","kana_address":"ﾁｭｳｵｳ","pref":"北海道","city":"河東郡士幌町","address":"中央"},
{"zip_code":"0801281","kana_pref":"ﾎｯｶｲﾄﾞｳ","kana_city":"ｶﾄｳｸﾞﾝｼﾎﾛﾁｮｳ","kana_address":"ﾁｮｳﾖｳ","pref":"北海道","city":"河東郡士幌町","address":"朝陽"},
{"zip_code":"0801189","kana_pref":"ﾎｯｶｲﾄﾞｳ","kana_city":"ｶﾄｳｸﾞﾝｼﾎﾛﾁｮｳ","kana_address":"ﾄｳﾀﾞｲ","pref":"北海道","city":"河東郡士幌町","address":"東台"},
{"zip_code":"0801262","kana_pref":"ﾎｯｶｲﾄﾞｳ","kana_city":"ｶﾄｳｸﾞﾝｼﾎﾛﾁｮｳ","kana_address":"ﾄｷﾜ","pref":"北海道","city":"河東郡士幌町","address":"常盤"},
{"zip_code":"0801189","kana_pref":"ﾎｯｶｲﾄﾞｳ","kana_city":"ｶﾄｳｸﾞﾝｼﾎﾛﾁｮｳ","kana_address":"ﾄﾐｱｷ","pref":"北海道","city":"河東郡士幌町","address":"富秋"},
{"zip_code":"0801273","kana_pref":"ﾎｯｶｲﾄﾞｳ","kana_city":"ｶﾄｳｸﾞﾝｼﾎﾛﾁｮｳ","kana_address":"ﾅｶｵﾄﾌｹ","pref":"北海道","city":"河東郡士幌町","address":"中音更"},
{"zip_code":"0801189","kana_pref":"ﾎｯｶｲﾄﾞｳ","kana_city":"ｶﾄｳｸﾞﾝｼﾎﾛﾁｮｳ","kana_address":"ﾅｶｼﾎﾛ","pref":"北海道","city":"河東郡士幌町","address":"中士幌"},
{"zip_code":"0801189","kana_pref":"ﾎｯｶｲﾄﾞｳ","kana_city":"ｶﾄｳｸﾞﾝｼﾎﾛﾁｮｳ","kana_address":"ﾅｶｼﾎﾛｶﾂﾜ","pref":"北海道","city":"河東郡士幌町","address":"中士幌勝和"},
{"zip_code":"0801189","kana_pref":"ﾎｯｶｲﾄﾞｳ","kana_city":"ｶﾄｳｸﾞﾝｼﾎﾛﾁｮｳ","kana_address":"ﾅｶｼﾎﾛｷﾀ","pref":"北海道","city":"河東郡士幌町","address":"中士幌北"},
{"zip_code":"0801189","kana_pref":"ﾎｯｶｲﾄﾞｳ","kana_city":"ｶﾄｳｸﾞﾝｼﾎﾛﾁｮｳ","kana_address":"ﾅｶｼﾎﾛｷﾀﾀﾞﾝﾁ","pref":"北海道","city":"河東郡士幌町","address":"中士幌北団地"},
{"zip_code":"0801189","kana_pref":"ﾎｯｶｲﾄﾞｳ","kana_city":"ｶﾄｳｸﾞﾝｼﾎﾛﾁｮｳ","kana_address":"ﾅｶｼﾎﾛｷｮｳｼﾝ","pref":"北海道","city":"河東郡士幌町","address":"中士幌共進"},
{"zip_code":"0801189","kana_pref":"ﾎｯｶｲﾄﾞｳ","kana_city":"ｶﾄｳｸﾞﾝｼﾎﾛﾁｮｳ","kana_address":"ﾅｶｼﾎﾛｼﾝﾋｶﾞｼﾀﾞﾝﾁ","pref":"北海道","city":"河東郡士幌町","address":"中士幌新東団地"},
{"zip_code":"0801189","kana_pref":"ﾎｯｶｲﾄﾞｳ","kana_city":"ｶﾄｳｸﾞﾝｼﾎﾛﾁｮｳ","kana_address":"ﾅｶｼﾎﾛｼﾝﾐﾅﾐ","pref":"北海道","city":"河東郡士幌町","address":"中士幌新南"},
{"zip_code":"0801189","kana_pref":"ﾎｯｶｲﾄﾞｳ","kana_city":"ｶﾄｳｸﾞﾝｼﾎﾛﾁｮｳ","kana_address":"ﾅｶｼﾎﾛﾆｼ","pref":"北海道","city":"河東郡士幌町","address":"中士幌西"},
{"zip_code":"0801189","kana_pref":"ﾎｯｶｲﾄﾞｳ","kana_city":"ｶﾄｳｸﾞﾝｼﾎﾛﾁｮｳ","kana_address":"ﾅｶｼﾎﾛﾋｶﾞｼﾀﾞﾝﾁ","pref":"北海道","city":"河東郡士幌町","address":"中士幌東団地"},
{"zip_code":"0801189","kana_pref":"ﾎｯｶｲﾄﾞｳ","kana_city":"ｶﾄｳｸﾞﾝｼﾎﾛﾁｮｳ","kana_address":"ﾅｶｼﾎﾛﾌﾞﾝｶ","pref":"北海道","city":"河東郡士幌町","address":"中士幌文化"},
{"zip_code":"0801189","kana_pref":"ﾎｯｶｲﾄﾞｳ","kana_city":"ｶﾄｳｸﾞﾝｼﾎﾛﾁｮｳ","kana_address":"ﾅｶｼﾎﾛﾎｳｼﾝ","pref":"北海道","city":"河東郡士幌町","address":"中士幌豊進"},
{"zip_code":"0801189","kana_pref":"ﾎｯｶｲﾄﾞｳ","kana_city":"ｶﾄｳｸﾞﾝｼﾎﾛﾁｮｳ","kana_address":"ﾅｶｼﾎﾛﾐﾅﾐ","pref":"北海道","city":"河東郡士幌町","address":"中士幌南"},
{"zip_code":"0801189","kana_pref":"ﾎｯｶｲﾄﾞｳ","kana_city":"ｶﾄｳｸﾞﾝｼﾎﾛﾁｮｳ","kana_address":"ﾅｶｼﾎﾛﾒｲｾｲ","pref":"北海道","city":"河東郡士幌町","address":"中士幌明生"},
{"zip_code":"0801215","kana_pref":"ﾎｯｶｲﾄﾞｳ","kana_city":"ｶﾄｳｸﾞﾝｼﾎﾛﾁｮｳ","kana_address":"ﾅｶﾄﾞｵﾘ","pref":"北海道","city":"河東郡士幌町","address":"仲通"},
{"zip_code":"0801243","kana_pref":"ﾎｯｶｲﾄﾞｳ","kana_city":"ｶﾄｳｸﾞﾝｼﾎﾛﾁｮｳ","kana_address":"ﾆｼｵﾘﾍﾞ","pref":"北海道","city":"河東郡士幌町","address":"西居辺"},
{"zip_code":"0801241","kana_pref":"ﾎｯｶｲﾄﾞｳ","kana_city":"ｶﾄｳｸﾞﾝｼﾎﾛﾁｮｳ","kana_address":"ﾆｼｵﾘﾍﾞｷﾀ","pref":"北海道","city":"河東郡士幌町","address":"西居辺北"},
{"zip_code":"0801271","kana_pref":"ﾎｯｶｲﾄﾞｳ","kana_city":"ｶﾄｳｸﾞﾝｼﾎﾛﾁｮｳ","kana_address":"ﾆｼｶﾐ","pref":"北海道","city":"河東郡士幌町","address":"西上"},
{"zip_code":"0801261","kana_pref":"ﾎｯｶｲﾄﾞｳ","kana_city":"ｶﾄｳｸﾞﾝｼﾎﾛﾁｮｳ","kana_address":"ﾆｼｼﾎﾛ","pref":"北海道","city":"河東郡士幌町","address":"西士幌"},
{"zip_code":"0801264","kana_pref":"ﾎｯｶｲﾄﾞｳ","kana_city":"ｶﾄｳｸﾞﾝｼﾎﾛﾁｮｳ","kana_address":"ﾆｼﾖｼﾉ","pref":"北海道","city":"河東郡士幌町","address":"西吉野"},
{"zip_code":"0801266","kana_pref":"ﾎｯｶｲﾄﾞｳ","kana_city":"ｶﾄｳｸﾞﾝｼﾎﾛﾁｮｳ","kana_address":"ﾆﾂﾀ","pref":"北海道","city":"河東郡士幌町","address":"新田"},
{"zip_code":"0801276","kana_pref":"ﾎｯｶｲﾄﾞｳ","kana_city":"ｶﾄｳｸﾞﾝｼﾎﾛﾁｮｳ","kana_address":"ﾆｯﾀﾀﾞｲｲﾁ","pref":"北海道","city":"河東郡士幌町","address":"新田第一"},
{"zip_code":"0801277","kana_pref":"ﾎｯｶｲﾄﾞｳ","kana_city":"ｶﾄｳｸﾞﾝｼﾎﾛﾁｮｳ","kana_address":"ﾆｯﾀﾀﾞｲﾆ","pref":"北海道","city":"河東郡士幌町","address":"新田第二"},
{"zip_code":"0801224","kana_pref":"ﾎｯｶｲﾄﾞｳ","kana_city":"ｶﾄｳｸﾞﾝｼﾎﾛﾁｮｳ","kana_address":"ﾊｸﾖｳ","pref":"北海道","city":"河東郡士幌町","address":"柏葉"},
{"zip_code":"0801272","kana_pref":"ﾎｯｶｲﾄﾞｳ","kana_city":"ｶﾄｳｸﾞﾝｼﾎﾛﾁｮｳ","kana_address":"ﾋｬｯｺ","pref":"北海道","city":"河東郡士幌町","address":"百戸"},
{"zip_code":"0801257","kana_pref":"ﾎｯｶｲﾄﾞｳ","kana_city":"ｶﾄｳｸﾞﾝｼﾎﾛﾁｮｳ","kana_address":"ﾌﾀﾊﾞ","pref":"北海道","city":"河東郡士幌町","address":"双葉"},
{"zip_code":"0801202","kana_pref":"ﾎｯｶｲﾄﾞｳ","kana_city":"ｶﾄｳｸﾞﾝｼﾎﾛﾁｮｳ","kana_address":"ﾍｲｹﾞﾝ","pref":"北海道","city":"河東郡士幌町","address":"平原"},
{"zip_code":"0801201","kana_pref":"ﾎｯｶｲﾄﾞｳ","kana_city":"ｶﾄｳｸﾞﾝｼﾎﾛﾁｮｳ","kana_address":"ﾍｲｹﾞﾝﾀﾞｲｲﾁ","pref":"北海道","city":"河東郡士幌町","address":"平原第一"},
{"zip_code":"0801247","kana_pref":"ﾎｯｶｲﾄﾞｳ","kana_city":"ｶﾄｳｸﾞﾝｼﾎﾛﾁｮｳ","kana_address":"ﾍｲﾜ","pref":"北海道","city":"河東郡士幌町","address":"平和"},
{"zip_code":"0801252","kana_pref":"ﾎｯｶｲﾄﾞｳ","kana_city":"ｶﾄｳｸﾞﾝｼﾎﾛﾁｮｳ","kana_address":"ﾎｳﾈﾝ","pref":"北海道","city":"河東郡士幌町","address":"豊年"},
{"zip_code":"0801287","kana_pref":"ﾎｯｶｲﾄﾞｳ","kana_city":"ｶﾄｳｸﾞﾝｼﾎﾛﾁｮｳ","kana_address":"ﾎｯｶｲ","pref":"北海道","city":"河東郡士幌町","address":"北開"},
{"zip_code":"0801214","kana_pref":"ﾎｯｶｲﾄﾞｳ","kana_city":"ｶﾄｳｸﾞﾝｼﾎﾛﾁｮｳ","kana_address":"ﾎﾝﾄﾞｵﾘ","pref":"北海道","city":"河東郡士幌町","address":"本通"},
{"zip_code":"0801204","kana_pref":"ﾎｯｶｲﾄﾞｳ","kana_city":"ｶﾄｳｸﾞﾝｼﾎﾛﾁｮｳ","kana_address":"ﾏﾂﾅﾐ","pref":"北海道","city":"河東郡士幌町","address":"松並"},
{"zip_code":"0801242","kana_pref":"ﾎｯｶｲﾄﾞｳ","kana_city":"ｶﾄｳｸﾞﾝｼﾎﾛﾁｮｳ","kana_address":"ﾏﾂﾑﾛ","pref":"北海道","city":"河東郡士幌町","address":"松室"},
{"zip_code":"0801236","kana_pref":"ﾎｯｶｲﾄﾞｳ","kana_city":"ｶﾄｳｸﾞﾝｼﾎﾛﾁｮｳ","kana_address":"ﾐｿﾉ","pref":"北海道","city":"河東郡士幌町","address":"美園"},
{"zip_code":"0801225","kana_pref":"ﾎｯｶｲﾄﾞｳ","kana_city":"ｶﾄｳｸﾞﾝｼﾎﾛﾁｮｳ","kana_address":"ﾐﾄﾞﾘ","pref":"北海道","city":"河東郡士幌町","address":"みどり"},
{"zip_code":"0801234","kana_pref":"ﾎｯｶｲﾄﾞｳ","kana_city":"ｶﾄｳｸﾞﾝｼﾎﾛﾁｮｳ","kana_address":"ﾐﾅﾐﾀﾞﾝﾁ","pref":"北海道","city":"河東郡士幌町","address":"南団地"},
{"zip_code":"0801231","kana_pref":"ﾎｯｶｲﾄﾞｳ","kana_city":"ｶﾄｳｸﾞﾝｼﾎﾛﾁｮｳ","kana_address":"ﾑﾂﾐ","pref":"北海道","city":"河東郡士幌町","address":"睦"},
{"zip_code":"0801232","kana_pref":"ﾎｯｶｲﾄﾞｳ","kana_city":"ｶﾄｳｸﾞﾝｼﾎﾛﾁｮｳ","kana_address":"ﾑﾂﾐﾆｼ","pref":"北海道","city":"河東郡士幌町","address":"睦西"},
{"zip_code":"0801233","kana_pref":"ﾎｯｶｲﾄﾞｳ","kana_city":"ｶﾄｳｸﾞﾝｼﾎﾛﾁｮｳ","kana_address":"ﾑﾂﾐﾐﾅﾐ","pref":"北海道","city":"河東郡士幌町","address":"睦南"},
{"zip_code":"0801282","kana_pref":"ﾎｯｶｲﾄﾞｳ","kana_city":"ｶﾄｳｸﾞﾝｼﾎﾛﾁｮｳ","kana_address":"ﾕｳｱｲ","pref":"北海道","city":"河東郡士幌町","address":"友愛"},
{"zip_code":"0801263","kana_pref":"ﾎｯｶｲﾄﾞｳ","kana_city":"ｶﾄｳｸﾞﾝｼﾎﾛﾁｮｳ","kana_address":"ﾖｼﾉ","pref":"北海道","city":"河東郡士幌町","address":"吉野"},
{"zip_code":"0801235","kana_pref":"ﾎｯｶｲﾄﾞｳ","kana_city":"ｶﾄｳｸﾞﾝｼﾎﾛﾁｮｳ","kana_address":"ﾘｮｸｺｳ","pref":"北海道","city":"河東郡士幌町","address":"緑光"},
{"zip_code":"0801217","kana_pref":"ﾎｯｶｲﾄﾞｳ","kana_city":"ｶﾄｳｸﾞﾝｼﾎﾛﾁｮｳ","kana_address":"ﾜｶﾊﾞ","pref":"北海道","city":"河東郡士幌町","address":"若葉"},
{"zip_code":"0801211","kana_pref":"ﾎｯｶｲﾄﾞｳ","kana_city":"ｶﾄｳｸﾞﾝｼﾎﾛﾁｮｳ","kana_address":"ﾜｶﾊﾞﾀﾞｲｲﾁ","pref":"北海道","city":"河東郡士幌町","address":"若葉第一"},
{"zip_code":"0801212","kana_pref":"ﾎｯｶｲﾄﾞｳ","kana_city":"ｶﾄｳｸﾞﾝｼﾎﾛﾁｮｳ","kana_address":"ﾜｶﾊﾞﾋｶﾞｼ","pref":"北海道","city":"河東郡士幌町","address":"若葉東"},
{"zip_code":"0801400","kana_pref":"ﾎｯｶｲﾄﾞｳ","kana_city":"ｶﾄｳｸﾞﾝｶﾐｼﾎﾛﾁｮｳ","kana_address":"","pref":"北海道","city":"河東郡上士幌町","address":""},
{"zip_code":"0801406","kana_pref":"ﾎｯｶｲﾄﾞｳ","kana_city":"ｶﾄｳｸﾞﾝｶﾐｼﾎﾛﾁｮｳ","kana_address":"ｵﾘﾍﾞ","pref":"北海道","city":"河東郡上士幌町","address":"居辺"},
{"zip_code":"0801407","kana_pref":"ﾎｯｶｲﾄﾞｳ","kana_city":"ｶﾄｳｸﾞﾝｶﾐｼﾎﾛﾁｮｳ","kana_address":"ｶﾐｵﾄﾌｹ","pref":"北海道","city":"河東郡上士幌町","address":"上音更"},
{"zip_code":"0801408","kana_pref":"ﾎｯｶｲﾄﾞｳ","kana_city":"ｶﾄｳｸﾞﾝｶﾐｼﾎﾛﾁｮｳ","kana_address":"ｶﾐｼﾎﾛ","pref":"北海道","city":"河東郡上士幌町","address":"上士幌"},
{"zip_code":"0801404","kana_pref":"ﾎｯｶｲﾄﾞｳ","kana_city":"ｶﾄｳｸﾞﾝｶﾐｼﾎﾛﾁｮｳ","kana_address":"ｸﾛｲｼﾀﾞｲﾗ","pref":"北海道","city":"河東郡上士幌町","address":"黒石平"},
{"zip_code":"0801405","kana_pref":"ﾎｯｶｲﾄﾞｳ","kana_city":"ｶﾄｳｸﾞﾝｶﾐｼﾎﾛﾁｮｳ","kana_address":"ｼﾐｽﾞﾀﾞﾆ","pref":"北海道","city":"河東郡上士幌町","address":"清水谷"},
{"zip_code":"0801403","kana_pref":"ﾎｯｶｲﾄﾞｳ","kana_city":"ｶﾄｳｸﾞﾝｶﾐｼﾎﾛﾁｮｳ","kana_address":"ﾇｶﾋﾞﾗｹﾞﾝｾﾝｷｮｳ","pref":"北海道","city":"河東郡上士幌町","address":"ぬかびら源泉郷"},
{"zip_code":"0801402","kana_pref":"ﾎｯｶｲﾄﾞｳ","kana_city":"ｶﾄｳｸﾞﾝｶﾐｼﾎﾛﾁｮｳ","kana_address":"ﾎﾛｶ","pref":"北海道","city":"河東郡上士幌町","address":"幌加"},
{"zip_code":"0801401","kana_pref":"ﾎｯｶｲﾄﾞｳ","kana_city":"ｶﾄｳｸﾞﾝｶﾐｼﾎﾛﾁｮｳ","kana_address":"ﾐﾂﾏﾀ","pref":"北海道","city":"河東郡上士幌町","address":"三股"}]}