{"zip_code":[
{"zip_code":"0810200","kana_pref":"ﾎｯｶｲﾄﾞｳ","kana_city":"ｶﾄｳｸﾞﾝｼｶｵｲﾁｮｳ","kana_address":"","pref":"北海道","city":"河東郡鹿追町","address":""},
{"zip_code":"0810212","kana_pref":"ﾎｯｶｲﾄﾞｳ","kana_city":"ｶﾄｳｸﾞﾝｼｶｵｲﾁｮｳ","kana_address":"ｲｽﾞﾐﾏﾁ","pref":"北海道","city":"河東郡鹿追町","address":"泉町"},
{"zip_code":"0810342","kana_pref":"ﾎｯｶｲﾄﾞｳ","kana_city":"ｶﾄｳｸﾞﾝｼｶｵｲﾁｮｳ","kana_address":"ｳﾘﾏｸﾋｶﾞｼ","pref":"北海道","city":"河東郡鹿追町","address":"瓜幕東"},
{"zip_code":"0810341","kana_pref":"ﾎｯｶｲﾄﾞｳ","kana_city":"ｶﾄｳｸﾞﾝｼｶｵｲﾁｮｳ","kana_address":"ｳﾘﾏｸﾆｼ","pref":"北海道","city":"河東郡鹿追町","address":"瓜幕西"},
{"zip_code":"0810343","kana_pref":"ﾎｯｶｲﾄﾞｳ","kana_city":"ｶﾄｳｸﾞﾝｼｶｵｲﾁｮｳ","kana_address":"ｳﾘﾏｸﾐﾅﾐ","pref":"北海道","city":"河東郡鹿追町","address":"瓜幕南"},
{"zip_code":"0810225","kana_pref":"ﾎｯｶｲﾄﾞｳ","kana_city":"ｶﾄｳｸﾞﾝｼｶｵｲﾁｮｳ","kana_address":"ｶｼﾜｶﾞｵｶ","pref":"北海道","city":"河東郡鹿追町","address":"柏ケ丘"},
{"zip_code":"0810218","kana_pref":"ﾎｯｶｲﾄﾞｳ","kana_city":"ｶﾄｳｸﾞﾝｼｶｵｲﾁｮｳ","kana_address":"ｶﾐｼｶﾘﾍﾞﾂﾆｼ","pref":"北海道","city":"河東郡鹿追町","address":"上然別西"},
{"zip_code":"0810226","kana_pref":"ﾎｯｶｲﾄﾞｳ","kana_city":"ｶﾄｳｸﾞﾝｼｶｵｲﾁｮｳ","kana_address":"ｶﾐﾎﾛﾅｲ","pref":"北海道","city":"河東郡鹿追町","address":"上幌内"},
{"zip_code":"0810344","kana_pref":"ﾎｯｶｲﾄﾞｳ","kana_city":"ｶﾄｳｸﾞﾝｼｶｵｲﾁｮｳ","kana_address":"ｷﾀｳﾘﾏｸ","pref":"北海道","city":"河東郡鹿追町","address":"北瓜幕"},
{"zip_code":"0810214","kana_pref":"ﾎｯｶｲﾄﾞｳ","kana_city":"ｶﾄｳｸﾞﾝｼｶｵｲﾁｮｳ","kana_address":"ｷﾀｼｶｵｲｷﾀ","pref":"北海道","city":"河東郡鹿追町","address":"北鹿追北"},
{"zip_code":"0810202","kana_pref":"ﾎｯｶｲﾄﾞｳ","kana_city":"ｶﾄｳｸﾞﾝｼｶｵｲﾁｮｳ","kana_address":"ｷﾀﾏﾁ","pref":"北海道","city":"河東郡鹿追町","address":"北町"},
{"zip_code":"0810221","kana_pref":"ﾎｯｶｲﾄﾞｳ","kana_city":"ｶﾄｳｸﾞﾝｼｶｵｲﾁｮｳ","kana_address":"ｻｶｴﾏﾁ","pref":"北海道","city":"河東郡鹿追町","address":"栄町"},
{"zip_code":"0810204","kana_pref":"ﾎｯｶｲﾄﾞｳ","kana_city":"ｶﾄｳｸﾞﾝｼｶｵｲﾁｮｳ","kana_address":"ｻｻｶﾞﾜｷﾀ","pref":"北海道","city":"河東郡鹿追町","address":"笹川北"},
{"zip_code":"0810217","kana_pref":"ﾎｯｶｲﾄﾞｳ","kana_city":"ｶﾄｳｸﾞﾝｼｶｵｲﾁｮｳ","kana_address":"ｼｶｵｲｷｾﾝ","pref":"北海道","city":"河東郡鹿追町","address":"鹿追基線"},
{"zip_code":"0810215","kana_pref":"ﾎｯｶｲﾄﾞｳ","kana_city":"ｶﾄｳｸﾞﾝｼｶｵｲﾁｮｳ","kana_address":"ｼｶｵｲﾐﾅﾐ","pref":"北海道","city":"河東郡鹿追町","address":"鹿追南"},
{"zip_code":"0810216","kana_pref":"ﾎｯｶｲﾄﾞｳ","kana_city":"ｶﾄｳｸﾞﾝｼｶｵｲﾁｮｳ","kana_address":"ｼｶｵｲｷﾀ","pref":"北海道","city":"河東郡鹿追町","address":"鹿追北"},
{"zip_code":"0810201","kana_pref":"ﾎｯｶｲﾄﾞｳ","kana_city":"ｶﾄｳｸﾞﾝｼｶｵｲﾁｮｳ","kana_address":"ｼﾝﾏﾁ","pref":"北海道","city":"河東郡鹿追町","address":"新町"},
{"zip_code":"0810345","kana_pref":"ﾎｯｶｲﾄﾞｳ","kana_city":"ｶﾄｳｸﾞﾝｼｶｵｲﾁｮｳ","kana_address":"ﾅｶｳﾘﾏｸﾆｼ","pref":"北海道","city":"河東郡鹿追町","address":"中瓜幕西"},
{"zip_code":"0810211","kana_pref":"ﾎｯｶｲﾄﾞｳ","kana_city":"ｶﾄｳｸﾞﾝｼｶｵｲﾁｮｳ","kana_address":"ﾅｶﾏﾁ","pref":"北海道","city":"河東郡鹿追町","address":"仲町"},
{"zip_code":"0810205","kana_pref":"ﾎｯｶｲﾄﾞｳ","kana_city":"ｶﾄｳｸﾞﾝｼｶｵｲﾁｮｳ","kana_address":"ﾆｼｻｻｶﾞﾜ","pref":"北海道","city":"河東郡鹿追町","address":"西笹川"},
{"zip_code":"0810213","kana_pref":"ﾎｯｶｲﾄﾞｳ","kana_city":"ｶﾄｳｸﾞﾝｼｶｵｲﾁｮｳ","kana_address":"ﾆｼﾏﾁ","pref":"北海道","city":"河東郡鹿追町","address":"西町"},
{"zip_code":"0810346","kana_pref":"ﾎｯｶｲﾄﾞｳ","kana_city":"ｶﾄｳｸﾞﾝｼｶｵｲﾁｮｳ","kana_address":"ﾋｶﾞｼｳﾘﾏｸﾆｼ","pref":"北海道","city":"河東郡鹿追町","address":"東瓜幕西"},
{"zip_code":"0810222","kana_pref":"ﾎｯｶｲﾄﾞｳ","kana_city":"ｶﾄｳｸﾞﾝｼｶｵｲﾁｮｳ","kana_address":"ﾋｶﾞｼﾏﾁ","pref":"北海道","city":"河東郡鹿追町","address":"東町"},
{"zip_code":"0810228","kana_pref":"ﾎｯｶｲﾄﾞｳ","kana_city":"ｶﾄｳｸﾞﾝｼｶｵｲﾁｮｳ","kana_address":"ﾋﾞﾏﾝﾆｼ","pref":"北海道","city":"河東郡鹿追町","address":"美蔓西"},
{"zip_code":"0810227","kana_pref":"ﾎｯｶｲﾄﾞｳ","kana_city":"ｶﾄｳｸﾞﾝｼｶｵｲﾁｮｳ","kana_address":"ﾎﾛﾅｲﾆｼ","pref":"北海道","city":"河東郡鹿追町","address":"幌内西"},
{"zip_code":"0810203","kana_pref":"ﾎｯｶｲﾄﾞｳ","kana_city":"ｶﾄｳｸﾞﾝｼｶｵｲﾁｮｳ","kana_address":"ﾐﾄﾞﾘﾏﾁ","pref":"北海道","city":"河東郡鹿追町","address":"緑町"},
{"zip_code":"0810223","kana_pref":"ﾎｯｶｲﾄﾞｳ","kana_city":"ｶﾄｳｸﾞﾝｼｶｵｲﾁｮｳ","kana_address":"ﾐﾅﾐﾏﾁ","pref":"北海道","city":"河東郡鹿追町","address":"南町"},
{"zip_code":"0810224","kana_pref":"ﾎｯｶｲﾄﾞｳ","kana_city":"ｶﾄｳｸﾞﾝｼｶｵｲﾁｮｳ","kana_address":"ﾓﾄﾏﾁ","pref":"北海道","city":"河東郡鹿追町","address":"元町"},
{"zip_code":"0810000","kana_pref":"ﾎｯｶｲﾄﾞｳ","kana_city":"ｶﾐｶﾜｸﾞﾝｼﾝﾄｸﾁｮｳ","kana_address":"","pref":"北海道","city":"上川郡新得町","address":""},
{"zip_code":"0810035","kana_pref":"ﾎｯｶｲﾄﾞｳ","kana_city":"ｶﾐｶﾜｸﾞﾝｼﾝﾄｸﾁｮｳ","kana_address":"ｶﾐｻﾎﾛ","pref":"北海道","city":"上川郡新得町","address":"上佐幌"},
{"zip_code":"0810154","kana_pref":"ﾎｯｶｲﾄﾞｳ","kana_city":"ｶﾐｶﾜｸﾞﾝｼﾝﾄｸﾁｮｳ","kana_address":"ｸｯﾀﾘ","pref":"北海道","city":"上川郡新得町","address":"屈足"},
{"zip_code":"0810151","kana_pref":"ﾎｯｶｲﾄﾞｳ","kana_city":"ｶﾐｶﾜｸﾞﾝｼﾝﾄｸﾁｮｳ","kana_address":"ｸｯﾀﾘｱｻﾋﾏﾁ","pref":"北海道","city":"上川郡新得町","address":"屈足旭町"},
{"zip_code":"0810152","kana_pref":"ﾎｯｶｲﾄﾞｳ","kana_city":"ｶﾐｶﾜｸﾞﾝｼﾝﾄｸﾁｮｳ","kana_address":"ｸｯﾀﾘｱｻﾋﾏﾁﾋｶﾞｼ","pref":"北海道","city":"上川郡新得町","address":"屈足旭町東"},
{"zip_code":"0810161","kana_pref":"ﾎｯｶｲﾄﾞｳ","kana_city":"ｶﾐｶﾜｸﾞﾝｼﾝﾄｸﾁｮｳ","kana_address":"ｸｯﾀﾘｶｼﾜﾏﾁ","pref":"北海道","city":"上川郡新得町","address":"屈足柏町"},
{"zip_code":"0810162","kana_pref":"ﾎｯｶｲﾄﾞｳ","kana_city":"ｶﾐｶﾜｸﾞﾝｼﾝﾄｸﾁｮｳ","kana_address":"ｸｯﾀﾘｶｼﾜﾏﾁﾋｶﾞｼ","pref":"北海道","city":"上川郡新得町","address":"屈足柏町東"},
{"zip_code":"0810155","kana_pref":"ﾎｯｶｲﾄﾞｳ","kana_city":"ｶﾐｶﾜｸﾞﾝｼﾝﾄｸﾁｮｳ","kana_address":"ｸｯﾀﾘｻｲﾜｲﾏﾁ","pref":"北海道","city":"上川郡新得町","address":"屈足幸町"},
{"zip_code":"0810156","kana_pref":"ﾎｯｶｲﾄﾞｳ","kana_city":"ｶﾐｶﾜｸﾞﾝｼﾝﾄｸﾁｮｳ","kana_address":"ｸｯﾀﾘｻｲﾜｲﾏﾁﾆｼ","pref":"北海道","city":"上川郡新得町","address":"屈足幸町西"},
{"zip_code":"0810163","kana_pref":"ﾎｯｶｲﾄﾞｳ","kana_city":"ｶﾐｶﾜｸﾞﾝｼﾝﾄｸﾁｮｳ","kana_address":"ｸｯﾀﾘﾐﾄﾞﾘﾏﾁ","pref":"北海道","city":"上川郡新得町","address":"屈足緑町"},
{"zip_code":"0810164","kana_pref":"ﾎｯｶｲﾄﾞｳ","kana_city":"ｶﾐｶﾜｸﾞﾝｼﾝﾄｸﾁｮｳ","kana_address":"ｸｯﾀﾘﾐﾄﾞﾘﾏﾁﾆｼ","pref":"北海道","city":"上川郡新得町","address":"屈足緑町西"},
{"zip_code":"0810153","kana_pref":"ﾎｯｶｲﾄﾞｳ","kana_city":"ｶﾐｶﾜｸﾞﾝｼﾝﾄｸﾁｮｳ","kana_address":"ｸｯﾀﾘﾐﾅﾐﾏﾁ","pref":"北海道","city":"上川郡新得町","address":"屈足南町"},
{"zip_code":"0810006","kana_pref":"ﾎｯｶｲﾄﾞｳ","kana_city":"ｶﾐｶﾜｸﾞﾝｼﾝﾄｸﾁｮｳ","kana_address":"ｻｶｴﾏﾁ","pref":"北海道","city":"上川郡新得町","address":"栄町"},
{"zip_code":"0810036","kana_pref":"ﾎｯｶｲﾄﾞｳ","kana_city":"ｶﾐｶﾜｸﾞﾝｼﾝﾄｸﾁｮｳ","kana_address":"ｼﾓｻﾎﾛ","pref":"北海道","city":"上川郡新得町","address":"下佐幌"},
{"zip_code":"0810038","kana_pref":"ﾎｯｶｲﾄﾞｳ","kana_city":"ｶﾐｶﾜｸﾞﾝｼﾝﾄｸﾁｮｳ","kana_address":"ｼﾝﾄｸ","pref":"北海道","city":"上川郡新得町","address":"新得"},
{"zip_code":"0810037","kana_pref":"ﾎｯｶｲﾄﾞｳ","kana_city":"ｶﾐｶﾜｸﾞﾝｼﾝﾄｸﾁｮｳ","kana_address":"ﾀｸﾃﾂ","pref":"北海道","city":"上川郡新得町","address":"拓鉄"},
{"zip_code":"0810039","kana_pref":"ﾎｯｶｲﾄﾞｳ","kana_city":"ｶﾐｶﾜｸﾞﾝｼﾝﾄｸﾁｮｳ","kana_address":"ﾆｲﾅｲ","pref":"北海道","city":"上川郡新得町","address":"新内"},
{"zip_code":"0810031","kana_pref":"ﾎｯｶｲﾄﾞｳ","kana_city":"ｶﾐｶﾜｸﾞﾝｼﾝﾄｸﾁｮｳ","kana_address":"ﾆｼ1ｼﾞｮｳﾐﾅﾐ","pref":"北海道","city":"上川郡新得町","address":"西一条南"},
{"zip_code":"0810021","kana_pref":"ﾎｯｶｲﾄﾞｳ","kana_city":"ｶﾐｶﾜｸﾞﾝｼﾝﾄｸﾁｮｳ","kana_address":"ﾆｼ1ｼﾞｮｳｷﾀ","pref":"北海道","city":"上川郡新得町","address":"西一条北"},
{"zip_code":"0810032","kana_pref":"ﾎｯｶｲﾄﾞｳ","kana_city":"ｶﾐｶﾜｸﾞﾝｼﾝﾄｸﾁｮｳ","kana_address":"ﾆｼ2ｼﾞｮｳﾐﾅﾐ","pref":"北海道","city":"上川郡新得町","address":"西二条南"},
{"zip_code":"0810022","kana_pref":"ﾎｯｶｲﾄﾞｳ","kana_city":"ｶﾐｶﾜｸﾞﾝｼﾝﾄｸﾁｮｳ","kana_address":"ﾆｼ2ｼﾞｮｳｷﾀ","pref":"北海道","city":"上川郡新得町","address":"西二条北"},
{"zip_code":"0810033","kana_pref":"ﾎｯｶｲﾄﾞｳ","kana_city":"ｶﾐｶﾜｸﾞﾝｼﾝﾄｸﾁｮｳ","kana_address":"ﾆｼ3ｼﾞｮｳﾐﾅﾐ","pref":"北海道","city":"上川郡新得町","address":"西三条南"},
{"zip_code":"0810023","kana_pref":"ﾎｯｶｲﾄﾞｳ","kana_city":"ｶﾐｶﾜｸﾞﾝｼﾝﾄｸﾁｮｳ","kana_address":"ﾆｼ3ｼﾞｮｳｷﾀ","pref":"北海道","city":"上川郡新得町","address":"西三条北"},
{"zip_code":"0810034","kana_pref":"ﾎｯｶｲﾄﾞｳ","kana_city":"ｶﾐｶﾜｸﾞﾝｼﾝﾄｸﾁｮｳ","kana_address":"ﾆｼ4ｼﾞｮｳﾐﾅﾐ","pref":"北海道","city":"上川郡新得町","address":"西四条南"},
{"zip_code":"0810008","kana_pref":"ﾎｯｶｲﾄﾞｳ","kana_city":"ｶﾐｶﾜｸﾞﾝｼﾝﾄｸﾁｮｳ","kana_address":"ﾎﾝﾄﾞｵﾘﾐﾅﾐ","pref":"北海道","city":"上川郡新得町","address":"本通南"},
{"zip_code":"0810005","kana_pref":"ﾎｯｶｲﾄﾞｳ","kana_city":"ｶﾐｶﾜｸﾞﾝｼﾝﾄｸﾁｮｳ","kana_address":"ﾎﾝﾄﾞｵﾘｷﾀ","pref":"北海道","city":"上川郡新得町","address":"本通北"},
{"zip_code":"0810007","kana_pref":"ﾎｯｶｲﾄﾞｳ","kana_city":"ｶﾐｶﾜｸﾞﾝｼﾝﾄｸﾁｮｳ","kana_address":"ﾓﾄﾏﾁ","pref":"北海道","city":"上川郡新得町","address":"元町"},
{"zip_code":"0810011","kana_pref":"ﾎｯｶｲﾄﾞｳ","kana_city":"ｶﾐｶﾜｸﾞﾝｼﾝﾄｸﾁｮｳ","kana_address":"1ｼﾞｮｳﾐﾅﾐ","pref":"北海道","city":"上川郡新得町","address":"一条南"},
{"zip_code":"0810001","kana_pref":"ﾎｯｶｲﾄﾞｳ","kana_city":"ｶﾐｶﾜｸﾞﾝｼﾝﾄｸﾁｮｳ","kana_address":"1ｼﾞｮｳｷﾀ","pref":"北海道","city":"上川郡新得町","address":"一条北"},
{"zip_code":"0810012","kana_pref":"ﾎｯｶｲﾄﾞｳ","kana_city":"ｶﾐｶﾜｸﾞﾝｼﾝﾄｸﾁｮｳ","kana_address":"2ｼﾞｮｳﾐﾅﾐ","pref":"北海道","city":"上川郡新得町","address":"二条南"},
{"zip_code":"0810002","kana_pref":"ﾎｯｶｲﾄﾞｳ","kana_city":"ｶﾐｶﾜｸﾞﾝｼﾝﾄｸﾁｮｳ","kana_address":"2ｼﾞｮｳｷﾀ","pref":"北海道","city":"上川郡新得町","address":"二条北"},
{"zip_code":"0810013","kana_pref":"ﾎｯｶｲﾄﾞｳ","kana_city":"ｶﾐｶﾜｸﾞﾝｼﾝﾄｸﾁｮｳ","kana_address":"3ｼﾞｮｳﾐﾅﾐ","pref":"北海道","city":"上川郡新得町","address":"三条南"},
{"zip_code":"0810003","kana_pref":"ﾎｯｶｲﾄﾞｳ","kana_city":"ｶﾐｶﾜｸﾞﾝｼﾝﾄｸﾁｮｳ","kana_address":"3ｼﾞｮｳｷﾀ","pref":"北海道","city":"上川郡新得町","address":"三条北"},
{"zip_code":"0810014","kana_pref":"ﾎｯｶｲﾄﾞｳ","kana_city":"ｶﾐｶﾜｸﾞﾝｼﾝﾄｸﾁｮｳ","kana_address":"4ｼﾞｮｳﾐﾅﾐ","pref":"北海道","city":"上川郡新得町","address":"四条南"},
{"zip_code":"0810015","kana_pref":"ﾎｯｶｲﾄﾞｳ","kana_city":"ｶﾐｶﾜｸﾞﾝｼﾝﾄｸﾁｮｳ","kana_address":"5ｼﾞｮｳﾐﾅﾐ","pref":"北海道","city":"上川郡新得町","address":"五条南"}]}