{"zip_code":[
{"zip_code":"0820000","kana_pref":"ﾎｯｶｲﾄﾞｳ","kana_city":"ｶｻｲｸﾞﾝﾒﾑﾛﾁｮｳ","kana_address":"","pref":"北海道","city":"河西郡芽室町","address":""},
{"zip_code":"0820382","kana_pref":"ﾎｯｶｲﾄﾞｳ","kana_city":"ｶｻｲｸﾞﾝﾒﾑﾛﾁｮｳ","kana_address":"ｵﾏﾍﾞﾂ","pref":"北海道","city":"河西郡芽室町","address":"雄馬別"},
{"zip_code":"0820384","kana_pref":"ﾎｯｶｲﾄﾞｳ","kana_city":"ｶｻｲｸﾞﾝﾒﾑﾛﾁｮｳ","kana_address":"ｶﾐﾋﾞｾｲ","pref":"北海道","city":"河西郡芽室町","address":"上美生"},
{"zip_code":"0820381","kana_pref":"ﾎｯｶｲﾄﾞｳ","kana_city":"ｶｻｲｸﾞﾝﾒﾑﾛﾁｮｳ","kana_address":"ｶﾐﾌｼｺ","pref":"北海道","city":"河西郡芽室町","address":"上伏古"},
{"zip_code":"0820085","kana_pref":"ﾎｯｶｲﾄﾞｳ","kana_city":"ｶｻｲｸﾞﾝﾒﾑﾛﾁｮｳ","kana_address":"ｶﾐﾒﾑﾛｷｾﾝ","pref":"北海道","city":"河西郡芽室町","address":"上芽室基線"},
{"zip_code":"0820084","kana_pref":"ﾎｯｶｲﾄﾞｳ","kana_city":"ｶｻｲｸﾞﾝﾒﾑﾛﾁｮｳ","kana_address":"ｶﾐﾒﾑﾛｷﾀ","pref":"北海道","city":"河西郡芽室町","address":"上芽室北"},
{"zip_code":"0820087","kana_pref":"ﾎｯｶｲﾄﾞｳ","kana_city":"ｶｻｲｸﾞﾝﾒﾑﾛﾁｮｳ","kana_address":"ｶﾐﾒﾑﾛﾋｶﾞｼ","pref":"北海道","city":"河西郡芽室町","address":"上芽室東"},
{"zip_code":"0820077","kana_pref":"ﾎｯｶｲﾄﾞｳ","kana_city":"ｶｻｲｸﾞﾝﾒﾑﾛﾁｮｳ","kana_address":"ｶﾐﾒﾑﾛﾐﾅﾐ","pref":"北海道","city":"河西郡芽室町","address":"上芽室南"},
{"zip_code":"0820082","kana_pref":"ﾎｯｶｲﾄﾞｳ","kana_city":"ｶｻｲｸﾞﾝﾒﾑﾛﾁｮｳ","kana_address":"ｷﾀﾌｼｺﾋｶﾞｼ","pref":"北海道","city":"河西郡芽室町","address":"北伏古東"},
{"zip_code":"0820072","kana_pref":"ﾎｯｶｲﾄﾞｳ","kana_city":"ｶｻｲｸﾞﾝﾒﾑﾛﾁｮｳ","kana_address":"ｷﾀﾌｼｺﾐﾅﾐ","pref":"北海道","city":"河西郡芽室町","address":"北伏古南"},
{"zip_code":"0820007","kana_pref":"ﾎｯｶｲﾄﾞｳ","kana_city":"ｶｻｲｸﾞﾝﾒﾑﾛﾁｮｳ","kana_address":"ｷﾀﾒﾑﾛ","pref":"北海道","city":"河西郡芽室町","address":"北芽室"},
{"zip_code":"0820008","kana_pref":"ﾎｯｶｲﾄﾞｳ","kana_city":"ｶｻｲｸﾞﾝﾒﾑﾛﾁｮｳ","kana_address":"ｹﾈ","pref":"北海道","city":"河西郡芽室町","address":"毛根"},
{"zip_code":"0820074","kana_pref":"ﾎｯｶｲﾄﾞｳ","kana_city":"ｶｻｲｸﾞﾝﾒﾑﾛﾁｮｳ","kana_address":"ｻｶｴ","pref":"北海道","city":"河西郡芽室町","address":"栄"},
{"zip_code":"0820075","kana_pref":"ﾎｯｶｲﾄﾞｳ","kana_city":"ｶｻｲｸﾞﾝﾒﾑﾛﾁｮｳ","kana_address":"ｻｶﾉｳｴ","pref":"北海道","city":"河西郡芽室町","address":"坂の上"},
{"zip_code":"0820385","kana_pref":"ﾎｯｶｲﾄﾞｳ","kana_city":"ｶｻｲｸﾞﾝﾒﾑﾛﾁｮｳ","kana_address":"ｼﾌﾞｻﾝ","pref":"北海道","city":"河西郡芽室町","address":"渋山"},
{"zip_code":"0820078","kana_pref":"ﾎｯｶｲﾄﾞｳ","kana_city":"ｶｻｲｸﾞﾝﾒﾑﾛﾁｮｳ","kana_address":"ｼﾌﾞｻﾝ","pref":"北海道","city":"河西郡芽室町","address":"渋山"},
{"zip_code":"0820010","kana_pref":"ﾎｯｶｲﾄﾞｳ","kana_city":"ｶｻｲｸﾞﾝﾒﾑﾛﾁｮｳ","kana_address":"ｼｮｳｴｲｷﾀ","pref":"北海道","city":"河西郡芽室町","address":"祥栄北"},
{"zip_code":"0820009","kana_pref":"ﾎｯｶｲﾄﾞｳ","kana_city":"ｶｻｲｸﾞﾝﾒﾑﾛﾁｮｳ","kana_address":"ｼｮｳｴｲﾆｼ","pref":"北海道","city":"河西郡芽室町","address":"祥栄西"},
{"zip_code":"0820079","kana_pref":"ﾎｯｶｲﾄﾞｳ","kana_city":"ｶｻｲｸﾞﾝﾒﾑﾛﾁｮｳ","kana_address":"ｼﾝｱｻﾋ","pref":"北海道","city":"河西郡芽室町","address":"新朝日"},
{"zip_code":"0820071","kana_pref":"ﾎｯｶｲﾄﾞｳ","kana_city":"ｶｻｲｸﾞﾝﾒﾑﾛﾁｮｳ","kana_address":"ｼﾝｾｲ","pref":"北海道","city":"河西郡芽室町","address":"新生"},
{"zip_code":"0820081","kana_pref":"ﾎｯｶｲﾄﾞｳ","kana_city":"ｶｻｲｸﾞﾝﾒﾑﾛﾁｮｳ","kana_address":"ｼﾝｾｲﾐﾅﾐ","pref":"北海道","city":"河西郡芽室町","address":"新生南"},
{"zip_code":"0820086","kana_pref":"ﾎｯｶｲﾄﾞｳ","kana_city":"ｶｻｲｸﾞﾝﾒﾑﾛﾁｮｳ","kana_address":"ﾁｭｳﾋﾞｾｲ","pref":"北海道","city":"河西郡芽室町","address":"中美生"},
{"zip_code":"0820073","kana_pref":"ﾎｯｶｲﾄﾞｳ","kana_city":"ｶｻｲｸﾞﾝﾒﾑﾛﾁｮｳ","kana_address":"ﾅｶﾌｼｺ","pref":"北海道","city":"河西郡芽室町","address":"中伏古"},
{"zip_code":"0820083","kana_pref":"ﾎｯｶｲﾄﾞｳ","kana_city":"ｶｻｲｸﾞﾝﾒﾑﾛﾁｮｳ","kana_address":"ﾅｶﾌｼｺﾋｶﾞｼ","pref":"北海道","city":"河西郡芽室町","address":"中伏古東"},
{"zip_code":"0820003","kana_pref":"ﾎｯｶｲﾄﾞｳ","kana_city":"ｶｻｲｸﾞﾝﾒﾑﾛﾁｮｳ","kana_address":"ﾆｼｼｶﾘ","pref":"北海道","city":"河西郡芽室町","address":"西士狩"},
{"zip_code":"0820031","kana_pref":"ﾎｯｶｲﾄﾞｳ","kana_city":"ｶｻｲｸﾞﾝﾒﾑﾛﾁｮｳ","kana_address":"ﾆｼ1ｼﾞｮｳ","pref":"北海道","city":"河西郡芽室町","address":"西一条"},
{"zip_code":"0820032","kana_pref":"ﾎｯｶｲﾄﾞｳ","kana_city":"ｶｻｲｸﾞﾝﾒﾑﾛﾁｮｳ","kana_address":"ﾆｼ2ｼﾞｮｳ","pref":"北海道","city":"河西郡芽室町","address":"西二条"},
{"zip_code":"0820033","kana_pref":"ﾎｯｶｲﾄﾞｳ","kana_city":"ｶｻｲｸﾞﾝﾒﾑﾛﾁｮｳ","kana_address":"ﾆｼ3ｼﾞｮｳ","pref":"北海道","city":"河西郡芽室町","address":"西三条"},
{"zip_code":"0820034","kana_pref":"ﾎｯｶｲﾄﾞｳ","kana_city":"ｶｻｲｸﾞﾝﾒﾑﾛﾁｮｳ","kana_address":"ﾆｼ4ｼﾞｮｳ","pref":"北海道","city":"河西郡芽室町","address":"西四条"},
{"zip_code":"0820035","kana_pref":"ﾎｯｶｲﾄﾞｳ","kana_city":"ｶｻｲｸﾞﾝﾒﾑﾛﾁｮｳ","kana_address":"ﾆｼ5ｼﾞｮｳ","pref":"北海道","city":"河西郡芽室町","address":"西五条"},
{"zip_code":"0820036","kana_pref":"ﾎｯｶｲﾄﾞｳ","kana_city":"ｶｻｲｸﾞﾝﾒﾑﾛﾁｮｳ","kana_address":"ﾆｼ6ｼﾞｮｳ","pref":"北海道","city":"河西郡芽室町","address":"西六条"},
{"zip_code":"0820037","kana_pref":"ﾎｯｶｲﾄﾞｳ","kana_city":"ｶｻｲｸﾞﾝﾒﾑﾛﾁｮｳ","kana_address":"ﾆｼ7ｼﾞｮｳ","pref":"北海道","city":"河西郡芽室町","address":"西七条"},
{"zip_code":"0820038","kana_pref":"ﾎｯｶｲﾄﾞｳ","kana_city":"ｶｻｲｸﾞﾝﾒﾑﾛﾁｮｳ","kana_address":"ﾆｼ8ｼﾞｮｳ","pref":"北海道","city":"河西郡芽室町","address":"西八条"},
{"zip_code":"0820039","kana_pref":"ﾎｯｶｲﾄﾞｳ","kana_city":"ｶｻｲｸﾞﾝﾒﾑﾛﾁｮｳ","kana_address":"ﾆｼ9ｼﾞｮｳ","pref":"北海道","city":"河西郡芽室町","address":"西九条"},
{"zip_code":"0820040","kana_pref":"ﾎｯｶｲﾄﾞｳ","kana_city":"ｶｻｲｸﾞﾝﾒﾑﾛﾁｮｳ","kana_address":"ﾆｼ10ｼﾞｮｳ","pref":"北海道","city":"河西郡芽室町","address":"西十条"},
{"zip_code":"0820041","kana_pref":"ﾎｯｶｲﾄﾞｳ","kana_city":"ｶｻｲｸﾞﾝﾒﾑﾛﾁｮｳ","kana_address":"ﾆｼ11ｼﾞｮｳ","pref":"北海道","city":"河西郡芽室町","address":"西十一条"},
{"zip_code":"0820061","kana_pref":"ﾎｯｶｲﾄﾞｳ","kana_city":"ｶｻｲｸﾞﾝﾒﾑﾛﾁｮｳ","kana_address":"ﾆｼ1ｼﾞｮｳﾐﾅﾐ","pref":"北海道","city":"河西郡芽室町","address":"西一条南"},
{"zip_code":"0820062","kana_pref":"ﾎｯｶｲﾄﾞｳ","kana_city":"ｶｻｲｸﾞﾝﾒﾑﾛﾁｮｳ","kana_address":"ﾆｼ2ｼﾞｮｳﾐﾅﾐ","pref":"北海道","city":"河西郡芽室町","address":"西二条南"},
{"zip_code":"0820063","kana_pref":"ﾎｯｶｲﾄﾞｳ","kana_city":"ｶｻｲｸﾞﾝﾒﾑﾛﾁｮｳ","kana_address":"ﾆｼ3ｼﾞｮｳﾐﾅﾐ","pref":"北海道","city":"河西郡芽室町","address":"西三条南"},
{"zip_code":"0820064","kana_pref":"ﾎｯｶｲﾄﾞｳ","kana_city":"ｶｻｲｸﾞﾝﾒﾑﾛﾁｮｳ","kana_address":"ﾆｼ4ｼﾞｮｳﾐﾅﾐ","pref":"北海道","city":"河西郡芽室町","address":"西四条南"},
{"zip_code":"0820801","kana_pref":"ﾎｯｶｲﾄﾞｳ","kana_city":"ｶｻｲｸﾞﾝﾒﾑﾛﾁｮｳ","kana_address":"ﾋｶﾞｼﾒﾑﾛ1ｼﾞｮｳｷﾀ","pref":"北海道","city":"河西郡芽室町","address":"東めむろ一条北"},
{"zip_code":"0820811","kana_pref":"ﾎｯｶｲﾄﾞｳ","kana_city":"ｶｻｲｸﾞﾝﾒﾑﾛﾁｮｳ","kana_address":"ﾋｶﾞｼﾒﾑﾛ1ｼﾞｮｳﾐﾅﾐ","pref":"北海道","city":"河西郡芽室町","address":"東めむろ一条南"},
{"zip_code":"0820802","kana_pref":"ﾎｯｶｲﾄﾞｳ","kana_city":"ｶｻｲｸﾞﾝﾒﾑﾛﾁｮｳ","kana_address":"ﾋｶﾞｼﾒﾑﾛ2ｼﾞｮｳｷﾀ","pref":"北海道","city":"河西郡芽室町","address":"東めむろ二条北"},
{"zip_code":"0820812","kana_pref":"ﾎｯｶｲﾄﾞｳ","kana_city":"ｶｻｲｸﾞﾝﾒﾑﾛﾁｮｳ","kana_address":"ﾋｶﾞｼﾒﾑﾛ2ｼﾞｮｳﾐﾅﾐ","pref":"北海道","city":"河西郡芽室町","address":"東めむろ二条南"},
{"zip_code":"0820803","kana_pref":"ﾎｯｶｲﾄﾞｳ","kana_city":"ｶｻｲｸﾞﾝﾒﾑﾛﾁｮｳ","kana_address":"ﾋｶﾞｼﾒﾑﾛ3ｼﾞｮｳｷﾀ","pref":"北海道","city":"河西郡芽室町","address":"東めむろ三条北"},
{"zip_code":"0820813","kana_pref":"ﾎｯｶｲﾄﾞｳ","kana_city":"ｶｻｲｸﾞﾝﾒﾑﾛﾁｮｳ","kana_address":"ﾋｶﾞｼﾒﾑﾛ3ｼﾞｮｳﾐﾅﾐ","pref":"北海道","city":"河西郡芽室町","address":"東めむろ三条南"},
{"zip_code":"0820005","kana_pref":"ﾎｯｶｲﾄﾞｳ","kana_city":"ｶｻｲｸﾞﾝﾒﾑﾛﾁｮｳ","kana_address":"ﾋｶﾞｼﾒﾑﾛｷｾﾝ","pref":"北海道","city":"河西郡芽室町","address":"東芽室基線"},
{"zip_code":"0820006","kana_pref":"ﾎｯｶｲﾄﾞｳ","kana_city":"ｶｻｲｸﾞﾝﾒﾑﾛﾁｮｳ","kana_address":"ﾋｶﾞｼﾒﾑﾛﾐﾅﾐ","pref":"北海道","city":"河西郡芽室町","address":"東芽室南"},
{"zip_code":"0820004","kana_pref":"ﾎｯｶｲﾄﾞｳ","kana_city":"ｶｻｲｸﾞﾝﾒﾑﾛﾁｮｳ","kana_address":"ﾋｶﾞｼﾒﾑﾛｷﾀ","pref":"北海道","city":"河西郡芽室町","address":"東芽室北"},
{"zip_code":"0820011","kana_pref":"ﾎｯｶｲﾄﾞｳ","kana_city":"ｶｻｲｸﾞﾝﾒﾑﾛﾁｮｳ","kana_address":"ﾋｶﾞｼ1ｼﾞｮｳ","pref":"北海道","city":"河西郡芽室町","address":"東一条"},
{"zip_code":"0820012","kana_pref":"ﾎｯｶｲﾄﾞｳ","kana_city":"ｶｻｲｸﾞﾝﾒﾑﾛﾁｮｳ","kana_address":"ﾋｶﾞｼ2ｼﾞｮｳ","pref":"北海道","city":"河西郡芽室町","address":"東二条"},
{"zip_code":"0820013","kana_pref":"ﾎｯｶｲﾄﾞｳ","kana_city":"ｶｻｲｸﾞﾝﾒﾑﾛﾁｮｳ","kana_address":"ﾋｶﾞｼ3ｼﾞｮｳ","pref":"北海道","city":"河西郡芽室町","address":"東三条"},
{"zip_code":"0820014","kana_pref":"ﾎｯｶｲﾄﾞｳ","kana_city":"ｶｻｲｸﾞﾝﾒﾑﾛﾁｮｳ","kana_address":"ﾋｶﾞｼ4ｼﾞｮｳ","pref":"北海道","city":"河西郡芽室町","address":"東四条"},
{"zip_code":"0820015","kana_pref":"ﾎｯｶｲﾄﾞｳ","kana_city":"ｶｻｲｸﾞﾝﾒﾑﾛﾁｮｳ","kana_address":"ﾋｶﾞｼ5ｼﾞｮｳ","pref":"北海道","city":"河西郡芽室町","address":"東五条"},
{"zip_code":"0820016","kana_pref":"ﾎｯｶｲﾄﾞｳ","kana_city":"ｶｻｲｸﾞﾝﾒﾑﾛﾁｮｳ","kana_address":"ﾋｶﾞｼ6ｼﾞｮｳ","pref":"北海道","city":"河西郡芽室町","address":"東六条"},
{"zip_code":"0820017","kana_pref":"ﾎｯｶｲﾄﾞｳ","kana_city":"ｶｻｲｸﾞﾝﾒﾑﾛﾁｮｳ","kana_address":"ﾋｶﾞｼ7ｼﾞｮｳ","pref":"北海道","city":"河西郡芽室町","address":"東七条"},
{"zip_code":"0820018","kana_pref":"ﾎｯｶｲﾄﾞｳ","kana_city":"ｶｻｲｸﾞﾝﾒﾑﾛﾁｮｳ","kana_address":"ﾋｶﾞｼ8ｼﾞｮｳ","pref":"北海道","city":"河西郡芽室町","address":"東八条"},
{"zip_code":"0820019","kana_pref":"ﾎｯｶｲﾄﾞｳ","kana_city":"ｶｻｲｸﾞﾝﾒﾑﾛﾁｮｳ","kana_address":"ﾋｶﾞｼ9ｼﾞｮｳ","pref":"北海道","city":"河西郡芽室町","address":"東九条"},
{"zip_code":"0820020","kana_pref":"ﾎｯｶｲﾄﾞｳ","kana_city":"ｶｻｲｸﾞﾝﾒﾑﾛﾁｮｳ","kana_address":"ﾋｶﾞｼ10ｼﾞｮｳ","pref":"北海道","city":"河西郡芽室町","address":"東十条"},
{"zip_code":"0820021","kana_pref":"ﾎｯｶｲﾄﾞｳ","kana_city":"ｶｻｲｸﾞﾝﾒﾑﾛﾁｮｳ","kana_address":"ﾋｶﾞｼ11ｼﾞｮｳ","pref":"北海道","city":"河西郡芽室町","address":"東十一条"},
{"zip_code":"0820022","kana_pref":"ﾎｯｶｲﾄﾞｳ","kana_city":"ｶｻｲｸﾞﾝﾒﾑﾛﾁｮｳ","kana_address":"ﾋｶﾞｼ12ｼﾞｮｳ","pref":"北海道","city":"河西郡芽室町","address":"東十二条"},
{"zip_code":"0820051","kana_pref":"ﾎｯｶｲﾄﾞｳ","kana_city":"ｶｻｲｸﾞﾝﾒﾑﾛﾁｮｳ","kana_address":"ﾋｶﾞｼ1ｼﾞｮｳﾐﾅﾐ","pref":"北海道","city":"河西郡芽室町","address":"東一条南"},
{"zip_code":"0820052","kana_pref":"ﾎｯｶｲﾄﾞｳ","kana_city":"ｶｻｲｸﾞﾝﾒﾑﾛﾁｮｳ","kana_address":"ﾋｶﾞｼ2ｼﾞｮｳﾐﾅﾐ","pref":"北海道","city":"河西郡芽室町","address":"東二条南"},
{"zip_code":"0820053","kana_pref":"ﾎｯｶｲﾄﾞｳ","kana_city":"ｶｻｲｸﾞﾝﾒﾑﾛﾁｮｳ","kana_address":"ﾋｶﾞｼ3ｼﾞｮｳﾐﾅﾐ","pref":"北海道","city":"河西郡芽室町","address":"東三条南"},
{"zip_code":"0820054","kana_pref":"ﾎｯｶｲﾄﾞｳ","kana_city":"ｶｻｲｸﾞﾝﾒﾑﾛﾁｮｳ","kana_address":"ﾋｶﾞｼ4ｼﾞｮｳﾐﾅﾐ","pref":"北海道","city":"河西郡芽室町","address":"東四条南"},
{"zip_code":"0820056","kana_pref":"ﾎｯｶｲﾄﾞｳ","kana_city":"ｶｻｲｸﾞﾝﾒﾑﾛﾁｮｳ","kana_address":"ﾋｶﾞｼ6ｼﾞｮｳﾐﾅﾐ","pref":"北海道","city":"河西郡芽室町","address":"東六条南"},
{"zip_code":"0820057","kana_pref":"ﾎｯｶｲﾄﾞｳ","kana_city":"ｶｻｲｸﾞﾝﾒﾑﾛﾁｮｳ","kana_address":"ﾋｶﾞｼ7ｼﾞｮｳﾐﾅﾐ","pref":"北海道","city":"河西郡芽室町","address":"東七条南"},
{"zip_code":"0820076","kana_pref":"ﾎｯｶｲﾄﾞｳ","kana_city":"ｶｻｲｸﾞﾝﾒﾑﾛﾁｮｳ","kana_address":"ﾋﾞｾｲ","pref":"北海道","city":"河西郡芽室町","address":"美生"},
{"zip_code":"0820383","kana_pref":"ﾎｯｶｲﾄﾞｳ","kana_city":"ｶｻｲｸﾞﾝﾒﾑﾛﾁｮｳ","kana_address":"ﾌｼﾐ","pref":"北海道","city":"河西郡芽室町","address":"伏美"},
{"zip_code":"0820001","kana_pref":"ﾎｯｶｲﾄﾞｳ","kana_city":"ｶｻｲｸﾞﾝﾒﾑﾛﾁｮｳ","kana_address":"ﾍｲﾜ","pref":"北海道","city":"河西郡芽室町","address":"平和"},
{"zip_code":"0820002","kana_pref":"ﾎｯｶｲﾄﾞｳ","kana_city":"ｶｻｲｸﾞﾝﾒﾑﾛﾁｮｳ","kana_address":"ﾎｸﾒｲ","pref":"北海道","city":"河西郡芽室町","address":"北明"},
{"zip_code":"0820030","kana_pref":"ﾎｯｶｲﾄﾞｳ","kana_city":"ｶｻｲｸﾞﾝﾒﾑﾛﾁｮｳ","kana_address":"ﾎﾝﾄﾞｵﾘ","pref":"北海道","city":"河西郡芽室町","address":"本通"},
{"zip_code":"0820060","kana_pref":"ﾎｯｶｲﾄﾞｳ","kana_city":"ｶｻｲｸﾞﾝﾒﾑﾛﾁｮｳ","kana_address":"ﾎﾝﾄﾞｵﾘﾐﾅﾐ","pref":"北海道","city":"河西郡芽室町","address":"本通南"},
{"zip_code":"0820043","kana_pref":"ﾎｯｶｲﾄﾞｳ","kana_city":"ｶｻｲｸﾞﾝﾒﾑﾛﾁｮｳ","kana_address":"ﾒﾑﾛｷｾﾝ","pref":"北海道","city":"河西郡芽室町","address":"芽室基線"},
{"zip_code":"0820044","kana_pref":"ﾎｯｶｲﾄﾞｳ","kana_city":"ｶｻｲｸﾞﾝﾒﾑﾛﾁｮｳ","kana_address":"ﾒﾑﾛﾐﾅﾐ","pref":"北海道","city":"河西郡芽室町","address":"芽室南"},
{"zip_code":"0820042","kana_pref":"ﾎｯｶｲﾄﾞｳ","kana_city":"ｶｻｲｸﾞﾝﾒﾑﾛﾁｮｳ","kana_address":"ﾒﾑﾛｷﾀ","pref":"北海道","city":"河西郡芽室町","address":"芽室北"}]}