{"zip_code":[
{"zip_code":"0830000","kana_pref":"ﾎｯｶｲﾄﾞｳ","kana_city":"ﾅｶｶﾞﾜｸﾞﾝｲｹﾀﾞﾁｮｳ","kana_address":"","pref":"北海道","city":"中川郡池田町","address":""},
{"zip_code":"0830044","kana_pref":"ﾎｯｶｲﾄﾞｳ","kana_city":"ﾅｶｶﾞﾜｸﾞﾝｲｹﾀﾞﾁｮｳ","kana_address":"ｱｵﾔﾏ","pref":"北海道","city":"中川郡池田町","address":"青山"},
{"zip_code":"0830001","kana_pref":"ﾎｯｶｲﾄﾞｳ","kana_city":"ﾅｶｶﾞﾜｸﾞﾝｲｹﾀﾞﾁｮｳ","kana_address":"ｱｻﾋﾏﾁ","pref":"北海道","city":"中川郡池田町","address":"旭町"},
{"zip_code":"0830090","kana_pref":"ﾎｯｶｲﾄﾞｳ","kana_city":"ﾅｶｶﾞﾜｸﾞﾝｲｹﾀﾞﾁｮｳ","kana_address":"ｵｵﾄﾞｵﾘ","pref":"北海道","city":"中川郡池田町","address":"大通"},
{"zip_code":"0830020","kana_pref":"ﾎｯｶｲﾄﾞｳ","kana_city":"ﾅｶｶﾞﾜｸﾞﾝｲｹﾀﾞﾁｮｳ","kana_address":"ｵｵﾄﾞｵﾘﾐﾅﾐ","pref":"北海道","city":"中川郡池田町","address":"大通南"},
{"zip_code":"0830041","kana_pref":"ﾎｯｶｲﾄﾞｳ","kana_city":"ﾅｶｶﾞﾜｸﾞﾝｲｹﾀﾞﾁｮｳ","kana_address":"ｶﾜｲ","pref":"北海道","city":"中川郡池田町","address":"川合"},
{"zip_code":"0830002","kana_pref":"ﾎｯｶｲﾄﾞｳ","kana_city":"ﾅｶｶﾞﾜｸﾞﾝｲｹﾀﾞﾁｮｳ","kana_address":"ｷﾖﾐ","pref":"北海道","city":"中川郡池田町","address":"清見"},
{"zip_code":"0830003","kana_pref":"ﾎｯｶｲﾄﾞｳ","kana_city":"ﾅｶｶﾞﾜｸﾞﾝｲｹﾀﾞﾁｮｳ","kana_address":"ｷﾖﾐｶﾞｵｶ","pref":"北海道","city":"中川郡池田町","address":"清見ケ丘"},
{"zip_code":"0830004","kana_pref":"ﾎｯｶｲﾄﾞｳ","kana_city":"ﾅｶｶﾞﾜｸﾞﾝｲｹﾀﾞﾁｮｳ","kana_address":"ｻﾏﾏｲ","pref":"北海道","city":"中川郡池田町","address":"様舞"},
{"zip_code":"0830047","kana_pref":"ﾎｯｶｲﾄﾞｳ","kana_city":"ﾅｶｶﾞﾜｸﾞﾝｲｹﾀﾞﾁｮｳ","kana_address":"ｼｮｳｴｲ","pref":"北海道","city":"中川郡池田町","address":"昭栄"},
{"zip_code":"0830042","kana_pref":"ﾎｯｶｲﾄﾞｳ","kana_city":"ﾅｶｶﾞﾜｸﾞﾝｲｹﾀﾞﾁｮｳ","kana_address":"ﾁﾖﾀﾞ","pref":"北海道","city":"中川郡池田町","address":"千代田"},
{"zip_code":"0830046","kana_pref":"ﾎｯｶｲﾄﾞｳ","kana_city":"ﾅｶｶﾞﾜｸﾞﾝｲｹﾀﾞﾁｮｳ","kana_address":"ﾄｳﾀﾞｲ","pref":"北海道","city":"中川郡池田町","address":"東台"},
{"zip_code":"0830032","kana_pref":"ﾎｯｶｲﾄﾞｳ","kana_city":"ﾅｶｶﾞﾜｸﾞﾝｲｹﾀﾞﾁｮｳ","kana_address":"ﾄｼﾍﾞﾂﾋｶﾞｼﾏﾁ","pref":"北海道","city":"中川郡池田町","address":"利別東町"},
{"zip_code":"0830031","kana_pref":"ﾎｯｶｲﾄﾞｳ","kana_city":"ﾅｶｶﾞﾜｸﾞﾝｲｹﾀﾞﾁｮｳ","kana_address":"ﾄｼﾍﾞﾂﾆｼﾏﾁ","pref":"北海道","city":"中川郡池田町","address":"利別西町"},
{"zip_code":"0830033","kana_pref":"ﾎｯｶｲﾄﾞｳ","kana_city":"ﾅｶｶﾞﾜｸﾞﾝｲｹﾀﾞﾁｮｳ","kana_address":"ﾄｼﾍﾞﾂﾐﾅﾐﾏﾁ","pref":"北海道","city":"中川郡池田町","address":"利別南町"},
{"zip_code":"0830034","kana_pref":"ﾎｯｶｲﾄﾞｳ","kana_city":"ﾅｶｶﾞﾜｸﾞﾝｲｹﾀﾞﾁｮｳ","kana_address":"ﾄｼﾍﾞﾂﾓﾄﾏﾁ","pref":"北海道","city":"中川郡池田町","address":"利別本町"},
{"zip_code":"0830045","kana_pref":"ﾎｯｶｲﾄﾞｳ","kana_city":"ﾅｶｶﾞﾜｸﾞﾝｲｹﾀﾞﾁｮｳ","kana_address":"ﾄﾐｵｶ","pref":"北海道","city":"中川郡池田町","address":"富岡"},
{"zip_code":"0830043","kana_pref":"ﾎｯｶｲﾄﾞｳ","kana_city":"ﾅｶｶﾞﾜｸﾞﾝｲｹﾀﾞﾁｮｳ","kana_address":"ﾄﾖﾀ","pref":"北海道","city":"中川郡池田町","address":"豊田"},
{"zip_code":"0830021","kana_pref":"ﾎｯｶｲﾄﾞｳ","kana_city":"ﾅｶｶﾞﾜｸﾞﾝｲｹﾀﾞﾁｮｳ","kana_address":"ﾆｼ1ｼﾞｮｳ","pref":"北海道","city":"中川郡池田町","address":"西一条"},
{"zip_code":"0830022","kana_pref":"ﾎｯｶｲﾄﾞｳ","kana_city":"ﾅｶｶﾞﾜｸﾞﾝｲｹﾀﾞﾁｮｳ","kana_address":"ﾆｼ2ｼﾞｮｳ","pref":"北海道","city":"中川郡池田町","address":"西二条"},
{"zip_code":"0830023","kana_pref":"ﾎｯｶｲﾄﾞｳ","kana_city":"ﾅｶｶﾞﾜｸﾞﾝｲｹﾀﾞﾁｮｳ","kana_address":"ﾆｼ3ｼﾞｮｳ","pref":"北海道","city":"中川郡池田町","address":"西三条"},
{"zip_code":"0830091","kana_pref":"ﾎｯｶｲﾄﾞｳ","kana_city":"ﾅｶｶﾞﾜｸﾞﾝｲｹﾀﾞﾁｮｳ","kana_address":"ﾋｶﾞｼ1ｼﾞｮｳ","pref":"北海道","city":"中川郡池田町","address":"東一条"},
{"zip_code":"0830092","kana_pref":"ﾎｯｶｲﾄﾞｳ","kana_city":"ﾅｶｶﾞﾜｸﾞﾝｲｹﾀﾞﾁｮｳ","kana_address":"ﾋｶﾞｼ2ｼﾞｮｳ","pref":"北海道","city":"中川郡池田町","address":"東二条"}]}