{"zip_code":[
{"zip_code":"0870000","kana_pref":"ﾎｯｶｲﾄﾞｳ","kana_city":"ﾈﾑﾛｼ","kana_address":"","pref":"北海道","city":"根室市","address":""},
{"zip_code":"0870006","kana_pref":"ﾎｯｶｲﾄﾞｳ","kana_city":"ﾈﾑﾛｼ","kana_address":"ｱｹﾎﾞﾉﾁｮｳ","pref":"北海道","city":"根室市","address":"曙町"},
{"zip_code":"0870014","kana_pref":"ﾎｯｶｲﾄﾞｳ","kana_city":"ﾈﾑﾛｼ","kana_address":"ｱｻﾋﾁｮｳ","pref":"北海道","city":"根室市","address":"朝日町"},
{"zip_code":"0870008","kana_pref":"ﾎｯｶｲﾄﾞｳ","kana_city":"ﾈﾑﾛｼ","kana_address":"ｱﾘｲｿﾁｮｳ","pref":"北海道","city":"根室市","address":"有磯町"},
{"zip_code":"0870052","kana_pref":"ﾎｯｶｲﾄﾞｳ","kana_city":"ﾈﾑﾛｼ","kana_address":"ｳﾒｶﾞｴﾁｮｳ","pref":"北海道","city":"根室市","address":"梅ケ枝町"},
{"zip_code":"0870035","kana_pref":"ﾎｯｶｲﾄﾞｳ","kana_city":"ﾈﾑﾛｼ","kana_address":"ｵﾝﾈﾄｳ","pref":"北海道","city":"根室市","address":"温根沼"},
{"zip_code":"0870166","kana_pref":"ﾎｯｶｲﾄﾞｳ","kana_city":"ﾈﾑﾛｼ","kana_address":"ｵﾝﾈﾓﾄ","pref":"北海道","city":"根室市","address":"温根元"},
{"zip_code":"0870054","kana_pref":"ﾎｯｶｲﾄﾞｳ","kana_city":"ﾈﾑﾛｼ","kana_address":"ｶｲｶﾞﾝﾁｮｳ","pref":"北海道","city":"根室市","address":"海岸町"},
{"zip_code":"0870023","kana_pref":"ﾎｯｶｲﾄﾞｳ","kana_city":"ﾈﾑﾛｼ","kana_address":"ｶﾂﾗｷﾞ","pref":"北海道","city":"根室市","address":"桂木"},
{"zip_code":"0870001","kana_pref":"ﾎｯｶｲﾄﾞｳ","kana_city":"ﾈﾑﾛｼ","kana_address":"ｷﾀﾊﾏﾁｮｳ","pref":"北海道","city":"根室市","address":"北浜町"},
{"zip_code":"0870042","kana_pref":"ﾎｯｶｲﾄﾞｳ","kana_city":"ﾈﾑﾛｼ","kana_address":"ｷﾖﾀｶﾁｮｳ","pref":"北海道","city":"根室市","address":"清隆町"},
{"zip_code":"0870004","kana_pref":"ﾎｯｶｲﾄﾞｳ","kana_city":"ﾈﾑﾛｼ","kana_address":"ｺｳﾖｳﾁｮｳ","pref":"北海道","city":"根室市","address":"光洋町"},
{"zip_code":"0870027","kana_pref":"ﾎｯｶｲﾄﾞｳ","kana_city":"ﾈﾑﾛｼ","kana_address":"ｺｳﾜﾁｮｳ","pref":"北海道","city":"根室市","address":"光和町"},
{"zip_code":"0870055","kana_pref":"ﾎｯｶｲﾄﾞｳ","kana_city":"ﾈﾑﾛｼ","kana_address":"ｺﾄﾋﾗﾁｮｳ","pref":"北海道","city":"根室市","address":"琴平町"},
{"zip_code":"0870012","kana_pref":"ﾎｯｶｲﾄﾞｳ","kana_city":"ﾈﾑﾛｼ","kana_address":"ｺﾏﾊﾞﾁｮｳ","pref":"北海道","city":"根室市","address":"駒場町"},
{"zip_code":"0870164","kana_pref":"ﾎｯｶｲﾄﾞｳ","kana_city":"ﾈﾑﾛｼ","kana_address":"ｺﾞﾖｳﾏｲ","pref":"北海道","city":"根室市","address":"珸瑤瑁"},
{"zip_code":"0870021","kana_pref":"ﾎｯｶｲﾄﾞｳ","kana_city":"ﾈﾑﾛｼ","kana_address":"ｻｲﾜｲﾁｮｳ","pref":"北海道","city":"根室市","address":"幸町"},
{"zip_code":"0870010","kana_pref":"ﾎｯｶｲﾄﾞｳ","kana_city":"ﾈﾑﾛｼ","kana_address":"ｻｶｴﾁｮｳ","pref":"北海道","city":"根室市","address":"栄町"},
{"zip_code":"0870047","kana_pref":"ﾎｯｶｲﾄﾞｳ","kana_city":"ﾈﾑﾛｼ","kana_address":"ｻﾀﾞﾓﾄﾁｮｳ","pref":"北海道","city":"根室市","address":"定基町"},
{"zip_code":"0870019","kana_pref":"ﾎｯｶｲﾄﾞｳ","kana_city":"ﾈﾑﾛｼ","kana_address":"ｼｵﾐﾁｮｳ","pref":"北海道","city":"根室市","address":"汐見町"},
{"zip_code":"0870026","kana_pref":"ﾎｯｶｲﾄﾞｳ","kana_city":"ﾈﾑﾛｼ","kana_address":"ｼｷｼﾏﾁｮｳ","pref":"北海道","city":"根室市","address":"敷島町"},
{"zip_code":"0870022","kana_pref":"ﾎｯｶｲﾄﾞｳ","kana_city":"ﾈﾑﾛｼ","kana_address":"ｼｮｳﾜﾁｮｳ","pref":"北海道","city":"根室市","address":"昭和町"},
{"zip_code":"0870028","kana_pref":"ﾎｯｶｲﾄﾞｳ","kana_city":"ﾈﾑﾛｼ","kana_address":"ﾀｲｼｮｳﾁｮｳ","pref":"北海道","city":"根室市","address":"大正町"},
{"zip_code":"0870005","kana_pref":"ﾎｯｶｲﾄﾞｳ","kana_city":"ﾈﾑﾛｼ","kana_address":"ﾀｶﾗﾁｮｳ","pref":"北海道","city":"根室市","address":"宝町"},
{"zip_code":"0870018","kana_pref":"ﾎｯｶｲﾄﾞｳ","kana_city":"ﾈﾑﾛｼ","kana_address":"ﾁｼﾏﾁｮｳ","pref":"北海道","city":"根室市","address":"千島町"},
{"zip_code":"0870031","kana_pref":"ﾎｯｶｲﾄﾞｳ","kana_city":"ﾈﾑﾛｼ","kana_address":"ﾂｷｵｶﾁｮｳ","pref":"北海道","city":"根室市","address":"月岡町"},
{"zip_code":"0870007","kana_pref":"ﾎｯｶｲﾄﾞｳ","kana_city":"ﾈﾑﾛｼ","kana_address":"ﾂｷﾐﾁｮｳ","pref":"北海道","city":"根室市","address":"月見町"},
{"zip_code":"0870041","kana_pref":"ﾎｯｶｲﾄﾞｳ","kana_city":"ﾈﾑﾛｼ","kana_address":"ﾄｷﾜﾁｮｳ","pref":"北海道","city":"根室市","address":"常盤町"},
{"zip_code":"0870161","kana_pref":"ﾎｯｶｲﾄﾞｳ","kana_city":"ﾈﾑﾛｼ","kana_address":"ﾄﾓｼﾘ","pref":"北海道","city":"根室市","address":"友知"},
{"zip_code":"0870167","kana_pref":"ﾎｯｶｲﾄﾞｳ","kana_city":"ﾈﾑﾛｼ","kana_address":"ﾄﾖｻﾄ","pref":"北海道","city":"根室市","address":"豊里"},
{"zip_code":"0870017","kana_pref":"ﾎｯｶｲﾄﾞｳ","kana_city":"ﾈﾑﾛｼ","kana_address":"ﾅﾙﾐﾁｮｳ","pref":"北海道","city":"根室市","address":"鳴海町"},
{"zip_code":"0870025","kana_pref":"ﾎｯｶｲﾄﾞｳ","kana_city":"ﾈﾑﾛｼ","kana_address":"ﾆｼﾊﾏﾁｮｳ","pref":"北海道","city":"根室市","address":"西浜町"},
{"zip_code":"0870033","kana_pref":"ﾎｯｶｲﾄﾞｳ","kana_city":"ﾈﾑﾛｼ","kana_address":"ﾆｼﾜﾀﾞ","pref":"北海道","city":"根室市","address":"西和田"},
{"zip_code":"0870165","kana_pref":"ﾎｯｶｲﾄﾞｳ","kana_city":"ﾈﾑﾛｼ","kana_address":"ﾉｻｯﾌﾟ","pref":"北海道","city":"根室市","address":"納沙布"},
{"zip_code":"0870015","kana_pref":"ﾎｯｶｲﾄﾞｳ","kana_city":"ﾈﾑﾛｼ","kana_address":"ﾊﾅｻｷﾁｮｳ","pref":"北海道","city":"根室市","address":"花咲町"},
{"zip_code":"0870032","kana_pref":"ﾎｯｶｲﾄﾞｳ","kana_city":"ﾈﾑﾛｼ","kana_address":"ﾊﾅｻｷﾐﾅﾄ","pref":"北海道","city":"根室市","address":"花咲港"},
{"zip_code":"0870045","kana_pref":"ﾎｯｶｲﾄﾞｳ","kana_city":"ﾈﾑﾛｼ","kana_address":"ﾊﾅｿﾞﾉﾁｮｳ","pref":"北海道","city":"根室市","address":"花園町"},
{"zip_code":"0870163","kana_pref":"ﾎｯｶｲﾄﾞｳ","kana_city":"ﾈﾑﾛｼ","kana_address":"ﾊﾎﾞﾏｲ","pref":"北海道","city":"根室市","address":"歯舞"},
{"zip_code":"0870034","kana_pref":"ﾎｯｶｲﾄﾞｳ","kana_city":"ﾈﾑﾛｼ","kana_address":"ﾋｶﾞｼﾜﾀﾞ","pref":"北海道","city":"根室市","address":"東和田"},
{"zip_code":"0870162","kana_pref":"ﾎｯｶｲﾄﾞｳ","kana_city":"ﾈﾑﾛｼ","kana_address":"ﾌﾀｵｷ","pref":"北海道","city":"根室市","address":"双沖"},
{"zip_code":"0870048","kana_pref":"ﾎｯｶｲﾄﾞｳ","kana_city":"ﾈﾑﾛｼ","kana_address":"ﾍｲﾅｲﾁｮｳ","pref":"北海道","city":"根室市","address":"平内町"},
{"zip_code":"0870011","kana_pref":"ﾎｯｶｲﾄﾞｳ","kana_city":"ﾈﾑﾛｼ","kana_address":"ﾍﾞﾝﾃﾝﾁｮｳ","pref":"北海道","city":"根室市","address":"弁天町"},
{"zip_code":"0870024","kana_pref":"ﾎｯｶｲﾄﾞｳ","kana_city":"ﾈﾑﾛｼ","kana_address":"ﾎｳﾘﾝﾁｮｳ","pref":"北海道","city":"根室市","address":"宝林町"},
{"zip_code":"0870043","kana_pref":"ﾎｯｶｲﾄﾞｳ","kana_city":"ﾈﾑﾛｼ","kana_address":"ﾎｸﾄﾁｮｳ","pref":"北海道","city":"根室市","address":"北斗町"},
{"zip_code":"0870037","kana_pref":"ﾎｯｶｲﾄﾞｳ","kana_city":"ﾈﾑﾛｼ","kana_address":"ﾎﾆｵｲ","pref":"北海道","city":"根室市","address":"穂香"},
{"zip_code":"0870036","kana_pref":"ﾎｯｶｲﾄﾞｳ","kana_city":"ﾈﾑﾛｼ","kana_address":"ﾎﾛﾓｼﾘ","pref":"北海道","city":"根室市","address":"幌茂尻"},
{"zip_code":"0870053","kana_pref":"ﾎｯｶｲﾄﾞｳ","kana_city":"ﾈﾑﾛｼ","kana_address":"ﾎﾝﾁｮｳ","pref":"北海道","city":"根室市","address":"本町"},
{"zip_code":"0870002","kana_pref":"ﾎｯｶｲﾄﾞｳ","kana_city":"ﾈﾑﾛｼ","kana_address":"ﾏｷﾉｳﾁ","pref":"北海道","city":"根室市","address":"牧の内"},
{"zip_code":"0870016","kana_pref":"ﾎｯｶｲﾄﾞｳ","kana_city":"ﾈﾑﾛｼ","kana_address":"ﾏﾂｶﾞｴﾁｮｳ","pref":"北海道","city":"根室市","address":"松ケ枝町"},
{"zip_code":"0870044","kana_pref":"ﾎｯｶｲﾄﾞｳ","kana_city":"ﾈﾑﾛｼ","kana_address":"ﾏﾂﾓﾄﾁｮｳ","pref":"北海道","city":"根室市","address":"松本町"},
{"zip_code":"0870046","kana_pref":"ﾎｯｶｲﾄﾞｳ","kana_city":"ﾈﾑﾛｼ","kana_address":"ﾐｻｷﾁｮｳ","pref":"北海道","city":"根室市","address":"岬町"},
{"zip_code":"0870051","kana_pref":"ﾎｯｶｲﾄﾞｳ","kana_city":"ﾈﾑﾛｼ","kana_address":"ﾐﾄﾞﾘﾁｮｳ","pref":"北海道","city":"根室市","address":"緑町"},
{"zip_code":"0870003","kana_pref":"ﾎｯｶｲﾄﾞｳ","kana_city":"ﾈﾑﾛｼ","kana_address":"ﾒｲｼﾞﾁｮｳ","pref":"北海道","city":"根室市","address":"明治町"},
{"zip_code":"0870009","kana_pref":"ﾎｯｶｲﾄﾞｳ","kana_city":"ﾈﾑﾛｼ","kana_address":"ﾔｻｶｴﾁｮｳ","pref":"北海道","city":"根室市","address":"弥栄町"},
{"zip_code":"0870049","kana_pref":"ﾎｯｶｲﾄﾞｳ","kana_city":"ﾈﾑﾛｼ","kana_address":"ﾔﾖｲﾁｮｳ","pref":"北海道","city":"根室市","address":"弥生町"}]}