{"zip_code":[
{"zip_code":"0880122","kana_pref":"ﾎｯｶｲﾄﾞｳ","kana_city":"ｸｼﾛｼ","kana_address":"ｵﾝﾍﾞﾂﾁｮｳｱｹﾎﾞﾉ","pref":"北海道","city":"釧路市","address":"音別町あけぼの"},
{"zip_code":"0880117","kana_pref":"ﾎｯｶｲﾄﾞｳ","kana_city":"ｸｼﾛｼ","kana_address":"ｵﾝﾍﾞﾂﾁｮｳｱｻﾋ","pref":"北海道","city":"釧路市","address":"音別町朝日"},
{"zip_code":"0880104","kana_pref":"ﾎｯｶｲﾄﾞｳ","kana_city":"ｸｼﾛｼ","kana_address":"ｵﾝﾍﾞﾂﾁｮｳｵﾝﾍﾞﾂｹﾞﾝﾔｷｾﾝ","pref":"北海道","city":"釧路市","address":"音別町音別原野基線"},
{"zip_code":"0880108","kana_pref":"ﾎｯｶｲﾄﾞｳ","kana_city":"ｸｼﾛｼ","kana_address":"ｵﾝﾍﾞﾂﾁｮｳｵﾝﾍﾞﾂｹﾞﾝﾔｷｾﾝ","pref":"北海道","city":"釧路市","address":"音別町音別原野基線"},
{"zip_code":"0880126","kana_pref":"ﾎｯｶｲﾄﾞｳ","kana_city":"ｸｼﾛｼ","kana_address":"ｵﾝﾍﾞﾂﾁｮｳｵﾝﾍﾞﾂｹﾞﾝﾔﾆｼ","pref":"北海道","city":"釧路市","address":"音別町音別原野西"},
{"zip_code":"0880109","kana_pref":"ﾎｯｶｲﾄﾞｳ","kana_city":"ｸｼﾛｼ","kana_address":"ｵﾝﾍﾞﾂﾁｮｳｵﾝﾍﾞﾂｹﾞﾝﾔﾋｶﾞｼ","pref":"北海道","city":"釧路市","address":"音別町音別原野東"},
{"zip_code":"0880114","kana_pref":"ﾎｯｶｲﾄﾞｳ","kana_city":"ｸｼﾛｼ","kana_address":"ｵﾝﾍﾞﾂﾁｮｳｶｲｺｳ","pref":"北海道","city":"釧路市","address":"音別町海光"},
{"zip_code":"0880123","kana_pref":"ﾎｯｶｲﾄﾞｳ","kana_city":"ｸｼﾛｼ","kana_address":"ｵﾝﾍﾞﾂﾁｮｳｶﾜﾋｶﾞｼ","pref":"北海道","city":"釧路市","address":"音別町川東"},
{"zip_code":"0880134","kana_pref":"ﾎｯｶｲﾄﾞｳ","kana_city":"ｸｼﾛｼ","kana_address":"ｵﾝﾍﾞﾂﾁｮｳｷﾅｼﾍﾞﾂ","pref":"北海道","city":"釧路市","address":"音別町キナシ別"},
{"zip_code":"0880125","kana_pref":"ﾎｯｶｲﾄﾞｳ","kana_city":"ｸｼﾛｼ","kana_address":"ｵﾝﾍﾞﾂﾁｮｳｷｮｳｴｲ","pref":"北海道","city":"釧路市","address":"音別町共栄"},
{"zip_code":"0880133","kana_pref":"ﾎｯｶｲﾄﾞｳ","kana_city":"ｸｼﾛｼ","kana_address":"ｵﾝﾍﾞﾂﾁｮｳｼｬｸﾍﾞﾂ","pref":"北海道","city":"釧路市","address":"音別町尺別"},
{"zip_code":"0880132","kana_pref":"ﾎｯｶｲﾄﾞｳ","kana_city":"ｸｼﾛｼ","kana_address":"ｵﾝﾍﾞﾂﾁｮｳｼｬｸﾍﾞﾂ","pref":"北海道","city":"釧路市","address":"音別町尺別"},
{"zip_code":"0880107","kana_pref":"ﾎｯｶｲﾄﾞｳ","kana_city":"ｸｼﾛｼ","kana_address":"ｵﾝﾍﾞﾂﾁｮｳﾁｬﾝﾍﾞﾂ","pref":"北海道","city":"釧路市","address":"音別町チヤンベツ"},
{"zip_code":"0880135","kana_pref":"ﾎｯｶｲﾄﾞｳ","kana_city":"ｸｼﾛｼ","kana_address":"ｵﾝﾍﾞﾂﾁｮｳﾁｮｸﾍﾞﾂ","pref":"北海道","city":"釧路市","address":"音別町直別"},
{"zip_code":"0880102","kana_pref":"ﾎｯｶｲﾄﾞｳ","kana_city":"ｸｼﾛｼ","kana_address":"ｵﾝﾍﾞﾂﾁｮｳﾅｶｵﾝﾍﾞﾂ","pref":"北海道","city":"釧路市","address":"音別町中音別"},
{"zip_code":"0880112","kana_pref":"ﾎｯｶｲﾄﾞｳ","kana_city":"ｸｼﾛｼ","kana_address":"ｵﾝﾍﾞﾂﾁｮｳﾅｶｵﾝﾍﾞﾂ","pref":"北海道","city":"釧路市","address":"音別町中音別"},
{"zip_code":"0880103","kana_pref":"ﾎｯｶｲﾄﾞｳ","kana_city":"ｸｼﾛｼ","kana_address":"ｵﾝﾍﾞﾂﾁｮｳﾅｶｵﾝﾍﾞﾂ","pref":"北海道","city":"釧路市","address":"音別町中音別"},
{"zip_code":"0880118","kana_pref":"ﾎｯｶｲﾄﾞｳ","kana_city":"ｸｼﾛｼ","kana_address":"ｵﾝﾍﾞﾂﾁｮｳﾅｶｵﾝﾍﾞﾂ","pref":"北海道","city":"釧路市","address":"音別町中音別"},
{"zip_code":"0880116","kana_pref":"ﾎｯｶｲﾄﾞｳ","kana_city":"ｸｼﾛｼ","kana_address":"ｵﾝﾍﾞﾂﾁｮｳﾅｶｿﾞﾉ","pref":"北海道","city":"釧路市","address":"音別町中園"},
{"zip_code":"0880106","kana_pref":"ﾎｯｶｲﾄﾞｳ","kana_city":"ｸｼﾛｼ","kana_address":"ｵﾝﾍﾞﾂﾁｮｳﾇﾌﾟｷﾍﾞﾂ","pref":"北海道","city":"釧路市","address":"音別町ヌプキベツ"},
{"zip_code":"0880131","kana_pref":"ﾎｯｶｲﾄﾞｳ","kana_city":"ｸｼﾛｼ","kana_address":"ｵﾝﾍﾞﾂﾁｮｳﾉﾄﾛ","pref":"北海道","city":"釧路市","address":"音別町ノトロ"},
{"zip_code":"0880101","kana_pref":"ﾎｯｶｲﾄﾞｳ","kana_city":"ｸｼﾛｼ","kana_address":"ｵﾝﾍﾞﾂﾁｮｳﾊﾟｼｸﾙ","pref":"北海道","city":"釧路市","address":"音別町馬主来"},
{"zip_code":"0880111","kana_pref":"ﾎｯｶｲﾄﾞｳ","kana_city":"ｸｼﾛｼ","kana_address":"ｵﾝﾍﾞﾂﾁｮｳﾊﾟｼｸﾙｺﾊﾝ","pref":"北海道","city":"釧路市","address":"音別町パシクル湖畔"},
{"zip_code":"0880113","kana_pref":"ﾎｯｶｲﾄﾞｳ","kana_city":"ｸｼﾛｼ","kana_address":"ｵﾝﾍﾞﾂﾁｮｳﾌｳﾚﾝ","pref":"北海道","city":"釧路市","address":"音別町風連"},
{"zip_code":"0880124","kana_pref":"ﾎｯｶｲﾄﾞｳ","kana_city":"ｸｼﾛｼ","kana_address":"ｵﾝﾍﾞﾂﾁｮｳﾐﾄﾞﾘﾏﾁ","pref":"北海道","city":"釧路市","address":"音別町緑町"},
{"zip_code":"0880105","kana_pref":"ﾎｯｶｲﾄﾞｳ","kana_city":"ｸｼﾛｼ","kana_address":"ｵﾝﾍﾞﾂﾁｮｳﾑﾘ","pref":"北海道","city":"釧路市","address":"音別町ムリ"},
{"zip_code":"0880115","kana_pref":"ﾎｯｶｲﾄﾞｳ","kana_city":"ｸｼﾛｼ","kana_address":"ｵﾝﾍﾞﾂﾁｮｳﾓﾄﾏﾁ","pref":"北海道","city":"釧路市","address":"音別町本町"},
{"zip_code":"0880121","kana_pref":"ﾎｯｶｲﾄﾞｳ","kana_city":"ｸｼﾛｼ","kana_address":"ｵﾝﾍﾞﾂﾁｮｳﾜｶｸｻ","pref":"北海道","city":"釧路市","address":"音別町若草"},
{"zip_code":"0881782","kana_pref":"ﾎｯｶｲﾄﾞｳ","kana_city":"ﾈﾑﾛｼ","kana_address":"ｵﾁｲｼﾋｶﾞｼ","pref":"北海道","city":"根室市","address":"落石東"},
{"zip_code":"0881781","kana_pref":"ﾎｯｶｲﾄﾞｳ","kana_city":"ﾈﾑﾛｼ","kana_address":"ｵﾁｲｼﾆｼ","pref":"北海道","city":"根室市","address":"落石西"},
{"zip_code":"0881784","kana_pref":"ﾎｯｶｲﾄﾞｳ","kana_city":"ﾈﾑﾛｼ","kana_address":"ｺﾝﾌﾞﾓﾘ","pref":"北海道","city":"根室市","address":"昆布盛"},
{"zip_code":"0881785","kana_pref":"ﾎｯｶｲﾄﾞｳ","kana_city":"ﾈﾑﾛｼ","kana_address":"ﾁｮｳﾌﾞｼ","pref":"北海道","city":"根室市","address":"長節"},
{"zip_code":"0881783","kana_pref":"ﾎｯｶｲﾄﾞｳ","kana_city":"ﾈﾑﾛｼ","kana_address":"ﾊﾏﾏﾂ","pref":"北海道","city":"根室市","address":"浜松"},
{"zip_code":"0880181","kana_pref":"ﾎｯｶｲﾄﾞｳ","kana_city":"ﾄｶﾁｸﾞﾝｳﾗﾎﾛﾁｮｳ","kana_address":"ﾁｮｸﾍﾞﾂ","pref":"北海道","city":"十勝郡浦幌町","address":"直別"},
{"zip_code":"0880600","kana_pref":"ﾎｯｶｲﾄﾞｳ","kana_city":"ｸｼﾛｸﾞﾝｸｼﾛﾁｮｳ","kana_address":"","pref":"北海道","city":"釧路郡釧路町","address":""},
{"zip_code":"0880616","kana_pref":"ﾎｯｶｲﾄﾞｳ","kana_city":"ｸｼﾛｸﾞﾝｸｼﾛﾁｮｳ","kana_address":"ｱｹﾎﾞﾉ","pref":"北海道","city":"釧路郡釧路町","address":"曙"},
{"zip_code":"0882154","kana_pref":"ﾎｯｶｲﾄﾞｳ","kana_city":"ｸｼﾛｸﾞﾝｸｼﾛﾁｮｳ","kana_address":"ｶｼﾜﾋｶﾞｼ","pref":"北海道","city":"釧路郡釧路町","address":"柏東"},
{"zip_code":"0882155","kana_pref":"ﾎｯｶｲﾄﾞｳ","kana_city":"ｸｼﾛｸﾞﾝｸｼﾛﾁｮｳ","kana_address":"ｶｼﾜﾆｼ","pref":"北海道","city":"釧路郡釧路町","address":"柏西"},
{"zip_code":"0880626","kana_pref":"ﾎｯｶｲﾄﾞｳ","kana_city":"ｸｼﾛｸﾞﾝｸｼﾛﾁｮｳ","kana_address":"ｶﾂﾗ","pref":"北海道","city":"釧路郡釧路町","address":"桂"},
{"zip_code":"0880621","kana_pref":"ﾎｯｶｲﾄﾞｳ","kana_city":"ｸｼﾛｸﾞﾝｸｼﾛﾁｮｳ","kana_address":"ｶﾂﾗｷﾞ","pref":"北海道","city":"釧路郡釧路町","address":"桂木"},
{"zip_code":"0882143","kana_pref":"ﾎｯｶｲﾄﾞｳ","kana_city":"ｸｼﾛｸﾞﾝｸｼﾛﾁｮｳ","kana_address":"ｶﾊﾝ","pref":"北海道","city":"釧路郡釧路町","address":"河畔"},
{"zip_code":"0880601","kana_pref":"ﾎｯｶｲﾄﾞｳ","kana_city":"ｸｼﾛｸﾞﾝｸｼﾛﾁｮｳ","kana_address":"ｶﾐﾍﾞｯﾎﾟｹﾞﾝﾔ","pref":"北海道","city":"釧路郡釧路町","address":"上別保原野"},
{"zip_code":"0880612","kana_pref":"ﾎｯｶｲﾄﾞｳ","kana_city":"ｸｼﾛｸﾞﾝｸｼﾛﾁｮｳ","kana_address":"ｶﾘｷ","pref":"北海道","city":"釧路郡釧路町","address":"雁来"},
{"zip_code":"0880625","kana_pref":"ﾎｯｶｲﾄﾞｳ","kana_city":"ｸｼﾛｸﾞﾝｸｼﾛﾁｮｳ","kana_address":"ｷﾀﾐﾀﾞﾝﾁ","pref":"北海道","city":"釧路郡釧路町","address":"北見団地"},
{"zip_code":"0880622","kana_pref":"ﾎｯｶｲﾄﾞｳ","kana_city":"ｸｼﾛｸﾞﾝｸｼﾛﾁｮｳ","kana_address":"ｷﾊﾞ","pref":"北海道","city":"釧路郡釧路町","address":"木場"},
{"zip_code":"0880609","kana_pref":"ﾎｯｶｲﾄﾞｳ","kana_city":"ｸｼﾛｸﾞﾝｸｼﾛﾁｮｳ","kana_address":"ｷｮｳﾜ","pref":"北海道","city":"釧路郡釧路町","address":"共和"},
{"zip_code":"0880623","kana_pref":"ﾎｯｶｲﾄﾞｳ","kana_city":"ｸｼﾛｸﾞﾝｸｼﾛﾁｮｳ","kana_address":"ｺｳﾜ","pref":"北海道","city":"釧路郡釧路町","address":"光和"},
{"zip_code":"0880614","kana_pref":"ﾎｯｶｲﾄﾞｳ","kana_city":"ｸｼﾛｸﾞﾝｸｼﾛﾁｮｳ","kana_address":"ｺｸﾖ","pref":"北海道","city":"釧路郡釧路町","address":"国誉"},
{"zip_code":"0880624","kana_pref":"ﾎｯｶｲﾄﾞｳ","kana_city":"ｸｼﾛｸﾞﾝｸｼﾛﾁｮｳ","kana_address":"ｼﾝｶｲ","pref":"北海道","city":"釧路郡釧路町","address":"新開"},
{"zip_code":"0880833","kana_pref":"ﾎｯｶｲﾄﾞｳ","kana_city":"ｸｼﾛｸﾞﾝｸｼﾛﾁｮｳ","kana_address":"ｾﾝﾎﾟｳｼﾑﾗ","pref":"北海道","city":"釧路郡釧路町","address":"仙鳳趾村"},
{"zip_code":"0880835","kana_pref":"ﾎｯｶｲﾄﾞｳ","kana_city":"ｸｼﾛｸﾞﾝｸｼﾛﾁｮｳ","kana_address":"ｾﾝﾎﾟｳｼﾑﾗ","pref":"北海道","city":"釧路郡釧路町","address":"仙鳳趾村"},
{"zip_code":"0880834","kana_pref":"ﾎｯｶｲﾄﾞｳ","kana_city":"ｸｼﾛｸﾞﾝｸｼﾛﾁｮｳ","kana_address":"ｾﾝﾎﾟｳｼﾑﾗ","pref":"北海道","city":"釧路郡釧路町","address":"仙鳳趾村"},
{"zip_code":"0880831","kana_pref":"ﾎｯｶｲﾄﾞｳ","kana_city":"ｸｼﾛｸﾞﾝｸｼﾛﾁｮｳ","kana_address":"ｾﾝﾎﾟｳｼﾑﾗ","pref":"北海道","city":"釧路郡釧路町","address":"仙鳳趾村"},
{"zip_code":"0880832","kana_pref":"ﾎｯｶｲﾄﾞｳ","kana_city":"ｸｼﾛｸﾞﾝｸｼﾛﾁｮｳ","kana_address":"ｾﾝﾎﾟｳｼﾑﾗ","pref":"北海道","city":"釧路郡釧路町","address":"仙鳳趾村"},
{"zip_code":"0880608","kana_pref":"ﾎｯｶｲﾄﾞｳ","kana_city":"ｸｼﾛｸﾞﾝｸｼﾛﾁｮｳ","kana_address":"ｾﾝﾎﾞｳﾀﾞｲ","pref":"北海道","city":"釧路郡釧路町","address":"釧望台"},
{"zip_code":"0882141","kana_pref":"ﾎｯｶｲﾄﾞｳ","kana_city":"ｸｼﾛｸﾞﾝｸｼﾛﾁｮｳ","kana_address":"ﾀｯｺﾌﾞ","pref":"北海道","city":"釧路郡釧路町","address":"達古武"},
{"zip_code":"0880606","kana_pref":"ﾎｯｶｲﾄﾞｳ","kana_city":"ｸｼﾛｸﾞﾝｸｼﾛﾁｮｳ","kana_address":"ﾁｭｳｵｳ","pref":"北海道","city":"釧路郡釧路町","address":"中央"},
{"zip_code":"0880628","kana_pref":"ﾎｯｶｲﾄﾞｳ","kana_city":"ｸｼﾛｸﾞﾝｸｼﾛﾁｮｳ","kana_address":"ﾄｳﾖｳｵｵﾄﾞｵﾘﾆｼ","pref":"北海道","city":"釧路郡釧路町","address":"東陽大通西"},
{"zip_code":"0880627","kana_pref":"ﾎｯｶｲﾄﾞｳ","kana_city":"ｸｼﾛｸﾞﾝｸｼﾛﾁｮｳ","kana_address":"ﾄｳﾖｳﾆｼ","pref":"北海道","city":"釧路郡釧路町","address":"東陽西"},
{"zip_code":"0882142","kana_pref":"ﾎｯｶｲﾄﾞｳ","kana_city":"ｸｼﾛｸﾞﾝｸｼﾛﾁｮｳ","kana_address":"ﾄｵﾔ","pref":"北海道","city":"釧路郡釧路町","address":"遠野"},
{"zip_code":"0882145","kana_pref":"ﾎｯｶｲﾄﾞｳ","kana_city":"ｸｼﾛｸﾞﾝｸｼﾛﾁｮｳ","kana_address":"ﾄｵﾔ","pref":"北海道","city":"釧路郡釧路町","address":"遠矢"},
{"zip_code":"0882156","kana_pref":"ﾎｯｶｲﾄﾞｳ","kana_city":"ｸｼﾛｸﾞﾝｸｼﾛﾁｮｳ","kana_address":"ﾄｵﾔﾐﾅﾐ","pref":"北海道","city":"釧路郡釧路町","address":"遠矢南"},
{"zip_code":"0880607","kana_pref":"ﾎｯｶｲﾄﾞｳ","kana_city":"ｸｼﾛｸﾞﾝｸｼﾛﾁｮｳ","kana_address":"ﾄｺﾀﾝ","pref":"北海道","city":"釧路郡釧路町","address":"床丹"},
{"zip_code":"0880618","kana_pref":"ﾎｯｶｲﾄﾞｳ","kana_city":"ｸｼﾛｸﾞﾝｸｼﾛﾁｮｳ","kana_address":"ﾄﾐﾊﾗ","pref":"北海道","city":"釧路郡釧路町","address":"富原"},
{"zip_code":"0880611","kana_pref":"ﾎｯｶｲﾄﾞｳ","kana_city":"ｸｼﾛｸﾞﾝｸｼﾛﾁｮｳ","kana_address":"ﾄﾖﾐ","pref":"北海道","city":"釧路郡釧路町","address":"豊美"},
{"zip_code":"0882144","kana_pref":"ﾎｯｶｲﾄﾞｳ","kana_city":"ｸｼﾛｸﾞﾝｸｼﾛﾁｮｳ","kana_address":"ﾄﾘｻﾄ","pref":"北海道","city":"釧路郡釧路町","address":"鳥里"},
{"zip_code":"0882148","kana_pref":"ﾎｯｶｲﾄﾞｳ","kana_city":"ｸｼﾛｸﾞﾝｸｼﾛﾁｮｳ","kana_address":"ﾄﾘﾄｳｼ","pref":"北海道","city":"釧路郡釧路町","address":"鳥通"},
{"zip_code":"0882147","kana_pref":"ﾎｯｶｲﾄﾞｳ","kana_city":"ｸｼﾛｸﾞﾝｸｼﾛﾁｮｳ","kana_address":"ﾄﾘﾄｳｼﾋｶﾞｼ","pref":"北海道","city":"釧路郡釧路町","address":"鳥通東"},
{"zip_code":"0882146","kana_pref":"ﾎｯｶｲﾄﾞｳ","kana_city":"ｸｼﾛｸﾞﾝｸｼﾛﾁｮｳ","kana_address":"ﾄﾘﾄｳｼﾆｼ","pref":"北海道","city":"釧路郡釧路町","address":"鳥通西"},
{"zip_code":"0882152","kana_pref":"ﾎｯｶｲﾄﾞｳ","kana_city":"ｸｼﾛｸﾞﾝｸｼﾛﾁｮｳ","kana_address":"ﾅﾝﾖｳﾀﾞｲ","pref":"北海道","city":"釧路郡釧路町","address":"南陽台"},
{"zip_code":"0880604","kana_pref":"ﾎｯｶｲﾄﾞｳ","kana_city":"ｸｼﾛｸﾞﾝｸｼﾛﾁｮｳ","kana_address":"ﾍﾞﾂﾎ","pref":"北海道","city":"釧路郡釧路町","address":"別保"},
{"zip_code":"0880605","kana_pref":"ﾎｯｶｲﾄﾞｳ","kana_city":"ｸｼﾛｸﾞﾝｸｼﾛﾁｮｳ","kana_address":"ﾍﾞｯﾎﾟｹﾞﾝﾔ","pref":"北海道","city":"釧路郡釧路町","address":"別保原野"},
{"zip_code":"0880602","kana_pref":"ﾎｯｶｲﾄﾞｳ","kana_city":"ｸｼﾛｸﾞﾝｸｼﾛﾁｮｳ","kana_address":"ﾍﾞｯﾎﾟﾋｶﾞｼ","pref":"北海道","city":"釧路郡釧路町","address":"別保東"},
{"zip_code":"0880603","kana_pref":"ﾎｯｶｲﾄﾞｳ","kana_city":"ｸｼﾛｸﾞﾝｸｼﾛﾁｮｳ","kana_address":"ﾍﾞｯﾎﾟﾐﾅﾐ","pref":"北海道","city":"釧路郡釧路町","address":"別保南"},
{"zip_code":"0880617","kana_pref":"ﾎｯｶｲﾄﾞｳ","kana_city":"ｸｼﾛｸﾞﾝｸｼﾛﾁｮｳ","kana_address":"ﾎｸﾄ","pref":"北海道","city":"釧路郡釧路町","address":"北都"},
{"zip_code":"0882140","kana_pref":"ﾎｯｶｲﾄﾞｳ","kana_city":"ｸｼﾛｸﾞﾝｸｼﾛﾁｮｳ","kana_address":"ﾎｿｵｶ","pref":"北海道","city":"釧路郡釧路町","address":"細岡"},
{"zip_code":"0882153","kana_pref":"ﾎｯｶｲﾄﾞｳ","kana_city":"ｸｼﾛｸﾞﾝｸｼﾛﾁｮｳ","kana_address":"ﾐﾄﾞﾘ","pref":"北海道","city":"釧路郡釧路町","address":"緑"},
{"zip_code":"0880615","kana_pref":"ﾎｯｶｲﾄﾞｳ","kana_city":"ｸｼﾛｸﾞﾝｸｼﾛﾁｮｳ","kana_address":"ﾑﾂﾐ","pref":"北海道","city":"釧路郡釧路町","address":"睦"},
{"zip_code":"0882151","kana_pref":"ﾎｯｶｲﾄﾞｳ","kana_city":"ｸｼﾛｸﾞﾝｸｼﾛﾁｮｳ","kana_address":"ﾖｼﾉ","pref":"北海道","city":"釧路郡釧路町","address":"よし野"},
{"zip_code":"0880613","kana_pref":"ﾎｯｶｲﾄﾞｳ","kana_city":"ｸｼﾛｸﾞﾝｸｼﾛﾁｮｳ","kana_address":"ﾜｶﾊﾞ","pref":"北海道","city":"釧路郡釧路町","address":"若葉"},
{"zip_code":"0882157","kana_pref":"ﾎｯｶｲﾄﾞｳ","kana_city":"ｸｼﾛｸﾞﾝｸｼﾛﾁｮｳ","kana_address":"ﾜﾗﾋﾞ","pref":"北海道","city":"釧路郡釧路町","address":"わらび"},
{"zip_code":"0881100","kana_pref":"ﾎｯｶｲﾄﾞｳ","kana_city":"ｱｯｹｼｸﾞﾝｱｯｹｼﾁｮｳ","kana_address":"","pref":"北海道","city":"厚岸郡厚岸町","address":""},
{"zip_code":"0881113","kana_pref":"ﾎｯｶｲﾄﾞｳ","kana_city":"ｱｯｹｼｸﾞﾝｱｯｹｼﾁｮｳ","kana_address":"ｱｲｶｯﾌﾟ","pref":"北海道","city":"厚岸郡厚岸町","address":"愛冠"},
{"zip_code":"0881112","kana_pref":"ﾎｯｶｲﾄﾞｳ","kana_city":"ｱｯｹｼｸﾞﾝｱｯｹｼﾁｮｳ","kana_address":"ｱﾘｱｹ","pref":"北海道","city":"厚岸郡厚岸町","address":"有明"},
{"zip_code":"0881101","kana_pref":"ﾎｯｶｲﾄﾞｳ","kana_city":"ｱｯｹｼｸﾞﾝｱｯｹｼﾁｮｳ","kana_address":"ｲﾄｲｻﾞﾜ","pref":"北海道","city":"厚岸郡厚岸町","address":"糸魚沢"},
{"zip_code":"0881131","kana_pref":"ﾎｯｶｲﾄﾞｳ","kana_city":"ｱｯｹｼｸﾞﾝｱｯｹｼﾁｮｳ","kana_address":"ｵｵﾀ","pref":"北海道","city":"厚岸郡厚岸町","address":"太田"},
{"zip_code":"0881133","kana_pref":"ﾎｯｶｲﾄﾞｳ","kana_city":"ｱｯｹｼｸﾞﾝｱｯｹｼﾁｮｳ","kana_address":"ｵｵﾀｺｳﾖｳ","pref":"北海道","city":"厚岸郡厚岸町","address":"太田宏陽"},
{"zip_code":"0881132","kana_pref":"ﾎｯｶｲﾄﾞｳ","kana_city":"ｱｯｹｼｸﾞﾝｱｯｹｼﾁｮｳ","kana_address":"ｵｵﾀﾋｶﾞｼ","pref":"北海道","city":"厚岸郡厚岸町","address":"太田東"},
{"zip_code":"0881134","kana_pref":"ﾎｯｶｲﾄﾞｳ","kana_city":"ｱｯｹｼｸﾞﾝｱｯｹｼﾁｮｳ","kana_address":"ｵｵﾀﾆｼ","pref":"北海道","city":"厚岸郡厚岸町","address":"太田西"},
{"zip_code":"0881130","kana_pref":"ﾎｯｶｲﾄﾞｳ","kana_city":"ｱｯｹｼｸﾞﾝｱｯｹｼﾁｮｳ","kana_address":"ｵｵﾀﾐﾅﾐ","pref":"北海道","city":"厚岸郡厚岸町","address":"太田南"},
{"zip_code":"0881135","kana_pref":"ﾎｯｶｲﾄﾞｳ","kana_city":"ｱｯｹｼｸﾞﾝｱｯｹｼﾁｮｳ","kana_address":"ｵｵﾀｷﾀ","pref":"北海道","city":"厚岸郡厚岸町","address":"太田北"},
{"zip_code":"0881141","kana_pref":"ﾎｯｶｲﾄﾞｳ","kana_city":"ｱｯｹｼｸﾞﾝｱｯｹｼﾁｮｳ","kana_address":"ｵｵﾀ1ﾉﾄｵﾘ","pref":"北海道","city":"厚岸郡厚岸町","address":"太田１の通り"},
{"zip_code":"0881142","kana_pref":"ﾎｯｶｲﾄﾞｳ","kana_city":"ｱｯｹｼｸﾞﾝｱｯｹｼﾁｮｳ","kana_address":"ｵｵﾀ2ﾉﾄｵﾘ","pref":"北海道","city":"厚岸郡厚岸町","address":"太田２の通り"},
{"zip_code":"0881143","kana_pref":"ﾎｯｶｲﾄﾞｳ","kana_city":"ｱｯｹｼｸﾞﾝｱｯｹｼﾁｮｳ","kana_address":"ｵｵﾀ3ﾉﾄｵﾘ","pref":"北海道","city":"厚岸郡厚岸町","address":"太田３の通り"},
{"zip_code":"0881144","kana_pref":"ﾎｯｶｲﾄﾞｳ","kana_city":"ｱｯｹｼｸﾞﾝｱｯｹｼﾁｮｳ","kana_address":"ｵｵﾀ4ﾉﾄｵﾘ","pref":"北海道","city":"厚岸郡厚岸町","address":"太田４の通り"},
{"zip_code":"0881145","kana_pref":"ﾎｯｶｲﾄﾞｳ","kana_city":"ｱｯｹｼｸﾞﾝｱｯｹｼﾁｮｳ","kana_address":"ｵｵﾀ5ﾉﾄｵﾘ","pref":"北海道","city":"厚岸郡厚岸町","address":"太田５の通り"},
{"zip_code":"0881146","kana_pref":"ﾎｯｶｲﾄﾞｳ","kana_city":"ｱｯｹｼｸﾞﾝｱｯｹｼﾁｮｳ","kana_address":"ｵｵﾀ6ﾉﾄｵﾘ","pref":"北海道","city":"厚岸郡厚岸町","address":"太田６の通り"},
{"zip_code":"0881147","kana_pref":"ﾎｯｶｲﾄﾞｳ","kana_city":"ｱｯｹｼｸﾞﾝｱｯｹｼﾁｮｳ","kana_address":"ｵｵﾀ7ﾉﾄｵﾘ","pref":"北海道","city":"厚岸郡厚岸町","address":"太田７の通り"},
{"zip_code":"0881148","kana_pref":"ﾎｯｶｲﾄﾞｳ","kana_city":"ｱｯｹｼｸﾞﾝｱｯｹｼﾁｮｳ","kana_address":"ｵｵﾀ8ﾉﾄｵﾘ","pref":"北海道","city":"厚岸郡厚岸町","address":"太田８の通り"},
{"zip_code":"0881149","kana_pref":"ﾎｯｶｲﾄﾞｳ","kana_city":"ｱｯｹｼｸﾞﾝｱｯｹｼﾁｮｳ","kana_address":"ｵｵﾀ9ﾉﾄｵﾘ","pref":"北海道","city":"厚岸郡厚岸町","address":"太田９の通り"},
{"zip_code":"0881136","kana_pref":"ﾎｯｶｲﾄﾞｳ","kana_city":"ｱｯｹｼｸﾞﾝｱｯｹｼﾁｮｳ","kana_address":"ｵｵﾍﾞﾂ","pref":"北海道","city":"厚岸郡厚岸町","address":"大別"},
{"zip_code":"0880876","kana_pref":"ﾎｯｶｲﾄﾞｳ","kana_city":"ｱｯｹｼｸﾞﾝｱｯｹｼﾁｮｳ","kana_address":"ｵｷﾏﾝﾍﾞﾂ","pref":"北海道","city":"厚岸郡厚岸町","address":"沖万別"},
{"zip_code":"0881117","kana_pref":"ﾎｯｶｲﾄﾞｳ","kana_city":"ｱｯｹｼｸﾞﾝｱｯｹｼﾁｮｳ","kana_address":"ｵｿﾅｴ","pref":"北海道","city":"厚岸郡厚岸町","address":"御供"},
{"zip_code":"0880873","kana_pref":"ﾎｯｶｲﾄﾞｳ","kana_city":"ｱｯｹｼｸﾞﾝｱｯｹｼﾁｮｳ","kana_address":"ｵｯﾎﾟﾛ","pref":"北海道","city":"厚岸郡厚岸町","address":"乙幌"},
{"zip_code":"0880871","kana_pref":"ﾎｯｶｲﾄﾞｳ","kana_city":"ｱｯｹｼｸﾞﾝｱｯｹｼﾁｮｳ","kana_address":"ｵﾎﾞﾛ","pref":"北海道","city":"厚岸郡厚岸町","address":"尾幌"},
{"zip_code":"0881137","kana_pref":"ﾎｯｶｲﾄﾞｳ","kana_city":"ｱｯｹｼｸﾞﾝｱｯｹｼﾁｮｳ","kana_address":"ｶﾀﾑｻﾘ","pref":"北海道","city":"厚岸郡厚岸町","address":"片無去"},
{"zip_code":"0880771","kana_pref":"ﾎｯｶｲﾄﾞｳ","kana_city":"ｱｯｹｼｸﾞﾝｱｯｹｼﾁｮｳ","kana_address":"ｶﾐｵﾎﾞﾛ","pref":"北海道","city":"厚岸郡厚岸町","address":"上尾幌"},
{"zip_code":"0881101","kana_pref":"ﾎｯｶｲﾄﾞｳ","kana_city":"ｱｯｹｼｸﾞﾝｱｯｹｼﾁｮｳ","kana_address":"ｶﾑｲﾜ","pref":"北海道","city":"厚岸郡厚岸町","address":"神岩"},
{"zip_code":"0881129","kana_pref":"ﾎｯｶｲﾄﾞｳ","kana_city":"ｱｯｹｼｸﾞﾝｱｯｹｼﾁｮｳ","kana_address":"ｺｳｴｲ","pref":"北海道","city":"厚岸郡厚岸町","address":"光栄"},
{"zip_code":"0881103","kana_pref":"ﾎｯｶｲﾄﾞｳ","kana_city":"ｱｯｹｼｸﾞﾝｱｯｹｼﾁｮｳ","kana_address":"ｺｼﾞﾏ","pref":"北海道","city":"厚岸郡厚岸町","address":"小島"},
{"zip_code":"0881139","kana_pref":"ﾎｯｶｲﾄﾞｳ","kana_city":"ｱｯｹｼｸﾞﾝｱｯｹｼﾁｮｳ","kana_address":"ｻｯﾃﾍﾞﾂ","pref":"北海道","city":"厚岸郡厚岸町","address":"サッテベツ"},
{"zip_code":"0881140","kana_pref":"ﾎｯｶｲﾄﾞｳ","kana_city":"ｱｯｹｼｸﾞﾝｱｯｹｼﾁｮｳ","kana_address":"ｻﾝﾇｼ","pref":"北海道","city":"厚岸郡厚岸町","address":"サンヌシ"},
{"zip_code":"0881125","kana_pref":"ﾎｯｶｲﾄﾞｳ","kana_city":"ｱｯｹｼｸﾞﾝｱｯｹｼﾁｮｳ","kana_address":"ｼﾗﾊﾏ","pref":"北海道","city":"厚岸郡厚岸町","address":"白浜"},
{"zip_code":"0881151","kana_pref":"ﾎｯｶｲﾄﾞｳ","kana_city":"ｱｯｹｼｸﾞﾝｱｯｹｼﾁｮｳ","kana_address":"ｼﾝｴｲ","pref":"北海道","city":"厚岸郡厚岸町","address":"真栄"},
{"zip_code":"0881119","kana_pref":"ﾎｯｶｲﾄﾞｳ","kana_city":"ｱｯｹｼｸﾞﾝｱｯｹｼﾁｮｳ","kana_address":"ｽﾐﾉｴ","pref":"北海道","city":"厚岸郡厚岸町","address":"住の江"},
{"zip_code":"0881138","kana_pref":"ﾎｯｶｲﾄﾞｳ","kana_city":"ｱｯｹｼｸﾞﾝｱｯｹｼﾁｮｳ","kana_address":"ｾﾀﾆｳｼ","pref":"北海道","city":"厚岸郡厚岸町","address":"セタニウシ"},
{"zip_code":"0881104","kana_pref":"ﾎｯｶｲﾄﾞｳ","kana_city":"ｱｯｹｼｸﾞﾝｱｯｹｼﾁｮｳ","kana_address":"ﾀﾞｲｺｸｼﾞﾏ","pref":"北海道","city":"厚岸郡厚岸町","address":"大黒島"},
{"zip_code":"0881101","kana_pref":"ﾎｯｶｲﾄﾞｳ","kana_city":"ｱｯｹｼｸﾞﾝｱｯｹｼﾁｮｳ","kana_address":"ﾁﾗｲｶﾘﾍﾞﾂ","pref":"北海道","city":"厚岸郡厚岸町","address":"チライカリベツ"},
{"zip_code":"0881108","kana_pref":"ﾎｯｶｲﾄﾞｳ","kana_city":"ｱｯｹｼｸﾞﾝｱｯｹｼﾁｮｳ","kana_address":"ﾂｸｼｺｲ","pref":"北海道","city":"厚岸郡厚岸町","address":"筑紫恋"},
{"zip_code":"0881106","kana_pref":"ﾎｯｶｲﾄﾞｳ","kana_city":"ｱｯｹｼｸﾞﾝｱｯｹｼﾁｮｳ","kana_address":"ﾄｳﾊﾞｲ","pref":"北海道","city":"厚岸郡厚岸町","address":"東梅"},
{"zip_code":"0881102","kana_pref":"ﾎｯｶｲﾄﾞｳ","kana_city":"ｱｯｹｼｸﾞﾝｱｯｹｼﾁｮｳ","kana_address":"ﾄｷﾀｲ","pref":"北海道","city":"厚岸郡厚岸町","address":"登喜岱"},
{"zip_code":"0881107","kana_pref":"ﾎｯｶｲﾄﾞｳ","kana_city":"ｱｯｹｼｸﾞﾝｱｯｹｼﾁｮｳ","kana_address":"ﾄｺﾀﾝ","pref":"北海道","city":"厚岸郡厚岸町","address":"床潭"},
{"zip_code":"0880875","kana_pref":"ﾎｯｶｲﾄﾞｳ","kana_city":"ｱｯｹｼｸﾞﾝｱｯｹｼﾁｮｳ","kana_address":"ﾄﾏﾀ","pref":"北海道","city":"厚岸郡厚岸町","address":"苫多"},
{"zip_code":"0881389","kana_pref":"ﾎｯｶｲﾄﾞｳ","kana_city":"ｱｯｹｼｸﾞﾝｱｯｹｼﾁｮｳ","kana_address":"ﾄﾗｲﾍﾞﾂ","pref":"北海道","city":"厚岸郡厚岸町","address":"トライベツ"},
{"zip_code":"0881115","kana_pref":"ﾎｯｶｲﾄﾞｳ","kana_city":"ｱｯｹｼｸﾞﾝｱｯｹｼﾁｮｳ","kana_address":"ﾊﾞｲｶ","pref":"北海道","city":"厚岸郡厚岸町","address":"梅香"},
{"zip_code":"0880877","kana_pref":"ﾎｯｶｲﾄﾞｳ","kana_city":"ｱｯｹｼｸﾞﾝｱｯｹｼﾁｮｳ","kana_address":"ﾋﾞﾝﾅｲ","pref":"北海道","city":"厚岸郡厚岸町","address":"敏内"},
{"zip_code":"0881101","kana_pref":"ﾎｯｶｲﾄﾞｳ","kana_city":"ｱｯｹｼｸﾞﾝｱｯｹｼﾁｮｳ","kana_address":"ﾍﾞｶﾝﾍﾞｳｼ","pref":"北海道","city":"厚岸郡厚岸町","address":"別寒辺牛"},
{"zip_code":"0881101","kana_pref":"ﾎｯｶｲﾄﾞｳ","kana_city":"ｱｯｹｼｸﾞﾝｱｯｹｼﾁｮｳ","kana_address":"ﾎﾛﾆﾀｲ","pref":"北海道","city":"厚岸郡厚岸町","address":"ホロニタイ"},
{"zip_code":"0881111","kana_pref":"ﾎｯｶｲﾄﾞｳ","kana_city":"ｱｯｹｼｸﾞﾝｱｯｹｼﾁｮｳ","kana_address":"ﾎﾟﾝﾄ","pref":"北海道","city":"厚岸郡厚岸町","address":"奔渡"},
{"zip_code":"0881116","kana_pref":"ﾎｯｶｲﾄﾞｳ","kana_city":"ｱｯｹｼｸﾞﾝｱｯｹｼﾁｮｳ","kana_address":"ﾏﾂﾊﾞ","pref":"北海道","city":"厚岸郡厚岸町","address":"松葉"},
{"zip_code":"0881105","kana_pref":"ﾎｯｶｲﾄﾞｳ","kana_city":"ｱｯｹｼｸﾞﾝｱｯｹｼﾁｮｳ","kana_address":"ﾏﾋﾞﾛ","pref":"北海道","city":"厚岸郡厚岸町","address":"末広"},
{"zip_code":"0881128","kana_pref":"ﾎｯｶｲﾄﾞｳ","kana_city":"ｱｯｹｼｸﾞﾝｱｯｹｼﾁｮｳ","kana_address":"ﾐﾅﾄﾏﾁ","pref":"北海道","city":"厚岸郡厚岸町","address":"港町"},
{"zip_code":"0881124","kana_pref":"ﾎｯｶｲﾄﾞｳ","kana_city":"ｱｯｹｼｸﾞﾝｱｯｹｼﾁｮｳ","kana_address":"ﾐﾔｿﾞﾉ","pref":"北海道","city":"厚岸郡厚岸町","address":"宮園"},
{"zip_code":"0880874","kana_pref":"ﾎｯｶｲﾄﾞｳ","kana_city":"ｱｯｹｼｸﾞﾝｱｯｹｼﾁｮｳ","kana_address":"ﾓﾝｼｽﾞ","pref":"北海道","city":"厚岸郡厚岸町","address":"門静"},
{"zip_code":"0881126","kana_pref":"ﾎｯｶｲﾄﾞｳ","kana_city":"ｱｯｹｼｸﾞﾝｱｯｹｼﾁｮｳ","kana_address":"ﾓﾝｼｽﾞ","pref":"北海道","city":"厚岸郡厚岸町","address":"門静"},
{"zip_code":"0881120","kana_pref":"ﾎｯｶｲﾄﾞｳ","kana_city":"ｱｯｹｼｸﾞﾝｱｯｹｼﾁｮｳ","kana_address":"ﾔﾏﾉﾃ","pref":"北海道","city":"厚岸郡厚岸町","address":"山の手"},
{"zip_code":"0880872","kana_pref":"ﾎｯｶｲﾄﾞｳ","kana_city":"ｱｯｹｼｸﾞﾝｱｯｹｼﾁｮｳ","kana_address":"ﾗｲﾍﾞﾂ","pref":"北海道","city":"厚岸郡厚岸町","address":"来別"},
{"zip_code":"0880878","kana_pref":"ﾎｯｶｲﾄﾞｳ","kana_city":"ｱｯｹｼｸﾞﾝｱｯｹｼﾁｮｳ","kana_address":"ﾙｰｸｼｭﾎﾟｰﾙ","pref":"北海道","city":"厚岸郡厚岸町","address":"ルークシュポール"},
{"zip_code":"0881118","kana_pref":"ﾎｯｶｲﾄﾞｳ","kana_city":"ｱｯｹｼｸﾞﾝｱｯｹｼﾁｮｳ","kana_address":"ﾜｶﾀｹ","pref":"北海道","city":"厚岸郡厚岸町","address":"若竹"},
{"zip_code":"0881118","kana_pref":"ﾎｯｶｲﾄﾞｳ","kana_city":"ｱｯｹｼｸﾞﾝｱｯｹｼﾁｮｳ","kana_address":"ﾜｶﾀｹﾁｮｳ","pref":"北海道","city":"厚岸郡厚岸町","address":"若竹町"},
{"zip_code":"0881101","kana_pref":"ﾎｯｶｲﾄﾞｳ","kana_city":"ｱｯｹｼｸﾞﾝｱｯｹｼﾁｮｳ","kana_address":"ﾜｶﾏﾂ","pref":"北海道","city":"厚岸郡厚岸町","address":"若松"},
{"zip_code":"0881114","kana_pref":"ﾎｯｶｲﾄﾞｳ","kana_city":"ｱｯｹｼｸﾞﾝｱｯｹｼﾁｮｳ","kana_address":"ﾜﾝｹﾞﾂ","pref":"北海道","city":"厚岸郡厚岸町","address":"湾月"},
{"zip_code":"0881500","kana_pref":"ﾎｯｶｲﾄﾞｳ","kana_city":"ｱｯｹｼｸﾞﾝﾊﾏﾅｶﾁｮｳ","kana_address":"","pref":"北海道","city":"厚岸郡浜中町","address":""},
{"zip_code":"0881406","kana_pref":"ﾎｯｶｲﾄﾞｳ","kana_city":"ｱｯｹｼｸﾞﾝﾊﾏﾅｶﾁｮｳ","kana_address":"ｱｶﾄﾞﾏﾘ","pref":"北海道","city":"厚岸郡浜中町","address":"赤泊"},
{"zip_code":"0881403","kana_pref":"ﾎｯｶｲﾄﾞｳ","kana_city":"ｱｯｹｼｸﾞﾝﾊﾏﾅｶﾁｮｳ","kana_address":"ｱｻﾞﾗｯﾌﾟ","pref":"北海道","city":"厚岸郡浜中町","address":"アザラップ"},
{"zip_code":"0881646","kana_pref":"ﾎｯｶｲﾄﾞｳ","kana_city":"ｱｯｹｼｸﾞﾝﾊﾏﾅｶﾁｮｳ","kana_address":"ｱﾈﾍﾞﾂ","pref":"北海道","city":"厚岸郡浜中町","address":"姉別"},
{"zip_code":"0881648","kana_pref":"ﾎｯｶｲﾄﾞｳ","kana_city":"ｱｯｹｼｸﾞﾝﾊﾏﾅｶﾁｮｳ","kana_address":"ｱﾈﾍﾞﾂｷﾀ","pref":"北海道","city":"厚岸郡浜中町","address":"姉別北"},
{"zip_code":"0881647","kana_pref":"ﾎｯｶｲﾄﾞｳ","kana_city":"ｱｯｹｼｸﾞﾝﾊﾏﾅｶﾁｮｳ","kana_address":"ｱﾈﾍﾞﾂﾐﾅﾐ","pref":"北海道","city":"厚岸郡浜中町","address":"姉別南"},
{"zip_code":"0881649","kana_pref":"ﾎｯｶｲﾄﾞｳ","kana_city":"ｱｯｹｼｸﾞﾝﾊﾏﾅｶﾁｮｳ","kana_address":"ｱﾈﾍﾞﾂﾘｮｸｴｲ","pref":"北海道","city":"厚岸郡浜中町","address":"姉別緑栄"},
{"zip_code":"0881301","kana_pref":"ﾎｯｶｲﾄﾞｳ","kana_city":"ｱｯｹｼｸﾞﾝﾊﾏﾅｶﾁｮｳ","kana_address":"ｲﾁﾊﾞﾝｻﾜ","pref":"北海道","city":"厚岸郡浜中町","address":"一番沢"},
{"zip_code":"0881406","kana_pref":"ﾎｯｶｲﾄﾞｳ","kana_city":"ｱｯｹｼｸﾞﾝﾊﾏﾅｶﾁｮｳ","kana_address":"ｳﾗﾔｺﾀﾝ","pref":"北海道","city":"厚岸郡浜中町","address":"羨古丹"},
{"zip_code":"0881644","kana_pref":"ﾎｯｶｲﾄﾞｳ","kana_city":"ｱｯｹｼｸﾞﾝﾊﾏﾅｶﾁｮｳ","kana_address":"ｴｻｼﾄ","pref":"北海道","city":"厚岸郡浜中町","address":"恵茶人"},
{"zip_code":"0881371","kana_pref":"ﾎｯｶｲﾄﾞｳ","kana_city":"ｱｯｹｼｸﾞﾝﾊﾏﾅｶﾁｮｳ","kana_address":"ｴﾝｼｭﾍﾞﾂﾆｼ","pref":"北海道","city":"厚岸郡浜中町","address":"円朱別西"},
{"zip_code":"0881408","kana_pref":"ﾎｯｶｲﾄﾞｳ","kana_city":"ｱｯｹｼｸﾞﾝﾊﾏﾅｶﾁｮｳ","kana_address":"ｵｵﾂﾔｻﾞﾜ","pref":"北海道","city":"厚岸郡浜中町","address":"大津屋沢"},
{"zip_code":"0881561","kana_pref":"ﾎｯｶｲﾄﾞｳ","kana_city":"ｱｯｹｼｸﾞﾝﾊﾏﾅｶﾁｮｳ","kana_address":"ｷﾘﾀｯﾌﾟｼﾂｹﾞﾝ","pref":"北海道","city":"厚岸郡浜中町","address":"霧多布湿原"},
{"zip_code":"0881551","kana_pref":"ﾎｯｶｲﾄﾞｳ","kana_city":"ｱｯｹｼｸﾞﾝﾊﾏﾅｶﾁｮｳ","kana_address":"ｷﾘﾀｯﾌﾟﾆｼ1ｼﾞｮｳ","pref":"北海道","city":"厚岸郡浜中町","address":"霧多布西一条"},
{"zip_code":"0881552","kana_pref":"ﾎｯｶｲﾄﾞｳ","kana_city":"ｱｯｹｼｸﾞﾝﾊﾏﾅｶﾁｮｳ","kana_address":"ｷﾘﾀｯﾌﾟﾆｼ2ｼﾞｮｳ","pref":"北海道","city":"厚岸郡浜中町","address":"霧多布西二条"},
{"zip_code":"0881553","kana_pref":"ﾎｯｶｲﾄﾞｳ","kana_city":"ｱｯｹｼｸﾞﾝﾊﾏﾅｶﾁｮｳ","kana_address":"ｷﾘﾀｯﾌﾟﾆｼ3ｼﾞｮｳ","pref":"北海道","city":"厚岸郡浜中町","address":"霧多布西三条"},
{"zip_code":"0881554","kana_pref":"ﾎｯｶｲﾄﾞｳ","kana_city":"ｱｯｹｼｸﾞﾝﾊﾏﾅｶﾁｮｳ","kana_address":"ｷﾘﾀｯﾌﾟﾆｼ4ｼﾞｮｳ","pref":"北海道","city":"厚岸郡浜中町","address":"霧多布西四条"},
{"zip_code":"0881511","kana_pref":"ﾎｯｶｲﾄﾞｳ","kana_city":"ｱｯｹｼｸﾞﾝﾊﾏﾅｶﾁｮｳ","kana_address":"ｷﾘﾀｯﾌﾟﾋｶﾞｼ1ｼﾞｮｳ","pref":"北海道","city":"厚岸郡浜中町","address":"霧多布東一条"},
{"zip_code":"0881512","kana_pref":"ﾎｯｶｲﾄﾞｳ","kana_city":"ｱｯｹｼｸﾞﾝﾊﾏﾅｶﾁｮｳ","kana_address":"ｷﾘﾀｯﾌﾟﾋｶﾞｼ2ｼﾞｮｳ","pref":"北海道","city":"厚岸郡浜中町","address":"霧多布東二条"},
{"zip_code":"0881513","kana_pref":"ﾎｯｶｲﾄﾞｳ","kana_city":"ｱｯｹｼｸﾞﾝﾊﾏﾅｶﾁｮｳ","kana_address":"ｷﾘﾀｯﾌﾟﾋｶﾞｼ3ｼﾞｮｳ","pref":"北海道","city":"厚岸郡浜中町","address":"霧多布東三条"},
{"zip_code":"0881514","kana_pref":"ﾎｯｶｲﾄﾞｳ","kana_city":"ｱｯｹｼｸﾞﾝﾊﾏﾅｶﾁｮｳ","kana_address":"ｷﾘﾀｯﾌﾟﾋｶﾞｼ4ｼﾞｮｳ","pref":"北海道","city":"厚岸郡浜中町","address":"霧多布東四条"},
{"zip_code":"0881486","kana_pref":"ﾎｯｶｲﾄﾞｳ","kana_city":"ｱｯｹｼｸﾞﾝﾊﾏﾅｶﾁｮｳ","kana_address":"ｸﾏｳｼ","pref":"北海道","city":"厚岸郡浜中町","address":"熊牛"},
{"zip_code":"0881401","kana_pref":"ﾎｯｶｲﾄﾞｳ","kana_city":"ｱｯｹｼｸﾞﾝﾊﾏﾅｶﾁｮｳ","kana_address":"ｻｶｷﾏﾁ","pref":"北海道","city":"厚岸郡浜中町","address":"榊町"},
{"zip_code":"0881407","kana_pref":"ﾎｯｶｲﾄﾞｳ","kana_city":"ｱｯｹｼｸﾞﾝﾊﾏﾅｶﾁｮｳ","kana_address":"ｻｶｷﾏﾁﾆｼ","pref":"北海道","city":"厚岸郡浜中町","address":"榊町西"},
{"zip_code":"0881303","kana_pref":"ﾎｯｶｲﾄﾞｳ","kana_city":"ｱｯｹｼｸﾞﾝﾊﾏﾅｶﾁｮｳ","kana_address":"ｻﾝﾊﾞﾝｻﾜ","pref":"北海道","city":"厚岸郡浜中町","address":"三番沢"},
{"zip_code":"0881402","kana_pref":"ﾎｯｶｲﾄﾞｳ","kana_city":"ｱｯｹｼｸﾞﾝﾊﾏﾅｶﾁｮｳ","kana_address":"ｼﾘｼｽﾞ","pref":"北海道","city":"厚岸郡浜中町","address":"後静"},
{"zip_code":"0881412","kana_pref":"ﾎｯｶｲﾄﾞｳ","kana_city":"ｱｯｹｼｸﾞﾝﾊﾏﾅｶﾁｮｳ","kana_address":"ｼﾘｼｽﾞﾑﾗ","pref":"北海道","city":"厚岸郡浜中町","address":"後静村"},
{"zip_code":"0881526","kana_pref":"ﾎｯｶｲﾄﾞｳ","kana_city":"ｱｯｹｼｸﾞﾝﾊﾏﾅｶﾁｮｳ","kana_address":"ｼﾝｶﾜ","pref":"北海道","city":"厚岸郡浜中町","address":"新川"},
{"zip_code":"0881528","kana_pref":"ﾎｯｶｲﾄﾞｳ","kana_city":"ｱｯｹｼｸﾞﾝﾊﾏﾅｶﾁｮｳ","kana_address":"ｼﾝｶﾜﾆｼ","pref":"北海道","city":"厚岸郡浜中町","address":"新川西"},
{"zip_code":"0881527","kana_pref":"ﾎｯｶｲﾄﾞｳ","kana_city":"ｱｯｹｼｸﾞﾝﾊﾏﾅｶﾁｮｳ","kana_address":"ｼﾝｶﾜﾋｶﾞｼ","pref":"北海道","city":"厚岸郡浜中町","address":"新川東"},
{"zip_code":"0881645","kana_pref":"ﾎｯｶｲﾄﾞｳ","kana_city":"ｱｯｹｼｸﾞﾝﾊﾏﾅｶﾁｮｳ","kana_address":"ｾﾝﾎﾟｳｼﾞ","pref":"北海道","city":"厚岸郡浜中町","address":"仙鳳趾"},
{"zip_code":"0881367","kana_pref":"ﾎｯｶｲﾄﾞｳ","kana_city":"ｱｯｹｼｸﾞﾝﾊﾏﾅｶﾁｮｳ","kana_address":"ﾁｬﾅｲｱｻﾋ","pref":"北海道","city":"厚岸郡浜中町","address":"茶内旭"},
{"zip_code":"0881368","kana_pref":"ﾎｯｶｲﾄﾞｳ","kana_city":"ｱｯｹｼｸﾞﾝﾊﾏﾅｶﾁｮｳ","kana_address":"ﾁｬﾅｲｷｾﾝ","pref":"北海道","city":"厚岸郡浜中町","address":"茶内基線"},
{"zip_code":"0881366","kana_pref":"ﾎｯｶｲﾄﾞｳ","kana_city":"ｱｯｹｼｸﾞﾝﾊﾏﾅｶﾁｮｳ","kana_address":"ﾁｬﾅｲｷｮｳﾎｸﾆｼ","pref":"北海道","city":"厚岸郡浜中町","address":"茶内橋北西"},
{"zip_code":"0881365","kana_pref":"ﾎｯｶｲﾄﾞｳ","kana_city":"ｱｯｹｼｸﾞﾝﾊﾏﾅｶﾁｮｳ","kana_address":"ﾁｬﾅｲｷｮｳﾎｸﾋｶﾞｼ","pref":"北海道","city":"厚岸郡浜中町","address":"茶内橋北東"},
{"zip_code":"0881363","kana_pref":"ﾎｯｶｲﾄﾞｳ","kana_city":"ｱｯｹｼｸﾞﾝﾊﾏﾅｶﾁｮｳ","kana_address":"ﾁｬﾅｲｻｶｴ","pref":"北海道","city":"厚岸郡浜中町","address":"茶内栄"},
{"zip_code":"0881369","kana_pref":"ﾎｯｶｲﾄﾞｳ","kana_city":"ｱｯｹｼｸﾞﾝﾊﾏﾅｶﾁｮｳ","kana_address":"ﾁｬﾅｲﾆｼ","pref":"北海道","city":"厚岸郡浜中町","address":"茶内西"},
{"zip_code":"0881368","kana_pref":"ﾎｯｶｲﾄﾞｳ","kana_city":"ｱｯｹｼｸﾞﾝﾊﾏﾅｶﾁｮｳ","kana_address":"ﾁｬﾅｲﾋｶﾞｼ1ｾﾝ","pref":"北海道","city":"厚岸郡浜中町","address":"茶内東１線"},
{"zip_code":"0881368","kana_pref":"ﾎｯｶｲﾄﾞｳ","kana_city":"ｱｯｹｼｸﾞﾝﾊﾏﾅｶﾁｮｳ","kana_address":"ﾁｬﾅｲﾋｶﾞｼ2ｾﾝ","pref":"北海道","city":"厚岸郡浜中町","address":"茶内東２線"},
{"zip_code":"0881487","kana_pref":"ﾎｯｶｲﾄﾞｳ","kana_city":"ｱｯｹｼｸﾞﾝﾊﾏﾅｶﾁｮｳ","kana_address":"ﾁｬﾅｲﾋｶﾞｼ3ｾﾝ","pref":"北海道","city":"厚岸郡浜中町","address":"茶内東３線"},
{"zip_code":"0881487","kana_pref":"ﾎｯｶｲﾄﾞｳ","kana_city":"ｱｯｹｼｸﾞﾝﾊﾏﾅｶﾁｮｳ","kana_address":"ﾁｬﾅｲﾋｶﾞｼ4ｾﾝ","pref":"北海道","city":"厚岸郡浜中町","address":"茶内東４線"},
{"zip_code":"0881487","kana_pref":"ﾎｯｶｲﾄﾞｳ","kana_city":"ｱｯｹｼｸﾞﾝﾊﾏﾅｶﾁｮｳ","kana_address":"ﾁｬﾅｲﾋｶﾞｼ5ｾﾝ","pref":"北海道","city":"厚岸郡浜中町","address":"茶内東５線"},
{"zip_code":"0881487","kana_pref":"ﾎｯｶｲﾄﾞｳ","kana_city":"ｱｯｹｼｸﾞﾝﾊﾏﾅｶﾁｮｳ","kana_address":"ﾁｬﾅｲﾋｶﾞｼ6ｾﾝ","pref":"北海道","city":"厚岸郡浜中町","address":"茶内東６線"},
{"zip_code":"0881361","kana_pref":"ﾎｯｶｲﾄﾞｳ","kana_city":"ｱｯｹｼｸﾞﾝﾊﾏﾅｶﾁｮｳ","kana_address":"ﾁｬﾅｲﾐﾄﾞﾘ","pref":"北海道","city":"厚岸郡浜中町","address":"茶内緑"},
{"zip_code":"0881362","kana_pref":"ﾎｯｶｲﾄﾞｳ","kana_city":"ｱｯｹｼｸﾞﾝﾊﾏﾅｶﾁｮｳ","kana_address":"ﾁｬﾅｲﾓﾄﾏﾁ","pref":"北海道","city":"厚岸郡浜中町","address":"茶内本町"},
{"zip_code":"0881364","kana_pref":"ﾎｯｶｲﾄﾞｳ","kana_city":"ｱｯｹｼｸﾞﾝﾊﾏﾅｶﾁｮｳ","kana_address":"ﾁｬﾅｲﾜｶﾊﾞ","pref":"北海道","city":"厚岸郡浜中町","address":"茶内若葉"},
{"zip_code":"0881360","kana_pref":"ﾎｯｶｲﾄﾞｳ","kana_city":"ｱｯｹｼｸﾞﾝﾊﾏﾅｶﾁｮｳ","kana_address":"ﾁﾘｯﾌﾟﾑﾗ","pref":"北海道","city":"厚岸郡浜中町","address":"散布村"},
{"zip_code":"0881522","kana_pref":"ﾎｯｶｲﾄﾞｳ","kana_city":"ｱｯｹｼｸﾞﾝﾊﾏﾅｶﾁｮｳ","kana_address":"ﾄｳﾌﾂ","pref":"北海道","city":"厚岸郡浜中町","address":"湯沸"},
{"zip_code":"0881571","kana_pref":"ﾎｯｶｲﾄﾞｳ","kana_city":"ｱｯｹｼｸﾞﾝﾊﾏﾅｶﾁｮｳ","kana_address":"ﾄﾞｳﾕｳﾘﾝ","pref":"北海道","city":"厚岸郡浜中町","address":"道有林"},
{"zip_code":"0881531","kana_pref":"ﾎｯｶｲﾄﾞｳ","kana_city":"ｱｯｹｼｸﾞﾝﾊﾏﾅｶﾁｮｳ","kana_address":"ﾅｶﾉﾊﾏ","pref":"北海道","city":"厚岸郡浜中町","address":"仲の浜"},
{"zip_code":"0881370","kana_pref":"ﾎｯｶｲﾄﾞｳ","kana_city":"ｱｯｹｼｸﾞﾝﾊﾏﾅｶﾁｮｳ","kana_address":"ﾆｼｴﾝｼｭﾍﾞﾂﾆｼ","pref":"北海道","city":"厚岸郡浜中町","address":"西円朱別西"},
{"zip_code":"0881302","kana_pref":"ﾎｯｶｲﾄﾞｳ","kana_city":"ｱｯｹｼｸﾞﾝﾊﾏﾅｶﾁｮｳ","kana_address":"ﾆﾊﾞﾝｻﾜ","pref":"北海道","city":"厚岸郡浜中町","address":"二番沢"},
{"zip_code":"0881409","kana_pref":"ﾎｯｶｲﾄﾞｳ","kana_city":"ｱｯｹｼｸﾞﾝﾊﾏﾅｶﾁｮｳ","kana_address":"ﾊｼﾘｺﾀﾝ","pref":"北海道","city":"厚岸郡浜中町","address":"走古潭"},
{"zip_code":"0881485","kana_pref":"ﾎｯｶｲﾄﾞｳ","kana_city":"ｱｯｹｼｸﾞﾝﾊﾏﾅｶﾁｮｳ","kana_address":"ﾊﾏﾅｶ","pref":"北海道","city":"厚岸郡浜中町","address":"浜中"},
{"zip_code":"0881536","kana_pref":"ﾎｯｶｲﾄﾞｳ","kana_city":"ｱｯｹｼｸﾞﾝﾊﾏﾅｶﾁｮｳ","kana_address":"ﾋﾁﾘｯﾌﾟ","pref":"北海道","city":"厚岸郡浜中町","address":"火散布"},
{"zip_code":"0881532","kana_pref":"ﾎｯｶｲﾄﾞｳ","kana_city":"ｱｯｹｼｸﾞﾝﾊﾏﾅｶﾁｮｳ","kana_address":"ﾋﾞﾜｾ","pref":"北海道","city":"厚岸郡浜中町","address":"琵琶瀬"},
{"zip_code":"0881525","kana_pref":"ﾎｯｶｲﾄﾞｳ","kana_city":"ｱｯｹｼｸﾞﾝﾊﾏﾅｶﾁｮｳ","kana_address":"ﾎﾞｷﾍﾞﾂﾆｼ","pref":"北海道","city":"厚岸郡浜中町","address":"暮帰別西"},
{"zip_code":"0881524","kana_pref":"ﾎｯｶｲﾄﾞｳ","kana_city":"ｱｯｹｼｸﾞﾝﾊﾏﾅｶﾁｮｳ","kana_address":"ﾎﾞｷﾍﾞﾂﾋｶﾞｼ","pref":"北海道","city":"厚岸郡浜中町","address":"暮帰別東"},
{"zip_code":"0881403","kana_pref":"ﾎｯｶｲﾄﾞｳ","kana_city":"ｱｯｹｼｸﾞﾝﾊﾏﾅｶﾁｮｳ","kana_address":"ﾎﾟﾛﾄ","pref":"北海道","city":"厚岸郡浜中町","address":"幌戸"},
{"zip_code":"0881405","kana_pref":"ﾎｯｶｲﾄﾞｳ","kana_city":"ｱｯｹｼｸﾞﾝﾊﾏﾅｶﾁｮｳ","kana_address":"ﾎﾟﾝﾎﾟﾛﾄ","pref":"北海道","city":"厚岸郡浜中町","address":"奔幌戸"},
{"zip_code":"0881537","kana_pref":"ﾎｯｶｲﾄﾞｳ","kana_city":"ｱｯｹｼｸﾞﾝﾊﾏﾅｶﾁｮｳ","kana_address":"ﾏﾙﾔﾏﾁﾘｯﾌﾟ","pref":"北海道","city":"厚岸郡浜中町","address":"丸山散布"},
{"zip_code":"0881404","kana_pref":"ﾎｯｶｲﾄﾞｳ","kana_city":"ｱｯｹｼｸﾞﾝﾊﾏﾅｶﾁｮｳ","kana_address":"ﾑｷﾞｶﾗｼﾅｲ","pref":"北海道","city":"厚岸郡浜中町","address":"ムギカラシナイ"},
{"zip_code":"0881643","kana_pref":"ﾎｯｶｲﾄﾞｳ","kana_city":"ｱｯｹｼｸﾞﾝﾊﾏﾅｶﾁｮｳ","kana_address":"ﾓｳﾗｲﾄ","pref":"北海道","city":"厚岸郡浜中町","address":"貰人"},
{"zip_code":"0881538","kana_pref":"ﾎｯｶｲﾄﾞｳ","kana_city":"ｱｯｹｼｸﾞﾝﾊﾏﾅｶﾁｮｳ","kana_address":"ﾓﾁﾘｯﾌﾟ","pref":"北海道","city":"厚岸郡浜中町","address":"藻散布"},
{"zip_code":"0881535","kana_pref":"ﾎｯｶｲﾄﾞｳ","kana_city":"ｱｯｹｼｸﾞﾝﾊﾏﾅｶﾁｮｳ","kana_address":"ﾖｳﾛｳﾁﾘｯﾌﾟ","pref":"北海道","city":"厚岸郡浜中町","address":"養老散布"},
{"zip_code":"0881402","kana_pref":"ﾎｯｶｲﾄﾞｳ","kana_city":"ｱｯｹｼｸﾞﾝﾊﾏﾅｶﾁｮｳ","kana_address":"ﾖｺﾊﾏ","pref":"北海道","city":"厚岸郡浜中町","address":"横浜"},
{"zip_code":"0881304","kana_pref":"ﾎｯｶｲﾄﾞｳ","kana_city":"ｱｯｹｼｸﾞﾝﾊﾏﾅｶﾁｮｳ","kana_address":"ﾖﾊﾞﾝｻﾜ","pref":"北海道","city":"厚岸郡浜中町","address":"四番沢"},
{"zip_code":"0881306","kana_pref":"ﾎｯｶｲﾄﾞｳ","kana_city":"ｱｯｹｼｸﾞﾝﾊﾏﾅｶﾁｮｳ","kana_address":"ﾛｸﾊﾞﾝｻﾜ","pref":"北海道","city":"厚岸郡浜中町","address":"六番沢"},
{"zip_code":"0881534","kana_pref":"ﾎｯｶｲﾄﾞｳ","kana_city":"ｱｯｹｼｸﾞﾝﾊﾏﾅｶﾁｮｳ","kana_address":"ﾜﾀﾘﾁﾘｯﾌﾟ","pref":"北海道","city":"厚岸郡浜中町","address":"渡散布"},
{"zip_code":"0882300","kana_pref":"ﾎｯｶｲﾄﾞｳ","kana_city":"ｶﾜｶﾐｸﾞﾝｼﾍﾞﾁｬﾁｮｳ","kana_address":"","pref":"北海道","city":"川上郡標茶町","address":""},
{"zip_code":"0882301","kana_pref":"ﾎｯｶｲﾄﾞｳ","kana_city":"ｶﾜｶﾐｸﾞﾝｼﾍﾞﾁｬﾁｮｳ","kana_address":"ｱｻﾋ","pref":"北海道","city":"川上郡標茶町","address":"旭"},
{"zip_code":"0882305","kana_pref":"ﾎｯｶｲﾄﾞｳ","kana_city":"ｶﾜｶﾐｸﾞﾝｼﾍﾞﾁｬﾁｮｳ","kana_address":"ｱｻﾞﾌﾞ","pref":"北海道","city":"川上郡標茶町","address":"麻生"},
{"zip_code":"0882271","kana_pref":"ﾎｯｶｲﾄﾞｳ","kana_city":"ｶﾜｶﾐｸﾞﾝｼﾍﾞﾁｬﾁｮｳ","kana_address":"ｱﾚｷﾅｲ","pref":"北海道","city":"川上郡標茶町","address":"阿歴内"},
{"zip_code":"0882272","kana_pref":"ﾎｯｶｲﾄﾞｳ","kana_city":"ｶﾜｶﾐｸﾞﾝｼﾍﾞﾁｬﾁｮｳ","kana_address":"ｱﾚｷﾅｲｹﾞﾝﾔ","pref":"北海道","city":"川上郡標茶町","address":"阿歴内原野"},
{"zip_code":"0883157","kana_pref":"ﾎｯｶｲﾄﾞｳ","kana_city":"ｶﾜｶﾐｸﾞﾝｼﾍﾞﾁｬﾁｮｳ","kana_address":"ｲｿﾌﾞﾝﾅｲｺｲ","pref":"北海道","city":"川上郡標茶町","address":"磯分内憩"},
{"zip_code":"0883149","kana_pref":"ﾎｯｶｲﾄﾞｳ","kana_city":"ｶﾜｶﾐｸﾞﾝｼﾍﾞﾁｬﾁｮｳ","kana_address":"ｲｿﾌﾞﾝﾅｲｵﾂﾆｼ","pref":"北海道","city":"川上郡標茶町","address":"磯分内乙西"},
{"zip_code":"0883151","kana_pref":"ﾎｯｶｲﾄﾞｳ","kana_city":"ｶﾜｶﾐｸﾞﾝｼﾍﾞﾁｬﾁｮｳ","kana_address":"ｲｿﾌﾞﾝﾅｲｶﾐ","pref":"北海道","city":"川上郡標茶町","address":"磯分内上"},
{"zip_code":"0883152","kana_pref":"ﾎｯｶｲﾄﾞｳ","kana_city":"ｶﾜｶﾐｸﾞﾝｼﾍﾞﾁｬﾁｮｳ","kana_address":"ｲｿﾌﾞﾝﾅｲｷｮｳｾｲ","pref":"北海道","city":"川上郡標茶町","address":"磯分内協盛"},
{"zip_code":"0883153","kana_pref":"ﾎｯｶｲﾄﾞｳ","kana_city":"ｶﾜｶﾐｸﾞﾝｼﾍﾞﾁｬﾁｮｳ","kana_address":"ｲｿﾌﾞﾝﾅｲｺﾊﾞﾔｼ","pref":"北海道","city":"川上郡標茶町","address":"磯分内小林"},
{"zip_code":"0883147","kana_pref":"ﾎｯｶｲﾄﾞｳ","kana_city":"ｶﾜｶﾐｸﾞﾝｼﾍﾞﾁｬﾁｮｳ","kana_address":"ｲｿﾌﾞﾝﾅｲｼｶﾞｲ","pref":"北海道","city":"川上郡標茶町","address":"磯分内市街"},
{"zip_code":"0883146","kana_pref":"ﾎｯｶｲﾄﾞｳ","kana_city":"ｶﾜｶﾐｸﾞﾝｼﾍﾞﾁｬﾁｮｳ","kana_address":"ｲｿﾌﾞﾝﾅｲｼﾓ","pref":"北海道","city":"川上郡標茶町","address":"磯分内下"},
{"zip_code":"0883143","kana_pref":"ﾎｯｶｲﾄﾞｳ","kana_city":"ｶﾜｶﾐｸﾞﾝｼﾍﾞﾁｬﾁｮｳ","kana_address":"ｲｿﾌﾞﾝﾅｲﾋﾞﾎﾛ","pref":"北海道","city":"川上郡標茶町","address":"磯分内美幌"},
{"zip_code":"0883155","kana_pref":"ﾎｯｶｲﾄﾞｳ","kana_city":"ｶﾜｶﾐｸﾞﾝｼﾍﾞﾁｬﾁｮｳ","kana_address":"ｲｿﾌﾞﾝﾅｲﾋﾗｲｽﾞﾐ","pref":"北海道","city":"川上郡標茶町","address":"磯分内平泉"},
{"zip_code":"0883148","kana_pref":"ﾎｯｶｲﾄﾞｳ","kana_city":"ｶﾜｶﾐｸﾞﾝｼﾍﾞﾁｬﾁｮｳ","kana_address":"ｲｿﾌﾞﾝﾅｲﾌｸｼﾏ","pref":"北海道","city":"川上郡標茶町","address":"磯分内福島"},
{"zip_code":"0883156","kana_pref":"ﾎｯｶｲﾄﾞｳ","kana_city":"ｶﾜｶﾐｸﾞﾝｼﾍﾞﾁｬﾁｮｳ","kana_address":"ｲｿﾌﾞﾝﾅｲﾍｲﾜ","pref":"北海道","city":"川上郡標茶町","address":"磯分内平和"},
{"zip_code":"0882262","kana_pref":"ﾎｯｶｲﾄﾞｳ","kana_city":"ｶﾜｶﾐｸﾞﾝｼﾍﾞﾁｬﾁｮｳ","kana_address":"ｳﾗｲﾔ","pref":"北海道","city":"川上郡標茶町","address":"ウライヤ"},
{"zip_code":"0882331","kana_pref":"ﾎｯｶｲﾄﾞｳ","kana_city":"ｶﾜｶﾐｸﾞﾝｼﾍﾞﾁｬﾁｮｳ","kana_address":"ｵｿﾂﾍﾞﾂ","pref":"北海道","city":"川上郡標茶町","address":"オソツベツ"},
{"zip_code":"0882311","kana_pref":"ﾎｯｶｲﾄﾞｳ","kana_city":"ｶﾜｶﾐｸﾞﾝｼﾍﾞﾁｬﾁｮｳ","kana_address":"ｶｲｳﾝ","pref":"北海道","city":"川上郡標茶町","address":"開運"},
{"zip_code":"0883142","kana_pref":"ﾎｯｶｲﾄﾞｳ","kana_city":"ｶﾜｶﾐｸﾞﾝｼﾍﾞﾁｬﾁｮｳ","kana_address":"ｶﾐｲｿﾌﾞﾝﾅｲ","pref":"北海道","city":"川上郡標茶町","address":"上磯分内"},
{"zip_code":"0882333","kana_pref":"ﾎｯｶｲﾄﾞｳ","kana_city":"ｶﾜｶﾐｸﾞﾝｼﾍﾞﾁｬﾁｮｳ","kana_address":"ｶﾐｵｿﾂﾍﾞﾂ","pref":"北海道","city":"川上郡標茶町","address":"上オソツベツ"},
{"zip_code":"0882339","kana_pref":"ﾎｯｶｲﾄﾞｳ","kana_city":"ｶﾜｶﾐｸﾞﾝｼﾍﾞﾁｬﾁｮｳ","kana_address":"ｶﾐﾀﾜ","pref":"北海道","city":"川上郡標茶町","address":"上多和"},
{"zip_code":"0882321","kana_pref":"ﾎｯｶｲﾄﾞｳ","kana_city":"ｶﾜｶﾐｸﾞﾝｼﾍﾞﾁｬﾁｮｳ","kana_address":"ｶﾐﾁｬﾝﾍﾞﾂ","pref":"北海道","city":"川上郡標茶町","address":"上チャンベツ"},
{"zip_code":"0882266","kana_pref":"ﾎｯｶｲﾄﾞｳ","kana_city":"ｶﾜｶﾐｸﾞﾝｼﾍﾞﾁｬﾁｮｳ","kana_address":"ｶﾔﾇﾏ","pref":"北海道","city":"川上郡標茶町","address":"茅沼"},
{"zip_code":"0882312","kana_pref":"ﾎｯｶｲﾄﾞｳ","kana_city":"ｶﾜｶﾐｸﾞﾝｼﾍﾞﾁｬﾁｮｳ","kana_address":"ｶﾜｶﾐ","pref":"北海道","city":"川上郡標茶町","address":"川上"},
{"zip_code":"0882275","kana_pref":"ﾎｯｶｲﾄﾞｳ","kana_city":"ｶﾜｶﾐｸﾞﾝｼﾍﾞﾁｬﾁｮｳ","kana_address":"ｷﾀｶﾀﾑｻﾘ","pref":"北海道","city":"川上郡標茶町","address":"北片無去"},
{"zip_code":"0882337","kana_pref":"ﾎｯｶｲﾄﾞｳ","kana_city":"ｶﾜｶﾐｸﾞﾝｼﾍﾞﾁｬﾁｮｳ","kana_address":"ｷﾀｼﾍﾞﾁｬ","pref":"北海道","city":"川上郡標茶町","address":"北標茶"},
{"zip_code":"0883145","kana_pref":"ﾎｯｶｲﾄﾞｳ","kana_city":"ｶﾜｶﾐｸﾞﾝｼﾍﾞﾁｬﾁｮｳ","kana_address":"ｸﾏｳｼｹﾞﾝﾔ","pref":"北海道","city":"川上郡標茶町","address":"熊牛原野"},
{"zip_code":"0882334","kana_pref":"ﾎｯｶｲﾄﾞｳ","kana_city":"ｶﾜｶﾐｸﾞﾝｼﾍﾞﾁｬﾁｮｳ","kana_address":"ｺｳｾｲ","pref":"北海道","city":"川上郡標茶町","address":"厚生"},
{"zip_code":"0882335","kana_pref":"ﾎｯｶｲﾄﾞｳ","kana_city":"ｶﾜｶﾐｸﾞﾝｼﾍﾞﾁｬﾁｮｳ","kana_address":"ｺﾞｼﾞｭｳｺｸ","pref":"北海道","city":"川上郡標茶町","address":"五十石"},
{"zip_code":"0882266","kana_pref":"ﾎｯｶｲﾄﾞｳ","kana_city":"ｶﾜｶﾐｸﾞﾝｼﾍﾞﾁｬﾁｮｳ","kana_address":"ｺﾂﾀﾛｹﾞﾝﾔ","pref":"北海道","city":"川上郡標茶町","address":"コツタロ原野"},
{"zip_code":"0883154","kana_pref":"ﾎｯｶｲﾄﾞｳ","kana_city":"ｶﾜｶﾐｸﾞﾝｼﾍﾞﾁｬﾁｮｳ","kana_address":"ｻｶｴ","pref":"北海道","city":"川上郡標茶町","address":"栄"},
{"zip_code":"0882337","kana_pref":"ﾎｯｶｲﾄﾞｳ","kana_city":"ｶﾜｶﾐｸﾞﾝｼﾍﾞﾁｬﾁｮｳ","kana_address":"ｻｶｴ","pref":"北海道","city":"川上郡標茶町","address":"栄"},
{"zip_code":"0882303","kana_pref":"ﾎｯｶｲﾄﾞｳ","kana_city":"ｶﾜｶﾐｸﾞﾝｼﾍﾞﾁｬﾁｮｳ","kana_address":"ｻｸﾗ","pref":"北海道","city":"川上郡標茶町","address":"桜"},
{"zip_code":"0882314","kana_pref":"ﾎｯｶｲﾄﾞｳ","kana_city":"ｶﾜｶﾐｸﾞﾝｼﾍﾞﾁｬﾁｮｳ","kana_address":"ｼﾍﾞﾁｬ","pref":"北海道","city":"川上郡標茶町","address":"標茶"},
{"zip_code":"0882331","kana_pref":"ﾎｯｶｲﾄﾞｳ","kana_city":"ｶﾜｶﾐｸﾞﾝｼﾍﾞﾁｬﾁｮｳ","kana_address":"ｼﾓｵｿﾂﾍﾞﾂ","pref":"北海道","city":"川上郡標茶町","address":"下オソツベツ"},
{"zip_code":"0882323","kana_pref":"ﾎｯｶｲﾄﾞｳ","kana_city":"ｶﾜｶﾐｸﾞﾝｼﾍﾞﾁｬﾁｮｳ","kana_address":"ｼﾓﾁｬﾝﾍﾞﾂ","pref":"北海道","city":"川上郡標茶町","address":"下チャンベツ"},
{"zip_code":"0882265","kana_pref":"ﾎｯｶｲﾄﾞｳ","kana_city":"ｶﾜｶﾐｸﾞﾝｼﾍﾞﾁｬﾁｮｳ","kana_address":"ｼﾗﾙﾄﾛ","pref":"北海道","city":"川上郡標茶町","address":"シラルトロ"},
{"zip_code":"0882273","kana_pref":"ﾎｯｶｲﾄﾞｳ","kana_city":"ｶﾜｶﾐｸﾞﾝｼﾍﾞﾁｬﾁｮｳ","kana_address":"ｾｲﾜ","pref":"北海道","city":"川上郡標茶町","address":"西和"},
{"zip_code":"0883141","kana_pref":"ﾎｯｶｲﾄﾞｳ","kana_city":"ｶﾜｶﾐｸﾞﾝｼﾍﾞﾁｬﾁｮｳ","kana_address":"ﾀﾜ","pref":"北海道","city":"川上郡標茶町","address":"多和"},
{"zip_code":"0882339","kana_pref":"ﾎｯｶｲﾄﾞｳ","kana_city":"ｶﾜｶﾐｸﾞﾝｼﾍﾞﾁｬﾁｮｳ","kana_address":"ﾀﾜ","pref":"北海道","city":"川上郡標茶町","address":"多和"},
{"zip_code":"0882265","kana_pref":"ﾎｯｶｲﾄﾞｳ","kana_city":"ｶﾜｶﾐｸﾞﾝｼﾍﾞﾁｬﾁｮｳ","kana_address":"ﾄｳﾛ","pref":"北海道","city":"川上郡標茶町","address":"塘路"},
{"zip_code":"0882261","kana_pref":"ﾎｯｶｲﾄﾞｳ","kana_city":"ｶﾜｶﾐｸﾞﾝｼﾍﾞﾁｬﾁｮｳ","kana_address":"ﾄｳﾛ","pref":"北海道","city":"川上郡標茶町","address":"塘路"},
{"zip_code":"0882264","kana_pref":"ﾎｯｶｲﾄﾞｳ","kana_city":"ｶﾜｶﾐｸﾞﾝｼﾍﾞﾁｬﾁｮｳ","kana_address":"ﾄｳﾛｹﾞﾝﾔ","pref":"北海道","city":"川上郡標茶町","address":"塘路原野"},
{"zip_code":"0882313","kana_pref":"ﾎｯｶｲﾄﾞｳ","kana_city":"ｶﾜｶﾐｸﾞﾝｼﾍﾞﾁｬﾁｮｳ","kana_address":"ﾄｷﾜ","pref":"北海道","city":"川上郡標茶町","address":"常盤"},
{"zip_code":"0882332","kana_pref":"ﾎｯｶｲﾄﾞｳ","kana_city":"ｶﾜｶﾐｸﾞﾝｼﾍﾞﾁｬﾁｮｳ","kana_address":"ﾅｶｵｿﾂﾍﾞﾂ","pref":"北海道","city":"川上郡標茶町","address":"中オソツベツ"},
{"zip_code":"0883144","kana_pref":"ﾎｯｶｲﾄﾞｳ","kana_city":"ｶﾜｶﾐｸﾞﾝｼﾍﾞﾁｬﾁｮｳ","kana_address":"ﾅｶﾀﾜ","pref":"北海道","city":"川上郡標茶町","address":"中多和"},
{"zip_code":"0882322","kana_pref":"ﾎｯｶｲﾄﾞｳ","kana_city":"ｶﾜｶﾐｸﾞﾝｼﾍﾞﾁｬﾁｮｳ","kana_address":"ﾅｶﾁｬﾝﾍﾞﾂ","pref":"北海道","city":"川上郡標茶町","address":"中チャンベツ"},
{"zip_code":"0882462","kana_pref":"ﾎｯｶｲﾄﾞｳ","kana_city":"ｶﾜｶﾐｸﾞﾝｼﾍﾞﾁｬﾁｮｳ","kana_address":"ﾆｼﾞﾍﾞﾂ","pref":"北海道","city":"川上郡標茶町","address":"虹別"},
{"zip_code":"0882463","kana_pref":"ﾎｯｶｲﾄﾞｳ","kana_city":"ｶﾜｶﾐｸﾞﾝｼﾍﾞﾁｬﾁｮｳ","kana_address":"ﾆｼﾞﾍﾞﾂ","pref":"北海道","city":"川上郡標茶町","address":"虹別"},
{"zip_code":"0882464","kana_pref":"ﾎｯｶｲﾄﾞｳ","kana_city":"ｶﾜｶﾐｸﾞﾝｼﾍﾞﾁｬﾁｮｳ","kana_address":"ﾆｼﾞﾍﾞﾂ","pref":"北海道","city":"川上郡標茶町","address":"虹別"},
{"zip_code":"0882465","kana_pref":"ﾎｯｶｲﾄﾞｳ","kana_city":"ｶﾜｶﾐｸﾞﾝｼﾍﾞﾁｬﾁｮｳ","kana_address":"ﾆｼﾞﾍﾞﾂ","pref":"北海道","city":"川上郡標茶町","address":"虹別"},
{"zip_code":"0882461","kana_pref":"ﾎｯｶｲﾄﾞｳ","kana_city":"ｶﾜｶﾐｸﾞﾝｼﾍﾞﾁｬﾁｮｳ","kana_address":"ﾆｼﾞﾍﾞﾂｼｶﾞｲ","pref":"北海道","city":"川上郡標茶町","address":"虹別市街"},
{"zip_code":"0882263","kana_pref":"ﾎｯｶｲﾄﾞｳ","kana_city":"ｶﾜｶﾐｸﾞﾝｼﾍﾞﾁｬﾁｮｳ","kana_address":"ﾇﾏﾉｶﾐ","pref":"北海道","city":"川上郡標茶町","address":"沼ノ上"},
{"zip_code":"0882274","kana_pref":"ﾎｯｶｲﾄﾞｳ","kana_city":"ｶﾜｶﾐｸﾞﾝｼﾍﾞﾁｬﾁｮｳ","kana_address":"ﾋｶﾞｼｱﾚｷﾅｲ","pref":"北海道","city":"川上郡標茶町","address":"東阿歴内"},
{"zip_code":"0882302","kana_pref":"ﾎｯｶｲﾄﾞｳ","kana_city":"ｶﾜｶﾐｸﾞﾝｼﾍﾞﾁｬﾁｮｳ","kana_address":"ﾌｼﾞ","pref":"北海道","city":"川上郡標茶町","address":"富士"},
{"zip_code":"0882304","kana_pref":"ﾎｯｶｲﾄﾞｳ","kana_city":"ｶﾜｶﾐｸﾞﾝｼﾍﾞﾁｬﾁｮｳ","kana_address":"ﾍｲﾜ","pref":"北海道","city":"川上郡標茶町","address":"平和"},
{"zip_code":"0882338","kana_pref":"ﾎｯｶｲﾄﾞｳ","kana_city":"ｶﾜｶﾐｸﾞﾝｼﾍﾞﾁｬﾁｮｳ","kana_address":"ﾐﾅﾐｼﾍﾞﾁｬ","pref":"北海道","city":"川上郡標茶町","address":"南標茶"},
{"zip_code":"0882324","kana_pref":"ﾎｯｶｲﾄﾞｳ","kana_city":"ｶﾜｶﾐｸﾞﾝｼﾍﾞﾁｬﾁｮｳ","kana_address":"ﾗｲﾍﾞﾂ","pref":"北海道","city":"川上郡標茶町","address":"雷別"},
{"zip_code":"0882336","kana_pref":"ﾎｯｶｲﾄﾞｳ","kana_city":"ｶﾜｶﾐｸﾞﾝｼﾍﾞﾁｬﾁｮｳ","kana_address":"ﾙﾙﾗﾝ","pref":"北海道","city":"川上郡標茶町","address":"ルルラン"},
{"zip_code":"0883200","kana_pref":"ﾎｯｶｲﾄﾞｳ","kana_city":"ｶﾜｶﾐｸﾞﾝﾃｼｶｶﾞﾁｮｳ","kana_address":"","pref":"北海道","city":"川上郡弟子屈町","address":""},
{"zip_code":"0883204","kana_pref":"ﾎｯｶｲﾄﾞｳ","kana_city":"ｶﾜｶﾐｸﾞﾝﾃｼｶｶﾞﾁｮｳ","kana_address":"ｱｻﾋ","pref":"北海道","city":"川上郡弟子屈町","address":"朝日"},
{"zip_code":"0883463","kana_pref":"ﾎｯｶｲﾄﾞｳ","kana_city":"ｶﾜｶﾐｸﾞﾝﾃｼｶｶﾞﾁｮｳ","kana_address":"ｱﾄｻﾇﾌﾟﾘｹﾞﾝﾔ","pref":"北海道","city":"川上郡弟子屈町","address":"アトサヌプリ原野"},
{"zip_code":"0883461","kana_pref":"ﾎｯｶｲﾄﾞｳ","kana_city":"ｶﾜｶﾐｸﾞﾝﾃｼｶｶﾞﾁｮｳ","kana_address":"ｱﾄｻﾉﾎﾞﾘ","pref":"北海道","city":"川上郡弟子屈町","address":"跡佐登"},
{"zip_code":"0883461","kana_pref":"ﾎｯｶｲﾄﾞｳ","kana_city":"ｶﾜｶﾐｸﾞﾝﾃｼｶｶﾞﾁｮｳ","kana_address":"ｱﾄｻﾉﾎﾞﾘｹﾞﾝﾔ","pref":"北海道","city":"川上郡弟子屈町","address":"跡佐登原野"},
{"zip_code":"0883351","kana_pref":"ﾎｯｶｲﾄﾞｳ","kana_city":"ｶﾜｶﾐｸﾞﾝﾃｼｶｶﾞﾁｮｳ","kana_address":"ｲｹﾉﾕ","pref":"北海道","city":"川上郡弟子屈町","address":"池の湯"},
{"zip_code":"0883212","kana_pref":"ﾎｯｶｲﾄﾞｳ","kana_city":"ｶﾜｶﾐｸﾞﾝﾃｼｶｶﾞﾁｮｳ","kana_address":"ｲｽﾞﾐ","pref":"北海道","city":"川上郡弟子屈町","address":"泉"},
{"zip_code":"0883226","kana_pref":"ﾎｯｶｲﾄﾞｳ","kana_city":"ｶﾜｶﾐｸﾞﾝﾃｼｶｶﾞﾁｮｳ","kana_address":"ｵｸｵｿﾍﾞﾂ","pref":"北海道","city":"川上郡弟子屈町","address":"奥オソベツ"},
{"zip_code":"0883228","kana_pref":"ﾎｯｶｲﾄﾞｳ","kana_city":"ｶﾜｶﾐｸﾞﾝﾃｼｶｶﾞﾁｮｳ","kana_address":"ｵｸｼｭﾝﾍﾞﾂ","pref":"北海道","city":"川上郡弟子屈町","address":"奥春別"},
{"zip_code":"0883227","kana_pref":"ﾎｯｶｲﾄﾞｳ","kana_city":"ｶﾜｶﾐｸﾞﾝﾃｼｶｶﾞﾁｮｳ","kana_address":"ｵﾓﾅｲ","pref":"北海道","city":"川上郡弟子屈町","address":"重内"},
{"zip_code":"0883462","kana_pref":"ﾎｯｶｲﾄﾞｳ","kana_city":"ｶﾜｶﾐｸﾞﾝﾃｼｶｶﾞﾁｮｳ","kana_address":"ｶﾜﾕｴｷﾏｴ","pref":"北海道","city":"川上郡弟子屈町","address":"川湯駅前"},
{"zip_code":"0883465","kana_pref":"ﾎｯｶｲﾄﾞｳ","kana_city":"ｶﾜｶﾐｸﾞﾝﾃｼｶｶﾞﾁｮｳ","kana_address":"ｶﾜﾕｵﾝｾﾝ","pref":"北海道","city":"川上郡弟子屈町","address":"川湯温泉"},
{"zip_code":"0883341","kana_pref":"ﾎｯｶｲﾄﾞｳ","kana_city":"ｶﾜｶﾐｸﾞﾝﾃｼｶｶﾞﾁｮｳ","kana_address":"ｸｯｼﾔﾛ","pref":"北海道","city":"川上郡弟子屈町","address":"屈斜路"},
{"zip_code":"0883341","kana_pref":"ﾎｯｶｲﾄﾞｳ","kana_city":"ｶﾜｶﾐｸﾞﾝﾃｼｶｶﾞﾁｮｳ","kana_address":"ｸｯｼﾔﾛｹﾞﾝﾔ","pref":"北海道","city":"川上郡弟子屈町","address":"屈斜路原野"},
{"zip_code":"0883351","kana_pref":"ﾎｯｶｲﾄﾞｳ","kana_city":"ｶﾜｶﾐｸﾞﾝﾃｼｶｶﾞﾁｮｳ","kana_address":"ｸｯｼﾔﾛｼｶﾞｲﾁ","pref":"北海道","city":"川上郡弟子屈町","address":"屈斜路市街地"},
{"zip_code":"0883214","kana_pref":"ﾎｯｶｲﾄﾞｳ","kana_city":"ｶﾜｶﾐｸﾞﾝﾃｼｶｶﾞﾁｮｳ","kana_address":"ｺｳｴｲ","pref":"北海道","city":"川上郡弟子屈町","address":"高栄"},
{"zip_code":"0883351","kana_pref":"ﾎｯｶｲﾄﾞｳ","kana_city":"ｶﾜｶﾐｸﾞﾝﾃｼｶｶﾞﾁｮｳ","kana_address":"ｺﾀﾝ","pref":"北海道","city":"川上郡弟子屈町","address":"古丹"},
{"zip_code":"0883213","kana_pref":"ﾎｯｶｲﾄﾞｳ","kana_city":"ｶﾜｶﾐｸﾞﾝﾃｼｶｶﾞﾁｮｳ","kana_address":"ｻｸﾗｵｶ","pref":"北海道","city":"川上郡弟子屈町","address":"桜丘"},
{"zip_code":"0883332","kana_pref":"ﾎｯｶｲﾄﾞｳ","kana_city":"ｶﾜｶﾐｸﾞﾝﾃｼｶｶﾞﾁｮｳ","kana_address":"ｻﾂﾄﾓﾅｲ","pref":"北海道","city":"川上郡弟子屈町","address":"札友内"},
{"zip_code":"0883332","kana_pref":"ﾎｯｶｲﾄﾞｳ","kana_city":"ｶﾜｶﾐｸﾞﾝﾃｼｶｶﾞﾁｮｳ","kana_address":"ｻﾂﾄﾓﾅｲｹﾞﾝﾔ","pref":"北海道","city":"川上郡弟子屈町","address":"札友内原野"},
{"zip_code":"0883464","kana_pref":"ﾎｯｶｲﾄﾞｳ","kana_city":"ｶﾜｶﾐｸﾞﾝﾃｼｶｶﾞﾁｮｳ","kana_address":"ｻﾜﾝﾁｻｯﾌﾟ","pref":"北海道","city":"川上郡弟子屈町","address":"サワンチサップ"},
{"zip_code":"0883202","kana_pref":"ﾎｯｶｲﾄﾞｳ","kana_city":"ｶﾜｶﾐｸﾞﾝﾃｼｶｶﾞﾁｮｳ","kana_address":"ｽｽﾞﾗﾝ","pref":"北海道","city":"川上郡弟子屈町","address":"鈴蘭"},
{"zip_code":"0883351","kana_pref":"ﾎｯｶｲﾄﾞｳ","kana_city":"ｶﾜｶﾐｸﾞﾝﾃｼｶｶﾞﾁｮｳ","kana_address":"ｽﾅﾕ","pref":"北海道","city":"川上郡弟子屈町","address":"砂湯"},
{"zip_code":"0883211","kana_pref":"ﾎｯｶｲﾄﾞｳ","kana_city":"ｶﾜｶﾐｸﾞﾝﾃｼｶｶﾞﾁｮｳ","kana_address":"ﾁｭｳｵｳ","pref":"北海道","city":"川上郡弟子屈町","address":"中央"},
{"zip_code":"0883222","kana_pref":"ﾎｯｶｲﾄﾞｳ","kana_city":"ｶﾜｶﾐｸﾞﾝﾃｼｶｶﾞﾁｮｳ","kana_address":"ﾃｼｶｶﾞｹﾞﾝﾔ","pref":"北海道","city":"川上郡弟子屈町","address":"弟子屈原野"},
{"zip_code":"0883221","kana_pref":"ﾎｯｶｲﾄﾞｳ","kana_city":"ｶﾜｶﾐｸﾞﾝﾃｼｶｶﾞﾁｮｳ","kana_address":"ﾄｳﾍﾞﾂ","pref":"北海道","city":"川上郡弟子屈町","address":"鐺別"},
{"zip_code":"0883221","kana_pref":"ﾎｯｶｲﾄﾞｳ","kana_city":"ｶﾜｶﾐｸﾞﾝﾃｼｶｶﾞﾁｮｳ","kana_address":"ﾄｳﾍﾞﾂｹﾞﾝﾔ","pref":"北海道","city":"川上郡弟子屈町","address":"鐺別原野"},
{"zip_code":"0883223","kana_pref":"ﾎｯｶｲﾄﾞｳ","kana_city":"ｶﾜｶﾐｸﾞﾝﾃｼｶｶﾞﾁｮｳ","kana_address":"ﾆﾀ","pref":"北海道","city":"川上郡弟子屈町","address":"仁多"},
{"zip_code":"0883331","kana_pref":"ﾎｯｶｲﾄﾞｳ","kana_city":"ｶﾜｶﾐｸﾞﾝﾃｼｶｶﾞﾁｮｳ","kana_address":"ﾋﾞﾙﾜ","pref":"北海道","city":"川上郡弟子屈町","address":"美留和"},
{"zip_code":"0883331","kana_pref":"ﾎｯｶｲﾄﾞｳ","kana_city":"ｶﾜｶﾐｸﾞﾝﾃｼｶｶﾞﾁｮｳ","kana_address":"ﾋﾞﾙﾜｹﾞﾝﾔ","pref":"北海道","city":"川上郡弟子屈町","address":"美留和原野"},
{"zip_code":"0883224","kana_pref":"ﾎｯｶｲﾄﾞｳ","kana_city":"ｶﾜｶﾐｸﾞﾝﾃｼｶｶﾞﾁｮｳ","kana_address":"ﾍｲﾜ","pref":"北海道","city":"川上郡弟子屈町","address":"平和"},
{"zip_code":"0883201","kana_pref":"ﾎｯｶｲﾄﾞｳ","kana_city":"ｶﾜｶﾐｸﾞﾝﾃｼｶｶﾞﾁｮｳ","kana_address":"ﾏｼｭｳ","pref":"北海道","city":"川上郡弟子屈町","address":"摩周"},
{"zip_code":"0883215","kana_pref":"ﾎｯｶｲﾄﾞｳ","kana_city":"ｶﾜｶﾐｸﾞﾝﾃｼｶｶﾞﾁｮｳ","kana_address":"ﾐｻﾄ","pref":"北海道","city":"川上郡弟子屈町","address":"美里"},
{"zip_code":"0883271","kana_pref":"ﾎｯｶｲﾄﾞｳ","kana_city":"ｶﾜｶﾐｸﾞﾝﾃｼｶｶﾞﾁｮｳ","kana_address":"ﾐﾅﾐﾃｼｶｶﾞ","pref":"北海道","city":"川上郡弟子屈町","address":"南弟子屈"},
{"zip_code":"0883225","kana_pref":"ﾎｯｶｲﾄﾞｳ","kana_city":"ｶﾜｶﾐｸﾞﾝﾃｼｶｶﾞﾁｮｳ","kana_address":"ﾓｴﾘﾍﾞﾂ","pref":"北海道","city":"川上郡弟子屈町","address":"最栄利別"},
{"zip_code":"0883203","kana_pref":"ﾎｯｶｲﾄﾞｳ","kana_city":"ｶﾜｶﾐｸﾞﾝﾃｼｶｶﾞﾁｮｳ","kana_address":"ﾕﾉｼﾏ","pref":"北海道","city":"川上郡弟子屈町","address":"湯の島"},
{"zip_code":"0880300","kana_pref":"ﾎｯｶｲﾄﾞｳ","kana_city":"ｼﾗﾇｶｸﾞﾝｼﾗﾇｶﾁｮｳ","kana_address":"","pref":"北海道","city":"白糠郡白糠町","address":""},
{"zip_code":"0880585","kana_pref":"ﾎｯｶｲﾄﾞｳ","kana_city":"ｼﾗﾇｶｸﾞﾝｼﾗﾇｶﾁｮｳ","kana_address":"ｱｶﾂｷ","pref":"北海道","city":"白糠郡白糠町","address":"暁"},
{"zip_code":"0880353","kana_pref":"ﾎｯｶｲﾄﾞｳ","kana_city":"ｼﾗﾇｶｸﾞﾝｼﾗﾇｶﾁｮｳ","kana_address":"ｵｵｻﾜ","pref":"北海道","city":"白糠郡白糠町","address":"大沢"},
{"zip_code":"0880341","kana_pref":"ﾎｯｶｲﾄﾞｳ","kana_city":"ｼﾗﾇｶｸﾞﾝｼﾗﾇｶﾁｮｳ","kana_address":"ｵｵﾅｴ","pref":"北海道","city":"白糠郡白糠町","address":"大苗"},
{"zip_code":"0880353","kana_pref":"ﾎｯｶｲﾄﾞｳ","kana_city":"ｼﾗﾇｶｸﾞﾝｼﾗﾇｶﾁｮｳ","kana_address":"ｵｵﾋﾗ","pref":"北海道","city":"白糠郡白糠町","address":"大平"},
{"zip_code":"0880561","kana_pref":"ﾎｯｶｲﾄﾞｳ","kana_city":"ｼﾗﾇｶｸﾞﾝｼﾗﾇｶﾁｮｳ","kana_address":"ｵﾀﾉｼｹ","pref":"北海道","city":"白糠郡白糠町","address":"大楽毛"},
{"zip_code":"0880342","kana_pref":"ﾎｯｶｲﾄﾞｳ","kana_city":"ｼﾗﾇｶｸﾞﾝｼﾗﾇｶﾁｮｳ","kana_address":"ｵｻｯﾍﾟ","pref":"北海道","city":"白糠郡白糠町","address":"御札部"},
{"zip_code":"0880342","kana_pref":"ﾎｯｶｲﾄﾞｳ","kana_city":"ｼﾗﾇｶｸﾞﾝｼﾗﾇｶﾁｮｳ","kana_address":"ｵﾆﾀ","pref":"北海道","city":"白糠郡白糠町","address":"御仁田"},
{"zip_code":"0880583","kana_pref":"ﾎｯｶｲﾄﾞｳ","kana_city":"ｼﾗﾇｶｸﾞﾝｼﾗﾇｶﾁｮｳ","kana_address":"ｶﾐｼｮﾛ","pref":"北海道","city":"白糠郡白糠町","address":"上庶路"},
{"zip_code":"0880343","kana_pref":"ﾎｯｶｲﾄﾞｳ","kana_city":"ｼﾗﾇｶｸﾞﾝｼﾗﾇｶﾁｮｳ","kana_address":"ｶﾐﾁｬﾛ","pref":"北海道","city":"白糠郡白糠町","address":"上茶路"},
{"zip_code":"0880352","kana_pref":"ﾎｯｶｲﾄﾞｳ","kana_city":"ｼﾗﾇｶｸﾞﾝｼﾗﾇｶﾁｮｳ","kana_address":"ｶﾜｼﾏ","pref":"北海道","city":"白糠郡白糠町","address":"川島"},
{"zip_code":"0880353","kana_pref":"ﾎｯｶｲﾄﾞｳ","kana_city":"ｼﾗﾇｶｸﾞﾝｼﾗﾇｶﾁｮｳ","kana_address":"ｶﾜﾊﾗ","pref":"北海道","city":"白糠郡白糠町","address":"河原"},
{"zip_code":"0880342","kana_pref":"ﾎｯｶｲﾄﾞｳ","kana_city":"ｼﾗﾇｶｸﾞﾝｼﾗﾇｶﾁｮｳ","kana_address":"ｶﾜﾆｼ","pref":"北海道","city":"白糠郡白糠町","address":"川西"},
{"zip_code":"0880351","kana_pref":"ﾎｯｶｲﾄﾞｳ","kana_city":"ｼﾗﾇｶｸﾞﾝｼﾗﾇｶﾁｮｳ","kana_address":"ｷｮｳｾｲ","pref":"北海道","city":"白糠郡白糠町","address":"橋西"},
{"zip_code":"0880353","kana_pref":"ﾎｯｶｲﾄﾞｳ","kana_city":"ｼﾗﾇｶｸﾞﾝｼﾗﾇｶﾁｮｳ","kana_address":"ｺｲｶｸｼ","pref":"北海道","city":"白糠郡白糠町","address":"恋隠"},
{"zip_code":"0880562","kana_pref":"ﾎｯｶｲﾄﾞｳ","kana_city":"ｼﾗﾇｶｸﾞﾝｼﾗﾇｶﾁｮｳ","kana_address":"ｺｲﾄｲ","pref":"北海道","city":"白糠郡白糠町","address":"コイトイ"},
{"zip_code":"0880351","kana_pref":"ﾎｯｶｲﾄﾞｳ","kana_city":"ｼﾗﾇｶｸﾞﾝｼﾗﾇｶﾁｮｳ","kana_address":"ｻｶﾉｵｶ","pref":"北海道","city":"白糠郡白糠町","address":"坂の丘"},
{"zip_code":"0880305","kana_pref":"ﾎｯｶｲﾄﾞｳ","kana_city":"ｼﾗﾇｶｸﾞﾝｼﾗﾇｶﾁｮｳ","kana_address":"ｻｼｳｼ","pref":"北海道","city":"白糠郡白糠町","address":"刺牛"},
{"zip_code":"0880341","kana_pref":"ﾎｯｶｲﾄﾞｳ","kana_city":"ｼﾗﾇｶｸﾞﾝｼﾗﾇｶﾁｮｳ","kana_address":"ｼﾓﾁｬﾛ","pref":"北海道","city":"白糠郡白糠町","address":"下茶路"},
{"zip_code":"0880351","kana_pref":"ﾎｯｶｲﾄﾞｳ","kana_city":"ｼﾗﾇｶｸﾞﾝｼﾗﾇｶﾁｮｳ","kana_address":"ｼﾓﾜﾃﾝﾍﾞﾂ","pref":"北海道","city":"白糠郡白糠町","address":"下和天別"},
{"zip_code":"0880567","kana_pref":"ﾎｯｶｲﾄﾞｳ","kana_city":"ｼﾗﾇｶｸﾞﾝｼﾗﾇｶﾁｮｳ","kana_address":"ｼｮﾛ","pref":"北海道","city":"白糠郡白糠町","address":"庶路"},
{"zip_code":"0880566","kana_pref":"ﾎｯｶｲﾄﾞｳ","kana_city":"ｼﾗﾇｶｸﾞﾝｼﾗﾇｶﾁｮｳ","kana_address":"ｼｮﾛ","pref":"北海道","city":"白糠郡白糠町","address":"庶路"},
{"zip_code":"0880564","kana_pref":"ﾎｯｶｲﾄﾞｳ","kana_city":"ｼﾗﾇｶｸﾞﾝｼﾗﾇｶﾁｮｳ","kana_address":"ｼｮﾛ","pref":"北海道","city":"白糠郡白糠町","address":"庶路"},
{"zip_code":"0880565","kana_pref":"ﾎｯｶｲﾄﾞｳ","kana_city":"ｼﾗﾇｶｸﾞﾝｼﾗﾇｶﾁｮｳ","kana_address":"ｼｮﾛ","pref":"北海道","city":"白糠郡白糠町","address":"庶路"},
{"zip_code":"0880563","kana_pref":"ﾎｯｶｲﾄﾞｳ","kana_city":"ｼﾗﾇｶｸﾞﾝｼﾗﾇｶﾁｮｳ","kana_address":"ｼｮﾛｺｳｸ","pref":"北海道","city":"白糠郡白糠町","address":"庶路甲区"},
{"zip_code":"0880568","kana_pref":"ﾎｯｶｲﾄﾞｳ","kana_city":"ｼﾗﾇｶｸﾞﾝｼﾗﾇｶﾁｮｳ","kana_address":"ｼｮﾛｵﾂｸ","pref":"北海道","city":"白糠郡白糠町","address":"庶路乙区"},
{"zip_code":"0880586","kana_pref":"ﾎｯｶｲﾄﾞｳ","kana_city":"ｼﾗﾇｶｸﾞﾝｼﾗﾇｶﾁｮｳ","kana_address":"ｼｮﾛﾋｶﾞｼ","pref":"北海道","city":"白糠郡白糠町","address":"庶路東"},
{"zip_code":"0880587","kana_pref":"ﾎｯｶｲﾄﾞｳ","kana_city":"ｼﾗﾇｶｸﾞﾝｼﾗﾇｶﾁｮｳ","kana_address":"ｼｮﾛﾆｼ","pref":"北海道","city":"白糠郡白糠町","address":"庶路西"},
{"zip_code":"0880343","kana_pref":"ﾎｯｶｲﾄﾞｳ","kana_city":"ｼﾗﾇｶｸﾞﾝｼﾗﾇｶﾁｮｳ","kana_address":"ｼﾝﾇｲﾍﾞﾂ","pref":"北海道","city":"白糠郡白糠町","address":"新縫別"},
{"zip_code":"0880341","kana_pref":"ﾎｯｶｲﾄﾞｳ","kana_city":"ｼﾗﾇｶｸﾞﾝｼﾗﾇｶﾁｮｳ","kana_address":"ｿｳｺﾞ","pref":"北海道","city":"白糠郡白糠町","address":"相互"},
{"zip_code":"0880352","kana_pref":"ﾎｯｶｲﾄﾞｳ","kana_city":"ｼﾗﾇｶｸﾞﾝｼﾗﾇｶﾁｮｳ","kana_address":"ﾀｲｼｭｳ","pref":"北海道","city":"白糠郡白糠町","address":"大秋"},
{"zip_code":"0880342","kana_pref":"ﾎｯｶｲﾄﾞｳ","kana_city":"ｼﾗﾇｶｸﾞﾝｼﾗﾇｶﾁｮｳ","kana_address":"ﾀｶﾀﾞｲ","pref":"北海道","city":"白糠郡白糠町","address":"高台"},
{"zip_code":"0880342","kana_pref":"ﾎｯｶｲﾄﾞｳ","kana_city":"ｼﾗﾇｶｸﾞﾝｼﾗﾇｶﾁｮｳ","kana_address":"ﾀﾝﾀｶ","pref":"北海道","city":"白糠郡白糠町","address":"鍛高"},
{"zip_code":"0880581","kana_pref":"ﾎｯｶｲﾄﾞｳ","kana_city":"ｼﾗﾇｶｸﾞﾝｼﾗﾇｶﾁｮｳ","kana_address":"ﾁﾉﾐ","pref":"北海道","city":"白糠郡白糠町","address":"乳呑"},
{"zip_code":"0880342","kana_pref":"ﾎｯｶｲﾄﾞｳ","kana_city":"ｼﾗﾇｶｸﾞﾝｼﾗﾇｶﾁｮｳ","kana_address":"ﾁｬﾛ","pref":"北海道","city":"白糠郡白糠町","address":"茶路"},
{"zip_code":"0880584","kana_pref":"ﾎｯｶｲﾄﾞｳ","kana_city":"ｼﾗﾇｶｸﾞﾝｼﾗﾇｶﾁｮｳ","kana_address":"ﾄﾏﾘﾍﾞﾂ","pref":"北海道","city":"白糠郡白糠町","address":"泊別"},
{"zip_code":"0880582","kana_pref":"ﾎｯｶｲﾄﾞｳ","kana_city":"ｼﾗﾇｶｸﾞﾝｼﾗﾇｶﾁｮｳ","kana_address":"ﾅｶｼｮﾛ","pref":"北海道","city":"白糠郡白糠町","address":"中庶路"},
{"zip_code":"0880342","kana_pref":"ﾎｯｶｲﾄﾞｳ","kana_city":"ｼﾗﾇｶｸﾞﾝｼﾗﾇｶﾁｮｳ","kana_address":"ﾅｶﾁｬﾛ","pref":"北海道","city":"白糠郡白糠町","address":"中茶路"},
{"zip_code":"0880353","kana_pref":"ﾎｯｶｲﾄﾞｳ","kana_city":"ｼﾗﾇｶｸﾞﾝｼﾗﾇｶﾁｮｳ","kana_address":"ﾅｶﾜﾃﾝﾍﾞﾂ","pref":"北海道","city":"白糠郡白糠町","address":"中和天別"},
{"zip_code":"0880572","kana_pref":"ﾎｯｶｲﾄﾞｳ","kana_city":"ｼﾗﾇｶｸﾞﾝｼﾗﾇｶﾁｮｳ","kana_address":"ﾆｼｼｮﾛﾆｼ1ｼﾞｮｳﾐﾅﾐ","pref":"北海道","city":"白糠郡白糠町","address":"西庶路西一条南"},
{"zip_code":"0880571","kana_pref":"ﾎｯｶｲﾄﾞｳ","kana_city":"ｼﾗﾇｶｸﾞﾝｼﾗﾇｶﾁｮｳ","kana_address":"ﾆｼｼｮﾛﾆｼ1ｼﾞｮｳｷﾀ","pref":"北海道","city":"白糠郡白糠町","address":"西庶路西一条北"},
{"zip_code":"0880572","kana_pref":"ﾎｯｶｲﾄﾞｳ","kana_city":"ｼﾗﾇｶｸﾞﾝｼﾗﾇｶﾁｮｳ","kana_address":"ﾆｼｼｮﾛﾆｼ2ｼﾞｮｳﾐﾅﾐ","pref":"北海道","city":"白糠郡白糠町","address":"西庶路西二条南"},
{"zip_code":"0880571","kana_pref":"ﾎｯｶｲﾄﾞｳ","kana_city":"ｼﾗﾇｶｸﾞﾝｼﾗﾇｶﾁｮｳ","kana_address":"ﾆｼｼｮﾛﾆｼ2ｼﾞｮｳｷﾀ","pref":"北海道","city":"白糠郡白糠町","address":"西庶路西二条北"},
{"zip_code":"0880572","kana_pref":"ﾎｯｶｲﾄﾞｳ","kana_city":"ｼﾗﾇｶｸﾞﾝｼﾗﾇｶﾁｮｳ","kana_address":"ﾆｼｼｮﾛﾆｼ3ｼﾞｮｳﾐﾅﾐ","pref":"北海道","city":"白糠郡白糠町","address":"西庶路西三条南"},
{"zip_code":"0880571","kana_pref":"ﾎｯｶｲﾄﾞｳ","kana_city":"ｼﾗﾇｶｸﾞﾝｼﾗﾇｶﾁｮｳ","kana_address":"ﾆｼｼｮﾛﾆｼ3ｼﾞｮｳｷﾀ","pref":"北海道","city":"白糠郡白糠町","address":"西庶路西三条北"},
{"zip_code":"0880572","kana_pref":"ﾎｯｶｲﾄﾞｳ","kana_city":"ｼﾗﾇｶｸﾞﾝｼﾗﾇｶﾁｮｳ","kana_address":"ﾆｼｼｮﾛﾆｼ4ｼﾞｮｳﾐﾅﾐ","pref":"北海道","city":"白糠郡白糠町","address":"西庶路西四条南"},
{"zip_code":"0880572","kana_pref":"ﾎｯｶｲﾄﾞｳ","kana_city":"ｼﾗﾇｶｸﾞﾝｼﾗﾇｶﾁｮｳ","kana_address":"ﾆｼｼｮﾛﾆｼ5ｼﾞｮｳﾐﾅﾐ","pref":"北海道","city":"白糠郡白糠町","address":"西庶路西五条南"},
{"zip_code":"0880574","kana_pref":"ﾎｯｶｲﾄﾞｳ","kana_city":"ｼﾗﾇｶｸﾞﾝｼﾗﾇｶﾁｮｳ","kana_address":"ﾆｼｼｮﾛﾋｶﾞｼ1ｼﾞｮｳﾐﾅﾐ","pref":"北海道","city":"白糠郡白糠町","address":"西庶路東一条南"},
{"zip_code":"0880573","kana_pref":"ﾎｯｶｲﾄﾞｳ","kana_city":"ｼﾗﾇｶｸﾞﾝｼﾗﾇｶﾁｮｳ","kana_address":"ﾆｼｼｮﾛﾋｶﾞｼ1ｼﾞｮｳｷﾀ","pref":"北海道","city":"白糠郡白糠町","address":"西庶路東一条北"},
{"zip_code":"0880574","kana_pref":"ﾎｯｶｲﾄﾞｳ","kana_city":"ｼﾗﾇｶｸﾞﾝｼﾗﾇｶﾁｮｳ","kana_address":"ﾆｼｼｮﾛﾋｶﾞｼ2ｼﾞｮｳﾐﾅﾐ","pref":"北海道","city":"白糠郡白糠町","address":"西庶路東二条南"},
{"zip_code":"0880573","kana_pref":"ﾎｯｶｲﾄﾞｳ","kana_city":"ｼﾗﾇｶｸﾞﾝｼﾗﾇｶﾁｮｳ","kana_address":"ﾆｼｼｮﾛﾋｶﾞｼ2ｼﾞｮｳｷﾀ","pref":"北海道","city":"白糠郡白糠町","address":"西庶路東二条北"},
{"zip_code":"0880574","kana_pref":"ﾎｯｶｲﾄﾞｳ","kana_city":"ｼﾗﾇｶｸﾞﾝｼﾗﾇｶﾁｮｳ","kana_address":"ﾆｼｼｮﾛﾋｶﾞｼ3ｼﾞｮｳﾐﾅﾐ","pref":"北海道","city":"白糠郡白糠町","address":"西庶路東三条南"},
{"zip_code":"0880573","kana_pref":"ﾎｯｶｲﾄﾞｳ","kana_city":"ｼﾗﾇｶｸﾞﾝｼﾗﾇｶﾁｮｳ","kana_address":"ﾆｼｼｮﾛﾋｶﾞｼ3ｼﾞｮｳｷﾀ","pref":"北海道","city":"白糠郡白糠町","address":"西庶路東三条北"},
{"zip_code":"0880341","kana_pref":"ﾎｯｶｲﾄﾞｳ","kana_city":"ｼﾗﾇｶｸﾞﾝｼﾗﾇｶﾁｮｳ","kana_address":"ﾆｼﾁｬﾛ","pref":"北海道","city":"白糠郡白糠町","address":"西茶路"},
{"zip_code":"0880311","kana_pref":"ﾎｯｶｲﾄﾞｳ","kana_city":"ｼﾗﾇｶｸﾞﾝｼﾗﾇｶﾁｮｳ","kana_address":"ﾆｼ1ｼﾞｮｳﾐﾅﾐ","pref":"北海道","city":"白糠郡白糠町","address":"西一条南"},
{"zip_code":"0880321","kana_pref":"ﾎｯｶｲﾄﾞｳ","kana_city":"ｼﾗﾇｶｸﾞﾝｼﾗﾇｶﾁｮｳ","kana_address":"ﾆｼ1ｼﾞｮｳｷﾀ","pref":"北海道","city":"白糠郡白糠町","address":"西一条北"},
{"zip_code":"0880312","kana_pref":"ﾎｯｶｲﾄﾞｳ","kana_city":"ｼﾗﾇｶｸﾞﾝｼﾗﾇｶﾁｮｳ","kana_address":"ﾆｼ2ｼﾞｮｳﾐﾅﾐ","pref":"北海道","city":"白糠郡白糠町","address":"西二条南"},
{"zip_code":"0880322","kana_pref":"ﾎｯｶｲﾄﾞｳ","kana_city":"ｼﾗﾇｶｸﾞﾝｼﾗﾇｶﾁｮｳ","kana_address":"ﾆｼ2ｼﾞｮｳｷﾀ","pref":"北海道","city":"白糠郡白糠町","address":"西二条北"},
{"zip_code":"0880323","kana_pref":"ﾎｯｶｲﾄﾞｳ","kana_city":"ｼﾗﾇｶｸﾞﾝｼﾗﾇｶﾁｮｳ","kana_address":"ﾆｼ4ｼﾞｮｳｷﾀ","pref":"北海道","city":"白糠郡白糠町","address":"西四条北"},
{"zip_code":"0880324","kana_pref":"ﾎｯｶｲﾄﾞｳ","kana_city":"ｼﾗﾇｶｸﾞﾝｼﾗﾇｶﾁｮｳ","kana_address":"ﾆｼ5ｼﾞｮｳｷﾀ","pref":"北海道","city":"白糠郡白糠町","address":"西五条北"},
{"zip_code":"0880343","kana_pref":"ﾎｯｶｲﾄﾞｳ","kana_city":"ｼﾗﾇｶｸﾞﾝｼﾗﾇｶﾁｮｳ","kana_address":"ﾇｲﾍﾞﾂ","pref":"北海道","city":"白糠郡白糠町","address":"縫別"},
{"zip_code":"0880352","kana_pref":"ﾎｯｶｲﾄﾞｳ","kana_city":"ｼﾗﾇｶｸﾞﾝｼﾗﾇｶﾁｮｳ","kana_address":"ﾊﾟｼｸﾙ","pref":"北海道","city":"白糠郡白糠町","address":"馬主来"},
{"zip_code":"0880341","kana_pref":"ﾎｯｶｲﾄﾞｳ","kana_city":"ｼﾗﾇｶｸﾞﾝｼﾗﾇｶﾁｮｳ","kana_address":"ﾋｶﾞｼﾁｬﾛ","pref":"北海道","city":"白糠郡白糠町","address":"東茶路"},
{"zip_code":"0880301","kana_pref":"ﾎｯｶｲﾄﾞｳ","kana_city":"ｼﾗﾇｶｸﾞﾝｼﾗﾇｶﾁｮｳ","kana_address":"ﾋｶﾞｼ1ｼﾞｮｳﾐﾅﾐ","pref":"北海道","city":"白糠郡白糠町","address":"東一条南"},
{"zip_code":"0880331","kana_pref":"ﾎｯｶｲﾄﾞｳ","kana_city":"ｼﾗﾇｶｸﾞﾝｼﾗﾇｶﾁｮｳ","kana_address":"ﾋｶﾞｼ1ｼﾞｮｳｷﾀ","pref":"北海道","city":"白糠郡白糠町","address":"東一条北"},
{"zip_code":"0880302","kana_pref":"ﾎｯｶｲﾄﾞｳ","kana_city":"ｼﾗﾇｶｸﾞﾝｼﾗﾇｶﾁｮｳ","kana_address":"ﾋｶﾞｼ2ｼﾞｮｳﾐﾅﾐ","pref":"北海道","city":"白糠郡白糠町","address":"東二条南"},
{"zip_code":"0880332","kana_pref":"ﾎｯｶｲﾄﾞｳ","kana_city":"ｼﾗﾇｶｸﾞﾝｼﾗﾇｶﾁｮｳ","kana_address":"ﾋｶﾞｼ2ｼﾞｮｳｷﾀ","pref":"北海道","city":"白糠郡白糠町","address":"東二条北"},
{"zip_code":"0880303","kana_pref":"ﾎｯｶｲﾄﾞｳ","kana_city":"ｼﾗﾇｶｸﾞﾝｼﾗﾇｶﾁｮｳ","kana_address":"ﾋｶﾞｼ3ｼﾞｮｳﾐﾅﾐ","pref":"北海道","city":"白糠郡白糠町","address":"東三条南"},
{"zip_code":"0880333","kana_pref":"ﾎｯｶｲﾄﾞｳ","kana_city":"ｼﾗﾇｶｸﾞﾝｼﾗﾇｶﾁｮｳ","kana_address":"ﾋｶﾞｼ3ｼﾞｮｳｷﾀ","pref":"北海道","city":"白糠郡白糠町","address":"東三条北"},
{"zip_code":"0880344","kana_pref":"ﾎｯｶｲﾄﾞｳ","kana_city":"ｼﾗﾇｶｸﾞﾝｼﾗﾇｶﾁｮｳ","kana_address":"ﾋﾀﾞﾘﾏﾀ","pref":"北海道","city":"白糠郡白糠町","address":"左股"},
{"zip_code":"0880344","kana_pref":"ﾎｯｶｲﾄﾞｳ","kana_city":"ｼﾗﾇｶｸﾞﾝｼﾗﾇｶﾁｮｳ","kana_address":"ﾌﾀﾏﾀ","pref":"北海道","city":"白糠郡白糠町","address":"二股"},
{"zip_code":"0880353","kana_pref":"ﾎｯｶｲﾄﾞｳ","kana_city":"ｼﾗﾇｶｸﾞﾝｼﾗﾇｶﾁｮｳ","kana_address":"ﾎﾝｺﾞｳ","pref":"北海道","city":"白糠郡白糠町","address":"本郷"},
{"zip_code":"0880342","kana_pref":"ﾎｯｶｲﾄﾞｳ","kana_city":"ｼﾗﾇｶｸﾞﾝｼﾗﾇｶﾁｮｳ","kana_address":"ﾏﾂｶﾜ","pref":"北海道","city":"白糠郡白糠町","address":"松川"},
{"zip_code":"0880344","kana_pref":"ﾎｯｶｲﾄﾞｳ","kana_city":"ｼﾗﾇｶｸﾞﾝｼﾗﾇｶﾁｮｳ","kana_address":"ﾐｷﾞﾏﾀ","pref":"北海道","city":"白糠郡白糠町","address":"右股"},
{"zip_code":"0880304","kana_pref":"ﾎｯｶｲﾄﾞｳ","kana_city":"ｼﾗﾇｶｸﾞﾝｼﾗﾇｶﾁｮｳ","kana_address":"ﾐｻｷ","pref":"北海道","city":"白糠郡白糠町","address":"岬"},
{"zip_code":"0880352","kana_pref":"ﾎｯｶｲﾄﾞｳ","kana_city":"ｼﾗﾇｶｸﾞﾝｼﾗﾇｶﾁｮｳ","kana_address":"ﾐﾄﾞﾘ","pref":"北海道","city":"白糠郡白糠町","address":"緑"},
{"zip_code":"0880343","kana_pref":"ﾎｯｶｲﾄﾞｳ","kana_city":"ｼﾗﾇｶｸﾞﾝｼﾗﾇｶﾁｮｳ","kana_address":"ﾐﾅﾐｵｵﾏｶﾞﾘ","pref":"北海道","city":"白糠郡白糠町","address":"南大曲"},
{"zip_code":"0880343","kana_pref":"ﾎｯｶｲﾄﾞｳ","kana_city":"ｼﾗﾇｶｸﾞﾝｼﾗﾇｶﾁｮｳ","kana_address":"ﾐﾅﾐｶﾐﾁｬﾛ","pref":"北海道","city":"白糠郡白糠町","address":"南上茶路"},
{"zip_code":"0880351","kana_pref":"ﾎｯｶｲﾄﾞｳ","kana_city":"ｼﾗﾇｶｸﾞﾝｼﾗﾇｶﾁｮｳ","kana_address":"ﾜﾃﾝﾍﾞﾂ","pref":"北海道","city":"白糠郡白糠町","address":"和天別"},
{"zip_code":"0882578","kana_pref":"ﾎｯｶｲﾄﾞｳ","kana_city":"ﾉﾂｹｸﾞﾝﾍﾞﾂｶｲﾁｮｳ","kana_address":"ｲｽﾞﾐｶﾜ","pref":"北海道","city":"野付郡別海町","address":"泉川"},
{"zip_code":"0882725","kana_pref":"ﾎｯｶｲﾄﾞｳ","kana_city":"ﾉﾂｹｸﾞﾝﾍﾞﾂｶｲﾁｮｳ","kana_address":"ｶﾐｼｭﾝﾍﾞﾂ","pref":"北海道","city":"野付郡別海町","address":"上春別"},
{"zip_code":"0882722","kana_pref":"ﾎｯｶｲﾄﾞｳ","kana_city":"ﾉﾂｹｸﾞﾝﾍﾞﾂｶｲﾁｮｳ","kana_address":"ｶﾐｼｭﾝﾍﾞﾂｱｻﾋﾁｮｳ","pref":"北海道","city":"野付郡別海町","address":"上春別旭町"},
{"zip_code":"0882724","kana_pref":"ﾎｯｶｲﾄﾞｳ","kana_city":"ﾉﾂｹｸﾞﾝﾍﾞﾂｶｲﾁｮｳ","kana_address":"ｶﾐｼｭﾝﾍﾞﾂｻｶｴﾁｮｳ","pref":"北海道","city":"野付郡別海町","address":"上春別栄町"},
{"zip_code":"0882721","kana_pref":"ﾎｯｶｲﾄﾞｳ","kana_city":"ﾉﾂｹｸﾞﾝﾍﾞﾂｶｲﾁｮｳ","kana_address":"ｶﾐｼｭﾝﾍﾞﾂﾐﾄﾞﾘﾁｮｳ","pref":"北海道","city":"野付郡別海町","address":"上春別緑町"},
{"zip_code":"0882723","kana_pref":"ﾎｯｶｲﾄﾞｳ","kana_city":"ﾉﾂｹｸﾞﾝﾍﾞﾂｶｲﾁｮｳ","kana_address":"ｶﾐｼｭﾝﾍﾞﾂﾐﾅﾐﾁｮｳ","pref":"北海道","city":"野付郡別海町","address":"上春別南町"},
{"zip_code":"0882601","kana_pref":"ﾎｯｶｲﾄﾞｳ","kana_city":"ﾉﾂｹｸﾞﾝﾍﾞﾂｶｲﾁｮｳ","kana_address":"ﾀｲｾｲ","pref":"北海道","city":"野付郡別海町","address":"大成"},
{"zip_code":"0882576","kana_pref":"ﾎｯｶｲﾄﾞｳ","kana_city":"ﾉﾂｹｸﾞﾝﾍﾞﾂｶｲﾁｮｳ","kana_address":"ﾆｼｼｭﾝﾍﾞﾂ","pref":"北海道","city":"野付郡別海町","address":"西春別"},
{"zip_code":"0882566","kana_pref":"ﾎｯｶｲﾄﾞｳ","kana_city":"ﾉﾂｹｸﾞﾝﾍﾞﾂｶｲﾁｮｳ","kana_address":"ﾆｼｼｭﾝﾍﾞﾂｴｷﾏｴｱｹﾎﾞﾉﾁｮｳ","pref":"北海道","city":"野付郡別海町","address":"西春別駅前曙町"},
{"zip_code":"0882561","kana_pref":"ﾎｯｶｲﾄﾞｳ","kana_city":"ﾉﾂｹｸﾞﾝﾍﾞﾂｶｲﾁｮｳ","kana_address":"ﾆｼｼｭﾝﾍﾞﾂｴｷﾏｴｶｼﾜﾁｮｳ","pref":"北海道","city":"野付郡別海町","address":"西春別駅前柏町"},
{"zip_code":"0882565","kana_pref":"ﾎｯｶｲﾄﾞｳ","kana_city":"ﾉﾂｹｸﾞﾝﾍﾞﾂｶｲﾁｮｳ","kana_address":"ﾆｼｼｭﾝﾍﾞﾂｴｷﾏｴｺﾄﾌﾞｷﾁｮｳ","pref":"北海道","city":"野付郡別海町","address":"西春別駅前寿町"},
{"zip_code":"0882562","kana_pref":"ﾎｯｶｲﾄﾞｳ","kana_city":"ﾉﾂｹｸﾞﾝﾍﾞﾂｶｲﾁｮｳ","kana_address":"ﾆｼｼｭﾝﾍﾞﾂｴｷﾏｴｻｶｴﾁｮｳ","pref":"北海道","city":"野付郡別海町","address":"西春別駅前栄町"},
{"zip_code":"0882563","kana_pref":"ﾎｯｶｲﾄﾞｳ","kana_city":"ﾉﾂｹｸﾞﾝﾍﾞﾂｶｲﾁｮｳ","kana_address":"ﾆｼｼｭﾝﾍﾞﾂｴｷﾏｴﾆｼｷﾁｮｳ","pref":"北海道","city":"野付郡別海町","address":"西春別駅前錦町"},
{"zip_code":"0882564","kana_pref":"ﾎｯｶｲﾄﾞｳ","kana_city":"ﾉﾂｹｸﾞﾝﾍﾞﾂｶｲﾁｮｳ","kana_address":"ﾆｼｼｭﾝﾍﾞﾂｴｷﾏｴﾆｼﾁｮｳ","pref":"北海道","city":"野付郡別海町","address":"西春別駅前西町"},
{"zip_code":"0882572","kana_pref":"ﾎｯｶｲﾄﾞｳ","kana_city":"ﾉﾂｹｸﾞﾝﾍﾞﾂｶｲﾁｮｳ","kana_address":"ﾆｼｼｭﾝﾍﾞﾂｷﾖｶﾜﾁｮｳ","pref":"北海道","city":"野付郡別海町","address":"西春別清川町"},
{"zip_code":"0882571","kana_pref":"ﾎｯｶｲﾄﾞｳ","kana_city":"ﾉﾂｹｸﾞﾝﾍﾞﾂｶｲﾁｮｳ","kana_address":"ﾆｼｼｭﾝﾍﾞﾂｻｲﾜｲﾁｮｳ","pref":"北海道","city":"野付郡別海町","address":"西春別幸町"},
{"zip_code":"0882574","kana_pref":"ﾎｯｶｲﾄﾞｳ","kana_city":"ﾉﾂｹｸﾞﾝﾍﾞﾂｶｲﾁｮｳ","kana_address":"ﾆｼｼｭﾝﾍﾞﾂｼｮｳｴｲﾁｮｳ","pref":"北海道","city":"野付郡別海町","address":"西春別昭栄町"},
{"zip_code":"0882573","kana_pref":"ﾎｯｶｲﾄﾞｳ","kana_city":"ﾉﾂｹｸﾞﾝﾍﾞﾂｶｲﾁｮｳ","kana_address":"ﾆｼｼｭﾝﾍﾞﾂﾎﾝｷｭｳﾁｮｳ","pref":"北海道","city":"野付郡別海町","address":"西春別本久町"},
{"zip_code":"0882575","kana_pref":"ﾎｯｶｲﾄﾞｳ","kana_city":"ﾉﾂｹｸﾞﾝﾍﾞﾂｶｲﾁｮｳ","kana_address":"ﾆｼｼｭﾝﾍﾞﾂﾐﾔｿﾞﾉﾁｮｳ","pref":"北海道","city":"野付郡別海町","address":"西春別宮園町"},
{"zip_code":"0882602","kana_pref":"ﾎｯｶｲﾄﾞｳ","kana_city":"ﾉﾂｹｸﾞﾝﾍﾞﾂｶｲﾁｮｳ","kana_address":"ﾎﾝﾍﾞﾂ","pref":"北海道","city":"野付郡別海町","address":"本別"},
{"zip_code":"0882577","kana_pref":"ﾎｯｶｲﾄﾞｳ","kana_city":"ﾉﾂｹｸﾞﾝﾍﾞﾂｶｲﾁｮｳ","kana_address":"ﾔｳｽﾍﾞﾂ","pref":"北海道","city":"野付郡別海町","address":"矢臼別"},
{"zip_code":"0882683","kana_pref":"ﾎｯｶｲﾄﾞｳ","kana_city":"ｼﾍﾞﾂｸﾞﾝﾅｶｼﾍﾞﾂﾁｮｳ","kana_address":"ｶﾐｼﾍﾞﾂ","pref":"北海道","city":"標津郡中標津町","address":"上標津"},
{"zip_code":"0882682","kana_pref":"ﾎｯｶｲﾄﾞｳ","kana_city":"ｼﾍﾞﾂｸﾞﾝﾅｶｼﾍﾞﾂﾁｮｳ","kana_address":"ｹﾈﾍﾞﾂ","pref":"北海道","city":"標津郡中標津町","address":"計根別"},
{"zip_code":"0882681","kana_pref":"ﾎｯｶｲﾄﾞｳ","kana_city":"ｼﾍﾞﾂｸﾞﾝﾅｶｼﾍﾞﾂﾁｮｳ","kana_address":"ﾄｳﾎﾛ","pref":"北海道","city":"標津郡中標津町","address":"当幌"},
{"zip_code":"0882685","kana_pref":"ﾎｯｶｲﾄﾞｳ","kana_city":"ｼﾍﾞﾂｸﾞﾝﾅｶｼﾍﾞﾂﾁｮｳ","kana_address":"ﾆｼﾀｹ","pref":"北海道","city":"標津郡中標津町","address":"西竹"},
{"zip_code":"0882686","kana_pref":"ﾎｯｶｲﾄﾞｳ","kana_city":"ｼﾍﾞﾂｸﾞﾝﾅｶｼﾍﾞﾂﾁｮｳ","kana_address":"ﾏﾀｵﾁ(1629-1","pref":"北海道","city":"標津郡中標津町","address":"俣落（１６２９−１"},
{"zip_code":"0882686","kana_pref":"ﾎｯｶｲﾄﾞｳ","kana_city":"ｼﾍﾞﾂｸﾞﾝﾅｶｼﾍﾞﾂﾁｮｳ","kana_address":"1653-3","pref":"北海道","city":"標津郡中標津町","address":"１６５３−３"},
{"zip_code":"0882686","kana_pref":"ﾎｯｶｲﾄﾞｳ","kana_city":"ｼﾍﾞﾂｸﾞﾝﾅｶｼﾍﾞﾂﾁｮｳ","kana_address":"1684-5","pref":"北海道","city":"標津郡中標津町","address":"１６８４−５"},
{"zip_code":"0882686","kana_pref":"ﾎｯｶｲﾄﾞｳ","kana_city":"ｼﾍﾞﾂｸﾞﾝﾅｶｼﾍﾞﾂﾁｮｳ","kana_address":"1886-2","pref":"北海道","city":"標津郡中標津町","address":"１８８６−２"},
{"zip_code":"0882686","kana_pref":"ﾎｯｶｲﾄﾞｳ","kana_city":"ｼﾍﾞﾂｸﾞﾝﾅｶｼﾍﾞﾂﾁｮｳ","kana_address":"1893","pref":"北海道","city":"標津郡中標津町","address":"１８９３"},
{"zip_code":"0882686","kana_pref":"ﾎｯｶｲﾄﾞｳ","kana_city":"ｼﾍﾞﾂｸﾞﾝﾅｶｼﾍﾞﾂﾁｮｳ","kana_address":"","pref":"北海道","city":"標津郡中標津町","address":""},
{"zip_code":"0882686","kana_pref":"ﾎｯｶｲﾄﾞｳ","kana_city":"ｼﾍﾞﾂｸﾞﾝﾅｶｼﾍﾞﾂﾁｮｳ","kana_address":"1896-2","pref":"北海道","city":"標津郡中標津町","address":"１８９６−２"},
{"zip_code":"0882686","kana_pref":"ﾎｯｶｲﾄﾞｳ","kana_city":"ｼﾍﾞﾂｸﾞﾝﾅｶｼﾍﾞﾂﾁｮｳ","kana_address":"1896-3","pref":"北海道","city":"標津郡中標津町","address":"１８９６−３"},
{"zip_code":"0882686","kana_pref":"ﾎｯｶｲﾄﾞｳ","kana_city":"ｼﾍﾞﾂｸﾞﾝﾅｶｼﾍﾞﾂﾁｮｳ","kana_address":"1906-8","pref":"北海道","city":"標津郡中標津町","address":"１９０６−８"},
{"zip_code":"0882686","kana_pref":"ﾎｯｶｲﾄﾞｳ","kana_city":"ｼﾍﾞﾂｸﾞﾝﾅｶｼﾍﾞﾂﾁｮｳ","kana_address":"1932-2","pref":"北海道","city":"標津郡中標津町","address":"１９３２−２"},
{"zip_code":"0882686","kana_pref":"ﾎｯｶｲﾄﾞｳ","kana_city":"ｼﾍﾞﾂｸﾞﾝﾅｶｼﾍﾞﾂﾁｮｳ","kana_address":"1936","pref":"北海道","city":"標津郡中標津町","address":"１９３６"},
{"zip_code":"0882686","kana_pref":"ﾎｯｶｲﾄﾞｳ","kana_city":"ｼﾍﾞﾂｸﾞﾝﾅｶｼﾍﾞﾂﾁｮｳ","kana_address":"","pref":"北海道","city":"標津郡中標津町","address":""},
{"zip_code":"0882686","kana_pref":"ﾎｯｶｲﾄﾞｳ","kana_city":"ｼﾍﾞﾂｸﾞﾝﾅｶｼﾍﾞﾂﾁｮｳ","kana_address":"1936-2","pref":"北海道","city":"標津郡中標津町","address":"１９３６−２"},
{"zip_code":"0882686","kana_pref":"ﾎｯｶｲﾄﾞｳ","kana_city":"ｼﾍﾞﾂｸﾞﾝﾅｶｼﾍﾞﾂﾁｮｳ","kana_address":"1951-2","pref":"北海道","city":"標津郡中標津町","address":"１９５１−２"},
{"zip_code":"0882686","kana_pref":"ﾎｯｶｲﾄﾞｳ","kana_city":"ｼﾍﾞﾂｸﾞﾝﾅｶｼﾍﾞﾂﾁｮｳ","kana_address":"1956-2","pref":"北海道","city":"標津郡中標津町","address":"１９５６−２"},
{"zip_code":"0882686","kana_pref":"ﾎｯｶｲﾄﾞｳ","kana_city":"ｼﾍﾞﾂｸﾞﾝﾅｶｼﾍﾞﾂﾁｮｳ","kana_address":"1967-2","pref":"北海道","city":"標津郡中標津町","address":"１９６７−２"},
{"zip_code":"0882686","kana_pref":"ﾎｯｶｲﾄﾞｳ","kana_city":"ｼﾍﾞﾂｸﾞﾝﾅｶｼﾍﾞﾂﾁｮｳ","kana_address":"1980-2","pref":"北海道","city":"標津郡中標津町","address":"１９８０−２"},
{"zip_code":"0882686","kana_pref":"ﾎｯｶｲﾄﾞｳ","kana_city":"ｼﾍﾞﾂｸﾞﾝﾅｶｼﾍﾞﾂﾁｮｳ","kana_address":"","pref":"北海道","city":"標津郡中標津町","address":""},
{"zip_code":"0882686","kana_pref":"ﾎｯｶｲﾄﾞｳ","kana_city":"ｼﾍﾞﾂｸﾞﾝﾅｶｼﾍﾞﾂﾁｮｳ","kana_address":"1997-3","pref":"北海道","city":"標津郡中標津町","address":"１９９７−３"},
{"zip_code":"0882686","kana_pref":"ﾎｯｶｲﾄﾞｳ","kana_city":"ｼﾍﾞﾂｸﾞﾝﾅｶｼﾍﾞﾂﾁｮｳ","kana_address":"2000-2","pref":"北海道","city":"標津郡中標津町","address":"２０００−２"},
{"zip_code":"0882686","kana_pref":"ﾎｯｶｲﾄﾞｳ","kana_city":"ｼﾍﾞﾂｸﾞﾝﾅｶｼﾍﾞﾂﾁｮｳ","kana_address":"2000-8","pref":"北海道","city":"標津郡中標津町","address":"２０００−８"},
{"zip_code":"0882686","kana_pref":"ﾎｯｶｲﾄﾞｳ","kana_city":"ｼﾍﾞﾂｸﾞﾝﾅｶｼﾍﾞﾂﾁｮｳ","kana_address":"2003","pref":"北海道","city":"標津郡中標津町","address":"２００３"},
{"zip_code":"0882686","kana_pref":"ﾎｯｶｲﾄﾞｳ","kana_city":"ｼﾍﾞﾂｸﾞﾝﾅｶｼﾍﾞﾂﾁｮｳ","kana_address":"2015-4","pref":"北海道","city":"標津郡中標津町","address":"２０１５−４"},
{"zip_code":"0882686","kana_pref":"ﾎｯｶｲﾄﾞｳ","kana_city":"ｼﾍﾞﾂｸﾞﾝﾅｶｼﾍﾞﾂﾁｮｳ","kana_address":"","pref":"北海道","city":"標津郡中標津町","address":""},
{"zip_code":"0882686","kana_pref":"ﾎｯｶｲﾄﾞｳ","kana_city":"ｼﾍﾞﾂｸﾞﾝﾅｶｼﾍﾞﾂﾁｮｳ","kana_address":"2023-2","pref":"北海道","city":"標津郡中標津町","address":"２０２３−２"},
{"zip_code":"0882686","kana_pref":"ﾎｯｶｲﾄﾞｳ","kana_city":"ｼﾍﾞﾂｸﾞﾝﾅｶｼﾍﾞﾂﾁｮｳ","kana_address":"2038-2","pref":"北海道","city":"標津郡中標津町","address":"２０３８−２"},
{"zip_code":"0882686","kana_pref":"ﾎｯｶｲﾄﾞｳ","kana_city":"ｼﾍﾞﾂｸﾞﾝﾅｶｼﾍﾞﾂﾁｮｳ","kana_address":"2253-2","pref":"北海道","city":"標津郡中標津町","address":"２２５３−２"},
{"zip_code":"0882686","kana_pref":"ﾎｯｶｲﾄﾞｳ","kana_city":"ｼﾍﾞﾂｸﾞﾝﾅｶｼﾍﾞﾂﾁｮｳ","kana_address":"2253-5","pref":"北海道","city":"標津郡中標津町","address":"２２５３−５"},
{"zip_code":"0882686","kana_pref":"ﾎｯｶｲﾄﾞｳ","kana_city":"ｼﾍﾞﾂｸﾞﾝﾅｶｼﾍﾞﾂﾁｮｳ","kana_address":"2253-21","pref":"北海道","city":"標津郡中標津町","address":"２２５３−２１"},
{"zip_code":"0882686","kana_pref":"ﾎｯｶｲﾄﾞｳ","kana_city":"ｼﾍﾞﾂｸﾞﾝﾅｶｼﾍﾞﾂﾁｮｳ","kana_address":"","pref":"北海道","city":"標津郡中標津町","address":""},
{"zip_code":"0882686","kana_pref":"ﾎｯｶｲﾄﾞｳ","kana_city":"ｼﾍﾞﾂｸﾞﾝﾅｶｼﾍﾞﾂﾁｮｳ","kana_address":"2253-24","pref":"北海道","city":"標津郡中標津町","address":"２２５３−２４"},
{"zip_code":"0882686","kana_pref":"ﾎｯｶｲﾄﾞｳ","kana_city":"ｼﾍﾞﾂｸﾞﾝﾅｶｼﾍﾞﾂﾁｮｳ","kana_address":"2253-35","pref":"北海道","city":"標津郡中標津町","address":"２２５３−３５"},
{"zip_code":"0882686","kana_pref":"ﾎｯｶｲﾄﾞｳ","kana_city":"ｼﾍﾞﾂｸﾞﾝﾅｶｼﾍﾞﾂﾁｮｳ","kana_address":"2253-63)","pref":"北海道","city":"標津郡中標津町","address":"２２５３−６３）"},
{"zip_code":"0882684","kana_pref":"ﾎｯｶｲﾄﾞｳ","kana_city":"ｼﾍﾞﾂｸﾞﾝﾅｶｼﾍﾞﾂﾁｮｳ","kana_address":"ﾖｳﾛｳｳｼ","pref":"北海道","city":"標津郡中標津町","address":"養老牛"}]}