{"zip_code":[
{"zip_code":"0930215","kana_pref":"ﾎｯｶｲﾄﾞｳ","kana_city":"ｷﾀﾐｼ","kana_address":"ﾄｺﾛﾁｮｳｷﾞﾌ","pref":"北海道","city":"北見市","address":"常呂町岐阜"},
{"zip_code":"0930214","kana_pref":"ﾎｯｶｲﾄﾞｳ","kana_city":"ｷﾀﾐｼ","kana_address":"ﾄｺﾛﾁｮｳｷｮｳﾘﾂ","pref":"北海道","city":"北見市","address":"常呂町共立"},
{"zip_code":"0930216","kana_pref":"ﾎｯｶｲﾄﾞｳ","kana_city":"ｷﾀﾐｼ","kana_address":"ﾄｺﾛﾁｮｳｻｶｴｳﾗ","pref":"北海道","city":"北見市","address":"常呂町栄浦"},
{"zip_code":"0930210","kana_pref":"ﾎｯｶｲﾄﾞｳ","kana_city":"ｷﾀﾐｼ","kana_address":"ﾄｺﾛﾁｮｳﾄｺﾛ","pref":"北海道","city":"北見市","address":"常呂町常呂"},
{"zip_code":"0930213","kana_pref":"ﾎｯｶｲﾄﾞｳ","kana_city":"ｷﾀﾐｼ","kana_address":"ﾄｺﾛﾁｮｳﾄｻ","pref":"北海道","city":"北見市","address":"常呂町土佐"},
{"zip_code":"0930332","kana_pref":"ﾎｯｶｲﾄﾞｳ","kana_city":"ｷﾀﾐｼ","kana_address":"ﾄｺﾛﾁｮｳﾄﾐｵｶ","pref":"北海道","city":"北見市","address":"常呂町富丘"},
{"zip_code":"0930331","kana_pref":"ﾎｯｶｲﾄﾞｳ","kana_city":"ｷﾀﾐｼ","kana_address":"ﾄｺﾛﾁｮｳﾄﾖｶﾜ","pref":"北海道","city":"北見市","address":"常呂町豊川"},
{"zip_code":"0930336","kana_pref":"ﾎｯｶｲﾄﾞｳ","kana_city":"ｷﾀﾐｼ","kana_address":"ﾄｺﾛﾁｮｳﾉﾎﾞﾘ","pref":"北海道","city":"北見市","address":"常呂町登"},
{"zip_code":"0930202","kana_pref":"ﾎｯｶｲﾄﾞｳ","kana_city":"ｷﾀﾐｼ","kana_address":"ﾄｺﾛﾁｮｳﾋｶﾞｼﾊﾏ","pref":"北海道","city":"北見市","address":"常呂町東浜"},
{"zip_code":"0930334","kana_pref":"ﾎｯｶｲﾄﾞｳ","kana_city":"ｷﾀﾐｼ","kana_address":"ﾄｺﾛﾁｮｳﾋﾖｼ","pref":"北海道","city":"北見市","address":"常呂町日吉"},
{"zip_code":"0930333","kana_pref":"ﾎｯｶｲﾄﾞｳ","kana_city":"ｷﾀﾐｼ","kana_address":"ﾄｺﾛﾁｮｳﾌｸﾔﾏ","pref":"北海道","city":"北見市","address":"常呂町福山"},
{"zip_code":"0930335","kana_pref":"ﾎｯｶｲﾄﾞｳ","kana_city":"ｷﾀﾐｼ","kana_address":"ﾄｺﾛﾁｮｳﾖｼﾉ","pref":"北海道","city":"北見市","address":"常呂町吉野"},
{"zip_code":"0930000","kana_pref":"ﾎｯｶｲﾄﾞｳ","kana_city":"ｱﾊﾞｼﾘｼ","kana_address":"","pref":"北海道","city":"網走市","address":""},
{"zip_code":"0930135","kana_pref":"ﾎｯｶｲﾄﾞｳ","kana_city":"ｱﾊﾞｼﾘｼ","kana_address":"ｳﾊﾞﾗﾅｲ","pref":"北海道","city":"網走市","address":"卯原内"},
{"zip_code":"0930045","kana_pref":"ﾎｯｶｲﾄﾞｳ","kana_city":"ｱﾊﾞｼﾘｼ","kana_address":"ｵｵﾏｶﾞﾘ","pref":"北海道","city":"網走市","address":"大曲"},
{"zip_code":"0930083","kana_pref":"ﾎｯｶｲﾄﾞｳ","kana_city":"ｱﾊﾞｼﾘｼ","kana_address":"ｶｲｶﾞﾝﾁｮｳ","pref":"北海道","city":"網走市","address":"海岸町"},
{"zip_code":"0930133","kana_pref":"ﾎｯｶｲﾄﾞｳ","kana_city":"ｱﾊﾞｼﾘｼ","kana_address":"ｶﾀﾔﾏ","pref":"北海道","city":"網走市","address":"嘉多山"},
{"zip_code":"0930041","kana_pref":"ﾎｯｶｲﾄﾞｳ","kana_city":"ｱﾊﾞｼﾘｼ","kana_address":"ｶﾂﾗﾏﾁ","pref":"北海道","city":"網走市","address":"桂町"},
{"zip_code":"0930051","kana_pref":"ﾎｯｶｲﾄﾞｳ","kana_city":"ｱﾊﾞｼﾘｼ","kana_address":"ｷﾀ1ｼﾞｮｳﾋｶﾞｼ","pref":"北海道","city":"網走市","address":"北一条東"},
{"zip_code":"0930071","kana_pref":"ﾎｯｶｲﾄﾞｳ","kana_city":"ｱﾊﾞｼﾘｼ","kana_address":"ｷﾀ1ｼﾞｮｳﾆｼ","pref":"北海道","city":"網走市","address":"北一条西"},
{"zip_code":"0930052","kana_pref":"ﾎｯｶｲﾄﾞｳ","kana_city":"ｱﾊﾞｼﾘｼ","kana_address":"ｷﾀ2ｼﾞｮｳﾋｶﾞｼ","pref":"北海道","city":"網走市","address":"北二条東"},
{"zip_code":"0930072","kana_pref":"ﾎｯｶｲﾄﾞｳ","kana_city":"ｱﾊﾞｼﾘｼ","kana_address":"ｷﾀ2ｼﾞｮｳﾆｼ","pref":"北海道","city":"網走市","address":"北二条西"},
{"zip_code":"0930053","kana_pref":"ﾎｯｶｲﾄﾞｳ","kana_city":"ｱﾊﾞｼﾘｼ","kana_address":"ｷﾀ3ｼﾞｮｳﾋｶﾞｼ","pref":"北海道","city":"網走市","address":"北三条東"},
{"zip_code":"0930073","kana_pref":"ﾎｯｶｲﾄﾞｳ","kana_city":"ｱﾊﾞｼﾘｼ","kana_address":"ｷﾀ3ｼﾞｮｳﾆｼ","pref":"北海道","city":"網走市","address":"北三条西"},
{"zip_code":"0930054","kana_pref":"ﾎｯｶｲﾄﾞｳ","kana_city":"ｱﾊﾞｼﾘｼ","kana_address":"ｷﾀ4ｼﾞｮｳﾋｶﾞｼ","pref":"北海道","city":"網走市","address":"北四条東"},
{"zip_code":"0930074","kana_pref":"ﾎｯｶｲﾄﾞｳ","kana_city":"ｱﾊﾞｼﾘｼ","kana_address":"ｷﾀ4ｼﾞｮｳﾆｼ","pref":"北海道","city":"網走市","address":"北四条西"},
{"zip_code":"0930055","kana_pref":"ﾎｯｶｲﾄﾞｳ","kana_city":"ｱﾊﾞｼﾘｼ","kana_address":"ｷﾀ5ｼﾞｮｳﾋｶﾞｼ","pref":"北海道","city":"網走市","address":"北五条東"},
{"zip_code":"0930075","kana_pref":"ﾎｯｶｲﾄﾞｳ","kana_city":"ｱﾊﾞｼﾘｼ","kana_address":"ｷﾀ5ｼﾞｮｳﾆｼ","pref":"北海道","city":"網走市","address":"北五条西"},
{"zip_code":"0930056","kana_pref":"ﾎｯｶｲﾄﾞｳ","kana_city":"ｱﾊﾞｼﾘｼ","kana_address":"ｷﾀ6ｼﾞｮｳﾋｶﾞｼ","pref":"北海道","city":"網走市","address":"北六条東"},
{"zip_code":"0930076","kana_pref":"ﾎｯｶｲﾄﾞｳ","kana_city":"ｱﾊﾞｼﾘｼ","kana_address":"ｷﾀ6ｼﾞｮｳﾆｼ","pref":"北海道","city":"網走市","address":"北六条西"},
{"zip_code":"0930057","kana_pref":"ﾎｯｶｲﾄﾞｳ","kana_city":"ｱﾊﾞｼﾘｼ","kana_address":"ｷﾀ7ｼﾞｮｳﾋｶﾞｼ","pref":"北海道","city":"網走市","address":"北七条東"},
{"zip_code":"0930077","kana_pref":"ﾎｯｶｲﾄﾞｳ","kana_city":"ｱﾊﾞｼﾘｼ","kana_address":"ｷﾀ7ｼﾞｮｳﾆｼ","pref":"北海道","city":"網走市","address":"北七条西"},
{"zip_code":"0930058","kana_pref":"ﾎｯｶｲﾄﾞｳ","kana_city":"ｱﾊﾞｼﾘｼ","kana_address":"ｷﾀ8ｼﾞｮｳﾋｶﾞｼ","pref":"北海道","city":"網走市","address":"北八条東"},
{"zip_code":"0930078","kana_pref":"ﾎｯｶｲﾄﾞｳ","kana_city":"ｱﾊﾞｼﾘｼ","kana_address":"ｷﾀ8ｼﾞｮｳﾆｼ","pref":"北海道","city":"網走市","address":"北八条西"},
{"zip_code":"0930059","kana_pref":"ﾎｯｶｲﾄﾞｳ","kana_city":"ｱﾊﾞｼﾘｼ","kana_address":"ｷﾀ9ｼﾞｮｳﾋｶﾞｼ","pref":"北海道","city":"網走市","address":"北九条東"},
{"zip_code":"0930079","kana_pref":"ﾎｯｶｲﾄﾞｳ","kana_city":"ｱﾊﾞｼﾘｼ","kana_address":"ｷﾀ9ｼﾞｮｳﾆｼ","pref":"北海道","city":"網走市","address":"北九条西"},
{"zip_code":"0930060","kana_pref":"ﾎｯｶｲﾄﾞｳ","kana_city":"ｱﾊﾞｼﾘｼ","kana_address":"ｷﾀ10ｼﾞｮｳﾋｶﾞｼ","pref":"北海道","city":"網走市","address":"北十条東"},
{"zip_code":"0930080","kana_pref":"ﾎｯｶｲﾄﾞｳ","kana_city":"ｱﾊﾞｼﾘｼ","kana_address":"ｷﾀ10ｼﾞｮｳﾆｼ","pref":"北海道","city":"網走市","address":"北十条西"},
{"zip_code":"0930061","kana_pref":"ﾎｯｶｲﾄﾞｳ","kana_city":"ｱﾊﾞｼﾘｼ","kana_address":"ｷﾀ11ｼﾞｮｳﾋｶﾞｼ","pref":"北海道","city":"網走市","address":"北十一条東"},
{"zip_code":"0930081","kana_pref":"ﾎｯｶｲﾄﾞｳ","kana_city":"ｱﾊﾞｼﾘｼ","kana_address":"ｷﾀ11ｼﾞｮｳﾆｼ","pref":"北海道","city":"網走市","address":"北十一条西"},
{"zip_code":"0930062","kana_pref":"ﾎｯｶｲﾄﾞｳ","kana_city":"ｱﾊﾞｼﾘｼ","kana_address":"ｷﾀ12ｼﾞｮｳﾋｶﾞｼ","pref":"北海道","city":"網走市","address":"北十二条東"},
{"zip_code":"0930082","kana_pref":"ﾎｯｶｲﾄﾞｳ","kana_city":"ｱﾊﾞｼﾘｼ","kana_address":"ｷﾀ12ｼﾞｮｳﾆｼ","pref":"北海道","city":"網走市","address":"北十二条西"},
{"zip_code":"0930084","kana_pref":"ﾎｯｶｲﾄﾞｳ","kana_city":"ｱﾊﾞｼﾘｼ","kana_address":"ｺｳﾖｳｶﾞｵｶ","pref":"北海道","city":"網走市","address":"向陽ケ丘"},
{"zip_code":"0930134","kana_pref":"ﾎｯｶｲﾄﾞｳ","kana_city":"ｱﾊﾞｼﾘｼ","kana_address":"ｺｼﾄｼ","pref":"北海道","city":"網走市","address":"越歳"},
{"zip_code":"0930035","kana_pref":"ﾎｯｶｲﾄﾞｳ","kana_city":"ｱﾊﾞｼﾘｼ","kana_address":"ｺﾏﾊﾞﾐﾅﾐ","pref":"北海道","city":"網走市","address":"駒場南"},
{"zip_code":"0930033","kana_pref":"ﾎｯｶｲﾄﾞｳ","kana_city":"ｱﾊﾞｼﾘｼ","kana_address":"ｺﾏﾊﾞｷﾀ","pref":"北海道","city":"網走市","address":"駒場北"},
{"zip_code":"0930088","kana_pref":"ﾎｯｶｲﾄﾞｳ","kana_city":"ｱﾊﾞｼﾘｼ","kana_address":"ｻﾝﾁｮｳ","pref":"北海道","city":"網走市","address":"三眺"},
{"zip_code":"0930042","kana_pref":"ﾎｯｶｲﾄﾞｳ","kana_city":"ｱﾊﾞｼﾘｼ","kana_address":"ｼｵﾐ","pref":"北海道","city":"網走市","address":"潮見"},
{"zip_code":"0930046","kana_pref":"ﾎｯｶｲﾄﾞｳ","kana_city":"ｱﾊﾞｼﾘｼ","kana_address":"ｼﾝﾏﾁ","pref":"北海道","city":"網走市","address":"新町"},
{"zip_code":"0930031","kana_pref":"ﾎｯｶｲﾄﾞｳ","kana_city":"ｱﾊﾞｼﾘｼ","kana_address":"ﾀﾞｲﾏﾁ","pref":"北海道","city":"網走市","address":"台町"},
{"zip_code":"0930034","kana_pref":"ﾎｯｶｲﾄﾞｳ","kana_city":"ｱﾊﾞｼﾘｼ","kana_address":"ﾂｸｼｶﾞｵｶ","pref":"北海道","city":"網走市","address":"つくしケ丘"},
{"zip_code":"0930044","kana_pref":"ﾎｯｶｲﾄﾞｳ","kana_city":"ｱﾊﾞｼﾘｼ","kana_address":"ﾃﾝﾄｻﾞﾝ","pref":"北海道","city":"網走市","address":"天都山"},
{"zip_code":"0930043","kana_pref":"ﾎｯｶｲﾄﾞｳ","kana_city":"ｱﾊﾞｼﾘｼ","kana_address":"ﾆｼｷﾏﾁ","pref":"北海道","city":"網走市","address":"錦町"},
{"zip_code":"0930241","kana_pref":"ﾎｯｶｲﾄﾞｳ","kana_city":"ｱﾊﾞｼﾘｼ","kana_address":"ﾉﾄﾘ","pref":"北海道","city":"網走市","address":"能取"},
{"zip_code":"0930131","kana_pref":"ﾎｯｶｲﾄﾞｳ","kana_city":"ｱﾊﾞｼﾘｼ","kana_address":"ﾉﾄﾛﾐﾅﾄﾏﾁ","pref":"北海道","city":"網走市","address":"能取港町"},
{"zip_code":"0930086","kana_pref":"ﾎｯｶｲﾄﾞｳ","kana_city":"ｱﾊﾞｼﾘｼ","kana_address":"ﾌﾀﾂｲﾜ","pref":"北海道","city":"網走市","address":"二ツ岩"},
{"zip_code":"0930132","kana_pref":"ﾎｯｶｲﾄﾞｳ","kana_city":"ｱﾊﾞｼﾘｼ","kana_address":"ﾌﾀﾐｶﾞｵｶ","pref":"北海道","city":"網走市","address":"二見ケ岡"},
{"zip_code":"0930090","kana_pref":"ﾎｯｶｲﾄﾞｳ","kana_city":"ｱﾊﾞｼﾘｼ","kana_address":"ﾌﾞﾝｶ","pref":"北海道","city":"網走市","address":"文化"},
{"zip_code":"0930136","kana_pref":"ﾎｯｶｲﾄﾞｳ","kana_city":"ｱﾊﾞｼﾘｼ","kana_address":"ﾍｲﾜ","pref":"北海道","city":"網走市","address":"平和"},
{"zip_code":"0930087","kana_pref":"ﾎｯｶｲﾄﾞｳ","kana_city":"ｱﾊﾞｼﾘｼ","kana_address":"ﾐｻｷ","pref":"北海道","city":"網走市","address":"美岬"},
{"zip_code":"0930089","kana_pref":"ﾎｯｶｲﾄﾞｳ","kana_city":"ｱﾊﾞｼﾘｼ","kana_address":"ﾐﾄﾞﾘﾏﾁ","pref":"北海道","city":"網走市","address":"緑町"},
{"zip_code":"0930032","kana_pref":"ﾎｯｶｲﾄﾞｳ","kana_city":"ｱﾊﾞｼﾘｼ","kana_address":"ﾐﾅﾄﾏﾁ","pref":"北海道","city":"網走市","address":"港町"},
{"zip_code":"0930001","kana_pref":"ﾎｯｶｲﾄﾞｳ","kana_city":"ｱﾊﾞｼﾘｼ","kana_address":"ﾐﾅﾐ1ｼﾞｮｳﾋｶﾞｼ","pref":"北海道","city":"網走市","address":"南一条東"},
{"zip_code":"0930011","kana_pref":"ﾎｯｶｲﾄﾞｳ","kana_city":"ｱﾊﾞｼﾘｼ","kana_address":"ﾐﾅﾐ1ｼﾞｮｳﾆｼ","pref":"北海道","city":"網走市","address":"南一条西"},
{"zip_code":"0930002","kana_pref":"ﾎｯｶｲﾄﾞｳ","kana_city":"ｱﾊﾞｼﾘｼ","kana_address":"ﾐﾅﾐ2ｼﾞｮｳﾋｶﾞｼ","pref":"北海道","city":"網走市","address":"南二条東"},
{"zip_code":"0930012","kana_pref":"ﾎｯｶｲﾄﾞｳ","kana_city":"ｱﾊﾞｼﾘｼ","kana_address":"ﾐﾅﾐ2ｼﾞｮｳﾆｼ","pref":"北海道","city":"網走市","address":"南二条西"},
{"zip_code":"0930003","kana_pref":"ﾎｯｶｲﾄﾞｳ","kana_city":"ｱﾊﾞｼﾘｼ","kana_address":"ﾐﾅﾐ3ｼﾞｮｳﾋｶﾞｼ","pref":"北海道","city":"網走市","address":"南三条東"},
{"zip_code":"0930013","kana_pref":"ﾎｯｶｲﾄﾞｳ","kana_city":"ｱﾊﾞｼﾘｼ","kana_address":"ﾐﾅﾐ3ｼﾞｮｳﾆｼ","pref":"北海道","city":"網走市","address":"南三条西"},
{"zip_code":"0930004","kana_pref":"ﾎｯｶｲﾄﾞｳ","kana_city":"ｱﾊﾞｼﾘｼ","kana_address":"ﾐﾅﾐ4ｼﾞｮｳﾋｶﾞｼ","pref":"北海道","city":"網走市","address":"南四条東"},
{"zip_code":"0930014","kana_pref":"ﾎｯｶｲﾄﾞｳ","kana_city":"ｱﾊﾞｼﾘｼ","kana_address":"ﾐﾅﾐ4ｼﾞｮｳﾆｼ","pref":"北海道","city":"網走市","address":"南四条西"},
{"zip_code":"0930005","kana_pref":"ﾎｯｶｲﾄﾞｳ","kana_city":"ｱﾊﾞｼﾘｼ","kana_address":"ﾐﾅﾐ5ｼﾞｮｳﾋｶﾞｼ","pref":"北海道","city":"網走市","address":"南五条東"},
{"zip_code":"0930015","kana_pref":"ﾎｯｶｲﾄﾞｳ","kana_city":"ｱﾊﾞｼﾘｼ","kana_address":"ﾐﾅﾐ5ｼﾞｮｳﾆｼ","pref":"北海道","city":"網走市","address":"南五条西"},
{"zip_code":"0930006","kana_pref":"ﾎｯｶｲﾄﾞｳ","kana_city":"ｱﾊﾞｼﾘｼ","kana_address":"ﾐﾅﾐ6ｼﾞｮｳﾋｶﾞｼ","pref":"北海道","city":"網走市","address":"南六条東"},
{"zip_code":"0930016","kana_pref":"ﾎｯｶｲﾄﾞｳ","kana_city":"ｱﾊﾞｼﾘｼ","kana_address":"ﾐﾅﾐ6ｼﾞｮｳﾆｼ","pref":"北海道","city":"網走市","address":"南六条西"},
{"zip_code":"0930007","kana_pref":"ﾎｯｶｲﾄﾞｳ","kana_city":"ｱﾊﾞｼﾘｼ","kana_address":"ﾐﾅﾐ7ｼﾞｮｳﾋｶﾞｼ","pref":"北海道","city":"網走市","address":"南七条東"},
{"zip_code":"0930017","kana_pref":"ﾎｯｶｲﾄﾞｳ","kana_city":"ｱﾊﾞｼﾘｼ","kana_address":"ﾐﾅﾐ7ｼﾞｮｳﾆｼ","pref":"北海道","city":"網走市","address":"南七条西"},
{"zip_code":"0930008","kana_pref":"ﾎｯｶｲﾄﾞｳ","kana_city":"ｱﾊﾞｼﾘｼ","kana_address":"ﾐﾅﾐ8ｼﾞｮｳﾋｶﾞｼ","pref":"北海道","city":"網走市","address":"南八条東"},
{"zip_code":"0930018","kana_pref":"ﾎｯｶｲﾄﾞｳ","kana_city":"ｱﾊﾞｼﾘｼ","kana_address":"ﾐﾅﾐ8ｼﾞｮｳﾆｼ","pref":"北海道","city":"網走市","address":"南八条西"},
{"zip_code":"0930009","kana_pref":"ﾎｯｶｲﾄﾞｳ","kana_city":"ｱﾊﾞｼﾘｼ","kana_address":"ﾐﾅﾐ9ｼﾞｮｳﾋｶﾞｼ","pref":"北海道","city":"網走市","address":"南九条東"},
{"zip_code":"0930019","kana_pref":"ﾎｯｶｲﾄﾞｳ","kana_city":"ｱﾊﾞｼﾘｼ","kana_address":"ﾐﾅﾐ9ｼﾞｮｳﾆｼ","pref":"北海道","city":"網走市","address":"南九条西"},
{"zip_code":"0930010","kana_pref":"ﾎｯｶｲﾄﾞｳ","kana_city":"ｱﾊﾞｼﾘｼ","kana_address":"ﾐﾅﾐ10ｼﾞｮｳﾋｶﾞｼ","pref":"北海道","city":"網走市","address":"南十条東"},
{"zip_code":"0930020","kana_pref":"ﾎｯｶｲﾄﾞｳ","kana_city":"ｱﾊﾞｼﾘｼ","kana_address":"ﾐﾅﾐ10ｼﾞｮｳﾆｼ","pref":"北海道","city":"網走市","address":"南十条西"},
{"zip_code":"0930021","kana_pref":"ﾎｯｶｲﾄﾞｳ","kana_city":"ｱﾊﾞｼﾘｼ","kana_address":"ﾐﾅﾐ11ｼﾞｮｳﾆｼ","pref":"北海道","city":"網走市","address":"南十一条西"},
{"zip_code":"0930022","kana_pref":"ﾎｯｶｲﾄﾞｳ","kana_city":"ｱﾊﾞｼﾘｼ","kana_address":"ﾐﾅﾐ12ｼﾞｮｳﾆｼ","pref":"北海道","city":"網走市","address":"南十二条西"},
{"zip_code":"0930023","kana_pref":"ﾎｯｶｲﾄﾞｳ","kana_city":"ｱﾊﾞｼﾘｼ","kana_address":"ﾐﾅﾐ13ｼﾞｮｳﾆｼ","pref":"北海道","city":"網走市","address":"南十三条西"},
{"zip_code":"0930024","kana_pref":"ﾎｯｶｲﾄﾞｳ","kana_city":"ｱﾊﾞｼﾘｼ","kana_address":"ﾐﾅﾐ14ｼﾞｮｳﾆｼ","pref":"北海道","city":"網走市","address":"南十四条西"},
{"zip_code":"0930085","kana_pref":"ﾎｯｶｲﾄﾞｳ","kana_city":"ｱﾊﾞｼﾘｼ","kana_address":"ﾒｲｼﾞ","pref":"北海道","city":"網走市","address":"明治"},
{"zip_code":"0930500","kana_pref":"ﾎｯｶｲﾄﾞｳ","kana_city":"ﾄｺﾛｸﾞﾝｻﾛﾏﾁｮｳ","kana_address":"","pref":"北海道","city":"常呂郡佐呂間町","address":""},
{"zip_code":"0930502","kana_pref":"ﾎｯｶｲﾄﾞｳ","kana_city":"ﾄｺﾛｸﾞﾝｻﾛﾏﾁｮｳ","kana_address":"ｴｲﾀﾞｲﾁｮｳ","pref":"北海道","city":"常呂郡佐呂間町","address":"永代町"},
{"zip_code":"0930505","kana_pref":"ﾎｯｶｲﾄﾞｳ","kana_city":"ﾄｺﾛｸﾞﾝｻﾛﾏﾁｮｳ","kana_address":"ｷﾀ","pref":"北海道","city":"常呂郡佐呂間町","address":"北"},
{"zip_code":"0930503","kana_pref":"ﾎｯｶｲﾄﾞｳ","kana_city":"ﾄｺﾛｸﾞﾝｻﾛﾏﾁｮｳ","kana_address":"ｻｲﾜｲﾁｮｳ","pref":"北海道","city":"常呂郡佐呂間町","address":"幸町"},
{"zip_code":"0930508","kana_pref":"ﾎｯｶｲﾄﾞｳ","kana_city":"ﾄｺﾛｸﾞﾝｻﾛﾏﾁｮｳ","kana_address":"ﾁﾗｲ","pref":"北海道","city":"常呂郡佐呂間町","address":"知来"},
{"zip_code":"0930506","kana_pref":"ﾎｯｶｲﾄﾞｳ","kana_city":"ﾄｺﾛｸﾞﾝｻﾛﾏﾁｮｳ","kana_address":"ﾄｯﾌﾟｼ","pref":"北海道","city":"常呂郡佐呂間町","address":"富武士"},
{"zip_code":"0930421","kana_pref":"ﾎｯｶｲﾄﾞｳ","kana_city":"ﾄｺﾛｸﾞﾝｻﾛﾏﾁｮｳ","kana_address":"ﾅﾆﾜ","pref":"北海道","city":"常呂郡佐呂間町","address":"浪速"},
{"zip_code":"0930424","kana_pref":"ﾎｯｶｲﾄﾞｳ","kana_city":"ﾄｺﾛｸﾞﾝｻﾛﾏﾁｮｳ","kana_address":"ﾆｸﾗ","pref":"北海道","city":"常呂郡佐呂間町","address":"仁倉"},
{"zip_code":"0930504","kana_pref":"ﾎｯｶｲﾄﾞｳ","kana_city":"ﾄｺﾛｸﾞﾝｻﾛﾏﾁｮｳ","kana_address":"ﾆｼﾄﾐ","pref":"北海道","city":"常呂郡佐呂間町","address":"西富"},
{"zip_code":"0930423","kana_pref":"ﾎｯｶｲﾄﾞｳ","kana_city":"ﾄｺﾛｸﾞﾝｻﾛﾏﾁｮｳ","kana_address":"ﾊﾏｻﾛﾏ","pref":"北海道","city":"常呂郡佐呂間町","address":"浜佐呂間"},
{"zip_code":"0930507","kana_pref":"ﾎｯｶｲﾄﾞｳ","kana_city":"ﾄｺﾛｸﾞﾝｻﾛﾏﾁｮｳ","kana_address":"ﾋｶﾞｼ","pref":"北海道","city":"常呂郡佐呂間町","address":"東"},
{"zip_code":"0930422","kana_pref":"ﾎｯｶｲﾄﾞｳ","kana_city":"ﾄｺﾛｸﾞﾝｻﾛﾏﾁｮｳ","kana_address":"ﾎﾛｲﾜ","pref":"北海道","city":"常呂郡佐呂間町","address":"幌岩"},
{"zip_code":"0930501","kana_pref":"ﾎｯｶｲﾄﾞｳ","kana_city":"ﾄｺﾛｸﾞﾝｻﾛﾏﾁｮｳ","kana_address":"ﾐﾔﾏｴﾁｮｳ","pref":"北海道","city":"常呂郡佐呂間町","address":"宮前町"},
{"zip_code":"0930532","kana_pref":"ﾎｯｶｲﾄﾞｳ","kana_city":"ﾄｺﾛｸﾞﾝｻﾛﾏﾁｮｳ","kana_address":"ﾜｶｻﾄ","pref":"北海道","city":"常呂郡佐呂間町","address":"若里"},
{"zip_code":"0930732","kana_pref":"ﾎｯｶｲﾄﾞｳ","kana_city":"ﾓﾝﾍﾞﾂｸﾞﾝﾕｳﾍﾞﾂﾁｮｳ","kana_address":"ｶﾐﾊﾞﾛｳ","pref":"北海道","city":"紋別郡湧別町","address":"上芭露"},
{"zip_code":"0930651","kana_pref":"ﾎｯｶｲﾄﾞｳ","kana_city":"ﾓﾝﾍﾞﾂｸﾞﾝﾕｳﾍﾞﾂﾁｮｳ","kana_address":"ｹﾛﾁ","pref":"北海道","city":"紋別郡湧別町","address":"計呂地"},
{"zip_code":"0930652","kana_pref":"ﾎｯｶｲﾄﾞｳ","kana_city":"ﾓﾝﾍﾞﾂｸﾞﾝﾕｳﾍﾞﾂﾁｮｳ","kana_address":"ｼﾌﾞｼ","pref":"北海道","city":"紋別郡湧別町","address":"志撫子"},
{"zip_code":"0930733","kana_pref":"ﾎｯｶｲﾄﾞｳ","kana_city":"ﾓﾝﾍﾞﾂｸﾞﾝﾕｳﾍﾞﾂﾁｮｳ","kana_address":"ﾆｼﾊﾞﾛｳ","pref":"北海道","city":"紋別郡湧別町","address":"西芭露"},
{"zip_code":"0930731","kana_pref":"ﾎｯｶｲﾄﾞｳ","kana_city":"ﾓﾝﾍﾞﾂｸﾞﾝﾕｳﾍﾞﾂﾁｮｳ","kana_address":"ﾊﾞﾛｳ","pref":"北海道","city":"紋別郡湧別町","address":"芭露"},
{"zip_code":"0930734","kana_pref":"ﾎｯｶｲﾄﾞｳ","kana_city":"ﾓﾝﾍﾞﾂｸﾞﾝﾕｳﾍﾞﾂﾁｮｳ","kana_address":"ﾋｶﾞｼﾊﾞﾛｳ","pref":"北海道","city":"紋別郡湧別町","address":"東芭露"},
{"zip_code":"0930735","kana_pref":"ﾎｯｶｲﾄﾞｳ","kana_city":"ﾓﾝﾍﾞﾂｸﾞﾝﾕｳﾍﾞﾂﾁｮｳ","kana_address":"ﾌｸｼﾏ","pref":"北海道","city":"紋別郡湧別町","address":"福島"}]}