{"zip_code":[
{"zip_code":"0940000","kana_pref":"ﾎｯｶｲﾄﾞｳ","kana_city":"ﾓﾝﾍﾞﾂｼ","kana_address":"","pref":"北海道","city":"紋別市","address":""},
{"zip_code":"0940021","kana_pref":"ﾎｯｶｲﾄﾞｳ","kana_city":"ﾓﾝﾍﾞﾂｼ","kana_address":"ｵｵﾔﾏﾁｮｳ","pref":"北海道","city":"紋別市","address":"大山町"},
{"zip_code":"0940007","kana_pref":"ﾎｯｶｲﾄﾞｳ","kana_city":"ﾓﾝﾍﾞﾂｼ","kana_address":"ｵﾁｲｼﾁｮｳ","pref":"北海道","city":"紋別市","address":"落石町"},
{"zip_code":"0940031","kana_pref":"ﾎｯｶｲﾄﾞｳ","kana_city":"ﾓﾝﾍﾞﾂｼ","kana_address":"ｶｲﾖｳｺｳｴﾝ","pref":"北海道","city":"紋別市","address":"海洋公園"},
{"zip_code":"0940027","kana_pref":"ﾎｯｶｲﾄﾞｳ","kana_city":"ﾓﾝﾍﾞﾂｼ","kana_address":"ｶﾐｺｳﾉﾏｲ","pref":"北海道","city":"紋別市","address":"上鴻之舞"},
{"zip_code":"0940025","kana_pref":"ﾎｯｶｲﾄﾞｳ","kana_city":"ﾓﾝﾍﾞﾂｼ","kana_address":"ｶﾐﾓﾍﾞﾂ","pref":"北海道","city":"紋別市","address":"上藻別"},
{"zip_code":"0940001","kana_pref":"ﾎｯｶｲﾄﾞｳ","kana_city":"ﾓﾝﾍﾞﾂｼ","kana_address":"ｷﾀﾊﾏﾁｮｳ","pref":"北海道","city":"紋別市","address":"北浜町"},
{"zip_code":"0940026","kana_pref":"ﾎｯｶｲﾄﾞｳ","kana_city":"ﾓﾝﾍﾞﾂｼ","kana_address":"ｺｳﾉﾏｲ","pref":"北海道","city":"紋別市","address":"鴻之舞"},
{"zip_code":"0940005","kana_pref":"ﾎｯｶｲﾄﾞｳ","kana_city":"ﾓﾝﾍﾞﾂｼ","kana_address":"ｻｲﾜｲﾁｮｳ","pref":"北海道","city":"紋別市","address":"幸町"},
{"zip_code":"0940006","kana_pref":"ﾎｯｶｲﾄﾞｳ","kana_city":"ﾓﾝﾍﾞﾂｼ","kana_address":"ｼｵﾐﾁｮｳ","pref":"北海道","city":"紋別市","address":"潮見町"},
{"zip_code":"0940012","kana_pref":"ﾎｯｶｲﾄﾞｳ","kana_city":"ﾓﾝﾍﾞﾂｼ","kana_address":"ｼﾝｺｳﾁｮｳ","pref":"北海道","city":"紋別市","address":"新港町"},
{"zip_code":"0940022","kana_pref":"ﾎｯｶｲﾄﾞｳ","kana_city":"ﾓﾝﾍﾞﾂｼ","kana_address":"ｼﾝｾｲ","pref":"北海道","city":"紋別市","address":"新生"},
{"zip_code":"0940015","kana_pref":"ﾎｯｶｲﾄﾞｳ","kana_city":"ﾓﾝﾍﾞﾂｼ","kana_address":"ﾊﾅｿﾞﾉﾁｮｳ","pref":"北海道","city":"紋別市","address":"花園町"},
{"zip_code":"0940003","kana_pref":"ﾎｯｶｲﾄﾞｳ","kana_city":"ﾓﾝﾍﾞﾂｼ","kana_address":"ﾍﾞﾝﾃﾝﾁｮｳ","pref":"北海道","city":"紋別市","address":"弁天町"},
{"zip_code":"0940004","kana_pref":"ﾎｯｶｲﾄﾞｳ","kana_city":"ﾓﾝﾍﾞﾂｼ","kana_address":"ﾎﾝﾁｮｳ","pref":"北海道","city":"紋別市","address":"本町"},
{"zip_code":"0940002","kana_pref":"ﾎｯｶｲﾄﾞｳ","kana_city":"ﾓﾝﾍﾞﾂｼ","kana_address":"ﾏｻｺﾞﾁｮｳ","pref":"北海道","city":"紋別市","address":"真砂町"},
{"zip_code":"0940014","kana_pref":"ﾎｯｶｲﾄﾞｳ","kana_city":"ﾓﾝﾍﾞﾂｼ","kana_address":"ﾐﾄﾞﾘﾁｮｳ","pref":"北海道","city":"紋別市","address":"緑町"},
{"zip_code":"0940011","kana_pref":"ﾎｯｶｲﾄﾞｳ","kana_city":"ﾓﾝﾍﾞﾂｼ","kana_address":"ﾐﾅﾄﾁｮｳ","pref":"北海道","city":"紋別市","address":"港町"},
{"zip_code":"0940013","kana_pref":"ﾎｯｶｲﾄﾞｳ","kana_city":"ﾓﾝﾍﾞﾂｼ","kana_address":"ﾐﾅﾐｶﾞｵｶﾁｮｳ","pref":"北海道","city":"紋別市","address":"南が丘町"},
{"zip_code":"0940023","kana_pref":"ﾎｯｶｲﾄﾞｳ","kana_city":"ﾓﾝﾍﾞﾂｼ","kana_address":"ﾓﾄﾓﾝﾍﾞﾂ","pref":"北海道","city":"紋別市","address":"元紋別"},
{"zip_code":"0940024","kana_pref":"ﾎｯｶｲﾄﾞｳ","kana_city":"ﾓﾝﾍﾞﾂｼ","kana_address":"ﾓﾍﾞﾂ","pref":"北海道","city":"紋別市","address":"藻別"}]}