{"zip_code":[
{"zip_code":"0970000","kana_pref":"ﾎｯｶｲﾄﾞｳ","kana_city":"ﾜｯｶﾅｲｼ","kana_address":"","pref":"北海道","city":"稚内市","address":""},
{"zip_code":"0970015","kana_pref":"ﾎｯｶｲﾄﾞｳ","kana_city":"ﾜｯｶﾅｲｼ","kana_address":"ｱｻﾋ","pref":"北海道","city":"稚内市","address":"朝日"},
{"zip_code":"0970025","kana_pref":"ﾎｯｶｲﾄﾞｳ","kana_city":"ﾜｯｶﾅｲｼ","kana_address":"ｴﾋﾞｽ","pref":"北海道","city":"稚内市","address":"恵比須"},
{"zip_code":"0970023","kana_pref":"ﾎｯｶｲﾄﾞｳ","kana_city":"ﾜｯｶﾅｲｼ","kana_address":"ｶｲｳﾝ","pref":"北海道","city":"稚内市","address":"開運"},
{"zip_code":"0970003","kana_pref":"ﾎｯｶｲﾄﾞｳ","kana_city":"ﾜｯｶﾅｲｼ","kana_address":"ｺﾏﾄﾞﾘ","pref":"北海道","city":"稚内市","address":"こまどり"},
{"zip_code":"0970017","kana_pref":"ﾎｯｶｲﾄﾞｳ","kana_city":"ﾜｯｶﾅｲｼ","kana_address":"ｻｶｴ","pref":"北海道","city":"稚内市","address":"栄"},
{"zip_code":"0970002","kana_pref":"ﾎｯｶｲﾄﾞｳ","kana_city":"ﾜｯｶﾅｲｼ","kana_address":"ｼｵﾐ","pref":"北海道","city":"稚内市","address":"潮見"},
{"zip_code":"0970014","kana_pref":"ﾎｯｶｲﾄﾞｳ","kana_city":"ﾜｯｶﾅｲｼ","kana_address":"ｼﾝｺｳﾁｮｳ","pref":"北海道","city":"稚内市","address":"新光町"},
{"zip_code":"0970007","kana_pref":"ﾎｯｶｲﾄﾞｳ","kana_city":"ﾜｯｶﾅｲｼ","kana_address":"ｼﾝｽｴﾋﾛ","pref":"北海道","city":"稚内市","address":"新末広"},
{"zip_code":"0970006","kana_pref":"ﾎｯｶｲﾄﾞｳ","kana_city":"ﾜｯｶﾅｲｼ","kana_address":"ｼﾝﾐﾅﾄﾁｮｳ","pref":"北海道","city":"稚内市","address":"新港町"},
{"zip_code":"0970001","kana_pref":"ﾎｯｶｲﾄﾞｳ","kana_city":"ﾜｯｶﾅｲｼ","kana_address":"ｽｴﾋﾛ","pref":"北海道","city":"稚内市","address":"末広"},
{"zip_code":"0970005","kana_pref":"ﾎｯｶｲﾄﾞｳ","kana_city":"ﾜｯｶﾅｲｼ","kana_address":"ﾀﾞｲｺｸ","pref":"北海道","city":"稚内市","address":"大黒"},
{"zip_code":"0970022","kana_pref":"ﾎｯｶｲﾄﾞｳ","kana_city":"ﾜｯｶﾅｲｼ","kana_address":"ﾁｭｳｵｳ","pref":"北海道","city":"稚内市","address":"中央"},
{"zip_code":"0970012","kana_pref":"ﾎｯｶｲﾄﾞｳ","kana_city":"ﾜｯｶﾅｲｼ","kana_address":"ﾄﾐｵｶ","pref":"北海道","city":"稚内市","address":"富岡"},
{"zip_code":"0970037","kana_pref":"ﾎｯｶｲﾄﾞｳ","kana_city":"ﾜｯｶﾅｲｼ","kana_address":"ﾆｼﾊﾏ","pref":"北海道","city":"稚内市","address":"西浜"},
{"zip_code":"0970026","kana_pref":"ﾎｯｶｲﾄﾞｳ","kana_city":"ﾜｯｶﾅｲｼ","kana_address":"ﾉｼｬｯﾌﾟ","pref":"北海道","city":"稚内市","address":"ノシャップ"},
{"zip_code":"0970016","kana_pref":"ﾎｯｶｲﾄﾞｳ","kana_city":"ﾜｯｶﾅｲｼ","kana_address":"ﾊｷﾞﾐ","pref":"北海道","city":"稚内市","address":"萩見"},
{"zip_code":"0970036","kana_pref":"ﾎｯｶｲﾄﾞｳ","kana_city":"ﾜｯｶﾅｲｼ","kana_address":"ﾊﾞｯｶｲﾑﾗ","pref":"北海道","city":"稚内市","address":"抜海村"},
{"zip_code":"0970035","kana_pref":"ﾎｯｶｲﾄﾞｳ","kana_city":"ﾜｯｶﾅｲｼ","kana_address":"ﾊﾞｯｶｲﾑﾗ","pref":"北海道","city":"稚内市","address":"抜海村"},
{"zip_code":"0970011","kana_pref":"ﾎｯｶｲﾄﾞｳ","kana_city":"ﾜｯｶﾅｲｼ","kana_address":"ﾊﾏﾅｽ","pref":"北海道","city":"稚内市","address":"はまなす"},
{"zip_code":"0970027","kana_pref":"ﾎｯｶｲﾄﾞｳ","kana_city":"ﾜｯｶﾅｲｼ","kana_address":"ﾌｼﾞﾐ","pref":"北海道","city":"稚内市","address":"富士見"},
{"zip_code":"0970024","kana_pref":"ﾎｯｶｲﾄﾞｳ","kana_city":"ﾜｯｶﾅｲｼ","kana_address":"ﾎｳﾗｲ","pref":"北海道","city":"稚内市","address":"宝来"},
{"zip_code":"0970004","kana_pref":"ﾎｯｶｲﾄﾞｳ","kana_city":"ﾜｯｶﾅｲｼ","kana_address":"ﾐﾄﾞﾘ","pref":"北海道","city":"稚内市","address":"緑"},
{"zip_code":"0970021","kana_pref":"ﾎｯｶｲﾄﾞｳ","kana_city":"ﾜｯｶﾅｲｼ","kana_address":"ﾐﾅﾄ","pref":"北海道","city":"稚内市","address":"港"},
{"zip_code":"0970013","kana_pref":"ﾎｯｶｲﾄﾞｳ","kana_city":"ﾜｯｶﾅｲｼ","kana_address":"ﾜｶﾊﾞﾀﾞｲ","pref":"北海道","city":"稚内市","address":"若葉台"},
{"zip_code":"0971200","kana_pref":"ﾎｯｶｲﾄﾞｳ","kana_city":"ﾚﾌﾞﾝｸﾞﾝﾚﾌﾞﾝﾁｮｳ","kana_address":"","pref":"北海道","city":"礼文郡礼文町","address":""},
{"zip_code":"0971201","kana_pref":"ﾎｯｶｲﾄﾞｳ","kana_city":"ﾚﾌﾞﾝｸﾞﾝﾚﾌﾞﾝﾁｮｳ","kana_address":"ｶﾌｶﾑﾗ","pref":"北海道","city":"礼文郡礼文町","address":"香深村"},
{"zip_code":"0971202","kana_pref":"ﾎｯｶｲﾄﾞｳ","kana_city":"ﾚﾌﾞﾝｸﾞﾝﾚﾌﾞﾝﾁｮｳ","kana_address":"ﾌﾅﾄﾞﾏﾘﾑﾗ","pref":"北海道","city":"礼文郡礼文町","address":"船泊村"},
{"zip_code":"0971111","kana_pref":"ﾎｯｶｲﾄﾞｳ","kana_city":"ﾚﾌﾞﾝｸﾞﾝﾚﾌﾞﾝﾁｮｳ","kana_address":"ﾌﾅﾄﾞﾏﾘﾑﾗ","pref":"北海道","city":"礼文郡礼文町","address":"船泊村"},
{"zip_code":"0970400","kana_pref":"ﾎｯｶｲﾄﾞｳ","kana_city":"ﾘｼﾘｸﾞﾝﾘｼﾘﾁｮｳ","kana_address":"","pref":"北海道","city":"利尻郡利尻町","address":""},
{"zip_code":"0970401","kana_pref":"ﾎｯｶｲﾄﾞｳ","kana_city":"ﾘｼﾘｸﾞﾝﾘｼﾘﾁｮｳ","kana_address":"ｸﾂｶﾞﾀ","pref":"北海道","city":"利尻郡利尻町","address":"沓形"},
{"zip_code":"0970311","kana_pref":"ﾎｯｶｲﾄﾞｳ","kana_city":"ﾘｼﾘｸﾞﾝﾘｼﾘﾁｮｳ","kana_address":"ｾﾝﾎﾟｳｼ","pref":"北海道","city":"利尻郡利尻町","address":"仙法志"},
{"zip_code":"0970100","kana_pref":"ﾎｯｶｲﾄﾞｳ","kana_city":"ﾘｼﾘｸﾞﾝﾘｼﾘﾌｼﾞﾁｮｳ","kana_address":"","pref":"北海道","city":"利尻郡利尻富士町","address":""},
{"zip_code":"0970101","kana_pref":"ﾎｯｶｲﾄﾞｳ","kana_city":"ﾘｼﾘｸﾞﾝﾘｼﾘﾌｼﾞﾁｮｳ","kana_address":"ｵｼﾄﾞﾏﾘ","pref":"北海道","city":"利尻郡利尻富士町","address":"鴛泊"},
{"zip_code":"0970211","kana_pref":"ﾎｯｶｲﾄﾞｳ","kana_city":"ﾘｼﾘｸﾞﾝﾘｼﾘﾌｼﾞﾁｮｳ","kana_address":"ｵﾆﾜｷ","pref":"北海道","city":"利尻郡利尻富士町","address":"鬼脇"}]}