{"zip_code":[
{"zip_code":"0990871","kana_pref":"ﾎｯｶｲﾄﾞｳ","kana_city":"ｷﾀﾐｼ","kana_address":"ｱｲﾉﾅｲﾁｮｳ","pref":"北海道","city":"北見市","address":"相内町"},
{"zip_code":"0991582","kana_pref":"ﾎｯｶｲﾄﾞｳ","kana_city":"ｷﾀﾐｼ","kana_address":"ｶｲｾｲ","pref":"北海道","city":"北見市","address":"開成"},
{"zip_code":"0990877","kana_pref":"ﾎｯｶｲﾄﾞｳ","kana_city":"ｷﾀﾐｼ","kana_address":"ｶｼﾜｷﾞ","pref":"北海道","city":"北見市","address":"柏木"},
{"zip_code":"0991585","kana_pref":"ﾎｯｶｲﾄﾞｳ","kana_city":"ｷﾀﾐｼ","kana_address":"ｶﾐﾄｺﾛ","pref":"北海道","city":"北見市","address":"上ところ"},
{"zip_code":"0991583","kana_pref":"ﾎｯｶｲﾄﾞｳ","kana_city":"ｷﾀﾐｼ","kana_address":"ｷﾀｶﾞﾐ","pref":"北海道","city":"北見市","address":"北上"},
{"zip_code":"0990874","kana_pref":"ﾎｯｶｲﾄﾞｳ","kana_city":"ｷﾀﾐｼ","kana_address":"ｽﾐﾖｼ","pref":"北海道","city":"北見市","address":"住吉"},
{"zip_code":"0992101","kana_pref":"ﾎｯｶｲﾄﾞｳ","kana_city":"ｷﾀﾐｼ","kana_address":"ﾀﾝﾉﾁｮｳ1ｸ","pref":"北海道","city":"北見市","address":"端野町一区"},
{"zip_code":"0992102","kana_pref":"ﾎｯｶｲﾄﾞｳ","kana_city":"ｷﾀﾐｼ","kana_address":"ﾀﾝﾉﾁｮｳ2ｸ","pref":"北海道","city":"北見市","address":"端野町二区"},
{"zip_code":"0992103","kana_pref":"ﾎｯｶｲﾄﾞｳ","kana_city":"ｷﾀﾐｼ","kana_address":"ﾀﾝﾉﾁｮｳ3ｸ","pref":"北海道","city":"北見市","address":"端野町三区"},
{"zip_code":"0992107","kana_pref":"ﾎｯｶｲﾄﾞｳ","kana_city":"ｷﾀﾐｼ","kana_address":"ﾀﾝﾉﾁｮｳｶﾜﾑｶｲ","pref":"北海道","city":"北見市","address":"端野町川向"},
{"zip_code":"0992106","kana_pref":"ﾎｯｶｲﾄﾞｳ","kana_city":"ｷﾀﾐｼ","kana_address":"ﾀﾝﾉﾁｮｳｷｮｳﾜ","pref":"北海道","city":"北見市","address":"端野町協和"},
{"zip_code":"0992104","kana_pref":"ﾎｯｶｲﾄﾞｳ","kana_city":"ｷﾀﾐｼ","kana_address":"ﾀﾝﾉﾁｮｳﾀﾝﾉ","pref":"北海道","city":"北見市","address":"端野町端野"},
{"zip_code":"0992105","kana_pref":"ﾎｯｶｲﾄﾞｳ","kana_city":"ｷﾀﾐｼ","kana_address":"ﾀﾝﾉﾁｮｳﾁｭｳｼ","pref":"北海道","city":"北見市","address":"端野町忠志"},
{"zip_code":"0992112","kana_pref":"ﾎｯｶｲﾄﾞｳ","kana_city":"ｷﾀﾐｼ","kana_address":"ﾀﾝﾉﾁｮｳﾄﾖﾐ","pref":"北海道","city":"北見市","address":"端野町豊実"},
{"zip_code":"0992231","kana_pref":"ﾎｯｶｲﾄﾞｳ","kana_city":"ｷﾀﾐｼ","kana_address":"ﾀﾝﾉﾁｮｳﾋｳｼﾅｲ","pref":"北海道","city":"北見市","address":"端野町緋牛内"},
{"zip_code":"0992111","kana_pref":"ﾎｯｶｲﾄﾞｳ","kana_city":"ｷﾀﾐｼ","kana_address":"ﾀﾝﾉﾁｮｳﾎｸﾄ","pref":"北海道","city":"北見市","address":"端野町北登"},
{"zip_code":"0991584","kana_pref":"ﾎｯｶｲﾄﾞｳ","kana_city":"ｷﾀﾐｼ","kana_address":"ﾂﾈｶﾜ","pref":"北海道","city":"北見市","address":"常川"},
{"zip_code":"0990876","kana_pref":"ﾎｯｶｲﾄﾞｳ","kana_city":"ｷﾀﾐｼ","kana_address":"ﾄﾐｻﾄ","pref":"北海道","city":"北見市","address":"富里"},
{"zip_code":"0990872","kana_pref":"ﾎｯｶｲﾄﾞｳ","kana_city":"ｷﾀﾐｼ","kana_address":"ﾄﾖﾀ","pref":"北海道","city":"北見市","address":"豊田"},
{"zip_code":"0990873","kana_pref":"ﾎｯｶｲﾄﾞｳ","kana_city":"ｷﾀﾐｼ","kana_address":"ﾆｼｱｲﾉﾅｲ","pref":"北海道","city":"北見市","address":"西相内"},
{"zip_code":"0990878","kana_pref":"ﾎｯｶｲﾄﾞｳ","kana_city":"ｷﾀﾐｼ","kana_address":"ﾋｶﾞｼｱｲﾉﾅｲﾁｮｳ","pref":"北海道","city":"北見市","address":"東相内町"},
{"zip_code":"0991586","kana_pref":"ﾎｯｶｲﾄﾞｳ","kana_city":"ｷﾀﾐｼ","kana_address":"ﾋﾛｻﾄ","pref":"北海道","city":"北見市","address":"広郷"},
{"zip_code":"0991587","kana_pref":"ﾎｯｶｲﾄﾞｳ","kana_city":"ｷﾀﾐｼ","kana_address":"ﾎｳﾁﾞ","pref":"北海道","city":"北見市","address":"豊地"},
{"zip_code":"0990875","kana_pref":"ﾎｯｶｲﾄﾞｳ","kana_city":"ｷﾀﾐｼ","kana_address":"ﾎﾝｻﾞﾜ","pref":"北海道","city":"北見市","address":"本沢"},
{"zip_code":"0990879","kana_pref":"ﾎｯｶｲﾄﾞｳ","kana_city":"ｷﾀﾐｼ","kana_address":"ﾐｿﾉ","pref":"北海道","city":"北見市","address":"美園"},
{"zip_code":"0991581","kana_pref":"ﾎｯｶｲﾄﾞｳ","kana_city":"ｷﾀﾐｼ","kana_address":"ﾐﾅﾐｵｶ","pref":"北海道","city":"北見市","address":"南丘"},
{"zip_code":"0993115","kana_pref":"ﾎｯｶｲﾄﾞｳ","kana_city":"ｱﾊﾞｼﾘｼ","kana_address":"ｲﾅﾄﾐ","pref":"北海道","city":"網走市","address":"稲富"},
{"zip_code":"0993502","kana_pref":"ﾎｯｶｲﾄﾞｳ","kana_city":"ｱﾊﾞｼﾘｼ","kana_address":"ｳﾗｼﾍﾞﾂ","pref":"北海道","city":"網走市","address":"浦士別"},
{"zip_code":"0993501","kana_pref":"ﾎｯｶｲﾄﾞｳ","kana_city":"ｱﾊﾞｼﾘｼ","kana_address":"ｵﾝﾈﾅｲ","pref":"北海道","city":"網走市","address":"音根内"},
{"zip_code":"0993112","kana_pref":"ﾎｯｶｲﾄﾞｳ","kana_city":"ｱﾊﾞｼﾘｼ","kana_address":"ｷﾀﾊﾏ","pref":"北海道","city":"網走市","address":"北浜"},
{"zip_code":"0993504","kana_pref":"ﾎｯｶｲﾄﾞｳ","kana_city":"ｱﾊﾞｼﾘｼ","kana_address":"ｷﾖｳﾗ","pref":"北海道","city":"網走市","address":"清浦"},
{"zip_code":"0993503","kana_pref":"ﾎｯｶｲﾄﾞｳ","kana_city":"ｱﾊﾞｼﾘｼ","kana_address":"ｻｶｴ","pref":"北海道","city":"網走市","address":"栄"},
{"zip_code":"0993117","kana_pref":"ﾎｯｶｲﾄﾞｳ","kana_city":"ｱﾊﾞｼﾘｼ","kana_address":"ｼｮｳﾜ","pref":"北海道","city":"網走市","address":"昭和"},
{"zip_code":"0993118","kana_pref":"ﾎｯｶｲﾄﾞｳ","kana_city":"ｱﾊﾞｼﾘｼ","kana_address":"ﾄﾖｻﾄ","pref":"北海道","city":"網走市","address":"豊郷"},
{"zip_code":"0992424","kana_pref":"ﾎｯｶｲﾄﾞｳ","kana_city":"ｱﾊﾞｼﾘｼ","kana_address":"ﾅｶｿﾞﾉ","pref":"北海道","city":"網走市","address":"中園"},
{"zip_code":"0992423","kana_pref":"ﾎｯｶｲﾄﾞｳ","kana_city":"ｱﾊﾞｼﾘｼ","kana_address":"ﾋｶﾞｼｱﾊﾞｼﾘ","pref":"北海道","city":"網走市","address":"東網走"},
{"zip_code":"0993119","kana_pref":"ﾎｯｶｲﾄﾞｳ","kana_city":"ｱﾊﾞｼﾘｼ","kana_address":"ﾏｽｳﾗ","pref":"北海道","city":"網走市","address":"鱒浦"},
{"zip_code":"0993114","kana_pref":"ﾎｯｶｲﾄﾞｳ","kana_city":"ｱﾊﾞｼﾘｼ","kana_address":"ﾏﾙﾏﾝ","pref":"北海道","city":"網走市","address":"丸万"},
{"zip_code":"0993113","kana_pref":"ﾎｯｶｲﾄﾞｳ","kana_city":"ｱﾊﾞｼﾘｼ","kana_address":"ﾐﾄﾖ","pref":"北海道","city":"網走市","address":"実豊"},
{"zip_code":"0993111","kana_pref":"ﾎｯｶｲﾄﾞｳ","kana_city":"ｱﾊﾞｼﾘｼ","kana_address":"ﾓｺﾄ","pref":"北海道","city":"網走市","address":"藻琴"},
{"zip_code":"0992422","kana_pref":"ﾎｯｶｲﾄﾞｳ","kana_city":"ｱﾊﾞｼﾘｼ","kana_address":"ﾔｻｶ","pref":"北海道","city":"網走市","address":"八坂"},
{"zip_code":"0993116","kana_pref":"ﾎｯｶｲﾄﾞｳ","kana_city":"ｱﾊﾞｼﾘｼ","kana_address":"ﾔﾏｻﾄ","pref":"北海道","city":"網走市","address":"山里"},
{"zip_code":"0992421","kana_pref":"ﾎｯｶｲﾄﾞｳ","kana_city":"ｱﾊﾞｼﾘｼ","kana_address":"ﾖﾋﾞﾄ","pref":"北海道","city":"網走市","address":"呼人"},
{"zip_code":"0996131","kana_pref":"ﾎｯｶｲﾄﾞｳ","kana_city":"ﾓﾝﾍﾞﾂｼ","kana_address":"ｲｯﾎﾟﾝﾏﾂ","pref":"北海道","city":"紋別市","address":"一本松"},
{"zip_code":"0995354","kana_pref":"ﾎｯｶｲﾄﾞｳ","kana_city":"ﾓﾝﾍﾞﾂｼ","kana_address":"ｶﾐｼｮｺﾂﾁｮｳ","pref":"北海道","city":"紋別市","address":"上渚滑町"},
{"zip_code":"0995364","kana_pref":"ﾎｯｶｲﾄﾞｳ","kana_city":"ﾓﾝﾍﾞﾂｼ","kana_address":"ｶﾐｼｮｺﾂﾁｮｳｳｴｺﾀﾝ","pref":"北海道","city":"紋別市","address":"上渚滑町上古丹"},
{"zip_code":"0995362","kana_pref":"ﾎｯｶｲﾄﾞｳ","kana_city":"ﾓﾝﾍﾞﾂｼ","kana_address":"ｶﾐｼｮｺﾂﾁｮｳｵｸﾄｳ","pref":"北海道","city":"紋別市","address":"上渚滑町奥東"},
{"zip_code":"0995355","kana_pref":"ﾎｯｶｲﾄﾞｳ","kana_city":"ﾓﾝﾍﾞﾂｼ","kana_address":"ｶﾐｼｮｺﾂﾁｮｳｺｳｾｲ","pref":"北海道","city":"紋別市","address":"上渚滑町更生"},
{"zip_code":"0995351","kana_pref":"ﾎｯｶｲﾄﾞｳ","kana_city":"ﾓﾝﾍﾞﾂｼ","kana_address":"ｶﾐｼｮｺﾂﾁｮｳｼﾓｼｮｺﾂ","pref":"北海道","city":"紋別市","address":"上渚滑町下渚滑"},
{"zip_code":"0995363","kana_pref":"ﾎｯｶｲﾄﾞｳ","kana_city":"ﾓﾝﾍﾞﾂｼ","kana_address":"ｶﾐｼｮｺﾂﾁｮｳｼﾓﾀﾂｳｼ","pref":"北海道","city":"紋別市","address":"上渚滑町下立牛"},
{"zip_code":"0995353","kana_pref":"ﾎｯｶｲﾄﾞｳ","kana_city":"ﾓﾝﾍﾞﾂｼ","kana_address":"ｶﾐｼｮｺﾂﾁｮｳｼﾞｮｳﾄｳ","pref":"北海道","city":"紋別市","address":"上渚滑町上東"},
{"zip_code":"0995352","kana_pref":"ﾎｯｶｲﾄﾞｳ","kana_city":"ﾓﾝﾍﾞﾂｼ","kana_address":"ｶﾐｼｮｺﾂﾁｮｳﾅｶｼｮｺﾂ","pref":"北海道","city":"紋別市","address":"上渚滑町中渚滑"},
{"zip_code":"0995365","kana_pref":"ﾎｯｶｲﾄﾞｳ","kana_city":"ﾓﾝﾍﾞﾂｼ","kana_address":"ｶﾐｼｮｺﾂﾁｮｳﾅｶﾀﾂｳｼ","pref":"北海道","city":"紋別市","address":"上渚滑町中立牛"},
{"zip_code":"0995361","kana_pref":"ﾎｯｶｲﾄﾞｳ","kana_city":"ﾓﾝﾍﾞﾂｼ","kana_address":"ｶﾐｼｮｺﾂﾁｮｳﾜｸﾝﾍﾞ","pref":"北海道","city":"紋別市","address":"上渚滑町和訓辺"},
{"zip_code":"0996133","kana_pref":"ﾎｯｶｲﾄﾞｳ","kana_city":"ﾓﾝﾍﾞﾂｼ","kana_address":"ｺｳﾄﾞｳ","pref":"北海道","city":"紋別市","address":"弘道"},
{"zip_code":"0996132","kana_pref":"ﾎｯｶｲﾄﾞｳ","kana_city":"ﾓﾝﾍﾞﾂｼ","kana_address":"ｺﾑｶｲ","pref":"北海道","city":"紋別市","address":"小向"},
{"zip_code":"0996242","kana_pref":"ﾎｯｶｲﾄﾞｳ","kana_city":"ﾓﾝﾍﾞﾂｼ","kana_address":"ｼﾌﾞﾝ","pref":"北海道","city":"紋別市","address":"志文"},
{"zip_code":"0995171","kana_pref":"ﾎｯｶｲﾄﾞｳ","kana_city":"ﾓﾝﾍﾞﾂｼ","kana_address":"ｼｮｺﾂﾁｮｳ","pref":"北海道","city":"紋別市","address":"渚滑町"},
{"zip_code":"0995174","kana_pref":"ﾎｯｶｲﾄﾞｳ","kana_city":"ﾓﾝﾍﾞﾂｼ","kana_address":"ｼｮｺﾂﾁｮｳｳﾂﾂ","pref":"北海道","city":"紋別市","address":"渚滑町宇津々"},
{"zip_code":"0995175","kana_pref":"ﾎｯｶｲﾄﾞｳ","kana_city":"ﾓﾝﾍﾞﾂｼ","kana_address":"ｼｮｺﾂﾁｮｳｶﾜﾑｶｲ","pref":"北海道","city":"紋別市","address":"渚滑町川向"},
{"zip_code":"0995172","kana_pref":"ﾎｯｶｲﾄﾞｳ","kana_city":"ﾓﾝﾍﾞﾂｼ","kana_address":"ｼｮｺﾂﾁｮｳﾓﾄｼﾝ","pref":"北海道","city":"紋別市","address":"渚滑町元新"},
{"zip_code":"0995173","kana_pref":"ﾎｯｶｲﾄﾞｳ","kana_city":"ﾓﾝﾍﾞﾂｼ","kana_address":"ｼｮｺﾂﾁｮｳﾓﾄﾆｼ","pref":"北海道","city":"紋別市","address":"渚滑町元西"},
{"zip_code":"0996241","kana_pref":"ﾎｯｶｲﾄﾞｳ","kana_city":"ﾓﾝﾍﾞﾂｼ","kana_address":"ﾇﾏﾉｳｴ","pref":"北海道","city":"紋別市","address":"沼の上"},
{"zip_code":"0996131","kana_pref":"ﾎｯｶｲﾄﾞｳ","kana_city":"ﾓﾝﾍﾞﾂｼ","kana_address":"ﾔｿｼ","pref":"北海道","city":"紋別市","address":"八十士"},
{"zip_code":"0994100","kana_pref":"ﾎｯｶｲﾄﾞｳ","kana_city":"ｼｬﾘｸﾞﾝｼｬﾘﾁｮｳ","kana_address":"","pref":"北海道","city":"斜里郡斜里町","address":""},
{"zip_code":"0994117","kana_pref":"ﾎｯｶｲﾄﾞｳ","kana_city":"ｼｬﾘｸﾞﾝｼｬﾘﾁｮｳ","kana_address":"ｱｵﾊﾞﾁｮｳ","pref":"北海道","city":"斜里郡斜里町","address":"青葉町"},
{"zip_code":"0994114","kana_pref":"ﾎｯｶｲﾄﾞｳ","kana_city":"ｼｬﾘｸﾞﾝｼｬﾘﾁｮｳ","kana_address":"ｱｻﾋﾏﾁ","pref":"北海道","city":"斜里郡斜里町","address":"朝日町"},
{"zip_code":"0994127","kana_pref":"ﾎｯｶｲﾄﾞｳ","kana_city":"ｼｬﾘｸﾞﾝｼｬﾘﾁｮｳ","kana_address":"ｲｸｼﾅﾐﾅﾐ","pref":"北海道","city":"斜里郡斜里町","address":"以久科南"},
{"zip_code":"0994126","kana_pref":"ﾎｯｶｲﾄﾞｳ","kana_city":"ｼｬﾘｸﾞﾝｼｬﾘﾁｮｳ","kana_address":"ｲｸｼﾅｷﾀ","pref":"北海道","city":"斜里郡斜里町","address":"以久科北"},
{"zip_code":"0994356","kana_pref":"ﾎｯｶｲﾄﾞｳ","kana_city":"ｼｬﾘｸﾞﾝｼｬﾘﾁｮｳ","kana_address":"ｲﾜｵﾍﾞﾂ","pref":"北海道","city":"斜里郡斜里町","address":"岩尾別"},
{"zip_code":"0994351","kana_pref":"ﾎｯｶｲﾄﾞｳ","kana_city":"ｼｬﾘｸﾞﾝｼｬﾘﾁｮｳ","kana_address":"ｳﾄﾛｶｶﾞﾜ","pref":"北海道","city":"斜里郡斜里町","address":"ウトロ香川"},
{"zip_code":"0994352","kana_pref":"ﾎｯｶｲﾄﾞｳ","kana_city":"ｼｬﾘｸﾞﾝｼｬﾘﾁｮｳ","kana_address":"ｳﾄﾛｺｳｹﾞﾝ","pref":"北海道","city":"斜里郡斜里町","address":"ウトロ高原"},
{"zip_code":"0994353","kana_pref":"ﾎｯｶｲﾄﾞｳ","kana_city":"ｼｬﾘｸﾞﾝｼｬﾘﾁｮｳ","kana_address":"ｳﾄﾛﾅｶｼﾞﾏ","pref":"北海道","city":"斜里郡斜里町","address":"ウトロ中島"},
{"zip_code":"0994355","kana_pref":"ﾎｯｶｲﾄﾞｳ","kana_city":"ｼｬﾘｸﾞﾝｼｬﾘﾁｮｳ","kana_address":"ｳﾄﾛﾋｶﾞｼ","pref":"北海道","city":"斜里郡斜里町","address":"ウトロ東"},
{"zip_code":"0994354","kana_pref":"ﾎｯｶｲﾄﾞｳ","kana_city":"ｼｬﾘｸﾞﾝｼｬﾘﾁｮｳ","kana_address":"ｳﾄﾛﾆｼ","pref":"北海道","city":"斜里郡斜里町","address":"ウトロ西"},
{"zip_code":"0994143","kana_pref":"ﾎｯｶｲﾄﾞｳ","kana_city":"ｼｬﾘｸﾞﾝｼｬﾘﾁｮｳ","kana_address":"ｶﾜｶﾐ","pref":"北海道","city":"斜里郡斜里町","address":"川上"},
{"zip_code":"0994115","kana_pref":"ﾎｯｶｲﾄﾞｳ","kana_city":"ｼｬﾘｸﾞﾝｼｬﾘﾁｮｳ","kana_address":"ｺｳﾖｳﾁｮｳ","pref":"北海道","city":"斜里郡斜里町","address":"光陽町"},
{"zip_code":"0994131","kana_pref":"ﾎｯｶｲﾄﾞｳ","kana_city":"ｼｬﾘｸﾞﾝｼｬﾘﾁｮｳ","kana_address":"ｺｼｶﾜ","pref":"北海道","city":"斜里郡斜里町","address":"越川"},
{"zip_code":"0994124","kana_pref":"ﾎｯｶｲﾄﾞｳ","kana_city":"ｼｬﾘｸﾞﾝｼｬﾘﾁｮｳ","kana_address":"ｼｭｴﾝ","pref":"北海道","city":"斜里郡斜里町","address":"朱円"},
{"zip_code":"0994123","kana_pref":"ﾎｯｶｲﾄﾞｳ","kana_city":"ｼｬﾘｸﾞﾝｼｬﾘﾁｮｳ","kana_address":"ｼｭｴﾝﾋｶﾞｼ","pref":"北海道","city":"斜里郡斜里町","address":"朱円東"},
{"zip_code":"0994125","kana_pref":"ﾎｯｶｲﾄﾞｳ","kana_city":"ｼｬﾘｸﾞﾝｼｬﾘﾁｮｳ","kana_address":"ｼｭｴﾝﾆｼ","pref":"北海道","city":"斜里郡斜里町","address":"朱円西"},
{"zip_code":"0994118","kana_pref":"ﾎｯｶｲﾄﾞｳ","kana_city":"ｼｬﾘｸﾞﾝｼｬﾘﾁｮｳ","kana_address":"ｼﾝｺｳﾁｮｳ","pref":"北海道","city":"斜里郡斜里町","address":"新光町"},
{"zip_code":"0994144","kana_pref":"ﾎｯｶｲﾄﾞｳ","kana_city":"ｼｬﾘｸﾞﾝｼｬﾘﾁｮｳ","kana_address":"ﾀｲｴｲ","pref":"北海道","city":"斜里郡斜里町","address":"大栄"},
{"zip_code":"0994141","kana_pref":"ﾎｯｶｲﾄﾞｳ","kana_city":"ｼｬﾘｸﾞﾝｼｬﾘﾁｮｳ","kana_address":"ﾄﾖｸﾗ","pref":"北海道","city":"斜里郡斜里町","address":"豊倉"},
{"zip_code":"0994134","kana_pref":"ﾎｯｶｲﾄﾞｳ","kana_city":"ｼｬﾘｸﾞﾝｼｬﾘﾁｮｳ","kana_address":"ﾄﾖｻﾄ","pref":"北海道","city":"斜里郡斜里町","address":"豊里"},
{"zip_code":"0994142","kana_pref":"ﾎｯｶｲﾄﾞｳ","kana_city":"ｼｬﾘｸﾞﾝｼｬﾘﾁｮｳ","kana_address":"ﾅｶｼｬﾘ","pref":"北海道","city":"斜里郡斜里町","address":"中斜里"},
{"zip_code":"0994147","kana_pref":"ﾎｯｶｲﾄﾞｳ","kana_city":"ｼｬﾘｸﾞﾝｼｬﾘﾁｮｳ","kana_address":"ﾆｼﾏﾁ","pref":"北海道","city":"斜里郡斜里町","address":"西町"},
{"zip_code":"0994121","kana_pref":"ﾎｯｶｲﾄﾞｳ","kana_city":"ｼｬﾘｸﾞﾝｼｬﾘﾁｮｳ","kana_address":"ﾋﾉﾃﾞ","pref":"北海道","city":"斜里郡斜里町","address":"日の出"},
{"zip_code":"0994132","kana_pref":"ﾎｯｶｲﾄﾞｳ","kana_city":"ｼｬﾘｸﾞﾝｼｬﾘﾁｮｳ","kana_address":"ﾌｼﾞ","pref":"北海道","city":"斜里郡斜里町","address":"富士"},
{"zip_code":"0994116","kana_pref":"ﾎｯｶｲﾄﾞｳ","kana_city":"ｼｬﾘｸﾞﾝｼｬﾘﾁｮｳ","kana_address":"ﾌﾞﾝｺｳﾁｮｳ","pref":"北海道","city":"斜里郡斜里町","address":"文光町"},
{"zip_code":"0994113","kana_pref":"ﾎｯｶｲﾄﾞｳ","kana_city":"ｼｬﾘｸﾞﾝｼｬﾘﾁｮｳ","kana_address":"ﾎﾝﾏﾁ","pref":"北海道","city":"斜里郡斜里町","address":"本町"},
{"zip_code":"0994111","kana_pref":"ﾎｯｶｲﾄﾞｳ","kana_city":"ｼｬﾘｸﾞﾝｼｬﾘﾁｮｳ","kana_address":"ﾏｴﾊﾏﾏﾁ","pref":"北海道","city":"斜里郡斜里町","address":"前浜町"},
{"zip_code":"0994357","kana_pref":"ﾎｯｶｲﾄﾞｳ","kana_city":"ｼｬﾘｸﾞﾝｼｬﾘﾁｮｳ","kana_address":"ﾏｺｲ","pref":"北海道","city":"斜里郡斜里町","address":"真鯉"},
{"zip_code":"0994145","kana_pref":"ﾎｯｶｲﾄﾞｳ","kana_city":"ｼｬﾘｸﾞﾝｼｬﾘﾁｮｳ","kana_address":"ﾐｻｷ","pref":"北海道","city":"斜里郡斜里町","address":"美咲"},
{"zip_code":"0994133","kana_pref":"ﾎｯｶｲﾄﾞｳ","kana_city":"ｼｬﾘｸﾞﾝｼｬﾘﾁｮｳ","kana_address":"ﾐﾂｲ","pref":"北海道","city":"斜里郡斜里町","address":"三井"},
{"zip_code":"0994146","kana_pref":"ﾎｯｶｲﾄﾞｳ","kana_city":"ｼｬﾘｸﾞﾝｼｬﾘﾁｮｳ","kana_address":"ﾐﾅﾄﾆｼﾏﾁ","pref":"北海道","city":"斜里郡斜里町","address":"港西町"},
{"zip_code":"0994112","kana_pref":"ﾎｯｶｲﾄﾞｳ","kana_city":"ｼｬﾘｸﾞﾝｼｬﾘﾁｮｳ","kana_address":"ﾐﾅﾄﾏﾁ","pref":"北海道","city":"斜里郡斜里町","address":"港町"},
{"zip_code":"0994122","kana_pref":"ﾎｯｶｲﾄﾞｳ","kana_city":"ｼｬﾘｸﾞﾝｼｬﾘﾁｮｳ","kana_address":"ﾐﾈﾊﾏ","pref":"北海道","city":"斜里郡斜里町","address":"峰浜"},
{"zip_code":"0994135","kana_pref":"ﾎｯｶｲﾄﾞｳ","kana_city":"ｼｬﾘｸﾞﾝｼｬﾘﾁｮｳ","kana_address":"ﾗｲｳﾝ","pref":"北海道","city":"斜里郡斜里町","address":"来運"},
{"zip_code":"0994400","kana_pref":"ﾎｯｶｲﾄﾞｳ","kana_city":"ｼｬﾘｸﾞﾝｷﾖｻﾄﾁｮｳ","kana_address":"","pref":"北海道","city":"斜里郡清里町","address":""},
{"zip_code":"0994524","kana_pref":"ﾎｯｶｲﾄﾞｳ","kana_city":"ｼｬﾘｸﾞﾝｷﾖｻﾄﾁｮｳ","kana_address":"ｱｵﾊﾞ","pref":"北海道","city":"斜里郡清里町","address":"青葉"},
{"zip_code":"0994401","kana_pref":"ﾎｯｶｲﾄﾞｳ","kana_city":"ｼｬﾘｸﾞﾝｷﾖｻﾄﾁｮｳ","kana_address":"ｶﾐｼｬﾘ","pref":"北海道","city":"斜里郡清里町","address":"上斜里"},
{"zip_code":"0994522","kana_pref":"ﾎｯｶｲﾄﾞｳ","kana_city":"ｼｬﾘｸﾞﾝｷﾖｻﾄﾁｮｳ","kana_address":"ｶﾓｲ","pref":"北海道","city":"斜里郡清里町","address":"神威"},
{"zip_code":"0994523","kana_pref":"ﾎｯｶｲﾄﾞｳ","kana_city":"ｼｬﾘｸﾞﾝｷﾖｻﾄﾁｮｳ","kana_address":"ｶﾜﾑｶｲ","pref":"北海道","city":"斜里郡清里町","address":"川向"},
{"zip_code":"0994526","kana_pref":"ﾎｯｶｲﾄﾞｳ","kana_city":"ｼｬﾘｸﾞﾝｷﾖｻﾄﾁｮｳ","kana_address":"ｷﾖｲｽﾞﾐ","pref":"北海道","city":"斜里郡清里町","address":"清泉"},
{"zip_code":"0994404","kana_pref":"ﾎｯｶｲﾄﾞｳ","kana_city":"ｼｬﾘｸﾞﾝｷﾖｻﾄﾁｮｳ","kana_address":"ｺｳﾅﾝ","pref":"北海道","city":"斜里郡清里町","address":"江南"},
{"zip_code":"0994403","kana_pref":"ﾎｯｶｲﾄﾞｳ","kana_city":"ｼｬﾘｸﾞﾝｷﾖｻﾄﾁｮｳ","kana_address":"ｺｳﾖｳ","pref":"北海道","city":"斜里郡清里町","address":"向陽"},
{"zip_code":"0994521","kana_pref":"ﾎｯｶｲﾄﾞｳ","kana_city":"ｼｬﾘｸﾞﾝｷﾖｻﾄﾁｮｳ","kana_address":"ｻｯﾂﾙﾏﾁ","pref":"北海道","city":"斜里郡清里町","address":"札弦町"},
{"zip_code":"0994402","kana_pref":"ﾎｯｶｲﾄﾞｳ","kana_city":"ｼｬﾘｸﾞﾝｷﾖｻﾄﾁｮｳ","kana_address":"ｼﾓｴﾄﾝﾋﾞ","pref":"北海道","city":"斜里郡清里町","address":"下江鳶"},
{"zip_code":"0994407","kana_pref":"ﾎｯｶｲﾄﾞｳ","kana_city":"ｼｬﾘｸﾞﾝｷﾖｻﾄﾁｮｳ","kana_address":"ｼﾝﾏﾁ","pref":"北海道","city":"斜里郡清里町","address":"新町"},
{"zip_code":"0994405","kana_pref":"ﾎｯｶｲﾄﾞｳ","kana_city":"ｼｬﾘｸﾞﾝｷﾖｻﾄﾁｮｳ","kana_address":"ﾊｺﾞﾛﾓﾏﾁ","pref":"北海道","city":"斜里郡清里町","address":"羽衣町"},
{"zip_code":"0994406","kana_pref":"ﾎｯｶｲﾄﾞｳ","kana_city":"ｼｬﾘｸﾞﾝｷﾖｻﾄﾁｮｳ","kana_address":"ﾐｽﾞﾓﾄﾏﾁ","pref":"北海道","city":"斜里郡清里町","address":"水元町"},
{"zip_code":"0994525","kana_pref":"ﾎｯｶｲﾄﾞｳ","kana_city":"ｼｬﾘｸﾞﾝｷﾖｻﾄﾁｮｳ","kana_address":"ﾐﾄﾞﾘﾏﾁ","pref":"北海道","city":"斜里郡清里町","address":"緑町"},
{"zip_code":"0993600","kana_pref":"ﾎｯｶｲﾄﾞｳ","kana_city":"ｼｬﾘｸﾞﾝｺｼﾐｽﾞﾁｮｳ","kana_address":"","pref":"北海道","city":"斜里郡小清水町","address":""},
{"zip_code":"0993616","kana_pref":"ﾎｯｶｲﾄﾞｳ","kana_city":"ｼｬﾘｸﾞﾝｺｼﾐｽﾞﾁｮｳ","kana_address":"ｱｻﾋ","pref":"北海道","city":"斜里郡小清水町","address":"旭"},
{"zip_code":"0993603","kana_pref":"ﾎｯｶｲﾄﾞｳ","kana_city":"ｼｬﾘｸﾞﾝｺｼﾐｽﾞﾁｮｳ","kana_address":"ｲｽﾞﾐ","pref":"北海道","city":"斜里郡小清水町","address":"泉"},
{"zip_code":"0993613","kana_pref":"ﾎｯｶｲﾄﾞｳ","kana_city":"ｼｬﾘｸﾞﾝｺｼﾐｽﾞﾁｮｳ","kana_address":"ｶﾐｳﾗ","pref":"北海道","city":"斜里郡小清水町","address":"神浦"},
{"zip_code":"0993611","kana_pref":"ﾎｯｶｲﾄﾞｳ","kana_city":"ｼｬﾘｸﾞﾝｺｼﾐｽﾞﾁｮｳ","kana_address":"ｶﾐﾄｸ","pref":"北海道","city":"斜里郡小清水町","address":"上徳"},
{"zip_code":"0993601","kana_pref":"ﾎｯｶｲﾄﾞｳ","kana_city":"ｼｬﾘｸﾞﾝｺｼﾐｽﾞﾁｮｳ","kana_address":"ｶﾔﾉ","pref":"北海道","city":"斜里郡小清水町","address":"萱野"},
{"zip_code":"0993612","kana_pref":"ﾎｯｶｲﾄﾞｳ","kana_city":"ｼｬﾘｸﾞﾝｺｼﾐｽﾞﾁｮｳ","kana_address":"ｷｮｳﾜ","pref":"北海道","city":"斜里郡小清水町","address":"共和"},
{"zip_code":"0993622","kana_pref":"ﾎｯｶｲﾄﾞｳ","kana_city":"ｼｬﾘｸﾞﾝｺｼﾐｽﾞﾁｮｳ","kana_address":"ｺｼﾐｽﾞ","pref":"北海道","city":"斜里郡小清水町","address":"小清水"},
{"zip_code":"0993621","kana_pref":"ﾎｯｶｲﾄﾞｳ","kana_city":"ｼｬﾘｸﾞﾝｺｼﾐｽﾞﾁｮｳ","kana_address":"ｺｼﾐｽﾞ","pref":"北海道","city":"斜里郡小清水町","address":"小清水"},
{"zip_code":"0993623","kana_pref":"ﾎｯｶｲﾄﾞｳ","kana_city":"ｼｬﾘｸﾞﾝｺｼﾐｽﾞﾁｮｳ","kana_address":"ｺｼﾐｽﾞ","pref":"北海道","city":"斜里郡小清水町","address":"小清水"},
{"zip_code":"0993624","kana_pref":"ﾎｯｶｲﾄﾞｳ","kana_city":"ｼｬﾘｸﾞﾝｺｼﾐｽﾞﾁｮｳ","kana_address":"ｺｼﾐｽﾞ","pref":"北海道","city":"斜里郡小清水町","address":"小清水"},
{"zip_code":"0993625","kana_pref":"ﾎｯｶｲﾄﾞｳ","kana_city":"ｼｬﾘｸﾞﾝｺｼﾐｽﾞﾁｮｳ","kana_address":"ｺｼﾐｽﾞ","pref":"北海道","city":"斜里郡小清水町","address":"小清水"},
{"zip_code":"0993626","kana_pref":"ﾎｯｶｲﾄﾞｳ","kana_city":"ｼｬﾘｸﾞﾝｺｼﾐｽﾞﾁｮｳ","kana_address":"ｺｼﾐｽﾞ","pref":"北海道","city":"斜里郡小清水町","address":"小清水"},
{"zip_code":"0993627","kana_pref":"ﾎｯｶｲﾄﾞｳ","kana_city":"ｼｬﾘｸﾞﾝｺｼﾐｽﾞﾁｮｳ","kana_address":"ｺｼﾐｽﾞ","pref":"北海道","city":"斜里郡小清水町","address":"小清水"},
{"zip_code":"0993628","kana_pref":"ﾎｯｶｲﾄﾞｳ","kana_city":"ｼｬﾘｸﾞﾝｺｼﾐｽﾞﾁｮｳ","kana_address":"ｺｼﾐｽﾞ","pref":"北海道","city":"斜里郡小清水町","address":"小清水"},
{"zip_code":"0993631","kana_pref":"ﾎｯｶｲﾄﾞｳ","kana_city":"ｼｬﾘｸﾞﾝｺｼﾐｽﾞﾁｮｳ","kana_address":"ｺｼﾐｽﾞ","pref":"北海道","city":"斜里郡小清水町","address":"小清水"},
{"zip_code":"0993633","kana_pref":"ﾎｯｶｲﾄﾞｳ","kana_city":"ｼｬﾘｸﾞﾝｺｼﾐｽﾞﾁｮｳ","kana_address":"ｺｼﾐｽﾞ","pref":"北海道","city":"斜里郡小清水町","address":"小清水"},
{"zip_code":"0993632","kana_pref":"ﾎｯｶｲﾄﾞｳ","kana_city":"ｼｬﾘｸﾞﾝｺｼﾐｽﾞﾁｮｳ","kana_address":"ｺｼﾐｽﾞ","pref":"北海道","city":"斜里郡小清水町","address":"小清水"},
{"zip_code":"0993635","kana_pref":"ﾎｯｶｲﾄﾞｳ","kana_city":"ｼｬﾘｸﾞﾝｺｼﾐｽﾞﾁｮｳ","kana_address":"ｺｼﾐｽﾞ","pref":"北海道","city":"斜里郡小清水町","address":"小清水"},
{"zip_code":"0993634","kana_pref":"ﾎｯｶｲﾄﾞｳ","kana_city":"ｼｬﾘｸﾞﾝｺｼﾐｽﾞﾁｮｳ","kana_address":"ｺｼﾐｽﾞ","pref":"北海道","city":"斜里郡小清水町","address":"小清水"},
{"zip_code":"0993636","kana_pref":"ﾎｯｶｲﾄﾞｳ","kana_city":"ｼｬﾘｸﾞﾝｺｼﾐｽﾞﾁｮｳ","kana_address":"ｺｼﾐｽﾞ","pref":"北海道","city":"斜里郡小清水町","address":"小清水"},
{"zip_code":"0993637","kana_pref":"ﾎｯｶｲﾄﾞｳ","kana_city":"ｼｬﾘｸﾞﾝｺｼﾐｽﾞﾁｮｳ","kana_address":"ｺｼﾐｽﾞ","pref":"北海道","city":"斜里郡小清水町","address":"小清水"},
{"zip_code":"0993451","kana_pref":"ﾎｯｶｲﾄﾞｳ","kana_city":"ｼｬﾘｸﾞﾝｺｼﾐｽﾞﾁｮｳ","kana_address":"ｿｳｴｲ","pref":"北海道","city":"斜里郡小清水町","address":"倉栄"},
{"zip_code":"0993615","kana_pref":"ﾎｯｶｲﾄﾞｳ","kana_city":"ｼｬﾘｸﾞﾝｺｼﾐｽﾞﾁｮｳ","kana_address":"ﾅｶｻﾄ","pref":"北海道","city":"斜里郡小清水町","address":"中里"},
{"zip_code":"0993452","kana_pref":"ﾎｯｶｲﾄﾞｳ","kana_city":"ｼｬﾘｸﾞﾝｺｼﾐｽﾞﾁｮｳ","kana_address":"ﾊﾏｺｼﾐｽﾞ","pref":"北海道","city":"斜里郡小清水町","address":"浜小清水"},
{"zip_code":"0993602","kana_pref":"ﾎｯｶｲﾄﾞｳ","kana_city":"ｼｬﾘｸﾞﾝｺｼﾐｽﾞﾁｮｳ","kana_address":"ﾋｶﾞｼﾉ","pref":"北海道","city":"斜里郡小清水町","address":"東野"},
{"zip_code":"0993453","kana_pref":"ﾎｯｶｲﾄﾞｳ","kana_city":"ｼｬﾘｸﾞﾝｺｼﾐｽﾞﾁｮｳ","kana_address":"ﾎｸﾄ","pref":"北海道","city":"斜里郡小清水町","address":"北斗"},
{"zip_code":"0993604","kana_pref":"ﾎｯｶｲﾄﾞｳ","kana_city":"ｼｬﾘｸﾞﾝｺｼﾐｽﾞﾁｮｳ","kana_address":"ﾐｽﾞｶﾐ","pref":"北海道","city":"斜里郡小清水町","address":"水上"},
{"zip_code":"0993614","kana_pref":"ﾎｯｶｲﾄﾞｳ","kana_city":"ｼｬﾘｸﾞﾝｺｼﾐｽﾞﾁｮｳ","kana_address":"ﾐﾜ","pref":"北海道","city":"斜里郡小清水町","address":"美和"},
{"zip_code":"0993605","kana_pref":"ﾎｯｶｲﾄﾞｳ","kana_city":"ｼｬﾘｸﾞﾝｺｼﾐｽﾞﾁｮｳ","kana_address":"ﾓｺﾄﾔﾏ","pref":"北海道","city":"斜里郡小清水町","address":"もこと山"},
{"zip_code":"0993454","kana_pref":"ﾎｯｶｲﾄﾞｳ","kana_city":"ｼｬﾘｸﾞﾝｺｼﾐｽﾞﾁｮｳ","kana_address":"ﾔﾝﾍﾞﾂ","pref":"北海道","city":"斜里郡小清水町","address":"止別"},
{"zip_code":"0991400","kana_pref":"ﾎｯｶｲﾄﾞｳ","kana_city":"ﾄｺﾛｸﾞﾝｸﾝﾈｯﾌﾟﾁｮｳ","kana_address":"","pref":"北海道","city":"常呂郡訓子府町","address":""},
{"zip_code":"0991432","kana_pref":"ﾎｯｶｲﾄﾞｳ","kana_city":"ﾄｺﾛｸﾞﾝｸﾝﾈｯﾌﾟﾁｮｳ","kana_address":"ｱｻﾋﾏﾁ","pref":"北海道","city":"常呂郡訓子府町","address":"旭町"},
{"zip_code":"0991411","kana_pref":"ﾎｯｶｲﾄﾞｳ","kana_city":"ﾄｺﾛｸﾞﾝｸﾝﾈｯﾌﾟﾁｮｳ","kana_address":"ｵｵﾀﾆ","pref":"北海道","city":"常呂郡訓子府町","address":"大谷"},
{"zip_code":"0991436","kana_pref":"ﾎｯｶｲﾄﾞｳ","kana_city":"ﾄｺﾛｸﾞﾝｸﾝﾈｯﾌﾟﾁｮｳ","kana_address":"ｵｵﾏﾁ","pref":"北海道","city":"常呂郡訓子府町","address":"大町"},
{"zip_code":"0991414","kana_pref":"ﾎｯｶｲﾄﾞｳ","kana_city":"ﾄｺﾛｸﾞﾝｸﾝﾈｯﾌﾟﾁｮｳ","kana_address":"ｶｲｾｲ","pref":"北海道","city":"常呂郡訓子府町","address":"開盛"},
{"zip_code":"0991404","kana_pref":"ﾎｯｶｲﾄﾞｳ","kana_city":"ﾄｺﾛｸﾞﾝｸﾝﾈｯﾌﾟﾁｮｳ","kana_address":"ｶｼﾜｵｶ","pref":"北海道","city":"常呂郡訓子府町","address":"柏丘"},
{"zip_code":"0991413","kana_pref":"ﾎｯｶｲﾄﾞｳ","kana_city":"ﾄｺﾛｸﾞﾝｸﾝﾈｯﾌﾟﾁｮｳ","kana_address":"ｷｮｳｾｲ","pref":"北海道","city":"常呂郡訓子府町","address":"協成"},
{"zip_code":"0991426","kana_pref":"ﾎｯｶｲﾄﾞｳ","kana_city":"ﾄｺﾛｸﾞﾝｸﾝﾈｯﾌﾟﾁｮｳ","kana_address":"ｷﾖｽﾞﾐ","pref":"北海道","city":"常呂郡訓子府町","address":"清住"},
{"zip_code":"0991421","kana_pref":"ﾎｯｶｲﾄﾞｳ","kana_city":"ﾄｺﾛｸﾞﾝｸﾝﾈｯﾌﾟﾁｮｳ","kana_address":"ｺﾏｻﾄ","pref":"北海道","city":"常呂郡訓子府町","address":"駒里"},
{"zip_code":"0991434","kana_pref":"ﾎｯｶｲﾄﾞｳ","kana_city":"ﾄｺﾛｸﾞﾝｸﾝﾈｯﾌﾟﾁｮｳ","kana_address":"ｻｶｴﾏﾁ","pref":"北海道","city":"常呂郡訓子府町","address":"栄町"},
{"zip_code":"0991417","kana_pref":"ﾎｯｶｲﾄﾞｳ","kana_city":"ﾄｺﾛｸﾞﾝｸﾝﾈｯﾌﾟﾁｮｳ","kana_address":"ｽｴﾋﾛﾏﾁ","pref":"北海道","city":"常呂郡訓子府町","address":"末広町"},
{"zip_code":"0991405","kana_pref":"ﾎｯｶｲﾄﾞｳ","kana_city":"ﾄｺﾛｸﾞﾝｸﾝﾈｯﾌﾟﾁｮｳ","kana_address":"ﾀｶｿﾞﾉ","pref":"北海道","city":"常呂郡訓子府町","address":"高園"},
{"zip_code":"0991416","kana_pref":"ﾎｯｶｲﾄﾞｳ","kana_city":"ﾄｺﾛｸﾞﾝｸﾝﾈｯﾌﾟﾁｮｳ","kana_address":"ﾄｷﾜ","pref":"北海道","city":"常呂郡訓子府町","address":"常盤"},
{"zip_code":"0991427","kana_pref":"ﾎｯｶｲﾄﾞｳ","kana_city":"ﾄｺﾛｸﾞﾝｸﾝﾈｯﾌﾟﾁｮｳ","kana_address":"ﾄﾖｻｶ","pref":"北海道","city":"常呂郡訓子府町","address":"豊坂"},
{"zip_code":"0991433","kana_pref":"ﾎｯｶｲﾄﾞｳ","kana_city":"ﾄｺﾛｸﾞﾝｸﾝﾈｯﾌﾟﾁｮｳ","kana_address":"ﾅｶﾏﾁ","pref":"北海道","city":"常呂郡訓子府町","address":"仲町"},
{"zip_code":"0991423","kana_pref":"ﾎｯｶｲﾄﾞｳ","kana_city":"ﾄｺﾛｸﾞﾝｸﾝﾈｯﾌﾟﾁｮｳ","kana_address":"ﾆｼｻｲﾜｲﾏﾁ","pref":"北海道","city":"常呂郡訓子府町","address":"西幸町"},
{"zip_code":"0991424","kana_pref":"ﾎｯｶｲﾄﾞｳ","kana_city":"ﾄｺﾛｸﾞﾝｸﾝﾈｯﾌﾟﾁｮｳ","kana_address":"ﾆｼﾄﾐ","pref":"北海道","city":"常呂郡訓子府町","address":"西富"},
{"zip_code":"0991403","kana_pref":"ﾎｯｶｲﾄﾞｳ","kana_city":"ﾄｺﾛｸﾞﾝｸﾝﾈｯﾌﾟﾁｮｳ","kana_address":"ﾋｶﾞｼｻｲﾜｲﾏﾁ","pref":"北海道","city":"常呂郡訓子府町","address":"東幸町"},
{"zip_code":"0991431","kana_pref":"ﾎｯｶｲﾄﾞｳ","kana_city":"ﾄｺﾛｸﾞﾝｸﾝﾈｯﾌﾟﾁｮｳ","kana_address":"ﾋｶﾞｼﾏﾁ","pref":"北海道","city":"常呂郡訓子府町","address":"東町"},
{"zip_code":"0991401","kana_pref":"ﾎｯｶｲﾄﾞｳ","kana_city":"ﾄｺﾛｸﾞﾝｸﾝﾈｯﾌﾟﾁｮｳ","kana_address":"ﾋﾉﾃﾞ","pref":"北海道","city":"常呂郡訓子府町","address":"日出"},
{"zip_code":"0991407","kana_pref":"ﾎｯｶｲﾄﾞｳ","kana_city":"ﾄｺﾛｸﾞﾝｸﾝﾈｯﾌﾟﾁｮｳ","kana_address":"ﾌｸﾉ","pref":"北海道","city":"常呂郡訓子府町","address":"福野"},
{"zip_code":"0991422","kana_pref":"ﾎｯｶｲﾄﾞｳ","kana_city":"ﾄｺﾛｸﾞﾝｸﾝﾈｯﾌﾟﾁｮｳ","kana_address":"ﾎｸｴｲ","pref":"北海道","city":"常呂郡訓子府町","address":"北栄"},
{"zip_code":"0991402","kana_pref":"ﾎｯｶｲﾄﾞｳ","kana_city":"ﾄｺﾛｸﾞﾝｸﾝﾈｯﾌﾟﾁｮｳ","kana_address":"ﾎﾅﾐ","pref":"北海道","city":"常呂郡訓子府町","address":"穂波"},
{"zip_code":"0991418","kana_pref":"ﾎｯｶｲﾄﾞｳ","kana_city":"ﾄｺﾛｸﾞﾝｸﾝﾈｯﾌﾟﾁｮｳ","kana_address":"ﾐｻﾄ","pref":"北海道","city":"常呂郡訓子府町","address":"実郷"},
{"zip_code":"0991415","kana_pref":"ﾎｯｶｲﾄﾞｳ","kana_city":"ﾄｺﾛｸﾞﾝｸﾝﾈｯﾌﾟﾁｮｳ","kana_address":"ﾐｿﾉ","pref":"北海道","city":"常呂郡訓子府町","address":"美園"},
{"zip_code":"0991412","kana_pref":"ﾎｯｶｲﾄﾞｳ","kana_city":"ﾄｺﾛｸﾞﾝｸﾝﾈｯﾌﾟﾁｮｳ","kana_address":"ﾐﾄﾞﾘｵｶ","pref":"北海道","city":"常呂郡訓子府町","address":"緑丘"},
{"zip_code":"0991437","kana_pref":"ﾎｯｶｲﾄﾞｳ","kana_city":"ﾄｺﾛｸﾞﾝｸﾝﾈｯﾌﾟﾁｮｳ","kana_address":"ﾓﾄﾏﾁ","pref":"北海道","city":"常呂郡訓子府町","address":"元町"},
{"zip_code":"0991406","kana_pref":"ﾎｯｶｲﾄﾞｳ","kana_city":"ﾄｺﾛｸﾞﾝｸﾝﾈｯﾌﾟﾁｮｳ","kana_address":"ﾔﾖｲ","pref":"北海道","city":"常呂郡訓子府町","address":"弥生"},
{"zip_code":"0991435","kana_pref":"ﾎｯｶｲﾄﾞｳ","kana_city":"ﾄｺﾛｸﾞﾝｸﾝﾈｯﾌﾟﾁｮｳ","kana_address":"ﾜｶﾄﾐﾏﾁ","pref":"北海道","city":"常呂郡訓子府町","address":"若富町"},
{"zip_code":"0991425","kana_pref":"ﾎｯｶｲﾄﾞｳ","kana_city":"ﾄｺﾛｸﾞﾝｸﾝﾈｯﾌﾟﾁｮｳ","kana_address":"ﾜｶﾊﾞﾏﾁ","pref":"北海道","city":"常呂郡訓子府町","address":"若葉町"},
{"zip_code":"0991100","kana_pref":"ﾎｯｶｲﾄﾞｳ","kana_city":"ﾄｺﾛｸﾞﾝｵｹﾄﾁｮｳ","kana_address":"","pref":"北海道","city":"常呂郡置戸町","address":""},
{"zip_code":"0991364","kana_pref":"ﾎｯｶｲﾄﾞｳ","kana_city":"ﾄｺﾛｸﾞﾝｵｹﾄﾁｮｳ","kana_address":"ｱｷﾀ","pref":"北海道","city":"常呂郡置戸町","address":"秋田"},
{"zip_code":"0991116","kana_pref":"ﾎｯｶｲﾄﾞｳ","kana_city":"ﾄｺﾛｸﾞﾝｵｹﾄﾁｮｳ","kana_address":"ｱｻﾋ","pref":"北海道","city":"常呂郡置戸町","address":"朝日"},
{"zip_code":"0991251","kana_pref":"ﾎｯｶｲﾄﾞｳ","kana_city":"ﾄｺﾛｸﾞﾝｵｹﾄﾁｮｳ","kana_address":"ｱｽﾞﾐ","pref":"北海道","city":"常呂郡置戸町","address":"安住"},
{"zip_code":"0991137","kana_pref":"ﾎｯｶｲﾄﾞｳ","kana_city":"ﾄｺﾛｸﾞﾝｵｹﾄﾁｮｳ","kana_address":"ｵｵﾐ","pref":"北海道","city":"常呂郡置戸町","address":"大美"},
{"zip_code":"0991362","kana_pref":"ﾎｯｶｲﾄﾞｳ","kana_city":"ﾄｺﾛｸﾞﾝｵｹﾄﾁｮｳ","kana_address":"ｵｶﾁ","pref":"北海道","city":"常呂郡置戸町","address":"雄勝"},
{"zip_code":"0991253","kana_pref":"ﾎｯｶｲﾄﾞｳ","kana_city":"ﾄｺﾛｸﾞﾝｵｹﾄﾁｮｳ","kana_address":"ｶｽｶﾞ","pref":"北海道","city":"常呂郡置戸町","address":"春日"},
{"zip_code":"0991252","kana_pref":"ﾎｯｶｲﾄﾞｳ","kana_city":"ﾄｺﾛｸﾞﾝｵｹﾄﾁｮｳ","kana_address":"ｶﾂﾔﾏ","pref":"北海道","city":"常呂郡置戸町","address":"勝山"},
{"zip_code":"0991366","kana_pref":"ﾎｯｶｲﾄﾞｳ","kana_city":"ﾄｺﾛｸﾞﾝｵｹﾄﾁｮｳ","kana_address":"ｶﾜﾐﾅﾐ","pref":"北海道","city":"常呂郡置戸町","address":"川南"},
{"zip_code":"0991114","kana_pref":"ﾎｯｶｲﾄﾞｳ","kana_city":"ﾄｺﾛｸﾞﾝｵｹﾄﾁｮｳ","kana_address":"ｷｮｳｾｲ","pref":"北海道","city":"常呂郡置戸町","address":"協生"},
{"zip_code":"0991132","kana_pref":"ﾎｯｶｲﾄﾞｳ","kana_city":"ﾄｺﾛｸﾞﾝｵｹﾄﾁｮｳ","kana_address":"ｷｮｳﾜ","pref":"北海道","city":"常呂郡置戸町","address":"協和"},
{"zip_code":"0991133","kana_pref":"ﾎｯｶｲﾄﾞｳ","kana_city":"ﾄｺﾛｸﾞﾝｵｹﾄﾁｮｳ","kana_address":"ｺｳｾｲ","pref":"北海道","city":"常呂郡置戸町","address":"更盛"},
{"zip_code":"0991135","kana_pref":"ﾎｯｶｲﾄﾞｳ","kana_city":"ﾄｺﾛｸﾞﾝｵｹﾄﾁｮｳ","kana_address":"ｺｸｴｲ","pref":"北海道","city":"常呂郡置戸町","address":"国栄"},
{"zip_code":"0991361","kana_pref":"ﾎｯｶｲﾄﾞｳ","kana_city":"ﾄｺﾛｸﾞﾝｵｹﾄﾁｮｳ","kana_address":"ｻｶｲﾉ","pref":"北海道","city":"常呂郡置戸町","address":"境野"},
{"zip_code":"0991104","kana_pref":"ﾎｯｶｲﾄﾞｳ","kana_city":"ﾄｺﾛｸﾞﾝｵｹﾄﾁｮｳ","kana_address":"ｻｶｴｲﾁ","pref":"北海道","city":"常呂郡置戸町","address":"栄一"},
{"zip_code":"0991103","kana_pref":"ﾎｯｶｲﾄﾞｳ","kana_city":"ﾄｺﾛｸﾞﾝｵｹﾄﾁｮｳ","kana_address":"ｻｶｴﾆ","pref":"北海道","city":"常呂郡置戸町","address":"栄二"},
{"zip_code":"0991363","kana_pref":"ﾎｯｶｲﾄﾞｳ","kana_city":"ﾄｺﾛｸﾞﾝｵｹﾄﾁｮｳ","kana_address":"ｻﾁｵｶ","pref":"北海道","city":"常呂郡置戸町","address":"幸岡"},
{"zip_code":"0991134","kana_pref":"ﾎｯｶｲﾄﾞｳ","kana_city":"ﾄｺﾛｸﾞﾝｵｹﾄﾁｮｳ","kana_address":"ｼﾞｭｳｾﾞﾝ","pref":"北海道","city":"常呂郡置戸町","address":"十全"},
{"zip_code":"0991113","kana_pref":"ﾎｯｶｲﾄﾞｳ","kana_city":"ﾄｺﾛｸﾞﾝｵｹﾄﾁｮｳ","kana_address":"ｼﾝｺｳ","pref":"北海道","city":"常呂郡置戸町","address":"新光"},
{"zip_code":"0991106","kana_pref":"ﾎｯｶｲﾄﾞｳ","kana_city":"ﾄｺﾛｸﾞﾝｵｹﾄﾁｮｳ","kana_address":"ｼﾝﾜ","pref":"北海道","city":"常呂郡置戸町","address":"新和"},
{"zip_code":"0991105","kana_pref":"ﾎｯｶｲﾄﾞｳ","kana_city":"ﾄｺﾛｸﾞﾝｵｹﾄﾁｮｳ","kana_address":"ｾﾝｼﾝ","pref":"北海道","city":"常呂郡置戸町","address":"洗心"},
{"zip_code":"0991123","kana_pref":"ﾎｯｶｲﾄﾞｳ","kana_city":"ﾄｺﾛｸﾞﾝｵｹﾄﾁｮｳ","kana_address":"ﾀｸｼｮｸ","pref":"北海道","city":"常呂郡置戸町","address":"拓殖"},
{"zip_code":"0991124","kana_pref":"ﾎｯｶｲﾄﾞｳ","kana_city":"ﾄｺﾛｸﾞﾝｵｹﾄﾁｮｳ","kana_address":"ﾀｸｼﾞﾂ","pref":"北海道","city":"常呂郡置戸町","address":"拓実"},
{"zip_code":"0991131","kana_pref":"ﾎｯｶｲﾄﾞｳ","kana_city":"ﾄｺﾛｸﾞﾝｵｹﾄﾁｮｳ","kana_address":"ﾁｭｳｵｳ","pref":"北海道","city":"常呂郡置戸町","address":"中央"},
{"zip_code":"0991254","kana_pref":"ﾎｯｶｲﾄﾞｳ","kana_city":"ﾄｺﾛｸﾞﾝｵｹﾄﾁｮｳ","kana_address":"ﾂﾈﾓﾄ","pref":"北海道","city":"常呂郡置戸町","address":"常元"},
{"zip_code":"0991367","kana_pref":"ﾎｯｶｲﾄﾞｳ","kana_city":"ﾄｺﾛｸﾞﾝｵｹﾄﾁｮｳ","kana_address":"ﾄｷﾜ","pref":"北海道","city":"常呂郡置戸町","address":"常盤"},
{"zip_code":"0991365","kana_pref":"ﾎｯｶｲﾄﾞｳ","kana_city":"ﾄｺﾛｸﾞﾝｵｹﾄﾁｮｳ","kana_address":"ﾄﾖｽﾞﾐ","pref":"北海道","city":"常呂郡置戸町","address":"豊住"},
{"zip_code":"0991138","kana_pref":"ﾎｯｶｲﾄﾞｳ","kana_city":"ﾄｺﾛｸﾞﾝｵｹﾄﾁｮｳ","kana_address":"ﾅｶｻﾄ","pref":"北海道","city":"常呂郡置戸町","address":"中里"},
{"zip_code":"0991136","kana_pref":"ﾎｯｶｲﾄﾞｳ","kana_city":"ﾄｺﾛｸﾞﾝｵｹﾄﾁｮｳ","kana_address":"ﾆｯｼﾝ","pref":"北海道","city":"常呂郡置戸町","address":"日進"},
{"zip_code":"0991121","kana_pref":"ﾎｯｶｲﾄﾞｳ","kana_city":"ﾄｺﾛｸﾞﾝｵｹﾄﾁｮｳ","kana_address":"ﾎｸﾉｳ","pref":"北海道","city":"常呂郡置戸町","address":"北農"},
{"zip_code":"0991101","kana_pref":"ﾎｯｶｲﾄﾞｳ","kana_city":"ﾄｺﾛｸﾞﾝｵｹﾄﾁｮｳ","kana_address":"ﾎｯｺｳ","pref":"北海道","city":"常呂郡置戸町","address":"北光"},
{"zip_code":"0991102","kana_pref":"ﾎｯｶｲﾄﾞｳ","kana_city":"ﾄｺﾛｸﾞﾝｵｹﾄﾁｮｳ","kana_address":"ﾐﾄﾞﾘ","pref":"北海道","city":"常呂郡置戸町","address":"緑"},
{"zip_code":"0991117","kana_pref":"ﾎｯｶｲﾄﾞｳ","kana_city":"ﾄｺﾛｸﾞﾝｵｹﾄﾁｮｳ","kana_address":"ﾐﾔｻｶ","pref":"北海道","city":"常呂郡置戸町","address":"宮坂"},
{"zip_code":"0991115","kana_pref":"ﾎｯｶｲﾄﾞｳ","kana_city":"ﾄｺﾛｸﾞﾝｵｹﾄﾁｮｳ","kana_address":"ﾐﾔｼﾀ","pref":"北海道","city":"常呂郡置戸町","address":"宮下"},
{"zip_code":"0991122","kana_pref":"ﾎｯｶｲﾄﾞｳ","kana_city":"ﾄｺﾛｸﾞﾝｵｹﾄﾁｮｳ","kana_address":"ﾘﾝﾕｳ","pref":"北海道","city":"常呂郡置戸町","address":"林友"},
{"zip_code":"0991118","kana_pref":"ﾎｯｶｲﾄﾞｳ","kana_city":"ﾄｺﾛｸﾞﾝｵｹﾄﾁｮｳ","kana_address":"ﾜｶｷﾞ","pref":"北海道","city":"常呂郡置戸町","address":"若木"},
{"zip_code":"0991112","kana_pref":"ﾎｯｶｲﾄﾞｳ","kana_city":"ﾄｺﾛｸﾞﾝｵｹﾄﾁｮｳ","kana_address":"ﾜｶﾏﾂ","pref":"北海道","city":"常呂郡置戸町","address":"若松"},
{"zip_code":"0990400","kana_pref":"ﾎｯｶｲﾄﾞｳ","kana_city":"ﾓﾝﾍﾞﾂｸﾞﾝｴﾝｶﾞﾙﾁｮｳ","kana_address":"","pref":"北海道","city":"紋別郡遠軽町","address":""},
{"zip_code":"0990701","kana_pref":"ﾎｯｶｲﾄﾞｳ","kana_city":"ﾓﾝﾍﾞﾂｸﾞﾝｴﾝｶﾞﾙﾁｮｳ","kana_address":"ｲｸﾀﾊﾗ","pref":"北海道","city":"紋別郡遠軽町","address":"生田原"},
{"zip_code":"0990623","kana_pref":"ﾎｯｶｲﾄﾞｳ","kana_city":"ﾓﾝﾍﾞﾂｸﾞﾝｴﾝｶﾞﾙﾁｮｳ","kana_address":"ｲｸﾀﾊﾗｱｻﾋﾉ","pref":"北海道","city":"紋別郡遠軽町","address":"生田原旭野"},
{"zip_code":"0990702","kana_pref":"ﾎｯｶｲﾄﾞｳ","kana_city":"ﾓﾝﾍﾞﾂｸﾞﾝｴﾝｶﾞﾙﾁｮｳ","kana_address":"ｲｸﾀﾊﾗｲﾌﾞｷ","pref":"北海道","city":"紋別郡遠軽町","address":"生田原伊吹"},
{"zip_code":"0990704","kana_pref":"ﾎｯｶｲﾄﾞｳ","kana_city":"ﾓﾝﾍﾞﾂｸﾞﾝｴﾝｶﾞﾙﾁｮｳ","kana_address":"ｲｸﾀﾊﾗｲﾜﾄ","pref":"北海道","city":"紋別郡遠軽町","address":"生田原岩戸"},
{"zip_code":"0990705","kana_pref":"ﾎｯｶｲﾄﾞｳ","kana_city":"ﾓﾝﾍﾞﾂｸﾞﾝｴﾝｶﾞﾙﾁｮｳ","kana_address":"ｲｸﾀﾊﾗｷﾖｻﾄ","pref":"北海道","city":"紋別郡遠軽町","address":"生田原清里"},
{"zip_code":"0990624","kana_pref":"ﾎｯｶｲﾄﾞｳ","kana_city":"ﾓﾝﾍﾞﾂｸﾞﾝｴﾝｶﾞﾙﾁｮｳ","kana_address":"ｲｸﾀﾊﾗﾄﾖﾊﾗ","pref":"北海道","city":"紋別郡遠軽町","address":"生田原豊原"},
{"zip_code":"0990621","kana_pref":"ﾎｯｶｲﾄﾞｳ","kana_city":"ﾓﾝﾍﾞﾂｸﾞﾝｴﾝｶﾞﾙﾁｮｳ","kana_address":"ｲｸﾀﾊﾗﾐｽﾞﾎ","pref":"北海道","city":"紋別郡遠軽町","address":"生田原水穂"},
{"zip_code":"0990703","kana_pref":"ﾎｯｶｲﾄﾞｳ","kana_city":"ﾓﾝﾍﾞﾂｸﾞﾝｴﾝｶﾞﾙﾁｮｳ","kana_address":"ｲｸﾀﾊﾗﾔｴ","pref":"北海道","city":"紋別郡遠軽町","address":"生田原八重"},
{"zip_code":"0990622","kana_pref":"ﾎｯｶｲﾄﾞｳ","kana_city":"ﾓﾝﾍﾞﾂｸﾞﾝｴﾝｶﾞﾙﾁｮｳ","kana_address":"ｲｸﾀﾊﾗﾔｽｸﾆ","pref":"北海道","city":"紋別郡遠軽町","address":"生田原安国"},
{"zip_code":"0990415","kana_pref":"ﾎｯｶｲﾄﾞｳ","kana_city":"ﾓﾝﾍﾞﾂｸﾞﾝｴﾝｶﾞﾙﾁｮｳ","kana_address":"ｲﾜﾐﾄﾞｵﾘﾐﾅﾐ","pref":"北海道","city":"紋別郡遠軽町","address":"岩見通南"},
{"zip_code":"0990405","kana_pref":"ﾎｯｶｲﾄﾞｳ","kana_city":"ﾓﾝﾍﾞﾂｸﾞﾝｴﾝｶﾞﾙﾁｮｳ","kana_address":"ｲﾜﾐﾄﾞｵﾘｷﾀ","pref":"北海道","city":"紋別郡遠軽町","address":"岩見通北"},
{"zip_code":"0990416","kana_pref":"ﾎｯｶｲﾄﾞｳ","kana_city":"ﾓﾝﾍﾞﾂｸﾞﾝｴﾝｶﾞﾙﾁｮｳ","kana_address":"ｵｵﾄﾞｵﾘﾐﾅﾐ","pref":"北海道","city":"紋別郡遠軽町","address":"大通南"},
{"zip_code":"0990404","kana_pref":"ﾎｯｶｲﾄﾞｳ","kana_city":"ﾓﾝﾍﾞﾂｸﾞﾝｴﾝｶﾞﾙﾁｮｳ","kana_address":"ｵｵﾄﾞｵﾘｷﾀ","pref":"北海道","city":"紋別郡遠軽町","address":"大通北"},
{"zip_code":"0990126","kana_pref":"ﾎｯｶｲﾄﾞｳ","kana_city":"ﾓﾝﾍﾞﾂｸﾞﾝｴﾝｶﾞﾙﾁｮｳ","kana_address":"ｵｸｼﾗﾀｷ","pref":"北海道","city":"紋別郡遠軽町","address":"奥白滝"},
{"zip_code":"0990401","kana_pref":"ﾎｯｶｲﾄﾞｳ","kana_city":"ﾓﾝﾍﾞﾂｸﾞﾝｴﾝｶﾞﾙﾁｮｳ","kana_address":"ｶﾞｸﾃﾞﾝ","pref":"北海道","city":"紋別郡遠軽町","address":"学田"},
{"zip_code":"0990347","kana_pref":"ﾎｯｶｲﾄﾞｳ","kana_city":"ﾓﾝﾍﾞﾂｸﾞﾝｴﾝｶﾞﾙﾁｮｳ","kana_address":"ｶｼﾜ","pref":"北海道","city":"紋別郡遠軽町","address":"柏"},
{"zip_code":"0990127","kana_pref":"ﾎｯｶｲﾄﾞｳ","kana_city":"ﾓﾝﾍﾞﾂｸﾞﾝｴﾝｶﾞﾙﾁｮｳ","kana_address":"ｶﾐｼﾗﾀｷ","pref":"北海道","city":"紋別郡遠軽町","address":"上白滝"},
{"zip_code":"0990102","kana_pref":"ﾎｯｶｲﾄﾞｳ","kana_city":"ﾓﾝﾍﾞﾂｸﾞﾝｴﾝｶﾞﾙﾁｮｳ","kana_address":"ｷｭｳｼﾗﾀｷ","pref":"北海道","city":"紋別郡遠軽町","address":"旧白滝"},
{"zip_code":"0990422","kana_pref":"ﾎｯｶｲﾄﾞｳ","kana_city":"ﾓﾝﾍﾞﾂｸﾞﾝｴﾝｶﾞﾙﾁｮｳ","kana_address":"ｷﾖｶﾜ","pref":"北海道","city":"紋別郡遠軽町","address":"清川"},
{"zip_code":"0990413","kana_pref":"ﾎｯｶｲﾄﾞｳ","kana_city":"ﾓﾝﾍﾞﾂｸﾞﾝｴﾝｶﾞﾙﾁｮｳ","kana_address":"ｺﾄﾌﾞｷﾁｮｳ","pref":"北海道","city":"紋別郡遠軽町","address":"寿町"},
{"zip_code":"0990343","kana_pref":"ﾎｯｶｲﾄﾞｳ","kana_city":"ﾓﾝﾍﾞﾂｸﾞﾝｴﾝｶﾞﾙﾁｮｳ","kana_address":"ｻｶｴﾉ","pref":"北海道","city":"紋別郡遠軽町","address":"栄野"},
{"zip_code":"0990101","kana_pref":"ﾎｯｶｲﾄﾞｳ","kana_city":"ﾓﾝﾍﾞﾂｸﾞﾝｴﾝｶﾞﾙﾁｮｳ","kana_address":"ｼﾓｼﾗﾀｷ","pref":"北海道","city":"紋別郡遠軽町","address":"下白滝"},
{"zip_code":"0990426","kana_pref":"ﾎｯｶｲﾄﾞｳ","kana_city":"ﾓﾝﾍﾞﾂｸﾞﾝｴﾝｶﾞﾙﾁｮｳ","kana_address":"ｼｬﾅﾌﾁ","pref":"北海道","city":"紋別郡遠軽町","address":"社名淵"},
{"zip_code":"0990111","kana_pref":"ﾎｯｶｲﾄﾞｳ","kana_city":"ﾓﾝﾍﾞﾂｸﾞﾝｴﾝｶﾞﾙﾁｮｳ","kana_address":"ｼﾗﾀｷ","pref":"北海道","city":"紋別郡遠軽町","address":"白滝"},
{"zip_code":"0990123","kana_pref":"ﾎｯｶｲﾄﾞｳ","kana_city":"ﾓﾝﾍﾞﾂｸﾞﾝｴﾝｶﾞﾙﾁｮｳ","kana_address":"ｼﾗﾀｷｶﾐｼｭｳﾍﾞﾂ","pref":"北海道","city":"紋別郡遠軽町","address":"白滝上支湧別"},
{"zip_code":"0990121","kana_pref":"ﾎｯｶｲﾄﾞｳ","kana_city":"ﾓﾝﾍﾞﾂｸﾞﾝｴﾝｶﾞﾙﾁｮｳ","kana_address":"ｼﾗﾀｷｷﾀｼｭｳﾍﾞﾂ","pref":"北海道","city":"紋別郡遠軽町","address":"白滝北支湧別"},
{"zip_code":"0990122","kana_pref":"ﾎｯｶｲﾄﾞｳ","kana_city":"ﾓﾝﾍﾞﾂｸﾞﾝｴﾝｶﾞﾙﾁｮｳ","kana_address":"ｼﾗﾀｷｼｭｳﾍﾞﾂ","pref":"北海道","city":"紋別郡遠軽町","address":"白滝支湧別"},
{"zip_code":"0990125","kana_pref":"ﾎｯｶｲﾄﾞｳ","kana_city":"ﾓﾝﾍﾞﾂｸﾞﾝｴﾝｶﾞﾙﾁｮｳ","kana_address":"ｼﾗﾀｷﾃﾝｸﾞﾀﾞｲﾗ","pref":"北海道","city":"紋別郡遠軽町","address":"白滝天狗平"},
{"zip_code":"0990341","kana_pref":"ﾎｯｶｲﾄﾞｳ","kana_city":"ﾓﾝﾍﾞﾂｸﾞﾝｴﾝｶﾞﾙﾁｮｳ","kana_address":"ｾﾄｾﾋｶﾞｼﾏﾁ","pref":"北海道","city":"紋別郡遠軽町","address":"瀬戸瀬東町"},
{"zip_code":"0990342","kana_pref":"ﾎｯｶｲﾄﾞｳ","kana_city":"ﾓﾝﾍﾞﾂｸﾞﾝｴﾝｶﾞﾙﾁｮｳ","kana_address":"ｾﾄｾﾆｼﾏﾁ","pref":"北海道","city":"紋別郡遠軽町","address":"瀬戸瀬西町"},
{"zip_code":"0990425","kana_pref":"ﾎｯｶｲﾄﾞｳ","kana_city":"ﾓﾝﾍﾞﾂｸﾞﾝｴﾝｶﾞﾙﾁｮｳ","kana_address":"ﾁﾖﾀﾞ","pref":"北海道","city":"紋別郡遠軽町","address":"千代田"},
{"zip_code":"0990408","kana_pref":"ﾎｯｶｲﾄﾞｳ","kana_city":"ﾓﾝﾍﾞﾂｸﾞﾝｴﾝｶﾞﾙﾁｮｳ","kana_address":"ﾄﾒｵｶ","pref":"北海道","city":"紋別郡遠軽町","address":"留岡"},
{"zip_code":"0990412","kana_pref":"ﾎｯｶｲﾄﾞｳ","kana_city":"ﾓﾝﾍﾞﾂｸﾞﾝｴﾝｶﾞﾙﾁｮｳ","kana_address":"ﾄﾖｻﾄ","pref":"北海道","city":"紋別郡遠軽町","address":"豊里"},
{"zip_code":"0990428","kana_pref":"ﾎｯｶｲﾄﾞｳ","kana_city":"ﾓﾝﾍﾞﾂｸﾞﾝｴﾝｶﾞﾙﾁｮｳ","kana_address":"ﾆｼﾏﾁ","pref":"北海道","city":"紋別郡遠軽町","address":"西町"},
{"zip_code":"0990344","kana_pref":"ﾎｯｶｲﾄﾞｳ","kana_city":"ﾓﾝﾍﾞﾂｸﾞﾝｴﾝｶﾞﾙﾁｮｳ","kana_address":"ﾉｶﾞﾐ","pref":"北海道","city":"紋別郡遠軽町","address":"野上"},
{"zip_code":"0990124","kana_pref":"ﾎｯｶｲﾄﾞｳ","kana_city":"ﾓﾝﾍﾞﾂｸﾞﾝｴﾝｶﾞﾙﾁｮｳ","kana_address":"ﾋｶﾞｼｼﾗﾀｷ","pref":"北海道","city":"紋別郡遠軽町","address":"東白滝"},
{"zip_code":"0990410","kana_pref":"ﾎｯｶｲﾄﾞｳ","kana_city":"ﾓﾝﾍﾞﾂｸﾞﾝｴﾝｶﾞﾙﾁｮｳ","kana_address":"ﾋｶﾞｼﾏﾁ","pref":"北海道","city":"紋別郡遠軽町","address":"東町"},
{"zip_code":"0990421","kana_pref":"ﾎｯｶｲﾄﾞｳ","kana_city":"ﾓﾝﾍﾞﾂｸﾞﾝｴﾝｶﾞﾙﾁｮｳ","kana_address":"ﾌｸﾛ","pref":"北海道","city":"紋別郡遠軽町","address":"福路"},
{"zip_code":"0990211","kana_pref":"ﾎｯｶｲﾄﾞｳ","kana_city":"ﾓﾝﾍﾞﾂｸﾞﾝｴﾝｶﾞﾙﾁｮｳ","kana_address":"ﾏﾙｾｯﾌﾟｶﾅﾔﾏ","pref":"北海道","city":"紋別郡遠軽町","address":"丸瀬布金山"},
{"zip_code":"0990212","kana_pref":"ﾎｯｶｲﾄﾞｳ","kana_city":"ﾓﾝﾍﾞﾂｸﾞﾝｴﾝｶﾞﾙﾁｮｳ","kana_address":"ﾏﾙｾｯﾌﾟｶﾐﾏﾙ","pref":"北海道","city":"紋別郡遠軽町","address":"丸瀬布上丸"},
{"zip_code":"0990213","kana_pref":"ﾎｯｶｲﾄﾞｳ","kana_city":"ﾓﾝﾍﾞﾂｸﾞﾝｴﾝｶﾞﾙﾁｮｳ","kana_address":"ﾏﾙｾｯﾌﾟｶﾐﾑﾘｲ","pref":"北海道","city":"紋別郡遠軽町","address":"丸瀬布上武利"},
{"zip_code":"0990201","kana_pref":"ﾎｯｶｲﾄﾞｳ","kana_city":"ﾓﾝﾍﾞﾂｸﾞﾝｴﾝｶﾞﾙﾁｮｳ","kana_address":"ﾏﾙｾｯﾌﾟｼﾝﾏﾁ","pref":"北海道","city":"紋別郡遠軽町","address":"丸瀬布新町"},
{"zip_code":"0990214","kana_pref":"ﾎｯｶｲﾄﾞｳ","kana_city":"ﾓﾝﾍﾞﾂｸﾞﾝｴﾝｶﾞﾙﾁｮｳ","kana_address":"ﾏﾙｾｯﾌﾟﾀｲﾍｲ","pref":"北海道","city":"紋別郡遠軽町","address":"丸瀬布大平"},
{"zip_code":"0990202","kana_pref":"ﾎｯｶｲﾄﾞｳ","kana_city":"ﾓﾝﾍﾞﾂｸﾞﾝｴﾝｶﾞﾙﾁｮｳ","kana_address":"ﾏﾙｾｯﾌﾟﾃﾝｼﾞﾝﾏﾁ","pref":"北海道","city":"紋別郡遠軽町","address":"丸瀬布天神町"},
{"zip_code":"0990203","kana_pref":"ﾎｯｶｲﾄﾞｳ","kana_city":"ﾓﾝﾍﾞﾂｸﾞﾝｴﾝｶﾞﾙﾁｮｳ","kana_address":"ﾏﾙｾｯﾌﾟﾅｶﾏﾁ","pref":"北海道","city":"紋別郡遠軽町","address":"丸瀬布中町"},
{"zip_code":"0990204","kana_pref":"ﾎｯｶｲﾄﾞｳ","kana_city":"ﾓﾝﾍﾞﾂｸﾞﾝｴﾝｶﾞﾙﾁｮｳ","kana_address":"ﾏﾙｾｯﾌﾟﾆｼﾏﾁ","pref":"北海道","city":"紋別郡遠軽町","address":"丸瀬布西町"},
{"zip_code":"0990205","kana_pref":"ﾎｯｶｲﾄﾞｳ","kana_city":"ﾓﾝﾍﾞﾂｸﾞﾝｴﾝｶﾞﾙﾁｮｳ","kana_address":"ﾏﾙｾｯﾌﾟﾋｶﾞｼﾏﾁ","pref":"北海道","city":"紋別郡遠軽町","address":"丸瀬布東町"},
{"zip_code":"0990206","kana_pref":"ﾎｯｶｲﾄﾞｳ","kana_city":"ﾓﾝﾍﾞﾂｸﾞﾝｴﾝｶﾞﾙﾁｮｳ","kana_address":"ﾏﾙｾｯﾌﾟﾐｽﾞﾀﾆﾏﾁ","pref":"北海道","city":"紋別郡遠軽町","address":"丸瀬布水谷町"},
{"zip_code":"0990215","kana_pref":"ﾎｯｶｲﾄﾞｳ","kana_city":"ﾓﾝﾍﾞﾂｸﾞﾝｴﾝｶﾞﾙﾁｮｳ","kana_address":"ﾏﾙｾｯﾌﾟﾐﾅﾐﾏﾙ","pref":"北海道","city":"紋別郡遠軽町","address":"丸瀬布南丸"},
{"zip_code":"0990216","kana_pref":"ﾎｯｶｲﾄﾞｳ","kana_city":"ﾓﾝﾍﾞﾂｸﾞﾝｴﾝｶﾞﾙﾁｮｳ","kana_address":"ﾏﾙｾｯﾌﾟﾑﾘｲ","pref":"北海道","city":"紋別郡遠軽町","address":"丸瀬布武利"},
{"zip_code":"0990207","kana_pref":"ﾎｯｶｲﾄﾞｳ","kana_city":"ﾓﾝﾍﾞﾂｸﾞﾝｴﾝｶﾞﾙﾁｮｳ","kana_address":"ﾏﾙｾｯﾌﾟﾓﾄﾏﾁ","pref":"北海道","city":"紋別郡遠軽町","address":"丸瀬布元町"},
{"zip_code":"0990407","kana_pref":"ﾎｯｶｲﾄﾞｳ","kana_city":"ﾓﾝﾍﾞﾂｸﾞﾝｴﾝｶﾞﾙﾁｮｳ","kana_address":"ﾏﾙﾀﾞｲ","pref":"北海道","city":"紋別郡遠軽町","address":"丸大"},
{"zip_code":"0990414","kana_pref":"ﾎｯｶｲﾄﾞｳ","kana_city":"ﾓﾝﾍﾞﾂｸﾞﾝｴﾝｶﾞﾙﾁｮｳ","kana_address":"ﾐﾅﾐﾏﾁ","pref":"北海道","city":"紋別郡遠軽町","address":"南町"},
{"zip_code":"0990427","kana_pref":"ﾎｯｶｲﾄﾞｳ","kana_city":"ﾓﾝﾍﾞﾂｸﾞﾝｴﾝｶﾞﾙﾁｮｳ","kana_address":"ﾐﾊﾗｼ","pref":"北海道","city":"紋別郡遠軽町","address":"見晴"},
{"zip_code":"0990424","kana_pref":"ﾎｯｶｲﾄﾞｳ","kana_city":"ﾓﾝﾍﾞﾂｸﾞﾝｴﾝｶﾞﾙﾁｮｳ","kana_address":"ﾐﾔﾏ","pref":"北海道","city":"紋別郡遠軽町","address":"美山"},
{"zip_code":"0990406","kana_pref":"ﾎｯｶｲﾄﾞｳ","kana_city":"ﾓﾝﾍﾞﾂｸﾞﾝｴﾝｶﾞﾙﾁｮｳ","kana_address":"ﾐﾔﾏｴﾁｮｳ","pref":"北海道","city":"紋別郡遠軽町","address":"宮前町"},
{"zip_code":"0990411","kana_pref":"ﾎｯｶｲﾄﾞｳ","kana_city":"ﾓﾝﾍﾞﾂｸﾞﾝｴﾝｶﾞﾙﾁｮｳ","kana_address":"ﾑｶｲｴﾝｶﾞﾙ","pref":"北海道","city":"紋別郡遠軽町","address":"向遠軽"},
{"zip_code":"0990345","kana_pref":"ﾎｯｶｲﾄﾞｳ","kana_city":"ﾓﾝﾍﾞﾂｸﾞﾝｴﾝｶﾞﾙﾁｮｳ","kana_address":"ﾕﾉｻﾄ","pref":"北海道","city":"紋別郡遠軽町","address":"湯の里"},
{"zip_code":"0990346","kana_pref":"ﾎｯｶｲﾄﾞｳ","kana_city":"ﾓﾝﾍﾞﾂｸﾞﾝｴﾝｶﾞﾙﾁｮｳ","kana_address":"ﾜｶｻｸﾅｲ","pref":"北海道","city":"紋別郡遠軽町","address":"若咲内"},
{"zip_code":"0990423","kana_pref":"ﾎｯｶｲﾄﾞｳ","kana_city":"ﾓﾝﾍﾞﾂｸﾞﾝｴﾝｶﾞﾙﾁｮｳ","kana_address":"ﾜｶﾏﾂ","pref":"北海道","city":"紋別郡遠軽町","address":"若松"},
{"zip_code":"0990417","kana_pref":"ﾎｯｶｲﾄﾞｳ","kana_city":"ﾓﾝﾍﾞﾂｸﾞﾝｴﾝｶﾞﾙﾁｮｳ","kana_address":"1ｼﾞｮｳﾄﾞｵﾘﾐﾅﾐ","pref":"北海道","city":"紋別郡遠軽町","address":"一条通南"},
{"zip_code":"0990403","kana_pref":"ﾎｯｶｲﾄﾞｳ","kana_city":"ﾓﾝﾍﾞﾂｸﾞﾝｴﾝｶﾞﾙﾁｮｳ","kana_address":"1ｼﾞｮｳﾄﾞｵﾘｷﾀ","pref":"北海道","city":"紋別郡遠軽町","address":"一条通北"},
{"zip_code":"0990418","kana_pref":"ﾎｯｶｲﾄﾞｳ","kana_city":"ﾓﾝﾍﾞﾂｸﾞﾝｴﾝｶﾞﾙﾁｮｳ","kana_address":"2ｼﾞｮｳﾄﾞｵﾘﾐﾅﾐ","pref":"北海道","city":"紋別郡遠軽町","address":"二条通南"},
{"zip_code":"0990402","kana_pref":"ﾎｯｶｲﾄﾞｳ","kana_city":"ﾓﾝﾍﾞﾂｸﾞﾝｴﾝｶﾞﾙﾁｮｳ","kana_address":"2ｼﾞｮｳﾄﾞｵﾘｷﾀ","pref":"北海道","city":"紋別郡遠軽町","address":"二条通北"},
{"zip_code":"0996400","kana_pref":"ﾎｯｶｲﾄﾞｳ","kana_city":"ﾓﾝﾍﾞﾂｸﾞﾝﾕｳﾍﾞﾂﾁｮｳ","kana_address":"","pref":"北海道","city":"紋別郡湧別町","address":""},
{"zip_code":"0996402","kana_pref":"ﾎｯｶｲﾄﾞｳ","kana_city":"ﾓﾝﾍﾞﾂｸﾞﾝﾕｳﾍﾞﾂﾁｮｳ","kana_address":"ｱｹﾎﾞﾉﾏﾁ","pref":"北海道","city":"紋別郡湧別町","address":"曙町"},
{"zip_code":"0996321","kana_pref":"ﾎｯｶｲﾄﾞｳ","kana_city":"ﾓﾝﾍﾞﾂｸﾞﾝﾕｳﾍﾞﾂﾁｮｳ","kana_address":"ｱｻﾋ","pref":"北海道","city":"紋別郡湧別町","address":"旭"},
{"zip_code":"0996503","kana_pref":"ﾎｯｶｲﾄﾞｳ","kana_city":"ﾓﾝﾍﾞﾂｸﾞﾝﾕｳﾍﾞﾂﾁｮｳ","kana_address":"ｶｲｾｲ","pref":"北海道","city":"紋別郡湧別町","address":"開盛"},
{"zip_code":"0996504","kana_pref":"ﾎｯｶｲﾄﾞｳ","kana_city":"ﾓﾝﾍﾞﾂｸﾞﾝﾕｳﾍﾞﾂﾁｮｳ","kana_address":"ｶﾐﾌﾐ","pref":"北海道","city":"紋別郡湧別町","address":"上富美"},
{"zip_code":"0996501","kana_pref":"ﾎｯｶｲﾄﾞｳ","kana_city":"ﾓﾝﾍﾞﾂｸﾞﾝﾕｳﾍﾞﾂﾁｮｳ","kana_address":"ｶﾐﾕｳﾍﾞﾂﾄﾝﾃﾞﾝｼｶﾞｲﾁ","pref":"北海道","city":"紋別郡湧別町","address":"上湧別屯田市街地"},
{"zip_code":"0996415","kana_pref":"ﾎｯｶｲﾄﾞｳ","kana_city":"ﾓﾝﾍﾞﾂｸﾞﾝﾕｳﾍﾞﾂﾁｮｳ","kana_address":"ｶﾜﾆｼ","pref":"北海道","city":"紋別郡湧別町","address":"川西"},
{"zip_code":"0996325","kana_pref":"ﾎｯｶｲﾄﾞｳ","kana_city":"ﾓﾝﾍﾞﾂｸﾞﾝﾕｳﾍﾞﾂﾁｮｳ","kana_address":"ｷﾀﾍｲｿﾝｲｯｸ","pref":"北海道","city":"紋別郡湧別町","address":"北兵村一区"},
{"zip_code":"0996323","kana_pref":"ﾎｯｶｲﾄﾞｳ","kana_city":"ﾓﾝﾍﾞﾂｸﾞﾝﾕｳﾍﾞﾂﾁｮｳ","kana_address":"ｷﾀﾍｲｿﾝﾆｸ","pref":"北海道","city":"紋別郡湧別町","address":"北兵村二区"},
{"zip_code":"0996322","kana_pref":"ﾎｯｶｲﾄﾞｳ","kana_city":"ﾓﾝﾍﾞﾂｸﾞﾝﾕｳﾍﾞﾂﾁｮｳ","kana_address":"ｷﾀﾍｲｿﾝｻﾝｸ","pref":"北海道","city":"紋別郡湧別町","address":"北兵村三区"},
{"zip_code":"0996404","kana_pref":"ﾎｯｶｲﾄﾞｳ","kana_city":"ﾓﾝﾍﾞﾂｸﾞﾝﾕｳﾍﾞﾂﾁｮｳ","kana_address":"ｻｶｴﾏﾁ","pref":"北海道","city":"紋別郡湧別町","address":"栄町"},
{"zip_code":"0996506","kana_pref":"ﾎｯｶｲﾄﾞｳ","kana_city":"ﾓﾝﾍﾞﾂｸﾞﾝﾕｳﾍﾞﾂﾁｮｳ","kana_address":"ｻﾂﾌﾐ","pref":"北海道","city":"紋別郡湧別町","address":"札富美"},
{"zip_code":"0996271","kana_pref":"ﾎｯｶｲﾄﾞｳ","kana_city":"ﾓﾝﾍﾞﾂｸﾞﾝﾕｳﾍﾞﾂﾁｮｳ","kana_address":"ｼﾌﾞﾅｲ","pref":"北海道","city":"紋別郡湧別町","address":"信部内"},
{"zip_code":"0996412","kana_pref":"ﾎｯｶｲﾄﾞｳ","kana_city":"ﾓﾝﾍﾞﾂｸﾞﾝﾕｳﾍﾞﾂﾁｮｳ","kana_address":"ﾄｴﾄｺ","pref":"北海道","city":"紋別郡湧別町","address":"登栄床"},
{"zip_code":"0996326","kana_pref":"ﾎｯｶｲﾄﾞｳ","kana_city":"ﾓﾝﾍﾞﾂｸﾞﾝﾕｳﾍﾞﾂﾁｮｳ","kana_address":"ﾅｶﾕｳﾍﾞﾂｷﾀﾏﾁ","pref":"北海道","city":"紋別郡湧別町","address":"中湧別北町"},
{"zip_code":"0996329","kana_pref":"ﾎｯｶｲﾄﾞｳ","kana_city":"ﾓﾝﾍﾞﾂｸﾞﾝﾕｳﾍﾞﾂﾁｮｳ","kana_address":"ﾅｶﾕｳﾍﾞﾂﾅｶﾏﾁ","pref":"北海道","city":"紋別郡湧別町","address":"中湧別中町"},
{"zip_code":"0996327","kana_pref":"ﾎｯｶｲﾄﾞｳ","kana_city":"ﾓﾝﾍﾞﾂｸﾞﾝﾕｳﾍﾞﾂﾁｮｳ","kana_address":"ﾅｶﾕｳﾍﾞﾂﾋｶﾞｼﾏﾁ","pref":"北海道","city":"紋別郡湧別町","address":"中湧別東町"},
{"zip_code":"0996328","kana_pref":"ﾎｯｶｲﾄﾞｳ","kana_city":"ﾓﾝﾍﾞﾂｸﾞﾝﾕｳﾍﾞﾂﾁｮｳ","kana_address":"ﾅｶﾕｳﾍﾞﾂﾐﾅﾐﾏﾁ","pref":"北海道","city":"紋別郡湧別町","address":"中湧別南町"},
{"zip_code":"0996414","kana_pref":"ﾎｯｶｲﾄﾞｳ","kana_city":"ﾓﾝﾍﾞﾂｸﾞﾝﾕｳﾍﾞﾂﾁｮｳ","kana_address":"ﾆｼｷﾏﾁ","pref":"北海道","city":"紋別郡湧別町","address":"錦町"},
{"zip_code":"0996411","kana_pref":"ﾎｯｶｲﾄﾞｳ","kana_city":"ﾓﾝﾍﾞﾂｸﾞﾝﾕｳﾍﾞﾂﾁｮｳ","kana_address":"ﾋｶﾞｼ","pref":"北海道","city":"紋別郡湧別町","address":"東"},
{"zip_code":"0996413","kana_pref":"ﾎｯｶｲﾄﾞｳ","kana_city":"ﾓﾝﾍﾞﾂｸﾞﾝﾕｳﾍﾞﾂﾁｮｳ","kana_address":"ﾌｸｼﾏ","pref":"北海道","city":"紋別郡湧別町","address":"福島"},
{"zip_code":"0996505","kana_pref":"ﾎｯｶｲﾄﾞｳ","kana_city":"ﾓﾝﾍﾞﾂｸﾞﾝﾕｳﾍﾞﾂﾁｮｳ","kana_address":"ﾌﾐ","pref":"北海道","city":"紋別郡湧別町","address":"富美"},
{"zip_code":"0996403","kana_pref":"ﾎｯｶｲﾄﾞｳ","kana_city":"ﾓﾝﾍﾞﾂｸﾞﾝﾕｳﾍﾞﾂﾁｮｳ","kana_address":"ﾐﾄﾞﾘﾏﾁ","pref":"北海道","city":"紋別郡湧別町","address":"緑町"},
{"zip_code":"0996401","kana_pref":"ﾎｯｶｲﾄﾞｳ","kana_city":"ﾓﾝﾍﾞﾂｸﾞﾝﾕｳﾍﾞﾂﾁｮｳ","kana_address":"ﾐﾅﾄﾏﾁ","pref":"北海道","city":"紋別郡湧別町","address":"港町"},
{"zip_code":"0996509","kana_pref":"ﾎｯｶｲﾄﾞｳ","kana_city":"ﾓﾝﾍﾞﾂｸﾞﾝﾕｳﾍﾞﾂﾁｮｳ","kana_address":"ﾐﾅﾐﾍｲｿﾝｲｯｸ","pref":"北海道","city":"紋別郡湧別町","address":"南兵村一区"},
{"zip_code":"0996508","kana_pref":"ﾎｯｶｲﾄﾞｳ","kana_city":"ﾓﾝﾍﾞﾂｸﾞﾝﾕｳﾍﾞﾂﾁｮｳ","kana_address":"ﾐﾅﾐﾍｲｿﾝﾆｸ","pref":"北海道","city":"紋別郡湧別町","address":"南兵村二区"},
{"zip_code":"0996507","kana_pref":"ﾎｯｶｲﾄﾞｳ","kana_city":"ﾓﾝﾍﾞﾂｸﾞﾝﾕｳﾍﾞﾂﾁｮｳ","kana_address":"ﾐﾅﾐﾍｲｿﾝｻﾝｸ","pref":"北海道","city":"紋別郡湧別町","address":"南兵村三区"},
{"zip_code":"0996272","kana_pref":"ﾎｯｶｲﾄﾞｳ","kana_city":"ﾓﾝﾍﾞﾂｸﾞﾝﾕｳﾍﾞﾂﾁｮｳ","kana_address":"ﾘｮｸｲﾝ","pref":"北海道","city":"紋別郡湧別町","address":"緑蔭"},
{"zip_code":"0995600","kana_pref":"ﾎｯｶｲﾄﾞｳ","kana_city":"ﾓﾝﾍﾞﾂｸﾞﾝﾀｷﾉｳｴﾁｮｳ","kana_address":"","pref":"北海道","city":"紋別郡滝上町","address":""},
{"zip_code":"0995601","kana_pref":"ﾎｯｶｲﾄﾞｳ","kana_city":"ﾓﾝﾍﾞﾂｸﾞﾝﾀｷﾉｳｴﾁｮｳ","kana_address":"ｱｹﾎﾞﾉﾏﾁ","pref":"北海道","city":"紋別郡滝上町","address":"あけぼの町"},
{"zip_code":"0995602","kana_pref":"ﾎｯｶｲﾄﾞｳ","kana_city":"ﾓﾝﾍﾞﾂｸﾞﾝﾀｷﾉｳｴﾁｮｳ","kana_address":"ｱｻﾋﾏﾁ","pref":"北海道","city":"紋別郡滝上町","address":"旭町"},
{"zip_code":"0995544","kana_pref":"ﾎｯｶｲﾄﾞｳ","kana_city":"ﾓﾝﾍﾞﾂｸﾞﾝﾀｷﾉｳｴﾁｮｳ","kana_address":"ｵﾁﾝﾅｲ","pref":"北海道","city":"紋別郡滝上町","address":"雄鎮内"},
{"zip_code":"0995606","kana_pref":"ﾎｯｶｲﾄﾞｳ","kana_city":"ﾓﾝﾍﾞﾂｸﾞﾝﾀｷﾉｳｴﾁｮｳ","kana_address":"ｻｲﾜｲﾏﾁ","pref":"北海道","city":"紋別郡滝上町","address":"幸町"},
{"zip_code":"0995605","kana_pref":"ﾎｯｶｲﾄﾞｳ","kana_city":"ﾓﾝﾍﾞﾂｸﾞﾝﾀｷﾉｳｴﾁｮｳ","kana_address":"ｻｶｴﾏﾁ","pref":"北海道","city":"紋別郡滝上町","address":"栄町"},
{"zip_code":"0995614","kana_pref":"ﾎｯｶｲﾄﾞｳ","kana_city":"ﾓﾝﾍﾞﾂｸﾞﾝﾀｷﾉｳｴﾁｮｳ","kana_address":"ｻｯｸﾙ","pref":"北海道","city":"紋別郡滝上町","address":"札久留"},
{"zip_code":"0995612","kana_pref":"ﾎｯｶｲﾄﾞｳ","kana_city":"ﾓﾝﾍﾞﾂｸﾞﾝﾀｷﾉｳｴﾁｮｳ","kana_address":"ｼﾗﾄﾘ","pref":"北海道","city":"紋別郡滝上町","address":"白鳥"},
{"zip_code":"0995543","kana_pref":"ﾎｯｶｲﾄﾞｳ","kana_city":"ﾓﾝﾍﾞﾂｸﾞﾝﾀｷﾉｳｴﾁｮｳ","kana_address":"ｼﾝﾏﾁ","pref":"北海道","city":"紋別郡滝上町","address":"新町"},
{"zip_code":"0995611","kana_pref":"ﾎｯｶｲﾄﾞｳ","kana_city":"ﾓﾝﾍﾞﾂｸﾞﾝﾀｷﾉｳｴﾁｮｳ","kana_address":"ﾀﾞｲ1ｸ","pref":"北海道","city":"紋別郡滝上町","address":"第１区"},
{"zip_code":"0995612","kana_pref":"ﾎｯｶｲﾄﾞｳ","kana_city":"ﾓﾝﾍﾞﾂｸﾞﾝﾀｷﾉｳｴﾁｮｳ","kana_address":"ﾀﾞｲ2ｸ","pref":"北海道","city":"紋別郡滝上町","address":"第２区"},
{"zip_code":"0995613","kana_pref":"ﾎｯｶｲﾄﾞｳ","kana_city":"ﾓﾝﾍﾞﾂｸﾞﾝﾀｷﾉｳｴﾁｮｳ","kana_address":"ﾀﾞｲ3ｸ","pref":"北海道","city":"紋別郡滝上町","address":"第３区"},
{"zip_code":"0995613","kana_pref":"ﾎｯｶｲﾄﾞｳ","kana_city":"ﾓﾝﾍﾞﾂｸﾞﾝﾀｷﾉｳｴﾁｮｳ","kana_address":"ﾀﾞｲ4ｸ","pref":"北海道","city":"紋別郡滝上町","address":"第４区"},
{"zip_code":"0995613","kana_pref":"ﾎｯｶｲﾄﾞｳ","kana_city":"ﾓﾝﾍﾞﾂｸﾞﾝﾀｷﾉｳｴﾁｮｳ","kana_address":"ﾀﾞｲ5ｸ","pref":"北海道","city":"紋別郡滝上町","address":"第５区"},
{"zip_code":"0995551","kana_pref":"ﾎｯｶｲﾄﾞｳ","kana_city":"ﾓﾝﾍﾞﾂｸﾞﾝﾀｷﾉｳｴﾁｮｳ","kana_address":"ﾀｲｼｮｳ","pref":"北海道","city":"紋別郡滝上町","address":"大正"},
{"zip_code":"0995552","kana_pref":"ﾎｯｶｲﾄﾞｳ","kana_city":"ﾓﾝﾍﾞﾂｸﾞﾝﾀｷﾉｳｴﾁｮｳ","kana_address":"ﾀｷｼﾀ","pref":"北海道","city":"紋別郡滝上町","address":"滝下"},
{"zip_code":"0995603","kana_pref":"ﾎｯｶｲﾄﾞｳ","kana_city":"ﾓﾝﾍﾞﾂｸﾞﾝﾀｷﾉｳｴﾁｮｳ","kana_address":"ﾀｷﾐﾏﾁ","pref":"北海道","city":"紋別郡滝上町","address":"滝美町"},
{"zip_code":"0995613","kana_pref":"ﾎｯｶｲﾄﾞｳ","kana_city":"ﾓﾝﾍﾞﾂｸﾞﾝﾀｷﾉｳｴﾁｮｳ","kana_address":"ﾀｷﾆｼ","pref":"北海道","city":"紋別郡滝上町","address":"滝西"},
{"zip_code":"0995541","kana_pref":"ﾎｯｶｲﾄﾞｳ","kana_city":"ﾓﾝﾍﾞﾂｸﾞﾝﾀｷﾉｳｴﾁｮｳ","kana_address":"ﾆｺﾞﾘｶﾜﾁｭｳｵｳ","pref":"北海道","city":"紋別郡滝上町","address":"濁川中央"},
{"zip_code":"0995542","kana_pref":"ﾎｯｶｲﾄﾞｳ","kana_city":"ﾓﾝﾍﾞﾂｸﾞﾝﾀｷﾉｳｴﾁｮｳ","kana_address":"ﾆｺﾞﾘｶﾜﾐﾄﾞﾘﾏﾁ","pref":"北海道","city":"紋別郡滝上町","address":"濁川みどり町"},
{"zip_code":"0995604","kana_pref":"ﾎｯｶｲﾄﾞｳ","kana_city":"ﾓﾝﾍﾞﾂｸﾞﾝﾀｷﾉｳｴﾁｮｳ","kana_address":"ﾓﾄﾏﾁ","pref":"北海道","city":"紋別郡滝上町","address":"元町"},
{"zip_code":"0995553","kana_pref":"ﾎｯｶｲﾄﾞｳ","kana_city":"ﾓﾝﾍﾞﾂｸﾞﾝﾀｷﾉｳｴﾁｮｳ","kana_address":"ﾕｳﾊｸ","pref":"北海道","city":"紋別郡滝上町","address":"雄柏"},
{"zip_code":"0992300","kana_pref":"ﾎｯｶｲﾄﾞｳ","kana_city":"ｱﾊﾞｼﾘｸﾞﾝｵｵｿﾞﾗﾁｮｳ","kana_address":"","pref":"北海道","city":"網走郡大空町","address":""},
{"zip_code":"0993222","kana_pref":"ﾎｯｶｲﾄﾞｳ","kana_city":"ｱﾊﾞｼﾘｸﾞﾝｵｵｿﾞﾗﾁｮｳ","kana_address":"ﾋｶﾞｼﾓｺﾄｼﾝﾄﾐ","pref":"北海道","city":"網走郡大空町","address":"東藻琴新富"},
{"zip_code":"0993232","kana_pref":"ﾎｯｶｲﾄﾞｳ","kana_city":"ｱﾊﾞｼﾘｸﾞﾝｵｵｿﾞﾗﾁｮｳ","kana_address":"ﾋｶﾞｼﾓｺﾄｽｴﾋﾛ","pref":"北海道","city":"網走郡大空町","address":"東藻琴末広"},
{"zip_code":"0993221","kana_pref":"ﾎｯｶｲﾄﾞｳ","kana_city":"ｱﾊﾞｼﾘｸﾞﾝｵｵｿﾞﾗﾁｮｳ","kana_address":"ﾋｶﾞｼﾓｺﾄﾀｲｼﾝ","pref":"北海道","city":"網走郡大空町","address":"東藻琴大進"},
{"zip_code":"0993231","kana_pref":"ﾎｯｶｲﾄﾞｳ","kana_city":"ｱﾊﾞｼﾘｸﾞﾝｵｵｿﾞﾗﾁｮｳ","kana_address":"ﾋｶﾞｼﾓｺﾄﾁｸｻ","pref":"北海道","city":"網走郡大空町","address":"東藻琴千草"},
{"zip_code":"0993202","kana_pref":"ﾎｯｶｲﾄﾞｳ","kana_city":"ｱﾊﾞｼﾘｸﾞﾝｵｵｿﾞﾗﾁｮｳ","kana_address":"ﾋｶﾞｼﾓｺﾄﾆｼｸﾗ","pref":"北海道","city":"網走郡大空町","address":"東藻琴西倉"},
{"zip_code":"0993234","kana_pref":"ﾎｯｶｲﾄﾞｳ","kana_city":"ｱﾊﾞｼﾘｸﾞﾝｵｵｿﾞﾗﾁｮｳ","kana_address":"ﾋｶﾞｼﾓｺﾄﾌｸﾄﾐ","pref":"北海道","city":"網走郡大空町","address":"東藻琴福富"},
{"zip_code":"0993224","kana_pref":"ﾎｯｶｲﾄﾞｳ","kana_city":"ｱﾊﾞｼﾘｸﾞﾝｵｵｿﾞﾗﾁｮｳ","kana_address":"ﾋｶﾞｼﾓｺﾄﾒｲｾｲ","pref":"北海道","city":"網走郡大空町","address":"東藻琴明生"},
{"zip_code":"0993243","kana_pref":"ﾎｯｶｲﾄﾞｳ","kana_city":"ｱﾊﾞｼﾘｸﾞﾝｵｵｿﾞﾗﾁｮｳ","kana_address":"ﾋｶﾞｼﾓｺﾄﾔﾏｿﾞﾉ","pref":"北海道","city":"網走郡大空町","address":"東藻琴山園"},
{"zip_code":"0993225","kana_pref":"ﾎｯｶｲﾄﾞｳ","kana_city":"ｱﾊﾞｼﾘｸﾞﾝｵｵｿﾞﾗﾁｮｳ","kana_address":"ﾋｶﾞｼﾓｺﾄ","pref":"北海道","city":"網走郡大空町","address":"東藻琴"},
{"zip_code":"0993233","kana_pref":"ﾎｯｶｲﾄﾞｳ","kana_city":"ｱﾊﾞｼﾘｸﾞﾝｵｵｿﾞﾗﾁｮｳ","kana_address":"ﾋｶﾞｼﾓｺﾄ","pref":"北海道","city":"網走郡大空町","address":"東藻琴"},
{"zip_code":"0993211","kana_pref":"ﾎｯｶｲﾄﾞｳ","kana_city":"ｱﾊﾞｼﾘｸﾞﾝｵｵｿﾞﾗﾁｮｳ","kana_address":"ﾋｶﾞｼﾓｺﾄ","pref":"北海道","city":"網走郡大空町","address":"東藻琴"},
{"zip_code":"0993212","kana_pref":"ﾎｯｶｲﾄﾞｳ","kana_city":"ｱﾊﾞｼﾘｸﾞﾝｵｵｿﾞﾗﾁｮｳ","kana_address":"ﾋｶﾞｼﾓｺﾄ","pref":"北海道","city":"網走郡大空町","address":"東藻琴"},
{"zip_code":"0993213","kana_pref":"ﾎｯｶｲﾄﾞｳ","kana_city":"ｱﾊﾞｼﾘｸﾞﾝｵｵｿﾞﾗﾁｮｳ","kana_address":"ﾋｶﾞｼﾓｺﾄ","pref":"北海道","city":"網走郡大空町","address":"東藻琴"},
{"zip_code":"0993201","kana_pref":"ﾎｯｶｲﾄﾞｳ","kana_city":"ｱﾊﾞｼﾘｸﾞﾝｵｵｿﾞﾗﾁｮｳ","kana_address":"ﾋｶﾞｼﾓｺﾄ","pref":"北海道","city":"網走郡大空町","address":"東藻琴"},
{"zip_code":"0993223","kana_pref":"ﾎｯｶｲﾄﾞｳ","kana_city":"ｱﾊﾞｼﾘｸﾞﾝｵｵｿﾞﾗﾁｮｳ","kana_address":"ﾋｶﾞｼﾓｺﾄ","pref":"北海道","city":"網走郡大空町","address":"東藻琴"},
{"zip_code":"0993214","kana_pref":"ﾎｯｶｲﾄﾞｳ","kana_city":"ｱﾊﾞｼﾘｸﾞﾝｵｵｿﾞﾗﾁｮｳ","kana_address":"ﾋｶﾞｼﾓｺﾄ","pref":"北海道","city":"網走郡大空町","address":"東藻琴"},
{"zip_code":"0993244","kana_pref":"ﾎｯｶｲﾄﾞｳ","kana_city":"ｱﾊﾞｼﾘｸﾞﾝｵｵｿﾞﾗﾁｮｳ","kana_address":"ﾋｶﾞｼﾓｺﾄ","pref":"北海道","city":"網走郡大空町","address":"東藻琴"},
{"zip_code":"0992362","kana_pref":"ﾎｯｶｲﾄﾞｳ","kana_city":"ｱﾊﾞｼﾘｸﾞﾝｵｵｿﾞﾗﾁｮｳ","kana_address":"ﾒﾏﾝﾍﾞﾂｱｻﾋ","pref":"北海道","city":"網走郡大空町","address":"女満別朝日"},
{"zip_code":"0992382","kana_pref":"ﾎｯｶｲﾄﾞｳ","kana_city":"ｱﾊﾞｼﾘｸﾞﾝｵｵｿﾞﾗﾁｮｳ","kana_address":"ﾒﾏﾝﾍﾞﾂｶｲﾖｳ","pref":"北海道","city":"網走郡大空町","address":"女満別開陽"},
{"zip_code":"0992304","kana_pref":"ﾎｯｶｲﾄﾞｳ","kana_city":"ｱﾊﾞｼﾘｸﾞﾝｵｵｿﾞﾗﾁｮｳ","kana_address":"ﾒﾏﾝﾍﾞﾂｺｳｴﾝ","pref":"北海道","city":"網走郡大空町","address":"女満別公園"},
{"zip_code":"0992351","kana_pref":"ﾎｯｶｲﾄﾞｳ","kana_city":"ｱﾊﾞｼﾘｸﾞﾝｵｵｿﾞﾗﾁｮｳ","kana_address":"ﾒﾏﾝﾍﾞﾂｺｳｴﾝﾄﾞｵﾘ","pref":"北海道","city":"網走郡大空町","address":"女満別公園通"},
{"zip_code":"0992361","kana_pref":"ﾎｯｶｲﾄﾞｳ","kana_city":"ｱﾊﾞｼﾘｸﾞﾝｵｵｿﾞﾗﾁｮｳ","kana_address":"ﾒﾏﾝﾍﾞﾂｺﾅﾝ","pref":"北海道","city":"網走郡大空町","address":"女満別湖南"},
{"zip_code":"0992306","kana_pref":"ﾎｯｶｲﾄﾞｳ","kana_city":"ｱﾊﾞｼﾘｸﾞﾝｵｵｿﾞﾗﾁｮｳ","kana_address":"ﾒﾏﾝﾍﾞﾂｺﾊﾝ","pref":"北海道","city":"網走郡大空町","address":"女満別湖畔"},
{"zip_code":"0992356","kana_pref":"ﾎｯｶｲﾄﾞｳ","kana_city":"ｱﾊﾞｼﾘｸﾞﾝｵｵｿﾞﾗﾁｮｳ","kana_address":"ﾒﾏﾝﾍﾞﾂｼｮｳﾜ","pref":"北海道","city":"網走郡大空町","address":"女満別昭和"},
{"zip_code":"0992302","kana_pref":"ﾎｯｶｲﾄﾞｳ","kana_city":"ｱﾊﾞｼﾘｸﾞﾝｵｵｿﾞﾗﾁｮｳ","kana_address":"ﾒﾏﾝﾍﾞﾂｽﾐﾖｼ","pref":"北海道","city":"網走郡大空町","address":"女満別住吉"},
{"zip_code":"0992381","kana_pref":"ﾎｯｶｲﾄﾞｳ","kana_city":"ｱﾊﾞｼﾘｸﾞﾝｵｵｿﾞﾗﾁｮｳ","kana_address":"ﾒﾏﾝﾍﾞﾂﾀｲｾｲ","pref":"北海道","city":"網走郡大空町","address":"女満別大成"},
{"zip_code":"0992372","kana_pref":"ﾎｯｶｲﾄﾞｳ","kana_city":"ｱﾊﾞｼﾘｸﾞﾝｵｵｿﾞﾗﾁｮｳ","kana_address":"ﾒﾏﾝﾍﾞﾂﾀﾞｲﾄｳ","pref":"北海道","city":"網走郡大空町","address":"女満別大東"},
{"zip_code":"0992371","kana_pref":"ﾎｯｶｲﾄﾞｳ","kana_city":"ｱﾊﾞｼﾘｸﾞﾝｵｵｿﾞﾗﾁｮｳ","kana_address":"ﾒﾏﾝﾍﾞﾂﾁｭｳｵｳ","pref":"北海道","city":"網走郡大空町","address":"女満別中央"},
{"zip_code":"0992354","kana_pref":"ﾎｯｶｲﾄﾞｳ","kana_city":"ｱﾊﾞｼﾘｸﾞﾝｵｵｿﾞﾗﾁｮｳ","kana_address":"ﾒﾏﾝﾍﾞﾂﾁｮｳｺﾀﾞｲ","pref":"北海道","city":"網走郡大空町","address":"女満別眺湖台"},
{"zip_code":"0992305","kana_pref":"ﾎｯｶｲﾄﾞｳ","kana_city":"ｱﾊﾞｼﾘｸﾞﾝｵｵｿﾞﾗﾁｮｳ","kana_address":"ﾒﾏﾝﾍﾞﾂﾄｳﾖｳ","pref":"北海道","city":"網走郡大空町","address":"女満別東陽"},
{"zip_code":"0992373","kana_pref":"ﾎｯｶｲﾄﾞｳ","kana_city":"ｱﾊﾞｼﾘｸﾞﾝｵｵｿﾞﾗﾁｮｳ","kana_address":"ﾒﾏﾝﾍﾞﾂﾄﾓｴｻﾞﾜ","pref":"北海道","city":"網走郡大空町","address":"女満別巴沢"},
{"zip_code":"0992303","kana_pref":"ﾎｯｶｲﾄﾞｳ","kana_city":"ｱﾊﾞｼﾘｸﾞﾝｵｵｿﾞﾗﾁｮｳ","kana_address":"ﾒﾏﾝﾍﾞﾂﾄﾖｻﾄ","pref":"北海道","city":"網走郡大空町","address":"女満別豊里"},
{"zip_code":"0992321","kana_pref":"ﾎｯｶｲﾄﾞｳ","kana_city":"ｱﾊﾞｼﾘｸﾞﾝｵｵｿﾞﾗﾁｮｳ","kana_address":"ﾒﾏﾝﾍﾞﾂﾆｼ1ｼﾞｮｳ","pref":"北海道","city":"網走郡大空町","address":"女満別西一条"},
{"zip_code":"0992322","kana_pref":"ﾎｯｶｲﾄﾞｳ","kana_city":"ｱﾊﾞｼﾘｸﾞﾝｵｵｿﾞﾗﾁｮｳ","kana_address":"ﾒﾏﾝﾍﾞﾂﾆｼ2ｼﾞｮｳ","pref":"北海道","city":"網走郡大空町","address":"女満別西二条"},
{"zip_code":"0992323","kana_pref":"ﾎｯｶｲﾄﾞｳ","kana_city":"ｱﾊﾞｼﾘｸﾞﾝｵｵｿﾞﾗﾁｮｳ","kana_address":"ﾒﾏﾝﾍﾞﾂﾆｼ3ｼﾞｮｳ","pref":"北海道","city":"網走郡大空町","address":"女満別西三条"},
{"zip_code":"0992324","kana_pref":"ﾎｯｶｲﾄﾞｳ","kana_city":"ｱﾊﾞｼﾘｸﾞﾝｵｵｿﾞﾗﾁｮｳ","kana_address":"ﾒﾏﾝﾍﾞﾂﾆｼ4ｼﾞｮｳ","pref":"北海道","city":"網走郡大空町","address":"女満別西四条"},
{"zip_code":"0992325","kana_pref":"ﾎｯｶｲﾄﾞｳ","kana_city":"ｱﾊﾞｼﾘｸﾞﾝｵｵｿﾞﾗﾁｮｳ","kana_address":"ﾒﾏﾝﾍﾞﾂﾆｼ5ｼﾞｮｳ","pref":"北海道","city":"網走郡大空町","address":"女満別西五条"},
{"zip_code":"0992326","kana_pref":"ﾎｯｶｲﾄﾞｳ","kana_city":"ｱﾊﾞｼﾘｸﾞﾝｵｵｿﾞﾗﾁｮｳ","kana_address":"ﾒﾏﾝﾍﾞﾂﾆｼ6ｼﾞｮｳ","pref":"北海道","city":"網走郡大空町","address":"女満別西六条"},
{"zip_code":"0992327","kana_pref":"ﾎｯｶｲﾄﾞｳ","kana_city":"ｱﾊﾞｼﾘｸﾞﾝｵｵｿﾞﾗﾁｮｳ","kana_address":"ﾒﾏﾝﾍﾞﾂﾆｼ7ｼﾞｮｳ","pref":"北海道","city":"網走郡大空町","address":"女満別西七条"},
{"zip_code":"0992383","kana_pref":"ﾎｯｶｲﾄﾞｳ","kana_city":"ｱﾊﾞｼﾘｸﾞﾝｵｵｿﾞﾗﾁｮｳ","kana_address":"ﾒﾏﾝﾍﾞﾂﾆｯｼﾝ","pref":"北海道","city":"網走郡大空町","address":"女満別日進"},
{"zip_code":"0992311","kana_pref":"ﾎｯｶｲﾄﾞｳ","kana_city":"ｱﾊﾞｼﾘｸﾞﾝｵｵｿﾞﾗﾁｮｳ","kana_address":"ﾒﾏﾝﾍﾞﾂﾋｶﾞｼ1ｼﾞｮｳ","pref":"北海道","city":"網走郡大空町","address":"女満別東一条"},
{"zip_code":"0992312","kana_pref":"ﾎｯｶｲﾄﾞｳ","kana_city":"ｱﾊﾞｼﾘｸﾞﾝｵｵｿﾞﾗﾁｮｳ","kana_address":"ﾒﾏﾝﾍﾞﾂﾋｶﾞｼ2ｼﾞｮｳ","pref":"北海道","city":"網走郡大空町","address":"女満別東二条"},
{"zip_code":"0992301","kana_pref":"ﾎｯｶｲﾄﾞｳ","kana_city":"ｱﾊﾞｼﾘｸﾞﾝｵｵｿﾞﾗﾁｮｳ","kana_address":"ﾒﾏﾝﾍﾞﾂﾎﾝｺﾞｳ","pref":"北海道","city":"網走郡大空町","address":"女満別本郷"},
{"zip_code":"0992310","kana_pref":"ﾎｯｶｲﾄﾞｳ","kana_city":"ｱﾊﾞｼﾘｸﾞﾝｵｵｿﾞﾗﾁｮｳ","kana_address":"ﾒﾏﾝﾍﾞﾂﾎﾝﾄﾞｵﾘ","pref":"北海道","city":"網走郡大空町","address":"女満別本通"},
{"zip_code":"0992355","kana_pref":"ﾎｯｶｲﾄﾞｳ","kana_city":"ｱﾊﾞｼﾘｸﾞﾝｵｵｿﾞﾗﾁｮｳ","kana_address":"ﾒﾏﾝﾍﾞﾂﾕｳﾋﾀﾞｲ","pref":"北海道","city":"網走郡大空町","address":"女満別夕陽台"}]}