{"zip_code":[
{"zip_code":"1000000","kana_pref":"ﾄｳｷｮｳﾄ","kana_city":"ﾁﾖﾀﾞｸ","kana_address":"","pref":"東京都","city":"千代田区","address":""},
{"zip_code":"1000011","kana_pref":"ﾄｳｷｮｳﾄ","kana_city":"ﾁﾖﾀﾞｸ","kana_address":"ｳﾁｻｲﾜｲﾁｮｳ","pref":"東京都","city":"千代田区","address":"内幸町"},
{"zip_code":"1000004","kana_pref":"ﾄｳｷｮｳﾄ","kana_city":"ﾁﾖﾀﾞｸ","kana_address":"ｵｵﾃﾏﾁ","pref":"東京都","city":"千代田区","address":"大手町"},
{"zip_code":"1006890","kana_pref":"ﾄｳｷｮｳﾄ","kana_city":"ﾁﾖﾀﾞｸ","kana_address":"ｵｵﾃﾏﾁｼﾞｪｲｴｲﾋﾞﾙ","pref":"東京都","city":"千代田区","address":"大手町ＪＡビル"},
{"zip_code":"1006801","kana_pref":"ﾄｳｷｮｳﾄ","kana_city":"ﾁﾖﾀﾞｸ","kana_address":"ｵｵﾃﾏﾁｼﾞｪｲｴｲﾋﾞﾙ","pref":"東京都","city":"千代田区","address":"大手町ＪＡビル"},
{"zip_code":"1006802","kana_pref":"ﾄｳｷｮｳﾄ","kana_city":"ﾁﾖﾀﾞｸ","kana_address":"ｵｵﾃﾏﾁｼﾞｪｲｴｲﾋﾞﾙ","pref":"東京都","city":"千代田区","address":"大手町ＪＡビル"},
{"zip_code":"1006803","kana_pref":"ﾄｳｷｮｳﾄ","kana_city":"ﾁﾖﾀﾞｸ","kana_address":"ｵｵﾃﾏﾁｼﾞｪｲｴｲﾋﾞﾙ","pref":"東京都","city":"千代田区","address":"大手町ＪＡビル"},
{"zip_code":"1006804","kana_pref":"ﾄｳｷｮｳﾄ","kana_city":"ﾁﾖﾀﾞｸ","kana_address":"ｵｵﾃﾏﾁｼﾞｪｲｴｲﾋﾞﾙ","pref":"東京都","city":"千代田区","address":"大手町ＪＡビル"},
{"zip_code":"1006805","kana_pref":"ﾄｳｷｮｳﾄ","kana_city":"ﾁﾖﾀﾞｸ","kana_address":"ｵｵﾃﾏﾁｼﾞｪｲｴｲﾋﾞﾙ","pref":"東京都","city":"千代田区","address":"大手町ＪＡビル"},
{"zip_code":"1006806","kana_pref":"ﾄｳｷｮｳﾄ","kana_city":"ﾁﾖﾀﾞｸ","kana_address":"ｵｵﾃﾏﾁｼﾞｪｲｴｲﾋﾞﾙ","pref":"東京都","city":"千代田区","address":"大手町ＪＡビル"},
{"zip_code":"1006807","kana_pref":"ﾄｳｷｮｳﾄ","kana_city":"ﾁﾖﾀﾞｸ","kana_address":"ｵｵﾃﾏﾁｼﾞｪｲｴｲﾋﾞﾙ","pref":"東京都","city":"千代田区","address":"大手町ＪＡビル"},
{"zip_code":"1006808","kana_pref":"ﾄｳｷｮｳﾄ","kana_city":"ﾁﾖﾀﾞｸ","kana_address":"ｵｵﾃﾏﾁｼﾞｪｲｴｲﾋﾞﾙ","pref":"東京都","city":"千代田区","address":"大手町ＪＡビル"},
{"zip_code":"1006809","kana_pref":"ﾄｳｷｮｳﾄ","kana_city":"ﾁﾖﾀﾞｸ","kana_address":"ｵｵﾃﾏﾁｼﾞｪｲｴｲﾋﾞﾙ","pref":"東京都","city":"千代田区","address":"大手町ＪＡビル"},
{"zip_code":"1006810","kana_pref":"ﾄｳｷｮｳﾄ","kana_city":"ﾁﾖﾀﾞｸ","kana_address":"ｵｵﾃﾏﾁｼﾞｪｲｴｲﾋﾞﾙ","pref":"東京都","city":"千代田区","address":"大手町ＪＡビル"},
{"zip_code":"1006811","kana_pref":"ﾄｳｷｮｳﾄ","kana_city":"ﾁﾖﾀﾞｸ","kana_address":"ｵｵﾃﾏﾁｼﾞｪｲｴｲﾋﾞﾙ","pref":"東京都","city":"千代田区","address":"大手町ＪＡビル"},
{"zip_code":"1006812","kana_pref":"ﾄｳｷｮｳﾄ","kana_city":"ﾁﾖﾀﾞｸ","kana_address":"ｵｵﾃﾏﾁｼﾞｪｲｴｲﾋﾞﾙ","pref":"東京都","city":"千代田区","address":"大手町ＪＡビル"},
{"zip_code":"1006813","kana_pref":"ﾄｳｷｮｳﾄ","kana_city":"ﾁﾖﾀﾞｸ","kana_address":"ｵｵﾃﾏﾁｼﾞｪｲｴｲﾋﾞﾙ","pref":"東京都","city":"千代田区","address":"大手町ＪＡビル"},
{"zip_code":"1006814","kana_pref":"ﾄｳｷｮｳﾄ","kana_city":"ﾁﾖﾀﾞｸ","kana_address":"ｵｵﾃﾏﾁｼﾞｪｲｴｲﾋﾞﾙ","pref":"東京都","city":"千代田区","address":"大手町ＪＡビル"},
{"zip_code":"1006815","kana_pref":"ﾄｳｷｮｳﾄ","kana_city":"ﾁﾖﾀﾞｸ","kana_address":"ｵｵﾃﾏﾁｼﾞｪｲｴｲﾋﾞﾙ","pref":"東京都","city":"千代田区","address":"大手町ＪＡビル"},
{"zip_code":"1006816","kana_pref":"ﾄｳｷｮｳﾄ","kana_city":"ﾁﾖﾀﾞｸ","kana_address":"ｵｵﾃﾏﾁｼﾞｪｲｴｲﾋﾞﾙ","pref":"東京都","city":"千代田区","address":"大手町ＪＡビル"},
{"zip_code":"1006817","kana_pref":"ﾄｳｷｮｳﾄ","kana_city":"ﾁﾖﾀﾞｸ","kana_address":"ｵｵﾃﾏﾁｼﾞｪｲｴｲﾋﾞﾙ","pref":"東京都","city":"千代田区","address":"大手町ＪＡビル"},
{"zip_code":"1006818","kana_pref":"ﾄｳｷｮｳﾄ","kana_city":"ﾁﾖﾀﾞｸ","kana_address":"ｵｵﾃﾏﾁｼﾞｪｲｴｲﾋﾞﾙ","pref":"東京都","city":"千代田区","address":"大手町ＪＡビル"},
{"zip_code":"1006819","kana_pref":"ﾄｳｷｮｳﾄ","kana_city":"ﾁﾖﾀﾞｸ","kana_address":"ｵｵﾃﾏﾁｼﾞｪｲｴｲﾋﾞﾙ","pref":"東京都","city":"千代田区","address":"大手町ＪＡビル"},
{"zip_code":"1006820","kana_pref":"ﾄｳｷｮｳﾄ","kana_city":"ﾁﾖﾀﾞｸ","kana_address":"ｵｵﾃﾏﾁｼﾞｪｲｴｲﾋﾞﾙ","pref":"東京都","city":"千代田区","address":"大手町ＪＡビル"},
{"zip_code":"1006821","kana_pref":"ﾄｳｷｮｳﾄ","kana_city":"ﾁﾖﾀﾞｸ","kana_address":"ｵｵﾃﾏﾁｼﾞｪｲｴｲﾋﾞﾙ","pref":"東京都","city":"千代田区","address":"大手町ＪＡビル"},
{"zip_code":"1006822","kana_pref":"ﾄｳｷｮｳﾄ","kana_city":"ﾁﾖﾀﾞｸ","kana_address":"ｵｵﾃﾏﾁｼﾞｪｲｴｲﾋﾞﾙ","pref":"東京都","city":"千代田区","address":"大手町ＪＡビル"},
{"zip_code":"1006823","kana_pref":"ﾄｳｷｮｳﾄ","kana_city":"ﾁﾖﾀﾞｸ","kana_address":"ｵｵﾃﾏﾁｼﾞｪｲｴｲﾋﾞﾙ","pref":"東京都","city":"千代田区","address":"大手町ＪＡビル"},
{"zip_code":"1006824","kana_pref":"ﾄｳｷｮｳﾄ","kana_city":"ﾁﾖﾀﾞｸ","kana_address":"ｵｵﾃﾏﾁｼﾞｪｲｴｲﾋﾞﾙ","pref":"東京都","city":"千代田区","address":"大手町ＪＡビル"},
{"zip_code":"1006825","kana_pref":"ﾄｳｷｮｳﾄ","kana_city":"ﾁﾖﾀﾞｸ","kana_address":"ｵｵﾃﾏﾁｼﾞｪｲｴｲﾋﾞﾙ","pref":"東京都","city":"千代田区","address":"大手町ＪＡビル"},
{"zip_code":"1006826","kana_pref":"ﾄｳｷｮｳﾄ","kana_city":"ﾁﾖﾀﾞｸ","kana_address":"ｵｵﾃﾏﾁｼﾞｪｲｴｲﾋﾞﾙ","pref":"東京都","city":"千代田区","address":"大手町ＪＡビル"},
{"zip_code":"1006827","kana_pref":"ﾄｳｷｮｳﾄ","kana_city":"ﾁﾖﾀﾞｸ","kana_address":"ｵｵﾃﾏﾁｼﾞｪｲｴｲﾋﾞﾙ","pref":"東京都","city":"千代田区","address":"大手町ＪＡビル"},
{"zip_code":"1006828","kana_pref":"ﾄｳｷｮｳﾄ","kana_city":"ﾁﾖﾀﾞｸ","kana_address":"ｵｵﾃﾏﾁｼﾞｪｲｴｲﾋﾞﾙ","pref":"東京都","city":"千代田区","address":"大手町ＪＡビル"},
{"zip_code":"1006829","kana_pref":"ﾄｳｷｮｳﾄ","kana_city":"ﾁﾖﾀﾞｸ","kana_address":"ｵｵﾃﾏﾁｼﾞｪｲｴｲﾋﾞﾙ","pref":"東京都","city":"千代田区","address":"大手町ＪＡビル"},
{"zip_code":"1006830","kana_pref":"ﾄｳｷｮｳﾄ","kana_city":"ﾁﾖﾀﾞｸ","kana_address":"ｵｵﾃﾏﾁｼﾞｪｲｴｲﾋﾞﾙ","pref":"東京都","city":"千代田区","address":"大手町ＪＡビル"},
{"zip_code":"1006831","kana_pref":"ﾄｳｷｮｳﾄ","kana_city":"ﾁﾖﾀﾞｸ","kana_address":"ｵｵﾃﾏﾁｼﾞｪｲｴｲﾋﾞﾙ","pref":"東京都","city":"千代田区","address":"大手町ＪＡビル"},
{"zip_code":"1006832","kana_pref":"ﾄｳｷｮｳﾄ","kana_city":"ﾁﾖﾀﾞｸ","kana_address":"ｵｵﾃﾏﾁｼﾞｪｲｴｲﾋﾞﾙ","pref":"東京都","city":"千代田区","address":"大手町ＪＡビル"},
{"zip_code":"1006833","kana_pref":"ﾄｳｷｮｳﾄ","kana_city":"ﾁﾖﾀﾞｸ","kana_address":"ｵｵﾃﾏﾁｼﾞｪｲｴｲﾋﾞﾙ","pref":"東京都","city":"千代田区","address":"大手町ＪＡビル"},
{"zip_code":"1006834","kana_pref":"ﾄｳｷｮｳﾄ","kana_city":"ﾁﾖﾀﾞｸ","kana_address":"ｵｵﾃﾏﾁｼﾞｪｲｴｲﾋﾞﾙ","pref":"東京都","city":"千代田区","address":"大手町ＪＡビル"},
{"zip_code":"1006835","kana_pref":"ﾄｳｷｮｳﾄ","kana_city":"ﾁﾖﾀﾞｸ","kana_address":"ｵｵﾃﾏﾁｼﾞｪｲｴｲﾋﾞﾙ","pref":"東京都","city":"千代田区","address":"大手町ＪＡビル"},
{"zip_code":"1006836","kana_pref":"ﾄｳｷｮｳﾄ","kana_city":"ﾁﾖﾀﾞｸ","kana_address":"ｵｵﾃﾏﾁｼﾞｪｲｴｲﾋﾞﾙ","pref":"東京都","city":"千代田区","address":"大手町ＪＡビル"},
{"zip_code":"1006837","kana_pref":"ﾄｳｷｮｳﾄ","kana_city":"ﾁﾖﾀﾞｸ","kana_address":"ｵｵﾃﾏﾁｼﾞｪｲｴｲﾋﾞﾙ","pref":"東京都","city":"千代田区","address":"大手町ＪＡビル"},
{"zip_code":"1000013","kana_pref":"ﾄｳｷｮｳﾄ","kana_city":"ﾁﾖﾀﾞｸ","kana_address":"ｶｽﾐｶﾞｾｷ","pref":"東京都","city":"千代田区","address":"霞が関"},
{"zip_code":"1006090","kana_pref":"ﾄｳｷｮｳﾄ","kana_city":"ﾁﾖﾀﾞｸ","kana_address":"ｶｽﾐｶﾞｾｷｶｽﾐｶﾞｾｷﾋﾞﾙ","pref":"東京都","city":"千代田区","address":"霞が関霞が関ビル"},
{"zip_code":"1006001","kana_pref":"ﾄｳｷｮｳﾄ","kana_city":"ﾁﾖﾀﾞｸ","kana_address":"ｶｽﾐｶﾞｾｷｶｽﾐｶﾞｾｷﾋﾞﾙ","pref":"東京都","city":"千代田区","address":"霞が関霞が関ビル"},
{"zip_code":"1006002","kana_pref":"ﾄｳｷｮｳﾄ","kana_city":"ﾁﾖﾀﾞｸ","kana_address":"ｶｽﾐｶﾞｾｷｶｽﾐｶﾞｾｷﾋﾞﾙ","pref":"東京都","city":"千代田区","address":"霞が関霞が関ビル"},
{"zip_code":"1006003","kana_pref":"ﾄｳｷｮｳﾄ","kana_city":"ﾁﾖﾀﾞｸ","kana_address":"ｶｽﾐｶﾞｾｷｶｽﾐｶﾞｾｷﾋﾞﾙ","pref":"東京都","city":"千代田区","address":"霞が関霞が関ビル"},
{"zip_code":"1006004","kana_pref":"ﾄｳｷｮｳﾄ","kana_city":"ﾁﾖﾀﾞｸ","kana_address":"ｶｽﾐｶﾞｾｷｶｽﾐｶﾞｾｷﾋﾞﾙ","pref":"東京都","city":"千代田区","address":"霞が関霞が関ビル"},
{"zip_code":"1006005","kana_pref":"ﾄｳｷｮｳﾄ","kana_city":"ﾁﾖﾀﾞｸ","kana_address":"ｶｽﾐｶﾞｾｷｶｽﾐｶﾞｾｷﾋﾞﾙ","pref":"東京都","city":"千代田区","address":"霞が関霞が関ビル"},
{"zip_code":"1006006","kana_pref":"ﾄｳｷｮｳﾄ","kana_city":"ﾁﾖﾀﾞｸ","kana_address":"ｶｽﾐｶﾞｾｷｶｽﾐｶﾞｾｷﾋﾞﾙ","pref":"東京都","city":"千代田区","address":"霞が関霞が関ビル"},
{"zip_code":"1006007","kana_pref":"ﾄｳｷｮｳﾄ","kana_city":"ﾁﾖﾀﾞｸ","kana_address":"ｶｽﾐｶﾞｾｷｶｽﾐｶﾞｾｷﾋﾞﾙ","pref":"東京都","city":"千代田区","address":"霞が関霞が関ビル"},
{"zip_code":"1006008","kana_pref":"ﾄｳｷｮｳﾄ","kana_city":"ﾁﾖﾀﾞｸ","kana_address":"ｶｽﾐｶﾞｾｷｶｽﾐｶﾞｾｷﾋﾞﾙ","pref":"東京都","city":"千代田区","address":"霞が関霞が関ビル"},
{"zip_code":"1006009","kana_pref":"ﾄｳｷｮｳﾄ","kana_city":"ﾁﾖﾀﾞｸ","kana_address":"ｶｽﾐｶﾞｾｷｶｽﾐｶﾞｾｷﾋﾞﾙ","pref":"東京都","city":"千代田区","address":"霞が関霞が関ビル"},
{"zip_code":"1006010","kana_pref":"ﾄｳｷｮｳﾄ","kana_city":"ﾁﾖﾀﾞｸ","kana_address":"ｶｽﾐｶﾞｾｷｶｽﾐｶﾞｾｷﾋﾞﾙ","pref":"東京都","city":"千代田区","address":"霞が関霞が関ビル"},
{"zip_code":"1006011","kana_pref":"ﾄｳｷｮｳﾄ","kana_city":"ﾁﾖﾀﾞｸ","kana_address":"ｶｽﾐｶﾞｾｷｶｽﾐｶﾞｾｷﾋﾞﾙ","pref":"東京都","city":"千代田区","address":"霞が関霞が関ビル"},
{"zip_code":"1006012","kana_pref":"ﾄｳｷｮｳﾄ","kana_city":"ﾁﾖﾀﾞｸ","kana_address":"ｶｽﾐｶﾞｾｷｶｽﾐｶﾞｾｷﾋﾞﾙ","pref":"東京都","city":"千代田区","address":"霞が関霞が関ビル"},
{"zip_code":"1006013","kana_pref":"ﾄｳｷｮｳﾄ","kana_city":"ﾁﾖﾀﾞｸ","kana_address":"ｶｽﾐｶﾞｾｷｶｽﾐｶﾞｾｷﾋﾞﾙ","pref":"東京都","city":"千代田区","address":"霞が関霞が関ビル"},
{"zip_code":"1006014","kana_pref":"ﾄｳｷｮｳﾄ","kana_city":"ﾁﾖﾀﾞｸ","kana_address":"ｶｽﾐｶﾞｾｷｶｽﾐｶﾞｾｷﾋﾞﾙ","pref":"東京都","city":"千代田区","address":"霞が関霞が関ビル"},
{"zip_code":"1006015","kana_pref":"ﾄｳｷｮｳﾄ","kana_city":"ﾁﾖﾀﾞｸ","kana_address":"ｶｽﾐｶﾞｾｷｶｽﾐｶﾞｾｷﾋﾞﾙ","pref":"東京都","city":"千代田区","address":"霞が関霞が関ビル"},
{"zip_code":"1006016","kana_pref":"ﾄｳｷｮｳﾄ","kana_city":"ﾁﾖﾀﾞｸ","kana_address":"ｶｽﾐｶﾞｾｷｶｽﾐｶﾞｾｷﾋﾞﾙ","pref":"東京都","city":"千代田区","address":"霞が関霞が関ビル"},
{"zip_code":"1006017","kana_pref":"ﾄｳｷｮｳﾄ","kana_city":"ﾁﾖﾀﾞｸ","kana_address":"ｶｽﾐｶﾞｾｷｶｽﾐｶﾞｾｷﾋﾞﾙ","pref":"東京都","city":"千代田区","address":"霞が関霞が関ビル"},
{"zip_code":"1006018","kana_pref":"ﾄｳｷｮｳﾄ","kana_city":"ﾁﾖﾀﾞｸ","kana_address":"ｶｽﾐｶﾞｾｷｶｽﾐｶﾞｾｷﾋﾞﾙ","pref":"東京都","city":"千代田区","address":"霞が関霞が関ビル"},
{"zip_code":"1006019","kana_pref":"ﾄｳｷｮｳﾄ","kana_city":"ﾁﾖﾀﾞｸ","kana_address":"ｶｽﾐｶﾞｾｷｶｽﾐｶﾞｾｷﾋﾞﾙ","pref":"東京都","city":"千代田区","address":"霞が関霞が関ビル"},
{"zip_code":"1006020","kana_pref":"ﾄｳｷｮｳﾄ","kana_city":"ﾁﾖﾀﾞｸ","kana_address":"ｶｽﾐｶﾞｾｷｶｽﾐｶﾞｾｷﾋﾞﾙ","pref":"東京都","city":"千代田区","address":"霞が関霞が関ビル"},
{"zip_code":"1006021","kana_pref":"ﾄｳｷｮｳﾄ","kana_city":"ﾁﾖﾀﾞｸ","kana_address":"ｶｽﾐｶﾞｾｷｶｽﾐｶﾞｾｷﾋﾞﾙ","pref":"東京都","city":"千代田区","address":"霞が関霞が関ビル"},
{"zip_code":"1006022","kana_pref":"ﾄｳｷｮｳﾄ","kana_city":"ﾁﾖﾀﾞｸ","kana_address":"ｶｽﾐｶﾞｾｷｶｽﾐｶﾞｾｷﾋﾞﾙ","pref":"東京都","city":"千代田区","address":"霞が関霞が関ビル"},
{"zip_code":"1006023","kana_pref":"ﾄｳｷｮｳﾄ","kana_city":"ﾁﾖﾀﾞｸ","kana_address":"ｶｽﾐｶﾞｾｷｶｽﾐｶﾞｾｷﾋﾞﾙ","pref":"東京都","city":"千代田区","address":"霞が関霞が関ビル"},
{"zip_code":"1006024","kana_pref":"ﾄｳｷｮｳﾄ","kana_city":"ﾁﾖﾀﾞｸ","kana_address":"ｶｽﾐｶﾞｾｷｶｽﾐｶﾞｾｷﾋﾞﾙ","pref":"東京都","city":"千代田区","address":"霞が関霞が関ビル"},
{"zip_code":"1006025","kana_pref":"ﾄｳｷｮｳﾄ","kana_city":"ﾁﾖﾀﾞｸ","kana_address":"ｶｽﾐｶﾞｾｷｶｽﾐｶﾞｾｷﾋﾞﾙ","pref":"東京都","city":"千代田区","address":"霞が関霞が関ビル"},
{"zip_code":"1006026","kana_pref":"ﾄｳｷｮｳﾄ","kana_city":"ﾁﾖﾀﾞｸ","kana_address":"ｶｽﾐｶﾞｾｷｶｽﾐｶﾞｾｷﾋﾞﾙ","pref":"東京都","city":"千代田区","address":"霞が関霞が関ビル"},
{"zip_code":"1006027","kana_pref":"ﾄｳｷｮｳﾄ","kana_city":"ﾁﾖﾀﾞｸ","kana_address":"ｶｽﾐｶﾞｾｷｶｽﾐｶﾞｾｷﾋﾞﾙ","pref":"東京都","city":"千代田区","address":"霞が関霞が関ビル"},
{"zip_code":"1006028","kana_pref":"ﾄｳｷｮｳﾄ","kana_city":"ﾁﾖﾀﾞｸ","kana_address":"ｶｽﾐｶﾞｾｷｶｽﾐｶﾞｾｷﾋﾞﾙ","pref":"東京都","city":"千代田区","address":"霞が関霞が関ビル"},
{"zip_code":"1006029","kana_pref":"ﾄｳｷｮｳﾄ","kana_city":"ﾁﾖﾀﾞｸ","kana_address":"ｶｽﾐｶﾞｾｷｶｽﾐｶﾞｾｷﾋﾞﾙ","pref":"東京都","city":"千代田区","address":"霞が関霞が関ビル"},
{"zip_code":"1006030","kana_pref":"ﾄｳｷｮｳﾄ","kana_city":"ﾁﾖﾀﾞｸ","kana_address":"ｶｽﾐｶﾞｾｷｶｽﾐｶﾞｾｷﾋﾞﾙ","pref":"東京都","city":"千代田区","address":"霞が関霞が関ビル"},
{"zip_code":"1006031","kana_pref":"ﾄｳｷｮｳﾄ","kana_city":"ﾁﾖﾀﾞｸ","kana_address":"ｶｽﾐｶﾞｾｷｶｽﾐｶﾞｾｷﾋﾞﾙ","pref":"東京都","city":"千代田区","address":"霞が関霞が関ビル"},
{"zip_code":"1006032","kana_pref":"ﾄｳｷｮｳﾄ","kana_city":"ﾁﾖﾀﾞｸ","kana_address":"ｶｽﾐｶﾞｾｷｶｽﾐｶﾞｾｷﾋﾞﾙ","pref":"東京都","city":"千代田区","address":"霞が関霞が関ビル"},
{"zip_code":"1006033","kana_pref":"ﾄｳｷｮｳﾄ","kana_city":"ﾁﾖﾀﾞｸ","kana_address":"ｶｽﾐｶﾞｾｷｶｽﾐｶﾞｾｷﾋﾞﾙ","pref":"東京都","city":"千代田区","address":"霞が関霞が関ビル"},
{"zip_code":"1006034","kana_pref":"ﾄｳｷｮｳﾄ","kana_city":"ﾁﾖﾀﾞｸ","kana_address":"ｶｽﾐｶﾞｾｷｶｽﾐｶﾞｾｷﾋﾞﾙ","pref":"東京都","city":"千代田区","address":"霞が関霞が関ビル"},
{"zip_code":"1006035","kana_pref":"ﾄｳｷｮｳﾄ","kana_city":"ﾁﾖﾀﾞｸ","kana_address":"ｶｽﾐｶﾞｾｷｶｽﾐｶﾞｾｷﾋﾞﾙ","pref":"東京都","city":"千代田区","address":"霞が関霞が関ビル"},
{"zip_code":"1006036","kana_pref":"ﾄｳｷｮｳﾄ","kana_city":"ﾁﾖﾀﾞｸ","kana_address":"ｶｽﾐｶﾞｾｷｶｽﾐｶﾞｾｷﾋﾞﾙ","pref":"東京都","city":"千代田区","address":"霞が関霞が関ビル"},
{"zip_code":"1000002","kana_pref":"ﾄｳｷｮｳﾄ","kana_city":"ﾁﾖﾀﾞｸ","kana_address":"ｺｳｷｮｶﾞｲｴﾝ","pref":"東京都","city":"千代田区","address":"皇居外苑"},
{"zip_code":"1000001","kana_pref":"ﾄｳｷｮｳﾄ","kana_city":"ﾁﾖﾀﾞｸ","kana_address":"ﾁﾖﾀﾞ","pref":"東京都","city":"千代田区","address":"千代田"},
{"zip_code":"1000014","kana_pref":"ﾄｳｷｮｳﾄ","kana_city":"ﾁﾖﾀﾞｸ","kana_address":"ﾅｶﾞﾀﾁｮｳ","pref":"東京都","city":"千代田区","address":"永田町"},
{"zip_code":"1006190","kana_pref":"ﾄｳｷｮｳﾄ","kana_city":"ﾁﾖﾀﾞｸ","kana_address":"ﾅｶﾞﾀﾁｮｳｻﾝﾉｳﾊﾟｰｸﾀﾜｰ","pref":"東京都","city":"千代田区","address":"永田町山王パークタワー"},
{"zip_code":"1006101","kana_pref":"ﾄｳｷｮｳﾄ","kana_city":"ﾁﾖﾀﾞｸ","kana_address":"ﾅｶﾞﾀﾁｮｳｻﾝﾉｳﾊﾟｰｸﾀﾜｰ","pref":"東京都","city":"千代田区","address":"永田町山王パークタワー"},
{"zip_code":"1006102","kana_pref":"ﾄｳｷｮｳﾄ","kana_city":"ﾁﾖﾀﾞｸ","kana_address":"ﾅｶﾞﾀﾁｮｳｻﾝﾉｳﾊﾟｰｸﾀﾜｰ","pref":"東京都","city":"千代田区","address":"永田町山王パークタワー"},
{"zip_code":"1006103","kana_pref":"ﾄｳｷｮｳﾄ","kana_city":"ﾁﾖﾀﾞｸ","kana_address":"ﾅｶﾞﾀﾁｮｳｻﾝﾉｳﾊﾟｰｸﾀﾜｰ","pref":"東京都","city":"千代田区","address":"永田町山王パークタワー"},
{"zip_code":"1006104","kana_pref":"ﾄｳｷｮｳﾄ","kana_city":"ﾁﾖﾀﾞｸ","kana_address":"ﾅｶﾞﾀﾁｮｳｻﾝﾉｳﾊﾟｰｸﾀﾜｰ","pref":"東京都","city":"千代田区","address":"永田町山王パークタワー"},
{"zip_code":"1006105","kana_pref":"ﾄｳｷｮｳﾄ","kana_city":"ﾁﾖﾀﾞｸ","kana_address":"ﾅｶﾞﾀﾁｮｳｻﾝﾉｳﾊﾟｰｸﾀﾜｰ","pref":"東京都","city":"千代田区","address":"永田町山王パークタワー"},
{"zip_code":"1006106","kana_pref":"ﾄｳｷｮｳﾄ","kana_city":"ﾁﾖﾀﾞｸ","kana_address":"ﾅｶﾞﾀﾁｮｳｻﾝﾉｳﾊﾟｰｸﾀﾜｰ","pref":"東京都","city":"千代田区","address":"永田町山王パークタワー"},
{"zip_code":"1006107","kana_pref":"ﾄｳｷｮｳﾄ","kana_city":"ﾁﾖﾀﾞｸ","kana_address":"ﾅｶﾞﾀﾁｮｳｻﾝﾉｳﾊﾟｰｸﾀﾜｰ","pref":"東京都","city":"千代田区","address":"永田町山王パークタワー"},
{"zip_code":"1006108","kana_pref":"ﾄｳｷｮｳﾄ","kana_city":"ﾁﾖﾀﾞｸ","kana_address":"ﾅｶﾞﾀﾁｮｳｻﾝﾉｳﾊﾟｰｸﾀﾜｰ","pref":"東京都","city":"千代田区","address":"永田町山王パークタワー"},
{"zip_code":"1006109","kana_pref":"ﾄｳｷｮｳﾄ","kana_city":"ﾁﾖﾀﾞｸ","kana_address":"ﾅｶﾞﾀﾁｮｳｻﾝﾉｳﾊﾟｰｸﾀﾜｰ","pref":"東京都","city":"千代田区","address":"永田町山王パークタワー"},
{"zip_code":"1006110","kana_pref":"ﾄｳｷｮｳﾄ","kana_city":"ﾁﾖﾀﾞｸ","kana_address":"ﾅｶﾞﾀﾁｮｳｻﾝﾉｳﾊﾟｰｸﾀﾜｰ","pref":"東京都","city":"千代田区","address":"永田町山王パークタワー"},
{"zip_code":"1006111","kana_pref":"ﾄｳｷｮｳﾄ","kana_city":"ﾁﾖﾀﾞｸ","kana_address":"ﾅｶﾞﾀﾁｮｳｻﾝﾉｳﾊﾟｰｸﾀﾜｰ","pref":"東京都","city":"千代田区","address":"永田町山王パークタワー"},
{"zip_code":"1006112","kana_pref":"ﾄｳｷｮｳﾄ","kana_city":"ﾁﾖﾀﾞｸ","kana_address":"ﾅｶﾞﾀﾁｮｳｻﾝﾉｳﾊﾟｰｸﾀﾜｰ","pref":"東京都","city":"千代田区","address":"永田町山王パークタワー"},
{"zip_code":"1006113","kana_pref":"ﾄｳｷｮｳﾄ","kana_city":"ﾁﾖﾀﾞｸ","kana_address":"ﾅｶﾞﾀﾁｮｳｻﾝﾉｳﾊﾟｰｸﾀﾜｰ","pref":"東京都","city":"千代田区","address":"永田町山王パークタワー"},
{"zip_code":"1006114","kana_pref":"ﾄｳｷｮｳﾄ","kana_city":"ﾁﾖﾀﾞｸ","kana_address":"ﾅｶﾞﾀﾁｮｳｻﾝﾉｳﾊﾟｰｸﾀﾜｰ","pref":"東京都","city":"千代田区","address":"永田町山王パークタワー"},
{"zip_code":"1006115","kana_pref":"ﾄｳｷｮｳﾄ","kana_city":"ﾁﾖﾀﾞｸ","kana_address":"ﾅｶﾞﾀﾁｮｳｻﾝﾉｳﾊﾟｰｸﾀﾜｰ","pref":"東京都","city":"千代田区","address":"永田町山王パークタワー"},
{"zip_code":"1006116","kana_pref":"ﾄｳｷｮｳﾄ","kana_city":"ﾁﾖﾀﾞｸ","kana_address":"ﾅｶﾞﾀﾁｮｳｻﾝﾉｳﾊﾟｰｸﾀﾜｰ","pref":"東京都","city":"千代田区","address":"永田町山王パークタワー"},
{"zip_code":"1006117","kana_pref":"ﾄｳｷｮｳﾄ","kana_city":"ﾁﾖﾀﾞｸ","kana_address":"ﾅｶﾞﾀﾁｮｳｻﾝﾉｳﾊﾟｰｸﾀﾜｰ","pref":"東京都","city":"千代田区","address":"永田町山王パークタワー"},
{"zip_code":"1006118","kana_pref":"ﾄｳｷｮｳﾄ","kana_city":"ﾁﾖﾀﾞｸ","kana_address":"ﾅｶﾞﾀﾁｮｳｻﾝﾉｳﾊﾟｰｸﾀﾜｰ","pref":"東京都","city":"千代田区","address":"永田町山王パークタワー"},
{"zip_code":"1006119","kana_pref":"ﾄｳｷｮｳﾄ","kana_city":"ﾁﾖﾀﾞｸ","kana_address":"ﾅｶﾞﾀﾁｮｳｻﾝﾉｳﾊﾟｰｸﾀﾜｰ","pref":"東京都","city":"千代田区","address":"永田町山王パークタワー"},
{"zip_code":"1006120","kana_pref":"ﾄｳｷｮｳﾄ","kana_city":"ﾁﾖﾀﾞｸ","kana_address":"ﾅｶﾞﾀﾁｮｳｻﾝﾉｳﾊﾟｰｸﾀﾜｰ","pref":"東京都","city":"千代田区","address":"永田町山王パークタワー"},
{"zip_code":"1006121","kana_pref":"ﾄｳｷｮｳﾄ","kana_city":"ﾁﾖﾀﾞｸ","kana_address":"ﾅｶﾞﾀﾁｮｳｻﾝﾉｳﾊﾟｰｸﾀﾜｰ","pref":"東京都","city":"千代田区","address":"永田町山王パークタワー"},
{"zip_code":"1006122","kana_pref":"ﾄｳｷｮｳﾄ","kana_city":"ﾁﾖﾀﾞｸ","kana_address":"ﾅｶﾞﾀﾁｮｳｻﾝﾉｳﾊﾟｰｸﾀﾜｰ","pref":"東京都","city":"千代田区","address":"永田町山王パークタワー"},
{"zip_code":"1006123","kana_pref":"ﾄｳｷｮｳﾄ","kana_city":"ﾁﾖﾀﾞｸ","kana_address":"ﾅｶﾞﾀﾁｮｳｻﾝﾉｳﾊﾟｰｸﾀﾜｰ","pref":"東京都","city":"千代田区","address":"永田町山王パークタワー"},
{"zip_code":"1006124","kana_pref":"ﾄｳｷｮｳﾄ","kana_city":"ﾁﾖﾀﾞｸ","kana_address":"ﾅｶﾞﾀﾁｮｳｻﾝﾉｳﾊﾟｰｸﾀﾜｰ","pref":"東京都","city":"千代田区","address":"永田町山王パークタワー"},
{"zip_code":"1006125","kana_pref":"ﾄｳｷｮｳﾄ","kana_city":"ﾁﾖﾀﾞｸ","kana_address":"ﾅｶﾞﾀﾁｮｳｻﾝﾉｳﾊﾟｰｸﾀﾜｰ","pref":"東京都","city":"千代田区","address":"永田町山王パークタワー"},
{"zip_code":"1006126","kana_pref":"ﾄｳｷｮｳﾄ","kana_city":"ﾁﾖﾀﾞｸ","kana_address":"ﾅｶﾞﾀﾁｮｳｻﾝﾉｳﾊﾟｰｸﾀﾜｰ","pref":"東京都","city":"千代田区","address":"永田町山王パークタワー"},
{"zip_code":"1006127","kana_pref":"ﾄｳｷｮｳﾄ","kana_city":"ﾁﾖﾀﾞｸ","kana_address":"ﾅｶﾞﾀﾁｮｳｻﾝﾉｳﾊﾟｰｸﾀﾜｰ","pref":"東京都","city":"千代田区","address":"永田町山王パークタワー"},
{"zip_code":"1006128","kana_pref":"ﾄｳｷｮｳﾄ","kana_city":"ﾁﾖﾀﾞｸ","kana_address":"ﾅｶﾞﾀﾁｮｳｻﾝﾉｳﾊﾟｰｸﾀﾜｰ","pref":"東京都","city":"千代田区","address":"永田町山王パークタワー"},
{"zip_code":"1006129","kana_pref":"ﾄｳｷｮｳﾄ","kana_city":"ﾁﾖﾀﾞｸ","kana_address":"ﾅｶﾞﾀﾁｮｳｻﾝﾉｳﾊﾟｰｸﾀﾜｰ","pref":"東京都","city":"千代田区","address":"永田町山王パークタワー"},
{"zip_code":"1006130","kana_pref":"ﾄｳｷｮｳﾄ","kana_city":"ﾁﾖﾀﾞｸ","kana_address":"ﾅｶﾞﾀﾁｮｳｻﾝﾉｳﾊﾟｰｸﾀﾜｰ","pref":"東京都","city":"千代田区","address":"永田町山王パークタワー"},
{"zip_code":"1006131","kana_pref":"ﾄｳｷｮｳﾄ","kana_city":"ﾁﾖﾀﾞｸ","kana_address":"ﾅｶﾞﾀﾁｮｳｻﾝﾉｳﾊﾟｰｸﾀﾜｰ","pref":"東京都","city":"千代田区","address":"永田町山王パークタワー"},
{"zip_code":"1006132","kana_pref":"ﾄｳｷｮｳﾄ","kana_city":"ﾁﾖﾀﾞｸ","kana_address":"ﾅｶﾞﾀﾁｮｳｻﾝﾉｳﾊﾟｰｸﾀﾜｰ","pref":"東京都","city":"千代田区","address":"永田町山王パークタワー"},
{"zip_code":"1006133","kana_pref":"ﾄｳｷｮｳﾄ","kana_city":"ﾁﾖﾀﾞｸ","kana_address":"ﾅｶﾞﾀﾁｮｳｻﾝﾉｳﾊﾟｰｸﾀﾜｰ","pref":"東京都","city":"千代田区","address":"永田町山王パークタワー"},
{"zip_code":"1006134","kana_pref":"ﾄｳｷｮｳﾄ","kana_city":"ﾁﾖﾀﾞｸ","kana_address":"ﾅｶﾞﾀﾁｮｳｻﾝﾉｳﾊﾟｰｸﾀﾜｰ","pref":"東京都","city":"千代田区","address":"永田町山王パークタワー"},
{"zip_code":"1006135","kana_pref":"ﾄｳｷｮｳﾄ","kana_city":"ﾁﾖﾀﾞｸ","kana_address":"ﾅｶﾞﾀﾁｮｳｻﾝﾉｳﾊﾟｰｸﾀﾜｰ","pref":"東京都","city":"千代田区","address":"永田町山王パークタワー"},
{"zip_code":"1006136","kana_pref":"ﾄｳｷｮｳﾄ","kana_city":"ﾁﾖﾀﾞｸ","kana_address":"ﾅｶﾞﾀﾁｮｳｻﾝﾉｳﾊﾟｰｸﾀﾜｰ","pref":"東京都","city":"千代田区","address":"永田町山王パークタワー"},
{"zip_code":"1006137","kana_pref":"ﾄｳｷｮｳﾄ","kana_city":"ﾁﾖﾀﾞｸ","kana_address":"ﾅｶﾞﾀﾁｮｳｻﾝﾉｳﾊﾟｰｸﾀﾜｰ","pref":"東京都","city":"千代田区","address":"永田町山王パークタワー"},
{"zip_code":"1006138","kana_pref":"ﾄｳｷｮｳﾄ","kana_city":"ﾁﾖﾀﾞｸ","kana_address":"ﾅｶﾞﾀﾁｮｳｻﾝﾉｳﾊﾟｰｸﾀﾜｰ","pref":"東京都","city":"千代田区","address":"永田町山王パークタワー"},
{"zip_code":"1006139","kana_pref":"ﾄｳｷｮｳﾄ","kana_city":"ﾁﾖﾀﾞｸ","kana_address":"ﾅｶﾞﾀﾁｮｳｻﾝﾉｳﾊﾟｰｸﾀﾜｰ","pref":"東京都","city":"千代田区","address":"永田町山王パークタワー"},
{"zip_code":"1006140","kana_pref":"ﾄｳｷｮｳﾄ","kana_city":"ﾁﾖﾀﾞｸ","kana_address":"ﾅｶﾞﾀﾁｮｳｻﾝﾉｳﾊﾟｰｸﾀﾜｰ","pref":"東京都","city":"千代田区","address":"永田町山王パークタワー"},
{"zip_code":"1006141","kana_pref":"ﾄｳｷｮｳﾄ","kana_city":"ﾁﾖﾀﾞｸ","kana_address":"ﾅｶﾞﾀﾁｮｳｻﾝﾉｳﾊﾟｰｸﾀﾜｰ","pref":"東京都","city":"千代田区","address":"永田町山王パークタワー"},
{"zip_code":"1006142","kana_pref":"ﾄｳｷｮｳﾄ","kana_city":"ﾁﾖﾀﾞｸ","kana_address":"ﾅｶﾞﾀﾁｮｳｻﾝﾉｳﾊﾟｰｸﾀﾜｰ","pref":"東京都","city":"千代田区","address":"永田町山王パークタワー"},
{"zip_code":"1006143","kana_pref":"ﾄｳｷｮｳﾄ","kana_city":"ﾁﾖﾀﾞｸ","kana_address":"ﾅｶﾞﾀﾁｮｳｻﾝﾉｳﾊﾟｰｸﾀﾜｰ","pref":"東京都","city":"千代田区","address":"永田町山王パークタワー"},
{"zip_code":"1006144","kana_pref":"ﾄｳｷｮｳﾄ","kana_city":"ﾁﾖﾀﾞｸ","kana_address":"ﾅｶﾞﾀﾁｮｳｻﾝﾉｳﾊﾟｰｸﾀﾜｰ","pref":"東京都","city":"千代田区","address":"永田町山王パークタワー"},
{"zip_code":"1000003","kana_pref":"ﾄｳｷｮｳﾄ","kana_city":"ﾁﾖﾀﾞｸ","kana_address":"ﾋﾄﾂﾊﾞｼ","pref":"東京都","city":"千代田区","address":"一ツ橋"},
{"zip_code":"1000012","kana_pref":"ﾄｳｷｮｳﾄ","kana_city":"ﾁﾖﾀﾞｸ","kana_address":"ﾋﾋﾞﾔｺｳｴﾝ","pref":"東京都","city":"千代田区","address":"日比谷公園"},
{"zip_code":"1000005","kana_pref":"ﾄｳｷｮｳﾄ","kana_city":"ﾁﾖﾀﾞｸ","kana_address":"ﾏﾙﾉｳﾁ","pref":"東京都","city":"千代田区","address":"丸の内"},
{"zip_code":"1006690","kana_pref":"ﾄｳｷｮｳﾄ","kana_city":"ﾁﾖﾀﾞｸ","kana_address":"ﾏﾙﾉｳﾁｸﾞﾗﾝﾄｳｷｮｳｻｳｽﾀﾜｰ","pref":"東京都","city":"千代田区","address":"丸の内グラントウキョウサウスタワー"},
{"zip_code":"1006601","kana_pref":"ﾄｳｷｮｳﾄ","kana_city":"ﾁﾖﾀﾞｸ","kana_address":"ﾏﾙﾉｳﾁｸﾞﾗﾝﾄｳｷｮｳｻｳｽﾀﾜｰ","pref":"東京都","city":"千代田区","address":"丸の内グラントウキョウサウスタワー"},
{"zip_code":"1006602","kana_pref":"ﾄｳｷｮｳﾄ","kana_city":"ﾁﾖﾀﾞｸ","kana_address":"ﾏﾙﾉｳﾁｸﾞﾗﾝﾄｳｷｮｳｻｳｽﾀﾜｰ","pref":"東京都","city":"千代田区","address":"丸の内グラントウキョウサウスタワー"},
{"zip_code":"1006603","kana_pref":"ﾄｳｷｮｳﾄ","kana_city":"ﾁﾖﾀﾞｸ","kana_address":"ﾏﾙﾉｳﾁｸﾞﾗﾝﾄｳｷｮｳｻｳｽﾀﾜｰ","pref":"東京都","city":"千代田区","address":"丸の内グラントウキョウサウスタワー"},
{"zip_code":"1006604","kana_pref":"ﾄｳｷｮｳﾄ","kana_city":"ﾁﾖﾀﾞｸ","kana_address":"ﾏﾙﾉｳﾁｸﾞﾗﾝﾄｳｷｮｳｻｳｽﾀﾜｰ","pref":"東京都","city":"千代田区","address":"丸の内グラントウキョウサウスタワー"},
{"zip_code":"1006605","kana_pref":"ﾄｳｷｮｳﾄ","kana_city":"ﾁﾖﾀﾞｸ","kana_address":"ﾏﾙﾉｳﾁｸﾞﾗﾝﾄｳｷｮｳｻｳｽﾀﾜｰ","pref":"東京都","city":"千代田区","address":"丸の内グラントウキョウサウスタワー"},
{"zip_code":"1006606","kana_pref":"ﾄｳｷｮｳﾄ","kana_city":"ﾁﾖﾀﾞｸ","kana_address":"ﾏﾙﾉｳﾁｸﾞﾗﾝﾄｳｷｮｳｻｳｽﾀﾜｰ","pref":"東京都","city":"千代田区","address":"丸の内グラントウキョウサウスタワー"},
{"zip_code":"1006607","kana_pref":"ﾄｳｷｮｳﾄ","kana_city":"ﾁﾖﾀﾞｸ","kana_address":"ﾏﾙﾉｳﾁｸﾞﾗﾝﾄｳｷｮｳｻｳｽﾀﾜｰ","pref":"東京都","city":"千代田区","address":"丸の内グラントウキョウサウスタワー"},
{"zip_code":"1006608","kana_pref":"ﾄｳｷｮｳﾄ","kana_city":"ﾁﾖﾀﾞｸ","kana_address":"ﾏﾙﾉｳﾁｸﾞﾗﾝﾄｳｷｮｳｻｳｽﾀﾜｰ","pref":"東京都","city":"千代田区","address":"丸の内グラントウキョウサウスタワー"},
{"zip_code":"1006609","kana_pref":"ﾄｳｷｮｳﾄ","kana_city":"ﾁﾖﾀﾞｸ","kana_address":"ﾏﾙﾉｳﾁｸﾞﾗﾝﾄｳｷｮｳｻｳｽﾀﾜｰ","pref":"東京都","city":"千代田区","address":"丸の内グラントウキョウサウスタワー"},
{"zip_code":"1006610","kana_pref":"ﾄｳｷｮｳﾄ","kana_city":"ﾁﾖﾀﾞｸ","kana_address":"ﾏﾙﾉｳﾁｸﾞﾗﾝﾄｳｷｮｳｻｳｽﾀﾜｰ","pref":"東京都","city":"千代田区","address":"丸の内グラントウキョウサウスタワー"},
{"zip_code":"1006611","kana_pref":"ﾄｳｷｮｳﾄ","kana_city":"ﾁﾖﾀﾞｸ","kana_address":"ﾏﾙﾉｳﾁｸﾞﾗﾝﾄｳｷｮｳｻｳｽﾀﾜｰ","pref":"東京都","city":"千代田区","address":"丸の内グラントウキョウサウスタワー"},
{"zip_code":"1006612","kana_pref":"ﾄｳｷｮｳﾄ","kana_city":"ﾁﾖﾀﾞｸ","kana_address":"ﾏﾙﾉｳﾁｸﾞﾗﾝﾄｳｷｮｳｻｳｽﾀﾜｰ","pref":"東京都","city":"千代田区","address":"丸の内グラントウキョウサウスタワー"},
{"zip_code":"1006613","kana_pref":"ﾄｳｷｮｳﾄ","kana_city":"ﾁﾖﾀﾞｸ","kana_address":"ﾏﾙﾉｳﾁｸﾞﾗﾝﾄｳｷｮｳｻｳｽﾀﾜｰ","pref":"東京都","city":"千代田区","address":"丸の内グラントウキョウサウスタワー"},
{"zip_code":"1006614","kana_pref":"ﾄｳｷｮｳﾄ","kana_city":"ﾁﾖﾀﾞｸ","kana_address":"ﾏﾙﾉｳﾁｸﾞﾗﾝﾄｳｷｮｳｻｳｽﾀﾜｰ","pref":"東京都","city":"千代田区","address":"丸の内グラントウキョウサウスタワー"},
{"zip_code":"1006615","kana_pref":"ﾄｳｷｮｳﾄ","kana_city":"ﾁﾖﾀﾞｸ","kana_address":"ﾏﾙﾉｳﾁｸﾞﾗﾝﾄｳｷｮｳｻｳｽﾀﾜｰ","pref":"東京都","city":"千代田区","address":"丸の内グラントウキョウサウスタワー"},
{"zip_code":"1006616","kana_pref":"ﾄｳｷｮｳﾄ","kana_city":"ﾁﾖﾀﾞｸ","kana_address":"ﾏﾙﾉｳﾁｸﾞﾗﾝﾄｳｷｮｳｻｳｽﾀﾜｰ","pref":"東京都","city":"千代田区","address":"丸の内グラントウキョウサウスタワー"},
{"zip_code":"1006617","kana_pref":"ﾄｳｷｮｳﾄ","kana_city":"ﾁﾖﾀﾞｸ","kana_address":"ﾏﾙﾉｳﾁｸﾞﾗﾝﾄｳｷｮｳｻｳｽﾀﾜｰ","pref":"東京都","city":"千代田区","address":"丸の内グラントウキョウサウスタワー"},
{"zip_code":"1006618","kana_pref":"ﾄｳｷｮｳﾄ","kana_city":"ﾁﾖﾀﾞｸ","kana_address":"ﾏﾙﾉｳﾁｸﾞﾗﾝﾄｳｷｮｳｻｳｽﾀﾜｰ","pref":"東京都","city":"千代田区","address":"丸の内グラントウキョウサウスタワー"},
{"zip_code":"1006619","kana_pref":"ﾄｳｷｮｳﾄ","kana_city":"ﾁﾖﾀﾞｸ","kana_address":"ﾏﾙﾉｳﾁｸﾞﾗﾝﾄｳｷｮｳｻｳｽﾀﾜｰ","pref":"東京都","city":"千代田区","address":"丸の内グラントウキョウサウスタワー"},
{"zip_code":"1006620","kana_pref":"ﾄｳｷｮｳﾄ","kana_city":"ﾁﾖﾀﾞｸ","kana_address":"ﾏﾙﾉｳﾁｸﾞﾗﾝﾄｳｷｮｳｻｳｽﾀﾜｰ","pref":"東京都","city":"千代田区","address":"丸の内グラントウキョウサウスタワー"},
{"zip_code":"1006621","kana_pref":"ﾄｳｷｮｳﾄ","kana_city":"ﾁﾖﾀﾞｸ","kana_address":"ﾏﾙﾉｳﾁｸﾞﾗﾝﾄｳｷｮｳｻｳｽﾀﾜｰ","pref":"東京都","city":"千代田区","address":"丸の内グラントウキョウサウスタワー"},
{"zip_code":"1006622","kana_pref":"ﾄｳｷｮｳﾄ","kana_city":"ﾁﾖﾀﾞｸ","kana_address":"ﾏﾙﾉｳﾁｸﾞﾗﾝﾄｳｷｮｳｻｳｽﾀﾜｰ","pref":"東京都","city":"千代田区","address":"丸の内グラントウキョウサウスタワー"},
{"zip_code":"1006623","kana_pref":"ﾄｳｷｮｳﾄ","kana_city":"ﾁﾖﾀﾞｸ","kana_address":"ﾏﾙﾉｳﾁｸﾞﾗﾝﾄｳｷｮｳｻｳｽﾀﾜｰ","pref":"東京都","city":"千代田区","address":"丸の内グラントウキョウサウスタワー"},
{"zip_code":"1006624","kana_pref":"ﾄｳｷｮｳﾄ","kana_city":"ﾁﾖﾀﾞｸ","kana_address":"ﾏﾙﾉｳﾁｸﾞﾗﾝﾄｳｷｮｳｻｳｽﾀﾜｰ","pref":"東京都","city":"千代田区","address":"丸の内グラントウキョウサウスタワー"},
{"zip_code":"1006625","kana_pref":"ﾄｳｷｮｳﾄ","kana_city":"ﾁﾖﾀﾞｸ","kana_address":"ﾏﾙﾉｳﾁｸﾞﾗﾝﾄｳｷｮｳｻｳｽﾀﾜｰ","pref":"東京都","city":"千代田区","address":"丸の内グラントウキョウサウスタワー"},
{"zip_code":"1006626","kana_pref":"ﾄｳｷｮｳﾄ","kana_city":"ﾁﾖﾀﾞｸ","kana_address":"ﾏﾙﾉｳﾁｸﾞﾗﾝﾄｳｷｮｳｻｳｽﾀﾜｰ","pref":"東京都","city":"千代田区","address":"丸の内グラントウキョウサウスタワー"},
{"zip_code":"1006627","kana_pref":"ﾄｳｷｮｳﾄ","kana_city":"ﾁﾖﾀﾞｸ","kana_address":"ﾏﾙﾉｳﾁｸﾞﾗﾝﾄｳｷｮｳｻｳｽﾀﾜｰ","pref":"東京都","city":"千代田区","address":"丸の内グラントウキョウサウスタワー"},
{"zip_code":"1006628","kana_pref":"ﾄｳｷｮｳﾄ","kana_city":"ﾁﾖﾀﾞｸ","kana_address":"ﾏﾙﾉｳﾁｸﾞﾗﾝﾄｳｷｮｳｻｳｽﾀﾜｰ","pref":"東京都","city":"千代田区","address":"丸の内グラントウキョウサウスタワー"},
{"zip_code":"1006629","kana_pref":"ﾄｳｷｮｳﾄ","kana_city":"ﾁﾖﾀﾞｸ","kana_address":"ﾏﾙﾉｳﾁｸﾞﾗﾝﾄｳｷｮｳｻｳｽﾀﾜｰ","pref":"東京都","city":"千代田区","address":"丸の内グラントウキョウサウスタワー"},
{"zip_code":"1006630","kana_pref":"ﾄｳｷｮｳﾄ","kana_city":"ﾁﾖﾀﾞｸ","kana_address":"ﾏﾙﾉｳﾁｸﾞﾗﾝﾄｳｷｮｳｻｳｽﾀﾜｰ","pref":"東京都","city":"千代田区","address":"丸の内グラントウキョウサウスタワー"},
{"zip_code":"1006631","kana_pref":"ﾄｳｷｮｳﾄ","kana_city":"ﾁﾖﾀﾞｸ","kana_address":"ﾏﾙﾉｳﾁｸﾞﾗﾝﾄｳｷｮｳｻｳｽﾀﾜｰ","pref":"東京都","city":"千代田区","address":"丸の内グラントウキョウサウスタワー"},
{"zip_code":"1006632","kana_pref":"ﾄｳｷｮｳﾄ","kana_city":"ﾁﾖﾀﾞｸ","kana_address":"ﾏﾙﾉｳﾁｸﾞﾗﾝﾄｳｷｮｳｻｳｽﾀﾜｰ","pref":"東京都","city":"千代田区","address":"丸の内グラントウキョウサウスタワー"},
{"zip_code":"1006633","kana_pref":"ﾄｳｷｮｳﾄ","kana_city":"ﾁﾖﾀﾞｸ","kana_address":"ﾏﾙﾉｳﾁｸﾞﾗﾝﾄｳｷｮｳｻｳｽﾀﾜｰ","pref":"東京都","city":"千代田区","address":"丸の内グラントウキョウサウスタワー"},
{"zip_code":"1006634","kana_pref":"ﾄｳｷｮｳﾄ","kana_city":"ﾁﾖﾀﾞｸ","kana_address":"ﾏﾙﾉｳﾁｸﾞﾗﾝﾄｳｷｮｳｻｳｽﾀﾜｰ","pref":"東京都","city":"千代田区","address":"丸の内グラントウキョウサウスタワー"},
{"zip_code":"1006635","kana_pref":"ﾄｳｷｮｳﾄ","kana_city":"ﾁﾖﾀﾞｸ","kana_address":"ﾏﾙﾉｳﾁｸﾞﾗﾝﾄｳｷｮｳｻｳｽﾀﾜｰ","pref":"東京都","city":"千代田区","address":"丸の内グラントウキョウサウスタワー"},
{"zip_code":"1006636","kana_pref":"ﾄｳｷｮｳﾄ","kana_city":"ﾁﾖﾀﾞｸ","kana_address":"ﾏﾙﾉｳﾁｸﾞﾗﾝﾄｳｷｮｳｻｳｽﾀﾜｰ","pref":"東京都","city":"千代田区","address":"丸の内グラントウキョウサウスタワー"},
{"zip_code":"1006637","kana_pref":"ﾄｳｷｮｳﾄ","kana_city":"ﾁﾖﾀﾞｸ","kana_address":"ﾏﾙﾉｳﾁｸﾞﾗﾝﾄｳｷｮｳｻｳｽﾀﾜｰ","pref":"東京都","city":"千代田区","address":"丸の内グラントウキョウサウスタワー"},
{"zip_code":"1006638","kana_pref":"ﾄｳｷｮｳﾄ","kana_city":"ﾁﾖﾀﾞｸ","kana_address":"ﾏﾙﾉｳﾁｸﾞﾗﾝﾄｳｷｮｳｻｳｽﾀﾜｰ","pref":"東京都","city":"千代田区","address":"丸の内グラントウキョウサウスタワー"},
{"zip_code":"1006639","kana_pref":"ﾄｳｷｮｳﾄ","kana_city":"ﾁﾖﾀﾞｸ","kana_address":"ﾏﾙﾉｳﾁｸﾞﾗﾝﾄｳｷｮｳｻｳｽﾀﾜｰ","pref":"東京都","city":"千代田区","address":"丸の内グラントウキョウサウスタワー"},
{"zip_code":"1006640","kana_pref":"ﾄｳｷｮｳﾄ","kana_city":"ﾁﾖﾀﾞｸ","kana_address":"ﾏﾙﾉｳﾁｸﾞﾗﾝﾄｳｷｮｳｻｳｽﾀﾜｰ","pref":"東京都","city":"千代田区","address":"丸の内グラントウキョウサウスタワー"},
{"zip_code":"1006641","kana_pref":"ﾄｳｷｮｳﾄ","kana_city":"ﾁﾖﾀﾞｸ","kana_address":"ﾏﾙﾉｳﾁｸﾞﾗﾝﾄｳｷｮｳｻｳｽﾀﾜｰ","pref":"東京都","city":"千代田区","address":"丸の内グラントウキョウサウスタワー"},
{"zip_code":"1006642","kana_pref":"ﾄｳｷｮｳﾄ","kana_city":"ﾁﾖﾀﾞｸ","kana_address":"ﾏﾙﾉｳﾁｸﾞﾗﾝﾄｳｷｮｳｻｳｽﾀﾜｰ","pref":"東京都","city":"千代田区","address":"丸の内グラントウキョウサウスタワー"},
{"zip_code":"1006790","kana_pref":"ﾄｳｷｮｳﾄ","kana_city":"ﾁﾖﾀﾞｸ","kana_address":"ﾏﾙﾉｳﾁｸﾞﾗﾝﾄｳｷｮｳﾉｰｽﾀﾜｰ","pref":"東京都","city":"千代田区","address":"丸の内グラントウキョウノースタワー"},
{"zip_code":"1006701","kana_pref":"ﾄｳｷｮｳﾄ","kana_city":"ﾁﾖﾀﾞｸ","kana_address":"ﾏﾙﾉｳﾁｸﾞﾗﾝﾄｳｷｮｳﾉｰｽﾀﾜｰ","pref":"東京都","city":"千代田区","address":"丸の内グラントウキョウノースタワー"},
{"zip_code":"1006702","kana_pref":"ﾄｳｷｮｳﾄ","kana_city":"ﾁﾖﾀﾞｸ","kana_address":"ﾏﾙﾉｳﾁｸﾞﾗﾝﾄｳｷｮｳﾉｰｽﾀﾜｰ","pref":"東京都","city":"千代田区","address":"丸の内グラントウキョウノースタワー"},
{"zip_code":"1006703","kana_pref":"ﾄｳｷｮｳﾄ","kana_city":"ﾁﾖﾀﾞｸ","kana_address":"ﾏﾙﾉｳﾁｸﾞﾗﾝﾄｳｷｮｳﾉｰｽﾀﾜｰ","pref":"東京都","city":"千代田区","address":"丸の内グラントウキョウノースタワー"},
{"zip_code":"1006704","kana_pref":"ﾄｳｷｮｳﾄ","kana_city":"ﾁﾖﾀﾞｸ","kana_address":"ﾏﾙﾉｳﾁｸﾞﾗﾝﾄｳｷｮｳﾉｰｽﾀﾜｰ","pref":"東京都","city":"千代田区","address":"丸の内グラントウキョウノースタワー"},
{"zip_code":"1006705","kana_pref":"ﾄｳｷｮｳﾄ","kana_city":"ﾁﾖﾀﾞｸ","kana_address":"ﾏﾙﾉｳﾁｸﾞﾗﾝﾄｳｷｮｳﾉｰｽﾀﾜｰ","pref":"東京都","city":"千代田区","address":"丸の内グラントウキョウノースタワー"},
{"zip_code":"1006706","kana_pref":"ﾄｳｷｮｳﾄ","kana_city":"ﾁﾖﾀﾞｸ","kana_address":"ﾏﾙﾉｳﾁｸﾞﾗﾝﾄｳｷｮｳﾉｰｽﾀﾜｰ","pref":"東京都","city":"千代田区","address":"丸の内グラントウキョウノースタワー"},
{"zip_code":"1006707","kana_pref":"ﾄｳｷｮｳﾄ","kana_city":"ﾁﾖﾀﾞｸ","kana_address":"ﾏﾙﾉｳﾁｸﾞﾗﾝﾄｳｷｮｳﾉｰｽﾀﾜｰ","pref":"東京都","city":"千代田区","address":"丸の内グラントウキョウノースタワー"},
{"zip_code":"1006708","kana_pref":"ﾄｳｷｮｳﾄ","kana_city":"ﾁﾖﾀﾞｸ","kana_address":"ﾏﾙﾉｳﾁｸﾞﾗﾝﾄｳｷｮｳﾉｰｽﾀﾜｰ","pref":"東京都","city":"千代田区","address":"丸の内グラントウキョウノースタワー"},
{"zip_code":"1006709","kana_pref":"ﾄｳｷｮｳﾄ","kana_city":"ﾁﾖﾀﾞｸ","kana_address":"ﾏﾙﾉｳﾁｸﾞﾗﾝﾄｳｷｮｳﾉｰｽﾀﾜｰ","pref":"東京都","city":"千代田区","address":"丸の内グラントウキョウノースタワー"},
{"zip_code":"1006710","kana_pref":"ﾄｳｷｮｳﾄ","kana_city":"ﾁﾖﾀﾞｸ","kana_address":"ﾏﾙﾉｳﾁｸﾞﾗﾝﾄｳｷｮｳﾉｰｽﾀﾜｰ","pref":"東京都","city":"千代田区","address":"丸の内グラントウキョウノースタワー"},
{"zip_code":"1006711","kana_pref":"ﾄｳｷｮｳﾄ","kana_city":"ﾁﾖﾀﾞｸ","kana_address":"ﾏﾙﾉｳﾁｸﾞﾗﾝﾄｳｷｮｳﾉｰｽﾀﾜｰ","pref":"東京都","city":"千代田区","address":"丸の内グラントウキョウノースタワー"},
{"zip_code":"1006712","kana_pref":"ﾄｳｷｮｳﾄ","kana_city":"ﾁﾖﾀﾞｸ","kana_address":"ﾏﾙﾉｳﾁｸﾞﾗﾝﾄｳｷｮｳﾉｰｽﾀﾜｰ","pref":"東京都","city":"千代田区","address":"丸の内グラントウキョウノースタワー"},
{"zip_code":"1006713","kana_pref":"ﾄｳｷｮｳﾄ","kana_city":"ﾁﾖﾀﾞｸ","kana_address":"ﾏﾙﾉｳﾁｸﾞﾗﾝﾄｳｷｮｳﾉｰｽﾀﾜｰ","pref":"東京都","city":"千代田区","address":"丸の内グラントウキョウノースタワー"},
{"zip_code":"1006714","kana_pref":"ﾄｳｷｮｳﾄ","kana_city":"ﾁﾖﾀﾞｸ","kana_address":"ﾏﾙﾉｳﾁｸﾞﾗﾝﾄｳｷｮｳﾉｰｽﾀﾜｰ","pref":"東京都","city":"千代田区","address":"丸の内グラントウキョウノースタワー"},
{"zip_code":"1006715","kana_pref":"ﾄｳｷｮｳﾄ","kana_city":"ﾁﾖﾀﾞｸ","kana_address":"ﾏﾙﾉｳﾁｸﾞﾗﾝﾄｳｷｮｳﾉｰｽﾀﾜｰ","pref":"東京都","city":"千代田区","address":"丸の内グラントウキョウノースタワー"},
{"zip_code":"1006716","kana_pref":"ﾄｳｷｮｳﾄ","kana_city":"ﾁﾖﾀﾞｸ","kana_address":"ﾏﾙﾉｳﾁｸﾞﾗﾝﾄｳｷｮｳﾉｰｽﾀﾜｰ","pref":"東京都","city":"千代田区","address":"丸の内グラントウキョウノースタワー"},
{"zip_code":"1006717","kana_pref":"ﾄｳｷｮｳﾄ","kana_city":"ﾁﾖﾀﾞｸ","kana_address":"ﾏﾙﾉｳﾁｸﾞﾗﾝﾄｳｷｮｳﾉｰｽﾀﾜｰ","pref":"東京都","city":"千代田区","address":"丸の内グラントウキョウノースタワー"},
{"zip_code":"1006718","kana_pref":"ﾄｳｷｮｳﾄ","kana_city":"ﾁﾖﾀﾞｸ","kana_address":"ﾏﾙﾉｳﾁｸﾞﾗﾝﾄｳｷｮｳﾉｰｽﾀﾜｰ","pref":"東京都","city":"千代田区","address":"丸の内グラントウキョウノースタワー"},
{"zip_code":"1006719","kana_pref":"ﾄｳｷｮｳﾄ","kana_city":"ﾁﾖﾀﾞｸ","kana_address":"ﾏﾙﾉｳﾁｸﾞﾗﾝﾄｳｷｮｳﾉｰｽﾀﾜｰ","pref":"東京都","city":"千代田区","address":"丸の内グラントウキョウノースタワー"},
{"zip_code":"1006720","kana_pref":"ﾄｳｷｮｳﾄ","kana_city":"ﾁﾖﾀﾞｸ","kana_address":"ﾏﾙﾉｳﾁｸﾞﾗﾝﾄｳｷｮｳﾉｰｽﾀﾜｰ","pref":"東京都","city":"千代田区","address":"丸の内グラントウキョウノースタワー"},
{"zip_code":"1006721","kana_pref":"ﾄｳｷｮｳﾄ","kana_city":"ﾁﾖﾀﾞｸ","kana_address":"ﾏﾙﾉｳﾁｸﾞﾗﾝﾄｳｷｮｳﾉｰｽﾀﾜｰ","pref":"東京都","city":"千代田区","address":"丸の内グラントウキョウノースタワー"},
{"zip_code":"1006722","kana_pref":"ﾄｳｷｮｳﾄ","kana_city":"ﾁﾖﾀﾞｸ","kana_address":"ﾏﾙﾉｳﾁｸﾞﾗﾝﾄｳｷｮｳﾉｰｽﾀﾜｰ","pref":"東京都","city":"千代田区","address":"丸の内グラントウキョウノースタワー"},
{"zip_code":"1006723","kana_pref":"ﾄｳｷｮｳﾄ","kana_city":"ﾁﾖﾀﾞｸ","kana_address":"ﾏﾙﾉｳﾁｸﾞﾗﾝﾄｳｷｮｳﾉｰｽﾀﾜｰ","pref":"東京都","city":"千代田区","address":"丸の内グラントウキョウノースタワー"},
{"zip_code":"1006724","kana_pref":"ﾄｳｷｮｳﾄ","kana_city":"ﾁﾖﾀﾞｸ","kana_address":"ﾏﾙﾉｳﾁｸﾞﾗﾝﾄｳｷｮｳﾉｰｽﾀﾜｰ","pref":"東京都","city":"千代田区","address":"丸の内グラントウキョウノースタワー"},
{"zip_code":"1006725","kana_pref":"ﾄｳｷｮｳﾄ","kana_city":"ﾁﾖﾀﾞｸ","kana_address":"ﾏﾙﾉｳﾁｸﾞﾗﾝﾄｳｷｮｳﾉｰｽﾀﾜｰ","pref":"東京都","city":"千代田区","address":"丸の内グラントウキョウノースタワー"},
{"zip_code":"1006726","kana_pref":"ﾄｳｷｮｳﾄ","kana_city":"ﾁﾖﾀﾞｸ","kana_address":"ﾏﾙﾉｳﾁｸﾞﾗﾝﾄｳｷｮｳﾉｰｽﾀﾜｰ","pref":"東京都","city":"千代田区","address":"丸の内グラントウキョウノースタワー"},
{"zip_code":"1006727","kana_pref":"ﾄｳｷｮｳﾄ","kana_city":"ﾁﾖﾀﾞｸ","kana_address":"ﾏﾙﾉｳﾁｸﾞﾗﾝﾄｳｷｮｳﾉｰｽﾀﾜｰ","pref":"東京都","city":"千代田区","address":"丸の内グラントウキョウノースタワー"},
{"zip_code":"1006728","kana_pref":"ﾄｳｷｮｳﾄ","kana_city":"ﾁﾖﾀﾞｸ","kana_address":"ﾏﾙﾉｳﾁｸﾞﾗﾝﾄｳｷｮｳﾉｰｽﾀﾜｰ","pref":"東京都","city":"千代田区","address":"丸の内グラントウキョウノースタワー"},
{"zip_code":"1006729","kana_pref":"ﾄｳｷｮｳﾄ","kana_city":"ﾁﾖﾀﾞｸ","kana_address":"ﾏﾙﾉｳﾁｸﾞﾗﾝﾄｳｷｮｳﾉｰｽﾀﾜｰ","pref":"東京都","city":"千代田区","address":"丸の内グラントウキョウノースタワー"},
{"zip_code":"1006730","kana_pref":"ﾄｳｷｮｳﾄ","kana_city":"ﾁﾖﾀﾞｸ","kana_address":"ﾏﾙﾉｳﾁｸﾞﾗﾝﾄｳｷｮｳﾉｰｽﾀﾜｰ","pref":"東京都","city":"千代田区","address":"丸の内グラントウキョウノースタワー"},
{"zip_code":"1006731","kana_pref":"ﾄｳｷｮｳﾄ","kana_city":"ﾁﾖﾀﾞｸ","kana_address":"ﾏﾙﾉｳﾁｸﾞﾗﾝﾄｳｷｮｳﾉｰｽﾀﾜｰ","pref":"東京都","city":"千代田区","address":"丸の内グラントウキョウノースタワー"},
{"zip_code":"1006732","kana_pref":"ﾄｳｷｮｳﾄ","kana_city":"ﾁﾖﾀﾞｸ","kana_address":"ﾏﾙﾉｳﾁｸﾞﾗﾝﾄｳｷｮｳﾉｰｽﾀﾜｰ","pref":"東京都","city":"千代田区","address":"丸の内グラントウキョウノースタワー"},
{"zip_code":"1006733","kana_pref":"ﾄｳｷｮｳﾄ","kana_city":"ﾁﾖﾀﾞｸ","kana_address":"ﾏﾙﾉｳﾁｸﾞﾗﾝﾄｳｷｮｳﾉｰｽﾀﾜｰ","pref":"東京都","city":"千代田区","address":"丸の内グラントウキョウノースタワー"},
{"zip_code":"1006734","kana_pref":"ﾄｳｷｮｳﾄ","kana_city":"ﾁﾖﾀﾞｸ","kana_address":"ﾏﾙﾉｳﾁｸﾞﾗﾝﾄｳｷｮｳﾉｰｽﾀﾜｰ","pref":"東京都","city":"千代田区","address":"丸の内グラントウキョウノースタワー"},
{"zip_code":"1006735","kana_pref":"ﾄｳｷｮｳﾄ","kana_city":"ﾁﾖﾀﾞｸ","kana_address":"ﾏﾙﾉｳﾁｸﾞﾗﾝﾄｳｷｮｳﾉｰｽﾀﾜｰ","pref":"東京都","city":"千代田区","address":"丸の内グラントウキョウノースタワー"},
{"zip_code":"1006736","kana_pref":"ﾄｳｷｮｳﾄ","kana_city":"ﾁﾖﾀﾞｸ","kana_address":"ﾏﾙﾉｳﾁｸﾞﾗﾝﾄｳｷｮｳﾉｰｽﾀﾜｰ","pref":"東京都","city":"千代田区","address":"丸の内グラントウキョウノースタワー"},
{"zip_code":"1006737","kana_pref":"ﾄｳｷｮｳﾄ","kana_city":"ﾁﾖﾀﾞｸ","kana_address":"ﾏﾙﾉｳﾁｸﾞﾗﾝﾄｳｷｮｳﾉｰｽﾀﾜｰ","pref":"東京都","city":"千代田区","address":"丸の内グラントウキョウノースタワー"},
{"zip_code":"1006738","kana_pref":"ﾄｳｷｮｳﾄ","kana_city":"ﾁﾖﾀﾞｸ","kana_address":"ﾏﾙﾉｳﾁｸﾞﾗﾝﾄｳｷｮｳﾉｰｽﾀﾜｰ","pref":"東京都","city":"千代田区","address":"丸の内グラントウキョウノースタワー"},
{"zip_code":"1006739","kana_pref":"ﾄｳｷｮｳﾄ","kana_city":"ﾁﾖﾀﾞｸ","kana_address":"ﾏﾙﾉｳﾁｸﾞﾗﾝﾄｳｷｮｳﾉｰｽﾀﾜｰ","pref":"東京都","city":"千代田区","address":"丸の内グラントウキョウノースタワー"},
{"zip_code":"1006740","kana_pref":"ﾄｳｷｮｳﾄ","kana_city":"ﾁﾖﾀﾞｸ","kana_address":"ﾏﾙﾉｳﾁｸﾞﾗﾝﾄｳｷｮｳﾉｰｽﾀﾜｰ","pref":"東京都","city":"千代田区","address":"丸の内グラントウキョウノースタワー"},
{"zip_code":"1006741","kana_pref":"ﾄｳｷｮｳﾄ","kana_city":"ﾁﾖﾀﾞｸ","kana_address":"ﾏﾙﾉｳﾁｸﾞﾗﾝﾄｳｷｮｳﾉｰｽﾀﾜｰ","pref":"東京都","city":"千代田区","address":"丸の内グラントウキョウノースタワー"},
{"zip_code":"1006742","kana_pref":"ﾄｳｷｮｳﾄ","kana_city":"ﾁﾖﾀﾞｸ","kana_address":"ﾏﾙﾉｳﾁｸﾞﾗﾝﾄｳｷｮｳﾉｰｽﾀﾜｰ","pref":"東京都","city":"千代田区","address":"丸の内グラントウキョウノースタワー"},
{"zip_code":"1006743","kana_pref":"ﾄｳｷｮｳﾄ","kana_city":"ﾁﾖﾀﾞｸ","kana_address":"ﾏﾙﾉｳﾁｸﾞﾗﾝﾄｳｷｮｳﾉｰｽﾀﾜｰ","pref":"東京都","city":"千代田区","address":"丸の内グラントウキョウノースタワー"},
{"zip_code":"1006590","kana_pref":"ﾄｳｷｮｳﾄ","kana_city":"ﾁﾖﾀﾞｸ","kana_address":"ﾏﾙﾉｳﾁｼﾝﾏﾙﾉｳﾁﾋﾞﾙﾃﾞｨﾝｸﾞ","pref":"東京都","city":"千代田区","address":"丸の内新丸の内ビルディング"},
{"zip_code":"1006501","kana_pref":"ﾄｳｷｮｳﾄ","kana_city":"ﾁﾖﾀﾞｸ","kana_address":"ﾏﾙﾉｳﾁｼﾝﾏﾙﾉｳﾁﾋﾞﾙﾃﾞｨﾝｸﾞ","pref":"東京都","city":"千代田区","address":"丸の内新丸の内ビルディング"},
{"zip_code":"1006502","kana_pref":"ﾄｳｷｮｳﾄ","kana_city":"ﾁﾖﾀﾞｸ","kana_address":"ﾏﾙﾉｳﾁｼﾝﾏﾙﾉｳﾁﾋﾞﾙﾃﾞｨﾝｸﾞ","pref":"東京都","city":"千代田区","address":"丸の内新丸の内ビルディング"},
{"zip_code":"1006503","kana_pref":"ﾄｳｷｮｳﾄ","kana_city":"ﾁﾖﾀﾞｸ","kana_address":"ﾏﾙﾉｳﾁｼﾝﾏﾙﾉｳﾁﾋﾞﾙﾃﾞｨﾝｸﾞ","pref":"東京都","city":"千代田区","address":"丸の内新丸の内ビルディング"},
{"zip_code":"1006504","kana_pref":"ﾄｳｷｮｳﾄ","kana_city":"ﾁﾖﾀﾞｸ","kana_address":"ﾏﾙﾉｳﾁｼﾝﾏﾙﾉｳﾁﾋﾞﾙﾃﾞｨﾝｸﾞ","pref":"東京都","city":"千代田区","address":"丸の内新丸の内ビルディング"},
{"zip_code":"1006505","kana_pref":"ﾄｳｷｮｳﾄ","kana_city":"ﾁﾖﾀﾞｸ","kana_address":"ﾏﾙﾉｳﾁｼﾝﾏﾙﾉｳﾁﾋﾞﾙﾃﾞｨﾝｸﾞ","pref":"東京都","city":"千代田区","address":"丸の内新丸の内ビルディング"},
{"zip_code":"1006506","kana_pref":"ﾄｳｷｮｳﾄ","kana_city":"ﾁﾖﾀﾞｸ","kana_address":"ﾏﾙﾉｳﾁｼﾝﾏﾙﾉｳﾁﾋﾞﾙﾃﾞｨﾝｸﾞ","pref":"東京都","city":"千代田区","address":"丸の内新丸の内ビルディング"},
{"zip_code":"1006507","kana_pref":"ﾄｳｷｮｳﾄ","kana_city":"ﾁﾖﾀﾞｸ","kana_address":"ﾏﾙﾉｳﾁｼﾝﾏﾙﾉｳﾁﾋﾞﾙﾃﾞｨﾝｸﾞ","pref":"東京都","city":"千代田区","address":"丸の内新丸の内ビルディング"},
{"zip_code":"1006508","kana_pref":"ﾄｳｷｮｳﾄ","kana_city":"ﾁﾖﾀﾞｸ","kana_address":"ﾏﾙﾉｳﾁｼﾝﾏﾙﾉｳﾁﾋﾞﾙﾃﾞｨﾝｸﾞ","pref":"東京都","city":"千代田区","address":"丸の内新丸の内ビルディング"},
{"zip_code":"1006509","kana_pref":"ﾄｳｷｮｳﾄ","kana_city":"ﾁﾖﾀﾞｸ","kana_address":"ﾏﾙﾉｳﾁｼﾝﾏﾙﾉｳﾁﾋﾞﾙﾃﾞｨﾝｸﾞ","pref":"東京都","city":"千代田区","address":"丸の内新丸の内ビルディング"},
{"zip_code":"1006510","kana_pref":"ﾄｳｷｮｳﾄ","kana_city":"ﾁﾖﾀﾞｸ","kana_address":"ﾏﾙﾉｳﾁｼﾝﾏﾙﾉｳﾁﾋﾞﾙﾃﾞｨﾝｸﾞ","pref":"東京都","city":"千代田区","address":"丸の内新丸の内ビルディング"},
{"zip_code":"1006511","kana_pref":"ﾄｳｷｮｳﾄ","kana_city":"ﾁﾖﾀﾞｸ","kana_address":"ﾏﾙﾉｳﾁｼﾝﾏﾙﾉｳﾁﾋﾞﾙﾃﾞｨﾝｸﾞ","pref":"東京都","city":"千代田区","address":"丸の内新丸の内ビルディング"},
{"zip_code":"1006512","kana_pref":"ﾄｳｷｮｳﾄ","kana_city":"ﾁﾖﾀﾞｸ","kana_address":"ﾏﾙﾉｳﾁｼﾝﾏﾙﾉｳﾁﾋﾞﾙﾃﾞｨﾝｸﾞ","pref":"東京都","city":"千代田区","address":"丸の内新丸の内ビルディング"},
{"zip_code":"1006513","kana_pref":"ﾄｳｷｮｳﾄ","kana_city":"ﾁﾖﾀﾞｸ","kana_address":"ﾏﾙﾉｳﾁｼﾝﾏﾙﾉｳﾁﾋﾞﾙﾃﾞｨﾝｸﾞ","pref":"東京都","city":"千代田区","address":"丸の内新丸の内ビルディング"},
{"zip_code":"1006514","kana_pref":"ﾄｳｷｮｳﾄ","kana_city":"ﾁﾖﾀﾞｸ","kana_address":"ﾏﾙﾉｳﾁｼﾝﾏﾙﾉｳﾁﾋﾞﾙﾃﾞｨﾝｸﾞ","pref":"東京都","city":"千代田区","address":"丸の内新丸の内ビルディング"},
{"zip_code":"1006515","kana_pref":"ﾄｳｷｮｳﾄ","kana_city":"ﾁﾖﾀﾞｸ","kana_address":"ﾏﾙﾉｳﾁｼﾝﾏﾙﾉｳﾁﾋﾞﾙﾃﾞｨﾝｸﾞ","pref":"東京都","city":"千代田区","address":"丸の内新丸の内ビルディング"},
{"zip_code":"1006516","kana_pref":"ﾄｳｷｮｳﾄ","kana_city":"ﾁﾖﾀﾞｸ","kana_address":"ﾏﾙﾉｳﾁｼﾝﾏﾙﾉｳﾁﾋﾞﾙﾃﾞｨﾝｸﾞ","pref":"東京都","city":"千代田区","address":"丸の内新丸の内ビルディング"},
{"zip_code":"1006517","kana_pref":"ﾄｳｷｮｳﾄ","kana_city":"ﾁﾖﾀﾞｸ","kana_address":"ﾏﾙﾉｳﾁｼﾝﾏﾙﾉｳﾁﾋﾞﾙﾃﾞｨﾝｸﾞ","pref":"東京都","city":"千代田区","address":"丸の内新丸の内ビルディング"},
{"zip_code":"1006518","kana_pref":"ﾄｳｷｮｳﾄ","kana_city":"ﾁﾖﾀﾞｸ","kana_address":"ﾏﾙﾉｳﾁｼﾝﾏﾙﾉｳﾁﾋﾞﾙﾃﾞｨﾝｸﾞ","pref":"東京都","city":"千代田区","address":"丸の内新丸の内ビルディング"},
{"zip_code":"1006519","kana_pref":"ﾄｳｷｮｳﾄ","kana_city":"ﾁﾖﾀﾞｸ","kana_address":"ﾏﾙﾉｳﾁｼﾝﾏﾙﾉｳﾁﾋﾞﾙﾃﾞｨﾝｸﾞ","pref":"東京都","city":"千代田区","address":"丸の内新丸の内ビルディング"},
{"zip_code":"1006520","kana_pref":"ﾄｳｷｮｳﾄ","kana_city":"ﾁﾖﾀﾞｸ","kana_address":"ﾏﾙﾉｳﾁｼﾝﾏﾙﾉｳﾁﾋﾞﾙﾃﾞｨﾝｸﾞ","pref":"東京都","city":"千代田区","address":"丸の内新丸の内ビルディング"},
{"zip_code":"1006521","kana_pref":"ﾄｳｷｮｳﾄ","kana_city":"ﾁﾖﾀﾞｸ","kana_address":"ﾏﾙﾉｳﾁｼﾝﾏﾙﾉｳﾁﾋﾞﾙﾃﾞｨﾝｸﾞ","pref":"東京都","city":"千代田区","address":"丸の内新丸の内ビルディング"},
{"zip_code":"1006522","kana_pref":"ﾄｳｷｮｳﾄ","kana_city":"ﾁﾖﾀﾞｸ","kana_address":"ﾏﾙﾉｳﾁｼﾝﾏﾙﾉｳﾁﾋﾞﾙﾃﾞｨﾝｸﾞ","pref":"東京都","city":"千代田区","address":"丸の内新丸の内ビルディング"},
{"zip_code":"1006523","kana_pref":"ﾄｳｷｮｳﾄ","kana_city":"ﾁﾖﾀﾞｸ","kana_address":"ﾏﾙﾉｳﾁｼﾝﾏﾙﾉｳﾁﾋﾞﾙﾃﾞｨﾝｸﾞ","pref":"東京都","city":"千代田区","address":"丸の内新丸の内ビルディング"},
{"zip_code":"1006524","kana_pref":"ﾄｳｷｮｳﾄ","kana_city":"ﾁﾖﾀﾞｸ","kana_address":"ﾏﾙﾉｳﾁｼﾝﾏﾙﾉｳﾁﾋﾞﾙﾃﾞｨﾝｸﾞ","pref":"東京都","city":"千代田区","address":"丸の内新丸の内ビルディング"},
{"zip_code":"1006525","kana_pref":"ﾄｳｷｮｳﾄ","kana_city":"ﾁﾖﾀﾞｸ","kana_address":"ﾏﾙﾉｳﾁｼﾝﾏﾙﾉｳﾁﾋﾞﾙﾃﾞｨﾝｸﾞ","pref":"東京都","city":"千代田区","address":"丸の内新丸の内ビルディング"},
{"zip_code":"1006526","kana_pref":"ﾄｳｷｮｳﾄ","kana_city":"ﾁﾖﾀﾞｸ","kana_address":"ﾏﾙﾉｳﾁｼﾝﾏﾙﾉｳﾁﾋﾞﾙﾃﾞｨﾝｸﾞ","pref":"東京都","city":"千代田区","address":"丸の内新丸の内ビルディング"},
{"zip_code":"1006527","kana_pref":"ﾄｳｷｮｳﾄ","kana_city":"ﾁﾖﾀﾞｸ","kana_address":"ﾏﾙﾉｳﾁｼﾝﾏﾙﾉｳﾁﾋﾞﾙﾃﾞｨﾝｸﾞ","pref":"東京都","city":"千代田区","address":"丸の内新丸の内ビルディング"},
{"zip_code":"1006528","kana_pref":"ﾄｳｷｮｳﾄ","kana_city":"ﾁﾖﾀﾞｸ","kana_address":"ﾏﾙﾉｳﾁｼﾝﾏﾙﾉｳﾁﾋﾞﾙﾃﾞｨﾝｸﾞ","pref":"東京都","city":"千代田区","address":"丸の内新丸の内ビルディング"},
{"zip_code":"1006529","kana_pref":"ﾄｳｷｮｳﾄ","kana_city":"ﾁﾖﾀﾞｸ","kana_address":"ﾏﾙﾉｳﾁｼﾝﾏﾙﾉｳﾁﾋﾞﾙﾃﾞｨﾝｸﾞ","pref":"東京都","city":"千代田区","address":"丸の内新丸の内ビルディング"},
{"zip_code":"1006530","kana_pref":"ﾄｳｷｮｳﾄ","kana_city":"ﾁﾖﾀﾞｸ","kana_address":"ﾏﾙﾉｳﾁｼﾝﾏﾙﾉｳﾁﾋﾞﾙﾃﾞｨﾝｸﾞ","pref":"東京都","city":"千代田区","address":"丸の内新丸の内ビルディング"},
{"zip_code":"1006531","kana_pref":"ﾄｳｷｮｳﾄ","kana_city":"ﾁﾖﾀﾞｸ","kana_address":"ﾏﾙﾉｳﾁｼﾝﾏﾙﾉｳﾁﾋﾞﾙﾃﾞｨﾝｸﾞ","pref":"東京都","city":"千代田区","address":"丸の内新丸の内ビルディング"},
{"zip_code":"1006532","kana_pref":"ﾄｳｷｮｳﾄ","kana_city":"ﾁﾖﾀﾞｸ","kana_address":"ﾏﾙﾉｳﾁｼﾝﾏﾙﾉｳﾁﾋﾞﾙﾃﾞｨﾝｸﾞ","pref":"東京都","city":"千代田区","address":"丸の内新丸の内ビルディング"},
{"zip_code":"1006533","kana_pref":"ﾄｳｷｮｳﾄ","kana_city":"ﾁﾖﾀﾞｸ","kana_address":"ﾏﾙﾉｳﾁｼﾝﾏﾙﾉｳﾁﾋﾞﾙﾃﾞｨﾝｸﾞ","pref":"東京都","city":"千代田区","address":"丸の内新丸の内ビルディング"},
{"zip_code":"1006534","kana_pref":"ﾄｳｷｮｳﾄ","kana_city":"ﾁﾖﾀﾞｸ","kana_address":"ﾏﾙﾉｳﾁｼﾝﾏﾙﾉｳﾁﾋﾞﾙﾃﾞｨﾝｸﾞ","pref":"東京都","city":"千代田区","address":"丸の内新丸の内ビルディング"},
{"zip_code":"1006535","kana_pref":"ﾄｳｷｮｳﾄ","kana_city":"ﾁﾖﾀﾞｸ","kana_address":"ﾏﾙﾉｳﾁｼﾝﾏﾙﾉｳﾁﾋﾞﾙﾃﾞｨﾝｸﾞ","pref":"東京都","city":"千代田区","address":"丸の内新丸の内ビルディング"},
{"zip_code":"1006536","kana_pref":"ﾄｳｷｮｳﾄ","kana_city":"ﾁﾖﾀﾞｸ","kana_address":"ﾏﾙﾉｳﾁｼﾝﾏﾙﾉｳﾁﾋﾞﾙﾃﾞｨﾝｸﾞ","pref":"東京都","city":"千代田区","address":"丸の内新丸の内ビルディング"},
{"zip_code":"1006537","kana_pref":"ﾄｳｷｮｳﾄ","kana_city":"ﾁﾖﾀﾞｸ","kana_address":"ﾏﾙﾉｳﾁｼﾝﾏﾙﾉｳﾁﾋﾞﾙﾃﾞｨﾝｸﾞ","pref":"東京都","city":"千代田区","address":"丸の内新丸の内ビルディング"},
{"zip_code":"1006538","kana_pref":"ﾄｳｷｮｳﾄ","kana_city":"ﾁﾖﾀﾞｸ","kana_address":"ﾏﾙﾉｳﾁｼﾝﾏﾙﾉｳﾁﾋﾞﾙﾃﾞｨﾝｸﾞ","pref":"東京都","city":"千代田区","address":"丸の内新丸の内ビルディング"},
{"zip_code":"1006490","kana_pref":"ﾄｳｷｮｳﾄ","kana_city":"ﾁﾖﾀﾞｸ","kana_address":"ﾏﾙﾉｳﾁﾄｳｷｮｳﾋﾞﾙﾃﾞｨﾝｸﾞ","pref":"東京都","city":"千代田区","address":"丸の内東京ビルディング"},
{"zip_code":"1006401","kana_pref":"ﾄｳｷｮｳﾄ","kana_city":"ﾁﾖﾀﾞｸ","kana_address":"ﾏﾙﾉｳﾁﾄｳｷｮｳﾋﾞﾙﾃﾞｨﾝｸﾞ","pref":"東京都","city":"千代田区","address":"丸の内東京ビルディング"},
{"zip_code":"1006402","kana_pref":"ﾄｳｷｮｳﾄ","kana_city":"ﾁﾖﾀﾞｸ","kana_address":"ﾏﾙﾉｳﾁﾄｳｷｮｳﾋﾞﾙﾃﾞｨﾝｸﾞ","pref":"東京都","city":"千代田区","address":"丸の内東京ビルディング"},
{"zip_code":"1006403","kana_pref":"ﾄｳｷｮｳﾄ","kana_city":"ﾁﾖﾀﾞｸ","kana_address":"ﾏﾙﾉｳﾁﾄｳｷｮｳﾋﾞﾙﾃﾞｨﾝｸﾞ","pref":"東京都","city":"千代田区","address":"丸の内東京ビルディング"},
{"zip_code":"1006404","kana_pref":"ﾄｳｷｮｳﾄ","kana_city":"ﾁﾖﾀﾞｸ","kana_address":"ﾏﾙﾉｳﾁﾄｳｷｮｳﾋﾞﾙﾃﾞｨﾝｸﾞ","pref":"東京都","city":"千代田区","address":"丸の内東京ビルディング"},
{"zip_code":"1006405","kana_pref":"ﾄｳｷｮｳﾄ","kana_city":"ﾁﾖﾀﾞｸ","kana_address":"ﾏﾙﾉｳﾁﾄｳｷｮｳﾋﾞﾙﾃﾞｨﾝｸﾞ","pref":"東京都","city":"千代田区","address":"丸の内東京ビルディング"},
{"zip_code":"1006406","kana_pref":"ﾄｳｷｮｳﾄ","kana_city":"ﾁﾖﾀﾞｸ","kana_address":"ﾏﾙﾉｳﾁﾄｳｷｮｳﾋﾞﾙﾃﾞｨﾝｸﾞ","pref":"東京都","city":"千代田区","address":"丸の内東京ビルディング"},
{"zip_code":"1006407","kana_pref":"ﾄｳｷｮｳﾄ","kana_city":"ﾁﾖﾀﾞｸ","kana_address":"ﾏﾙﾉｳﾁﾄｳｷｮｳﾋﾞﾙﾃﾞｨﾝｸﾞ","pref":"東京都","city":"千代田区","address":"丸の内東京ビルディング"},
{"zip_code":"1006408","kana_pref":"ﾄｳｷｮｳﾄ","kana_city":"ﾁﾖﾀﾞｸ","kana_address":"ﾏﾙﾉｳﾁﾄｳｷｮｳﾋﾞﾙﾃﾞｨﾝｸﾞ","pref":"東京都","city":"千代田区","address":"丸の内東京ビルディング"},
{"zip_code":"1006409","kana_pref":"ﾄｳｷｮｳﾄ","kana_city":"ﾁﾖﾀﾞｸ","kana_address":"ﾏﾙﾉｳﾁﾄｳｷｮｳﾋﾞﾙﾃﾞｨﾝｸﾞ","pref":"東京都","city":"千代田区","address":"丸の内東京ビルディング"},
{"zip_code":"1006410","kana_pref":"ﾄｳｷｮｳﾄ","kana_city":"ﾁﾖﾀﾞｸ","kana_address":"ﾏﾙﾉｳﾁﾄｳｷｮｳﾋﾞﾙﾃﾞｨﾝｸﾞ","pref":"東京都","city":"千代田区","address":"丸の内東京ビルディング"},
{"zip_code":"1006411","kana_pref":"ﾄｳｷｮｳﾄ","kana_city":"ﾁﾖﾀﾞｸ","kana_address":"ﾏﾙﾉｳﾁﾄｳｷｮｳﾋﾞﾙﾃﾞｨﾝｸﾞ","pref":"東京都","city":"千代田区","address":"丸の内東京ビルディング"},
{"zip_code":"1006412","kana_pref":"ﾄｳｷｮｳﾄ","kana_city":"ﾁﾖﾀﾞｸ","kana_address":"ﾏﾙﾉｳﾁﾄｳｷｮｳﾋﾞﾙﾃﾞｨﾝｸﾞ","pref":"東京都","city":"千代田区","address":"丸の内東京ビルディング"},
{"zip_code":"1006413","kana_pref":"ﾄｳｷｮｳﾄ","kana_city":"ﾁﾖﾀﾞｸ","kana_address":"ﾏﾙﾉｳﾁﾄｳｷｮｳﾋﾞﾙﾃﾞｨﾝｸﾞ","pref":"東京都","city":"千代田区","address":"丸の内東京ビルディング"},
{"zip_code":"1006414","kana_pref":"ﾄｳｷｮｳﾄ","kana_city":"ﾁﾖﾀﾞｸ","kana_address":"ﾏﾙﾉｳﾁﾄｳｷｮｳﾋﾞﾙﾃﾞｨﾝｸﾞ","pref":"東京都","city":"千代田区","address":"丸の内東京ビルディング"},
{"zip_code":"1006415","kana_pref":"ﾄｳｷｮｳﾄ","kana_city":"ﾁﾖﾀﾞｸ","kana_address":"ﾏﾙﾉｳﾁﾄｳｷｮｳﾋﾞﾙﾃﾞｨﾝｸﾞ","pref":"東京都","city":"千代田区","address":"丸の内東京ビルディング"},
{"zip_code":"1006416","kana_pref":"ﾄｳｷｮｳﾄ","kana_city":"ﾁﾖﾀﾞｸ","kana_address":"ﾏﾙﾉｳﾁﾄｳｷｮｳﾋﾞﾙﾃﾞｨﾝｸﾞ","pref":"東京都","city":"千代田区","address":"丸の内東京ビルディング"},
{"zip_code":"1006417","kana_pref":"ﾄｳｷｮｳﾄ","kana_city":"ﾁﾖﾀﾞｸ","kana_address":"ﾏﾙﾉｳﾁﾄｳｷｮｳﾋﾞﾙﾃﾞｨﾝｸﾞ","pref":"東京都","city":"千代田区","address":"丸の内東京ビルディング"},
{"zip_code":"1006418","kana_pref":"ﾄｳｷｮｳﾄ","kana_city":"ﾁﾖﾀﾞｸ","kana_address":"ﾏﾙﾉｳﾁﾄｳｷｮｳﾋﾞﾙﾃﾞｨﾝｸﾞ","pref":"東京都","city":"千代田区","address":"丸の内東京ビルディング"},
{"zip_code":"1006419","kana_pref":"ﾄｳｷｮｳﾄ","kana_city":"ﾁﾖﾀﾞｸ","kana_address":"ﾏﾙﾉｳﾁﾄｳｷｮｳﾋﾞﾙﾃﾞｨﾝｸﾞ","pref":"東京都","city":"千代田区","address":"丸の内東京ビルディング"},
{"zip_code":"1006420","kana_pref":"ﾄｳｷｮｳﾄ","kana_city":"ﾁﾖﾀﾞｸ","kana_address":"ﾏﾙﾉｳﾁﾄｳｷｮｳﾋﾞﾙﾃﾞｨﾝｸﾞ","pref":"東京都","city":"千代田区","address":"丸の内東京ビルディング"},
{"zip_code":"1006421","kana_pref":"ﾄｳｷｮｳﾄ","kana_city":"ﾁﾖﾀﾞｸ","kana_address":"ﾏﾙﾉｳﾁﾄｳｷｮｳﾋﾞﾙﾃﾞｨﾝｸﾞ","pref":"東京都","city":"千代田区","address":"丸の内東京ビルディング"},
{"zip_code":"1006422","kana_pref":"ﾄｳｷｮｳﾄ","kana_city":"ﾁﾖﾀﾞｸ","kana_address":"ﾏﾙﾉｳﾁﾄｳｷｮｳﾋﾞﾙﾃﾞｨﾝｸﾞ","pref":"東京都","city":"千代田区","address":"丸の内東京ビルディング"},
{"zip_code":"1006423","kana_pref":"ﾄｳｷｮｳﾄ","kana_city":"ﾁﾖﾀﾞｸ","kana_address":"ﾏﾙﾉｳﾁﾄｳｷｮｳﾋﾞﾙﾃﾞｨﾝｸﾞ","pref":"東京都","city":"千代田区","address":"丸の内東京ビルディング"},
{"zip_code":"1006424","kana_pref":"ﾄｳｷｮｳﾄ","kana_city":"ﾁﾖﾀﾞｸ","kana_address":"ﾏﾙﾉｳﾁﾄｳｷｮｳﾋﾞﾙﾃﾞｨﾝｸﾞ","pref":"東京都","city":"千代田区","address":"丸の内東京ビルディング"},
{"zip_code":"1006425","kana_pref":"ﾄｳｷｮｳﾄ","kana_city":"ﾁﾖﾀﾞｸ","kana_address":"ﾏﾙﾉｳﾁﾄｳｷｮｳﾋﾞﾙﾃﾞｨﾝｸﾞ","pref":"東京都","city":"千代田区","address":"丸の内東京ビルディング"},
{"zip_code":"1006426","kana_pref":"ﾄｳｷｮｳﾄ","kana_city":"ﾁﾖﾀﾞｸ","kana_address":"ﾏﾙﾉｳﾁﾄｳｷｮｳﾋﾞﾙﾃﾞｨﾝｸﾞ","pref":"東京都","city":"千代田区","address":"丸の内東京ビルディング"},
{"zip_code":"1006427","kana_pref":"ﾄｳｷｮｳﾄ","kana_city":"ﾁﾖﾀﾞｸ","kana_address":"ﾏﾙﾉｳﾁﾄｳｷｮｳﾋﾞﾙﾃﾞｨﾝｸﾞ","pref":"東京都","city":"千代田区","address":"丸の内東京ビルディング"},
{"zip_code":"1006428","kana_pref":"ﾄｳｷｮｳﾄ","kana_city":"ﾁﾖﾀﾞｸ","kana_address":"ﾏﾙﾉｳﾁﾄｳｷｮｳﾋﾞﾙﾃﾞｨﾝｸﾞ","pref":"東京都","city":"千代田区","address":"丸の内東京ビルディング"},
{"zip_code":"1006429","kana_pref":"ﾄｳｷｮｳﾄ","kana_city":"ﾁﾖﾀﾞｸ","kana_address":"ﾏﾙﾉｳﾁﾄｳｷｮｳﾋﾞﾙﾃﾞｨﾝｸﾞ","pref":"東京都","city":"千代田区","address":"丸の内東京ビルディング"},
{"zip_code":"1006430","kana_pref":"ﾄｳｷｮｳﾄ","kana_city":"ﾁﾖﾀﾞｸ","kana_address":"ﾏﾙﾉｳﾁﾄｳｷｮｳﾋﾞﾙﾃﾞｨﾝｸﾞ","pref":"東京都","city":"千代田区","address":"丸の内東京ビルディング"},
{"zip_code":"1006431","kana_pref":"ﾄｳｷｮｳﾄ","kana_city":"ﾁﾖﾀﾞｸ","kana_address":"ﾏﾙﾉｳﾁﾄｳｷｮｳﾋﾞﾙﾃﾞｨﾝｸﾞ","pref":"東京都","city":"千代田区","address":"丸の内東京ビルディング"},
{"zip_code":"1006432","kana_pref":"ﾄｳｷｮｳﾄ","kana_city":"ﾁﾖﾀﾞｸ","kana_address":"ﾏﾙﾉｳﾁﾄｳｷｮｳﾋﾞﾙﾃﾞｨﾝｸﾞ","pref":"東京都","city":"千代田区","address":"丸の内東京ビルディング"},
{"zip_code":"1006433","kana_pref":"ﾄｳｷｮｳﾄ","kana_city":"ﾁﾖﾀﾞｸ","kana_address":"ﾏﾙﾉｳﾁﾄｳｷｮｳﾋﾞﾙﾃﾞｨﾝｸﾞ","pref":"東京都","city":"千代田区","address":"丸の内東京ビルディング"},
{"zip_code":"1006290","kana_pref":"ﾄｳｷｮｳﾄ","kana_city":"ﾁﾖﾀﾞｸ","kana_address":"ﾏﾙﾉｳﾁﾊﾟｼﾌｨｯｸｾﾝﾁｭﾘｰﾌﾟﾚｲｽﾏﾙﾉｳﾁ","pref":"東京都","city":"千代田区","address":"丸の内パシフィックセンチュリープレイス丸の内"},
{"zip_code":"1006201","kana_pref":"ﾄｳｷｮｳﾄ","kana_city":"ﾁﾖﾀﾞｸ","kana_address":"ﾏﾙﾉｳﾁﾊﾟｼﾌｨｯｸｾﾝﾁｭﾘｰﾌﾟﾚｲｽﾏﾙﾉｳﾁ","pref":"東京都","city":"千代田区","address":"丸の内パシフィックセンチュリープレイス丸の内"},
{"zip_code":"1006202","kana_pref":"ﾄｳｷｮｳﾄ","kana_city":"ﾁﾖﾀﾞｸ","kana_address":"ﾏﾙﾉｳﾁﾊﾟｼﾌｨｯｸｾﾝﾁｭﾘｰﾌﾟﾚｲｽﾏﾙﾉｳﾁ","pref":"東京都","city":"千代田区","address":"丸の内パシフィックセンチュリープレイス丸の内"},
{"zip_code":"1006203","kana_pref":"ﾄｳｷｮｳﾄ","kana_city":"ﾁﾖﾀﾞｸ","kana_address":"ﾏﾙﾉｳﾁﾊﾟｼﾌｨｯｸｾﾝﾁｭﾘｰﾌﾟﾚｲｽﾏﾙﾉｳﾁ","pref":"東京都","city":"千代田区","address":"丸の内パシフィックセンチュリープレイス丸の内"},
{"zip_code":"1006204","kana_pref":"ﾄｳｷｮｳﾄ","kana_city":"ﾁﾖﾀﾞｸ","kana_address":"ﾏﾙﾉｳﾁﾊﾟｼﾌｨｯｸｾﾝﾁｭﾘｰﾌﾟﾚｲｽﾏﾙﾉｳﾁ","pref":"東京都","city":"千代田区","address":"丸の内パシフィックセンチュリープレイス丸の内"},
{"zip_code":"1006205","kana_pref":"ﾄｳｷｮｳﾄ","kana_city":"ﾁﾖﾀﾞｸ","kana_address":"ﾏﾙﾉｳﾁﾊﾟｼﾌｨｯｸｾﾝﾁｭﾘｰﾌﾟﾚｲｽﾏﾙﾉｳﾁ","pref":"東京都","city":"千代田区","address":"丸の内パシフィックセンチュリープレイス丸の内"},
{"zip_code":"1006206","kana_pref":"ﾄｳｷｮｳﾄ","kana_city":"ﾁﾖﾀﾞｸ","kana_address":"ﾏﾙﾉｳﾁﾊﾟｼﾌｨｯｸｾﾝﾁｭﾘｰﾌﾟﾚｲｽﾏﾙﾉｳﾁ","pref":"東京都","city":"千代田区","address":"丸の内パシフィックセンチュリープレイス丸の内"},
{"zip_code":"1006207","kana_pref":"ﾄｳｷｮｳﾄ","kana_city":"ﾁﾖﾀﾞｸ","kana_address":"ﾏﾙﾉｳﾁﾊﾟｼﾌｨｯｸｾﾝﾁｭﾘｰﾌﾟﾚｲｽﾏﾙﾉｳﾁ","pref":"東京都","city":"千代田区","address":"丸の内パシフィックセンチュリープレイス丸の内"},
{"zip_code":"1006208","kana_pref":"ﾄｳｷｮｳﾄ","kana_city":"ﾁﾖﾀﾞｸ","kana_address":"ﾏﾙﾉｳﾁﾊﾟｼﾌｨｯｸｾﾝﾁｭﾘｰﾌﾟﾚｲｽﾏﾙﾉｳﾁ","pref":"東京都","city":"千代田区","address":"丸の内パシフィックセンチュリープレイス丸の内"},
{"zip_code":"1006209","kana_pref":"ﾄｳｷｮｳﾄ","kana_city":"ﾁﾖﾀﾞｸ","kana_address":"ﾏﾙﾉｳﾁﾊﾟｼﾌｨｯｸｾﾝﾁｭﾘｰﾌﾟﾚｲｽﾏﾙﾉｳﾁ","pref":"東京都","city":"千代田区","address":"丸の内パシフィックセンチュリープレイス丸の内"},
{"zip_code":"1006210","kana_pref":"ﾄｳｷｮｳﾄ","kana_city":"ﾁﾖﾀﾞｸ","kana_address":"ﾏﾙﾉｳﾁﾊﾟｼﾌｨｯｸｾﾝﾁｭﾘｰﾌﾟﾚｲｽﾏﾙﾉｳﾁ","pref":"東京都","city":"千代田区","address":"丸の内パシフィックセンチュリープレイス丸の内"},
{"zip_code":"1006211","kana_pref":"ﾄｳｷｮｳﾄ","kana_city":"ﾁﾖﾀﾞｸ","kana_address":"ﾏﾙﾉｳﾁﾊﾟｼﾌｨｯｸｾﾝﾁｭﾘｰﾌﾟﾚｲｽﾏﾙﾉｳﾁ","pref":"東京都","city":"千代田区","address":"丸の内パシフィックセンチュリープレイス丸の内"},
{"zip_code":"1006212","kana_pref":"ﾄｳｷｮｳﾄ","kana_city":"ﾁﾖﾀﾞｸ","kana_address":"ﾏﾙﾉｳﾁﾊﾟｼﾌｨｯｸｾﾝﾁｭﾘｰﾌﾟﾚｲｽﾏﾙﾉｳﾁ","pref":"東京都","city":"千代田区","address":"丸の内パシフィックセンチュリープレイス丸の内"},
{"zip_code":"1006213","kana_pref":"ﾄｳｷｮｳﾄ","kana_city":"ﾁﾖﾀﾞｸ","kana_address":"ﾏﾙﾉｳﾁﾊﾟｼﾌｨｯｸｾﾝﾁｭﾘｰﾌﾟﾚｲｽﾏﾙﾉｳﾁ","pref":"東京都","city":"千代田区","address":"丸の内パシフィックセンチュリープレイス丸の内"},
{"zip_code":"1006214","kana_pref":"ﾄｳｷｮｳﾄ","kana_city":"ﾁﾖﾀﾞｸ","kana_address":"ﾏﾙﾉｳﾁﾊﾟｼﾌｨｯｸｾﾝﾁｭﾘｰﾌﾟﾚｲｽﾏﾙﾉｳﾁ","pref":"東京都","city":"千代田区","address":"丸の内パシフィックセンチュリープレイス丸の内"},
{"zip_code":"1006215","kana_pref":"ﾄｳｷｮｳﾄ","kana_city":"ﾁﾖﾀﾞｸ","kana_address":"ﾏﾙﾉｳﾁﾊﾟｼﾌｨｯｸｾﾝﾁｭﾘｰﾌﾟﾚｲｽﾏﾙﾉｳﾁ","pref":"東京都","city":"千代田区","address":"丸の内パシフィックセンチュリープレイス丸の内"},
{"zip_code":"1006216","kana_pref":"ﾄｳｷｮｳﾄ","kana_city":"ﾁﾖﾀﾞｸ","kana_address":"ﾏﾙﾉｳﾁﾊﾟｼﾌｨｯｸｾﾝﾁｭﾘｰﾌﾟﾚｲｽﾏﾙﾉｳﾁ","pref":"東京都","city":"千代田区","address":"丸の内パシフィックセンチュリープレイス丸の内"},
{"zip_code":"1006217","kana_pref":"ﾄｳｷｮｳﾄ","kana_city":"ﾁﾖﾀﾞｸ","kana_address":"ﾏﾙﾉｳﾁﾊﾟｼﾌｨｯｸｾﾝﾁｭﾘｰﾌﾟﾚｲｽﾏﾙﾉｳﾁ","pref":"東京都","city":"千代田区","address":"丸の内パシフィックセンチュリープレイス丸の内"},
{"zip_code":"1006218","kana_pref":"ﾄｳｷｮｳﾄ","kana_city":"ﾁﾖﾀﾞｸ","kana_address":"ﾏﾙﾉｳﾁﾊﾟｼﾌｨｯｸｾﾝﾁｭﾘｰﾌﾟﾚｲｽﾏﾙﾉｳﾁ","pref":"東京都","city":"千代田区","address":"丸の内パシフィックセンチュリープレイス丸の内"},
{"zip_code":"1006219","kana_pref":"ﾄｳｷｮｳﾄ","kana_city":"ﾁﾖﾀﾞｸ","kana_address":"ﾏﾙﾉｳﾁﾊﾟｼﾌｨｯｸｾﾝﾁｭﾘｰﾌﾟﾚｲｽﾏﾙﾉｳﾁ","pref":"東京都","city":"千代田区","address":"丸の内パシフィックセンチュリープレイス丸の内"},
{"zip_code":"1006220","kana_pref":"ﾄｳｷｮｳﾄ","kana_city":"ﾁﾖﾀﾞｸ","kana_address":"ﾏﾙﾉｳﾁﾊﾟｼﾌｨｯｸｾﾝﾁｭﾘｰﾌﾟﾚｲｽﾏﾙﾉｳﾁ","pref":"東京都","city":"千代田区","address":"丸の内パシフィックセンチュリープレイス丸の内"},
{"zip_code":"1006221","kana_pref":"ﾄｳｷｮｳﾄ","kana_city":"ﾁﾖﾀﾞｸ","kana_address":"ﾏﾙﾉｳﾁﾊﾟｼﾌｨｯｸｾﾝﾁｭﾘｰﾌﾟﾚｲｽﾏﾙﾉｳﾁ","pref":"東京都","city":"千代田区","address":"丸の内パシフィックセンチュリープレイス丸の内"},
{"zip_code":"1006222","kana_pref":"ﾄｳｷｮｳﾄ","kana_city":"ﾁﾖﾀﾞｸ","kana_address":"ﾏﾙﾉｳﾁﾊﾟｼﾌｨｯｸｾﾝﾁｭﾘｰﾌﾟﾚｲｽﾏﾙﾉｳﾁ","pref":"東京都","city":"千代田区","address":"丸の内パシフィックセンチュリープレイス丸の内"},
{"zip_code":"1006223","kana_pref":"ﾄｳｷｮｳﾄ","kana_city":"ﾁﾖﾀﾞｸ","kana_address":"ﾏﾙﾉｳﾁﾊﾟｼﾌｨｯｸｾﾝﾁｭﾘｰﾌﾟﾚｲｽﾏﾙﾉｳﾁ","pref":"東京都","city":"千代田区","address":"丸の内パシフィックセンチュリープレイス丸の内"},
{"zip_code":"1006224","kana_pref":"ﾄｳｷｮｳﾄ","kana_city":"ﾁﾖﾀﾞｸ","kana_address":"ﾏﾙﾉｳﾁﾊﾟｼﾌｨｯｸｾﾝﾁｭﾘｰﾌﾟﾚｲｽﾏﾙﾉｳﾁ","pref":"東京都","city":"千代田区","address":"丸の内パシフィックセンチュリープレイス丸の内"},
{"zip_code":"1006225","kana_pref":"ﾄｳｷｮｳﾄ","kana_city":"ﾁﾖﾀﾞｸ","kana_address":"ﾏﾙﾉｳﾁﾊﾟｼﾌｨｯｸｾﾝﾁｭﾘｰﾌﾟﾚｲｽﾏﾙﾉｳﾁ","pref":"東京都","city":"千代田区","address":"丸の内パシフィックセンチュリープレイス丸の内"},
{"zip_code":"1006226","kana_pref":"ﾄｳｷｮｳﾄ","kana_city":"ﾁﾖﾀﾞｸ","kana_address":"ﾏﾙﾉｳﾁﾊﾟｼﾌｨｯｸｾﾝﾁｭﾘｰﾌﾟﾚｲｽﾏﾙﾉｳﾁ","pref":"東京都","city":"千代田区","address":"丸の内パシフィックセンチュリープレイス丸の内"},
{"zip_code":"1006227","kana_pref":"ﾄｳｷｮｳﾄ","kana_city":"ﾁﾖﾀﾞｸ","kana_address":"ﾏﾙﾉｳﾁﾊﾟｼﾌｨｯｸｾﾝﾁｭﾘｰﾌﾟﾚｲｽﾏﾙﾉｳﾁ","pref":"東京都","city":"千代田区","address":"丸の内パシフィックセンチュリープレイス丸の内"},
{"zip_code":"1006228","kana_pref":"ﾄｳｷｮｳﾄ","kana_city":"ﾁﾖﾀﾞｸ","kana_address":"ﾏﾙﾉｳﾁﾊﾟｼﾌｨｯｸｾﾝﾁｭﾘｰﾌﾟﾚｲｽﾏﾙﾉｳﾁ","pref":"東京都","city":"千代田区","address":"丸の内パシフィックセンチュリープレイス丸の内"},
{"zip_code":"1006229","kana_pref":"ﾄｳｷｮｳﾄ","kana_city":"ﾁﾖﾀﾞｸ","kana_address":"ﾏﾙﾉｳﾁﾊﾟｼﾌｨｯｸｾﾝﾁｭﾘｰﾌﾟﾚｲｽﾏﾙﾉｳﾁ","pref":"東京都","city":"千代田区","address":"丸の内パシフィックセンチュリープレイス丸の内"},
{"zip_code":"1006230","kana_pref":"ﾄｳｷｮｳﾄ","kana_city":"ﾁﾖﾀﾞｸ","kana_address":"ﾏﾙﾉｳﾁﾊﾟｼﾌｨｯｸｾﾝﾁｭﾘｰﾌﾟﾚｲｽﾏﾙﾉｳﾁ","pref":"東京都","city":"千代田区","address":"丸の内パシフィックセンチュリープレイス丸の内"},
{"zip_code":"1006231","kana_pref":"ﾄｳｷｮｳﾄ","kana_city":"ﾁﾖﾀﾞｸ","kana_address":"ﾏﾙﾉｳﾁﾊﾟｼﾌｨｯｸｾﾝﾁｭﾘｰﾌﾟﾚｲｽﾏﾙﾉｳﾁ","pref":"東京都","city":"千代田区","address":"丸の内パシフィックセンチュリープレイス丸の内"},
{"zip_code":"1006990","kana_pref":"ﾄｳｷｮｳﾄ","kana_city":"ﾁﾖﾀﾞｸ","kana_address":"ﾏﾙﾉｳﾁﾏﾙﾉｳﾁﾊﾟｰｸﾋﾞﾙﾃﾞｨﾝｸﾞ","pref":"東京都","city":"千代田区","address":"丸の内丸の内パークビルディング"},
{"zip_code":"1006901","kana_pref":"ﾄｳｷｮｳﾄ","kana_city":"ﾁﾖﾀﾞｸ","kana_address":"ﾏﾙﾉｳﾁﾏﾙﾉｳﾁﾊﾟｰｸﾋﾞﾙﾃﾞｨﾝｸﾞ","pref":"東京都","city":"千代田区","address":"丸の内丸の内パークビルディング"},
{"zip_code":"1006902","kana_pref":"ﾄｳｷｮｳﾄ","kana_city":"ﾁﾖﾀﾞｸ","kana_address":"ﾏﾙﾉｳﾁﾏﾙﾉｳﾁﾊﾟｰｸﾋﾞﾙﾃﾞｨﾝｸﾞ","pref":"東京都","city":"千代田区","address":"丸の内丸の内パークビルディング"},
{"zip_code":"1006903","kana_pref":"ﾄｳｷｮｳﾄ","kana_city":"ﾁﾖﾀﾞｸ","kana_address":"ﾏﾙﾉｳﾁﾏﾙﾉｳﾁﾊﾟｰｸﾋﾞﾙﾃﾞｨﾝｸﾞ","pref":"東京都","city":"千代田区","address":"丸の内丸の内パークビルディング"},
{"zip_code":"1006904","kana_pref":"ﾄｳｷｮｳﾄ","kana_city":"ﾁﾖﾀﾞｸ","kana_address":"ﾏﾙﾉｳﾁﾏﾙﾉｳﾁﾊﾟｰｸﾋﾞﾙﾃﾞｨﾝｸﾞ","pref":"東京都","city":"千代田区","address":"丸の内丸の内パークビルディング"},
{"zip_code":"1006905","kana_pref":"ﾄｳｷｮｳﾄ","kana_city":"ﾁﾖﾀﾞｸ","kana_address":"ﾏﾙﾉｳﾁﾏﾙﾉｳﾁﾊﾟｰｸﾋﾞﾙﾃﾞｨﾝｸﾞ","pref":"東京都","city":"千代田区","address":"丸の内丸の内パークビルディング"},
{"zip_code":"1006906","kana_pref":"ﾄｳｷｮｳﾄ","kana_city":"ﾁﾖﾀﾞｸ","kana_address":"ﾏﾙﾉｳﾁﾏﾙﾉｳﾁﾊﾟｰｸﾋﾞﾙﾃﾞｨﾝｸﾞ","pref":"東京都","city":"千代田区","address":"丸の内丸の内パークビルディング"},
{"zip_code":"1006907","kana_pref":"ﾄｳｷｮｳﾄ","kana_city":"ﾁﾖﾀﾞｸ","kana_address":"ﾏﾙﾉｳﾁﾏﾙﾉｳﾁﾊﾟｰｸﾋﾞﾙﾃﾞｨﾝｸﾞ","pref":"東京都","city":"千代田区","address":"丸の内丸の内パークビルディング"},
{"zip_code":"1006908","kana_pref":"ﾄｳｷｮｳﾄ","kana_city":"ﾁﾖﾀﾞｸ","kana_address":"ﾏﾙﾉｳﾁﾏﾙﾉｳﾁﾊﾟｰｸﾋﾞﾙﾃﾞｨﾝｸﾞ","pref":"東京都","city":"千代田区","address":"丸の内丸の内パークビルディング"},
{"zip_code":"1006909","kana_pref":"ﾄｳｷｮｳﾄ","kana_city":"ﾁﾖﾀﾞｸ","kana_address":"ﾏﾙﾉｳﾁﾏﾙﾉｳﾁﾊﾟｰｸﾋﾞﾙﾃﾞｨﾝｸﾞ","pref":"東京都","city":"千代田区","address":"丸の内丸の内パークビルディング"},
{"zip_code":"1006910","kana_pref":"ﾄｳｷｮｳﾄ","kana_city":"ﾁﾖﾀﾞｸ","kana_address":"ﾏﾙﾉｳﾁﾏﾙﾉｳﾁﾊﾟｰｸﾋﾞﾙﾃﾞｨﾝｸﾞ","pref":"東京都","city":"千代田区","address":"丸の内丸の内パークビルディング"},
{"zip_code":"1006911","kana_pref":"ﾄｳｷｮｳﾄ","kana_city":"ﾁﾖﾀﾞｸ","kana_address":"ﾏﾙﾉｳﾁﾏﾙﾉｳﾁﾊﾟｰｸﾋﾞﾙﾃﾞｨﾝｸﾞ","pref":"東京都","city":"千代田区","address":"丸の内丸の内パークビルディング"},
{"zip_code":"1006912","kana_pref":"ﾄｳｷｮｳﾄ","kana_city":"ﾁﾖﾀﾞｸ","kana_address":"ﾏﾙﾉｳﾁﾏﾙﾉｳﾁﾊﾟｰｸﾋﾞﾙﾃﾞｨﾝｸﾞ","pref":"東京都","city":"千代田区","address":"丸の内丸の内パークビルディング"},
{"zip_code":"1006913","kana_pref":"ﾄｳｷｮｳﾄ","kana_city":"ﾁﾖﾀﾞｸ","kana_address":"ﾏﾙﾉｳﾁﾏﾙﾉｳﾁﾊﾟｰｸﾋﾞﾙﾃﾞｨﾝｸﾞ","pref":"東京都","city":"千代田区","address":"丸の内丸の内パークビルディング"},
{"zip_code":"1006914","kana_pref":"ﾄｳｷｮｳﾄ","kana_city":"ﾁﾖﾀﾞｸ","kana_address":"ﾏﾙﾉｳﾁﾏﾙﾉｳﾁﾊﾟｰｸﾋﾞﾙﾃﾞｨﾝｸﾞ","pref":"東京都","city":"千代田区","address":"丸の内丸の内パークビルディング"},
{"zip_code":"1006915","kana_pref":"ﾄｳｷｮｳﾄ","kana_city":"ﾁﾖﾀﾞｸ","kana_address":"ﾏﾙﾉｳﾁﾏﾙﾉｳﾁﾊﾟｰｸﾋﾞﾙﾃﾞｨﾝｸﾞ","pref":"東京都","city":"千代田区","address":"丸の内丸の内パークビルディング"},
{"zip_code":"1006916","kana_pref":"ﾄｳｷｮｳﾄ","kana_city":"ﾁﾖﾀﾞｸ","kana_address":"ﾏﾙﾉｳﾁﾏﾙﾉｳﾁﾊﾟｰｸﾋﾞﾙﾃﾞｨﾝｸﾞ","pref":"東京都","city":"千代田区","address":"丸の内丸の内パークビルディング"},
{"zip_code":"1006917","kana_pref":"ﾄｳｷｮｳﾄ","kana_city":"ﾁﾖﾀﾞｸ","kana_address":"ﾏﾙﾉｳﾁﾏﾙﾉｳﾁﾊﾟｰｸﾋﾞﾙﾃﾞｨﾝｸﾞ","pref":"東京都","city":"千代田区","address":"丸の内丸の内パークビルディング"},
{"zip_code":"1006918","kana_pref":"ﾄｳｷｮｳﾄ","kana_city":"ﾁﾖﾀﾞｸ","kana_address":"ﾏﾙﾉｳﾁﾏﾙﾉｳﾁﾊﾟｰｸﾋﾞﾙﾃﾞｨﾝｸﾞ","pref":"東京都","city":"千代田区","address":"丸の内丸の内パークビルディング"},
{"zip_code":"1006919","kana_pref":"ﾄｳｷｮｳﾄ","kana_city":"ﾁﾖﾀﾞｸ","kana_address":"ﾏﾙﾉｳﾁﾏﾙﾉｳﾁﾊﾟｰｸﾋﾞﾙﾃﾞｨﾝｸﾞ","pref":"東京都","city":"千代田区","address":"丸の内丸の内パークビルディング"},
{"zip_code":"1006920","kana_pref":"ﾄｳｷｮｳﾄ","kana_city":"ﾁﾖﾀﾞｸ","kana_address":"ﾏﾙﾉｳﾁﾏﾙﾉｳﾁﾊﾟｰｸﾋﾞﾙﾃﾞｨﾝｸﾞ","pref":"東京都","city":"千代田区","address":"丸の内丸の内パークビルディング"},
{"zip_code":"1006921","kana_pref":"ﾄｳｷｮｳﾄ","kana_city":"ﾁﾖﾀﾞｸ","kana_address":"ﾏﾙﾉｳﾁﾏﾙﾉｳﾁﾊﾟｰｸﾋﾞﾙﾃﾞｨﾝｸﾞ","pref":"東京都","city":"千代田区","address":"丸の内丸の内パークビルディング"},
{"zip_code":"1006922","kana_pref":"ﾄｳｷｮｳﾄ","kana_city":"ﾁﾖﾀﾞｸ","kana_address":"ﾏﾙﾉｳﾁﾏﾙﾉｳﾁﾊﾟｰｸﾋﾞﾙﾃﾞｨﾝｸﾞ","pref":"東京都","city":"千代田区","address":"丸の内丸の内パークビルディング"},
{"zip_code":"1006923","kana_pref":"ﾄｳｷｮｳﾄ","kana_city":"ﾁﾖﾀﾞｸ","kana_address":"ﾏﾙﾉｳﾁﾏﾙﾉｳﾁﾊﾟｰｸﾋﾞﾙﾃﾞｨﾝｸﾞ","pref":"東京都","city":"千代田区","address":"丸の内丸の内パークビルディング"},
{"zip_code":"1006924","kana_pref":"ﾄｳｷｮｳﾄ","kana_city":"ﾁﾖﾀﾞｸ","kana_address":"ﾏﾙﾉｳﾁﾏﾙﾉｳﾁﾊﾟｰｸﾋﾞﾙﾃﾞｨﾝｸﾞ","pref":"東京都","city":"千代田区","address":"丸の内丸の内パークビルディング"},
{"zip_code":"1006925","kana_pref":"ﾄｳｷｮｳﾄ","kana_city":"ﾁﾖﾀﾞｸ","kana_address":"ﾏﾙﾉｳﾁﾏﾙﾉｳﾁﾊﾟｰｸﾋﾞﾙﾃﾞｨﾝｸﾞ","pref":"東京都","city":"千代田区","address":"丸の内丸の内パークビルディング"},
{"zip_code":"1006926","kana_pref":"ﾄｳｷｮｳﾄ","kana_city":"ﾁﾖﾀﾞｸ","kana_address":"ﾏﾙﾉｳﾁﾏﾙﾉｳﾁﾊﾟｰｸﾋﾞﾙﾃﾞｨﾝｸﾞ","pref":"東京都","city":"千代田区","address":"丸の内丸の内パークビルディング"},
{"zip_code":"1006927","kana_pref":"ﾄｳｷｮｳﾄ","kana_city":"ﾁﾖﾀﾞｸ","kana_address":"ﾏﾙﾉｳﾁﾏﾙﾉｳﾁﾊﾟｰｸﾋﾞﾙﾃﾞｨﾝｸﾞ","pref":"東京都","city":"千代田区","address":"丸の内丸の内パークビルディング"},
{"zip_code":"1006928","kana_pref":"ﾄｳｷｮｳﾄ","kana_city":"ﾁﾖﾀﾞｸ","kana_address":"ﾏﾙﾉｳﾁﾏﾙﾉｳﾁﾊﾟｰｸﾋﾞﾙﾃﾞｨﾝｸﾞ","pref":"東京都","city":"千代田区","address":"丸の内丸の内パークビルディング"},
{"zip_code":"1006929","kana_pref":"ﾄｳｷｮｳﾄ","kana_city":"ﾁﾖﾀﾞｸ","kana_address":"ﾏﾙﾉｳﾁﾏﾙﾉｳﾁﾊﾟｰｸﾋﾞﾙﾃﾞｨﾝｸﾞ","pref":"東京都","city":"千代田区","address":"丸の内丸の内パークビルディング"},
{"zip_code":"1006930","kana_pref":"ﾄｳｷｮｳﾄ","kana_city":"ﾁﾖﾀﾞｸ","kana_address":"ﾏﾙﾉｳﾁﾏﾙﾉｳﾁﾊﾟｰｸﾋﾞﾙﾃﾞｨﾝｸﾞ","pref":"東京都","city":"千代田区","address":"丸の内丸の内パークビルディング"},
{"zip_code":"1006931","kana_pref":"ﾄｳｷｮｳﾄ","kana_city":"ﾁﾖﾀﾞｸ","kana_address":"ﾏﾙﾉｳﾁﾏﾙﾉｳﾁﾊﾟｰｸﾋﾞﾙﾃﾞｨﾝｸﾞ","pref":"東京都","city":"千代田区","address":"丸の内丸の内パークビルディング"},
{"zip_code":"1006932","kana_pref":"ﾄｳｷｮｳﾄ","kana_city":"ﾁﾖﾀﾞｸ","kana_address":"ﾏﾙﾉｳﾁﾏﾙﾉｳﾁﾊﾟｰｸﾋﾞﾙﾃﾞｨﾝｸﾞ","pref":"東京都","city":"千代田区","address":"丸の内丸の内パークビルディング"},
{"zip_code":"1006933","kana_pref":"ﾄｳｷｮｳﾄ","kana_city":"ﾁﾖﾀﾞｸ","kana_address":"ﾏﾙﾉｳﾁﾏﾙﾉｳﾁﾊﾟｰｸﾋﾞﾙﾃﾞｨﾝｸﾞ","pref":"東京都","city":"千代田区","address":"丸の内丸の内パークビルディング"},
{"zip_code":"1006934","kana_pref":"ﾄｳｷｮｳﾄ","kana_city":"ﾁﾖﾀﾞｸ","kana_address":"ﾏﾙﾉｳﾁﾏﾙﾉｳﾁﾊﾟｰｸﾋﾞﾙﾃﾞｨﾝｸﾞ","pref":"東京都","city":"千代田区","address":"丸の内丸の内パークビルディング"},
{"zip_code":"1006390","kana_pref":"ﾄｳｷｮｳﾄ","kana_city":"ﾁﾖﾀﾞｸ","kana_address":"ﾏﾙﾉｳﾁﾏﾙﾉｳﾁﾋﾞﾙﾃﾞｨﾝｸﾞ","pref":"東京都","city":"千代田区","address":"丸の内丸の内ビルディング"},
{"zip_code":"1006301","kana_pref":"ﾄｳｷｮｳﾄ","kana_city":"ﾁﾖﾀﾞｸ","kana_address":"ﾏﾙﾉｳﾁﾏﾙﾉｳﾁﾋﾞﾙﾃﾞｨﾝｸﾞ","pref":"東京都","city":"千代田区","address":"丸の内丸の内ビルディング"},
{"zip_code":"1006302","kana_pref":"ﾄｳｷｮｳﾄ","kana_city":"ﾁﾖﾀﾞｸ","kana_address":"ﾏﾙﾉｳﾁﾏﾙﾉｳﾁﾋﾞﾙﾃﾞｨﾝｸﾞ","pref":"東京都","city":"千代田区","address":"丸の内丸の内ビルディング"},
{"zip_code":"1006303","kana_pref":"ﾄｳｷｮｳﾄ","kana_city":"ﾁﾖﾀﾞｸ","kana_address":"ﾏﾙﾉｳﾁﾏﾙﾉｳﾁﾋﾞﾙﾃﾞｨﾝｸﾞ","pref":"東京都","city":"千代田区","address":"丸の内丸の内ビルディング"},
{"zip_code":"1006304","kana_pref":"ﾄｳｷｮｳﾄ","kana_city":"ﾁﾖﾀﾞｸ","kana_address":"ﾏﾙﾉｳﾁﾏﾙﾉｳﾁﾋﾞﾙﾃﾞｨﾝｸﾞ","pref":"東京都","city":"千代田区","address":"丸の内丸の内ビルディング"},
{"zip_code":"1006305","kana_pref":"ﾄｳｷｮｳﾄ","kana_city":"ﾁﾖﾀﾞｸ","kana_address":"ﾏﾙﾉｳﾁﾏﾙﾉｳﾁﾋﾞﾙﾃﾞｨﾝｸﾞ","pref":"東京都","city":"千代田区","address":"丸の内丸の内ビルディング"},
{"zip_code":"1006306","kana_pref":"ﾄｳｷｮｳﾄ","kana_city":"ﾁﾖﾀﾞｸ","kana_address":"ﾏﾙﾉｳﾁﾏﾙﾉｳﾁﾋﾞﾙﾃﾞｨﾝｸﾞ","pref":"東京都","city":"千代田区","address":"丸の内丸の内ビルディング"},
{"zip_code":"1006307","kana_pref":"ﾄｳｷｮｳﾄ","kana_city":"ﾁﾖﾀﾞｸ","kana_address":"ﾏﾙﾉｳﾁﾏﾙﾉｳﾁﾋﾞﾙﾃﾞｨﾝｸﾞ","pref":"東京都","city":"千代田区","address":"丸の内丸の内ビルディング"},
{"zip_code":"1006308","kana_pref":"ﾄｳｷｮｳﾄ","kana_city":"ﾁﾖﾀﾞｸ","kana_address":"ﾏﾙﾉｳﾁﾏﾙﾉｳﾁﾋﾞﾙﾃﾞｨﾝｸﾞ","pref":"東京都","city":"千代田区","address":"丸の内丸の内ビルディング"},
{"zip_code":"1006309","kana_pref":"ﾄｳｷｮｳﾄ","kana_city":"ﾁﾖﾀﾞｸ","kana_address":"ﾏﾙﾉｳﾁﾏﾙﾉｳﾁﾋﾞﾙﾃﾞｨﾝｸﾞ","pref":"東京都","city":"千代田区","address":"丸の内丸の内ビルディング"},
{"zip_code":"1006310","kana_pref":"ﾄｳｷｮｳﾄ","kana_city":"ﾁﾖﾀﾞｸ","kana_address":"ﾏﾙﾉｳﾁﾏﾙﾉｳﾁﾋﾞﾙﾃﾞｨﾝｸﾞ","pref":"東京都","city":"千代田区","address":"丸の内丸の内ビルディング"},
{"zip_code":"1006311","kana_pref":"ﾄｳｷｮｳﾄ","kana_city":"ﾁﾖﾀﾞｸ","kana_address":"ﾏﾙﾉｳﾁﾏﾙﾉｳﾁﾋﾞﾙﾃﾞｨﾝｸﾞ","pref":"東京都","city":"千代田区","address":"丸の内丸の内ビルディング"},
{"zip_code":"1006312","kana_pref":"ﾄｳｷｮｳﾄ","kana_city":"ﾁﾖﾀﾞｸ","kana_address":"ﾏﾙﾉｳﾁﾏﾙﾉｳﾁﾋﾞﾙﾃﾞｨﾝｸﾞ","pref":"東京都","city":"千代田区","address":"丸の内丸の内ビルディング"},
{"zip_code":"1006313","kana_pref":"ﾄｳｷｮｳﾄ","kana_city":"ﾁﾖﾀﾞｸ","kana_address":"ﾏﾙﾉｳﾁﾏﾙﾉｳﾁﾋﾞﾙﾃﾞｨﾝｸﾞ","pref":"東京都","city":"千代田区","address":"丸の内丸の内ビルディング"},
{"zip_code":"1006314","kana_pref":"ﾄｳｷｮｳﾄ","kana_city":"ﾁﾖﾀﾞｸ","kana_address":"ﾏﾙﾉｳﾁﾏﾙﾉｳﾁﾋﾞﾙﾃﾞｨﾝｸﾞ","pref":"東京都","city":"千代田区","address":"丸の内丸の内ビルディング"},
{"zip_code":"1006315","kana_pref":"ﾄｳｷｮｳﾄ","kana_city":"ﾁﾖﾀﾞｸ","kana_address":"ﾏﾙﾉｳﾁﾏﾙﾉｳﾁﾋﾞﾙﾃﾞｨﾝｸﾞ","pref":"東京都","city":"千代田区","address":"丸の内丸の内ビルディング"},
{"zip_code":"1006316","kana_pref":"ﾄｳｷｮｳﾄ","kana_city":"ﾁﾖﾀﾞｸ","kana_address":"ﾏﾙﾉｳﾁﾏﾙﾉｳﾁﾋﾞﾙﾃﾞｨﾝｸﾞ","pref":"東京都","city":"千代田区","address":"丸の内丸の内ビルディング"},
{"zip_code":"1006317","kana_pref":"ﾄｳｷｮｳﾄ","kana_city":"ﾁﾖﾀﾞｸ","kana_address":"ﾏﾙﾉｳﾁﾏﾙﾉｳﾁﾋﾞﾙﾃﾞｨﾝｸﾞ","pref":"東京都","city":"千代田区","address":"丸の内丸の内ビルディング"},
{"zip_code":"1006318","kana_pref":"ﾄｳｷｮｳﾄ","kana_city":"ﾁﾖﾀﾞｸ","kana_address":"ﾏﾙﾉｳﾁﾏﾙﾉｳﾁﾋﾞﾙﾃﾞｨﾝｸﾞ","pref":"東京都","city":"千代田区","address":"丸の内丸の内ビルディング"},
{"zip_code":"1006319","kana_pref":"ﾄｳｷｮｳﾄ","kana_city":"ﾁﾖﾀﾞｸ","kana_address":"ﾏﾙﾉｳﾁﾏﾙﾉｳﾁﾋﾞﾙﾃﾞｨﾝｸﾞ","pref":"東京都","city":"千代田区","address":"丸の内丸の内ビルディング"},
{"zip_code":"1006320","kana_pref":"ﾄｳｷｮｳﾄ","kana_city":"ﾁﾖﾀﾞｸ","kana_address":"ﾏﾙﾉｳﾁﾏﾙﾉｳﾁﾋﾞﾙﾃﾞｨﾝｸﾞ","pref":"東京都","city":"千代田区","address":"丸の内丸の内ビルディング"},
{"zip_code":"1006321","kana_pref":"ﾄｳｷｮｳﾄ","kana_city":"ﾁﾖﾀﾞｸ","kana_address":"ﾏﾙﾉｳﾁﾏﾙﾉｳﾁﾋﾞﾙﾃﾞｨﾝｸﾞ","pref":"東京都","city":"千代田区","address":"丸の内丸の内ビルディング"},
{"zip_code":"1006322","kana_pref":"ﾄｳｷｮｳﾄ","kana_city":"ﾁﾖﾀﾞｸ","kana_address":"ﾏﾙﾉｳﾁﾏﾙﾉｳﾁﾋﾞﾙﾃﾞｨﾝｸﾞ","pref":"東京都","city":"千代田区","address":"丸の内丸の内ビルディング"},
{"zip_code":"1006323","kana_pref":"ﾄｳｷｮｳﾄ","kana_city":"ﾁﾖﾀﾞｸ","kana_address":"ﾏﾙﾉｳﾁﾏﾙﾉｳﾁﾋﾞﾙﾃﾞｨﾝｸﾞ","pref":"東京都","city":"千代田区","address":"丸の内丸の内ビルディング"},
{"zip_code":"1006324","kana_pref":"ﾄｳｷｮｳﾄ","kana_city":"ﾁﾖﾀﾞｸ","kana_address":"ﾏﾙﾉｳﾁﾏﾙﾉｳﾁﾋﾞﾙﾃﾞｨﾝｸﾞ","pref":"東京都","city":"千代田区","address":"丸の内丸の内ビルディング"},
{"zip_code":"1006325","kana_pref":"ﾄｳｷｮｳﾄ","kana_city":"ﾁﾖﾀﾞｸ","kana_address":"ﾏﾙﾉｳﾁﾏﾙﾉｳﾁﾋﾞﾙﾃﾞｨﾝｸﾞ","pref":"東京都","city":"千代田区","address":"丸の内丸の内ビルディング"},
{"zip_code":"1006326","kana_pref":"ﾄｳｷｮｳﾄ","kana_city":"ﾁﾖﾀﾞｸ","kana_address":"ﾏﾙﾉｳﾁﾏﾙﾉｳﾁﾋﾞﾙﾃﾞｨﾝｸﾞ","pref":"東京都","city":"千代田区","address":"丸の内丸の内ビルディング"},
{"zip_code":"1006327","kana_pref":"ﾄｳｷｮｳﾄ","kana_city":"ﾁﾖﾀﾞｸ","kana_address":"ﾏﾙﾉｳﾁﾏﾙﾉｳﾁﾋﾞﾙﾃﾞｨﾝｸﾞ","pref":"東京都","city":"千代田区","address":"丸の内丸の内ビルディング"},
{"zip_code":"1006328","kana_pref":"ﾄｳｷｮｳﾄ","kana_city":"ﾁﾖﾀﾞｸ","kana_address":"ﾏﾙﾉｳﾁﾏﾙﾉｳﾁﾋﾞﾙﾃﾞｨﾝｸﾞ","pref":"東京都","city":"千代田区","address":"丸の内丸の内ビルディング"},
{"zip_code":"1006329","kana_pref":"ﾄｳｷｮｳﾄ","kana_city":"ﾁﾖﾀﾞｸ","kana_address":"ﾏﾙﾉｳﾁﾏﾙﾉｳﾁﾋﾞﾙﾃﾞｨﾝｸﾞ","pref":"東京都","city":"千代田区","address":"丸の内丸の内ビルディング"},
{"zip_code":"1006330","kana_pref":"ﾄｳｷｮｳﾄ","kana_city":"ﾁﾖﾀﾞｸ","kana_address":"ﾏﾙﾉｳﾁﾏﾙﾉｳﾁﾋﾞﾙﾃﾞｨﾝｸﾞ","pref":"東京都","city":"千代田区","address":"丸の内丸の内ビルディング"},
{"zip_code":"1006331","kana_pref":"ﾄｳｷｮｳﾄ","kana_city":"ﾁﾖﾀﾞｸ","kana_address":"ﾏﾙﾉｳﾁﾏﾙﾉｳﾁﾋﾞﾙﾃﾞｨﾝｸﾞ","pref":"東京都","city":"千代田区","address":"丸の内丸の内ビルディング"},
{"zip_code":"1006332","kana_pref":"ﾄｳｷｮｳﾄ","kana_city":"ﾁﾖﾀﾞｸ","kana_address":"ﾏﾙﾉｳﾁﾏﾙﾉｳﾁﾋﾞﾙﾃﾞｨﾝｸﾞ","pref":"東京都","city":"千代田区","address":"丸の内丸の内ビルディング"},
{"zip_code":"1006333","kana_pref":"ﾄｳｷｮｳﾄ","kana_city":"ﾁﾖﾀﾞｸ","kana_address":"ﾏﾙﾉｳﾁﾏﾙﾉｳﾁﾋﾞﾙﾃﾞｨﾝｸﾞ","pref":"東京都","city":"千代田区","address":"丸の内丸の内ビルディング"},
{"zip_code":"1006334","kana_pref":"ﾄｳｷｮｳﾄ","kana_city":"ﾁﾖﾀﾞｸ","kana_address":"ﾏﾙﾉｳﾁﾏﾙﾉｳﾁﾋﾞﾙﾃﾞｨﾝｸﾞ","pref":"東京都","city":"千代田区","address":"丸の内丸の内ビルディング"},
{"zip_code":"1006335","kana_pref":"ﾄｳｷｮｳﾄ","kana_city":"ﾁﾖﾀﾞｸ","kana_address":"ﾏﾙﾉｳﾁﾏﾙﾉｳﾁﾋﾞﾙﾃﾞｨﾝｸﾞ","pref":"東京都","city":"千代田区","address":"丸の内丸の内ビルディング"},
{"zip_code":"1006336","kana_pref":"ﾄｳｷｮｳﾄ","kana_city":"ﾁﾖﾀﾞｸ","kana_address":"ﾏﾙﾉｳﾁﾏﾙﾉｳﾁﾋﾞﾙﾃﾞｨﾝｸﾞ","pref":"東京都","city":"千代田区","address":"丸の内丸の内ビルディング"},
{"zip_code":"1006337","kana_pref":"ﾄｳｷｮｳﾄ","kana_city":"ﾁﾖﾀﾞｸ","kana_address":"ﾏﾙﾉｳﾁﾏﾙﾉｳﾁﾋﾞﾙﾃﾞｨﾝｸﾞ","pref":"東京都","city":"千代田区","address":"丸の内丸の内ビルディング"},
{"zip_code":"1000006","kana_pref":"ﾄｳｷｮｳﾄ","kana_city":"ﾁﾖﾀﾞｸ","kana_address":"ﾕｳﾗｸﾁｮｳ","pref":"東京都","city":"千代田区","address":"有楽町"},
{"zip_code":"1000100","kana_pref":"ﾄｳｷｮｳﾄ","kana_city":"ｵｵｼﾏﾏﾁ","kana_address":"","pref":"東京都","city":"大島町","address":""},
{"zip_code":"1000102","kana_pref":"ﾄｳｷｮｳﾄ","kana_city":"ｵｵｼﾏﾏﾁ","kana_address":"ｵｶﾀ","pref":"東京都","city":"大島町","address":"岡田"},
{"zip_code":"1000211","kana_pref":"ﾄｳｷｮｳﾄ","kana_city":"ｵｵｼﾏﾏﾁ","kana_address":"ｻｼｷｼﾞ","pref":"東京都","city":"大島町","address":"差木地"},
{"zip_code":"1000103","kana_pref":"ﾄｳｷｮｳﾄ","kana_city":"ｵｵｼﾏﾏﾁ","kana_address":"ｾﾝﾂﾞ","pref":"東京都","city":"大島町","address":"泉津"},
{"zip_code":"1000104","kana_pref":"ﾄｳｷｮｳﾄ","kana_city":"ｵｵｼﾏﾏﾁ","kana_address":"ﾉﾏｼ","pref":"東京都","city":"大島町","address":"野増"},
{"zip_code":"1000212","kana_pref":"ﾄｳｷｮｳﾄ","kana_city":"ｵｵｼﾏﾏﾁ","kana_address":"ﾊﾌﾞﾐﾅﾄ","pref":"東京都","city":"大島町","address":"波浮港"},
{"zip_code":"1000101","kana_pref":"ﾄｳｷｮｳﾄ","kana_city":"ｵｵｼﾏﾏﾁ","kana_address":"ﾓﾄﾏﾁ","pref":"東京都","city":"大島町","address":"元町"},
{"zip_code":"1000301","kana_pref":"ﾄｳｷｮｳﾄ","kana_city":"ﾄｼﾏﾑﾗ","kana_address":"ﾄｼﾏﾑﾗｲﾁｴﾝ","pref":"東京都","city":"利島村","address":"利島村一円"},
{"zip_code":"1000400","kana_pref":"ﾄｳｷｮｳﾄ","kana_city":"ﾆｲｼﾞﾏﾑﾗ","kana_address":"","pref":"東京都","city":"新島村","address":""},
{"zip_code":"1000511","kana_pref":"ﾄｳｷｮｳﾄ","kana_city":"ﾆｲｼﾞﾏﾑﾗ","kana_address":"ｼｷﾈｼﾞﾏ","pref":"東京都","city":"新島村","address":"式根島"},
{"zip_code":"1000402","kana_pref":"ﾄｳｷｮｳﾄ","kana_city":"ﾆｲｼﾞﾏﾑﾗ","kana_address":"ﾎﾝｿﾝ","pref":"東京都","city":"新島村","address":"本村"},
{"zip_code":"1000401","kana_pref":"ﾄｳｷｮｳﾄ","kana_city":"ﾆｲｼﾞﾏﾑﾗ","kana_address":"ﾜｶｺﾞｳ","pref":"東京都","city":"新島村","address":"若郷"},
{"zip_code":"1000601","kana_pref":"ﾄｳｷｮｳﾄ","kana_city":"ｺｳﾂﾞｼﾏﾑﾗ","kana_address":"ｺｳﾂﾞｼﾏﾑﾗｲﾁｴﾝ","pref":"東京都","city":"神津島村","address":"神津島村一円"},
{"zip_code":"1001100","kana_pref":"ﾄｳｷｮｳﾄ","kana_city":"ﾐﾔｹｼﾞﾏﾐﾔｹﾑﾗ","kana_address":"","pref":"東京都","city":"三宅島三宅村","address":""},
{"zip_code":"1001212","kana_pref":"ﾄｳｷｮｳﾄ","kana_city":"ﾐﾔｹｼﾞﾏﾐﾔｹﾑﾗ","kana_address":"ｱｺ","pref":"東京都","city":"三宅島三宅村","address":"阿古"},
{"zip_code":"1001103","kana_pref":"ﾄｳｷｮｳﾄ","kana_city":"ﾐﾔｹｼﾞﾏﾐﾔｹﾑﾗ","kana_address":"ｲｶﾞﾔ","pref":"東京都","city":"三宅島三宅村","address":"伊ケ谷"},
{"zip_code":"1001102","kana_pref":"ﾄｳｷｮｳﾄ","kana_city":"ﾐﾔｹｼﾞﾏﾐﾔｹﾑﾗ","kana_address":"ｲｽﾞ","pref":"東京都","city":"三宅島三宅村","address":"伊豆"},
{"zip_code":"1001213","kana_pref":"ﾄｳｷｮｳﾄ","kana_city":"ﾐﾔｹｼﾞﾏﾐﾔｹﾑﾗ","kana_address":"ｵﾔﾏ","pref":"東京都","city":"三宅島三宅村","address":"雄山"},
{"zip_code":"1001101","kana_pref":"ﾄｳｷｮｳﾄ","kana_city":"ﾐﾔｹｼﾞﾏﾐﾔｹﾑﾗ","kana_address":"ｶﾐﾂｷ","pref":"東京都","city":"三宅島三宅村","address":"神着"},
{"zip_code":"1001211","kana_pref":"ﾄｳｷｮｳﾄ","kana_city":"ﾐﾔｹｼﾞﾏﾐﾔｹﾑﾗ","kana_address":"ﾂﾎﾞﾀ","pref":"東京都","city":"三宅島三宅村","address":"坪田"},
{"zip_code":"1001301","kana_pref":"ﾄｳｷｮｳﾄ","kana_city":"ﾐｸﾗｼﾞﾏﾑﾗ","kana_address":"ﾐｸﾗｼﾞﾏﾑﾗｲﾁｴﾝ","pref":"東京都","city":"御蔵島村","address":"御蔵島村一円"},
{"zip_code":"1001400","kana_pref":"ﾄｳｷｮｳﾄ","kana_city":"ﾊﾁｼﾞｮｳｼﾞﾏﾊﾁｼﾞｮｳﾏﾁ","kana_address":"","pref":"東京都","city":"八丈島八丈町","address":""},
{"zip_code":"1001401","kana_pref":"ﾄｳｷｮｳﾄ","kana_city":"ﾊﾁｼﾞｮｳｼﾞﾏﾊﾁｼﾞｮｳﾏﾁ","kana_address":"ｵｵｶｺﾞｳ","pref":"東京都","city":"八丈島八丈町","address":"大賀郷"},
{"zip_code":"1001621","kana_pref":"ﾄｳｷｮｳﾄ","kana_city":"ﾊﾁｼﾞｮｳｼﾞﾏﾊﾁｼﾞｮｳﾏﾁ","kana_address":"ｶｼﾀﾃ","pref":"東京都","city":"八丈島八丈町","address":"樫立"},
{"zip_code":"1001622","kana_pref":"ﾄｳｷｮｳﾄ","kana_city":"ﾊﾁｼﾞｮｳｼﾞﾏﾊﾁｼﾞｮｳﾏﾁ","kana_address":"ｽｴﾖｼ","pref":"東京都","city":"八丈島八丈町","address":"末吉"},
{"zip_code":"1001623","kana_pref":"ﾄｳｷｮｳﾄ","kana_city":"ﾊﾁｼﾞｮｳｼﾞﾏﾊﾁｼﾞｮｳﾏﾁ","kana_address":"ﾅｶﾉｺﾞｳ","pref":"東京都","city":"八丈島八丈町","address":"中之郷"},
{"zip_code":"1001511","kana_pref":"ﾄｳｷｮｳﾄ","kana_city":"ﾊﾁｼﾞｮｳｼﾞﾏﾊﾁｼﾞｮｳﾏﾁ","kana_address":"ﾐﾂﾈ","pref":"東京都","city":"八丈島八丈町","address":"三根"},
{"zip_code":"1001701","kana_pref":"ﾄｳｷｮｳﾄ","kana_city":"ｱｵｶﾞｼﾏﾑﾗ","kana_address":"ｱｵｶﾞｼﾏﾑﾗｲﾁｴﾝ","pref":"東京都","city":"青ヶ島村","address":"青ヶ島村一円"},
{"zip_code":"1002100","kana_pref":"ﾄｳｷｮｳﾄ","kana_city":"ｵｶﾞｻﾜﾗﾑﾗ","kana_address":"","pref":"東京都","city":"小笠原村","address":""},
{"zip_code":"1002101","kana_pref":"ﾄｳｷｮｳﾄ","kana_city":"ｵｶﾞｻﾜﾗﾑﾗ","kana_address":"ﾁﾁｼﾞﾏ","pref":"東京都","city":"小笠原村","address":"父島"},
{"zip_code":"1002211","kana_pref":"ﾄｳｷｮｳﾄ","kana_city":"ｵｶﾞｻﾜﾗﾑﾗ","kana_address":"ﾊﾊｼﾞﾏ","pref":"東京都","city":"小笠原村","address":"母島"}]}