{"zip_code":[
{"zip_code":"1010032","kana_pref":"ﾄｳｷｮｳﾄ","kana_city":"ﾁﾖﾀﾞｸ","kana_address":"ｲﾜﾓﾄﾁｮｳ","pref":"東京都","city":"千代田区","address":"岩本町"},
{"zip_code":"1010047","kana_pref":"ﾄｳｷｮｳﾄ","kana_city":"ﾁﾖﾀﾞｸ","kana_address":"ｳﾁｶﾝﾀﾞ","pref":"東京都","city":"千代田区","address":"内神田"},
{"zip_code":"1010044","kana_pref":"ﾄｳｷｮｳﾄ","kana_city":"ﾁﾖﾀﾞｸ","kana_address":"ｶｼﾞﾁｮｳ","pref":"東京都","city":"千代田区","address":"鍛冶町"},
{"zip_code":"1010029","kana_pref":"ﾄｳｷｮｳﾄ","kana_city":"ﾁﾖﾀﾞｸ","kana_address":"ｶﾝﾀﾞｱｲｵｲﾁｮｳ","pref":"東京都","city":"千代田区","address":"神田相生町"},
{"zip_code":"1010063","kana_pref":"ﾄｳｷｮｳﾄ","kana_city":"ﾁﾖﾀﾞｸ","kana_address":"ｶﾝﾀﾞｱﾜｼﾞﾁｮｳ","pref":"東京都","city":"千代田区","address":"神田淡路町"},
{"zip_code":"1010024","kana_pref":"ﾄｳｷｮｳﾄ","kana_city":"ﾁﾖﾀﾞｸ","kana_address":"ｶﾝﾀﾞｲｽﾞﾐﾁｮｳ","pref":"東京都","city":"千代田区","address":"神田和泉町"},
{"zip_code":"1010033","kana_pref":"ﾄｳｷｮｳﾄ","kana_city":"ﾁﾖﾀﾞｸ","kana_address":"ｶﾝﾀﾞｲﾜﾓﾄﾁｮｳ","pref":"東京都","city":"千代田区","address":"神田岩本町"},
{"zip_code":"1010052","kana_pref":"ﾄｳｷｮｳﾄ","kana_city":"ﾁﾖﾀﾞｸ","kana_address":"ｶﾝﾀﾞｵｶﾞﾜﾏﾁ","pref":"東京都","city":"千代田区","address":"神田小川町"},
{"zip_code":"1010045","kana_pref":"ﾄｳｷｮｳﾄ","kana_city":"ﾁﾖﾀﾞｸ","kana_address":"ｶﾝﾀﾞｶｼﾞﾁｮｳ","pref":"東京都","city":"千代田区","address":"神田鍛冶町"},
{"zip_code":"1010036","kana_pref":"ﾄｳｷｮｳﾄ","kana_city":"ﾁﾖﾀﾞｸ","kana_address":"ｶﾝﾀﾞｷﾀﾉﾘﾓﾉﾁｮｳ","pref":"東京都","city":"千代田区","address":"神田北乗物町"},
{"zip_code":"1010035","kana_pref":"ﾄｳｷｮｳﾄ","kana_city":"ﾁﾖﾀﾞｸ","kana_address":"ｶﾝﾀﾞｺﾝﾔﾁｮｳ","pref":"東京都","city":"千代田区","address":"神田紺屋町"},
{"zip_code":"1010026","kana_pref":"ﾄｳｷｮｳﾄ","kana_city":"ﾁﾖﾀﾞｸ","kana_address":"ｶﾝﾀﾞｻｸﾏｶﾞｼ","pref":"東京都","city":"千代田区","address":"神田佐久間河岸"},
{"zip_code":"1010025","kana_pref":"ﾄｳｷｮｳﾄ","kana_city":"ﾁﾖﾀﾞｸ","kana_address":"ｶﾝﾀﾞｻｸﾏﾁｮｳ","pref":"東京都","city":"千代田区","address":"神田佐久間町"},
{"zip_code":"1010051","kana_pref":"ﾄｳｷｮｳﾄ","kana_city":"ﾁﾖﾀﾞｸ","kana_address":"ｶﾝﾀﾞｼﾞﾝﾎﾞｳﾁｮｳ","pref":"東京都","city":"千代田区","address":"神田神保町"},
{"zip_code":"1010041","kana_pref":"ﾄｳｷｮｳﾄ","kana_city":"ﾁﾖﾀﾞｸ","kana_address":"ｶﾝﾀﾞｽﾀﾞﾁｮｳ","pref":"東京都","city":"千代田区","address":"神田須田町"},
{"zip_code":"1010062","kana_pref":"ﾄｳｷｮｳﾄ","kana_city":"ﾁﾖﾀﾞｸ","kana_address":"ｶﾝﾀﾞｽﾙｶﾞﾀﾞｲ","pref":"東京都","city":"千代田区","address":"神田駿河台"},
{"zip_code":"1010046","kana_pref":"ﾄｳｷｮｳﾄ","kana_city":"ﾁﾖﾀﾞｸ","kana_address":"ｶﾝﾀﾞﾀﾁｮｳ","pref":"東京都","city":"千代田区","address":"神田多町"},
{"zip_code":"1010048","kana_pref":"ﾄｳｷｮｳﾄ","kana_city":"ﾁﾖﾀﾞｸ","kana_address":"ｶﾝﾀﾞﾂｶｻﾏﾁ","pref":"東京都","city":"千代田区","address":"神田司町"},
{"zip_code":"1010043","kana_pref":"ﾄｳｷｮｳﾄ","kana_city":"ﾁﾖﾀﾞｸ","kana_address":"ｶﾝﾀﾞﾄﾐﾔﾏﾁｮｳ","pref":"東京都","city":"千代田区","address":"神田富山町"},
{"zip_code":"1010054","kana_pref":"ﾄｳｷｮｳﾄ","kana_city":"ﾁﾖﾀﾞｸ","kana_address":"ｶﾝﾀﾞﾆｼｷﾁｮｳ","pref":"東京都","city":"千代田区","address":"神田錦町"},
{"zip_code":"1010037","kana_pref":"ﾄｳｷｮｳﾄ","kana_city":"ﾁﾖﾀﾞｸ","kana_address":"ｶﾝﾀﾞﾆｼﾌｸﾀﾞﾁｮｳ","pref":"東京都","city":"千代田区","address":"神田西福田町"},
{"zip_code":"1010022","kana_pref":"ﾄｳｷｮｳﾄ","kana_city":"ﾁﾖﾀﾞｸ","kana_address":"ｶﾝﾀﾞﾈﾘﾍﾞｲﾁｮｳ","pref":"東京都","city":"千代田区","address":"神田練塀町"},
{"zip_code":"1010028","kana_pref":"ﾄｳｷｮｳﾄ","kana_city":"ﾁﾖﾀﾞｸ","kana_address":"ｶﾝﾀﾞﾊﾅｵｶﾁｮｳ","pref":"東京都","city":"千代田区","address":"神田花岡町"},
{"zip_code":"1010034","kana_pref":"ﾄｳｷｮｳﾄ","kana_city":"ﾁﾖﾀﾞｸ","kana_address":"ｶﾝﾀﾞﾋｶﾞｼｺﾝﾔﾁｮｳ","pref":"東京都","city":"千代田区","address":"神田東紺屋町"},
{"zip_code":"1010042","kana_pref":"ﾄｳｷｮｳﾄ","kana_city":"ﾁﾖﾀﾞｸ","kana_address":"ｶﾝﾀﾞﾋｶﾞｼﾏﾂｼﾀﾁｮｳ","pref":"東京都","city":"千代田区","address":"神田東松下町"},
{"zip_code":"1010027","kana_pref":"ﾄｳｷｮｳﾄ","kana_city":"ﾁﾖﾀﾞｸ","kana_address":"ｶﾝﾀﾞﾋﾗｶﾜﾁｮｳ","pref":"東京都","city":"千代田区","address":"神田平河町"},
{"zip_code":"1010023","kana_pref":"ﾄｳｷｮｳﾄ","kana_city":"ﾁﾖﾀﾞｸ","kana_address":"ｶﾝﾀﾞﾏﾂﾅｶﾞﾁｮｳ","pref":"東京都","city":"千代田区","address":"神田松永町"},
{"zip_code":"1010038","kana_pref":"ﾄｳｷｮｳﾄ","kana_city":"ﾁﾖﾀﾞｸ","kana_address":"ｶﾝﾀﾞﾐｸﾗﾁｮｳ","pref":"東京都","city":"千代田区","address":"神田美倉町"},
{"zip_code":"1010053","kana_pref":"ﾄｳｷｮｳﾄ","kana_city":"ﾁﾖﾀﾞｸ","kana_address":"ｶﾝﾀﾞﾐﾄｼﾛﾁｮｳ","pref":"東京都","city":"千代田区","address":"神田美土代町"},
{"zip_code":"1010064","kana_pref":"ﾄｳｷｮｳﾄ","kana_city":"ﾁﾖﾀﾞｸ","kana_address":"ｻﾙｶﾞｸﾁｮｳ","pref":"東京都","city":"千代田区","address":"猿楽町"},
{"zip_code":"1010021","kana_pref":"ﾄｳｷｮｳﾄ","kana_city":"ﾁﾖﾀﾞｸ","kana_address":"ｿﾄｶﾝﾀﾞ","pref":"東京都","city":"千代田区","address":"外神田"},
{"zip_code":"1010065","kana_pref":"ﾄｳｷｮｳﾄ","kana_city":"ﾁﾖﾀﾞｸ","kana_address":"ﾆｼｶﾝﾀﾞ","pref":"東京都","city":"千代田区","address":"西神田"},
{"zip_code":"1010031","kana_pref":"ﾄｳｷｮｳﾄ","kana_city":"ﾁﾖﾀﾞｸ","kana_address":"ﾋｶﾞｼｶﾝﾀﾞ","pref":"東京都","city":"千代田区","address":"東神田"},
{"zip_code":"1010003","kana_pref":"ﾄｳｷｮｳﾄ","kana_city":"ﾁﾖﾀﾞｸ","kana_address":"ﾋﾄﾂﾊﾞｼ","pref":"東京都","city":"千代田区","address":"一ツ橋"},
{"zip_code":"1010061","kana_pref":"ﾄｳｷｮｳﾄ","kana_city":"ﾁﾖﾀﾞｸ","kana_address":"ﾐｻｷﾁｮｳ","pref":"東京都","city":"千代田区","address":"三崎町"}]}