{"zip_code":[
{"zip_code":"1020072","kana_pref":"ﾄｳｷｮｳﾄ","kana_city":"ﾁﾖﾀﾞｸ","kana_address":"ｲｲﾀﾞﾊﾞｼ","pref":"東京都","city":"千代田区","address":"飯田橋"},
{"zip_code":"1020082","kana_pref":"ﾄｳｷｮｳﾄ","kana_city":"ﾁﾖﾀﾞｸ","kana_address":"ｲﾁﾊﾞﾝﾁｮｳ","pref":"東京都","city":"千代田区","address":"一番町"},
{"zip_code":"1020094","kana_pref":"ﾄｳｷｮｳﾄ","kana_city":"ﾁﾖﾀﾞｸ","kana_address":"ｷｵｲﾁｮｳ","pref":"東京都","city":"千代田区","address":"紀尾井町"},
{"zip_code":"1020091","kana_pref":"ﾄｳｷｮｳﾄ","kana_city":"ﾁﾖﾀﾞｸ","kana_address":"ｷﾀﾉﾏﾙｺｳｴﾝ","pref":"東京都","city":"千代田区","address":"北の丸公園"},
{"zip_code":"1020074","kana_pref":"ﾄｳｷｮｳﾄ","kana_city":"ﾁﾖﾀﾞｸ","kana_address":"ｸﾀﾞﾝﾐﾅﾐ","pref":"東京都","city":"千代田区","address":"九段南"},
{"zip_code":"1020073","kana_pref":"ﾄｳｷｮｳﾄ","kana_city":"ﾁﾖﾀﾞｸ","kana_address":"ｸﾀﾞﾝｷﾀ","pref":"東京都","city":"千代田区","address":"九段北"},
{"zip_code":"1020083","kana_pref":"ﾄｳｷｮｳﾄ","kana_city":"ﾁﾖﾀﾞｸ","kana_address":"ｺｳｼﾞﾏﾁ","pref":"東京都","city":"千代田区","address":"麹町"},
{"zip_code":"1020076","kana_pref":"ﾄｳｷｮｳﾄ","kana_city":"ﾁﾖﾀﾞｸ","kana_address":"ｺﾞﾊﾞﾝﾁｮｳ","pref":"東京都","city":"千代田区","address":"五番町"},
{"zip_code":"1020075","kana_pref":"ﾄｳｷｮｳﾄ","kana_city":"ﾁﾖﾀﾞｸ","kana_address":"ｻﾝﾊﾞﾝﾁｮｳ","pref":"東京都","city":"千代田区","address":"三番町"},
{"zip_code":"1020084","kana_pref":"ﾄｳｷｮｳﾄ","kana_city":"ﾁﾖﾀﾞｸ","kana_address":"ﾆﾊﾞﾝﾁｮｳ","pref":"東京都","city":"千代田区","address":"二番町"},
{"zip_code":"1020092","kana_pref":"ﾄｳｷｮｳﾄ","kana_city":"ﾁﾖﾀﾞｸ","kana_address":"ﾊﾔﾌﾞｻﾁｮｳ","pref":"東京都","city":"千代田区","address":"隼町"},
{"zip_code":"1020093","kana_pref":"ﾄｳｷｮｳﾄ","kana_city":"ﾁﾖﾀﾞｸ","kana_address":"ﾋﾗｶﾜﾁｮｳ","pref":"東京都","city":"千代田区","address":"平河町"},
{"zip_code":"1020071","kana_pref":"ﾄｳｷｮｳﾄ","kana_city":"ﾁﾖﾀﾞｸ","kana_address":"ﾌｼﾞﾐ","pref":"東京都","city":"千代田区","address":"富士見"},
{"zip_code":"1020081","kana_pref":"ﾄｳｷｮｳﾄ","kana_city":"ﾁﾖﾀﾞｸ","kana_address":"ﾖﾝﾊﾞﾝﾁｮｳ","pref":"東京都","city":"千代田区","address":"四番町"},
{"zip_code":"1020085","kana_pref":"ﾄｳｷｮｳﾄ","kana_city":"ﾁﾖﾀﾞｸ","kana_address":"ﾛｸﾊﾞﾝﾁｮｳ","pref":"東京都","city":"千代田区","address":"六番町"}]}