{"zip_code":[
{"zip_code":"1030000","kana_pref":"ﾄｳｷｮｳﾄ","kana_city":"ﾁｭｳｵｳｸ","kana_address":"","pref":"東京都","city":"中央区","address":""},
{"zip_code":"1030027","kana_pref":"ﾄｳｷｮｳﾄ","kana_city":"ﾁｭｳｵｳｸ","kana_address":"ﾆﾎﾝﾊﾞｼ","pref":"東京都","city":"中央区","address":"日本橋"},
{"zip_code":"1030011","kana_pref":"ﾄｳｷｮｳﾄ","kana_city":"ﾁｭｳｵｳｸ","kana_address":"ﾆﾎﾝﾊﾞｼｵｵﾃﾞﾝﾏﾁｮｳ","pref":"東京都","city":"中央区","address":"日本橋大伝馬町"},
{"zip_code":"1030014","kana_pref":"ﾄｳｷｮｳﾄ","kana_city":"ﾁｭｳｵｳｸ","kana_address":"ﾆﾎﾝﾊﾞｼｶｷｶﾞﾗﾁｮｳ","pref":"東京都","city":"中央区","address":"日本橋蛎殻町"},
{"zip_code":"1030026","kana_pref":"ﾄｳｷｮｳﾄ","kana_city":"ﾁｭｳｵｳｸ","kana_address":"ﾆﾎﾝﾊﾞｼｶﾌﾞﾄﾁｮｳ","pref":"東京都","city":"中央区","address":"日本橋兜町"},
{"zip_code":"1030025","kana_pref":"ﾄｳｷｮｳﾄ","kana_city":"ﾁｭｳｵｳｸ","kana_address":"ﾆﾎﾝﾊﾞｼｶﾔﾊﾞﾁｮｳ","pref":"東京都","city":"中央区","address":"日本橋茅場町"},
{"zip_code":"1030016","kana_pref":"ﾄｳｷｮｳﾄ","kana_city":"ﾁｭｳｵｳｸ","kana_address":"ﾆﾎﾝﾊﾞｼｺｱﾐﾁｮｳ","pref":"東京都","city":"中央区","address":"日本橋小網町"},
{"zip_code":"1030001","kana_pref":"ﾄｳｷｮｳﾄ","kana_city":"ﾁｭｳｵｳｸ","kana_address":"ﾆﾎﾝﾊﾞｼｺﾃﾞﾝﾏﾁｮｳ","pref":"東京都","city":"中央区","address":"日本橋小伝馬町"},
{"zip_code":"1030024","kana_pref":"ﾄｳｷｮｳﾄ","kana_city":"ﾁｭｳｵｳｸ","kana_address":"ﾆﾎﾝﾊﾞｼｺﾌﾞﾅﾁｮｳ","pref":"東京都","city":"中央区","address":"日本橋小舟町"},
{"zip_code":"1030006","kana_pref":"ﾄｳｷｮｳﾄ","kana_city":"ﾁｭｳｵｳｸ","kana_address":"ﾆﾎﾝﾊﾞｼﾄﾐｻﾞﾜﾁｮｳ","pref":"東京都","city":"中央区","address":"日本橋富沢町"},
{"zip_code":"1030008","kana_pref":"ﾄｳｷｮｳﾄ","kana_city":"ﾁｭｳｵｳｸ","kana_address":"ﾆﾎﾝﾊﾞｼﾅｶｽ","pref":"東京都","city":"中央区","address":"日本橋中洲"},
{"zip_code":"1030013","kana_pref":"ﾄｳｷｮｳﾄ","kana_city":"ﾁｭｳｵｳｸ","kana_address":"ﾆﾎﾝﾊﾞｼﾆﾝｷﾞｮｳﾁｮｳ","pref":"東京都","city":"中央区","address":"日本橋人形町"},
{"zip_code":"1030015","kana_pref":"ﾄｳｷｮｳﾄ","kana_city":"ﾁｭｳｵｳｸ","kana_address":"ﾆﾎﾝﾊﾞｼﾊｺｻﾞｷﾁｮｳ","pref":"東京都","city":"中央区","address":"日本橋箱崎町"},
{"zip_code":"1030007","kana_pref":"ﾄｳｷｮｳﾄ","kana_city":"ﾁｭｳｵｳｸ","kana_address":"ﾆﾎﾝﾊﾞｼﾊﾏﾁｮｳ","pref":"東京都","city":"中央区","address":"日本橋浜町"},
{"zip_code":"1030002","kana_pref":"ﾄｳｷｮｳﾄ","kana_city":"ﾁｭｳｵｳｸ","kana_address":"ﾆﾎﾝﾊﾞｼﾊﾞｸﾛﾁｮｳ","pref":"東京都","city":"中央区","address":"日本橋馬喰町"},
{"zip_code":"1030005","kana_pref":"ﾄｳｷｮｳﾄ","kana_city":"ﾁｭｳｵｳｸ","kana_address":"ﾆﾎﾝﾊﾞｼﾋｻﾏﾂﾁｮｳ","pref":"東京都","city":"中央区","address":"日本橋久松町"},
{"zip_code":"1030012","kana_pref":"ﾄｳｷｮｳﾄ","kana_city":"ﾁｭｳｵｳｸ","kana_address":"ﾆﾎﾝﾊﾞｼﾎﾘﾄﾞﾒﾁｮｳ","pref":"東京都","city":"中央区","address":"日本橋堀留町"},
{"zip_code":"1030021","kana_pref":"ﾄｳｷｮｳﾄ","kana_city":"ﾁｭｳｵｳｸ","kana_address":"ﾆﾎﾝﾊﾞｼﾎﾝｺﾞｸﾁｮｳ","pref":"東京都","city":"中央区","address":"日本橋本石町"},
{"zip_code":"1030023","kana_pref":"ﾄｳｷｮｳﾄ","kana_city":"ﾁｭｳｵｳｸ","kana_address":"ﾆﾎﾝﾊﾞｼﾎﾝﾁｮｳ","pref":"東京都","city":"中央区","address":"日本橋本町"},
{"zip_code":"1030022","kana_pref":"ﾄｳｷｮｳﾄ","kana_city":"ﾁｭｳｵｳｸ","kana_address":"ﾆﾎﾝﾊﾞｼﾑﾛﾏﾁ","pref":"東京都","city":"中央区","address":"日本橋室町"},
{"zip_code":"1030003","kana_pref":"ﾄｳｷｮｳﾄ","kana_city":"ﾁｭｳｵｳｸ","kana_address":"ﾆﾎﾝﾊﾞｼﾖｺﾔﾏﾁｮｳ","pref":"東京都","city":"中央区","address":"日本橋横山町"},
{"zip_code":"1030004","kana_pref":"ﾄｳｷｮｳﾄ","kana_city":"ﾁｭｳｵｳｸ","kana_address":"ﾋｶﾞｼﾆﾎﾝﾊﾞｼ","pref":"東京都","city":"中央区","address":"東日本橋"},
{"zip_code":"1030028","kana_pref":"ﾄｳｷｮｳﾄ","kana_city":"ﾁｭｳｵｳｸ","kana_address":"ﾔｴｽ","pref":"東京都","city":"中央区","address":"八重洲"}]}