{"zip_code":[
{"zip_code":"1040044","kana_pref":"ﾄｳｷｮｳﾄ","kana_city":"ﾁｭｳｵｳｸ","kana_address":"ｱｶｼﾁｮｳ","pref":"東京都","city":"中央区","address":"明石町"},
{"zip_code":"1040042","kana_pref":"ﾄｳｷｮｳﾄ","kana_city":"ﾁｭｳｵｳｸ","kana_address":"ｲﾘﾌﾈ","pref":"東京都","city":"中央区","address":"入船"},
{"zip_code":"1040054","kana_pref":"ﾄｳｷｮｳﾄ","kana_city":"ﾁｭｳｵｳｸ","kana_address":"ｶﾁﾄﾞｷ","pref":"東京都","city":"中央区","address":"勝どき"},
{"zip_code":"1040031","kana_pref":"ﾄｳｷｮｳﾄ","kana_city":"ﾁｭｳｵｳｸ","kana_address":"ｷｮｳﾊﾞｼ","pref":"東京都","city":"中央区","address":"京橋"},
{"zip_code":"1040061","kana_pref":"ﾄｳｷｮｳﾄ","kana_city":"ﾁｭｳｵｳｸ","kana_address":"ｷﾞﾝｻﾞ","pref":"東京都","city":"中央区","address":"銀座"},
{"zip_code":"1040033","kana_pref":"ﾄｳｷｮｳﾄ","kana_city":"ﾁｭｳｵｳｸ","kana_address":"ｼﾝｶﾜ","pref":"東京都","city":"中央区","address":"新川"},
{"zip_code":"1040041","kana_pref":"ﾄｳｷｮｳﾄ","kana_city":"ﾁｭｳｵｳｸ","kana_address":"ｼﾝﾄﾐ","pref":"東京都","city":"中央区","address":"新富"},
{"zip_code":"1040052","kana_pref":"ﾄｳｷｮｳﾄ","kana_city":"ﾁｭｳｵｳｸ","kana_address":"ﾂｷｼﾏ","pref":"東京都","city":"中央区","address":"月島"},
{"zip_code":"1040045","kana_pref":"ﾄｳｷｮｳﾄ","kana_city":"ﾁｭｳｵｳｸ","kana_address":"ﾂｷｼﾞ","pref":"東京都","city":"中央区","address":"築地"},
{"zip_code":"1040051","kana_pref":"ﾄｳｷｮｳﾄ","kana_city":"ﾁｭｳｵｳｸ","kana_address":"ﾂｸﾀﾞ","pref":"東京都","city":"中央区","address":"佃"},
{"zip_code":"1040055","kana_pref":"ﾄｳｷｮｳﾄ","kana_city":"ﾁｭｳｵｳｸ","kana_address":"ﾄﾖﾐﾁｮｳ","pref":"東京都","city":"中央区","address":"豊海町"},
{"zip_code":"1040032","kana_pref":"ﾄｳｷｮｳﾄ","kana_city":"ﾁｭｳｵｳｸ","kana_address":"ﾊｯﾁｮｳﾎﾞﾘ","pref":"東京都","city":"中央区","address":"八丁堀"},
{"zip_code":"1040046","kana_pref":"ﾄｳｷｮｳﾄ","kana_city":"ﾁｭｳｵｳｸ","kana_address":"ﾊﾏﾘｷｭｳﾃｲｴﾝ","pref":"東京都","city":"中央区","address":"浜離宮庭園"},
{"zip_code":"1040053","kana_pref":"ﾄｳｷｮｳﾄ","kana_city":"ﾁｭｳｵｳｸ","kana_address":"ﾊﾙﾐ","pref":"東京都","city":"中央区","address":"晴海"},
{"zip_code":"1046090","kana_pref":"ﾄｳｷｮｳﾄ","kana_city":"ﾁｭｳｵｳｸ","kana_address":"ﾊﾙﾐｵﾌｨｽﾀﾜｰX","pref":"東京都","city":"中央区","address":"晴海オフィスタワーＸ"},
{"zip_code":"1046001","kana_pref":"ﾄｳｷｮｳﾄ","kana_city":"ﾁｭｳｵｳｸ","kana_address":"ﾊﾙﾐｵﾌｨｽﾀﾜｰX","pref":"東京都","city":"中央区","address":"晴海オフィスタワーＸ"},
{"zip_code":"1046002","kana_pref":"ﾄｳｷｮｳﾄ","kana_city":"ﾁｭｳｵｳｸ","kana_address":"ﾊﾙﾐｵﾌｨｽﾀﾜｰX","pref":"東京都","city":"中央区","address":"晴海オフィスタワーＸ"},
{"zip_code":"1046003","kana_pref":"ﾄｳｷｮｳﾄ","kana_city":"ﾁｭｳｵｳｸ","kana_address":"ﾊﾙﾐｵﾌｨｽﾀﾜｰX","pref":"東京都","city":"中央区","address":"晴海オフィスタワーＸ"},
{"zip_code":"1046004","kana_pref":"ﾄｳｷｮｳﾄ","kana_city":"ﾁｭｳｵｳｸ","kana_address":"ﾊﾙﾐｵﾌｨｽﾀﾜｰX","pref":"東京都","city":"中央区","address":"晴海オフィスタワーＸ"},
{"zip_code":"1046005","kana_pref":"ﾄｳｷｮｳﾄ","kana_city":"ﾁｭｳｵｳｸ","kana_address":"ﾊﾙﾐｵﾌｨｽﾀﾜｰX","pref":"東京都","city":"中央区","address":"晴海オフィスタワーＸ"},
{"zip_code":"1046006","kana_pref":"ﾄｳｷｮｳﾄ","kana_city":"ﾁｭｳｵｳｸ","kana_address":"ﾊﾙﾐｵﾌｨｽﾀﾜｰX","pref":"東京都","city":"中央区","address":"晴海オフィスタワーＸ"},
{"zip_code":"1046007","kana_pref":"ﾄｳｷｮｳﾄ","kana_city":"ﾁｭｳｵｳｸ","kana_address":"ﾊﾙﾐｵﾌｨｽﾀﾜｰX","pref":"東京都","city":"中央区","address":"晴海オフィスタワーＸ"},
{"zip_code":"1046008","kana_pref":"ﾄｳｷｮｳﾄ","kana_city":"ﾁｭｳｵｳｸ","kana_address":"ﾊﾙﾐｵﾌｨｽﾀﾜｰX","pref":"東京都","city":"中央区","address":"晴海オフィスタワーＸ"},
{"zip_code":"1046009","kana_pref":"ﾄｳｷｮｳﾄ","kana_city":"ﾁｭｳｵｳｸ","kana_address":"ﾊﾙﾐｵﾌｨｽﾀﾜｰX","pref":"東京都","city":"中央区","address":"晴海オフィスタワーＸ"},
{"zip_code":"1046010","kana_pref":"ﾄｳｷｮｳﾄ","kana_city":"ﾁｭｳｵｳｸ","kana_address":"ﾊﾙﾐｵﾌｨｽﾀﾜｰX","pref":"東京都","city":"中央区","address":"晴海オフィスタワーＸ"},
{"zip_code":"1046011","kana_pref":"ﾄｳｷｮｳﾄ","kana_city":"ﾁｭｳｵｳｸ","kana_address":"ﾊﾙﾐｵﾌｨｽﾀﾜｰX","pref":"東京都","city":"中央区","address":"晴海オフィスタワーＸ"},
{"zip_code":"1046012","kana_pref":"ﾄｳｷｮｳﾄ","kana_city":"ﾁｭｳｵｳｸ","kana_address":"ﾊﾙﾐｵﾌｨｽﾀﾜｰX","pref":"東京都","city":"中央区","address":"晴海オフィスタワーＸ"},
{"zip_code":"1046013","kana_pref":"ﾄｳｷｮｳﾄ","kana_city":"ﾁｭｳｵｳｸ","kana_address":"ﾊﾙﾐｵﾌｨｽﾀﾜｰX","pref":"東京都","city":"中央区","address":"晴海オフィスタワーＸ"},
{"zip_code":"1046014","kana_pref":"ﾄｳｷｮｳﾄ","kana_city":"ﾁｭｳｵｳｸ","kana_address":"ﾊﾙﾐｵﾌｨｽﾀﾜｰX","pref":"東京都","city":"中央区","address":"晴海オフィスタワーＸ"},
{"zip_code":"1046015","kana_pref":"ﾄｳｷｮｳﾄ","kana_city":"ﾁｭｳｵｳｸ","kana_address":"ﾊﾙﾐｵﾌｨｽﾀﾜｰX","pref":"東京都","city":"中央区","address":"晴海オフィスタワーＸ"},
{"zip_code":"1046016","kana_pref":"ﾄｳｷｮｳﾄ","kana_city":"ﾁｭｳｵｳｸ","kana_address":"ﾊﾙﾐｵﾌｨｽﾀﾜｰX","pref":"東京都","city":"中央区","address":"晴海オフィスタワーＸ"},
{"zip_code":"1046017","kana_pref":"ﾄｳｷｮｳﾄ","kana_city":"ﾁｭｳｵｳｸ","kana_address":"ﾊﾙﾐｵﾌｨｽﾀﾜｰX","pref":"東京都","city":"中央区","address":"晴海オフィスタワーＸ"},
{"zip_code":"1046018","kana_pref":"ﾄｳｷｮｳﾄ","kana_city":"ﾁｭｳｵｳｸ","kana_address":"ﾊﾙﾐｵﾌｨｽﾀﾜｰX","pref":"東京都","city":"中央区","address":"晴海オフィスタワーＸ"},
{"zip_code":"1046019","kana_pref":"ﾄｳｷｮｳﾄ","kana_city":"ﾁｭｳｵｳｸ","kana_address":"ﾊﾙﾐｵﾌｨｽﾀﾜｰX","pref":"東京都","city":"中央区","address":"晴海オフィスタワーＸ"},
{"zip_code":"1046020","kana_pref":"ﾄｳｷｮｳﾄ","kana_city":"ﾁｭｳｵｳｸ","kana_address":"ﾊﾙﾐｵﾌｨｽﾀﾜｰX","pref":"東京都","city":"中央区","address":"晴海オフィスタワーＸ"},
{"zip_code":"1046021","kana_pref":"ﾄｳｷｮｳﾄ","kana_city":"ﾁｭｳｵｳｸ","kana_address":"ﾊﾙﾐｵﾌｨｽﾀﾜｰX","pref":"東京都","city":"中央区","address":"晴海オフィスタワーＸ"},
{"zip_code":"1046022","kana_pref":"ﾄｳｷｮｳﾄ","kana_city":"ﾁｭｳｵｳｸ","kana_address":"ﾊﾙﾐｵﾌｨｽﾀﾜｰX","pref":"東京都","city":"中央区","address":"晴海オフィスタワーＸ"},
{"zip_code":"1046023","kana_pref":"ﾄｳｷｮｳﾄ","kana_city":"ﾁｭｳｵｳｸ","kana_address":"ﾊﾙﾐｵﾌｨｽﾀﾜｰX","pref":"東京都","city":"中央区","address":"晴海オフィスタワーＸ"},
{"zip_code":"1046024","kana_pref":"ﾄｳｷｮｳﾄ","kana_city":"ﾁｭｳｵｳｸ","kana_address":"ﾊﾙﾐｵﾌｨｽﾀﾜｰX","pref":"東京都","city":"中央区","address":"晴海オフィスタワーＸ"},
{"zip_code":"1046025","kana_pref":"ﾄｳｷｮｳﾄ","kana_city":"ﾁｭｳｵｳｸ","kana_address":"ﾊﾙﾐｵﾌｨｽﾀﾜｰX","pref":"東京都","city":"中央区","address":"晴海オフィスタワーＸ"},
{"zip_code":"1046026","kana_pref":"ﾄｳｷｮｳﾄ","kana_city":"ﾁｭｳｵｳｸ","kana_address":"ﾊﾙﾐｵﾌｨｽﾀﾜｰX","pref":"東京都","city":"中央区","address":"晴海オフィスタワーＸ"},
{"zip_code":"1046027","kana_pref":"ﾄｳｷｮｳﾄ","kana_city":"ﾁｭｳｵｳｸ","kana_address":"ﾊﾙﾐｵﾌｨｽﾀﾜｰX","pref":"東京都","city":"中央区","address":"晴海オフィスタワーＸ"},
{"zip_code":"1046028","kana_pref":"ﾄｳｷｮｳﾄ","kana_city":"ﾁｭｳｵｳｸ","kana_address":"ﾊﾙﾐｵﾌｨｽﾀﾜｰX","pref":"東京都","city":"中央区","address":"晴海オフィスタワーＸ"},
{"zip_code":"1046029","kana_pref":"ﾄｳｷｮｳﾄ","kana_city":"ﾁｭｳｵｳｸ","kana_address":"ﾊﾙﾐｵﾌｨｽﾀﾜｰX","pref":"東京都","city":"中央区","address":"晴海オフィスタワーＸ"},
{"zip_code":"1046030","kana_pref":"ﾄｳｷｮｳﾄ","kana_city":"ﾁｭｳｵｳｸ","kana_address":"ﾊﾙﾐｵﾌｨｽﾀﾜｰX","pref":"東京都","city":"中央区","address":"晴海オフィスタワーＸ"},
{"zip_code":"1046031","kana_pref":"ﾄｳｷｮｳﾄ","kana_city":"ﾁｭｳｵｳｸ","kana_address":"ﾊﾙﾐｵﾌｨｽﾀﾜｰX","pref":"東京都","city":"中央区","address":"晴海オフィスタワーＸ"},
{"zip_code":"1046032","kana_pref":"ﾄｳｷｮｳﾄ","kana_city":"ﾁｭｳｵｳｸ","kana_address":"ﾊﾙﾐｵﾌｨｽﾀﾜｰX","pref":"東京都","city":"中央区","address":"晴海オフィスタワーＸ"},
{"zip_code":"1046033","kana_pref":"ﾄｳｷｮｳﾄ","kana_city":"ﾁｭｳｵｳｸ","kana_address":"ﾊﾙﾐｵﾌｨｽﾀﾜｰX","pref":"東京都","city":"中央区","address":"晴海オフィスタワーＸ"},
{"zip_code":"1046034","kana_pref":"ﾄｳｷｮｳﾄ","kana_city":"ﾁｭｳｵｳｸ","kana_address":"ﾊﾙﾐｵﾌｨｽﾀﾜｰX","pref":"東京都","city":"中央区","address":"晴海オフィスタワーＸ"},
{"zip_code":"1046035","kana_pref":"ﾄｳｷｮｳﾄ","kana_city":"ﾁｭｳｵｳｸ","kana_address":"ﾊﾙﾐｵﾌｨｽﾀﾜｰX","pref":"東京都","city":"中央区","address":"晴海オフィスタワーＸ"},
{"zip_code":"1046036","kana_pref":"ﾄｳｷｮｳﾄ","kana_city":"ﾁｭｳｵｳｸ","kana_address":"ﾊﾙﾐｵﾌｨｽﾀﾜｰX","pref":"東京都","city":"中央区","address":"晴海オフィスタワーＸ"},
{"zip_code":"1046037","kana_pref":"ﾄｳｷｮｳﾄ","kana_city":"ﾁｭｳｵｳｸ","kana_address":"ﾊﾙﾐｵﾌｨｽﾀﾜｰX","pref":"東京都","city":"中央区","address":"晴海オフィスタワーＸ"},
{"zip_code":"1046038","kana_pref":"ﾄｳｷｮｳﾄ","kana_city":"ﾁｭｳｵｳｸ","kana_address":"ﾊﾙﾐｵﾌｨｽﾀﾜｰX","pref":"東京都","city":"中央区","address":"晴海オフィスタワーＸ"},
{"zip_code":"1046039","kana_pref":"ﾄｳｷｮｳﾄ","kana_city":"ﾁｭｳｵｳｸ","kana_address":"ﾊﾙﾐｵﾌｨｽﾀﾜｰX","pref":"東京都","city":"中央区","address":"晴海オフィスタワーＸ"},
{"zip_code":"1046040","kana_pref":"ﾄｳｷｮｳﾄ","kana_city":"ﾁｭｳｵｳｸ","kana_address":"ﾊﾙﾐｵﾌｨｽﾀﾜｰX","pref":"東京都","city":"中央区","address":"晴海オフィスタワーＸ"},
{"zip_code":"1046041","kana_pref":"ﾄｳｷｮｳﾄ","kana_city":"ﾁｭｳｵｳｸ","kana_address":"ﾊﾙﾐｵﾌｨｽﾀﾜｰX","pref":"東京都","city":"中央区","address":"晴海オフィスタワーＸ"},
{"zip_code":"1046042","kana_pref":"ﾄｳｷｮｳﾄ","kana_city":"ﾁｭｳｵｳｸ","kana_address":"ﾊﾙﾐｵﾌｨｽﾀﾜｰX","pref":"東京都","city":"中央区","address":"晴海オフィスタワーＸ"},
{"zip_code":"1046043","kana_pref":"ﾄｳｷｮｳﾄ","kana_city":"ﾁｭｳｵｳｸ","kana_address":"ﾊﾙﾐｵﾌｨｽﾀﾜｰX","pref":"東京都","city":"中央区","address":"晴海オフィスタワーＸ"},
{"zip_code":"1046044","kana_pref":"ﾄｳｷｮｳﾄ","kana_city":"ﾁｭｳｵｳｸ","kana_address":"ﾊﾙﾐｵﾌｨｽﾀﾜｰX","pref":"東京都","city":"中央区","address":"晴海オフィスタワーＸ"},
{"zip_code":"1046190","kana_pref":"ﾄｳｷｮｳﾄ","kana_city":"ﾁｭｳｵｳｸ","kana_address":"ﾊﾙﾐｵﾌｨｽﾀﾜｰY","pref":"東京都","city":"中央区","address":"晴海オフィスタワーＹ"},
{"zip_code":"1046101","kana_pref":"ﾄｳｷｮｳﾄ","kana_city":"ﾁｭｳｵｳｸ","kana_address":"ﾊﾙﾐｵﾌｨｽﾀﾜｰY","pref":"東京都","city":"中央区","address":"晴海オフィスタワーＹ"},
{"zip_code":"1046102","kana_pref":"ﾄｳｷｮｳﾄ","kana_city":"ﾁｭｳｵｳｸ","kana_address":"ﾊﾙﾐｵﾌｨｽﾀﾜｰY","pref":"東京都","city":"中央区","address":"晴海オフィスタワーＹ"},
{"zip_code":"1046103","kana_pref":"ﾄｳｷｮｳﾄ","kana_city":"ﾁｭｳｵｳｸ","kana_address":"ﾊﾙﾐｵﾌｨｽﾀﾜｰY","pref":"東京都","city":"中央区","address":"晴海オフィスタワーＹ"},
{"zip_code":"1046104","kana_pref":"ﾄｳｷｮｳﾄ","kana_city":"ﾁｭｳｵｳｸ","kana_address":"ﾊﾙﾐｵﾌｨｽﾀﾜｰY","pref":"東京都","city":"中央区","address":"晴海オフィスタワーＹ"},
{"zip_code":"1046105","kana_pref":"ﾄｳｷｮｳﾄ","kana_city":"ﾁｭｳｵｳｸ","kana_address":"ﾊﾙﾐｵﾌｨｽﾀﾜｰY","pref":"東京都","city":"中央区","address":"晴海オフィスタワーＹ"},
{"zip_code":"1046106","kana_pref":"ﾄｳｷｮｳﾄ","kana_city":"ﾁｭｳｵｳｸ","kana_address":"ﾊﾙﾐｵﾌｨｽﾀﾜｰY","pref":"東京都","city":"中央区","address":"晴海オフィスタワーＹ"},
{"zip_code":"1046107","kana_pref":"ﾄｳｷｮｳﾄ","kana_city":"ﾁｭｳｵｳｸ","kana_address":"ﾊﾙﾐｵﾌｨｽﾀﾜｰY","pref":"東京都","city":"中央区","address":"晴海オフィスタワーＹ"},
{"zip_code":"1046108","kana_pref":"ﾄｳｷｮｳﾄ","kana_city":"ﾁｭｳｵｳｸ","kana_address":"ﾊﾙﾐｵﾌｨｽﾀﾜｰY","pref":"東京都","city":"中央区","address":"晴海オフィスタワーＹ"},
{"zip_code":"1046109","kana_pref":"ﾄｳｷｮｳﾄ","kana_city":"ﾁｭｳｵｳｸ","kana_address":"ﾊﾙﾐｵﾌｨｽﾀﾜｰY","pref":"東京都","city":"中央区","address":"晴海オフィスタワーＹ"},
{"zip_code":"1046110","kana_pref":"ﾄｳｷｮｳﾄ","kana_city":"ﾁｭｳｵｳｸ","kana_address":"ﾊﾙﾐｵﾌｨｽﾀﾜｰY","pref":"東京都","city":"中央区","address":"晴海オフィスタワーＹ"},
{"zip_code":"1046111","kana_pref":"ﾄｳｷｮｳﾄ","kana_city":"ﾁｭｳｵｳｸ","kana_address":"ﾊﾙﾐｵﾌｨｽﾀﾜｰY","pref":"東京都","city":"中央区","address":"晴海オフィスタワーＹ"},
{"zip_code":"1046112","kana_pref":"ﾄｳｷｮｳﾄ","kana_city":"ﾁｭｳｵｳｸ","kana_address":"ﾊﾙﾐｵﾌｨｽﾀﾜｰY","pref":"東京都","city":"中央区","address":"晴海オフィスタワーＹ"},
{"zip_code":"1046113","kana_pref":"ﾄｳｷｮｳﾄ","kana_city":"ﾁｭｳｵｳｸ","kana_address":"ﾊﾙﾐｵﾌｨｽﾀﾜｰY","pref":"東京都","city":"中央区","address":"晴海オフィスタワーＹ"},
{"zip_code":"1046114","kana_pref":"ﾄｳｷｮｳﾄ","kana_city":"ﾁｭｳｵｳｸ","kana_address":"ﾊﾙﾐｵﾌｨｽﾀﾜｰY","pref":"東京都","city":"中央区","address":"晴海オフィスタワーＹ"},
{"zip_code":"1046115","kana_pref":"ﾄｳｷｮｳﾄ","kana_city":"ﾁｭｳｵｳｸ","kana_address":"ﾊﾙﾐｵﾌｨｽﾀﾜｰY","pref":"東京都","city":"中央区","address":"晴海オフィスタワーＹ"},
{"zip_code":"1046116","kana_pref":"ﾄｳｷｮｳﾄ","kana_city":"ﾁｭｳｵｳｸ","kana_address":"ﾊﾙﾐｵﾌｨｽﾀﾜｰY","pref":"東京都","city":"中央区","address":"晴海オフィスタワーＹ"},
{"zip_code":"1046117","kana_pref":"ﾄｳｷｮｳﾄ","kana_city":"ﾁｭｳｵｳｸ","kana_address":"ﾊﾙﾐｵﾌｨｽﾀﾜｰY","pref":"東京都","city":"中央区","address":"晴海オフィスタワーＹ"},
{"zip_code":"1046118","kana_pref":"ﾄｳｷｮｳﾄ","kana_city":"ﾁｭｳｵｳｸ","kana_address":"ﾊﾙﾐｵﾌｨｽﾀﾜｰY","pref":"東京都","city":"中央区","address":"晴海オフィスタワーＹ"},
{"zip_code":"1046119","kana_pref":"ﾄｳｷｮｳﾄ","kana_city":"ﾁｭｳｵｳｸ","kana_address":"ﾊﾙﾐｵﾌｨｽﾀﾜｰY","pref":"東京都","city":"中央区","address":"晴海オフィスタワーＹ"},
{"zip_code":"1046120","kana_pref":"ﾄｳｷｮｳﾄ","kana_city":"ﾁｭｳｵｳｸ","kana_address":"ﾊﾙﾐｵﾌｨｽﾀﾜｰY","pref":"東京都","city":"中央区","address":"晴海オフィスタワーＹ"},
{"zip_code":"1046121","kana_pref":"ﾄｳｷｮｳﾄ","kana_city":"ﾁｭｳｵｳｸ","kana_address":"ﾊﾙﾐｵﾌｨｽﾀﾜｰY","pref":"東京都","city":"中央区","address":"晴海オフィスタワーＹ"},
{"zip_code":"1046122","kana_pref":"ﾄｳｷｮｳﾄ","kana_city":"ﾁｭｳｵｳｸ","kana_address":"ﾊﾙﾐｵﾌｨｽﾀﾜｰY","pref":"東京都","city":"中央区","address":"晴海オフィスタワーＹ"},
{"zip_code":"1046123","kana_pref":"ﾄｳｷｮｳﾄ","kana_city":"ﾁｭｳｵｳｸ","kana_address":"ﾊﾙﾐｵﾌｨｽﾀﾜｰY","pref":"東京都","city":"中央区","address":"晴海オフィスタワーＹ"},
{"zip_code":"1046124","kana_pref":"ﾄｳｷｮｳﾄ","kana_city":"ﾁｭｳｵｳｸ","kana_address":"ﾊﾙﾐｵﾌｨｽﾀﾜｰY","pref":"東京都","city":"中央区","address":"晴海オフィスタワーＹ"},
{"zip_code":"1046125","kana_pref":"ﾄｳｷｮｳﾄ","kana_city":"ﾁｭｳｵｳｸ","kana_address":"ﾊﾙﾐｵﾌｨｽﾀﾜｰY","pref":"東京都","city":"中央区","address":"晴海オフィスタワーＹ"},
{"zip_code":"1046126","kana_pref":"ﾄｳｷｮｳﾄ","kana_city":"ﾁｭｳｵｳｸ","kana_address":"ﾊﾙﾐｵﾌｨｽﾀﾜｰY","pref":"東京都","city":"中央区","address":"晴海オフィスタワーＹ"},
{"zip_code":"1046127","kana_pref":"ﾄｳｷｮｳﾄ","kana_city":"ﾁｭｳｵｳｸ","kana_address":"ﾊﾙﾐｵﾌｨｽﾀﾜｰY","pref":"東京都","city":"中央区","address":"晴海オフィスタワーＹ"},
{"zip_code":"1046128","kana_pref":"ﾄｳｷｮｳﾄ","kana_city":"ﾁｭｳｵｳｸ","kana_address":"ﾊﾙﾐｵﾌｨｽﾀﾜｰY","pref":"東京都","city":"中央区","address":"晴海オフィスタワーＹ"},
{"zip_code":"1046129","kana_pref":"ﾄｳｷｮｳﾄ","kana_city":"ﾁｭｳｵｳｸ","kana_address":"ﾊﾙﾐｵﾌｨｽﾀﾜｰY","pref":"東京都","city":"中央区","address":"晴海オフィスタワーＹ"},
{"zip_code":"1046130","kana_pref":"ﾄｳｷｮｳﾄ","kana_city":"ﾁｭｳｵｳｸ","kana_address":"ﾊﾙﾐｵﾌｨｽﾀﾜｰY","pref":"東京都","city":"中央区","address":"晴海オフィスタワーＹ"},
{"zip_code":"1046131","kana_pref":"ﾄｳｷｮｳﾄ","kana_city":"ﾁｭｳｵｳｸ","kana_address":"ﾊﾙﾐｵﾌｨｽﾀﾜｰY","pref":"東京都","city":"中央区","address":"晴海オフィスタワーＹ"},
{"zip_code":"1046132","kana_pref":"ﾄｳｷｮｳﾄ","kana_city":"ﾁｭｳｵｳｸ","kana_address":"ﾊﾙﾐｵﾌｨｽﾀﾜｰY","pref":"東京都","city":"中央区","address":"晴海オフィスタワーＹ"},
{"zip_code":"1046133","kana_pref":"ﾄｳｷｮｳﾄ","kana_city":"ﾁｭｳｵｳｸ","kana_address":"ﾊﾙﾐｵﾌｨｽﾀﾜｰY","pref":"東京都","city":"中央区","address":"晴海オフィスタワーＹ"},
{"zip_code":"1046134","kana_pref":"ﾄｳｷｮｳﾄ","kana_city":"ﾁｭｳｵｳｸ","kana_address":"ﾊﾙﾐｵﾌｨｽﾀﾜｰY","pref":"東京都","city":"中央区","address":"晴海オフィスタワーＹ"},
{"zip_code":"1046135","kana_pref":"ﾄｳｷｮｳﾄ","kana_city":"ﾁｭｳｵｳｸ","kana_address":"ﾊﾙﾐｵﾌｨｽﾀﾜｰY","pref":"東京都","city":"中央区","address":"晴海オフィスタワーＹ"},
{"zip_code":"1046136","kana_pref":"ﾄｳｷｮｳﾄ","kana_city":"ﾁｭｳｵｳｸ","kana_address":"ﾊﾙﾐｵﾌｨｽﾀﾜｰY","pref":"東京都","city":"中央区","address":"晴海オフィスタワーＹ"},
{"zip_code":"1046137","kana_pref":"ﾄｳｷｮｳﾄ","kana_city":"ﾁｭｳｵｳｸ","kana_address":"ﾊﾙﾐｵﾌｨｽﾀﾜｰY","pref":"東京都","city":"中央区","address":"晴海オフィスタワーＹ"},
{"zip_code":"1046138","kana_pref":"ﾄｳｷｮｳﾄ","kana_city":"ﾁｭｳｵｳｸ","kana_address":"ﾊﾙﾐｵﾌｨｽﾀﾜｰY","pref":"東京都","city":"中央区","address":"晴海オフィスタワーＹ"},
{"zip_code":"1046139","kana_pref":"ﾄｳｷｮｳﾄ","kana_city":"ﾁｭｳｵｳｸ","kana_address":"ﾊﾙﾐｵﾌｨｽﾀﾜｰY","pref":"東京都","city":"中央区","address":"晴海オフィスタワーＹ"},
{"zip_code":"1046290","kana_pref":"ﾄｳｷｮｳﾄ","kana_city":"ﾁｭｳｵｳｸ","kana_address":"ﾊﾙﾐｵﾌｨｽﾀﾜｰZ","pref":"東京都","city":"中央区","address":"晴海オフィスタワーＺ"},
{"zip_code":"1046201","kana_pref":"ﾄｳｷｮｳﾄ","kana_city":"ﾁｭｳｵｳｸ","kana_address":"ﾊﾙﾐｵﾌｨｽﾀﾜｰZ","pref":"東京都","city":"中央区","address":"晴海オフィスタワーＺ"},
{"zip_code":"1046202","kana_pref":"ﾄｳｷｮｳﾄ","kana_city":"ﾁｭｳｵｳｸ","kana_address":"ﾊﾙﾐｵﾌｨｽﾀﾜｰZ","pref":"東京都","city":"中央区","address":"晴海オフィスタワーＺ"},
{"zip_code":"1046203","kana_pref":"ﾄｳｷｮｳﾄ","kana_city":"ﾁｭｳｵｳｸ","kana_address":"ﾊﾙﾐｵﾌｨｽﾀﾜｰZ","pref":"東京都","city":"中央区","address":"晴海オフィスタワーＺ"},
{"zip_code":"1046204","kana_pref":"ﾄｳｷｮｳﾄ","kana_city":"ﾁｭｳｵｳｸ","kana_address":"ﾊﾙﾐｵﾌｨｽﾀﾜｰZ","pref":"東京都","city":"中央区","address":"晴海オフィスタワーＺ"},
{"zip_code":"1046205","kana_pref":"ﾄｳｷｮｳﾄ","kana_city":"ﾁｭｳｵｳｸ","kana_address":"ﾊﾙﾐｵﾌｨｽﾀﾜｰZ","pref":"東京都","city":"中央区","address":"晴海オフィスタワーＺ"},
{"zip_code":"1046206","kana_pref":"ﾄｳｷｮｳﾄ","kana_city":"ﾁｭｳｵｳｸ","kana_address":"ﾊﾙﾐｵﾌｨｽﾀﾜｰZ","pref":"東京都","city":"中央区","address":"晴海オフィスタワーＺ"},
{"zip_code":"1046207","kana_pref":"ﾄｳｷｮｳﾄ","kana_city":"ﾁｭｳｵｳｸ","kana_address":"ﾊﾙﾐｵﾌｨｽﾀﾜｰZ","pref":"東京都","city":"中央区","address":"晴海オフィスタワーＺ"},
{"zip_code":"1046208","kana_pref":"ﾄｳｷｮｳﾄ","kana_city":"ﾁｭｳｵｳｸ","kana_address":"ﾊﾙﾐｵﾌｨｽﾀﾜｰZ","pref":"東京都","city":"中央区","address":"晴海オフィスタワーＺ"},
{"zip_code":"1046209","kana_pref":"ﾄｳｷｮｳﾄ","kana_city":"ﾁｭｳｵｳｸ","kana_address":"ﾊﾙﾐｵﾌｨｽﾀﾜｰZ","pref":"東京都","city":"中央区","address":"晴海オフィスタワーＺ"},
{"zip_code":"1046210","kana_pref":"ﾄｳｷｮｳﾄ","kana_city":"ﾁｭｳｵｳｸ","kana_address":"ﾊﾙﾐｵﾌｨｽﾀﾜｰZ","pref":"東京都","city":"中央区","address":"晴海オフィスタワーＺ"},
{"zip_code":"1046211","kana_pref":"ﾄｳｷｮｳﾄ","kana_city":"ﾁｭｳｵｳｸ","kana_address":"ﾊﾙﾐｵﾌｨｽﾀﾜｰZ","pref":"東京都","city":"中央区","address":"晴海オフィスタワーＺ"},
{"zip_code":"1046212","kana_pref":"ﾄｳｷｮｳﾄ","kana_city":"ﾁｭｳｵｳｸ","kana_address":"ﾊﾙﾐｵﾌｨｽﾀﾜｰZ","pref":"東京都","city":"中央区","address":"晴海オフィスタワーＺ"},
{"zip_code":"1046213","kana_pref":"ﾄｳｷｮｳﾄ","kana_city":"ﾁｭｳｵｳｸ","kana_address":"ﾊﾙﾐｵﾌｨｽﾀﾜｰZ","pref":"東京都","city":"中央区","address":"晴海オフィスタワーＺ"},
{"zip_code":"1046214","kana_pref":"ﾄｳｷｮｳﾄ","kana_city":"ﾁｭｳｵｳｸ","kana_address":"ﾊﾙﾐｵﾌｨｽﾀﾜｰZ","pref":"東京都","city":"中央区","address":"晴海オフィスタワーＺ"},
{"zip_code":"1046215","kana_pref":"ﾄｳｷｮｳﾄ","kana_city":"ﾁｭｳｵｳｸ","kana_address":"ﾊﾙﾐｵﾌｨｽﾀﾜｰZ","pref":"東京都","city":"中央区","address":"晴海オフィスタワーＺ"},
{"zip_code":"1046216","kana_pref":"ﾄｳｷｮｳﾄ","kana_city":"ﾁｭｳｵｳｸ","kana_address":"ﾊﾙﾐｵﾌｨｽﾀﾜｰZ","pref":"東京都","city":"中央区","address":"晴海オフィスタワーＺ"},
{"zip_code":"1046217","kana_pref":"ﾄｳｷｮｳﾄ","kana_city":"ﾁｭｳｵｳｸ","kana_address":"ﾊﾙﾐｵﾌｨｽﾀﾜｰZ","pref":"東京都","city":"中央区","address":"晴海オフィスタワーＺ"},
{"zip_code":"1046218","kana_pref":"ﾄｳｷｮｳﾄ","kana_city":"ﾁｭｳｵｳｸ","kana_address":"ﾊﾙﾐｵﾌｨｽﾀﾜｰZ","pref":"東京都","city":"中央区","address":"晴海オフィスタワーＺ"},
{"zip_code":"1046219","kana_pref":"ﾄｳｷｮｳﾄ","kana_city":"ﾁｭｳｵｳｸ","kana_address":"ﾊﾙﾐｵﾌｨｽﾀﾜｰZ","pref":"東京都","city":"中央区","address":"晴海オフィスタワーＺ"},
{"zip_code":"1046220","kana_pref":"ﾄｳｷｮｳﾄ","kana_city":"ﾁｭｳｵｳｸ","kana_address":"ﾊﾙﾐｵﾌｨｽﾀﾜｰZ","pref":"東京都","city":"中央区","address":"晴海オフィスタワーＺ"},
{"zip_code":"1046221","kana_pref":"ﾄｳｷｮｳﾄ","kana_city":"ﾁｭｳｵｳｸ","kana_address":"ﾊﾙﾐｵﾌｨｽﾀﾜｰZ","pref":"東京都","city":"中央区","address":"晴海オフィスタワーＺ"},
{"zip_code":"1046222","kana_pref":"ﾄｳｷｮｳﾄ","kana_city":"ﾁｭｳｵｳｸ","kana_address":"ﾊﾙﾐｵﾌｨｽﾀﾜｰZ","pref":"東京都","city":"中央区","address":"晴海オフィスタワーＺ"},
{"zip_code":"1046223","kana_pref":"ﾄｳｷｮｳﾄ","kana_city":"ﾁｭｳｵｳｸ","kana_address":"ﾊﾙﾐｵﾌｨｽﾀﾜｰZ","pref":"東京都","city":"中央区","address":"晴海オフィスタワーＺ"},
{"zip_code":"1046224","kana_pref":"ﾄｳｷｮｳﾄ","kana_city":"ﾁｭｳｵｳｸ","kana_address":"ﾊﾙﾐｵﾌｨｽﾀﾜｰZ","pref":"東京都","city":"中央区","address":"晴海オフィスタワーＺ"},
{"zip_code":"1046225","kana_pref":"ﾄｳｷｮｳﾄ","kana_city":"ﾁｭｳｵｳｸ","kana_address":"ﾊﾙﾐｵﾌｨｽﾀﾜｰZ","pref":"東京都","city":"中央区","address":"晴海オフィスタワーＺ"},
{"zip_code":"1046226","kana_pref":"ﾄｳｷｮｳﾄ","kana_city":"ﾁｭｳｵｳｸ","kana_address":"ﾊﾙﾐｵﾌｨｽﾀﾜｰZ","pref":"東京都","city":"中央区","address":"晴海オフィスタワーＺ"},
{"zip_code":"1046227","kana_pref":"ﾄｳｷｮｳﾄ","kana_city":"ﾁｭｳｵｳｸ","kana_address":"ﾊﾙﾐｵﾌｨｽﾀﾜｰZ","pref":"東京都","city":"中央区","address":"晴海オフィスタワーＺ"},
{"zip_code":"1046228","kana_pref":"ﾄｳｷｮｳﾄ","kana_city":"ﾁｭｳｵｳｸ","kana_address":"ﾊﾙﾐｵﾌｨｽﾀﾜｰZ","pref":"東京都","city":"中央区","address":"晴海オフィスタワーＺ"},
{"zip_code":"1046229","kana_pref":"ﾄｳｷｮｳﾄ","kana_city":"ﾁｭｳｵｳｸ","kana_address":"ﾊﾙﾐｵﾌｨｽﾀﾜｰZ","pref":"東京都","city":"中央区","address":"晴海オフィスタワーＺ"},
{"zip_code":"1046230","kana_pref":"ﾄｳｷｮｳﾄ","kana_city":"ﾁｭｳｵｳｸ","kana_address":"ﾊﾙﾐｵﾌｨｽﾀﾜｰZ","pref":"東京都","city":"中央区","address":"晴海オフィスタワーＺ"},
{"zip_code":"1046231","kana_pref":"ﾄｳｷｮｳﾄ","kana_city":"ﾁｭｳｵｳｸ","kana_address":"ﾊﾙﾐｵﾌｨｽﾀﾜｰZ","pref":"東京都","city":"中央区","address":"晴海オフィスタワーＺ"},
{"zip_code":"1046232","kana_pref":"ﾄｳｷｮｳﾄ","kana_city":"ﾁｭｳｵｳｸ","kana_address":"ﾊﾙﾐｵﾌｨｽﾀﾜｰZ","pref":"東京都","city":"中央区","address":"晴海オフィスタワーＺ"},
{"zip_code":"1046233","kana_pref":"ﾄｳｷｮｳﾄ","kana_city":"ﾁｭｳｵｳｸ","kana_address":"ﾊﾙﾐｵﾌｨｽﾀﾜｰZ","pref":"東京都","city":"中央区","address":"晴海オフィスタワーＺ"},
{"zip_code":"1040043","kana_pref":"ﾄｳｷｮｳﾄ","kana_city":"ﾁｭｳｵｳｸ","kana_address":"ﾐﾅﾄ","pref":"東京都","city":"中央区","address":"湊"},
{"zip_code":"1040028","kana_pref":"ﾄｳｷｮｳﾄ","kana_city":"ﾁｭｳｵｳｸ","kana_address":"ﾔｴｽ","pref":"東京都","city":"中央区","address":"八重洲"}]}