{"zip_code":[
{"zip_code":"1050000","kana_pref":"ﾄｳｷｮｳﾄ","kana_city":"ﾐﾅﾄｸ","kana_address":"","pref":"東京都","city":"港区","address":""},
{"zip_code":"1050002","kana_pref":"ﾄｳｷｮｳﾄ","kana_city":"ﾐﾅﾄｸ","kana_address":"ｱﾀｺﾞ","pref":"東京都","city":"港区","address":"愛宕"},
{"zip_code":"1056290","kana_pref":"ﾄｳｷｮｳﾄ","kana_city":"ﾐﾅﾄｸ","kana_address":"ｱﾀｺﾞｱﾀｺﾞｸﾞﾘｰﾝﾋﾙｽﾞﾓﾘﾀﾜｰ","pref":"東京都","city":"港区","address":"愛宕愛宕グリーンヒルズＭＯＲＩタワー"},
{"zip_code":"1056201","kana_pref":"ﾄｳｷｮｳﾄ","kana_city":"ﾐﾅﾄｸ","kana_address":"ｱﾀｺﾞｱﾀｺﾞｸﾞﾘｰﾝﾋﾙｽﾞﾓﾘﾀﾜｰ","pref":"東京都","city":"港区","address":"愛宕愛宕グリーンヒルズＭＯＲＩタワー"},
{"zip_code":"1056202","kana_pref":"ﾄｳｷｮｳﾄ","kana_city":"ﾐﾅﾄｸ","kana_address":"ｱﾀｺﾞｱﾀｺﾞｸﾞﾘｰﾝﾋﾙｽﾞﾓﾘﾀﾜｰ","pref":"東京都","city":"港区","address":"愛宕愛宕グリーンヒルズＭＯＲＩタワー"},
{"zip_code":"1056203","kana_pref":"ﾄｳｷｮｳﾄ","kana_city":"ﾐﾅﾄｸ","kana_address":"ｱﾀｺﾞｱﾀｺﾞｸﾞﾘｰﾝﾋﾙｽﾞﾓﾘﾀﾜｰ","pref":"東京都","city":"港区","address":"愛宕愛宕グリーンヒルズＭＯＲＩタワー"},
{"zip_code":"1056204","kana_pref":"ﾄｳｷｮｳﾄ","kana_city":"ﾐﾅﾄｸ","kana_address":"ｱﾀｺﾞｱﾀｺﾞｸﾞﾘｰﾝﾋﾙｽﾞﾓﾘﾀﾜｰ","pref":"東京都","city":"港区","address":"愛宕愛宕グリーンヒルズＭＯＲＩタワー"},
{"zip_code":"1056205","kana_pref":"ﾄｳｷｮｳﾄ","kana_city":"ﾐﾅﾄｸ","kana_address":"ｱﾀｺﾞｱﾀｺﾞｸﾞﾘｰﾝﾋﾙｽﾞﾓﾘﾀﾜｰ","pref":"東京都","city":"港区","address":"愛宕愛宕グリーンヒルズＭＯＲＩタワー"},
{"zip_code":"1056206","kana_pref":"ﾄｳｷｮｳﾄ","kana_city":"ﾐﾅﾄｸ","kana_address":"ｱﾀｺﾞｱﾀｺﾞｸﾞﾘｰﾝﾋﾙｽﾞﾓﾘﾀﾜｰ","pref":"東京都","city":"港区","address":"愛宕愛宕グリーンヒルズＭＯＲＩタワー"},
{"zip_code":"1056207","kana_pref":"ﾄｳｷｮｳﾄ","kana_city":"ﾐﾅﾄｸ","kana_address":"ｱﾀｺﾞｱﾀｺﾞｸﾞﾘｰﾝﾋﾙｽﾞﾓﾘﾀﾜｰ","pref":"東京都","city":"港区","address":"愛宕愛宕グリーンヒルズＭＯＲＩタワー"},
{"zip_code":"1056208","kana_pref":"ﾄｳｷｮｳﾄ","kana_city":"ﾐﾅﾄｸ","kana_address":"ｱﾀｺﾞｱﾀｺﾞｸﾞﾘｰﾝﾋﾙｽﾞﾓﾘﾀﾜｰ","pref":"東京都","city":"港区","address":"愛宕愛宕グリーンヒルズＭＯＲＩタワー"},
{"zip_code":"1056209","kana_pref":"ﾄｳｷｮｳﾄ","kana_city":"ﾐﾅﾄｸ","kana_address":"ｱﾀｺﾞｱﾀｺﾞｸﾞﾘｰﾝﾋﾙｽﾞﾓﾘﾀﾜｰ","pref":"東京都","city":"港区","address":"愛宕愛宕グリーンヒルズＭＯＲＩタワー"},
{"zip_code":"1056210","kana_pref":"ﾄｳｷｮｳﾄ","kana_city":"ﾐﾅﾄｸ","kana_address":"ｱﾀｺﾞｱﾀｺﾞｸﾞﾘｰﾝﾋﾙｽﾞﾓﾘﾀﾜｰ","pref":"東京都","city":"港区","address":"愛宕愛宕グリーンヒルズＭＯＲＩタワー"},
{"zip_code":"1056211","kana_pref":"ﾄｳｷｮｳﾄ","kana_city":"ﾐﾅﾄｸ","kana_address":"ｱﾀｺﾞｱﾀｺﾞｸﾞﾘｰﾝﾋﾙｽﾞﾓﾘﾀﾜｰ","pref":"東京都","city":"港区","address":"愛宕愛宕グリーンヒルズＭＯＲＩタワー"},
{"zip_code":"1056212","kana_pref":"ﾄｳｷｮｳﾄ","kana_city":"ﾐﾅﾄｸ","kana_address":"ｱﾀｺﾞｱﾀｺﾞｸﾞﾘｰﾝﾋﾙｽﾞﾓﾘﾀﾜｰ","pref":"東京都","city":"港区","address":"愛宕愛宕グリーンヒルズＭＯＲＩタワー"},
{"zip_code":"1056213","kana_pref":"ﾄｳｷｮｳﾄ","kana_city":"ﾐﾅﾄｸ","kana_address":"ｱﾀｺﾞｱﾀｺﾞｸﾞﾘｰﾝﾋﾙｽﾞﾓﾘﾀﾜｰ","pref":"東京都","city":"港区","address":"愛宕愛宕グリーンヒルズＭＯＲＩタワー"},
{"zip_code":"1056214","kana_pref":"ﾄｳｷｮｳﾄ","kana_city":"ﾐﾅﾄｸ","kana_address":"ｱﾀｺﾞｱﾀｺﾞｸﾞﾘｰﾝﾋﾙｽﾞﾓﾘﾀﾜｰ","pref":"東京都","city":"港区","address":"愛宕愛宕グリーンヒルズＭＯＲＩタワー"},
{"zip_code":"1056215","kana_pref":"ﾄｳｷｮｳﾄ","kana_city":"ﾐﾅﾄｸ","kana_address":"ｱﾀｺﾞｱﾀｺﾞｸﾞﾘｰﾝﾋﾙｽﾞﾓﾘﾀﾜｰ","pref":"東京都","city":"港区","address":"愛宕愛宕グリーンヒルズＭＯＲＩタワー"},
{"zip_code":"1056216","kana_pref":"ﾄｳｷｮｳﾄ","kana_city":"ﾐﾅﾄｸ","kana_address":"ｱﾀｺﾞｱﾀｺﾞｸﾞﾘｰﾝﾋﾙｽﾞﾓﾘﾀﾜｰ","pref":"東京都","city":"港区","address":"愛宕愛宕グリーンヒルズＭＯＲＩタワー"},
{"zip_code":"1056217","kana_pref":"ﾄｳｷｮｳﾄ","kana_city":"ﾐﾅﾄｸ","kana_address":"ｱﾀｺﾞｱﾀｺﾞｸﾞﾘｰﾝﾋﾙｽﾞﾓﾘﾀﾜｰ","pref":"東京都","city":"港区","address":"愛宕愛宕グリーンヒルズＭＯＲＩタワー"},
{"zip_code":"1056218","kana_pref":"ﾄｳｷｮｳﾄ","kana_city":"ﾐﾅﾄｸ","kana_address":"ｱﾀｺﾞｱﾀｺﾞｸﾞﾘｰﾝﾋﾙｽﾞﾓﾘﾀﾜｰ","pref":"東京都","city":"港区","address":"愛宕愛宕グリーンヒルズＭＯＲＩタワー"},
{"zip_code":"1056219","kana_pref":"ﾄｳｷｮｳﾄ","kana_city":"ﾐﾅﾄｸ","kana_address":"ｱﾀｺﾞｱﾀｺﾞｸﾞﾘｰﾝﾋﾙｽﾞﾓﾘﾀﾜｰ","pref":"東京都","city":"港区","address":"愛宕愛宕グリーンヒルズＭＯＲＩタワー"},
{"zip_code":"1056220","kana_pref":"ﾄｳｷｮｳﾄ","kana_city":"ﾐﾅﾄｸ","kana_address":"ｱﾀｺﾞｱﾀｺﾞｸﾞﾘｰﾝﾋﾙｽﾞﾓﾘﾀﾜｰ","pref":"東京都","city":"港区","address":"愛宕愛宕グリーンヒルズＭＯＲＩタワー"},
{"zip_code":"1056221","kana_pref":"ﾄｳｷｮｳﾄ","kana_city":"ﾐﾅﾄｸ","kana_address":"ｱﾀｺﾞｱﾀｺﾞｸﾞﾘｰﾝﾋﾙｽﾞﾓﾘﾀﾜｰ","pref":"東京都","city":"港区","address":"愛宕愛宕グリーンヒルズＭＯＲＩタワー"},
{"zip_code":"1056222","kana_pref":"ﾄｳｷｮｳﾄ","kana_city":"ﾐﾅﾄｸ","kana_address":"ｱﾀｺﾞｱﾀｺﾞｸﾞﾘｰﾝﾋﾙｽﾞﾓﾘﾀﾜｰ","pref":"東京都","city":"港区","address":"愛宕愛宕グリーンヒルズＭＯＲＩタワー"},
{"zip_code":"1056223","kana_pref":"ﾄｳｷｮｳﾄ","kana_city":"ﾐﾅﾄｸ","kana_address":"ｱﾀｺﾞｱﾀｺﾞｸﾞﾘｰﾝﾋﾙｽﾞﾓﾘﾀﾜｰ","pref":"東京都","city":"港区","address":"愛宕愛宕グリーンヒルズＭＯＲＩタワー"},
{"zip_code":"1056224","kana_pref":"ﾄｳｷｮｳﾄ","kana_city":"ﾐﾅﾄｸ","kana_address":"ｱﾀｺﾞｱﾀｺﾞｸﾞﾘｰﾝﾋﾙｽﾞﾓﾘﾀﾜｰ","pref":"東京都","city":"港区","address":"愛宕愛宕グリーンヒルズＭＯＲＩタワー"},
{"zip_code":"1056225","kana_pref":"ﾄｳｷｮｳﾄ","kana_city":"ﾐﾅﾄｸ","kana_address":"ｱﾀｺﾞｱﾀｺﾞｸﾞﾘｰﾝﾋﾙｽﾞﾓﾘﾀﾜｰ","pref":"東京都","city":"港区","address":"愛宕愛宕グリーンヒルズＭＯＲＩタワー"},
{"zip_code":"1056226","kana_pref":"ﾄｳｷｮｳﾄ","kana_city":"ﾐﾅﾄｸ","kana_address":"ｱﾀｺﾞｱﾀｺﾞｸﾞﾘｰﾝﾋﾙｽﾞﾓﾘﾀﾜｰ","pref":"東京都","city":"港区","address":"愛宕愛宕グリーンヒルズＭＯＲＩタワー"},
{"zip_code":"1056227","kana_pref":"ﾄｳｷｮｳﾄ","kana_city":"ﾐﾅﾄｸ","kana_address":"ｱﾀｺﾞｱﾀｺﾞｸﾞﾘｰﾝﾋﾙｽﾞﾓﾘﾀﾜｰ","pref":"東京都","city":"港区","address":"愛宕愛宕グリーンヒルズＭＯＲＩタワー"},
{"zip_code":"1056228","kana_pref":"ﾄｳｷｮｳﾄ","kana_city":"ﾐﾅﾄｸ","kana_address":"ｱﾀｺﾞｱﾀｺﾞｸﾞﾘｰﾝﾋﾙｽﾞﾓﾘﾀﾜｰ","pref":"東京都","city":"港区","address":"愛宕愛宕グリーンヒルズＭＯＲＩタワー"},
{"zip_code":"1056229","kana_pref":"ﾄｳｷｮｳﾄ","kana_city":"ﾐﾅﾄｸ","kana_address":"ｱﾀｺﾞｱﾀｺﾞｸﾞﾘｰﾝﾋﾙｽﾞﾓﾘﾀﾜｰ","pref":"東京都","city":"港区","address":"愛宕愛宕グリーンヒルズＭＯＲＩタワー"},
{"zip_code":"1056230","kana_pref":"ﾄｳｷｮｳﾄ","kana_city":"ﾐﾅﾄｸ","kana_address":"ｱﾀｺﾞｱﾀｺﾞｸﾞﾘｰﾝﾋﾙｽﾞﾓﾘﾀﾜｰ","pref":"東京都","city":"港区","address":"愛宕愛宕グリーンヒルズＭＯＲＩタワー"},
{"zip_code":"1056231","kana_pref":"ﾄｳｷｮｳﾄ","kana_city":"ﾐﾅﾄｸ","kana_address":"ｱﾀｺﾞｱﾀｺﾞｸﾞﾘｰﾝﾋﾙｽﾞﾓﾘﾀﾜｰ","pref":"東京都","city":"港区","address":"愛宕愛宕グリーンヒルズＭＯＲＩタワー"},
{"zip_code":"1056232","kana_pref":"ﾄｳｷｮｳﾄ","kana_city":"ﾐﾅﾄｸ","kana_address":"ｱﾀｺﾞｱﾀｺﾞｸﾞﾘｰﾝﾋﾙｽﾞﾓﾘﾀﾜｰ","pref":"東京都","city":"港区","address":"愛宕愛宕グリーンヒルズＭＯＲＩタワー"},
{"zip_code":"1056233","kana_pref":"ﾄｳｷｮｳﾄ","kana_city":"ﾐﾅﾄｸ","kana_address":"ｱﾀｺﾞｱﾀｺﾞｸﾞﾘｰﾝﾋﾙｽﾞﾓﾘﾀﾜｰ","pref":"東京都","city":"港区","address":"愛宕愛宕グリーンヒルズＭＯＲＩタワー"},
{"zip_code":"1056234","kana_pref":"ﾄｳｷｮｳﾄ","kana_city":"ﾐﾅﾄｸ","kana_address":"ｱﾀｺﾞｱﾀｺﾞｸﾞﾘｰﾝﾋﾙｽﾞﾓﾘﾀﾜｰ","pref":"東京都","city":"港区","address":"愛宕愛宕グリーンヒルズＭＯＲＩタワー"},
{"zip_code":"1056235","kana_pref":"ﾄｳｷｮｳﾄ","kana_city":"ﾐﾅﾄｸ","kana_address":"ｱﾀｺﾞｱﾀｺﾞｸﾞﾘｰﾝﾋﾙｽﾞﾓﾘﾀﾜｰ","pref":"東京都","city":"港区","address":"愛宕愛宕グリーンヒルズＭＯＲＩタワー"},
{"zip_code":"1056236","kana_pref":"ﾄｳｷｮｳﾄ","kana_city":"ﾐﾅﾄｸ","kana_address":"ｱﾀｺﾞｱﾀｺﾞｸﾞﾘｰﾝﾋﾙｽﾞﾓﾘﾀﾜｰ","pref":"東京都","city":"港区","address":"愛宕愛宕グリーンヒルズＭＯＲＩタワー"},
{"zip_code":"1056237","kana_pref":"ﾄｳｷｮｳﾄ","kana_city":"ﾐﾅﾄｸ","kana_address":"ｱﾀｺﾞｱﾀｺﾞｸﾞﾘｰﾝﾋﾙｽﾞﾓﾘﾀﾜｰ","pref":"東京都","city":"港区","address":"愛宕愛宕グリーンヒルズＭＯＲＩタワー"},
{"zip_code":"1056238","kana_pref":"ﾄｳｷｮｳﾄ","kana_city":"ﾐﾅﾄｸ","kana_address":"ｱﾀｺﾞｱﾀｺﾞｸﾞﾘｰﾝﾋﾙｽﾞﾓﾘﾀﾜｰ","pref":"東京都","city":"港区","address":"愛宕愛宕グリーンヒルズＭＯＲＩタワー"},
{"zip_code":"1056239","kana_pref":"ﾄｳｷｮｳﾄ","kana_city":"ﾐﾅﾄｸ","kana_address":"ｱﾀｺﾞｱﾀｺﾞｸﾞﾘｰﾝﾋﾙｽﾞﾓﾘﾀﾜｰ","pref":"東京都","city":"港区","address":"愛宕愛宕グリーンヒルズＭＯＲＩタワー"},
{"zip_code":"1056240","kana_pref":"ﾄｳｷｮｳﾄ","kana_city":"ﾐﾅﾄｸ","kana_address":"ｱﾀｺﾞｱﾀｺﾞｸﾞﾘｰﾝﾋﾙｽﾞﾓﾘﾀﾜｰ","pref":"東京都","city":"港区","address":"愛宕愛宕グリーンヒルズＭＯＲＩタワー"},
{"zip_code":"1056241","kana_pref":"ﾄｳｷｮｳﾄ","kana_city":"ﾐﾅﾄｸ","kana_address":"ｱﾀｺﾞｱﾀｺﾞｸﾞﾘｰﾝﾋﾙｽﾞﾓﾘﾀﾜｰ","pref":"東京都","city":"港区","address":"愛宕愛宕グリーンヒルズＭＯＲＩタワー"},
{"zip_code":"1056242","kana_pref":"ﾄｳｷｮｳﾄ","kana_city":"ﾐﾅﾄｸ","kana_address":"ｱﾀｺﾞｱﾀｺﾞｸﾞﾘｰﾝﾋﾙｽﾞﾓﾘﾀﾜｰ","pref":"東京都","city":"港区","address":"愛宕愛宕グリーンヒルズＭＯＲＩタワー"},
{"zip_code":"1050022","kana_pref":"ﾄｳｷｮｳﾄ","kana_city":"ﾐﾅﾄｸ","kana_address":"ｶｲｶﾞﾝ","pref":"東京都","city":"港区","address":"海岸"},
{"zip_code":"1050014","kana_pref":"ﾄｳｷｮｳﾄ","kana_city":"ﾐﾅﾄｸ","kana_address":"ｼﾊﾞ","pref":"東京都","city":"港区","address":"芝"},
{"zip_code":"1050023","kana_pref":"ﾄｳｷｮｳﾄ","kana_city":"ﾐﾅﾄｸ","kana_address":"ｼﾊﾞｳﾗ","pref":"東京都","city":"港区","address":"芝浦"},
{"zip_code":"1050011","kana_pref":"ﾄｳｷｮｳﾄ","kana_city":"ﾐﾅﾄｸ","kana_address":"ｼﾊﾞｺｳｴﾝ","pref":"東京都","city":"港区","address":"芝公園"},
{"zip_code":"1050012","kana_pref":"ﾄｳｷｮｳﾄ","kana_city":"ﾐﾅﾄｸ","kana_address":"ｼﾊﾞﾀﾞｲﾓﾝ","pref":"東京都","city":"港区","address":"芝大門"},
{"zip_code":"1050004","kana_pref":"ﾄｳｷｮｳﾄ","kana_city":"ﾐﾅﾄｸ","kana_address":"ｼﾝﾊﾞｼ","pref":"東京都","city":"港区","address":"新橋"},
{"zip_code":"1050001","kana_pref":"ﾄｳｷｮｳﾄ","kana_city":"ﾐﾅﾄｸ","kana_address":"ﾄﾗﾉﾓﾝ","pref":"東京都","city":"港区","address":"虎ノ門"},
{"zip_code":"1056090","kana_pref":"ﾄｳｷｮｳﾄ","kana_city":"ﾐﾅﾄｸ","kana_address":"ﾄﾗﾉﾓﾝｼﾛﾔﾏﾄﾗｽﾄﾀﾜｰ","pref":"東京都","city":"港区","address":"虎ノ門城山トラストタワー"},
{"zip_code":"1056001","kana_pref":"ﾄｳｷｮｳﾄ","kana_city":"ﾐﾅﾄｸ","kana_address":"ﾄﾗﾉﾓﾝｼﾛﾔﾏﾄﾗｽﾄﾀﾜｰ","pref":"東京都","city":"港区","address":"虎ノ門城山トラストタワー"},
{"zip_code":"1056002","kana_pref":"ﾄｳｷｮｳﾄ","kana_city":"ﾐﾅﾄｸ","kana_address":"ﾄﾗﾉﾓﾝｼﾛﾔﾏﾄﾗｽﾄﾀﾜｰ","pref":"東京都","city":"港区","address":"虎ノ門城山トラストタワー"},
{"zip_code":"1056003","kana_pref":"ﾄｳｷｮｳﾄ","kana_city":"ﾐﾅﾄｸ","kana_address":"ﾄﾗﾉﾓﾝｼﾛﾔﾏﾄﾗｽﾄﾀﾜｰ","pref":"東京都","city":"港区","address":"虎ノ門城山トラストタワー"},
{"zip_code":"1056004","kana_pref":"ﾄｳｷｮｳﾄ","kana_city":"ﾐﾅﾄｸ","kana_address":"ﾄﾗﾉﾓﾝｼﾛﾔﾏﾄﾗｽﾄﾀﾜｰ","pref":"東京都","city":"港区","address":"虎ノ門城山トラストタワー"},
{"zip_code":"1056005","kana_pref":"ﾄｳｷｮｳﾄ","kana_city":"ﾐﾅﾄｸ","kana_address":"ﾄﾗﾉﾓﾝｼﾛﾔﾏﾄﾗｽﾄﾀﾜｰ","pref":"東京都","city":"港区","address":"虎ノ門城山トラストタワー"},
{"zip_code":"1056006","kana_pref":"ﾄｳｷｮｳﾄ","kana_city":"ﾐﾅﾄｸ","kana_address":"ﾄﾗﾉﾓﾝｼﾛﾔﾏﾄﾗｽﾄﾀﾜｰ","pref":"東京都","city":"港区","address":"虎ノ門城山トラストタワー"},
{"zip_code":"1056007","kana_pref":"ﾄｳｷｮｳﾄ","kana_city":"ﾐﾅﾄｸ","kana_address":"ﾄﾗﾉﾓﾝｼﾛﾔﾏﾄﾗｽﾄﾀﾜｰ","pref":"東京都","city":"港区","address":"虎ノ門城山トラストタワー"},
{"zip_code":"1056008","kana_pref":"ﾄｳｷｮｳﾄ","kana_city":"ﾐﾅﾄｸ","kana_address":"ﾄﾗﾉﾓﾝｼﾛﾔﾏﾄﾗｽﾄﾀﾜｰ","pref":"東京都","city":"港区","address":"虎ノ門城山トラストタワー"},
{"zip_code":"1056009","kana_pref":"ﾄｳｷｮｳﾄ","kana_city":"ﾐﾅﾄｸ","kana_address":"ﾄﾗﾉﾓﾝｼﾛﾔﾏﾄﾗｽﾄﾀﾜｰ","pref":"東京都","city":"港区","address":"虎ノ門城山トラストタワー"},
{"zip_code":"1056010","kana_pref":"ﾄｳｷｮｳﾄ","kana_city":"ﾐﾅﾄｸ","kana_address":"ﾄﾗﾉﾓﾝｼﾛﾔﾏﾄﾗｽﾄﾀﾜｰ","pref":"東京都","city":"港区","address":"虎ノ門城山トラストタワー"},
{"zip_code":"1056011","kana_pref":"ﾄｳｷｮｳﾄ","kana_city":"ﾐﾅﾄｸ","kana_address":"ﾄﾗﾉﾓﾝｼﾛﾔﾏﾄﾗｽﾄﾀﾜｰ","pref":"東京都","city":"港区","address":"虎ノ門城山トラストタワー"},
{"zip_code":"1056012","kana_pref":"ﾄｳｷｮｳﾄ","kana_city":"ﾐﾅﾄｸ","kana_address":"ﾄﾗﾉﾓﾝｼﾛﾔﾏﾄﾗｽﾄﾀﾜｰ","pref":"東京都","city":"港区","address":"虎ノ門城山トラストタワー"},
{"zip_code":"1056013","kana_pref":"ﾄｳｷｮｳﾄ","kana_city":"ﾐﾅﾄｸ","kana_address":"ﾄﾗﾉﾓﾝｼﾛﾔﾏﾄﾗｽﾄﾀﾜｰ","pref":"東京都","city":"港区","address":"虎ノ門城山トラストタワー"},
{"zip_code":"1056014","kana_pref":"ﾄｳｷｮｳﾄ","kana_city":"ﾐﾅﾄｸ","kana_address":"ﾄﾗﾉﾓﾝｼﾛﾔﾏﾄﾗｽﾄﾀﾜｰ","pref":"東京都","city":"港区","address":"虎ノ門城山トラストタワー"},
{"zip_code":"1056015","kana_pref":"ﾄｳｷｮｳﾄ","kana_city":"ﾐﾅﾄｸ","kana_address":"ﾄﾗﾉﾓﾝｼﾛﾔﾏﾄﾗｽﾄﾀﾜｰ","pref":"東京都","city":"港区","address":"虎ノ門城山トラストタワー"},
{"zip_code":"1056016","kana_pref":"ﾄｳｷｮｳﾄ","kana_city":"ﾐﾅﾄｸ","kana_address":"ﾄﾗﾉﾓﾝｼﾛﾔﾏﾄﾗｽﾄﾀﾜｰ","pref":"東京都","city":"港区","address":"虎ノ門城山トラストタワー"},
{"zip_code":"1056017","kana_pref":"ﾄｳｷｮｳﾄ","kana_city":"ﾐﾅﾄｸ","kana_address":"ﾄﾗﾉﾓﾝｼﾛﾔﾏﾄﾗｽﾄﾀﾜｰ","pref":"東京都","city":"港区","address":"虎ノ門城山トラストタワー"},
{"zip_code":"1056018","kana_pref":"ﾄｳｷｮｳﾄ","kana_city":"ﾐﾅﾄｸ","kana_address":"ﾄﾗﾉﾓﾝｼﾛﾔﾏﾄﾗｽﾄﾀﾜｰ","pref":"東京都","city":"港区","address":"虎ノ門城山トラストタワー"},
{"zip_code":"1056019","kana_pref":"ﾄｳｷｮｳﾄ","kana_city":"ﾐﾅﾄｸ","kana_address":"ﾄﾗﾉﾓﾝｼﾛﾔﾏﾄﾗｽﾄﾀﾜｰ","pref":"東京都","city":"港区","address":"虎ノ門城山トラストタワー"},
{"zip_code":"1056020","kana_pref":"ﾄｳｷｮｳﾄ","kana_city":"ﾐﾅﾄｸ","kana_address":"ﾄﾗﾉﾓﾝｼﾛﾔﾏﾄﾗｽﾄﾀﾜｰ","pref":"東京都","city":"港区","address":"虎ノ門城山トラストタワー"},
{"zip_code":"1056021","kana_pref":"ﾄｳｷｮｳﾄ","kana_city":"ﾐﾅﾄｸ","kana_address":"ﾄﾗﾉﾓﾝｼﾛﾔﾏﾄﾗｽﾄﾀﾜｰ","pref":"東京都","city":"港区","address":"虎ノ門城山トラストタワー"},
{"zip_code":"1056022","kana_pref":"ﾄｳｷｮｳﾄ","kana_city":"ﾐﾅﾄｸ","kana_address":"ﾄﾗﾉﾓﾝｼﾛﾔﾏﾄﾗｽﾄﾀﾜｰ","pref":"東京都","city":"港区","address":"虎ノ門城山トラストタワー"},
{"zip_code":"1056023","kana_pref":"ﾄｳｷｮｳﾄ","kana_city":"ﾐﾅﾄｸ","kana_address":"ﾄﾗﾉﾓﾝｼﾛﾔﾏﾄﾗｽﾄﾀﾜｰ","pref":"東京都","city":"港区","address":"虎ノ門城山トラストタワー"},
{"zip_code":"1056024","kana_pref":"ﾄｳｷｮｳﾄ","kana_city":"ﾐﾅﾄｸ","kana_address":"ﾄﾗﾉﾓﾝｼﾛﾔﾏﾄﾗｽﾄﾀﾜｰ","pref":"東京都","city":"港区","address":"虎ノ門城山トラストタワー"},
{"zip_code":"1056025","kana_pref":"ﾄｳｷｮｳﾄ","kana_city":"ﾐﾅﾄｸ","kana_address":"ﾄﾗﾉﾓﾝｼﾛﾔﾏﾄﾗｽﾄﾀﾜｰ","pref":"東京都","city":"港区","address":"虎ノ門城山トラストタワー"},
{"zip_code":"1056026","kana_pref":"ﾄｳｷｮｳﾄ","kana_city":"ﾐﾅﾄｸ","kana_address":"ﾄﾗﾉﾓﾝｼﾛﾔﾏﾄﾗｽﾄﾀﾜｰ","pref":"東京都","city":"港区","address":"虎ノ門城山トラストタワー"},
{"zip_code":"1056027","kana_pref":"ﾄｳｷｮｳﾄ","kana_city":"ﾐﾅﾄｸ","kana_address":"ﾄﾗﾉﾓﾝｼﾛﾔﾏﾄﾗｽﾄﾀﾜｰ","pref":"東京都","city":"港区","address":"虎ノ門城山トラストタワー"},
{"zip_code":"1056028","kana_pref":"ﾄｳｷｮｳﾄ","kana_city":"ﾐﾅﾄｸ","kana_address":"ﾄﾗﾉﾓﾝｼﾛﾔﾏﾄﾗｽﾄﾀﾜｰ","pref":"東京都","city":"港区","address":"虎ノ門城山トラストタワー"},
{"zip_code":"1056029","kana_pref":"ﾄｳｷｮｳﾄ","kana_city":"ﾐﾅﾄｸ","kana_address":"ﾄﾗﾉﾓﾝｼﾛﾔﾏﾄﾗｽﾄﾀﾜｰ","pref":"東京都","city":"港区","address":"虎ノ門城山トラストタワー"},
{"zip_code":"1056030","kana_pref":"ﾄｳｷｮｳﾄ","kana_city":"ﾐﾅﾄｸ","kana_address":"ﾄﾗﾉﾓﾝｼﾛﾔﾏﾄﾗｽﾄﾀﾜｰ","pref":"東京都","city":"港区","address":"虎ノ門城山トラストタワー"},
{"zip_code":"1056031","kana_pref":"ﾄｳｷｮｳﾄ","kana_city":"ﾐﾅﾄｸ","kana_address":"ﾄﾗﾉﾓﾝｼﾛﾔﾏﾄﾗｽﾄﾀﾜｰ","pref":"東京都","city":"港区","address":"虎ノ門城山トラストタワー"},
{"zip_code":"1056032","kana_pref":"ﾄｳｷｮｳﾄ","kana_city":"ﾐﾅﾄｸ","kana_address":"ﾄﾗﾉﾓﾝｼﾛﾔﾏﾄﾗｽﾄﾀﾜｰ","pref":"東京都","city":"港区","address":"虎ノ門城山トラストタワー"},
{"zip_code":"1056033","kana_pref":"ﾄｳｷｮｳﾄ","kana_city":"ﾐﾅﾄｸ","kana_address":"ﾄﾗﾉﾓﾝｼﾛﾔﾏﾄﾗｽﾄﾀﾜｰ","pref":"東京都","city":"港区","address":"虎ノ門城山トラストタワー"},
{"zip_code":"1056034","kana_pref":"ﾄｳｷｮｳﾄ","kana_city":"ﾐﾅﾄｸ","kana_address":"ﾄﾗﾉﾓﾝｼﾛﾔﾏﾄﾗｽﾄﾀﾜｰ","pref":"東京都","city":"港区","address":"虎ノ門城山トラストタワー"},
{"zip_code":"1056035","kana_pref":"ﾄｳｷｮｳﾄ","kana_city":"ﾐﾅﾄｸ","kana_address":"ﾄﾗﾉﾓﾝｼﾛﾔﾏﾄﾗｽﾄﾀﾜｰ","pref":"東京都","city":"港区","address":"虎ノ門城山トラストタワー"},
{"zip_code":"1056036","kana_pref":"ﾄｳｷｮｳﾄ","kana_city":"ﾐﾅﾄｸ","kana_address":"ﾄﾗﾉﾓﾝｼﾛﾔﾏﾄﾗｽﾄﾀﾜｰ","pref":"東京都","city":"港区","address":"虎ノ門城山トラストタワー"},
{"zip_code":"1056037","kana_pref":"ﾄｳｷｮｳﾄ","kana_city":"ﾐﾅﾄｸ","kana_address":"ﾄﾗﾉﾓﾝｼﾛﾔﾏﾄﾗｽﾄﾀﾜｰ","pref":"東京都","city":"港区","address":"虎ノ門城山トラストタワー"},
{"zip_code":"1050003","kana_pref":"ﾄｳｷｮｳﾄ","kana_city":"ﾐﾅﾄｸ","kana_address":"ﾆｼｼﾝﾊﾞｼ","pref":"東京都","city":"港区","address":"西新橋"},
{"zip_code":"1050013","kana_pref":"ﾄｳｷｮｳﾄ","kana_city":"ﾐﾅﾄｸ","kana_address":"ﾊﾏﾏﾂﾁｮｳ","pref":"東京都","city":"港区","address":"浜松町"},
{"zip_code":"1056190","kana_pref":"ﾄｳｷｮｳﾄ","kana_city":"ﾐﾅﾄｸ","kana_address":"ﾊﾏﾏﾂﾁｮｳｾｶｲﾎﾞｳｴｷｾﾝﾀｰﾋﾞﾙ","pref":"東京都","city":"港区","address":"浜松町世界貿易センタービル"},
{"zip_code":"1056101","kana_pref":"ﾄｳｷｮｳﾄ","kana_city":"ﾐﾅﾄｸ","kana_address":"ﾊﾏﾏﾂﾁｮｳｾｶｲﾎﾞｳｴｷｾﾝﾀｰﾋﾞﾙ","pref":"東京都","city":"港区","address":"浜松町世界貿易センタービル"},
{"zip_code":"1056102","kana_pref":"ﾄｳｷｮｳﾄ","kana_city":"ﾐﾅﾄｸ","kana_address":"ﾊﾏﾏﾂﾁｮｳｾｶｲﾎﾞｳｴｷｾﾝﾀｰﾋﾞﾙ","pref":"東京都","city":"港区","address":"浜松町世界貿易センタービル"},
{"zip_code":"1056103","kana_pref":"ﾄｳｷｮｳﾄ","kana_city":"ﾐﾅﾄｸ","kana_address":"ﾊﾏﾏﾂﾁｮｳｾｶｲﾎﾞｳｴｷｾﾝﾀｰﾋﾞﾙ","pref":"東京都","city":"港区","address":"浜松町世界貿易センタービル"},
{"zip_code":"1056104","kana_pref":"ﾄｳｷｮｳﾄ","kana_city":"ﾐﾅﾄｸ","kana_address":"ﾊﾏﾏﾂﾁｮｳｾｶｲﾎﾞｳｴｷｾﾝﾀｰﾋﾞﾙ","pref":"東京都","city":"港区","address":"浜松町世界貿易センタービル"},
{"zip_code":"1056105","kana_pref":"ﾄｳｷｮｳﾄ","kana_city":"ﾐﾅﾄｸ","kana_address":"ﾊﾏﾏﾂﾁｮｳｾｶｲﾎﾞｳｴｷｾﾝﾀｰﾋﾞﾙ","pref":"東京都","city":"港区","address":"浜松町世界貿易センタービル"},
{"zip_code":"1056106","kana_pref":"ﾄｳｷｮｳﾄ","kana_city":"ﾐﾅﾄｸ","kana_address":"ﾊﾏﾏﾂﾁｮｳｾｶｲﾎﾞｳｴｷｾﾝﾀｰﾋﾞﾙ","pref":"東京都","city":"港区","address":"浜松町世界貿易センタービル"},
{"zip_code":"1056107","kana_pref":"ﾄｳｷｮｳﾄ","kana_city":"ﾐﾅﾄｸ","kana_address":"ﾊﾏﾏﾂﾁｮｳｾｶｲﾎﾞｳｴｷｾﾝﾀｰﾋﾞﾙ","pref":"東京都","city":"港区","address":"浜松町世界貿易センタービル"},
{"zip_code":"1056108","kana_pref":"ﾄｳｷｮｳﾄ","kana_city":"ﾐﾅﾄｸ","kana_address":"ﾊﾏﾏﾂﾁｮｳｾｶｲﾎﾞｳｴｷｾﾝﾀｰﾋﾞﾙ","pref":"東京都","city":"港区","address":"浜松町世界貿易センタービル"},
{"zip_code":"1056109","kana_pref":"ﾄｳｷｮｳﾄ","kana_city":"ﾐﾅﾄｸ","kana_address":"ﾊﾏﾏﾂﾁｮｳｾｶｲﾎﾞｳｴｷｾﾝﾀｰﾋﾞﾙ","pref":"東京都","city":"港区","address":"浜松町世界貿易センタービル"},
{"zip_code":"1056110","kana_pref":"ﾄｳｷｮｳﾄ","kana_city":"ﾐﾅﾄｸ","kana_address":"ﾊﾏﾏﾂﾁｮｳｾｶｲﾎﾞｳｴｷｾﾝﾀｰﾋﾞﾙ","pref":"東京都","city":"港区","address":"浜松町世界貿易センタービル"},
{"zip_code":"1056111","kana_pref":"ﾄｳｷｮｳﾄ","kana_city":"ﾐﾅﾄｸ","kana_address":"ﾊﾏﾏﾂﾁｮｳｾｶｲﾎﾞｳｴｷｾﾝﾀｰﾋﾞﾙ","pref":"東京都","city":"港区","address":"浜松町世界貿易センタービル"},
{"zip_code":"1056112","kana_pref":"ﾄｳｷｮｳﾄ","kana_city":"ﾐﾅﾄｸ","kana_address":"ﾊﾏﾏﾂﾁｮｳｾｶｲﾎﾞｳｴｷｾﾝﾀｰﾋﾞﾙ","pref":"東京都","city":"港区","address":"浜松町世界貿易センタービル"},
{"zip_code":"1056113","kana_pref":"ﾄｳｷｮｳﾄ","kana_city":"ﾐﾅﾄｸ","kana_address":"ﾊﾏﾏﾂﾁｮｳｾｶｲﾎﾞｳｴｷｾﾝﾀｰﾋﾞﾙ","pref":"東京都","city":"港区","address":"浜松町世界貿易センタービル"},
{"zip_code":"1056114","kana_pref":"ﾄｳｷｮｳﾄ","kana_city":"ﾐﾅﾄｸ","kana_address":"ﾊﾏﾏﾂﾁｮｳｾｶｲﾎﾞｳｴｷｾﾝﾀｰﾋﾞﾙ","pref":"東京都","city":"港区","address":"浜松町世界貿易センタービル"},
{"zip_code":"1056115","kana_pref":"ﾄｳｷｮｳﾄ","kana_city":"ﾐﾅﾄｸ","kana_address":"ﾊﾏﾏﾂﾁｮｳｾｶｲﾎﾞｳｴｷｾﾝﾀｰﾋﾞﾙ","pref":"東京都","city":"港区","address":"浜松町世界貿易センタービル"},
{"zip_code":"1056116","kana_pref":"ﾄｳｷｮｳﾄ","kana_city":"ﾐﾅﾄｸ","kana_address":"ﾊﾏﾏﾂﾁｮｳｾｶｲﾎﾞｳｴｷｾﾝﾀｰﾋﾞﾙ","pref":"東京都","city":"港区","address":"浜松町世界貿易センタービル"},
{"zip_code":"1056117","kana_pref":"ﾄｳｷｮｳﾄ","kana_city":"ﾐﾅﾄｸ","kana_address":"ﾊﾏﾏﾂﾁｮｳｾｶｲﾎﾞｳｴｷｾﾝﾀｰﾋﾞﾙ","pref":"東京都","city":"港区","address":"浜松町世界貿易センタービル"},
{"zip_code":"1056118","kana_pref":"ﾄｳｷｮｳﾄ","kana_city":"ﾐﾅﾄｸ","kana_address":"ﾊﾏﾏﾂﾁｮｳｾｶｲﾎﾞｳｴｷｾﾝﾀｰﾋﾞﾙ","pref":"東京都","city":"港区","address":"浜松町世界貿易センタービル"},
{"zip_code":"1056119","kana_pref":"ﾄｳｷｮｳﾄ","kana_city":"ﾐﾅﾄｸ","kana_address":"ﾊﾏﾏﾂﾁｮｳｾｶｲﾎﾞｳｴｷｾﾝﾀｰﾋﾞﾙ","pref":"東京都","city":"港区","address":"浜松町世界貿易センタービル"},
{"zip_code":"1056120","kana_pref":"ﾄｳｷｮｳﾄ","kana_city":"ﾐﾅﾄｸ","kana_address":"ﾊﾏﾏﾂﾁｮｳｾｶｲﾎﾞｳｴｷｾﾝﾀｰﾋﾞﾙ","pref":"東京都","city":"港区","address":"浜松町世界貿易センタービル"},
{"zip_code":"1056121","kana_pref":"ﾄｳｷｮｳﾄ","kana_city":"ﾐﾅﾄｸ","kana_address":"ﾊﾏﾏﾂﾁｮｳｾｶｲﾎﾞｳｴｷｾﾝﾀｰﾋﾞﾙ","pref":"東京都","city":"港区","address":"浜松町世界貿易センタービル"},
{"zip_code":"1056122","kana_pref":"ﾄｳｷｮｳﾄ","kana_city":"ﾐﾅﾄｸ","kana_address":"ﾊﾏﾏﾂﾁｮｳｾｶｲﾎﾞｳｴｷｾﾝﾀｰﾋﾞﾙ","pref":"東京都","city":"港区","address":"浜松町世界貿易センタービル"},
{"zip_code":"1056123","kana_pref":"ﾄｳｷｮｳﾄ","kana_city":"ﾐﾅﾄｸ","kana_address":"ﾊﾏﾏﾂﾁｮｳｾｶｲﾎﾞｳｴｷｾﾝﾀｰﾋﾞﾙ","pref":"東京都","city":"港区","address":"浜松町世界貿易センタービル"},
{"zip_code":"1056124","kana_pref":"ﾄｳｷｮｳﾄ","kana_city":"ﾐﾅﾄｸ","kana_address":"ﾊﾏﾏﾂﾁｮｳｾｶｲﾎﾞｳｴｷｾﾝﾀｰﾋﾞﾙ","pref":"東京都","city":"港区","address":"浜松町世界貿易センタービル"},
{"zip_code":"1056125","kana_pref":"ﾄｳｷｮｳﾄ","kana_city":"ﾐﾅﾄｸ","kana_address":"ﾊﾏﾏﾂﾁｮｳｾｶｲﾎﾞｳｴｷｾﾝﾀｰﾋﾞﾙ","pref":"東京都","city":"港区","address":"浜松町世界貿易センタービル"},
{"zip_code":"1056126","kana_pref":"ﾄｳｷｮｳﾄ","kana_city":"ﾐﾅﾄｸ","kana_address":"ﾊﾏﾏﾂﾁｮｳｾｶｲﾎﾞｳｴｷｾﾝﾀｰﾋﾞﾙ","pref":"東京都","city":"港区","address":"浜松町世界貿易センタービル"},
{"zip_code":"1056127","kana_pref":"ﾄｳｷｮｳﾄ","kana_city":"ﾐﾅﾄｸ","kana_address":"ﾊﾏﾏﾂﾁｮｳｾｶｲﾎﾞｳｴｷｾﾝﾀｰﾋﾞﾙ","pref":"東京都","city":"港区","address":"浜松町世界貿易センタービル"},
{"zip_code":"1056128","kana_pref":"ﾄｳｷｮｳﾄ","kana_city":"ﾐﾅﾄｸ","kana_address":"ﾊﾏﾏﾂﾁｮｳｾｶｲﾎﾞｳｴｷｾﾝﾀｰﾋﾞﾙ","pref":"東京都","city":"港区","address":"浜松町世界貿易センタービル"},
{"zip_code":"1056129","kana_pref":"ﾄｳｷｮｳﾄ","kana_city":"ﾐﾅﾄｸ","kana_address":"ﾊﾏﾏﾂﾁｮｳｾｶｲﾎﾞｳｴｷｾﾝﾀｰﾋﾞﾙ","pref":"東京都","city":"港区","address":"浜松町世界貿易センタービル"},
{"zip_code":"1056130","kana_pref":"ﾄｳｷｮｳﾄ","kana_city":"ﾐﾅﾄｸ","kana_address":"ﾊﾏﾏﾂﾁｮｳｾｶｲﾎﾞｳｴｷｾﾝﾀｰﾋﾞﾙ","pref":"東京都","city":"港区","address":"浜松町世界貿易センタービル"},
{"zip_code":"1056131","kana_pref":"ﾄｳｷｮｳﾄ","kana_city":"ﾐﾅﾄｸ","kana_address":"ﾊﾏﾏﾂﾁｮｳｾｶｲﾎﾞｳｴｷｾﾝﾀｰﾋﾞﾙ","pref":"東京都","city":"港区","address":"浜松町世界貿易センタービル"},
{"zip_code":"1056132","kana_pref":"ﾄｳｷｮｳﾄ","kana_city":"ﾐﾅﾄｸ","kana_address":"ﾊﾏﾏﾂﾁｮｳｾｶｲﾎﾞｳｴｷｾﾝﾀｰﾋﾞﾙ","pref":"東京都","city":"港区","address":"浜松町世界貿易センタービル"},
{"zip_code":"1056133","kana_pref":"ﾄｳｷｮｳﾄ","kana_city":"ﾐﾅﾄｸ","kana_address":"ﾊﾏﾏﾂﾁｮｳｾｶｲﾎﾞｳｴｷｾﾝﾀｰﾋﾞﾙ","pref":"東京都","city":"港区","address":"浜松町世界貿易センタービル"},
{"zip_code":"1056134","kana_pref":"ﾄｳｷｮｳﾄ","kana_city":"ﾐﾅﾄｸ","kana_address":"ﾊﾏﾏﾂﾁｮｳｾｶｲﾎﾞｳｴｷｾﾝﾀｰﾋﾞﾙ","pref":"東京都","city":"港区","address":"浜松町世界貿易センタービル"},
{"zip_code":"1056135","kana_pref":"ﾄｳｷｮｳﾄ","kana_city":"ﾐﾅﾄｸ","kana_address":"ﾊﾏﾏﾂﾁｮｳｾｶｲﾎﾞｳｴｷｾﾝﾀｰﾋﾞﾙ","pref":"東京都","city":"港区","address":"浜松町世界貿易センタービル"},
{"zip_code":"1056136","kana_pref":"ﾄｳｷｮｳﾄ","kana_city":"ﾐﾅﾄｸ","kana_address":"ﾊﾏﾏﾂﾁｮｳｾｶｲﾎﾞｳｴｷｾﾝﾀｰﾋﾞﾙ","pref":"東京都","city":"港区","address":"浜松町世界貿易センタービル"},
{"zip_code":"1056137","kana_pref":"ﾄｳｷｮｳﾄ","kana_city":"ﾐﾅﾄｸ","kana_address":"ﾊﾏﾏﾂﾁｮｳｾｶｲﾎﾞｳｴｷｾﾝﾀｰﾋﾞﾙ","pref":"東京都","city":"港区","address":"浜松町世界貿易センタービル"},
{"zip_code":"1056138","kana_pref":"ﾄｳｷｮｳﾄ","kana_city":"ﾐﾅﾄｸ","kana_address":"ﾊﾏﾏﾂﾁｮｳｾｶｲﾎﾞｳｴｷｾﾝﾀｰﾋﾞﾙ","pref":"東京都","city":"港区","address":"浜松町世界貿易センタービル"},
{"zip_code":"1056139","kana_pref":"ﾄｳｷｮｳﾄ","kana_city":"ﾐﾅﾄｸ","kana_address":"ﾊﾏﾏﾂﾁｮｳｾｶｲﾎﾞｳｴｷｾﾝﾀｰﾋﾞﾙ","pref":"東京都","city":"港区","address":"浜松町世界貿易センタービル"},
{"zip_code":"1056140","kana_pref":"ﾄｳｷｮｳﾄ","kana_city":"ﾐﾅﾄｸ","kana_address":"ﾊﾏﾏﾂﾁｮｳｾｶｲﾎﾞｳｴｷｾﾝﾀｰﾋﾞﾙ","pref":"東京都","city":"港区","address":"浜松町世界貿易センタービル"},
{"zip_code":"1050021","kana_pref":"ﾄｳｷｮｳﾄ","kana_city":"ﾐﾅﾄｸ","kana_address":"ﾋｶﾞｼｼﾝﾊﾞｼ","pref":"東京都","city":"港区","address":"東新橋"},
{"zip_code":"1057190","kana_pref":"ﾄｳｷｮｳﾄ","kana_city":"ﾐﾅﾄｸ","kana_address":"ﾋｶﾞｼｼﾝﾊﾞｼｼｵﾄﾞﾒｼﾃｨｾﾝﾀｰ","pref":"東京都","city":"港区","address":"東新橋汐留シティセンター"},
{"zip_code":"1057101","kana_pref":"ﾄｳｷｮｳﾄ","kana_city":"ﾐﾅﾄｸ","kana_address":"ﾋｶﾞｼｼﾝﾊﾞｼｼｵﾄﾞﾒｼﾃｨｾﾝﾀｰ","pref":"東京都","city":"港区","address":"東新橋汐留シティセンター"},
{"zip_code":"1057102","kana_pref":"ﾄｳｷｮｳﾄ","kana_city":"ﾐﾅﾄｸ","kana_address":"ﾋｶﾞｼｼﾝﾊﾞｼｼｵﾄﾞﾒｼﾃｨｾﾝﾀｰ","pref":"東京都","city":"港区","address":"東新橋汐留シティセンター"},
{"zip_code":"1057103","kana_pref":"ﾄｳｷｮｳﾄ","kana_city":"ﾐﾅﾄｸ","kana_address":"ﾋｶﾞｼｼﾝﾊﾞｼｼｵﾄﾞﾒｼﾃｨｾﾝﾀｰ","pref":"東京都","city":"港区","address":"東新橋汐留シティセンター"},
{"zip_code":"1057104","kana_pref":"ﾄｳｷｮｳﾄ","kana_city":"ﾐﾅﾄｸ","kana_address":"ﾋｶﾞｼｼﾝﾊﾞｼｼｵﾄﾞﾒｼﾃｨｾﾝﾀｰ","pref":"東京都","city":"港区","address":"東新橋汐留シティセンター"},
{"zip_code":"1057105","kana_pref":"ﾄｳｷｮｳﾄ","kana_city":"ﾐﾅﾄｸ","kana_address":"ﾋｶﾞｼｼﾝﾊﾞｼｼｵﾄﾞﾒｼﾃｨｾﾝﾀｰ","pref":"東京都","city":"港区","address":"東新橋汐留シティセンター"},
{"zip_code":"1057106","kana_pref":"ﾄｳｷｮｳﾄ","kana_city":"ﾐﾅﾄｸ","kana_address":"ﾋｶﾞｼｼﾝﾊﾞｼｼｵﾄﾞﾒｼﾃｨｾﾝﾀｰ","pref":"東京都","city":"港区","address":"東新橋汐留シティセンター"},
{"zip_code":"1057107","kana_pref":"ﾄｳｷｮｳﾄ","kana_city":"ﾐﾅﾄｸ","kana_address":"ﾋｶﾞｼｼﾝﾊﾞｼｼｵﾄﾞﾒｼﾃｨｾﾝﾀｰ","pref":"東京都","city":"港区","address":"東新橋汐留シティセンター"},
{"zip_code":"1057108","kana_pref":"ﾄｳｷｮｳﾄ","kana_city":"ﾐﾅﾄｸ","kana_address":"ﾋｶﾞｼｼﾝﾊﾞｼｼｵﾄﾞﾒｼﾃｨｾﾝﾀｰ","pref":"東京都","city":"港区","address":"東新橋汐留シティセンター"},
{"zip_code":"1057109","kana_pref":"ﾄｳｷｮｳﾄ","kana_city":"ﾐﾅﾄｸ","kana_address":"ﾋｶﾞｼｼﾝﾊﾞｼｼｵﾄﾞﾒｼﾃｨｾﾝﾀｰ","pref":"東京都","city":"港区","address":"東新橋汐留シティセンター"},
{"zip_code":"1057110","kana_pref":"ﾄｳｷｮｳﾄ","kana_city":"ﾐﾅﾄｸ","kana_address":"ﾋｶﾞｼｼﾝﾊﾞｼｼｵﾄﾞﾒｼﾃｨｾﾝﾀｰ","pref":"東京都","city":"港区","address":"東新橋汐留シティセンター"},
{"zip_code":"1057111","kana_pref":"ﾄｳｷｮｳﾄ","kana_city":"ﾐﾅﾄｸ","kana_address":"ﾋｶﾞｼｼﾝﾊﾞｼｼｵﾄﾞﾒｼﾃｨｾﾝﾀｰ","pref":"東京都","city":"港区","address":"東新橋汐留シティセンター"},
{"zip_code":"1057112","kana_pref":"ﾄｳｷｮｳﾄ","kana_city":"ﾐﾅﾄｸ","kana_address":"ﾋｶﾞｼｼﾝﾊﾞｼｼｵﾄﾞﾒｼﾃｨｾﾝﾀｰ","pref":"東京都","city":"港区","address":"東新橋汐留シティセンター"},
{"zip_code":"1057113","kana_pref":"ﾄｳｷｮｳﾄ","kana_city":"ﾐﾅﾄｸ","kana_address":"ﾋｶﾞｼｼﾝﾊﾞｼｼｵﾄﾞﾒｼﾃｨｾﾝﾀｰ","pref":"東京都","city":"港区","address":"東新橋汐留シティセンター"},
{"zip_code":"1057114","kana_pref":"ﾄｳｷｮｳﾄ","kana_city":"ﾐﾅﾄｸ","kana_address":"ﾋｶﾞｼｼﾝﾊﾞｼｼｵﾄﾞﾒｼﾃｨｾﾝﾀｰ","pref":"東京都","city":"港区","address":"東新橋汐留シティセンター"},
{"zip_code":"1057115","kana_pref":"ﾄｳｷｮｳﾄ","kana_city":"ﾐﾅﾄｸ","kana_address":"ﾋｶﾞｼｼﾝﾊﾞｼｼｵﾄﾞﾒｼﾃｨｾﾝﾀｰ","pref":"東京都","city":"港区","address":"東新橋汐留シティセンター"},
{"zip_code":"1057116","kana_pref":"ﾄｳｷｮｳﾄ","kana_city":"ﾐﾅﾄｸ","kana_address":"ﾋｶﾞｼｼﾝﾊﾞｼｼｵﾄﾞﾒｼﾃｨｾﾝﾀｰ","pref":"東京都","city":"港区","address":"東新橋汐留シティセンター"},
{"zip_code":"1057117","kana_pref":"ﾄｳｷｮｳﾄ","kana_city":"ﾐﾅﾄｸ","kana_address":"ﾋｶﾞｼｼﾝﾊﾞｼｼｵﾄﾞﾒｼﾃｨｾﾝﾀｰ","pref":"東京都","city":"港区","address":"東新橋汐留シティセンター"},
{"zip_code":"1057118","kana_pref":"ﾄｳｷｮｳﾄ","kana_city":"ﾐﾅﾄｸ","kana_address":"ﾋｶﾞｼｼﾝﾊﾞｼｼｵﾄﾞﾒｼﾃｨｾﾝﾀｰ","pref":"東京都","city":"港区","address":"東新橋汐留シティセンター"},
{"zip_code":"1057119","kana_pref":"ﾄｳｷｮｳﾄ","kana_city":"ﾐﾅﾄｸ","kana_address":"ﾋｶﾞｼｼﾝﾊﾞｼｼｵﾄﾞﾒｼﾃｨｾﾝﾀｰ","pref":"東京都","city":"港区","address":"東新橋汐留シティセンター"},
{"zip_code":"1057120","kana_pref":"ﾄｳｷｮｳﾄ","kana_city":"ﾐﾅﾄｸ","kana_address":"ﾋｶﾞｼｼﾝﾊﾞｼｼｵﾄﾞﾒｼﾃｨｾﾝﾀｰ","pref":"東京都","city":"港区","address":"東新橋汐留シティセンター"},
{"zip_code":"1057121","kana_pref":"ﾄｳｷｮｳﾄ","kana_city":"ﾐﾅﾄｸ","kana_address":"ﾋｶﾞｼｼﾝﾊﾞｼｼｵﾄﾞﾒｼﾃｨｾﾝﾀｰ","pref":"東京都","city":"港区","address":"東新橋汐留シティセンター"},
{"zip_code":"1057122","kana_pref":"ﾄｳｷｮｳﾄ","kana_city":"ﾐﾅﾄｸ","kana_address":"ﾋｶﾞｼｼﾝﾊﾞｼｼｵﾄﾞﾒｼﾃｨｾﾝﾀｰ","pref":"東京都","city":"港区","address":"東新橋汐留シティセンター"},
{"zip_code":"1057123","kana_pref":"ﾄｳｷｮｳﾄ","kana_city":"ﾐﾅﾄｸ","kana_address":"ﾋｶﾞｼｼﾝﾊﾞｼｼｵﾄﾞﾒｼﾃｨｾﾝﾀｰ","pref":"東京都","city":"港区","address":"東新橋汐留シティセンター"},
{"zip_code":"1057124","kana_pref":"ﾄｳｷｮｳﾄ","kana_city":"ﾐﾅﾄｸ","kana_address":"ﾋｶﾞｼｼﾝﾊﾞｼｼｵﾄﾞﾒｼﾃｨｾﾝﾀｰ","pref":"東京都","city":"港区","address":"東新橋汐留シティセンター"},
{"zip_code":"1057125","kana_pref":"ﾄｳｷｮｳﾄ","kana_city":"ﾐﾅﾄｸ","kana_address":"ﾋｶﾞｼｼﾝﾊﾞｼｼｵﾄﾞﾒｼﾃｨｾﾝﾀｰ","pref":"東京都","city":"港区","address":"東新橋汐留シティセンター"},
{"zip_code":"1057126","kana_pref":"ﾄｳｷｮｳﾄ","kana_city":"ﾐﾅﾄｸ","kana_address":"ﾋｶﾞｼｼﾝﾊﾞｼｼｵﾄﾞﾒｼﾃｨｾﾝﾀｰ","pref":"東京都","city":"港区","address":"東新橋汐留シティセンター"},
{"zip_code":"1057127","kana_pref":"ﾄｳｷｮｳﾄ","kana_city":"ﾐﾅﾄｸ","kana_address":"ﾋｶﾞｼｼﾝﾊﾞｼｼｵﾄﾞﾒｼﾃｨｾﾝﾀｰ","pref":"東京都","city":"港区","address":"東新橋汐留シティセンター"},
{"zip_code":"1057128","kana_pref":"ﾄｳｷｮｳﾄ","kana_city":"ﾐﾅﾄｸ","kana_address":"ﾋｶﾞｼｼﾝﾊﾞｼｼｵﾄﾞﾒｼﾃｨｾﾝﾀｰ","pref":"東京都","city":"港区","address":"東新橋汐留シティセンター"},
{"zip_code":"1057129","kana_pref":"ﾄｳｷｮｳﾄ","kana_city":"ﾐﾅﾄｸ","kana_address":"ﾋｶﾞｼｼﾝﾊﾞｼｼｵﾄﾞﾒｼﾃｨｾﾝﾀｰ","pref":"東京都","city":"港区","address":"東新橋汐留シティセンター"},
{"zip_code":"1057130","kana_pref":"ﾄｳｷｮｳﾄ","kana_city":"ﾐﾅﾄｸ","kana_address":"ﾋｶﾞｼｼﾝﾊﾞｼｼｵﾄﾞﾒｼﾃｨｾﾝﾀｰ","pref":"東京都","city":"港区","address":"東新橋汐留シティセンター"},
{"zip_code":"1057131","kana_pref":"ﾄｳｷｮｳﾄ","kana_city":"ﾐﾅﾄｸ","kana_address":"ﾋｶﾞｼｼﾝﾊﾞｼｼｵﾄﾞﾒｼﾃｨｾﾝﾀｰ","pref":"東京都","city":"港区","address":"東新橋汐留シティセンター"},
{"zip_code":"1057132","kana_pref":"ﾄｳｷｮｳﾄ","kana_city":"ﾐﾅﾄｸ","kana_address":"ﾋｶﾞｼｼﾝﾊﾞｼｼｵﾄﾞﾒｼﾃｨｾﾝﾀｰ","pref":"東京都","city":"港区","address":"東新橋汐留シティセンター"},
{"zip_code":"1057133","kana_pref":"ﾄｳｷｮｳﾄ","kana_city":"ﾐﾅﾄｸ","kana_address":"ﾋｶﾞｼｼﾝﾊﾞｼｼｵﾄﾞﾒｼﾃｨｾﾝﾀｰ","pref":"東京都","city":"港区","address":"東新橋汐留シティセンター"},
{"zip_code":"1057134","kana_pref":"ﾄｳｷｮｳﾄ","kana_city":"ﾐﾅﾄｸ","kana_address":"ﾋｶﾞｼｼﾝﾊﾞｼｼｵﾄﾞﾒｼﾃｨｾﾝﾀｰ","pref":"東京都","city":"港区","address":"東新橋汐留シティセンター"},
{"zip_code":"1057135","kana_pref":"ﾄｳｷｮｳﾄ","kana_city":"ﾐﾅﾄｸ","kana_address":"ﾋｶﾞｼｼﾝﾊﾞｼｼｵﾄﾞﾒｼﾃｨｾﾝﾀｰ","pref":"東京都","city":"港区","address":"東新橋汐留シティセンター"},
{"zip_code":"1057136","kana_pref":"ﾄｳｷｮｳﾄ","kana_city":"ﾐﾅﾄｸ","kana_address":"ﾋｶﾞｼｼﾝﾊﾞｼｼｵﾄﾞﾒｼﾃｨｾﾝﾀｰ","pref":"東京都","city":"港区","address":"東新橋汐留シティセンター"},
{"zip_code":"1057137","kana_pref":"ﾄｳｷｮｳﾄ","kana_city":"ﾐﾅﾄｸ","kana_address":"ﾋｶﾞｼｼﾝﾊﾞｼｼｵﾄﾞﾒｼﾃｨｾﾝﾀｰ","pref":"東京都","city":"港区","address":"東新橋汐留シティセンター"},
{"zip_code":"1057138","kana_pref":"ﾄｳｷｮｳﾄ","kana_city":"ﾐﾅﾄｸ","kana_address":"ﾋｶﾞｼｼﾝﾊﾞｼｼｵﾄﾞﾒｼﾃｨｾﾝﾀｰ","pref":"東京都","city":"港区","address":"東新橋汐留シティセンター"},
{"zip_code":"1057139","kana_pref":"ﾄｳｷｮｳﾄ","kana_city":"ﾐﾅﾄｸ","kana_address":"ﾋｶﾞｼｼﾝﾊﾞｼｼｵﾄﾞﾒｼﾃｨｾﾝﾀｰ","pref":"東京都","city":"港区","address":"東新橋汐留シティセンター"},
{"zip_code":"1057140","kana_pref":"ﾄｳｷｮｳﾄ","kana_city":"ﾐﾅﾄｸ","kana_address":"ﾋｶﾞｼｼﾝﾊﾞｼｼｵﾄﾞﾒｼﾃｨｾﾝﾀｰ","pref":"東京都","city":"港区","address":"東新橋汐留シティセンター"},
{"zip_code":"1057141","kana_pref":"ﾄｳｷｮｳﾄ","kana_city":"ﾐﾅﾄｸ","kana_address":"ﾋｶﾞｼｼﾝﾊﾞｼｼｵﾄﾞﾒｼﾃｨｾﾝﾀｰ","pref":"東京都","city":"港区","address":"東新橋汐留シティセンター"},
{"zip_code":"1057142","kana_pref":"ﾄｳｷｮｳﾄ","kana_city":"ﾐﾅﾄｸ","kana_address":"ﾋｶﾞｼｼﾝﾊﾞｼｼｵﾄﾞﾒｼﾃｨｾﾝﾀｰ","pref":"東京都","city":"港区","address":"東新橋汐留シティセンター"},
{"zip_code":"1057143","kana_pref":"ﾄｳｷｮｳﾄ","kana_city":"ﾐﾅﾄｸ","kana_address":"ﾋｶﾞｼｼﾝﾊﾞｼｼｵﾄﾞﾒｼﾃｨｾﾝﾀｰ","pref":"東京都","city":"港区","address":"東新橋汐留シティセンター"},
{"zip_code":"1057290","kana_pref":"ﾄｳｷｮｳﾄ","kana_city":"ﾐﾅﾄｸ","kana_address":"ﾋｶﾞｼｼﾝﾊﾞｼｼｵﾄﾞﾒﾒﾃﾞｨｱﾀﾜｰ","pref":"東京都","city":"港区","address":"東新橋汐留メディアタワー"},
{"zip_code":"1057201","kana_pref":"ﾄｳｷｮｳﾄ","kana_city":"ﾐﾅﾄｸ","kana_address":"ﾋｶﾞｼｼﾝﾊﾞｼｼｵﾄﾞﾒﾒﾃﾞｨｱﾀﾜｰ","pref":"東京都","city":"港区","address":"東新橋汐留メディアタワー"},
{"zip_code":"1057202","kana_pref":"ﾄｳｷｮｳﾄ","kana_city":"ﾐﾅﾄｸ","kana_address":"ﾋｶﾞｼｼﾝﾊﾞｼｼｵﾄﾞﾒﾒﾃﾞｨｱﾀﾜｰ","pref":"東京都","city":"港区","address":"東新橋汐留メディアタワー"},
{"zip_code":"1057203","kana_pref":"ﾄｳｷｮｳﾄ","kana_city":"ﾐﾅﾄｸ","kana_address":"ﾋｶﾞｼｼﾝﾊﾞｼｼｵﾄﾞﾒﾒﾃﾞｨｱﾀﾜｰ","pref":"東京都","city":"港区","address":"東新橋汐留メディアタワー"},
{"zip_code":"1057204","kana_pref":"ﾄｳｷｮｳﾄ","kana_city":"ﾐﾅﾄｸ","kana_address":"ﾋｶﾞｼｼﾝﾊﾞｼｼｵﾄﾞﾒﾒﾃﾞｨｱﾀﾜｰ","pref":"東京都","city":"港区","address":"東新橋汐留メディアタワー"},
{"zip_code":"1057205","kana_pref":"ﾄｳｷｮｳﾄ","kana_city":"ﾐﾅﾄｸ","kana_address":"ﾋｶﾞｼｼﾝﾊﾞｼｼｵﾄﾞﾒﾒﾃﾞｨｱﾀﾜｰ","pref":"東京都","city":"港区","address":"東新橋汐留メディアタワー"},
{"zip_code":"1057206","kana_pref":"ﾄｳｷｮｳﾄ","kana_city":"ﾐﾅﾄｸ","kana_address":"ﾋｶﾞｼｼﾝﾊﾞｼｼｵﾄﾞﾒﾒﾃﾞｨｱﾀﾜｰ","pref":"東京都","city":"港区","address":"東新橋汐留メディアタワー"},
{"zip_code":"1057207","kana_pref":"ﾄｳｷｮｳﾄ","kana_city":"ﾐﾅﾄｸ","kana_address":"ﾋｶﾞｼｼﾝﾊﾞｼｼｵﾄﾞﾒﾒﾃﾞｨｱﾀﾜｰ","pref":"東京都","city":"港区","address":"東新橋汐留メディアタワー"},
{"zip_code":"1057208","kana_pref":"ﾄｳｷｮｳﾄ","kana_city":"ﾐﾅﾄｸ","kana_address":"ﾋｶﾞｼｼﾝﾊﾞｼｼｵﾄﾞﾒﾒﾃﾞｨｱﾀﾜｰ","pref":"東京都","city":"港区","address":"東新橋汐留メディアタワー"},
{"zip_code":"1057209","kana_pref":"ﾄｳｷｮｳﾄ","kana_city":"ﾐﾅﾄｸ","kana_address":"ﾋｶﾞｼｼﾝﾊﾞｼｼｵﾄﾞﾒﾒﾃﾞｨｱﾀﾜｰ","pref":"東京都","city":"港区","address":"東新橋汐留メディアタワー"},
{"zip_code":"1057210","kana_pref":"ﾄｳｷｮｳﾄ","kana_city":"ﾐﾅﾄｸ","kana_address":"ﾋｶﾞｼｼﾝﾊﾞｼｼｵﾄﾞﾒﾒﾃﾞｨｱﾀﾜｰ","pref":"東京都","city":"港区","address":"東新橋汐留メディアタワー"},
{"zip_code":"1057211","kana_pref":"ﾄｳｷｮｳﾄ","kana_city":"ﾐﾅﾄｸ","kana_address":"ﾋｶﾞｼｼﾝﾊﾞｼｼｵﾄﾞﾒﾒﾃﾞｨｱﾀﾜｰ","pref":"東京都","city":"港区","address":"東新橋汐留メディアタワー"},
{"zip_code":"1057212","kana_pref":"ﾄｳｷｮｳﾄ","kana_city":"ﾐﾅﾄｸ","kana_address":"ﾋｶﾞｼｼﾝﾊﾞｼｼｵﾄﾞﾒﾒﾃﾞｨｱﾀﾜｰ","pref":"東京都","city":"港区","address":"東新橋汐留メディアタワー"},
{"zip_code":"1057213","kana_pref":"ﾄｳｷｮｳﾄ","kana_city":"ﾐﾅﾄｸ","kana_address":"ﾋｶﾞｼｼﾝﾊﾞｼｼｵﾄﾞﾒﾒﾃﾞｨｱﾀﾜｰ","pref":"東京都","city":"港区","address":"東新橋汐留メディアタワー"},
{"zip_code":"1057214","kana_pref":"ﾄｳｷｮｳﾄ","kana_city":"ﾐﾅﾄｸ","kana_address":"ﾋｶﾞｼｼﾝﾊﾞｼｼｵﾄﾞﾒﾒﾃﾞｨｱﾀﾜｰ","pref":"東京都","city":"港区","address":"東新橋汐留メディアタワー"},
{"zip_code":"1057215","kana_pref":"ﾄｳｷｮｳﾄ","kana_city":"ﾐﾅﾄｸ","kana_address":"ﾋｶﾞｼｼﾝﾊﾞｼｼｵﾄﾞﾒﾒﾃﾞｨｱﾀﾜｰ","pref":"東京都","city":"港区","address":"東新橋汐留メディアタワー"},
{"zip_code":"1057216","kana_pref":"ﾄｳｷｮｳﾄ","kana_city":"ﾐﾅﾄｸ","kana_address":"ﾋｶﾞｼｼﾝﾊﾞｼｼｵﾄﾞﾒﾒﾃﾞｨｱﾀﾜｰ","pref":"東京都","city":"港区","address":"東新橋汐留メディアタワー"},
{"zip_code":"1057217","kana_pref":"ﾄｳｷｮｳﾄ","kana_city":"ﾐﾅﾄｸ","kana_address":"ﾋｶﾞｼｼﾝﾊﾞｼｼｵﾄﾞﾒﾒﾃﾞｨｱﾀﾜｰ","pref":"東京都","city":"港区","address":"東新橋汐留メディアタワー"},
{"zip_code":"1057218","kana_pref":"ﾄｳｷｮｳﾄ","kana_city":"ﾐﾅﾄｸ","kana_address":"ﾋｶﾞｼｼﾝﾊﾞｼｼｵﾄﾞﾒﾒﾃﾞｨｱﾀﾜｰ","pref":"東京都","city":"港区","address":"東新橋汐留メディアタワー"},
{"zip_code":"1057219","kana_pref":"ﾄｳｷｮｳﾄ","kana_city":"ﾐﾅﾄｸ","kana_address":"ﾋｶﾞｼｼﾝﾊﾞｼｼｵﾄﾞﾒﾒﾃﾞｨｱﾀﾜｰ","pref":"東京都","city":"港区","address":"東新橋汐留メディアタワー"},
{"zip_code":"1057220","kana_pref":"ﾄｳｷｮｳﾄ","kana_city":"ﾐﾅﾄｸ","kana_address":"ﾋｶﾞｼｼﾝﾊﾞｼｼｵﾄﾞﾒﾒﾃﾞｨｱﾀﾜｰ","pref":"東京都","city":"港区","address":"東新橋汐留メディアタワー"},
{"zip_code":"1057221","kana_pref":"ﾄｳｷｮｳﾄ","kana_city":"ﾐﾅﾄｸ","kana_address":"ﾋｶﾞｼｼﾝﾊﾞｼｼｵﾄﾞﾒﾒﾃﾞｨｱﾀﾜｰ","pref":"東京都","city":"港区","address":"東新橋汐留メディアタワー"},
{"zip_code":"1057222","kana_pref":"ﾄｳｷｮｳﾄ","kana_city":"ﾐﾅﾄｸ","kana_address":"ﾋｶﾞｼｼﾝﾊﾞｼｼｵﾄﾞﾒﾒﾃﾞｨｱﾀﾜｰ","pref":"東京都","city":"港区","address":"東新橋汐留メディアタワー"},
{"zip_code":"1057223","kana_pref":"ﾄｳｷｮｳﾄ","kana_city":"ﾐﾅﾄｸ","kana_address":"ﾋｶﾞｼｼﾝﾊﾞｼｼｵﾄﾞﾒﾒﾃﾞｨｱﾀﾜｰ","pref":"東京都","city":"港区","address":"東新橋汐留メディアタワー"},
{"zip_code":"1057224","kana_pref":"ﾄｳｷｮｳﾄ","kana_city":"ﾐﾅﾄｸ","kana_address":"ﾋｶﾞｼｼﾝﾊﾞｼｼｵﾄﾞﾒﾒﾃﾞｨｱﾀﾜｰ","pref":"東京都","city":"港区","address":"東新橋汐留メディアタワー"},
{"zip_code":"1057225","kana_pref":"ﾄｳｷｮｳﾄ","kana_city":"ﾐﾅﾄｸ","kana_address":"ﾋｶﾞｼｼﾝﾊﾞｼｼｵﾄﾞﾒﾒﾃﾞｨｱﾀﾜｰ","pref":"東京都","city":"港区","address":"東新橋汐留メディアタワー"},
{"zip_code":"1057226","kana_pref":"ﾄｳｷｮｳﾄ","kana_city":"ﾐﾅﾄｸ","kana_address":"ﾋｶﾞｼｼﾝﾊﾞｼｼｵﾄﾞﾒﾒﾃﾞｨｱﾀﾜｰ","pref":"東京都","city":"港区","address":"東新橋汐留メディアタワー"},
{"zip_code":"1057227","kana_pref":"ﾄｳｷｮｳﾄ","kana_city":"ﾐﾅﾄｸ","kana_address":"ﾋｶﾞｼｼﾝﾊﾞｼｼｵﾄﾞﾒﾒﾃﾞｨｱﾀﾜｰ","pref":"東京都","city":"港区","address":"東新橋汐留メディアタワー"},
{"zip_code":"1057228","kana_pref":"ﾄｳｷｮｳﾄ","kana_city":"ﾐﾅﾄｸ","kana_address":"ﾋｶﾞｼｼﾝﾊﾞｼｼｵﾄﾞﾒﾒﾃﾞｨｱﾀﾜｰ","pref":"東京都","city":"港区","address":"東新橋汐留メディアタワー"},
{"zip_code":"1057229","kana_pref":"ﾄｳｷｮｳﾄ","kana_city":"ﾐﾅﾄｸ","kana_address":"ﾋｶﾞｼｼﾝﾊﾞｼｼｵﾄﾞﾒﾒﾃﾞｨｱﾀﾜｰ","pref":"東京都","city":"港区","address":"東新橋汐留メディアタワー"},
{"zip_code":"1057230","kana_pref":"ﾄｳｷｮｳﾄ","kana_city":"ﾐﾅﾄｸ","kana_address":"ﾋｶﾞｼｼﾝﾊﾞｼｼｵﾄﾞﾒﾒﾃﾞｨｱﾀﾜｰ","pref":"東京都","city":"港区","address":"東新橋汐留メディアタワー"},
{"zip_code":"1057231","kana_pref":"ﾄｳｷｮｳﾄ","kana_city":"ﾐﾅﾄｸ","kana_address":"ﾋｶﾞｼｼﾝﾊﾞｼｼｵﾄﾞﾒﾒﾃﾞｨｱﾀﾜｰ","pref":"東京都","city":"港区","address":"東新橋汐留メディアタワー"},
{"zip_code":"1057232","kana_pref":"ﾄｳｷｮｳﾄ","kana_city":"ﾐﾅﾄｸ","kana_address":"ﾋｶﾞｼｼﾝﾊﾞｼｼｵﾄﾞﾒﾒﾃﾞｨｱﾀﾜｰ","pref":"東京都","city":"港区","address":"東新橋汐留メディアタワー"},
{"zip_code":"1057233","kana_pref":"ﾄｳｷｮｳﾄ","kana_city":"ﾐﾅﾄｸ","kana_address":"ﾋｶﾞｼｼﾝﾊﾞｼｼｵﾄﾞﾒﾒﾃﾞｨｱﾀﾜｰ","pref":"東京都","city":"港区","address":"東新橋汐留メディアタワー"},
{"zip_code":"1057234","kana_pref":"ﾄｳｷｮｳﾄ","kana_city":"ﾐﾅﾄｸ","kana_address":"ﾋｶﾞｼｼﾝﾊﾞｼｼｵﾄﾞﾒﾒﾃﾞｨｱﾀﾜｰ","pref":"東京都","city":"港区","address":"東新橋汐留メディアタワー"},
{"zip_code":"1057090","kana_pref":"ﾄｳｷｮｳﾄ","kana_city":"ﾐﾅﾄｸ","kana_address":"ﾋｶﾞｼｼﾝﾊﾞｼﾃﾞﾝﾂｳﾎﾝｼｬﾋﾞﾙ","pref":"東京都","city":"港区","address":"東新橋電通本社ビル"},
{"zip_code":"1057001","kana_pref":"ﾄｳｷｮｳﾄ","kana_city":"ﾐﾅﾄｸ","kana_address":"ﾋｶﾞｼｼﾝﾊﾞｼﾃﾞﾝﾂｳﾎﾝｼｬﾋﾞﾙ","pref":"東京都","city":"港区","address":"東新橋電通本社ビル"},
{"zip_code":"1057002","kana_pref":"ﾄｳｷｮｳﾄ","kana_city":"ﾐﾅﾄｸ","kana_address":"ﾋｶﾞｼｼﾝﾊﾞｼﾃﾞﾝﾂｳﾎﾝｼｬﾋﾞﾙ","pref":"東京都","city":"港区","address":"東新橋電通本社ビル"},
{"zip_code":"1057003","kana_pref":"ﾄｳｷｮｳﾄ","kana_city":"ﾐﾅﾄｸ","kana_address":"ﾋｶﾞｼｼﾝﾊﾞｼﾃﾞﾝﾂｳﾎﾝｼｬﾋﾞﾙ","pref":"東京都","city":"港区","address":"東新橋電通本社ビル"},
{"zip_code":"1057004","kana_pref":"ﾄｳｷｮｳﾄ","kana_city":"ﾐﾅﾄｸ","kana_address":"ﾋｶﾞｼｼﾝﾊﾞｼﾃﾞﾝﾂｳﾎﾝｼｬﾋﾞﾙ","pref":"東京都","city":"港区","address":"東新橋電通本社ビル"},
{"zip_code":"1057005","kana_pref":"ﾄｳｷｮｳﾄ","kana_city":"ﾐﾅﾄｸ","kana_address":"ﾋｶﾞｼｼﾝﾊﾞｼﾃﾞﾝﾂｳﾎﾝｼｬﾋﾞﾙ","pref":"東京都","city":"港区","address":"東新橋電通本社ビル"},
{"zip_code":"1057006","kana_pref":"ﾄｳｷｮｳﾄ","kana_city":"ﾐﾅﾄｸ","kana_address":"ﾋｶﾞｼｼﾝﾊﾞｼﾃﾞﾝﾂｳﾎﾝｼｬﾋﾞﾙ","pref":"東京都","city":"港区","address":"東新橋電通本社ビル"},
{"zip_code":"1057007","kana_pref":"ﾄｳｷｮｳﾄ","kana_city":"ﾐﾅﾄｸ","kana_address":"ﾋｶﾞｼｼﾝﾊﾞｼﾃﾞﾝﾂｳﾎﾝｼｬﾋﾞﾙ","pref":"東京都","city":"港区","address":"東新橋電通本社ビル"},
{"zip_code":"1057008","kana_pref":"ﾄｳｷｮｳﾄ","kana_city":"ﾐﾅﾄｸ","kana_address":"ﾋｶﾞｼｼﾝﾊﾞｼﾃﾞﾝﾂｳﾎﾝｼｬﾋﾞﾙ","pref":"東京都","city":"港区","address":"東新橋電通本社ビル"},
{"zip_code":"1057009","kana_pref":"ﾄｳｷｮｳﾄ","kana_city":"ﾐﾅﾄｸ","kana_address":"ﾋｶﾞｼｼﾝﾊﾞｼﾃﾞﾝﾂｳﾎﾝｼｬﾋﾞﾙ","pref":"東京都","city":"港区","address":"東新橋電通本社ビル"},
{"zip_code":"1057010","kana_pref":"ﾄｳｷｮｳﾄ","kana_city":"ﾐﾅﾄｸ","kana_address":"ﾋｶﾞｼｼﾝﾊﾞｼﾃﾞﾝﾂｳﾎﾝｼｬﾋﾞﾙ","pref":"東京都","city":"港区","address":"東新橋電通本社ビル"},
{"zip_code":"1057011","kana_pref":"ﾄｳｷｮｳﾄ","kana_city":"ﾐﾅﾄｸ","kana_address":"ﾋｶﾞｼｼﾝﾊﾞｼﾃﾞﾝﾂｳﾎﾝｼｬﾋﾞﾙ","pref":"東京都","city":"港区","address":"東新橋電通本社ビル"},
{"zip_code":"1057012","kana_pref":"ﾄｳｷｮｳﾄ","kana_city":"ﾐﾅﾄｸ","kana_address":"ﾋｶﾞｼｼﾝﾊﾞｼﾃﾞﾝﾂｳﾎﾝｼｬﾋﾞﾙ","pref":"東京都","city":"港区","address":"東新橋電通本社ビル"},
{"zip_code":"1057013","kana_pref":"ﾄｳｷｮｳﾄ","kana_city":"ﾐﾅﾄｸ","kana_address":"ﾋｶﾞｼｼﾝﾊﾞｼﾃﾞﾝﾂｳﾎﾝｼｬﾋﾞﾙ","pref":"東京都","city":"港区","address":"東新橋電通本社ビル"},
{"zip_code":"1057014","kana_pref":"ﾄｳｷｮｳﾄ","kana_city":"ﾐﾅﾄｸ","kana_address":"ﾋｶﾞｼｼﾝﾊﾞｼﾃﾞﾝﾂｳﾎﾝｼｬﾋﾞﾙ","pref":"東京都","city":"港区","address":"東新橋電通本社ビル"},
{"zip_code":"1057015","kana_pref":"ﾄｳｷｮｳﾄ","kana_city":"ﾐﾅﾄｸ","kana_address":"ﾋｶﾞｼｼﾝﾊﾞｼﾃﾞﾝﾂｳﾎﾝｼｬﾋﾞﾙ","pref":"東京都","city":"港区","address":"東新橋電通本社ビル"},
{"zip_code":"1057016","kana_pref":"ﾄｳｷｮｳﾄ","kana_city":"ﾐﾅﾄｸ","kana_address":"ﾋｶﾞｼｼﾝﾊﾞｼﾃﾞﾝﾂｳﾎﾝｼｬﾋﾞﾙ","pref":"東京都","city":"港区","address":"東新橋電通本社ビル"},
{"zip_code":"1057017","kana_pref":"ﾄｳｷｮｳﾄ","kana_city":"ﾐﾅﾄｸ","kana_address":"ﾋｶﾞｼｼﾝﾊﾞｼﾃﾞﾝﾂｳﾎﾝｼｬﾋﾞﾙ","pref":"東京都","city":"港区","address":"東新橋電通本社ビル"},
{"zip_code":"1057018","kana_pref":"ﾄｳｷｮｳﾄ","kana_city":"ﾐﾅﾄｸ","kana_address":"ﾋｶﾞｼｼﾝﾊﾞｼﾃﾞﾝﾂｳﾎﾝｼｬﾋﾞﾙ","pref":"東京都","city":"港区","address":"東新橋電通本社ビル"},
{"zip_code":"1057019","kana_pref":"ﾄｳｷｮｳﾄ","kana_city":"ﾐﾅﾄｸ","kana_address":"ﾋｶﾞｼｼﾝﾊﾞｼﾃﾞﾝﾂｳﾎﾝｼｬﾋﾞﾙ","pref":"東京都","city":"港区","address":"東新橋電通本社ビル"},
{"zip_code":"1057020","kana_pref":"ﾄｳｷｮｳﾄ","kana_city":"ﾐﾅﾄｸ","kana_address":"ﾋｶﾞｼｼﾝﾊﾞｼﾃﾞﾝﾂｳﾎﾝｼｬﾋﾞﾙ","pref":"東京都","city":"港区","address":"東新橋電通本社ビル"},
{"zip_code":"1057021","kana_pref":"ﾄｳｷｮｳﾄ","kana_city":"ﾐﾅﾄｸ","kana_address":"ﾋｶﾞｼｼﾝﾊﾞｼﾃﾞﾝﾂｳﾎﾝｼｬﾋﾞﾙ","pref":"東京都","city":"港区","address":"東新橋電通本社ビル"},
{"zip_code":"1057022","kana_pref":"ﾄｳｷｮｳﾄ","kana_city":"ﾐﾅﾄｸ","kana_address":"ﾋｶﾞｼｼﾝﾊﾞｼﾃﾞﾝﾂｳﾎﾝｼｬﾋﾞﾙ","pref":"東京都","city":"港区","address":"東新橋電通本社ビル"},
{"zip_code":"1057023","kana_pref":"ﾄｳｷｮｳﾄ","kana_city":"ﾐﾅﾄｸ","kana_address":"ﾋｶﾞｼｼﾝﾊﾞｼﾃﾞﾝﾂｳﾎﾝｼｬﾋﾞﾙ","pref":"東京都","city":"港区","address":"東新橋電通本社ビル"},
{"zip_code":"1057024","kana_pref":"ﾄｳｷｮｳﾄ","kana_city":"ﾐﾅﾄｸ","kana_address":"ﾋｶﾞｼｼﾝﾊﾞｼﾃﾞﾝﾂｳﾎﾝｼｬﾋﾞﾙ","pref":"東京都","city":"港区","address":"東新橋電通本社ビル"},
{"zip_code":"1057025","kana_pref":"ﾄｳｷｮｳﾄ","kana_city":"ﾐﾅﾄｸ","kana_address":"ﾋｶﾞｼｼﾝﾊﾞｼﾃﾞﾝﾂｳﾎﾝｼｬﾋﾞﾙ","pref":"東京都","city":"港区","address":"東新橋電通本社ビル"},
{"zip_code":"1057026","kana_pref":"ﾄｳｷｮｳﾄ","kana_city":"ﾐﾅﾄｸ","kana_address":"ﾋｶﾞｼｼﾝﾊﾞｼﾃﾞﾝﾂｳﾎﾝｼｬﾋﾞﾙ","pref":"東京都","city":"港区","address":"東新橋電通本社ビル"},
{"zip_code":"1057027","kana_pref":"ﾄｳｷｮｳﾄ","kana_city":"ﾐﾅﾄｸ","kana_address":"ﾋｶﾞｼｼﾝﾊﾞｼﾃﾞﾝﾂｳﾎﾝｼｬﾋﾞﾙ","pref":"東京都","city":"港区","address":"東新橋電通本社ビル"},
{"zip_code":"1057028","kana_pref":"ﾄｳｷｮｳﾄ","kana_city":"ﾐﾅﾄｸ","kana_address":"ﾋｶﾞｼｼﾝﾊﾞｼﾃﾞﾝﾂｳﾎﾝｼｬﾋﾞﾙ","pref":"東京都","city":"港区","address":"東新橋電通本社ビル"},
{"zip_code":"1057029","kana_pref":"ﾄｳｷｮｳﾄ","kana_city":"ﾐﾅﾄｸ","kana_address":"ﾋｶﾞｼｼﾝﾊﾞｼﾃﾞﾝﾂｳﾎﾝｼｬﾋﾞﾙ","pref":"東京都","city":"港区","address":"東新橋電通本社ビル"},
{"zip_code":"1057030","kana_pref":"ﾄｳｷｮｳﾄ","kana_city":"ﾐﾅﾄｸ","kana_address":"ﾋｶﾞｼｼﾝﾊﾞｼﾃﾞﾝﾂｳﾎﾝｼｬﾋﾞﾙ","pref":"東京都","city":"港区","address":"東新橋電通本社ビル"},
{"zip_code":"1057031","kana_pref":"ﾄｳｷｮｳﾄ","kana_city":"ﾐﾅﾄｸ","kana_address":"ﾋｶﾞｼｼﾝﾊﾞｼﾃﾞﾝﾂｳﾎﾝｼｬﾋﾞﾙ","pref":"東京都","city":"港区","address":"東新橋電通本社ビル"},
{"zip_code":"1057032","kana_pref":"ﾄｳｷｮｳﾄ","kana_city":"ﾐﾅﾄｸ","kana_address":"ﾋｶﾞｼｼﾝﾊﾞｼﾃﾞﾝﾂｳﾎﾝｼｬﾋﾞﾙ","pref":"東京都","city":"港区","address":"東新橋電通本社ビル"},
{"zip_code":"1057033","kana_pref":"ﾄｳｷｮｳﾄ","kana_city":"ﾐﾅﾄｸ","kana_address":"ﾋｶﾞｼｼﾝﾊﾞｼﾃﾞﾝﾂｳﾎﾝｼｬﾋﾞﾙ","pref":"東京都","city":"港区","address":"東新橋電通本社ビル"},
{"zip_code":"1057034","kana_pref":"ﾄｳｷｮｳﾄ","kana_city":"ﾐﾅﾄｸ","kana_address":"ﾋｶﾞｼｼﾝﾊﾞｼﾃﾞﾝﾂｳﾎﾝｼｬﾋﾞﾙ","pref":"東京都","city":"港区","address":"東新橋電通本社ビル"},
{"zip_code":"1057035","kana_pref":"ﾄｳｷｮｳﾄ","kana_city":"ﾐﾅﾄｸ","kana_address":"ﾋｶﾞｼｼﾝﾊﾞｼﾃﾞﾝﾂｳﾎﾝｼｬﾋﾞﾙ","pref":"東京都","city":"港区","address":"東新橋電通本社ビル"},
{"zip_code":"1057036","kana_pref":"ﾄｳｷｮｳﾄ","kana_city":"ﾐﾅﾄｸ","kana_address":"ﾋｶﾞｼｼﾝﾊﾞｼﾃﾞﾝﾂｳﾎﾝｼｬﾋﾞﾙ","pref":"東京都","city":"港区","address":"東新橋電通本社ビル"},
{"zip_code":"1057037","kana_pref":"ﾄｳｷｮｳﾄ","kana_city":"ﾐﾅﾄｸ","kana_address":"ﾋｶﾞｼｼﾝﾊﾞｼﾃﾞﾝﾂｳﾎﾝｼｬﾋﾞﾙ","pref":"東京都","city":"港区","address":"東新橋電通本社ビル"},
{"zip_code":"1057038","kana_pref":"ﾄｳｷｮｳﾄ","kana_city":"ﾐﾅﾄｸ","kana_address":"ﾋｶﾞｼｼﾝﾊﾞｼﾃﾞﾝﾂｳﾎﾝｼｬﾋﾞﾙ","pref":"東京都","city":"港区","address":"東新橋電通本社ビル"},
{"zip_code":"1057039","kana_pref":"ﾄｳｷｮｳﾄ","kana_city":"ﾐﾅﾄｸ","kana_address":"ﾋｶﾞｼｼﾝﾊﾞｼﾃﾞﾝﾂｳﾎﾝｼｬﾋﾞﾙ","pref":"東京都","city":"港区","address":"東新橋電通本社ビル"},
{"zip_code":"1057040","kana_pref":"ﾄｳｷｮｳﾄ","kana_city":"ﾐﾅﾄｸ","kana_address":"ﾋｶﾞｼｼﾝﾊﾞｼﾃﾞﾝﾂｳﾎﾝｼｬﾋﾞﾙ","pref":"東京都","city":"港区","address":"東新橋電通本社ビル"},
{"zip_code":"1057041","kana_pref":"ﾄｳｷｮｳﾄ","kana_city":"ﾐﾅﾄｸ","kana_address":"ﾋｶﾞｼｼﾝﾊﾞｼﾃﾞﾝﾂｳﾎﾝｼｬﾋﾞﾙ","pref":"東京都","city":"港区","address":"東新橋電通本社ビル"},
{"zip_code":"1057042","kana_pref":"ﾄｳｷｮｳﾄ","kana_city":"ﾐﾅﾄｸ","kana_address":"ﾋｶﾞｼｼﾝﾊﾞｼﾃﾞﾝﾂｳﾎﾝｼｬﾋﾞﾙ","pref":"東京都","city":"港区","address":"東新橋電通本社ビル"},
{"zip_code":"1057043","kana_pref":"ﾄｳｷｮｳﾄ","kana_city":"ﾐﾅﾄｸ","kana_address":"ﾋｶﾞｼｼﾝﾊﾞｼﾃﾞﾝﾂｳﾎﾝｼｬﾋﾞﾙ","pref":"東京都","city":"港区","address":"東新橋電通本社ビル"},
{"zip_code":"1057044","kana_pref":"ﾄｳｷｮｳﾄ","kana_city":"ﾐﾅﾄｸ","kana_address":"ﾋｶﾞｼｼﾝﾊﾞｼﾃﾞﾝﾂｳﾎﾝｼｬﾋﾞﾙ","pref":"東京都","city":"港区","address":"東新橋電通本社ビル"},
{"zip_code":"1057045","kana_pref":"ﾄｳｷｮｳﾄ","kana_city":"ﾐﾅﾄｸ","kana_address":"ﾋｶﾞｼｼﾝﾊﾞｼﾃﾞﾝﾂｳﾎﾝｼｬﾋﾞﾙ","pref":"東京都","city":"港区","address":"東新橋電通本社ビル"},
{"zip_code":"1057046","kana_pref":"ﾄｳｷｮｳﾄ","kana_city":"ﾐﾅﾄｸ","kana_address":"ﾋｶﾞｼｼﾝﾊﾞｼﾃﾞﾝﾂｳﾎﾝｼｬﾋﾞﾙ","pref":"東京都","city":"港区","address":"東新橋電通本社ビル"},
{"zip_code":"1057047","kana_pref":"ﾄｳｷｮｳﾄ","kana_city":"ﾐﾅﾄｸ","kana_address":"ﾋｶﾞｼｼﾝﾊﾞｼﾃﾞﾝﾂｳﾎﾝｼｬﾋﾞﾙ","pref":"東京都","city":"港区","address":"東新橋電通本社ビル"},
{"zip_code":"1057390","kana_pref":"ﾄｳｷｮｳﾄ","kana_city":"ﾐﾅﾄｸ","kana_address":"ﾋｶﾞｼｼﾝﾊﾞｼﾄｳｷｮｳｼｵﾄﾞﾒﾋﾞﾙﾃﾞｨﾝｸﾞ","pref":"東京都","city":"港区","address":"東新橋東京汐留ビルディング"},
{"zip_code":"1057301","kana_pref":"ﾄｳｷｮｳﾄ","kana_city":"ﾐﾅﾄｸ","kana_address":"ﾋｶﾞｼｼﾝﾊﾞｼﾄｳｷｮｳｼｵﾄﾞﾒﾋﾞﾙﾃﾞｨﾝｸﾞ","pref":"東京都","city":"港区","address":"東新橋東京汐留ビルディング"},
{"zip_code":"1057302","kana_pref":"ﾄｳｷｮｳﾄ","kana_city":"ﾐﾅﾄｸ","kana_address":"ﾋｶﾞｼｼﾝﾊﾞｼﾄｳｷｮｳｼｵﾄﾞﾒﾋﾞﾙﾃﾞｨﾝｸﾞ","pref":"東京都","city":"港区","address":"東新橋東京汐留ビルディング"},
{"zip_code":"1057303","kana_pref":"ﾄｳｷｮｳﾄ","kana_city":"ﾐﾅﾄｸ","kana_address":"ﾋｶﾞｼｼﾝﾊﾞｼﾄｳｷｮｳｼｵﾄﾞﾒﾋﾞﾙﾃﾞｨﾝｸﾞ","pref":"東京都","city":"港区","address":"東新橋東京汐留ビルディング"},
{"zip_code":"1057304","kana_pref":"ﾄｳｷｮｳﾄ","kana_city":"ﾐﾅﾄｸ","kana_address":"ﾋｶﾞｼｼﾝﾊﾞｼﾄｳｷｮｳｼｵﾄﾞﾒﾋﾞﾙﾃﾞｨﾝｸﾞ","pref":"東京都","city":"港区","address":"東新橋東京汐留ビルディング"},
{"zip_code":"1057305","kana_pref":"ﾄｳｷｮｳﾄ","kana_city":"ﾐﾅﾄｸ","kana_address":"ﾋｶﾞｼｼﾝﾊﾞｼﾄｳｷｮｳｼｵﾄﾞﾒﾋﾞﾙﾃﾞｨﾝｸﾞ","pref":"東京都","city":"港区","address":"東新橋東京汐留ビルディング"},
{"zip_code":"1057306","kana_pref":"ﾄｳｷｮｳﾄ","kana_city":"ﾐﾅﾄｸ","kana_address":"ﾋｶﾞｼｼﾝﾊﾞｼﾄｳｷｮｳｼｵﾄﾞﾒﾋﾞﾙﾃﾞｨﾝｸﾞ","pref":"東京都","city":"港区","address":"東新橋東京汐留ビルディング"},
{"zip_code":"1057307","kana_pref":"ﾄｳｷｮｳﾄ","kana_city":"ﾐﾅﾄｸ","kana_address":"ﾋｶﾞｼｼﾝﾊﾞｼﾄｳｷｮｳｼｵﾄﾞﾒﾋﾞﾙﾃﾞｨﾝｸﾞ","pref":"東京都","city":"港区","address":"東新橋東京汐留ビルディング"},
{"zip_code":"1057308","kana_pref":"ﾄｳｷｮｳﾄ","kana_city":"ﾐﾅﾄｸ","kana_address":"ﾋｶﾞｼｼﾝﾊﾞｼﾄｳｷｮｳｼｵﾄﾞﾒﾋﾞﾙﾃﾞｨﾝｸﾞ","pref":"東京都","city":"港区","address":"東新橋東京汐留ビルディング"},
{"zip_code":"1057309","kana_pref":"ﾄｳｷｮｳﾄ","kana_city":"ﾐﾅﾄｸ","kana_address":"ﾋｶﾞｼｼﾝﾊﾞｼﾄｳｷｮｳｼｵﾄﾞﾒﾋﾞﾙﾃﾞｨﾝｸﾞ","pref":"東京都","city":"港区","address":"東新橋東京汐留ビルディング"},
{"zip_code":"1057310","kana_pref":"ﾄｳｷｮｳﾄ","kana_city":"ﾐﾅﾄｸ","kana_address":"ﾋｶﾞｼｼﾝﾊﾞｼﾄｳｷｮｳｼｵﾄﾞﾒﾋﾞﾙﾃﾞｨﾝｸﾞ","pref":"東京都","city":"港区","address":"東新橋東京汐留ビルディング"},
{"zip_code":"1057311","kana_pref":"ﾄｳｷｮｳﾄ","kana_city":"ﾐﾅﾄｸ","kana_address":"ﾋｶﾞｼｼﾝﾊﾞｼﾄｳｷｮｳｼｵﾄﾞﾒﾋﾞﾙﾃﾞｨﾝｸﾞ","pref":"東京都","city":"港区","address":"東新橋東京汐留ビルディング"},
{"zip_code":"1057312","kana_pref":"ﾄｳｷｮｳﾄ","kana_city":"ﾐﾅﾄｸ","kana_address":"ﾋｶﾞｼｼﾝﾊﾞｼﾄｳｷｮｳｼｵﾄﾞﾒﾋﾞﾙﾃﾞｨﾝｸﾞ","pref":"東京都","city":"港区","address":"東新橋東京汐留ビルディング"},
{"zip_code":"1057313","kana_pref":"ﾄｳｷｮｳﾄ","kana_city":"ﾐﾅﾄｸ","kana_address":"ﾋｶﾞｼｼﾝﾊﾞｼﾄｳｷｮｳｼｵﾄﾞﾒﾋﾞﾙﾃﾞｨﾝｸﾞ","pref":"東京都","city":"港区","address":"東新橋東京汐留ビルディング"},
{"zip_code":"1057314","kana_pref":"ﾄｳｷｮｳﾄ","kana_city":"ﾐﾅﾄｸ","kana_address":"ﾋｶﾞｼｼﾝﾊﾞｼﾄｳｷｮｳｼｵﾄﾞﾒﾋﾞﾙﾃﾞｨﾝｸﾞ","pref":"東京都","city":"港区","address":"東新橋東京汐留ビルディング"},
{"zip_code":"1057315","kana_pref":"ﾄｳｷｮｳﾄ","kana_city":"ﾐﾅﾄｸ","kana_address":"ﾋｶﾞｼｼﾝﾊﾞｼﾄｳｷｮｳｼｵﾄﾞﾒﾋﾞﾙﾃﾞｨﾝｸﾞ","pref":"東京都","city":"港区","address":"東新橋東京汐留ビルディング"},
{"zip_code":"1057316","kana_pref":"ﾄｳｷｮｳﾄ","kana_city":"ﾐﾅﾄｸ","kana_address":"ﾋｶﾞｼｼﾝﾊﾞｼﾄｳｷｮｳｼｵﾄﾞﾒﾋﾞﾙﾃﾞｨﾝｸﾞ","pref":"東京都","city":"港区","address":"東新橋東京汐留ビルディング"},
{"zip_code":"1057317","kana_pref":"ﾄｳｷｮｳﾄ","kana_city":"ﾐﾅﾄｸ","kana_address":"ﾋｶﾞｼｼﾝﾊﾞｼﾄｳｷｮｳｼｵﾄﾞﾒﾋﾞﾙﾃﾞｨﾝｸﾞ","pref":"東京都","city":"港区","address":"東新橋東京汐留ビルディング"},
{"zip_code":"1057318","kana_pref":"ﾄｳｷｮｳﾄ","kana_city":"ﾐﾅﾄｸ","kana_address":"ﾋｶﾞｼｼﾝﾊﾞｼﾄｳｷｮｳｼｵﾄﾞﾒﾋﾞﾙﾃﾞｨﾝｸﾞ","pref":"東京都","city":"港区","address":"東新橋東京汐留ビルディング"},
{"zip_code":"1057319","kana_pref":"ﾄｳｷｮｳﾄ","kana_city":"ﾐﾅﾄｸ","kana_address":"ﾋｶﾞｼｼﾝﾊﾞｼﾄｳｷｮｳｼｵﾄﾞﾒﾋﾞﾙﾃﾞｨﾝｸﾞ","pref":"東京都","city":"港区","address":"東新橋東京汐留ビルディング"},
{"zip_code":"1057320","kana_pref":"ﾄｳｷｮｳﾄ","kana_city":"ﾐﾅﾄｸ","kana_address":"ﾋｶﾞｼｼﾝﾊﾞｼﾄｳｷｮｳｼｵﾄﾞﾒﾋﾞﾙﾃﾞｨﾝｸﾞ","pref":"東京都","city":"港区","address":"東新橋東京汐留ビルディング"},
{"zip_code":"1057321","kana_pref":"ﾄｳｷｮｳﾄ","kana_city":"ﾐﾅﾄｸ","kana_address":"ﾋｶﾞｼｼﾝﾊﾞｼﾄｳｷｮｳｼｵﾄﾞﾒﾋﾞﾙﾃﾞｨﾝｸﾞ","pref":"東京都","city":"港区","address":"東新橋東京汐留ビルディング"},
{"zip_code":"1057322","kana_pref":"ﾄｳｷｮｳﾄ","kana_city":"ﾐﾅﾄｸ","kana_address":"ﾋｶﾞｼｼﾝﾊﾞｼﾄｳｷｮｳｼｵﾄﾞﾒﾋﾞﾙﾃﾞｨﾝｸﾞ","pref":"東京都","city":"港区","address":"東新橋東京汐留ビルディング"},
{"zip_code":"1057323","kana_pref":"ﾄｳｷｮｳﾄ","kana_city":"ﾐﾅﾄｸ","kana_address":"ﾋｶﾞｼｼﾝﾊﾞｼﾄｳｷｮｳｼｵﾄﾞﾒﾋﾞﾙﾃﾞｨﾝｸﾞ","pref":"東京都","city":"港区","address":"東新橋東京汐留ビルディング"},
{"zip_code":"1057324","kana_pref":"ﾄｳｷｮｳﾄ","kana_city":"ﾐﾅﾄｸ","kana_address":"ﾋｶﾞｼｼﾝﾊﾞｼﾄｳｷｮｳｼｵﾄﾞﾒﾋﾞﾙﾃﾞｨﾝｸﾞ","pref":"東京都","city":"港区","address":"東新橋東京汐留ビルディング"},
{"zip_code":"1057325","kana_pref":"ﾄｳｷｮｳﾄ","kana_city":"ﾐﾅﾄｸ","kana_address":"ﾋｶﾞｼｼﾝﾊﾞｼﾄｳｷｮｳｼｵﾄﾞﾒﾋﾞﾙﾃﾞｨﾝｸﾞ","pref":"東京都","city":"港区","address":"東新橋東京汐留ビルディング"},
{"zip_code":"1057326","kana_pref":"ﾄｳｷｮｳﾄ","kana_city":"ﾐﾅﾄｸ","kana_address":"ﾋｶﾞｼｼﾝﾊﾞｼﾄｳｷｮｳｼｵﾄﾞﾒﾋﾞﾙﾃﾞｨﾝｸﾞ","pref":"東京都","city":"港区","address":"東新橋東京汐留ビルディング"},
{"zip_code":"1057327","kana_pref":"ﾄｳｷｮｳﾄ","kana_city":"ﾐﾅﾄｸ","kana_address":"ﾋｶﾞｼｼﾝﾊﾞｼﾄｳｷｮｳｼｵﾄﾞﾒﾋﾞﾙﾃﾞｨﾝｸﾞ","pref":"東京都","city":"港区","address":"東新橋東京汐留ビルディング"},
{"zip_code":"1057328","kana_pref":"ﾄｳｷｮｳﾄ","kana_city":"ﾐﾅﾄｸ","kana_address":"ﾋｶﾞｼｼﾝﾊﾞｼﾄｳｷｮｳｼｵﾄﾞﾒﾋﾞﾙﾃﾞｨﾝｸﾞ","pref":"東京都","city":"港区","address":"東新橋東京汐留ビルディング"},
{"zip_code":"1057329","kana_pref":"ﾄｳｷｮｳﾄ","kana_city":"ﾐﾅﾄｸ","kana_address":"ﾋｶﾞｼｼﾝﾊﾞｼﾄｳｷｮｳｼｵﾄﾞﾒﾋﾞﾙﾃﾞｨﾝｸﾞ","pref":"東京都","city":"港区","address":"東新橋東京汐留ビルディング"},
{"zip_code":"1057330","kana_pref":"ﾄｳｷｮｳﾄ","kana_city":"ﾐﾅﾄｸ","kana_address":"ﾋｶﾞｼｼﾝﾊﾞｼﾄｳｷｮｳｼｵﾄﾞﾒﾋﾞﾙﾃﾞｨﾝｸﾞ","pref":"東京都","city":"港区","address":"東新橋東京汐留ビルディング"},
{"zip_code":"1057331","kana_pref":"ﾄｳｷｮｳﾄ","kana_city":"ﾐﾅﾄｸ","kana_address":"ﾋｶﾞｼｼﾝﾊﾞｼﾄｳｷｮｳｼｵﾄﾞﾒﾋﾞﾙﾃﾞｨﾝｸﾞ","pref":"東京都","city":"港区","address":"東新橋東京汐留ビルディング"},
{"zip_code":"1057332","kana_pref":"ﾄｳｷｮｳﾄ","kana_city":"ﾐﾅﾄｸ","kana_address":"ﾋｶﾞｼｼﾝﾊﾞｼﾄｳｷｮｳｼｵﾄﾞﾒﾋﾞﾙﾃﾞｨﾝｸﾞ","pref":"東京都","city":"港区","address":"東新橋東京汐留ビルディング"},
{"zip_code":"1057333","kana_pref":"ﾄｳｷｮｳﾄ","kana_city":"ﾐﾅﾄｸ","kana_address":"ﾋｶﾞｼｼﾝﾊﾞｼﾄｳｷｮｳｼｵﾄﾞﾒﾋﾞﾙﾃﾞｨﾝｸﾞ","pref":"東京都","city":"港区","address":"東新橋東京汐留ビルディング"},
{"zip_code":"1057334","kana_pref":"ﾄｳｷｮｳﾄ","kana_city":"ﾐﾅﾄｸ","kana_address":"ﾋｶﾞｼｼﾝﾊﾞｼﾄｳｷｮｳｼｵﾄﾞﾒﾋﾞﾙﾃﾞｨﾝｸﾞ","pref":"東京都","city":"港区","address":"東新橋東京汐留ビルディング"},
{"zip_code":"1057335","kana_pref":"ﾄｳｷｮｳﾄ","kana_city":"ﾐﾅﾄｸ","kana_address":"ﾋｶﾞｼｼﾝﾊﾞｼﾄｳｷｮｳｼｵﾄﾞﾒﾋﾞﾙﾃﾞｨﾝｸﾞ","pref":"東京都","city":"港区","address":"東新橋東京汐留ビルディング"},
{"zip_code":"1057336","kana_pref":"ﾄｳｷｮｳﾄ","kana_city":"ﾐﾅﾄｸ","kana_address":"ﾋｶﾞｼｼﾝﾊﾞｼﾄｳｷｮｳｼｵﾄﾞﾒﾋﾞﾙﾃﾞｨﾝｸﾞ","pref":"東京都","city":"港区","address":"東新橋東京汐留ビルディング"},
{"zip_code":"1057337","kana_pref":"ﾄｳｷｮｳﾄ","kana_city":"ﾐﾅﾄｸ","kana_address":"ﾋｶﾞｼｼﾝﾊﾞｼﾄｳｷｮｳｼｵﾄﾞﾒﾋﾞﾙﾃﾞｨﾝｸﾞ","pref":"東京都","city":"港区","address":"東新橋東京汐留ビルディング"},
{"zip_code":"1057490","kana_pref":"ﾄｳｷｮｳﾄ","kana_city":"ﾐﾅﾄｸ","kana_address":"ﾋｶﾞｼｼﾝﾊﾞｼﾆﾎﾝﾃﾚﾋﾞﾀﾜｰ","pref":"東京都","city":"港区","address":"東新橋日本テレビタワー"},
{"zip_code":"1057401","kana_pref":"ﾄｳｷｮｳﾄ","kana_city":"ﾐﾅﾄｸ","kana_address":"ﾋｶﾞｼｼﾝﾊﾞｼﾆﾎﾝﾃﾚﾋﾞﾀﾜｰ","pref":"東京都","city":"港区","address":"東新橋日本テレビタワー"},
{"zip_code":"1057402","kana_pref":"ﾄｳｷｮｳﾄ","kana_city":"ﾐﾅﾄｸ","kana_address":"ﾋｶﾞｼｼﾝﾊﾞｼﾆﾎﾝﾃﾚﾋﾞﾀﾜｰ","pref":"東京都","city":"港区","address":"東新橋日本テレビタワー"},
{"zip_code":"1057403","kana_pref":"ﾄｳｷｮｳﾄ","kana_city":"ﾐﾅﾄｸ","kana_address":"ﾋｶﾞｼｼﾝﾊﾞｼﾆﾎﾝﾃﾚﾋﾞﾀﾜｰ","pref":"東京都","city":"港区","address":"東新橋日本テレビタワー"},
{"zip_code":"1057404","kana_pref":"ﾄｳｷｮｳﾄ","kana_city":"ﾐﾅﾄｸ","kana_address":"ﾋｶﾞｼｼﾝﾊﾞｼﾆﾎﾝﾃﾚﾋﾞﾀﾜｰ","pref":"東京都","city":"港区","address":"東新橋日本テレビタワー"},
{"zip_code":"1057405","kana_pref":"ﾄｳｷｮｳﾄ","kana_city":"ﾐﾅﾄｸ","kana_address":"ﾋｶﾞｼｼﾝﾊﾞｼﾆﾎﾝﾃﾚﾋﾞﾀﾜｰ","pref":"東京都","city":"港区","address":"東新橋日本テレビタワー"},
{"zip_code":"1057406","kana_pref":"ﾄｳｷｮｳﾄ","kana_city":"ﾐﾅﾄｸ","kana_address":"ﾋｶﾞｼｼﾝﾊﾞｼﾆﾎﾝﾃﾚﾋﾞﾀﾜｰ","pref":"東京都","city":"港区","address":"東新橋日本テレビタワー"},
{"zip_code":"1057407","kana_pref":"ﾄｳｷｮｳﾄ","kana_city":"ﾐﾅﾄｸ","kana_address":"ﾋｶﾞｼｼﾝﾊﾞｼﾆﾎﾝﾃﾚﾋﾞﾀﾜｰ","pref":"東京都","city":"港区","address":"東新橋日本テレビタワー"},
{"zip_code":"1057408","kana_pref":"ﾄｳｷｮｳﾄ","kana_city":"ﾐﾅﾄｸ","kana_address":"ﾋｶﾞｼｼﾝﾊﾞｼﾆﾎﾝﾃﾚﾋﾞﾀﾜｰ","pref":"東京都","city":"港区","address":"東新橋日本テレビタワー"},
{"zip_code":"1057409","kana_pref":"ﾄｳｷｮｳﾄ","kana_city":"ﾐﾅﾄｸ","kana_address":"ﾋｶﾞｼｼﾝﾊﾞｼﾆﾎﾝﾃﾚﾋﾞﾀﾜｰ","pref":"東京都","city":"港区","address":"東新橋日本テレビタワー"},
{"zip_code":"1057410","kana_pref":"ﾄｳｷｮｳﾄ","kana_city":"ﾐﾅﾄｸ","kana_address":"ﾋｶﾞｼｼﾝﾊﾞｼﾆﾎﾝﾃﾚﾋﾞﾀﾜｰ","pref":"東京都","city":"港区","address":"東新橋日本テレビタワー"},
{"zip_code":"1057411","kana_pref":"ﾄｳｷｮｳﾄ","kana_city":"ﾐﾅﾄｸ","kana_address":"ﾋｶﾞｼｼﾝﾊﾞｼﾆﾎﾝﾃﾚﾋﾞﾀﾜｰ","pref":"東京都","city":"港区","address":"東新橋日本テレビタワー"},
{"zip_code":"1057412","kana_pref":"ﾄｳｷｮｳﾄ","kana_city":"ﾐﾅﾄｸ","kana_address":"ﾋｶﾞｼｼﾝﾊﾞｼﾆﾎﾝﾃﾚﾋﾞﾀﾜｰ","pref":"東京都","city":"港区","address":"東新橋日本テレビタワー"},
{"zip_code":"1057413","kana_pref":"ﾄｳｷｮｳﾄ","kana_city":"ﾐﾅﾄｸ","kana_address":"ﾋｶﾞｼｼﾝﾊﾞｼﾆﾎﾝﾃﾚﾋﾞﾀﾜｰ","pref":"東京都","city":"港区","address":"東新橋日本テレビタワー"},
{"zip_code":"1057414","kana_pref":"ﾄｳｷｮｳﾄ","kana_city":"ﾐﾅﾄｸ","kana_address":"ﾋｶﾞｼｼﾝﾊﾞｼﾆﾎﾝﾃﾚﾋﾞﾀﾜｰ","pref":"東京都","city":"港区","address":"東新橋日本テレビタワー"},
{"zip_code":"1057415","kana_pref":"ﾄｳｷｮｳﾄ","kana_city":"ﾐﾅﾄｸ","kana_address":"ﾋｶﾞｼｼﾝﾊﾞｼﾆﾎﾝﾃﾚﾋﾞﾀﾜｰ","pref":"東京都","city":"港区","address":"東新橋日本テレビタワー"},
{"zip_code":"1057416","kana_pref":"ﾄｳｷｮｳﾄ","kana_city":"ﾐﾅﾄｸ","kana_address":"ﾋｶﾞｼｼﾝﾊﾞｼﾆﾎﾝﾃﾚﾋﾞﾀﾜｰ","pref":"東京都","city":"港区","address":"東新橋日本テレビタワー"},
{"zip_code":"1057417","kana_pref":"ﾄｳｷｮｳﾄ","kana_city":"ﾐﾅﾄｸ","kana_address":"ﾋｶﾞｼｼﾝﾊﾞｼﾆﾎﾝﾃﾚﾋﾞﾀﾜｰ","pref":"東京都","city":"港区","address":"東新橋日本テレビタワー"},
{"zip_code":"1057418","kana_pref":"ﾄｳｷｮｳﾄ","kana_city":"ﾐﾅﾄｸ","kana_address":"ﾋｶﾞｼｼﾝﾊﾞｼﾆﾎﾝﾃﾚﾋﾞﾀﾜｰ","pref":"東京都","city":"港区","address":"東新橋日本テレビタワー"},
{"zip_code":"1057419","kana_pref":"ﾄｳｷｮｳﾄ","kana_city":"ﾐﾅﾄｸ","kana_address":"ﾋｶﾞｼｼﾝﾊﾞｼﾆﾎﾝﾃﾚﾋﾞﾀﾜｰ","pref":"東京都","city":"港区","address":"東新橋日本テレビタワー"},
{"zip_code":"1057420","kana_pref":"ﾄｳｷｮｳﾄ","kana_city":"ﾐﾅﾄｸ","kana_address":"ﾋｶﾞｼｼﾝﾊﾞｼﾆﾎﾝﾃﾚﾋﾞﾀﾜｰ","pref":"東京都","city":"港区","address":"東新橋日本テレビタワー"},
{"zip_code":"1057421","kana_pref":"ﾄｳｷｮｳﾄ","kana_city":"ﾐﾅﾄｸ","kana_address":"ﾋｶﾞｼｼﾝﾊﾞｼﾆﾎﾝﾃﾚﾋﾞﾀﾜｰ","pref":"東京都","city":"港区","address":"東新橋日本テレビタワー"},
{"zip_code":"1057422","kana_pref":"ﾄｳｷｮｳﾄ","kana_city":"ﾐﾅﾄｸ","kana_address":"ﾋｶﾞｼｼﾝﾊﾞｼﾆﾎﾝﾃﾚﾋﾞﾀﾜｰ","pref":"東京都","city":"港区","address":"東新橋日本テレビタワー"},
{"zip_code":"1057423","kana_pref":"ﾄｳｷｮｳﾄ","kana_city":"ﾐﾅﾄｸ","kana_address":"ﾋｶﾞｼｼﾝﾊﾞｼﾆﾎﾝﾃﾚﾋﾞﾀﾜｰ","pref":"東京都","city":"港区","address":"東新橋日本テレビタワー"},
{"zip_code":"1057424","kana_pref":"ﾄｳｷｮｳﾄ","kana_city":"ﾐﾅﾄｸ","kana_address":"ﾋｶﾞｼｼﾝﾊﾞｼﾆﾎﾝﾃﾚﾋﾞﾀﾜｰ","pref":"東京都","city":"港区","address":"東新橋日本テレビタワー"},
{"zip_code":"1057425","kana_pref":"ﾄｳｷｮｳﾄ","kana_city":"ﾐﾅﾄｸ","kana_address":"ﾋｶﾞｼｼﾝﾊﾞｼﾆﾎﾝﾃﾚﾋﾞﾀﾜｰ","pref":"東京都","city":"港区","address":"東新橋日本テレビタワー"},
{"zip_code":"1057426","kana_pref":"ﾄｳｷｮｳﾄ","kana_city":"ﾐﾅﾄｸ","kana_address":"ﾋｶﾞｼｼﾝﾊﾞｼﾆﾎﾝﾃﾚﾋﾞﾀﾜｰ","pref":"東京都","city":"港区","address":"東新橋日本テレビタワー"},
{"zip_code":"1057427","kana_pref":"ﾄｳｷｮｳﾄ","kana_city":"ﾐﾅﾄｸ","kana_address":"ﾋｶﾞｼｼﾝﾊﾞｼﾆﾎﾝﾃﾚﾋﾞﾀﾜｰ","pref":"東京都","city":"港区","address":"東新橋日本テレビタワー"},
{"zip_code":"1057428","kana_pref":"ﾄｳｷｮｳﾄ","kana_city":"ﾐﾅﾄｸ","kana_address":"ﾋｶﾞｼｼﾝﾊﾞｼﾆﾎﾝﾃﾚﾋﾞﾀﾜｰ","pref":"東京都","city":"港区","address":"東新橋日本テレビタワー"},
{"zip_code":"1057429","kana_pref":"ﾄｳｷｮｳﾄ","kana_city":"ﾐﾅﾄｸ","kana_address":"ﾋｶﾞｼｼﾝﾊﾞｼﾆﾎﾝﾃﾚﾋﾞﾀﾜｰ","pref":"東京都","city":"港区","address":"東新橋日本テレビタワー"},
{"zip_code":"1057430","kana_pref":"ﾄｳｷｮｳﾄ","kana_city":"ﾐﾅﾄｸ","kana_address":"ﾋｶﾞｼｼﾝﾊﾞｼﾆﾎﾝﾃﾚﾋﾞﾀﾜｰ","pref":"東京都","city":"港区","address":"東新橋日本テレビタワー"},
{"zip_code":"1057431","kana_pref":"ﾄｳｷｮｳﾄ","kana_city":"ﾐﾅﾄｸ","kana_address":"ﾋｶﾞｼｼﾝﾊﾞｼﾆﾎﾝﾃﾚﾋﾞﾀﾜｰ","pref":"東京都","city":"港区","address":"東新橋日本テレビタワー"},
{"zip_code":"1057432","kana_pref":"ﾄｳｷｮｳﾄ","kana_city":"ﾐﾅﾄｸ","kana_address":"ﾋｶﾞｼｼﾝﾊﾞｼﾆﾎﾝﾃﾚﾋﾞﾀﾜｰ","pref":"東京都","city":"港区","address":"東新橋日本テレビタワー"}]}