{"zip_code":[
{"zip_code":"1060045","kana_pref":"ﾄｳｷｮｳﾄ","kana_city":"ﾐﾅﾄｸ","kana_address":"ｱｻﾞﾌﾞｼﾞｭｳﾊﾞﾝ","pref":"東京都","city":"港区","address":"麻布十番"},
{"zip_code":"1060041","kana_pref":"ﾄｳｷｮｳﾄ","kana_city":"ﾐﾅﾄｸ","kana_address":"ｱｻﾞﾌﾞﾀﾞｲ","pref":"東京都","city":"港区","address":"麻布台"},
{"zip_code":"1060043","kana_pref":"ﾄｳｷｮｳﾄ","kana_city":"ﾐﾅﾄｸ","kana_address":"ｱｻﾞﾌﾞﾅｶﾞｻｶﾁｮｳ","pref":"東京都","city":"港区","address":"麻布永坂町"},
{"zip_code":"1060042","kana_pref":"ﾄｳｷｮｳﾄ","kana_city":"ﾐﾅﾄｸ","kana_address":"ｱｻﾞﾌﾞﾏﾐｱﾅﾁｮｳ","pref":"東京都","city":"港区","address":"麻布狸穴町"},
{"zip_code":"1060031","kana_pref":"ﾄｳｷｮｳﾄ","kana_city":"ﾐﾅﾄｸ","kana_address":"ﾆｼｱｻﾞﾌﾞ","pref":"東京都","city":"港区","address":"西麻布"},
{"zip_code":"1060044","kana_pref":"ﾄｳｷｮｳﾄ","kana_city":"ﾐﾅﾄｸ","kana_address":"ﾋｶﾞｼｱｻﾞﾌﾞ","pref":"東京都","city":"港区","address":"東麻布"},
{"zip_code":"1060047","kana_pref":"ﾄｳｷｮｳﾄ","kana_city":"ﾐﾅﾄｸ","kana_address":"ﾐﾅﾐｱｻﾞﾌﾞ","pref":"東京都","city":"港区","address":"南麻布"},
{"zip_code":"1060046","kana_pref":"ﾄｳｷｮｳﾄ","kana_city":"ﾐﾅﾄｸ","kana_address":"ﾓﾄｱｻﾞﾌﾞ","pref":"東京都","city":"港区","address":"元麻布"},
{"zip_code":"1060032","kana_pref":"ﾄｳｷｮｳﾄ","kana_city":"ﾐﾅﾄｸ","kana_address":"ﾛｯﾎﾟﾝｷﾞ","pref":"東京都","city":"港区","address":"六本木"},
{"zip_code":"1066090","kana_pref":"ﾄｳｷｮｳﾄ","kana_city":"ﾐﾅﾄｸ","kana_address":"ﾛｯﾎﾟﾝｷﾞｲｽﾞﾐｶﾞｰﾃﾞﾝﾀﾜｰ","pref":"東京都","city":"港区","address":"六本木泉ガーデンタワー"},
{"zip_code":"1066001","kana_pref":"ﾄｳｷｮｳﾄ","kana_city":"ﾐﾅﾄｸ","kana_address":"ﾛｯﾎﾟﾝｷﾞｲｽﾞﾐｶﾞｰﾃﾞﾝﾀﾜｰ","pref":"東京都","city":"港区","address":"六本木泉ガーデンタワー"},
{"zip_code":"1066002","kana_pref":"ﾄｳｷｮｳﾄ","kana_city":"ﾐﾅﾄｸ","kana_address":"ﾛｯﾎﾟﾝｷﾞｲｽﾞﾐｶﾞｰﾃﾞﾝﾀﾜｰ","pref":"東京都","city":"港区","address":"六本木泉ガーデンタワー"},
{"zip_code":"1066003","kana_pref":"ﾄｳｷｮｳﾄ","kana_city":"ﾐﾅﾄｸ","kana_address":"ﾛｯﾎﾟﾝｷﾞｲｽﾞﾐｶﾞｰﾃﾞﾝﾀﾜｰ","pref":"東京都","city":"港区","address":"六本木泉ガーデンタワー"},
{"zip_code":"1066004","kana_pref":"ﾄｳｷｮｳﾄ","kana_city":"ﾐﾅﾄｸ","kana_address":"ﾛｯﾎﾟﾝｷﾞｲｽﾞﾐｶﾞｰﾃﾞﾝﾀﾜｰ","pref":"東京都","city":"港区","address":"六本木泉ガーデンタワー"},
{"zip_code":"1066005","kana_pref":"ﾄｳｷｮｳﾄ","kana_city":"ﾐﾅﾄｸ","kana_address":"ﾛｯﾎﾟﾝｷﾞｲｽﾞﾐｶﾞｰﾃﾞﾝﾀﾜｰ","pref":"東京都","city":"港区","address":"六本木泉ガーデンタワー"},
{"zip_code":"1066006","kana_pref":"ﾄｳｷｮｳﾄ","kana_city":"ﾐﾅﾄｸ","kana_address":"ﾛｯﾎﾟﾝｷﾞｲｽﾞﾐｶﾞｰﾃﾞﾝﾀﾜｰ","pref":"東京都","city":"港区","address":"六本木泉ガーデンタワー"},
{"zip_code":"1066007","kana_pref":"ﾄｳｷｮｳﾄ","kana_city":"ﾐﾅﾄｸ","kana_address":"ﾛｯﾎﾟﾝｷﾞｲｽﾞﾐｶﾞｰﾃﾞﾝﾀﾜｰ","pref":"東京都","city":"港区","address":"六本木泉ガーデンタワー"},
{"zip_code":"1066008","kana_pref":"ﾄｳｷｮｳﾄ","kana_city":"ﾐﾅﾄｸ","kana_address":"ﾛｯﾎﾟﾝｷﾞｲｽﾞﾐｶﾞｰﾃﾞﾝﾀﾜｰ","pref":"東京都","city":"港区","address":"六本木泉ガーデンタワー"},
{"zip_code":"1066009","kana_pref":"ﾄｳｷｮｳﾄ","kana_city":"ﾐﾅﾄｸ","kana_address":"ﾛｯﾎﾟﾝｷﾞｲｽﾞﾐｶﾞｰﾃﾞﾝﾀﾜｰ","pref":"東京都","city":"港区","address":"六本木泉ガーデンタワー"},
{"zip_code":"1066010","kana_pref":"ﾄｳｷｮｳﾄ","kana_city":"ﾐﾅﾄｸ","kana_address":"ﾛｯﾎﾟﾝｷﾞｲｽﾞﾐｶﾞｰﾃﾞﾝﾀﾜｰ","pref":"東京都","city":"港区","address":"六本木泉ガーデンタワー"},
{"zip_code":"1066011","kana_pref":"ﾄｳｷｮｳﾄ","kana_city":"ﾐﾅﾄｸ","kana_address":"ﾛｯﾎﾟﾝｷﾞｲｽﾞﾐｶﾞｰﾃﾞﾝﾀﾜｰ","pref":"東京都","city":"港区","address":"六本木泉ガーデンタワー"},
{"zip_code":"1066012","kana_pref":"ﾄｳｷｮｳﾄ","kana_city":"ﾐﾅﾄｸ","kana_address":"ﾛｯﾎﾟﾝｷﾞｲｽﾞﾐｶﾞｰﾃﾞﾝﾀﾜｰ","pref":"東京都","city":"港区","address":"六本木泉ガーデンタワー"},
{"zip_code":"1066013","kana_pref":"ﾄｳｷｮｳﾄ","kana_city":"ﾐﾅﾄｸ","kana_address":"ﾛｯﾎﾟﾝｷﾞｲｽﾞﾐｶﾞｰﾃﾞﾝﾀﾜｰ","pref":"東京都","city":"港区","address":"六本木泉ガーデンタワー"},
{"zip_code":"1066014","kana_pref":"ﾄｳｷｮｳﾄ","kana_city":"ﾐﾅﾄｸ","kana_address":"ﾛｯﾎﾟﾝｷﾞｲｽﾞﾐｶﾞｰﾃﾞﾝﾀﾜｰ","pref":"東京都","city":"港区","address":"六本木泉ガーデンタワー"},
{"zip_code":"1066015","kana_pref":"ﾄｳｷｮｳﾄ","kana_city":"ﾐﾅﾄｸ","kana_address":"ﾛｯﾎﾟﾝｷﾞｲｽﾞﾐｶﾞｰﾃﾞﾝﾀﾜｰ","pref":"東京都","city":"港区","address":"六本木泉ガーデンタワー"},
{"zip_code":"1066016","kana_pref":"ﾄｳｷｮｳﾄ","kana_city":"ﾐﾅﾄｸ","kana_address":"ﾛｯﾎﾟﾝｷﾞｲｽﾞﾐｶﾞｰﾃﾞﾝﾀﾜｰ","pref":"東京都","city":"港区","address":"六本木泉ガーデンタワー"},
{"zip_code":"1066017","kana_pref":"ﾄｳｷｮｳﾄ","kana_city":"ﾐﾅﾄｸ","kana_address":"ﾛｯﾎﾟﾝｷﾞｲｽﾞﾐｶﾞｰﾃﾞﾝﾀﾜｰ","pref":"東京都","city":"港区","address":"六本木泉ガーデンタワー"},
{"zip_code":"1066018","kana_pref":"ﾄｳｷｮｳﾄ","kana_city":"ﾐﾅﾄｸ","kana_address":"ﾛｯﾎﾟﾝｷﾞｲｽﾞﾐｶﾞｰﾃﾞﾝﾀﾜｰ","pref":"東京都","city":"港区","address":"六本木泉ガーデンタワー"},
{"zip_code":"1066019","kana_pref":"ﾄｳｷｮｳﾄ","kana_city":"ﾐﾅﾄｸ","kana_address":"ﾛｯﾎﾟﾝｷﾞｲｽﾞﾐｶﾞｰﾃﾞﾝﾀﾜｰ","pref":"東京都","city":"港区","address":"六本木泉ガーデンタワー"},
{"zip_code":"1066020","kana_pref":"ﾄｳｷｮｳﾄ","kana_city":"ﾐﾅﾄｸ","kana_address":"ﾛｯﾎﾟﾝｷﾞｲｽﾞﾐｶﾞｰﾃﾞﾝﾀﾜｰ","pref":"東京都","city":"港区","address":"六本木泉ガーデンタワー"},
{"zip_code":"1066021","kana_pref":"ﾄｳｷｮｳﾄ","kana_city":"ﾐﾅﾄｸ","kana_address":"ﾛｯﾎﾟﾝｷﾞｲｽﾞﾐｶﾞｰﾃﾞﾝﾀﾜｰ","pref":"東京都","city":"港区","address":"六本木泉ガーデンタワー"},
{"zip_code":"1066022","kana_pref":"ﾄｳｷｮｳﾄ","kana_city":"ﾐﾅﾄｸ","kana_address":"ﾛｯﾎﾟﾝｷﾞｲｽﾞﾐｶﾞｰﾃﾞﾝﾀﾜｰ","pref":"東京都","city":"港区","address":"六本木泉ガーデンタワー"},
{"zip_code":"1066023","kana_pref":"ﾄｳｷｮｳﾄ","kana_city":"ﾐﾅﾄｸ","kana_address":"ﾛｯﾎﾟﾝｷﾞｲｽﾞﾐｶﾞｰﾃﾞﾝﾀﾜｰ","pref":"東京都","city":"港区","address":"六本木泉ガーデンタワー"},
{"zip_code":"1066024","kana_pref":"ﾄｳｷｮｳﾄ","kana_city":"ﾐﾅﾄｸ","kana_address":"ﾛｯﾎﾟﾝｷﾞｲｽﾞﾐｶﾞｰﾃﾞﾝﾀﾜｰ","pref":"東京都","city":"港区","address":"六本木泉ガーデンタワー"},
{"zip_code":"1066025","kana_pref":"ﾄｳｷｮｳﾄ","kana_city":"ﾐﾅﾄｸ","kana_address":"ﾛｯﾎﾟﾝｷﾞｲｽﾞﾐｶﾞｰﾃﾞﾝﾀﾜｰ","pref":"東京都","city":"港区","address":"六本木泉ガーデンタワー"},
{"zip_code":"1066026","kana_pref":"ﾄｳｷｮｳﾄ","kana_city":"ﾐﾅﾄｸ","kana_address":"ﾛｯﾎﾟﾝｷﾞｲｽﾞﾐｶﾞｰﾃﾞﾝﾀﾜｰ","pref":"東京都","city":"港区","address":"六本木泉ガーデンタワー"},
{"zip_code":"1066027","kana_pref":"ﾄｳｷｮｳﾄ","kana_city":"ﾐﾅﾄｸ","kana_address":"ﾛｯﾎﾟﾝｷﾞｲｽﾞﾐｶﾞｰﾃﾞﾝﾀﾜｰ","pref":"東京都","city":"港区","address":"六本木泉ガーデンタワー"},
{"zip_code":"1066028","kana_pref":"ﾄｳｷｮｳﾄ","kana_city":"ﾐﾅﾄｸ","kana_address":"ﾛｯﾎﾟﾝｷﾞｲｽﾞﾐｶﾞｰﾃﾞﾝﾀﾜｰ","pref":"東京都","city":"港区","address":"六本木泉ガーデンタワー"},
{"zip_code":"1066029","kana_pref":"ﾄｳｷｮｳﾄ","kana_city":"ﾐﾅﾄｸ","kana_address":"ﾛｯﾎﾟﾝｷﾞｲｽﾞﾐｶﾞｰﾃﾞﾝﾀﾜｰ","pref":"東京都","city":"港区","address":"六本木泉ガーデンタワー"},
{"zip_code":"1066030","kana_pref":"ﾄｳｷｮｳﾄ","kana_city":"ﾐﾅﾄｸ","kana_address":"ﾛｯﾎﾟﾝｷﾞｲｽﾞﾐｶﾞｰﾃﾞﾝﾀﾜｰ","pref":"東京都","city":"港区","address":"六本木泉ガーデンタワー"},
{"zip_code":"1066031","kana_pref":"ﾄｳｷｮｳﾄ","kana_city":"ﾐﾅﾄｸ","kana_address":"ﾛｯﾎﾟﾝｷﾞｲｽﾞﾐｶﾞｰﾃﾞﾝﾀﾜｰ","pref":"東京都","city":"港区","address":"六本木泉ガーデンタワー"},
{"zip_code":"1066032","kana_pref":"ﾄｳｷｮｳﾄ","kana_city":"ﾐﾅﾄｸ","kana_address":"ﾛｯﾎﾟﾝｷﾞｲｽﾞﾐｶﾞｰﾃﾞﾝﾀﾜｰ","pref":"東京都","city":"港区","address":"六本木泉ガーデンタワー"},
{"zip_code":"1066033","kana_pref":"ﾄｳｷｮｳﾄ","kana_city":"ﾐﾅﾄｸ","kana_address":"ﾛｯﾎﾟﾝｷﾞｲｽﾞﾐｶﾞｰﾃﾞﾝﾀﾜｰ","pref":"東京都","city":"港区","address":"六本木泉ガーデンタワー"},
{"zip_code":"1066034","kana_pref":"ﾄｳｷｮｳﾄ","kana_city":"ﾐﾅﾄｸ","kana_address":"ﾛｯﾎﾟﾝｷﾞｲｽﾞﾐｶﾞｰﾃﾞﾝﾀﾜｰ","pref":"東京都","city":"港区","address":"六本木泉ガーデンタワー"},
{"zip_code":"1066035","kana_pref":"ﾄｳｷｮｳﾄ","kana_city":"ﾐﾅﾄｸ","kana_address":"ﾛｯﾎﾟﾝｷﾞｲｽﾞﾐｶﾞｰﾃﾞﾝﾀﾜｰ","pref":"東京都","city":"港区","address":"六本木泉ガーデンタワー"},
{"zip_code":"1066036","kana_pref":"ﾄｳｷｮｳﾄ","kana_city":"ﾐﾅﾄｸ","kana_address":"ﾛｯﾎﾟﾝｷﾞｲｽﾞﾐｶﾞｰﾃﾞﾝﾀﾜｰ","pref":"東京都","city":"港区","address":"六本木泉ガーデンタワー"},
{"zip_code":"1066037","kana_pref":"ﾄｳｷｮｳﾄ","kana_city":"ﾐﾅﾄｸ","kana_address":"ﾛｯﾎﾟﾝｷﾞｲｽﾞﾐｶﾞｰﾃﾞﾝﾀﾜｰ","pref":"東京都","city":"港区","address":"六本木泉ガーデンタワー"},
{"zip_code":"1066038","kana_pref":"ﾄｳｷｮｳﾄ","kana_city":"ﾐﾅﾄｸ","kana_address":"ﾛｯﾎﾟﾝｷﾞｲｽﾞﾐｶﾞｰﾃﾞﾝﾀﾜｰ","pref":"東京都","city":"港区","address":"六本木泉ガーデンタワー"},
{"zip_code":"1066039","kana_pref":"ﾄｳｷｮｳﾄ","kana_city":"ﾐﾅﾄｸ","kana_address":"ﾛｯﾎﾟﾝｷﾞｲｽﾞﾐｶﾞｰﾃﾞﾝﾀﾜｰ","pref":"東京都","city":"港区","address":"六本木泉ガーデンタワー"},
{"zip_code":"1066040","kana_pref":"ﾄｳｷｮｳﾄ","kana_city":"ﾐﾅﾄｸ","kana_address":"ﾛｯﾎﾟﾝｷﾞｲｽﾞﾐｶﾞｰﾃﾞﾝﾀﾜｰ","pref":"東京都","city":"港区","address":"六本木泉ガーデンタワー"},
{"zip_code":"1066041","kana_pref":"ﾄｳｷｮｳﾄ","kana_city":"ﾐﾅﾄｸ","kana_address":"ﾛｯﾎﾟﾝｷﾞｲｽﾞﾐｶﾞｰﾃﾞﾝﾀﾜｰ","pref":"東京都","city":"港区","address":"六本木泉ガーデンタワー"},
{"zip_code":"1066042","kana_pref":"ﾄｳｷｮｳﾄ","kana_city":"ﾐﾅﾄｸ","kana_address":"ﾛｯﾎﾟﾝｷﾞｲｽﾞﾐｶﾞｰﾃﾞﾝﾀﾜｰ","pref":"東京都","city":"港区","address":"六本木泉ガーデンタワー"},
{"zip_code":"1066043","kana_pref":"ﾄｳｷｮｳﾄ","kana_city":"ﾐﾅﾄｸ","kana_address":"ﾛｯﾎﾟﾝｷﾞｲｽﾞﾐｶﾞｰﾃﾞﾝﾀﾜｰ","pref":"東京都","city":"港区","address":"六本木泉ガーデンタワー"},
{"zip_code":"1066044","kana_pref":"ﾄｳｷｮｳﾄ","kana_city":"ﾐﾅﾄｸ","kana_address":"ﾛｯﾎﾟﾝｷﾞｲｽﾞﾐｶﾞｰﾃﾞﾝﾀﾜｰ","pref":"東京都","city":"港区","address":"六本木泉ガーデンタワー"},
{"zip_code":"1066045","kana_pref":"ﾄｳｷｮｳﾄ","kana_city":"ﾐﾅﾄｸ","kana_address":"ﾛｯﾎﾟﾝｷﾞｲｽﾞﾐｶﾞｰﾃﾞﾝﾀﾜｰ","pref":"東京都","city":"港区","address":"六本木泉ガーデンタワー"},
{"zip_code":"1066190","kana_pref":"ﾄｳｷｮｳﾄ","kana_city":"ﾐﾅﾄｸ","kana_address":"ﾛｯﾎﾟﾝｷﾞﾛｯﾎﾟﾝｷﾞﾋﾙｽﾞﾓﾘﾀﾜｰ","pref":"東京都","city":"港区","address":"六本木六本木ヒルズ森タワー"},
{"zip_code":"1066101","kana_pref":"ﾄｳｷｮｳﾄ","kana_city":"ﾐﾅﾄｸ","kana_address":"ﾛｯﾎﾟﾝｷﾞﾛｯﾎﾟﾝｷﾞﾋﾙｽﾞﾓﾘﾀﾜｰ","pref":"東京都","city":"港区","address":"六本木六本木ヒルズ森タワー"},
{"zip_code":"1066102","kana_pref":"ﾄｳｷｮｳﾄ","kana_city":"ﾐﾅﾄｸ","kana_address":"ﾛｯﾎﾟﾝｷﾞﾛｯﾎﾟﾝｷﾞﾋﾙｽﾞﾓﾘﾀﾜｰ","pref":"東京都","city":"港区","address":"六本木六本木ヒルズ森タワー"},
{"zip_code":"1066103","kana_pref":"ﾄｳｷｮｳﾄ","kana_city":"ﾐﾅﾄｸ","kana_address":"ﾛｯﾎﾟﾝｷﾞﾛｯﾎﾟﾝｷﾞﾋﾙｽﾞﾓﾘﾀﾜｰ","pref":"東京都","city":"港区","address":"六本木六本木ヒルズ森タワー"},
{"zip_code":"1066104","kana_pref":"ﾄｳｷｮｳﾄ","kana_city":"ﾐﾅﾄｸ","kana_address":"ﾛｯﾎﾟﾝｷﾞﾛｯﾎﾟﾝｷﾞﾋﾙｽﾞﾓﾘﾀﾜｰ","pref":"東京都","city":"港区","address":"六本木六本木ヒルズ森タワー"},
{"zip_code":"1066105","kana_pref":"ﾄｳｷｮｳﾄ","kana_city":"ﾐﾅﾄｸ","kana_address":"ﾛｯﾎﾟﾝｷﾞﾛｯﾎﾟﾝｷﾞﾋﾙｽﾞﾓﾘﾀﾜｰ","pref":"東京都","city":"港区","address":"六本木六本木ヒルズ森タワー"},
{"zip_code":"1066106","kana_pref":"ﾄｳｷｮｳﾄ","kana_city":"ﾐﾅﾄｸ","kana_address":"ﾛｯﾎﾟﾝｷﾞﾛｯﾎﾟﾝｷﾞﾋﾙｽﾞﾓﾘﾀﾜｰ","pref":"東京都","city":"港区","address":"六本木六本木ヒルズ森タワー"},
{"zip_code":"1066107","kana_pref":"ﾄｳｷｮｳﾄ","kana_city":"ﾐﾅﾄｸ","kana_address":"ﾛｯﾎﾟﾝｷﾞﾛｯﾎﾟﾝｷﾞﾋﾙｽﾞﾓﾘﾀﾜｰ","pref":"東京都","city":"港区","address":"六本木六本木ヒルズ森タワー"},
{"zip_code":"1066108","kana_pref":"ﾄｳｷｮｳﾄ","kana_city":"ﾐﾅﾄｸ","kana_address":"ﾛｯﾎﾟﾝｷﾞﾛｯﾎﾟﾝｷﾞﾋﾙｽﾞﾓﾘﾀﾜｰ","pref":"東京都","city":"港区","address":"六本木六本木ヒルズ森タワー"},
{"zip_code":"1066109","kana_pref":"ﾄｳｷｮｳﾄ","kana_city":"ﾐﾅﾄｸ","kana_address":"ﾛｯﾎﾟﾝｷﾞﾛｯﾎﾟﾝｷﾞﾋﾙｽﾞﾓﾘﾀﾜｰ","pref":"東京都","city":"港区","address":"六本木六本木ヒルズ森タワー"},
{"zip_code":"1066110","kana_pref":"ﾄｳｷｮｳﾄ","kana_city":"ﾐﾅﾄｸ","kana_address":"ﾛｯﾎﾟﾝｷﾞﾛｯﾎﾟﾝｷﾞﾋﾙｽﾞﾓﾘﾀﾜｰ","pref":"東京都","city":"港区","address":"六本木六本木ヒルズ森タワー"},
{"zip_code":"1066111","kana_pref":"ﾄｳｷｮｳﾄ","kana_city":"ﾐﾅﾄｸ","kana_address":"ﾛｯﾎﾟﾝｷﾞﾛｯﾎﾟﾝｷﾞﾋﾙｽﾞﾓﾘﾀﾜｰ","pref":"東京都","city":"港区","address":"六本木六本木ヒルズ森タワー"},
{"zip_code":"1066112","kana_pref":"ﾄｳｷｮｳﾄ","kana_city":"ﾐﾅﾄｸ","kana_address":"ﾛｯﾎﾟﾝｷﾞﾛｯﾎﾟﾝｷﾞﾋﾙｽﾞﾓﾘﾀﾜｰ","pref":"東京都","city":"港区","address":"六本木六本木ヒルズ森タワー"},
{"zip_code":"1066113","kana_pref":"ﾄｳｷｮｳﾄ","kana_city":"ﾐﾅﾄｸ","kana_address":"ﾛｯﾎﾟﾝｷﾞﾛｯﾎﾟﾝｷﾞﾋﾙｽﾞﾓﾘﾀﾜｰ","pref":"東京都","city":"港区","address":"六本木六本木ヒルズ森タワー"},
{"zip_code":"1066114","kana_pref":"ﾄｳｷｮｳﾄ","kana_city":"ﾐﾅﾄｸ","kana_address":"ﾛｯﾎﾟﾝｷﾞﾛｯﾎﾟﾝｷﾞﾋﾙｽﾞﾓﾘﾀﾜｰ","pref":"東京都","city":"港区","address":"六本木六本木ヒルズ森タワー"},
{"zip_code":"1066115","kana_pref":"ﾄｳｷｮｳﾄ","kana_city":"ﾐﾅﾄｸ","kana_address":"ﾛｯﾎﾟﾝｷﾞﾛｯﾎﾟﾝｷﾞﾋﾙｽﾞﾓﾘﾀﾜｰ","pref":"東京都","city":"港区","address":"六本木六本木ヒルズ森タワー"},
{"zip_code":"1066116","kana_pref":"ﾄｳｷｮｳﾄ","kana_city":"ﾐﾅﾄｸ","kana_address":"ﾛｯﾎﾟﾝｷﾞﾛｯﾎﾟﾝｷﾞﾋﾙｽﾞﾓﾘﾀﾜｰ","pref":"東京都","city":"港区","address":"六本木六本木ヒルズ森タワー"},
{"zip_code":"1066117","kana_pref":"ﾄｳｷｮｳﾄ","kana_city":"ﾐﾅﾄｸ","kana_address":"ﾛｯﾎﾟﾝｷﾞﾛｯﾎﾟﾝｷﾞﾋﾙｽﾞﾓﾘﾀﾜｰ","pref":"東京都","city":"港区","address":"六本木六本木ヒルズ森タワー"},
{"zip_code":"1066118","kana_pref":"ﾄｳｷｮｳﾄ","kana_city":"ﾐﾅﾄｸ","kana_address":"ﾛｯﾎﾟﾝｷﾞﾛｯﾎﾟﾝｷﾞﾋﾙｽﾞﾓﾘﾀﾜｰ","pref":"東京都","city":"港区","address":"六本木六本木ヒルズ森タワー"},
{"zip_code":"1066119","kana_pref":"ﾄｳｷｮｳﾄ","kana_city":"ﾐﾅﾄｸ","kana_address":"ﾛｯﾎﾟﾝｷﾞﾛｯﾎﾟﾝｷﾞﾋﾙｽﾞﾓﾘﾀﾜｰ","pref":"東京都","city":"港区","address":"六本木六本木ヒルズ森タワー"},
{"zip_code":"1066120","kana_pref":"ﾄｳｷｮｳﾄ","kana_city":"ﾐﾅﾄｸ","kana_address":"ﾛｯﾎﾟﾝｷﾞﾛｯﾎﾟﾝｷﾞﾋﾙｽﾞﾓﾘﾀﾜｰ","pref":"東京都","city":"港区","address":"六本木六本木ヒルズ森タワー"},
{"zip_code":"1066121","kana_pref":"ﾄｳｷｮｳﾄ","kana_city":"ﾐﾅﾄｸ","kana_address":"ﾛｯﾎﾟﾝｷﾞﾛｯﾎﾟﾝｷﾞﾋﾙｽﾞﾓﾘﾀﾜｰ","pref":"東京都","city":"港区","address":"六本木六本木ヒルズ森タワー"},
{"zip_code":"1066122","kana_pref":"ﾄｳｷｮｳﾄ","kana_city":"ﾐﾅﾄｸ","kana_address":"ﾛｯﾎﾟﾝｷﾞﾛｯﾎﾟﾝｷﾞﾋﾙｽﾞﾓﾘﾀﾜｰ","pref":"東京都","city":"港区","address":"六本木六本木ヒルズ森タワー"},
{"zip_code":"1066123","kana_pref":"ﾄｳｷｮｳﾄ","kana_city":"ﾐﾅﾄｸ","kana_address":"ﾛｯﾎﾟﾝｷﾞﾛｯﾎﾟﾝｷﾞﾋﾙｽﾞﾓﾘﾀﾜｰ","pref":"東京都","city":"港区","address":"六本木六本木ヒルズ森タワー"},
{"zip_code":"1066124","kana_pref":"ﾄｳｷｮｳﾄ","kana_city":"ﾐﾅﾄｸ","kana_address":"ﾛｯﾎﾟﾝｷﾞﾛｯﾎﾟﾝｷﾞﾋﾙｽﾞﾓﾘﾀﾜｰ","pref":"東京都","city":"港区","address":"六本木六本木ヒルズ森タワー"},
{"zip_code":"1066125","kana_pref":"ﾄｳｷｮｳﾄ","kana_city":"ﾐﾅﾄｸ","kana_address":"ﾛｯﾎﾟﾝｷﾞﾛｯﾎﾟﾝｷﾞﾋﾙｽﾞﾓﾘﾀﾜｰ","pref":"東京都","city":"港区","address":"六本木六本木ヒルズ森タワー"},
{"zip_code":"1066126","kana_pref":"ﾄｳｷｮｳﾄ","kana_city":"ﾐﾅﾄｸ","kana_address":"ﾛｯﾎﾟﾝｷﾞﾛｯﾎﾟﾝｷﾞﾋﾙｽﾞﾓﾘﾀﾜｰ","pref":"東京都","city":"港区","address":"六本木六本木ヒルズ森タワー"},
{"zip_code":"1066127","kana_pref":"ﾄｳｷｮｳﾄ","kana_city":"ﾐﾅﾄｸ","kana_address":"ﾛｯﾎﾟﾝｷﾞﾛｯﾎﾟﾝｷﾞﾋﾙｽﾞﾓﾘﾀﾜｰ","pref":"東京都","city":"港区","address":"六本木六本木ヒルズ森タワー"},
{"zip_code":"1066128","kana_pref":"ﾄｳｷｮｳﾄ","kana_city":"ﾐﾅﾄｸ","kana_address":"ﾛｯﾎﾟﾝｷﾞﾛｯﾎﾟﾝｷﾞﾋﾙｽﾞﾓﾘﾀﾜｰ","pref":"東京都","city":"港区","address":"六本木六本木ヒルズ森タワー"},
{"zip_code":"1066129","kana_pref":"ﾄｳｷｮｳﾄ","kana_city":"ﾐﾅﾄｸ","kana_address":"ﾛｯﾎﾟﾝｷﾞﾛｯﾎﾟﾝｷﾞﾋﾙｽﾞﾓﾘﾀﾜｰ","pref":"東京都","city":"港区","address":"六本木六本木ヒルズ森タワー"},
{"zip_code":"1066130","kana_pref":"ﾄｳｷｮｳﾄ","kana_city":"ﾐﾅﾄｸ","kana_address":"ﾛｯﾎﾟﾝｷﾞﾛｯﾎﾟﾝｷﾞﾋﾙｽﾞﾓﾘﾀﾜｰ","pref":"東京都","city":"港区","address":"六本木六本木ヒルズ森タワー"},
{"zip_code":"1066131","kana_pref":"ﾄｳｷｮｳﾄ","kana_city":"ﾐﾅﾄｸ","kana_address":"ﾛｯﾎﾟﾝｷﾞﾛｯﾎﾟﾝｷﾞﾋﾙｽﾞﾓﾘﾀﾜｰ","pref":"東京都","city":"港区","address":"六本木六本木ヒルズ森タワー"},
{"zip_code":"1066132","kana_pref":"ﾄｳｷｮｳﾄ","kana_city":"ﾐﾅﾄｸ","kana_address":"ﾛｯﾎﾟﾝｷﾞﾛｯﾎﾟﾝｷﾞﾋﾙｽﾞﾓﾘﾀﾜｰ","pref":"東京都","city":"港区","address":"六本木六本木ヒルズ森タワー"},
{"zip_code":"1066133","kana_pref":"ﾄｳｷｮｳﾄ","kana_city":"ﾐﾅﾄｸ","kana_address":"ﾛｯﾎﾟﾝｷﾞﾛｯﾎﾟﾝｷﾞﾋﾙｽﾞﾓﾘﾀﾜｰ","pref":"東京都","city":"港区","address":"六本木六本木ヒルズ森タワー"},
{"zip_code":"1066134","kana_pref":"ﾄｳｷｮｳﾄ","kana_city":"ﾐﾅﾄｸ","kana_address":"ﾛｯﾎﾟﾝｷﾞﾛｯﾎﾟﾝｷﾞﾋﾙｽﾞﾓﾘﾀﾜｰ","pref":"東京都","city":"港区","address":"六本木六本木ヒルズ森タワー"},
{"zip_code":"1066135","kana_pref":"ﾄｳｷｮｳﾄ","kana_city":"ﾐﾅﾄｸ","kana_address":"ﾛｯﾎﾟﾝｷﾞﾛｯﾎﾟﾝｷﾞﾋﾙｽﾞﾓﾘﾀﾜｰ","pref":"東京都","city":"港区","address":"六本木六本木ヒルズ森タワー"},
{"zip_code":"1066136","kana_pref":"ﾄｳｷｮｳﾄ","kana_city":"ﾐﾅﾄｸ","kana_address":"ﾛｯﾎﾟﾝｷﾞﾛｯﾎﾟﾝｷﾞﾋﾙｽﾞﾓﾘﾀﾜｰ","pref":"東京都","city":"港区","address":"六本木六本木ヒルズ森タワー"},
{"zip_code":"1066137","kana_pref":"ﾄｳｷｮｳﾄ","kana_city":"ﾐﾅﾄｸ","kana_address":"ﾛｯﾎﾟﾝｷﾞﾛｯﾎﾟﾝｷﾞﾋﾙｽﾞﾓﾘﾀﾜｰ","pref":"東京都","city":"港区","address":"六本木六本木ヒルズ森タワー"},
{"zip_code":"1066138","kana_pref":"ﾄｳｷｮｳﾄ","kana_city":"ﾐﾅﾄｸ","kana_address":"ﾛｯﾎﾟﾝｷﾞﾛｯﾎﾟﾝｷﾞﾋﾙｽﾞﾓﾘﾀﾜｰ","pref":"東京都","city":"港区","address":"六本木六本木ヒルズ森タワー"},
{"zip_code":"1066139","kana_pref":"ﾄｳｷｮｳﾄ","kana_city":"ﾐﾅﾄｸ","kana_address":"ﾛｯﾎﾟﾝｷﾞﾛｯﾎﾟﾝｷﾞﾋﾙｽﾞﾓﾘﾀﾜｰ","pref":"東京都","city":"港区","address":"六本木六本木ヒルズ森タワー"},
{"zip_code":"1066140","kana_pref":"ﾄｳｷｮｳﾄ","kana_city":"ﾐﾅﾄｸ","kana_address":"ﾛｯﾎﾟﾝｷﾞﾛｯﾎﾟﾝｷﾞﾋﾙｽﾞﾓﾘﾀﾜｰ","pref":"東京都","city":"港区","address":"六本木六本木ヒルズ森タワー"},
{"zip_code":"1066141","kana_pref":"ﾄｳｷｮｳﾄ","kana_city":"ﾐﾅﾄｸ","kana_address":"ﾛｯﾎﾟﾝｷﾞﾛｯﾎﾟﾝｷﾞﾋﾙｽﾞﾓﾘﾀﾜｰ","pref":"東京都","city":"港区","address":"六本木六本木ヒルズ森タワー"},
{"zip_code":"1066142","kana_pref":"ﾄｳｷｮｳﾄ","kana_city":"ﾐﾅﾄｸ","kana_address":"ﾛｯﾎﾟﾝｷﾞﾛｯﾎﾟﾝｷﾞﾋﾙｽﾞﾓﾘﾀﾜｰ","pref":"東京都","city":"港区","address":"六本木六本木ヒルズ森タワー"},
{"zip_code":"1066143","kana_pref":"ﾄｳｷｮｳﾄ","kana_city":"ﾐﾅﾄｸ","kana_address":"ﾛｯﾎﾟﾝｷﾞﾛｯﾎﾟﾝｷﾞﾋﾙｽﾞﾓﾘﾀﾜｰ","pref":"東京都","city":"港区","address":"六本木六本木ヒルズ森タワー"},
{"zip_code":"1066144","kana_pref":"ﾄｳｷｮｳﾄ","kana_city":"ﾐﾅﾄｸ","kana_address":"ﾛｯﾎﾟﾝｷﾞﾛｯﾎﾟﾝｷﾞﾋﾙｽﾞﾓﾘﾀﾜｰ","pref":"東京都","city":"港区","address":"六本木六本木ヒルズ森タワー"},
{"zip_code":"1066145","kana_pref":"ﾄｳｷｮｳﾄ","kana_city":"ﾐﾅﾄｸ","kana_address":"ﾛｯﾎﾟﾝｷﾞﾛｯﾎﾟﾝｷﾞﾋﾙｽﾞﾓﾘﾀﾜｰ","pref":"東京都","city":"港区","address":"六本木六本木ヒルズ森タワー"},
{"zip_code":"1066146","kana_pref":"ﾄｳｷｮｳﾄ","kana_city":"ﾐﾅﾄｸ","kana_address":"ﾛｯﾎﾟﾝｷﾞﾛｯﾎﾟﾝｷﾞﾋﾙｽﾞﾓﾘﾀﾜｰ","pref":"東京都","city":"港区","address":"六本木六本木ヒルズ森タワー"},
{"zip_code":"1066147","kana_pref":"ﾄｳｷｮｳﾄ","kana_city":"ﾐﾅﾄｸ","kana_address":"ﾛｯﾎﾟﾝｷﾞﾛｯﾎﾟﾝｷﾞﾋﾙｽﾞﾓﾘﾀﾜｰ","pref":"東京都","city":"港区","address":"六本木六本木ヒルズ森タワー"},
{"zip_code":"1066148","kana_pref":"ﾄｳｷｮｳﾄ","kana_city":"ﾐﾅﾄｸ","kana_address":"ﾛｯﾎﾟﾝｷﾞﾛｯﾎﾟﾝｷﾞﾋﾙｽﾞﾓﾘﾀﾜｰ","pref":"東京都","city":"港区","address":"六本木六本木ヒルズ森タワー"},
{"zip_code":"1066149","kana_pref":"ﾄｳｷｮｳﾄ","kana_city":"ﾐﾅﾄｸ","kana_address":"ﾛｯﾎﾟﾝｷﾞﾛｯﾎﾟﾝｷﾞﾋﾙｽﾞﾓﾘﾀﾜｰ","pref":"東京都","city":"港区","address":"六本木六本木ヒルズ森タワー"},
{"zip_code":"1066150","kana_pref":"ﾄｳｷｮｳﾄ","kana_city":"ﾐﾅﾄｸ","kana_address":"ﾛｯﾎﾟﾝｷﾞﾛｯﾎﾟﾝｷﾞﾋﾙｽﾞﾓﾘﾀﾜｰ","pref":"東京都","city":"港区","address":"六本木六本木ヒルズ森タワー"},
{"zip_code":"1066151","kana_pref":"ﾄｳｷｮｳﾄ","kana_city":"ﾐﾅﾄｸ","kana_address":"ﾛｯﾎﾟﾝｷﾞﾛｯﾎﾟﾝｷﾞﾋﾙｽﾞﾓﾘﾀﾜｰ","pref":"東京都","city":"港区","address":"六本木六本木ヒルズ森タワー"},
{"zip_code":"1066152","kana_pref":"ﾄｳｷｮｳﾄ","kana_city":"ﾐﾅﾄｸ","kana_address":"ﾛｯﾎﾟﾝｷﾞﾛｯﾎﾟﾝｷﾞﾋﾙｽﾞﾓﾘﾀﾜｰ","pref":"東京都","city":"港区","address":"六本木六本木ヒルズ森タワー"},
{"zip_code":"1066153","kana_pref":"ﾄｳｷｮｳﾄ","kana_city":"ﾐﾅﾄｸ","kana_address":"ﾛｯﾎﾟﾝｷﾞﾛｯﾎﾟﾝｷﾞﾋﾙｽﾞﾓﾘﾀﾜｰ","pref":"東京都","city":"港区","address":"六本木六本木ヒルズ森タワー"},
{"zip_code":"1066154","kana_pref":"ﾄｳｷｮｳﾄ","kana_city":"ﾐﾅﾄｸ","kana_address":"ﾛｯﾎﾟﾝｷﾞﾛｯﾎﾟﾝｷﾞﾋﾙｽﾞﾓﾘﾀﾜｰ","pref":"東京都","city":"港区","address":"六本木六本木ヒルズ森タワー"}]}