{"zip_code":[
{"zip_code":"1070052","kana_pref":"ﾄｳｷｮｳﾄ","kana_city":"ﾐﾅﾄｸ","kana_address":"ｱｶｻｶ","pref":"東京都","city":"港区","address":"赤坂"},
{"zip_code":"1076090","kana_pref":"ﾄｳｷｮｳﾄ","kana_city":"ﾐﾅﾄｸ","kana_address":"ｱｶｻｶｱｶｻｶｱｰｸﾋﾙｽﾞ･ｱｰｸﾓﾘﾋﾞﾙ","pref":"東京都","city":"港区","address":"赤坂赤坂アークヒルズ・アーク森ビル"},
{"zip_code":"1076001","kana_pref":"ﾄｳｷｮｳﾄ","kana_city":"ﾐﾅﾄｸ","kana_address":"ｱｶｻｶｱｶｻｶｱｰｸﾋﾙｽﾞ･ｱｰｸﾓﾘﾋﾞﾙ","pref":"東京都","city":"港区","address":"赤坂赤坂アークヒルズ・アーク森ビル"},
{"zip_code":"1076002","kana_pref":"ﾄｳｷｮｳﾄ","kana_city":"ﾐﾅﾄｸ","kana_address":"ｱｶｻｶｱｶｻｶｱｰｸﾋﾙｽﾞ･ｱｰｸﾓﾘﾋﾞﾙ","pref":"東京都","city":"港区","address":"赤坂赤坂アークヒルズ・アーク森ビル"},
{"zip_code":"1076003","kana_pref":"ﾄｳｷｮｳﾄ","kana_city":"ﾐﾅﾄｸ","kana_address":"ｱｶｻｶｱｶｻｶｱｰｸﾋﾙｽﾞ･ｱｰｸﾓﾘﾋﾞﾙ","pref":"東京都","city":"港区","address":"赤坂赤坂アークヒルズ・アーク森ビル"},
{"zip_code":"1076004","kana_pref":"ﾄｳｷｮｳﾄ","kana_city":"ﾐﾅﾄｸ","kana_address":"ｱｶｻｶｱｶｻｶｱｰｸﾋﾙｽﾞ･ｱｰｸﾓﾘﾋﾞﾙ","pref":"東京都","city":"港区","address":"赤坂赤坂アークヒルズ・アーク森ビル"},
{"zip_code":"1076005","kana_pref":"ﾄｳｷｮｳﾄ","kana_city":"ﾐﾅﾄｸ","kana_address":"ｱｶｻｶｱｶｻｶｱｰｸﾋﾙｽﾞ･ｱｰｸﾓﾘﾋﾞﾙ","pref":"東京都","city":"港区","address":"赤坂赤坂アークヒルズ・アーク森ビル"},
{"zip_code":"1076006","kana_pref":"ﾄｳｷｮｳﾄ","kana_city":"ﾐﾅﾄｸ","kana_address":"ｱｶｻｶｱｶｻｶｱｰｸﾋﾙｽﾞ･ｱｰｸﾓﾘﾋﾞﾙ","pref":"東京都","city":"港区","address":"赤坂赤坂アークヒルズ・アーク森ビル"},
{"zip_code":"1076007","kana_pref":"ﾄｳｷｮｳﾄ","kana_city":"ﾐﾅﾄｸ","kana_address":"ｱｶｻｶｱｶｻｶｱｰｸﾋﾙｽﾞ･ｱｰｸﾓﾘﾋﾞﾙ","pref":"東京都","city":"港区","address":"赤坂赤坂アークヒルズ・アーク森ビル"},
{"zip_code":"1076008","kana_pref":"ﾄｳｷｮｳﾄ","kana_city":"ﾐﾅﾄｸ","kana_address":"ｱｶｻｶｱｶｻｶｱｰｸﾋﾙｽﾞ･ｱｰｸﾓﾘﾋﾞﾙ","pref":"東京都","city":"港区","address":"赤坂赤坂アークヒルズ・アーク森ビル"},
{"zip_code":"1076009","kana_pref":"ﾄｳｷｮｳﾄ","kana_city":"ﾐﾅﾄｸ","kana_address":"ｱｶｻｶｱｶｻｶｱｰｸﾋﾙｽﾞ･ｱｰｸﾓﾘﾋﾞﾙ","pref":"東京都","city":"港区","address":"赤坂赤坂アークヒルズ・アーク森ビル"},
{"zip_code":"1076010","kana_pref":"ﾄｳｷｮｳﾄ","kana_city":"ﾐﾅﾄｸ","kana_address":"ｱｶｻｶｱｶｻｶｱｰｸﾋﾙｽﾞ･ｱｰｸﾓﾘﾋﾞﾙ","pref":"東京都","city":"港区","address":"赤坂赤坂アークヒルズ・アーク森ビル"},
{"zip_code":"1076011","kana_pref":"ﾄｳｷｮｳﾄ","kana_city":"ﾐﾅﾄｸ","kana_address":"ｱｶｻｶｱｶｻｶｱｰｸﾋﾙｽﾞ･ｱｰｸﾓﾘﾋﾞﾙ","pref":"東京都","city":"港区","address":"赤坂赤坂アークヒルズ・アーク森ビル"},
{"zip_code":"1076012","kana_pref":"ﾄｳｷｮｳﾄ","kana_city":"ﾐﾅﾄｸ","kana_address":"ｱｶｻｶｱｶｻｶｱｰｸﾋﾙｽﾞ･ｱｰｸﾓﾘﾋﾞﾙ","pref":"東京都","city":"港区","address":"赤坂赤坂アークヒルズ・アーク森ビル"},
{"zip_code":"1076013","kana_pref":"ﾄｳｷｮｳﾄ","kana_city":"ﾐﾅﾄｸ","kana_address":"ｱｶｻｶｱｶｻｶｱｰｸﾋﾙｽﾞ･ｱｰｸﾓﾘﾋﾞﾙ","pref":"東京都","city":"港区","address":"赤坂赤坂アークヒルズ・アーク森ビル"},
{"zip_code":"1076014","kana_pref":"ﾄｳｷｮｳﾄ","kana_city":"ﾐﾅﾄｸ","kana_address":"ｱｶｻｶｱｶｻｶｱｰｸﾋﾙｽﾞ･ｱｰｸﾓﾘﾋﾞﾙ","pref":"東京都","city":"港区","address":"赤坂赤坂アークヒルズ・アーク森ビル"},
{"zip_code":"1076015","kana_pref":"ﾄｳｷｮｳﾄ","kana_city":"ﾐﾅﾄｸ","kana_address":"ｱｶｻｶｱｶｻｶｱｰｸﾋﾙｽﾞ･ｱｰｸﾓﾘﾋﾞﾙ","pref":"東京都","city":"港区","address":"赤坂赤坂アークヒルズ・アーク森ビル"},
{"zip_code":"1076016","kana_pref":"ﾄｳｷｮｳﾄ","kana_city":"ﾐﾅﾄｸ","kana_address":"ｱｶｻｶｱｶｻｶｱｰｸﾋﾙｽﾞ･ｱｰｸﾓﾘﾋﾞﾙ","pref":"東京都","city":"港区","address":"赤坂赤坂アークヒルズ・アーク森ビル"},
{"zip_code":"1076017","kana_pref":"ﾄｳｷｮｳﾄ","kana_city":"ﾐﾅﾄｸ","kana_address":"ｱｶｻｶｱｶｻｶｱｰｸﾋﾙｽﾞ･ｱｰｸﾓﾘﾋﾞﾙ","pref":"東京都","city":"港区","address":"赤坂赤坂アークヒルズ・アーク森ビル"},
{"zip_code":"1076018","kana_pref":"ﾄｳｷｮｳﾄ","kana_city":"ﾐﾅﾄｸ","kana_address":"ｱｶｻｶｱｶｻｶｱｰｸﾋﾙｽﾞ･ｱｰｸﾓﾘﾋﾞﾙ","pref":"東京都","city":"港区","address":"赤坂赤坂アークヒルズ・アーク森ビル"},
{"zip_code":"1076019","kana_pref":"ﾄｳｷｮｳﾄ","kana_city":"ﾐﾅﾄｸ","kana_address":"ｱｶｻｶｱｶｻｶｱｰｸﾋﾙｽﾞ･ｱｰｸﾓﾘﾋﾞﾙ","pref":"東京都","city":"港区","address":"赤坂赤坂アークヒルズ・アーク森ビル"},
{"zip_code":"1076020","kana_pref":"ﾄｳｷｮｳﾄ","kana_city":"ﾐﾅﾄｸ","kana_address":"ｱｶｻｶｱｶｻｶｱｰｸﾋﾙｽﾞ･ｱｰｸﾓﾘﾋﾞﾙ","pref":"東京都","city":"港区","address":"赤坂赤坂アークヒルズ・アーク森ビル"},
{"zip_code":"1076021","kana_pref":"ﾄｳｷｮｳﾄ","kana_city":"ﾐﾅﾄｸ","kana_address":"ｱｶｻｶｱｶｻｶｱｰｸﾋﾙｽﾞ･ｱｰｸﾓﾘﾋﾞﾙ","pref":"東京都","city":"港区","address":"赤坂赤坂アークヒルズ・アーク森ビル"},
{"zip_code":"1076022","kana_pref":"ﾄｳｷｮｳﾄ","kana_city":"ﾐﾅﾄｸ","kana_address":"ｱｶｻｶｱｶｻｶｱｰｸﾋﾙｽﾞ･ｱｰｸﾓﾘﾋﾞﾙ","pref":"東京都","city":"港区","address":"赤坂赤坂アークヒルズ・アーク森ビル"},
{"zip_code":"1076023","kana_pref":"ﾄｳｷｮｳﾄ","kana_city":"ﾐﾅﾄｸ","kana_address":"ｱｶｻｶｱｶｻｶｱｰｸﾋﾙｽﾞ･ｱｰｸﾓﾘﾋﾞﾙ","pref":"東京都","city":"港区","address":"赤坂赤坂アークヒルズ・アーク森ビル"},
{"zip_code":"1076024","kana_pref":"ﾄｳｷｮｳﾄ","kana_city":"ﾐﾅﾄｸ","kana_address":"ｱｶｻｶｱｶｻｶｱｰｸﾋﾙｽﾞ･ｱｰｸﾓﾘﾋﾞﾙ","pref":"東京都","city":"港区","address":"赤坂赤坂アークヒルズ・アーク森ビル"},
{"zip_code":"1076025","kana_pref":"ﾄｳｷｮｳﾄ","kana_city":"ﾐﾅﾄｸ","kana_address":"ｱｶｻｶｱｶｻｶｱｰｸﾋﾙｽﾞ･ｱｰｸﾓﾘﾋﾞﾙ","pref":"東京都","city":"港区","address":"赤坂赤坂アークヒルズ・アーク森ビル"},
{"zip_code":"1076026","kana_pref":"ﾄｳｷｮｳﾄ","kana_city":"ﾐﾅﾄｸ","kana_address":"ｱｶｻｶｱｶｻｶｱｰｸﾋﾙｽﾞ･ｱｰｸﾓﾘﾋﾞﾙ","pref":"東京都","city":"港区","address":"赤坂赤坂アークヒルズ・アーク森ビル"},
{"zip_code":"1076027","kana_pref":"ﾄｳｷｮｳﾄ","kana_city":"ﾐﾅﾄｸ","kana_address":"ｱｶｻｶｱｶｻｶｱｰｸﾋﾙｽﾞ･ｱｰｸﾓﾘﾋﾞﾙ","pref":"東京都","city":"港区","address":"赤坂赤坂アークヒルズ・アーク森ビル"},
{"zip_code":"1076028","kana_pref":"ﾄｳｷｮｳﾄ","kana_city":"ﾐﾅﾄｸ","kana_address":"ｱｶｻｶｱｶｻｶｱｰｸﾋﾙｽﾞ･ｱｰｸﾓﾘﾋﾞﾙ","pref":"東京都","city":"港区","address":"赤坂赤坂アークヒルズ・アーク森ビル"},
{"zip_code":"1076029","kana_pref":"ﾄｳｷｮｳﾄ","kana_city":"ﾐﾅﾄｸ","kana_address":"ｱｶｻｶｱｶｻｶｱｰｸﾋﾙｽﾞ･ｱｰｸﾓﾘﾋﾞﾙ","pref":"東京都","city":"港区","address":"赤坂赤坂アークヒルズ・アーク森ビル"},
{"zip_code":"1076030","kana_pref":"ﾄｳｷｮｳﾄ","kana_city":"ﾐﾅﾄｸ","kana_address":"ｱｶｻｶｱｶｻｶｱｰｸﾋﾙｽﾞ･ｱｰｸﾓﾘﾋﾞﾙ","pref":"東京都","city":"港区","address":"赤坂赤坂アークヒルズ・アーク森ビル"},
{"zip_code":"1076031","kana_pref":"ﾄｳｷｮｳﾄ","kana_city":"ﾐﾅﾄｸ","kana_address":"ｱｶｻｶｱｶｻｶｱｰｸﾋﾙｽﾞ･ｱｰｸﾓﾘﾋﾞﾙ","pref":"東京都","city":"港区","address":"赤坂赤坂アークヒルズ・アーク森ビル"},
{"zip_code":"1076032","kana_pref":"ﾄｳｷｮｳﾄ","kana_city":"ﾐﾅﾄｸ","kana_address":"ｱｶｻｶｱｶｻｶｱｰｸﾋﾙｽﾞ･ｱｰｸﾓﾘﾋﾞﾙ","pref":"東京都","city":"港区","address":"赤坂赤坂アークヒルズ・アーク森ビル"},
{"zip_code":"1076033","kana_pref":"ﾄｳｷｮｳﾄ","kana_city":"ﾐﾅﾄｸ","kana_address":"ｱｶｻｶｱｶｻｶｱｰｸﾋﾙｽﾞ･ｱｰｸﾓﾘﾋﾞﾙ","pref":"東京都","city":"港区","address":"赤坂赤坂アークヒルズ・アーク森ビル"},
{"zip_code":"1076034","kana_pref":"ﾄｳｷｮｳﾄ","kana_city":"ﾐﾅﾄｸ","kana_address":"ｱｶｻｶｱｶｻｶｱｰｸﾋﾙｽﾞ･ｱｰｸﾓﾘﾋﾞﾙ","pref":"東京都","city":"港区","address":"赤坂赤坂アークヒルズ・アーク森ビル"},
{"zip_code":"1076035","kana_pref":"ﾄｳｷｮｳﾄ","kana_city":"ﾐﾅﾄｸ","kana_address":"ｱｶｻｶｱｶｻｶｱｰｸﾋﾙｽﾞ･ｱｰｸﾓﾘﾋﾞﾙ","pref":"東京都","city":"港区","address":"赤坂赤坂アークヒルズ・アーク森ビル"},
{"zip_code":"1076036","kana_pref":"ﾄｳｷｮｳﾄ","kana_city":"ﾐﾅﾄｸ","kana_address":"ｱｶｻｶｱｶｻｶｱｰｸﾋﾙｽﾞ･ｱｰｸﾓﾘﾋﾞﾙ","pref":"東京都","city":"港区","address":"赤坂赤坂アークヒルズ・アーク森ビル"},
{"zip_code":"1076037","kana_pref":"ﾄｳｷｮｳﾄ","kana_city":"ﾐﾅﾄｸ","kana_address":"ｱｶｻｶｱｶｻｶｱｰｸﾋﾙｽﾞ･ｱｰｸﾓﾘﾋﾞﾙ","pref":"東京都","city":"港区","address":"赤坂赤坂アークヒルズ・アーク森ビル"},
{"zip_code":"1076190","kana_pref":"ﾄｳｷｮｳﾄ","kana_city":"ﾐﾅﾄｸ","kana_address":"ｱｶｻｶｱｶｻｶﾊﾟｰｸﾋﾞﾙ","pref":"東京都","city":"港区","address":"赤坂赤坂パークビル"},
{"zip_code":"1076101","kana_pref":"ﾄｳｷｮｳﾄ","kana_city":"ﾐﾅﾄｸ","kana_address":"ｱｶｻｶｱｶｻｶﾊﾟｰｸﾋﾞﾙ","pref":"東京都","city":"港区","address":"赤坂赤坂パークビル"},
{"zip_code":"1076102","kana_pref":"ﾄｳｷｮｳﾄ","kana_city":"ﾐﾅﾄｸ","kana_address":"ｱｶｻｶｱｶｻｶﾊﾟｰｸﾋﾞﾙ","pref":"東京都","city":"港区","address":"赤坂赤坂パークビル"},
{"zip_code":"1076103","kana_pref":"ﾄｳｷｮｳﾄ","kana_city":"ﾐﾅﾄｸ","kana_address":"ｱｶｻｶｱｶｻｶﾊﾟｰｸﾋﾞﾙ","pref":"東京都","city":"港区","address":"赤坂赤坂パークビル"},
{"zip_code":"1076104","kana_pref":"ﾄｳｷｮｳﾄ","kana_city":"ﾐﾅﾄｸ","kana_address":"ｱｶｻｶｱｶｻｶﾊﾟｰｸﾋﾞﾙ","pref":"東京都","city":"港区","address":"赤坂赤坂パークビル"},
{"zip_code":"1076105","kana_pref":"ﾄｳｷｮｳﾄ","kana_city":"ﾐﾅﾄｸ","kana_address":"ｱｶｻｶｱｶｻｶﾊﾟｰｸﾋﾞﾙ","pref":"東京都","city":"港区","address":"赤坂赤坂パークビル"},
{"zip_code":"1076106","kana_pref":"ﾄｳｷｮｳﾄ","kana_city":"ﾐﾅﾄｸ","kana_address":"ｱｶｻｶｱｶｻｶﾊﾟｰｸﾋﾞﾙ","pref":"東京都","city":"港区","address":"赤坂赤坂パークビル"},
{"zip_code":"1076107","kana_pref":"ﾄｳｷｮｳﾄ","kana_city":"ﾐﾅﾄｸ","kana_address":"ｱｶｻｶｱｶｻｶﾊﾟｰｸﾋﾞﾙ","pref":"東京都","city":"港区","address":"赤坂赤坂パークビル"},
{"zip_code":"1076108","kana_pref":"ﾄｳｷｮｳﾄ","kana_city":"ﾐﾅﾄｸ","kana_address":"ｱｶｻｶｱｶｻｶﾊﾟｰｸﾋﾞﾙ","pref":"東京都","city":"港区","address":"赤坂赤坂パークビル"},
{"zip_code":"1076109","kana_pref":"ﾄｳｷｮｳﾄ","kana_city":"ﾐﾅﾄｸ","kana_address":"ｱｶｻｶｱｶｻｶﾊﾟｰｸﾋﾞﾙ","pref":"東京都","city":"港区","address":"赤坂赤坂パークビル"},
{"zip_code":"1076110","kana_pref":"ﾄｳｷｮｳﾄ","kana_city":"ﾐﾅﾄｸ","kana_address":"ｱｶｻｶｱｶｻｶﾊﾟｰｸﾋﾞﾙ","pref":"東京都","city":"港区","address":"赤坂赤坂パークビル"},
{"zip_code":"1076111","kana_pref":"ﾄｳｷｮｳﾄ","kana_city":"ﾐﾅﾄｸ","kana_address":"ｱｶｻｶｱｶｻｶﾊﾟｰｸﾋﾞﾙ","pref":"東京都","city":"港区","address":"赤坂赤坂パークビル"},
{"zip_code":"1076112","kana_pref":"ﾄｳｷｮｳﾄ","kana_city":"ﾐﾅﾄｸ","kana_address":"ｱｶｻｶｱｶｻｶﾊﾟｰｸﾋﾞﾙ","pref":"東京都","city":"港区","address":"赤坂赤坂パークビル"},
{"zip_code":"1076113","kana_pref":"ﾄｳｷｮｳﾄ","kana_city":"ﾐﾅﾄｸ","kana_address":"ｱｶｻｶｱｶｻｶﾊﾟｰｸﾋﾞﾙ","pref":"東京都","city":"港区","address":"赤坂赤坂パークビル"},
{"zip_code":"1076114","kana_pref":"ﾄｳｷｮｳﾄ","kana_city":"ﾐﾅﾄｸ","kana_address":"ｱｶｻｶｱｶｻｶﾊﾟｰｸﾋﾞﾙ","pref":"東京都","city":"港区","address":"赤坂赤坂パークビル"},
{"zip_code":"1076115","kana_pref":"ﾄｳｷｮｳﾄ","kana_city":"ﾐﾅﾄｸ","kana_address":"ｱｶｻｶｱｶｻｶﾊﾟｰｸﾋﾞﾙ","pref":"東京都","city":"港区","address":"赤坂赤坂パークビル"},
{"zip_code":"1076116","kana_pref":"ﾄｳｷｮｳﾄ","kana_city":"ﾐﾅﾄｸ","kana_address":"ｱｶｻｶｱｶｻｶﾊﾟｰｸﾋﾞﾙ","pref":"東京都","city":"港区","address":"赤坂赤坂パークビル"},
{"zip_code":"1076117","kana_pref":"ﾄｳｷｮｳﾄ","kana_city":"ﾐﾅﾄｸ","kana_address":"ｱｶｻｶｱｶｻｶﾊﾟｰｸﾋﾞﾙ","pref":"東京都","city":"港区","address":"赤坂赤坂パークビル"},
{"zip_code":"1076118","kana_pref":"ﾄｳｷｮｳﾄ","kana_city":"ﾐﾅﾄｸ","kana_address":"ｱｶｻｶｱｶｻｶﾊﾟｰｸﾋﾞﾙ","pref":"東京都","city":"港区","address":"赤坂赤坂パークビル"},
{"zip_code":"1076119","kana_pref":"ﾄｳｷｮｳﾄ","kana_city":"ﾐﾅﾄｸ","kana_address":"ｱｶｻｶｱｶｻｶﾊﾟｰｸﾋﾞﾙ","pref":"東京都","city":"港区","address":"赤坂赤坂パークビル"},
{"zip_code":"1076120","kana_pref":"ﾄｳｷｮｳﾄ","kana_city":"ﾐﾅﾄｸ","kana_address":"ｱｶｻｶｱｶｻｶﾊﾟｰｸﾋﾞﾙ","pref":"東京都","city":"港区","address":"赤坂赤坂パークビル"},
{"zip_code":"1076121","kana_pref":"ﾄｳｷｮｳﾄ","kana_city":"ﾐﾅﾄｸ","kana_address":"ｱｶｻｶｱｶｻｶﾊﾟｰｸﾋﾞﾙ","pref":"東京都","city":"港区","address":"赤坂赤坂パークビル"},
{"zip_code":"1076122","kana_pref":"ﾄｳｷｮｳﾄ","kana_city":"ﾐﾅﾄｸ","kana_address":"ｱｶｻｶｱｶｻｶﾊﾟｰｸﾋﾞﾙ","pref":"東京都","city":"港区","address":"赤坂赤坂パークビル"},
{"zip_code":"1076123","kana_pref":"ﾄｳｷｮｳﾄ","kana_city":"ﾐﾅﾄｸ","kana_address":"ｱｶｻｶｱｶｻｶﾊﾟｰｸﾋﾞﾙ","pref":"東京都","city":"港区","address":"赤坂赤坂パークビル"},
{"zip_code":"1076124","kana_pref":"ﾄｳｷｮｳﾄ","kana_city":"ﾐﾅﾄｸ","kana_address":"ｱｶｻｶｱｶｻｶﾊﾟｰｸﾋﾞﾙ","pref":"東京都","city":"港区","address":"赤坂赤坂パークビル"},
{"zip_code":"1076125","kana_pref":"ﾄｳｷｮｳﾄ","kana_city":"ﾐﾅﾄｸ","kana_address":"ｱｶｻｶｱｶｻｶﾊﾟｰｸﾋﾞﾙ","pref":"東京都","city":"港区","address":"赤坂赤坂パークビル"},
{"zip_code":"1076126","kana_pref":"ﾄｳｷｮｳﾄ","kana_city":"ﾐﾅﾄｸ","kana_address":"ｱｶｻｶｱｶｻｶﾊﾟｰｸﾋﾞﾙ","pref":"東京都","city":"港区","address":"赤坂赤坂パークビル"},
{"zip_code":"1076127","kana_pref":"ﾄｳｷｮｳﾄ","kana_city":"ﾐﾅﾄｸ","kana_address":"ｱｶｻｶｱｶｻｶﾊﾟｰｸﾋﾞﾙ","pref":"東京都","city":"港区","address":"赤坂赤坂パークビル"},
{"zip_code":"1076128","kana_pref":"ﾄｳｷｮｳﾄ","kana_city":"ﾐﾅﾄｸ","kana_address":"ｱｶｻｶｱｶｻｶﾊﾟｰｸﾋﾞﾙ","pref":"東京都","city":"港区","address":"赤坂赤坂パークビル"},
{"zip_code":"1076129","kana_pref":"ﾄｳｷｮｳﾄ","kana_city":"ﾐﾅﾄｸ","kana_address":"ｱｶｻｶｱｶｻｶﾊﾟｰｸﾋﾞﾙ","pref":"東京都","city":"港区","address":"赤坂赤坂パークビル"},
{"zip_code":"1076130","kana_pref":"ﾄｳｷｮｳﾄ","kana_city":"ﾐﾅﾄｸ","kana_address":"ｱｶｻｶｱｶｻｶﾊﾟｰｸﾋﾞﾙ","pref":"東京都","city":"港区","address":"赤坂赤坂パークビル"},
{"zip_code":"1076390","kana_pref":"ﾄｳｷｮｳﾄ","kana_city":"ﾐﾅﾄｸ","kana_address":"ｱｶｻｶｱｶｻｶﾋﾞｽﾞﾀﾜｰ","pref":"東京都","city":"港区","address":"赤坂赤坂Ｂｉｚタワー"},
{"zip_code":"1076301","kana_pref":"ﾄｳｷｮｳﾄ","kana_city":"ﾐﾅﾄｸ","kana_address":"ｱｶｻｶｱｶｻｶﾋﾞｽﾞﾀﾜｰ","pref":"東京都","city":"港区","address":"赤坂赤坂Ｂｉｚタワー"},
{"zip_code":"1076302","kana_pref":"ﾄｳｷｮｳﾄ","kana_city":"ﾐﾅﾄｸ","kana_address":"ｱｶｻｶｱｶｻｶﾋﾞｽﾞﾀﾜｰ","pref":"東京都","city":"港区","address":"赤坂赤坂Ｂｉｚタワー"},
{"zip_code":"1076303","kana_pref":"ﾄｳｷｮｳﾄ","kana_city":"ﾐﾅﾄｸ","kana_address":"ｱｶｻｶｱｶｻｶﾋﾞｽﾞﾀﾜｰ","pref":"東京都","city":"港区","address":"赤坂赤坂Ｂｉｚタワー"},
{"zip_code":"1076304","kana_pref":"ﾄｳｷｮｳﾄ","kana_city":"ﾐﾅﾄｸ","kana_address":"ｱｶｻｶｱｶｻｶﾋﾞｽﾞﾀﾜｰ","pref":"東京都","city":"港区","address":"赤坂赤坂Ｂｉｚタワー"},
{"zip_code":"1076305","kana_pref":"ﾄｳｷｮｳﾄ","kana_city":"ﾐﾅﾄｸ","kana_address":"ｱｶｻｶｱｶｻｶﾋﾞｽﾞﾀﾜｰ","pref":"東京都","city":"港区","address":"赤坂赤坂Ｂｉｚタワー"},
{"zip_code":"1076306","kana_pref":"ﾄｳｷｮｳﾄ","kana_city":"ﾐﾅﾄｸ","kana_address":"ｱｶｻｶｱｶｻｶﾋﾞｽﾞﾀﾜｰ","pref":"東京都","city":"港区","address":"赤坂赤坂Ｂｉｚタワー"},
{"zip_code":"1076307","kana_pref":"ﾄｳｷｮｳﾄ","kana_city":"ﾐﾅﾄｸ","kana_address":"ｱｶｻｶｱｶｻｶﾋﾞｽﾞﾀﾜｰ","pref":"東京都","city":"港区","address":"赤坂赤坂Ｂｉｚタワー"},
{"zip_code":"1076308","kana_pref":"ﾄｳｷｮｳﾄ","kana_city":"ﾐﾅﾄｸ","kana_address":"ｱｶｻｶｱｶｻｶﾋﾞｽﾞﾀﾜｰ","pref":"東京都","city":"港区","address":"赤坂赤坂Ｂｉｚタワー"},
{"zip_code":"1076309","kana_pref":"ﾄｳｷｮｳﾄ","kana_city":"ﾐﾅﾄｸ","kana_address":"ｱｶｻｶｱｶｻｶﾋﾞｽﾞﾀﾜｰ","pref":"東京都","city":"港区","address":"赤坂赤坂Ｂｉｚタワー"},
{"zip_code":"1076310","kana_pref":"ﾄｳｷｮｳﾄ","kana_city":"ﾐﾅﾄｸ","kana_address":"ｱｶｻｶｱｶｻｶﾋﾞｽﾞﾀﾜｰ","pref":"東京都","city":"港区","address":"赤坂赤坂Ｂｉｚタワー"},
{"zip_code":"1076311","kana_pref":"ﾄｳｷｮｳﾄ","kana_city":"ﾐﾅﾄｸ","kana_address":"ｱｶｻｶｱｶｻｶﾋﾞｽﾞﾀﾜｰ","pref":"東京都","city":"港区","address":"赤坂赤坂Ｂｉｚタワー"},
{"zip_code":"1076312","kana_pref":"ﾄｳｷｮｳﾄ","kana_city":"ﾐﾅﾄｸ","kana_address":"ｱｶｻｶｱｶｻｶﾋﾞｽﾞﾀﾜｰ","pref":"東京都","city":"港区","address":"赤坂赤坂Ｂｉｚタワー"},
{"zip_code":"1076313","kana_pref":"ﾄｳｷｮｳﾄ","kana_city":"ﾐﾅﾄｸ","kana_address":"ｱｶｻｶｱｶｻｶﾋﾞｽﾞﾀﾜｰ","pref":"東京都","city":"港区","address":"赤坂赤坂Ｂｉｚタワー"},
{"zip_code":"1076314","kana_pref":"ﾄｳｷｮｳﾄ","kana_city":"ﾐﾅﾄｸ","kana_address":"ｱｶｻｶｱｶｻｶﾋﾞｽﾞﾀﾜｰ","pref":"東京都","city":"港区","address":"赤坂赤坂Ｂｉｚタワー"},
{"zip_code":"1076315","kana_pref":"ﾄｳｷｮｳﾄ","kana_city":"ﾐﾅﾄｸ","kana_address":"ｱｶｻｶｱｶｻｶﾋﾞｽﾞﾀﾜｰ","pref":"東京都","city":"港区","address":"赤坂赤坂Ｂｉｚタワー"},
{"zip_code":"1076316","kana_pref":"ﾄｳｷｮｳﾄ","kana_city":"ﾐﾅﾄｸ","kana_address":"ｱｶｻｶｱｶｻｶﾋﾞｽﾞﾀﾜｰ","pref":"東京都","city":"港区","address":"赤坂赤坂Ｂｉｚタワー"},
{"zip_code":"1076317","kana_pref":"ﾄｳｷｮｳﾄ","kana_city":"ﾐﾅﾄｸ","kana_address":"ｱｶｻｶｱｶｻｶﾋﾞｽﾞﾀﾜｰ","pref":"東京都","city":"港区","address":"赤坂赤坂Ｂｉｚタワー"},
{"zip_code":"1076318","kana_pref":"ﾄｳｷｮｳﾄ","kana_city":"ﾐﾅﾄｸ","kana_address":"ｱｶｻｶｱｶｻｶﾋﾞｽﾞﾀﾜｰ","pref":"東京都","city":"港区","address":"赤坂赤坂Ｂｉｚタワー"},
{"zip_code":"1076319","kana_pref":"ﾄｳｷｮｳﾄ","kana_city":"ﾐﾅﾄｸ","kana_address":"ｱｶｻｶｱｶｻｶﾋﾞｽﾞﾀﾜｰ","pref":"東京都","city":"港区","address":"赤坂赤坂Ｂｉｚタワー"},
{"zip_code":"1076320","kana_pref":"ﾄｳｷｮｳﾄ","kana_city":"ﾐﾅﾄｸ","kana_address":"ｱｶｻｶｱｶｻｶﾋﾞｽﾞﾀﾜｰ","pref":"東京都","city":"港区","address":"赤坂赤坂Ｂｉｚタワー"},
{"zip_code":"1076321","kana_pref":"ﾄｳｷｮｳﾄ","kana_city":"ﾐﾅﾄｸ","kana_address":"ｱｶｻｶｱｶｻｶﾋﾞｽﾞﾀﾜｰ","pref":"東京都","city":"港区","address":"赤坂赤坂Ｂｉｚタワー"},
{"zip_code":"1076322","kana_pref":"ﾄｳｷｮｳﾄ","kana_city":"ﾐﾅﾄｸ","kana_address":"ｱｶｻｶｱｶｻｶﾋﾞｽﾞﾀﾜｰ","pref":"東京都","city":"港区","address":"赤坂赤坂Ｂｉｚタワー"},
{"zip_code":"1076323","kana_pref":"ﾄｳｷｮｳﾄ","kana_city":"ﾐﾅﾄｸ","kana_address":"ｱｶｻｶｱｶｻｶﾋﾞｽﾞﾀﾜｰ","pref":"東京都","city":"港区","address":"赤坂赤坂Ｂｉｚタワー"},
{"zip_code":"1076324","kana_pref":"ﾄｳｷｮｳﾄ","kana_city":"ﾐﾅﾄｸ","kana_address":"ｱｶｻｶｱｶｻｶﾋﾞｽﾞﾀﾜｰ","pref":"東京都","city":"港区","address":"赤坂赤坂Ｂｉｚタワー"},
{"zip_code":"1076325","kana_pref":"ﾄｳｷｮｳﾄ","kana_city":"ﾐﾅﾄｸ","kana_address":"ｱｶｻｶｱｶｻｶﾋﾞｽﾞﾀﾜｰ","pref":"東京都","city":"港区","address":"赤坂赤坂Ｂｉｚタワー"},
{"zip_code":"1076326","kana_pref":"ﾄｳｷｮｳﾄ","kana_city":"ﾐﾅﾄｸ","kana_address":"ｱｶｻｶｱｶｻｶﾋﾞｽﾞﾀﾜｰ","pref":"東京都","city":"港区","address":"赤坂赤坂Ｂｉｚタワー"},
{"zip_code":"1076327","kana_pref":"ﾄｳｷｮｳﾄ","kana_city":"ﾐﾅﾄｸ","kana_address":"ｱｶｻｶｱｶｻｶﾋﾞｽﾞﾀﾜｰ","pref":"東京都","city":"港区","address":"赤坂赤坂Ｂｉｚタワー"},
{"zip_code":"1076328","kana_pref":"ﾄｳｷｮｳﾄ","kana_city":"ﾐﾅﾄｸ","kana_address":"ｱｶｻｶｱｶｻｶﾋﾞｽﾞﾀﾜｰ","pref":"東京都","city":"港区","address":"赤坂赤坂Ｂｉｚタワー"},
{"zip_code":"1076329","kana_pref":"ﾄｳｷｮｳﾄ","kana_city":"ﾐﾅﾄｸ","kana_address":"ｱｶｻｶｱｶｻｶﾋﾞｽﾞﾀﾜｰ","pref":"東京都","city":"港区","address":"赤坂赤坂Ｂｉｚタワー"},
{"zip_code":"1076330","kana_pref":"ﾄｳｷｮｳﾄ","kana_city":"ﾐﾅﾄｸ","kana_address":"ｱｶｻｶｱｶｻｶﾋﾞｽﾞﾀﾜｰ","pref":"東京都","city":"港区","address":"赤坂赤坂Ｂｉｚタワー"},
{"zip_code":"1076331","kana_pref":"ﾄｳｷｮｳﾄ","kana_city":"ﾐﾅﾄｸ","kana_address":"ｱｶｻｶｱｶｻｶﾋﾞｽﾞﾀﾜｰ","pref":"東京都","city":"港区","address":"赤坂赤坂Ｂｉｚタワー"},
{"zip_code":"1076332","kana_pref":"ﾄｳｷｮｳﾄ","kana_city":"ﾐﾅﾄｸ","kana_address":"ｱｶｻｶｱｶｻｶﾋﾞｽﾞﾀﾜｰ","pref":"東京都","city":"港区","address":"赤坂赤坂Ｂｉｚタワー"},
{"zip_code":"1076333","kana_pref":"ﾄｳｷｮｳﾄ","kana_city":"ﾐﾅﾄｸ","kana_address":"ｱｶｻｶｱｶｻｶﾋﾞｽﾞﾀﾜｰ","pref":"東京都","city":"港区","address":"赤坂赤坂Ｂｉｚタワー"},
{"zip_code":"1076334","kana_pref":"ﾄｳｷｮｳﾄ","kana_city":"ﾐﾅﾄｸ","kana_address":"ｱｶｻｶｱｶｻｶﾋﾞｽﾞﾀﾜｰ","pref":"東京都","city":"港区","address":"赤坂赤坂Ｂｉｚタワー"},
{"zip_code":"1076335","kana_pref":"ﾄｳｷｮｳﾄ","kana_city":"ﾐﾅﾄｸ","kana_address":"ｱｶｻｶｱｶｻｶﾋﾞｽﾞﾀﾜｰ","pref":"東京都","city":"港区","address":"赤坂赤坂Ｂｉｚタワー"},
{"zip_code":"1076336","kana_pref":"ﾄｳｷｮｳﾄ","kana_city":"ﾐﾅﾄｸ","kana_address":"ｱｶｻｶｱｶｻｶﾋﾞｽﾞﾀﾜｰ","pref":"東京都","city":"港区","address":"赤坂赤坂Ｂｉｚタワー"},
{"zip_code":"1076337","kana_pref":"ﾄｳｷｮｳﾄ","kana_city":"ﾐﾅﾄｸ","kana_address":"ｱｶｻｶｱｶｻｶﾋﾞｽﾞﾀﾜｰ","pref":"東京都","city":"港区","address":"赤坂赤坂Ｂｉｚタワー"},
{"zip_code":"1076338","kana_pref":"ﾄｳｷｮｳﾄ","kana_city":"ﾐﾅﾄｸ","kana_address":"ｱｶｻｶｱｶｻｶﾋﾞｽﾞﾀﾜｰ","pref":"東京都","city":"港区","address":"赤坂赤坂Ｂｉｚタワー"},
{"zip_code":"1076339","kana_pref":"ﾄｳｷｮｳﾄ","kana_city":"ﾐﾅﾄｸ","kana_address":"ｱｶｻｶｱｶｻｶﾋﾞｽﾞﾀﾜｰ","pref":"東京都","city":"港区","address":"赤坂赤坂Ｂｉｚタワー"},
{"zip_code":"1076290","kana_pref":"ﾄｳｷｮｳﾄ","kana_city":"ﾐﾅﾄｸ","kana_address":"ｱｶｻｶﾐｯﾄﾞﾀｳﾝ･ﾀﾜｰ","pref":"東京都","city":"港区","address":"赤坂ミッドタウン・タワー"},
{"zip_code":"1076201","kana_pref":"ﾄｳｷｮｳﾄ","kana_city":"ﾐﾅﾄｸ","kana_address":"ｱｶｻｶﾐｯﾄﾞﾀｳﾝ･ﾀﾜｰ","pref":"東京都","city":"港区","address":"赤坂ミッドタウン・タワー"},
{"zip_code":"1076202","kana_pref":"ﾄｳｷｮｳﾄ","kana_city":"ﾐﾅﾄｸ","kana_address":"ｱｶｻｶﾐｯﾄﾞﾀｳﾝ･ﾀﾜｰ","pref":"東京都","city":"港区","address":"赤坂ミッドタウン・タワー"},
{"zip_code":"1076203","kana_pref":"ﾄｳｷｮｳﾄ","kana_city":"ﾐﾅﾄｸ","kana_address":"ｱｶｻｶﾐｯﾄﾞﾀｳﾝ･ﾀﾜｰ","pref":"東京都","city":"港区","address":"赤坂ミッドタウン・タワー"},
{"zip_code":"1076204","kana_pref":"ﾄｳｷｮｳﾄ","kana_city":"ﾐﾅﾄｸ","kana_address":"ｱｶｻｶﾐｯﾄﾞﾀｳﾝ･ﾀﾜｰ","pref":"東京都","city":"港区","address":"赤坂ミッドタウン・タワー"},
{"zip_code":"1076205","kana_pref":"ﾄｳｷｮｳﾄ","kana_city":"ﾐﾅﾄｸ","kana_address":"ｱｶｻｶﾐｯﾄﾞﾀｳﾝ･ﾀﾜｰ","pref":"東京都","city":"港区","address":"赤坂ミッドタウン・タワー"},
{"zip_code":"1076206","kana_pref":"ﾄｳｷｮｳﾄ","kana_city":"ﾐﾅﾄｸ","kana_address":"ｱｶｻｶﾐｯﾄﾞﾀｳﾝ･ﾀﾜｰ","pref":"東京都","city":"港区","address":"赤坂ミッドタウン・タワー"},
{"zip_code":"1076207","kana_pref":"ﾄｳｷｮｳﾄ","kana_city":"ﾐﾅﾄｸ","kana_address":"ｱｶｻｶﾐｯﾄﾞﾀｳﾝ･ﾀﾜｰ","pref":"東京都","city":"港区","address":"赤坂ミッドタウン・タワー"},
{"zip_code":"1076208","kana_pref":"ﾄｳｷｮｳﾄ","kana_city":"ﾐﾅﾄｸ","kana_address":"ｱｶｻｶﾐｯﾄﾞﾀｳﾝ･ﾀﾜｰ","pref":"東京都","city":"港区","address":"赤坂ミッドタウン・タワー"},
{"zip_code":"1076209","kana_pref":"ﾄｳｷｮｳﾄ","kana_city":"ﾐﾅﾄｸ","kana_address":"ｱｶｻｶﾐｯﾄﾞﾀｳﾝ･ﾀﾜｰ","pref":"東京都","city":"港区","address":"赤坂ミッドタウン・タワー"},
{"zip_code":"1076210","kana_pref":"ﾄｳｷｮｳﾄ","kana_city":"ﾐﾅﾄｸ","kana_address":"ｱｶｻｶﾐｯﾄﾞﾀｳﾝ･ﾀﾜｰ","pref":"東京都","city":"港区","address":"赤坂ミッドタウン・タワー"},
{"zip_code":"1076211","kana_pref":"ﾄｳｷｮｳﾄ","kana_city":"ﾐﾅﾄｸ","kana_address":"ｱｶｻｶﾐｯﾄﾞﾀｳﾝ･ﾀﾜｰ","pref":"東京都","city":"港区","address":"赤坂ミッドタウン・タワー"},
{"zip_code":"1076212","kana_pref":"ﾄｳｷｮｳﾄ","kana_city":"ﾐﾅﾄｸ","kana_address":"ｱｶｻｶﾐｯﾄﾞﾀｳﾝ･ﾀﾜｰ","pref":"東京都","city":"港区","address":"赤坂ミッドタウン・タワー"},
{"zip_code":"1076213","kana_pref":"ﾄｳｷｮｳﾄ","kana_city":"ﾐﾅﾄｸ","kana_address":"ｱｶｻｶﾐｯﾄﾞﾀｳﾝ･ﾀﾜｰ","pref":"東京都","city":"港区","address":"赤坂ミッドタウン・タワー"},
{"zip_code":"1076214","kana_pref":"ﾄｳｷｮｳﾄ","kana_city":"ﾐﾅﾄｸ","kana_address":"ｱｶｻｶﾐｯﾄﾞﾀｳﾝ･ﾀﾜｰ","pref":"東京都","city":"港区","address":"赤坂ミッドタウン・タワー"},
{"zip_code":"1076215","kana_pref":"ﾄｳｷｮｳﾄ","kana_city":"ﾐﾅﾄｸ","kana_address":"ｱｶｻｶﾐｯﾄﾞﾀｳﾝ･ﾀﾜｰ","pref":"東京都","city":"港区","address":"赤坂ミッドタウン・タワー"},
{"zip_code":"1076216","kana_pref":"ﾄｳｷｮｳﾄ","kana_city":"ﾐﾅﾄｸ","kana_address":"ｱｶｻｶﾐｯﾄﾞﾀｳﾝ･ﾀﾜｰ","pref":"東京都","city":"港区","address":"赤坂ミッドタウン・タワー"},
{"zip_code":"1076217","kana_pref":"ﾄｳｷｮｳﾄ","kana_city":"ﾐﾅﾄｸ","kana_address":"ｱｶｻｶﾐｯﾄﾞﾀｳﾝ･ﾀﾜｰ","pref":"東京都","city":"港区","address":"赤坂ミッドタウン・タワー"},
{"zip_code":"1076218","kana_pref":"ﾄｳｷｮｳﾄ","kana_city":"ﾐﾅﾄｸ","kana_address":"ｱｶｻｶﾐｯﾄﾞﾀｳﾝ･ﾀﾜｰ","pref":"東京都","city":"港区","address":"赤坂ミッドタウン・タワー"},
{"zip_code":"1076219","kana_pref":"ﾄｳｷｮｳﾄ","kana_city":"ﾐﾅﾄｸ","kana_address":"ｱｶｻｶﾐｯﾄﾞﾀｳﾝ･ﾀﾜｰ","pref":"東京都","city":"港区","address":"赤坂ミッドタウン・タワー"},
{"zip_code":"1076220","kana_pref":"ﾄｳｷｮｳﾄ","kana_city":"ﾐﾅﾄｸ","kana_address":"ｱｶｻｶﾐｯﾄﾞﾀｳﾝ･ﾀﾜｰ","pref":"東京都","city":"港区","address":"赤坂ミッドタウン・タワー"},
{"zip_code":"1076221","kana_pref":"ﾄｳｷｮｳﾄ","kana_city":"ﾐﾅﾄｸ","kana_address":"ｱｶｻｶﾐｯﾄﾞﾀｳﾝ･ﾀﾜｰ","pref":"東京都","city":"港区","address":"赤坂ミッドタウン・タワー"},
{"zip_code":"1076222","kana_pref":"ﾄｳｷｮｳﾄ","kana_city":"ﾐﾅﾄｸ","kana_address":"ｱｶｻｶﾐｯﾄﾞﾀｳﾝ･ﾀﾜｰ","pref":"東京都","city":"港区","address":"赤坂ミッドタウン・タワー"},
{"zip_code":"1076223","kana_pref":"ﾄｳｷｮｳﾄ","kana_city":"ﾐﾅﾄｸ","kana_address":"ｱｶｻｶﾐｯﾄﾞﾀｳﾝ･ﾀﾜｰ","pref":"東京都","city":"港区","address":"赤坂ミッドタウン・タワー"},
{"zip_code":"1076224","kana_pref":"ﾄｳｷｮｳﾄ","kana_city":"ﾐﾅﾄｸ","kana_address":"ｱｶｻｶﾐｯﾄﾞﾀｳﾝ･ﾀﾜｰ","pref":"東京都","city":"港区","address":"赤坂ミッドタウン・タワー"},
{"zip_code":"1076225","kana_pref":"ﾄｳｷｮｳﾄ","kana_city":"ﾐﾅﾄｸ","kana_address":"ｱｶｻｶﾐｯﾄﾞﾀｳﾝ･ﾀﾜｰ","pref":"東京都","city":"港区","address":"赤坂ミッドタウン・タワー"},
{"zip_code":"1076226","kana_pref":"ﾄｳｷｮｳﾄ","kana_city":"ﾐﾅﾄｸ","kana_address":"ｱｶｻｶﾐｯﾄﾞﾀｳﾝ･ﾀﾜｰ","pref":"東京都","city":"港区","address":"赤坂ミッドタウン・タワー"},
{"zip_code":"1076227","kana_pref":"ﾄｳｷｮｳﾄ","kana_city":"ﾐﾅﾄｸ","kana_address":"ｱｶｻｶﾐｯﾄﾞﾀｳﾝ･ﾀﾜｰ","pref":"東京都","city":"港区","address":"赤坂ミッドタウン・タワー"},
{"zip_code":"1076228","kana_pref":"ﾄｳｷｮｳﾄ","kana_city":"ﾐﾅﾄｸ","kana_address":"ｱｶｻｶﾐｯﾄﾞﾀｳﾝ･ﾀﾜｰ","pref":"東京都","city":"港区","address":"赤坂ミッドタウン・タワー"},
{"zip_code":"1076229","kana_pref":"ﾄｳｷｮｳﾄ","kana_city":"ﾐﾅﾄｸ","kana_address":"ｱｶｻｶﾐｯﾄﾞﾀｳﾝ･ﾀﾜｰ","pref":"東京都","city":"港区","address":"赤坂ミッドタウン・タワー"},
{"zip_code":"1076230","kana_pref":"ﾄｳｷｮｳﾄ","kana_city":"ﾐﾅﾄｸ","kana_address":"ｱｶｻｶﾐｯﾄﾞﾀｳﾝ･ﾀﾜｰ","pref":"東京都","city":"港区","address":"赤坂ミッドタウン・タワー"},
{"zip_code":"1076231","kana_pref":"ﾄｳｷｮｳﾄ","kana_city":"ﾐﾅﾄｸ","kana_address":"ｱｶｻｶﾐｯﾄﾞﾀｳﾝ･ﾀﾜｰ","pref":"東京都","city":"港区","address":"赤坂ミッドタウン・タワー"},
{"zip_code":"1076232","kana_pref":"ﾄｳｷｮｳﾄ","kana_city":"ﾐﾅﾄｸ","kana_address":"ｱｶｻｶﾐｯﾄﾞﾀｳﾝ･ﾀﾜｰ","pref":"東京都","city":"港区","address":"赤坂ミッドタウン・タワー"},
{"zip_code":"1076233","kana_pref":"ﾄｳｷｮｳﾄ","kana_city":"ﾐﾅﾄｸ","kana_address":"ｱｶｻｶﾐｯﾄﾞﾀｳﾝ･ﾀﾜｰ","pref":"東京都","city":"港区","address":"赤坂ミッドタウン・タワー"},
{"zip_code":"1076234","kana_pref":"ﾄｳｷｮｳﾄ","kana_city":"ﾐﾅﾄｸ","kana_address":"ｱｶｻｶﾐｯﾄﾞﾀｳﾝ･ﾀﾜｰ","pref":"東京都","city":"港区","address":"赤坂ミッドタウン・タワー"},
{"zip_code":"1076235","kana_pref":"ﾄｳｷｮｳﾄ","kana_city":"ﾐﾅﾄｸ","kana_address":"ｱｶｻｶﾐｯﾄﾞﾀｳﾝ･ﾀﾜｰ","pref":"東京都","city":"港区","address":"赤坂ミッドタウン・タワー"},
{"zip_code":"1076236","kana_pref":"ﾄｳｷｮｳﾄ","kana_city":"ﾐﾅﾄｸ","kana_address":"ｱｶｻｶﾐｯﾄﾞﾀｳﾝ･ﾀﾜｰ","pref":"東京都","city":"港区","address":"赤坂ミッドタウン・タワー"},
{"zip_code":"1076237","kana_pref":"ﾄｳｷｮｳﾄ","kana_city":"ﾐﾅﾄｸ","kana_address":"ｱｶｻｶﾐｯﾄﾞﾀｳﾝ･ﾀﾜｰ","pref":"東京都","city":"港区","address":"赤坂ミッドタウン・タワー"},
{"zip_code":"1076238","kana_pref":"ﾄｳｷｮｳﾄ","kana_city":"ﾐﾅﾄｸ","kana_address":"ｱｶｻｶﾐｯﾄﾞﾀｳﾝ･ﾀﾜｰ","pref":"東京都","city":"港区","address":"赤坂ミッドタウン・タワー"},
{"zip_code":"1076239","kana_pref":"ﾄｳｷｮｳﾄ","kana_city":"ﾐﾅﾄｸ","kana_address":"ｱｶｻｶﾐｯﾄﾞﾀｳﾝ･ﾀﾜｰ","pref":"東京都","city":"港区","address":"赤坂ミッドタウン・タワー"},
{"zip_code":"1076240","kana_pref":"ﾄｳｷｮｳﾄ","kana_city":"ﾐﾅﾄｸ","kana_address":"ｱｶｻｶﾐｯﾄﾞﾀｳﾝ･ﾀﾜｰ","pref":"東京都","city":"港区","address":"赤坂ミッドタウン・タワー"},
{"zip_code":"1076241","kana_pref":"ﾄｳｷｮｳﾄ","kana_city":"ﾐﾅﾄｸ","kana_address":"ｱｶｻｶﾐｯﾄﾞﾀｳﾝ･ﾀﾜｰ","pref":"東京都","city":"港区","address":"赤坂ミッドタウン・タワー"},
{"zip_code":"1076242","kana_pref":"ﾄｳｷｮｳﾄ","kana_city":"ﾐﾅﾄｸ","kana_address":"ｱｶｻｶﾐｯﾄﾞﾀｳﾝ･ﾀﾜｰ","pref":"東京都","city":"港区","address":"赤坂ミッドタウン・タワー"},
{"zip_code":"1076243","kana_pref":"ﾄｳｷｮｳﾄ","kana_city":"ﾐﾅﾄｸ","kana_address":"ｱｶｻｶﾐｯﾄﾞﾀｳﾝ･ﾀﾜｰ","pref":"東京都","city":"港区","address":"赤坂ミッドタウン・タワー"},
{"zip_code":"1076244","kana_pref":"ﾄｳｷｮｳﾄ","kana_city":"ﾐﾅﾄｸ","kana_address":"ｱｶｻｶﾐｯﾄﾞﾀｳﾝ･ﾀﾜｰ","pref":"東京都","city":"港区","address":"赤坂ミッドタウン・タワー"},
{"zip_code":"1076245","kana_pref":"ﾄｳｷｮｳﾄ","kana_city":"ﾐﾅﾄｸ","kana_address":"ｱｶｻｶﾐｯﾄﾞﾀｳﾝ･ﾀﾜｰ","pref":"東京都","city":"港区","address":"赤坂ミッドタウン・タワー"},
{"zip_code":"1070061","kana_pref":"ﾄｳｷｮｳﾄ","kana_city":"ﾐﾅﾄｸ","kana_address":"ｷﾀｱｵﾔﾏ","pref":"東京都","city":"港区","address":"北青山"},
{"zip_code":"1070062","kana_pref":"ﾄｳｷｮｳﾄ","kana_city":"ﾐﾅﾄｸ","kana_address":"ﾐﾅﾐｱｵﾔﾏ","pref":"東京都","city":"港区","address":"南青山"},
{"zip_code":"1070051","kana_pref":"ﾄｳｷｮｳﾄ","kana_city":"ﾐﾅﾄｸ","kana_address":"ﾓﾄｱｶｻｶ","pref":"東京都","city":"港区","address":"元赤坂"}]}