{"zip_code":[
{"zip_code":"1080022","kana_pref":"ﾄｳｷｮｳﾄ","kana_city":"ﾐﾅﾄｸ","kana_address":"ｶｲｶﾞﾝ","pref":"東京都","city":"港区","address":"海岸"},
{"zip_code":"1080075","kana_pref":"ﾄｳｷｮｳﾄ","kana_city":"ﾐﾅﾄｸ","kana_address":"ｺｳﾅﾝ","pref":"東京都","city":"港区","address":"港南"},
{"zip_code":"1086090","kana_pref":"ﾄｳｷｮｳﾄ","kana_city":"ﾐﾅﾄｸ","kana_address":"ｺｳﾅﾝｼﾅｶﾞﾜｲﾝﾀｰｼﾃｨAﾄｳ","pref":"東京都","city":"港区","address":"港南品川インターシティＡ棟"},
{"zip_code":"1086001","kana_pref":"ﾄｳｷｮｳﾄ","kana_city":"ﾐﾅﾄｸ","kana_address":"ｺｳﾅﾝｼﾅｶﾞﾜｲﾝﾀｰｼﾃｨAﾄｳ","pref":"東京都","city":"港区","address":"港南品川インターシティＡ棟"},
{"zip_code":"1086002","kana_pref":"ﾄｳｷｮｳﾄ","kana_city":"ﾐﾅﾄｸ","kana_address":"ｺｳﾅﾝｼﾅｶﾞﾜｲﾝﾀｰｼﾃｨAﾄｳ","pref":"東京都","city":"港区","address":"港南品川インターシティＡ棟"},
{"zip_code":"1086003","kana_pref":"ﾄｳｷｮｳﾄ","kana_city":"ﾐﾅﾄｸ","kana_address":"ｺｳﾅﾝｼﾅｶﾞﾜｲﾝﾀｰｼﾃｨAﾄｳ","pref":"東京都","city":"港区","address":"港南品川インターシティＡ棟"},
{"zip_code":"1086004","kana_pref":"ﾄｳｷｮｳﾄ","kana_city":"ﾐﾅﾄｸ","kana_address":"ｺｳﾅﾝｼﾅｶﾞﾜｲﾝﾀｰｼﾃｨAﾄｳ","pref":"東京都","city":"港区","address":"港南品川インターシティＡ棟"},
{"zip_code":"1086005","kana_pref":"ﾄｳｷｮｳﾄ","kana_city":"ﾐﾅﾄｸ","kana_address":"ｺｳﾅﾝｼﾅｶﾞﾜｲﾝﾀｰｼﾃｨAﾄｳ","pref":"東京都","city":"港区","address":"港南品川インターシティＡ棟"},
{"zip_code":"1086006","kana_pref":"ﾄｳｷｮｳﾄ","kana_city":"ﾐﾅﾄｸ","kana_address":"ｺｳﾅﾝｼﾅｶﾞﾜｲﾝﾀｰｼﾃｨAﾄｳ","pref":"東京都","city":"港区","address":"港南品川インターシティＡ棟"},
{"zip_code":"1086007","kana_pref":"ﾄｳｷｮｳﾄ","kana_city":"ﾐﾅﾄｸ","kana_address":"ｺｳﾅﾝｼﾅｶﾞﾜｲﾝﾀｰｼﾃｨAﾄｳ","pref":"東京都","city":"港区","address":"港南品川インターシティＡ棟"},
{"zip_code":"1086008","kana_pref":"ﾄｳｷｮｳﾄ","kana_city":"ﾐﾅﾄｸ","kana_address":"ｺｳﾅﾝｼﾅｶﾞﾜｲﾝﾀｰｼﾃｨAﾄｳ","pref":"東京都","city":"港区","address":"港南品川インターシティＡ棟"},
{"zip_code":"1086009","kana_pref":"ﾄｳｷｮｳﾄ","kana_city":"ﾐﾅﾄｸ","kana_address":"ｺｳﾅﾝｼﾅｶﾞﾜｲﾝﾀｰｼﾃｨAﾄｳ","pref":"東京都","city":"港区","address":"港南品川インターシティＡ棟"},
{"zip_code":"1086010","kana_pref":"ﾄｳｷｮｳﾄ","kana_city":"ﾐﾅﾄｸ","kana_address":"ｺｳﾅﾝｼﾅｶﾞﾜｲﾝﾀｰｼﾃｨAﾄｳ","pref":"東京都","city":"港区","address":"港南品川インターシティＡ棟"},
{"zip_code":"1086011","kana_pref":"ﾄｳｷｮｳﾄ","kana_city":"ﾐﾅﾄｸ","kana_address":"ｺｳﾅﾝｼﾅｶﾞﾜｲﾝﾀｰｼﾃｨAﾄｳ","pref":"東京都","city":"港区","address":"港南品川インターシティＡ棟"},
{"zip_code":"1086012","kana_pref":"ﾄｳｷｮｳﾄ","kana_city":"ﾐﾅﾄｸ","kana_address":"ｺｳﾅﾝｼﾅｶﾞﾜｲﾝﾀｰｼﾃｨAﾄｳ","pref":"東京都","city":"港区","address":"港南品川インターシティＡ棟"},
{"zip_code":"1086013","kana_pref":"ﾄｳｷｮｳﾄ","kana_city":"ﾐﾅﾄｸ","kana_address":"ｺｳﾅﾝｼﾅｶﾞﾜｲﾝﾀｰｼﾃｨAﾄｳ","pref":"東京都","city":"港区","address":"港南品川インターシティＡ棟"},
{"zip_code":"1086014","kana_pref":"ﾄｳｷｮｳﾄ","kana_city":"ﾐﾅﾄｸ","kana_address":"ｺｳﾅﾝｼﾅｶﾞﾜｲﾝﾀｰｼﾃｨAﾄｳ","pref":"東京都","city":"港区","address":"港南品川インターシティＡ棟"},
{"zip_code":"1086015","kana_pref":"ﾄｳｷｮｳﾄ","kana_city":"ﾐﾅﾄｸ","kana_address":"ｺｳﾅﾝｼﾅｶﾞﾜｲﾝﾀｰｼﾃｨAﾄｳ","pref":"東京都","city":"港区","address":"港南品川インターシティＡ棟"},
{"zip_code":"1086016","kana_pref":"ﾄｳｷｮｳﾄ","kana_city":"ﾐﾅﾄｸ","kana_address":"ｺｳﾅﾝｼﾅｶﾞﾜｲﾝﾀｰｼﾃｨAﾄｳ","pref":"東京都","city":"港区","address":"港南品川インターシティＡ棟"},
{"zip_code":"1086017","kana_pref":"ﾄｳｷｮｳﾄ","kana_city":"ﾐﾅﾄｸ","kana_address":"ｺｳﾅﾝｼﾅｶﾞﾜｲﾝﾀｰｼﾃｨAﾄｳ","pref":"東京都","city":"港区","address":"港南品川インターシティＡ棟"},
{"zip_code":"1086018","kana_pref":"ﾄｳｷｮｳﾄ","kana_city":"ﾐﾅﾄｸ","kana_address":"ｺｳﾅﾝｼﾅｶﾞﾜｲﾝﾀｰｼﾃｨAﾄｳ","pref":"東京都","city":"港区","address":"港南品川インターシティＡ棟"},
{"zip_code":"1086019","kana_pref":"ﾄｳｷｮｳﾄ","kana_city":"ﾐﾅﾄｸ","kana_address":"ｺｳﾅﾝｼﾅｶﾞﾜｲﾝﾀｰｼﾃｨAﾄｳ","pref":"東京都","city":"港区","address":"港南品川インターシティＡ棟"},
{"zip_code":"1086020","kana_pref":"ﾄｳｷｮｳﾄ","kana_city":"ﾐﾅﾄｸ","kana_address":"ｺｳﾅﾝｼﾅｶﾞﾜｲﾝﾀｰｼﾃｨAﾄｳ","pref":"東京都","city":"港区","address":"港南品川インターシティＡ棟"},
{"zip_code":"1086021","kana_pref":"ﾄｳｷｮｳﾄ","kana_city":"ﾐﾅﾄｸ","kana_address":"ｺｳﾅﾝｼﾅｶﾞﾜｲﾝﾀｰｼﾃｨAﾄｳ","pref":"東京都","city":"港区","address":"港南品川インターシティＡ棟"},
{"zip_code":"1086022","kana_pref":"ﾄｳｷｮｳﾄ","kana_city":"ﾐﾅﾄｸ","kana_address":"ｺｳﾅﾝｼﾅｶﾞﾜｲﾝﾀｰｼﾃｨAﾄｳ","pref":"東京都","city":"港区","address":"港南品川インターシティＡ棟"},
{"zip_code":"1086023","kana_pref":"ﾄｳｷｮｳﾄ","kana_city":"ﾐﾅﾄｸ","kana_address":"ｺｳﾅﾝｼﾅｶﾞﾜｲﾝﾀｰｼﾃｨAﾄｳ","pref":"東京都","city":"港区","address":"港南品川インターシティＡ棟"},
{"zip_code":"1086024","kana_pref":"ﾄｳｷｮｳﾄ","kana_city":"ﾐﾅﾄｸ","kana_address":"ｺｳﾅﾝｼﾅｶﾞﾜｲﾝﾀｰｼﾃｨAﾄｳ","pref":"東京都","city":"港区","address":"港南品川インターシティＡ棟"},
{"zip_code":"1086025","kana_pref":"ﾄｳｷｮｳﾄ","kana_city":"ﾐﾅﾄｸ","kana_address":"ｺｳﾅﾝｼﾅｶﾞﾜｲﾝﾀｰｼﾃｨAﾄｳ","pref":"東京都","city":"港区","address":"港南品川インターシティＡ棟"},
{"zip_code":"1086026","kana_pref":"ﾄｳｷｮｳﾄ","kana_city":"ﾐﾅﾄｸ","kana_address":"ｺｳﾅﾝｼﾅｶﾞﾜｲﾝﾀｰｼﾃｨAﾄｳ","pref":"東京都","city":"港区","address":"港南品川インターシティＡ棟"},
{"zip_code":"1086027","kana_pref":"ﾄｳｷｮｳﾄ","kana_city":"ﾐﾅﾄｸ","kana_address":"ｺｳﾅﾝｼﾅｶﾞﾜｲﾝﾀｰｼﾃｨAﾄｳ","pref":"東京都","city":"港区","address":"港南品川インターシティＡ棟"},
{"zip_code":"1086028","kana_pref":"ﾄｳｷｮｳﾄ","kana_city":"ﾐﾅﾄｸ","kana_address":"ｺｳﾅﾝｼﾅｶﾞﾜｲﾝﾀｰｼﾃｨAﾄｳ","pref":"東京都","city":"港区","address":"港南品川インターシティＡ棟"},
{"zip_code":"1086029","kana_pref":"ﾄｳｷｮｳﾄ","kana_city":"ﾐﾅﾄｸ","kana_address":"ｺｳﾅﾝｼﾅｶﾞﾜｲﾝﾀｰｼﾃｨAﾄｳ","pref":"東京都","city":"港区","address":"港南品川インターシティＡ棟"},
{"zip_code":"1086030","kana_pref":"ﾄｳｷｮｳﾄ","kana_city":"ﾐﾅﾄｸ","kana_address":"ｺｳﾅﾝｼﾅｶﾞﾜｲﾝﾀｰｼﾃｨAﾄｳ","pref":"東京都","city":"港区","address":"港南品川インターシティＡ棟"},
{"zip_code":"1086031","kana_pref":"ﾄｳｷｮｳﾄ","kana_city":"ﾐﾅﾄｸ","kana_address":"ｺｳﾅﾝｼﾅｶﾞﾜｲﾝﾀｰｼﾃｨAﾄｳ","pref":"東京都","city":"港区","address":"港南品川インターシティＡ棟"},
{"zip_code":"1086032","kana_pref":"ﾄｳｷｮｳﾄ","kana_city":"ﾐﾅﾄｸ","kana_address":"ｺｳﾅﾝｼﾅｶﾞﾜｲﾝﾀｰｼﾃｨAﾄｳ","pref":"東京都","city":"港区","address":"港南品川インターシティＡ棟"},
{"zip_code":"1086190","kana_pref":"ﾄｳｷｮｳﾄ","kana_city":"ﾐﾅﾄｸ","kana_address":"ｺｳﾅﾝｼﾅｶﾞﾜｲﾝﾀｰｼﾃｨBﾄｳ","pref":"東京都","city":"港区","address":"港南品川インターシティＢ棟"},
{"zip_code":"1086101","kana_pref":"ﾄｳｷｮｳﾄ","kana_city":"ﾐﾅﾄｸ","kana_address":"ｺｳﾅﾝｼﾅｶﾞﾜｲﾝﾀｰｼﾃｨBﾄｳ","pref":"東京都","city":"港区","address":"港南品川インターシティＢ棟"},
{"zip_code":"1086102","kana_pref":"ﾄｳｷｮｳﾄ","kana_city":"ﾐﾅﾄｸ","kana_address":"ｺｳﾅﾝｼﾅｶﾞﾜｲﾝﾀｰｼﾃｨBﾄｳ","pref":"東京都","city":"港区","address":"港南品川インターシティＢ棟"},
{"zip_code":"1086103","kana_pref":"ﾄｳｷｮｳﾄ","kana_city":"ﾐﾅﾄｸ","kana_address":"ｺｳﾅﾝｼﾅｶﾞﾜｲﾝﾀｰｼﾃｨBﾄｳ","pref":"東京都","city":"港区","address":"港南品川インターシティＢ棟"},
{"zip_code":"1086104","kana_pref":"ﾄｳｷｮｳﾄ","kana_city":"ﾐﾅﾄｸ","kana_address":"ｺｳﾅﾝｼﾅｶﾞﾜｲﾝﾀｰｼﾃｨBﾄｳ","pref":"東京都","city":"港区","address":"港南品川インターシティＢ棟"},
{"zip_code":"1086105","kana_pref":"ﾄｳｷｮｳﾄ","kana_city":"ﾐﾅﾄｸ","kana_address":"ｺｳﾅﾝｼﾅｶﾞﾜｲﾝﾀｰｼﾃｨBﾄｳ","pref":"東京都","city":"港区","address":"港南品川インターシティＢ棟"},
{"zip_code":"1086106","kana_pref":"ﾄｳｷｮｳﾄ","kana_city":"ﾐﾅﾄｸ","kana_address":"ｺｳﾅﾝｼﾅｶﾞﾜｲﾝﾀｰｼﾃｨBﾄｳ","pref":"東京都","city":"港区","address":"港南品川インターシティＢ棟"},
{"zip_code":"1086107","kana_pref":"ﾄｳｷｮｳﾄ","kana_city":"ﾐﾅﾄｸ","kana_address":"ｺｳﾅﾝｼﾅｶﾞﾜｲﾝﾀｰｼﾃｨBﾄｳ","pref":"東京都","city":"港区","address":"港南品川インターシティＢ棟"},
{"zip_code":"1086108","kana_pref":"ﾄｳｷｮｳﾄ","kana_city":"ﾐﾅﾄｸ","kana_address":"ｺｳﾅﾝｼﾅｶﾞﾜｲﾝﾀｰｼﾃｨBﾄｳ","pref":"東京都","city":"港区","address":"港南品川インターシティＢ棟"},
{"zip_code":"1086109","kana_pref":"ﾄｳｷｮｳﾄ","kana_city":"ﾐﾅﾄｸ","kana_address":"ｺｳﾅﾝｼﾅｶﾞﾜｲﾝﾀｰｼﾃｨBﾄｳ","pref":"東京都","city":"港区","address":"港南品川インターシティＢ棟"},
{"zip_code":"1086110","kana_pref":"ﾄｳｷｮｳﾄ","kana_city":"ﾐﾅﾄｸ","kana_address":"ｺｳﾅﾝｼﾅｶﾞﾜｲﾝﾀｰｼﾃｨBﾄｳ","pref":"東京都","city":"港区","address":"港南品川インターシティＢ棟"},
{"zip_code":"1086111","kana_pref":"ﾄｳｷｮｳﾄ","kana_city":"ﾐﾅﾄｸ","kana_address":"ｺｳﾅﾝｼﾅｶﾞﾜｲﾝﾀｰｼﾃｨBﾄｳ","pref":"東京都","city":"港区","address":"港南品川インターシティＢ棟"},
{"zip_code":"1086112","kana_pref":"ﾄｳｷｮｳﾄ","kana_city":"ﾐﾅﾄｸ","kana_address":"ｺｳﾅﾝｼﾅｶﾞﾜｲﾝﾀｰｼﾃｨBﾄｳ","pref":"東京都","city":"港区","address":"港南品川インターシティＢ棟"},
{"zip_code":"1086113","kana_pref":"ﾄｳｷｮｳﾄ","kana_city":"ﾐﾅﾄｸ","kana_address":"ｺｳﾅﾝｼﾅｶﾞﾜｲﾝﾀｰｼﾃｨBﾄｳ","pref":"東京都","city":"港区","address":"港南品川インターシティＢ棟"},
{"zip_code":"1086114","kana_pref":"ﾄｳｷｮｳﾄ","kana_city":"ﾐﾅﾄｸ","kana_address":"ｺｳﾅﾝｼﾅｶﾞﾜｲﾝﾀｰｼﾃｨBﾄｳ","pref":"東京都","city":"港区","address":"港南品川インターシティＢ棟"},
{"zip_code":"1086115","kana_pref":"ﾄｳｷｮｳﾄ","kana_city":"ﾐﾅﾄｸ","kana_address":"ｺｳﾅﾝｼﾅｶﾞﾜｲﾝﾀｰｼﾃｨBﾄｳ","pref":"東京都","city":"港区","address":"港南品川インターシティＢ棟"},
{"zip_code":"1086116","kana_pref":"ﾄｳｷｮｳﾄ","kana_city":"ﾐﾅﾄｸ","kana_address":"ｺｳﾅﾝｼﾅｶﾞﾜｲﾝﾀｰｼﾃｨBﾄｳ","pref":"東京都","city":"港区","address":"港南品川インターシティＢ棟"},
{"zip_code":"1086117","kana_pref":"ﾄｳｷｮｳﾄ","kana_city":"ﾐﾅﾄｸ","kana_address":"ｺｳﾅﾝｼﾅｶﾞﾜｲﾝﾀｰｼﾃｨBﾄｳ","pref":"東京都","city":"港区","address":"港南品川インターシティＢ棟"},
{"zip_code":"1086118","kana_pref":"ﾄｳｷｮｳﾄ","kana_city":"ﾐﾅﾄｸ","kana_address":"ｺｳﾅﾝｼﾅｶﾞﾜｲﾝﾀｰｼﾃｨBﾄｳ","pref":"東京都","city":"港区","address":"港南品川インターシティＢ棟"},
{"zip_code":"1086119","kana_pref":"ﾄｳｷｮｳﾄ","kana_city":"ﾐﾅﾄｸ","kana_address":"ｺｳﾅﾝｼﾅｶﾞﾜｲﾝﾀｰｼﾃｨBﾄｳ","pref":"東京都","city":"港区","address":"港南品川インターシティＢ棟"},
{"zip_code":"1086120","kana_pref":"ﾄｳｷｮｳﾄ","kana_city":"ﾐﾅﾄｸ","kana_address":"ｺｳﾅﾝｼﾅｶﾞﾜｲﾝﾀｰｼﾃｨBﾄｳ","pref":"東京都","city":"港区","address":"港南品川インターシティＢ棟"},
{"zip_code":"1086121","kana_pref":"ﾄｳｷｮｳﾄ","kana_city":"ﾐﾅﾄｸ","kana_address":"ｺｳﾅﾝｼﾅｶﾞﾜｲﾝﾀｰｼﾃｨBﾄｳ","pref":"東京都","city":"港区","address":"港南品川インターシティＢ棟"},
{"zip_code":"1086122","kana_pref":"ﾄｳｷｮｳﾄ","kana_city":"ﾐﾅﾄｸ","kana_address":"ｺｳﾅﾝｼﾅｶﾞﾜｲﾝﾀｰｼﾃｨBﾄｳ","pref":"東京都","city":"港区","address":"港南品川インターシティＢ棟"},
{"zip_code":"1086123","kana_pref":"ﾄｳｷｮｳﾄ","kana_city":"ﾐﾅﾄｸ","kana_address":"ｺｳﾅﾝｼﾅｶﾞﾜｲﾝﾀｰｼﾃｨBﾄｳ","pref":"東京都","city":"港区","address":"港南品川インターシティＢ棟"},
{"zip_code":"1086124","kana_pref":"ﾄｳｷｮｳﾄ","kana_city":"ﾐﾅﾄｸ","kana_address":"ｺｳﾅﾝｼﾅｶﾞﾜｲﾝﾀｰｼﾃｨBﾄｳ","pref":"東京都","city":"港区","address":"港南品川インターシティＢ棟"},
{"zip_code":"1086125","kana_pref":"ﾄｳｷｮｳﾄ","kana_city":"ﾐﾅﾄｸ","kana_address":"ｺｳﾅﾝｼﾅｶﾞﾜｲﾝﾀｰｼﾃｨBﾄｳ","pref":"東京都","city":"港区","address":"港南品川インターシティＢ棟"},
{"zip_code":"1086126","kana_pref":"ﾄｳｷｮｳﾄ","kana_city":"ﾐﾅﾄｸ","kana_address":"ｺｳﾅﾝｼﾅｶﾞﾜｲﾝﾀｰｼﾃｨBﾄｳ","pref":"東京都","city":"港区","address":"港南品川インターシティＢ棟"},
{"zip_code":"1086127","kana_pref":"ﾄｳｷｮｳﾄ","kana_city":"ﾐﾅﾄｸ","kana_address":"ｺｳﾅﾝｼﾅｶﾞﾜｲﾝﾀｰｼﾃｨBﾄｳ","pref":"東京都","city":"港区","address":"港南品川インターシティＢ棟"},
{"zip_code":"1086128","kana_pref":"ﾄｳｷｮｳﾄ","kana_city":"ﾐﾅﾄｸ","kana_address":"ｺｳﾅﾝｼﾅｶﾞﾜｲﾝﾀｰｼﾃｨBﾄｳ","pref":"東京都","city":"港区","address":"港南品川インターシティＢ棟"},
{"zip_code":"1086129","kana_pref":"ﾄｳｷｮｳﾄ","kana_city":"ﾐﾅﾄｸ","kana_address":"ｺｳﾅﾝｼﾅｶﾞﾜｲﾝﾀｰｼﾃｨBﾄｳ","pref":"東京都","city":"港区","address":"港南品川インターシティＢ棟"},
{"zip_code":"1086130","kana_pref":"ﾄｳｷｮｳﾄ","kana_city":"ﾐﾅﾄｸ","kana_address":"ｺｳﾅﾝｼﾅｶﾞﾜｲﾝﾀｰｼﾃｨBﾄｳ","pref":"東京都","city":"港区","address":"港南品川インターシティＢ棟"},
{"zip_code":"1086131","kana_pref":"ﾄｳｷｮｳﾄ","kana_city":"ﾐﾅﾄｸ","kana_address":"ｺｳﾅﾝｼﾅｶﾞﾜｲﾝﾀｰｼﾃｨBﾄｳ","pref":"東京都","city":"港区","address":"港南品川インターシティＢ棟"},
{"zip_code":"1086290","kana_pref":"ﾄｳｷｮｳﾄ","kana_city":"ﾐﾅﾄｸ","kana_address":"ｺｳﾅﾝｼﾅｶﾞﾜｲﾝﾀｰｼﾃｨCﾄｳ","pref":"東京都","city":"港区","address":"港南品川インターシティＣ棟"},
{"zip_code":"1086201","kana_pref":"ﾄｳｷｮｳﾄ","kana_city":"ﾐﾅﾄｸ","kana_address":"ｺｳﾅﾝｼﾅｶﾞﾜｲﾝﾀｰｼﾃｨCﾄｳ","pref":"東京都","city":"港区","address":"港南品川インターシティＣ棟"},
{"zip_code":"1086202","kana_pref":"ﾄｳｷｮｳﾄ","kana_city":"ﾐﾅﾄｸ","kana_address":"ｺｳﾅﾝｼﾅｶﾞﾜｲﾝﾀｰｼﾃｨCﾄｳ","pref":"東京都","city":"港区","address":"港南品川インターシティＣ棟"},
{"zip_code":"1086203","kana_pref":"ﾄｳｷｮｳﾄ","kana_city":"ﾐﾅﾄｸ","kana_address":"ｺｳﾅﾝｼﾅｶﾞﾜｲﾝﾀｰｼﾃｨCﾄｳ","pref":"東京都","city":"港区","address":"港南品川インターシティＣ棟"},
{"zip_code":"1086204","kana_pref":"ﾄｳｷｮｳﾄ","kana_city":"ﾐﾅﾄｸ","kana_address":"ｺｳﾅﾝｼﾅｶﾞﾜｲﾝﾀｰｼﾃｨCﾄｳ","pref":"東京都","city":"港区","address":"港南品川インターシティＣ棟"},
{"zip_code":"1086205","kana_pref":"ﾄｳｷｮｳﾄ","kana_city":"ﾐﾅﾄｸ","kana_address":"ｺｳﾅﾝｼﾅｶﾞﾜｲﾝﾀｰｼﾃｨCﾄｳ","pref":"東京都","city":"港区","address":"港南品川インターシティＣ棟"},
{"zip_code":"1086206","kana_pref":"ﾄｳｷｮｳﾄ","kana_city":"ﾐﾅﾄｸ","kana_address":"ｺｳﾅﾝｼﾅｶﾞﾜｲﾝﾀｰｼﾃｨCﾄｳ","pref":"東京都","city":"港区","address":"港南品川インターシティＣ棟"},
{"zip_code":"1086207","kana_pref":"ﾄｳｷｮｳﾄ","kana_city":"ﾐﾅﾄｸ","kana_address":"ｺｳﾅﾝｼﾅｶﾞﾜｲﾝﾀｰｼﾃｨCﾄｳ","pref":"東京都","city":"港区","address":"港南品川インターシティＣ棟"},
{"zip_code":"1086208","kana_pref":"ﾄｳｷｮｳﾄ","kana_city":"ﾐﾅﾄｸ","kana_address":"ｺｳﾅﾝｼﾅｶﾞﾜｲﾝﾀｰｼﾃｨCﾄｳ","pref":"東京都","city":"港区","address":"港南品川インターシティＣ棟"},
{"zip_code":"1086209","kana_pref":"ﾄｳｷｮｳﾄ","kana_city":"ﾐﾅﾄｸ","kana_address":"ｺｳﾅﾝｼﾅｶﾞﾜｲﾝﾀｰｼﾃｨCﾄｳ","pref":"東京都","city":"港区","address":"港南品川インターシティＣ棟"},
{"zip_code":"1086210","kana_pref":"ﾄｳｷｮｳﾄ","kana_city":"ﾐﾅﾄｸ","kana_address":"ｺｳﾅﾝｼﾅｶﾞﾜｲﾝﾀｰｼﾃｨCﾄｳ","pref":"東京都","city":"港区","address":"港南品川インターシティＣ棟"},
{"zip_code":"1086211","kana_pref":"ﾄｳｷｮｳﾄ","kana_city":"ﾐﾅﾄｸ","kana_address":"ｺｳﾅﾝｼﾅｶﾞﾜｲﾝﾀｰｼﾃｨCﾄｳ","pref":"東京都","city":"港区","address":"港南品川インターシティＣ棟"},
{"zip_code":"1086212","kana_pref":"ﾄｳｷｮｳﾄ","kana_city":"ﾐﾅﾄｸ","kana_address":"ｺｳﾅﾝｼﾅｶﾞﾜｲﾝﾀｰｼﾃｨCﾄｳ","pref":"東京都","city":"港区","address":"港南品川インターシティＣ棟"},
{"zip_code":"1086213","kana_pref":"ﾄｳｷｮｳﾄ","kana_city":"ﾐﾅﾄｸ","kana_address":"ｺｳﾅﾝｼﾅｶﾞﾜｲﾝﾀｰｼﾃｨCﾄｳ","pref":"東京都","city":"港区","address":"港南品川インターシティＣ棟"},
{"zip_code":"1086214","kana_pref":"ﾄｳｷｮｳﾄ","kana_city":"ﾐﾅﾄｸ","kana_address":"ｺｳﾅﾝｼﾅｶﾞﾜｲﾝﾀｰｼﾃｨCﾄｳ","pref":"東京都","city":"港区","address":"港南品川インターシティＣ棟"},
{"zip_code":"1086215","kana_pref":"ﾄｳｷｮｳﾄ","kana_city":"ﾐﾅﾄｸ","kana_address":"ｺｳﾅﾝｼﾅｶﾞﾜｲﾝﾀｰｼﾃｨCﾄｳ","pref":"東京都","city":"港区","address":"港南品川インターシティＣ棟"},
{"zip_code":"1086216","kana_pref":"ﾄｳｷｮｳﾄ","kana_city":"ﾐﾅﾄｸ","kana_address":"ｺｳﾅﾝｼﾅｶﾞﾜｲﾝﾀｰｼﾃｨCﾄｳ","pref":"東京都","city":"港区","address":"港南品川インターシティＣ棟"},
{"zip_code":"1086217","kana_pref":"ﾄｳｷｮｳﾄ","kana_city":"ﾐﾅﾄｸ","kana_address":"ｺｳﾅﾝｼﾅｶﾞﾜｲﾝﾀｰｼﾃｨCﾄｳ","pref":"東京都","city":"港区","address":"港南品川インターシティＣ棟"},
{"zip_code":"1086218","kana_pref":"ﾄｳｷｮｳﾄ","kana_city":"ﾐﾅﾄｸ","kana_address":"ｺｳﾅﾝｼﾅｶﾞﾜｲﾝﾀｰｼﾃｨCﾄｳ","pref":"東京都","city":"港区","address":"港南品川インターシティＣ棟"},
{"zip_code":"1086219","kana_pref":"ﾄｳｷｮｳﾄ","kana_city":"ﾐﾅﾄｸ","kana_address":"ｺｳﾅﾝｼﾅｶﾞﾜｲﾝﾀｰｼﾃｨCﾄｳ","pref":"東京都","city":"港区","address":"港南品川インターシティＣ棟"},
{"zip_code":"1086220","kana_pref":"ﾄｳｷｮｳﾄ","kana_city":"ﾐﾅﾄｸ","kana_address":"ｺｳﾅﾝｼﾅｶﾞﾜｲﾝﾀｰｼﾃｨCﾄｳ","pref":"東京都","city":"港区","address":"港南品川インターシティＣ棟"},
{"zip_code":"1086221","kana_pref":"ﾄｳｷｮｳﾄ","kana_city":"ﾐﾅﾄｸ","kana_address":"ｺｳﾅﾝｼﾅｶﾞﾜｲﾝﾀｰｼﾃｨCﾄｳ","pref":"東京都","city":"港区","address":"港南品川インターシティＣ棟"},
{"zip_code":"1086222","kana_pref":"ﾄｳｷｮｳﾄ","kana_city":"ﾐﾅﾄｸ","kana_address":"ｺｳﾅﾝｼﾅｶﾞﾜｲﾝﾀｰｼﾃｨCﾄｳ","pref":"東京都","city":"港区","address":"港南品川インターシティＣ棟"},
{"zip_code":"1086223","kana_pref":"ﾄｳｷｮｳﾄ","kana_city":"ﾐﾅﾄｸ","kana_address":"ｺｳﾅﾝｼﾅｶﾞﾜｲﾝﾀｰｼﾃｨCﾄｳ","pref":"東京都","city":"港区","address":"港南品川インターシティＣ棟"},
{"zip_code":"1086224","kana_pref":"ﾄｳｷｮｳﾄ","kana_city":"ﾐﾅﾄｸ","kana_address":"ｺｳﾅﾝｼﾅｶﾞﾜｲﾝﾀｰｼﾃｨCﾄｳ","pref":"東京都","city":"港区","address":"港南品川インターシティＣ棟"},
{"zip_code":"1086225","kana_pref":"ﾄｳｷｮｳﾄ","kana_city":"ﾐﾅﾄｸ","kana_address":"ｺｳﾅﾝｼﾅｶﾞﾜｲﾝﾀｰｼﾃｨCﾄｳ","pref":"東京都","city":"港区","address":"港南品川インターシティＣ棟"},
{"zip_code":"1086226","kana_pref":"ﾄｳｷｮｳﾄ","kana_city":"ﾐﾅﾄｸ","kana_address":"ｺｳﾅﾝｼﾅｶﾞﾜｲﾝﾀｰｼﾃｨCﾄｳ","pref":"東京都","city":"港区","address":"港南品川インターシティＣ棟"},
{"zip_code":"1086227","kana_pref":"ﾄｳｷｮｳﾄ","kana_city":"ﾐﾅﾄｸ","kana_address":"ｺｳﾅﾝｼﾅｶﾞﾜｲﾝﾀｰｼﾃｨCﾄｳ","pref":"東京都","city":"港区","address":"港南品川インターシティＣ棟"},
{"zip_code":"1086228","kana_pref":"ﾄｳｷｮｳﾄ","kana_city":"ﾐﾅﾄｸ","kana_address":"ｺｳﾅﾝｼﾅｶﾞﾜｲﾝﾀｰｼﾃｨCﾄｳ","pref":"東京都","city":"港区","address":"港南品川インターシティＣ棟"},
{"zip_code":"1086229","kana_pref":"ﾄｳｷｮｳﾄ","kana_city":"ﾐﾅﾄｸ","kana_address":"ｺｳﾅﾝｼﾅｶﾞﾜｲﾝﾀｰｼﾃｨCﾄｳ","pref":"東京都","city":"港区","address":"港南品川インターシティＣ棟"},
{"zip_code":"1086230","kana_pref":"ﾄｳｷｮｳﾄ","kana_city":"ﾐﾅﾄｸ","kana_address":"ｺｳﾅﾝｼﾅｶﾞﾜｲﾝﾀｰｼﾃｨCﾄｳ","pref":"東京都","city":"港区","address":"港南品川インターシティＣ棟"},
{"zip_code":"1086231","kana_pref":"ﾄｳｷｮｳﾄ","kana_city":"ﾐﾅﾄｸ","kana_address":"ｺｳﾅﾝｼﾅｶﾞﾜｲﾝﾀｰｼﾃｨCﾄｳ","pref":"東京都","city":"港区","address":"港南品川インターシティＣ棟"},
{"zip_code":"1080014","kana_pref":"ﾄｳｷｮｳﾄ","kana_city":"ﾐﾅﾄｸ","kana_address":"ｼﾊﾞ","pref":"東京都","city":"港区","address":"芝"},
{"zip_code":"1080023","kana_pref":"ﾄｳｷｮｳﾄ","kana_city":"ﾐﾅﾄｸ","kana_address":"ｼﾊﾞｳﾗ","pref":"東京都","city":"港区","address":"芝浦"},
{"zip_code":"1080072","kana_pref":"ﾄｳｷｮｳﾄ","kana_city":"ﾐﾅﾄｸ","kana_address":"ｼﾛｶﾈ","pref":"東京都","city":"港区","address":"白金"},
{"zip_code":"1080071","kana_pref":"ﾄｳｷｮｳﾄ","kana_city":"ﾐﾅﾄｸ","kana_address":"ｼﾛｶﾈﾀﾞｲ","pref":"東京都","city":"港区","address":"白金台"},
{"zip_code":"1080074","kana_pref":"ﾄｳｷｮｳﾄ","kana_city":"ﾐﾅﾄｸ","kana_address":"ﾀｶﾅﾜ","pref":"東京都","city":"港区","address":"高輪"},
{"zip_code":"1080073","kana_pref":"ﾄｳｷｮｳﾄ","kana_city":"ﾐﾅﾄｸ","kana_address":"ﾐﾀ","pref":"東京都","city":"港区","address":"三田"},
{"zip_code":"1086390","kana_pref":"ﾄｳｷｮｳﾄ","kana_city":"ﾐﾅﾄｸ","kana_address":"ﾐﾀｽﾐﾄﾓﾌﾄﾞｳｻﾝﾐﾀﾂｲﾝﾋﾞﾙﾆｼｶﾝ","pref":"東京都","city":"港区","address":"三田住友不動産三田ツインビル西館"},
{"zip_code":"1086301","kana_pref":"ﾄｳｷｮｳﾄ","kana_city":"ﾐﾅﾄｸ","kana_address":"ﾐﾀｽﾐﾄﾓﾌﾄﾞｳｻﾝﾐﾀﾂｲﾝﾋﾞﾙﾆｼｶﾝ","pref":"東京都","city":"港区","address":"三田住友不動産三田ツインビル西館"},
{"zip_code":"1086302","kana_pref":"ﾄｳｷｮｳﾄ","kana_city":"ﾐﾅﾄｸ","kana_address":"ﾐﾀｽﾐﾄﾓﾌﾄﾞｳｻﾝﾐﾀﾂｲﾝﾋﾞﾙﾆｼｶﾝ","pref":"東京都","city":"港区","address":"三田住友不動産三田ツインビル西館"},
{"zip_code":"1086303","kana_pref":"ﾄｳｷｮｳﾄ","kana_city":"ﾐﾅﾄｸ","kana_address":"ﾐﾀｽﾐﾄﾓﾌﾄﾞｳｻﾝﾐﾀﾂｲﾝﾋﾞﾙﾆｼｶﾝ","pref":"東京都","city":"港区","address":"三田住友不動産三田ツインビル西館"},
{"zip_code":"1086304","kana_pref":"ﾄｳｷｮｳﾄ","kana_city":"ﾐﾅﾄｸ","kana_address":"ﾐﾀｽﾐﾄﾓﾌﾄﾞｳｻﾝﾐﾀﾂｲﾝﾋﾞﾙﾆｼｶﾝ","pref":"東京都","city":"港区","address":"三田住友不動産三田ツインビル西館"},
{"zip_code":"1086305","kana_pref":"ﾄｳｷｮｳﾄ","kana_city":"ﾐﾅﾄｸ","kana_address":"ﾐﾀｽﾐﾄﾓﾌﾄﾞｳｻﾝﾐﾀﾂｲﾝﾋﾞﾙﾆｼｶﾝ","pref":"東京都","city":"港区","address":"三田住友不動産三田ツインビル西館"},
{"zip_code":"1086306","kana_pref":"ﾄｳｷｮｳﾄ","kana_city":"ﾐﾅﾄｸ","kana_address":"ﾐﾀｽﾐﾄﾓﾌﾄﾞｳｻﾝﾐﾀﾂｲﾝﾋﾞﾙﾆｼｶﾝ","pref":"東京都","city":"港区","address":"三田住友不動産三田ツインビル西館"},
{"zip_code":"1086307","kana_pref":"ﾄｳｷｮｳﾄ","kana_city":"ﾐﾅﾄｸ","kana_address":"ﾐﾀｽﾐﾄﾓﾌﾄﾞｳｻﾝﾐﾀﾂｲﾝﾋﾞﾙﾆｼｶﾝ","pref":"東京都","city":"港区","address":"三田住友不動産三田ツインビル西館"},
{"zip_code":"1086308","kana_pref":"ﾄｳｷｮｳﾄ","kana_city":"ﾐﾅﾄｸ","kana_address":"ﾐﾀｽﾐﾄﾓﾌﾄﾞｳｻﾝﾐﾀﾂｲﾝﾋﾞﾙﾆｼｶﾝ","pref":"東京都","city":"港区","address":"三田住友不動産三田ツインビル西館"},
{"zip_code":"1086309","kana_pref":"ﾄｳｷｮｳﾄ","kana_city":"ﾐﾅﾄｸ","kana_address":"ﾐﾀｽﾐﾄﾓﾌﾄﾞｳｻﾝﾐﾀﾂｲﾝﾋﾞﾙﾆｼｶﾝ","pref":"東京都","city":"港区","address":"三田住友不動産三田ツインビル西館"},
{"zip_code":"1086310","kana_pref":"ﾄｳｷｮｳﾄ","kana_city":"ﾐﾅﾄｸ","kana_address":"ﾐﾀｽﾐﾄﾓﾌﾄﾞｳｻﾝﾐﾀﾂｲﾝﾋﾞﾙﾆｼｶﾝ","pref":"東京都","city":"港区","address":"三田住友不動産三田ツインビル西館"},
{"zip_code":"1086311","kana_pref":"ﾄｳｷｮｳﾄ","kana_city":"ﾐﾅﾄｸ","kana_address":"ﾐﾀｽﾐﾄﾓﾌﾄﾞｳｻﾝﾐﾀﾂｲﾝﾋﾞﾙﾆｼｶﾝ","pref":"東京都","city":"港区","address":"三田住友不動産三田ツインビル西館"},
{"zip_code":"1086312","kana_pref":"ﾄｳｷｮｳﾄ","kana_city":"ﾐﾅﾄｸ","kana_address":"ﾐﾀｽﾐﾄﾓﾌﾄﾞｳｻﾝﾐﾀﾂｲﾝﾋﾞﾙﾆｼｶﾝ","pref":"東京都","city":"港区","address":"三田住友不動産三田ツインビル西館"},
{"zip_code":"1086313","kana_pref":"ﾄｳｷｮｳﾄ","kana_city":"ﾐﾅﾄｸ","kana_address":"ﾐﾀｽﾐﾄﾓﾌﾄﾞｳｻﾝﾐﾀﾂｲﾝﾋﾞﾙﾆｼｶﾝ","pref":"東京都","city":"港区","address":"三田住友不動産三田ツインビル西館"},
{"zip_code":"1086314","kana_pref":"ﾄｳｷｮｳﾄ","kana_city":"ﾐﾅﾄｸ","kana_address":"ﾐﾀｽﾐﾄﾓﾌﾄﾞｳｻﾝﾐﾀﾂｲﾝﾋﾞﾙﾆｼｶﾝ","pref":"東京都","city":"港区","address":"三田住友不動産三田ツインビル西館"},
{"zip_code":"1086315","kana_pref":"ﾄｳｷｮｳﾄ","kana_city":"ﾐﾅﾄｸ","kana_address":"ﾐﾀｽﾐﾄﾓﾌﾄﾞｳｻﾝﾐﾀﾂｲﾝﾋﾞﾙﾆｼｶﾝ","pref":"東京都","city":"港区","address":"三田住友不動産三田ツインビル西館"},
{"zip_code":"1086316","kana_pref":"ﾄｳｷｮｳﾄ","kana_city":"ﾐﾅﾄｸ","kana_address":"ﾐﾀｽﾐﾄﾓﾌﾄﾞｳｻﾝﾐﾀﾂｲﾝﾋﾞﾙﾆｼｶﾝ","pref":"東京都","city":"港区","address":"三田住友不動産三田ツインビル西館"},
{"zip_code":"1086317","kana_pref":"ﾄｳｷｮｳﾄ","kana_city":"ﾐﾅﾄｸ","kana_address":"ﾐﾀｽﾐﾄﾓﾌﾄﾞｳｻﾝﾐﾀﾂｲﾝﾋﾞﾙﾆｼｶﾝ","pref":"東京都","city":"港区","address":"三田住友不動産三田ツインビル西館"},
{"zip_code":"1086318","kana_pref":"ﾄｳｷｮｳﾄ","kana_city":"ﾐﾅﾄｸ","kana_address":"ﾐﾀｽﾐﾄﾓﾌﾄﾞｳｻﾝﾐﾀﾂｲﾝﾋﾞﾙﾆｼｶﾝ","pref":"東京都","city":"港区","address":"三田住友不動産三田ツインビル西館"},
{"zip_code":"1086319","kana_pref":"ﾄｳｷｮｳﾄ","kana_city":"ﾐﾅﾄｸ","kana_address":"ﾐﾀｽﾐﾄﾓﾌﾄﾞｳｻﾝﾐﾀﾂｲﾝﾋﾞﾙﾆｼｶﾝ","pref":"東京都","city":"港区","address":"三田住友不動産三田ツインビル西館"},
{"zip_code":"1086320","kana_pref":"ﾄｳｷｮｳﾄ","kana_city":"ﾐﾅﾄｸ","kana_address":"ﾐﾀｽﾐﾄﾓﾌﾄﾞｳｻﾝﾐﾀﾂｲﾝﾋﾞﾙﾆｼｶﾝ","pref":"東京都","city":"港区","address":"三田住友不動産三田ツインビル西館"},
{"zip_code":"1086321","kana_pref":"ﾄｳｷｮｳﾄ","kana_city":"ﾐﾅﾄｸ","kana_address":"ﾐﾀｽﾐﾄﾓﾌﾄﾞｳｻﾝﾐﾀﾂｲﾝﾋﾞﾙﾆｼｶﾝ","pref":"東京都","city":"港区","address":"三田住友不動産三田ツインビル西館"},
{"zip_code":"1086322","kana_pref":"ﾄｳｷｮｳﾄ","kana_city":"ﾐﾅﾄｸ","kana_address":"ﾐﾀｽﾐﾄﾓﾌﾄﾞｳｻﾝﾐﾀﾂｲﾝﾋﾞﾙﾆｼｶﾝ","pref":"東京都","city":"港区","address":"三田住友不動産三田ツインビル西館"},
{"zip_code":"1086323","kana_pref":"ﾄｳｷｮｳﾄ","kana_city":"ﾐﾅﾄｸ","kana_address":"ﾐﾀｽﾐﾄﾓﾌﾄﾞｳｻﾝﾐﾀﾂｲﾝﾋﾞﾙﾆｼｶﾝ","pref":"東京都","city":"港区","address":"三田住友不動産三田ツインビル西館"},
{"zip_code":"1086324","kana_pref":"ﾄｳｷｮｳﾄ","kana_city":"ﾐﾅﾄｸ","kana_address":"ﾐﾀｽﾐﾄﾓﾌﾄﾞｳｻﾝﾐﾀﾂｲﾝﾋﾞﾙﾆｼｶﾝ","pref":"東京都","city":"港区","address":"三田住友不動産三田ツインビル西館"},
{"zip_code":"1086325","kana_pref":"ﾄｳｷｮｳﾄ","kana_city":"ﾐﾅﾄｸ","kana_address":"ﾐﾀｽﾐﾄﾓﾌﾄﾞｳｻﾝﾐﾀﾂｲﾝﾋﾞﾙﾆｼｶﾝ","pref":"東京都","city":"港区","address":"三田住友不動産三田ツインビル西館"},
{"zip_code":"1086326","kana_pref":"ﾄｳｷｮｳﾄ","kana_city":"ﾐﾅﾄｸ","kana_address":"ﾐﾀｽﾐﾄﾓﾌﾄﾞｳｻﾝﾐﾀﾂｲﾝﾋﾞﾙﾆｼｶﾝ","pref":"東京都","city":"港区","address":"三田住友不動産三田ツインビル西館"},
{"zip_code":"1086327","kana_pref":"ﾄｳｷｮｳﾄ","kana_city":"ﾐﾅﾄｸ","kana_address":"ﾐﾀｽﾐﾄﾓﾌﾄﾞｳｻﾝﾐﾀﾂｲﾝﾋﾞﾙﾆｼｶﾝ","pref":"東京都","city":"港区","address":"三田住友不動産三田ツインビル西館"},
{"zip_code":"1086328","kana_pref":"ﾄｳｷｮｳﾄ","kana_city":"ﾐﾅﾄｸ","kana_address":"ﾐﾀｽﾐﾄﾓﾌﾄﾞｳｻﾝﾐﾀﾂｲﾝﾋﾞﾙﾆｼｶﾝ","pref":"東京都","city":"港区","address":"三田住友不動産三田ツインビル西館"},
{"zip_code":"1086329","kana_pref":"ﾄｳｷｮｳﾄ","kana_city":"ﾐﾅﾄｸ","kana_address":"ﾐﾀｽﾐﾄﾓﾌﾄﾞｳｻﾝﾐﾀﾂｲﾝﾋﾞﾙﾆｼｶﾝ","pref":"東京都","city":"港区","address":"三田住友不動産三田ツインビル西館"},
{"zip_code":"1086330","kana_pref":"ﾄｳｷｮｳﾄ","kana_city":"ﾐﾅﾄｸ","kana_address":"ﾐﾀｽﾐﾄﾓﾌﾄﾞｳｻﾝﾐﾀﾂｲﾝﾋﾞﾙﾆｼｶﾝ","pref":"東京都","city":"港区","address":"三田住友不動産三田ツインビル西館"}]}