{"zip_code":[
{"zip_code":"1100000","kana_pref":"ﾄｳｷｮｳﾄ","kana_city":"ﾀｲﾄｳｸ","kana_address":"","pref":"東京都","city":"台東区","address":""},
{"zip_code":"1100006","kana_pref":"ﾄｳｷｮｳﾄ","kana_city":"ﾀｲﾄｳｸ","kana_address":"ｱｷﾊﾊﾞﾗ","pref":"東京都","city":"台東区","address":"秋葉原"},
{"zip_code":"1100008","kana_pref":"ﾄｳｷｮｳﾄ","kana_city":"ﾀｲﾄｳｸ","kana_address":"ｲｹﾉﾊﾀ","pref":"東京都","city":"台東区","address":"池之端"},
{"zip_code":"1100013","kana_pref":"ﾄｳｷｮｳﾄ","kana_city":"ﾀｲﾄｳｸ","kana_address":"ｲﾘﾔ","pref":"東京都","city":"台東区","address":"入谷"},
{"zip_code":"1100005","kana_pref":"ﾄｳｷｮｳﾄ","kana_city":"ﾀｲﾄｳｸ","kana_address":"ｳｴﾉ","pref":"東京都","city":"台東区","address":"上野"},
{"zip_code":"1100007","kana_pref":"ﾄｳｷｮｳﾄ","kana_city":"ﾀｲﾄｳｸ","kana_address":"ｳｴﾉｺｳｴﾝ","pref":"東京都","city":"台東区","address":"上野公園"},
{"zip_code":"1100002","kana_pref":"ﾄｳｷｮｳﾄ","kana_city":"ﾀｲﾄｳｸ","kana_address":"ｳｴﾉｻｸﾗｷﾞ","pref":"東京都","city":"台東区","address":"上野桜木"},
{"zip_code":"1100014","kana_pref":"ﾄｳｷｮｳﾄ","kana_city":"ﾀｲﾄｳｸ","kana_address":"ｷﾀｳｴﾉ","pref":"東京都","city":"台東区","address":"北上野"},
{"zip_code":"1100004","kana_pref":"ﾄｳｷｮｳﾄ","kana_city":"ﾀｲﾄｳｸ","kana_address":"ｼﾀﾔ","pref":"東京都","city":"台東区","address":"下谷"},
{"zip_code":"1100016","kana_pref":"ﾄｳｷｮｳﾄ","kana_city":"ﾀｲﾄｳｸ","kana_address":"ﾀｲﾄｳ","pref":"東京都","city":"台東区","address":"台東"},
{"zip_code":"1100003","kana_pref":"ﾄｳｷｮｳﾄ","kana_city":"ﾀｲﾄｳｸ","kana_address":"ﾈｷﾞｼ","pref":"東京都","city":"台東区","address":"根岸"},
{"zip_code":"1100015","kana_pref":"ﾄｳｷｮｳﾄ","kana_city":"ﾀｲﾄｳｸ","kana_address":"ﾋｶﾞｼｳｴﾉ","pref":"東京都","city":"台東区","address":"東上野"},
{"zip_code":"1100011","kana_pref":"ﾄｳｷｮｳﾄ","kana_city":"ﾀｲﾄｳｸ","kana_address":"ﾐﾉﾜ","pref":"東京都","city":"台東区","address":"三ノ輪"},
{"zip_code":"1100001","kana_pref":"ﾄｳｷｮｳﾄ","kana_city":"ﾀｲﾄｳｸ","kana_address":"ﾔﾅｶ","pref":"東京都","city":"台東区","address":"谷中"},
{"zip_code":"1100012","kana_pref":"ﾄｳｷｮｳﾄ","kana_city":"ﾀｲﾄｳｸ","kana_address":"ﾘｭｳｾﾝ","pref":"東京都","city":"台東区","address":"竜泉"}]}