{"zip_code":[
{"zip_code":"1120000","kana_pref":"ﾄｳｷｮｳﾄ","kana_city":"ﾌﾞﾝｷｮｳｸ","kana_address":"","pref":"東京都","city":"文京区","address":""},
{"zip_code":"1120012","kana_pref":"ﾄｳｷｮｳﾄ","kana_city":"ﾌﾞﾝｷｮｳｸ","kana_address":"ｵｵﾂｶ","pref":"東京都","city":"文京区","address":"大塚"},
{"zip_code":"1120013","kana_pref":"ﾄｳｷｮｳﾄ","kana_city":"ﾌﾞﾝｷｮｳｸ","kana_address":"ｵﾄﾜ","pref":"東京都","city":"文京区","address":"音羽"},
{"zip_code":"1120003","kana_pref":"ﾄｳｷｮｳﾄ","kana_city":"ﾌﾞﾝｷｮｳｸ","kana_address":"ｶｽｶﾞ","pref":"東京都","city":"文京区","address":"春日"},
{"zip_code":"1120002","kana_pref":"ﾄｳｷｮｳﾄ","kana_city":"ﾌﾞﾝｷｮｳｸ","kana_address":"ｺｲｼｶﾜ","pref":"東京都","city":"文京区","address":"小石川"},
{"zip_code":"1120004","kana_pref":"ﾄｳｷｮｳﾄ","kana_city":"ﾌﾞﾝｷｮｳｸ","kana_address":"ｺｳﾗｸ","pref":"東京都","city":"文京区","address":"後楽"},
{"zip_code":"1120006","kana_pref":"ﾄｳｷｮｳﾄ","kana_city":"ﾌﾞﾝｷｮｳｸ","kana_address":"ｺﾋﾅﾀ","pref":"東京都","city":"文京区","address":"小日向"},
{"zip_code":"1120005","kana_pref":"ﾄｳｷｮｳﾄ","kana_city":"ﾌﾞﾝｷｮｳｸ","kana_address":"ｽｲﾄﾞｳ","pref":"東京都","city":"文京区","address":"水道"},
{"zip_code":"1120014","kana_pref":"ﾄｳｷｮｳﾄ","kana_city":"ﾌﾞﾝｷｮｳｸ","kana_address":"ｾｷｸﾞﾁ","pref":"東京都","city":"文京区","address":"関口"},
{"zip_code":"1120011","kana_pref":"ﾄｳｷｮｳﾄ","kana_city":"ﾌﾞﾝｷｮｳｸ","kana_address":"ｾﾝｺﾞｸ","pref":"東京都","city":"文京区","address":"千石"},
{"zip_code":"1120001","kana_pref":"ﾄｳｷｮｳﾄ","kana_city":"ﾌﾞﾝｷｮｳｸ","kana_address":"ﾊｸｻﾝ","pref":"東京都","city":"文京区","address":"白山"},
{"zip_code":"1120015","kana_pref":"ﾄｳｷｮｳﾄ","kana_city":"ﾌﾞﾝｷｮｳｸ","kana_address":"ﾒｼﾞﾛﾀﾞｲ","pref":"東京都","city":"文京区","address":"目白台"}]}