{"zip_code":[
{"zip_code":"1140000","kana_pref":"ﾄｳｷｮｳﾄ","kana_city":"ｷﾀｸ","kana_address":"","pref":"東京都","city":"北区","address":""},
{"zip_code":"1140002","kana_pref":"ﾄｳｷｮｳﾄ","kana_city":"ｷﾀｸ","kana_address":"ｵｳｼﾞ","pref":"東京都","city":"北区","address":"王子"},
{"zip_code":"1140022","kana_pref":"ﾄｳｷｮｳﾄ","kana_city":"ｷﾀｸ","kana_address":"ｵｳｼﾞﾎﾝﾁｮｳ","pref":"東京都","city":"北区","address":"王子本町"},
{"zip_code":"1140034","kana_pref":"ﾄｳｷｮｳﾄ","kana_city":"ｷﾀｸ","kana_address":"ｶﾐｼﾞｭｳｼﾞｮｳ","pref":"東京都","city":"北区","address":"上十条"},
{"zip_code":"1140016","kana_pref":"ﾄｳｷｮｳﾄ","kana_city":"ｷﾀｸ","kana_address":"ｶﾐﾅｶｻﾞﾄ","pref":"東京都","city":"北区","address":"上中里"},
{"zip_code":"1140021","kana_pref":"ﾄｳｷｮｳﾄ","kana_city":"ｷﾀｸ","kana_address":"ｷｼﾏﾁ","pref":"東京都","city":"北区","address":"岸町"},
{"zip_code":"1140005","kana_pref":"ﾄｳｷｮｳﾄ","kana_city":"ｷﾀｸ","kana_address":"ｻｶｴﾁｮｳ","pref":"東京都","city":"北区","address":"栄町"},
{"zip_code":"1140033","kana_pref":"ﾄｳｷｮｳﾄ","kana_city":"ｷﾀｸ","kana_address":"ｼﾞｭｳｼﾞｮｳﾀﾞｲ","pref":"東京都","city":"北区","address":"十条台"},
{"zip_code":"1140031","kana_pref":"ﾄｳｷｮｳﾄ","kana_city":"ｷﾀｸ","kana_address":"ｼﾞｭｳｼﾞｮｳﾅｶﾊﾗ","pref":"東京都","city":"北区","address":"十条仲原"},
{"zip_code":"1140011","kana_pref":"ﾄｳｷｮｳﾄ","kana_city":"ｷﾀｸ","kana_address":"ｼｮｳﾜﾏﾁ","pref":"東京都","city":"北区","address":"昭和町"},
{"zip_code":"1140023","kana_pref":"ﾄｳｷｮｳﾄ","kana_city":"ｷﾀｸ","kana_address":"ﾀｷﾉｶﾞﾜ","pref":"東京都","city":"北区","address":"滝野川"},
{"zip_code":"1140014","kana_pref":"ﾄｳｷｮｳﾄ","kana_city":"ｷﾀｸ","kana_address":"ﾀﾊﾞﾀ","pref":"東京都","city":"北区","address":"田端"},
{"zip_code":"1140012","kana_pref":"ﾄｳｷｮｳﾄ","kana_city":"ｷﾀｸ","kana_address":"ﾀﾊﾞﾀｼﾝﾏﾁ","pref":"東京都","city":"北区","address":"田端新町"},
{"zip_code":"1140003","kana_pref":"ﾄｳｷｮｳﾄ","kana_city":"ｷﾀｸ","kana_address":"ﾄｼﾏ","pref":"東京都","city":"北区","address":"豊島"},
{"zip_code":"1140015","kana_pref":"ﾄｳｷｮｳﾄ","kana_city":"ｷﾀｸ","kana_address":"ﾅｶｻﾞﾄ","pref":"東京都","city":"北区","address":"中里"},
{"zip_code":"1140032","kana_pref":"ﾄｳｷｮｳﾄ","kana_city":"ｷﾀｸ","kana_address":"ﾅｶｼﾞｭｳｼﾞｮｳ","pref":"東京都","city":"北区","address":"中十条"},
{"zip_code":"1140024","kana_pref":"ﾄｳｷｮｳﾄ","kana_city":"ｷﾀｸ","kana_address":"ﾆｼｶﾞﾊﾗ","pref":"東京都","city":"北区","address":"西ケ原"},
{"zip_code":"1140001","kana_pref":"ﾄｳｷｮｳﾄ","kana_city":"ｷﾀｸ","kana_address":"ﾋｶﾞｼｼﾞｭｳｼﾞｮｳ","pref":"東京都","city":"北区","address":"東十条"},
{"zip_code":"1140013","kana_pref":"ﾄｳｷｮｳﾄ","kana_city":"ｷﾀｸ","kana_address":"ﾋｶﾞｼﾀﾊﾞﾀ","pref":"東京都","city":"北区","address":"東田端"},
{"zip_code":"1140004","kana_pref":"ﾄｳｷｮｳﾄ","kana_city":"ｷﾀｸ","kana_address":"ﾎﾘﾌﾈ","pref":"東京都","city":"北区","address":"堀船"}]}