{"zip_code":[
{"zip_code":"1160000","kana_pref":"ﾄｳｷｮｳﾄ","kana_city":"ｱﾗｶﾜｸ","kana_address":"","pref":"東京都","city":"荒川区","address":""},
{"zip_code":"1160002","kana_pref":"ﾄｳｷｮｳﾄ","kana_city":"ｱﾗｶﾜｸ","kana_address":"ｱﾗｶﾜ","pref":"東京都","city":"荒川区","address":"荒川"},
{"zip_code":"1160011","kana_pref":"ﾄｳｷｮｳﾄ","kana_city":"ｱﾗｶﾜｸ","kana_address":"ﾆｼｵｸﾞ","pref":"東京都","city":"荒川区","address":"西尾久"},
{"zip_code":"1160013","kana_pref":"ﾄｳｷｮｳﾄ","kana_city":"ｱﾗｶﾜｸ","kana_address":"ﾆｼﾆｯﾎﾟﾘ","pref":"東京都","city":"荒川区","address":"西日暮里"},
{"zip_code":"1160012","kana_pref":"ﾄｳｷｮｳﾄ","kana_city":"ｱﾗｶﾜｸ","kana_address":"ﾋｶﾞｼｵｸﾞ","pref":"東京都","city":"荒川区","address":"東尾久"},
{"zip_code":"1160014","kana_pref":"ﾄｳｷｮｳﾄ","kana_city":"ｱﾗｶﾜｸ","kana_address":"ﾋｶﾞｼﾆｯﾎﾟﾘ","pref":"東京都","city":"荒川区","address":"東日暮里"},
{"zip_code":"1160001","kana_pref":"ﾄｳｷｮｳﾄ","kana_city":"ｱﾗｶﾜｸ","kana_address":"ﾏﾁﾔ","pref":"東京都","city":"荒川区","address":"町屋"},
{"zip_code":"1160003","kana_pref":"ﾄｳｷｮｳﾄ","kana_city":"ｱﾗｶﾜｸ","kana_address":"ﾐﾅﾐｾﾝｼﾞｭ","pref":"東京都","city":"荒川区","address":"南千住"}]}