{"zip_code":[
{"zip_code":"1240000","kana_pref":"ﾄｳｷｮｳﾄ","kana_city":"ｶﾂｼｶｸ","kana_address":"","pref":"東京都","city":"葛飾区","address":""},
{"zip_code":"1240022","kana_pref":"ﾄｳｷｮｳﾄ","kana_city":"ｶﾂｼｶｸ","kana_address":"ｵｸﾄﾞ","pref":"東京都","city":"葛飾区","address":"奥戸"},
{"zip_code":"1240003","kana_pref":"ﾄｳｷｮｳﾄ","kana_city":"ｶﾂｼｶｸ","kana_address":"ｵﾊﾅﾁﾞｬﾔ","pref":"東京都","city":"葛飾区","address":"お花茶屋"},
{"zip_code":"1240001","kana_pref":"ﾄｳｷｮｳﾄ","kana_city":"ｶﾂｼｶｸ","kana_address":"ｺｽｹﾞ","pref":"東京都","city":"葛飾区","address":"小菅"},
{"zip_code":"1240024","kana_pref":"ﾄｳｷｮｳﾄ","kana_city":"ｶﾂｼｶｸ","kana_address":"ｼﾝｺｲﾜ","pref":"東京都","city":"葛飾区","address":"新小岩"},
{"zip_code":"1240005","kana_pref":"ﾄｳｷｮｳﾄ","kana_city":"ｶﾂｼｶｸ","kana_address":"ﾀｶﾗﾏﾁ","pref":"東京都","city":"葛飾区","address":"宝町"},
{"zip_code":"1240012","kana_pref":"ﾄｳｷｮｳﾄ","kana_city":"ｶﾂｼｶｸ","kana_address":"ﾀﾃｲｼ","pref":"東京都","city":"葛飾区","address":"立石"},
{"zip_code":"1240002","kana_pref":"ﾄｳｷｮｳﾄ","kana_city":"ｶﾂｼｶｸ","kana_address":"ﾆｼｶﾒｱﾘ","pref":"東京都","city":"葛飾区","address":"西亀有"},
{"zip_code":"1240025","kana_pref":"ﾄｳｷｮｳﾄ","kana_city":"ｶﾂｼｶｸ","kana_address":"ﾆｼｼﾝｺｲﾜ","pref":"東京都","city":"葛飾区","address":"西新小岩"},
{"zip_code":"1240023","kana_pref":"ﾄｳｷｮｳﾄ","kana_city":"ｶﾂｼｶｸ","kana_address":"ﾋｶﾞｼｼﾝｺｲﾜ","pref":"東京都","city":"葛飾区","address":"東新小岩"},
{"zip_code":"1240013","kana_pref":"ﾄｳｷｮｳﾄ","kana_city":"ｶﾂｼｶｸ","kana_address":"ﾋｶﾞｼﾀﾃｲｼ","pref":"東京都","city":"葛飾区","address":"東立石"},
{"zip_code":"1240004","kana_pref":"ﾄｳｷｮｳﾄ","kana_city":"ｶﾂｼｶｸ","kana_address":"ﾋｶﾞｼﾎﾘｷﾘ","pref":"東京都","city":"葛飾区","address":"東堀切"},
{"zip_code":"1240014","kana_pref":"ﾄｳｷｮｳﾄ","kana_city":"ｶﾂｼｶｸ","kana_address":"ﾋｶﾞｼﾖﾂｷﾞ","pref":"東京都","city":"葛飾区","address":"東四つ木"},
{"zip_code":"1240021","kana_pref":"ﾄｳｷｮｳﾄ","kana_city":"ｶﾂｼｶｸ","kana_address":"ﾎｿﾀﾞ","pref":"東京都","city":"葛飾区","address":"細田"},
{"zip_code":"1240006","kana_pref":"ﾄｳｷｮｳﾄ","kana_city":"ｶﾂｼｶｸ","kana_address":"ﾎﾘｷﾘ","pref":"東京都","city":"葛飾区","address":"堀切"},
{"zip_code":"1240011","kana_pref":"ﾄｳｷｮｳﾄ","kana_city":"ｶﾂｼｶｸ","kana_address":"ﾖﾂｷﾞ","pref":"東京都","city":"葛飾区","address":"四つ木"}]}