{"zip_code":[
{"zip_code":"1310045","kana_pref":"ﾄｳｷｮｳﾄ","kana_city":"ｽﾐﾀﾞｸ","kana_address":"ｵｼｱｹﾞ","pref":"東京都","city":"墨田区","address":"押上"},
{"zip_code":"1310046","kana_pref":"ﾄｳｷｮｳﾄ","kana_city":"ｽﾐﾀﾞｸ","kana_address":"ｷｮｳｼﾞﾏ","pref":"東京都","city":"墨田区","address":"京島"},
{"zip_code":"1310031","kana_pref":"ﾄｳｷｮｳﾄ","kana_city":"ｽﾐﾀﾞｸ","kana_address":"ｽﾐﾀﾞ","pref":"東京都","city":"墨田区","address":"墨田"},
{"zip_code":"1310043","kana_pref":"ﾄｳｷｮｳﾄ","kana_city":"ｽﾐﾀﾞｸ","kana_address":"ﾀﾁﾊﾞﾅ","pref":"東京都","city":"墨田区","address":"立花"},
{"zip_code":"1310034","kana_pref":"ﾄｳｷｮｳﾄ","kana_city":"ｽﾐﾀﾞｸ","kana_address":"ﾂﾂﾐﾄﾞｵﾘ","pref":"東京都","city":"墨田区","address":"堤通"},
{"zip_code":"1310042","kana_pref":"ﾄｳｷｮｳﾄ","kana_city":"ｽﾐﾀﾞｸ","kana_address":"ﾋｶﾞｼｽﾐﾀﾞ","pref":"東京都","city":"墨田区","address":"東墨田"},
{"zip_code":"1310032","kana_pref":"ﾄｳｷｮｳﾄ","kana_city":"ｽﾐﾀﾞｸ","kana_address":"ﾋｶﾞｼﾑｺｳｼﾞﾏ","pref":"東京都","city":"墨田区","address":"東向島"},
{"zip_code":"1310044","kana_pref":"ﾄｳｷｮｳﾄ","kana_city":"ｽﾐﾀﾞｸ","kana_address":"ﾌﾞﾝｶ","pref":"東京都","city":"墨田区","address":"文花"},
{"zip_code":"1310033","kana_pref":"ﾄｳｷｮｳﾄ","kana_city":"ｽﾐﾀﾞｸ","kana_address":"ﾑｺｳｼﾞﾏ","pref":"東京都","city":"墨田区","address":"向島"},
{"zip_code":"1310041","kana_pref":"ﾄｳｷｮｳﾄ","kana_city":"ｽﾐﾀﾞｸ","kana_address":"ﾔﾋﾛ","pref":"東京都","city":"墨田区","address":"八広"}]}