{"zip_code":[
{"zip_code":"1330042","kana_pref":"ﾄｳｷｮｳﾄ","kana_city":"ｴﾄﾞｶﾞﾜｸ","kana_address":"ｵｷﾉﾐﾔﾁｮｳ","pref":"東京都","city":"江戸川区","address":"興宮町"},
{"zip_code":"1330041","kana_pref":"ﾄｳｷｮｳﾄ","kana_city":"ｴﾄﾞｶﾞﾜｸ","kana_address":"ｶﾐｲｯｼｷ","pref":"東京都","city":"江戸川区","address":"上一色"},
{"zip_code":"1330054","kana_pref":"ﾄｳｷｮｳﾄ","kana_city":"ｴﾄﾞｶﾞﾜｸ","kana_address":"ｶﾐｼﾉｻﾞｷ","pref":"東京都","city":"江戸川区","address":"上篠崎"},
{"zip_code":"1330051","kana_pref":"ﾄｳｷｮｳﾄ","kana_city":"ｴﾄﾞｶﾞﾜｸ","kana_address":"ｷﾀｺｲﾜ","pref":"東京都","city":"江戸川区","address":"北小岩"},
{"zip_code":"1330053","kana_pref":"ﾄｳｷｮｳﾄ","kana_city":"ｴﾄﾞｶﾞﾜｸ","kana_address":"ｷﾀｼﾉｻﾞｷ","pref":"東京都","city":"江戸川区","address":"北篠崎"},
{"zip_code":"1330073","kana_pref":"ﾄｳｷｮｳﾄ","kana_city":"ｴﾄﾞｶﾞﾜｸ","kana_address":"ｼｼﾎﾞﾈ","pref":"東京都","city":"江戸川区","address":"鹿骨"},
{"zip_code":"1330072","kana_pref":"ﾄｳｷｮｳﾄ","kana_city":"ｴﾄﾞｶﾞﾜｸ","kana_address":"ｼｼﾎﾞﾈﾁｮｳ","pref":"東京都","city":"江戸川区","address":"鹿骨町"},
{"zip_code":"1330061","kana_pref":"ﾄｳｷｮｳﾄ","kana_city":"ｴﾄﾞｶﾞﾜｸ","kana_address":"ｼﾉｻﾞｷﾏﾁ","pref":"東京都","city":"江戸川区","address":"篠崎町"},
{"zip_code":"1330064","kana_pref":"ﾄｳｷｮｳﾄ","kana_city":"ｴﾄﾞｶﾞﾜｸ","kana_address":"ｼﾓｼﾉｻﾞｷﾏﾁ","pref":"東京都","city":"江戸川区","address":"下篠崎町"},
{"zip_code":"1330057","kana_pref":"ﾄｳｷｮｳﾄ","kana_city":"ｴﾄﾞｶﾞﾜｸ","kana_address":"ﾆｼｺｲﾜ","pref":"東京都","city":"江戸川区","address":"西小岩"},
{"zip_code":"1330055","kana_pref":"ﾄｳｷｮｳﾄ","kana_city":"ｴﾄﾞｶﾞﾜｸ","kana_address":"ﾆｼｼﾉｻﾞｷ","pref":"東京都","city":"江戸川区","address":"西篠崎"},
{"zip_code":"1330052","kana_pref":"ﾄｳｷｮｳﾄ","kana_city":"ｴﾄﾞｶﾞﾜｸ","kana_address":"ﾋｶﾞｼｺｲﾜ","pref":"東京都","city":"江戸川区","address":"東小岩"},
{"zip_code":"1330063","kana_pref":"ﾄｳｷｮｳﾄ","kana_city":"ｴﾄﾞｶﾞﾜｸ","kana_address":"ﾋｶﾞｼｼﾉｻﾞｷ","pref":"東京都","city":"江戸川区","address":"東篠崎"},
{"zip_code":"1330062","kana_pref":"ﾄｳｷｮｳﾄ","kana_city":"ｴﾄﾞｶﾞﾜｸ","kana_address":"ﾋｶﾞｼｼﾉｻﾞｷﾏﾁ","pref":"東京都","city":"江戸川区","address":"東篠崎町"},
{"zip_code":"1330071","kana_pref":"ﾄｳｷｮｳﾄ","kana_city":"ｴﾄﾞｶﾞﾜｸ","kana_address":"ﾋｶﾞｼﾏﾂﾓﾄ","pref":"東京都","city":"江戸川区","address":"東松本"},
{"zip_code":"1330044","kana_pref":"ﾄｳｷｮｳﾄ","kana_city":"ｴﾄﾞｶﾞﾜｸ","kana_address":"ﾎﾝｲｯｼｷ","pref":"東京都","city":"江戸川区","address":"本一色"},
{"zip_code":"1330043","kana_pref":"ﾄｳｷｮｳﾄ","kana_city":"ｴﾄﾞｶﾞﾜｸ","kana_address":"ﾏﾂﾓﾄ","pref":"東京都","city":"江戸川区","address":"松本"},
{"zip_code":"1330056","kana_pref":"ﾄｳｷｮｳﾄ","kana_city":"ｴﾄﾞｶﾞﾜｸ","kana_address":"ﾐﾅﾐｺｲﾜ","pref":"東京都","city":"江戸川区","address":"南小岩"},
{"zip_code":"1330065","kana_pref":"ﾄｳｷｮｳﾄ","kana_city":"ｴﾄﾞｶﾞﾜｸ","kana_address":"ﾐﾅﾐｼﾉｻﾞｷﾏﾁ","pref":"東京都","city":"江戸川区","address":"南篠崎町"},
{"zip_code":"1330002","kana_pref":"ﾄｳｷｮｳﾄ","kana_city":"ｴﾄﾞｶﾞﾜｸ","kana_address":"ﾔｺﾞｳﾁ","pref":"東京都","city":"江戸川区","address":"谷河内"}]}