{"zip_code":[
{"zip_code":"1340092","kana_pref":"ﾄｳｷｮｳﾄ","kana_city":"ｴﾄﾞｶﾞﾜｸ","kana_address":"ｲﾁﾉｴﾁｮｳ","pref":"東京都","city":"江戸川区","address":"一之江町"},
{"zip_code":"1340082","kana_pref":"ﾄｳｷｮｳﾄ","kana_city":"ｴﾄﾞｶﾞﾜｸ","kana_address":"ｳｷﾀﾁｮｳ","pref":"東京都","city":"江戸川区","address":"宇喜田町"},
{"zip_code":"1340013","kana_pref":"ﾄｳｷｮｳﾄ","kana_city":"ｴﾄﾞｶﾞﾜｸ","kana_address":"ｴﾄﾞｶﾞﾜ","pref":"東京都","city":"江戸川区","address":"江戸川"},
{"zip_code":"1340081","kana_pref":"ﾄｳｷｮｳﾄ","kana_city":"ｴﾄﾞｶﾞﾜｸ","kana_address":"ｷﾀｶｻｲ","pref":"東京都","city":"江戸川区","address":"北葛西"},
{"zip_code":"1340087","kana_pref":"ﾄｳｷｮｳﾄ","kana_city":"ｴﾄﾞｶﾞﾜｸ","kana_address":"ｾｲｼﾝﾁｮｳ","pref":"東京都","city":"江戸川区","address":"清新町"},
{"zip_code":"1340083","kana_pref":"ﾄｳｷｮｳﾄ","kana_city":"ｴﾄﾞｶﾞﾜｸ","kana_address":"ﾅｶｶｻｲ","pref":"東京都","city":"江戸川区","address":"中葛西"},
{"zip_code":"1340088","kana_pref":"ﾄｳｷｮｳﾄ","kana_city":"ｴﾄﾞｶﾞﾜｸ","kana_address":"ﾆｼｶｻｲ","pref":"東京都","city":"江戸川区","address":"西葛西"},
{"zip_code":"1340015","kana_pref":"ﾄｳｷｮｳﾄ","kana_city":"ｴﾄﾞｶﾞﾜｸ","kana_address":"ﾆｼﾐｽﾞｴ","pref":"東京都","city":"江戸川区","address":"西瑞江"},
{"zip_code":"1340093","kana_pref":"ﾄｳｷｮｳﾄ","kana_city":"ｴﾄﾞｶﾞﾜｸ","kana_address":"ﾆﾉｴﾁｮｳ","pref":"東京都","city":"江戸川区","address":"二之江町"},
{"zip_code":"1340003","kana_pref":"ﾄｳｷｮｳﾄ","kana_city":"ｴﾄﾞｶﾞﾜｸ","kana_address":"ﾊﾙｴﾁｮｳ","pref":"東京都","city":"江戸川区","address":"春江町"},
{"zip_code":"1340084","kana_pref":"ﾄｳｷｮｳﾄ","kana_city":"ｴﾄﾞｶﾞﾜｸ","kana_address":"ﾋｶﾞｼｶｻｲ","pref":"東京都","city":"江戸川区","address":"東葛西"},
{"zip_code":"1340091","kana_pref":"ﾄｳｷｮｳﾄ","kana_city":"ｴﾄﾞｶﾞﾜｸ","kana_address":"ﾌﾅﾎﾞﾘ","pref":"東京都","city":"江戸川区","address":"船堀"},
{"zip_code":"1340085","kana_pref":"ﾄｳｷｮｳﾄ","kana_city":"ｴﾄﾞｶﾞﾜｸ","kana_address":"ﾐﾅﾐｶｻｲ","pref":"東京都","city":"江戸川区","address":"南葛西"},
{"zip_code":"1340086","kana_pref":"ﾄｳｷｮｳﾄ","kana_city":"ｴﾄﾞｶﾞﾜｸ","kana_address":"ﾘﾝｶｲﾁｮｳ","pref":"東京都","city":"江戸川区","address":"臨海町"}]}