{"zip_code":[
{"zip_code":"1350091","kana_pref":"ﾄｳｷｮｳﾄ","kana_city":"ﾐﾅﾄｸ","kana_address":"ﾀﾞｲﾊﾞ","pref":"東京都","city":"港区","address":"台場"},
{"zip_code":"1350000","kana_pref":"ﾄｳｷｮｳﾄ","kana_city":"ｺｳﾄｳｸ","kana_address":"","pref":"東京都","city":"江東区","address":""},
{"zip_code":"1350064","kana_pref":"ﾄｳｷｮｳﾄ","kana_city":"ｺｳﾄｳｸ","kana_address":"ｱｵﾐ","pref":"東京都","city":"江東区","address":"青海"},
{"zip_code":"1350063","kana_pref":"ﾄｳｷｮｳﾄ","kana_city":"ｺｳﾄｳｸ","kana_address":"ｱﾘｱｹ","pref":"東京都","city":"江東区","address":"有明"},
{"zip_code":"1350014","kana_pref":"ﾄｳｷｮｳﾄ","kana_city":"ｺｳﾄｳｸ","kana_address":"ｲｼｼﾞﾏ","pref":"東京都","city":"江東区","address":"石島"},
{"zip_code":"1350012","kana_pref":"ﾄｳｷｮｳﾄ","kana_city":"ｺｳﾄｳｸ","kana_address":"ｳﾐﾍﾞ","pref":"東京都","city":"江東区","address":"海辺"},
{"zip_code":"1350034","kana_pref":"ﾄｳｷｮｳﾄ","kana_city":"ｺｳﾄｳｸ","kana_address":"ｴｲﾀｲ","pref":"東京都","city":"江東区","address":"永代"},
{"zip_code":"1350051","kana_pref":"ﾄｳｷｮｳﾄ","kana_city":"ｺｳﾄｳｸ","kana_address":"ｴﾀﾞｶﾞﾜ","pref":"東京都","city":"江東区","address":"枝川"},
{"zip_code":"1350044","kana_pref":"ﾄｳｷｮｳﾄ","kana_city":"ｺｳﾄｳｸ","kana_address":"ｴｯﾁｭｳｼﾞﾏ","pref":"東京都","city":"江東区","address":"越中島"},
{"zip_code":"1350011","kana_pref":"ﾄｳｷｮｳﾄ","kana_city":"ｺｳﾄｳｸ","kana_address":"ｵｳｷﾞﾊﾞｼ","pref":"東京都","city":"江東区","address":"扇橋"},
{"zip_code":"1350042","kana_pref":"ﾄｳｷｮｳﾄ","kana_city":"ｺｳﾄｳｸ","kana_address":"ｷﾊﾞ","pref":"東京都","city":"江東区","address":"木場"},
{"zip_code":"1350024","kana_pref":"ﾄｳｷｮｳﾄ","kana_city":"ｺｳﾄｳｸ","kana_address":"ｷﾖｽﾐ","pref":"東京都","city":"江東区","address":"清澄"},
{"zip_code":"1350031","kana_pref":"ﾄｳｷｮｳﾄ","kana_city":"ｺｳﾄｳｸ","kana_address":"ｻｶﾞ","pref":"東京都","city":"江東区","address":"佐賀"},
{"zip_code":"1350003","kana_pref":"ﾄｳｷｮｳﾄ","kana_city":"ｺｳﾄｳｸ","kana_address":"ｻﾙｴ","pref":"東京都","city":"江東区","address":"猿江"},
{"zip_code":"1350043","kana_pref":"ﾄｳｷｮｳﾄ","kana_city":"ｺｳﾄｳｸ","kana_address":"ｼｵﾊﾏ","pref":"東京都","city":"江東区","address":"塩浜"},
{"zip_code":"1350052","kana_pref":"ﾄｳｷｮｳﾄ","kana_city":"ｺｳﾄｳｸ","kana_address":"ｼｵﾐ","pref":"東京都","city":"江東区","address":"潮見"},
{"zip_code":"1350062","kana_pref":"ﾄｳｷｮｳﾄ","kana_city":"ｺｳﾄｳｸ","kana_address":"ｼﾉﾉﾒ","pref":"東京都","city":"江東区","address":"東雲"},
{"zip_code":"1350021","kana_pref":"ﾄｳｷｮｳﾄ","kana_city":"ｺｳﾄｳｸ","kana_address":"ｼﾗｶﾜ","pref":"東京都","city":"江東区","address":"白河"},
{"zip_code":"1350007","kana_pref":"ﾄｳｷｮｳﾄ","kana_city":"ｺｳﾄｳｸ","kana_address":"ｼﾝｵｵﾊｼ","pref":"東京都","city":"江東区","address":"新大橋"},
{"zip_code":"1350002","kana_pref":"ﾄｳｷｮｳﾄ","kana_city":"ｺｳﾄｳｸ","kana_address":"ｽﾐﾖｼ","pref":"東京都","city":"江東区","address":"住吉"},
{"zip_code":"1350015","kana_pref":"ﾄｳｷｮｳﾄ","kana_city":"ｺｳﾄｳｸ","kana_address":"ｾﾝｺﾞｸ","pref":"東京都","city":"江東区","address":"千石"},
{"zip_code":"1350013","kana_pref":"ﾄｳｷｮｳﾄ","kana_city":"ｺｳﾄｳｸ","kana_address":"ｾﾝﾀﾞ","pref":"東京都","city":"江東区","address":"千田"},
{"zip_code":"1350005","kana_pref":"ﾄｳｷｮｳﾄ","kana_city":"ｺｳﾄｳｸ","kana_address":"ﾀｶﾊﾞｼ","pref":"東京都","city":"江東区","address":"高橋"},
{"zip_code":"1350053","kana_pref":"ﾄｳｷｮｳﾄ","kana_city":"ｺｳﾄｳｸ","kana_address":"ﾀﾂﾐ","pref":"東京都","city":"江東区","address":"辰巳"},
{"zip_code":"1350065","kana_pref":"ﾄｳｷｮｳﾄ","kana_city":"ｺｳﾄｳｸ","kana_address":"ﾁｭｳｵｳﾎﾞｳﾊﾃｲ","pref":"東京都","city":"江東区","address":"中央防波堤"},
{"zip_code":"1350016","kana_pref":"ﾄｳｷｮｳﾄ","kana_city":"ｺｳﾄｳｸ","kana_address":"ﾄｳﾖｳ","pref":"東京都","city":"江東区","address":"東陽"},
{"zip_code":"1350006","kana_pref":"ﾄｳｷｮｳﾄ","kana_city":"ｺｳﾄｳｸ","kana_address":"ﾄｷﾜ","pref":"東京都","city":"江東区","address":"常盤"},
{"zip_code":"1350047","kana_pref":"ﾄｳｷｮｳﾄ","kana_city":"ｺｳﾄｳｸ","kana_address":"ﾄﾐｵｶ","pref":"東京都","city":"江東区","address":"富岡"},
{"zip_code":"1350061","kana_pref":"ﾄｳｷｮｳﾄ","kana_city":"ｺｳﾄｳｸ","kana_address":"ﾄﾖｽ","pref":"東京都","city":"江東区","address":"豊洲"},
{"zip_code":"1356090","kana_pref":"ﾄｳｷｮｳﾄ","kana_city":"ｺｳﾄｳｸ","kana_address":"ﾄﾖｽﾄﾖｽｾﾝﾀｰﾋﾞﾙ","pref":"東京都","city":"江東区","address":"豊洲豊洲センタービル"},
{"zip_code":"1356001","kana_pref":"ﾄｳｷｮｳﾄ","kana_city":"ｺｳﾄｳｸ","kana_address":"ﾄﾖｽﾄﾖｽｾﾝﾀｰﾋﾞﾙ","pref":"東京都","city":"江東区","address":"豊洲豊洲センタービル"},
{"zip_code":"1356002","kana_pref":"ﾄｳｷｮｳﾄ","kana_city":"ｺｳﾄｳｸ","kana_address":"ﾄﾖｽﾄﾖｽｾﾝﾀｰﾋﾞﾙ","pref":"東京都","city":"江東区","address":"豊洲豊洲センタービル"},
{"zip_code":"1356003","kana_pref":"ﾄｳｷｮｳﾄ","kana_city":"ｺｳﾄｳｸ","kana_address":"ﾄﾖｽﾄﾖｽｾﾝﾀｰﾋﾞﾙ","pref":"東京都","city":"江東区","address":"豊洲豊洲センタービル"},
{"zip_code":"1356004","kana_pref":"ﾄｳｷｮｳﾄ","kana_city":"ｺｳﾄｳｸ","kana_address":"ﾄﾖｽﾄﾖｽｾﾝﾀｰﾋﾞﾙ","pref":"東京都","city":"江東区","address":"豊洲豊洲センタービル"},
{"zip_code":"1356005","kana_pref":"ﾄｳｷｮｳﾄ","kana_city":"ｺｳﾄｳｸ","kana_address":"ﾄﾖｽﾄﾖｽｾﾝﾀｰﾋﾞﾙ","pref":"東京都","city":"江東区","address":"豊洲豊洲センタービル"},
{"zip_code":"1356006","kana_pref":"ﾄｳｷｮｳﾄ","kana_city":"ｺｳﾄｳｸ","kana_address":"ﾄﾖｽﾄﾖｽｾﾝﾀｰﾋﾞﾙ","pref":"東京都","city":"江東区","address":"豊洲豊洲センタービル"},
{"zip_code":"1356007","kana_pref":"ﾄｳｷｮｳﾄ","kana_city":"ｺｳﾄｳｸ","kana_address":"ﾄﾖｽﾄﾖｽｾﾝﾀｰﾋﾞﾙ","pref":"東京都","city":"江東区","address":"豊洲豊洲センタービル"},
{"zip_code":"1356008","kana_pref":"ﾄｳｷｮｳﾄ","kana_city":"ｺｳﾄｳｸ","kana_address":"ﾄﾖｽﾄﾖｽｾﾝﾀｰﾋﾞﾙ","pref":"東京都","city":"江東区","address":"豊洲豊洲センタービル"},
{"zip_code":"1356009","kana_pref":"ﾄｳｷｮｳﾄ","kana_city":"ｺｳﾄｳｸ","kana_address":"ﾄﾖｽﾄﾖｽｾﾝﾀｰﾋﾞﾙ","pref":"東京都","city":"江東区","address":"豊洲豊洲センタービル"},
{"zip_code":"1356010","kana_pref":"ﾄｳｷｮｳﾄ","kana_city":"ｺｳﾄｳｸ","kana_address":"ﾄﾖｽﾄﾖｽｾﾝﾀｰﾋﾞﾙ","pref":"東京都","city":"江東区","address":"豊洲豊洲センタービル"},
{"zip_code":"1356011","kana_pref":"ﾄｳｷｮｳﾄ","kana_city":"ｺｳﾄｳｸ","kana_address":"ﾄﾖｽﾄﾖｽｾﾝﾀｰﾋﾞﾙ","pref":"東京都","city":"江東区","address":"豊洲豊洲センタービル"},
{"zip_code":"1356012","kana_pref":"ﾄｳｷｮｳﾄ","kana_city":"ｺｳﾄｳｸ","kana_address":"ﾄﾖｽﾄﾖｽｾﾝﾀｰﾋﾞﾙ","pref":"東京都","city":"江東区","address":"豊洲豊洲センタービル"},
{"zip_code":"1356013","kana_pref":"ﾄｳｷｮｳﾄ","kana_city":"ｺｳﾄｳｸ","kana_address":"ﾄﾖｽﾄﾖｽｾﾝﾀｰﾋﾞﾙ","pref":"東京都","city":"江東区","address":"豊洲豊洲センタービル"},
{"zip_code":"1356014","kana_pref":"ﾄｳｷｮｳﾄ","kana_city":"ｺｳﾄｳｸ","kana_address":"ﾄﾖｽﾄﾖｽｾﾝﾀｰﾋﾞﾙ","pref":"東京都","city":"江東区","address":"豊洲豊洲センタービル"},
{"zip_code":"1356015","kana_pref":"ﾄｳｷｮｳﾄ","kana_city":"ｺｳﾄｳｸ","kana_address":"ﾄﾖｽﾄﾖｽｾﾝﾀｰﾋﾞﾙ","pref":"東京都","city":"江東区","address":"豊洲豊洲センタービル"},
{"zip_code":"1356016","kana_pref":"ﾄｳｷｮｳﾄ","kana_city":"ｺｳﾄｳｸ","kana_address":"ﾄﾖｽﾄﾖｽｾﾝﾀｰﾋﾞﾙ","pref":"東京都","city":"江東区","address":"豊洲豊洲センタービル"},
{"zip_code":"1356017","kana_pref":"ﾄｳｷｮｳﾄ","kana_city":"ｺｳﾄｳｸ","kana_address":"ﾄﾖｽﾄﾖｽｾﾝﾀｰﾋﾞﾙ","pref":"東京都","city":"江東区","address":"豊洲豊洲センタービル"},
{"zip_code":"1356018","kana_pref":"ﾄｳｷｮｳﾄ","kana_city":"ｺｳﾄｳｸ","kana_address":"ﾄﾖｽﾄﾖｽｾﾝﾀｰﾋﾞﾙ","pref":"東京都","city":"江東区","address":"豊洲豊洲センタービル"},
{"zip_code":"1356019","kana_pref":"ﾄｳｷｮｳﾄ","kana_city":"ｺｳﾄｳｸ","kana_address":"ﾄﾖｽﾄﾖｽｾﾝﾀｰﾋﾞﾙ","pref":"東京都","city":"江東区","address":"豊洲豊洲センタービル"},
{"zip_code":"1356020","kana_pref":"ﾄｳｷｮｳﾄ","kana_city":"ｺｳﾄｳｸ","kana_address":"ﾄﾖｽﾄﾖｽｾﾝﾀｰﾋﾞﾙ","pref":"東京都","city":"江東区","address":"豊洲豊洲センタービル"},
{"zip_code":"1356021","kana_pref":"ﾄｳｷｮｳﾄ","kana_city":"ｺｳﾄｳｸ","kana_address":"ﾄﾖｽﾄﾖｽｾﾝﾀｰﾋﾞﾙ","pref":"東京都","city":"江東区","address":"豊洲豊洲センタービル"},
{"zip_code":"1356022","kana_pref":"ﾄｳｷｮｳﾄ","kana_city":"ｺｳﾄｳｸ","kana_address":"ﾄﾖｽﾄﾖｽｾﾝﾀｰﾋﾞﾙ","pref":"東京都","city":"江東区","address":"豊洲豊洲センタービル"},
{"zip_code":"1356023","kana_pref":"ﾄｳｷｮｳﾄ","kana_city":"ｺｳﾄｳｸ","kana_address":"ﾄﾖｽﾄﾖｽｾﾝﾀｰﾋﾞﾙ","pref":"東京都","city":"江東区","address":"豊洲豊洲センタービル"},
{"zip_code":"1356024","kana_pref":"ﾄｳｷｮｳﾄ","kana_city":"ｺｳﾄｳｸ","kana_address":"ﾄﾖｽﾄﾖｽｾﾝﾀｰﾋﾞﾙ","pref":"東京都","city":"江東区","address":"豊洲豊洲センタービル"},
{"zip_code":"1356025","kana_pref":"ﾄｳｷｮｳﾄ","kana_city":"ｺｳﾄｳｸ","kana_address":"ﾄﾖｽﾄﾖｽｾﾝﾀｰﾋﾞﾙ","pref":"東京都","city":"江東区","address":"豊洲豊洲センタービル"},
{"zip_code":"1356026","kana_pref":"ﾄｳｷｮｳﾄ","kana_city":"ｺｳﾄｳｸ","kana_address":"ﾄﾖｽﾄﾖｽｾﾝﾀｰﾋﾞﾙ","pref":"東京都","city":"江東区","address":"豊洲豊洲センタービル"},
{"zip_code":"1356027","kana_pref":"ﾄｳｷｮｳﾄ","kana_city":"ｺｳﾄｳｸ","kana_address":"ﾄﾖｽﾄﾖｽｾﾝﾀｰﾋﾞﾙ","pref":"東京都","city":"江東区","address":"豊洲豊洲センタービル"},
{"zip_code":"1356028","kana_pref":"ﾄｳｷｮｳﾄ","kana_city":"ｺｳﾄｳｸ","kana_address":"ﾄﾖｽﾄﾖｽｾﾝﾀｰﾋﾞﾙ","pref":"東京都","city":"江東区","address":"豊洲豊洲センタービル"},
{"zip_code":"1356029","kana_pref":"ﾄｳｷｮｳﾄ","kana_city":"ｺｳﾄｳｸ","kana_address":"ﾄﾖｽﾄﾖｽｾﾝﾀｰﾋﾞﾙ","pref":"東京都","city":"江東区","address":"豊洲豊洲センタービル"},
{"zip_code":"1356030","kana_pref":"ﾄｳｷｮｳﾄ","kana_city":"ｺｳﾄｳｸ","kana_address":"ﾄﾖｽﾄﾖｽｾﾝﾀｰﾋﾞﾙ","pref":"東京都","city":"江東区","address":"豊洲豊洲センタービル"},
{"zip_code":"1356031","kana_pref":"ﾄｳｷｮｳﾄ","kana_city":"ｺｳﾄｳｸ","kana_address":"ﾄﾖｽﾄﾖｽｾﾝﾀｰﾋﾞﾙ","pref":"東京都","city":"江東区","address":"豊洲豊洲センタービル"},
{"zip_code":"1356032","kana_pref":"ﾄｳｷｮｳﾄ","kana_city":"ｺｳﾄｳｸ","kana_address":"ﾄﾖｽﾄﾖｽｾﾝﾀｰﾋﾞﾙ","pref":"東京都","city":"江東区","address":"豊洲豊洲センタービル"},
{"zip_code":"1356033","kana_pref":"ﾄｳｷｮｳﾄ","kana_city":"ｺｳﾄｳｸ","kana_address":"ﾄﾖｽﾄﾖｽｾﾝﾀｰﾋﾞﾙ","pref":"東京都","city":"江東区","address":"豊洲豊洲センタービル"},
{"zip_code":"1356034","kana_pref":"ﾄｳｷｮｳﾄ","kana_city":"ｺｳﾄｳｸ","kana_address":"ﾄﾖｽﾄﾖｽｾﾝﾀｰﾋﾞﾙ","pref":"東京都","city":"江東区","address":"豊洲豊洲センタービル"},
{"zip_code":"1356035","kana_pref":"ﾄｳｷｮｳﾄ","kana_city":"ｺｳﾄｳｸ","kana_address":"ﾄﾖｽﾄﾖｽｾﾝﾀｰﾋﾞﾙ","pref":"東京都","city":"江東区","address":"豊洲豊洲センタービル"},
{"zip_code":"1356036","kana_pref":"ﾄｳｷｮｳﾄ","kana_city":"ｺｳﾄｳｸ","kana_address":"ﾄﾖｽﾄﾖｽｾﾝﾀｰﾋﾞﾙ","pref":"東京都","city":"江東区","address":"豊洲豊洲センタービル"},
{"zip_code":"1356037","kana_pref":"ﾄｳｷｮｳﾄ","kana_city":"ｺｳﾄｳｸ","kana_address":"ﾄﾖｽﾄﾖｽｾﾝﾀｰﾋﾞﾙ","pref":"東京都","city":"江東区","address":"豊洲豊洲センタービル"},
{"zip_code":"1350023","kana_pref":"ﾄｳｷｮｳﾄ","kana_city":"ｺｳﾄｳｸ","kana_address":"ﾋﾗﾉ","pref":"東京都","city":"江東区","address":"平野"},
{"zip_code":"1350033","kana_pref":"ﾄｳｷｮｳﾄ","kana_city":"ｺｳﾄｳｸ","kana_address":"ﾌｶｶﾞﾜ","pref":"東京都","city":"江東区","address":"深川"},
{"zip_code":"1350032","kana_pref":"ﾄｳｷｮｳﾄ","kana_city":"ｺｳﾄｳｸ","kana_address":"ﾌｸｽﾞﾐ","pref":"東京都","city":"江東区","address":"福住"},
{"zip_code":"1350041","kana_pref":"ﾄｳｷｮｳﾄ","kana_city":"ｺｳﾄｳｸ","kana_address":"ﾌﾕｷ","pref":"東京都","city":"江東区","address":"冬木"},
{"zip_code":"1350045","kana_pref":"ﾄｳｷｮｳﾄ","kana_city":"ｺｳﾄｳｸ","kana_address":"ﾌﾙｲｼﾊﾞ","pref":"東京都","city":"江東区","address":"古石場"},
{"zip_code":"1350046","kana_pref":"ﾄｳｷｮｳﾄ","kana_city":"ｺｳﾄｳｸ","kana_address":"ﾎﾞﾀﾝ","pref":"東京都","city":"江東区","address":"牡丹"},
{"zip_code":"1350022","kana_pref":"ﾄｳｷｮｳﾄ","kana_city":"ｺｳﾄｳｸ","kana_address":"ﾐﾖｼ","pref":"東京都","city":"江東区","address":"三好"},
{"zip_code":"1350001","kana_pref":"ﾄｳｷｮｳﾄ","kana_city":"ｺｳﾄｳｸ","kana_address":"ﾓｳﾘ","pref":"東京都","city":"江東区","address":"毛利"},
{"zip_code":"1350004","kana_pref":"ﾄｳｷｮｳﾄ","kana_city":"ｺｳﾄｳｸ","kana_address":"ﾓﾘｼﾀ","pref":"東京都","city":"江東区","address":"森下"},
{"zip_code":"1350048","kana_pref":"ﾄｳｷｮｳﾄ","kana_city":"ｺｳﾄｳｸ","kana_address":"ﾓﾝｾﾞﾝﾅｶﾁｮｳ","pref":"東京都","city":"江東区","address":"門前仲町"},
{"zip_code":"1350092","kana_pref":"ﾄｳｷｮｳﾄ","kana_city":"ｼﾅｶﾞﾜｸ","kana_address":"ﾋｶﾞｼﾔｼｵ","pref":"東京都","city":"品川区","address":"東八潮"}]}