{"zip_code":[
{"zip_code":"1360072","kana_pref":"ﾄｳｷｮｳﾄ","kana_city":"ｺｳﾄｳｸ","kana_address":"ｵｵｼﾞﾏ","pref":"東京都","city":"江東区","address":"大島"},
{"zip_code":"1360071","kana_pref":"ﾄｳｷｮｳﾄ","kana_city":"ｺｳﾄｳｸ","kana_address":"ｶﾒｲﾄﾞ","pref":"東京都","city":"江東区","address":"亀戸"},
{"zip_code":"1360073","kana_pref":"ﾄｳｷｮｳﾄ","kana_city":"ｺｳﾄｳｸ","kana_address":"ｷﾀｽﾅ","pref":"東京都","city":"江東区","address":"北砂"},
{"zip_code":"1360082","kana_pref":"ﾄｳｷｮｳﾄ","kana_city":"ｺｳﾄｳｸ","kana_address":"ｼﾝｷﾊﾞ","pref":"東京都","city":"江東区","address":"新木場"},
{"zip_code":"1360075","kana_pref":"ﾄｳｷｮｳﾄ","kana_city":"ｺｳﾄｳｸ","kana_address":"ｼﾝｽﾅ","pref":"東京都","city":"江東区","address":"新砂"},
{"zip_code":"1360074","kana_pref":"ﾄｳｷｮｳﾄ","kana_city":"ｺｳﾄｳｸ","kana_address":"ﾋｶﾞｼｽﾅ","pref":"東京都","city":"江東区","address":"東砂"},
{"zip_code":"1360076","kana_pref":"ﾄｳｷｮｳﾄ","kana_city":"ｺｳﾄｳｸ","kana_address":"ﾐﾅﾐｽﾅ","pref":"東京都","city":"江東区","address":"南砂"},
{"zip_code":"1360081","kana_pref":"ﾄｳｷｮｳﾄ","kana_city":"ｺｳﾄｳｸ","kana_address":"ﾕﾒﾉｼﾏ","pref":"東京都","city":"江東区","address":"夢の島"},
{"zip_code":"1360083","kana_pref":"ﾄｳｷｮｳﾄ","kana_city":"ｺｳﾄｳｸ","kana_address":"ﾜｶｽ","pref":"東京都","city":"江東区","address":"若洲"}]}