{"zip_code":[
{"zip_code":"1400000","kana_pref":"ﾄｳｷｮｳﾄ","kana_city":"ｼﾅｶﾞﾜｸ","kana_address":"","pref":"東京都","city":"品川区","address":""},
{"zip_code":"1400014","kana_pref":"ﾄｳｷｮｳﾄ","kana_city":"ｼﾅｶﾞﾜｸ","kana_address":"ｵｵｲ","pref":"東京都","city":"品川区","address":"大井"},
{"zip_code":"1400012","kana_pref":"ﾄｳｷｮｳﾄ","kana_city":"ｼﾅｶﾞﾜｸ","kana_address":"ｶﾂｼﾏ","pref":"東京都","city":"品川区","address":"勝島"},
{"zip_code":"1400001","kana_pref":"ﾄｳｷｮｳﾄ","kana_city":"ｼﾅｶﾞﾜｸ","kana_address":"ｷﾀｼﾅｶﾞﾜ","pref":"東京都","city":"品川区","address":"北品川"},
{"zip_code":"1400015","kana_pref":"ﾄｳｷｮｳﾄ","kana_city":"ｼﾅｶﾞﾜｸ","kana_address":"ﾆｼｵｵｲ","pref":"東京都","city":"品川区","address":"西大井"},
{"zip_code":"1400011","kana_pref":"ﾄｳｷｮｳﾄ","kana_city":"ｼﾅｶﾞﾜｸ","kana_address":"ﾋｶﾞｼｵｵｲ","pref":"東京都","city":"品川区","address":"東大井"},
{"zip_code":"1400002","kana_pref":"ﾄｳｷｮｳﾄ","kana_city":"ｼﾅｶﾞﾜｸ","kana_address":"ﾋｶﾞｼｼﾅｶﾞﾜ","pref":"東京都","city":"品川区","address":"東品川"},
{"zip_code":"1400005","kana_pref":"ﾄｳｷｮｳﾄ","kana_city":"ｼﾅｶﾞﾜｸ","kana_address":"ﾋﾛﾏﾁ","pref":"東京都","city":"品川区","address":"広町"},
{"zip_code":"1400013","kana_pref":"ﾄｳｷｮｳﾄ","kana_city":"ｼﾅｶﾞﾜｸ","kana_address":"ﾐﾅﾐｵｵｲ","pref":"東京都","city":"品川区","address":"南大井"},
{"zip_code":"1400004","kana_pref":"ﾄｳｷｮｳﾄ","kana_city":"ｼﾅｶﾞﾜｸ","kana_address":"ﾐﾅﾐｼﾅｶﾞﾜ","pref":"東京都","city":"品川区","address":"南品川"},
{"zip_code":"1400003","kana_pref":"ﾄｳｷｮｳﾄ","kana_city":"ｼﾅｶﾞﾜｸ","kana_address":"ﾔｼｵ","pref":"東京都","city":"品川区","address":"八潮"}]}