{"zip_code":[
{"zip_code":"1410032","kana_pref":"ﾄｳｷｮｳﾄ","kana_city":"ｼﾅｶﾞﾜｸ","kana_address":"ｵｵｻｷ","pref":"東京都","city":"品川区","address":"大崎"},
{"zip_code":"1416090","kana_pref":"ﾄｳｷｮｳﾄ","kana_city":"ｼﾅｶﾞﾜｸ","kana_address":"ｵｵｻｷｼﾝｸﾊﾟｰｸﾀﾜｰ","pref":"東京都","city":"品川区","address":"大崎ＴｈｉｎｋＰａｒｋＴｏｗｅｒ"},
{"zip_code":"1416001","kana_pref":"ﾄｳｷｮｳﾄ","kana_city":"ｼﾅｶﾞﾜｸ","kana_address":"ｵｵｻｷｼﾝｸﾊﾟｰｸﾀﾜｰ","pref":"東京都","city":"品川区","address":"大崎ＴｈｉｎｋＰａｒｋＴｏｗｅｒ"},
{"zip_code":"1416002","kana_pref":"ﾄｳｷｮｳﾄ","kana_city":"ｼﾅｶﾞﾜｸ","kana_address":"ｵｵｻｷｼﾝｸﾊﾟｰｸﾀﾜｰ","pref":"東京都","city":"品川区","address":"大崎ＴｈｉｎｋＰａｒｋＴｏｗｅｒ"},
{"zip_code":"1416003","kana_pref":"ﾄｳｷｮｳﾄ","kana_city":"ｼﾅｶﾞﾜｸ","kana_address":"ｵｵｻｷｼﾝｸﾊﾟｰｸﾀﾜｰ","pref":"東京都","city":"品川区","address":"大崎ＴｈｉｎｋＰａｒｋＴｏｗｅｒ"},
{"zip_code":"1416004","kana_pref":"ﾄｳｷｮｳﾄ","kana_city":"ｼﾅｶﾞﾜｸ","kana_address":"ｵｵｻｷｼﾝｸﾊﾟｰｸﾀﾜｰ","pref":"東京都","city":"品川区","address":"大崎ＴｈｉｎｋＰａｒｋＴｏｗｅｒ"},
{"zip_code":"1416005","kana_pref":"ﾄｳｷｮｳﾄ","kana_city":"ｼﾅｶﾞﾜｸ","kana_address":"ｵｵｻｷｼﾝｸﾊﾟｰｸﾀﾜｰ","pref":"東京都","city":"品川区","address":"大崎ＴｈｉｎｋＰａｒｋＴｏｗｅｒ"},
{"zip_code":"1416006","kana_pref":"ﾄｳｷｮｳﾄ","kana_city":"ｼﾅｶﾞﾜｸ","kana_address":"ｵｵｻｷｼﾝｸﾊﾟｰｸﾀﾜｰ","pref":"東京都","city":"品川区","address":"大崎ＴｈｉｎｋＰａｒｋＴｏｗｅｒ"},
{"zip_code":"1416007","kana_pref":"ﾄｳｷｮｳﾄ","kana_city":"ｼﾅｶﾞﾜｸ","kana_address":"ｵｵｻｷｼﾝｸﾊﾟｰｸﾀﾜｰ","pref":"東京都","city":"品川区","address":"大崎ＴｈｉｎｋＰａｒｋＴｏｗｅｒ"},
{"zip_code":"1416008","kana_pref":"ﾄｳｷｮｳﾄ","kana_city":"ｼﾅｶﾞﾜｸ","kana_address":"ｵｵｻｷｼﾝｸﾊﾟｰｸﾀﾜｰ","pref":"東京都","city":"品川区","address":"大崎ＴｈｉｎｋＰａｒｋＴｏｗｅｒ"},
{"zip_code":"1416009","kana_pref":"ﾄｳｷｮｳﾄ","kana_city":"ｼﾅｶﾞﾜｸ","kana_address":"ｵｵｻｷｼﾝｸﾊﾟｰｸﾀﾜｰ","pref":"東京都","city":"品川区","address":"大崎ＴｈｉｎｋＰａｒｋＴｏｗｅｒ"},
{"zip_code":"1416010","kana_pref":"ﾄｳｷｮｳﾄ","kana_city":"ｼﾅｶﾞﾜｸ","kana_address":"ｵｵｻｷｼﾝｸﾊﾟｰｸﾀﾜｰ","pref":"東京都","city":"品川区","address":"大崎ＴｈｉｎｋＰａｒｋＴｏｗｅｒ"},
{"zip_code":"1416011","kana_pref":"ﾄｳｷｮｳﾄ","kana_city":"ｼﾅｶﾞﾜｸ","kana_address":"ｵｵｻｷｼﾝｸﾊﾟｰｸﾀﾜｰ","pref":"東京都","city":"品川区","address":"大崎ＴｈｉｎｋＰａｒｋＴｏｗｅｒ"},
{"zip_code":"1416012","kana_pref":"ﾄｳｷｮｳﾄ","kana_city":"ｼﾅｶﾞﾜｸ","kana_address":"ｵｵｻｷｼﾝｸﾊﾟｰｸﾀﾜｰ","pref":"東京都","city":"品川区","address":"大崎ＴｈｉｎｋＰａｒｋＴｏｗｅｒ"},
{"zip_code":"1416013","kana_pref":"ﾄｳｷｮｳﾄ","kana_city":"ｼﾅｶﾞﾜｸ","kana_address":"ｵｵｻｷｼﾝｸﾊﾟｰｸﾀﾜｰ","pref":"東京都","city":"品川区","address":"大崎ＴｈｉｎｋＰａｒｋＴｏｗｅｒ"},
{"zip_code":"1416014","kana_pref":"ﾄｳｷｮｳﾄ","kana_city":"ｼﾅｶﾞﾜｸ","kana_address":"ｵｵｻｷｼﾝｸﾊﾟｰｸﾀﾜｰ","pref":"東京都","city":"品川区","address":"大崎ＴｈｉｎｋＰａｒｋＴｏｗｅｒ"},
{"zip_code":"1416015","kana_pref":"ﾄｳｷｮｳﾄ","kana_city":"ｼﾅｶﾞﾜｸ","kana_address":"ｵｵｻｷｼﾝｸﾊﾟｰｸﾀﾜｰ","pref":"東京都","city":"品川区","address":"大崎ＴｈｉｎｋＰａｒｋＴｏｗｅｒ"},
{"zip_code":"1416016","kana_pref":"ﾄｳｷｮｳﾄ","kana_city":"ｼﾅｶﾞﾜｸ","kana_address":"ｵｵｻｷｼﾝｸﾊﾟｰｸﾀﾜｰ","pref":"東京都","city":"品川区","address":"大崎ＴｈｉｎｋＰａｒｋＴｏｗｅｒ"},
{"zip_code":"1416017","kana_pref":"ﾄｳｷｮｳﾄ","kana_city":"ｼﾅｶﾞﾜｸ","kana_address":"ｵｵｻｷｼﾝｸﾊﾟｰｸﾀﾜｰ","pref":"東京都","city":"品川区","address":"大崎ＴｈｉｎｋＰａｒｋＴｏｗｅｒ"},
{"zip_code":"1416018","kana_pref":"ﾄｳｷｮｳﾄ","kana_city":"ｼﾅｶﾞﾜｸ","kana_address":"ｵｵｻｷｼﾝｸﾊﾟｰｸﾀﾜｰ","pref":"東京都","city":"品川区","address":"大崎ＴｈｉｎｋＰａｒｋＴｏｗｅｒ"},
{"zip_code":"1416019","kana_pref":"ﾄｳｷｮｳﾄ","kana_city":"ｼﾅｶﾞﾜｸ","kana_address":"ｵｵｻｷｼﾝｸﾊﾟｰｸﾀﾜｰ","pref":"東京都","city":"品川区","address":"大崎ＴｈｉｎｋＰａｒｋＴｏｗｅｒ"},
{"zip_code":"1416020","kana_pref":"ﾄｳｷｮｳﾄ","kana_city":"ｼﾅｶﾞﾜｸ","kana_address":"ｵｵｻｷｼﾝｸﾊﾟｰｸﾀﾜｰ","pref":"東京都","city":"品川区","address":"大崎ＴｈｉｎｋＰａｒｋＴｏｗｅｒ"},
{"zip_code":"1416021","kana_pref":"ﾄｳｷｮｳﾄ","kana_city":"ｼﾅｶﾞﾜｸ","kana_address":"ｵｵｻｷｼﾝｸﾊﾟｰｸﾀﾜｰ","pref":"東京都","city":"品川区","address":"大崎ＴｈｉｎｋＰａｒｋＴｏｗｅｒ"},
{"zip_code":"1416022","kana_pref":"ﾄｳｷｮｳﾄ","kana_city":"ｼﾅｶﾞﾜｸ","kana_address":"ｵｵｻｷｼﾝｸﾊﾟｰｸﾀﾜｰ","pref":"東京都","city":"品川区","address":"大崎ＴｈｉｎｋＰａｒｋＴｏｗｅｒ"},
{"zip_code":"1416023","kana_pref":"ﾄｳｷｮｳﾄ","kana_city":"ｼﾅｶﾞﾜｸ","kana_address":"ｵｵｻｷｼﾝｸﾊﾟｰｸﾀﾜｰ","pref":"東京都","city":"品川区","address":"大崎ＴｈｉｎｋＰａｒｋＴｏｗｅｒ"},
{"zip_code":"1416024","kana_pref":"ﾄｳｷｮｳﾄ","kana_city":"ｼﾅｶﾞﾜｸ","kana_address":"ｵｵｻｷｼﾝｸﾊﾟｰｸﾀﾜｰ","pref":"東京都","city":"品川区","address":"大崎ＴｈｉｎｋＰａｒｋＴｏｗｅｒ"},
{"zip_code":"1416025","kana_pref":"ﾄｳｷｮｳﾄ","kana_city":"ｼﾅｶﾞﾜｸ","kana_address":"ｵｵｻｷｼﾝｸﾊﾟｰｸﾀﾜｰ","pref":"東京都","city":"品川区","address":"大崎ＴｈｉｎｋＰａｒｋＴｏｗｅｒ"},
{"zip_code":"1416026","kana_pref":"ﾄｳｷｮｳﾄ","kana_city":"ｼﾅｶﾞﾜｸ","kana_address":"ｵｵｻｷｼﾝｸﾊﾟｰｸﾀﾜｰ","pref":"東京都","city":"品川区","address":"大崎ＴｈｉｎｋＰａｒｋＴｏｗｅｒ"},
{"zip_code":"1416027","kana_pref":"ﾄｳｷｮｳﾄ","kana_city":"ｼﾅｶﾞﾜｸ","kana_address":"ｵｵｻｷｼﾝｸﾊﾟｰｸﾀﾜｰ","pref":"東京都","city":"品川区","address":"大崎ＴｈｉｎｋＰａｒｋＴｏｗｅｒ"},
{"zip_code":"1416028","kana_pref":"ﾄｳｷｮｳﾄ","kana_city":"ｼﾅｶﾞﾜｸ","kana_address":"ｵｵｻｷｼﾝｸﾊﾟｰｸﾀﾜｰ","pref":"東京都","city":"品川区","address":"大崎ＴｈｉｎｋＰａｒｋＴｏｗｅｒ"},
{"zip_code":"1416029","kana_pref":"ﾄｳｷｮｳﾄ","kana_city":"ｼﾅｶﾞﾜｸ","kana_address":"ｵｵｻｷｼﾝｸﾊﾟｰｸﾀﾜｰ","pref":"東京都","city":"品川区","address":"大崎ＴｈｉｎｋＰａｒｋＴｏｗｅｒ"},
{"zip_code":"1416030","kana_pref":"ﾄｳｷｮｳﾄ","kana_city":"ｼﾅｶﾞﾜｸ","kana_address":"ｵｵｻｷｼﾝｸﾊﾟｰｸﾀﾜｰ","pref":"東京都","city":"品川区","address":"大崎ＴｈｉｎｋＰａｒｋＴｏｗｅｒ"},
{"zip_code":"1410021","kana_pref":"ﾄｳｷｮｳﾄ","kana_city":"ｼﾅｶﾞﾜｸ","kana_address":"ｶﾐｵｵｻｷ","pref":"東京都","city":"品川区","address":"上大崎"},
{"zip_code":"1410001","kana_pref":"ﾄｳｷｮｳﾄ","kana_city":"ｼﾅｶﾞﾜｸ","kana_address":"ｷﾀｼﾅｶﾞﾜ","pref":"東京都","city":"品川区","address":"北品川"},
{"zip_code":"1410031","kana_pref":"ﾄｳｷｮｳﾄ","kana_city":"ｼﾅｶﾞﾜｸ","kana_address":"ﾆｼｺﾞﾀﾝﾀﾞ","pref":"東京都","city":"品川区","address":"西五反田"},
{"zip_code":"1410033","kana_pref":"ﾄｳｷｮｳﾄ","kana_city":"ｼﾅｶﾞﾜｸ","kana_address":"ﾆｼｼﾅｶﾞﾜ","pref":"東京都","city":"品川区","address":"西品川"},
{"zip_code":"1410022","kana_pref":"ﾄｳｷｮｳﾄ","kana_city":"ｼﾅｶﾞﾜｸ","kana_address":"ﾋｶﾞｼｺﾞﾀﾝﾀﾞ","pref":"東京都","city":"品川区","address":"東五反田"}]}