{"zip_code":[
{"zip_code":"1420063","kana_pref":"ﾄｳｷｮｳﾄ","kana_city":"ｼﾅｶﾞﾜｸ","kana_address":"ｴﾊﾞﾗ","pref":"東京都","city":"品川区","address":"荏原"},
{"zip_code":"1420062","kana_pref":"ﾄｳｷｮｳﾄ","kana_city":"ｼﾅｶﾞﾜｸ","kana_address":"ｺﾔﾏ","pref":"東京都","city":"品川区","address":"小山"},
{"zip_code":"1420061","kana_pref":"ﾄｳｷｮｳﾄ","kana_city":"ｼﾅｶﾞﾜｸ","kana_address":"ｺﾔﾏﾀﾞｲ","pref":"東京都","city":"品川区","address":"小山台"},
{"zip_code":"1420041","kana_pref":"ﾄｳｷｮｳﾄ","kana_city":"ｼﾅｶﾞﾜｸ","kana_address":"ﾄｺﾞｼ","pref":"東京都","city":"品川区","address":"戸越"},
{"zip_code":"1420053","kana_pref":"ﾄｳｷｮｳﾄ","kana_city":"ｼﾅｶﾞﾜｸ","kana_address":"ﾅｶﾉﾌﾞ","pref":"東京都","city":"品川区","address":"中延"},
{"zip_code":"1420054","kana_pref":"ﾄｳｷｮｳﾄ","kana_city":"ｼﾅｶﾞﾜｸ","kana_address":"ﾆｼﾅｶﾉﾌﾞ","pref":"東京都","city":"品川区","address":"西中延"},
{"zip_code":"1420064","kana_pref":"ﾄｳｷｮｳﾄ","kana_city":"ｼﾅｶﾞﾜｸ","kana_address":"ﾊﾀﾉﾀﾞｲ","pref":"東京都","city":"品川区","address":"旗の台"},
{"zip_code":"1420052","kana_pref":"ﾄｳｷｮｳﾄ","kana_city":"ｼﾅｶﾞﾜｸ","kana_address":"ﾋｶﾞｼﾅｶﾉﾌﾞ","pref":"東京都","city":"品川区","address":"東中延"},
{"zip_code":"1420051","kana_pref":"ﾄｳｷｮｳﾄ","kana_city":"ｼﾅｶﾞﾜｸ","kana_address":"ﾋﾗﾂｶ","pref":"東京都","city":"品川区","address":"平塚"},
{"zip_code":"1420043","kana_pref":"ﾄｳｷｮｳﾄ","kana_city":"ｼﾅｶﾞﾜｸ","kana_address":"ﾌﾀﾊﾞ","pref":"東京都","city":"品川区","address":"二葉"},
{"zip_code":"1420042","kana_pref":"ﾄｳｷｮｳﾄ","kana_city":"ｼﾅｶﾞﾜｸ","kana_address":"ﾕﾀｶﾁｮｳ","pref":"東京都","city":"品川区","address":"豊町"}]}