{"zip_code":[
{"zip_code":"1430014","kana_pref":"ﾄｳｷｮｳﾄ","kana_city":"ｵｵﾀｸ","kana_address":"ｵｵﾓﾘﾅｶ","pref":"東京都","city":"大田区","address":"大森中"},
{"zip_code":"1430011","kana_pref":"ﾄｳｷｮｳﾄ","kana_city":"ｵｵﾀｸ","kana_address":"ｵｵﾓﾘﾎﾝﾁｮｳ","pref":"東京都","city":"大田区","address":"大森本町"},
{"zip_code":"1430012","kana_pref":"ﾄｳｷｮｳﾄ","kana_city":"ｵｵﾀｸ","kana_address":"ｵｵﾓﾘﾋｶﾞｼ","pref":"東京都","city":"大田区","address":"大森東"},
{"zip_code":"1430015","kana_pref":"ﾄｳｷｮｳﾄ","kana_city":"ｵｵﾀｸ","kana_address":"ｵｵﾓﾘﾆｼ","pref":"東京都","city":"大田区","address":"大森西"},
{"zip_code":"1430013","kana_pref":"ﾄｳｷｮｳﾄ","kana_city":"ｵｵﾀｸ","kana_address":"ｵｵﾓﾘﾐﾅﾐ","pref":"東京都","city":"大田区","address":"大森南"},
{"zip_code":"1430016","kana_pref":"ﾄｳｷｮｳﾄ","kana_city":"ｵｵﾀｸ","kana_address":"ｵｵﾓﾘｷﾀ","pref":"東京都","city":"大田区","address":"大森北"},
{"zip_code":"1430021","kana_pref":"ﾄｳｷｮｳﾄ","kana_city":"ｵｵﾀｸ","kana_address":"ｷﾀﾏｺﾞﾒ","pref":"東京都","city":"大田区","address":"北馬込"},
{"zip_code":"1430003","kana_pref":"ﾄｳｷｮｳﾄ","kana_city":"ｵｵﾀｸ","kana_address":"ｹｲﾋﾝｼﾞﾏ","pref":"東京都","city":"大田区","address":"京浜島"},
{"zip_code":"1430023","kana_pref":"ﾄｳｷｮｳﾄ","kana_city":"ｵｵﾀｸ","kana_address":"ｻﾝﾉｳ","pref":"東京都","city":"大田区","address":"山王"},
{"zip_code":"1430002","kana_pref":"ﾄｳｷｮｳﾄ","kana_city":"ｵｵﾀｸ","kana_address":"ｼﾞｮｳﾅﾝｼﾞﾏ","pref":"東京都","city":"大田区","address":"城南島"},
{"zip_code":"1430004","kana_pref":"ﾄｳｷｮｳﾄ","kana_city":"ｵｵﾀｸ","kana_address":"ｼｮｳﾜｼﾞﾏ","pref":"東京都","city":"大田区","address":"昭和島"},
{"zip_code":"1430024","kana_pref":"ﾄｳｷｮｳﾄ","kana_city":"ｵｵﾀｸ","kana_address":"ﾁｭｳｵｳ","pref":"東京都","city":"大田区","address":"中央"},
{"zip_code":"1430001","kana_pref":"ﾄｳｷｮｳﾄ","kana_city":"ｵｵﾀｸ","kana_address":"ﾄｳｶｲ","pref":"東京都","city":"大田区","address":"東海"},
{"zip_code":"1430027","kana_pref":"ﾄｳｷｮｳﾄ","kana_city":"ｵｵﾀｸ","kana_address":"ﾅｶﾏｺﾞﾒ","pref":"東京都","city":"大田区","address":"中馬込"},
{"zip_code":"1430026","kana_pref":"ﾄｳｷｮｳﾄ","kana_city":"ｵｵﾀｸ","kana_address":"ﾆｼﾏｺﾞﾒ","pref":"東京都","city":"大田区","address":"西馬込"},
{"zip_code":"1430022","kana_pref":"ﾄｳｷｮｳﾄ","kana_city":"ｵｵﾀｸ","kana_address":"ﾋｶﾞｼﾏｺﾞﾒ","pref":"東京都","city":"大田区","address":"東馬込"},
{"zip_code":"1430007","kana_pref":"ﾄｳｷｮｳﾄ","kana_city":"ｵｵﾀｸ","kana_address":"ﾌﾙｻﾄﾉﾊﾏﾍﾞｺｳｴﾝ","pref":"東京都","city":"大田区","address":"ふるさとの浜辺公園"},
{"zip_code":"1430006","kana_pref":"ﾄｳｷｮｳﾄ","kana_city":"ｵｵﾀｸ","kana_address":"ﾍｲﾜｼﾞﾏ","pref":"東京都","city":"大田区","address":"平和島"},
{"zip_code":"1430005","kana_pref":"ﾄｳｷｮｳﾄ","kana_city":"ｵｵﾀｸ","kana_address":"ﾍｲﾜﾉﾓﾘｺｳｴﾝ","pref":"東京都","city":"大田区","address":"平和の森公園"},
{"zip_code":"1430025","kana_pref":"ﾄｳｷｮｳﾄ","kana_city":"ｵｵﾀｸ","kana_address":"ﾐﾅﾐﾏｺﾞﾒ","pref":"東京都","city":"大田区","address":"南馬込"}]}