{"zip_code":[
{"zip_code":"1440000","kana_pref":"ﾄｳｷｮｳﾄ","kana_city":"ｵｵﾀｸ","kana_address":"","pref":"東京都","city":"大田区","address":""},
{"zip_code":"1440052","kana_pref":"ﾄｳｷｮｳﾄ","kana_city":"ｵｵﾀｸ","kana_address":"ｶﾏﾀ","pref":"東京都","city":"大田区","address":"蒲田"},
{"zip_code":"1440053","kana_pref":"ﾄｳｷｮｳﾄ","kana_city":"ｵｵﾀｸ","kana_address":"ｶﾏﾀﾎﾝﾁｮｳ","pref":"東京都","city":"大田区","address":"蒲田本町"},
{"zip_code":"1440032","kana_pref":"ﾄｳｷｮｳﾄ","kana_city":"ｵｵﾀｸ","kana_address":"ｷﾀｺｳｼﾞﾔ","pref":"東京都","city":"大田区","address":"北糀谷"},
{"zip_code":"1440054","kana_pref":"ﾄｳｷｮｳﾄ","kana_city":"ｵｵﾀｸ","kana_address":"ｼﾝｶﾏﾀ","pref":"東京都","city":"大田区","address":"新蒲田"},
{"zip_code":"1440055","kana_pref":"ﾄｳｷｮｳﾄ","kana_city":"ｵｵﾀｸ","kana_address":"ﾅｶﾛｸｺﾞｳ","pref":"東京都","city":"大田区","address":"仲六郷"},
{"zip_code":"1440051","kana_pref":"ﾄｳｷｮｳﾄ","kana_city":"ｵｵﾀｸ","kana_address":"ﾆｼｶﾏﾀ","pref":"東京都","city":"大田区","address":"西蒲田"},
{"zip_code":"1440034","kana_pref":"ﾄｳｷｮｳﾄ","kana_city":"ｵｵﾀｸ","kana_address":"ﾆｼｺｳｼﾞﾔ","pref":"東京都","city":"大田区","address":"西糀谷"},
{"zip_code":"1440056","kana_pref":"ﾄｳｷｮｳﾄ","kana_city":"ｵｵﾀｸ","kana_address":"ﾆｼﾛｸｺﾞｳ","pref":"東京都","city":"大田区","address":"西六郷"},
{"zip_code":"1440047","kana_pref":"ﾄｳｷｮｳﾄ","kana_city":"ｵｵﾀｸ","kana_address":"ﾊｷﾞﾅｶ","pref":"東京都","city":"大田区","address":"萩中"},
{"zip_code":"1440043","kana_pref":"ﾄｳｷｮｳﾄ","kana_city":"ｵｵﾀｸ","kana_address":"ﾊﾈﾀﾞ","pref":"東京都","city":"大田区","address":"羽田"},
{"zip_code":"1440042","kana_pref":"ﾄｳｷｮｳﾄ","kana_city":"ｵｵﾀｸ","kana_address":"ﾊﾈﾀﾞｱｻﾋﾁｮｳ","pref":"東京都","city":"大田区","address":"羽田旭町"},
{"zip_code":"1440041","kana_pref":"ﾄｳｷｮｳﾄ","kana_city":"ｵｵﾀｸ","kana_address":"ﾊﾈﾀﾞｸｳｺｳ","pref":"東京都","city":"大田区","address":"羽田空港"},
{"zip_code":"1440031","kana_pref":"ﾄｳｷｮｳﾄ","kana_city":"ｵｵﾀｸ","kana_address":"ﾋｶﾞｼｶﾏﾀ","pref":"東京都","city":"大田区","address":"東蒲田"},
{"zip_code":"1440033","kana_pref":"ﾄｳｷｮｳﾄ","kana_city":"ｵｵﾀｸ","kana_address":"ﾋｶﾞｼｺｳｼﾞﾔ","pref":"東京都","city":"大田区","address":"東糀谷"},
{"zip_code":"1440046","kana_pref":"ﾄｳｷｮｳﾄ","kana_city":"ｵｵﾀｸ","kana_address":"ﾋｶﾞｼﾛｸｺﾞｳ","pref":"東京都","city":"大田区","address":"東六郷"},
{"zip_code":"1440044","kana_pref":"ﾄｳｷｮｳﾄ","kana_city":"ｵｵﾀｸ","kana_address":"ﾎﾝﾊﾈﾀﾞ","pref":"東京都","city":"大田区","address":"本羽田"},
{"zip_code":"1440035","kana_pref":"ﾄｳｷｮｳﾄ","kana_city":"ｵｵﾀｸ","kana_address":"ﾐﾅﾐｶﾏﾀ","pref":"東京都","city":"大田区","address":"南蒲田"},
{"zip_code":"1440045","kana_pref":"ﾄｳｷｮｳﾄ","kana_city":"ｵｵﾀｸ","kana_address":"ﾐﾅﾐﾛｸｺﾞｳ","pref":"東京都","city":"大田区","address":"南六郷"}]}