{"zip_code":[
{"zip_code":"1450061","kana_pref":"ﾄｳｷｮｳﾄ","kana_city":"ｵｵﾀｸ","kana_address":"ｲｼｶﾜﾁｮｳ","pref":"東京都","city":"大田区","address":"石川町"},
{"zip_code":"1450064","kana_pref":"ﾄｳｷｮｳﾄ","kana_city":"ｵｵﾀｸ","kana_address":"ｶﾐｲｹﾀﾞｲ","pref":"東京都","city":"大田区","address":"上池台"},
{"zip_code":"1450062","kana_pref":"ﾄｳｷｮｳﾄ","kana_city":"ｵｵﾀｸ","kana_address":"ｷﾀｾﾝｿﾞｸ","pref":"東京都","city":"大田区","address":"北千束"},
{"zip_code":"1450073","kana_pref":"ﾄｳｷｮｳﾄ","kana_city":"ｵｵﾀｸ","kana_address":"ｷﾀﾐﾈﾏﾁ","pref":"東京都","city":"大田区","address":"北嶺町"},
{"zip_code":"1450071","kana_pref":"ﾄｳｷｮｳﾄ","kana_city":"ｵｵﾀｸ","kana_address":"ﾃﾞﾝｴﾝﾁｮｳﾌ","pref":"東京都","city":"大田区","address":"田園調布"},
{"zip_code":"1450072","kana_pref":"ﾄｳｷｮｳﾄ","kana_city":"ｵｵﾀｸ","kana_address":"ﾃﾞﾝｴﾝﾁｮｳﾌﾎﾝﾁｮｳ","pref":"東京都","city":"大田区","address":"田園調布本町"},
{"zip_code":"1450076","kana_pref":"ﾄｳｷｮｳﾄ","kana_city":"ｵｵﾀｸ","kana_address":"ﾃﾞﾝｴﾝﾁｮｳﾌﾐﾅﾐ","pref":"東京都","city":"大田区","address":"田園調布南"},
{"zip_code":"1450075","kana_pref":"ﾄｳｷｮｳﾄ","kana_city":"ｵｵﾀｸ","kana_address":"ﾆｼﾐﾈﾏﾁ","pref":"東京都","city":"大田区","address":"西嶺町"},
{"zip_code":"1450074","kana_pref":"ﾄｳｷｮｳﾄ","kana_city":"ｵｵﾀｸ","kana_address":"ﾋｶﾞｼﾐﾈﾏﾁ","pref":"東京都","city":"大田区","address":"東嶺町"},
{"zip_code":"1450065","kana_pref":"ﾄｳｷｮｳﾄ","kana_city":"ｵｵﾀｸ","kana_address":"ﾋｶﾞｼﾕｷｶﾞﾔ","pref":"東京都","city":"大田区","address":"東雪谷"},
{"zip_code":"1450063","kana_pref":"ﾄｳｷｮｳﾄ","kana_city":"ｵｵﾀｸ","kana_address":"ﾐﾅﾐｾﾝｿﾞｸ","pref":"東京都","city":"大田区","address":"南千束"},
{"zip_code":"1450066","kana_pref":"ﾄｳｷｮｳﾄ","kana_city":"ｵｵﾀｸ","kana_address":"ﾐﾅﾐﾕｷｶﾞﾔ","pref":"東京都","city":"大田区","address":"南雪谷"},
{"zip_code":"1450067","kana_pref":"ﾄｳｷｮｳﾄ","kana_city":"ｵｵﾀｸ","kana_address":"ﾕｷｶﾞﾔｵｵﾂｶﾏﾁ","pref":"東京都","city":"大田区","address":"雪谷大塚町"}]}