{"zip_code":[
{"zip_code":"1460082","kana_pref":"ﾄｳｷｮｳﾄ","kana_city":"ｵｵﾀｸ","kana_address":"ｲｹｶﾞﾐ","pref":"東京都","city":"大田区","address":"池上"},
{"zip_code":"1460091","kana_pref":"ﾄｳｷｮｳﾄ","kana_city":"ｵｵﾀｸ","kana_address":"ｳﾉｷ","pref":"東京都","city":"大田区","address":"鵜の木"},
{"zip_code":"1460085","kana_pref":"ﾄｳｷｮｳﾄ","kana_city":"ｵｵﾀｸ","kana_address":"ｸｶﾞﾊﾗ","pref":"東京都","city":"大田区","address":"久が原"},
{"zip_code":"1460092","kana_pref":"ﾄｳｷｮｳﾄ","kana_city":"ｵｵﾀｸ","kana_address":"ｼﾓﾏﾙｺ","pref":"東京都","city":"大田区","address":"下丸子"},
{"zip_code":"1460095","kana_pref":"ﾄｳｷｮｳﾄ","kana_city":"ｵｵﾀｸ","kana_address":"ﾀﾏｶﾞﾜ","pref":"東京都","city":"大田区","address":"多摩川"},
{"zip_code":"1460083","kana_pref":"ﾄｳｷｮｳﾄ","kana_city":"ｵｵﾀｸ","kana_address":"ﾁﾄﾞﾘ","pref":"東京都","city":"大田区","address":"千鳥"},
{"zip_code":"1460081","kana_pref":"ﾄｳｷｮｳﾄ","kana_city":"ｵｵﾀｸ","kana_address":"ﾅｶｲｹｶﾞﾐ","pref":"東京都","city":"大田区","address":"仲池上"},
{"zip_code":"1460094","kana_pref":"ﾄｳｷｮｳﾄ","kana_city":"ｵｵﾀｸ","kana_address":"ﾋｶﾞｼﾔｸﾞﾁ","pref":"東京都","city":"大田区","address":"東矢口"},
{"zip_code":"1460084","kana_pref":"ﾄｳｷｮｳﾄ","kana_city":"ｵｵﾀｸ","kana_address":"ﾐﾅﾐｸｶﾞﾊﾗ","pref":"東京都","city":"大田区","address":"南久が原"},
{"zip_code":"1460093","kana_pref":"ﾄｳｷｮｳﾄ","kana_city":"ｵｵﾀｸ","kana_address":"ﾔｸﾞﾁ","pref":"東京都","city":"大田区","address":"矢口"}]}