{"zip_code":[
{"zip_code":"1500000","kana_pref":"ﾄｳｷｮｳﾄ","kana_city":"ｼﾌﾞﾔｸ","kana_address":"","pref":"東京都","city":"渋谷区","address":""},
{"zip_code":"1500032","kana_pref":"ﾄｳｷｮｳﾄ","kana_city":"ｼﾌﾞﾔｸ","kana_address":"ｳｸﾞｲｽﾀﾞﾆﾁｮｳ","pref":"東京都","city":"渋谷区","address":"鶯谷町"},
{"zip_code":"1500042","kana_pref":"ﾄｳｷｮｳﾄ","kana_city":"ｼﾌﾞﾔｸ","kana_address":"ｳﾀﾞｶﾞﾜﾁｮｳ","pref":"東京都","city":"渋谷区","address":"宇田川町"},
{"zip_code":"1500013","kana_pref":"ﾄｳｷｮｳﾄ","kana_city":"ｼﾌﾞﾔｸ","kana_address":"ｴﾋﾞｽ","pref":"東京都","city":"渋谷区","address":"恵比寿"},
{"zip_code":"1506090","kana_pref":"ﾄｳｷｮｳﾄ","kana_city":"ｼﾌﾞﾔｸ","kana_address":"ｴﾋﾞｽｴﾋﾞｽｶﾞｰﾃﾞﾝﾌﾟﾚｲｽ","pref":"東京都","city":"渋谷区","address":"恵比寿恵比寿ガーデンプレイス"},
{"zip_code":"1506001","kana_pref":"ﾄｳｷｮｳﾄ","kana_city":"ｼﾌﾞﾔｸ","kana_address":"ｴﾋﾞｽｴﾋﾞｽｶﾞｰﾃﾞﾝﾌﾟﾚｲｽ","pref":"東京都","city":"渋谷区","address":"恵比寿恵比寿ガーデンプレイス"},
{"zip_code":"1506002","kana_pref":"ﾄｳｷｮｳﾄ","kana_city":"ｼﾌﾞﾔｸ","kana_address":"ｴﾋﾞｽｴﾋﾞｽｶﾞｰﾃﾞﾝﾌﾟﾚｲｽ","pref":"東京都","city":"渋谷区","address":"恵比寿恵比寿ガーデンプレイス"},
{"zip_code":"1506003","kana_pref":"ﾄｳｷｮｳﾄ","kana_city":"ｼﾌﾞﾔｸ","kana_address":"ｴﾋﾞｽｴﾋﾞｽｶﾞｰﾃﾞﾝﾌﾟﾚｲｽ","pref":"東京都","city":"渋谷区","address":"恵比寿恵比寿ガーデンプレイス"},
{"zip_code":"1506004","kana_pref":"ﾄｳｷｮｳﾄ","kana_city":"ｼﾌﾞﾔｸ","kana_address":"ｴﾋﾞｽｴﾋﾞｽｶﾞｰﾃﾞﾝﾌﾟﾚｲｽ","pref":"東京都","city":"渋谷区","address":"恵比寿恵比寿ガーデンプレイス"},
{"zip_code":"1506005","kana_pref":"ﾄｳｷｮｳﾄ","kana_city":"ｼﾌﾞﾔｸ","kana_address":"ｴﾋﾞｽｴﾋﾞｽｶﾞｰﾃﾞﾝﾌﾟﾚｲｽ","pref":"東京都","city":"渋谷区","address":"恵比寿恵比寿ガーデンプレイス"},
{"zip_code":"1506006","kana_pref":"ﾄｳｷｮｳﾄ","kana_city":"ｼﾌﾞﾔｸ","kana_address":"ｴﾋﾞｽｴﾋﾞｽｶﾞｰﾃﾞﾝﾌﾟﾚｲｽ","pref":"東京都","city":"渋谷区","address":"恵比寿恵比寿ガーデンプレイス"},
{"zip_code":"1506007","kana_pref":"ﾄｳｷｮｳﾄ","kana_city":"ｼﾌﾞﾔｸ","kana_address":"ｴﾋﾞｽｴﾋﾞｽｶﾞｰﾃﾞﾝﾌﾟﾚｲｽ","pref":"東京都","city":"渋谷区","address":"恵比寿恵比寿ガーデンプレイス"},
{"zip_code":"1506008","kana_pref":"ﾄｳｷｮｳﾄ","kana_city":"ｼﾌﾞﾔｸ","kana_address":"ｴﾋﾞｽｴﾋﾞｽｶﾞｰﾃﾞﾝﾌﾟﾚｲｽ","pref":"東京都","city":"渋谷区","address":"恵比寿恵比寿ガーデンプレイス"},
{"zip_code":"1506009","kana_pref":"ﾄｳｷｮｳﾄ","kana_city":"ｼﾌﾞﾔｸ","kana_address":"ｴﾋﾞｽｴﾋﾞｽｶﾞｰﾃﾞﾝﾌﾟﾚｲｽ","pref":"東京都","city":"渋谷区","address":"恵比寿恵比寿ガーデンプレイス"},
{"zip_code":"1506010","kana_pref":"ﾄｳｷｮｳﾄ","kana_city":"ｼﾌﾞﾔｸ","kana_address":"ｴﾋﾞｽｴﾋﾞｽｶﾞｰﾃﾞﾝﾌﾟﾚｲｽ","pref":"東京都","city":"渋谷区","address":"恵比寿恵比寿ガーデンプレイス"},
{"zip_code":"1506011","kana_pref":"ﾄｳｷｮｳﾄ","kana_city":"ｼﾌﾞﾔｸ","kana_address":"ｴﾋﾞｽｴﾋﾞｽｶﾞｰﾃﾞﾝﾌﾟﾚｲｽ","pref":"東京都","city":"渋谷区","address":"恵比寿恵比寿ガーデンプレイス"},
{"zip_code":"1506012","kana_pref":"ﾄｳｷｮｳﾄ","kana_city":"ｼﾌﾞﾔｸ","kana_address":"ｴﾋﾞｽｴﾋﾞｽｶﾞｰﾃﾞﾝﾌﾟﾚｲｽ","pref":"東京都","city":"渋谷区","address":"恵比寿恵比寿ガーデンプレイス"},
{"zip_code":"1506013","kana_pref":"ﾄｳｷｮｳﾄ","kana_city":"ｼﾌﾞﾔｸ","kana_address":"ｴﾋﾞｽｴﾋﾞｽｶﾞｰﾃﾞﾝﾌﾟﾚｲｽ","pref":"東京都","city":"渋谷区","address":"恵比寿恵比寿ガーデンプレイス"},
{"zip_code":"1506014","kana_pref":"ﾄｳｷｮｳﾄ","kana_city":"ｼﾌﾞﾔｸ","kana_address":"ｴﾋﾞｽｴﾋﾞｽｶﾞｰﾃﾞﾝﾌﾟﾚｲｽ","pref":"東京都","city":"渋谷区","address":"恵比寿恵比寿ガーデンプレイス"},
{"zip_code":"1506015","kana_pref":"ﾄｳｷｮｳﾄ","kana_city":"ｼﾌﾞﾔｸ","kana_address":"ｴﾋﾞｽｴﾋﾞｽｶﾞｰﾃﾞﾝﾌﾟﾚｲｽ","pref":"東京都","city":"渋谷区","address":"恵比寿恵比寿ガーデンプレイス"},
{"zip_code":"1506016","kana_pref":"ﾄｳｷｮｳﾄ","kana_city":"ｼﾌﾞﾔｸ","kana_address":"ｴﾋﾞｽｴﾋﾞｽｶﾞｰﾃﾞﾝﾌﾟﾚｲｽ","pref":"東京都","city":"渋谷区","address":"恵比寿恵比寿ガーデンプレイス"},
{"zip_code":"1506017","kana_pref":"ﾄｳｷｮｳﾄ","kana_city":"ｼﾌﾞﾔｸ","kana_address":"ｴﾋﾞｽｴﾋﾞｽｶﾞｰﾃﾞﾝﾌﾟﾚｲｽ","pref":"東京都","city":"渋谷区","address":"恵比寿恵比寿ガーデンプレイス"},
{"zip_code":"1506018","kana_pref":"ﾄｳｷｮｳﾄ","kana_city":"ｼﾌﾞﾔｸ","kana_address":"ｴﾋﾞｽｴﾋﾞｽｶﾞｰﾃﾞﾝﾌﾟﾚｲｽ","pref":"東京都","city":"渋谷区","address":"恵比寿恵比寿ガーデンプレイス"},
{"zip_code":"1506019","kana_pref":"ﾄｳｷｮｳﾄ","kana_city":"ｼﾌﾞﾔｸ","kana_address":"ｴﾋﾞｽｴﾋﾞｽｶﾞｰﾃﾞﾝﾌﾟﾚｲｽ","pref":"東京都","city":"渋谷区","address":"恵比寿恵比寿ガーデンプレイス"},
{"zip_code":"1506020","kana_pref":"ﾄｳｷｮｳﾄ","kana_city":"ｼﾌﾞﾔｸ","kana_address":"ｴﾋﾞｽｴﾋﾞｽｶﾞｰﾃﾞﾝﾌﾟﾚｲｽ","pref":"東京都","city":"渋谷区","address":"恵比寿恵比寿ガーデンプレイス"},
{"zip_code":"1506021","kana_pref":"ﾄｳｷｮｳﾄ","kana_city":"ｼﾌﾞﾔｸ","kana_address":"ｴﾋﾞｽｴﾋﾞｽｶﾞｰﾃﾞﾝﾌﾟﾚｲｽ","pref":"東京都","city":"渋谷区","address":"恵比寿恵比寿ガーデンプレイス"},
{"zip_code":"1506022","kana_pref":"ﾄｳｷｮｳﾄ","kana_city":"ｼﾌﾞﾔｸ","kana_address":"ｴﾋﾞｽｴﾋﾞｽｶﾞｰﾃﾞﾝﾌﾟﾚｲｽ","pref":"東京都","city":"渋谷区","address":"恵比寿恵比寿ガーデンプレイス"},
{"zip_code":"1506023","kana_pref":"ﾄｳｷｮｳﾄ","kana_city":"ｼﾌﾞﾔｸ","kana_address":"ｴﾋﾞｽｴﾋﾞｽｶﾞｰﾃﾞﾝﾌﾟﾚｲｽ","pref":"東京都","city":"渋谷区","address":"恵比寿恵比寿ガーデンプレイス"},
{"zip_code":"1506024","kana_pref":"ﾄｳｷｮｳﾄ","kana_city":"ｼﾌﾞﾔｸ","kana_address":"ｴﾋﾞｽｴﾋﾞｽｶﾞｰﾃﾞﾝﾌﾟﾚｲｽ","pref":"東京都","city":"渋谷区","address":"恵比寿恵比寿ガーデンプレイス"},
{"zip_code":"1506025","kana_pref":"ﾄｳｷｮｳﾄ","kana_city":"ｼﾌﾞﾔｸ","kana_address":"ｴﾋﾞｽｴﾋﾞｽｶﾞｰﾃﾞﾝﾌﾟﾚｲｽ","pref":"東京都","city":"渋谷区","address":"恵比寿恵比寿ガーデンプレイス"},
{"zip_code":"1506026","kana_pref":"ﾄｳｷｮｳﾄ","kana_city":"ｼﾌﾞﾔｸ","kana_address":"ｴﾋﾞｽｴﾋﾞｽｶﾞｰﾃﾞﾝﾌﾟﾚｲｽ","pref":"東京都","city":"渋谷区","address":"恵比寿恵比寿ガーデンプレイス"},
{"zip_code":"1506027","kana_pref":"ﾄｳｷｮｳﾄ","kana_city":"ｼﾌﾞﾔｸ","kana_address":"ｴﾋﾞｽｴﾋﾞｽｶﾞｰﾃﾞﾝﾌﾟﾚｲｽ","pref":"東京都","city":"渋谷区","address":"恵比寿恵比寿ガーデンプレイス"},
{"zip_code":"1506028","kana_pref":"ﾄｳｷｮｳﾄ","kana_city":"ｼﾌﾞﾔｸ","kana_address":"ｴﾋﾞｽｴﾋﾞｽｶﾞｰﾃﾞﾝﾌﾟﾚｲｽ","pref":"東京都","city":"渋谷区","address":"恵比寿恵比寿ガーデンプレイス"},
{"zip_code":"1506029","kana_pref":"ﾄｳｷｮｳﾄ","kana_city":"ｼﾌﾞﾔｸ","kana_address":"ｴﾋﾞｽｴﾋﾞｽｶﾞｰﾃﾞﾝﾌﾟﾚｲｽ","pref":"東京都","city":"渋谷区","address":"恵比寿恵比寿ガーデンプレイス"},
{"zip_code":"1506030","kana_pref":"ﾄｳｷｮｳﾄ","kana_city":"ｼﾌﾞﾔｸ","kana_address":"ｴﾋﾞｽｴﾋﾞｽｶﾞｰﾃﾞﾝﾌﾟﾚｲｽ","pref":"東京都","city":"渋谷区","address":"恵比寿恵比寿ガーデンプレイス"},
{"zip_code":"1506031","kana_pref":"ﾄｳｷｮｳﾄ","kana_city":"ｼﾌﾞﾔｸ","kana_address":"ｴﾋﾞｽｴﾋﾞｽｶﾞｰﾃﾞﾝﾌﾟﾚｲｽ","pref":"東京都","city":"渋谷区","address":"恵比寿恵比寿ガーデンプレイス"},
{"zip_code":"1506032","kana_pref":"ﾄｳｷｮｳﾄ","kana_city":"ｼﾌﾞﾔｸ","kana_address":"ｴﾋﾞｽｴﾋﾞｽｶﾞｰﾃﾞﾝﾌﾟﾚｲｽ","pref":"東京都","city":"渋谷区","address":"恵比寿恵比寿ガーデンプレイス"},
{"zip_code":"1506033","kana_pref":"ﾄｳｷｮｳﾄ","kana_city":"ｼﾌﾞﾔｸ","kana_address":"ｴﾋﾞｽｴﾋﾞｽｶﾞｰﾃﾞﾝﾌﾟﾚｲｽ","pref":"東京都","city":"渋谷区","address":"恵比寿恵比寿ガーデンプレイス"},
{"zip_code":"1506034","kana_pref":"ﾄｳｷｮｳﾄ","kana_city":"ｼﾌﾞﾔｸ","kana_address":"ｴﾋﾞｽｴﾋﾞｽｶﾞｰﾃﾞﾝﾌﾟﾚｲｽ","pref":"東京都","city":"渋谷区","address":"恵比寿恵比寿ガーデンプレイス"},
{"zip_code":"1506035","kana_pref":"ﾄｳｷｮｳﾄ","kana_city":"ｼﾌﾞﾔｸ","kana_address":"ｴﾋﾞｽｴﾋﾞｽｶﾞｰﾃﾞﾝﾌﾟﾚｲｽ","pref":"東京都","city":"渋谷区","address":"恵比寿恵比寿ガーデンプレイス"},
{"zip_code":"1506036","kana_pref":"ﾄｳｷｮｳﾄ","kana_city":"ｼﾌﾞﾔｸ","kana_address":"ｴﾋﾞｽｴﾋﾞｽｶﾞｰﾃﾞﾝﾌﾟﾚｲｽ","pref":"東京都","city":"渋谷区","address":"恵比寿恵比寿ガーデンプレイス"},
{"zip_code":"1506037","kana_pref":"ﾄｳｷｮｳﾄ","kana_city":"ｼﾌﾞﾔｸ","kana_address":"ｴﾋﾞｽｴﾋﾞｽｶﾞｰﾃﾞﾝﾌﾟﾚｲｽ","pref":"東京都","city":"渋谷区","address":"恵比寿恵比寿ガーデンプレイス"},
{"zip_code":"1506038","kana_pref":"ﾄｳｷｮｳﾄ","kana_city":"ｼﾌﾞﾔｸ","kana_address":"ｴﾋﾞｽｴﾋﾞｽｶﾞｰﾃﾞﾝﾌﾟﾚｲｽ","pref":"東京都","city":"渋谷区","address":"恵比寿恵比寿ガーデンプレイス"},
{"zip_code":"1506039","kana_pref":"ﾄｳｷｮｳﾄ","kana_city":"ｼﾌﾞﾔｸ","kana_address":"ｴﾋﾞｽｴﾋﾞｽｶﾞｰﾃﾞﾝﾌﾟﾚｲｽ","pref":"東京都","city":"渋谷区","address":"恵比寿恵比寿ガーデンプレイス"},
{"zip_code":"1500021","kana_pref":"ﾄｳｷｮｳﾄ","kana_city":"ｼﾌﾞﾔｸ","kana_address":"ｴﾋﾞｽﾆｼ","pref":"東京都","city":"渋谷区","address":"恵比寿西"},
{"zip_code":"1500022","kana_pref":"ﾄｳｷｮｳﾄ","kana_city":"ｼﾌﾞﾔｸ","kana_address":"ｴﾋﾞｽﾐﾅﾐ","pref":"東京都","city":"渋谷区","address":"恵比寿南"},
{"zip_code":"1500047","kana_pref":"ﾄｳｷｮｳﾄ","kana_city":"ｼﾌﾞﾔｸ","kana_address":"ｶﾐﾔﾏﾁｮｳ","pref":"東京都","city":"渋谷区","address":"神山町"},
{"zip_code":"1500031","kana_pref":"ﾄｳｷｮｳﾄ","kana_city":"ｼﾌﾞﾔｸ","kana_address":"ｻｸﾗｶﾞｵｶﾁｮｳ","pref":"東京都","city":"渋谷区","address":"桜丘町"},
{"zip_code":"1500033","kana_pref":"ﾄｳｷｮｳﾄ","kana_city":"ｼﾌﾞﾔｸ","kana_address":"ｻﾙｶﾞｸﾁｮｳ","pref":"東京都","city":"渋谷区","address":"猿楽町"},
{"zip_code":"1500002","kana_pref":"ﾄｳｷｮｳﾄ","kana_city":"ｼﾌﾞﾔｸ","kana_address":"ｼﾌﾞﾔ","pref":"東京都","city":"渋谷区","address":"渋谷"},
{"zip_code":"1500046","kana_pref":"ﾄｳｷｮｳﾄ","kana_city":"ｼﾌﾞﾔｸ","kana_address":"ｼｮｳﾄｳ","pref":"東京都","city":"渋谷区","address":"松濤"},
{"zip_code":"1500001","kana_pref":"ﾄｳｷｮｳﾄ","kana_city":"ｼﾌﾞﾔｸ","kana_address":"ｼﾞﾝｸﾞｳﾏｴ","pref":"東京都","city":"渋谷区","address":"神宮前"},
{"zip_code":"1500045","kana_pref":"ﾄｳｷｮｳﾄ","kana_city":"ｼﾌﾞﾔｸ","kana_address":"ｼﾝｾﾝﾁｮｳ","pref":"東京都","city":"渋谷区","address":"神泉町"},
{"zip_code":"1500041","kana_pref":"ﾄｳｷｮｳﾄ","kana_city":"ｼﾌﾞﾔｸ","kana_address":"ｼﾞﾝﾅﾝ","pref":"東京都","city":"渋谷区","address":"神南"},
{"zip_code":"1500034","kana_pref":"ﾄｳｷｮｳﾄ","kana_city":"ｼﾌﾞﾔｸ","kana_address":"ﾀﾞｲｶﾝﾔﾏﾁｮｳ","pref":"東京都","city":"渋谷区","address":"代官山町"},
{"zip_code":"1500043","kana_pref":"ﾄｳｷｮｳﾄ","kana_city":"ｼﾌﾞﾔｸ","kana_address":"ﾄﾞｳｹﾞﾝｻﾞｶ","pref":"東京都","city":"渋谷区","address":"道玄坂"},
{"zip_code":"1500036","kana_pref":"ﾄｳｷｮｳﾄ","kana_city":"ｼﾌﾞﾔｸ","kana_address":"ﾅﾝﾍﾟｲﾀﾞｲﾁｮｳ","pref":"東京都","city":"渋谷区","address":"南平台町"},
{"zip_code":"1500035","kana_pref":"ﾄｳｷｮｳﾄ","kana_city":"ｼﾌﾞﾔｸ","kana_address":"ﾊﾁﾔﾏﾁｮｳ","pref":"東京都","city":"渋谷区","address":"鉢山町"},
{"zip_code":"1500011","kana_pref":"ﾄｳｷｮｳﾄ","kana_city":"ｼﾌﾞﾔｸ","kana_address":"ﾋｶﾞｼ","pref":"東京都","city":"渋谷区","address":"東"},
{"zip_code":"1500012","kana_pref":"ﾄｳｷｮｳﾄ","kana_city":"ｼﾌﾞﾔｸ","kana_address":"ﾋﾛｵ","pref":"東京都","city":"渋谷区","address":"広尾"},
{"zip_code":"1500044","kana_pref":"ﾄｳｷｮｳﾄ","kana_city":"ｼﾌﾞﾔｸ","kana_address":"ﾏﾙﾔﾏﾁｮｳ","pref":"東京都","city":"渋谷区","address":"円山町"}]}