{"zip_code":[
{"zip_code":"1510064","kana_pref":"ﾄｳｷｮｳﾄ","kana_city":"ｼﾌﾞﾔｸ","kana_address":"ｳｴﾊﾗ","pref":"東京都","city":"渋谷区","address":"上原"},
{"zip_code":"1510065","kana_pref":"ﾄｳｷｮｳﾄ","kana_city":"ｼﾌﾞﾔｸ","kana_address":"ｵｵﾔﾏﾁｮｳ","pref":"東京都","city":"渋谷区","address":"大山町"},
{"zip_code":"1510073","kana_pref":"ﾄｳｷｮｳﾄ","kana_city":"ｼﾌﾞﾔｸ","kana_address":"ｻｻﾂﾞｶ","pref":"東京都","city":"渋谷区","address":"笹塚"},
{"zip_code":"1510051","kana_pref":"ﾄｳｷｮｳﾄ","kana_city":"ｼﾌﾞﾔｸ","kana_address":"ｾﾝﾀﾞｶﾞﾔ","pref":"東京都","city":"渋谷区","address":"千駄ヶ谷"},
{"zip_code":"1510063","kana_pref":"ﾄｳｷｮｳﾄ","kana_city":"ｼﾌﾞﾔｸ","kana_address":"ﾄﾐｶﾞﾔ","pref":"東京都","city":"渋谷区","address":"富ヶ谷"},
{"zip_code":"1510066","kana_pref":"ﾄｳｷｮｳﾄ","kana_city":"ｼﾌﾞﾔｸ","kana_address":"ﾆｼﾊﾗ","pref":"東京都","city":"渋谷区","address":"西原"},
{"zip_code":"1510072","kana_pref":"ﾄｳｷｮｳﾄ","kana_city":"ｼﾌﾞﾔｸ","kana_address":"ﾊﾀｶﾞﾔ","pref":"東京都","city":"渋谷区","address":"幡ヶ谷"},
{"zip_code":"1510061","kana_pref":"ﾄｳｷｮｳﾄ","kana_city":"ｼﾌﾞﾔｸ","kana_address":"ﾊﾂﾀﾞｲ","pref":"東京都","city":"渋谷区","address":"初台"},
{"zip_code":"1510071","kana_pref":"ﾄｳｷｮｳﾄ","kana_city":"ｼﾌﾞﾔｸ","kana_address":"ﾎﾝﾏﾁ","pref":"東京都","city":"渋谷区","address":"本町"},
{"zip_code":"1510062","kana_pref":"ﾄｳｷｮｳﾄ","kana_city":"ｼﾌﾞﾔｸ","kana_address":"ﾓﾄﾖﾖｷﾞﾁｮｳ","pref":"東京都","city":"渋谷区","address":"元代々木町"},
{"zip_code":"1510053","kana_pref":"ﾄｳｷｮｳﾄ","kana_city":"ｼﾌﾞﾔｸ","kana_address":"ﾖﾖｷﾞ","pref":"東京都","city":"渋谷区","address":"代々木"},
{"zip_code":"1510052","kana_pref":"ﾄｳｷｮｳﾄ","kana_city":"ｼﾌﾞﾔｸ","kana_address":"ﾖﾖｷﾞｶﾐｿﾞﾉﾁｮｳ","pref":"東京都","city":"渋谷区","address":"代々木神園町"}]}