{"zip_code":[
{"zip_code":"1520000","kana_pref":"ﾄｳｷｮｳﾄ","kana_city":"ﾒｸﾞﾛｸ","kana_address":"","pref":"東京都","city":"目黒区","address":""},
{"zip_code":"1520033","kana_pref":"ﾄｳｷｮｳﾄ","kana_city":"ﾒｸﾞﾛｸ","kana_address":"ｵｵｵｶﾔﾏ","pref":"東京都","city":"目黒区","address":"大岡山"},
{"zip_code":"1520022","kana_pref":"ﾄｳｷｮｳﾄ","kana_city":"ﾒｸﾞﾛｸ","kana_address":"ｶｷﾉｷｻﾞｶ","pref":"東京都","city":"目黒区","address":"柿の木坂"},
{"zip_code":"1520035","kana_pref":"ﾄｳｷｮｳﾄ","kana_city":"ﾒｸﾞﾛｸ","kana_address":"ｼﾞﾕｳｶﾞｵｶ","pref":"東京都","city":"目黒区","address":"自由が丘"},
{"zip_code":"1520012","kana_pref":"ﾄｳｷｮｳﾄ","kana_city":"ﾒｸﾞﾛｸ","kana_address":"ｾﾝｿﾞｸ","pref":"東京都","city":"目黒区","address":"洗足"},
{"zip_code":"1520032","kana_pref":"ﾄｳｷｮｳﾄ","kana_city":"ﾒｸﾞﾛｸ","kana_address":"ﾀｲﾗﾏﾁ","pref":"東京都","city":"目黒区","address":"平町"},
{"zip_code":"1520004","kana_pref":"ﾄｳｷｮｳﾄ","kana_city":"ﾒｸﾞﾛｸ","kana_address":"ﾀｶﾊﾞﾝ","pref":"東京都","city":"目黒区","address":"鷹番"},
{"zip_code":"1520001","kana_pref":"ﾄｳｷｮｳﾄ","kana_city":"ﾒｸﾞﾛｸ","kana_address":"ﾁｭｳｵｳﾁｮｳ","pref":"東京都","city":"目黒区","address":"中央町"},
{"zip_code":"1520031","kana_pref":"ﾄｳｷｮｳﾄ","kana_city":"ﾒｸﾞﾛｸ","kana_address":"ﾅｶﾈ","pref":"東京都","city":"目黒区","address":"中根"},
{"zip_code":"1520011","kana_pref":"ﾄｳｷｮｳﾄ","kana_city":"ﾒｸﾞﾛｸ","kana_address":"ﾊﾗﾏﾁ","pref":"東京都","city":"目黒区","address":"原町"},
{"zip_code":"1520021","kana_pref":"ﾄｳｷｮｳﾄ","kana_city":"ﾒｸﾞﾛｸ","kana_address":"ﾋｶﾞｼｶﾞｵｶ","pref":"東京都","city":"目黒区","address":"東が丘"},
{"zip_code":"1520003","kana_pref":"ﾄｳｷｮｳﾄ","kana_city":"ﾒｸﾞﾛｸ","kana_address":"ﾋﾓﾝﾔ","pref":"東京都","city":"目黒区","address":"碑文谷"},
{"zip_code":"1520034","kana_pref":"ﾄｳｷｮｳﾄ","kana_city":"ﾒｸﾞﾛｸ","kana_address":"ﾐﾄﾞﾘｶﾞｵｶ","pref":"東京都","city":"目黒区","address":"緑が丘"},
{"zip_code":"1520013","kana_pref":"ﾄｳｷｮｳﾄ","kana_city":"ﾒｸﾞﾛｸ","kana_address":"ﾐﾅﾐ","pref":"東京都","city":"目黒区","address":"南"},
{"zip_code":"1520002","kana_pref":"ﾄｳｷｮｳﾄ","kana_city":"ﾒｸﾞﾛｸ","kana_address":"ﾒｸﾞﾛﾎﾝﾁｮｳ","pref":"東京都","city":"目黒区","address":"目黒本町"},
{"zip_code":"1520023","kana_pref":"ﾄｳｷｮｳﾄ","kana_city":"ﾒｸﾞﾛｸ","kana_address":"ﾔｸﾓ","pref":"東京都","city":"目黒区","address":"八雲"}]}