{"zip_code":[
{"zip_code":"1530042","kana_pref":"ﾄｳｷｮｳﾄ","kana_city":"ﾒｸﾞﾛｸ","kana_address":"ｱｵﾊﾞﾀﾞｲ","pref":"東京都","city":"目黒区","address":"青葉台"},
{"zip_code":"1530044","kana_pref":"ﾄｳｷｮｳﾄ","kana_city":"ﾒｸﾞﾛｸ","kana_address":"ｵｵﾊｼ","pref":"東京都","city":"目黒区","address":"大橋"},
{"zip_code":"1530051","kana_pref":"ﾄｳｷｮｳﾄ","kana_city":"ﾒｸﾞﾛｸ","kana_address":"ｶﾐﾒｸﾞﾛ","pref":"東京都","city":"目黒区","address":"上目黒"},
{"zip_code":"1530053","kana_pref":"ﾄｳｷｮｳﾄ","kana_city":"ﾒｸﾞﾛｸ","kana_address":"ｺﾞﾎﾝｷﾞ","pref":"東京都","city":"目黒区","address":"五本木"},
{"zip_code":"1530041","kana_pref":"ﾄｳｷｮｳﾄ","kana_city":"ﾒｸﾞﾛｸ","kana_address":"ｺﾏﾊﾞ","pref":"東京都","city":"目黒区","address":"駒場"},
{"zip_code":"1530064","kana_pref":"ﾄｳｷｮｳﾄ","kana_city":"ﾒｸﾞﾛｸ","kana_address":"ｼﾓﾒｸﾞﾛ","pref":"東京都","city":"目黒区","address":"下目黒"},
{"zip_code":"1530065","kana_pref":"ﾄｳｷｮｳﾄ","kana_city":"ﾒｸﾞﾛｸ","kana_address":"ﾅｶﾁｮｳ","pref":"東京都","city":"目黒区","address":"中町"},
{"zip_code":"1530061","kana_pref":"ﾄｳｷｮｳﾄ","kana_city":"ﾒｸﾞﾛｸ","kana_address":"ﾅｶﾒｸﾞﾛ","pref":"東京都","city":"目黒区","address":"中目黒"},
{"zip_code":"1530043","kana_pref":"ﾄｳｷｮｳﾄ","kana_city":"ﾒｸﾞﾛｸ","kana_address":"ﾋｶﾞｼﾔﾏ","pref":"東京都","city":"目黒区","address":"東山"},
{"zip_code":"1530062","kana_pref":"ﾄｳｷｮｳﾄ","kana_city":"ﾒｸﾞﾛｸ","kana_address":"ﾐﾀ","pref":"東京都","city":"目黒区","address":"三田"},
{"zip_code":"1530063","kana_pref":"ﾄｳｷｮｳﾄ","kana_city":"ﾒｸﾞﾛｸ","kana_address":"ﾒｸﾞﾛ","pref":"東京都","city":"目黒区","address":"目黒"},
{"zip_code":"1530052","kana_pref":"ﾄｳｷｮｳﾄ","kana_city":"ﾒｸﾞﾛｸ","kana_address":"ﾕｳﾃﾝｼﾞ","pref":"東京都","city":"目黒区","address":"祐天寺"}]}