{"zip_code":[
{"zip_code":"1540000","kana_pref":"ﾄｳｷｮｳﾄ","kana_city":"ｾﾀｶﾞﾔｸ","kana_address":"","pref":"東京都","city":"世田谷区","address":""},
{"zip_code":"1540001","kana_pref":"ﾄｳｷｮｳﾄ","kana_city":"ｾﾀｶﾞﾔｸ","kana_address":"ｲｹｼﾞﾘ","pref":"東京都","city":"世田谷区","address":"池尻"},
{"zip_code":"1540022","kana_pref":"ﾄｳｷｮｳﾄ","kana_city":"ｾﾀｶﾞﾔｸ","kana_address":"ｳﾒｶﾞｵｶ","pref":"東京都","city":"世田谷区","address":"梅丘"},
{"zip_code":"1540011","kana_pref":"ﾄｳｷｮｳﾄ","kana_city":"ｾﾀｶﾞﾔｸ","kana_address":"ｶﾐｳﾏ","pref":"東京都","city":"世田谷区","address":"上馬"},
{"zip_code":"1540021","kana_pref":"ﾄｳｷｮｳﾄ","kana_city":"ｾﾀｶﾞﾔｸ","kana_address":"ｺﾞｳﾄｸｼﾞ","pref":"東京都","city":"世田谷区","address":"豪徳寺"},
{"zip_code":"1540012","kana_pref":"ﾄｳｷｮｳﾄ","kana_city":"ｾﾀｶﾞﾔｸ","kana_address":"ｺﾏｻﾞﾜ","pref":"東京都","city":"世田谷区","address":"駒沢"},
{"zip_code":"1540013","kana_pref":"ﾄｳｷｮｳﾄ","kana_city":"ｾﾀｶﾞﾔｸ","kana_address":"ｺﾏｻﾞﾜｺｳｴﾝ","pref":"東京都","city":"世田谷区","address":"駒沢公園"},
{"zip_code":"1540015","kana_pref":"ﾄｳｷｮｳﾄ","kana_city":"ｾﾀｶﾞﾔｸ","kana_address":"ｻｸﾗｼﾝﾏﾁ","pref":"東京都","city":"世田谷区","address":"桜新町"},
{"zip_code":"1540024","kana_pref":"ﾄｳｷｮｳﾄ","kana_city":"ｾﾀｶﾞﾔｸ","kana_address":"ｻﾝｹﾞﾝﾁﾞｬﾔ","pref":"東京都","city":"世田谷区","address":"三軒茶屋"},
{"zip_code":"1540002","kana_pref":"ﾄｳｷｮｳﾄ","kana_city":"ｾﾀｶﾞﾔｸ","kana_address":"ｼﾓｳﾏ","pref":"東京都","city":"世田谷区","address":"下馬"},
{"zip_code":"1540014","kana_pref":"ﾄｳｷｮｳﾄ","kana_city":"ｾﾀｶﾞﾔｸ","kana_address":"ｼﾝﾏﾁ","pref":"東京都","city":"世田谷区","address":"新町"},
{"zip_code":"1540017","kana_pref":"ﾄｳｷｮｳﾄ","kana_city":"ｾﾀｶﾞﾔｸ","kana_address":"ｾﾀｶﾞﾔ","pref":"東京都","city":"世田谷区","address":"世田谷"},
{"zip_code":"1540004","kana_pref":"ﾄｳｷｮｳﾄ","kana_city":"ｾﾀｶﾞﾔｸ","kana_address":"ﾀｲｼﾄﾞｳ","pref":"東京都","city":"世田谷区","address":"太子堂"},
{"zip_code":"1540016","kana_pref":"ﾄｳｷｮｳﾄ","kana_city":"ｾﾀｶﾞﾔｸ","kana_address":"ﾂﾙﾏｷ","pref":"東京都","city":"世田谷区","address":"弦巻"},
{"zip_code":"1540003","kana_pref":"ﾄｳｷｮｳﾄ","kana_city":"ｾﾀｶﾞﾔｸ","kana_address":"ﾉｻﾞﾜ","pref":"東京都","city":"世田谷区","address":"野沢"},
{"zip_code":"1540005","kana_pref":"ﾄｳｷｮｳﾄ","kana_city":"ｾﾀｶﾞﾔｸ","kana_address":"ﾐｼｭｸ","pref":"東京都","city":"世田谷区","address":"三宿"},
{"zip_code":"1540023","kana_pref":"ﾄｳｷｮｳﾄ","kana_city":"ｾﾀｶﾞﾔｸ","kana_address":"ﾜｶﾊﾞﾔｼ","pref":"東京都","city":"世田谷区","address":"若林"}]}