{"zip_code":[
{"zip_code":"1560044","kana_pref":"ﾄｳｷｮｳﾄ","kana_city":"ｾﾀｶﾞﾔｸ","kana_address":"ｱｶﾂﾂﾐ","pref":"東京都","city":"世田谷区","address":"赤堤"},
{"zip_code":"1560041","kana_pref":"ﾄｳｷｮｳﾄ","kana_city":"ｾﾀｶﾞﾔｸ","kana_address":"ｵｵﾊﾗ","pref":"東京都","city":"世田谷区","address":"大原"},
{"zip_code":"1560057","kana_pref":"ﾄｳｷｮｳﾄ","kana_city":"ｾﾀｶﾞﾔｸ","kana_address":"ｶﾐｷﾀｻﾞﾜ","pref":"東京都","city":"世田谷区","address":"上北沢"},
{"zip_code":"1560052","kana_pref":"ﾄｳｷｮｳﾄ","kana_city":"ｾﾀｶﾞﾔｸ","kana_address":"ｷｮｳﾄﾞｳ","pref":"東京都","city":"世田谷区","address":"経堂"},
{"zip_code":"1560053","kana_pref":"ﾄｳｷｮｳﾄ","kana_city":"ｾﾀｶﾞﾔｸ","kana_address":"ｻｸﾗ","pref":"東京都","city":"世田谷区","address":"桜"},
{"zip_code":"1560054","kana_pref":"ﾄｳｷｮｳﾄ","kana_city":"ｾﾀｶﾞﾔｸ","kana_address":"ｻｸﾗｶﾞｵｶ","pref":"東京都","city":"世田谷区","address":"桜丘"},
{"zip_code":"1560045","kana_pref":"ﾄｳｷｮｳﾄ","kana_city":"ｾﾀｶﾞﾔｸ","kana_address":"ｻｸﾗｼﾞｮｳｽｲ","pref":"東京都","city":"世田谷区","address":"桜上水"},
{"zip_code":"1560056","kana_pref":"ﾄｳｷｮｳﾄ","kana_city":"ｾﾀｶﾞﾔｸ","kana_address":"ﾊﾁﾏﾝﾔﾏ","pref":"東京都","city":"世田谷区","address":"八幡山"},
{"zip_code":"1560042","kana_pref":"ﾄｳｷｮｳﾄ","kana_city":"ｾﾀｶﾞﾔｸ","kana_address":"ﾊﾈｷﾞ","pref":"東京都","city":"世田谷区","address":"羽根木"},
{"zip_code":"1560055","kana_pref":"ﾄｳｷｮｳﾄ","kana_city":"ｾﾀｶﾞﾔｸ","kana_address":"ﾌﾅﾊﾞｼ","pref":"東京都","city":"世田谷区","address":"船橋"},
{"zip_code":"1560043","kana_pref":"ﾄｳｷｮｳﾄ","kana_city":"ｾﾀｶﾞﾔｸ","kana_address":"ﾏﾂﾊﾞﾗ","pref":"東京都","city":"世田谷区","address":"松原"},
{"zip_code":"1560051","kana_pref":"ﾄｳｷｮｳﾄ","kana_city":"ｾﾀｶﾞﾔｸ","kana_address":"ﾐﾔｻｶ","pref":"東京都","city":"世田谷区","address":"宮坂"}]}