{"zip_code":[
{"zip_code":"1570068","kana_pref":"ﾄｳｷｮｳﾄ","kana_city":"ｾﾀｶﾞﾔｸ","kana_address":"ｳﾅﾈ","pref":"東京都","city":"世田谷区","address":"宇奈根"},
{"zip_code":"1570074","kana_pref":"ﾄｳｷｮｳﾄ","kana_city":"ｾﾀｶﾞﾔｸ","kana_address":"ｵｵｸﾗ","pref":"東京都","city":"世田谷区","address":"大蔵"},
{"zip_code":"1570076","kana_pref":"ﾄｳｷｮｳﾄ","kana_city":"ｾﾀｶﾞﾔｸ","kana_address":"ｵｶﾓﾄ","pref":"東京都","city":"世田谷区","address":"岡本"},
{"zip_code":"1570063","kana_pref":"ﾄｳｷｮｳﾄ","kana_city":"ｾﾀｶﾞﾔｸ","kana_address":"ｶｽﾔ","pref":"東京都","city":"世田谷区","address":"粕谷"},
{"zip_code":"1570077","kana_pref":"ﾄｳｷｮｳﾄ","kana_city":"ｾﾀｶﾞﾔｸ","kana_address":"ｶﾏﾀ","pref":"東京都","city":"世田谷区","address":"鎌田"},
{"zip_code":"1570065","kana_pref":"ﾄｳｷｮｳﾄ","kana_city":"ｾﾀｶﾞﾔｸ","kana_address":"ｶﾐｿｼｶﾞﾔ","pref":"東京都","city":"世田谷区","address":"上祖師谷"},
{"zip_code":"1570061","kana_pref":"ﾄｳｷｮｳﾄ","kana_city":"ｾﾀｶﾞﾔｸ","kana_address":"ｷﾀｶﾗｽﾔﾏ","pref":"東京都","city":"世田谷区","address":"北烏山"},
{"zip_code":"1570067","kana_pref":"ﾄｳｷｮｳﾄ","kana_city":"ｾﾀｶﾞﾔｸ","kana_address":"ｷﾀﾐ","pref":"東京都","city":"世田谷区","address":"喜多見"},
{"zip_code":"1570073","kana_pref":"ﾄｳｷｮｳﾄ","kana_city":"ｾﾀｶﾞﾔｸ","kana_address":"ｷﾇﾀ","pref":"東京都","city":"世田谷区","address":"砧"},
{"zip_code":"1570075","kana_pref":"ﾄｳｷｮｳﾄ","kana_city":"ｾﾀｶﾞﾔｸ","kana_address":"ｷﾇﾀｺｳｴﾝ","pref":"東京都","city":"世田谷区","address":"砧公園"},
{"zip_code":"1570064","kana_pref":"ﾄｳｷｮｳﾄ","kana_city":"ｾﾀｶﾞﾔｸ","kana_address":"ｷｭｳﾃﾞﾝ","pref":"東京都","city":"世田谷区","address":"給田"},
{"zip_code":"1570066","kana_pref":"ﾄｳｷｮｳﾄ","kana_city":"ｾﾀｶﾞﾔｸ","kana_address":"ｾｲｼﾞｮｳ","pref":"東京都","city":"世田谷区","address":"成城"},
{"zip_code":"1570072","kana_pref":"ﾄｳｷｮｳﾄ","kana_city":"ｾﾀｶﾞﾔｸ","kana_address":"ｿｼｶﾞﾔ","pref":"東京都","city":"世田谷区","address":"祖師谷"},
{"zip_code":"1570071","kana_pref":"ﾄｳｷｮｳﾄ","kana_city":"ｾﾀｶﾞﾔｸ","kana_address":"ﾁﾄｾﾀﾞｲ","pref":"東京都","city":"世田谷区","address":"千歳台"},
{"zip_code":"1570062","kana_pref":"ﾄｳｷｮｳﾄ","kana_city":"ｾﾀｶﾞﾔｸ","kana_address":"ﾐﾅﾐｶﾗｽﾔﾏ","pref":"東京都","city":"世田谷区","address":"南烏山"}]}