{"zip_code":[
{"zip_code":"1580083","kana_pref":"ﾄｳｷｮｳﾄ","kana_city":"ｾﾀｶﾞﾔｸ","kana_address":"ｵｸｻﾜ","pref":"東京都","city":"世田谷区","address":"奥沢"},
{"zip_code":"1580086","kana_pref":"ﾄｳｷｮｳﾄ","kana_city":"ｾﾀｶﾞﾔｸ","kana_address":"ｵﾔﾏﾀﾞｲ","pref":"東京都","city":"世田谷区","address":"尾山台"},
{"zip_code":"1580093","kana_pref":"ﾄｳｷｮｳﾄ","kana_city":"ｾﾀｶﾞﾔｸ","kana_address":"ｶﾐﾉｹﾞ","pref":"東京都","city":"世田谷区","address":"上野毛"},
{"zip_code":"1580098","kana_pref":"ﾄｳｷｮｳﾄ","kana_city":"ｾﾀｶﾞﾔｸ","kana_address":"ｶﾐﾖｳｶﾞ","pref":"東京都","city":"世田谷区","address":"上用賀"},
{"zip_code":"1580095","kana_pref":"ﾄｳｷｮｳﾄ","kana_city":"ｾﾀｶﾞﾔｸ","kana_address":"ｾﾀ","pref":"東京都","city":"世田谷区","address":"瀬田"},
{"zip_code":"1580094","kana_pref":"ﾄｳｷｮｳﾄ","kana_city":"ｾﾀｶﾞﾔｸ","kana_address":"ﾀﾏｶﾞﾜ","pref":"東京都","city":"世田谷区","address":"玉川"},
{"zip_code":"1580096","kana_pref":"ﾄｳｷｮｳﾄ","kana_city":"ｾﾀｶﾞﾔｸ","kana_address":"ﾀﾏｶﾞﾜﾀﾞｲ","pref":"東京都","city":"世田谷区","address":"玉川台"},
{"zip_code":"1580085","kana_pref":"ﾄｳｷｮｳﾄ","kana_city":"ｾﾀｶﾞﾔｸ","kana_address":"ﾀﾏｶﾞﾜﾃﾞﾝｴﾝﾁｮｳﾌ","pref":"東京都","city":"世田谷区","address":"玉川田園調布"},
{"zip_code":"1580087","kana_pref":"ﾄｳｷｮｳﾄ","kana_city":"ｾﾀｶﾞﾔｸ","kana_address":"ﾀﾏﾂﾞﾂﾐ","pref":"東京都","city":"世田谷区","address":"玉堤"},
{"zip_code":"1580082","kana_pref":"ﾄｳｷｮｳﾄ","kana_city":"ｾﾀｶﾞﾔｸ","kana_address":"ﾄﾄﾞﾛｷ","pref":"東京都","city":"世田谷区","address":"等々力"},
{"zip_code":"1580091","kana_pref":"ﾄｳｷｮｳﾄ","kana_city":"ｾﾀｶﾞﾔｸ","kana_address":"ﾅｶﾏﾁ","pref":"東京都","city":"世田谷区","address":"中町"},
{"zip_code":"1580092","kana_pref":"ﾄｳｷｮｳﾄ","kana_city":"ｾﾀｶﾞﾔｸ","kana_address":"ﾉｹﾞ","pref":"東京都","city":"世田谷区","address":"野毛"},
{"zip_code":"1580084","kana_pref":"ﾄｳｷｮｳﾄ","kana_city":"ｾﾀｶﾞﾔｸ","kana_address":"ﾋｶﾞｼﾀﾏｶﾞﾜ","pref":"東京都","city":"世田谷区","address":"東玉川"},
{"zip_code":"1580081","kana_pref":"ﾄｳｷｮｳﾄ","kana_city":"ｾﾀｶﾞﾔｸ","kana_address":"ﾌｶｻﾜ","pref":"東京都","city":"世田谷区","address":"深沢"},
{"zip_code":"1580097","kana_pref":"ﾄｳｷｮｳﾄ","kana_city":"ｾﾀｶﾞﾔｸ","kana_address":"ﾖｳｶﾞ","pref":"東京都","city":"世田谷区","address":"用賀"}]}