{"zip_code":[
{"zip_code":"1600000","kana_pref":"ﾄｳｷｮｳﾄ","kana_city":"ｼﾝｼﾞｭｸｸ","kana_address":"","pref":"東京都","city":"新宿区","address":""},
{"zip_code":"1600005","kana_pref":"ﾄｳｷｮｳﾄ","kana_city":"ｼﾝｼﾞｭｸｸ","kana_address":"ｱｲｽﾞﾐﾁｮｳ","pref":"東京都","city":"新宿区","address":"愛住町"},
{"zip_code":"1600007","kana_pref":"ﾄｳｷｮｳﾄ","kana_city":"ｼﾝｼﾞｭｸｸ","kana_address":"ｱﾗｷﾁｮｳ","pref":"東京都","city":"新宿区","address":"荒木町"},
{"zip_code":"1600013","kana_pref":"ﾄｳｷｮｳﾄ","kana_city":"ｼﾝｼﾞｭｸｸ","kana_address":"ｶｽﾐｶﾞｵｶﾏﾁ","pref":"東京都","city":"新宿区","address":"霞ケ丘町"},
{"zip_code":"1600001","kana_pref":"ﾄｳｷｮｳﾄ","kana_city":"ｼﾝｼﾞｭｸｸ","kana_address":"ｶﾀﾏﾁ","pref":"東京都","city":"新宿区","address":"片町"},
{"zip_code":"1600021","kana_pref":"ﾄｳｷｮｳﾄ","kana_city":"ｼﾝｼﾞｭｸｸ","kana_address":"ｶﾌﾞｷﾁｮｳ","pref":"東京都","city":"新宿区","address":"歌舞伎町"},
{"zip_code":"1600002","kana_pref":"ﾄｳｷｮｳﾄ","kana_city":"ｼﾝｼﾞｭｸｸ","kana_address":"ｻｶﾏﾁ","pref":"東京都","city":"新宿区","address":"坂町"},
{"zip_code":"1600017","kana_pref":"ﾄｳｷｮｳﾄ","kana_city":"ｼﾝｼﾞｭｸｸ","kana_address":"ｻﾓﾝﾁｮｳ","pref":"東京都","city":"新宿区","address":"左門町"},
{"zip_code":"1600008","kana_pref":"ﾄｳｷｮｳﾄ","kana_city":"ｼﾝｼﾞｭｸｸ","kana_address":"ｻﾝｴｲﾁｮｳ","pref":"東京都","city":"新宿区","address":"三栄町"},
{"zip_code":"1600016","kana_pref":"ﾄｳｷｮｳﾄ","kana_city":"ｼﾝｼﾞｭｸｸ","kana_address":"ｼﾅﾉﾏﾁ","pref":"東京都","city":"新宿区","address":"信濃町"},
{"zip_code":"1600022","kana_pref":"ﾄｳｷｮｳﾄ","kana_city":"ｼﾝｼﾞｭｸｸ","kana_address":"ｼﾝｼﾞｭｸ","pref":"東京都","city":"新宿区","address":"新宿"},
{"zip_code":"1600018","kana_pref":"ﾄｳｷｮｳﾄ","kana_city":"ｼﾝｼﾞｭｸｸ","kana_address":"ｽｶﾞﾁｮｳ","pref":"東京都","city":"新宿区","address":"須賀町"},
{"zip_code":"1600015","kana_pref":"ﾄｳｷｮｳﾄ","kana_city":"ｼﾝｼﾞｭｸｸ","kana_address":"ﾀﾞｲｷｮｳﾁｮｳ","pref":"東京都","city":"新宿区","address":"大京町"},
{"zip_code":"1600014","kana_pref":"ﾄｳｷｮｳﾄ","kana_city":"ｼﾝｼﾞｭｸｸ","kana_address":"ﾅｲﾄｳﾏﾁ","pref":"東京都","city":"新宿区","address":"内藤町"},
{"zip_code":"1600023","kana_pref":"ﾄｳｷｮｳﾄ","kana_city":"ｼﾝｼﾞｭｸｸ","kana_address":"ﾆｼｼﾝｼﾞｭｸ","pref":"東京都","city":"新宿区","address":"西新宿"},
{"zip_code":"1600006","kana_pref":"ﾄｳｷｮｳﾄ","kana_city":"ｼﾝｼﾞｭｸｸ","kana_address":"ﾌﾅﾏﾁ","pref":"東京都","city":"新宿区","address":"舟町"},
{"zip_code":"1600003","kana_pref":"ﾄｳｷｮｳﾄ","kana_city":"ｼﾝｼﾞｭｸｸ","kana_address":"ﾎﾝｼｵﾁｮｳ","pref":"東京都","city":"新宿区","address":"本塩町"},
{"zip_code":"1600012","kana_pref":"ﾄｳｷｮｳﾄ","kana_city":"ｼﾝｼﾞｭｸｸ","kana_address":"ﾐﾅﾐﾓﾄﾏﾁ","pref":"東京都","city":"新宿区","address":"南元町"},
{"zip_code":"1600004","kana_pref":"ﾄｳｷｮｳﾄ","kana_city":"ｼﾝｼﾞｭｸｸ","kana_address":"ﾖﾂﾔ","pref":"東京都","city":"新宿区","address":"四谷"},
{"zip_code":"1600011","kana_pref":"ﾄｳｷｮｳﾄ","kana_city":"ｼﾝｼﾞｭｸｸ","kana_address":"ﾜｶﾊﾞ","pref":"東京都","city":"新宿区","address":"若葉"}]}