{"zip_code":[
{"zip_code":"1620803","kana_pref":"ﾄｳｷｮｳﾄ","kana_city":"ｼﾝｼﾞｭｸｸ","kana_address":"ｱｶｷﾞｼﾀﾏﾁ","pref":"東京都","city":"新宿区","address":"赤城下町"},
{"zip_code":"1620817","kana_pref":"ﾄｳｷｮｳﾄ","kana_city":"ｼﾝｼﾞｭｸｸ","kana_address":"ｱｶｷﾞﾓﾄﾏﾁ","pref":"東京都","city":"新宿区","address":"赤城元町"},
{"zip_code":"1620824","kana_pref":"ﾄｳｷｮｳﾄ","kana_city":"ｼﾝｼﾞｭｸｸ","kana_address":"ｱｹﾞﾊﾞﾁｮｳ","pref":"東京都","city":"新宿区","address":"揚場町"},
{"zip_code":"1620062","kana_pref":"ﾄｳｷｮｳﾄ","kana_city":"ｼﾝｼﾞｭｸｸ","kana_address":"ｲﾁｶﾞﾔｶｶﾞﾁｮｳ","pref":"東京都","city":"新宿区","address":"市谷加賀町"},
{"zip_code":"1620856","kana_pref":"ﾄｳｷｮｳﾄ","kana_city":"ｼﾝｼﾞｭｸｸ","kana_address":"ｲﾁｶﾞﾔｺｳﾗﾁｮｳ","pref":"東京都","city":"新宿区","address":"市谷甲良町"},
{"zip_code":"1620842","kana_pref":"ﾄｳｷｮｳﾄ","kana_city":"ｼﾝｼﾞｭｸｸ","kana_address":"ｲﾁｶﾞﾔｻﾄﾞﾊﾗﾁｮｳ","pref":"東京都","city":"新宿区","address":"市谷砂土原町"},
{"zip_code":"1620846","kana_pref":"ﾄｳｷｮｳﾄ","kana_city":"ｼﾝｼﾞｭｸｸ","kana_address":"ｲﾁｶﾞﾔｻﾅｲﾁｮｳ","pref":"東京都","city":"新宿区","address":"市谷左内町"},
{"zip_code":"1620848","kana_pref":"ﾄｳｷｮｳﾄ","kana_city":"ｼﾝｼﾞｭｸｸ","kana_address":"ｲﾁｶﾞﾔﾀｶｼﾞｮｳﾏﾁ","pref":"東京都","city":"新宿区","address":"市谷鷹匠町"},
{"zip_code":"1620843","kana_pref":"ﾄｳｷｮｳﾄ","kana_city":"ｼﾝｼﾞｭｸｸ","kana_address":"ｲﾁｶﾞﾔﾀﾏﾁ","pref":"東京都","city":"新宿区","address":"市谷田町"},
{"zip_code":"1620066","kana_pref":"ﾄｳｷｮｳﾄ","kana_city":"ｼﾝｼﾞｭｸｸ","kana_address":"ｲﾁｶﾞﾔﾀﾞｲﾏﾁ","pref":"東京都","city":"新宿区","address":"市谷台町"},
{"zip_code":"1620847","kana_pref":"ﾄｳｷｮｳﾄ","kana_city":"ｼﾝｼﾞｭｸｸ","kana_address":"ｲﾁｶﾞﾔﾁｮｳｴﾝｼﾞﾏﾁ","pref":"東京都","city":"新宿区","address":"市谷長延寺町"},
{"zip_code":"1620064","kana_pref":"ﾄｳｷｮｳﾄ","kana_city":"ｼﾝｼﾞｭｸｸ","kana_address":"ｲﾁｶﾞﾔﾅｶﾉﾁｮｳ","pref":"東京都","city":"新宿区","address":"市谷仲之町"},
{"zip_code":"1620844","kana_pref":"ﾄｳｷｮｳﾄ","kana_city":"ｼﾝｼﾞｭｸｸ","kana_address":"ｲﾁｶﾞﾔﾊﾁﾏﾝﾁｮｳ","pref":"東京都","city":"新宿区","address":"市谷八幡町"},
{"zip_code":"1620826","kana_pref":"ﾄｳｷｮｳﾄ","kana_city":"ｼﾝｼﾞｭｸｸ","kana_address":"ｲﾁｶﾞﾔﾌﾅｶﾞﾜﾗﾏﾁ","pref":"東京都","city":"新宿区","address":"市谷船河原町"},
{"zip_code":"1620845","kana_pref":"ﾄｳｷｮｳﾄ","kana_city":"ｼﾝｼﾞｭｸｸ","kana_address":"ｲﾁｶﾞﾔﾎﾝﾑﾗﾁｮｳ","pref":"東京都","city":"新宿区","address":"市谷本村町"},
{"zip_code":"1620063","kana_pref":"ﾄｳｷｮｳﾄ","kana_city":"ｼﾝｼﾞｭｸｸ","kana_address":"ｲﾁｶﾞﾔﾔｸｵｳｼﾞﾏﾁ","pref":"東京都","city":"新宿区","address":"市谷薬王寺町"},
{"zip_code":"1620061","kana_pref":"ﾄｳｷｮｳﾄ","kana_city":"ｼﾝｼﾞｭｸｸ","kana_address":"ｲﾁｶﾞﾔﾔﾅｷﾞﾁｮｳ","pref":"東京都","city":"新宿区","address":"市谷柳町"},
{"zip_code":"1620857","kana_pref":"ﾄｳｷｮｳﾄ","kana_city":"ｼﾝｼﾞｭｸｸ","kana_address":"ｲﾁｶﾞﾔﾔﾏﾌﾞｼﾁｮｳ","pref":"東京都","city":"新宿区","address":"市谷山伏町"},
{"zip_code":"1620832","kana_pref":"ﾄｳｷｮｳﾄ","kana_city":"ｼﾝｼﾞｭｸｸ","kana_address":"ｲﾜﾄﾁｮｳ","pref":"東京都","city":"新宿区","address":"岩戸町"},
{"zip_code":"1620806","kana_pref":"ﾄｳｷｮｳﾄ","kana_city":"ｼﾝｼﾞｭｸｸ","kana_address":"ｴﾉｷﾁｮｳ","pref":"東京都","city":"新宿区","address":"榎町"},
{"zip_code":"1620802","kana_pref":"ﾄｳｷｮｳﾄ","kana_city":"ｼﾝｼﾞｭｸｸ","kana_address":"ｶｲﾀｲﾁｮｳ","pref":"東京都","city":"新宿区","address":"改代町"},
{"zip_code":"1620823","kana_pref":"ﾄｳｷｮｳﾄ","kana_city":"ｼﾝｼﾞｭｸｸ","kana_address":"ｶｸﾞﾗｶﾞｼ","pref":"東京都","city":"新宿区","address":"神楽河岸"},
{"zip_code":"1620825","kana_pref":"ﾄｳｷｮｳﾄ","kana_city":"ｼﾝｼﾞｭｸｸ","kana_address":"ｶｸﾞﾗｻﾞｶ","pref":"東京都","city":"新宿区","address":"神楽坂"},
{"zip_code":"1620054","kana_pref":"ﾄｳｷｮｳﾄ","kana_city":"ｼﾝｼﾞｭｸｸ","kana_address":"ｶﾜﾀﾞﾁｮｳ","pref":"東京都","city":"新宿区","address":"河田町"},
{"zip_code":"1620044","kana_pref":"ﾄｳｷｮｳﾄ","kana_city":"ｼﾝｼﾞｭｸｸ","kana_address":"ｷｸｲﾁｮｳ","pref":"東京都","city":"新宿区","address":"喜久井町"},
{"zip_code":"1620834","kana_pref":"ﾄｳｷｮｳﾄ","kana_city":"ｼﾝｼﾞｭｸｸ","kana_address":"ｷﾀﾏﾁ","pref":"東京都","city":"新宿区","address":"北町"},
{"zip_code":"1620853","kana_pref":"ﾄｳｷｮｳﾄ","kana_city":"ｼﾝｼﾞｭｸｸ","kana_address":"ｷﾀﾔﾏﾌﾞｼﾁｮｳ","pref":"東京都","city":"新宿区","address":"北山伏町"},
{"zip_code":"1620838","kana_pref":"ﾄｳｷｮｳﾄ","kana_city":"ｼﾝｼﾞｭｸｸ","kana_address":"ｻｲｸﾏﾁ","pref":"東京都","city":"新宿区","address":"細工町"},
{"zip_code":"1620822","kana_pref":"ﾄｳｷｮｳﾄ","kana_city":"ｼﾝｼﾞｭｸｸ","kana_address":"ｼﾓﾐﾔﾋﾞﾁｮｳ","pref":"東京都","city":"新宿区","address":"下宮比町"},
{"zip_code":"1620816","kana_pref":"ﾄｳｷｮｳﾄ","kana_city":"ｼﾝｼﾞｭｸｸ","kana_address":"ｼﾛｶﾞﾈﾁｮｳ","pref":"東京都","city":"新宿区","address":"白銀町"},
{"zip_code":"1620814","kana_pref":"ﾄｳｷｮｳﾄ","kana_city":"ｼﾝｼﾞｭｸｸ","kana_address":"ｼﾝｵｶﾞﾜﾏﾁ","pref":"東京都","city":"新宿区","address":"新小川町"},
{"zip_code":"1620811","kana_pref":"ﾄｳｷｮｳﾄ","kana_city":"ｼﾝｼﾞｭｸｸ","kana_address":"ｽｲﾄﾞｳﾁｮｳ","pref":"東京都","city":"新宿区","address":"水道町"},
{"zip_code":"1620065","kana_pref":"ﾄｳｷｮｳﾄ","kana_city":"ｼﾝｼﾞｭｸｸ","kana_address":"ｽﾐﾖｼﾁｮｳ","pref":"東京都","city":"新宿区","address":"住吉町"},
{"zip_code":"1620833","kana_pref":"ﾄｳｷｮｳﾄ","kana_city":"ｼﾝｼﾞｭｸｸ","kana_address":"ﾀﾝｽﾏﾁ","pref":"東京都","city":"新宿区","address":"箪笥町"},
{"zip_code":"1620818","kana_pref":"ﾄｳｷｮｳﾄ","kana_city":"ｼﾝｼﾞｭｸｸ","kana_address":"ﾂｷｼﾞﾏﾁ","pref":"東京都","city":"新宿区","address":"築地町"},
{"zip_code":"1620821","kana_pref":"ﾄｳｷｮｳﾄ","kana_city":"ｼﾝｼﾞｭｸｸ","kana_address":"ﾂｸﾄﾞﾁｮｳ","pref":"東京都","city":"新宿区","address":"津久戸町"},
{"zip_code":"1620815","kana_pref":"ﾄｳｷｮｳﾄ","kana_city":"ｼﾝｼﾞｭｸｸ","kana_address":"ﾂｸﾄﾞﾊﾁﾏﾝﾁｮｳ","pref":"東京都","city":"新宿区","address":"筑土八幡町"},
{"zip_code":"1620808","kana_pref":"ﾄｳｷｮｳﾄ","kana_city":"ｼﾝｼﾞｭｸｸ","kana_address":"ﾃﾝｼﾞﾝﾁｮｳ","pref":"東京都","city":"新宿区","address":"天神町"},
{"zip_code":"1620067","kana_pref":"ﾄｳｷｮｳﾄ","kana_city":"ｼﾝｼﾞｭｸｸ","kana_address":"ﾄﾐﾋｻﾁｮｳ","pref":"東京都","city":"新宿区","address":"富久町"},
{"zip_code":"1620052","kana_pref":"ﾄｳｷｮｳﾄ","kana_city":"ｼﾝｼﾞｭｸｸ","kana_address":"ﾄﾔﾏ","pref":"東京都","city":"新宿区","address":"戸山"},
{"zip_code":"1620804","kana_pref":"ﾄｳｷｮｳﾄ","kana_city":"ｼﾝｼﾞｭｸｸ","kana_address":"ﾅｶｻﾞﾄﾁｮｳ","pref":"東京都","city":"新宿区","address":"中里町"},
{"zip_code":"1620835","kana_pref":"ﾄｳｷｮｳﾄ","kana_city":"ｼﾝｼﾞｭｸｸ","kana_address":"ﾅｶﾁｮｳ","pref":"東京都","city":"新宿区","address":"中町"},
{"zip_code":"1620837","kana_pref":"ﾄｳｷｮｳﾄ","kana_city":"ｼﾝｼﾞｭｸｸ","kana_address":"ﾅﾝﾄﾞﾏﾁ","pref":"東京都","city":"新宿区","address":"納戸町"},
{"zip_code":"1620812","kana_pref":"ﾄｳｷｮｳﾄ","kana_city":"ｼﾝｼﾞｭｸｸ","kana_address":"ﾆｼｺﾞｹﾝﾁｮｳ","pref":"東京都","city":"新宿区","address":"西五軒町"},
{"zip_code":"1620855","kana_pref":"ﾄｳｷｮｳﾄ","kana_city":"ｼﾝｼﾞｭｸｸ","kana_address":"ﾆｼﾞｭﾂｷﾏﾁ","pref":"東京都","city":"新宿区","address":"二十騎町"},
{"zip_code":"1620051","kana_pref":"ﾄｳｷｮｳﾄ","kana_city":"ｼﾝｼﾞｭｸｸ","kana_address":"ﾆｼﾜｾﾀﾞ","pref":"東京都","city":"新宿区","address":"西早稲田"},
{"zip_code":"1620045","kana_pref":"ﾄｳｷｮｳﾄ","kana_city":"ｼﾝｼﾞｭｸｸ","kana_address":"ﾊﾞﾊﾞｼﾀﾁｮｳ","pref":"東京都","city":"新宿区","address":"馬場下町"},
{"zip_code":"1620841","kana_pref":"ﾄｳｷｮｳﾄ","kana_city":"ｼﾝｼﾞｭｸｸ","kana_address":"ﾊﾗｲｶﾀﾏﾁ","pref":"東京都","city":"新宿区","address":"払方町"},
{"zip_code":"1620053","kana_pref":"ﾄｳｷｮｳﾄ","kana_city":"ｼﾝｼﾞｭｸｸ","kana_address":"ﾊﾗﾏﾁ","pref":"東京都","city":"新宿区","address":"原町"},
{"zip_code":"1620807","kana_pref":"ﾄｳｷｮｳﾄ","kana_city":"ｼﾝｼﾞｭｸｸ","kana_address":"ﾋｶﾞｼｴﾉｷﾁｮｳ","pref":"東京都","city":"新宿区","address":"東榎町"},
{"zip_code":"1620813","kana_pref":"ﾄｳｷｮｳﾄ","kana_city":"ｼﾝｼﾞｭｸｸ","kana_address":"ﾋｶﾞｼｺﾞｹﾝﾁｮｳ","pref":"東京都","city":"新宿区","address":"東五軒町"},
{"zip_code":"1620828","kana_pref":"ﾄｳｷｮｳﾄ","kana_city":"ｼﾝｼﾞｭｸｸ","kana_address":"ﾌｸﾛﾏﾁ","pref":"東京都","city":"新宿区","address":"袋町"},
{"zip_code":"1620851","kana_pref":"ﾄｳｷｮｳﾄ","kana_city":"ｼﾝｼﾞｭｸｸ","kana_address":"ﾍﾞﾝﾃﾝﾁｮｳ","pref":"東京都","city":"新宿区","address":"弁天町"},
{"zip_code":"1620852","kana_pref":"ﾄｳｷｮｳﾄ","kana_city":"ｼﾝｼﾞｭｸｸ","kana_address":"ﾐﾅﾐｴﾉｷﾁｮｳ","pref":"東京都","city":"新宿区","address":"南榎町"},
{"zip_code":"1620836","kana_pref":"ﾄｳｷｮｳﾄ","kana_city":"ｼﾝｼﾞｭｸｸ","kana_address":"ﾐﾅﾐﾁｮｳ","pref":"東京都","city":"新宿区","address":"南町"},
{"zip_code":"1620854","kana_pref":"ﾄｳｷｮｳﾄ","kana_city":"ｼﾝｼﾞｭｸｸ","kana_address":"ﾐﾅﾐﾔﾏﾌﾞｼﾁｮｳ","pref":"東京都","city":"新宿区","address":"南山伏町"},
{"zip_code":"1620801","kana_pref":"ﾄｳｷｮｳﾄ","kana_city":"ｼﾝｼﾞｭｸｸ","kana_address":"ﾔﾏﾌﾞｷﾁｮｳ","pref":"東京都","city":"新宿区","address":"山吹町"},
{"zip_code":"1620805","kana_pref":"ﾄｳｷｮｳﾄ","kana_city":"ｼﾝｼﾞｭｸｸ","kana_address":"ﾔﾗｲﾁｮｳ","pref":"東京都","city":"新宿区","address":"矢来町"},
{"zip_code":"1620831","kana_pref":"ﾄｳｷｮｳﾄ","kana_city":"ｼﾝｼﾞｭｸｸ","kana_address":"ﾖｺﾃﾗﾏﾁ","pref":"東京都","city":"新宿区","address":"横寺町"},
{"zip_code":"1620055","kana_pref":"ﾄｳｷｮｳﾄ","kana_city":"ｼﾝｼﾞｭｸｸ","kana_address":"ﾖﾁｮｳﾏﾁ","pref":"東京都","city":"新宿区","address":"余丁町"},
{"zip_code":"1620056","kana_pref":"ﾄｳｷｮｳﾄ","kana_city":"ｼﾝｼﾞｭｸｸ","kana_address":"ﾜｶﾏﾂﾁｮｳ","pref":"東京都","city":"新宿区","address":"若松町"},
{"zip_code":"1620827","kana_pref":"ﾄｳｷｮｳﾄ","kana_city":"ｼﾝｼﾞｭｸｸ","kana_address":"ﾜｶﾐﾔﾁｮｳ","pref":"東京都","city":"新宿区","address":"若宮町"},
{"zip_code":"1620041","kana_pref":"ﾄｳｷｮｳﾄ","kana_city":"ｼﾝｼﾞｭｸｸ","kana_address":"ﾜｾﾀﾞﾂﾙﾏｷﾁｮｳ","pref":"東京都","city":"新宿区","address":"早稲田鶴巻町"},
{"zip_code":"1620043","kana_pref":"ﾄｳｷｮｳﾄ","kana_city":"ｼﾝｼﾞｭｸｸ","kana_address":"ﾜｾﾀﾞﾐﾅﾐﾁｮｳ","pref":"東京都","city":"新宿区","address":"早稲田南町"},
{"zip_code":"1620042","kana_pref":"ﾄｳｷｮｳﾄ","kana_city":"ｼﾝｼﾞｭｸｸ","kana_address":"ﾜｾﾀﾞﾏﾁ","pref":"東京都","city":"新宿区","address":"早稲田町"}]}