{"zip_code":[
{"zip_code":"1650026","kana_pref":"ﾄｳｷｮｳﾄ","kana_city":"ﾅｶﾉｸ","kana_address":"ｱﾗｲ","pref":"東京都","city":"中野区","address":"新井"},
{"zip_code":"1650022","kana_pref":"ﾄｳｷｮｳﾄ","kana_city":"ﾅｶﾉｸ","kana_address":"ｴｺﾞﾀ","pref":"東京都","city":"中野区","address":"江古田"},
{"zip_code":"1650023","kana_pref":"ﾄｳｷｮｳﾄ","kana_city":"ﾅｶﾉｸ","kana_address":"ｴﾊﾗﾁｮｳ","pref":"東京都","city":"中野区","address":"江原町"},
{"zip_code":"1650031","kana_pref":"ﾄｳｷｮｳﾄ","kana_city":"ﾅｶﾉｸ","kana_address":"ｶﾐｻｷﾞﾉﾐﾔ","pref":"東京都","city":"中野区","address":"上鷺宮"},
{"zip_code":"1650032","kana_pref":"ﾄｳｷｮｳﾄ","kana_city":"ﾅｶﾉｸ","kana_address":"ｻｷﾞﾉﾐﾔ","pref":"東京都","city":"中野区","address":"鷺宮"},
{"zip_code":"1650035","kana_pref":"ﾄｳｷｮｳﾄ","kana_city":"ﾅｶﾉｸ","kana_address":"ｼﾗｻｷﾞ","pref":"東京都","city":"中野区","address":"白鷺"},
{"zip_code":"1650025","kana_pref":"ﾄｳｷｮｳﾄ","kana_city":"ﾅｶﾉｸ","kana_address":"ﾇﾏﾌﾞｸﾛ","pref":"東京都","city":"中野区","address":"沼袋"},
{"zip_code":"1650027","kana_pref":"ﾄｳｷｮｳﾄ","kana_city":"ﾅｶﾉｸ","kana_address":"ﾉｶﾞﾀ","pref":"東京都","city":"中野区","address":"野方"},
{"zip_code":"1650024","kana_pref":"ﾄｳｷｮｳﾄ","kana_city":"ﾅｶﾉｸ","kana_address":"ﾏﾂｶﾞｵｶ","pref":"東京都","city":"中野区","address":"松が丘"},
{"zip_code":"1650021","kana_pref":"ﾄｳｷｮｳﾄ","kana_city":"ﾅｶﾉｸ","kana_address":"ﾏﾙﾔﾏ","pref":"東京都","city":"中野区","address":"丸山"},
{"zip_code":"1650034","kana_pref":"ﾄｳｷｮｳﾄ","kana_city":"ﾅｶﾉｸ","kana_address":"ﾔﾏﾄﾁｮｳ","pref":"東京都","city":"中野区","address":"大和町"},
{"zip_code":"1650033","kana_pref":"ﾄｳｷｮｳﾄ","kana_city":"ﾅｶﾉｸ","kana_address":"ﾜｶﾐﾔ","pref":"東京都","city":"中野区","address":"若宮"}]}