{"zip_code":[
{"zip_code":"1670032","kana_pref":"ﾄｳｷｮｳﾄ","kana_city":"ｽｷﾞﾅﾐｸ","kana_address":"ｱﾏﾇﾏ","pref":"東京都","city":"杉並区","address":"天沼"},
{"zip_code":"1670021","kana_pref":"ﾄｳｷｮｳﾄ","kana_city":"ｽｷﾞﾅﾐｸ","kana_address":"ｲｸﾞｻ","pref":"東京都","city":"杉並区","address":"井草"},
{"zip_code":"1670035","kana_pref":"ﾄｳｷｮｳﾄ","kana_city":"ｽｷﾞﾅﾐｸ","kana_address":"ｲﾏｶﾞﾜ","pref":"東京都","city":"杉並区","address":"今川"},
{"zip_code":"1670051","kana_pref":"ﾄｳｷｮｳﾄ","kana_city":"ｽｷﾞﾅﾐｸ","kana_address":"ｵｷﾞｸﾎﾞ","pref":"東京都","city":"杉並区","address":"荻窪"},
{"zip_code":"1670023","kana_pref":"ﾄｳｷｮｳﾄ","kana_city":"ｽｷﾞﾅﾐｸ","kana_address":"ｶﾐｲｸﾞｻ","pref":"東京都","city":"杉並区","address":"上井草"},
{"zip_code":"1670043","kana_pref":"ﾄｳｷｮｳﾄ","kana_city":"ｽｷﾞﾅﾐｸ","kana_address":"ｶﾐｵｷﾞ","pref":"東京都","city":"杉並区","address":"上荻"},
{"zip_code":"1670033","kana_pref":"ﾄｳｷｮｳﾄ","kana_city":"ｽｷﾞﾅﾐｸ","kana_address":"ｼﾐｽﾞ","pref":"東京都","city":"杉並区","address":"清水"},
{"zip_code":"1670022","kana_pref":"ﾄｳｷｮｳﾄ","kana_city":"ｽｷﾞﾅﾐｸ","kana_address":"ｼﾓｲｸﾞｻ","pref":"東京都","city":"杉並区","address":"下井草"},
{"zip_code":"1670054","kana_pref":"ﾄｳｷｮｳﾄ","kana_city":"ｽｷﾞﾅﾐｸ","kana_address":"ｼｮｳｱﾝ","pref":"東京都","city":"杉並区","address":"松庵"},
{"zip_code":"1670041","kana_pref":"ﾄｳｷｮｳﾄ","kana_city":"ｽｷﾞﾅﾐｸ","kana_address":"ｾﾞﾝﾌﾟｸｼﾞ","pref":"東京都","city":"杉並区","address":"善福寺"},
{"zip_code":"1670053","kana_pref":"ﾄｳｷｮｳﾄ","kana_city":"ｽｷﾞﾅﾐｸ","kana_address":"ﾆｼｵｷﾞﾐﾅﾐ","pref":"東京都","city":"杉並区","address":"西荻南"},
{"zip_code":"1670042","kana_pref":"ﾄｳｷｮｳﾄ","kana_city":"ｽｷﾞﾅﾐｸ","kana_address":"ﾆｼｵｷﾞｷﾀ","pref":"東京都","city":"杉並区","address":"西荻北"},
{"zip_code":"1670031","kana_pref":"ﾄｳｷｮｳﾄ","kana_city":"ｽｷﾞﾅﾐｸ","kana_address":"ﾎﾝｱﾏﾇﾏ","pref":"東京都","city":"杉並区","address":"本天沼"},
{"zip_code":"1670052","kana_pref":"ﾄｳｷｮｳﾄ","kana_city":"ｽｷﾞﾅﾐｸ","kana_address":"ﾐﾅﾐｵｷﾞｸﾎﾞ","pref":"東京都","city":"杉並区","address":"南荻窪"},
{"zip_code":"1670034","kana_pref":"ﾄｳｷｮｳﾄ","kana_city":"ｽｷﾞﾅﾐｸ","kana_address":"ﾓﾓｲ","pref":"東京都","city":"杉並区","address":"桃井"}]}