{"zip_code":[
{"zip_code":"1700000","kana_pref":"ﾄｳｷｮｳﾄ","kana_city":"ﾄｼﾏｸ","kana_address":"","pref":"東京都","city":"豊島区","address":""},
{"zip_code":"1700014","kana_pref":"ﾄｳｷｮｳﾄ","kana_city":"ﾄｼﾏｸ","kana_address":"ｲｹﾌﾞｸﾛ","pref":"東京都","city":"豊島区","address":"池袋"},
{"zip_code":"1700011","kana_pref":"ﾄｳｷｮｳﾄ","kana_city":"ﾄｼﾏｸ","kana_address":"ｲｹﾌﾞｸﾛﾎﾝﾁｮｳ","pref":"東京都","city":"豊島区","address":"池袋本町"},
{"zip_code":"1700012","kana_pref":"ﾄｳｷｮｳﾄ","kana_city":"ﾄｼﾏｸ","kana_address":"ｶﾐｲｹﾌﾞｸﾛ","pref":"東京都","city":"豊島区","address":"上池袋"},
{"zip_code":"1700004","kana_pref":"ﾄｳｷｮｳﾄ","kana_city":"ﾄｼﾏｸ","kana_address":"ｷﾀｵｵﾂｶ","pref":"東京都","city":"豊島区","address":"北大塚"},
{"zip_code":"1700003","kana_pref":"ﾄｳｷｮｳﾄ","kana_city":"ﾄｼﾏｸ","kana_address":"ｺﾏｺﾞﾒ","pref":"東京都","city":"豊島区","address":"駒込"},
{"zip_code":"1700002","kana_pref":"ﾄｳｷｮｳﾄ","kana_city":"ﾄｼﾏｸ","kana_address":"ｽｶﾞﾓ","pref":"東京都","city":"豊島区","address":"巣鴨"},
{"zip_code":"1700001","kana_pref":"ﾄｳｷｮｳﾄ","kana_city":"ﾄｼﾏｸ","kana_address":"ﾆｼｽｶﾞﾓ","pref":"東京都","city":"豊島区","address":"西巣鴨"},
{"zip_code":"1700013","kana_pref":"ﾄｳｷｮｳﾄ","kana_city":"ﾄｼﾏｸ","kana_address":"ﾋｶﾞｼｲｹﾌﾞｸﾛ","pref":"東京都","city":"豊島区","address":"東池袋"},
{"zip_code":"1706090","kana_pref":"ﾄｳｷｮｳﾄ","kana_city":"ﾄｼﾏｸ","kana_address":"ﾋｶﾞｼｲｹﾌﾞｸﾛｻﾝｼｬｲﾝ60","pref":"東京都","city":"豊島区","address":"東池袋サンシャイン６０"},
{"zip_code":"1706001","kana_pref":"ﾄｳｷｮｳﾄ","kana_city":"ﾄｼﾏｸ","kana_address":"ﾋｶﾞｼｲｹﾌﾞｸﾛｻﾝｼｬｲﾝ60","pref":"東京都","city":"豊島区","address":"東池袋サンシャイン６０"},
{"zip_code":"1706002","kana_pref":"ﾄｳｷｮｳﾄ","kana_city":"ﾄｼﾏｸ","kana_address":"ﾋｶﾞｼｲｹﾌﾞｸﾛｻﾝｼｬｲﾝ60","pref":"東京都","city":"豊島区","address":"東池袋サンシャイン６０"},
{"zip_code":"1706003","kana_pref":"ﾄｳｷｮｳﾄ","kana_city":"ﾄｼﾏｸ","kana_address":"ﾋｶﾞｼｲｹﾌﾞｸﾛｻﾝｼｬｲﾝ60","pref":"東京都","city":"豊島区","address":"東池袋サンシャイン６０"},
{"zip_code":"1706004","kana_pref":"ﾄｳｷｮｳﾄ","kana_city":"ﾄｼﾏｸ","kana_address":"ﾋｶﾞｼｲｹﾌﾞｸﾛｻﾝｼｬｲﾝ60","pref":"東京都","city":"豊島区","address":"東池袋サンシャイン６０"},
{"zip_code":"1706005","kana_pref":"ﾄｳｷｮｳﾄ","kana_city":"ﾄｼﾏｸ","kana_address":"ﾋｶﾞｼｲｹﾌﾞｸﾛｻﾝｼｬｲﾝ60","pref":"東京都","city":"豊島区","address":"東池袋サンシャイン６０"},
{"zip_code":"1706006","kana_pref":"ﾄｳｷｮｳﾄ","kana_city":"ﾄｼﾏｸ","kana_address":"ﾋｶﾞｼｲｹﾌﾞｸﾛｻﾝｼｬｲﾝ60","pref":"東京都","city":"豊島区","address":"東池袋サンシャイン６０"},
{"zip_code":"1706007","kana_pref":"ﾄｳｷｮｳﾄ","kana_city":"ﾄｼﾏｸ","kana_address":"ﾋｶﾞｼｲｹﾌﾞｸﾛｻﾝｼｬｲﾝ60","pref":"東京都","city":"豊島区","address":"東池袋サンシャイン６０"},
{"zip_code":"1706008","kana_pref":"ﾄｳｷｮｳﾄ","kana_city":"ﾄｼﾏｸ","kana_address":"ﾋｶﾞｼｲｹﾌﾞｸﾛｻﾝｼｬｲﾝ60","pref":"東京都","city":"豊島区","address":"東池袋サンシャイン６０"},
{"zip_code":"1706009","kana_pref":"ﾄｳｷｮｳﾄ","kana_city":"ﾄｼﾏｸ","kana_address":"ﾋｶﾞｼｲｹﾌﾞｸﾛｻﾝｼｬｲﾝ60","pref":"東京都","city":"豊島区","address":"東池袋サンシャイン６０"},
{"zip_code":"1706010","kana_pref":"ﾄｳｷｮｳﾄ","kana_city":"ﾄｼﾏｸ","kana_address":"ﾋｶﾞｼｲｹﾌﾞｸﾛｻﾝｼｬｲﾝ60","pref":"東京都","city":"豊島区","address":"東池袋サンシャイン６０"},
{"zip_code":"1706011","kana_pref":"ﾄｳｷｮｳﾄ","kana_city":"ﾄｼﾏｸ","kana_address":"ﾋｶﾞｼｲｹﾌﾞｸﾛｻﾝｼｬｲﾝ60","pref":"東京都","city":"豊島区","address":"東池袋サンシャイン６０"},
{"zip_code":"1706012","kana_pref":"ﾄｳｷｮｳﾄ","kana_city":"ﾄｼﾏｸ","kana_address":"ﾋｶﾞｼｲｹﾌﾞｸﾛｻﾝｼｬｲﾝ60","pref":"東京都","city":"豊島区","address":"東池袋サンシャイン６０"},
{"zip_code":"1706013","kana_pref":"ﾄｳｷｮｳﾄ","kana_city":"ﾄｼﾏｸ","kana_address":"ﾋｶﾞｼｲｹﾌﾞｸﾛｻﾝｼｬｲﾝ60","pref":"東京都","city":"豊島区","address":"東池袋サンシャイン６０"},
{"zip_code":"1706014","kana_pref":"ﾄｳｷｮｳﾄ","kana_city":"ﾄｼﾏｸ","kana_address":"ﾋｶﾞｼｲｹﾌﾞｸﾛｻﾝｼｬｲﾝ60","pref":"東京都","city":"豊島区","address":"東池袋サンシャイン６０"},
{"zip_code":"1706015","kana_pref":"ﾄｳｷｮｳﾄ","kana_city":"ﾄｼﾏｸ","kana_address":"ﾋｶﾞｼｲｹﾌﾞｸﾛｻﾝｼｬｲﾝ60","pref":"東京都","city":"豊島区","address":"東池袋サンシャイン６０"},
{"zip_code":"1706016","kana_pref":"ﾄｳｷｮｳﾄ","kana_city":"ﾄｼﾏｸ","kana_address":"ﾋｶﾞｼｲｹﾌﾞｸﾛｻﾝｼｬｲﾝ60","pref":"東京都","city":"豊島区","address":"東池袋サンシャイン６０"},
{"zip_code":"1706017","kana_pref":"ﾄｳｷｮｳﾄ","kana_city":"ﾄｼﾏｸ","kana_address":"ﾋｶﾞｼｲｹﾌﾞｸﾛｻﾝｼｬｲﾝ60","pref":"東京都","city":"豊島区","address":"東池袋サンシャイン６０"},
{"zip_code":"1706018","kana_pref":"ﾄｳｷｮｳﾄ","kana_city":"ﾄｼﾏｸ","kana_address":"ﾋｶﾞｼｲｹﾌﾞｸﾛｻﾝｼｬｲﾝ60","pref":"東京都","city":"豊島区","address":"東池袋サンシャイン６０"},
{"zip_code":"1706019","kana_pref":"ﾄｳｷｮｳﾄ","kana_city":"ﾄｼﾏｸ","kana_address":"ﾋｶﾞｼｲｹﾌﾞｸﾛｻﾝｼｬｲﾝ60","pref":"東京都","city":"豊島区","address":"東池袋サンシャイン６０"},
{"zip_code":"1706020","kana_pref":"ﾄｳｷｮｳﾄ","kana_city":"ﾄｼﾏｸ","kana_address":"ﾋｶﾞｼｲｹﾌﾞｸﾛｻﾝｼｬｲﾝ60","pref":"東京都","city":"豊島区","address":"東池袋サンシャイン６０"},
{"zip_code":"1706021","kana_pref":"ﾄｳｷｮｳﾄ","kana_city":"ﾄｼﾏｸ","kana_address":"ﾋｶﾞｼｲｹﾌﾞｸﾛｻﾝｼｬｲﾝ60","pref":"東京都","city":"豊島区","address":"東池袋サンシャイン６０"},
{"zip_code":"1706022","kana_pref":"ﾄｳｷｮｳﾄ","kana_city":"ﾄｼﾏｸ","kana_address":"ﾋｶﾞｼｲｹﾌﾞｸﾛｻﾝｼｬｲﾝ60","pref":"東京都","city":"豊島区","address":"東池袋サンシャイン６０"},
{"zip_code":"1706023","kana_pref":"ﾄｳｷｮｳﾄ","kana_city":"ﾄｼﾏｸ","kana_address":"ﾋｶﾞｼｲｹﾌﾞｸﾛｻﾝｼｬｲﾝ60","pref":"東京都","city":"豊島区","address":"東池袋サンシャイン６０"},
{"zip_code":"1706024","kana_pref":"ﾄｳｷｮｳﾄ","kana_city":"ﾄｼﾏｸ","kana_address":"ﾋｶﾞｼｲｹﾌﾞｸﾛｻﾝｼｬｲﾝ60","pref":"東京都","city":"豊島区","address":"東池袋サンシャイン６０"},
{"zip_code":"1706025","kana_pref":"ﾄｳｷｮｳﾄ","kana_city":"ﾄｼﾏｸ","kana_address":"ﾋｶﾞｼｲｹﾌﾞｸﾛｻﾝｼｬｲﾝ60","pref":"東京都","city":"豊島区","address":"東池袋サンシャイン６０"},
{"zip_code":"1706026","kana_pref":"ﾄｳｷｮｳﾄ","kana_city":"ﾄｼﾏｸ","kana_address":"ﾋｶﾞｼｲｹﾌﾞｸﾛｻﾝｼｬｲﾝ60","pref":"東京都","city":"豊島区","address":"東池袋サンシャイン６０"},
{"zip_code":"1706027","kana_pref":"ﾄｳｷｮｳﾄ","kana_city":"ﾄｼﾏｸ","kana_address":"ﾋｶﾞｼｲｹﾌﾞｸﾛｻﾝｼｬｲﾝ60","pref":"東京都","city":"豊島区","address":"東池袋サンシャイン６０"},
{"zip_code":"1706028","kana_pref":"ﾄｳｷｮｳﾄ","kana_city":"ﾄｼﾏｸ","kana_address":"ﾋｶﾞｼｲｹﾌﾞｸﾛｻﾝｼｬｲﾝ60","pref":"東京都","city":"豊島区","address":"東池袋サンシャイン６０"},
{"zip_code":"1706029","kana_pref":"ﾄｳｷｮｳﾄ","kana_city":"ﾄｼﾏｸ","kana_address":"ﾋｶﾞｼｲｹﾌﾞｸﾛｻﾝｼｬｲﾝ60","pref":"東京都","city":"豊島区","address":"東池袋サンシャイン６０"},
{"zip_code":"1706030","kana_pref":"ﾄｳｷｮｳﾄ","kana_city":"ﾄｼﾏｸ","kana_address":"ﾋｶﾞｼｲｹﾌﾞｸﾛｻﾝｼｬｲﾝ60","pref":"東京都","city":"豊島区","address":"東池袋サンシャイン６０"},
{"zip_code":"1706031","kana_pref":"ﾄｳｷｮｳﾄ","kana_city":"ﾄｼﾏｸ","kana_address":"ﾋｶﾞｼｲｹﾌﾞｸﾛｻﾝｼｬｲﾝ60","pref":"東京都","city":"豊島区","address":"東池袋サンシャイン６０"},
{"zip_code":"1706032","kana_pref":"ﾄｳｷｮｳﾄ","kana_city":"ﾄｼﾏｸ","kana_address":"ﾋｶﾞｼｲｹﾌﾞｸﾛｻﾝｼｬｲﾝ60","pref":"東京都","city":"豊島区","address":"東池袋サンシャイン６０"},
{"zip_code":"1706033","kana_pref":"ﾄｳｷｮｳﾄ","kana_city":"ﾄｼﾏｸ","kana_address":"ﾋｶﾞｼｲｹﾌﾞｸﾛｻﾝｼｬｲﾝ60","pref":"東京都","city":"豊島区","address":"東池袋サンシャイン６０"},
{"zip_code":"1706034","kana_pref":"ﾄｳｷｮｳﾄ","kana_city":"ﾄｼﾏｸ","kana_address":"ﾋｶﾞｼｲｹﾌﾞｸﾛｻﾝｼｬｲﾝ60","pref":"東京都","city":"豊島区","address":"東池袋サンシャイン６０"},
{"zip_code":"1706035","kana_pref":"ﾄｳｷｮｳﾄ","kana_city":"ﾄｼﾏｸ","kana_address":"ﾋｶﾞｼｲｹﾌﾞｸﾛｻﾝｼｬｲﾝ60","pref":"東京都","city":"豊島区","address":"東池袋サンシャイン６０"},
{"zip_code":"1706036","kana_pref":"ﾄｳｷｮｳﾄ","kana_city":"ﾄｼﾏｸ","kana_address":"ﾋｶﾞｼｲｹﾌﾞｸﾛｻﾝｼｬｲﾝ60","pref":"東京都","city":"豊島区","address":"東池袋サンシャイン６０"},
{"zip_code":"1706037","kana_pref":"ﾄｳｷｮｳﾄ","kana_city":"ﾄｼﾏｸ","kana_address":"ﾋｶﾞｼｲｹﾌﾞｸﾛｻﾝｼｬｲﾝ60","pref":"東京都","city":"豊島区","address":"東池袋サンシャイン６０"},
{"zip_code":"1706038","kana_pref":"ﾄｳｷｮｳﾄ","kana_city":"ﾄｼﾏｸ","kana_address":"ﾋｶﾞｼｲｹﾌﾞｸﾛｻﾝｼｬｲﾝ60","pref":"東京都","city":"豊島区","address":"東池袋サンシャイン６０"},
{"zip_code":"1706039","kana_pref":"ﾄｳｷｮｳﾄ","kana_city":"ﾄｼﾏｸ","kana_address":"ﾋｶﾞｼｲｹﾌﾞｸﾛｻﾝｼｬｲﾝ60","pref":"東京都","city":"豊島区","address":"東池袋サンシャイン６０"},
{"zip_code":"1706040","kana_pref":"ﾄｳｷｮｳﾄ","kana_city":"ﾄｼﾏｸ","kana_address":"ﾋｶﾞｼｲｹﾌﾞｸﾛｻﾝｼｬｲﾝ60","pref":"東京都","city":"豊島区","address":"東池袋サンシャイン６０"},
{"zip_code":"1706041","kana_pref":"ﾄｳｷｮｳﾄ","kana_city":"ﾄｼﾏｸ","kana_address":"ﾋｶﾞｼｲｹﾌﾞｸﾛｻﾝｼｬｲﾝ60","pref":"東京都","city":"豊島区","address":"東池袋サンシャイン６０"},
{"zip_code":"1706042","kana_pref":"ﾄｳｷｮｳﾄ","kana_city":"ﾄｼﾏｸ","kana_address":"ﾋｶﾞｼｲｹﾌﾞｸﾛｻﾝｼｬｲﾝ60","pref":"東京都","city":"豊島区","address":"東池袋サンシャイン６０"},
{"zip_code":"1706043","kana_pref":"ﾄｳｷｮｳﾄ","kana_city":"ﾄｼﾏｸ","kana_address":"ﾋｶﾞｼｲｹﾌﾞｸﾛｻﾝｼｬｲﾝ60","pref":"東京都","city":"豊島区","address":"東池袋サンシャイン６０"},
{"zip_code":"1706044","kana_pref":"ﾄｳｷｮｳﾄ","kana_city":"ﾄｼﾏｸ","kana_address":"ﾋｶﾞｼｲｹﾌﾞｸﾛｻﾝｼｬｲﾝ60","pref":"東京都","city":"豊島区","address":"東池袋サンシャイン６０"},
{"zip_code":"1706045","kana_pref":"ﾄｳｷｮｳﾄ","kana_city":"ﾄｼﾏｸ","kana_address":"ﾋｶﾞｼｲｹﾌﾞｸﾛｻﾝｼｬｲﾝ60","pref":"東京都","city":"豊島区","address":"東池袋サンシャイン６０"},
{"zip_code":"1706046","kana_pref":"ﾄｳｷｮｳﾄ","kana_city":"ﾄｼﾏｸ","kana_address":"ﾋｶﾞｼｲｹﾌﾞｸﾛｻﾝｼｬｲﾝ60","pref":"東京都","city":"豊島区","address":"東池袋サンシャイン６０"},
{"zip_code":"1706047","kana_pref":"ﾄｳｷｮｳﾄ","kana_city":"ﾄｼﾏｸ","kana_address":"ﾋｶﾞｼｲｹﾌﾞｸﾛｻﾝｼｬｲﾝ60","pref":"東京都","city":"豊島区","address":"東池袋サンシャイン６０"},
{"zip_code":"1706048","kana_pref":"ﾄｳｷｮｳﾄ","kana_city":"ﾄｼﾏｸ","kana_address":"ﾋｶﾞｼｲｹﾌﾞｸﾛｻﾝｼｬｲﾝ60","pref":"東京都","city":"豊島区","address":"東池袋サンシャイン６０"},
{"zip_code":"1706049","kana_pref":"ﾄｳｷｮｳﾄ","kana_city":"ﾄｼﾏｸ","kana_address":"ﾋｶﾞｼｲｹﾌﾞｸﾛｻﾝｼｬｲﾝ60","pref":"東京都","city":"豊島区","address":"東池袋サンシャイン６０"},
{"zip_code":"1706050","kana_pref":"ﾄｳｷｮｳﾄ","kana_city":"ﾄｼﾏｸ","kana_address":"ﾋｶﾞｼｲｹﾌﾞｸﾛｻﾝｼｬｲﾝ60","pref":"東京都","city":"豊島区","address":"東池袋サンシャイン６０"},
{"zip_code":"1706051","kana_pref":"ﾄｳｷｮｳﾄ","kana_city":"ﾄｼﾏｸ","kana_address":"ﾋｶﾞｼｲｹﾌﾞｸﾛｻﾝｼｬｲﾝ60","pref":"東京都","city":"豊島区","address":"東池袋サンシャイン６０"},
{"zip_code":"1706052","kana_pref":"ﾄｳｷｮｳﾄ","kana_city":"ﾄｼﾏｸ","kana_address":"ﾋｶﾞｼｲｹﾌﾞｸﾛｻﾝｼｬｲﾝ60","pref":"東京都","city":"豊島区","address":"東池袋サンシャイン６０"},
{"zip_code":"1706053","kana_pref":"ﾄｳｷｮｳﾄ","kana_city":"ﾄｼﾏｸ","kana_address":"ﾋｶﾞｼｲｹﾌﾞｸﾛｻﾝｼｬｲﾝ60","pref":"東京都","city":"豊島区","address":"東池袋サンシャイン６０"},
{"zip_code":"1706054","kana_pref":"ﾄｳｷｮｳﾄ","kana_city":"ﾄｼﾏｸ","kana_address":"ﾋｶﾞｼｲｹﾌﾞｸﾛｻﾝｼｬｲﾝ60","pref":"東京都","city":"豊島区","address":"東池袋サンシャイン６０"},
{"zip_code":"1706055","kana_pref":"ﾄｳｷｮｳﾄ","kana_city":"ﾄｼﾏｸ","kana_address":"ﾋｶﾞｼｲｹﾌﾞｸﾛｻﾝｼｬｲﾝ60","pref":"東京都","city":"豊島区","address":"東池袋サンシャイン６０"},
{"zip_code":"1706056","kana_pref":"ﾄｳｷｮｳﾄ","kana_city":"ﾄｼﾏｸ","kana_address":"ﾋｶﾞｼｲｹﾌﾞｸﾛｻﾝｼｬｲﾝ60","pref":"東京都","city":"豊島区","address":"東池袋サンシャイン６０"},
{"zip_code":"1706057","kana_pref":"ﾄｳｷｮｳﾄ","kana_city":"ﾄｼﾏｸ","kana_address":"ﾋｶﾞｼｲｹﾌﾞｸﾛｻﾝｼｬｲﾝ60","pref":"東京都","city":"豊島区","address":"東池袋サンシャイン６０"},
{"zip_code":"1706058","kana_pref":"ﾄｳｷｮｳﾄ","kana_city":"ﾄｼﾏｸ","kana_address":"ﾋｶﾞｼｲｹﾌﾞｸﾛｻﾝｼｬｲﾝ60","pref":"東京都","city":"豊島区","address":"東池袋サンシャイン６０"},
{"zip_code":"1706059","kana_pref":"ﾄｳｷｮｳﾄ","kana_city":"ﾄｼﾏｸ","kana_address":"ﾋｶﾞｼｲｹﾌﾞｸﾛｻﾝｼｬｲﾝ60","pref":"東京都","city":"豊島区","address":"東池袋サンシャイン６０"},
{"zip_code":"1706060","kana_pref":"ﾄｳｷｮｳﾄ","kana_city":"ﾄｼﾏｸ","kana_address":"ﾋｶﾞｼｲｹﾌﾞｸﾛｻﾝｼｬｲﾝ60","pref":"東京都","city":"豊島区","address":"東池袋サンシャイン６０"},
{"zip_code":"1700005","kana_pref":"ﾄｳｷｮｳﾄ","kana_city":"ﾄｼﾏｸ","kana_address":"ﾐﾅﾐｵｵﾂｶ","pref":"東京都","city":"豊島区","address":"南大塚"}]}