{"zip_code":[
{"zip_code":"1710014","kana_pref":"ﾄｳｷｮｳﾄ","kana_city":"ﾄｼﾏｸ","kana_address":"ｲｹﾌﾞｸﾛ","pref":"東京都","city":"豊島区","address":"池袋"},
{"zip_code":"1710043","kana_pref":"ﾄｳｷｮｳﾄ","kana_city":"ﾄｼﾏｸ","kana_address":"ｶﾅﾒﾁｮｳ","pref":"東京都","city":"豊島区","address":"要町"},
{"zip_code":"1710041","kana_pref":"ﾄｳｷｮｳﾄ","kana_city":"ﾄｼﾏｸ","kana_address":"ｾﾝｶﾜ","pref":"東京都","city":"豊島区","address":"千川"},
{"zip_code":"1710032","kana_pref":"ﾄｳｷｮｳﾄ","kana_city":"ﾄｼﾏｸ","kana_address":"ｿﾞｳｼｶﾞﾔ","pref":"東京都","city":"豊島区","address":"雑司が谷"},
{"zip_code":"1710033","kana_pref":"ﾄｳｷｮｳﾄ","kana_city":"ﾄｼﾏｸ","kana_address":"ﾀｶﾀﾞ","pref":"東京都","city":"豊島区","address":"高田"},
{"zip_code":"1710042","kana_pref":"ﾄｳｷｮｳﾄ","kana_city":"ﾄｼﾏｸ","kana_address":"ﾀｶﾏﾂ","pref":"東京都","city":"豊島区","address":"高松"},
{"zip_code":"1710044","kana_pref":"ﾄｳｷｮｳﾄ","kana_city":"ﾄｼﾏｸ","kana_address":"ﾁﾊﾔ","pref":"東京都","city":"豊島区","address":"千早"},
{"zip_code":"1710051","kana_pref":"ﾄｳｷｮｳﾄ","kana_city":"ﾄｼﾏｸ","kana_address":"ﾅｶﾞｻｷ","pref":"東京都","city":"豊島区","address":"長崎"},
{"zip_code":"1710021","kana_pref":"ﾄｳｷｮｳﾄ","kana_city":"ﾄｼﾏｸ","kana_address":"ﾆｼｲｹﾌﾞｸﾛ","pref":"東京都","city":"豊島区","address":"西池袋"},
{"zip_code":"1710022","kana_pref":"ﾄｳｷｮｳﾄ","kana_city":"ﾄｼﾏｸ","kana_address":"ﾐﾅﾐｲｹﾌﾞｸﾛ","pref":"東京都","city":"豊島区","address":"南池袋"},
{"zip_code":"1710052","kana_pref":"ﾄｳｷｮｳﾄ","kana_city":"ﾄｼﾏｸ","kana_address":"ﾐﾅﾐﾅｶﾞｻｷ","pref":"東京都","city":"豊島区","address":"南長崎"},
{"zip_code":"1710031","kana_pref":"ﾄｳｷｮｳﾄ","kana_city":"ﾄｼﾏｸ","kana_address":"ﾒｼﾞﾛ","pref":"東京都","city":"豊島区","address":"目白"}]}