{"zip_code":[
{"zip_code":"1730004","kana_pref":"ﾄｳｷｮｳﾄ","kana_city":"ｲﾀﾊﾞｼｸ","kana_address":"ｲﾀﾊﾞｼ","pref":"東京都","city":"板橋区","address":"板橋"},
{"zip_code":"1730002","kana_pref":"ﾄｳｷｮｳﾄ","kana_city":"ｲﾀﾊﾞｼｸ","kana_address":"ｲﾅﾘﾀﾞｲ","pref":"東京都","city":"板橋区","address":"稲荷台"},
{"zip_code":"1730035","kana_pref":"ﾄｳｷｮｳﾄ","kana_city":"ｲﾀﾊﾞｼｸ","kana_address":"ｵｵﾔｸﾞﾁ","pref":"東京都","city":"板橋区","address":"大谷口"},
{"zip_code":"1730032","kana_pref":"ﾄｳｷｮｳﾄ","kana_city":"ｲﾀﾊﾞｼｸ","kana_address":"ｵｵﾔｸﾞﾁｶﾐﾁｮｳ","pref":"東京都","city":"板橋区","address":"大谷口上町"},
{"zip_code":"1730031","kana_pref":"ﾄｳｷｮｳﾄ","kana_city":"ｲﾀﾊﾞｼｸ","kana_address":"ｵｵﾔｸﾞﾁｷﾀﾁｮｳ","pref":"東京都","city":"板橋区","address":"大谷口北町"},
{"zip_code":"1730024","kana_pref":"ﾄｳｷｮｳﾄ","kana_city":"ｲﾀﾊﾞｼｸ","kana_address":"ｵｵﾔﾏｶﾅｲﾁｮｳ","pref":"東京都","city":"板橋区","address":"大山金井町"},
{"zip_code":"1730014","kana_pref":"ﾄｳｷｮｳﾄ","kana_city":"ｲﾀﾊﾞｼｸ","kana_address":"ｵｵﾔﾏﾋｶﾞｼﾁｮｳ","pref":"東京都","city":"板橋区","address":"大山東町"},
{"zip_code":"1730033","kana_pref":"ﾄｳｷｮｳﾄ","kana_city":"ｲﾀﾊﾞｼｸ","kana_address":"ｵｵﾔﾏﾆｼﾁｮｳ","pref":"東京都","city":"板橋区","address":"大山西町"},
{"zip_code":"1730023","kana_pref":"ﾄｳｷｮｳﾄ","kana_city":"ｲﾀﾊﾞｼｸ","kana_address":"ｵｵﾔﾏﾁｮｳ","pref":"東京都","city":"板橋区","address":"大山町"},
{"zip_code":"1730003","kana_pref":"ﾄｳｷｮｳﾄ","kana_city":"ｲﾀﾊﾞｼｸ","kana_address":"ｶｶﾞ","pref":"東京都","city":"板橋区","address":"加賀"},
{"zip_code":"1730025","kana_pref":"ﾄｳｷｮｳﾄ","kana_city":"ｲﾀﾊﾞｼｸ","kana_address":"ｸﾏﾉﾁｮｳ","pref":"東京都","city":"板橋区","address":"熊野町"},
{"zip_code":"1730037","kana_pref":"ﾄｳｷｮｳﾄ","kana_city":"ｲﾀﾊﾞｼｸ","kana_address":"ｺﾓﾈ","pref":"東京都","city":"板橋区","address":"小茂根"},
{"zip_code":"1730034","kana_pref":"ﾄｳｷｮｳﾄ","kana_city":"ｲﾀﾊﾞｼｸ","kana_address":"ｻｲﾜｲﾁｮｳ","pref":"東京都","city":"板橋区","address":"幸町"},
{"zip_code":"1730015","kana_pref":"ﾄｳｷｮｳﾄ","kana_city":"ｲﾀﾊﾞｼｸ","kana_address":"ｻｶｴﾁｮｳ","pref":"東京都","city":"板橋区","address":"栄町"},
{"zip_code":"1730016","kana_pref":"ﾄｳｷｮｳﾄ","kana_city":"ｲﾀﾊﾞｼｸ","kana_address":"ﾅｶｲﾀﾊﾞｼ","pref":"東京都","city":"板橋区","address":"中板橋"},
{"zip_code":"1730005","kana_pref":"ﾄｳｷｮｳﾄ","kana_city":"ｲﾀﾊﾞｼｸ","kana_address":"ﾅｶｼﾞｭｸ","pref":"東京都","city":"板橋区","address":"仲宿"},
{"zip_code":"1730022","kana_pref":"ﾄｳｷｮｳﾄ","kana_city":"ｲﾀﾊﾞｼｸ","kana_address":"ﾅｶﾁｮｳ","pref":"東京都","city":"板橋区","address":"仲町"},
{"zip_code":"1730026","kana_pref":"ﾄｳｷｮｳﾄ","kana_city":"ｲﾀﾊﾞｼｸ","kana_address":"ﾅｶﾏﾙﾁｮｳ","pref":"東京都","city":"板橋区","address":"中丸町"},
{"zip_code":"1730013","kana_pref":"ﾄｳｷｮｳﾄ","kana_city":"ｲﾀﾊﾞｼｸ","kana_address":"ﾋｶﾜﾁｮｳ","pref":"東京都","city":"板橋区","address":"氷川町"},
{"zip_code":"1730011","kana_pref":"ﾄｳｷｮｳﾄ","kana_city":"ｲﾀﾊﾞｼｸ","kana_address":"ﾌﾀﾊﾞﾁｮｳ","pref":"東京都","city":"板橋区","address":"双葉町"},
{"zip_code":"1730001","kana_pref":"ﾄｳｷｮｳﾄ","kana_city":"ｲﾀﾊﾞｼｸ","kana_address":"ﾎﾝﾁｮｳ","pref":"東京都","city":"板橋区","address":"本町"},
{"zip_code":"1730027","kana_pref":"ﾄｳｷｮｳﾄ","kana_city":"ｲﾀﾊﾞｼｸ","kana_address":"ﾐﾅﾐﾁｮｳ","pref":"東京都","city":"板橋区","address":"南町"},
{"zip_code":"1730036","kana_pref":"ﾄｳｷｮｳﾄ","kana_city":"ｲﾀﾊﾞｼｸ","kana_address":"ﾑｶｲﾊﾗ","pref":"東京都","city":"板橋区","address":"向原"},
{"zip_code":"1730012","kana_pref":"ﾄｳｷｮｳﾄ","kana_city":"ｲﾀﾊﾞｼｸ","kana_address":"ﾔﾏﾄﾁｮｳ","pref":"東京都","city":"板橋区","address":"大和町"},
{"zip_code":"1730021","kana_pref":"ﾄｳｷｮｳﾄ","kana_city":"ｲﾀﾊﾞｼｸ","kana_address":"ﾔﾖｲﾁｮｳ","pref":"東京都","city":"板橋区","address":"弥生町"}]}