{"zip_code":[
{"zip_code":"1750092","kana_pref":"ﾄｳｷｮｳﾄ","kana_city":"ｲﾀﾊﾞｼｸ","kana_address":"ｱｶﾂｶ","pref":"東京都","city":"板橋区","address":"赤塚"},
{"zip_code":"1750093","kana_pref":"ﾄｳｷｮｳﾄ","kana_city":"ｲﾀﾊﾞｼｸ","kana_address":"ｱｶﾂｶｼﾝﾏﾁ","pref":"東京都","city":"板橋区","address":"赤塚新町"},
{"zip_code":"1750081","kana_pref":"ﾄｳｷｮｳﾄ","kana_city":"ｲﾀﾊﾞｼｸ","kana_address":"ｼﾝｶﾞｼ","pref":"東京都","city":"板橋区","address":"新河岸"},
{"zip_code":"1750085","kana_pref":"ﾄｳｷｮｳﾄ","kana_city":"ｲﾀﾊﾞｼｸ","kana_address":"ﾀﾞｲﾓﾝ","pref":"東京都","city":"板橋区","address":"大門"},
{"zip_code":"1750082","kana_pref":"ﾄｳｷｮｳﾄ","kana_city":"ｲﾀﾊﾞｼｸ","kana_address":"ﾀｶｼﾏﾀﾞｲﾗ","pref":"東京都","city":"板橋区","address":"高島平"},
{"zip_code":"1750083","kana_pref":"ﾄｳｷｮｳﾄ","kana_city":"ｲﾀﾊﾞｼｸ","kana_address":"ﾄｸﾏﾙ","pref":"東京都","city":"板橋区","address":"徳丸"},
{"zip_code":"1750094","kana_pref":"ﾄｳｷｮｳﾄ","kana_city":"ｲﾀﾊﾞｼｸ","kana_address":"ﾅﾘﾏｽ","pref":"東京都","city":"板橋区","address":"成増"},
{"zip_code":"1750045","kana_pref":"ﾄｳｷｮｳﾄ","kana_city":"ｲﾀﾊﾞｼｸ","kana_address":"ﾆｼﾀﾞｲ","pref":"東京都","city":"板橋区","address":"西台"},
{"zip_code":"1750091","kana_pref":"ﾄｳｷｮｳﾄ","kana_city":"ｲﾀﾊﾞｼｸ","kana_address":"ﾐｿﾉ","pref":"東京都","city":"板橋区","address":"三園"},
{"zip_code":"1750084","kana_pref":"ﾄｳｷｮｳﾄ","kana_city":"ｲﾀﾊﾞｼｸ","kana_address":"ﾖﾂﾊﾞ","pref":"東京都","city":"板橋区","address":"四葉"}]}