{"zip_code":[
{"zip_code":"1760000","kana_pref":"ﾄｳｷｮｳﾄ","kana_city":"ﾈﾘﾏｸ","kana_address":"","pref":"東京都","city":"練馬区","address":""},
{"zip_code":"1760005","kana_pref":"ﾄｳｷｮｳﾄ","kana_city":"ﾈﾘﾏｸ","kana_address":"ｱｻﾋｶﾞｵｶ","pref":"東京都","city":"練馬区","address":"旭丘"},
{"zip_code":"1760022","kana_pref":"ﾄｳｷｮｳﾄ","kana_city":"ﾈﾘﾏｸ","kana_address":"ｺｳﾔﾏ","pref":"東京都","city":"練馬区","address":"向山"},
{"zip_code":"1760004","kana_pref":"ﾄｳｷｮｳﾄ","kana_city":"ﾈﾘﾏｸ","kana_address":"ｺﾀｹﾁｮｳ","pref":"東京都","city":"練馬区","address":"小竹町"},
{"zip_code":"1760006","kana_pref":"ﾄｳｷｮｳﾄ","kana_city":"ﾈﾘﾏｸ","kana_address":"ｻｶｴﾁｮｳ","pref":"東京都","city":"練馬区","address":"栄町"},
{"zip_code":"1760002","kana_pref":"ﾄｳｷｮｳﾄ","kana_city":"ﾈﾘﾏｸ","kana_address":"ｻｸﾗﾀﾞｲ","pref":"東京都","city":"練馬区","address":"桜台"},
{"zip_code":"1760011","kana_pref":"ﾄｳｷｮｳﾄ","kana_city":"ﾈﾘﾏｸ","kana_address":"ﾄﾖﾀﾏｶﾐ","pref":"東京都","city":"練馬区","address":"豊玉上"},
{"zip_code":"1760013","kana_pref":"ﾄｳｷｮｳﾄ","kana_city":"ﾈﾘﾏｸ","kana_address":"ﾄﾖﾀﾏﾅｶ","pref":"東京都","city":"練馬区","address":"豊玉中"},
{"zip_code":"1760014","kana_pref":"ﾄｳｷｮｳﾄ","kana_city":"ﾈﾘﾏｸ","kana_address":"ﾄﾖﾀﾏﾐﾅﾐ","pref":"東京都","city":"練馬区","address":"豊玉南"},
{"zip_code":"1760012","kana_pref":"ﾄｳｷｮｳﾄ","kana_city":"ﾈﾘﾏｸ","kana_address":"ﾄﾖﾀﾏｷﾀ","pref":"東京都","city":"練馬区","address":"豊玉北"},
{"zip_code":"1760024","kana_pref":"ﾄｳｷｮｳﾄ","kana_city":"ﾈﾘﾏｸ","kana_address":"ﾅｶﾑﾗ","pref":"東京都","city":"練馬区","address":"中村"},
{"zip_code":"1760025","kana_pref":"ﾄｳｷｮｳﾄ","kana_city":"ﾈﾘﾏｸ","kana_address":"ﾅｶﾑﾗﾐﾅﾐ","pref":"東京都","city":"練馬区","address":"中村南"},
{"zip_code":"1760023","kana_pref":"ﾄｳｷｮｳﾄ","kana_city":"ﾈﾘﾏｸ","kana_address":"ﾅｶﾑﾗｷﾀ","pref":"東京都","city":"練馬区","address":"中村北"},
{"zip_code":"1760021","kana_pref":"ﾄｳｷｮｳﾄ","kana_city":"ﾈﾘﾏｸ","kana_address":"ﾇｸｲ","pref":"東京都","city":"練馬区","address":"貫井"},
{"zip_code":"1760001","kana_pref":"ﾄｳｷｮｳﾄ","kana_city":"ﾈﾘﾏｸ","kana_address":"ﾈﾘﾏ","pref":"東京都","city":"練馬区","address":"練馬"},
{"zip_code":"1760003","kana_pref":"ﾄｳｷｮｳﾄ","kana_city":"ﾈﾘﾏｸ","kana_address":"ﾊｻﾞﾜ","pref":"東京都","city":"練馬区","address":"羽沢"}]}