{"zip_code":[
{"zip_code":"1770044","kana_pref":"ﾄｳｷｮｳﾄ","kana_city":"ﾈﾘﾏｸ","kana_address":"ｶﾐｼｬｸｼﾞｲ","pref":"東京都","city":"練馬区","address":"上石神井"},
{"zip_code":"1770043","kana_pref":"ﾄｳｷｮｳﾄ","kana_city":"ﾈﾘﾏｸ","kana_address":"ｶﾐｼｬｸｼﾞｲﾐﾅﾐﾁｮｳ","pref":"東京都","city":"練馬区","address":"上石神井南町"},
{"zip_code":"1770042","kana_pref":"ﾄｳｷｮｳﾄ","kana_city":"ﾈﾘﾏｸ","kana_address":"ｼﾓｼｬｸｼﾞｲ","pref":"東京都","city":"練馬区","address":"下石神井"},
{"zip_code":"1770045","kana_pref":"ﾄｳｷｮｳﾄ","kana_city":"ﾈﾘﾏｸ","kana_address":"ｼｬｸｼﾞｲﾀﾞｲ","pref":"東京都","city":"練馬区","address":"石神井台"},
{"zip_code":"1770041","kana_pref":"ﾄｳｷｮｳﾄ","kana_city":"ﾈﾘﾏｸ","kana_address":"ｼｬｸｼﾞｲﾏﾁ","pref":"東京都","city":"練馬区","address":"石神井町"},
{"zip_code":"1770052","kana_pref":"ﾄｳｷｮｳﾄ","kana_city":"ﾈﾘﾏｸ","kana_address":"ｾｷﾏﾁﾋｶﾞｼ","pref":"東京都","city":"練馬区","address":"関町東"},
{"zip_code":"1770053","kana_pref":"ﾄｳｷｮｳﾄ","kana_city":"ﾈﾘﾏｸ","kana_address":"ｾｷﾏﾁﾐﾅﾐ","pref":"東京都","city":"練馬区","address":"関町南"},
{"zip_code":"1770051","kana_pref":"ﾄｳｷｮｳﾄ","kana_city":"ﾈﾘﾏｸ","kana_address":"ｾｷﾏﾁｷﾀ","pref":"東京都","city":"練馬区","address":"関町北"},
{"zip_code":"1770033","kana_pref":"ﾄｳｷｮｳﾄ","kana_city":"ﾈﾘﾏｸ","kana_address":"ﾀｶﾉﾀﾞｲ","pref":"東京都","city":"練馬区","address":"高野台"},
{"zip_code":"1770054","kana_pref":"ﾄｳｷｮｳﾄ","kana_city":"ﾈﾘﾏｸ","kana_address":"ﾀﾃﾉﾁｮｳ","pref":"東京都","city":"練馬区","address":"立野町"},
{"zip_code":"1770034","kana_pref":"ﾄｳｷｮｳﾄ","kana_city":"ﾈﾘﾏｸ","kana_address":"ﾌｼﾞﾐﾀﾞｲ","pref":"東京都","city":"練馬区","address":"富士見台"},
{"zip_code":"1770035","kana_pref":"ﾄｳｷｮｳﾄ","kana_city":"ﾈﾘﾏｸ","kana_address":"ﾐﾅﾐﾀﾅｶ","pref":"東京都","city":"練馬区","address":"南田中"},
{"zip_code":"1770031","kana_pref":"ﾄｳｷｮｳﾄ","kana_city":"ﾈﾘﾏｸ","kana_address":"ﾐﾊﾗﾀﾞｲ","pref":"東京都","city":"練馬区","address":"三原台"},
{"zip_code":"1770032","kana_pref":"ﾄｳｷｮｳﾄ","kana_city":"ﾈﾘﾏｸ","kana_address":"ﾔﾊﾗ","pref":"東京都","city":"練馬区","address":"谷原"}]}