{"zip_code":[
{"zip_code":"1790071","kana_pref":"ﾄｳｷｮｳﾄ","kana_city":"ﾈﾘﾏｸ","kana_address":"ｱｻﾋﾁｮｳ","pref":"東京都","city":"練馬区","address":"旭町"},
{"zip_code":"1790074","kana_pref":"ﾄｳｷｮｳﾄ","kana_city":"ﾈﾘﾏｸ","kana_address":"ｶｽｶﾞﾁｮｳ","pref":"東京都","city":"練馬区","address":"春日町"},
{"zip_code":"1790081","kana_pref":"ﾄｳｷｮｳﾄ","kana_city":"ﾈﾘﾏｸ","kana_address":"ｷﾀﾏﾁ","pref":"東京都","city":"練馬区","address":"北町"},
{"zip_code":"1790075","kana_pref":"ﾄｳｷｮｳﾄ","kana_city":"ﾈﾘﾏｸ","kana_address":"ﾀｶﾏﾂ","pref":"東京都","city":"練馬区","address":"高松"},
{"zip_code":"1790073","kana_pref":"ﾄｳｷｮｳﾄ","kana_city":"ﾈﾘﾏｸ","kana_address":"ﾀｶﾞﾗ","pref":"東京都","city":"練馬区","address":"田柄"},
{"zip_code":"1790076","kana_pref":"ﾄｳｷｮｳﾄ","kana_city":"ﾈﾘﾏｸ","kana_address":"ﾄﾞｼﾀﾞ","pref":"東京都","city":"練馬区","address":"土支田"},
{"zip_code":"1790082","kana_pref":"ﾄｳｷｮｳﾄ","kana_city":"ﾈﾘﾏｸ","kana_address":"ﾆｼｷ","pref":"東京都","city":"練馬区","address":"錦"},
{"zip_code":"1790085","kana_pref":"ﾄｳｷｮｳﾄ","kana_city":"ﾈﾘﾏｸ","kana_address":"ﾊﾔﾐﾔ","pref":"東京都","city":"練馬区","address":"早宮"},
{"zip_code":"1790072","kana_pref":"ﾄｳｷｮｳﾄ","kana_city":"ﾈﾘﾏｸ","kana_address":"ﾋｶﾘｶﾞｵｶ","pref":"東京都","city":"練馬区","address":"光が丘"},
{"zip_code":"1790084","kana_pref":"ﾄｳｷｮｳﾄ","kana_city":"ﾈﾘﾏｸ","kana_address":"ﾋｶﾜﾀﾞｲ","pref":"東京都","city":"練馬区","address":"氷川台"},
{"zip_code":"1790083","kana_pref":"ﾄｳｷｮｳﾄ","kana_city":"ﾈﾘﾏｸ","kana_address":"ﾍｲﾜﾀﾞｲ","pref":"東京都","city":"練馬区","address":"平和台"}]}