{"zip_code":[
{"zip_code":"1800000","kana_pref":"ﾄｳｷｮｳﾄ","kana_city":"ﾑｻｼﾉｼ","kana_address":"","pref":"東京都","city":"武蔵野市","address":""},
{"zip_code":"1800004","kana_pref":"ﾄｳｷｮｳﾄ","kana_city":"ﾑｻｼﾉｼ","kana_address":"ｷﾁｼﾞｮｳｼﾞﾎﾝﾁｮｳ","pref":"東京都","city":"武蔵野市","address":"吉祥寺本町"},
{"zip_code":"1800002","kana_pref":"ﾄｳｷｮｳﾄ","kana_city":"ﾑｻｼﾉｼ","kana_address":"ｷﾁｼﾞｮｳｼﾞﾋｶﾞｼﾁｮｳ","pref":"東京都","city":"武蔵野市","address":"吉祥寺東町"},
{"zip_code":"1800003","kana_pref":"ﾄｳｷｮｳﾄ","kana_city":"ﾑｻｼﾉｼ","kana_address":"ｷﾁｼﾞｮｳｼﾞﾐﾅﾐﾁｮｳ","pref":"東京都","city":"武蔵野市","address":"吉祥寺南町"},
{"zip_code":"1800001","kana_pref":"ﾄｳｷｮｳﾄ","kana_city":"ﾑｻｼﾉｼ","kana_address":"ｷﾁｼﾞｮｳｼﾞｷﾀﾏﾁ","pref":"東京都","city":"武蔵野市","address":"吉祥寺北町"},
{"zip_code":"1800023","kana_pref":"ﾄｳｷｮｳﾄ","kana_city":"ﾑｻｼﾉｼ","kana_address":"ｷｮｳﾅﾝﾁｮｳ","pref":"東京都","city":"武蔵野市","address":"境南町"},
{"zip_code":"1800005","kana_pref":"ﾄｳｷｮｳﾄ","kana_city":"ﾑｻｼﾉｼ","kana_address":"ｺﾞﾃﾝﾔﾏ","pref":"東京都","city":"武蔵野市","address":"御殿山"},
{"zip_code":"1800022","kana_pref":"ﾄｳｷｮｳﾄ","kana_city":"ﾑｻｼﾉｼ","kana_address":"ｻｶｲ","pref":"東京都","city":"武蔵野市","address":"境"},
{"zip_code":"1800021","kana_pref":"ﾄｳｷｮｳﾄ","kana_city":"ﾑｻｼﾉｼ","kana_address":"ｻｸﾗﾂﾞﾂﾐ","pref":"東京都","city":"武蔵野市","address":"桜堤"},
{"zip_code":"1800014","kana_pref":"ﾄｳｷｮｳﾄ","kana_city":"ﾑｻｼﾉｼ","kana_address":"ｾｷﾏｴ","pref":"東京都","city":"武蔵野市","address":"関前"},
{"zip_code":"1800006","kana_pref":"ﾄｳｷｮｳﾄ","kana_city":"ﾑｻｼﾉｼ","kana_address":"ﾅｶﾁｮｳ","pref":"東京都","city":"武蔵野市","address":"中町"},
{"zip_code":"1800013","kana_pref":"ﾄｳｷｮｳﾄ","kana_city":"ﾑｻｼﾉｼ","kana_address":"ﾆｼｸﾎﾞ","pref":"東京都","city":"武蔵野市","address":"西久保"},
{"zip_code":"1800012","kana_pref":"ﾄｳｷｮｳﾄ","kana_city":"ﾑｻｼﾉｼ","kana_address":"ﾐﾄﾞﾘﾁｮｳ","pref":"東京都","city":"武蔵野市","address":"緑町"},
{"zip_code":"1800011","kana_pref":"ﾄｳｷｮｳﾄ","kana_city":"ﾑｻｼﾉｼ","kana_address":"ﾔﾊﾀﾁｮｳ","pref":"東京都","city":"武蔵野市","address":"八幡町"}]}