{"zip_code":[
{"zip_code":"1830000","kana_pref":"ﾄｳｷｮｳﾄ","kana_city":"ﾌﾁｭｳｼ","kana_address":"","pref":"東京都","city":"府中市","address":""},
{"zip_code":"1830003","kana_pref":"ﾄｳｷｮｳﾄ","kana_city":"ﾌﾁｭｳｼ","kana_address":"ｱｻﾋﾁｮｳ","pref":"東京都","city":"府中市","address":"朝日町"},
{"zip_code":"1830012","kana_pref":"ﾄｳｷｮｳﾄ","kana_city":"ﾌﾁｭｳｼ","kana_address":"ｵｼﾀﾃﾁｮｳ","pref":"東京都","city":"府中市","address":"押立町"},
{"zip_code":"1830021","kana_pref":"ﾄｳｷｮｳﾄ","kana_city":"ﾌﾁｭｳｼ","kana_address":"ｶﾀﾏﾁ","pref":"東京都","city":"府中市","address":"片町"},
{"zip_code":"1830041","kana_pref":"ﾄｳｷｮｳﾄ","kana_city":"ﾌﾁｭｳｼ","kana_address":"ｷﾀﾔﾏﾁｮｳ","pref":"東京都","city":"府中市","address":"北山町"},
{"zip_code":"1830056","kana_pref":"ﾄｳｷｮｳﾄ","kana_city":"ﾌﾁｭｳｼ","kana_address":"ｺﾄﾌﾞｷﾁｮｳ","pref":"東京都","city":"府中市","address":"寿町"},
{"zip_code":"1830013","kana_pref":"ﾄｳｷｮｳﾄ","kana_city":"ﾌﾁｭｳｼ","kana_address":"ｺﾔﾅｷﾞﾁｮｳ","pref":"東京都","city":"府中市","address":"小柳町"},
{"zip_code":"1830014","kana_pref":"ﾄｳｷｮｳﾄ","kana_city":"ﾌﾁｭｳｼ","kana_address":"ｺﾚﾏｻ","pref":"東京都","city":"府中市","address":"是政"},
{"zip_code":"1830054","kana_pref":"ﾄｳｷｮｳﾄ","kana_city":"ﾌﾁｭｳｼ","kana_address":"ｻｲﾜｲﾁｮｳ","pref":"東京都","city":"府中市","address":"幸町"},
{"zip_code":"1830051","kana_pref":"ﾄｳｷｮｳﾄ","kana_city":"ﾌﾁｭｳｼ","kana_address":"ｻｶｴﾁｮｳ","pref":"東京都","city":"府中市","address":"栄町"},
{"zip_code":"1830015","kana_pref":"ﾄｳｷｮｳﾄ","kana_city":"ﾌﾁｭｳｼ","kana_address":"ｼﾐｽﾞｶﾞｵｶ","pref":"東京都","city":"府中市","address":"清水が丘"},
{"zip_code":"1830011","kana_pref":"ﾄｳｷｮｳﾄ","kana_city":"ﾌﾁｭｳｼ","kana_address":"ｼﾗｲﾄﾀﾞｲ","pref":"東京都","city":"府中市","address":"白糸台"},
{"zip_code":"1830052","kana_pref":"ﾄｳｷｮｳﾄ","kana_city":"ﾌﾁｭｳｼ","kana_address":"ｼﾝﾏﾁ","pref":"東京都","city":"府中市","address":"新町"},
{"zip_code":"1830034","kana_pref":"ﾄｳｷｮｳﾄ","kana_city":"ﾌﾁｭｳｼ","kana_address":"ｽﾐﾖｼﾁｮｳ","pref":"東京都","city":"府中市","address":"住吉町"},
{"zip_code":"1830001","kana_pref":"ﾄｳｷｮｳﾄ","kana_city":"ﾌﾁｭｳｼ","kana_address":"ｾﾝｹﾞﾝﾁｮｳ","pref":"東京都","city":"府中市","address":"浅間町"},
{"zip_code":"1830002","kana_pref":"ﾄｳｷｮｳﾄ","kana_city":"ﾌﾁｭｳｼ","kana_address":"ﾀﾏﾁｮｳ","pref":"東京都","city":"府中市","address":"多磨町"},
{"zip_code":"1830053","kana_pref":"ﾄｳｷｮｳﾄ","kana_city":"ﾌﾁｭｳｼ","kana_address":"ﾃﾝｼﾞﾝﾁｮｳ","pref":"東京都","city":"府中市","address":"天神町"},
{"zip_code":"1830043","kana_pref":"ﾄｳｷｮｳﾄ","kana_city":"ﾌﾁｭｳｼ","kana_address":"ﾄｳｼﾊﾞﾁｮｳ","pref":"東京都","city":"府中市","address":"東芝町"},
{"zip_code":"1830046","kana_pref":"ﾄｳｷｮｳﾄ","kana_city":"ﾌﾁｭｳｼ","kana_address":"ﾆｼﾊﾗﾁｮｳ","pref":"東京都","city":"府中市","address":"西原町"},
{"zip_code":"1830031","kana_pref":"ﾄｳｷｮｳﾄ","kana_city":"ﾌﾁｭｳｼ","kana_address":"ﾆｼﾌﾁｮｳ","pref":"東京都","city":"府中市","address":"西府町"},
{"zip_code":"1830044","kana_pref":"ﾄｳｷｮｳﾄ","kana_city":"ﾌﾁｭｳｼ","kana_address":"ﾆｯｺｳﾁｮｳ","pref":"東京都","city":"府中市","address":"日鋼町"},
{"zip_code":"1830036","kana_pref":"ﾄｳｷｮｳﾄ","kana_city":"ﾌﾁｭｳｼ","kana_address":"ﾆｯｼﾝﾁｮｳ","pref":"東京都","city":"府中市","address":"日新町"},
{"zip_code":"1830016","kana_pref":"ﾄｳｷｮｳﾄ","kana_city":"ﾌﾁｭｳｼ","kana_address":"ﾊﾁﾏﾝﾁｮｳ","pref":"東京都","city":"府中市","address":"八幡町"},
{"zip_code":"1830057","kana_pref":"ﾄｳｷｮｳﾄ","kana_city":"ﾌﾁｭｳｼ","kana_address":"ﾊﾙﾐﾁｮｳ","pref":"東京都","city":"府中市","address":"晴見町"},
{"zip_code":"1830024","kana_pref":"ﾄｳｷｮｳﾄ","kana_city":"ﾌﾁｭｳｼ","kana_address":"ﾋﾖｼﾁｮｳ","pref":"東京都","city":"府中市","address":"日吉町"},
{"zip_code":"1830055","kana_pref":"ﾄｳｷｮｳﾄ","kana_city":"ﾌﾁｭｳｼ","kana_address":"ﾌﾁｭｳﾁｮｳ","pref":"東京都","city":"府中市","address":"府中町"},
{"zip_code":"1830033","kana_pref":"ﾄｳｷｮｳﾄ","kana_city":"ﾌﾁｭｳｼ","kana_address":"ﾌﾞﾊﾞｲﾁｮｳ","pref":"東京都","city":"府中市","address":"分梅町"},
{"zip_code":"1830032","kana_pref":"ﾄｳｷｮｳﾄ","kana_city":"ﾌﾁｭｳｼ","kana_address":"ﾎﾝｼｭｸﾁｮｳ","pref":"東京都","city":"府中市","address":"本宿町"},
{"zip_code":"1830027","kana_pref":"ﾄｳｷｮｳﾄ","kana_city":"ﾌﾁｭｳｼ","kana_address":"ﾎﾝﾏﾁ","pref":"東京都","city":"府中市","address":"本町"},
{"zip_code":"1830006","kana_pref":"ﾄｳｷｮｳﾄ","kana_city":"ﾌﾁｭｳｼ","kana_address":"ﾐﾄﾞﾘﾁｮｳ","pref":"東京都","city":"府中市","address":"緑町"},
{"zip_code":"1830026","kana_pref":"ﾄｳｷｮｳﾄ","kana_city":"ﾌﾁｭｳｼ","kana_address":"ﾐﾅﾐﾁｮｳ","pref":"東京都","city":"府中市","address":"南町"},
{"zip_code":"1830022","kana_pref":"ﾄｳｷｮｳﾄ","kana_city":"ﾌﾁｭｳｼ","kana_address":"ﾐﾔﾆｼﾁｮｳ","pref":"東京都","city":"府中市","address":"宮西町"},
{"zip_code":"1830023","kana_pref":"ﾄｳｷｮｳﾄ","kana_city":"ﾌﾁｭｳｼ","kana_address":"ﾐﾔﾏﾁ","pref":"東京都","city":"府中市","address":"宮町"},
{"zip_code":"1830045","kana_pref":"ﾄｳｷｮｳﾄ","kana_city":"ﾌﾁｭｳｼ","kana_address":"ﾐﾖｼﾁｮｳ","pref":"東京都","city":"府中市","address":"美好町"},
{"zip_code":"1830042","kana_pref":"ﾄｳｷｮｳﾄ","kana_city":"ﾌﾁｭｳｼ","kana_address":"ﾑｻｼﾀﾞｲ","pref":"東京都","city":"府中市","address":"武蔵台"},
{"zip_code":"1830004","kana_pref":"ﾄｳｷｮｳﾄ","kana_city":"ﾌﾁｭｳｼ","kana_address":"ﾓﾐｼﾞｶﾞｵｶ","pref":"東京都","city":"府中市","address":"紅葉丘"},
{"zip_code":"1830025","kana_pref":"ﾄｳｷｮｳﾄ","kana_city":"ﾌﾁｭｳｼ","kana_address":"ﾔｻﾞｷﾁｮｳ","pref":"東京都","city":"府中市","address":"矢崎町"},
{"zip_code":"1830035","kana_pref":"ﾄｳｷｮｳﾄ","kana_city":"ﾌﾁｭｳｼ","kana_address":"ﾖﾂﾔ","pref":"東京都","city":"府中市","address":"四谷"},
{"zip_code":"1830005","kana_pref":"ﾄｳｷｮｳﾄ","kana_city":"ﾌﾁｭｳｼ","kana_address":"ﾜｶﾏﾂﾁｮｳ","pref":"東京都","city":"府中市","address":"若松町"}]}