{"zip_code":[
{"zip_code":"1840000","kana_pref":"ﾄｳｷｮｳﾄ","kana_city":"ｺｶﾞﾈｲｼ","kana_address":"","pref":"東京都","city":"小金井市","address":""},
{"zip_code":"1840002","kana_pref":"ﾄｳｷｮｳﾄ","kana_city":"ｺｶﾞﾈｲｼ","kana_address":"ｶｼﾞﾉﾁｮｳ","pref":"東京都","city":"小金井市","address":"梶野町"},
{"zip_code":"1840005","kana_pref":"ﾄｳｷｮｳﾄ","kana_city":"ｺｶﾞﾈｲｼ","kana_address":"ｻｸﾗﾁｮｳ","pref":"東京都","city":"小金井市","address":"桜町"},
{"zip_code":"1840001","kana_pref":"ﾄｳｷｮｳﾄ","kana_city":"ｺｶﾞﾈｲｼ","kana_address":"ｾｷﾉﾁｮｳ","pref":"東京都","city":"小金井市","address":"関野町"},
{"zip_code":"1840012","kana_pref":"ﾄｳｷｮｳﾄ","kana_city":"ｺｶﾞﾈｲｼ","kana_address":"ﾅｶﾁｮｳ","pref":"東京都","city":"小金井市","address":"中町"},
{"zip_code":"1840014","kana_pref":"ﾄｳｷｮｳﾄ","kana_city":"ｺｶﾞﾈｲｼ","kana_address":"ﾇｸｲﾐﾅﾐﾁｮｳ","pref":"東京都","city":"小金井市","address":"貫井南町"},
{"zip_code":"1840015","kana_pref":"ﾄｳｷｮｳﾄ","kana_city":"ｺｶﾞﾈｲｼ","kana_address":"ﾇｸｲｷﾀﾏﾁ","pref":"東京都","city":"小金井市","address":"貫井北町"},
{"zip_code":"1840011","kana_pref":"ﾄｳｷｮｳﾄ","kana_city":"ｺｶﾞﾈｲｼ","kana_address":"ﾋｶﾞｼﾁｮｳ","pref":"東京都","city":"小金井市","address":"東町"},
{"zip_code":"1840004","kana_pref":"ﾄｳｷｮｳﾄ","kana_city":"ｺｶﾞﾈｲｼ","kana_address":"ﾎﾝﾁｮｳ","pref":"東京都","city":"小金井市","address":"本町"},
{"zip_code":"1840013","kana_pref":"ﾄｳｷｮｳﾄ","kana_city":"ｺｶﾞﾈｲｼ","kana_address":"ﾏｴﾊﾗﾁｮｳ","pref":"東京都","city":"小金井市","address":"前原町"},
{"zip_code":"1840003","kana_pref":"ﾄｳｷｮｳﾄ","kana_city":"ｺｶﾞﾈｲｼ","kana_address":"ﾐﾄﾞﾘﾁｮｳ","pref":"東京都","city":"小金井市","address":"緑町"}]}