{"zip_code":[
{"zip_code":"1860000","kana_pref":"ﾄｳｷｮｳﾄ","kana_city":"ｸﾆﾀﾁｼ","kana_address":"","pref":"東京都","city":"国立市","address":""},
{"zip_code":"1860013","kana_pref":"ﾄｳｷｮｳﾄ","kana_city":"ｸﾆﾀﾁｼ","kana_address":"ｱｵﾔｷﾞ","pref":"東京都","city":"国立市","address":"青柳"},
{"zip_code":"1860014","kana_pref":"ﾄｳｷｮｳﾄ","kana_city":"ｸﾆﾀﾁｼ","kana_address":"ｲｼﾀﾞ","pref":"東京都","city":"国立市","address":"石田"},
{"zip_code":"1860012","kana_pref":"ﾄｳｷｮｳﾄ","kana_city":"ｸﾆﾀﾁｼ","kana_address":"ｲｽﾞﾐ","pref":"東京都","city":"国立市","address":"泉"},
{"zip_code":"1860001","kana_pref":"ﾄｳｷｮｳﾄ","kana_city":"ｸﾆﾀﾁｼ","kana_address":"ｷﾀ","pref":"東京都","city":"国立市","address":"北"},
{"zip_code":"1860004","kana_pref":"ﾄｳｷｮｳﾄ","kana_city":"ｸﾆﾀﾁｼ","kana_address":"ﾅｶ","pref":"東京都","city":"国立市","address":"中"},
{"zip_code":"1860005","kana_pref":"ﾄｳｷｮｳﾄ","kana_city":"ｸﾆﾀﾁｼ","kana_address":"ﾆｼ","pref":"東京都","city":"国立市","address":"西"},
{"zip_code":"1860002","kana_pref":"ﾄｳｷｮｳﾄ","kana_city":"ｸﾆﾀﾁｼ","kana_address":"ﾋｶﾞｼ","pref":"東京都","city":"国立市","address":"東"},
{"zip_code":"1860003","kana_pref":"ﾄｳｷｮｳﾄ","kana_city":"ｸﾆﾀﾁｼ","kana_address":"ﾌｼﾞﾐﾀﾞｲ","pref":"東京都","city":"国立市","address":"富士見台"},
{"zip_code":"1860015","kana_pref":"ﾄｳｷｮｳﾄ","kana_city":"ｸﾆﾀﾁｼ","kana_address":"ﾔｶﾞﾜ","pref":"東京都","city":"国立市","address":"矢川"},
{"zip_code":"1860011","kana_pref":"ﾄｳｷｮｳﾄ","kana_city":"ｸﾆﾀﾁｼ","kana_address":"ﾔﾎ","pref":"東京都","city":"国立市","address":"谷保"}]}