{"zip_code":[
{"zip_code":"1870000","kana_pref":"ﾄｳｷｮｳﾄ","kana_city":"ｺﾀﾞｲﾗｼ","kana_address":"","pref":"東京都","city":"小平市","address":""},
{"zip_code":"1870001","kana_pref":"ﾄｳｷｮｳﾄ","kana_city":"ｺﾀﾞｲﾗｼ","kana_address":"ｵｵﾇﾏﾁｮｳ","pref":"東京都","city":"小平市","address":"大沼町"},
{"zip_code":"1870031","kana_pref":"ﾄｳｷｮｳﾄ","kana_city":"ｺﾀﾞｲﾗｼ","kana_address":"ｵｶﾞﾜﾋｶﾞｼﾁｮｳ","pref":"東京都","city":"小平市","address":"小川東町"},
{"zip_code":"1870035","kana_pref":"ﾄｳｷｮｳﾄ","kana_city":"ｺﾀﾞｲﾗｼ","kana_address":"ｵｶﾞﾜﾆｼﾏﾁ","pref":"東京都","city":"小平市","address":"小川西町"},
{"zip_code":"1870032","kana_pref":"ﾄｳｷｮｳﾄ","kana_city":"ｺﾀﾞｲﾗｼ","kana_address":"ｵｶﾞﾜﾁｮｳ","pref":"東京都","city":"小平市","address":"小川町"},
{"zip_code":"1870043","kana_pref":"ﾄｳｷｮｳﾄ","kana_city":"ｺﾀﾞｲﾗｼ","kana_address":"ｶﾞｸｴﾝﾋｶﾞｼﾁｮｳ","pref":"東京都","city":"小平市","address":"学園東町"},
{"zip_code":"1870045","kana_pref":"ﾄｳｷｮｳﾄ","kana_city":"ｺﾀﾞｲﾗｼ","kana_address":"ｶﾞｸｴﾝﾆｼﾏﾁ","pref":"東京都","city":"小平市","address":"学園西町"},
{"zip_code":"1870044","kana_pref":"ﾄｳｷｮｳﾄ","kana_city":"ｺﾀﾞｲﾗｼ","kana_address":"ｷﾍｲﾁｮｳ","pref":"東京都","city":"小平市","address":"喜平町"},
{"zip_code":"1870034","kana_pref":"ﾄｳｷｮｳﾄ","kana_city":"ｺﾀﾞｲﾗｼ","kana_address":"ｻｶｴﾁｮｳ","pref":"東京都","city":"小平市","address":"栄町"},
{"zip_code":"1870023","kana_pref":"ﾄｳｷｮｳﾄ","kana_city":"ｺﾀﾞｲﾗｼ","kana_address":"ｼﾞｮｳｽｲｼﾝﾏﾁ","pref":"東京都","city":"小平市","address":"上水新町"},
{"zip_code":"1870022","kana_pref":"ﾄｳｷｮｳﾄ","kana_city":"ｺﾀﾞｲﾗｼ","kana_address":"ｼﾞｮｳｽｲﾎﾝﾁｮｳ","pref":"東京都","city":"小平市","address":"上水本町"},
{"zip_code":"1870021","kana_pref":"ﾄｳｷｮｳﾄ","kana_city":"ｺﾀﾞｲﾗｼ","kana_address":"ｼﾞｮｳｽｲﾐﾅﾐﾁｮｳ","pref":"東京都","city":"小平市","address":"上水南町"},
{"zip_code":"1870011","kana_pref":"ﾄｳｷｮｳﾄ","kana_city":"ｺﾀﾞｲﾗｼ","kana_address":"ｽｽﾞｷﾁｮｳ","pref":"東京都","city":"小平市","address":"鈴木町"},
{"zip_code":"1870024","kana_pref":"ﾄｳｷｮｳﾄ","kana_city":"ｺﾀﾞｲﾗｼ","kana_address":"ﾀｶﾉﾀﾞｲ","pref":"東京都","city":"小平市","address":"たかの台"},
{"zip_code":"1870025","kana_pref":"ﾄｳｷｮｳﾄ","kana_city":"ｺﾀﾞｲﾗｼ","kana_address":"ﾂﾀﾞﾏﾁ","pref":"東京都","city":"小平市","address":"津田町"},
{"zip_code":"1870004","kana_pref":"ﾄｳｷｮｳﾄ","kana_city":"ｺﾀﾞｲﾗｼ","kana_address":"ﾃﾝｼﾞﾝﾁｮｳ","pref":"東京都","city":"小平市","address":"天神町"},
{"zip_code":"1870033","kana_pref":"ﾄｳｷｮｳﾄ","kana_city":"ｺﾀﾞｲﾗｼ","kana_address":"ﾅｶｼﾞﾏﾁｮｳ","pref":"東京都","city":"小平市","address":"中島町"},
{"zip_code":"1870042","kana_pref":"ﾄｳｷｮｳﾄ","kana_city":"ｺﾀﾞｲﾗｼ","kana_address":"ﾅｶﾏﾁ","pref":"東京都","city":"小平市","address":"仲町"},
{"zip_code":"1870002","kana_pref":"ﾄｳｷｮｳﾄ","kana_city":"ｺﾀﾞｲﾗｼ","kana_address":"ﾊﾅｺｶﾞﾈｲ","pref":"東京都","city":"小平市","address":"花小金井"},
{"zip_code":"1870003","kana_pref":"ﾄｳｷｮｳﾄ","kana_city":"ｺﾀﾞｲﾗｼ","kana_address":"ﾊﾅｺｶﾞﾈｲﾐﾅﾐﾁｮｳ","pref":"東京都","city":"小平市","address":"花小金井南町"},
{"zip_code":"1870041","kana_pref":"ﾄｳｷｮｳﾄ","kana_city":"ｺﾀﾞｲﾗｼ","kana_address":"ﾐｿﾉﾁｮｳ","pref":"東京都","city":"小平市","address":"美園町"},
{"zip_code":"1870012","kana_pref":"ﾄｳｷｮｳﾄ","kana_city":"ｺﾀﾞｲﾗｼ","kana_address":"ﾐﾕｷﾁｮｳ","pref":"東京都","city":"小平市","address":"御幸町"},
{"zip_code":"1870013","kana_pref":"ﾄｳｷｮｳﾄ","kana_city":"ｺﾀﾞｲﾗｼ","kana_address":"ﾒｸﾞﾘﾀﾁｮｳ","pref":"東京都","city":"小平市","address":"回田町"}]}