{"zip_code":[
{"zip_code":"1880003","kana_pref":"ﾄｳｷｮｳﾄ","kana_city":"ﾆｼﾄｳｷｮｳｼ","kana_address":"ｷﾀﾊﾗﾁｮｳ","pref":"東京都","city":"西東京市","address":"北原町"},
{"zip_code":"1880014","kana_pref":"ﾄｳｷｮｳﾄ","kana_city":"ﾆｼﾄｳｷｮｳｼ","kana_address":"ｼﾊﾞｸﾎﾞﾁｮｳ","pref":"東京都","city":"西東京市","address":"芝久保町"},
{"zip_code":"1880011","kana_pref":"ﾄｳｷｮｳﾄ","kana_city":"ﾆｼﾄｳｷｮｳｼ","kana_address":"ﾀﾅｼﾁｮｳ","pref":"東京都","city":"西東京市","address":"田無町"},
{"zip_code":"1880004","kana_pref":"ﾄｳｷｮｳﾄ","kana_city":"ﾆｼﾄｳｷｮｳｼ","kana_address":"ﾆｼﾊﾗﾁｮｳ","pref":"東京都","city":"西東京市","address":"西原町"},
{"zip_code":"1880002","kana_pref":"ﾄｳｷｮｳﾄ","kana_city":"ﾆｼﾄｳｷｮｳｼ","kana_address":"ﾐﾄﾞﾘﾁｮｳ","pref":"東京都","city":"西東京市","address":"緑町"},
{"zip_code":"1880012","kana_pref":"ﾄｳｷｮｳﾄ","kana_city":"ﾆｼﾄｳｷｮｳｼ","kana_address":"ﾐﾅﾐﾁｮｳ","pref":"東京都","city":"西東京市","address":"南町"},
{"zip_code":"1880013","kana_pref":"ﾄｳｷｮｳﾄ","kana_city":"ﾆｼﾄｳｷｮｳｼ","kana_address":"ﾑｺｳﾀﾞｲﾁｮｳ","pref":"東京都","city":"西東京市","address":"向台町"},
{"zip_code":"1880001","kana_pref":"ﾄｳｷｮｳﾄ","kana_city":"ﾆｼﾄｳｷｮｳｼ","kana_address":"ﾔﾄﾁｮｳ","pref":"東京都","city":"西東京市","address":"谷戸町"}]}