{"zip_code":[
{"zip_code":"1890000","kana_pref":"ﾄｳｷｮｳﾄ","kana_city":"ﾋｶﾞｼﾑﾗﾔﾏｼ","kana_address":"","pref":"東京都","city":"東村山市","address":""},
{"zip_code":"1890002","kana_pref":"ﾄｳｷｮｳﾄ","kana_city":"ﾋｶﾞｼﾑﾗﾔﾏｼ","kana_address":"ｱｵﾊﾞﾁｮｳ","pref":"東京都","city":"東村山市","address":"青葉町"},
{"zip_code":"1890001","kana_pref":"ﾄｳｷｮｳﾄ","kana_city":"ﾋｶﾞｼﾑﾗﾔﾏｼ","kana_address":"ｱｷﾂﾁｮｳ","pref":"東京都","city":"東村山市","address":"秋津町"},
{"zip_code":"1890011","kana_pref":"ﾄｳｷｮｳﾄ","kana_city":"ﾋｶﾞｼﾑﾗﾔﾏｼ","kana_address":"ｵﾝﾀﾁｮｳ","pref":"東京都","city":"東村山市","address":"恩多町"},
{"zip_code":"1890003","kana_pref":"ﾄｳｷｮｳﾄ","kana_city":"ﾋｶﾞｼﾑﾗﾔﾏｼ","kana_address":"ｸﾒｶﾞﾜﾁｮｳ","pref":"東京都","city":"東村山市","address":"久米川町"},
{"zip_code":"1890013","kana_pref":"ﾄｳｷｮｳﾄ","kana_city":"ﾋｶﾞｼﾑﾗﾔﾏｼ","kana_address":"ｻｶｴﾁｮｳ","pref":"東京都","city":"東村山市","address":"栄町"},
{"zip_code":"1890021","kana_pref":"ﾄｳｷｮｳﾄ","kana_city":"ﾋｶﾞｼﾑﾗﾔﾏｼ","kana_address":"ｽﾜﾁｮｳ","pref":"東京都","city":"東村山市","address":"諏訪町"},
{"zip_code":"1890026","kana_pref":"ﾄｳｷｮｳﾄ","kana_city":"ﾋｶﾞｼﾑﾗﾔﾏｼ","kana_address":"ﾀﾏｺﾁｮｳ","pref":"東京都","city":"東村山市","address":"多摩湖町"},
{"zip_code":"1890022","kana_pref":"ﾄｳｷｮｳﾄ","kana_city":"ﾋｶﾞｼﾑﾗﾔﾏｼ","kana_address":"ﾉｸﾞﾁﾁｮｳ","pref":"東京都","city":"東村山市","address":"野口町"},
{"zip_code":"1890012","kana_pref":"ﾄｳｷｮｳﾄ","kana_city":"ﾋｶﾞｼﾑﾗﾔﾏｼ","kana_address":"ﾊｷﾞﾔﾏﾁｮｳ","pref":"東京都","city":"東村山市","address":"萩山町"},
{"zip_code":"1890024","kana_pref":"ﾄｳｷｮｳﾄ","kana_city":"ﾋｶﾞｼﾑﾗﾔﾏｼ","kana_address":"ﾌｼﾞﾐﾁｮｳ","pref":"東京都","city":"東村山市","address":"富士見町"},
{"zip_code":"1890014","kana_pref":"ﾄｳｷｮｳﾄ","kana_city":"ﾋｶﾞｼﾑﾗﾔﾏｼ","kana_address":"ﾎﾝﾁｮｳ","pref":"東京都","city":"東村山市","address":"本町"},
{"zip_code":"1890023","kana_pref":"ﾄｳｷｮｳﾄ","kana_city":"ﾋｶﾞｼﾑﾗﾔﾏｼ","kana_address":"ﾐｽﾐﾁｮｳ","pref":"東京都","city":"東村山市","address":"美住町"},
{"zip_code":"1890025","kana_pref":"ﾄｳｷｮｳﾄ","kana_city":"ﾋｶﾞｼﾑﾗﾔﾏｼ","kana_address":"ﾒｸﾞﾘﾀﾁｮｳ","pref":"東京都","city":"東村山市","address":"廻田町"}]}