{"zip_code":[
{"zip_code":"1900000","kana_pref":"ﾄｳｷｮｳﾄ","kana_city":"ﾀﾁｶﾜｼ","kana_address":"","pref":"東京都","city":"立川市","address":""},
{"zip_code":"1900012","kana_pref":"ﾄｳｷｮｳﾄ","kana_city":"ﾀﾁｶﾜｼ","kana_address":"ｱｹﾎﾞﾉﾁｮｳ","pref":"東京都","city":"立川市","address":"曙町"},
{"zip_code":"1900015","kana_pref":"ﾄｳｷｮｳﾄ","kana_city":"ﾀﾁｶﾜｼ","kana_address":"ｲｽﾞﾐﾁｮｳ","pref":"東京都","city":"立川市","address":"泉町"},
{"zip_code":"1900033","kana_pref":"ﾄｳｷｮｳﾄ","kana_city":"ﾀﾁｶﾜｼ","kana_address":"ｲﾁﾊﾞﾝﾁｮｳ","pref":"東京都","city":"立川市","address":"一番町"},
{"zip_code":"1900004","kana_pref":"ﾄｳｷｮｳﾄ","kana_city":"ﾀﾁｶﾜｼ","kana_address":"ｶｼﾜﾁｮｳ","pref":"東京都","city":"立川市","address":"柏町"},
{"zip_code":"1900032","kana_pref":"ﾄｳｷｮｳﾄ","kana_city":"ﾀﾁｶﾜｼ","kana_address":"ｶﾐｽﾅﾁｮｳ","pref":"東京都","city":"立川市","address":"上砂町"},
{"zip_code":"1900002","kana_pref":"ﾄｳｷｮｳﾄ","kana_city":"ﾀﾁｶﾜｼ","kana_address":"ｻｲﾜｲﾁｮｳ","pref":"東京都","city":"立川市","address":"幸町"},
{"zip_code":"1900003","kana_pref":"ﾄｳｷｮｳﾄ","kana_city":"ﾀﾁｶﾜｼ","kana_address":"ｻｶｴﾁｮｳ","pref":"東京都","city":"立川市","address":"栄町"},
{"zip_code":"1900023","kana_pref":"ﾄｳｷｮｳﾄ","kana_city":"ﾀﾁｶﾜｼ","kana_address":"ｼﾊﾞｻｷﾁｮｳ","pref":"東京都","city":"立川市","address":"柴崎町"},
{"zip_code":"1900031","kana_pref":"ﾄｳｷｮｳﾄ","kana_city":"ﾀﾁｶﾜｼ","kana_address":"ｽﾅｶﾞﾜﾁｮｳ","pref":"東京都","city":"立川市","address":"砂川町"},
{"zip_code":"1900011","kana_pref":"ﾄｳｷｮｳﾄ","kana_city":"ﾀﾁｶﾜｼ","kana_address":"ﾀｶﾏﾂﾁｮｳ","pref":"東京都","city":"立川市","address":"高松町"},
{"zip_code":"1900022","kana_pref":"ﾄｳｷｮｳﾄ","kana_city":"ﾀﾁｶﾜｼ","kana_address":"ﾆｼｷﾁｮｳ","pref":"東京都","city":"立川市","address":"錦町"},
{"zip_code":"1900034","kana_pref":"ﾄｳｷｮｳﾄ","kana_city":"ﾀﾁｶﾜｼ","kana_address":"ﾆｼｽﾅﾁｮｳ","pref":"東京都","city":"立川市","address":"西砂町"},
{"zip_code":"1900021","kana_pref":"ﾄｳｷｮｳﾄ","kana_city":"ﾀﾁｶﾜｼ","kana_address":"ﾊｺﾞﾛﾓﾁｮｳ","pref":"東京都","city":"立川市","address":"羽衣町"},
{"zip_code":"1900013","kana_pref":"ﾄｳｷｮｳﾄ","kana_city":"ﾀﾁｶﾜｼ","kana_address":"ﾌｼﾞﾐﾁｮｳ","pref":"東京都","city":"立川市","address":"富士見町"},
{"zip_code":"1900014","kana_pref":"ﾄｳｷｮｳﾄ","kana_city":"ﾀﾁｶﾜｼ","kana_address":"ﾐﾄﾞﾘﾁｮｳ","pref":"東京都","city":"立川市","address":"緑町"},
{"zip_code":"1900001","kana_pref":"ﾄｳｷｮｳﾄ","kana_city":"ﾀﾁｶﾜｼ","kana_address":"ﾜｶﾊﾞﾁｮｳ","pref":"東京都","city":"立川市","address":"若葉町"},
{"zip_code":"1900100","kana_pref":"ﾄｳｷｮｳﾄ","kana_city":"ｱｷﾙﾉｼ","kana_address":"","pref":"東京都","city":"あきる野市","address":""},
{"zip_code":"1900155","kana_pref":"ﾄｳｷｮｳﾄ","kana_city":"ｱｷﾙﾉｼ","kana_address":"ｱｼﾞﾛ","pref":"東京都","city":"あきる野市","address":"網代"},
{"zip_code":"1900164","kana_pref":"ﾄｳｷｮｳﾄ","kana_city":"ｱｷﾙﾉｼ","kana_address":"ｲﾂｶｲﾁ","pref":"東京都","city":"あきる野市","address":"五日市"},
{"zip_code":"1900142","kana_pref":"ﾄｳｷｮｳﾄ","kana_city":"ｱｷﾙﾉｼ","kana_address":"ｲﾅ","pref":"東京都","city":"あきる野市","address":"伊奈"},
{"zip_code":"1900161","kana_pref":"ﾄｳｷｮｳﾄ","kana_city":"ｱｷﾙﾉｼ","kana_address":"ｲﾘﾉ","pref":"東京都","city":"あきる野市","address":"入野"},
{"zip_code":"1900143","kana_pref":"ﾄｳｷｮｳﾄ","kana_city":"ｱｷﾙﾉｼ","kana_address":"ｳｴﾉﾀﾞｲ","pref":"東京都","city":"あきる野市","address":"上ノ台"},
{"zip_code":"1900174","kana_pref":"ﾄｳｷｮｳﾄ","kana_city":"ｱｷﾙﾉｼ","kana_address":"ｵﾂ","pref":"東京都","city":"あきる野市","address":"乙津"},
{"zip_code":"1900165","kana_pref":"ﾄｳｷｮｳﾄ","kana_city":"ｱｷﾙﾉｼ","kana_address":"ｺﾅｶﾉ","pref":"東京都","city":"あきる野市","address":"小中野"},
{"zip_code":"1900153","kana_pref":"ﾄｳｷｮｳﾄ","kana_city":"ｱｷﾙﾉｼ","kana_address":"ｺﾐﾈﾀﾞｲ","pref":"東京都","city":"あきる野市","address":"小峰台"},
{"zip_code":"1900151","kana_pref":"ﾄｳｷｮｳﾄ","kana_city":"ｱｷﾙﾉｼ","kana_address":"ｺﾜﾀﾞ","pref":"東京都","city":"あきる野市","address":"小和田"},
{"zip_code":"1900162","kana_pref":"ﾄｳｷｮｳﾄ","kana_city":"ｱｷﾙﾉｼ","kana_address":"ｻﾝﾅｲ","pref":"東京都","city":"あきる野市","address":"三内"},
{"zip_code":"1900154","kana_pref":"ﾄｳｷｮｳﾄ","kana_city":"ｱｷﾙﾉｼ","kana_address":"ﾀｶｵ","pref":"東京都","city":"あきる野市","address":"高尾"},
{"zip_code":"1900163","kana_pref":"ﾄｳｷｮｳﾄ","kana_city":"ｱｷﾙﾉｼ","kana_address":"ﾀﾃﾔ","pref":"東京都","city":"あきる野市","address":"舘谷"},
{"zip_code":"1900166","kana_pref":"ﾄｳｷｮｳﾄ","kana_city":"ｱｷﾙﾉｼ","kana_address":"ﾀﾃﾔﾀﾞｲ","pref":"東京都","city":"あきる野市","address":"舘谷台"},
{"zip_code":"1900173","kana_pref":"ﾄｳｷｮｳﾄ","kana_city":"ｱｷﾙﾉｼ","kana_address":"ﾄｸﾗ","pref":"東京都","city":"あきる野市","address":"戸倉"},
{"zip_code":"1900152","kana_pref":"ﾄｳｷｮｳﾄ","kana_city":"ｱｷﾙﾉｼ","kana_address":"ﾄﾄﾊﾗ","pref":"東京都","city":"あきる野市","address":"留原"},
{"zip_code":"1900172","kana_pref":"ﾄｳｷｮｳﾄ","kana_city":"ｱｷﾙﾉｼ","kana_address":"ﾌｶｻﾜ","pref":"東京都","city":"あきる野市","address":"深沢"},
{"zip_code":"1900144","kana_pref":"ﾄｳｷｮｳﾄ","kana_city":"ｱｷﾙﾉｼ","kana_address":"ﾔﾏﾀﾞ","pref":"東京都","city":"あきる野市","address":"山田"},
{"zip_code":"1900171","kana_pref":"ﾄｳｷｮｳﾄ","kana_city":"ｱｷﾙﾉｼ","kana_address":"ﾖｳｻﾞﾜ","pref":"東京都","city":"あきる野市","address":"養沢"},
{"zip_code":"1900141","kana_pref":"ﾄｳｷｮｳﾄ","kana_city":"ｱｷﾙﾉｼ","kana_address":"ﾖｺｻﾜ","pref":"東京都","city":"あきる野市","address":"横沢"},
{"zip_code":"1901200","kana_pref":"ﾄｳｷｮｳﾄ","kana_city":"ﾆｼﾀﾏｸﾞﾝﾐｽﾞﾎﾏﾁ","kana_address":"","pref":"東京都","city":"西多摩郡瑞穂町","address":""},
{"zip_code":"1901211","kana_pref":"ﾄｳｷｮｳﾄ","kana_city":"ﾆｼﾀﾏｸﾞﾝﾐｽﾞﾎﾏﾁ","kana_address":"ｲｼﾊﾀ","pref":"東京都","city":"西多摩郡瑞穂町","address":"石畑"},
{"zip_code":"1901202","kana_pref":"ﾄｳｷｮｳﾄ","kana_city":"ﾆｼﾀﾏｸﾞﾝﾐｽﾞﾎﾏﾁ","kana_address":"ｺﾏｶﾞﾀﾌｼﾞﾔﾏ","pref":"東京都","city":"西多摩郡瑞穂町","address":"駒形富士山"},
{"zip_code":"1901203","kana_pref":"ﾄｳｷｮｳﾄ","kana_city":"ﾆｼﾀﾏｸﾞﾝﾐｽﾞﾎﾏﾁ","kana_address":"ﾀｶﾈ","pref":"東京都","city":"西多摩郡瑞穂町","address":"高根"},
{"zip_code":"1901212","kana_pref":"ﾄｳｷｮｳﾄ","kana_city":"ﾆｼﾀﾏｸﾞﾝﾐｽﾞﾎﾏﾁ","kana_address":"ﾄﾉｶﾞﾔ","pref":"東京都","city":"西多摩郡瑞穂町","address":"殿ケ谷"},
{"zip_code":"1901232","kana_pref":"ﾄｳｷｮｳﾄ","kana_city":"ﾆｼﾀﾏｸﾞﾝﾐｽﾞﾎﾏﾁ","kana_address":"ﾅｶﾞｵｶ","pref":"東京都","city":"西多摩郡瑞穂町","address":"長岡"},
{"zip_code":"1901233","kana_pref":"ﾄｳｷｮｳﾄ","kana_city":"ﾆｼﾀﾏｸﾞﾝﾐｽﾞﾎﾏﾁ","kana_address":"ﾅｶﾞｵｶｼﾓﾓﾛｵｶ","pref":"東京都","city":"西多摩郡瑞穂町","address":"長岡下師岡"},
{"zip_code":"1901231","kana_pref":"ﾄｳｷｮｳﾄ","kana_city":"ﾆｼﾀﾏｸﾞﾝﾐｽﾞﾎﾏﾁ","kana_address":"ﾅｶﾞｵｶﾊｾﾍﾞ","pref":"東京都","city":"西多摩郡瑞穂町","address":"長岡長谷部"},
{"zip_code":"1901234","kana_pref":"ﾄｳｷｮｳﾄ","kana_city":"ﾆｼﾀﾏｸﾞﾝﾐｽﾞﾎﾏﾁ","kana_address":"ﾅｶﾞｵｶﾌｼﾞﾊｼ","pref":"東京都","city":"西多摩郡瑞穂町","address":"長岡藤橋"},
{"zip_code":"1901201","kana_pref":"ﾄｳｷｮｳﾄ","kana_city":"ﾆｼﾀﾏｸﾞﾝﾐｽﾞﾎﾏﾁ","kana_address":"ﾆﾎﾝｷﾞ","pref":"東京都","city":"西多摩郡瑞穂町","address":"二本木"},
{"zip_code":"1901221","kana_pref":"ﾄｳｷｮｳﾄ","kana_city":"ﾆｼﾀﾏｸﾞﾝﾐｽﾞﾎﾏﾁ","kana_address":"ﾊｺﾈｶﾞｻｷ","pref":"東京都","city":"西多摩郡瑞穂町","address":"箱根ケ崎"},
{"zip_code":"1901222","kana_pref":"ﾄｳｷｮｳﾄ","kana_city":"ﾆｼﾀﾏｸﾞﾝﾐｽﾞﾎﾏﾁ","kana_address":"ﾊｺﾈｶﾞｻｷﾋｶﾞｼﾏﾂﾊﾞﾗ","pref":"東京都","city":"西多摩郡瑞穂町","address":"箱根ケ崎東松原"},
{"zip_code":"1901223","kana_pref":"ﾄｳｷｮｳﾄ","kana_city":"ﾆｼﾀﾏｸﾞﾝﾐｽﾞﾎﾏﾁ","kana_address":"ﾊｺﾈｶﾞｻｷﾆｼﾏﾂﾊﾞﾗ","pref":"東京都","city":"西多摩郡瑞穂町","address":"箱根ケ崎西松原"},
{"zip_code":"1901204","kana_pref":"ﾄｳｷｮｳﾄ","kana_city":"ﾆｼﾀﾏｸﾞﾝﾐｽﾞﾎﾏﾁ","kana_address":"ﾌｼﾞﾔﾏｸﾘﾊﾗｼﾝﾃﾞﾝ","pref":"東京都","city":"西多摩郡瑞穂町","address":"富士山栗原新田"},
{"zip_code":"1901224","kana_pref":"ﾄｳｷｮｳﾄ","kana_city":"ﾆｼﾀﾏｸﾞﾝﾐｽﾞﾎﾏﾁ","kana_address":"ﾐﾅﾐﾀﾞｲﾗ","pref":"東京都","city":"西多摩郡瑞穂町","address":"南平"},
{"zip_code":"1901213","kana_pref":"ﾄｳｷｮｳﾄ","kana_city":"ﾆｼﾀﾏｸﾞﾝﾐｽﾞﾎﾏﾁ","kana_address":"ﾑｻｼ","pref":"東京都","city":"西多摩郡瑞穂町","address":"武蔵"},
{"zip_code":"1901214","kana_pref":"ﾄｳｷｮｳﾄ","kana_city":"ﾆｼﾀﾏｸﾞﾝﾐｽﾞﾎﾏﾁ","kana_address":"ﾑｻｼﾉ","pref":"東京都","city":"西多摩郡瑞穂町","address":"むさし野"},
{"zip_code":"1900100","kana_pref":"ﾄｳｷｮｳﾄ","kana_city":"ﾆｼﾀﾏｸﾞﾝﾋﾉﾃﾞﾏﾁ","kana_address":"","pref":"東京都","city":"西多摩郡日の出町","address":""},
{"zip_code":"1900181","kana_pref":"ﾄｳｷｮｳﾄ","kana_city":"ﾆｼﾀﾏｸﾞﾝﾋﾉﾃﾞﾏﾁ","kana_address":"ｵｵｸﾞﾉ","pref":"東京都","city":"西多摩郡日の出町","address":"大久野"},
{"zip_code":"1900182","kana_pref":"ﾄｳｷｮｳﾄ","kana_city":"ﾆｼﾀﾏｸﾞﾝﾋﾉﾃﾞﾏﾁ","kana_address":"ﾋﾗｲ","pref":"東京都","city":"西多摩郡日の出町","address":"平井"},
{"zip_code":"1900200","kana_pref":"ﾄｳｷｮｳﾄ","kana_city":"ﾆｼﾀﾏｸﾞﾝﾋﾉﾊﾗﾑﾗ","kana_address":"","pref":"東京都","city":"西多摩郡檜原村","address":""},
{"zip_code":"1900204","kana_pref":"ﾄｳｷｮｳﾄ","kana_city":"ﾆｼﾀﾏｸﾞﾝﾋﾉﾊﾗﾑﾗ","kana_address":"ｵｻﾞﾜ","pref":"東京都","city":"西多摩郡檜原村","address":"小沢"},
{"zip_code":"1900221","kana_pref":"ﾄｳｷｮｳﾄ","kana_city":"ﾆｼﾀﾏｸﾞﾝﾋﾉﾊﾗﾑﾗ","kana_address":"ｶｽﾞﾏ","pref":"東京都","city":"西多摩郡檜原村","address":"数馬"},
{"zip_code":"1900203","kana_pref":"ﾄｳｷｮｳﾄ","kana_city":"ﾆｼﾀﾏｸﾞﾝﾋﾉﾊﾗﾑﾗ","kana_address":"ｶﾉﾄ","pref":"東京都","city":"西多摩郡檜原村","address":"神戸"},
{"zip_code":"1900212","kana_pref":"ﾄｳｷｮｳﾄ","kana_city":"ﾆｼﾀﾏｸﾞﾝﾋﾉﾊﾗﾑﾗ","kana_address":"ｶﾐﾓﾄｺﾞｳ","pref":"東京都","city":"西多摩郡檜原村","address":"上元郷"},
{"zip_code":"1900201","kana_pref":"ﾄｳｷｮｳﾄ","kana_city":"ﾆｼﾀﾏｸﾞﾝﾋﾉﾊﾗﾑﾗ","kana_address":"ｸﾗｶｹ","pref":"東京都","city":"西多摩郡檜原村","address":"倉掛"},
{"zip_code":"1900213","kana_pref":"ﾄｳｷｮｳﾄ","kana_city":"ﾆｼﾀﾏｸﾞﾝﾋﾉﾊﾗﾑﾗ","kana_address":"ｼﾓﾓﾄｺﾞｳ","pref":"東京都","city":"西多摩郡檜原村","address":"下元郷"},
{"zip_code":"1900223","kana_pref":"ﾄｳｷｮｳﾄ","kana_city":"ﾆｼﾀﾏｸﾞﾝﾋﾉﾊﾗﾑﾗ","kana_address":"ﾅﾝｺﾞｳ","pref":"東京都","city":"西多摩郡檜原村","address":"南郷"},
{"zip_code":"1900205","kana_pref":"ﾄｳｷｮｳﾄ","kana_city":"ﾆｼﾀﾏｸﾞﾝﾋﾉﾊﾗﾑﾗ","kana_address":"ﾋｻﾞﾄ","pref":"東京都","city":"西多摩郡檜原村","address":"樋里"},
{"zip_code":"1900202","kana_pref":"ﾄｳｷｮｳﾄ","kana_city":"ﾆｼﾀﾏｸﾞﾝﾋﾉﾊﾗﾑﾗ","kana_address":"ﾌｼﾞﾜﾗ","pref":"東京都","city":"西多摩郡檜原村","address":"藤原"},
{"zip_code":"1900222","kana_pref":"ﾄｳｷｮｳﾄ","kana_city":"ﾆｼﾀﾏｸﾞﾝﾋﾉﾊﾗﾑﾗ","kana_address":"ﾍﾝﾎﾞﾘ","pref":"東京都","city":"西多摩郡檜原村","address":"人里"},
{"zip_code":"1900211","kana_pref":"ﾄｳｷｮｳﾄ","kana_city":"ﾆｼﾀﾏｸﾞﾝﾋﾉﾊﾗﾑﾗ","kana_address":"ﾐﾂｺﾞ","pref":"東京都","city":"西多摩郡檜原村","address":"三都郷"},
{"zip_code":"1900214","kana_pref":"ﾄｳｷｮｳﾄ","kana_city":"ﾆｼﾀﾏｸﾞﾝﾋﾉﾊﾗﾑﾗ","kana_address":"ﾓﾄｼｭｸ","pref":"東京都","city":"西多摩郡檜原村","address":"本宿"}]}