{"zip_code":[
{"zip_code":"1910000","kana_pref":"ﾄｳｷｮｳﾄ","kana_city":"ﾋﾉｼ","kana_address":"","pref":"東京都","city":"日野市","address":""},
{"zip_code":"1910065","kana_pref":"ﾄｳｷｮｳﾄ","kana_city":"ﾋﾉｼ","kana_address":"ｱｻﾋｶﾞｵｶ","pref":"東京都","city":"日野市","address":"旭が丘"},
{"zip_code":"1910022","kana_pref":"ﾄｳｷｮｳﾄ","kana_city":"ﾋﾉｼ","kana_address":"ｱﾗｲ","pref":"東京都","city":"日野市","address":"新井"},
{"zip_code":"1910021","kana_pref":"ﾄｳｷｮｳﾄ","kana_city":"ﾋﾉｼ","kana_address":"ｲｼﾀﾞ","pref":"東京都","city":"日野市","address":"石田"},
{"zip_code":"1910061","kana_pref":"ﾄｳｷｮｳﾄ","kana_city":"ﾋﾉｼ","kana_address":"ｵｵｻｶｳｴ","pref":"東京都","city":"日野市","address":"大坂上"},
{"zip_code":"1910034","kana_pref":"ﾄｳｷｮｳﾄ","kana_city":"ﾋﾉｼ","kana_address":"ｵﾁｶﾜ","pref":"東京都","city":"日野市","address":"落川"},
{"zip_code":"1910014","kana_pref":"ﾄｳｷｮｳﾄ","kana_city":"ﾋﾉｼ","kana_address":"ｶﾐﾀﾞ","pref":"東京都","city":"日野市","address":"上田"},
{"zip_code":"1910015","kana_pref":"ﾄｳｷｮｳﾄ","kana_city":"ﾋﾉｼ","kana_address":"ｶﾜﾍﾞﾎﾘﾉｳﾁ","pref":"東京都","city":"日野市","address":"川辺堀之内"},
{"zip_code":"1910001","kana_pref":"ﾄｳｷｮｳﾄ","kana_city":"ﾋﾉｼ","kana_address":"ｻｶｴﾏﾁ","pref":"東京都","city":"日野市","address":"栄町"},
{"zip_code":"1910063","kana_pref":"ﾄｳｷｮｳﾄ","kana_city":"ﾋﾉｼ","kana_address":"ｻｸﾗﾏﾁ","pref":"東京都","city":"日野市","address":"さくら町"},
{"zip_code":"1910023","kana_pref":"ﾄｳｷｮｳﾄ","kana_city":"ﾋﾉｼ","kana_address":"ｼﾓﾀﾞ","pref":"東京都","city":"日野市","address":"下田"},
{"zip_code":"1910002","kana_pref":"ﾄｳｷｮｳﾄ","kana_city":"ﾋﾉｼ","kana_address":"ｼﾝﾏﾁ","pref":"東京都","city":"日野市","address":"新町"},
{"zip_code":"1910016","kana_pref":"ﾄｳｷｮｳﾄ","kana_city":"ﾋﾉｼ","kana_address":"ｼﾝﾒｲ","pref":"東京都","city":"日野市","address":"神明"},
{"zip_code":"1910031","kana_pref":"ﾄｳｷｮｳﾄ","kana_city":"ﾋﾉｼ","kana_address":"ﾀｶﾊﾀ","pref":"東京都","city":"日野市","address":"高幡"},
{"zip_code":"1910062","kana_pref":"ﾄｳｷｮｳﾄ","kana_city":"ﾋﾉｼ","kana_address":"ﾀﾏﾀﾞｲﾗ","pref":"東京都","city":"日野市","address":"多摩平"},
{"zip_code":"1910051","kana_pref":"ﾄｳｷｮｳﾄ","kana_city":"ﾋﾉｼ","kana_address":"ﾄﾖﾀﾞ","pref":"東京都","city":"日野市","address":"豊田"},
{"zip_code":"1910053","kana_pref":"ﾄｳｷｮｳﾄ","kana_city":"ﾋﾉｼ","kana_address":"ﾄﾖﾀﾞ","pref":"東京都","city":"日野市","address":"豊田"},
{"zip_code":"1910055","kana_pref":"ﾄｳｷｮｳﾄ","kana_city":"ﾋﾉｼ","kana_address":"ﾆｼﾋﾗﾔﾏ","pref":"東京都","city":"日野市","address":"西平山"},
{"zip_code":"1910052","kana_pref":"ﾄｳｷｮｳﾄ","kana_city":"ﾋﾉｼ","kana_address":"ﾋｶﾞｼﾄﾖﾀﾞ","pref":"東京都","city":"日野市","address":"東豊田"},
{"zip_code":"1910054","kana_pref":"ﾄｳｷｮｳﾄ","kana_city":"ﾋﾉｼ","kana_address":"ﾋｶﾞｼﾋﾗﾔﾏ","pref":"東京都","city":"日野市","address":"東平山"},
{"zip_code":"1910012","kana_pref":"ﾄｳｷｮｳﾄ","kana_city":"ﾋﾉｼ","kana_address":"ﾋﾉ","pref":"東京都","city":"日野市","address":"日野"},
{"zip_code":"1910003","kana_pref":"ﾄｳｷｮｳﾄ","kana_city":"ﾋﾉｼ","kana_address":"ﾋﾉﾀﾞｲ","pref":"東京都","city":"日野市","address":"日野台"},
{"zip_code":"1910011","kana_pref":"ﾄｳｷｮｳﾄ","kana_city":"ﾋﾉｼ","kana_address":"ﾋﾉﾎﾝﾏﾁ","pref":"東京都","city":"日野市","address":"日野本町"},
{"zip_code":"1910043","kana_pref":"ﾄｳｷｮｳﾄ","kana_city":"ﾋﾉｼ","kana_address":"ﾋﾗﾔﾏ","pref":"東京都","city":"日野市","address":"平山"},
{"zip_code":"1910064","kana_pref":"ﾄｳｷｮｳﾄ","kana_city":"ﾋﾉｼ","kana_address":"ﾌｼﾞﾏﾁ","pref":"東京都","city":"日野市","address":"富士町"},
{"zip_code":"1910042","kana_pref":"ﾄｳｷｮｳﾄ","kana_city":"ﾋﾉｼ","kana_address":"ﾎﾄﾞｸﾎﾞ","pref":"東京都","city":"日野市","address":"程久保"},
{"zip_code":"1910024","kana_pref":"ﾄｳｷｮｳﾄ","kana_city":"ﾋﾉｼ","kana_address":"ﾏﾝｶﾞﾝｼﾞ","pref":"東京都","city":"日野市","address":"万願寺"},
{"zip_code":"1910032","kana_pref":"ﾄｳｷｮｳﾄ","kana_city":"ﾋﾉｼ","kana_address":"ﾐｻﾜ","pref":"東京都","city":"日野市","address":"三沢"},
{"zip_code":"1910041","kana_pref":"ﾄｳｷｮｳﾄ","kana_city":"ﾋﾉｼ","kana_address":"ﾐﾅﾐﾀﾞｲﾗ","pref":"東京都","city":"日野市","address":"南平"},
{"zip_code":"1910013","kana_pref":"ﾄｳｷｮｳﾄ","kana_city":"ﾋﾉｼ","kana_address":"ﾐﾔ","pref":"東京都","city":"日野市","address":"宮"},
{"zip_code":"1910033","kana_pref":"ﾄｳｷｮｳﾄ","kana_city":"ﾋﾉｼ","kana_address":"ﾓｸﾞｻ","pref":"東京都","city":"日野市","address":"百草"}]}