{"zip_code":[
{"zip_code":"1930814","kana_pref":"ﾄｳｷｮｳﾄ","kana_city":"ﾊﾁｵｳｼﾞｼ","kana_address":"ｲｽﾞﾐﾁｮｳ","pref":"東京都","city":"八王子市","address":"泉町"},
{"zip_code":"1930802","kana_pref":"ﾄｳｷｮｳﾄ","kana_city":"ﾊﾁｵｳｼﾞｼ","kana_address":"ｲﾇﾒﾏﾁ","pref":"東京都","city":"八王子市","address":"犬目町"},
{"zip_code":"1930841","kana_pref":"ﾄｳｷｮｳﾄ","kana_city":"ﾊﾁｵｳｼﾞｼ","kana_address":"ｳﾗﾀｶｵﾏﾁ","pref":"東京都","city":"八王子市","address":"裏高尾町"},
{"zip_code":"1930935","kana_pref":"ﾄｳｷｮｳﾄ","kana_city":"ﾊﾁｵｳｼﾞｼ","kana_address":"ｵｵﾌﾈﾏﾁ","pref":"東京都","city":"八王子市","address":"大船町"},
{"zip_code":"1930815","kana_pref":"ﾄｳｷｮｳﾄ","kana_city":"ﾊﾁｵｳｼﾞｼ","kana_address":"ｶﾉｳﾔﾏﾁ","pref":"東京都","city":"八王子市","address":"叶谷町"},
{"zip_code":"1930811","kana_pref":"ﾄｳｷｮｳﾄ","kana_city":"ﾊﾁｵｳｼﾞｼ","kana_address":"ｶﾐｲﾁﾌﾞｶﾀﾏﾁ","pref":"東京都","city":"八王子市","address":"上壱分方町"},
{"zip_code":"1930801","kana_pref":"ﾄｳｷｮｳﾄ","kana_city":"ﾊﾁｵｳｼﾞｼ","kana_address":"ｶﾜｸﾞﾁﾏﾁ","pref":"東京都","city":"八王子市","address":"川口町"},
{"zip_code":"1930821","kana_pref":"ﾄｳｷｮｳﾄ","kana_city":"ﾊﾁｵｳｼﾞｼ","kana_address":"ｶﾜﾏﾁ","pref":"東京都","city":"八王子市","address":"川町"},
{"zip_code":"1930804","kana_pref":"ﾄｳｷｮｳﾄ","kana_city":"ﾊﾁｵｳｼﾞｼ","kana_address":"ｷﾖｶﾜﾁｮｳ","pref":"東京都","city":"八王子市","address":"清川町"},
{"zip_code":"1930942","kana_pref":"ﾄｳｷｮｳﾄ","kana_city":"ﾊﾁｵｳｼﾞｼ","kana_address":"ｸﾇｷﾞﾀﾞﾏﾁ","pref":"東京都","city":"八王子市","address":"椚田町"},
{"zip_code":"1930934","kana_pref":"ﾄｳｷｮｳﾄ","kana_city":"ﾊﾁｵｳｼﾞｼ","kana_address":"ｺﾋﾞｷﾏﾁ","pref":"東京都","city":"八王子市","address":"小比企町"},
{"zip_code":"1930832","kana_pref":"ﾄｳｷｮｳﾄ","kana_city":"ﾊﾁｵｳｼﾞｼ","kana_address":"ｻﾝﾀﾞﾏﾁ","pref":"東京都","city":"八王子市","address":"散田町"},
{"zip_code":"1930825","kana_pref":"ﾄｳｷｮｳﾄ","kana_city":"ﾊﾁｵｳｼﾞｼ","kana_address":"ｼﾛﾔﾏﾃ","pref":"東京都","city":"八王子市","address":"城山手"},
{"zip_code":"1930812","kana_pref":"ﾄｳｷｮｳﾄ","kana_city":"ﾊﾁｵｳｼﾞｼ","kana_address":"ｽﾜﾏﾁ","pref":"東京都","city":"八王子市","address":"諏訪町"},
{"zip_code":"1930835","kana_pref":"ﾄｳｷｮｳﾄ","kana_city":"ﾊﾁｵｳｼﾞｼ","kana_address":"ｾﾝﾆﾝﾁｮｳ","pref":"東京都","city":"八王子市","address":"千人町"},
{"zip_code":"1930931","kana_pref":"ﾄｳｷｮｳﾄ","kana_city":"ﾊﾁｵｳｼﾞｼ","kana_address":"ﾀﾞｲﾏﾁ","pref":"東京都","city":"八王子市","address":"台町"},
{"zip_code":"1930816","kana_pref":"ﾄｳｷｮｳﾄ","kana_city":"ﾊﾁｵｳｼﾞｼ","kana_address":"ﾀﾞｲﾗｸｼﾞﾏﾁ","pref":"東京都","city":"八王子市","address":"大楽寺町"},
{"zip_code":"1930844","kana_pref":"ﾄｳｷｮｳﾄ","kana_city":"ﾊﾁｵｳｼﾞｼ","kana_address":"ﾀｶｵﾏﾁ","pref":"東京都","city":"八王子市","address":"高尾町"},
{"zip_code":"1930944","kana_pref":"ﾄｳｷｮｳﾄ","kana_city":"ﾊﾁｵｳｼﾞｼ","kana_address":"ﾀﾃﾏﾁ","pref":"東京都","city":"八王子市","address":"館町"},
{"zip_code":"1930943","kana_pref":"ﾄｳｷｮｳﾄ","kana_city":"ﾊﾁｵｳｼﾞｼ","kana_address":"ﾃﾗﾀﾞﾏﾁ","pref":"東京都","city":"八王子市","address":"寺田町"},
{"zip_code":"1930843","kana_pref":"ﾄｳｷｮｳﾄ","kana_city":"ﾊﾁｵｳｼﾞｼ","kana_address":"ﾄﾄﾞﾘﾏﾁ","pref":"東京都","city":"八王子市","address":"廿里町"},
{"zip_code":"1930824","kana_pref":"ﾄｳｷｮｳﾄ","kana_city":"ﾊﾁｵｳｼﾞｼ","kana_address":"ﾅｶﾞﾌﾞｻﾏﾁ","pref":"東京都","city":"八王子市","address":"長房町"},
{"zip_code":"1930831","kana_pref":"ﾄｳｷｮｳﾄ","kana_city":"ﾊﾁｵｳｼﾞｼ","kana_address":"ﾅﾐｷﾁｮｳ","pref":"東京都","city":"八王子市","address":"並木町"},
{"zip_code":"1930803","kana_pref":"ﾄｳｷｮｳﾄ","kana_city":"ﾊﾁｵｳｼﾞｼ","kana_address":"ﾅﾗﾊﾗﾏﾁ","pref":"東京都","city":"八王子市","address":"楢原町"},
{"zip_code":"1930842","kana_pref":"ﾄｳｷｮｳﾄ","kana_city":"ﾊﾁｵｳｼﾞｼ","kana_address":"ﾆｼｱｻｶﾜﾏﾁ","pref":"東京都","city":"八王子市","address":"西浅川町"},
{"zip_code":"1930822","kana_pref":"ﾄｳｷｮｳﾄ","kana_city":"ﾊﾁｵｳｼﾞｼ","kana_address":"ﾆﾌﾞｶﾀﾏﾁ","pref":"東京都","city":"八王子市","address":"弐分方町"},
{"zip_code":"1930941","kana_pref":"ﾄｳｷｮｳﾄ","kana_city":"ﾊﾁｵｳｼﾞｼ","kana_address":"ﾊｻﾞﾏﾏﾁ","pref":"東京都","city":"八王子市","address":"狭間町"},
{"zip_code":"1930845","kana_pref":"ﾄｳｷｮｳﾄ","kana_city":"ﾊﾁｵｳｼﾞｼ","kana_address":"ﾊﾂｻﾞﾜﾏﾁ","pref":"東京都","city":"八王子市","address":"初沢町"},
{"zip_code":"1930834","kana_pref":"ﾄｳｷｮｳﾄ","kana_city":"ﾊﾁｵｳｼﾞｼ","kana_address":"ﾋｶﾞｼｱｻｶﾜﾏﾁ","pref":"東京都","city":"八王子市","address":"東浅川町"},
{"zip_code":"1930836","kana_pref":"ﾄｳｷｮｳﾄ","kana_city":"ﾊﾁｵｳｼﾞｼ","kana_address":"ﾋﾖｼﾁｮｳ","pref":"東京都","city":"八王子市","address":"日吉町"},
{"zip_code":"1930932","kana_pref":"ﾄｳｷｮｳﾄ","kana_city":"ﾊﾁｵｳｼﾞｼ","kana_address":"ﾐﾄﾞﾘﾁｮｳ","pref":"東京都","city":"八王子市","address":"緑町"},
{"zip_code":"1930846","kana_pref":"ﾄｳｷｮｳﾄ","kana_city":"ﾊﾁｵｳｼﾞｼ","kana_address":"ﾐﾅﾐｱｻｶﾜﾏﾁ","pref":"東京都","city":"八王子市","address":"南浅川町"},
{"zip_code":"1930833","kana_pref":"ﾄｳｷｮｳﾄ","kana_city":"ﾊﾁｵｳｼﾞｼ","kana_address":"ﾒｼﾞﾛﾀﾞｲ","pref":"東京都","city":"八王子市","address":"めじろ台"},
{"zip_code":"1930826","kana_pref":"ﾄｳｷｮｳﾄ","kana_city":"ﾊﾁｵｳｼﾞｼ","kana_address":"ﾓﾄﾊﾁｵｳｼﾞﾏﾁ","pref":"東京都","city":"八王子市","address":"元八王子町"},
{"zip_code":"1930933","kana_pref":"ﾄｳｷｮｳﾄ","kana_city":"ﾊﾁｵｳｼﾞｼ","kana_address":"ﾔﾏﾀﾏﾁ","pref":"東京都","city":"八王子市","address":"山田町"},
{"zip_code":"1930823","kana_pref":"ﾄｳｷｮｳﾄ","kana_city":"ﾊﾁｵｳｼﾞｼ","kana_address":"ﾖｺｶﾜﾏﾁ","pref":"東京都","city":"八王子市","address":"横川町"},
{"zip_code":"1930813","kana_pref":"ﾄｳｷｮｳﾄ","kana_city":"ﾊﾁｵｳｼﾞｼ","kana_address":"ﾖﾂﾔﾏﾁ","pref":"東京都","city":"八王子市","address":"四谷町"}]}