{"zip_code":[
{"zip_code":"1940000","kana_pref":"ﾄｳｷｮｳﾄ","kana_city":"ﾏﾁﾀﾞｼ","kana_address":"","pref":"東京都","city":"町田市","address":""},
{"zip_code":"1940211","kana_pref":"ﾄｳｷｮｳﾄ","kana_city":"ﾏﾁﾀﾞｼ","kana_address":"ｱｲﾊﾗﾏﾁ","pref":"東京都","city":"町田市","address":"相原町"},
{"zip_code":"1940023","kana_pref":"ﾄｳｷｮｳﾄ","kana_city":"ﾏﾁﾀﾞｼ","kana_address":"ｱｻﾋﾏﾁ","pref":"東京都","city":"町田市","address":"旭町"},
{"zip_code":"1940003","kana_pref":"ﾄｳｷｮｳﾄ","kana_city":"ﾏﾁﾀﾞｼ","kana_address":"ｵｶﾞﾜ","pref":"東京都","city":"町田市","address":"小川"},
{"zip_code":"1940215","kana_pref":"ﾄｳｷｮｳﾄ","kana_city":"ﾏﾁﾀﾞｼ","kana_address":"ｵﾔﾏｶﾞｵｶ","pref":"東京都","city":"町田市","address":"小山ケ丘"},
{"zip_code":"1940204","kana_pref":"ﾄｳｷｮｳﾄ","kana_city":"ﾏﾁﾀﾞｼ","kana_address":"ｵﾔﾏﾀﾞｻｸﾗﾀﾞｲ","pref":"東京都","city":"町田市","address":"小山田桜台"},
{"zip_code":"1940212","kana_pref":"ﾄｳｷｮｳﾄ","kana_city":"ﾏﾁﾀﾞｼ","kana_address":"ｵﾔﾏﾏﾁ","pref":"東京都","city":"町田市","address":"小山町"},
{"zip_code":"1940012","kana_pref":"ﾄｳｷｮｳﾄ","kana_city":"ﾏﾁﾀﾞｼ","kana_address":"ｶﾅﾓﾘ","pref":"東京都","city":"町田市","address":"金森"},
{"zip_code":"1940201","kana_pref":"ﾄｳｷｮｳﾄ","kana_city":"ﾏﾁﾀﾞｼ","kana_address":"ｶﾐｵﾔﾏﾀﾞﾏﾁ","pref":"東京都","city":"町田市","address":"上小山田町"},
{"zip_code":"1940037","kana_pref":"ﾄｳｷｮｳﾄ","kana_city":"ﾏﾁﾀﾞｼ","kana_address":"ｷｿﾆｼ","pref":"東京都","city":"町田市","address":"木曽西"},
{"zip_code":"1940036","kana_pref":"ﾄｳｷｮｳﾄ","kana_city":"ﾏﾁﾀﾞｼ","kana_address":"ｷｿﾋｶﾞｼ","pref":"東京都","city":"町田市","address":"木曽東"},
{"zip_code":"1940033","kana_pref":"ﾄｳｷｮｳﾄ","kana_city":"ﾏﾁﾀﾞｼ","kana_address":"ｷｿﾏﾁ","pref":"東京都","city":"町田市","address":"木曽町"},
{"zip_code":"1940014","kana_pref":"ﾄｳｷｮｳﾄ","kana_city":"ﾏﾁﾀﾞｼ","kana_address":"ｺｳｶﾞｻｶ","pref":"東京都","city":"町田市","address":"高ケ坂"},
{"zip_code":"1940202","kana_pref":"ﾄｳｷｮｳﾄ","kana_city":"ﾏﾁﾀﾞｼ","kana_address":"ｼﾓｵﾔﾏﾀﾞﾏﾁ","pref":"東京都","city":"町田市","address":"下小山田町"},
{"zip_code":"1940203","kana_pref":"ﾄｳｷｮｳﾄ","kana_city":"ﾏﾁﾀﾞｼ","kana_address":"ｽﾞｼﾏﾁ","pref":"東京都","city":"町田市","address":"図師町"},
{"zip_code":"1940035","kana_pref":"ﾄｳｷｮｳﾄ","kana_city":"ﾏﾁﾀﾞｼ","kana_address":"ﾀﾀﾞｵ","pref":"東京都","city":"町田市","address":"忠生"},
{"zip_code":"1940041","kana_pref":"ﾄｳｷｮｳﾄ","kana_city":"ﾏﾁﾀﾞｼ","kana_address":"ﾀﾏｶﾞﾜｶﾞｸｴﾝ","pref":"東京都","city":"町田市","address":"玉川学園"},
{"zip_code":"1940001","kana_pref":"ﾄｳｷｮｳﾄ","kana_city":"ﾏﾁﾀﾞｼ","kana_address":"ﾂｸｼﾉ","pref":"東京都","city":"町田市","address":"つくし野"},
{"zip_code":"1940004","kana_pref":"ﾄｳｷｮｳﾄ","kana_city":"ﾏﾁﾀﾞｼ","kana_address":"ﾂﾙﾏ","pref":"東京都","city":"町田市","address":"鶴間"},
{"zip_code":"1940213","kana_pref":"ﾄｳｷｮｳﾄ","kana_city":"ﾏﾁﾀﾞｼ","kana_address":"ﾄｷﾜﾏﾁ","pref":"東京都","city":"町田市","address":"常盤町"},
{"zip_code":"1940021","kana_pref":"ﾄｳｷｮｳﾄ","kana_city":"ﾏﾁﾀﾞｼ","kana_address":"ﾅｶﾏﾁ","pref":"東京都","city":"町田市","address":"中町"},
{"zip_code":"1940044","kana_pref":"ﾄｳｷｮｳﾄ","kana_city":"ﾏﾁﾀﾞｼ","kana_address":"ﾅﾙｾ","pref":"東京都","city":"町田市","address":"成瀬"},
{"zip_code":"1940011","kana_pref":"ﾄｳｷｮｳﾄ","kana_city":"ﾏﾁﾀﾞｼ","kana_address":"ﾅﾙｾｶﾞｵｶ","pref":"東京都","city":"町田市","address":"成瀬が丘"},
{"zip_code":"1940043","kana_pref":"ﾄｳｷｮｳﾄ","kana_city":"ﾏﾁﾀﾞｼ","kana_address":"ﾅﾙｾﾀﾞｲ","pref":"東京都","city":"町田市","address":"成瀬台"},
{"zip_code":"1940038","kana_pref":"ﾄｳｷｮｳﾄ","kana_city":"ﾏﾁﾀﾞｼ","kana_address":"ﾈｷﾞｼ","pref":"東京都","city":"町田市","address":"根岸"},
{"zip_code":"1940034","kana_pref":"ﾄｳｷｮｳﾄ","kana_city":"ﾏﾁﾀﾞｼ","kana_address":"ﾈｷﾞｼﾏﾁ","pref":"東京都","city":"町田市","address":"根岸町"},
{"zip_code":"1940013","kana_pref":"ﾄｳｷｮｳﾄ","kana_city":"ﾏﾁﾀﾞｼ","kana_address":"ﾊﾗﾏﾁﾀﾞ","pref":"東京都","city":"町田市","address":"原町田"},
{"zip_code":"1940042","kana_pref":"ﾄｳｷｮｳﾄ","kana_city":"ﾏﾁﾀﾞｼ","kana_address":"ﾋｶﾞｼﾀﾏｶﾞﾜｶﾞｸｴﾝ","pref":"東京都","city":"町田市","address":"東玉川学園"},
{"zip_code":"1940032","kana_pref":"ﾄｳｷｮｳﾄ","kana_city":"ﾏﾁﾀﾞｼ","kana_address":"ﾎﾝﾏﾁﾀﾞ","pref":"東京都","city":"町田市","address":"本町田"},
{"zip_code":"1940031","kana_pref":"ﾄｳｷｮｳﾄ","kana_city":"ﾏﾁﾀﾞｼ","kana_address":"ﾐﾅﾐｵｵﾔ","pref":"東京都","city":"町田市","address":"南大谷"},
{"zip_code":"1940002","kana_pref":"ﾄｳｷｮｳﾄ","kana_city":"ﾏﾁﾀﾞｼ","kana_address":"ﾐﾅﾐﾂｸｼﾉ","pref":"東京都","city":"町田市","address":"南つくし野"},
{"zip_code":"1940045","kana_pref":"ﾄｳｷｮｳﾄ","kana_city":"ﾏﾁﾀﾞｼ","kana_address":"ﾐﾅﾐﾅﾙｾ","pref":"東京都","city":"町田市","address":"南成瀬"},
{"zip_code":"1940022","kana_pref":"ﾄｳｷｮｳﾄ","kana_city":"ﾏﾁﾀﾞｼ","kana_address":"ﾓﾘﾉ","pref":"東京都","city":"町田市","address":"森野"},
{"zip_code":"1940214","kana_pref":"ﾄｳｷｮｳﾄ","kana_city":"ﾏﾁﾀﾞｼ","kana_address":"ﾔﾍﾞﾏﾁ","pref":"東京都","city":"町田市","address":"矢部町"}]}