{"zip_code":[
{"zip_code":"1950062","kana_pref":"ﾄｳｷｮｳﾄ","kana_city":"ﾏﾁﾀﾞｼ","kana_address":"ｵｵｸﾗﾏﾁ","pref":"東京都","city":"町田市","address":"大蔵町"},
{"zip_code":"1950064","kana_pref":"ﾄｳｷｮｳﾄ","kana_city":"ﾏﾁﾀﾞｼ","kana_address":"ｵﾉｼﾞﾏﾁ","pref":"東京都","city":"町田市","address":"小野路町"},
{"zip_code":"1950072","kana_pref":"ﾄｳｷｮｳﾄ","kana_city":"ﾏﾁﾀﾞｼ","kana_address":"ｶﾅｲ","pref":"東京都","city":"町田市","address":"金井"},
{"zip_code":"1950071","kana_pref":"ﾄｳｷｮｳﾄ","kana_city":"ﾏﾁﾀﾞｼ","kana_address":"ｶﾅｲﾏﾁ","pref":"東京都","city":"町田市","address":"金井町"},
{"zip_code":"1950057","kana_pref":"ﾄｳｷｮｳﾄ","kana_city":"ﾏﾁﾀﾞｼ","kana_address":"ｼﾝｺｳｼﾞ","pref":"東京都","city":"町田市","address":"真光寺"},
{"zip_code":"1950051","kana_pref":"ﾄｳｷｮｳﾄ","kana_city":"ﾏﾁﾀﾞｼ","kana_address":"ｼﾝｺｳｼﾞﾏﾁ","pref":"東京都","city":"町田市","address":"真光寺町"},
{"zip_code":"1950061","kana_pref":"ﾄｳｷｮｳﾄ","kana_city":"ﾏﾁﾀﾞｼ","kana_address":"ﾂﾙｶﾜ","pref":"東京都","city":"町田市","address":"鶴川"},
{"zip_code":"1950053","kana_pref":"ﾄｳｷｮｳﾄ","kana_city":"ﾏﾁﾀﾞｼ","kana_address":"ﾉｳｶﾞﾔ","pref":"東京都","city":"町田市","address":"能ヶ谷"},
{"zip_code":"1950063","kana_pref":"ﾄｳｷｮｳﾄ","kana_city":"ﾏﾁﾀﾞｼ","kana_address":"ﾉﾂﾞﾀﾏﾁ","pref":"東京都","city":"町田市","address":"野津田町"},
{"zip_code":"1950056","kana_pref":"ﾄｳｷｮｳﾄ","kana_city":"ﾏﾁﾀﾞｼ","kana_address":"ﾋﾛﾊﾞｶﾏ","pref":"東京都","city":"町田市","address":"広袴"},
{"zip_code":"1950052","kana_pref":"ﾄｳｷｮｳﾄ","kana_city":"ﾏﾁﾀﾞｼ","kana_address":"ﾋﾛﾊｶﾏﾏﾁ","pref":"東京都","city":"町田市","address":"広袴町"},
{"zip_code":"1950054","kana_pref":"ﾄｳｷｮｳﾄ","kana_city":"ﾏﾁﾀﾞｼ","kana_address":"ﾐﾜﾏﾁ","pref":"東京都","city":"町田市","address":"三輪町"},
{"zip_code":"1950055","kana_pref":"ﾄｳｷｮｳﾄ","kana_city":"ﾏﾁﾀﾞｼ","kana_address":"ﾐﾜﾐﾄﾞﾘﾔﾏ","pref":"東京都","city":"町田市","address":"三輪緑山"},
{"zip_code":"1950073","kana_pref":"ﾄｳｷｮｳﾄ","kana_city":"ﾏﾁﾀﾞｼ","kana_address":"ﾔｸｼﾀﾞｲ","pref":"東京都","city":"町田市","address":"薬師台"},
{"zip_code":"1950075","kana_pref":"ﾄｳｷｮｳﾄ","kana_city":"ﾏﾁﾀﾞｼ","kana_address":"ﾔﾏｻﾞｷ","pref":"東京都","city":"町田市","address":"山崎"},
{"zip_code":"1950074","kana_pref":"ﾄｳｷｮｳﾄ","kana_city":"ﾏﾁﾀﾞｼ","kana_address":"ﾔﾏｻﾞｷﾏﾁ","pref":"東京都","city":"町田市","address":"山崎町"}]}