{"zip_code":[
{"zip_code":"1960000","kana_pref":"ﾄｳｷｮｳﾄ","kana_city":"ｱｷｼﾏｼ","kana_address":"","pref":"東京都","city":"昭島市","address":""},
{"zip_code":"1960025","kana_pref":"ﾄｳｷｮｳﾄ","kana_city":"ｱｷｼﾏｼ","kana_address":"ｱｻﾋﾁｮｳ","pref":"東京都","city":"昭島市","address":"朝日町"},
{"zip_code":"1960033","kana_pref":"ﾄｳｷｮｳﾄ","kana_city":"ｱｷｼﾏｼ","kana_address":"ｱｽﾞﾏﾁｮｳ","pref":"東京都","city":"昭島市","address":"東町"},
{"zip_code":"1960013","kana_pref":"ﾄｳｷｮｳﾄ","kana_city":"ｱｷｼﾏｼ","kana_address":"ｵｵｶﾞﾐﾁｮｳ","pref":"東京都","city":"昭島市","address":"大神町"},
{"zip_code":"1960032","kana_pref":"ﾄｳｷｮｳﾄ","kana_city":"ｱｷｼﾏｼ","kana_address":"ｺﾞｳﾁﾁｮｳ","pref":"東京都","city":"昭島市","address":"郷地町"},
{"zip_code":"1960011","kana_pref":"ﾄｳｷｮｳﾄ","kana_city":"ｱｷｼﾏｼ","kana_address":"ｼﾞｮｳｶﾞﾜﾗﾁｮｳ","pref":"東京都","city":"昭島市","address":"上川原町"},
{"zip_code":"1960015","kana_pref":"ﾄｳｷｮｳﾄ","kana_city":"ｱｷｼﾏｼ","kana_address":"ｼｮｳﾜﾁｮｳ","pref":"東京都","city":"昭島市","address":"昭和町"},
{"zip_code":"1960014","kana_pref":"ﾄｳｷｮｳﾄ","kana_city":"ｱｷｼﾏｼ","kana_address":"ﾀﾅｶﾁｮｳ","pref":"東京都","city":"昭島市","address":"田中町"},
{"zip_code":"1960034","kana_pref":"ﾄｳｷｮｳﾄ","kana_city":"ｱｷｼﾏｼ","kana_address":"ﾀﾏｶﾞﾜﾁｮｳ","pref":"東京都","city":"昭島市","address":"玉川町"},
{"zip_code":"1960023","kana_pref":"ﾄｳｷｮｳﾄ","kana_city":"ｱｷｼﾏｼ","kana_address":"ﾂｲｼﾞﾁｮｳ","pref":"東京都","city":"昭島市","address":"築地町"},
{"zip_code":"1960012","kana_pref":"ﾄｳｷｮｳﾄ","kana_city":"ｱｷｼﾏｼ","kana_address":"ﾂﾂｼﾞｶﾞｵｶ","pref":"東京都","city":"昭島市","address":"つつじが丘"},
{"zip_code":"1960022","kana_pref":"ﾄｳｷｮｳﾄ","kana_city":"ｱｷｼﾏｼ","kana_address":"ﾅｶｶﾞﾐﾁｮｳ","pref":"東京都","city":"昭島市","address":"中神町"},
{"zip_code":"1960002","kana_pref":"ﾄｳｷｮｳﾄ","kana_city":"ｱｷｼﾏｼ","kana_address":"ﾊｲｼﾞﾏﾁｮｳ","pref":"東京都","city":"昭島市","address":"拝島町"},
{"zip_code":"1960031","kana_pref":"ﾄｳｷｮｳﾄ","kana_city":"ｱｷｼﾏｼ","kana_address":"ﾌｸｼﾞﾏﾁｮｳ","pref":"東京都","city":"昭島市","address":"福島町"},
{"zip_code":"1960003","kana_pref":"ﾄｳｷｮｳﾄ","kana_city":"ｱｷｼﾏｼ","kana_address":"ﾏﾂﾊﾞﾗﾁｮｳ","pref":"東京都","city":"昭島市","address":"松原町"},
{"zip_code":"1960004","kana_pref":"ﾄｳｷｮｳﾄ","kana_city":"ｱｷｼﾏｼ","kana_address":"ﾐﾄﾞﾘﾁｮｳ","pref":"東京都","city":"昭島市","address":"緑町"},
{"zip_code":"1960001","kana_pref":"ﾄｳｷｮｳﾄ","kana_city":"ｱｷｼﾏｼ","kana_address":"ﾐﾎﾘﾁｮｳ","pref":"東京都","city":"昭島市","address":"美堀町"},
{"zip_code":"1960024","kana_pref":"ﾄｳｷｮｳﾄ","kana_city":"ｱｷｼﾏｼ","kana_address":"ﾐﾔｻﾞﾜﾁｮｳ","pref":"東京都","city":"昭島市","address":"宮沢町"},
{"zip_code":"1960021","kana_pref":"ﾄｳｷｮｳﾄ","kana_city":"ｱｷｼﾏｼ","kana_address":"ﾑｻｼﾉ","pref":"東京都","city":"昭島市","address":"武蔵野"}]}