{"zip_code":[
{"zip_code":"1970000","kana_pref":"ﾄｳｷｮｳﾄ","kana_city":"ﾌｯｻｼ","kana_address":"","pref":"東京都","city":"福生市","address":""},
{"zip_code":"1970024","kana_pref":"ﾄｳｷｮｳﾄ","kana_city":"ﾌｯｻｼ","kana_address":"ｳｼﾊﾏ","pref":"東京都","city":"福生市","address":"牛浜"},
{"zip_code":"1970012","kana_pref":"ﾄｳｷｮｳﾄ","kana_city":"ﾌｯｻｼ","kana_address":"ｶﾐﾀﾞｲﾗ","pref":"東京都","city":"福生市","address":"加美平"},
{"zip_code":"1970005","kana_pref":"ﾄｳｷｮｳﾄ","kana_city":"ﾌｯｻｼ","kana_address":"ｷﾀﾃﾞﾝｴﾝ","pref":"東京都","city":"福生市","address":"北田園"},
{"zip_code":"1970003","kana_pref":"ﾄｳｷｮｳﾄ","kana_city":"ﾌｯｻｼ","kana_address":"ｸﾏｶﾞﾜ","pref":"東京都","city":"福生市","address":"熊川"},
{"zip_code":"1970002","kana_pref":"ﾄｳｷｮｳﾄ","kana_city":"ﾌｯｻｼ","kana_address":"ｸﾏｶﾞﾜﾆﾉﾐﾔ","pref":"東京都","city":"福生市","address":"熊川二宮"},
{"zip_code":"1970023","kana_pref":"ﾄｳｷｮｳﾄ","kana_city":"ﾌｯｻｼ","kana_address":"ｼﾓ","pref":"東京都","city":"福生市","address":"志茂"},
{"zip_code":"1970021","kana_pref":"ﾄｳｷｮｳﾄ","kana_city":"ﾌｯｻｼ","kana_address":"ﾋｶﾞｼﾁｮｳ","pref":"東京都","city":"福生市","address":"東町"},
{"zip_code":"1970011","kana_pref":"ﾄｳｷｮｳﾄ","kana_city":"ﾌｯｻｼ","kana_address":"ﾌｯｻ","pref":"東京都","city":"福生市","address":"福生"},
{"zip_code":"1970014","kana_pref":"ﾄｳｷｮｳﾄ","kana_city":"ﾌｯｻｼ","kana_address":"ﾌｯｻﾆﾉﾐﾔ","pref":"東京都","city":"福生市","address":"福生二宮"},
{"zip_code":"1970022","kana_pref":"ﾄｳｷｮｳﾄ","kana_city":"ﾌｯｻｼ","kana_address":"ﾎﾝﾁｮｳ","pref":"東京都","city":"福生市","address":"本町"},
{"zip_code":"1970004","kana_pref":"ﾄｳｷｮｳﾄ","kana_city":"ﾌｯｻｼ","kana_address":"ﾐﾅﾐﾃﾞﾝｴﾝ","pref":"東京都","city":"福生市","address":"南田園"},
{"zip_code":"1970013","kana_pref":"ﾄｳｷｮｳﾄ","kana_city":"ﾌｯｻｼ","kana_address":"ﾑｻｼﾉﾀﾞｲ","pref":"東京都","city":"福生市","address":"武蔵野台"},
{"zip_code":"1970001","kana_pref":"ﾄｳｷｮｳﾄ","kana_city":"ﾌｯｻｼ","kana_address":"ﾖｺﾀｷﾁﾅｲ","pref":"東京都","city":"福生市","address":"横田基地内"},
{"zip_code":"1970804","kana_pref":"ﾄｳｷｮｳﾄ","kana_city":"ｱｷﾙﾉｼ","kana_address":"ｱｷｶﾞﾜ","pref":"東京都","city":"あきる野市","address":"秋川"},
{"zip_code":"1970828","kana_pref":"ﾄｳｷｮｳﾄ","kana_city":"ｱｷﾙﾉｼ","kana_address":"ｱｷﾙ","pref":"東京都","city":"あきる野市","address":"秋留"},
{"zip_code":"1970827","kana_pref":"ﾄｳｷｮｳﾄ","kana_city":"ｱｷﾙﾉｼ","kana_address":"ｱﾌﾞﾗﾀﾞｲ","pref":"東京都","city":"あきる野市","address":"油平"},
{"zip_code":"1970825","kana_pref":"ﾄｳｷｮｳﾄ","kana_city":"ｱｷﾙﾉｼ","kana_address":"ｱﾒﾏ","pref":"東京都","city":"あきる野市","address":"雨間"},
{"zip_code":"1970826","kana_pref":"ﾄｳｷｮｳﾄ","kana_city":"ｱｷﾙﾉｼ","kana_address":"ｳｼﾇﾏ","pref":"東京都","city":"あきる野市","address":"牛沼"},
{"zip_code":"1970821","kana_pref":"ﾄｳｷｮｳﾄ","kana_city":"ｱｷﾙﾉｼ","kana_address":"ｵｶﾞﾜ","pref":"東京都","city":"あきる野市","address":"小川"},
{"zip_code":"1970822","kana_pref":"ﾄｳｷｮｳﾄ","kana_city":"ｱｷﾙﾉｼ","kana_address":"ｵｶﾞﾜﾋｶﾞｼ","pref":"東京都","city":"あきる野市","address":"小川東"},
{"zip_code":"1970832","kana_pref":"ﾄｳｷｮｳﾄ","kana_city":"ｱｷﾙﾉｼ","kana_address":"ｶﾐﾖﾂｷﾞ","pref":"東京都","city":"あきる野市","address":"上代継"},
{"zip_code":"1970824","kana_pref":"ﾄｳｷｮｳﾄ","kana_city":"ｱｷﾙﾉｼ","kana_address":"ｷｯｶｹ","pref":"東京都","city":"あきる野市","address":"切欠"},
{"zip_code":"1970802","kana_pref":"ﾄｳｷｮｳﾄ","kana_city":"ｱｷﾙﾉｼ","kana_address":"ｸｻﾊﾞﾅ","pref":"東京都","city":"あきる野市","address":"草花"},
{"zip_code":"1970831","kana_pref":"ﾄｳｷｮｳﾄ","kana_city":"ｱｷﾙﾉｼ","kana_address":"ｼﾓﾖﾂｷﾞ","pref":"東京都","city":"あきる野市","address":"下代継"},
{"zip_code":"1970801","kana_pref":"ﾄｳｷｮｳﾄ","kana_city":"ｱｷﾙﾉｼ","kana_address":"ｽｶﾞｵ","pref":"東京都","city":"あきる野市","address":"菅生"},
{"zip_code":"1970803","kana_pref":"ﾄｳｷｮｳﾄ","kana_city":"ｱｷﾙﾉｼ","kana_address":"ｾﾄﾞｵｶ","pref":"東京都","city":"あきる野市","address":"瀬戸岡"},
{"zip_code":"1970814","kana_pref":"ﾄｳｷｮｳﾄ","kana_city":"ｱｷﾙﾉｼ","kana_address":"ﾆﾉﾐﾔ","pref":"東京都","city":"あきる野市","address":"二宮"},
{"zip_code":"1970815","kana_pref":"ﾄｳｷｮｳﾄ","kana_city":"ｱｷﾙﾉｼ","kana_address":"ﾆﾉﾐﾔﾋｶﾞｼ","pref":"東京都","city":"あきる野市","address":"二宮東"},
{"zip_code":"1970823","kana_pref":"ﾄｳｷｮｳﾄ","kana_city":"ｱｷﾙﾉｼ","kana_address":"ﾉﾍﾞ","pref":"東京都","city":"あきる野市","address":"野辺"},
{"zip_code":"1970811","kana_pref":"ﾄｳｷｮｳﾄ","kana_city":"ｱｷﾙﾉｼ","kana_address":"ﾊﾗｺﾐﾔ","pref":"東京都","city":"あきる野市","address":"原小宮"},
{"zip_code":"1970834","kana_pref":"ﾄｳｷｮｳﾄ","kana_city":"ｱｷﾙﾉｼ","kana_address":"ﾋｷﾀﾞ","pref":"東京都","city":"あきる野市","address":"引田"},
{"zip_code":"1970812","kana_pref":"ﾄｳｷｮｳﾄ","kana_city":"ｱｷﾙﾉｼ","kana_address":"ﾋﾗｻﾜ","pref":"東京都","city":"あきる野市","address":"平沢"},
{"zip_code":"1970816","kana_pref":"ﾄｳｷｮｳﾄ","kana_city":"ｱｷﾙﾉｼ","kana_address":"ﾋﾗｻﾜﾆｼ","pref":"東京都","city":"あきる野市","address":"平沢西"},
{"zip_code":"1970813","kana_pref":"ﾄｳｷｮｳﾄ","kana_city":"ｱｷﾙﾉｼ","kana_address":"ﾋﾗｻﾜﾋｶﾞｼ","pref":"東京都","city":"あきる野市","address":"平沢東"},
{"zip_code":"1970833","kana_pref":"ﾄｳｷｮｳﾄ","kana_city":"ｱｷﾙﾉｼ","kana_address":"ﾌﾁｶﾞﾐ","pref":"東京都","city":"あきる野市","address":"渕上"}]}