{"zip_code":[
{"zip_code":"1980000","kana_pref":"ﾄｳｷｮｳﾄ","kana_city":"ｵｳﾒｼ","kana_address":"","pref":"東京都","city":"青梅市","address":""},
{"zip_code":"1980087","kana_pref":"ﾄｳｷｮｳﾄ","kana_city":"ｵｳﾒｼ","kana_address":"ｱﾏｶﾞｾﾁｮｳ","pref":"東京都","city":"青梅市","address":"天ケ瀬町"},
{"zip_code":"1980023","kana_pref":"ﾄｳｷｮｳﾄ","kana_city":"ｵｳﾒｼ","kana_address":"ｲﾏｲ","pref":"東京都","city":"青梅市","address":"今井"},
{"zip_code":"1980021","kana_pref":"ﾄｳｷｮｳﾄ","kana_city":"ｵｳﾒｼ","kana_address":"ｲﾏﾃﾞﾗ","pref":"東京都","city":"青梅市","address":"今寺"},
{"zip_code":"1980088","kana_pref":"ﾄｳｷｮｳﾄ","kana_city":"ｵｳﾒｼ","kana_address":"ｳﾗｼﾞｭｸﾁｮｳ","pref":"東京都","city":"青梅市","address":"裏宿町"},
{"zip_code":"1980086","kana_pref":"ﾄｳｷｮｳﾄ","kana_city":"ｵｳﾒｼ","kana_address":"ｵｵﾔﾅﾁｮｳ","pref":"東京都","city":"青梅市","address":"大柳町"},
{"zip_code":"1980003","kana_pref":"ﾄｳｷｮｳﾄ","kana_city":"ｵｳﾒｼ","kana_address":"ｵｿｷ","pref":"東京都","city":"青梅市","address":"小曾木"},
{"zip_code":"1980041","kana_pref":"ﾄｳｷｮｳﾄ","kana_city":"ｵｳﾒｼ","kana_address":"ｶﾂﾇﾏ","pref":"東京都","city":"青梅市","address":"勝沼"},
{"zip_code":"1980036","kana_pref":"ﾄｳｷｮｳﾄ","kana_city":"ｵｳﾒｼ","kana_address":"ｶﾍﾞﾏﾁ","pref":"東京都","city":"青梅市","address":"河辺町"},
{"zip_code":"1980081","kana_pref":"ﾄｳｷｮｳﾄ","kana_city":"ｵｳﾒｼ","kana_address":"ｶﾐﾁｮｳ","pref":"東京都","city":"青梅市","address":"上町"},
{"zip_code":"1980013","kana_pref":"ﾄｳｷｮｳﾄ","kana_city":"ｵｳﾒｼ","kana_address":"ｷﾉｼﾀ","pref":"東京都","city":"青梅市","address":"木野下"},
{"zip_code":"1980005","kana_pref":"ﾄｳｷｮｳﾄ","kana_city":"ｵｳﾒｼ","kana_address":"ｸﾛｻﾜ","pref":"東京都","city":"青梅市","address":"黒沢"},
{"zip_code":"1980053","kana_pref":"ﾄｳｷｮｳﾄ","kana_city":"ｵｳﾒｼ","kana_address":"ｺﾏｷﾁｮｳ","pref":"東京都","city":"青梅市","address":"駒木町"},
{"zip_code":"1980172","kana_pref":"ﾄｳｷｮｳﾄ","kana_city":"ｵｳﾒｼ","kana_address":"ｻﾜｲ","pref":"東京都","city":"青梅市","address":"沢井"},
{"zip_code":"1980011","kana_pref":"ﾄｳｷｮｳﾄ","kana_city":"ｵｳﾒｼ","kana_address":"ｼｵﾌﾞﾈ","pref":"東京都","city":"青梅市","address":"塩船"},
{"zip_code":"1980024","kana_pref":"ﾄｳｷｮｳﾄ","kana_city":"ｵｳﾒｼ","kana_address":"ｼﾝﾏﾁ","pref":"東京都","city":"青梅市","address":"新町"},
{"zip_code":"1980025","kana_pref":"ﾄｳｷｮｳﾄ","kana_city":"ｵｳﾒｼ","kana_address":"ｽｴﾋﾛﾁｮｳ","pref":"東京都","city":"青梅市","address":"末広町"},
{"zip_code":"1980084","kana_pref":"ﾄｳｷｮｳﾄ","kana_city":"ｵｳﾒｼ","kana_address":"ｽﾐｴﾁｮｳ","pref":"東京都","city":"青梅市","address":"住江町"},
{"zip_code":"1980014","kana_pref":"ﾄｳｷｮｳﾄ","kana_city":"ｵｳﾒｼ","kana_address":"ﾀﾞｲﾓﾝ","pref":"東京都","city":"青梅市","address":"大門"},
{"zip_code":"1980085","kana_pref":"ﾄｳｷｮｳﾄ","kana_city":"ｵｳﾒｼ","kana_address":"ﾀｷﾉｳｴﾁｮｳ","pref":"東京都","city":"青梅市","address":"滝ノ上町"},
{"zip_code":"1980043","kana_pref":"ﾄｳｷｮｳﾄ","kana_city":"ｵｳﾒｼ","kana_address":"ﾁｶﾞｾﾏﾁ","pref":"東京都","city":"青梅市","address":"千ケ瀬町"},
{"zip_code":"1980002","kana_pref":"ﾄｳｷｮｳﾄ","kana_city":"ｵｳﾒｼ","kana_address":"ﾄﾐｵｶ","pref":"東京都","city":"青梅市","address":"富岡"},
{"zip_code":"1980051","kana_pref":"ﾄｳｷｮｳﾄ","kana_city":"ｵｳﾒｼ","kana_address":"ﾄﾓﾀﾞﾏﾁ","pref":"東京都","city":"青梅市","address":"友田町"},
{"zip_code":"1980082","kana_pref":"ﾄｳｷｮｳﾄ","kana_city":"ｵｳﾒｼ","kana_address":"ﾅｶﾁｮｳ","pref":"東京都","city":"青梅市","address":"仲町"},
{"zip_code":"1980052","kana_pref":"ﾄｳｷｮｳﾄ","kana_city":"ｵｳﾒｼ","kana_address":"ﾅｶﾞﾌﾞﾁ","pref":"東京都","city":"青梅市","address":"長淵"},
{"zip_code":"1980001","kana_pref":"ﾄｳｷｮｳﾄ","kana_city":"ｵｳﾒｼ","kana_address":"ﾅﾘｷ","pref":"東京都","city":"青梅市","address":"成木"},
{"zip_code":"1980044","kana_pref":"ﾄｳｷｮｳﾄ","kana_city":"ｵｳﾒｼ","kana_address":"ﾆｼﾜｹﾁｮｳ","pref":"東京都","city":"青梅市","address":"西分町"},
{"zip_code":"1980004","kana_pref":"ﾄｳｷｮｳﾄ","kana_city":"ｵｳﾒｼ","kana_address":"ﾈｶﾌﾞ","pref":"東京都","city":"青梅市","address":"根ケ布"},
{"zip_code":"1980032","kana_pref":"ﾄｳｷｮｳﾄ","kana_city":"ｵｳﾒｼ","kana_address":"ﾉｶﾞﾐﾁｮｳ","pref":"東京都","city":"青梅市","address":"野上町"},
{"zip_code":"1980063","kana_pref":"ﾄｳｷｮｳﾄ","kana_city":"ｵｳﾒｼ","kana_address":"ﾊﾞｲｺﾞｳ","pref":"東京都","city":"青梅市","address":"梅郷"},
{"zip_code":"1980061","kana_pref":"ﾄｳｷｮｳﾄ","kana_city":"ｵｳﾒｼ","kana_address":"ﾊﾀﾅｶ","pref":"東京都","city":"青梅市","address":"畑中"},
{"zip_code":"1980042","kana_pref":"ﾄｳｷｮｳﾄ","kana_city":"ｵｳﾒｼ","kana_address":"ﾋｶﾞｼｵｳﾒ","pref":"東京都","city":"青梅市","address":"東青梅"},
{"zip_code":"1980046","kana_pref":"ﾄｳｷｮｳﾄ","kana_city":"ｵｳﾒｼ","kana_address":"ﾋﾅﾀﾜﾀﾞ","pref":"東京都","city":"青梅市","address":"日向和田"},
{"zip_code":"1980015","kana_pref":"ﾄｳｷｮｳﾄ","kana_city":"ｵｳﾒｼ","kana_address":"ﾌｷｱｹﾞ","pref":"東京都","city":"青梅市","address":"吹上"},
{"zip_code":"1980022","kana_pref":"ﾄｳｷｮｳﾄ","kana_city":"ｵｳﾒｼ","kana_address":"ﾌｼﾞﾊｼ","pref":"東京都","city":"青梅市","address":"藤橋"},
{"zip_code":"1980171","kana_pref":"ﾄｳｷｮｳﾄ","kana_city":"ｵｳﾒｼ","kana_address":"ﾌﾀﾏﾀｵ","pref":"東京都","city":"青梅市","address":"二俣尾"},
{"zip_code":"1980083","kana_pref":"ﾄｳｷｮｳﾄ","kana_city":"ｵｳﾒｼ","kana_address":"ﾎﾝﾁｮｳ","pref":"東京都","city":"青梅市","address":"本町"},
{"zip_code":"1980174","kana_pref":"ﾄｳｷｮｳﾄ","kana_city":"ｵｳﾒｼ","kana_address":"ﾐﾀｹ","pref":"東京都","city":"青梅市","address":"御岳"},
{"zip_code":"1980175","kana_pref":"ﾄｳｷｮｳﾄ","kana_city":"ｵｳﾒｼ","kana_address":"ﾐﾀｹｻﾝ","pref":"東京都","city":"青梅市","address":"御岳山"},
{"zip_code":"1980173","kana_pref":"ﾄｳｷｮｳﾄ","kana_city":"ｵｳﾒｼ","kana_address":"ﾐﾀｹﾎﾝﾁｮｳ","pref":"東京都","city":"青梅市","address":"御岳本町"},
{"zip_code":"1980089","kana_pref":"ﾄｳｷｮｳﾄ","kana_city":"ｵｳﾒｼ","kana_address":"ﾓﾘｼﾀﾁｮｳ","pref":"東京都","city":"青梅市","address":"森下町"},
{"zip_code":"1980031","kana_pref":"ﾄｳｷｮｳﾄ","kana_city":"ｵｳﾒｼ","kana_address":"ﾓﾛｵｶﾁｮｳ","pref":"東京都","city":"青梅市","address":"師岡町"},
{"zip_code":"1980012","kana_pref":"ﾄｳｷｮｳﾄ","kana_city":"ｵｳﾒｼ","kana_address":"ﾔﾉ","pref":"東京都","city":"青梅市","address":"谷野"},
{"zip_code":"1980064","kana_pref":"ﾄｳｷｮｳﾄ","kana_city":"ｵｳﾒｼ","kana_address":"ﾕｷﾞﾏﾁ","pref":"東京都","city":"青梅市","address":"柚木町"},
{"zip_code":"1980062","kana_pref":"ﾄｳｷｮｳﾄ","kana_city":"ｵｳﾒｼ","kana_address":"ﾜﾀﾞﾏﾁ","pref":"東京都","city":"青梅市","address":"和田町"},
{"zip_code":"1980000","kana_pref":"ﾄｳｷｮｳﾄ","kana_city":"ﾆｼﾀﾏｸﾞﾝｵｸﾀﾏﾏﾁ","kana_address":"","pref":"東京都","city":"西多摩郡奥多摩町","address":""},
{"zip_code":"1980213","kana_pref":"ﾄｳｷｮｳﾄ","kana_city":"ﾆｼﾀﾏｸﾞﾝｵｸﾀﾏﾏﾁ","kana_address":"ｳﾅｻﾞﾜ","pref":"東京都","city":"西多摩郡奥多摩町","address":"海沢"},
{"zip_code":"1980103","kana_pref":"ﾄｳｷｮｳﾄ","kana_city":"ﾆｼﾀﾏｸﾞﾝｵｸﾀﾏﾏﾁ","kana_address":"ｳﾒｻﾞﾜ","pref":"東京都","city":"西多摩郡奥多摩町","address":"梅沢"},
{"zip_code":"1980101","kana_pref":"ﾄｳｷｮｳﾄ","kana_city":"ﾆｼﾀﾏｸﾞﾝｵｸﾀﾏﾏﾁ","kana_address":"ｵｵﾀﾊﾞ","pref":"東京都","city":"西多摩郡奥多摩町","address":"大丹波"},
{"zip_code":"1980102","kana_pref":"ﾄｳｷｮｳﾄ","kana_city":"ﾆｼﾀﾏｸﾞﾝｵｸﾀﾏﾏﾁ","kana_address":"ｶﾜｲ","pref":"東京都","city":"西多摩郡奥多摩町","address":"川井"},
{"zip_code":"1980225","kana_pref":"ﾄｳｷｮｳﾄ","kana_city":"ﾆｼﾀﾏｸﾞﾝｵｸﾀﾏﾏﾁ","kana_address":"ｶﾜﾉ","pref":"東京都","city":"西多摩郡奥多摩町","address":"川野"},
{"zip_code":"1980224","kana_pref":"ﾄｳｷｮｳﾄ","kana_city":"ﾆｼﾀﾏｸﾞﾝｵｸﾀﾏﾏﾁ","kana_address":"ｺｳﾁ","pref":"東京都","city":"西多摩郡奥多摩町","address":"河内"},
{"zip_code":"1980105","kana_pref":"ﾄｳｷｮｳﾄ","kana_city":"ﾆｼﾀﾏｸﾞﾝｵｸﾀﾏﾏﾁ","kana_address":"ｺﾀﾊﾞ","pref":"東京都","city":"西多摩郡奥多摩町","address":"小丹波"},
{"zip_code":"1980222","kana_pref":"ﾄｳｷｮｳﾄ","kana_city":"ﾆｼﾀﾏｸﾞﾝｵｸﾀﾏﾏﾁ","kana_address":"ｻｶｲ","pref":"東京都","city":"西多摩郡奥多摩町","address":"境"},
{"zip_code":"1980107","kana_pref":"ﾄｳｷｮｳﾄ","kana_city":"ﾆｼﾀﾏｸﾞﾝｵｸﾀﾏﾏﾁ","kana_address":"ｼﾛﾏﾙ","pref":"東京都","city":"西多摩郡奥多摩町","address":"白丸"},
{"zip_code":"1980106","kana_pref":"ﾄｳｷｮｳﾄ","kana_city":"ﾆｼﾀﾏｸﾞﾝｵｸﾀﾏﾏﾁ","kana_address":"ﾀﾅｻﾞﾜ","pref":"東京都","city":"西多摩郡奥多摩町","address":"棚沢"},
{"zip_code":"1980104","kana_pref":"ﾄｳｷｮｳﾄ","kana_city":"ﾆｼﾀﾏｸﾞﾝｵｸﾀﾏﾏﾁ","kana_address":"ﾀﾝｻﾞﾌﾞﾛｳ","pref":"東京都","city":"西多摩郡奥多摩町","address":"丹三郎"},
{"zip_code":"1980221","kana_pref":"ﾄｳｷｮｳﾄ","kana_city":"ﾆｼﾀﾏｸﾞﾝｵｸﾀﾏﾏﾁ","kana_address":"ﾄｽﾞﾗ","pref":"東京都","city":"西多摩郡奥多摩町","address":"留浦"},
{"zip_code":"1980211","kana_pref":"ﾄｳｷｮｳﾄ","kana_city":"ﾆｼﾀﾏｸﾞﾝｵｸﾀﾏﾏﾁ","kana_address":"ﾆｯﾊﾟﾗ","pref":"東京都","city":"西多摩郡奥多摩町","address":"日原"},
{"zip_code":"1980223","kana_pref":"ﾄｳｷｮｳﾄ","kana_city":"ﾆｼﾀﾏｸﾞﾝｵｸﾀﾏﾏﾁ","kana_address":"ﾊﾗ","pref":"東京都","city":"西多摩郡奥多摩町","address":"原"},
{"zip_code":"1980212","kana_pref":"ﾄｳｷｮｳﾄ","kana_city":"ﾆｼﾀﾏｸﾞﾝｵｸﾀﾏﾏﾁ","kana_address":"ﾋｶﾜ","pref":"東京都","city":"西多摩郡奥多摩町","address":"氷川"}]}