{"zip_code":[
{"zip_code":"2010000","kana_pref":"ﾄｳｷｮｳﾄ","kana_city":"ｺﾏｴｼ","kana_address":"","pref":"東京都","city":"狛江市","address":""},
{"zip_code":"2010003","kana_pref":"ﾄｳｷｮｳﾄ","kana_city":"ｺﾏｴｼ","kana_address":"ｲｽﾞﾐﾎﾝﾁｮｳ","pref":"東京都","city":"狛江市","address":"和泉本町"},
{"zip_code":"2010015","kana_pref":"ﾄｳｷｮｳﾄ","kana_city":"ｺﾏｴｼ","kana_address":"ｲﾉｶﾞﾀ","pref":"東京都","city":"狛江市","address":"猪方"},
{"zip_code":"2010005","kana_pref":"ﾄｳｷｮｳﾄ","kana_city":"ｺﾏｴｼ","kana_address":"ｲﾜﾄﾞﾐﾅﾐ","pref":"東京都","city":"狛江市","address":"岩戸南"},
{"zip_code":"2010004","kana_pref":"ﾄｳｷｮｳﾄ","kana_city":"ｺﾏｴｼ","kana_address":"ｲﾜﾄﾞｷﾀ","pref":"東京都","city":"狛江市","address":"岩戸北"},
{"zip_code":"2010016","kana_pref":"ﾄｳｷｮｳﾄ","kana_city":"ｺﾏｴｼ","kana_address":"ｺﾏｲﾏﾁ","pref":"東京都","city":"狛江市","address":"駒井町"},
{"zip_code":"2010012","kana_pref":"ﾄｳｷｮｳﾄ","kana_city":"ｺﾏｴｼ","kana_address":"ﾅｶｲｽﾞﾐ","pref":"東京都","city":"狛江市","address":"中和泉"},
{"zip_code":"2010011","kana_pref":"ﾄｳｷｮｳﾄ","kana_city":"ｺﾏｴｼ","kana_address":"ﾆｼｲｽﾞﾐ","pref":"東京都","city":"狛江市","address":"西和泉"},
{"zip_code":"2010001","kana_pref":"ﾄｳｷｮｳﾄ","kana_city":"ｺﾏｴｼ","kana_address":"ﾆｼﾉｶﾞﾜ","pref":"東京都","city":"狛江市","address":"西野川"},
{"zip_code":"2010014","kana_pref":"ﾄｳｷｮｳﾄ","kana_city":"ｺﾏｴｼ","kana_address":"ﾋｶﾞｼｲｽﾞﾐ","pref":"東京都","city":"狛江市","address":"東和泉"},
{"zip_code":"2010002","kana_pref":"ﾄｳｷｮｳﾄ","kana_city":"ｺﾏｴｼ","kana_address":"ﾋｶﾞｼﾉｶﾞﾜ","pref":"東京都","city":"狛江市","address":"東野川"},
{"zip_code":"2010013","kana_pref":"ﾄｳｷｮｳﾄ","kana_city":"ｺﾏｴｼ","kana_address":"ﾓﾄｲｽﾞﾐ","pref":"東京都","city":"狛江市","address":"元和泉"}]}