{"zip_code":[
{"zip_code":"2020000","kana_pref":"ﾄｳｷｮｳﾄ","kana_city":"ﾆｼﾄｳｷｮｳｼ","kana_address":"","pref":"東京都","city":"西東京市","address":""},
{"zip_code":"2020011","kana_pref":"ﾄｳｷｮｳﾄ","kana_city":"ﾆｼﾄｳｷｮｳｼ","kana_address":"ｲｽﾞﾐﾁｮｳ","pref":"東京都","city":"西東京市","address":"泉町"},
{"zip_code":"2020003","kana_pref":"ﾄｳｷｮｳﾄ","kana_city":"ﾆｼﾄｳｷｮｳｼ","kana_address":"ｷﾀﾏﾁ","pref":"東京都","city":"西東京市","address":"北町"},
{"zip_code":"2020006","kana_pref":"ﾄｳｷｮｳﾄ","kana_city":"ﾆｼﾄｳｷｮｳｼ","kana_address":"ｻｶｴﾁｮｳ","pref":"東京都","city":"西東京市","address":"栄町"},
{"zip_code":"2020004","kana_pref":"ﾄｳｷｮｳﾄ","kana_city":"ﾆｼﾄｳｷｮｳｼ","kana_address":"ｼﾓﾎｳﾔ","pref":"東京都","city":"西東京市","address":"下保谷"},
{"zip_code":"2020023","kana_pref":"ﾄｳｷｮｳﾄ","kana_city":"ﾆｼﾄｳｷｮｳｼ","kana_address":"ｼﾝﾏﾁ","pref":"東京都","city":"西東京市","address":"新町"},
{"zip_code":"2020005","kana_pref":"ﾄｳｷｮｳﾄ","kana_city":"ﾆｼﾄｳｷｮｳｼ","kana_address":"ｽﾐﾖｼﾁｮｳ","pref":"東京都","city":"西東京市","address":"住吉町"},
{"zip_code":"2020013","kana_pref":"ﾄｳｷｮｳﾄ","kana_city":"ﾆｼﾄｳｷｮｳｼ","kana_address":"ﾅｶﾏﾁ","pref":"東京都","city":"西東京市","address":"中町"},
{"zip_code":"2020012","kana_pref":"ﾄｳｷｮｳﾄ","kana_city":"ﾆｼﾄｳｷｮｳｼ","kana_address":"ﾋｶﾞｼﾁｮｳ","pref":"東京都","city":"西東京市","address":"東町"},
{"zip_code":"2020021","kana_pref":"ﾄｳｷｮｳﾄ","kana_city":"ﾆｼﾄｳｷｮｳｼ","kana_address":"ﾋｶﾞｼﾌｼﾐ","pref":"東京都","city":"西東京市","address":"東伏見"},
{"zip_code":"2020001","kana_pref":"ﾄｳｷｮｳﾄ","kana_city":"ﾆｼﾄｳｷｮｳｼ","kana_address":"ﾋﾊﾞﾘｶﾞｵｶ","pref":"東京都","city":"西東京市","address":"ひばりが丘"},
{"zip_code":"2020002","kana_pref":"ﾄｳｷｮｳﾄ","kana_city":"ﾆｼﾄｳｷｮｳｼ","kana_address":"ﾋﾊﾞﾘｶﾞｵｶｷﾀ","pref":"東京都","city":"西東京市","address":"ひばりが丘北"},
{"zip_code":"2020014","kana_pref":"ﾄｳｷｮｳﾄ","kana_city":"ﾆｼﾄｳｷｮｳｼ","kana_address":"ﾌｼﾞﾏﾁ","pref":"東京都","city":"西東京市","address":"富士町"},
{"zip_code":"2020015","kana_pref":"ﾄｳｷｮｳﾄ","kana_city":"ﾆｼﾄｳｷｮｳｼ","kana_address":"ﾎｳﾔﾁｮｳ","pref":"東京都","city":"西東京市","address":"保谷町"},
{"zip_code":"2020022","kana_pref":"ﾄｳｷｮｳﾄ","kana_city":"ﾆｼﾄｳｷｮｳｼ","kana_address":"ﾔｷﾞｻﾜ","pref":"東京都","city":"西東京市","address":"柳沢"}]}