{"zip_code":[
{"zip_code":"2040000","kana_pref":"ﾄｳｷｮｳﾄ","kana_city":"ｷﾖｾｼ","kana_address":"","pref":"東京都","city":"清瀬市","address":""},
{"zip_code":"2040002","kana_pref":"ﾄｳｷｮｳﾄ","kana_city":"ｷﾖｾｼ","kana_address":"ｱｻﾋｶﾞｵｶ","pref":"東京都","city":"清瀬市","address":"旭が丘"},
{"zip_code":"2040024","kana_pref":"ﾄｳｷｮｳﾄ","kana_city":"ｷﾖｾｼ","kana_address":"ｳﾒｿﾞﾉ","pref":"東京都","city":"清瀬市","address":"梅園"},
{"zip_code":"2040013","kana_pref":"ﾄｳｷｮｳﾄ","kana_city":"ｷﾖｾｼ","kana_address":"ｶﾐｷﾖﾄ","pref":"東京都","city":"清瀬市","address":"上清戸"},
{"zip_code":"2040001","kana_pref":"ﾄｳｷｮｳﾄ","kana_city":"ｷﾖｾｼ","kana_address":"ｼﾀｼﾞｭｸ","pref":"東京都","city":"清瀬市","address":"下宿"},
{"zip_code":"2040011","kana_pref":"ﾄｳｷｮｳﾄ","kana_city":"ｷﾖｾｼ","kana_address":"ｼﾓｷﾖﾄ","pref":"東京都","city":"清瀬市","address":"下清戸"},
{"zip_code":"2040023","kana_pref":"ﾄｳｷｮｳﾄ","kana_city":"ｷﾖｾｼ","kana_address":"ﾀｹｵｶ","pref":"東京都","city":"清瀬市","address":"竹丘"},
{"zip_code":"2040012","kana_pref":"ﾄｳｷｮｳﾄ","kana_city":"ｷﾖｾｼ","kana_address":"ﾅｶｷﾖﾄ","pref":"東京都","city":"清瀬市","address":"中清戸"},
{"zip_code":"2040003","kana_pref":"ﾄｳｷｮｳﾄ","kana_city":"ｷﾖｾｼ","kana_address":"ﾅｶｻﾞﾄ","pref":"東京都","city":"清瀬市","address":"中里"},
{"zip_code":"2040004","kana_pref":"ﾄｳｷｮｳﾄ","kana_city":"ｷﾖｾｼ","kana_address":"ﾉｼｵ","pref":"東京都","city":"清瀬市","address":"野塩"},
{"zip_code":"2040022","kana_pref":"ﾄｳｷｮｳﾄ","kana_city":"ｷﾖｾｼ","kana_address":"ﾏﾂﾔﾏ","pref":"東京都","city":"清瀬市","address":"松山"},
{"zip_code":"2040021","kana_pref":"ﾄｳｷｮｳﾄ","kana_city":"ｷﾖｾｼ","kana_address":"ﾓﾄﾏﾁ","pref":"東京都","city":"清瀬市","address":"元町"}]}