{"zip_code":[
{"zip_code":"2080000","kana_pref":"ﾄｳｷｮｳﾄ","kana_city":"ﾑｻｼﾑﾗﾔﾏｼ","kana_address":"","pref":"東京都","city":"武蔵村山市","address":""},
{"zip_code":"2080023","kana_pref":"ﾄｳｷｮｳﾄ","kana_city":"ﾑｻｼﾑﾗﾔﾏｼ","kana_address":"ｲﾅﾀﾞｲﾗ","pref":"東京都","city":"武蔵村山市","address":"伊奈平"},
{"zip_code":"2080022","kana_pref":"ﾄｳｷｮｳﾄ","kana_city":"ﾑｻｼﾑﾗﾔﾏｼ","kana_address":"ｴﾉｷ","pref":"東京都","city":"武蔵村山市","address":"榎"},
{"zip_code":"2080013","kana_pref":"ﾄｳｷｮｳﾄ","kana_city":"ﾑｻｼﾑﾗﾔﾏｼ","kana_address":"ｵｵﾐﾅﾐ","pref":"東京都","city":"武蔵村山市","address":"大南"},
{"zip_code":"2080011","kana_pref":"ﾄｳｷｮｳﾄ","kana_city":"ﾑｻｼﾑﾗﾔﾏｼ","kana_address":"ｶﾞｸｴﾝ","pref":"東京都","city":"武蔵村山市","address":"学園"},
{"zip_code":"2080031","kana_pref":"ﾄｳｷｮｳﾄ","kana_city":"ﾑｻｼﾑﾗﾔﾏｼ","kana_address":"ｷｼ","pref":"東京都","city":"武蔵村山市","address":"岸"},
{"zip_code":"2080034","kana_pref":"ﾄｳｷｮｳﾄ","kana_city":"ﾑｻｼﾑﾗﾔﾏｼ","kana_address":"ｻﾞﾝﾎﾞﾘ","pref":"東京都","city":"武蔵村山市","address":"残堀"},
{"zip_code":"2080002","kana_pref":"ﾄｳｷｮｳﾄ","kana_city":"ﾑｻｼﾑﾗﾔﾏｼ","kana_address":"ｼﾝﾒｲ","pref":"東京都","city":"武蔵村山市","address":"神明"},
{"zip_code":"2080003","kana_pref":"ﾄｳｷｮｳﾄ","kana_city":"ﾑｻｼﾑﾗﾔﾏｼ","kana_address":"ﾁｭｳｵｳ","pref":"東京都","city":"武蔵村山市","address":"中央"},
{"zip_code":"2080001","kana_pref":"ﾄｳｷｮｳﾄ","kana_city":"ﾑｻｼﾑﾗﾔﾏｼ","kana_address":"ﾅｶﾄｳ","pref":"東京都","city":"武蔵村山市","address":"中藤"},
{"zip_code":"2080035","kana_pref":"ﾄｳｷｮｳﾄ","kana_city":"ﾑｻｼﾑﾗﾔﾏｼ","kana_address":"ﾅｶﾊﾗ","pref":"東京都","city":"武蔵村山市","address":"中原"},
{"zip_code":"2080004","kana_pref":"ﾄｳｷｮｳﾄ","kana_city":"ﾑｻｼﾑﾗﾔﾏｼ","kana_address":"ﾎﾝﾏﾁ","pref":"東京都","city":"武蔵村山市","address":"本町"},
{"zip_code":"2080033","kana_pref":"ﾄｳｷｮｳﾄ","kana_city":"ﾑｻｼﾑﾗﾔﾏｼ","kana_address":"ﾐﾂｷﾞ","pref":"東京都","city":"武蔵村山市","address":"三ツ木"},
{"zip_code":"2080032","kana_pref":"ﾄｳｷｮｳﾄ","kana_city":"ﾑｻｼﾑﾗﾔﾏｼ","kana_address":"ﾐﾂｷﾞ","pref":"東京都","city":"武蔵村山市","address":"三ツ木"},
{"zip_code":"2080021","kana_pref":"ﾄｳｷｮｳﾄ","kana_city":"ﾑｻｼﾑﾗﾔﾏｼ","kana_address":"ﾐﾂﾌｼﾞ","pref":"東京都","city":"武蔵村山市","address":"三ツ藤"},
{"zip_code":"2080012","kana_pref":"ﾄｳｷｮｳﾄ","kana_city":"ﾑｻｼﾑﾗﾔﾏｼ","kana_address":"ﾐﾄﾞﾘｶﾞｵｶ","pref":"東京都","city":"武蔵村山市","address":"緑が丘"}]}