{"zip_code":[
{"zip_code":"2100000","kana_pref":"ｶﾅｶﾞﾜｹﾝ","kana_city":"ｶﾜｻｷｼｶﾜｻｷｸ","kana_address":"","pref":"神奈川県","city":"川崎市川崎区","address":""},
{"zip_code":"2100847","kana_pref":"ｶﾅｶﾞﾜｹﾝ","kana_city":"ｶﾜｻｷｼｶﾜｻｷｸ","kana_address":"ｱｻﾀﾞ","pref":"神奈川県","city":"川崎市川崎区","address":"浅田"},
{"zip_code":"2100854","kana_pref":"ｶﾅｶﾞﾜｹﾝ","kana_city":"ｶﾜｻｷｼｶﾜｻｷｸ","kana_address":"ｱｻﾉﾁｮｳ","pref":"神奈川県","city":"川崎市川崎区","address":"浅野町"},
{"zip_code":"2100808","kana_pref":"ｶﾅｶﾞﾜｹﾝ","kana_city":"ｶﾜｻｷｼｶﾜｻｷｸ","kana_address":"ｱｻﾋﾁｮｳ","pref":"神奈川県","city":"川崎市川崎区","address":"旭町"},
{"zip_code":"2100832","kana_pref":"ｶﾅｶﾞﾜｹﾝ","kana_city":"ｶﾜｻｷｼｶﾜｻｷｸ","kana_address":"ｲｹｶﾞﾐｼﾝﾁｮｳ","pref":"神奈川県","city":"川崎市川崎区","address":"池上新町"},
{"zip_code":"2100864","kana_pref":"ｶﾅｶﾞﾜｹﾝ","kana_city":"ｶﾜｻｷｼｶﾜｻｷｸ","kana_address":"ｲｹｶﾞﾐﾁｮｳ","pref":"神奈川県","city":"川崎市川崎区","address":"池上町"},
{"zip_code":"2100022","kana_pref":"ｶﾅｶﾞﾜｹﾝ","kana_city":"ｶﾜｻｷｼｶﾜｻｷｸ","kana_address":"ｲｹﾀﾞ","pref":"神奈川県","city":"川崎市川崎区","address":"池田"},
{"zip_code":"2100006","kana_pref":"ｶﾅｶﾞﾜｹﾝ","kana_city":"ｶﾜｻｷｼｶﾜｻｷｸ","kana_address":"ｲｻｺﾞ","pref":"神奈川県","city":"川崎市川崎区","address":"砂子"},
{"zip_code":"2100805","kana_pref":"ｶﾅｶﾞﾜｹﾝ","kana_city":"ｶﾜｻｷｼｶﾜｻｷｸ","kana_address":"ｲｾﾁｮｳ","pref":"神奈川県","city":"川崎市川崎区","address":"伊勢町"},
{"zip_code":"2100862","kana_pref":"ｶﾅｶﾞﾜｹﾝ","kana_city":"ｶﾜｻｷｼｶﾜｻｷｸ","kana_address":"ｳｷｼﾏﾁｮｳ","pref":"神奈川県","city":"川崎市川崎区","address":"浮島町"},
{"zip_code":"2100823","kana_pref":"ｶﾅｶﾞﾜｹﾝ","kana_city":"ｶﾜｻｷｼｶﾜｻｷｸ","kana_address":"ｴｶﾞﾜ","pref":"神奈川県","city":"川崎市川崎区","address":"江川"},
{"zip_code":"2100007","kana_pref":"ｶﾅｶﾞﾜｹﾝ","kana_city":"ｶﾜｻｷｼｶﾜｻｷｸ","kana_address":"ｴｷﾏｴﾎﾝﾁｮｳ","pref":"神奈川県","city":"川崎市川崎区","address":"駅前本町"},
{"zip_code":"2100002","kana_pref":"ｶﾅｶﾞﾜｹﾝ","kana_city":"ｶﾜｻｷｼｶﾜｻｷｸ","kana_address":"ｴﾉｷﾁｮｳ","pref":"神奈川県","city":"川崎市川崎区","address":"榎町"},
{"zip_code":"2100835","kana_pref":"ｶﾅｶﾞﾜｹﾝ","kana_city":"ｶﾜｻｷｼｶﾜｻｷｸ","kana_address":"ｵｲﾜｹﾁｮｳ","pref":"神奈川県","city":"川崎市川崎区","address":"追分町"},
{"zip_code":"2100867","kana_pref":"ｶﾅｶﾞﾜｹﾝ","kana_city":"ｶﾜｻｷｼｶﾜｻｷｸ","kana_address":"ｵｳｷﾞﾏﾁ","pref":"神奈川県","city":"川崎市川崎区","address":"扇町"},
{"zip_code":"2100858","kana_pref":"ｶﾅｶﾞﾜｹﾝ","kana_city":"ｶﾜｻｷｼｶﾜｻｷｸ","kana_address":"ｵｵｶﾜﾁｮｳ","pref":"神奈川県","city":"川崎市川崎区","address":"大川町"},
{"zip_code":"2100868","kana_pref":"ｶﾅｶﾞﾜｹﾝ","kana_city":"ｶﾜｻｷｼｶﾜｻｷｸ","kana_address":"ｵｵｷﾞｼﾏ","pref":"神奈川県","city":"川崎市川崎区","address":"扇島"},
{"zip_code":"2100834","kana_pref":"ｶﾅｶﾞﾜｹﾝ","kana_city":"ｶﾜｻｷｼｶﾜｻｷｸ","kana_address":"ｵｵｼﾏ","pref":"神奈川県","city":"川崎市川崎区","address":"大島"},
{"zip_code":"2100836","kana_pref":"ｶﾅｶﾞﾜｹﾝ","kana_city":"ｶﾜｻｷｼｶﾜｻｷｸ","kana_address":"ｵｵｼﾏｶﾐﾁｮｳ","pref":"神奈川県","city":"川崎市川崎区","address":"大島上町"},
{"zip_code":"2100023","kana_pref":"ｶﾅｶﾞﾜｹﾝ","kana_city":"ｶﾜｻｷｼｶﾜｻｷｸ","kana_address":"ｵｶﾞﾜﾁｮｳ","pref":"神奈川県","city":"川崎市川崎区","address":"小川町"},
{"zip_code":"2100846","kana_pref":"ｶﾅｶﾞﾜｹﾝ","kana_city":"ｶﾜｻｷｼｶﾜｻｷｸ","kana_address":"ｵﾀﾞ","pref":"神奈川県","city":"川崎市川崎区","address":"小田"},
{"zip_code":"2100843","kana_pref":"ｶﾅｶﾞﾜｹﾝ","kana_city":"ｶﾜｻｷｼｶﾜｻｷｸ","kana_address":"ｵﾀﾞｻｶｴ","pref":"神奈川県","city":"川崎市川崎区","address":"小田栄"},
{"zip_code":"2100014","kana_pref":"ｶﾅｶﾞﾜｹﾝ","kana_city":"ｶﾜｻｷｼｶﾜｻｷｸ","kana_address":"ｶｲﾂﾞｶ","pref":"神奈川県","city":"川崎市川崎区","address":"貝塚"},
{"zip_code":"2100803","kana_pref":"ｶﾅｶﾞﾜｹﾝ","kana_city":"ｶﾜｻｷｼｶﾜｻｷｸ","kana_address":"ｶﾜﾅｶｼﾞﾏ","pref":"神奈川県","city":"川崎市川崎区","address":"川中島"},
{"zip_code":"2100831","kana_pref":"ｶﾅｶﾞﾜｹﾝ","kana_city":"ｶﾜｻｷｼｶﾜｻｷｸ","kana_address":"ｶﾝﾉﾝ","pref":"神奈川県","city":"川崎市川崎区","address":"観音"},
{"zip_code":"2100848","kana_pref":"ｶﾅｶﾞﾜｹﾝ","kana_city":"ｶﾜｻｷｼｶﾜｻｷｸ","kana_address":"ｷｮｳﾏﾁ","pref":"神奈川県","city":"川崎市川崎区","address":"京町"},
{"zip_code":"2100852","kana_pref":"ｶﾅｶﾞﾜｹﾝ","kana_city":"ｶﾜｻｷｼｶﾜｻｷｸ","kana_address":"ｺｳｶﾝﾄﾞｵﾘ","pref":"神奈川県","city":"川崎市川崎区","address":"鋼管通"},
{"zip_code":"2100861","kana_pref":"ｶﾅｶﾞﾜｹﾝ","kana_city":"ｶﾜｻｷｼｶﾜｻｷｸ","kana_address":"ｺｼﾞﾏﾁｮｳ","pref":"神奈川県","city":"川崎市川崎区","address":"小島町"},
{"zip_code":"2100838","kana_pref":"ｶﾅｶﾞﾜｹﾝ","kana_city":"ｶﾜｻｷｼｶﾜｻｷｸ","kana_address":"ｻｶｲﾏﾁ","pref":"神奈川県","city":"川崎市川崎区","address":"境町"},
{"zip_code":"2100833","kana_pref":"ｶﾅｶﾞﾜｹﾝ","kana_city":"ｶﾜｻｷｼｶﾜｻｷｸ","kana_address":"ｻｸﾗﾓﾄ","pref":"神奈川県","city":"川崎市川崎区","address":"桜本"},
{"zip_code":"2100826","kana_pref":"ｶﾅｶﾞﾜｹﾝ","kana_city":"ｶﾜｻｷｼｶﾜｻｷｸ","kana_address":"ｼｵﾊﾏ","pref":"神奈川県","city":"川崎市川崎区","address":"塩浜"},
{"zip_code":"2100025","kana_pref":"ｶﾅｶﾞﾜｹﾝ","kana_city":"ｶﾜｻｷｼｶﾜｻｷｸ","kana_address":"ｼﾓﾅﾐｷ","pref":"神奈川県","city":"川崎市川崎区","address":"下並木"},
{"zip_code":"2100813","kana_pref":"ｶﾅｶﾞﾜｹﾝ","kana_city":"ｶﾜｻｷｼｶﾜｻｷｸ","kana_address":"ｼｮｳﾜ","pref":"神奈川県","city":"川崎市川崎区","address":"昭和"},
{"zip_code":"2100857","kana_pref":"ｶﾅｶﾞﾜｹﾝ","kana_city":"ｶﾜｻｷｼｶﾜｻｷｸ","kana_address":"ｼﾗｲｼﾁｮｳ","pref":"神奈川県","city":"川崎市川崎区","address":"白石町"},
{"zip_code":"2100013","kana_pref":"ｶﾅｶﾞﾜｹﾝ","kana_city":"ｶﾜｻｷｼｶﾜｻｷｸ","kana_address":"ｼﾝｶﾜﾄﾞｵﾘ","pref":"神奈川県","city":"川崎市川崎区","address":"新川通"},
{"zip_code":"2100801","kana_pref":"ｶﾅｶﾞﾜｹﾝ","kana_city":"ｶﾜｻｷｼｶﾜｻｷｸ","kana_address":"ｽｽﾞｷﾁｮｳ","pref":"神奈川県","city":"川崎市川崎区","address":"鈴木町"},
{"zip_code":"2100814","kana_pref":"ｶﾅｶﾞﾜｹﾝ","kana_city":"ｶﾜｻｷｼｶﾜｻｷｸ","kana_address":"ﾀﾞｲﾏﾁ","pref":"神奈川県","city":"川崎市川崎区","address":"台町"},
{"zip_code":"2100853","kana_pref":"ｶﾅｶﾞﾜｹﾝ","kana_city":"ｶﾜｻｷｼｶﾜｻｷｸ","kana_address":"ﾀｼﾞﾏﾁｮｳ","pref":"神奈川県","city":"川崎市川崎区","address":"田島町"},
{"zip_code":"2100856","kana_pref":"ｶﾅｶﾞﾜｹﾝ","kana_city":"ｶﾜｻｷｼｶﾜｻｷｸ","kana_address":"ﾀﾅﾍﾞｼﾝﾃﾞﾝ","pref":"神奈川県","city":"川崎市川崎区","address":"田辺新田"},
{"zip_code":"2100822","kana_pref":"ｶﾅｶﾞﾜｹﾝ","kana_city":"ｶﾜｻｷｼｶﾜｻｷｸ","kana_address":"ﾀﾏﾁ","pref":"神奈川県","city":"川崎市川崎区","address":"田町"},
{"zip_code":"2100802","kana_pref":"ｶﾅｶﾞﾜｹﾝ","kana_city":"ｶﾜｻｷｼｶﾜｻｷｸ","kana_address":"ﾀﾞｲｼｴｷﾏｴ","pref":"神奈川県","city":"川崎市川崎区","address":"大師駅前"},
{"zip_code":"2100811","kana_pref":"ｶﾅｶﾞﾜｹﾝ","kana_city":"ｶﾜｻｷｼｶﾜｻｷｸ","kana_address":"ﾀﾞｲｼｶﾞﾜﾗ","pref":"神奈川県","city":"川崎市川崎区","address":"大師河原"},
{"zip_code":"2100815","kana_pref":"ｶﾅｶﾞﾜｹﾝ","kana_city":"ｶﾜｻｷｼｶﾜｻｷｸ","kana_address":"ﾀﾞｲｼｺｳｴﾝ","pref":"神奈川県","city":"川崎市川崎区","address":"大師公園"},
{"zip_code":"2100817","kana_pref":"ｶﾅｶﾞﾜｹﾝ","kana_city":"ｶﾜｻｷｼｶﾜｻｷｸ","kana_address":"ﾀﾞｲｼﾎﾝﾁｮｳ","pref":"神奈川県","city":"川崎市川崎区","address":"大師本町"},
{"zip_code":"2100816","kana_pref":"ｶﾅｶﾞﾜｹﾝ","kana_city":"ｶﾜｻｷｼｶﾜｻｷｸ","kana_address":"ﾀﾞｲｼﾏﾁ","pref":"神奈川県","city":"川崎市川崎区","address":"大師町"},
{"zip_code":"2100865","kana_pref":"ｶﾅｶﾞﾜｹﾝ","kana_city":"ｶﾜｻｷｼｶﾜｻｷｸ","kana_address":"ﾁﾄﾞﾘﾁｮｳ","pref":"神奈川県","city":"川崎市川崎区","address":"千鳥町"},
{"zip_code":"2100026","kana_pref":"ｶﾅｶﾞﾜｹﾝ","kana_city":"ｶﾜｻｷｼｶﾜｻｷｸ","kana_address":"ﾂﾂﾐﾈ","pref":"神奈川県","city":"川崎市川崎区","address":"堤根"},
{"zip_code":"2100825","kana_pref":"ｶﾅｶﾞﾜｹﾝ","kana_city":"ｶﾜｻｷｼｶﾜｻｷｸ","kana_address":"ﾃﾞｷﾉ","pref":"神奈川県","city":"川崎市川崎区","address":"出来野"},
{"zip_code":"2100821","kana_pref":"ｶﾅｶﾞﾜｹﾝ","kana_city":"ｶﾜｻｷｼｶﾜｻｷｸ","kana_address":"ﾄﾉﾏﾁ","pref":"神奈川県","city":"川崎市川崎区","address":"殿町"},
{"zip_code":"2100806","kana_pref":"ｶﾅｶﾞﾜｹﾝ","kana_city":"ｶﾜｻｷｼｶﾜｻｷｸ","kana_address":"ﾅｶｼﾞﾏ","pref":"神奈川県","city":"川崎市川崎区","address":"中島"},
{"zip_code":"2100818","kana_pref":"ｶﾅｶﾞﾜｹﾝ","kana_city":"ｶﾜｻｷｼｶﾜｻｷｸ","kana_address":"ﾅｶｾﾞ","pref":"神奈川県","city":"川崎市川崎区","address":"中瀬"},
{"zip_code":"2100024","kana_pref":"ｶﾅｶﾞﾜｹﾝ","kana_city":"ｶﾜｻｷｼｶﾜｻｷｸ","kana_address":"ﾆｯｼﾝﾁｮｳ","pref":"神奈川県","city":"川崎市川崎区","address":"日進町"},
{"zip_code":"2100851","kana_pref":"ｶﾅｶﾞﾜｹﾝ","kana_city":"ｶﾜｻｷｼｶﾜｻｷｸ","kana_address":"ﾊﾏﾁｮｳ","pref":"神奈川県","city":"川崎市川崎区","address":"浜町"},
{"zip_code":"2100869","kana_pref":"ｶﾅｶﾞﾜｹﾝ","kana_city":"ｶﾜｻｷｼｶﾜｻｷｸ","kana_address":"ﾋｶﾞｼｵｵｷﾞｼﾏ","pref":"神奈川県","city":"川崎市川崎区","address":"東扇島"},
{"zip_code":"2100005","kana_pref":"ｶﾅｶﾞﾜｹﾝ","kana_city":"ｶﾜｻｷｼｶﾜｻｷｸ","kana_address":"ﾋｶﾞｼﾀﾞﾁｮｳ","pref":"神奈川県","city":"川崎市川崎区","address":"東田町"},
{"zip_code":"2100812","kana_pref":"ｶﾅｶﾞﾜｹﾝ","kana_city":"ｶﾜｻｷｼｶﾜｻｷｸ","kana_address":"ﾋｶﾞｼﾓﾝｾﾞﾝ","pref":"神奈川県","city":"川崎市川崎区","address":"東門前"},
{"zip_code":"2100824","kana_pref":"ｶﾅｶﾞﾜｹﾝ","kana_city":"ｶﾜｻｷｼｶﾜｻｷｸ","kana_address":"ﾋﾉﾃﾞ","pref":"神奈川県","city":"川崎市川崎区","address":"日ノ出"},
{"zip_code":"2100804","kana_pref":"ｶﾅｶﾞﾜｹﾝ","kana_city":"ｶﾜｻｷｼｶﾜｻｷｸ","kana_address":"ﾌｼﾞｻｷ","pref":"神奈川県","city":"川崎市川崎区","address":"藤崎"},
{"zip_code":"2100011","kana_pref":"ｶﾅｶﾞﾜｹﾝ","kana_city":"ｶﾜｻｷｼｶﾜｻｷｸ","kana_address":"ﾌｼﾞﾐ","pref":"神奈川県","city":"川崎市川崎区","address":"富士見"},
{"zip_code":"2100003","kana_pref":"ｶﾅｶﾞﾜｹﾝ","kana_city":"ｶﾜｻｷｼｶﾜｻｷｸ","kana_address":"ﾎﾘﾉｳﾁﾏﾁ","pref":"神奈川県","city":"川崎市川崎区","address":"堀之内町"},
{"zip_code":"2100001","kana_pref":"ｶﾅｶﾞﾜｹﾝ","kana_city":"ｶﾜｻｷｼｶﾜｻｷｸ","kana_address":"ﾎﾝﾁｮｳ","pref":"神奈川県","city":"川崎市川崎区","address":"本町"},
{"zip_code":"2100866","kana_pref":"ｶﾅｶﾞﾜｹﾝ","kana_city":"ｶﾜｻｷｼｶﾜｻｷｸ","kana_address":"ﾐｽﾞｴﾁｮｳ","pref":"神奈川県","city":"川崎市川崎区","address":"水江町"},
{"zip_code":"2100807","kana_pref":"ｶﾅｶﾞﾜｹﾝ","kana_city":"ｶﾜｻｷｼｶﾜｻｷｸ","kana_address":"ﾐﾅﾄﾁｮｳ","pref":"神奈川県","city":"川崎市川崎区","address":"港町"},
{"zip_code":"2100015","kana_pref":"ｶﾅｶﾞﾜｹﾝ","kana_city":"ｶﾜｻｷｼｶﾜｻｷｸ","kana_address":"ﾐﾅﾐﾏﾁ","pref":"神奈川県","city":"川崎市川崎区","address":"南町"},
{"zip_code":"2100855","kana_pref":"ｶﾅｶﾞﾜｹﾝ","kana_city":"ｶﾜｻｷｼｶﾜｻｷｸ","kana_address":"ﾐﾅﾐﾜﾀﾘﾀﾞﾁｮｳ","pref":"神奈川県","city":"川崎市川崎区","address":"南渡田町"},
{"zip_code":"2100012","kana_pref":"ｶﾅｶﾞﾜｹﾝ","kana_city":"ｶﾜｻｷｼｶﾜｻｷｸ","kana_address":"ﾐﾔﾏｴﾁｮｳ","pref":"神奈川県","city":"川崎市川崎区","address":"宮前町"},
{"zip_code":"2100004","kana_pref":"ｶﾅｶﾞﾜｹﾝ","kana_city":"ｶﾜｻｷｼｶﾜｻｷｸ","kana_address":"ﾐﾔﾓﾄﾁｮｳ","pref":"神奈川県","city":"川崎市川崎区","address":"宮本町"},
{"zip_code":"2100021","kana_pref":"ｶﾅｶﾞﾜｹﾝ","kana_city":"ｶﾜｻｷｼｶﾜｻｷｸ","kana_address":"ﾓﾄｷﾞ","pref":"神奈川県","city":"川崎市川崎区","address":"元木"},
{"zip_code":"2100863","kana_pref":"ｶﾅｶﾞﾜｹﾝ","kana_city":"ｶﾜｻｷｼｶﾜｻｷｸ","kana_address":"ﾔｺｳ","pref":"神奈川県","city":"川崎市川崎区","address":"夜光"},
{"zip_code":"2100828","kana_pref":"ｶﾅｶﾞﾜｹﾝ","kana_city":"ｶﾜｻｷｼｶﾜｻｷｸ","kana_address":"ﾖﾂﾔｶﾐﾁｮｳ","pref":"神奈川県","city":"川崎市川崎区","address":"四谷上町"},
{"zip_code":"2100827","kana_pref":"ｶﾅｶﾞﾜｹﾝ","kana_city":"ｶﾜｻｷｼｶﾜｻｷｸ","kana_address":"ﾖﾂﾔｼﾓﾁｮｳ","pref":"神奈川県","city":"川崎市川崎区","address":"四谷下町"},
{"zip_code":"2100837","kana_pref":"ｶﾅｶﾞﾜｹﾝ","kana_city":"ｶﾜｻｷｼｶﾜｻｷｸ","kana_address":"ﾜﾀﾘﾀﾞ","pref":"神奈川県","city":"川崎市川崎区","address":"渡田"},
{"zip_code":"2100845","kana_pref":"ｶﾅｶﾞﾜｹﾝ","kana_city":"ｶﾜｻｷｼｶﾜｻｷｸ","kana_address":"ﾜﾀﾘﾀﾞｻﾝﾉｳﾁｮｳ","pref":"神奈川県","city":"川崎市川崎区","address":"渡田山王町"},
{"zip_code":"2100844","kana_pref":"ｶﾅｶﾞﾜｹﾝ","kana_city":"ｶﾜｻｷｼｶﾜｻｷｸ","kana_address":"ﾜﾀﾘﾀﾞｼﾝﾁｮｳ","pref":"神奈川県","city":"川崎市川崎区","address":"渡田新町"},
{"zip_code":"2100842","kana_pref":"ｶﾅｶﾞﾜｹﾝ","kana_city":"ｶﾜｻｷｼｶﾜｻｷｸ","kana_address":"ﾜﾀﾘﾀﾞﾋｶﾞｼﾁｮｳ","pref":"神奈川県","city":"川崎市川崎区","address":"渡田東町"},
{"zip_code":"2100841","kana_pref":"ｶﾅｶﾞﾜｹﾝ","kana_city":"ｶﾜｻｷｼｶﾜｻｷｸ","kana_address":"ﾜﾀﾘﾀﾞﾑｶｲﾁｮｳ","pref":"神奈川県","city":"川崎市川崎区","address":"渡田向町"}]}