{"zip_code":[
{"zip_code":"2110000","kana_pref":"ｶﾅｶﾞﾜｹﾝ","kana_city":"ｶﾜｻｷｼﾅｶﾊﾗｸ","kana_address":"","pref":"神奈川県","city":"川崎市中原区","address":""},
{"zip_code":"2110035","kana_pref":"ｶﾅｶﾞﾜｹﾝ","kana_city":"ｶﾜｻｷｼﾅｶﾊﾗｸ","kana_address":"ｲﾀﾞ","pref":"神奈川県","city":"川崎市中原区","address":"井田"},
{"zip_code":"2110037","kana_pref":"ｶﾅｶﾞﾜｹﾝ","kana_city":"ｶﾜｻｷｼﾅｶﾊﾗｸ","kana_address":"ｲﾀﾞｻﾝﾏｲﾁｮｳ","pref":"神奈川県","city":"川崎市中原区","address":"井田三舞町"},
{"zip_code":"2110036","kana_pref":"ｶﾅｶﾞﾜｹﾝ","kana_city":"ｶﾜｻｷｼﾅｶﾊﾗｸ","kana_address":"ｲﾀﾞｽｷﾞﾔﾏﾁｮｳ","pref":"神奈川県","city":"川崎市中原区","address":"井田杉山町"},
{"zip_code":"2110034","kana_pref":"ｶﾅｶﾞﾜｹﾝ","kana_city":"ｶﾜｻｷｼﾅｶﾊﾗｸ","kana_address":"ｲﾀﾞﾅｶﾉﾁｮｳ","pref":"神奈川県","city":"川崎市中原区","address":"井田中ノ町"},
{"zip_code":"2110016","kana_pref":"ｶﾅｶﾞﾜｹﾝ","kana_city":"ｶﾜｻｷｼﾅｶﾊﾗｸ","kana_address":"ｲﾁﾉﾂﾎﾞ","pref":"神奈川県","city":"川崎市中原区","address":"市ノ坪"},
{"zip_code":"2110067","kana_pref":"ｶﾅｶﾞﾜｹﾝ","kana_city":"ｶﾜｻｷｼﾅｶﾊﾗｸ","kana_address":"ｲﾏｲｶﾐﾁｮｳ","pref":"神奈川県","city":"川崎市中原区","address":"今井上町"},
{"zip_code":"2110065","kana_pref":"ｶﾅｶﾞﾜｹﾝ","kana_city":"ｶﾜｻｷｼﾅｶﾊﾗｸ","kana_address":"ｲﾏｲﾅｶﾏﾁ","pref":"神奈川県","city":"川崎市中原区","address":"今井仲町"},
{"zip_code":"2110066","kana_pref":"ｶﾅｶﾞﾜｹﾝ","kana_city":"ｶﾜｻｷｼﾅｶﾊﾗｸ","kana_address":"ｲﾏｲﾆｼﾏﾁ","pref":"神奈川県","city":"川崎市中原区","address":"今井西町"},
{"zip_code":"2110064","kana_pref":"ｶﾅｶﾞﾜｹﾝ","kana_city":"ｶﾜｻｷｼﾅｶﾊﾗｸ","kana_address":"ｲﾏｲﾐﾅﾐﾁｮｳ","pref":"神奈川県","city":"川崎市中原区","address":"今井南町"},
{"zip_code":"2110023","kana_pref":"ｶﾅｶﾞﾜｹﾝ","kana_city":"ｶﾜｻｷｼﾅｶﾊﾗｸ","kana_address":"ｵｵｸﾗﾁｮｳ","pref":"神奈川県","city":"川崎市中原区","address":"大倉町"},
{"zip_code":"2110053","kana_pref":"ｶﾅｶﾞﾜｹﾝ","kana_city":"ｶﾜｻｷｼﾅｶﾊﾗｸ","kana_address":"ｶﾐｺﾀﾞﾅｶ","pref":"神奈川県","city":"川崎市中原区","address":"上小田中"},
{"zip_code":"2110045","kana_pref":"ｶﾅｶﾞﾜｹﾝ","kana_city":"ｶﾜｻｷｼﾅｶﾊﾗｸ","kana_address":"ｶﾐｼﾝｼﾞｮｳ","pref":"神奈川県","city":"川崎市中原区","address":"上新城"},
{"zip_code":"2110013","kana_pref":"ｶﾅｶﾞﾜｹﾝ","kana_city":"ｶﾜｻｷｼﾅｶﾊﾗｸ","kana_address":"ｶﾐﾋﾗﾏ","pref":"神奈川県","city":"川崎市中原区","address":"上平間"},
{"zip_code":"2110003","kana_pref":"ｶﾅｶﾞﾜｹﾝ","kana_city":"ｶﾜｻｷｼﾅｶﾊﾗｸ","kana_address":"ｶﾐﾏﾙｺ","pref":"神奈川県","city":"川崎市中原区","address":"上丸子"},
{"zip_code":"2110002","kana_pref":"ｶﾅｶﾞﾜｹﾝ","kana_city":"ｶﾜｻｷｼﾅｶﾊﾗｸ","kana_address":"ｶﾐﾏﾙｺｻﾝﾉｳﾁｮｳ","pref":"神奈川県","city":"川崎市中原区","address":"上丸子山王町"},
{"zip_code":"2110007","kana_pref":"ｶﾅｶﾞﾜｹﾝ","kana_city":"ｶﾜｻｷｼﾅｶﾊﾗｸ","kana_address":"ｶﾐﾏﾙｺﾃﾝｼﾞﾝﾁｮｳ","pref":"神奈川県","city":"川崎市中原区","address":"上丸子天神町"},
{"zip_code":"2110001","kana_pref":"ｶﾅｶﾞﾜｹﾝ","kana_city":"ｶﾜｻｷｼﾅｶﾊﾗｸ","kana_address":"ｶﾐﾏﾙｺﾊﾁﾏﾝﾁｮｳ","pref":"神奈川県","city":"川崎市中原区","address":"上丸子八幡町"},
{"zip_code":"2110022","kana_pref":"ｶﾅｶﾞﾜｹﾝ","kana_city":"ｶﾜｻｷｼﾅｶﾊﾗｸ","kana_address":"ｶﾘﾔﾄﾞ","pref":"神奈川県","city":"川崎市中原区","address":"苅宿"},
{"zip_code":"2110015","kana_pref":"ｶﾅｶﾞﾜｹﾝ","kana_city":"ｶﾜｻｷｼﾅｶﾊﾗｸ","kana_address":"ｷﾀﾔﾁｮｳ","pref":"神奈川県","city":"川崎市中原区","address":"北谷町"},
{"zip_code":"2110025","kana_pref":"ｶﾅｶﾞﾜｹﾝ","kana_city":"ｶﾜｻｷｼﾅｶﾊﾗｸ","kana_address":"ｷﾂﾞｷ","pref":"神奈川県","city":"川崎市中原区","address":"木月"},
{"zip_code":"2110032","kana_pref":"ｶﾅｶﾞﾜｹﾝ","kana_city":"ｶﾜｻｷｼﾅｶﾊﾗｸ","kana_address":"ｷﾂﾞｷｲｾﾁｮｳ","pref":"神奈川県","city":"川崎市中原区","address":"木月伊勢町"},
{"zip_code":"2110033","kana_pref":"ｶﾅｶﾞﾜｹﾝ","kana_city":"ｶﾜｻｷｼﾅｶﾊﾗｸ","kana_address":"ｷﾂﾞｷｷﾞｵﾝﾁｮｳ","pref":"神奈川県","city":"川崎市中原区","address":"木月祗園町"},
{"zip_code":"2110021","kana_pref":"ｶﾅｶﾞﾜｹﾝ","kana_city":"ｶﾜｻｷｼﾅｶﾊﾗｸ","kana_address":"ｷﾂﾞｷｽﾐﾖｼﾁｮｳ","pref":"神奈川県","city":"川崎市中原区","address":"木月住吉町"},
{"zip_code":"2110031","kana_pref":"ｶﾅｶﾞﾜｹﾝ","kana_city":"ｶﾜｻｷｼﾅｶﾊﾗｸ","kana_address":"ｷﾂﾞｷｵｵﾏﾁ","pref":"神奈川県","city":"川崎市中原区","address":"木月大町"},
{"zip_code":"2110061","kana_pref":"ｶﾅｶﾞﾜｹﾝ","kana_city":"ｶﾜｻｷｼﾅｶﾊﾗｸ","kana_address":"ｺｽｷﾞ","pref":"神奈川県","city":"川崎市中原区","address":"小杉"},
{"zip_code":"2110068","kana_pref":"ｶﾅｶﾞﾜｹﾝ","kana_city":"ｶﾜｻｷｼﾅｶﾊﾗｸ","kana_address":"ｺｽｷﾞｺﾞﾃﾝﾁｮｳ","pref":"神奈川県","city":"川崎市中原区","address":"小杉御殿町"},
{"zip_code":"2110062","kana_pref":"ｶﾅｶﾞﾜｹﾝ","kana_city":"ｶﾜｻｷｼﾅｶﾊﾗｸ","kana_address":"ｺｽｷﾞｼﾞﾝﾔﾁｮｳ","pref":"神奈川県","city":"川崎市中原区","address":"小杉陣屋町"},
{"zip_code":"2110063","kana_pref":"ｶﾅｶﾞﾜｹﾝ","kana_city":"ｶﾜｻｷｼﾅｶﾊﾗｸ","kana_address":"ｺｽｷﾞﾏﾁ","pref":"神奈川県","city":"川崎市中原区","address":"小杉町"},
{"zip_code":"2110041","kana_pref":"ｶﾅｶﾞﾜｹﾝ","kana_city":"ｶﾜｻｷｼﾅｶﾊﾗｸ","kana_address":"ｼﾓｺﾀﾞﾅｶ","pref":"神奈川県","city":"川崎市中原区","address":"下小田中"},
{"zip_code":"2110042","kana_pref":"ｶﾅｶﾞﾜｹﾝ","kana_city":"ｶﾜｻｷｼﾅｶﾊﾗｸ","kana_address":"ｼﾓｼﾝｼﾞｮｳ","pref":"神奈川県","city":"川崎市中原区","address":"下新城"},
{"zip_code":"2110011","kana_pref":"ｶﾅｶﾞﾜｹﾝ","kana_city":"ｶﾜｻｷｼﾅｶﾊﾗｸ","kana_address":"ｼﾓﾇﾏﾍﾞ","pref":"神奈川県","city":"川崎市中原区","address":"下沼部"},
{"zip_code":"2110044","kana_pref":"ｶﾅｶﾞﾜｹﾝ","kana_city":"ｶﾜｻｷｼﾅｶﾊﾗｸ","kana_address":"ｼﾝｼﾞｮｳ","pref":"神奈川県","city":"川崎市中原区","address":"新城"},
{"zip_code":"2110043","kana_pref":"ｶﾅｶﾞﾜｹﾝ","kana_city":"ｶﾜｻｷｼﾅｶﾊﾗｸ","kana_address":"ｼﾝｼﾞｮｳﾅｶﾁｮｳ","pref":"神奈川県","city":"川崎市中原区","address":"新城中町"},
{"zip_code":"2110005","kana_pref":"ｶﾅｶﾞﾜｹﾝ","kana_city":"ｶﾜｻｷｼﾅｶﾊﾗｸ","kana_address":"ｼﾝﾏﾙｺﾏﾁ","pref":"神奈川県","city":"川崎市中原区","address":"新丸子町"},
{"zip_code":"2110004","kana_pref":"ｶﾅｶﾞﾜｹﾝ","kana_city":"ｶﾜｻｷｼﾅｶﾊﾗｸ","kana_address":"ｼﾝﾏﾙｺﾋｶﾞｼ","pref":"神奈川県","city":"川崎市中原区","address":"新丸子東"},
{"zip_code":"2110014","kana_pref":"ｶﾅｶﾞﾜｹﾝ","kana_city":"ｶﾜｻｷｼﾅｶﾊﾗｸ","kana_address":"ﾀｼﾞﾘﾁｮｳ","pref":"神奈川県","city":"川崎市中原区","address":"田尻町"},
{"zip_code":"2110052","kana_pref":"ｶﾅｶﾞﾜｹﾝ","kana_city":"ｶﾜｻｷｼﾅｶﾊﾗｸ","kana_address":"ﾄﾄﾞﾛｷ","pref":"神奈川県","city":"川崎市中原区","address":"等々力"},
{"zip_code":"2110012","kana_pref":"ｶﾅｶﾞﾜｹﾝ","kana_city":"ｶﾜｻｷｼﾅｶﾊﾗｸ","kana_address":"ﾅｶﾏﾙｺ","pref":"神奈川県","city":"川崎市中原区","address":"中丸子"},
{"zip_code":"2110024","kana_pref":"ｶﾅｶﾞﾜｹﾝ","kana_city":"ｶﾜｻｷｼﾅｶﾊﾗｸ","kana_address":"ﾆｼｶｾ","pref":"神奈川県","city":"川崎市中原区","address":"西加瀬"},
{"zip_code":"2110006","kana_pref":"ｶﾅｶﾞﾜｹﾝ","kana_city":"ｶﾜｻｷｼﾅｶﾊﾗｸ","kana_address":"ﾏﾙｺﾄﾞｵﾘ","pref":"神奈川県","city":"川崎市中原区","address":"丸子通"},
{"zip_code":"2110051","kana_pref":"ｶﾅｶﾞﾜｹﾝ","kana_city":"ｶﾜｻｷｼﾅｶﾊﾗｸ","kana_address":"ﾐﾔｳﾁ","pref":"神奈川県","city":"川崎市中原区","address":"宮内"}]}