{"zip_code":[
{"zip_code":"2130000","kana_pref":"ｶﾅｶﾞﾜｹﾝ","kana_city":"ｶﾜｻｷｼﾀｶﾂｸ","kana_address":"","pref":"神奈川県","city":"川崎市高津区","address":""},
{"zip_code":"2130024","kana_pref":"ｶﾅｶﾞﾜｹﾝ","kana_city":"ｶﾜｻｷｼﾀｶﾂｸ","kana_address":"ｱｸﾂ","pref":"神奈川県","city":"川崎市高津区","address":"明津"},
{"zip_code":"2130031","kana_pref":"ｶﾅｶﾞﾜｹﾝ","kana_city":"ｶﾜｻｷｼﾀｶﾂｸ","kana_address":"ｳﾅﾈ","pref":"神奈川県","city":"川崎市高津区","address":"宇奈根"},
{"zip_code":"2130015","kana_pref":"ｶﾅｶﾞﾜｹﾝ","kana_city":"ｶﾜｻｷｼﾀｶﾂｸ","kana_address":"ｶｼﾞｶﾞﾔ","pref":"神奈川県","city":"川崎市高津区","address":"梶ケ谷"},
{"zip_code":"2130025","kana_pref":"ｶﾅｶﾞﾜｹﾝ","kana_city":"ｶﾜｻｷｼﾀｶﾂｸ","kana_address":"ｶﾆｶﾞﾔ","pref":"神奈川県","city":"川崎市高津区","address":"蟹ケ谷"},
{"zip_code":"2130034","kana_pref":"ｶﾅｶﾞﾜｹﾝ","kana_city":"ｶﾜｻｷｼﾀｶﾂｸ","kana_address":"ｶﾐｻｸﾉﾍﾞ","pref":"神奈川県","city":"川崎市高津区","address":"上作延"},
{"zip_code":"2130005","kana_pref":"ｶﾅｶﾞﾜｹﾝ","kana_city":"ｶﾜｻｷｼﾀｶﾂｸ","kana_address":"ｷﾀﾐｶﾀ","pref":"神奈川県","city":"川崎市高津区","address":"北見方"},
{"zip_code":"2130032","kana_pref":"ｶﾅｶﾞﾜｹﾝ","kana_city":"ｶﾜｻｷｼﾀｶﾂｸ","kana_address":"ｸｼﾞ","pref":"神奈川県","city":"川崎市高津区","address":"久地"},
{"zip_code":"2130012","kana_pref":"ｶﾅｶﾞﾜｹﾝ","kana_city":"ｶﾜｻｷｼﾀｶﾂｸ","kana_address":"ｻｶﾄﾞ","pref":"神奈川県","city":"川崎市高津区","address":"坂戸"},
{"zip_code":"2130023","kana_pref":"ｶﾅｶﾞﾜｹﾝ","kana_city":"ｶﾜｻｷｼﾀｶﾂｸ","kana_address":"ｼﾎﾞｸﾁ","pref":"神奈川県","city":"川崎市高津区","address":"子母口"},
{"zip_code":"2130033","kana_pref":"ｶﾅｶﾞﾜｹﾝ","kana_city":"ｶﾜｻｷｼﾀｶﾂｸ","kana_address":"ｼﾓｻｸﾉﾍﾞ","pref":"神奈川県","city":"川崎市高津区","address":"下作延"},
{"zip_code":"2130006","kana_pref":"ｶﾅｶﾞﾜｹﾝ","kana_city":"ｶﾜｻｷｼﾀｶﾂｸ","kana_address":"ｼﾓﾉｹﾞ","pref":"神奈川県","city":"川崎市高津区","address":"下野毛"},
{"zip_code":"2130014","kana_pref":"ｶﾅｶﾞﾜｹﾝ","kana_city":"ｶﾜｻｷｼﾀｶﾂｸ","kana_address":"ｼﾝｻｸ","pref":"神奈川県","city":"川崎市高津区","address":"新作"},
{"zip_code":"2130013","kana_pref":"ｶﾅｶﾞﾜｹﾝ","kana_city":"ｶﾜｻｷｼﾀｶﾂｸ","kana_address":"ｽｴﾅｶﾞ","pref":"神奈川県","city":"川崎市高津区","address":"末長"},
{"zip_code":"2130004","kana_pref":"ｶﾅｶﾞﾜｹﾝ","kana_city":"ｶﾜｻｷｼﾀｶﾂｸ","kana_address":"ｽﾜ","pref":"神奈川県","city":"川崎市高津区","address":"諏訪"},
{"zip_code":"2130003","kana_pref":"ｶﾅｶﾞﾜｹﾝ","kana_city":"ｶﾜｻｷｼﾀｶﾂｸ","kana_address":"ｾﾀ","pref":"神奈川県","city":"川崎市高津区","address":"瀬田"},
{"zip_code":"2130022","kana_pref":"ｶﾅｶﾞﾜｹﾝ","kana_city":"ｶﾜｻｷｼﾀｶﾂｸ","kana_address":"ﾁﾄｾ","pref":"神奈川県","city":"川崎市高津区","address":"千年"},
{"zip_code":"2130021","kana_pref":"ｶﾅｶﾞﾜｹﾝ","kana_city":"ｶﾜｻｷｼﾀｶﾂｸ","kana_address":"ﾁﾄｾｼﾝﾁｮｳ","pref":"神奈川県","city":"川崎市高津区","address":"千年新町"},
{"zip_code":"2130027","kana_pref":"ｶﾅｶﾞﾜｹﾝ","kana_city":"ｶﾜｻｷｼﾀｶﾂｸ","kana_address":"ﾉｶﾞﾜ","pref":"神奈川県","city":"川崎市高津区","address":"野川"},
{"zip_code":"2130026","kana_pref":"ｶﾅｶﾞﾜｹﾝ","kana_city":"ｶﾜｻｷｼﾀｶﾂｸ","kana_address":"ﾋｻｽｴ","pref":"神奈川県","city":"川崎市高津区","address":"久末"},
{"zip_code":"2130011","kana_pref":"ｶﾅｶﾞﾜｹﾝ","kana_city":"ｶﾜｻｷｼﾀｶﾂｸ","kana_address":"ﾋｻﾓﾄ","pref":"神奈川県","city":"川崎市高津区","address":"久本"},
{"zip_code":"2130002","kana_pref":"ｶﾅｶﾞﾜｹﾝ","kana_city":"ｶﾜｻｷｼﾀｶﾂｸ","kana_address":"ﾌﾀｺﾞ","pref":"神奈川県","city":"川崎市高津区","address":"二子"},
{"zip_code":"2130001","kana_pref":"ｶﾅｶﾞﾜｹﾝ","kana_city":"ｶﾜｻｷｼﾀｶﾂｸ","kana_address":"ﾐｿﾞﾉｸﾁ","pref":"神奈川県","city":"川崎市高津区","address":"溝口"},
{"zip_code":"2130035","kana_pref":"ｶﾅｶﾞﾜｹﾝ","kana_city":"ｶﾜｻｷｼﾀｶﾂｸ","kana_address":"ﾑｶｲｶﾞｵｶ","pref":"神奈川県","city":"川崎市高津区","address":"向ケ丘"}]}