{"zip_code":[
{"zip_code":"2140000","kana_pref":"ｶﾅｶﾞﾜｹﾝ","kana_city":"ｶﾜｻｷｼﾀﾏｸ","kana_address":"","pref":"神奈川県","city":"川崎市多摩区","address":""},
{"zip_code":"2140038","kana_pref":"ｶﾅｶﾞﾜｹﾝ","kana_city":"ｶﾜｻｷｼﾀﾏｸ","kana_address":"ｲｸﾀ","pref":"神奈川県","city":"川崎市多摩区","address":"生田"},
{"zip_code":"2140039","kana_pref":"ｶﾅｶﾞﾜｹﾝ","kana_city":"ｶﾜｻｷｼﾀﾏｸ","kana_address":"ｸﾘﾔ","pref":"神奈川県","city":"川崎市多摩区","address":"栗谷"},
{"zip_code":"2140021","kana_pref":"ｶﾅｶﾞﾜｹﾝ","kana_city":"ｶﾜｻｷｼﾀﾏｸ","kana_address":"ｼｭｸｶﾞﾜﾗ","pref":"神奈川県","city":"川崎市多摩区","address":"宿河原"},
{"zip_code":"2140001","kana_pref":"ｶﾅｶﾞﾜｹﾝ","kana_city":"ｶﾜｻｷｼﾀﾏｸ","kana_address":"ｽｹﾞ","pref":"神奈川県","city":"川崎市多摩区","address":"菅"},
{"zip_code":"2140003","kana_pref":"ｶﾅｶﾞﾜｹﾝ","kana_city":"ｶﾜｻｷｼﾀﾏｸ","kana_address":"ｽｹﾞｲﾅﾀﾞﾂﾞﾂﾐ","pref":"神奈川県","city":"川崎市多摩区","address":"菅稲田堤"},
{"zip_code":"2140008","kana_pref":"ｶﾅｶﾞﾜｹﾝ","kana_city":"ｶﾜｻｷｼﾀﾏｸ","kana_address":"ｽｹﾞｷﾀｳﾗ","pref":"神奈川県","city":"川崎市多摩区","address":"菅北浦"},
{"zip_code":"2140007","kana_pref":"ｶﾅｶﾞﾜｹﾝ","kana_city":"ｶﾜｻｷｼﾀﾏｸ","kana_address":"ｽｹﾞｼﾛｼﾀ","pref":"神奈川県","city":"川崎市多摩区","address":"菅城下"},
{"zip_code":"2140006","kana_pref":"ｶﾅｶﾞﾜｹﾝ","kana_city":"ｶﾜｻｷｼﾀﾏｸ","kana_address":"ｽｹﾞｾﾝｺﾞｸ","pref":"神奈川県","city":"川崎市多摩区","address":"菅仙谷"},
{"zip_code":"2140002","kana_pref":"ｶﾅｶﾞﾜｹﾝ","kana_city":"ｶﾜｻｷｼﾀﾏｸ","kana_address":"ｽｹﾞﾉﾄﾛ","pref":"神奈川県","city":"川崎市多摩区","address":"菅野戸呂"},
{"zip_code":"2140004","kana_pref":"ｶﾅｶﾞﾜｹﾝ","kana_city":"ｶﾜｻｷｼﾀﾏｸ","kana_address":"ｽｹﾞﾊﾞﾝﾊﾞ","pref":"神奈川県","city":"川崎市多摩区","address":"菅馬場"},
{"zip_code":"2140022","kana_pref":"ｶﾅｶﾞﾜｹﾝ","kana_city":"ｶﾜｻｷｼﾀﾏｸ","kana_address":"ｾｷ","pref":"神奈川県","city":"川崎市多摩区","address":"堰"},
{"zip_code":"2140005","kana_pref":"ｶﾅｶﾞﾜｹﾝ","kana_city":"ｶﾜｻｷｼﾀﾏｸ","kana_address":"ﾃﾗｵﾀﾞｲ","pref":"神奈川県","city":"川崎市多摩区","address":"寺尾台"},
{"zip_code":"2140012","kana_pref":"ｶﾅｶﾞﾜｹﾝ","kana_city":"ｶﾜｻｷｼﾀﾏｸ","kana_address":"ﾅｶﾉｼﾏ","pref":"神奈川県","city":"川崎市多摩区","address":"中野島"},
{"zip_code":"2140023","kana_pref":"ｶﾅｶﾞﾜｹﾝ","kana_city":"ｶﾜｻｷｼﾀﾏｸ","kana_address":"ﾅｶﾞｵ","pref":"神奈川県","city":"川崎市多摩区","address":"長尾"},
{"zip_code":"2140035","kana_pref":"ｶﾅｶﾞﾜｹﾝ","kana_city":"ｶﾜｻｷｼﾀﾏｸ","kana_address":"ﾅｶﾞｻﾜ","pref":"神奈川県","city":"川崎市多摩区","address":"長沢"},
{"zip_code":"2140037","kana_pref":"ｶﾅｶﾞﾜｹﾝ","kana_city":"ｶﾜｻｷｼﾀﾏｸ","kana_address":"ﾆｼｲｸﾀ","pref":"神奈川県","city":"川崎市多摩区","address":"西生田"},
{"zip_code":"2140014","kana_pref":"ｶﾅｶﾞﾜｹﾝ","kana_city":"ｶﾜｻｷｼﾀﾏｸ","kana_address":"ﾉﾎﾞﾘﾄ","pref":"神奈川県","city":"川崎市多摩区","address":"登戸"},
{"zip_code":"2140013","kana_pref":"ｶﾅｶﾞﾜｹﾝ","kana_city":"ｶﾜｻｷｼﾀﾏｸ","kana_address":"ﾉﾎﾞﾘﾄｼﾝﾏﾁ","pref":"神奈川県","city":"川崎市多摩区","address":"登戸新町"},
{"zip_code":"2140031","kana_pref":"ｶﾅｶﾞﾜｹﾝ","kana_city":"ｶﾜｻｷｼﾀﾏｸ","kana_address":"ﾋｶﾞｼｲｸﾀ","pref":"神奈川県","city":"川崎市多摩区","address":"東生田"},
{"zip_code":"2140033","kana_pref":"ｶﾅｶﾞﾜｹﾝ","kana_city":"ｶﾜｻｷｼﾀﾏｸ","kana_address":"ﾋｶﾞｼﾐﾀ","pref":"神奈川県","city":"川崎市多摩区","address":"東三田"},
{"zip_code":"2140011","kana_pref":"ｶﾅｶﾞﾜｹﾝ","kana_city":"ｶﾜｻｷｼﾀﾏｸ","kana_address":"ﾌﾀﾞ","pref":"神奈川県","city":"川崎市多摩区","address":"布田"},
{"zip_code":"2140032","kana_pref":"ｶﾅｶﾞﾜｹﾝ","kana_city":"ｶﾜｻｷｼﾀﾏｸ","kana_address":"ﾏｽｶﾞﾀ","pref":"神奈川県","city":"川崎市多摩区","address":"枡形"},
{"zip_code":"2140034","kana_pref":"ｶﾅｶﾞﾜｹﾝ","kana_city":"ｶﾜｻｷｼﾀﾏｸ","kana_address":"ﾐﾀ","pref":"神奈川県","city":"川崎市多摩区","address":"三田"},
{"zip_code":"2140036","kana_pref":"ｶﾅｶﾞﾜｹﾝ","kana_city":"ｶﾜｻｷｼﾀﾏｸ","kana_address":"ﾐﾅﾐｲｸﾀ","pref":"神奈川県","city":"川崎市多摩区","address":"南生田"}]}