{"zip_code":[
{"zip_code":"2150000","kana_pref":"ｶﾅｶﾞﾜｹﾝ","kana_city":"ｶﾜｻｷｼｱｻｵｸ","kana_address":"","pref":"神奈川県","city":"川崎市麻生区","address":""},
{"zip_code":"2150013","kana_pref":"ｶﾅｶﾞﾜｹﾝ","kana_city":"ｶﾜｻｷｼｱｻｵｸ","kana_address":"ｵｳｾﾞﾝｼﾞ","pref":"神奈川県","city":"川崎市麻生区","address":"王禅寺"},
{"zip_code":"2150017","kana_pref":"ｶﾅｶﾞﾜｹﾝ","kana_city":"ｶﾜｻｷｼｱｻｵｸ","kana_address":"ｵｳｾﾞﾝｼﾞﾆｼ","pref":"神奈川県","city":"川崎市麻生区","address":"王禅寺西"},
{"zip_code":"2150018","kana_pref":"ｶﾅｶﾞﾜｹﾝ","kana_city":"ｶﾜｻｷｼｱｻｵｸ","kana_address":"ｵｳｾﾞﾝｼﾞﾋｶﾞｼ","pref":"神奈川県","city":"川崎市麻生区","address":"王禅寺東"},
{"zip_code":"2150027","kana_pref":"ｶﾅｶﾞﾜｹﾝ","kana_city":"ｶﾜｻｷｼｱｻｵｸ","kana_address":"ｵｶｶﾞﾐ","pref":"神奈川県","city":"川崎市麻生区","address":"岡上"},
{"zip_code":"2150023","kana_pref":"ｶﾅｶﾞﾜｹﾝ","kana_city":"ｶﾜｻｷｼｱｻｵｸ","kana_address":"ｶﾀﾋﾗ","pref":"神奈川県","city":"川崎市麻生区","address":"片平"},
{"zip_code":"2150006","kana_pref":"ｶﾅｶﾞﾜｹﾝ","kana_city":"ｶﾜｻｷｼｱｻｵｸ","kana_address":"ｶﾅﾎﾄﾞ","pref":"神奈川県","city":"川崎市麻生区","address":"金程"},
{"zip_code":"2150021","kana_pref":"ｶﾅｶﾞﾜｹﾝ","kana_city":"ｶﾜｻｷｼｱｻｵｸ","kana_address":"ｶﾐｱｻｵ","pref":"神奈川県","city":"川崎市麻生区","address":"上麻生"},
{"zip_code":"2150033","kana_pref":"ｶﾅｶﾞﾜｹﾝ","kana_city":"ｶﾜｻｷｼｱｻｵｸ","kana_address":"ｸﾘｷﾞ","pref":"神奈川県","city":"川崎市麻生区","address":"栗木"},
{"zip_code":"2150032","kana_pref":"ｶﾅｶﾞﾜｹﾝ","kana_city":"ｶﾜｻｷｼｱｻｵｸ","kana_address":"ｸﾘｷﾞﾀﾞｲ","pref":"神奈川県","city":"川崎市麻生区","address":"栗木台"},
{"zip_code":"2150031","kana_pref":"ｶﾅｶﾞﾜｹﾝ","kana_city":"ｶﾜｻｷｼｱｻｵｸ","kana_address":"ｸﾘﾋﾗ","pref":"神奈川県","city":"川崎市麻生区","address":"栗平"},
{"zip_code":"2150035","kana_pref":"ｶﾅｶﾞﾜｹﾝ","kana_city":"ｶﾜｻｷｼｱｻｵｸ","kana_address":"ｸﾛｶﾜ","pref":"神奈川県","city":"川崎市麻生区","address":"黒川"},
{"zip_code":"2150025","kana_pref":"ｶﾅｶﾞﾜｹﾝ","kana_city":"ｶﾜｻｷｼｱｻｵｸ","kana_address":"ｺﾞﾘｷﾀﾞ","pref":"神奈川県","city":"川崎市麻生区","address":"五力田"},
{"zip_code":"2150022","kana_pref":"ｶﾅｶﾞﾜｹﾝ","kana_city":"ｶﾜｻｷｼｱｻｵｸ","kana_address":"ｼﾓｱｻｵ","pref":"神奈川県","city":"川崎市麻生区","address":"下麻生"},
{"zip_code":"2150024","kana_pref":"ｶﾅｶﾞﾜｹﾝ","kana_city":"ｶﾜｻｷｼｱｻｵｸ","kana_address":"ｼﾗﾄﾘ","pref":"神奈川県","city":"川崎市麻生区","address":"白鳥"},
{"zip_code":"2150003","kana_pref":"ｶﾅｶﾞﾜｹﾝ","kana_city":"ｶﾜｻｷｼｱｻｵｸ","kana_address":"ﾀｶｲｼ","pref":"神奈川県","city":"川崎市麻生区","address":"高石"},
{"zip_code":"2150002","kana_pref":"ｶﾅｶﾞﾜｹﾝ","kana_city":"ｶﾜｻｷｼｱｻｵｸ","kana_address":"ﾀﾏﾐ","pref":"神奈川県","city":"川崎市麻生区","address":"多摩美"},
{"zip_code":"2150005","kana_pref":"ｶﾅｶﾞﾜｹﾝ","kana_city":"ｶﾜｻｷｼｱｻｵｸ","kana_address":"ﾁﾖｶﾞｵｶ","pref":"神奈川県","city":"川崎市麻生区","address":"千代ケ丘"},
{"zip_code":"2150015","kana_pref":"ｶﾅｶﾞﾜｹﾝ","kana_city":"ｶﾜｻｷｼｱｻｵｸ","kana_address":"ﾆｼﾞｶﾞｵｶ","pref":"神奈川県","city":"川崎市麻生区","address":"虹ケ丘"},
{"zip_code":"2150014","kana_pref":"ｶﾅｶﾞﾜｹﾝ","kana_city":"ｶﾜｻｷｼｱｻｵｸ","kana_address":"ﾊｸｻﾝ","pref":"神奈川県","city":"川崎市麻生区","address":"白山"},
{"zip_code":"2150016","kana_pref":"ｶﾅｶﾞﾜｹﾝ","kana_city":"ｶﾜｻｷｼｱｻｵｸ","kana_address":"ﾊﾔﾉ","pref":"神奈川県","city":"川崎市麻生区","address":"早野"},
{"zip_code":"2150036","kana_pref":"ｶﾅｶﾞﾜｹﾝ","kana_city":"ｶﾜｻｷｼｱｻｵｸ","kana_address":"ﾊﾙﾋﾉ","pref":"神奈川県","city":"川崎市麻生区","address":"はるひ野"},
{"zip_code":"2150012","kana_pref":"ｶﾅｶﾞﾜｹﾝ","kana_city":"ｶﾜｻｷｼｱｻｵｸ","kana_address":"ﾋｶﾞｼﾕﾘｶﾞｵｶ","pref":"神奈川県","city":"川崎市麻生区","address":"東百合丘"},
{"zip_code":"2150026","kana_pref":"ｶﾅｶﾞﾜｹﾝ","kana_city":"ｶﾜｻｷｼｱｻｵｸ","kana_address":"ﾌﾙｻﾜ","pref":"神奈川県","city":"川崎市麻生区","address":"古沢"},
{"zip_code":"2150001","kana_pref":"ｶﾅｶﾞﾜｹﾝ","kana_city":"ｶﾜｻｷｼｱｻｵｸ","kana_address":"ﾎｿﾔﾏ","pref":"神奈川県","city":"川崎市麻生区","address":"細山"},
{"zip_code":"2150004","kana_pref":"ｶﾅｶﾞﾜｹﾝ","kana_city":"ｶﾜｻｷｼｱｻｵｸ","kana_address":"ﾏﾝﾌﾟｸｼﾞ","pref":"神奈川県","city":"川崎市麻生区","address":"万福寺"},
{"zip_code":"2150034","kana_pref":"ｶﾅｶﾞﾜｹﾝ","kana_city":"ｶﾜｻｷｼｱｻｵｸ","kana_address":"ﾐﾅﾐｸﾛｶﾜ","pref":"神奈川県","city":"川崎市麻生区","address":"南黒川"},
{"zip_code":"2150007","kana_pref":"ｶﾅｶﾞﾜｹﾝ","kana_city":"ｶﾜｻｷｼｱｻｵｸ","kana_address":"ﾑｶｲﾊﾞﾗ","pref":"神奈川県","city":"川崎市麻生区","address":"向原"},
{"zip_code":"2150011","kana_pref":"ｶﾅｶﾞﾜｹﾝ","kana_city":"ｶﾜｻｷｼｱｻｵｸ","kana_address":"ﾕﾘｶﾞｵｶ","pref":"神奈川県","city":"川崎市麻生区","address":"百合丘"}]}