{"zip_code":[
{"zip_code":"2160000","kana_pref":"ｶﾅｶﾞﾜｹﾝ","kana_city":"ｶﾜｻｷｼﾐﾔﾏｴｸ","kana_address":"","pref":"神奈川県","city":"川崎市宮前区","address":""},
{"zip_code":"2160003","kana_pref":"ｶﾅｶﾞﾜｹﾝ","kana_city":"ｶﾜｻｷｼﾐﾔﾏｴｸ","kana_address":"ｱﾘﾏ","pref":"神奈川県","city":"川崎市宮前区","address":"有馬"},
{"zip_code":"2160011","kana_pref":"ｶﾅｶﾞﾜｹﾝ","kana_city":"ｶﾜｻｷｼﾐﾔﾏｴｸ","kana_address":"ｲﾇｸﾗ","pref":"神奈川県","city":"川崎市宮前区","address":"犬蔵"},
{"zip_code":"2160034","kana_pref":"ｶﾅｶﾞﾜｹﾝ","kana_city":"ｶﾜｻｷｼﾐﾔﾏｴｸ","kana_address":"ｶｼﾞｶﾞﾔ","pref":"神奈川県","city":"川崎市宮前区","address":"梶ケ谷"},
{"zip_code":"2160023","kana_pref":"ｶﾅｶﾞﾜｹﾝ","kana_city":"ｶﾜｻｷｼﾐﾔﾏｴｸ","kana_address":"ｹﾔｷﾀﾞｲﾗ","pref":"神奈川県","city":"川崎市宮前区","address":"けやき平"},
{"zip_code":"2160021","kana_pref":"ｶﾅｶﾞﾜｹﾝ","kana_city":"ｶﾜｻｷｼﾐﾔﾏｴｸ","kana_address":"ｺﾞｼｮﾂﾞｶ","pref":"神奈川県","city":"川崎市宮前区","address":"五所塚"},
{"zip_code":"2160007","kana_pref":"ｶﾅｶﾞﾜｹﾝ","kana_city":"ｶﾜｻｷｼﾐﾔﾏｴｸ","kana_address":"ｺﾀﾞｲ","pref":"神奈川県","city":"川崎市宮前区","address":"小台"},
{"zip_code":"2160004","kana_pref":"ｶﾅｶﾞﾜｹﾝ","kana_city":"ｶﾜｻｷｼﾐﾔﾏｴｸ","kana_address":"ｻｷﾞﾇﾏ","pref":"神奈川県","city":"川崎市宮前区","address":"鷺沼"},
{"zip_code":"2160013","kana_pref":"ｶﾅｶﾞﾜｹﾝ","kana_city":"ｶﾜｻｷｼﾐﾔﾏｴｸ","kana_address":"ｼｵﾐﾀﾞｲ","pref":"神奈川県","city":"川崎市宮前区","address":"潮見台"},
{"zip_code":"2160032","kana_pref":"ｶﾅｶﾞﾜｹﾝ","kana_city":"ｶﾜｻｷｼﾐﾔﾏｴｸ","kana_address":"ｼﾎﾞｸ","pref":"神奈川県","city":"川崎市宮前区","address":"神木"},
{"zip_code":"2160031","kana_pref":"ｶﾅｶﾞﾜｹﾝ","kana_city":"ｶﾜｻｷｼﾐﾔﾏｴｸ","kana_address":"ｼﾎﾞｸﾎﾝﾁｮｳ","pref":"神奈川県","city":"川崎市宮前区","address":"神木本町"},
{"zip_code":"2160025","kana_pref":"ｶﾅｶﾞﾜｹﾝ","kana_city":"ｶﾜｻｷｼﾐﾔﾏｴｸ","kana_address":"ｼﾗﾊﾀﾀﾞｲ","pref":"神奈川県","city":"川崎市宮前区","address":"白幡台"},
{"zip_code":"2160015","kana_pref":"ｶﾅｶﾞﾜｹﾝ","kana_city":"ｶﾜｻｷｼﾐﾔﾏｴｸ","kana_address":"ｽｶﾞｵ","pref":"神奈川県","city":"川崎市宮前区","address":"菅生"},
{"zip_code":"2160014","kana_pref":"ｶﾅｶﾞﾜｹﾝ","kana_city":"ｶﾜｻｷｼﾐﾔﾏｴｸ","kana_address":"ｽｶﾞｵｶﾞｵｶ","pref":"神奈川県","city":"川崎市宮前区","address":"菅生ケ丘"},
{"zip_code":"2160022","kana_pref":"ｶﾅｶﾞﾜｹﾝ","kana_city":"ｶﾜｻｷｼﾐﾔﾏｴｸ","kana_address":"ﾀｲﾗ","pref":"神奈川県","city":"川崎市宮前区","address":"平"},
{"zip_code":"2160005","kana_pref":"ｶﾅｶﾞﾜｹﾝ","kana_city":"ｶﾜｻｷｼﾐﾔﾏｴｸ","kana_address":"ﾂﾁﾊｼ","pref":"神奈川県","city":"川崎市宮前区","address":"土橋"},
{"zip_code":"2160024","kana_pref":"ｶﾅｶﾞﾜｹﾝ","kana_city":"ｶﾜｻｷｼﾐﾔﾏｴｸ","kana_address":"ﾅﾝﾍﾟｲﾀﾞｲ","pref":"神奈川県","city":"川崎市宮前区","address":"南平台"},
{"zip_code":"2160001","kana_pref":"ｶﾅｶﾞﾜｹﾝ","kana_city":"ｶﾜｻｷｼﾐﾔﾏｴｸ","kana_address":"ﾉｶﾞﾜ","pref":"神奈川県","city":"川崎市宮前区","address":"野川"},
{"zip_code":"2160026","kana_pref":"ｶﾅｶﾞﾜｹﾝ","kana_city":"ｶﾜｻｷｼﾐﾔﾏｴｸ","kana_address":"ﾊﾂﾔﾏ","pref":"神奈川県","city":"川崎市宮前区","address":"初山"},
{"zip_code":"2160002","kana_pref":"ｶﾅｶﾞﾜｹﾝ","kana_city":"ｶﾜｻｷｼﾐﾔﾏｴｸ","kana_address":"ﾋｶﾞｼｱﾘﾏ","pref":"神奈川県","city":"川崎市宮前区","address":"東有馬"},
{"zip_code":"2160035","kana_pref":"ｶﾅｶﾞﾜｹﾝ","kana_city":"ｶﾜｻｷｼﾐﾔﾏｴｸ","kana_address":"ﾏｷﾞﾇ","pref":"神奈川県","city":"川崎市宮前区","address":"馬絹"},
{"zip_code":"2160012","kana_pref":"ｶﾅｶﾞﾜｹﾝ","kana_city":"ｶﾜｻｷｼﾐﾔﾏｴｸ","kana_address":"ﾐｽﾞｻﾜ","pref":"神奈川県","city":"川崎市宮前区","address":"水沢"},
{"zip_code":"2160033","kana_pref":"ｶﾅｶﾞﾜｹﾝ","kana_city":"ｶﾜｻｷｼﾐﾔﾏｴｸ","kana_address":"ﾐﾔｻﾞｷ","pref":"神奈川県","city":"川崎市宮前区","address":"宮崎"},
{"zip_code":"2160006","kana_pref":"ｶﾅｶﾞﾜｹﾝ","kana_city":"ｶﾜｻｷｼﾐﾔﾏｴｸ","kana_address":"ﾐﾔﾏｴﾀﾞｲﾗ","pref":"神奈川県","city":"川崎市宮前区","address":"宮前平"}]}