{"zip_code":[
{"zip_code":"2200000","kana_pref":"ｶﾅｶﾞﾜｹﾝ","kana_city":"ﾖｺﾊﾏｼﾆｼｸ","kana_address":"","pref":"神奈川県","city":"横浜市西区","address":""},
{"zip_code":"2200034","kana_pref":"ｶﾅｶﾞﾜｹﾝ","kana_city":"ﾖｺﾊﾏｼﾆｼｸ","kana_address":"ｱｶﾓﾝﾁｮｳ","pref":"神奈川県","city":"横浜市西区","address":"赤門町"},
{"zip_code":"2200033","kana_pref":"ｶﾅｶﾞﾜｹﾝ","kana_city":"ﾖｺﾊﾏｼﾆｼｸ","kana_address":"ｱｽﾞﾏｶﾞｵｶ","pref":"神奈川県","city":"横浜市西区","address":"東ケ丘"},
{"zip_code":"2200045","kana_pref":"ｶﾅｶﾞﾜｹﾝ","kana_city":"ﾖｺﾊﾏｼﾆｼｸ","kana_address":"ｲｾﾁｮｳ","pref":"神奈川県","city":"横浜市西区","address":"伊勢町"},
{"zip_code":"2200032","kana_pref":"ｶﾅｶﾞﾜｹﾝ","kana_city":"ﾖｺﾊﾏｼﾆｼｸ","kana_address":"ｵｲﾏﾂﾁｮｳ","pref":"神奈川県","city":"横浜市西区","address":"老松町"},
{"zip_code":"2200073","kana_pref":"ｶﾅｶﾞﾜｹﾝ","kana_city":"ﾖｺﾊﾏｼﾆｼｸ","kana_address":"ｵｶﾉ","pref":"神奈川県","city":"横浜市西区","address":"岡野"},
{"zip_code":"2200035","kana_pref":"ｶﾅｶﾞﾜｹﾝ","kana_city":"ﾖｺﾊﾏｼﾆｼｸ","kana_address":"ｶｽﾐｶﾞｵｶ","pref":"神奈川県","city":"横浜市西区","address":"霞ケ丘"},
{"zip_code":"2200001","kana_pref":"ｶﾅｶﾞﾜｹﾝ","kana_city":"ﾖｺﾊﾏｼﾆｼｸ","kana_address":"ｷﾀｶﾙｲｻﾞﾜ","pref":"神奈川県","city":"横浜市西区","address":"北軽井沢"},
{"zip_code":"2200004","kana_pref":"ｶﾅｶﾞﾜｹﾝ","kana_city":"ﾖｺﾊﾏｼﾆｼｸ","kana_address":"ｷﾀｻｲﾜｲ","pref":"神奈川県","city":"横浜市西区","address":"北幸"},
{"zip_code":"2200003","kana_pref":"ｶﾅｶﾞﾜｹﾝ","kana_city":"ﾖｺﾊﾏｼﾆｼｸ","kana_address":"ｸｽﾉｷﾁｮｳ","pref":"神奈川県","city":"横浜市西区","address":"楠町"},
{"zip_code":"2200061","kana_pref":"ｶﾅｶﾞﾜｹﾝ","kana_city":"ﾖｺﾊﾏｼﾆｼｸ","kana_address":"ｸﾎﾞﾁｮｳ","pref":"神奈川県","city":"横浜市西区","address":"久保町"},
{"zip_code":"2200043","kana_pref":"ｶﾅｶﾞﾜｹﾝ","kana_city":"ﾖｺﾊﾏｼﾆｼｸ","kana_address":"ｺﾞｼｮﾔﾏﾁｮｳ","pref":"神奈川県","city":"横浜市西区","address":"御所山町"},
{"zip_code":"2200054","kana_pref":"ｶﾅｶﾞﾜｹﾝ","kana_city":"ﾖｺﾊﾏｼﾆｼｸ","kana_address":"ｻｶｲﾉﾀﾆ","pref":"神奈川県","city":"横浜市西区","address":"境之谷"},
{"zip_code":"2200021","kana_pref":"ｶﾅｶﾞﾜｹﾝ","kana_city":"ﾖｺﾊﾏｼﾆｼｸ","kana_address":"ｻｸﾗｷﾞﾁｮｳ","pref":"神奈川県","city":"横浜市西区","address":"桜木町"},
{"zip_code":"2200071","kana_pref":"ｶﾅｶﾞﾜｹﾝ","kana_city":"ﾖｺﾊﾏｼﾆｼｸ","kana_address":"ｾﾝｹﾞﾝﾀﾞｲ","pref":"神奈川県","city":"横浜市西区","address":"浅間台"},
{"zip_code":"2200072","kana_pref":"ｶﾅｶﾞﾜｹﾝ","kana_city":"ﾖｺﾊﾏｼﾆｼｸ","kana_address":"ｾﾝｹﾞﾝﾁｮｳ","pref":"神奈川県","city":"横浜市西区","address":"浅間町"},
{"zip_code":"2200011","kana_pref":"ｶﾅｶﾞﾜｹﾝ","kana_city":"ﾖｺﾊﾏｼﾆｼｸ","kana_address":"ﾀｶｼﾏ","pref":"神奈川県","city":"横浜市西区","address":"高島"},
{"zip_code":"2200051","kana_pref":"ｶﾅｶﾞﾜｹﾝ","kana_city":"ﾖｺﾊﾏｼﾆｼｸ","kana_address":"ﾁｭｳｵｳ","pref":"神奈川県","city":"横浜市西区","address":"中央"},
{"zip_code":"2200042","kana_pref":"ｶﾅｶﾞﾜｹﾝ","kana_city":"ﾖｺﾊﾏｼﾆｼｸ","kana_address":"ﾄﾍﾞﾁｮｳ","pref":"神奈川県","city":"横浜市西区","address":"戸部町"},
{"zip_code":"2200041","kana_pref":"ｶﾅｶﾞﾜｹﾝ","kana_city":"ﾖｺﾊﾏｼﾆｼｸ","kana_address":"ﾄﾍﾞﾎﾝﾁｮｳ","pref":"神奈川県","city":"横浜市西区","address":"戸部本町"},
{"zip_code":"2200046","kana_pref":"ｶﾅｶﾞﾜｹﾝ","kana_city":"ﾖｺﾊﾏｼﾆｼｸ","kana_address":"ﾆｼﾄﾍﾞﾁｮｳ","pref":"神奈川県","city":"横浜市西区","address":"西戸部町"},
{"zip_code":"2200024","kana_pref":"ｶﾅｶﾞﾜｹﾝ","kana_city":"ﾖｺﾊﾏｼﾆｼｸ","kana_address":"ﾆｼﾋﾗﾇﾏﾁｮｳ","pref":"神奈川県","city":"横浜市西区","address":"西平沼町"},
{"zip_code":"2200052","kana_pref":"ｶﾅｶﾞﾜｹﾝ","kana_city":"ﾖｺﾊﾏｼﾆｼｸ","kana_address":"ﾆｼﾏｴﾁｮｳ","pref":"神奈川県","city":"横浜市西区","address":"西前町"},
{"zip_code":"2200022","kana_pref":"ｶﾅｶﾞﾜｹﾝ","kana_city":"ﾖｺﾊﾏｼﾆｼｸ","kana_address":"ﾊﾅｻｷﾁｮｳ","pref":"神奈川県","city":"横浜市西区","address":"花咲町"},
{"zip_code":"2200055","kana_pref":"ｶﾅｶﾞﾜｹﾝ","kana_city":"ﾖｺﾊﾏｼﾆｼｸ","kana_address":"ﾊﾏﾏﾂﾁｮｳ","pref":"神奈川県","city":"横浜市西区","address":"浜松町"},
{"zip_code":"2200062","kana_pref":"ｶﾅｶﾞﾜｹﾝ","kana_city":"ﾖｺﾊﾏｼﾆｼｸ","kana_address":"ﾋｶﾞｼｸﾎﾞﾁｮｳ","pref":"神奈川県","city":"横浜市西区","address":"東久保町"},
{"zip_code":"2200023","kana_pref":"ｶﾅｶﾞﾜｹﾝ","kana_city":"ﾖｺﾊﾏｼﾆｼｸ","kana_address":"ﾋﾗﾇﾏ","pref":"神奈川県","city":"横浜市西区","address":"平沼"},
{"zip_code":"2200053","kana_pref":"ｶﾅｶﾞﾜｹﾝ","kana_city":"ﾖｺﾊﾏｼﾆｼｸ","kana_address":"ﾌｼﾞﾀﾞﾅﾁｮｳ","pref":"神奈川県","city":"横浜市西区","address":"藤棚町"},
{"zip_code":"2200013","kana_pref":"ｶﾅｶﾞﾜｹﾝ","kana_city":"ﾖｺﾊﾏｼﾆｼｸ","kana_address":"ﾐﾄﾞﾘﾁｮｳ","pref":"神奈川県","city":"横浜市西区","address":"緑町"},
{"zip_code":"2200012","kana_pref":"ｶﾅｶﾞﾜｹﾝ","kana_city":"ﾖｺﾊﾏｼﾆｼｸ","kana_address":"ﾐﾅﾄﾐﾗｲ","pref":"神奈川県","city":"横浜市西区","address":"みなとみらい"},
{"zip_code":"2206090","kana_pref":"ｶﾅｶﾞﾜｹﾝ","kana_city":"ﾖｺﾊﾏｼﾆｼｸ","kana_address":"ﾐﾅﾄﾐﾗｲｸｲｰﾝｽﾞﾀﾜｰA","pref":"神奈川県","city":"横浜市西区","address":"みなとみらいクイーンズタワーＡ"},
{"zip_code":"2206001","kana_pref":"ｶﾅｶﾞﾜｹﾝ","kana_city":"ﾖｺﾊﾏｼﾆｼｸ","kana_address":"ﾐﾅﾄﾐﾗｲｸｲｰﾝｽﾞﾀﾜｰA","pref":"神奈川県","city":"横浜市西区","address":"みなとみらいクイーンズタワーＡ"},
{"zip_code":"2206002","kana_pref":"ｶﾅｶﾞﾜｹﾝ","kana_city":"ﾖｺﾊﾏｼﾆｼｸ","kana_address":"ﾐﾅﾄﾐﾗｲｸｲｰﾝｽﾞﾀﾜｰA","pref":"神奈川県","city":"横浜市西区","address":"みなとみらいクイーンズタワーＡ"},
{"zip_code":"2206003","kana_pref":"ｶﾅｶﾞﾜｹﾝ","kana_city":"ﾖｺﾊﾏｼﾆｼｸ","kana_address":"ﾐﾅﾄﾐﾗｲｸｲｰﾝｽﾞﾀﾜｰA","pref":"神奈川県","city":"横浜市西区","address":"みなとみらいクイーンズタワーＡ"},
{"zip_code":"2206004","kana_pref":"ｶﾅｶﾞﾜｹﾝ","kana_city":"ﾖｺﾊﾏｼﾆｼｸ","kana_address":"ﾐﾅﾄﾐﾗｲｸｲｰﾝｽﾞﾀﾜｰA","pref":"神奈川県","city":"横浜市西区","address":"みなとみらいクイーンズタワーＡ"},
{"zip_code":"2206005","kana_pref":"ｶﾅｶﾞﾜｹﾝ","kana_city":"ﾖｺﾊﾏｼﾆｼｸ","kana_address":"ﾐﾅﾄﾐﾗｲｸｲｰﾝｽﾞﾀﾜｰA","pref":"神奈川県","city":"横浜市西区","address":"みなとみらいクイーンズタワーＡ"},
{"zip_code":"2206006","kana_pref":"ｶﾅｶﾞﾜｹﾝ","kana_city":"ﾖｺﾊﾏｼﾆｼｸ","kana_address":"ﾐﾅﾄﾐﾗｲｸｲｰﾝｽﾞﾀﾜｰA","pref":"神奈川県","city":"横浜市西区","address":"みなとみらいクイーンズタワーＡ"},
{"zip_code":"2206007","kana_pref":"ｶﾅｶﾞﾜｹﾝ","kana_city":"ﾖｺﾊﾏｼﾆｼｸ","kana_address":"ﾐﾅﾄﾐﾗｲｸｲｰﾝｽﾞﾀﾜｰA","pref":"神奈川県","city":"横浜市西区","address":"みなとみらいクイーンズタワーＡ"},
{"zip_code":"2206008","kana_pref":"ｶﾅｶﾞﾜｹﾝ","kana_city":"ﾖｺﾊﾏｼﾆｼｸ","kana_address":"ﾐﾅﾄﾐﾗｲｸｲｰﾝｽﾞﾀﾜｰA","pref":"神奈川県","city":"横浜市西区","address":"みなとみらいクイーンズタワーＡ"},
{"zip_code":"2206009","kana_pref":"ｶﾅｶﾞﾜｹﾝ","kana_city":"ﾖｺﾊﾏｼﾆｼｸ","kana_address":"ﾐﾅﾄﾐﾗｲｸｲｰﾝｽﾞﾀﾜｰA","pref":"神奈川県","city":"横浜市西区","address":"みなとみらいクイーンズタワーＡ"},
{"zip_code":"2206010","kana_pref":"ｶﾅｶﾞﾜｹﾝ","kana_city":"ﾖｺﾊﾏｼﾆｼｸ","kana_address":"ﾐﾅﾄﾐﾗｲｸｲｰﾝｽﾞﾀﾜｰA","pref":"神奈川県","city":"横浜市西区","address":"みなとみらいクイーンズタワーＡ"},
{"zip_code":"2206011","kana_pref":"ｶﾅｶﾞﾜｹﾝ","kana_city":"ﾖｺﾊﾏｼﾆｼｸ","kana_address":"ﾐﾅﾄﾐﾗｲｸｲｰﾝｽﾞﾀﾜｰA","pref":"神奈川県","city":"横浜市西区","address":"みなとみらいクイーンズタワーＡ"},
{"zip_code":"2206012","kana_pref":"ｶﾅｶﾞﾜｹﾝ","kana_city":"ﾖｺﾊﾏｼﾆｼｸ","kana_address":"ﾐﾅﾄﾐﾗｲｸｲｰﾝｽﾞﾀﾜｰA","pref":"神奈川県","city":"横浜市西区","address":"みなとみらいクイーンズタワーＡ"},
{"zip_code":"2206013","kana_pref":"ｶﾅｶﾞﾜｹﾝ","kana_city":"ﾖｺﾊﾏｼﾆｼｸ","kana_address":"ﾐﾅﾄﾐﾗｲｸｲｰﾝｽﾞﾀﾜｰA","pref":"神奈川県","city":"横浜市西区","address":"みなとみらいクイーンズタワーＡ"},
{"zip_code":"2206014","kana_pref":"ｶﾅｶﾞﾜｹﾝ","kana_city":"ﾖｺﾊﾏｼﾆｼｸ","kana_address":"ﾐﾅﾄﾐﾗｲｸｲｰﾝｽﾞﾀﾜｰA","pref":"神奈川県","city":"横浜市西区","address":"みなとみらいクイーンズタワーＡ"},
{"zip_code":"2206015","kana_pref":"ｶﾅｶﾞﾜｹﾝ","kana_city":"ﾖｺﾊﾏｼﾆｼｸ","kana_address":"ﾐﾅﾄﾐﾗｲｸｲｰﾝｽﾞﾀﾜｰA","pref":"神奈川県","city":"横浜市西区","address":"みなとみらいクイーンズタワーＡ"},
{"zip_code":"2206016","kana_pref":"ｶﾅｶﾞﾜｹﾝ","kana_city":"ﾖｺﾊﾏｼﾆｼｸ","kana_address":"ﾐﾅﾄﾐﾗｲｸｲｰﾝｽﾞﾀﾜｰA","pref":"神奈川県","city":"横浜市西区","address":"みなとみらいクイーンズタワーＡ"},
{"zip_code":"2206017","kana_pref":"ｶﾅｶﾞﾜｹﾝ","kana_city":"ﾖｺﾊﾏｼﾆｼｸ","kana_address":"ﾐﾅﾄﾐﾗｲｸｲｰﾝｽﾞﾀﾜｰA","pref":"神奈川県","city":"横浜市西区","address":"みなとみらいクイーンズタワーＡ"},
{"zip_code":"2206018","kana_pref":"ｶﾅｶﾞﾜｹﾝ","kana_city":"ﾖｺﾊﾏｼﾆｼｸ","kana_address":"ﾐﾅﾄﾐﾗｲｸｲｰﾝｽﾞﾀﾜｰA","pref":"神奈川県","city":"横浜市西区","address":"みなとみらいクイーンズタワーＡ"},
{"zip_code":"2206019","kana_pref":"ｶﾅｶﾞﾜｹﾝ","kana_city":"ﾖｺﾊﾏｼﾆｼｸ","kana_address":"ﾐﾅﾄﾐﾗｲｸｲｰﾝｽﾞﾀﾜｰA","pref":"神奈川県","city":"横浜市西区","address":"みなとみらいクイーンズタワーＡ"},
{"zip_code":"2206020","kana_pref":"ｶﾅｶﾞﾜｹﾝ","kana_city":"ﾖｺﾊﾏｼﾆｼｸ","kana_address":"ﾐﾅﾄﾐﾗｲｸｲｰﾝｽﾞﾀﾜｰA","pref":"神奈川県","city":"横浜市西区","address":"みなとみらいクイーンズタワーＡ"},
{"zip_code":"2206021","kana_pref":"ｶﾅｶﾞﾜｹﾝ","kana_city":"ﾖｺﾊﾏｼﾆｼｸ","kana_address":"ﾐﾅﾄﾐﾗｲｸｲｰﾝｽﾞﾀﾜｰA","pref":"神奈川県","city":"横浜市西区","address":"みなとみらいクイーンズタワーＡ"},
{"zip_code":"2206022","kana_pref":"ｶﾅｶﾞﾜｹﾝ","kana_city":"ﾖｺﾊﾏｼﾆｼｸ","kana_address":"ﾐﾅﾄﾐﾗｲｸｲｰﾝｽﾞﾀﾜｰA","pref":"神奈川県","city":"横浜市西区","address":"みなとみらいクイーンズタワーＡ"},
{"zip_code":"2206023","kana_pref":"ｶﾅｶﾞﾜｹﾝ","kana_city":"ﾖｺﾊﾏｼﾆｼｸ","kana_address":"ﾐﾅﾄﾐﾗｲｸｲｰﾝｽﾞﾀﾜｰA","pref":"神奈川県","city":"横浜市西区","address":"みなとみらいクイーンズタワーＡ"},
{"zip_code":"2206024","kana_pref":"ｶﾅｶﾞﾜｹﾝ","kana_city":"ﾖｺﾊﾏｼﾆｼｸ","kana_address":"ﾐﾅﾄﾐﾗｲｸｲｰﾝｽﾞﾀﾜｰA","pref":"神奈川県","city":"横浜市西区","address":"みなとみらいクイーンズタワーＡ"},
{"zip_code":"2206025","kana_pref":"ｶﾅｶﾞﾜｹﾝ","kana_city":"ﾖｺﾊﾏｼﾆｼｸ","kana_address":"ﾐﾅﾄﾐﾗｲｸｲｰﾝｽﾞﾀﾜｰA","pref":"神奈川県","city":"横浜市西区","address":"みなとみらいクイーンズタワーＡ"},
{"zip_code":"2206026","kana_pref":"ｶﾅｶﾞﾜｹﾝ","kana_city":"ﾖｺﾊﾏｼﾆｼｸ","kana_address":"ﾐﾅﾄﾐﾗｲｸｲｰﾝｽﾞﾀﾜｰA","pref":"神奈川県","city":"横浜市西区","address":"みなとみらいクイーンズタワーＡ"},
{"zip_code":"2206027","kana_pref":"ｶﾅｶﾞﾜｹﾝ","kana_city":"ﾖｺﾊﾏｼﾆｼｸ","kana_address":"ﾐﾅﾄﾐﾗｲｸｲｰﾝｽﾞﾀﾜｰA","pref":"神奈川県","city":"横浜市西区","address":"みなとみらいクイーンズタワーＡ"},
{"zip_code":"2206028","kana_pref":"ｶﾅｶﾞﾜｹﾝ","kana_city":"ﾖｺﾊﾏｼﾆｼｸ","kana_address":"ﾐﾅﾄﾐﾗｲｸｲｰﾝｽﾞﾀﾜｰA","pref":"神奈川県","city":"横浜市西区","address":"みなとみらいクイーンズタワーＡ"},
{"zip_code":"2206029","kana_pref":"ｶﾅｶﾞﾜｹﾝ","kana_city":"ﾖｺﾊﾏｼﾆｼｸ","kana_address":"ﾐﾅﾄﾐﾗｲｸｲｰﾝｽﾞﾀﾜｰA","pref":"神奈川県","city":"横浜市西区","address":"みなとみらいクイーンズタワーＡ"},
{"zip_code":"2206030","kana_pref":"ｶﾅｶﾞﾜｹﾝ","kana_city":"ﾖｺﾊﾏｼﾆｼｸ","kana_address":"ﾐﾅﾄﾐﾗｲｸｲｰﾝｽﾞﾀﾜｰA","pref":"神奈川県","city":"横浜市西区","address":"みなとみらいクイーンズタワーＡ"},
{"zip_code":"2206031","kana_pref":"ｶﾅｶﾞﾜｹﾝ","kana_city":"ﾖｺﾊﾏｼﾆｼｸ","kana_address":"ﾐﾅﾄﾐﾗｲｸｲｰﾝｽﾞﾀﾜｰA","pref":"神奈川県","city":"横浜市西区","address":"みなとみらいクイーンズタワーＡ"},
{"zip_code":"2206032","kana_pref":"ｶﾅｶﾞﾜｹﾝ","kana_city":"ﾖｺﾊﾏｼﾆｼｸ","kana_address":"ﾐﾅﾄﾐﾗｲｸｲｰﾝｽﾞﾀﾜｰA","pref":"神奈川県","city":"横浜市西区","address":"みなとみらいクイーンズタワーＡ"},
{"zip_code":"2206033","kana_pref":"ｶﾅｶﾞﾜｹﾝ","kana_city":"ﾖｺﾊﾏｼﾆｼｸ","kana_address":"ﾐﾅﾄﾐﾗｲｸｲｰﾝｽﾞﾀﾜｰA","pref":"神奈川県","city":"横浜市西区","address":"みなとみらいクイーンズタワーＡ"},
{"zip_code":"2206034","kana_pref":"ｶﾅｶﾞﾜｹﾝ","kana_city":"ﾖｺﾊﾏｼﾆｼｸ","kana_address":"ﾐﾅﾄﾐﾗｲｸｲｰﾝｽﾞﾀﾜｰA","pref":"神奈川県","city":"横浜市西区","address":"みなとみらいクイーンズタワーＡ"},
{"zip_code":"2206035","kana_pref":"ｶﾅｶﾞﾜｹﾝ","kana_city":"ﾖｺﾊﾏｼﾆｼｸ","kana_address":"ﾐﾅﾄﾐﾗｲｸｲｰﾝｽﾞﾀﾜｰA","pref":"神奈川県","city":"横浜市西区","address":"みなとみらいクイーンズタワーＡ"},
{"zip_code":"2206190","kana_pref":"ｶﾅｶﾞﾜｹﾝ","kana_city":"ﾖｺﾊﾏｼﾆｼｸ","kana_address":"ﾐﾅﾄﾐﾗｲｸｲｰﾝｽﾞﾀﾜｰB","pref":"神奈川県","city":"横浜市西区","address":"みなとみらいクイーンズタワーＢ"},
{"zip_code":"2206101","kana_pref":"ｶﾅｶﾞﾜｹﾝ","kana_city":"ﾖｺﾊﾏｼﾆｼｸ","kana_address":"ﾐﾅﾄﾐﾗｲｸｲｰﾝｽﾞﾀﾜｰB","pref":"神奈川県","city":"横浜市西区","address":"みなとみらいクイーンズタワーＢ"},
{"zip_code":"2206102","kana_pref":"ｶﾅｶﾞﾜｹﾝ","kana_city":"ﾖｺﾊﾏｼﾆｼｸ","kana_address":"ﾐﾅﾄﾐﾗｲｸｲｰﾝｽﾞﾀﾜｰB","pref":"神奈川県","city":"横浜市西区","address":"みなとみらいクイーンズタワーＢ"},
{"zip_code":"2206103","kana_pref":"ｶﾅｶﾞﾜｹﾝ","kana_city":"ﾖｺﾊﾏｼﾆｼｸ","kana_address":"ﾐﾅﾄﾐﾗｲｸｲｰﾝｽﾞﾀﾜｰB","pref":"神奈川県","city":"横浜市西区","address":"みなとみらいクイーンズタワーＢ"},
{"zip_code":"2206104","kana_pref":"ｶﾅｶﾞﾜｹﾝ","kana_city":"ﾖｺﾊﾏｼﾆｼｸ","kana_address":"ﾐﾅﾄﾐﾗｲｸｲｰﾝｽﾞﾀﾜｰB","pref":"神奈川県","city":"横浜市西区","address":"みなとみらいクイーンズタワーＢ"},
{"zip_code":"2206105","kana_pref":"ｶﾅｶﾞﾜｹﾝ","kana_city":"ﾖｺﾊﾏｼﾆｼｸ","kana_address":"ﾐﾅﾄﾐﾗｲｸｲｰﾝｽﾞﾀﾜｰB","pref":"神奈川県","city":"横浜市西区","address":"みなとみらいクイーンズタワーＢ"},
{"zip_code":"2206106","kana_pref":"ｶﾅｶﾞﾜｹﾝ","kana_city":"ﾖｺﾊﾏｼﾆｼｸ","kana_address":"ﾐﾅﾄﾐﾗｲｸｲｰﾝｽﾞﾀﾜｰB","pref":"神奈川県","city":"横浜市西区","address":"みなとみらいクイーンズタワーＢ"},
{"zip_code":"2206107","kana_pref":"ｶﾅｶﾞﾜｹﾝ","kana_city":"ﾖｺﾊﾏｼﾆｼｸ","kana_address":"ﾐﾅﾄﾐﾗｲｸｲｰﾝｽﾞﾀﾜｰB","pref":"神奈川県","city":"横浜市西区","address":"みなとみらいクイーンズタワーＢ"},
{"zip_code":"2206108","kana_pref":"ｶﾅｶﾞﾜｹﾝ","kana_city":"ﾖｺﾊﾏｼﾆｼｸ","kana_address":"ﾐﾅﾄﾐﾗｲｸｲｰﾝｽﾞﾀﾜｰB","pref":"神奈川県","city":"横浜市西区","address":"みなとみらいクイーンズタワーＢ"},
{"zip_code":"2206109","kana_pref":"ｶﾅｶﾞﾜｹﾝ","kana_city":"ﾖｺﾊﾏｼﾆｼｸ","kana_address":"ﾐﾅﾄﾐﾗｲｸｲｰﾝｽﾞﾀﾜｰB","pref":"神奈川県","city":"横浜市西区","address":"みなとみらいクイーンズタワーＢ"},
{"zip_code":"2206110","kana_pref":"ｶﾅｶﾞﾜｹﾝ","kana_city":"ﾖｺﾊﾏｼﾆｼｸ","kana_address":"ﾐﾅﾄﾐﾗｲｸｲｰﾝｽﾞﾀﾜｰB","pref":"神奈川県","city":"横浜市西区","address":"みなとみらいクイーンズタワーＢ"},
{"zip_code":"2206111","kana_pref":"ｶﾅｶﾞﾜｹﾝ","kana_city":"ﾖｺﾊﾏｼﾆｼｸ","kana_address":"ﾐﾅﾄﾐﾗｲｸｲｰﾝｽﾞﾀﾜｰB","pref":"神奈川県","city":"横浜市西区","address":"みなとみらいクイーンズタワーＢ"},
{"zip_code":"2206112","kana_pref":"ｶﾅｶﾞﾜｹﾝ","kana_city":"ﾖｺﾊﾏｼﾆｼｸ","kana_address":"ﾐﾅﾄﾐﾗｲｸｲｰﾝｽﾞﾀﾜｰB","pref":"神奈川県","city":"横浜市西区","address":"みなとみらいクイーンズタワーＢ"},
{"zip_code":"2206113","kana_pref":"ｶﾅｶﾞﾜｹﾝ","kana_city":"ﾖｺﾊﾏｼﾆｼｸ","kana_address":"ﾐﾅﾄﾐﾗｲｸｲｰﾝｽﾞﾀﾜｰB","pref":"神奈川県","city":"横浜市西区","address":"みなとみらいクイーンズタワーＢ"},
{"zip_code":"2206114","kana_pref":"ｶﾅｶﾞﾜｹﾝ","kana_city":"ﾖｺﾊﾏｼﾆｼｸ","kana_address":"ﾐﾅﾄﾐﾗｲｸｲｰﾝｽﾞﾀﾜｰB","pref":"神奈川県","city":"横浜市西区","address":"みなとみらいクイーンズタワーＢ"},
{"zip_code":"2206115","kana_pref":"ｶﾅｶﾞﾜｹﾝ","kana_city":"ﾖｺﾊﾏｼﾆｼｸ","kana_address":"ﾐﾅﾄﾐﾗｲｸｲｰﾝｽﾞﾀﾜｰB","pref":"神奈川県","city":"横浜市西区","address":"みなとみらいクイーンズタワーＢ"},
{"zip_code":"2206116","kana_pref":"ｶﾅｶﾞﾜｹﾝ","kana_city":"ﾖｺﾊﾏｼﾆｼｸ","kana_address":"ﾐﾅﾄﾐﾗｲｸｲｰﾝｽﾞﾀﾜｰB","pref":"神奈川県","city":"横浜市西区","address":"みなとみらいクイーンズタワーＢ"},
{"zip_code":"2206117","kana_pref":"ｶﾅｶﾞﾜｹﾝ","kana_city":"ﾖｺﾊﾏｼﾆｼｸ","kana_address":"ﾐﾅﾄﾐﾗｲｸｲｰﾝｽﾞﾀﾜｰB","pref":"神奈川県","city":"横浜市西区","address":"みなとみらいクイーンズタワーＢ"},
{"zip_code":"2206118","kana_pref":"ｶﾅｶﾞﾜｹﾝ","kana_city":"ﾖｺﾊﾏｼﾆｼｸ","kana_address":"ﾐﾅﾄﾐﾗｲｸｲｰﾝｽﾞﾀﾜｰB","pref":"神奈川県","city":"横浜市西区","address":"みなとみらいクイーンズタワーＢ"},
{"zip_code":"2206119","kana_pref":"ｶﾅｶﾞﾜｹﾝ","kana_city":"ﾖｺﾊﾏｼﾆｼｸ","kana_address":"ﾐﾅﾄﾐﾗｲｸｲｰﾝｽﾞﾀﾜｰB","pref":"神奈川県","city":"横浜市西区","address":"みなとみらいクイーンズタワーＢ"},
{"zip_code":"2206120","kana_pref":"ｶﾅｶﾞﾜｹﾝ","kana_city":"ﾖｺﾊﾏｼﾆｼｸ","kana_address":"ﾐﾅﾄﾐﾗｲｸｲｰﾝｽﾞﾀﾜｰB","pref":"神奈川県","city":"横浜市西区","address":"みなとみらいクイーンズタワーＢ"},
{"zip_code":"2206121","kana_pref":"ｶﾅｶﾞﾜｹﾝ","kana_city":"ﾖｺﾊﾏｼﾆｼｸ","kana_address":"ﾐﾅﾄﾐﾗｲｸｲｰﾝｽﾞﾀﾜｰB","pref":"神奈川県","city":"横浜市西区","address":"みなとみらいクイーンズタワーＢ"},
{"zip_code":"2206122","kana_pref":"ｶﾅｶﾞﾜｹﾝ","kana_city":"ﾖｺﾊﾏｼﾆｼｸ","kana_address":"ﾐﾅﾄﾐﾗｲｸｲｰﾝｽﾞﾀﾜｰB","pref":"神奈川県","city":"横浜市西区","address":"みなとみらいクイーンズタワーＢ"},
{"zip_code":"2206123","kana_pref":"ｶﾅｶﾞﾜｹﾝ","kana_city":"ﾖｺﾊﾏｼﾆｼｸ","kana_address":"ﾐﾅﾄﾐﾗｲｸｲｰﾝｽﾞﾀﾜｰB","pref":"神奈川県","city":"横浜市西区","address":"みなとみらいクイーンズタワーＢ"},
{"zip_code":"2206124","kana_pref":"ｶﾅｶﾞﾜｹﾝ","kana_city":"ﾖｺﾊﾏｼﾆｼｸ","kana_address":"ﾐﾅﾄﾐﾗｲｸｲｰﾝｽﾞﾀﾜｰB","pref":"神奈川県","city":"横浜市西区","address":"みなとみらいクイーンズタワーＢ"},
{"zip_code":"2206125","kana_pref":"ｶﾅｶﾞﾜｹﾝ","kana_city":"ﾖｺﾊﾏｼﾆｼｸ","kana_address":"ﾐﾅﾄﾐﾗｲｸｲｰﾝｽﾞﾀﾜｰB","pref":"神奈川県","city":"横浜市西区","address":"みなとみらいクイーンズタワーＢ"},
{"zip_code":"2206126","kana_pref":"ｶﾅｶﾞﾜｹﾝ","kana_city":"ﾖｺﾊﾏｼﾆｼｸ","kana_address":"ﾐﾅﾄﾐﾗｲｸｲｰﾝｽﾞﾀﾜｰB","pref":"神奈川県","city":"横浜市西区","address":"みなとみらいクイーンズタワーＢ"},
{"zip_code":"2206127","kana_pref":"ｶﾅｶﾞﾜｹﾝ","kana_city":"ﾖｺﾊﾏｼﾆｼｸ","kana_address":"ﾐﾅﾄﾐﾗｲｸｲｰﾝｽﾞﾀﾜｰB","pref":"神奈川県","city":"横浜市西区","address":"みなとみらいクイーンズタワーＢ"},
{"zip_code":"2206128","kana_pref":"ｶﾅｶﾞﾜｹﾝ","kana_city":"ﾖｺﾊﾏｼﾆｼｸ","kana_address":"ﾐﾅﾄﾐﾗｲｸｲｰﾝｽﾞﾀﾜｰB","pref":"神奈川県","city":"横浜市西区","address":"みなとみらいクイーンズタワーＢ"},
{"zip_code":"2206290","kana_pref":"ｶﾅｶﾞﾜｹﾝ","kana_city":"ﾖｺﾊﾏｼﾆｼｸ","kana_address":"ﾐﾅﾄﾐﾗｲｸｲｰﾝｽﾞﾀﾜｰC","pref":"神奈川県","city":"横浜市西区","address":"みなとみらいクイーンズタワーＣ"},
{"zip_code":"2206201","kana_pref":"ｶﾅｶﾞﾜｹﾝ","kana_city":"ﾖｺﾊﾏｼﾆｼｸ","kana_address":"ﾐﾅﾄﾐﾗｲｸｲｰﾝｽﾞﾀﾜｰC","pref":"神奈川県","city":"横浜市西区","address":"みなとみらいクイーンズタワーＣ"},
{"zip_code":"2206202","kana_pref":"ｶﾅｶﾞﾜｹﾝ","kana_city":"ﾖｺﾊﾏｼﾆｼｸ","kana_address":"ﾐﾅﾄﾐﾗｲｸｲｰﾝｽﾞﾀﾜｰC","pref":"神奈川県","city":"横浜市西区","address":"みなとみらいクイーンズタワーＣ"},
{"zip_code":"2206203","kana_pref":"ｶﾅｶﾞﾜｹﾝ","kana_city":"ﾖｺﾊﾏｼﾆｼｸ","kana_address":"ﾐﾅﾄﾐﾗｲｸｲｰﾝｽﾞﾀﾜｰC","pref":"神奈川県","city":"横浜市西区","address":"みなとみらいクイーンズタワーＣ"},
{"zip_code":"2206204","kana_pref":"ｶﾅｶﾞﾜｹﾝ","kana_city":"ﾖｺﾊﾏｼﾆｼｸ","kana_address":"ﾐﾅﾄﾐﾗｲｸｲｰﾝｽﾞﾀﾜｰC","pref":"神奈川県","city":"横浜市西区","address":"みなとみらいクイーンズタワーＣ"},
{"zip_code":"2206205","kana_pref":"ｶﾅｶﾞﾜｹﾝ","kana_city":"ﾖｺﾊﾏｼﾆｼｸ","kana_address":"ﾐﾅﾄﾐﾗｲｸｲｰﾝｽﾞﾀﾜｰC","pref":"神奈川県","city":"横浜市西区","address":"みなとみらいクイーンズタワーＣ"},
{"zip_code":"2206206","kana_pref":"ｶﾅｶﾞﾜｹﾝ","kana_city":"ﾖｺﾊﾏｼﾆｼｸ","kana_address":"ﾐﾅﾄﾐﾗｲｸｲｰﾝｽﾞﾀﾜｰC","pref":"神奈川県","city":"横浜市西区","address":"みなとみらいクイーンズタワーＣ"},
{"zip_code":"2206207","kana_pref":"ｶﾅｶﾞﾜｹﾝ","kana_city":"ﾖｺﾊﾏｼﾆｼｸ","kana_address":"ﾐﾅﾄﾐﾗｲｸｲｰﾝｽﾞﾀﾜｰC","pref":"神奈川県","city":"横浜市西区","address":"みなとみらいクイーンズタワーＣ"},
{"zip_code":"2206208","kana_pref":"ｶﾅｶﾞﾜｹﾝ","kana_city":"ﾖｺﾊﾏｼﾆｼｸ","kana_address":"ﾐﾅﾄﾐﾗｲｸｲｰﾝｽﾞﾀﾜｰC","pref":"神奈川県","city":"横浜市西区","address":"みなとみらいクイーンズタワーＣ"},
{"zip_code":"2206209","kana_pref":"ｶﾅｶﾞﾜｹﾝ","kana_city":"ﾖｺﾊﾏｼﾆｼｸ","kana_address":"ﾐﾅﾄﾐﾗｲｸｲｰﾝｽﾞﾀﾜｰC","pref":"神奈川県","city":"横浜市西区","address":"みなとみらいクイーンズタワーＣ"},
{"zip_code":"2206210","kana_pref":"ｶﾅｶﾞﾜｹﾝ","kana_city":"ﾖｺﾊﾏｼﾆｼｸ","kana_address":"ﾐﾅﾄﾐﾗｲｸｲｰﾝｽﾞﾀﾜｰC","pref":"神奈川県","city":"横浜市西区","address":"みなとみらいクイーンズタワーＣ"},
{"zip_code":"2206211","kana_pref":"ｶﾅｶﾞﾜｹﾝ","kana_city":"ﾖｺﾊﾏｼﾆｼｸ","kana_address":"ﾐﾅﾄﾐﾗｲｸｲｰﾝｽﾞﾀﾜｰC","pref":"神奈川県","city":"横浜市西区","address":"みなとみらいクイーンズタワーＣ"},
{"zip_code":"2206212","kana_pref":"ｶﾅｶﾞﾜｹﾝ","kana_city":"ﾖｺﾊﾏｼﾆｼｸ","kana_address":"ﾐﾅﾄﾐﾗｲｸｲｰﾝｽﾞﾀﾜｰC","pref":"神奈川県","city":"横浜市西区","address":"みなとみらいクイーンズタワーＣ"},
{"zip_code":"2206213","kana_pref":"ｶﾅｶﾞﾜｹﾝ","kana_city":"ﾖｺﾊﾏｼﾆｼｸ","kana_address":"ﾐﾅﾄﾐﾗｲｸｲｰﾝｽﾞﾀﾜｰC","pref":"神奈川県","city":"横浜市西区","address":"みなとみらいクイーンズタワーＣ"},
{"zip_code":"2206214","kana_pref":"ｶﾅｶﾞﾜｹﾝ","kana_city":"ﾖｺﾊﾏｼﾆｼｸ","kana_address":"ﾐﾅﾄﾐﾗｲｸｲｰﾝｽﾞﾀﾜｰC","pref":"神奈川県","city":"横浜市西区","address":"みなとみらいクイーンズタワーＣ"},
{"zip_code":"2206215","kana_pref":"ｶﾅｶﾞﾜｹﾝ","kana_city":"ﾖｺﾊﾏｼﾆｼｸ","kana_address":"ﾐﾅﾄﾐﾗｲｸｲｰﾝｽﾞﾀﾜｰC","pref":"神奈川県","city":"横浜市西区","address":"みなとみらいクイーンズタワーＣ"},
{"zip_code":"2206216","kana_pref":"ｶﾅｶﾞﾜｹﾝ","kana_city":"ﾖｺﾊﾏｼﾆｼｸ","kana_address":"ﾐﾅﾄﾐﾗｲｸｲｰﾝｽﾞﾀﾜｰC","pref":"神奈川県","city":"横浜市西区","address":"みなとみらいクイーンズタワーＣ"},
{"zip_code":"2206217","kana_pref":"ｶﾅｶﾞﾜｹﾝ","kana_city":"ﾖｺﾊﾏｼﾆｼｸ","kana_address":"ﾐﾅﾄﾐﾗｲｸｲｰﾝｽﾞﾀﾜｰC","pref":"神奈川県","city":"横浜市西区","address":"みなとみらいクイーンズタワーＣ"},
{"zip_code":"2206218","kana_pref":"ｶﾅｶﾞﾜｹﾝ","kana_city":"ﾖｺﾊﾏｼﾆｼｸ","kana_address":"ﾐﾅﾄﾐﾗｲｸｲｰﾝｽﾞﾀﾜｰC","pref":"神奈川県","city":"横浜市西区","address":"みなとみらいクイーンズタワーＣ"},
{"zip_code":"2206219","kana_pref":"ｶﾅｶﾞﾜｹﾝ","kana_city":"ﾖｺﾊﾏｼﾆｼｸ","kana_address":"ﾐﾅﾄﾐﾗｲｸｲｰﾝｽﾞﾀﾜｰC","pref":"神奈川県","city":"横浜市西区","address":"みなとみらいクイーンズタワーＣ"},
{"zip_code":"2206220","kana_pref":"ｶﾅｶﾞﾜｹﾝ","kana_city":"ﾖｺﾊﾏｼﾆｼｸ","kana_address":"ﾐﾅﾄﾐﾗｲｸｲｰﾝｽﾞﾀﾜｰC","pref":"神奈川県","city":"横浜市西区","address":"みなとみらいクイーンズタワーＣ"},
{"zip_code":"2206221","kana_pref":"ｶﾅｶﾞﾜｹﾝ","kana_city":"ﾖｺﾊﾏｼﾆｼｸ","kana_address":"ﾐﾅﾄﾐﾗｲｸｲｰﾝｽﾞﾀﾜｰC","pref":"神奈川県","city":"横浜市西区","address":"みなとみらいクイーンズタワーＣ"},
{"zip_code":"2208190","kana_pref":"ｶﾅｶﾞﾜｹﾝ","kana_city":"ﾖｺﾊﾏｼﾆｼｸ","kana_address":"ﾐﾅﾄﾐﾗｲﾗﾝﾄﾞﾏｰｸﾀﾜｰ","pref":"神奈川県","city":"横浜市西区","address":"みなとみらいランドマークタワー"},
{"zip_code":"2208101","kana_pref":"ｶﾅｶﾞﾜｹﾝ","kana_city":"ﾖｺﾊﾏｼﾆｼｸ","kana_address":"ﾐﾅﾄﾐﾗｲﾗﾝﾄﾞﾏｰｸﾀﾜｰ","pref":"神奈川県","city":"横浜市西区","address":"みなとみらいランドマークタワー"},
{"zip_code":"2208102","kana_pref":"ｶﾅｶﾞﾜｹﾝ","kana_city":"ﾖｺﾊﾏｼﾆｼｸ","kana_address":"ﾐﾅﾄﾐﾗｲﾗﾝﾄﾞﾏｰｸﾀﾜｰ","pref":"神奈川県","city":"横浜市西区","address":"みなとみらいランドマークタワー"},
{"zip_code":"2208103","kana_pref":"ｶﾅｶﾞﾜｹﾝ","kana_city":"ﾖｺﾊﾏｼﾆｼｸ","kana_address":"ﾐﾅﾄﾐﾗｲﾗﾝﾄﾞﾏｰｸﾀﾜｰ","pref":"神奈川県","city":"横浜市西区","address":"みなとみらいランドマークタワー"},
{"zip_code":"2208104","kana_pref":"ｶﾅｶﾞﾜｹﾝ","kana_city":"ﾖｺﾊﾏｼﾆｼｸ","kana_address":"ﾐﾅﾄﾐﾗｲﾗﾝﾄﾞﾏｰｸﾀﾜｰ","pref":"神奈川県","city":"横浜市西区","address":"みなとみらいランドマークタワー"},
{"zip_code":"2208105","kana_pref":"ｶﾅｶﾞﾜｹﾝ","kana_city":"ﾖｺﾊﾏｼﾆｼｸ","kana_address":"ﾐﾅﾄﾐﾗｲﾗﾝﾄﾞﾏｰｸﾀﾜｰ","pref":"神奈川県","city":"横浜市西区","address":"みなとみらいランドマークタワー"},
{"zip_code":"2208106","kana_pref":"ｶﾅｶﾞﾜｹﾝ","kana_city":"ﾖｺﾊﾏｼﾆｼｸ","kana_address":"ﾐﾅﾄﾐﾗｲﾗﾝﾄﾞﾏｰｸﾀﾜｰ","pref":"神奈川県","city":"横浜市西区","address":"みなとみらいランドマークタワー"},
{"zip_code":"2208107","kana_pref":"ｶﾅｶﾞﾜｹﾝ","kana_city":"ﾖｺﾊﾏｼﾆｼｸ","kana_address":"ﾐﾅﾄﾐﾗｲﾗﾝﾄﾞﾏｰｸﾀﾜｰ","pref":"神奈川県","city":"横浜市西区","address":"みなとみらいランドマークタワー"},
{"zip_code":"2208108","kana_pref":"ｶﾅｶﾞﾜｹﾝ","kana_city":"ﾖｺﾊﾏｼﾆｼｸ","kana_address":"ﾐﾅﾄﾐﾗｲﾗﾝﾄﾞﾏｰｸﾀﾜｰ","pref":"神奈川県","city":"横浜市西区","address":"みなとみらいランドマークタワー"},
{"zip_code":"2208109","kana_pref":"ｶﾅｶﾞﾜｹﾝ","kana_city":"ﾖｺﾊﾏｼﾆｼｸ","kana_address":"ﾐﾅﾄﾐﾗｲﾗﾝﾄﾞﾏｰｸﾀﾜｰ","pref":"神奈川県","city":"横浜市西区","address":"みなとみらいランドマークタワー"},
{"zip_code":"2208110","kana_pref":"ｶﾅｶﾞﾜｹﾝ","kana_city":"ﾖｺﾊﾏｼﾆｼｸ","kana_address":"ﾐﾅﾄﾐﾗｲﾗﾝﾄﾞﾏｰｸﾀﾜｰ","pref":"神奈川県","city":"横浜市西区","address":"みなとみらいランドマークタワー"},
{"zip_code":"2208111","kana_pref":"ｶﾅｶﾞﾜｹﾝ","kana_city":"ﾖｺﾊﾏｼﾆｼｸ","kana_address":"ﾐﾅﾄﾐﾗｲﾗﾝﾄﾞﾏｰｸﾀﾜｰ","pref":"神奈川県","city":"横浜市西区","address":"みなとみらいランドマークタワー"},
{"zip_code":"2208112","kana_pref":"ｶﾅｶﾞﾜｹﾝ","kana_city":"ﾖｺﾊﾏｼﾆｼｸ","kana_address":"ﾐﾅﾄﾐﾗｲﾗﾝﾄﾞﾏｰｸﾀﾜｰ","pref":"神奈川県","city":"横浜市西区","address":"みなとみらいランドマークタワー"},
{"zip_code":"2208113","kana_pref":"ｶﾅｶﾞﾜｹﾝ","kana_city":"ﾖｺﾊﾏｼﾆｼｸ","kana_address":"ﾐﾅﾄﾐﾗｲﾗﾝﾄﾞﾏｰｸﾀﾜｰ","pref":"神奈川県","city":"横浜市西区","address":"みなとみらいランドマークタワー"},
{"zip_code":"2208114","kana_pref":"ｶﾅｶﾞﾜｹﾝ","kana_city":"ﾖｺﾊﾏｼﾆｼｸ","kana_address":"ﾐﾅﾄﾐﾗｲﾗﾝﾄﾞﾏｰｸﾀﾜｰ","pref":"神奈川県","city":"横浜市西区","address":"みなとみらいランドマークタワー"},
{"zip_code":"2208115","kana_pref":"ｶﾅｶﾞﾜｹﾝ","kana_city":"ﾖｺﾊﾏｼﾆｼｸ","kana_address":"ﾐﾅﾄﾐﾗｲﾗﾝﾄﾞﾏｰｸﾀﾜｰ","pref":"神奈川県","city":"横浜市西区","address":"みなとみらいランドマークタワー"},
{"zip_code":"2208116","kana_pref":"ｶﾅｶﾞﾜｹﾝ","kana_city":"ﾖｺﾊﾏｼﾆｼｸ","kana_address":"ﾐﾅﾄﾐﾗｲﾗﾝﾄﾞﾏｰｸﾀﾜｰ","pref":"神奈川県","city":"横浜市西区","address":"みなとみらいランドマークタワー"},
{"zip_code":"2208117","kana_pref":"ｶﾅｶﾞﾜｹﾝ","kana_city":"ﾖｺﾊﾏｼﾆｼｸ","kana_address":"ﾐﾅﾄﾐﾗｲﾗﾝﾄﾞﾏｰｸﾀﾜｰ","pref":"神奈川県","city":"横浜市西区","address":"みなとみらいランドマークタワー"},
{"zip_code":"2208118","kana_pref":"ｶﾅｶﾞﾜｹﾝ","kana_city":"ﾖｺﾊﾏｼﾆｼｸ","kana_address":"ﾐﾅﾄﾐﾗｲﾗﾝﾄﾞﾏｰｸﾀﾜｰ","pref":"神奈川県","city":"横浜市西区","address":"みなとみらいランドマークタワー"},
{"zip_code":"2208119","kana_pref":"ｶﾅｶﾞﾜｹﾝ","kana_city":"ﾖｺﾊﾏｼﾆｼｸ","kana_address":"ﾐﾅﾄﾐﾗｲﾗﾝﾄﾞﾏｰｸﾀﾜｰ","pref":"神奈川県","city":"横浜市西区","address":"みなとみらいランドマークタワー"},
{"zip_code":"2208120","kana_pref":"ｶﾅｶﾞﾜｹﾝ","kana_city":"ﾖｺﾊﾏｼﾆｼｸ","kana_address":"ﾐﾅﾄﾐﾗｲﾗﾝﾄﾞﾏｰｸﾀﾜｰ","pref":"神奈川県","city":"横浜市西区","address":"みなとみらいランドマークタワー"},
{"zip_code":"2208121","kana_pref":"ｶﾅｶﾞﾜｹﾝ","kana_city":"ﾖｺﾊﾏｼﾆｼｸ","kana_address":"ﾐﾅﾄﾐﾗｲﾗﾝﾄﾞﾏｰｸﾀﾜｰ","pref":"神奈川県","city":"横浜市西区","address":"みなとみらいランドマークタワー"},
{"zip_code":"2208122","kana_pref":"ｶﾅｶﾞﾜｹﾝ","kana_city":"ﾖｺﾊﾏｼﾆｼｸ","kana_address":"ﾐﾅﾄﾐﾗｲﾗﾝﾄﾞﾏｰｸﾀﾜｰ","pref":"神奈川県","city":"横浜市西区","address":"みなとみらいランドマークタワー"},
{"zip_code":"2208123","kana_pref":"ｶﾅｶﾞﾜｹﾝ","kana_city":"ﾖｺﾊﾏｼﾆｼｸ","kana_address":"ﾐﾅﾄﾐﾗｲﾗﾝﾄﾞﾏｰｸﾀﾜｰ","pref":"神奈川県","city":"横浜市西区","address":"みなとみらいランドマークタワー"},
{"zip_code":"2208124","kana_pref":"ｶﾅｶﾞﾜｹﾝ","kana_city":"ﾖｺﾊﾏｼﾆｼｸ","kana_address":"ﾐﾅﾄﾐﾗｲﾗﾝﾄﾞﾏｰｸﾀﾜｰ","pref":"神奈川県","city":"横浜市西区","address":"みなとみらいランドマークタワー"},
{"zip_code":"2208125","kana_pref":"ｶﾅｶﾞﾜｹﾝ","kana_city":"ﾖｺﾊﾏｼﾆｼｸ","kana_address":"ﾐﾅﾄﾐﾗｲﾗﾝﾄﾞﾏｰｸﾀﾜｰ","pref":"神奈川県","city":"横浜市西区","address":"みなとみらいランドマークタワー"},
{"zip_code":"2208126","kana_pref":"ｶﾅｶﾞﾜｹﾝ","kana_city":"ﾖｺﾊﾏｼﾆｼｸ","kana_address":"ﾐﾅﾄﾐﾗｲﾗﾝﾄﾞﾏｰｸﾀﾜｰ","pref":"神奈川県","city":"横浜市西区","address":"みなとみらいランドマークタワー"},
{"zip_code":"2208127","kana_pref":"ｶﾅｶﾞﾜｹﾝ","kana_city":"ﾖｺﾊﾏｼﾆｼｸ","kana_address":"ﾐﾅﾄﾐﾗｲﾗﾝﾄﾞﾏｰｸﾀﾜｰ","pref":"神奈川県","city":"横浜市西区","address":"みなとみらいランドマークタワー"},
{"zip_code":"2208128","kana_pref":"ｶﾅｶﾞﾜｹﾝ","kana_city":"ﾖｺﾊﾏｼﾆｼｸ","kana_address":"ﾐﾅﾄﾐﾗｲﾗﾝﾄﾞﾏｰｸﾀﾜｰ","pref":"神奈川県","city":"横浜市西区","address":"みなとみらいランドマークタワー"},
{"zip_code":"2208129","kana_pref":"ｶﾅｶﾞﾜｹﾝ","kana_city":"ﾖｺﾊﾏｼﾆｼｸ","kana_address":"ﾐﾅﾄﾐﾗｲﾗﾝﾄﾞﾏｰｸﾀﾜｰ","pref":"神奈川県","city":"横浜市西区","address":"みなとみらいランドマークタワー"},
{"zip_code":"2208130","kana_pref":"ｶﾅｶﾞﾜｹﾝ","kana_city":"ﾖｺﾊﾏｼﾆｼｸ","kana_address":"ﾐﾅﾄﾐﾗｲﾗﾝﾄﾞﾏｰｸﾀﾜｰ","pref":"神奈川県","city":"横浜市西区","address":"みなとみらいランドマークタワー"},
{"zip_code":"2208131","kana_pref":"ｶﾅｶﾞﾜｹﾝ","kana_city":"ﾖｺﾊﾏｼﾆｼｸ","kana_address":"ﾐﾅﾄﾐﾗｲﾗﾝﾄﾞﾏｰｸﾀﾜｰ","pref":"神奈川県","city":"横浜市西区","address":"みなとみらいランドマークタワー"},
{"zip_code":"2208132","kana_pref":"ｶﾅｶﾞﾜｹﾝ","kana_city":"ﾖｺﾊﾏｼﾆｼｸ","kana_address":"ﾐﾅﾄﾐﾗｲﾗﾝﾄﾞﾏｰｸﾀﾜｰ","pref":"神奈川県","city":"横浜市西区","address":"みなとみらいランドマークタワー"},
{"zip_code":"2208133","kana_pref":"ｶﾅｶﾞﾜｹﾝ","kana_city":"ﾖｺﾊﾏｼﾆｼｸ","kana_address":"ﾐﾅﾄﾐﾗｲﾗﾝﾄﾞﾏｰｸﾀﾜｰ","pref":"神奈川県","city":"横浜市西区","address":"みなとみらいランドマークタワー"},
{"zip_code":"2208134","kana_pref":"ｶﾅｶﾞﾜｹﾝ","kana_city":"ﾖｺﾊﾏｼﾆｼｸ","kana_address":"ﾐﾅﾄﾐﾗｲﾗﾝﾄﾞﾏｰｸﾀﾜｰ","pref":"神奈川県","city":"横浜市西区","address":"みなとみらいランドマークタワー"},
{"zip_code":"2208135","kana_pref":"ｶﾅｶﾞﾜｹﾝ","kana_city":"ﾖｺﾊﾏｼﾆｼｸ","kana_address":"ﾐﾅﾄﾐﾗｲﾗﾝﾄﾞﾏｰｸﾀﾜｰ","pref":"神奈川県","city":"横浜市西区","address":"みなとみらいランドマークタワー"},
{"zip_code":"2208136","kana_pref":"ｶﾅｶﾞﾜｹﾝ","kana_city":"ﾖｺﾊﾏｼﾆｼｸ","kana_address":"ﾐﾅﾄﾐﾗｲﾗﾝﾄﾞﾏｰｸﾀﾜｰ","pref":"神奈川県","city":"横浜市西区","address":"みなとみらいランドマークタワー"},
{"zip_code":"2208137","kana_pref":"ｶﾅｶﾞﾜｹﾝ","kana_city":"ﾖｺﾊﾏｼﾆｼｸ","kana_address":"ﾐﾅﾄﾐﾗｲﾗﾝﾄﾞﾏｰｸﾀﾜｰ","pref":"神奈川県","city":"横浜市西区","address":"みなとみらいランドマークタワー"},
{"zip_code":"2208138","kana_pref":"ｶﾅｶﾞﾜｹﾝ","kana_city":"ﾖｺﾊﾏｼﾆｼｸ","kana_address":"ﾐﾅﾄﾐﾗｲﾗﾝﾄﾞﾏｰｸﾀﾜｰ","pref":"神奈川県","city":"横浜市西区","address":"みなとみらいランドマークタワー"},
{"zip_code":"2208139","kana_pref":"ｶﾅｶﾞﾜｹﾝ","kana_city":"ﾖｺﾊﾏｼﾆｼｸ","kana_address":"ﾐﾅﾄﾐﾗｲﾗﾝﾄﾞﾏｰｸﾀﾜｰ","pref":"神奈川県","city":"横浜市西区","address":"みなとみらいランドマークタワー"},
{"zip_code":"2208140","kana_pref":"ｶﾅｶﾞﾜｹﾝ","kana_city":"ﾖｺﾊﾏｼﾆｼｸ","kana_address":"ﾐﾅﾄﾐﾗｲﾗﾝﾄﾞﾏｰｸﾀﾜｰ","pref":"神奈川県","city":"横浜市西区","address":"みなとみらいランドマークタワー"},
{"zip_code":"2208141","kana_pref":"ｶﾅｶﾞﾜｹﾝ","kana_city":"ﾖｺﾊﾏｼﾆｼｸ","kana_address":"ﾐﾅﾄﾐﾗｲﾗﾝﾄﾞﾏｰｸﾀﾜｰ","pref":"神奈川県","city":"横浜市西区","address":"みなとみらいランドマークタワー"},
{"zip_code":"2208142","kana_pref":"ｶﾅｶﾞﾜｹﾝ","kana_city":"ﾖｺﾊﾏｼﾆｼｸ","kana_address":"ﾐﾅﾄﾐﾗｲﾗﾝﾄﾞﾏｰｸﾀﾜｰ","pref":"神奈川県","city":"横浜市西区","address":"みなとみらいランドマークタワー"},
{"zip_code":"2208143","kana_pref":"ｶﾅｶﾞﾜｹﾝ","kana_city":"ﾖｺﾊﾏｼﾆｼｸ","kana_address":"ﾐﾅﾄﾐﾗｲﾗﾝﾄﾞﾏｰｸﾀﾜｰ","pref":"神奈川県","city":"横浜市西区","address":"みなとみらいランドマークタワー"},
{"zip_code":"2208144","kana_pref":"ｶﾅｶﾞﾜｹﾝ","kana_city":"ﾖｺﾊﾏｼﾆｼｸ","kana_address":"ﾐﾅﾄﾐﾗｲﾗﾝﾄﾞﾏｰｸﾀﾜｰ","pref":"神奈川県","city":"横浜市西区","address":"みなとみらいランドマークタワー"},
{"zip_code":"2208145","kana_pref":"ｶﾅｶﾞﾜｹﾝ","kana_city":"ﾖｺﾊﾏｼﾆｼｸ","kana_address":"ﾐﾅﾄﾐﾗｲﾗﾝﾄﾞﾏｰｸﾀﾜｰ","pref":"神奈川県","city":"横浜市西区","address":"みなとみらいランドマークタワー"},
{"zip_code":"2208146","kana_pref":"ｶﾅｶﾞﾜｹﾝ","kana_city":"ﾖｺﾊﾏｼﾆｼｸ","kana_address":"ﾐﾅﾄﾐﾗｲﾗﾝﾄﾞﾏｰｸﾀﾜｰ","pref":"神奈川県","city":"横浜市西区","address":"みなとみらいランドマークタワー"},
{"zip_code":"2208147","kana_pref":"ｶﾅｶﾞﾜｹﾝ","kana_city":"ﾖｺﾊﾏｼﾆｼｸ","kana_address":"ﾐﾅﾄﾐﾗｲﾗﾝﾄﾞﾏｰｸﾀﾜｰ","pref":"神奈川県","city":"横浜市西区","address":"みなとみらいランドマークタワー"},
{"zip_code":"2208148","kana_pref":"ｶﾅｶﾞﾜｹﾝ","kana_city":"ﾖｺﾊﾏｼﾆｼｸ","kana_address":"ﾐﾅﾄﾐﾗｲﾗﾝﾄﾞﾏｰｸﾀﾜｰ","pref":"神奈川県","city":"横浜市西区","address":"みなとみらいランドマークタワー"},
{"zip_code":"2208149","kana_pref":"ｶﾅｶﾞﾜｹﾝ","kana_city":"ﾖｺﾊﾏｼﾆｼｸ","kana_address":"ﾐﾅﾄﾐﾗｲﾗﾝﾄﾞﾏｰｸﾀﾜｰ","pref":"神奈川県","city":"横浜市西区","address":"みなとみらいランドマークタワー"},
{"zip_code":"2208150","kana_pref":"ｶﾅｶﾞﾜｹﾝ","kana_city":"ﾖｺﾊﾏｼﾆｼｸ","kana_address":"ﾐﾅﾄﾐﾗｲﾗﾝﾄﾞﾏｰｸﾀﾜｰ","pref":"神奈川県","city":"横浜市西区","address":"みなとみらいランドマークタワー"},
{"zip_code":"2208151","kana_pref":"ｶﾅｶﾞﾜｹﾝ","kana_city":"ﾖｺﾊﾏｼﾆｼｸ","kana_address":"ﾐﾅﾄﾐﾗｲﾗﾝﾄﾞﾏｰｸﾀﾜｰ","pref":"神奈川県","city":"横浜市西区","address":"みなとみらいランドマークタワー"},
{"zip_code":"2208152","kana_pref":"ｶﾅｶﾞﾜｹﾝ","kana_city":"ﾖｺﾊﾏｼﾆｼｸ","kana_address":"ﾐﾅﾄﾐﾗｲﾗﾝﾄﾞﾏｰｸﾀﾜｰ","pref":"神奈川県","city":"横浜市西区","address":"みなとみらいランドマークタワー"},
{"zip_code":"2208153","kana_pref":"ｶﾅｶﾞﾜｹﾝ","kana_city":"ﾖｺﾊﾏｼﾆｼｸ","kana_address":"ﾐﾅﾄﾐﾗｲﾗﾝﾄﾞﾏｰｸﾀﾜｰ","pref":"神奈川県","city":"横浜市西区","address":"みなとみらいランドマークタワー"},
{"zip_code":"2208154","kana_pref":"ｶﾅｶﾞﾜｹﾝ","kana_city":"ﾖｺﾊﾏｼﾆｼｸ","kana_address":"ﾐﾅﾄﾐﾗｲﾗﾝﾄﾞﾏｰｸﾀﾜｰ","pref":"神奈川県","city":"横浜市西区","address":"みなとみらいランドマークタワー"},
{"zip_code":"2208155","kana_pref":"ｶﾅｶﾞﾜｹﾝ","kana_city":"ﾖｺﾊﾏｼﾆｼｸ","kana_address":"ﾐﾅﾄﾐﾗｲﾗﾝﾄﾞﾏｰｸﾀﾜｰ","pref":"神奈川県","city":"横浜市西区","address":"みなとみらいランドマークタワー"},
{"zip_code":"2208156","kana_pref":"ｶﾅｶﾞﾜｹﾝ","kana_city":"ﾖｺﾊﾏｼﾆｼｸ","kana_address":"ﾐﾅﾄﾐﾗｲﾗﾝﾄﾞﾏｰｸﾀﾜｰ","pref":"神奈川県","city":"横浜市西区","address":"みなとみらいランドマークタワー"},
{"zip_code":"2208157","kana_pref":"ｶﾅｶﾞﾜｹﾝ","kana_city":"ﾖｺﾊﾏｼﾆｼｸ","kana_address":"ﾐﾅﾄﾐﾗｲﾗﾝﾄﾞﾏｰｸﾀﾜｰ","pref":"神奈川県","city":"横浜市西区","address":"みなとみらいランドマークタワー"},
{"zip_code":"2208158","kana_pref":"ｶﾅｶﾞﾜｹﾝ","kana_city":"ﾖｺﾊﾏｼﾆｼｸ","kana_address":"ﾐﾅﾄﾐﾗｲﾗﾝﾄﾞﾏｰｸﾀﾜｰ","pref":"神奈川県","city":"横浜市西区","address":"みなとみらいランドマークタワー"},
{"zip_code":"2208159","kana_pref":"ｶﾅｶﾞﾜｹﾝ","kana_city":"ﾖｺﾊﾏｼﾆｼｸ","kana_address":"ﾐﾅﾄﾐﾗｲﾗﾝﾄﾞﾏｰｸﾀﾜｰ","pref":"神奈川県","city":"横浜市西区","address":"みなとみらいランドマークタワー"},
{"zip_code":"2208160","kana_pref":"ｶﾅｶﾞﾜｹﾝ","kana_city":"ﾖｺﾊﾏｼﾆｼｸ","kana_address":"ﾐﾅﾄﾐﾗｲﾗﾝﾄﾞﾏｰｸﾀﾜｰ","pref":"神奈川県","city":"横浜市西区","address":"みなとみらいランドマークタワー"},
{"zip_code":"2208161","kana_pref":"ｶﾅｶﾞﾜｹﾝ","kana_city":"ﾖｺﾊﾏｼﾆｼｸ","kana_address":"ﾐﾅﾄﾐﾗｲﾗﾝﾄﾞﾏｰｸﾀﾜｰ","pref":"神奈川県","city":"横浜市西区","address":"みなとみらいランドマークタワー"},
{"zip_code":"2208162","kana_pref":"ｶﾅｶﾞﾜｹﾝ","kana_city":"ﾖｺﾊﾏｼﾆｼｸ","kana_address":"ﾐﾅﾄﾐﾗｲﾗﾝﾄﾞﾏｰｸﾀﾜｰ","pref":"神奈川県","city":"横浜市西区","address":"みなとみらいランドマークタワー"},
{"zip_code":"2208163","kana_pref":"ｶﾅｶﾞﾜｹﾝ","kana_city":"ﾖｺﾊﾏｼﾆｼｸ","kana_address":"ﾐﾅﾄﾐﾗｲﾗﾝﾄﾞﾏｰｸﾀﾜｰ","pref":"神奈川県","city":"横浜市西区","address":"みなとみらいランドマークタワー"},
{"zip_code":"2208164","kana_pref":"ｶﾅｶﾞﾜｹﾝ","kana_city":"ﾖｺﾊﾏｼﾆｼｸ","kana_address":"ﾐﾅﾄﾐﾗｲﾗﾝﾄﾞﾏｰｸﾀﾜｰ","pref":"神奈川県","city":"横浜市西区","address":"みなとみらいランドマークタワー"},
{"zip_code":"2208165","kana_pref":"ｶﾅｶﾞﾜｹﾝ","kana_city":"ﾖｺﾊﾏｼﾆｼｸ","kana_address":"ﾐﾅﾄﾐﾗｲﾗﾝﾄﾞﾏｰｸﾀﾜｰ","pref":"神奈川県","city":"横浜市西区","address":"みなとみらいランドマークタワー"},
{"zip_code":"2208166","kana_pref":"ｶﾅｶﾞﾜｹﾝ","kana_city":"ﾖｺﾊﾏｼﾆｼｸ","kana_address":"ﾐﾅﾄﾐﾗｲﾗﾝﾄﾞﾏｰｸﾀﾜｰ","pref":"神奈川県","city":"横浜市西区","address":"みなとみらいランドマークタワー"},
{"zip_code":"2208167","kana_pref":"ｶﾅｶﾞﾜｹﾝ","kana_city":"ﾖｺﾊﾏｼﾆｼｸ","kana_address":"ﾐﾅﾄﾐﾗｲﾗﾝﾄﾞﾏｰｸﾀﾜｰ","pref":"神奈川県","city":"横浜市西区","address":"みなとみらいランドマークタワー"},
{"zip_code":"2208168","kana_pref":"ｶﾅｶﾞﾜｹﾝ","kana_city":"ﾖｺﾊﾏｼﾆｼｸ","kana_address":"ﾐﾅﾄﾐﾗｲﾗﾝﾄﾞﾏｰｸﾀﾜｰ","pref":"神奈川県","city":"横浜市西区","address":"みなとみらいランドマークタワー"},
{"zip_code":"2208169","kana_pref":"ｶﾅｶﾞﾜｹﾝ","kana_city":"ﾖｺﾊﾏｼﾆｼｸ","kana_address":"ﾐﾅﾄﾐﾗｲﾗﾝﾄﾞﾏｰｸﾀﾜｰ","pref":"神奈川県","city":"横浜市西区","address":"みなとみらいランドマークタワー"},
{"zip_code":"2208170","kana_pref":"ｶﾅｶﾞﾜｹﾝ","kana_city":"ﾖｺﾊﾏｼﾆｼｸ","kana_address":"ﾐﾅﾄﾐﾗｲﾗﾝﾄﾞﾏｰｸﾀﾜｰ","pref":"神奈川県","city":"横浜市西区","address":"みなとみらいランドマークタワー"},
{"zip_code":"2200002","kana_pref":"ｶﾅｶﾞﾜｹﾝ","kana_city":"ﾖｺﾊﾏｼﾆｼｸ","kana_address":"ﾐﾅﾐｶﾙｲｻﾞﾜ","pref":"神奈川県","city":"横浜市西区","address":"南軽井沢"},
{"zip_code":"2200005","kana_pref":"ｶﾅｶﾞﾜｹﾝ","kana_city":"ﾖｺﾊﾏｼﾆｼｸ","kana_address":"ﾐﾅﾐｻｲﾜｲ","pref":"神奈川県","city":"横浜市西区","address":"南幸"},
{"zip_code":"2200074","kana_pref":"ｶﾅｶﾞﾜｹﾝ","kana_city":"ﾖｺﾊﾏｼﾆｼｸ","kana_address":"ﾐﾅﾐｾﾝｹﾞﾝﾁｮｳ","pref":"神奈川県","city":"横浜市西区","address":"南浅間町"},
{"zip_code":"2200006","kana_pref":"ｶﾅｶﾞﾜｹﾝ","kana_city":"ﾖｺﾊﾏｼﾆｼｸ","kana_address":"ﾐﾔｶﾞﾔ","pref":"神奈川県","city":"横浜市西区","address":"宮ケ谷"},
{"zip_code":"2200031","kana_pref":"ｶﾅｶﾞﾜｹﾝ","kana_city":"ﾖｺﾊﾏｼﾆｼｸ","kana_address":"ﾐﾔｻﾞｷﾁｮｳ","pref":"神奈川県","city":"横浜市西区","address":"宮崎町"},
{"zip_code":"2200063","kana_pref":"ｶﾅｶﾞﾜｹﾝ","kana_city":"ﾖｺﾊﾏｼﾆｼｸ","kana_address":"ﾓﾄｸﾎﾞﾁｮｳ","pref":"神奈川県","city":"横浜市西区","address":"元久保町"},
{"zip_code":"2200044","kana_pref":"ｶﾅｶﾞﾜｹﾝ","kana_city":"ﾖｺﾊﾏｼﾆｼｸ","kana_address":"ﾓﾐｼﾞｶﾞｵｶ","pref":"神奈川県","city":"横浜市西区","address":"紅葉ケ丘"}]}