{"zip_code":[
{"zip_code":"2210000","kana_pref":"ｶﾅｶﾞﾜｹﾝ","kana_city":"ﾖｺﾊﾏｼｶﾅｶﾞﾜｸ","kana_address":"","pref":"神奈川県","city":"横浜市神奈川区","address":""},
{"zip_code":"2210057","kana_pref":"ｶﾅｶﾞﾜｹﾝ","kana_city":"ﾖｺﾊﾏｼｶﾅｶﾞﾜｸ","kana_address":"ｱｵｷﾁｮｳ","pref":"神奈川県","city":"横浜市神奈川区","address":"青木町"},
{"zip_code":"2210814","kana_pref":"ｶﾅｶﾞﾜｹﾝ","kana_city":"ﾖｺﾊﾏｼｶﾅｶﾞﾜｸ","kana_address":"ｱｻﾋｶﾞｵｶ","pref":"神奈川県","city":"横浜市神奈川区","address":"旭ケ丘"},
{"zip_code":"2210032","kana_pref":"ｶﾅｶﾞﾜｹﾝ","kana_city":"ﾖｺﾊﾏｼｶﾅｶﾞﾜｸ","kana_address":"ｲｽﾞﾀﾁｮｳ","pref":"神奈川県","city":"横浜市神奈川区","address":"出田町"},
{"zip_code":"2210842","kana_pref":"ｶﾅｶﾞﾜｹﾝ","kana_city":"ﾖｺﾊﾏｼｶﾅｶﾞﾜｸ","kana_address":"ｲｽﾞﾐﾁｮｳ","pref":"神奈川県","city":"横浜市神奈川区","address":"泉町"},
{"zip_code":"2210014","kana_pref":"ｶﾅｶﾞﾜｹﾝ","kana_city":"ﾖｺﾊﾏｼｶﾅｶﾞﾜｸ","kana_address":"ｲﾘｴ","pref":"神奈川県","city":"横浜市神奈川区","address":"入江"},
{"zip_code":"2210062","kana_pref":"ｶﾅｶﾞﾜｹﾝ","kana_city":"ﾖｺﾊﾏｼｶﾅｶﾞﾜｸ","kana_address":"ｳﾗｼﾏｵｶ","pref":"神奈川県","city":"横浜市神奈川区","address":"浦島丘"},
{"zip_code":"2210042","kana_pref":"ｶﾅｶﾞﾜｹﾝ","kana_city":"ﾖｺﾊﾏｼｶﾅｶﾞﾜｸ","kana_address":"ｳﾗｼﾏﾁｮｳ","pref":"神奈川県","city":"横浜市神奈川区","address":"浦島町"},
{"zip_code":"2210024","kana_pref":"ｶﾅｶﾞﾜｹﾝ","kana_city":"ﾖｺﾊﾏｼｶﾅｶﾞﾜｸ","kana_address":"ｴﾋﾞｽﾁｮｳ","pref":"神奈川県","city":"横浜市神奈川区","address":"恵比須町"},
{"zip_code":"2210002","kana_pref":"ｶﾅｶﾞﾜｹﾝ","kana_city":"ﾖｺﾊﾏｼｶﾅｶﾞﾜｸ","kana_address":"ｵｵｸﾞﾁﾄﾞｵﾘ","pref":"神奈川県","city":"横浜市神奈川区","address":"大口通"},
{"zip_code":"2210003","kana_pref":"ｶﾅｶﾞﾜｹﾝ","kana_city":"ﾖｺﾊﾏｼｶﾅｶﾞﾜｸ","kana_address":"ｵｵｸﾞﾁﾅｶﾏﾁ","pref":"神奈川県","city":"横浜市神奈川区","address":"大口仲町"},
{"zip_code":"2210055","kana_pref":"ｶﾅｶﾞﾜｹﾝ","kana_city":"ﾖｺﾊﾏｼｶﾅｶﾞﾜｸ","kana_address":"ｵｵﾉﾁｮｳ","pref":"神奈川県","city":"横浜市神奈川区","address":"大野町"},
{"zip_code":"2210865","kana_pref":"ｶﾅｶﾞﾜｹﾝ","kana_city":"ﾖｺﾊﾏｼｶﾅｶﾞﾜｸ","kana_address":"ｶﾀｸﾗ","pref":"神奈川県","city":"横浜市神奈川区","address":"片倉"},
{"zip_code":"2210045","kana_pref":"ｶﾅｶﾞﾜｹﾝ","kana_city":"ﾖｺﾊﾏｼｶﾅｶﾞﾜｸ","kana_address":"ｶﾅｶﾞﾜ","pref":"神奈川県","city":"横浜市神奈川区","address":"神奈川"},
{"zip_code":"2210046","kana_pref":"ｶﾅｶﾞﾜｹﾝ","kana_city":"ﾖｺﾊﾏｼｶﾅｶﾞﾜｸ","kana_address":"ｶﾅｶﾞﾜﾎﾝﾁｮｳ","pref":"神奈川県","city":"横浜市神奈川区","address":"神奈川本町"},
{"zip_code":"2210831","kana_pref":"ｶﾅｶﾞﾜｹﾝ","kana_city":"ﾖｺﾊﾏｼｶﾅｶﾞﾜｸ","kana_address":"ｶﾐﾀﾝﾏﾁ","pref":"神奈川県","city":"横浜市神奈川区","address":"上反町"},
{"zip_code":"2210011","kana_pref":"ｶﾅｶﾞﾜｹﾝ","kana_city":"ﾖｺﾊﾏｼｶﾅｶﾞﾜｸ","kana_address":"ｶﾐﾉｷﾀﾞｲ","pref":"神奈川県","city":"横浜市神奈川区","address":"神之木台"},
{"zip_code":"2210015","kana_pref":"ｶﾅｶﾞﾜｹﾝ","kana_city":"ﾖｺﾊﾏｼｶﾅｶﾞﾜｸ","kana_address":"ｶﾐﾉｷﾁｮｳ","pref":"神奈川県","city":"横浜市神奈川区","address":"神之木町"},
{"zip_code":"2210041","kana_pref":"ｶﾅｶﾞﾜｹﾝ","kana_city":"ﾖｺﾊﾏｼｶﾅｶﾞﾜｸ","kana_address":"ｶﾒｽﾞﾐﾁｮｳ","pref":"神奈川県","city":"横浜市神奈川区","address":"亀住町"},
{"zip_code":"2210801","kana_pref":"ｶﾅｶﾞﾜｹﾝ","kana_city":"ﾖｺﾊﾏｼｶﾅｶﾞﾜｸ","kana_address":"ｶﾝﾀﾞｲｼﾞ","pref":"神奈川県","city":"横浜市神奈川区","address":"神大寺"},
{"zip_code":"2210832","kana_pref":"ｶﾅｶﾞﾜｹﾝ","kana_city":"ﾖｺﾊﾏｼｶﾅｶﾞﾜｸ","kana_address":"ｷﾘﾊﾞﾀｹ","pref":"神奈川県","city":"横浜市神奈川区","address":"桐畑"},
{"zip_code":"2210056","kana_pref":"ｶﾅｶﾞﾜｹﾝ","kana_city":"ﾖｺﾊﾏｼｶﾅｶﾞﾜｸ","kana_address":"ｷﾝｺｳﾁｮｳ","pref":"神奈川県","city":"横浜市神奈川区","address":"金港町"},
{"zip_code":"2210804","kana_pref":"ｶﾅｶﾞﾜｹﾝ","kana_city":"ﾖｺﾊﾏｼｶﾅｶﾞﾜｸ","kana_address":"ｸﾘﾀﾔ","pref":"神奈川県","city":"横浜市神奈川区","address":"栗田谷"},
{"zip_code":"2210051","kana_pref":"ｶﾅｶﾞﾜｹﾝ","kana_city":"ﾖｺﾊﾏｼｶﾅｶﾞﾜｸ","kana_address":"ｺｳｶﾞﾔ","pref":"神奈川県","city":"横浜市神奈川区","address":"幸ケ谷"},
{"zip_code":"2210012","kana_pref":"ｶﾅｶﾞﾜｹﾝ","kana_city":"ﾖｺﾊﾏｼｶﾅｶﾞﾜｸ","kana_address":"ｺﾔｽﾀﾞｲ","pref":"神奈川県","city":"横浜市神奈川区","address":"子安台"},
{"zip_code":"2210021","kana_pref":"ｶﾅｶﾞﾜｹﾝ","kana_city":"ﾖｺﾊﾏｼｶﾅｶﾞﾜｸ","kana_address":"ｺﾔｽﾄﾞｵﾘ","pref":"神奈川県","city":"横浜市神奈川区","address":"子安通"},
{"zip_code":"2210811","kana_pref":"ｶﾅｶﾞﾜｹﾝ","kana_city":"ﾖｺﾊﾏｼｶﾅｶﾞﾜｸ","kana_address":"ｻｲﾄｳﾌﾞﾝﾁｮｳ","pref":"神奈川県","city":"横浜市神奈川区","address":"斎藤分町"},
{"zip_code":"2210052","kana_pref":"ｶﾅｶﾞﾜｹﾝ","kana_city":"ﾖｺﾊﾏｼｶﾅｶﾞﾜｸ","kana_address":"ｻｶｴﾁｮｳ","pref":"神奈川県","city":"横浜市神奈川区","address":"栄町"},
{"zip_code":"2210844","kana_pref":"ｶﾅｶﾞﾜｹﾝ","kana_city":"ﾖｺﾊﾏｼｶﾅｶﾞﾜｸ","kana_address":"ｻﾜﾀﾘ","pref":"神奈川県","city":"横浜市神奈川区","address":"沢渡"},
{"zip_code":"2210862","kana_pref":"ｶﾅｶﾞﾜｹﾝ","kana_city":"ﾖｺﾊﾏｼｶﾅｶﾞﾜｸ","kana_address":"ｻﾝﾏｲﾁｮｳ","pref":"神奈川県","city":"横浜市神奈川区","address":"三枚町"},
{"zip_code":"2210075","kana_pref":"ｶﾅｶﾞﾜｹﾝ","kana_city":"ﾖｺﾊﾏｼｶﾅｶﾞﾜｸ","kana_address":"ｼﾗﾊﾀｶﾐﾁｮｳ","pref":"神奈川県","city":"横浜市神奈川区","address":"白幡上町"},
{"zip_code":"2210071","kana_pref":"ｶﾅｶﾞﾜｹﾝ","kana_city":"ﾖｺﾊﾏｼｶﾅｶﾞﾜｸ","kana_address":"ｼﾗﾊﾀﾅｶﾁｮｳ","pref":"神奈川県","city":"横浜市神奈川区","address":"白幡仲町"},
{"zip_code":"2210072","kana_pref":"ｶﾅｶﾞﾜｹﾝ","kana_city":"ﾖｺﾊﾏｼｶﾅｶﾞﾜｸ","kana_address":"ｼﾗﾊﾀﾋｶﾞｼﾁｮｳ","pref":"神奈川県","city":"横浜市神奈川区","address":"白幡東町"},
{"zip_code":"2210074","kana_pref":"ｶﾅｶﾞﾜｹﾝ","kana_city":"ﾖｺﾊﾏｼｶﾅｶﾞﾜｸ","kana_address":"ｼﾗﾊﾀﾆｼﾁｮｳ","pref":"神奈川県","city":"横浜市神奈川区","address":"白幡西町"},
{"zip_code":"2210073","kana_pref":"ｶﾅｶﾞﾜｹﾝ","kana_city":"ﾖｺﾊﾏｼｶﾅｶﾞﾜｸ","kana_address":"ｼﾗﾊﾀﾐﾅﾐﾁｮｳ","pref":"神奈川県","city":"横浜市神奈川区","address":"白幡南町"},
{"zip_code":"2210077","kana_pref":"ｶﾅｶﾞﾜｹﾝ","kana_city":"ﾖｺﾊﾏｼｶﾅｶﾞﾜｸ","kana_address":"ｼﾗﾊﾀﾑｶｲﾁｮｳ","pref":"神奈川県","city":"横浜市神奈川区","address":"白幡向町"},
{"zip_code":"2210076","kana_pref":"ｶﾅｶﾞﾜｹﾝ","kana_city":"ﾖｺﾊﾏｼｶﾅｶﾞﾜｸ","kana_address":"ｼﾗﾊﾀﾁｮｳ","pref":"神奈川県","city":"横浜市神奈川区","address":"白幡町"},
{"zip_code":"2210031","kana_pref":"ｶﾅｶﾞﾜｹﾝ","kana_city":"ﾖｺﾊﾏｼｶﾅｶﾞﾜｸ","kana_address":"ｼﾝｳﾗｼﾏﾁｮｳ","pref":"神奈川県","city":"横浜市神奈川区","address":"新浦島町"},
{"zip_code":"2210013","kana_pref":"ｶﾅｶﾞﾜｹﾝ","kana_city":"ﾖｺﾊﾏｼｶﾅｶﾞﾜｸ","kana_address":"ｼﾝｺﾔｽ","pref":"神奈川県","city":"横浜市神奈川区","address":"新子安"},
{"zip_code":"2210043","kana_pref":"ｶﾅｶﾞﾜｹﾝ","kana_city":"ﾖｺﾊﾏｼｶﾅｶﾞﾜｸ","kana_address":"ｼﾝﾏﾁ","pref":"神奈川県","city":"横浜市神奈川区","address":"新町"},
{"zip_code":"2210864","kana_pref":"ｶﾅｶﾞﾜｹﾝ","kana_city":"ﾖｺﾊﾏｼｶﾅｶﾞﾜｸ","kana_address":"ｽｹﾞﾀﾁｮｳ","pref":"神奈川県","city":"横浜市神奈川区","address":"菅田町"},
{"zip_code":"2210033","kana_pref":"ｶﾅｶﾞﾜｹﾝ","kana_city":"ﾖｺﾊﾏｼｶﾅｶﾞﾜｸ","kana_address":"ｽｽﾞｼｹﾞﾁｮｳ","pref":"神奈川県","city":"横浜市神奈川区","address":"鈴繁町"},
{"zip_code":"2210834","kana_pref":"ｶﾅｶﾞﾜｹﾝ","kana_city":"ﾖｺﾊﾏｼｶﾅｶﾞﾜｸ","kana_address":"ﾀﾞｲﾏﾁ","pref":"神奈川県","city":"横浜市神奈川区","address":"台町"},
{"zip_code":"2210833","kana_pref":"ｶﾅｶﾞﾜｹﾝ","kana_city":"ﾖｺﾊﾏｼｶﾅｶﾞﾜｸ","kana_address":"ﾀｶｼﾏﾀﾞｲ","pref":"神奈川県","city":"横浜市神奈川区","address":"高島台"},
{"zip_code":"2210023","kana_pref":"ｶﾅｶﾞﾜｹﾝ","kana_city":"ﾖｺﾊﾏｼｶﾅｶﾞﾜｸ","kana_address":"ﾀｶﾗﾁｮｳ","pref":"神奈川県","city":"横浜市神奈川区","address":"宝町"},
{"zip_code":"2210063","kana_pref":"ｶﾅｶﾞﾜｹﾝ","kana_city":"ﾖｺﾊﾏｼｶﾅｶﾞﾜｸ","kana_address":"ﾀﾃﾏﾁ","pref":"神奈川県","city":"横浜市神奈川区","address":"立町"},
{"zip_code":"2210825","kana_pref":"ｶﾅｶﾞﾜｹﾝ","kana_city":"ﾖｺﾊﾏｼｶﾅｶﾞﾜｸ","kana_address":"ﾀﾝﾏﾁ","pref":"神奈川県","city":"横浜市神奈川区","address":"反町"},
{"zip_code":"2210036","kana_pref":"ｶﾅｶﾞﾜｹﾝ","kana_city":"ﾖｺﾊﾏｼｶﾅｶﾞﾜｸ","kana_address":"ﾁﾜｶﾁｮｳ","pref":"神奈川県","city":"横浜市神奈川区","address":"千若町"},
{"zip_code":"2210835","kana_pref":"ｶﾅｶﾞﾜｹﾝ","kana_city":"ﾖｺﾊﾏｼｶﾅｶﾞﾜｸ","kana_address":"ﾂﾙﾔﾁｮｳ","pref":"神奈川県","city":"横浜市神奈川区","address":"鶴屋町"},
{"zip_code":"2210821","kana_pref":"ｶﾅｶﾞﾜｹﾝ","kana_city":"ﾖｺﾊﾏｼｶﾅｶﾞﾜｸ","kana_address":"ﾄﾐﾔﾁｮｳ","pref":"神奈川県","city":"横浜市神奈川区","address":"富家町"},
{"zip_code":"2210064","kana_pref":"ｶﾅｶﾞﾜｹﾝ","kana_city":"ﾖｺﾊﾏｼｶﾅｶﾞﾜｸ","kana_address":"ﾄﾘｺﾞｴ","pref":"神奈川県","city":"横浜市神奈川区","address":"鳥越"},
{"zip_code":"2210803","kana_pref":"ｶﾅｶﾞﾜｹﾝ","kana_city":"ﾖｺﾊﾏｼｶﾅｶﾞﾜｸ","kana_address":"ﾅｶﾏﾙ","pref":"神奈川県","city":"横浜市神奈川区","address":"中丸"},
{"zip_code":"2210061","kana_pref":"ｶﾅｶﾞﾜｹﾝ","kana_city":"ﾖｺﾊﾏｼｶﾅｶﾞﾜｸ","kana_address":"ﾅﾅｼﾏﾁｮｳ","pref":"神奈川県","city":"横浜市神奈川区","address":"七島町"},
{"zip_code":"2210004","kana_pref":"ｶﾅｶﾞﾜｹﾝ","kana_city":"ﾖｺﾊﾏｼｶﾅｶﾞﾜｸ","kana_address":"ﾆｼｵｵｸﾞﾁ","pref":"神奈川県","city":"横浜市神奈川区","address":"西大口"},
{"zip_code":"2210822","kana_pref":"ｶﾅｶﾞﾜｹﾝ","kana_city":"ﾖｺﾊﾏｼｶﾅｶﾞﾜｸ","kana_address":"ﾆｼｶﾅｶﾞﾜ","pref":"神奈川県","city":"横浜市神奈川区","address":"西神奈川"},
{"zip_code":"2210001","kana_pref":"ｶﾅｶﾞﾜｹﾝ","kana_city":"ﾖｺﾊﾏｼｶﾅｶﾞﾜｸ","kana_address":"ﾆｼﾃﾗｵ","pref":"神奈川県","city":"横浜市神奈川区","address":"西寺尾"},
{"zip_code":"2210813","kana_pref":"ｶﾅｶﾞﾜｹﾝ","kana_city":"ﾖｺﾊﾏｼｶﾅｶﾞﾜｸ","kana_address":"ﾆﾎﾝｴﾉｷ","pref":"神奈川県","city":"横浜市神奈川区","address":"二本榎"},
{"zip_code":"2210065","kana_pref":"ｶﾅｶﾞﾜｹﾝ","kana_city":"ﾖｺﾊﾏｼｶﾅｶﾞﾜｸ","kana_address":"ﾊｸﾗｸ","pref":"神奈川県","city":"横浜市神奈川区","address":"白楽"},
{"zip_code":"2210863","kana_pref":"ｶﾅｶﾞﾜｹﾝ","kana_city":"ﾖｺﾊﾏｼｶﾅｶﾞﾜｸ","kana_address":"ﾊｻﾞﾜﾁｮｳ","pref":"神奈川県","city":"横浜市神奈川区","address":"羽沢町"},
{"zip_code":"2210866","kana_pref":"ｶﾅｶﾞﾜｹﾝ","kana_city":"ﾖｺﾊﾏｼｶﾅｶﾞﾜｸ","kana_address":"ﾊｻﾞﾜﾐﾅﾐ","pref":"神奈川県","city":"横浜市神奈川区","address":"羽沢南"},
{"zip_code":"2210053","kana_pref":"ｶﾅｶﾞﾜｹﾝ","kana_city":"ﾖｺﾊﾏｼｶﾅｶﾞﾜｸ","kana_address":"ﾊｼﾓﾄﾁｮｳ","pref":"神奈川県","city":"横浜市神奈川区","address":"橋本町"},
{"zip_code":"2210044","kana_pref":"ｶﾅｶﾞﾜｹﾝ","kana_city":"ﾖｺﾊﾏｼｶﾅｶﾞﾜｸ","kana_address":"ﾋｶﾞｼｶﾅｶﾞﾜ","pref":"神奈川県","city":"横浜市神奈川区","address":"東神奈川"},
{"zip_code":"2210812","kana_pref":"ｶﾅｶﾞﾜｹﾝ","kana_city":"ﾖｺﾊﾏｼｶﾅｶﾞﾜｸ","kana_address":"ﾋﾗｶﾜﾁｮｳ","pref":"神奈川県","city":"横浜市神奈川区","address":"平川町"},
{"zip_code":"2210824","kana_pref":"ｶﾅｶﾞﾜｹﾝ","kana_city":"ﾖｺﾊﾏｼｶﾅｶﾞﾜｸ","kana_address":"ﾋﾛﾀﾞｲｵｵﾀﾏﾁ","pref":"神奈川県","city":"横浜市神奈川区","address":"広台太田町"},
{"zip_code":"2210823","kana_pref":"ｶﾅｶﾞﾜｹﾝ","kana_city":"ﾖｺﾊﾏｼｶﾅｶﾞﾜｸ","kana_address":"ﾌﾀﾂﾔﾁｮｳ","pref":"神奈川県","city":"横浜市神奈川区","address":"二ツ谷町"},
{"zip_code":"2210035","kana_pref":"ｶﾅｶﾞﾜｹﾝ","kana_city":"ﾖｺﾊﾏｼｶﾅｶﾞﾜｸ","kana_address":"ﾎｼﾉﾁｮｳ","pref":"神奈川県","city":"横浜市神奈川区","address":"星野町"},
{"zip_code":"2210843","kana_pref":"ｶﾅｶﾞﾜｹﾝ","kana_city":"ﾖｺﾊﾏｼｶﾅｶﾞﾜｸ","kana_address":"ﾏﾂｶﾞｵｶ","pref":"神奈川県","city":"横浜市神奈川区","address":"松ケ丘"},
{"zip_code":"2210005","kana_pref":"ｶﾅｶﾞﾜｹﾝ","kana_city":"ﾖｺﾊﾏｼｶﾅｶﾞﾜｸ","kana_address":"ﾏﾂﾐﾁｮｳ","pref":"神奈川県","city":"横浜市神奈川区","address":"松見町"},
{"zip_code":"2210841","kana_pref":"ｶﾅｶﾞﾜｹﾝ","kana_city":"ﾖｺﾊﾏｼｶﾅｶﾞﾜｸ","kana_address":"ﾏﾂﾓﾄﾁｮｳ","pref":"神奈川県","city":"横浜市神奈川区","address":"松本町"},
{"zip_code":"2210034","kana_pref":"ｶﾅｶﾞﾜｹﾝ","kana_city":"ﾖｺﾊﾏｼｶﾅｶﾞﾜｸ","kana_address":"ﾐｽﾞﾎﾁｮｳ","pref":"神奈川県","city":"横浜市神奈川区","address":"瑞穂町"},
{"zip_code":"2210856","kana_pref":"ｶﾅｶﾞﾜｹﾝ","kana_city":"ﾖｺﾊﾏｼｶﾅｶﾞﾜｸ","kana_address":"ﾐﾂｻﾞﾜｶﾐﾏﾁ","pref":"神奈川県","city":"横浜市神奈川区","address":"三ツ沢上町"},
{"zip_code":"2210851","kana_pref":"ｶﾅｶﾞﾜｹﾝ","kana_city":"ﾖｺﾊﾏｼｶﾅｶﾞﾜｸ","kana_address":"ﾐﾂｻﾞﾜﾅｶﾏﾁ","pref":"神奈川県","city":"横浜市神奈川区","address":"三ツ沢中町"},
{"zip_code":"2210852","kana_pref":"ｶﾅｶﾞﾜｹﾝ","kana_city":"ﾖｺﾊﾏｼｶﾅｶﾞﾜｸ","kana_address":"ﾐﾂｻﾞﾜｼﾓﾏﾁ","pref":"神奈川県","city":"横浜市神奈川区","address":"三ツ沢下町"},
{"zip_code":"2210853","kana_pref":"ｶﾅｶﾞﾜｹﾝ","kana_city":"ﾖｺﾊﾏｼｶﾅｶﾞﾜｸ","kana_address":"ﾐﾂｻﾞﾜﾋｶﾞｼﾏﾁ","pref":"神奈川県","city":"横浜市神奈川区","address":"三ツ沢東町"},
{"zip_code":"2210855","kana_pref":"ｶﾅｶﾞﾜｹﾝ","kana_city":"ﾖｺﾊﾏｼｶﾅｶﾞﾜｸ","kana_address":"ﾐﾂｻﾞﾜﾆｼﾏﾁ","pref":"神奈川県","city":"横浜市神奈川区","address":"三ツ沢西町"},
{"zip_code":"2210854","kana_pref":"ｶﾅｶﾞﾜｹﾝ","kana_city":"ﾖｺﾊﾏｼｶﾅｶﾞﾜｸ","kana_address":"ﾐﾂｻﾞﾜﾐﾅﾐﾏﾁ","pref":"神奈川県","city":"横浜市神奈川区","address":"三ツ沢南町"},
{"zip_code":"2210022","kana_pref":"ｶﾅｶﾞﾜｹﾝ","kana_city":"ﾖｺﾊﾏｼｶﾅｶﾞﾜｸ","kana_address":"ﾓﾘﾔﾁｮｳ","pref":"神奈川県","city":"横浜市神奈川区","address":"守屋町"},
{"zip_code":"2210054","kana_pref":"ｶﾅｶﾞﾜｹﾝ","kana_city":"ﾖｺﾊﾏｼｶﾅｶﾞﾜｸ","kana_address":"ﾔﾏﾉｳﾁﾁｮｳ","pref":"神奈川県","city":"横浜市神奈川区","address":"山内町"},
{"zip_code":"2210802","kana_pref":"ｶﾅｶﾞﾜｹﾝ","kana_city":"ﾖｺﾊﾏｼｶﾅｶﾞﾜｸ","kana_address":"ﾛｸｶｸﾊﾞｼ","pref":"神奈川県","city":"横浜市神奈川区","address":"六角橋"}]}