{"zip_code":[
{"zip_code":"2240000","kana_pref":"ｶﾅｶﾞﾜｹﾝ","kana_city":"ﾖｺﾊﾏｼﾂﾂﾞｷｸ","kana_address":"","pref":"神奈川県","city":"横浜市都筑区","address":""},
{"zip_code":"2240016","kana_pref":"ｶﾅｶﾞﾜｹﾝ","kana_city":"ﾖｺﾊﾏｼﾂﾂﾞｷｸ","kana_address":"ｱﾕﾐｶﾞｵｶ","pref":"神奈川県","city":"横浜市都筑区","address":"あゆみが丘"},
{"zip_code":"2240053","kana_pref":"ｶﾅｶﾞﾜｹﾝ","kana_city":"ﾖｺﾊﾏｼﾂﾂﾞｷｸ","kana_address":"ｲｺﾉﾍﾞﾁｮｳ","pref":"神奈川県","city":"横浜市都筑区","address":"池辺町"},
{"zip_code":"2240012","kana_pref":"ｶﾅｶﾞﾜｹﾝ","kana_city":"ﾖｺﾊﾏｼﾂﾂﾞｷｸ","kana_address":"ｳｼｸﾎﾞ","pref":"神奈川県","city":"横浜市都筑区","address":"牛久保"},
{"zip_code":"2240011","kana_pref":"ｶﾅｶﾞﾜｹﾝ","kana_city":"ﾖｺﾊﾏｼﾂﾂﾞｷｸ","kana_address":"ｳｼｸﾎﾞﾁｮｳ","pref":"神奈川県","city":"横浜市都筑区","address":"牛久保町"},
{"zip_code":"2240014","kana_pref":"ｶﾅｶﾞﾜｹﾝ","kana_city":"ﾖｺﾊﾏｼﾂﾂﾞｷｸ","kana_address":"ｳｼｸﾎﾞﾋｶﾞｼ","pref":"神奈川県","city":"横浜市都筑区","address":"牛久保東"},
{"zip_code":"2240015","kana_pref":"ｶﾅｶﾞﾜｹﾝ","kana_city":"ﾖｺﾊﾏｼﾂﾂﾞｷｸ","kana_address":"ｳｼｸﾎﾞﾆｼ","pref":"神奈川県","city":"横浜市都筑区","address":"牛久保西"},
{"zip_code":"2240004","kana_pref":"ｶﾅｶﾞﾜｹﾝ","kana_city":"ﾖｺﾊﾏｼﾂﾂﾞｷｸ","kana_address":"ｴﾀﾞﾋｶﾞｼﾁｮｳ","pref":"神奈川県","city":"横浜市都筑区","address":"荏田東町"},
{"zip_code":"2240008","kana_pref":"ｶﾅｶﾞﾜｹﾝ","kana_city":"ﾖｺﾊﾏｼﾂﾂﾞｷｸ","kana_address":"ｴﾀﾞﾐﾅﾐﾁｮｳ","pref":"神奈川県","city":"横浜市都筑区","address":"荏田南町"},
{"zip_code":"2240006","kana_pref":"ｶﾅｶﾞﾜｹﾝ","kana_city":"ﾖｺﾊﾏｼﾂﾂﾞｷｸ","kana_address":"ｴﾀﾞﾋｶﾞｼ","pref":"神奈川県","city":"横浜市都筑区","address":"荏田東"},
{"zip_code":"2240007","kana_pref":"ｶﾅｶﾞﾜｹﾝ","kana_city":"ﾖｺﾊﾏｼﾂﾂﾞｷｸ","kana_address":"ｴﾀﾞﾐﾅﾐ","pref":"神奈川県","city":"横浜市都筑区","address":"荏田南"},
{"zip_code":"2240042","kana_pref":"ｶﾅｶﾞﾜｹﾝ","kana_city":"ﾖｺﾊﾏｼﾂﾂﾞｷｸ","kana_address":"ｵｵｸﾏﾁｮｳ","pref":"神奈川県","city":"横浜市都筑区","address":"大熊町"},
{"zip_code":"2240028","kana_pref":"ｶﾅｶﾞﾜｹﾝ","kana_city":"ﾖｺﾊﾏｼﾂﾂﾞｷｸ","kana_address":"ｵｵﾀﾞﾅﾆｼ","pref":"神奈川県","city":"横浜市都筑区","address":"大棚西"},
{"zip_code":"2240027","kana_pref":"ｶﾅｶﾞﾜｹﾝ","kana_city":"ﾖｺﾊﾏｼﾂﾂﾞｷｸ","kana_address":"ｵｵﾀﾞﾅﾁｮｳ","pref":"神奈川県","city":"横浜市都筑区","address":"大棚町"},
{"zip_code":"2240061","kana_pref":"ｶﾅｶﾞﾜｹﾝ","kana_city":"ﾖｺﾊﾏｼﾂﾂﾞｷｸ","kana_address":"ｵｵﾏﾙ","pref":"神奈川県","city":"横浜市都筑区","address":"大丸"},
{"zip_code":"2240043","kana_pref":"ｶﾅｶﾞﾜｹﾝ","kana_city":"ﾖｺﾊﾏｼﾂﾂﾞｷｸ","kana_address":"ｵﾘﾓﾄﾁｮｳ","pref":"神奈川県","city":"横浜市都筑区","address":"折本町"},
{"zip_code":"2240055","kana_pref":"ｶﾅｶﾞﾜｹﾝ","kana_city":"ﾖｺﾊﾏｼﾂﾂﾞｷｸ","kana_address":"ｶｶﾞﾊﾗ","pref":"神奈川県","city":"横浜市都筑区","address":"加賀原"},
{"zip_code":"2240034","kana_pref":"ｶﾅｶﾞﾜｹﾝ","kana_city":"ﾖｺﾊﾏｼﾂﾂﾞｷｸ","kana_address":"ｶﾁﾀﾞﾁｮｳ","pref":"神奈川県","city":"横浜市都筑区","address":"勝田町"},
{"zip_code":"2240036","kana_pref":"ｶﾅｶﾞﾜｹﾝ","kana_city":"ﾖｺﾊﾏｼﾂﾂﾞｷｸ","kana_address":"ｶﾁﾀﾞﾐﾅﾐ","pref":"神奈川県","city":"横浜市都筑区","address":"勝田南"},
{"zip_code":"2240044","kana_pref":"ｶﾅｶﾞﾜｹﾝ","kana_city":"ﾖｺﾊﾏｼﾂﾂﾞｷｸ","kana_address":"ｶﾜﾑｺｳﾁｮｳ","pref":"神奈川県","city":"横浜市都筑区","address":"川向町"},
{"zip_code":"2240056","kana_pref":"ｶﾅｶﾞﾜｹﾝ","kana_city":"ﾖｺﾊﾏｼﾂﾂﾞｷｸ","kana_address":"ｶﾜﾜﾀﾞｲ","pref":"神奈川県","city":"横浜市都筑区","address":"川和台"},
{"zip_code":"2240057","kana_pref":"ｶﾅｶﾞﾜｹﾝ","kana_city":"ﾖｺﾊﾏｼﾂﾂﾞｷｸ","kana_address":"ｶﾜﾜﾁｮｳ","pref":"神奈川県","city":"横浜市都筑区","address":"川和町"},
{"zip_code":"2240021","kana_pref":"ｶﾅｶﾞﾜｹﾝ","kana_city":"ﾖｺﾊﾏｼﾂﾂﾞｷｸ","kana_address":"ｷﾀﾔﾏﾀ","pref":"神奈川県","city":"横浜市都筑区","address":"北山田"},
{"zip_code":"2240062","kana_pref":"ｶﾅｶﾞﾜｹﾝ","kana_city":"ﾖｺﾊﾏｼﾂﾂﾞｷｸ","kana_address":"ｸｽﾞｶﾞﾔ","pref":"神奈川県","city":"横浜市都筑区","address":"葛が谷"},
{"zip_code":"2240054","kana_pref":"ｶﾅｶﾞﾜｹﾝ","kana_city":"ﾖｺﾊﾏｼﾂﾂﾞｷｸ","kana_address":"ｻｴﾄﾞﾁｮｳ","pref":"神奈川県","city":"横浜市都筑区","address":"佐江戸町"},
{"zip_code":"2240046","kana_pref":"ｶﾅｶﾞﾜｹﾝ","kana_city":"ﾖｺﾊﾏｼﾂﾂﾞｷｸ","kana_address":"ｻｸﾗﾅﾐｷ","pref":"神奈川県","city":"横浜市都筑区","address":"桜並木"},
{"zip_code":"2240035","kana_pref":"ｶﾅｶﾞﾜｹﾝ","kana_city":"ﾖｺﾊﾏｼﾂﾂﾞｷｸ","kana_address":"ｼﾝｴｲﾁｮｳ","pref":"神奈川県","city":"横浜市都筑区","address":"新栄町"},
{"zip_code":"2240013","kana_pref":"ｶﾅｶﾞﾜｹﾝ","kana_city":"ﾖｺﾊﾏｼﾂﾂﾞｷｸ","kana_address":"ｽﾐﾚｶﾞｵｶ","pref":"神奈川県","city":"横浜市都筑区","address":"すみれが丘"},
{"zip_code":"2240065","kana_pref":"ｶﾅｶﾞﾜｹﾝ","kana_city":"ﾖｺﾊﾏｼﾂﾂﾞｷｸ","kana_address":"ﾀｶﾔﾏ","pref":"神奈川県","city":"横浜市都筑区","address":"高山"},
{"zip_code":"2240032","kana_pref":"ｶﾅｶﾞﾜｹﾝ","kana_city":"ﾖｺﾊﾏｼﾂﾂﾞｷｸ","kana_address":"ﾁｶﾞｻｷﾁｭｳｵｳ","pref":"神奈川県","city":"横浜市都筑区","address":"茅ケ崎中央"},
{"zip_code":"2240031","kana_pref":"ｶﾅｶﾞﾜｹﾝ","kana_city":"ﾖｺﾊﾏｼﾂﾂﾞｷｸ","kana_address":"ﾁｶﾞｻｷﾁｮｳ","pref":"神奈川県","city":"横浜市都筑区","address":"茅ケ崎町"},
{"zip_code":"2240033","kana_pref":"ｶﾅｶﾞﾜｹﾝ","kana_city":"ﾖｺﾊﾏｼﾂﾂﾞｷｸ","kana_address":"ﾁｶﾞｻｷﾋｶﾞｼ","pref":"神奈川県","city":"横浜市都筑区","address":"茅ケ崎東"},
{"zip_code":"2240037","kana_pref":"ｶﾅｶﾞﾜｹﾝ","kana_city":"ﾖｺﾊﾏｼﾂﾂﾞｷｸ","kana_address":"ﾁｶﾞｻｷﾐﾅﾐ","pref":"神奈川県","city":"横浜市都筑区","address":"茅ケ崎南"},
{"zip_code":"2240001","kana_pref":"ｶﾅｶﾞﾜｹﾝ","kana_city":"ﾖｺﾊﾏｼﾂﾂﾞｷｸ","kana_address":"ﾅｶｶﾞﾜ","pref":"神奈川県","city":"横浜市都筑区","address":"中川"},
{"zip_code":"2240003","kana_pref":"ｶﾅｶﾞﾜｹﾝ","kana_city":"ﾖｺﾊﾏｼﾂﾂﾞｷｸ","kana_address":"ﾅｶｶﾞﾜﾁｭｳｵｳ","pref":"神奈川県","city":"横浜市都筑区","address":"中川中央"},
{"zip_code":"2240041","kana_pref":"ｶﾅｶﾞﾜｹﾝ","kana_city":"ﾖｺﾊﾏｼﾂﾂﾞｷｸ","kana_address":"ﾅｶﾏﾁﾀﾞｲ","pref":"神奈川県","city":"横浜市都筑区","address":"仲町台"},
{"zip_code":"2240063","kana_pref":"ｶﾅｶﾞﾜｹﾝ","kana_city":"ﾖｺﾊﾏｼﾂﾂﾞｷｸ","kana_address":"ﾅｶﾞｻｶ","pref":"神奈川県","city":"横浜市都筑区","address":"長坂"},
{"zip_code":"2240052","kana_pref":"ｶﾅｶﾞﾜｹﾝ","kana_city":"ﾖｺﾊﾏｼﾂﾂﾞｷｸ","kana_address":"ﾆﾉﾏﾙ","pref":"神奈川県","city":"横浜市都筑区","address":"二の丸"},
{"zip_code":"2240025","kana_pref":"ｶﾅｶﾞﾜｹﾝ","kana_city":"ﾖｺﾊﾏｼﾂﾂﾞｷｸ","kana_address":"ﾊﾔﾌﾞﾁ","pref":"神奈川県","city":"横浜市都筑区","address":"早渕"},
{"zip_code":"2240045","kana_pref":"ｶﾅｶﾞﾜｹﾝ","kana_city":"ﾖｺﾊﾏｼﾂﾂﾞｷｸ","kana_address":"ﾋｶﾞｼｶﾀﾁｮｳ","pref":"神奈川県","city":"横浜市都筑区","address":"東方町"},
{"zip_code":"2240023","kana_pref":"ｶﾅｶﾞﾜｹﾝ","kana_city":"ﾖｺﾊﾏｼﾂﾂﾞｷｸ","kana_address":"ﾋｶﾞｼﾔﾏﾀ","pref":"神奈川県","city":"横浜市都筑区","address":"東山田"},
{"zip_code":"2240024","kana_pref":"ｶﾅｶﾞﾜｹﾝ","kana_city":"ﾖｺﾊﾏｼﾂﾂﾞｷｸ","kana_address":"ﾋｶﾞｼﾔﾏﾀﾁｮｳ","pref":"神奈川県","city":"横浜市都筑区","address":"東山田町"},
{"zip_code":"2240064","kana_pref":"ｶﾅｶﾞﾜｹﾝ","kana_city":"ﾖｺﾊﾏｼﾂﾂﾞｷｸ","kana_address":"ﾋﾗﾀﾞｲ","pref":"神奈川県","city":"横浜市都筑区","address":"平台"},
{"zip_code":"2240051","kana_pref":"ｶﾅｶﾞﾜｹﾝ","kana_city":"ﾖｺﾊﾏｼﾂﾂﾞｷｸ","kana_address":"ﾌｼﾞﾐｶﾞｵｶ","pref":"神奈川県","city":"横浜市都筑区","address":"富士見が丘"},
{"zip_code":"2240029","kana_pref":"ｶﾅｶﾞﾜｹﾝ","kana_city":"ﾖｺﾊﾏｼﾂﾂﾞｷｸ","kana_address":"ﾐﾅﾐﾔﾏﾀ","pref":"神奈川県","city":"横浜市都筑区","address":"南山田"},
{"zip_code":"2240026","kana_pref":"ｶﾅｶﾞﾜｹﾝ","kana_city":"ﾖｺﾊﾏｼﾂﾂﾞｷｸ","kana_address":"ﾐﾅﾐﾔﾏﾀﾁｮｳ","pref":"神奈川県","city":"横浜市都筑区","address":"南山田町"},
{"zip_code":"2240066","kana_pref":"ｶﾅｶﾞﾜｹﾝ","kana_city":"ﾖｺﾊﾏｼﾂﾂﾞｷｸ","kana_address":"ﾐﾊﾅﾔﾏ","pref":"神奈川県","city":"横浜市都筑区","address":"見花山"}]}