{"zip_code":[
{"zip_code":"2260000","kana_pref":"ｶﾅｶﾞﾜｹﾝ","kana_city":"ﾖｺﾊﾏｼﾐﾄﾞﾘｸ","kana_address":"","pref":"神奈川県","city":"横浜市緑区","address":""},
{"zip_code":"2260022","kana_pref":"ｶﾅｶﾞﾜｹﾝ","kana_city":"ﾖｺﾊﾏｼﾐﾄﾞﾘｸ","kana_address":"ｱｵﾄﾁｮｳ","pref":"神奈川県","city":"横浜市緑区","address":"青砥町"},
{"zip_code":"2260028","kana_pref":"ｶﾅｶﾞﾜｹﾝ","kana_city":"ﾖｺﾊﾏｼﾐﾄﾞﾘｸ","kana_address":"ｲﾌﾞｷﾉ","pref":"神奈川県","city":"横浜市緑区","address":"いぶき野"},
{"zip_code":"2260012","kana_pref":"ｶﾅｶﾞﾜｹﾝ","kana_city":"ﾖｺﾊﾏｼﾐﾄﾞﾘｸ","kana_address":"ｶﾐﾔﾏ","pref":"神奈川県","city":"横浜市緑区","address":"上山"},
{"zip_code":"2260003","kana_pref":"ｶﾅｶﾞﾜｹﾝ","kana_city":"ﾖｺﾊﾏｼﾐﾄﾞﾘｸ","kana_address":"ｶﾓｲ","pref":"神奈川県","city":"横浜市緑区","address":"鴨居"},
{"zip_code":"2260004","kana_pref":"ｶﾅｶﾞﾜｹﾝ","kana_city":"ﾖｺﾊﾏｼﾐﾄﾞﾘｸ","kana_address":"ｶﾓｲﾁｮｳ","pref":"神奈川県","city":"横浜市緑区","address":"鴨居町"},
{"zip_code":"2260021","kana_pref":"ｶﾅｶﾞﾜｹﾝ","kana_city":"ﾖｺﾊﾏｼﾐﾄﾞﾘｸ","kana_address":"ｷﾀﾊｯｻｸﾁｮｳ","pref":"神奈川県","city":"横浜市緑区","address":"北八朔町"},
{"zip_code":"2260016","kana_pref":"ｶﾅｶﾞﾜｹﾝ","kana_city":"ﾖｺﾊﾏｼﾐﾄﾞﾘｸ","kana_address":"ｷﾘｶﾞｵｶ","pref":"神奈川県","city":"横浜市緑区","address":"霧が丘"},
{"zip_code":"2260023","kana_pref":"ｶﾅｶﾞﾜｹﾝ","kana_city":"ﾖｺﾊﾏｼﾐﾄﾞﾘｸ","kana_address":"ｺﾔﾏﾁｮｳ","pref":"神奈川県","city":"横浜市緑区","address":"小山町"},
{"zip_code":"2260014","kana_pref":"ｶﾅｶﾞﾜｹﾝ","kana_city":"ﾖｺﾊﾏｼﾐﾄﾞﾘｸ","kana_address":"ﾀﾞｲﾑﾗﾁｮｳ","pref":"神奈川県","city":"横浜市緑区","address":"台村町"},
{"zip_code":"2260005","kana_pref":"ｶﾅｶﾞﾜｹﾝ","kana_city":"ﾖｺﾊﾏｼﾐﾄﾞﾘｸ","kana_address":"ﾀｹﾔﾏ","pref":"神奈川県","city":"横浜市緑区","address":"竹山"},
{"zip_code":"2260013","kana_pref":"ｶﾅｶﾞﾜｹﾝ","kana_city":"ﾖｺﾊﾏｼﾐﾄﾞﾘｸ","kana_address":"ﾃﾗﾔﾏﾁｮｳ","pref":"神奈川県","city":"横浜市緑区","address":"寺山町"},
{"zip_code":"2260025","kana_pref":"ｶﾅｶﾞﾜｹﾝ","kana_city":"ﾖｺﾊﾏｼﾐﾄﾞﾘｸ","kana_address":"ﾄｵｶｲﾁﾊﾞﾁｮｳ","pref":"神奈川県","city":"横浜市緑区","address":"十日市場町"},
{"zip_code":"2260011","kana_pref":"ｶﾅｶﾞﾜｹﾝ","kana_city":"ﾖｺﾊﾏｼﾐﾄﾞﾘｸ","kana_address":"ﾅｶﾔﾏﾁｮｳ","pref":"神奈川県","city":"横浜市緑区","address":"中山町"},
{"zip_code":"2260027","kana_pref":"ｶﾅｶﾞﾜｹﾝ","kana_city":"ﾖｺﾊﾏｼﾐﾄﾞﾘｸ","kana_address":"ﾅｶﾞﾂﾀ","pref":"神奈川県","city":"横浜市緑区","address":"長津田"},
{"zip_code":"2260026","kana_pref":"ｶﾅｶﾞﾜｹﾝ","kana_city":"ﾖｺﾊﾏｼﾐﾄﾞﾘｸ","kana_address":"ﾅｶﾞﾂﾀﾁｮｳ","pref":"神奈川県","city":"横浜市緑区","address":"長津田町"},
{"zip_code":"2260018","kana_pref":"ｶﾅｶﾞﾜｹﾝ","kana_city":"ﾖｺﾊﾏｼﾐﾄﾞﾘｸ","kana_address":"ﾅｶﾞﾂﾀﾐﾅﾐﾀﾞｲ","pref":"神奈川県","city":"横浜市緑区","address":"長津田みなみ台"},
{"zip_code":"2260017","kana_pref":"ｶﾅｶﾞﾜｹﾝ","kana_city":"ﾖｺﾊﾏｼﾐﾄﾞﾘｸ","kana_address":"ﾆｲﾊﾙﾁｮｳ","pref":"神奈川県","city":"横浜市緑区","address":"新治町"},
{"zip_code":"2260024","kana_pref":"ｶﾅｶﾞﾜｹﾝ","kana_city":"ﾖｺﾊﾏｼﾐﾄﾞﾘｸ","kana_address":"ﾆｼﾊｯｻｸﾁｮｳ","pref":"神奈川県","city":"横浜市緑区","address":"西八朔町"},
{"zip_code":"2260006","kana_pref":"ｶﾅｶﾞﾜｹﾝ","kana_city":"ﾖｺﾊﾏｼﾐﾄﾞﾘｸ","kana_address":"ﾊｸｻﾝ","pref":"神奈川県","city":"横浜市緑区","address":"白山"},
{"zip_code":"2260002","kana_pref":"ｶﾅｶﾞﾜｹﾝ","kana_city":"ﾖｺﾊﾏｼﾐﾄﾞﾘｸ","kana_address":"ﾋｶﾞｼﾎﾝｺﾞｳ","pref":"神奈川県","city":"横浜市緑区","address":"東本郷"},
{"zip_code":"2260001","kana_pref":"ｶﾅｶﾞﾜｹﾝ","kana_city":"ﾖｺﾊﾏｼﾐﾄﾞﾘｸ","kana_address":"ﾋｶﾞｼﾎﾝｺﾞｳﾁｮｳ","pref":"神奈川県","city":"横浜市緑区","address":"東本郷町"},
{"zip_code":"2260015","kana_pref":"ｶﾅｶﾞﾜｹﾝ","kana_city":"ﾖｺﾊﾏｼﾐﾄﾞﾘｸ","kana_address":"ﾐﾎﾁｮｳ","pref":"神奈川県","city":"横浜市緑区","address":"三保町"},
{"zip_code":"2260029","kana_pref":"ｶﾅｶﾞﾜｹﾝ","kana_city":"ﾖｺﾊﾏｼﾐﾄﾞﾘｸ","kana_address":"ﾓﾘﾉﾀﾞｲ","pref":"神奈川県","city":"横浜市緑区","address":"森の台"}]}