{"zip_code":[
{"zip_code":"2270000","kana_pref":"ｶﾅｶﾞﾜｹﾝ","kana_city":"ﾖｺﾊﾏｼｱｵﾊﾞｸ","kana_address":"","pref":"神奈川県","city":"横浜市青葉区","address":""},
{"zip_code":"2270062","kana_pref":"ｶﾅｶﾞﾜｹﾝ","kana_city":"ﾖｺﾊﾏｼｱｵﾊﾞｸ","kana_address":"ｱｵﾊﾞﾀﾞｲ","pref":"神奈川県","city":"横浜市青葉区","address":"青葉台"},
{"zip_code":"2270066","kana_pref":"ｶﾅｶﾞﾜｹﾝ","kana_city":"ﾖｺﾊﾏｼｱｵﾊﾞｸ","kana_address":"ｱｶﾈﾀﾞｲ","pref":"神奈川県","city":"横浜市青葉区","address":"あかね台"},
{"zip_code":"2270052","kana_pref":"ｶﾅｶﾞﾜｹﾝ","kana_city":"ﾖｺﾊﾏｼｱｵﾊﾞｸ","kana_address":"ｳﾒｶﾞｵｶ","pref":"神奈川県","city":"横浜市青葉区","address":"梅が丘"},
{"zip_code":"2270063","kana_pref":"ｶﾅｶﾞﾜｹﾝ","kana_city":"ﾖｺﾊﾏｼｱｵﾊﾞｸ","kana_address":"ｴﾉｷｶﾞｵｶ","pref":"神奈川県","city":"横浜市青葉区","address":"榎が丘"},
{"zip_code":"2270065","kana_pref":"ｶﾅｶﾞﾜｹﾝ","kana_city":"ﾖｺﾊﾏｼｱｵﾊﾞｸ","kana_address":"ｵﾝﾀﾞﾁｮｳ","pref":"神奈川県","city":"横浜市青葉区","address":"恩田町"},
{"zip_code":"2270048","kana_pref":"ｶﾅｶﾞﾜｹﾝ","kana_city":"ﾖｺﾊﾏｼｱｵﾊﾞｸ","kana_address":"ｶｷﾉｷﾀﾞｲ","pref":"神奈川県","city":"横浜市青葉区","address":"柿の木台"},
{"zip_code":"2270034","kana_pref":"ｶﾅｶﾞﾜｹﾝ","kana_city":"ﾖｺﾊﾏｼｱｵﾊﾞｸ","kana_address":"ｶﾂﾗﾀﾞｲ","pref":"神奈川県","city":"横浜市青葉区","address":"桂台"},
{"zip_code":"2270041","kana_pref":"ｶﾅｶﾞﾜｹﾝ","kana_city":"ﾖｺﾊﾏｼｱｵﾊﾞｸ","kana_address":"ｶﾐﾔﾓﾄﾁｮｳ","pref":"神奈川県","city":"横浜市青葉区","address":"上谷本町"},
{"zip_code":"2270033","kana_pref":"ｶﾅｶﾞﾜｹﾝ","kana_city":"ﾖｺﾊﾏｼｱｵﾊﾞｸ","kana_address":"ｶﾓｼﾀﾞﾁｮｳ","pref":"神奈川県","city":"横浜市青葉区","address":"鴨志田町"},
{"zip_code":"2270061","kana_pref":"ｶﾅｶﾞﾜｹﾝ","kana_city":"ﾖｺﾊﾏｼｱｵﾊﾞｸ","kana_address":"ｻｸﾗﾀﾞｲ","pref":"神奈川県","city":"横浜市青葉区","address":"桜台"},
{"zip_code":"2270053","kana_pref":"ｶﾅｶﾞﾜｹﾝ","kana_city":"ﾖｺﾊﾏｼｱｵﾊﾞｸ","kana_address":"ｻﾂｷｶﾞｵｶ","pref":"神奈川県","city":"横浜市青葉区","address":"さつきが丘"},
{"zip_code":"2270031","kana_pref":"ｶﾅｶﾞﾜｹﾝ","kana_city":"ﾖｺﾊﾏｼｱｵﾊﾞｸ","kana_address":"ｼﾞｹﾁｮｳ","pref":"神奈川県","city":"横浜市青葉区","address":"寺家町"},
{"zip_code":"2270042","kana_pref":"ｶﾅｶﾞﾜｹﾝ","kana_city":"ﾖｺﾊﾏｼｱｵﾊﾞｸ","kana_address":"ｼﾓﾔﾓﾄﾁｮｳ","pref":"神奈川県","city":"横浜市青葉区","address":"下谷本町"},
{"zip_code":"2270054","kana_pref":"ｶﾅｶﾞﾜｹﾝ","kana_city":"ﾖｺﾊﾏｼｱｵﾊﾞｸ","kana_address":"ｼﾗﾄﾘﾀﾞｲ","pref":"神奈川県","city":"横浜市青葉区","address":"しらとり台"},
{"zip_code":"2270035","kana_pref":"ｶﾅｶﾞﾜｹﾝ","kana_city":"ﾖｺﾊﾏｼｱｵﾊﾞｸ","kana_address":"ｽﾐﾖｼﾀﾞｲ","pref":"神奈川県","city":"横浜市青葉区","address":"すみよし台"},
{"zip_code":"2270046","kana_pref":"ｶﾅｶﾞﾜｹﾝ","kana_city":"ﾖｺﾊﾏｼｱｵﾊﾞｸ","kana_address":"ﾀﾁﾊﾞﾅﾀﾞｲ","pref":"神奈川県","city":"横浜市青葉区","address":"たちばな台"},
{"zip_code":"2270064","kana_pref":"ｶﾅｶﾞﾜｹﾝ","kana_city":"ﾖｺﾊﾏｼｱｵﾊﾞｸ","kana_address":"ﾀﾅﾁｮｳ","pref":"神奈川県","city":"横浜市青葉区","address":"田奈町"},
{"zip_code":"2270051","kana_pref":"ｶﾅｶﾞﾜｹﾝ","kana_city":"ﾖｺﾊﾏｼｱｵﾊﾞｸ","kana_address":"ﾁｸﾞｻﾀﾞｲ","pref":"神奈川県","city":"横浜市青葉区","address":"千草台"},
{"zip_code":"2270055","kana_pref":"ｶﾅｶﾞﾜｹﾝ","kana_city":"ﾖｺﾊﾏｼｱｵﾊﾞｸ","kana_address":"ﾂﾂｼﾞｶﾞｵｶ","pref":"神奈川県","city":"横浜市青葉区","address":"つつじが丘"},
{"zip_code":"2270038","kana_pref":"ｶﾅｶﾞﾜｹﾝ","kana_city":"ﾖｺﾊﾏｼｱｵﾊﾞｸ","kana_address":"ﾅﾗ","pref":"神奈川県","city":"横浜市青葉区","address":"奈良"},
{"zip_code":"2270036","kana_pref":"ｶﾅｶﾞﾜｹﾝ","kana_city":"ﾖｺﾊﾏｼｱｵﾊﾞｸ","kana_address":"ﾅﾗﾁｮｳ","pref":"神奈川県","city":"横浜市青葉区","address":"奈良町"},
{"zip_code":"2270032","kana_pref":"ｶﾅｶﾞﾜｹﾝ","kana_city":"ﾖｺﾊﾏｼｱｵﾊﾞｸ","kana_address":"ﾅﾘｱｲﾁｮｳ","pref":"神奈川県","city":"横浜市青葉区","address":"成合町"},
{"zip_code":"2270043","kana_pref":"ｶﾅｶﾞﾜｹﾝ","kana_city":"ﾖｺﾊﾏｼｱｵﾊﾞｸ","kana_address":"ﾌｼﾞｶﾞｵｶ","pref":"神奈川県","city":"横浜市青葉区","address":"藤が丘"},
{"zip_code":"2270067","kana_pref":"ｶﾅｶﾞﾜｹﾝ","kana_city":"ﾖｺﾊﾏｼｱｵﾊﾞｸ","kana_address":"ﾏﾂｶｾﾞﾀﾞｲ","pref":"神奈川県","city":"横浜市青葉区","address":"松風台"},
{"zip_code":"2270047","kana_pref":"ｶﾅｶﾞﾜｹﾝ","kana_city":"ﾖｺﾊﾏｼｱｵﾊﾞｸ","kana_address":"ﾐﾀｹﾀﾞｲ","pref":"神奈川県","city":"横浜市青葉区","address":"みたけ台"},
{"zip_code":"2270037","kana_pref":"ｶﾅｶﾞﾜｹﾝ","kana_city":"ﾖｺﾊﾏｼｱｵﾊﾞｸ","kana_address":"ﾐﾄﾞﾘﾔﾏ","pref":"神奈川県","city":"横浜市青葉区","address":"緑山"},
{"zip_code":"2270044","kana_pref":"ｶﾅｶﾞﾜｹﾝ","kana_city":"ﾖｺﾊﾏｼｱｵﾊﾞｸ","kana_address":"ﾓｴｷﾞﾉ","pref":"神奈川県","city":"横浜市青葉区","address":"もえぎ野"},
{"zip_code":"2270045","kana_pref":"ｶﾅｶﾞﾜｹﾝ","kana_city":"ﾖｺﾊﾏｼｱｵﾊﾞｸ","kana_address":"ﾜｶｸｻﾀﾞｲ","pref":"神奈川県","city":"横浜市青葉区","address":"若草台"}]}