{"zip_code":[
{"zip_code":"2300000","kana_pref":"ｶﾅｶﾞﾜｹﾝ","kana_city":"ﾖｺﾊﾏｼﾂﾙﾐｸ","kana_address":"","pref":"神奈川県","city":"横浜市鶴見区","address":""},
{"zip_code":"2300033","kana_pref":"ｶﾅｶﾞﾜｹﾝ","kana_city":"ﾖｺﾊﾏｼﾂﾙﾐｸ","kana_address":"ｱｻﾋﾁｮｳ","pref":"神奈川県","city":"横浜市鶴見区","address":"朝日町"},
{"zip_code":"2300035","kana_pref":"ｶﾅｶﾞﾜｹﾝ","kana_city":"ﾖｺﾊﾏｼﾂﾙﾐｸ","kana_address":"ｱﾝｾﾞﾝﾁｮｳ","pref":"神奈川県","city":"横浜市鶴見区","address":"安善町"},
{"zip_code":"2300021","kana_pref":"ｶﾅｶﾞﾜｹﾝ","kana_city":"ﾖｺﾊﾏｼﾂﾙﾐｸ","kana_address":"ｲﾁﾊﾞｶﾐﾁｮｳ","pref":"神奈川県","city":"横浜市鶴見区","address":"市場上町"},
{"zip_code":"2300024","kana_pref":"ｶﾅｶﾞﾜｹﾝ","kana_city":"ﾖｺﾊﾏｼﾂﾙﾐｸ","kana_address":"ｲﾁﾊﾞｼﾓﾁｮｳ","pref":"神奈川県","city":"横浜市鶴見区","address":"市場下町"},
{"zip_code":"2300022","kana_pref":"ｶﾅｶﾞﾜｹﾝ","kana_city":"ﾖｺﾊﾏｼﾂﾙﾐｸ","kana_address":"ｲﾁﾊﾞﾋｶﾞｼﾅｶﾁｮｳ","pref":"神奈川県","city":"横浜市鶴見区","address":"市場東中町"},
{"zip_code":"2300023","kana_pref":"ｶﾅｶﾞﾜｹﾝ","kana_city":"ﾖｺﾊﾏｼﾂﾙﾐｸ","kana_address":"ｲﾁﾊﾞﾆｼﾅｶﾁｮｳ","pref":"神奈川県","city":"横浜市鶴見区","address":"市場西中町"},
{"zip_code":"2300026","kana_pref":"ｶﾅｶﾞﾜｹﾝ","kana_city":"ﾖｺﾊﾏｼﾂﾙﾐｸ","kana_address":"ｲﾁﾊﾞﾌｼﾞﾐﾁｮｳ","pref":"神奈川県","city":"横浜市鶴見区","address":"市場富士見町"},
{"zip_code":"2300025","kana_pref":"ｶﾅｶﾞﾜｹﾝ","kana_city":"ﾖｺﾊﾏｼﾂﾙﾐｸ","kana_address":"ｲﾁﾊﾞﾔﾏﾄﾁｮｳ","pref":"神奈川県","city":"横浜市鶴見区","address":"市場大和町"},
{"zip_code":"2300041","kana_pref":"ｶﾅｶﾞﾜｹﾝ","kana_city":"ﾖｺﾊﾏｼﾂﾙﾐｸ","kana_address":"ｳｼｵﾀﾞﾁｮｳ","pref":"神奈川県","city":"横浜市鶴見区","address":"潮田町"},
{"zip_code":"2300002","kana_pref":"ｶﾅｶﾞﾜｹﾝ","kana_city":"ﾖｺﾊﾏｼﾂﾙﾐｸ","kana_address":"ｴｶﾞｻｷﾁｮｳ","pref":"神奈川県","city":"横浜市鶴見区","address":"江ケ崎町"},
{"zip_code":"2300055","kana_pref":"ｶﾅｶﾞﾜｹﾝ","kana_city":"ﾖｺﾊﾏｼﾂﾙﾐｸ","kana_address":"ｵｳｷﾞｼﾏ","pref":"神奈川県","city":"横浜市鶴見区","address":"扇島"},
{"zip_code":"2300046","kana_pref":"ｶﾅｶﾞﾜｹﾝ","kana_city":"ﾖｺﾊﾏｼﾂﾙﾐｸ","kana_address":"ｵﾉﾁｮｳ","pref":"神奈川県","city":"横浜市鶴見区","address":"小野町"},
{"zip_code":"2300072","kana_pref":"ｶﾅｶﾞﾜｹﾝ","kana_city":"ﾖｺﾊﾏｼﾂﾙﾐｸ","kana_address":"ｶｼﾞﾔﾏ","pref":"神奈川県","city":"横浜市鶴見区","address":"梶山"},
{"zip_code":"2300011","kana_pref":"ｶﾅｶﾞﾜｹﾝ","kana_city":"ﾖｺﾊﾏｼﾂﾙﾐｸ","kana_address":"ｶﾐｽｴﾖｼ","pref":"神奈川県","city":"横浜市鶴見区","address":"上末吉"},
{"zip_code":"2300075","kana_pref":"ｶﾅｶﾞﾜｹﾝ","kana_city":"ﾖｺﾊﾏｼﾂﾙﾐｸ","kana_address":"ｶﾐﾉﾐﾔ","pref":"神奈川県","city":"横浜市鶴見区","address":"上の宮"},
{"zip_code":"2300034","kana_pref":"ｶﾅｶﾞﾜｹﾝ","kana_city":"ﾖｺﾊﾏｼﾂﾙﾐｸ","kana_address":"ｶﾝｾｲﾁｮｳ","pref":"神奈川県","city":"横浜市鶴見区","address":"寛政町"},
{"zip_code":"2300078","kana_pref":"ｶﾅｶﾞﾜｹﾝ","kana_city":"ﾖｺﾊﾏｼﾂﾙﾐｸ","kana_address":"ｷｼﾔ","pref":"神奈川県","city":"横浜市鶴見区","address":"岸谷"},
{"zip_code":"2300074","kana_pref":"ｶﾅｶﾞﾜｹﾝ","kana_city":"ﾖｺﾊﾏｼﾂﾙﾐｸ","kana_address":"ｷﾀﾃﾗｵ","pref":"神奈川県","city":"横浜市鶴見区","address":"北寺尾"},
{"zip_code":"2300071","kana_pref":"ｶﾅｶﾞﾜｹﾝ","kana_city":"ﾖｺﾊﾏｼﾂﾙﾐｸ","kana_address":"ｺﾏｵｶ","pref":"神奈川県","city":"横浜市鶴見区","address":"駒岡"},
{"zip_code":"2300038","kana_pref":"ｶﾅｶﾞﾜｹﾝ","kana_city":"ﾖｺﾊﾏｼﾂﾙﾐｸ","kana_address":"ｻｶｴﾁｮｳﾄﾞｵﾘ","pref":"神奈川県","city":"横浜市鶴見区","address":"栄町通"},
{"zip_code":"2300043","kana_pref":"ｶﾅｶﾞﾜｹﾝ","kana_city":"ﾖｺﾊﾏｼﾂﾙﾐｸ","kana_address":"ｼｵｲﾘﾁｮｳ","pref":"神奈川県","city":"横浜市鶴見区","address":"汐入町"},
{"zip_code":"2300073","kana_pref":"ｶﾅｶﾞﾜｹﾝ","kana_city":"ﾖｺﾊﾏｼﾂﾙﾐｸ","kana_address":"ｼｼｶﾞﾔ","pref":"神奈川県","city":"横浜市鶴見区","address":"獅子ケ谷"},
{"zip_code":"2300047","kana_pref":"ｶﾅｶﾞﾜｹﾝ","kana_city":"ﾖｺﾊﾏｼﾂﾙﾐｸ","kana_address":"ｼﾀﾉﾔﾁｮｳ","pref":"神奈川県","city":"横浜市鶴見区","address":"下野谷町"},
{"zip_code":"2300003","kana_pref":"ｶﾅｶﾞﾜｹﾝ","kana_city":"ﾖｺﾊﾏｼﾂﾙﾐｸ","kana_address":"ｼｯﾃ","pref":"神奈川県","city":"横浜市鶴見区","address":"尻手"},
{"zip_code":"2300012","kana_pref":"ｶﾅｶﾞﾜｹﾝ","kana_city":"ﾖｺﾊﾏｼﾂﾙﾐｸ","kana_address":"ｼﾓｽｴﾖｼ","pref":"神奈川県","city":"横浜市鶴見区","address":"下末吉"},
{"zip_code":"2300045","kana_pref":"ｶﾅｶﾞﾜｹﾝ","kana_city":"ﾖｺﾊﾏｼﾂﾙﾐｸ","kana_address":"ｽｴﾋﾛﾁｮｳ","pref":"神奈川県","city":"横浜市鶴見区","address":"末広町"},
{"zip_code":"2300027","kana_pref":"ｶﾅｶﾞﾜｹﾝ","kana_city":"ﾖｺﾊﾏｼﾂﾙﾐｸ","kana_address":"ｽｶﾞｻﾜﾁｮｳ","pref":"神奈川県","city":"横浜市鶴見区","address":"菅沢町"},
{"zip_code":"2300014","kana_pref":"ｶﾅｶﾞﾜｹﾝ","kana_city":"ﾖｺﾊﾏｼﾂﾙﾐｸ","kana_address":"ｽﾜｻﾞｶ","pref":"神奈川県","city":"横浜市鶴見区","address":"諏訪坂"},
{"zip_code":"2300053","kana_pref":"ｶﾅｶﾞﾜｹﾝ","kana_city":"ﾖｺﾊﾏｼﾂﾙﾐｸ","kana_address":"ﾀﾞｲｺｸﾁｮｳ","pref":"神奈川県","city":"横浜市鶴見区","address":"大黒町"},
{"zip_code":"2300054","kana_pref":"ｶﾅｶﾞﾜｹﾝ","kana_city":"ﾖｺﾊﾏｼﾂﾙﾐｸ","kana_address":"ﾀﾞｲｺｸﾌﾄｳ","pref":"神奈川県","city":"横浜市鶴見区","address":"大黒ふ頭"},
{"zip_code":"2300032","kana_pref":"ｶﾅｶﾞﾜｹﾝ","kana_city":"ﾖｺﾊﾏｼﾂﾙﾐｸ","kana_address":"ﾀﾞｲﾄｳﾁｮｳ","pref":"神奈川県","city":"横浜市鶴見区","address":"大東町"},
{"zip_code":"2300061","kana_pref":"ｶﾅｶﾞﾜｹﾝ","kana_city":"ﾖｺﾊﾏｼﾂﾙﾐｸ","kana_address":"ﾂｸﾉﾁｮｳ","pref":"神奈川県","city":"横浜市鶴見区","address":"佃野町"},
{"zip_code":"2300063","kana_pref":"ｶﾅｶﾞﾜｹﾝ","kana_city":"ﾖｺﾊﾏｼﾂﾙﾐｸ","kana_address":"ﾂﾙﾐ","pref":"神奈川県","city":"横浜市鶴見区","address":"鶴見"},
{"zip_code":"2300051","kana_pref":"ｶﾅｶﾞﾜｹﾝ","kana_city":"ﾖｺﾊﾏｼﾂﾙﾐｸ","kana_address":"ﾂﾙﾐﾁｭｳｵｳ","pref":"神奈川県","city":"横浜市鶴見区","address":"鶴見中央"},
{"zip_code":"2300015","kana_pref":"ｶﾅｶﾞﾜｹﾝ","kana_city":"ﾖｺﾊﾏｼﾂﾙﾐｸ","kana_address":"ﾃﾗﾔ","pref":"神奈川県","city":"横浜市鶴見区","address":"寺谷"},
{"zip_code":"2300062","kana_pref":"ｶﾅｶﾞﾜｹﾝ","kana_city":"ﾖｺﾊﾏｼﾂﾙﾐｸ","kana_address":"ﾄﾖｵｶﾁｮｳ","pref":"神奈川県","city":"横浜市鶴見区","address":"豊岡町"},
{"zip_code":"2300042","kana_pref":"ｶﾅｶﾞﾜｹﾝ","kana_city":"ﾖｺﾊﾏｼﾂﾙﾐｸ","kana_address":"ﾅｶﾄﾞｵﾘ","pref":"神奈川県","city":"横浜市鶴見区","address":"仲通"},
{"zip_code":"2300052","kana_pref":"ｶﾅｶﾞﾜｹﾝ","kana_city":"ﾖｺﾊﾏｼﾂﾙﾐｸ","kana_address":"ﾅﾏﾑｷﾞ","pref":"神奈川県","city":"横浜市鶴見区","address":"生麦"},
{"zip_code":"2300076","kana_pref":"ｶﾅｶﾞﾜｹﾝ","kana_city":"ﾖｺﾊﾏｼﾂﾙﾐｸ","kana_address":"ﾊﾞﾊﾞ","pref":"神奈川県","city":"横浜市鶴見区","address":"馬場"},
{"zip_code":"2300036","kana_pref":"ｶﾅｶﾞﾜｹﾝ","kana_city":"ﾖｺﾊﾏｼﾂﾙﾐｸ","kana_address":"ﾊﾏﾁｮｳ","pref":"神奈川県","city":"横浜市鶴見区","address":"浜町"},
{"zip_code":"2300077","kana_pref":"ｶﾅｶﾞﾜｹﾝ","kana_city":"ﾖｺﾊﾏｼﾂﾙﾐｸ","kana_address":"ﾋｶﾞｼﾃﾗｵ","pref":"神奈川県","city":"横浜市鶴見区","address":"東寺尾"},
{"zip_code":"2300017","kana_pref":"ｶﾅｶﾞﾜｹﾝ","kana_city":"ﾖｺﾊﾏｼﾂﾙﾐｸ","kana_address":"ﾋｶﾞｼﾃﾗｵﾅｶﾀﾞｲ","pref":"神奈川県","city":"横浜市鶴見区","address":"東寺尾中台"},
{"zip_code":"2300018","kana_pref":"ｶﾅｶﾞﾜｹﾝ","kana_city":"ﾖｺﾊﾏｼﾂﾙﾐｸ","kana_address":"ﾋｶﾞｼﾃﾗｵﾋｶﾞｼﾀﾞｲ","pref":"神奈川県","city":"横浜市鶴見区","address":"東寺尾東台"},
{"zip_code":"2300016","kana_pref":"ｶﾅｶﾞﾜｹﾝ","kana_city":"ﾖｺﾊﾏｼﾂﾙﾐｸ","kana_address":"ﾋｶﾞｼﾃﾗｵｷﾀﾀﾞｲ","pref":"神奈川県","city":"横浜市鶴見区","address":"東寺尾北台"},
{"zip_code":"2300031","kana_pref":"ｶﾅｶﾞﾜｹﾝ","kana_city":"ﾖｺﾊﾏｼﾂﾙﾐｸ","kana_address":"ﾍｲｱﾝﾁｮｳ","pref":"神奈川県","city":"横浜市鶴見区","address":"平安町"},
{"zip_code":"2300044","kana_pref":"ｶﾅｶﾞﾜｹﾝ","kana_city":"ﾖｺﾊﾏｼﾂﾙﾐｸ","kana_address":"ﾍﾞﾝﾃﾝﾁｮｳ","pref":"神奈川県","city":"横浜市鶴見区","address":"弁天町"},
{"zip_code":"2300048","kana_pref":"ｶﾅｶﾞﾜｹﾝ","kana_city":"ﾖｺﾊﾏｼﾂﾙﾐｸ","kana_address":"ﾎﾝﾁｮｳﾄﾞｵﾘ","pref":"神奈川県","city":"横浜市鶴見区","address":"本町通"},
{"zip_code":"2300013","kana_pref":"ｶﾅｶﾞﾜｹﾝ","kana_city":"ﾖｺﾊﾏｼﾂﾙﾐｸ","kana_address":"ﾐﾂｲｹｺｳｴﾝ","pref":"神奈川県","city":"横浜市鶴見区","address":"三ツ池公園"},
{"zip_code":"2300037","kana_pref":"ｶﾅｶﾞﾜｹﾝ","kana_city":"ﾖｺﾊﾏｼﾂﾙﾐｸ","kana_address":"ﾑｶｲﾁｮｳ","pref":"神奈川県","city":"横浜市鶴見区","address":"向井町"},
{"zip_code":"2300004","kana_pref":"ｶﾅｶﾞﾜｹﾝ","kana_city":"ﾖｺﾊﾏｼﾂﾙﾐｸ","kana_address":"ﾓﾄﾐﾔ","pref":"神奈川県","city":"横浜市鶴見区","address":"元宮"},
{"zip_code":"2300001","kana_pref":"ｶﾅｶﾞﾜｹﾝ","kana_city":"ﾖｺﾊﾏｼﾂﾙﾐｸ","kana_address":"ﾔｺｳ","pref":"神奈川県","city":"横浜市鶴見区","address":"矢向"}]}