{"zip_code":[
{"zip_code":"2310000","kana_pref":"ｶﾅｶﾞﾜｹﾝ","kana_city":"ﾖｺﾊﾏｼﾅｶｸ","kana_address":"","pref":"神奈川県","city":"横浜市中区","address":""},
{"zip_code":"2310012","kana_pref":"ｶﾅｶﾞﾜｹﾝ","kana_city":"ﾖｺﾊﾏｼﾅｶｸ","kana_address":"ｱｲｵｲﾁｮｳ","pref":"神奈川県","city":"横浜市中区","address":"相生町"},
{"zip_code":"2310051","kana_pref":"ｶﾅｶﾞﾜｹﾝ","kana_city":"ﾖｺﾊﾏｼﾅｶｸ","kana_address":"ｱｶﾓﾝﾁｮｳ","pref":"神奈川県","city":"横浜市中区","address":"赤門町"},
{"zip_code":"2310057","kana_pref":"ｶﾅｶﾞﾜｹﾝ","kana_city":"ﾖｺﾊﾏｼﾅｶｸ","kana_address":"ｱｹﾎﾞﾉﾁｮｳ","pref":"神奈川県","city":"横浜市中区","address":"曙町"},
{"zip_code":"2310834","kana_pref":"ｶﾅｶﾞﾜｹﾝ","kana_city":"ﾖｺﾊﾏｼﾅｶｸ","kana_address":"ｲｹﾌﾞｸﾛ","pref":"神奈川県","city":"横浜市中区","address":"池袋"},
{"zip_code":"2310868","kana_pref":"ｶﾅｶﾞﾜｹﾝ","kana_city":"ﾖｺﾊﾏｼﾅｶｸ","kana_address":"ｲｼｶﾜﾁｮｳ","pref":"神奈川県","city":"横浜市中区","address":"石川町"},
{"zip_code":"2310045","kana_pref":"ｶﾅｶﾞﾜｹﾝ","kana_city":"ﾖｺﾊﾏｼﾅｶｸ","kana_address":"ｲｾｻﾞｷﾁｮｳ","pref":"神奈川県","city":"横浜市中区","address":"伊勢佐木町"},
{"zip_code":"2310842","kana_pref":"ｶﾅｶﾞﾜｹﾝ","kana_city":"ﾖｺﾊﾏｼﾅｶｸ","kana_address":"ｳｴﾉﾁｮｳ","pref":"神奈川県","city":"横浜市中区","address":"上野町"},
{"zip_code":"2310867","kana_pref":"ｶﾅｶﾞﾜｹﾝ","kana_city":"ﾖｺﾊﾏｼﾅｶｸ","kana_address":"ｳﾁｺｼ","pref":"神奈川県","city":"横浜市中区","address":"打越"},
{"zip_code":"2310061","kana_pref":"ｶﾅｶﾞﾜｹﾝ","kana_city":"ﾖｺﾊﾏｼﾅｶｸ","kana_address":"ｳﾁﾀﾞﾁｮｳ","pref":"神奈川県","city":"横浜市中区","address":"内田町"},
{"zip_code":"2310027","kana_pref":"ｶﾅｶﾞﾜｹﾝ","kana_city":"ﾖｺﾊﾏｼﾅｶｸ","kana_address":"ｵｳｷﾞﾁｮｳ","pref":"神奈川県","city":"横浜市中区","address":"扇町"},
{"zip_code":"2310858","kana_pref":"ｶﾅｶﾞﾜｹﾝ","kana_city":"ﾖｺﾊﾏｼﾅｶｸ","kana_address":"ｵｵｼﾊﾞﾀﾞｲ","pref":"神奈川県","city":"横浜市中区","address":"大芝台"},
{"zip_code":"2310011","kana_pref":"ｶﾅｶﾞﾜｹﾝ","kana_city":"ﾖｺﾊﾏｼﾅｶｸ","kana_address":"ｵｵﾀﾏﾁ","pref":"神奈川県","city":"横浜市中区","address":"太田町"},
{"zip_code":"2310859","kana_pref":"ｶﾅｶﾞﾜｹﾝ","kana_city":"ﾖｺﾊﾏｼﾅｶｸ","kana_address":"ｵｵﾋﾗﾁｮｳ","pref":"神奈川県","city":"横浜市中区","address":"大平町"},
{"zip_code":"2310028","kana_pref":"ｶﾅｶﾞﾜｹﾝ","kana_city":"ﾖｺﾊﾏｼﾅｶｸ","kana_address":"ｵｷﾅﾁｮｳ","pref":"神奈川県","city":"横浜市中区","address":"翁町"},
{"zip_code":"2310015","kana_pref":"ｶﾅｶﾞﾜｹﾝ","kana_city":"ﾖｺﾊﾏｼﾅｶｸ","kana_address":"ｵﾉｴﾁｮｳ","pref":"神奈川県","city":"横浜市中区","address":"尾上町"},
{"zip_code":"2310002","kana_pref":"ｶﾅｶﾞﾜｹﾝ","kana_city":"ﾖｺﾊﾏｼﾅｶｸ","kana_address":"ｶｲｶﾞﾝﾄﾞｵﾘ","pref":"神奈川県","city":"横浜市中区","address":"海岸通"},
{"zip_code":"2310866","kana_pref":"ｶﾅｶﾞﾜｹﾝ","kana_city":"ﾖｺﾊﾏｼﾅｶｸ","kana_address":"ｶｼﾜﾊﾞ","pref":"神奈川県","city":"横浜市中区","address":"柏葉"},
{"zip_code":"2310813","kana_pref":"ｶﾅｶﾞﾜｹﾝ","kana_city":"ﾖｺﾊﾏｼﾅｶｸ","kana_address":"ｶﾓﾒﾁｮｳ","pref":"神奈川県","city":"横浜市中区","address":"かもめ町"},
{"zip_code":"2310865","kana_pref":"ｶﾅｶﾞﾜｹﾝ","kana_city":"ﾖｺﾊﾏｼﾅｶｸ","kana_address":"ｷﾀｶﾞﾀﾁｮｳ","pref":"神奈川県","city":"横浜市中区","address":"北方町"},
{"zip_code":"2310003","kana_pref":"ｶﾅｶﾞﾜｹﾝ","kana_city":"ﾖｺﾊﾏｼﾅｶｸ","kana_address":"ｷﾀﾅｶﾄﾞｵﾘ","pref":"神奈川県","city":"横浜市中区","address":"北仲通"},
{"zip_code":"2310054","kana_pref":"ｶﾅｶﾞﾜｹﾝ","kana_city":"ﾖｺﾊﾏｼﾅｶｸ","kana_address":"ｺｶﾞﾈﾁｮｳ","pref":"神奈川県","city":"横浜市中区","address":"黄金町"},
{"zip_code":"2310026","kana_pref":"ｶﾅｶﾞﾜｹﾝ","kana_city":"ﾖｺﾊﾏｼﾅｶｸ","kana_address":"ｺﾄﾌﾞｷﾁｮｳ","pref":"神奈川県","city":"横浜市中区","address":"寿町"},
{"zip_code":"2310802","kana_pref":"ｶﾅｶﾞﾜｹﾝ","kana_city":"ﾖｺﾊﾏｼﾅｶｸ","kana_address":"ｺﾐﾅﾄﾁｮｳ","pref":"神奈川県","city":"横浜市中区","address":"小港町"},
{"zip_code":"2310848","kana_pref":"ｶﾅｶﾞﾜｹﾝ","kana_city":"ﾖｺﾊﾏｼﾅｶｸ","kana_address":"ｻｷﾞﾔﾏ","pref":"神奈川県","city":"横浜市中区","address":"鷺山"},
{"zip_code":"2310062","kana_pref":"ｶﾅｶﾞﾜｹﾝ","kana_city":"ﾖｺﾊﾏｼﾅｶｸ","kana_address":"ｻｸﾗｷﾞﾁｮｳ","pref":"神奈川県","city":"横浜市中区","address":"桜木町"},
{"zip_code":"2310001","kana_pref":"ｶﾅｶﾞﾜｹﾝ","kana_city":"ﾖｺﾊﾏｼﾅｶｸ","kana_address":"ｼﾝｺｳ","pref":"神奈川県","city":"横浜市中区","address":"新港"},
{"zip_code":"2310801","kana_pref":"ｶﾅｶﾞﾜｹﾝ","kana_city":"ﾖｺﾊﾏｼﾅｶｸ","kana_address":"ｼﾝﾔﾏｼﾀ","pref":"神奈川県","city":"横浜市中区","address":"新山下"},
{"zip_code":"2310046","kana_pref":"ｶﾅｶﾞﾜｹﾝ","kana_city":"ﾖｺﾊﾏｼﾅｶｸ","kana_address":"ｽｴﾋﾛﾁｮｳ","pref":"神奈川県","city":"横浜市中区","address":"末広町"},
{"zip_code":"2310055","kana_pref":"ｶﾅｶﾞﾜｹﾝ","kana_city":"ﾖｺﾊﾏｼﾅｶｸ","kana_address":"ｽｴﾖｼﾁｮｳ","pref":"神奈川県","city":"横浜市中区","address":"末吉町"},
{"zip_code":"2310013","kana_pref":"ｶﾅｶﾞﾜｹﾝ","kana_city":"ﾖｺﾊﾏｼﾅｶｸ","kana_address":"ｽﾐﾖｼﾁｮｳ","pref":"神奈川県","city":"横浜市中区","address":"住吉町"},
{"zip_code":"2310863","kana_pref":"ｶﾅｶﾞﾜｹﾝ","kana_city":"ﾖｺﾊﾏｼﾅｶｸ","kana_address":"ｽﾜﾁｮｳ","pref":"神奈川県","city":"横浜市中区","address":"諏訪町"},
{"zip_code":"2310837","kana_pref":"ｶﾅｶﾞﾜｹﾝ","kana_city":"ﾖｺﾊﾏｼﾅｶｸ","kana_address":"ﾀｷﾉｳｴ","pref":"神奈川県","city":"横浜市中区","address":"滝之上"},
{"zip_code":"2310847","kana_pref":"ｶﾅｶﾞﾜｹﾝ","kana_city":"ﾖｺﾊﾏｼﾅｶｸ","kana_address":"ﾀｹﾉﾏﾙ","pref":"神奈川県","city":"横浜市中区","address":"竹之丸"},
{"zip_code":"2310845","kana_pref":"ｶﾅｶﾞﾜｹﾝ","kana_city":"ﾖｺﾊﾏｼﾅｶｸ","kana_address":"ﾀﾃﾉ","pref":"神奈川県","city":"横浜市中区","address":"立野"},
{"zip_code":"2310035","kana_pref":"ｶﾅｶﾞﾜｹﾝ","kana_city":"ﾖｺﾊﾏｼﾅｶｸ","kana_address":"ﾁﾄｾﾁｮｳ","pref":"神奈川県","city":"横浜市中区","address":"千歳町"},
{"zip_code":"2310815","kana_pref":"ｶﾅｶﾞﾜｹﾝ","kana_city":"ﾖｺﾊﾏｼﾅｶｸ","kana_address":"ﾁﾄﾞﾘﾁｮｳ","pref":"神奈川県","city":"横浜市中区","address":"千鳥町"},
{"zip_code":"2310033","kana_pref":"ｶﾅｶﾞﾜｹﾝ","kana_city":"ﾖｺﾊﾏｼﾅｶｸ","kana_address":"ﾁｮｳｼﾞｬﾏﾁ","pref":"神奈川県","city":"横浜市中区","address":"長者町"},
{"zip_code":"2310864","kana_pref":"ｶﾅｶﾞﾜｹﾝ","kana_city":"ﾖｺﾊﾏｼﾅｶｸ","kana_address":"ﾁﾖｻﾞｷﾁｮｳ","pref":"神奈川県","city":"横浜市中区","address":"千代崎町"},
{"zip_code":"2310857","kana_pref":"ｶﾅｶﾞﾜｹﾝ","kana_city":"ﾖｺﾊﾏｼﾅｶｸ","kana_address":"ﾂｶｺﾞｼ","pref":"神奈川県","city":"横浜市中区","address":"塚越"},
{"zip_code":"2310855","kana_pref":"ｶﾅｶﾞﾜｹﾝ","kana_city":"ﾖｺﾊﾏｼﾅｶｸ","kana_address":"ﾃﾗｸﾎﾞ","pref":"神奈川県","city":"横浜市中区","address":"寺久保"},
{"zip_code":"2310014","kana_pref":"ｶﾅｶﾞﾜｹﾝ","kana_city":"ﾖｺﾊﾏｼﾅｶｸ","kana_address":"ﾄｷﾜﾁｮｳ","pref":"神奈川県","city":"横浜市中区","address":"常盤町"},
{"zip_code":"2310814","kana_pref":"ｶﾅｶﾞﾜｹﾝ","kana_city":"ﾖｺﾊﾏｼﾅｶｸ","kana_address":"ﾄﾖｳﾗﾁｮｳ","pref":"神奈川県","city":"横浜市中区","address":"豊浦町"},
{"zip_code":"2310839","kana_pref":"ｶﾅｶﾞﾜｹﾝ","kana_city":"ﾖｺﾊﾏｼﾅｶｸ","kana_address":"ﾅｶｵﾀﾞｲ","pref":"神奈川県","city":"横浜市中区","address":"仲尾台"},
{"zip_code":"2310812","kana_pref":"ｶﾅｶﾞﾜｹﾝ","kana_city":"ﾖｺﾊﾏｼﾅｶｸ","kana_address":"ﾆｼｷﾁｮｳ","pref":"神奈川県","city":"横浜市中区","address":"錦町"},
{"zip_code":"2310852","kana_pref":"ｶﾅｶﾞﾜｹﾝ","kana_city":"ﾖｺﾊﾏｼﾅｶｸ","kana_address":"ﾆｼﾀｹﾉﾏﾙ","pref":"神奈川県","city":"横浜市中区","address":"西竹之丸"},
{"zip_code":"2310844","kana_pref":"ｶﾅｶﾞﾜｹﾝ","kana_city":"ﾖｺﾊﾏｼﾅｶｸ","kana_address":"ﾆｼﾉﾔﾁｮｳ","pref":"神奈川県","city":"横浜市中区","address":"西之谷町"},
{"zip_code":"2310021","kana_pref":"ｶﾅｶﾞﾜｹﾝ","kana_city":"ﾖｺﾊﾏｼﾅｶｸ","kana_address":"ﾆﾎﾝｵｵﾄﾞｵﾘ","pref":"神奈川県","city":"横浜市中区","address":"日本大通"},
{"zip_code":"2310854","kana_pref":"ｶﾅｶﾞﾜｹﾝ","kana_city":"ﾖｺﾊﾏｼﾅｶｸ","kana_address":"ﾈｷﾞｼｱｻﾋﾀﾞｲ","pref":"神奈川県","city":"横浜市中区","address":"根岸旭台"},
{"zip_code":"2310835","kana_pref":"ｶﾅｶﾞﾜｹﾝ","kana_city":"ﾖｺﾊﾏｼﾅｶｸ","kana_address":"ﾈｷﾞｼｶｿﾞｳﾀﾞｲ","pref":"神奈川県","city":"横浜市中区","address":"根岸加曽台"},
{"zip_code":"2310853","kana_pref":"ｶﾅｶﾞﾜｹﾝ","kana_city":"ﾖｺﾊﾏｼﾅｶｸ","kana_address":"ﾈｷﾞｼﾀﾞｲ","pref":"神奈川県","city":"横浜市中区","address":"根岸台"},
{"zip_code":"2310836","kana_pref":"ｶﾅｶﾞﾜｹﾝ","kana_city":"ﾖｺﾊﾏｼﾅｶｸ","kana_address":"ﾈｷﾞｼﾁｮｳ","pref":"神奈川県","city":"横浜市中区","address":"根岸町"},
{"zip_code":"2310064","kana_pref":"ｶﾅｶﾞﾜｹﾝ","kana_city":"ﾖｺﾊﾏｼﾅｶｸ","kana_address":"ﾉｹﾞﾁｮｳ","pref":"神奈川県","city":"横浜市中区","address":"野毛町"},
{"zip_code":"2310047","kana_pref":"ｶﾅｶﾞﾜｹﾝ","kana_city":"ﾖｺﾊﾏｼﾅｶｸ","kana_address":"ﾊｺﾞﾛﾓﾁｮｳ","pref":"神奈川県","city":"横浜市中区","address":"羽衣町"},
{"zip_code":"2310053","kana_pref":"ｶﾅｶﾞﾜｹﾝ","kana_city":"ﾖｺﾊﾏｼﾅｶｸ","kana_address":"ﾊﾂﾈﾁｮｳ","pref":"神奈川県","city":"横浜市中区","address":"初音町"},
{"zip_code":"2310063","kana_pref":"ｶﾅｶﾞﾜｹﾝ","kana_city":"ﾖｺﾊﾏｼﾅｶｸ","kana_address":"ﾊﾅｻｷﾁｮｳ","pref":"神奈川県","city":"横浜市中区","address":"花咲町"},
{"zip_code":"2310052","kana_pref":"ｶﾅｶﾞﾜｹﾝ","kana_city":"ﾖｺﾊﾏｼﾅｶｸ","kana_address":"ﾊﾅﾌﾞｻﾁｮｳ","pref":"神奈川県","city":"横浜市中区","address":"英町"},
{"zip_code":"2310031","kana_pref":"ｶﾅｶﾞﾜｹﾝ","kana_city":"ﾖｺﾊﾏｼﾅｶｸ","kana_address":"ﾊﾞﾝﾀﾞｲﾁｮｳ","pref":"神奈川県","city":"横浜市中区","address":"万代町"},
{"zip_code":"2310066","kana_pref":"ｶﾅｶﾞﾜｹﾝ","kana_city":"ﾖｺﾊﾏｼﾅｶｸ","kana_address":"ﾋﾉﾃﾞﾁｮｳ","pref":"神奈川県","city":"横浜市中区","address":"日ノ出町"},
{"zip_code":"2310043","kana_pref":"ｶﾅｶﾞﾜｹﾝ","kana_city":"ﾖｺﾊﾏｼﾅｶｸ","kana_address":"ﾌｸﾄﾐﾁｮｳﾅｶﾄﾞｵﾘ","pref":"神奈川県","city":"横浜市中区","address":"福富町仲通"},
{"zip_code":"2310044","kana_pref":"ｶﾅｶﾞﾜｹﾝ","kana_city":"ﾖｺﾊﾏｼﾅｶｸ","kana_address":"ﾌｸﾄﾐﾁｮｳﾋｶﾞｼﾄﾞｵﾘ","pref":"神奈川県","city":"横浜市中区","address":"福富町東通"},
{"zip_code":"2310042","kana_pref":"ｶﾅｶﾞﾜｹﾝ","kana_city":"ﾖｺﾊﾏｼﾅｶｸ","kana_address":"ﾌｸﾄﾐﾁｮｳﾆｼﾄﾞｵﾘ","pref":"神奈川県","city":"横浜市中区","address":"福富町西通"},
{"zip_code":"2310037","kana_pref":"ｶﾅｶﾞﾜｹﾝ","kana_city":"ﾖｺﾊﾏｼﾅｶｸ","kana_address":"ﾌｼﾞﾐﾁｮｳ","pref":"神奈川県","city":"横浜市中区","address":"富士見町"},
{"zip_code":"2310032","kana_pref":"ｶﾅｶﾞﾜｹﾝ","kana_city":"ﾖｺﾊﾏｼﾅｶｸ","kana_address":"ﾌﾛｳﾁｮｳ","pref":"神奈川県","city":"横浜市中区","address":"不老町"},
{"zip_code":"2310007","kana_pref":"ｶﾅｶﾞﾜｹﾝ","kana_city":"ﾖｺﾊﾏｼﾅｶｸ","kana_address":"ﾍﾞﾝﾃﾝﾄﾞｵﾘ","pref":"神奈川県","city":"横浜市中区","address":"弁天通"},
{"zip_code":"2310048","kana_pref":"ｶﾅｶﾞﾜｹﾝ","kana_city":"ﾖｺﾊﾏｼﾅｶｸ","kana_address":"ﾎｳﾗｲﾁｮｳ","pref":"神奈川県","city":"横浜市中区","address":"蓬莱町"},
{"zip_code":"2310843","kana_pref":"ｶﾅｶﾞﾜｹﾝ","kana_city":"ﾖｺﾊﾏｼﾅｶｸ","kana_address":"ﾎﾝｺﾞｳﾁｮｳ","pref":"神奈川県","city":"横浜市中区","address":"本郷町"},
{"zip_code":"2310005","kana_pref":"ｶﾅｶﾞﾜｹﾝ","kana_city":"ﾖｺﾊﾏｼﾅｶｸ","kana_address":"ﾎﾝﾁｮｳ","pref":"神奈川県","city":"横浜市中区","address":"本町"},
{"zip_code":"2310826","kana_pref":"ｶﾅｶﾞﾜｹﾝ","kana_city":"ﾖｺﾊﾏｼﾅｶｸ","kana_address":"ﾎﾝﾓｸｱﾗｲ","pref":"神奈川県","city":"横浜市中区","address":"本牧荒井"},
{"zip_code":"2310823","kana_pref":"ｶﾅｶﾞﾜｹﾝ","kana_city":"ﾖｺﾊﾏｼﾅｶｸ","kana_address":"ﾎﾝﾓｸｵｵｻﾄﾁｮｳ","pref":"神奈川県","city":"横浜市中区","address":"本牧大里町"},
{"zip_code":"2310824","kana_pref":"ｶﾅｶﾞﾜｹﾝ","kana_city":"ﾖｺﾊﾏｼﾅｶｸ","kana_address":"ﾎﾝﾓｸｻﾝﾉﾀﾆ","pref":"神奈川県","city":"横浜市中区","address":"本牧三之谷"},
{"zip_code":"2310803","kana_pref":"ｶﾅｶﾞﾜｹﾝ","kana_city":"ﾖｺﾊﾏｼﾅｶｸ","kana_address":"ﾎﾝﾓｸｼﾞｭｳﾆﾃﾝ","pref":"神奈川県","city":"横浜市中区","address":"本牧十二天"},
{"zip_code":"2310821","kana_pref":"ｶﾅｶﾞﾜｹﾝ","kana_city":"ﾖｺﾊﾏｼﾅｶｸ","kana_address":"ﾎﾝﾓｸﾊﾗ","pref":"神奈川県","city":"横浜市中区","address":"本牧原"},
{"zip_code":"2310811","kana_pref":"ｶﾅｶﾞﾜｹﾝ","kana_city":"ﾖｺﾊﾏｼﾅｶｸ","kana_address":"ﾎﾝﾓｸﾌﾄｳ","pref":"神奈川県","city":"横浜市中区","address":"本牧ふ頭"},
{"zip_code":"2310825","kana_pref":"ｶﾅｶﾞﾜｹﾝ","kana_city":"ﾖｺﾊﾏｼﾅｶｸ","kana_address":"ﾎﾝﾓｸﾏｶﾄﾞ","pref":"神奈川県","city":"横浜市中区","address":"本牧間門"},
{"zip_code":"2310833","kana_pref":"ｶﾅｶﾞﾜｹﾝ","kana_city":"ﾖｺﾊﾏｼﾅｶｸ","kana_address":"ﾎﾝﾓｸﾏﾝｻﾞｶ","pref":"神奈川県","city":"横浜市中区","address":"本牧満坂"},
{"zip_code":"2310832","kana_pref":"ｶﾅｶﾞﾜｹﾝ","kana_city":"ﾖｺﾊﾏｼﾅｶｸ","kana_address":"ﾎﾝﾓｸﾐﾄﾞﾘｶﾞｵｶ","pref":"神奈川県","city":"横浜市中区","address":"本牧緑ケ丘"},
{"zip_code":"2310804","kana_pref":"ｶﾅｶﾞﾜｹﾝ","kana_city":"ﾖｺﾊﾏｼﾅｶｸ","kana_address":"ﾎﾝﾓｸﾐﾔﾊﾞﾗ","pref":"神奈川県","city":"横浜市中区","address":"本牧宮原"},
{"zip_code":"2310822","kana_pref":"ｶﾅｶﾞﾜｹﾝ","kana_city":"ﾖｺﾊﾏｼﾅｶｸ","kana_address":"ﾎﾝﾓｸﾓﾄﾏﾁ","pref":"神奈川県","city":"横浜市中区","address":"本牧元町"},
{"zip_code":"2310827","kana_pref":"ｶﾅｶﾞﾜｹﾝ","kana_city":"ﾖｺﾊﾏｼﾅｶｸ","kana_address":"ﾎﾝﾓｸﾜﾀﾞ","pref":"神奈川県","city":"横浜市中区","address":"本牧和田"},
{"zip_code":"2310806","kana_pref":"ｶﾅｶﾞﾜｹﾝ","kana_city":"ﾖｺﾊﾏｼﾅｶｸ","kana_address":"ﾎﾝﾓｸﾁｮｳ","pref":"神奈川県","city":"横浜市中区","address":"本牧町"},
{"zip_code":"2310016","kana_pref":"ｶﾅｶﾞﾜｹﾝ","kana_city":"ﾖｺﾊﾏｼﾅｶｸ","kana_address":"ﾏｻｺﾞﾁｮｳ","pref":"神奈川県","city":"横浜市中区","address":"真砂町"},
{"zip_code":"2310025","kana_pref":"ｶﾅｶﾞﾜｹﾝ","kana_city":"ﾖｺﾊﾏｼﾅｶｸ","kana_address":"ﾏﾂｶｹﾞﾁｮｳ","pref":"神奈川県","city":"横浜市中区","address":"松影町"},
{"zip_code":"2310838","kana_pref":"ｶﾅｶﾞﾜｹﾝ","kana_city":"ﾖｺﾊﾏｼﾅｶｸ","kana_address":"ﾏﾒｸﾞﾁﾀﾞｲ","pref":"神奈川県","city":"横浜市中区","address":"豆口台"},
{"zip_code":"2310017","kana_pref":"ｶﾅｶﾞﾜｹﾝ","kana_city":"ﾖｺﾊﾏｼﾅｶｸ","kana_address":"ﾐﾅﾄﾁｮｳ","pref":"神奈川県","city":"横浜市中区","address":"港町"},
{"zip_code":"2310006","kana_pref":"ｶﾅｶﾞﾜｹﾝ","kana_city":"ﾖｺﾊﾏｼﾅｶｸ","kana_address":"ﾐﾅﾐﾅｶﾄﾞｵﾘ","pref":"神奈川県","city":"横浜市中区","address":"南仲通"},
{"zip_code":"2310816","kana_pref":"ｶﾅｶﾞﾜｹﾝ","kana_city":"ﾖｺﾊﾏｼﾅｶｸ","kana_address":"ﾐﾅﾐﾎﾝﾓｸ","pref":"神奈川県","city":"横浜市中区","address":"南本牧"},
{"zip_code":"2310856","kana_pref":"ｶﾅｶﾞﾜｹﾝ","kana_city":"ﾖｺﾊﾏｼﾅｶｸ","kana_address":"ﾐﾉｻﾜ","pref":"神奈川県","city":"横浜市中区","address":"簑沢"},
{"zip_code":"2310065","kana_pref":"ｶﾅｶﾞﾜｹﾝ","kana_city":"ﾖｺﾊﾏｼﾅｶｸ","kana_address":"ﾐﾔｶﾞﾜﾁｮｳ","pref":"神奈川県","city":"横浜市中区","address":"宮川町"},
{"zip_code":"2310841","kana_pref":"ｶﾅｶﾞﾜｹﾝ","kana_city":"ﾖｺﾊﾏｼﾅｶｸ","kana_address":"ﾐｮｳｺｳｼﾞﾀﾞｲ","pref":"神奈川県","city":"横浜市中区","address":"妙香寺台"},
{"zip_code":"2310034","kana_pref":"ｶﾅｶﾞﾜｹﾝ","kana_city":"ﾖｺﾊﾏｼﾅｶｸ","kana_address":"ﾐﾖｼﾁｮｳ","pref":"神奈川県","city":"横浜市中区","address":"三吉町"},
{"zip_code":"2310849","kana_pref":"ｶﾅｶﾞﾜｹﾝ","kana_city":"ﾖｺﾊﾏｼﾅｶｸ","kana_address":"ﾑｷﾞﾀﾁｮｳ","pref":"神奈川県","city":"横浜市中区","address":"麦田町"},
{"zip_code":"2310004","kana_pref":"ｶﾅｶﾞﾜｹﾝ","kana_city":"ﾖｺﾊﾏｼﾅｶｸ","kana_address":"ﾓﾄﾊﾏﾁｮｳ","pref":"神奈川県","city":"横浜市中区","address":"元浜町"},
{"zip_code":"2310861","kana_pref":"ｶﾅｶﾞﾜｹﾝ","kana_city":"ﾖｺﾊﾏｼﾅｶｸ","kana_address":"ﾓﾄﾏﾁ","pref":"神奈川県","city":"横浜市中区","address":"元町"},
{"zip_code":"2310831","kana_pref":"ｶﾅｶﾞﾜｹﾝ","kana_city":"ﾖｺﾊﾏｼﾅｶｸ","kana_address":"ﾔｸﾞﾁﾀﾞｲ","pref":"神奈川県","city":"横浜市中区","address":"矢口台"},
{"zip_code":"2310023","kana_pref":"ｶﾅｶﾞﾜｹﾝ","kana_city":"ﾖｺﾊﾏｼﾅｶｸ","kana_address":"ﾔﾏｼﾀﾁｮｳ","pref":"神奈川県","city":"横浜市中区","address":"山下町"},
{"zip_code":"2310036","kana_pref":"ｶﾅｶﾞﾜｹﾝ","kana_city":"ﾖｺﾊﾏｼﾅｶｸ","kana_address":"ﾔﾏﾀﾞﾁｮｳ","pref":"神奈川県","city":"横浜市中区","address":"山田町"},
{"zip_code":"2310862","kana_pref":"ｶﾅｶﾞﾜｹﾝ","kana_city":"ﾖｺﾊﾏｼﾅｶｸ","kana_address":"ﾔﾏﾃﾁｮｳ","pref":"神奈川県","city":"横浜市中区","address":"山手町"},
{"zip_code":"2310846","kana_pref":"ｶﾅｶﾞﾜｹﾝ","kana_city":"ﾖｺﾊﾏｼﾅｶｸ","kana_address":"ﾔﾏﾄﾁｮｳ","pref":"神奈川県","city":"横浜市中区","address":"大和町"},
{"zip_code":"2310038","kana_pref":"ｶﾅｶﾞﾜｹﾝ","kana_city":"ﾖｺﾊﾏｼﾅｶｸ","kana_address":"ﾔﾏﾌﾞｷﾁｮｳ","pref":"神奈川県","city":"横浜市中区","address":"山吹町"},
{"zip_code":"2310851","kana_pref":"ｶﾅｶﾞﾜｹﾝ","kana_city":"ﾖｺﾊﾏｼﾅｶｸ","kana_address":"ﾔﾏﾓﾄﾁｮｳ","pref":"神奈川県","city":"横浜市中区","address":"山元町"},
{"zip_code":"2310058","kana_pref":"ｶﾅｶﾞﾜｹﾝ","kana_city":"ﾖｺﾊﾏｼﾅｶｸ","kana_address":"ﾔﾖｲﾁｮｳ","pref":"神奈川県","city":"横浜市中区","address":"弥生町"},
{"zip_code":"2310022","kana_pref":"ｶﾅｶﾞﾜｹﾝ","kana_city":"ﾖｺﾊﾏｼﾅｶｸ","kana_address":"ﾖｺﾊﾏｺｳｴﾝ","pref":"神奈川県","city":"横浜市中区","address":"横浜公園"},
{"zip_code":"2310041","kana_pref":"ｶﾅｶﾞﾜｹﾝ","kana_city":"ﾖｺﾊﾏｼﾅｶｸ","kana_address":"ﾖｼﾀﾞﾏﾁ","pref":"神奈川県","city":"横浜市中区","address":"吉田町"},
{"zip_code":"2310024","kana_pref":"ｶﾅｶﾞﾜｹﾝ","kana_city":"ﾖｺﾊﾏｼﾅｶｸ","kana_address":"ﾖｼﾊﾏﾁｮｳ","pref":"神奈川県","city":"横浜市中区","address":"吉浜町"},
{"zip_code":"2310056","kana_pref":"ｶﾅｶﾞﾜｹﾝ","kana_city":"ﾖｺﾊﾏｼﾅｶｸ","kana_address":"ﾜｶﾊﾞﾁｮｳ","pref":"神奈川県","city":"横浜市中区","address":"若葉町"},
{"zip_code":"2310805","kana_pref":"ｶﾅｶﾞﾜｹﾝ","kana_city":"ﾖｺﾊﾏｼﾅｶｸ","kana_address":"ﾜﾀﾞﾔﾏ","pref":"神奈川県","city":"横浜市中区","address":"和田山"}]}