{"zip_code":[
{"zip_code":"2320000","kana_pref":"ｶﾅｶﾞﾜｹﾝ","kana_city":"ﾖｺﾊﾏｼﾐﾅﾐｸ","kana_address":"","pref":"神奈川県","city":"横浜市南区","address":""},
{"zip_code":"2320051","kana_pref":"ｶﾅｶﾞﾜｹﾝ","kana_city":"ﾖｺﾊﾏｼﾐﾅﾐｸ","kana_address":"ｲﾄﾞｶﾞﾔｶﾐﾏﾁ","pref":"神奈川県","city":"横浜市南区","address":"井土ケ谷上町"},
{"zip_code":"2320052","kana_pref":"ｶﾅｶﾞﾜｹﾝ","kana_city":"ﾖｺﾊﾏｼﾐﾅﾐｸ","kana_address":"ｲﾄﾞｶﾞﾔﾅｶﾏﾁ","pref":"神奈川県","city":"横浜市南区","address":"井土ケ谷中町"},
{"zip_code":"2320053","kana_pref":"ｶﾅｶﾞﾜｹﾝ","kana_city":"ﾖｺﾊﾏｼﾐﾅﾐｸ","kana_address":"ｲﾄﾞｶﾞﾔｼﾓﾏﾁ","pref":"神奈川県","city":"横浜市南区","address":"井土ケ谷下町"},
{"zip_code":"2320024","kana_pref":"ｶﾅｶﾞﾜｹﾝ","kana_city":"ﾖｺﾊﾏｼﾐﾅﾐｸ","kana_address":"ｳﾗﾌﾈﾁｮｳ","pref":"神奈川県","city":"横浜市南区","address":"浦舟町"},
{"zip_code":"2320031","kana_pref":"ｶﾅｶﾞﾜｹﾝ","kana_city":"ﾖｺﾊﾏｼﾐﾅﾐｸ","kana_address":"ｴｲﾗｸﾁｮｳ","pref":"神奈川県","city":"横浜市南区","address":"永楽町"},
{"zip_code":"2320044","kana_pref":"ｶﾅｶﾞﾜｹﾝ","kana_city":"ﾖｺﾊﾏｼﾐﾅﾐｸ","kana_address":"ｴﾉｷﾁｮｳ","pref":"神奈川県","city":"横浜市南区","address":"榎町"},
{"zip_code":"2320061","kana_pref":"ｶﾅｶﾞﾜｹﾝ","kana_city":"ﾖｺﾊﾏｼﾐﾅﾐｸ","kana_address":"ｵｵｵｶ","pref":"神奈川県","city":"横浜市南区","address":"大岡"},
{"zip_code":"2320054","kana_pref":"ｶﾅｶﾞﾜｹﾝ","kana_city":"ﾖｺﾊﾏｼﾐﾅﾐｸ","kana_address":"ｵｵﾊｼﾁｮｳ","pref":"神奈川県","city":"横浜市南区","address":"大橋町"},
{"zip_code":"2320008","kana_pref":"ｶﾅｶﾞﾜｹﾝ","kana_city":"ﾖｺﾊﾏｼﾐﾅﾐｸ","kana_address":"ｶﾉｴﾀﾞｲ","pref":"神奈川県","city":"横浜市南区","address":"庚台"},
{"zip_code":"2320034","kana_pref":"ｶﾅｶﾞﾜｹﾝ","kana_city":"ﾖｺﾊﾏｼﾐﾅﾐｸ","kana_address":"ｶﾗｻﾜ","pref":"神奈川県","city":"横浜市南区","address":"唐沢"},
{"zip_code":"2320015","kana_pref":"ｶﾅｶﾞﾜｹﾝ","kana_city":"ﾖｺﾊﾏｼﾐﾅﾐｸ","kana_address":"ｷｮｳｼﾝﾁｮｳ","pref":"神奈川県","city":"横浜市南区","address":"共進町"},
{"zip_code":"2320067","kana_pref":"ｶﾅｶﾞﾜｹﾝ","kana_city":"ﾖｺﾊﾏｼﾐﾅﾐｸ","kana_address":"ｸﾞﾐｮｳｼﾞﾁｮｳ","pref":"神奈川県","city":"横浜市南区","address":"弘明寺町"},
{"zip_code":"2320013","kana_pref":"ｶﾅｶﾞﾜｹﾝ","kana_city":"ﾖｺﾊﾏｼﾐﾅﾐｸ","kana_address":"ｻﾝﾉｳﾁｮｳ","pref":"神奈川県","city":"横浜市南区","address":"山王町"},
{"zip_code":"2320036","kana_pref":"ｶﾅｶﾞﾜｹﾝ","kana_city":"ﾖｺﾊﾏｼﾐﾅﾐｸ","kana_address":"ｻﾝﾔ","pref":"神奈川県","city":"横浜市南区","address":"山谷"},
{"zip_code":"2320007","kana_pref":"ｶﾅｶﾞﾜｹﾝ","kana_city":"ﾖｺﾊﾏｼﾐﾅﾐｸ","kana_address":"ｼﾐｽﾞｶﾞｵｶ","pref":"神奈川県","city":"横浜市南区","address":"清水ケ丘"},
{"zip_code":"2320017","kana_pref":"ｶﾅｶﾞﾜｹﾝ","kana_city":"ﾖｺﾊﾏｼﾐﾅﾐｸ","kana_address":"ｼｭｸﾁｮｳ","pref":"神奈川県","city":"横浜市南区","address":"宿町"},
{"zip_code":"2320005","kana_pref":"ｶﾅｶﾞﾜｹﾝ","kana_city":"ﾖｺﾊﾏｼﾐﾅﾐｸ","kana_address":"ｼﾛｶﾞﾈﾁｮｳ","pref":"神奈川県","city":"横浜市南区","address":"白金町"},
{"zip_code":"2320023","kana_pref":"ｶﾅｶﾞﾜｹﾝ","kana_city":"ﾖｺﾊﾏｼﾐﾅﾐｸ","kana_address":"ｼﾛﾀｴﾁｮｳ","pref":"神奈川県","city":"横浜市南区","address":"白妙町"},
{"zip_code":"2320027","kana_pref":"ｶﾅｶﾞﾜｹﾝ","kana_city":"ﾖｺﾊﾏｼﾐﾅﾐｸ","kana_address":"ｼﾝｶﾜﾁｮｳ","pref":"神奈川県","city":"横浜市南区","address":"新川町"},
{"zip_code":"2320025","kana_pref":"ｶﾅｶﾞﾜｹﾝ","kana_city":"ﾖｺﾊﾏｼﾐﾅﾐｸ","kana_address":"ﾀｶｻｺﾞﾁｮｳ","pref":"神奈川県","city":"横浜市南区","address":"高砂町"},
{"zip_code":"2320022","kana_pref":"ｶﾅｶﾞﾜｹﾝ","kana_city":"ﾖｺﾊﾏｼﾐﾅﾐｸ","kana_address":"ﾀｶﾈﾁｮｳ","pref":"神奈川県","city":"横浜市南区","address":"高根町"},
{"zip_code":"2320056","kana_pref":"ｶﾅｶﾞﾜｹﾝ","kana_city":"ﾖｺﾊﾏｼﾐﾅﾐｸ","kana_address":"ﾄｵﾘﾁｮｳ","pref":"神奈川県","city":"横浜市南区","address":"通町"},
{"zip_code":"2320063","kana_pref":"ｶﾅｶﾞﾜｹﾝ","kana_city":"ﾖｺﾊﾏｼﾐﾅﾐｸ","kana_address":"ﾅｶｻﾞﾄ","pref":"神奈川県","city":"横浜市南区","address":"中里"},
{"zip_code":"2320062","kana_pref":"ｶﾅｶﾞﾜｹﾝ","kana_city":"ﾖｺﾊﾏｼﾐﾅﾐｸ","kana_address":"ﾅｶｻﾞﾄﾁｮｳ","pref":"神奈川県","city":"横浜市南区","address":"中里町"},
{"zip_code":"2320055","kana_pref":"ｶﾅｶﾞﾜｹﾝ","kana_city":"ﾖｺﾊﾏｼﾐﾅﾐｸ","kana_address":"ﾅｶｼﾞﾏﾁｮｳ","pref":"神奈川県","city":"横浜市南区","address":"中島町"},
{"zip_code":"2320033","kana_pref":"ｶﾅｶﾞﾜｹﾝ","kana_city":"ﾖｺﾊﾏｼﾐﾅﾐｸ","kana_address":"ﾅｶﾑﾗﾁｮｳ","pref":"神奈川県","city":"横浜市南区","address":"中村町"},
{"zip_code":"2320074","kana_pref":"ｶﾅｶﾞﾜｹﾝ","kana_city":"ﾖｺﾊﾏｼﾐﾅﾐｸ","kana_address":"ﾅｶﾞﾀｻﾝﾉｳﾀﾞｲ","pref":"神奈川県","city":"横浜市南区","address":"永田山王台"},
{"zip_code":"2320076","kana_pref":"ｶﾅｶﾞﾜｹﾝ","kana_city":"ﾖｺﾊﾏｼﾐﾅﾐｸ","kana_address":"ﾅｶﾞﾀﾀﾞｲ","pref":"神奈川県","city":"横浜市南区","address":"永田台"},
{"zip_code":"2320075","kana_pref":"ｶﾅｶﾞﾜｹﾝ","kana_city":"ﾖｺﾊﾏｼﾐﾅﾐｸ","kana_address":"ﾅｶﾞﾀﾐﾅﾐﾀﾞｲ","pref":"神奈川県","city":"横浜市南区","address":"永田みなみ台"},
{"zip_code":"2320072","kana_pref":"ｶﾅｶﾞﾜｹﾝ","kana_city":"ﾖｺﾊﾏｼﾐﾅﾐｸ","kana_address":"ﾅｶﾞﾀﾋｶﾞｼ","pref":"神奈川県","city":"横浜市南区","address":"永田東"},
{"zip_code":"2320073","kana_pref":"ｶﾅｶﾞﾜｹﾝ","kana_city":"ﾖｺﾊﾏｼﾐﾅﾐｸ","kana_address":"ﾅｶﾞﾀﾐﾅﾐ","pref":"神奈川県","city":"横浜市南区","address":"永田南"},
{"zip_code":"2320071","kana_pref":"ｶﾅｶﾞﾜｹﾝ","kana_city":"ﾖｺﾊﾏｼﾐﾅﾐｸ","kana_address":"ﾅｶﾞﾀｷﾀ","pref":"神奈川県","city":"横浜市南区","address":"永田北"},
{"zip_code":"2320003","kana_pref":"ｶﾅｶﾞﾜｹﾝ","kana_city":"ﾖｺﾊﾏｼﾐﾅﾐｸ","kana_address":"ﾆｼﾅｶﾁｮｳ","pref":"神奈川県","city":"横浜市南区","address":"西中町"},
{"zip_code":"2320037","kana_pref":"ｶﾅｶﾞﾜｹﾝ","kana_city":"ﾖｺﾊﾏｼﾐﾅﾐｸ","kana_address":"ﾊﾁﾏﾝﾁｮｳ","pref":"神奈川県","city":"横浜市南区","address":"八幡町"},
{"zip_code":"2320018","kana_pref":"ｶﾅｶﾞﾜｹﾝ","kana_city":"ﾖｺﾊﾏｼﾐﾅﾐｸ","kana_address":"ﾊﾅﾉｷﾁｮｳ","pref":"神奈川県","city":"横浜市南区","address":"花之木町"},
{"zip_code":"2320011","kana_pref":"ｶﾅｶﾞﾜｹﾝ","kana_city":"ﾖｺﾊﾏｼﾐﾅﾐｸ","kana_address":"ﾋｴﾁｮｳ","pref":"神奈川県","city":"横浜市南区","address":"日枝町"},
{"zip_code":"2320045","kana_pref":"ｶﾅｶﾞﾜｹﾝ","kana_city":"ﾖｺﾊﾏｼﾐﾅﾐｸ","kana_address":"ﾋｶﾞｼﾏｲﾀﾏﾁ","pref":"神奈川県","city":"横浜市南区","address":"東蒔田町"},
{"zip_code":"2320001","kana_pref":"ｶﾅｶﾞﾜｹﾝ","kana_city":"ﾖｺﾊﾏｼﾐﾅﾐｸ","kana_address":"ﾌｼﾐﾁｮｳ","pref":"神奈川県","city":"横浜市南区","address":"伏見町"},
{"zip_code":"2320026","kana_pref":"ｶﾅｶﾞﾜｹﾝ","kana_city":"ﾖｺﾊﾏｼﾐﾅﾐｸ","kana_address":"ﾌﾀﾊﾞﾁｮｳ","pref":"神奈川県","city":"横浜市南区","address":"二葉町"},
{"zip_code":"2320035","kana_pref":"ｶﾅｶﾞﾜｹﾝ","kana_city":"ﾖｺﾊﾏｼﾐﾅﾐｸ","kana_address":"ﾍｲﾗｸ","pref":"神奈川県","city":"横浜市南区","address":"平楽"},
{"zip_code":"2320064","kana_pref":"ｶﾅｶﾞﾜｹﾝ","kana_city":"ﾖｺﾊﾏｼﾐﾅﾐｸ","kana_address":"ﾍﾞｯｼﾖ","pref":"神奈川県","city":"横浜市南区","address":"別所"},
{"zip_code":"2320065","kana_pref":"ｶﾅｶﾞﾜｹﾝ","kana_city":"ﾖｺﾊﾏｼﾐﾅﾐｸ","kana_address":"ﾍﾞｯｼｮﾅｶｻﾞﾄﾀﾞｲ","pref":"神奈川県","city":"横浜市南区","address":"別所中里台"},
{"zip_code":"2320042","kana_pref":"ｶﾅｶﾞﾜｹﾝ","kana_city":"ﾖｺﾊﾏｼﾐﾅﾐｸ","kana_address":"ﾎﾘﾉｳﾁﾁｮｳ","pref":"神奈川県","city":"横浜市南区","address":"堀ノ内町"},
{"zip_code":"2320043","kana_pref":"ｶﾅｶﾞﾜｹﾝ","kana_city":"ﾖｺﾊﾏｼﾐﾅﾐｸ","kana_address":"ﾏｲﾀﾁｮｳ","pref":"神奈川県","city":"横浜市南区","address":"蒔田町"},
{"zip_code":"2320004","kana_pref":"ｶﾅｶﾞﾜｹﾝ","kana_city":"ﾖｺﾊﾏｼﾐﾅﾐｸ","kana_address":"ﾏｴｻﾄﾁｮｳ","pref":"神奈川県","city":"横浜市南区","address":"前里町"},
{"zip_code":"2320021","kana_pref":"ｶﾅｶﾞﾜｹﾝ","kana_city":"ﾖｺﾊﾏｼﾐﾅﾐｸ","kana_address":"ﾏｶﾞﾈﾁｮｳ","pref":"神奈川県","city":"横浜市南区","address":"真金町"},
{"zip_code":"2320032","kana_pref":"ｶﾅｶﾞﾜｹﾝ","kana_city":"ﾖｺﾊﾏｼﾐﾅﾐｸ","kana_address":"ﾏﾝｾｲﾁｮｳ","pref":"神奈川県","city":"横浜市南区","address":"万世町"},
{"zip_code":"2320006","kana_pref":"ｶﾅｶﾞﾜｹﾝ","kana_city":"ﾖｺﾊﾏｼﾐﾅﾐｸ","kana_address":"ﾐﾅﾐｵｵﾀ","pref":"神奈川県","city":"横浜市南区","address":"南太田"},
{"zip_code":"2320012","kana_pref":"ｶﾅｶﾞﾜｹﾝ","kana_city":"ﾖｺﾊﾏｼﾐﾅﾐｸ","kana_address":"ﾐﾅﾐﾖｼﾀﾞﾏﾁ","pref":"神奈川県","city":"横浜市南区","address":"南吉田町"},
{"zip_code":"2320002","kana_pref":"ｶﾅｶﾞﾜｹﾝ","kana_city":"ﾖｺﾊﾏｼﾐﾅﾐｸ","kana_address":"ﾐﾊﾙﾀﾞｲ","pref":"神奈川県","city":"横浜市南区","address":"三春台"},
{"zip_code":"2320016","kana_pref":"ｶﾅｶﾞﾜｹﾝ","kana_city":"ﾖｺﾊﾏｼﾐﾅﾐｸ","kana_address":"ﾐﾔﾓﾄﾁｮｳ","pref":"神奈川県","city":"横浜市南区","address":"宮元町"},
{"zip_code":"2320066","kana_pref":"ｶﾅｶﾞﾜｹﾝ","kana_city":"ﾖｺﾊﾏｼﾐﾅﾐｸ","kana_address":"ﾑﾂｶﾜ","pref":"神奈川県","city":"横浜市南区","address":"六ツ川"},
{"zip_code":"2320041","kana_pref":"ｶﾅｶﾞﾜｹﾝ","kana_city":"ﾖｺﾊﾏｼﾐﾅﾐｸ","kana_address":"ﾑﾂﾐﾁｮｳ","pref":"神奈川県","city":"横浜市南区","address":"睦町"},
{"zip_code":"2320014","kana_pref":"ｶﾅｶﾞﾜｹﾝ","kana_city":"ﾖｺﾊﾏｼﾐﾅﾐｸ","kana_address":"ﾖｼﾉﾁｮｳ","pref":"神奈川県","city":"横浜市南区","address":"吉野町"},
{"zip_code":"2320057","kana_pref":"ｶﾅｶﾞﾜｹﾝ","kana_city":"ﾖｺﾊﾏｼﾐﾅﾐｸ","kana_address":"ﾜｶﾐﾔﾁｮｳ","pref":"神奈川県","city":"横浜市南区","address":"若宮町"}]}