{"zip_code":[
{"zip_code":"2330000","kana_pref":"ｶﾅｶﾞﾜｹﾝ","kana_city":"ﾖｺﾊﾏｼｺｳﾅﾝｸ","kana_address":"","pref":"神奈川県","city":"横浜市港南区","address":""},
{"zip_code":"2330007","kana_pref":"ｶﾅｶﾞﾜｹﾝ","kana_city":"ﾖｺﾊﾏｼｺｳﾅﾝｸ","kana_address":"ｵｵｸﾎﾞ","pref":"神奈川県","city":"横浜市港南区","address":"大久保"},
{"zip_code":"2330001","kana_pref":"ｶﾅｶﾞﾜｹﾝ","kana_city":"ﾖｺﾊﾏｼｺｳﾅﾝｸ","kana_address":"ｶﾐｵｵｵｶﾋｶﾞｼ","pref":"神奈川県","city":"横浜市港南区","address":"上大岡東"},
{"zip_code":"2330002","kana_pref":"ｶﾅｶﾞﾜｹﾝ","kana_city":"ﾖｺﾊﾏｼｺｳﾅﾝｸ","kana_address":"ｶﾐｵｵｵｶﾆｼ","pref":"神奈川県","city":"横浜市港南区","address":"上大岡西"},
{"zip_code":"2330012","kana_pref":"ｶﾅｶﾞﾜｹﾝ","kana_city":"ﾖｺﾊﾏｼｺｳﾅﾝｸ","kana_address":"ｶﾐﾅｶﾞﾔ","pref":"神奈川県","city":"横浜市港南区","address":"上永谷"},
{"zip_code":"2330014","kana_pref":"ｶﾅｶﾞﾜｹﾝ","kana_city":"ﾖｺﾊﾏｼｺｳﾅﾝｸ","kana_address":"ｶﾐﾅｶﾞﾔﾁｮｳ","pref":"神奈川県","city":"横浜市港南区","address":"上永谷町"},
{"zip_code":"2330003","kana_pref":"ｶﾅｶﾞﾜｹﾝ","kana_city":"ﾖｺﾊﾏｼｺｳﾅﾝｸ","kana_address":"ｺｳﾅﾝ","pref":"神奈川県","city":"横浜市港南区","address":"港南"},
{"zip_code":"2330004","kana_pref":"ｶﾅｶﾞﾜｹﾝ","kana_city":"ﾖｺﾊﾏｼｺｳﾅﾝｸ","kana_address":"ｺｳﾅﾝﾁｭｳｵｳﾄﾞｵﾘ","pref":"神奈川県","city":"横浜市港南区","address":"港南中央通"},
{"zip_code":"2330008","kana_pref":"ｶﾅｶﾞﾜｹﾝ","kana_city":"ﾖｺﾊﾏｼｺｳﾅﾝｸ","kana_address":"ｻｲﾄﾞ","pref":"神奈川県","city":"横浜市港南区","address":"最戸"},
{"zip_code":"2330016","kana_pref":"ｶﾅｶﾞﾜｹﾝ","kana_city":"ﾖｺﾊﾏｼｺｳﾅﾝｸ","kana_address":"ｼﾓﾅｶﾞﾔ","pref":"神奈川県","city":"横浜市港南区","address":"下永谷"},
{"zip_code":"2330006","kana_pref":"ｶﾅｶﾞﾜｹﾝ","kana_city":"ﾖｺﾊﾏｼｺｳﾅﾝｸ","kana_address":"ｾﾘｶﾞﾔ","pref":"神奈川県","city":"横浜市港南区","address":"芹が谷"},
{"zip_code":"2330005","kana_pref":"ｶﾅｶﾞﾜｹﾝ","kana_city":"ﾖｺﾊﾏｼｺｳﾅﾝｸ","kana_address":"ﾋｶﾞｼｾﾘｶﾞﾔ","pref":"神奈川県","city":"横浜市港南区","address":"東芹が谷"},
{"zip_code":"2330011","kana_pref":"ｶﾅｶﾞﾜｹﾝ","kana_city":"ﾖｺﾊﾏｼｺｳﾅﾝｸ","kana_address":"ﾋｶﾞｼﾅｶﾞﾔ","pref":"神奈川県","city":"横浜市港南区","address":"東永谷"},
{"zip_code":"2330015","kana_pref":"ｶﾅｶﾞﾜｹﾝ","kana_city":"ﾖｺﾊﾏｼｺｳﾅﾝｸ","kana_address":"ﾋｷﾞﾘﾔﾏ","pref":"神奈川県","city":"横浜市港南区","address":"日限山"},
{"zip_code":"2330013","kana_pref":"ｶﾅｶﾞﾜｹﾝ","kana_city":"ﾖｺﾊﾏｼｺｳﾅﾝｸ","kana_address":"ﾏﾙﾔﾏﾀﾞｲ","pref":"神奈川県","city":"横浜市港南区","address":"丸山台"}]}