{"zip_code":[
{"zip_code":"2360000","kana_pref":"ｶﾅｶﾞﾜｹﾝ","kana_city":"ﾖｺﾊﾏｼｶﾅｻﾞﾜｸ","kana_address":"","pref":"神奈川県","city":"横浜市金沢区","address":""},
{"zip_code":"2360034","kana_pref":"ｶﾅｶﾞﾜｹﾝ","kana_city":"ﾖｺﾊﾏｼｶﾅｻﾞﾜｸ","kana_address":"ｱｻﾋﾅﾁｮｳ","pref":"神奈川県","city":"横浜市金沢区","address":"朝比奈町"},
{"zip_code":"2360013","kana_pref":"ｶﾅｶﾞﾜｹﾝ","kana_city":"ﾖｺﾊﾏｼｶﾅｻﾞﾜｸ","kana_address":"ｳﾐﾉｺｳｴﾝ","pref":"神奈川県","city":"横浜市金沢区","address":"海の公園"},
{"zip_code":"2360043","kana_pref":"ｶﾅｶﾞﾜｹﾝ","kana_city":"ﾖｺﾊﾏｼｶﾅｻﾞﾜｸ","kana_address":"ｵｵｶﾜ","pref":"神奈川県","city":"横浜市金沢区","address":"大川"},
{"zip_code":"2360024","kana_pref":"ｶﾅｶﾞﾜｹﾝ","kana_city":"ﾖｺﾊﾏｼｶﾅｻﾞﾜｸ","kana_address":"ｵﾂﾄﾓﾁｮｳ","pref":"神奈川県","city":"横浜市金沢区","address":"乙舳町"},
{"zip_code":"2360055","kana_pref":"ｶﾅｶﾞﾜｹﾝ","kana_city":"ﾖｺﾊﾏｼｶﾅｻﾞﾜｸ","kana_address":"ｶﾀﾌﾞｷ","pref":"神奈川県","city":"横浜市金沢区","address":"片吹"},
{"zip_code":"2360015","kana_pref":"ｶﾅｶﾞﾜｹﾝ","kana_city":"ﾖｺﾊﾏｼｶﾅｻﾞﾜｸ","kana_address":"ｶﾅｻﾞﾜﾁｮｳ","pref":"神奈川県","city":"横浜市金沢区","address":"金沢町"},
{"zip_code":"2360041","kana_pref":"ｶﾅｶﾞﾜｹﾝ","kana_city":"ﾖｺﾊﾏｼｶﾅｻﾞﾜｸ","kana_address":"ｶﾏﾘﾔﾁｮｳ","pref":"神奈川県","city":"横浜市金沢区","address":"釜利谷町"},
{"zip_code":"2360042","kana_pref":"ｶﾅｶﾞﾜｹﾝ","kana_city":"ﾖｺﾊﾏｼｶﾅｻﾞﾜｸ","kana_address":"ｶﾏﾘﾔﾋｶﾞｼ","pref":"神奈川県","city":"横浜市金沢区","address":"釜利谷東"},
{"zip_code":"2360046","kana_pref":"ｶﾅｶﾞﾜｹﾝ","kana_city":"ﾖｺﾊﾏｼｶﾅｻﾞﾜｸ","kana_address":"ｶﾏﾘﾔﾆｼ","pref":"神奈川県","city":"横浜市金沢区","address":"釜利谷西"},
{"zip_code":"2360045","kana_pref":"ｶﾅｶﾞﾜｹﾝ","kana_city":"ﾖｺﾊﾏｼｶﾅｻﾞﾜｸ","kana_address":"ｶﾏﾘﾔﾐﾅﾐ","pref":"神奈川県","city":"横浜市金沢区","address":"釜利谷南"},
{"zip_code":"2360003","kana_pref":"ｶﾅｶﾞﾜｹﾝ","kana_city":"ﾖｺﾊﾏｼｶﾅｻﾞﾜｸ","kana_address":"ｻﾁｳﾗ","pref":"神奈川県","city":"横浜市金沢区","address":"幸浦"},
{"zip_code":"2360012","kana_pref":"ｶﾅｶﾞﾜｹﾝ","kana_city":"ﾖｺﾊﾏｼｶﾅｻﾞﾜｸ","kana_address":"ｼﾊﾞﾏﾁ","pref":"神奈川県","city":"横浜市金沢区","address":"柴町"},
{"zip_code":"2360001","kana_pref":"ｶﾅｶﾞﾜｹﾝ","kana_city":"ﾖｺﾊﾏｼｶﾅｻﾞﾜｸ","kana_address":"ｼｮｳﾜﾏﾁ","pref":"神奈川県","city":"横浜市金沢区","address":"昭和町"},
{"zip_code":"2360007","kana_pref":"ｶﾅｶﾞﾜｹﾝ","kana_city":"ﾖｺﾊﾏｼｶﾅｻﾞﾜｸ","kana_address":"ｼﾗﾎ","pref":"神奈川県","city":"横浜市金沢区","address":"白帆"},
{"zip_code":"2360028","kana_pref":"ｶﾅｶﾞﾜｹﾝ","kana_city":"ﾖｺﾊﾏｼｶﾅｻﾞﾜｸ","kana_address":"ｽｻｷﾁｮｳ","pref":"神奈川県","city":"横浜市金沢区","address":"洲崎町"},
{"zip_code":"2360027","kana_pref":"ｶﾅｶﾞﾜｹﾝ","kana_city":"ﾖｺﾊﾏｼｶﾅｻﾞﾜｸ","kana_address":"ｾﾄ","pref":"神奈川県","city":"横浜市金沢区","address":"瀬戸"},
{"zip_code":"2360035","kana_pref":"ｶﾅｶﾞﾜｹﾝ","kana_city":"ﾖｺﾊﾏｼｶﾅｻﾞﾜｸ","kana_address":"ﾀﾞｲﾄﾞｳ","pref":"神奈川県","city":"横浜市金沢区","address":"大道"},
{"zip_code":"2360044","kana_pref":"ｶﾅｶﾞﾜｹﾝ","kana_city":"ﾖｺﾊﾏｼｶﾅｻﾞﾜｸ","kana_address":"ﾀｶﾌﾈﾀﾞｲ","pref":"神奈川県","city":"横浜市金沢区","address":"高舟台"},
{"zip_code":"2360021","kana_pref":"ｶﾅｶﾞﾜｹﾝ","kana_city":"ﾖｺﾊﾏｼｶﾅｻﾞﾜｸ","kana_address":"ﾃﾞｲｷ","pref":"神奈川県","city":"横浜市金沢区","address":"泥亀"},
{"zip_code":"2360014","kana_pref":"ｶﾅｶﾞﾜｹﾝ","kana_city":"ﾖｺﾊﾏｼｶﾅｻﾞﾜｸ","kana_address":"ﾃﾗﾏｴ","pref":"神奈川県","city":"横浜市金沢区","address":"寺前"},
{"zip_code":"2360051","kana_pref":"ｶﾅｶﾞﾜｹﾝ","kana_city":"ﾖｺﾊﾏｼｶﾅｻﾞﾜｸ","kana_address":"ﾄﾐｵｶﾋｶﾞｼ","pref":"神奈川県","city":"横浜市金沢区","address":"富岡東"},
{"zip_code":"2360052","kana_pref":"ｶﾅｶﾞﾜｹﾝ","kana_city":"ﾖｺﾊﾏｼｶﾅｻﾞﾜｸ","kana_address":"ﾄﾐｵｶﾆｼ","pref":"神奈川県","city":"横浜市金沢区","address":"富岡西"},
{"zip_code":"2360002","kana_pref":"ｶﾅｶﾞﾜｹﾝ","kana_city":"ﾖｺﾊﾏｼｶﾅｻﾞﾜｸ","kana_address":"ﾄﾘﾊﾏﾁｮｳ","pref":"神奈川県","city":"横浜市金沢区","address":"鳥浜町"},
{"zip_code":"2360011","kana_pref":"ｶﾅｶﾞﾜｹﾝ","kana_city":"ﾖｺﾊﾏｼｶﾅｻﾞﾜｸ","kana_address":"ﾅｶﾞﾊﾏ","pref":"神奈川県","city":"横浜市金沢区","address":"長浜"},
{"zip_code":"2360005","kana_pref":"ｶﾅｶﾞﾜｹﾝ","kana_city":"ﾖｺﾊﾏｼｶﾅｻﾞﾜｸ","kana_address":"ﾅﾐｷ","pref":"神奈川県","city":"横浜市金沢区","address":"並木"},
{"zip_code":"2360017","kana_pref":"ｶﾅｶﾞﾜｹﾝ","kana_city":"ﾖｺﾊﾏｼｶﾅｻﾞﾜｸ","kana_address":"ﾆｼｼﾊﾞ","pref":"神奈川県","city":"横浜市金沢区","address":"西柴"},
{"zip_code":"2360057","kana_pref":"ｶﾅｶﾞﾜｹﾝ","kana_city":"ﾖｺﾊﾏｼｶﾅｻﾞﾜｸ","kana_address":"ﾉｳｹﾝﾀﾞｲ","pref":"神奈川県","city":"横浜市金沢区","address":"能見台"},
{"zip_code":"2360053","kana_pref":"ｶﾅｶﾞﾜｹﾝ","kana_city":"ﾖｺﾊﾏｼｶﾅｻﾞﾜｸ","kana_address":"ﾉｳｹﾝﾀﾞｲﾄﾞｵﾘ","pref":"神奈川県","city":"横浜市金沢区","address":"能見台通"},
{"zip_code":"2360058","kana_pref":"ｶﾅｶﾞﾜｹﾝ","kana_city":"ﾖｺﾊﾏｼｶﾅｻﾞﾜｸ","kana_address":"ﾉｳｹﾝﾀﾞｲﾋｶﾞｼ","pref":"神奈川県","city":"横浜市金沢区","address":"能見台東"},
{"zip_code":"2360056","kana_pref":"ｶﾅｶﾞﾜｹﾝ","kana_city":"ﾖｺﾊﾏｼｶﾅｻﾞﾜｸ","kana_address":"ﾉｳｹﾝﾀﾞｲﾓﾘ","pref":"神奈川県","city":"横浜市金沢区","address":"能見台森"},
{"zip_code":"2360025","kana_pref":"ｶﾅｶﾞﾜｹﾝ","kana_city":"ﾖｺﾊﾏｼｶﾅｻﾞﾜｸ","kana_address":"ﾉｼﾞﾏﾁｮｳ","pref":"神奈川県","city":"横浜市金沢区","address":"野島町"},
{"zip_code":"2360006","kana_pref":"ｶﾅｶﾞﾜｹﾝ","kana_city":"ﾖｺﾊﾏｼｶﾅｻﾞﾜｸ","kana_address":"ﾊｯｹｲｼﾞﾏ","pref":"神奈川県","city":"横浜市金沢区","address":"八景島"},
{"zip_code":"2360033","kana_pref":"ｶﾅｶﾞﾜｹﾝ","kana_city":"ﾖｺﾊﾏｼｶﾅｻﾞﾜｸ","kana_address":"ﾋｶﾞｼｱｻﾋﾅ","pref":"神奈川県","city":"横浜市金沢区","address":"東朝比奈"},
{"zip_code":"2360023","kana_pref":"ｶﾅｶﾞﾜｹﾝ","kana_city":"ﾖｺﾊﾏｼｶﾅｻﾞﾜｸ","kana_address":"ﾋﾗｶﾀﾁｮｳ","pref":"神奈川県","city":"横浜市金沢区","address":"平潟町"},
{"zip_code":"2360004","kana_pref":"ｶﾅｶﾞﾜｹﾝ","kana_city":"ﾖｺﾊﾏｼｶﾅｻﾞﾜｸ","kana_address":"ﾌｸｳﾗ","pref":"神奈川県","city":"横浜市金沢区","address":"福浦"},
{"zip_code":"2360054","kana_pref":"ｶﾅｶﾞﾜｹﾝ","kana_city":"ﾖｺﾊﾏｼｶﾅｻﾞﾜｸ","kana_address":"ﾎﾘｸﾞﾁ","pref":"神奈川県","city":"横浜市金沢区","address":"堀口"},
{"zip_code":"2360022","kana_pref":"ｶﾅｶﾞﾜｹﾝ","kana_city":"ﾖｺﾊﾏｼｶﾅｻﾞﾜｸ","kana_address":"ﾏﾁﾔﾁｮｳ","pref":"神奈川県","city":"横浜市金沢区","address":"町屋町"},
{"zip_code":"2360036","kana_pref":"ｶﾅｶﾞﾜｹﾝ","kana_city":"ﾖｺﾊﾏｼｶﾅｻﾞﾜｸ","kana_address":"ﾐｽﾞｷﾁｮｳ","pref":"神奈川県","city":"横浜市金沢区","address":"みず木町"},
{"zip_code":"2360031","kana_pref":"ｶﾅｶﾞﾜｹﾝ","kana_city":"ﾖｺﾊﾏｼｶﾅｻﾞﾜｸ","kana_address":"ﾑﾂｳﾗ","pref":"神奈川県","city":"横浜市金沢区","address":"六浦"},
{"zip_code":"2360032","kana_pref":"ｶﾅｶﾞﾜｹﾝ","kana_city":"ﾖｺﾊﾏｼｶﾅｻﾞﾜｸ","kana_address":"ﾑﾂｳﾗﾁｮｳ","pref":"神奈川県","city":"横浜市金沢区","address":"六浦町"},
{"zip_code":"2360037","kana_pref":"ｶﾅｶﾞﾜｹﾝ","kana_city":"ﾖｺﾊﾏｼｶﾅｻﾞﾜｸ","kana_address":"ﾑﾂｳﾗﾋｶﾞｼ","pref":"神奈川県","city":"横浜市金沢区","address":"六浦東"},
{"zip_code":"2360038","kana_pref":"ｶﾅｶﾞﾜｹﾝ","kana_city":"ﾖｺﾊﾏｼｶﾅｻﾞﾜｸ","kana_address":"ﾑﾂｳﾗﾐﾅﾐ","pref":"神奈川県","city":"横浜市金沢区","address":"六浦南"},
{"zip_code":"2360016","kana_pref":"ｶﾅｶﾞﾜｹﾝ","kana_city":"ﾖｺﾊﾏｼｶﾅｻﾞﾜｸ","kana_address":"ﾔﾂﾏﾁ","pref":"神奈川県","city":"横浜市金沢区","address":"谷津町"},
{"zip_code":"2360026","kana_pref":"ｶﾅｶﾞﾜｹﾝ","kana_city":"ﾖｺﾊﾏｼｶﾅｻﾞﾜｸ","kana_address":"ﾔﾅｷﾞﾁｮｳ","pref":"神奈川県","city":"横浜市金沢区","address":"柳町"}]}