{"zip_code":[
{"zip_code":"2370062","kana_pref":"ｶﾅｶﾞﾜｹﾝ","kana_city":"ﾖｺｽｶｼ","kana_address":"ｳﾗｺﾞｳﾁｮｳ","pref":"神奈川県","city":"横須賀市","address":"浦郷町"},
{"zip_code":"2370063","kana_pref":"ｶﾅｶﾞﾜｹﾝ","kana_city":"ﾖｺｽｶｼ","kana_address":"ｵｯﾊﾟﾏﾋｶﾞｼﾁｮｳ","pref":"神奈川県","city":"横須賀市","address":"追浜東町"},
{"zip_code":"2370065","kana_pref":"ｶﾅｶﾞﾜｹﾝ","kana_city":"ﾖｺｽｶｼ","kana_address":"ｵｯﾊﾟﾏﾐﾅﾐﾁｮｳ","pref":"神奈川県","city":"横須賀市","address":"追浜南町"},
{"zip_code":"2370068","kana_pref":"ｶﾅｶﾞﾜｹﾝ","kana_city":"ﾖｺｽｶｼ","kana_address":"ｵｯﾊﾟﾏﾎﾝﾁｮｳ","pref":"神奈川県","city":"横須賀市","address":"追浜本町"},
{"zip_code":"2370064","kana_pref":"ｶﾅｶﾞﾜｹﾝ","kana_city":"ﾖｺｽｶｼ","kana_address":"ｵｯﾊﾟﾏﾁｮｳ","pref":"神奈川県","city":"横須賀市","address":"追浜町"},
{"zip_code":"2370066","kana_pref":"ｶﾅｶﾞﾜｹﾝ","kana_city":"ﾖｺｽｶｼ","kana_address":"ｼｮｳﾅﾝﾀｶﾄﾘ","pref":"神奈川県","city":"横須賀市","address":"湘南鷹取"},
{"zip_code":"2370073","kana_pref":"ｶﾅｶﾞﾜｹﾝ","kana_city":"ﾖｺｽｶｼ","kana_address":"ﾀｳﾗｲｽﾞﾐﾁｮｳ","pref":"神奈川県","city":"横須賀市","address":"田浦泉町"},
{"zip_code":"2370074","kana_pref":"ｶﾅｶﾞﾜｹﾝ","kana_city":"ﾖｺｽｶｼ","kana_address":"ﾀｳﾗｵｵｻｸﾁｮｳ","pref":"神奈川県","city":"横須賀市","address":"田浦大作町"},
{"zip_code":"2370071","kana_pref":"ｶﾅｶﾞﾜｹﾝ","kana_city":"ﾖｺｽｶｼ","kana_address":"ﾀｳﾗﾐﾅﾄﾁｮｳ","pref":"神奈川県","city":"横須賀市","address":"田浦港町"},
{"zip_code":"2370075","kana_pref":"ｶﾅｶﾞﾜｹﾝ","kana_city":"ﾖｺｽｶｼ","kana_address":"ﾀｳﾗﾁｮｳ","pref":"神奈川県","city":"横須賀市","address":"田浦町"},
{"zip_code":"2370067","kana_pref":"ｶﾅｶﾞﾜｹﾝ","kana_city":"ﾖｺｽｶｼ","kana_address":"ﾀｶﾄﾘ","pref":"神奈川県","city":"横須賀市","address":"鷹取"},
{"zip_code":"2370072","kana_pref":"ｶﾅｶﾞﾜｹﾝ","kana_city":"ﾖｺｽｶｼ","kana_address":"ﾅｶﾞｳﾗﾁｮｳ","pref":"神奈川県","city":"横須賀市","address":"長浦町"},
{"zip_code":"2370061","kana_pref":"ｶﾅｶﾞﾜｹﾝ","kana_city":"ﾖｺｽｶｼ","kana_address":"ﾅﾂｼﾏﾁｮｳ","pref":"神奈川県","city":"横須賀市","address":"夏島町"},
{"zip_code":"2370078","kana_pref":"ｶﾅｶﾞﾜｹﾝ","kana_city":"ﾖｺｽｶｼ","kana_address":"ﾊｺｻﾞｷﾁｮｳ","pref":"神奈川県","city":"横須賀市","address":"箱崎町"},
{"zip_code":"2370077","kana_pref":"ｶﾅｶﾞﾜｹﾝ","kana_city":"ﾖｺｽｶｼ","kana_address":"ﾊﾏﾐﾀﾞｲ","pref":"神奈川県","city":"横須賀市","address":"浜見台"},
{"zip_code":"2370076","kana_pref":"ｶﾅｶﾞﾜｹﾝ","kana_city":"ﾖｺｽｶｼ","kana_address":"ﾌﾅｺｼﾁｮｳ","pref":"神奈川県","city":"横須賀市","address":"船越町"},
{"zip_code":"2370079","kana_pref":"ｶﾅｶﾞﾜｹﾝ","kana_city":"ﾖｺｽｶｼ","kana_address":"ﾐﾅﾄｶﾞｵｶ","pref":"神奈川県","city":"横須賀市","address":"港が丘"}]}