{"zip_code":[
{"zip_code":"2380000","kana_pref":"ｶﾅｶﾞﾜｹﾝ","kana_city":"ﾖｺｽｶｼ","kana_address":"","pref":"神奈川県","city":"横須賀市","address":""},
{"zip_code":"2380033","kana_pref":"ｶﾅｶﾞﾜｹﾝ","kana_city":"ﾖｺｽｶｼ","kana_address":"ｱﾍﾞｸﾗ","pref":"神奈川県","city":"横須賀市","address":"阿部倉"},
{"zip_code":"2380048","kana_pref":"ｶﾅｶﾞﾜｹﾝ","kana_city":"ﾖｺｽｶｼ","kana_address":"ｱﾝｼﾞﾝﾀﾞｲ","pref":"神奈川県","city":"横須賀市","address":"安針台"},
{"zip_code":"2380035","kana_pref":"ｶﾅｶﾞﾜｹﾝ","kana_city":"ﾖｺｽｶｼ","kana_address":"ｲｹｶﾞﾐ","pref":"神奈川県","city":"横須賀市","address":"池上"},
{"zip_code":"2380003","kana_pref":"ｶﾅｶﾞﾜｹﾝ","kana_city":"ﾖｺｽｶｼ","kana_address":"ｲﾅｵｶﾁｮｳ","pref":"神奈川県","city":"横須賀市","address":"稲岡町"},
{"zip_code":"2380051","kana_pref":"ｶﾅｶﾞﾜｹﾝ","kana_city":"ﾖｺｽｶｼ","kana_address":"ｲﾘﾔﾏｽﾞﾁｮｳ","pref":"神奈川県","city":"横須賀市","address":"不入斗町"},
{"zip_code":"2380017","kana_pref":"ｶﾅｶﾞﾜｹﾝ","kana_city":"ﾖｺｽｶｼ","kana_address":"ｳﾜﾏﾁ","pref":"神奈川県","city":"横須賀市","address":"上町"},
{"zip_code":"2380311","kana_pref":"ｶﾅｶﾞﾜｹﾝ","kana_city":"ﾖｺｽｶｼ","kana_address":"ｵｵﾀﾜ","pref":"神奈川県","city":"横須賀市","address":"太田和"},
{"zip_code":"2380008","kana_pref":"ｶﾅｶﾞﾜｹﾝ","kana_city":"ﾖｺｽｶｼ","kana_address":"ｵｵﾀﾞｷﾁｮｳ","pref":"神奈川県","city":"横須賀市","address":"大滝町"},
{"zip_code":"2380024","kana_pref":"ｶﾅｶﾞﾜｹﾝ","kana_city":"ﾖｺｽｶｼ","kana_address":"ｵｵﾔﾍﾞ","pref":"神奈川県","city":"横須賀市","address":"大矢部"},
{"zip_code":"2380004","kana_pref":"ｶﾅｶﾞﾜｹﾝ","kana_city":"ﾖｺｽｶｼ","kana_address":"ｵｶﾞﾜﾁｮｳ","pref":"神奈川県","city":"横須賀市","address":"小川町"},
{"zip_code":"2380034","kana_pref":"ｶﾅｶﾞﾜｹﾝ","kana_city":"ﾖｺｽｶｼ","kana_address":"ｶﾈﾔ","pref":"神奈川県","city":"横須賀市","address":"金谷"},
{"zip_code":"2380031","kana_pref":"ｶﾅｶﾞﾜｹﾝ","kana_city":"ﾖｺｽｶｼ","kana_address":"ｷﾇｶｻｻｶｴﾁｮｳ","pref":"神奈川県","city":"横須賀市","address":"衣笠栄町"},
{"zip_code":"2380025","kana_pref":"ｶﾅｶﾞﾜｹﾝ","kana_city":"ﾖｺｽｶｼ","kana_address":"ｷﾇｶｻﾁｮｳ","pref":"神奈川県","city":"横須賀市","address":"衣笠町"},
{"zip_code":"2380022","kana_pref":"ｶﾅｶﾞﾜｹﾝ","kana_city":"ﾖｺｽｶｼ","kana_address":"ｸｺﾞｳﾁｮｳ","pref":"神奈川県","city":"横須賀市","address":"公郷町"},
{"zip_code":"2380002","kana_pref":"ｶﾅｶﾞﾜｹﾝ","kana_city":"ﾖｺｽｶｼ","kana_address":"ｸｽｶﾞｳﾗﾁｮｳ","pref":"神奈川県","city":"横須賀市","address":"楠ケ浦町"},
{"zip_code":"2380026","kana_pref":"ｶﾅｶﾞﾜｹﾝ","kana_city":"ﾖｺｽｶｼ","kana_address":"ｺﾔﾍﾞ","pref":"神奈川県","city":"横須賀市","address":"小矢部"},
{"zip_code":"2380043","kana_pref":"ｶﾅｶﾞﾜｹﾝ","kana_city":"ﾖｺｽｶｼ","kana_address":"ｻｶﾓﾄﾁｮｳ","pref":"神奈川県","city":"横須賀市","address":"坂本町"},
{"zip_code":"2380052","kana_pref":"ｶﾅｶﾞﾜｹﾝ","kana_city":"ﾖｺｽｶｼ","kana_address":"ｻﾉﾁｮｳ","pref":"神奈川県","city":"横須賀市","address":"佐野町"},
{"zip_code":"2380019","kana_pref":"ｶﾅｶﾞﾜｹﾝ","kana_city":"ﾖｺｽｶｼ","kana_address":"ｻﾙｼﾏ","pref":"神奈川県","city":"横須賀市","address":"猿島"},
{"zip_code":"2380042","kana_pref":"ｶﾅｶﾞﾜｹﾝ","kana_city":"ﾖｺｽｶｼ","kana_address":"ｼｵｲﾘﾁｮｳ","pref":"神奈川県","city":"横須賀市","address":"汐入町"},
{"zip_code":"2380054","kana_pref":"ｶﾅｶﾞﾜｹﾝ","kana_city":"ﾖｺｽｶｼ","kana_address":"ｼｵﾐﾀﾞｲ","pref":"神奈川県","city":"横須賀市","address":"汐見台"},
{"zip_code":"2380005","kana_pref":"ｶﾅｶﾞﾜｹﾝ","kana_city":"ﾖｺｽｶｼ","kana_address":"ｼﾝｺｳﾁｮｳ","pref":"神奈川県","city":"横須賀市","address":"新港町"},
{"zip_code":"2380314","kana_pref":"ｶﾅｶﾞﾜｹﾝ","kana_city":"ﾖｺｽｶｼ","kana_address":"ｽｶﾞﾙﾔ","pref":"神奈川県","city":"横須賀市","address":"須軽谷"},
{"zip_code":"2380313","kana_pref":"ｶﾅｶﾞﾜｹﾝ","kana_city":"ﾖｺｽｶｼ","kana_address":"ﾀｹ","pref":"神奈川県","city":"横須賀市","address":"武"},
{"zip_code":"2380015","kana_pref":"ｶﾅｶﾞﾜｹﾝ","kana_city":"ﾖｺｽｶｼ","kana_address":"ﾀﾄﾞﾀﾞｲ","pref":"神奈川県","city":"横須賀市","address":"田戸台"},
{"zip_code":"2380056","kana_pref":"ｶﾅｶﾞﾜｹﾝ","kana_city":"ﾖｺｽｶｼ","kana_address":"ﾂﾙｶﾞｵｶ","pref":"神奈川県","city":"横須賀市","address":"鶴が丘"},
{"zip_code":"2380001","kana_pref":"ｶﾅｶﾞﾜｹﾝ","kana_city":"ﾖｺｽｶｼ","kana_address":"ﾄﾏﾘﾁｮｳ","pref":"神奈川県","city":"横須賀市","address":"泊町"},
{"zip_code":"2380316","kana_pref":"ｶﾅｶﾞﾜｹﾝ","kana_city":"ﾖｺｽｶｼ","kana_address":"ﾅｶﾞｲ","pref":"神奈川県","city":"横須賀市","address":"長井"},
{"zip_code":"2380046","kana_pref":"ｶﾅｶﾞﾜｹﾝ","kana_city":"ﾖｺｽｶｼ","kana_address":"ﾆｼﾍﾐﾁｮｳ","pref":"神奈川県","city":"横須賀市","address":"西逸見町"},
{"zip_code":"2380315","kana_pref":"ｶﾅｶﾞﾜｹﾝ","kana_city":"ﾖｺｽｶｼ","kana_address":"ﾊﾔｼ","pref":"神奈川県","city":"横須賀市","address":"林"},
{"zip_code":"2380045","kana_pref":"ｶﾅｶﾞﾜｹﾝ","kana_city":"ﾖｺｽｶｼ","kana_address":"ﾋｶﾞｼﾍﾐﾁｮｳ","pref":"神奈川県","city":"横須賀市","address":"東逸見町"},
{"zip_code":"2380006","kana_pref":"ｶﾅｶﾞﾜｹﾝ","kana_city":"ﾖｺｽｶｼ","kana_address":"ﾋﾉﾃﾞﾁｮｳ","pref":"神奈川県","city":"横須賀市","address":"日の出町"},
{"zip_code":"2380032","kana_pref":"ｶﾅｶﾞﾜｹﾝ","kana_city":"ﾖｺｽｶｼ","kana_address":"ﾋﾗｻｸ","pref":"神奈川県","city":"横須賀市","address":"平作"},
{"zip_code":"2380016","kana_pref":"ｶﾅｶﾞﾜｹﾝ","kana_city":"ﾖｺｽｶｼ","kana_address":"ﾌｶﾀﾞﾀﾞｲ","pref":"神奈川県","city":"横須賀市","address":"深田台"},
{"zip_code":"2380021","kana_pref":"ｶﾅｶﾞﾜｹﾝ","kana_city":"ﾖｺｽｶｼ","kana_address":"ﾌｼﾞﾐﾁｮｳ","pref":"神奈川県","city":"横須賀市","address":"富士見町"},
{"zip_code":"2380013","kana_pref":"ｶﾅｶﾞﾜｹﾝ","kana_city":"ﾖｺｽｶｼ","kana_address":"ﾍｲｾｲﾁｮｳ","pref":"神奈川県","city":"横須賀市","address":"平成町"},
{"zip_code":"2380055","kana_pref":"ｶﾅｶﾞﾜｹﾝ","kana_city":"ﾖｺｽｶｼ","kana_address":"ﾍｲﾜﾀﾞｲ","pref":"神奈川県","city":"横須賀市","address":"平和台"},
{"zip_code":"2380044","kana_pref":"ｶﾅｶﾞﾜｹﾝ","kana_city":"ﾖｺｽｶｼ","kana_address":"ﾍﾐｶﾞｵｶ","pref":"神奈川県","city":"横須賀市","address":"逸見が丘"},
{"zip_code":"2380053","kana_pref":"ｶﾅｶﾞﾜｹﾝ","kana_city":"ﾖｺｽｶｼ","kana_address":"ﾎﾞｳﾖｳﾀﾞｲ","pref":"神奈川県","city":"横須賀市","address":"望洋台"},
{"zip_code":"2380041","kana_pref":"ｶﾅｶﾞﾜｹﾝ","kana_city":"ﾖｺｽｶｼ","kana_address":"ﾎﾝﾁｮｳ","pref":"神奈川県","city":"横須賀市","address":"本町"},
{"zip_code":"2380018","kana_pref":"ｶﾅｶﾞﾜｹﾝ","kana_city":"ﾖｺｽｶｼ","kana_address":"ﾐﾄﾞﾘｶﾞｵｶ","pref":"神奈川県","city":"横須賀市","address":"緑が丘"},
{"zip_code":"2380014","kana_pref":"ｶﾅｶﾞﾜｹﾝ","kana_city":"ﾖｺｽｶｼ","kana_address":"ﾐﾊﾙﾁｮｳ","pref":"神奈川県","city":"横須賀市","address":"三春町"},
{"zip_code":"2380317","kana_pref":"ｶﾅｶﾞﾜｹﾝ","kana_city":"ﾖｺｽｶｼ","kana_address":"ﾐﾕｷﾊﾏ","pref":"神奈川県","city":"横須賀市","address":"御幸浜"},
{"zip_code":"2380023","kana_pref":"ｶﾅｶﾞﾜｹﾝ","kana_city":"ﾖｺｽｶｼ","kana_address":"ﾓﾘｻｷ","pref":"神奈川県","city":"横須賀市","address":"森崎"},
{"zip_code":"2380012","kana_pref":"ｶﾅｶﾞﾜｹﾝ","kana_city":"ﾖｺｽｶｼ","kana_address":"ﾔｽｳﾗﾁｮｳ","pref":"神奈川県","city":"横須賀市","address":"安浦町"},
{"zip_code":"2380312","kana_pref":"ｶﾅｶﾞﾜｹﾝ","kana_city":"ﾖｺｽｶｼ","kana_address":"ﾔﾏｼﾅﾀﾞｲ","pref":"神奈川県","city":"横須賀市","address":"山科台"},
{"zip_code":"2380036","kana_pref":"ｶﾅｶﾞﾜｹﾝ","kana_city":"ﾖｺｽｶｼ","kana_address":"ﾔﾏﾅｶﾁｮｳ","pref":"神奈川県","city":"横須賀市","address":"山中町"},
{"zip_code":"2380047","kana_pref":"ｶﾅｶﾞﾜｹﾝ","kana_city":"ﾖｺｽｶｼ","kana_address":"ﾖｼｸﾗﾁｮｳ","pref":"神奈川県","city":"横須賀市","address":"吉倉町"},
{"zip_code":"2380011","kana_pref":"ｶﾅｶﾞﾜｹﾝ","kana_city":"ﾖｺｽｶｼ","kana_address":"ﾖﾈｶﾞﾊﾏﾄﾞｵﾘ","pref":"神奈川県","city":"横須賀市","address":"米が浜通"},
{"zip_code":"2380007","kana_pref":"ｶﾅｶﾞﾜｹﾝ","kana_city":"ﾖｺｽｶｼ","kana_address":"ﾜｶﾏﾂﾁｮｳ","pref":"神奈川県","city":"横須賀市","address":"若松町"},
{"zip_code":"2380200","kana_pref":"ｶﾅｶﾞﾜｹﾝ","kana_city":"ﾐｳﾗｼ","kana_address":"","pref":"神奈川県","city":"三浦市","address":""},
{"zip_code":"2380246","kana_pref":"ｶﾅｶﾞﾜｹﾝ","kana_city":"ﾐｳﾗｼ","kana_address":"ｵｶﾞﾐﾁｮｳ","pref":"神奈川県","city":"三浦市","address":"尾上町"},
{"zip_code":"2380245","kana_pref":"ｶﾅｶﾞﾜｹﾝ","kana_city":"ﾐｳﾗｼ","kana_address":"ｶｲﾄﾁｮｳ","pref":"神奈川県","city":"三浦市","address":"海外町"},
{"zip_code":"2380222","kana_pref":"ｶﾅｶﾞﾜｹﾝ","kana_city":"ﾐｳﾗｼ","kana_address":"ｺｳﾖｳﾁｮｳ","pref":"神奈川県","city":"三浦市","address":"岬陽町"},
{"zip_code":"2380236","kana_pref":"ｶﾅｶﾞﾜｹﾝ","kana_city":"ﾐｳﾗｼ","kana_address":"ｻｶｴﾁｮｳ","pref":"神奈川県","city":"三浦市","address":"栄町"},
{"zip_code":"2380244","kana_pref":"ｶﾅｶﾞﾜｹﾝ","kana_city":"ﾐｳﾗｼ","kana_address":"ｼﾗｲｼﾁｮｳ","pref":"神奈川県","city":"三浦市","address":"白石町"},
{"zip_code":"2380235","kana_pref":"ｶﾅｶﾞﾜｹﾝ","kana_city":"ﾐｳﾗｼ","kana_address":"ｼﾛﾔﾏﾁｮｳ","pref":"神奈川県","city":"三浦市","address":"城山町"},
{"zip_code":"2380234","kana_pref":"ｶﾅｶﾞﾜｹﾝ","kana_city":"ﾐｳﾗｼ","kana_address":"ｽﾜﾁｮｳ","pref":"神奈川県","city":"三浦市","address":"諏訪町"},
{"zip_code":"2380241","kana_pref":"ｶﾅｶﾞﾜｹﾝ","kana_city":"ﾐｳﾗｼ","kana_address":"ﾃﾝｼﾞﾝﾁｮｳ","pref":"神奈川県","city":"三浦市","address":"天神町"},
{"zip_code":"2380113","kana_pref":"ｶﾅｶﾞﾜｹﾝ","kana_city":"ﾐｳﾗｼ","kana_address":"ﾊｯｾﾏﾁｲﾘｴ","pref":"神奈川県","city":"三浦市","address":"初声町入江"},
{"zip_code":"2380115","kana_pref":"ｶﾅｶﾞﾜｹﾝ","kana_city":"ﾐｳﾗｼ","kana_address":"ﾊｯｾﾏﾁｺｳｴﾝﾎﾞｳ","pref":"神奈川県","city":"三浦市","address":"初声町高円坊"},
{"zip_code":"2380111","kana_pref":"ｶﾅｶﾞﾜｹﾝ","kana_city":"ﾐｳﾗｼ","kana_address":"ﾊｯｾﾏﾁｼﾓﾐﾔﾀﾞ","pref":"神奈川県","city":"三浦市","address":"初声町下宮田"},
{"zip_code":"2380112","kana_pref":"ｶﾅｶﾞﾜｹﾝ","kana_city":"ﾐｳﾗｼ","kana_address":"ﾊｯｾﾏﾁﾐﾄ","pref":"神奈川県","city":"三浦市","address":"初声町三戸"},
{"zip_code":"2380114","kana_pref":"ｶﾅｶﾞﾜｹﾝ","kana_city":"ﾐｳﾗｼ","kana_address":"ﾊｯｾﾏﾁﾜﾀﾞ","pref":"神奈川県","city":"三浦市","address":"初声町和田"},
{"zip_code":"2380223","kana_pref":"ｶﾅｶﾞﾜｹﾝ","kana_city":"ﾐｳﾗｼ","kana_address":"ﾊﾗﾁｮｳ","pref":"神奈川県","city":"三浦市","address":"原町"},
{"zip_code":"2380232","kana_pref":"ｶﾅｶﾞﾜｹﾝ","kana_city":"ﾐｳﾗｼ","kana_address":"ﾊﾙﾐﾁｮｳ","pref":"神奈川県","city":"三浦市","address":"晴海町"},
{"zip_code":"2380242","kana_pref":"ｶﾅｶﾞﾜｹﾝ","kana_city":"ﾐｳﾗｼ","kana_address":"ﾋｶﾞｼｵｶﾁｮｳ","pref":"神奈川県","city":"三浦市","address":"東岡町"},
{"zip_code":"2380243","kana_pref":"ｶﾅｶﾞﾜｹﾝ","kana_city":"ﾐｳﾗｼ","kana_address":"ﾐｻｷ","pref":"神奈川県","city":"三浦市","address":"三崎"},
{"zip_code":"2380225","kana_pref":"ｶﾅｶﾞﾜｹﾝ","kana_city":"ﾐｳﾗｼ","kana_address":"ﾐｻｷﾏﾁｺｱｼﾞﾛ","pref":"神奈川県","city":"三浦市","address":"三崎町小網代"},
{"zip_code":"2380237","kana_pref":"ｶﾅｶﾞﾜｹﾝ","kana_city":"ﾐｳﾗｼ","kana_address":"ﾐｻｷﾏﾁｼﾞｮｳｶﾞｼﾏ","pref":"神奈川県","city":"三浦市","address":"三崎町城ケ島"},
{"zip_code":"2380221","kana_pref":"ｶﾅｶﾞﾜｹﾝ","kana_city":"ﾐｳﾗｼ","kana_address":"ﾐｻｷﾏﾁﾑﾂｱｲ","pref":"神奈川県","city":"三浦市","address":"三崎町六合"},
{"zip_code":"2380224","kana_pref":"ｶﾅｶﾞﾜｹﾝ","kana_city":"ﾐｳﾗｼ","kana_address":"ﾐｻｷﾏﾁﾓﾛｲｿ","pref":"神奈川県","city":"三浦市","address":"三崎町諸磯"},
{"zip_code":"2380103","kana_pref":"ｶﾅｶﾞﾜｹﾝ","kana_city":"ﾐｳﾗｼ","kana_address":"ﾐﾅﾐｼﾀｳﾗﾏﾁｶﾈﾀﾞ","pref":"神奈川県","city":"三浦市","address":"南下浦町金田"},
{"zip_code":"2380101","kana_pref":"ｶﾅｶﾞﾜｹﾝ","kana_city":"ﾐｳﾗｼ","kana_address":"ﾐﾅﾐｼﾀｳﾗﾏﾁｶﾐﾐﾔﾀﾞ","pref":"神奈川県","city":"三浦市","address":"南下浦町上宮田"},
{"zip_code":"2380102","kana_pref":"ｶﾅｶﾞﾜｹﾝ","kana_city":"ﾐｳﾗｼ","kana_address":"ﾐﾅﾐｼﾀｳﾗﾏﾁｷｸﾅ","pref":"神奈川県","city":"三浦市","address":"南下浦町菊名"},
{"zip_code":"2380105","kana_pref":"ｶﾅｶﾞﾜｹﾝ","kana_city":"ﾐｳﾗｼ","kana_address":"ﾐﾅﾐｼﾀｳﾗﾏﾁﾋﾞｼｬﾓﾝ","pref":"神奈川県","city":"三浦市","address":"南下浦町毘沙門"},
{"zip_code":"2380104","kana_pref":"ｶﾅｶﾞﾜｹﾝ","kana_city":"ﾐｳﾗｼ","kana_address":"ﾐﾅﾐｼﾀｳﾗﾏﾁﾏﾂﾜ","pref":"神奈川県","city":"三浦市","address":"南下浦町松輪"},
{"zip_code":"2380231","kana_pref":"ｶﾅｶﾞﾜｹﾝ","kana_city":"ﾐｳﾗｼ","kana_address":"ﾐﾔｶﾞﾜﾁｮｳ","pref":"神奈川県","city":"三浦市","address":"宮川町"},
{"zip_code":"2380233","kana_pref":"ｶﾅｶﾞﾜｹﾝ","kana_city":"ﾐｳﾗｼ","kana_address":"ﾑｺｳｶﾞｻｷﾁｮｳ","pref":"神奈川県","city":"三浦市","address":"向ケ崎町"}]}