{"zip_code":[
{"zip_code":"2400000","kana_pref":"ｶﾅｶﾞﾜｹﾝ","kana_city":"ﾖｺﾊﾏｼﾎﾄﾞｶﾞﾔｸ","kana_address":"","pref":"神奈川県","city":"横浜市保土ケ谷区","address":""},
{"zip_code":"2400053","kana_pref":"ｶﾅｶﾞﾜｹﾝ","kana_city":"ﾖｺﾊﾏｼﾎﾄﾞｶﾞﾔｸ","kana_address":"ｱﾗｲﾁｮｳ","pref":"神奈川県","city":"横浜市保土ケ谷区","address":"新井町"},
{"zip_code":"2400035","kana_pref":"ｶﾅｶﾞﾜｹﾝ","kana_city":"ﾖｺﾊﾏｼﾎﾄﾞｶﾞﾔｸ","kana_address":"ｲﾏｲﾁｮｳ","pref":"神奈川県","city":"横浜市保土ケ谷区","address":"今井町"},
{"zip_code":"2400023","kana_pref":"ｶﾅｶﾞﾜｹﾝ","kana_city":"ﾖｺﾊﾏｼﾎﾄﾞｶﾞﾔｸ","kana_address":"ｲﾜｲﾁｮｳ","pref":"神奈川県","city":"横浜市保土ケ谷区","address":"岩井町"},
{"zip_code":"2400015","kana_pref":"ｶﾅｶﾞﾜｹﾝ","kana_city":"ﾖｺﾊﾏｼﾎﾄﾞｶﾞﾔｸ","kana_address":"ｲﾜｻｷﾁｮｳ","pref":"神奈川県","city":"横浜市保土ケ谷区","address":"岩崎町"},
{"zip_code":"2400004","kana_pref":"ｶﾅｶﾞﾜｹﾝ","kana_city":"ﾖｺﾊﾏｼﾎﾄﾞｶﾞﾔｸ","kana_address":"ｲﾜﾏﾁｮｳ","pref":"神奈川県","city":"横浜市保土ケ谷区","address":"岩間町"},
{"zip_code":"2400062","kana_pref":"ｶﾅｶﾞﾜｹﾝ","kana_city":"ﾖｺﾊﾏｼﾎﾄﾞｶﾞﾔｸ","kana_address":"ｵｶｻﾞﾜﾁｮｳ","pref":"神奈川県","city":"横浜市保土ケ谷区","address":"岡沢町"},
{"zip_code":"2400014","kana_pref":"ｶﾅｶﾞﾜｹﾝ","kana_city":"ﾖｺﾊﾏｼﾎﾄﾞｶﾞﾔｸ","kana_address":"ｶｽﾐﾀﾞｲ","pref":"神奈川県","city":"横浜市保土ケ谷区","address":"霞台"},
{"zip_code":"2400013","kana_pref":"ｶﾅｶﾞﾜｹﾝ","kana_city":"ﾖｺﾊﾏｼﾎﾄﾞｶﾞﾔｸ","kana_address":"ｶﾀﾋﾞﾗﾁｮｳ","pref":"神奈川県","city":"横浜市保土ケ谷区","address":"帷子町"},
{"zip_code":"2400066","kana_pref":"ｶﾅｶﾞﾜｹﾝ","kana_city":"ﾖｺﾊﾏｼﾎﾄﾞｶﾞﾔｸ","kana_address":"ｶﾏﾀﾞｲﾁｮｳ","pref":"神奈川県","city":"横浜市保土ケ谷区","address":"釜台町"},
{"zip_code":"2400063","kana_pref":"ｶﾅｶﾞﾜｹﾝ","kana_city":"ﾖｺﾊﾏｼﾎﾄﾞｶﾞﾔｸ","kana_address":"ｶﾏﾔﾁｮｳ","pref":"神奈川県","city":"横浜市保土ケ谷区","address":"鎌谷町"},
{"zip_code":"2400051","kana_pref":"ｶﾅｶﾞﾜｹﾝ","kana_city":"ﾖｺﾊﾏｼﾎﾄﾞｶﾞﾔｸ","kana_address":"ｶﾐｽｹﾞﾀﾞﾁｮｳ","pref":"神奈川県","city":"横浜市保土ケ谷区","address":"上菅田町"},
{"zip_code":"2400042","kana_pref":"ｶﾅｶﾞﾜｹﾝ","kana_city":"ﾖｺﾊﾏｼﾎﾄﾞｶﾞﾔｸ","kana_address":"ｶﾐﾎｼｶﾜ","pref":"神奈川県","city":"横浜市保土ケ谷区","address":"上星川"},
{"zip_code":"2400025","kana_pref":"ｶﾅｶﾞﾜｹﾝ","kana_city":"ﾖｺﾊﾏｼﾎﾄﾞｶﾞﾔｸ","kana_address":"ｶﾘﾊﾞﾁｮｳ","pref":"神奈川県","city":"横浜市保土ケ谷区","address":"狩場町"},
{"zip_code":"2400045","kana_pref":"ｶﾅｶﾞﾜｹﾝ","kana_city":"ﾖｺﾊﾏｼﾎﾄﾞｶﾞﾔｸ","kana_address":"ｶﾜｼﾏﾁｮｳ","pref":"神奈川県","city":"横浜市保土ケ谷区","address":"川島町"},
{"zip_code":"2400001","kana_pref":"ｶﾅｶﾞﾜｹﾝ","kana_city":"ﾖｺﾊﾏｼﾎﾄﾞｶﾞﾔｸ","kana_address":"ｶﾜﾍﾞﾁｮｳ","pref":"神奈川県","city":"横浜市保土ケ谷区","address":"川辺町"},
{"zip_code":"2400005","kana_pref":"ｶﾅｶﾞﾜｹﾝ","kana_city":"ﾖｺﾊﾏｼﾎﾄﾞｶﾞﾔｸ","kana_address":"ｺﾞｳﾄﾞﾁｮｳ","pref":"神奈川県","city":"横浜市保土ケ谷区","address":"神戸町"},
{"zip_code":"2400026","kana_pref":"ｶﾅｶﾞﾜｹﾝ","kana_city":"ﾖｺﾊﾏｼﾎﾄﾞｶﾞﾔｸ","kana_address":"ｺﾞﾝﾀｻﾞｶ","pref":"神奈川県","city":"横浜市保土ケ谷区","address":"権太坂"},
{"zip_code":"2400034","kana_pref":"ｶﾅｶﾞﾜｹﾝ","kana_city":"ﾖｺﾊﾏｼﾎﾄﾞｶﾞﾔｸ","kana_address":"ｻｶｲｷﾞﾁｮｳ","pref":"神奈川県","city":"横浜市保土ケ谷区","address":"境木町"},
{"zip_code":"2400033","kana_pref":"ｶﾅｶﾞﾜｹﾝ","kana_city":"ﾖｺﾊﾏｼﾎﾄﾞｶﾞﾔｸ","kana_address":"ｻｶｲｷﾞﾎﾝﾁｮｳ","pref":"神奈川県","city":"横浜市保土ケ谷区","address":"境木本町"},
{"zip_code":"2400043","kana_pref":"ｶﾅｶﾞﾜｹﾝ","kana_city":"ﾖｺﾊﾏｼﾎﾄﾞｶﾞﾔｸ","kana_address":"ｻｶﾓﾄﾁｮｳ","pref":"神奈川県","city":"横浜市保土ケ谷区","address":"坂本町"},
{"zip_code":"2400011","kana_pref":"ｶﾅｶﾞﾜｹﾝ","kana_city":"ﾖｺﾊﾏｼﾎﾄﾞｶﾞﾔｸ","kana_address":"ｻｸﾗｶﾞｵｶ","pref":"神奈川県","city":"横浜市保土ケ谷区","address":"桜ケ丘"},
{"zip_code":"2400036","kana_pref":"ｶﾅｶﾞﾜｹﾝ","kana_city":"ﾖｺﾊﾏｼﾎﾄﾞｶﾞﾔｸ","kana_address":"ｼﾝｻｸﾗｶﾞｵｶ","pref":"神奈川県","city":"横浜市保土ケ谷区","address":"新桜ケ丘"},
{"zip_code":"2400024","kana_pref":"ｶﾅｶﾞﾜｹﾝ","kana_city":"ﾖｺﾊﾏｼﾎﾄﾞｶﾞﾔｸ","kana_address":"ｾﾄｶﾞﾔﾁｮｳ","pref":"神奈川県","city":"横浜市保土ケ谷区","address":"瀬戸ケ谷町"},
{"zip_code":"2400012","kana_pref":"ｶﾅｶﾞﾜｹﾝ","kana_city":"ﾖｺﾊﾏｼﾎﾄﾞｶﾞﾔｸ","kana_address":"ﾂｷﾐﾀﾞｲ","pref":"神奈川県","city":"横浜市保土ケ谷区","address":"月見台"},
{"zip_code":"2400003","kana_pref":"ｶﾅｶﾞﾜｹﾝ","kana_city":"ﾖｺﾊﾏｼﾎﾄﾞｶﾞﾔｸ","kana_address":"ﾃﾝﾉｳﾁｮｳ","pref":"神奈川県","city":"横浜市保土ケ谷区","address":"天王町"},
{"zip_code":"2400067","kana_pref":"ｶﾅｶﾞﾜｹﾝ","kana_city":"ﾖｺﾊﾏｼﾎﾄﾞｶﾞﾔｸ","kana_address":"ﾄｷﾜﾀﾞｲ","pref":"神奈川県","city":"横浜市保土ケ谷区","address":"常盤台"},
{"zip_code":"2400022","kana_pref":"ｶﾅｶﾞﾜｹﾝ","kana_city":"ﾖｺﾊﾏｼﾎﾄﾞｶﾞﾔｸ","kana_address":"ﾆｼｸﾎﾞﾁｮｳ","pref":"神奈川県","city":"横浜市保土ケ谷区","address":"西久保町"},
{"zip_code":"2400052","kana_pref":"ｶﾅｶﾞﾜｹﾝ","kana_city":"ﾖｺﾊﾏｼﾎﾄﾞｶﾞﾔｸ","kana_address":"ﾆｼﾔﾏﾁ","pref":"神奈川県","city":"横浜市保土ケ谷区","address":"西谷町"},
{"zip_code":"2400016","kana_pref":"ｶﾅｶﾞﾜｹﾝ","kana_city":"ﾖｺﾊﾏｼﾎﾄﾞｶﾞﾔｸ","kana_address":"ﾊﾂﾈｶﾞｵｶ","pref":"神奈川県","city":"横浜市保土ケ谷区","address":"初音ケ丘"},
{"zip_code":"2400017","kana_pref":"ｶﾅｶﾞﾜｹﾝ","kana_city":"ﾖｺﾊﾏｼﾎﾄﾞｶﾞﾔｸ","kana_address":"ﾊﾅﾐﾀﾞｲ","pref":"神奈川県","city":"横浜市保土ケ谷区","address":"花見台"},
{"zip_code":"2400041","kana_pref":"ｶﾅｶﾞﾜｹﾝ","kana_city":"ﾖｺﾊﾏｼﾎﾄﾞｶﾞﾔｸ","kana_address":"ﾋｶﾞｼｶﾜｼﾏﾁｮｳ","pref":"神奈川県","city":"横浜市保土ケ谷区","address":"東川島町"},
{"zip_code":"2400031","kana_pref":"ｶﾅｶﾞﾜｹﾝ","kana_city":"ﾖｺﾊﾏｼﾎﾄﾞｶﾞﾔｸ","kana_address":"ﾌｼﾞﾂｶﾁｮｳ","pref":"神奈川県","city":"横浜市保土ケ谷区","address":"藤塚町"},
{"zip_code":"2400044","kana_pref":"ｶﾅｶﾞﾜｹﾝ","kana_city":"ﾖｺﾊﾏｼﾎﾄﾞｶﾞﾔｸ","kana_address":"ﾌﾞｯｺｳﾁｮｳ","pref":"神奈川県","city":"横浜市保土ケ谷区","address":"仏向町"},
{"zip_code":"2400046","kana_pref":"ｶﾅｶﾞﾜｹﾝ","kana_city":"ﾖｺﾊﾏｼﾎﾄﾞｶﾞﾔｸ","kana_address":"ﾌﾞｯｺｳﾆｼ","pref":"神奈川県","city":"横浜市保土ケ谷区","address":"仏向西"},
{"zip_code":"2400032","kana_pref":"ｶﾅｶﾞﾜｹﾝ","kana_city":"ﾖｺﾊﾏｼﾎﾄﾞｶﾞﾔｸ","kana_address":"ﾎｳｾﾝ","pref":"神奈川県","city":"横浜市保土ケ谷区","address":"法泉"},
{"zip_code":"2400006","kana_pref":"ｶﾅｶﾞﾜｹﾝ","kana_city":"ﾖｺﾊﾏｼﾎﾄﾞｶﾞﾔｸ","kana_address":"ﾎｼｶﾜ","pref":"神奈川県","city":"横浜市保土ケ谷区","address":"星川"},
{"zip_code":"2400021","kana_pref":"ｶﾅｶﾞﾜｹﾝ","kana_city":"ﾖｺﾊﾏｼﾎﾄﾞｶﾞﾔｸ","kana_address":"ﾎﾄﾞｶﾞﾔﾁｮｳ","pref":"神奈川県","city":"横浜市保土ケ谷区","address":"保土ケ谷町"},
{"zip_code":"2400064","kana_pref":"ｶﾅｶﾞﾜｹﾝ","kana_city":"ﾖｺﾊﾏｼﾎﾄﾞｶﾞﾔｸ","kana_address":"ﾐﾈｵｶﾁｮｳ","pref":"神奈川県","city":"横浜市保土ケ谷区","address":"峰岡町"},
{"zip_code":"2400061","kana_pref":"ｶﾅｶﾞﾜｹﾝ","kana_city":"ﾖｺﾊﾏｼﾎﾄﾞｶﾞﾔｸ","kana_address":"ﾐﾈｻﾞﾜﾁｮｳ","pref":"神奈川県","city":"横浜市保土ケ谷区","address":"峰沢町"},
{"zip_code":"2400002","kana_pref":"ｶﾅｶﾞﾜｹﾝ","kana_city":"ﾖｺﾊﾏｼﾎﾄﾞｶﾞﾔｸ","kana_address":"ﾐﾔﾀﾁｮｳ","pref":"神奈川県","city":"横浜市保土ケ谷区","address":"宮田町"},
{"zip_code":"2400007","kana_pref":"ｶﾅｶﾞﾜｹﾝ","kana_city":"ﾖｺﾊﾏｼﾎﾄﾞｶﾞﾔｸ","kana_address":"ﾐｮｳｼﾞﾝﾀﾞｲ","pref":"神奈川県","city":"横浜市保土ケ谷区","address":"明神台"},
{"zip_code":"2400065","kana_pref":"ｶﾅｶﾞﾜｹﾝ","kana_city":"ﾖｺﾊﾏｼﾎﾄﾞｶﾞﾔｸ","kana_address":"ﾜﾀﾞ","pref":"神奈川県","city":"横浜市保土ケ谷区","address":"和田"},
{"zip_code":"2400105","kana_pref":"ｶﾅｶﾞﾜｹﾝ","kana_city":"ﾖｺｽｶｼ","kana_address":"ｱｷﾔ","pref":"神奈川県","city":"横須賀市","address":"秋谷"},
{"zip_code":"2400104","kana_pref":"ｶﾅｶﾞﾜｹﾝ","kana_city":"ﾖｺｽｶｼ","kana_address":"ｱｼﾅ","pref":"神奈川県","city":"横須賀市","address":"芦名"},
{"zip_code":"2400102","kana_pref":"ｶﾅｶﾞﾜｹﾝ","kana_city":"ﾖｺｽｶｼ","kana_address":"ｵｷﾞﾉ","pref":"神奈川県","city":"横須賀市","address":"荻野"},
{"zip_code":"2400106","kana_pref":"ｶﾅｶﾞﾜｹﾝ","kana_city":"ﾖｺｽｶｼ","kana_address":"ｺﾔｽ","pref":"神奈川県","city":"横須賀市","address":"子安"},
{"zip_code":"2400103","kana_pref":"ｶﾅｶﾞﾜｹﾝ","kana_city":"ﾖｺｽｶｼ","kana_address":"ｻｼﾞﾏ","pref":"神奈川県","city":"横須賀市","address":"佐島"},
{"zip_code":"2400108","kana_pref":"ｶﾅｶﾞﾜｹﾝ","kana_city":"ﾖｺｽｶｼ","kana_address":"ｻｼﾞﾏﾉｵｶ","pref":"神奈川県","city":"横須賀市","address":"佐島の丘"},
{"zip_code":"2400107","kana_pref":"ｶﾅｶﾞﾜｹﾝ","kana_city":"ﾖｺｽｶｼ","kana_address":"ｼｮｳﾅﾝｺｸｻｲﾑﾗ","pref":"神奈川県","city":"横須賀市","address":"湘南国際村"},
{"zip_code":"2400101","kana_pref":"ｶﾅｶﾞﾜｹﾝ","kana_city":"ﾖｺｽｶｼ","kana_address":"ﾅｶﾞｻｶ","pref":"神奈川県","city":"横須賀市","address":"長坂"},
{"zip_code":"2400100","kana_pref":"ｶﾅｶﾞﾜｹﾝ","kana_city":"ﾐｳﾗｸﾞﾝﾊﾔﾏﾏﾁ","kana_address":"","pref":"神奈川県","city":"三浦郡葉山町","address":""},
{"zip_code":"2400111","kana_pref":"ｶﾅｶﾞﾜｹﾝ","kana_city":"ﾐｳﾗｸﾞﾝﾊﾔﾏﾏﾁ","kana_address":"ｲｯｼｷ","pref":"神奈川県","city":"三浦郡葉山町","address":"一色"},
{"zip_code":"2400115","kana_pref":"ｶﾅｶﾞﾜｹﾝ","kana_city":"ﾐｳﾗｸﾞﾝﾊﾔﾏﾏﾁ","kana_address":"ｶﾐﾔﾏｸﾞﾁ","pref":"神奈川県","city":"三浦郡葉山町","address":"上山口"},
{"zip_code":"2400114","kana_pref":"ｶﾅｶﾞﾜｹﾝ","kana_city":"ﾐｳﾗｸﾞﾝﾊﾔﾏﾏﾁ","kana_address":"ｷｺﾊﾞ","pref":"神奈川県","city":"三浦郡葉山町","address":"木古庭"},
{"zip_code":"2400116","kana_pref":"ｶﾅｶﾞﾜｹﾝ","kana_city":"ﾐｳﾗｸﾞﾝﾊﾔﾏﾏﾁ","kana_address":"ｼﾓﾔﾏｸﾞﾁ","pref":"神奈川県","city":"三浦郡葉山町","address":"下山口"},
{"zip_code":"2400113","kana_pref":"ｶﾅｶﾞﾜｹﾝ","kana_city":"ﾐｳﾗｸﾞﾝﾊﾔﾏﾏﾁ","kana_address":"ﾅｶﾞｴ","pref":"神奈川県","city":"三浦郡葉山町","address":"長柄"},
{"zip_code":"2400112","kana_pref":"ｶﾅｶﾞﾜｹﾝ","kana_city":"ﾐｳﾗｸﾞﾝﾊﾔﾏﾏﾁ","kana_address":"ﾎﾘｳﾁ","pref":"神奈川県","city":"三浦郡葉山町","address":"堀内"}]}