{"zip_code":[
{"zip_code":"2410000","kana_pref":"ｶﾅｶﾞﾜｹﾝ","kana_city":"ﾖｺﾊﾏｼｱｻﾋｸ","kana_address":"","pref":"神奈川県","city":"横浜市旭区","address":""},
{"zip_code":"2410014","kana_pref":"ｶﾅｶﾞﾜｹﾝ","kana_city":"ﾖｺﾊﾏｼｱｻﾋｸ","kana_address":"ｲﾁｻﾞﾜﾁｮｳ","pref":"神奈川県","city":"横浜市旭区","address":"市沢町"},
{"zip_code":"2410033","kana_pref":"ｶﾅｶﾞﾜｹﾝ","kana_city":"ﾖｺﾊﾏｼｱｻﾋｸ","kana_address":"ｲﾏｶﾞﾜﾁｮｳ","pref":"神奈川県","city":"横浜市旭区","address":"今川町"},
{"zip_code":"2410817","kana_pref":"ｶﾅｶﾞﾜｹﾝ","kana_city":"ﾖｺﾊﾏｼｱｻﾋｸ","kana_address":"ｲﾏｼﾞｭｸ","pref":"神奈川県","city":"横浜市旭区","address":"今宿"},
{"zip_code":"2410032","kana_pref":"ｶﾅｶﾞﾜｹﾝ","kana_city":"ﾖｺﾊﾏｼｱｻﾋｸ","kana_address":"ｲﾏｼﾞｭｸﾋｶﾞｼﾁｮｳ","pref":"神奈川県","city":"横浜市旭区","address":"今宿東町"},
{"zip_code":"2410031","kana_pref":"ｶﾅｶﾞﾜｹﾝ","kana_city":"ﾖｺﾊﾏｼｱｻﾋｸ","kana_address":"ｲﾏｼﾞｭｸﾆｼﾁｮｳ","pref":"神奈川県","city":"横浜市旭区","address":"今宿西町"},
{"zip_code":"2410034","kana_pref":"ｶﾅｶﾞﾜｹﾝ","kana_city":"ﾖｺﾊﾏｼｱｻﾋｸ","kana_address":"ｲﾏｼﾞｭｸﾐﾅﾐﾁｮｳ","pref":"神奈川県","city":"横浜市旭区","address":"今宿南町"},
{"zip_code":"2410813","kana_pref":"ｶﾅｶﾞﾜｹﾝ","kana_city":"ﾖｺﾊﾏｼｱｻﾋｸ","kana_address":"ｲﾏｼﾞｭｸﾁｮｳ","pref":"神奈川県","city":"横浜市旭区","address":"今宿町"},
{"zip_code":"2410834","kana_pref":"ｶﾅｶﾞﾜｹﾝ","kana_city":"ﾖｺﾊﾏｼｱｻﾋｸ","kana_address":"ｵｵｲｹﾁｮｳ","pref":"神奈川県","city":"横浜市旭区","address":"大池町"},
{"zip_code":"2410015","kana_pref":"ｶﾅｶﾞﾜｹﾝ","kana_city":"ﾖｺﾊﾏｼｱｻﾋｸ","kana_address":"ｵﾀｶﾁｮｳ","pref":"神奈川県","city":"横浜市旭区","address":"小高町"},
{"zip_code":"2410835","kana_pref":"ｶﾅｶﾞﾜｹﾝ","kana_city":"ﾖｺﾊﾏｼｱｻﾋｸ","kana_address":"ｶｼﾜﾁｮｳ","pref":"神奈川県","city":"横浜市旭区","address":"柏町"},
{"zip_code":"2410812","kana_pref":"ｶﾅｶﾞﾜｹﾝ","kana_city":"ﾖｺﾊﾏｼｱｻﾋｸ","kana_address":"ｶﾈｶﾞﾔ","pref":"神奈川県","city":"横浜市旭区","address":"金が谷"},
{"zip_code":"2410802","kana_pref":"ｶﾅｶﾞﾜｹﾝ","kana_city":"ﾖｺﾊﾏｼｱｻﾋｸ","kana_address":"ｶﾐｶﾜｲﾁｮｳ","pref":"神奈川県","city":"横浜市旭区","address":"上川井町"},
{"zip_code":"2410002","kana_pref":"ｶﾅｶﾞﾜｹﾝ","kana_city":"ﾖｺﾊﾏｼｱｻﾋｸ","kana_address":"ｶﾐｼﾗﾈ","pref":"神奈川県","city":"横浜市旭区","address":"上白根"},
{"zip_code":"2410001","kana_pref":"ｶﾅｶﾞﾜｹﾝ","kana_city":"ﾖｺﾊﾏｼｱｻﾋｸ","kana_address":"ｶﾐｼﾗﾈﾁｮｳ","pref":"神奈川県","city":"横浜市旭区","address":"上白根町"},
{"zip_code":"2410804","kana_pref":"ｶﾅｶﾞﾜｹﾝ","kana_city":"ﾖｺﾊﾏｼｱｻﾋｸ","kana_address":"ｶﾜｲｼｭｸﾁｮｳ","pref":"神奈川県","city":"横浜市旭区","address":"川井宿町"},
{"zip_code":"2410803","kana_pref":"ｶﾅｶﾞﾜｹﾝ","kana_city":"ﾖｺﾊﾏｼｱｻﾋｸ","kana_address":"ｶﾜｲﾎﾝﾁｮｳ","pref":"神奈川県","city":"横浜市旭区","address":"川井本町"},
{"zip_code":"2410011","kana_pref":"ｶﾅｶﾞﾜｹﾝ","kana_city":"ﾖｺﾊﾏｼｱｻﾋｸ","kana_address":"ｶﾜｼﾏﾁｮｳ","pref":"神奈川県","city":"横浜市旭区","address":"川島町"},
{"zip_code":"2410832","kana_pref":"ｶﾅｶﾞﾜｹﾝ","kana_city":"ﾖｺﾊﾏｼｱｻﾋｸ","kana_address":"ｷﾘｶﾞｻｸ","pref":"神奈川県","city":"横浜市旭区","address":"桐が作"},
{"zip_code":"2410831","kana_pref":"ｶﾅｶﾞﾜｹﾝ","kana_city":"ﾖｺﾊﾏｼｱｻﾋｸ","kana_address":"ｻｺﾝﾔﾏ","pref":"神奈川県","city":"横浜市旭区","address":"左近山"},
{"zip_code":"2410816","kana_pref":"ｶﾅｶﾞﾜｹﾝ","kana_city":"ﾖｺﾊﾏｼｱｻﾋｸ","kana_address":"ｻｻﾉﾀﾞｲ","pref":"神奈川県","city":"横浜市旭区","address":"笹野台"},
{"zip_code":"2410822","kana_pref":"ｶﾅｶﾞﾜｹﾝ","kana_city":"ﾖｺﾊﾏｼｱｻﾋｸ","kana_address":"ｻﾁｶﾞｵｶ","pref":"神奈川県","city":"横浜市旭区","address":"さちが丘"},
{"zip_code":"2410013","kana_pref":"ｶﾅｶﾞﾜｹﾝ","kana_city":"ﾖｺﾊﾏｼｱｻﾋｸ","kana_address":"ｻﾝﾀﾝﾀﾞﾁｮｳ","pref":"神奈川県","city":"横浜市旭区","address":"三反田町"},
{"zip_code":"2410025","kana_pref":"ｶﾅｶﾞﾜｹﾝ","kana_city":"ﾖｺﾊﾏｼｱｻﾋｸ","kana_address":"ｼｷﾐﾀﾞｲ","pref":"神奈川県","city":"横浜市旭区","address":"四季美台"},
{"zip_code":"2410806","kana_pref":"ｶﾅｶﾞﾜｹﾝ","kana_city":"ﾖｺﾊﾏｼｱｻﾋｸ","kana_address":"ｼﾓｶﾜｲﾁｮｳ","pref":"神奈川県","city":"横浜市旭区","address":"下川井町"},
{"zip_code":"2410005","kana_pref":"ｶﾅｶﾞﾜｹﾝ","kana_city":"ﾖｺﾊﾏｼｱｻﾋｸ","kana_address":"ｼﾗﾈ","pref":"神奈川県","city":"横浜市旭区","address":"白根"},
{"zip_code":"2410003","kana_pref":"ｶﾅｶﾞﾜｹﾝ","kana_city":"ﾖｺﾊﾏｼｱｻﾋｸ","kana_address":"ｼﾗﾈﾁｮｳ","pref":"神奈川県","city":"横浜市旭区","address":"白根町"},
{"zip_code":"2410823","kana_pref":"ｶﾅｶﾞﾜｹﾝ","kana_city":"ﾖｺﾊﾏｼｱｻﾋｸ","kana_address":"ｾﾞﾝﾌﾞﾁｮｳ","pref":"神奈川県","city":"横浜市旭区","address":"善部町"},
{"zip_code":"2410805","kana_pref":"ｶﾅｶﾞﾜｹﾝ","kana_city":"ﾖｺﾊﾏｼｱｻﾋｸ","kana_address":"ﾂｵｶﾁｮｳ","pref":"神奈川県","city":"横浜市旭区","address":"都岡町"},
{"zip_code":"2410022","kana_pref":"ｶﾅｶﾞﾜｹﾝ","kana_city":"ﾖｺﾊﾏｼｱｻﾋｸ","kana_address":"ﾂﾙｶﾞﾐﾈ","pref":"神奈川県","city":"横浜市旭区","address":"鶴ケ峰"},
{"zip_code":"2410021","kana_pref":"ｶﾅｶﾞﾜｹﾝ","kana_city":"ﾖｺﾊﾏｼｱｻﾋｸ","kana_address":"ﾂﾙｶﾞﾐﾈﾎﾝﾁｮｳ","pref":"神奈川県","city":"横浜市旭区","address":"鶴ケ峰本町"},
{"zip_code":"2410815","kana_pref":"ｶﾅｶﾞﾜｹﾝ","kana_city":"ﾖｺﾊﾏｼｱｻﾋｸ","kana_address":"ﾅｶｵ","pref":"神奈川県","city":"横浜市旭区","address":"中尾"},
{"zip_code":"2410825","kana_pref":"ｶﾅｶﾞﾜｹﾝ","kana_city":"ﾖｺﾊﾏｼｱｻﾋｸ","kana_address":"ﾅｶｷﾎﾞｳｶﾞｵｶ","pref":"神奈川県","city":"横浜市旭区","address":"中希望が丘"},
{"zip_code":"2410814","kana_pref":"ｶﾅｶﾞﾜｹﾝ","kana_city":"ﾖｺﾊﾏｼｱｻﾋｸ","kana_address":"ﾅｶｻﾞﾜ","pref":"神奈川県","city":"横浜市旭区","address":"中沢"},
{"zip_code":"2410004","kana_pref":"ｶﾅｶﾞﾜｹﾝ","kana_city":"ﾖｺﾊﾏｼｱｻﾋｸ","kana_address":"ﾅｶｼﾗﾈ","pref":"神奈川県","city":"横浜市旭区","address":"中白根"},
{"zip_code":"2410012","kana_pref":"ｶﾅｶﾞﾜｹﾝ","kana_city":"ﾖｺﾊﾏｼｱｻﾋｸ","kana_address":"ﾆｼｶﾜｼﾏﾁｮｳ","pref":"神奈川県","city":"横浜市旭区","address":"西川島町"},
{"zip_code":"2410826","kana_pref":"ｶﾅｶﾞﾜｹﾝ","kana_city":"ﾖｺﾊﾏｼｱｻﾋｸ","kana_address":"ﾋｶﾞｼｷﾎﾞｳｶﾞｵｶ","pref":"神奈川県","city":"横浜市旭区","address":"東希望が丘"},
{"zip_code":"2410821","kana_pref":"ｶﾅｶﾞﾜｹﾝ","kana_city":"ﾖｺﾊﾏｼｱｻﾋｸ","kana_address":"ﾌﾀﾏﾀｶﾞﾜ","pref":"神奈川県","city":"横浜市旭区","address":"二俣川"},
{"zip_code":"2410023","kana_pref":"ｶﾅｶﾞﾜｹﾝ","kana_city":"ﾖｺﾊﾏｼｱｻﾋｸ","kana_address":"ﾎﾝｼﾞｭｸﾁｮｳ","pref":"神奈川県","city":"横浜市旭区","address":"本宿町"},
{"zip_code":"2410024","kana_pref":"ｶﾅｶﾞﾜｹﾝ","kana_city":"ﾖｺﾊﾏｼｱｻﾋｸ","kana_address":"ﾎﾝﾑﾗﾁｮｳ","pref":"神奈川県","city":"横浜市旭区","address":"本村町"},
{"zip_code":"2410836","kana_pref":"ｶﾅｶﾞﾜｹﾝ","kana_city":"ﾖｺﾊﾏｼｱｻﾋｸ","kana_address":"ﾏｷｶﾞﾊﾗ","pref":"神奈川県","city":"横浜市旭区","address":"万騎が原"},
{"zip_code":"2410824","kana_pref":"ｶﾅｶﾞﾜｹﾝ","kana_city":"ﾖｺﾊﾏｼｱｻﾋｸ","kana_address":"ﾐﾅﾐｷﾎﾞｳｶﾞｵｶ","pref":"神奈川県","city":"横浜市旭区","address":"南希望が丘"},
{"zip_code":"2410833","kana_pref":"ｶﾅｶﾞﾜｹﾝ","kana_city":"ﾖｺﾊﾏｼｱｻﾋｸ","kana_address":"ﾐﾅﾐﾎﾝｼﾞｭｸﾁｮｳ","pref":"神奈川県","city":"横浜市旭区","address":"南本宿町"},
{"zip_code":"2410811","kana_pref":"ｶﾅｶﾞﾜｹﾝ","kana_city":"ﾖｺﾊﾏｼｱｻﾋｸ","kana_address":"ﾔｻｼﾁｮｳ","pref":"神奈川県","city":"横浜市旭区","address":"矢指町"},
{"zip_code":"2410801","kana_pref":"ｶﾅｶﾞﾜｹﾝ","kana_city":"ﾖｺﾊﾏｼｱｻﾋｸ","kana_address":"ﾜｶﾊﾞﾀﾞｲ","pref":"神奈川県","city":"横浜市旭区","address":"若葉台"}]}