{"zip_code":[
{"zip_code":"2420000","kana_pref":"ｶﾅｶﾞﾜｹﾝ","kana_city":"ﾔﾏﾄｼ","kana_address":"","pref":"神奈川県","city":"大和市","address":""},
{"zip_code":"2420029","kana_pref":"ｶﾅｶﾞﾜｹﾝ","kana_city":"ﾔﾏﾄｼ","kana_address":"ｶﾐｿｳﾔｷﾞ","pref":"神奈川県","city":"大和市","address":"上草柳"},
{"zip_code":"2420014","kana_pref":"ｶﾅｶﾞﾜｹﾝ","kana_city":"ﾔﾏﾄｼ","kana_address":"ｶﾐﾜﾀﾞ","pref":"神奈川県","city":"大和市","address":"上和田"},
{"zip_code":"2420028","kana_pref":"ｶﾅｶﾞﾜｹﾝ","kana_city":"ﾔﾏﾄｼ","kana_address":"ｻｸﾗﾓﾘ","pref":"神奈川県","city":"大和市","address":"桜森"},
{"zip_code":"2420023","kana_pref":"ｶﾅｶﾞﾜｹﾝ","kana_city":"ﾔﾏﾄｼ","kana_address":"ｼﾌﾞﾔ","pref":"神奈川県","city":"大和市","address":"渋谷"},
{"zip_code":"2420027","kana_pref":"ｶﾅｶﾞﾜｹﾝ","kana_city":"ﾔﾏﾄｼ","kana_address":"ｼﾓｿｳﾔｷﾞ","pref":"神奈川県","city":"大和市","address":"下草柳"},
{"zip_code":"2420001","kana_pref":"ｶﾅｶﾞﾜｹﾝ","kana_city":"ﾔﾏﾄｼ","kana_address":"ｼﾓﾂﾙﾏ","pref":"神奈川県","city":"大和市","address":"下鶴間"},
{"zip_code":"2420015","kana_pref":"ｶﾅｶﾞﾜｹﾝ","kana_city":"ﾔﾏﾄｼ","kana_address":"ｼﾓﾜﾀﾞ","pref":"神奈川県","city":"大和市","address":"下和田"},
{"zip_code":"2420026","kana_pref":"ｶﾅｶﾞﾜｹﾝ","kana_city":"ﾔﾏﾄｼ","kana_address":"ｿｳﾔｷﾞ","pref":"神奈川県","city":"大和市","address":"草柳"},
{"zip_code":"2420025","kana_pref":"ｶﾅｶﾞﾜｹﾝ","kana_city":"ﾔﾏﾄｼ","kana_address":"ﾀﾞｲｶﾝ","pref":"神奈川県","city":"大和市","address":"代官"},
{"zip_code":"2420021","kana_pref":"ｶﾅｶﾞﾜｹﾝ","kana_city":"ﾔﾏﾄｼ","kana_address":"ﾁｭｳｵｳ","pref":"神奈川県","city":"大和市","address":"中央"},
{"zip_code":"2420007","kana_pref":"ｶﾅｶﾞﾜｹﾝ","kana_city":"ﾔﾏﾄｼ","kana_address":"ﾁｭｳｵｳﾘﾝｶﾝ","pref":"神奈川県","city":"大和市","address":"中央林間"},
{"zip_code":"2420008","kana_pref":"ｶﾅｶﾞﾜｹﾝ","kana_city":"ﾔﾏﾄｼ","kana_address":"ﾁｭｳｵｳﾘﾝｶﾝﾆｼ","pref":"神奈川県","city":"大和市","address":"中央林間西"},
{"zip_code":"2420002","kana_pref":"ｶﾅｶﾞﾜｹﾝ","kana_city":"ﾔﾏﾄｼ","kana_address":"ﾂｷﾐﾉ","pref":"神奈川県","city":"大和市","address":"つきみ野"},
{"zip_code":"2420004","kana_pref":"ｶﾅｶﾞﾜｹﾝ","kana_city":"ﾔﾏﾄｼ","kana_address":"ﾂﾙﾏ","pref":"神奈川県","city":"大和市","address":"鶴間"},
{"zip_code":"2420005","kana_pref":"ｶﾅｶﾞﾜｹﾝ","kana_city":"ﾔﾏﾄｼ","kana_address":"ﾆｼﾂﾙﾏ","pref":"神奈川県","city":"大和市","address":"西鶴間"},
{"zip_code":"2420011","kana_pref":"ｶﾅｶﾞﾜｹﾝ","kana_city":"ﾔﾏﾄｼ","kana_address":"ﾌｶﾐ","pref":"神奈川県","city":"大和市","address":"深見"},
{"zip_code":"2420013","kana_pref":"ｶﾅｶﾞﾜｹﾝ","kana_city":"ﾔﾏﾄｼ","kana_address":"ﾌｶﾐﾀﾞｲ","pref":"神奈川県","city":"大和市","address":"深見台"},
{"zip_code":"2420012","kana_pref":"ｶﾅｶﾞﾜｹﾝ","kana_city":"ﾔﾏﾄｼ","kana_address":"ﾌｶﾐﾋｶﾞｼ","pref":"神奈川県","city":"大和市","address":"深見東"},
{"zip_code":"2420018","kana_pref":"ｶﾅｶﾞﾜｹﾝ","kana_city":"ﾔﾏﾄｼ","kana_address":"ﾌｶﾐﾆｼ","pref":"神奈川県","city":"大和市","address":"深見西"},
{"zip_code":"2420024","kana_pref":"ｶﾅｶﾞﾜｹﾝ","kana_city":"ﾔﾏﾄｼ","kana_address":"ﾌｸﾀﾞ","pref":"神奈川県","city":"大和市","address":"福田"},
{"zip_code":"2420006","kana_pref":"ｶﾅｶﾞﾜｹﾝ","kana_city":"ﾔﾏﾄｼ","kana_address":"ﾐﾅﾐﾘﾝｶﾝ","pref":"神奈川県","city":"大和市","address":"南林間"},
{"zip_code":"2420022","kana_pref":"ｶﾅｶﾞﾜｹﾝ","kana_city":"ﾔﾏﾄｼ","kana_address":"ﾔﾅｷﾞﾊﾞｼ","pref":"神奈川県","city":"大和市","address":"柳橋"},
{"zip_code":"2420017","kana_pref":"ｶﾅｶﾞﾜｹﾝ","kana_city":"ﾔﾏﾄｼ","kana_address":"ﾔﾏﾄﾋｶﾞｼ","pref":"神奈川県","city":"大和市","address":"大和東"},
{"zip_code":"2420016","kana_pref":"ｶﾅｶﾞﾜｹﾝ","kana_city":"ﾔﾏﾄｼ","kana_address":"ﾔﾏﾄﾐﾅﾐ","pref":"神奈川県","city":"大和市","address":"大和南"},
{"zip_code":"2420003","kana_pref":"ｶﾅｶﾞﾜｹﾝ","kana_city":"ﾔﾏﾄｼ","kana_address":"ﾘﾝｶﾝ","pref":"神奈川県","city":"大和市","address":"林間"}]}