{"zip_code":[
{"zip_code":"2430000","kana_pref":"ｶﾅｶﾞﾜｹﾝ","kana_city":"ｱﾂｷﾞｼ","kana_address":"","pref":"神奈川県","city":"厚木市","address":""},
{"zip_code":"2430035","kana_pref":"ｶﾅｶﾞﾜｹﾝ","kana_city":"ｱﾂｷﾞｼ","kana_address":"ｱｲｺｳ","pref":"神奈川県","city":"厚木市","address":"愛甲"},
{"zip_code":"2430038","kana_pref":"ｶﾅｶﾞﾜｹﾝ","kana_city":"ｱﾂｷﾞｼ","kana_address":"ｱｲﾅ","pref":"神奈川県","city":"厚木市","address":"愛名"},
{"zip_code":"2430014","kana_pref":"ｶﾅｶﾞﾜｹﾝ","kana_city":"ｱﾂｷﾞｼ","kana_address":"ｱｻﾋﾁｮｳ","pref":"神奈川県","city":"厚木市","address":"旭町"},
{"zip_code":"2430007","kana_pref":"ｶﾅｶﾞﾜｹﾝ","kana_city":"ｱﾂｷﾞｼ","kana_address":"ｱﾂｷﾞ","pref":"神奈川県","city":"厚木市","address":"厚木"},
{"zip_code":"2430011","kana_pref":"ｶﾅｶﾞﾜｹﾝ","kana_city":"ｱﾂｷﾞｼ","kana_address":"ｱﾂｷﾞﾁｮｳ","pref":"神奈川県","city":"厚木市","address":"厚木町"},
{"zip_code":"2430006","kana_pref":"ｶﾅｶﾞﾜｹﾝ","kana_city":"ｱﾂｷﾞｼ","kana_address":"ｱﾂﾞﾏﾁｮｳ","pref":"神奈川県","city":"厚木市","address":"吾妻町"},
{"zip_code":"2430213","kana_pref":"ｶﾅｶﾞﾜｹﾝ","kana_city":"ｱﾂｷﾞｼ","kana_address":"ｲｲﾔﾏ","pref":"神奈川県","city":"厚木市","address":"飯山"},
{"zip_code":"2430013","kana_pref":"ｶﾅｶﾞﾜｹﾝ","kana_city":"ｱﾂｷﾞｼ","kana_address":"ｲｽﾞﾐﾁｮｳ","pref":"神奈川県","city":"厚木市","address":"泉町"},
{"zip_code":"2430212","kana_pref":"ｶﾅｶﾞﾜｹﾝ","kana_city":"ｱﾂｷﾞｼ","kana_address":"ｵｲｶﾞﾜ","pref":"神奈川県","city":"厚木市","address":"及川"},
{"zip_code":"2430817","kana_pref":"ｶﾅｶﾞﾜｹﾝ","kana_city":"ｱﾂｷﾞｼ","kana_address":"ｵｳｼﾞ","pref":"神奈川県","city":"厚木市","address":"王子"},
{"zip_code":"2430021","kana_pref":"ｶﾅｶﾞﾜｹﾝ","kana_city":"ｱﾂｷﾞｼ","kana_address":"ｵｶﾀ","pref":"神奈川県","city":"厚木市","address":"岡田"},
{"zip_code":"2430126","kana_pref":"ｶﾅｶﾞﾜｹﾝ","kana_city":"ｱﾂｷﾞｼ","kana_address":"ｵｶﾂｺｸ","pref":"神奈川県","city":"厚木市","address":"岡津古久"},
{"zip_code":"2430125","kana_pref":"ｶﾅｶﾞﾜｹﾝ","kana_city":"ｱﾂｷﾞｼ","kana_address":"ｵﾉ","pref":"神奈川県","city":"厚木市","address":"小野"},
{"zip_code":"2430032","kana_pref":"ｶﾅｶﾞﾜｹﾝ","kana_city":"ｱﾂｷﾞｼ","kana_address":"ｵﾝﾅ","pref":"神奈川県","city":"厚木市","address":"恩名"},
{"zip_code":"2430807","kana_pref":"ｶﾅｶﾞﾜｹﾝ","kana_city":"ｱﾂｷﾞｼ","kana_address":"ｶﾈﾀﾞ","pref":"神奈川県","city":"厚木市","address":"金田"},
{"zip_code":"2430801","kana_pref":"ｶﾅｶﾞﾜｹﾝ","kana_city":"ｱﾂｷﾞｼ","kana_address":"ｶﾐｴﾁ","pref":"神奈川県","city":"厚木市","address":"上依知"},
{"zip_code":"2430201","kana_pref":"ｶﾅｶﾞﾜｹﾝ","kana_city":"ｱﾂｷﾞｼ","kana_address":"ｶﾐｵｷﾞﾉ","pref":"神奈川県","city":"厚木市","address":"上荻野"},
{"zip_code":"2430025","kana_pref":"ｶﾅｶﾞﾜｹﾝ","kana_city":"ｱﾂｷﾞｼ","kana_address":"ｶﾐｵﾁｱｲ","pref":"神奈川県","city":"厚木市","address":"上落合"},
{"zip_code":"2430215","kana_pref":"ｶﾅｶﾞﾜｹﾝ","kana_city":"ｱﾂｷﾞｼ","kana_address":"ｶﾐﾌﾙｻﾜ","pref":"神奈川県","city":"厚木市","address":"上古沢"},
{"zip_code":"2430003","kana_pref":"ｶﾅｶﾞﾜｹﾝ","kana_city":"ｱﾂｷﾞｼ","kana_address":"ｺﾄﾌﾞｷﾁｮｳ","pref":"神奈川県","city":"厚木市","address":"寿町"},
{"zip_code":"2430012","kana_pref":"ｶﾅｶﾞﾜｹﾝ","kana_city":"ｱﾂｷﾞｼ","kana_address":"ｻｲﾜｲﾁｮｳ","pref":"神奈川県","city":"厚木市","address":"幸町"},
{"zip_code":"2430022","kana_pref":"ｶﾅｶﾞﾜｹﾝ","kana_city":"ｱﾂｷﾞｼ","kana_address":"ｻｶｲ","pref":"神奈川県","city":"厚木市","address":"酒井"},
{"zip_code":"2430017","kana_pref":"ｶﾅｶﾞﾜｹﾝ","kana_city":"ｱﾂｷﾞｼ","kana_address":"ｻｶｴﾁｮｳ","pref":"神奈川県","city":"厚木市","address":"栄町"},
{"zip_code":"2430802","kana_pref":"ｶﾅｶﾞﾜｹﾝ","kana_city":"ｱﾂｷﾞｼ","kana_address":"ｻﾙｶﾞｼﾏ","pref":"神奈川県","city":"厚木市","address":"猿ケ島"},
{"zip_code":"2430211","kana_pref":"ｶﾅｶﾞﾜｹﾝ","kana_city":"ｱﾂｷﾞｼ","kana_address":"ｻﾝﾀﾞ","pref":"神奈川県","city":"厚木市","address":"三田"},
{"zip_code":"2430217","kana_pref":"ｶﾅｶﾞﾜｹﾝ","kana_city":"ｱﾂｷﾞｼ","kana_address":"ｻﾝﾀﾞﾐﾅﾐ","pref":"神奈川県","city":"厚木市","address":"三田南"},
{"zip_code":"2430806","kana_pref":"ｶﾅｶﾞﾜｹﾝ","kana_city":"ｱﾂｷﾞｼ","kana_address":"ｼﾓｴﾁ","pref":"神奈川県","city":"厚木市","address":"下依知"},
{"zip_code":"2430203","kana_pref":"ｶﾅｶﾞﾜｹﾝ","kana_city":"ｱﾂｷﾞｼ","kana_address":"ｼﾓｵｷﾞﾉ","pref":"神奈川県","city":"厚木市","address":"下荻野"},
{"zip_code":"2430206","kana_pref":"ｶﾅｶﾞﾜｹﾝ","kana_city":"ｱﾂｷﾞｼ","kana_address":"ｼﾓｶﾜｲﾘ","pref":"神奈川県","city":"厚木市","address":"下川入"},
{"zip_code":"2430026","kana_pref":"ｶﾅｶﾞﾜｹﾝ","kana_city":"ｱﾂｷﾞｼ","kana_address":"ｼﾓﾂｺｸ","pref":"神奈川県","city":"厚木市","address":"下津古久"},
{"zip_code":"2430214","kana_pref":"ｶﾅｶﾞﾜｹﾝ","kana_city":"ｱﾂｷﾞｼ","kana_address":"ｼﾓﾌﾙｻﾜ","pref":"神奈川県","city":"厚木市","address":"下古沢"},
{"zip_code":"2430804","kana_pref":"ｶﾅｶﾞﾜｹﾝ","kana_city":"ｱﾂｷﾞｼ","kana_address":"ｾｷｸﾞﾁ","pref":"神奈川県","city":"厚木市","address":"関口"},
{"zip_code":"2430205","kana_pref":"ｶﾅｶﾞﾜｹﾝ","kana_city":"ｱﾂｷﾞｼ","kana_address":"ﾀﾅｻﾞﾜ","pref":"神奈川県","city":"厚木市","address":"棚沢"},
{"zip_code":"2430016","kana_pref":"ｶﾅｶﾞﾜｹﾝ","kana_city":"ｱﾂｷﾞｼ","kana_address":"ﾀﾑﾗﾁｮｳ","pref":"神奈川県","city":"厚木市","address":"田村町"},
{"zip_code":"2430811","kana_pref":"ｶﾅｶﾞﾜｹﾝ","kana_city":"ｱﾂｷﾞｼ","kana_address":"ﾂﾏﾀﾞ","pref":"神奈川県","city":"厚木市","address":"妻田"},
{"zip_code":"2430813","kana_pref":"ｶﾅｶﾞﾜｹﾝ","kana_city":"ｱﾂｷﾞｼ","kana_address":"ﾂﾏﾀﾞﾋｶﾞｼ","pref":"神奈川県","city":"厚木市","address":"妻田東"},
{"zip_code":"2430815","kana_pref":"ｶﾅｶﾞﾜｹﾝ","kana_city":"ｱﾂｷﾞｼ","kana_address":"ﾂﾏﾀﾞﾆｼ","pref":"神奈川県","city":"厚木市","address":"妻田西"},
{"zip_code":"2430814","kana_pref":"ｶﾅｶﾞﾜｹﾝ","kana_city":"ｱﾂｷﾞｼ","kana_address":"ﾂﾏﾀﾞﾐﾅﾐ","pref":"神奈川県","city":"厚木市","address":"妻田南"},
{"zip_code":"2430812","kana_pref":"ｶﾅｶﾞﾜｹﾝ","kana_city":"ｱﾂｷﾞｼ","kana_address":"ﾂﾏﾀﾞｷﾀ","pref":"神奈川県","city":"厚木市","address":"妻田北"},
{"zip_code":"2430023","kana_pref":"ｶﾅｶﾞﾜｹﾝ","kana_city":"ｱﾂｷﾞｼ","kana_address":"ﾄﾀﾞ","pref":"神奈川県","city":"厚木市","address":"戸田"},
{"zip_code":"2430204","kana_pref":"ｶﾅｶﾞﾜｹﾝ","kana_city":"ｱﾂｷﾞｼ","kana_address":"ﾄﾋﾞｵ","pref":"神奈川県","city":"厚木市","address":"鳶尾"},
{"zip_code":"2430031","kana_pref":"ｶﾅｶﾞﾜｹﾝ","kana_city":"ｱﾂｷﾞｼ","kana_address":"ﾄﾑﾛ","pref":"神奈川県","city":"厚木市","address":"戸室"},
{"zip_code":"2430805","kana_pref":"ｶﾅｶﾞﾜｹﾝ","kana_city":"ｱﾂｷﾞｼ","kana_address":"ﾅｶｴﾁ","pref":"神奈川県","city":"厚木市","address":"中依知"},
{"zip_code":"2430202","kana_pref":"ｶﾅｶﾞﾜｹﾝ","kana_city":"ｱﾂｷﾞｼ","kana_address":"ﾅｶｵｷﾞﾉ","pref":"神奈川県","city":"厚木市","address":"中荻野"},
{"zip_code":"2430018","kana_pref":"ｶﾅｶﾞﾜｹﾝ","kana_city":"ｱﾂｷﾞｼ","kana_address":"ﾅｶﾁｮｳ","pref":"神奈川県","city":"厚木市","address":"中町"},
{"zip_code":"2430024","kana_pref":"ｶﾅｶﾞﾜｹﾝ","kana_city":"ｱﾂｷﾞｼ","kana_address":"ﾅｶﾞﾇﾏ","pref":"神奈川県","city":"厚木市","address":"長沼"},
{"zip_code":"2430121","kana_pref":"ｶﾅｶﾞﾜｹﾝ","kana_city":"ｱﾂｷﾞｼ","kana_address":"ﾅﾅｻﾜ","pref":"神奈川県","city":"厚木市","address":"七沢"},
{"zip_code":"2430033","kana_pref":"ｶﾅｶﾞﾜｹﾝ","kana_city":"ｱﾂｷﾞｼ","kana_address":"ﾇﾙﾐｽﾞ","pref":"神奈川県","city":"厚木市","address":"温水"},
{"zip_code":"2430039","kana_pref":"ｶﾅｶﾞﾜｹﾝ","kana_city":"ｱﾂｷﾞｼ","kana_address":"ﾇﾙﾐｽﾞﾆｼ","pref":"神奈川県","city":"厚木市","address":"温水西"},
{"zip_code":"2430036","kana_pref":"ｶﾅｶﾞﾜｹﾝ","kana_city":"ｱﾂｷﾞｼ","kana_address":"ﾊｾ","pref":"神奈川県","city":"厚木市","address":"長谷"},
{"zip_code":"2430816","kana_pref":"ｶﾅｶﾞﾜｹﾝ","kana_city":"ｱﾂｷﾞｼ","kana_address":"ﾊﾔｼ","pref":"神奈川県","city":"厚木市","address":"林"},
{"zip_code":"2430001","kana_pref":"ｶﾅｶﾞﾜｹﾝ","kana_city":"ｱﾂｷﾞｼ","kana_address":"ﾋｶﾞｼﾁｮｳ","pref":"神奈川県","city":"厚木市","address":"東町"},
{"zip_code":"2430034","kana_pref":"ｶﾅｶﾞﾜｹﾝ","kana_city":"ｱﾂｷﾞｼ","kana_address":"ﾌﾅｺ","pref":"神奈川県","city":"厚木市","address":"船子"},
{"zip_code":"2430005","kana_pref":"ｶﾅｶﾞﾜｹﾝ","kana_city":"ｱﾂｷﾞｼ","kana_address":"ﾏﾂｴ","pref":"神奈川県","city":"厚木市","address":"松枝"},
{"zip_code":"2430207","kana_pref":"ｶﾅｶﾞﾜｹﾝ","kana_city":"ｱﾂｷﾞｼ","kana_address":"ﾏﾂｶｹﾞﾀﾞｲ","pref":"神奈川県","city":"厚木市","address":"まつかげ台"},
{"zip_code":"2430004","kana_pref":"ｶﾅｶﾞﾜｹﾝ","kana_city":"ｱﾂｷﾞｼ","kana_address":"ﾐｽﾞﾋｷ","pref":"神奈川県","city":"厚木市","address":"水引"},
{"zip_code":"2430041","kana_pref":"ｶﾅｶﾞﾜｹﾝ","kana_city":"ｱﾂｷﾞｼ","kana_address":"ﾐﾄﾞﾘｶﾞｵｶ","pref":"神奈川県","city":"厚木市","address":"緑ケ丘"},
{"zip_code":"2430015","kana_pref":"ｶﾅｶﾞﾜｹﾝ","kana_city":"ｱﾂｷﾞｼ","kana_address":"ﾐﾅﾐﾁｮｳ","pref":"神奈川県","city":"厚木市","address":"南町"},
{"zip_code":"2430208","kana_pref":"ｶﾅｶﾞﾜｹﾝ","kana_city":"ｱﾂｷﾞｼ","kana_address":"ﾐﾊﾙﾉ","pref":"神奈川県","city":"厚木市","address":"みはる野"},
{"zip_code":"2430216","kana_pref":"ｶﾅｶﾞﾜｹﾝ","kana_city":"ｱﾂｷﾞｼ","kana_address":"ﾐﾔﾉｻﾄ","pref":"神奈川県","city":"厚木市","address":"宮の里"},
{"zip_code":"2430037","kana_pref":"ｶﾅｶﾞﾜｹﾝ","kana_city":"ｱﾂｷﾞｼ","kana_address":"ﾓｳﾘﾀﾞｲ","pref":"神奈川県","city":"厚木市","address":"毛利台"},
{"zip_code":"2430002","kana_pref":"ｶﾅｶﾞﾜｹﾝ","kana_city":"ｱﾂｷﾞｼ","kana_address":"ﾓﾄﾁｮｳ","pref":"神奈川県","city":"厚木市","address":"元町"},
{"zip_code":"2430122","kana_pref":"ｶﾅｶﾞﾜｹﾝ","kana_city":"ｱﾂｷﾞｼ","kana_address":"ﾓﾘﾉｻﾄ","pref":"神奈川県","city":"厚木市","address":"森の里"},
{"zip_code":"2430123","kana_pref":"ｶﾅｶﾞﾜｹﾝ","kana_city":"ｱﾂｷﾞｼ","kana_address":"ﾓﾘﾉｻﾄｱｵﾔﾏ","pref":"神奈川県","city":"厚木市","address":"森の里青山"},
{"zip_code":"2430124","kana_pref":"ｶﾅｶﾞﾜｹﾝ","kana_city":"ｱﾂｷﾞｼ","kana_address":"ﾓﾘﾉｻﾄﾜｶﾐﾔ","pref":"神奈川県","city":"厚木市","address":"森の里若宮"},
{"zip_code":"2430803","kana_pref":"ｶﾅｶﾞﾜｹﾝ","kana_city":"ｱﾂｷﾞｼ","kana_address":"ﾔﾏｷﾞﾜ","pref":"神奈川県","city":"厚木市","address":"山際"},
{"zip_code":"2430400","kana_pref":"ｶﾅｶﾞﾜｹﾝ","kana_city":"ｴﾋﾞﾅｼ","kana_address":"","pref":"神奈川県","city":"海老名市","address":""},
{"zip_code":"2430423","kana_pref":"ｶﾅｶﾞﾜｹﾝ","kana_city":"ｴﾋﾞﾅｼ","kana_address":"ｲﾏｻﾞﾄ","pref":"神奈川県","city":"海老名市","address":"今里"},
{"zip_code":"2430411","kana_pref":"ｶﾅｶﾞﾜｹﾝ","kana_city":"ｴﾋﾞﾅｼ","kana_address":"ｵｵﾔ","pref":"神奈川県","city":"海老名市","address":"大谷"},
{"zip_code":"2430419","kana_pref":"ｶﾅｶﾞﾜｹﾝ","kana_city":"ｴﾋﾞﾅｼ","kana_address":"ｵｵﾔｷﾀ","pref":"神奈川県","city":"海老名市","address":"大谷北"},
{"zip_code":"2430418","kana_pref":"ｶﾅｶﾞﾜｹﾝ","kana_city":"ｴﾋﾞﾅｼ","kana_address":"ｵｵﾔﾐﾅﾐ","pref":"神奈川県","city":"海老名市","address":"大谷南"},
{"zip_code":"2430402","kana_pref":"ｶﾅｶﾞﾜｹﾝ","kana_city":"ｴﾋﾞﾅｼ","kana_address":"ｶｼﾜｶﾞﾔ","pref":"神奈川県","city":"海老名市","address":"柏ケ谷"},
{"zip_code":"2430404","kana_pref":"ｶﾅｶﾞﾜｹﾝ","kana_city":"ｴﾋﾞﾅｼ","kana_address":"ｶﾂｾ","pref":"神奈川県","city":"海老名市","address":"勝瀬"},
{"zip_code":"2430426","kana_pref":"ｶﾅｶﾞﾜｹﾝ","kana_city":"ｴﾋﾞﾅｼ","kana_address":"ｶﾄﾞｻﾜﾊﾞｼ","pref":"神奈川県","city":"海老名市","address":"門沢橋"},
{"zip_code":"2430431","kana_pref":"ｶﾅｶﾞﾜｹﾝ","kana_city":"ｴﾋﾞﾅｼ","kana_address":"ｶﾐｲﾏｲｽﾞﾐ","pref":"神奈川県","city":"海老名市","address":"上今泉"},
{"zip_code":"2430434","kana_pref":"ｶﾅｶﾞﾜｹﾝ","kana_city":"ｴﾋﾞﾅｼ","kana_address":"ｶﾐｺﾞｳ","pref":"神奈川県","city":"海老名市","address":"上郷"},
{"zip_code":"2430415","kana_pref":"ｶﾅｶﾞﾜｹﾝ","kana_city":"ｴﾋﾞﾅｼ","kana_address":"ｶﾐｺﾞｳﾁ","pref":"神奈川県","city":"海老名市","address":"上河内"},
{"zip_code":"2430433","kana_pref":"ｶﾅｶﾞﾜｹﾝ","kana_city":"ｴﾋﾞﾅｼ","kana_address":"ｶﾜﾗｸﾞﾁ","pref":"神奈川県","city":"海老名市","address":"河原口"},
{"zip_code":"2430413","kana_pref":"ｶﾅｶﾞﾜｹﾝ","kana_city":"ｴﾋﾞﾅｼ","kana_address":"ｺｸﾌﾞﾝｼﾞﾀﾞｲ","pref":"神奈川県","city":"海老名市","address":"国分寺台"},
{"zip_code":"2430405","kana_pref":"ｶﾅｶﾞﾜｹﾝ","kana_city":"ｴﾋﾞﾅｼ","kana_address":"ｺｸﾌﾞﾐﾅﾐ","pref":"神奈川県","city":"海老名市","address":"国分南"},
{"zip_code":"2430406","kana_pref":"ｶﾅｶﾞﾜｹﾝ","kana_city":"ｴﾋﾞﾅｼ","kana_address":"ｺｸﾌﾞｷﾀ","pref":"神奈川県","city":"海老名市","address":"国分北"},
{"zip_code":"2430421","kana_pref":"ｶﾅｶﾞﾜｹﾝ","kana_city":"ｴﾋﾞﾅｼ","kana_address":"ｻﾂｷﾁｮｳ","pref":"神奈川県","city":"海老名市","address":"さつき町"},
{"zip_code":"2430435","kana_pref":"ｶﾅｶﾞﾜｹﾝ","kana_city":"ｴﾋﾞﾅｼ","kana_address":"ｼﾓｲﾏｲｽﾞﾐ","pref":"神奈川県","city":"海老名市","address":"下今泉"},
{"zip_code":"2430424","kana_pref":"ｶﾅｶﾞﾜｹﾝ","kana_city":"ｴﾋﾞﾅｼ","kana_address":"ｼｬｹ","pref":"神奈川県","city":"海老名市","address":"社家"},
{"zip_code":"2430414","kana_pref":"ｶﾅｶﾞﾜｹﾝ","kana_city":"ｴﾋﾞﾅｼ","kana_address":"ｽｷﾞｸﾎﾞ","pref":"神奈川県","city":"海老名市","address":"杉久保"},
{"zip_code":"2430410","kana_pref":"ｶﾅｶﾞﾜｹﾝ","kana_city":"ｴﾋﾞﾅｼ","kana_address":"ｽｷﾞｸﾎﾞｷﾀ","pref":"神奈川県","city":"海老名市","address":"杉久保北"},
{"zip_code":"2430427","kana_pref":"ｶﾅｶﾞﾜｹﾝ","kana_city":"ｴﾋﾞﾅｼ","kana_address":"ｽｷﾞｸﾎﾞﾐﾅﾐ","pref":"神奈川県","city":"海老名市","address":"杉久保南"},
{"zip_code":"2430432","kana_pref":"ｶﾅｶﾞﾜｹﾝ","kana_city":"ｴﾋﾞﾅｼ","kana_address":"ﾁｭｳｵｳ","pref":"神奈川県","city":"海老名市","address":"中央"},
{"zip_code":"2430416","kana_pref":"ｶﾅｶﾞﾜｹﾝ","kana_city":"ｴﾋﾞﾅｼ","kana_address":"ﾅｶｺﾞｳﾁ","pref":"神奈川県","city":"海老名市","address":"中河内"},
{"zip_code":"2430422","kana_pref":"ｶﾅｶﾞﾜｹﾝ","kana_city":"ｴﾋﾞﾅｼ","kana_address":"ﾅｶｼﾝﾃﾞﾝ","pref":"神奈川県","city":"海老名市","address":"中新田"},
{"zip_code":"2430425","kana_pref":"ｶﾅｶﾞﾜｹﾝ","kana_city":"ｴﾋﾞﾅｼ","kana_address":"ﾅｶﾉ","pref":"神奈川県","city":"海老名市","address":"中野"},
{"zip_code":"2430412","kana_pref":"ｶﾅｶﾞﾜｹﾝ","kana_city":"ｴﾋﾞﾅｼ","kana_address":"ﾊﾏﾀﾞﾁｮｳ","pref":"神奈川県","city":"海老名市","address":"浜田町"},
{"zip_code":"2430401","kana_pref":"ｶﾅｶﾞﾜｹﾝ","kana_city":"ｴﾋﾞﾅｼ","kana_address":"ﾋｶﾞｼｶｼﾜｶﾞﾔ","pref":"神奈川県","city":"海老名市","address":"東柏ケ谷"},
{"zip_code":"2430417","kana_pref":"ｶﾅｶﾞﾜｹﾝ","kana_city":"ｴﾋﾞﾅｼ","kana_address":"ﾎﾝｺﾞｳ","pref":"神奈川県","city":"海老名市","address":"本郷"},
{"zip_code":"2430403","kana_pref":"ｶﾅｶﾞﾜｹﾝ","kana_city":"ｴﾋﾞﾅｼ","kana_address":"ﾓｳﾁ","pref":"神奈川県","city":"海老名市","address":"望地"},
{"zip_code":"2430300","kana_pref":"ｶﾅｶﾞﾜｹﾝ","kana_city":"ｱｲｺｳｸﾞﾝｱｲｶﾜﾏﾁ","kana_address":"","pref":"神奈川県","city":"愛甲郡愛川町","address":""},
{"zip_code":"2430302","kana_pref":"ｶﾅｶﾞﾜｹﾝ","kana_city":"ｱｲｺｳｸﾞﾝｱｲｶﾜﾏﾁ","kana_address":"ｶｽｶﾞﾀﾞｲ","pref":"神奈川県","city":"愛甲郡愛川町","address":"春日台"},
{"zip_code":"2430301","kana_pref":"ｶﾅｶﾞﾜｹﾝ","kana_city":"ｱｲｺｳｸﾞﾝｱｲｶﾜﾏﾁ","kana_address":"ｽﾐﾀﾞ","pref":"神奈川県","city":"愛甲郡愛川町","address":"角田"},
{"zip_code":"2430306","kana_pref":"ｶﾅｶﾞﾜｹﾝ","kana_city":"ｱｲｺｳｸﾞﾝｱｲｶﾜﾏﾁ","kana_address":"ﾀｼﾛ","pref":"神奈川県","city":"愛甲郡愛川町","address":"田代"},
{"zip_code":"2430304","kana_pref":"ｶﾅｶﾞﾜｹﾝ","kana_city":"ｱｲｺｳｸﾞﾝｱｲｶﾜﾏﾁ","kana_address":"ﾀﾅｻﾞﾜ","pref":"神奈川県","city":"愛甲郡愛川町","address":"棚沢"},
{"zip_code":"2430303","kana_pref":"ｶﾅｶﾞﾜｹﾝ","kana_city":"ｱｲｺｳｸﾞﾝｱｲｶﾜﾏﾁ","kana_address":"ﾅｶﾂ","pref":"神奈川県","city":"愛甲郡愛川町","address":"中津"},
{"zip_code":"2430305","kana_pref":"ｶﾅｶﾞﾜｹﾝ","kana_city":"ｱｲｺｳｸﾞﾝｱｲｶﾜﾏﾁ","kana_address":"ﾊｽｹﾞｻﾝ","pref":"神奈川県","city":"愛甲郡愛川町","address":"八菅山"},
{"zip_code":"2430307","kana_pref":"ｶﾅｶﾞﾜｹﾝ","kana_city":"ｱｲｺｳｸﾞﾝｱｲｶﾜﾏﾁ","kana_address":"ﾊﾝﾊﾞﾗ","pref":"神奈川県","city":"愛甲郡愛川町","address":"半原"},
{"zip_code":"2430308","kana_pref":"ｶﾅｶﾞﾜｹﾝ","kana_city":"ｱｲｺｳｸﾞﾝｱｲｶﾜﾏﾁ","kana_address":"ﾐﾏｾ","pref":"神奈川県","city":"愛甲郡愛川町","address":"三増"},
{"zip_code":"2430100","kana_pref":"ｶﾅｶﾞﾜｹﾝ","kana_city":"ｱｲｺｳｸﾞﾝｷﾖｶﾜﾑﾗ","kana_address":"","pref":"神奈川県","city":"愛甲郡清川村","address":""},
{"zip_code":"2430112","kana_pref":"ｶﾅｶﾞﾜｹﾝ","kana_city":"ｱｲｺｳｸﾞﾝｷﾖｶﾜﾑﾗ","kana_address":"ｽｽｶﾞﾔ","pref":"神奈川県","city":"愛甲郡清川村","address":"煤ケ谷"},
{"zip_code":"2430111","kana_pref":"ｶﾅｶﾞﾜｹﾝ","kana_city":"ｱｲｺｳｸﾞﾝｷﾖｶﾜﾑﾗ","kana_address":"ﾐﾔｶﾞｾ","pref":"神奈川県","city":"愛甲郡清川村","address":"宮ケ瀬"}]}