{"zip_code":[
{"zip_code":"2440000","kana_pref":"ｶﾅｶﾞﾜｹﾝ","kana_city":"ﾖｺﾊﾏｼﾄﾂｶｸ","kana_address":"","pref":"神奈川県","city":"横浜市戸塚区","address":""},
{"zip_code":"2440812","kana_pref":"ｶﾅｶﾞﾜｹﾝ","kana_city":"ﾖｺﾊﾏｼﾄﾂｶｸ","kana_address":"ｶｼｵﾁｮｳ","pref":"神奈川県","city":"横浜市戸塚区","address":"柏尾町"},
{"zip_code":"2440811","kana_pref":"ｶﾅｶﾞﾜｹﾝ","kana_city":"ﾖｺﾊﾏｼﾄﾂｶｸ","kana_address":"ｶﾐｶｼｵﾁｮｳ","pref":"神奈川県","city":"横浜市戸塚区","address":"上柏尾町"},
{"zip_code":"2440816","kana_pref":"ｶﾅｶﾞﾜｹﾝ","kana_city":"ﾖｺﾊﾏｼﾄﾂｶｸ","kana_address":"ｶﾐｸﾗﾀﾁｮｳ","pref":"神奈川県","city":"横浜市戸塚区","address":"上倉田町"},
{"zip_code":"2440806","kana_pref":"ｶﾅｶﾞﾜｹﾝ","kana_city":"ﾖｺﾊﾏｼﾄﾂｶｸ","kana_address":"ｶﾐｼﾅﾉ","pref":"神奈川県","city":"横浜市戸塚区","address":"上品濃"},
{"zip_code":"2440805","kana_pref":"ｶﾅｶﾞﾜｹﾝ","kana_city":"ﾖｺﾊﾏｼﾄﾂｶｸ","kana_address":"ｶﾜｶﾐﾁｮｳ","pref":"神奈川県","city":"横浜市戸塚区","address":"川上町"},
{"zip_code":"2440004","kana_pref":"ｶﾅｶﾞﾜｹﾝ","kana_city":"ﾖｺﾊﾏｼﾄﾂｶｸ","kana_address":"ｺｽｽﾞﾒﾁｮｳ","pref":"神奈川県","city":"横浜市戸塚区","address":"小雀町"},
{"zip_code":"2440801","kana_pref":"ｶﾅｶﾞﾜｹﾝ","kana_city":"ﾖｺﾊﾏｼﾄﾂｶｸ","kana_address":"ｼﾅﾉﾁｮｳ","pref":"神奈川県","city":"横浜市戸塚区","address":"品濃町"},
{"zip_code":"2440815","kana_pref":"ｶﾅｶﾞﾜｹﾝ","kana_city":"ﾖｺﾊﾏｼﾄﾂｶｸ","kana_address":"ｼﾓｸﾗﾀﾁｮｳ","pref":"神奈川県","city":"横浜市戸塚区","address":"下倉田町"},
{"zip_code":"2440003","kana_pref":"ｶﾅｶﾞﾜｹﾝ","kana_city":"ﾖｺﾊﾏｼﾄﾂｶｸ","kana_address":"ﾄﾂｶﾁｮｳ","pref":"神奈川県","city":"横浜市戸塚区","address":"戸塚町"},
{"zip_code":"2440001","kana_pref":"ｶﾅｶﾞﾜｹﾝ","kana_city":"ﾖｺﾊﾏｼﾄﾂｶｸ","kana_address":"ﾄﾘｶﾞｵｶ","pref":"神奈川県","city":"横浜市戸塚区","address":"鳥が丘"},
{"zip_code":"2440802","kana_pref":"ｶﾅｶﾞﾜｹﾝ","kana_city":"ﾖｺﾊﾏｼﾄﾂｶｸ","kana_address":"ﾋﾗﾄﾞ","pref":"神奈川県","city":"横浜市戸塚区","address":"平戸"},
{"zip_code":"2440803","kana_pref":"ｶﾅｶﾞﾜｹﾝ","kana_city":"ﾖｺﾊﾏｼﾄﾂｶｸ","kana_address":"ﾋﾗﾄﾞﾁｮｳ","pref":"神奈川県","city":"横浜市戸塚区","address":"平戸町"},
{"zip_code":"2440813","kana_pref":"ｶﾅｶﾞﾜｹﾝ","kana_city":"ﾖｺﾊﾏｼﾄﾂｶｸ","kana_address":"ﾏｲｵｶﾁｮｳ","pref":"神奈川県","city":"横浜市戸塚区","address":"舞岡町"},
{"zip_code":"2440804","kana_pref":"ｶﾅｶﾞﾜｹﾝ","kana_city":"ﾖｺﾊﾏｼﾄﾂｶｸ","kana_address":"ﾏｴﾀﾞﾁｮｳ","pref":"神奈川県","city":"横浜市戸塚区","address":"前田町"},
{"zip_code":"2440814","kana_pref":"ｶﾅｶﾞﾜｹﾝ","kana_city":"ﾖｺﾊﾏｼﾄﾂｶｸ","kana_address":"ﾐﾅﾐﾏｲｵｶ","pref":"神奈川県","city":"横浜市戸塚区","address":"南舞岡"},
{"zip_code":"2440002","kana_pref":"ｶﾅｶﾞﾜｹﾝ","kana_city":"ﾖｺﾊﾏｼﾄﾂｶｸ","kana_address":"ﾔﾍﾞﾁｮｳ","pref":"神奈川県","city":"横浜市戸塚区","address":"矢部町"},
{"zip_code":"2440817","kana_pref":"ｶﾅｶﾞﾜｹﾝ","kana_city":"ﾖｺﾊﾏｼﾄﾂｶｸ","kana_address":"ﾖｼﾀﾞﾁｮｳ","pref":"神奈川県","city":"横浜市戸塚区","address":"吉田町"},
{"zip_code":"2440842","kana_pref":"ｶﾅｶﾞﾜｹﾝ","kana_city":"ﾖｺﾊﾏｼｻｶｴｸ","kana_address":"ｲｲｼﾞﾏﾁｮｳ","pref":"神奈川県","city":"横浜市栄区","address":"飯島町"},
{"zip_code":"2440845","kana_pref":"ｶﾅｶﾞﾜｹﾝ","kana_city":"ﾖｺﾊﾏｼｻｶｴｸ","kana_address":"ｶﾅｲﾁｮｳ","pref":"神奈川県","city":"横浜市栄区","address":"金井町"},
{"zip_code":"2440844","kana_pref":"ｶﾅｶﾞﾜｹﾝ","kana_city":"ﾖｺﾊﾏｼｻｶｴｸ","kana_address":"ﾀﾔﾁｮｳ","pref":"神奈川県","city":"横浜市栄区","address":"田谷町"},
{"zip_code":"2440843","kana_pref":"ｶﾅｶﾞﾜｹﾝ","kana_city":"ﾖｺﾊﾏｼｻｶｴｸ","kana_address":"ﾅｶﾞｵﾀﾞｲﾁｮｳ","pref":"神奈川県","city":"横浜市栄区","address":"長尾台町"},
{"zip_code":"2440841","kana_pref":"ｶﾅｶﾞﾜｹﾝ","kana_city":"ﾖｺﾊﾏｼｻｶｴｸ","kana_address":"ﾅｶﾞﾇﾏﾁｮｳ","pref":"神奈川県","city":"横浜市栄区","address":"長沼町"}]}