{"zip_code":[
{"zip_code":"2450052","kana_pref":"ｶﾅｶﾞﾜｹﾝ","kana_city":"ﾖｺﾊﾏｼﾄﾂｶｸ","kana_address":"ｱｷﾊﾞﾁｮｳ","pref":"神奈川県","city":"横浜市戸塚区","address":"秋葉町"},
{"zip_code":"2450064","kana_pref":"ｶﾅｶﾞﾜｹﾝ","kana_city":"ﾖｺﾊﾏｼﾄﾂｶｸ","kana_address":"ｶｹﾞﾄﾘﾁｮｳ","pref":"神奈川県","city":"横浜市戸塚区","address":"影取町"},
{"zip_code":"2450053","kana_pref":"ｶﾅｶﾞﾜｹﾝ","kana_city":"ﾖｺﾊﾏｼﾄﾂｶｸ","kana_address":"ｶﾐﾔﾍﾞﾁｮｳ","pref":"神奈川県","city":"横浜市戸塚区","address":"上矢部町"},
{"zip_code":"2450061","kana_pref":"ｶﾅｶﾞﾜｹﾝ","kana_city":"ﾖｺﾊﾏｼﾄﾂｶｸ","kana_address":"ｸﾞﾐｻﾞﾜ","pref":"神奈川県","city":"横浜市戸塚区","address":"汲沢"},
{"zip_code":"2450062","kana_pref":"ｶﾅｶﾞﾜｹﾝ","kana_city":"ﾖｺﾊﾏｼﾄﾂｶｸ","kana_address":"ｸﾞﾐｻﾞﾜﾁｮｳ","pref":"神奈川県","city":"横浜市戸塚区","address":"汲沢町"},
{"zip_code":"2450051","kana_pref":"ｶﾅｶﾞﾜｹﾝ","kana_city":"ﾖｺﾊﾏｼﾄﾂｶｸ","kana_address":"ﾅｾﾁｮｳ","pref":"神奈川県","city":"横浜市戸塚区","address":"名瀬町"},
{"zip_code":"2450063","kana_pref":"ｶﾅｶﾞﾜｹﾝ","kana_city":"ﾖｺﾊﾏｼﾄﾂｶｸ","kana_address":"ﾊﾗｼﾞｭｸ","pref":"神奈川県","city":"横浜市戸塚区","address":"原宿"},
{"zip_code":"2450065","kana_pref":"ｶﾅｶﾞﾜｹﾝ","kana_city":"ﾖｺﾊﾏｼﾄﾂｶｸ","kana_address":"ﾋｶﾞｼﾏﾀﾉﾁｮｳ","pref":"神奈川県","city":"横浜市戸塚区","address":"東俣野町"},
{"zip_code":"2450067","kana_pref":"ｶﾅｶﾞﾜｹﾝ","kana_city":"ﾖｺﾊﾏｼﾄﾂｶｸ","kana_address":"ﾌｶﾔﾁｮｳ","pref":"神奈川県","city":"横浜市戸塚区","address":"深谷町"},
{"zip_code":"2450066","kana_pref":"ｶﾅｶﾞﾜｹﾝ","kana_city":"ﾖｺﾊﾏｼﾄﾂｶｸ","kana_address":"ﾏﾀﾉﾁｮｳ","pref":"神奈川県","city":"横浜市戸塚区","address":"俣野町"},
{"zip_code":"2450000","kana_pref":"ｶﾅｶﾞﾜｹﾝ","kana_city":"ﾖｺﾊﾏｼｲｽﾞﾐｸ","kana_address":"","pref":"神奈川県","city":"横浜市泉区","address":""},
{"zip_code":"2450001","kana_pref":"ｶﾅｶﾞﾜｹﾝ","kana_city":"ﾖｺﾊﾏｼｲｽﾞﾐｸ","kana_address":"ｲｹﾉﾀﾆ","pref":"神奈川県","city":"横浜市泉区","address":"池の谷"},
{"zip_code":"2450016","kana_pref":"ｶﾅｶﾞﾜｹﾝ","kana_city":"ﾖｺﾊﾏｼｲｽﾞﾐｸ","kana_address":"ｲｽﾞﾐﾁｮｳ","pref":"神奈川県","city":"横浜市泉区","address":"和泉町"},
{"zip_code":"2450003","kana_pref":"ｶﾅｶﾞﾜｹﾝ","kana_city":"ﾖｺﾊﾏｼｲｽﾞﾐｸ","kana_address":"ｵｶﾂﾞﾁｮｳ","pref":"神奈川県","city":"横浜市泉区","address":"岡津町"},
{"zip_code":"2450007","kana_pref":"ｶﾅｶﾞﾜｹﾝ","kana_city":"ﾖｺﾊﾏｼｲｽﾞﾐｸ","kana_address":"ｶﾂﾗｻﾞｶ","pref":"神奈川県","city":"横浜市泉区","address":"桂坂"},
{"zip_code":"2450018","kana_pref":"ｶﾅｶﾞﾜｹﾝ","kana_city":"ﾖｺﾊﾏｼｲｽﾞﾐｸ","kana_address":"ｶﾐｲｲﾀﾞﾁｮｳ","pref":"神奈川県","city":"横浜市泉区","address":"上飯田町"},
{"zip_code":"2450017","kana_pref":"ｶﾅｶﾞﾜｹﾝ","kana_city":"ﾖｺﾊﾏｼｲｽﾞﾐｸ","kana_address":"ｼﾓｲｲﾀﾞﾁｮｳ","pref":"神奈川県","city":"横浜市泉区","address":"下飯田町"},
{"zip_code":"2450005","kana_pref":"ｶﾅｶﾞﾜｹﾝ","kana_city":"ﾖｺﾊﾏｼｲｽﾞﾐｸ","kana_address":"ｼﾗﾕﾘ","pref":"神奈川県","city":"横浜市泉区","address":"白百合"},
{"zip_code":"2450009","kana_pref":"ｶﾅｶﾞﾜｹﾝ","kana_city":"ﾖｺﾊﾏｼｲｽﾞﾐｸ","kana_address":"ｼﾝﾊﾞｼﾁｮｳ","pref":"神奈川県","city":"横浜市泉区","address":"新橋町"},
{"zip_code":"2450011","kana_pref":"ｶﾅｶﾞﾜｹﾝ","kana_city":"ﾖｺﾊﾏｼｲｽﾞﾐｸ","kana_address":"ﾅｶﾀﾁｮｳ","pref":"神奈川県","city":"横浜市泉区","address":"中田町"},
{"zip_code":"2450013","kana_pref":"ｶﾅｶﾞﾜｹﾝ","kana_city":"ﾖｺﾊﾏｼｲｽﾞﾐｸ","kana_address":"ﾅｶﾀﾋｶﾞｼ","pref":"神奈川県","city":"横浜市泉区","address":"中田東"},
{"zip_code":"2450015","kana_pref":"ｶﾅｶﾞﾜｹﾝ","kana_city":"ﾖｺﾊﾏｼｲｽﾞﾐｸ","kana_address":"ﾅｶﾀﾆｼ","pref":"神奈川県","city":"横浜市泉区","address":"中田西"},
{"zip_code":"2450014","kana_pref":"ｶﾅｶﾞﾜｹﾝ","kana_city":"ﾖｺﾊﾏｼｲｽﾞﾐｸ","kana_address":"ﾅｶﾀﾐﾅﾐ","pref":"神奈川県","city":"横浜市泉区","address":"中田南"},
{"zip_code":"2450012","kana_pref":"ｶﾅｶﾞﾜｹﾝ","kana_city":"ﾖｺﾊﾏｼｲｽﾞﾐｸ","kana_address":"ﾅｶﾀｷﾀ","pref":"神奈川県","city":"横浜市泉区","address":"中田北"},
{"zip_code":"2450006","kana_pref":"ｶﾅｶﾞﾜｹﾝ","kana_city":"ﾖｺﾊﾏｼｲｽﾞﾐｸ","kana_address":"ﾆｼｶﾞｵｶ","pref":"神奈川県","city":"横浜市泉区","address":"西が岡"},
{"zip_code":"2450008","kana_pref":"ｶﾅｶﾞﾜｹﾝ","kana_city":"ﾖｺﾊﾏｼｲｽﾞﾐｸ","kana_address":"ﾔﾖｲﾀﾞｲ","pref":"神奈川県","city":"横浜市泉区","address":"弥生台"},
{"zip_code":"2450004","kana_pref":"ｶﾅｶﾞﾜｹﾝ","kana_city":"ﾖｺﾊﾏｼｲｽﾞﾐｸ","kana_address":"ﾘｮｳｹ","pref":"神奈川県","city":"横浜市泉区","address":"領家"},
{"zip_code":"2450002","kana_pref":"ｶﾅｶﾞﾜｹﾝ","kana_city":"ﾖｺﾊﾏｼｲｽﾞﾐｸ","kana_address":"ﾘｮｸｴﾝ","pref":"神奈川県","city":"横浜市泉区","address":"緑園"}]}