{"zip_code":[
{"zip_code":"2480000","kana_pref":"ｶﾅｶﾞﾜｹﾝ","kana_city":"ｶﾏｸﾗｼ","kana_address":"","pref":"神奈川県","city":"鎌倉市","address":""},
{"zip_code":"2480024","kana_pref":"ｶﾅｶﾞﾜｹﾝ","kana_city":"ｶﾏｸﾗｼ","kana_address":"ｲﾅﾑﾗｶﾞｻｷ","pref":"神奈川県","city":"鎌倉市","address":"稲村ガ崎"},
{"zip_code":"2480011","kana_pref":"ｶﾅｶﾞﾜｹﾝ","kana_city":"ｶﾏｸﾗｼ","kana_address":"ｵｳｷﾞｶﾞﾔﾂ","pref":"神奈川県","city":"鎌倉市","address":"扇ガ谷"},
{"zip_code":"2480007","kana_pref":"ｶﾅｶﾞﾜｹﾝ","kana_city":"ｶﾏｸﾗｼ","kana_address":"ｵｵﾏﾁ","pref":"神奈川県","city":"鎌倉市","address":"大町"},
{"zip_code":"2480012","kana_pref":"ｶﾅｶﾞﾜｹﾝ","kana_city":"ｶﾏｸﾗｼ","kana_address":"ｵﾅﾘﾏﾁ","pref":"神奈川県","city":"鎌倉市","address":"御成町"},
{"zip_code":"2480031","kana_pref":"ｶﾅｶﾞﾜｹﾝ","kana_city":"ｶﾏｸﾗｼ","kana_address":"ｶﾏｸﾗﾔﾏ","pref":"神奈川県","city":"鎌倉市","address":"鎌倉山"},
{"zip_code":"2480023","kana_pref":"ｶﾅｶﾞﾜｹﾝ","kana_city":"ｶﾏｸﾗｼ","kana_address":"ｺﾞｸﾗｸｼﾞ","pref":"神奈川県","city":"鎌倉市","address":"極楽寺"},
{"zip_code":"2480033","kana_pref":"ｶﾅｶﾞﾜｹﾝ","kana_city":"ｶﾏｸﾗｼ","kana_address":"ｺｼｺﾞｴ","pref":"神奈川県","city":"鎌倉市","address":"腰越"},
{"zip_code":"2480006","kana_pref":"ｶﾅｶﾞﾜｹﾝ","kana_city":"ｶﾏｸﾗｼ","kana_address":"ｺﾏﾁ","pref":"神奈川県","city":"鎌倉市","address":"小町"},
{"zip_code":"2480013","kana_pref":"ｶﾅｶﾞﾜｹﾝ","kana_city":"ｶﾏｸﾗｼ","kana_address":"ｻﾞｲﾓｸｻﾞ","pref":"神奈川県","city":"鎌倉市","address":"材木座"},
{"zip_code":"2480021","kana_pref":"ｶﾅｶﾞﾜｹﾝ","kana_city":"ｶﾏｸﾗｼ","kana_address":"ｻｶﾉｼﾀ","pref":"神奈川県","city":"鎌倉市","address":"坂ノ下"},
{"zip_code":"2480015","kana_pref":"ｶﾅｶﾞﾜｹﾝ","kana_city":"ｶﾏｸﾗｼ","kana_address":"ｻｻﾒﾏﾁ","pref":"神奈川県","city":"鎌倉市","address":"笹目町"},
{"zip_code":"2480017","kana_pref":"ｶﾅｶﾞﾜｹﾝ","kana_city":"ｶﾏｸﾗｼ","kana_address":"ｻｽｹ","pref":"神奈川県","city":"鎌倉市","address":"佐助"},
{"zip_code":"2480026","kana_pref":"ｶﾅｶﾞﾜｹﾝ","kana_city":"ｶﾏｸﾗｼ","kana_address":"ｼﾁﾘｶﾞﾊﾏ","pref":"神奈川県","city":"鎌倉市","address":"七里ガ浜"},
{"zip_code":"2480025","kana_pref":"ｶﾅｶﾞﾜｹﾝ","kana_city":"ｶﾏｸﾗｼ","kana_address":"ｼﾁﾘｶﾞﾊﾏﾋｶﾞｼ","pref":"神奈川県","city":"鎌倉市","address":"七里ガ浜東"},
{"zip_code":"2480001","kana_pref":"ｶﾅｶﾞﾜｹﾝ","kana_city":"ｶﾏｸﾗｼ","kana_address":"ｼﾞｭｳﾆｿ","pref":"神奈川県","city":"鎌倉市","address":"十二所"},
{"zip_code":"2480003","kana_pref":"ｶﾅｶﾞﾜｹﾝ","kana_city":"ｶﾏｸﾗｼ","kana_address":"ｼﾞｮｳﾐｮｳｼﾞ","pref":"神奈川県","city":"鎌倉市","address":"浄明寺"},
{"zip_code":"2480032","kana_pref":"ｶﾅｶﾞﾜｹﾝ","kana_city":"ｶﾏｸﾗｼ","kana_address":"ﾂ","pref":"神奈川県","city":"鎌倉市","address":"津"},
{"zip_code":"2480034","kana_pref":"ｶﾅｶﾞﾜｹﾝ","kana_city":"ｶﾏｸﾗｼ","kana_address":"ﾂﾆｼ","pref":"神奈川県","city":"鎌倉市","address":"津西"},
{"zip_code":"2480036","kana_pref":"ｶﾅｶﾞﾜｹﾝ","kana_city":"ｶﾏｸﾗｼ","kana_address":"ﾃﾋﾞﾛ","pref":"神奈川県","city":"鎌倉市","address":"手広"},
{"zip_code":"2480022","kana_pref":"ｶﾅｶﾞﾜｹﾝ","kana_city":"ｶﾏｸﾗｼ","kana_address":"ﾄｷﾜ","pref":"神奈川県","city":"鎌倉市","address":"常盤"},
{"zip_code":"2480002","kana_pref":"ｶﾅｶﾞﾜｹﾝ","kana_city":"ｶﾏｸﾗｼ","kana_address":"ﾆｶｲﾄﾞｳ","pref":"神奈川県","city":"鎌倉市","address":"二階堂"},
{"zip_code":"2480035","kana_pref":"ｶﾅｶﾞﾜｹﾝ","kana_city":"ｶﾏｸﾗｼ","kana_address":"ﾆｼｶﾏｸﾗ","pref":"神奈川県","city":"鎌倉市","address":"西鎌倉"},
{"zip_code":"2480004","kana_pref":"ｶﾅｶﾞﾜｹﾝ","kana_city":"ｶﾏｸﾗｼ","kana_address":"ﾆｼﾐｶﾄﾞ","pref":"神奈川県","city":"鎌倉市","address":"西御門"},
{"zip_code":"2480016","kana_pref":"ｶﾅｶﾞﾜｹﾝ","kana_city":"ｶﾏｸﾗｼ","kana_address":"ﾊｾ","pref":"神奈川県","city":"鎌倉市","address":"長谷"},
{"zip_code":"2480027","kana_pref":"ｶﾅｶﾞﾜｹﾝ","kana_city":"ｶﾏｸﾗｼ","kana_address":"ﾌｴﾀﾞ","pref":"神奈川県","city":"鎌倉市","address":"笛田"},
{"zip_code":"2480014","kana_pref":"ｶﾅｶﾞﾜｹﾝ","kana_city":"ｶﾏｸﾗｼ","kana_address":"ﾕｲｶﾞﾊﾏ","pref":"神奈川県","city":"鎌倉市","address":"由比ガ浜"},
{"zip_code":"2480005","kana_pref":"ｶﾅｶﾞﾜｹﾝ","kana_city":"ｶﾏｸﾗｼ","kana_address":"ﾕｷﾉｼﾀ","pref":"神奈川県","city":"鎌倉市","address":"雪ノ下"}]}