{"zip_code":[
{"zip_code":"2490000","kana_pref":"ｶﾅｶﾞﾜｹﾝ","kana_city":"ｽﾞｼｼ","kana_address":"","pref":"神奈川県","city":"逗子市","address":""},
{"zip_code":"2490003","kana_pref":"ｶﾅｶﾞﾜｹﾝ","kana_city":"ｽﾞｼｼ","kana_address":"ｲｹｺﾞ","pref":"神奈川県","city":"逗子市","address":"池子"},
{"zip_code":"2490008","kana_pref":"ｶﾅｶﾞﾜｹﾝ","kana_city":"ｽﾞｼｼ","kana_address":"ｺﾂﾎﾞ","pref":"神奈川県","city":"逗子市","address":"小坪"},
{"zip_code":"2490005","kana_pref":"ｶﾅｶﾞﾜｹﾝ","kana_city":"ｽﾞｼｼ","kana_address":"ｻｸﾗﾔﾏ","pref":"神奈川県","city":"逗子市","address":"桜山"},
{"zip_code":"2490007","kana_pref":"ｶﾅｶﾞﾜｹﾝ","kana_city":"ｽﾞｼｼ","kana_address":"ｼﾝｼﾞｭｸ","pref":"神奈川県","city":"逗子市","address":"新宿"},
{"zip_code":"2490006","kana_pref":"ｶﾅｶﾞﾜｹﾝ","kana_city":"ｽﾞｼｼ","kana_address":"ｽﾞｼ","pref":"神奈川県","city":"逗子市","address":"逗子"},
{"zip_code":"2490004","kana_pref":"ｶﾅｶﾞﾜｹﾝ","kana_city":"ｽﾞｼｼ","kana_address":"ﾇﾏﾏ","pref":"神奈川県","city":"逗子市","address":"沼間"},
{"zip_code":"2490001","kana_pref":"ｶﾅｶﾞﾜｹﾝ","kana_city":"ｽﾞｼｼ","kana_address":"ﾋｻｷﾞ","pref":"神奈川県","city":"逗子市","address":"久木"},
{"zip_code":"2490002","kana_pref":"ｶﾅｶﾞﾜｹﾝ","kana_city":"ｽﾞｼｼ","kana_address":"ﾔﾏﾉﾈ","pref":"神奈川県","city":"逗子市","address":"山の根"}]}