{"zip_code":[
{"zip_code":"2510000","kana_pref":"ｶﾅｶﾞﾜｹﾝ","kana_city":"ﾌｼﾞｻﾜｼ","kana_address":"","pref":"神奈川県","city":"藤沢市","address":""},
{"zip_code":"2510054","kana_pref":"ｶﾅｶﾞﾜｹﾝ","kana_city":"ﾌｼﾞｻﾜｼ","kana_address":"ｱｻﾋﾁｮｳ","pref":"神奈川県","city":"藤沢市","address":"朝日町"},
{"zip_code":"2510862","kana_pref":"ｶﾅｶﾞﾜｹﾝ","kana_city":"ﾌｼﾞｻﾜｼ","kana_address":"ｲﾅﾘ","pref":"神奈川県","city":"藤沢市","address":"稲荷"},
{"zip_code":"2510036","kana_pref":"ｶﾅｶﾞﾜｹﾝ","kana_city":"ﾌｼﾞｻﾜｼ","kana_address":"ｴﾉｼﾏ","pref":"神奈川県","city":"藤沢市","address":"江の島"},
{"zip_code":"2510861","kana_pref":"ｶﾅｶﾞﾜｹﾝ","kana_city":"ﾌｼﾞｻﾜｼ","kana_address":"ｵｵﾊﾞ","pref":"神奈川県","city":"藤沢市","address":"大庭"},
{"zip_code":"2510032","kana_pref":"ｶﾅｶﾞﾜｹﾝ","kana_city":"ﾌｼﾞｻﾜｼ","kana_address":"ｶﾀｾ","pref":"神奈川県","city":"藤沢市","address":"片瀬"},
{"zip_code":"2510035","kana_pref":"ｶﾅｶﾞﾜｹﾝ","kana_city":"ﾌｼﾞｻﾜｼ","kana_address":"ｶﾀｾｶｲｶﾞﾝ","pref":"神奈川県","city":"藤沢市","address":"片瀬海岸"},
{"zip_code":"2510034","kana_pref":"ｶﾅｶﾞﾜｹﾝ","kana_city":"ﾌｼﾞｻﾜｼ","kana_address":"ｶﾀｾﾒｼﾞﾛﾔﾏ","pref":"神奈川県","city":"藤沢市","address":"片瀬目白山"},
{"zip_code":"2510033","kana_pref":"ｶﾅｶﾞﾜｹﾝ","kana_city":"ﾌｼﾞｻﾜｼ","kana_address":"ｶﾀｾﾔﾏ","pref":"神奈川県","city":"藤沢市","address":"片瀬山"},
{"zip_code":"2510003","kana_pref":"ｶﾅｶﾞﾜｹﾝ","kana_city":"ﾌｼﾞｻﾜｼ","kana_address":"ｶﾗｻﾜ","pref":"神奈川県","city":"藤沢市","address":"柄沢"},
{"zip_code":"2510015","kana_pref":"ｶﾅｶﾞﾜｹﾝ","kana_city":"ﾌｼﾞｻﾜｼ","kana_address":"ｶﾜﾅ","pref":"神奈川県","city":"藤沢市","address":"川名"},
{"zip_code":"2510022","kana_pref":"ｶﾅｶﾞﾜｹﾝ","kana_city":"ﾌｼﾞｻﾜｼ","kana_address":"ｸｹﾞﾇﾏ","pref":"神奈川県","city":"藤沢市","address":"鵠沼"},
{"zip_code":"2510025","kana_pref":"ｶﾅｶﾞﾜｹﾝ","kana_city":"ﾌｼﾞｻﾜｼ","kana_address":"ｸｹﾞﾇﾏｲｼｶﾞﾐ","pref":"神奈川県","city":"藤沢市","address":"鵠沼石上"},
{"zip_code":"2510037","kana_pref":"ｶﾅｶﾞﾜｹﾝ","kana_city":"ﾌｼﾞｻﾜｼ","kana_address":"ｸｹﾞﾇﾏｶｲｶﾞﾝ","pref":"神奈川県","city":"藤沢市","address":"鵠沼海岸"},
{"zip_code":"2510027","kana_pref":"ｶﾅｶﾞﾜｹﾝ","kana_city":"ﾌｼﾞｻﾜｼ","kana_address":"ｸｹﾞﾇﾏｻｸﾗｶﾞｵｶ","pref":"神奈川県","city":"藤沢市","address":"鵠沼桜が岡"},
{"zip_code":"2510021","kana_pref":"ｶﾅｶﾞﾜｹﾝ","kana_city":"ﾌｼﾞｻﾜｼ","kana_address":"ｸｹﾞﾇﾏｼﾝﾒｲ","pref":"神奈川県","city":"藤沢市","address":"鵠沼神明"},
{"zip_code":"2510024","kana_pref":"ｶﾅｶﾞﾜｹﾝ","kana_city":"ﾌｼﾞｻﾜｼ","kana_address":"ｸｹﾞﾇﾏﾀﾁﾊﾞﾅ","pref":"神奈川県","city":"藤沢市","address":"鵠沼橘"},
{"zip_code":"2510023","kana_pref":"ｶﾅｶﾞﾜｹﾝ","kana_city":"ﾌｼﾞｻﾜｼ","kana_address":"ｸｹﾞﾇﾏﾊﾅｻﾞﾜﾁｮｳ","pref":"神奈川県","city":"藤沢市","address":"鵠沼花沢町"},
{"zip_code":"2510031","kana_pref":"ｶﾅｶﾞﾜｹﾝ","kana_city":"ﾌｼﾞｻﾜｼ","kana_address":"ｸｹﾞﾇﾏﾌｼﾞｶﾞﾔ","pref":"神奈川県","city":"藤沢市","address":"鵠沼藤が谷"},
{"zip_code":"2510038","kana_pref":"ｶﾅｶﾞﾜｹﾝ","kana_city":"ﾌｼﾞｻﾜｼ","kana_address":"ｸｹﾞﾇﾏﾏﾂｶﾞｵｶ","pref":"神奈川県","city":"藤沢市","address":"鵠沼松が岡"},
{"zip_code":"2510026","kana_pref":"ｶﾅｶﾞﾜｹﾝ","kana_city":"ﾌｼﾞｻﾜｼ","kana_address":"ｸｹﾞﾇﾏﾋｶﾞｼ","pref":"神奈川県","city":"藤沢市","address":"鵠沼東"},
{"zip_code":"2510013","kana_pref":"ｶﾅｶﾞﾜｹﾝ","kana_city":"ﾌｼﾞｻﾜｼ","kana_address":"ｺﾂｶ","pref":"神奈川県","city":"藤沢市","address":"小塚"},
{"zip_code":"2510057","kana_pref":"ｶﾅｶﾞﾜｹﾝ","kana_city":"ﾌｼﾞｻﾜｼ","kana_address":"ｼﾞｮｳﾅﾝ","pref":"神奈川県","city":"藤沢市","address":"城南"},
{"zip_code":"2510051","kana_pref":"ｶﾅｶﾞﾜｹﾝ","kana_city":"ﾌｼﾞｻﾜｼ","kana_address":"ｼﾗﾊﾀ","pref":"神奈川県","city":"藤沢市","address":"白旗"},
{"zip_code":"2510871","kana_pref":"ｶﾅｶﾞﾜｹﾝ","kana_city":"ﾌｼﾞｻﾜｼ","kana_address":"ｾﾞﾝｷﾞｮｳ","pref":"神奈川県","city":"藤沢市","address":"善行"},
{"zip_code":"2510876","kana_pref":"ｶﾅｶﾞﾜｹﾝ","kana_city":"ﾌｼﾞｻﾜｼ","kana_address":"ｾﾞﾝｷﾞｮｳｻﾞｶ","pref":"神奈川県","city":"藤沢市","address":"善行坂"},
{"zip_code":"2510877","kana_pref":"ｶﾅｶﾞﾜｹﾝ","kana_city":"ﾌｼﾞｻﾜｼ","kana_address":"ｾﾞﾝｷﾞｮｳﾀﾞﾝﾁ","pref":"神奈川県","city":"藤沢市","address":"善行団地"},
{"zip_code":"2510002","kana_pref":"ｶﾅｶﾞﾜｹﾝ","kana_city":"ﾌｼﾞｻﾜｼ","kana_address":"ﾀﾞｲｷﾞﾘ","pref":"神奈川県","city":"藤沢市","address":"大鋸"},
{"zip_code":"2510017","kana_pref":"ｶﾅｶﾞﾜｹﾝ","kana_city":"ﾌｼﾞｻﾜｼ","kana_address":"ﾀｶﾔ","pref":"神奈川県","city":"藤沢市","address":"高谷"},
{"zip_code":"2510872","kana_pref":"ｶﾅｶﾞﾜｹﾝ","kana_city":"ﾌｼﾞｻﾜｼ","kana_address":"ﾀﾃｲｼ","pref":"神奈川県","city":"藤沢市","address":"立石"},
{"zip_code":"2510047","kana_pref":"ｶﾅｶﾞﾜｹﾝ","kana_city":"ﾌｼﾞｻﾜｼ","kana_address":"ﾂｼﾞﾄﾞｳ","pref":"神奈川県","city":"藤沢市","address":"辻堂"},
{"zip_code":"2510041","kana_pref":"ｶﾅｶﾞﾜｹﾝ","kana_city":"ﾌｼﾞｻﾜｼ","kana_address":"ﾂｼﾞﾄﾞｳｶﾝﾀﾞｲ","pref":"神奈川県","city":"藤沢市","address":"辻堂神台"},
{"zip_code":"2510042","kana_pref":"ｶﾅｶﾞﾜｹﾝ","kana_city":"ﾌｼﾞｻﾜｼ","kana_address":"ﾂｼﾞﾄﾞｳｼﾝﾏﾁ","pref":"神奈川県","city":"藤沢市","address":"辻堂新町"},
{"zip_code":"2510044","kana_pref":"ｶﾅｶﾞﾜｹﾝ","kana_city":"ﾌｼﾞｻﾜｼ","kana_address":"ﾂｼﾞﾄﾞｳﾀｲﾍｲﾀﾞｲ","pref":"神奈川県","city":"藤沢市","address":"辻堂太平台"},
{"zip_code":"2510045","kana_pref":"ｶﾅｶﾞﾜｹﾝ","kana_city":"ﾌｼﾞｻﾜｼ","kana_address":"ﾂｼﾞﾄﾞｳﾋｶﾞｼｶｲｶﾞﾝ","pref":"神奈川県","city":"藤沢市","address":"辻堂東海岸"},
{"zip_code":"2510046","kana_pref":"ｶﾅｶﾞﾜｹﾝ","kana_city":"ﾌｼﾞｻﾜｼ","kana_address":"ﾂｼﾞﾄﾞｳﾆｼｶｲｶﾞﾝ","pref":"神奈川県","city":"藤沢市","address":"辻堂西海岸"},
{"zip_code":"2510043","kana_pref":"ｶﾅｶﾞﾜｹﾝ","kana_city":"ﾌｼﾞｻﾜｼ","kana_address":"ﾂｼﾞﾄﾞｳﾓﾄﾏﾁ","pref":"神奈川県","city":"藤沢市","address":"辻堂元町"},
{"zip_code":"2510001","kana_pref":"ｶﾅｶﾞﾜｹﾝ","kana_city":"ﾌｼﾞｻﾜｼ","kana_address":"ﾆｼﾄﾐ","pref":"神奈川県","city":"藤沢市","address":"西富"},
{"zip_code":"2510056","kana_pref":"ｶﾅｶﾞﾜｹﾝ","kana_city":"ﾌｼﾞｻﾜｼ","kana_address":"ﾊﾄﾘ","pref":"神奈川県","city":"藤沢市","address":"羽鳥"},
{"zip_code":"2510874","kana_pref":"ｶﾅｶﾞﾜｹﾝ","kana_city":"ﾌｼﾞｻﾜｼ","kana_address":"ﾊﾅﾉｷ","pref":"神奈川県","city":"藤沢市","address":"花の木"},
{"zip_code":"2510004","kana_pref":"ｶﾅｶﾞﾜｹﾝ","kana_city":"ﾌｼﾞｻﾜｼ","kana_address":"ﾌｼﾞｶﾞｵｶ","pref":"神奈川県","city":"藤沢市","address":"藤が岡"},
{"zip_code":"2510052","kana_pref":"ｶﾅｶﾞﾜｹﾝ","kana_city":"ﾌｼﾞｻﾜｼ","kana_address":"ﾌｼﾞｻﾜ","pref":"神奈川県","city":"藤沢市","address":"藤沢"},
{"zip_code":"2510028","kana_pref":"ｶﾅｶﾞﾜｹﾝ","kana_city":"ﾌｼﾞｻﾜｼ","kana_address":"ﾎﾝｸｹﾞﾇﾏ","pref":"神奈川県","city":"藤沢市","address":"本鵠沼"},
{"zip_code":"2510053","kana_pref":"ｶﾅｶﾞﾜｹﾝ","kana_city":"ﾌｼﾞｻﾜｼ","kana_address":"ﾎﾝﾁｮｳ","pref":"神奈川県","city":"藤沢市","address":"本町"},
{"zip_code":"2510875","kana_pref":"ｶﾅｶﾞﾜｹﾝ","kana_city":"ﾌｼﾞｻﾜｼ","kana_address":"ﾎﾝﾌｼﾞｻﾜ","pref":"神奈川県","city":"藤沢市","address":"本藤沢"},
{"zip_code":"2510873","kana_pref":"ｶﾅｶﾞﾜｹﾝ","kana_city":"ﾌｼﾞｻﾜｼ","kana_address":"ﾐｿﾉﾀﾞｲ","pref":"神奈川県","city":"藤沢市","address":"みその台"},
{"zip_code":"2510055","kana_pref":"ｶﾅｶﾞﾜｹﾝ","kana_city":"ﾌｼﾞｻﾜｼ","kana_address":"ﾐﾅﾐﾌｼﾞｻﾜ","pref":"神奈川県","city":"藤沢市","address":"南藤沢"},
{"zip_code":"2510014","kana_pref":"ｶﾅｶﾞﾜｹﾝ","kana_city":"ﾌｼﾞｻﾜｼ","kana_address":"ﾐﾔﾏｴ","pref":"神奈川県","city":"藤沢市","address":"宮前"},
{"zip_code":"2510016","kana_pref":"ｶﾅｶﾞﾜｹﾝ","kana_city":"ﾌｼﾞｻﾜｼ","kana_address":"ﾐﾛｸｼﾞ","pref":"神奈川県","city":"藤沢市","address":"弥勒寺"},
{"zip_code":"2510012","kana_pref":"ｶﾅｶﾞﾜｹﾝ","kana_city":"ﾌｼﾞｻﾜｼ","kana_address":"ﾑﾗｵｶﾋｶﾞｼ","pref":"神奈川県","city":"藤沢市","address":"村岡東"},
{"zip_code":"2510011","kana_pref":"ｶﾅｶﾞﾜｹﾝ","kana_city":"ﾌｼﾞｻﾜｼ","kana_address":"ﾜﾀｳﾁ","pref":"神奈川県","city":"藤沢市","address":"渡内"}]}