{"zip_code":[
{"zip_code":"2520100","kana_pref":"ｶﾅｶﾞﾜｹﾝ","kana_city":"ｻｶﾞﾐﾊﾗｼﾐﾄﾞﾘｸ","kana_address":"","pref":"神奈川県","city":"相模原市緑区","address":""},
{"zip_code":"2520141","kana_pref":"ｶﾅｶﾞﾜｹﾝ","kana_city":"ｻｶﾞﾐﾊﾗｼﾐﾄﾞﾘｸ","kana_address":"ｱｲﾊﾗ","pref":"神奈川県","city":"相模原市緑区","address":"相原"},
{"zip_code":"2520162","kana_pref":"ｶﾅｶﾞﾜｹﾝ","kana_city":"ｻｶﾞﾐﾊﾗｼﾐﾄﾞﾘｸ","kana_address":"ｱｵﾈ","pref":"神奈川県","city":"相模原市緑区","address":"青根"},
{"zip_code":"2520161","kana_pref":"ｶﾅｶﾞﾜｹﾝ","kana_city":"ｻｶﾞﾐﾊﾗｼﾐﾄﾞﾘｸ","kana_address":"ｱｵﾉﾊﾗ","pref":"神奈川県","city":"相模原市緑区","address":"青野原"},
{"zip_code":"2520156","kana_pref":"ｶﾅｶﾞﾜｹﾝ","kana_city":"ｻｶﾞﾐﾊﾗｼﾐﾄﾞﾘｸ","kana_address":"ｱｵﾔﾏ","pref":"神奈川県","city":"相模原市緑区","address":"青山"},
{"zip_code":"2520152","kana_pref":"ｶﾅｶﾞﾜｹﾝ","kana_city":"ｻｶﾞﾐﾊﾗｼﾐﾄﾞﾘｸ","kana_address":"ｵｵｲ","pref":"神奈川県","city":"相模原市緑区","address":"太井"},
{"zip_code":"2520135","kana_pref":"ｶﾅｶﾞﾜｹﾝ","kana_city":"ｻｶﾞﾐﾊﾗｼﾐﾄﾞﾘｸ","kana_address":"ｵｵｼﾏ","pref":"神奈川県","city":"相模原市緑区","address":"大島"},
{"zip_code":"2520146","kana_pref":"ｶﾅｶﾞﾜｹﾝ","kana_city":"ｻｶﾞﾐﾊﾗｼﾐﾄﾞﾘｸ","kana_address":"ｵｵﾔﾏﾁｮｳ","pref":"神奈川県","city":"相模原市緑区","address":"大山町"},
{"zip_code":"2520115","kana_pref":"ｶﾅｶﾞﾜｹﾝ","kana_city":"ｻｶﾞﾐﾊﾗｼﾐﾄﾞﾘｸ","kana_address":"ｵｸﾞﾗ","pref":"神奈川県","city":"相模原市緑区","address":"小倉"},
{"zip_code":"2520173","kana_pref":"ｶﾅｶﾞﾜｹﾝ","kana_city":"ｻｶﾞﾐﾊﾗｼﾐﾄﾞﾘｸ","kana_address":"ｵﾊﾞﾗ","pref":"神奈川県","city":"相模原市緑区","address":"小原"},
{"zip_code":"2520184","kana_pref":"ｶﾅｶﾞﾜｹﾝ","kana_city":"ｻｶﾞﾐﾊﾗｼﾐﾄﾞﾘｸ","kana_address":"ｵﾌﾞﾁ","pref":"神奈川県","city":"相模原市緑区","address":"小渕"},
{"zip_code":"2520136","kana_pref":"ｶﾅｶﾞﾜｹﾝ","kana_city":"ｻｶﾞﾐﾊﾗｼﾐﾄﾞﾘｸ","kana_address":"ｶﾐｸｻﾞﾜ","pref":"神奈川県","city":"相模原市緑区","address":"上九沢"},
{"zip_code":"2520111","kana_pref":"ｶﾅｶﾞﾜｹﾝ","kana_city":"ｻｶﾞﾐﾊﾗｼﾐﾄﾞﾘｸ","kana_address":"ｶﾜｼﾘ","pref":"神奈川県","city":"相模原市緑区","address":"川尻"},
{"zip_code":"2520105","kana_pref":"ｶﾅｶﾞﾜｹﾝ","kana_city":"ｻｶﾞﾐﾊﾗｼﾐﾄﾞﾘｸ","kana_address":"ｸﾎﾞｻﾜ","pref":"神奈川県","city":"相模原市緑区","address":"久保沢"},
{"zip_code":"2520181","kana_pref":"ｶﾅｶﾞﾜｹﾝ","kana_city":"ｻｶﾞﾐﾊﾗｼﾐﾄﾞﾘｸ","kana_address":"ｻﾉｶﾞﾜ","pref":"神奈川県","city":"相模原市緑区","address":"佐野川"},
{"zip_code":"2520182","kana_pref":"ｶﾅｶﾞﾜｹﾝ","kana_city":"ｻｶﾞﾐﾊﾗｼﾐﾄﾞﾘｸ","kana_address":"ｻﾜｲ","pref":"神奈川県","city":"相模原市緑区","address":"澤井"},
{"zip_code":"2520134","kana_pref":"ｶﾅｶﾞﾜｹﾝ","kana_city":"ｻｶﾞﾐﾊﾗｼﾐﾄﾞﾘｸ","kana_address":"ｼﾓｸｻﾞﾜ","pref":"神奈川県","city":"相模原市緑区","address":"下九沢"},
{"zip_code":"2520116","kana_pref":"ｶﾅｶﾞﾜｹﾝ","kana_city":"ｻｶﾞﾐﾊﾗｼﾐﾄﾞﾘｸ","kana_address":"ｼﾛﾔﾏ","pref":"神奈川県","city":"相模原市緑区","address":"城山"},
{"zip_code":"2520188","kana_pref":"ｶﾅｶﾞﾜｹﾝ","kana_city":"ｻｶﾞﾐﾊﾗｼﾐﾄﾞﾘｸ","kana_address":"ｽﾜﾗｼ","pref":"神奈川県","city":"相模原市緑区","address":"寸沢嵐"},
{"zip_code":"2520176","kana_pref":"ｶﾅｶﾞﾜｹﾝ","kana_city":"ｻｶﾞﾐﾊﾗｼﾐﾄﾞﾘｸ","kana_address":"ｽﾜﾗｼ","pref":"神奈川県","city":"相模原市緑区","address":"寸沢嵐"},
{"zip_code":"2520124","kana_pref":"ｶﾅｶﾞﾜｹﾝ","kana_city":"ｻｶﾞﾐﾊﾗｼﾐﾄﾞﾘｸ","kana_address":"ﾀﾅ","pref":"神奈川県","city":"相模原市緑区","address":"田名"},
{"zip_code":"2520113","kana_pref":"ｶﾅｶﾞﾜｹﾝ","kana_city":"ｻｶﾞﾐﾊﾗｼﾐﾄﾞﾘｸ","kana_address":"ﾀﾆｶﾞﾊﾗ","pref":"神奈川県","city":"相模原市緑区","address":"谷ヶ原"},
{"zip_code":"2520174","kana_pref":"ｶﾅｶﾞﾜｹﾝ","kana_city":"ｻｶﾞﾐﾊﾗｼﾐﾄﾞﾘｸ","kana_address":"ﾁｷﾞﾗ","pref":"神奈川県","city":"相模原市緑区","address":"千木良"},
{"zip_code":"2520155","kana_pref":"ｶﾅｶﾞﾜｹﾝ","kana_city":"ｻｶﾞﾐﾊﾗｼﾐﾄﾞﾘｸ","kana_address":"ﾄﾔ","pref":"神奈川県","city":"相模原市緑区","address":"鳥屋"},
{"zip_code":"2520117","kana_pref":"ｶﾅｶﾞﾜｹﾝ","kana_city":"ｻｶﾞﾐﾊﾗｼﾐﾄﾞﾘｸ","kana_address":"ﾅｶｻﾞﾜ","pref":"神奈川県","city":"相模原市緑区","address":"中沢"},
{"zip_code":"2520154","kana_pref":"ｶﾅｶﾞﾜｹﾝ","kana_city":"ｻｶﾞﾐﾊﾗｼﾐﾄﾞﾘｸ","kana_address":"ﾅｶﾞﾀｹ","pref":"神奈川県","city":"相模原市緑区","address":"長竹"},
{"zip_code":"2520157","kana_pref":"ｶﾅｶﾞﾜｹﾝ","kana_city":"ｻｶﾞﾐﾊﾗｼﾐﾄﾞﾘｸ","kana_address":"ﾅｶﾉ","pref":"神奈川県","city":"相模原市緑区","address":"中野"},
{"zip_code":"2520187","kana_pref":"ｶﾅｶﾞﾜｹﾝ","kana_city":"ｻｶﾞﾐﾊﾗｼﾐﾄﾞﾘｸ","kana_address":"ﾅｸﾞﾗ","pref":"神奈川県","city":"相模原市緑区","address":"名倉"},
{"zip_code":"2520131","kana_pref":"ｶﾅｶﾞﾜｹﾝ","kana_city":"ｻｶﾞﾐﾊﾗｼﾐﾄﾞﾘｸ","kana_address":"ﾆｼﾊｼﾓﾄ","pref":"神奈川県","city":"相模原市緑区","address":"西橋本"},
{"zip_code":"2520137","kana_pref":"ｶﾅｶﾞﾜｹﾝ","kana_city":"ｻｶﾞﾐﾊﾗｼﾐﾄﾞﾘｸ","kana_address":"ﾆﾎﾝﾏﾂ","pref":"神奈川県","city":"相模原市緑区","address":"二本松"},
{"zip_code":"2520153","kana_pref":"ｶﾅｶﾞﾜｹﾝ","kana_city":"ｻｶﾞﾐﾊﾗｼﾐﾄﾞﾘｸ","kana_address":"ﾈｺﾞﾔ","pref":"神奈川県","city":"相模原市緑区","address":"根小屋"},
{"zip_code":"2520143","kana_pref":"ｶﾅｶﾞﾜｹﾝ","kana_city":"ｻｶﾞﾐﾊﾗｼﾐﾄﾞﾘｸ","kana_address":"ﾊｼﾓﾄ","pref":"神奈川県","city":"相模原市緑区","address":"橋本"},
{"zip_code":"2520132","kana_pref":"ｶﾅｶﾞﾜｹﾝ","kana_city":"ｻｶﾞﾐﾊﾗｼﾐﾄﾞﾘｸ","kana_address":"ﾊｼﾓﾄﾀﾞｲ","pref":"神奈川県","city":"相模原市緑区","address":"橋本台"},
{"zip_code":"2520114","kana_pref":"ｶﾅｶﾞﾜｹﾝ","kana_city":"ｻｶﾞﾐﾊﾗｼﾐﾄﾞﾘｸ","kana_address":"ﾊﾔﾏｼﾞﾏ","pref":"神奈川県","city":"相模原市緑区","address":"葉山島"},
{"zip_code":"2520102","kana_pref":"ｶﾅｶﾞﾜｹﾝ","kana_city":"ｻｶﾞﾐﾊﾗｼﾐﾄﾞﾘｸ","kana_address":"ﾊﾗｼﾞｭｸ","pref":"神奈川県","city":"相模原市緑区","address":"原宿"},
{"zip_code":"2520103","kana_pref":"ｶﾅｶﾞﾜｹﾝ","kana_city":"ｻｶﾞﾐﾊﾗｼﾐﾄﾞﾘｸ","kana_address":"ﾊﾗｼﾞｭｸﾐﾅﾐ","pref":"神奈川県","city":"相模原市緑区","address":"原宿南"},
{"zip_code":"2520144","kana_pref":"ｶﾅｶﾞﾜｹﾝ","kana_city":"ｻｶﾞﾐﾊﾗｼﾐﾄﾞﾘｸ","kana_address":"ﾋｶﾞｼﾊｼﾓﾄ","pref":"神奈川県","city":"相模原市緑区","address":"東橋本"},
{"zip_code":"2520185","kana_pref":"ｶﾅｶﾞﾜｹﾝ","kana_city":"ｻｶﾞﾐﾊﾗｼﾐﾄﾞﾘｸ","kana_address":"ﾋﾂﾞﾚ","pref":"神奈川県","city":"相模原市緑区","address":"日連"},
{"zip_code":"2520106","kana_pref":"ｶﾅｶﾞﾜｹﾝ","kana_city":"ｻｶﾞﾐﾊﾗｼﾐﾄﾞﾘｸ","kana_address":"ﾋﾛﾀ","pref":"神奈川県","city":"相模原市緑区","address":"広田"},
{"zip_code":"2520186","kana_pref":"ｶﾅｶﾞﾜｹﾝ","kana_city":"ｻｶﾞﾐﾊﾗｼﾐﾄﾞﾘｸ","kana_address":"ﾏｷﾞﾉ","pref":"神奈川県","city":"相模原市緑区","address":"牧野"},
{"zip_code":"2520158","kana_pref":"ｶﾅｶﾞﾜｹﾝ","kana_city":"ｻｶﾞﾐﾊﾗｼﾐﾄﾞﾘｸ","kana_address":"ﾏﾀﾉ","pref":"神奈川県","city":"相模原市緑区","address":"又野"},
{"zip_code":"2520101","kana_pref":"ｶﾅｶﾞﾜｹﾝ","kana_city":"ｻｶﾞﾐﾊﾗｼﾐﾄﾞﾘｸ","kana_address":"ﾏﾁﾔ","pref":"神奈川県","city":"相模原市緑区","address":"町屋"},
{"zip_code":"2520151","kana_pref":"ｶﾅｶﾞﾜｹﾝ","kana_city":"ｻｶﾞﾐﾊﾗｼﾐﾄﾞﾘｸ","kana_address":"ﾐｲ","pref":"神奈川県","city":"相模原市緑区","address":"三井"},
{"zip_code":"2520159","kana_pref":"ｶﾅｶﾞﾜｹﾝ","kana_city":"ｻｶﾞﾐﾊﾗｼﾐﾄﾞﾘｸ","kana_address":"ﾐｶｹﾞ","pref":"神奈川県","city":"相模原市緑区","address":"三ケ木"},
{"zip_code":"2520104","kana_pref":"ｶﾅｶﾞﾜｹﾝ","kana_city":"ｻｶﾞﾐﾊﾗｼﾐﾄﾞﾘｸ","kana_address":"ﾑｶｲﾊﾗ","pref":"神奈川県","city":"相模原市緑区","address":"向原"},
{"zip_code":"2520142","kana_pref":"ｶﾅｶﾞﾜｹﾝ","kana_city":"ｻｶﾞﾐﾊﾗｼﾐﾄﾞﾘｸ","kana_address":"ﾓﾄﾊｼﾓﾄﾁｮｳ","pref":"神奈川県","city":"相模原市緑区","address":"元橋本町"},
{"zip_code":"2520183","kana_pref":"ｶﾅｶﾞﾜｹﾝ","kana_city":"ｻｶﾞﾐﾊﾗｼﾐﾄﾞﾘｸ","kana_address":"ﾖｼﾉ","pref":"神奈川県","city":"相模原市緑区","address":"吉野"},
{"zip_code":"2520171","kana_pref":"ｶﾅｶﾞﾜｹﾝ","kana_city":"ｻｶﾞﾐﾊﾗｼﾐﾄﾞﾘｸ","kana_address":"ﾖｾ","pref":"神奈川県","city":"相模原市緑区","address":"与瀬"},
{"zip_code":"2520172","kana_pref":"ｶﾅｶﾞﾜｹﾝ","kana_city":"ｻｶﾞﾐﾊﾗｼﾐﾄﾞﾘｸ","kana_address":"ﾖｾﾎﾝﾁｮｳ","pref":"神奈川県","city":"相模原市緑区","address":"与瀬本町"},
{"zip_code":"2520112","kana_pref":"ｶﾅｶﾞﾜｹﾝ","kana_city":"ｻｶﾞﾐﾊﾗｼﾐﾄﾞﾘｸ","kana_address":"ﾜｶﾊﾞﾀﾞｲ","pref":"神奈川県","city":"相模原市緑区","address":"若葉台"},
{"zip_code":"2520175","kana_pref":"ｶﾅｶﾞﾜｹﾝ","kana_city":"ｻｶﾞﾐﾊﾗｼﾐﾄﾞﾘｸ","kana_address":"ﾜｶﾔﾅｷﾞ","pref":"神奈川県","city":"相模原市緑区","address":"若柳"},
{"zip_code":"2520200","kana_pref":"ｶﾅｶﾞﾜｹﾝ","kana_city":"ｻｶﾞﾐﾊﾗｼﾁｭｳｵｳｸ","kana_address":"","pref":"神奈川県","city":"相模原市中央区","address":""},
{"zip_code":"2520235","kana_pref":"ｶﾅｶﾞﾜｹﾝ","kana_city":"ｻｶﾞﾐﾊﾗｼﾁｭｳｵｳｸ","kana_address":"ｱｲｵｲ","pref":"神奈川県","city":"相模原市中央区","address":"相生"},
{"zip_code":"2520224","kana_pref":"ｶﾅｶﾞﾜｹﾝ","kana_city":"ｻｶﾞﾐﾊﾗｼﾁｭｳｵｳｸ","kana_address":"ｱｵﾊﾞ","pref":"神奈川県","city":"相模原市中央区","address":"青葉"},
{"zip_code":"2520251","kana_pref":"ｶﾅｶﾞﾜｹﾝ","kana_city":"ｻｶﾞﾐﾊﾗｼﾁｭｳｵｳｸ","kana_address":"ｵｵﾉﾀﾞｲ","pref":"神奈川県","city":"相模原市中央区","address":"大野台"},
{"zip_code":"2520205","kana_pref":"ｶﾅｶﾞﾜｹﾝ","kana_city":"ｻｶﾞﾐﾊﾗｼﾁｭｳｵｳｸ","kana_address":"ｵﾔﾏ","pref":"神奈川県","city":"相模原市中央区","address":"小山"},
{"zip_code":"2520233","kana_pref":"ｶﾅｶﾞﾜｹﾝ","kana_city":"ｻｶﾞﾐﾊﾗｼﾁｭｳｵｳｸ","kana_address":"ｶﾇﾏﾀﾞｲ","pref":"神奈川県","city":"相模原市中央区","address":"鹿沼台"},
{"zip_code":"2520243","kana_pref":"ｶﾅｶﾞﾜｹﾝ","kana_city":"ｻｶﾞﾐﾊﾗｼﾁｭｳｵｳｸ","kana_address":"ｶﾐﾐｿﾞ","pref":"神奈川県","city":"相模原市中央区","address":"上溝"},
{"zip_code":"2520201","kana_pref":"ｶﾅｶﾞﾜｹﾝ","kana_city":"ｻｶﾞﾐﾊﾗｼﾁｭｳｵｳｸ","kana_address":"ｶﾐﾔﾍﾞ","pref":"神奈川県","city":"相模原市中央区","address":"上矢部"},
{"zip_code":"2520234","kana_pref":"ｶﾅｶﾞﾜｹﾝ","kana_city":"ｻｶﾞﾐﾊﾗｼﾁｭｳｵｳｸ","kana_address":"ｷｮｳﾜ","pref":"神奈川県","city":"相模原市中央区","address":"共和"},
{"zip_code":"2520214","kana_pref":"ｶﾅｶﾞﾜｹﾝ","kana_city":"ｻｶﾞﾐﾊﾗｼﾁｭｳｵｳｸ","kana_address":"ｺｳﾖｳﾁｮｳ","pref":"神奈川県","city":"相模原市中央区","address":"向陽町"},
{"zip_code":"2520217","kana_pref":"ｶﾅｶﾞﾜｹﾝ","kana_city":"ｻｶﾞﾐﾊﾗｼﾁｭｳｵｳｸ","kana_address":"ｺﾏﾁﾄﾞｵﾘ","pref":"神奈川県","city":"相模原市中央区","address":"小町通"},
{"zip_code":"2520231","kana_pref":"ｶﾅｶﾞﾜｹﾝ","kana_city":"ｻｶﾞﾐﾊﾗｼﾁｭｳｵｳｸ","kana_address":"ｻｶﾞﾐﾊﾗ","pref":"神奈川県","city":"相模原市中央区","address":"相模原"},
{"zip_code":"2520254","kana_pref":"ｶﾅｶﾞﾜｹﾝ","kana_city":"ｻｶﾞﾐﾊﾗｼﾁｭｳｵｳｸ","kana_address":"ｼﾓｸｻﾞﾜ","pref":"神奈川県","city":"相模原市中央区","address":"下九沢"},
{"zip_code":"2520246","kana_pref":"ｶﾅｶﾞﾜｹﾝ","kana_city":"ｻｶﾞﾐﾊﾗｼﾁｭｳｵｳｸ","kana_address":"ｽｲｺﾞｳﾀﾅ","pref":"神奈川県","city":"相模原市中央区","address":"水郷田名"},
{"zip_code":"2520213","kana_pref":"ｶﾅｶﾞﾜｹﾝ","kana_city":"ｻｶﾞﾐﾊﾗｼﾁｭｳｵｳｸ","kana_address":"ｽｽｷﾉﾁｮｳ","pref":"神奈川県","city":"相模原市中央区","address":"すすきの町"},
{"zip_code":"2520216","kana_pref":"ｶﾅｶﾞﾜｹﾝ","kana_city":"ｻｶﾞﾐﾊﾗｼﾁｭｳｵｳｸ","kana_address":"ｾｲｼﾝ","pref":"神奈川県","city":"相模原市中央区","address":"清新"},
{"zip_code":"2520221","kana_pref":"ｶﾅｶﾞﾜｹﾝ","kana_city":"ｻｶﾞﾐﾊﾗｼﾁｭｳｵｳｸ","kana_address":"ﾀｶﾈ","pref":"神奈川県","city":"相模原市中央区","address":"高根"},
{"zip_code":"2520244","kana_pref":"ｶﾅｶﾞﾜｹﾝ","kana_city":"ｻｶﾞﾐﾊﾗｼﾁｭｳｵｳｸ","kana_address":"ﾀﾅ","pref":"神奈川県","city":"相模原市中央区","address":"田名"},
{"zip_code":"2520245","kana_pref":"ｶﾅｶﾞﾜｹﾝ","kana_city":"ｻｶﾞﾐﾊﾗｼﾁｭｳｵｳｸ","kana_address":"ﾀﾅｼｵﾀﾞ","pref":"神奈川県","city":"相模原市中央区","address":"田名塩田"},
{"zip_code":"2520239","kana_pref":"ｶﾅｶﾞﾜｹﾝ","kana_city":"ｻｶﾞﾐﾊﾗｼﾁｭｳｵｳｸ","kana_address":"ﾁｭｳｵｳ","pref":"神奈川県","city":"相模原市中央区","address":"中央"},
{"zip_code":"2520237","kana_pref":"ｶﾅｶﾞﾜｹﾝ","kana_city":"ｻｶﾞﾐﾊﾗｼﾁｭｳｵｳｸ","kana_address":"ﾁﾖﾀﾞ","pref":"神奈川県","city":"相模原市中央区","address":"千代田"},
{"zip_code":"2520228","kana_pref":"ｶﾅｶﾞﾜｹﾝ","kana_city":"ｻｶﾞﾐﾊﾗｼﾁｭｳｵｳｸ","kana_address":"ﾅﾐｷ","pref":"神奈川県","city":"相模原市中央区","address":"並木"},
{"zip_code":"2520203","kana_pref":"ｶﾅｶﾞﾜｹﾝ","kana_city":"ｻｶﾞﾐﾊﾗｼﾁｭｳｵｳｸ","kana_address":"ﾋｶﾞｼﾌﾁﾉﾍﾞ","pref":"神奈川県","city":"相模原市中央区","address":"東淵野辺"},
{"zip_code":"2520227","kana_pref":"ｶﾅｶﾞﾜｹﾝ","kana_city":"ｻｶﾞﾐﾊﾗｼﾁｭｳｵｳｸ","kana_address":"ﾋｶﾘｶﾞｵｶ","pref":"神奈川県","city":"相模原市中央区","address":"光が丘"},
{"zip_code":"2520215","kana_pref":"ｶﾅｶﾞﾜｹﾝ","kana_city":"ｻｶﾞﾐﾊﾗｼﾁｭｳｵｳｸ","kana_address":"ﾋｶﾜﾁｮｳ","pref":"神奈川県","city":"相模原市中央区","address":"氷川町"},
{"zip_code":"2520236","kana_pref":"ｶﾅｶﾞﾜｹﾝ","kana_city":"ｻｶﾞﾐﾊﾗｼﾁｭｳｵｳｸ","kana_address":"ﾌｼﾞﾐ","pref":"神奈川県","city":"相模原市中央区","address":"富士見"},
{"zip_code":"2520206","kana_pref":"ｶﾅｶﾞﾜｹﾝ","kana_city":"ｻｶﾞﾐﾊﾗｼﾁｭｳｵｳｸ","kana_address":"ﾌﾁﾉﾍﾞ","pref":"神奈川県","city":"相模原市中央区","address":"淵野辺"},
{"zip_code":"2520202","kana_pref":"ｶﾅｶﾞﾜｹﾝ","kana_city":"ｻｶﾞﾐﾊﾗｼﾁｭｳｵｳｸ","kana_address":"ﾌﾁﾉﾍﾞﾎﾝﾁｮｳ","pref":"神奈川県","city":"相模原市中央区","address":"淵野辺本町"},
{"zip_code":"2520238","kana_pref":"ｶﾅｶﾞﾜｹﾝ","kana_city":"ｻｶﾞﾐﾊﾗｼﾁｭｳｵｳｸ","kana_address":"ﾎｼｶﾞｵｶ","pref":"神奈川県","city":"相模原市中央区","address":"星が丘"},
{"zip_code":"2520223","kana_pref":"ｶﾅｶﾞﾜｹﾝ","kana_city":"ｻｶﾞﾐﾊﾗｼﾁｭｳｵｳｸ","kana_address":"ﾏﾂｶﾞｵｶ","pref":"神奈川県","city":"相模原市中央区","address":"松が丘"},
{"zip_code":"2520225","kana_pref":"ｶﾅｶﾞﾜｹﾝ","kana_city":"ｻｶﾞﾐﾊﾗｼﾁｭｳｵｳｸ","kana_address":"ﾐﾄﾞﾘｶﾞｵｶ","pref":"神奈川県","city":"相模原市中央区","address":"緑が丘"},
{"zip_code":"2520253","kana_pref":"ｶﾅｶﾞﾜｹﾝ","kana_city":"ｻｶﾞﾐﾊﾗｼﾁｭｳｵｳｸ","kana_address":"ﾐﾅﾐﾊｼﾓﾄ","pref":"神奈川県","city":"相模原市中央区","address":"南橋本"},
{"zip_code":"2520212","kana_pref":"ｶﾅｶﾞﾜｹﾝ","kana_city":"ｻｶﾞﾐﾊﾗｼﾁｭｳｵｳｸ","kana_address":"ﾐﾔｼﾓ","pref":"神奈川県","city":"相模原市中央区","address":"宮下"},
{"zip_code":"2520211","kana_pref":"ｶﾅｶﾞﾜｹﾝ","kana_city":"ｻｶﾞﾐﾊﾗｼﾁｭｳｵｳｸ","kana_address":"ﾐﾔｼﾓﾎﾝﾁｮｳ","pref":"神奈川県","city":"相模原市中央区","address":"宮下本町"},
{"zip_code":"2520229","kana_pref":"ｶﾅｶﾞﾜｹﾝ","kana_city":"ｻｶﾞﾐﾊﾗｼﾁｭｳｵｳｸ","kana_address":"ﾔｴｲ","pref":"神奈川県","city":"相模原市中央区","address":"弥栄"},
{"zip_code":"2520232","kana_pref":"ｶﾅｶﾞﾜｹﾝ","kana_city":"ｻｶﾞﾐﾊﾗｼﾁｭｳｵｳｸ","kana_address":"ﾔﾍﾞ","pref":"神奈川県","city":"相模原市中央区","address":"矢部"},
{"zip_code":"2520207","kana_pref":"ｶﾅｶﾞﾜｹﾝ","kana_city":"ｻｶﾞﾐﾊﾗｼﾁｭｳｵｳｸ","kana_address":"ﾔﾍﾞｼﾝﾁｮｳ","pref":"神奈川県","city":"相模原市中央区","address":"矢部新町"},
{"zip_code":"2520208","kana_pref":"ｶﾅｶﾞﾜｹﾝ","kana_city":"ｻｶﾞﾐﾊﾗｼﾁｭｳｵｳｸ","kana_address":"ﾔﾍﾞｼﾝﾃﾞﾝ","pref":"神奈川県","city":"相模原市中央区","address":"矢部新田"},
{"zip_code":"2520226","kana_pref":"ｶﾅｶﾞﾜｹﾝ","kana_city":"ｻｶﾞﾐﾊﾗｼﾁｭｳｵｳｸ","kana_address":"ﾖｳｺｳﾀﾞｲ","pref":"神奈川県","city":"相模原市中央区","address":"陽光台"},
{"zip_code":"2520242","kana_pref":"ｶﾅｶﾞﾜｹﾝ","kana_city":"ｻｶﾞﾐﾊﾗｼﾁｭｳｵｳｸ","kana_address":"ﾖｺﾔﾏ","pref":"神奈川県","city":"相模原市中央区","address":"横山"},
{"zip_code":"2520241","kana_pref":"ｶﾅｶﾞﾜｹﾝ","kana_city":"ｻｶﾞﾐﾊﾗｼﾁｭｳｵｳｸ","kana_address":"ﾖｺﾔﾏﾀﾞｲ","pref":"神奈川県","city":"相模原市中央区","address":"横山台"},
{"zip_code":"2520222","kana_pref":"ｶﾅｶﾞﾜｹﾝ","kana_city":"ｻｶﾞﾐﾊﾗｼﾁｭｳｵｳｸ","kana_address":"ﾖｼﾉﾀﾞｲ","pref":"神奈川県","city":"相模原市中央区","address":"由野台"},
{"zip_code":"2520300","kana_pref":"ｶﾅｶﾞﾜｹﾝ","kana_city":"ｻｶﾞﾐﾊﾗｼﾐﾅﾐｸ","kana_address":"","pref":"神奈川県","city":"相模原市南区","address":""},
{"zip_code":"2520304","kana_pref":"ｶﾅｶﾞﾜｹﾝ","kana_city":"ｻｶﾞﾐﾊﾗｼﾐﾅﾐｸ","kana_address":"ｱｻﾋﾁｮｳ","pref":"神奈川県","city":"相模原市南区","address":"旭町"},
{"zip_code":"2520328","kana_pref":"ｶﾅｶﾞﾜｹﾝ","kana_city":"ｻｶﾞﾐﾊﾗｼﾐﾅﾐｸ","kana_address":"ｱｻﾐｿﾞﾀﾞｲ","pref":"神奈川県","city":"相模原市南区","address":"麻溝台"},
{"zip_code":"2520325","kana_pref":"ｶﾅｶﾞﾜｹﾝ","kana_city":"ｻｶﾞﾐﾊﾗｼﾐﾅﾐｸ","kana_address":"ｱﾗｲｿﾉ","pref":"神奈川県","city":"相模原市南区","address":"新磯野"},
{"zip_code":"2520327","kana_pref":"ｶﾅｶﾞﾜｹﾝ","kana_city":"ｻｶﾞﾐﾊﾗｼﾐﾅﾐｸ","kana_address":"ｲｿﾍﾞ","pref":"神奈川県","city":"相模原市南区","address":"磯部"},
{"zip_code":"2520301","kana_pref":"ｶﾅｶﾞﾜｹﾝ","kana_city":"ｻｶﾞﾐﾊﾗｼﾐﾅﾐｸ","kana_address":"ｳﾉﾓﾘ","pref":"神奈川県","city":"相模原市南区","address":"鵜野森"},
{"zip_code":"2520331","kana_pref":"ｶﾅｶﾞﾜｹﾝ","kana_city":"ｻｶﾞﾐﾊﾗｼﾐﾅﾐｸ","kana_address":"ｵｵﾉﾀﾞｲ","pref":"神奈川県","city":"相模原市南区","address":"大野台"},
{"zip_code":"2520302","kana_pref":"ｶﾅｶﾞﾜｹﾝ","kana_city":"ｻｶﾞﾐﾊﾗｼﾐﾅﾐｸ","kana_address":"ｶﾐﾂﾙﾏ","pref":"神奈川県","city":"相模原市南区","address":"上鶴間"},
{"zip_code":"2520318","kana_pref":"ｶﾅｶﾞﾜｹﾝ","kana_city":"ｻｶﾞﾐﾊﾗｼﾐﾅﾐｸ","kana_address":"ｶﾐﾂﾙﾏﾎﾝﾁｮｳ","pref":"神奈川県","city":"相模原市南区","address":"上鶴間本町"},
{"zip_code":"2520329","kana_pref":"ｶﾅｶﾞﾜｹﾝ","kana_city":"ｻｶﾞﾐﾊﾗｼﾐﾅﾐｸ","kana_address":"ｷﾀｻﾞﾄ","pref":"神奈川県","city":"相模原市南区","address":"北里"},
{"zip_code":"2520344","kana_pref":"ｶﾅｶﾞﾜｹﾝ","kana_city":"ｻｶﾞﾐﾊﾗｼﾐﾅﾐｸ","kana_address":"ｺﾌﾞﾁ","pref":"神奈川県","city":"相模原市南区","address":"古淵"},
{"zip_code":"2520306","kana_pref":"ｶﾅｶﾞﾜｹﾝ","kana_city":"ｻｶﾞﾐﾊﾗｼﾐﾅﾐｸ","kana_address":"ｻｶｴﾁｮｳ","pref":"神奈川県","city":"相模原市南区","address":"栄町"},
{"zip_code":"2520303","kana_pref":"ｶﾅｶﾞﾜｹﾝ","kana_city":"ｻｶﾞﾐﾊﾗｼﾐﾅﾐｸ","kana_address":"ｻｶﾞﾐｵｵﾉ","pref":"神奈川県","city":"相模原市南区","address":"相模大野"},
{"zip_code":"2520321","kana_pref":"ｶﾅｶﾞﾜｹﾝ","kana_city":"ｻｶﾞﾐﾊﾗｼﾐﾅﾐｸ","kana_address":"ｻｶﾞﾐﾀﾞｲ","pref":"神奈川県","city":"相模原市南区","address":"相模台"},
{"zip_code":"2520322","kana_pref":"ｶﾅｶﾞﾜｹﾝ","kana_city":"ｻｶﾞﾐﾊﾗｼﾐﾅﾐｸ","kana_address":"ｻｶﾞﾐﾀﾞｲﾀﾞﾝﾁ","pref":"神奈川県","city":"相模原市南区","address":"相模台団地"},
{"zip_code":"2520315","kana_pref":"ｶﾅｶﾞﾜｹﾝ","kana_city":"ｻｶﾞﾐﾊﾗｼﾐﾅﾐｸ","kana_address":"ｻｸﾗﾀﾞｲ","pref":"神奈川県","city":"相模原市南区","address":"桜台"},
{"zip_code":"2520335","kana_pref":"ｶﾅｶﾞﾜｹﾝ","kana_city":"ｻｶﾞﾐﾊﾗｼﾐﾅﾐｸ","kana_address":"ｼﾓﾐｿﾞ","pref":"神奈川県","city":"相模原市南区","address":"下溝"},
{"zip_code":"2520326","kana_pref":"ｶﾅｶﾞﾜｹﾝ","kana_city":"ｻｶﾞﾐﾊﾗｼﾐﾅﾐｸ","kana_address":"ｼﾝﾄﾞ","pref":"神奈川県","city":"相模原市南区","address":"新戸"},
{"zip_code":"2520312","kana_pref":"ｶﾅｶﾞﾜｹﾝ","kana_city":"ｻｶﾞﾐﾊﾗｼﾐﾅﾐｸ","kana_address":"ｿｳﾅﾝ","pref":"神奈川県","city":"相模原市南区","address":"相南"},
{"zip_code":"2520324","kana_pref":"ｶﾅｶﾞﾜｹﾝ","kana_city":"ｻｶﾞﾐﾊﾗｼﾐﾅﾐｸ","kana_address":"ｿｳﾌﾞﾀﾞｲ","pref":"神奈川県","city":"相模原市南区","address":"相武台"},
{"zip_code":"2520323","kana_pref":"ｶﾅｶﾞﾜｹﾝ","kana_city":"ｻｶﾞﾐﾊﾗｼﾐﾅﾐｸ","kana_address":"ｿｳﾌﾞﾀﾞｲﾀﾞﾝﾁ","pref":"神奈川県","city":"相模原市南区","address":"相武台団地"},
{"zip_code":"2520336","kana_pref":"ｶﾅｶﾞﾜｹﾝ","kana_city":"ｻｶﾞﾐﾊﾗｼﾐﾅﾐｸ","kana_address":"ﾀｲﾏ","pref":"神奈川県","city":"相模原市南区","address":"当麻"},
{"zip_code":"2520332","kana_pref":"ｶﾅｶﾞﾜｹﾝ","kana_city":"ｻｶﾞﾐﾊﾗｼﾐﾅﾐｸ","kana_address":"ﾆｼｵｵﾇﾏ","pref":"神奈川県","city":"相模原市南区","address":"西大沼"},
{"zip_code":"2520333","kana_pref":"ｶﾅｶﾞﾜｹﾝ","kana_city":"ｻｶﾞﾐﾊﾗｼﾐﾅﾐｸ","kana_address":"ﾋｶﾞｼｵｵﾇﾏ","pref":"神奈川県","city":"相模原市南区","address":"東大沼"},
{"zip_code":"2520311","kana_pref":"ｶﾅｶﾞﾜｹﾝ","kana_city":"ｻｶﾞﾐﾊﾗｼﾐﾅﾐｸ","kana_address":"ﾋｶﾞｼﾘﾝｶﾝ","pref":"神奈川県","city":"相模原市南区","address":"東林間"},
{"zip_code":"2520316","kana_pref":"ｶﾅｶﾞﾜｹﾝ","kana_city":"ｻｶﾞﾐﾊﾗｼﾐﾅﾐｸ","kana_address":"ﾌﾀﾊﾞ","pref":"神奈川県","city":"相模原市南区","address":"双葉"},
{"zip_code":"2520307","kana_pref":"ｶﾅｶﾞﾜｹﾝ","kana_city":"ｻｶﾞﾐﾊﾗｼﾐﾅﾐｸ","kana_address":"ﾌﾞﾝｷｮｳ","pref":"神奈川県","city":"相模原市南区","address":"文京"},
{"zip_code":"2520313","kana_pref":"ｶﾅｶﾞﾜｹﾝ","kana_city":"ｻｶﾞﾐﾊﾗｼﾐﾅﾐｸ","kana_address":"ﾏﾂｶﾞｴﾁｮｳ","pref":"神奈川県","city":"相模原市南区","address":"松が枝町"},
{"zip_code":"2520317","kana_pref":"ｶﾅｶﾞﾜｹﾝ","kana_city":"ｻｶﾞﾐﾊﾗｼﾐﾅﾐｸ","kana_address":"ﾐｿﾉ","pref":"神奈川県","city":"相模原市南区","address":"御園"},
{"zip_code":"2520314","kana_pref":"ｶﾅｶﾞﾜｹﾝ","kana_city":"ｻｶﾞﾐﾊﾗｼﾐﾅﾐｸ","kana_address":"ﾐﾅﾐﾀﾞｲ","pref":"神奈川県","city":"相模原市南区","address":"南台"},
{"zip_code":"2520305","kana_pref":"ｶﾅｶﾞﾜｹﾝ","kana_city":"ｻｶﾞﾐﾊﾗｼﾐﾅﾐｸ","kana_address":"ﾕﾀｶﾁｮｳ","pref":"神奈川県","city":"相模原市南区","address":"豊町"},
{"zip_code":"2520334","kana_pref":"ｶﾅｶﾞﾜｹﾝ","kana_city":"ｻｶﾞﾐﾊﾗｼﾐﾅﾐｸ","kana_address":"ﾜｶﾏﾂ","pref":"神奈川県","city":"相模原市南区","address":"若松"},
{"zip_code":"2520815","kana_pref":"ｶﾅｶﾞﾜｹﾝ","kana_city":"ﾌｼﾞｻﾜｼ","kana_address":"ｲｼｶﾜ","pref":"神奈川県","city":"藤沢市","address":"石川"},
{"zip_code":"2520803","kana_pref":"ｶﾅｶﾞﾜｹﾝ","kana_city":"ﾌｼﾞｻﾜｼ","kana_address":"ｲﾏﾀﾞ","pref":"神奈川県","city":"藤沢市","address":"今田"},
{"zip_code":"2520824","kana_pref":"ｶﾅｶﾞﾜｹﾝ","kana_city":"ﾌｼﾞｻﾜｼ","kana_address":"ｳﾁﾓﾄﾞﾘ","pref":"神奈川県","city":"藤沢市","address":"打戻"},
{"zip_code":"2520805","kana_pref":"ｶﾅｶﾞﾜｹﾝ","kana_city":"ﾌｼﾞｻﾜｼ","kana_address":"ｴﾝｷﾞｮｳ","pref":"神奈川県","city":"藤沢市","address":"円行"},
{"zip_code":"2520816","kana_pref":"ｶﾅｶﾞﾜｹﾝ","kana_city":"ﾌｼﾞｻﾜｼ","kana_address":"ｴﾝﾄﾞｳ","pref":"神奈川県","city":"藤沢市","address":"遠藤"},
{"zip_code":"2520825","kana_pref":"ｶﾅｶﾞﾜｹﾝ","kana_city":"ﾌｼﾞｻﾜｼ","kana_address":"ｵｿｺﾞｳ","pref":"神奈川県","city":"藤沢市","address":"獺郷"},
{"zip_code":"2520813","kana_pref":"ｶﾅｶﾞﾜｹﾝ","kana_city":"ﾌｼﾞｻﾜｼ","kana_address":"ｶﾒｲﾉ","pref":"神奈川県","city":"藤沢市","address":"亀井野"},
{"zip_code":"2520811","kana_pref":"ｶﾅｶﾞﾜｹﾝ","kana_city":"ﾌｼﾞｻﾜｼ","kana_address":"ｷﾘﾊﾗﾁｮｳ","pref":"神奈川県","city":"藤沢市","address":"桐原町"},
{"zip_code":"2520822","kana_pref":"ｶﾅｶﾞﾜｹﾝ","kana_city":"ﾌｼﾞｻﾜｼ","kana_address":"ｸｽﾞﾊﾗ","pref":"神奈川県","city":"藤沢市","address":"葛原"},
{"zip_code":"2520807","kana_pref":"ｶﾅｶﾞﾜｹﾝ","kana_city":"ﾌｼﾞｻﾜｼ","kana_address":"ｼﾓﾂﾁﾀﾞﾅ","pref":"神奈川県","city":"藤沢市","address":"下土棚"},
{"zip_code":"2520804","kana_pref":"ｶﾅｶﾞﾜｹﾝ","kana_city":"ﾌｼﾞｻﾜｼ","kana_address":"ｼｮｳﾅﾝﾀﾞｲ","pref":"神奈川県","city":"藤沢市","address":"湘南台"},
{"zip_code":"2520823","kana_pref":"ｶﾅｶﾞﾜｹﾝ","kana_city":"ﾌｼﾞｻﾜｼ","kana_address":"ｼｮｳﾌﾞｻﾜ","pref":"神奈川県","city":"藤沢市","address":"菖蒲沢"},
{"zip_code":"2520802","kana_pref":"ｶﾅｶﾞﾜｹﾝ","kana_city":"ﾌｼﾞｻﾜｼ","kana_address":"ﾀｶｸﾗ","pref":"神奈川県","city":"藤沢市","address":"高倉"},
{"zip_code":"2520801","kana_pref":"ｶﾅｶﾞﾜｹﾝ","kana_city":"ﾌｼﾞｻﾜｼ","kana_address":"ﾁｮｳｺﾞ","pref":"神奈川県","city":"藤沢市","address":"長後"},
{"zip_code":"2520806","kana_pref":"ｶﾅｶﾞﾜｹﾝ","kana_city":"ﾌｼﾞｻﾜｼ","kana_address":"ﾂﾁﾀﾞﾅ","pref":"神奈川県","city":"藤沢市","address":"土棚"},
{"zip_code":"2520814","kana_pref":"ｶﾅｶﾞﾜｹﾝ","kana_city":"ﾌｼﾞｻﾜｼ","kana_address":"ﾃﾝｼﾞﾝﾁｮｳ","pref":"神奈川県","city":"藤沢市","address":"天神町"},
{"zip_code":"2520812","kana_pref":"ｶﾅｶﾞﾜｹﾝ","kana_city":"ﾌｼﾞｻﾜｼ","kana_address":"ﾆｼﾏﾀﾉ","pref":"神奈川県","city":"藤沢市","address":"西俣野"},
{"zip_code":"2520826","kana_pref":"ｶﾅｶﾞﾜｹﾝ","kana_city":"ﾌｼﾞｻﾜｼ","kana_address":"ﾐﾔﾊﾞﾗ","pref":"神奈川県","city":"藤沢市","address":"宮原"},
{"zip_code":"2520821","kana_pref":"ｶﾅｶﾞﾜｹﾝ","kana_city":"ﾌｼﾞｻﾜｼ","kana_address":"ﾖｳﾀﾞ","pref":"神奈川県","city":"藤沢市","address":"用田"},
{"zip_code":"2520000","kana_pref":"ｶﾅｶﾞﾜｹﾝ","kana_city":"ｻﾞﾏｼ","kana_address":"","pref":"神奈川県","city":"座間市","address":""},
{"zip_code":"2520024","kana_pref":"ｶﾅｶﾞﾜｹﾝ","kana_city":"ｻﾞﾏｼ","kana_address":"ｲﾘﾔ","pref":"神奈川県","city":"座間市","address":"入谷"},
{"zip_code":"2520013","kana_pref":"ｶﾅｶﾞﾜｹﾝ","kana_city":"ｻﾞﾏｼ","kana_address":"ｸﾘﾊﾗ","pref":"神奈川県","city":"座間市","address":"栗原"},
{"zip_code":"2520014","kana_pref":"ｶﾅｶﾞﾜｹﾝ","kana_city":"ｻﾞﾏｼ","kana_address":"ｸﾘﾊﾗﾁｭｳｵｳ","pref":"神奈川県","city":"座間市","address":"栗原中央"},
{"zip_code":"2520002","kana_pref":"ｶﾅｶﾞﾜｹﾝ","kana_city":"ｻﾞﾏｼ","kana_address":"ｺﾏﾂﾊﾞﾗ","pref":"神奈川県","city":"座間市","address":"小松原"},
{"zip_code":"2520001","kana_pref":"ｶﾅｶﾞﾜｹﾝ","kana_city":"ｻﾞﾏｼ","kana_address":"ｻｶﾞﾐｶﾞｵｶ","pref":"神奈川県","city":"座間市","address":"相模が丘"},
{"zip_code":"2520005","kana_pref":"ｶﾅｶﾞﾜｹﾝ","kana_city":"ｻﾞﾏｼ","kana_address":"ｻｶﾞﾐﾉ","pref":"神奈川県","city":"座間市","address":"さがみ野"},
{"zip_code":"2520027","kana_pref":"ｶﾅｶﾞﾜｹﾝ","kana_city":"ｻﾞﾏｼ","kana_address":"ｻﾞﾏ","pref":"神奈川県","city":"座間市","address":"座間"},
{"zip_code":"2520026","kana_pref":"ｶﾅｶﾞﾜｹﾝ","kana_city":"ｻﾞﾏｼ","kana_address":"ｼﾝﾃﾞﾝｼﾞｭｸ","pref":"神奈川県","city":"座間市","address":"新田宿"},
{"zip_code":"2520011","kana_pref":"ｶﾅｶﾞﾜｹﾝ","kana_city":"ｻﾞﾏｼ","kana_address":"ｿｳﾌﾞﾀﾞｲ","pref":"神奈川県","city":"座間市","address":"相武台"},
{"zip_code":"2520023","kana_pref":"ｶﾅｶﾞﾜｹﾝ","kana_city":"ｻﾞﾏｼ","kana_address":"ﾀﾂﾉﾀﾞｲ","pref":"神奈川県","city":"座間市","address":"立野台"},
{"zip_code":"2520016","kana_pref":"ｶﾅｶﾞﾜｹﾝ","kana_city":"ｻﾞﾏｼ","kana_address":"ﾆｼｸﾘﾊﾗ","pref":"神奈川県","city":"座間市","address":"西栗原"},
{"zip_code":"2520004","kana_pref":"ｶﾅｶﾞﾜｹﾝ","kana_city":"ｻﾞﾏｼ","kana_address":"ﾋｶﾞｼﾊﾗ","pref":"神奈川県","city":"座間市","address":"東原"},
{"zip_code":"2520003","kana_pref":"ｶﾅｶﾞﾜｹﾝ","kana_city":"ｻﾞﾏｼ","kana_address":"ﾋﾊﾞﾘｶﾞｵｶ","pref":"神奈川県","city":"座間市","address":"ひばりが丘"},
{"zip_code":"2520012","kana_pref":"ｶﾅｶﾞﾜｹﾝ","kana_city":"ｻﾞﾏｼ","kana_address":"ﾋﾛﾉﾀﾞｲ","pref":"神奈川県","city":"座間市","address":"広野台"},
{"zip_code":"2520021","kana_pref":"ｶﾅｶﾞﾜｹﾝ","kana_city":"ｻﾞﾏｼ","kana_address":"ﾐﾄﾞﾘｶﾞｵｶ","pref":"神奈川県","city":"座間市","address":"緑ケ丘"},
{"zip_code":"2520015","kana_pref":"ｶﾅｶﾞﾜｹﾝ","kana_city":"ｻﾞﾏｼ","kana_address":"ﾐﾅﾐｸﾘﾊﾗ","pref":"神奈川県","city":"座間市","address":"南栗原"},
{"zip_code":"2520022","kana_pref":"ｶﾅｶﾞﾜｹﾝ","kana_city":"ｻﾞﾏｼ","kana_address":"ﾐｮｳｵｳ","pref":"神奈川県","city":"座間市","address":"明王"},
{"zip_code":"2520025","kana_pref":"ｶﾅｶﾞﾜｹﾝ","kana_city":"ｻﾞﾏｼ","kana_address":"ﾖﾂﾔ","pref":"神奈川県","city":"座間市","address":"四ツ谷"},
{"zip_code":"2521100","kana_pref":"ｶﾅｶﾞﾜｹﾝ","kana_city":"ｱﾔｾｼ","kana_address":"","pref":"神奈川県","city":"綾瀬市","address":""},
{"zip_code":"2521101","kana_pref":"ｶﾅｶﾞﾜｹﾝ","kana_city":"ｱﾔｾｼ","kana_address":"ｱﾂｷﾞｺｳｸｳｷﾁ","pref":"神奈川県","city":"綾瀬市","address":"厚木航空基地"},
{"zip_code":"2521104","kana_pref":"ｶﾅｶﾞﾜｹﾝ","kana_city":"ｱﾔｾｼ","kana_address":"ｵｵｶﾞﾐ","pref":"神奈川県","city":"綾瀬市","address":"大上"},
{"zip_code":"2521115","kana_pref":"ｶﾅｶﾞﾜｹﾝ","kana_city":"ｱﾔｾｼ","kana_address":"ｵﾁｱｲﾐﾅﾐ","pref":"神奈川県","city":"綾瀬市","address":"落合南"},
{"zip_code":"2521116","kana_pref":"ｶﾅｶﾞﾜｹﾝ","kana_city":"ｱﾔｾｼ","kana_address":"ｵﾁｱｲｷﾀ","pref":"神奈川県","city":"綾瀬市","address":"落合北"},
{"zip_code":"2521112","kana_pref":"ｶﾅｶﾞﾜｹﾝ","kana_city":"ｱﾔｾｼ","kana_address":"ｶﾐﾂﾁﾀﾞﾅ","pref":"神奈川県","city":"綾瀬市","address":"上土棚"},
{"zip_code":"2521113","kana_pref":"ｶﾅｶﾞﾜｹﾝ","kana_city":"ｱﾔｾｼ","kana_address":"ｶﾐﾂﾁﾀﾞﾅﾅｶ","pref":"神奈川県","city":"綾瀬市","address":"上土棚中"},
{"zip_code":"2521114","kana_pref":"ｶﾅｶﾞﾜｹﾝ","kana_city":"ｱﾔｾｼ","kana_address":"ｶﾐﾂﾁﾀﾞﾅﾐﾅﾐ","pref":"神奈川県","city":"綾瀬市","address":"上土棚南"},
{"zip_code":"2521111","kana_pref":"ｶﾅｶﾞﾜｹﾝ","kana_city":"ｱﾔｾｼ","kana_address":"ｶﾐﾂﾁﾀﾞﾅｷﾀ","pref":"神奈川県","city":"綾瀬市","address":"上土棚北"},
{"zip_code":"2521121","kana_pref":"ｶﾅｶﾞﾜｹﾝ","kana_city":"ｱﾔｾｼ","kana_address":"ｺｿﾞﾉ","pref":"神奈川県","city":"綾瀬市","address":"小園"},
{"zip_code":"2521122","kana_pref":"ｶﾅｶﾞﾜｹﾝ","kana_city":"ｱﾔｾｼ","kana_address":"ｺｿﾞﾉﾐﾅﾐ","pref":"神奈川県","city":"綾瀬市","address":"小園南"},
{"zip_code":"2521105","kana_pref":"ｶﾅｶﾞﾜｹﾝ","kana_city":"ｱﾔｾｼ","kana_address":"ﾀﾃｶﾜ","pref":"神奈川県","city":"綾瀬市","address":"蓼川"},
{"zip_code":"2521135","kana_pref":"ｶﾅｶﾞﾜｹﾝ","kana_city":"ｱﾔｾｼ","kana_address":"ﾃﾗｵｶﾏﾀ","pref":"神奈川県","city":"綾瀬市","address":"寺尾釜田"},
{"zip_code":"2521132","kana_pref":"ｶﾅｶﾞﾜｹﾝ","kana_city":"ｱﾔｾｼ","kana_address":"ﾃﾗｵﾅｶ","pref":"神奈川県","city":"綾瀬市","address":"寺尾中"},
{"zip_code":"2521136","kana_pref":"ｶﾅｶﾞﾜｹﾝ","kana_city":"ｱﾔｾｼ","kana_address":"ﾃﾗｵﾆｼ","pref":"神奈川県","city":"綾瀬市","address":"寺尾西"},
{"zip_code":"2521134","kana_pref":"ｶﾅｶﾞﾜｹﾝ","kana_city":"ｱﾔｾｼ","kana_address":"ﾃﾗｵﾐﾅﾐ","pref":"神奈川県","city":"綾瀬市","address":"寺尾南"},
{"zip_code":"2521131","kana_pref":"ｶﾅｶﾞﾜｹﾝ","kana_city":"ｱﾔｾｼ","kana_address":"ﾃﾗｵｷﾀ","pref":"神奈川県","city":"綾瀬市","address":"寺尾北"},
{"zip_code":"2521137","kana_pref":"ｶﾅｶﾞﾜｹﾝ","kana_city":"ｱﾔｾｼ","kana_address":"ﾃﾗｵﾀﾞｲ","pref":"神奈川県","city":"綾瀬市","address":"寺尾台"},
{"zip_code":"2521133","kana_pref":"ｶﾅｶﾞﾜｹﾝ","kana_city":"ｱﾔｾｼ","kana_address":"ﾃﾗｵﾎﾝﾁｮｳ","pref":"神奈川県","city":"綾瀬市","address":"寺尾本町"},
{"zip_code":"2521123","kana_pref":"ｶﾅｶﾞﾜｹﾝ","kana_city":"ｱﾔｾｼ","kana_address":"ﾊﾔｶﾜ","pref":"神奈川県","city":"綾瀬市","address":"早川"},
{"zip_code":"2521127","kana_pref":"ｶﾅｶﾞﾜｹﾝ","kana_city":"ｱﾔｾｼ","kana_address":"ﾊﾔｶﾜｼﾛﾔﾏ","pref":"神奈川県","city":"綾瀬市","address":"早川城山"},
{"zip_code":"2521103","kana_pref":"ｶﾅｶﾞﾜｹﾝ","kana_city":"ｱﾔｾｼ","kana_address":"ﾌｶﾔ","pref":"神奈川県","city":"綾瀬市","address":"深谷"},
{"zip_code":"2521108","kana_pref":"ｶﾅｶﾞﾜｹﾝ","kana_city":"ｱﾔｾｼ","kana_address":"ﾌｶﾔｶﾐ","pref":"神奈川県","city":"綾瀬市","address":"深谷上"},
{"zip_code":"2521107","kana_pref":"ｶﾅｶﾞﾜｹﾝ","kana_city":"ｱﾔｾｼ","kana_address":"ﾌｶﾔﾅｶ","pref":"神奈川県","city":"綾瀬市","address":"深谷中"},
{"zip_code":"2521106","kana_pref":"ｶﾅｶﾞﾜｹﾝ","kana_city":"ｱﾔｾｼ","kana_address":"ﾌｶﾔﾐﾅﾐ","pref":"神奈川県","city":"綾瀬市","address":"深谷南"},
{"zip_code":"2521102","kana_pref":"ｶﾅｶﾞﾜｹﾝ","kana_city":"ｱﾔｾｼ","kana_address":"ﾎﾝﾀﾃｶﾜ","pref":"神奈川県","city":"綾瀬市","address":"本蓼川"},
{"zip_code":"2521124","kana_pref":"ｶﾅｶﾞﾜｹﾝ","kana_city":"ｱﾔｾｼ","kana_address":"ﾖｼｵｶ","pref":"神奈川県","city":"綾瀬市","address":"吉岡"},
{"zip_code":"2521125","kana_pref":"ｶﾅｶﾞﾜｹﾝ","kana_city":"ｱﾔｾｼ","kana_address":"ﾖｼｵｶﾋｶﾞｼ","pref":"神奈川県","city":"綾瀬市","address":"吉岡東"},
{"zip_code":"2521126","kana_pref":"ｶﾅｶﾞﾜｹﾝ","kana_city":"ｱﾔｾｼ","kana_address":"ﾘｮｳｾｲ","pref":"神奈川県","city":"綾瀬市","address":"綾西"}]}