{"zip_code":[
{"zip_code":"2560802","kana_pref":"ｶﾅｶﾞﾜｹﾝ","kana_city":"ｵﾀﾞﾜﾗｼ","kana_address":"ｵﾀﾞｹ","pref":"神奈川県","city":"小田原市","address":"小竹"},
{"zip_code":"2560806","kana_pref":"ｶﾅｶﾞﾜｹﾝ","kana_city":"ｵﾀﾞﾜﾗｼ","kana_address":"ｵﾌﾞﾈ","pref":"神奈川県","city":"小田原市","address":"小船"},
{"zip_code":"2560805","kana_pref":"ｶﾅｶﾞﾜｹﾝ","kana_city":"ｵﾀﾞﾜﾗｼ","kana_address":"ｶﾉﾏﾁ","pref":"神奈川県","city":"小田原市","address":"上町"},
{"zip_code":"2560814","kana_pref":"ｶﾅｶﾞﾜｹﾝ","kana_city":"ｵﾀﾞﾜﾗｼ","kana_address":"ｶﾜﾜ","pref":"神奈川県","city":"小田原市","address":"川匂"},
{"zip_code":"2560812","kana_pref":"ｶﾅｶﾞﾜｹﾝ","kana_city":"ｵﾀﾞﾜﾗｼ","kana_address":"ｺｳﾂﾞ","pref":"神奈川県","city":"小田原市","address":"国府津"},
{"zip_code":"2560815","kana_pref":"ｶﾅｶﾞﾜｹﾝ","kana_city":"ｵﾀﾞﾜﾗｼ","kana_address":"ｺﾔﾜﾀ","pref":"神奈川県","city":"小田原市","address":"小八幡"},
{"zip_code":"2560816","kana_pref":"ｶﾅｶﾞﾜｹﾝ","kana_city":"ｵﾀﾞﾜﾗｼ","kana_address":"ｻｶﾜ","pref":"神奈川県","city":"小田原市","address":"酒匂"},
{"zip_code":"2560811","kana_pref":"ｶﾅｶﾞﾜｹﾝ","kana_city":"ｵﾀﾞﾜﾗｼ","kana_address":"ﾀｼﾞﾏ","pref":"神奈川県","city":"小田原市","address":"田島"},
{"zip_code":"2560803","kana_pref":"ｶﾅｶﾞﾜｹﾝ","kana_city":"ｵﾀﾞﾜﾗｼ","kana_address":"ﾅｶﾑﾗﾊﾗ","pref":"神奈川県","city":"小田原市","address":"中村原"},
{"zip_code":"2560817","kana_pref":"ｶﾅｶﾞﾜｹﾝ","kana_city":"ｵﾀﾞﾜﾗｼ","kana_address":"ﾆｼｻｶﾜ","pref":"神奈川県","city":"小田原市","address":"西酒匂"},
{"zip_code":"2560801","kana_pref":"ｶﾅｶﾞﾜｹﾝ","kana_city":"ｵﾀﾞﾜﾗｼ","kana_address":"ﾇﾏｼﾛ","pref":"神奈川県","city":"小田原市","address":"沼代"},
{"zip_code":"2560804","kana_pref":"ｶﾅｶﾞﾜｹﾝ","kana_city":"ｵﾀﾞﾜﾗｼ","kana_address":"ﾊﾈｵ","pref":"神奈川県","city":"小田原市","address":"羽根尾"},
{"zip_code":"2560808","kana_pref":"ｶﾅｶﾞﾜｹﾝ","kana_city":"ｵﾀﾞﾜﾗｼ","kana_address":"ﾋｶﾞｼｶﾞｵｶ","pref":"神奈川県","city":"小田原市","address":"東ヶ丘"},
{"zip_code":"2560813","kana_pref":"ｶﾅｶﾞﾜｹﾝ","kana_city":"ｵﾀﾞﾜﾗｼ","kana_address":"ﾏｴｶﾜ","pref":"神奈川県","city":"小田原市","address":"前川"},
{"zip_code":"2560807","kana_pref":"ｶﾅｶﾞﾜｹﾝ","kana_city":"ｵﾀﾞﾜﾗｼ","kana_address":"ﾔﾏﾆｼ","pref":"神奈川県","city":"小田原市","address":"山西"}]}