{"zip_code":[
{"zip_code":"2580000","kana_pref":"ｶﾅｶﾞﾜｹﾝ","kana_city":"ｱｼｶﾞﾗｶﾐｸﾞﾝｵｵｲﾏﾁ","kana_address":"","pref":"神奈川県","city":"足柄上郡大井町","address":""},
{"zip_code":"2580014","kana_pref":"ｶﾅｶﾞﾜｹﾝ","kana_city":"ｱｼｶﾞﾗｶﾐｸﾞﾝｵｵｲﾏﾁ","kana_address":"ｱｶﾀﾞ","pref":"神奈川県","city":"足柄上郡大井町","address":"赤田"},
{"zip_code":"2580018","kana_pref":"ｶﾅｶﾞﾜｹﾝ","kana_city":"ｱｼｶﾞﾗｶﾐｸﾞﾝｵｵｲﾏﾁ","kana_address":"ｶﾅﾃﾞ","pref":"神奈川県","city":"足柄上郡大井町","address":"金手"},
{"zip_code":"2580019","kana_pref":"ｶﾅｶﾞﾜｹﾝ","kana_city":"ｱｼｶﾞﾗｶﾐｸﾞﾝｵｵｲﾏﾁ","kana_address":"ｶﾈｺ","pref":"神奈川県","city":"足柄上郡大井町","address":"金子"},
{"zip_code":"2580016","kana_pref":"ｶﾅｶﾞﾜｹﾝ","kana_city":"ｱｼｶﾞﾗｶﾐｸﾞﾝｵｵｲﾏﾁ","kana_address":"ｶﾐｵｵｲ","pref":"神奈川県","city":"足柄上郡大井町","address":"上大井"},
{"zip_code":"2580011","kana_pref":"ｶﾅｶﾞﾜｹﾝ","kana_city":"ｱｼｶﾞﾗｶﾐｸﾞﾝｵｵｲﾏﾁ","kana_address":"ｼﾉｸﾎﾞ","pref":"神奈川県","city":"足柄上郡大井町","address":"篠窪"},
{"zip_code":"2580013","kana_pref":"ｶﾅｶﾞﾜｹﾝ","kana_city":"ｱｼｶﾞﾗｶﾐｸﾞﾝｵｵｲﾏﾁ","kana_address":"ﾀｶｵ","pref":"神奈川県","city":"足柄上郡大井町","address":"高尾"},
{"zip_code":"2580017","kana_pref":"ｶﾅｶﾞﾜｹﾝ","kana_city":"ｱｼｶﾞﾗｶﾐｸﾞﾝｵｵｲﾏﾁ","kana_address":"ﾆｼｵｵｲ","pref":"神奈川県","city":"足柄上郡大井町","address":"西大井"},
{"zip_code":"2580012","kana_pref":"ｶﾅｶﾞﾜｹﾝ","kana_city":"ｱｼｶﾞﾗｶﾐｸﾞﾝｵｵｲﾏﾁ","kana_address":"ﾔﾅｷﾞ","pref":"神奈川県","city":"足柄上郡大井町","address":"柳"},
{"zip_code":"2580015","kana_pref":"ｶﾅｶﾞﾜｹﾝ","kana_city":"ｱｼｶﾞﾗｶﾐｸﾞﾝｵｵｲﾏﾁ","kana_address":"ﾔﾏﾀﾞ","pref":"神奈川県","city":"足柄上郡大井町","address":"山田"},
{"zip_code":"2580000","kana_pref":"ｶﾅｶﾞﾜｹﾝ","kana_city":"ｱｼｶﾞﾗｶﾐｸﾞﾝﾏﾂﾀﾞﾏﾁ","kana_address":"","pref":"神奈川県","city":"足柄上郡松田町","address":""},
{"zip_code":"2580002","kana_pref":"ｶﾅｶﾞﾜｹﾝ","kana_city":"ｱｼｶﾞﾗｶﾐｸﾞﾝﾏﾂﾀﾞﾏﾁ","kana_address":"ｺｳﾔﾏ","pref":"神奈川県","city":"足柄上郡松田町","address":"神山"},
{"zip_code":"2580003","kana_pref":"ｶﾅｶﾞﾜｹﾝ","kana_city":"ｱｼｶﾞﾗｶﾐｸﾞﾝﾏﾂﾀﾞﾏﾁ","kana_address":"ﾏﾂﾀﾞｿｳﾘｮｳ","pref":"神奈川県","city":"足柄上郡松田町","address":"松田惣領"},
{"zip_code":"2580004","kana_pref":"ｶﾅｶﾞﾜｹﾝ","kana_city":"ｱｼｶﾞﾗｶﾐｸﾞﾝﾏﾂﾀﾞﾏﾁ","kana_address":"ﾏﾂﾀﾞｿｼ","pref":"神奈川県","city":"足柄上郡松田町","address":"松田庶子"},
{"zip_code":"2580001","kana_pref":"ｶﾅｶﾞﾜｹﾝ","kana_city":"ｱｼｶﾞﾗｶﾐｸﾞﾝﾏﾂﾀﾞﾏﾁ","kana_address":"ﾔﾄﾞﾘｷ","pref":"神奈川県","city":"足柄上郡松田町","address":"寄"},
{"zip_code":"2580100","kana_pref":"ｶﾅｶﾞﾜｹﾝ","kana_city":"ｱｼｶﾞﾗｶﾐｸﾞﾝﾔﾏｷﾀﾏﾁ","kana_address":"","pref":"神奈川県","city":"足柄上郡山北町","address":""},
{"zip_code":"2580203","kana_pref":"ｶﾅｶﾞﾜｹﾝ","kana_city":"ｱｼｶﾞﾗｶﾐｸﾞﾝﾔﾏｷﾀﾏﾁ","kana_address":"ｶﾐｵﾀﾞ","pref":"神奈川県","city":"足柄上郡山北町","address":"神尾田"},
{"zip_code":"2580126","kana_pref":"ｶﾅｶﾞﾜｹﾝ","kana_city":"ｱｼｶﾞﾗｶﾐｸﾞﾝﾔﾏｷﾀﾏﾁ","kana_address":"ｶﾐﾅﾜ","pref":"神奈川県","city":"足柄上郡山北町","address":"神縄"},
{"zip_code":"2580124","kana_pref":"ｶﾅｶﾞﾜｹﾝ","kana_city":"ｱｼｶﾞﾗｶﾐｸﾞﾝﾔﾏｷﾀﾏﾁ","kana_address":"ｶﾜﾆｼ","pref":"神奈川県","city":"足柄上郡山北町","address":"川西"},
{"zip_code":"2580112","kana_pref":"ｶﾅｶﾞﾜｹﾝ","kana_city":"ｱｼｶﾞﾗｶﾐｸﾞﾝﾔﾏｷﾀﾏﾁ","kana_address":"ｷｼ","pref":"神奈川県","city":"足柄上郡山北町","address":"岸"},
{"zip_code":"2580202","kana_pref":"ｶﾅｶﾞﾜｹﾝ","kana_city":"ｱｼｶﾞﾗｶﾐｸﾞﾝﾔﾏｷﾀﾏﾁ","kana_address":"ｸﾛｸﾗ","pref":"神奈川県","city":"足柄上郡山北町","address":"玄倉"},
{"zip_code":"2580122","kana_pref":"ｶﾅｶﾞﾜｹﾝ","kana_city":"ｱｼｶﾞﾗｶﾐｸﾞﾝﾔﾏｷﾀﾏﾁ","kana_address":"ﾂﾌﾞﾗﾉ","pref":"神奈川県","city":"足柄上郡山北町","address":"都夫良野"},
{"zip_code":"2580201","kana_pref":"ｶﾅｶﾞﾜｹﾝ","kana_city":"ｱｼｶﾞﾗｶﾐｸﾞﾝﾔﾏｷﾀﾏﾁ","kana_address":"ﾅｶｶﾞﾜ","pref":"神奈川県","city":"足柄上郡山北町","address":"中川"},
{"zip_code":"2580114","kana_pref":"ｶﾅｶﾞﾜｹﾝ","kana_city":"ｱｼｶﾞﾗｶﾐｸﾞﾝﾔﾏｷﾀﾏﾁ","kana_address":"ﾋﾗﾔﾏ","pref":"神奈川県","city":"足柄上郡山北町","address":"平山"},
{"zip_code":"2580121","kana_pref":"ｶﾅｶﾞﾜｹﾝ","kana_city":"ｱｼｶﾞﾗｶﾐｸﾞﾝﾔﾏｷﾀﾏﾁ","kana_address":"ﾐﾅｾｶﾞﾜ","pref":"神奈川県","city":"足柄上郡山北町","address":"皆瀬川"},
{"zip_code":"2580111","kana_pref":"ｶﾅｶﾞﾜｹﾝ","kana_city":"ｱｼｶﾞﾗｶﾐｸﾞﾝﾔﾏｷﾀﾏﾁ","kana_address":"ﾑｺｳﾊﾗ","pref":"神奈川県","city":"足柄上郡山北町","address":"向原"},
{"zip_code":"2580115","kana_pref":"ｶﾅｶﾞﾜｹﾝ","kana_city":"ｱｼｶﾞﾗｶﾐｸﾞﾝﾔﾏｷﾀﾏﾁ","kana_address":"ﾔｶﾞ","pref":"神奈川県","city":"足柄上郡山北町","address":"谷ケ"},
{"zip_code":"2580125","kana_pref":"ｶﾅｶﾞﾜｹﾝ","kana_city":"ｱｼｶﾞﾗｶﾐｸﾞﾝﾔﾏｷﾀﾏﾁ","kana_address":"ﾔﾏｲﾁﾊﾞ","pref":"神奈川県","city":"足柄上郡山北町","address":"山市場"},
{"zip_code":"2580113","kana_pref":"ｶﾅｶﾞﾜｹﾝ","kana_city":"ｱｼｶﾞﾗｶﾐｸﾞﾝﾔﾏｷﾀﾏﾁ","kana_address":"ﾔﾏｷﾀ","pref":"神奈川県","city":"足柄上郡山北町","address":"山北"},
{"zip_code":"2580123","kana_pref":"ｶﾅｶﾞﾜｹﾝ","kana_city":"ｱｼｶﾞﾗｶﾐｸﾞﾝﾔﾏｷﾀﾏﾁ","kana_address":"ﾕﾌﾞﾚ","pref":"神奈川県","city":"足柄上郡山北町","address":"湯触"},
{"zip_code":"2580204","kana_pref":"ｶﾅｶﾞﾜｹﾝ","kana_city":"ｱｼｶﾞﾗｶﾐｸﾞﾝﾔﾏｷﾀﾏﾁ","kana_address":"ﾖﾂﾞｸ","pref":"神奈川県","city":"足柄上郡山北町","address":"世附"},
{"zip_code":"2580000","kana_pref":"ｶﾅｶﾞﾜｹﾝ","kana_city":"ｱｼｶﾞﾗｶﾐｸﾞﾝｶｲｾｲﾏﾁ","kana_address":"","pref":"神奈川県","city":"足柄上郡開成町","address":""},
{"zip_code":"2580022","kana_pref":"ｶﾅｶﾞﾜｹﾝ","kana_city":"ｱｼｶﾞﾗｶﾐｸﾞﾝｶｲｾｲﾏﾁ","kana_address":"ｳｼｼﾞﾏ","pref":"神奈川県","city":"足柄上郡開成町","address":"牛島"},
{"zip_code":"2580025","kana_pref":"ｶﾅｶﾞﾜｹﾝ","kana_city":"ｱｼｶﾞﾗｶﾐｸﾞﾝｶｲｾｲﾏﾁ","kana_address":"ｴﾝﾂｳｼﾞ","pref":"神奈川県","city":"足柄上郡開成町","address":"円通寺"},
{"zip_code":"2580027","kana_pref":"ｶﾅｶﾞﾜｹﾝ","kana_city":"ｱｼｶﾞﾗｶﾐｸﾞﾝｶｲｾｲﾏﾁ","kana_address":"ｵｶﾉ","pref":"神奈川県","city":"足柄上郡開成町","address":"岡野"},
{"zip_code":"2580028","kana_pref":"ｶﾅｶﾞﾜｹﾝ","kana_city":"ｱｼｶﾞﾗｶﾐｸﾞﾝｶｲｾｲﾏﾁ","kana_address":"ｶﾅｲｼﾏ","pref":"神奈川県","city":"足柄上郡開成町","address":"金井島"},
{"zip_code":"2580024","kana_pref":"ｶﾅｶﾞﾜｹﾝ","kana_city":"ｱｼｶﾞﾗｶﾐｸﾞﾝｶｲｾｲﾏﾁ","kana_address":"ﾅｶﾉﾐｮｳ","pref":"神奈川県","city":"足柄上郡開成町","address":"中之名"},
{"zip_code":"2580026","kana_pref":"ｶﾅｶﾞﾜｹﾝ","kana_city":"ｱｼｶﾞﾗｶﾐｸﾞﾝｶｲｾｲﾏﾁ","kana_address":"ﾉﾌﾞｻﾜ","pref":"神奈川県","city":"足柄上郡開成町","address":"延沢"},
{"zip_code":"2580023","kana_pref":"ｶﾅｶﾞﾜｹﾝ","kana_city":"ｱｼｶﾞﾗｶﾐｸﾞﾝｶｲｾｲﾏﾁ","kana_address":"ﾐﾔﾉﾀﾞｲ","pref":"神奈川県","city":"足柄上郡開成町","address":"宮台"},
{"zip_code":"2580021","kana_pref":"ｶﾅｶﾞﾜｹﾝ","kana_city":"ｱｼｶﾞﾗｶﾐｸﾞﾝｶｲｾｲﾏﾁ","kana_address":"ﾖｼﾀﾞｼﾞﾏ","pref":"神奈川県","city":"足柄上郡開成町","address":"吉田島"}]}