{"zip_code":[
{"zip_code":"2591214","kana_pref":"ｶﾅｶﾞﾜｹﾝ","kana_city":"ﾋﾗﾂｶｼ","kana_address":"ｲｲｼﾞﾏ","pref":"神奈川県","city":"平塚市","address":"飯島"},
{"zip_code":"2591216","kana_pref":"ｶﾅｶﾞﾜｹﾝ","kana_city":"ﾋﾗﾂｶｼ","kana_address":"ｲﾉ","pref":"神奈川県","city":"平塚市","address":"入野"},
{"zip_code":"2591218","kana_pref":"ｶﾅｶﾞﾜｹﾝ","kana_city":"ﾋﾗﾂｶｼ","kana_address":"ｲﾘﾌﾞ","pref":"神奈川県","city":"平塚市","address":"入部"},
{"zip_code":"2591212","kana_pref":"ｶﾅｶﾞﾜｹﾝ","kana_city":"ﾋﾗﾂｶｼ","kana_address":"ｵｶｻﾞｷ","pref":"神奈川県","city":"平塚市","address":"岡崎"},
{"zip_code":"2591213","kana_pref":"ｶﾅｶﾞﾜｹﾝ","kana_city":"ﾋﾗﾂｶｼ","kana_address":"ｶﾀｵｶ","pref":"神奈川県","city":"平塚市","address":"片岡"},
{"zip_code":"2591204","kana_pref":"ｶﾅｶﾞﾜｹﾝ","kana_city":"ﾋﾗﾂｶｼ","kana_address":"ｶﾐｷﾁｻﾜ","pref":"神奈川県","city":"平塚市","address":"上吉沢"},
{"zip_code":"2591207","kana_pref":"ｶﾅｶﾞﾜｹﾝ","kana_city":"ﾋﾗﾂｶｼ","kana_address":"ｷﾀｶﾅﾒ","pref":"神奈川県","city":"平塚市","address":"北金目"},
{"zip_code":"2591206","kana_pref":"ｶﾅｶﾞﾜｹﾝ","kana_city":"ﾋﾗﾂｶｼ","kana_address":"ｻﾅﾀﾞ","pref":"神奈川県","city":"平塚市","address":"真田"},
{"zip_code":"2591203","kana_pref":"ｶﾅｶﾞﾜｹﾝ","kana_city":"ﾋﾗﾂｶｼ","kana_address":"ｼﾓｷﾁｻﾜ","pref":"神奈川県","city":"平塚市","address":"下吉沢"},
{"zip_code":"2591202","kana_pref":"ｶﾅｶﾞﾜｹﾝ","kana_city":"ﾋﾗﾂｶｼ","kana_address":"ｾﾝｽﾞﾔ","pref":"神奈川県","city":"平塚市","address":"千須谷"},
{"zip_code":"2591205","kana_pref":"ｶﾅｶﾞﾜｹﾝ","kana_city":"ﾋﾗﾂｶｼ","kana_address":"ﾂﾁﾔ","pref":"神奈川県","city":"平塚市","address":"土屋"},
{"zip_code":"2591215","kana_pref":"ｶﾅｶﾞﾜｹﾝ","kana_city":"ﾋﾗﾂｶｼ","kana_address":"ﾃﾗﾀﾞﾅﾜ","pref":"神奈川県","city":"平塚市","address":"寺田縄"},
{"zip_code":"2591217","kana_pref":"ｶﾅｶﾞﾜｹﾝ","kana_city":"ﾋﾗﾂｶｼ","kana_address":"ﾅｶﾞﾓﾁ","pref":"神奈川県","city":"平塚市","address":"長持"},
{"zip_code":"2591219","kana_pref":"ｶﾅｶﾞﾜｹﾝ","kana_city":"ﾋﾗﾂｶｼ","kana_address":"ﾋﾛｶﾜ","pref":"神奈川県","city":"平塚市","address":"広川"},
{"zip_code":"2591211","kana_pref":"ｶﾅｶﾞﾜｹﾝ","kana_city":"ﾋﾗﾂｶｼ","kana_address":"ﾌｼﾞﾐﾉ","pref":"神奈川県","city":"平塚市","address":"ふじみ野"},
{"zip_code":"2591201","kana_pref":"ｶﾅｶﾞﾜｹﾝ","kana_city":"ﾋﾗﾂｶｼ","kana_address":"ﾐﾅﾐｶﾅﾒ","pref":"神奈川県","city":"平塚市","address":"南金目"},
{"zip_code":"2591220","kana_pref":"ｶﾅｶﾞﾜｹﾝ","kana_city":"ﾋﾗﾂｶｼ","kana_address":"ﾒｸﾞﾐｶﾞｵｶ","pref":"神奈川県","city":"平塚市","address":"めぐみが丘"},
{"zip_code":"2591312","kana_pref":"ｶﾅｶﾞﾜｹﾝ","kana_city":"ﾊﾀﾞﾉｼ","kana_address":"ｶｽｶﾞﾁｮｳ","pref":"神奈川県","city":"秦野市","address":"春日町"},
{"zip_code":"2591303","kana_pref":"ｶﾅｶﾞﾜｹﾝ","kana_city":"ﾊﾀﾞﾉｼ","kana_address":"ｻﾝﾔ","pref":"神奈川県","city":"秦野市","address":"三屋"},
{"zip_code":"2591322","kana_pref":"ｶﾅｶﾞﾜｹﾝ","kana_city":"ﾊﾀﾞﾉｼ","kana_address":"ｼﾌﾞｻﾜ","pref":"神奈川県","city":"秦野市","address":"渋沢"},
{"zip_code":"2591326","kana_pref":"ｶﾅｶﾞﾜｹﾝ","kana_city":"ﾊﾀﾞﾉｼ","kana_address":"ｼﾌﾞｻﾜｶﾐ","pref":"神奈川県","city":"秦野市","address":"渋沢上"},
{"zip_code":"2591332","kana_pref":"ｶﾅｶﾞﾜｹﾝ","kana_city":"ﾊﾀﾞﾉｼ","kana_address":"ｼｮｳﾌﾞ","pref":"神奈川県","city":"秦野市","address":"菖蒲"},
{"zip_code":"2591324","kana_pref":"ｶﾅｶﾞﾜｹﾝ","kana_city":"ﾊﾀﾞﾉｼ","kana_address":"ﾁﾑﾗ","pref":"神奈川県","city":"秦野市","address":"千村"},
{"zip_code":"2591306","kana_pref":"ｶﾅｶﾞﾜｹﾝ","kana_city":"ﾊﾀﾞﾉｼ","kana_address":"ﾄｶﾜ","pref":"神奈川県","city":"秦野市","address":"戸川"},
{"zip_code":"2591323","kana_pref":"ｶﾅｶﾞﾜｹﾝ","kana_city":"ﾊﾀﾞﾉｼ","kana_address":"ﾄﾁｸﾎﾞ","pref":"神奈川県","city":"秦野市","address":"栃窪"},
{"zip_code":"2591317","kana_pref":"ｶﾅｶﾞﾜｹﾝ","kana_city":"ﾊﾀﾞﾉｼ","kana_address":"ﾅﾐｷﾁｮｳ","pref":"神奈川県","city":"秦野市","address":"並木町"},
{"zip_code":"2591316","kana_pref":"ｶﾅｶﾞﾜｹﾝ","kana_city":"ﾊﾀﾞﾉｼ","kana_address":"ﾇﾏｼﾛｼﾝﾁｮｳ","pref":"神奈川県","city":"秦野市","address":"沼代新町"},
{"zip_code":"2591325","kana_pref":"ｶﾅｶﾞﾜｹﾝ","kana_city":"ﾊﾀﾞﾉｼ","kana_address":"ﾊｷﾞｶﾞｵｶ","pref":"神奈川県","city":"秦野市","address":"萩が丘"},
{"zip_code":"2591333","kana_pref":"ｶﾅｶﾞﾜｹﾝ","kana_city":"ﾊﾀﾞﾉｼ","kana_address":"ﾊｯｻﾜ","pref":"神奈川県","city":"秦野市","address":"八沢"},
{"zip_code":"2591301","kana_pref":"ｶﾅｶﾞﾜｹﾝ","kana_city":"ﾊﾀﾞﾉｼ","kana_address":"ﾊﾈ","pref":"神奈川県","city":"秦野市","address":"羽根"},
{"zip_code":"2591302","kana_pref":"ｶﾅｶﾞﾜｹﾝ","kana_city":"ﾊﾀﾞﾉｼ","kana_address":"ﾎﾞﾀﾞｲ","pref":"神奈川県","city":"秦野市","address":"菩提"},
{"zip_code":"2591305","kana_pref":"ｶﾅｶﾞﾜｹﾝ","kana_city":"ﾊﾀﾞﾉｼ","kana_address":"ﾎﾘｶﾜ","pref":"神奈川県","city":"秦野市","address":"堀川"},
{"zip_code":"2591304","kana_pref":"ｶﾅｶﾞﾜｹﾝ","kana_city":"ﾊﾀﾞﾉｼ","kana_address":"ﾎﾘﾔﾏｼﾀ","pref":"神奈川県","city":"秦野市","address":"堀山下"},
{"zip_code":"2591331","kana_pref":"ｶﾅｶﾞﾜｹﾝ","kana_city":"ﾊﾀﾞﾉｼ","kana_address":"ﾎﾘﾆｼ","pref":"神奈川県","city":"秦野市","address":"堀西"},
{"zip_code":"2591321","kana_pref":"ｶﾅｶﾞﾜｹﾝ","kana_city":"ﾊﾀﾞﾉｼ","kana_address":"ﾏｶﾞﾘﾏﾂ","pref":"神奈川県","city":"秦野市","address":"曲松"},
{"zip_code":"2591313","kana_pref":"ｶﾅｶﾞﾜｹﾝ","kana_city":"ﾊﾀﾞﾉｼ","kana_address":"ﾏﾂﾊﾞﾗﾁｮｳ","pref":"神奈川県","city":"秦野市","address":"松原町"},
{"zip_code":"2591335","kana_pref":"ｶﾅｶﾞﾜｹﾝ","kana_city":"ﾊﾀﾞﾉｼ","kana_address":"ﾐｸﾙﾍﾞ","pref":"神奈川県","city":"秦野市","address":"三廻部"},
{"zip_code":"2591334","kana_pref":"ｶﾅｶﾞﾜｹﾝ","kana_city":"ﾊﾀﾞﾉｼ","kana_address":"ﾔﾅｶﾞﾜ","pref":"神奈川県","city":"秦野市","address":"柳川"},
{"zip_code":"2591315","kana_pref":"ｶﾅｶﾞﾜｹﾝ","kana_city":"ﾊﾀﾞﾉｼ","kana_address":"ﾔﾅｷﾞﾁｮｳ","pref":"神奈川県","city":"秦野市","address":"柳町"},
{"zip_code":"2591311","kana_pref":"ｶﾅｶﾞﾜｹﾝ","kana_city":"ﾊﾀﾞﾉｼ","kana_address":"ﾔﾖｲﾁｮｳ","pref":"神奈川県","city":"秦野市","address":"弥生町"},
{"zip_code":"2591307","kana_pref":"ｶﾅｶﾞﾜｹﾝ","kana_city":"ﾊﾀﾞﾉｼ","kana_address":"ﾖｺﾉ","pref":"神奈川県","city":"秦野市","address":"横野"},
{"zip_code":"2591314","kana_pref":"ｶﾅｶﾞﾜｹﾝ","kana_city":"ﾊﾀﾞﾉｼ","kana_address":"ﾜｶﾏﾂﾁｮｳ","pref":"神奈川県","city":"秦野市","address":"若松町"},
{"zip_code":"2591100","kana_pref":"ｶﾅｶﾞﾜｹﾝ","kana_city":"ｲｾﾊﾗｼ","kana_address":"","pref":"神奈川県","city":"伊勢原市","address":""},
{"zip_code":"2591113","kana_pref":"ｶﾅｶﾞﾜｹﾝ","kana_city":"ｲｾﾊﾗｼ","kana_address":"ｱﾜｸﾎﾞ","pref":"神奈川県","city":"伊勢原市","address":"粟窪"},
{"zip_code":"2591144","kana_pref":"ｶﾅｶﾞﾜｹﾝ","kana_city":"ｲｾﾊﾗｼ","kana_address":"ｲｹﾊﾞﾀ","pref":"神奈川県","city":"伊勢原市","address":"池端"},
{"zip_code":"2591116","kana_pref":"ｶﾅｶﾞﾜｹﾝ","kana_city":"ｲｾﾊﾗｼ","kana_address":"ｲｼﾀﾞ","pref":"神奈川県","city":"伊勢原市","address":"石田"},
{"zip_code":"2591131","kana_pref":"ｶﾅｶﾞﾜｹﾝ","kana_city":"ｲｾﾊﾗｼ","kana_address":"ｲｾﾊﾗ","pref":"神奈川県","city":"伊勢原市","address":"伊勢原"},
{"zip_code":"2591145","kana_pref":"ｶﾅｶﾞﾜｹﾝ","kana_city":"ｲｾﾊﾗｼ","kana_address":"ｲﾀﾄﾞ","pref":"神奈川県","city":"伊勢原市","address":"板戸"},
{"zip_code":"2591128","kana_pref":"ｶﾅｶﾞﾜｹﾝ","kana_city":"ｲｾﾊﾗｼ","kana_address":"ｳﾀｶﾞﾜ","pref":"神奈川県","city":"伊勢原市","address":"歌川"},
{"zip_code":"2591105","kana_pref":"ｶﾅｶﾞﾜｹﾝ","kana_city":"ｲｾﾊﾗｼ","kana_address":"ｵｵｽﾐﾀﾞｲ","pref":"神奈川県","city":"伊勢原市","address":"大住台"},
{"zip_code":"2591107","kana_pref":"ｶﾅｶﾞﾜｹﾝ","kana_city":"ｲｾﾊﾗｼ","kana_address":"ｵｵﾔﾏ","pref":"神奈川県","city":"伊勢原市","address":"大山"},
{"zip_code":"2591135","kana_pref":"ｶﾅｶﾞﾜｹﾝ","kana_city":"ｲｾﾊﾗｼ","kana_address":"ｵｶｻﾞｷ","pref":"神奈川県","city":"伊勢原市","address":"岡崎"},
{"zip_code":"2591137","kana_pref":"ｶﾅｶﾞﾜｹﾝ","kana_city":"ｲｾﾊﾗｼ","kana_address":"ｶｻｸﾎﾞ","pref":"神奈川県","city":"伊勢原市","address":"笠窪"},
{"zip_code":"2591141","kana_pref":"ｶﾅｶﾞﾜｹﾝ","kana_city":"ｲｾﾊﾗｼ","kana_address":"ｶﾐｶｽﾔ","pref":"神奈川県","city":"伊勢原市","address":"上粕屋"},
{"zip_code":"2591124","kana_pref":"ｶﾅｶﾞﾜｹﾝ","kana_city":"ｲｾﾊﾗｼ","kana_address":"ｶﾐﾋﾗﾏ","pref":"神奈川県","city":"伊勢原市","address":"上平間"},
{"zip_code":"2591127","kana_pref":"ｶﾅｶﾞﾜｹﾝ","kana_city":"ｲｾﾊﾗｼ","kana_address":"ｶﾐﾔ","pref":"神奈川県","city":"伊勢原市","address":"上谷"},
{"zip_code":"2591136","kana_pref":"ｶﾅｶﾞﾜｹﾝ","kana_city":"ｲｾﾊﾗｼ","kana_address":"ｸｼﾊｼ","pref":"神奈川県","city":"伊勢原市","address":"串橋"},
{"zip_code":"2591122","kana_pref":"ｶﾅｶﾞﾜｹﾝ","kana_city":"ｲｾﾊﾗｼ","kana_address":"ｺｲﾅﾊﾞ","pref":"神奈川県","city":"伊勢原市","address":"小稲葉"},
{"zip_code":"2591138","kana_pref":"ｶﾅｶﾞﾜｹﾝ","kana_city":"ｲｾﾊﾗｼ","kana_address":"ｺﾞｳﾄﾞ","pref":"神奈川県","city":"伊勢原市","address":"神戸"},
{"zip_code":"2591102","kana_pref":"ｶﾅｶﾞﾜｹﾝ","kana_city":"ｲｾﾊﾗｼ","kana_address":"ｺﾔｽ","pref":"神奈川県","city":"伊勢原市","address":"子易"},
{"zip_code":"2591132","kana_pref":"ｶﾅｶﾞﾜｹﾝ","kana_city":"ｲｾﾊﾗｼ","kana_address":"ｻｸﾗﾀﾞｲ","pref":"神奈川県","city":"伊勢原市","address":"桜台"},
{"zip_code":"2591103","kana_pref":"ｶﾅｶﾞﾜｹﾝ","kana_city":"ｲｾﾊﾗｼ","kana_address":"ｻﾝﾉﾐﾔ","pref":"神奈川県","city":"伊勢原市","address":"三ノ宮"},
{"zip_code":"2591121","kana_pref":"ｶﾅｶﾞﾜｹﾝ","kana_city":"ｲｾﾊﾗｼ","kana_address":"ｼﾓｵﾁｱｲ","pref":"神奈川県","city":"伊勢原市","address":"下落合"},
{"zip_code":"2591143","kana_pref":"ｶﾅｶﾞﾜｹﾝ","kana_city":"ｲｾﾊﾗｼ","kana_address":"ｼﾓｶｽﾔ","pref":"神奈川県","city":"伊勢原市","address":"下糟屋"},
{"zip_code":"2591125","kana_pref":"ｶﾅｶﾞﾜｹﾝ","kana_city":"ｲｾﾊﾗｼ","kana_address":"ｼﾓﾋﾗﾏ","pref":"神奈川県","city":"伊勢原市","address":"下平間"},
{"zip_code":"2591123","kana_pref":"ｶﾅｶﾞﾜｹﾝ","kana_city":"ｲｾﾊﾗｼ","kana_address":"ｼﾓﾔ","pref":"神奈川県","city":"伊勢原市","address":"下谷"},
{"zip_code":"2591147","kana_pref":"ｶﾅｶﾞﾜｹﾝ","kana_city":"ｲｾﾊﾗｼ","kana_address":"ｼﾗﾈ","pref":"神奈川県","city":"伊勢原市","address":"白根"},
{"zip_code":"2591146","kana_pref":"ｶﾅｶﾞﾜｹﾝ","kana_city":"ｲｾﾊﾗｼ","kana_address":"ｽｽﾞｶﾜ","pref":"神奈川県","city":"伊勢原市","address":"鈴川"},
{"zip_code":"2591106","kana_pref":"ｶﾅｶﾞﾜｹﾝ","kana_city":"ｲｾﾊﾗｼ","kana_address":"ｾﾞﾝﾊﾞ","pref":"神奈川県","city":"伊勢原市","address":"善波"},
{"zip_code":"2591114","kana_pref":"ｶﾅｶﾞﾜｹﾝ","kana_city":"ｲｾﾊﾗｼ","kana_address":"ﾀｶﾓﾘ","pref":"神奈川県","city":"伊勢原市","address":"高森"},
{"zip_code":"2591115","kana_pref":"ｶﾅｶﾞﾜｹﾝ","kana_city":"ｲｾﾊﾗｼ","kana_address":"ﾀｶﾓﾘﾀﾞｲ","pref":"神奈川県","city":"伊勢原市","address":"高森台"},
{"zip_code":"2591142","kana_pref":"ｶﾅｶﾞﾜｹﾝ","kana_city":"ｲｾﾊﾗｼ","kana_address":"ﾀﾅｶ","pref":"神奈川県","city":"伊勢原市","address":"田中"},
{"zip_code":"2591104","kana_pref":"ｶﾅｶﾞﾜｹﾝ","kana_city":"ｲｾﾊﾗｼ","kana_address":"ﾂﾎﾞﾉｳﾁ","pref":"神奈川県","city":"伊勢原市","address":"坪ノ内"},
{"zip_code":"2591111","kana_pref":"ｶﾅｶﾞﾜｹﾝ","kana_city":"ｲｾﾊﾗｼ","kana_address":"ﾆｼﾄﾐｵｶ","pref":"神奈川県","city":"伊勢原市","address":"西富岡"},
{"zip_code":"2591126","kana_pref":"ｶﾅｶﾞﾜｹﾝ","kana_city":"ｲｾﾊﾗｼ","kana_address":"ﾇﾏﾒ","pref":"神奈川県","city":"伊勢原市","address":"沼目"},
{"zip_code":"2591134","kana_pref":"ｶﾅｶﾞﾜｹﾝ","kana_city":"ｲｾﾊﾗｼ","kana_address":"ﾊﾁﾏﾝﾀﾞｲ","pref":"神奈川県","city":"伊勢原市","address":"八幡台"},
{"zip_code":"2591133","kana_pref":"ｶﾅｶﾞﾜｹﾝ","kana_city":"ｲｾﾊﾗｼ","kana_address":"ﾋｶﾞｼｵｵﾀﾞｹ","pref":"神奈川県","city":"伊勢原市","address":"東大竹"},
{"zip_code":"2591112","kana_pref":"ｶﾅｶﾞﾜｹﾝ","kana_city":"ｲｾﾊﾗｼ","kana_address":"ﾋｶﾞｼﾄﾐｵｶ","pref":"神奈川県","city":"伊勢原市","address":"東富岡"},
{"zip_code":"2591117","kana_pref":"ｶﾅｶﾞﾜｹﾝ","kana_city":"ｲｾﾊﾗｼ","kana_address":"ﾋｶﾞｼﾅﾙｾ","pref":"神奈川県","city":"伊勢原市","address":"東成瀬"},
{"zip_code":"2591101","kana_pref":"ｶﾅｶﾞﾜｹﾝ","kana_city":"ｲｾﾊﾗｼ","kana_address":"ﾋﾅﾀ","pref":"神奈川県","city":"伊勢原市","address":"日向"},
{"zip_code":"2591118","kana_pref":"ｶﾅｶﾞﾜｹﾝ","kana_city":"ｲｾﾊﾗｼ","kana_address":"ﾐﾂｹｼﾞﾏ","pref":"神奈川県","city":"伊勢原市","address":"見附島"},
{"zip_code":"2590102","kana_pref":"ｶﾅｶﾞﾜｹﾝ","kana_city":"ﾅｶｸﾞﾝｵｵｲｿﾏﾁ","kana_address":"ｲｸｻﾜ","pref":"神奈川県","city":"中郡大磯町","address":"生沢"},
{"zip_code":"2590113","kana_pref":"ｶﾅｶﾞﾜｹﾝ","kana_city":"ﾅｶｸﾞﾝｵｵｲｿﾏﾁ","kana_address":"ｲｼｶﾞﾐﾀﾞｲ","pref":"神奈川県","city":"中郡大磯町","address":"石神台"},
{"zip_code":"2590114","kana_pref":"ｶﾅｶﾞﾜｹﾝ","kana_city":"ﾅｶｸﾞﾝｵｵｲｿﾏﾁ","kana_address":"ｶﾞｯｷｮｳ","pref":"神奈川県","city":"中郡大磯町","address":"月京"},
{"zip_code":"2590105","kana_pref":"ｶﾅｶﾞﾜｹﾝ","kana_city":"ﾅｶｸﾞﾝｵｵｲｿﾏﾁ","kana_address":"ｸﾛｲﾜ","pref":"神奈川県","city":"中郡大磯町","address":"黒岩"},
{"zip_code":"2590112","kana_pref":"ｶﾅｶﾞﾜｹﾝ","kana_city":"ﾅｶｸﾞﾝｵｵｲｿﾏﾁ","kana_address":"ｺｸﾌｼﾝｼｭｸ","pref":"神奈川県","city":"中郡大磯町","address":"国府新宿"},
{"zip_code":"2590111","kana_pref":"ｶﾅｶﾞﾜｹﾝ","kana_city":"ﾅｶｸﾞﾝｵｵｲｿﾏﾁ","kana_address":"ｺｸﾌﾎﾝｺﾞｳ","pref":"神奈川県","city":"中郡大磯町","address":"国府本郷"},
{"zip_code":"2590101","kana_pref":"ｶﾅｶﾞﾜｹﾝ","kana_city":"ﾅｶｸﾞﾝｵｵｲｿﾏﾁ","kana_address":"ﾃﾗｻｶ","pref":"神奈川県","city":"中郡大磯町","address":"寺坂"},
{"zip_code":"2590104","kana_pref":"ｶﾅｶﾞﾜｹﾝ","kana_city":"ﾅｶｸﾞﾝｵｵｲｿﾏﾁ","kana_address":"ﾆｼｸﾎﾞ","pref":"神奈川県","city":"中郡大磯町","address":"西久保"},
{"zip_code":"2590103","kana_pref":"ｶﾅｶﾞﾜｹﾝ","kana_city":"ﾅｶｸﾞﾝｵｵｲｿﾏﾁ","kana_address":"ﾑｼｸﾎﾞ","pref":"神奈川県","city":"中郡大磯町","address":"虫窪"},
{"zip_code":"2590100","kana_pref":"ｶﾅｶﾞﾜｹﾝ","kana_city":"ﾅｶｸﾞﾝﾆﾉﾐﾔﾏﾁ","kana_address":"","pref":"神奈川県","city":"中郡二宮町","address":""},
{"zip_code":"2590134","kana_pref":"ｶﾅｶﾞﾜｹﾝ","kana_city":"ﾅｶｸﾞﾝﾆﾉﾐﾔﾏﾁ","kana_address":"ｲｼｷ","pref":"神奈川県","city":"中郡二宮町","address":"一色"},
{"zip_code":"2590125","kana_pref":"ｶﾅｶﾞﾜｹﾝ","kana_city":"ﾅｶｸﾞﾝﾆﾉﾐﾔﾏﾁ","kana_address":"ｶﾜﾜ","pref":"神奈川県","city":"中郡二宮町","address":"川匂"},
{"zip_code":"2590131","kana_pref":"ｶﾅｶﾞﾜｹﾝ","kana_city":"ﾅｶｸﾞﾝﾆﾉﾐﾔﾏﾁ","kana_address":"ﾅｶｻﾞﾄ","pref":"神奈川県","city":"中郡二宮町","address":"中里"},
{"zip_code":"2590123","kana_pref":"ｶﾅｶﾞﾜｹﾝ","kana_city":"ﾅｶｸﾞﾝﾆﾉﾐﾔﾏﾁ","kana_address":"ﾆﾉﾐﾔ","pref":"神奈川県","city":"中郡二宮町","address":"二宮"},
{"zip_code":"2590122","kana_pref":"ｶﾅｶﾞﾜｹﾝ","kana_city":"ﾅｶｸﾞﾝﾆﾉﾐﾔﾏﾁ","kana_address":"ﾌｼﾞﾐｶﾞｵｶ","pref":"神奈川県","city":"中郡二宮町","address":"富士見が丘"},
{"zip_code":"2590121","kana_pref":"ｶﾅｶﾞﾜｹﾝ","kana_city":"ﾅｶｸﾞﾝﾆﾉﾐﾔﾏﾁ","kana_address":"ﾏﾂﾈ","pref":"神奈川県","city":"中郡二宮町","address":"松根"},
{"zip_code":"2590132","kana_pref":"ｶﾅｶﾞﾜｹﾝ","kana_city":"ﾅｶｸﾞﾝﾆﾉﾐﾔﾏﾁ","kana_address":"ﾐﾄﾞﾘｶﾞｵｶ","pref":"神奈川県","city":"中郡二宮町","address":"緑が丘"},
{"zip_code":"2590124","kana_pref":"ｶﾅｶﾞﾜｹﾝ","kana_city":"ﾅｶｸﾞﾝﾆﾉﾐﾔﾏﾁ","kana_address":"ﾔﾏﾆｼ","pref":"神奈川県","city":"中郡二宮町","address":"山西"},
{"zip_code":"2590133","kana_pref":"ｶﾅｶﾞﾜｹﾝ","kana_city":"ﾅｶｸﾞﾝﾆﾉﾐﾔﾏﾁ","kana_address":"ﾕﾘｶﾞｵｶ","pref":"神奈川県","city":"中郡二宮町","address":"百合が丘"},
{"zip_code":"2590100","kana_pref":"ｶﾅｶﾞﾜｹﾝ","kana_city":"ｱｼｶﾞﾗｶﾐｸﾞﾝﾅｶｲﾏﾁ","kana_address":"","pref":"神奈川県","city":"足柄上郡中井町","address":""},
{"zip_code":"2590151","kana_pref":"ｶﾅｶﾞﾜｹﾝ","kana_city":"ｱｼｶﾞﾗｶﾐｸﾞﾝﾅｶｲﾏﾁ","kana_address":"ｲﾉｸﾁ","pref":"神奈川県","city":"足柄上郡中井町","address":"井ノ口"},
{"zip_code":"2590154","kana_pref":"ｶﾅｶﾞﾜｹﾝ","kana_city":"ｱｼｶﾞﾗｶﾐｸﾞﾝﾅｶｲﾏﾁ","kana_address":"ｲﾜｸﾗ","pref":"神奈川県","city":"足柄上郡中井町","address":"岩倉"},
{"zip_code":"2590141","kana_pref":"ｶﾅｶﾞﾜｹﾝ","kana_city":"ｱｼｶﾞﾗｶﾐｸﾞﾝﾅｶｲﾏﾁ","kana_address":"ｴﾝﾄﾞｳ","pref":"神奈川県","city":"足柄上郡中井町","address":"遠藤"},
{"zip_code":"2590147","kana_pref":"ｶﾅｶﾞﾜｹﾝ","kana_city":"ｱｼｶﾞﾗｶﾐｸﾞﾝﾅｶｲﾏﾁ","kana_address":"ｶﾓｻﾞﾜ","pref":"神奈川県","city":"足柄上郡中井町","address":"鴨沢"},
{"zip_code":"2590143","kana_pref":"ｶﾅｶﾞﾜｹﾝ","kana_city":"ｱｼｶﾞﾗｶﾐｸﾞﾝﾅｶｲﾏﾁ","kana_address":"ｷﾀﾀﾞ","pref":"神奈川県","city":"足柄上郡中井町","address":"北田"},
{"zip_code":"2590142","kana_pref":"ｶﾅｶﾞﾜｹﾝ","kana_city":"ｱｼｶﾞﾗｶﾐｸﾞﾝﾅｶｲﾏﾁ","kana_address":"ｸﾞｿﾞ","pref":"神奈川県","city":"足柄上郡中井町","address":"久所"},
{"zip_code":"2590146","kana_pref":"ｶﾅｶﾞﾜｹﾝ","kana_city":"ｱｼｶﾞﾗｶﾐｸﾞﾝﾅｶｲﾏﾁ","kana_address":"ｺﾇﾀ","pref":"神奈川県","city":"足柄上郡中井町","address":"古怒田"},
{"zip_code":"2590157","kana_pref":"ｶﾅｶﾞﾜｹﾝ","kana_city":"ｱｼｶﾞﾗｶﾐｸﾞﾝﾅｶｲﾏﾁ","kana_address":"ｻｶｲ","pref":"神奈川県","city":"足柄上郡中井町","address":"境"},
{"zip_code":"2590156","kana_pref":"ｶﾅｶﾞﾜｹﾝ","kana_city":"ｱｼｶﾞﾗｶﾐｸﾞﾝﾅｶｲﾏﾁ","kana_address":"ｻｶｲﾍﾞｯｼｮ","pref":"神奈川県","city":"足柄上郡中井町","address":"境別所"},
{"zip_code":"2590148","kana_pref":"ｶﾅｶﾞﾜｹﾝ","kana_city":"ｱｼｶﾞﾗｶﾐｸﾞﾝﾅｶｲﾏﾁ","kana_address":"ｿﾞｳｼｷ","pref":"神奈川県","city":"足柄上郡中井町","address":"雑色"},
{"zip_code":"2590145","kana_pref":"ｶﾅｶﾞﾜｹﾝ","kana_city":"ｱｼｶﾞﾗｶﾐｸﾞﾝﾅｶｲﾏﾁ","kana_address":"ﾀﾅｶ","pref":"神奈川県","city":"足柄上郡中井町","address":"田中"},
{"zip_code":"2590144","kana_pref":"ｶﾅｶﾞﾜｹﾝ","kana_city":"ｱｼｶﾞﾗｶﾐｸﾞﾝﾅｶｲﾏﾁ","kana_address":"ﾊﾌﾞｶﾞﾀ","pref":"神奈川県","city":"足柄上郡中井町","address":"半分形"},
{"zip_code":"2590153","kana_pref":"ｶﾅｶﾞﾜｹﾝ","kana_city":"ｱｼｶﾞﾗｶﾐｸﾞﾝﾅｶｲﾏﾁ","kana_address":"ﾋﾅｸﾎﾞ","pref":"神奈川県","city":"足柄上郡中井町","address":"比奈窪"},
{"zip_code":"2590152","kana_pref":"ｶﾅｶﾞﾜｹﾝ","kana_city":"ｱｼｶﾞﾗｶﾐｸﾞﾝﾅｶｲﾏﾁ","kana_address":"ﾌｼﾞｻﾜ","pref":"神奈川県","city":"足柄上郡中井町","address":"藤沢"},
{"zip_code":"2590155","kana_pref":"ｶﾅｶﾞﾜｹﾝ","kana_city":"ｱｼｶﾞﾗｶﾐｸﾞﾝﾅｶｲﾏﾁ","kana_address":"ﾏﾂﾓﾄ","pref":"神奈川県","city":"足柄上郡中井町","address":"松本"},
{"zip_code":"2590200","kana_pref":"ｶﾅｶﾞﾜｹﾝ","kana_city":"ｱｼｶﾞﾗｼﾓｸﾞﾝﾏﾅﾂﾞﾙﾏﾁ","kana_address":"","pref":"神奈川県","city":"足柄下郡真鶴町","address":""},
{"zip_code":"2590202","kana_pref":"ｶﾅｶﾞﾜｹﾝ","kana_city":"ｱｼｶﾞﾗｼﾓｸﾞﾝﾏﾅﾂﾞﾙﾏﾁ","kana_address":"ｲﾜ","pref":"神奈川県","city":"足柄下郡真鶴町","address":"岩"},
{"zip_code":"2590201","kana_pref":"ｶﾅｶﾞﾜｹﾝ","kana_city":"ｱｼｶﾞﾗｼﾓｸﾞﾝﾏﾅﾂﾞﾙﾏﾁ","kana_address":"ﾏﾅﾂﾙ","pref":"神奈川県","city":"足柄下郡真鶴町","address":"真鶴"},
{"zip_code":"2590300","kana_pref":"ｶﾅｶﾞﾜｹﾝ","kana_city":"ｱｼｶﾞﾗｼﾓｸﾞﾝﾕｶﾞﾜﾗﾏﾁ","kana_address":"","pref":"神奈川県","city":"足柄下郡湯河原町","address":""},
{"zip_code":"2590313","kana_pref":"ｶﾅｶﾞﾜｹﾝ","kana_city":"ｱｼｶﾞﾗｼﾓｸﾞﾝﾕｶﾞﾜﾗﾏﾁ","kana_address":"ｶｼﾞﾔ","pref":"神奈川県","city":"足柄下郡湯河原町","address":"鍛冶屋"},
{"zip_code":"2590305","kana_pref":"ｶﾅｶﾞﾜｹﾝ","kana_city":"ｱｼｶﾞﾗｼﾓｸﾞﾝﾕｶﾞﾜﾗﾏﾁ","kana_address":"ｼﾛﾎﾘ","pref":"神奈川県","city":"足柄下郡湯河原町","address":"城堀"},
{"zip_code":"2590301","kana_pref":"ｶﾅｶﾞﾜｹﾝ","kana_city":"ｱｼｶﾞﾗｼﾓｸﾞﾝﾕｶﾞﾜﾗﾏﾁ","kana_address":"ﾁｭｳｵｳ","pref":"神奈川県","city":"足柄下郡湯河原町","address":"中央"},
{"zip_code":"2590303","kana_pref":"ｶﾅｶﾞﾜｹﾝ","kana_city":"ｱｼｶﾞﾗｼﾓｸﾞﾝﾕｶﾞﾜﾗﾏﾁ","kana_address":"ﾄﾞｲ","pref":"神奈川県","city":"足柄下郡湯河原町","address":"土肥"},
{"zip_code":"2590311","kana_pref":"ｶﾅｶﾞﾜｹﾝ","kana_city":"ｱｼｶﾞﾗｼﾓｸﾞﾝﾕｶﾞﾜﾗﾏﾁ","kana_address":"ﾌｸｳﾗ","pref":"神奈川県","city":"足柄下郡湯河原町","address":"福浦"},
{"zip_code":"2590317","kana_pref":"ｶﾅｶﾞﾜｹﾝ","kana_city":"ｱｼｶﾞﾗｼﾓｸﾞﾝﾕｶﾞﾜﾗﾏﾁ","kana_address":"ﾌｸｳﾗｶｼﾞﾔ","pref":"神奈川県","city":"足柄下郡湯河原町","address":"福浦鍛冶屋"},
{"zip_code":"2590316","kana_pref":"ｶﾅｶﾞﾜｹﾝ","kana_city":"ｱｼｶﾞﾗｼﾓｸﾞﾝﾕｶﾞﾜﾗﾏﾁ","kana_address":"ﾌｸｳﾗﾖｼﾊﾏ","pref":"神奈川県","city":"足柄下郡湯河原町","address":"福浦吉浜"},
{"zip_code":"2590314","kana_pref":"ｶﾅｶﾞﾜｹﾝ","kana_city":"ｱｼｶﾞﾗｼﾓｸﾞﾝﾕｶﾞﾜﾗﾏﾁ","kana_address":"ﾐﾔｶﾐ","pref":"神奈川県","city":"足柄下郡湯河原町","address":"宮上"},
{"zip_code":"2590304","kana_pref":"ｶﾅｶﾞﾜｹﾝ","kana_city":"ｱｼｶﾞﾗｼﾓｸﾞﾝﾕｶﾞﾜﾗﾏﾁ","kana_address":"ﾐﾔｼﾀ","pref":"神奈川県","city":"足柄下郡湯河原町","address":"宮下"},
{"zip_code":"2590302","kana_pref":"ｶﾅｶﾞﾜｹﾝ","kana_city":"ｱｼｶﾞﾗｼﾓｸﾞﾝﾕｶﾞﾜﾗﾏﾁ","kana_address":"ﾓﾝｶﾞﾜ","pref":"神奈川県","city":"足柄下郡湯河原町","address":"門川"},
{"zip_code":"2590312","kana_pref":"ｶﾅｶﾞﾜｹﾝ","kana_city":"ｱｼｶﾞﾗｼﾓｸﾞﾝﾕｶﾞﾜﾗﾏﾁ","kana_address":"ﾖｼﾊﾏ","pref":"神奈川県","city":"足柄下郡湯河原町","address":"吉浜"},
{"zip_code":"2590318","kana_pref":"ｶﾅｶﾞﾜｹﾝ","kana_city":"ｱｼｶﾞﾗｼﾓｸﾞﾝﾕｶﾞﾜﾗﾏﾁ","kana_address":"ﾖｼﾊﾏﾌｸｳﾗ","pref":"神奈川県","city":"足柄下郡湯河原町","address":"吉浜福浦"}]}