{"zip_code":[
{"zip_code":"2610000","kana_pref":"ﾁﾊﾞｹﾝ","kana_city":"ﾁﾊﾞｼﾐﾊﾏｸ","kana_address":"","pref":"千葉県","city":"千葉市美浜区","address":""},
{"zip_code":"2610012","kana_pref":"ﾁﾊﾞｹﾝ","kana_city":"ﾁﾊﾞｼﾐﾊﾏｸ","kana_address":"ｲｿﾍﾞ","pref":"千葉県","city":"千葉市美浜区","address":"磯辺"},
{"zip_code":"2610005","kana_pref":"ﾁﾊﾞｹﾝ","kana_city":"ﾁﾊﾞｼﾐﾊﾏｸ","kana_address":"ｲﾅｹﾞｶｲｶﾞﾝ","pref":"千葉県","city":"千葉市美浜区","address":"稲毛海岸"},
{"zip_code":"2610013","kana_pref":"ﾁﾊﾞｹﾝ","kana_city":"ﾁﾊﾞｼﾐﾊﾏｸ","kana_address":"ｳﾀｾ","pref":"千葉県","city":"千葉市美浜区","address":"打瀬"},
{"zip_code":"2610001","kana_pref":"ﾁﾊﾞｹﾝ","kana_city":"ﾁﾊﾞｼﾐﾊﾏｸ","kana_address":"ｻｲﾜｲﾁｮｳ","pref":"千葉県","city":"千葉市美浜区","address":"幸町"},
{"zip_code":"2610002","kana_pref":"ﾁﾊﾞｹﾝ","kana_city":"ﾁﾊﾞｼﾐﾊﾏｸ","kana_address":"ｼﾝﾐﾅﾄ","pref":"千葉県","city":"千葉市美浜区","address":"新港"},
{"zip_code":"2610004","kana_pref":"ﾁﾊﾞｹﾝ","kana_city":"ﾁﾊﾞｼﾐﾊﾏｸ","kana_address":"ﾀｶｽ","pref":"千葉県","city":"千葉市美浜区","address":"高洲"},
{"zip_code":"2610003","kana_pref":"ﾁﾊﾞｹﾝ","kana_city":"ﾁﾊﾞｼﾐﾊﾏｸ","kana_address":"ﾀｶﾊﾏ","pref":"千葉県","city":"千葉市美浜区","address":"高浜"},
{"zip_code":"2610024","kana_pref":"ﾁﾊﾞｹﾝ","kana_city":"ﾁﾊﾞｼﾐﾊﾏｸ","kana_address":"ﾄﾖｽﾅ","pref":"千葉県","city":"千葉市美浜区","address":"豊砂"},
{"zip_code":"2610023","kana_pref":"ﾁﾊﾞｹﾝ","kana_city":"ﾁﾊﾞｼﾐﾊﾏｸ","kana_address":"ﾅｶｾ","pref":"千葉県","city":"千葉市美浜区","address":"中瀬"},
{"zip_code":"2617190","kana_pref":"ﾁﾊﾞｹﾝ","kana_city":"ﾁﾊﾞｼﾐﾊﾏｸ","kana_address":"ﾅｶｾﾜｰﾙﾄﾞﾋﾞｼﾞﾈｽｶﾞｰﾃﾞﾝ","pref":"千葉県","city":"千葉市美浜区","address":"中瀬ワールドビジネスガーデン"},
{"zip_code":"2617101","kana_pref":"ﾁﾊﾞｹﾝ","kana_city":"ﾁﾊﾞｼﾐﾊﾏｸ","kana_address":"ﾅｶｾﾜｰﾙﾄﾞﾋﾞｼﾞﾈｽｶﾞｰﾃﾞﾝ","pref":"千葉県","city":"千葉市美浜区","address":"中瀬ワールドビジネスガーデン"},
{"zip_code":"2617102","kana_pref":"ﾁﾊﾞｹﾝ","kana_city":"ﾁﾊﾞｼﾐﾊﾏｸ","kana_address":"ﾅｶｾﾜｰﾙﾄﾞﾋﾞｼﾞﾈｽｶﾞｰﾃﾞﾝ","pref":"千葉県","city":"千葉市美浜区","address":"中瀬ワールドビジネスガーデン"},
{"zip_code":"2617103","kana_pref":"ﾁﾊﾞｹﾝ","kana_city":"ﾁﾊﾞｼﾐﾊﾏｸ","kana_address":"ﾅｶｾﾜｰﾙﾄﾞﾋﾞｼﾞﾈｽｶﾞｰﾃﾞﾝ","pref":"千葉県","city":"千葉市美浜区","address":"中瀬ワールドビジネスガーデン"},
{"zip_code":"2617104","kana_pref":"ﾁﾊﾞｹﾝ","kana_city":"ﾁﾊﾞｼﾐﾊﾏｸ","kana_address":"ﾅｶｾﾜｰﾙﾄﾞﾋﾞｼﾞﾈｽｶﾞｰﾃﾞﾝ","pref":"千葉県","city":"千葉市美浜区","address":"中瀬ワールドビジネスガーデン"},
{"zip_code":"2617105","kana_pref":"ﾁﾊﾞｹﾝ","kana_city":"ﾁﾊﾞｼﾐﾊﾏｸ","kana_address":"ﾅｶｾﾜｰﾙﾄﾞﾋﾞｼﾞﾈｽｶﾞｰﾃﾞﾝ","pref":"千葉県","city":"千葉市美浜区","address":"中瀬ワールドビジネスガーデン"},
{"zip_code":"2617106","kana_pref":"ﾁﾊﾞｹﾝ","kana_city":"ﾁﾊﾞｼﾐﾊﾏｸ","kana_address":"ﾅｶｾﾜｰﾙﾄﾞﾋﾞｼﾞﾈｽｶﾞｰﾃﾞﾝ","pref":"千葉県","city":"千葉市美浜区","address":"中瀬ワールドビジネスガーデン"},
{"zip_code":"2617107","kana_pref":"ﾁﾊﾞｹﾝ","kana_city":"ﾁﾊﾞｼﾐﾊﾏｸ","kana_address":"ﾅｶｾﾜｰﾙﾄﾞﾋﾞｼﾞﾈｽｶﾞｰﾃﾞﾝ","pref":"千葉県","city":"千葉市美浜区","address":"中瀬ワールドビジネスガーデン"},
{"zip_code":"2617108","kana_pref":"ﾁﾊﾞｹﾝ","kana_city":"ﾁﾊﾞｼﾐﾊﾏｸ","kana_address":"ﾅｶｾﾜｰﾙﾄﾞﾋﾞｼﾞﾈｽｶﾞｰﾃﾞﾝ","pref":"千葉県","city":"千葉市美浜区","address":"中瀬ワールドビジネスガーデン"},
{"zip_code":"2617109","kana_pref":"ﾁﾊﾞｹﾝ","kana_city":"ﾁﾊﾞｼﾐﾊﾏｸ","kana_address":"ﾅｶｾﾜｰﾙﾄﾞﾋﾞｼﾞﾈｽｶﾞｰﾃﾞﾝ","pref":"千葉県","city":"千葉市美浜区","address":"中瀬ワールドビジネスガーデン"},
{"zip_code":"2617110","kana_pref":"ﾁﾊﾞｹﾝ","kana_city":"ﾁﾊﾞｼﾐﾊﾏｸ","kana_address":"ﾅｶｾﾜｰﾙﾄﾞﾋﾞｼﾞﾈｽｶﾞｰﾃﾞﾝ","pref":"千葉県","city":"千葉市美浜区","address":"中瀬ワールドビジネスガーデン"},
{"zip_code":"2617111","kana_pref":"ﾁﾊﾞｹﾝ","kana_city":"ﾁﾊﾞｼﾐﾊﾏｸ","kana_address":"ﾅｶｾﾜｰﾙﾄﾞﾋﾞｼﾞﾈｽｶﾞｰﾃﾞﾝ","pref":"千葉県","city":"千葉市美浜区","address":"中瀬ワールドビジネスガーデン"},
{"zip_code":"2617112","kana_pref":"ﾁﾊﾞｹﾝ","kana_city":"ﾁﾊﾞｼﾐﾊﾏｸ","kana_address":"ﾅｶｾﾜｰﾙﾄﾞﾋﾞｼﾞﾈｽｶﾞｰﾃﾞﾝ","pref":"千葉県","city":"千葉市美浜区","address":"中瀬ワールドビジネスガーデン"},
{"zip_code":"2617113","kana_pref":"ﾁﾊﾞｹﾝ","kana_city":"ﾁﾊﾞｼﾐﾊﾏｸ","kana_address":"ﾅｶｾﾜｰﾙﾄﾞﾋﾞｼﾞﾈｽｶﾞｰﾃﾞﾝ","pref":"千葉県","city":"千葉市美浜区","address":"中瀬ワールドビジネスガーデン"},
{"zip_code":"2617114","kana_pref":"ﾁﾊﾞｹﾝ","kana_city":"ﾁﾊﾞｼﾐﾊﾏｸ","kana_address":"ﾅｶｾﾜｰﾙﾄﾞﾋﾞｼﾞﾈｽｶﾞｰﾃﾞﾝ","pref":"千葉県","city":"千葉市美浜区","address":"中瀬ワールドビジネスガーデン"},
{"zip_code":"2617115","kana_pref":"ﾁﾊﾞｹﾝ","kana_city":"ﾁﾊﾞｼﾐﾊﾏｸ","kana_address":"ﾅｶｾﾜｰﾙﾄﾞﾋﾞｼﾞﾈｽｶﾞｰﾃﾞﾝ","pref":"千葉県","city":"千葉市美浜区","address":"中瀬ワールドビジネスガーデン"},
{"zip_code":"2617116","kana_pref":"ﾁﾊﾞｹﾝ","kana_city":"ﾁﾊﾞｼﾐﾊﾏｸ","kana_address":"ﾅｶｾﾜｰﾙﾄﾞﾋﾞｼﾞﾈｽｶﾞｰﾃﾞﾝ","pref":"千葉県","city":"千葉市美浜区","address":"中瀬ワールドビジネスガーデン"},
{"zip_code":"2617117","kana_pref":"ﾁﾊﾞｹﾝ","kana_city":"ﾁﾊﾞｼﾐﾊﾏｸ","kana_address":"ﾅｶｾﾜｰﾙﾄﾞﾋﾞｼﾞﾈｽｶﾞｰﾃﾞﾝ","pref":"千葉県","city":"千葉市美浜区","address":"中瀬ワールドビジネスガーデン"},
{"zip_code":"2617118","kana_pref":"ﾁﾊﾞｹﾝ","kana_city":"ﾁﾊﾞｼﾐﾊﾏｸ","kana_address":"ﾅｶｾﾜｰﾙﾄﾞﾋﾞｼﾞﾈｽｶﾞｰﾃﾞﾝ","pref":"千葉県","city":"千葉市美浜区","address":"中瀬ワールドビジネスガーデン"},
{"zip_code":"2617119","kana_pref":"ﾁﾊﾞｹﾝ","kana_city":"ﾁﾊﾞｼﾐﾊﾏｸ","kana_address":"ﾅｶｾﾜｰﾙﾄﾞﾋﾞｼﾞﾈｽｶﾞｰﾃﾞﾝ","pref":"千葉県","city":"千葉市美浜区","address":"中瀬ワールドビジネスガーデン"},
{"zip_code":"2617120","kana_pref":"ﾁﾊﾞｹﾝ","kana_city":"ﾁﾊﾞｼﾐﾊﾏｸ","kana_address":"ﾅｶｾﾜｰﾙﾄﾞﾋﾞｼﾞﾈｽｶﾞｰﾃﾞﾝ","pref":"千葉県","city":"千葉市美浜区","address":"中瀬ワールドビジネスガーデン"},
{"zip_code":"2617121","kana_pref":"ﾁﾊﾞｹﾝ","kana_city":"ﾁﾊﾞｼﾐﾊﾏｸ","kana_address":"ﾅｶｾﾜｰﾙﾄﾞﾋﾞｼﾞﾈｽｶﾞｰﾃﾞﾝ","pref":"千葉県","city":"千葉市美浜区","address":"中瀬ワールドビジネスガーデン"},
{"zip_code":"2617122","kana_pref":"ﾁﾊﾞｹﾝ","kana_city":"ﾁﾊﾞｼﾐﾊﾏｸ","kana_address":"ﾅｶｾﾜｰﾙﾄﾞﾋﾞｼﾞﾈｽｶﾞｰﾃﾞﾝ","pref":"千葉県","city":"千葉市美浜区","address":"中瀬ワールドビジネスガーデン"},
{"zip_code":"2617123","kana_pref":"ﾁﾊﾞｹﾝ","kana_city":"ﾁﾊﾞｼﾐﾊﾏｸ","kana_address":"ﾅｶｾﾜｰﾙﾄﾞﾋﾞｼﾞﾈｽｶﾞｰﾃﾞﾝ","pref":"千葉県","city":"千葉市美浜区","address":"中瀬ワールドビジネスガーデン"},
{"zip_code":"2617124","kana_pref":"ﾁﾊﾞｹﾝ","kana_city":"ﾁﾊﾞｼﾐﾊﾏｸ","kana_address":"ﾅｶｾﾜｰﾙﾄﾞﾋﾞｼﾞﾈｽｶﾞｰﾃﾞﾝ","pref":"千葉県","city":"千葉市美浜区","address":"中瀬ワールドビジネスガーデン"},
{"zip_code":"2617125","kana_pref":"ﾁﾊﾞｹﾝ","kana_city":"ﾁﾊﾞｼﾐﾊﾏｸ","kana_address":"ﾅｶｾﾜｰﾙﾄﾞﾋﾞｼﾞﾈｽｶﾞｰﾃﾞﾝ","pref":"千葉県","city":"千葉市美浜区","address":"中瀬ワールドビジネスガーデン"},
{"zip_code":"2617126","kana_pref":"ﾁﾊﾞｹﾝ","kana_city":"ﾁﾊﾞｼﾐﾊﾏｸ","kana_address":"ﾅｶｾﾜｰﾙﾄﾞﾋﾞｼﾞﾈｽｶﾞｰﾃﾞﾝ","pref":"千葉県","city":"千葉市美浜区","address":"中瀬ワールドビジネスガーデン"},
{"zip_code":"2617127","kana_pref":"ﾁﾊﾞｹﾝ","kana_city":"ﾁﾊﾞｼﾐﾊﾏｸ","kana_address":"ﾅｶｾﾜｰﾙﾄﾞﾋﾞｼﾞﾈｽｶﾞｰﾃﾞﾝ","pref":"千葉県","city":"千葉市美浜区","address":"中瀬ワールドビジネスガーデン"},
{"zip_code":"2617128","kana_pref":"ﾁﾊﾞｹﾝ","kana_city":"ﾁﾊﾞｼﾐﾊﾏｸ","kana_address":"ﾅｶｾﾜｰﾙﾄﾞﾋﾞｼﾞﾈｽｶﾞｰﾃﾞﾝ","pref":"千葉県","city":"千葉市美浜区","address":"中瀬ワールドビジネスガーデン"},
{"zip_code":"2617129","kana_pref":"ﾁﾊﾞｹﾝ","kana_city":"ﾁﾊﾞｼﾐﾊﾏｸ","kana_address":"ﾅｶｾﾜｰﾙﾄﾞﾋﾞｼﾞﾈｽｶﾞｰﾃﾞﾝ","pref":"千葉県","city":"千葉市美浜区","address":"中瀬ワールドビジネスガーデン"},
{"zip_code":"2617130","kana_pref":"ﾁﾊﾞｹﾝ","kana_city":"ﾁﾊﾞｼﾐﾊﾏｸ","kana_address":"ﾅｶｾﾜｰﾙﾄﾞﾋﾞｼﾞﾈｽｶﾞｰﾃﾞﾝ","pref":"千葉県","city":"千葉市美浜区","address":"中瀬ワールドビジネスガーデン"},
{"zip_code":"2617131","kana_pref":"ﾁﾊﾞｹﾝ","kana_city":"ﾁﾊﾞｼﾐﾊﾏｸ","kana_address":"ﾅｶｾﾜｰﾙﾄﾞﾋﾞｼﾞﾈｽｶﾞｰﾃﾞﾝ","pref":"千葉県","city":"千葉市美浜区","address":"中瀬ワールドビジネスガーデン"},
{"zip_code":"2617132","kana_pref":"ﾁﾊﾞｹﾝ","kana_city":"ﾁﾊﾞｼﾐﾊﾏｸ","kana_address":"ﾅｶｾﾜｰﾙﾄﾞﾋﾞｼﾞﾈｽｶﾞｰﾃﾞﾝ","pref":"千葉県","city":"千葉市美浜区","address":"中瀬ワールドビジネスガーデン"},
{"zip_code":"2617133","kana_pref":"ﾁﾊﾞｹﾝ","kana_city":"ﾁﾊﾞｼﾐﾊﾏｸ","kana_address":"ﾅｶｾﾜｰﾙﾄﾞﾋﾞｼﾞﾈｽｶﾞｰﾃﾞﾝ","pref":"千葉県","city":"千葉市美浜区","address":"中瀬ワールドビジネスガーデン"},
{"zip_code":"2617134","kana_pref":"ﾁﾊﾞｹﾝ","kana_city":"ﾁﾊﾞｼﾐﾊﾏｸ","kana_address":"ﾅｶｾﾜｰﾙﾄﾞﾋﾞｼﾞﾈｽｶﾞｰﾃﾞﾝ","pref":"千葉県","city":"千葉市美浜区","address":"中瀬ワールドビジネスガーデン"},
{"zip_code":"2617135","kana_pref":"ﾁﾊﾞｹﾝ","kana_city":"ﾁﾊﾞｼﾐﾊﾏｸ","kana_address":"ﾅｶｾﾜｰﾙﾄﾞﾋﾞｼﾞﾈｽｶﾞｰﾃﾞﾝ","pref":"千葉県","city":"千葉市美浜区","address":"中瀬ワールドビジネスガーデン"},
{"zip_code":"2610025","kana_pref":"ﾁﾊﾞｹﾝ","kana_city":"ﾁﾊﾞｼﾐﾊﾏｸ","kana_address":"ﾊﾏﾀﾞ","pref":"千葉県","city":"千葉市美浜区","address":"浜田"},
{"zip_code":"2610021","kana_pref":"ﾁﾊﾞｹﾝ","kana_city":"ﾁﾊﾞｼﾐﾊﾏｸ","kana_address":"ﾋﾋﾞﾉ","pref":"千葉県","city":"千葉市美浜区","address":"ひび野"},
{"zip_code":"2610026","kana_pref":"ﾁﾊﾞｹﾝ","kana_city":"ﾁﾊﾞｼﾐﾊﾏｸ","kana_address":"ﾏｸﾊﾘﾆｼ","pref":"千葉県","city":"千葉市美浜区","address":"幕張西"},
{"zip_code":"2610011","kana_pref":"ﾁﾊﾞｹﾝ","kana_city":"ﾁﾊﾞｼﾐﾊﾏｸ","kana_address":"ﾏｻｺﾞ","pref":"千葉県","city":"千葉市美浜区","address":"真砂"},
{"zip_code":"2610022","kana_pref":"ﾁﾊﾞｹﾝ","kana_city":"ﾁﾊﾞｼﾐﾊﾏｸ","kana_address":"ﾐﾊﾏ","pref":"千葉県","city":"千葉市美浜区","address":"美浜"},
{"zip_code":"2610014","kana_pref":"ﾁﾊﾞｹﾝ","kana_city":"ﾁﾊﾞｼﾐﾊﾏｸ","kana_address":"ﾜｶﾊﾞ","pref":"千葉県","city":"千葉市美浜区","address":"若葉"}]}