{"zip_code":[
{"zip_code":"2620000","kana_pref":"ﾁﾊﾞｹﾝ","kana_city":"ﾁﾊﾞｼﾊﾅﾐｶﾞﾜｸ","kana_address":"","pref":"千葉県","city":"千葉市花見川区","address":""},
{"zip_code":"2620019","kana_pref":"ﾁﾊﾞｹﾝ","kana_city":"ﾁﾊﾞｼﾊﾅﾐｶﾞﾜｸ","kana_address":"ｱｻﾋｶﾞｵｶ","pref":"千葉県","city":"千葉市花見川区","address":"朝日ケ丘"},
{"zip_code":"2620017","kana_pref":"ﾁﾊﾞｹﾝ","kana_city":"ﾁﾊﾞｼﾊﾅﾐｶﾞﾜｸ","kana_address":"ｱｻﾋｶﾞｵｶﾁｮｳ","pref":"千葉県","city":"千葉市花見川区","address":"朝日ケ丘町"},
{"zip_code":"2620043","kana_pref":"ﾁﾊﾞｹﾝ","kana_city":"ﾁﾊﾞｼﾊﾅﾐｶﾞﾜｸ","kana_address":"ｱﾏﾄﾞﾁｮｳ","pref":"千葉県","city":"千葉市花見川区","address":"天戸町"},
{"zip_code":"2620002","kana_pref":"ﾁﾊﾞｹﾝ","kana_city":"ﾁﾊﾞｼﾊﾅﾐｶﾞﾜｸ","kana_address":"ｳﾁﾔﾏﾁｮｳ","pref":"千葉県","city":"千葉市花見川区","address":"内山町"},
{"zip_code":"2620003","kana_pref":"ﾁﾊﾞｹﾝ","kana_city":"ﾁﾊﾞｼﾊﾅﾐｶﾞﾜｸ","kana_address":"ｳﾅﾔﾁｮｳ","pref":"千葉県","city":"千葉市花見川区","address":"宇那谷町"},
{"zip_code":"2620048","kana_pref":"ﾁﾊﾞｹﾝ","kana_city":"ﾁﾊﾞｼﾊﾅﾐｶﾞﾜｸ","kana_address":"ｶｼﾜｲ","pref":"千葉県","city":"千葉市花見川区","address":"柏井"},
{"zip_code":"2620041","kana_pref":"ﾁﾊﾞｹﾝ","kana_city":"ﾁﾊﾞｼﾊﾅﾐｶﾞﾜｸ","kana_address":"ｶｼﾜｲﾁｮｳ","pref":"千葉県","city":"千葉市花見川区","address":"柏井町"},
{"zip_code":"2620023","kana_pref":"ﾁﾊﾞｹﾝ","kana_city":"ﾁﾊﾞｼﾊﾅﾐｶﾞﾜｸ","kana_address":"ｹﾐｶﾞﾜﾁｮｳ","pref":"千葉県","city":"千葉市花見川区","address":"検見川町"},
{"zip_code":"2620005","kana_pref":"ﾁﾊﾞｹﾝ","kana_city":"ﾁﾊﾞｼﾊﾅﾐｶﾞﾜｸ","kana_address":"ｺﾃﾊｼﾀﾞｲ","pref":"千葉県","city":"千葉市花見川区","address":"こてはし台"},
{"zip_code":"2620013","kana_pref":"ﾁﾊﾞｹﾝ","kana_city":"ﾁﾊﾞｼﾊﾅﾐｶﾞﾜｸ","kana_address":"ｺﾃﾊｼﾁｮｳ","pref":"千葉県","city":"千葉市花見川区","address":"犢橋町"},
{"zip_code":"2620045","kana_pref":"ﾁﾊﾞｹﾝ","kana_city":"ﾁﾊﾞｼﾊﾅﾐｶﾞﾜｸ","kana_address":"ｻｸｼﾝﾀﾞｲ","pref":"千葉県","city":"千葉市花見川区","address":"作新台"},
{"zip_code":"2620014","kana_pref":"ﾁﾊﾞｹﾝ","kana_city":"ﾁﾊﾞｼﾊﾅﾐｶﾞﾜｸ","kana_address":"ｻﾂｷｶﾞｵｶ","pref":"千葉県","city":"千葉市花見川区","address":"さつきが丘"},
{"zip_code":"2620011","kana_pref":"ﾁﾊﾞｹﾝ","kana_city":"ﾁﾊﾞｼﾊﾅﾐｶﾞﾜｸ","kana_address":"ｻﾝｶｸﾁｮｳ","pref":"千葉県","city":"千葉市花見川区","address":"三角町"},
{"zip_code":"2620031","kana_pref":"ﾁﾊﾞｹﾝ","kana_city":"ﾁﾊﾞｼﾊﾅﾐｶﾞﾜｸ","kana_address":"ﾀｹｲｼﾁｮｳ","pref":"千葉県","city":"千葉市花見川区","address":"武石町"},
{"zip_code":"2620004","kana_pref":"ﾁﾊﾞｹﾝ","kana_city":"ﾁﾊﾞｼﾊﾅﾐｶﾞﾜｸ","kana_address":"ﾀﾞｲﾆﾁﾁｮｳ","pref":"千葉県","city":"千葉市花見川区","address":"大日町"},
{"zip_code":"2620012","kana_pref":"ﾁﾊﾞｹﾝ","kana_city":"ﾁﾊﾞｼﾊﾅﾐｶﾞﾜｸ","kana_address":"ﾁｸﾞｻﾁｮｳ","pref":"千葉県","city":"千葉市花見川区","address":"千種町"},
{"zip_code":"2620047","kana_pref":"ﾁﾊﾞｹﾝ","kana_city":"ﾁﾊﾞｼﾊﾅﾐｶﾞﾜｸ","kana_address":"ﾅｶﾞｻｸﾀﾞｲ","pref":"千葉県","city":"千葉市花見川区","address":"長作台"},
{"zip_code":"2620044","kana_pref":"ﾁﾊﾞｹﾝ","kana_city":"ﾁﾊﾞｼﾊﾅﾐｶﾞﾜｸ","kana_address":"ﾅｶﾞｻｸﾁｮｳ","pref":"千葉県","city":"千葉市花見川区","address":"長作町"},
{"zip_code":"2620024","kana_pref":"ﾁﾊﾞｹﾝ","kana_city":"ﾁﾊﾞｼﾊﾅﾐｶﾞﾜｸ","kana_address":"ﾅﾆﾜﾁｮｳ","pref":"千葉県","city":"千葉市花見川区","address":"浪花町"},
{"zip_code":"2620016","kana_pref":"ﾁﾊﾞｹﾝ","kana_city":"ﾁﾊﾞｼﾊﾅﾐｶﾞﾜｸ","kana_address":"ﾆｼｺﾅｶﾀﾞｲ","pref":"千葉県","city":"千葉市花見川区","address":"西小中台"},
{"zip_code":"2620018","kana_pref":"ﾁﾊﾞｹﾝ","kana_city":"ﾁﾊﾞｼﾊﾅﾐｶﾞﾜｸ","kana_address":"ﾊﾀﾏﾁ","pref":"千葉県","city":"千葉市花見川区","address":"畑町"},
{"zip_code":"2620042","kana_pref":"ﾁﾊﾞｹﾝ","kana_city":"ﾁﾊﾞｼﾊﾅﾐｶﾞﾜｸ","kana_address":"ﾊﾅｼﾏﾁｮｳ","pref":"千葉県","city":"千葉市花見川区","address":"花島町"},
{"zip_code":"2620025","kana_pref":"ﾁﾊﾞｹﾝ","kana_city":"ﾁﾊﾞｼﾊﾅﾐｶﾞﾜｸ","kana_address":"ﾊﾅｿﾞﾉ","pref":"千葉県","city":"千葉市花見川区","address":"花園"},
{"zip_code":"2620021","kana_pref":"ﾁﾊﾞｹﾝ","kana_city":"ﾁﾊﾞｼﾊﾅﾐｶﾞﾜｸ","kana_address":"ﾊﾅｿﾞﾉﾁｮｳ","pref":"千葉県","city":"千葉市花見川区","address":"花園町"},
{"zip_code":"2620046","kana_pref":"ﾁﾊﾞｹﾝ","kana_city":"ﾁﾊﾞｼﾊﾅﾐｶﾞﾜｸ","kana_address":"ﾊﾅﾐｶﾞﾜ","pref":"千葉県","city":"千葉市花見川区","address":"花見川"},
{"zip_code":"2620032","kana_pref":"ﾁﾊﾞｹﾝ","kana_city":"ﾁﾊﾞｼﾊﾅﾐｶﾞﾜｸ","kana_address":"ﾏｸﾊﾘﾁｮｳ","pref":"千葉県","city":"千葉市花見川区","address":"幕張町"},
{"zip_code":"2620033","kana_pref":"ﾁﾊﾞｹﾝ","kana_city":"ﾁﾊﾞｼﾊﾅﾐｶﾞﾜｸ","kana_address":"ﾏｸﾊﾘﾎﾝｺﾞｳ","pref":"千葉県","city":"千葉市花見川区","address":"幕張本郷"},
{"zip_code":"2620026","kana_pref":"ﾁﾊﾞｹﾝ","kana_city":"ﾁﾊﾞｼﾊﾅﾐｶﾞﾜｸ","kana_address":"ﾐｽﾞﾎ","pref":"千葉県","city":"千葉市花見川区","address":"瑞穂"},
{"zip_code":"2620022","kana_pref":"ﾁﾊﾞｹﾝ","kana_city":"ﾁﾊﾞｼﾊﾅﾐｶﾞﾜｸ","kana_address":"ﾐﾅﾐﾊﾅｿﾞﾉ","pref":"千葉県","city":"千葉市花見川区","address":"南花園"},
{"zip_code":"2620007","kana_pref":"ﾁﾊﾞｹﾝ","kana_city":"ﾁﾊﾞｼﾊﾅﾐｶﾞﾜｸ","kana_address":"ﾐﾊﾙﾉ","pref":"千葉県","city":"千葉市花見川区","address":"み春野"},
{"zip_code":"2620015","kana_pref":"ﾁﾊﾞｹﾝ","kana_city":"ﾁﾊﾞｼﾊﾅﾐｶﾞﾜｸ","kana_address":"ﾐﾔﾉｷﾞﾀﾞｲ","pref":"千葉県","city":"千葉市花見川区","address":"宮野木台"},
{"zip_code":"2620006","kana_pref":"ﾁﾊﾞｹﾝ","kana_city":"ﾁﾊﾞｼﾊﾅﾐｶﾞﾜｸ","kana_address":"ﾖｺﾄﾞﾀﾞｲ","pref":"千葉県","city":"千葉市花見川区","address":"横戸台"},
{"zip_code":"2620001","kana_pref":"ﾁﾊﾞｹﾝ","kana_city":"ﾁﾊﾞｼﾊﾅﾐｶﾞﾜｸ","kana_address":"ﾖｺﾄﾞﾁｮｳ","pref":"千葉県","city":"千葉市花見川区","address":"横戸町"}]}