{"zip_code":[
{"zip_code":"2650063","kana_pref":"ﾁﾊﾞｹﾝ","kana_city":"ﾁﾊﾞｼﾜｶﾊﾞｸ","kana_address":"ｲｶﾂﾞﾁﾁｮｳ","pref":"千葉県","city":"千葉市若葉区","address":"五十土町"},
{"zip_code":"2650052","kana_pref":"ﾁﾊﾞｹﾝ","kana_city":"ﾁﾊﾞｼﾜｶﾊﾞｸ","kana_address":"ｲｽﾞﾐﾁｮｳ","pref":"千葉県","city":"千葉市若葉区","address":"和泉町"},
{"zip_code":"2650075","kana_pref":"ﾁﾊﾞｹﾝ","kana_city":"ﾁﾊﾞｼﾜｶﾊﾞｸ","kana_address":"ｵｵｲﾄﾞﾁｮｳ","pref":"千葉県","city":"千葉市若葉区","address":"大井戸町"},
{"zip_code":"2650064","kana_pref":"ﾁﾊﾞｹﾝ","kana_city":"ﾁﾊﾞｼﾜｶﾊﾞｸ","kana_address":"ｵｵﾋﾛﾁｮｳ","pref":"千葉県","city":"千葉市若葉区","address":"大広町"},
{"zip_code":"2650077","kana_pref":"ﾁﾊﾞｹﾝ","kana_city":"ﾁﾊﾞｼﾜｶﾊﾞｸ","kana_address":"ｵﾅﾘﾀﾞｲ","pref":"千葉県","city":"千葉市若葉区","address":"御成台"},
{"zip_code":"2650046","kana_pref":"ﾁﾊﾞｹﾝ","kana_city":"ﾁﾊﾞｼﾜｶﾊﾞｸ","kana_address":"ｵﾏｺﾞﾁｮｳ","pref":"千葉県","city":"千葉市若葉区","address":"小間子町"},
{"zip_code":"2650045","kana_pref":"ﾁﾊﾞｹﾝ","kana_city":"ﾁﾊﾞｼﾜｶﾊﾞｸ","kana_address":"ｶﾐｲｽﾞﾐﾁｮｳ","pref":"千葉県","city":"千葉市若葉区","address":"上泉町"},
{"zip_code":"2650062","kana_pref":"ﾁﾊﾞｹﾝ","kana_city":"ﾁﾊﾞｼﾜｶﾊﾞｸ","kana_address":"ｶﾜｲﾁｮｳ","pref":"千葉県","city":"千葉市若葉区","address":"川井町"},
{"zip_code":"2650067","kana_pref":"ﾁﾊﾞｹﾝ","kana_city":"ﾁﾊﾞｼﾜｶﾊﾞｸ","kana_address":"ｷﾀﾔﾂﾁｮｳ","pref":"千葉県","city":"千葉市若葉区","address":"北谷津町"},
{"zip_code":"2650042","kana_pref":"ﾁﾊﾞｹﾝ","kana_city":"ﾁﾊﾞｼﾜｶﾊﾞｸ","kana_address":"ｺｲｽﾞﾐﾁｮｳ","pref":"千葉県","city":"千葉市若葉区","address":"古泉町"},
{"zip_code":"2650074","kana_pref":"ﾁﾊﾞｹﾝ","kana_city":"ﾁﾊﾞｼﾜｶﾊﾞｸ","kana_address":"ｺﾞﾃﾝﾁｮｳ","pref":"千葉県","city":"千葉市若葉区","address":"御殿町"},
{"zip_code":"2650073","kana_pref":"ﾁﾊﾞｹﾝ","kana_city":"ﾁﾊﾞｼﾜｶﾊﾞｸ","kana_address":"ｻﾗｼﾅﾁｮｳ","pref":"千葉県","city":"千葉市若葉区","address":"更科町"},
{"zip_code":"2650065","kana_pref":"ﾁﾊﾞｹﾝ","kana_city":"ﾁﾊﾞｼﾜｶﾊﾞｸ","kana_address":"ｻﾜﾁｮｳ","pref":"千葉県","city":"千葉市若葉区","address":"佐和町"},
{"zip_code":"2650044","kana_pref":"ﾁﾊﾞｹﾝ","kana_city":"ﾁﾊﾞｼﾜｶﾊﾞｸ","kana_address":"ｼﾓｲｽﾞﾐﾁｮｳ","pref":"千葉県","city":"千葉市若葉区","address":"下泉町"},
{"zip_code":"2650076","kana_pref":"ﾁﾊﾞｹﾝ","kana_city":"ﾁﾊﾞｼﾜｶﾊﾞｸ","kana_address":"ｼﾓﾀﾞﾁｮｳ","pref":"千葉県","city":"千葉市若葉区","address":"下田町"},
{"zip_code":"2650061","kana_pref":"ﾁﾊﾞｹﾝ","kana_city":"ﾁﾊﾞｼﾜｶﾊﾞｸ","kana_address":"ﾀｶﾈﾁｮｳ","pref":"千葉県","city":"千葉市若葉区","address":"高根町"},
{"zip_code":"2650066","kana_pref":"ﾁﾊﾞｹﾝ","kana_city":"ﾁﾊﾞｼﾜｶﾊﾞｸ","kana_address":"ﾀﾍﾞﾀﾁｮｳ","pref":"千葉県","city":"千葉市若葉区","address":"多部田町"},
{"zip_code":"2650071","kana_pref":"ﾁﾊﾞｹﾝ","kana_city":"ﾁﾊﾞｼﾜｶﾊﾞｸ","kana_address":"ﾀﾞﾝﾔﾁｮｳ","pref":"千葉県","city":"千葉市若葉区","address":"旦谷町"},
{"zip_code":"2650041","kana_pref":"ﾁﾊﾞｹﾝ","kana_city":"ﾁﾊﾞｼﾜｶﾊﾞｸ","kana_address":"ﾄﾐﾀﾁｮｳ","pref":"千葉県","city":"千葉市若葉区","address":"富田町"},
{"zip_code":"2650043","kana_pref":"ﾁﾊﾞｹﾝ","kana_city":"ﾁﾊﾞｼﾜｶﾊﾞｸ","kana_address":"ﾅｶﾀﾁｮｳ","pref":"千葉県","city":"千葉市若葉区","address":"中田町"},
{"zip_code":"2650051","kana_pref":"ﾁﾊﾞｹﾝ","kana_city":"ﾁﾊﾞｼﾜｶﾊﾞｸ","kana_address":"ﾅｶﾉﾁｮｳ","pref":"千葉県","city":"千葉市若葉区","address":"中野町"},
{"zip_code":"2650053","kana_pref":"ﾁﾊﾞｹﾝ","kana_city":"ﾁﾊﾞｼﾜｶﾊﾞｸ","kana_address":"ﾉﾛﾁｮｳ","pref":"千葉県","city":"千葉市若葉区","address":"野呂町"},
{"zip_code":"2650072","kana_pref":"ﾁﾊﾞｹﾝ","kana_city":"ﾁﾊﾞｼﾜｶﾊﾞｸ","kana_address":"ﾔﾄｳﾁｮｳ","pref":"千葉県","city":"千葉市若葉区","address":"谷当町"}]}