{"zip_code":[
{"zip_code":"2660000","kana_pref":"ﾁﾊﾞｹﾝ","kana_city":"ﾁﾊﾞｼﾐﾄﾞﾘｸ","kana_address":"","pref":"千葉県","city":"千葉市緑区","address":""},
{"zip_code":"2660014","kana_pref":"ﾁﾊﾞｹﾝ","kana_city":"ﾁﾊﾞｼﾐﾄﾞﾘｸ","kana_address":"ｵｵｶﾈｻﾞﾜﾁｮｳ","pref":"千葉県","city":"千葉市緑区","address":"大金沢町"},
{"zip_code":"2660025","kana_pref":"ﾁﾊﾞｹﾝ","kana_city":"ﾁﾊﾞｼﾐﾄﾞﾘｸ","kana_address":"ｵﾁｲﾁｮｳ","pref":"千葉県","city":"千葉市緑区","address":"落井町"},
{"zip_code":"2660031","kana_pref":"ﾁﾊﾞｹﾝ","kana_city":"ﾁﾊﾞｼﾐﾄﾞﾘｸ","kana_address":"ｵﾕﾐﾉ","pref":"千葉県","city":"千葉市緑区","address":"おゆみ野"},
{"zip_code":"2660034","kana_pref":"ﾁﾊﾞｹﾝ","kana_city":"ﾁﾊﾞｼﾐﾄﾞﾘｸ","kana_address":"ｵﾕﾐﾉｱﾘﾖｼ","pref":"千葉県","city":"千葉市緑区","address":"おゆみ野有吉"},
{"zip_code":"2660032","kana_pref":"ﾁﾊﾞｹﾝ","kana_city":"ﾁﾊﾞｼﾐﾄﾞﾘｸ","kana_address":"ｵﾕﾐﾉﾁｭｳｵｳ","pref":"千葉県","city":"千葉市緑区","address":"おゆみ野中央"},
{"zip_code":"2660033","kana_pref":"ﾁﾊﾞｹﾝ","kana_city":"ﾁﾊﾞｼﾐﾄﾞﾘｸ","kana_address":"ｵﾕﾐﾉﾐﾅﾐ","pref":"千葉県","city":"千葉市緑区","address":"おゆみ野南"},
{"zip_code":"2660011","kana_pref":"ﾁﾊﾞｹﾝ","kana_city":"ﾁﾊﾞｼﾐﾄﾞﾘｸ","kana_address":"ｶﾏﾄﾘﾁｮｳ","pref":"千葉県","city":"千葉市緑区","address":"鎌取町"},
{"zip_code":"2660021","kana_pref":"ﾁﾊﾞｹﾝ","kana_city":"ﾁﾊﾞｼﾐﾄﾞﾘｸ","kana_address":"ｶﾘﾀｺﾞﾁｮｳ","pref":"千葉県","city":"千葉市緑区","address":"刈田子町"},
{"zip_code":"2660015","kana_pref":"ﾁﾊﾞｹﾝ","kana_city":"ﾁﾊﾞｼﾐﾄﾞﾘｸ","kana_address":"ｺｶﾈｻﾞﾜﾁｮｳ","pref":"千葉県","city":"千葉市緑区","address":"小金沢町"},
{"zip_code":"2660016","kana_pref":"ﾁﾊﾞｹﾝ","kana_city":"ﾁﾊﾞｼﾐﾄﾞﾘｸ","kana_address":"ｼｲﾅｻﾞｷﾁｮｳ","pref":"千葉県","city":"千葉市緑区","address":"椎名崎町"},
{"zip_code":"2660006","kana_pref":"ﾁﾊﾞｹﾝ","kana_city":"ﾁﾊﾞｼﾐﾄﾞﾘｸ","kana_address":"ﾀﾞｲｾﾞﾝﾉﾁｮｳ","pref":"千葉県","city":"千葉市緑区","address":"大膳野町"},
{"zip_code":"2660003","kana_pref":"ﾁﾊﾞｹﾝ","kana_city":"ﾁﾊﾞｼﾐﾄﾞﾘｸ","kana_address":"ﾀｶﾀﾞﾁｮｳ","pref":"千葉県","city":"千葉市緑区","address":"高田町"},
{"zip_code":"2660022","kana_pref":"ﾁﾊﾞｹﾝ","kana_city":"ﾁﾊﾞｼﾐﾄﾞﾘｸ","kana_address":"ﾄﾐｵｶﾁｮｳ","pref":"千葉県","city":"千葉市緑区","address":"富岡町"},
{"zip_code":"2660024","kana_pref":"ﾁﾊﾞｹﾝ","kana_city":"ﾁﾊﾞｼﾐﾄﾞﾘｸ","kana_address":"ﾅｶﾆｼﾁｮｳ","pref":"千葉県","city":"千葉市緑区","address":"中西町"},
{"zip_code":"2660001","kana_pref":"ﾁﾊﾞｹﾝ","kana_city":"ﾁﾊﾞｼﾐﾄﾞﾘｸ","kana_address":"ﾋｶﾞｼﾔﾏｼﾅﾁｮｳ","pref":"千葉県","city":"千葉市緑区","address":"東山科町"},
{"zip_code":"2660004","kana_pref":"ﾁﾊﾞｹﾝ","kana_city":"ﾁﾊﾞｼﾐﾄﾞﾘｸ","kana_address":"ﾋﾗｶﾜﾁｮｳ","pref":"千葉県","city":"千葉市緑区","address":"平川町"},
{"zip_code":"2660002","kana_pref":"ﾁﾊﾞｹﾝ","kana_city":"ﾁﾊﾞｼﾐﾄﾞﾘｸ","kana_address":"ﾋﾗﾔﾏﾁｮｳ","pref":"千葉県","city":"千葉市緑区","address":"平山町"},
{"zip_code":"2660026","kana_pref":"ﾁﾊﾞｹﾝ","kana_city":"ﾁﾊﾞｼﾐﾄﾞﾘｸ","kana_address":"ﾌﾙｲﾁﾊﾞﾁｮｳ","pref":"千葉県","city":"千葉市緑区","address":"古市場町"},
{"zip_code":"2660007","kana_pref":"ﾁﾊﾞｹﾝ","kana_city":"ﾁﾊﾞｼﾐﾄﾞﾘｸ","kana_address":"ﾍﾀﾁｮｳ","pref":"千葉県","city":"千葉市緑区","address":"辺田町"},
{"zip_code":"2660005","kana_pref":"ﾁﾊﾞｹﾝ","kana_city":"ﾁﾊﾞｼﾐﾄﾞﾘｸ","kana_address":"ﾎﾝﾀﾞﾁｮｳ","pref":"千葉県","city":"千葉市緑区","address":"誉田町"},
{"zip_code":"2660023","kana_pref":"ﾁﾊﾞｹﾝ","kana_city":"ﾁﾊﾞｼﾐﾄﾞﾘｸ","kana_address":"ﾓﾛﾁｮｳ","pref":"千葉県","city":"千葉市緑区","address":"茂呂町"}]}