{"zip_code":[
{"zip_code":"2670066","kana_pref":"ﾁﾊﾞｹﾝ","kana_city":"ﾁﾊﾞｼﾐﾄﾞﾘｸ","kana_address":"ｱｽﾐｶﾞｵｶ","pref":"千葉県","city":"千葉市緑区","address":"あすみが丘"},
{"zip_code":"2670067","kana_pref":"ﾁﾊﾞｹﾝ","kana_city":"ﾁﾊﾞｼﾐﾄﾞﾘｸ","kana_address":"ｱｽﾐｶﾞｵｶﾋｶﾞｼ","pref":"千葉県","city":"千葉市緑区","address":"あすみが丘東"},
{"zip_code":"2670064","kana_pref":"ﾁﾊﾞｹﾝ","kana_city":"ﾁﾊﾞｼﾐﾄﾞﾘｸ","kana_address":"ｲﾀｸﾗﾁｮｳ","pref":"千葉県","city":"千葉市緑区","address":"板倉町"},
{"zip_code":"2670057","kana_pref":"ﾁﾊﾞｹﾝ","kana_city":"ﾁﾊﾞｼﾐﾄﾞﾘｸ","kana_address":"ｵｵｷﾄﾞﾁｮｳ","pref":"千葉県","city":"千葉市緑区","address":"大木戸町"},
{"zip_code":"2670065","kana_pref":"ﾁﾊﾞｹﾝ","kana_city":"ﾁﾊﾞｼﾐﾄﾞﾘｸ","kana_address":"ｵｵｼﾞﾁｮｳ","pref":"千葉県","city":"千葉市緑区","address":"大椎町"},
{"zip_code":"2670054","kana_pref":"ﾁﾊﾞｹﾝ","kana_city":"ﾁﾊﾞｼﾐﾄﾞﾘｸ","kana_address":"ｵｵﾀｶﾁｮｳ","pref":"千葉県","city":"千葉市緑区","address":"大高町"},
{"zip_code":"2670056","kana_pref":"ﾁﾊﾞｹﾝ","kana_city":"ﾁﾊﾞｼﾐﾄﾞﾘｸ","kana_address":"ｵｵﾉﾀﾞｲ","pref":"千葉県","city":"千葉市緑区","address":"大野台"},
{"zip_code":"2670055","kana_pref":"ﾁﾊﾞｹﾝ","kana_city":"ﾁﾊﾞｼﾐﾄﾞﾘｸ","kana_address":"ｵﾁﾁｮｳ","pref":"千葉県","city":"千葉市緑区","address":"越智町"},
{"zip_code":"2670063","kana_pref":"ﾁﾊﾞｹﾝ","kana_city":"ﾁﾊﾞｼﾐﾄﾞﾘｸ","kana_address":"ｵﾔﾏﾁｮｳ","pref":"千葉県","city":"千葉市緑区","address":"小山町"},
{"zip_code":"2670051","kana_pref":"ﾁﾊﾞｹﾝ","kana_city":"ﾁﾊﾞｼﾐﾄﾞﾘｸ","kana_address":"ｶﾐｵｵﾜﾀﾞﾁｮｳ","pref":"千葉県","city":"千葉市緑区","address":"上大和田町"},
{"zip_code":"2670052","kana_pref":"ﾁﾊﾞｹﾝ","kana_city":"ﾁﾊﾞｼﾐﾄﾞﾘｸ","kana_address":"ｼﾓｵｵﾜﾀﾞﾁｮｳ","pref":"千葉県","city":"千葉市緑区","address":"下大和田町"},
{"zip_code":"2670053","kana_pref":"ﾁﾊﾞｹﾝ","kana_city":"ﾁﾊﾞｼﾐﾄﾞﾘｸ","kana_address":"ﾀｶﾂﾄﾞﾁｮｳ","pref":"千葉県","city":"千葉市緑区","address":"高津戸町"},
{"zip_code":"2670061","kana_pref":"ﾁﾊﾞｹﾝ","kana_city":"ﾁﾊﾞｼﾐﾄﾞﾘｸ","kana_address":"ﾄｹﾁｮｳ","pref":"千葉県","city":"千葉市緑区","address":"土気町"},
{"zip_code":"2670062","kana_pref":"ﾁﾊﾞｹﾝ","kana_city":"ﾁﾊﾞｼﾐﾄﾞﾘｸ","kana_address":"ﾔｻｼﾄﾞﾁｮｳ","pref":"千葉県","city":"千葉市緑区","address":"小食土町"}]}