{"zip_code":[
{"zip_code":"2701471","kana_pref":"ﾁﾊﾞｹﾝ","kana_city":"ﾌﾅﾊﾞｼｼ","kana_address":"ｺﾑﾛﾁｮｳ","pref":"千葉県","city":"船橋市","address":"小室町"},
{"zip_code":"2700000","kana_pref":"ﾁﾊﾞｹﾝ","kana_city":"ﾏﾂﾄﾞｼ","kana_address":"","pref":"千葉県","city":"松戸市","address":""},
{"zip_code":"2702223","kana_pref":"ﾁﾊﾞｹﾝ","kana_city":"ﾏﾂﾄﾞｼ","kana_address":"ｱｷﾔﾏ","pref":"千葉県","city":"松戸市","address":"秋山"},
{"zip_code":"2700006","kana_pref":"ﾁﾊﾞｹﾝ","kana_city":"ﾏﾂﾄﾞｼ","kana_address":"ｵｵｶﾞﾈﾀﾞｲﾗ","pref":"千葉県","city":"松戸市","address":"大金平"},
{"zip_code":"2702224","kana_pref":"ﾁﾊﾞｹﾝ","kana_city":"ﾏﾂﾄﾞｼ","kana_address":"ｵｵﾊｼ","pref":"千葉県","city":"松戸市","address":"大橋"},
{"zip_code":"2700005","kana_pref":"ﾁﾊﾞｹﾝ","kana_city":"ﾏﾂﾄﾞｼ","kana_address":"ｵｵﾔｸﾞﾁ","pref":"千葉県","city":"松戸市","address":"大谷口"},
{"zip_code":"2700036","kana_pref":"ﾁﾊﾞｹﾝ","kana_city":"ﾏﾂﾄﾞｼ","kana_address":"ｵｵﾔｸﾞﾁｼﾝﾃﾞﾝ","pref":"千葉県","city":"松戸市","address":"大谷口新田"},
{"zip_code":"2700018","kana_pref":"ﾁﾊﾞｹﾝ","kana_city":"ﾏﾂﾄﾞｼ","kana_address":"ｶｽﾞｻｳﾁ","pref":"千葉県","city":"松戸市","address":"上総内"},
{"zip_code":"2702251","kana_pref":"ﾁﾊﾞｹﾝ","kana_city":"ﾏﾂﾄﾞｼ","kana_address":"ｶﾈｶﾞｻｸ","pref":"千葉県","city":"松戸市","address":"金ケ作"},
{"zip_code":"2702221","kana_pref":"ﾁﾊﾞｹﾝ","kana_city":"ﾏﾂﾄﾞｼ","kana_address":"ｶﾐｼｷ","pref":"千葉県","city":"松戸市","address":"紙敷"},
{"zip_code":"2702254","kana_pref":"ﾁﾊﾞｹﾝ","kana_city":"ﾏﾂﾄﾞｼ","kana_address":"ｶﾜﾗﾂﾞｶ","pref":"千葉県","city":"松戸市","address":"河原塚"},
{"zip_code":"2702216","kana_pref":"ﾁﾊﾞｹﾝ","kana_city":"ﾏﾂﾄﾞｼ","kana_address":"ｸｼｻﾞｷｼﾝﾃﾞﾝ","pref":"千葉県","city":"松戸市","address":"串崎新田"},
{"zip_code":"2702215","kana_pref":"ﾁﾊﾞｹﾝ","kana_city":"ﾏﾂﾄﾞｼ","kana_address":"ｸｼｻﾞｷﾐﾅﾐﾁｮｳ","pref":"千葉県","city":"松戸市","address":"串崎南町"},
{"zip_code":"2700012","kana_pref":"ﾁﾊﾞｹﾝ","kana_city":"ﾏﾂﾄﾞｼ","kana_address":"ｸﾎﾞﾋﾗｶﾞ","pref":"千葉県","city":"松戸市","address":"久保平賀"},
{"zip_code":"2700022","kana_pref":"ﾁﾊﾞｹﾝ","kana_city":"ﾏﾂﾄﾞｼ","kana_address":"ｸﾘｶﾞｻﾜ","pref":"千葉県","city":"松戸市","address":"栗ケ沢"},
{"zip_code":"2700001","kana_pref":"ﾁﾊﾞｹﾝ","kana_city":"ﾏﾂﾄﾞｼ","kana_address":"ｺｳﾃﾞ","pref":"千葉県","city":"松戸市","address":"幸田"},
{"zip_code":"2700017","kana_pref":"ﾁﾊﾞｹﾝ","kana_city":"ﾏﾂﾄﾞｼ","kana_address":"ｺｳﾔ","pref":"千葉県","city":"松戸市","address":"幸谷"},
{"zip_code":"2700014","kana_pref":"ﾁﾊﾞｹﾝ","kana_city":"ﾏﾂﾄﾞｼ","kana_address":"ｺｶﾞﾈ","pref":"千葉県","city":"松戸市","address":"小金"},
{"zip_code":"2700015","kana_pref":"ﾁﾊﾞｹﾝ","kana_city":"ﾏﾂﾄﾞｼ","kana_address":"ｺｶﾞﾈｶｽﾞｻﾁｮｳ","pref":"千葉県","city":"松戸市","address":"小金上総町"},
{"zip_code":"2700013","kana_pref":"ﾁﾊﾞｹﾝ","kana_city":"ﾏﾂﾄﾞｼ","kana_address":"ｺｶﾞﾈｷﾖｼｶﾞｵｶ","pref":"千葉県","city":"松戸市","address":"小金きよしケ丘"},
{"zip_code":"2700016","kana_pref":"ﾁﾊﾞｹﾝ","kana_city":"ﾏﾂﾄﾞｼ","kana_address":"ｺｶﾞﾈｷﾖｼﾁｮｳ","pref":"千葉県","city":"松戸市","address":"小金清志町"},
{"zip_code":"2700021","kana_pref":"ﾁﾊﾞｹﾝ","kana_city":"ﾏﾂﾄﾞｼ","kana_address":"ｺｶﾞﾈﾊﾗ","pref":"千葉県","city":"松戸市","address":"小金原"},
{"zip_code":"2702213","kana_pref":"ﾁﾊﾞｹﾝ","kana_city":"ﾏﾂﾄﾞｼ","kana_address":"ｺﾞｺｳ","pref":"千葉県","city":"松戸市","address":"五香"},
{"zip_code":"2702218","kana_pref":"ﾁﾊﾞｹﾝ","kana_city":"ﾏﾂﾄﾞｼ","kana_address":"ｺﾞｺｳﾆｼ","pref":"千葉県","city":"松戸市","address":"五香西"},
{"zip_code":"2702212","kana_pref":"ﾁﾊﾞｹﾝ","kana_city":"ﾏﾂﾄﾞｼ","kana_address":"ｺﾞｺｳﾐﾅﾐ","pref":"千葉県","city":"松戸市","address":"五香南"},
{"zip_code":"2702211","kana_pref":"ﾁﾊﾞｹﾝ","kana_city":"ﾏﾂﾄﾞｼ","kana_address":"ｺﾞｺｳﾑﾂﾐ","pref":"千葉県","city":"松戸市","address":"五香六実"},
{"zip_code":"2700034","kana_pref":"ﾁﾊﾞｹﾝ","kana_city":"ﾏﾂﾄﾞｼ","kana_address":"ｼﾝﾏﾂﾄﾞ","pref":"千葉県","city":"松戸市","address":"新松戸"},
{"zip_code":"2700033","kana_pref":"ﾁﾊﾞｹﾝ","kana_city":"ﾏﾂﾄﾞｼ","kana_address":"ｼﾝﾏﾂﾄﾞﾋｶﾞｼ","pref":"千葉県","city":"松戸市","address":"新松戸東"},
{"zip_code":"2700035","kana_pref":"ﾁﾊﾞｹﾝ","kana_city":"ﾏﾂﾄﾞｼ","kana_address":"ｼﾝﾏﾂﾄﾞﾐﾅﾐ","pref":"千葉県","city":"松戸市","address":"新松戸南"},
{"zip_code":"2700032","kana_pref":"ﾁﾊﾞｹﾝ","kana_city":"ﾏﾂﾄﾞｼ","kana_address":"ｼﾝﾏﾂﾄﾞｷﾀ","pref":"千葉県","city":"松戸市","address":"新松戸北"},
{"zip_code":"2702252","kana_pref":"ﾁﾊﾞｹﾝ","kana_city":"ﾏﾂﾄﾞｼ","kana_address":"ｾﾝﾀﾞﾎﾞﾘ","pref":"千葉県","city":"松戸市","address":"千駄堀"},
{"zip_code":"2702222","kana_pref":"ﾁﾊﾞｹﾝ","kana_city":"ﾏﾂﾄﾞｼ","kana_address":"ﾀｶﾂｶｼﾝﾃﾞﾝ","pref":"千葉県","city":"松戸市","address":"高塚新田"},
{"zip_code":"2702202","kana_pref":"ﾁﾊﾞｹﾝ","kana_city":"ﾏﾂﾄﾞｼ","kana_address":"ﾀｶﾔﾅｷﾞ","pref":"千葉県","city":"松戸市","address":"高柳"},
{"zip_code":"2702201","kana_pref":"ﾁﾊﾞｹﾝ","kana_city":"ﾏﾂﾄﾞｼ","kana_address":"ﾀｶﾔﾅｷﾞｼﾝﾃﾞﾝ","pref":"千葉県","city":"松戸市","address":"高柳新田"},
{"zip_code":"2702255","kana_pref":"ﾁﾊﾞｹﾝ","kana_city":"ﾏﾂﾄﾞｼ","kana_address":"ﾀﾅｶｼﾝﾃﾞﾝ","pref":"千葉県","city":"松戸市","address":"田中新田"},
{"zip_code":"2702261","kana_pref":"ﾁﾊﾞｹﾝ","kana_city":"ﾏﾂﾄﾞｼ","kana_address":"ﾄｷﾜﾀﾞｲﾗ","pref":"千葉県","city":"松戸市","address":"常盤平"},
{"zip_code":"2702265","kana_pref":"ﾁﾊﾞｹﾝ","kana_city":"ﾏﾂﾄﾞｼ","kana_address":"ﾄｷﾜﾀﾞｲﾗｼﾞﾝﾔﾏｴ","pref":"千葉県","city":"松戸市","address":"常盤平陣屋前"},
{"zip_code":"2702266","kana_pref":"ﾁﾊﾞｹﾝ","kana_city":"ﾏﾂﾄﾞｼ","kana_address":"ﾄｷﾜﾀﾞｲﾗﾆｼｸﾎﾞﾁｮｳ","pref":"千葉県","city":"松戸市","address":"常盤平西窪町"},
{"zip_code":"2702262","kana_pref":"ﾁﾊﾞｹﾝ","kana_city":"ﾏﾂﾄﾞｼ","kana_address":"ﾄｷﾜﾀﾞｲﾗﾌﾀﾊﾞﾁｮｳ","pref":"千葉県","city":"松戸市","address":"常盤平双葉町"},
{"zip_code":"2702264","kana_pref":"ﾁﾊﾞｹﾝ","kana_city":"ﾏﾂﾄﾞｼ","kana_address":"ﾄｷﾜﾀﾞｲﾗﾏﾂﾊﾞﾁｮｳ","pref":"千葉県","city":"松戸市","address":"常盤平松葉町"},
{"zip_code":"2702263","kana_pref":"ﾁﾊﾞｹﾝ","kana_city":"ﾏﾂﾄﾞｼ","kana_address":"ﾄｷﾜﾀﾞｲﾗﾔﾅｷﾞﾁｮｳ","pref":"千葉県","city":"松戸市","address":"常盤平柳町"},
{"zip_code":"2700004","kana_pref":"ﾁﾊﾞｹﾝ","kana_city":"ﾏﾂﾄﾞｼ","kana_address":"ﾄﾉﾋﾗｶﾞ","pref":"千葉県","city":"松戸市","address":"殿平賀"},
{"zip_code":"2702242","kana_pref":"ﾁﾊﾞｹﾝ","kana_city":"ﾏﾂﾄﾞｼ","kana_address":"ﾅｶｲﾁｮｳ","pref":"千葉県","city":"松戸市","address":"仲井町"},
{"zip_code":"2700007","kana_pref":"ﾁﾊﾞｹﾝ","kana_city":"ﾏﾂﾄﾞｼ","kana_address":"ﾅｶｶﾅｽｷﾞ","pref":"千葉県","city":"松戸市","address":"中金杉"},
{"zip_code":"2700025","kana_pref":"ﾁﾊﾞｹﾝ","kana_city":"ﾏﾂﾄﾞｼ","kana_address":"ﾅｶﾜｸﾗ","pref":"千葉県","city":"松戸市","address":"中和倉"},
{"zip_code":"2700011","kana_pref":"ﾁﾊﾞｹﾝ","kana_city":"ﾏﾂﾄﾞｼ","kana_address":"ﾈｷﾞｳﾁ","pref":"千葉県","city":"松戸市","address":"根木内"},
{"zip_code":"2702243","kana_pref":"ﾁﾊﾞｹﾝ","kana_city":"ﾏﾂﾄﾞｼ","kana_address":"ﾉｷﾞｸﾉ","pref":"千葉県","city":"松戸市","address":"野菊野"},
{"zip_code":"2700023","kana_pref":"ﾁﾊﾞｹﾝ","kana_city":"ﾏﾂﾄﾞｼ","kana_address":"ﾊﾁｶﾞｻｷ","pref":"千葉県","city":"松戸市","address":"八ケ崎"},
{"zip_code":"2700024","kana_pref":"ﾁﾊﾞｹﾝ","kana_city":"ﾏﾂﾄﾞｼ","kana_address":"ﾊﾁｶﾞｻｷﾐﾄﾞﾘﾁｮｳ","pref":"千葉県","city":"松戸市","address":"八ケ崎緑町"},
{"zip_code":"2702217","kana_pref":"ﾁﾊﾞｹﾝ","kana_city":"ﾏﾂﾄﾞｼ","kana_address":"ﾊﾂﾄﾐﾄﾋﾞﾁ","pref":"千葉県","city":"松戸市","address":"初富飛地"},
{"zip_code":"2700003","kana_pref":"ﾁﾊﾞｹﾝ","kana_city":"ﾏﾂﾄﾞｼ","kana_address":"ﾋｶﾞｼﾋﾗｶﾞ","pref":"千葉県","city":"松戸市","address":"東平賀"},
{"zip_code":"2702225","kana_pref":"ﾁﾊﾞｹﾝ","kana_city":"ﾏﾂﾄﾞｼ","kana_address":"ﾋｶﾞｼﾏﾂﾄﾞ","pref":"千葉県","city":"松戸市","address":"東松戸"},
{"zip_code":"2702253","kana_pref":"ﾁﾊﾞｹﾝ","kana_city":"ﾏﾂﾄﾞｼ","kana_address":"ﾋｸﾞﾗｼ","pref":"千葉県","city":"松戸市","address":"日暮"},
{"zip_code":"2700002","kana_pref":"ﾁﾊﾞｹﾝ","kana_city":"ﾏﾂﾄﾞｼ","kana_address":"ﾋﾗｶﾞ","pref":"千葉県","city":"松戸市","address":"平賀"},
{"zip_code":"2700027","kana_pref":"ﾁﾊﾞｹﾝ","kana_city":"ﾏﾂﾄﾞｼ","kana_address":"ﾌﾀﾂｷﾞ","pref":"千葉県","city":"松戸市","address":"二ツ木"},
{"zip_code":"2700028","kana_pref":"ﾁﾊﾞｹﾝ","kana_city":"ﾏﾂﾄﾞｼ","kana_address":"ﾌﾀﾂｷﾞﾌﾀﾊﾞﾁｮｳ","pref":"千葉県","city":"松戸市","address":"二ツ木二葉町"},
{"zip_code":"2702267","kana_pref":"ﾁﾊﾞｹﾝ","kana_city":"ﾏﾂﾄﾞｼ","kana_address":"ﾏｷﾉﾊﾗ","pref":"千葉県","city":"松戸市","address":"牧の原"},
{"zip_code":"2702241","kana_pref":"ﾁﾊﾞｹﾝ","kana_city":"ﾏﾂﾄﾞｼ","kana_address":"ﾏﾂﾄﾞｼﾝﾃﾞﾝ","pref":"千葉県","city":"松戸市","address":"松戸新田"},
{"zip_code":"2702214","kana_pref":"ﾁﾊﾞｹﾝ","kana_city":"ﾏﾂﾄﾞｼ","kana_address":"ﾏﾂﾋﾀﾞｲ","pref":"千葉県","city":"松戸市","address":"松飛台"},
{"zip_code":"2700026","kana_pref":"ﾁﾊﾞｹﾝ","kana_city":"ﾏﾂﾄﾞｼ","kana_address":"ﾐｺｾﾞ","pref":"千葉県","city":"松戸市","address":"三ケ月"},
{"zip_code":"2702231","kana_pref":"ﾁﾊﾞｹﾝ","kana_city":"ﾏﾂﾄﾞｼ","kana_address":"ﾐﾉﾘﾀﾞｲ","pref":"千葉県","city":"松戸市","address":"稔台"},
{"zip_code":"2702204","kana_pref":"ﾁﾊﾞｹﾝ","kana_city":"ﾏﾂﾄﾞｼ","kana_address":"ﾑﾂﾐ","pref":"千葉県","city":"松戸市","address":"六実"},
{"zip_code":"2700031","kana_pref":"ﾁﾊﾞｹﾝ","kana_city":"ﾏﾂﾄﾞｼ","kana_address":"ﾖｺｽｶ","pref":"千葉県","city":"松戸市","address":"横須賀"},
{"zip_code":"2702203","kana_pref":"ﾁﾊﾞｹﾝ","kana_city":"ﾏﾂﾄﾞｼ","kana_address":"ﾛｯｺｳﾀﾞｲ","pref":"千葉県","city":"松戸市","address":"六高台"},
{"zip_code":"2702205","kana_pref":"ﾁﾊﾞｹﾝ","kana_city":"ﾏﾂﾄﾞｼ","kana_address":"ﾛｯｺｳﾀﾞｲﾆｼ","pref":"千葉県","city":"松戸市","address":"六高台西"},
{"zip_code":"2702232","kana_pref":"ﾁﾊﾞｹﾝ","kana_city":"ﾏﾂﾄﾞｼ","kana_address":"ﾜﾅｶﾞﾔ","pref":"千葉県","city":"松戸市","address":"和名ケ谷"},
{"zip_code":"2700239","kana_pref":"ﾁﾊﾞｹﾝ","kana_city":"ﾉﾀﾞｼ","kana_address":"ｲｽﾞﾐ","pref":"千葉県","city":"野田市","address":"泉"},
{"zip_code":"2700223","kana_pref":"ﾁﾊﾞｹﾝ","kana_city":"ﾉﾀﾞｼ","kana_address":"ｵｶﾀﾞ","pref":"千葉県","city":"野田市","address":"岡田"},
{"zip_code":"2700235","kana_pref":"ﾁﾊﾞｹﾝ","kana_city":"ﾉﾀﾞｼ","kana_address":"ｵｻｷ","pref":"千葉県","city":"野田市","address":"尾崎"},
{"zip_code":"2700238","kana_pref":"ﾁﾊﾞｹﾝ","kana_city":"ﾉﾀﾞｼ","kana_address":"ｵｻﾞｷﾀﾞｲ","pref":"千葉県","city":"野田市","address":"尾崎台"},
{"zip_code":"2700227","kana_pref":"ﾁﾊﾞｹﾝ","kana_city":"ﾉﾀﾞｼ","kana_address":"ｵﾔﾉｲ","pref":"千葉県","city":"野田市","address":"親野井"},
{"zip_code":"2700231","kana_pref":"ﾁﾊﾞｹﾝ","kana_city":"ﾉﾀﾞｼ","kana_address":"ｵﾔﾏ","pref":"千葉県","city":"野田市","address":"小山"},
{"zip_code":"2700214","kana_pref":"ﾁﾊﾞｹﾝ","kana_city":"ﾉﾀﾞｼ","kana_address":"ｶｼﾜﾃﾞﾗ","pref":"千葉県","city":"野田市","address":"柏寺"},
{"zip_code":"2700222","kana_pref":"ﾁﾊﾞｹﾝ","kana_city":"ﾉﾀﾞｼ","kana_address":"ｷﾏｶﾞｾ","pref":"千葉県","city":"野田市","address":"木間ケ瀬"},
{"zip_code":"2700213","kana_pref":"ﾁﾊﾞｹﾝ","kana_city":"ﾉﾀﾞｼ","kana_address":"ｷﾘｶﾞｻｸ","pref":"千葉県","city":"野田市","address":"桐ケ作"},
{"zip_code":"2700221","kana_pref":"ﾁﾊﾞｹﾝ","kana_city":"ﾉﾀﾞｼ","kana_address":"ｺﾌﾞｳﾁ","pref":"千葉県","city":"野田市","address":"古布内"},
{"zip_code":"2700204","kana_pref":"ﾁﾊﾞｹﾝ","kana_city":"ﾉﾀﾞｼ","kana_address":"ｾｷﾔﾄﾞｳﾁﾏﾁ","pref":"千葉県","city":"野田市","address":"関宿内町"},
{"zip_code":"2700205","kana_pref":"ﾁﾊﾞｹﾝ","kana_city":"ﾉﾀﾞｼ","kana_address":"ｾｷﾔﾄﾞｴﾄﾞﾏﾁ","pref":"千葉県","city":"野田市","address":"関宿江戸町"},
{"zip_code":"2700201","kana_pref":"ﾁﾊﾞｹﾝ","kana_city":"ﾉﾀﾞｼ","kana_address":"ｾｷﾔﾄﾞｻﾝｹﾞﾝﾔ","pref":"千葉県","city":"野田市","address":"関宿三軒家"},
{"zip_code":"2700202","kana_pref":"ﾁﾊﾞｹﾝ","kana_city":"ﾉﾀﾞｼ","kana_address":"ｾｷﾔﾄﾞﾀﾞｲﾏﾁ","pref":"千葉県","city":"野田市","address":"関宿台町"},
{"zip_code":"2700203","kana_pref":"ﾁﾊﾞｹﾝ","kana_city":"ﾉﾀﾞｼ","kana_address":"ｾｷﾔﾄﾞﾓﾄﾏﾁ","pref":"千葉県","city":"野田市","address":"関宿元町"},
{"zip_code":"2700206","kana_pref":"ﾁﾊﾞｹﾝ","kana_city":"ﾉﾀﾞｼ","kana_address":"ｾｷﾔﾄﾞﾏﾁ","pref":"千葉県","city":"野田市","address":"関宿町"},
{"zip_code":"2700237","kana_pref":"ﾁﾊﾞｹﾝ","kana_city":"ﾉﾀﾞｼ","kana_address":"ﾅｶｻﾞﾄ","pref":"千葉県","city":"野田市","address":"中里"},
{"zip_code":"2700215","kana_pref":"ﾁﾊﾞｹﾝ","kana_city":"ﾉﾀﾞｼ","kana_address":"ﾅｶﾄ","pref":"千葉県","city":"野田市","address":"中戸"},
{"zip_code":"2700228","kana_pref":"ﾁﾊﾞｹﾝ","kana_city":"ﾉﾀﾞｼ","kana_address":"ﾅﾐｷ","pref":"千葉県","city":"野田市","address":"次木"},
{"zip_code":"2700216","kana_pref":"ﾁﾊﾞｹﾝ","kana_city":"ﾉﾀﾞｼ","kana_address":"ﾆｼｺﾞｳﾔ","pref":"千葉県","city":"野田市","address":"西高野"},
{"zip_code":"2700212","kana_pref":"ﾁﾊﾞｹﾝ","kana_city":"ﾉﾀﾞｼ","kana_address":"ﾆｯﾀﾄﾞ","pref":"千葉県","city":"野田市","address":"新田戸"},
{"zip_code":"2700217","kana_pref":"ﾁﾊﾞｹﾝ","kana_city":"ﾉﾀﾞｼ","kana_address":"ﾊﾔﾏ","pref":"千葉県","city":"野田市","address":"はやま"},
{"zip_code":"2700236","kana_pref":"ﾁﾊﾞｹﾝ","kana_city":"ﾉﾀﾞｼ","kana_address":"ﾋｶﾞｼｶﾅﾉｲ","pref":"千葉県","city":"野田市","address":"東金野井"},
{"zip_code":"2700211","kana_pref":"ﾁﾊﾞｹﾝ","kana_city":"ﾉﾀﾞｼ","kana_address":"ﾋｶﾞｼｺﾞｳﾔ","pref":"千葉県","city":"野田市","address":"東高野"},
{"zip_code":"2700226","kana_pref":"ﾁﾊﾞｹﾝ","kana_city":"ﾉﾀﾞｼ","kana_address":"ﾋｶﾞｼﾎｳｼｭﾊﾞﾅ","pref":"千葉県","city":"野田市","address":"東宝珠花"},
{"zip_code":"2700234","kana_pref":"ﾁﾊﾞｹﾝ","kana_city":"ﾉﾀﾞｼ","kana_address":"ﾋﾉﾃﾞﾁｮｳ","pref":"千葉県","city":"野田市","address":"日の出町"},
{"zip_code":"2700225","kana_pref":"ﾁﾊﾞｹﾝ","kana_city":"ﾉﾀﾞｼ","kana_address":"ﾋﾗｲ","pref":"千葉県","city":"野田市","address":"平井"},
{"zip_code":"2700233","kana_pref":"ﾁﾊﾞｹﾝ","kana_city":"ﾉﾀﾞｼ","kana_address":"ﾌﾅｶﾀ","pref":"千葉県","city":"野田市","address":"船形"},
{"zip_code":"2700224","kana_pref":"ﾁﾊﾞｹﾝ","kana_city":"ﾉﾀﾞｼ","kana_address":"ﾏﾙｲ","pref":"千葉県","city":"野田市","address":"丸井"},
{"zip_code":"2700232","kana_pref":"ﾁﾊﾞｹﾝ","kana_city":"ﾉﾀﾞｼ","kana_address":"ﾑｼﾛｳﾁ","pref":"千葉県","city":"野田市","address":"莚打"},
{"zip_code":"2701451","kana_pref":"ﾁﾊﾞｹﾝ","kana_city":"ｶｼﾜｼ","kana_address":"ｱｹﾎﾞﾉﾊﾞｼ","pref":"千葉県","city":"柏市","address":"曙橋"},
{"zip_code":"2701456","kana_pref":"ﾁﾊﾞｹﾝ","kana_city":"ｶｼﾜｼ","kana_address":"ｲｽﾞﾐ","pref":"千葉県","city":"柏市","address":"泉"},
{"zip_code":"2701457","kana_pref":"ﾁﾊﾞｹﾝ","kana_city":"ｶｼﾜｼ","kana_address":"ｲｽﾞﾐﾑﾗｼﾝﾃﾞﾝ","pref":"千葉県","city":"柏市","address":"泉村新田"},
{"zip_code":"2701445","kana_pref":"ﾁﾊﾞｹﾝ","kana_city":"ｶｼﾜｼ","kana_address":"ｲﾜｲ","pref":"千葉県","city":"柏市","address":"岩井"},
{"zip_code":"2701446","kana_pref":"ﾁﾊﾞｹﾝ","kana_city":"ｶｼﾜｼ","kana_address":"ｲﾜｲﾑﾗｼﾝﾃﾞﾝ","pref":"千葉県","city":"柏市","address":"岩井村新田"},
{"zip_code":"2701453","kana_pref":"ﾁﾊﾞｹﾝ","kana_city":"ｶｼﾜｼ","kana_address":"ｶﾀﾔﾏ","pref":"千葉県","city":"柏市","address":"片山"},
{"zip_code":"2701452","kana_pref":"ﾁﾊﾞｹﾝ","kana_city":"ｶｼﾜｼ","kana_address":"ｶﾀﾔﾏｼﾝﾃﾞﾝ","pref":"千葉県","city":"柏市","address":"片山新田"},
{"zip_code":"2701455","kana_pref":"ﾁﾊﾞｹﾝ","kana_city":"ｶｼﾜｼ","kana_address":"ｶﾈﾔﾏ","pref":"千葉県","city":"柏市","address":"金山"},
{"zip_code":"2701461","kana_pref":"ﾁﾊﾞｹﾝ","kana_city":"ｶｼﾜｼ","kana_address":"ｽｲﾄﾞｳﾊﾞｼ","pref":"千葉県","city":"柏市","address":"水道橋"},
{"zip_code":"2701462","kana_pref":"ﾁﾊﾞｹﾝ","kana_city":"ｶｼﾜｼ","kana_address":"ｾﾝｹﾞﾝﾊﾞｼ","pref":"千葉県","city":"柏市","address":"千間橋"},
{"zip_code":"2701442","kana_pref":"ﾁﾊﾞｹﾝ","kana_city":"ｶｼﾜｼ","kana_address":"ｿﾒｲｲﾘｼﾝﾃﾞﾝ","pref":"千葉県","city":"柏市","address":"染井入新田"},
{"zip_code":"2701465","kana_pref":"ﾁﾊﾞｹﾝ","kana_city":"ｶｼﾜｼ","kana_address":"ﾃｶﾞ","pref":"千葉県","city":"柏市","address":"手賀"},
{"zip_code":"2701466","kana_pref":"ﾁﾊﾞｹﾝ","kana_city":"ｶｼﾜｼ","kana_address":"ﾃｶﾞｼﾝﾃﾞﾝ","pref":"千葉県","city":"柏市","address":"手賀新田"},
{"zip_code":"2701447","kana_pref":"ﾁﾊﾞｹﾝ","kana_city":"ｶｼﾜｼ","kana_address":"ﾃｶﾞﾉﾓﾘ","pref":"千葉県","city":"柏市","address":"手賀の杜"},
{"zip_code":"2701464","kana_pref":"ﾁﾊﾞｹﾝ","kana_city":"ｶｼﾜｼ","kana_address":"ﾌｾﾞ","pref":"千葉県","city":"柏市","address":"布瀬"},
{"zip_code":"2701463","kana_pref":"ﾁﾊﾞｹﾝ","kana_city":"ｶｼﾜｼ","kana_address":"ﾌｾﾞｼﾝﾃﾞﾝ","pref":"千葉県","city":"柏市","address":"布瀬新田"},
{"zip_code":"2701454","kana_pref":"ﾁﾊﾞｹﾝ","kana_city":"ｶｼﾜｼ","kana_address":"ﾔﾅﾄﾞ","pref":"千葉県","city":"柏市","address":"柳戸"},
{"zip_code":"2701444","kana_pref":"ﾁﾊﾞｹﾝ","kana_city":"ｶｼﾜｼ","kana_address":"ﾜｶｼﾗｶﾞ","pref":"千葉県","city":"柏市","address":"若白毛"},
{"zip_code":"2701443","kana_pref":"ﾁﾊﾞｹﾝ","kana_city":"ｶｼﾜｼ","kana_address":"ﾜｼﾉﾔ","pref":"千葉県","city":"柏市","address":"鷲野谷"},
{"zip_code":"2701441","kana_pref":"ﾁﾊﾞｹﾝ","kana_city":"ｶｼﾜｼ","kana_address":"ﾜｼﾉﾔｼﾝﾃﾞﾝ","pref":"千葉県","city":"柏市","address":"鷲野谷新田"},
{"zip_code":"2700100","kana_pref":"ﾁﾊﾞｹﾝ","kana_city":"ﾅｶﾞﾚﾔﾏｼ","kana_address":"","pref":"千葉県","city":"流山市","address":""},
{"zip_code":"2700112","kana_pref":"ﾁﾊﾞｹﾝ","kana_city":"ﾅｶﾞﾚﾔﾏｼ","kana_address":"ｱｵﾀ","pref":"千葉県","city":"流山市","address":"青田"},
{"zip_code":"2700137","kana_pref":"ﾁﾊﾞｹﾝ","kana_city":"ﾅｶﾞﾚﾔﾏｼ","kana_address":"ｲﾁﾉﾔ","pref":"千葉県","city":"流山市","address":"市野谷"},
{"zip_code":"2700151","kana_pref":"ﾁﾊﾞｹﾝ","kana_city":"ﾅｶﾞﾚﾔﾏｼ","kana_address":"ｳｼﾛﾋﾗｲ","pref":"千葉県","city":"流山市","address":"後平井"},
{"zip_code":"2700111","kana_pref":"ﾁﾊﾞｹﾝ","kana_city":"ﾅｶﾞﾚﾔﾏｼ","kana_address":"ｴﾄﾞｶﾞﾜﾀﾞｲﾋｶﾞｼ","pref":"千葉県","city":"流山市","address":"江戸川台東"},
{"zip_code":"2700115","kana_pref":"ﾁﾊﾞｹﾝ","kana_city":"ﾅｶﾞﾚﾔﾏｼ","kana_address":"ｴﾄﾞｶﾞﾜﾀﾞｲﾆｼ","pref":"千葉県","city":"流山市","address":"江戸川台西"},
{"zip_code":"2700122","kana_pref":"ﾁﾊﾞｹﾝ","kana_city":"ﾅｶﾞﾚﾔﾏｼ","kana_address":"ｵｵｸﾞﾛ","pref":"千葉県","city":"流山市","address":"大畔"},
{"zip_code":"2700154","kana_pref":"ﾁﾊﾞｹﾝ","kana_city":"ﾅｶﾞﾚﾔﾏｼ","kana_address":"ｵﾓｲ","pref":"千葉県","city":"流山市","address":"思井"},
{"zip_code":"2700176","kana_pref":"ﾁﾊﾞｹﾝ","kana_city":"ﾅｶﾞﾚﾔﾏｼ","kana_address":"ｶ","pref":"千葉県","city":"流山市","address":"加"},
{"zip_code":"2700171","kana_pref":"ﾁﾊﾞｹﾝ","kana_city":"ﾅｶﾞﾚﾔﾏｼ","kana_address":"ｶﾐｶｲﾂﾞｶ","pref":"千葉県","city":"流山市","address":"上貝塚"},
{"zip_code":"2700125","kana_pref":"ﾁﾊﾞｹﾝ","kana_city":"ﾅｶﾞﾚﾔﾏｼ","kana_address":"ｶﾐｼﾝｼｭｸ","pref":"千葉県","city":"流山市","address":"上新宿"},
{"zip_code":"2700126","kana_pref":"ﾁﾊﾞｹﾝ","kana_city":"ﾅｶﾞﾚﾔﾏｼ","kana_address":"ｶﾐｼﾝｼｭｸｼﾝﾃﾞﾝ","pref":"千葉県","city":"流山市","address":"上新宿新田"},
{"zip_code":"2700162","kana_pref":"ﾁﾊﾞｹﾝ","kana_city":"ﾅｶﾞﾚﾔﾏｼ","kana_address":"ｷ","pref":"千葉県","city":"流山市","address":"木"},
{"zip_code":"2700117","kana_pref":"ﾁﾊﾞｹﾝ","kana_city":"ﾅｶﾞﾚﾔﾏｼ","kana_address":"ｷﾀ","pref":"千葉県","city":"流山市","address":"北"},
{"zip_code":"2700172","kana_pref":"ﾁﾊﾞｹﾝ","kana_city":"ﾅｶﾞﾚﾔﾏｼ","kana_address":"ｷﾘｶﾞﾔ","pref":"千葉県","city":"流山市","address":"桐ケ谷"},
{"zip_code":"2700102","kana_pref":"ﾁﾊﾞｹﾝ","kana_city":"ﾅｶﾞﾚﾔﾏｼ","kana_address":"ｺｳﾉｽﾀﾞｲ","pref":"千葉県","city":"流山市","address":"こうのす台"},
{"zip_code":"2700132","kana_pref":"ﾁﾊﾞｹﾝ","kana_city":"ﾅｶﾞﾚﾔﾏｼ","kana_address":"ｺﾏｷﾞ","pref":"千葉県","city":"流山市","address":"駒木"},
{"zip_code":"2700113","kana_pref":"ﾁﾊﾞｹﾝ","kana_city":"ﾅｶﾞﾚﾔﾏｼ","kana_address":"ｺﾏｷﾞﾀﾞｲ","pref":"千葉県","city":"流山市","address":"駒木台"},
{"zip_code":"2700118","kana_pref":"ﾁﾊﾞｹﾝ","kana_city":"ﾅｶﾞﾚﾔﾏｼ","kana_address":"ｺﾔ","pref":"千葉県","city":"流山市","address":"小屋"},
{"zip_code":"2700146","kana_pref":"ﾁﾊﾞｹﾝ","kana_city":"ﾅｶﾞﾚﾔﾏｼ","kana_address":"ｼﾊﾞｻｷ","pref":"千葉県","city":"流山市","address":"芝崎"},
{"zip_code":"2700174","kana_pref":"ﾁﾊﾞｹﾝ","kana_city":"ﾅｶﾞﾚﾔﾏｼ","kana_address":"ｼﾓﾊﾅﾜ","pref":"千葉県","city":"流山市","address":"下花輪"},
{"zip_code":"2700133","kana_pref":"ﾁﾊﾞｹﾝ","kana_city":"ﾅｶﾞﾚﾔﾏｼ","kana_address":"ｼﾞｭｳﾀﾞﾕｳ","pref":"千葉県","city":"流山市","address":"十太夫"},
{"zip_code":"2700173","kana_pref":"ﾁﾊﾞｹﾝ","kana_city":"ﾅｶﾞﾚﾔﾏｼ","kana_address":"ﾀﾆ","pref":"千葉県","city":"流山市","address":"谷"},
{"zip_code":"2700153","kana_pref":"ﾁﾊﾞｹﾝ","kana_city":"ﾅｶﾞﾚﾔﾏｼ","kana_address":"ﾅｶ","pref":"千葉県","city":"流山市","address":"中"},
{"zip_code":"2700116","kana_pref":"ﾁﾊﾞｹﾝ","kana_city":"ﾅｶﾞﾚﾔﾏｼ","kana_address":"ﾅｶﾉｸｷ","pref":"千葉県","city":"流山市","address":"中野久木"},
{"zip_code":"2700134","kana_pref":"ﾁﾊﾞｹﾝ","kana_city":"ﾅｶﾞﾚﾔﾏｼ","kana_address":"ﾅｶﾞｻｷ","pref":"千葉県","city":"流山市","address":"長崎"},
{"zip_code":"2700164","kana_pref":"ﾁﾊﾞｹﾝ","kana_city":"ﾅｶﾞﾚﾔﾏｼ","kana_address":"ﾅｶﾞﾚﾔﾏ","pref":"千葉県","city":"流山市","address":"流山"},
{"zip_code":"2700145","kana_pref":"ﾁﾊﾞｹﾝ","kana_city":"ﾅｶﾞﾚﾔﾏｼ","kana_address":"ﾅｽﾞｶﾘ","pref":"千葉県","city":"流山市","address":"名都借"},
{"zip_code":"2700121","kana_pref":"ﾁﾊﾞｹﾝ","kana_city":"ﾅｶﾞﾚﾔﾏｼ","kana_address":"ﾆｼﾊﾂｲｼ","pref":"千葉県","city":"流山市","address":"西初石"},
{"zip_code":"2700156","kana_pref":"ﾁﾊﾞｹﾝ","kana_city":"ﾅｶﾞﾚﾔﾏｼ","kana_address":"ﾆｼﾋﾗｲ","pref":"千葉県","city":"流山市","address":"西平井"},
{"zip_code":"2700107","kana_pref":"ﾁﾊﾞｹﾝ","kana_city":"ﾅｶﾞﾚﾔﾏｼ","kana_address":"ﾆｼﾌｶｲ","pref":"千葉県","city":"流山市","address":"西深井"},
{"zip_code":"2700142","kana_pref":"ﾁﾊﾞｹﾝ","kana_city":"ﾅｶﾞﾚﾔﾏｼ","kana_address":"ﾆｼﾏﾂｶﾞｵｶ","pref":"千葉県","city":"流山市","address":"西松ケ丘"},
{"zip_code":"2700135","kana_pref":"ﾁﾊﾞｹﾝ","kana_city":"ﾅｶﾞﾚﾔﾏｼ","kana_address":"ﾉﾉｼﾀ","pref":"千葉県","city":"流山市","address":"野々下"},
{"zip_code":"2700114","kana_pref":"ﾁﾊﾞｹﾝ","kana_city":"ﾅｶﾞﾚﾔﾏｼ","kana_address":"ﾋｶﾞｼﾊﾂｲｼ","pref":"千葉県","city":"流山市","address":"東初石"},
{"zip_code":"2700101","kana_pref":"ﾁﾊﾞｹﾝ","kana_city":"ﾅｶﾞﾚﾔﾏｼ","kana_address":"ﾋｶﾞｼﾌｶｲ","pref":"千葉県","city":"流山市","address":"東深井"},
{"zip_code":"2700105","kana_pref":"ﾁﾊﾞｹﾝ","kana_city":"ﾅｶﾞﾚﾔﾏｼ","kana_address":"ﾋﾗｶﾀ","pref":"千葉県","city":"流山市","address":"平方"},
{"zip_code":"2700104","kana_pref":"ﾁﾊﾞｹﾝ","kana_city":"ﾅｶﾞﾚﾔﾏｼ","kana_address":"ﾋﾗｶﾀﾊﾗｼﾝﾃﾞﾝ","pref":"千葉県","city":"流山市","address":"平方原新田"},
{"zip_code":"2700106","kana_pref":"ﾁﾊﾞｹﾝ","kana_city":"ﾅｶﾞﾚﾔﾏｼ","kana_address":"ﾋﾗｶﾀﾑﾗｼﾝﾃﾞﾝ","pref":"千葉県","city":"流山市","address":"平方村新田"},
{"zip_code":"2700161","kana_pref":"ﾁﾊﾞｹﾝ","kana_city":"ﾅｶﾞﾚﾔﾏｼ","kana_address":"ﾋﾚｶﾞｻｷ","pref":"千葉県","city":"流山市","address":"鰭ケ崎"},
{"zip_code":"2700108","kana_pref":"ﾁﾊﾞｹﾝ","kana_city":"ﾅｶﾞﾚﾔﾏｼ","kana_address":"ﾌｶｲｼﾝﾃﾞﾝ","pref":"千葉県","city":"流山市","address":"深井新田"},
{"zip_code":"2700127","kana_pref":"ﾁﾊﾞｹﾝ","kana_city":"ﾅｶﾞﾚﾔﾏｼ","kana_address":"ﾌｼﾞﾐﾀﾞｲ","pref":"千葉県","city":"流山市","address":"富士見台"},
{"zip_code":"2700136","kana_pref":"ﾁﾊﾞｹﾝ","kana_city":"ﾅｶﾞﾚﾔﾏｼ","kana_address":"ﾌﾙﾏｷﾞ","pref":"千葉県","city":"流山市","address":"古間木"},
{"zip_code":"2700157","kana_pref":"ﾁﾊﾞｹﾝ","kana_city":"ﾅｶﾞﾚﾔﾏｼ","kana_address":"ﾍｲﾜﾀﾞｲ","pref":"千葉県","city":"流山市","address":"平和台"},
{"zip_code":"2700144","kana_pref":"ﾁﾊﾞｹﾝ","kana_city":"ﾅｶﾞﾚﾔﾏｼ","kana_address":"ﾏｴｶﾞｻｷ","pref":"千葉県","city":"流山市","address":"前ケ崎"},
{"zip_code":"2700152","kana_pref":"ﾁﾊﾞｹﾝ","kana_city":"ﾅｶﾞﾚﾔﾏｼ","kana_address":"ﾏｴﾋﾗｲ","pref":"千葉県","city":"流山市","address":"前平井"},
{"zip_code":"2700141","kana_pref":"ﾁﾊﾞｹﾝ","kana_city":"ﾅｶﾞﾚﾔﾏｼ","kana_address":"ﾏﾂｶﾞｵｶ","pref":"千葉県","city":"流山市","address":"松ケ丘"},
{"zip_code":"2700131","kana_pref":"ﾁﾊﾞｹﾝ","kana_city":"ﾅｶﾞﾚﾔﾏｼ","kana_address":"ﾐﾀ","pref":"千葉県","city":"流山市","address":"美田"},
{"zip_code":"2700124","kana_pref":"ﾁﾊﾞｹﾝ","kana_city":"ﾅｶﾞﾚﾔﾏｼ","kana_address":"ﾐﾅﾐ","pref":"千葉県","city":"流山市","address":"南"},
{"zip_code":"2700163","kana_pref":"ﾁﾊﾞｹﾝ","kana_city":"ﾅｶﾞﾚﾔﾏｼ","kana_address":"ﾐﾅﾐﾅｶﾞﾚﾔﾏ","pref":"千葉県","city":"流山市","address":"南流山"},
{"zip_code":"2700103","kana_pref":"ﾁﾊﾞｹﾝ","kana_city":"ﾅｶﾞﾚﾔﾏｼ","kana_address":"ﾐﾊﾗ","pref":"千葉県","city":"流山市","address":"美原"},
{"zip_code":"2700155","kana_pref":"ﾁﾊﾞｹﾝ","kana_city":"ﾅｶﾞﾚﾔﾏｼ","kana_address":"ﾐﾔｿﾞﾉ","pref":"千葉県","city":"流山市","address":"宮園"},
{"zip_code":"2700175","kana_pref":"ﾁﾊﾞｹﾝ","kana_city":"ﾅｶﾞﾚﾔﾏｼ","kana_address":"ﾐﾜﾉﾔﾏ","pref":"千葉県","city":"流山市","address":"三輪野山"},
{"zip_code":"2700143","kana_pref":"ﾁﾊﾞｹﾝ","kana_city":"ﾅｶﾞﾚﾔﾏｼ","kana_address":"ﾑｶｲｺｶﾞﾈ","pref":"千葉県","city":"流山市","address":"向小金"},
{"zip_code":"2700123","kana_pref":"ﾁﾊﾞｹﾝ","kana_city":"ﾅｶﾞﾚﾔﾏｼ","kana_address":"ﾜｶﾊﾞﾀﾞｲ","pref":"千葉県","city":"流山市","address":"若葉台"},
{"zip_code":"2701100","kana_pref":"ﾁﾊﾞｹﾝ","kana_city":"ｱﾋﾞｺｼ","kana_address":"","pref":"千葉県","city":"我孫子市","address":""},
{"zip_code":"2701106","kana_pref":"ﾁﾊﾞｹﾝ","kana_city":"ｱﾋﾞｺｼ","kana_address":"ｱｲｼﾞﾏｼﾝﾃﾞﾝ","pref":"千葉県","city":"我孫子市","address":"相島新田"},
{"zip_code":"2701173","kana_pref":"ﾁﾊﾞｹﾝ","kana_city":"ｱﾋﾞｺｼ","kana_address":"ｱｵﾔﾏ","pref":"千葉県","city":"我孫子市","address":"青山"},
{"zip_code":"2701175","kana_pref":"ﾁﾊﾞｹﾝ","kana_city":"ｱﾋﾞｺｼ","kana_address":"ｱｵﾔﾏﾀﾞｲ","pref":"千葉県","city":"我孫子市","address":"青山台"},
{"zip_code":"2701166","kana_pref":"ﾁﾊﾞｹﾝ","kana_city":"ｱﾋﾞｺｼ","kana_address":"ｱﾋﾞｺ","pref":"千葉県","city":"我孫子市","address":"我孫子"},
{"zip_code":"2701155","kana_pref":"ﾁﾊﾞｹﾝ","kana_city":"ｱﾋﾞｺｼ","kana_address":"ｱﾋﾞｺｼﾝﾃﾞﾝ","pref":"千葉県","city":"我孫子市","address":"我孫子新田"},
{"zip_code":"2701112","kana_pref":"ﾁﾊﾞｹﾝ","kana_city":"ｱﾋﾞｺｼ","kana_address":"ｱﾗｷ","pref":"千葉県","city":"我孫子市","address":"新木"},
{"zip_code":"2701114","kana_pref":"ﾁﾊﾞｹﾝ","kana_city":"ｱﾋﾞｺｼ","kana_address":"ｱﾗｷﾉ","pref":"千葉県","city":"我孫子市","address":"新木野"},
{"zip_code":"2701118","kana_pref":"ﾁﾊﾞｹﾝ","kana_city":"ｱﾋﾞｺｼ","kana_address":"ｱﾗｷﾑﾗｼﾀ","pref":"千葉県","city":"我孫子市","address":"新木村下"},
{"zip_code":"2701142","kana_pref":"ﾁﾊﾞｹﾝ","kana_city":"ｱﾋﾞｺｼ","kana_address":"ｲｽﾞﾐ","pref":"千葉県","city":"我孫子市","address":"泉"},
{"zip_code":"2701131","kana_pref":"ﾁﾊﾞｹﾝ","kana_city":"ｱﾋﾞｺｼ","kana_address":"ｲﾁﾌﾞ","pref":"千葉県","city":"我孫子市","address":"都部"},
{"zip_code":"2701135","kana_pref":"ﾁﾊﾞｹﾝ","kana_city":"ｱﾋﾞｺｼ","kana_address":"ｲﾁﾌﾞｼﾝﾃﾞﾝ","pref":"千葉県","city":"我孫子市","address":"都部新田"},
{"zip_code":"2701134","kana_pref":"ﾁﾊﾞｹﾝ","kana_city":"ｱﾋﾞｺｼ","kana_address":"ｲﾁﾌﾞﾑﾗｼﾝﾃﾞﾝ","pref":"千葉県","city":"我孫子市","address":"都部村新田"},
{"zip_code":"2701113","kana_pref":"ﾁﾊﾞｹﾝ","kana_city":"ｱﾋﾞｺｼ","kana_address":"ｴｿﾞｳﾁ","pref":"千葉県","city":"我孫子市","address":"江蔵地"},
{"zip_code":"2701115","kana_pref":"ﾁﾊﾞｹﾝ","kana_city":"ｱﾋﾞｺｼ","kana_address":"ｵｵｻｸｼﾝﾃﾞﾝ","pref":"千葉県","city":"我孫子市","address":"大作新田"},
{"zip_code":"2701137","kana_pref":"ﾁﾊﾞｹﾝ","kana_city":"ｱﾋﾞｺｼ","kana_address":"ｵｶﾎｯﾄ","pref":"千葉県","city":"我孫子市","address":"岡発戸"},
{"zip_code":"2701136","kana_pref":"ﾁﾊﾞｹﾝ","kana_city":"ｱﾋﾞｺｼ","kana_address":"ｵｶﾎｯﾄｼﾝﾃﾞﾝ","pref":"千葉県","city":"我孫子市","address":"岡発戸新田"},
{"zip_code":"2701133","kana_pref":"ﾁﾊﾞｹﾝ","kana_city":"ｱﾋﾞｺｼ","kana_address":"ｶﾐﾇﾏﾀ","pref":"千葉県","city":"我孫子市","address":"上沼田"},
{"zip_code":"2701172","kana_pref":"ﾁﾊﾞｹﾝ","kana_city":"ｱﾋﾞｺｼ","kana_address":"ｷﾀｼﾝﾃﾞﾝ","pref":"千葉県","city":"我孫子市","address":"北新田"},
{"zip_code":"2701163","kana_pref":"ﾁﾊﾞｹﾝ","kana_city":"ｱﾋﾞｺｼ","kana_address":"ｸｼﾞｹ","pref":"千葉県","city":"我孫子市","address":"久寺家"},
{"zip_code":"2701145","kana_pref":"ﾁﾊﾞｹﾝ","kana_city":"ｱﾋﾞｺｼ","kana_address":"ｺｳﾉﾔﾏ","pref":"千葉県","city":"我孫子市","address":"高野山"},
{"zip_code":"2701146","kana_pref":"ﾁﾊﾞｹﾝ","kana_city":"ｱﾋﾞｺｼ","kana_address":"ｺｳﾉﾔﾏｼﾝﾃﾞﾝ","pref":"千葉県","city":"我孫子市","address":"高野山新田"},
{"zip_code":"2701152","kana_pref":"ﾁﾊﾞｹﾝ","kana_city":"ｱﾋﾞｺｼ","kana_address":"ｺﾄﾌﾞｷ","pref":"千葉県","city":"我孫子市","address":"寿"},
{"zip_code":"2701132","kana_pref":"ﾁﾊﾞｹﾝ","kana_city":"ｱﾋﾞｺｼ","kana_address":"ｺﾎｸﾀﾞｲ","pref":"千葉県","city":"我孫子市","address":"湖北台"},
{"zip_code":"2701141","kana_pref":"ﾁﾊﾞｹﾝ","kana_city":"ｱﾋﾞｺｼ","kana_address":"ｻｶｴ","pref":"千葉県","city":"我孫子市","address":"栄"},
{"zip_code":"2701138","kana_pref":"ﾁﾊﾞｹﾝ","kana_city":"ｱﾋﾞｺｼ","kana_address":"ｻｹﾞﾄ","pref":"千葉県","city":"我孫子市","address":"下ケ戸"},
{"zip_code":"2701177","kana_pref":"ﾁﾊﾞｹﾝ","kana_city":"ｱﾋﾞｺｼ","kana_address":"ｼﾊﾞｻｷ","pref":"千葉県","city":"我孫子市","address":"柴崎"},
{"zip_code":"2701176","kana_pref":"ﾁﾊﾞｹﾝ","kana_city":"ｱﾋﾞｺｼ","kana_address":"ｼﾊﾞｻｷﾀﾞｲ","pref":"千葉県","city":"我孫子市","address":"柴崎台"},
{"zip_code":"2701117","kana_pref":"ﾁﾊﾞｹﾝ","kana_city":"ｱﾋﾞｺｼ","kana_address":"ｼﾓﾇﾏﾀ","pref":"千葉県","city":"我孫子市","address":"下沼田"},
{"zip_code":"2701104","kana_pref":"ﾁﾊﾞｹﾝ","kana_city":"ｱﾋﾞｺｼ","kana_address":"ｼﾝｼﾝﾃﾞﾝ","pref":"千葉県","city":"我孫子市","address":"新々田"},
{"zip_code":"2701116","kana_pref":"ﾁﾊﾞｹﾝ","kana_city":"ｱﾋﾞｺｼ","kana_address":"ｾﾝｹﾞﾝﾏｴｼﾝﾃﾞﾝ","pref":"千葉県","city":"我孫子市","address":"浅間前新田"},
{"zip_code":"2701167","kana_pref":"ﾁﾊﾞｹﾝ","kana_city":"ｱﾋﾞｺｼ","kana_address":"ﾀﾞｲﾀﾞ","pref":"千葉県","city":"我孫子市","address":"台田"},
{"zip_code":"2701164","kana_pref":"ﾁﾊﾞｹﾝ","kana_city":"ｱﾋﾞｺｼ","kana_address":"ﾂｸｼﾉ","pref":"千葉県","city":"我孫子市","address":"つくし野"},
{"zip_code":"2701143","kana_pref":"ﾁﾊﾞｹﾝ","kana_city":"ｱﾋﾞｺｼ","kana_address":"ﾃﾝﾉｳﾀﾞｲ","pref":"千葉県","city":"我孫子市","address":"天王台"},
{"zip_code":"2701122","kana_pref":"ﾁﾊﾞｹﾝ","kana_city":"ｱﾋﾞｺｼ","kana_address":"ﾅｶｻﾞﾄ","pref":"千葉県","city":"我孫子市","address":"中里"},
{"zip_code":"2701126","kana_pref":"ﾁﾊﾞｹﾝ","kana_city":"ｱﾋﾞｺｼ","kana_address":"ﾅｶｻﾞﾄｼﾝﾃﾞﾝ","pref":"千葉県","city":"我孫子市","address":"中里新田"},
{"zip_code":"2701125","kana_pref":"ﾁﾊﾞｹﾝ","kana_city":"ｱﾋﾞｺｼ","kana_address":"ﾅｶﾇﾏﾀ","pref":"千葉県","city":"我孫子市","address":"中沼田"},
{"zip_code":"2701121","kana_pref":"ﾁﾊﾞｹﾝ","kana_city":"ｱﾋﾞｺｼ","kana_address":"ﾅｶﾋﾞｮｳ","pref":"千葉県","city":"我孫子市","address":"中峠"},
{"zip_code":"2701128","kana_pref":"ﾁﾊﾞｹﾝ","kana_city":"ｱﾋﾞｺｼ","kana_address":"ﾅｶﾋﾞｮｳﾀﾞｲ","pref":"千葉県","city":"我孫子市","address":"中峠台"},
{"zip_code":"2701127","kana_pref":"ﾁﾊﾞｹﾝ","kana_city":"ｱﾋﾞｺｼ","kana_address":"ﾅｶﾋﾞｮｳﾑﾗｼﾀ","pref":"千葉県","city":"我孫子市","address":"中峠村下"},
{"zip_code":"2701165","kana_pref":"ﾁﾊﾞｹﾝ","kana_city":"ｱﾋﾞｺｼ","kana_address":"ﾅﾐｷ","pref":"千葉県","city":"我孫子市","address":"並木"},
{"zip_code":"2701168","kana_pref":"ﾁﾊﾞｹﾝ","kana_city":"ｱﾋﾞｺｼ","kana_address":"ﾈﾄﾞ","pref":"千葉県","city":"我孫子市","address":"根戸"},
{"zip_code":"2701156","kana_pref":"ﾁﾊﾞｹﾝ","kana_city":"ｱﾋﾞｺｼ","kana_address":"ﾈﾄﾞｼﾝﾃﾞﾝ","pref":"千葉県","city":"我孫子市","address":"根戸新田"},
{"zip_code":"2701154","kana_pref":"ﾁﾊﾞｹﾝ","kana_city":"ｱﾋﾞｺｼ","kana_address":"ﾊｸｻﾝ","pref":"千葉県","city":"我孫子市","address":"白山"},
{"zip_code":"2701144","kana_pref":"ﾁﾊﾞｹﾝ","kana_city":"ｱﾋﾞｺｼ","kana_address":"ﾋｶﾞｼｱﾋﾞｺ","pref":"千葉県","city":"我孫子市","address":"東我孫子"},
{"zip_code":"2701174","kana_pref":"ﾁﾊﾞｹﾝ","kana_city":"ｱﾋﾞｺｼ","kana_address":"ﾋﾉﾃﾞ","pref":"千葉県","city":"我孫子市","address":"日の出"},
{"zip_code":"2701123","kana_pref":"ﾁﾊﾞｹﾝ","kana_city":"ｱﾋﾞｺｼ","kana_address":"ﾋﾋﾞﾘ","pref":"千葉県","city":"我孫子市","address":"日秀"},
{"zip_code":"2701124","kana_pref":"ﾁﾊﾞｹﾝ","kana_city":"ｱﾋﾞｺｼ","kana_address":"ﾋﾋﾞﾘｼﾝﾃﾞﾝ","pref":"千葉県","city":"我孫子市","address":"日秀新田"},
{"zip_code":"2701101","kana_pref":"ﾁﾊﾞｹﾝ","kana_city":"ｱﾋﾞｺｼ","kana_address":"ﾌｻ","pref":"千葉県","city":"我孫子市","address":"布佐"},
{"zip_code":"2701107","kana_pref":"ﾁﾊﾞｹﾝ","kana_city":"ｱﾋﾞｺｼ","kana_address":"ﾌｻｼﾀｼﾝﾃﾞﾝ","pref":"千葉県","city":"我孫子市","address":"布佐下新田"},
{"zip_code":"2701103","kana_pref":"ﾁﾊﾞｹﾝ","kana_city":"ｱﾋﾞｺｼ","kana_address":"ﾌｻﾄﾘﾏﾁ","pref":"千葉県","city":"我孫子市","address":"布佐酉町"},
{"zip_code":"2701108","kana_pref":"ﾁﾊﾞｹﾝ","kana_city":"ｱﾋﾞｺｼ","kana_address":"ﾌｻﾍｲﾜﾀﾞｲ","pref":"千葉県","city":"我孫子市","address":"布佐平和台"},
{"zip_code":"2701162","kana_pref":"ﾁﾊﾞｹﾝ","kana_city":"ｱﾋﾞｺｼ","kana_address":"ﾌｾ","pref":"千葉県","city":"我孫子市","address":"布施"},
{"zip_code":"2701161","kana_pref":"ﾁﾊﾞｹﾝ","kana_city":"ｱﾋﾞｺｼ","kana_address":"ﾌｾｼﾀ","pref":"千葉県","city":"我孫子市","address":"布施下"},
{"zip_code":"2701158","kana_pref":"ﾁﾊﾞｹﾝ","kana_city":"ｱﾋﾞｺｼ","kana_address":"ﾌﾅﾄ","pref":"千葉県","city":"我孫子市","address":"船戸"},
{"zip_code":"2701111","kana_pref":"ﾁﾊﾞｹﾝ","kana_city":"ｱﾋﾞｺｼ","kana_address":"ﾌﾙﾄﾞ","pref":"千葉県","city":"我孫子市","address":"古戸"},
{"zip_code":"2701171","kana_pref":"ﾁﾊﾞｹﾝ","kana_city":"ｱﾋﾞｺｼ","kana_address":"ﾍﾞﾝﾃﾝｼﾀ","pref":"千葉県","city":"我孫子市","address":"弁天下"},
{"zip_code":"2701151","kana_pref":"ﾁﾊﾞｹﾝ","kana_city":"ｱﾋﾞｺｼ","kana_address":"ﾎﾝﾁｮｳ","pref":"千葉県","city":"我孫子市","address":"本町"},
{"zip_code":"2701105","kana_pref":"ﾁﾊﾞｹﾝ","kana_city":"ｱﾋﾞｺｼ","kana_address":"ﾐｶﾜﾔｼﾝﾃﾞﾝ","pref":"千葉県","city":"我孫子市","address":"三河屋新田"},
{"zip_code":"2701153","kana_pref":"ﾁﾊﾞｹﾝ","kana_city":"ｱﾋﾞｺｼ","kana_address":"ﾐﾄﾞﾘ","pref":"千葉県","city":"我孫子市","address":"緑"},
{"zip_code":"2701178","kana_pref":"ﾁﾊﾞｹﾝ","kana_city":"ｱﾋﾞｺｼ","kana_address":"ﾐﾅﾐｱｵﾔﾏ","pref":"千葉県","city":"我孫子市","address":"南青山"},
{"zip_code":"2701119","kana_pref":"ﾁﾊﾞｹﾝ","kana_city":"ｱﾋﾞｺｼ","kana_address":"ﾐﾅﾐｱﾗｷ","pref":"千葉県","city":"我孫子市","address":"南新木"},
{"zip_code":"2701102","kana_pref":"ﾁﾊﾞｹﾝ","kana_city":"ｱﾋﾞｺｼ","kana_address":"ﾐﾔｺ","pref":"千葉県","city":"我孫子市","address":"都"},
{"zip_code":"2701157","kana_pref":"ﾁﾊﾞｹﾝ","kana_city":"ｱﾋﾞｺｼ","kana_address":"ﾖﾊﾞﾂｶｼﾝﾃﾞﾝ","pref":"千葉県","city":"我孫子市","address":"呼塚新田"},
{"zip_code":"2701147","kana_pref":"ﾁﾊﾞｹﾝ","kana_city":"ｱﾋﾞｺｼ","kana_address":"ﾜｶﾏﾂ","pref":"千葉県","city":"我孫子市","address":"若松"},
{"zip_code":"2701300","kana_pref":"ﾁﾊﾞｹﾝ","kana_city":"ｲﾝｻﾞｲｼ","kana_address":"","pref":"千葉県","city":"印西市","address":""},
{"zip_code":"2701321","kana_pref":"ﾁﾊﾞｹﾝ","kana_city":"ｲﾝｻﾞｲｼ","kana_address":"ｱｲｼﾞﾏ","pref":"千葉県","city":"印西市","address":"相嶋"},
{"zip_code":"2702302","kana_pref":"ﾁﾊﾞｹﾝ","kana_city":"ｲﾝｻﾞｲｼ","kana_address":"ｱｼﾞｷﾎﾞｯｸｲ","pref":"千葉県","city":"印西市","address":"安食卜杭"},
{"zip_code":"2701351","kana_pref":"ﾁﾊﾞｹﾝ","kana_city":"ｲﾝｻﾞｲｼ","kana_address":"ｲｽﾞﾐ","pref":"千葉県","city":"印西市","address":"和泉"},
{"zip_code":"2701353","kana_pref":"ﾁﾊﾞｹﾝ","kana_city":"ｲﾝｻﾞｲｼ","kana_address":"ｲｽﾞﾐ","pref":"千葉県","city":"印西市","address":"泉"},
{"zip_code":"2702323","kana_pref":"ﾁﾊﾞｹﾝ","kana_city":"ｲﾝｻﾞｲｼ","kana_address":"ｲｽﾞﾐﾔ","pref":"千葉県","city":"印西市","address":"和泉屋"},
{"zip_code":"2701616","kana_pref":"ﾁﾊﾞｹﾝ","kana_city":"ｲﾝｻﾞｲｼ","kana_address":"ｲﾜﾄ","pref":"千葉県","city":"印西市","address":"岩戸"},
{"zip_code":"2701347","kana_pref":"ﾁﾊﾞｹﾝ","kana_city":"ｲﾝｻﾞｲｼ","kana_address":"ｳﾁﾉ","pref":"千葉県","city":"印西市","address":"内野"},
{"zip_code":"2701364","kana_pref":"ﾁﾊﾞｹﾝ","kana_city":"ｲﾝｻﾞｲｼ","kana_address":"ｳﾗﾊﾀｼﾝﾃﾞﾝ","pref":"千葉県","city":"印西市","address":"浦幡新田"},
{"zip_code":"2701367","kana_pref":"ﾁﾊﾞｹﾝ","kana_city":"ｲﾝｻﾞｲｼ","kana_address":"ｳﾗﾍﾞ","pref":"千葉県","city":"印西市","address":"浦部"},
{"zip_code":"2701368","kana_pref":"ﾁﾊﾞｹﾝ","kana_city":"ｲﾝｻﾞｲｼ","kana_address":"ｳﾗﾍﾞﾑﾗｼﾝﾃﾞﾝ","pref":"千葉県","city":"印西市","address":"浦部村新田"},
{"zip_code":"2701352","kana_pref":"ﾁﾊﾞｹﾝ","kana_city":"ｲﾝｻﾞｲｼ","kana_address":"ｵｵﾂｶ","pref":"千葉県","city":"印西市","address":"大塚"},
{"zip_code":"2701612","kana_pref":"ﾁﾊﾞｹﾝ","kana_city":"ｲﾝｻﾞｲｼ","kana_address":"ｵｵﾊﾞ","pref":"千葉県","city":"印西市","address":"大廻"},
{"zip_code":"2701327","kana_pref":"ﾁﾊﾞｹﾝ","kana_city":"ｲﾝｻﾞｲｼ","kana_address":"ｵｵﾓﾘ","pref":"千葉県","city":"印西市","address":"大森"},
{"zip_code":"2701358","kana_pref":"ﾁﾊﾞｹﾝ","kana_city":"ｲﾝｻﾞｲｼ","kana_address":"ｵｸﾞﾗ","pref":"千葉県","city":"印西市","address":"小倉"},
{"zip_code":"2701356","kana_pref":"ﾁﾊﾞｹﾝ","kana_city":"ｲﾝｻﾞｲｼ","kana_address":"ｵｸﾞﾗﾀﾞｲ","pref":"千葉県","city":"印西市","address":"小倉台"},
{"zip_code":"2702318","kana_pref":"ﾁﾊﾞｹﾝ","kana_city":"ｲﾝｻﾞｲｼ","kana_address":"ｵｼﾂｹ","pref":"千葉県","city":"印西市","address":"押付"},
{"zip_code":"2701363","kana_pref":"ﾁﾊﾞｹﾝ","kana_city":"ｲﾝｻﾞｲｼ","kana_address":"ｶｸﾞﾛ","pref":"千葉県","city":"印西市","address":"鹿黒"},
{"zip_code":"2702322","kana_pref":"ﾁﾊﾞｹﾝ","kana_city":"ｲﾝｻﾞｲｼ","kana_address":"ｶｻｶﾞﾐ","pref":"千葉県","city":"印西市","address":"笠神"},
{"zip_code":"2701613","kana_pref":"ﾁﾊﾞｹﾝ","kana_city":"ｲﾝｻﾞｲｼ","kana_address":"ｶﾏｶﾞﾘ","pref":"千葉県","city":"印西市","address":"鎌苅"},
{"zip_code":"2701362","kana_pref":"ﾁﾊﾞｹﾝ","kana_city":"ｲﾝｻﾞｲｼ","kana_address":"ｶﾒﾅﾘ","pref":"千葉県","city":"印西市","address":"亀成"},
{"zip_code":"2702319","kana_pref":"ﾁﾊﾞｹﾝ","kana_city":"ｲﾝｻﾞｲｼ","kana_address":"ｶﾜﾑｶｲ","pref":"千葉県","city":"印西市","address":"川向"},
{"zip_code":"2701326","kana_pref":"ﾁﾊﾞｹﾝ","kana_city":"ｲﾝｻﾞｲｼ","kana_address":"ｷｵﾛｼ","pref":"千葉県","city":"印西市","address":"木下"},
{"zip_code":"2701323","kana_pref":"ﾁﾊﾞｹﾝ","kana_city":"ｲﾝｻﾞｲｼ","kana_address":"ｷｵﾛｼﾋｶﾞｼ","pref":"千葉県","city":"印西市","address":"木下東"},
{"zip_code":"2701328","kana_pref":"ﾁﾊﾞｹﾝ","kana_city":"ｲﾝｻﾞｲｼ","kana_address":"ｷｵﾛｼﾐﾅﾐ","pref":"千葉県","city":"印西市","address":"木下南"},
{"zip_code":"2701359","kana_pref":"ﾁﾊﾞｹﾝ","kana_city":"ｲﾝｻﾞｲｼ","kana_address":"ｷｶﾘ","pref":"千葉県","city":"印西市","address":"木刈"},
{"zip_code":"2702316","kana_pref":"ﾁﾊﾞｹﾝ","kana_city":"ｲﾝｻﾞｲｼ","kana_address":"ｷﾞｮｳﾄｸ","pref":"千葉県","city":"印西市","address":"行徳"},
{"zip_code":"2701343","kana_pref":"ﾁﾊﾞｹﾝ","kana_city":"ｲﾝｻﾞｲｼ","kana_address":"ｹﾂｴﾝｼﾞ","pref":"千葉県","city":"印西市","address":"結縁寺"},
{"zip_code":"2701365","kana_pref":"ﾁﾊﾞｹﾝ","kana_city":"ｲﾝｻﾞｲｼ","kana_address":"ｺｳｻｲｼﾝﾃﾞﾝ","pref":"千葉県","city":"印西市","address":"高西新田"},
{"zip_code":"2702326","kana_pref":"ﾁﾊﾞｹﾝ","kana_city":"ｲﾝｻﾞｲｼ","kana_address":"ｺｳﾔ","pref":"千葉県","city":"印西市","address":"荒野"},
{"zip_code":"2701318","kana_pref":"ﾁﾊﾞｹﾝ","kana_city":"ｲﾝｻﾞｲｼ","kana_address":"ｺﾊﾞﾔｼ","pref":"千葉県","city":"印西市","address":"小林"},
{"zip_code":"2701313","kana_pref":"ﾁﾊﾞｹﾝ","kana_city":"ｲﾝｻﾞｲｼ","kana_address":"ｺﾊﾞﾔｼｷﾀ","pref":"千葉県","city":"印西市","address":"小林北"},
{"zip_code":"2701315","kana_pref":"ﾁﾊﾞｹﾝ","kana_city":"ｲﾝｻﾞｲｼ","kana_address":"ｺﾊﾞﾔｼｾﾝｹﾞﾝ","pref":"千葉県","city":"印西市","address":"小林浅間"},
{"zip_code":"2701316","kana_pref":"ﾁﾊﾞｹﾝ","kana_city":"ｲﾝｻﾞｲｼ","kana_address":"ｺﾊﾞﾔｼﾀﾞｲﾓﾝｼﾀ","pref":"千葉県","city":"印西市","address":"小林大門下"},
{"zip_code":"2702303","kana_pref":"ﾁﾊﾞｹﾝ","kana_city":"ｲﾝｻﾞｲｼ","kana_address":"ｻｶﾅｵﾎﾞｯｸｲ","pref":"千葉県","city":"印西市","address":"酒直卜杭"},
{"zip_code":"2702314","kana_pref":"ﾁﾊﾞｹﾝ","kana_city":"ｲﾝｻﾞｲｼ","kana_address":"ｻｸﾗﾉ","pref":"千葉県","city":"印西市","address":"桜野"},
{"zip_code":"2702305","kana_pref":"ﾁﾊﾞｹﾝ","kana_city":"ｲﾝｻﾞｲｼ","kana_address":"ｻﾉﾔ","pref":"千葉県","city":"印西市","address":"佐野屋"},
{"zip_code":"2702313","kana_pref":"ﾁﾊﾞｹﾝ","kana_city":"ｲﾝｻﾞｲｼ","kana_address":"ｼﾓｲ","pref":"千葉県","city":"印西市","address":"下井"},
{"zip_code":"2702317","kana_pref":"ﾁﾊﾞｹﾝ","kana_city":"ｲﾝｻﾞｲｼ","kana_address":"ｼﾓｿﾞﾈ","pref":"千葉県","city":"印西市","address":"下曽根"},
{"zip_code":"2702301","kana_pref":"ﾁﾊﾞｹﾝ","kana_city":"ｲﾝｻﾞｲｼ","kana_address":"ｼｮｳｹﾞﾝ","pref":"千葉県","city":"印西市","address":"将監"},
{"zip_code":"2701366","kana_pref":"ﾁﾊﾞｹﾝ","kana_city":"ｲﾝｻﾞｲｼ","kana_address":"ｼﾗﾊﾀ","pref":"千葉県","city":"印西市","address":"白幡"},
{"zip_code":"2702304","kana_pref":"ﾁﾊﾞｹﾝ","kana_city":"ｲﾝｻﾞｲｼ","kana_address":"ｼﾞﾝﾍﾞｴ","pref":"千葉県","city":"印西市","address":"甚兵衛"},
{"zip_code":"2701614","kana_pref":"ﾁﾊﾞｹﾝ","kana_city":"ｲﾝｻﾞｲｼ","kana_address":"ｾﾄ","pref":"千葉県","city":"印西市","address":"瀬戸"},
{"zip_code":"2701322","kana_pref":"ﾁﾊﾞｹﾝ","kana_city":"ｲﾝｻﾞｲｼ","kana_address":"ｾﾝｹﾞﾝﾏｴ","pref":"千葉県","city":"印西市","address":"浅間前"},
{"zip_code":"2701337","kana_pref":"ﾁﾊﾞｹﾝ","kana_city":"ｲﾝｻﾞｲｼ","kana_address":"ｿｳﾌｹ","pref":"千葉県","city":"印西市","address":"草深"},
{"zip_code":"2701333","kana_pref":"ﾁﾊﾞｹﾝ","kana_city":"ｲﾝｻﾞｲｼ","kana_address":"ｿｳﾎ","pref":"千葉県","city":"印西市","address":"宗甫"},
{"zip_code":"2701342","kana_pref":"ﾁﾊﾞｹﾝ","kana_city":"ｲﾝｻﾞｲｼ","kana_address":"ﾀｶﾊﾞﾅ","pref":"千葉県","city":"印西市","address":"高花"},
{"zip_code":"2702328","kana_pref":"ﾁﾊﾞｹﾝ","kana_city":"ｲﾝｻﾞｲｼ","kana_address":"ﾀｷ","pref":"千葉県","city":"印西市","address":"滝"},
{"zip_code":"2702329","kana_pref":"ﾁﾊﾞｹﾝ","kana_city":"ｲﾝｻﾞｲｼ","kana_address":"ﾀｷﾉ","pref":"千葉県","city":"印西市","address":"滝野"},
{"zip_code":"2701325","kana_pref":"ﾁﾊﾞｹﾝ","kana_city":"ｲﾝｻﾞｲｼ","kana_address":"ﾀｹﾌｸﾛ","pref":"千葉県","city":"印西市","address":"竹袋"},
{"zip_code":"2701346","kana_pref":"ﾁﾊﾞｹﾝ","kana_city":"ｲﾝｻﾞｲｼ","kana_address":"ﾀﾀﾗﾀﾞ","pref":"千葉県","city":"印西市","address":"多々羅田"},
{"zip_code":"2701350","kana_pref":"ﾁﾊﾞｹﾝ","kana_city":"ｲﾝｻﾞｲｼ","kana_address":"ﾁｭｳｵｳｷﾀ","pref":"千葉県","city":"印西市","address":"中央北"},
{"zip_code":"2701340","kana_pref":"ﾁﾊﾞｹﾝ","kana_city":"ｲﾝｻﾞｲｼ","kana_address":"ﾁｭｳｵｳﾐﾅﾐ","pref":"千葉県","city":"印西市","address":"中央南"},
{"zip_code":"2701611","kana_pref":"ﾁﾊﾞｹﾝ","kana_city":"ｲﾝｻﾞｲｼ","kana_address":"ﾂｸﾘﾔ","pref":"千葉県","city":"印西市","address":"造谷"},
{"zip_code":"2701618","kana_pref":"ﾁﾊﾞｹﾝ","kana_city":"ｲﾝｻﾞｲｼ","kana_address":"ﾂｸﾘﾔﾀﾞｲ","pref":"千葉県","city":"印西市","address":"つくりや台"},
{"zip_code":"2702325","kana_pref":"ﾁﾊﾞｹﾝ","kana_city":"ｲﾝｻﾞｲｼ","kana_address":"ﾂﾉﾀﾞ","pref":"千葉県","city":"印西市","address":"角田"},
{"zip_code":"2701348","kana_pref":"ﾁﾊﾞｹﾝ","kana_city":"ｲﾝｻﾞｲｼ","kana_address":"ﾄｶﾐ","pref":"千葉県","city":"印西市","address":"戸神"},
{"zip_code":"2701349","kana_pref":"ﾁﾊﾞｹﾝ","kana_city":"ｲﾝｻﾞｲｼ","kana_address":"ﾄｶﾐﾀﾞｲ","pref":"千葉県","city":"印西市","address":"戸神台"},
{"zip_code":"2702315","kana_pref":"ﾁﾊﾞｹﾝ","kana_city":"ｲﾝｻﾞｲｼ","kana_address":"ﾅｶ","pref":"千葉県","city":"印西市","address":"中"},
{"zip_code":"2702306","kana_pref":"ﾁﾊﾞｹﾝ","kana_city":"ｲﾝｻﾞｲｼ","kana_address":"ﾅｶﾀｷﾞﾘ","pref":"千葉県","city":"印西市","address":"中田切"},
{"zip_code":"2702312","kana_pref":"ﾁﾊﾞｹﾝ","kana_city":"ｲﾝｻﾞｲｼ","kana_address":"ﾅｶﾞﾄﾔ","pref":"千葉県","city":"印西市","address":"長門屋"},
{"zip_code":"2702324","kana_pref":"ﾁﾊﾞｹﾝ","kana_city":"ｲﾝｻﾞｲｼ","kana_address":"ﾅｶﾈ","pref":"千葉県","city":"印西市","address":"中根"},
{"zip_code":"2701334","kana_pref":"ﾁﾊﾞｹﾝ","kana_city":"ｲﾝｻﾞｲｼ","kana_address":"ﾆｼﾉﾊﾗ","pref":"千葉県","city":"印西市","address":"西の原"},
{"zip_code":"2702311","kana_pref":"ﾁﾊﾞｹﾝ","kana_city":"ｲﾝｻﾞｲｼ","kana_address":"ﾊｷﾞﾉ","pref":"千葉県","city":"印西市","address":"萩埜"},
{"zip_code":"2701601","kana_pref":"ﾁﾊﾞｹﾝ","kana_city":"ｲﾝｻﾞｲｼ","kana_address":"ﾊｷﾞﾜﾗ","pref":"千葉県","city":"印西市","address":"萩原"},
{"zip_code":"2701335","kana_pref":"ﾁﾊﾞｹﾝ","kana_city":"ｲﾝｻﾞｲｼ","kana_address":"ﾊﾗ","pref":"千葉県","city":"印西市","address":"原"},
{"zip_code":"2701341","kana_pref":"ﾁﾊﾞｹﾝ","kana_city":"ｲﾝｻﾞｲｼ","kana_address":"ﾊﾗﾔﾏ","pref":"千葉県","city":"印西市","address":"原山"},
{"zip_code":"2701336","kana_pref":"ﾁﾊﾞｹﾝ","kana_city":"ｲﾝｻﾞｲｼ","kana_address":"ﾋｶﾞｼﾉﾊﾗ","pref":"千葉県","city":"印西市","address":"東の原"},
{"zip_code":"2701324","kana_pref":"ﾁﾊﾞｹﾝ","kana_city":"ｲﾝｻﾞｲｼ","kana_address":"ﾋﾗｵｶ","pref":"千葉県","city":"印西市","address":"平岡"},
{"zip_code":"2701605","kana_pref":"ﾁﾊﾞｹﾝ","kana_city":"ｲﾝｻﾞｲｼ","kana_address":"ﾋﾗｶ","pref":"千葉県","city":"印西市","address":"平賀"},
{"zip_code":"2701606","kana_pref":"ﾁﾊﾞｹﾝ","kana_city":"ｲﾝｻﾞｲｼ","kana_address":"ﾋﾗｶｶﾞｸｴﾝﾀﾞｲ","pref":"千葉県","city":"印西市","address":"平賀学園台"},
{"zip_code":"2701345","kana_pref":"ﾁﾊﾞｹﾝ","kana_city":"ｲﾝｻﾞｲｼ","kana_address":"ﾌﾅｵ","pref":"千葉県","city":"印西市","address":"船尾"},
{"zip_code":"2701332","kana_pref":"ﾁﾊﾞｹﾝ","kana_city":"ｲﾝｻﾞｲｼ","kana_address":"ﾍﾞｯｼｮ","pref":"千葉県","city":"印西市","address":"別所"},
{"zip_code":"2701361","kana_pref":"ﾁﾊﾞｹﾝ","kana_city":"ｲﾝｻﾞｲｼ","kana_address":"ﾎｯｻｸ","pref":"千葉県","city":"印西市","address":"発作"},
{"zip_code":"2701608","kana_pref":"ﾁﾊﾞｹﾝ","kana_city":"ｲﾝｻﾞｲｼ","kana_address":"ﾏｲﾋﾒ","pref":"千葉県","city":"印西市","address":"舞姫"},
{"zip_code":"2701357","kana_pref":"ﾁﾊﾞｹﾝ","kana_city":"ｲﾝｻﾞｲｼ","kana_address":"ﾏｷﾉｷﾄﾞ","pref":"千葉県","city":"印西市","address":"牧の木戸"},
{"zip_code":"2701339","kana_pref":"ﾁﾊﾞｹﾝ","kana_city":"ｲﾝｻﾞｲｼ","kana_address":"ﾏｷﾉﾀﾞｲ","pref":"千葉県","city":"印西市","address":"牧の台"},
{"zip_code":"2701331","kana_pref":"ﾁﾊﾞｹﾝ","kana_city":"ｲﾝｻﾞｲｼ","kana_address":"ﾏｷﾉﾊﾗ","pref":"千葉県","city":"印西市","address":"牧の原"},
{"zip_code":"2702307","kana_pref":"ﾁﾊﾞｹﾝ","kana_city":"ｲﾝｻﾞｲｼ","kana_address":"ﾏﾂｷ","pref":"千葉県","city":"印西市","address":"松木"},
{"zip_code":"2701344","kana_pref":"ﾁﾊﾞｹﾝ","kana_city":"ｲﾝｻﾞｲｼ","kana_address":"ﾏﾂｻﾞｷ","pref":"千葉県","city":"印西市","address":"松崎"},
{"zip_code":"2701338","kana_pref":"ﾁﾊﾞｹﾝ","kana_city":"ｲﾝｻﾞｲｼ","kana_address":"ﾏﾂｻﾞｷﾀﾞｲ","pref":"千葉県","city":"印西市","address":"松崎台"},
{"zip_code":"2701602","kana_pref":"ﾁﾊﾞｹﾝ","kana_city":"ｲﾝｻﾞｲｼ","kana_address":"ﾏﾂﾑｼ","pref":"千葉県","city":"印西市","address":"松虫"},
{"zip_code":"2701607","kana_pref":"ﾁﾊﾞｹﾝ","kana_city":"ｲﾝｻﾞｲｼ","kana_address":"ﾐｾ","pref":"千葉県","city":"印西市","address":"美瀬"},
{"zip_code":"2702331","kana_pref":"ﾁﾊﾞｹﾝ","kana_city":"ｲﾝｻﾞｲｼ","kana_address":"ﾐﾄﾞﾘﾀﾞｲ","pref":"千葉県","city":"印西市","address":"みどり台"},
{"zip_code":"2701354","kana_pref":"ﾁﾊﾞｹﾝ","kana_city":"ｲﾝｻﾞｲｼ","kana_address":"ﾑｻﾞｲ","pref":"千葉県","city":"印西市","address":"武西"},
{"zip_code":"2701355","kana_pref":"ﾁﾊﾞｹﾝ","kana_city":"ｲﾝｻﾞｲｼ","kana_address":"ﾑｻﾞｲｶﾞｸｴﾝﾀﾞｲ","pref":"千葉県","city":"印西市","address":"武西学園台"},
{"zip_code":"2702308","kana_pref":"ﾁﾊﾞｹﾝ","kana_city":"ｲﾝｻﾞｲｼ","kana_address":"ﾓﾄﾉｺﾊﾞﾔｼ","pref":"千葉県","city":"印西市","address":"本埜小林"},
{"zip_code":"2702321","kana_pref":"ﾁﾊﾞｹﾝ","kana_city":"ｲﾝｻﾞｲｼ","kana_address":"ﾓﾉｷ","pref":"千葉県","city":"印西市","address":"物木"},
{"zip_code":"2701615","kana_pref":"ﾁﾊﾞｹﾝ","kana_city":"ｲﾝｻﾞｲｼ","kana_address":"ﾓﾛﾄ","pref":"千葉県","city":"印西市","address":"師戸"},
{"zip_code":"2701604","kana_pref":"ﾁﾊﾞｹﾝ","kana_city":"ｲﾝｻﾞｲｼ","kana_address":"ﾔﾏﾀﾞ","pref":"千葉県","city":"印西市","address":"山田"},
{"zip_code":"2701617","kana_pref":"ﾁﾊﾞｹﾝ","kana_city":"ｲﾝｻﾞｲｼ","kana_address":"ﾖｼﾀﾞ","pref":"千葉県","city":"印西市","address":"吉田"},
{"zip_code":"2701603","kana_pref":"ﾁﾊﾞｹﾝ","kana_city":"ｲﾝｻﾞｲｼ","kana_address":"ﾖｼﾀｶ","pref":"千葉県","city":"印西市","address":"吉高"},
{"zip_code":"2702327","kana_pref":"ﾁﾊﾞｹﾝ","kana_city":"ｲﾝｻﾞｲｼ","kana_address":"ﾘｭｳﾌｸｼﾞ","pref":"千葉県","city":"印西市","address":"竜腹寺"},
{"zip_code":"2701609","kana_pref":"ﾁﾊﾞｹﾝ","kana_city":"ｲﾝｻﾞｲｼ","kana_address":"ﾜｶﾊｷﾞ","pref":"千葉県","city":"印西市","address":"若萩"},
{"zip_code":"2701400","kana_pref":"ﾁﾊﾞｹﾝ","kana_city":"ｼﾛｲｼ","kana_address":"","pref":"千葉県","city":"白井市","address":""},
{"zip_code":"2701425","kana_pref":"ﾁﾊﾞｹﾝ","kana_city":"ｼﾛｲｼ","kana_address":"ｲｹﾉｶﾐ","pref":"千葉県","city":"白井市","address":"池の上"},
{"zip_code":"2701401","kana_pref":"ﾁﾊﾞｹﾝ","kana_city":"ｼﾛｲｼ","kana_address":"ｲﾏｲ","pref":"千葉県","city":"白井市","address":"今井"},
{"zip_code":"2701434","kana_pref":"ﾁﾊﾞｹﾝ","kana_city":"ｼﾛｲｼ","kana_address":"ｵｵﾔﾏｸﾞﾁ","pref":"千葉県","city":"白井市","address":"大山口"},
{"zip_code":"2701404","kana_pref":"ﾁﾊﾞｹﾝ","kana_city":"ｼﾛｲｼ","kana_address":"ｵﾘﾀﾃ","pref":"千葉県","city":"白井市","address":"折立"},
{"zip_code":"2701403","kana_pref":"ﾁﾊﾞｹﾝ","kana_city":"ｼﾛｲｼ","kana_address":"ｶﾜﾗｺﾞ","pref":"千葉県","city":"白井市","address":"河原子"},
{"zip_code":"2701437","kana_pref":"ﾁﾊﾞｹﾝ","kana_city":"ｼﾛｲｼ","kana_address":"ｷ","pref":"千葉県","city":"白井市","address":"木"},
{"zip_code":"2701415","kana_pref":"ﾁﾊﾞｹﾝ","kana_city":"ｼﾛｲｼ","kana_address":"ｷﾖﾄﾞ","pref":"千葉県","city":"白井市","address":"清戸"},
{"zip_code":"2701433","kana_pref":"ﾁﾊﾞｹﾝ","kana_city":"ｼﾛｲｼ","kana_address":"ｹﾔｷﾀﾞｲ","pref":"千葉県","city":"白井市","address":"けやき台"},
{"zip_code":"2701412","kana_pref":"ﾁﾊﾞｹﾝ","kana_city":"ｼﾛｲｼ","kana_address":"ｻｸﾗﾀﾞｲ","pref":"千葉県","city":"白井市","address":"桜台"},
{"zip_code":"2701426","kana_pref":"ﾁﾊﾞｹﾝ","kana_city":"ｼﾛｲｼ","kana_address":"ｻｻﾂﾞｶ","pref":"千葉県","city":"白井市","address":"笹塚"},
{"zip_code":"2701416","kana_pref":"ﾁﾊﾞｹﾝ","kana_city":"ｼﾛｲｼ","kana_address":"ｼｼﾊﾞ","pref":"千葉県","city":"白井市","address":"神々廻"},
{"zip_code":"2701435","kana_pref":"ﾁﾊﾞｹﾝ","kana_city":"ｼﾛｲｼ","kana_address":"ｼﾐｽﾞｸﾞﾁ","pref":"千葉県","city":"白井市","address":"清水口"},
{"zip_code":"2701421","kana_pref":"ﾁﾊﾞｹﾝ","kana_city":"ｼﾛｲｼ","kana_address":"ｼﾛｲ","pref":"千葉県","city":"白井市","address":"白井"},
{"zip_code":"2701439","kana_pref":"ﾁﾊﾞｹﾝ","kana_city":"ｼﾛｲｼ","kana_address":"ﾀﾞｲﾏﾂ","pref":"千葉県","city":"白井市","address":"大松"},
{"zip_code":"2701405","kana_pref":"ﾁﾊﾞｹﾝ","kana_city":"ｼﾛｲｼ","kana_address":"ﾄﾐﾂｶ","pref":"千葉県","city":"白井市","address":"富塚"},
{"zip_code":"2701411","kana_pref":"ﾁﾊﾞｹﾝ","kana_city":"ｼﾛｲｼ","kana_address":"ﾄﾖｲﾁ","pref":"千葉県","city":"白井市","address":"十余一"},
{"zip_code":"2701407","kana_pref":"ﾁﾊﾞｹﾝ","kana_city":"ｼﾛｲｼ","kana_address":"ﾅｳﾁ","pref":"千葉県","city":"白井市","address":"名内"},
{"zip_code":"2701406","kana_pref":"ﾁﾊﾞｹﾝ","kana_city":"ｼﾛｲｼ","kana_address":"ﾅｶ","pref":"千葉県","city":"白井市","address":"中"},
{"zip_code":"2701436","kana_pref":"ﾁﾊﾞｹﾝ","kana_city":"ｼﾛｲｼ","kana_address":"ﾅﾅﾂｷﾞﾀﾞｲ","pref":"千葉県","city":"白井市","address":"七次台"},
{"zip_code":"2701408","kana_pref":"ﾁﾊﾞｹﾝ","kana_city":"ｼﾛｲｼ","kana_address":"ﾆｼｼﾛｲ","pref":"千葉県","city":"白井市","address":"西白井"},
{"zip_code":"2701431","kana_pref":"ﾁﾊﾞｹﾝ","kana_city":"ｼﾛｲｼ","kana_address":"ﾈ","pref":"千葉県","city":"白井市","address":"根"},
{"zip_code":"2701438","kana_pref":"ﾁﾊﾞｹﾝ","kana_city":"ｼﾛｲｼ","kana_address":"ﾉｸﾞﾁ","pref":"千葉県","city":"白井市","address":"野口"},
{"zip_code":"2701402","kana_pref":"ﾁﾊﾞｹﾝ","kana_city":"ｼﾛｲｼ","kana_address":"ﾋﾗﾂｶ","pref":"千葉県","city":"白井市","address":"平塚"},
{"zip_code":"2701422","kana_pref":"ﾁﾊﾞｹﾝ","kana_city":"ｼﾛｲｼ","kana_address":"ﾌｸ","pref":"千葉県","city":"白井市","address":"復"},
{"zip_code":"2701432","kana_pref":"ﾁﾊﾞｹﾝ","kana_city":"ｼﾛｲｼ","kana_address":"ﾌｼﾞ","pref":"千葉県","city":"白井市","address":"冨士"},
{"zip_code":"2701424","kana_pref":"ﾁﾊﾞｹﾝ","kana_city":"ｼﾛｲｼ","kana_address":"ﾎﾘｺﾞﾒ","pref":"千葉県","city":"白井市","address":"堀込"},
{"zip_code":"2701423","kana_pref":"ﾁﾊﾞｹﾝ","kana_city":"ｼﾛｲｼ","kana_address":"ﾐﾅﾐﾔﾏ","pref":"千葉県","city":"白井市","address":"南山"},
{"zip_code":"2701413","kana_pref":"ﾁﾊﾞｹﾝ","kana_city":"ｼﾛｲｼ","kana_address":"ﾑｻﾞｲ","pref":"千葉県","city":"白井市","address":"武西"},
{"zip_code":"2701414","kana_pref":"ﾁﾊﾞｹﾝ","kana_city":"ｼﾛｲｼ","kana_address":"ﾔﾀ","pref":"千葉県","city":"白井市","address":"谷田"},
{"zip_code":"2701500","kana_pref":"ﾁﾊﾞｹﾝ","kana_city":"ｲﾝﾊﾞｸﾞﾝｻｶｴﾏﾁ","kana_address":"","pref":"千葉県","city":"印旛郡栄町","address":""},
{"zip_code":"2701516","kana_pref":"ﾁﾊﾞｹﾝ","kana_city":"ｲﾝﾊﾞｸﾞﾝｻｶｴﾏﾁ","kana_address":"ｱｼﾞｷ","pref":"千葉県","city":"印旛郡栄町","address":"安食"},
{"zip_code":"2701515","kana_pref":"ﾁﾊﾞｹﾝ","kana_city":"ｲﾝﾊﾞｸﾞﾝｻｶｴﾏﾁ","kana_address":"ｱｼﾞｷﾀﾞｲ","pref":"千葉県","city":"印旛郡栄町","address":"安食台"},
{"zip_code":"2701517","kana_pref":"ﾁﾊﾞｹﾝ","kana_city":"ｲﾝﾊﾞｸﾞﾝｻｶｴﾏﾁ","kana_address":"ｱｼﾞｷﾎﾞﾂｸｲｼﾝﾃﾞﾝ","pref":"千葉県","city":"印旛郡栄町","address":"安食卜杭新田"},
{"zip_code":"2701504","kana_pref":"ﾁﾊﾞｹﾝ","kana_city":"ｲﾝﾊﾞｸﾞﾝｻｶｴﾏﾁ","kana_address":"ｱｿｳ","pref":"千葉県","city":"印旛郡栄町","address":"麻生"},
{"zip_code":"2701543","kana_pref":"ﾁﾊﾞｹﾝ","kana_city":"ｲﾝﾊﾞｸﾞﾝｻｶｴﾏﾁ","kana_address":"ｳｹｶﾀ","pref":"千葉県","city":"印旛郡栄町","address":"請方"},
{"zip_code":"2701526","kana_pref":"ﾁﾊﾞｹﾝ","kana_city":"ｲﾝﾊﾞｸﾞﾝｻｶｴﾏﾁ","kana_address":"ｵｵﾓﾘ","pref":"千葉県","city":"印旛郡栄町","address":"大森"},
{"zip_code":"2701503","kana_pref":"ﾁﾊﾞｹﾝ","kana_city":"ｲﾝﾊﾞｸﾞﾝｻｶｴﾏﾁ","kana_address":"ｵｷﾂ","pref":"千葉県","city":"印旛郡栄町","address":"興津"},
{"zip_code":"2701527","kana_pref":"ﾁﾊﾞｹﾝ","kana_city":"ｲﾝﾊﾞｸﾞﾝｻｶｴﾏﾁ","kana_address":"ｵｼﾂｹ","pref":"千葉県","city":"印旛郡栄町","address":"押付"},
{"zip_code":"2701545","kana_pref":"ﾁﾊﾞｹﾝ","kana_city":"ｲﾝﾊﾞｸﾞﾝｻｶｴﾏﾁ","kana_address":"ｷﾀ","pref":"千葉県","city":"印旛郡栄町","address":"北"},
{"zip_code":"2701511","kana_pref":"ﾁﾊﾞｹﾝ","kana_city":"ｲﾝﾊﾞｸﾞﾝｻｶｴﾏﾁ","kana_address":"ｷﾀﾍﾞﾀ","pref":"千葉県","city":"印旛郡栄町","address":"北辺田"},
{"zip_code":"2701513","kana_pref":"ﾁﾊﾞｹﾝ","kana_city":"ｲﾝﾊﾞｸﾞﾝｻｶｴﾏﾁ","kana_address":"ｻｶﾅｵ","pref":"千葉県","city":"印旛郡栄町","address":"酒直"},
{"zip_code":"2701514","kana_pref":"ﾁﾊﾞｹﾝ","kana_city":"ｲﾝﾊﾞｸﾞﾝｻｶｴﾏﾁ","kana_address":"ｻｶﾅｵﾀﾞｲ","pref":"千葉県","city":"印旛郡栄町","address":"酒直台"},
{"zip_code":"2701525","kana_pref":"ﾁﾊﾞｹﾝ","kana_city":"ｲﾝﾊﾞｸﾞﾝｻｶｴﾏﾁ","kana_address":"ｼｶ","pref":"千葉県","city":"印旛郡栄町","address":"四箇"},
{"zip_code":"2701512","kana_pref":"ﾁﾊﾞｹﾝ","kana_city":"ｲﾝﾊﾞｸﾞﾝｻｶｴﾏﾁ","kana_address":"ｽｶ","pref":"千葉県","city":"印旛郡栄町","address":"須賀"},
{"zip_code":"2701531","kana_pref":"ﾁﾊﾞｹﾝ","kana_city":"ｲﾝﾊﾞｸﾞﾝｻｶｴﾏﾁ","kana_address":"ｿﾈ","pref":"千葉県","city":"印旛郡栄町","address":"曽根"},
{"zip_code":"2701544","kana_pref":"ﾁﾊﾞｹﾝ","kana_city":"ｲﾝﾊﾞｸﾞﾝｻｶｴﾏﾁ","kana_address":"ﾅｶﾔ","pref":"千葉県","city":"印旛郡栄町","address":"中谷"},
{"zip_code":"2701524","kana_pref":"ﾁﾊﾞｹﾝ","kana_city":"ｲﾝﾊﾞｸﾞﾝｻｶｴﾏﾁ","kana_address":"ﾅｶﾞﾄﾔ","pref":"千葉県","city":"印旛郡栄町","address":"長門谷"},
{"zip_code":"2701534","kana_pref":"ﾁﾊﾞｹﾝ","kana_city":"ｲﾝﾊﾞｸﾞﾝｻｶｴﾏﾁ","kana_address":"ﾆｼ","pref":"千葉県","city":"印旛郡栄町","address":"西"},
{"zip_code":"2701522","kana_pref":"ﾁﾊﾞｹﾝ","kana_city":"ｲﾝﾊﾞｸﾞﾝｻｶｴﾏﾁ","kana_address":"ﾌｶﾏｻｶﾅｵ","pref":"千葉県","city":"印旛郡栄町","address":"布鎌酒直"},
{"zip_code":"2701535","kana_pref":"ﾁﾊﾞｹﾝ","kana_city":"ｲﾝﾊﾞｸﾞﾝｻｶｴﾏﾁ","kana_address":"ﾌﾀﾞ","pref":"千葉県","city":"印旛郡栄町","address":"布太"},
{"zip_code":"2701546","kana_pref":"ﾁﾊﾞｹﾝ","kana_city":"ｲﾝﾊﾞｸﾞﾝｻｶｴﾏﾁ","kana_address":"ﾏﾅｲﾀﾅﾍﾞｺｼﾝﾃﾞﾝ","pref":"千葉県","city":"印旛郡栄町","address":"生板鍋子新田"},
{"zip_code":"2701532","kana_pref":"ﾁﾊﾞｹﾝ","kana_city":"ｲﾝﾊﾞｸﾞﾝｻｶｴﾏﾁ","kana_address":"ﾐﾅﾐ","pref":"千葉県","city":"印旛郡栄町","address":"南"},
{"zip_code":"2701533","kana_pref":"ﾁﾊﾞｹﾝ","kana_city":"ｲﾝﾊﾞｸﾞﾝｻｶｴﾏﾁ","kana_address":"ﾐﾅﾐｶﾞｵｶ","pref":"千葉県","city":"印旛郡栄町","address":"南ケ丘"},
{"zip_code":"2701536","kana_pref":"ﾁﾊﾞｹﾝ","kana_city":"ｲﾝﾊﾞｸﾞﾝｻｶｴﾏﾁ","kana_address":"ﾐﾜ","pref":"千葉県","city":"印旛郡栄町","address":"三和"},
{"zip_code":"2701502","kana_pref":"ﾁﾊﾞｹﾝ","kana_city":"ｲﾝﾊﾞｸﾞﾝｻｶｴﾏﾁ","kana_address":"ﾔｺｳ","pref":"千葉県","city":"印旛郡栄町","address":"矢口"},
{"zip_code":"2701501","kana_pref":"ﾁﾊﾞｹﾝ","kana_city":"ｲﾝﾊﾞｸﾞﾝｻｶｴﾏﾁ","kana_address":"ﾔｺｳｼﾝﾒｲ","pref":"千葉県","city":"印旛郡栄町","address":"矢口神明"},
{"zip_code":"2701542","kana_pref":"ﾁﾊﾞｹﾝ","kana_city":"ｲﾝﾊﾞｸﾞﾝｻｶｴﾏﾁ","kana_address":"ﾖﾂﾔ","pref":"千葉県","city":"印旛郡栄町","address":"四ッ谷"},
{"zip_code":"2701506","kana_pref":"ﾁﾊﾞｹﾝ","kana_city":"ｲﾝﾊﾞｸﾞﾝｻｶｴﾏﾁ","kana_address":"ﾘｭｳｶｸｼﾞ","pref":"千葉県","city":"印旛郡栄町","address":"龍角寺"},
{"zip_code":"2701505","kana_pref":"ﾁﾊﾞｹﾝ","kana_city":"ｲﾝﾊﾞｸﾞﾝｻｶｴﾏﾁ","kana_address":"ﾘｭｳｶｸｼﾞﾀﾞｲ","pref":"千葉県","city":"印旛郡栄町","address":"竜角寺台"},
{"zip_code":"2701541","kana_pref":"ﾁﾊﾞｹﾝ","kana_city":"ｲﾝﾊﾞｸﾞﾝｻｶｴﾏﾁ","kana_address":"ﾘｭｳｶﾞｻｷﾁｮｳﾌﾞ","pref":"千葉県","city":"印旛郡栄町","address":"龍ケ崎町歩"},
{"zip_code":"2701523","kana_pref":"ﾁﾊﾞｹﾝ","kana_city":"ｲﾝﾊﾞｸﾞﾝｻｶｴﾏﾁ","kana_address":"ﾜｷｶﾜ","pref":"千葉県","city":"印旛郡栄町","address":"脇川"},
{"zip_code":"2701521","kana_pref":"ﾁﾊﾞｹﾝ","kana_city":"ｲﾝﾊﾞｸﾞﾝｻｶｴﾏﾁ","kana_address":"ﾜﾀﾞ","pref":"千葉県","city":"印旛郡栄町","address":"和田"}]}