{"zip_code":[
{"zip_code":"2710043","kana_pref":"ﾁﾊﾞｹﾝ","kana_city":"ﾏﾂﾄﾞｼ","kana_address":"ｱｻﾋﾁｮｳ","pref":"千葉県","city":"松戸市","address":"旭町"},
{"zip_code":"2710076","kana_pref":"ﾁﾊﾞｹﾝ","kana_city":"ﾏﾂﾄﾞｼ","kana_address":"ｲﾜｾ","pref":"千葉県","city":"松戸市","address":"岩瀬"},
{"zip_code":"2710064","kana_pref":"ﾁﾊﾞｹﾝ","kana_city":"ﾏﾂﾄﾞｼ","kana_address":"ｶﾐﾎﾝｺﾞｳ","pref":"千葉県","city":"松戸市","address":"上本郷"},
{"zip_code":"2710094","kana_pref":"ﾁﾊﾞｹﾝ","kana_city":"ﾏﾂﾄﾞｼ","kana_address":"ｶﾐﾔｷﾘ","pref":"千葉県","city":"松戸市","address":"上矢切"},
{"zip_code":"2710063","kana_pref":"ﾁﾊﾞｹﾝ","kana_city":"ﾏﾂﾄﾞｼ","kana_address":"ｷﾀﾏﾂﾄﾞ","pref":"千葉県","city":"松戸市","address":"北松戸"},
{"zip_code":"2710097","kana_pref":"ﾁﾊﾞｹﾝ","kana_city":"ﾏﾂﾄﾞｼ","kana_address":"ｸﾘﾔﾏ","pref":"千葉県","city":"松戸市","address":"栗山"},
{"zip_code":"2710068","kana_pref":"ﾁﾊﾞｹﾝ","kana_city":"ﾏﾂﾄﾞｼ","kana_address":"ｺｶﾞｻｷ","pref":"千葉県","city":"松戸市","address":"古ケ崎"},
{"zip_code":"2710073","kana_pref":"ﾁﾊﾞｹﾝ","kana_city":"ﾏﾂﾄﾞｼ","kana_address":"ｺﾈﾓﾄ","pref":"千葉県","city":"松戸市","address":"小根本"},
{"zip_code":"2710093","kana_pref":"ﾁﾊﾞｹﾝ","kana_city":"ﾏﾂﾄﾞｼ","kana_address":"ｺﾔﾏ","pref":"千葉県","city":"松戸市","address":"小山"},
{"zip_code":"2710075","kana_pref":"ﾁﾊﾞｹﾝ","kana_city":"ﾏﾂﾄﾞｼ","kana_address":"ｺﾛｸﾀﾞｲ","pref":"千葉県","city":"松戸市","address":"胡録台"},
{"zip_code":"2710062","kana_pref":"ﾁﾊﾞｹﾝ","kana_city":"ﾏﾂﾄﾞｼ","kana_address":"ｻｶｴﾁｮｳ","pref":"千葉県","city":"松戸市","address":"栄町"},
{"zip_code":"2710061","kana_pref":"ﾁﾊﾞｹﾝ","kana_city":"ﾏﾂﾄﾞｼ","kana_address":"ｻｶｴﾁｮｳﾆｼ","pref":"千葉県","city":"松戸市","address":"栄町西"},
{"zip_code":"2710041","kana_pref":"ﾁﾊﾞｹﾝ","kana_city":"ﾏﾂﾄﾞｼ","kana_address":"ｼﾁｳｴﾓﾝｼﾝﾃﾞﾝ","pref":"千葉県","city":"松戸市","address":"七右衛門新田"},
{"zip_code":"2710096","kana_pref":"ﾁﾊﾞｹﾝ","kana_city":"ﾏﾂﾄﾞｼ","kana_address":"ｼﾓﾔｷﾘ","pref":"千葉県","city":"松戸市","address":"下矢切"},
{"zip_code":"2710052","kana_pref":"ﾁﾊﾞｹﾝ","kana_city":"ﾏﾂﾄﾞｼ","kana_address":"ｼﾝｻﾞｸ","pref":"千葉県","city":"松戸市","address":"新作"},
{"zip_code":"2710072","kana_pref":"ﾁﾊﾞｹﾝ","kana_city":"ﾏﾂﾄﾞｼ","kana_address":"ﾀｹｶﾞﾊﾅ","pref":"千葉県","city":"松戸市","address":"竹ケ花"},
{"zip_code":"2710071","kana_pref":"ﾁﾊﾞｹﾝ","kana_city":"ﾏﾂﾄﾞｼ","kana_address":"ﾀｹｶﾞﾊﾅﾆｼﾏﾁ","pref":"千葉県","city":"松戸市","address":"竹ケ花西町"},
{"zip_code":"2710053","kana_pref":"ﾁﾊﾞｹﾝ","kana_city":"ﾏﾂﾄﾞｼ","kana_address":"ﾅｶﾈ","pref":"千葉県","city":"松戸市","address":"中根"},
{"zip_code":"2710054","kana_pref":"ﾁﾊﾞｹﾝ","kana_city":"ﾏﾂﾄﾞｼ","kana_address":"ﾅｶﾈﾅｶﾞﾂﾁｮｳ","pref":"千葉県","city":"松戸市","address":"中根長津町"},
{"zip_code":"2710095","kana_pref":"ﾁﾊﾞｹﾝ","kana_city":"ﾏﾂﾄﾞｼ","kana_address":"ﾅｶﾔｷﾘ","pref":"千葉県","city":"松戸市","address":"中矢切"},
{"zip_code":"2710044","kana_pref":"ﾁﾊﾞｹﾝ","kana_city":"ﾏﾂﾄﾞｼ","kana_address":"ﾆｼﾏﾊﾞｼ","pref":"千葉県","city":"松戸市","address":"西馬橋"},
{"zip_code":"2710045","kana_pref":"ﾁﾊﾞｹﾝ","kana_city":"ﾏﾂﾄﾞｼ","kana_address":"ﾆｼﾏﾊﾞｼｱｲｶﾜﾁｮｳ","pref":"千葉県","city":"松戸市","address":"西馬橋相川町"},
{"zip_code":"2710046","kana_pref":"ﾁﾊﾞｹﾝ","kana_city":"ﾏﾂﾄﾞｼ","kana_address":"ﾆｼﾏﾊﾞｼｸﾗﾓﾄﾁｮｳ","pref":"千葉県","city":"松戸市","address":"西馬橋蔵元町"},
{"zip_code":"2710047","kana_pref":"ﾁﾊﾞｹﾝ","kana_city":"ﾏﾂﾄﾞｼ","kana_address":"ﾆｼﾏﾊﾞｼｻｲﾜｲﾁｮｳ","pref":"千葉県","city":"松戸市","address":"西馬橋幸町"},
{"zip_code":"2710048","kana_pref":"ﾁﾊﾞｹﾝ","kana_city":"ﾏﾂﾄﾞｼ","kana_address":"ﾆｼﾏﾊﾞｼﾋﾛﾃﾁｮｳ","pref":"千葉県","city":"松戸市","address":"西馬橋広手町"},
{"zip_code":"2710088","kana_pref":"ﾁﾊﾞｹﾝ","kana_city":"ﾏﾂﾄﾞｼ","kana_address":"ﾆｼﾞｭｯｾｲｷｶﾞｵｶｶｷﾉｷﾁｮｳ","pref":"千葉県","city":"松戸市","address":"二十世紀が丘柿の木町"},
{"zip_code":"2710082","kana_pref":"ﾁﾊﾞｹﾝ","kana_city":"ﾏﾂﾄﾞｼ","kana_address":"ﾆｼﾞｭｯｾｲｷｶﾞｵｶﾄﾔﾏﾁｮｳ","pref":"千葉県","city":"松戸市","address":"二十世紀が丘戸山町"},
{"zip_code":"2710085","kana_pref":"ﾁﾊﾞｹﾝ","kana_city":"ﾏﾂﾄﾞｼ","kana_address":"ﾆｼﾞｭｯｾｲｷｶﾞｵｶﾅｶﾏﾂﾁｮｳ","pref":"千葉県","city":"松戸市","address":"二十世紀が丘中松町"},
{"zip_code":"2710083","kana_pref":"ﾁﾊﾞｹﾝ","kana_city":"ﾏﾂﾄﾞｼ","kana_address":"ﾆｼﾞｭｯｾｲｷｶﾞｵｶﾅｼﾓﾄﾁｮｳ","pref":"千葉県","city":"松戸市","address":"二十世紀が丘梨元町"},
{"zip_code":"2710086","kana_pref":"ﾁﾊﾞｹﾝ","kana_city":"ﾏﾂﾄﾞｼ","kana_address":"ﾆｼﾞｭｯｾｲｷｶﾞｵｶﾊｷﾞﾁｮｳ","pref":"千葉県","city":"松戸市","address":"二十世紀が丘萩町"},
{"zip_code":"2710084","kana_pref":"ﾁﾊﾞｹﾝ","kana_city":"ﾏﾂﾄﾞｼ","kana_address":"ﾆｼﾞｭｯｾｲｷｶﾞｵｶﾏﾙﾔﾏﾁｮｳ","pref":"千葉県","city":"松戸市","address":"二十世紀が丘丸山町"},
{"zip_code":"2710081","kana_pref":"ﾁﾊﾞｹﾝ","kana_city":"ﾏﾂﾄﾞｼ","kana_address":"ﾆｼﾞｭｯｾｲｷｶﾞｵｶﾐﾉﾘﾁｮｳ","pref":"千葉県","city":"松戸市","address":"二十世紀が丘美野里町"},
{"zip_code":"2710077","kana_pref":"ﾁﾊﾞｹﾝ","kana_city":"ﾏﾂﾄﾞｼ","kana_address":"ﾈﾓﾄ","pref":"千葉県","city":"松戸市","address":"根本"},
{"zip_code":"2710067","kana_pref":"ﾁﾊﾞｹﾝ","kana_city":"ﾏﾂﾄﾞｼ","kana_address":"ﾋﾉｸﾁ","pref":"千葉県","city":"松戸市","address":"樋野口"},
{"zip_code":"2710091","kana_pref":"ﾁﾊﾞｹﾝ","kana_city":"ﾏﾂﾄﾞｼ","kana_address":"ﾎﾝﾁｮｳ","pref":"千葉県","city":"松戸市","address":"本町"},
{"zip_code":"2710092","kana_pref":"ﾁﾊﾞｹﾝ","kana_city":"ﾏﾂﾄﾞｼ","kana_address":"ﾏﾂﾄﾞ","pref":"千葉県","city":"松戸市","address":"松戸"},
{"zip_code":"2710051","kana_pref":"ﾁﾊﾞｹﾝ","kana_city":"ﾏﾂﾄﾞｼ","kana_address":"ﾏﾊﾞｼ","pref":"千葉県","city":"松戸市","address":"馬橋"},
{"zip_code":"2710074","kana_pref":"ﾁﾊﾞｹﾝ","kana_city":"ﾏﾂﾄﾞｼ","kana_address":"ﾐﾄﾞﾘｶﾞｵｶ","pref":"千葉県","city":"松戸市","address":"緑ケ丘"},
{"zip_code":"2710065","kana_pref":"ﾁﾊﾞｹﾝ","kana_city":"ﾏﾂﾄﾞｼ","kana_address":"ﾐﾅﾐﾊﾅｼﾏ","pref":"千葉県","city":"松戸市","address":"南花島"},
{"zip_code":"2710087","kana_pref":"ﾁﾊﾞｹﾝ","kana_city":"ﾏﾂﾄﾞｼ","kana_address":"ﾐﾔｺﾀﾞｲ","pref":"千葉県","city":"松戸市","address":"三矢小台"},
{"zip_code":"2710042","kana_pref":"ﾁﾊﾞｹﾝ","kana_city":"ﾏﾂﾄﾞｼ","kana_address":"ﾓﾝﾄｼﾝﾃﾞﾝ","pref":"千葉県","city":"松戸市","address":"主水新田"},
{"zip_code":"2710066","kana_pref":"ﾁﾊﾞｹﾝ","kana_city":"ﾏﾂﾄﾞｼ","kana_address":"ﾖｼｲﾁｮｳ","pref":"千葉県","city":"松戸市","address":"吉井町"}]}