{"zip_code":[
{"zip_code":"2720000","kana_pref":"ﾁﾊﾞｹﾝ","kana_city":"ｲﾁｶﾜｼ","kana_address":"","pref":"千葉県","city":"市川市","address":""},
{"zip_code":"2720143","kana_pref":"ﾁﾊﾞｹﾝ","kana_city":"ｲﾁｶﾜｼ","kana_address":"ｱｲﾉｶﾜ","pref":"千葉県","city":"市川市","address":"相之川"},
{"zip_code":"2720144","kana_pref":"ﾁﾊﾞｹﾝ","kana_city":"ｲﾁｶﾜｼ","kana_address":"ｱﾗｲ","pref":"千葉県","city":"市川市","address":"新井"},
{"zip_code":"2720106","kana_pref":"ﾁﾊﾞｹﾝ","kana_city":"ｲﾁｶﾜｼ","kana_address":"ｲｾｼﾞｭｸ","pref":"千葉県","city":"市川市","address":"伊勢宿"},
{"zip_code":"2720034","kana_pref":"ﾁﾊﾞｹﾝ","kana_city":"ｲﾁｶﾜｼ","kana_address":"ｲﾁｶﾜ","pref":"千葉県","city":"市川市","address":"市川"},
{"zip_code":"2720033","kana_pref":"ﾁﾊﾞｹﾝ","kana_city":"ｲﾁｶﾜｼ","kana_address":"ｲﾁｶﾜﾐﾅﾐ","pref":"千葉県","city":"市川市","address":"市川南"},
{"zip_code":"2720831","kana_pref":"ﾁﾊﾞｹﾝ","kana_city":"ｲﾁｶﾜｼ","kana_address":"ｲﾅｺﾞｼﾏﾁ","pref":"千葉県","city":"市川市","address":"稲越町"},
{"zip_code":"2720134","kana_pref":"ﾁﾊﾞｹﾝ","kana_city":"ｲﾁｶﾜｼ","kana_address":"ｲﾘﾌﾈ","pref":"千葉県","city":"市川市","address":"入船"},
{"zip_code":"2720032","kana_pref":"ﾁﾊﾞｹﾝ","kana_city":"ｲﾁｶﾜｼ","kana_address":"ｵｵｽ","pref":"千葉県","city":"市川市","address":"大洲"},
{"zip_code":"2720805","kana_pref":"ﾁﾊﾞｹﾝ","kana_city":"ｲﾁｶﾜｼ","kana_address":"ｵｵﾉﾏﾁ","pref":"千葉県","city":"市川市","address":"大野町"},
{"zip_code":"2720801","kana_pref":"ﾁﾊﾞｹﾝ","kana_city":"ｲﾁｶﾜｼ","kana_address":"ｵｵﾏﾁ","pref":"千葉県","city":"市川市","address":"大町"},
{"zip_code":"2720025","kana_pref":"ﾁﾊﾞｹﾝ","kana_city":"ｲﾁｶﾜｼ","kana_address":"ｵｵﾜﾀﾞ","pref":"千葉県","city":"市川市","address":"大和田"},
{"zip_code":"2720107","kana_pref":"ﾁﾊﾞｹﾝ","kana_city":"ｲﾁｶﾜｼ","kana_address":"ｵｼｷﾘ","pref":"千葉県","city":"市川市","address":"押切"},
{"zip_code":"2720022","kana_pref":"ﾁﾊﾞｹﾝ","kana_city":"ｲﾁｶﾜｼ","kana_address":"ｵﾆｺﾞｴ","pref":"千葉県","city":"市川市","address":"鬼越"},
{"zip_code":"2720015","kana_pref":"ﾁﾊﾞｹﾝ","kana_city":"ｲﾁｶﾜｼ","kana_address":"ｵﾆﾀｶ","pref":"千葉県","city":"市川市","address":"鬼高"},
{"zip_code":"2720142","kana_pref":"ﾁﾊﾞｹﾝ","kana_city":"ｲﾁｶﾜｼ","kana_address":"ｶｹﾏﾏ","pref":"千葉県","city":"市川市","address":"欠真間"},
{"zip_code":"2720802","kana_pref":"ﾁﾊﾞｹﾝ","kana_city":"ｲﾁｶﾜｼ","kana_address":"ｶｼﾜｲﾏﾁ","pref":"千葉県","city":"市川市","address":"柏井町"},
{"zip_code":"2720124","kana_pref":"ﾁﾊﾞｹﾝ","kana_city":"ｲﾁｶﾜｼ","kana_address":"ｶﾄｳｼﾝﾃﾞﾝ","pref":"千葉県","city":"市川市","address":"加藤新田"},
{"zip_code":"2720112","kana_pref":"ﾁﾊﾞｹﾝ","kana_city":"ｲﾁｶﾜｼ","kana_address":"ｶﾐﾐｮｳﾃﾞﾝ","pref":"千葉県","city":"市川市","address":"上妙典"},
{"zip_code":"2720012","kana_pref":"ﾁﾊﾞｹﾝ","kana_city":"ｲﾁｶﾜｼ","kana_address":"ｶﾐﾐｮｳﾃﾞﾝ","pref":"千葉県","city":"市川市","address":"上妙典"},
{"zip_code":"2720101","kana_pref":"ﾁﾊﾞｹﾝ","kana_city":"ｲﾁｶﾜｼ","kana_address":"ｶﾜﾗ","pref":"千葉県","city":"市川市","address":"河原"},
{"zip_code":"2720141","kana_pref":"ﾁﾊﾞｹﾝ","kana_city":"ｲﾁｶﾜｼ","kana_address":"ｶﾝﾄﾞﾘ","pref":"千葉県","city":"市川市","address":"香取"},
{"zip_code":"2720815","kana_pref":"ﾁﾊﾞｹﾝ","kana_city":"ｲﾁｶﾜｼ","kana_address":"ｷﾀｶﾀ","pref":"千葉県","city":"市川市","address":"北方"},
{"zip_code":"2720836","kana_pref":"ﾁﾊﾞｹﾝ","kana_city":"ｲﾁｶﾜｼ","kana_address":"ｷﾀｺｸﾌﾞﾝ","pref":"千葉県","city":"市川市","address":"北国分"},
{"zip_code":"2720133","kana_pref":"ﾁﾊﾞｹﾝ","kana_city":"ｲﾁｶﾜｼ","kana_address":"ｷﾞｮｳﾄｸｴｷﾏｴ","pref":"千葉県","city":"市川市","address":"行徳駅前"},
{"zip_code":"2720827","kana_pref":"ﾁﾊﾞｹﾝ","kana_city":"ｲﾁｶﾜｼ","kana_address":"ｺｳﾉﾀﾞｲ","pref":"千葉県","city":"市川市","address":"国府台"},
{"zip_code":"2720013","kana_pref":"ﾁﾊﾞｹﾝ","kana_city":"ｲﾁｶﾜｼ","kana_address":"ｺｳﾔ","pref":"千葉県","city":"市川市","address":"高谷"},
{"zip_code":"2720011","kana_pref":"ﾁﾊﾞｹﾝ","kana_city":"ｲﾁｶﾜｼ","kana_address":"ｺｳﾔｼﾝﾏﾁ","pref":"千葉県","city":"市川市","address":"高谷新町"},
{"zip_code":"2720834","kana_pref":"ﾁﾊﾞｹﾝ","kana_city":"ｲﾁｶﾜｼ","kana_address":"ｺｸﾌﾞﾝ","pref":"千葉県","city":"市川市","address":"国分"},
{"zip_code":"2720123","kana_pref":"ﾁﾊﾞｹﾝ","kana_city":"ｲﾁｶﾜｼ","kana_address":"ｻｲﾜｲ","pref":"千葉県","city":"市川市","address":"幸"},
{"zip_code":"2720127","kana_pref":"ﾁﾊﾞｹﾝ","kana_city":"ｲﾁｶﾜｼ","kana_address":"ｼｵﾊﾏ","pref":"千葉県","city":"市川市","address":"塩浜"},
{"zip_code":"2720114","kana_pref":"ﾁﾊﾞｹﾝ","kana_city":"ｲﾁｶﾜｼ","kana_address":"ｼｵﾔｷ","pref":"千葉県","city":"市川市","address":"塩焼"},
{"zip_code":"2720145","kana_pref":"ﾁﾊﾞｹﾝ","kana_city":"ｲﾁｶﾜｼ","kana_address":"ｼﾏｼﾞﾘ","pref":"千葉県","city":"市川市","address":"島尻"},
{"zip_code":"2720821","kana_pref":"ﾁﾊﾞｹﾝ","kana_city":"ｲﾁｶﾜｼ","kana_address":"ｼﾓｶｲﾂﾞｶ","pref":"千葉県","city":"市川市","address":"下貝塚"},
{"zip_code":"2720102","kana_pref":"ﾁﾊﾞｹﾝ","kana_city":"ｲﾁｶﾜｼ","kana_address":"ｼﾓｼﾝｼｭｸ","pref":"千葉県","city":"市川市","address":"下新宿"},
{"zip_code":"2720113","kana_pref":"ﾁﾊﾞｹﾝ","kana_city":"ｲﾁｶﾜｼ","kana_address":"ｼﾓﾐｮｳﾃﾞﾝ","pref":"千葉県","city":"市川市","address":"下妙典"},
{"zip_code":"2720035","kana_pref":"ﾁﾊﾞｹﾝ","kana_city":"ｲﾁｶﾜｼ","kana_address":"ｼﾝﾃﾞﾝ","pref":"千葉県","city":"市川市","address":"新田"},
{"zip_code":"2720121","kana_pref":"ﾁﾊﾞｹﾝ","kana_city":"ｲﾁｶﾜｼ","kana_address":"ｽｴﾋﾛ","pref":"千葉県","city":"市川市","address":"末広"},
{"zip_code":"2720824","kana_pref":"ﾁﾊﾞｹﾝ","kana_city":"ｲﾁｶﾜｼ","kana_address":"ｽｶﾞﾉ","pref":"千葉県","city":"市川市","address":"菅野"},
{"zip_code":"2720825","kana_pref":"ﾁﾊﾞｹﾝ","kana_city":"ｲﾁｶﾜｼ","kana_address":"ｽﾜﾀﾞ","pref":"千葉県","city":"市川市","address":"須和田"},
{"zip_code":"2720105","kana_pref":"ﾁﾊﾞｹﾝ","kana_city":"ｲﾁｶﾜｼ","kana_address":"ｾｷｶﾞｼﾏ","pref":"千葉県","city":"市川市","address":"関ケ島"},
{"zip_code":"2720832","kana_pref":"ﾁﾊﾞｹﾝ","kana_city":"ｲﾁｶﾜｼ","kana_address":"ｿﾔ","pref":"千葉県","city":"市川市","address":"曽谷"},
{"zip_code":"2720814","kana_pref":"ﾁﾊﾞｹﾝ","kana_city":"ｲﾁｶﾜｼ","kana_address":"ﾀｶｲｼｶﾞﾐ","pref":"千葉県","city":"市川市","address":"高石神"},
{"zip_code":"2720125","kana_pref":"ﾁﾊﾞｹﾝ","kana_city":"ｲﾁｶﾜｼ","kana_address":"ﾀｶﾊﾏﾏﾁ","pref":"千葉県","city":"市川市","address":"高浜町"},
{"zip_code":"2720122","kana_pref":"ﾁﾊﾞｹﾝ","kana_city":"ｲﾁｶﾜｼ","kana_address":"ﾀｶﾗ","pref":"千葉県","city":"市川市","address":"宝"},
{"zip_code":"2720014","kana_pref":"ﾁﾊﾞｹﾝ","kana_city":"ｲﾁｶﾜｼ","kana_address":"ﾀｼﾞﾘ","pref":"千葉県","city":"市川市","address":"田尻"},
{"zip_code":"2720126","kana_pref":"ﾁﾊﾞｹﾝ","kana_city":"ｲﾁｶﾜｼ","kana_address":"ﾁﾄﾞﾘﾁｮｳ","pref":"千葉県","city":"市川市","address":"千鳥町"},
{"zip_code":"2720024","kana_pref":"ﾁﾊﾞｹﾝ","kana_city":"ｲﾁｶﾜｼ","kana_address":"ﾄｳｶｷﾞ","pref":"千葉県","city":"市川市","address":"稲荷木"},
{"zip_code":"2720115","kana_pref":"ﾁﾊﾞｹﾝ","kana_city":"ｲﾁｶﾜｼ","kana_address":"ﾄﾐﾊﾏ","pref":"千葉県","city":"市川市","address":"富浜"},
{"zip_code":"2720835","kana_pref":"ﾁﾊﾞｹﾝ","kana_city":"ｲﾁｶﾜｼ","kana_address":"ﾅｶｺｸﾌﾞﾝ","pref":"千葉県","city":"市川市","address":"中国分"},
{"zip_code":"2720813","kana_pref":"ﾁﾊﾞｹﾝ","kana_city":"ｲﾁｶﾜｼ","kana_address":"ﾅｶﾔﾏ","pref":"千葉県","city":"市川市","address":"中山"},
{"zip_code":"2720136","kana_pref":"ﾁﾊﾞｹﾝ","kana_city":"ｲﾁｶﾜｼ","kana_address":"ﾆｲﾊﾏ","pref":"千葉県","city":"市川市","address":"新浜"},
{"zip_code":"2720004","kana_pref":"ﾁﾊﾞｹﾝ","kana_city":"ｲﾁｶﾜｼ","kana_address":"ﾊﾞﾗｷ","pref":"千葉県","city":"市川市","address":"原木"},
{"zip_code":"2720026","kana_pref":"ﾁﾊﾞｹﾝ","kana_city":"ｲﾁｶﾜｼ","kana_address":"ﾋｶﾞｼｵｵﾜﾀﾞ","pref":"千葉県","city":"市川市","address":"東大和田"},
{"zip_code":"2720833","kana_pref":"ﾁﾊﾞｹﾝ","kana_city":"ｲﾁｶﾜｼ","kana_address":"ﾋｶﾞｼｺｸﾌﾞﾝ","pref":"千葉県","city":"市川市","address":"東国分"},
{"zip_code":"2720823","kana_pref":"ﾁﾊﾞｹﾝ","kana_city":"ｲﾁｶﾜｼ","kana_address":"ﾋｶﾞｼｽｶﾞﾉ","pref":"千葉県","city":"市川市","address":"東菅野"},
{"zip_code":"2720003","kana_pref":"ﾁﾊﾞｹﾝ","kana_city":"ｲﾁｶﾜｼ","kana_address":"ﾋｶﾞｼﾊﾏ","pref":"千葉県","city":"市川市","address":"東浜"},
{"zip_code":"2720135","kana_pref":"ﾁﾊﾞｹﾝ","kana_city":"ｲﾁｶﾜｼ","kana_address":"ﾋﾉﾃﾞ","pref":"千葉県","city":"市川市","address":"日之出"},
{"zip_code":"2720031","kana_pref":"ﾁﾊﾞｹﾝ","kana_city":"ｲﾁｶﾜｼ","kana_address":"ﾋﾗﾀ","pref":"千葉県","city":"市川市","address":"平田"},
{"zip_code":"2720146","kana_pref":"ﾁﾊﾞｹﾝ","kana_city":"ｲﾁｶﾜｼ","kana_address":"ﾋﾛｵ","pref":"千葉県","city":"市川市","address":"広尾"},
{"zip_code":"2720137","kana_pref":"ﾁﾊﾞｹﾝ","kana_city":"ｲﾁｶﾜｼ","kana_address":"ﾌｸｴｲ","pref":"千葉県","city":"市川市","address":"福栄"},
{"zip_code":"2720001","kana_pref":"ﾁﾊﾞｹﾝ","kana_city":"ｲﾁｶﾜｼ","kana_address":"ﾌﾀﾏﾀ","pref":"千葉県","city":"市川市","address":"二俣"},
{"zip_code":"2720002","kana_pref":"ﾁﾊﾞｹﾝ","kana_city":"ｲﾁｶﾜｼ","kana_address":"ﾌﾀﾏﾀｼﾝﾏﾁ","pref":"千葉県","city":"市川市","address":"二俣新町"},
{"zip_code":"2720803","kana_pref":"ﾁﾊﾞｹﾝ","kana_city":"ｲﾁｶﾜｼ","kana_address":"ﾎｳﾒﾏﾁ","pref":"千葉県","city":"市川市","address":"奉免町"},
{"zip_code":"2720811","kana_pref":"ﾁﾊﾞｹﾝ","kana_city":"ｲﾁｶﾜｼ","kana_address":"ﾎﾞｯｹﾏﾁ","pref":"千葉県","city":"市川市","address":"北方町"},
{"zip_code":"2720837","kana_pref":"ﾁﾊﾞｹﾝ","kana_city":"ｲﾁｶﾜｼ","kana_address":"ﾎﾘﾉｳﾁ","pref":"千葉県","city":"市川市","address":"堀之内"},
{"zip_code":"2720103","kana_pref":"ﾁﾊﾞｹﾝ","kana_city":"ｲﾁｶﾜｼ","kana_address":"ﾎﾝｷﾞｮｳﾄｸ","pref":"千葉県","city":"市川市","address":"本行徳"},
{"zip_code":"2720104","kana_pref":"ﾁﾊﾞｹﾝ","kana_city":"ｲﾁｶﾜｼ","kana_address":"ﾎﾝｼｵ","pref":"千葉県","city":"市川市","address":"本塩"},
{"zip_code":"2720826","kana_pref":"ﾁﾊﾞｹﾝ","kana_city":"ｲﾁｶﾜｼ","kana_address":"ﾏﾏ","pref":"千葉県","city":"市川市","address":"真間"},
{"zip_code":"2720131","kana_pref":"ﾁﾊﾞｹﾝ","kana_city":"ｲﾁｶﾜｼ","kana_address":"ﾐﾅﾄ","pref":"千葉県","city":"市川市","address":"湊"},
{"zip_code":"2720132","kana_pref":"ﾁﾊﾞｹﾝ","kana_city":"ｲﾁｶﾜｼ","kana_address":"ﾐﾅﾄｼﾝﾃﾞﾝ","pref":"千葉県","city":"市川市","address":"湊新田"},
{"zip_code":"2720804","kana_pref":"ﾁﾊﾞｹﾝ","kana_city":"ｲﾁｶﾜｼ","kana_address":"ﾐﾅﾐｵｵﾉ","pref":"千葉県","city":"市川市","address":"南大野"},
{"zip_code":"2720138","kana_pref":"ﾁﾊﾞｹﾝ","kana_city":"ｲﾁｶﾜｼ","kana_address":"ﾐﾅﾐｷﾞｮｳﾄｸ","pref":"千葉県","city":"市川市","address":"南行徳"},
{"zip_code":"2720023","kana_pref":"ﾁﾊﾞｹﾝ","kana_city":"ｲﾁｶﾜｼ","kana_address":"ﾐﾅﾐﾔﾜﾀ","pref":"千葉県","city":"市川市","address":"南八幡"},
{"zip_code":"2720822","kana_pref":"ﾁﾊﾞｹﾝ","kana_city":"ｲﾁｶﾜｼ","kana_address":"ﾐﾔｸﾎﾞ","pref":"千葉県","city":"市川市","address":"宮久保"},
{"zip_code":"2720111","kana_pref":"ﾁﾊﾞｹﾝ","kana_city":"ｲﾁｶﾜｼ","kana_address":"ﾐｮｳﾃﾞﾝ","pref":"千葉県","city":"市川市","address":"妙典"},
{"zip_code":"2720816","kana_pref":"ﾁﾊﾞｹﾝ","kana_city":"ｲﾁｶﾜｼ","kana_address":"ﾓﾄｷﾀｶﾀ","pref":"千葉県","city":"市川市","address":"本北方"},
{"zip_code":"2720021","kana_pref":"ﾁﾊﾞｹﾝ","kana_city":"ｲﾁｶﾜｼ","kana_address":"ﾔﾜﾀ","pref":"千葉県","city":"市川市","address":"八幡"},
{"zip_code":"2720812","kana_pref":"ﾁﾊﾞｹﾝ","kana_city":"ｲﾁｶﾜｼ","kana_address":"ﾜｶﾐﾔ","pref":"千葉県","city":"市川市","address":"若宮"}]}