{"zip_code":[
{"zip_code":"2740066","kana_pref":"ﾁﾊﾞｹﾝ","kana_city":"ﾌﾅﾊﾞｼｼ","kana_address":"ｵｵｱﾅﾁｮｳ","pref":"千葉県","city":"船橋市","address":"大穴町"},
{"zip_code":"2740067","kana_pref":"ﾁﾊﾞｹﾝ","kana_city":"ﾌﾅﾊﾞｼｼ","kana_address":"ｵｵｱﾅﾐﾅﾐ","pref":"千葉県","city":"船橋市","address":"大穴南"},
{"zip_code":"2740068","kana_pref":"ﾁﾊﾞｹﾝ","kana_city":"ﾌﾅﾊﾞｼｼ","kana_address":"ｵｵｱﾅｷﾀ","pref":"千葉県","city":"船橋市","address":"大穴北"},
{"zip_code":"2740082","kana_pref":"ﾁﾊﾞｹﾝ","kana_city":"ﾌﾅﾊﾞｼｼ","kana_address":"ｵｵｼﾞﾝﾎﾞｳﾁｮｳ","pref":"千葉県","city":"船橋市","address":"大神保町"},
{"zip_code":"2740054","kana_pref":"ﾁﾊﾞｹﾝ","kana_city":"ﾌﾅﾊﾞｼｼ","kana_address":"ｶﾈﾎﾘﾁｮｳ","pref":"千葉県","city":"船橋市","address":"金堀町"},
{"zip_code":"2740055","kana_pref":"ﾁﾊﾞｹﾝ","kana_city":"ﾌﾅﾊﾞｼｼ","kana_address":"ｸｽｶﾞﾔﾏﾁｮｳ","pref":"千葉県","city":"船橋市","address":"楠が山町"},
{"zip_code":"2740051","kana_pref":"ﾁﾊﾞｹﾝ","kana_city":"ﾌﾅﾊﾞｼｼ","kana_address":"ｸﾙﾏｶﾞﾀﾁｮｳ","pref":"千葉県","city":"船橋市","address":"車方町"},
{"zip_code":"2740801","kana_pref":"ﾁﾊﾞｹﾝ","kana_city":"ﾌﾅﾊﾞｼｼ","kana_address":"ｺｳﾔﾀﾞｲ","pref":"千葉県","city":"船橋市","address":"高野台"},
{"zip_code":"2740081","kana_pref":"ﾁﾊﾞｹﾝ","kana_city":"ﾌﾅﾊﾞｼｼ","kana_address":"ｺﾉﾀﾞﾁｮｳ","pref":"千葉県","city":"船橋市","address":"小野田町"},
{"zip_code":"2740061","kana_pref":"ﾁﾊﾞｹﾝ","kana_city":"ﾌﾅﾊﾞｼｼ","kana_address":"ｺﾜｶﾞﾏﾁｮｳ","pref":"千葉県","city":"船橋市","address":"古和釜町"},
{"zip_code":"2740807","kana_pref":"ﾁﾊﾞｹﾝ","kana_city":"ﾌﾅﾊﾞｼｼ","kana_address":"ｻｷｶﾞｵｶ","pref":"千葉県","city":"船橋市","address":"咲が丘"},
{"zip_code":"2740816","kana_pref":"ﾁﾊﾞｹﾝ","kana_city":"ﾌﾅﾊﾞｼｼ","kana_address":"ｼﾊﾞﾔﾏ","pref":"千葉県","city":"船橋市","address":"芝山"},
{"zip_code":"2740814","kana_pref":"ﾁﾊﾞｹﾝ","kana_city":"ﾌﾅﾊﾞｼｼ","kana_address":"ｼﾝﾀｶﾈ","pref":"千葉県","city":"船橋市","address":"新高根"},
{"zip_code":"2740056","kana_pref":"ﾁﾊﾞｹﾝ","kana_city":"ﾌﾅﾊﾞｼｼ","kana_address":"ｼﾞﾝﾎﾞｳﾁｮｳ","pref":"千葉県","city":"船橋市","address":"神保町"},
{"zip_code":"2740052","kana_pref":"ﾁﾊﾞｹﾝ","kana_city":"ﾌﾅﾊﾞｼｼ","kana_address":"ｽｽﾞﾐﾁｮｳ","pref":"千葉県","city":"船橋市","address":"鈴身町"},
{"zip_code":"2740065","kana_pref":"ﾁﾊﾞｹﾝ","kana_city":"ﾌﾅﾊﾞｼｼ","kana_address":"ﾀｶﾈﾀﾞｲ","pref":"千葉県","city":"船橋市","address":"高根台"},
{"zip_code":"2740817","kana_pref":"ﾁﾊﾞｹﾝ","kana_city":"ﾌﾅﾊﾞｼｼ","kana_address":"ﾀｶﾈﾁｮｳ","pref":"千葉県","city":"船橋市","address":"高根町"},
{"zip_code":"2740074","kana_pref":"ﾁﾊﾞｹﾝ","kana_city":"ﾌﾅﾊﾞｼｼ","kana_address":"ﾀｷﾀﾞｲ","pref":"千葉県","city":"船橋市","address":"滝台"},
{"zip_code":"2740075","kana_pref":"ﾁﾊﾞｹﾝ","kana_city":"ﾌﾅﾊﾞｼｼ","kana_address":"ﾀｷﾀﾞｲﾁｮｳ","pref":"千葉県","city":"船橋市","address":"滝台町"},
{"zip_code":"2740073","kana_pref":"ﾁﾊﾞｹﾝ","kana_city":"ﾌﾅﾊﾞｼｼ","kana_address":"ﾀｷﾉｲ","pref":"千葉県","city":"船橋市","address":"田喜野井"},
{"zip_code":"2740062","kana_pref":"ﾁﾊﾞｹﾝ","kana_city":"ﾌﾅﾊﾞｼｼ","kana_address":"ﾂﾎﾞｲﾁｮｳ","pref":"千葉県","city":"船橋市","address":"坪井町"},
{"zip_code":"2740060","kana_pref":"ﾁﾊﾞｹﾝ","kana_city":"ﾌﾅﾊﾞｼｼ","kana_address":"ﾂﾎﾞｲﾋｶﾞｼ","pref":"千葉県","city":"船橋市","address":"坪井東"},
{"zip_code":"2740069","kana_pref":"ﾁﾊﾞｹﾝ","kana_city":"ﾌﾅﾊﾞｼｼ","kana_address":"ﾂﾎﾞｲﾆｼ","pref":"千葉県","city":"船橋市","address":"坪井西"},
{"zip_code":"2740053","kana_pref":"ﾁﾊﾞｹﾝ","kana_city":"ﾌﾅﾊﾞｼｼ","kana_address":"ﾄﾖﾄﾐﾁｮｳ","pref":"千葉県","city":"船橋市","address":"豊富町"},
{"zip_code":"2740826","kana_pref":"ﾁﾊﾞｹﾝ","kana_city":"ﾌﾅﾊﾞｼｼ","kana_address":"ﾅｶﾉｷ","pref":"千葉県","city":"船橋市","address":"中野木"},
{"zip_code":"2740821","kana_pref":"ﾁﾊﾞｹﾝ","kana_city":"ﾌﾅﾊﾞｼｼ","kana_address":"ﾅﾅﾊﾞﾔｼﾁｮｳ","pref":"千葉県","city":"船橋市","address":"七林町"},
{"zip_code":"2740071","kana_pref":"ﾁﾊﾞｹﾝ","kana_city":"ﾌﾅﾊﾞｼｼ","kana_address":"ﾅﾗｼﾉ","pref":"千葉県","city":"船橋市","address":"習志野"},
{"zip_code":"2740063","kana_pref":"ﾁﾊﾞｹﾝ","kana_city":"ﾌﾅﾊﾞｼｼ","kana_address":"ﾅﾗｼﾉﾀﾞｲ","pref":"千葉県","city":"船橋市","address":"習志野台"},
{"zip_code":"2740815","kana_pref":"ﾁﾊﾞｹﾝ","kana_city":"ﾌﾅﾊﾞｼｼ","kana_address":"ﾆｼﾅﾗｼﾉ","pref":"千葉県","city":"船橋市","address":"西習志野"},
{"zip_code":"2740823","kana_pref":"ﾁﾊﾞｹﾝ","kana_city":"ﾌﾅﾊﾞｼｼ","kana_address":"ﾆﾉﾐﾔ","pref":"千葉県","city":"船橋市","address":"二宮"},
{"zip_code":"2740822","kana_pref":"ﾁﾊﾞｹﾝ","kana_city":"ﾌﾅﾊﾞｼｼ","kana_address":"ﾊｻﾏﾁｮｳ","pref":"千葉県","city":"船橋市","address":"飯山満町"},
{"zip_code":"2740805","kana_pref":"ﾁﾊﾞｹﾝ","kana_city":"ﾌﾅﾊﾞｼｼ","kana_address":"ﾌﾀﾜﾋｶﾞｼ","pref":"千葉県","city":"船橋市","address":"二和東"},
{"zip_code":"2740806","kana_pref":"ﾁﾊﾞｹﾝ","kana_city":"ﾌﾅﾊﾞｼｼ","kana_address":"ﾌﾀﾜﾆｼ","pref":"千葉県","city":"船橋市","address":"二和西"},
{"zip_code":"2740824","kana_pref":"ﾁﾊﾞｹﾝ","kana_city":"ﾌﾅﾊﾞｼｼ","kana_address":"ﾏｴﾊﾞﾗﾋｶﾞｼ","pref":"千葉県","city":"船橋市","address":"前原東"},
{"zip_code":"2740825","kana_pref":"ﾁﾊﾞｹﾝ","kana_city":"ﾌﾅﾊﾞｼｼ","kana_address":"ﾏｴﾊﾞﾗﾆｼ","pref":"千葉県","city":"船橋市","address":"前原西"},
{"zip_code":"2740064","kana_pref":"ﾁﾊﾞｹﾝ","kana_city":"ﾌﾅﾊﾞｼｼ","kana_address":"ﾏﾂｶﾞｵｶ","pref":"千葉県","city":"船橋市","address":"松が丘"},
{"zip_code":"2740812","kana_pref":"ﾁﾊﾞｹﾝ","kana_city":"ﾌﾅﾊﾞｼｼ","kana_address":"ﾐｻｷ","pref":"千葉県","city":"船橋市","address":"三咲"},
{"zip_code":"2740811","kana_pref":"ﾁﾊﾞｹﾝ","kana_city":"ﾌﾅﾊﾞｼｼ","kana_address":"ﾐｻｷﾁｮｳ","pref":"千葉県","city":"船橋市","address":"三咲町"},
{"zip_code":"2740818","kana_pref":"ﾁﾊﾞｹﾝ","kana_city":"ﾌﾅﾊﾞｼｼ","kana_address":"ﾐﾄﾞﾘﾀﾞｲ","pref":"千葉県","city":"船橋市","address":"緑台"},
{"zip_code":"2740813","kana_pref":"ﾁﾊﾞｹﾝ","kana_city":"ﾌﾅﾊﾞｼｼ","kana_address":"ﾐﾅﾐﾐｻｷ","pref":"千葉県","city":"船橋市","address":"南三咲"},
{"zip_code":"2740804","kana_pref":"ﾁﾊﾞｹﾝ","kana_city":"ﾌﾅﾊﾞｼｼ","kana_address":"ﾐﾔｷﾞﾀﾞｲ","pref":"千葉県","city":"船橋市","address":"みやぎ台"},
{"zip_code":"2740072","kana_pref":"ﾁﾊﾞｹﾝ","kana_city":"ﾌﾅﾊﾞｼｼ","kana_address":"ﾐﾔﾏ","pref":"千葉県","city":"船橋市","address":"三山"},
{"zip_code":"2740802","kana_pref":"ﾁﾊﾞｹﾝ","kana_city":"ﾌﾅﾊﾞｼｼ","kana_address":"ﾔｷｶﾞﾔ","pref":"千葉県","city":"船橋市","address":"八木が谷"},
{"zip_code":"2740803","kana_pref":"ﾁﾊﾞｹﾝ","kana_city":"ﾌﾅﾊﾞｼｼ","kana_address":"ﾔｷｶﾞﾔﾁｮｳ","pref":"千葉県","city":"船橋市","address":"八木が谷町"},
{"zip_code":"2740077","kana_pref":"ﾁﾊﾞｹﾝ","kana_city":"ﾌﾅﾊﾞｼｼ","kana_address":"ﾔｸｴﾝﾀﾞｲ","pref":"千葉県","city":"船橋市","address":"薬円台"},
{"zip_code":"2740076","kana_pref":"ﾁﾊﾞｹﾝ","kana_city":"ﾌﾅﾊﾞｼｼ","kana_address":"ﾔｸｴﾝﾀﾞｲﾁｮｳ","pref":"千葉県","city":"船橋市","address":"薬園台町"}]}