{"zip_code":[
{"zip_code":"2750000","kana_pref":"ﾁﾊﾞｹﾝ","kana_city":"ﾅﾗｼﾉｼ","kana_address":"","pref":"千葉県","city":"習志野市","address":""},
{"zip_code":"2750024","kana_pref":"ﾁﾊﾞｹﾝ","kana_city":"ﾅﾗｼﾉｼ","kana_address":"ｱｶﾈﾊﾏ","pref":"千葉県","city":"習志野市","address":"茜浜"},
{"zip_code":"2750025","kana_pref":"ﾁﾊﾞｹﾝ","kana_city":"ﾅﾗｼﾉｼ","kana_address":"ｱｷﾂ","pref":"千葉県","city":"習志野市","address":"秋津"},
{"zip_code":"2750006","kana_pref":"ﾁﾊﾞｹﾝ","kana_city":"ﾅﾗｼﾉｼ","kana_address":"ｲｽﾞﾐﾁｮｳ","pref":"千葉県","city":"習志野市","address":"泉町"},
{"zip_code":"2750011","kana_pref":"ﾁﾊﾞｹﾝ","kana_city":"ﾅﾗｼﾉｼ","kana_address":"ｵｵｸﾎﾞ","pref":"千葉県","city":"習志野市","address":"大久保"},
{"zip_code":"2750022","kana_pref":"ﾁﾊﾞｹﾝ","kana_city":"ﾅﾗｼﾉｼ","kana_address":"ｶｽﾐ","pref":"千葉県","city":"習志野市","address":"香澄"},
{"zip_code":"2750014","kana_pref":"ﾁﾊﾞｹﾝ","kana_city":"ﾅﾗｼﾉｼ","kana_address":"ｻｷﾞﾇﾏ","pref":"千葉県","city":"習志野市","address":"鷺沼"},
{"zip_code":"2750015","kana_pref":"ﾁﾊﾞｹﾝ","kana_city":"ﾅﾗｼﾉｼ","kana_address":"ｻｷﾞﾇﾏﾀﾞｲ","pref":"千葉県","city":"習志野市","address":"鷺沼台"},
{"zip_code":"2750023","kana_pref":"ﾁﾊﾞｹﾝ","kana_city":"ﾅﾗｼﾉｼ","kana_address":"ｼﾊﾞｿﾞﾉ","pref":"千葉県","city":"習志野市","address":"芝園"},
{"zip_code":"2750005","kana_pref":"ﾁﾊﾞｹﾝ","kana_city":"ﾅﾗｼﾉｼ","kana_address":"ｼﾝｴｲ","pref":"千葉県","city":"習志野市","address":"新栄"},
{"zip_code":"2750021","kana_pref":"ﾁﾊﾞｹﾝ","kana_city":"ﾅﾗｼﾉｼ","kana_address":"ｿﾃﾞｶﾞｳﾗ","pref":"千葉県","city":"習志野市","address":"袖ケ浦"},
{"zip_code":"2750016","kana_pref":"ﾁﾊﾞｹﾝ","kana_city":"ﾅﾗｼﾉｼ","kana_address":"ﾂﾀﾞﾇﾏ","pref":"千葉県","city":"習志野市","address":"津田沼"},
{"zip_code":"2750013","kana_pref":"ﾁﾊﾞｹﾝ","kana_city":"ﾅﾗｼﾉｼ","kana_address":"ﾊﾅｻｷ","pref":"千葉県","city":"習志野市","address":"花咲"},
{"zip_code":"2750001","kana_pref":"ﾁﾊﾞｹﾝ","kana_city":"ﾅﾗｼﾉｼ","kana_address":"ﾋｶﾞｼﾅﾗｼﾉ","pref":"千葉県","city":"習志野市","address":"東習志野"},
{"zip_code":"2750017","kana_pref":"ﾁﾊﾞｹﾝ","kana_city":"ﾅﾗｼﾉｼ","kana_address":"ﾌｼﾞｻｷ","pref":"千葉県","city":"習志野市","address":"藤崎"},
{"zip_code":"2750002","kana_pref":"ﾁﾊﾞｹﾝ","kana_city":"ﾅﾗｼﾉｼ","kana_address":"ﾐﾓﾐ","pref":"千葉県","city":"習志野市","address":"実籾"},
{"zip_code":"2750003","kana_pref":"ﾁﾊﾞｹﾝ","kana_city":"ﾅﾗｼﾉｼ","kana_address":"ﾐﾓﾐﾎﾝｺﾞｳ","pref":"千葉県","city":"習志野市","address":"実籾本郷"},
{"zip_code":"2750012","kana_pref":"ﾁﾊﾞｹﾝ","kana_city":"ﾅﾗｼﾉｼ","kana_address":"ﾓﾄｵｵｸﾎﾞ","pref":"千葉県","city":"習志野市","address":"本大久保"},
{"zip_code":"2750004","kana_pref":"ﾁﾊﾞｹﾝ","kana_city":"ﾅﾗｼﾉｼ","kana_address":"ﾔｼｷ","pref":"千葉県","city":"習志野市","address":"屋敷"},
{"zip_code":"2750026","kana_pref":"ﾁﾊﾞｹﾝ","kana_city":"ﾅﾗｼﾉｼ","kana_address":"ﾔﾂ","pref":"千葉県","city":"習志野市","address":"谷津"},
{"zip_code":"2750027","kana_pref":"ﾁﾊﾞｹﾝ","kana_city":"ﾅﾗｼﾉｼ","kana_address":"ﾔﾂﾏﾁ","pref":"千葉県","city":"習志野市","address":"谷津町"}]}