{"zip_code":[
{"zip_code":"2760000","kana_pref":"ﾁﾊﾞｹﾝ","kana_city":"ﾔﾁﾖｼ","kana_address":"","pref":"千葉県","city":"八千代市","address":""},
{"zip_code":"2760008","kana_pref":"ﾁﾊﾞｹﾝ","kana_city":"ﾔﾁﾖｼ","kana_address":"ｲﾓﾉｸﾎﾞ","pref":"千葉県","city":"八千代市","address":"神久保"},
{"zip_code":"2760045","kana_pref":"ﾁﾊﾞｹﾝ","kana_city":"ﾔﾁﾖｼ","kana_address":"ｵｵﾜﾀﾞ","pref":"千葉県","city":"八千代市","address":"大和田"},
{"zip_code":"2760035","kana_pref":"ﾁﾊﾞｹﾝ","kana_city":"ﾔﾁﾖｼ","kana_address":"ｵｵﾜﾀﾞｼﾝﾃﾞﾝ","pref":"千葉県","city":"八千代市","address":"大和田新田"},
{"zip_code":"2760046","kana_pref":"ﾁﾊﾞｹﾝ","kana_city":"ﾔﾁﾖｼ","kana_address":"ｵｵﾜﾀﾞｼﾝﾃﾞﾝ","pref":"千葉県","city":"八千代市","address":"大和田新田"},
{"zip_code":"2760048","kana_pref":"ﾁﾊﾞｹﾝ","kana_city":"ﾔﾁﾖｼ","kana_address":"ｵｻｷ","pref":"千葉県","city":"八千代市","address":"尾崎"},
{"zip_code":"2760024","kana_pref":"ﾁﾊﾞｹﾝ","kana_city":"ﾔﾁﾖｼ","kana_address":"ｶﾂﾀ","pref":"千葉県","city":"八千代市","address":"勝田"},
{"zip_code":"2760023","kana_pref":"ﾁﾊﾞｹﾝ","kana_city":"ﾔﾁﾖｼ","kana_address":"ｶﾂﾀﾀﾞｲ","pref":"千葉県","city":"八千代市","address":"勝田台"},
{"zip_code":"2760020","kana_pref":"ﾁﾊﾞｹﾝ","kana_city":"ﾔﾁﾖｼ","kana_address":"ｶﾂﾀﾀﾞｲｷﾀ","pref":"千葉県","city":"八千代市","address":"勝田台北"},
{"zip_code":"2760025","kana_pref":"ﾁﾊﾞｹﾝ","kana_city":"ﾔﾁﾖｼ","kana_address":"ｶﾂﾀﾀﾞｲﾐﾅﾐ","pref":"千葉県","city":"八千代市","address":"勝田台南"},
{"zip_code":"2760016","kana_pref":"ﾁﾊﾞｹﾝ","kana_city":"ﾔﾁﾖｼ","kana_address":"ｶﾉ","pref":"千葉県","city":"八千代市","address":"神野"},
{"zip_code":"2760022","kana_pref":"ﾁﾊﾞｹﾝ","kana_city":"ﾔﾁﾖｼ","kana_address":"ｶﾐｺｳﾔ","pref":"千葉県","city":"八千代市","address":"上高野"},
{"zip_code":"2760043","kana_pref":"ﾁﾊﾞｹﾝ","kana_city":"ﾔﾁﾖｼ","kana_address":"ｶﾔﾀﾞ","pref":"千葉県","city":"八千代市","address":"萱田"},
{"zip_code":"2760044","kana_pref":"ﾁﾊﾞｹﾝ","kana_city":"ﾔﾁﾖｼ","kana_address":"ｶﾔﾀﾞﾏﾁ","pref":"千葉県","city":"八千代市","address":"萱田町"},
{"zip_code":"2760006","kana_pref":"ﾁﾊﾞｹﾝ","kana_city":"ﾔﾁﾖｼ","kana_address":"ｶﾝﾉｳ","pref":"千葉県","city":"八千代市","address":"桑納"},
{"zip_code":"2760001","kana_pref":"ﾁﾊﾞｹﾝ","kana_city":"ﾔﾁﾖｼ","kana_address":"ｺｲｹ","pref":"千葉県","city":"八千代市","address":"小池"},
{"zip_code":"2760011","kana_pref":"ﾁﾊﾞｹﾝ","kana_city":"ﾔﾁﾖｼ","kana_address":"ｻﾔﾏ","pref":"千葉県","city":"八千代市","address":"佐山"},
{"zip_code":"2760005","kana_pref":"ﾁﾊﾞｹﾝ","kana_city":"ﾔﾁﾖｼ","kana_address":"ｼﾏﾀﾞ","pref":"千葉県","city":"八千代市","address":"島田"},
{"zip_code":"2760004","kana_pref":"ﾁﾊﾞｹﾝ","kana_city":"ﾔﾁﾖｼ","kana_address":"ｼﾏﾀﾞﾀﾞｲ","pref":"千葉県","city":"八千代市","address":"島田台"},
{"zip_code":"2760026","kana_pref":"ﾁﾊﾞｹﾝ","kana_city":"ﾔﾁﾖｼ","kana_address":"ｼﾓｲﾁﾊﾞ","pref":"千葉県","city":"八千代市","address":"下市場"},
{"zip_code":"2760021","kana_pref":"ﾁﾊﾞｹﾝ","kana_city":"ﾔﾁﾖｼ","kana_address":"ｼﾓｺｳﾔ","pref":"千葉県","city":"八千代市","address":"下高野"},
{"zip_code":"2760007","kana_pref":"ﾁﾊﾞｹﾝ","kana_city":"ﾔﾁﾖｼ","kana_address":"ｿｳﾉﾊｼ","pref":"千葉県","city":"八千代市","address":"桑橋"},
{"zip_code":"2760003","kana_pref":"ﾁﾊﾞｹﾝ","kana_city":"ﾔﾁﾖｼ","kana_address":"ﾀﾞｲｶﾞｸﾁｮｳ","pref":"千葉県","city":"八千代市","address":"大学町"},
{"zip_code":"2760035","kana_pref":"ﾁﾊﾞｹﾝ","kana_city":"ﾔﾁﾖｼ","kana_address":"ﾀｶﾂ","pref":"千葉県","city":"八千代市","address":"高津"},
{"zip_code":"2760036","kana_pref":"ﾁﾊﾞｹﾝ","kana_city":"ﾔﾁﾖｼ","kana_address":"ﾀｶﾂ","pref":"千葉県","city":"八千代市","address":"高津"},
{"zip_code":"2760037","kana_pref":"ﾁﾊﾞｹﾝ","kana_city":"ﾔﾁﾖｼ","kana_address":"ﾀｶﾂﾋｶﾞｼ","pref":"千葉県","city":"八千代市","address":"高津東"},
{"zip_code":"2760017","kana_pref":"ﾁﾊﾞｹﾝ","kana_city":"ﾔﾁﾖｼ","kana_address":"ﾋﾗﾄ","pref":"千葉県","city":"八千代市","address":"平戸"},
{"zip_code":"2760013","kana_pref":"ﾁﾊﾞｹﾝ","kana_city":"ﾔﾁﾖｼ","kana_address":"ﾎｼﾅ","pref":"千葉県","city":"八千代市","address":"保品"},
{"zip_code":"2760012","kana_pref":"ﾁﾊﾞｹﾝ","kana_city":"ﾔﾁﾖｼ","kana_address":"ﾎﾘﾉｳﾁ","pref":"千葉県","city":"八千代市","address":"堀の内"},
{"zip_code":"2760002","kana_pref":"ﾁﾊﾞｹﾝ","kana_city":"ﾔﾁﾖｼ","kana_address":"ﾏｷﾉ","pref":"千葉県","city":"八千代市","address":"真木野"},
{"zip_code":"2760049","kana_pref":"ﾁﾊﾞｹﾝ","kana_city":"ﾔﾁﾖｼ","kana_address":"ﾐﾄﾞﾘｶﾞｵｶ","pref":"千葉県","city":"八千代市","address":"緑が丘"},
{"zip_code":"2760041","kana_pref":"ﾁﾊﾞｹﾝ","kana_city":"ﾔﾁﾖｼ","kana_address":"ﾑｷﾞﾏﾙ","pref":"千葉県","city":"八千代市","address":"麦丸"},
{"zip_code":"2760027","kana_pref":"ﾁﾊﾞｹﾝ","kana_city":"ﾔﾁﾖｼ","kana_address":"ﾑﾗｶﾐ","pref":"千葉県","city":"八千代市","address":"村上"},
{"zip_code":"2760028","kana_pref":"ﾁﾊﾞｹﾝ","kana_city":"ﾔﾁﾖｼ","kana_address":"ﾑﾗｶﾐ","pref":"千葉県","city":"八千代市","address":"村上"},
{"zip_code":"2760029","kana_pref":"ﾁﾊﾞｹﾝ","kana_city":"ﾔﾁﾖｼ","kana_address":"ﾑﾗｶﾐﾐﾅﾐ","pref":"千葉県","city":"八千代市","address":"村上南"},
{"zip_code":"2760032","kana_pref":"ﾁﾊﾞｹﾝ","kana_city":"ﾔﾁﾖｼ","kana_address":"ﾔﾁﾖﾀﾞｲﾋｶﾞｼ","pref":"千葉県","city":"八千代市","address":"八千代台東"},
{"zip_code":"2760034","kana_pref":"ﾁﾊﾞｹﾝ","kana_city":"ﾔﾁﾖｼ","kana_address":"ﾔﾁﾖﾀﾞｲﾆｼ","pref":"千葉県","city":"八千代市","address":"八千代台西"},
{"zip_code":"2760033","kana_pref":"ﾁﾊﾞｹﾝ","kana_city":"ﾔﾁﾖｼ","kana_address":"ﾔﾁﾖﾀﾞｲﾐﾅﾐ","pref":"千葉県","city":"八千代市","address":"八千代台南"},
{"zip_code":"2760031","kana_pref":"ﾁﾊﾞｹﾝ","kana_city":"ﾔﾁﾖｼ","kana_address":"ﾔﾁﾖﾀﾞｲｷﾀ","pref":"千葉県","city":"八千代市","address":"八千代台北"},
{"zip_code":"2760042","kana_pref":"ﾁﾊﾞｹﾝ","kana_city":"ﾔﾁﾖｼ","kana_address":"ﾕﾘﾉｷﾀﾞｲ","pref":"千葉県","city":"八千代市","address":"ゆりのき台"},
{"zip_code":"2760047","kana_pref":"ﾁﾊﾞｹﾝ","kana_city":"ﾔﾁﾖｼ","kana_address":"ﾖｼﾊｼ","pref":"千葉県","city":"八千代市","address":"吉橋"},
{"zip_code":"2760014","kana_pref":"ﾁﾊﾞｹﾝ","kana_city":"ﾔﾁﾖｼ","kana_address":"ﾖﾅﾓﾄ","pref":"千葉県","city":"八千代市","address":"米本"},
{"zip_code":"2760015","kana_pref":"ﾁﾊﾞｹﾝ","kana_city":"ﾔﾁﾖｼ","kana_address":"ﾖﾅﾓﾄ","pref":"千葉県","city":"八千代市","address":"米本"}]}