{"zip_code":[
{"zip_code":"2770000","kana_pref":"ﾁﾊﾞｹﾝ","kana_city":"ｶｼﾜｼ","kana_address":"","pref":"千葉県","city":"柏市","address":""},
{"zip_code":"2770881","kana_pref":"ﾁﾊﾞｹﾝ","kana_city":"ｶｼﾜｼ","kana_address":"ｱｵﾀｼﾝﾃﾞﾝﾄﾋﾞﾁ","pref":"千葉県","city":"柏市","address":"青田新田飛地"},
{"zip_code":"2770055","kana_pref":"ﾁﾊﾞｹﾝ","kana_city":"ｶｼﾜｼ","kana_address":"ｱｵﾊﾞﾀﾞｲ","pref":"千葉県","city":"柏市","address":"青葉台"},
{"zip_code":"2770027","kana_pref":"ﾁﾊﾞｹﾝ","kana_city":"ｶｼﾜｼ","kana_address":"ｱｶﾈﾁｮｳ","pref":"千葉県","city":"柏市","address":"あかね町"},
{"zip_code":"2770843","kana_pref":"ﾁﾊﾞｹﾝ","kana_city":"ｶｼﾜｼ","kana_address":"ｱｹﾊﾗ","pref":"千葉県","city":"柏市","address":"明原"},
{"zip_code":"2770841","kana_pref":"ﾁﾊﾞｹﾝ","kana_city":"ｶｼﾜｼ","kana_address":"ｱｹﾎﾞﾉ","pref":"千葉県","city":"柏市","address":"あけぼの"},
{"zip_code":"2770852","kana_pref":"ﾁﾊﾞｹﾝ","kana_city":"ｶｼﾜｼ","kana_address":"ｱｻﾋﾁｮｳ","pref":"千葉県","city":"柏市","address":"旭町"},
{"zip_code":"2770014","kana_pref":"ﾁﾊﾞｹﾝ","kana_city":"ｶｼﾜｼ","kana_address":"ｱｽﾞﾏ","pref":"千葉県","city":"柏市","address":"東"},
{"zip_code":"2770011","kana_pref":"ﾁﾊﾞｹﾝ","kana_city":"ｶｼﾜｼ","kana_address":"ｱｽﾞﾏｶﾐﾁｮｳ","pref":"千葉県","city":"柏市","address":"東上町"},
{"zip_code":"2770013","kana_pref":"ﾁﾊﾞｹﾝ","kana_city":"ｶｼﾜｼ","kana_address":"ｱｽﾞﾏﾀﾞｲﾎﾝﾁｮｳ","pref":"千葉県","city":"柏市","address":"東台本町"},
{"zip_code":"2770022","kana_pref":"ﾁﾊﾞｹﾝ","kana_city":"ｶｼﾜｼ","kana_address":"ｲｽﾞﾐﾁｮｳ","pref":"千葉県","city":"柏市","address":"泉町"},
{"zip_code":"2770883","kana_pref":"ﾁﾊﾞｹﾝ","kana_city":"ｶｼﾜｼ","kana_address":"ｲｾﾊﾗ","pref":"千葉県","city":"柏市","address":"伊勢原"},
{"zip_code":"2770074","kana_pref":"ﾁﾊﾞｹﾝ","kana_city":"ｶｼﾜｼ","kana_address":"ｲﾏﾔｶﾐﾁｮｳ","pref":"千葉県","city":"柏市","address":"今谷上町"},
{"zip_code":"2770073","kana_pref":"ﾁﾊﾞｹﾝ","kana_city":"ｶｼﾜｼ","kana_address":"ｲﾏﾔﾐﾅﾐﾁｮｳ","pref":"千葉県","city":"柏市","address":"今谷南町"},
{"zip_code":"2770086","kana_pref":"ﾁﾊﾞｹﾝ","kana_city":"ｶｼﾜｼ","kana_address":"ｴｲﾗｸﾀﾞｲ","pref":"千葉県","city":"柏市","address":"永楽台"},
{"zip_code":"2770805","kana_pref":"ﾁﾊﾞｹﾝ","kana_city":"ｶｼﾜｼ","kana_address":"ｵｵｱｵﾀ","pref":"千葉県","city":"柏市","address":"大青田"},
{"zip_code":"2770902","kana_pref":"ﾁﾊﾞｹﾝ","kana_city":"ｶｼﾜｼ","kana_address":"ｵｵｲ","pref":"千葉県","city":"柏市","address":"大井"},
{"zip_code":"2770901","kana_pref":"ﾁﾊﾞｹﾝ","kana_city":"ｶｼﾜｼ","kana_address":"ｵｵｲｼﾝﾃﾞﾝ","pref":"千葉県","city":"柏市","address":"大井新田"},
{"zip_code":"2770922","kana_pref":"ﾁﾊﾞｹﾝ","kana_city":"ｶｼﾜｼ","kana_address":"ｵｵｼﾏﾀ","pref":"千葉県","city":"柏市","address":"大島田"},
{"zip_code":"2770921","kana_pref":"ﾁﾊﾞｹﾝ","kana_city":"ｶｼﾜｼ","kana_address":"ｵｵﾂｶﾞｵｶ","pref":"千葉県","city":"柏市","address":"大津ケ丘"},
{"zip_code":"2770026","kana_pref":"ﾁﾊﾞｹﾝ","kana_city":"ｶｼﾜｼ","kana_address":"ｵｵﾂｶﾁｮｳ","pref":"千葉県","city":"柏市","address":"大塚町"},
{"zip_code":"2770813","kana_pref":"ﾁﾊﾞｹﾝ","kana_city":"ｶｼﾜｼ","kana_address":"ｵｵﾑﾛ","pref":"千葉県","city":"柏市","address":"大室"},
{"zip_code":"2770837","kana_pref":"ﾁﾊﾞｹﾝ","kana_city":"ｶｼﾜｼ","kana_address":"ｵｵﾔﾏﾀﾞｲ","pref":"千葉県","city":"柏市","address":"大山台"},
{"zip_code":"2770051","kana_pref":"ﾁﾊﾞｹﾝ","kana_city":"ｶｼﾜｼ","kana_address":"ｶｶﾞ","pref":"千葉県","city":"柏市","address":"加賀"},
{"zip_code":"2770924","kana_pref":"ﾁﾊﾞｹﾝ","kana_city":"ｶｼﾜｼ","kana_address":"ｶｻﾞﾊﾔ","pref":"千葉県","city":"柏市","address":"風早"},
{"zip_code":"2770005","kana_pref":"ﾁﾊﾞｹﾝ","kana_city":"ｶｼﾜｼ","kana_address":"ｶｼﾜ","pref":"千葉県","city":"柏市","address":"柏"},
{"zip_code":"2770004","kana_pref":"ﾁﾊﾞｹﾝ","kana_city":"ｶｼﾜｼ","kana_address":"ｶｼﾜｼﾀ","pref":"千葉県","city":"柏市","address":"柏下"},
{"zip_code":"2770006","kana_pref":"ﾁﾊﾞｹﾝ","kana_city":"ｶｼﾜｼ","kana_address":"ｶｼﾜﾅｶﾑﾗｼﾀ","pref":"千葉県","city":"柏市","address":"柏中村下"},
{"zip_code":"2770882","kana_pref":"ﾁﾊﾞｹﾝ","kana_city":"ｶｼﾜｼ","kana_address":"ｶｼﾜﾉﾊ","pref":"千葉県","city":"柏市","address":"柏の葉"},
{"zip_code":"2770003","kana_pref":"ﾁﾊﾞｹﾝ","kana_city":"ｶｼﾜｼ","kana_address":"ｶｼﾜﾎﾘﾉｳﾁｼﾝﾃﾞﾝ","pref":"千葉県","city":"柏市","address":"柏堀之内新田"},
{"zip_code":"2770811","kana_pref":"ﾁﾊﾞｹﾝ","kana_city":"ｶｼﾜｼ","kana_address":"ｶﾐﾄﾈ","pref":"千葉県","city":"柏市","address":"上利根"},
{"zip_code":"2770846","kana_pref":"ﾁﾊﾞｹﾝ","kana_city":"ｶｼﾜｼ","kana_address":"ｶﾔﾉﾁｮｳ","pref":"千葉県","city":"柏市","address":"かやの町"},
{"zip_code":"2770832","kana_pref":"ﾁﾊﾞｹﾝ","kana_city":"ｶｼﾜｼ","kana_address":"ｷﾀｶｼﾜ","pref":"千葉県","city":"柏市","address":"北柏"},
{"zip_code":"2770836","kana_pref":"ﾁﾊﾞｹﾝ","kana_city":"ｶｼﾜｼ","kana_address":"ｷﾀｶｼﾜﾀﾞｲ","pref":"千葉県","city":"柏市","address":"北柏台"},
{"zip_code":"2770031","kana_pref":"ﾁﾊﾞｹﾝ","kana_city":"ｶｼﾜｼ","kana_address":"ｷｯｺｳﾀﾞｲﾁｮｳ","pref":"千葉県","city":"柏市","address":"亀甲台町"},
{"zip_code":"2770803","kana_pref":"ﾁﾊﾞｹﾝ","kana_city":"ｶｼﾜｼ","kana_address":"ｺｱｵﾀ","pref":"千葉県","city":"柏市","address":"小青田"},
{"zip_code":"2770942","kana_pref":"ﾁﾊﾞｹﾝ","kana_city":"ｶｼﾜｼ","kana_address":"ｺｳﾅﾝﾀﾞｲ","pref":"千葉県","city":"柏市","address":"高南台"},
{"zip_code":"2770913","kana_pref":"ﾁﾊﾞｹﾝ","kana_city":"ｶｼﾜｼ","kana_address":"ｺﾞｼﾞｮｳﾔ","pref":"千葉県","city":"柏市","address":"五條谷"},
{"zip_code":"2770053","kana_pref":"ﾁﾊﾞｹﾝ","kana_city":"ｶｼﾜｼ","kana_address":"ｻｶｲﾈ","pref":"千葉県","city":"柏市","address":"酒井根"},
{"zip_code":"2770042","kana_pref":"ﾁﾊﾞｹﾝ","kana_city":"ｶｼﾜｼ","kana_address":"ｻｶｻｲ","pref":"千葉県","city":"柏市","address":"逆井"},
{"zip_code":"2770041","kana_pref":"ﾁﾊﾞｹﾝ","kana_city":"ｶｼﾜｼ","kana_address":"ｻｶｻｲﾌｼﾞﾉﾀﾞｲ","pref":"千葉県","city":"柏市","address":"逆井藤ノ台"},
{"zip_code":"2770012","kana_pref":"ﾁﾊﾞｹﾝ","kana_city":"ｶｼﾜｼ","kana_address":"ｻｸﾗﾀﾞｲ","pref":"千葉県","city":"柏市","address":"桜台"},
{"zip_code":"2770945","kana_pref":"ﾁﾊﾞｹﾝ","kana_city":"ｶｼﾜｼ","kana_address":"ｼｲﾉｷﾀﾞｲ","pref":"千葉県","city":"柏市","address":"しいの木台"},
{"zip_code":"2770862","kana_pref":"ﾁﾊﾞｹﾝ","kana_city":"ｶｼﾜｼ","kana_address":"ｼｺﾀﾞ","pref":"千葉県","city":"柏市","address":"篠籠田"},
{"zip_code":"2770826","kana_pref":"ﾁﾊﾞｹﾝ","kana_city":"ｶｼﾜｼ","kana_address":"ｼｭｸﾚﾝｼﾞ","pref":"千葉県","city":"柏市","address":"宿連寺"},
{"zip_code":"2770814","kana_pref":"ﾁﾊﾞｹﾝ","kana_city":"ｶｼﾜｼ","kana_address":"ｼｮｳﾚﾝｼﾞ","pref":"千葉県","city":"柏市","address":"正連寺"},
{"zip_code":"2770084","kana_pref":"ﾁﾊﾞｹﾝ","kana_city":"ｶｼﾜｼ","kana_address":"ｼﾝｶｼﾜ","pref":"千葉県","city":"柏市","address":"新柏"},
{"zip_code":"2770044","kana_pref":"ﾁﾊﾞｹﾝ","kana_city":"ｶｼﾜｼ","kana_address":"ｼﾝｻｶｻｲ","pref":"千葉県","city":"柏市","address":"新逆井"},
{"zip_code":"2770856","kana_pref":"ﾁﾊﾞｹﾝ","kana_city":"ｶｼﾜｼ","kana_address":"ｼﾝﾄﾐﾁｮｳ","pref":"千葉県","city":"柏市","address":"新富町"},
{"zip_code":"2770804","kana_pref":"ﾁﾊﾞｹﾝ","kana_city":"ｶｼﾜｼ","kana_address":"ｼﾝﾄﾖﾌﾀ","pref":"千葉県","city":"柏市","address":"新十余二"},
{"zip_code":"2770842","kana_pref":"ﾁﾊﾞｹﾝ","kana_city":"ｶｼﾜｼ","kana_address":"ｽｴﾋﾛﾁｮｳ","pref":"千葉県","city":"柏市","address":"末広町"},
{"zip_code":"2770028","kana_pref":"ﾁﾊﾞｹﾝ","kana_city":"ｶｼﾜｼ","kana_address":"ｾｷﾊﾞﾁｮｳ","pref":"千葉県","city":"柏市","address":"関場町"},
{"zip_code":"2770861","kana_pref":"ﾁﾊﾞｹﾝ","kana_city":"ｶｼﾜｼ","kana_address":"ﾀｶﾀ","pref":"千葉県","city":"柏市","address":"高田"},
{"zip_code":"2770941","kana_pref":"ﾁﾊﾞｹﾝ","kana_city":"ｶｼﾜｼ","kana_address":"ﾀｶﾔﾅｷﾞ","pref":"千葉県","city":"柏市","address":"高柳"},
{"zip_code":"2770943","kana_pref":"ﾁﾊﾞｹﾝ","kana_city":"ｶｼﾜｼ","kana_address":"ﾀｶﾔﾅｷﾞｼﾝﾃﾞﾝ","pref":"千葉県","city":"柏市","address":"高柳新田"},
{"zip_code":"2770023","kana_pref":"ﾁﾊﾞｹﾝ","kana_city":"ｶｼﾜｼ","kana_address":"ﾁｭｳｵｳ","pref":"千葉県","city":"柏市","address":"中央"},
{"zip_code":"2770021","kana_pref":"ﾁﾊﾞｹﾝ","kana_city":"ｶｼﾜｼ","kana_address":"ﾁｭｳｵｳﾁｮｳ","pref":"千葉県","city":"柏市","address":"中央町"},
{"zip_code":"2770025","kana_pref":"ﾁﾊﾞｹﾝ","kana_city":"ｶｼﾜｼ","kana_address":"ﾁﾖﾀﾞ","pref":"千葉県","city":"柏市","address":"千代田"},
{"zip_code":"2770923","kana_pref":"ﾁﾊﾞｹﾝ","kana_city":"ｶｼﾜｼ","kana_address":"ﾂｶｻﾞｷ","pref":"千葉県","city":"柏市","address":"塚崎"},
{"zip_code":"2770072","kana_pref":"ﾁﾊﾞｹﾝ","kana_city":"ｶｼﾜｼ","kana_address":"ﾂｸｼｶﾞｵｶ","pref":"千葉県","city":"柏市","address":"つくしが丘"},
{"zip_code":"2770087","kana_pref":"ﾁﾊﾞｹﾝ","kana_city":"ｶｼﾜｼ","kana_address":"ﾄｷﾜﾀﾞｲ","pref":"千葉県","city":"柏市","address":"常盤台"},
{"zip_code":"2770008","kana_pref":"ﾁﾊﾞｹﾝ","kana_city":"ｶｼﾜｼ","kana_address":"ﾄﾊﾞﾘ","pref":"千葉県","city":"柏市","address":"戸張"},
{"zip_code":"2770007","kana_pref":"ﾁﾊﾞｹﾝ","kana_city":"ｶｼﾜｼ","kana_address":"ﾄﾊﾞﾘｼﾝﾃﾞﾝ","pref":"千葉県","city":"柏市","address":"戸張新田"},
{"zip_code":"2770081","kana_pref":"ﾁﾊﾞｹﾝ","kana_city":"ｶｼﾜｼ","kana_address":"ﾄﾐｻﾄ","pref":"千葉県","city":"柏市","address":"富里"},
{"zip_code":"2770858","kana_pref":"ﾁﾊﾞｹﾝ","kana_city":"ｶｼﾜｼ","kana_address":"ﾄﾖｶﾞﾐﾁｮｳ","pref":"千葉県","city":"柏市","address":"豊上町"},
{"zip_code":"2770863","kana_pref":"ﾁﾊﾞｹﾝ","kana_city":"ｶｼﾜｼ","kana_address":"ﾄﾖｼｷ","pref":"千葉県","city":"柏市","address":"豊四季"},
{"zip_code":"2770845","kana_pref":"ﾁﾊﾞｹﾝ","kana_city":"ｶｼﾜｼ","kana_address":"ﾄﾖｼｷﾀﾞｲ","pref":"千葉県","city":"柏市","address":"豊四季台"},
{"zip_code":"2770071","kana_pref":"ﾁﾊﾞｹﾝ","kana_city":"ｶｼﾜｼ","kana_address":"ﾄﾖｽﾐ","pref":"千葉県","city":"柏市","address":"豊住"},
{"zip_code":"2770857","kana_pref":"ﾁﾊﾞｹﾝ","kana_city":"ｶｼﾜｼ","kana_address":"ﾄﾖﾋﾗﾁｮｳ","pref":"千葉県","city":"柏市","address":"豊平町"},
{"zip_code":"2770872","kana_pref":"ﾁﾊﾞｹﾝ","kana_city":"ｶｼﾜｼ","kana_address":"ﾄﾖﾌﾀ","pref":"千葉県","city":"柏市","address":"十余二"},
{"zip_code":"2770066","kana_pref":"ﾁﾊﾞｹﾝ","kana_city":"ｶｼﾜｼ","kana_address":"ﾅｶｼﾝｼﾞｭｸ","pref":"千葉県","city":"柏市","address":"中新宿"},
{"zip_code":"2770873","kana_pref":"ﾁﾊﾞｹﾝ","kana_city":"ｶｼﾜｼ","kana_address":"ﾅｶﾄﾖﾌﾀ","pref":"千葉県","city":"柏市","address":"中十余二"},
{"zip_code":"2770085","kana_pref":"ﾁﾊﾞｹﾝ","kana_city":"ｶｼﾜｼ","kana_address":"ﾅｶﾊﾗ","pref":"千葉県","city":"柏市","address":"中原"},
{"zip_code":"2770032","kana_pref":"ﾁﾊﾞｹﾝ","kana_city":"ｶｼﾜｼ","kana_address":"ﾅﾄﾞｶﾞﾔ","pref":"千葉県","city":"柏市","address":"名戸ケ谷"},
{"zip_code":"2770886","kana_pref":"ﾁﾊﾞｹﾝ","kana_city":"ｶｼﾜｼ","kana_address":"ﾆｼｶｼﾜﾀﾞｲ","pref":"千葉県","city":"柏市","address":"西柏台"},
{"zip_code":"2770844","kana_pref":"ﾁﾊﾞｹﾝ","kana_city":"ｶｼﾜｼ","kana_address":"ﾆｼﾁｮｳ","pref":"千葉県","city":"柏市","address":"西町"},
{"zip_code":"2770885","kana_pref":"ﾁﾊﾞｹﾝ","kana_city":"ｶｼﾜｼ","kana_address":"ﾆｼﾊﾗ","pref":"千葉県","city":"柏市","address":"西原"},
{"zip_code":"2770063","kana_pref":"ﾁﾊﾞｹﾝ","kana_city":"ｶｼﾜｼ","kana_address":"ﾆｼﾔﾏ","pref":"千葉県","city":"柏市","address":"西山"},
{"zip_code":"2770831","kana_pref":"ﾁﾊﾞｹﾝ","kana_city":"ｶｼﾜｼ","kana_address":"ﾈﾄﾞ","pref":"千葉県","city":"柏市","address":"根戸"},
{"zip_code":"2770833","kana_pref":"ﾁﾊﾞｹﾝ","kana_city":"ｶｼﾜｼ","kana_address":"ﾈﾄﾞｼﾝﾃﾞﾝ","pref":"千葉県","city":"柏市","address":"根戸新田"},
{"zip_code":"2770016","kana_pref":"ﾁﾊﾞｹﾝ","kana_city":"ｶｼﾜｼ","kana_address":"ﾊﾁﾏﾝﾁｮｳ","pref":"千葉県","city":"柏市","address":"八幡町"},
{"zip_code":"2770812","kana_pref":"ﾁﾊﾞｹﾝ","kana_city":"ｶｼﾜｼ","kana_address":"ﾊﾅﾉｲ","pref":"千葉県","city":"柏市","address":"花野井"},
{"zip_code":"2770065","kana_pref":"ﾁﾊﾞｹﾝ","kana_city":"ｶｼﾜｼ","kana_address":"ﾋｶﾘｶﾞｵｶ","pref":"千葉県","city":"柏市","address":"光ケ丘"},
{"zip_code":"2770062","kana_pref":"ﾁﾊﾞｹﾝ","kana_city":"ｶｼﾜｼ","kana_address":"ﾋｶﾘｶﾞｵｶﾀﾞﾝﾁ","pref":"千葉県","city":"柏市","address":"光ケ丘団地"},
{"zip_code":"2770017","kana_pref":"ﾁﾊﾞｹﾝ","kana_city":"ｶｼﾜｼ","kana_address":"ﾋｶﾞｼｶｼﾜ","pref":"千葉県","city":"柏市","address":"東柏"},
{"zip_code":"2770045","kana_pref":"ﾁﾊﾞｹﾝ","kana_city":"ｶｼﾜｼ","kana_address":"ﾋｶﾞｼｻｶｻｲ","pref":"千葉県","city":"柏市","address":"東逆井"},
{"zip_code":"2770061","kana_pref":"ﾁﾊﾞｹﾝ","kana_city":"ｶｼﾜｼ","kana_address":"ﾋｶﾞｼﾅｶｼﾝｼﾞｭｸ","pref":"千葉県","city":"柏市","address":"東中新宿"},
{"zip_code":"2770064","kana_pref":"ﾁﾊﾞｹﾝ","kana_city":"ｶｼﾜｼ","kana_address":"ﾋｶﾞｼﾔﾏ","pref":"千葉県","city":"柏市","address":"東山"},
{"zip_code":"2770083","kana_pref":"ﾁﾊﾞｹﾝ","kana_city":"ｶｼﾜｼ","kana_address":"ﾋﾀﾁﾀﾞｲ","pref":"千葉県","city":"柏市","address":"日立台"},
{"zip_code":"2770088","kana_pref":"ﾁﾊﾞｹﾝ","kana_city":"ｶｼﾜｼ","kana_address":"ﾋﾊﾞﾘｶﾞｵｶ","pref":"千葉県","city":"柏市","address":"ひばりが丘"},
{"zip_code":"2770931","kana_pref":"ﾁﾊﾞｹﾝ","kana_city":"ｶｼﾜｼ","kana_address":"ﾌｼﾞｶﾞﾔ","pref":"千葉県","city":"柏市","address":"藤ケ谷"},
{"zip_code":"2770932","kana_pref":"ﾁﾊﾞｹﾝ","kana_city":"ｶｼﾜｼ","kana_address":"ﾌｼﾞｶﾞﾔｼﾝﾃﾞﾝ","pref":"千葉県","city":"柏市","address":"藤ケ谷新田"},
{"zip_code":"2770034","kana_pref":"ﾁﾊﾞｹﾝ","kana_city":"ｶｼﾜｼ","kana_address":"ﾌｼﾞｺﾞｺﾛ","pref":"千葉県","city":"柏市","address":"藤心"},
{"zip_code":"2770825","kana_pref":"ﾁﾊﾞｹﾝ","kana_city":"ｶｼﾜｼ","kana_address":"ﾌｾ","pref":"千葉県","city":"柏市","address":"布施"},
{"zip_code":"2770822","kana_pref":"ﾁﾊﾞｹﾝ","kana_city":"ｶｼﾜｼ","kana_address":"ﾌｾｼﾀ","pref":"千葉県","city":"柏市","address":"布施下"},
{"zip_code":"2770824","kana_pref":"ﾁﾊﾞｹﾝ","kana_city":"ｶｼﾜｼ","kana_address":"ﾌｾｼﾝﾃﾞﾝ","pref":"千葉県","city":"柏市","address":"布施新田"},
{"zip_code":"2770823","kana_pref":"ﾁﾊﾞｹﾝ","kana_city":"ｶｼﾜｼ","kana_address":"ﾌｾｼﾝﾏﾁ","pref":"千葉県","city":"柏市","address":"布施新町"},
{"zip_code":"2770802","kana_pref":"ﾁﾊﾞｹﾝ","kana_city":"ｶｼﾜｼ","kana_address":"ﾌﾅﾄ","pref":"千葉県","city":"柏市","address":"船戸"},
{"zip_code":"2770801","kana_pref":"ﾁﾊﾞｹﾝ","kana_city":"ｶｼﾜｼ","kana_address":"ﾌﾅﾄﾔﾏｺﾞｳﾔ","pref":"千葉県","city":"柏市","address":"船戸山高野"},
{"zip_code":"2770821","kana_pref":"ﾁﾊﾞｹﾝ","kana_city":"ｶｼﾜｼ","kana_address":"ﾍﾞﾝﾃﾝｼﾀ","pref":"千葉県","city":"柏市","address":"弁天下"},
{"zip_code":"2770033","kana_pref":"ﾁﾊﾞｹﾝ","kana_city":"ｶｼﾜｼ","kana_address":"ﾏｽｵ","pref":"千葉県","city":"柏市","address":"増尾"},
{"zip_code":"2770052","kana_pref":"ﾁﾊﾞｹﾝ","kana_city":"ｶｼﾜｼ","kana_address":"ﾏｽｵﾀﾞｲ","pref":"千葉県","city":"柏市","address":"増尾台"},
{"zip_code":"2770835","kana_pref":"ﾁﾊﾞｹﾝ","kana_city":"ｶｼﾜｼ","kana_address":"ﾏﾂｶﾞｻｷ","pref":"千葉県","city":"柏市","address":"松ケ崎"},
{"zip_code":"2770834","kana_pref":"ﾁﾊﾞｹﾝ","kana_city":"ｶｼﾜｼ","kana_address":"ﾏﾂｶﾞｻｷｼﾝﾃﾞﾝ","pref":"千葉県","city":"柏市","address":"松ケ崎新田"},
{"zip_code":"2770827","kana_pref":"ﾁﾊﾞｹﾝ","kana_city":"ｶｼﾜｼ","kana_address":"ﾏﾂﾊﾞﾁｮｳ","pref":"千葉県","city":"柏市","address":"松葉町"},
{"zip_code":"2770082","kana_pref":"ﾁﾊﾞｹﾝ","kana_city":"ｶｼﾜｼ","kana_address":"ﾐﾄﾞﾘｶﾞｵｶ","pref":"千葉県","city":"柏市","address":"緑ケ丘"},
{"zip_code":"2770884","kana_pref":"ﾁﾊﾞｹﾝ","kana_city":"ｶｼﾜｼ","kana_address":"ﾐﾄﾞﾘﾀﾞｲ","pref":"千葉県","city":"柏市","address":"みどり台"},
{"zip_code":"2770903","kana_pref":"ﾁﾊﾞｹﾝ","kana_city":"ｶｼﾜｼ","kana_address":"ﾐﾄﾞﾘﾀﾞｲ","pref":"千葉県","city":"柏市","address":"緑台"},
{"zip_code":"2770855","kana_pref":"ﾁﾊﾞｹﾝ","kana_city":"ｶｼﾜｼ","kana_address":"ﾐﾅﾐｶｼﾜ","pref":"千葉県","city":"柏市","address":"南柏"},
{"zip_code":"2770075","kana_pref":"ﾁﾊﾞｹﾝ","kana_city":"ｶｼﾜｼ","kana_address":"ﾐﾅﾐｶｼﾜﾁｭｳｵｳ","pref":"千葉県","city":"柏市","address":"南柏中央"},
{"zip_code":"2770043","kana_pref":"ﾁﾊﾞｹﾝ","kana_city":"ｶｼﾜｼ","kana_address":"ﾐﾅﾐｻｶｻｲ","pref":"千葉県","city":"柏市","address":"南逆井"},
{"zip_code":"2770944","kana_pref":"ﾁﾊﾞｹﾝ","kana_city":"ｶｼﾜｼ","kana_address":"ﾐﾅﾐﾀｶﾔﾅｷﾞ","pref":"千葉県","city":"柏市","address":"南高柳"},
{"zip_code":"2770054","kana_pref":"ﾁﾊﾞｹﾝ","kana_city":"ｶｼﾜｼ","kana_address":"ﾐﾅﾐﾏｽｵ","pref":"千葉県","city":"柏市","address":"南増尾"},
{"zip_code":"2770912","kana_pref":"ﾁﾊﾞｹﾝ","kana_city":"ｶｼﾜｼ","kana_address":"ﾐﾉﾜ","pref":"千葉県","city":"柏市","address":"箕輪"},
{"zip_code":"2770911","kana_pref":"ﾁﾊﾞｹﾝ","kana_city":"ｶｼﾜｼ","kana_address":"ﾐﾉﾜｼﾝﾃﾞﾝ","pref":"千葉県","city":"柏市","address":"箕輪新田"},
{"zip_code":"2770851","kana_pref":"ﾁﾊﾞｹﾝ","kana_city":"ｶｼﾜｼ","kana_address":"ﾑｶｲﾊﾗﾁｮｳ","pref":"千葉県","city":"柏市","address":"向原町"},
{"zip_code":"2770015","kana_pref":"ﾁﾊﾞｹﾝ","kana_city":"ｶｼﾜｼ","kana_address":"ﾔﾖｲﾁｮｳ","pref":"千葉県","city":"柏市","address":"弥生町"},
{"zip_code":"2770854","kana_pref":"ﾁﾊﾞｹﾝ","kana_city":"ｶｼﾜｼ","kana_address":"ﾕﾀｶﾁｮｳ","pref":"千葉県","city":"柏市","address":"豊町"},
{"zip_code":"2770853","kana_pref":"ﾁﾊﾞｹﾝ","kana_city":"ｶｼﾜｼ","kana_address":"ﾖｼﾉｻﾞﾜ","pref":"千葉県","city":"柏市","address":"吉野沢"},
{"zip_code":"2770002","kana_pref":"ﾁﾊﾞｹﾝ","kana_city":"ｶｼﾜｼ","kana_address":"ﾖﾊﾞﾂｶ","pref":"千葉県","city":"柏市","address":"呼塚"},
{"zip_code":"2770001","kana_pref":"ﾁﾊﾞｹﾝ","kana_city":"ｶｼﾜｼ","kana_address":"ﾖﾊﾞﾂｶｼﾝﾃﾞﾝ","pref":"千葉県","city":"柏市","address":"呼塚新田"},
{"zip_code":"2770871","kana_pref":"ﾁﾊﾞｹﾝ","kana_city":"ｶｼﾜｼ","kana_address":"ﾜｶｼﾊﾞ","pref":"千葉県","city":"柏市","address":"若柴"},
{"zip_code":"2770024","kana_pref":"ﾁﾊﾞｹﾝ","kana_city":"ｶｼﾜｼ","kana_address":"ﾜｶﾊﾞﾁｮｳ","pref":"千葉県","city":"柏市","address":"若葉町"}]}