{"zip_code":[
{"zip_code":"2780000","kana_pref":"ﾁﾊﾞｹﾝ","kana_city":"ﾉﾀﾞｼ","kana_address":"","pref":"千葉県","city":"野田市","address":""},
{"zip_code":"2780025","kana_pref":"ﾁﾊﾞｹﾝ","kana_city":"ﾉﾀﾞｼ","kana_address":"ｲﾏｶﾞﾐ","pref":"千葉県","city":"野田市","address":"今上"},
{"zip_code":"2780055","kana_pref":"ﾁﾊﾞｹﾝ","kana_city":"ﾉﾀﾞｼ","kana_address":"ｲﾜﾅ","pref":"千葉県","city":"野田市","address":"岩名"},
{"zip_code":"2780017","kana_pref":"ﾁﾊﾞｹﾝ","kana_city":"ﾉﾀﾞｼ","kana_address":"ｵｵﾄﾞﾉｲ","pref":"千葉県","city":"野田市","address":"大殿井"},
{"zip_code":"2780052","kana_pref":"ﾁﾊﾞｹﾝ","kana_city":"ﾉﾀﾞｼ","kana_address":"ｶｽｶﾞﾁｮｳ","pref":"千葉県","city":"野田市","address":"春日町"},
{"zip_code":"2780007","kana_pref":"ﾁﾊﾞｹﾝ","kana_city":"ﾉﾀﾞｼ","kana_address":"ｶﾅｽｷﾞ","pref":"千葉県","city":"野田市","address":"金杉"},
{"zip_code":"2780013","kana_pref":"ﾁﾊﾞｹﾝ","kana_city":"ﾉﾀﾞｼ","kana_address":"ｶﾐｻﾝｶﾞｵ","pref":"千葉県","city":"野田市","address":"上三ケ尾"},
{"zip_code":"2780033","kana_pref":"ﾁﾊﾞｹﾝ","kana_city":"ﾉﾀﾞｼ","kana_address":"ｶﾐﾊﾅﾜ","pref":"千葉県","city":"野田市","address":"上花輪"},
{"zip_code":"2780034","kana_pref":"ﾁﾊﾞｹﾝ","kana_city":"ﾉﾀﾞｼ","kana_address":"ｶﾐﾊﾅﾜｼﾝﾏﾁ","pref":"千葉県","city":"野田市","address":"上花輪新町"},
{"zip_code":"2780002","kana_pref":"ﾁﾊﾞｹﾝ","kana_city":"ﾉﾀﾞｼ","kana_address":"ｷﾉｻｷ","pref":"千葉県","city":"野田市","address":"木野崎"},
{"zip_code":"2780054","kana_pref":"ﾁﾊﾞｹﾝ","kana_city":"ﾉﾀﾞｼ","kana_address":"ｺﾞｷ","pref":"千葉県","city":"野田市","address":"五木"},
{"zip_code":"2780056","kana_pref":"ﾁﾊﾞｹﾝ","kana_city":"ﾉﾀﾞｼ","kana_address":"ｺﾞｷｼﾝﾃﾞﾝ","pref":"千葉県","city":"野田市","address":"五木新田"},
{"zip_code":"2780053","kana_pref":"ﾁﾊﾞｹﾝ","kana_city":"ﾉﾀﾞｼ","kana_address":"ｺﾞｷｼﾝﾏﾁ","pref":"千葉県","city":"野田市","address":"五木新町"},
{"zip_code":"2780045","kana_pref":"ﾁﾊﾞｹﾝ","kana_city":"ﾉﾀﾞｼ","kana_address":"ｻﾞｵｳ","pref":"千葉県","city":"野田市","address":"座生"},
{"zip_code":"2780028","kana_pref":"ﾁﾊﾞｹﾝ","kana_city":"ﾉﾀﾞｼ","kana_address":"ｻｸﾗｷﾞ","pref":"千葉県","city":"野田市","address":"桜木"},
{"zip_code":"2780032","kana_pref":"ﾁﾊﾞｹﾝ","kana_city":"ﾉﾀﾞｼ","kana_address":"ｻｸﾗﾀﾞｲ","pref":"千葉県","city":"野田市","address":"桜台"},
{"zip_code":"2780048","kana_pref":"ﾁﾊﾞｹﾝ","kana_city":"ﾉﾀﾞｼ","kana_address":"ｻｸﾗﾉｻﾄ","pref":"千葉県","city":"野田市","address":"桜の里"},
{"zip_code":"2780043","kana_pref":"ﾁﾊﾞｹﾝ","kana_city":"ﾉﾀﾞｼ","kana_address":"ｼﾐｽﾞ","pref":"千葉県","city":"野田市","address":"清水"},
{"zip_code":"2780047","kana_pref":"ﾁﾊﾞｹﾝ","kana_city":"ﾉﾀﾞｼ","kana_address":"ｼﾐｽﾞｺｳｴﾝﾋｶﾞｼ","pref":"千葉県","city":"野田市","address":"清水公園東"},
{"zip_code":"2780014","kana_pref":"ﾁﾊﾞｹﾝ","kana_city":"ﾉﾀﾞｼ","kana_address":"ｼﾓｻﾝｶﾞｵ","pref":"千葉県","city":"野田市","address":"下三ケ尾"},
{"zip_code":"2780012","kana_pref":"ﾁﾊﾞｹﾝ","kana_city":"ﾉﾀﾞｼ","kana_address":"ｾﾄ","pref":"千葉県","city":"野田市","address":"瀬戸"},
{"zip_code":"2780044","kana_pref":"ﾁﾊﾞｹﾝ","kana_city":"ﾉﾀﾞｼ","kana_address":"ﾂﾂﾐﾀﾞｲ","pref":"千葉県","city":"野田市","address":"堤台"},
{"zip_code":"2780021","kana_pref":"ﾁﾊﾞｹﾝ","kana_city":"ﾉﾀﾞｼ","kana_address":"ﾂﾂﾐﾈ","pref":"千葉県","city":"野田市","address":"堤根"},
{"zip_code":"2780038","kana_pref":"ﾁﾊﾞｹﾝ","kana_city":"ﾉﾀﾞｼ","kana_address":"ﾂﾂﾐﾉ","pref":"千葉県","city":"野田市","address":"つつみ野"},
{"zip_code":"2780003","kana_pref":"ﾁﾊﾞｹﾝ","kana_city":"ﾉﾀﾞｼ","kana_address":"ﾂﾙﾎｳ","pref":"千葉県","city":"野田市","address":"鶴奉"},
{"zip_code":"2780031","kana_pref":"ﾁﾊﾞｹﾝ","kana_city":"ﾉﾀﾞｼ","kana_address":"ﾅｶﾈ","pref":"千葉県","city":"野田市","address":"中根"},
{"zip_code":"2780035","kana_pref":"ﾁﾊﾞｹﾝ","kana_city":"ﾉﾀﾞｼ","kana_address":"ﾅｶﾉﾀﾞｲ","pref":"千葉県","city":"野田市","address":"中野台"},
{"zip_code":"2780036","kana_pref":"ﾁﾊﾞｹﾝ","kana_city":"ﾉﾀﾞｼ","kana_address":"ﾅｶﾉﾀﾞｲｶｼﾏﾁｮｳ","pref":"千葉県","city":"野田市","address":"中野台鹿島町"},
{"zip_code":"2780051","kana_pref":"ﾁﾊﾞｹﾝ","kana_city":"ﾉﾀﾞｼ","kana_address":"ﾅﾅｺｳﾀﾞｲ","pref":"千葉県","city":"野田市","address":"七光台"},
{"zip_code":"2780015","kana_pref":"ﾁﾊﾞｹﾝ","kana_city":"ﾉﾀﾞｼ","kana_address":"ﾆｼｻﾝｶﾞｵ","pref":"千葉県","city":"野田市","address":"西三ケ尾"},
{"zip_code":"2780037","kana_pref":"ﾁﾊﾞｹﾝ","kana_city":"ﾉﾀﾞｼ","kana_address":"ﾉﾀﾞ","pref":"千葉県","city":"野田市","address":"野田"},
{"zip_code":"2780026","kana_pref":"ﾁﾊﾞｹﾝ","kana_city":"ﾉﾀﾞｼ","kana_address":"ﾊﾅｲ","pref":"千葉県","city":"野田市","address":"花井"},
{"zip_code":"2780041","kana_pref":"ﾁﾊﾞｹﾝ","kana_city":"ﾉﾀﾞｼ","kana_address":"ﾊﾞﾝｼｮｳ","pref":"千葉県","city":"野田市","address":"蕃昌"},
{"zip_code":"2780016","kana_pref":"ﾁﾊﾞｹﾝ","kana_city":"ﾉﾀﾞｼ","kana_address":"ﾌﾀﾂｶ","pref":"千葉県","city":"野田市","address":"二ツ塚"},
{"zip_code":"2780027","kana_pref":"ﾁﾊﾞｹﾝ","kana_city":"ﾉﾀﾞｼ","kana_address":"ﾐｽﾞｷ","pref":"千葉県","city":"野田市","address":"みずき"},
{"zip_code":"2780011","kana_pref":"ﾁﾊﾞｹﾝ","kana_city":"ﾉﾀﾞｼ","kana_address":"ﾐﾂﾎﾞﾘ","pref":"千葉県","city":"野田市","address":"三ツ堀"},
{"zip_code":"2780005","kana_pref":"ﾁﾊﾞｹﾝ","kana_city":"ﾉﾀﾞｼ","kana_address":"ﾐﾔｻﾞｷ","pref":"千葉県","city":"野田市","address":"宮崎"},
{"zip_code":"2780001","kana_pref":"ﾁﾊﾞｹﾝ","kana_city":"ﾉﾀﾞｼ","kana_address":"ﾒﾌｷ","pref":"千葉県","city":"野田市","address":"目吹"},
{"zip_code":"2780046","kana_pref":"ﾁﾊﾞｹﾝ","kana_city":"ﾉﾀﾞｼ","kana_address":"ﾔﾂ","pref":"千葉県","city":"野田市","address":"谷津"},
{"zip_code":"2780006","kana_pref":"ﾁﾊﾞｹﾝ","kana_city":"ﾉﾀﾞｼ","kana_address":"ﾔﾅｷﾞｻﾜ","pref":"千葉県","city":"野田市","address":"柳沢"},
{"zip_code":"2780022","kana_pref":"ﾁﾊﾞｹﾝ","kana_city":"ﾉﾀﾞｼ","kana_address":"ﾔﾏｻﾞｷ","pref":"千葉県","city":"野田市","address":"山崎"},
{"zip_code":"2780024","kana_pref":"ﾁﾊﾞｹﾝ","kana_city":"ﾉﾀﾞｼ","kana_address":"ﾔﾏｻﾞｷｳﾒﾉﾀﾞｲ","pref":"千葉県","city":"野田市","address":"山崎梅の台"},
{"zip_code":"2780023","kana_pref":"ﾁﾊﾞｹﾝ","kana_city":"ﾉﾀﾞｼ","kana_address":"ﾔﾏｻﾞｷｶｲﾂﾞｶﾁｮｳ","pref":"千葉県","city":"野田市","address":"山崎貝塚町"},
{"zip_code":"2780004","kana_pref":"ﾁﾊﾞｹﾝ","kana_city":"ﾉﾀﾞｼ","kana_address":"ﾖｺｳﾁ","pref":"千葉県","city":"野田市","address":"横内"},
{"zip_code":"2780042","kana_pref":"ﾁﾊﾞｹﾝ","kana_city":"ﾉﾀﾞｼ","kana_address":"ﾖｼﾊﾙ","pref":"千葉県","city":"野田市","address":"吉春"}]}