{"zip_code":[
{"zip_code":"2790000","kana_pref":"ﾁﾊﾞｹﾝ","kana_city":"ｳﾗﾔｽｼ","kana_address":"","pref":"千葉県","city":"浦安市","address":""},
{"zip_code":"2790014","kana_pref":"ﾁﾊﾞｹﾝ","kana_city":"ｳﾗﾔｽｼ","kana_address":"ｱｹﾐ","pref":"千葉県","city":"浦安市","address":"明海"},
{"zip_code":"2790022","kana_pref":"ﾁﾊﾞｹﾝ","kana_city":"ｳﾗﾔｽｼ","kana_address":"ｲﾏｶﾞﾜ","pref":"千葉県","city":"浦安市","address":"今川"},
{"zip_code":"2790012","kana_pref":"ﾁﾊﾞｹﾝ","kana_city":"ｳﾗﾔｽｼ","kana_address":"ｲﾘﾌﾈ","pref":"千葉県","city":"浦安市","address":"入船"},
{"zip_code":"2790003","kana_pref":"ﾁﾊﾞｹﾝ","kana_city":"ｳﾗﾔｽｼ","kana_address":"ｶｲﾗｸ","pref":"千葉県","city":"浦安市","address":"海楽"},
{"zip_code":"2790002","kana_pref":"ﾁﾊﾞｹﾝ","kana_city":"ｳﾗﾔｽｼ","kana_address":"ｷﾀｻﾞｶｴ","pref":"千葉県","city":"浦安市","address":"北栄"},
{"zip_code":"2790023","kana_pref":"ﾁﾊﾞｹﾝ","kana_city":"ｳﾗﾔｽｼ","kana_address":"ﾀｶｽ","pref":"千葉県","city":"浦安市","address":"高洲"},
{"zip_code":"2790032","kana_pref":"ﾁﾊﾞｹﾝ","kana_city":"ｳﾗﾔｽｼ","kana_address":"ﾁﾄﾞﾘ","pref":"千葉県","city":"浦安市","address":"千鳥"},
{"zip_code":"2790025","kana_pref":"ﾁﾊﾞｹﾝ","kana_city":"ｳﾗﾔｽｼ","kana_address":"ﾃｯｺｳﾄﾞｵﾘ","pref":"千葉県","city":"浦安市","address":"鉄鋼通り"},
{"zip_code":"2790001","kana_pref":"ﾁﾊﾞｹﾝ","kana_city":"ｳﾗﾔｽｼ","kana_address":"ﾄｳﾀﾞｲｼﾞﾏ","pref":"千葉県","city":"浦安市","address":"当代島"},
{"zip_code":"2790021","kana_pref":"ﾁﾊﾞｹﾝ","kana_city":"ｳﾗﾔｽｼ","kana_address":"ﾄﾐｵｶ","pref":"千葉県","city":"浦安市","address":"富岡"},
{"zip_code":"2790004","kana_pref":"ﾁﾊﾞｹﾝ","kana_city":"ｳﾗﾔｽｼ","kana_address":"ﾈｺｻﾞﾈ","pref":"千葉県","city":"浦安市","address":"猫実"},
{"zip_code":"2790042","kana_pref":"ﾁﾊﾞｹﾝ","kana_city":"ｳﾗﾔｽｼ","kana_address":"ﾋｶﾞｼﾉ","pref":"千葉県","city":"浦安市","address":"東野"},
{"zip_code":"2790013","kana_pref":"ﾁﾊﾞｹﾝ","kana_city":"ｳﾗﾔｽｼ","kana_address":"ﾋﾉﾃﾞ","pref":"千葉県","city":"浦安市","address":"日の出"},
{"zip_code":"2790043","kana_pref":"ﾁﾊﾞｹﾝ","kana_city":"ｳﾗﾔｽｼ","kana_address":"ﾌｼﾞﾐ","pref":"千葉県","city":"浦安市","address":"富士見"},
{"zip_code":"2790026","kana_pref":"ﾁﾊﾞｹﾝ","kana_city":"ｳﾗﾔｽｼ","kana_address":"ﾍﾞﾝﾃﾝ","pref":"千葉県","city":"浦安市","address":"弁天"},
{"zip_code":"2790041","kana_pref":"ﾁﾊﾞｹﾝ","kana_city":"ｳﾗﾔｽｼ","kana_address":"ﾎﾘｴ","pref":"千葉県","city":"浦安市","address":"堀江"},
{"zip_code":"2790031","kana_pref":"ﾁﾊﾞｹﾝ","kana_city":"ｳﾗﾔｽｼ","kana_address":"ﾏｲﾊﾏ","pref":"千葉県","city":"浦安市","address":"舞浜"},
{"zip_code":"2790024","kana_pref":"ﾁﾊﾞｹﾝ","kana_city":"ｳﾗﾔｽｼ","kana_address":"ﾐﾅﾄ","pref":"千葉県","city":"浦安市","address":"港"},
{"zip_code":"2790011","kana_pref":"ﾁﾊﾞｹﾝ","kana_city":"ｳﾗﾔｽｼ","kana_address":"ﾐﾊﾏ","pref":"千葉県","city":"浦安市","address":"美浜"}]}