{"zip_code":[
{"zip_code":"2830000","kana_pref":"ﾁﾊﾞｹﾝ","kana_city":"ﾄｳｶﾞﾈｼ","kana_address":"","pref":"千葉県","city":"東金市","address":""},
{"zip_code":"2830035","kana_pref":"ﾁﾊﾞｹﾝ","kana_city":"ﾄｳｶﾞﾈｼ","kana_address":"ｱｵﾄﾋﾞﾁ","pref":"千葉県","city":"東金市","address":"粟生飛地"},
{"zip_code":"2830032","kana_pref":"ﾁﾊﾞｹﾝ","kana_city":"ﾄｳｶﾞﾈｼ","kana_address":"ｱﾗｵｲ","pref":"千葉県","city":"東金市","address":"荒生"},
{"zip_code":"2830001","kana_pref":"ﾁﾊﾞｹﾝ","kana_city":"ﾄｳｶﾞﾈｼ","kana_address":"ｲｴﾉｺ","pref":"千葉県","city":"東金市","address":"家之子"},
{"zip_code":"2830056","kana_pref":"ﾁﾊﾞｹﾝ","kana_city":"ﾄｳｶﾞﾈｼ","kana_address":"ｲｻｺﾞｾﾞ","pref":"千葉県","city":"東金市","address":"砂古瀬"},
{"zip_code":"2830057","kana_pref":"ﾁﾊﾞｹﾝ","kana_city":"ﾄｳｶﾞﾈｼ","kana_address":"ｲﾁﾉﾌｸﾛ","pref":"千葉県","city":"東金市","address":"一之袋"},
{"zip_code":"2830046","kana_pref":"ﾁﾊﾞｹﾝ","kana_city":"ﾄｳｶﾞﾈｼ","kana_address":"ｳﾜﾔ","pref":"千葉県","city":"東金市","address":"上谷"},
{"zip_code":"2830034","kana_pref":"ﾁﾊﾞｹﾝ","kana_city":"ﾄｳｶﾞﾈｼ","kana_address":"ｵｵﾇﾏ","pref":"千葉県","city":"東金市","address":"大沼"},
{"zip_code":"2830051","kana_pref":"ﾁﾊﾞｹﾝ","kana_city":"ﾄｳｶﾞﾈｼ","kana_address":"ｵｵﾇﾏﾀ","pref":"千葉県","city":"東金市","address":"大沼田"},
{"zip_code":"2830826","kana_pref":"ﾁﾊﾞｹﾝ","kana_city":"ﾄｳｶﾞﾈｼ","kana_address":"ｵｶﾔﾏﾀﾞｲ","pref":"千葉県","city":"東金市","address":"丘山台"},
{"zip_code":"2830065","kana_pref":"ﾁﾊﾞｹﾝ","kana_city":"ﾄｳｶﾞﾈｼ","kana_address":"ｵｼﾎﾘ","pref":"千葉県","city":"東金市","address":"押堀"},
{"zip_code":"2830821","kana_pref":"ﾁﾊﾞｹﾝ","kana_city":"ﾄｳｶﾞﾈｼ","kana_address":"ｵﾉ","pref":"千葉県","city":"東金市","address":"小野"},
{"zip_code":"2830062","kana_pref":"ﾁﾊﾞｹﾝ","kana_city":"ﾄｳｶﾞﾈｼ","kana_address":"ｶﾄｸ","pref":"千葉県","city":"東金市","address":"家徳"},
{"zip_code":"2830834","kana_pref":"ﾁﾊﾞｹﾝ","kana_city":"ﾄｳｶﾞﾈｼ","kana_address":"ｶﾐﾌﾀﾞ","pref":"千葉県","city":"東金市","address":"上布田"},
{"zip_code":"2830011","kana_pref":"ﾁﾊﾞｹﾝ","kana_city":"ﾄｳｶﾞﾈｼ","kana_address":"ｶﾐﾑｻﾞﾀ","pref":"千葉県","city":"東金市","address":"上武射田"},
{"zip_code":"2830064","kana_pref":"ﾁﾊﾞｹﾝ","kana_city":"ﾄｳｶﾞﾈｼ","kana_address":"ｶﾜﾊﾞ","pref":"千葉県","city":"東金市","address":"川場"},
{"zip_code":"2830047","kana_pref":"ﾁﾊﾞｹﾝ","kana_city":"ﾄｳｶﾞﾈｼ","kana_address":"ｷﾀｺﾞｳﾔ","pref":"千葉県","city":"東金市","address":"北幸谷"},
{"zip_code":"2830061","kana_pref":"ﾁﾊﾞｹﾝ","kana_city":"ﾄｳｶﾞﾈｼ","kana_address":"ｷﾀﾉｺｳﾔ","pref":"千葉県","city":"東金市","address":"北之幸谷"},
{"zip_code":"2830822","kana_pref":"ﾁﾊﾞｹﾝ","kana_city":"ﾄｳｶﾞﾈｼ","kana_address":"ｷﾐﾉﾓﾘﾋｶﾞｼ","pref":"千葉県","city":"東金市","address":"季美の森東"},
{"zip_code":"2830002","kana_pref":"ﾁﾊﾞｹﾝ","kana_city":"ﾄｳｶﾞﾈｼ","kana_address":"ｸﾞﾐｮｳ","pref":"千葉県","city":"東金市","address":"求名"},
{"zip_code":"2830048","kana_pref":"ﾁﾊﾞｹﾝ","kana_city":"ﾄｳｶﾞﾈｼ","kana_address":"ｺｳﾀﾞ","pref":"千葉県","city":"東金市","address":"幸田"},
{"zip_code":"2830835","kana_pref":"ﾁﾊﾞｹﾝ","kana_city":"ﾄｳｶﾞﾈｼ","kana_address":"ｺﾞｸﾗｸｼﾞ","pref":"千葉県","city":"東金市","address":"極楽寺"},
{"zip_code":"2830044","kana_pref":"ﾁﾊﾞｹﾝ","kana_city":"ﾄｳｶﾞﾈｼ","kana_address":"ｺﾇﾏﾀ","pref":"千葉県","city":"東金市","address":"小沼田"},
{"zip_code":"2830013","kana_pref":"ﾁﾊﾞｹﾝ","kana_city":"ﾄｳｶﾞﾈｼ","kana_address":"ｼﾉﾀﾞ","pref":"千葉県","city":"東金市","address":"士農田"},
{"zip_code":"2830012","kana_pref":"ﾁﾊﾞｹﾝ","kana_city":"ﾄｳｶﾞﾈｼ","kana_address":"ｼﾓﾑｻﾞﾀ","pref":"千葉県","city":"東金市","address":"下武射田"},
{"zip_code":"2830054","kana_pref":"ﾁﾊﾞｹﾝ","kana_city":"ﾄｳｶﾞﾈｼ","kana_address":"ｼﾓﾔ","pref":"千葉県","city":"東金市","address":"下谷"},
{"zip_code":"2830033","kana_pref":"ﾁﾊﾞｹﾝ","kana_city":"ﾄｳｶﾞﾈｼ","kana_address":"ｼｭｸ","pref":"千葉県","city":"東金市","address":"宿"},
{"zip_code":"2830831","kana_pref":"ﾁﾊﾞｹﾝ","kana_city":"ﾄｳｶﾞﾈｼ","kana_address":"ｼｭｿﾞｳ","pref":"千葉県","city":"東金市","address":"酒蔵"},
{"zip_code":"2830031","kana_pref":"ﾁﾊﾞｹﾝ","kana_city":"ﾄｳｶﾞﾈｼ","kana_address":"ｽｽｷｼﾏ","pref":"千葉県","city":"東金市","address":"薄島"},
{"zip_code":"2830014","kana_pref":"ﾁﾊﾞｹﾝ","kana_city":"ﾄｳｶﾞﾈｼ","kana_address":"ｾｷｳﾁ","pref":"千葉県","city":"東金市","address":"関内"},
{"zip_code":"2830038","kana_pref":"ﾁﾊﾞｹﾝ","kana_city":"ﾄｳｶﾞﾈｼ","kana_address":"ｾｷｼﾀ","pref":"千葉県","city":"東金市","address":"関下"},
{"zip_code":"2830811","kana_pref":"ﾁﾊﾞｹﾝ","kana_city":"ﾄｳｶﾞﾈｼ","kana_address":"ﾀﾞｲｶﾀ","pref":"千葉県","city":"東金市","address":"台方"},
{"zip_code":"2830022","kana_pref":"ﾁﾊﾞｹﾝ","kana_city":"ﾄｳｶﾞﾈｼ","kana_address":"ﾀｶｸﾗ","pref":"千葉県","city":"東金市","address":"高倉"},
{"zip_code":"2830825","kana_pref":"ﾁﾊﾞｹﾝ","kana_city":"ﾄｳｶﾞﾈｼ","kana_address":"ﾀｷ","pref":"千葉県","city":"東金市","address":"滝"},
{"zip_code":"2830833","kana_pref":"ﾁﾊﾞｹﾝ","kana_city":"ﾄｳｶﾞﾈｼ","kana_address":"ﾀｷｻﾜ","pref":"千葉県","city":"東金市","address":"滝沢"},
{"zip_code":"2830814","kana_pref":"ﾁﾊﾞｹﾝ","kana_city":"ﾄｳｶﾞﾈｼ","kana_address":"ﾀﾅｶ","pref":"千葉県","city":"東金市","address":"田中"},
{"zip_code":"2830005","kana_pref":"ﾁﾊﾞｹﾝ","kana_city":"ﾄｳｶﾞﾈｼ","kana_address":"ﾀﾏ","pref":"千葉県","city":"東金市","address":"田間"},
{"zip_code":"2830824","kana_pref":"ﾁﾊﾞｹﾝ","kana_city":"ﾄｳｶﾞﾈｼ","kana_address":"ﾀﾝﾉｵ","pref":"千葉県","city":"東金市","address":"丹尾"},
{"zip_code":"2830802","kana_pref":"ﾁﾊﾞｹﾝ","kana_city":"ﾄｳｶﾞﾈｼ","kana_address":"ﾄｳｶﾞﾈ","pref":"千葉県","city":"東金市","address":"東金"},
{"zip_code":"2830003","kana_pref":"ﾁﾊﾞｹﾝ","kana_city":"ﾄｳｶﾞﾈｼ","kana_address":"ﾄﾞｳﾆﾜ","pref":"千葉県","city":"東金市","address":"道庭"},
{"zip_code":"2830025","kana_pref":"ﾁﾊﾞｹﾝ","kana_city":"ﾄｳｶﾞﾈｼ","kana_address":"ﾄﾉﾏﾜﾘ","pref":"千葉県","city":"東金市","address":"殿廻"},
{"zip_code":"2830026","kana_pref":"ﾁﾊﾞｹﾝ","kana_city":"ﾄｳｶﾞﾈｼ","kana_address":"ﾅｶﾉ","pref":"千葉県","city":"東金市","address":"中野"},
{"zip_code":"2830045","kana_pref":"ﾁﾊﾞｹﾝ","kana_city":"ﾄｳｶﾞﾈｼ","kana_address":"ﾆｼﾅｶ","pref":"千葉県","city":"東金市","address":"西中"},
{"zip_code":"2830042","kana_pref":"ﾁﾊﾞｹﾝ","kana_city":"ﾄｳｶﾞﾈｼ","kana_address":"ﾆｼﾉﾄﾋﾞﾁ","pref":"千葉県","city":"東金市","address":"西野飛地"},
{"zip_code":"2830816","kana_pref":"ﾁﾊﾞｹﾝ","kana_city":"ﾄｳｶﾞﾈｼ","kana_address":"ﾆｼﾌｸﾀﾜﾗ","pref":"千葉県","city":"東金市","address":"西福俵"},
{"zip_code":"2830052","kana_pref":"ﾁﾊﾞｹﾝ","kana_city":"ﾄｳｶﾞﾈｼ","kana_address":"ﾆﾉﾌｸﾛ","pref":"千葉県","city":"東金市","address":"二之袋"},
{"zip_code":"2830068","kana_pref":"ﾁﾊﾞｹﾝ","kana_city":"ﾄｳｶﾞﾈｼ","kana_address":"ﾋｶﾞｼｲﾜｻｷ","pref":"千葉県","city":"東金市","address":"東岩崎"},
{"zip_code":"2830067","kana_pref":"ﾁﾊﾞｹﾝ","kana_city":"ﾄｳｶﾞﾈｼ","kana_address":"ﾋｶﾞｼｶﾐｼﾞｭｸ","pref":"千葉県","city":"東金市","address":"東上宿"},
{"zip_code":"2830006","kana_pref":"ﾁﾊﾞｹﾝ","kana_city":"ﾄｳｶﾞﾈｼ","kana_address":"ﾋｶﾞｼｼﾝｼｭｸ","pref":"千葉県","city":"東金市","address":"東新宿"},
{"zip_code":"2830021","kana_pref":"ﾁﾊﾞｹﾝ","kana_city":"ﾄｳｶﾞﾈｼ","kana_address":"ﾋｶﾞｼﾅｶ","pref":"千葉県","city":"東金市","address":"東中"},
{"zip_code":"2830053","kana_pref":"ﾁﾊﾞｹﾝ","kana_city":"ﾄｳｶﾞﾈｼ","kana_address":"ﾋｶﾞｼﾅｶｼﾞﾏ","pref":"千葉県","city":"東金市","address":"東中島"},
{"zip_code":"2830016","kana_pref":"ﾁﾊﾞｹﾝ","kana_city":"ﾄｳｶﾞﾈｼ","kana_address":"ﾋｼﾇﾏ","pref":"千葉県","city":"東金市","address":"菱沼"},
{"zip_code":"2830803","kana_pref":"ﾁﾊﾞｹﾝ","kana_city":"ﾄｳｶﾞﾈｼ","kana_address":"ﾋﾖｼﾀﾞｲ","pref":"千葉県","city":"東金市","address":"日吉台"},
{"zip_code":"2830041","kana_pref":"ﾁﾊﾞｹﾝ","kana_city":"ﾄｳｶﾞﾈｼ","kana_address":"ﾋﾛｾ","pref":"千葉県","city":"東金市","address":"広瀬"},
{"zip_code":"2830812","kana_pref":"ﾁﾊﾞｹﾝ","kana_city":"ﾄｳｶﾞﾈｼ","kana_address":"ﾌｸﾀﾜﾗ","pref":"千葉県","city":"東金市","address":"福俵"},
{"zip_code":"2830043","kana_pref":"ﾁﾊﾞｹﾝ","kana_city":"ﾄｳｶﾞﾈｼ","kana_address":"ﾌｼﾞｼﾀﾄﾋﾞﾁ","pref":"千葉県","city":"東金市","address":"藤下飛地"},
{"zip_code":"2830004","kana_pref":"ﾁﾊﾞｹﾝ","kana_city":"ﾄｳｶﾞﾈｼ","kana_address":"ﾌﾀﾏﾀ","pref":"千葉県","city":"東金市","address":"二又"},
{"zip_code":"2830036","kana_pref":"ﾁﾊﾞｹﾝ","kana_city":"ﾄｳｶﾞﾈｼ","kana_address":"ﾌﾄﾞｳﾄﾞｳﾄﾋﾞﾁ","pref":"千葉県","city":"東金市","address":"不動堂飛地"},
{"zip_code":"2830037","kana_pref":"ﾁﾊﾞｹﾝ","kana_city":"ﾄｳｶﾞﾈｼ","kana_address":"ﾎｿﾔｼｷ","pref":"千葉県","city":"東金市","address":"細屋敷"},
{"zip_code":"2830063","kana_pref":"ﾁﾊﾞｹﾝ","kana_city":"ﾄｳｶﾞﾈｼ","kana_address":"ﾎﾘｱｹﾞ","pref":"千葉県","city":"東金市","address":"堀上"},
{"zip_code":"2830027","kana_pref":"ﾁﾊﾞｹﾝ","kana_city":"ﾄｳｶﾞﾈｼ","kana_address":"ﾎﾘﾉｳﾁ","pref":"千葉県","city":"東金市","address":"堀之内"},
{"zip_code":"2830015","kana_pref":"ﾁﾊﾞｹﾝ","kana_city":"ﾄｳｶﾞﾈｼ","kana_address":"ﾏｴﾉｳﾁ","pref":"千葉県","city":"東金市","address":"前之内"},
{"zip_code":"2830805","kana_pref":"ﾁﾊﾞｹﾝ","kana_city":"ﾄｳｶﾞﾈｼ","kana_address":"ﾏﾂﾉｺﾞｳ","pref":"千葉県","city":"東金市","address":"松之郷"},
{"zip_code":"2830815","kana_pref":"ﾁﾊﾞｹﾝ","kana_city":"ﾄｳｶﾞﾈｼ","kana_address":"ﾏﾒｻﾞｸ","pref":"千葉県","city":"東金市","address":"大豆谷"},
{"zip_code":"2830028","kana_pref":"ﾁﾊﾞｹﾝ","kana_city":"ﾄｳｶﾞﾈｼ","kana_address":"ﾐｳﾗﾐｮｳ","pref":"千葉県","city":"東金市","address":"三浦名"},
{"zip_code":"2830832","kana_pref":"ﾁﾊﾞｹﾝ","kana_city":"ﾄｳｶﾞﾈｼ","kana_address":"ﾐｶｼﾞﾘ","pref":"千葉県","city":"東金市","address":"三ケ尻"},
{"zip_code":"2830024","kana_pref":"ﾁﾊﾞｹﾝ","kana_city":"ﾄｳｶﾞﾈｼ","kana_address":"ﾐｶﾄﾞ","pref":"千葉県","city":"東金市","address":"御門"},
{"zip_code":"2830066","kana_pref":"ﾁﾊﾞｹﾝ","kana_city":"ﾄｳｶﾞﾈｼ","kana_address":"ﾐﾅﾐｶﾐｼﾞｭｸ","pref":"千葉県","city":"東金市","address":"南上宿"},
{"zip_code":"2830023","kana_pref":"ﾁﾊﾞｹﾝ","kana_city":"ﾄｳｶﾞﾈｼ","kana_address":"ﾐﾔ","pref":"千葉県","city":"東金市","address":"宮"},
{"zip_code":"2830801","kana_pref":"ﾁﾊﾞｹﾝ","kana_city":"ﾄｳｶﾞﾈｼ","kana_address":"ﾔｻｶﾀﾞｲ","pref":"千葉県","city":"東金市","address":"八坂台"},
{"zip_code":"2830813","kana_pref":"ﾁﾊﾞｹﾝ","kana_city":"ﾄｳｶﾞﾈｼ","kana_address":"ﾔﾏｸﾞﾁ","pref":"千葉県","city":"東金市","address":"山口"},
{"zip_code":"2830823","kana_pref":"ﾁﾊﾞｹﾝ","kana_city":"ﾄｳｶﾞﾈｼ","kana_address":"ﾔﾏﾀﾞ","pref":"千葉県","city":"東金市","address":"山田"},
{"zip_code":"2830804","kana_pref":"ﾁﾊﾞｹﾝ","kana_city":"ﾄｳｶﾞﾈｼ","kana_address":"ﾕｲ","pref":"千葉県","city":"東金市","address":"油井"},
{"zip_code":"2830055","kana_pref":"ﾁﾊﾞｹﾝ","kana_city":"ﾄｳｶﾞﾈｼ","kana_address":"ﾖｺｼﾞﾏ","pref":"千葉県","city":"東金市","address":"依古島"},
{"zip_code":"2830100","kana_pref":"ﾁﾊﾞｹﾝ","kana_city":"ｻﾝﾌﾞｸﾞﾝｸｼﾞｭｳｸﾘﾏﾁ","kana_address":"","pref":"千葉県","city":"山武郡九十九里町","address":""},
{"zip_code":"2830105","kana_pref":"ﾁﾊﾞｹﾝ","kana_city":"ｻﾝﾌﾞｸﾞﾝｸｼﾞｭｳｸﾘﾏﾁ","kana_address":"ｱｵ","pref":"千葉県","city":"山武郡九十九里町","address":"粟生"},
{"zip_code":"2830107","kana_pref":"ﾁﾊﾞｹﾝ","kana_city":"ｻﾝﾌﾞｸﾞﾝｸｼﾞｭｳｸﾘﾏﾁ","kana_address":"ｱﾗｵｲ","pref":"千葉県","city":"山武郡九十九里町","address":"荒生"},
{"zip_code":"2830104","kana_pref":"ﾁﾊﾞｹﾝ","kana_city":"ｻﾝﾌﾞｸﾞﾝｸｼﾞｭｳｸﾘﾏﾁ","kana_address":"ｶﾀｶｲ","pref":"千葉県","city":"山武郡九十九里町","address":"片貝"},
{"zip_code":"2830102","kana_pref":"ﾁﾊﾞｹﾝ","kana_city":"ｻﾝﾌﾞｸﾞﾝｸｼﾞｭｳｸﾘﾏﾁ","kana_address":"ｺｾｷ","pref":"千葉県","city":"山武郡九十九里町","address":"小関"},
{"zip_code":"2830101","kana_pref":"ﾁﾊﾞｹﾝ","kana_city":"ｻﾝﾌﾞｸﾞﾝｸｼﾞｭｳｸﾘﾏﾁ","kana_address":"ｻｸﾀﾞ","pref":"千葉県","city":"山武郡九十九里町","address":"作田"},
{"zip_code":"2830117","kana_pref":"ﾁﾊﾞｹﾝ","kana_city":"ｻﾝﾌﾞｸﾞﾝｸｼﾞｭｳｸﾘﾏﾁ","kana_address":"ｼﾓｶｲﾂﾞｶ","pref":"千葉県","city":"山武郡九十九里町","address":"下貝塚"},
{"zip_code":"2830106","kana_pref":"ﾁﾊﾞｹﾝ","kana_city":"ｻﾝﾌﾞｸﾞﾝｸｼﾞｭｳｸﾘﾏﾁ","kana_address":"ｼｭｸ","pref":"千葉県","city":"山武郡九十九里町","address":"宿"},
{"zip_code":"2830103","kana_pref":"ﾁﾊﾞｹﾝ","kana_city":"ｻﾝﾌﾞｸﾞﾝｸｼﾞｭｳｸﾘﾏﾁ","kana_address":"ﾀﾅｶｱﾗｵｲ","pref":"千葉県","city":"山武郡九十九里町","address":"田中荒生"},
{"zip_code":"2830116","kana_pref":"ﾁﾊﾞｹﾝ","kana_city":"ｻﾝﾌﾞｸﾞﾝｸｼﾞｭｳｸﾘﾏﾁ","kana_address":"ﾆｼﾉ","pref":"千葉県","city":"山武郡九十九里町","address":"西野"},
{"zip_code":"2830112","kana_pref":"ﾁﾊﾞｹﾝ","kana_city":"ｻﾝﾌﾞｸﾞﾝｸｼﾞｭｳｸﾘﾏﾁ","kana_address":"ﾌｼﾞｼﾀ","pref":"千葉県","city":"山武郡九十九里町","address":"藤下"},
{"zip_code":"2830113","kana_pref":"ﾁﾊﾞｹﾝ","kana_city":"ｻﾝﾌﾞｸﾞﾝｸｼﾞｭｳｸﾘﾏﾁ","kana_address":"ﾌﾄﾞｳﾄﾞｳ","pref":"千葉県","city":"山武郡九十九里町","address":"不動堂"},
{"zip_code":"2830111","kana_pref":"ﾁﾊﾞｹﾝ","kana_city":"ｻﾝﾌﾞｸﾞﾝｸｼﾞｭｳｸﾘﾏﾁ","kana_address":"ﾎｿﾔｼｷ","pref":"千葉県","city":"山武郡九十九里町","address":"細屋敷"},
{"zip_code":"2830114","kana_pref":"ﾁﾊﾞｹﾝ","kana_city":"ｻﾝﾌﾞｸﾞﾝｸｼﾞｭｳｸﾘﾏﾁ","kana_address":"ﾏｶﾞﾒ","pref":"千葉県","city":"山武郡九十九里町","address":"真亀"},
{"zip_code":"2830115","kana_pref":"ﾁﾊﾞｹﾝ","kana_city":"ｻﾝﾌﾞｸﾞﾝｸｼﾞｭｳｸﾘﾏﾁ","kana_address":"ﾏｶﾞﾒｼﾝﾃﾞﾝ","pref":"千葉県","city":"山武郡九十九里町","address":"真亀新田"}]}