{"zip_code":[
{"zip_code":"2840000","kana_pref":"ﾁﾊﾞｹﾝ","kana_city":"ﾖﾂｶｲﾄﾞｳｼ","kana_address":"","pref":"千葉県","city":"四街道市","address":""},
{"zip_code":"2840024","kana_pref":"ﾁﾊﾞｹﾝ","kana_city":"ﾖﾂｶｲﾄﾞｳｼ","kana_address":"ｱｻﾋｶﾞｵｶ","pref":"千葉県","city":"四街道市","address":"旭ケ丘"},
{"zip_code":"2840014","kana_pref":"ﾁﾊﾞｹﾝ","kana_city":"ﾖﾂｶｲﾄﾞｳｼ","kana_address":"ｲｹﾊﾅ","pref":"千葉県","city":"四街道市","address":"池花"},
{"zip_code":"2840041","kana_pref":"ﾁﾊﾞｹﾝ","kana_city":"ﾖﾂｶｲﾄﾞｳｼ","kana_address":"ｳｴﾉ","pref":"千葉県","city":"四街道市","address":"上野"},
{"zip_code":"2840013","kana_pref":"ﾁﾊﾞｹﾝ","kana_city":"ﾖﾂｶｲﾄﾞｳｼ","kana_address":"ｳﾁｸﾛﾀﾞ","pref":"千葉県","city":"四街道市","address":"内黒田"},
{"zip_code":"2840045","kana_pref":"ﾁﾊﾞｹﾝ","kana_city":"ﾖﾂｶｲﾄﾞｳｼ","kana_address":"ｳﾂｸｼｶﾞｵｶ","pref":"千葉県","city":"四街道市","address":"美しが丘"},
{"zip_code":"2840042","kana_pref":"ﾁﾊﾞｹﾝ","kana_city":"ﾖﾂｶｲﾄﾞｳｼ","kana_address":"ｵﾅｷﾞ","pref":"千葉県","city":"四街道市","address":"小名木"},
{"zip_code":"2840011","kana_pref":"ﾁﾊﾞｹﾝ","kana_city":"ﾖﾂｶｲﾄﾞｳｼ","kana_address":"ｶﾒｻﾞｷ","pref":"千葉県","city":"四街道市","address":"亀崎"},
{"zip_code":"2840002","kana_pref":"ﾁﾊﾞｹﾝ","kana_city":"ﾖﾂｶｲﾄﾞｳｼ","kana_address":"ｶﾔﾊｼ","pref":"千葉県","city":"四街道市","address":"萱橋"},
{"zip_code":"2840027","kana_pref":"ﾁﾊﾞｹﾝ","kana_city":"ﾖﾂｶｲﾄﾞｳｼ","kana_address":"ｸﾘﾔﾏ","pref":"千葉県","city":"四街道市","address":"栗山"},
{"zip_code":"2840025","kana_pref":"ﾁﾊﾞｹﾝ","kana_city":"ﾖﾂｶｲﾄﾞｳｼ","kana_address":"ｻﾁｶﾞｵｶ","pref":"千葉県","city":"四街道市","address":"さちが丘"},
{"zip_code":"2840007","kana_pref":"ﾁﾊﾞｹﾝ","kana_city":"ﾖﾂｶｲﾄﾞｳｼ","kana_address":"ｻﾂｷｶﾞｵｶ","pref":"千葉県","city":"四街道市","address":"さつきケ丘"},
{"zip_code":"2840003","kana_pref":"ﾁﾊﾞｹﾝ","kana_city":"ﾖﾂｶｲﾄﾞｳｼ","kana_address":"ｼｶﾜﾀｼ","pref":"千葉県","city":"四街道市","address":"鹿渡"},
{"zip_code":"2840006","kana_pref":"ﾁﾊﾞｹﾝ","kana_city":"ﾖﾂｶｲﾄﾞｳｼ","kana_address":"ｼﾓｼﾂﾞｼﾝﾃﾞﾝ","pref":"千葉県","city":"四街道市","address":"下志津新田"},
{"zip_code":"2840001","kana_pref":"ﾁﾊﾞｹﾝ","kana_city":"ﾖﾂｶｲﾄﾞｳｼ","kana_address":"ﾀﾞｲﾆﾁ","pref":"千葉県","city":"四街道市","address":"大日"},
{"zip_code":"2840033","kana_pref":"ﾁﾊﾞｹﾝ","kana_city":"ﾖﾂｶｲﾄﾞｳｼ","kana_address":"ﾀｶﾉﾀﾞｲ","pref":"千葉県","city":"四街道市","address":"鷹の台"},
{"zip_code":"2840009","kana_pref":"ﾁﾊﾞｹﾝ","kana_city":"ﾖﾂｶｲﾄﾞｳｼ","kana_address":"ﾁｭｳｵｳ","pref":"千葉県","city":"四街道市","address":"中央"},
{"zip_code":"2840015","kana_pref":"ﾁﾊﾞｹﾝ","kana_city":"ﾖﾂｶｲﾄﾞｳｼ","kana_address":"ﾁﾖﾀﾞ","pref":"千葉県","city":"四街道市","address":"千代田"},
{"zip_code":"2840026","kana_pref":"ﾁﾊﾞｹﾝ","kana_city":"ﾖﾂｶｲﾄﾞｳｼ","kana_address":"ﾂｸｼｻﾞ","pref":"千葉県","city":"四街道市","address":"つくし座"},
{"zip_code":"2840037","kana_pref":"ﾁﾊﾞｹﾝ","kana_city":"ﾖﾂｶｲﾄﾞｳｼ","kana_address":"ﾅｶﾀﾞｲ","pref":"千葉県","city":"四街道市","address":"中台"},
{"zip_code":"2840036","kana_pref":"ﾁﾊﾞｹﾝ","kana_city":"ﾖﾂｶｲﾄﾞｳｼ","kana_address":"ﾅｶﾉ","pref":"千葉県","city":"四街道市","address":"中野"},
{"zip_code":"2840021","kana_pref":"ﾁﾊﾞｹﾝ","kana_city":"ﾖﾂｶｲﾄﾞｳｼ","kana_address":"ﾅｶﾞｵｶ","pref":"千葉県","city":"四街道市","address":"長岡"},
{"zip_code":"2840034","kana_pref":"ﾁﾊﾞｹﾝ","kana_city":"ﾖﾂｶｲﾄﾞｳｼ","kana_address":"ﾅﾊﾞｻﾏ","pref":"千葉県","city":"四街道市","address":"南波佐間"},
{"zip_code":"2840031","kana_pref":"ﾁﾊﾞｹﾝ","kana_city":"ﾖﾂｶｲﾄﾞｳｼ","kana_address":"ﾅﾘﾔﾏ","pref":"千葉県","city":"四街道市","address":"成山"},
{"zip_code":"2840023","kana_pref":"ﾁﾊﾞｹﾝ","kana_city":"ﾖﾂｶｲﾄﾞｳｼ","kana_address":"ﾐｿﾗ","pref":"千葉県","city":"四街道市","address":"みそら"},
{"zip_code":"2840004","kana_pref":"ﾁﾊﾞｹﾝ","kana_city":"ﾖﾂｶｲﾄﾞｳｼ","kana_address":"ﾐﾉﾘﾁｮｳ","pref":"千葉県","city":"四街道市","address":"みのり町"},
{"zip_code":"2840043","kana_pref":"ﾁﾊﾞｹﾝ","kana_city":"ﾖﾂｶｲﾄﾞｳｼ","kana_address":"ﾒｲﾜ","pref":"千葉県","city":"四街道市","address":"めいわ"},
{"zip_code":"2840016","kana_pref":"ﾁﾊﾞｹﾝ","kana_city":"ﾖﾂｶｲﾄﾞｳｼ","kana_address":"ﾓﾈﾉｻﾄ","pref":"千葉県","city":"四街道市","address":"もねの里"},
{"zip_code":"2840012","kana_pref":"ﾁﾊﾞｹﾝ","kana_city":"ﾖﾂｶｲﾄﾞｳｼ","kana_address":"ﾓﾉｲ","pref":"千葉県","city":"四街道市","address":"物井"},
{"zip_code":"2840022","kana_pref":"ﾁﾊﾞｹﾝ","kana_city":"ﾖﾂｶｲﾄﾞｳｼ","kana_address":"ﾔﾏﾅｼ","pref":"千葉県","city":"四街道市","address":"山梨"},
{"zip_code":"2840032","kana_pref":"ﾁﾊﾞｹﾝ","kana_city":"ﾖﾂｶｲﾄﾞｳｼ","kana_address":"ﾖｼｵｶ","pref":"千葉県","city":"四街道市","address":"吉岡"},
{"zip_code":"2840005","kana_pref":"ﾁﾊﾞｹﾝ","kana_city":"ﾖﾂｶｲﾄﾞｳｼ","kana_address":"ﾖﾂｶｲﾄﾞｳ","pref":"千葉県","city":"四街道市","address":"四街道"},
{"zip_code":"2840008","kana_pref":"ﾁﾊﾞｹﾝ","kana_city":"ﾖﾂｶｲﾄﾞｳｼ","kana_address":"ﾛｯﾎﾟｳｶﾞｵｶ","pref":"千葉県","city":"四街道市","address":"鹿放ケ丘"},
{"zip_code":"2840035","kana_pref":"ﾁﾊﾞｹﾝ","kana_city":"ﾖﾂｶｲﾄﾞｳｼ","kana_address":"ﾜﾀﾞ","pref":"千葉県","city":"四街道市","address":"和田"},
{"zip_code":"2840044","kana_pref":"ﾁﾊﾞｹﾝ","kana_city":"ﾖﾂｶｲﾄﾞｳｼ","kana_address":"ﾜﾗﾋﾞ","pref":"千葉県","city":"四街道市","address":"和良比"}]}