{"zip_code":[
{"zip_code":"2850000","kana_pref":"ﾁﾊﾞｹﾝ","kana_city":"ｻｸﾗｼ","kana_address":"","pref":"千葉県","city":"佐倉市","address":""},
{"zip_code":"2850852","kana_pref":"ﾁﾊﾞｹﾝ","kana_city":"ｻｸﾗｼ","kana_address":"ｱｵｽｹﾞ","pref":"千葉県","city":"佐倉市","address":"青菅"},
{"zip_code":"2850835","kana_pref":"ﾁﾊﾞｹﾝ","kana_city":"ｻｸﾗｼ","kana_address":"ｱｾﾞﾀ","pref":"千葉県","city":"佐倉市","address":"畔田"},
{"zip_code":"2850064","kana_pref":"ﾁﾊﾞｹﾝ","kana_city":"ｻｸﾗｼ","kana_address":"ｱﾏﾍﾞ","pref":"千葉県","city":"佐倉市","address":"天辺"},
{"zip_code":"2850832","kana_pref":"ﾁﾊﾞｹﾝ","kana_city":"ｻｸﾗｼ","kana_address":"ｲｲｼﾞｭｳ","pref":"千葉県","city":"佐倉市","address":"飯重"},
{"zip_code":"2850032","kana_pref":"ﾁﾊﾞｹﾝ","kana_city":"ｻｸﾗｼ","kana_address":"ｲｲﾀﾞ","pref":"千葉県","city":"佐倉市","address":"飯田"},
{"zip_code":"2850031","kana_pref":"ﾁﾊﾞｹﾝ","kana_city":"ｻｸﾗｼ","kana_address":"ｲｲﾀﾞﾀﾞｲ","pref":"千葉県","city":"佐倉市","address":"飯田台"},
{"zip_code":"2850076","kana_pref":"ﾁﾊﾞｹﾝ","kana_city":"ｻｸﾗｼ","kana_address":"ｲｲﾂﾞｶ","pref":"千葉県","city":"佐倉市","address":"飯塚"},
{"zip_code":"2850003","kana_pref":"ﾁﾊﾞｹﾝ","kana_city":"ｻｸﾗｼ","kana_address":"ｲｲﾉ","pref":"千葉県","city":"佐倉市","address":"飯野"},
{"zip_code":"2850009","kana_pref":"ﾁﾊﾞｹﾝ","kana_city":"ｻｸﾗｼ","kana_address":"ｲｲﾉﾏﾁ","pref":"千葉県","city":"佐倉市","address":"飯野町"},
{"zip_code":"2850813","kana_pref":"ﾁﾊﾞｹﾝ","kana_city":"ｻｸﾗｼ","kana_address":"ｲｼｶﾜ","pref":"千葉県","city":"佐倉市","address":"石川"},
{"zip_code":"2850864","kana_pref":"ﾁﾊﾞｹﾝ","kana_city":"ｻｸﾗｼ","kana_address":"ｲﾅﾘﾀﾞｲ","pref":"千葉県","city":"佐倉市","address":"稲荷台"},
{"zip_code":"2850855","kana_pref":"ﾁﾊﾞｹﾝ","kana_city":"ｻｸﾗｼ","kana_address":"ｲﾉ","pref":"千葉県","city":"佐倉市","address":"井野"},
{"zip_code":"2850856","kana_pref":"ﾁﾊﾞｹﾝ","kana_city":"ｻｸﾗｼ","kana_address":"ｲﾉﾏﾁ","pref":"千葉県","city":"佐倉市","address":"井野町"},
{"zip_code":"2850071","kana_pref":"ﾁﾊﾞｹﾝ","kana_city":"ｻｸﾗｼ","kana_address":"ｲﾜﾄﾐ","pref":"千葉県","city":"佐倉市","address":"岩富"},
{"zip_code":"2850072","kana_pref":"ﾁﾊﾞｹﾝ","kana_city":"ｻｸﾗｼ","kana_address":"ｲﾜﾄﾐﾏﾁ","pref":"千葉県","city":"佐倉市","address":"岩富町"},
{"zip_code":"2850004","kana_pref":"ﾁﾊﾞｹﾝ","kana_city":"ｻｸﾗｼ","kana_address":"ｲﾜﾅ","pref":"千葉県","city":"佐倉市","address":"岩名"},
{"zip_code":"2850822","kana_pref":"ﾁﾊﾞｹﾝ","kana_city":"ｻｸﾗｼ","kana_address":"ｲﾝﾅﾝ","pref":"千葉県","city":"佐倉市","address":"印南"},
{"zip_code":"2850863","kana_pref":"ﾁﾊﾞｹﾝ","kana_city":"ｻｸﾗｼ","kana_address":"ｳｽｲ","pref":"千葉県","city":"佐倉市","address":"臼井"},
{"zip_code":"2850861","kana_pref":"ﾁﾊﾞｹﾝ","kana_city":"ｻｸﾗｼ","kana_address":"ｳｽｲﾀ","pref":"千葉県","city":"佐倉市","address":"臼井田"},
{"zip_code":"2850866","kana_pref":"ﾁﾊﾞｹﾝ","kana_city":"ｻｸﾗｼ","kana_address":"ｳｽｲﾀﾞｲ","pref":"千葉県","city":"佐倉市","address":"臼井台"},
{"zip_code":"2850077","kana_pref":"ﾁﾊﾞｹﾝ","kana_city":"ｻｸﾗｼ","kana_address":"ｳﾁﾀﾞ","pref":"千葉県","city":"佐倉市","address":"内田"},
{"zip_code":"2850024","kana_pref":"ﾁﾊﾞｹﾝ","kana_city":"ｻｸﾗｼ","kana_address":"ｳﾗｼﾝﾏﾁ","pref":"千葉県","city":"佐倉市","address":"裏新町"},
{"zip_code":"2850055","kana_pref":"ﾁﾊﾞｹﾝ","kana_city":"ｻｸﾗｼ","kana_address":"ｳﾘﾂﾎﾞｼﾝﾃﾞﾝ","pref":"千葉県","city":"佐倉市","address":"瓜坪新田"},
{"zip_code":"2850824","kana_pref":"ﾁﾊﾞｹﾝ","kana_city":"ｻｸﾗｼ","kana_address":"ｴﾊﾞﾗ","pref":"千葉県","city":"佐倉市","address":"江原"},
{"zip_code":"2850823","kana_pref":"ﾁﾊﾞｹﾝ","kana_city":"ｻｸﾗｼ","kana_address":"ｴﾊﾞﾗｼﾝﾃﾞﾝ","pref":"千葉県","city":"佐倉市","address":"江原新田"},
{"zip_code":"2850825","kana_pref":"ﾁﾊﾞｹﾝ","kana_city":"ｻｸﾗｼ","kana_address":"ｴﾊﾞﾗﾀﾞｲ","pref":"千葉県","city":"佐倉市","address":"江原台"},
{"zip_code":"2850837","kana_pref":"ﾁﾊﾞｹﾝ","kana_city":"ｻｸﾗｼ","kana_address":"ｵｳｼﾞﾀﾞｲ","pref":"千葉県","city":"佐倉市","address":"王子台"},
{"zip_code":"2850817","kana_pref":"ﾁﾊﾞｹﾝ","kana_city":"ｻｸﾗｼ","kana_address":"ｵｵｻｷﾀﾞｲ","pref":"千葉県","city":"佐倉市","address":"大崎台"},
{"zip_code":"2850802","kana_pref":"ﾁﾊﾞｹﾝ","kana_city":"ｻｸﾗｼ","kana_address":"ｵｵｻｸ","pref":"千葉県","city":"佐倉市","address":"大作"},
{"zip_code":"2850041","kana_pref":"ﾁﾊﾞｹﾝ","kana_city":"ｻｸﾗｼ","kana_address":"ｵｵｻﾞｸﾗ","pref":"千葉県","city":"佐倉市","address":"大佐倉"},
{"zip_code":"2850806","kana_pref":"ﾁﾊﾞｹﾝ","kana_city":"ｻｸﾗｼ","kana_address":"ｵｵｼﾉﾂﾞｶ","pref":"千葉県","city":"佐倉市","address":"大篠塚"},
{"zip_code":"2850043","kana_pref":"ﾁﾊﾞｹﾝ","kana_city":"ｻｸﾗｼ","kana_address":"ｵｵｼﾞｬﾏﾁ","pref":"千葉県","city":"佐倉市","address":"大蛇町"},
{"zip_code":"2850808","kana_pref":"ﾁﾊﾞｹﾝ","kana_city":"ｻｸﾗｼ","kana_address":"ｵｵﾀ","pref":"千葉県","city":"佐倉市","address":"太田"},
{"zip_code":"2850853","kana_pref":"ﾁﾊﾞｹﾝ","kana_city":"ｻｸﾗｼ","kana_address":"ｵﾀﾞｹ","pref":"千葉県","city":"佐倉市","address":"小竹"},
{"zip_code":"2850836","kana_pref":"ﾁﾊﾞｹﾝ","kana_city":"ｻｸﾗｼ","kana_address":"ｵﾌﾞｶｲ","pref":"千葉県","city":"佐倉市","address":"生谷"},
{"zip_code":"2850811","kana_pref":"ﾁﾊﾞｹﾝ","kana_city":"ｻｸﾗｼ","kana_address":"ｵﾓﾃﾁｮｳ","pref":"千葉県","city":"佐倉市","address":"表町"},
{"zip_code":"2850013","kana_pref":"ﾁﾊﾞｹﾝ","kana_city":"ｻｸﾗｼ","kana_address":"ｶｲﾘﾝｼﾞﾏﾁ","pref":"千葉県","city":"佐倉市","address":"海隣寺町"},
{"zip_code":"2850821","kana_pref":"ﾁﾊﾞｹﾝ","kana_city":"ｻｸﾗｼ","kana_address":"ｶｸﾗｲ","pref":"千葉県","city":"佐倉市","address":"角来"},
{"zip_code":"2850008","kana_pref":"ﾁﾊﾞｹﾝ","kana_city":"ｻｸﾗｼ","kana_address":"ｶｼﾏｶﾝﾀｸ","pref":"千葉県","city":"佐倉市","address":"鹿島干拓"},
{"zip_code":"2850026","kana_pref":"ﾁﾊﾞｹﾝ","kana_city":"ｻｸﾗｼ","kana_address":"ｶﾌﾞﾗｷﾞﾅｶﾀﾏﾁ","pref":"千葉県","city":"佐倉市","address":"鏑木仲田町"},
{"zip_code":"2850025","kana_pref":"ﾁﾊﾞｹﾝ","kana_city":"ｻｸﾗｼ","kana_address":"ｶﾌﾞﾗｷﾞﾏﾁ","pref":"千葉県","city":"佐倉市","address":"鏑木町"},
{"zip_code":"2850054","kana_pref":"ﾁﾊﾞｹﾝ","kana_city":"ｻｸﾗｼ","kana_address":"ｶﾐｶﾂﾀ","pref":"千葉県","city":"佐倉市","address":"上勝田"},
{"zip_code":"2850846","kana_pref":"ﾁﾊﾞｹﾝ","kana_city":"ｻｸﾗｼ","kana_address":"ｶﾐｼﾂﾞ","pref":"千葉県","city":"佐倉市","address":"上志津"},
{"zip_code":"2850844","kana_pref":"ﾁﾊﾞｹﾝ","kana_city":"ｻｸﾗｼ","kana_address":"ｶﾐｼﾂﾞﾊﾗ","pref":"千葉県","city":"佐倉市","address":"上志津原"},
{"zip_code":"2850044","kana_pref":"ﾁﾊﾞｹﾝ","kana_city":"ｻｸﾗｼ","kana_address":"ｶﾐﾀﾞｲ","pref":"千葉県","city":"佐倉市","address":"上代"},
{"zip_code":"2850066","kana_pref":"ﾁﾊﾞｹﾝ","kana_city":"ｻｸﾗｼ","kana_address":"ｶﾐﾍﾞｯｼﾖ","pref":"千葉県","city":"佐倉市","address":"上別所"},
{"zip_code":"2850801","kana_pref":"ﾁﾊﾞｹﾝ","kana_city":"ｻｸﾗｼ","kana_address":"ｷﾉｺ","pref":"千葉県","city":"佐倉市","address":"木野子"},
{"zip_code":"2850803","kana_pref":"ﾁﾊﾞｹﾝ","kana_city":"ｻｸﾗｼ","kana_address":"ｺﾞｳﾄﾞ","pref":"千葉県","city":"佐倉市","address":"神門"},
{"zip_code":"2850805","kana_pref":"ﾁﾊﾞｹﾝ","kana_city":"ｻｸﾗｼ","kana_address":"ｺｼﾉﾂﾞｶ","pref":"千葉県","city":"佐倉市","address":"小篠塚"},
{"zip_code":"2850057","kana_pref":"ﾁﾊﾞｹﾝ","kana_city":"ｻｸﾗｼ","kana_address":"ｺﾒﾄﾞ","pref":"千葉県","city":"佐倉市","address":"米戸"},
{"zip_code":"2850014","kana_pref":"ﾁﾊﾞｹﾝ","kana_city":"ｻｸﾗｼ","kana_address":"ｻｶｴﾁｮｳ","pref":"千葉県","city":"佐倉市","address":"栄町"},
{"zip_code":"2850078","kana_pref":"ﾁﾊﾞｹﾝ","kana_city":"ｻｸﾗｼ","kana_address":"ｻｶﾄﾞ","pref":"千葉県","city":"佐倉市","address":"坂戸"},
{"zip_code":"2850062","kana_pref":"ﾁﾊﾞｹﾝ","kana_city":"ｻｸﾗｼ","kana_address":"ｻﾑｶｾﾞ","pref":"千葉県","city":"佐倉市","address":"寒風"},
{"zip_code":"2850807","kana_pref":"ﾁﾊﾞｹﾝ","kana_city":"ｻｸﾗｼ","kana_address":"ｻﾝﾉｳ","pref":"千葉県","city":"佐倉市","address":"山王"},
{"zip_code":"2850053","kana_pref":"ﾁﾊﾞｹﾝ","kana_city":"ｻｸﾗｼ","kana_address":"ｼﾓｶﾂﾀ","pref":"千葉県","city":"佐倉市","address":"下勝田"},
{"zip_code":"2850841","kana_pref":"ﾁﾊﾞｹﾝ","kana_city":"ｻｸﾗｼ","kana_address":"ｼﾓｼﾂﾞ","pref":"千葉県","city":"佐倉市","address":"下志津"},
{"zip_code":"2850842","kana_pref":"ﾁﾊﾞｹﾝ","kana_city":"ｻｸﾗｼ","kana_address":"ｼﾓｼﾂﾞﾊﾗ","pref":"千葉県","city":"佐倉市","address":"下志津原"},
{"zip_code":"2850006","kana_pref":"ﾁﾊﾞｹﾝ","kana_city":"ｻｸﾗｼ","kana_address":"ｼﾓﾈ","pref":"千葉県","city":"佐倉市","address":"下根"},
{"zip_code":"2850007","kana_pref":"ﾁﾊﾞｹﾝ","kana_city":"ｻｸﾗｼ","kana_address":"ｼﾓﾈﾏﾁ","pref":"千葉県","city":"佐倉市","address":"下根町"},
{"zip_code":"2850035","kana_pref":"ﾁﾊﾞｹﾝ","kana_city":"ｻｸﾗｼ","kana_address":"ｼﾞｭﾓｸﾏﾁ","pref":"千葉県","city":"佐倉市","address":"樹木町"},
{"zip_code":"2850815","kana_pref":"ﾁﾊﾞｹﾝ","kana_city":"ｻｸﾗｼ","kana_address":"ｼﾞｮｳ","pref":"千葉県","city":"佐倉市","address":"城"},
{"zip_code":"2850854","kana_pref":"ﾁﾊﾞｹﾝ","kana_city":"ｻｸﾗｼ","kana_address":"ｼﾞｮｳｻﾞ","pref":"千葉県","city":"佐倉市","address":"上座"},
{"zip_code":"2850017","kana_pref":"ﾁﾊﾞｹﾝ","kana_city":"ｻｸﾗｼ","kana_address":"ｼﾞｮｳﾅｲﾏﾁ","pref":"千葉県","city":"佐倉市","address":"城内町"},
{"zip_code":"2850045","kana_pref":"ﾁﾊﾞｹﾝ","kana_city":"ｻｸﾗｼ","kana_address":"ｼﾛｶﾞﾈ","pref":"千葉県","city":"佐倉市","address":"白銀"},
{"zip_code":"2850862","kana_pref":"ﾁﾊﾞｹﾝ","kana_city":"ｻｸﾗｼ","kana_address":"ｼﾝｳｽｲﾀﾞ","pref":"千葉県","city":"佐倉市","address":"新臼井田"},
{"zip_code":"2850023","kana_pref":"ﾁﾊﾞｹﾝ","kana_city":"ｻｸﾗｼ","kana_address":"ｼﾝﾏﾁ","pref":"千葉県","city":"佐倉市","address":"新町"},
{"zip_code":"2850034","kana_pref":"ﾁﾊﾞｹﾝ","kana_city":"ｻｸﾗｼ","kana_address":"ｾﾝﾅﾘ","pref":"千葉県","city":"佐倉市","address":"千成"},
{"zip_code":"2850831","kana_pref":"ﾁﾊﾞｹﾝ","kana_city":"ｻｸﾗｼ","kana_address":"ｿﾒｲﾉ","pref":"千葉県","city":"佐倉市","address":"染井野"},
{"zip_code":"2850046","kana_pref":"ﾁﾊﾞｹﾝ","kana_city":"ｻｸﾗｼ","kana_address":"ﾀｶｵｶ","pref":"千葉県","city":"佐倉市","address":"高岡"},
{"zip_code":"2850061","kana_pref":"ﾁﾊﾞｹﾝ","kana_city":"ｻｸﾗｼ","kana_address":"ﾀｶｻｷ","pref":"千葉県","city":"佐倉市","address":"高崎"},
{"zip_code":"2850012","kana_pref":"ﾁﾊﾞｹﾝ","kana_city":"ｻｸﾗｼ","kana_address":"ﾀﾏﾁ","pref":"千葉県","city":"佐倉市","address":"田町"},
{"zip_code":"2850001","kana_pref":"ﾁﾊﾞｹﾝ","kana_city":"ｻｸﾗｼ","kana_address":"ﾂﾁｳｷ","pref":"千葉県","city":"佐倉市","address":"土浮"},
{"zip_code":"2850056","kana_pref":"ﾁﾊﾞｹﾝ","kana_city":"ｻｸﾗｼ","kana_address":"ﾂﾎﾞﾔﾏｼﾝﾃﾞﾝ","pref":"千葉県","city":"佐倉市","address":"坪山新田"},
{"zip_code":"2850818","kana_pref":"ﾁﾊﾞｹﾝ","kana_city":"ｻｸﾗｼ","kana_address":"ﾃﾗｻﾞｷ","pref":"千葉県","city":"佐倉市","address":"寺崎"},
{"zip_code":"2850816","kana_pref":"ﾁﾊﾞｹﾝ","kana_city":"ｻｸﾗｼ","kana_address":"ﾄｳｼﾞﾀﾞｲ","pref":"千葉県","city":"佐倉市","address":"藤治台"},
{"zip_code":"2850065","kana_pref":"ﾁﾊﾞｹﾝ","kana_city":"ｻｸﾗｼ","kana_address":"ﾅｵﾔ","pref":"千葉県","city":"佐倉市","address":"直弥"},
{"zip_code":"2850843","kana_pref":"ﾁﾊﾞｹﾝ","kana_city":"ｻｸﾗｼ","kana_address":"ﾅｶｼﾂﾞ","pref":"千葉県","city":"佐倉市","address":"中志津"},
{"zip_code":"2850022","kana_pref":"ﾁﾊﾞｹﾝ","kana_city":"ｻｸﾗｼ","kana_address":"ﾅｶﾋﾞｮｳﾏﾁ","pref":"千葉県","city":"佐倉市","address":"中尾余町"},
{"zip_code":"2850051","kana_pref":"ﾁﾊﾞｹﾝ","kana_city":"ｻｸﾗｼ","kana_address":"ﾅｶﾞｸﾏ","pref":"千葉県","city":"佐倉市","address":"長熊"},
{"zip_code":"2850073","kana_pref":"ﾁﾊﾞｹﾝ","kana_city":"ｻｸﾗｼ","kana_address":"ﾅﾅﾏｶﾞﾘ","pref":"千葉県","city":"佐倉市","address":"七曲"},
{"zip_code":"2850033","kana_pref":"ﾁﾊﾞｹﾝ","kana_city":"ｻｸﾗｼ","kana_address":"ﾅﾍﾞﾔﾏﾏﾁ","pref":"千葉県","city":"佐倉市","address":"鍋山町"},
{"zip_code":"2850015","kana_pref":"ﾁﾊﾞｹﾝ","kana_city":"ｻｸﾗｼ","kana_address":"ﾅﾐｷﾏﾁ","pref":"千葉県","city":"佐倉市","address":"並木町"},
{"zip_code":"2850845","kana_pref":"ﾁﾊﾞｹﾝ","kana_city":"ｻｸﾗｼ","kana_address":"ﾆｼｼﾂﾞ","pref":"千葉県","city":"佐倉市","address":"西志津"},
{"zip_code":"2850074","kana_pref":"ﾁﾊﾞｹﾝ","kana_city":"ｻｸﾗｼ","kana_address":"ﾆｼﾐｶﾄﾞ","pref":"千葉県","city":"佐倉市","address":"西御門"},
{"zip_code":"2850850","kana_pref":"ﾁﾊﾞｹﾝ","kana_city":"ｻｸﾗｼ","kana_address":"ﾆｼﾕｰｶﾘｶﾞｵｶ","pref":"千葉県","city":"佐倉市","address":"西ユーカリが丘"},
{"zip_code":"2850002","kana_pref":"ﾁﾊﾞｹﾝ","kana_city":"ｻｸﾗｼ","kana_address":"ﾊｷﾞﾔﾏｼﾝﾃﾞﾝ","pref":"千葉県","city":"佐倉市","address":"萩山新田"},
{"zip_code":"2850867","kana_pref":"ﾁﾊﾞｹﾝ","kana_city":"ｻｸﾗｼ","kana_address":"ﾊﾁﾏﾝﾀﾞｲ","pref":"千葉県","city":"佐倉市","address":"八幡台"},
{"zip_code":"2850833","kana_pref":"ﾁﾊﾞｹﾝ","kana_city":"ｻｸﾗｼ","kana_address":"ﾊﾄﾞﾘ","pref":"千葉県","city":"佐倉市","address":"羽鳥"},
{"zip_code":"2850814","kana_pref":"ﾁﾊﾞｹﾝ","kana_city":"ｻｸﾗｼ","kana_address":"ﾊﾙｼﾞ","pref":"千葉県","city":"佐倉市","address":"春路"},
{"zip_code":"2850036","kana_pref":"ﾁﾊﾞｹﾝ","kana_city":"ｻｸﾗｼ","kana_address":"ﾌｼﾞｻﾜﾏﾁ","pref":"千葉県","city":"佐倉市","address":"藤沢町"},
{"zip_code":"2850042","kana_pref":"ﾁﾊﾞｹﾝ","kana_city":"ｻｸﾗｼ","kana_address":"ﾏｻｶﾄﾞﾏﾁ","pref":"千葉県","city":"佐倉市","address":"将門町"},
{"zip_code":"2850851","kana_pref":"ﾁﾊﾞｹﾝ","kana_city":"ｻｸﾗｼ","kana_address":"ﾏｯｻｷ","pref":"千葉県","city":"佐倉市","address":"先崎"},
{"zip_code":"2850804","kana_pref":"ﾁﾊﾞｹﾝ","kana_city":"ｻｸﾗｼ","kana_address":"ﾏﾜﾀｼ","pref":"千葉県","city":"佐倉市","address":"馬渡"},
{"zip_code":"2850865","kana_pref":"ﾁﾊﾞｹﾝ","kana_city":"ｻｸﾗｼ","kana_address":"ﾐﾅﾐｳｽｲﾀﾞｲ","pref":"千葉県","city":"佐倉市","address":"南臼井台"},
{"zip_code":"2850859","kana_pref":"ﾁﾊﾞｹﾝ","kana_city":"ｻｸﾗｼ","kana_address":"ﾐﾅﾐﾕｰｶﾘｶﾞｵｶ","pref":"千葉県","city":"佐倉市","address":"南ユーカリが丘"},
{"zip_code":"2850075","kana_pref":"ﾁﾊﾞｹﾝ","kana_city":"ｻｸﾗｼ","kana_address":"ﾐﾔｳﾁ","pref":"千葉県","city":"佐倉市","address":"宮内"},
{"zip_code":"2850016","kana_pref":"ﾁﾊﾞｹﾝ","kana_city":"ｻｸﾗｼ","kana_address":"ﾐﾔｺｳｼﾞﾏﾁ","pref":"千葉県","city":"佐倉市","address":"宮小路町"},
{"zip_code":"2850857","kana_pref":"ﾁﾊﾞｹﾝ","kana_city":"ｻｸﾗｼ","kana_address":"ﾐﾔﾉﾀﾞｲ","pref":"千葉県","city":"佐倉市","address":"宮ノ台"},
{"zip_code":"2850005","kana_pref":"ﾁﾊﾞｹﾝ","kana_city":"ｻｸﾗｼ","kana_address":"ﾐﾔﾏｴ","pref":"千葉県","city":"佐倉市","address":"宮前"},
{"zip_code":"2850063","kana_pref":"ﾁﾊﾞｹﾝ","kana_city":"ｻｸﾗｼ","kana_address":"ﾐﾔﾓﾄ","pref":"千葉県","city":"佐倉市","address":"宮本"},
{"zip_code":"2850038","kana_pref":"ﾁﾊﾞｹﾝ","kana_city":"ｻｸﾗｼ","kana_address":"ﾐﾛｸﾏﾁ","pref":"千葉県","city":"佐倉市","address":"弥勒町"},
{"zip_code":"2850812","kana_pref":"ﾁﾊﾞｹﾝ","kana_city":"ｻｸﾗｼ","kana_address":"ﾑﾂｻﾞｷ","pref":"千葉県","city":"佐倉市","address":"六崎"},
{"zip_code":"2850021","kana_pref":"ﾁﾊﾞｹﾝ","kana_city":"ｻｸﾗｼ","kana_address":"ﾓｶﾞﾐﾏﾁ","pref":"千葉県","city":"佐倉市","address":"最上町"},
{"zip_code":"2850037","kana_pref":"ﾁﾊﾞｹﾝ","kana_city":"ｻｸﾗｼ","kana_address":"ﾓﾄﾏﾁ","pref":"千葉県","city":"佐倉市","address":"本町"},
{"zip_code":"2850052","kana_pref":"ﾁﾊﾞｹﾝ","kana_city":"ｻｸﾗｼ","kana_address":"ﾔｷﾞ","pref":"千葉県","city":"佐倉市","address":"八木"},
{"zip_code":"2850039","kana_pref":"ﾁﾊﾞｹﾝ","kana_city":"ｻｸﾗｼ","kana_address":"ﾔｯｺﾀﾞｲﾏﾁ","pref":"千葉県","city":"佐倉市","address":"野狐台町"},
{"zip_code":"2850011","kana_pref":"ﾁﾊﾞｹﾝ","kana_city":"ｻｸﾗｼ","kana_address":"ﾔﾏﾉｻｷ","pref":"千葉県","city":"佐倉市","address":"山崎"},
{"zip_code":"2850858","kana_pref":"ﾁﾊﾞｹﾝ","kana_city":"ｻｸﾗｼ","kana_address":"ﾕｰｶﾘｶﾞｵｶ","pref":"千葉県","city":"佐倉市","address":"ユーカリが丘"},
{"zip_code":"2850834","kana_pref":"ﾁﾊﾞｹﾝ","kana_city":"ｻｸﾗｼ","kana_address":"ﾖｼﾐ","pref":"千葉県","city":"佐倉市","address":"吉見"},
{"zip_code":"2850900","kana_pref":"ﾁﾊﾞｹﾝ","kana_city":"ｲﾝﾊﾞｸﾞﾝｼｽｲﾏﾁ","kana_address":"","pref":"千葉県","city":"印旛郡酒々井町","address":""},
{"zip_code":"2850912","kana_pref":"ﾁﾊﾞｹﾝ","kana_city":"ｲﾝﾊﾞｸﾞﾝｼｽｲﾏﾁ","kana_address":"ｲｲｽﾞﾐ","pref":"千葉県","city":"印旛郡酒々井町","address":"飯積"},
{"zip_code":"2850902","kana_pref":"ﾁﾊﾞｹﾝ","kana_city":"ｲﾝﾊﾞｸﾞﾝｼｽｲﾏﾁ","kana_address":"ｲｼﾞﾉ","pref":"千葉県","city":"印旛郡酒々井町","address":"伊篠"},
{"zip_code":"2850904","kana_pref":"ﾁﾊﾞｹﾝ","kana_city":"ｲﾝﾊﾞｸﾞﾝｼｽｲﾏﾁ","kana_address":"ｲｼﾞﾉｼﾝﾃﾞﾝ","pref":"千葉県","city":"印旛郡酒々井町","address":"伊篠新田"},
{"zip_code":"2850903","kana_pref":"ﾁﾊﾞｹﾝ","kana_city":"ｲﾝﾊﾞｸﾞﾝｼｽｲﾏﾁ","kana_address":"ｲﾏｸﾗｼﾝﾃﾞﾝ","pref":"千葉県","city":"印旛郡酒々井町","address":"今倉新田"},
{"zip_code":"2850911","kana_pref":"ﾁﾊﾞｹﾝ","kana_city":"ｲﾝﾊﾞｸﾞﾝｼｽｲﾏﾁ","kana_address":"ｵｶﾞﾐ","pref":"千葉県","city":"印旛郡酒々井町","address":"尾上"},
{"zip_code":"2850906","kana_pref":"ﾁﾊﾞｹﾝ","kana_city":"ｲﾝﾊﾞｸﾞﾝｼｽｲﾏﾁ","kana_address":"ｶｼﾜｷ","pref":"千葉県","city":"印旛郡酒々井町","address":"柏木"},
{"zip_code":"2850905","kana_pref":"ﾁﾊﾞｹﾝ","kana_city":"ｲﾝﾊﾞｸﾞﾝｼｽｲﾏﾁ","kana_address":"ｶﾐｲﾜﾊｼ","pref":"千葉県","city":"印旛郡酒々井町","address":"上岩橋"},
{"zip_code":"2850925","kana_pref":"ﾁﾊﾞｹﾝ","kana_city":"ｲﾝﾊﾞｸﾞﾝｼｽｲﾏﾁ","kana_address":"ｶﾐﾓﾄｻｸﾗ","pref":"千葉県","city":"印旛郡酒々井町","address":"上本佐倉"},
{"zip_code":"2850927","kana_pref":"ﾁﾊﾞｹﾝ","kana_city":"ｲﾝﾊﾞｸﾞﾝｼｽｲﾏﾁ","kana_address":"ｼｽｲ","pref":"千葉県","city":"印旛郡酒々井町","address":"酒々井"},
{"zip_code":"2850901","kana_pref":"ﾁﾊﾞｹﾝ","kana_city":"ｲﾝﾊﾞｸﾞﾝｼｽｲﾏﾁ","kana_address":"ｼﾉﾔﾏｼﾝﾃﾞﾝ","pref":"千葉県","city":"印旛郡酒々井町","address":"篠山新田"},
{"zip_code":"2850907","kana_pref":"ﾁﾊﾞｹﾝ","kana_city":"ｲﾝﾊﾞｸﾞﾝｼｽｲﾏﾁ","kana_address":"ｼﾓｲﾜﾊｼ","pref":"千葉県","city":"印旛郡酒々井町","address":"下岩橋"},
{"zip_code":"2850924","kana_pref":"ﾁﾊﾞｹﾝ","kana_city":"ｲﾝﾊﾞｸﾞﾝｼｽｲﾏﾁ","kana_address":"ｼﾓﾀﾞｲ","pref":"千葉県","city":"印旛郡酒々井町","address":"下台"},
{"zip_code":"2850913","kana_pref":"ﾁﾊﾞｹﾝ","kana_city":"ｲﾝﾊﾞｸﾞﾝｼｽｲﾏﾁ","kana_address":"ｽﾐ","pref":"千葉県","city":"印旛郡酒々井町","address":"墨"},
{"zip_code":"2850922","kana_pref":"ﾁﾊﾞｹﾝ","kana_city":"ｲﾝﾊﾞｸﾞﾝｼｽｲﾏﾁ","kana_address":"ﾁｭｳｵｳﾀﾞｲ","pref":"千葉県","city":"印旛郡酒々井町","address":"中央台"},
{"zip_code":"2850921","kana_pref":"ﾁﾊﾞｹﾝ","kana_city":"ｲﾝﾊﾞｸﾞﾝｼｽｲﾏﾁ","kana_address":"ﾅｶｶﾞﾜ","pref":"千葉県","city":"印旛郡酒々井町","address":"中川"},
{"zip_code":"2850923","kana_pref":"ﾁﾊﾞｹﾝ","kana_city":"ｲﾝﾊﾞｸﾞﾝｼｽｲﾏﾁ","kana_address":"ﾋｶﾞｼｼｽｲ","pref":"千葉県","city":"印旛郡酒々井町","address":"東酒々井"},
{"zip_code":"2850928","kana_pref":"ﾁﾊﾞｹﾝ","kana_city":"ｲﾝﾊﾞｸﾞﾝｼｽｲﾏﾁ","kana_address":"ﾌｼﾞｷﾉ","pref":"千葉県","city":"印旛郡酒々井町","address":"ふじき野"},
{"zip_code":"2850914","kana_pref":"ﾁﾊﾞｹﾝ","kana_city":"ｲﾝﾊﾞｸﾞﾝｼｽｲﾏﾁ","kana_address":"ﾏﾊﾞｼ","pref":"千葉県","city":"印旛郡酒々井町","address":"馬橋"},
{"zip_code":"2850926","kana_pref":"ﾁﾊﾞｹﾝ","kana_city":"ｲﾝﾊﾞｸﾞﾝｼｽｲﾏﾁ","kana_address":"ﾓﾄｻｸﾗ","pref":"千葉県","city":"印旛郡酒々井町","address":"本佐倉"}]}