{"zip_code":[
{"zip_code":"2860000","kana_pref":"ﾁﾊﾞｹﾝ","kana_city":"ﾅﾘﾀｼ","kana_address":"","pref":"千葉県","city":"成田市","address":""},
{"zip_code":"2860832","kana_pref":"ﾁﾊﾞｹﾝ","kana_city":"ﾅﾘﾀｼ","kana_address":"ｱｶｵｷﾞ","pref":"千葉県","city":"成田市","address":"赤荻"},
{"zip_code":"2860017","kana_pref":"ﾁﾊﾞｹﾝ","kana_city":"ﾅﾘﾀｼ","kana_address":"ｱｶｻｶ","pref":"千葉県","city":"成田市","address":"赤坂"},
{"zip_code":"2860831","kana_pref":"ﾁﾊﾞｹﾝ","kana_city":"ﾅﾘﾀｼ","kana_address":"ｱｼﾀﾞ","pref":"千葉県","city":"成田市","address":"芦田"},
{"zip_code":"2860025","kana_pref":"ﾁﾊﾞｹﾝ","kana_city":"ﾅﾘﾀｼ","kana_address":"ｱｽﾞﾏﾁｮｳ","pref":"千葉県","city":"成田市","address":"東町"},
{"zip_code":"2860018","kana_pref":"ﾁﾊﾞｹﾝ","kana_city":"ﾅﾘﾀｼ","kana_address":"ｱﾂﾞﾏ","pref":"千葉県","city":"成田市","address":"吾妻"},
{"zip_code":"2860818","kana_pref":"ﾁﾊﾞｹﾝ","kana_city":"ﾅﾘﾀｼ","kana_address":"ｱﾗｳﾐ","pref":"千葉県","city":"成田市","address":"荒海"},
{"zip_code":"2860803","kana_pref":"ﾁﾊﾞｹﾝ","kana_city":"ﾅﾘﾀｼ","kana_address":"ｱﾝｻｲ","pref":"千葉県","city":"成田市","address":"安西"},
{"zip_code":"2860041","kana_pref":"ﾁﾊﾞｹﾝ","kana_city":"ﾅﾘﾀｼ","kana_address":"ｲｲﾀﾞﾁｮｳ","pref":"千葉県","city":"成田市","address":"飯田町"},
{"zip_code":"2860046","kana_pref":"ﾁﾊﾞｹﾝ","kana_city":"ﾅﾘﾀｼ","kana_address":"ｲｲﾅｶ","pref":"千葉県","city":"成田市","address":"飯仲"},
{"zip_code":"2860035","kana_pref":"ﾁﾊﾞｹﾝ","kana_city":"ﾅﾘﾀｼ","kana_address":"ｲｺﾞﾀﾞｲ","pref":"千葉県","city":"成田市","address":"囲護台"},
{"zip_code":"2860811","kana_pref":"ﾁﾊﾞｹﾝ","kana_city":"ﾅﾘﾀｼ","kana_address":"ｲｿﾍﾞ","pref":"千葉県","city":"成田市","address":"磯部"},
{"zip_code":"2860813","kana_pref":"ﾁﾊﾞｹﾝ","kana_city":"ﾅﾘﾀｼ","kana_address":"ｲﾉｵｶ","pref":"千葉県","city":"成田市","address":"飯岡"},
{"zip_code":"2860029","kana_pref":"ﾁﾊﾞｹﾝ","kana_city":"ﾅﾘﾀｼ","kana_address":"ｳｲﾝｸﾞﾂﾁﾔ","pref":"千葉県","city":"成田市","address":"ウイング土屋"},
{"zip_code":"2860047","kana_pref":"ﾁﾊﾞｹﾝ","kana_city":"ﾅﾘﾀｼ","kana_address":"ｴﾍﾞｽ","pref":"千葉県","city":"成田市","address":"江弁須"},
{"zip_code":"2860817","kana_pref":"ﾁﾊﾞｹﾝ","kana_city":"ﾅﾘﾀｼ","kana_address":"ｵｵｳ","pref":"千葉県","city":"成田市","address":"大生"},
{"zip_code":"2860122","kana_pref":"ﾁﾊﾞｹﾝ","kana_city":"ﾅﾘﾀｼ","kana_address":"ｵｵｼﾐｽﾞ","pref":"千葉県","city":"成田市","address":"大清水"},
{"zip_code":"2860841","kana_pref":"ﾁﾊﾞｹﾝ","kana_city":"ﾅﾘﾀｼ","kana_address":"ｵｵﾀﾞｹ","pref":"千葉県","city":"成田市","address":"大竹"},
{"zip_code":"2860043","kana_pref":"ﾁﾊﾞｹﾝ","kana_city":"ﾅﾘﾀｼ","kana_address":"ｵｵﾌﾞｸﾛ","pref":"千葉県","city":"成田市","address":"大袋"},
{"zip_code":"2860821","kana_pref":"ﾁﾊﾞｹﾝ","kana_city":"ﾅﾘﾀｼ","kana_address":"ｵｵﾑﾛ","pref":"千葉県","city":"成田市","address":"大室"},
{"zip_code":"2860131","kana_pref":"ﾁﾊﾞｹﾝ","kana_city":"ﾅﾘﾀｼ","kana_address":"ｵｵﾔﾏ","pref":"千葉県","city":"成田市","address":"大山"},
{"zip_code":"2860845","kana_pref":"ﾁﾊﾞｹﾝ","kana_city":"ﾅﾘﾀｼ","kana_address":"ｵｼﾊﾀ","pref":"千葉県","city":"成田市","address":"押畑"},
{"zip_code":"2860032","kana_pref":"ﾁﾊﾞｹﾝ","kana_city":"ﾅﾘﾀｼ","kana_address":"ｶﾐﾁｮｳ","pref":"千葉県","city":"成田市","address":"上町"},
{"zip_code":"2860842","kana_pref":"ﾁﾊﾞｹﾝ","kana_city":"ﾅﾘﾀｼ","kana_address":"ｶﾐﾌｸﾀﾞ","pref":"千葉県","city":"成田市","address":"上福田"},
{"zip_code":"2860036","kana_pref":"ﾁﾊﾞｹﾝ","kana_city":"ﾅﾘﾀｼ","kana_address":"ｶﾗﾍﾞ","pref":"千葉県","city":"成田市","address":"加良部"},
{"zip_code":"2860125","kana_pref":"ﾁﾊﾞｹﾝ","kana_city":"ﾅﾘﾀｼ","kana_address":"ｶﾜｸﾞﾘ","pref":"千葉県","city":"成田市","address":"川栗"},
{"zip_code":"2860006","kana_pref":"ﾁﾊﾞｹﾝ","kana_city":"ﾅﾘﾀｼ","kana_address":"ｷﾀｽｶ","pref":"千葉県","city":"成田市","address":"北須賀"},
{"zip_code":"2860807","kana_pref":"ﾁﾊﾞｹﾝ","kana_city":"ﾅﾘﾀｼ","kana_address":"ｷﾀﾊﾄﾞﾘ","pref":"千葉県","city":"成田市","address":"北羽鳥"},
{"zip_code":"2860105","kana_pref":"ﾁﾊﾞｹﾝ","kana_city":"ﾅﾘﾀｼ","kana_address":"ｷﾉﾈ","pref":"千葉県","city":"成田市","address":"木の根"},
{"zip_code":"2860819","kana_pref":"ﾁﾊﾞｹﾝ","kana_city":"ﾅﾘﾀｼ","kana_address":"ｸｽﾞﾐﾁｭｳｵｳ","pref":"千葉県","city":"成田市","address":"久住中央"},
{"zip_code":"2860136","kana_pref":"ﾁﾊﾞｹﾝ","kana_city":"ﾅﾘﾀｼ","kana_address":"ｸﾒ","pref":"千葉県","city":"成田市","address":"久米"},
{"zip_code":"2860126","kana_pref":"ﾁﾊﾞｹﾝ","kana_city":"ﾅﾘﾀｼ","kana_address":"ｸﾒﾉ","pref":"千葉県","city":"成田市","address":"久米野"},
{"zip_code":"2860823","kana_pref":"ﾁﾊﾞｹﾝ","kana_city":"ﾅﾘﾀｼ","kana_address":"ｺｲｽﾞﾐ","pref":"千葉県","city":"成田市","address":"小泉"},
{"zip_code":"2860048","kana_pref":"ﾁﾊﾞｹﾝ","kana_city":"ﾅﾘﾀｼ","kana_address":"ｺｳﾂﾞﾉﾓﾘ","pref":"千葉県","city":"成田市","address":"公津の杜"},
{"zip_code":"2860014","kana_pref":"ﾁﾊﾞｹﾝ","kana_city":"ﾅﾘﾀｼ","kana_address":"ｺﾞｳﾌﾞ","pref":"千葉県","city":"成田市","address":"郷部"},
{"zip_code":"2860137","kana_pref":"ﾁﾊﾞｹﾝ","kana_city":"ﾅﾘﾀｼ","kana_address":"ｺﾞｼｮﾉｳﾁ","pref":"千葉県","city":"成田市","address":"御所の内"},
{"zip_code":"2860127","kana_pref":"ﾁﾊﾞｹﾝ","kana_city":"ﾅﾘﾀｼ","kana_address":"ｺｽｹﾞ","pref":"千葉県","city":"成田市","address":"小菅"},
{"zip_code":"2860121","kana_pref":"ﾁﾊﾞｹﾝ","kana_city":"ﾅﾘﾀｼ","kana_address":"ｺﾏｲﾉ","pref":"千葉県","city":"成田市","address":"駒井野"},
{"zip_code":"2860028","kana_pref":"ﾁﾊﾞｹﾝ","kana_city":"ﾅﾘﾀｼ","kana_address":"ｻｲﾜｲﾁｮｳ","pref":"千葉県","city":"成田市","address":"幸町"},
{"zip_code":"2860808","kana_pref":"ﾁﾊﾞｹﾝ","kana_city":"ﾅﾘﾀｼ","kana_address":"ｻﾉ","pref":"千葉県","city":"成田市","address":"佐野"},
{"zip_code":"2860116","kana_pref":"ﾁﾊﾞｹﾝ","kana_city":"ﾅﾘﾀｼ","kana_address":"ｻﾝﾘﾂﾞｶｺﾞﾘｮｳ","pref":"千葉県","city":"成田市","address":"三里塚御料"},
{"zip_code":"2860117","kana_pref":"ﾁﾊﾞｹﾝ","kana_city":"ﾅﾘﾀｼ","kana_address":"ｻﾝﾘﾂﾞｶﾋｶﾘｶﾞｵｶ","pref":"千葉県","city":"成田市","address":"三里塚光ケ丘"},
{"zip_code":"2860111","kana_pref":"ﾁﾊﾞｹﾝ","kana_city":"ﾅﾘﾀｼ","kana_address":"ｻﾝﾘﾂﾞｶ","pref":"千葉県","city":"成田市","address":"三里塚"},
{"zip_code":"2860005","kana_pref":"ﾁﾊﾞｹﾝ","kana_city":"ﾅﾘﾀｼ","kana_address":"ｼﾀｶﾀ","pref":"千葉県","city":"成田市","address":"下方"},
{"zip_code":"2860822","kana_pref":"ﾁﾊﾞｹﾝ","kana_city":"ﾅﾘﾀｼ","kana_address":"ｼﾊﾞ","pref":"千葉県","city":"成田市","address":"芝"},
{"zip_code":"2860836","kana_pref":"ﾁﾊﾞｹﾝ","kana_city":"ﾅﾘﾀｼ","kana_address":"ｼﾓｶﾅﾔﾏ","pref":"千葉県","city":"成田市","address":"下金山"},
{"zip_code":"2860843","kana_pref":"ﾁﾊﾞｹﾝ","kana_city":"ﾅﾘﾀｼ","kana_address":"ｼﾓﾌｸﾀﾞ","pref":"千葉県","city":"成田市","address":"下福田"},
{"zip_code":"2860825","kana_pref":"ﾁﾊﾞｹﾝ","kana_city":"ﾅﾘﾀｼ","kana_address":"ｼﾝｲｽﾞﾐ","pref":"千葉県","city":"成田市","address":"新泉"},
{"zip_code":"2860123","kana_pref":"ﾁﾊﾞｹﾝ","kana_city":"ﾅﾘﾀｼ","kana_address":"ｼﾝｺﾏｲﾉ","pref":"千葉県","city":"成田市","address":"新駒井野"},
{"zip_code":"2860031","kana_pref":"ﾁﾊﾞｹﾝ","kana_city":"ﾅﾘﾀｼ","kana_address":"ｼﾝﾏﾁ","pref":"千葉県","city":"成田市","address":"新町"},
{"zip_code":"2860835","kana_pref":"ﾁﾊﾞｹﾝ","kana_city":"ﾅﾘﾀｼ","kana_address":"ｾｷﾄﾞ","pref":"千葉県","city":"成田市","address":"関戸"},
{"zip_code":"2860004","kana_pref":"ﾁﾊﾞｹﾝ","kana_city":"ﾅﾘﾀｼ","kana_address":"ｿｳｺﾞ","pref":"千葉県","city":"成田市","address":"宗吾"},
{"zip_code":"2860003","kana_pref":"ﾁﾊﾞｹﾝ","kana_city":"ﾅﾘﾀｼ","kana_address":"ﾀﾞｲｶﾀ","pref":"千葉県","city":"成田市","address":"台方"},
{"zip_code":"2860844","kana_pref":"ﾁﾊﾞｹﾝ","kana_city":"ﾅﾘﾀｼ","kana_address":"ﾀｶﾗﾀﾞ","pref":"千葉県","city":"成田市","address":"宝田"},
{"zip_code":"2860801","kana_pref":"ﾁﾊﾞｹﾝ","kana_city":"ﾅﾘﾀｼ","kana_address":"ﾀﾂﾀﾞｲ","pref":"千葉県","city":"成田市","address":"竜台"},
{"zip_code":"2860024","kana_pref":"ﾁﾊﾞｹﾝ","kana_city":"ﾅﾘﾀｼ","kana_address":"ﾀﾏﾁ","pref":"千葉県","city":"成田市","address":"田町"},
{"zip_code":"2860011","kana_pref":"ﾁﾊﾞｹﾝ","kana_city":"ﾅﾘﾀｼ","kana_address":"ﾀﾏﾂｸﾘ","pref":"千葉県","city":"成田市","address":"玉造"},
{"zip_code":"2860815","kana_pref":"ﾁﾊﾞｹﾝ","kana_city":"ﾅﾘﾀｼ","kana_address":"ﾂﾁﾑﾛ","pref":"千葉県","city":"成田市","address":"土室"},
{"zip_code":"2860021","kana_pref":"ﾁﾊﾞｹﾝ","kana_city":"ﾅﾘﾀｼ","kana_address":"ﾂﾁﾔ","pref":"千葉県","city":"成田市","address":"土屋"},
{"zip_code":"2860022","kana_pref":"ﾁﾊﾞｹﾝ","kana_city":"ﾅﾘﾀｼ","kana_address":"ﾃﾗﾀﾞｲ","pref":"千葉県","city":"成田市","address":"寺台"},
{"zip_code":"2860102","kana_pref":"ﾁﾊﾞｹﾝ","kana_city":"ﾅﾘﾀｼ","kana_address":"ﾃﾝｼﾞﾝﾐﾈ","pref":"千葉県","city":"成田市","address":"天神峰"},
{"zip_code":"2860103","kana_pref":"ﾁﾊﾞｹﾝ","kana_city":"ﾅﾘﾀｼ","kana_address":"ﾄｳﾎｳ","pref":"千葉県","city":"成田市","address":"東峰"},
{"zip_code":"2860134","kana_pref":"ﾁﾊﾞｹﾝ","kana_city":"ﾅﾘﾀｼ","kana_address":"ﾄｳﾜﾀﾞ","pref":"千葉県","city":"成田市","address":"東和田"},
{"zip_code":"2860106","kana_pref":"ﾁﾊﾞｹﾝ","kana_city":"ﾅﾘﾀｼ","kana_address":"ﾄｯｺｳ","pref":"千葉県","city":"成田市","address":"取香"},
{"zip_code":"2860101","kana_pref":"ﾁﾊﾞｹﾝ","kana_city":"ﾅﾘﾀｼ","kana_address":"ﾄﾖﾐ","pref":"千葉県","city":"成田市","address":"十余三"},
{"zip_code":"2860015","kana_pref":"ﾁﾊﾞｹﾝ","kana_city":"ﾅﾘﾀｼ","kana_address":"ﾅｶﾀﾞｲ","pref":"千葉県","city":"成田市","address":"中台"},
{"zip_code":"2860027","kana_pref":"ﾁﾊﾞｹﾝ","kana_city":"ﾅﾘﾀｼ","kana_address":"ﾅｶﾏﾁ","pref":"千葉県","city":"成田市","address":"仲町"},
{"zip_code":"2860108","kana_pref":"ﾁﾊﾞｹﾝ","kana_city":"ﾅﾘﾀｼ","kana_address":"ﾅｶﾞﾀ","pref":"千葉県","city":"成田市","address":"長田"},
{"zip_code":"2860804","kana_pref":"ﾁﾊﾞｹﾝ","kana_city":"ﾅﾘﾀｼ","kana_address":"ﾅｶﾞﾇﾏ","pref":"千葉県","city":"成田市","address":"長沼"},
{"zip_code":"2860045","kana_pref":"ﾁﾊﾞｹﾝ","kana_city":"ﾅﾘﾀｼ","kana_address":"ﾅﾐｷﾁｮｳ","pref":"千葉県","city":"成田市","address":"並木町"},
{"zip_code":"2860023","kana_pref":"ﾁﾊﾞｹﾝ","kana_city":"ﾅﾘﾀｼ","kana_address":"ﾅﾘﾀ","pref":"千葉県","city":"成田市","address":"成田"},
{"zip_code":"2860816","kana_pref":"ﾁﾊﾞｹﾝ","kana_city":"ﾅﾘﾀｼ","kana_address":"ﾅﾙｹﾞ","pref":"千葉県","city":"成田市","address":"成毛"},
{"zip_code":"2860806","kana_pref":"ﾁﾊﾞｹﾝ","kana_city":"ﾅﾘﾀｼ","kana_address":"ﾅﾝﾌﾞ","pref":"千葉県","city":"成田市","address":"南部"},
{"zip_code":"2860042","kana_pref":"ﾁﾊﾞｹﾝ","kana_city":"ﾅﾘﾀｼ","kana_address":"ﾅﾝﾍﾟｲﾀﾞｲ","pref":"千葉県","city":"成田市","address":"南平台"},
{"zip_code":"2860827","kana_pref":"ﾁﾊﾞｹﾝ","kana_city":"ﾅﾘﾀｼ","kana_address":"ﾆｼｲｽﾞﾐ","pref":"千葉県","city":"成田市","address":"西和泉"},
{"zip_code":"2860115","kana_pref":"ﾁﾊﾞｹﾝ","kana_city":"ﾅﾘﾀｼ","kana_address":"ﾆｼｻﾝﾘﾂﾞｶ","pref":"千葉県","city":"成田市","address":"西三里塚"},
{"zip_code":"2860837","kana_pref":"ﾁﾊﾞｹﾝ","kana_city":"ﾅﾘﾀｼ","kana_address":"ﾆｯﾂﾏ","pref":"千葉県","city":"成田市","address":"新妻"},
{"zip_code":"2860824","kana_pref":"ﾁﾊﾞｹﾝ","kana_city":"ﾅﾘﾀｼ","kana_address":"ﾉｹﾞﾀﾞｲﾗ","pref":"千葉県","city":"成田市","address":"野毛平"},
{"zip_code":"2860037","kana_pref":"ﾁﾊﾞｹﾝ","kana_city":"ﾅﾘﾀｼ","kana_address":"ﾊｼｶﾀﾞｲ","pref":"千葉県","city":"成田市","address":"橋賀台"},
{"zip_code":"2860124","kana_pref":"ﾁﾊﾞｹﾝ","kana_city":"ﾅﾘﾀｼ","kana_address":"ﾊﾀｹﾀﾞ","pref":"千葉県","city":"成田市","address":"畑ケ田"},
{"zip_code":"2860814","kana_pref":"ﾁﾊﾞｹﾝ","kana_city":"ﾅﾘﾀｼ","kana_address":"ﾊﾀﾔ","pref":"千葉県","city":"成田市","address":"幡谷"},
{"zip_code":"2860033","kana_pref":"ﾁﾊﾞｹﾝ","kana_city":"ﾅﾘﾀｼ","kana_address":"ﾊﾅｻﾞｷﾁｮｳ","pref":"千葉県","city":"成田市","address":"花崎町"},
{"zip_code":"2860007","kana_pref":"ﾁﾊﾞｹﾝ","kana_city":"ﾅﾘﾀｼ","kana_address":"ﾊﾅﾉｷﾀﾞｲ","pref":"千葉県","city":"成田市","address":"はなのき台"},
{"zip_code":"2860132","kana_pref":"ﾁﾊﾞｹﾝ","kana_city":"ﾅﾘﾀｼ","kana_address":"ﾊﾞﾊﾞ","pref":"千葉県","city":"成田市","address":"馬場"},
{"zip_code":"2860826","kana_pref":"ﾁﾊﾞｹﾝ","kana_city":"ﾅﾘﾀｼ","kana_address":"ﾋｶﾞｼｲｽﾞﾐ","pref":"千葉県","city":"成田市","address":"東和泉"},
{"zip_code":"2860833","kana_pref":"ﾁﾊﾞｹﾝ","kana_city":"ﾅﾘﾀｼ","kana_address":"ﾋｶﾞｼｶﾅﾔﾏ","pref":"千葉県","city":"成田市","address":"東金山"},
{"zip_code":"2860112","kana_pref":"ﾁﾊﾞｹﾝ","kana_city":"ﾅﾘﾀｼ","kana_address":"ﾋｶﾞｼｻﾝﾘﾂﾞｶ","pref":"千葉県","city":"成田市","address":"東三里塚"},
{"zip_code":"2860044","kana_pref":"ﾁﾊﾞｹﾝ","kana_city":"ﾅﾘﾀｼ","kana_address":"ﾌﾄﾞｳｶﾞｵｶ","pref":"千葉県","city":"成田市","address":"不動ケ岡"},
{"zip_code":"2860001","kana_pref":"ﾁﾊﾞｹﾝ","kana_city":"ﾅﾘﾀｼ","kana_address":"ﾌﾅｶﾀ","pref":"千葉県","city":"成田市","address":"船形"},
{"zip_code":"2860104","kana_pref":"ﾁﾊﾞｹﾝ","kana_city":"ﾅﾘﾀｼ","kana_address":"ﾌﾙｺﾞﾒ","pref":"千葉県","city":"成田市","address":"古込"},
{"zip_code":"2860802","kana_pref":"ﾁﾊﾞｹﾝ","kana_city":"ﾅﾘﾀｼ","kana_address":"ﾎｸﾌﾞ","pref":"千葉県","city":"成田市","address":"北部"},
{"zip_code":"2860107","kana_pref":"ﾁﾊﾞｹﾝ","kana_city":"ﾅﾘﾀｼ","kana_address":"ﾎﾘﾉｳﾁ","pref":"千葉県","city":"成田市","address":"堀之内"},
{"zip_code":"2860118","kana_pref":"ﾁﾊﾞｹﾝ","kana_city":"ﾅﾘﾀｼ","kana_address":"ﾎﾝｻﾝﾘﾂﾞｶ","pref":"千葉県","city":"成田市","address":"本三里塚"},
{"zip_code":"2860114","kana_pref":"ﾁﾊﾞｹﾝ","kana_city":"ﾅﾘﾀｼ","kana_address":"ﾎﾝｼﾞｮｳ","pref":"千葉県","city":"成田市","address":"本城"},
{"zip_code":"2860026","kana_pref":"ﾁﾊﾞｹﾝ","kana_city":"ﾅﾘﾀｼ","kana_address":"ﾎﾝﾁｮｳ","pref":"千葉県","city":"成田市","address":"本町"},
{"zip_code":"2860034","kana_pref":"ﾁﾊﾞｹﾝ","kana_city":"ﾅﾘﾀｼ","kana_address":"ﾏﾊﾞｼ","pref":"千葉県","city":"成田市","address":"馬橋"},
{"zip_code":"2860846","kana_pref":"ﾁﾊﾞｹﾝ","kana_city":"ﾅﾘﾀｼ","kana_address":"ﾏﾝｻﾞｷ","pref":"千葉県","city":"成田市","address":"松崎"},
{"zip_code":"2860013","kana_pref":"ﾁﾊﾞｹﾝ","kana_city":"ﾅﾘﾀｼ","kana_address":"ﾐｻﾄﾀﾞｲ","pref":"千葉県","city":"成田市","address":"美郷台"},
{"zip_code":"2860812","kana_pref":"ﾁﾊﾞｹﾝ","kana_city":"ﾅﾘﾀｼ","kana_address":"ﾐｽﾞｶｹ","pref":"千葉県","city":"成田市","address":"水掛"},
{"zip_code":"2860113","kana_pref":"ﾁﾊﾞｹﾝ","kana_city":"ﾅﾘﾀｼ","kana_address":"ﾐﾅﾐｻﾝﾘﾂﾞｶ","pref":"千葉県","city":"成田市","address":"南三里塚"},
{"zip_code":"2860805","kana_pref":"ﾁﾊﾞｹﾝ","kana_city":"ﾅﾘﾀｼ","kana_address":"ﾐﾅﾐﾊﾄﾞﾘ","pref":"千葉県","city":"成田市","address":"南羽鳥"},
{"zip_code":"2860002","kana_pref":"ﾁﾊﾞｹﾝ","kana_city":"ﾅﾘﾀｼ","kana_address":"ﾔﾂｼﾛ","pref":"千葉県","city":"成田市","address":"八代"},
{"zip_code":"2860012","kana_pref":"ﾁﾊﾞｹﾝ","kana_city":"ﾅﾘﾀｼ","kana_address":"ﾔﾏｸﾞﾁ","pref":"千葉県","city":"成田市","address":"山口"},
{"zip_code":"2860135","kana_pref":"ﾁﾊﾞｹﾝ","kana_city":"ﾅﾘﾀｼ","kana_address":"ﾔﾏﾉｻｸ","pref":"千葉県","city":"成田市","address":"山之作"},
{"zip_code":"2860133","kana_pref":"ﾁﾊﾞｹﾝ","kana_city":"ﾅﾘﾀｼ","kana_address":"ﾖｼｸﾗ","pref":"千葉県","city":"成田市","address":"吉倉"},
{"zip_code":"2860016","kana_pref":"ﾁﾊﾞｹﾝ","kana_city":"ﾅﾘﾀｼ","kana_address":"ﾖﾈﾉ","pref":"千葉県","city":"成田市","address":"米野"},
{"zip_code":"2860834","kana_pref":"ﾁﾊﾞｹﾝ","kana_city":"ﾅﾘﾀｼ","kana_address":"ﾜﾀﾞ","pref":"千葉県","city":"成田市","address":"和田"},
{"zip_code":"2860200","kana_pref":"ﾁﾊﾞｹﾝ","kana_city":"ﾄﾐｻﾄｼ","kana_address":"","pref":"千葉県","city":"富里市","address":""},
{"zip_code":"2860204","kana_pref":"ﾁﾊﾞｹﾝ","kana_city":"ﾄﾐｻﾄｼ","kana_address":"ｵｵﾜ","pref":"千葉県","city":"富里市","address":"大和"},
{"zip_code":"2860203","kana_pref":"ﾁﾊﾞｹﾝ","kana_city":"ﾄﾐｻﾄｼ","kana_address":"ｸﾉｳ","pref":"千葉県","city":"富里市","address":"久能"},
{"zip_code":"2860216","kana_pref":"ﾁﾊﾞｹﾝ","kana_city":"ﾄﾐｻﾄｼ","kana_address":"ｺｳﾔ","pref":"千葉県","city":"富里市","address":"高野"},
{"zip_code":"2860211","kana_pref":"ﾁﾊﾞｹﾝ","kana_city":"ﾄﾐｻﾄｼ","kana_address":"ｺﾞﾘｮｳ","pref":"千葉県","city":"富里市","address":"御料"},
{"zip_code":"2860223","kana_pref":"ﾁﾊﾞｹﾝ","kana_city":"ﾄﾐｻﾄｼ","kana_address":"ｼﾝﾅｶｻﾞﾜ","pref":"千葉県","city":"富里市","address":"新中沢"},
{"zip_code":"2860213","kana_pref":"ﾁﾊﾞｹﾝ","kana_city":"ﾄﾐｻﾄｼ","kana_address":"ﾀｶﾏﾂ","pref":"千葉県","city":"富里市","address":"高松"},
{"zip_code":"2860214","kana_pref":"ﾁﾊﾞｹﾝ","kana_city":"ﾄﾐｻﾄｼ","kana_address":"ﾀﾂｻﾞﾜ","pref":"千葉県","city":"富里市","address":"立沢"},
{"zip_code":"2860215","kana_pref":"ﾁﾊﾞｹﾝ","kana_city":"ﾄﾐｻﾄｼ","kana_address":"ﾀﾂｻﾞﾜｼﾝﾃﾞﾝ","pref":"千葉県","city":"富里市","address":"立沢新田"},
{"zip_code":"2860212","kana_pref":"ﾁﾊﾞｹﾝ","kana_city":"ﾄﾐｻﾄｼ","kana_address":"ﾄｸﾗ","pref":"千葉県","city":"富里市","address":"十倉"},
{"zip_code":"2860222","kana_pref":"ﾁﾊﾞｹﾝ","kana_city":"ﾄﾐｻﾄｼ","kana_address":"ﾅｶｻﾞﾜ","pref":"千葉県","city":"富里市","address":"中沢"},
{"zip_code":"2860221","kana_pref":"ﾁﾊﾞｹﾝ","kana_city":"ﾄﾐｻﾄｼ","kana_address":"ﾅﾅｴ","pref":"千葉県","city":"富里市","address":"七栄"},
{"zip_code":"2860224","kana_pref":"ﾁﾊﾞｹﾝ","kana_city":"ﾄﾐｻﾄｼ","kana_address":"ﾆｯﾊﾟｼ","pref":"千葉県","city":"富里市","address":"新橋"},
{"zip_code":"2860205","kana_pref":"ﾁﾊﾞｹﾝ","kana_city":"ﾄﾐｻﾄｼ","kana_address":"ﾈｺﾅ","pref":"千葉県","city":"富里市","address":"根木名"},
{"zip_code":"2860202","kana_pref":"ﾁﾊﾞｹﾝ","kana_city":"ﾄﾐｻﾄｼ","kana_address":"ﾋﾖｼｸﾗ","pref":"千葉県","city":"富里市","address":"日吉倉"},
{"zip_code":"2860201","kana_pref":"ﾁﾊﾞｹﾝ","kana_city":"ﾄﾐｻﾄｼ","kana_address":"ﾋﾖｼﾀﾞｲ","pref":"千葉県","city":"富里市","address":"日吉台"},
{"zip_code":"2860225","kana_pref":"ﾁﾊﾞｹﾝ","kana_city":"ﾄﾐｻﾄｼ","kana_address":"ﾐｻﾜ","pref":"千葉県","city":"富里市","address":"美沢"}]}