{"zip_code":[
{"zip_code":"2870204","kana_pref":"ﾁﾊﾞｹﾝ","kana_city":"ﾅﾘﾀｼ","kana_address":"ｲﾉｳ","pref":"千葉県","city":"成田市","address":"伊能"},
{"zip_code":"2870235","kana_pref":"ﾁﾊﾞｹﾝ","kana_city":"ﾅﾘﾀｼ","kana_address":"ｳｽｸﾘ","pref":"千葉県","city":"成田市","address":"臼作"},
{"zip_code":"2870213","kana_pref":"ﾁﾊﾞｹﾝ","kana_city":"ﾅﾘﾀｼ","kana_address":"ｵｵﾇﾏ","pref":"千葉県","city":"成田市","address":"大沼"},
{"zip_code":"2870244","kana_pref":"ﾁﾊﾞｹﾝ","kana_city":"ﾅﾘﾀｼ","kana_address":"ｶﾜｶﾐ","pref":"千葉県","city":"成田市","address":"川上"},
{"zip_code":"2870221","kana_pref":"ﾁﾊﾞｹﾝ","kana_city":"ﾅﾘﾀｼ","kana_address":"ｶﾝﾘﾝ","pref":"千葉県","city":"成田市","address":"官林"},
{"zip_code":"2870225","kana_pref":"ﾁﾊﾞｹﾝ","kana_city":"ﾅﾘﾀｼ","kana_address":"ｷﾁｵｶ","pref":"千葉県","city":"成田市","address":"吉岡"},
{"zip_code":"2870232","kana_pref":"ﾁﾊﾞｹﾝ","kana_city":"ﾅﾘﾀｼ","kana_address":"ｸｲｻﾞｷ","pref":"千葉県","city":"成田市","address":"久井崎"},
{"zip_code":"2870217","kana_pref":"ﾁﾊﾞｹﾝ","kana_city":"ﾅﾘﾀｼ","kana_address":"ｻｸﾗﾀﾞ","pref":"千葉県","city":"成田市","address":"桜田"},
{"zip_code":"2870201","kana_pref":"ﾁﾊﾞｹﾝ","kana_city":"ﾅﾘﾀｼ","kana_address":"ｼﾊﾞﾀ","pref":"千葉県","city":"成田市","address":"柴田"},
{"zip_code":"2870224","kana_pref":"ﾁﾊﾞｹﾝ","kana_city":"ﾅﾘﾀｼ","kana_address":"ｼﾝﾃﾞﾝ","pref":"千葉県","city":"成田市","address":"新田"},
{"zip_code":"2870206","kana_pref":"ﾁﾊﾞｹﾝ","kana_city":"ﾅﾘﾀｼ","kana_address":"ｾﾝｹﾞﾝ","pref":"千葉県","city":"成田市","address":"浅間"},
{"zip_code":"2870243","kana_pref":"ﾁﾊﾞｹﾝ","kana_city":"ﾅﾘﾀｼ","kana_address":"ﾀｲｴｲﾄﾖﾐ","pref":"千葉県","city":"成田市","address":"大栄十余三"},
{"zip_code":"2870242","kana_pref":"ﾁﾊﾞｹﾝ","kana_city":"ﾅﾘﾀｼ","kana_address":"ﾀﾗｶﾞｲ","pref":"千葉県","city":"成田市","address":"多良貝"},
{"zip_code":"2870236","kana_pref":"ﾁﾊﾞｹﾝ","kana_city":"ﾅﾘﾀｼ","kana_address":"ﾂﾌﾞｳﾗ","pref":"千葉県","city":"成田市","address":"津富浦"},
{"zip_code":"2870233","kana_pref":"ﾁﾊﾞｹﾝ","kana_city":"ﾅﾘﾀｼ","kana_address":"ﾄｳｶﾔﾏ","pref":"千葉県","city":"成田市","address":"稲荷山"},
{"zip_code":"2870211","kana_pref":"ﾁﾊﾞｹﾝ","kana_city":"ﾅﾘﾀｼ","kana_address":"ﾄｺﾛ","pref":"千葉県","city":"成田市","address":"所"},
{"zip_code":"2870237","kana_pref":"ﾁﾊﾞｹﾝ","kana_city":"ﾅﾘﾀｼ","kana_address":"ﾅｶﾉ","pref":"千葉県","city":"成田市","address":"中野"},
{"zip_code":"2870216","kana_pref":"ﾁﾊﾞｹﾝ","kana_city":"ﾅﾘﾀｼ","kana_address":"ﾅｼﾞｷ","pref":"千葉県","city":"成田市","address":"南敷"},
{"zip_code":"2870205","kana_pref":"ﾁﾊﾞｹﾝ","kana_city":"ﾅﾘﾀｼ","kana_address":"ﾅﾄﾞ","pref":"千葉県","city":"成田市","address":"奈土"},
{"zip_code":"2870212","kana_pref":"ﾁﾊﾞｹﾝ","kana_city":"ﾅﾘﾀｼ","kana_address":"ﾋｶﾞｼﾉﾀﾞｲ","pref":"千葉県","city":"成田市","address":"東ノ台"},
{"zip_code":"2870227","kana_pref":"ﾁﾊﾞｹﾝ","kana_city":"ﾅﾘﾀｼ","kana_address":"ﾋﾄﾂﾎﾞﾀ","pref":"千葉県","city":"成田市","address":"一坪田"},
{"zip_code":"2870202","kana_pref":"ﾁﾊﾞｹﾝ","kana_city":"ﾅﾘﾀｼ","kana_address":"ﾎｳﾒ","pref":"千葉県","city":"成田市","address":"堀籠"},
{"zip_code":"2870222","kana_pref":"ﾁﾊﾞｹﾝ","kana_city":"ﾅﾘﾀｼ","kana_address":"ﾏｴﾊﾞﾔｼ","pref":"千葉県","city":"成田市","address":"前林"},
{"zip_code":"2870215","kana_pref":"ﾁﾊﾞｹﾝ","kana_city":"ﾅﾘﾀｼ","kana_address":"ﾏｼﾞｮｳﾘ","pref":"千葉県","city":"成田市","address":"馬乗里"},
{"zip_code":"2870234","kana_pref":"ﾁﾊﾞｹﾝ","kana_city":"ﾅﾘﾀｼ","kana_address":"ﾏﾂｺ","pref":"千葉県","city":"成田市","address":"松子"},
{"zip_code":"2870241","kana_pref":"ﾁﾊﾞｹﾝ","kana_city":"ﾅﾘﾀｼ","kana_address":"ﾐｽﾞﾉｶﾐ","pref":"千葉県","city":"成田市","address":"水の上"},
{"zip_code":"2870203","kana_pref":"ﾁﾊﾞｹﾝ","kana_city":"ﾅﾘﾀｼ","kana_address":"ﾑﾗﾀ","pref":"千葉県","city":"成田市","address":"村田"},
{"zip_code":"2870214","kana_pref":"ﾁﾊﾞｹﾝ","kana_city":"ﾅﾘﾀｼ","kana_address":"ﾖｺﾔﾏ","pref":"千葉県","city":"成田市","address":"横山"},
{"zip_code":"2870000","kana_pref":"ﾁﾊﾞｹﾝ","kana_city":"ｶﾄﾘｼ","kana_address":"","pref":"千葉県","city":"香取市","address":""},
{"zip_code":"2870106","kana_pref":"ﾁﾊﾞｹﾝ","kana_city":"ｶﾄﾘｼ","kana_address":"ｱﾗｷﾀ","pref":"千葉県","city":"香取市","address":"荒北"},
{"zip_code":"2870056","kana_pref":"ﾁﾊﾞｹﾝ","kana_city":"ｶﾄﾘｼ","kana_address":"ｲｲｼﾞﾏ","pref":"千葉県","city":"香取市","address":"飯島"},
{"zip_code":"2870803","kana_pref":"ﾁﾊﾞｹﾝ","kana_city":"ｶﾄﾘｼ","kana_address":"ｲｿﾔﾏ","pref":"千葉県","city":"香取市","address":"磯山"},
{"zip_code":"2870023","kana_pref":"ﾁﾊﾞｹﾝ","kana_city":"ｶﾄﾘｼ","kana_address":"ｲﾁﾔﾏ","pref":"千葉県","city":"香取市","address":"伊地山"},
{"zip_code":"2870804","kana_pref":"ﾁﾊﾞｹﾝ","kana_city":"ｶﾄﾘｼ","kana_address":"ｲﾁﾜﾀﾞ","pref":"千葉県","city":"香取市","address":"市和田"},
{"zip_code":"2870004","kana_pref":"ﾁﾊﾞｹﾝ","kana_city":"ｶﾄﾘｼ","kana_address":"ｲﾜｶﾞｻｷﾀﾞｲ","pref":"千葉県","city":"香取市","address":"岩ケ崎台"},
{"zip_code":"2870102","kana_pref":"ﾁﾊﾞｹﾝ","kana_city":"ｶﾄﾘｼ","kana_address":"ｲﾜﾍﾞ","pref":"千葉県","city":"香取市","address":"岩部"},
{"zip_code":"2870801","kana_pref":"ﾁﾊﾞｹﾝ","kana_city":"ｶﾄﾘｼ","kana_address":"ｵｳｷﾞｼﾏ","pref":"千葉県","city":"香取市","address":"扇島"},
{"zip_code":"2870013","kana_pref":"ﾁﾊﾞｹﾝ","kana_city":"ｶﾄﾘｼ","kana_address":"ｵｵｸﾗ","pref":"千葉県","city":"香取市","address":"大倉"},
{"zip_code":"2870012","kana_pref":"ﾁﾊﾞｹﾝ","kana_city":"ｶﾄﾘｼ","kana_address":"ｵｵｸﾗﾖｳﾛｺﾞ","pref":"千葉県","city":"香取市","address":"大倉丁子"},
{"zip_code":"2870035","kana_pref":"ﾁﾊﾞｹﾝ","kana_city":"ｶﾄﾘｼ","kana_address":"ｵｵｻｷ","pref":"千葉県","city":"香取市","address":"大崎"},
{"zip_code":"2870811","kana_pref":"ﾁﾊﾞｹﾝ","kana_city":"ｶﾄﾘｼ","kana_address":"ｵｵｼﾏ","pref":"千葉県","city":"香取市","address":"大島"},
{"zip_code":"2870043","kana_pref":"ﾁﾊﾞｹﾝ","kana_city":"ｶﾄﾘｼ","kana_address":"ｵｵﾄ","pref":"千葉県","city":"香取市","address":"大戸"},
{"zip_code":"2870054","kana_pref":"ﾁﾊﾞｹﾝ","kana_city":"ｶﾄﾘｼ","kana_address":"ｵｵﾄｶﾞﾜ","pref":"千葉県","city":"香取市","address":"大戸川"},
{"zip_code":"2870053","kana_pref":"ﾁﾊﾞｹﾝ","kana_city":"ｶﾄﾘｼ","kana_address":"ｵｵﾄｼﾝﾃﾞﾝ","pref":"千葉県","city":"香取市","address":"大戸新田"},
{"zip_code":"2870026","kana_pref":"ﾁﾊﾞｹﾝ","kana_city":"ｶﾄﾘｼ","kana_address":"ｵｵﾈ","pref":"千葉県","city":"香取市","address":"大根"},
{"zip_code":"2870044","kana_pref":"ﾁﾊﾞｹﾝ","kana_city":"ｶﾄﾘｼ","kana_address":"ｶﾀﾉ","pref":"千葉県","city":"香取市","address":"片野"},
{"zip_code":"2870802","kana_pref":"ﾁﾊﾞｹﾝ","kana_city":"ｶﾄﾘｼ","kana_address":"ｶﾄﾞｳｽﾞ","pref":"千葉県","city":"香取市","address":"加藤洲"},
{"zip_code":"2870017","kana_pref":"ﾁﾊﾞｹﾝ","kana_city":"ｶﾄﾘｼ","kana_address":"ｶﾄﾘ","pref":"千葉県","city":"香取市","address":"香取"},
{"zip_code":"2870032","kana_pref":"ﾁﾊﾞｹﾝ","kana_city":"ｶﾄﾘｼ","kana_address":"ｶﾏﾂﾞｶ","pref":"千葉県","city":"香取市","address":"釜塚"},
{"zip_code":"2870046","kana_pref":"ﾁﾊﾞｹﾝ","kana_city":"ｶﾄﾘｼ","kana_address":"ｶﾐｵｶﾞﾜ","pref":"千葉県","city":"香取市","address":"上小川"},
{"zip_code":"2870027","kana_pref":"ﾁﾊﾞｹﾝ","kana_city":"ｶﾄﾘｼ","kana_address":"ｶﾔﾀﾞ","pref":"千葉県","city":"香取市","address":"返田"},
{"zip_code":"2870104","kana_pref":"ﾁﾊﾞｹﾝ","kana_city":"ｶﾄﾘｼ","kana_address":"ｶﾘｹ","pref":"千葉県","city":"香取市","address":"苅毛"},
{"zip_code":"2870067","kana_pref":"ﾁﾊﾞｹﾝ","kana_city":"ｶﾄﾘｼ","kana_address":"ｶﾜｼﾞﾘ","pref":"千葉県","city":"香取市","address":"川尻"},
{"zip_code":"2870036","kana_pref":"ﾁﾊﾞｹﾝ","kana_city":"ｶﾄﾘｼ","kana_address":"ｶﾝﾉｳ","pref":"千葉県","city":"香取市","address":"観音"},
{"zip_code":"2870002","kana_pref":"ﾁﾊﾞｹﾝ","kana_city":"ｶﾄﾘｼ","kana_address":"ｷﾀ","pref":"千葉県","city":"香取市","address":"北"},
{"zip_code":"2870022","kana_pref":"ﾁﾊﾞｹﾝ","kana_city":"ｶﾄﾘｼ","kana_address":"ｸﾐｱｹﾞ","pref":"千葉県","city":"香取市","address":"九美上"},
{"zip_code":"2870823","kana_pref":"ﾁﾊﾞｹﾝ","kana_city":"ｶﾄﾘｼ","kana_address":"ｺｳｶﾞｲｼﾞﾏ","pref":"千葉県","city":"香取市","address":"笄島"},
{"zip_code":"2870805","kana_pref":"ﾁﾊﾞｹﾝ","kana_city":"ｶﾄﾘｼ","kana_address":"ｺｳｶﾝｽﾞ","pref":"千葉県","city":"香取市","address":"公官洲"},
{"zip_code":"2870826","kana_pref":"ﾁﾊﾞｹﾝ","kana_city":"ｶﾄﾘｼ","kana_address":"ｺｸﾉｳ","pref":"千葉県","city":"香取市","address":"石納"},
{"zip_code":"2870813","kana_pref":"ﾁﾊﾞｹﾝ","kana_city":"ｶﾄﾘｼ","kana_address":"ｻｶｲｼﾞﾏ","pref":"千葉県","city":"香取市","address":"境島"},
{"zip_code":"2870105","kana_pref":"ﾁﾊﾞｹﾝ","kana_city":"ｶﾄﾘｼ","kana_address":"ｻﾜ","pref":"千葉県","city":"香取市","address":"沢"},
{"zip_code":"2870003","kana_pref":"ﾁﾊﾞｹﾝ","kana_city":"ｶﾄﾘｼ","kana_address":"ｻﾜﾗｲ","pref":"千葉県","city":"香取市","address":"佐原イ"},
{"zip_code":"2870822","kana_pref":"ﾁﾊﾞｹﾝ","kana_city":"ｶﾄﾘｼ","kana_address":"ｻﾜﾗﾆ","pref":"千葉県","city":"香取市","address":"佐原ニ"},
{"zip_code":"2870816","kana_pref":"ﾁﾊﾞｹﾝ","kana_city":"ｶﾄﾘｼ","kana_address":"ｻﾜﾗﾊ","pref":"千葉県","city":"香取市","address":"佐原ハ"},
{"zip_code":"2870005","kana_pref":"ﾁﾊﾞｹﾝ","kana_city":"ｶﾄﾘｼ","kana_address":"ｻﾜﾗﾎ","pref":"千葉県","city":"香取市","address":"佐原ホ"},
{"zip_code":"2870001","kana_pref":"ﾁﾊﾞｹﾝ","kana_city":"ｶﾄﾘｼ","kana_address":"ｻﾜﾗﾛ","pref":"千葉県","city":"香取市","address":"佐原ロ"},
{"zip_code":"2870006","kana_pref":"ﾁﾊﾞｹﾝ","kana_city":"ｶﾄﾘｼ","kana_address":"ｼﾉﾊﾗｲ","pref":"千葉県","city":"香取市","address":"篠原イ"},
{"zip_code":"2870821","kana_pref":"ﾁﾊﾞｹﾝ","kana_city":"ｶﾄﾘｼ","kana_address":"ｼﾉﾊﾗﾛ","pref":"千葉県","city":"香取市","address":"篠原ロ"},
{"zip_code":"2870021","kana_pref":"ﾁﾊﾞｹﾝ","kana_city":"ｶﾄﾘｼ","kana_address":"ｼﾓｵﾉ","pref":"千葉県","city":"香取市","address":"下小野"},
{"zip_code":"2870055","kana_pref":"ﾁﾊﾞｹﾝ","kana_city":"ｶﾄﾘｼ","kana_address":"ｼｮｳﾜﾏﾁ","pref":"千葉県","city":"香取市","address":"昭和町"},
{"zip_code":"2870107","kana_pref":"ﾁﾊﾞｹﾝ","kana_city":"ｶﾄﾘｼ","kana_address":"ｽｹｻﾞﾜ","pref":"千葉県","city":"香取市","address":"助沢"},
{"zip_code":"2870045","kana_pref":"ﾁﾊﾞｹﾝ","kana_city":"ｶﾄﾘｼ","kana_address":"ｾｷ","pref":"千葉県","city":"香取市","address":"関"},
{"zip_code":"2870101","kana_pref":"ﾁﾊﾞｹﾝ","kana_city":"ｶﾄﾘｼ","kana_address":"ﾀｶﾊｷﾞ","pref":"千葉県","city":"香取市","address":"高萩"},
{"zip_code":"2870014","kana_pref":"ﾁﾊﾞｹﾝ","kana_city":"ｶﾄﾘｼ","kana_address":"ﾀﾀﾞ","pref":"千葉県","city":"香取市","address":"多田"},
{"zip_code":"2870041","kana_pref":"ﾁﾊﾞｹﾝ","kana_city":"ｶﾄﾘｼ","kana_address":"ﾀﾏﾂｸﾘ","pref":"千葉県","city":"香取市","address":"玉造"},
{"zip_code":"2870806","kana_pref":"ﾁﾊﾞｹﾝ","kana_city":"ｶﾄﾘｼ","kana_address":"ﾂｷｽｼﾝﾃﾞﾝ","pref":"千葉県","city":"香取市","address":"附洲新田"},
{"zip_code":"2870011","kana_pref":"ﾁﾊﾞｹﾝ","kana_city":"ｶﾄﾘｼ","kana_address":"ﾂﾉﾐﾔ","pref":"千葉県","city":"香取市","address":"津宮"},
{"zip_code":"2870062","kana_pref":"ﾁﾊﾞｹﾝ","kana_city":"ｶﾄﾘｼ","kana_address":"ﾃﾗｳﾁ","pref":"千葉県","city":"香取市","address":"寺内"},
{"zip_code":"2870047","kana_pref":"ﾁﾊﾞｹﾝ","kana_city":"ｶﾄﾘｼ","kana_address":"ﾄｷｻﾞｷ","pref":"千葉県","city":"香取市","address":"鴇崎"},
{"zip_code":"2870038","kana_pref":"ﾁﾊﾞｹﾝ","kana_city":"ｶﾄﾘｼ","kana_address":"ﾄｯﾊﾟ","pref":"千葉県","city":"香取市","address":"鳥羽"},
{"zip_code":"2870824","kana_pref":"ﾁﾊﾞｹﾝ","kana_city":"ｶﾄﾘｼ","kana_address":"ﾅｶﾞｼﾏ","pref":"千葉県","city":"香取市","address":"長島"},
{"zip_code":"2870814","kana_pref":"ﾁﾊﾞｹﾝ","kana_city":"ｶﾄﾘｼ","kana_address":"ﾅｶｽﾞ","pref":"千葉県","city":"香取市","address":"中洲"},
{"zip_code":"2870034","kana_pref":"ﾁﾊﾞｹﾝ","kana_city":"ｶﾄﾘｼ","kana_address":"ﾅｶﾞﾔﾏ","pref":"千葉県","city":"香取市","address":"長山"},
{"zip_code":"2870016","kana_pref":"ﾁﾊﾞｹﾝ","kana_city":"ｶﾄﾘｼ","kana_address":"ﾆｲﾁﾊﾞ","pref":"千葉県","city":"香取市","address":"新市場"},
{"zip_code":"2870051","kana_pref":"ﾁﾊﾞｹﾝ","kana_city":"ｶﾄﾘｼ","kana_address":"ﾆｲﾃﾞﾗ","pref":"千葉県","city":"香取市","address":"新寺"},
{"zip_code":"2870063","kana_pref":"ﾁﾊﾞｹﾝ","kana_city":"ｶﾄﾘｼ","kana_address":"ﾆｼｻﾞｶ","pref":"千葉県","city":"香取市","address":"西坂"},
{"zip_code":"2870103","kana_pref":"ﾁﾊﾞｹﾝ","kana_city":"ｶﾄﾘｼ","kana_address":"ﾆｼﾀﾍﾞ","pref":"千葉県","city":"香取市","address":"西田部"},
{"zip_code":"2870065","kana_pref":"ﾁﾊﾞｹﾝ","kana_city":"ｶﾄﾘｼ","kana_address":"ﾆｼﾍﾞﾀ","pref":"千葉県","city":"香取市","address":"西部田"},
{"zip_code":"2870048","kana_pref":"ﾁﾊﾞｹﾝ","kana_city":"ｶﾄﾘｼ","kana_address":"ﾆｼﾜﾀﾞ","pref":"千葉県","city":"香取市","address":"西和田"},
{"zip_code":"2870031","kana_pref":"ﾁﾊﾞｹﾝ","kana_city":"ｶﾄﾘｼ","kana_address":"ﾆｯﾍﾟ","pref":"千葉県","city":"香取市","address":"新部"},
{"zip_code":"2870825","kana_pref":"ﾁﾊﾞｹﾝ","kana_city":"ｶﾄﾘｼ","kana_address":"ﾉﾏﾔﾜﾗ","pref":"千葉県","city":"香取市","address":"野間谷原"},
{"zip_code":"2870024","kana_pref":"ﾁﾊﾞｹﾝ","kana_city":"ｶﾄﾘｼ","kana_address":"ﾌｸﾀﾞ","pref":"千葉県","city":"香取市","address":"福田"},
{"zip_code":"2870066","kana_pref":"ﾁﾊﾞｹﾝ","kana_city":"ｶﾄﾘｼ","kana_address":"ﾎﾘﾉｳﾁ","pref":"千葉県","city":"香取市","address":"堀之内"},
{"zip_code":"2870033","kana_pref":"ﾁﾊﾞｹﾝ","kana_city":"ｶﾄﾘｼ","kana_address":"ﾏｷﾉ","pref":"千葉県","city":"香取市","address":"牧野"},
{"zip_code":"2870812","kana_pref":"ﾁﾊﾞｹﾝ","kana_city":"ｶﾄﾘｼ","kana_address":"ﾐｼﾏ","pref":"千葉県","city":"香取市","address":"三島"},
{"zip_code":"2870064","kana_pref":"ﾁﾊﾞｹﾝ","kana_city":"ｶﾄﾘｼ","kana_address":"ﾐｽﾞﾎﾀﾞｲ","pref":"千葉県","city":"香取市","address":"みずほ台"},
{"zip_code":"2870025","kana_pref":"ﾁﾊﾞｹﾝ","kana_city":"ｶﾄﾘｼ","kana_address":"ﾓﾄﾔﾊｷﾞ","pref":"千葉県","city":"香取市","address":"本矢作"},
{"zip_code":"2870052","kana_pref":"ﾁﾊﾞｹﾝ","kana_city":"ｶﾄﾘｼ","kana_address":"ﾓﾘﾄﾞ","pref":"千葉県","city":"香取市","address":"森戸"},
{"zip_code":"2870815","kana_pref":"ﾁﾊﾞｹﾝ","kana_city":"ｶﾄﾘｼ","kana_address":"ﾔｽｼﾞｶﾜ","pref":"千葉県","city":"香取市","address":"八筋川"},
{"zip_code":"2870061","kana_pref":"ﾁﾊﾞｹﾝ","kana_city":"ｶﾄﾘｼ","kana_address":"ﾔﾅｶ","pref":"千葉県","city":"香取市","address":"谷中"},
{"zip_code":"2870042","kana_pref":"ﾁﾊﾞｹﾝ","kana_city":"ｶﾄﾘｼ","kana_address":"ﾔﾏﾉﾍﾞ","pref":"千葉県","city":"香取市","address":"山之辺"},
{"zip_code":"2870018","kana_pref":"ﾁﾊﾞｹﾝ","kana_city":"ｶﾄﾘｼ","kana_address":"ﾖｳﾛｺﾞ","pref":"千葉県","city":"香取市","address":"丁子"},
{"zip_code":"2870037","kana_pref":"ﾁﾊﾞｹﾝ","kana_city":"ｶﾄﾘｼ","kana_address":"ﾖｸﾗ","pref":"千葉県","city":"香取市","address":"与倉"},
{"zip_code":"2870015","kana_pref":"ﾁﾊﾞｹﾝ","kana_city":"ｶﾄﾘｼ","kana_address":"ﾖｼﾜﾗ","pref":"千葉県","city":"香取市","address":"吉原"}]}