{"zip_code":[
{"zip_code":"2880000","kana_pref":"ﾁﾊﾞｹﾝ","kana_city":"ﾁｮｳｼｼ","kana_address":"","pref":"千葉県","city":"銚子市","address":""},
{"zip_code":"2880844","kana_pref":"ﾁﾊﾞｹﾝ","kana_city":"ﾁｮｳｼｼ","kana_address":"ｱｶﾂﾞｶﾏﾁ","pref":"千葉県","city":"銚子市","address":"赤塚町"},
{"zip_code":"2880005","kana_pref":"ﾁﾊﾞｹﾝ","kana_city":"ﾁｮｳｼｼ","kana_address":"ｱｼｶｼﾞﾏﾁｮｳ","pref":"千葉県","city":"銚子市","address":"海鹿島町"},
{"zip_code":"2880861","kana_pref":"ﾁﾊﾞｹﾝ","kana_city":"ﾁｮｳｼｼ","kana_address":"ｱｼｻｷﾁｮｳ","pref":"千葉県","city":"銚子市","address":"芦崎町"},
{"zip_code":"2880007","kana_pref":"ﾁﾊﾞｹﾝ","kana_city":"ﾁｮｳｼｼ","kana_address":"ｱﾀｺﾞﾁｮｳ","pref":"千葉県","city":"銚子市","address":"愛宕町"},
{"zip_code":"2880056","kana_pref":"ﾁﾊﾞｹﾝ","kana_city":"ﾁｮｳｼｼ","kana_address":"ｱﾗｵｲﾁｮｳ","pref":"千葉県","city":"銚子市","address":"新生町"},
{"zip_code":"2880034","kana_pref":"ﾁﾊﾞｹﾝ","kana_city":"ﾁｮｳｼｼ","kana_address":"ｱﾜｼﾏﾁｮｳ","pref":"千葉県","city":"銚子市","address":"粟島町"},
{"zip_code":"2880051","kana_pref":"ﾁﾊﾞｹﾝ","kana_city":"ﾁｮｳｼｼ","kana_address":"ｲｲﾇﾏﾁｮｳ","pref":"千葉県","city":"銚子市","address":"飯沼町"},
{"zip_code":"2880012","kana_pref":"ﾁﾊﾞｹﾝ","kana_city":"ﾁｮｳｼｼ","kana_address":"ｲﾇﾎﾞｳｻﾞｷ","pref":"千葉県","city":"銚子市","address":"犬吠埼"},
{"zip_code":"2880015","kana_pref":"ﾁﾊﾞｹﾝ","kana_city":"ﾁｮｳｼｼ","kana_address":"ｲﾇﾜｶ","pref":"千葉県","city":"銚子市","address":"犬若"},
{"zip_code":"2880804","kana_pref":"ﾁﾊﾞｹﾝ","kana_city":"ﾁｮｳｼｼ","kana_address":"ｲﾏﾐﾔﾁｮｳ","pref":"千葉県","city":"銚子市","address":"今宮町"},
{"zip_code":"2880805","kana_pref":"ﾁﾊﾞｹﾝ","kana_city":"ﾁｮｳｼｼ","kana_address":"ｳｴﾉﾁｮｳ","pref":"千葉県","city":"銚子市","address":"上野町"},
{"zip_code":"2880071","kana_pref":"ﾁﾊﾞｹﾝ","kana_city":"ﾁｮｳｼｼ","kana_address":"ｳｴﾏﾂﾁｮｳ","pref":"千葉県","city":"銚子市","address":"植松町"},
{"zip_code":"2880068","kana_pref":"ﾁﾊﾞｹﾝ","kana_city":"ﾁｮｳｼｼ","kana_address":"ｳﾁﾊﾞﾏﾁｮｳ","pref":"千葉県","city":"銚子市","address":"内浜町"},
{"zip_code":"2880046","kana_pref":"ﾁﾊﾞｹﾝ","kana_city":"ﾁｮｳｼｼ","kana_address":"ｵｵﾊｼﾁｮｳ","pref":"千葉県","city":"銚子市","address":"大橋町"},
{"zip_code":"2880852","kana_pref":"ﾁﾊﾞｹﾝ","kana_city":"ﾁｮｳｼｼ","kana_address":"ｵｶﾉﾀﾞｲﾁｮｳ","pref":"千葉県","city":"銚子市","address":"岡野台町"},
{"zip_code":"2880821","kana_pref":"ﾁﾊﾞｹﾝ","kana_city":"ﾁｮｳｼｼ","kana_address":"ｵﾊﾞﾏﾁｮｳ","pref":"千葉県","city":"銚子市","address":"小浜町"},
{"zip_code":"2880823","kana_pref":"ﾁﾊﾞｹﾝ","kana_city":"ﾁｮｳｼｼ","kana_address":"ｵﾔﾀﾞﾁｮｳ","pref":"千葉県","city":"銚子市","address":"親田町"},
{"zip_code":"2880835","kana_pref":"ﾁﾊﾞｹﾝ","kana_city":"ﾁｮｳｼｼ","kana_address":"ｶｷﾈﾏﾁ","pref":"千葉県","city":"銚子市","address":"垣根町"},
{"zip_code":"2880833","kana_pref":"ﾁﾊﾞｹﾝ","kana_city":"ﾁｮｳｼｼ","kana_address":"ｶｷﾈﾐﾊﾗｼﾀﾞｲ","pref":"千葉県","city":"銚子市","address":"垣根見晴台"},
{"zip_code":"2880004","kana_pref":"ﾁﾊﾞｹﾝ","kana_city":"ﾁｮｳｼｼ","kana_address":"ｶｻｶﾞﾐﾁｮｳ","pref":"千葉県","city":"銚子市","address":"笠上町"},
{"zip_code":"2880816","kana_pref":"ﾁﾊﾞｹﾝ","kana_city":"ﾁｮｳｼｼ","kana_address":"ｶｽｶﾞﾀﾞｲﾏﾁ","pref":"千葉県","city":"銚子市","address":"春日台町"},
{"zip_code":"2880814","kana_pref":"ﾁﾊﾞｹﾝ","kana_city":"ﾁｮｳｼｼ","kana_address":"ｶｽｶﾞﾁｮｳ","pref":"千葉県","city":"銚子市","address":"春日町"},
{"zip_code":"2880801","kana_pref":"ﾁﾊﾞｹﾝ","kana_city":"ﾁｮｳｼｼ","kana_address":"ｶﾗｺﾁｮｳ","pref":"千葉県","city":"銚子市","address":"唐子町"},
{"zip_code":"2880001","kana_pref":"ﾁﾊﾞｹﾝ","kana_city":"ﾁｮｳｼｼ","kana_address":"ｶﾜｸﾞﾁﾁｮｳ","pref":"千葉県","city":"銚子市","address":"川口町"},
{"zip_code":"2880037","kana_pref":"ﾁﾊﾞｹﾝ","kana_city":"ﾁｮｳｼｼ","kana_address":"ｷﾀｵｶﾞﾜﾁｮｳ","pref":"千葉県","city":"銚子市","address":"北小川町"},
{"zip_code":"2880011","kana_pref":"ﾁﾊﾞｹﾝ","kana_city":"ﾁｮｳｼｼ","kana_address":"ｷﾐｶﾞﾊﾏ","pref":"千葉県","city":"銚子市","address":"君ケ浜"},
{"zip_code":"2880817","kana_pref":"ﾁﾊﾞｹﾝ","kana_city":"ﾁｮｳｼｼ","kana_address":"ｷﾖｶﾜﾁｮｳ","pref":"千葉県","city":"銚子市","address":"清川町"},
{"zip_code":"2880003","kana_pref":"ﾁﾊﾞｹﾝ","kana_city":"ﾁｮｳｼｼ","kana_address":"ｸﾛﾊｲﾁｮｳ","pref":"千葉県","city":"銚子市","address":"黒生町"},
{"zip_code":"2880866","kana_pref":"ﾁﾊﾞｹﾝ","kana_city":"ﾁｮｳｼｼ","kana_address":"ｺﾅｶﾞﾁｮｳ","pref":"千葉県","city":"銚子市","address":"小長町"},
{"zip_code":"2880021","kana_pref":"ﾁﾊﾞｹﾝ","kana_city":"ﾁｮｳｼｼ","kana_address":"ｺﾊﾞﾀｹｼﾝﾏﾁ","pref":"千葉県","city":"銚子市","address":"小畑新町"},
{"zip_code":"2880022","kana_pref":"ﾁﾊﾞｹﾝ","kana_city":"ﾁｮｳｼｼ","kana_address":"ｺﾊﾞﾀｹﾏﾁ","pref":"千葉県","city":"銚子市","address":"小畑町"},
{"zip_code":"2880064","kana_pref":"ﾁﾊﾞｹﾝ","kana_city":"ﾁｮｳｼｼ","kana_address":"ｺﾞﾊﾝﾁｮｳ","pref":"千葉県","city":"銚子市","address":"後飯町"},
{"zip_code":"2880864","kana_pref":"ﾁﾊﾞｹﾝ","kana_city":"ﾁｮｳｼｼ","kana_address":"ｺﾌﾞﾅｷﾁｮｳ","pref":"千葉県","city":"銚子市","address":"小船木町"},
{"zip_code":"2880073","kana_pref":"ﾁﾊﾞｹﾝ","kana_city":"ﾁｮｳｼｼ","kana_address":"ｻｲﾜｲﾁｮｳ","pref":"千葉県","city":"銚子市","address":"幸町"},
{"zip_code":"2880812","kana_pref":"ﾁﾊﾞｹﾝ","kana_city":"ﾁｮｳｼｼ","kana_address":"ｻｶｴﾁｮｳ","pref":"千葉県","city":"銚子市","address":"栄町"},
{"zip_code":"2880006","kana_pref":"ﾁﾊﾞｹﾝ","kana_city":"ﾁｮｳｼｼ","kana_address":"ｻｶｷﾁｮｳ","pref":"千葉県","city":"銚子市","address":"榊町"},
{"zip_code":"2880876","kana_pref":"ﾁﾊﾞｹﾝ","kana_city":"ﾁｮｳｼｼ","kana_address":"ｻｸﾗｲﾁｮｳ","pref":"千葉県","city":"銚子市","address":"桜井町"},
{"zip_code":"2880873","kana_pref":"ﾁﾊﾞｹﾝ","kana_city":"ﾁｮｳｼｼ","kana_address":"ｻｻﾓﾄﾁｮｳ","pref":"千葉県","city":"銚子市","address":"笹本町"},
{"zip_code":"2880855","kana_pref":"ﾁﾊﾞｹﾝ","kana_city":"ﾁｮｳｼｼ","kana_address":"ｻﾙﾀﾞﾁｮｳ","pref":"千葉県","city":"銚子市","address":"猿田町"},
{"zip_code":"2880045","kana_pref":"ﾁﾊﾞｹﾝ","kana_city":"ﾁｮｳｼｼ","kana_address":"ｻﾝｹﾞﾝﾁｮｳ","pref":"千葉県","city":"銚子市","address":"三軒町"},
{"zip_code":"2880025","kana_pref":"ﾁﾊﾞｹﾝ","kana_city":"ﾁｮｳｼｼ","kana_address":"ｼｵﾐﾁｮｳ","pref":"千葉県","city":"銚子市","address":"潮見町"},
{"zip_code":"2880867","kana_pref":"ﾁﾊﾞｹﾝ","kana_city":"ﾁｮｳｼｼ","kana_address":"ｼﾉﾋﾞﾁｮｳ","pref":"千葉県","city":"銚子市","address":"忍町"},
{"zip_code":"2880842","kana_pref":"ﾁﾊﾞｹﾝ","kana_city":"ﾁｮｳｼｼ","kana_address":"ｼﾊﾞｻｷﾏﾁ","pref":"千葉県","city":"銚子市","address":"柴崎町"},
{"zip_code":"2880063","kana_pref":"ﾁﾊﾞｹﾝ","kana_city":"ﾁｮｳｼｼ","kana_address":"ｼﾐｽﾞﾁｮｳ","pref":"千葉県","city":"銚子市","address":"清水町"},
{"zip_code":"2880856","kana_pref":"ﾁﾊﾞｹﾝ","kana_city":"ﾁｮｳｼｼ","kana_address":"ｼｮｳﾐｮｳｼﾞﾁｮｳ","pref":"千葉県","city":"銚子市","address":"正明寺町"},
{"zip_code":"2880853","kana_pref":"ﾁﾊﾞｹﾝ","kana_city":"ﾁｮｳｼｼ","kana_address":"ｼﾗｲｼﾁｮｳ","pref":"千葉県","city":"銚子市","address":"白石町"},
{"zip_code":"2880067","kana_pref":"ﾁﾊﾞｹﾝ","kana_city":"ﾁｮｳｼｼ","kana_address":"ｼﾝﾁﾁｮｳ","pref":"千葉県","city":"銚子市","address":"新地町"},
{"zip_code":"2880825","kana_pref":"ﾁﾊﾞｹﾝ","kana_city":"ﾁｮｳｼｼ","kana_address":"ｼﾝﾁｮｳ","pref":"千葉県","city":"銚子市","address":"新町"},
{"zip_code":"2880055","kana_pref":"ﾁﾊﾞｹﾝ","kana_city":"ﾁｮｳｼｼ","kana_address":"ｼﾞﾝﾔﾁｮｳ","pref":"千葉県","city":"銚子市","address":"陣屋町"},
{"zip_code":"2880042","kana_pref":"ﾁﾊﾞｹﾝ","kana_city":"ﾁｮｳｼｼ","kana_address":"ｽｴﾋﾛﾁｮｳ","pref":"千葉県","city":"銚子市","address":"末広町"},
{"zip_code":"2880813","kana_pref":"ﾁﾊﾞｹﾝ","kana_city":"ﾁｮｳｼｼ","kana_address":"ﾀﾞｲﾏﾁ","pref":"千葉県","city":"銚子市","address":"台町"},
{"zip_code":"2880027","kana_pref":"ﾁﾊﾞｹﾝ","kana_city":"ﾁｮｳｼｼ","kana_address":"ﾀｶｶﾞﾐﾊﾗﾏﾁ","pref":"千葉県","city":"銚子市","address":"高神原町"},
{"zip_code":"2880023","kana_pref":"ﾁﾊﾞｹﾝ","kana_city":"ﾁｮｳｼｼ","kana_address":"ﾀｶｶﾞﾐﾋｶﾞｼﾏﾁ","pref":"千葉県","city":"銚子市","address":"高神東町"},
{"zip_code":"2880026","kana_pref":"ﾁﾊﾞｹﾝ","kana_city":"ﾁｮｳｼｼ","kana_address":"ﾀｶｶﾞﾐﾆｼﾏﾁ","pref":"千葉県","city":"銚子市","address":"高神西町"},
{"zip_code":"2880862","kana_pref":"ﾁﾊﾞｹﾝ","kana_city":"ﾁｮｳｼｼ","kana_address":"ﾀｶﾀﾞﾁｮｳ","pref":"千葉県","city":"銚子市","address":"高田町"},
{"zip_code":"2880834","kana_pref":"ﾁﾊﾞｹﾝ","kana_city":"ﾁｮｳｼｼ","kana_address":"ﾀｶﾉﾏﾁ","pref":"千葉県","city":"銚子市","address":"高野町"},
{"zip_code":"2880062","kana_pref":"ﾁﾊﾞｹﾝ","kana_city":"ﾁｮｳｼｼ","kana_address":"ﾀｹﾁｮｳ","pref":"千葉県","city":"銚子市","address":"竹町"},
{"zip_code":"2880065","kana_pref":"ﾁﾊﾞｹﾝ","kana_city":"ﾁｮｳｼｼ","kana_address":"ﾀﾅｶﾁｮｳ","pref":"千葉県","city":"銚子市","address":"田中町"},
{"zip_code":"2880854","kana_pref":"ﾁﾊﾞｹﾝ","kana_city":"ﾁｮｳｼｼ","kana_address":"ﾁｬﾊﾞﾀｹﾁｮｳ","pref":"千葉県","city":"銚子市","address":"茶畑町"},
{"zip_code":"2880041","kana_pref":"ﾁﾊﾞｹﾝ","kana_city":"ﾁｮｳｼｼ","kana_address":"ﾁｭｳｵｳﾁｮｳ","pref":"千葉県","city":"銚子市","address":"中央町"},
{"zip_code":"2880868","kana_pref":"ﾁﾊﾞｹﾝ","kana_city":"ﾁｮｳｼｼ","kana_address":"ﾂｶﾓﾄﾁｮｳ","pref":"千葉県","city":"銚子市","address":"塚本町"},
{"zip_code":"2880024","kana_pref":"ﾁﾊﾞｹﾝ","kana_city":"ﾁｮｳｼｼ","kana_address":"ﾃﾝﾉｳﾀﾞｲ","pref":"千葉県","city":"銚子市","address":"天王台"},
{"zip_code":"2880075","kana_pref":"ﾁﾊﾞｹﾝ","kana_city":"ﾁｮｳｼｼ","kana_address":"ﾄｵﾘﾁｮｳ","pref":"千葉県","city":"銚子市","address":"通町"},
{"zip_code":"2880016","kana_pref":"ﾁﾊﾞｹﾝ","kana_city":"ﾁｮｳｼｼ","kana_address":"ﾄｶﾜﾀﾞｲﾏﾁ","pref":"千葉県","city":"銚子市","address":"外川台町"},
{"zip_code":"2880014","kana_pref":"ﾁﾊﾞｹﾝ","kana_city":"ﾁｮｳｼｼ","kana_address":"ﾄｶﾜﾏﾁ","pref":"千葉県","city":"銚子市","address":"外川町"},
{"zip_code":"2880824","kana_pref":"ﾁﾊﾞｹﾝ","kana_city":"ﾁｮｳｼｼ","kana_address":"ﾄｺﾖﾀﾞﾁｮｳ","pref":"千葉県","city":"銚子市","address":"常世田町"},
{"zip_code":"2880871","kana_pref":"ﾁﾊﾞｹﾝ","kana_city":"ﾁｮｳｼｼ","kana_address":"ﾄﾐｶﾞﾜﾁｮｳ","pref":"千葉県","city":"銚子市","address":"富川町"},
{"zip_code":"2880874","kana_pref":"ﾁﾊﾞｹﾝ","kana_city":"ﾁｮｳｼｼ","kana_address":"ﾄﾖｻﾄﾀﾞｲ","pref":"千葉県","city":"銚子市","address":"豊里台"},
{"zip_code":"2880035","kana_pref":"ﾁﾊﾞｹﾝ","kana_city":"ﾁｮｳｼｼ","kana_address":"ﾅｱﾗｲﾏﾁ","pref":"千葉県","city":"銚子市","address":"名洗町"},
{"zip_code":"2880858","kana_pref":"ﾁﾊﾞｹﾝ","kana_city":"ﾁｮｳｼｼ","kana_address":"ﾅｶｼﾞﾏﾁｮｳ","pref":"千葉県","city":"銚子市","address":"中島町"},
{"zip_code":"2880077","kana_pref":"ﾁﾊﾞｹﾝ","kana_city":"ﾁｮｳｼｼ","kana_address":"ﾅｶﾁｮｳ","pref":"千葉県","city":"銚子市","address":"仲町"},
{"zip_code":"2880013","kana_pref":"ﾁﾊﾞｹﾝ","kana_city":"ﾁｮｳｼｼ","kana_address":"ﾅｶﾞｻｷﾏﾁ","pref":"千葉県","city":"銚子市","address":"長崎町"},
{"zip_code":"2880837","kana_pref":"ﾁﾊﾞｹﾝ","kana_city":"ﾁｮｳｼｼ","kana_address":"ﾅｶﾞﾂｶﾏﾁ","pref":"千葉県","city":"銚子市","address":"長塚町"},
{"zip_code":"2880865","kana_pref":"ﾁﾊﾞｹﾝ","kana_city":"ﾁｮｳｼｼ","kana_address":"ﾅｶﾞﾔﾏﾁｮｳ","pref":"千葉県","city":"銚子市","address":"長山町"},
{"zip_code":"2880036","kana_pref":"ﾁﾊﾞｹﾝ","kana_city":"ﾁｮｳｼｼ","kana_address":"ﾆｼｵｶﾞﾜﾁｮｳ","pref":"千葉県","city":"銚子市","address":"西小川町"},
{"zip_code":"2880044","kana_pref":"ﾁﾊﾞｹﾝ","kana_city":"ﾁｮｳｼｼ","kana_address":"ﾆｼｼﾊﾞﾁｮｳ","pref":"千葉県","city":"銚子市","address":"西芝町"},
{"zip_code":"2880863","kana_pref":"ﾁﾊﾞｹﾝ","kana_city":"ﾁｮｳｼｼ","kana_address":"ﾉｼﾞﾘﾁｮｳ","pref":"千葉県","city":"銚子市","address":"野尻町"},
{"zip_code":"2880074","kana_pref":"ﾁﾊﾞｹﾝ","kana_city":"ﾁｮｳｼｼ","kana_address":"ﾊｼﾓﾄﾁｮｳ","pref":"千葉県","city":"銚子市","address":"橋本町"},
{"zip_code":"2880052","kana_pref":"ﾁﾊﾞｹﾝ","kana_city":"ﾁｮｳｼｼ","kana_address":"ﾊﾏﾁｮｳ","pref":"千葉県","city":"銚子市","address":"浜町"},
{"zip_code":"2880054","kana_pref":"ﾁﾊﾞｹﾝ","kana_city":"ﾁｮｳｼｼ","kana_address":"ﾊﾞﾊﾞﾁｮｳ","pref":"千葉県","city":"銚子市","address":"馬場町"},
{"zip_code":"2880032","kana_pref":"ﾁﾊﾞｹﾝ","kana_city":"ﾁｮｳｼｼ","kana_address":"ﾋｶﾞｼｵｶﾞﾜﾁｮｳ","pref":"千葉県","city":"銚子市","address":"東小川町"},
{"zip_code":"2880043","kana_pref":"ﾁﾊﾞｹﾝ","kana_city":"ﾁｮｳｼｼ","kana_address":"ﾋｶﾞｼｼﾊﾞﾁｮｳ","pref":"千葉県","city":"銚子市","address":"東芝町"},
{"zip_code":"2880053","kana_pref":"ﾁﾊﾞｹﾝ","kana_city":"ﾁｮｳｼｼ","kana_address":"ﾋｶﾞｼﾁｮｳ","pref":"千葉県","city":"銚子市","address":"東町"},
{"zip_code":"2880048","kana_pref":"ﾁﾊﾞｹﾝ","kana_city":"ﾁｮｳｼｼ","kana_address":"ﾌﾀﾊﾞﾁｮｳ","pref":"千葉県","city":"銚子市","address":"双葉町"},
{"zip_code":"2880857","kana_pref":"ﾁﾊﾞｹﾝ","kana_city":"ﾁｮｳｼｼ","kana_address":"ﾌﾅｷﾁｮｳ","pref":"千葉県","city":"銚子市","address":"船木町"},
{"zip_code":"2880831","kana_pref":"ﾁﾊﾞｹﾝ","kana_city":"ﾁｮｳｼｼ","kana_address":"ﾎﾝｼﾞｮｳﾏﾁ","pref":"千葉県","city":"銚子市","address":"本城町"},
{"zip_code":"2880076","kana_pref":"ﾁﾊﾞｹﾝ","kana_city":"ﾁｮｳｼｼ","kana_address":"ﾎﾝﾁｮｳ","pref":"千葉県","city":"銚子市","address":"本町"},
{"zip_code":"2880031","kana_pref":"ﾁﾊﾞｹﾝ","kana_city":"ﾁｮｳｼｼ","kana_address":"ﾏｴｼﾞｭｸﾁｮｳ","pref":"千葉県","city":"銚子市","address":"前宿町"},
{"zip_code":"2880836","kana_pref":"ﾁﾊﾞｹﾝ","kana_city":"ﾁｮｳｼｼ","kana_address":"ﾏﾂｷﾞｼﾏﾁ","pref":"千葉県","city":"銚子市","address":"松岸町"},
{"zip_code":"2880832","kana_pref":"ﾁﾊﾞｹﾝ","kana_city":"ﾁｮｳｼｼ","kana_address":"ﾏﾂｷﾞｼﾐﾊﾗｼﾀﾞｲ","pref":"千葉県","city":"銚子市","address":"松岸見晴台"},
{"zip_code":"2880802","kana_pref":"ﾁﾊﾞｹﾝ","kana_city":"ﾁｮｳｼｼ","kana_address":"ﾏﾂﾓﾄﾁｮｳ","pref":"千葉県","city":"銚子市","address":"松本町"},
{"zip_code":"2880851","kana_pref":"ﾁﾊﾞｹﾝ","kana_city":"ﾁｮｳｼｼ","kana_address":"ﾐｶﾄﾞﾁｮｳ","pref":"千葉県","city":"銚子市","address":"三門町"},
{"zip_code":"2880815","kana_pref":"ﾁﾊﾞｹﾝ","kana_city":"ﾁｮｳｼｼ","kana_address":"ﾐｻｷﾁｮｳ","pref":"千葉県","city":"銚子市","address":"三崎町"},
{"zip_code":"2880061","kana_pref":"ﾁﾊﾞｹﾝ","kana_city":"ﾁｮｳｼｼ","kana_address":"ﾐﾅﾄﾁｮｳ","pref":"千葉県","city":"銚子市","address":"港町"},
{"zip_code":"2880033","kana_pref":"ﾁﾊﾞｹﾝ","kana_city":"ﾁｮｳｼｼ","kana_address":"ﾐﾅﾐｵｶﾞﾜﾁｮｳ","pref":"千葉県","city":"銚子市","address":"南小川町"},
{"zip_code":"2880038","kana_pref":"ﾁﾊﾞｹﾝ","kana_city":"ﾁｮｳｼｼ","kana_address":"ﾐﾅﾐﾁｮｳ","pref":"千葉県","city":"銚子市","address":"南町"},
{"zip_code":"2880845","kana_pref":"ﾁﾊﾞｹﾝ","kana_city":"ﾁｮｳｼｼ","kana_address":"ﾐﾔｹﾏﾁ","pref":"千葉県","city":"銚子市","address":"三宅町"},
{"zip_code":"2880877","kana_pref":"ﾁﾊﾞｹﾝ","kana_city":"ﾁｮｳｼｼ","kana_address":"ﾐﾔﾊﾞﾗﾁｮｳ","pref":"千葉県","city":"銚子市","address":"宮原町"},
{"zip_code":"2880811","kana_pref":"ﾁﾊﾞｹﾝ","kana_city":"ﾁｮｳｼｼ","kana_address":"ﾐｮｳｹﾝﾁｮｳ","pref":"千葉県","city":"銚子市","address":"妙見町"},
{"zip_code":"2880002","kana_pref":"ﾁﾊﾞｹﾝ","kana_city":"ﾁｮｳｼｼ","kana_address":"ﾐｮｳｼﾞﾝﾁｮｳ","pref":"千葉県","city":"銚子市","address":"明神町"},
{"zip_code":"2880872","kana_pref":"ﾁﾊﾞｹﾝ","kana_city":"ﾁｮｳｼｼ","kana_address":"ﾓﾘﾄﾁｮｳ","pref":"千葉県","city":"銚子市","address":"森戸町"},
{"zip_code":"2880875","kana_pref":"ﾁﾊﾞｹﾝ","kana_city":"ﾁｮｳｼｼ","kana_address":"ﾓﾛﾓﾁﾁｮｳ","pref":"千葉県","city":"銚子市","address":"諸持町"},
{"zip_code":"2880822","kana_pref":"ﾁﾊﾞｹﾝ","kana_city":"ﾁｮｳｼｼ","kana_address":"ﾔｷﾞﾁｮｳ","pref":"千葉県","city":"銚子市","address":"八木町"},
{"zip_code":"2880072","kana_pref":"ﾁﾊﾞｹﾝ","kana_city":"ﾁｮｳｼｼ","kana_address":"ﾔﾖｲﾁｮｳ","pref":"千葉県","city":"銚子市","address":"弥生町"},
{"zip_code":"2880803","kana_pref":"ﾁﾊﾞｹﾝ","kana_city":"ﾁｮｳｼｼ","kana_address":"ﾔﾊﾀﾁｮｳ","pref":"千葉県","city":"銚子市","address":"八幡町"},
{"zip_code":"2880843","kana_pref":"ﾁﾊﾞｹﾝ","kana_city":"ﾁｮｳｼｼ","kana_address":"ﾖｯｶｲﾁﾊﾞﾀﾞｲ","pref":"千葉県","city":"銚子市","address":"四日市場台"},
{"zip_code":"2880841","kana_pref":"ﾁﾊﾞｹﾝ","kana_city":"ﾁｮｳｼｼ","kana_address":"ﾖｯｶｲﾁﾊﾞﾏﾁ","pref":"千葉県","city":"銚子市","address":"四日市場町"},
{"zip_code":"2880846","kana_pref":"ﾁﾊﾞｹﾝ","kana_city":"ﾁｮｳｼｼ","kana_address":"ﾖﾔﾏﾏﾁ","pref":"千葉県","city":"銚子市","address":"余山町"},
{"zip_code":"2880047","kana_pref":"ﾁﾊﾞｹﾝ","kana_city":"ﾁｮｳｼｼ","kana_address":"ﾜｶﾐﾔﾁｮｳ","pref":"千葉県","city":"銚子市","address":"若宮町"},
{"zip_code":"2880066","kana_pref":"ﾁﾊﾞｹﾝ","kana_city":"ﾁｮｳｼｼ","kana_address":"ﾜﾀﾞﾁｮｳ","pref":"千葉県","city":"銚子市","address":"和田町"}]}