{"zip_code":[
{"zip_code":"2890112","kana_pref":"ﾁﾊﾞｹﾝ","kana_city":"ﾅﾘﾀｼ","kana_address":"ｱｵﾔﾏ","pref":"千葉県","city":"成田市","address":"青山"},
{"zip_code":"2890121","kana_pref":"ﾁﾊﾞｹﾝ","kana_city":"ﾅﾘﾀｼ","kana_address":"ｵｵｽｹﾞ","pref":"千葉県","city":"成田市","address":"大菅"},
{"zip_code":"2890109","kana_pref":"ﾁﾊﾞｹﾝ","kana_city":"ﾅﾘﾀｼ","kana_address":"ｵｵﾜﾀﾞ","pref":"千葉県","city":"成田市","address":"大和田"},
{"zip_code":"2890106","kana_pref":"ﾁﾊﾞｹﾝ","kana_city":"ﾅﾘﾀｼ","kana_address":"ｵﾉ","pref":"千葉県","city":"成田市","address":"小野"},
{"zip_code":"2890113","kana_pref":"ﾁﾊﾞｹﾝ","kana_city":"ﾅﾘﾀｼ","kana_address":"ｸﾗﾐｽﾞ","pref":"千葉県","city":"成田市","address":"倉水"},
{"zip_code":"2890101","kana_pref":"ﾁﾊﾞｹﾝ","kana_city":"ﾅﾘﾀｼ","kana_address":"ｺﾌﾞｹ","pref":"千葉県","city":"成田市","address":"小浮"},
{"zip_code":"2890107","kana_pref":"ﾁﾊﾞｹﾝ","kana_city":"ﾅﾘﾀｼ","kana_address":"ｻﾙﾔﾏ","pref":"千葉県","city":"成田市","address":"猿山"},
{"zip_code":"2890115","kana_pref":"ﾁﾊﾞｹﾝ","kana_city":"ﾅﾘﾀｼ","kana_address":"ｼﾞｿﾞｳﾊﾗｼﾝﾃﾞﾝ","pref":"千葉県","city":"成田市","address":"地蔵原新田"},
{"zip_code":"2890103","kana_pref":"ﾁﾊﾞｹﾝ","kana_city":"ﾅﾘﾀｼ","kana_address":"ﾀｶ","pref":"千葉県","city":"成田市","address":"高"},
{"zip_code":"2890108","kana_pref":"ﾁﾊﾞｹﾝ","kana_city":"ﾅﾘﾀｼ","kana_address":"ﾀｶｵｶ","pref":"千葉県","city":"成田市","address":"高岡"},
{"zip_code":"2890122","kana_pref":"ﾁﾊﾞｹﾝ","kana_city":"ﾅﾘﾀｼ","kana_address":"ﾀｶｸﾗ","pref":"千葉県","city":"成田市","address":"高倉"},
{"zip_code":"2890104","kana_pref":"ﾁﾊﾞｹﾝ","kana_city":"ﾅﾘﾀｼ","kana_address":"ﾄﾌﾞ","pref":"千葉県","city":"成田市","address":"冬父"},
{"zip_code":"2890105","kana_pref":"ﾁﾊﾞｹﾝ","kana_city":"ﾅﾘﾀｼ","kana_address":"ﾅｶｻﾞﾄ","pref":"千葉県","city":"成田市","address":"中里"},
{"zip_code":"2890111","kana_pref":"ﾁﾊﾞｹﾝ","kana_city":"ﾅﾘﾀｼ","kana_address":"ﾅｷﾞ","pref":"千葉県","city":"成田市","address":"名木"},
{"zip_code":"2890116","kana_pref":"ﾁﾊﾞｹﾝ","kana_city":"ﾅﾘﾀｼ","kana_address":"ﾅｺﾞﾔ","pref":"千葉県","city":"成田市","address":"名古屋"},
{"zip_code":"2890117","kana_pref":"ﾁﾊﾞｹﾝ","kana_city":"ﾅﾘﾀｼ","kana_address":"ﾅﾅｻﾜ","pref":"千葉県","city":"成田市","address":"七沢"},
{"zip_code":"2890125","kana_pref":"ﾁﾊﾞｹﾝ","kana_city":"ﾅﾘﾀｼ","kana_address":"ﾅﾒｶﾞﾜ","pref":"千葉県","city":"成田市","address":"滑川"},
{"zip_code":"2890114","kana_pref":"ﾁﾊﾞｹﾝ","kana_city":"ﾅﾘﾀｼ","kana_address":"ﾅﾙｲ","pref":"千葉県","city":"成田市","address":"成井"},
{"zip_code":"2890124","kana_pref":"ﾁﾊﾞｹﾝ","kana_city":"ﾅﾘﾀｼ","kana_address":"ﾆｼｵｵｽｶ","pref":"千葉県","city":"成田市","address":"西大須賀"},
{"zip_code":"2890102","kana_pref":"ﾁﾊﾞｹﾝ","kana_city":"ﾅﾘﾀｼ","kana_address":"ﾉﾏｺﾞﾒ","pref":"千葉県","city":"成田市","address":"野馬込"},
{"zip_code":"2890123","kana_pref":"ﾁﾊﾞｹﾝ","kana_city":"ﾅﾘﾀｼ","kana_address":"ﾖﾂﾔ","pref":"千葉県","city":"成田市","address":"四ツ谷"},
{"zip_code":"2892500","kana_pref":"ﾁﾊﾞｹﾝ","kana_city":"ｱｻﾋｼ","kana_address":"","pref":"千葉県","city":"旭市","address":""},
{"zip_code":"2890518","kana_pref":"ﾁﾊﾞｹﾝ","kana_city":"ｱｻﾋｼ","kana_address":"ｱｷﾀ","pref":"千葉県","city":"旭市","address":"秋田"},
{"zip_code":"2892522","kana_pref":"ﾁﾊﾞｹﾝ","kana_city":"ｱｻﾋｼ","kana_address":"ｱｼｶﾜ","pref":"千葉県","city":"旭市","address":"足川"},
{"zip_code":"2892511","kana_pref":"ﾁﾊﾞｹﾝ","kana_city":"ｱｻﾋｼ","kana_address":"ｲ","pref":"千葉県","city":"旭市","address":"イ"},
{"zip_code":"2892705","kana_pref":"ﾁﾊﾞｹﾝ","kana_city":"ｱｻﾋｼ","kana_address":"ｲｲｵｶ","pref":"千葉県","city":"旭市","address":"飯岡"},
{"zip_code":"2892607","kana_pref":"ﾁﾊﾞｹﾝ","kana_city":"ｱｻﾋｼ","kana_address":"ｲｸﾖ","pref":"千葉県","city":"旭市","address":"幾世"},
{"zip_code":"2892534","kana_pref":"ﾁﾊﾞｹﾝ","kana_city":"ｱｻﾋｼ","kana_address":"ｲｽﾞﾐｶﾜ","pref":"千葉県","city":"旭市","address":"泉川"},
{"zip_code":"2892531","kana_pref":"ﾁﾊﾞｹﾝ","kana_city":"ｱｻﾋｼ","kana_address":"ｲﾄﾞﾉ","pref":"千葉県","city":"旭市","address":"井戸野"},
{"zip_code":"2890515","kana_pref":"ﾁﾊﾞｹﾝ","kana_city":"ｱｻﾋｼ","kana_address":"ｲﾘﾉ","pref":"千葉県","city":"旭市","address":"入野"},
{"zip_code":"2892602","kana_pref":"ﾁﾊﾞｹﾝ","kana_city":"ｱｻﾋｼ","kana_address":"ｲﾜｲ","pref":"千葉県","city":"旭市","address":"岩井"},
{"zip_code":"2892711","kana_pref":"ﾁﾊﾞｹﾝ","kana_city":"ｱｻﾋｼ","kana_address":"ｲﾜｻｷ","pref":"千葉県","city":"旭市","address":"岩崎"},
{"zip_code":"2892613","kana_pref":"ﾁﾊﾞｹﾝ","kana_city":"ｱｻﾋｼ","kana_address":"ｳｼﾛｸﾞｻ","pref":"千葉県","city":"旭市","address":"後草"},
{"zip_code":"2892614","kana_pref":"ﾁﾊﾞｹﾝ","kana_city":"ｱｻﾋｼ","kana_address":"ｴｶﾞｻｷ(12-22","pref":"千葉県","city":"旭市","address":"江ケ崎（１２〜２２"},
{"zip_code":"2892614","kana_pref":"ﾁﾊﾞｹﾝ","kana_city":"ｱｻﾋｼ","kana_address":"127-140","pref":"千葉県","city":"旭市","address":"１２７〜１４０"},
{"zip_code":"2892614","kana_pref":"ﾁﾊﾞｹﾝ","kana_city":"ｱｻﾋｼ","kana_address":"1709","pref":"千葉県","city":"旭市","address":"１７０９"},
{"zip_code":"2892614","kana_pref":"ﾁﾊﾞｹﾝ","kana_city":"ｱｻﾋｼ","kana_address":"1723-3","pref":"千葉県","city":"旭市","address":"１７２３−３"},
{"zip_code":"2892614","kana_pref":"ﾁﾊﾞｹﾝ","kana_city":"ｱｻﾋｼ","kana_address":"","pref":"千葉県","city":"旭市","address":""},
{"zip_code":"2892614","kana_pref":"ﾁﾊﾞｹﾝ","kana_city":"ｱｻﾋｼ","kana_address":"1728-4ﾊﾞﾝﾁ)","pref":"千葉県","city":"旭市","address":"１７２８−４番地）"},
{"zip_code":"2892503","kana_pref":"ﾁﾊﾞｹﾝ","kana_city":"ｱｻﾋｼ","kana_address":"ｴｶﾞｻｷ","pref":"千葉県","city":"旭市","address":"江ケ崎"},
{"zip_code":"2892533","kana_pref":"ﾁﾊﾞｹﾝ","kana_city":"ｱｻﾋｼ","kana_address":"ｵｵﾂｶﾊﾗ","pref":"千葉県","city":"旭市","address":"大塚原"},
{"zip_code":"2892603","kana_pref":"ﾁﾊﾞｹﾝ","kana_city":"ｱｻﾋｼ","kana_address":"ｵｵﾏﾃﾞ","pref":"千葉県","city":"旭市","address":"大間手"},
{"zip_code":"2890511","kana_pref":"ﾁﾊﾞｹﾝ","kana_city":"ｱｻﾋｼ","kana_address":"ｶﾌﾞﾗｷ","pref":"千葉県","city":"旭市","address":"鏑木"},
{"zip_code":"2892505","kana_pref":"ﾁﾊﾞｹﾝ","kana_city":"ｱｻﾋｼ","kana_address":"ｶﾏｶｽﾞ","pref":"千葉県","city":"旭市","address":"鎌数"},
{"zip_code":"2892704","kana_pref":"ﾁﾊﾞｹﾝ","kana_city":"ｱｻﾋｼ","kana_address":"ｶﾐﾅｶﾞｲ","pref":"千葉県","city":"旭市","address":"上永井"},
{"zip_code":"2892535","kana_pref":"ﾁﾊﾞｹﾝ","kana_city":"ｱｻﾋｼ","kana_address":"ｶﾜｸﾞﾁ","pref":"千葉県","city":"旭市","address":"川口"},
{"zip_code":"2892707","kana_pref":"ﾁﾊﾞｹﾝ","kana_city":"ｱｻﾋｼ","kana_address":"ｷﾞｮｳｼﾞ","pref":"千葉県","city":"旭市","address":"行内"},
{"zip_code":"2892606","kana_pref":"ﾁﾊﾞｹﾝ","kana_city":"ｱｻﾋｼ","kana_address":"ｷﾖﾀｷ","pref":"千葉県","city":"旭市","address":"清滝"},
{"zip_code":"2892611","kana_pref":"ﾁﾊﾞｹﾝ","kana_city":"ｱｻﾋｼ","kana_address":"ｸﾗﾊｼ","pref":"千葉県","city":"旭市","address":"倉橋"},
{"zip_code":"2892605","kana_pref":"ﾁﾊﾞｹﾝ","kana_city":"ｱｻﾋｼ","kana_address":"ｺﾄﾀﾞ(85-160","pref":"千葉県","city":"旭市","address":"琴田（８５〜１６０"},
{"zip_code":"2892605","kana_pref":"ﾁﾊﾞｹﾝ","kana_city":"ｱｻﾋｼ","kana_address":"1386-1815","pref":"千葉県","city":"旭市","address":"１３８６〜１８１５"},
{"zip_code":"2892605","kana_pref":"ﾁﾊﾞｹﾝ","kana_city":"ｱｻﾋｼ","kana_address":"2593-2820","pref":"千葉県","city":"旭市","address":"２５９３〜２８２０"},
{"zip_code":"2892605","kana_pref":"ﾁﾊﾞｹﾝ","kana_city":"ｱｻﾋｼ","kana_address":"","pref":"千葉県","city":"旭市","address":""},
{"zip_code":"2892605","kana_pref":"ﾁﾊﾞｹﾝ","kana_city":"ｱｻﾋｼ","kana_address":"3598-3614ﾊﾞﾝﾁ)","pref":"千葉県","city":"旭市","address":"３５９８〜３６１４番地）"},
{"zip_code":"2892502","kana_pref":"ﾁﾊﾞｹﾝ","kana_city":"ｱｻﾋｼ","kana_address":"ｺﾄﾀﾞ","pref":"千葉県","city":"旭市","address":"琴田"},
{"zip_code":"2892532","kana_pref":"ﾁﾊﾞｹﾝ","kana_city":"ｱｻﾋｼ","kana_address":"ｺﾏｺﾞﾒ","pref":"千葉県","city":"旭市","address":"駒込"},
{"zip_code":"2892715","kana_pref":"ﾁﾊﾞｹﾝ","kana_city":"ｱｻﾋｼ","kana_address":"ｺﾞﾝﾀﾞﾇﾏｼﾝﾃﾞﾝ","pref":"千葉県","city":"旭市","address":"権田沼新田"},
{"zip_code":"2890504","kana_pref":"ﾁﾊﾞｹﾝ","kana_city":"ｱｻﾋｼ","kana_address":"ｻｸﾗｲ","pref":"千葉県","city":"旭市","address":"櫻井"},
{"zip_code":"2890506","kana_pref":"ﾁﾊﾞｹﾝ","kana_city":"ｱｻﾋｼ","kana_address":"ｻｸﾗﾀﾞｲ","pref":"千葉県","city":"旭市","address":"さくら台"},
{"zip_code":"2892714","kana_pref":"ﾁﾊﾞｹﾝ","kana_city":"ｱｻﾋｼ","kana_address":"ｻﾝｶﾞﾜ","pref":"千葉県","city":"旭市","address":"三川"},
{"zip_code":"2892514","kana_pref":"ﾁﾊﾞｹﾝ","kana_city":"ｱｻﾋｼ","kana_address":"ｼｲﾅｳﾁ","pref":"千葉県","city":"旭市","address":"椎名内"},
{"zip_code":"2892706","kana_pref":"ﾁﾊﾞｹﾝ","kana_city":"ｱｻﾋｼ","kana_address":"ｼﾓﾅｶﾞｲ","pref":"千葉県","city":"旭市","address":"下永井"},
{"zip_code":"2892524","kana_pref":"ﾁﾊﾞｹﾝ","kana_city":"ｱｻﾋｼ","kana_address":"ｼﾞﾝｸﾞｳｼﾞ","pref":"千葉県","city":"旭市","address":"神宮寺"},
{"zip_code":"2892501","kana_pref":"ﾁﾊﾞｹﾝ","kana_city":"ｱｻﾋｼ","kana_address":"ｼﾝﾏﾁ","pref":"千葉県","city":"旭市","address":"新町"},
{"zip_code":"2890501","kana_pref":"ﾁﾊﾞｹﾝ","kana_city":"ｱｻﾋｼ","kana_address":"ｾｲﾜｵﾂ","pref":"千葉県","city":"旭市","address":"清和乙"},
{"zip_code":"2890507","kana_pref":"ﾁﾊﾞｹﾝ","kana_city":"ｱｻﾋｼ","kana_address":"ｾｲﾜｺｳ","pref":"千葉県","city":"旭市","address":"清和甲"},
{"zip_code":"2890514","kana_pref":"ﾁﾊﾞｹﾝ","kana_city":"ｱｻﾋｼ","kana_address":"ｾｷﾄﾞ","pref":"千葉県","city":"旭市","address":"関戸"},
{"zip_code":"2892604","kana_pref":"ﾁﾊﾞｹﾝ","kana_city":"ｱｻﾋｼ","kana_address":"ﾀｶｵｲ","pref":"千葉県","city":"旭市","address":"高生"},
{"zip_code":"2892615","kana_pref":"ﾁﾊﾞｹﾝ","kana_city":"ｱｻﾋｼ","kana_address":"ﾅｶﾞｵ","pref":"千葉県","city":"旭市","address":"長尾"},
{"zip_code":"2890502","kana_pref":"ﾁﾊﾞｹﾝ","kana_city":"ｱｻﾋｼ","kana_address":"ﾅｶﾞﾍﾞ","pref":"千葉県","city":"旭市","address":"長部"},
{"zip_code":"2892523","kana_pref":"ﾁﾊﾞｹﾝ","kana_city":"ｱｻﾋｼ","kana_address":"ﾅｶﾔﾘ","pref":"千葉県","city":"旭市","address":"中谷里"},
{"zip_code":"2892504","kana_pref":"ﾁﾊﾞｹﾝ","kana_city":"ｱｻﾋｼ","kana_address":"ﾆ","pref":"千葉県","city":"旭市","address":"ニ"},
{"zip_code":"2892515","kana_pref":"ﾁﾊﾞｹﾝ","kana_city":"ｱｻﾋｼ","kana_address":"ﾆｼｱｼｱﾗｲ","pref":"千葉県","city":"旭市","address":"西足洗"},
{"zip_code":"2892525","kana_pref":"ﾁﾊﾞｹﾝ","kana_city":"ｱｻﾋｼ","kana_address":"ﾆｯﾀﾏ","pref":"千葉県","city":"旭市","address":"仁玉"},
{"zip_code":"2892513","kana_pref":"ﾁﾊﾞｹﾝ","kana_city":"ｱｻﾋｼ","kana_address":"ﾉﾅｶ","pref":"千葉県","city":"旭市","address":"野中"},
{"zip_code":"2892521","kana_pref":"ﾁﾊﾞｹﾝ","kana_city":"ｱｻﾋｼ","kana_address":"ﾊ","pref":"千葉県","city":"旭市","address":"ハ"},
{"zip_code":"2892713","kana_pref":"ﾁﾊﾞｹﾝ","kana_city":"ｱｻﾋｼ","kana_address":"ﾊｷﾞｿﾞﾉ","pref":"千葉県","city":"旭市","address":"萩園"},
{"zip_code":"2892702","kana_pref":"ﾁﾊﾞｹﾝ","kana_city":"ｱｻﾋｼ","kana_address":"ﾊﾅﾜ","pref":"千葉県","city":"旭市","address":"塙"},
{"zip_code":"2892512","kana_pref":"ﾁﾊﾞｹﾝ","kana_city":"ｱｻﾋｼ","kana_address":"ﾋｶﾞｼｱｼｱﾗｲ","pref":"千葉県","city":"旭市","address":"東足洗"},
{"zip_code":"2892708","kana_pref":"ﾁﾊﾞｹﾝ","kana_city":"ｱｻﾋｼ","kana_address":"ﾋﾗﾏﾂ","pref":"千葉県","city":"旭市","address":"平松"},
{"zip_code":"2890513","kana_pref":"ﾁﾊﾞｹﾝ","kana_city":"ｱｻﾋｼ","kana_address":"ﾌﾅﾄﾞ","pref":"千葉県","city":"旭市","address":"舟戸"},
{"zip_code":"2892612","kana_pref":"ﾁﾊﾞｹﾝ","kana_city":"ｱｻﾋｼ","kana_address":"ﾍﾋﾞｿﾉ","pref":"千葉県","city":"旭市","address":"蛇園"},
{"zip_code":"2892601","kana_pref":"ﾁﾊﾞｹﾝ","kana_city":"ｱｻﾋｼ","kana_address":"ﾏﾂｶﾞﾔ","pref":"千葉県","city":"旭市","address":"松ケ谷"},
{"zip_code":"2890505","kana_pref":"ﾁﾊﾞｹﾝ","kana_city":"ｱｻﾋｼ","kana_address":"ﾏﾝｻﾞｲ","pref":"千葉県","city":"旭市","address":"萬歳"},
{"zip_code":"2890517","kana_pref":"ﾁﾊﾞｹﾝ","kana_city":"ｱｻﾋｼ","kana_address":"ﾏﾝﾘｷ","pref":"千葉県","city":"旭市","address":"萬力"},
{"zip_code":"2890503","kana_pref":"ﾁﾊﾞｹﾝ","kana_city":"ｱｻﾋｼ","kana_address":"ﾐｿﾞﾜﾗ","pref":"千葉県","city":"旭市","address":"溝原"},
{"zip_code":"2890512","kana_pref":"ﾁﾊﾞｹﾝ","kana_city":"ｱｻﾋｼ","kana_address":"ﾐﾅﾐﾎﾘﾉｳﾁ","pref":"千葉県","city":"旭市","address":"南堀之内"},
{"zip_code":"2892616","kana_pref":"ﾁﾊﾞｹﾝ","kana_city":"ｱｻﾋｼ","kana_address":"ﾐﾋﾛ","pref":"千葉県","city":"旭市","address":"見広"},
{"zip_code":"2892701","kana_pref":"ﾁﾊﾞｹﾝ","kana_city":"ｱｻﾋｼ","kana_address":"ﾑｼﾞﾅﾉ","pref":"千葉県","city":"旭市","address":"狢野"},
{"zip_code":"2892703","kana_pref":"ﾁﾊﾞｹﾝ","kana_city":"ｱｻﾋｼ","kana_address":"ﾔｷﾞ","pref":"千葉県","city":"旭市","address":"八木"},
{"zip_code":"2892712","kana_pref":"ﾁﾊﾞｹﾝ","kana_city":"ｱｻﾋｼ","kana_address":"ﾖｺﾈ","pref":"千葉県","city":"旭市","address":"横根"},
{"zip_code":"2890516","kana_pref":"ﾁﾊﾞｹﾝ","kana_city":"ｱｻﾋｼ","kana_address":"ﾖﾈｺﾞﾒ","pref":"千葉県","city":"旭市","address":"米込"},
{"zip_code":"2892516","kana_pref":"ﾁﾊﾞｹﾝ","kana_city":"ｱｻﾋｼ","kana_address":"ﾛ","pref":"千葉県","city":"旭市","address":"ロ"},
{"zip_code":"2891100","kana_pref":"ﾁﾊﾞｹﾝ","kana_city":"ﾔﾁﾏﾀｼ","kana_address":"","pref":"千葉県","city":"八街市","address":""},
{"zip_code":"2891101","kana_pref":"ﾁﾊﾞｹﾝ","kana_city":"ﾔﾁﾏﾀｼ","kana_address":"ｱｻﾋ","pref":"千葉県","city":"八街市","address":"朝日"},
{"zip_code":"2891121","kana_pref":"ﾁﾊﾞｹﾝ","kana_city":"ﾔﾁﾏﾀｼ","kana_address":"ｲｻｺﾞ","pref":"千葉県","city":"八街市","address":"砂"},
{"zip_code":"2891105","kana_pref":"ﾁﾊﾞｹﾝ","kana_city":"ﾔﾁﾏﾀｼ","kana_address":"ｲｽﾞﾐﾀﾞｲ","pref":"千葉県","city":"八街市","address":"泉台"},
{"zip_code":"2891106","kana_pref":"ﾁﾊﾞｹﾝ","kana_city":"ﾔﾁﾏﾀｼ","kana_address":"ｴﾉｷﾄﾞ","pref":"千葉県","city":"八街市","address":"榎戸"},
{"zip_code":"2891111","kana_pref":"ﾁﾊﾞｹﾝ","kana_city":"ﾔﾁﾏﾀｼ","kana_address":"ｵｵｷﾞ","pref":"千葉県","city":"八街市","address":"大木"},
{"zip_code":"2891142","kana_pref":"ﾁﾊﾞｹﾝ","kana_city":"ﾔﾁﾏﾀｼ","kana_address":"ｵｵｾｷ","pref":"千葉県","city":"八街市","address":"大関"},
{"zip_code":"2891134","kana_pref":"ﾁﾊﾞｹﾝ","kana_city":"ﾔﾁﾏﾀｼ","kana_address":"ｵｵﾔﾙ","pref":"千葉県","city":"八街市","address":"大谷流"},
{"zip_code":"2891137","kana_pref":"ﾁﾊﾞｹﾝ","kana_city":"ﾔﾁﾏﾀｼ","kana_address":"ｵｶﾀﾞ","pref":"千葉県","city":"八街市","address":"岡田"},
{"zip_code":"2891126","kana_pref":"ﾁﾊﾞｹﾝ","kana_city":"ﾔﾁﾏﾀｼ","kana_address":"ｵｷ","pref":"千葉県","city":"八街市","address":"沖"},
{"zip_code":"2891102","kana_pref":"ﾁﾊﾞｹﾝ","kana_city":"ﾔﾁﾏﾀｼ","kana_address":"ｵｷﾜﾀｼ","pref":"千葉県","city":"八街市","address":"沖渡"},
{"zip_code":"2891125","kana_pref":"ﾁﾊﾞｹﾝ","kana_city":"ﾔﾁﾏﾀｼ","kana_address":"ｶﾐｲｻｺﾞ","pref":"千葉県","city":"八街市","address":"上砂"},
{"zip_code":"2891108","kana_pref":"ﾁﾊﾞｹﾝ","kana_city":"ﾔﾁﾏﾀｼ","kana_address":"ｶﾞﾝﾏﾙ","pref":"千葉県","city":"八街市","address":"雁丸"},
{"zip_code":"2891112","kana_pref":"ﾁﾊﾞｹﾝ","kana_city":"ﾔﾁﾏﾀｼ","kana_address":"ｷﾊﾞﾗ","pref":"千葉県","city":"八街市","address":"木原"},
{"zip_code":"2891131","kana_pref":"ﾁﾊﾞｹﾝ","kana_city":"ﾔﾁﾏﾀｼ","kana_address":"ｷﾎﾞｳｶﾞｵｶ","pref":"千葉県","city":"八街市","address":"希望ケ丘"},
{"zip_code":"2891135","kana_pref":"ﾁﾊﾞｹﾝ","kana_city":"ﾔﾁﾏﾀｼ","kana_address":"ｺﾔﾙ","pref":"千葉県","city":"八街市","address":"小谷流"},
{"zip_code":"2891122","kana_pref":"ﾁﾊﾞｹﾝ","kana_city":"ﾔﾁﾏﾀｼ","kana_address":"ｼﾓｸ","pref":"千葉県","city":"八街市","address":"四木"},
{"zip_code":"2891132","kana_pref":"ﾁﾊﾞｹﾝ","kana_city":"ﾔﾁﾏﾀｼ","kana_address":"ｾﾀ","pref":"千葉県","city":"八街市","address":"勢田"},
{"zip_code":"2891123","kana_pref":"ﾁﾊﾞｹﾝ","kana_city":"ﾔﾁﾏﾀｼ","kana_address":"ﾀｷﾀﾞｲ","pref":"千葉県","city":"八街市","address":"滝台"},
{"zip_code":"2891141","kana_pref":"ﾁﾊﾞｹﾝ","kana_city":"ﾔﾁﾏﾀｼ","kana_address":"ﾄﾔﾏ","pref":"千葉県","city":"八街市","address":"富山"},
{"zip_code":"2891136","kana_pref":"ﾁﾊﾞｹﾝ","kana_city":"ﾔﾁﾏﾀｼ","kana_address":"ﾈｺﾞﾔ","pref":"千葉県","city":"八街市","address":"根古谷"},
{"zip_code":"2891114","kana_pref":"ﾁﾊﾞｹﾝ","kana_city":"ﾔﾁﾏﾀｼ","kana_address":"ﾋｶﾞｼﾖｼﾀﾞ","pref":"千葉県","city":"八街市","address":"東吉田"},
{"zip_code":"2891104","kana_pref":"ﾁﾊﾞｹﾝ","kana_city":"ﾔﾁﾏﾀｼ","kana_address":"ﾋｼﾞｶｲ","pref":"千葉県","city":"八街市","address":"文違"},
{"zip_code":"2891145","kana_pref":"ﾁﾊﾞｹﾝ","kana_city":"ﾔﾁﾏﾀｼ","kana_address":"ﾐﾄﾞﾘﾀﾞｲ","pref":"千葉県","city":"八街市","address":"みどり台"},
{"zip_code":"2891138","kana_pref":"ﾁﾊﾞｹﾝ","kana_city":"ﾔﾁﾏﾀｼ","kana_address":"ﾓﾁｸｻ","pref":"千葉県","city":"八街市","address":"用草"},
{"zip_code":"2891143","kana_pref":"ﾁﾊﾞｹﾝ","kana_city":"ﾔﾁﾏﾀｼ","kana_address":"ﾔﾁﾏﾀｲ","pref":"千葉県","city":"八街市","address":"八街い"},
{"zip_code":"2891144","kana_pref":"ﾁﾊﾞｹﾝ","kana_city":"ﾔﾁﾏﾀｼ","kana_address":"ﾔﾁﾏﾀﾛ","pref":"千葉県","city":"八街市","address":"八街ろ"},
{"zip_code":"2891107","kana_pref":"ﾁﾊﾞｹﾝ","kana_city":"ﾔﾁﾏﾀｼ","kana_address":"ﾔﾁﾏﾀﾊ","pref":"千葉県","city":"八街市","address":"八街は"},
{"zip_code":"2891103","kana_pref":"ﾁﾊﾞｹﾝ","kana_city":"ﾔﾁﾏﾀｼ","kana_address":"ﾔﾁﾏﾀﾆ","pref":"千葉県","city":"八街市","address":"八街に"},
{"zip_code":"2891115","kana_pref":"ﾁﾊﾞｹﾝ","kana_city":"ﾔﾁﾏﾀｼ","kana_address":"ﾔﾁﾏﾀﾎ","pref":"千葉県","city":"八街市","address":"八街ほ"},
{"zip_code":"2891113","kana_pref":"ﾁﾊﾞｹﾝ","kana_city":"ﾔﾁﾏﾀｼ","kana_address":"ﾔﾁﾏﾀﾍ","pref":"千葉県","city":"八街市","address":"八街へ"},
{"zip_code":"2891124","kana_pref":"ﾁﾊﾞｹﾝ","kana_city":"ﾔﾁﾏﾀｼ","kana_address":"ﾔﾏﾀﾞﾀﾞｲ","pref":"千葉県","city":"八街市","address":"山田台"},
{"zip_code":"2891133","kana_pref":"ﾁﾊﾞｹﾝ","kana_city":"ﾔﾁﾏﾀｼ","kana_address":"ﾖｼｸﾗ","pref":"千葉県","city":"八街市","address":"吉倉"},
{"zip_code":"2892100","kana_pref":"ﾁﾊﾞｹﾝ","kana_city":"ｿｳｻｼ","kana_address":"","pref":"千葉県","city":"匝瑳市","address":""},
{"zip_code":"2892178","kana_pref":"ﾁﾊﾞｹﾝ","kana_city":"ｿｳｻｼ","kana_address":"ｱｸﾞﾔﾏ","pref":"千葉県","city":"匝瑳市","address":"安久山"},
{"zip_code":"2892147","kana_pref":"ﾁﾊﾞｹﾝ","kana_city":"ｿｳｻｼ","kana_address":"ｲｲｸﾞﾗ","pref":"千葉県","city":"匝瑳市","address":"飯倉"},
{"zip_code":"2892148","kana_pref":"ﾁﾊﾞｹﾝ","kana_city":"ｿｳｻｼ","kana_address":"ｲｲｸﾞﾗﾀﾞｲ","pref":"千葉県","city":"匝瑳市","address":"飯倉台"},
{"zip_code":"2892173","kana_pref":"ﾁﾊﾞｹﾝ","kana_city":"ｿｳｻｼ","kana_address":"ｲｲﾀﾞｶ","pref":"千葉県","city":"匝瑳市","address":"飯高"},
{"zip_code":"2892106","kana_pref":"ﾁﾊﾞｹﾝ","kana_city":"ｿｳｻｼ","kana_address":"ｲｲﾂﾞｶ","pref":"千葉県","city":"匝瑳市","address":"飯塚"},
{"zip_code":"2893182","kana_pref":"ﾁﾊﾞｹﾝ","kana_city":"ｿｳｻｼ","kana_address":"ｲﾏｲｽﾞﾐ","pref":"千葉県","city":"匝瑳市","address":"今泉"},
{"zip_code":"2892161","kana_pref":"ﾁﾊﾞｹﾝ","kana_city":"ｿｳｻｼ","kana_address":"ｲﾘﾔﾏｻﾞｷ","pref":"千葉県","city":"匝瑳市","address":"入山崎"},
{"zip_code":"2892171","kana_pref":"ﾁﾊﾞｹﾝ","kana_city":"ｿｳｻｼ","kana_address":"ｳﾁﾔﾏ","pref":"千葉県","city":"匝瑳市","address":"内山"},
{"zip_code":"2892104","kana_pref":"ﾁﾊﾞｹﾝ","kana_city":"ｿｳｻｼ","kana_address":"ｵｲｵ","pref":"千葉県","city":"匝瑳市","address":"生尾"},
{"zip_code":"2892151","kana_pref":"ﾁﾊﾞｹﾝ","kana_city":"ｿｳｻｼ","kana_address":"ｵｵｳﾗ","pref":"千葉県","city":"匝瑳市","address":"大浦"},
{"zip_code":"2892108","kana_pref":"ﾁﾊﾞｹﾝ","kana_city":"ｿｳｻｼ","kana_address":"ｵｵﾃﾞﾗ","pref":"千葉県","city":"匝瑳市","address":"大寺"},
{"zip_code":"2892176","kana_pref":"ﾁﾊﾞｹﾝ","kana_city":"ｿｳｻｼ","kana_address":"ｵｵﾎﾘ","pref":"千葉県","city":"匝瑳市","address":"大堀"},
{"zip_code":"2892112","kana_pref":"ﾁﾊﾞｹﾝ","kana_city":"ｿｳｻｼ","kana_address":"ｵｷﾞﾉ","pref":"千葉県","city":"匝瑳市","address":"荻野"},
{"zip_code":"2892179","kana_pref":"ﾁﾊﾞｹﾝ","kana_city":"ｿｳｻｼ","kana_address":"ｵﾀﾞｶ","pref":"千葉県","city":"匝瑳市","address":"小高"},
{"zip_code":"2892149","kana_pref":"ﾁﾊﾞｹﾝ","kana_city":"ｿｳｻｼ","kana_address":"ｶｲﾂﾞｶ","pref":"千葉県","city":"匝瑳市","address":"貝塚"},
{"zip_code":"2892175","kana_pref":"ﾁﾊﾞｹﾝ","kana_city":"ｿｳｻｼ","kana_address":"ｶﾀｺ","pref":"千葉県","city":"匝瑳市","address":"片子"},
{"zip_code":"2892177","kana_pref":"ﾁﾊﾞｹﾝ","kana_city":"ｿｳｻｼ","kana_address":"ｶﾅﾊﾞﾗ","pref":"千葉県","city":"匝瑳市","address":"金原"},
{"zip_code":"2892133","kana_pref":"ﾁﾊﾞｹﾝ","kana_city":"ｿｳｻｼ","kana_address":"ｶﾌﾞｻﾞﾄ","pref":"千葉県","city":"匝瑳市","address":"蕪里"},
{"zip_code":"2892167","kana_pref":"ﾁﾊﾞｹﾝ","kana_city":"ｿｳｻｼ","kana_address":"ｶﾒｻﾞｷ","pref":"千葉県","city":"匝瑳市","address":"亀崎"},
{"zip_code":"2893184","kana_pref":"ﾁﾊﾞｹﾝ","kana_city":"ｿｳｻｼ","kana_address":"ｶﾔﾀﾞ","pref":"千葉県","city":"匝瑳市","address":"栢田"},
{"zip_code":"2893186","kana_pref":"ﾁﾊﾞｹﾝ","kana_city":"ｿｳｻｼ","kana_address":"ｶﾜﾍﾞ","pref":"千葉県","city":"匝瑳市","address":"川辺"},
{"zip_code":"2892111","kana_pref":"ﾁﾊﾞｹﾝ","kana_city":"ｿｳｻｼ","kana_address":"ｶﾜﾑｶｲ","pref":"千葉県","city":"匝瑳市","address":"川向"},
{"zip_code":"2892164","kana_pref":"ﾁﾊﾞｹﾝ","kana_city":"ｿｳｻｼ","kana_address":"ｷｽﾞﾐ","pref":"千葉県","city":"匝瑳市","address":"木積"},
{"zip_code":"2892174","kana_pref":"ﾁﾊﾞｹﾝ","kana_city":"ｿｳｻｼ","kana_address":"ｺｳｻﾞｷ","pref":"千葉県","city":"匝瑳市","address":"公崎"},
{"zip_code":"2892135","kana_pref":"ﾁﾊﾞｹﾝ","kana_city":"ｿｳｻｼ","kana_address":"ｺｳﾔ","pref":"千葉県","city":"匝瑳市","address":"高野"},
{"zip_code":"2892166","kana_pref":"ﾁﾊﾞｹﾝ","kana_city":"ｿｳｻｼ","kana_address":"ｼﾑﾗ","pref":"千葉県","city":"匝瑳市","address":"新"},
{"zip_code":"2892114","kana_pref":"ﾁﾊﾞｹﾝ","kana_city":"ｿｳｻｼ","kana_address":"ｼﾞｮｳﾔﾅｶ","pref":"千葉県","city":"匝瑳市","address":"上谷中"},
{"zip_code":"2892132","kana_pref":"ﾁﾊﾞｹﾝ","kana_city":"ｿｳｻｼ","kana_address":"ﾀｶ","pref":"千葉県","city":"匝瑳市","address":"高"},
{"zip_code":"2892165","kana_pref":"ﾁﾊﾞｹﾝ","kana_city":"ｿｳｻｼ","kana_address":"ﾀｸﾎﾞ","pref":"千葉県","city":"匝瑳市","address":"田久保"},
{"zip_code":"2892102","kana_pref":"ﾁﾊﾞｹﾝ","kana_city":"ｿｳｻｼ","kana_address":"ﾂﾊﾞｷ","pref":"千葉県","city":"匝瑳市","address":"椿"},
{"zip_code":"2892136","kana_pref":"ﾁﾊﾞｹﾝ","kana_city":"ｿｳｻｼ","kana_address":"ﾄｷｿﾞﾈ","pref":"千葉県","city":"匝瑳市","address":"時曽根"},
{"zip_code":"2892154","kana_pref":"ﾁﾊﾞｹﾝ","kana_city":"ｿｳｻｼ","kana_address":"ﾄﾐｵｶ","pref":"千葉県","city":"匝瑳市","address":"富岡"},
{"zip_code":"2892156","kana_pref":"ﾁﾊﾞｹﾝ","kana_city":"ｿｳｻｼ","kana_address":"ﾅｶﾞｵｶ","pref":"千葉県","city":"匝瑳市","address":"長岡"},
{"zip_code":"2892153","kana_pref":"ﾁﾊﾞｹﾝ","kana_city":"ｿｳｻｼ","kana_address":"ﾅｶﾀﾞｲ","pref":"千葉県","city":"匝瑳市","address":"中台"},
{"zip_code":"2892123","kana_pref":"ﾁﾊﾞｹﾝ","kana_city":"ｿｳｻｼ","kana_address":"ﾅｶﾞﾔ","pref":"千葉県","city":"匝瑳市","address":"長谷"},
{"zip_code":"2893183","kana_pref":"ﾁﾊﾞｹﾝ","kana_city":"ｿｳｻｼ","kana_address":"ﾆｲﾎﾞﾘ","pref":"千葉県","city":"匝瑳市","address":"新堀"},
{"zip_code":"2892125","kana_pref":"ﾁﾊﾞｹﾝ","kana_city":"ｿｳｻｼ","kana_address":"ﾆｼｺｻﾞｻ","pref":"千葉県","city":"匝瑳市","address":"西小笹"},
{"zip_code":"2892172","kana_pref":"ﾁﾊﾞｹﾝ","kana_city":"ｿｳｻｼ","kana_address":"ﾈｺﾞﾔ","pref":"千葉県","city":"匝瑳市","address":"城下"},
{"zip_code":"2893181","kana_pref":"ﾁﾊﾞｹﾝ","kana_city":"ｿｳｻｼ","kana_address":"ﾉﾃﾞ","pref":"千葉県","city":"匝瑳市","address":"野手"},
{"zip_code":"2892124","kana_pref":"ﾁﾊﾞｹﾝ","kana_city":"ｿｳｻｼ","kana_address":"ﾉﾌﾞﾄ","pref":"千葉県","city":"匝瑳市","address":"登戸"},
{"zip_code":"2892101","kana_pref":"ﾁﾊﾞｹﾝ","kana_city":"ｿｳｻｼ","kana_address":"ﾊﾙﾐ","pref":"千葉県","city":"匝瑳市","address":"春海"},
{"zip_code":"2892121","kana_pref":"ﾁﾊﾞｹﾝ","kana_city":"ｿｳｻｼ","kana_address":"ﾋｶﾞｼｺｻﾞｻ","pref":"千葉県","city":"匝瑳市","address":"東小笹"},
{"zip_code":"2892115","kana_pref":"ﾁﾊﾞｹﾝ","kana_city":"ｿｳｻｼ","kana_address":"ﾋｶﾞｼﾔ","pref":"千葉県","city":"匝瑳市","address":"東谷"},
{"zip_code":"2892168","kana_pref":"ﾁﾊﾞｹﾝ","kana_city":"ｿｳｻｼ","kana_address":"ﾋｻｶﾀ","pref":"千葉県","city":"匝瑳市","address":"久方"},
{"zip_code":"2892113","kana_pref":"ﾁﾊﾞｹﾝ","kana_city":"ｿｳｻｼ","kana_address":"ﾋﾗｷﾞ","pref":"千葉県","city":"匝瑳市","address":"平木"},
{"zip_code":"2893185","kana_pref":"ﾁﾊﾞｹﾝ","kana_city":"ｿｳｻｼ","kana_address":"ﾎﾘｶﾜ","pref":"千葉県","city":"匝瑳市","address":"堀川"},
{"zip_code":"2892157","kana_pref":"ﾁﾊﾞｹﾝ","kana_city":"ｿｳｻｼ","kana_address":"ﾎﾘﾉｳﾁ","pref":"千葉県","city":"匝瑳市","address":"堀之内"},
{"zip_code":"2892152","kana_pref":"ﾁﾊﾞｹﾝ","kana_city":"ｿｳｻｼ","kana_address":"ﾏﾂﾔﾏ","pref":"千葉県","city":"匝瑳市","address":"松山"},
{"zip_code":"2892131","kana_pref":"ﾁﾊﾞｹﾝ","kana_city":"ｿｳｻｼ","kana_address":"ﾐﾄﾞﾘﾀﾞｲﾗ","pref":"千葉県","city":"匝瑳市","address":"みどり平"},
{"zip_code":"2892163","kana_pref":"ﾁﾊﾞｹﾝ","kana_city":"ｿｳｻｼ","kana_address":"ﾐﾅﾐｶﾝｻﾞｷ","pref":"千葉県","city":"匝瑳市","address":"南神崎"},
{"zip_code":"2892162","kana_pref":"ﾁﾊﾞｹﾝ","kana_city":"ｿｳｻｼ","kana_address":"ﾐﾅﾐﾔﾏｻﾞｷ","pref":"千葉県","city":"匝瑳市","address":"南山崎"},
{"zip_code":"2892103","kana_pref":"ﾁﾊﾞｹﾝ","kana_city":"ｿｳｻｼ","kana_address":"ﾐﾔﾓﾄ","pref":"千葉県","city":"匝瑳市","address":"宮本"},
{"zip_code":"2892155","kana_pref":"ﾁﾊﾞｹﾝ","kana_city":"ｿｳｻｼ","kana_address":"ﾔｯﾍﾟ","pref":"千葉県","city":"匝瑳市","address":"八辺"},
{"zip_code":"2892105","kana_pref":"ﾁﾊﾞｹﾝ","kana_city":"ｿｳｻｼ","kana_address":"ﾔﾏｸﾜ","pref":"千葉県","city":"匝瑳市","address":"山桑"},
{"zip_code":"2892144","kana_pref":"ﾁﾊﾞｹﾝ","kana_city":"ｿｳｻｼ","kana_address":"ﾖｳｶｲﾁﾊﾞｲ","pref":"千葉県","city":"匝瑳市","address":"八日市場イ"},
{"zip_code":"2892142","kana_pref":"ﾁﾊﾞｹﾝ","kana_city":"ｿｳｻｼ","kana_address":"ﾖｳｶｲﾁﾊﾞﾆ","pref":"千葉県","city":"匝瑳市","address":"八日市場ニ"},
{"zip_code":"2892141","kana_pref":"ﾁﾊﾞｹﾝ","kana_city":"ｿｳｻｼ","kana_address":"ﾖｳｶｲﾁﾊﾞﾊ","pref":"千葉県","city":"匝瑳市","address":"八日市場ハ"},
{"zip_code":"2892146","kana_pref":"ﾁﾊﾞｹﾝ","kana_city":"ｿｳｻｼ","kana_address":"ﾖｳｶｲﾁﾊﾞﾎ","pref":"千葉県","city":"匝瑳市","address":"八日市場ホ"},
{"zip_code":"2892143","kana_pref":"ﾁﾊﾞｹﾝ","kana_city":"ｿｳｻｼ","kana_address":"ﾖｳｶｲﾁﾊﾞﾛ","pref":"千葉県","city":"匝瑳市","address":"八日市場ロ"},
{"zip_code":"2892134","kana_pref":"ﾁﾊﾞｹﾝ","kana_city":"ｿｳｻｼ","kana_address":"ﾖｺｽｶ","pref":"千葉県","city":"匝瑳市","address":"横須賀"},
{"zip_code":"2892122","kana_pref":"ﾁﾊﾞｹﾝ","kana_city":"ｿｳｻｼ","kana_address":"ﾖｼｻﾞｷ","pref":"千葉県","city":"匝瑳市","address":"吉崎"},
{"zip_code":"2892169","kana_pref":"ﾁﾊﾞｹﾝ","kana_city":"ｿｳｻｼ","kana_address":"ﾖｼﾀﾞ","pref":"千葉県","city":"匝瑳市","address":"吉田"},
{"zip_code":"2892107","kana_pref":"ﾁﾊﾞｹﾝ","kana_city":"ｿｳｻｼ","kana_address":"ﾖﾈﾓﾁ","pref":"千葉県","city":"匝瑳市","address":"米持"},
{"zip_code":"2892145","kana_pref":"ﾁﾊﾞｹﾝ","kana_city":"ｿｳｻｼ","kana_address":"ﾜｶｼｵﾁｮｳ","pref":"千葉県","city":"匝瑳市","address":"若潮町"},
{"zip_code":"2890321","kana_pref":"ﾁﾊﾞｹﾝ","kana_city":"ｶﾄﾘｼ","kana_address":"ｱﾀﾏｶﾞﾜ","pref":"千葉県","city":"香取市","address":"阿玉川"},
{"zip_code":"2890326","kana_pref":"ﾁﾊﾞｹﾝ","kana_city":"ｶﾄﾘｼ","kana_address":"ｱﾀﾏﾀﾞｲ","pref":"千葉県","city":"香取市","address":"阿玉台"},
{"zip_code":"2890346","kana_pref":"ﾁﾊﾞｹﾝ","kana_city":"ｶﾄﾘｼ","kana_address":"ｱﾌﾞﾗﾀ","pref":"千葉県","city":"香取市","address":"油田"},
{"zip_code":"2890324","kana_pref":"ﾁﾊﾞｹﾝ","kana_city":"ｶﾄﾘｼ","kana_address":"ｲｽﾞﾐ","pref":"千葉県","city":"香取市","address":"和泉"},
{"zip_code":"2890301","kana_pref":"ﾁﾊﾞｹﾝ","kana_city":"ｶﾄﾘｼ","kana_address":"ｲﾁﾉﾜｹﾒ","pref":"千葉県","city":"香取市","address":"一ノ分目"},
{"zip_code":"2890333","kana_pref":"ﾁﾊﾞｹﾝ","kana_city":"ｶﾄﾘｼ","kana_address":"ｲﾘｱｲﾁ","pref":"千葉県","city":"香取市","address":"入会地"},
{"zip_code":"2890349","kana_pref":"ﾁﾊﾞｹﾝ","kana_city":"ｶﾄﾘｼ","kana_address":"ｳﾁﾉ","pref":"千葉県","city":"香取市","address":"内野"},
{"zip_code":"2890425","kana_pref":"ﾁﾊﾞｹﾝ","kana_city":"ｶﾄﾘｼ","kana_address":"ｵｵﾄｶﾞﾘ","pref":"千葉県","city":"香取市","address":"大角"},
{"zip_code":"2890323","kana_pref":"ﾁﾊﾞｹﾝ","kana_city":"ｶﾄﾘｼ","kana_address":"ｵｶｲｲﾀﾞ","pref":"千葉県","city":"香取市","address":"岡飯田"},
{"zip_code":"2890423","kana_pref":"ﾁﾊﾞｹﾝ","kana_city":"ｶﾄﾘｼ","kana_address":"ｵｶﾞﾜ","pref":"千葉県","city":"香取市","address":"小川"},
{"zip_code":"2890402","kana_pref":"ﾁﾊﾞｹﾝ","kana_city":"ｶﾄﾘｼ","kana_address":"ｵﾐ","pref":"千葉県","city":"香取市","address":"小見"},
{"zip_code":"2890313","kana_pref":"ﾁﾊﾞｹﾝ","kana_city":"ｶﾄﾘｼ","kana_address":"ｵﾐｶﾞﾜ","pref":"千葉県","city":"香取市","address":"小見川"},
{"zip_code":"2890348","kana_pref":"ﾁﾊﾞｹﾝ","kana_city":"ｶﾄﾘｼ","kana_address":"ｵﾘﾊﾀ","pref":"千葉県","city":"香取市","address":"織幡"},
{"zip_code":"2890325","kana_pref":"ﾁﾊﾞｹﾝ","kana_city":"ｶﾄﾘｼ","kana_address":"ｶｲﾂﾞｶ","pref":"千葉県","city":"香取市","address":"貝塚"},
{"zip_code":"2890306","kana_pref":"ﾁﾊﾞｹﾝ","kana_city":"ｶﾄﾘｼ","kana_address":"ｶﾐｺﾎﾞﾘ","pref":"千葉県","city":"香取市","address":"上小堀"},
{"zip_code":"2890334","kana_pref":"ﾁﾊﾞｹﾝ","kana_city":"ｶﾄﾘｼ","kana_address":"ｶﾜｶﾞｼﾗ","pref":"千葉県","city":"香取市","address":"川頭"},
{"zip_code":"2890403","kana_pref":"ﾁﾊﾞｹﾝ","kana_city":"ｶﾄﾘｼ","kana_address":"ｶﾜｶﾐ","pref":"千葉県","city":"香取市","address":"川上"},
{"zip_code":"2890408","kana_pref":"ﾁﾊﾞｹﾝ","kana_city":"ｶﾄﾘｼ","kana_address":"ｶﾝﾉｳ","pref":"千葉県","city":"香取市","address":"神生"},
{"zip_code":"2890335","kana_pref":"ﾁﾊﾞｹﾝ","kana_city":"ｶﾄﾘｼ","kana_address":"ｷﾀﾊﾗﾁｼﾝﾃﾞﾝ","pref":"千葉県","city":"香取市","address":"北原地新田"},
{"zip_code":"2890337","kana_pref":"ﾁﾊﾞｹﾝ","kana_city":"ｶﾄﾘｼ","kana_address":"ｷﾉｳﾁ","pref":"千葉県","city":"香取市","address":"木内"},
{"zip_code":"2890308","kana_pref":"ﾁﾊﾞｹﾝ","kana_city":"ｶﾄﾘｼ","kana_address":"ｷﾉｳﾁﾑｼﾊﾀｶﾐｺﾎﾞﾘｲﾘｱｲﾁｵｵﾀﾞｲﾗ","pref":"千葉県","city":"香取市","address":"木内虫幡上小堀入会地大平"},
{"zip_code":"2890422","kana_pref":"ﾁﾊﾞｹﾝ","kana_city":"ｶﾄﾘｼ","kana_address":"ｷﾘｻﾞｸ","pref":"千葉県","city":"香取市","address":"桐谷"},
{"zip_code":"2890327","kana_pref":"ﾁﾊﾞｹﾝ","kana_city":"ｶﾄﾘｼ","kana_address":"ｸﾎﾞ","pref":"千葉県","city":"香取市","address":"久保"},
{"zip_code":"2890404","kana_pref":"ﾁﾊﾞｹﾝ","kana_city":"ｶﾄﾘｼ","kana_address":"ｺｳﾔ","pref":"千葉県","city":"香取市","address":"高野"},
{"zip_code":"2890328","kana_pref":"ﾁﾊﾞｹﾝ","kana_city":"ｶﾄﾘｼ","kana_address":"ｺﾞｺﾞｳﾁ","pref":"千葉県","city":"香取市","address":"五郷内"},
{"zip_code":"2890401","kana_pref":"ﾁﾊﾞｹﾝ","kana_city":"ｶﾄﾘｼ","kana_address":"ｺﾒﾉｲ","pref":"千葉県","city":"香取市","address":"米野井"},
{"zip_code":"2890302","kana_pref":"ﾁﾊﾞｹﾝ","kana_city":"ｶﾄﾘｼ","kana_address":"ｻﾝﾉﾜｹﾒ","pref":"千葉県","city":"香取市","address":"三ノ分目"},
{"zip_code":"2890413","kana_pref":"ﾁﾊﾞｹﾝ","kana_city":"ｶﾄﾘｼ","kana_address":"ｼﾀﾞｶ","pref":"千葉県","city":"香取市","address":"志高"},
{"zip_code":"2890322","kana_pref":"ﾁﾊﾞｹﾝ","kana_city":"ｶﾄﾘｼ","kana_address":"ｼﾓｲｲﾀﾞ","pref":"千葉県","city":"香取市","address":"下飯田"},
{"zip_code":"2890338","kana_pref":"ﾁﾊﾞｹﾝ","kana_city":"ｶﾄﾘｼ","kana_address":"ｼﾓｵｶﾞﾜ","pref":"千葉県","city":"香取市","address":"下小川"},
{"zip_code":"2890304","kana_pref":"ﾁﾊﾞｹﾝ","kana_city":"ｶﾄﾘｼ","kana_address":"ｼﾓｺﾎﾞﾘ","pref":"千葉県","city":"香取市","address":"下小堀"},
{"zip_code":"2890344","kana_pref":"ﾁﾊﾞｹﾝ","kana_city":"ｶﾄﾘｼ","kana_address":"ｼﾗｲ","pref":"千葉県","city":"香取市","address":"白井"},
{"zip_code":"2890336","kana_pref":"ﾁﾊﾞｹﾝ","kana_city":"ｶﾄﾘｼ","kana_address":"ｼﾝｼﾝﾃﾞﾝ","pref":"千葉県","city":"香取市","address":"新々田"},
{"zip_code":"2890405","kana_pref":"ﾁﾊﾞｹﾝ","kana_city":"ｶﾄﾘｼ","kana_address":"ﾀｹﾉｳﾁ","pref":"千葉県","city":"香取市","address":"竹之内"},
{"zip_code":"2890406","kana_pref":"ﾁﾊﾞｹﾝ","kana_city":"ｶﾄﾘｼ","kana_address":"ﾀﾍﾞ","pref":"千葉県","city":"香取市","address":"田部"},
{"zip_code":"2890303","kana_pref":"ﾁﾊﾞｹﾝ","kana_city":"ｶﾄﾘｼ","kana_address":"ﾄﾐﾀ","pref":"千葉県","city":"香取市","address":"富田"},
{"zip_code":"2890414","kana_pref":"ﾁﾊﾞｹﾝ","kana_city":"ｶﾄﾘｼ","kana_address":"ﾅｶﾞｵｶ","pref":"千葉県","city":"香取市","address":"長岡"},
{"zip_code":"2890424","kana_pref":"ﾁﾊﾞｹﾝ","kana_city":"ｶﾄﾘｼ","kana_address":"ﾆｯｻﾄ","pref":"千葉県","city":"香取市","address":"新里"},
{"zip_code":"2890407","kana_pref":"ﾁﾊﾞｹﾝ","kana_city":"ｶﾄﾘｼ","kana_address":"ﾆﾗ","pref":"千葉県","city":"香取市","address":"仁良"},
{"zip_code":"2890314","kana_pref":"ﾁﾊﾞｹﾝ","kana_city":"ｶﾄﾘｼ","kana_address":"ﾉﾀﾞ","pref":"千葉県","city":"香取市","address":"野田"},
{"zip_code":"2890347","kana_pref":"ﾁﾊﾞｹﾝ","kana_city":"ｶﾄﾘｼ","kana_address":"ﾊﾀﾎｺ","pref":"千葉県","city":"香取市","address":"旗鉾"},
{"zip_code":"2890345","kana_pref":"ﾁﾊﾞｹﾝ","kana_city":"ｶﾄﾘｼ","kana_address":"ﾊﾁﾎﾝ","pref":"千葉県","city":"香取市","address":"八本"},
{"zip_code":"2890421","kana_pref":"ﾁﾊﾞｹﾝ","kana_city":"ｶﾄﾘｼ","kana_address":"ﾊﾄﾔﾏ","pref":"千葉県","city":"香取市","address":"鳩山"},
{"zip_code":"2890331","kana_pref":"ﾁﾊﾞｹﾝ","kana_city":"ｶﾄﾘｼ","kana_address":"ﾊﾈｶﾞﾜ","pref":"千葉県","city":"香取市","address":"羽根川"},
{"zip_code":"2890329","kana_pref":"ﾁﾊﾞｹﾝ","kana_city":"ｶﾄﾘｼ","kana_address":"ﾌﾉ","pref":"千葉県","city":"香取市","address":"布野"},
{"zip_code":"2890411","kana_pref":"ﾁﾊﾞｹﾝ","kana_city":"ｶﾄﾘｼ","kana_address":"ﾌﾏ","pref":"千葉県","city":"香取市","address":"府馬"},
{"zip_code":"2890412","kana_pref":"ﾁﾊﾞｹﾝ","kana_city":"ｶﾄﾘｼ","kana_address":"ﾌﾙｳﾁ","pref":"千葉県","city":"香取市","address":"古内"},
{"zip_code":"2890312","kana_pref":"ﾁﾊﾞｹﾝ","kana_city":"ｶﾄﾘｼ","kana_address":"ﾎﾝｺﾞｳ","pref":"千葉県","city":"香取市","address":"本郷"},
{"zip_code":"2890307","kana_pref":"ﾁﾊﾞｹﾝ","kana_city":"ｶﾄﾘｼ","kana_address":"ﾏｼﾀ","pref":"千葉県","city":"香取市","address":"増田"},
{"zip_code":"2890332","kana_pref":"ﾁﾊﾞｹﾝ","kana_city":"ｶﾄﾘｼ","kana_address":"ﾐﾅﾐﾊﾗﾁｼﾝﾃﾞﾝ","pref":"千葉県","city":"香取市","address":"南原地新田"},
{"zip_code":"2890341","kana_pref":"ﾁﾊﾞｹﾝ","kana_city":"ｶﾄﾘｼ","kana_address":"ﾑｼﾊﾀ","pref":"千葉県","city":"香取市","address":"虫幡"},
{"zip_code":"2890343","kana_pref":"ﾁﾊﾞｹﾝ","kana_city":"ｶﾄﾘｼ","kana_address":"ﾔﾏｶﾞﾜ","pref":"千葉県","city":"香取市","address":"山川"},
{"zip_code":"2890426","kana_pref":"ﾁﾊﾞｹﾝ","kana_city":"ｶﾄﾘｼ","kana_address":"ﾔﾏｸﾗ","pref":"千葉県","city":"香取市","address":"山倉"},
{"zip_code":"2890311","kana_pref":"ﾁﾊﾞｹﾝ","kana_city":"ｶﾄﾘｼ","kana_address":"ﾖｳｶｲﾁﾊﾞ","pref":"千葉県","city":"香取市","address":"八日市場"},
{"zip_code":"2890342","kana_pref":"ﾁﾊﾞｹﾝ","kana_city":"ｶﾄﾘｼ","kana_address":"ﾘｭｳｻﾞｸ","pref":"千葉県","city":"香取市","address":"竜谷"},
{"zip_code":"2890305","kana_pref":"ﾁﾊﾞｹﾝ","kana_city":"ｶﾄﾘｼ","kana_address":"ﾜｶﾚｺﾞｳ","pref":"千葉県","city":"香取市","address":"分郷"},
{"zip_code":"2891300","kana_pref":"ﾁﾊﾞｹﾝ","kana_city":"ｻﾝﾑｼ","kana_address":"","pref":"千葉県","city":"山武市","address":""},
{"zip_code":"2891203","kana_pref":"ﾁﾊﾞｹﾝ","kana_city":"ｻﾝﾑｼ","kana_address":"ｱｿｳｼﾝﾃﾞﾝ","pref":"千葉県","city":"山武市","address":"麻生新田"},
{"zip_code":"2891213","kana_pref":"ﾁﾊﾞｹﾝ","kana_city":"ｻﾝﾑｼ","kana_address":"ｱﾒﾂﾎﾞ","pref":"千葉県","city":"山武市","address":"雨坪"},
{"zip_code":"2891201","kana_pref":"ﾁﾊﾞｹﾝ","kana_city":"ｻﾝﾑｼ","kana_address":"ｲﾀｶﾞﾜ","pref":"千葉県","city":"山武市","address":"板川"},
{"zip_code":"2891335","kana_pref":"ﾁﾊﾞｹﾝ","kana_city":"ｻﾝﾑｼ","kana_address":"ｲﾀﾂｷ","pref":"千葉県","city":"山武市","address":"板附"},
{"zip_code":"2891222","kana_pref":"ﾁﾊﾞｹﾝ","kana_city":"ｻﾝﾑｼ","kana_address":"ｲﾀﾅｶｼﾝﾃﾞﾝ","pref":"千葉県","city":"山武市","address":"板中新田"},
{"zip_code":"2891333","kana_pref":"ﾁﾊﾞｹﾝ","kana_city":"ｻﾝﾑｼ","kana_address":"ｲﾁﾊﾞ","pref":"千葉県","city":"山武市","address":"市場"},
{"zip_code":"2891304","kana_pref":"ﾁﾊﾞｹﾝ","kana_city":"ｻﾝﾑｼ","kana_address":"ｲﾉｳﾁ","pref":"千葉県","city":"山武市","address":"井之内"},
{"zip_code":"2891216","kana_pref":"ﾁﾊﾞｹﾝ","kana_city":"ｻﾝﾑｼ","kana_address":"ｳｴｸｻ","pref":"千葉県","city":"山武市","address":"植草"},
{"zip_code":"2891211","kana_pref":"ﾁﾊﾞｹﾝ","kana_city":"ｻﾝﾑｼ","kana_address":"ｵｵｷﾞ","pref":"千葉県","city":"山武市","address":"大木"},
{"zip_code":"2891225","kana_pref":"ﾁﾊﾞｹﾝ","kana_city":"ｻﾝﾑｼ","kana_address":"ｵｷﾜﾀｼ","pref":"千葉県","city":"山武市","address":"沖渡"},
{"zip_code":"2891332","kana_pref":"ﾁﾊﾞｹﾝ","kana_city":"ｻﾝﾑｼ","kana_address":"ｵﾔﾀﾞ","pref":"千葉県","city":"山武市","address":"親田"},
{"zip_code":"2891313","kana_pref":"ﾁﾊﾞｹﾝ","kana_city":"ｻﾝﾑｼ","kana_address":"ｶﾐﾖｺｼﾞ","pref":"千葉県","city":"山武市","address":"上横地"},
{"zip_code":"2891331","kana_pref":"ﾁﾊﾞｹﾝ","kana_city":"ｻﾝﾑｼ","kana_address":"ｶﾜｻｷ","pref":"千葉県","city":"山武市","address":"川崎"},
{"zip_code":"2891301","kana_pref":"ﾁﾊﾞｹﾝ","kana_city":"ｻﾝﾑｼ","kana_address":"ｷﾄﾞ","pref":"千葉県","city":"山武市","address":"木戸"},
{"zip_code":"2891212","kana_pref":"ﾁﾊﾞｹﾝ","kana_city":"ｻﾝﾑｼ","kana_address":"ｷﾊﾞﾗ","pref":"千葉県","city":"山武市","address":"木原"},
{"zip_code":"2891315","kana_pref":"ﾁﾊﾞｹﾝ","kana_city":"ｻﾝﾑｼ","kana_address":"ｸｻﾌﾞｶ","pref":"千葉県","city":"山武市","address":"草深"},
{"zip_code":"2891317","kana_pref":"ﾁﾊﾞｹﾝ","kana_city":"ｻﾝﾑｼ","kana_address":"ｺｲｽﾞﾐ","pref":"千葉県","city":"山武市","address":"小泉"},
{"zip_code":"2891316","kana_pref":"ﾁﾊﾞｹﾝ","kana_city":"ｻﾝﾑｼ","kana_address":"ｺﾞｷﾀ","pref":"千葉県","city":"山武市","address":"五木田"},
{"zip_code":"2891302","kana_pref":"ﾁﾊﾞｹﾝ","kana_city":"ｻﾝﾑｼ","kana_address":"ｺﾏﾂ","pref":"千葉県","city":"山武市","address":"小松"},
{"zip_code":"2891221","kana_pref":"ﾁﾊﾞｹﾝ","kana_city":"ｻﾝﾑｼ","kana_address":"ｻﾈｶﾄﾞ","pref":"千葉県","city":"山武市","address":"実門"},
{"zip_code":"2891205","kana_pref":"ﾁﾊﾞｹﾝ","kana_city":"ｻﾝﾑｼ","kana_address":"ｼｲｻﾞｷ","pref":"千葉県","city":"山武市","address":"椎崎"},
{"zip_code":"2891312","kana_pref":"ﾁﾊﾞｹﾝ","kana_city":"ｻﾝﾑｼ","kana_address":"ｼﾊﾞﾊﾗ","pref":"千葉県","city":"山武市","address":"柴原"},
{"zip_code":"2891325","kana_pref":"ﾁﾊﾞｹﾝ","kana_city":"ｻﾝﾑｼ","kana_address":"ｼﾏ","pref":"千葉県","city":"山武市","address":"島"},
{"zip_code":"2891342","kana_pref":"ﾁﾊﾞｹﾝ","kana_city":"ｻﾝﾑｼ","kana_address":"ｼﾏﾄﾞ","pref":"千葉県","city":"山武市","address":"島戸"},
{"zip_code":"2891217","kana_pref":"ﾁﾊﾞｹﾝ","kana_city":"ｻﾝﾑｼ","kana_address":"ｼﾓﾌﾀﾞ","pref":"千葉県","city":"山武市","address":"下布田"},
{"zip_code":"2891314","kana_pref":"ﾁﾊﾞｹﾝ","kana_city":"ｻﾝﾑｼ","kana_address":"ｼﾓﾖｺﾁﾞ","pref":"千葉県","city":"山武市","address":"下横地"},
{"zip_code":"2891306","kana_pref":"ﾁﾊﾞｹﾝ","kana_city":"ｻﾝﾑｼ","kana_address":"ｼﾗﾊﾀ","pref":"千葉県","city":"山武市","address":"白幡"},
{"zip_code":"2891343","kana_pref":"ﾁﾊﾞｹﾝ","kana_city":"ｻﾝﾑｼ","kana_address":"ｼﾝｷﾞｮｳｼﾞ","pref":"千葉県","city":"山武市","address":"真行寺"},
{"zip_code":"2891345","kana_pref":"ﾁﾊﾞｹﾝ","kana_city":"ｻﾝﾑｼ","kana_address":"ﾂﾍﾞ","pref":"千葉県","city":"山武市","address":"津辺"},
{"zip_code":"2891318","kana_pref":"ﾁﾊﾞｹﾝ","kana_city":"ｻﾝﾑｼ","kana_address":"ﾃﾗｻﾞｷ","pref":"千葉県","city":"山武市","address":"寺崎"},
{"zip_code":"2891204","kana_pref":"ﾁﾊﾞｹﾝ","kana_city":"ｻﾝﾑｼ","kana_address":"ﾄﾀﾞ","pref":"千葉県","city":"山武市","address":"戸田"},
{"zip_code":"2891324","kana_pref":"ﾁﾊﾞｹﾝ","kana_city":"ｻﾝﾑｼ","kana_address":"ﾄﾉﾀﾞｲ","pref":"千葉県","city":"山武市","address":"殿台"},
{"zip_code":"2891323","kana_pref":"ﾁﾊﾞｹﾝ","kana_city":"ｻﾝﾑｼ","kana_address":"ﾄﾐｸﾞﾁ","pref":"千葉県","city":"山武市","address":"富口"},
{"zip_code":"2891321","kana_pref":"ﾁﾊﾞｹﾝ","kana_city":"ｻﾝﾑｼ","kana_address":"ﾄﾐﾀﾞ","pref":"千葉県","city":"山武市","address":"富田"},
{"zip_code":"2891322","kana_pref":"ﾁﾊﾞｹﾝ","kana_city":"ｻﾝﾑｼ","kana_address":"ﾄﾐﾀﾞｺﾞｳﾔ","pref":"千葉県","city":"山武市","address":"富田幸谷"},
{"zip_code":"2891202","kana_pref":"ﾁﾊﾞｹﾝ","kana_city":"ｻﾝﾑｼ","kana_address":"ﾅｶﾂﾀ","pref":"千葉県","city":"山武市","address":"中津田"},
{"zip_code":"2891326","kana_pref":"ﾁﾊﾞｹﾝ","kana_city":"ｻﾝﾑｼ","kana_address":"ﾅﾙﾄｳ","pref":"千葉県","city":"山武市","address":"成東"},
{"zip_code":"2891344","kana_pref":"ﾁﾊﾞｹﾝ","kana_city":"ｻﾝﾑｼ","kana_address":"ﾆｲﾉﾐ","pref":"千葉県","city":"山武市","address":"新泉"},
{"zip_code":"2891341","kana_pref":"ﾁﾊﾞｹﾝ","kana_city":"ｻﾝﾑｼ","kana_address":"ﾉﾎﾞﾘ","pref":"千葉県","city":"山武市","address":"野堀"},
{"zip_code":"2891801","kana_pref":"ﾁﾊﾞｹﾝ","kana_city":"ｻﾝﾑｼ","kana_address":"ﾊｽﾇﾏｲ","pref":"千葉県","city":"山武市","address":"蓮沼イ"},
{"zip_code":"2891805","kana_pref":"ﾁﾊﾞｹﾝ","kana_city":"ｻﾝﾑｼ","kana_address":"ﾊｽﾇﾏﾆ","pref":"千葉県","city":"山武市","address":"蓮沼ニ"},
{"zip_code":"2891806","kana_pref":"ﾁﾊﾞｹﾝ","kana_city":"ｻﾝﾑｼ","kana_address":"ﾊｽﾇﾏﾊ","pref":"千葉県","city":"山武市","address":"蓮沼ハ"},
{"zip_code":"2891804","kana_pref":"ﾁﾊﾞｹﾝ","kana_city":"ｻﾝﾑｼ","kana_address":"ﾊｽﾇﾏﾋﾗ","pref":"千葉県","city":"山武市","address":"蓮沼平"},
{"zip_code":"2891803","kana_pref":"ﾁﾊﾞｹﾝ","kana_city":"ｻﾝﾑｼ","kana_address":"ﾊｽﾇﾏﾎ","pref":"千葉県","city":"山武市","address":"蓮沼ホ"},
{"zip_code":"2891802","kana_pref":"ﾁﾊﾞｹﾝ","kana_city":"ｻﾝﾑｼ","kana_address":"ﾊｽﾇﾏﾛ","pref":"千葉県","city":"山武市","address":"蓮沼ロ"},
{"zip_code":"2891223","kana_pref":"ﾁﾊﾞｹﾝ","kana_city":"ｻﾝﾑｼ","kana_address":"ﾊﾆﾔ","pref":"千葉県","city":"山武市","address":"埴谷"},
{"zip_code":"2891311","kana_pref":"ﾁﾊﾞｹﾝ","kana_city":"ｻﾝﾑｼ","kana_address":"ﾊﾔﾌﾈ","pref":"千葉県","city":"山武市","address":"早船"},
{"zip_code":"2891327","kana_pref":"ﾁﾊﾞｹﾝ","kana_city":"ｻﾝﾑｼ","kana_address":"ﾋﾒｼﾏ","pref":"千葉県","city":"山武市","address":"姫島"},
{"zip_code":"2891206","kana_pref":"ﾁﾊﾞｹﾝ","kana_city":"ｻﾝﾑｼ","kana_address":"ﾋｭｳｶﾞﾀﾞｲ","pref":"千葉県","city":"山武市","address":"日向台"},
{"zip_code":"2891524","kana_pref":"ﾁﾊﾞｹﾝ","kana_city":"ｻﾝﾑｼ","kana_address":"ﾏﾂｵﾏﾁｲﾜｲﾀ","pref":"千葉県","city":"山武市","address":"松尾町祝田"},
{"zip_code":"2891527","kana_pref":"ﾁﾊﾞｹﾝ","kana_city":"ｻﾝﾑｼ","kana_address":"ﾏﾂｵﾏﾁｵｵﾂﾂﾐ","pref":"千葉県","city":"山武市","address":"松尾町大堤"},
{"zip_code":"2891507","kana_pref":"ﾁﾊﾞｹﾝ","kana_city":"ｻﾝﾑｼ","kana_address":"ﾏﾂｵﾏﾁｵｶﾞﾜ","pref":"千葉県","city":"山武市","address":"松尾町小川"},
{"zip_code":"2891535","kana_pref":"ﾁﾊﾞｹﾝ","kana_city":"ｻﾝﾑｼ","kana_address":"ﾏﾂｵﾏﾁｵﾘﾄ","pref":"千葉県","city":"山武市","address":"松尾町折戸"},
{"zip_code":"2891537","kana_pref":"ﾁﾊﾞｹﾝ","kana_city":"ｻﾝﾑｼ","kana_address":"ﾏﾂｵﾏﾁｶｼｹﾎﾝｺﾞｳ","pref":"千葉県","city":"山武市","address":"松尾町借毛本郷"},
{"zip_code":"2891511","kana_pref":"ﾁﾊﾞｹﾝ","kana_city":"ｻﾝﾑｼ","kana_address":"ﾏﾂｵﾏﾁｶﾌﾞﾗｷ","pref":"千葉県","city":"山武市","address":"松尾町蕪木"},
{"zip_code":"2891506","kana_pref":"ﾁﾊﾞｹﾝ","kana_city":"ｻﾝﾑｼ","kana_address":"ﾏﾂｵﾏﾁｶﾐｵｵｸﾗ","pref":"千葉県","city":"山武市","address":"松尾町上大蔵"},
{"zip_code":"2891505","kana_pref":"ﾁﾊﾞｹﾝ","kana_city":"ｻﾝﾑｼ","kana_address":"ﾏﾂｵﾏﾁｶﾝﾉｵ","pref":"千葉県","city":"山武市","address":"松尾町金尾"},
{"zip_code":"2891531","kana_pref":"ﾁﾊﾞｹﾝ","kana_city":"ｻﾝﾑｼ","kana_address":"ﾏﾂｵﾏﾁｷｶﾞﾀﾅ","pref":"千葉県","city":"山武市","address":"松尾町木刀"},
{"zip_code":"2891523","kana_pref":"ﾁﾊﾞｹﾝ","kana_city":"ｻﾝﾑｼ","kana_address":"ﾏﾂｵﾏﾁｺﾞﾀﾝﾀﾞ","pref":"千葉県","city":"山武市","address":"松尾町五反田"},
{"zip_code":"2891504","kana_pref":"ﾁﾊﾞｹﾝ","kana_city":"ｻﾝﾑｼ","kana_address":"ﾏﾂｵﾏﾁｺﾜ","pref":"千葉県","city":"山武市","address":"松尾町古和"},
{"zip_code":"2891513","kana_pref":"ﾁﾊﾞｹﾝ","kana_city":"ｻﾝﾑｼ","kana_address":"ﾏﾂｵﾏﾁｻﾙｵ","pref":"千葉県","city":"山武市","address":"松尾町猿尾"},
{"zip_code":"2891517","kana_pref":"ﾁﾊﾞｹﾝ","kana_city":"ｻﾝﾑｼ","kana_address":"ﾏﾂｵﾏﾁｼﾓｵｵｸﾗ","pref":"千葉県","city":"山武市","address":"松尾町下大蔵"},
{"zip_code":"2891534","kana_pref":"ﾁﾊﾞｹﾝ","kana_city":"ｻﾝﾑｼ","kana_address":"ﾏﾂｵﾏﾁｼﾓﾉ","pref":"千葉県","city":"山武市","address":"松尾町下野"},
{"zip_code":"2891536","kana_pref":"ﾁﾊﾞｹﾝ","kana_city":"ｻﾝﾑｼ","kana_address":"ﾏﾂｵﾏﾁｼﾓﾉｺﾞｳ","pref":"千葉県","city":"山武市","address":"松尾町下之郷"},
{"zip_code":"2891522","kana_pref":"ﾁﾊﾞｹﾝ","kana_city":"ｻﾝﾑｼ","kana_address":"ﾏﾂｵﾏﾁﾀｶﾄﾐ","pref":"千葉県","city":"山武市","address":"松尾町高富"},
{"zip_code":"2891532","kana_pref":"ﾁﾊﾞｹﾝ","kana_city":"ｻﾝﾑｼ","kana_address":"ﾏﾂｵﾏﾁﾀｹﾉｻﾄ","pref":"千葉県","city":"山武市","address":"松尾町武野里"},
{"zip_code":"2891516","kana_pref":"ﾁﾊﾞｹﾝ","kana_city":"ｻﾝﾑｼ","kana_address":"ﾏﾂｵﾏﾁﾀｺｴ","pref":"千葉県","city":"山武市","address":"松尾町田越"},
{"zip_code":"2891512","kana_pref":"ﾁﾊﾞｹﾝ","kana_city":"ｻﾝﾑｼ","kana_address":"ﾏﾂｵﾏﾁﾊｯﾀ","pref":"千葉県","city":"山武市","address":"松尾町八田"},
{"zip_code":"2891502","kana_pref":"ﾁﾊﾞｹﾝ","kana_city":"ｻﾝﾑｼ","kana_address":"ﾏﾂｵﾏﾁﾋｯｺｼ","pref":"千葉県","city":"山武市","address":"松尾町引越"},
{"zip_code":"2891533","kana_pref":"ﾁﾊﾞｹﾝ","kana_city":"ｻﾝﾑｼ","kana_address":"ﾏﾂｵﾏﾁﾋﾛﾈ","pref":"千葉県","city":"山武市","address":"松尾町広根"},
{"zip_code":"2891515","kana_pref":"ﾁﾊﾞｹﾝ","kana_city":"ｻﾝﾑｼ","kana_address":"ﾏﾂｵﾏﾁﾌｼﾞﾐﾀﾞｲ","pref":"千葉県","city":"山武市","address":"松尾町富士見台"},
{"zip_code":"2891514","kana_pref":"ﾁﾊﾞｹﾝ","kana_city":"ｻﾝﾑｼ","kana_address":"ﾏﾂｵﾏﾁﾏﾂｵ","pref":"千葉県","city":"山武市","address":"松尾町松尾"},
{"zip_code":"2891526","kana_pref":"ﾁﾊﾞｹﾝ","kana_city":"ｻﾝﾑｼ","kana_address":"ﾏﾂｵﾏﾁﾐｽﾞﾌｶ","pref":"千葉県","city":"山武市","address":"松尾町水深"},
{"zip_code":"2891521","kana_pref":"ﾁﾊﾞｹﾝ","kana_city":"ｻﾝﾑｼ","kana_address":"ﾏﾂｵﾏﾁﾓﾄｶﾞｼﾜ","pref":"千葉県","city":"山武市","address":"松尾町本柏"},
{"zip_code":"2891525","kana_pref":"ﾁﾊﾞｹﾝ","kana_city":"ｻﾝﾑｼ","kana_address":"ﾏﾂｵﾏﾁﾓﾄﾐｽﾞﾌｶ","pref":"千葉県","city":"山武市","address":"松尾町本水深"},
{"zip_code":"2891503","kana_pref":"ﾁﾊﾞｹﾝ","kana_city":"ｻﾝﾑｼ","kana_address":"ﾏﾂｵﾏﾁﾔﾂ","pref":"千葉県","city":"山武市","address":"松尾町谷津"},
{"zip_code":"2891501","kana_pref":"ﾁﾊﾞｹﾝ","kana_city":"ｻﾝﾑｼ","kana_address":"ﾏﾂｵﾏﾁﾔﾏﾑﾛ","pref":"千葉県","city":"山武市","address":"松尾町山室"},
{"zip_code":"2891303","kana_pref":"ﾁﾊﾞｹﾝ","kana_city":"ｻﾝﾑｼ","kana_address":"ﾏﾂｶﾞﾔ","pref":"千葉県","city":"山武市","address":"松ケ谷"},
{"zip_code":"2891224","kana_pref":"ﾁﾊﾞｹﾝ","kana_city":"ｻﾝﾑｼ","kana_address":"ﾐｽｷﾞﾉ","pref":"千葉県","city":"山武市","address":"美杉野"},
{"zip_code":"2891218","kana_pref":"ﾁﾊﾞｹﾝ","kana_city":"ｻﾝﾑｼ","kana_address":"ﾑｼｮｳ","pref":"千葉県","city":"山武市","address":"武勝"},
{"zip_code":"2891305","kana_pref":"ﾁﾊﾞｹﾝ","kana_city":"ｻﾝﾑｼ","kana_address":"ﾓﾄｽｶ","pref":"千葉県","city":"山武市","address":"本須賀"},
{"zip_code":"2891214","kana_pref":"ﾁﾊﾞｹﾝ","kana_city":"ｻﾝﾑｼ","kana_address":"ﾓﾘ","pref":"千葉県","city":"山武市","address":"森"},
{"zip_code":"2891215","kana_pref":"ﾁﾊﾞｹﾝ","kana_city":"ｻﾝﾑｼ","kana_address":"ﾔﾍﾞ","pref":"千葉県","city":"山武市","address":"矢部"},
{"zip_code":"2891328","kana_pref":"ﾁﾊﾞｹﾝ","kana_city":"ｻﾝﾑｼ","kana_address":"ﾕｻｶ","pref":"千葉県","city":"山武市","address":"湯坂"},
{"zip_code":"2891226","kana_pref":"ﾁﾊﾞｹﾝ","kana_city":"ｻﾝﾑｼ","kana_address":"ﾖｺﾀ","pref":"千葉県","city":"山武市","address":"横田"},
{"zip_code":"2891334","kana_pref":"ﾁﾊﾞｹﾝ","kana_city":"ｻﾝﾑｼ","kana_address":"ﾜﾀﾞ","pref":"千葉県","city":"山武市","address":"和田"},
{"zip_code":"2890100","kana_pref":"ﾁﾊﾞｹﾝ","kana_city":"ｶﾄﾘｸﾞﾝｺｳｻﾞｷﾏﾁ","kana_address":"","pref":"千葉県","city":"香取郡神崎町","address":""},
{"zip_code":"2890205","kana_pref":"ﾁﾊﾞｹﾝ","kana_city":"ｶﾄﾘｸﾞﾝｺｳｻﾞｷﾏﾁ","kana_address":"ｲﾏ","pref":"千葉県","city":"香取郡神崎町","address":"今"},
{"zip_code":"2890216","kana_pref":"ﾁﾊﾞｹﾝ","kana_city":"ｶﾄﾘｸﾞﾝｺｳｻﾞｷﾏﾁ","kana_address":"ｳｴﾎﾞｳ","pref":"千葉県","city":"香取郡神崎町","address":"植房"},
{"zip_code":"2890203","kana_pref":"ﾁﾊﾞｹﾝ","kana_city":"ｶﾄﾘｸﾞﾝｺｳｻﾞｷﾏﾁ","kana_address":"ｵｵﾇｷ","pref":"千葉県","city":"香取郡神崎町","address":"大貫"},
{"zip_code":"2890214","kana_pref":"ﾁﾊﾞｹﾝ","kana_city":"ｶﾄﾘｸﾞﾝｺｳｻﾞｷﾏﾁ","kana_address":"ｹﾅﾘ","pref":"千葉県","city":"香取郡神崎町","address":"毛成"},
{"zip_code":"2890226","kana_pref":"ﾁﾊﾞｹﾝ","kana_city":"ｶﾄﾘｸﾞﾝｺｳｻﾞｷﾏﾁ","kana_address":"ｺｳｻﾞｷｼﾝｼｭｸ","pref":"千葉県","city":"香取郡神崎町","address":"神崎神宿"},
{"zip_code":"2890221","kana_pref":"ﾁﾊﾞｹﾝ","kana_city":"ｶﾄﾘｸﾞﾝｺｳｻﾞｷﾏﾁ","kana_address":"ｺｳｻﾞｷﾎﾝｼｭｸ","pref":"千葉県","city":"香取郡神崎町","address":"神崎本宿"},
{"zip_code":"2890201","kana_pref":"ﾁﾊﾞｹﾝ","kana_city":"ｶﾄﾘｸﾞﾝｺｳｻﾞｷﾏﾁ","kana_address":"ｺｳﾔ","pref":"千葉県","city":"香取郡神崎町","address":"高谷"},
{"zip_code":"2890202","kana_pref":"ﾁﾊﾞｹﾝ","kana_city":"ｶﾄﾘｸﾞﾝｺｳｻﾞｷﾏﾁ","kana_address":"ｺｵﾘ","pref":"千葉県","city":"香取郡神崎町","address":"郡"},
{"zip_code":"2890215","kana_pref":"ﾁﾊﾞｹﾝ","kana_city":"ｶﾄﾘｸﾞﾝｺｳｻﾞｷﾏﾁ","kana_address":"ｺﾊﾗ","pref":"千葉県","city":"香取郡神崎町","address":"古原"},
{"zip_code":"2890223","kana_pref":"ﾁﾊﾞｹﾝ","kana_city":"ｶﾄﾘｸﾞﾝｺｳｻﾞｷﾏﾁ","kana_address":"ｺﾏﾂ","pref":"千葉県","city":"香取郡神崎町","address":"小松"},
{"zip_code":"2890204","kana_pref":"ﾁﾊﾞｹﾝ","kana_city":"ｶﾄﾘｸﾞﾝｺｳｻﾞｷﾏﾁ","kana_address":"ｼｷﾉｵｶ","pref":"千葉県","city":"香取郡神崎町","address":"四季の丘"},
{"zip_code":"2890225","kana_pref":"ﾁﾊﾞｹﾝ","kana_city":"ｶﾄﾘｸﾞﾝｺｳｻﾞｷﾏﾁ","kana_address":"ｼﾞｭｳｻﾝﾏﾄﾞ","pref":"千葉県","city":"香取郡神崎町","address":"十三間戸"},
{"zip_code":"2890213","kana_pref":"ﾁﾊﾞｹﾝ","kana_city":"ｶﾄﾘｸﾞﾝｺｳｻﾞｷﾏﾁ","kana_address":"ｼﾝ","pref":"千葉県","city":"香取郡神崎町","address":"新"},
{"zip_code":"2890212","kana_pref":"ﾁﾊﾞｹﾝ","kana_city":"ｶﾄﾘｸﾞﾝｺｳｻﾞｷﾏﾁ","kana_address":"ﾀｹﾀﾞ","pref":"千葉県","city":"香取郡神崎町","address":"武田"},
{"zip_code":"2890211","kana_pref":"ﾁﾊﾞｹﾝ","kana_city":"ｶﾄﾘｸﾞﾝｺｳｻﾞｷﾏﾁ","kana_address":"ﾀﾁﾉ","pref":"千葉県","city":"香取郡神崎町","address":"立野"},
{"zip_code":"2890222","kana_pref":"ﾁﾊﾞｹﾝ","kana_city":"ｶﾄﾘｸﾞﾝｺｳｻﾞｷﾏﾁ","kana_address":"ﾅﾐｷ","pref":"千葉県","city":"香取郡神崎町","address":"並木"},
{"zip_code":"2890217","kana_pref":"ﾁﾊﾞｹﾝ","kana_city":"ｶﾄﾘｸﾞﾝｺｳｻﾞｷﾏﾁ","kana_address":"ﾌｼﾞﾉﾀﾞｲ","pref":"千葉県","city":"香取郡神崎町","address":"藤の台"},
{"zip_code":"2890224","kana_pref":"ﾁﾊﾞｹﾝ","kana_city":"ｶﾄﾘｸﾞﾝｺｳｻﾞｷﾏﾁ","kana_address":"ﾏﾂｻﾞｷ","pref":"千葉県","city":"香取郡神崎町","address":"松崎"},
{"zip_code":"2892200","kana_pref":"ﾁﾊﾞｹﾝ","kana_city":"ｶﾄﾘｸﾞﾝﾀｺﾏﾁ","kana_address":"","pref":"千葉県","city":"香取郡多古町","address":""},
{"zip_code":"2892231","kana_pref":"ﾁﾊﾞｹﾝ","kana_city":"ｶﾄﾘｸﾞﾝﾀｺﾏﾁ","kana_address":"ｲｲｻﾞｻ","pref":"千葉県","city":"香取郡多古町","address":"飯笹"},
{"zip_code":"2892301","kana_pref":"ﾁﾊﾞｹﾝ","kana_city":"ｶﾄﾘｸﾞﾝﾀｺﾏﾁ","kana_address":"ｲﾃﾞﾇﾏ","pref":"千葉県","city":"香取郡多古町","address":"出沼"},
{"zip_code":"2892317","kana_pref":"ﾁﾊﾞｹﾝ","kana_city":"ｶﾄﾘｸﾞﾝﾀｺﾏﾁ","kana_address":"ｲﾄﾞﾔﾏ","pref":"千葉県","city":"香取郡多古町","address":"井戸山"},
{"zip_code":"2892245","kana_pref":"ﾁﾊﾞｹﾝ","kana_city":"ｶﾄﾘｸﾞﾝﾀｺﾏﾁ","kana_address":"ｳｼﾉｵ","pref":"千葉県","city":"香取郡多古町","address":"牛尾"},
{"zip_code":"2892303","kana_pref":"ﾁﾊﾞｹﾝ","kana_city":"ｶﾄﾘｸﾞﾝﾀｺﾏﾁ","kana_address":"ｵｵｶﾄﾞ","pref":"千葉県","city":"香取郡多古町","address":"大門"},
{"zip_code":"2892305","kana_pref":"ﾁﾊﾞｹﾝ","kana_city":"ｶﾄﾘｸﾞﾝﾀｺﾏﾁ","kana_address":"ｵｵﾀｶ","pref":"千葉県","city":"香取郡多古町","address":"大高"},
{"zip_code":"2892324","kana_pref":"ﾁﾊﾞｹﾝ","kana_city":"ｶﾄﾘｸﾞﾝﾀｺﾏﾁ","kana_address":"ｶﾜｼﾏ","pref":"千葉県","city":"香取郡多古町","address":"川島"},
{"zip_code":"2892232","kana_pref":"ﾁﾊﾞｹﾝ","kana_city":"ｶﾄﾘｸﾞﾝﾀｺﾏﾁ","kana_address":"ｷﾀ","pref":"千葉県","city":"香取郡多古町","address":"喜多"},
{"zip_code":"2892251","kana_pref":"ﾁﾊﾞｹﾝ","kana_city":"ｶﾄﾘｸﾞﾝﾀｺﾏﾁ","kana_address":"ｷﾀﾅｶ","pref":"千葉県","city":"香取郡多古町","address":"北中"},
{"zip_code":"2892315","kana_pref":"ﾁﾊﾞｹﾝ","kana_city":"ｶﾄﾘｸﾞﾝﾀｺﾏﾁ","kana_address":"ｺﾞｼｮﾀﾞｲ","pref":"千葉県","city":"香取郡多古町","address":"御所台"},
{"zip_code":"2892234","kana_pref":"ﾁﾊﾞｹﾝ","kana_city":"ｶﾄﾘｸﾞﾝﾀｺﾏﾁ","kana_address":"ｺﾞﾀﾝﾀﾞ","pref":"千葉県","city":"香取郡多古町","address":"五反田"},
{"zip_code":"2892322","kana_pref":"ﾁﾊﾞｹﾝ","kana_city":"ｶﾄﾘｸﾞﾝﾀｺﾏﾁ","kana_address":"ｻｶ","pref":"千葉県","city":"香取郡多古町","address":"坂"},
{"zip_code":"2892312","kana_pref":"ﾁﾊﾞｹﾝ","kana_city":"ｶﾄﾘｸﾞﾝﾀｺﾏﾁ","kana_address":"ｻｸﾐｸﾗ","pref":"千葉県","city":"香取郡多古町","address":"谷三倉"},
{"zip_code":"2892243","kana_pref":"ﾁﾊﾞｹﾝ","kana_city":"ｶﾄﾘｸﾞﾝﾀｺﾏﾁ","kana_address":"ｼﾏ","pref":"千葉県","city":"香取郡多古町","address":"島"},
{"zip_code":"2892242","kana_pref":"ﾁﾊﾞｹﾝ","kana_city":"ｶﾄﾘｸﾞﾝﾀｺﾏﾁ","kana_address":"ｿﾒｲ","pref":"千葉県","city":"香取郡多古町","address":"染井"},
{"zip_code":"2892304","kana_pref":"ﾁﾊﾞｹﾝ","kana_city":"ｶﾄﾘｸﾞﾝﾀｺﾏﾁ","kana_address":"ﾀｶﾂﾊﾗ","pref":"千葉県","city":"香取郡多古町","address":"高津原"},
{"zip_code":"2892241","kana_pref":"ﾁﾊﾞｹﾝ","kana_city":"ｶﾄﾘｸﾞﾝﾀｺﾏﾁ","kana_address":"ﾀｺ","pref":"千葉県","city":"香取郡多古町","address":"多古"},
{"zip_code":"2892246","kana_pref":"ﾁﾊﾞｹﾝ","kana_city":"ｶﾄﾘｸﾞﾝﾀｺﾏﾁ","kana_address":"ﾁﾀﾞ","pref":"千葉県","city":"香取郡多古町","address":"千田"},
{"zip_code":"2892313","kana_pref":"ﾁﾊﾞｹﾝ","kana_city":"ｶﾄﾘｸﾞﾝﾀｺﾏﾁ","kana_address":"ﾂｷﾞｳﾗ","pref":"千葉県","city":"香取郡多古町","address":"次浦"},
{"zip_code":"2892316","kana_pref":"ﾁﾊﾞｹﾝ","kana_city":"ｶﾄﾘｸﾞﾝﾀｺﾏﾁ","kana_address":"ﾃﾗｻｸ","pref":"千葉県","city":"香取郡多古町","address":"寺作"},
{"zip_code":"2892254","kana_pref":"ﾁﾊﾞｹﾝ","kana_city":"ｶﾄﾘｸﾞﾝﾀｺﾏﾁ","kana_address":"ﾄｳｷ","pref":"千葉県","city":"香取郡多古町","address":"東輝"},
{"zip_code":"2892306","kana_pref":"ﾁﾊﾞｹﾝ","kana_city":"ｶﾄﾘｸﾞﾝﾀｺﾏﾁ","kana_address":"ﾄﾖﾐ","pref":"千葉県","city":"香取郡多古町","address":"十余三"},
{"zip_code":"2892256","kana_pref":"ﾁﾊﾞｹﾝ","kana_city":"ｶﾄﾘｸﾞﾝﾀｺﾏﾁ","kana_address":"ﾅｶﾑﾗｼﾝﾃﾞﾝ","pref":"千葉県","city":"香取郡多古町","address":"中村新田"},
{"zip_code":"2892314","kana_pref":"ﾁﾊﾞｹﾝ","kana_city":"ｶﾄﾘｸﾞﾝﾀｺﾏﾁ","kana_address":"ﾆｼﾌﾙｳﾁ","pref":"千葉県","city":"香取郡多古町","address":"西古内"},
{"zip_code":"2892233","kana_pref":"ﾁﾊﾞｹﾝ","kana_city":"ｶﾄﾘｸﾞﾝﾀｺﾏﾁ","kana_address":"ﾊﾔｼ","pref":"千葉県","city":"香取郡多古町","address":"林"},
{"zip_code":"2892321","kana_pref":"ﾁﾊﾞｹﾝ","kana_city":"ｶﾄﾘｸﾞﾝﾀｺﾏﾁ","kana_address":"ﾋｶﾞｼﾏﾂｻｷ","pref":"千葉県","city":"香取郡多古町","address":"東松崎"},
{"zip_code":"2892236","kana_pref":"ﾁﾊﾞｹﾝ","kana_city":"ｶﾄﾘｸﾞﾝﾀｺﾏﾁ","kana_address":"ﾋﾄｸﾜﾀﾞ","pref":"千葉県","city":"香取郡多古町","address":"一鍬田"},
{"zip_code":"2892302","kana_pref":"ﾁﾊﾞｹﾝ","kana_city":"ｶﾄﾘｸﾞﾝﾀｺﾏﾁ","kana_address":"ﾋﾉｷ","pref":"千葉県","city":"香取郡多古町","address":"桧木"},
{"zip_code":"2892244","kana_pref":"ﾁﾊﾞｹﾝ","kana_city":"ｶﾄﾘｸﾞﾝﾀｺﾏﾁ","kana_address":"ﾌﾅｺｼ","pref":"千葉県","city":"香取郡多古町","address":"船越"},
{"zip_code":"2892323","kana_pref":"ﾁﾊﾞｹﾝ","kana_city":"ｶﾄﾘｸﾞﾝﾀｺﾏﾁ","kana_address":"ﾎｳﾀﾞ","pref":"千葉県","city":"香取郡多古町","address":"方田"},
{"zip_code":"2892235","kana_pref":"ﾁﾊﾞｹﾝ","kana_city":"ｶﾄﾘｸﾞﾝﾀｺﾏﾁ","kana_address":"ﾏｸﾞﾗ","pref":"千葉県","city":"香取郡多古町","address":"間倉"},
{"zip_code":"2892247","kana_pref":"ﾁﾊﾞｹﾝ","kana_city":"ｶﾄﾘｸﾞﾝﾀｺﾏﾁ","kana_address":"ﾐﾄ","pref":"千葉県","city":"香取郡多古町","address":"水戸"},
{"zip_code":"2892253","kana_pref":"ﾁﾊﾞｹﾝ","kana_city":"ｶﾄﾘｸﾞﾝﾀｺﾏﾁ","kana_address":"ﾐﾅﾐｶﾘｱﾃ","pref":"千葉県","city":"香取郡多古町","address":"南借当"},
{"zip_code":"2892325","kana_pref":"ﾁﾊﾞｹﾝ","kana_city":"ｶﾄﾘｸﾞﾝﾀｺﾏﾁ","kana_address":"ﾐﾅﾐﾀﾏﾂｸﾘ","pref":"千葉県","city":"香取郡多古町","address":"南玉造"},
{"zip_code":"2892257","kana_pref":"ﾁﾊﾞｹﾝ","kana_city":"ｶﾄﾘｸﾞﾝﾀｺﾏﾁ","kana_address":"ﾐﾅﾐﾅｶ","pref":"千葉県","city":"香取郡多古町","address":"南中"},
{"zip_code":"2892255","kana_pref":"ﾁﾊﾞｹﾝ","kana_city":"ｶﾄﾘｸﾞﾝﾀｺﾏﾁ","kana_address":"ﾐﾅﾐﾅﾐｷ","pref":"千葉県","city":"香取郡多古町","address":"南並木"},
{"zip_code":"2892252","kana_pref":"ﾁﾊﾞｹﾝ","kana_city":"ｶﾄﾘｸﾞﾝﾀｺﾏﾁ","kana_address":"ﾐﾅﾐﾜﾀﾞ","pref":"千葉県","city":"香取郡多古町","address":"南和田"},
{"zip_code":"2892311","kana_pref":"ﾁﾊﾞｹﾝ","kana_city":"ｶﾄﾘｸﾞﾝﾀｺﾏﾁ","kana_address":"ﾓﾄﾐｸﾗ","pref":"千葉県","city":"香取郡多古町","address":"本三倉"},
{"zip_code":"2890600","kana_pref":"ﾁﾊﾞｹﾝ","kana_city":"ｶﾄﾘｸﾞﾝﾄｳﾉｼｮｳﾏﾁ","kana_address":"","pref":"千葉県","city":"香取郡東庄町","address":""},
{"zip_code":"2890627","kana_pref":"ﾁﾊﾞｹﾝ","kana_city":"ｶﾄﾘｸﾞﾝﾄｳﾉｼｮｳﾏﾁ","kana_address":"ｱﾜﾉ","pref":"千葉県","city":"香取郡東庄町","address":"粟野"},
{"zip_code":"2890612","kana_pref":"ﾁﾊﾞｹﾝ","kana_city":"ｶﾄﾘｸﾞﾝﾄｳﾉｼｮｳﾏﾁ","kana_address":"ｲｼﾃﾞ","pref":"千葉県","city":"香取郡東庄町","address":"石出"},
{"zip_code":"2890619","kana_pref":"ﾁﾊﾞｹﾝ","kana_city":"ｶﾄﾘｸﾞﾝﾄｳﾉｼｮｳﾏﾁ","kana_address":"ｲﾏｺﾞｵﾘ","pref":"千葉県","city":"香取郡東庄町","address":"今郡"},
{"zip_code":"2890633","kana_pref":"ﾁﾊﾞｹﾝ","kana_city":"ｶﾄﾘｸﾞﾝﾄｳﾉｼｮｳﾏﾁ","kana_address":"ｵｵｸﾎﾞ","pref":"千葉県","city":"香取郡東庄町","address":"大久保"},
{"zip_code":"2890621","kana_pref":"ﾁﾊﾞｹﾝ","kana_city":"ｶﾄﾘｸﾞﾝﾄｳﾉｼｮｳﾏﾁ","kana_address":"ｵｵﾄﾓ","pref":"千葉県","city":"香取郡東庄町","address":"大友"},
{"zip_code":"2890615","kana_pref":"ﾁﾊﾞｹﾝ","kana_city":"ｶﾄﾘｸﾞﾝﾄｳﾉｼｮｳﾏﾁ","kana_address":"ｵｵﾏ","pref":"千葉県","city":"香取郡東庄町","address":"青馬"},
{"zip_code":"2890622","kana_pref":"ﾁﾊﾞｹﾝ","kana_city":"ｶﾄﾘｸﾞﾝﾄｳﾉｼｮｳﾏﾁ","kana_address":"ｵｻﾞ","pref":"千葉県","city":"香取郡東庄町","address":"小座"},
{"zip_code":"2890635","kana_pref":"ﾁﾊﾞｹﾝ","kana_city":"ｶﾄﾘｸﾞﾝﾄｳﾉｼｮｳﾏﾁ","kana_address":"ｶﾝﾀﾞ","pref":"千葉県","city":"香取郡東庄町","address":"神田"},
{"zip_code":"2890632","kana_pref":"ﾁﾊﾞｹﾝ","kana_city":"ｶﾄﾘｸﾞﾝﾄｳﾉｼｮｳﾏﾁ","kana_address":"ｸﾎﾞﾉﾔ","pref":"千葉県","city":"香取郡東庄町","address":"窪野谷"},
{"zip_code":"2890637","kana_pref":"ﾁﾊﾞｹﾝ","kana_city":"ｶﾄﾘｸﾞﾝﾄｳﾉｼｮｳﾏﾁ","kana_address":"ｺｶﾞｲﾉ","pref":"千葉県","city":"香取郡東庄町","address":"小貝野"},
{"zip_code":"2890624","kana_pref":"ﾁﾊﾞｹﾝ","kana_city":"ｶﾄﾘｸﾞﾝﾄｳﾉｼｮｳﾏﾁ","kana_address":"ｺﾐﾅﾐ","pref":"千葉県","city":"香取郡東庄町","address":"小南"},
{"zip_code":"2890601","kana_pref":"ﾁﾊﾞｹﾝ","kana_city":"ｶﾄﾘｸﾞﾝﾄｳﾉｼｮｳﾏﾁ","kana_address":"ｻｻｶﾞﾜｲ","pref":"千葉県","city":"香取郡東庄町","address":"笹川い"},
{"zip_code":"2890602","kana_pref":"ﾁﾊﾞｹﾝ","kana_city":"ｶﾄﾘｸﾞﾝﾄｳﾉｼｮｳﾏﾁ","kana_address":"ｻｻｶﾞﾜﾛ","pref":"千葉県","city":"香取郡東庄町","address":"笹川ろ"},
{"zip_code":"2890616","kana_pref":"ﾁﾊﾞｹﾝ","kana_city":"ｶﾄﾘｸﾞﾝﾄｳﾉｼｮｳﾏﾁ","kana_address":"ﾀｶﾍﾞ","pref":"千葉県","city":"香取郡東庄町","address":"高部"},
{"zip_code":"2890636","kana_pref":"ﾁﾊﾞｹﾝ","kana_city":"ｶﾄﾘｸﾞﾝﾄｳﾉｼｮｳﾏﾁ","kana_address":"ﾄｳﾜﾀﾞ","pref":"千葉県","city":"香取郡東庄町","address":"東和田"},
{"zip_code":"2890625","kana_pref":"ﾁﾊﾞｹﾝ","kana_city":"ｶﾄﾘｸﾞﾝﾄｳﾉｼｮｳﾏﾁ","kana_address":"ﾅﾂﾒ","pref":"千葉県","city":"香取郡東庄町","address":"夏目"},
{"zip_code":"2890611","kana_pref":"ﾁﾊﾞｹﾝ","kana_city":"ｶﾄﾘｸﾞﾝﾄｳﾉｼｮｳﾏﾁ","kana_address":"ﾆｲｼﾞｭｸ","pref":"千葉県","city":"香取郡東庄町","address":"新宿"},
{"zip_code":"2890617","kana_pref":"ﾁﾊﾞｹﾝ","kana_city":"ｶﾄﾘｸﾞﾝﾄｳﾉｼｮｳﾏﾁ","kana_address":"ﾊﾊﾞｶﾘ","pref":"千葉県","city":"香取郡東庄町","address":"羽計"},
{"zip_code":"2890613","kana_pref":"ﾁﾊﾞｹﾝ","kana_city":"ｶﾄﾘｸﾞﾝﾄｳﾉｼｮｳﾏﾁ","kana_address":"ﾋｶﾞｼｲﾏｲｽﾞﾐ","pref":"千葉県","city":"香取郡東庄町","address":"東今泉"},
{"zip_code":"2890631","kana_pref":"ﾁﾊﾞｹﾝ","kana_city":"ｶﾄﾘｸﾞﾝﾄｳﾉｼｮｳﾏﾁ","kana_address":"ﾋﾗﾔﾏ","pref":"千葉県","city":"香取郡東庄町","address":"平山"},
{"zip_code":"2890634","kana_pref":"ﾁﾊﾞｹﾝ","kana_city":"ｶﾄﾘｸﾞﾝﾄｳﾉｼｮｳﾏﾁ","kana_address":"ﾌﾅﾄﾞ","pref":"千葉県","city":"香取郡東庄町","address":"舟戸"},
{"zip_code":"2890623","kana_pref":"ﾁﾊﾞｹﾝ","kana_city":"ｶﾄﾘｸﾞﾝﾄｳﾉｼｮｳﾏﾁ","kana_address":"ﾐﾔﾉﾀﾞｲ","pref":"千葉県","city":"香取郡東庄町","address":"宮野台"},
{"zip_code":"2890614","kana_pref":"ﾁﾊﾞｹﾝ","kana_city":"ｶﾄﾘｸﾞﾝﾄｳﾉｼｮｳﾏﾁ","kana_address":"ﾐﾔﾓﾄ","pref":"千葉県","city":"香取郡東庄町","address":"宮本"},
{"zip_code":"2890626","kana_pref":"ﾁﾊﾞｹﾝ","kana_city":"ｶﾄﾘｸﾞﾝﾄｳﾉｼｮｳﾏﾁ","kana_address":"ﾔｴﾎﾞ","pref":"千葉県","city":"香取郡東庄町","address":"八重穂"},
{"zip_code":"2890618","kana_pref":"ﾁﾊﾞｹﾝ","kana_city":"ｶﾄﾘｸﾞﾝﾄｳﾉｼｮｳﾏﾁ","kana_address":"ﾔﾂﾞ","pref":"千葉県","city":"香取郡東庄町","address":"谷津"},
{"zip_code":"2891600","kana_pref":"ﾁﾊﾞｹﾝ","kana_city":"ｻﾝﾌﾞｸﾞﾝｼﾊﾞﾔﾏﾏﾁ","kana_address":"","pref":"千葉県","city":"山武郡芝山町","address":""},
{"zip_code":"2891607","kana_pref":"ﾁﾊﾞｹﾝ","kana_city":"ｻﾝﾌﾞｸﾞﾝｼﾊﾞﾔﾏﾏﾁ","kana_address":"ｱｻｸﾗ","pref":"千葉県","city":"山武郡芝山町","address":"朝倉"},
{"zip_code":"2891604","kana_pref":"ﾁﾊﾞｹﾝ","kana_city":"ｻﾝﾌﾞｸﾞﾝｼﾊﾞﾔﾏﾏﾁ","kana_address":"ｲﾋﾞﾂ","pref":"千葉県","city":"山武郡芝山町","address":"飯櫃"},
{"zip_code":"2891608","kana_pref":"ﾁﾊﾞｹﾝ","kana_city":"ｻﾝﾌﾞｸﾞﾝｼﾊﾞﾔﾏﾏﾁ","kana_address":"ｲﾜﾔﾏ","pref":"千葉県","city":"山武郡芝山町","address":"岩山"},
{"zip_code":"2891603","kana_pref":"ﾁﾊﾞｹﾝ","kana_city":"ｻﾝﾌﾞｸﾞﾝｼﾊﾞﾔﾏﾏﾁ","kana_address":"ｵｵｻﾄ","pref":"千葉県","city":"山武郡芝山町","address":"大里"},
{"zip_code":"2891605","kana_pref":"ﾁﾊﾞｹﾝ","kana_city":"ｻﾝﾌﾞｸﾞﾝｼﾊﾞﾔﾏﾏﾁ","kana_address":"ｵｵﾀﾞｲ","pref":"千葉県","city":"山武郡芝山町","address":"大台"},
{"zip_code":"2891611","kana_pref":"ﾁﾊﾞｹﾝ","kana_city":"ｻﾝﾌﾞｸﾞﾝｼﾊﾞﾔﾏﾏﾁ","kana_address":"ｵﾊﾞﾗｸ","pref":"千葉県","city":"山武郡芝山町","address":"小原子"},
{"zip_code":"2891612","kana_pref":"ﾁﾊﾞｹﾝ","kana_city":"ｻﾝﾌﾞｸﾞﾝｼﾊﾞﾔﾏﾏﾁ","kana_address":"ｶﾐﾌｷｲﾚ","pref":"千葉県","city":"山武郡芝山町","address":"上吹入"},
{"zip_code":"2891601","kana_pref":"ﾁﾊﾞｹﾝ","kana_city":"ｻﾝﾌﾞｸﾞﾝｼﾊﾞﾔﾏﾏﾁ","kana_address":"ｶﾔﾏｼﾝﾃﾞﾝ","pref":"千葉県","city":"山武郡芝山町","address":"香山新田"},
{"zip_code":"2891624","kana_pref":"ﾁﾊﾞｹﾝ","kana_city":"ｻﾝﾌﾞｸﾞﾝｼﾊﾞﾔﾏﾏﾁ","kana_address":"ｺｲｹ","pref":"千葉県","city":"山武郡芝山町","address":"小池"},
{"zip_code":"2891615","kana_pref":"ﾁﾊﾞｹﾝ","kana_city":"ｻﾝﾌﾞｸﾞﾝｼﾊﾞﾔﾏﾏﾁ","kana_address":"ｻｶｲ","pref":"千葉県","city":"山武郡芝山町","address":"境"},
{"zip_code":"2891619","kana_pref":"ﾁﾊﾞｹﾝ","kana_city":"ｻﾝﾌﾞｸﾞﾝｼﾊﾞﾔﾏﾏﾁ","kana_address":"ｼﾊﾞﾔﾏ","pref":"千葉県","city":"山武郡芝山町","address":"芝山"},
{"zip_code":"2891613","kana_pref":"ﾁﾊﾞｹﾝ","kana_city":"ｻﾝﾌﾞｸﾞﾝｼﾊﾞﾔﾏﾏﾁ","kana_address":"ｼﾓﾌｷｲﾚ","pref":"千葉県","city":"山武郡芝山町","address":"下吹入"},
{"zip_code":"2891623","kana_pref":"ﾁﾊﾞｹﾝ","kana_city":"ｻﾝﾌﾞｸﾞﾝｼﾊﾞﾔﾏﾏﾁ","kana_address":"ﾀｶﾀﾞ","pref":"千葉県","city":"山武郡芝山町","address":"高田"},
{"zip_code":"2891616","kana_pref":"ﾁﾊﾞｹﾝ","kana_city":"ｻﾝﾌﾞｸﾞﾝｼﾊﾞﾔﾏﾏﾁ","kana_address":"ﾀｶﾔ","pref":"千葉県","city":"山武郡芝山町","address":"高谷"},
{"zip_code":"2891617","kana_pref":"ﾁﾊﾞｹﾝ","kana_city":"ｻﾝﾌﾞｸﾞﾝｼﾊﾞﾔﾏﾏﾁ","kana_address":"ﾄﾉﾍﾞﾀ","pref":"千葉県","city":"山武郡芝山町","address":"殿部田"},
{"zip_code":"2891625","kana_pref":"ﾁﾊﾞｹﾝ","kana_city":"ｻﾝﾌﾞｸﾞﾝｼﾊﾞﾔﾏﾏﾁ","kana_address":"ﾆｲﾀﾞ","pref":"千葉県","city":"山武郡芝山町","address":"新井田"},
{"zip_code":"2891626","kana_pref":"ﾁﾊﾞｹﾝ","kana_city":"ｻﾝﾌﾞｸﾞﾝｼﾊﾞﾔﾏﾏﾁ","kana_address":"ﾆｲﾀﾞｼﾝﾃﾞﾝ","pref":"千葉県","city":"山武郡芝山町","address":"新井田新田"},
{"zip_code":"2891602","kana_pref":"ﾁﾊﾞｹﾝ","kana_city":"ｻﾝﾌﾞｸﾞﾝｼﾊﾞﾔﾏﾏﾁ","kana_address":"ﾋｼﾀﾞ","pref":"千葉県","city":"山武郡芝山町","address":"菱田"},
{"zip_code":"2891622","kana_pref":"ﾁﾊﾞｹﾝ","kana_city":"ｻﾝﾌﾞｸﾞﾝｼﾊﾞﾔﾏﾏﾁ","kana_address":"ﾎｳﾏ","pref":"千葉県","city":"山武郡芝山町","address":"宝馬"},
{"zip_code":"2891621","kana_pref":"ﾁﾊﾞｹﾝ","kana_city":"ｻﾝﾌﾞｸﾞﾝｼﾊﾞﾔﾏﾏﾁ","kana_address":"ﾏｷﾉ","pref":"千葉県","city":"山武郡芝山町","address":"牧野"},
{"zip_code":"2891614","kana_pref":"ﾁﾊﾞｹﾝ","kana_city":"ｻﾝﾌﾞｸﾞﾝｼﾊﾞﾔﾏﾏﾁ","kana_address":"ﾐﾔｻﾞｷ","pref":"千葉県","city":"山武郡芝山町","address":"宮崎"},
{"zip_code":"2891606","kana_pref":"ﾁﾊﾞｹﾝ","kana_city":"ｻﾝﾌﾞｸﾞﾝｼﾊﾞﾔﾏﾏﾁ","kana_address":"ﾔﾏﾀﾞ","pref":"千葉県","city":"山武郡芝山町","address":"山田"},
{"zip_code":"2891618","kana_pref":"ﾁﾊﾞｹﾝ","kana_city":"ｻﾝﾌﾞｸﾞﾝｼﾊﾞﾔﾏﾏﾁ","kana_address":"ﾔﾏﾅｶ","pref":"千葉県","city":"山武郡芝山町","address":"山中"},
{"zip_code":"2891700","kana_pref":"ﾁﾊﾞｹﾝ","kana_city":"ｻﾝﾌﾞｸﾞﾝﾖｺｼﾊﾞﾋｶﾘﾏﾁ","kana_address":"","pref":"千葉県","city":"山武郡横芝光町","address":""},
{"zip_code":"2891707","kana_pref":"ﾁﾊﾞｹﾝ","kana_city":"ｻﾝﾌﾞｸﾞﾝﾖｺｼﾊﾞﾋｶﾘﾏﾁ","kana_address":"ｱﾗｲ","pref":"千葉県","city":"山武郡横芝光町","address":"新井"},
{"zip_code":"2891706","kana_pref":"ﾁﾊﾞｹﾝ","kana_city":"ｻﾝﾌﾞｸﾞﾝﾖｺｼﾊﾞﾋｶﾘﾏﾁ","kana_address":"ｲﾁﾉﾊﾗ","pref":"千葉県","city":"山武郡横芝光町","address":"市野原"},
{"zip_code":"2891742","kana_pref":"ﾁﾊﾞｹﾝ","kana_city":"ｻﾝﾌﾞｸﾞﾝﾖｺｼﾊﾞﾋｶﾘﾏﾁ","kana_address":"ｳｼｸﾏ","pref":"千葉県","city":"山武郡横芝光町","address":"牛熊"},
{"zip_code":"2891752","kana_pref":"ﾁﾊﾞｹﾝ","kana_city":"ｻﾝﾌﾞｸﾞﾝﾖｺｼﾊﾞﾋｶﾘﾏﾁ","kana_address":"ｳﾊﾞﾔﾏ","pref":"千葉県","city":"山武郡横芝光町","address":"姥山"},
{"zip_code":"2891711","kana_pref":"ﾁﾊﾞｹﾝ","kana_city":"ｻﾝﾌﾞｸﾞﾝﾖｺｼﾊﾞﾋｶﾘﾏﾁ","kana_address":"ｵｶﾞﾜﾀﾞｲ","pref":"千葉県","city":"山武郡横芝光町","address":"小川台"},
{"zip_code":"2891748","kana_pref":"ﾁﾊﾞｹﾝ","kana_city":"ｻﾝﾌﾞｸﾞﾝﾖｺｼﾊﾞﾋｶﾘﾏﾁ","kana_address":"ｵｷ","pref":"千葉県","city":"山武郡横芝光町","address":"於幾"},
{"zip_code":"2891725","kana_pref":"ﾁﾊﾞｹﾝ","kana_city":"ｻﾝﾌﾞｸﾞﾝﾖｺｼﾊﾞﾋｶﾘﾏﾁ","kana_address":"ｵﾀﾞﾚ","pref":"千葉県","city":"山武郡横芝光町","address":"尾垂"},
{"zip_code":"2891745","kana_pref":"ﾁﾊﾞｹﾝ","kana_city":"ｻﾝﾌﾞｸﾞﾝﾖｺｼﾊﾞﾋｶﾘﾏﾁ","kana_address":"ｵﾝﾂﾞﾐ","pref":"千葉県","city":"山武郡横芝光町","address":"小堤"},
{"zip_code":"2891723","kana_pref":"ﾁﾊﾞｹﾝ","kana_city":"ｻﾝﾌﾞｸﾞﾝﾖｺｼﾊﾞﾋｶﾘﾏﾁ","kana_address":"ｶﾝﾊﾞﾗ","pref":"千葉県","city":"山武郡横芝光町","address":"上原"},
{"zip_code":"2891734","kana_pref":"ﾁﾊﾞｹﾝ","kana_city":"ｻﾝﾌﾞｸﾞﾝﾖｺｼﾊﾞﾋｶﾘﾏﾁ","kana_address":"ｷﾀｼﾐｽﾞ","pref":"千葉県","city":"山武郡横芝光町","address":"北清水"},
{"zip_code":"2891726","kana_pref":"ﾁﾊﾞｹﾝ","kana_city":"ｻﾝﾌﾞｸﾞﾝﾖｺｼﾊﾞﾋｶﾘﾏﾁ","kana_address":"ｷﾄﾞ","pref":"千葉県","city":"山武郡横芝光町","address":"木戸"},
{"zip_code":"2891744","kana_pref":"ﾁﾊﾞｹﾝ","kana_city":"ｻﾝﾌﾞｸﾞﾝﾖｺｼﾊﾞﾋｶﾘﾏﾁ","kana_address":"ｷﾄﾞﾀﾞｲ","pref":"千葉県","city":"山武郡横芝光町","address":"木戸台"},
{"zip_code":"2891733","kana_pref":"ﾁﾊﾞｹﾝ","kana_city":"ｻﾝﾌﾞｸﾞﾝﾖｺｼﾊﾞﾋｶﾘﾏﾁ","kana_address":"ｸﾘﾔﾏ","pref":"千葉県","city":"山武郡横芝光町","address":"栗山"},
{"zip_code":"2891731","kana_pref":"ﾁﾊﾞｹﾝ","kana_city":"ｻﾝﾌﾞｸﾞﾝﾖｺｼﾊﾞﾋｶﾘﾏﾁ","kana_address":"ｺｶﾜ","pref":"千葉県","city":"山武郡横芝光町","address":"古川"},
{"zip_code":"2891713","kana_pref":"ﾁﾊﾞｹﾝ","kana_city":"ｻﾝﾌﾞｸﾞﾝﾖｺｼﾊﾞﾋｶﾘﾏﾁ","kana_address":"ｺﾀﾍﾞ","pref":"千葉県","city":"山武郡横芝光町","address":"小田部"},
{"zip_code":"2891754","kana_pref":"ﾁﾊﾞｹﾝ","kana_city":"ｻﾝﾌﾞｸﾞﾝﾖｺｼﾊﾞﾋｶﾘﾏﾁ","kana_address":"ｻｶﾀ","pref":"千葉県","city":"山武郡横芝光町","address":"坂田"},
{"zip_code":"2891755","kana_pref":"ﾁﾊﾞｹﾝ","kana_city":"ｻﾝﾌﾞｸﾞﾝﾖｺｼﾊﾞﾋｶﾘﾏﾁ","kana_address":"ｻｶﾀｲｹ","pref":"千葉県","city":"山武郡横芝光町","address":"坂田池"},
{"zip_code":"2891701","kana_pref":"ﾁﾊﾞｹﾝ","kana_city":"ｻﾝﾌﾞｸﾞﾝﾖｺｼﾊﾞﾋｶﾘﾏﾁ","kana_address":"ｻｻﾓﾄ","pref":"千葉県","city":"山武郡横芝光町","address":"篠本"},
{"zip_code":"2891708","kana_pref":"ﾁﾊﾞｹﾝ","kana_city":"ｻﾝﾌﾞｸﾞﾝﾖｺｼﾊﾞﾋｶﾘﾏﾁ","kana_address":"ｻｻﾓﾄﾈｷﾞﾘ","pref":"千葉県","city":"山武郡横芝光町","address":"篠本根切"},
{"zip_code":"2891715","kana_pref":"ﾁﾊﾞｹﾝ","kana_city":"ｻﾝﾌﾞｸﾞﾝﾖｺｼﾊﾞﾋｶﾘﾏﾁ","kana_address":"ｼﾊﾞｻｷ","pref":"千葉県","city":"山武郡横芝光町","address":"芝崎"},
{"zip_code":"2891716","kana_pref":"ﾁﾊﾞｹﾝ","kana_city":"ｻﾝﾌﾞｸﾞﾝﾖｺｼﾊﾞﾋｶﾘﾏﾁ","kana_address":"ｼﾊﾞｻｷﾐﾅﾐ","pref":"千葉県","city":"山武郡横芝光町","address":"芝崎南"},
{"zip_code":"2891747","kana_pref":"ﾁﾊﾞｹﾝ","kana_city":"ｻﾝﾌﾞｸﾞﾝﾖｺｼﾊﾞﾋｶﾘﾏﾁ","kana_address":"ｿﾈｱｲ","pref":"千葉県","city":"山武郡横芝光町","address":"曽根合"},
{"zip_code":"2891712","kana_pref":"ﾁﾊﾞｹﾝ","kana_city":"ｻﾝﾌﾞｸﾞﾝﾖｺｼﾊﾞﾋｶﾘﾏﾁ","kana_address":"ﾀﾞｲ","pref":"千葉県","city":"山武郡横芝光町","address":"台"},
{"zip_code":"2891746","kana_pref":"ﾁﾊﾞｹﾝ","kana_city":"ｻﾝﾌﾞｸﾞﾝﾖｺｼﾊﾞﾋｶﾘﾏﾁ","kana_address":"ﾃﾗｶﾀ","pref":"千葉県","city":"山武郡横芝光町","address":"寺方"},
{"zip_code":"2891757","kana_pref":"ﾁﾊﾞｹﾝ","kana_city":"ｻﾝﾌﾞｸﾞﾝﾖｺｼﾊﾞﾋｶﾘﾏﾁ","kana_address":"ﾄｵﾔﾏ","pref":"千葉県","city":"山武郡横芝光町","address":"遠山"},
{"zip_code":"2891704","kana_pref":"ﾁﾊﾞｹﾝ","kana_city":"ｻﾝﾌﾞｸﾞﾝﾖｺｼﾊﾞﾋｶﾘﾏﾁ","kana_address":"ﾄﾐｼﾀ","pref":"千葉県","city":"山武郡横芝光町","address":"富下"},
{"zip_code":"2891753","kana_pref":"ﾁﾊﾞｹﾝ","kana_city":"ｻﾝﾌﾞｸﾞﾝﾖｺｼﾊﾞﾋｶﾘﾏﾁ","kana_address":"ﾄﾘﾀﾃ","pref":"千葉県","city":"山武郡横芝光町","address":"取立"},
{"zip_code":"2891738","kana_pref":"ﾁﾊﾞｹﾝ","kana_city":"ｻﾝﾌﾞｸﾞﾝﾖｺｼﾊﾞﾋｶﾘﾏﾁ","kana_address":"ﾄﾘﾊﾐｶﾐ","pref":"千葉県","city":"山武郡横芝光町","address":"鳥喰上"},
{"zip_code":"2891737","kana_pref":"ﾁﾊﾞｹﾝ","kana_city":"ｻﾝﾌﾞｸﾞﾝﾖｺｼﾊﾞﾋｶﾘﾏﾁ","kana_address":"ﾄﾘﾊﾐｼﾓ","pref":"千葉県","city":"山武郡横芝光町","address":"鳥喰下"},
{"zip_code":"2891739","kana_pref":"ﾁﾊﾞｹﾝ","kana_city":"ｻﾝﾌﾞｸﾞﾝﾖｺｼﾊﾞﾋｶﾘﾏﾁ","kana_address":"ﾄﾘﾊﾐｼﾝﾃﾞﾝ","pref":"千葉県","city":"山武郡横芝光町","address":"鳥喰新田"},
{"zip_code":"2891756","kana_pref":"ﾁﾊﾞｹﾝ","kana_city":"ｻﾝﾌﾞｸﾞﾝﾖｺｼﾊﾞﾋｶﾘﾏﾁ","kana_address":"ﾅｶﾞｸﾗ","pref":"千葉県","city":"山武郡横芝光町","address":"長倉"},
{"zip_code":"2891741","kana_pref":"ﾁﾊﾞｹﾝ","kana_city":"ｻﾝﾌﾞｸﾞﾝﾖｺｼﾊﾞﾋｶﾘﾏﾁ","kana_address":"ﾅｶﾀﾞｲ","pref":"千葉県","city":"山武郡横芝光町","address":"中台"},
{"zip_code":"2891751","kana_pref":"ﾁﾊﾞｹﾝ","kana_city":"ｻﾝﾌﾞｸﾞﾝﾖｺｼﾊﾞﾋｶﾘﾏﾁ","kana_address":"ﾅｶﾞﾔﾏﾀﾞｲ","pref":"千葉県","city":"山武郡横芝光町","address":"長山台"},
{"zip_code":"2891736","kana_pref":"ﾁﾊﾞｹﾝ","kana_city":"ｻﾝﾌﾞｸﾞﾝﾖｺｼﾊﾞﾋｶﾘﾏﾁ","kana_address":"ﾆｲｼﾞﾏ","pref":"千葉県","city":"山武郡横芝光町","address":"新島"},
{"zip_code":"2891714","kana_pref":"ﾁﾊﾞｹﾝ","kana_city":"ｻﾝﾌﾞｸﾞﾝﾖｺｼﾊﾞﾋｶﾘﾏﾁ","kana_address":"ﾊﾊｺ","pref":"千葉県","city":"山武郡横芝光町","address":"母子"},
{"zip_code":"2891724","kana_pref":"ﾁﾊﾞｹﾝ","kana_city":"ｻﾝﾌﾞｸﾞﾝﾖｺｼﾊﾞﾋｶﾘﾏﾁ","kana_address":"ﾊﾗｶﾀ","pref":"千葉県","city":"山武郡横芝光町","address":"原方"},
{"zip_code":"2891702","kana_pref":"ﾁﾊﾞｹﾝ","kana_city":"ｻﾝﾌﾞｸﾞﾝﾖｺｼﾊﾞﾋｶﾘﾏﾁ","kana_address":"ﾌﾀﾏﾀ","pref":"千葉県","city":"山武郡横芝光町","address":"二又"},
{"zip_code":"2891703","kana_pref":"ﾁﾊﾞｹﾝ","kana_city":"ｻﾝﾌﾞｸﾞﾝﾖｺｼﾊﾞﾋｶﾘﾏﾁ","kana_address":"ﾎｳｼﾞﾄﾞ","pref":"千葉県","city":"山武郡横芝光町","address":"傍示戸"},
{"zip_code":"2891705","kana_pref":"ﾁﾊﾞｹﾝ","kana_city":"ｻﾝﾌﾞｸﾞﾝﾖｺｼﾊﾞﾋｶﾘﾏﾁ","kana_address":"ﾎｳﾒ","pref":"千葉県","city":"山武郡横芝光町","address":"宝米"},
{"zip_code":"2891727","kana_pref":"ﾁﾊﾞｹﾝ","kana_city":"ｻﾝﾌﾞｸﾞﾝﾖｺｼﾊﾞﾋｶﾘﾏﾁ","kana_address":"ﾐﾔｶﾞﾜ","pref":"千葉県","city":"山武郡横芝光町","address":"宮川"},
{"zip_code":"2891717","kana_pref":"ﾁﾊﾞｹﾝ","kana_city":"ｻﾝﾌﾞｸﾞﾝﾖｺｼﾊﾞﾋｶﾘﾏﾁ","kana_address":"ﾑｼｮｳ","pref":"千葉県","city":"山武郡横芝光町","address":"虫生"},
{"zip_code":"2891722","kana_pref":"ﾁﾊﾞｹﾝ","kana_city":"ｻﾝﾌﾞｸﾞﾝﾖｺｼﾊﾞﾋｶﾘﾏﾁ","kana_address":"ﾒｼﾞﾉ","pref":"千葉県","city":"山武郡横芝光町","address":"目篠"},
{"zip_code":"2891735","kana_pref":"ﾁﾊﾞｹﾝ","kana_city":"ｻﾝﾌﾞｸﾞﾝﾖｺｼﾊﾞﾋｶﾘﾏﾁ","kana_address":"ﾔｶﾀ","pref":"千葉県","city":"山武郡横芝光町","address":"屋形"},
{"zip_code":"2891743","kana_pref":"ﾁﾊﾞｹﾝ","kana_city":"ｻﾝﾌﾞｸﾞﾝﾖｺｼﾊﾞﾋｶﾘﾏﾁ","kana_address":"ﾔﾂﾀﾞｲ","pref":"千葉県","city":"山武郡横芝光町","address":"谷台"},
{"zip_code":"2891721","kana_pref":"ﾁﾊﾞｹﾝ","kana_city":"ｻﾝﾌﾞｸﾞﾝﾖｺｼﾊﾞﾋｶﾘﾏﾁ","kana_address":"ﾔﾅｶ","pref":"千葉県","city":"山武郡横芝光町","address":"谷中"},
{"zip_code":"2891732","kana_pref":"ﾁﾊﾞｹﾝ","kana_city":"ｻﾝﾌﾞｸﾞﾝﾖｺｼﾊﾞﾋｶﾘﾏﾁ","kana_address":"ﾖｺｼﾊﾞ","pref":"千葉県","city":"山武郡横芝光町","address":"横芝"},
{"zip_code":"2891749","kana_pref":"ﾁﾊﾞｹﾝ","kana_city":"ｻﾝﾌﾞｸﾞﾝﾖｺｼﾊﾞﾋｶﾘﾏﾁ","kana_address":"ﾘｮｳｺﾞｸｼﾝﾃﾞﾝ","pref":"千葉県","city":"山武郡横芝光町","address":"両国新田"}]}