{"zip_code":[
{"zip_code":"2900000","kana_pref":"ﾁﾊﾞｹﾝ","kana_city":"ｲﾁﾊﾗｼ","kana_address":"","pref":"千葉県","city":"市原市","address":""},
{"zip_code":"2900252","kana_pref":"ﾁﾊﾞｹﾝ","kana_city":"ｲﾁﾊﾗｼ","kana_address":"ｱｲｶﾜ","pref":"千葉県","city":"市原市","address":"相川"},
{"zip_code":"2900509","kana_pref":"ﾁﾊﾞｹﾝ","kana_city":"ｲﾁﾊﾗｼ","kana_address":"ｱｸﾔ","pref":"千葉県","city":"市原市","address":"安久谷"},
{"zip_code":"2900251","kana_pref":"ﾁﾊﾞｹﾝ","kana_city":"ｲﾁﾊﾗｼ","kana_address":"ｱｻｲｺﾑｶｲ","pref":"千葉県","city":"市原市","address":"浅井小向"},
{"zip_code":"2900063","kana_pref":"ﾁﾊﾞｹﾝ","kana_city":"ｲﾁﾊﾗｼ","kana_address":"ｱｻﾋｺﾞｼｮ","pref":"千葉県","city":"市原市","address":"旭五所"},
{"zip_code":"2900253","kana_pref":"ﾁﾊﾞｹﾝ","kana_city":"ｲﾁﾊﾗｼ","kana_address":"ｱｽﾞ","pref":"千葉県","city":"市原市","address":"安須"},
{"zip_code":"2900535","kana_pref":"ﾁﾊﾞｹﾝ","kana_city":"ｲﾁﾊﾗｼ","kana_address":"ｱｿｳﾊﾞﾗ","pref":"千葉県","city":"市原市","address":"朝生原"},
{"zip_code":"2900207","kana_pref":"ﾁﾊﾞｹﾝ","kana_city":"ｲﾁﾊﾗｼ","kana_address":"ｱﾏｱﾘｷ","pref":"千葉県","city":"市原市","address":"海士有木"},
{"zip_code":"2900522","kana_pref":"ﾁﾊﾞｹﾝ","kana_city":"ｲﾁﾊﾗｼ","kana_address":"ｱﾗｲ","pref":"千葉県","city":"市原市","address":"新井"},
{"zip_code":"2900257","kana_pref":"ﾁﾊﾞｹﾝ","kana_city":"ｲﾁﾊﾗｼ","kana_address":"ｱﾗｵｲ","pref":"千葉県","city":"市原市","address":"新生"},
{"zip_code":"2900212","kana_pref":"ﾁﾊﾞｹﾝ","kana_city":"ｲﾁﾊﾗｼ","kana_address":"ｱﾗﾏｷ","pref":"千葉県","city":"市原市","address":"新巻"},
{"zip_code":"2900037","kana_pref":"ﾁﾊﾞｹﾝ","kana_city":"ｲﾁﾊﾗｼ","kana_address":"ｲｲﾇﾏ","pref":"千葉県","city":"市原市","address":"飯沼"},
{"zip_code":"2900516","kana_pref":"ﾁﾊﾞｹﾝ","kana_city":"ｲﾁﾊﾗｼ","kana_address":"ｲｹﾜﾀﾞ","pref":"千葉県","city":"市原市","address":"池和田"},
{"zip_code":"2900511","kana_pref":"ﾁﾊﾞｹﾝ","kana_city":"ｲﾁﾊﾗｼ","kana_address":"ｲｼｶﾜ","pref":"千葉県","city":"市原市","address":"石川"},
{"zip_code":"2900534","kana_pref":"ﾁﾊﾞｹﾝ","kana_city":"ｲﾁﾊﾗｼ","kana_address":"ｲｼｶﾞﾐ","pref":"千葉県","city":"市原市","address":"石神"},
{"zip_code":"2900537","kana_pref":"ﾁﾊﾞｹﾝ","kana_city":"ｲﾁﾊﾗｼ","kana_address":"ｲｼﾂﾞｶ","pref":"千葉県","city":"市原市","address":"石塚"},
{"zip_code":"2900204","kana_pref":"ﾁﾊﾞｹﾝ","kana_city":"ｲﾁﾊﾗｼ","kana_address":"ｲｿｶﾞﾔ","pref":"千葉県","city":"市原市","address":"磯ケ谷"},
{"zip_code":"2900543","kana_pref":"ﾁﾊﾞｹﾝ","kana_city":"ｲﾁﾊﾗｼ","kana_address":"ｲﾀﾌﾞ","pref":"千葉県","city":"市原市","address":"飯給"},
{"zip_code":"2900015","kana_pref":"ﾁﾊﾞｹﾝ","kana_city":"ｲﾁﾊﾗｼ","kana_address":"ｲﾁﾊﾗ","pref":"千葉県","city":"市原市","address":"市原"},
{"zip_code":"2900505","kana_pref":"ﾁﾊﾞｹﾝ","kana_city":"ｲﾁﾊﾗｼ","kana_address":"ｲﾁﾊﾞ","pref":"千葉県","city":"市原市","address":"市場"},
{"zip_code":"2900262","kana_pref":"ﾁﾊﾞｹﾝ","kana_city":"ｲﾁﾊﾗｼ","kana_address":"ｲﾄﾋｻ","pref":"千葉県","city":"市原市","address":"糸久"},
{"zip_code":"2900166","kana_pref":"ﾁﾊﾞｹﾝ","kana_city":"ｲﾁﾊﾗｼ","kana_address":"ｲﾇﾅﾘ","pref":"千葉県","city":"市原市","address":"犬成"},
{"zip_code":"2900265","kana_pref":"ﾁﾊﾞｹﾝ","kana_city":"ｲﾁﾊﾗｼ","kana_address":"ｲﾏﾄﾞﾐ","pref":"千葉県","city":"市原市","address":"今富"},
{"zip_code":"2900228","kana_pref":"ﾁﾊﾞｹﾝ","kana_city":"ｲﾁﾊﾗｼ","kana_address":"ｲﾜ","pref":"千葉県","city":"市原市","address":"岩"},
{"zip_code":"2900047","kana_pref":"ﾁﾊﾞｹﾝ","kana_city":"ｲﾁﾊﾗｼ","kana_address":"ｲﾜｻｷ","pref":"千葉県","city":"市原市","address":"岩崎"},
{"zip_code":"2900046","kana_pref":"ﾁﾊﾞｹﾝ","kana_city":"ｲﾁﾊﾗｼ","kana_address":"ｲﾜｻｷﾆｼ","pref":"千葉県","city":"市原市","address":"岩崎西"},
{"zip_code":"2900052","kana_pref":"ﾁﾊﾞｹﾝ","kana_city":"ｲﾁﾊﾗｼ","kana_address":"ｲﾜﾉﾐ","pref":"千葉県","city":"市原市","address":"岩野見"},
{"zip_code":"2900222","kana_pref":"ﾁﾊﾞｹﾝ","kana_city":"ｲﾁﾊﾗｼ","kana_address":"ｳｴﾊﾗ","pref":"千葉県","city":"市原市","address":"上原"},
{"zip_code":"2900225","kana_pref":"ﾁﾊﾞｹﾝ","kana_city":"ｲﾁﾊﾗｼ","kana_address":"ｳｼｸ","pref":"千葉県","city":"市原市","address":"牛久"},
{"zip_code":"2900221","kana_pref":"ﾁﾊﾞｹﾝ","kana_city":"ｲﾁﾊﾗｼ","kana_address":"ｳﾏﾀﾃ","pref":"千葉県","city":"市原市","address":"馬立"},
{"zip_code":"2900171","kana_pref":"ﾁﾊﾞｹﾝ","kana_city":"ｲﾁﾊﾗｼ","kana_address":"ｳﾙｲﾄﾞ","pref":"千葉県","city":"市原市","address":"潤井戸"},
{"zip_code":"2900170","kana_pref":"ﾁﾊﾞｹﾝ","kana_city":"ｲﾁﾊﾗｼ","kana_address":"ｳﾙｲﾄﾞﾐﾅﾐ","pref":"千葉県","city":"市原市","address":"うるいど南"},
{"zip_code":"2900508","kana_pref":"ﾁﾊﾞｹﾝ","kana_city":"ｲﾁﾊﾗｼ","kana_address":"ｴｺﾞﾀﾞ","pref":"千葉県","city":"市原市","address":"江子田"},
{"zip_code":"2900211","kana_pref":"ﾁﾊﾞｹﾝ","kana_city":"ｲﾁﾊﾗｼ","kana_address":"ｵｵｵｹ","pref":"千葉県","city":"市原市","address":"大桶"},
{"zip_code":"2900532","kana_pref":"ﾁﾊﾞｹﾝ","kana_city":"ｲﾁﾊﾗｼ","kana_address":"ｵｵｸﾎﾞ","pref":"千葉県","city":"市原市","address":"大久保"},
{"zip_code":"2900234","kana_pref":"ﾁﾊﾞｹﾝ","kana_city":"ｲﾁﾊﾗｼ","kana_address":"ｵｵｸﾗ","pref":"千葉県","city":"市原市","address":"大蔵"},
{"zip_code":"2900172","kana_pref":"ﾁﾊﾞｹﾝ","kana_city":"ｲﾁﾊﾗｼ","kana_address":"ｵｵｻｸ","pref":"千葉県","city":"市原市","address":"大作"},
{"zip_code":"2900208","kana_pref":"ﾁﾊﾞｹﾝ","kana_city":"ｲﾁﾊﾗｼ","kana_address":"ｵｵﾂﾎﾞ","pref":"千葉県","city":"市原市","address":"大坪"},
{"zip_code":"2900542","kana_pref":"ﾁﾊﾞｹﾝ","kana_city":"ｲﾁﾊﾗｼ","kana_address":"ｵｵﾄ","pref":"千葉県","city":"市原市","address":"大戸"},
{"zip_code":"2900002","kana_pref":"ﾁﾊﾞｹﾝ","kana_city":"ｲﾁﾊﾗｼ","kana_address":"ｵｵﾏﾔ","pref":"千葉県","city":"市原市","address":"大厩"},
{"zip_code":"2900553","kana_pref":"ﾁﾊﾞｹﾝ","kana_city":"ｲﾁﾊﾗｼ","kana_address":"ｵｵﾜﾀﾞ","pref":"千葉県","city":"市原市","address":"大和田"},
{"zip_code":"2900177","kana_pref":"ﾁﾊﾞｹﾝ","kana_city":"ｲﾁﾊﾗｼ","kana_address":"ｵｷﾞｻｸ","pref":"千葉県","city":"市原市","address":"荻作"},
{"zip_code":"2900513","kana_pref":"ﾁﾊﾞｹﾝ","kana_city":"ｲﾁﾊﾗｼ","kana_address":"ｵｸﾉ","pref":"千葉県","city":"市原市","address":"奥野"},
{"zip_code":"2900157","kana_pref":"ﾁﾊﾞｹﾝ","kana_city":"ｲﾁﾊﾗｼ","kana_address":"ｵｼﾇﾏ","pref":"千葉県","city":"市原市","address":"押沼"},
{"zip_code":"2900176","kana_pref":"ﾁﾊﾞｹﾝ","kana_city":"ｲﾁﾊﾗｼ","kana_address":"ｵﾀﾞﾂﾍﾟ","pref":"千葉県","city":"市原市","address":"小田部"},
{"zip_code":"2900533","kana_pref":"ﾁﾊﾞｹﾝ","kana_city":"ｲﾁﾊﾗｼ","kana_address":"ｵﾘﾂﾞ","pref":"千葉県","city":"市原市","address":"折津"},
{"zip_code":"2900266","kana_pref":"ﾁﾊﾞｹﾝ","kana_city":"ｲﾁﾊﾗｼ","kana_address":"ｶｲﾎ","pref":"千葉県","city":"市原市","address":"海保"},
{"zip_code":"2900548","kana_pref":"ﾁﾊﾞｹﾝ","kana_city":"ｲﾁﾊﾗｼ","kana_address":"ｶｷﾉｷﾀﾞｲ","pref":"千葉県","city":"市原市","address":"柿木台"},
{"zip_code":"2900241","kana_pref":"ﾁﾊﾞｹﾝ","kana_city":"ｲﾁﾊﾗｼ","kana_address":"ｶｻﾞﾄ","pref":"千葉県","city":"市原市","address":"風戸"},
{"zip_code":"2900258","kana_pref":"ﾁﾊﾞｹﾝ","kana_city":"ｲﾁﾊﾗｼ","kana_address":"ｶｼﾞﾛ","pref":"千葉県","city":"市原市","address":"神代"},
{"zip_code":"2900174","kana_pref":"ﾁﾊﾞｹﾝ","kana_city":"ｲﾁﾊﾗｼ","kana_address":"ｶﾂﾏ","pref":"千葉県","city":"市原市","address":"勝間"},
{"zip_code":"2900233","kana_pref":"ﾁﾊﾞｹﾝ","kana_city":"ｲﾁﾊﾗｼ","kana_address":"ｶﾈｻﾜ","pref":"千葉県","city":"市原市","address":"金沢"},
{"zip_code":"2900243","kana_pref":"ﾁﾊﾞｹﾝ","kana_city":"ｲﾁﾊﾗｼ","kana_address":"ｶﾐﾀｶﾈ","pref":"千葉県","city":"市原市","address":"上高根"},
{"zip_code":"2900025","kana_pref":"ﾁﾊﾞｹﾝ","kana_city":"ｲﾁﾊﾗｼ","kana_address":"ｶﾓ","pref":"千葉県","city":"市原市","address":"加茂"},
{"zip_code":"2900235","kana_pref":"ﾁﾊﾞｹﾝ","kana_city":"ｲﾁﾊﾗｼ","kana_address":"ｶﾔﾊｼ","pref":"千葉県","city":"市原市","address":"栢橋"},
{"zip_code":"2900213","kana_pref":"ﾁﾊﾞｹﾝ","kana_city":"ｲﾁﾊﾗｼ","kana_address":"ｶﾜｻﾞｲ","pref":"千葉県","city":"市原市","address":"川在"},
{"zip_code":"2900178","kana_pref":"ﾁﾊﾞｹﾝ","kana_city":"ｲﾁﾊﾗｼ","kana_address":"ｶﾝｻﾞｷ","pref":"千葉県","city":"市原市","address":"神崎"},
{"zip_code":"2900007","kana_pref":"ﾁﾊﾞｹﾝ","kana_city":"ｲﾁﾊﾗｼ","kana_address":"ｷｸﾏ","pref":"千葉県","city":"市原市","address":"菊間"},
{"zip_code":"2900167","kana_pref":"ﾁﾊﾞｹﾝ","kana_city":"ｲﾁﾊﾗｼ","kana_address":"ｷﾀ","pref":"千葉県","city":"市原市","address":"喜多"},
{"zip_code":"2900071","kana_pref":"ﾁﾊﾞｹﾝ","kana_city":"ｲﾁﾊﾗｼ","kana_address":"ｷﾀｺｸﾌﾞﾝｼﾞﾀﾞｲ","pref":"千葉県","city":"市原市","address":"北国分寺台"},
{"zip_code":"2900523","kana_pref":"ﾁﾊﾞｹﾝ","kana_city":"ｲﾁﾊﾗｼ","kana_address":"ｷﾁｻﾜ","pref":"千葉県","city":"市原市","address":"吉沢"},
{"zip_code":"2900051","kana_pref":"ﾁﾊﾞｹﾝ","kana_city":"ｲﾁﾊﾗｼ","kana_address":"ｷﾐﾂﾞｶ","pref":"千葉県","city":"市原市","address":"君塚"},
{"zip_code":"2900179","kana_pref":"ﾁﾊﾞｹﾝ","kana_city":"ｲﾁﾊﾗｼ","kana_address":"ｸｸﾞﾂ","pref":"千葉県","city":"市原市","address":"久々津"},
{"zip_code":"2900156","kana_pref":"ﾁﾊﾞｹﾝ","kana_city":"ｲﾁﾊﾗｼ","kana_address":"ｸｻｶﾘ","pref":"千葉県","city":"市原市","address":"草刈"},
{"zip_code":"2900001","kana_pref":"ﾁﾊﾞｹﾝ","kana_city":"ｲﾁﾊﾗｼ","kana_address":"ｸｻｶﾘ","pref":"千葉県","city":"市原市","address":"草刈"},
{"zip_code":"2900552","kana_pref":"ﾁﾊﾞｹﾝ","kana_city":"ｲﾁﾊﾗｼ","kana_address":"ｸﾎﾞ","pref":"千葉県","city":"市原市","address":"久保"},
{"zip_code":"2900056","kana_pref":"ﾁﾊﾞｹﾝ","kana_city":"ｲﾁﾊﾗｼ","kana_address":"ｺﾞｲ","pref":"千葉県","city":"市原市","address":"五井"},
{"zip_code":"2900057","kana_pref":"ﾁﾊﾞｹﾝ","kana_city":"ｲﾁﾊﾗｼ","kana_address":"ｺﾞｲｶﾅｽｷﾞ","pref":"千葉県","city":"市原市","address":"五井金杉"},
{"zip_code":"2900081","kana_pref":"ﾁﾊﾞｹﾝ","kana_city":"ｲﾁﾊﾗｼ","kana_address":"ｺﾞｲﾁｭｳｵｳﾆｼ","pref":"千葉県","city":"市原市","address":"五井中央西"},
{"zip_code":"2900054","kana_pref":"ﾁﾊﾞｹﾝ","kana_city":"ｲﾁﾊﾗｼ","kana_address":"ｺﾞｲﾁｭｳｵｳﾋｶﾞｼ","pref":"千葉県","city":"市原市","address":"五井中央東"},
{"zip_code":"2900038","kana_pref":"ﾁﾊﾞｹﾝ","kana_city":"ｲﾁﾊﾗｼ","kana_address":"ｺﾞｲﾆｼ","pref":"千葉県","city":"市原市","address":"五井西"},
{"zip_code":"2900055","kana_pref":"ﾁﾊﾞｹﾝ","kana_city":"ｲﾁﾊﾗｼ","kana_address":"ｺﾞｲﾋｶﾞｼ","pref":"千葉県","city":"市原市","address":"五井東"},
{"zip_code":"2900058","kana_pref":"ﾁﾊﾞｹﾝ","kana_city":"ｲﾁﾊﾗｼ","kana_address":"ｺﾞｲｶｲｶﾞﾝ","pref":"千葉県","city":"市原市","address":"五井海岸"},
{"zip_code":"2900045","kana_pref":"ﾁﾊﾞｹﾝ","kana_city":"ｲﾁﾊﾗｼ","kana_address":"ｺﾞｲﾐﾅﾐｶｲｶﾞﾝ","pref":"千葉県","city":"市原市","address":"五井南海岸"},
{"zip_code":"2900254","kana_pref":"ﾁﾊﾞｹﾝ","kana_city":"ｲﾁﾊﾗｼ","kana_address":"ｺｳｻﾞｶ","pref":"千葉県","city":"市原市","address":"高坂"},
{"zip_code":"2900255","kana_pref":"ﾁﾊﾞｹﾝ","kana_city":"ｲﾁﾊﾗｼ","kana_address":"ｺｳﾌｳﾀﾞｲ","pref":"千葉県","city":"市原市","address":"光風台"},
{"zip_code":"2900269","kana_pref":"ﾁﾊﾞｹﾝ","kana_city":"ｲﾁﾊﾗｼ","kana_address":"ｺｵﾘ","pref":"千葉県","city":"市原市","address":"小折"},
{"zip_code":"2900013","kana_pref":"ﾁﾊﾞｹﾝ","kana_city":"ｲﾁﾊﾗｼ","kana_address":"ｺｵﾘﾓﾄ","pref":"千葉県","city":"市原市","address":"郡本"},
{"zip_code":"2900526","kana_pref":"ﾁﾊﾞｹﾝ","kana_city":"ｲﾁﾊﾗｼ","kana_address":"ｺｸｻﾊﾞﾀ","pref":"千葉県","city":"市原市","address":"小草畑"},
{"zip_code":"2900073","kana_pref":"ﾁﾊﾞｹﾝ","kana_city":"ｲﾁﾊﾗｼ","kana_address":"ｺｸﾌﾞﾝｼﾞﾀﾞｲﾁｭｳｵｳ","pref":"千葉県","city":"市原市","address":"国分寺台中央"},
{"zip_code":"2900531","kana_pref":"ﾁﾊﾞｹﾝ","kana_city":"ｲﾁﾊﾗｼ","kana_address":"ｺｸﾓﾄ","pref":"千葉県","city":"市原市","address":"国本"},
{"zip_code":"2900528","kana_pref":"ﾁﾊﾞｹﾝ","kana_city":"ｲﾁﾊﾗｼ","kana_address":"ｺｼｷﾔ","pref":"千葉県","city":"市原市","address":"古敷谷"},
{"zip_code":"2900066","kana_pref":"ﾁﾊﾞｹﾝ","kana_city":"ｲﾁﾊﾗｼ","kana_address":"ｺﾞｼｮ","pref":"千葉県","city":"市原市","address":"五所"},
{"zip_code":"2900165","kana_pref":"ﾁﾊﾞｹﾝ","kana_city":"ｲﾁﾊﾗｼ","kana_address":"ｺﾂﾍﾞ","pref":"千葉県","city":"市原市","address":"古都辺"},
{"zip_code":"2900559","kana_pref":"ﾁﾊﾞｹﾝ","kana_city":"ｲﾁﾊﾗｼ","kana_address":"ｺﾏｺﾞﾒ","pref":"千葉県","city":"市原市","address":"駒込"},
{"zip_code":"2900529","kana_pref":"ﾁﾊﾞｹﾝ","kana_city":"ｲﾁﾊﾗｼ","kana_address":"ｺﾔﾀ","pref":"千葉県","city":"市原市","address":"小谷田"},
{"zip_code":"2900209","kana_pref":"ﾁﾊﾞｹﾝ","kana_city":"ｲﾁﾊﾗｼ","kana_address":"ｺﾞﾝｹﾞﾝﾄﾞｳ","pref":"千葉県","city":"市原市","address":"権現堂"},
{"zip_code":"2900162","kana_pref":"ﾁﾊﾞｹﾝ","kana_city":"ｲﾁﾊﾗｼ","kana_address":"ｺﾝｺﾞｳｼﾞ","pref":"千葉県","city":"市原市","address":"金剛地"},
{"zip_code":"2900022","kana_pref":"ﾁﾊﾞｹﾝ","kana_city":"ｲﾁﾊﾗｼ","kana_address":"ｻｲﾋﾛ","pref":"千葉県","city":"市原市","address":"西広"},
{"zip_code":"2900229","kana_pref":"ﾁﾊﾞｹﾝ","kana_city":"ｲﾁﾊﾗｼ","kana_address":"ｻｾﾞ","pref":"千葉県","city":"市原市","address":"佐是"},
{"zip_code":"2900050","kana_pref":"ﾁﾊﾞｹﾝ","kana_city":"ｲﾁﾊﾗｼ","kana_address":"ｻﾗｼﾅ","pref":"千葉県","city":"市原市","address":"更級"},
{"zip_code":"2900506","kana_pref":"ﾁﾊﾞｹﾝ","kana_city":"ｲﾁﾊﾗｼ","kana_address":"ｼﾏﾀﾞ","pref":"千葉県","city":"市原市","address":"島田"},
{"zip_code":"2900034","kana_pref":"ﾁﾊﾞｹﾝ","kana_city":"ｲﾁﾊﾗｼ","kana_address":"ｼﾏﾉ","pref":"千葉県","city":"市原市","address":"島野"},
{"zip_code":"2900154","kana_pref":"ﾁﾊﾞｹﾝ","kana_city":"ｲﾁﾊﾗｼ","kana_address":"ｼﾓﾉ","pref":"千葉県","city":"市原市","address":"下野"},
{"zip_code":"2900518","kana_pref":"ﾁﾊﾞｹﾝ","kana_city":"ｲﾁﾊﾗｼ","kana_address":"ｼﾓﾔﾀ","pref":"千葉県","city":"市原市","address":"下矢田"},
{"zip_code":"2900263","kana_pref":"ﾁﾊﾞｹﾝ","kana_city":"ｲﾁﾊﾗｼ","kana_address":"ｼﾞｭｳｺﾞｻﾞﾜ","pref":"千葉県","city":"市原市","address":"十五沢"},
{"zip_code":"2900503","kana_pref":"ﾁﾊﾞｹﾝ","kana_city":"ｲﾁﾊﾗｼ","kana_address":"ｼｭｸ","pref":"千葉県","city":"市原市","address":"宿"},
{"zip_code":"2900059","kana_pref":"ﾁﾊﾞｹﾝ","kana_city":"ｲﾁﾊﾗｼ","kana_address":"ｼﾛｶﾞﾈﾁｮｳ","pref":"千葉県","city":"市原市","address":"白金町"},
{"zip_code":"2900502","kana_pref":"ﾁﾊﾞｹﾝ","kana_city":"ｲﾁﾊﾗｼ","kana_address":"ｼﾝｶﾞﾔ","pref":"千葉県","city":"市原市","address":"真ケ谷"},
{"zip_code":"2900539","kana_pref":"ﾁﾊﾞｹﾝ","kana_city":"ｲﾁﾊﾗｼ","kana_address":"ｽｹﾞﾉ","pref":"千葉県","city":"市原市","address":"菅野"},
{"zip_code":"2900026","kana_pref":"ﾁﾊﾞｹﾝ","kana_city":"ｲﾁﾊﾗｼ","kana_address":"ｽﾜ","pref":"千葉県","city":"市原市","address":"諏訪"},
{"zip_code":"2900151","kana_pref":"ﾁﾊﾞｹﾝ","kana_city":"ｲﾁﾊﾗｼ","kana_address":"ｾﾏﾀ","pref":"千葉県","city":"市原市","address":"瀬又"},
{"zip_code":"2900023","kana_pref":"ﾁﾊﾞｹﾝ","kana_city":"ｲﾁﾊﾗｼ","kana_address":"ｿｳｼﾞｬ","pref":"千葉県","city":"市原市","address":"惣社"},
{"zip_code":"2900161","kana_pref":"ﾁﾊﾞｹﾝ","kana_city":"ｲﾁﾊﾗｼ","kana_address":"ﾀｶｸﾗ","pref":"千葉県","city":"市原市","address":"高倉"},
{"zip_code":"2900555","kana_pref":"ﾁﾊﾞｹﾝ","kana_city":"ｲﾁﾊﾗｼ","kana_address":"ﾀｶﾀｷ","pref":"千葉県","city":"市原市","address":"高滝"},
{"zip_code":"2900152","kana_pref":"ﾁﾊﾞｹﾝ","kana_city":"ｲﾁﾊﾗｼ","kana_address":"ﾀｶﾀﾞ","pref":"千葉県","city":"市原市","address":"高田"},
{"zip_code":"2900173","kana_pref":"ﾁﾊﾞｹﾝ","kana_city":"ｲﾁﾊﾗｼ","kana_address":"ﾀｷｸﾞﾁ","pref":"千葉県","city":"市原市","address":"滝口"},
{"zip_code":"2900203","kana_pref":"ﾁﾊﾞｹﾝ","kana_city":"ｲﾁﾊﾗｼ","kana_address":"ﾀｹｼ","pref":"千葉県","city":"市原市","address":"武士"},
{"zip_code":"2900003","kana_pref":"ﾁﾊﾞｹﾝ","kana_city":"ｲﾁﾊﾗｼ","kana_address":"ﾀﾂﾐﾀﾞｲﾋｶﾞｼ","pref":"千葉県","city":"市原市","address":"辰巳台東"},
{"zip_code":"2900004","kana_pref":"ﾁﾊﾞｹﾝ","kana_city":"ｲﾁﾊﾗｼ","kana_address":"ﾀﾂﾐﾀﾞｲﾆｼ","pref":"千葉県","city":"市原市","address":"辰巳台西"},
{"zip_code":"2900515","kana_pref":"ﾁﾊﾞｹﾝ","kana_city":"ｲﾁﾊﾗｼ","kana_address":"ﾀﾋﾞ","pref":"千葉県","city":"市原市","address":"田尾"},
{"zip_code":"2900546","kana_pref":"ﾁﾊﾞｹﾝ","kana_city":"ｲﾁﾊﾗｼ","kana_address":"ﾀﾌﾞﾁ","pref":"千葉県","city":"市原市","address":"田淵"},
{"zip_code":"2900545","kana_pref":"ﾁﾊﾞｹﾝ","kana_city":"ｲﾁﾊﾗｼ","kana_address":"ﾀﾌﾞﾁｷｭｳﾋﾀｹ","pref":"千葉県","city":"市原市","address":"田淵旧日竹"},
{"zip_code":"2900041","kana_pref":"ﾁﾊﾞｹﾝ","kana_city":"ｲﾁﾊﾗｼ","kana_address":"ﾀﾏｻｷ","pref":"千葉県","city":"市原市","address":"玉前"},
{"zip_code":"2900044","kana_pref":"ﾁﾊﾞｹﾝ","kana_city":"ｲﾁﾊﾗｼ","kana_address":"ﾀﾏｻｷﾆｼ","pref":"千葉県","city":"市原市","address":"玉前西"},
{"zip_code":"2900143","kana_pref":"ﾁﾊﾞｹﾝ","kana_city":"ｲﾁﾊﾗｼ","kana_address":"ﾁﾊﾗﾀﾞｲﾆｼ","pref":"千葉県","city":"市原市","address":"ちはら台西"},
{"zip_code":"2900141","kana_pref":"ﾁﾊﾞｹﾝ","kana_city":"ｲﾁﾊﾗｼ","kana_address":"ﾁﾊﾗﾀﾞｲﾋｶﾞｼ","pref":"千葉県","city":"市原市","address":"ちはら台東"},
{"zip_code":"2900142","kana_pref":"ﾁﾊﾞｹﾝ","kana_city":"ｲﾁﾊﾗｼ","kana_address":"ﾁﾊﾗﾀﾞｲﾐﾅﾐ","pref":"千葉県","city":"市原市","address":"ちはら台南"},
{"zip_code":"2900032","kana_pref":"ﾁﾊﾞｹﾝ","kana_city":"ｲﾁﾊﾗｼ","kana_address":"ﾂｲﾍｲｼﾞ","pref":"千葉県","city":"市原市","address":"廿五里"},
{"zip_code":"2900547","kana_pref":"ﾁﾊﾞｹﾝ","kana_city":"ｲﾁﾊﾗｼ","kana_address":"ﾂｷｻﾞｷ","pref":"千葉県","city":"市原市","address":"月崎"},
{"zip_code":"2900527","kana_pref":"ﾁﾊﾞｹﾝ","kana_city":"ｲﾁﾊﾗｼ","kana_address":"ﾂｷﾃﾞ","pref":"千葉県","city":"市原市","address":"月出"},
{"zip_code":"2900215","kana_pref":"ﾁﾊﾞｹﾝ","kana_city":"ｲﾁﾊﾗｼ","kana_address":"ﾂﾁｳ","pref":"千葉県","city":"市原市","address":"土宇"},
{"zip_code":"2900512","kana_pref":"ﾁﾊﾞｹﾝ","kana_city":"ｲﾁﾊﾗｼ","kana_address":"ﾂﾙﾏｲ","pref":"千葉県","city":"市原市","address":"鶴舞"},
{"zip_code":"2900042","kana_pref":"ﾁﾊﾞｹﾝ","kana_city":"ｲﾁﾊﾗｼ","kana_address":"ﾃﾞﾂﾞ","pref":"千葉県","city":"市原市","address":"出津"},
{"zip_code":"2900043","kana_pref":"ﾁﾊﾞｹﾝ","kana_city":"ｲﾁﾊﾗｼ","kana_address":"ﾃﾞﾂﾞﾆｼ","pref":"千葉県","city":"市原市","address":"出津西"},
{"zip_code":"2900236","kana_pref":"ﾁﾊﾞｹﾝ","kana_city":"ｲﾁﾊﾗｼ","kana_address":"ﾃﾗﾔﾂ","pref":"千葉県","city":"市原市","address":"寺谷"},
{"zip_code":"2900544","kana_pref":"ﾁﾊﾞｹﾝ","kana_city":"ｲﾁﾊﾗｼ","kana_address":"ﾄｸｳｼﾞ","pref":"千葉県","city":"市原市","address":"徳氏"},
{"zip_code":"2900536","kana_pref":"ﾁﾊﾞｹﾝ","kana_city":"ｲﾁﾊﾗｼ","kana_address":"ﾄﾂﾞﾗ","pref":"千葉県","city":"市原市","address":"戸面"},
{"zip_code":"2900551","kana_pref":"ﾁﾊﾞｹﾝ","kana_city":"ｲﾁﾊﾗｼ","kana_address":"ﾄﾉﾍﾞﾀ","pref":"千葉県","city":"市原市","address":"外部田"},
{"zip_code":"2900226","kana_pref":"ﾁﾊﾞｹﾝ","kana_city":"ｲﾁﾊﾗｼ","kana_address":"ﾅｶ","pref":"千葉県","city":"市原市","address":"中"},
{"zip_code":"2900242","kana_pref":"ﾁﾊﾞｹﾝ","kana_city":"ｲﾁﾊﾗｼ","kana_address":"ﾅｶﾀｶﾈ","pref":"千葉県","city":"市原市","address":"中高根"},
{"zip_code":"2900153","kana_pref":"ﾁﾊﾞｹﾝ","kana_city":"ｲﾁﾊﾗｼ","kana_address":"ﾅｶﾉ","pref":"千葉県","city":"市原市","address":"中野"},
{"zip_code":"2900168","kana_pref":"ﾁﾊﾞｹﾝ","kana_city":"ｲﾁﾊﾗｼ","kana_address":"ﾅｶﾞﾖｼ","pref":"千葉県","city":"市原市","address":"永吉"},
{"zip_code":"2900164","kana_pref":"ﾁﾊﾞｹﾝ","kana_city":"ｲﾁﾊﾗｼ","kana_address":"ﾅﾗ","pref":"千葉県","city":"市原市","address":"奈良"},
{"zip_code":"2900206","kana_pref":"ﾁﾊﾞｹﾝ","kana_city":"ｲﾁﾊﾗｼ","kana_address":"ﾆｲﾎﾘ","pref":"千葉県","city":"市原市","address":"新堀"},
{"zip_code":"2900231","kana_pref":"ﾁﾊﾞｹﾝ","kana_city":"ｲﾁﾊﾗｼ","kana_address":"ﾆｼｸﾆﾖｼ","pref":"千葉県","city":"市原市","address":"西国吉"},
{"zip_code":"2900072","kana_pref":"ﾁﾊﾞｹﾝ","kana_city":"ｲﾁﾊﾗｼ","kana_address":"ﾆｼｺｸﾌﾞﾝｼﾞﾀﾞｲ","pref":"千葉県","city":"市原市","address":"西国分寺台"},
{"zip_code":"2900065","kana_pref":"ﾁﾊﾞｹﾝ","kana_city":"ｲﾁﾊﾗｼ","kana_address":"ﾆｼｺﾞｼｮ","pref":"千葉県","city":"市原市","address":"西五所"},
{"zip_code":"2900261","kana_pref":"ﾁﾊﾞｹﾝ","kana_city":"ｲﾁﾊﾗｼ","kana_address":"ﾆｼﾉ","pref":"千葉県","city":"市原市","address":"西野"},
{"zip_code":"2900014","kana_pref":"ﾁﾊﾞｹﾝ","kana_city":"ｲﾁﾊﾗｼ","kana_address":"ﾆｼﾉﾔ","pref":"千葉県","city":"市原市","address":"西野谷"},
{"zip_code":"2900024","kana_pref":"ﾁﾊﾞｹﾝ","kana_city":"ｲﾁﾊﾗｼ","kana_address":"ﾈﾀﾞ","pref":"千葉県","city":"市原市","address":"根田"},
{"zip_code":"2900011","kana_pref":"ﾁﾊﾞｹﾝ","kana_city":"ｲﾁﾊﾗｼ","kana_address":"ﾉｳﾏﾝ","pref":"千葉県","city":"市原市","address":"能満"},
{"zip_code":"2900033","kana_pref":"ﾁﾊﾞｹﾝ","kana_city":"ｲﾁﾊﾗｼ","kana_address":"ﾉｹﾞ","pref":"千葉県","city":"市原市","address":"野毛"},
{"zip_code":"2900175","kana_pref":"ﾁﾊﾞｹﾝ","kana_city":"ｲﾁﾊﾗｼ","kana_address":"ﾊｷﾞ","pref":"千葉県","city":"市原市","address":"葉木"},
{"zip_code":"2900507","kana_pref":"ﾁﾊﾞｹﾝ","kana_city":"ｲﾁﾊﾗｼ","kana_address":"ﾊﾗﾀﾞ","pref":"千葉県","city":"市原市","address":"原田"},
{"zip_code":"2900155","kana_pref":"ﾁﾊﾞｹﾝ","kana_city":"ｲﾁﾊﾗｼ","kana_address":"ﾊﾞﾝﾊﾞ","pref":"千葉県","city":"市原市","address":"番場"},
{"zip_code":"2900163","kana_pref":"ﾁﾊﾞｹﾝ","kana_city":"ｲﾁﾊﾗｼ","kana_address":"ﾋｶﾞｼｸﾆﾖｼ","pref":"千葉県","city":"市原市","address":"東国吉"},
{"zip_code":"2900074","kana_pref":"ﾁﾊﾞｹﾝ","kana_city":"ｲﾁﾊﾗｼ","kana_address":"ﾋｶﾞｼｺｸﾌﾞﾝｼﾞﾀﾞｲ","pref":"千葉県","city":"市原市","address":"東国分寺台"},
{"zip_code":"2900064","kana_pref":"ﾁﾊﾞｹﾝ","kana_city":"ｲﾁﾊﾗｼ","kana_address":"ﾋｶﾞｼｺﾞｼｮ","pref":"千葉県","city":"市原市","address":"東五所"},
{"zip_code":"2900256","kana_pref":"ﾁﾊﾞｹﾝ","kana_city":"ｲﾁﾊﾗｼ","kana_address":"ﾋｷﾀﾞ","pref":"千葉県","city":"市原市","address":"引田"},
{"zip_code":"2900214","kana_pref":"ﾁﾊﾞｹﾝ","kana_city":"ｲﾁﾊﾗｼ","kana_address":"ﾋﾂﾊﾞ","pref":"千葉県","city":"市原市","address":"櫃挾"},
{"zip_code":"2900053","kana_pref":"ﾁﾊﾞｹﾝ","kana_city":"ｲﾁﾊﾗｼ","kana_address":"ﾋﾗﾀ","pref":"千葉県","city":"市原市","address":"平田"},
{"zip_code":"2900541","kana_pref":"ﾁﾊﾞｹﾝ","kana_city":"ｲﾁﾊﾗｼ","kana_address":"ﾋﾗﾉ","pref":"千葉県","city":"市原市","address":"平野"},
{"zip_code":"2900202","kana_pref":"ﾁﾊﾞｹﾝ","kana_city":"ｲﾁﾊﾗｼ","kana_address":"ﾌｸﾏｽ","pref":"千葉県","city":"市原市","address":"福増"},
{"zip_code":"2900012","kana_pref":"ﾁﾊﾞｹﾝ","kana_city":"ｲﾁﾊﾗｼ","kana_address":"ﾌｼﾞｲ","pref":"千葉県","city":"市原市","address":"藤井"},
{"zip_code":"2900216","kana_pref":"ﾁﾊﾞｹﾝ","kana_city":"ｲﾁﾊﾗｼ","kana_address":"ﾌﾂｶｲﾁﾊﾞ","pref":"千葉県","city":"市原市","address":"二日市場"},
{"zip_code":"2900554","kana_pref":"ﾁﾊﾞｹﾝ","kana_city":"ｲﾁﾊﾗｼ","kana_address":"ﾌﾆｭｳ","pref":"千葉県","city":"市原市","address":"不入"},
{"zip_code":"2900008","kana_pref":"ﾁﾊﾞｹﾝ","kana_city":"ｲﾁﾊﾗｼ","kana_address":"ﾌﾙｲﾁﾊﾞ","pref":"千葉県","city":"市原市","address":"古市場"},
{"zip_code":"2900524","kana_pref":"ﾁﾊﾞｹﾝ","kana_city":"ｲﾁﾊﾗｼ","kana_address":"ﾍｲｿﾞｳ","pref":"千葉県","city":"市原市","address":"平蔵"},
{"zip_code":"2900224","kana_pref":"ﾁﾊﾞｹﾝ","kana_city":"ｲﾁﾊﾗｼ","kana_address":"ﾎｳﾒ","pref":"千葉県","city":"市原市","address":"奉免"},
{"zip_code":"2900504","kana_pref":"ﾁﾊﾞｹﾝ","kana_city":"ｲﾁﾊﾗｼ","kana_address":"ﾎﾘｺｼ","pref":"千葉県","city":"市原市","address":"堀越"},
{"zip_code":"2900556","kana_pref":"ﾁﾊﾞｹﾝ","kana_city":"ｲﾁﾊﾗｼ","kana_address":"ﾎﾝｺﾞｳ","pref":"千葉県","city":"市原市","address":"本郷"},
{"zip_code":"2900267","kana_pref":"ﾁﾊﾞｹﾝ","kana_city":"ｲﾁﾊﾗｼ","kana_address":"ﾏﾁﾀﾞ","pref":"千葉県","city":"市原市","address":"町田"},
{"zip_code":"2900035","kana_pref":"ﾁﾊﾞｹﾝ","kana_city":"ｲﾁﾊﾗｼ","kana_address":"ﾏﾂｶﾞｼﾏ","pref":"千葉県","city":"市原市","address":"松ケ島"},
{"zip_code":"2900036","kana_pref":"ﾁﾊﾞｹﾝ","kana_city":"ｲﾁﾊﾗｼ","kana_address":"ﾏﾂｶﾞｼﾏﾆｼ","pref":"千葉県","city":"市原市","address":"松ケ島西"},
{"zip_code":"2900217","kana_pref":"ﾁﾊﾞｹﾝ","kana_city":"ｲﾁﾊﾗｼ","kana_address":"ﾏﾂｻﾞｷ","pref":"千葉県","city":"市原市","address":"松崎"},
{"zip_code":"2900549","kana_pref":"ﾁﾊﾞｹﾝ","kana_city":"ｲﾁﾊﾗｼ","kana_address":"ﾏﾝﾀﾞﾉ","pref":"千葉県","city":"市原市","address":"万田野"},
{"zip_code":"2900514","kana_pref":"ﾁﾊﾞｹﾝ","kana_city":"ｲﾁﾊﾗｼ","kana_address":"ﾐｽﾞｻﾜ","pref":"千葉県","city":"市原市","address":"水沢"},
{"zip_code":"2900244","kana_pref":"ﾁﾊﾞｹﾝ","kana_city":"ｲﾁﾊﾗｼ","kana_address":"ﾐﾅﾐｲﾜｻｷ","pref":"千葉県","city":"市原市","address":"南岩崎"},
{"zip_code":"2900075","kana_pref":"ﾁﾊﾞｹﾝ","kana_city":"ｲﾁﾊﾗｼ","kana_address":"ﾐﾅﾐｺｸﾌﾞﾝｼﾞﾀﾞｲ","pref":"千葉県","city":"市原市","address":"南国分寺台"},
{"zip_code":"2900232","kana_pref":"ﾁﾊﾞｹﾝ","kana_city":"ｲﾁﾊﾗｼ","kana_address":"ﾐﾅﾖｼ","pref":"千葉県","city":"市原市","address":"皆吉"},
{"zip_code":"2900264","kana_pref":"ﾁﾊﾞｹﾝ","kana_city":"ｲﾁﾊﾗｼ","kana_address":"ﾐﾔﾊﾞﾗ","pref":"千葉県","city":"市原市","address":"宮原"},
{"zip_code":"2900223","kana_pref":"ﾁﾊﾞｹﾝ","kana_city":"ｲﾁﾊﾗｼ","kana_address":"ﾐｮｳｺｳ","pref":"千葉県","city":"市原市","address":"妙香"},
{"zip_code":"2900031","kana_pref":"ﾁﾊﾞｹﾝ","kana_city":"ｲﾁﾊﾗｼ","kana_address":"ﾑﾗｶﾐ","pref":"千葉県","city":"市原市","address":"村上"},
{"zip_code":"2900016","kana_pref":"ﾁﾊﾞｹﾝ","kana_city":"ｲﾁﾊﾗｼ","kana_address":"ﾓﾝｾﾞﾝ","pref":"千葉県","city":"市原市","address":"門前"},
{"zip_code":"2900517","kana_pref":"ﾁﾊﾞｹﾝ","kana_city":"ｲﾁﾊﾗｼ","kana_address":"ﾔﾀ","pref":"千葉県","city":"市原市","address":"矢田"},
{"zip_code":"2900538","kana_pref":"ﾁﾊﾞｹﾝ","kana_city":"ｲﾁﾊﾗｼ","kana_address":"ﾔﾅｶﾞﾜ","pref":"千葉県","city":"市原市","address":"柳川"},
{"zip_code":"2900268","kana_pref":"ﾁﾊﾞｹﾝ","kana_city":"ｲﾁﾊﾗｼ","kana_address":"ﾔﾅｷﾞﾊﾗ","pref":"千葉県","city":"市原市","address":"柳原"},
{"zip_code":"2900227","kana_pref":"ﾁﾊﾞｹﾝ","kana_city":"ｲﾁﾊﾗｼ","kana_address":"ﾔﾌﾞ","pref":"千葉県","city":"市原市","address":"藪"},
{"zip_code":"2900005","kana_pref":"ﾁﾊﾞｹﾝ","kana_city":"ｲﾁﾊﾗｼ","kana_address":"ﾔﾏｷ","pref":"千葉県","city":"市原市","address":"山木"},
{"zip_code":"2900201","kana_pref":"ﾁﾊﾞｹﾝ","kana_city":"ｲﾁﾊﾗｼ","kana_address":"ﾔﾏｸﾗ","pref":"千葉県","city":"市原市","address":"山倉"},
{"zip_code":"2900558","kana_pref":"ﾁﾊﾞｹﾝ","kana_city":"ｲﾁﾊﾗｼ","kana_address":"ﾔﾏｸﾞﾁ","pref":"千葉県","city":"市原市","address":"山口"},
{"zip_code":"2900521","kana_pref":"ﾁﾊﾞｹﾝ","kana_city":"ｲﾁﾊﾗｼ","kana_address":"ﾔﾏｺｶﾞﾜ","pref":"千葉県","city":"市原市","address":"山小川"},
{"zip_code":"2900205","kana_pref":"ﾁﾊﾞｹﾝ","kana_city":"ｲﾁﾊﾗｼ","kana_address":"ﾔﾏﾀﾞ","pref":"千葉県","city":"市原市","address":"山田"},
{"zip_code":"2900021","kana_pref":"ﾁﾊﾞｹﾝ","kana_city":"ｲﾁﾊﾗｼ","kana_address":"ﾔﾏﾀﾞﾊﾞｼ","pref":"千葉県","city":"市原市","address":"山田橋"},
{"zip_code":"2900062","kana_pref":"ﾁﾊﾞｹﾝ","kana_city":"ｲﾁﾊﾗｼ","kana_address":"ﾔﾜﾀ","pref":"千葉県","city":"市原市","address":"八幡"},
{"zip_code":"2900061","kana_pref":"ﾁﾊﾞｹﾝ","kana_city":"ｲﾁﾊﾗｼ","kana_address":"ﾔﾜﾀｲｼﾂﾞｶ","pref":"千葉県","city":"市原市","address":"八幡石塚"},
{"zip_code":"2900067","kana_pref":"ﾁﾊﾞｹﾝ","kana_city":"ｲﾁﾊﾗｼ","kana_address":"ﾔﾜﾀｶｲｶﾞﾝﾄﾞｵﾘ","pref":"千葉県","city":"市原市","address":"八幡海岸通"},
{"zip_code":"2900069","kana_pref":"ﾁﾊﾞｹﾝ","kana_city":"ｲﾁﾊﾗｼ","kana_address":"ﾔﾜﾀｷﾀﾁｮｳ","pref":"千葉県","city":"市原市","address":"八幡北町"},
{"zip_code":"2900068","kana_pref":"ﾁﾊﾞｹﾝ","kana_city":"ｲﾁﾊﾗｼ","kana_address":"ﾔﾜﾀｳﾗ","pref":"千葉県","city":"市原市","address":"八幡浦"},
{"zip_code":"2900557","kana_pref":"ﾁﾊﾞｹﾝ","kana_city":"ｲﾁﾊﾗｼ","kana_address":"ﾖｳﾛｳ","pref":"千葉県","city":"市原市","address":"養老"},
{"zip_code":"2900501","kana_pref":"ﾁﾊﾞｹﾝ","kana_city":"ｲﾁﾊﾗｼ","kana_address":"ﾖﾈｻﾞﾜ","pref":"千葉県","city":"市原市","address":"米沢"},
{"zip_code":"2900525","kana_pref":"ﾁﾊﾞｹﾝ","kana_city":"ｲﾁﾊﾗｼ","kana_address":"ﾖﾈﾜﾗ","pref":"千葉県","city":"市原市","address":"米原"},
{"zip_code":"2900006","kana_pref":"ﾁﾊﾞｹﾝ","kana_city":"ｲﾁﾊﾗｼ","kana_address":"ﾜｶﾐﾔ","pref":"千葉県","city":"市原市","address":"若宮"},
{"zip_code":"2900259","kana_pref":"ﾁﾊﾞｹﾝ","kana_city":"ｲﾁﾊﾗｼ","kana_address":"ﾜﾝﾒ","pref":"千葉県","city":"市原市","address":"分目"}]}