{"zip_code":[
{"zip_code":"2920000","kana_pref":"ﾁﾊﾞｹﾝ","kana_city":"ｷｻﾗﾂﾞｼ","kana_address":"","pref":"千葉県","city":"木更津市","address":""},
{"zip_code":"2920055","kana_pref":"ﾁﾊﾞｹﾝ","kana_city":"ｷｻﾗﾂﾞｼ","kana_address":"ｱｻﾋ","pref":"千葉県","city":"木更津市","address":"朝日"},
{"zip_code":"2920065","kana_pref":"ﾁﾊﾞｹﾝ","kana_city":"ｷｻﾗﾂﾞｼ","kana_address":"ｱﾂﾞﾏ","pref":"千葉県","city":"木更津市","address":"吾妻"},
{"zip_code":"2920021","kana_pref":"ﾁﾊﾞｹﾝ","kana_city":"ｷｻﾗﾂﾞｼ","kana_address":"ｱﾘﾖｼ","pref":"千葉県","city":"木更津市","address":"有吉"},
{"zip_code":"2920026","kana_pref":"ﾁﾊﾞｹﾝ","kana_city":"ｷｻﾗﾂﾞｼ","kana_address":"ｲｼﾞﾘ","pref":"千葉県","city":"木更津市","address":"井尻"},
{"zip_code":"2920034","kana_pref":"ﾁﾊﾞｹﾝ","kana_city":"ｷｻﾗﾂﾞｼ","kana_address":"ｲｽﾞｼﾏ","pref":"千葉県","city":"木更津市","address":"伊豆島"},
{"zip_code":"2920061","kana_pref":"ﾁﾊﾞｹﾝ","kana_city":"ｷｻﾗﾂﾞｼ","kana_address":"ｲﾜﾈ","pref":"千葉県","city":"木更津市","address":"岩根"},
{"zip_code":"2920033","kana_pref":"ﾁﾊﾞｹﾝ","kana_city":"ｷｻﾗﾂﾞｼ","kana_address":"ｲﾝﾅﾘ","pref":"千葉県","city":"木更津市","address":"犬成"},
{"zip_code":"2920001","kana_pref":"ﾁﾊﾞｹﾝ","kana_city":"ｷｻﾗﾂﾞｼ","kana_address":"ｳｼｺﾞﾒ","pref":"千葉県","city":"木更津市","address":"牛込"},
{"zip_code":"2920012","kana_pref":"ﾁﾊﾞｹﾝ","kana_city":"ｷｻﾗﾂﾞｼ","kana_address":"ｳｼﾌﾞｸﾛ","pref":"千葉県","city":"木更津市","address":"牛袋"},
{"zip_code":"2920011","kana_pref":"ﾁﾊﾞｹﾝ","kana_city":"ｷｻﾗﾂﾞｼ","kana_address":"ｳｼﾌﾞｸﾛﾉ","pref":"千葉県","city":"木更津市","address":"牛袋野"},
{"zip_code":"2920007","kana_pref":"ﾁﾊﾞｹﾝ","kana_city":"ｷｻﾗﾂﾞｼ","kana_address":"ｳﾘｸﾗ","pref":"千葉県","city":"木更津市","address":"瓜倉"},
{"zip_code":"2920063","kana_pref":"ﾁﾊﾞｹﾝ","kana_city":"ｷｻﾗﾂﾞｼ","kana_address":"ｴｶﾞﾜ","pref":"千葉県","city":"木更津市","address":"江川"},
{"zip_code":"2920211","kana_pref":"ﾁﾊﾞｹﾝ","kana_city":"ｷｻﾗﾂﾞｼ","kana_address":"ｵｵｲﾈ","pref":"千葉県","city":"木更津市","address":"大稲"},
{"zip_code":"2920815","kana_pref":"ﾁﾊﾞｹﾝ","kana_city":"ｷｻﾗﾂﾞｼ","kana_address":"ｵｵｸﾎﾞ","pref":"千葉県","city":"木更津市","address":"大久保"},
{"zip_code":"2920044","kana_pref":"ﾁﾊﾞｹﾝ","kana_city":"ｷｻﾗﾂﾞｼ","kana_address":"ｵｵﾀﾞ","pref":"千葉県","city":"木更津市","address":"太田"},
{"zip_code":"2920024","kana_pref":"ﾁﾊﾞｹﾝ","kana_city":"ｷｻﾗﾂﾞｼ","kana_address":"ｵｵﾃﾗ","pref":"千葉県","city":"木更津市","address":"大寺"},
{"zip_code":"2920833","kana_pref":"ﾁﾊﾞｹﾝ","kana_city":"ｷｻﾗﾂﾞｼ","kana_address":"ｶｲﾌﾁ","pref":"千葉県","city":"木更津市","address":"貝渕"},
{"zip_code":"2920818","kana_pref":"ﾁﾊﾞｹﾝ","kana_city":"ｷｻﾗﾂﾞｼ","kana_address":"ｶｽﾞｻｶﾏﾀﾘ","pref":"千葉県","city":"木更津市","address":"かずさ鎌足"},
{"zip_code":"2920813","kana_pref":"ﾁﾊﾞｹﾝ","kana_city":"ｷｻﾗﾂﾞｼ","kana_address":"ｶﾐｶﾗｽﾀﾞ","pref":"千葉県","city":"木更津市","address":"上烏田"},
{"zip_code":"2920215","kana_pref":"ﾁﾊﾞｹﾝ","kana_city":"ｷｻﾗﾂﾞｼ","kana_address":"ｶﾐﾈｷﾞｼ","pref":"千葉県","city":"木更津市","address":"上根岸"},
{"zip_code":"2920022","kana_pref":"ﾁﾊﾞｹﾝ","kana_city":"ｷｻﾗﾂﾞｼ","kana_address":"ｶﾐﾓｳﾀﾞ","pref":"千葉県","city":"木更津市","address":"上望陀"},
{"zip_code":"2920204","kana_pref":"ﾁﾊﾞｹﾝ","kana_city":"ｷｻﾗﾂﾞｼ","kana_address":"ｶﾔﾉ","pref":"千葉県","city":"木更津市","address":"茅野"},
{"zip_code":"2920202","kana_pref":"ﾁﾊﾞｹﾝ","kana_city":"ｷｻﾗﾂﾞｼ","kana_address":"ｶﾔﾉﾅﾅﾏｶﾞﾘ","pref":"千葉県","city":"木更津市","address":"茅野七曲"},
{"zip_code":"2920052","kana_pref":"ﾁﾊﾞｹﾝ","kana_city":"ｷｻﾗﾂﾞｼ","kana_address":"ｷﾞｵﾝ","pref":"千葉県","city":"木更津市","address":"祇園"},
{"zip_code":"2920056","kana_pref":"ﾁﾊﾞｹﾝ","kana_city":"ｷｻﾗﾂﾞｼ","kana_address":"ｷｻﾗﾂﾞ","pref":"千葉県","city":"木更津市","address":"木更津"},
{"zip_code":"2920006","kana_pref":"ﾁﾊﾞｹﾝ","kana_city":"ｷｻﾗﾂﾞｼ","kana_address":"ｷﾀﾊﾏﾁｮｳ","pref":"千葉県","city":"木更津市","address":"北浜町"},
{"zip_code":"2920051","kana_pref":"ﾁﾊﾞｹﾝ","kana_city":"ｷｻﾗﾂﾞｼ","kana_address":"ｷﾖｶﾜ","pref":"千葉県","city":"木更津市","address":"清川"},
{"zip_code":"2920045","kana_pref":"ﾁﾊﾞｹﾝ","kana_city":"ｷｻﾗﾂﾞｼ","kana_address":"ｷﾖﾐﾀﾞｲ","pref":"千葉県","city":"木更津市","address":"清見台"},
{"zip_code":"2920041","kana_pref":"ﾁﾊﾞｹﾝ","kana_city":"ｷｻﾗﾂﾞｼ","kana_address":"ｷﾖﾐﾀﾞｲﾋｶﾞｼ","pref":"千葉県","city":"木更津市","address":"清見台東"},
{"zip_code":"2920042","kana_pref":"ﾁﾊﾞｹﾝ","kana_city":"ｷｻﾗﾂﾞｼ","kana_address":"ｷﾖﾐﾀﾞｲﾐﾅﾐ","pref":"千葉県","city":"木更津市","address":"清見台南"},
{"zip_code":"2920811","kana_pref":"ﾁﾊﾞｹﾝ","kana_city":"ｷｻﾗﾂﾞｼ","kana_address":"ｸｻｼﾞｷ","pref":"千葉県","city":"木更津市","address":"草敷"},
{"zip_code":"2920004","kana_pref":"ﾁﾊﾞｹﾝ","kana_city":"ｷｻﾗﾂﾞｼ","kana_address":"ｸﾂﾞﾏ","pref":"千葉県","city":"木更津市","address":"久津間"},
{"zip_code":"2920005","kana_pref":"ﾁﾊﾞｹﾝ","kana_city":"ｷｻﾗﾂﾞｼ","kana_address":"ｸﾛﾄ","pref":"千葉県","city":"木更津市","address":"畔戸"},
{"zip_code":"2920213","kana_pref":"ﾁﾊﾞｹﾝ","kana_city":"ｷｻﾗﾂﾞｼ","kana_address":"ｹﾞﾅｲﾊﾞｼ","pref":"千葉県","city":"木更津市","address":"下内橋"},
{"zip_code":"2920827","kana_pref":"ﾁﾊﾞｹﾝ","kana_city":"ｷｻﾗﾂﾞｼ","kana_address":"ｺｳﾅﾝﾀﾞｲ","pref":"千葉県","city":"木更津市","address":"港南台"},
{"zip_code":"2920824","kana_pref":"ﾁﾊﾞｹﾝ","kana_city":"ｷｻﾗﾂﾞｼ","kana_address":"ｺﾊﾞﾏ","pref":"千葉県","city":"木更津市","address":"小浜"},
{"zip_code":"2920803","kana_pref":"ﾁﾊﾞｹﾝ","kana_city":"ｷｻﾗﾂﾞｼ","kana_address":"ｻｲﾜｲﾁｮｳ","pref":"千葉県","city":"木更津市","address":"幸町"},
{"zip_code":"2920822","kana_pref":"ﾁﾊﾞｹﾝ","kana_city":"ｷｻﾗﾂﾞｼ","kana_address":"ｻｸﾗｲ","pref":"千葉県","city":"木更津市","address":"桜井"},
{"zip_code":"2920823","kana_pref":"ﾁﾊﾞｹﾝ","kana_city":"ｷｻﾗﾂﾞｼ","kana_address":"ｻｸﾗｲｼﾝﾏﾁ","pref":"千葉県","city":"木更津市","address":"桜井新町"},
{"zip_code":"2920821","kana_pref":"ﾁﾊﾞｹﾝ","kana_city":"ｷｻﾗﾂﾞｼ","kana_address":"ｻｸﾗﾏﾁ","pref":"千葉県","city":"木更津市","address":"桜町"},
{"zip_code":"2920032","kana_pref":"ﾁﾊﾞｹﾝ","kana_city":"ｷｻﾗﾂﾞｼ","kana_address":"ｻｻｺﾞ","pref":"千葉県","city":"木更津市","address":"笹子"},
{"zip_code":"2920206","kana_pref":"ﾁﾊﾞｹﾝ","kana_city":"ｷｻﾗﾂﾞｼ","kana_address":"ｻﾉ","pref":"千葉県","city":"木更津市","address":"佐野"},
{"zip_code":"2920838","kana_pref":"ﾁﾊﾞｹﾝ","kana_city":"ｷｻﾗﾂﾞｼ","kana_address":"ｼｵﾊﾏ","pref":"千葉県","city":"木更津市","address":"潮浜"},
{"zip_code":"2920834","kana_pref":"ﾁﾊﾞｹﾝ","kana_city":"ｷｻﾗﾂﾞｼ","kana_address":"ｼｵﾐ","pref":"千葉県","city":"木更津市","address":"潮見"},
{"zip_code":"2920816","kana_pref":"ﾁﾊﾞｹﾝ","kana_city":"ｷｻﾗﾂﾞｼ","kana_address":"ｼﾓｶﾗｽﾀﾞ","pref":"千葉県","city":"木更津市","address":"下烏田"},
{"zip_code":"2920205","kana_pref":"ﾁﾊﾞｹﾝ","kana_city":"ｷｻﾗﾂﾞｼ","kana_address":"ｼﾓｺﾞｵﾘ","pref":"千葉県","city":"木更津市","address":"下郡"},
{"zip_code":"2920217","kana_pref":"ﾁﾊﾞｹﾝ","kana_city":"ｷｻﾗﾂﾞｼ","kana_address":"ｼﾓﾐﾔﾀﾞ","pref":"千葉県","city":"木更津市","address":"下宮田"},
{"zip_code":"2920023","kana_pref":"ﾁﾊﾞｹﾝ","kana_city":"ｷｻﾗﾂﾞｼ","kana_address":"ｼﾓﾓｳﾀﾞ","pref":"千葉県","city":"木更津市","address":"下望陀"},
{"zip_code":"2920801","kana_pref":"ﾁﾊﾞｹﾝ","kana_city":"ｷｻﾗﾂﾞｼ","kana_address":"ｼﾞｮｳｻﾞｲ","pref":"千葉県","city":"木更津市","address":"請西"},
{"zip_code":"2920806","kana_pref":"ﾁﾊﾞｹﾝ","kana_city":"ｷｻﾗﾂﾞｼ","kana_address":"ｼﾞｮｳｻﾞｲﾋｶﾞｼ","pref":"千葉県","city":"木更津市","address":"請西東"},
{"zip_code":"2920807","kana_pref":"ﾁﾊﾞｹﾝ","kana_city":"ｷｻﾗﾂﾞｼ","kana_address":"ｼﾞｮｳｻﾞｲﾐﾅﾐ","pref":"千葉県","city":"木更津市","address":"請西南"},
{"zip_code":"2920066","kana_pref":"ﾁﾊﾞｹﾝ","kana_city":"ｷｻﾗﾂﾞｼ","kana_address":"ｼﾝｼﾞｭｸ","pref":"千葉県","city":"木更津市","address":"新宿"},
{"zip_code":"2920832","kana_pref":"ﾁﾊﾞｹﾝ","kana_city":"ｷｻﾗﾂﾞｼ","kana_address":"ｼﾝﾃﾞﾝ","pref":"千葉県","city":"木更津市","address":"新田"},
{"zip_code":"2920836","kana_pref":"ﾁﾊﾞｹﾝ","kana_city":"ｷｻﾗﾂﾞｼ","kana_address":"ｼﾝﾐﾅﾄ","pref":"千葉県","city":"木更津市","address":"新港"},
{"zip_code":"2920036","kana_pref":"ﾁﾊﾞｹﾝ","kana_city":"ｷｻﾗﾂﾞｼ","kana_address":"ｽｺﾞｳ","pref":"千葉県","city":"木更津市","address":"菅生"},
{"zip_code":"2920027","kana_pref":"ﾁﾊﾞｹﾝ","kana_city":"ｷｻﾗﾂﾞｼ","kana_address":"ｿﾈ","pref":"千葉県","city":"木更津市","address":"曽根"},
{"zip_code":"2920016","kana_pref":"ﾁﾊﾞｹﾝ","kana_city":"ｷｻﾗﾂﾞｼ","kana_address":"ﾀｶｻｺﾞ","pref":"千葉県","city":"木更津市","address":"高砂"},
{"zip_code":"2920014","kana_pref":"ﾁﾊﾞｹﾝ","kana_city":"ｷｻﾗﾂﾞｼ","kana_address":"ﾀｶﾔﾅｷﾞ","pref":"千葉県","city":"木更津市","address":"高柳"},
{"zip_code":"2920207","kana_pref":"ﾁﾊﾞｹﾝ","kana_city":"ｷｻﾗﾂﾞｼ","kana_address":"ﾀｶﾞﾜ","pref":"千葉県","city":"木更津市","address":"田川"},
{"zip_code":"2920067","kana_pref":"ﾁﾊﾞｹﾝ","kana_city":"ｷｻﾗﾂﾞｼ","kana_address":"ﾁｭｳｵｳ","pref":"千葉県","city":"木更津市","address":"中央"},
{"zip_code":"2920835","kana_pref":"ﾁﾊﾞｹﾝ","kana_city":"ｷｻﾗﾂﾞｼ","kana_address":"ﾂｷｼﾞ","pref":"千葉県","city":"木更津市","address":"築地"},
{"zip_code":"2920031","kana_pref":"ﾁﾊﾞｹﾝ","kana_city":"ｷｻﾗﾂﾞｼ","kana_address":"ﾂﾊﾞｷ","pref":"千葉県","city":"木更津市","address":"椿"},
{"zip_code":"2920025","kana_pref":"ﾁﾊﾞｹﾝ","kana_city":"ｷｻﾗﾂﾞｼ","kana_address":"ﾄｵｶｲﾁﾊﾞ","pref":"千葉県","city":"木更津市","address":"十日市場"},
{"zip_code":"2920214","kana_pref":"ﾁﾊﾞｹﾝ","kana_city":"ｷｻﾗﾂﾞｼ","kana_address":"ﾄｸﾆ","pref":"千葉県","city":"木更津市","address":"戸国"},
{"zip_code":"2920035","kana_pref":"ﾁﾊﾞｹﾝ","kana_city":"ｷｻﾗﾂﾞｼ","kana_address":"ﾅｶｵ","pref":"千葉県","city":"木更津市","address":"中尾"},
{"zip_code":"2920817","kana_pref":"ﾁﾊﾞｹﾝ","kana_city":"ｷｻﾗﾂﾞｼ","kana_address":"ﾅｶｶﾗｽﾀﾞ","pref":"千葉県","city":"木更津市","address":"中烏田"},
{"zip_code":"2920064","kana_pref":"ﾁﾊﾞｹﾝ","kana_city":"ｷｻﾗﾂﾞｼ","kana_address":"ﾅｶｻﾞﾄ","pref":"千葉県","city":"木更津市","address":"中里"},
{"zip_code":"2920008","kana_pref":"ﾁﾊﾞｹﾝ","kana_city":"ｷｻﾗﾂﾞｼ","kana_address":"ﾅｶｼﾞﾏ","pref":"千葉県","city":"木更津市","address":"中島"},
{"zip_code":"2920071","kana_pref":"ﾁﾊﾞｹﾝ","kana_city":"ｷｻﾗﾂﾞｼ","kana_address":"ﾅｶｼﾞﾏﾁｻｷｳﾐﾎﾀﾙ","pref":"千葉県","city":"木更津市","address":"中島地先海ほたる"},
{"zip_code":"2920002","kana_pref":"ﾁﾊﾞｹﾝ","kana_city":"ｷｻﾗﾂﾞｼ","kana_address":"ﾅｶﾉ","pref":"千葉県","city":"木更津市","address":"中野"},
{"zip_code":"2920839","kana_pref":"ﾁﾊﾞｹﾝ","kana_city":"ｷｻﾗﾂﾞｼ","kana_address":"ﾅｶﾉｼﾏ","pref":"千葉県","city":"木更津市","address":"中の島"},
{"zip_code":"2920053","kana_pref":"ﾁﾊﾞｹﾝ","kana_city":"ｷｻﾗﾂﾞｼ","kana_address":"ﾅｶﾞｲｻｸ","pref":"千葉県","city":"木更津市","address":"永井作"},
{"zip_code":"2920054","kana_pref":"ﾁﾊﾞｹﾝ","kana_city":"ｷｻﾗﾂﾞｼ","kana_address":"ﾅｶﾞｽｶ","pref":"千葉県","city":"木更津市","address":"長須賀"},
{"zip_code":"2920062","kana_pref":"ﾁﾊﾞｹﾝ","kana_city":"ｷｻﾗﾂﾞｼ","kana_address":"ﾆｼｲﾜﾈ","pref":"千葉県","city":"木更津市","address":"西岩根"},
{"zip_code":"2920216","kana_pref":"ﾁﾊﾞｹﾝ","kana_city":"ｷｻﾗﾂﾞｼ","kana_address":"ﾈｷﾞｼ","pref":"千葉県","city":"木更津市","address":"根岸"},
{"zip_code":"2920825","kana_pref":"ﾁﾊﾞｹﾝ","kana_city":"ｷｻﾗﾂﾞｼ","kana_address":"ﾊﾀｻﾞﾜ","pref":"千葉県","city":"木更津市","address":"畑沢"},
{"zip_code":"2920826","kana_pref":"ﾁﾊﾞｹﾝ","kana_city":"ｷｻﾗﾂﾞｼ","kana_address":"ﾊﾀｻﾞﾜﾐﾅﾐ","pref":"千葉県","city":"木更津市","address":"畑沢南"},
{"zip_code":"2920814","kana_pref":"ﾁﾊﾞｹﾝ","kana_city":"ｷｻﾗﾂﾞｼ","kana_address":"ﾊﾁﾏﾝﾀﾞｲ","pref":"千葉県","city":"木更津市","address":"八幡台"},
{"zip_code":"2920819","kana_pref":"ﾁﾊﾞｹﾝ","kana_city":"ｷｻﾗﾂﾞｼ","kana_address":"ﾊﾄﾘﾉ","pref":"千葉県","city":"木更津市","address":"羽鳥野"},
{"zip_code":"2920043","kana_pref":"ﾁﾊﾞｹﾝ","kana_city":"ｷｻﾗﾂﾞｼ","kana_address":"ﾋｶﾞｼｵｵﾀﾞ","pref":"千葉県","city":"木更津市","address":"東太田"},
{"zip_code":"2920057","kana_pref":"ﾁﾊﾞｹﾝ","kana_city":"ｷｻﾗﾂﾞｼ","kana_address":"ﾋｶﾞｼﾁｭｳｵｳ","pref":"千葉県","city":"木更津市","address":"東中央"},
{"zip_code":"2920037","kana_pref":"ﾁﾊﾞｹﾝ","kana_city":"ｷｻﾗﾂﾞｼ","kana_address":"ﾋﾉﾃﾞﾁｮｳ","pref":"千葉県","city":"木更津市","address":"日の出町"},
{"zip_code":"2920831","kana_pref":"ﾁﾊﾞｹﾝ","kana_city":"ｷｻﾗﾂﾞｼ","kana_address":"ﾌｼﾞﾐ","pref":"千葉県","city":"木更津市","address":"富士見"},
{"zip_code":"2920804","kana_pref":"ﾁﾊﾞｹﾝ","kana_city":"ｷｻﾗﾂﾞｼ","kana_address":"ﾌﾞﾝｷｮｳ","pref":"千葉県","city":"木更津市","address":"文京"},
{"zip_code":"2920038","kana_pref":"ﾁﾊﾞｹﾝ","kana_city":"ｷｻﾗﾂﾞｼ","kana_address":"ﾎﾀﾙﾉ","pref":"千葉県","city":"木更津市","address":"ほたる野"},
{"zip_code":"2920015","kana_pref":"ﾁﾊﾞｹﾝ","kana_city":"ｷｻﾗﾂﾞｼ","kana_address":"ﾎﾝｺﾞｳ","pref":"千葉県","city":"木更津市","address":"本郷"},
{"zip_code":"2920802","kana_pref":"ﾁﾊﾞｹﾝ","kana_city":"ｷｻﾗﾂﾞｼ","kana_address":"ﾏﾌﾈ","pref":"千葉県","city":"木更津市","address":"真舟"},
{"zip_code":"2920212","kana_pref":"ﾁﾊﾞｹﾝ","kana_city":"ｷｻﾗﾂﾞｼ","kana_address":"ﾏﾘ","pref":"千葉県","city":"木更津市","address":"真里"},
{"zip_code":"2920201","kana_pref":"ﾁﾊﾞｹﾝ","kana_city":"ｷｻﾗﾂﾞｼ","kana_address":"ﾏﾘﾔﾂ","pref":"千葉県","city":"木更津市","address":"真里谷"},
{"zip_code":"2920003","kana_pref":"ﾁﾊﾞｹﾝ","kana_city":"ｷｻﾗﾂﾞｼ","kana_address":"ﾏﾝｺﾞｸ","pref":"千葉県","city":"木更津市","address":"万石"},
{"zip_code":"2920837","kana_pref":"ﾁﾊﾞｹﾝ","kana_city":"ｷｻﾗﾂﾞｼ","kana_address":"ﾓｸｻﾞｲﾐﾅﾄ","pref":"千葉県","city":"木更津市","address":"木材港"},
{"zip_code":"2920812","kana_pref":"ﾁﾊﾞｹﾝ","kana_city":"ｷｻﾗﾂﾞｼ","kana_address":"ﾔﾅ","pref":"千葉県","city":"木更津市","address":"矢那"},
{"zip_code":"2920805","kana_pref":"ﾁﾊﾞｹﾝ","kana_city":"ｷｻﾗﾂﾞｼ","kana_address":"ﾔﾏﾄ","pref":"千葉県","city":"木更津市","address":"大和"},
{"zip_code":"2920203","kana_pref":"ﾁﾊﾞｹﾝ","kana_city":"ｷｻﾗﾂﾞｼ","kana_address":"ﾔﾏﾓﾄﾅﾅﾏｶﾞﾘ","pref":"千葉県","city":"木更津市","address":"山本七曲"},
{"zip_code":"2920013","kana_pref":"ﾁﾊﾞｹﾝ","kana_city":"ｷｻﾗﾂﾞｼ","kana_address":"ﾜｶﾊﾞﾁｮｳ","pref":"千葉県","city":"木更津市","address":"若葉町"},
{"zip_code":"2920454","kana_pref":"ﾁﾊﾞｹﾝ","kana_city":"ｷﾐﾂｼ","kana_address":"ｱｵﾔｷﾞ","pref":"千葉県","city":"君津市","address":"青柳"},
{"zip_code":"2920445","kana_pref":"ﾁﾊﾞｹﾝ","kana_city":"ｷﾐﾂｼ","kana_address":"ｱﾀｺﾞ","pref":"千葉県","city":"君津市","address":"愛宕"},
{"zip_code":"2921153","kana_pref":"ﾁﾊﾞｹﾝ","kana_city":"ｷﾐﾂｼ","kana_address":"ｲﾁｼﾞｭｸ","pref":"千葉県","city":"君津市","address":"市宿"},
{"zip_code":"2921145","kana_pref":"ﾁﾊﾞｹﾝ","kana_city":"ｷﾐﾂｼ","kana_address":"ｲﾄｶﾞﾜ","pref":"千葉県","city":"君津市","address":"糸川"},
{"zip_code":"2920433","kana_pref":"ﾁﾊﾞｹﾝ","kana_city":"ｷﾐﾂｼ","kana_address":"ｲﾓｸﾎﾞ","pref":"千葉県","city":"君津市","address":"芋窪"},
{"zip_code":"2920442","kana_pref":"ﾁﾊﾞｹﾝ","kana_city":"ｷﾐﾂｼ","kana_address":"ｲﾜﾃﾞ","pref":"千葉県","city":"君津市","address":"岩出"},
{"zip_code":"2921166","kana_pref":"ﾁﾊﾞｹﾝ","kana_city":"ｷﾐﾂｼ","kana_address":"ｳｴﾊﾀ","pref":"千葉県","city":"君津市","address":"植畑"},
{"zip_code":"2920432","kana_pref":"ﾁﾊﾞｹﾝ","kana_city":"ｷﾐﾂｼ","kana_address":"ｳﾗﾀ","pref":"千葉県","city":"君津市","address":"浦田"},
{"zip_code":"2921146","kana_pref":"ﾁﾊﾞｹﾝ","kana_city":"ｷﾐﾂｼ","kana_address":"ｵｵｲﾄﾞ","pref":"千葉県","city":"君津市","address":"大井戸"},
{"zip_code":"2921173","kana_pref":"ﾁﾊﾞｹﾝ","kana_city":"ｷﾐﾂｼ","kana_address":"ｵｵｲﾜ","pref":"千葉県","city":"君津市","address":"大岩"},
{"zip_code":"2920512","kana_pref":"ﾁﾊﾞｹﾝ","kana_city":"ｷﾐﾂｼ","kana_address":"ｵｵﾄﾐ","pref":"千葉県","city":"君津市","address":"大戸見"},
{"zip_code":"2920514","kana_pref":"ﾁﾊﾞｹﾝ","kana_city":"ｷﾐﾂｼ","kana_address":"ｵｵﾄﾐｷｭｳﾅﾄﾞﾉ","pref":"千葉県","city":"君津市","address":"大戸見旧名殿"},
{"zip_code":"2921151","kana_pref":"ﾁﾊﾞｹﾝ","kana_city":"ｷﾐﾂｼ","kana_address":"ｵｵﾉﾀﾞｲ","pref":"千葉県","city":"君津市","address":"大野台"},
{"zip_code":"2921156","kana_pref":"ﾁﾊﾞｹﾝ","kana_city":"ｷﾐﾂｼ","kana_address":"ｵｷﾞｻｸ","pref":"千葉県","city":"君津市","address":"荻作"},
{"zip_code":"2921175","kana_pref":"ﾁﾊﾞｹﾝ","kana_city":"ｷﾐﾂｼ","kana_address":"ｵｸｺﾞﾒ","pref":"千葉県","city":"君津市","address":"奥米"},
{"zip_code":"2920511","kana_pref":"ﾁﾊﾞｹﾝ","kana_city":"ｷﾐﾂｼ","kana_address":"ｵｻｶ","pref":"千葉県","city":"君津市","address":"大坂"},
{"zip_code":"2920412","kana_pref":"ﾁﾊﾞｹﾝ","kana_city":"ｷﾐﾂｼ","kana_address":"ｵﾋﾞﾂﾀﾞｲ","pref":"千葉県","city":"君津市","address":"小櫃台"},
{"zip_code":"2920533","kana_pref":"ﾁﾊﾞｹﾝ","kana_city":"ｷﾐﾂｼ","kana_address":"ｵﾘｷｻﾜ","pref":"千葉県","city":"君津市","address":"折木沢"},
{"zip_code":"2920404","kana_pref":"ﾁﾊﾞｹﾝ","kana_city":"ｷﾐﾂｼ","kana_address":"ｶｴﾌﾁ","pref":"千葉県","city":"君津市","address":"賀恵渕"},
{"zip_code":"2920527","kana_pref":"ﾁﾊﾞｹﾝ","kana_city":"ｷﾐﾂｼ","kana_address":"ｶｷﾞﾊﾗ","pref":"千葉県","city":"君津市","address":"香木原"},
{"zip_code":"2921149","kana_pref":"ﾁﾊﾞｹﾝ","kana_city":"ｷﾐﾂｼ","kana_address":"ｶｽﾞｻｺｲﾄ","pref":"千葉県","city":"君津市","address":"かずさ小糸"},
{"zip_code":"2920513","kana_pref":"ﾁﾊﾞｹﾝ","kana_city":"ｷﾐﾂｼ","kana_address":"ｶﾅﾓﾘ","pref":"千葉県","city":"君津市","address":"加名盛"},
{"zip_code":"2921155","kana_pref":"ﾁﾊﾞｹﾝ","kana_city":"ｷﾐﾂｼ","kana_address":"ｶﾉｳｻﾞﾝ","pref":"千葉県","city":"君津市","address":"鹿野山"},
{"zip_code":"2921158","kana_pref":"ﾁﾊﾞｹﾝ","kana_city":"ｷﾐﾂｼ","kana_address":"ｶﾏﾀﾞｷ","pref":"千葉県","city":"君津市","address":"鎌滝"},
{"zip_code":"2920452","kana_pref":"ﾁﾊﾞｹﾝ","kana_city":"ｷﾐﾂｼ","kana_address":"ｶﾐﾆｯﾀ","pref":"千葉県","city":"君津市","address":"上新田"},
{"zip_code":"2920535","kana_pref":"ﾁﾊﾞｹﾝ","kana_city":"ｷﾐﾂｼ","kana_address":"ｶﾓｳ","pref":"千葉県","city":"君津市","address":"釜生"},
{"zip_code":"2920524","kana_pref":"ﾁﾊﾞｹﾝ","kana_city":"ｷﾐﾂｼ","kana_address":"ｶﾜﾏﾀ","pref":"千葉県","city":"君津市","address":"川俣"},
{"zip_code":"2920415","kana_pref":"ﾁﾊﾞｹﾝ","kana_city":"ｷﾐﾂｼ","kana_address":"ｶﾜﾔﾂ","pref":"千葉県","city":"君津市","address":"川谷"},
{"zip_code":"2921148","kana_pref":"ﾁﾊﾞｹﾝ","kana_city":"ｷﾐﾂｼ","kana_address":"ｷﾞｮｳﾏ","pref":"千葉県","city":"君津市","address":"行馬"},
{"zip_code":"2920537","kana_pref":"ﾁﾊﾞｹﾝ","kana_city":"ｷﾐﾂｼ","kana_address":"ｷﾜﾀﾞﾊﾀ","pref":"千葉県","city":"君津市","address":"黄和田畑"},
{"zip_code":"2920525","kana_pref":"ﾁﾊﾞｹﾝ","kana_city":"ｷﾐﾂｼ","kana_address":"ｸｻｶﾞﾜﾗ","pref":"千葉県","city":"君津市","address":"草川原"},
{"zip_code":"2920536","kana_pref":"ﾁﾊﾞｹﾝ","kana_city":"ｷﾐﾂｼ","kana_address":"ｸﾗﾀﾞﾏ","pref":"千葉県","city":"君津市","address":"蔵玉"},
{"zip_code":"2920435","kana_pref":"ﾁﾊﾞｹﾝ","kana_city":"ｷﾐﾂｼ","kana_address":"ｸﾘﾂﾎﾞ","pref":"千葉県","city":"君津市","address":"栗坪"},
{"zip_code":"2920422","kana_pref":"ﾁﾊﾞｹﾝ","kana_city":"ｷﾐﾂｼ","kana_address":"ｸﾙﾘ","pref":"千葉県","city":"君津市","address":"久留里"},
{"zip_code":"2920421","kana_pref":"ﾁﾊﾞｹﾝ","kana_city":"ｷﾐﾂｼ","kana_address":"ｸﾙﾘｲﾁﾊﾞ","pref":"千葉県","city":"君津市","address":"久留里市場"},
{"zip_code":"2920414","kana_pref":"ﾁﾊﾞｹﾝ","kana_city":"ｷﾐﾂｼ","kana_address":"ｸﾙﾘｵｵﾔﾂ","pref":"千葉県","city":"君津市","address":"久留里大谷"},
{"zip_code":"2920423","kana_pref":"ﾁﾊﾞｹﾝ","kana_city":"ｷﾐﾂｼ","kana_address":"ｸﾙﾘｵｵﾜﾀﾞ","pref":"千葉県","city":"君津市","address":"久留里大和田"},
{"zip_code":"2920416","kana_pref":"ﾁﾊﾞｹﾝ","kana_city":"ｷﾐﾂｼ","kana_address":"ｺｲﾁﾌﾞ","pref":"千葉県","city":"君津市","address":"小市部"},
{"zip_code":"2921142","kana_pref":"ﾁﾊﾞｹﾝ","kana_city":"ｷﾐﾂｼ","kana_address":"ｺｲﾄｵｵﾔﾂ","pref":"千葉県","city":"君津市","address":"小糸大谷"},
{"zip_code":"2920532","kana_pref":"ﾁﾊﾞｹﾝ","kana_city":"ｷﾐﾂｼ","kana_address":"ｻｶﾊﾀ","pref":"千葉県","city":"君津市","address":"坂畑"},
{"zip_code":"2920526","kana_pref":"ﾁﾊﾞｹﾝ","kana_city":"ｷﾐﾂｼ","kana_address":"ｻｻ","pref":"千葉県","city":"君津市","address":"笹"},
{"zip_code":"2920403","kana_pref":"ﾁﾊﾞｹﾝ","kana_city":"ｷﾐﾂｼ","kana_address":"ｻﾝﾀﾞ","pref":"千葉県","city":"君津市","address":"三田"},
{"zip_code":"2921176","kana_pref":"ﾁﾊﾞｹﾝ","kana_city":"ｷﾐﾂｼ","kana_address":"ｼｭｸﾊﾞﾗ","pref":"千葉県","city":"君津市","address":"宿原"},
{"zip_code":"2920451","kana_pref":"ﾁﾊﾞｹﾝ","kana_city":"ｷﾐﾂｼ","kana_address":"ｽｴﾖｼ","pref":"千葉県","city":"君津市","address":"末吉"},
{"zip_code":"2921154","kana_pref":"ﾁﾊﾞｹﾝ","kana_city":"ｷﾐﾂｼ","kana_address":"ｾｲﾜｲﾁﾊﾞ","pref":"千葉県","city":"君津市","address":"清和市場"},
{"zip_code":"2920522","kana_pref":"ﾁﾊﾞｹﾝ","kana_city":"ｷﾐﾂｼ","kana_address":"ﾀﾞｲﾅｶ","pref":"千葉県","city":"君津市","address":"大中"},
{"zip_code":"2920516","kana_pref":"ﾁﾊﾞｹﾝ","kana_city":"ｷﾐﾂｼ","kana_address":"ﾀｶﾐｽﾞ","pref":"千葉県","city":"君津市","address":"高水"},
{"zip_code":"2920534","kana_pref":"ﾁﾊﾞｹﾝ","kana_city":"ｷﾐﾂｼ","kana_address":"ﾀｷﾊﾗ","pref":"千葉県","city":"君津市","address":"滝原"},
{"zip_code":"2921178","kana_pref":"ﾁﾊﾞｹﾝ","kana_city":"ｷﾐﾂｼ","kana_address":"ﾀﾋﾞﾅ","pref":"千葉県","city":"君津市","address":"旅名"},
{"zip_code":"2920455","kana_pref":"ﾁﾊﾞｹﾝ","kana_city":"ｷﾐﾂｼ","kana_address":"ﾀﾜﾗﾀﾞ","pref":"千葉県","city":"君津市","address":"俵田"},
{"zip_code":"2921147","kana_pref":"ﾁﾊﾞｹﾝ","kana_city":"ｷﾐﾂｼ","kana_address":"ﾂｶﾊﾗ","pref":"千葉県","city":"君津市","address":"塚原"},
{"zip_code":"2921172","kana_pref":"ﾁﾊﾞｹﾝ","kana_city":"ｷﾐﾂｼ","kana_address":"ﾂｼﾞﾓﾘ","pref":"千葉県","city":"君津市","address":"辻森"},
{"zip_code":"2920443","kana_pref":"ﾁﾊﾞｹﾝ","kana_city":"ｷﾐﾂｼ","kana_address":"ﾃﾗｻﾞﾜ","pref":"千葉県","city":"君津市","address":"寺沢"},
{"zip_code":"2920441","kana_pref":"ﾁﾊﾞｹﾝ","kana_city":"ｷﾐﾂｼ","kana_address":"ﾄｻﾞｷ","pref":"千葉県","city":"君津市","address":"戸崎"},
{"zip_code":"2920521","kana_pref":"ﾁﾊﾞｹﾝ","kana_city":"ｷﾐﾂｼ","kana_address":"ﾄﾈ","pref":"千葉県","city":"君津市","address":"利根"},
{"zip_code":"2920444","kana_pref":"ﾁﾊﾞｹﾝ","kana_city":"ｷﾐﾂｼ","kana_address":"ﾄﾐﾀﾞ","pref":"千葉県","city":"君津市","address":"富田"},
{"zip_code":"2920523","kana_pref":"ﾁﾊﾞｹﾝ","kana_city":"ｷﾐﾂｼ","kana_address":"ﾄﾖﾀﾞ","pref":"千葉県","city":"君津市","address":"豊田"},
{"zip_code":"2921179","kana_pref":"ﾁﾊﾞｹﾝ","kana_city":"ｷﾐﾂｼ","kana_address":"ﾄﾖﾌｻ","pref":"千葉県","city":"君津市","address":"豊英"},
{"zip_code":"2921143","kana_pref":"ﾁﾊﾞｹﾝ","kana_city":"ｷﾐﾂｼ","kana_address":"ﾅｶﾞｼ","pref":"千葉県","city":"君津市","address":"長石"},
{"zip_code":"2921168","kana_pref":"ﾁﾊﾞｹﾝ","kana_city":"ｷﾐﾂｼ","kana_address":"ﾆｼｱﾜｸﾞﾗ","pref":"千葉県","city":"君津市","address":"西粟倉"},
{"zip_code":"2921162","kana_pref":"ﾁﾊﾞｹﾝ","kana_city":"ｷﾐﾂｼ","kana_address":"ﾆｼｲﾉﾊﾗ","pref":"千葉県","city":"君津市","address":"西猪原"},
{"zip_code":"2920402","kana_pref":"ﾁﾊﾞｹﾝ","kana_city":"ｷﾐﾂｼ","kana_address":"ﾆｼﾊﾞﾗ","pref":"千葉県","city":"君津市","address":"西原"},
{"zip_code":"2921165","kana_pref":"ﾁﾊﾞｹﾝ","kana_city":"ｷﾐﾂｼ","kana_address":"ﾆｼﾋｶｻ","pref":"千葉県","city":"君津市","address":"西日笠"},
{"zip_code":"2921152","kana_pref":"ﾁﾊﾞｹﾝ","kana_city":"ｷﾐﾂｼ","kana_address":"ﾆｯﾄﾈ","pref":"千葉県","city":"君津市","address":"日渡根"},
{"zip_code":"2921140","kana_pref":"ﾁﾊﾞｹﾝ","kana_city":"ｷﾐﾂｼ","kana_address":"ﾇｶﾀﾄﾋﾞﾁ","pref":"千葉県","city":"君津市","address":"糠田飛地"},
{"zip_code":"2921177","kana_pref":"ﾁﾊﾞｹﾝ","kana_city":"ｷﾐﾂｼ","kana_address":"ﾇﾀｻﾞﾜ","pref":"千葉県","city":"君津市","address":"怒田沢"},
{"zip_code":"2920431","kana_pref":"ﾁﾊﾞｹﾝ","kana_city":"ｷﾐﾂｼ","kana_address":"ﾇﾀﾞ","pref":"千葉県","city":"君津市","address":"怒田"},
{"zip_code":"2921141","kana_pref":"ﾁﾊﾞｹﾝ","kana_city":"ｷﾐﾂｼ","kana_address":"ﾈﾓﾄ","pref":"千葉県","city":"君津市","address":"根本"},
{"zip_code":"2920411","kana_pref":"ﾁﾊﾞｹﾝ","kana_city":"ｷﾐﾂｼ","kana_address":"ﾊｾｶﾞﾜ","pref":"千葉県","city":"君津市","address":"長谷川"},
{"zip_code":"2921163","kana_pref":"ﾁﾊﾞｹﾝ","kana_city":"ｷﾐﾂｼ","kana_address":"ﾋｶﾞｼｱﾜｸﾞﾗ","pref":"千葉県","city":"君津市","address":"東粟倉"},
{"zip_code":"2921161","kana_pref":"ﾁﾊﾞｹﾝ","kana_city":"ｷﾐﾂｼ","kana_address":"ﾋｶﾞｼｲﾉﾊﾗ","pref":"千葉県","city":"君津市","address":"東猪原"},
{"zip_code":"2921164","kana_pref":"ﾁﾊﾞｹﾝ","kana_city":"ｷﾐﾂｼ","kana_address":"ﾋｶﾞｼﾋｶｻ","pref":"千葉県","city":"君津市","address":"東日笠"},
{"zip_code":"2921167","kana_pref":"ﾁﾊﾞｹﾝ","kana_city":"ｷﾐﾂｼ","kana_address":"ﾋﾗｯﾀ","pref":"千葉県","city":"君津市","address":"平田"},
{"zip_code":"2920502","kana_pref":"ﾁﾊﾞｹﾝ","kana_city":"ｷﾐﾂｼ","kana_address":"ﾋﾗﾔﾏ","pref":"千葉県","city":"君津市","address":"平山"},
{"zip_code":"2920503","kana_pref":"ﾁﾊﾞｹﾝ","kana_city":"ｷﾐﾂｼ","kana_address":"ﾋﾛｵｶ","pref":"千葉県","city":"君津市","address":"広岡"},
{"zip_code":"2921157","kana_pref":"ﾁﾊﾞｹﾝ","kana_city":"ｷﾐﾂｼ","kana_address":"ﾌｸｵｶ","pref":"千葉県","city":"君津市","address":"福岡"},
{"zip_code":"2920531","kana_pref":"ﾁﾊﾞｹﾝ","kana_city":"ｷﾐﾂｼ","kana_address":"ﾌｼﾞﾊﾞﾔｼ","pref":"千葉県","city":"君津市","address":"藤林"},
{"zip_code":"2921171","kana_pref":"ﾁﾊﾞｹﾝ","kana_city":"ｷﾐﾂｼ","kana_address":"ﾌﾀｲﾘ","pref":"千葉県","city":"君津市","address":"二入"},
{"zip_code":"2921144","kana_pref":"ﾁﾊﾞｹﾝ","kana_city":"ｷﾐﾂｼ","kana_address":"ﾎｳｷﾞ","pref":"千葉県","city":"君津市","address":"法木"},
{"zip_code":"2921174","kana_pref":"ﾁﾊﾞｹﾝ","kana_city":"ｷﾐﾂｼ","kana_address":"ﾏｻｷ","pref":"千葉県","city":"君津市","address":"正木"},
{"zip_code":"2920453","kana_pref":"ﾁﾊﾞｹﾝ","kana_city":"ｷﾐﾂｼ","kana_address":"ﾐﾉﾜ","pref":"千葉県","city":"君津市","address":"箕輪"},
{"zip_code":"2920434","kana_pref":"ﾁﾊﾞｹﾝ","kana_city":"ｷﾐﾂｼ","kana_address":"ﾑｶｲｺﾞｳ","pref":"千葉県","city":"君津市","address":"向郷"},
{"zip_code":"2920515","kana_pref":"ﾁﾊﾞｹﾝ","kana_city":"ｷﾐﾂｼ","kana_address":"ﾔﾅｼﾛ","pref":"千葉県","city":"君津市","address":"柳城"},
{"zip_code":"2920501","kana_pref":"ﾁﾊﾞｹﾝ","kana_city":"ｷﾐﾂｼ","kana_address":"ﾔﾏﾀｷﾉ","pref":"千葉県","city":"君津市","address":"山滝野"},
{"zip_code":"2920401","kana_pref":"ﾁﾊﾞｹﾝ","kana_city":"ｷﾐﾂｼ","kana_address":"ﾔﾏﾓﾄ","pref":"千葉県","city":"君津市","address":"山本"},
{"zip_code":"2920413","kana_pref":"ﾁﾊﾞｹﾝ","kana_city":"ｷﾐﾂｼ","kana_address":"ﾖｼﾉ","pref":"千葉県","city":"君津市","address":"吉野"}]}