{"zip_code":[
{"zip_code":"2930000","kana_pref":"ﾁﾊﾞｹﾝ","kana_city":"ﾌｯﾂｼ","kana_address":"","pref":"千葉県","city":"富津市","address":""},
{"zip_code":"2930031","kana_pref":"ﾁﾊﾞｹﾝ","kana_city":"ﾌｯﾂｼ","kana_address":"ｱｲﾉﾔﾂ","pref":"千葉県","city":"富津市","address":"相野谷"},
{"zip_code":"2930012","kana_pref":"ﾁﾊﾞｹﾝ","kana_city":"ﾌｯﾂｼ","kana_address":"ｱｵｷ","pref":"千葉県","city":"富津市","address":"青木"},
{"zip_code":"2930022","kana_pref":"ﾁﾊﾞｹﾝ","kana_city":"ﾌｯﾂｼ","kana_address":"ｱﾗｲ","pref":"千葉県","city":"富津市","address":"新井"},
{"zip_code":"2930033","kana_pref":"ﾁﾊﾞｹﾝ","kana_city":"ﾌｯﾂｼ","kana_address":"ｲｯｼｷ","pref":"千葉県","city":"富津市","address":"一色"},
{"zip_code":"2930043","kana_pref":"ﾁﾊﾞｹﾝ","kana_city":"ﾌｯﾂｼ","kana_address":"ｲﾜｾ","pref":"千葉県","city":"富津市","address":"岩瀬"},
{"zip_code":"2930001","kana_pref":"ﾁﾊﾞｹﾝ","kana_city":"ﾌｯﾂｼ","kana_address":"ｵｵﾎﾘ","pref":"千葉県","city":"富津市","address":"大堀"},
{"zip_code":"2930041","kana_pref":"ﾁﾊﾞｹﾝ","kana_city":"ﾌｯﾂｼ","kana_address":"ｶﾐ","pref":"千葉県","city":"富津市","address":"上"},
{"zip_code":"2930005","kana_pref":"ﾁﾊﾞｹﾝ","kana_city":"ﾌｯﾂｼ","kana_address":"ｶﾐｲｲﾉ","pref":"千葉県","city":"富津市","address":"上飯野"},
{"zip_code":"2930051","kana_pref":"ﾁﾊﾞｹﾝ","kana_city":"ﾌｯﾂｼ","kana_address":"ｶﾒｻﾞﾜ","pref":"千葉県","city":"富津市","address":"亀沢"},
{"zip_code":"2930057","kana_pref":"ﾁﾊﾞｹﾝ","kana_city":"ﾌｯﾂｼ","kana_address":"ｶﾒﾀﾞ","pref":"千葉県","city":"富津市","address":"亀田"},
{"zip_code":"2930023","kana_pref":"ﾁﾊﾞｹﾝ","kana_city":"ﾌｯﾂｼ","kana_address":"ｶﾜﾅ","pref":"千葉県","city":"富津市","address":"川名"},
{"zip_code":"2930034","kana_pref":"ﾁﾊﾞｹﾝ","kana_city":"ﾌｯﾂｼ","kana_address":"ｷﾇ","pref":"千葉県","city":"富津市","address":"絹"},
{"zip_code":"2930042","kana_pref":"ﾁﾊﾞｹﾝ","kana_city":"ﾌｯﾂｼ","kana_address":"ｺｸﾎﾞ","pref":"千葉県","city":"富津市","address":"小久保"},
{"zip_code":"2930046","kana_pref":"ﾁﾊﾞｹﾝ","kana_city":"ﾌｯﾂｼ","kana_address":"ｺﾝﾄﾞｳ","pref":"千葉県","city":"富津市","address":"近藤"},
{"zip_code":"2930055","kana_pref":"ﾁﾊﾞｹﾝ","kana_city":"ﾌｯﾂｼ","kana_address":"ｻｻｹﾞ","pref":"千葉県","city":"富津市","address":"笹毛"},
{"zip_code":"2930058","kana_pref":"ﾁﾊﾞｹﾝ","kana_city":"ﾌｯﾂｼ","kana_address":"ｻﾇｷ","pref":"千葉県","city":"富津市","address":"佐貫"},
{"zip_code":"2930024","kana_pref":"ﾁﾊﾞｹﾝ","kana_city":"ﾌｯﾂｼ","kana_address":"ｼﾉﾍﾞ","pref":"千葉県","city":"富津市","address":"篠部"},
{"zip_code":"2930006","kana_pref":"ﾁﾊﾞｹﾝ","kana_city":"ﾌｯﾂｼ","kana_address":"ｼﾓｲｲﾉ","pref":"千葉県","city":"富津市","address":"下飯野"},
{"zip_code":"2930032","kana_pref":"ﾁﾊﾞｹﾝ","kana_city":"ﾌｯﾂｼ","kana_address":"ｼｮｳｼﾞﾔﾂ","pref":"千葉県","city":"富津市","address":"障子谷"},
{"zip_code":"2930011","kana_pref":"ﾁﾊﾞｹﾝ","kana_city":"ﾌｯﾂｼ","kana_address":"ｼﾝﾄﾐ","pref":"千葉県","city":"富津市","address":"新富"},
{"zip_code":"2930036","kana_pref":"ﾁﾊﾞｹﾝ","kana_city":"ﾌｯﾂｼ","kana_address":"ﾁｸﾞｻｼﾝﾃﾞﾝ","pref":"千葉県","city":"富津市","address":"千種新田"},
{"zip_code":"2930054","kana_pref":"ﾁﾊﾞｹﾝ","kana_city":"ﾌｯﾂｼ","kana_address":"ﾂﾙｵｶ","pref":"千葉県","city":"富津市","address":"鶴岡"},
{"zip_code":"2930044","kana_pref":"ﾁﾊﾞｹﾝ","kana_city":"ﾌｯﾂｼ","kana_address":"ﾅｶ","pref":"千葉県","city":"富津市","address":"中"},
{"zip_code":"2930035","kana_pref":"ﾁﾊﾞｹﾝ","kana_city":"ﾌｯﾂｼ","kana_address":"ﾆｼｵｵﾜﾀﾞ","pref":"千葉県","city":"富津市","address":"西大和田"},
{"zip_code":"2930013","kana_pref":"ﾁﾊﾞｹﾝ","kana_city":"ﾌｯﾂｼ","kana_address":"ﾆｼｶﾜ","pref":"千葉県","city":"富津市","address":"西川"},
{"zip_code":"2930053","kana_pref":"ﾁﾊﾞｹﾝ","kana_city":"ﾌｯﾂｼ","kana_address":"ﾊﾅｶﾞﾔﾂ","pref":"千葉県","city":"富津市","address":"花香谷"},
{"zip_code":"2930002","kana_pref":"ﾁﾊﾞｹﾝ","kana_city":"ﾌｯﾂｼ","kana_address":"ﾌﾀﾏﾂﾞｶ","pref":"千葉県","city":"富津市","address":"二間塚"},
{"zip_code":"2930021","kana_pref":"ﾁﾊﾞｹﾝ","kana_city":"ﾌｯﾂｼ","kana_address":"ﾌｯﾂ","pref":"千葉県","city":"富津市","address":"富津"},
{"zip_code":"2930052","kana_pref":"ﾁﾊﾞｹﾝ","kana_city":"ﾌｯﾂｼ","kana_address":"ﾎｳﾘｭｳｼﾞ","pref":"千葉県","city":"富津市","address":"宝竜寺"},
{"zip_code":"2930003","kana_pref":"ﾁﾊﾞｹﾝ","kana_city":"ﾌｯﾂｼ","kana_address":"ﾎﾝｺﾞｳ","pref":"千葉県","city":"富津市","address":"本郷"},
{"zip_code":"2930004","kana_pref":"ﾁﾊﾞｹﾝ","kana_city":"ﾌｯﾂｼ","kana_address":"ﾏｴｸﾎﾞ","pref":"千葉県","city":"富津市","address":"前久保"},
{"zip_code":"2930045","kana_pref":"ﾁﾊﾞｹﾝ","kana_city":"ﾌｯﾂｼ","kana_address":"ﾔﾀﾇﾏ","pref":"千葉県","city":"富津市","address":"八田沼"},
{"zip_code":"2930056","kana_pref":"ﾁﾊﾞｹﾝ","kana_city":"ﾌｯﾂｼ","kana_address":"ﾔﾜﾀ","pref":"千葉県","city":"富津市","address":"八幡"}]}