{"zip_code":[
{"zip_code":"2940000","kana_pref":"ﾁﾊﾞｹﾝ","kana_city":"ﾀﾃﾔﾏｼ","kana_address":"","pref":"千葉県","city":"館山市","address":""},
{"zip_code":"2940235","kana_pref":"ﾁﾊﾞｹﾝ","kana_city":"ﾀﾃﾔﾏｼ","kana_address":"ｱｲﾊﾏ","pref":"千葉県","city":"館山市","address":"相浜"},
{"zip_code":"2940043","kana_pref":"ﾁﾊﾞｹﾝ","kana_city":"ﾀﾃﾔﾏｼ","kana_address":"ｱﾌﾞﾘ","pref":"千葉県","city":"館山市","address":"安布里"},
{"zip_code":"2940005","kana_pref":"ﾁﾊﾞｹﾝ","kana_city":"ﾀﾃﾔﾏｼ","kana_address":"ｱﾝﾄﾞｳ","pref":"千葉県","city":"館山市","address":"安東"},
{"zip_code":"2940016","kana_pref":"ﾁﾊﾞｹﾝ","kana_city":"ﾀﾃﾔﾏｼ","kana_address":"ｲｲﾇﾏ","pref":"千葉県","city":"館山市","address":"飯沼"},
{"zip_code":"2940026","kana_pref":"ﾁﾊﾞｹﾝ","kana_city":"ﾀﾃﾔﾏｼ","kana_address":"ｲﾃﾞﾉｵ","pref":"千葉県","city":"館山市","address":"出野尾"},
{"zip_code":"2940314","kana_pref":"ﾁﾊﾞｹﾝ","kana_city":"ﾀﾃﾔﾏｼ","kana_address":"ｲﾄ","pref":"千葉県","city":"館山市","address":"伊戸"},
{"zip_code":"2940012","kana_pref":"ﾁﾊﾞｹﾝ","kana_city":"ﾀﾃﾔﾏｼ","kana_address":"ｲﾅ","pref":"千葉県","city":"館山市","address":"稲"},
{"zip_code":"2940226","kana_pref":"ﾁﾊﾞｹﾝ","kana_city":"ﾀﾃﾔﾏｼ","kana_address":"ｲﾇｲｼ","pref":"千葉県","city":"館山市","address":"犬石"},
{"zip_code":"2940042","kana_pref":"ﾁﾊﾞｹﾝ","kana_city":"ﾀﾃﾔﾏｼ","kana_address":"ｳｴﾉﾊﾗ","pref":"千葉県","city":"館山市","address":"上野原"},
{"zip_code":"2940009","kana_pref":"ﾁﾊﾞｹﾝ","kana_city":"ﾀﾃﾔﾏｼ","kana_address":"ｴﾀﾞ","pref":"千葉県","city":"館山市","address":"江田"},
{"zip_code":"2940044","kana_pref":"ﾁﾊﾞｹﾝ","kana_city":"ﾀﾃﾔﾏｼ","kana_address":"ｵｵｱﾐ","pref":"千葉県","city":"館山市","address":"大網"},
{"zip_code":"2940002","kana_pref":"ﾁﾊﾞｹﾝ","kana_city":"ﾀﾃﾔﾏｼ","kana_address":"ｵｵｲ","pref":"千葉県","city":"館山市","address":"大井"},
{"zip_code":"2940031","kana_pref":"ﾁﾊﾞｹﾝ","kana_city":"ﾀﾃﾔﾏｼ","kana_address":"ｵｵｶ","pref":"千葉県","city":"館山市","address":"大賀"},
{"zip_code":"2940025","kana_pref":"ﾁﾊﾞｹﾝ","kana_city":"ﾀﾃﾔﾏｼ","kana_address":"ｵｵﾄ","pref":"千葉県","city":"館山市","address":"大戸"},
{"zip_code":"2940024","kana_pref":"ﾁﾊﾞｹﾝ","kana_city":"ﾀﾃﾔﾏｼ","kana_address":"ｵｶﾀﾞ","pref":"千葉県","city":"館山市","address":"岡田"},
{"zip_code":"2940306","kana_pref":"ﾁﾊﾞｹﾝ","kana_city":"ﾀﾃﾔﾏｼ","kana_address":"ｶｶﾞﾅ","pref":"千葉県","city":"館山市","address":"加賀名"},
{"zip_code":"2940032","kana_pref":"ﾁﾊﾞｹﾝ","kana_city":"ﾀﾃﾔﾏｼ","kana_address":"ｶｻﾅ","pref":"千葉県","city":"館山市","address":"笠名"},
{"zip_code":"2940023","kana_pref":"ﾁﾊﾞｹﾝ","kana_city":"ﾀﾃﾔﾏｼ","kana_address":"ｶﾅﾏﾘ","pref":"千葉県","city":"館山市","address":"神余"},
{"zip_code":"2940038","kana_pref":"ﾁﾊﾞｹﾝ","kana_city":"ﾀﾃﾔﾏｼ","kana_address":"ｶﾐｻﾅｸﾞﾗ","pref":"千葉県","city":"館山市","address":"上真倉"},
{"zip_code":"2940052","kana_pref":"ﾁﾊﾞｹﾝ","kana_city":"ﾀﾃﾔﾏｼ","kana_address":"ｶﾒｶﾞﾊﾗ","pref":"千葉県","city":"館山市","address":"亀ケ原"},
{"zip_code":"2940057","kana_pref":"ﾁﾊﾞｹﾝ","kana_city":"ﾀﾃﾔﾏｼ","kana_address":"ｶﾜﾅ","pref":"千葉県","city":"館山市","address":"川名"},
{"zip_code":"2940305","kana_pref":"ﾁﾊﾞｹﾝ","kana_city":"ﾀﾃﾔﾏｼ","kana_address":"ｹﾝﾌﾞﾂ","pref":"千葉県","city":"館山市","address":"見物"},
{"zip_code":"2940301","kana_pref":"ﾁﾊﾞｹﾝ","kana_city":"ﾀﾃﾔﾏｼ","kana_address":"ｺｳﾔﾂ","pref":"千葉県","city":"館山市","address":"香"},
{"zip_code":"2940018","kana_pref":"ﾁﾊﾞｹﾝ","kana_city":"ﾀﾃﾔﾏｼ","kana_address":"ｺｸﾌﾞ","pref":"千葉県","city":"館山市","address":"国分"},
{"zip_code":"2940007","kana_pref":"ﾁﾊﾞｹﾝ","kana_city":"ﾀﾃﾔﾏｼ","kana_address":"ｺｼｺﾞｴ","pref":"千葉県","city":"館山市","address":"腰越"},
{"zip_code":"2940312","kana_pref":"ﾁﾊﾞｹﾝ","kana_city":"ﾀﾃﾔﾏｼ","kana_address":"ｺﾇﾏ","pref":"千葉県","city":"館山市","address":"小沼"},
{"zip_code":"2940058","kana_pref":"ﾁﾊﾞｹﾝ","kana_city":"ﾀﾃﾔﾏｼ","kana_address":"ｺﾊﾞﾗ","pref":"千葉県","city":"館山市","address":"小原"},
{"zip_code":"2940015","kana_pref":"ﾁﾊﾞｹﾝ","kana_city":"ﾀﾃﾔﾏｼ","kana_address":"ｺﾓｸﾞﾁ","pref":"千葉県","city":"館山市","address":"古茂口"},
{"zip_code":"2940311","kana_pref":"ﾁﾊﾞｹﾝ","kana_city":"ﾀﾃﾔﾏｼ","kana_address":"ｻｶｲ","pref":"千葉県","city":"館山市","address":"坂井"},
{"zip_code":"2940313","kana_pref":"ﾁﾊﾞｹﾝ","kana_city":"ﾀﾃﾔﾏｼ","kana_address":"ｻｶﾀﾞﾙ","pref":"千葉県","city":"館山市","address":"坂足"},
{"zip_code":"2940029","kana_pref":"ﾁﾊﾞｹﾝ","kana_city":"ﾀﾃﾔﾏｼ","kana_address":"ｻｸﾅ","pref":"千葉県","city":"館山市","address":"作名"},
{"zip_code":"2940225","kana_pref":"ﾁﾊﾞｹﾝ","kana_city":"ﾀﾃﾔﾏｼ","kana_address":"ｻﾉ","pref":"千葉県","city":"館山市","address":"佐野"},
{"zip_code":"2940302","kana_pref":"ﾁﾊﾞｹﾝ","kana_city":"ﾀﾃﾔﾏｼ","kana_address":"ｼｵﾐ","pref":"千葉県","city":"館山市","address":"塩見"},
{"zip_code":"2940048","kana_pref":"ﾁﾊﾞｹﾝ","kana_city":"ﾀﾃﾔﾏｼ","kana_address":"ｼﾓｻﾅｸﾞﾗ","pref":"千葉県","city":"館山市","address":"下真倉"},
{"zip_code":"2940046","kana_pref":"ﾁﾊﾞｹﾝ","kana_city":"ﾀﾃﾔﾏｼ","kana_address":"ｼﾝｼﾞｭｸ","pref":"千葉県","city":"館山市","address":"新宿"},
{"zip_code":"2940316","kana_pref":"ﾁﾊﾞｹﾝ","kana_city":"ﾀﾃﾔﾏｼ","kana_address":"ｽﾉｻｷ","pref":"千葉県","city":"館山市","address":"洲崎"},
{"zip_code":"2940223","kana_pref":"ﾁﾊﾞｹﾝ","kana_city":"ﾀﾃﾔﾏｼ","kana_address":"ｽﾉﾐﾔ","pref":"千葉県","city":"館山市","address":"洲宮"},
{"zip_code":"2940006","kana_pref":"ﾁﾊﾞｹﾝ","kana_city":"ﾀﾃﾔﾏｼ","kana_address":"ｿﾉ","pref":"千葉県","city":"館山市","address":"薗"},
{"zip_code":"2940233","kana_pref":"ﾁﾊﾞｹﾝ","kana_city":"ﾀﾃﾔﾏｼ","kana_address":"ﾀﾞｲｼﾞﾝｸﾞｳ","pref":"千葉県","city":"館山市","address":"大神宮"},
{"zip_code":"2940041","kana_pref":"ﾁﾊﾞｹﾝ","kana_city":"ﾀﾃﾔﾏｼ","kana_address":"ﾀｶｲ","pref":"千葉県","city":"館山市","address":"高井"},
{"zip_code":"2940001","kana_pref":"ﾁﾊﾞｹﾝ","kana_city":"ﾀﾃﾔﾏｼ","kana_address":"ﾀｹﾜﾗ","pref":"千葉県","city":"館山市","address":"竹原"},
{"zip_code":"2940036","kana_pref":"ﾁﾊﾞｹﾝ","kana_city":"ﾀﾃﾔﾏｼ","kana_address":"ﾀﾃﾔﾏ","pref":"千葉県","city":"館山市","address":"館山"},
{"zip_code":"2940231","kana_pref":"ﾁﾊﾞｹﾝ","kana_city":"ﾀﾃﾔﾏｼ","kana_address":"ﾅｶｻﾞﾄ","pref":"千葉県","city":"館山市","address":"中里"},
{"zip_code":"2940037","kana_pref":"ﾁﾊﾞｹﾝ","kana_city":"ﾀﾃﾔﾏｼ","kana_address":"ﾅｶﾞｽｶ","pref":"千葉県","city":"館山市","address":"長須賀"},
{"zip_code":"2940055","kana_pref":"ﾁﾊﾞｹﾝ","kana_city":"ﾀﾃﾔﾏｼ","kana_address":"ﾅｺﾞ","pref":"千葉県","city":"館山市","address":"那古"},
{"zip_code":"2940017","kana_pref":"ﾁﾊﾞｹﾝ","kana_city":"ﾀﾃﾔﾏｼ","kana_address":"ﾅﾝｼﾞｮｳ","pref":"千葉県","city":"館山市","address":"南条"},
{"zip_code":"2940315","kana_pref":"ﾁﾊﾞｹﾝ","kana_city":"ﾀﾃﾔﾏｼ","kana_address":"ﾆｼｶﾜﾅ","pref":"千葉県","city":"館山市","address":"西川名"},
{"zip_code":"2940027","kana_pref":"ﾁﾊﾞｹﾝ","kana_city":"ﾀﾃﾔﾏｼ","kana_address":"ﾆｼﾅｶﾞﾀ","pref":"千葉県","city":"館山市","address":"西長田"},
{"zip_code":"2940034","kana_pref":"ﾁﾊﾞｹﾝ","kana_city":"ﾀﾃﾔﾏｼ","kana_address":"ﾇﾏ","pref":"千葉県","city":"館山市","address":"沼"},
{"zip_code":"2940307","kana_pref":"ﾁﾊﾞｹﾝ","kana_city":"ﾀﾃﾔﾏｼ","kana_address":"ﾊｻﾏ","pref":"千葉県","city":"館山市","address":"波左間"},
{"zip_code":"2940022","kana_pref":"ﾁﾊﾞｹﾝ","kana_city":"ﾀﾃﾔﾏｼ","kana_address":"ﾊﾀ","pref":"千葉県","city":"館山市","address":"畑"},
{"zip_code":"2940303","kana_pref":"ﾁﾊﾞｹﾝ","kana_city":"ﾀﾃﾔﾏｼ","kana_address":"ﾊﾏﾀﾞ","pref":"千葉県","city":"館山市","address":"浜田"},
{"zip_code":"2940304","kana_pref":"ﾁﾊﾞｹﾝ","kana_city":"ﾀﾃﾔﾏｼ","kana_address":"ﾊﾔﾌﾞﾂ","pref":"千葉県","city":"館山市","address":"早物"},
{"zip_code":"2940308","kana_pref":"ﾁﾊﾞｹﾝ","kana_city":"ﾀﾃﾔﾏｼ","kana_address":"ﾊﾞﾝﾀﾞ","pref":"千葉県","city":"館山市","address":"坂田"},
{"zip_code":"2940028","kana_pref":"ﾁﾊﾞｹﾝ","kana_city":"ﾀﾃﾔﾏｼ","kana_address":"ﾋｶﾞｼﾅｶﾞﾀ","pref":"千葉県","city":"館山市","address":"東長田"},
{"zip_code":"2940008","kana_pref":"ﾁﾊﾞｹﾝ","kana_city":"ﾀﾃﾔﾏｼ","kana_address":"ﾋﾛｾ","pref":"千葉県","city":"館山市","address":"広瀬"},
{"zip_code":"2940035","kana_pref":"ﾁﾊﾞｹﾝ","kana_city":"ﾀﾃﾔﾏｼ","kana_address":"ﾌｼﾞﾐ","pref":"千葉県","city":"館山市","address":"富士見"},
{"zip_code":"2940224","kana_pref":"ﾁﾊﾞｹﾝ","kana_city":"ﾀﾃﾔﾏｼ","kana_address":"ﾌｼﾞﾜﾗ","pref":"千葉県","city":"館山市","address":"藤原"},
{"zip_code":"2940011","kana_pref":"ﾁﾊﾞｹﾝ","kana_city":"ﾀﾃﾔﾏｼ","kana_address":"ﾌﾀｺﾞ","pref":"千葉県","city":"館山市","address":"二子"},
{"zip_code":"2940056","kana_pref":"ﾁﾊﾞｹﾝ","kana_city":"ﾀﾃﾔﾏｼ","kana_address":"ﾌﾅｶﾀ","pref":"千葉県","city":"館山市","address":"船形"},
{"zip_code":"2940013","kana_pref":"ﾁﾊﾞｹﾝ","kana_city":"ﾀﾃﾔﾏｼ","kana_address":"ﾎｳｶﾞｲ","pref":"千葉県","city":"館山市","address":"宝貝"},
{"zip_code":"2940045","kana_pref":"ﾁﾊﾞｹﾝ","kana_city":"ﾀﾃﾔﾏｼ","kana_address":"ﾎｳｼﾞｮｳ","pref":"千葉県","city":"館山市","address":"北条"},
{"zip_code":"2940053","kana_pref":"ﾁﾊﾞｹﾝ","kana_city":"ﾀﾃﾔﾏｼ","kana_address":"ﾎｳｼﾞｮｳﾏｻｷ","pref":"千葉県","city":"館山市","address":"北条正木"},
{"zip_code":"2940051","kana_pref":"ﾁﾊﾞｹﾝ","kana_city":"ﾀﾃﾔﾏｼ","kana_address":"ﾏｻｷ","pref":"千葉県","city":"館山市","address":"正木"},
{"zip_code":"2940004","kana_pref":"ﾁﾊﾞｹﾝ","kana_city":"ﾀﾃﾔﾏｼ","kana_address":"ﾐｽﾞｵｶ","pref":"千葉県","city":"館山市","address":"水岡"},
{"zip_code":"2940003","kana_pref":"ﾁﾊﾞｹﾝ","kana_city":"ﾀﾃﾔﾏｼ","kana_address":"ﾐｽﾞﾀﾏ","pref":"千葉県","city":"館山市","address":"水玉"},
{"zip_code":"2940054","kana_pref":"ﾁﾊﾞｹﾝ","kana_city":"ﾀﾃﾔﾏｼ","kana_address":"ﾐﾅﾄ","pref":"千葉県","city":"館山市","address":"湊"},
{"zip_code":"2940033","kana_pref":"ﾁﾊﾞｹﾝ","kana_city":"ﾀﾃﾔﾏｼ","kana_address":"ﾐﾔｷﾞ","pref":"千葉県","city":"館山市","address":"宮城"},
{"zip_code":"2940221","kana_pref":"ﾁﾊﾞｹﾝ","kana_city":"ﾀﾃﾔﾏｼ","kana_address":"ﾒﾇﾏ","pref":"千葉県","city":"館山市","address":"布沼"},
{"zip_code":"2940234","kana_pref":"ﾁﾊﾞｹﾝ","kana_city":"ﾀﾃﾔﾏｼ","kana_address":"ﾒﾗ","pref":"千葉県","city":"館山市","address":"布良"},
{"zip_code":"2940222","kana_pref":"ﾁﾊﾞｹﾝ","kana_city":"ﾀﾃﾔﾏｼ","kana_address":"ﾓﾅ","pref":"千葉県","city":"館山市","address":"茂名"},
{"zip_code":"2940014","kana_pref":"ﾁﾊﾞｹﾝ","kana_city":"ﾀﾃﾔﾏｼ","kana_address":"ﾔﾏﾓﾄ","pref":"千葉県","city":"館山市","address":"山本"},
{"zip_code":"2940021","kana_pref":"ﾁﾊﾞｹﾝ","kana_city":"ﾀﾃﾔﾏｼ","kana_address":"ﾔﾓｵｷﾞ","pref":"千葉県","city":"館山市","address":"山荻"},
{"zip_code":"2940047","kana_pref":"ﾁﾊﾞｹﾝ","kana_city":"ﾀﾃﾔﾏｼ","kana_address":"ﾔﾜﾀ","pref":"千葉県","city":"館山市","address":"八幡"},
{"zip_code":"2940232","kana_pref":"ﾁﾊﾞｹﾝ","kana_city":"ﾀﾃﾔﾏｼ","kana_address":"ﾘｭｳｵｶ","pref":"千葉県","city":"館山市","address":"竜岡"},
{"zip_code":"2940821","kana_pref":"ﾁﾊﾞｹﾝ","kana_city":"ﾐﾅﾐﾎﾞｳｿｳｼ","kana_address":"ｱｶｼ","pref":"千葉県","city":"南房総市","address":"明石"},
{"zip_code":"2940812","kana_pref":"ﾁﾊﾞｹﾝ","kana_city":"ﾐﾅﾐﾎﾞｳｿｳｼ","kana_address":"ｲｹﾉｳﾁ","pref":"千葉県","city":"南房総市","address":"池之内"},
{"zip_code":"2940804","kana_pref":"ﾁﾊﾞｹﾝ","kana_city":"ﾐﾅﾐﾎﾞｳｿｳｼ","kana_address":"ｴﾋﾞｼｷ","pref":"千葉県","city":"南房総市","address":"海老敷"},
{"zip_code":"2940817","kana_pref":"ﾁﾊﾞｹﾝ","kana_city":"ﾐﾅﾐﾎﾞｳｿｳｼ","kana_address":"ｵｵｶﾞｸﾁ","pref":"千葉県","city":"南房総市","address":"大学口"},
{"zip_code":"2940806","kana_pref":"ﾁﾊﾞｹﾝ","kana_city":"ﾐﾅﾐﾎﾞｳｿｳｼ","kana_address":"ｶﾐﾀｷﾀﾞ","pref":"千葉県","city":"南房総市","address":"上滝田"},
{"zip_code":"2940825","kana_pref":"ﾁﾊﾞｹﾝ","kana_city":"ﾐﾅﾐﾎﾞｳｿｳｼ","kana_address":"ｶﾐﾎﾘ","pref":"千葉県","city":"南房総市","address":"上堀"},
{"zip_code":"2940814","kana_pref":"ﾁﾊﾞｹﾝ","kana_city":"ﾐﾅﾐﾎﾞｳｿｳｼ","kana_address":"ｶﾜﾀ","pref":"千葉県","city":"南房総市","address":"川田"},
{"zip_code":"2940805","kana_pref":"ﾁﾊﾞｹﾝ","kana_city":"ﾐﾅﾐﾎﾞｳｿｳｼ","kana_address":"ｼﾓﾀｷﾀﾞ","pref":"千葉県","city":"南房総市","address":"下滝田"},
{"zip_code":"2940824","kana_pref":"ﾁﾊﾞｹﾝ","kana_city":"ﾐﾅﾐﾎﾞｳｿｳｼ","kana_address":"ｼﾓﾎﾘ","pref":"千葉県","city":"南房総市","address":"下堀"},
{"zip_code":"2940815","kana_pref":"ﾁﾊﾞｹﾝ","kana_city":"ﾐﾅﾐﾎﾞｳｿｳｼ","kana_address":"ｾﾝﾀﾞｲ","pref":"千葉県","city":"南房総市","address":"千代"},
{"zip_code":"2940811","kana_pref":"ﾁﾊﾞｹﾝ","kana_city":"ﾐﾅﾐﾎﾞｳｿｳｼ","kana_address":"ﾅｶ","pref":"千葉県","city":"南房総市","address":"中"},
{"zip_code":"2940823","kana_pref":"ﾁﾊﾞｹﾝ","kana_city":"ﾐﾅﾐﾎﾞｳｿｳｼ","kana_address":"ﾌﾁｭｳ","pref":"千葉県","city":"南房総市","address":"府中"},
{"zip_code":"2940801","kana_pref":"ﾁﾊﾞｹﾝ","kana_city":"ﾐﾅﾐﾎﾞｳｿｳｼ","kana_address":"ﾏｽﾏ","pref":"千葉県","city":"南房総市","address":"増間"},
{"zip_code":"2940826","kana_pref":"ﾁﾊﾞｹﾝ","kana_city":"ﾐﾅﾐﾎﾞｳｿｳｼ","kana_address":"ﾐｻｶ","pref":"千葉県","city":"南房総市","address":"三坂"},
{"zip_code":"2940803","kana_pref":"ﾁﾊﾞｹﾝ","kana_city":"ﾐﾅﾐﾎﾞｳｿｳｼ","kana_address":"ﾐｼｮｳ","pref":"千葉県","city":"南房総市","address":"御庄"},
{"zip_code":"2940822","kana_pref":"ﾁﾊﾞｹﾝ","kana_city":"ﾐﾅﾐﾎﾞｳｿｳｼ","kana_address":"ﾓﾄｵﾘ","pref":"千葉県","city":"南房総市","address":"本織"},
{"zip_code":"2940816","kana_pref":"ﾁﾊﾞｹﾝ","kana_city":"ﾐﾅﾐﾎﾞｳｿｳｼ","kana_address":"ﾔﾏｼﾀ","pref":"千葉県","city":"南房総市","address":"山下"},
{"zip_code":"2940802","kana_pref":"ﾁﾊﾞｹﾝ","kana_city":"ﾐﾅﾐﾎﾞｳｿｳｼ","kana_address":"ﾔﾏﾅ","pref":"千葉県","city":"南房総市","address":"山名"},
{"zip_code":"2940813","kana_pref":"ﾁﾊﾞｹﾝ","kana_city":"ﾐﾅﾐﾎﾞｳｿｳｼ","kana_address":"ﾔﾑｶｲ","pref":"千葉県","city":"南房総市","address":"谷向"}]}