{"zip_code":[
{"zip_code":"2950101","kana_pref":"ﾁﾊﾞｹﾝ","kana_city":"ﾐﾅﾐﾎﾞｳｿｳｼ","kana_address":"ｼﾗﾊﾏﾁｮｳｵﾄﾊﾏ","pref":"千葉県","city":"南房総市","address":"白浜町乙浜"},
{"zip_code":"2950102","kana_pref":"ﾁﾊﾞｹﾝ","kana_city":"ﾐﾅﾐﾎﾞｳｿｳｼ","kana_address":"ｼﾗﾊﾏﾁｮｳｼﾗﾊﾏ","pref":"千葉県","city":"南房総市","address":"白浜町白浜"},
{"zip_code":"2950103","kana_pref":"ﾁﾊﾞｹﾝ","kana_city":"ﾐﾅﾐﾎﾞｳｿｳｼ","kana_address":"ｼﾗﾊﾏﾁｮｳﾀｷｸﾞﾁ","pref":"千葉県","city":"南房総市","address":"白浜町滝口"},
{"zip_code":"2950104","kana_pref":"ﾁﾊﾞｹﾝ","kana_city":"ﾐﾅﾐﾎﾞｳｿｳｼ","kana_address":"ｼﾗﾊﾏﾁｮｳﾈﾓﾄ","pref":"千葉県","city":"南房総市","address":"白浜町根本"},
{"zip_code":"2950006","kana_pref":"ﾁﾊﾞｹﾝ","kana_city":"ﾐﾅﾐﾎﾞｳｿｳｼ","kana_address":"ﾁｸﾗﾁｮｳｳﾀﾞ","pref":"千葉県","city":"南房総市","address":"千倉町宇田"},
{"zip_code":"2950026","kana_pref":"ﾁﾊﾞｹﾝ","kana_city":"ﾐﾅﾐﾎﾞｳｿｳｼ","kana_address":"ﾁｸﾗﾁｮｳｵｵｶﾜ","pref":"千葉県","city":"南房総市","address":"千倉町大川"},
{"zip_code":"2950013","kana_pref":"ﾁﾊﾞｹﾝ","kana_city":"ﾐﾅﾐﾎﾞｳｿｳｼ","kana_address":"ﾁｸﾗﾁｮｳｵｵﾇｷ","pref":"千葉県","city":"南房総市","address":"千倉町大貫"},
{"zip_code":"2950002","kana_pref":"ﾁﾊﾞｹﾝ","kana_city":"ﾐﾅﾐﾎﾞｳｿｳｼ","kana_address":"ﾁｸﾗﾁｮｳｶﾜｲ","pref":"千葉県","city":"南房総市","address":"千倉町川合"},
{"zip_code":"2950023","kana_pref":"ﾁﾊﾞｹﾝ","kana_city":"ﾐﾅﾐﾎﾞｳｿｳｼ","kana_address":"ﾁｸﾗﾁｮｳｶﾜｸﾞﾁ","pref":"千葉県","city":"南房総市","address":"千倉町川口"},
{"zip_code":"2950014","kana_pref":"ﾁﾊﾞｹﾝ","kana_city":"ﾐﾅﾐﾎﾞｳｿｳｼ","kana_address":"ﾁｸﾗﾁｮｳｶﾜﾄ","pref":"千葉県","city":"南房総市","address":"千倉町川戸"},
{"zip_code":"2950011","kana_pref":"ﾁﾊﾞｹﾝ","kana_city":"ﾐﾅﾐﾎﾞｳｿｳｼ","kana_address":"ﾁｸﾗﾁｮｳｷﾀｱｻｲ","pref":"千葉県","city":"南房総市","address":"千倉町北朝夷"},
{"zip_code":"2950001","kana_pref":"ﾁﾊﾞｹﾝ","kana_city":"ﾐﾅﾐﾎﾞｳｿｳｼ","kana_address":"ﾁｸﾗﾁｮｳｸﾎﾞ","pref":"千葉県","city":"南房総市","address":"千倉町久保"},
{"zip_code":"2950022","kana_pref":"ﾁﾊﾞｹﾝ","kana_city":"ﾐﾅﾐﾎﾞｳｿｳｼ","kana_address":"ﾁｸﾗﾁｮｳｺｯﾄ","pref":"千葉県","city":"南房総市","address":"千倉町忽戸"},
{"zip_code":"2950003","kana_pref":"ﾁﾊﾞｹﾝ","kana_city":"ﾐﾅﾐﾎﾞｳｿｳｼ","kana_address":"ﾁｸﾗﾁｮｳｼﾗｺ","pref":"千葉県","city":"南房総市","address":"千倉町白子"},
{"zip_code":"2950027","kana_pref":"ﾁﾊﾞｹﾝ","kana_city":"ﾐﾅﾐﾎﾞｳｿｳｼ","kana_address":"ﾁｸﾗﾁｮｳｼﾗﾏﾂﾞ","pref":"千葉県","city":"南房総市","address":"千倉町白間津"},
{"zip_code":"2950004","kana_pref":"ﾁﾊﾞｹﾝ","kana_city":"ﾐﾅﾐﾎﾞｳｿｳｼ","kana_address":"ﾁｸﾗﾁｮｳｾﾄ","pref":"千葉県","city":"南房総市","address":"千倉町瀬戸"},
{"zip_code":"2950025","kana_pref":"ﾁﾊﾞｹﾝ","kana_city":"ﾐﾅﾐﾎﾞｳｿｳｼ","kana_address":"ﾁｸﾗﾁｮｳｾﾝﾀﾞ","pref":"千葉県","city":"南房総市","address":"千倉町千田"},
{"zip_code":"2950024","kana_pref":"ﾁﾊﾞｹﾝ","kana_city":"ﾐﾅﾐﾎﾞｳｿｳｼ","kana_address":"ﾁｸﾗﾁｮｳﾋﾗｲｿ","pref":"千葉県","city":"南房総市","address":"千倉町平磯"},
{"zip_code":"2950021","kana_pref":"ﾁﾊﾞｹﾝ","kana_city":"ﾐﾅﾐﾎﾞｳｿｳｼ","kana_address":"ﾁｸﾗﾁｮｳﾍﾀﾞﾃ","pref":"千葉県","city":"南房総市","address":"千倉町平舘"},
{"zip_code":"2950005","kana_pref":"ﾁﾊﾞｹﾝ","kana_city":"ﾐﾅﾐﾎﾞｳｿｳｼ","kana_address":"ﾁｸﾗﾁｮｳﾏｷﾀﾞ","pref":"千葉県","city":"南房総市","address":"千倉町牧田"},
{"zip_code":"2950012","kana_pref":"ﾁﾊﾞｹﾝ","kana_city":"ﾐﾅﾐﾎﾞｳｿｳｼ","kana_address":"ﾁｸﾗﾁｮｳﾐﾅﾐｱｻｲ","pref":"千葉県","city":"南房総市","address":"千倉町南朝夷"}]}