{"zip_code":[
{"zip_code":"2960000","kana_pref":"ﾁﾊﾞｹﾝ","kana_city":"ｶﾓｶﾞﾜｼ","kana_address":"","pref":"千葉県","city":"鴨川市","address":""},
{"zip_code":"2960031","kana_pref":"ﾁﾊﾞｹﾝ","kana_city":"ｶﾓｶﾞﾜｼ","kana_address":"ｱﾜﾄ","pref":"千葉県","city":"鴨川市","address":"粟斗"},
{"zip_code":"2960024","kana_pref":"ﾁﾊﾞｹﾝ","kana_city":"ｶﾓｶﾞﾜｼ","kana_address":"ｲｹﾀﾞ","pref":"千葉県","city":"鴨川市","address":"池田"},
{"zip_code":"2960045","kana_pref":"ﾁﾊﾞｹﾝ","kana_city":"ｶﾓｶﾞﾜｼ","kana_address":"ｲｽﾞﾐ","pref":"千葉県","city":"鴨川市","address":"和泉"},
{"zip_code":"2960003","kana_pref":"ﾁﾊﾞｹﾝ","kana_city":"ｶﾓｶﾞﾜｼ","kana_address":"ｲｿﾑﾗ","pref":"千葉県","city":"鴨川市","address":"磯村"},
{"zip_code":"2960035","kana_pref":"ﾁﾊﾞｹﾝ","kana_city":"ｶﾓｶﾞﾜｼ","kana_address":"ｳﾂﾂﾐ","pref":"千葉県","city":"鴨川市","address":"打墨"},
{"zip_code":"2960121","kana_pref":"ﾁﾊﾞｹﾝ","kana_city":"ｶﾓｶﾞﾜｼ","kana_address":"ｵｵｶﾜﾂﾞﾗ","pref":"千葉県","city":"鴨川市","address":"大川面"},
{"zip_code":"2960124","kana_pref":"ﾁﾊﾞｹﾝ","kana_city":"ｶﾓｶﾞﾜｼ","kana_address":"ｵｵﾊﾀ","pref":"千葉県","city":"鴨川市","address":"大幡"},
{"zip_code":"2960237","kana_pref":"ﾁﾊﾞｹﾝ","kana_city":"ｶﾓｶﾞﾜｼ","kana_address":"ｵｵﾔﾏﾋﾗﾂｶ","pref":"千葉県","city":"鴨川市","address":"大山平塚"},
{"zip_code":"2960023","kana_pref":"ﾁﾊﾞｹﾝ","kana_city":"ｶﾓｶﾞﾜｼ","kana_address":"ｵｼｷﾘ","pref":"千葉県","city":"鴨川市","address":"押切"},
{"zip_code":"2960025","kana_pref":"ﾁﾊﾞｹﾝ","kana_city":"ｶﾓｶﾞﾜｼ","kana_address":"ｵﾀﾞｶﾞｸ","pref":"千葉県","city":"鴨川市","address":"太田学"},
{"zip_code":"2960004","kana_pref":"ﾁﾊﾞｹﾝ","kana_city":"ｶﾓｶﾞﾜｼ","kana_address":"ｶｲｽｶ","pref":"千葉県","city":"鴨川市","address":"貝渚"},
{"zip_code":"2960231","kana_pref":"ﾁﾊﾞｹﾝ","kana_city":"ｶﾓｶﾞﾜｼ","kana_address":"ｶﾏﾇﾏ","pref":"千葉県","city":"鴨川市","address":"釜沼"},
{"zip_code":"2960103","kana_pref":"ﾁﾊﾞｹﾝ","kana_city":"ｶﾓｶﾞﾜｼ","kana_address":"ｶﾐｺﾊﾞﾗ","pref":"千葉県","city":"鴨川市","address":"上小原"},
{"zip_code":"2960015","kana_pref":"ﾁﾊﾞｹﾝ","kana_city":"ｶﾓｶﾞﾜｼ","kana_address":"ｶﾜｼﾛ","pref":"千葉県","city":"鴨川市","address":"川代"},
{"zip_code":"2960101","kana_pref":"ﾁﾊﾞｹﾝ","kana_city":"ｶﾓｶﾞﾜｼ","kana_address":"ｷﾀｺﾏﾁ","pref":"千葉県","city":"鴨川市","address":"北小町"},
{"zip_code":"2960022","kana_pref":"ﾁﾊﾞｹﾝ","kana_city":"ｶﾓｶﾞﾜｼ","kana_address":"ｷｮｳﾃﾞﾝ","pref":"千葉県","city":"鴨川市","address":"京田"},
{"zip_code":"2960233","kana_pref":"ﾁﾊﾞｹﾝ","kana_city":"ｶﾓｶﾞﾜｼ","kana_address":"ｺﾂﾞｶ","pref":"千葉県","city":"鴨川市","address":"金束"},
{"zip_code":"2960234","kana_pref":"ﾁﾊﾞｹﾝ","kana_city":"ｶﾓｶﾞﾜｼ","kana_address":"ｺﾊﾞﾀ","pref":"千葉県","city":"鴨川市","address":"古畑"},
{"zip_code":"2960236","kana_pref":"ﾁﾊﾞｹﾝ","kana_city":"ｶﾓｶﾞﾜｼ","kana_address":"ｻﾉ","pref":"千葉県","city":"鴨川市","address":"佐野"},
{"zip_code":"2960102","kana_pref":"ﾁﾊﾞｹﾝ","kana_city":"ｶﾓｶﾞﾜｼ","kana_address":"ｼﾓｺﾊﾞﾗ","pref":"千葉県","city":"鴨川市","address":"下小原"},
{"zip_code":"2960106","kana_pref":"ﾁﾊﾞｹﾝ","kana_city":"ｶﾓｶﾞﾜｼ","kana_address":"ｽｷﾆｼ","pref":"千葉県","city":"鴨川市","address":"主基西"},
{"zip_code":"2960011","kana_pref":"ﾁﾊﾞｹﾝ","kana_city":"ｶﾓｶﾞﾜｼ","kana_address":"ﾀﾞｲﾘ","pref":"千葉県","city":"鴨川市","address":"大里"},
{"zip_code":"2960021","kana_pref":"ﾁﾊﾞｹﾝ","kana_city":"ｶﾓｶﾞﾜｼ","kana_address":"ﾀｹﾋﾗ","pref":"千葉県","city":"鴨川市","address":"竹平"},
{"zip_code":"2960013","kana_pref":"ﾁﾊﾞｹﾝ","kana_city":"ｶﾓｶﾞﾜｼ","kana_address":"ﾀﾊﾞﾗﾆｼ","pref":"千葉県","city":"鴨川市","address":"田原西"},
{"zip_code":"2960122","kana_pref":"ﾁﾊﾞｹﾝ","kana_city":"ｶﾓｶﾞﾜｼ","kana_address":"ﾃﾗｶﾄﾞ","pref":"千葉県","city":"鴨川市","address":"寺門"},
{"zip_code":"2960111","kana_pref":"ﾁﾊﾞｹﾝ","kana_city":"ｶﾓｶﾞﾜｼ","kana_address":"ﾅｶ","pref":"千葉県","city":"鴨川市","address":"仲"},
{"zip_code":"2960123","kana_pref":"ﾁﾊﾞｹﾝ","kana_city":"ｶﾓｶﾞﾜｼ","kana_address":"ﾅﾗｲﾊﾗ","pref":"千葉県","city":"鴨川市","address":"北風原"},
{"zip_code":"2960235","kana_pref":"ﾁﾊﾞｹﾝ","kana_city":"ｶﾓｶﾞﾜｼ","kana_address":"ﾅﾗﾊﾞﾔｼ","pref":"千葉県","city":"鴨川市","address":"奈良林"},
{"zip_code":"2960105","kana_pref":"ﾁﾊﾞｹﾝ","kana_city":"ｶﾓｶﾞﾜｼ","kana_address":"ﾅﾘｶﾞﾜ","pref":"千葉県","city":"鴨川市","address":"成川"},
{"zip_code":"2960043","kana_pref":"ﾁﾊﾞｹﾝ","kana_city":"ｶﾓｶﾞﾜｼ","kana_address":"ﾆｼﾁｮｳ","pref":"千葉県","city":"鴨川市","address":"西町"},
{"zip_code":"2960034","kana_pref":"ﾁﾊﾞｹﾝ","kana_city":"ｶﾓｶﾞﾜｼ","kana_address":"ﾇｶﾘﾔ","pref":"千葉県","city":"鴨川市","address":"滑谷"},
{"zip_code":"2960032","kana_pref":"ﾁﾊﾞｹﾝ","kana_city":"ｶﾓｶﾞﾜｼ","kana_address":"ﾊﾅﾌﾞｻ","pref":"千葉県","city":"鴨川市","address":"花房"},
{"zip_code":"2960016","kana_pref":"ﾁﾊﾞｹﾝ","kana_city":"ｶﾓｶﾞﾜｼ","kana_address":"ﾊﾞﾝﾄﾞｳ","pref":"千葉県","city":"鴨川市","address":"坂東"},
{"zip_code":"2960041","kana_pref":"ﾁﾊﾞｹﾝ","kana_city":"ｶﾓｶﾞﾜｼ","kana_address":"ﾋｶﾞｼﾁｮｳ","pref":"千葉県","city":"鴨川市","address":"東町"},
{"zip_code":"2960042","kana_pref":"ﾁﾊﾞｹﾝ","kana_city":"ｶﾓｶﾞﾜｼ","kana_address":"ﾋｶﾞｼﾓﾄﾊﾏｵｷﾞﾄﾋﾞﾁ","pref":"千葉県","city":"鴨川市","address":"東元浜荻飛地"},
{"zip_code":"2960232","kana_pref":"ﾁﾊﾞｹﾝ","kana_city":"ｶﾓｶﾞﾜｼ","kana_address":"ﾋﾗﾂｶ","pref":"千葉県","city":"鴨川市","address":"平塚"},
{"zip_code":"2960044","kana_pref":"ﾁﾊﾞｹﾝ","kana_city":"ｶﾓｶﾞﾜｼ","kana_address":"ﾋﾛﾊﾞ","pref":"千葉県","city":"鴨川市","address":"広場"},
{"zip_code":"2960014","kana_pref":"ﾁﾊﾞｹﾝ","kana_city":"ｶﾓｶﾞﾜｼ","kana_address":"ﾌﾄｵ","pref":"千葉県","city":"鴨川市","address":"太尾"},
{"zip_code":"2960114","kana_pref":"ﾁﾊﾞｹﾝ","kana_city":"ｶﾓｶﾞﾜｼ","kana_address":"ﾎｿﾉ","pref":"千葉県","city":"鴨川市","address":"細野"},
{"zip_code":"2960002","kana_pref":"ﾁﾊﾞｹﾝ","kana_city":"ｶﾓｶﾞﾜｼ","kana_address":"ﾏｴﾊﾞﾗ","pref":"千葉県","city":"鴨川市","address":"前原"},
{"zip_code":"2960115","kana_pref":"ﾁﾊﾞｹﾝ","kana_city":"ｶﾓｶﾞﾜｼ","kana_address":"ﾏﾂｵｼﾞ","pref":"千葉県","city":"鴨川市","address":"松尾寺"},
{"zip_code":"2960104","kana_pref":"ﾁﾊﾞｹﾝ","kana_city":"ｶﾓｶﾞﾜｼ","kana_address":"ﾐﾅﾐｺﾏﾁ","pref":"千葉県","city":"鴨川市","address":"南小町"},
{"zip_code":"2960112","kana_pref":"ﾁﾊﾞｹﾝ","kana_city":"ｶﾓｶﾞﾜｼ","kana_address":"ﾐﾔﾔﾏ","pref":"千葉県","city":"鴨川市","address":"宮山"},
{"zip_code":"2960033","kana_pref":"ﾁﾊﾞｹﾝ","kana_city":"ｶﾓｶﾞﾜｼ","kana_address":"ﾔｲﾛ","pref":"千葉県","city":"鴨川市","address":"八色"},
{"zip_code":"2960125","kana_pref":"ﾁﾊﾞｹﾝ","kana_city":"ｶﾓｶﾞﾜｼ","kana_address":"ﾖｺｵ","pref":"千葉県","city":"鴨川市","address":"横尾"},
{"zip_code":"2960001","kana_pref":"ﾁﾊﾞｹﾝ","kana_city":"ｶﾓｶﾞﾜｼ","kana_address":"ﾖｺｽｶ","pref":"千葉県","city":"鴨川市","address":"横渚"},
{"zip_code":"2960126","kana_pref":"ﾁﾊﾞｹﾝ","kana_city":"ｶﾓｶﾞﾜｼ","kana_address":"ﾖｼｵﾆｼ","pref":"千葉県","city":"鴨川市","address":"吉尾西"},
{"zip_code":"2960113","kana_pref":"ﾁﾊﾞｹﾝ","kana_city":"ｶﾓｶﾞﾜｼ","kana_address":"ﾖｼｵﾋﾗﾂｶ","pref":"千葉県","city":"鴨川市","address":"吉尾平塚"},
{"zip_code":"2960012","kana_pref":"ﾁﾊﾞｹﾝ","kana_city":"ｶﾓｶﾞﾜｼ","kana_address":"ﾗｲｼｭｳ","pref":"千葉県","city":"鴨川市","address":"来秀"}]}