{"zip_code":[
{"zip_code":"2990271","kana_pref":"ﾁﾊﾞｹﾝ","kana_city":"ｷｻﾗﾂﾞｼ","kana_address":"ｻｶﾄﾞｲﾁﾊﾞ","pref":"千葉県","city":"木更津市","address":"坂戸市場"},
{"zip_code":"2994106","kana_pref":"ﾁﾊﾞｹﾝ","kana_city":"ﾓﾊﾞﾗｼ","kana_address":"ｱｵﾉ","pref":"千葉県","city":"茂原市","address":"粟生野"},
{"zip_code":"2994115","kana_pref":"ﾁﾊﾞｹﾝ","kana_city":"ﾓﾊﾞﾗｼ","kana_address":"ｴﾉｷｶﾝﾎﾞｳ","pref":"千葉県","city":"茂原市","address":"榎神房"},
{"zip_code":"2994118","kana_pref":"ﾁﾊﾞｹﾝ","kana_city":"ﾓﾊﾞﾗｼ","kana_address":"ｴﾉｷｶﾝﾎﾞｳﾄﾋﾞﾁ","pref":"千葉県","city":"茂原市","address":"榎神房飛地"},
{"zip_code":"2994125","kana_pref":"ﾁﾊﾞｹﾝ","kana_city":"ﾓﾊﾞﾗｼ","kana_address":"ｵｵｻﾜ","pref":"千葉県","city":"茂原市","address":"大沢"},
{"zip_code":"2994127","kana_pref":"ﾁﾊﾞｹﾝ","kana_city":"ﾓﾊﾞﾗｼ","kana_address":"ｶﾂﾗ","pref":"千葉県","city":"茂原市","address":"桂"},
{"zip_code":"2994128","kana_pref":"ﾁﾊﾞｹﾝ","kana_city":"ﾓﾊﾞﾗｼ","kana_address":"ｶﾂﾗﾄﾋﾞﾁ","pref":"千葉県","city":"茂原市","address":"桂飛地"},
{"zip_code":"2994124","kana_pref":"ﾁﾊﾞｹﾝ","kana_city":"ﾓﾊﾞﾗｼ","kana_address":"ｶﾐｵｵﾀﾞ","pref":"千葉県","city":"茂原市","address":"上太田"},
{"zip_code":"2994111","kana_pref":"ﾁﾊﾞｹﾝ","kana_city":"ﾓﾊﾞﾗｼ","kana_address":"ｶﾔﾊﾞ","pref":"千葉県","city":"茂原市","address":"萱場"},
{"zip_code":"2994117","kana_pref":"ﾁﾊﾞｹﾝ","kana_city":"ﾓﾊﾞﾗｼ","kana_address":"ｺｶﾔﾊﾞ","pref":"千葉県","city":"茂原市","address":"小萱場"},
{"zip_code":"2994126","kana_pref":"ﾁﾊﾞｹﾝ","kana_city":"ﾓﾊﾞﾗｼ","kana_address":"ｼﾊﾞﾅ","pref":"千葉県","city":"茂原市","address":"柴名"},
{"zip_code":"2994101","kana_pref":"ﾁﾊﾞｹﾝ","kana_city":"ﾓﾊﾞﾗｼ","kana_address":"ｼﾐｽﾞ","pref":"千葉県","city":"茂原市","address":"清水"},
{"zip_code":"2994123","kana_pref":"ﾁﾊﾞｹﾝ","kana_city":"ﾓﾊﾞﾗｼ","kana_address":"ｼﾓｵｵﾀﾞ","pref":"千葉県","city":"茂原市","address":"下太田"},
{"zip_code":"2994103","kana_pref":"ﾁﾊﾞｹﾝ","kana_city":"ﾓﾊﾞﾗｼ","kana_address":"ｾﾝｻﾞﾜ","pref":"千葉県","city":"茂原市","address":"千沢"},
{"zip_code":"2994116","kana_pref":"ﾁﾊﾞｹﾝ","kana_city":"ﾓﾊﾞﾗｼ","kana_address":"ﾀｶﾀﾞ","pref":"千葉県","city":"茂原市","address":"高田"},
{"zip_code":"2994112","kana_pref":"ﾁﾊﾞｹﾝ","kana_city":"ﾓﾊﾞﾗｼ","kana_address":"ﾆｼﾉ","pref":"千葉県","city":"茂原市","address":"西野"},
{"zip_code":"2994113","kana_pref":"ﾁﾊﾞｹﾝ","kana_city":"ﾓﾊﾞﾗｼ","kana_address":"ﾎｳﾒ","pref":"千葉県","city":"茂原市","address":"法目"},
{"zip_code":"2994114","kana_pref":"ﾁﾊﾞｹﾝ","kana_city":"ﾓﾊﾞﾗｼ","kana_address":"ﾎﾝﾉｳ","pref":"千葉県","city":"茂原市","address":"本納"},
{"zip_code":"2994102","kana_pref":"ﾁﾊﾞｹﾝ","kana_city":"ﾓﾊﾞﾗｼ","kana_address":"ﾐｸﾗｼﾊﾞ","pref":"千葉県","city":"茂原市","address":"御蔵芝"},
{"zip_code":"2994104","kana_pref":"ﾁﾊﾞｹﾝ","kana_city":"ﾓﾊﾞﾗｼ","kana_address":"ﾐﾅﾐﾖｼﾀﾞ","pref":"千葉県","city":"茂原市","address":"南吉田"},
{"zip_code":"2994105","kana_pref":"ﾁﾊﾞｹﾝ","kana_city":"ﾓﾊﾞﾗｼ","kana_address":"ﾕﾐﾜﾀｼ","pref":"千葉県","city":"茂原市","address":"弓渡"},
{"zip_code":"2994122","kana_pref":"ﾁﾊﾞｹﾝ","kana_city":"ﾓﾊﾞﾗｼ","kana_address":"ﾖｼｲｶﾐ","pref":"千葉県","city":"茂原市","address":"吉井上"},
{"zip_code":"2994121","kana_pref":"ﾁﾊﾞｹﾝ","kana_city":"ﾓﾊﾞﾗｼ","kana_address":"ﾖｼｲｼﾓ","pref":"千葉県","city":"茂原市","address":"吉井下"},
{"zip_code":"2995200","kana_pref":"ﾁﾊﾞｹﾝ","kana_city":"ｶﾂｳﾗｼ","kana_address":"","pref":"千葉県","city":"勝浦市","address":""},
{"zip_code":"2995263","kana_pref":"ﾁﾊﾞｹﾝ","kana_city":"ｶﾂｳﾗｼ","kana_address":"ｱｶﾊﾞﾈ","pref":"千葉県","city":"勝浦市","address":"赤羽根"},
{"zip_code":"2995273","kana_pref":"ﾁﾊﾞｹﾝ","kana_city":"ｶﾂｳﾗｼ","kana_address":"ｱﾗｶﾜ","pref":"千葉県","city":"勝浦市","address":"荒川"},
{"zip_code":"2995202","kana_pref":"ﾁﾊﾞｹﾝ","kana_city":"ｶﾂｳﾗｼ","kana_address":"ｲﾁﾉｶﾜ","pref":"千葉県","city":"勝浦市","address":"市野川"},
{"zip_code":"2995201","kana_pref":"ﾁﾊﾞｹﾝ","kana_city":"ｶﾂｳﾗｼ","kana_address":"ｲﾁﾉｺﾞｳ","pref":"千葉県","city":"勝浦市","address":"市野郷"},
{"zip_code":"2995235","kana_pref":"ﾁﾊﾞｹﾝ","kana_city":"ｶﾂｳﾗｼ","kana_address":"ｲﾃﾞﾐｽﾞ","pref":"千葉県","city":"勝浦市","address":"出水"},
{"zip_code":"2995266","kana_pref":"ﾁﾊﾞｹﾝ","kana_city":"ｶﾂｳﾗｼ","kana_address":"ｳｴﾉ","pref":"千葉県","city":"勝浦市","address":"上野"},
{"zip_code":"2995265","kana_pref":"ﾁﾊﾞｹﾝ","kana_city":"ｶﾂｳﾗｼ","kana_address":"ｳｴﾉ","pref":"千葉県","city":"勝浦市","address":"植野"},
{"zip_code":"2995267","kana_pref":"ﾁﾊﾞｹﾝ","kana_city":"ｶﾂｳﾗｼ","kana_address":"ｳｴﾉﾓﾄﾐﾔﾀ","pref":"千葉県","city":"勝浦市","address":"植野元宮田"},
{"zip_code":"2995243","kana_pref":"ﾁﾊﾞｹﾝ","kana_city":"ｶﾂｳﾗｼ","kana_address":"ｳﾊﾞﾗ","pref":"千葉県","city":"勝浦市","address":"鵜原"},
{"zip_code":"2995217","kana_pref":"ﾁﾊﾞｹﾝ","kana_city":"ｶﾂｳﾗｼ","kana_address":"ｵｵｸｽ","pref":"千葉県","city":"勝浦市","address":"大楠"},
{"zip_code":"2995256","kana_pref":"ﾁﾊﾞｹﾝ","kana_city":"ｶﾂｳﾗｼ","kana_address":"ｵｵｻﾜ","pref":"千葉県","city":"勝浦市","address":"大沢"},
{"zip_code":"2995261","kana_pref":"ﾁﾊﾞｹﾝ","kana_city":"ｶﾂｳﾗｼ","kana_address":"ｵｵﾓﾘ","pref":"千葉県","city":"勝浦市","address":"大森"},
{"zip_code":"2995251","kana_pref":"ﾁﾊﾞｹﾝ","kana_city":"ｶﾂｳﾗｼ","kana_address":"ｵｵﾓﾘｶﾐｳｴﾉｲﾘｱｲﾁ","pref":"千葉県","city":"勝浦市","address":"大森上植野入会地"},
{"zip_code":"2995245","kana_pref":"ﾁﾊﾞｹﾝ","kana_city":"ｶﾂｳﾗｼ","kana_address":"ｵｷﾂ","pref":"千葉県","city":"勝浦市","address":"興津"},
{"zip_code":"2995246","kana_pref":"ﾁﾊﾞｹﾝ","kana_city":"ｶﾂｳﾗｼ","kana_address":"ｵｷﾂｸﾎﾞﾔﾏﾀﾞｲ","pref":"千葉県","city":"勝浦市","address":"興津久保山台"},
{"zip_code":"2995272","kana_pref":"ﾁﾊﾞｹﾝ","kana_city":"ｶﾂｳﾗｼ","kana_address":"ｶｲｶﾞｹ","pref":"千葉県","city":"勝浦市","address":"貝掛"},
{"zip_code":"2995234","kana_pref":"ﾁﾊﾞｹﾝ","kana_city":"ｶﾂｳﾗｼ","kana_address":"ｶﾂｳﾗ","pref":"千葉県","city":"勝浦市","address":"勝浦"},
{"zip_code":"2995212","kana_pref":"ﾁﾊﾞｹﾝ","kana_city":"ｶﾂｳﾗｼ","kana_address":"ｶﾆﾀ","pref":"千葉県","city":"勝浦市","address":"蟹田"},
{"zip_code":"2995252","kana_pref":"ﾁﾊﾞｹﾝ","kana_city":"ｶﾂｳﾗｼ","kana_address":"ｶﾐｳｴﾉ","pref":"千葉県","city":"勝浦市","address":"上植野"},
{"zip_code":"2995232","kana_pref":"ﾁﾊﾞｹﾝ","kana_city":"ｶﾂｳﾗｼ","kana_address":"ｶﾜﾂﾞ","pref":"千葉県","city":"勝浦市","address":"川津"},
{"zip_code":"2995226","kana_pref":"ﾁﾊﾞｹﾝ","kana_city":"ｶﾂｳﾗｼ","kana_address":"ｸｼﾊﾏ","pref":"千葉県","city":"勝浦市","address":"串浜"},
{"zip_code":"2995218","kana_pref":"ﾁﾊﾞｹﾝ","kana_city":"ｶﾂｳﾗｼ","kana_address":"ｺﾊﾞﾄﾞ","pref":"千葉県","city":"勝浦市","address":"小羽戸"},
{"zip_code":"2995219","kana_pref":"ﾁﾊﾞｹﾝ","kana_city":"ｶﾂｳﾗｼ","kana_address":"ｺﾏﾂﾉ","pref":"千葉県","city":"勝浦市","address":"小松野"},
{"zip_code":"2995206","kana_pref":"ﾁﾊﾞｹﾝ","kana_city":"ｶﾂｳﾗｼ","kana_address":"ｻﾉ","pref":"千葉県","city":"勝浦市","address":"佐野"},
{"zip_code":"2995231","kana_pref":"ﾁﾊﾞｹﾝ","kana_city":"ｶﾂｳﾗｼ","kana_address":"ｻﾜｸﾗ","pref":"千葉県","city":"勝浦市","address":"沢倉"},
{"zip_code":"2995216","kana_pref":"ﾁﾊﾞｹﾝ","kana_city":"ｶﾂｳﾗｼ","kana_address":"ｼｭｸﾄﾞ","pref":"千葉県","city":"勝浦市","address":"宿戸"},
{"zip_code":"2995215","kana_pref":"ﾁﾊﾞｹﾝ","kana_city":"ｶﾂｳﾗｼ","kana_address":"ｼﾗｲｸﾎﾞ","pref":"千葉県","city":"勝浦市","address":"白井久保"},
{"zip_code":"2995214","kana_pref":"ﾁﾊﾞｹﾝ","kana_city":"ｶﾂｳﾗｼ","kana_address":"ｼﾗｷ","pref":"千葉県","city":"勝浦市","address":"白木"},
{"zip_code":"2995224","kana_pref":"ﾁﾊﾞｹﾝ","kana_city":"ｶﾂｳﾗｼ","kana_address":"ｼﾝｶﾝ","pref":"千葉県","city":"勝浦市","address":"新官"},
{"zip_code":"2995228","kana_pref":"ﾁﾊﾞｹﾝ","kana_city":"ｶﾂｳﾗｼ","kana_address":"ｼﾝﾄﾞ","pref":"千葉県","city":"勝浦市","address":"新戸"},
{"zip_code":"2995205","kana_pref":"ﾁﾊﾞｹﾝ","kana_city":"ｶﾂｳﾗｼ","kana_address":"ｽｷﾞﾄﾞ","pref":"千葉県","city":"勝浦市","address":"杉戸"},
{"zip_code":"2995222","kana_pref":"ﾁﾊﾞｹﾝ","kana_city":"ｶﾂｳﾗｼ","kana_address":"ｾｷﾔﾂ","pref":"千葉県","city":"勝浦市","address":"関谷"},
{"zip_code":"2995254","kana_pref":"ﾁﾊﾞｹﾝ","kana_city":"ｶﾂｳﾗｼ","kana_address":"ﾀﾞｲｼﾞｭｸ","pref":"千葉県","city":"勝浦市","address":"台宿"},
{"zip_code":"2995225","kana_pref":"ﾁﾊﾞｹﾝ","kana_city":"ｶﾂｳﾗｼ","kana_address":"ﾄﾅ","pref":"千葉県","city":"勝浦市","address":"墨名"},
{"zip_code":"2995204","kana_pref":"ﾁﾊﾞｹﾝ","kana_city":"ｶﾂｳﾗｼ","kana_address":"ﾅｶｸﾞﾗ","pref":"千葉県","city":"勝浦市","address":"中倉"},
{"zip_code":"2995262","kana_pref":"ﾁﾊﾞｹﾝ","kana_city":"ｶﾂｳﾗｼ","kana_address":"ﾅｶｻﾞﾄ","pref":"千葉県","city":"勝浦市","address":"中里"},
{"zip_code":"2995264","kana_pref":"ﾁﾊﾞｹﾝ","kana_city":"ｶﾂｳﾗｼ","kana_address":"ﾅｶｼﾞﾏ","pref":"千葉県","city":"勝浦市","address":"中島"},
{"zip_code":"2995227","kana_pref":"ﾁﾊﾞｹﾝ","kana_city":"ｶﾂｳﾗｼ","kana_address":"ﾅｶﾔ","pref":"千葉県","city":"勝浦市","address":"中谷"},
{"zip_code":"2995253","kana_pref":"ﾁﾊﾞｹﾝ","kana_city":"ｶﾂｳﾗｼ","kana_address":"ﾅｷﾞ","pref":"千葉県","city":"勝浦市","address":"名木"},
{"zip_code":"2995213","kana_pref":"ﾁﾊﾞｹﾝ","kana_city":"ｶﾂｳﾗｼ","kana_address":"ﾊｶﾞ","pref":"千葉県","city":"勝浦市","address":"芳賀"},
{"zip_code":"2995203","kana_pref":"ﾁﾊﾞｹﾝ","kana_city":"ｶﾂｳﾗｼ","kana_address":"ﾊﾅｻﾞﾄ","pref":"千葉県","city":"勝浦市","address":"花里"},
{"zip_code":"2995233","kana_pref":"ﾁﾊﾞｹﾝ","kana_city":"ｶﾂｳﾗｼ","kana_address":"ﾊﾏｶﾂｳﾗ","pref":"千葉県","city":"勝浦市","address":"浜勝浦"},
{"zip_code":"2995255","kana_pref":"ﾁﾊﾞｹﾝ","kana_city":"ｶﾂｳﾗｼ","kana_address":"ﾊﾏﾅﾒｶﾞﾜ","pref":"千葉県","city":"勝浦市","address":"浜行川"},
{"zip_code":"2995221","kana_pref":"ﾁﾊﾞｹﾝ","kana_city":"ｶﾂｳﾗｼ","kana_address":"ﾋﾗﾀ","pref":"千葉県","city":"勝浦市","address":"平田"},
{"zip_code":"2995223","kana_pref":"ﾁﾊﾞｹﾝ","kana_city":"ｶﾂｳﾗｼ","kana_address":"ﾍﾊﾞﾗ","pref":"千葉県","city":"勝浦市","address":"部原"},
{"zip_code":"2995271","kana_pref":"ﾁﾊﾞｹﾝ","kana_city":"ｶﾂｳﾗｼ","kana_address":"ﾎｳｹﾞ","pref":"千葉県","city":"勝浦市","address":"法花"},
{"zip_code":"2995211","kana_pref":"ﾁﾊﾞｹﾝ","kana_city":"ｶﾂｳﾗｼ","kana_address":"ﾏﾂﾉ","pref":"千葉県","city":"勝浦市","address":"松野"},
{"zip_code":"2995241","kana_pref":"ﾁﾊﾞｹﾝ","kana_city":"ｶﾂｳﾗｼ","kana_address":"ﾏﾂﾍﾞ","pref":"千葉県","city":"勝浦市","address":"松部"},
{"zip_code":"2995274","kana_pref":"ﾁﾊﾞｹﾝ","kana_city":"ｶﾂｳﾗｼ","kana_address":"ﾐﾅﾐﾔﾏﾀﾞ","pref":"千葉県","city":"勝浦市","address":"南山田"},
{"zip_code":"2995244","kana_pref":"ﾁﾊﾞｹﾝ","kana_city":"ｶﾂｳﾗｼ","kana_address":"ﾓﾘﾔ","pref":"千葉県","city":"勝浦市","address":"守谷"},
{"zip_code":"2995242","kana_pref":"ﾁﾊﾞｹﾝ","kana_city":"ｶﾂｳﾗｼ","kana_address":"ﾖｼｵ","pref":"千葉県","city":"勝浦市","address":"吉尾"},
{"zip_code":"2990117","kana_pref":"ﾁﾊﾞｹﾝ","kana_city":"ｲﾁﾊﾗｼ","kana_address":"ｱｵﾊﾞﾀﾞｲ","pref":"千葉県","city":"市原市","address":"青葉台"},
{"zip_code":"2990102","kana_pref":"ﾁﾊﾞｹﾝ","kana_city":"ｲﾁﾊﾗｼ","kana_address":"ｱｵﾔｷﾞ","pref":"千葉県","city":"市原市","address":"青柳"},
{"zip_code":"2990103","kana_pref":"ﾁﾊﾞｹﾝ","kana_city":"ｲﾁﾊﾗｼ","kana_address":"ｱｵﾔｷﾞｶｲｶﾞﾝ","pref":"千葉県","city":"市原市","address":"青柳海岸"},
{"zip_code":"2990101","kana_pref":"ﾁﾊﾞｹﾝ","kana_city":"ｲﾁﾊﾗｼ","kana_address":"ｱｵﾔｷﾞｷﾀ","pref":"千葉県","city":"市原市","address":"青柳北"},
{"zip_code":"2990111","kana_pref":"ﾁﾊﾞｹﾝ","kana_city":"ｲﾁﾊﾗｼ","kana_address":"ｱﾈｻｷ","pref":"千葉県","city":"市原市","address":"姉崎"},
{"zip_code":"2990107","kana_pref":"ﾁﾊﾞｹﾝ","kana_city":"ｲﾁﾊﾗｼ","kana_address":"ｱﾈｻｷｶｲｶﾞﾝ","pref":"千葉県","city":"市原市","address":"姉崎海岸"},
{"zip_code":"2990119","kana_pref":"ﾁﾊﾞｹﾝ","kana_city":"ｲﾁﾊﾗｼ","kana_address":"ｱﾈｻｷﾆｼ","pref":"千葉県","city":"市原市","address":"姉崎西"},
{"zip_code":"2990126","kana_pref":"ﾁﾊﾞｹﾝ","kana_city":"ｲﾁﾊﾗｼ","kana_address":"ｱﾓｳﾀﾞ","pref":"千葉県","city":"市原市","address":"天羽田"},
{"zip_code":"2990114","kana_pref":"ﾁﾊﾞｹﾝ","kana_city":"ｲﾁﾊﾗｼ","kana_address":"ｲｽﾞﾐﾀﾞｲ","pref":"千葉県","city":"市原市","address":"泉台"},
{"zip_code":"2990106","kana_pref":"ﾁﾊﾞｹﾝ","kana_city":"ｲﾁﾊﾗｼ","kana_address":"ｲﾏﾂﾞｱｻﾔﾏ","pref":"千葉県","city":"市原市","address":"今津朝山"},
{"zip_code":"2990115","kana_pref":"ﾁﾊﾞｹﾝ","kana_city":"ｲﾁﾊﾗｼ","kana_address":"ｲﾘﾔﾏｽﾞ","pref":"千葉県","city":"市原市","address":"不入斗"},
{"zip_code":"2990105","kana_pref":"ﾁﾊﾞｹﾝ","kana_city":"ｲﾁﾊﾗｼ","kana_address":"ｶｼﾜﾊﾞﾗ","pref":"千葉県","city":"市原市","address":"柏原"},
{"zip_code":"2990113","kana_pref":"ﾁﾊﾞｹﾝ","kana_city":"ｲﾁﾊﾗｼ","kana_address":"ｶﾀﾏﾀｷﾞ","pref":"千葉県","city":"市原市","address":"片又木"},
{"zip_code":"2990127","kana_pref":"ﾁﾊﾞｹﾝ","kana_city":"ｲﾁﾊﾗｼ","kana_address":"ｻｸﾗﾀﾞｲ","pref":"千葉県","city":"市原市","address":"桜台"},
{"zip_code":"2990118","kana_pref":"ﾁﾊﾞｹﾝ","kana_city":"ｲﾁﾊﾗｼ","kana_address":"ｼｲﾂﾞ","pref":"千葉県","city":"市原市","address":"椎津"},
{"zip_code":"2990128","kana_pref":"ﾁﾊﾞｹﾝ","kana_city":"ｲﾁﾊﾗｼ","kana_address":"ｼｲﾉｷﾀﾞｲ","pref":"千葉県","city":"市原市","address":"椎の木台"},
{"zip_code":"2990104","kana_pref":"ﾁﾊﾞｹﾝ","kana_city":"ｲﾁﾊﾗｼ","kana_address":"ｼﾗﾂｶ","pref":"千葉県","city":"市原市","address":"白塚"},
{"zip_code":"2990121","kana_pref":"ﾁﾊﾞｹﾝ","kana_city":"ｲﾁﾊﾗｼ","kana_address":"ﾀﾃﾉ","pref":"千葉県","city":"市原市","address":"立野"},
{"zip_code":"2990109","kana_pref":"ﾁﾊﾞｹﾝ","kana_city":"ｲﾁﾊﾗｼ","kana_address":"ﾁｸﾞｻ","pref":"千葉県","city":"市原市","address":"千種"},
{"zip_code":"2990108","kana_pref":"ﾁﾊﾞｹﾝ","kana_city":"ｲﾁﾊﾗｼ","kana_address":"ﾁｸﾞｻｶｲｶﾞﾝ","pref":"千葉県","city":"市原市","address":"千種海岸"},
{"zip_code":"2990122","kana_pref":"ﾁﾊﾞｹﾝ","kana_city":"ｲﾁﾊﾗｼ","kana_address":"ﾄﾖﾅﾘ","pref":"千葉県","city":"市原市","address":"豊成"},
{"zip_code":"2990112","kana_pref":"ﾁﾊﾞｹﾝ","kana_city":"ｲﾁﾊﾗｼ","kana_address":"ﾊﾀｷ","pref":"千葉県","city":"市原市","address":"畑木"},
{"zip_code":"2990123","kana_pref":"ﾁﾊﾞｹﾝ","kana_city":"ｲﾁﾊﾗｼ","kana_address":"ﾌｶｼﾛ","pref":"千葉県","city":"市原市","address":"深城"},
{"zip_code":"2990116","kana_pref":"ﾁﾊﾞｹﾝ","kana_city":"ｲﾁﾊﾗｼ","kana_address":"ﾑｶｴﾀﾞ","pref":"千葉県","city":"市原市","address":"迎田"},
{"zip_code":"2990124","kana_pref":"ﾁﾊﾞｹﾝ","kana_city":"ｲﾁﾊﾗｼ","kana_address":"ﾕｳｼｭｳﾀﾞｲﾋｶﾞｼ","pref":"千葉県","city":"市原市","address":"有秋台東"},
{"zip_code":"2990125","kana_pref":"ﾁﾊﾞｹﾝ","kana_city":"ｲﾁﾊﾗｼ","kana_address":"ﾕｳｼｭｳﾀﾞｲﾆｼ","pref":"千葉県","city":"市原市","address":"有秋台西"},
{"zip_code":"2995503","kana_pref":"ﾁﾊﾞｹﾝ","kana_city":"ｶﾓｶﾞﾜｼ","kana_address":"ｱﾏﾂ","pref":"千葉県","city":"鴨川市","address":"天津"},
{"zip_code":"2992864","kana_pref":"ﾁﾊﾞｹﾝ","kana_city":"ｶﾓｶﾞﾜｼ","kana_address":"ｱﾏﾂﾗ","pref":"千葉県","city":"鴨川市","address":"天面"},
{"zip_code":"2995502","kana_pref":"ﾁﾊﾞｹﾝ","kana_city":"ｶﾓｶﾞﾜｼ","kana_address":"ｳﾁｳﾗ","pref":"千葉県","city":"鴨川市","address":"内浦"},
{"zip_code":"2992842","kana_pref":"ﾁﾊﾞｹﾝ","kana_city":"ｶﾓｶﾞﾜｼ","kana_address":"ｴﾐｱｵｷ","pref":"千葉県","city":"鴨川市","address":"江見青木"},
{"zip_code":"2992847","kana_pref":"ﾁﾊﾞｹﾝ","kana_city":"ｶﾓｶﾞﾜｼ","kana_address":"ｴﾐｳﾄﾉ","pref":"千葉県","city":"鴨川市","address":"江見内遠野"},
{"zip_code":"2992846","kana_pref":"ﾁﾊﾞｹﾝ","kana_city":"ｶﾓｶﾞﾜｼ","kana_address":"ｴﾐｿﾄﾎﾞﾘ","pref":"千葉県","city":"鴨川市","address":"江見外堀"},
{"zip_code":"2992865","kana_pref":"ﾁﾊﾞｹﾝ","kana_city":"ｶﾓｶﾞﾜｼ","kana_address":"ｴﾐﾀﾕｳｻﾞｷ","pref":"千葉県","city":"鴨川市","address":"江見太夫崎"},
{"zip_code":"2992844","kana_pref":"ﾁﾊﾞｹﾝ","kana_city":"ｶﾓｶﾞﾜｼ","kana_address":"ｴﾐﾋｶﾞｼﾏｶﾄﾞ","pref":"千葉県","city":"鴨川市","address":"江見東真門"},
{"zip_code":"2992845","kana_pref":"ﾁﾊﾞｹﾝ","kana_city":"ｶﾓｶﾞﾜｼ","kana_address":"ｴﾐﾆｼﾏｶﾄﾞ","pref":"千葉県","city":"鴨川市","address":"江見西真門"},
{"zip_code":"2992866","kana_pref":"ﾁﾊﾞｹﾝ","kana_city":"ｶﾓｶﾞﾜｼ","kana_address":"ｴﾐﾖｼｳﾗ","pref":"千葉県","city":"鴨川市","address":"江見吉浦"},
{"zip_code":"2992858","kana_pref":"ﾁﾊﾞｹﾝ","kana_city":"ｶﾓｶﾞﾜｼ","kana_address":"ｶﾐ","pref":"千葉県","city":"鴨川市","address":"上"},
{"zip_code":"2995505","kana_pref":"ﾁﾊﾞｹﾝ","kana_city":"ｶﾓｶﾞﾜｼ","kana_address":"ｷﾖｽﾐ","pref":"千葉県","city":"鴨川市","address":"清澄"},
{"zip_code":"2995501","kana_pref":"ﾁﾊﾞｹﾝ","kana_city":"ｶﾓｶﾞﾜｼ","kana_address":"ｺﾐﾅﾄ","pref":"千葉県","city":"鴨川市","address":"小湊"},
{"zip_code":"2992854","kana_pref":"ﾁﾊﾞｹﾝ","kana_city":"ｶﾓｶﾞﾜｼ","kana_address":"ﾀﾞｲ","pref":"千葉県","city":"鴨川市","address":"代"},
{"zip_code":"2992851","kana_pref":"ﾁﾊﾞｹﾝ","kana_city":"ｶﾓｶﾞﾜｼ","kana_address":"ﾅｶﾁｮｳ","pref":"千葉県","city":"鴨川市","address":"仲町"},
{"zip_code":"2992856","kana_pref":"ﾁﾊﾞｹﾝ","kana_city":"ｶﾓｶﾞﾜｼ","kana_address":"ﾆｼ","pref":"千葉県","city":"鴨川市","address":"西"},
{"zip_code":"2992841","kana_pref":"ﾁﾊﾞｹﾝ","kana_city":"ｶﾓｶﾞﾜｼ","kana_address":"ﾆｼｴﾐ","pref":"千葉県","city":"鴨川市","address":"西江見"},
{"zip_code":"2992867","kana_pref":"ﾁﾊﾞｹﾝ","kana_city":"ｶﾓｶﾞﾜｼ","kana_address":"ﾆｼﾔﾏ","pref":"千葉県","city":"鴨川市","address":"西山"},
{"zip_code":"2992855","kana_pref":"ﾁﾊﾞｹﾝ","kana_city":"ｶﾓｶﾞﾜｼ","kana_address":"ﾊﾀ","pref":"千葉県","city":"鴨川市","address":"畑"},
{"zip_code":"2995504","kana_pref":"ﾁﾊﾞｹﾝ","kana_city":"ｶﾓｶﾞﾜｼ","kana_address":"ﾊﾏｵｷﾞ","pref":"千葉県","city":"鴨川市","address":"浜荻"},
{"zip_code":"2992857","kana_pref":"ﾁﾊﾞｹﾝ","kana_city":"ｶﾓｶﾞﾜｼ","kana_address":"ﾋｶﾞｼ","pref":"千葉県","city":"鴨川市","address":"東"},
{"zip_code":"2992843","kana_pref":"ﾁﾊﾞｹﾝ","kana_city":"ｶﾓｶﾞﾜｼ","kana_address":"ﾋｶﾞｼｴﾐ","pref":"千葉県","city":"鴨川市","address":"東江見"},
{"zip_code":"2992852","kana_pref":"ﾁﾊﾞｹﾝ","kana_city":"ｶﾓｶﾞﾜｼ","kana_address":"ﾌﾀｺﾞ","pref":"千葉県","city":"鴨川市","address":"二子"},
{"zip_code":"2992862","kana_pref":"ﾁﾊﾞｹﾝ","kana_city":"ｶﾓｶﾞﾜｼ","kana_address":"ﾌﾄﾐ","pref":"千葉県","city":"鴨川市","address":"太海"},
{"zip_code":"2992863","kana_pref":"ﾁﾊﾞｹﾝ","kana_city":"ｶﾓｶﾞﾜｼ","kana_address":"ﾌﾄﾐﾊﾏ","pref":"千葉県","city":"鴨川市","address":"太海浜"},
{"zip_code":"2992861","kana_pref":"ﾁﾊﾞｹﾝ","kana_city":"ｶﾓｶﾞﾜｼ","kana_address":"ﾌﾄﾐﾆｼ","pref":"千葉県","city":"鴨川市","address":"太海西"},
{"zip_code":"2992853","kana_pref":"ﾁﾊﾞｹﾝ","kana_city":"ｶﾓｶﾞﾜｼ","kana_address":"ﾐﾔ","pref":"千葉県","city":"鴨川市","address":"宮"},
{"zip_code":"2995506","kana_pref":"ﾁﾊﾞｹﾝ","kana_city":"ｶﾓｶﾞﾜｼ","kana_address":"ﾖﾓｷﾞ","pref":"千葉県","city":"鴨川市","address":"四方木"},
{"zip_code":"2991100","kana_pref":"ﾁﾊﾞｹﾝ","kana_city":"ｷﾐﾂｼ","kana_address":"","pref":"千葉県","city":"君津市","address":""},
{"zip_code":"2991112","kana_pref":"ﾁﾊﾞｹﾝ","kana_city":"ｷﾐﾂｼ","kana_address":"ｲｽﾞﾐ","pref":"千葉県","city":"君津市","address":"泉"},
{"zip_code":"2991175","kana_pref":"ﾁﾊﾞｹﾝ","kana_city":"ｷﾐﾂｼ","kana_address":"ｳﾁﾐﾉﾜ","pref":"千葉県","city":"君津市","address":"内箕輪"},
{"zip_code":"2991176","kana_pref":"ﾁﾊﾞｹﾝ","kana_city":"ｷﾐﾂｼ","kana_address":"ｳﾁﾐﾉﾜ","pref":"千葉県","city":"君津市","address":"内蓑輪"},
{"zip_code":"2991103","kana_pref":"ﾁﾊﾞｹﾝ","kana_city":"ｷﾐﾂｼ","kana_address":"ｵｵｲ","pref":"千葉県","city":"君津市","address":"大井"},
{"zip_code":"2991123","kana_pref":"ﾁﾊﾞｹﾝ","kana_city":"ｷﾐﾂｼ","kana_address":"ｵｵﾔﾏﾉ","pref":"千葉県","city":"君津市","address":"大山野"},
{"zip_code":"2991102","kana_pref":"ﾁﾊﾞｹﾝ","kana_city":"ｷﾐﾂｼ","kana_address":"ｵｵﾜｼ","pref":"千葉県","city":"君津市","address":"大鷲"},
{"zip_code":"2991101","kana_pref":"ﾁﾊﾞｹﾝ","kana_city":"ｷﾐﾂｼ","kana_address":"ｵｵﾜｼｼﾝﾃﾞﾝ","pref":"千葉県","city":"君津市","address":"大鷲新田"},
{"zip_code":"2991146","kana_pref":"ﾁﾊﾞｹﾝ","kana_city":"ｷﾐﾂｼ","kana_address":"ｵｵﾜﾀﾞ","pref":"千葉県","city":"君津市","address":"大和田"},
{"zip_code":"2991107","kana_pref":"ﾁﾊﾞｹﾝ","kana_city":"ｷﾐﾂｼ","kana_address":"ｶﾐ","pref":"千葉県","city":"君津市","address":"上"},
{"zip_code":"2991138","kana_pref":"ﾁﾊﾞｹﾝ","kana_city":"ｷﾐﾂｼ","kana_address":"ｶﾐﾕｴ","pref":"千葉県","city":"君津市","address":"上湯江"},
{"zip_code":"2991164","kana_pref":"ﾁﾊﾞｹﾝ","kana_city":"ｷﾐﾂｼ","kana_address":"ｷﾀｸﾎﾞ","pref":"千葉県","city":"君津市","address":"北久保"},
{"zip_code":"2991161","kana_pref":"ﾁﾊﾞｹﾝ","kana_city":"ｷﾐﾂｼ","kana_address":"ｷﾀｺﾔｽ","pref":"千葉県","city":"君津市","address":"北子安"},
{"zip_code":"2991141","kana_pref":"ﾁﾊﾞｹﾝ","kana_city":"ｷﾐﾂｼ","kana_address":"ｷﾐﾂ","pref":"千葉県","city":"君津市","address":"君津"},
{"zip_code":"2991143","kana_pref":"ﾁﾊﾞｹﾝ","kana_city":"ｷﾐﾂｼ","kana_address":"ｷﾐﾂﾀﾞｲ","pref":"千葉県","city":"君津市","address":"君津台"},
{"zip_code":"2991152","kana_pref":"ﾁﾊﾞｹﾝ","kana_city":"ｷﾐﾂｼ","kana_address":"ｸﾎﾞ","pref":"千葉県","city":"君津市","address":"久保"},
{"zip_code":"2991165","kana_pref":"ﾁﾊﾞｹﾝ","kana_city":"ｷﾐﾂｼ","kana_address":"ｺｳｻｶ","pref":"千葉県","city":"君津市","address":"高坂"},
{"zip_code":"2991127","kana_pref":"ﾁﾊﾞｹﾝ","kana_city":"ｷﾐﾂｼ","kana_address":"ｺｵﾘ","pref":"千葉県","city":"君津市","address":"郡"},
{"zip_code":"2991126","kana_pref":"ﾁﾊﾞｹﾝ","kana_city":"ｷﾐﾂｼ","kana_address":"ｺﾔﾏﾉ","pref":"千葉県","city":"君津市","address":"小山野"},
{"zip_code":"2991142","kana_pref":"ﾁﾊﾞｹﾝ","kana_city":"ｷﾐﾂｼ","kana_address":"ｻｶﾀﾞ","pref":"千葉県","city":"君津市","address":"坂田"},
{"zip_code":"2991133","kana_pref":"ﾁﾊﾞｹﾝ","kana_city":"ｷﾐﾂｼ","kana_address":"ｻﾀﾞﾓﾄ","pref":"千葉県","city":"君津市","address":"貞元"},
{"zip_code":"2991116","kana_pref":"ﾁﾊﾞｹﾝ","kana_city":"ｷﾐﾂｼ","kana_address":"ｻﾗﾋｷ","pref":"千葉県","city":"君津市","address":"皿引"},
{"zip_code":"2991136","kana_pref":"ﾁﾊﾞｹﾝ","kana_city":"ｷﾐﾂｼ","kana_address":"ｼﾐﾄﾞｳ","pref":"千葉県","city":"君津市","address":"新御堂"},
{"zip_code":"2991131","kana_pref":"ﾁﾊﾞｹﾝ","kana_city":"ｷﾐﾂｼ","kana_address":"ｼﾓﾕｴ","pref":"千葉県","city":"君津市","address":"下湯江"},
{"zip_code":"2991137","kana_pref":"ﾁﾊﾞｹﾝ","kana_city":"ｷﾐﾂｼ","kana_address":"ｼｮｳｺｳ","pref":"千葉県","city":"君津市","address":"小香"},
{"zip_code":"2991105","kana_pref":"ﾁﾊﾞｹﾝ","kana_city":"ｷﾐﾂｼ","kana_address":"ｼﾛｺﾏ","pref":"千葉県","city":"君津市","address":"白駒"},
{"zip_code":"2991135","kana_pref":"ﾁﾊﾞｹﾝ","kana_city":"ｷﾐﾂｼ","kana_address":"ｽｷﾞﾔﾂ","pref":"千葉県","city":"君津市","address":"杉谷"},
{"zip_code":"2991114","kana_pref":"ﾁﾊﾞｹﾝ","kana_city":"ｷﾐﾂｼ","kana_address":"ｿｳｷﾞｭｳ","pref":"千葉県","city":"君津市","address":"草牛"},
{"zip_code":"2991173","kana_pref":"ﾁﾊﾞｹﾝ","kana_city":"ｷﾐﾂｼ","kana_address":"ｿﾄﾐﾉﾜ","pref":"千葉県","city":"君津市","address":"外箕輪"},
{"zip_code":"2991153","kana_pref":"ﾁﾊﾞｹﾝ","kana_city":"ｷﾐﾂｼ","kana_address":"ﾀﾞｲ","pref":"千葉県","city":"君津市","address":"台"},
{"zip_code":"2991124","kana_pref":"ﾁﾊﾞｹﾝ","kana_city":"ｷﾐﾂｼ","kana_address":"ﾂｸﾘｷ","pref":"千葉県","city":"君津市","address":"作木"},
{"zip_code":"2991121","kana_pref":"ﾁﾊﾞｹﾝ","kana_city":"ｷﾐﾂｼ","kana_address":"ﾄｺｼﾛ","pref":"千葉県","city":"君津市","address":"常代"},
{"zip_code":"2991106","kana_pref":"ﾁﾊﾞｹﾝ","kana_city":"ｷﾐﾂｼ","kana_address":"ﾅｶｼﾞﾏ","pref":"千葉県","city":"君津市","address":"中島"},
{"zip_code":"2991132","kana_pref":"ﾁﾊﾞｹﾝ","kana_city":"ｷﾐﾂｼ","kana_address":"ﾅｶﾄﾐ","pref":"千葉県","city":"君津市","address":"中富"},
{"zip_code":"2991151","kana_pref":"ﾁﾊﾞｹﾝ","kana_city":"ｷﾐﾂｼ","kana_address":"ﾅｶﾉ","pref":"千葉県","city":"君津市","address":"中野"},
{"zip_code":"2991145","kana_pref":"ﾁﾊﾞｹﾝ","kana_city":"ｷﾐﾂｼ","kana_address":"ﾆｼｻｶﾀﾞ","pref":"千葉県","city":"君津市","address":"西坂田"},
{"zip_code":"2991104","kana_pref":"ﾁﾊﾞｹﾝ","kana_city":"ｷﾐﾂｼ","kana_address":"ﾇｶﾀ","pref":"千葉県","city":"君津市","address":"糠田"},
{"zip_code":"2991108","kana_pref":"ﾁﾊﾞｹﾝ","kana_city":"ｷﾐﾂｼ","kana_address":"ﾈﾘｷ","pref":"千葉県","city":"君津市","address":"練木"},
{"zip_code":"2991122","kana_pref":"ﾁﾊﾞｹﾝ","kana_city":"ｷﾐﾂｼ","kana_address":"ﾊﾏｺﾞ","pref":"千葉県","city":"君津市","address":"浜子"},
{"zip_code":"2991144","kana_pref":"ﾁﾊﾞｹﾝ","kana_city":"ｷﾐﾂｼ","kana_address":"ﾋｶﾞｼｻｶﾀﾞ","pref":"千葉県","city":"君津市","address":"東坂田"},
{"zip_code":"2991113","kana_pref":"ﾁﾊﾞｹﾝ","kana_city":"ｷﾐﾂｼ","kana_address":"ﾋﾞｼｬ","pref":"千葉県","city":"君津市","address":"尾車"},
{"zip_code":"2991147","kana_pref":"ﾁﾊﾞｹﾝ","kana_city":"ｷﾐﾂｼ","kana_address":"ﾋﾄﾐ","pref":"千葉県","city":"君津市","address":"人見"},
{"zip_code":"2991174","kana_pref":"ﾁﾊﾞｹﾝ","kana_city":"ｷﾐﾂｼ","kana_address":"ﾎｳｷﾞｻｸ","pref":"千葉県","city":"君津市","address":"法木作"},
{"zip_code":"2991115","kana_pref":"ﾁﾊﾞｹﾝ","kana_city":"ｷﾐﾂｼ","kana_address":"ﾏﾉﾎﾞﾘ","pref":"千葉県","city":"君津市","address":"馬登"},
{"zip_code":"2991154","kana_pref":"ﾁﾊﾞｹﾝ","kana_city":"ｷﾐﾂｼ","kana_address":"ﾐﾅﾐｸﾎﾞ","pref":"千葉県","city":"君津市","address":"南久保"},
{"zip_code":"2991162","kana_pref":"ﾁﾊﾞｹﾝ","kana_city":"ｷﾐﾂｼ","kana_address":"ﾐﾅﾐｺﾔｽ","pref":"千葉県","city":"君津市","address":"南子安"},
{"zip_code":"2991172","kana_pref":"ﾁﾊﾞｹﾝ","kana_city":"ｷﾐﾂｼ","kana_address":"ﾐﾉｳ","pref":"千葉県","city":"君津市","address":"三直"},
{"zip_code":"2991117","kana_pref":"ﾁﾊﾞｹﾝ","kana_city":"ｷﾐﾂｼ","kana_address":"ﾐﾔﾉｼﾀ","pref":"千葉県","city":"君津市","address":"宮下"},
{"zip_code":"2991111","kana_pref":"ﾁﾊﾞｹﾝ","kana_city":"ｷﾐﾂｼ","kana_address":"ﾑﾃ","pref":"千葉県","city":"君津市","address":"六手"},
{"zip_code":"2991163","kana_pref":"ﾁﾊﾞｹﾝ","kana_city":"ｷﾐﾂｼ","kana_address":"ﾓｸｼ","pref":"千葉県","city":"君津市","address":"杢師"},
{"zip_code":"2991171","kana_pref":"ﾁﾊﾞｹﾝ","kana_city":"ｷﾐﾂｼ","kana_address":"ﾔｴﾊﾗ","pref":"千葉県","city":"君津市","address":"八重原"},
{"zip_code":"2991125","kana_pref":"ﾁﾊﾞｹﾝ","kana_city":"ｷﾐﾂｼ","kana_address":"ﾔﾏﾀｶﾊﾗ","pref":"千葉県","city":"君津市","address":"山高原"},
{"zip_code":"2991134","kana_pref":"ﾁﾊﾞｹﾝ","kana_city":"ｷﾐﾂｼ","kana_address":"ﾔﾜﾀ","pref":"千葉県","city":"君津市","address":"八幡"},
{"zip_code":"2991166","kana_pref":"ﾁﾊﾞｹﾝ","kana_city":"ｷﾐﾂｼ","kana_address":"ﾖｳｺｳﾀﾞｲ","pref":"千葉県","city":"君津市","address":"陽光台"},
{"zip_code":"2991615","kana_pref":"ﾁﾊﾞｹﾝ","kana_city":"ﾌｯﾂｼ","kana_address":"ｱｲｶﾜ","pref":"千葉県","city":"富津市","address":"相川"},
{"zip_code":"2991613","kana_pref":"ﾁﾊﾞｹﾝ","kana_city":"ﾌｯﾂｼ","kana_address":"ｲﾘﾔﾏｽﾞ","pref":"千葉県","city":"富津市","address":"不入斗"},
{"zip_code":"2991608","kana_pref":"ﾁﾊﾞｹﾝ","kana_city":"ﾌｯﾂｼ","kana_address":"ｲﾜｻｶ","pref":"千葉県","city":"富津市","address":"岩坂"},
{"zip_code":"2991746","kana_pref":"ﾁﾊﾞｹﾝ","kana_city":"ﾌｯﾂｼ","kana_address":"ｲﾜﾓﾄ","pref":"千葉県","city":"富津市","address":"岩本"},
{"zip_code":"2991753","kana_pref":"ﾁﾊﾞｹﾝ","kana_city":"ﾌｯﾂｼ","kana_address":"ｳｴｺﾞ","pref":"千葉県","city":"富津市","address":"上後"},
{"zip_code":"2991732","kana_pref":"ﾁﾊﾞｹﾝ","kana_city":"ﾌｯﾂｼ","kana_address":"ｳﾄｳﾊﾞﾗ","pref":"千葉県","city":"富津市","address":"宇藤原"},
{"zip_code":"2991617","kana_pref":"ﾁﾊﾞｹﾝ","kana_city":"ﾌｯﾂｼ","kana_address":"ｳﾙﾂﾞ","pref":"千葉県","city":"富津市","address":"売津"},
{"zip_code":"2991736","kana_pref":"ﾁﾊﾞｹﾝ","kana_city":"ﾌｯﾂｼ","kana_address":"ｵｵｶﾞﾜｻｷ","pref":"千葉県","city":"富津市","address":"大川崎"},
{"zip_code":"2991735","kana_pref":"ﾁﾊﾞｹﾝ","kana_city":"ﾌｯﾂｼ","kana_address":"ｵｵﾀﾜ","pref":"千葉県","city":"富津市","address":"大田和"},
{"zip_code":"2991758","kana_pref":"ﾁﾊﾞｹﾝ","kana_city":"ﾌｯﾂｼ","kana_address":"ｵｵﾓﾘ","pref":"千葉県","city":"富津市","address":"大森"},
{"zip_code":"2991757","kana_pref":"ﾁﾊﾞｹﾝ","kana_city":"ﾌｯﾂｼ","kana_address":"ｵｼｷﾘ","pref":"千葉県","city":"富津市","address":"押切"},
{"zip_code":"2991751","kana_pref":"ﾁﾊﾞｹﾝ","kana_city":"ﾌｯﾂｼ","kana_address":"ｵﾝﾀﾞ","pref":"千葉県","city":"富津市","address":"恩田"},
{"zip_code":"2991616","kana_pref":"ﾁﾊﾞｹﾝ","kana_city":"ﾌｯﾂｼ","kana_address":"ｶｲﾗ","pref":"千葉県","city":"富津市","address":"海良"},
{"zip_code":"2991606","kana_pref":"ﾁﾊﾞｹﾝ","kana_city":"ﾌｯﾂｼ","kana_address":"ｶｽﾞﾏ","pref":"千葉県","city":"富津市","address":"数馬"},
{"zip_code":"2991609","kana_pref":"ﾁﾊﾞｹﾝ","kana_city":"ﾌｯﾂｼ","kana_address":"ｶﾄｳ","pref":"千葉県","city":"富津市","address":"加藤"},
{"zip_code":"2991861","kana_pref":"ﾁﾊﾞｹﾝ","kana_city":"ﾌｯﾂｼ","kana_address":"ｶﾅﾔ","pref":"千葉県","city":"富津市","address":"金谷"},
{"zip_code":"2991747","kana_pref":"ﾁﾊﾞｹﾝ","kana_city":"ﾌｯﾂｼ","kana_address":"ｺｼﾞｺﾏ","pref":"千葉県","city":"富津市","address":"小志駒"},
{"zip_code":"2991602","kana_pref":"ﾁﾊﾞｹﾝ","kana_city":"ﾌｯﾂｼ","kana_address":"ｻｸﾗｲ","pref":"千葉県","city":"富津市","address":"桜井"},
{"zip_code":"2991601","kana_pref":"ﾁﾊﾞｹﾝ","kana_city":"ﾌｯﾂｼ","kana_address":"ｻｸﾗｲｿｳｼｮｳｷﾅﾀﾞﾔﾏ","pref":"千葉県","city":"富津市","address":"桜井総稱鬼泪山"},
{"zip_code":"2991603","kana_pref":"ﾁﾊﾞｹﾝ","kana_city":"ﾌｯﾂｼ","kana_address":"ｻﾗﾜ","pref":"千葉県","city":"富津市","address":"更和"},
{"zip_code":"2991745","kana_pref":"ﾁﾊﾞｹﾝ","kana_city":"ﾌｯﾂｼ","kana_address":"ｼｺﾏ","pref":"千葉県","city":"富津市","address":"志駒"},
{"zip_code":"2991734","kana_pref":"ﾁﾊﾞｹﾝ","kana_city":"ﾌｯﾂｼ","kana_address":"ｾｷ","pref":"千葉県","city":"富津市","address":"関"},
{"zip_code":"2991752","kana_pref":"ﾁﾊﾞｹﾝ","kana_city":"ﾌｯﾂｼ","kana_address":"ｾｷｼﾞﾘ","pref":"千葉県","city":"富津市","address":"関尻"},
{"zip_code":"2991604","kana_pref":"ﾁﾊﾞｹﾝ","kana_city":"ﾌｯﾂｼ","kana_address":"ﾀﾞｲﾊﾞﾗ","pref":"千葉県","city":"富津市","address":"台原"},
{"zip_code":"2991733","kana_pref":"ﾁﾊﾞｹﾝ","kana_city":"ﾌｯﾂｼ","kana_address":"ﾀｶﾐｿﾞ","pref":"千葉県","city":"富津市","address":"高溝"},
{"zip_code":"2991731","kana_pref":"ﾁﾊﾞｹﾝ","kana_city":"ﾌｯﾂｼ","kana_address":"ﾀｸﾞﾗ","pref":"千葉県","city":"富津市","address":"田倉"},
{"zip_code":"2991621","kana_pref":"ﾁﾊﾞｹﾝ","kana_city":"ﾌｯﾂｼ","kana_address":"ﾀｹｵｶ","pref":"千葉県","city":"富津市","address":"竹岡"},
{"zip_code":"2991755","kana_pref":"ﾁﾊﾞｹﾝ","kana_city":"ﾌｯﾂｼ","kana_address":"ﾀﾊﾞﾗ","pref":"千葉県","city":"富津市","address":"田原"},
{"zip_code":"2991759","kana_pref":"ﾁﾊﾞｹﾝ","kana_city":"ﾌｯﾂｼ","kana_address":"ﾃﾗｵ","pref":"千葉県","city":"富津市","address":"寺尾"},
{"zip_code":"2991742","kana_pref":"ﾁﾊﾞｹﾝ","kana_city":"ﾌｯﾂｼ","kana_address":"ﾄﾖｵｶ","pref":"千葉県","city":"富津市","address":"豊岡"},
{"zip_code":"2991611","kana_pref":"ﾁﾊﾞｹﾝ","kana_city":"ﾌｯﾂｼ","kana_address":"ﾅｶﾞｻｷ","pref":"千葉県","city":"富津市","address":"長崎"},
{"zip_code":"2991744","kana_pref":"ﾁﾊﾞｹﾝ","kana_city":"ﾌｯﾂｼ","kana_address":"ﾅｼｻﾞﾜ","pref":"千葉県","city":"富津市","address":"梨沢"},
{"zip_code":"2991614","kana_pref":"ﾁﾊﾞｹﾝ","kana_city":"ﾌｯﾂｼ","kana_address":"ﾅｼｻﾞﾜ","pref":"千葉県","city":"富津市","address":"梨沢"},
{"zip_code":"2991622","kana_pref":"ﾁﾊﾞｹﾝ","kana_city":"ﾌｯﾂｼ","kana_address":"ﾊｷﾞｳ","pref":"千葉県","city":"富津市","address":"萩生"},
{"zip_code":"2991618","kana_pref":"ﾁﾊﾞｹﾝ","kana_city":"ﾌｯﾂｼ","kana_address":"ﾊﾅﾜ","pref":"千葉県","city":"富津市","address":"花輪"},
{"zip_code":"2991737","kana_pref":"ﾁﾊﾞｹﾝ","kana_city":"ﾌｯﾂｼ","kana_address":"ﾋｶﾞｼｵｵﾜﾀﾞ","pref":"千葉県","city":"富津市","address":"東大和田"},
{"zip_code":"2991607","kana_pref":"ﾁﾊﾞｹﾝ","kana_city":"ﾌｯﾂｼ","kana_address":"ﾐﾅﾄ","pref":"千葉県","city":"富津市","address":"湊"},
{"zip_code":"2991741","kana_pref":"ﾁﾊﾞｹﾝ","kana_city":"ﾌｯﾂｼ","kana_address":"ﾐﾖﾊﾞﾗ","pref":"千葉県","city":"富津市","address":"御代原"},
{"zip_code":"2991756","kana_pref":"ﾁﾊﾞｹﾝ","kana_city":"ﾌｯﾂｼ","kana_address":"ﾑﾂﾉ","pref":"千葉県","city":"富津市","address":"六野"},
{"zip_code":"2991605","kana_pref":"ﾁﾊﾞｹﾝ","kana_city":"ﾌｯﾂｼ","kana_address":"ﾓﾁｲ","pref":"千葉県","city":"富津市","address":"望井"},
{"zip_code":"2991743","kana_pref":"ﾁﾊﾞｹﾝ","kana_city":"ﾌｯﾂｼ","kana_address":"ﾔﾏﾅｶ","pref":"千葉県","city":"富津市","address":"山中"},
{"zip_code":"2991754","kana_pref":"ﾁﾊﾞｹﾝ","kana_city":"ﾌｯﾂｼ","kana_address":"ﾔﾏﾜｷ","pref":"千葉県","city":"富津市","address":"山脇"},
{"zip_code":"2991612","kana_pref":"ﾁﾊﾞｹﾝ","kana_city":"ﾌｯﾂｼ","kana_address":"ﾖｺﾔﾏ","pref":"千葉県","city":"富津市","address":"横山"},
{"zip_code":"2990200","kana_pref":"ﾁﾊﾞｹﾝ","kana_city":"ｿﾃﾞｶﾞｳﾗｼ","kana_address":"","pref":"千葉県","city":"袖ケ浦市","address":""},
{"zip_code":"2990216","kana_pref":"ﾁﾊﾞｹﾝ","kana_city":"ｿﾃﾞｶﾞｳﾗｼ","kana_address":"ｱﾍﾞ","pref":"千葉県","city":"袖ケ浦市","address":"阿部"},
{"zip_code":"2990256","kana_pref":"ﾁﾊﾞｹﾝ","kana_city":"ｿﾃﾞｶﾞｳﾗｼ","kana_address":"ｲｲﾄﾐ","pref":"千葉県","city":"袖ケ浦市","address":"飯富"},
{"zip_code":"2990264","kana_pref":"ﾁﾊﾞｹﾝ","kana_city":"ｿﾃﾞｶﾞｳﾗｼ","kana_address":"ｲﾏｲ","pref":"千葉県","city":"袖ケ浦市","address":"今井"},
{"zip_code":"2990233","kana_pref":"ﾁﾊﾞｹﾝ","kana_city":"ｿﾃﾞｶﾞｳﾗｼ","kana_address":"ｲﾜｲ","pref":"千葉県","city":"袖ケ浦市","address":"岩井"},
{"zip_code":"2990217","kana_pref":"ﾁﾊﾞｹﾝ","kana_city":"ｿﾃﾞｶﾞｳﾗｼ","kana_address":"ｳﾁｺｼ","pref":"千葉県","city":"袖ケ浦市","address":"打越"},
{"zip_code":"2990232","kana_pref":"ﾁﾊﾞｹﾝ","kana_city":"ｿﾃﾞｶﾞｳﾗｼ","kana_address":"ｴｲﾁ","pref":"千葉県","city":"袖ケ浦市","address":"永地"},
{"zip_code":"2990221","kana_pref":"ﾁﾊﾞｹﾝ","kana_city":"ｿﾃﾞｶﾞｳﾗｼ","kana_address":"ｵｵﾀﾞｹ","pref":"千葉県","city":"袖ケ浦市","address":"大竹"},
{"zip_code":"2990237","kana_pref":"ﾁﾊﾞｹﾝ","kana_city":"ｿﾃﾞｶﾞｳﾗｼ","kana_address":"ｵｵﾄﾞﾘｲ","pref":"千葉県","city":"袖ケ浦市","address":"大鳥居"},
{"zip_code":"2990253","kana_pref":"ﾁﾊﾞｹﾝ","kana_city":"ｿﾃﾞｶﾞｳﾗｼ","kana_address":"ｵｿﾞﾈ","pref":"千葉県","city":"袖ケ浦市","address":"大曽根"},
{"zip_code":"2990252","kana_pref":"ﾁﾊﾞｹﾝ","kana_city":"ｿﾃﾞｶﾞｳﾗｼ","kana_address":"ｶﾂ","pref":"千葉県","city":"袖ケ浦市","address":"勝"},
{"zip_code":"2990205","kana_pref":"ﾁﾊﾞｹﾝ","kana_city":"ｿﾃﾞｶﾞｳﾗｼ","kana_address":"ｶﾐｲｽﾞﾐ","pref":"千葉県","city":"袖ケ浦市","address":"上泉"},
{"zip_code":"2990222","kana_pref":"ﾁﾊﾞｹﾝ","kana_city":"ｿﾃﾞｶﾞｳﾗｼ","kana_address":"ｶﾐﾐﾔﾀﾞ","pref":"千葉県","city":"袖ケ浦市","address":"上宮田"},
{"zip_code":"2990201","kana_pref":"ﾁﾊﾞｹﾝ","kana_city":"ｿﾃﾞｶﾞｳﾗｼ","kana_address":"ｶﾜﾊﾗｲ","pref":"千葉県","city":"袖ケ浦市","address":"川原井"},
{"zip_code":"2990257","kana_pref":"ﾁﾊﾞｹﾝ","kana_city":"ｿﾃﾞｶﾞｳﾗｼ","kana_address":"ｶﾝﾉｳ","pref":"千葉県","city":"袖ケ浦市","address":"神納"},
{"zip_code":"2990266","kana_pref":"ﾁﾊﾞｹﾝ","kana_city":"ｿﾃﾞｶﾞｳﾗｼ","kana_address":"ｷﾀｿﾃﾞ","pref":"千葉県","city":"袖ケ浦市","address":"北袖"},
{"zip_code":"2990242","kana_pref":"ﾁﾊﾞｹﾝ","kana_city":"ｿﾃﾞｶﾞｳﾗｼ","kana_address":"ｸﾎﾞﾀ","pref":"千葉県","city":"袖ケ浦市","address":"久保田"},
{"zip_code":"2990243","kana_pref":"ﾁﾊﾞｹﾝ","kana_city":"ｿﾃﾞｶﾞｳﾗｼ","kana_address":"ｸﾗﾅﾐ","pref":"千葉県","city":"袖ケ浦市","address":"蔵波"},
{"zip_code":"2990245","kana_pref":"ﾁﾊﾞｹﾝ","kana_city":"ｿﾃﾞｶﾞｳﾗｼ","kana_address":"ｸﾗﾅﾐﾀﾞｲ","pref":"千葉県","city":"袖ケ浦市","address":"蔵波台"},
{"zip_code":"2990262","kana_pref":"ﾁﾊﾞｹﾝ","kana_city":"ｿﾃﾞｶﾞｳﾗｼ","kana_address":"ｻｶﾄﾞｲﾁﾊﾞ","pref":"千葉県","city":"袖ケ浦市","address":"坂戸市場"},
{"zip_code":"2990212","kana_pref":"ﾁﾊﾞｹﾝ","kana_city":"ｿﾃﾞｶﾞｳﾗｼ","kana_address":"ｻﾝｶﾞ","pref":"千葉県","city":"袖ケ浦市","address":"三箇"},
{"zip_code":"2990247","kana_pref":"ﾁﾊﾞｹﾝ","kana_city":"ｿﾃﾞｶﾞｳﾗｼ","kana_address":"ｼｲﾉﾓﾘ","pref":"千葉県","city":"袖ケ浦市","address":"椎の森"},
{"zip_code":"2990231","kana_pref":"ﾁﾊﾞｹﾝ","kana_city":"ｿﾃﾞｶﾞｳﾗｼ","kana_address":"ｼﾓｲｽﾞﾐ","pref":"千葉県","city":"袖ケ浦市","address":"下泉"},
{"zip_code":"2990255","kana_pref":"ﾁﾊﾞｹﾝ","kana_city":"ｿﾃﾞｶﾞｳﾗｼ","kana_address":"ｼﾓﾆｯﾀ","pref":"千葉県","city":"袖ケ浦市","address":"下新田"},
{"zip_code":"2990214","kana_pref":"ﾁﾊﾞｹﾝ","kana_city":"ｿﾃﾞｶﾞｳﾗｼ","kana_address":"ｼﾓﾈｷﾞｼ","pref":"千葉県","city":"袖ケ浦市","address":"下根岸"},
{"zip_code":"2990223","kana_pref":"ﾁﾊﾞｹﾝ","kana_city":"ｿﾃﾞｶﾞｳﾗｼ","kana_address":"ｼﾓﾐﾔﾀﾞ","pref":"千葉県","city":"袖ケ浦市","address":"下宮田"},
{"zip_code":"2990241","kana_pref":"ﾁﾊﾞｹﾝ","kana_city":"ｿﾃﾞｶﾞｳﾗｼ","kana_address":"ﾀﾞｲｼﾞｭｸ","pref":"千葉県","city":"袖ケ浦市","address":"代宿"},
{"zip_code":"2990203","kana_pref":"ﾁﾊﾞｹﾝ","kana_city":"ｿﾃﾞｶﾞｳﾗｼ","kana_address":"ﾀｶﾔ","pref":"千葉県","city":"袖ケ浦市","address":"高谷"},
{"zip_code":"2990226","kana_pref":"ﾁﾊﾞｹﾝ","kana_city":"ｿﾃﾞｶﾞｳﾗｼ","kana_address":"ﾀｷﾉｸﾁ","pref":"千葉県","city":"袖ケ浦市","address":"滝の口"},
{"zip_code":"2990225","kana_pref":"ﾁﾊﾞｹﾝ","kana_city":"ｿﾃﾞｶﾞｳﾗｼ","kana_address":"ﾀﾏﾉ","pref":"千葉県","city":"袖ケ浦市","address":"玉野"},
{"zip_code":"2990213","kana_pref":"ﾁﾊﾞｹﾝ","kana_city":"ｿﾃﾞｶﾞｳﾗｼ","kana_address":"ﾄﾞｳﾒｷ","pref":"千葉県","city":"袖ケ浦市","address":"百目木"},
{"zip_code":"2990215","kana_pref":"ﾁﾊﾞｹﾝ","kana_city":"ｿﾃﾞｶﾞｳﾗｼ","kana_address":"ﾄﾞｳﾔﾂ","pref":"千葉県","city":"袖ケ浦市","address":"堂谷"},
{"zip_code":"2990267","kana_pref":"ﾁﾊﾞｹﾝ","kana_city":"ｿﾃﾞｶﾞｳﾗｼ","kana_address":"ﾅｶｿﾃﾞ","pref":"千葉県","city":"袖ケ浦市","address":"中袖"},
{"zip_code":"2990265","kana_pref":"ﾁﾊﾞｹﾝ","kana_city":"ｿﾃﾞｶﾞｳﾗｼ","kana_address":"ﾅｶﾞｳﾗ","pref":"千葉県","city":"袖ケ浦市","address":"長浦"},
{"zip_code":"2990246","kana_pref":"ﾁﾊﾞｹﾝ","kana_city":"ｿﾃﾞｶﾞｳﾗｼ","kana_address":"ﾅｶﾞｳﾗｴｷﾏｴ","pref":"千葉県","city":"袖ケ浦市","address":"長浦駅前"},
{"zip_code":"2990204","kana_pref":"ﾁﾊﾞｹﾝ","kana_city":"ｿﾃﾞｶﾞｳﾗｼ","kana_address":"ﾅｶﾞﾖｼ","pref":"千葉県","city":"袖ケ浦市","address":"永吉"},
{"zip_code":"2990263","kana_pref":"ﾁﾊﾞｹﾝ","kana_city":"ｿﾃﾞｶﾞｳﾗｼ","kana_address":"ﾅﾗﾜ","pref":"千葉県","city":"袖ケ浦市","address":"奈良輪"},
{"zip_code":"2990211","kana_pref":"ﾁﾊﾞｹﾝ","kana_city":"ｿﾃﾞｶﾞｳﾗｼ","kana_address":"ﾉｻﾞﾄ","pref":"千葉県","city":"袖ケ浦市","address":"野里"},
{"zip_code":"2990251","kana_pref":"ﾁﾊﾞｹﾝ","kana_city":"ｿﾃﾞｶﾞｳﾗｼ","kana_address":"ﾉｿﾞﾐﾉ","pref":"千葉県","city":"袖ケ浦市","address":"のぞみ野"},
{"zip_code":"2990244","kana_pref":"ﾁﾊﾞｹﾝ","kana_city":"ｿﾃﾞｶﾞｳﾗｼ","kana_address":"ﾉﾀﾞ","pref":"千葉県","city":"袖ケ浦市","address":"野田"},
{"zip_code":"2990202","kana_pref":"ﾁﾊﾞｹﾝ","kana_city":"ｿﾃﾞｶﾞｳﾗｼ","kana_address":"ﾊﾔｼ","pref":"千葉県","city":"袖ケ浦市","address":"林"},
{"zip_code":"2990261","kana_pref":"ﾁﾊﾞｹﾝ","kana_city":"ｿﾃﾞｶﾞｳﾗｼ","kana_address":"ﾌｸｵｳﾀﾞｲ","pref":"千葉県","city":"袖ケ浦市","address":"福王台"},
{"zip_code":"2990235","kana_pref":"ﾁﾊﾞｹﾝ","kana_city":"ｿﾃﾞｶﾞｳﾗｼ","kana_address":"ﾐｸﾛ","pref":"千葉県","city":"袖ケ浦市","address":"三黒"},
{"zip_code":"2990254","kana_pref":"ﾁﾊﾞｹﾝ","kana_city":"ｿﾃﾞｶﾞｳﾗｼ","kana_address":"ﾐﾂｻﾞｸ","pref":"千葉県","city":"袖ケ浦市","address":"三ツ作"},
{"zip_code":"2990268","kana_pref":"ﾁﾊﾞｹﾝ","kana_city":"ｿﾃﾞｶﾞｳﾗｼ","kana_address":"ﾐﾅﾐｿﾃﾞ","pref":"千葉県","city":"袖ケ浦市","address":"南袖"},
{"zip_code":"2990234","kana_pref":"ﾁﾊﾞｹﾝ","kana_city":"ｿﾃﾞｶﾞｳﾗｼ","kana_address":"ﾔﾅｶ","pref":"千葉県","city":"袖ケ浦市","address":"谷中"},
{"zip_code":"2990236","kana_pref":"ﾁﾊﾞｹﾝ","kana_city":"ｿﾃﾞｶﾞｳﾗｼ","kana_address":"ﾖｺﾀ","pref":"千葉県","city":"袖ケ浦市","address":"横田"},
{"zip_code":"2990224","kana_pref":"ﾁﾊﾞｹﾝ","kana_city":"ｿﾃﾞｶﾞｳﾗｼ","kana_address":"ﾖｼﾉﾀﾞ","pref":"千葉県","city":"袖ケ浦市","address":"吉野田"},
{"zip_code":"2992400","kana_pref":"ﾁﾊﾞｹﾝ","kana_city":"ﾐﾅﾐﾎﾞｳｿｳｼ","kana_address":"","pref":"千葉県","city":"南房総市","address":""},
{"zip_code":"2992201","kana_pref":"ﾁﾊﾞｹﾝ","kana_city":"ﾐﾅﾐﾎﾞｳｿｳｼ","kana_address":"ｱﾗｶﾜ","pref":"千葉県","city":"南房総市","address":"荒川"},
{"zip_code":"2992522","kana_pref":"ﾁﾊﾞｹﾝ","kana_city":"ﾐﾅﾐﾎﾞｳｿｳｼ","kana_address":"ｱﾝﾊﾞﾔ","pref":"千葉県","city":"南房総市","address":"安馬谷"},
{"zip_code":"2992515","kana_pref":"ﾁﾊﾞｹﾝ","kana_city":"ﾐﾅﾐﾎﾞｳｿｳｼ","kana_address":"ｲｼｶﾞﾐ","pref":"千葉県","city":"南房総市","address":"石神"},
{"zip_code":"2992503","kana_pref":"ﾁﾊﾞｹﾝ","kana_city":"ﾐﾅﾐﾎﾞｳｿｳｼ","kana_address":"ｲｼﾄﾞｳ","pref":"千葉県","city":"南房総市","address":"石堂"},
{"zip_code":"2992502","kana_pref":"ﾁﾊﾞｹﾝ","kana_city":"ﾐﾅﾐﾎﾞｳｿｳｼ","kana_address":"ｲｼﾄﾞｳﾊﾗ","pref":"千葉県","city":"南房総市","address":"石堂原"},
{"zip_code":"2992226","kana_pref":"ﾁﾊﾞｹﾝ","kana_city":"ﾐﾅﾐﾎﾞｳｿｳｼ","kana_address":"ｲﾁﾌﾞ","pref":"千葉県","city":"南房総市","address":"市部"},
{"zip_code":"2992205","kana_pref":"ﾁﾊﾞｹﾝ","kana_city":"ﾐﾅﾐﾎﾞｳｿｳｼ","kana_address":"ｲﾇｶｹ","pref":"千葉県","city":"南房総市","address":"犬掛"},
{"zip_code":"2992212","kana_pref":"ﾁﾊﾞｹﾝ","kana_city":"ﾐﾅﾐﾎﾞｳｿｳｼ","kana_address":"ｲﾉ","pref":"千葉県","city":"南房総市","address":"井野"},
{"zip_code":"2992512","kana_pref":"ﾁﾊﾞｹﾝ","kana_city":"ﾐﾅﾐﾎﾞｳｿｳｼ","kana_address":"ｲﾜｲﾄ","pref":"千葉県","city":"南房総市","address":"岩糸"},
{"zip_code":"2992507","kana_pref":"ﾁﾊﾞｹﾝ","kana_city":"ﾐﾅﾐﾎﾞｳｿｳｼ","kana_address":"ｵｵｲ","pref":"千葉県","city":"南房総市","address":"大井"},
{"zip_code":"2992511","kana_pref":"ﾁﾊﾞｹﾝ","kana_city":"ﾐﾅﾐﾎﾞｳｿｳｼ","kana_address":"ｵﾄﾞ","pref":"千葉県","city":"南房総市","address":"小戸"},
{"zip_code":"2992525","kana_pref":"ﾁﾊﾞｹﾝ","kana_city":"ﾐﾅﾐﾎﾞｳｿｳｼ","kana_address":"ｶﾓ","pref":"千葉県","city":"南房総市","address":"加茂"},
{"zip_code":"2992211","kana_pref":"ﾁﾊﾞｹﾝ","kana_city":"ﾐﾅﾐﾎﾞｳｿｳｼ","kana_address":"ｶﾜｶﾐ","pref":"千葉県","city":"南房総市","address":"川上"},
{"zip_code":"2992504","kana_pref":"ﾁﾊﾞｹﾝ","kana_city":"ﾐﾅﾐﾎﾞｳｿｳｼ","kana_address":"ｶﾜﾔﾂ","pref":"千葉県","city":"南房総市","address":"川谷"},
{"zip_code":"2992216","kana_pref":"ﾁﾊﾞｹﾝ","kana_city":"ﾐﾅﾐﾎﾞｳｿｳｼ","kana_address":"ｸｼ","pref":"千葉県","city":"南房総市","address":"久枝"},
{"zip_code":"2992526","kana_pref":"ﾁﾊﾞｹﾝ","kana_city":"ﾐﾅﾐﾎﾞｳｿｳｼ","kana_address":"ｸﾂﾐ","pref":"千葉県","city":"南房総市","address":"沓見"},
{"zip_code":"2992524","kana_pref":"ﾁﾊﾞｹﾝ","kana_city":"ﾐﾅﾐﾎﾞｳｿｳｼ","kana_address":"ｸﾎﾞ","pref":"千葉県","city":"南房総市","address":"久保"},
{"zip_code":"2992215","kana_pref":"ﾁﾊﾞｹﾝ","kana_city":"ﾐﾅﾐﾎﾞｳｿｳｼ","kana_address":"ｹｷﾞﾔ","pref":"千葉県","city":"南房総市","address":"検儀谷"},
{"zip_code":"2992221","kana_pref":"ﾁﾊﾞｹﾝ","kana_city":"ﾐﾅﾐﾎﾞｳｿｳｼ","kana_address":"ｺﾞｳﾄﾞ","pref":"千葉県","city":"南房総市","address":"合戸"},
{"zip_code":"2992224","kana_pref":"ﾁﾊﾞｹﾝ","kana_city":"ﾐﾅﾐﾎﾞｳｿｳｼ","kana_address":"ｺｳﾗ","pref":"千葉県","city":"南房総市","address":"小浦"},
{"zip_code":"2992501","kana_pref":"ﾁﾊﾞｹﾝ","kana_city":"ﾐﾅﾐﾎﾞｳｿｳｼ","kana_address":"ｼｭｼｶﾞﾔﾂ","pref":"千葉県","city":"南房総市","address":"珠師ケ谷"},
{"zip_code":"2992521","kana_pref":"ﾁﾊﾞｹﾝ","kana_city":"ﾐﾅﾐﾎﾞｳｿｳｼ","kana_address":"ｼﾗｺ","pref":"千葉県","city":"南房総市","address":"白子"},
{"zip_code":"2992223","kana_pref":"ﾁﾊﾞｹﾝ","kana_city":"ﾐﾅﾐﾎﾞｳｿｳｼ","kana_address":"ﾀｶｻｷ","pref":"千葉県","city":"南房総市","address":"高崎"},
{"zip_code":"2992225","kana_pref":"ﾁﾊﾞｹﾝ","kana_city":"ﾐﾅﾐﾎﾞｳｿｳｼ","kana_address":"ﾀｹﾉｳﾁ","pref":"千葉県","city":"南房総市","address":"竹内"},
{"zip_code":"2992416","kana_pref":"ﾁﾊﾞｹﾝ","kana_city":"ﾐﾅﾐﾎﾞｳｿｳｼ","kana_address":"ﾄﾐｳﾗﾁｮｳｱｵｷ","pref":"千葉県","city":"南房総市","address":"富浦町青木"},
{"zip_code":"2992411","kana_pref":"ﾁﾊﾞｹﾝ","kana_city":"ﾐﾅﾐﾎﾞｳｿｳｼ","kana_address":"ﾄﾐｳﾗﾁｮｳｲｸﾞﾗ","pref":"千葉県","city":"南房総市","address":"富浦町居倉"},
{"zip_code":"2992412","kana_pref":"ﾁﾊﾞｹﾝ","kana_city":"ﾐﾅﾐﾎﾞｳｿｳｼ","kana_address":"ﾄﾐｳﾗﾁｮｳｵｵﾂ","pref":"千葉県","city":"南房総市","address":"富浦町大津"},
{"zip_code":"2992404","kana_pref":"ﾁﾊﾞｹﾝ","kana_city":"ﾐﾅﾐﾎﾞｳｿｳｼ","kana_address":"ﾄﾐｳﾗﾁｮｳﾀﾀﾞﾗ","pref":"千葉県","city":"南房総市","address":"富浦町多田良"},
{"zip_code":"2992418","kana_pref":"ﾁﾊﾞｹﾝ","kana_city":"ﾐﾅﾐﾎﾞｳｿｳｼ","kana_address":"ﾄﾐｳﾗﾁｮｳﾃﾄﾞﾘ","pref":"千葉県","city":"南房総市","address":"富浦町手取"},
{"zip_code":"2992402","kana_pref":"ﾁﾊﾞｹﾝ","kana_city":"ﾐﾅﾐﾎﾞｳｿｳｼ","kana_address":"ﾄﾐｳﾗﾁｮｳﾄﾖｵｶ","pref":"千葉県","city":"南房総市","address":"富浦町豊岡"},
{"zip_code":"2992401","kana_pref":"ﾁﾊﾞｹﾝ","kana_city":"ﾐﾅﾐﾎﾞｳｿｳｼ","kana_address":"ﾄﾐｳﾗﾁｮｳﾅﾑﾔ","pref":"千葉県","city":"南房総市","address":"富浦町南無谷"},
{"zip_code":"2992417","kana_pref":"ﾁﾊﾞｹﾝ","kana_city":"ﾐﾅﾐﾎﾞｳｿｳｼ","kana_address":"ﾄﾐｳﾗﾁｮｳﾆｭｳ","pref":"千葉県","city":"南房総市","address":"富浦町丹生"},
{"zip_code":"2992403","kana_pref":"ﾁﾊﾞｹﾝ","kana_city":"ﾐﾅﾐﾎﾞｳｿｳｼ","kana_address":"ﾄﾐｳﾗﾁｮｳﾊﾗｵｶ","pref":"千葉県","city":"南房総市","address":"富浦町原岡"},
{"zip_code":"2992415","kana_pref":"ﾁﾊﾞｹﾝ","kana_city":"ﾐﾅﾐﾎﾞｳｿｳｼ","kana_address":"ﾄﾐｳﾗﾁｮｳﾌｶﾅ","pref":"千葉県","city":"南房総市","address":"富浦町深名"},
{"zip_code":"2992414","kana_pref":"ﾁﾊﾞｹﾝ","kana_city":"ﾐﾅﾐﾎﾞｳｿｳｼ","kana_address":"ﾄﾐｳﾗﾁｮｳﾌｸｻﾞﾜ","pref":"千葉県","city":"南房総市","address":"富浦町福澤"},
{"zip_code":"2992413","kana_pref":"ﾁﾊﾞｹﾝ","kana_city":"ﾐﾅﾐﾎﾞｳｿｳｼ","kana_address":"ﾄﾐｳﾗﾁｮｳﾐﾔﾓﾄ","pref":"千葉県","city":"南房総市","address":"富浦町宮本"},
{"zip_code":"2992514","kana_pref":"ﾁﾊﾞｹﾝ","kana_city":"ﾐﾅﾐﾎﾞｳｿｳｼ","kana_address":"ﾆｼﾊﾞﾗ","pref":"千葉県","city":"南房総市","address":"西原"},
{"zip_code":"2992214","kana_pref":"ﾁﾊﾞｹﾝ","kana_city":"ﾐﾅﾐﾎﾞｳｿｳｼ","kana_address":"ﾆﾌﾞ","pref":"千葉県","city":"南房総市","address":"二部"},
{"zip_code":"2992202","kana_pref":"ﾁﾊﾞｹﾝ","kana_city":"ﾐﾅﾐﾎﾞｳｿｳｼ","kana_address":"ﾋﾗﾂｶ","pref":"千葉県","city":"南房総市","address":"平塚"},
{"zip_code":"2992513","kana_pref":"ﾁﾊﾞｹﾝ","kana_city":"ﾐﾅﾐﾎﾞｳｿｳｼ","kana_address":"ﾌﾙｶﾜ","pref":"千葉県","city":"南房総市","address":"古川"},
{"zip_code":"2992206","kana_pref":"ﾁﾊﾞｹﾝ","kana_city":"ﾐﾅﾐﾎﾞｳｿｳｼ","kana_address":"ﾍｸﾞﾘｼﾓ","pref":"千葉県","city":"南房総市","address":"平久里下"},
{"zip_code":"2992204","kana_pref":"ﾁﾊﾞｹﾝ","kana_city":"ﾐﾅﾐﾎﾞｳｿｳｼ","kana_address":"ﾍｸﾞﾘﾅｶ","pref":"千葉県","city":"南房総市","address":"平久里中"},
{"zip_code":"2992516","kana_pref":"ﾁﾊﾞｹﾝ","kana_city":"ﾐﾅﾐﾎﾞｳｿｳｼ","kana_address":"ﾏｴﾀﾞ","pref":"千葉県","city":"南房総市","address":"前田"},
{"zip_code":"2992517","kana_pref":"ﾁﾊﾞｹﾝ","kana_city":"ﾐﾅﾐﾎﾞｳｿｳｼ","kana_address":"ﾏﾙﾎﾝｺﾞｳ","pref":"千葉県","city":"南房総市","address":"丸本郷"},
{"zip_code":"2992508","kana_pref":"ﾁﾊﾞｹﾝ","kana_city":"ﾐﾅﾐﾎﾞｳｿｳｼ","kana_address":"ﾏﾙﾔﾏﾋﾗﾂｶ","pref":"千葉県","city":"南房総市","address":"丸山平塚"},
{"zip_code":"2992506","kana_pref":"ﾁﾊﾞｹﾝ","kana_city":"ﾐﾅﾐﾎﾞｳｿｳｼ","kana_address":"ﾐｺｶﾞﾐ","pref":"千葉県","city":"南房総市","address":"御子神"},
{"zip_code":"2992523","kana_pref":"ﾁﾊﾞｹﾝ","kana_city":"ﾐﾅﾐﾎﾞｳｿｳｼ","kana_address":"ﾐﾈ","pref":"千葉県","city":"南房総市","address":"峰"},
{"zip_code":"2992505","kana_pref":"ﾁﾊﾞｹﾝ","kana_city":"ﾐﾅﾐﾎﾞｳｿｳｼ","kana_address":"ﾐﾔｼﾀ","pref":"千葉県","city":"南房総市","address":"宮下"},
{"zip_code":"2992222","kana_pref":"ﾁﾊﾞｹﾝ","kana_city":"ﾐﾅﾐﾎﾞｳｿｳｼ","kana_address":"ﾐﾔﾉﾔﾂ","pref":"千葉県","city":"南房総市","address":"宮谷"},
{"zip_code":"2992203","kana_pref":"ﾁﾊﾞｹﾝ","kana_city":"ﾐﾅﾐﾎﾞｳｿｳｼ","kana_address":"ﾔﾏﾀﾞ","pref":"千葉県","city":"南房総市","address":"山田"},
{"zip_code":"2992213","kana_pref":"ﾁﾊﾞｹﾝ","kana_city":"ﾐﾅﾐﾎﾞｳｿｳｼ","kana_address":"ﾖｼｻﾞﾜ","pref":"千葉県","city":"南房総市","address":"吉沢"},
{"zip_code":"2992728","kana_pref":"ﾁﾊﾞｹﾝ","kana_city":"ﾐﾅﾐﾎﾞｳｿｳｼ","kana_address":"ﾜﾀﾞﾁｮｳｲｼﾄﾞｳ","pref":"千葉県","city":"南房総市","address":"和田町石堂"},
{"zip_code":"2992726","kana_pref":"ﾁﾊﾞｹﾝ","kana_city":"ﾐﾅﾐﾎﾞｳｿｳｼ","kana_address":"ﾜﾀﾞﾁｮｳｵｶﾞﾜ","pref":"千葉県","city":"南房総市","address":"和田町小川"},
{"zip_code":"2992712","kana_pref":"ﾁﾊﾞｹﾝ","kana_city":"ﾐﾅﾐﾎﾞｳｿｳｼ","kana_address":"ﾜﾀﾞﾁｮｳｶｲﾎﾂ","pref":"千葉県","city":"南房総市","address":"和田町海発"},
{"zip_code":"2992727","kana_pref":"ﾁﾊﾞｹﾝ","kana_city":"ﾐﾅﾐﾎﾞｳｿｳｼ","kana_address":"ﾜﾀﾞﾁｮｳｶﾐﾐﾊﾗ","pref":"千葉県","city":"南房総市","address":"和田町上三原"},
{"zip_code":"2992725","kana_pref":"ﾁﾊﾞｹﾝ","kana_city":"ﾐﾅﾐﾎﾞｳｿｳｼ","kana_address":"ﾜﾀﾞﾁｮｳｸﾛｲﾜ","pref":"千葉県","city":"南房総市","address":"和田町黒岩"},
{"zip_code":"2992721","kana_pref":"ﾁﾊﾞｹﾝ","kana_city":"ﾐﾅﾐﾎﾞｳｿｳｼ","kana_address":"ﾜﾀﾞﾁｮｳｺﾞｼﾞｭｳｸﾗ","pref":"千葉県","city":"南房総市","address":"和田町五十蔵"},
{"zip_code":"2992724","kana_pref":"ﾁﾊﾞｹﾝ","kana_city":"ﾐﾅﾐﾎﾞｳｿｳｼ","kana_address":"ﾜﾀﾞﾁｮｳｺﾑｶｲ","pref":"千葉県","city":"南房総市","address":"和田町小向"},
{"zip_code":"2992702","kana_pref":"ﾁﾊﾞｹﾝ","kana_city":"ﾐﾅﾐﾎﾞｳｿｳｼ","kana_address":"ﾜﾀﾞﾁｮｳｼﾊﾞ","pref":"千葉県","city":"南房総市","address":"和田町柴"},
{"zip_code":"2992715","kana_pref":"ﾁﾊﾞｹﾝ","kana_city":"ﾐﾅﾐﾎﾞｳｿｳｼ","kana_address":"ﾜﾀﾞﾁｮｳｼﾓﾐﾊﾗ","pref":"千葉県","city":"南房総市","address":"和田町下三原"},
{"zip_code":"2992711","kana_pref":"ﾁﾊﾞｹﾝ","kana_city":"ﾐﾅﾐﾎﾞｳｿｳｼ","kana_address":"ﾜﾀﾞﾁｮｳｼﾗｽｶ","pref":"千葉県","city":"南房総市","address":"和田町白渚"},
{"zip_code":"2992722","kana_pref":"ﾁﾊﾞｹﾝ","kana_city":"ﾐﾅﾐﾎﾞｳｿｳｼ","kana_address":"ﾜﾀﾞﾁｮｳｽﾙｽﾓﾘ","pref":"千葉県","city":"南房総市","address":"和田町磑森"},
{"zip_code":"2992716","kana_pref":"ﾁﾊﾞｹﾝ","kana_city":"ﾐﾅﾐﾎﾞｳｿｳｼ","kana_address":"ﾜﾀﾞﾁｮｳﾅｶﾐﾊﾗ","pref":"千葉県","city":"南房総市","address":"和田町中三原"},
{"zip_code":"2992703","kana_pref":"ﾁﾊﾞｹﾝ","kana_city":"ﾐﾅﾐﾎﾞｳｿｳｼ","kana_address":"ﾜﾀﾞﾁｮｳﾆｶﾞｳﾗ","pref":"千葉県","city":"南房総市","address":"和田町仁我浦"},
{"zip_code":"2992714","kana_pref":"ﾁﾊﾞｹﾝ","kana_city":"ﾐﾅﾐﾎﾞｳｿｳｼ","kana_address":"ﾜﾀﾞﾁｮｳﾇﾏ","pref":"千葉県","city":"南房総市","address":"和田町沼"},
{"zip_code":"2992701","kana_pref":"ﾁﾊﾞｹﾝ","kana_city":"ﾐﾅﾐﾎﾞｳｿｳｼ","kana_address":"ﾜﾀﾞﾁｮｳﾊﾅｿﾉ","pref":"千葉県","city":"南房総市","address":"和田町花園"},
{"zip_code":"2992723","kana_pref":"ﾁﾊﾞｹﾝ","kana_city":"ﾐﾅﾐﾎﾞｳｿｳｼ","kana_address":"ﾜﾀﾞﾁｮｳﾌﾉ","pref":"千葉県","city":"南房総市","address":"和田町布野"},
{"zip_code":"2992713","kana_pref":"ﾁﾊﾞｹﾝ","kana_city":"ﾐﾅﾐﾎﾞｳｿｳｼ","kana_address":"ﾜﾀﾞﾁｮｳﾏﾂﾀﾞ","pref":"千葉県","city":"南房総市","address":"和田町松田"},
{"zip_code":"2992705","kana_pref":"ﾁﾊﾞｹﾝ","kana_city":"ﾐﾅﾐﾎﾞｳｿｳｼ","kana_address":"ﾜﾀﾞﾁｮｳﾓｳﾗ","pref":"千葉県","city":"南房総市","address":"和田町真浦"},
{"zip_code":"2992704","kana_pref":"ﾁﾊﾞｹﾝ","kana_city":"ﾐﾅﾐﾎﾞｳｿｳｼ","kana_address":"ﾜﾀﾞﾁｮｳﾜﾀﾞ","pref":"千葉県","city":"南房総市","address":"和田町和田"},
{"zip_code":"2994615","kana_pref":"ﾁﾊﾞｹﾝ","kana_city":"ｲｽﾐｼ","kana_address":"ﾐｻｷﾁｮｳｲｻﾞﾜ","pref":"千葉県","city":"いすみ市","address":"岬町井沢"},
{"zip_code":"2994611","kana_pref":"ﾁﾊﾞｹﾝ","kana_city":"ｲｽﾐｼ","kana_address":"ﾐｻｷﾁｮｳｲｽﾞﾐ","pref":"千葉県","city":"いすみ市","address":"岬町和泉"},
{"zip_code":"2994503","kana_pref":"ﾁﾊﾞｹﾝ","kana_city":"ｲｽﾐｼ","kana_address":"ﾐｻｷﾁｮｳｲｽﾞﾐ","pref":"千葉県","city":"いすみ市","address":"岬町和泉"},
{"zip_code":"2994506","kana_pref":"ﾁﾊﾞｹﾝ","kana_city":"ｲｽﾐｼ","kana_address":"ﾐｻｷﾁｮｳｲﾁﾉﾉ","pref":"千葉県","city":"いすみ市","address":"岬町市野々"},
{"zip_code":"2994505","kana_pref":"ﾁﾊﾞｹﾝ","kana_city":"ｲｽﾐｼ","kana_address":"ﾐｻｷﾁｮｳｲﾜｸﾏ","pref":"千葉県","city":"いすみ市","address":"岬町岩熊"},
{"zip_code":"2994508","kana_pref":"ﾁﾊﾞｹﾝ","kana_city":"ｲｽﾐｼ","kana_address":"ﾐｻｷﾁｮｳｴﾉｷｻﾜ","pref":"千葉県","city":"いすみ市","address":"岬町榎沢"},
{"zip_code":"2994612","kana_pref":"ﾁﾊﾞｹﾝ","kana_city":"ｲｽﾐｼ","kana_address":"ﾐｻｷﾁｮｳｴﾊﾞﾄﾞ","pref":"千葉県","city":"いすみ市","address":"岬町江場土"},
{"zip_code":"2994622","kana_pref":"ﾁﾊﾞｹﾝ","kana_city":"ｲｽﾐｼ","kana_address":"ﾐｻｷﾁｮｳｵｼﾋﾞ","pref":"千葉県","city":"いすみ市","address":"岬町押日"},
{"zip_code":"2994624","kana_pref":"ﾁﾊﾞｹﾝ","kana_city":"ｲｽﾐｼ","kana_address":"ﾐｻｷﾁｮｳｶﾓﾈ","pref":"千葉県","city":"いすみ市","address":"岬町鴨根"},
{"zip_code":"2994625","kana_pref":"ﾁﾊﾞｹﾝ","kana_city":"ｲｽﾐｼ","kana_address":"ﾐｻｷﾁｮｳｶﾔ","pref":"千葉県","city":"いすみ市","address":"岬町嘉谷"},
{"zip_code":"2994504","kana_pref":"ﾁﾊﾞｹﾝ","kana_city":"ｲｽﾐｼ","kana_address":"ﾐｻｷﾁｮｳｸﾜﾀﾞ","pref":"千葉県","city":"いすみ市","address":"岬町桑田"},
{"zip_code":"2994501","kana_pref":"ﾁﾊﾞｹﾝ","kana_city":"ｲｽﾐｼ","kana_address":"ﾐｻｷﾁｮｳｼｲｷﾞ","pref":"千葉県","city":"いすみ市","address":"岬町椎木"},
{"zip_code":"2994616","kana_pref":"ﾁﾊﾞｹﾝ","kana_city":"ｲｽﾐｼ","kana_address":"ﾐｻｷﾁｮｳﾁｮｳｼﾞｬ","pref":"千葉県","city":"いすみ市","address":"岬町長者"},
{"zip_code":"2994623","kana_pref":"ﾁﾊﾞｹﾝ","kana_city":"ｲｽﾐｼ","kana_address":"ﾐｻｷﾁｮｳﾅｶﾀﾞｷ","pref":"千葉県","city":"いすみ市","address":"岬町中滝"},
{"zip_code":"2994502","kana_pref":"ﾁﾊﾞｹﾝ","kana_city":"ｲｽﾐｼ","kana_address":"ﾐｻｷﾁｮｳﾅｶﾊﾗ","pref":"千葉県","city":"いすみ市","address":"岬町中原"},
{"zip_code":"2994614","kana_pref":"ﾁﾊﾞｹﾝ","kana_city":"ｲｽﾐｼ","kana_address":"ﾐｻｷﾁｮｳﾋｶﾞｼｵﾀﾞｶ","pref":"千葉県","city":"いすみ市","address":"岬町東小高"},
{"zip_code":"2994621","kana_pref":"ﾁﾊﾞｹﾝ","kana_city":"ｲｽﾐｼ","kana_address":"ﾐｻｷﾁｮｳﾋｶﾞｼﾅｶﾀｷ","pref":"千葉県","city":"いすみ市","address":"岬町東中滝"},
{"zip_code":"2994613","kana_pref":"ﾁﾊﾞｹﾝ","kana_city":"ｲｽﾐｼ","kana_address":"ﾐｻｷﾁｮｳﾐｶﾄﾞ","pref":"千葉県","city":"いすみ市","address":"岬町三門"},
{"zip_code":"2994507","kana_pref":"ﾁﾊﾞｹﾝ","kana_city":"ｲｽﾐｼ","kana_address":"ﾐｻｷﾁｮｳﾔｶﾞﾐ","pref":"千葉県","city":"いすみ市","address":"岬町谷上"},
{"zip_code":"2993200","kana_pref":"ﾁﾊﾞｹﾝ","kana_city":"ｻﾝﾌﾞｸﾞﾝｵｵｱﾐｼﾗｻﾄﾏﾁ","kana_address":"","pref":"千葉県","city":"山武郡大網白里町","address":""},
{"zip_code":"2993245","kana_pref":"ﾁﾊﾞｹﾝ","kana_city":"ｻﾝﾌﾞｸﾞﾝｵｵｱﾐｼﾗｻﾄﾏﾁ","kana_address":"ｲｹﾀﾞ","pref":"千葉県","city":"山武郡大網白里町","address":"池田"},
{"zip_code":"2993249","kana_pref":"ﾁﾊﾞｹﾝ","kana_city":"ｻﾝﾌﾞｸﾞﾝｵｵｱﾐｼﾗｻﾄﾏﾁ","kana_address":"ｲｻｺﾞﾀﾞ","pref":"千葉県","city":"山武郡大網白里町","address":"砂田"},
{"zip_code":"2993268","kana_pref":"ﾁﾊﾞｹﾝ","kana_city":"ｻﾝﾌﾞｸﾞﾝｵｵｱﾐｼﾗｻﾄﾏﾁ","kana_address":"ｳﾜﾔｼﾝﾃﾞﾝ","pref":"千葉県","city":"山武郡大網白里町","address":"上谷新田"},
{"zip_code":"2993251","kana_pref":"ﾁﾊﾞｹﾝ","kana_city":"ｻﾝﾌﾞｸﾞﾝｵｵｱﾐｼﾗｻﾄﾏﾁ","kana_address":"ｵｵｱﾐ","pref":"千葉県","city":"山武郡大網白里町","address":"大網"},
{"zip_code":"2993243","kana_pref":"ﾁﾊﾞｹﾝ","kana_city":"ｻﾝﾌﾞｸﾞﾝｵｵｱﾐｼﾗｻﾄﾏﾁ","kana_address":"ｵｵﾀｹ","pref":"千葉県","city":"山武郡大網白里町","address":"大竹"},
{"zip_code":"2993264","kana_pref":"ﾁﾊﾞｹﾝ","kana_city":"ｻﾝﾌﾞｸﾞﾝｵｵｱﾐｼﾗｻﾄﾏﾁ","kana_address":"ｶｷﾓﾁ","pref":"千葉県","city":"山武郡大網白里町","address":"柿餅"},
{"zip_code":"2993262","kana_pref":"ﾁﾊﾞｹﾝ","kana_city":"ｻﾝﾌﾞｸﾞﾝｵｵｱﾐｼﾗｻﾄﾏﾁ","kana_address":"ｶﾂﾗﾔﾏ","pref":"千葉県","city":"山武郡大網白里町","address":"桂山"},
{"zip_code":"2993242","kana_pref":"ﾁﾊﾞｹﾝ","kana_city":"ｻﾝﾌﾞｸﾞﾝｵｵｱﾐｼﾗｻﾄﾏﾁ","kana_address":"ｶﾅﾔｺﾞｳ","pref":"千葉県","city":"山武郡大網白里町","address":"金谷郷"},
{"zip_code":"2993265","kana_pref":"ﾁﾊﾞｹﾝ","kana_city":"ｻﾝﾌﾞｸﾞﾝｵｵｱﾐｼﾗｻﾄﾏﾁ","kana_address":"ｶﾐｶｲﾂﾞｶ","pref":"千葉県","city":"山武郡大網白里町","address":"上貝塚"},
{"zip_code":"2993248","kana_pref":"ﾁﾊﾞｹﾝ","kana_city":"ｻﾝﾌﾞｸﾞﾝｵｵｱﾐｼﾗｻﾄﾏﾁ","kana_address":"ｶﾔﾉ","pref":"千葉県","city":"山武郡大網白里町","address":"萱野"},
{"zip_code":"2993247","kana_pref":"ﾁﾊﾞｹﾝ","kana_city":"ｻﾝﾌﾞｸﾞﾝｵｵｱﾐｼﾗｻﾄﾏﾁ","kana_address":"ｶﾝﾎﾞｳ","pref":"千葉県","city":"山武郡大網白里町","address":"神房"},
{"zip_code":"2993217","kana_pref":"ﾁﾊﾞｹﾝ","kana_city":"ｻﾝﾌﾞｸﾞﾝｵｵｱﾐｼﾗｻﾄﾏﾁ","kana_address":"ｷｻｷ","pref":"千葉県","city":"山武郡大網白里町","address":"木崎"},
{"zip_code":"2993218","kana_pref":"ﾁﾊﾞｹﾝ","kana_city":"ｻﾝﾌﾞｸﾞﾝｵｵｱﾐｼﾗｻﾄﾏﾁ","kana_address":"ｷﾀｲｲﾂﾞｶ","pref":"千葉県","city":"山武郡大網白里町","address":"北飯塚"},
{"zip_code":"2993201","kana_pref":"ﾁﾊﾞｹﾝ","kana_city":"ｻﾝﾌﾞｸﾞﾝｵｵｱﾐｼﾗｻﾄﾏﾁ","kana_address":"ｷﾀｲﾏｲｽﾞﾐ","pref":"千葉県","city":"山武郡大網白里町","address":"北今泉"},
{"zip_code":"2993266","kana_pref":"ﾁﾊﾞｹﾝ","kana_city":"ｻﾝﾌﾞｸﾞﾝｵｵｱﾐｼﾗｻﾄﾏﾁ","kana_address":"ｷﾀﾖｺｶﾜ","pref":"千葉県","city":"山武郡大網白里町","address":"北横川"},
{"zip_code":"2993216","kana_pref":"ﾁﾊﾞｹﾝ","kana_city":"ｻﾝﾌﾞｸﾞﾝｵｵｱﾐｼﾗｻﾄﾏﾁ","kana_address":"ｷﾀﾖｼﾀﾞ","pref":"千葉県","city":"山武郡大網白里町","address":"北吉田"},
{"zip_code":"2993241","kana_pref":"ﾁﾊﾞｹﾝ","kana_city":"ｻﾝﾌﾞｸﾞﾝｵｵｱﾐｼﾗｻﾄﾏﾁ","kana_address":"ｷﾐﾉﾓﾘﾐﾅﾐ","pref":"千葉県","city":"山武郡大網白里町","address":"季美の森南"},
{"zip_code":"2993231","kana_pref":"ﾁﾊﾞｹﾝ","kana_city":"ｻﾝﾌﾞｸﾞﾝｵｵｱﾐｼﾗｻﾄﾏﾁ","kana_address":"ｷｮｳﾃﾞﾝ","pref":"千葉県","city":"山武郡大網白里町","address":"経田"},
{"zip_code":"2993261","kana_pref":"ﾁﾊﾞｹﾝ","kana_city":"ｻﾝﾌﾞｸﾞﾝｵｵｱﾐｼﾗｻﾄﾏﾁ","kana_address":"ｸｼﾞｭｳﾈ","pref":"千葉県","city":"山武郡大網白里町","address":"九十根"},
{"zip_code":"2993246","kana_pref":"ﾁﾊﾞｹﾝ","kana_city":"ｻﾝﾌﾞｸﾞﾝｵｵｱﾐｼﾗｻﾄﾏﾁ","kana_address":"ｺﾅｶ","pref":"千葉県","city":"山武郡大網白里町","address":"小中"},
{"zip_code":"2993235","kana_pref":"ﾁﾊﾞｹﾝ","kana_city":"ｻﾝﾌﾞｸﾞﾝｵｵｱﾐｼﾗｻﾄﾏﾁ","kana_address":"ｺﾏｺﾞﾒ","pref":"千葉県","city":"山武郡大網白里町","address":"駒込"},
{"zip_code":"2993253","kana_pref":"ﾁﾊﾞｹﾝ","kana_city":"ｻﾝﾌﾞｸﾞﾝｵｵｱﾐｼﾗｻﾄﾏﾁ","kana_address":"ｺﾆｼ","pref":"千葉県","city":"山武郡大網白里町","address":"小西"},
{"zip_code":"2993214","kana_pref":"ﾁﾊﾞｹﾝ","kana_city":"ｻﾝﾌﾞｸﾞﾝｵｵｱﾐｼﾗｻﾄﾏﾁ","kana_address":"ｻｹﾞﾎｳｼﾞ","pref":"千葉県","city":"山武郡大網白里町","address":"下ケ傍示"},
{"zip_code":"2993203","kana_pref":"ﾁﾊﾞｹﾝ","kana_city":"ｻﾝﾌﾞｸﾞﾝｵｵｱﾐｼﾗｻﾄﾏﾁ","kana_address":"ｼﾃﾝｷﾞ","pref":"千葉県","city":"山武郡大網白里町","address":"四天木"},
{"zip_code":"2993212","kana_pref":"ﾁﾊﾞｹﾝ","kana_city":"ｻﾝﾌﾞｸﾞﾝｵｵｱﾐｼﾗｻﾄﾏﾁ","kana_address":"ｼﾐｽﾞ","pref":"千葉県","city":"山武郡大網白里町","address":"清水"},
{"zip_code":"2993267","kana_pref":"ﾁﾊﾞｹﾝ","kana_city":"ｻﾝﾌﾞｸﾞﾝｵｵｱﾐｼﾗｻﾄﾏﾁ","kana_address":"ｾｲﾅｺﾞﾔ","pref":"千葉県","city":"山武郡大網白里町","address":"清名幸谷"},
{"zip_code":"2993221","kana_pref":"ﾁﾊﾞｹﾝ","kana_city":"ｻﾝﾌﾞｸﾞﾝｵｵｱﾐｼﾗｻﾄﾏﾁ","kana_address":"ﾄﾐﾀﾞ","pref":"千葉県","city":"山武郡大網白里町","address":"富田"},
{"zip_code":"2993215","kana_pref":"ﾁﾊﾞｹﾝ","kana_city":"ｻﾝﾌﾞｸﾞﾝｵｵｱﾐｼﾗｻﾄﾏﾁ","kana_address":"ﾅｶﾞｸﾆ","pref":"千葉県","city":"山武郡大網白里町","address":"長国"},
{"zip_code":"2993233","kana_pref":"ﾁﾊﾞｹﾝ","kana_city":"ｻﾝﾌﾞｸﾞﾝｵｵｱﾐｼﾗｻﾄﾏﾁ","kana_address":"ﾅｶﾞﾀ","pref":"千葉県","city":"山武郡大網白里町","address":"永田"},
{"zip_code":"2993232","kana_pref":"ﾁﾊﾞｹﾝ","kana_city":"ｻﾝﾌﾞｸﾞﾝｵｵｱﾐｼﾗｻﾄﾏﾁ","kana_address":"ﾅｶﾞﾀﾉ","pref":"千葉県","city":"山武郡大網白里町","address":"ながた野"},
{"zip_code":"2993213","kana_pref":"ﾁﾊﾞｹﾝ","kana_city":"ｻﾝﾌﾞｸﾞﾝｵｵｱﾐｼﾗｻﾄﾏﾁ","kana_address":"ﾆﾉﾌｸﾛ","pref":"千葉県","city":"山武郡大網白里町","address":"二之袋"},
{"zip_code":"2993222","kana_pref":"ﾁﾊﾞｹﾝ","kana_city":"ｻﾝﾌﾞｸﾞﾝｵｵｱﾐｼﾗｻﾄﾏﾁ","kana_address":"ﾎｼﾔ","pref":"千葉県","city":"山武郡大網白里町","address":"星谷"},
{"zip_code":"2993211","kana_pref":"ﾁﾊﾞｹﾝ","kana_city":"ｻﾝﾌﾞｸﾞﾝｵｵｱﾐｼﾗｻﾄﾏﾁ","kana_address":"ﾎｿｸｻ","pref":"千葉県","city":"山武郡大網白里町","address":"細草"},
{"zip_code":"2993237","kana_pref":"ﾁﾊﾞｹﾝ","kana_city":"ｻﾝﾌﾞｸﾞﾝｵｵｱﾐｼﾗｻﾄﾏﾁ","kana_address":"ﾎﾄｹｼﾏ","pref":"千葉県","city":"山武郡大網白里町","address":"仏島"},
{"zip_code":"2993234","kana_pref":"ﾁﾊﾞｹﾝ","kana_city":"ｻﾝﾌﾞｸﾞﾝｵｵｱﾐｼﾗｻﾄﾏﾁ","kana_address":"ﾐｽﾞﾎﾀﾞｲ","pref":"千葉県","city":"山武郡大網白里町","address":"みずほ台"},
{"zip_code":"2993255","kana_pref":"ﾁﾊﾞｹﾝ","kana_city":"ｻﾝﾌﾞｸﾞﾝｵｵｱﾐｼﾗｻﾄﾏﾁ","kana_address":"ﾐﾄﾞﾘｶﾞｵｶ","pref":"千葉県","city":"山武郡大網白里町","address":"みどりが丘"},
{"zip_code":"2993219","kana_pref":"ﾁﾊﾞｹﾝ","kana_city":"ｻﾝﾌﾞｸﾞﾝｵｵｱﾐｼﾗｻﾄﾏﾁ","kana_address":"ﾐﾅﾐｲｲﾂﾞｶ","pref":"千葉県","city":"山武郡大網白里町","address":"南飯塚"},
{"zip_code":"2993202","kana_pref":"ﾁﾊﾞｹﾝ","kana_city":"ｻﾝﾌﾞｸﾞﾝｵｵｱﾐｼﾗｻﾄﾏﾁ","kana_address":"ﾐﾅﾐｲﾏｲｽﾞﾐ","pref":"千葉県","city":"山武郡大網白里町","address":"南今泉"},
{"zip_code":"2993244","kana_pref":"ﾁﾊﾞｹﾝ","kana_city":"ｻﾝﾌﾞｸﾞﾝｵｵｱﾐｼﾗｻﾄﾏﾁ","kana_address":"ﾐﾅﾐﾀﾞﾏ","pref":"千葉県","city":"山武郡大網白里町","address":"南玉"},
{"zip_code":"2993223","kana_pref":"ﾁﾊﾞｹﾝ","kana_city":"ｻﾝﾌﾞｸﾞﾝｵｵｱﾐｼﾗｻﾄﾏﾁ","kana_address":"ﾐﾅﾐﾖｺｶﾜ","pref":"千葉県","city":"山武郡大網白里町","address":"南横川"},
{"zip_code":"2993236","kana_pref":"ﾁﾊﾞｹﾝ","kana_city":"ｻﾝﾌﾞｸﾞﾝｵｵｱﾐｼﾗｻﾄﾏﾁ","kana_address":"ﾐﾔｺﾉ","pref":"千葉県","city":"山武郡大網白里町","address":"みやこ野"},
{"zip_code":"2993252","kana_pref":"ﾁﾊﾞｹﾝ","kana_city":"ｻﾝﾌﾞｸﾞﾝｵｵｱﾐｼﾗｻﾄﾏﾁ","kana_address":"ﾓﾁﾉｷ","pref":"千葉県","city":"山武郡大網白里町","address":"餅木"},
{"zip_code":"2993263","kana_pref":"ﾁﾊﾞｹﾝ","kana_city":"ｻﾝﾌﾞｸﾞﾝｵｵｱﾐｼﾗｻﾄﾏﾁ","kana_address":"ﾔﾅｷﾞﾊﾞｼ","pref":"千葉県","city":"山武郡大網白里町","address":"柳橋"},
{"zip_code":"2993256","kana_pref":"ﾁﾊﾞｹﾝ","kana_city":"ｻﾝﾌﾞｸﾞﾝｵｵｱﾐｼﾗｻﾄﾏﾁ","kana_address":"ﾔﾏｸﾞﾁ","pref":"千葉県","city":"山武郡大網白里町","address":"山口"},
{"zip_code":"2993254","kana_pref":"ﾁﾊﾞｹﾝ","kana_city":"ｻﾝﾌﾞｸﾞﾝｵｵｱﾐｼﾗｻﾄﾏﾁ","kana_address":"ﾖｳｱﾝｼﾞ","pref":"千葉県","city":"山武郡大網白里町","address":"養安寺"},
{"zip_code":"2994300","kana_pref":"ﾁﾊﾞｹﾝ","kana_city":"ﾁｮｳｾｲｸﾞﾝｲﾁﾉﾐﾔﾏﾁ","kana_address":"","pref":"千葉県","city":"長生郡一宮町","address":""},
{"zip_code":"2994314","kana_pref":"ﾁﾊﾞｹﾝ","kana_city":"ﾁｮｳｾｲｸﾞﾝｲﾁﾉﾐﾔﾏﾁ","kana_address":"ｱﾗﾁ","pref":"千葉県","city":"長生郡一宮町","address":"新地"},
{"zip_code":"2994315","kana_pref":"ﾁﾊﾞｹﾝ","kana_city":"ﾁｮｳｾｲｸﾞﾝｲﾁﾉﾐﾔﾏﾁ","kana_address":"ｱﾗﾁｺｳ","pref":"千葉県","city":"長生郡一宮町","address":"新地甲"},
{"zip_code":"2994316","kana_pref":"ﾁﾊﾞｹﾝ","kana_city":"ﾁｮｳｾｲｸﾞﾝｲﾁﾉﾐﾔﾏﾁ","kana_address":"ｱﾗﾁﾍｲ","pref":"千葉県","city":"長生郡一宮町","address":"新地丙"},
{"zip_code":"2994301","kana_pref":"ﾁﾊﾞｹﾝ","kana_city":"ﾁｮｳｾｲｸﾞﾝｲﾁﾉﾐﾔﾏﾁ","kana_address":"ｲﾁﾉﾐﾔ","pref":"千葉県","city":"長生郡一宮町","address":"一宮"},
{"zip_code":"2994313","kana_pref":"ﾁﾊﾞｹﾝ","kana_city":"ﾁｮｳｾｲｸﾞﾝｲﾁﾉﾐﾔﾏﾁ","kana_address":"ｾﾝﾄﾞｳｷｭｳ","pref":"千葉県","city":"長生郡一宮町","address":"船頭給"},
{"zip_code":"2994302","kana_pref":"ﾁﾊﾞｹﾝ","kana_city":"ﾁｮｳｾｲｸﾞﾝｲﾁﾉﾐﾔﾏﾁ","kana_address":"ﾀﾏﾁ","pref":"千葉県","city":"長生郡一宮町","address":"田町"},
{"zip_code":"2994304","kana_pref":"ﾁﾊﾞｹﾝ","kana_city":"ﾁｮｳｾｲｸﾞﾝｲﾁﾉﾐﾔﾏﾁ","kana_address":"ﾂﾅﾀﾞ","pref":"千葉県","city":"長生郡一宮町","address":"綱田"},
{"zip_code":"2994303","kana_pref":"ﾁﾊﾞｹﾝ","kana_city":"ﾁｮｳｾｲｸﾞﾝｲﾁﾉﾐﾔﾏﾁ","kana_address":"ﾄﾗﾐ","pref":"千葉県","city":"長生郡一宮町","address":"東浪見"},
{"zip_code":"2994311","kana_pref":"ﾁﾊﾞｹﾝ","kana_city":"ﾁｮｳｾｲｸﾞﾝｲﾁﾉﾐﾔﾏﾁ","kana_address":"ﾊｸｻﾝ","pref":"千葉県","city":"長生郡一宮町","address":"白山"},
{"zip_code":"2994306","kana_pref":"ﾁﾊﾞｹﾝ","kana_city":"ﾁｮｳｾｲｸﾞﾝｲﾁﾉﾐﾔﾏﾁ","kana_address":"ﾋｶﾞｼﾉ","pref":"千葉県","city":"長生郡一宮町","address":"東野"},
{"zip_code":"2994305","kana_pref":"ﾁﾊﾞｹﾝ","kana_city":"ﾁｮｳｾｲｸﾞﾝｲﾁﾉﾐﾔﾏﾁ","kana_address":"ﾎﾝｷｭｳ","pref":"千葉県","city":"長生郡一宮町","address":"本給"},
{"zip_code":"2994312","kana_pref":"ﾁﾊﾞｹﾝ","kana_city":"ﾁｮｳｾｲｸﾞﾝｲﾁﾉﾐﾔﾏﾁ","kana_address":"ﾐﾔﾊﾞﾗ","pref":"千葉県","city":"長生郡一宮町","address":"宮原"},
{"zip_code":"2994400","kana_pref":"ﾁﾊﾞｹﾝ","kana_city":"ﾁｮｳｾｲｸﾞﾝﾑﾂｻﾞﾜﾏﾁ","kana_address":"","pref":"千葉県","city":"長生郡睦沢町","address":""},
{"zip_code":"2994412","kana_pref":"ﾁﾊﾞｹﾝ","kana_city":"ﾁｮｳｾｲｸﾞﾝﾑﾂｻﾞﾜﾏﾁ","kana_address":"ｲﾜｲ","pref":"千葉県","city":"長生郡睦沢町","address":"岩井"},
{"zip_code":"2994423","kana_pref":"ﾁﾊﾞｹﾝ","kana_city":"ﾁｮｳｾｲｸﾞﾝﾑﾂｻﾞﾜﾏﾁ","kana_address":"ｵｵｶﾞﾐ","pref":"千葉県","city":"長生郡睦沢町","address":"大上"},
{"zip_code":"2994405","kana_pref":"ﾁﾊﾞｹﾝ","kana_city":"ﾁｮｳｾｲｸﾞﾝﾑﾂｻﾞﾜﾏﾁ","kana_address":"ｵｵﾔｷﾞ","pref":"千葉県","city":"長生郡睦沢町","address":"大谷木"},
{"zip_code":"2994403","kana_pref":"ﾁﾊﾞｹﾝ","kana_city":"ﾁｮｳｾｲｸﾞﾝﾑﾂｻﾞﾜﾏﾁ","kana_address":"ｶﾐｲﾁﾊﾞ","pref":"千葉県","city":"長生郡睦沢町","address":"上市場"},
{"zip_code":"2994413","kana_pref":"ﾁﾊﾞｹﾝ","kana_city":"ﾁｮｳｾｲｸﾞﾝﾑﾂｻﾞﾜﾏﾁ","kana_address":"ｶﾐﾉｺﾞｳ","pref":"千葉県","city":"長生郡睦沢町","address":"上之郷"},
{"zip_code":"2994402","kana_pref":"ﾁﾊﾞｹﾝ","kana_city":"ﾁｮｳｾｲｸﾞﾝﾑﾂｻﾞﾜﾏﾁ","kana_address":"ｶﾜｼﾏ","pref":"千葉県","city":"長生郡睦沢町","address":"川島"},
{"zip_code":"2994411","kana_pref":"ﾁﾊﾞｹﾝ","kana_city":"ﾁｮｳｾｲｸﾞﾝﾑﾂｻﾞﾜﾏﾁ","kana_address":"ｶﾜｽｶﾞﾔ","pref":"千葉県","city":"長生郡睦沢町","address":"河須ケ谷"},
{"zip_code":"2994404","kana_pref":"ﾁﾊﾞｹﾝ","kana_city":"ﾁｮｳｾｲｸﾞﾝﾑﾂｻﾞﾜﾏﾁ","kana_address":"ｷﾀﾔﾏﾀﾞ","pref":"千葉県","city":"長生郡睦沢町","address":"北山田"},
{"zip_code":"2994406","kana_pref":"ﾁﾊﾞｹﾝ","kana_city":"ﾁｮｳｾｲｸﾞﾝﾑﾂｻﾞﾜﾏﾁ","kana_address":"ｷﾀﾔﾏﾀﾞﾃﾗｻｷｼﾝﾃﾞﾝ","pref":"千葉県","city":"長生郡睦沢町","address":"北山田寺崎新田"},
{"zip_code":"2994415","kana_pref":"ﾁﾊﾞｹﾝ","kana_city":"ﾁｮｳｾｲｸﾞﾝﾑﾂｻﾞﾜﾏﾁ","kana_address":"ｺﾀﾞｷ","pref":"千葉県","city":"長生郡睦沢町","address":"小滝"},
{"zip_code":"2994425","kana_pref":"ﾁﾊﾞｹﾝ","kana_city":"ﾁｮｳｾｲｸﾞﾝﾑﾂｻﾞﾜﾏﾁ","kana_address":"ｻﾇｷ","pref":"千葉県","city":"長生郡睦沢町","address":"佐貫"},
{"zip_code":"2994414","kana_pref":"ﾁﾊﾞｹﾝ","kana_city":"ﾁｮｳｾｲｸﾞﾝﾑﾂｻﾞﾜﾏﾁ","kana_address":"ｼﾓﾉｺﾞｳ","pref":"千葉県","city":"長生郡睦沢町","address":"下之郷"},
{"zip_code":"2994421","kana_pref":"ﾁﾊﾞｹﾝ","kana_city":"ﾁｮｳｾｲｸﾞﾝﾑﾂｻﾞﾜﾏﾁ","kana_address":"ﾁｮｳﾗｸｼﾞ","pref":"千葉県","city":"長生郡睦沢町","address":"長楽寺"},
{"zip_code":"2994401","kana_pref":"ﾁﾊﾞｹﾝ","kana_city":"ﾁｮｳｾｲｸﾞﾝﾑﾂｻﾞﾜﾏﾁ","kana_address":"ﾃﾗｻｷ","pref":"千葉県","city":"長生郡睦沢町","address":"寺崎"},
{"zip_code":"2994424","kana_pref":"ﾁﾊﾞｹﾝ","kana_city":"ﾁｮｳｾｲｸﾞﾝﾑﾂｻﾞﾜﾏﾁ","kana_address":"ﾐｮｳﾗｸｼﾞ","pref":"千葉県","city":"長生郡睦沢町","address":"妙楽寺"},
{"zip_code":"2994422","kana_pref":"ﾁﾊﾞｹﾝ","kana_city":"ﾁｮｳｾｲｸﾞﾝﾑﾂｻﾞﾜﾏﾁ","kana_address":"ﾓﾘ","pref":"千葉県","city":"長生郡睦沢町","address":"森"},
{"zip_code":"2994300","kana_pref":"ﾁﾊﾞｹﾝ","kana_city":"ﾁｮｳｾｲｸﾞﾝﾁｮｳｾｲﾑﾗ","kana_address":"","pref":"千葉県","city":"長生郡長生村","address":""},
{"zip_code":"2994321","kana_pref":"ﾁﾊﾞｹﾝ","kana_city":"ﾁｮｳｾｲｸﾞﾝﾁｮｳｾｲﾑﾗ","kana_address":"ｲﾘﾔﾏﾂﾞ","pref":"千葉県","city":"長生郡長生村","address":"入山津"},
{"zip_code":"2994336","kana_pref":"ﾁﾊﾞｹﾝ","kana_city":"ﾁｮｳｾｲｸﾞﾝﾁｮｳｾｲﾑﾗ","kana_address":"ｲﾜﾇﾏ","pref":"千葉県","city":"長生郡長生村","address":"岩沼"},
{"zip_code":"2994343","kana_pref":"ﾁﾊﾞｹﾝ","kana_city":"ﾁｮｳｾｲｸﾞﾝﾁｮｳｾｲﾑﾗ","kana_address":"ｲﾜﾇﾏﾄﾋﾞﾁ","pref":"千葉県","city":"長生郡長生村","address":"岩沼飛地"},
{"zip_code":"2994322","kana_pref":"ﾁﾊﾞｹﾝ","kana_city":"ﾁｮｳｾｲｸﾞﾝﾁｮｳｾｲﾑﾗ","kana_address":"ｵﾄﾞﾛｷ","pref":"千葉県","city":"長生郡長生村","address":"驚"},
{"zip_code":"2994332","kana_pref":"ﾁﾊﾞｹﾝ","kana_city":"ﾁｮｳｾｲｸﾞﾝﾁｮｳｾｲﾑﾗ","kana_address":"ｶﾈﾀﾞ","pref":"千葉県","city":"長生郡長生村","address":"金田"},
{"zip_code":"2994337","kana_pref":"ﾁﾊﾞｹﾝ","kana_city":"ﾁｮｳｾｲｸﾞﾝﾁｮｳｾｲﾑﾗ","kana_address":"ｷﾀﾐﾖｸﾞﾁ","pref":"千葉県","city":"長生郡長生村","address":"北水口"},
{"zip_code":"2994347","kana_pref":"ﾁﾊﾞｹﾝ","kana_city":"ﾁｮｳｾｲｸﾞﾝﾁｮｳｾｲﾑﾗ","kana_address":"ｺｲｽﾞﾐ","pref":"千葉県","city":"長生郡長生村","address":"小泉"},
{"zip_code":"2994344","kana_pref":"ﾁﾊﾞｹﾝ","kana_city":"ﾁｮｳｾｲｸﾞﾝﾁｮｳｾｲﾑﾗ","kana_address":"ｿﾈ","pref":"千葉県","city":"長生郡長生村","address":"曽根"},
{"zip_code":"2994346","kana_pref":"ﾁﾊﾞｹﾝ","kana_city":"ﾁｮｳｾｲｸﾞﾝﾁｮｳｾｲﾑﾗ","kana_address":"ﾅｶﾉｺﾞｳ","pref":"千葉県","city":"長生郡長生村","address":"中之郷"},
{"zip_code":"2994333","kana_pref":"ﾁﾊﾞｹﾝ","kana_city":"ﾁｮｳｾｲｸﾞﾝﾁｮｳｾｲﾑﾗ","kana_address":"ﾅﾅｲﾄﾞ","pref":"千葉県","city":"長生郡長生村","address":"七井土"},
{"zip_code":"2994331","kana_pref":"ﾁﾊﾞｹﾝ","kana_city":"ﾁｮｳｾｲｸﾞﾝﾁｮｳｾｲﾑﾗ","kana_address":"ﾉﾌﾞﾄﾓ","pref":"千葉県","city":"長生郡長生村","address":"信友"},
{"zip_code":"2994327","kana_pref":"ﾁﾊﾞｹﾝ","kana_city":"ﾁｮｳｾｲｸﾞﾝﾁｮｳｾｲﾑﾗ","kana_address":"ﾋﾄﾂﾏﾂ","pref":"千葉県","city":"長生郡長生村","address":"一松"},
{"zip_code":"2994328","kana_pref":"ﾁﾊﾞｹﾝ","kana_city":"ﾁｮｳｾｲｸﾞﾝﾁｮｳｾｲﾑﾗ","kana_address":"ﾋﾄﾂﾏﾂｺｳ","pref":"千葉県","city":"長生郡長生村","address":"一松甲"},
{"zip_code":"2994326","kana_pref":"ﾁﾊﾞｹﾝ","kana_city":"ﾁｮｳｾｲｸﾞﾝﾁｮｳｾｲﾑﾗ","kana_address":"ﾋﾄﾂﾏﾂｵﾂ","pref":"千葉県","city":"長生郡長生村","address":"一松乙"},
{"zip_code":"2994325","kana_pref":"ﾁﾊﾞｹﾝ","kana_city":"ﾁｮｳｾｲｸﾞﾝﾁｮｳｾｲﾑﾗ","kana_address":"ﾋﾄﾂﾏﾂﾍｲ","pref":"千葉県","city":"長生郡長生村","address":"一松丙"},
{"zip_code":"2994324","kana_pref":"ﾁﾊﾞｹﾝ","kana_city":"ﾁｮｳｾｲｸﾞﾝﾁｮｳｾｲﾑﾗ","kana_address":"ﾋﾄﾂﾏﾂﾃｲ","pref":"千葉県","city":"長生郡長生村","address":"一松丁"},
{"zip_code":"2994323","kana_pref":"ﾁﾊﾞｹﾝ","kana_city":"ﾁｮｳｾｲｸﾞﾝﾁｮｳｾｲﾑﾗ","kana_address":"ﾋﾄﾂﾏﾂﾎﾞ","pref":"千葉県","city":"長生郡長生村","address":"一松戊"},
{"zip_code":"2994342","kana_pref":"ﾁﾊﾞｹﾝ","kana_city":"ﾁｮｳｾｲｸﾞﾝﾁｮｳｾｲﾑﾗ","kana_address":"ﾋﾄﾂﾏﾂﾄﾋﾞﾁｺｳ","pref":"千葉県","city":"長生郡長生村","address":"一松飛地甲"},
{"zip_code":"2994345","kana_pref":"ﾁﾊﾞｹﾝ","kana_city":"ﾁｮｳｾｲｸﾞﾝﾁｮｳｾｲﾑﾗ","kana_address":"ﾎﾝｺﾞｳ","pref":"千葉県","city":"長生郡長生村","address":"本郷"},
{"zip_code":"2994341","kana_pref":"ﾁﾊﾞｹﾝ","kana_city":"ﾁｮｳｾｲｸﾞﾝﾁｮｳｾｲﾑﾗ","kana_address":"ﾐﾔﾅﾘ","pref":"千葉県","city":"長生郡長生村","address":"宮成"},
{"zip_code":"2994335","kana_pref":"ﾁﾊﾞｹﾝ","kana_city":"ﾁｮｳｾｲｸﾞﾝﾁｮｳｾｲﾑﾗ","kana_address":"ﾐﾖｸﾞﾁ","pref":"千葉県","city":"長生郡長生村","address":"水口"},
{"zip_code":"2994338","kana_pref":"ﾁﾊﾞｹﾝ","kana_city":"ﾁｮｳｾｲｸﾞﾝﾁｮｳｾｲﾑﾗ","kana_address":"ﾑﾂﾉﾄﾋﾞﾁ","pref":"千葉県","city":"長生郡長生村","address":"六ツ野飛地"},
{"zip_code":"2994334","kana_pref":"ﾁﾊﾞｹﾝ","kana_city":"ﾁｮｳｾｲｸﾞﾝﾁｮｳｾｲﾑﾗ","kana_address":"ﾔﾌﾞﾂｶ","pref":"千葉県","city":"長生郡長生村","address":"薮塚"},
{"zip_code":"2994200","kana_pref":"ﾁﾊﾞｹﾝ","kana_city":"ﾁｮｳｾｲｸﾞﾝｼﾗｺﾏﾁ","kana_address":"","pref":"千葉県","city":"長生郡白子町","address":""},
{"zip_code":"2994202","kana_pref":"ﾁﾊﾞｹﾝ","kana_city":"ﾁｮｳｾｲｸﾞﾝｼﾗｺﾏﾁ","kana_address":"ｳｼｺﾞﾒ","pref":"千葉県","city":"長生郡白子町","address":"牛込"},
{"zip_code":"2994214","kana_pref":"ﾁﾊﾞｹﾝ","kana_city":"ﾁｮｳｾｲｸﾞﾝｼﾗｺﾏﾁ","kana_address":"ｵﾄﾞﾛｷ","pref":"千葉県","city":"長生郡白子町","address":"驚"},
{"zip_code":"2994217","kana_pref":"ﾁﾊﾞｹﾝ","kana_city":"ﾁｮｳｾｲｸﾞﾝｼﾗｺﾏﾁ","kana_address":"ｷﾀﾀﾞｶﾈ","pref":"千葉県","city":"長生郡白子町","address":"北高根"},
{"zip_code":"2994206","kana_pref":"ﾁﾊﾞｹﾝ","kana_city":"ﾁｮｳｾｲｸﾞﾝｼﾗｺﾏﾁ","kana_address":"ｷﾀﾋﾅﾀ","pref":"千葉県","city":"長生郡白子町","address":"北日当"},
{"zip_code":"2994211","kana_pref":"ﾁﾊﾞｹﾝ","kana_city":"ﾁｮｳｾｲｸﾞﾝｼﾗｺﾏﾁ","kana_address":"ｺﾞｲ","pref":"千葉県","city":"長生郡白子町","address":"五井"},
{"zip_code":"2994216","kana_pref":"ﾁﾊﾞｹﾝ","kana_city":"ﾁｮｳｾｲｸﾞﾝｼﾗｺﾏﾁ","kana_address":"ｺｳｼﾞ","pref":"千葉県","city":"長生郡白子町","address":"幸治"},
{"zip_code":"2994218","kana_pref":"ﾁﾊﾞｹﾝ","kana_city":"ﾁｮｳｾｲｸﾞﾝｼﾗｺﾏﾁ","kana_address":"ｾｷ","pref":"千葉県","city":"長生郡白子町","address":"関"},
{"zip_code":"2994203","kana_pref":"ﾁﾊﾞｹﾝ","kana_city":"ﾁｮｳｾｲｸﾞﾝｼﾗｺﾏﾁ","kana_address":"ｿﾘｶﾞﾈ","pref":"千葉県","city":"長生郡白子町","address":"剃金"},
{"zip_code":"2994215","kana_pref":"ﾁﾊﾞｹﾝ","kana_city":"ﾁｮｳｾｲｸﾞﾝｼﾗｺﾏﾁ","kana_address":"ﾅｶｻﾞﾄ","pref":"千葉県","city":"長生郡白子町","address":"中里"},
{"zip_code":"2994213","kana_pref":"ﾁﾊﾞｹﾝ","kana_city":"ﾁｮｳｾｲｸﾞﾝｼﾗｺﾏﾁ","kana_address":"ﾊﾂﾄ","pref":"千葉県","city":"長生郡白子町","address":"八斗"},
{"zip_code":"2994201","kana_pref":"ﾁﾊﾞｹﾝ","kana_city":"ﾁｮｳｾｲｸﾞﾝｼﾗｺﾏﾁ","kana_address":"ﾊﾏｼｭｸ","pref":"千葉県","city":"長生郡白子町","address":"浜宿"},
{"zip_code":"2994204","kana_pref":"ﾁﾊﾞｹﾝ","kana_city":"ﾁｮｳｾｲｸﾞﾝｼﾗｺﾏﾁ","kana_address":"ﾌｸｼﾏ","pref":"千葉県","city":"長生郡白子町","address":"福島"},
{"zip_code":"2994212","kana_pref":"ﾁﾊﾞｹﾝ","kana_city":"ﾁｮｳｾｲｸﾞﾝｼﾗｺﾏﾁ","kana_address":"ﾌﾙﾄｺﾛ","pref":"千葉県","city":"長生郡白子町","address":"古所"},
{"zip_code":"2994205","kana_pref":"ﾁﾊﾞｹﾝ","kana_city":"ﾁｮｳｾｲｸﾞﾝｼﾗｺﾏﾁ","kana_address":"ﾐﾅﾐﾋﾅﾀ","pref":"千葉県","city":"長生郡白子町","address":"南日当"},
{"zip_code":"2995100","kana_pref":"ﾁﾊﾞｹﾝ","kana_city":"ｲｽﾐｸﾞﾝｵﾝｼﾞｭｸﾏﾁ","kana_address":"","pref":"千葉県","city":"夷隅郡御宿町","address":""},
{"zip_code":"2995105","kana_pref":"ﾁﾊﾞｹﾝ","kana_city":"ｲｽﾐｸﾞﾝｵﾝｼﾞｭｸﾏﾁ","kana_address":"ｲﾜﾜﾀﾞ","pref":"千葉県","city":"夷隅郡御宿町","address":"岩和田"},
{"zip_code":"2995112","kana_pref":"ﾁﾊﾞｹﾝ","kana_city":"ｲｽﾐｸﾞﾝｵﾝｼﾞｭｸﾏﾁ","kana_address":"ｵﾝｼﾞｭｸﾀﾞｲ","pref":"千葉県","city":"夷隅郡御宿町","address":"御宿台"},
{"zip_code":"2995111","kana_pref":"ﾁﾊﾞｹﾝ","kana_city":"ｲｽﾐｸﾞﾝｵﾝｼﾞｭｸﾏﾁ","kana_address":"ｶﾐﾌｾ","pref":"千葉県","city":"夷隅郡御宿町","address":"上布施"},
{"zip_code":"2995102","kana_pref":"ﾁﾊﾞｹﾝ","kana_city":"ｲｽﾐｸﾞﾝｵﾝｼﾞｭｸﾏﾁ","kana_address":"ｸﾎﾞ","pref":"千葉県","city":"夷隅郡御宿町","address":"久保"},
{"zip_code":"2995114","kana_pref":"ﾁﾊﾞｹﾝ","kana_city":"ｲｽﾐｸﾞﾝｵﾝｼﾞｭｸﾏﾁ","kana_address":"ｼﾞｯｺｸ","pref":"千葉県","city":"夷隅郡御宿町","address":"実谷"},
{"zip_code":"2995103","kana_pref":"ﾁﾊﾞｹﾝ","kana_city":"ｲｽﾐｸﾞﾝｵﾝｼﾞｭｸﾏﾁ","kana_address":"ｼﾝﾏﾁ","pref":"千葉県","city":"夷隅郡御宿町","address":"新町"},
{"zip_code":"2995106","kana_pref":"ﾁﾊﾞｹﾝ","kana_city":"ｲｽﾐｸﾞﾝｵﾝｼﾞｭｸﾏﾁ","kana_address":"ｽｶ","pref":"千葉県","city":"夷隅郡御宿町","address":"須賀"},
{"zip_code":"2995101","kana_pref":"ﾁﾊﾞｹﾝ","kana_city":"ｲｽﾐｸﾞﾝｵﾝｼﾞｭｸﾏﾁ","kana_address":"ﾀｶﾔﾏﾀﾞ","pref":"千葉県","city":"夷隅郡御宿町","address":"高山田"},
{"zip_code":"2995113","kana_pref":"ﾁﾊﾞｹﾝ","kana_city":"ｲｽﾐｸﾞﾝｵﾝｼﾞｭｸﾏﾁ","kana_address":"ﾅﾅﾓﾄ","pref":"千葉県","city":"夷隅郡御宿町","address":"七本"},
{"zip_code":"2995107","kana_pref":"ﾁﾊﾞｹﾝ","kana_city":"ｲｽﾐｸﾞﾝｵﾝｼﾞｭｸﾏﾁ","kana_address":"ﾊﾏ","pref":"千葉県","city":"夷隅郡御宿町","address":"浜"},
{"zip_code":"2995104","kana_pref":"ﾁﾊﾞｹﾝ","kana_city":"ｲｽﾐｸﾞﾝｵﾝｼﾞｭｸﾏﾁ","kana_address":"ﾛｯｹﾝﾏﾁ","pref":"千葉県","city":"夷隅郡御宿町","address":"六軒町"},
{"zip_code":"2992100","kana_pref":"ﾁﾊﾞｹﾝ","kana_city":"ｱﾜｸﾞﾝｷｮﾅﾝﾏﾁ","kana_address":"","pref":"千葉県","city":"安房郡鋸南町","address":""},
{"zip_code":"2991905","kana_pref":"ﾁﾊﾞｹﾝ","kana_city":"ｱﾜｸﾞﾝｷｮﾅﾝﾏﾁ","kana_address":"ｲﾁｲﾊﾞﾗ","pref":"千葉県","city":"安房郡鋸南町","address":"市井原"},
{"zip_code":"2992116","kana_pref":"ﾁﾊﾞｹﾝ","kana_city":"ｱﾜｸﾞﾝｷｮﾅﾝﾏﾁ","kana_address":"ｲﾜｲﾌｸﾛ","pref":"千葉県","city":"安房郡鋸南町","address":"岩井袋"},
{"zip_code":"2991907","kana_pref":"ﾁﾊﾞｹﾝ","kana_city":"ｱﾜｸﾞﾝｷｮﾅﾝﾏﾁ","kana_address":"ｴﾂﾞｷ","pref":"千葉県","city":"安房郡鋸南町","address":"江月"},
{"zip_code":"2991903","kana_pref":"ﾁﾊﾞｹﾝ","kana_city":"ｱﾜｸﾞﾝｷｮﾅﾝﾏﾁ","kana_address":"ｵｵｶﾀﾋﾞﾗ","pref":"千葉県","city":"安房郡鋸南町","address":"大帷子"},
{"zip_code":"2992111","kana_pref":"ﾁﾊﾞｹﾝ","kana_city":"ｱﾜｸﾞﾝｷｮﾅﾝﾏﾁ","kana_address":"ｵｸｽﾞﾚ","pref":"千葉県","city":"安房郡鋸南町","address":"大崩"},
{"zip_code":"2992112","kana_pref":"ﾁﾊﾞｹﾝ","kana_city":"ｱﾜｸﾞﾝｷｮﾅﾝﾏﾁ","kana_address":"ｵｸﾔﾏ","pref":"千葉県","city":"安房郡鋸南町","address":"奥山"},
{"zip_code":"2992117","kana_pref":"ﾁﾊﾞｹﾝ","kana_city":"ｱﾜｸﾞﾝｷｮﾅﾝﾏﾁ","kana_address":"ｶﾂﾔﾏ","pref":"千葉県","city":"安房郡鋸南町","address":"勝山"},
{"zip_code":"2992113","kana_pref":"ﾁﾊﾞｹﾝ","kana_city":"ｱﾜｸﾞﾝｷｮﾅﾝﾏﾁ","kana_address":"ｶﾐｻｸﾏ","pref":"千葉県","city":"安房郡鋸南町","address":"上佐久間"},
{"zip_code":"2991904","kana_pref":"ﾁﾊﾞｹﾝ","kana_city":"ｱﾜｸﾞﾝｷｮﾅﾝﾏﾁ","kana_address":"ｺﾎﾞﾀ","pref":"千葉県","city":"安房郡鋸南町","address":"小保田"},
{"zip_code":"2992115","kana_pref":"ﾁﾊﾞｹﾝ","kana_city":"ｱﾜｸﾞﾝｷｮﾅﾝﾏﾁ","kana_address":"ｼﾓｻｸﾏ","pref":"千葉県","city":"安房郡鋸南町","address":"下佐久間"},
{"zip_code":"2991909","kana_pref":"ﾁﾊﾞｹﾝ","kana_city":"ｱﾜｸﾞﾝｷｮﾅﾝﾏﾁ","kana_address":"ﾀﾞｲﾛｸ","pref":"千葉県","city":"安房郡鋸南町","address":"大六"},
{"zip_code":"2992114","kana_pref":"ﾁﾊﾞｹﾝ","kana_city":"ｱﾜｸﾞﾝｷｮﾅﾝﾏﾁ","kana_address":"ﾅｶｻｸﾏ","pref":"千葉県","city":"安房郡鋸南町","address":"中佐久間"},
{"zip_code":"2991902","kana_pref":"ﾁﾊﾞｹﾝ","kana_city":"ｱﾜｸﾞﾝｷｮﾅﾝﾏﾁ","kana_address":"ﾎﾀ","pref":"千葉県","city":"安房郡鋸南町","address":"保田"},
{"zip_code":"2991901","kana_pref":"ﾁﾊﾞｹﾝ","kana_city":"ｱﾜｸﾞﾝｷｮﾅﾝﾏﾁ","kana_address":"ﾓﾄﾅ","pref":"千葉県","city":"安房郡鋸南町","address":"元名"},
{"zip_code":"2991906","kana_pref":"ﾁﾊﾞｹﾝ","kana_city":"ｱﾜｸﾞﾝｷｮﾅﾝﾏﾁ","kana_address":"ﾖｺﾈ","pref":"千葉県","city":"安房郡鋸南町","address":"横根"},
{"zip_code":"2991908","kana_pref":"ﾁﾊﾞｹﾝ","kana_city":"ｱﾜｸﾞﾝｷｮﾅﾝﾏﾁ","kana_address":"ﾖｼﾊﾏ","pref":"千葉県","city":"安房郡鋸南町","address":"吉浜"},
{"zip_code":"2992118","kana_pref":"ﾁﾊﾞｹﾝ","kana_city":"ｱﾜｸﾞﾝｷｮﾅﾝﾏﾁ","kana_address":"ﾘｭｳｼﾏ","pref":"千葉県","city":"安房郡鋸南町","address":"竜島"}]}