{"zip_code":[
{"zip_code":"3000000","kana_pref":"ｲﾊﾞﾗｷｹﾝ","kana_city":"ﾂﾁｳﾗｼ","kana_address":"","pref":"茨城県","city":"土浦市","address":""},
{"zip_code":"3000818","kana_pref":"ｲﾊﾞﾗｷｹﾝ","kana_city":"ﾂﾁｳﾗｼ","kana_address":"ｱﾏｶﾜ","pref":"茨城県","city":"土浦市","address":"天川"},
{"zip_code":"3000873","kana_pref":"ｲﾊﾞﾗｷｹﾝ","kana_city":"ﾂﾁｳﾗｼ","kana_address":"ｱﾗｶﾜｵｷ","pref":"茨城県","city":"土浦市","address":"荒川沖"},
{"zip_code":"3000871","kana_pref":"ｲﾊﾞﾗｷｹﾝ","kana_city":"ﾂﾁｳﾗｼ","kana_address":"ｱﾗｶﾜｵｷﾋｶﾞｼ","pref":"茨城県","city":"土浦市","address":"荒川沖東"},
{"zip_code":"3000874","kana_pref":"ｲﾊﾞﾗｷｹﾝ","kana_city":"ﾂﾁｳﾗｼ","kana_address":"ｱﾗｶﾜｵｷﾆｼ","pref":"茨城県","city":"土浦市","address":"荒川沖西"},
{"zip_code":"3000877","kana_pref":"ｲﾊﾞﾗｷｹﾝ","kana_city":"ﾂﾁｳﾗｼ","kana_address":"ｱﾗｶﾜﾎﾝｺﾞｳ","pref":"茨城県","city":"土浦市","address":"荒川本郷"},
{"zip_code":"3000035","kana_pref":"ｲﾊﾞﾗｷｹﾝ","kana_city":"ﾂﾁｳﾗｼ","kana_address":"ｱﾘｱｹﾁｮｳ","pref":"茨城県","city":"土浦市","address":"有明町"},
{"zip_code":"3000002","kana_pref":"ｲﾊﾞﾗｷｹﾝ","kana_city":"ﾂﾁｳﾗｼ","kana_address":"ｱﾜﾉﾏﾁ","pref":"茨城県","city":"土浦市","address":"粟野町"},
{"zip_code":"3000802","kana_pref":"ｲﾊﾞﾗｷｹﾝ","kana_city":"ﾂﾁｳﾗｼ","kana_address":"ｲｲﾀﾞ","pref":"茨城県","city":"土浦市","address":"飯田"},
{"zip_code":"3000047","kana_pref":"ｲﾊﾞﾗｷｹﾝ","kana_city":"ﾂﾁｳﾗｼ","kana_address":"ｲｸﾀﾏﾁ","pref":"茨城県","city":"土浦市","address":"生田町"},
{"zip_code":"3000007","kana_pref":"ｲﾊﾞﾗｷｹﾝ","kana_city":"ﾂﾁｳﾗｼ","kana_address":"ｲﾀﾔ","pref":"茨城県","city":"土浦市","address":"板谷"},
{"zip_code":"3000001","kana_pref":"ｲﾊﾞﾗｷｹﾝ","kana_city":"ﾂﾁｳﾗｼ","kana_address":"ｲﾏｲｽﾞﾐ","pref":"茨城県","city":"土浦市","address":"今泉"},
{"zip_code":"3000835","kana_pref":"ｲﾊﾞﾗｷｹﾝ","kana_city":"ﾂﾁｳﾗｼ","kana_address":"ｵｵｲﾜﾀ","pref":"茨城県","city":"土浦市","address":"大岩田"},
{"zip_code":"3004103","kana_pref":"ｲﾊﾞﾗｷｹﾝ","kana_city":"ﾂﾁｳﾗｼ","kana_address":"ｵｵｼﾄ","pref":"茨城県","city":"土浦市","address":"大志戸"},
{"zip_code":"3000028","kana_pref":"ｲﾊﾞﾗｷｹﾝ","kana_city":"ﾂﾁｳﾗｼ","kana_address":"ｵｵﾂﾉ","pref":"茨城県","city":"土浦市","address":"おおつ野"},
{"zip_code":"3000044","kana_pref":"ｲﾊﾞﾗｷｹﾝ","kana_city":"ﾂﾁｳﾗｼ","kana_address":"ｵｵﾃﾏﾁ","pref":"茨城県","city":"土浦市","address":"大手町"},
{"zip_code":"3004111","kana_pref":"ｲﾊﾞﾗｷｹﾝ","kana_city":"ﾂﾁｳﾗｼ","kana_address":"ｵｵﾊﾞﾀｹ","pref":"茨城県","city":"土浦市","address":"大畑"},
{"zip_code":"3000038","kana_pref":"ｲﾊﾞﾗｷｹﾝ","kana_city":"ﾂﾁｳﾗｼ","kana_address":"ｵｵﾏﾁ","pref":"茨城県","city":"土浦市","address":"大町"},
{"zip_code":"3000872","kana_pref":"ｲﾊﾞﾗｷｹﾝ","kana_city":"ﾂﾁｳﾗｼ","kana_address":"ｵｷｼﾝﾃﾞﾝ","pref":"茨城県","city":"土浦市","address":"沖新田"},
{"zip_code":"3000023","kana_pref":"ｲﾊﾞﾗｷｹﾝ","kana_city":"ﾂﾁｳﾗｼ","kana_address":"ｵｷｼﾞｭｸﾏﾁ","pref":"茨城県","city":"土浦市","address":"沖宿町"},
{"zip_code":"3004106","kana_pref":"ｲﾊﾞﾗｷｹﾝ","kana_city":"ﾂﾁｳﾗｼ","kana_address":"ｵﾀﾞｶ","pref":"茨城県","city":"土浦市","address":"小高"},
{"zip_code":"3000844","kana_pref":"ｲﾊﾞﾗｷｹﾝ","kana_city":"ﾂﾁｳﾗｼ","kana_address":"ｵｯﾄ","pref":"茨城県","city":"土浦市","address":"乙戸"},
{"zip_code":"3000845","kana_pref":"ｲﾊﾞﾗｷｹﾝ","kana_city":"ﾂﾁｳﾗｼ","kana_address":"ｵｯﾄﾐﾅﾐ","pref":"茨城県","city":"土浦市","address":"乙戸南"},
{"zip_code":"3004108","kana_pref":"ｲﾊﾞﾗｷｹﾝ","kana_city":"ﾂﾁｳﾗｼ","kana_address":"ｵﾉ","pref":"茨城県","city":"土浦市","address":"小野"},
{"zip_code":"3000846","kana_pref":"ｲﾊﾞﾗｷｹﾝ","kana_city":"ﾂﾁｳﾗｼ","kana_address":"ｵﾔﾏﾀﾞ","pref":"茨城県","city":"土浦市","address":"小山田"},
{"zip_code":"3000847","kana_pref":"ｲﾊﾞﾗｷｹﾝ","kana_city":"ﾂﾁｳﾗｼ","kana_address":"ｵﾛｼﾏﾁ","pref":"茨城県","city":"土浦市","address":"卸町"},
{"zip_code":"3000008","kana_pref":"ｲﾊﾞﾗｷｹﾝ","kana_city":"ﾂﾁｳﾗｼ","kana_address":"ｶｻｼﾏﾁ","pref":"茨城県","city":"土浦市","address":"笠師町"},
{"zip_code":"3000804","kana_pref":"ｲﾊﾞﾗｷｹﾝ","kana_city":"ﾂﾁｳﾗｼ","kana_address":"ｶｽｹﾞ","pref":"茨城県","city":"土浦市","address":"粕毛"},
{"zip_code":"3000825","kana_pref":"ｲﾊﾞﾗｷｹﾝ","kana_city":"ﾂﾁｳﾗｼ","kana_address":"ｶｽﾐｶﾞｵｶﾏﾁ","pref":"茨城県","city":"土浦市","address":"霞ケ岡町"},
{"zip_code":"3004114","kana_pref":"ｲﾊﾞﾗｷｹﾝ","kana_city":"ﾂﾁｳﾗｼ","kana_address":"ｶﾐｻｶﾀ","pref":"茨城県","city":"土浦市","address":"上坂田"},
{"zip_code":"3000811","kana_pref":"ｲﾊﾞﾗｷｹﾝ","kana_city":"ﾂﾁｳﾗｼ","kana_address":"ｶﾐﾀｶﾂ","pref":"茨城県","city":"土浦市","address":"上高津"},
{"zip_code":"3000819","kana_pref":"ｲﾊﾞﾗｷｹﾝ","kana_city":"ﾂﾁｳﾗｼ","kana_address":"ｶﾐﾀｶﾂｼﾝﾏﾁ","pref":"茨城県","city":"土浦市","address":"上高津新町"},
{"zip_code":"3000836","kana_pref":"ｲﾊﾞﾗｷｹﾝ","kana_city":"ﾂﾁｳﾗｼ","kana_address":"ｶﾗｽﾔﾏ","pref":"茨城県","city":"土浦市","address":"烏山"},
{"zip_code":"3000033","kana_pref":"ｲﾊﾞﾗｷｹﾝ","kana_city":"ﾂﾁｳﾗｼ","kana_address":"ｶﾜｸﾞﾁ","pref":"茨城県","city":"土浦市","address":"川口"},
{"zip_code":"3000011","kana_pref":"ｲﾊﾞﾗｷｹﾝ","kana_city":"ﾂﾁｳﾗｼ","kana_address":"ｶﾝﾀﾞﾂﾁｭｳｵｳ","pref":"茨城県","city":"土浦市","address":"神立中央"},
{"zip_code":"3000013","kana_pref":"ｲﾊﾞﾗｷｹﾝ","kana_city":"ﾂﾁｳﾗｼ","kana_address":"ｶﾝﾀﾞﾂﾏﾁ","pref":"茨城県","city":"土浦市","address":"神立町"},
{"zip_code":"3000012","kana_pref":"ｲﾊﾞﾗｷｹﾝ","kana_city":"ﾂﾁｳﾗｼ","kana_address":"ｶﾝﾀﾞﾂﾋｶﾞｼ","pref":"茨城県","city":"土浦市","address":"神立東"},
{"zip_code":"3000876","kana_pref":"ｲﾊﾞﾗｷｹﾝ","kana_city":"ﾂﾁｳﾗｼ","kana_address":"ｷﾀｱﾗｶﾜｵｷﾏﾁ","pref":"茨城県","city":"土浦市","address":"北荒川沖町"},
{"zip_code":"3000015","kana_pref":"ｲﾊﾞﾗｷｹﾝ","kana_city":"ﾂﾁｳﾗｼ","kana_address":"ｷﾀｶﾝﾀﾞﾂﾏﾁ","pref":"茨城県","city":"土浦市","address":"北神立町"},
{"zip_code":"3000026","kana_pref":"ｲﾊﾞﾗｷｹﾝ","kana_city":"ﾂﾁｳﾗｼ","kana_address":"ｷﾀﾞﾏﾘ","pref":"茨城県","city":"土浦市","address":"木田余"},
{"zip_code":"3000056","kana_pref":"ｲﾊﾞﾗｷｹﾝ","kana_city":"ﾂﾁｳﾗｼ","kana_address":"ｷﾀﾞﾏﾘﾆｼﾀﾞｲ","pref":"茨城県","city":"土浦市","address":"木田余西台"},
{"zip_code":"3000027","kana_pref":"ｲﾊﾞﾗｷｹﾝ","kana_city":"ﾂﾁｳﾗｼ","kana_address":"ｷﾀﾞﾏﾘﾋｶﾞｼﾀﾞｲ","pref":"茨城県","city":"土浦市","address":"木田余東台"},
{"zip_code":"3000831","kana_pref":"ｲﾊﾞﾗｷｹﾝ","kana_city":"ﾂﾁｳﾗｼ","kana_address":"ｺｲﾜﾀ","pref":"茨城県","city":"土浦市","address":"小岩田"},
{"zip_code":"3000834","kana_pref":"ｲﾊﾞﾗｷｹﾝ","kana_city":"ﾂﾁｳﾗｼ","kana_address":"ｺｲﾜﾀﾞﾋｶﾞｼ","pref":"茨城県","city":"土浦市","address":"小岩田東"},
{"zip_code":"3000833","kana_pref":"ｲﾊﾞﾗｷｹﾝ","kana_city":"ﾂﾁｳﾗｼ","kana_address":"ｺｲﾜﾀﾞﾆｼ","pref":"茨城県","city":"土浦市","address":"小岩田西"},
{"zip_code":"3000814","kana_pref":"ｲﾊﾞﾗｷｹﾝ","kana_city":"ﾂﾁｳﾗｼ","kana_address":"ｺｸﾌﾞﾁｮｳ","pref":"茨城県","city":"土浦市","address":"国分町"},
{"zip_code":"3000032","kana_pref":"ｲﾊﾞﾗｷｹﾝ","kana_city":"ﾂﾁｳﾗｼ","kana_address":"ｺﾎｸ","pref":"茨城県","city":"土浦市","address":"湖北"},
{"zip_code":"3000823","kana_pref":"ｲﾊﾞﾗｷｹﾝ","kana_city":"ﾂﾁｳﾗｼ","kana_address":"ｺﾏﾂ","pref":"茨城県","city":"土浦市","address":"小松"},
{"zip_code":"3000826","kana_pref":"ｲﾊﾞﾗｷｹﾝ","kana_city":"ﾂﾁｳﾗｼ","kana_address":"ｺﾏﾂｶﾞｵｶﾏﾁ","pref":"茨城県","city":"土浦市","address":"小松ケ丘町"},
{"zip_code":"3000004","kana_pref":"ｲﾊﾞﾗｷｹﾝ","kana_city":"ﾂﾁｳﾗｼ","kana_address":"ｺﾔﾏｻﾞｷ","pref":"茨城県","city":"土浦市","address":"小山崎"},
{"zip_code":"3000832","kana_pref":"ｲﾊﾞﾗｷｹﾝ","kana_city":"ﾂﾁｳﾗｼ","kana_address":"ｻｸﾗｶﾞｵｶﾏﾁ","pref":"茨城県","city":"土浦市","address":"桜ケ丘町"},
{"zip_code":"3000037","kana_pref":"ｲﾊﾞﾗｷｹﾝ","kana_city":"ﾂﾁｳﾗｼ","kana_address":"ｻｸﾗﾏﾁ","pref":"茨城県","city":"土浦市","address":"桜町"},
{"zip_code":"3000803","kana_pref":"ｲﾊﾞﾗｷｹﾝ","kana_city":"ﾂﾁｳﾗｼ","kana_address":"ｻﾉｺ","pref":"茨城県","city":"土浦市","address":"佐野子"},
{"zip_code":"3004104","kana_pref":"ｲﾊﾞﾗｷｹﾝ","kana_city":"ﾂﾁｳﾗｼ","kana_address":"ｻﾜﾍﾞ","pref":"茨城県","city":"土浦市","address":"沢辺"},
{"zip_code":"3000805","kana_pref":"ｲﾊﾞﾗｷｹﾝ","kana_city":"ﾂﾁｳﾗｼ","kana_address":"ｼｼﾂｶ","pref":"茨城県","city":"土浦市","address":"宍塚"},
{"zip_code":"3004113","kana_pref":"ｲﾊﾞﾗｷｹﾝ","kana_city":"ﾂﾁｳﾗｼ","kana_address":"ｼﾓｻｶﾀ","pref":"茨城県","city":"土浦市","address":"下坂田"},
{"zip_code":"3000812","kana_pref":"ｲﾊﾞﾗｷｹﾝ","kana_city":"ﾂﾁｳﾗｼ","kana_address":"ｼﾓﾀｶﾂ","pref":"茨城県","city":"土浦市","address":"下高津"},
{"zip_code":"3000042","kana_pref":"ｲﾊﾞﾗｷｹﾝ","kana_city":"ﾂﾁｳﾗｼ","kana_address":"ｼﾞｮｳﾎｸﾏﾁ","pref":"茨城県","city":"土浦市","address":"城北町"},
{"zip_code":"3000022","kana_pref":"ｲﾊﾞﾗｷｹﾝ","kana_city":"ﾂﾁｳﾗｼ","kana_address":"ｼﾗﾄﾘﾏﾁ","pref":"茨城県","city":"土浦市","address":"白鳥町"},
{"zip_code":"3000021","kana_pref":"ｲﾊﾞﾗｷｹﾝ","kana_city":"ﾂﾁｳﾗｼ","kana_address":"ｽｹﾞﾉﾔﾏﾁ","pref":"茨城県","city":"土浦市","address":"菅谷町"},
{"zip_code":"3000046","kana_pref":"ｲﾊﾞﾗｷｹﾝ","kana_city":"ﾂﾁｳﾗｼ","kana_address":"ｾﾝｿﾞｸﾁｮｳ","pref":"茨城県","city":"土浦市","address":"千束町"},
{"zip_code":"3004117","kana_pref":"ｲﾊﾞﾗｷｹﾝ","kana_city":"ﾂﾁｳﾗｼ","kana_address":"ﾀｶｵｶ","pref":"茨城県","city":"土浦市","address":"高岡"},
{"zip_code":"3000839","kana_pref":"ｲﾊﾞﾗｷｹﾝ","kana_city":"ﾂﾁｳﾗｼ","kana_address":"ﾀｷﾀ","pref":"茨城県","city":"土浦市","address":"滝田"},
{"zip_code":"3000041","kana_pref":"ｲﾊﾞﾗｷｹﾝ","kana_city":"ﾂﾁｳﾗｼ","kana_address":"ﾀﾂﾀﾏﾁ","pref":"茨城県","city":"土浦市","address":"立田町"},
{"zip_code":"3004118","kana_pref":"ｲﾊﾞﾗｷｹﾝ","kana_city":"ﾂﾁｳﾗｼ","kana_address":"ﾀﾄﾞﾍﾞ","pref":"茨城県","city":"土浦市","address":"田土部"},
{"zip_code":"3000048","kana_pref":"ｲﾊﾞﾗｷｹﾝ","kana_city":"ﾂﾁｳﾗｼ","kana_address":"ﾀﾅｶ","pref":"茨城県","city":"土浦市","address":"田中"},
{"zip_code":"3000049","kana_pref":"ｲﾊﾞﾗｷｹﾝ","kana_city":"ﾂﾁｳﾗｼ","kana_address":"ﾀﾅｶﾏﾁ","pref":"茨城県","city":"土浦市","address":"田中町"},
{"zip_code":"3004105","kana_pref":"ｲﾊﾞﾗｷｹﾝ","kana_city":"ﾂﾁｳﾗｼ","kana_address":"ﾀﾐﾔ","pref":"茨城県","city":"土浦市","address":"田宮"},
{"zip_code":"3000024","kana_pref":"ｲﾊﾞﾗｷｹﾝ","kana_city":"ﾂﾁｳﾗｼ","kana_address":"ﾀﾑﾗﾏﾁ","pref":"茨城県","city":"土浦市","address":"田村町"},
{"zip_code":"3000824","kana_pref":"ｲﾊﾞﾗｷｹﾝ","kana_city":"ﾂﾁｳﾗｼ","kana_address":"ﾁﾄﾞﾘｶﾞｵｶﾏﾁ","pref":"茨城県","city":"土浦市","address":"千鳥ケ丘町"},
{"zip_code":"3000043","kana_pref":"ｲﾊﾞﾗｷｹﾝ","kana_city":"ﾂﾁｳﾗｼ","kana_address":"ﾁｭｳｵｳ","pref":"茨城県","city":"土浦市","address":"中央"},
{"zip_code":"3000062","kana_pref":"ｲﾊﾞﾗｷｹﾝ","kana_city":"ﾂﾁｳﾗｼ","kana_address":"ﾂﾜ","pref":"茨城県","city":"土浦市","address":"都和"},
{"zip_code":"3000025","kana_pref":"ｲﾊﾞﾗｷｹﾝ","kana_city":"ﾂﾁｳﾗｼ","kana_address":"ﾃﾉﾏﾁ","pref":"茨城県","city":"土浦市","address":"手野町"},
{"zip_code":"3000031","kana_pref":"ｲﾊﾞﾗｷｹﾝ","kana_city":"ﾂﾁｳﾗｼ","kana_address":"ﾄｳｻﾞｷﾏﾁ","pref":"茨城県","city":"土浦市","address":"東崎町"},
{"zip_code":"3004107","kana_pref":"ｲﾊﾞﾗｷｹﾝ","kana_city":"ﾂﾁｳﾗｼ","kana_address":"ﾄｳｼﾞｮｳｼﾞ","pref":"茨城県","city":"土浦市","address":"東城寺"},
{"zip_code":"3000055","kana_pref":"ｲﾊﾞﾗｷｹﾝ","kana_city":"ﾂﾁｳﾗｼ","kana_address":"ﾄﾉｻﾄ","pref":"茨城県","city":"土浦市","address":"殿里"},
{"zip_code":"3000841","kana_pref":"ｲﾊﾞﾗｷｹﾝ","kana_city":"ﾂﾁｳﾗｼ","kana_address":"ﾅｶ","pref":"茨城県","city":"土浦市","address":"中"},
{"zip_code":"3000875","kana_pref":"ｲﾊﾞﾗｷｹﾝ","kana_city":"ﾂﾁｳﾗｼ","kana_address":"ﾅｶｱﾗｶﾜｵｷﾏﾁ","pref":"茨城県","city":"土浦市","address":"中荒川沖町"},
{"zip_code":"3004101","kana_pref":"ｲﾊﾞﾗｷｹﾝ","kana_city":"ﾂﾁｳﾗｼ","kana_address":"ﾅｶﾞｲ","pref":"茨城県","city":"土浦市","address":"永井"},
{"zip_code":"3000016","kana_pref":"ｲﾊﾞﾗｷｹﾝ","kana_city":"ﾂﾁｳﾗｼ","kana_address":"ﾅｶｶﾝﾀﾞﾂﾏﾁ","pref":"茨城県","city":"土浦市","address":"中神立町"},
{"zip_code":"3000815","kana_pref":"ｲﾊﾞﾗｷｹﾝ","kana_city":"ﾂﾁｳﾗｼ","kana_address":"ﾅｶﾀｶﾂ","pref":"茨城県","city":"土浦市","address":"中高津"},
{"zip_code":"3000009","kana_pref":"ｲﾊﾞﾗｷｹﾝ","kana_city":"ﾂﾁｳﾗｼ","kana_address":"ﾅｶﾂﾏﾁ","pref":"茨城県","city":"土浦市","address":"中都町"},
{"zip_code":"3000005","kana_pref":"ｲﾊﾞﾗｷｹﾝ","kana_city":"ﾂﾁｳﾗｼ","kana_address":"ﾅｶﾇｷ","pref":"茨城県","city":"土浦市","address":"中貫"},
{"zip_code":"3000849","kana_pref":"ｲﾊﾞﾗｷｹﾝ","kana_city":"ﾂﾁｳﾗｼ","kana_address":"ﾅｶﾑﾗﾆｼﾈ","pref":"茨城県","city":"土浦市","address":"中村西根"},
{"zip_code":"3000850","kana_pref":"ｲﾊﾞﾗｷｹﾝ","kana_city":"ﾂﾁｳﾗｼ","kana_address":"ﾅｶﾑﾗﾋｶﾞｼ","pref":"茨城県","city":"土浦市","address":"中村東"},
{"zip_code":"3000843","kana_pref":"ｲﾊﾞﾗｷｹﾝ","kana_city":"ﾂﾁｳﾗｼ","kana_address":"ﾅｶﾑﾗﾐﾅﾐ","pref":"茨城県","city":"土浦市","address":"中村南"},
{"zip_code":"3000817","kana_pref":"ｲﾊﾞﾗｷｹﾝ","kana_city":"ﾂﾁｳﾗｼ","kana_address":"ﾅｶﾞｸﾆ","pref":"茨城県","city":"土浦市","address":"永国"},
{"zip_code":"3000810","kana_pref":"ｲﾊﾞﾗｷｹﾝ","kana_city":"ﾂﾁｳﾗｼ","kana_address":"ﾅｶﾞｸﾆﾀﾞｲ","pref":"茨城県","city":"土浦市","address":"永国台"},
{"zip_code":"3000816","kana_pref":"ｲﾊﾞﾗｷｹﾝ","kana_city":"ﾂﾁｳﾗｼ","kana_address":"ﾅｶﾞｸﾆﾋｶﾞｼﾏﾁ","pref":"茨城県","city":"土浦市","address":"永国東町"},
{"zip_code":"3000061","kana_pref":"ｲﾊﾞﾗｷｹﾝ","kana_city":"ﾂﾁｳﾗｼ","kana_address":"ﾅﾐｷ","pref":"茨城県","city":"土浦市","address":"並木"},
{"zip_code":"3000014","kana_pref":"ｲﾊﾞﾗｷｹﾝ","kana_city":"ﾂﾁｳﾗｼ","kana_address":"ﾆｼｶﾝﾀﾞﾂ","pref":"茨城県","city":"土浦市","address":"西神立"},
{"zip_code":"3000068","kana_pref":"ｲﾊﾞﾗｷｹﾝ","kana_city":"ﾂﾁｳﾗｼ","kana_address":"ﾆｼﾅﾐｷﾏﾁ","pref":"茨城県","city":"土浦市","address":"西並木町"},
{"zip_code":"3000848","kana_pref":"ｲﾊﾞﾗｷｹﾝ","kana_city":"ﾂﾁｳﾗｼ","kana_address":"ﾆｼﾈﾆｼ","pref":"茨城県","city":"土浦市","address":"西根西"},
{"zip_code":"3000842","kana_pref":"ｲﾊﾞﾗｷｹﾝ","kana_city":"ﾂﾁｳﾗｼ","kana_address":"ﾆｼﾈﾐﾅﾐ","pref":"茨城県","city":"土浦市","address":"西根南"},
{"zip_code":"3000054","kana_pref":"ｲﾊﾞﾗｷｹﾝ","kana_city":"ﾂﾁｳﾗｼ","kana_address":"ﾆｼﾏﾅﾍﾞﾏﾁ","pref":"茨城県","city":"土浦市","address":"西真鍋町"},
{"zip_code":"3000821","kana_pref":"ｲﾊﾞﾗｷｹﾝ","kana_city":"ﾂﾁｳﾗｼ","kana_address":"ﾊｽｶﾜﾗｼﾝﾏﾁ","pref":"茨城県","city":"土浦市","address":"蓮河原新町"},
{"zip_code":"3000822","kana_pref":"ｲﾊﾞﾗｷｹﾝ","kana_city":"ﾂﾁｳﾗｼ","kana_address":"ﾊｽｶﾜﾗﾏﾁ","pref":"茨城県","city":"土浦市","address":"蓮河原町"},
{"zip_code":"3000067","kana_pref":"ｲﾊﾞﾗｷｹﾝ","kana_city":"ﾂﾁｳﾗｼ","kana_address":"ﾋｶﾞｼﾂﾜ","pref":"茨城県","city":"土浦市","address":"東都和"},
{"zip_code":"3000006","kana_pref":"ｲﾊﾞﾗｷｹﾝ","kana_city":"ﾂﾁｳﾗｼ","kana_address":"ﾋｶﾞｼﾅｶﾇｷﾏﾁ","pref":"茨城県","city":"土浦市","address":"東中貫町"},
{"zip_code":"3000069","kana_pref":"ｲﾊﾞﾗｷｹﾝ","kana_city":"ﾂﾁｳﾗｼ","kana_address":"ﾋｶﾞｼﾅﾐｷﾏﾁ","pref":"茨城県","city":"土浦市","address":"東並木町"},
{"zip_code":"3000052","kana_pref":"ｲﾊﾞﾗｷｹﾝ","kana_city":"ﾂﾁｳﾗｼ","kana_address":"ﾋｶﾞｼﾏﾅﾍﾞﾏﾁ","pref":"茨城県","city":"土浦市","address":"東真鍋町"},
{"zip_code":"3000064","kana_pref":"ｲﾊﾞﾗｷｹﾝ","kana_city":"ﾂﾁｳﾗｼ","kana_address":"ﾋｶﾞｼﾜｶﾏﾂﾏﾁ","pref":"茨城県","city":"土浦市","address":"東若松町"},
{"zip_code":"3000065","kana_pref":"ｲﾊﾞﾗｷｹﾝ","kana_city":"ﾂﾁｳﾗｼ","kana_address":"ﾋﾀﾅ","pref":"茨城県","city":"土浦市","address":"常名"},
{"zip_code":"3000813","kana_pref":"ｲﾊﾞﾗｷｹﾝ","kana_city":"ﾂﾁｳﾗｼ","kana_address":"ﾌｼﾞｻｷ","pref":"茨城県","city":"土浦市","address":"富士崎"},
{"zip_code":"3004115","kana_pref":"ｲﾊﾞﾗｷｹﾝ","kana_city":"ﾂﾁｳﾗｼ","kana_address":"ﾌｼﾞｻﾜ","pref":"茨城県","city":"土浦市","address":"藤沢"},
{"zip_code":"3004116","kana_pref":"ｲﾊﾞﾗｷｹﾝ","kana_city":"ﾂﾁｳﾗｼ","kana_address":"ﾌｼﾞｻﾜｼﾝﾃﾞﾝ","pref":"茨城県","city":"土浦市","address":"藤沢新田"},
{"zip_code":"3000045","kana_pref":"ｲﾊﾞﾗｷｹﾝ","kana_city":"ﾂﾁｳﾗｼ","kana_address":"ﾌﾞﾝｷｮｳﾁｮｳ","pref":"茨城県","city":"土浦市","address":"文京町"},
{"zip_code":"3004102","kana_pref":"ｲﾊﾞﾗｷｹﾝ","kana_city":"ﾂﾁｳﾗｼ","kana_address":"ﾎﾝｺﾞｳ","pref":"茨城県","city":"土浦市","address":"本郷"},
{"zip_code":"3000051","kana_pref":"ｲﾊﾞﾗｷｹﾝ","kana_city":"ﾂﾁｳﾗｼ","kana_address":"ﾏﾅﾍﾞ","pref":"茨城県","city":"土浦市","address":"真鍋"},
{"zip_code":"3000053","kana_pref":"ｲﾊﾞﾗｷｹﾝ","kana_city":"ﾂﾁｳﾗｼ","kana_address":"ﾏﾅﾍﾞｼﾝﾏﾁ","pref":"茨城県","city":"土浦市","address":"真鍋新町"},
{"zip_code":"3000838","kana_pref":"ｲﾊﾞﾗｷｹﾝ","kana_city":"ﾂﾁｳﾗｼ","kana_address":"ﾏﾘﾔﾏｼﾝﾃﾞﾝ","pref":"茨城県","city":"土浦市","address":"摩利山新田"},
{"zip_code":"3000837","kana_pref":"ｲﾊﾞﾗｷｹﾝ","kana_city":"ﾂﾁｳﾗｼ","kana_address":"ﾐｷﾞﾓﾐ","pref":"茨城県","city":"土浦市","address":"右籾"},
{"zip_code":"3000034","kana_pref":"ｲﾊﾞﾗｷｹﾝ","kana_city":"ﾂﾁｳﾗｼ","kana_address":"ﾐﾅﾄﾏﾁ","pref":"茨城県","city":"土浦市","address":"港町"},
{"zip_code":"3000066","kana_pref":"ｲﾊﾞﾗｷｹﾝ","kana_city":"ﾂﾁｳﾗｼ","kana_address":"ﾑｼｶｹ","pref":"茨城県","city":"土浦市","address":"虫掛"},
{"zip_code":"3000003","kana_pref":"ｲﾊﾞﾗｷｹﾝ","kana_city":"ﾂﾁｳﾗｼ","kana_address":"ﾑﾗｻｷｶﾞｵｶ","pref":"茨城県","city":"土浦市","address":"紫ケ丘"},
{"zip_code":"3004112","kana_pref":"ｲﾊﾞﾗｷｹﾝ","kana_city":"ﾂﾁｳﾗｼ","kana_address":"ﾓﾓｿﾞﾉ","pref":"茨城県","city":"土浦市","address":"桃園"},
{"zip_code":"3000801","kana_pref":"ｲﾊﾞﾗｷｹﾝ","kana_city":"ﾂﾁｳﾗｼ","kana_address":"ﾔﾊｷﾞ","pref":"茨城県","city":"土浦市","address":"矢作"},
{"zip_code":"3000036","kana_pref":"ｲﾊﾞﾗｷｹﾝ","kana_city":"ﾂﾁｳﾗｼ","kana_address":"ﾔﾏﾄﾁｮｳ","pref":"茨城県","city":"土浦市","address":"大和町"},
{"zip_code":"3000063","kana_pref":"ｲﾊﾞﾗｷｹﾝ","kana_city":"ﾂﾁｳﾗｼ","kana_address":"ﾜｶﾏﾂﾁｮｳ","pref":"茨城県","city":"土浦市","address":"若松町"},
{"zip_code":"3002525","kana_pref":"ｲﾊﾞﾗｷｹﾝ","kana_city":"ｼﾞｮｳｿｳｼ","kana_address":"ｲｻﾞｴﾓﾝｼﾝﾃﾞﾝﾏﾁ","pref":"茨城県","city":"常総市","address":"伊左衛門新田町"},
{"zip_code":"3002727","kana_pref":"ｲﾊﾞﾗｷｹﾝ","kana_city":"ｼﾞｮｳｿｳｼ","kana_address":"ｵｵｻﾜ","pref":"茨城県","city":"常総市","address":"大沢"},
{"zip_code":"3002745","kana_pref":"ｲﾊﾞﾗｷｹﾝ","kana_city":"ｼﾞｮｳｿｳｼ","kana_address":"ｵｵｻﾜｼﾝﾃﾞﾝ","pref":"茨城県","city":"常総市","address":"大沢新田"},
{"zip_code":"3002526","kana_pref":"ｲﾊﾞﾗｷｹﾝ","kana_city":"ｼﾞｮｳｿｳｼ","kana_address":"ｵｵﾉｺﾞｳｼﾝﾃﾞﾝﾏﾁ","pref":"茨城県","city":"常総市","address":"大生郷新田町"},
{"zip_code":"3002521","kana_pref":"ｲﾊﾞﾗｷｹﾝ","kana_city":"ｼﾞｮｳｿｳｼ","kana_address":"ｵｵﾉｺﾞｳﾏﾁ","pref":"茨城県","city":"常総市","address":"大生郷町"},
{"zip_code":"3002512","kana_pref":"ｲﾊﾞﾗｷｹﾝ","kana_city":"ｼﾞｮｳｿｳｼ","kana_address":"ｵｵﾜﾏﾁ","pref":"茨城県","city":"常総市","address":"大輪町"},
{"zip_code":"3002743","kana_pref":"ｲﾊﾞﾗｷｹﾝ","kana_city":"ｼﾞｮｳｿｳｼ","kana_address":"ｵｶﾀﾞ","pref":"茨城県","city":"常総市","address":"岡田"},
{"zip_code":"3002504","kana_pref":"ｲﾊﾞﾗｷｹﾝ","kana_city":"ｼﾞｮｳｿｳｼ","kana_address":"ｵｷｼﾝﾃﾞﾝﾏﾁ","pref":"茨城県","city":"常総市","address":"沖新田町"},
{"zip_code":"3002703","kana_pref":"ｲﾊﾞﾗｷｹﾝ","kana_city":"ｼﾞｮｳｿｳｼ","kana_address":"ｵﾎﾞｶﾜ","pref":"茨城県","city":"常総市","address":"小保川"},
{"zip_code":"3002503","kana_pref":"ｲﾊﾞﾗｷｹﾝ","kana_city":"ｼﾞｮｳｿｳｼ","kana_address":"ｶﾜｻｷﾏﾁ","pref":"茨城県","city":"常総市","address":"川崎町"},
{"zip_code":"3002722","kana_pref":"ｲﾊﾞﾗｷｹﾝ","kana_city":"ｼﾞｮｳｿｳｼ","kana_address":"ｸﾗﾓﾁ","pref":"茨城県","city":"常総市","address":"蔵持"},
{"zip_code":"3002723","kana_pref":"ｲﾊﾞﾗｷｹﾝ","kana_city":"ｼﾞｮｳｿｳｼ","kana_address":"ｸﾗﾓﾁｼﾝﾃﾞﾝ","pref":"茨城県","city":"常総市","address":"蔵持新田"},
{"zip_code":"3002734","kana_pref":"ｲﾊﾞﾗｷｹﾝ","kana_city":"ｼﾞｮｳｿｳｼ","kana_address":"ｸﾘﾔﾏｼﾝﾃﾞﾝ","pref":"茨城県","city":"常総市","address":"栗山新田"},
{"zip_code":"3002746","kana_pref":"ｲﾊﾞﾗｷｹﾝ","kana_city":"ｼﾞｮｳｿｳｼ","kana_address":"ｺｳﾉﾔﾏ","pref":"茨城県","city":"常総市","address":"鴻野山"},
{"zip_code":"3002732","kana_pref":"ｲﾊﾞﾗｷｹﾝ","kana_city":"ｼﾞｮｳｿｳｼ","kana_address":"ｺｳﾉﾔﾏｼﾝﾃﾞﾝ","pref":"茨城県","city":"常総市","address":"鴻野山新田"},
{"zip_code":"3002741","kana_pref":"ｲﾊﾞﾗｷｹﾝ","kana_city":"ｼﾞｮｳｿｳｼ","kana_address":"ｺｯｼｮｳ","pref":"茨城県","city":"常総市","address":"国生"},
{"zip_code":"3002524","kana_pref":"ｲﾊﾞﾗｷｹﾝ","kana_city":"ｼﾞｮｳｿｳｼ","kana_address":"ｺﾞﾛﾍﾞｴｼﾝﾃﾞﾝﾏﾁ","pref":"茨城県","city":"常総市","address":"五郎兵衛新田町"},
{"zip_code":"3002747","kana_pref":"ｲﾊﾞﾗｷｹﾝ","kana_city":"ｼﾞｮｳｿｳｼ","kana_address":"ｻｷﾌﾞｻ","pref":"茨城県","city":"常総市","address":"崎房"},
{"zip_code":"3002523","kana_pref":"ｲﾊﾞﾗｷｹﾝ","kana_city":"ｼﾞｮｳｿｳｼ","kana_address":"ｻｻﾂｶｼﾝﾃﾞﾝﾁｮｳ","pref":"茨城県","city":"常総市","address":"笹塚新田町"},
{"zip_code":"3002735","kana_pref":"ｲﾊﾞﾗｷｹﾝ","kana_city":"ｼﾞｮｳｿｳｼ","kana_address":"ｻﾍｲﾀｼﾝﾃﾞﾝ","pref":"茨城県","city":"常総市","address":"左平太新田"},
{"zip_code":"3002721","kana_pref":"ｲﾊﾞﾗｷｹﾝ","kana_city":"ｼﾞｮｳｿｳｼ","kana_address":"ｼﾉﾔﾏ","pref":"茨城県","city":"常総市","address":"篠山"},
{"zip_code":"3002502","kana_pref":"ｲﾊﾞﾗｷｹﾝ","kana_city":"ｼﾞｮｳｿｳｼ","kana_address":"ｼﾞｮｳｼﾞｬﾏﾁ","pref":"茨城県","city":"常総市","address":"上蛇町"},
{"zip_code":"3002706","kana_pref":"ｲﾊﾞﾗｷｹﾝ","kana_city":"ｼﾞｮｳｿｳｼ","kana_address":"ｼﾝｲｼｹﾞ","pref":"茨城県","city":"常総市","address":"新石下"},
{"zip_code":"3002744","kana_pref":"ｲﾊﾞﾗｷｹﾝ","kana_city":"ｼﾞｮｳｿｳｼ","kana_address":"ｽｷﾞﾔﾏ","pref":"茨城県","city":"常総市","address":"杉山"},
{"zip_code":"3002713","kana_pref":"ｲﾊﾞﾗｷｹﾝ","kana_city":"ｼﾞｮｳｿｳｼ","kana_address":"ｽﾉｳﾔ","pref":"茨城県","city":"常総市","address":"収納谷"},
{"zip_code":"3002716","kana_pref":"ｲﾊﾞﾗｷｹﾝ","kana_city":"ｼﾞｮｳｿｳｼ","kana_address":"ﾀﾞｲﾎﾞｳ","pref":"茨城県","city":"常総市","address":"大房"},
{"zip_code":"3002704","kana_pref":"ｲﾊﾞﾗｷｹﾝ","kana_city":"ｼﾞｮｳｿｳｼ","kana_address":"ﾀﾃｶﾞﾀ","pref":"茨城県","city":"常総市","address":"舘方"},
{"zip_code":"3002717","kana_pref":"ｲﾊﾞﾗｷｹﾝ","kana_city":"ｼﾞｮｳｿｳｼ","kana_address":"ﾄｳﾉﾊﾗ","pref":"茨城県","city":"常総市","address":"東野原"},
{"zip_code":"3002705","kana_pref":"ｲﾊﾞﾗｷｹﾝ","kana_city":"ｼﾞｮｳｿｳｼ","kana_address":"ﾄﾖﾀﾞ","pref":"茨城県","city":"常総市","address":"豊田"},
{"zip_code":"3002505","kana_pref":"ｲﾊﾞﾗｷｹﾝ","kana_city":"ｼﾞｮｳｿｳｼ","kana_address":"ﾅｶﾂﾏﾏﾁ","pref":"茨城県","city":"常総市","address":"中妻町"},
{"zip_code":"3002726","kana_pref":"ｲﾊﾞﾗｷｹﾝ","kana_city":"ｼﾞｮｳｿｳｼ","kana_address":"ﾅｶﾇﾏ","pref":"茨城県","city":"常総市","address":"中沼"},
{"zip_code":"3002511","kana_pref":"ｲﾊﾞﾗｷｹﾝ","kana_city":"ｼﾞｮｳｿｳｼ","kana_address":"ﾊﾅｼﾏﾏﾁ","pref":"茨城県","city":"常総市","address":"花島町"},
{"zip_code":"3002513","kana_pref":"ｲﾊﾞﾗｷｹﾝ","kana_city":"ｼﾞｮｳｿｳｼ","kana_address":"ﾊﾆｭｳﾏﾁ","pref":"茨城県","city":"常総市","address":"羽生町"},
{"zip_code":"3002748","kana_pref":"ｲﾊﾞﾗｷｹﾝ","kana_city":"ｼﾞｮｳｿｳｼ","kana_address":"ﾊﾞﾊﾞ","pref":"茨城県","city":"常総市","address":"馬場"},
{"zip_code":"3002733","kana_pref":"ｲﾊﾞﾗｷｹﾝ","kana_city":"ｼﾞｮｳｿｳｼ","kana_address":"ﾊﾞﾊﾞｼﾝﾃﾞﾝ","pref":"茨城県","city":"常総市","address":"馬場新田"},
{"zip_code":"3002702","kana_pref":"ｲﾊﾞﾗｷｹﾝ","kana_city":"ｼﾞｮｳｿｳｼ","kana_address":"ﾊﾗｼﾞｭｸ","pref":"茨城県","city":"常総市","address":"原宿"},
{"zip_code":"3002501","kana_pref":"ｲﾊﾞﾗｷｹﾝ","kana_city":"ｼﾞｮｳｿｳｼ","kana_address":"ﾌｸｼﾞﾏﾁ","pref":"茨城県","city":"常総市","address":"福二町"},
{"zip_code":"3002724","kana_pref":"ｲﾊﾞﾗｷｹﾝ","kana_city":"ｼﾞｮｳｿｳｼ","kana_address":"ﾌﾙﾏｷﾞ","pref":"茨城県","city":"常総市","address":"古間木"},
{"zip_code":"3002731","kana_pref":"ｲﾊﾞﾗｷｹﾝ","kana_city":"ｼﾞｮｳｿｳｼ","kana_address":"ﾌﾙﾏｷﾞｼﾝﾃﾞﾝ","pref":"茨城県","city":"常総市","address":"古間木新田"},
{"zip_code":"3002725","kana_pref":"ｲﾊﾞﾗｷｹﾝ","kana_city":"ｼﾞｮｳｿｳｼ","kana_address":"ﾌﾙﾏｷﾞﾇﾏｼﾝﾃﾞﾝ","pref":"茨城県","city":"常総市","address":"古間木沼新田"},
{"zip_code":"3002714","kana_pref":"ｲﾊﾞﾗｷｹﾝ","kana_city":"ｼﾞｮｳｿｳｼ","kana_address":"ﾍｲﾅｲ","pref":"茨城県","city":"常総市","address":"平内"},
{"zip_code":"3002712","kana_pref":"ｲﾊﾞﾗｷｹﾝ","kana_city":"ｼﾞｮｳｿｳｼ","kana_address":"ﾏｶﾞｯﾀ","pref":"茨城県","city":"常総市","address":"曲田"},
{"zip_code":"3002736","kana_pref":"ｲﾊﾞﾗｷｹﾝ","kana_city":"ｼﾞｮｳｿｳｼ","kana_address":"ﾏｺﾞﾍﾞｴｼﾝﾃﾞﾝ","pref":"茨城県","city":"常総市","address":"孫兵ヱ新田"},
{"zip_code":"3002507","kana_pref":"ｲﾊﾞﾗｷｹﾝ","kana_city":"ｼﾞｮｳｿｳｼ","kana_address":"ﾐｻｶｼﾝﾃﾞﾝﾏﾁ","pref":"茨城県","city":"常総市","address":"三坂新田町"},
{"zip_code":"3002506","kana_pref":"ｲﾊﾞﾗｷｹﾝ","kana_city":"ｼﾞｮｳｿｳｼ","kana_address":"ﾐｻｶﾏﾁ","pref":"茨城県","city":"常総市","address":"三坂町"},
{"zip_code":"3002742","kana_pref":"ｲﾊﾞﾗｷｹﾝ","kana_city":"ｼﾞｮｳｿｳｼ","kana_address":"ﾑｺｳｲｼｹﾞ","pref":"茨城県","city":"常総市","address":"向石下"},
{"zip_code":"3002707","kana_pref":"ｲﾊﾞﾗｷｹﾝ","kana_city":"ｼﾞｮｳｿｳｼ","kana_address":"ﾓﾄｲｼｹﾞ","pref":"茨城県","city":"常総市","address":"本石下"},
{"zip_code":"3002711","kana_pref":"ｲﾊﾞﾗｷｹﾝ","kana_city":"ｼﾞｮｳｿｳｼ","kana_address":"ﾓﾄﾄﾖﾀﾞ","pref":"茨城県","city":"常総市","address":"本豊田"},
{"zip_code":"3002715","kana_pref":"ｲﾊﾞﾗｷｹﾝ","kana_city":"ｼﾞｮｳｿｳｼ","kana_address":"ﾔﾏｸﾞﾁ","pref":"茨城県","city":"常総市","address":"山口"},
{"zip_code":"3002522","kana_pref":"ｲﾊﾞﾗｷｹﾝ","kana_city":"ｼﾞｮｳｿｳｼ","kana_address":"ﾖｺｿﾞﾈｼﾝﾃﾞﾝﾏﾁ","pref":"茨城県","city":"常総市","address":"横曽根新田町"},
{"zip_code":"3002701","kana_pref":"ｲﾊﾞﾗｷｹﾝ","kana_city":"ｼﾞｮｳｿｳｼ","kana_address":"ﾜｶﾐﾔﾄﾞ","pref":"茨城県","city":"常総市","address":"若宮戸"},
{"zip_code":"3001523","kana_pref":"ｲﾊﾞﾗｷｹﾝ","kana_city":"ﾄﾘﾃﾞｼ","kana_address":"ｵｵﾄﾞﾒ","pref":"茨城県","city":"取手市","address":"大留"},
{"zip_code":"3001503","kana_pref":"ｲﾊﾞﾗｷｹﾝ","kana_city":"ﾄﾘﾃﾞｼ","kana_address":"ｵｵﾏｶﾞﾘ","pref":"茨城県","city":"取手市","address":"大曲"},
{"zip_code":"3001546","kana_pref":"ｲﾊﾞﾗｷｹﾝ","kana_city":"ﾄﾘﾃﾞｼ","kana_address":"ｵｶ","pref":"茨城県","city":"取手市","address":"岡"},
{"zip_code":"3001521","kana_pref":"ｲﾊﾞﾗｷｹﾝ","kana_city":"ﾄﾘﾃﾞｼ","kana_address":"ｵｼｷﾘ","pref":"茨城県","city":"取手市","address":"押切"},
{"zip_code":"3001542","kana_pref":"ｲﾊﾞﾗｷｹﾝ","kana_city":"ﾄﾘﾃﾞｼ","kana_address":"ｶｽﾐ","pref":"茨城県","city":"取手市","address":"神住"},
{"zip_code":"3001513","kana_pref":"ｲﾊﾞﾗｷｹﾝ","kana_city":"ﾄﾘﾃﾞｼ","kana_address":"ｶﾀﾏﾁ","pref":"茨城県","city":"取手市","address":"片町"},
{"zip_code":"3001506","kana_pref":"ｲﾊﾞﾗｷｹﾝ","kana_city":"ﾄﾘﾃﾞｼ","kana_address":"ｶﾐｶﾔﾊﾞ","pref":"茨城県","city":"取手市","address":"上萱場"},
{"zip_code":"3001504","kana_pref":"ｲﾊﾞﾗｷｹﾝ","kana_city":"ﾄﾘﾃﾞｼ","kana_address":"ｶﾔﾊﾞ","pref":"茨城県","city":"取手市","address":"萱場"},
{"zip_code":"3001524","kana_pref":"ｲﾊﾞﾗｷｹﾝ","kana_city":"ﾄﾘﾃﾞｼ","kana_address":"ｶﾝﾉｳﾗ","pref":"茨城県","city":"取手市","address":"神浦"},
{"zip_code":"3001511","kana_pref":"ｲﾊﾞﾗｷｹﾝ","kana_city":"ﾄﾘﾃﾞｼ","kana_address":"ｸﾇｷﾞ","pref":"茨城県","city":"取手市","address":"椚木"},
{"zip_code":"3001537","kana_pref":"ｲﾊﾞﾗｷｹﾝ","kana_city":"ﾄﾘﾃﾞｼ","kana_address":"ｹｱﾘ","pref":"茨城県","city":"取手市","address":"毛有"},
{"zip_code":"3001539","kana_pref":"ｲﾊﾞﾗｷｹﾝ","kana_city":"ﾄﾘﾃﾞｼ","kana_address":"ｺｲｽﾞﾐ","pref":"茨城県","city":"取手市","address":"小泉"},
{"zip_code":"3001536","kana_pref":"ｲﾊﾞﾗｷｹﾝ","kana_city":"ﾄﾘﾃﾞｼ","kana_address":"ｺｳﾌｳﾀﾞｲ","pref":"茨城県","city":"取手市","address":"光風台"},
{"zip_code":"3001531","kana_pref":"ｲﾊﾞﾗｷｹﾝ","kana_city":"ﾄﾘﾃﾞｼ","kana_address":"ｺﾌﾞｹ","pref":"茨城県","city":"取手市","address":"小浮気"},
{"zip_code":"3001525","kana_pref":"ｲﾊﾞﾗｷｹﾝ","kana_city":"ﾄﾘﾃﾞｼ","kana_address":"ｻｸﾗｶﾞｵｶ","pref":"茨城県","city":"取手市","address":"桜が丘"},
{"zip_code":"3001544","kana_pref":"ｲﾊﾞﾗｷｹﾝ","kana_city":"ﾄﾘﾃﾞｼ","kana_address":"ｻﾝﾉｳ","pref":"茨城県","city":"取手市","address":"山王"},
{"zip_code":"3001508","kana_pref":"ｲﾊﾞﾗｷｹﾝ","kana_city":"ﾄﾘﾃﾞｼ","kana_address":"ｼｽｲ","pref":"茨城県","city":"取手市","address":"紫水"},
{"zip_code":"3001534","kana_pref":"ｲﾊﾞﾗｷｹﾝ","kana_city":"ﾄﾘﾃﾞｼ","kana_address":"ｼﾌﾞﾇﾏ","pref":"茨城県","city":"取手市","address":"渋沼"},
{"zip_code":"3001535","kana_pref":"ｲﾊﾞﾗｷｹﾝ","kana_city":"ﾄﾘﾃﾞｼ","kana_address":"ｼﾐｽﾞ","pref":"茨城県","city":"取手市","address":"清水"},
{"zip_code":"3001505","kana_pref":"ｲﾊﾞﾗｷｹﾝ","kana_city":"ﾄﾘﾃﾞｼ","kana_address":"ｼﾓｶﾔﾊﾞ","pref":"茨城県","city":"取手市","address":"下萱場"},
{"zip_code":"3001502","kana_pref":"ｲﾊﾞﾗｷｹﾝ","kana_city":"ﾄﾘﾃﾞｼ","kana_address":"ｼﾝｶﾜ","pref":"茨城県","city":"取手市","address":"新川"},
{"zip_code":"3001522","kana_pref":"ｲﾊﾞﾗｷｹﾝ","kana_city":"ﾄﾘﾃﾞｼ","kana_address":"ﾀｶｽ","pref":"茨城県","city":"取手市","address":"高須"},
{"zip_code":"3001543","kana_pref":"ｲﾊﾞﾗｷｹﾝ","kana_city":"ﾄﾘﾃﾞｼ","kana_address":"ﾅｶｳﾁ","pref":"茨城県","city":"取手市","address":"中内"},
{"zip_code":"3001533","kana_pref":"ｲﾊﾞﾗｷｹﾝ","kana_city":"ﾄﾘﾃﾞｼ","kana_address":"ﾅｶﾀ","pref":"茨城県","city":"取手市","address":"中田"},
{"zip_code":"3001541","kana_pref":"ｲﾊﾞﾗｷｹﾝ","kana_city":"ﾄﾘﾃﾞｼ","kana_address":"ﾊｲﾏﾂ","pref":"茨城県","city":"取手市","address":"配松"},
{"zip_code":"3001507","kana_pref":"ｲﾊﾞﾗｷｹﾝ","kana_city":"ﾄﾘﾃﾞｼ","kana_address":"ﾊﾏﾀﾞ","pref":"茨城県","city":"取手市","address":"浜田"},
{"zip_code":"3001515","kana_pref":"ｲﾊﾞﾗｷｹﾝ","kana_city":"ﾄﾘﾃﾞｼ","kana_address":"ﾋﾗﾉ","pref":"茨城県","city":"取手市","address":"平野"},
{"zip_code":"3001512","kana_pref":"ｲﾊﾞﾗｷｹﾝ","kana_city":"ﾄﾘﾃﾞｼ","kana_address":"ﾌｼﾞｼﾛ","pref":"茨城県","city":"取手市","address":"藤代"},
{"zip_code":"3001516","kana_pref":"ｲﾊﾞﾗｷｹﾝ","kana_city":"ﾄﾘﾃﾞｼ","kana_address":"ﾌｼﾞｼﾛﾐﾅﾐ","pref":"茨城県","city":"取手市","address":"藤代南"},
{"zip_code":"3001501","kana_pref":"ｲﾊﾞﾗｷｹﾝ","kana_city":"ﾄﾘﾃﾞｼ","kana_address":"ﾌﾀﾊﾞ","pref":"茨城県","city":"取手市","address":"双葉"},
{"zip_code":"3001514","kana_pref":"ｲﾊﾞﾗｷｹﾝ","kana_city":"ﾄﾘﾃﾞｼ","kana_address":"ﾐﾔﾜﾀﾞ","pref":"茨城県","city":"取手市","address":"宮和田"},
{"zip_code":"3001532","kana_pref":"ｲﾊﾞﾗｷｹﾝ","kana_city":"ﾄﾘﾃﾞｼ","kana_address":"ﾔﾅｶ","pref":"茨城県","city":"取手市","address":"谷中"},
{"zip_code":"3001538","kana_pref":"ｲﾊﾞﾗｷｹﾝ","kana_city":"ﾄﾘﾃﾞｼ","kana_address":"ﾖﾈﾀﾞ","pref":"茨城県","city":"取手市","address":"米田"},
{"zip_code":"3001545","kana_pref":"ｲﾊﾞﾗｷｹﾝ","kana_city":"ﾄﾘﾃﾞｼ","kana_address":"ﾜﾀﾞ","pref":"茨城県","city":"取手市","address":"和田"},
{"zip_code":"3001200","kana_pref":"ｲﾊﾞﾗｷｹﾝ","kana_city":"ｳｼｸｼ","kana_address":"","pref":"茨城県","city":"牛久市","address":""},
{"zip_code":"3001282","kana_pref":"ｲﾊﾞﾗｷｹﾝ","kana_city":"ｳｼｸｼ","kana_address":"ｲﾉｵｶﾁｮｳ","pref":"茨城県","city":"牛久市","address":"井ノ岡町"},
{"zip_code":"3001221","kana_pref":"ｲﾊﾞﾗｷｹﾝ","kana_city":"ｳｼｸｼ","kana_address":"ｳｼｸﾁｮｳ","pref":"茨城県","city":"牛久市","address":"牛久町"},
{"zip_code":"3001204","kana_pref":"ｲﾊﾞﾗｷｹﾝ","kana_city":"ｳｼｸｼ","kana_address":"ｵｶﾐﾁｮｳ","pref":"茨城県","city":"牛久市","address":"岡見町"},
{"zip_code":"3001283","kana_pref":"ｲﾊﾞﾗｷｹﾝ","kana_city":"ｳｼｸｼ","kana_address":"ｵｸﾊﾞﾗﾁｮｳ","pref":"茨城県","city":"牛久市","address":"奥原町"},
{"zip_code":"3001286","kana_pref":"ｲﾊﾞﾗｷｹﾝ","kana_city":"ｳｼｸｼ","kana_address":"ｵｻｶﾁｮｳ","pref":"茨城県","city":"牛久市","address":"小坂町"},
{"zip_code":"3001214","kana_pref":"ｲﾊﾞﾗｷｹﾝ","kana_city":"ｳｼｸｼ","kana_address":"ｵﾅﾊﾞｹﾁｮｳ","pref":"茨城県","city":"牛久市","address":"女化町"},
{"zip_code":"3001211","kana_pref":"ｲﾊﾞﾗｷｹﾝ","kana_city":"ｳｼｸｼ","kana_address":"ｶｼﾜﾀﾞﾁｮｳ","pref":"茨城県","city":"牛久市","address":"柏田町"},
{"zip_code":"3001281","kana_pref":"ｲﾊﾞﾗｷｹﾝ","kana_city":"ｳｼｸｼ","kana_address":"ｶﾂﾗﾁｮｳ","pref":"茨城県","city":"牛久市","address":"桂町"},
{"zip_code":"3001213","kana_pref":"ｲﾊﾞﾗｷｹﾝ","kana_city":"ｳｼｸｼ","kana_address":"ｶﾐｵｵﾀﾁｮｳ","pref":"茨城県","city":"牛久市","address":"上太田町"},
{"zip_code":"3001232","kana_pref":"ｲﾊﾞﾗｷｹﾝ","kana_city":"ｳｼｸｼ","kana_address":"ｶﾐｶｼﾜﾀﾞ","pref":"茨城県","city":"牛久市","address":"上柏田"},
{"zip_code":"3001216","kana_pref":"ｲﾊﾞﾗｷｹﾝ","kana_city":"ｳｼｸｼ","kana_address":"ｶﾐﾔ","pref":"茨城県","city":"牛久市","address":"神谷"},
{"zip_code":"3001235","kana_pref":"ｲﾊﾞﾗｷｹﾝ","kana_city":"ｳｼｸｼ","kana_address":"ｶﾘﾔﾁｮｳ","pref":"茨城県","city":"牛久市","address":"刈谷町"},
{"zip_code":"3001288","kana_pref":"ｲﾊﾞﾗｷｹﾝ","kana_city":"ｳｼｸｼ","kana_address":"ｸﾉﾁｮｳ","pref":"茨城県","city":"牛久市","address":"久野町"},
{"zip_code":"3001212","kana_pref":"ｲﾊﾞﾗｷｹﾝ","kana_city":"ｳｼｸｼ","kana_address":"ｹｯｿｸﾁｮｳ","pref":"茨城県","city":"牛久市","address":"結束町"},
{"zip_code":"3001233","kana_pref":"ｲﾊﾞﾗｷｹﾝ","kana_city":"ｳｼｸｼ","kana_address":"ｻｶｴﾁｮｳ","pref":"茨城県","city":"牛久市","address":"栄町"},
{"zip_code":"3001217","kana_pref":"ｲﾊﾞﾗｷｹﾝ","kana_city":"ｳｼｸｼ","kana_address":"ｻｸﾗﾀﾞｲ","pref":"茨城県","city":"牛久市","address":"さくら台"},
{"zip_code":"3001231","kana_pref":"ｲﾊﾞﾗｷｹﾝ","kana_city":"ｳｼｸｼ","kana_address":"ｼｼｺﾁｮｳ","pref":"茨城県","city":"牛久市","address":"猪子町"},
{"zip_code":"3001284","kana_pref":"ｲﾊﾞﾗｷｹﾝ","kana_city":"ｳｼｸｼ","kana_address":"ｼﾏﾀﾞﾁｮｳ","pref":"茨城県","city":"牛久市","address":"島田町"},
{"zip_code":"3001203","kana_pref":"ｲﾊﾞﾗｷｹﾝ","kana_city":"ｳｼｸｼ","kana_address":"ｼﾓﾈﾁｮｳ","pref":"茨城県","city":"牛久市","address":"下根町"},
{"zip_code":"3001285","kana_pref":"ｲﾊﾞﾗｷｹﾝ","kana_city":"ｳｼｸｼ","kana_address":"ｼｮｳｼﾞｷﾁｮｳ","pref":"茨城県","city":"牛久市","address":"正直町"},
{"zip_code":"3001223","kana_pref":"ｲﾊﾞﾗｷｹﾝ","kana_city":"ｳｼｸｼ","kana_address":"ｼﾞｮｳﾁｭｳﾁｮｳ","pref":"茨城県","city":"牛久市","address":"城中町"},
{"zip_code":"3001224","kana_pref":"ｲﾊﾞﾗｷｹﾝ","kana_city":"ｳｼｸｼ","kana_address":"ｼｮｳﾍﾞｴｼﾝﾃﾞﾝﾁｮｳ","pref":"茨城県","city":"牛久市","address":"庄兵衛新田町"},
{"zip_code":"3001225","kana_pref":"ｲﾊﾞﾗｷｹﾝ","kana_city":"ｳｼｸｼ","kana_address":"ｼﾝﾁﾁｮｳ","pref":"茨城県","city":"牛久市","address":"新地町"},
{"zip_code":"3001237","kana_pref":"ｲﾊﾞﾗｷｹﾝ","kana_city":"ｳｼｸｼ","kana_address":"ﾀｸﾞｳ","pref":"茨城県","city":"牛久市","address":"田宮"},
{"zip_code":"3001236","kana_pref":"ｲﾊﾞﾗｷｹﾝ","kana_city":"ｳｼｸｼ","kana_address":"ﾀｸﾞｳﾁｮｳ","pref":"茨城県","city":"牛久市","address":"田宮町"},
{"zip_code":"3001234","kana_pref":"ｲﾊﾞﾗｷｹﾝ","kana_city":"ｳｼｸｼ","kana_address":"ﾁｭｳｵｳ","pref":"茨城県","city":"牛久市","address":"中央"},
{"zip_code":"3001215","kana_pref":"ｲﾊﾞﾗｷｹﾝ","kana_city":"ｳｼｸｼ","kana_address":"ﾄｵﾔﾏﾁｮｳ","pref":"茨城県","city":"牛久市","address":"遠山町"},
{"zip_code":"3001202","kana_pref":"ｲﾊﾞﾗｷｹﾝ","kana_city":"ｳｼｸｼ","kana_address":"ﾅｶﾈﾁｮｳ","pref":"茨城県","city":"牛久市","address":"中根町"},
{"zip_code":"3001205","kana_pref":"ｲﾊﾞﾗｷｹﾝ","kana_city":"ｳｼｸｼ","kana_address":"ﾋｶﾞｼｵｵﾜﾀﾞﾁｮｳ","pref":"茨城県","city":"牛久市","address":"東大和田町"},
{"zip_code":"3001201","kana_pref":"ｲﾊﾞﾗｷｹﾝ","kana_city":"ｳｼｸｼ","kana_address":"ﾋｶﾞｼﾏﾐｱﾅﾁｮｳ","pref":"茨城県","city":"牛久市","address":"東猯穴町"},
{"zip_code":"3001206","kana_pref":"ｲﾊﾞﾗｷｹﾝ","kana_city":"ｳｼｸｼ","kana_address":"ﾋﾀﾁﾉﾆｼ","pref":"茨城県","city":"牛久市","address":"ひたち野西"},
{"zip_code":"3001207","kana_pref":"ｲﾊﾞﾗｷｹﾝ","kana_city":"ｳｼｸｼ","kana_address":"ﾋﾀﾁﾉﾋｶﾞｼ","pref":"茨城県","city":"牛久市","address":"ひたち野東"},
{"zip_code":"3001287","kana_pref":"ｲﾊﾞﾗｷｹﾝ","kana_city":"ｳｼｸｼ","kana_address":"ﾌｸﾀﾞﾁｮｳ","pref":"茨城県","city":"牛久市","address":"福田町"},
{"zip_code":"3001222","kana_pref":"ｲﾊﾞﾗｷｹﾝ","kana_city":"ｳｼｸｼ","kana_address":"ﾐﾅﾐ","pref":"茨城県","city":"牛久市","address":"南"},
{"zip_code":"3004203","kana_pref":"ｲﾊﾞﾗｷｹﾝ","kana_city":"ﾂｸﾊﾞｼ","kana_address":"ｱｹｼ","pref":"茨城県","city":"つくば市","address":"明石"},
{"zip_code":"3002632","kana_pref":"ｲﾊﾞﾗｷｹﾝ","kana_city":"ﾂｸﾊﾞｼ","kana_address":"ｱｻﾋ","pref":"茨城県","city":"つくば市","address":"旭"},
{"zip_code":"3004205","kana_pref":"ｲﾊﾞﾗｷｹﾝ","kana_city":"ﾂｸﾊﾞｼ","kana_address":"ｱｼﾞｷ","pref":"茨城県","city":"つくば市","address":"安食"},
{"zip_code":"3001261","kana_pref":"ｲﾊﾞﾗｷｹﾝ","kana_city":"ﾂｸﾊﾞｼ","kana_address":"ｱｼﾋﾞﾉ","pref":"茨城県","city":"つくば市","address":"あしび野"},
{"zip_code":"3001253","kana_pref":"ｲﾊﾞﾗｷｹﾝ","kana_city":"ﾂｸﾊﾞｼ","kana_address":"ｱﾏﾎﾞｳｷ","pref":"茨城県","city":"つくば市","address":"天宝喜"},
{"zip_code":"3004243","kana_pref":"ｲﾊﾞﾗｷｹﾝ","kana_city":"ﾂｸﾊﾞｼ","kana_address":"ｲｹﾀﾞ","pref":"茨城県","city":"つくば市","address":"池田"},
{"zip_code":"3001240","kana_pref":"ｲﾊﾞﾗｷｹﾝ","kana_city":"ﾂｸﾊﾞｼ","kana_address":"ｲｹﾉﾀﾞｲ","pref":"茨城県","city":"つくば市","address":"池の台"},
{"zip_code":"3001269","kana_pref":"ｲﾊﾞﾗｷｹﾝ","kana_city":"ﾂｸﾊﾞｼ","kana_address":"ｲｹﾑｶｲ","pref":"茨城県","city":"つくば市","address":"池向"},
{"zip_code":"3004235","kana_pref":"ｲﾊﾞﾗｷｹﾝ","kana_city":"ﾂｸﾊﾞｼ","kana_address":"ｲｽﾞﾐ","pref":"茨城県","city":"つくば市","address":"泉"},
{"zip_code":"3004248","kana_pref":"ｲﾊﾞﾗｷｹﾝ","kana_city":"ﾂｸﾊﾞｼ","kana_address":"ｲｿﾍﾞ","pref":"茨城県","city":"つくば市","address":"磯部"},
{"zip_code":"3001259","kana_pref":"ｲﾊﾞﾗｷｹﾝ","kana_city":"ﾂｸﾊﾞｼ","kana_address":"ｲﾅﾘﾊﾗ","pref":"茨城県","city":"つくば市","address":"稲荷原"},
{"zip_code":"3002641","kana_pref":"ｲﾊﾞﾗｷｹﾝ","kana_city":"ﾂｸﾊﾞｼ","kana_address":"ｲﾏｶｼﾏ","pref":"茨城県","city":"つくば市","address":"今鹿島"},
{"zip_code":"3004211","kana_pref":"ｲﾊﾞﾗｷｹﾝ","kana_city":"ﾂｸﾊﾞｼ","kana_address":"ｳｽｲ","pref":"茨城県","city":"つくば市","address":"臼井"},
{"zip_code":"3001275","kana_pref":"ｲﾊﾞﾗｷｹﾝ","kana_city":"ﾂｸﾊﾞｼ","kana_address":"ｳﾒｶﾞｵｶ","pref":"茨城県","city":"つくば市","address":"梅ケ丘"},
{"zip_code":"3004216","kana_pref":"ｲﾊﾞﾗｷｹﾝ","kana_city":"ﾂｸﾊﾞｼ","kana_address":"ｳﾙｼｼﾞｮ","pref":"茨城県","city":"つくば市","address":"漆所"},
{"zip_code":"3001243","kana_pref":"ｲﾊﾞﾗｷｹﾝ","kana_city":"ﾂｸﾊﾞｼ","kana_address":"ｵｵｲ","pref":"茨城県","city":"つくば市","address":"大井"},
{"zip_code":"3004221","kana_pref":"ｲﾊﾞﾗｷｹﾝ","kana_city":"ﾂｸﾊﾞｼ","kana_address":"ｵｵｶﾞﾀ","pref":"茨城県","city":"つくば市","address":"大形"},
{"zip_code":"3002611","kana_pref":"ｲﾊﾞﾗｷｹﾝ","kana_city":"ﾂｸﾊﾞｼ","kana_address":"ｵｵｸﾎﾞ","pref":"茨城県","city":"つくば市","address":"大久保"},
{"zip_code":"3002612","kana_pref":"ｲﾊﾞﾗｷｹﾝ","kana_city":"ﾂｸﾊﾞｼ","kana_address":"ｵｵｽﾅ","pref":"茨城県","city":"つくば市","address":"大砂"},
{"zip_code":"3003253","kana_pref":"ｲﾊﾞﾗｷｹﾝ","kana_city":"ﾂｸﾊﾞｼ","kana_address":"ｵｵｿﾞﾈ","pref":"茨城県","city":"つくば市","address":"大曽根"},
{"zip_code":"3004218","kana_pref":"ｲﾊﾞﾗｷｹﾝ","kana_city":"ﾂｸﾊﾞｼ","kana_address":"ｵｵﾇｷ","pref":"茨城県","city":"つくば市","address":"大貫"},
{"zip_code":"3001267","kana_pref":"ｲﾊﾞﾗｷｹﾝ","kana_city":"ﾂｸﾊﾞｼ","kana_address":"ｵｵﾌﾅﾄ","pref":"茨城県","city":"つくば市","address":"大舟戸"},
{"zip_code":"3003256","kana_pref":"ｲﾊﾞﾗｷｹﾝ","kana_city":"ﾂｸﾊﾞｼ","kana_address":"ｵｵﾎ","pref":"茨城県","city":"つくば市","address":"大穂"},
{"zip_code":"3001255","kana_pref":"ｲﾊﾞﾗｷｹﾝ","kana_city":"ﾂｸﾊﾞｼ","kana_address":"ｵｸﾞｷ","pref":"茨城県","city":"つくば市","address":"小茎"},
{"zip_code":"3003265","kana_pref":"ｲﾊﾞﾗｷｹﾝ","kana_city":"ﾂｸﾊﾞｼ","kana_address":"ｵｻｺﾞｳﾔ","pref":"茨城県","city":"つくば市","address":"長高野"},
{"zip_code":"3004215","kana_pref":"ｲﾊﾞﾗｷｹﾝ","kana_city":"ﾂｸﾊﾞｼ","kana_address":"ｵｻﾞﾜ","pref":"茨城県","city":"つくば市","address":"小沢"},
{"zip_code":"3004223","kana_pref":"ｲﾊﾞﾗｷｹﾝ","kana_city":"ﾂｸﾊﾞｼ","kana_address":"ｵﾀﾞ","pref":"茨城県","city":"つくば市","address":"小田"},
{"zip_code":"3002651","kana_pref":"ｲﾊﾞﾗｷｹﾝ","kana_city":"ﾂｸﾊﾞｼ","kana_address":"ｵﾆｶﾞｸﾎﾞ","pref":"茨城県","city":"つくば市","address":"鬼ケ窪"},
{"zip_code":"3002653","kana_pref":"ｲﾊﾞﾗｷｹﾝ","kana_city":"ﾂｸﾊﾞｼ","kana_address":"ｵﾓﾉｲ","pref":"茨城県","city":"つくば市","address":"面野井"},
{"zip_code":"3003254","kana_pref":"ｲﾊﾞﾗｷｹﾝ","kana_city":"ﾂｸﾊﾞｼ","kana_address":"ｶｼﾏﾀﾞｲ","pref":"茨城県","city":"つくば市","address":"鹿島台"},
{"zip_code":"3002657","kana_pref":"ｲﾊﾞﾗｷｹﾝ","kana_city":"ﾂｸﾊﾞｼ","kana_address":"ｶﾄﾘﾀﾞｲ","pref":"茨城県","city":"つくば市","address":"香取台"},
{"zip_code":"3002622","kana_pref":"ｲﾊﾞﾗｷｹﾝ","kana_city":"ﾂｸﾊﾞｼ","kana_address":"ｶﾅﾒ","pref":"茨城県","city":"つくば市","address":"要"},
{"zip_code":"3001274","kana_pref":"ｲﾊﾞﾗｷｹﾝ","kana_city":"ﾂｸﾊﾞｼ","kana_address":"ｶﾐｲﾜｻｷ","pref":"茨城県","city":"つくば市","address":"上岩崎"},
{"zip_code":"3004351","kana_pref":"ｲﾊﾞﾗｷｹﾝ","kana_city":"ﾂｸﾊﾞｼ","kana_address":"ｶﾐｵｵｼﾏ","pref":"茨城県","city":"つくば市","address":"上大島"},
{"zip_code":"3002668","kana_pref":"ｲﾊﾞﾗｷｹﾝ","kana_city":"ﾂｸﾊﾞｼ","kana_address":"ｶﾐｶﾜ","pref":"茨城県","city":"つくば市","address":"かみかわ"},
{"zip_code":"3002661","kana_pref":"ｲﾊﾞﾗｷｹﾝ","kana_city":"ﾂｸﾊﾞｼ","kana_address":"ｶﾐｶﾜﾗｻﾞｷ","pref":"茨城県","city":"つくば市","address":"上河原崎"},
{"zip_code":"3002645","kana_pref":"ｲﾊﾞﾗｷｹﾝ","kana_city":"ﾂｸﾊﾞｼ","kana_address":"ｶﾐｺﾞｳ","pref":"茨城県","city":"つくば市","address":"上郷"},
{"zip_code":"3002614","kana_pref":"ｲﾊﾞﾗｷｹﾝ","kana_city":"ﾂｸﾊﾞｼ","kana_address":"ｶﾐｻﾄ","pref":"茨城県","city":"つくば市","address":"上里"},
{"zip_code":"3004246","kana_pref":"ｲﾊﾞﾗｷｹﾝ","kana_city":"ﾂｸﾊﾞｼ","kana_address":"ｶﾐｻﾜ","pref":"茨城県","city":"つくば市","address":"上沢"},
{"zip_code":"3004241","kana_pref":"ｲﾊﾞﾗｷｹﾝ","kana_city":"ﾂｸﾊﾞｼ","kana_address":"ｶﾐｽｶﾞﾏ","pref":"茨城県","city":"つくば市","address":"上菅間"},
{"zip_code":"3004212","kana_pref":"ｲﾊﾞﾗｷｹﾝ","kana_city":"ﾂｸﾊﾞｼ","kana_address":"ｶﾝｺﾞｵﾘ","pref":"茨城県","city":"つくば市","address":"神郡"},
{"zip_code":"3004232","kana_pref":"ｲﾊﾞﾗｷｹﾝ","kana_city":"ﾂｸﾊﾞｼ","kana_address":"ｷﾀｵｵﾀ","pref":"茨城県","city":"つくば市","address":"北太田"},
{"zip_code":"3003266","kana_pref":"ｲﾊﾞﾗｷｹﾝ","kana_city":"ﾂｸﾊﾞｼ","kana_address":"ｷﾀﾊﾗ","pref":"茨城県","city":"つくば市","address":"北原"},
{"zip_code":"3004233","kana_pref":"ｲﾊﾞﾗｷｹﾝ","kana_city":"ﾂｸﾊﾞｼ","kana_address":"ｷﾐｼﾞﾏ","pref":"茨城県","city":"つくば市","address":"君島"},
{"zip_code":"3001272","kana_pref":"ｲﾊﾞﾗｷｹﾝ","kana_city":"ﾂｸﾊﾞｼ","kana_address":"ｸｷｻﾞｷ","pref":"茨城県","city":"つくば市","address":"茎崎"},
{"zip_code":"3004354","kana_pref":"ｲﾊﾞﾗｷｹﾝ","kana_city":"ﾂｸﾊﾞｼ","kana_address":"ｸﾆﾏﾂ","pref":"茨城県","city":"つくば市","address":"国松"},
{"zip_code":"3001262","kana_pref":"ｲﾊﾞﾗｷｹﾝ","kana_city":"ﾂｸﾊﾞｼ","kana_address":"ｸﾏﾝﾂﾎﾞ","pref":"茨城県","city":"つくば市","address":"九万坪"},
{"zip_code":"3004236","kana_pref":"ｲﾊﾞﾗｷｹﾝ","kana_city":"ﾂｸﾊﾞｼ","kana_address":"ｺｲｽﾞﾐ","pref":"茨城県","city":"つくば市","address":"小泉"},
{"zip_code":"3002642","kana_pref":"ｲﾊﾞﾗｷｹﾝ","kana_city":"ﾂｸﾊﾞｼ","kana_address":"ｺｳﾔ","pref":"茨城県","city":"つくば市","address":"高野"},
{"zip_code":"3004202","kana_pref":"ｲﾊﾞﾗｷｹﾝ","kana_city":"ﾂｸﾊﾞｼ","kana_address":"ｺｳﾔﾊﾗｼﾝﾃﾞﾝ","pref":"茨城県","city":"つくば市","address":"高野原新田"},
{"zip_code":"3002616","kana_pref":"ｲﾊﾞﾗｷｹﾝ","kana_city":"ﾂｸﾊﾞｼ","kana_address":"ｺﾞﾆﾝｳｹ","pref":"茨城県","city":"つくば市","address":"五人受"},
{"zip_code":"3002644","kana_pref":"ｲﾊﾞﾗｷｹﾝ","kana_city":"ﾂｸﾊﾞｼ","kana_address":"ｺﾉﾏﾀ","pref":"茨城県","city":"つくば市","address":"木俣"},
{"zip_code":"3001277","kana_pref":"ｲﾊﾞﾗｷｹﾝ","kana_city":"ﾂｸﾊﾞｼ","kana_address":"ｺﾏｺﾞﾒ","pref":"茨城県","city":"つくば市","address":"駒込"},
{"zip_code":"3001276","kana_pref":"ｲﾊﾞﾗｷｹﾝ","kana_city":"ﾂｸﾊﾞｼ","kana_address":"ｺﾔﾏ","pref":"茨城県","city":"つくば市","address":"小山"},
{"zip_code":"3004224","kana_pref":"ｲﾊﾞﾗｷｹﾝ","kana_city":"ﾂｸﾊﾞｼ","kana_address":"ｺﾜﾀﾞ","pref":"茨城県","city":"つくば市","address":"小和田"},
{"zip_code":"3003251","kana_pref":"ｲﾊﾞﾗｷｹﾝ","kana_city":"ﾂｸﾊﾞｼ","kana_address":"ｻ","pref":"茨城県","city":"つくば市","address":"佐"},
{"zip_code":"3001271","kana_pref":"ｲﾊﾞﾗｷｹﾝ","kana_city":"ﾂｸﾊﾞｼ","kana_address":"ｻｸﾗｶﾞｵｶ","pref":"茨城県","city":"つくば市","address":"桜が丘"},
{"zip_code":"3002637","kana_pref":"ｲﾊﾞﾗｷｹﾝ","kana_city":"ﾂｸﾊﾞｼ","kana_address":"ｻｹﾏﾙ","pref":"茨城県","city":"つくば市","address":"酒丸"},
{"zip_code":"3003264","kana_pref":"ｲﾊﾞﾗｷｹﾝ","kana_city":"ﾂｸﾊﾞｼ","kana_address":"ｼﾉｻﾞｷ","pref":"茨城県","city":"つくば市","address":"篠崎"},
{"zip_code":"3002655","kana_pref":"ｲﾊﾞﾗｷｹﾝ","kana_city":"ﾂｸﾊﾞｼ","kana_address":"ｼﾏﾅ","pref":"茨城県","city":"つくば市","address":"島名"},
{"zip_code":"3001273","kana_pref":"ｲﾊﾞﾗｷｹﾝ","kana_city":"ﾂｸﾊﾞｼ","kana_address":"ｼﾓｲﾜｻｷ","pref":"茨城県","city":"つくば市","address":"下岩崎"},
{"zip_code":"3004222","kana_pref":"ｲﾊﾞﾗｷｹﾝ","kana_city":"ﾂｸﾊﾞｼ","kana_address":"ｼﾓｵｵｼﾏ","pref":"茨城県","city":"つくば市","address":"下大島"},
{"zip_code":"3002662","kana_pref":"ｲﾊﾞﾗｷｹﾝ","kana_city":"ﾂｸﾊﾞｼ","kana_address":"ｼﾓｶﾜﾗｻﾞｷ","pref":"茨城県","city":"つくば市","address":"下河原崎"},
{"zip_code":"3002666","kana_pref":"ｲﾊﾞﾗｷｹﾝ","kana_city":"ﾂｸﾊﾞｼ","kana_address":"ｼﾓﾍﾞｯﾌﾟ","pref":"茨城県","city":"つくば市","address":"下別府"},
{"zip_code":"3001266","kana_pref":"ｲﾊﾞﾗｷｹﾝ","kana_city":"ﾂｸﾊﾞｼ","kana_address":"ｼﾞﾕｳｶﾞｵｶ","pref":"茨城県","city":"つくば市","address":"自由ケ丘"},
{"zip_code":"3001251","kana_pref":"ｲﾊﾞﾗｷｹﾝ","kana_city":"ﾂｸﾊﾞｼ","kana_address":"ｼﾛﾔﾏ","pref":"茨城県","city":"つくば市","address":"城山"},
{"zip_code":"3001246","kana_pref":"ｲﾊﾞﾗｷｹﾝ","kana_city":"ﾂｸﾊﾞｼ","kana_address":"ｽｶﾞﾏ","pref":"茨城県","city":"つくば市","address":"菅間"},
{"zip_code":"3004217","kana_pref":"ｲﾊﾞﾗｷｹﾝ","kana_city":"ﾂｸﾊﾞｼ","kana_address":"ｽｷﾞﾉｷ","pref":"茨城県","city":"つくば市","address":"杉木"},
{"zip_code":"3002658","kana_pref":"ｲﾊﾞﾗｷｹﾝ","kana_city":"ﾂｸﾊﾞｼ","kana_address":"ｽﾜ","pref":"茨城県","city":"つくば市","address":"諏訪"},
{"zip_code":"3001245","kana_pref":"ｲﾊﾞﾗｷｹﾝ","kana_city":"ﾂｸﾊﾞｼ","kana_address":"ﾀｶｻｷ","pref":"茨城県","city":"つくば市","address":"高崎"},
{"zip_code":"3002665","kana_pref":"ｲﾊﾞﾗｷｹﾝ","kana_city":"ﾂｸﾊﾞｼ","kana_address":"ﾀｶｽｶ","pref":"茨城県","city":"つくば市","address":"高須賀"},
{"zip_code":"3002652","kana_pref":"ｲﾊﾞﾗｷｹﾝ","kana_city":"ﾂｸﾊﾞｼ","kana_address":"ﾀｶﾀ","pref":"茨城県","city":"つくば市","address":"高田"},
{"zip_code":"3001252","kana_pref":"ｲﾊﾞﾗｷｹﾝ","kana_city":"ﾂｸﾊﾞｼ","kana_address":"ﾀｶﾐﾊﾗ","pref":"茨城県","city":"つくば市","address":"高見原"},
{"zip_code":"3002669","kana_pref":"ｲﾊﾞﾗｷｹﾝ","kana_city":"ﾂｸﾊﾞｼ","kana_address":"ﾀｶﾔﾏ","pref":"茨城県","city":"つくば市","address":"高山"},
{"zip_code":"3002664","kana_pref":"ｲﾊﾞﾗｷｹﾝ","kana_city":"ﾂｸﾊﾞｼ","kana_address":"ﾀｶﾗﾀﾞ","pref":"茨城県","city":"つくば市","address":"高良田"},
{"zip_code":"3002615","kana_pref":"ｲﾊﾞﾗｷｹﾝ","kana_city":"ﾂｸﾊﾞｼ","kana_address":"ﾀｸﾗ","pref":"茨城県","city":"つくば市","address":"田倉"},
{"zip_code":"3003263","kana_pref":"ｲﾊﾞﾗｷｹﾝ","kana_city":"ﾂｸﾊﾞｼ","kana_address":"ﾀﾁﾊﾗ","pref":"茨城県","city":"つくば市","address":"立原"},
{"zip_code":"3004244","kana_pref":"ｲﾊﾞﾗｷｹﾝ","kana_city":"ﾂｸﾊﾞｼ","kana_address":"ﾀﾅｶ","pref":"茨城県","city":"つくば市","address":"田中"},
{"zip_code":"3003255","kana_pref":"ｲﾊﾞﾗｷｹﾝ","kana_city":"ﾂｸﾊﾞｼ","kana_address":"ﾀﾏﾄﾘ","pref":"茨城県","city":"つくば市","address":"玉取"},
{"zip_code":"3004251","kana_pref":"ｲﾊﾞﾗｷｹﾝ","kana_city":"ﾂｸﾊﾞｼ","kana_address":"ﾀﾐﾔﾏ","pref":"茨城県","city":"つくば市","address":"田水山"},
{"zip_code":"3004352","kana_pref":"ｲﾊﾞﾗｷｹﾝ","kana_city":"ﾂｸﾊﾞｼ","kana_address":"ﾂｸﾊﾞ","pref":"茨城県","city":"つくば市","address":"筑波"},
{"zip_code":"3003257","kana_pref":"ｲﾊﾞﾗｷｹﾝ","kana_city":"ﾂｸﾊﾞｼ","kana_address":"ﾂｸﾎ","pref":"茨城県","city":"つくば市","address":"筑穂"},
{"zip_code":"3004204","kana_pref":"ｲﾊﾞﾗｷｹﾝ","kana_city":"ﾂｸﾊﾞｼ","kana_address":"ﾂｸﾘﾔ","pref":"茨城県","city":"つくば市","address":"作谷"},
{"zip_code":"3002636","kana_pref":"ｲﾊﾞﾗｷｹﾝ","kana_city":"ﾂｸﾊﾞｼ","kana_address":"ﾂﾁﾀﾞ","pref":"茨城県","city":"つくば市","address":"土田"},
{"zip_code":"3002647","kana_pref":"ｲﾊﾞﾗｷｹﾝ","kana_city":"ﾂｸﾊﾞｼ","kana_address":"ﾃｺﾞﾏﾙ","pref":"茨城県","city":"つくば市","address":"手子生"},
{"zip_code":"3004201","kana_pref":"ｲﾊﾞﾗｷｹﾝ","kana_city":"ﾂｸﾊﾞｼ","kana_address":"ﾃﾗｸﾞ","pref":"茨城県","city":"つくば市","address":"寺具"},
{"zip_code":"3002635","kana_pref":"ｲﾊﾞﾗｷｹﾝ","kana_city":"ﾂｸﾊﾞｼ","kana_address":"ﾄｳｺｳﾀﾞｲ","pref":"茨城県","city":"つくば市","address":"東光台"},
{"zip_code":"3002633","kana_pref":"ｲﾊﾞﾗｷｹﾝ","kana_city":"ﾂｸﾊﾞｼ","kana_address":"ﾄｵﾋｶﾞｼ","pref":"茨城県","city":"つくば市","address":"遠東"},
{"zip_code":"3002648","kana_pref":"ｲﾊﾞﾗｷｹﾝ","kana_city":"ﾂｸﾊﾞｼ","kana_address":"ﾄﾖｻﾄﾉﾓﾘ","pref":"茨城県","city":"つくば市","address":"豊里の杜"},
{"zip_code":"3004242","kana_pref":"ｲﾊﾞﾗｷｹﾝ","kana_city":"ﾂｸﾊﾞｼ","kana_address":"ﾅｶｽｶﾞﾏ","pref":"茨城県","city":"つくば市","address":"中菅間"},
{"zip_code":"3002634","kana_pref":"ｲﾊﾞﾗｷｹﾝ","kana_city":"ﾂｸﾊﾞｼ","kana_address":"ﾅｶﾋｶﾞｼﾊﾗｼﾝﾃﾞﾝ","pref":"茨城県","city":"つくば市","address":"中東原新田"},
{"zip_code":"3002667","kana_pref":"ｲﾊﾞﾗｷｹﾝ","kana_city":"ﾂｸﾊﾞｼ","kana_address":"ﾅｶﾍﾞｯﾌﾟ","pref":"茨城県","city":"つくば市","address":"中別府"},
{"zip_code":"3001268","kana_pref":"ｲﾊﾞﾗｷｹﾝ","kana_city":"ﾂｸﾊﾞｼ","kana_address":"ﾅｶﾔﾏ","pref":"茨城県","city":"つくば市","address":"中山"},
{"zip_code":"3002663","kana_pref":"ｲﾊﾞﾗｷｹﾝ","kana_city":"ﾂｸﾊﾞｼ","kana_address":"ﾅﾍﾞﾇﾏｼﾝﾃﾞﾝ","pref":"茨城県","city":"つくば市","address":"鍋沼新田"},
{"zip_code":"3001260","kana_pref":"ｲﾊﾞﾗｷｹﾝ","kana_city":"ﾂｸﾊﾞｼ","kana_address":"ﾆｼｵｵｲ","pref":"茨城県","city":"つくば市","address":"西大井"},
{"zip_code":"3002613","kana_pref":"ｲﾊﾞﾗｷｹﾝ","kana_city":"ﾂｸﾊﾞｼ","kana_address":"ﾆｼｺﾞｳﾔ","pref":"茨城県","city":"つくば市","address":"西高野"},
{"zip_code":"3002624","kana_pref":"ｲﾊﾞﾗｷｹﾝ","kana_city":"ﾂｸﾊﾞｼ","kana_address":"ﾆｼｻﾞﾜ","pref":"茨城県","city":"つくば市","address":"西沢"},
{"zip_code":"3001247","kana_pref":"ｲﾊﾞﾗｷｹﾝ","kana_city":"ﾂｸﾊﾞｼ","kana_address":"ﾆｼﾉｻﾜ","pref":"茨城県","city":"つくば市","address":"西の沢"},
{"zip_code":"3002631","kana_pref":"ｲﾊﾞﾗｷｹﾝ","kana_city":"ﾂｸﾊﾞｼ","kana_address":"ﾇﾏｻﾞｷ","pref":"茨城県","city":"つくば市","address":"沼崎"},
{"zip_code":"3004353","kana_pref":"ｲﾊﾞﾗｷｹﾝ","kana_city":"ﾂｸﾊﾞｼ","kana_address":"ﾇﾏﾀ","pref":"茨城県","city":"つくば市","address":"沼田"},
{"zip_code":"3002643","kana_pref":"ｲﾊﾞﾗｷｹﾝ","kana_city":"ﾂｸﾊﾞｼ","kana_address":"ﾉﾊﾞﾀ","pref":"茨城県","city":"つくば市","address":"野畑"},
{"zip_code":"3003262","kana_pref":"ｲﾊﾞﾗｷｹﾝ","kana_city":"ﾂｸﾊﾞｼ","kana_address":"ﾊｽﾇﾏ","pref":"茨城県","city":"つくば市","address":"蓮沼"},
{"zip_code":"3002638","kana_pref":"ｲﾊﾞﾗｷｹﾝ","kana_city":"ﾂｸﾊﾞｼ","kana_address":"ﾊｯｹ","pref":"茨城県","city":"つくば市","address":"百家"},
{"zip_code":"3001264","kana_pref":"ｲﾊﾞﾗｷｹﾝ","kana_city":"ﾂｸﾊﾞｼ","kana_address":"ﾊｯｻｷ","pref":"茨城県","city":"つくば市","address":"泊崎"},
{"zip_code":"3003261","kana_pref":"ｲﾊﾞﾗｷｹﾝ","kana_city":"ﾂｸﾊﾞｼ","kana_address":"ﾊﾅﾊﾞﾀｹ","pref":"茨城県","city":"つくば市","address":"花畑"},
{"zip_code":"3002659","kana_pref":"ｲﾊﾞﾗｷｹﾝ","kana_city":"ﾂｸﾊﾞｼ","kana_address":"ﾊﾞﾝﾊﾟｸｺｳｴﾝﾆｼ","pref":"茨城県","city":"つくば市","address":"万博公園西"},
{"zip_code":"3001242","kana_pref":"ｲﾊﾞﾗｷｹﾝ","kana_city":"ﾂｸﾊﾞｼ","kana_address":"ﾋﾉｻﾜ","pref":"茨城県","city":"つくば市","address":"樋の沢"},
{"zip_code":"3004213","kana_pref":"ｲﾊﾞﾗｷｹﾝ","kana_city":"ﾂｸﾊﾞｼ","kana_address":"ﾋﾗｻﾜ","pref":"茨城県","city":"つくば市","address":"平沢"},
{"zip_code":"3001263","kana_pref":"ｲﾊﾞﾗｷｹﾝ","kana_city":"ﾂｸﾊﾞｼ","kana_address":"ﾌｼﾞﾐﾀﾞｲ","pref":"茨城県","city":"つくば市","address":"富士見台"},
{"zip_code":"3004231","kana_pref":"ｲﾊﾞﾗｷｹﾝ","kana_city":"ﾂｸﾊﾞｼ","kana_address":"ﾎｳｼﾞｮｳ","pref":"茨城県","city":"つくば市","address":"北条"},
{"zip_code":"3001278","kana_pref":"ｲﾊﾞﾗｷｹﾝ","kana_city":"ﾂｸﾊﾞｼ","kana_address":"ﾎﾞｳﾁ","pref":"茨城県","city":"つくば市","address":"房内"},
{"zip_code":"3001254","kana_pref":"ｲﾊﾞﾗｷｹﾝ","kana_city":"ﾂｸﾊﾞｼ","kana_address":"ﾎｳﾖｳﾀﾞｲ","pref":"茨城県","city":"つくば市","address":"宝陽台"},
{"zip_code":"3001265","kana_pref":"ｲﾊﾞﾗｷｹﾝ","kana_city":"ﾂｸﾊﾞｼ","kana_address":"ﾎｿﾐ","pref":"茨城県","city":"つくば市","address":"細見"},
{"zip_code":"3004249","kana_pref":"ｲﾊﾞﾗｷｹﾝ","kana_city":"ﾂｸﾊﾞｼ","kana_address":"ﾎﾗｹﾞ","pref":"茨城県","city":"つくば市","address":"洞下"},
{"zip_code":"3002623","kana_pref":"ｲﾊﾞﾗｷｹﾝ","kana_city":"ﾂｸﾊﾞｼ","kana_address":"ﾎﾝｻﾞﾜ","pref":"茨城県","city":"つくば市","address":"本沢"},
{"zip_code":"3003267","kana_pref":"ｲﾊﾞﾗｷｹﾝ","kana_city":"ﾂｸﾊﾞｼ","kana_address":"ﾏｴﾉ","pref":"茨城県","city":"つくば市","address":"前野"},
{"zip_code":"3001241","kana_pref":"ｲﾊﾞﾗｷｹﾝ","kana_city":"ﾂｸﾊﾞｼ","kana_address":"ﾏｷｿﾞﾉ","pref":"茨城県","city":"つくば市","address":"牧園"},
{"zip_code":"3002656","kana_pref":"ｲﾊﾞﾗｷｹﾝ","kana_city":"ﾂｸﾊﾞｼ","kana_address":"ﾏｾ","pref":"茨城県","city":"つくば市","address":"真瀬"},
{"zip_code":"3001244","kana_pref":"ｲﾊﾞﾗｷｹﾝ","kana_city":"ﾂｸﾊﾞｼ","kana_address":"ﾏﾂﾉｻﾄ","pref":"茨城県","city":"つくば市","address":"松の里"},
{"zip_code":"3002654","kana_pref":"ｲﾊﾞﾗｷｹﾝ","kana_city":"ﾂｸﾊﾞｼ","kana_address":"ﾐｽﾞﾎﾞﾘ","pref":"茨城県","city":"つくば市","address":"水堀"},
{"zip_code":"3002646","kana_pref":"ｲﾊﾞﾗｷｹﾝ","kana_city":"ﾂｸﾊﾞｼ","kana_address":"ﾐﾄﾞﾘｶﾞﾊﾗ","pref":"茨城県","city":"つくば市","address":"緑ケ原"},
{"zip_code":"3002621","kana_pref":"ｲﾊﾞﾗｷｹﾝ","kana_city":"ﾂｸﾊﾞｼ","kana_address":"ﾐﾅﾐﾊﾗ","pref":"茨城県","city":"つくば市","address":"南原"},
{"zip_code":"3004245","kana_pref":"ｲﾊﾞﾗｷｹﾝ","kana_city":"ﾂｸﾊﾞｼ","kana_address":"ﾐﾓﾘ","pref":"茨城県","city":"つくば市","address":"水守"},
{"zip_code":"3001257","kana_pref":"ｲﾊﾞﾗｷｹﾝ","kana_city":"ﾂｸﾊﾞｼ","kana_address":"ﾐｮｳｼﾞﾝ","pref":"茨城県","city":"つくば市","address":"明神"},
{"zip_code":"3001256","kana_pref":"ｲﾊﾞﾗｷｹﾝ","kana_city":"ﾂｸﾊﾞｼ","kana_address":"ﾓﾘﾉｻﾄ","pref":"茨城県","city":"つくば市","address":"森の里"},
{"zip_code":"3004234","kana_pref":"ｲﾊﾞﾗｷｹﾝ","kana_city":"ﾂｸﾊﾞｼ","kana_address":"ﾔﾏｷ","pref":"茨城県","city":"つくば市","address":"山木"},
{"zip_code":"3004214","kana_pref":"ｲﾊﾞﾗｷｹﾝ","kana_city":"ﾂｸﾊﾞｼ","kana_address":"ﾔﾏｸﾞﾁ","pref":"茨城県","city":"つくば市","address":"山口"},
{"zip_code":"3002617","kana_pref":"ｲﾊﾞﾗｷｹﾝ","kana_city":"ﾂｸﾊﾞｼ","kana_address":"ﾖｼﾇﾏ","pref":"茨城県","city":"つくば市","address":"吉沼"},
{"zip_code":"3001258","kana_pref":"ｲﾊﾞﾗｷｹﾝ","kana_city":"ﾂｸﾊﾞｼ","kana_address":"ﾛｸﾄ","pref":"茨城県","city":"つくば市","address":"六斗"},
{"zip_code":"3001248","kana_pref":"ｲﾊﾞﾗｷｹﾝ","kana_city":"ﾂｸﾊﾞｼ","kana_address":"ﾜｶｸﾞﾘ","pref":"茨城県","city":"つくば市","address":"若栗"},
{"zip_code":"3001249","kana_pref":"ｲﾊﾞﾗｷｹﾝ","kana_city":"ﾂｸﾊﾞｼ","kana_address":"ﾜｶﾊﾞ","pref":"茨城県","city":"つくば市","address":"若葉"},
{"zip_code":"3003252","kana_pref":"ｲﾊﾞﾗｷｹﾝ","kana_city":"ﾂｸﾊﾞｼ","kana_address":"ﾜｶﾓﾘ","pref":"茨城県","city":"つくば市","address":"若森"},
{"zip_code":"3004247","kana_pref":"ｲﾊﾞﾗｷｹﾝ","kana_city":"ﾂｸﾊﾞｼ","kana_address":"ﾜﾀﾞｲ","pref":"茨城県","city":"つくば市","address":"和台"},
{"zip_code":"3004523","kana_pref":"ｲﾊﾞﾗｷｹﾝ","kana_city":"ﾁｸｾｲｼ","kana_address":"ｱｶﾊﾏ","pref":"茨城県","city":"筑西市","address":"赤浜"},
{"zip_code":"3004516","kana_pref":"ｲﾊﾞﾗｷｹﾝ","kana_city":"ﾁｸｾｲｼ","kana_address":"ｱﾗｲｼﾝﾃﾞﾝ","pref":"茨城県","city":"筑西市","address":"新井新田"},
{"zip_code":"3004512","kana_pref":"ｲﾊﾞﾗｷｹﾝ","kana_city":"ﾁｸｾｲｼ","kana_address":"ｱﾘﾀ","pref":"茨城県","city":"筑西市","address":"有田"},
{"zip_code":"3004507","kana_pref":"ｲﾊﾞﾗｷｹﾝ","kana_city":"ﾁｸｾｲｼ","kana_address":"ｳﾁﾖﾄﾞ","pref":"茨城県","city":"筑西市","address":"内淀"},
{"zip_code":"3004538","kana_pref":"ｲﾊﾞﾗｷｹﾝ","kana_city":"ﾁｸｾｲｼ","kana_address":"ｴﾋﾞｴ","pref":"茨城県","city":"筑西市","address":"海老江"},
{"zip_code":"3004517","kana_pref":"ｲﾊﾞﾗｷｹﾝ","kana_city":"ﾁｸｾｲｼ","kana_address":"ｴﾋﾞｶﾞｼﾏ","pref":"茨城県","city":"筑西市","address":"海老ケ島"},
{"zip_code":"3004537","kana_pref":"ｲﾊﾞﾗｷｹﾝ","kana_city":"ﾁｸｾｲｼ","kana_address":"ｵｵﾊﾞﾔｼ","pref":"茨城県","city":"筑西市","address":"大林"},
{"zip_code":"3004511","kana_pref":"ｲﾊﾞﾗｷｹﾝ","kana_city":"ﾁｸｾｲｼ","kana_address":"ｵｼﾋﾞ","pref":"茨城県","city":"筑西市","address":"押尾"},
{"zip_code":"3004502","kana_pref":"ｲﾊﾞﾗｷｹﾝ","kana_city":"ﾁｸｾｲｼ","kana_address":"ｶﾐﾆｼｺﾞﾔ","pref":"茨城県","city":"筑西市","address":"上西郷谷"},
{"zip_code":"3004515","kana_pref":"ｲﾊﾞﾗｷｹﾝ","kana_city":"ﾁｸｾｲｼ","kana_address":"ｸﾗﾓﾁ","pref":"茨城県","city":"筑西市","address":"倉持"},
{"zip_code":"3004532","kana_pref":"ｲﾊﾞﾗｷｹﾝ","kana_city":"ﾁｸｾｲｼ","kana_address":"ｻｷﾞｼﾏ","pref":"茨城県","city":"筑西市","address":"鷺島"},
{"zip_code":"3004514","kana_pref":"ｲﾊﾞﾗｷｹﾝ","kana_city":"ﾁｸｾｲｼ","kana_address":"ｻﾝｵｳﾄﾞｳ","pref":"茨城県","city":"筑西市","address":"山王堂"},
{"zip_code":"3004545","kana_pref":"ｲﾊﾞﾗｷｹﾝ","kana_city":"ﾁｸｾｲｼ","kana_address":"ｼﾓｶﾜﾅｺﾞ","pref":"茨城県","city":"筑西市","address":"下川中子"},
{"zip_code":"3004534","kana_pref":"ｲﾊﾞﾗｷｹﾝ","kana_city":"ﾁｸｾｲｼ","kana_address":"ﾀｶﾂ","pref":"茨城県","city":"筑西市","address":"高津"},
{"zip_code":"3004543","kana_pref":"ｲﾊﾞﾗｷｹﾝ","kana_city":"ﾁｸｾｲｼ","kana_address":"ﾀｹｶﾞｷ","pref":"茨城県","city":"筑西市","address":"竹垣"},
{"zip_code":"3004505","kana_pref":"ｲﾊﾞﾗｷｹﾝ","kana_city":"ﾁｸｾｲｼ","kana_address":"ﾀｼﾞｭｸ","pref":"茨城県","city":"筑西市","address":"田宿"},
{"zip_code":"3004531","kana_pref":"ｲﾊﾞﾗｷｹﾝ","kana_city":"ﾁｸｾｲｼ","kana_address":"ﾂｲｼﾞ","pref":"茨城県","city":"筑西市","address":"築地"},
{"zip_code":"3004525","kana_pref":"ｲﾊﾞﾗｷｹﾝ","kana_city":"ﾁｸｾｲｼ","kana_address":"ﾃﾗｳｴﾉ","pref":"茨城県","city":"筑西市","address":"寺上野"},
{"zip_code":"3004524","kana_pref":"ｲﾊﾞﾗｷｹﾝ","kana_city":"ﾁｸｾｲｼ","kana_address":"ﾅｶｳｴﾉ","pref":"茨城県","city":"筑西市","address":"中上野"},
{"zip_code":"3004513","kana_pref":"ｲﾊﾞﾗｷｹﾝ","kana_city":"ﾁｸｾｲｼ","kana_address":"ﾅｶﾈ","pref":"茨城県","city":"筑西市","address":"中根"},
{"zip_code":"3004506","kana_pref":"ｲﾊﾞﾗｷｹﾝ","kana_city":"ﾁｸｾｲｼ","kana_address":"ﾅﾍﾞﾔﾏ","pref":"茨城県","city":"筑西市","address":"鍋山"},
{"zip_code":"3004533","kana_pref":"ｲﾊﾞﾗｷｹﾝ","kana_city":"ﾁｸｾｲｼ","kana_address":"ﾅﾙｲ","pref":"茨城県","city":"筑西市","address":"成井"},
{"zip_code":"3004501","kana_pref":"ｲﾊﾞﾗｷｹﾝ","kana_city":"ﾁｸｾｲｼ","kana_address":"ﾈｺｼﾏ","pref":"茨城県","city":"筑西市","address":"猫島"},
{"zip_code":"3004521","kana_pref":"ｲﾊﾞﾗｷｹﾝ","kana_city":"ﾁｸｾｲｼ","kana_address":"ﾋｶﾞｼｲｼﾀ","pref":"茨城県","city":"筑西市","address":"東石田"},
{"zip_code":"3004536","kana_pref":"ｲﾊﾞﾗｷｹﾝ","kana_city":"ﾁｸｾｲｼ","kana_address":"ﾋｶﾞｼﾎｽﾞｴ","pref":"茨城県","city":"筑西市","address":"東保末"},
{"zip_code":"3004544","kana_pref":"ｲﾊﾞﾗｷｹﾝ","kana_city":"ﾁｸｾｲｼ","kana_address":"ﾌﾙｳﾁ","pref":"茨城県","city":"筑西市","address":"古内"},
{"zip_code":"3004541","kana_pref":"ｲﾊﾞﾗｷｹﾝ","kana_city":"ﾁｸｾｲｼ","kana_address":"ﾏﾂﾊﾞﾗ","pref":"茨城県","city":"筑西市","address":"松原"},
{"zip_code":"3004503","kana_pref":"ｲﾊﾞﾗｷｹﾝ","kana_city":"ﾁｸｾｲｼ","kana_address":"ﾐﾔｺﾞ","pref":"茨城県","city":"筑西市","address":"宮後"},
{"zip_code":"3004504","kana_pref":"ｲﾊﾞﾗｷｹﾝ","kana_city":"ﾁｸｾｲｼ","kana_address":"ﾐﾔﾔﾏ","pref":"茨城県","city":"筑西市","address":"宮山"},
{"zip_code":"3004522","kana_pref":"ｲﾊﾞﾗｷｹﾝ","kana_city":"ﾁｸｾｲｼ","kana_address":"ﾑｺｳｳｴﾉ","pref":"茨城県","city":"筑西市","address":"向上野"},
{"zip_code":"3004546","kana_pref":"ｲﾊﾞﾗｷｹﾝ","kana_city":"ﾁｸｾｲｼ","kana_address":"ﾑﾗﾀ","pref":"茨城県","city":"筑西市","address":"村田"},
{"zip_code":"3004535","kana_pref":"ｲﾊﾞﾗｷｹﾝ","kana_city":"ﾁｸｾｲｼ","kana_address":"ﾔﾜﾗ","pref":"茨城県","city":"筑西市","address":"谷原"},
{"zip_code":"3004542","kana_pref":"ｲﾊﾞﾗｷｹﾝ","kana_city":"ﾁｸｾｲｼ","kana_address":"ﾖｼﾀﾞ","pref":"茨城県","city":"筑西市","address":"吉田"},
{"zip_code":"3000500","kana_pref":"ｲﾊﾞﾗｷｹﾝ","kana_city":"ｲﾅｼｷｼ","kana_address":"","pref":"茨城県","city":"稲敷市","address":""},
{"zip_code":"3000621","kana_pref":"ｲﾊﾞﾗｷｹﾝ","kana_city":"ｲﾅｼｷｼ","kana_address":"ｱﾊﾞ","pref":"茨城県","city":"稲敷市","address":"阿波"},
{"zip_code":"3000602","kana_pref":"ｲﾊﾞﾗｷｹﾝ","kana_city":"ｲﾅｼｷｼ","kana_address":"ｱﾊﾞｻｷ","pref":"茨城県","city":"稲敷市","address":"阿波崎"},
{"zip_code":"3000626","kana_pref":"ｲﾊﾞﾗｷｹﾝ","kana_city":"ｲﾅｼｷｼ","kana_address":"ｱﾏﾀﾞ","pref":"茨城県","city":"稲敷市","address":"甘田"},
{"zip_code":"3000727","kana_pref":"ｲﾊﾞﾗｷｹﾝ","kana_city":"ｲﾅｼｷｼ","kana_address":"ｲｲｼﾞﾏ","pref":"茨城県","city":"稲敷市","address":"飯島"},
{"zip_code":"3000632","kana_pref":"ｲﾊﾞﾗｷｹﾝ","kana_city":"ｲﾅｼｷｼ","kana_address":"ｲｲﾃﾞ","pref":"茨城県","city":"稲敷市","address":"飯出"},
{"zip_code":"3001413","kana_pref":"ｲﾊﾞﾗｷｹﾝ","kana_city":"ｲﾅｼｷｼ","kana_address":"ｲｻｷ","pref":"茨城県","city":"稲敷市","address":"伊崎"},
{"zip_code":"3001411","kana_pref":"ｲﾊﾞﾗｷｹﾝ","kana_city":"ｲﾅｼｷｼ","kana_address":"ｲｻﾂ","pref":"茨城県","city":"稲敷市","address":"伊佐津"},
{"zip_code":"3000603","kana_pref":"ｲﾊﾞﾗｷｹﾝ","kana_city":"ｲﾅｼｷｼ","kana_address":"ｲｻﾌﾞ","pref":"茨城県","city":"稲敷市","address":"伊佐部"},
{"zip_code":"3000612","kana_pref":"ｲﾊﾞﾗｷｹﾝ","kana_city":"ｲﾅｼｷｼ","kana_address":"ｲﾁｻﾞｷ","pref":"茨城県","city":"稲敷市","address":"市崎"},
{"zip_code":"3000503","kana_pref":"ｲﾊﾞﾗｷｹﾝ","kana_city":"ｲﾅｼｷｼ","kana_address":"ｲﾅﾐ","pref":"茨城県","city":"稲敷市","address":"稲波"},
{"zip_code":"3000507","kana_pref":"ｲﾊﾞﾗｷｹﾝ","kana_city":"ｲﾅｼｷｼ","kana_address":"ｲﾇﾂﾞｶ","pref":"茨城県","city":"稲敷市","address":"犬塚"},
{"zip_code":"3001414","kana_pref":"ｲﾊﾞﾗｷｹﾝ","kana_city":"ｲﾅｼｷｼ","kana_address":"ｲﾇﾜﾀﾘ","pref":"茨城県","city":"稲敷市","address":"戌渡"},
{"zip_code":"3000641","kana_pref":"ｲﾊﾞﾗｷｹﾝ","kana_city":"ｲﾅｼｷｼ","kana_address":"ｳｷｼﾏ","pref":"茨城県","city":"稲敷市","address":"浮島"},
{"zip_code":"3000509","kana_pref":"ｲﾊﾞﾗｷｹﾝ","kana_city":"ｲﾅｼｷｼ","kana_address":"ｴﾄﾞｻｷｵﾂ","pref":"茨城県","city":"稲敷市","address":"江戸崎乙"},
{"zip_code":"3000504","kana_pref":"ｲﾊﾞﾗｷｹﾝ","kana_city":"ｲﾅｼｷｼ","kana_address":"ｴﾄﾞｻｷｺｳ","pref":"茨城県","city":"稲敷市","address":"江戸崎甲"},
{"zip_code":"3000529","kana_pref":"ｲﾊﾞﾗｷｹﾝ","kana_city":"ｲﾅｼｷｼ","kana_address":"ｴﾄﾞｻｷﾐﾗｲ","pref":"茨城県","city":"稲敷市","address":"江戸崎みらい"},
{"zip_code":"3000721","kana_pref":"ｲﾊﾞﾗｷｹﾝ","kana_city":"ｲﾅｼｷｼ","kana_address":"ｵｵｼﾏ","pref":"茨城県","city":"稲敷市","address":"大島"},
{"zip_code":"3001423","kana_pref":"ｲﾊﾞﾗｷｹﾝ","kana_city":"ｲﾅｼｷｼ","kana_address":"ｵｵﾀ","pref":"茨城県","city":"稲敷市","address":"太田"},
{"zip_code":"3000633","kana_pref":"ｲﾊﾞﾗｷｹﾝ","kana_city":"ｲﾅｼｷｼ","kana_address":"ｵｶｲｲﾃﾞ","pref":"茨城県","city":"稲敷市","address":"岡飯出"},
{"zip_code":"3000744","kana_pref":"ｲﾊﾞﾗｷｹﾝ","kana_city":"ｲﾅｼｷｼ","kana_address":"ｵｼｽﾞﾅ","pref":"茨城県","city":"稲敷市","address":"押砂"},
{"zip_code":"3001425","kana_pref":"ｲﾊﾞﾗｷｹﾝ","kana_city":"ｲﾅｼｷｼ","kana_address":"ｵﾉ","pref":"茨城県","city":"稲敷市","address":"小野"},
{"zip_code":"3000634","kana_pref":"ｲﾊﾞﾗｷｹﾝ","kana_city":"ｲﾅｼｷｼ","kana_address":"ｶｼﾜｷﾞ","pref":"茨城県","city":"稲敷市","address":"柏木"},
{"zip_code":"3000637","kana_pref":"ｲﾊﾞﾗｷｹﾝ","kana_city":"ｲﾅｼｷｼ","kana_address":"ｶｼﾜｷﾞﾌｯﾄ","pref":"茨城県","city":"稲敷市","address":"柏木古渡"},
{"zip_code":"3000604","kana_pref":"ｲﾊﾞﾗｷｹﾝ","kana_city":"ｲﾅｼｷｼ","kana_address":"ｶﾏｲ","pref":"茨城県","city":"稲敷市","address":"釜井"},
{"zip_code":"3000522","kana_pref":"ｲﾊﾞﾗｷｹﾝ","kana_city":"ｲﾅｼｷｼ","kana_address":"ｶﾏｶﾞﾔﾏ","pref":"茨城県","city":"稲敷市","address":"蒲ケ山"},
{"zip_code":"3000528","kana_pref":"ｲﾊﾞﾗｷｹﾝ","kana_city":"ｲﾅｼｷｼ","kana_address":"ｶﾐｷﾐﾔﾏ","pref":"茨城県","city":"稲敷市","address":"上君山"},
{"zip_code":"3000737","kana_pref":"ｲﾊﾞﾗｷｹﾝ","kana_city":"ｲﾅｼｷｼ","kana_address":"ｶﾐｽﾀﾞ","pref":"茨城県","city":"稲敷市","address":"上須田"},
{"zip_code":"3000732","kana_pref":"ｲﾊﾞﾗｷｹﾝ","kana_city":"ｲﾅｼｷｼ","kana_address":"ｶﾐﾉｼﾏ","pref":"茨城県","city":"稲敷市","address":"上之島"},
{"zip_code":"3000643","kana_pref":"ｲﾊﾞﾗｷｹﾝ","kana_city":"ｲﾅｼｷｼ","kana_address":"ｶﾐﾏﾜﾀｼ","pref":"茨城県","city":"稲敷市","address":"上馬渡"},
{"zip_code":"3000513","kana_pref":"ｲﾊﾞﾗｷｹﾝ","kana_city":"ｲﾅｼｷｼ","kana_address":"ｸﾜﾔﾏ","pref":"茨城県","city":"稲敷市","address":"桑山"},
{"zip_code":"3000734","kana_pref":"ｲﾊﾞﾗｷｹﾝ","kana_city":"ｲﾅｼｷｼ","kana_address":"ｹｯｻ","pref":"茨城県","city":"稲敷市","address":"結佐"},
{"zip_code":"3000746","kana_pref":"ｲﾊﾞﾗｷｹﾝ","kana_city":"ｲﾅｼｷｼ","kana_address":"ｺｳｻﾞｷﾎﾝｼﾞｭｸ","pref":"茨城県","city":"稲敷市","address":"神崎本宿"},
{"zip_code":"3000605","kana_pref":"ｲﾊﾞﾗｷｹﾝ","kana_city":"ｲﾅｼｷｼ","kana_address":"ｺｳﾀﾞ","pref":"茨城県","city":"稲敷市","address":"幸田"},
{"zip_code":"3000733","kana_pref":"ｲﾊﾞﾗｷｹﾝ","kana_city":"ｲﾅｼｷｼ","kana_address":"ｺｸﾉｳ","pref":"茨城県","city":"稲敷市","address":"石納"},
{"zip_code":"3000524","kana_pref":"ｲﾊﾞﾗｷｹﾝ","kana_city":"ｲﾅｼｷｼ","kana_address":"ｺﾊｶﾞ","pref":"茨城県","city":"稲敷市","address":"小羽賀"},
{"zip_code":"3000514","kana_pref":"ｲﾊﾞﾗｷｹﾝ","kana_city":"ｲﾅｼｷｼ","kana_address":"ｺﾏﾂｶ","pref":"茨城県","city":"稲敷市","address":"駒塚"},
{"zip_code":"3000723","kana_pref":"ｲﾊﾞﾗｷｹﾝ","kana_city":"ｲﾅｼｷｼ","kana_address":"ｻｶｲｼﾞﾏ","pref":"茨城県","city":"稲敷市","address":"境島"},
{"zip_code":"3000508","kana_pref":"ｲﾊﾞﾗｷｹﾝ","kana_city":"ｲﾅｼｷｼ","kana_address":"ｻｸﾗ","pref":"茨城県","city":"稲敷市","address":"佐倉"},
{"zip_code":"3000749","kana_pref":"ｲﾊﾞﾗｷｹﾝ","kana_city":"ｲﾅｼｷｼ","kana_address":"ｻﾜﾗｸﾞﾐｼﾝﾃﾞﾝ","pref":"茨城県","city":"稲敷市","address":"佐原組新田"},
{"zip_code":"3000725","kana_pref":"ｲﾊﾞﾗｷｹﾝ","kana_city":"ｲﾅｼｷｼ","kana_address":"ｻﾜﾗｼﾀﾃ","pref":"茨城県","city":"稲敷市","address":"佐原下手"},
{"zip_code":"3000512","kana_pref":"ｲﾊﾞﾗｷｹﾝ","kana_city":"ｲﾅｼｷｼ","kana_address":"ｼｲﾂﾞｶ","pref":"茨城県","city":"稲敷市","address":"椎塚"},
{"zip_code":"3000623","kana_pref":"ｲﾊﾞﾗｷｹﾝ","kana_city":"ｲﾅｼｷｼ","kana_address":"ｼｶ","pref":"茨城県","city":"稲敷市","address":"四箇"},
{"zip_code":"3000502","kana_pref":"ｲﾊﾞﾗｷｹﾝ","kana_city":"ｲﾅｼｷｼ","kana_address":"ｼﾀﾞﾌｯﾄ","pref":"茨城県","city":"稲敷市","address":"信太古渡"},
{"zip_code":"3001412","kana_pref":"ｲﾊﾞﾗｷｹﾝ","kana_city":"ｲﾅｼｷｼ","kana_address":"ｼﾊﾞｻｷ","pref":"茨城県","city":"稲敷市","address":"柴崎"},
{"zip_code":"3000614","kana_pref":"ｲﾊﾞﾗｷｹﾝ","kana_city":"ｲﾅｼｷｼ","kana_address":"ｼﾐｽﾞ","pref":"茨城県","city":"稲敷市","address":"清水"},
{"zip_code":"3001424","kana_pref":"ｲﾊﾞﾗｷｹﾝ","kana_city":"ｲﾅｼｷｼ","kana_address":"ｼﾓｵｵﾀ","pref":"茨城県","city":"稲敷市","address":"下太田"},
{"zip_code":"3000527","kana_pref":"ｲﾊﾞﾗｷｹﾝ","kana_city":"ｲﾅｼｷｼ","kana_address":"ｼﾓｷﾐﾔﾏ","pref":"茨城県","city":"稲敷市","address":"下君山"},
{"zip_code":"3000601","kana_pref":"ｲﾊﾞﾗｷｹﾝ","kana_city":"ｲﾅｼｷｼ","kana_address":"ｼﾓｽﾀﾞ","pref":"茨城県","city":"稲敷市","address":"下須田"},
{"zip_code":"3000642","kana_pref":"ｲﾊﾞﾗｷｹﾝ","kana_city":"ｲﾅｼｷｼ","kana_address":"ｼﾓﾏﾜﾀｼ","pref":"茨城県","city":"稲敷市","address":"下馬渡"},
{"zip_code":"3000622","kana_pref":"ｲﾊﾞﾗｷｹﾝ","kana_city":"ｲﾅｼｷｼ","kana_address":"ｼﾞﾝｸﾞｳｼﾞ","pref":"茨城県","city":"稲敷市","address":"神宮寺"},
{"zip_code":"3000613","kana_pref":"ｲﾊﾞﾗｷｹﾝ","kana_city":"ｲﾅｼｷｼ","kana_address":"ｼﾝﾊﾞｼ","pref":"茨城県","city":"稲敷市","address":"新橋"},
{"zip_code":"3000625","kana_pref":"ｲﾊﾞﾗｷｹﾝ","kana_city":"ｲﾅｼｷｼ","kana_address":"ｽｶﾂﾞ","pref":"茨城県","city":"稲敷市","address":"須賀津"},
{"zip_code":"3000521","kana_pref":"ｲﾊﾞﾗｷｹﾝ","kana_city":"ｲﾅｼｷｼ","kana_address":"ｽﾀﾞﾁ","pref":"茨城県","city":"稲敷市","address":"月出里"},
{"zip_code":"3001416","kana_pref":"ｲﾊﾞﾗｷｹﾝ","kana_city":"ｲﾅｼｷｼ","kana_address":"ｽﾐｻﾞｷ","pref":"茨城県","city":"稲敷市","address":"角崎"},
{"zip_code":"3000748","kana_pref":"ｲﾊﾞﾗｷｹﾝ","kana_city":"ｲﾅｼｷｼ","kana_address":"ｾｲｷｭｳｼﾞﾏ","pref":"茨城県","city":"稲敷市","address":"清久島"},
{"zip_code":"3000511","kana_pref":"ｲﾊﾞﾗｷｹﾝ","kana_city":"ｲﾅｼｷｼ","kana_address":"ﾀｶﾀﾞ","pref":"茨城県","city":"稲敷市","address":"高田"},
{"zip_code":"3000741","kana_pref":"ｲﾊﾞﾗｷｹﾝ","kana_city":"ｲﾅｼｷｼ","kana_address":"ﾃｶﾞｸﾐｼﾝﾃﾞﾝ","pref":"茨城県","city":"稲敷市","address":"手賀組新田"},
{"zip_code":"3001426","kana_pref":"ｲﾊﾞﾗｷｹﾝ","kana_city":"ｲﾅｼｷｼ","kana_address":"ﾃﾗｳﾁ","pref":"茨城県","city":"稲敷市","address":"寺内"},
{"zip_code":"3000523","kana_pref":"ｲﾊﾞﾗｷｹﾝ","kana_city":"ｲﾅｼｷｼ","kana_address":"ﾄｷｻﾞｷ","pref":"茨城県","city":"稲敷市","address":"時崎"},
{"zip_code":"3000611","kana_pref":"ｲﾊﾞﾗｷｹﾝ","kana_city":"ｲﾅｼｷｼ","kana_address":"ﾅｶｼﾞﾏ","pref":"茨城県","city":"稲敷市","address":"中島"},
{"zip_code":"3001415","kana_pref":"ｲﾊﾞﾗｷｹﾝ","kana_city":"ｲﾅｼｷｼ","kana_address":"ﾅｶﾔﾏ","pref":"茨城県","city":"稲敷市","address":"中山"},
{"zip_code":"3000726","kana_pref":"ｲﾊﾞﾗｷｹﾝ","kana_city":"ｲﾅｼｷｼ","kana_address":"ﾆｼｼﾛ","pref":"茨城県","city":"稲敷市","address":"西代"},
{"zip_code":"3000506","kana_pref":"ｲﾊﾞﾗｷｹﾝ","kana_city":"ｲﾅｼｷｼ","kana_address":"ﾇﾏﾀ","pref":"茨城県","city":"稲敷市","address":"沼田"},
{"zip_code":"3000525","kana_pref":"ｲﾊﾞﾗｷｹﾝ","kana_city":"ｲﾅｼｷｼ","kana_address":"ﾊｶﾞ","pref":"茨城県","city":"稲敷市","address":"羽賀"},
{"zip_code":"3001427","kana_pref":"ｲﾊﾞﾗｷｹﾝ","kana_city":"ｲﾅｼｷｼ","kana_address":"ﾊｶﾞｳﾗ","pref":"茨城県","city":"稲敷市","address":"羽賀浦"},
{"zip_code":"3000745","kana_pref":"ｲﾊﾞﾗｷｹﾝ","kana_city":"ｲﾅｼｷｼ","kana_address":"ﾊｼﾑｺｳ","pref":"茨城県","city":"稲敷市","address":"橋向"},
{"zip_code":"3000736","kana_pref":"ｲﾊﾞﾗｷｹﾝ","kana_city":"ｲﾅｼｷｼ","kana_address":"ﾊｯｾﾝｺﾞｸ","pref":"茨城県","city":"稲敷市","address":"八千石"},
{"zip_code":"3000501","kana_pref":"ｲﾊﾞﾗｷｹﾝ","kana_city":"ｲﾅｼｷｼ","kana_address":"ﾊﾄｻﾞｷ","pref":"茨城県","city":"稲敷市","address":"鳩崎"},
{"zip_code":"3000636","kana_pref":"ｲﾊﾞﾗｷｹﾝ","kana_city":"ｲﾅｼｷｼ","kana_address":"ﾊﾆｭｳ","pref":"茨城県","city":"稲敷市","address":"羽生"},
{"zip_code":"3000616","kana_pref":"ｲﾊﾞﾗｷｹﾝ","kana_city":"ｲﾅｼｷｼ","kana_address":"ﾋｶﾞｼｵｵﾇﾏ","pref":"茨城県","city":"稲敷市","address":"東大沼"},
{"zip_code":"3000617","kana_pref":"ｲﾊﾞﾗｷｹﾝ","kana_city":"ｲﾅｼｷｼ","kana_address":"ﾌｸﾀﾞ","pref":"茨城県","city":"稲敷市","address":"福田"},
{"zip_code":"3000638","kana_pref":"ｲﾊﾞﾗｷｹﾝ","kana_city":"ｲﾅｼｷｼ","kana_address":"ﾌｯﾄ","pref":"茨城県","city":"稲敷市","address":"古渡"},
{"zip_code":"3001421","kana_pref":"ｲﾊﾞﾗｷｹﾝ","kana_city":"ｲﾅｼｷｼ","kana_address":"ﾎﾘｶﾜ","pref":"茨城県","city":"稲敷市","address":"堀川"},
{"zip_code":"3000635","kana_pref":"ｲﾊﾞﾗｷｹﾝ","kana_city":"ｲﾅｼｷｼ","kana_address":"ﾎﾘﾉｳﾁ","pref":"茨城県","city":"稲敷市","address":"堀之内"},
{"zip_code":"3000743","kana_pref":"ｲﾊﾞﾗｷｹﾝ","kana_city":"ｲﾅｼｷｼ","kana_address":"ﾏｶﾞﾌﾞﾁ","pref":"茨城県","city":"稲敷市","address":"曲渕"},
{"zip_code":"3000615","kana_pref":"ｲﾊﾞﾗｷｹﾝ","kana_city":"ｲﾅｼｷｼ","kana_address":"ﾏﾁﾀﾞ","pref":"茨城県","city":"稲敷市","address":"町田"},
{"zip_code":"3000526","kana_pref":"ｲﾊﾞﾗｷｹﾝ","kana_city":"ｲﾅｼｷｼ","kana_address":"ﾏﾂﾔﾏ","pref":"茨城県","city":"稲敷市","address":"松山"},
{"zip_code":"3001417","kana_pref":"ｲﾊﾞﾗｷｹﾝ","kana_city":"ｲﾅｼｷｼ","kana_address":"ﾏﾐｱﾅ","pref":"茨城県","city":"稲敷市","address":"狸穴"},
{"zip_code":"3000722","kana_pref":"ｲﾊﾞﾗｷｹﾝ","kana_city":"ｲﾅｼｷｼ","kana_address":"ﾐｼﾏ","pref":"茨城県","city":"稲敷市","address":"三島"},
{"zip_code":"3000631","kana_pref":"ｲﾊﾞﾗｷｹﾝ","kana_city":"ｲﾅｼｷｼ","kana_address":"ﾐﾂｷﾞ","pref":"茨城県","city":"稲敷市","address":"三次"},
{"zip_code":"3000607","kana_pref":"ｲﾊﾞﾗｷｹﾝ","kana_city":"ｲﾅｼｷｼ","kana_address":"ﾐﾂﾊﾞ","pref":"茨城県","city":"稲敷市","address":"光葉"},
{"zip_code":"3001422","kana_pref":"ｲﾊﾞﾗｷｹﾝ","kana_city":"ｲﾅｼｷｼ","kana_address":"ﾐﾅﾐｵｵﾀ","pref":"茨城県","city":"稲敷市","address":"南太田"},
{"zip_code":"3000515","kana_pref":"ｲﾊﾞﾗｷｹﾝ","kana_city":"ｲﾅｼｷｼ","kana_address":"ﾐﾅﾐｶﾞｵｶ","pref":"茨城県","city":"稲敷市","address":"南ケ丘"},
{"zip_code":"3000624","kana_pref":"ｲﾊﾞﾗｷｹﾝ","kana_city":"ｲﾅｼｷｼ","kana_address":"ﾐﾅﾐﾔﾏｸ","pref":"茨城県","city":"稲敷市","address":"南山来"},
{"zip_code":"3000505","kana_pref":"ｲﾊﾞﾗｷｹﾝ","kana_city":"ｲﾅｼｷｼ","kana_address":"ﾑﾗﾀ","pref":"茨城県","city":"稲敷市","address":"村田"},
{"zip_code":"3000731","kana_pref":"ｲﾊﾞﾗｷｹﾝ","kana_city":"ｲﾅｼｷｼ","kana_address":"ﾓﾄｼﾝ","pref":"茨城県","city":"稲敷市","address":"本新"},
{"zip_code":"3000724","kana_pref":"ｲﾊﾞﾗｷｹﾝ","kana_city":"ｲﾅｼｷｼ","kana_address":"ﾔｽｼﾞｶﾜ","pref":"茨城県","city":"稲敷市","address":"八筋川"},
{"zip_code":"3000747","kana_pref":"ｲﾊﾞﾗｷｹﾝ","kana_city":"ｲﾅｼｷｼ","kana_address":"ﾖﾂﾔ","pref":"茨城県","city":"稲敷市","address":"余津谷"},
{"zip_code":"3000742","kana_pref":"ｲﾊﾞﾗｷｹﾝ","kana_city":"ｲﾅｼｷｼ","kana_address":"ﾖﾂﾔ","pref":"茨城県","city":"稲敷市","address":"四ッ谷"},
{"zip_code":"3000735","kana_pref":"ｲﾊﾞﾗｷｹﾝ","kana_city":"ｲﾅｼｷｼ","kana_address":"ﾛｯｶｸ","pref":"茨城県","city":"稲敷市","address":"六角"},
{"zip_code":"3000606","kana_pref":"ｲﾊﾞﾗｷｹﾝ","kana_city":"ｲﾅｼｷｼ","kana_address":"ﾜｷｶﾞﾜ","pref":"茨城県","city":"稲敷市","address":"脇川"},
{"zip_code":"3000212","kana_pref":"ｲﾊﾞﾗｷｹﾝ","kana_city":"ｶｽﾐｶﾞｳﾗｼ","kana_address":"ｱﾙｶﾞ","pref":"茨城県","city":"かすみがうら市","address":"有河"},
{"zip_code":"3000205","kana_pref":"ｲﾊﾞﾗｷｹﾝ","kana_city":"ｶｽﾐｶﾞｳﾗｼ","kana_address":"ｱﾝｼﾞｷ","pref":"茨城県","city":"かすみがうら市","address":"安食"},
{"zip_code":"3000203","kana_pref":"ｲﾊﾞﾗｷｹﾝ","kana_city":"ｶｽﾐｶﾞｳﾗｼ","kana_address":"ｲﾜﾂﾎﾞ","pref":"茨城県","city":"かすみがうら市","address":"岩坪"},
{"zip_code":"3000213","kana_pref":"ｲﾊﾞﾗｷｹﾝ","kana_city":"ｶｽﾐｶﾞｳﾗｼ","kana_address":"ｳｼﾜﾀ","pref":"茨城県","city":"かすみがうら市","address":"牛渡"},
{"zip_code":"3000124","kana_pref":"ｲﾊﾞﾗｷｹﾝ","kana_city":"ｶｽﾐｶﾞｳﾗｼ","kana_address":"ｵｵﾜﾀﾞ","pref":"茨城県","city":"かすみがうら市","address":"大和田"},
{"zip_code":"3000132","kana_pref":"ｲﾊﾞﾗｷｹﾝ","kana_city":"ｶｽﾐｶﾞｳﾗｼ","kana_address":"ｵｶﾞﾐ","pref":"茨城県","city":"かすみがうら市","address":"男神"},
{"zip_code":"3000201","kana_pref":"ｲﾊﾞﾗｷｹﾝ","kana_city":"ｶｽﾐｶﾞｳﾗｼ","kana_address":"ｶｼﾜｻﾞｷ","pref":"茨城県","city":"かすみがうら市","address":"柏崎"},
{"zip_code":"3000127","kana_pref":"ｲﾊﾞﾗｷｹﾝ","kana_city":"ｶｽﾐｶﾞｳﾗｼ","kana_address":"ｶﾐｵｵﾂﾞﾂﾐ","pref":"茨城県","city":"かすみがうら市","address":"上大堤"},
{"zip_code":"3000123","kana_pref":"ｲﾊﾞﾗｷｹﾝ","kana_city":"ｶｽﾐｶﾞｳﾗｼ","kana_address":"ｶﾐｶﾙﾍﾞ","pref":"茨城県","city":"かすみがうら市","address":"上軽部"},
{"zip_code":"3000135","kana_pref":"ｲﾊﾞﾗｷｹﾝ","kana_city":"ｶｽﾐｶﾞｳﾗｼ","kana_address":"ｶﾓ","pref":"茨城県","city":"かすみがうら市","address":"加茂"},
{"zip_code":"3000214","kana_pref":"ｲﾊﾞﾗｷｹﾝ","kana_city":"ｶｽﾐｶﾞｳﾗｼ","kana_address":"ｻｶ","pref":"茨城県","city":"かすみがうら市","address":"坂"},
{"zip_code":"3000121","kana_pref":"ｲﾊﾞﾗｷｹﾝ","kana_city":"ｶｽﾐｶﾞｳﾗｼ","kana_address":"ｼｼｸﾗ","pref":"茨城県","city":"かすみがうら市","address":"宍倉"},
{"zip_code":"3000211","kana_pref":"ｲﾊﾞﾗｷｹﾝ","kana_city":"ｶｽﾐｶﾞｳﾗｼ","kana_address":"ｼﾄｻﾞｷ","pref":"茨城県","city":"かすみがうら市","address":"志戸崎"},
{"zip_code":"3000131","kana_pref":"ｲﾊﾞﾗｷｹﾝ","kana_city":"ｶｽﾐｶﾞｳﾗｼ","kana_address":"ｼﾓｵｵﾂﾞﾂﾐ","pref":"茨城県","city":"かすみがうら市","address":"下大堤"},
{"zip_code":"3000204","kana_pref":"ｲﾊﾞﾗｷｹﾝ","kana_city":"ｶｽﾐｶﾞｳﾗｼ","kana_address":"ｼﾓｶﾙﾍﾞ","pref":"茨城県","city":"かすみがうら市","address":"下軽部"},
{"zip_code":"3000202","kana_pref":"ｲﾊﾞﾗｷｹﾝ","kana_city":"ｶｽﾐｶﾞｳﾗｼ","kana_address":"ﾀﾌﾞｾ","pref":"茨城県","city":"かすみがうら市","address":"田伏"},
{"zip_code":"3000136","kana_pref":"ｲﾊﾞﾗｷｹﾝ","kana_city":"ｶｽﾐｶﾞｳﾗｼ","kana_address":"ﾄｻﾞｷ","pref":"茨城県","city":"かすみがうら市","address":"戸崎"},
{"zip_code":"3000133","kana_pref":"ｲﾊﾞﾗｷｹﾝ","kana_city":"ｶｽﾐｶﾞｳﾗｼ","kana_address":"ﾅｶﾀﾞｲ","pref":"茨城県","city":"かすみがうら市","address":"中台"},
{"zip_code":"3000122","kana_pref":"ｲﾊﾞﾗｷｹﾝ","kana_city":"ｶｽﾐｶﾞｳﾗｼ","kana_address":"ﾆｼﾅﾙｲ","pref":"茨城県","city":"かすみがうら市","address":"西成井"},
{"zip_code":"3000134","kana_pref":"ｲﾊﾞﾗｷｹﾝ","kana_city":"ｶｽﾐｶﾞｳﾗｼ","kana_address":"ﾌｶﾔ","pref":"茨城県","city":"かすみがうら市","address":"深谷"},
{"zip_code":"3000125","kana_pref":"ｲﾊﾞﾗｷｹﾝ","kana_city":"ｶｽﾐｶﾞｳﾗｼ","kana_address":"ﾐﾂｷﾞ","pref":"茨城県","city":"かすみがうら市","address":"三ツ木"},
{"zip_code":"3000126","kana_pref":"ｲﾊﾞﾗｷｹﾝ","kana_city":"ｶｽﾐｶﾞｳﾗｼ","kana_address":"ﾐﾅﾐﾈﾓﾄ","pref":"茨城県","city":"かすみがうら市","address":"南根本"},
{"zip_code":"3004417","kana_pref":"ｲﾊﾞﾗｷｹﾝ","kana_city":"ｻｸﾗｶﾞﾜｼ","kana_address":"ﾏｶﾍﾞﾁｮｳｲｲﾂｶ","pref":"茨城県","city":"桜川市","address":"真壁町飯塚"},
{"zip_code":"3004416","kana_pref":"ｲﾊﾞﾗｷｹﾝ","kana_city":"ｻｸﾗｶﾞﾜｼ","kana_address":"ﾏｶﾍﾞﾁｮｳｲｻｻﾞ","pref":"茨城県","city":"桜川市","address":"真壁町伊佐々"},
{"zip_code":"3004428","kana_pref":"ｲﾊﾞﾗｷｹﾝ","kana_city":"ｻｸﾗｶﾞﾜｼ","kana_address":"ﾏｶﾍﾞﾁｮｳｵｵﾂｶｼﾝﾃﾞﾝ","pref":"茨城県","city":"桜川市","address":"真壁町大塚新田"},
{"zip_code":"3004401","kana_pref":"ｲﾊﾞﾗｷｹﾝ","kana_city":"ｻｸﾗｶﾞﾜｼ","kana_address":"ﾏｶﾍﾞﾁｮｳｶﾐｺﾊﾞﾀ","pref":"茨城県","city":"桜川市","address":"真壁町上小幡"},
{"zip_code":"3004427","kana_pref":"ｲﾊﾞﾗｷｹﾝ","kana_city":"ｻｸﾗｶﾞﾜｼ","kana_address":"ﾏｶﾍﾞﾁｮｳｶﾐﾔｶﾞｲ","pref":"茨城県","city":"桜川市","address":"真壁町上谷貝"},
{"zip_code":"3004422","kana_pref":"ｲﾊﾞﾗｷｹﾝ","kana_city":"ｻｸﾗｶﾞﾜｼ","kana_address":"ﾏｶﾍﾞﾁｮｳｶﾒｸﾏ","pref":"茨城県","city":"桜川市","address":"真壁町亀熊"},
{"zip_code":"3004424","kana_pref":"ｲﾊﾞﾗｷｹﾝ","kana_city":"ｻｸﾗｶﾞﾜｼ","kana_address":"ﾏｶﾍﾞﾁｮｳｹﾞﾝﾎﾞｳｼﾞ","pref":"茨城県","city":"桜川市","address":"真壁町源法寺"},
{"zip_code":"3004413","kana_pref":"ｲﾊﾞﾗｷｹﾝ","kana_city":"ｻｸﾗｶﾞﾜｼ","kana_address":"ﾏｶﾍﾞﾁｮｳｻｶﾖﾘ","pref":"茨城県","city":"桜川市","address":"真壁町酒寄"},
{"zip_code":"3004405","kana_pref":"ｲﾊﾞﾗｷｹﾝ","kana_city":"ｻｸﾗｶﾞﾜｼ","kana_address":"ﾏｶﾍﾞﾁｮｳｻｸﾗｲ","pref":"茨城県","city":"桜川市","address":"真壁町桜井"},
{"zip_code":"3004414","kana_pref":"ｲﾊﾞﾗｷｹﾝ","kana_city":"ｻｸﾗｶﾞﾜｼ","kana_address":"ﾏｶﾍﾞﾁｮｳｼｲｵ","pref":"茨城県","city":"桜川市","address":"真壁町椎尾"},
{"zip_code":"3004402","kana_pref":"ｲﾊﾞﾗｷｹﾝ","kana_city":"ｻｸﾗｶﾞﾜｼ","kana_address":"ﾏｶﾍﾞﾁｮｳｼﾓｺﾊﾞﾀ","pref":"茨城県","city":"桜川市","address":"真壁町下小幡"},
{"zip_code":"3004426","kana_pref":"ｲﾊﾞﾗｷｹﾝ","kana_city":"ｻｸﾗｶﾞﾜｼ","kana_address":"ﾏｶﾍﾞﾁｮｳｼﾓﾔｶﾞｲ","pref":"茨城県","city":"桜川市","address":"真壁町下谷貝"},
{"zip_code":"3004404","kana_pref":"ｲﾊﾞﾗｷｹﾝ","kana_city":"ｻｸﾗｶﾞﾜｼ","kana_address":"ﾏｶﾍﾞﾁｮｳｼﾗｲ","pref":"茨城県","city":"桜川市","address":"真壁町白井"},
{"zip_code":"3004411","kana_pref":"ｲﾊﾞﾗｷｹﾝ","kana_city":"ｻｸﾗｶﾞﾜｼ","kana_address":"ﾏｶﾍﾞﾁｮｳﾀ","pref":"茨城県","city":"桜川市","address":"真壁町田"},
{"zip_code":"3004403","kana_pref":"ｲﾊﾞﾗｷｹﾝ","kana_city":"ｻｸﾗｶﾞﾜｼ","kana_address":"ﾏｶﾍﾞﾁｮｳﾅｶﾞｵｶ","pref":"茨城県","city":"桜川市","address":"真壁町長岡"},
{"zip_code":"3004412","kana_pref":"ｲﾊﾞﾗｷｹﾝ","kana_city":"ｻｸﾗｶﾞﾜｼ","kana_address":"ﾏｶﾍﾞﾁｮｳﾊﾄﾞﾘ","pref":"茨城県","city":"桜川市","address":"真壁町羽鳥"},
{"zip_code":"3004423","kana_pref":"ｲﾊﾞﾗｷｹﾝ","kana_city":"ｻｸﾗｶﾞﾜｼ","kana_address":"ﾏｶﾍﾞﾁｮｳﾊﾅﾜｾﾞ","pref":"茨城県","city":"桜川市","address":"真壁町塙世"},
{"zip_code":"3004421","kana_pref":"ｲﾊﾞﾗｷｹﾝ","kana_city":"ｻｸﾗｶﾞﾜｼ","kana_address":"ﾏｶﾍﾞﾁｮｳﾊﾗｶﾞﾀ","pref":"茨城県","city":"桜川市","address":"真壁町原方"},
{"zip_code":"3004429","kana_pref":"ｲﾊﾞﾗｷｹﾝ","kana_city":"ｻｸﾗｶﾞﾜｼ","kana_address":"ﾏｶﾍﾞﾁｮｳﾋｶﾞｼﾔｶﾞｲ","pref":"茨城県","city":"桜川市","address":"真壁町東矢貝"},
{"zip_code":"3004415","kana_pref":"ｲﾊﾞﾗｷｹﾝ","kana_city":"ｻｸﾗｶﾞﾜｼ","kana_address":"ﾏｶﾍﾞﾁｮｳﾋｶﾞｼﾔﾏﾀﾞ","pref":"茨城県","city":"桜川市","address":"真壁町東山田"},
{"zip_code":"3004407","kana_pref":"ｲﾊﾞﾗｷｹﾝ","kana_city":"ｻｸﾗｶﾞﾜｼ","kana_address":"ﾏｶﾍﾞﾁｮｳﾌﾙｼﾛ","pref":"茨城県","city":"桜川市","address":"真壁町古城"},
{"zip_code":"3004425","kana_pref":"ｲﾊﾞﾗｷｹﾝ","kana_city":"ｻｸﾗｶﾞﾜｼ","kana_address":"ﾏｶﾍﾞﾁｮｳﾎｿｼﾊﾞ","pref":"茨城県","city":"桜川市","address":"真壁町細芝"},
{"zip_code":"3004408","kana_pref":"ｲﾊﾞﾗｷｹﾝ","kana_city":"ｻｸﾗｶﾞﾜｼ","kana_address":"ﾏｶﾍﾞﾁｮｳﾏｶﾍﾞ","pref":"茨城県","city":"桜川市","address":"真壁町真壁"},
{"zip_code":"3004406","kana_pref":"ｲﾊﾞﾗｷｹﾝ","kana_city":"ｻｸﾗｶﾞﾜｼ","kana_address":"ﾏｶﾍﾞﾁｮｳﾔﾏｵ","pref":"茨城県","city":"桜川市","address":"真壁町山尾"},
{"zip_code":"3002300","kana_pref":"ｲﾊﾞﾗｷｹﾝ","kana_city":"ﾂｸﾊﾞﾐﾗｲｼ","kana_address":"","pref":"茨城県","city":"つくばみらい市","address":""},
{"zip_code":"3002346","kana_pref":"ｲﾊﾞﾗｷｹﾝ","kana_city":"ﾂｸﾊﾞﾐﾗｲｼ","kana_address":"ｱｵｷ","pref":"茨城県","city":"つくばみらい市","address":"青木"},
{"zip_code":"3002348","kana_pref":"ｲﾊﾞﾗｷｹﾝ","kana_city":"ﾂｸﾊﾞﾐﾗｲｼ","kana_address":"ｱｵｺｼﾝﾃﾞﾝ","pref":"茨城県","city":"つくばみらい市","address":"青古新田"},
{"zip_code":"3002315","kana_pref":"ｲﾊﾞﾗｷｹﾝ","kana_city":"ﾂｸﾊﾞﾐﾗｲｼ","kana_address":"ｱﾀﾞｶ","pref":"茨城県","city":"つくばみらい市","address":"足高"},
{"zip_code":"3002354","kana_pref":"ｲﾊﾞﾗｷｹﾝ","kana_city":"ﾂｸﾊﾞﾐﾗｲｼ","kana_address":"ｱﾗﾄ","pref":"茨城県","city":"つくばみらい市","address":"新戸"},
{"zip_code":"3002307","kana_pref":"ｲﾊﾞﾗｷｹﾝ","kana_city":"ﾂｸﾊﾞﾐﾗｲｼ","kana_address":"ｲﾀﾊﾞｼ","pref":"茨城県","city":"つくばみらい市","address":"板橋"},
{"zip_code":"3002323","kana_pref":"ｲﾊﾞﾗｷｹﾝ","kana_city":"ﾂｸﾊﾞﾐﾗｲｼ","kana_address":"ｲﾀﾐ","pref":"茨城県","city":"つくばみらい市","address":"伊丹"},
{"zip_code":"3002355","kana_pref":"ｲﾊﾞﾗｷｹﾝ","kana_city":"ﾂｸﾊﾞﾐﾗｲｼ","kana_address":"ｲﾁﾉﾌｶ","pref":"茨城県","city":"つくばみらい市","address":"市野深"},
{"zip_code":"3002308","kana_pref":"ｲﾊﾞﾗｷｹﾝ","kana_city":"ﾂｸﾊﾞﾐﾗｲｼ","kana_address":"ｲﾅﾋｶﾞｼ","pref":"茨城県","city":"つくばみらい市","address":"伊奈東"},
{"zip_code":"3002342","kana_pref":"ｲﾊﾞﾗｷｹﾝ","kana_city":"ﾂｸﾊﾞﾐﾗｲｼ","kana_address":"ｲﾖﾔﾅｷﾞ","pref":"茨城県","city":"つくばみらい市","address":"弥柳"},
{"zip_code":"3002303","kana_pref":"ｲﾊﾞﾗｷｹﾝ","kana_city":"ﾂｸﾊﾞﾐﾗｲｼ","kana_address":"ｵｵﾜﾀﾞ","pref":"茨城県","city":"つくばみらい市","address":"大和田"},
{"zip_code":"3002411","kana_pref":"ｲﾊﾞﾗｷｹﾝ","kana_city":"ﾂｸﾊﾞﾐﾗｲｼ","kana_address":"ｵｼｽﾞﾅ","pref":"茨城県","city":"つくばみらい市","address":"押砂"},
{"zip_code":"3002359","kana_pref":"ｲﾊﾞﾗｷｹﾝ","kana_city":"ﾂｸﾊﾞﾐﾗｲｼ","kana_address":"ｵｼﾞﾏｼﾝﾃﾞﾝ","pref":"茨城県","city":"つくばみらい市","address":"小島新田"},
{"zip_code":"3002352","kana_pref":"ｲﾊﾞﾗｷｹﾝ","kana_city":"ﾂｸﾊﾞﾐﾗｲｼ","kana_address":"ｵｼﾞﾏｼﾝﾃﾞﾝ","pref":"茨城県","city":"つくばみらい市","address":"小島新田"},
{"zip_code":"3002432","kana_pref":"ｲﾊﾞﾗｷｹﾝ","kana_city":"ﾂｸﾊﾞﾐﾗｲｼ","kana_address":"ｵﾆｵｻ","pref":"茨城県","city":"つくばみらい市","address":"鬼長"},
{"zip_code":"3002359","kana_pref":"ｲﾊﾞﾗｷｹﾝ","kana_city":"ﾂｸﾊﾞﾐﾗｲｼ","kana_address":"ｵﾊﾞﾘ","pref":"茨城県","city":"つくばみらい市","address":"小張"},
{"zip_code":"3002358","kana_pref":"ｲﾊﾞﾗｷｹﾝ","kana_city":"ﾂｸﾊﾞﾐﾗｲｼ","kana_address":"ｵﾊﾞﾘ","pref":"茨城県","city":"つくばみらい市","address":"小張"},
{"zip_code":"3002353","kana_pref":"ｲﾊﾞﾗｷｹﾝ","kana_city":"ﾂｸﾊﾞﾐﾗｲｼ","kana_address":"ｵﾊﾞﾘ","pref":"茨城県","city":"つくばみらい市","address":"小張"},
{"zip_code":"3002331","kana_pref":"ｲﾊﾞﾗｷｹﾝ","kana_city":"ﾂｸﾊﾞﾐﾗｲｼ","kana_address":"ｶｽﾐｼﾝﾃﾞﾝ","pref":"茨城県","city":"つくばみらい市","address":"神住新田"},
{"zip_code":"3002424","kana_pref":"ｲﾊﾞﾗｷｹﾝ","kana_city":"ﾂｸﾊﾞﾐﾗｲｼ","kana_address":"ｶﾄｳ","pref":"茨城県","city":"つくばみらい市","address":"加藤"},
{"zip_code":"3002431","kana_pref":"ｲﾊﾞﾗｷｹﾝ","kana_city":"ﾂｸﾊﾞﾐﾗｲｼ","kana_address":"ｶﾐｵﾒ","pref":"茨城県","city":"つくばみらい市","address":"上小目"},
{"zip_code":"3002326","kana_pref":"ｲﾊﾞﾗｷｹﾝ","kana_city":"ﾂｸﾊﾞﾐﾗｲｼ","kana_address":"ｶﾐｼﾞﾏ","pref":"茨城県","city":"つくばみらい市","address":"上島"},
{"zip_code":"3002453","kana_pref":"ｲﾊﾞﾗｷｹﾝ","kana_city":"ﾂｸﾊﾞﾐﾗｲｼ","kana_address":"ｶﾐﾅｶﾞﾇﾏ","pref":"茨城県","city":"つくばみらい市","address":"上長沼"},
{"zip_code":"3002335","kana_pref":"ｲﾊﾞﾗｷｹﾝ","kana_city":"ﾂｸﾊﾞﾐﾗｲｼ","kana_address":"ｶﾐﾋﾗﾔﾅｷﾞ","pref":"茨城県","city":"つくばみらい市","address":"上平柳"},
{"zip_code":"3002425","kana_pref":"ｲﾊﾞﾗｷｹﾝ","kana_city":"ﾂｸﾊﾞﾐﾗｲｼ","kana_address":"ｶﾜｻｷ","pref":"茨城県","city":"つくばみらい市","address":"川崎"},
{"zip_code":"3002312","kana_pref":"ｲﾊﾞﾗｷｹﾝ","kana_city":"ﾂｸﾊﾞﾐﾗｲｼ","kana_address":"ｶﾝﾉｳ","pref":"茨城県","city":"つくばみらい市","address":"神生"},
{"zip_code":"3002456","kana_pref":"ｲﾊﾞﾗｷｹﾝ","kana_city":"ﾂｸﾊﾞﾐﾗｲｼ","kana_address":"ｷﾀﾌﾞｸﾛ","pref":"茨城県","city":"つくばみらい市","address":"北袋"},
{"zip_code":"3002407","kana_pref":"ｲﾊﾞﾗｷｹﾝ","kana_city":"ﾂｸﾊﾞﾐﾗｲｼ","kana_address":"ｷﾀﾔﾏ","pref":"茨城県","city":"つくばみらい市","address":"北山"},
{"zip_code":"3002436","kana_pref":"ｲﾊﾞﾗｷｹﾝ","kana_city":"ﾂｸﾊﾞﾐﾗｲｼ","kana_address":"ｷﾇﾉﾀﾞｲ","pref":"茨城県","city":"つくばみらい市","address":"絹の台"},
{"zip_code":"3002445","kana_pref":"ｲﾊﾞﾗｷｹﾝ","kana_city":"ﾂｸﾊﾞﾐﾗｲｼ","kana_address":"ｺｷﾇ","pref":"茨城県","city":"つくばみらい市","address":"小絹"},
{"zip_code":"3002402","kana_pref":"ｲﾊﾞﾗｷｹﾝ","kana_city":"ﾂｸﾊﾞﾐﾗｲｼ","kana_address":"ｻｶﾉｼﾝﾃﾞﾝ","pref":"茨城県","city":"つくばみらい市","address":"坂野新田"},
{"zip_code":"3002332","kana_pref":"ｲﾊﾞﾗｷｹﾝ","kana_city":"ﾂｸﾊﾞﾐﾗｲｼ","kana_address":"ｻﾝﾉｳｼﾝﾃﾞﾝ","pref":"茨城県","city":"つくばみらい市","address":"山王新田"},
{"zip_code":"3002336","kana_pref":"ｲﾊﾞﾗｷｹﾝ","kana_city":"ﾂｸﾊﾞﾐﾗｲｼ","kana_address":"ｻﾝﾔ","pref":"茨城県","city":"つくばみらい市","address":"山谷"},
{"zip_code":"3002433","kana_pref":"ｲﾊﾞﾗｷｹﾝ","kana_city":"ﾂｸﾊﾞﾐﾗｲｼ","kana_address":"ｼﾓｵﾒ","pref":"茨城県","city":"つくばみらい市","address":"下小目"},
{"zip_code":"3002324","kana_pref":"ｲﾊﾞﾗｷｹﾝ","kana_city":"ﾂｸﾊﾞﾐﾗｲｼ","kana_address":"ｼﾓｼﾞﾏ","pref":"茨城県","city":"つくばみらい市","address":"下島"},
{"zip_code":"3002454","kana_pref":"ｲﾊﾞﾗｷｹﾝ","kana_city":"ﾂｸﾊﾞﾐﾗｲｼ","kana_address":"ｼﾓﾅｶﾞﾇﾏ","pref":"茨城県","city":"つくばみらい市","address":"下長沼"},
{"zip_code":"3002333","kana_pref":"ｲﾊﾞﾗｷｹﾝ","kana_city":"ﾂｸﾊﾞﾐﾗｲｼ","kana_address":"ｼﾓﾋﾗﾔﾅｷﾞ","pref":"茨城県","city":"つくばみらい市","address":"下平柳"},
{"zip_code":"3002305","kana_pref":"ｲﾊﾞﾗｷｹﾝ","kana_city":"ﾂｸﾊﾞﾐﾗｲｼ","kana_address":"ｼﾞｭｳｴﾓﾝｼﾝﾃﾞﾝ","pref":"茨城県","city":"つくばみらい市","address":"重右衛門新田"},
{"zip_code":"3002455","kana_pref":"ｲﾊﾞﾗｷｹﾝ","kana_city":"ﾂｸﾊﾞﾐﾗｲｼ","kana_address":"ｼﾞｭｳﾜ","pref":"茨城県","city":"つくばみらい市","address":"十和"},
{"zip_code":"3002314","kana_pref":"ｲﾊﾞﾗｷｹﾝ","kana_city":"ﾂｸﾊﾞﾐﾗｲｼ","kana_address":"ｼﾞｮｳﾁｭｳ","pref":"茨城県","city":"つくばみらい市","address":"城中"},
{"zip_code":"3002444","kana_pref":"ｲﾊﾞﾗｷｹﾝ","kana_city":"ﾂｸﾊﾞﾐﾗｲｼ","kana_address":"ｽｷﾞｼﾀ","pref":"茨城県","city":"つくばみらい市","address":"杉下"},
{"zip_code":"3002351","kana_pref":"ｲﾊﾞﾗｷｹﾝ","kana_city":"ﾂｸﾊﾞﾐﾗｲｼ","kana_address":"ｾﾞﾝｽｹｼﾝﾃﾞﾝ","pref":"茨城県","city":"つくばみらい市","address":"善助新田"},
{"zip_code":"3002401","kana_pref":"ｲﾊﾞﾗｷｹﾝ","kana_city":"ﾂｸﾊﾞﾐﾗｲｼ","kana_address":"ﾀﾞｲ","pref":"茨城県","city":"つくばみらい市","address":"台"},
{"zip_code":"3002301","kana_pref":"ｲﾊﾞﾗｷｹﾝ","kana_city":"ﾂｸﾊﾞﾐﾗｲｼ","kana_address":"ﾀｶｵｶ","pref":"茨城県","city":"つくばみらい市","address":"高岡"},
{"zip_code":"3002359","kana_pref":"ｲﾊﾞﾗｷｹﾝ","kana_city":"ﾂｸﾊﾞﾐﾗｲｼ","kana_address":"ﾀﾑﾗ","pref":"茨城県","city":"つくばみらい市","address":"田村"},
{"zip_code":"3002417","kana_pref":"ｲﾊﾞﾗｷｹﾝ","kana_city":"ﾂｸﾊﾞﾐﾗｲｼ","kana_address":"ﾀﾑﾗ","pref":"茨城県","city":"つくばみらい市","address":"田村"},
{"zip_code":"3002413","kana_pref":"ｲﾊﾞﾗｷｹﾝ","kana_city":"ﾂｸﾊﾞﾐﾗｲｼ","kana_address":"ﾀﾑﾗ","pref":"茨城県","city":"つくばみらい市","address":"田村"},
{"zip_code":"3002452","kana_pref":"ｲﾊﾞﾗｷｹﾝ","kana_city":"ﾂｸﾊﾞﾐﾗｲｼ","kana_address":"ﾂｷﾇｷ","pref":"茨城県","city":"つくばみらい市","address":"樛木"},
{"zip_code":"3002435","kana_pref":"ｲﾊﾞﾗｷｹﾝ","kana_city":"ﾂｸﾊﾞﾐﾗｲｼ","kana_address":"ﾂﾂﾄﾞ","pref":"茨城県","city":"つくばみらい市","address":"筒戸"},
{"zip_code":"3002441","kana_pref":"ｲﾊﾞﾗｷｹﾝ","kana_city":"ﾂｸﾊﾞﾐﾗｲｼ","kana_address":"ﾃﾗﾊﾀ","pref":"茨城県","city":"つくばみらい市","address":"寺畑"},
{"zip_code":"3002322","kana_pref":"ｲﾊﾞﾗｷｹﾝ","kana_city":"ﾂｸﾊﾞﾐﾗｲｼ","kana_address":"ﾄｻｷ","pref":"茨城県","city":"つくばみらい市","address":"戸崎"},
{"zip_code":"3002321","kana_pref":"ｲﾊﾞﾗｷｹﾝ","kana_city":"ﾂｸﾊﾞﾐﾗｲｼ","kana_address":"ﾄﾓ","pref":"茨城県","city":"つくばみらい市","address":"戸茂"},
{"zip_code":"3002325","kana_pref":"ｲﾊﾞﾗｷｹﾝ","kana_city":"ﾂｸﾊﾞﾐﾗｲｼ","kana_address":"ﾅｶｼﾞﾏ","pref":"茨城県","city":"つくばみらい市","address":"中島"},
{"zip_code":"3002345","kana_pref":"ｲﾊﾞﾗｷｹﾝ","kana_city":"ﾂｸﾊﾞﾐﾗｲｼ","kana_address":"ﾅｶﾞﾄﾛ","pref":"茨城県","city":"つくばみらい市","address":"長渡呂"},
{"zip_code":"3002344","kana_pref":"ｲﾊﾞﾗｷｹﾝ","kana_city":"ﾂｸﾊﾞﾐﾗｲｼ","kana_address":"ﾅｶﾞﾄﾛｼﾝﾃﾞﾝ","pref":"茨城県","city":"つくばみらい市","address":"長渡呂新田"},
{"zip_code":"3002403","kana_pref":"ｲﾊﾞﾗｷｹﾝ","kana_city":"ﾂｸﾊﾞﾐﾗｲｼ","kana_address":"ﾅｶﾊﾗ","pref":"茨城県","city":"つくばみらい市","address":"中原"},
{"zip_code":"3002334","kana_pref":"ｲﾊﾞﾗｷｹﾝ","kana_city":"ﾂｸﾊﾞﾐﾗｲｼ","kana_address":"ﾅｶﾋﾗﾔﾅｷﾞ","pref":"茨城県","city":"つくばみらい市","address":"中平柳"},
{"zip_code":"3002423","kana_pref":"ｲﾊﾞﾗｷｹﾝ","kana_city":"ﾂｸﾊﾞﾐﾗｲｼ","kana_address":"ﾅﾙｾ","pref":"茨城県","city":"つくばみらい市","address":"成瀬"},
{"zip_code":"3002405","kana_pref":"ｲﾊﾞﾗｷｹﾝ","kana_city":"ﾂｸﾊﾞﾐﾗｲｼ","kana_address":"ﾆｻﾞｴﾓﾝｼﾝﾃﾞﾝ","pref":"茨城県","city":"つくばみらい市","address":"仁左衛門新田"},
{"zip_code":"3002359","kana_pref":"ｲﾊﾞﾗｷｹﾝ","kana_city":"ﾂｸﾊﾞﾐﾗｲｼ","kana_address":"ﾆｼﾅﾗﾄﾞ","pref":"茨城県","city":"つくばみらい市","address":"西楢戸"},
{"zip_code":"3002417","kana_pref":"ｲﾊﾞﾗｷｹﾝ","kana_city":"ﾂｸﾊﾞﾐﾗｲｼ","kana_address":"ﾆｼﾅﾗﾄﾞ","pref":"茨城県","city":"つくばみらい市","address":"西楢戸"},
{"zip_code":"3002415","kana_pref":"ｲﾊﾞﾗｷｹﾝ","kana_city":"ﾂｸﾊﾞﾐﾗｲｼ","kana_address":"ﾆｼﾅﾗﾄﾞ","pref":"茨城県","city":"つくばみらい市","address":"西楢戸"},
{"zip_code":"3002442","kana_pref":"ｲﾊﾞﾗｷｹﾝ","kana_city":"ﾂｸﾊﾞﾐﾗｲｼ","kana_address":"ﾆｼﾉﾀﾞｲ","pref":"茨城県","city":"つくばみらい市","address":"西ノ台"},
{"zip_code":"3002443","kana_pref":"ｲﾊﾞﾗｷｹﾝ","kana_city":"ﾂｸﾊﾞﾐﾗｲｼ","kana_address":"ﾆｼﾉﾀﾞｲﾐﾅﾐ","pref":"茨城県","city":"つくばみらい市","address":"西ノ台南"},
{"zip_code":"3002421","kana_pref":"ｲﾊﾞﾗｷｹﾝ","kana_city":"ﾂｸﾊﾞﾐﾗｲｼ","kana_address":"ﾆｼﾏﾙﾔﾏ","pref":"茨城県","city":"つくばみらい市","address":"西丸山"},
{"zip_code":"3002412","kana_pref":"ｲﾊﾞﾗｷｹﾝ","kana_city":"ﾂｸﾊﾞﾐﾗｲｼ","kana_address":"ﾆｯｶﾜ","pref":"茨城県","city":"つくばみらい市","address":"日川"},
{"zip_code":"3002311","kana_pref":"ｲﾊﾞﾗｷｹﾝ","kana_city":"ﾂｸﾊﾞﾐﾗｲｼ","kana_address":"ﾉﾎﾞﾘ","pref":"茨城県","city":"つくばみらい市","address":"野堀"},
{"zip_code":"3002313","kana_pref":"ｲﾊﾞﾗｷｹﾝ","kana_city":"ﾂｸﾊﾞﾐﾗｲｼ","kana_address":"ﾋｶﾞｼｸﾘﾔﾏ","pref":"茨城県","city":"つくばみらい市","address":"東栗山"},
{"zip_code":"3002359","kana_pref":"ｲﾊﾞﾗｷｹﾝ","kana_city":"ﾂｸﾊﾞﾐﾗｲｼ","kana_address":"ﾋｶﾞｼﾅﾗﾄﾞ","pref":"茨城県","city":"つくばみらい市","address":"東楢戸"},
{"zip_code":"3002417","kana_pref":"ｲﾊﾞﾗｷｹﾝ","kana_city":"ﾂｸﾊﾞﾐﾗｲｼ","kana_address":"ﾋｶﾞｼﾅﾗﾄﾞ","pref":"茨城県","city":"つくばみらい市","address":"東楢戸"},
{"zip_code":"3002358","kana_pref":"ｲﾊﾞﾗｷｹﾝ","kana_city":"ﾂｸﾊﾞﾐﾗｲｼ","kana_address":"ﾋｶﾞｼﾅﾗﾄﾞ","pref":"茨城県","city":"つくばみらい市","address":"東楢戸"},
{"zip_code":"3002416","kana_pref":"ｲﾊﾞﾗｷｹﾝ","kana_city":"ﾂｸﾊﾞﾐﾗｲｼ","kana_address":"ﾋｶﾞｼﾅﾗﾄﾞ","pref":"茨城県","city":"つくばみらい市","address":"東楢戸"},
{"zip_code":"3002356","kana_pref":"ｲﾊﾞﾗｷｹﾝ","kana_city":"ﾂｸﾊﾞﾐﾗｲｼ","kana_address":"ﾋﾞｼｬ","pref":"茨城県","city":"つくばみらい市","address":"奉社"},
{"zip_code":"3002434","kana_pref":"ｲﾊﾞﾗｷｹﾝ","kana_city":"ﾂｸﾊﾞﾐﾗｲｼ","kana_address":"ﾋﾗﾇﾏ","pref":"茨城県","city":"つくばみらい市","address":"平沼"},
{"zip_code":"3002406","kana_pref":"ｲﾊﾞﾗｷｹﾝ","kana_city":"ﾂｸﾊﾞﾐﾗｲｼ","kana_address":"ﾌｸｵｶ","pref":"茨城県","city":"つくばみらい市","address":"福岡"},
{"zip_code":"3002341","kana_pref":"ｲﾊﾞﾗｷｹﾝ","kana_city":"ﾂｸﾊﾞﾐﾗｲｼ","kana_address":"ﾌｸﾀﾞ","pref":"茨城県","city":"つくばみらい市","address":"福田"},
{"zip_code":"3002327","kana_pref":"ｲﾊﾞﾗｷｹﾝ","kana_city":"ﾂｸﾊﾞﾐﾗｲｼ","kana_address":"ﾌｸﾜﾗ","pref":"茨城県","city":"つくばみらい市","address":"福原"},
{"zip_code":"3002347","kana_pref":"ｲﾊﾞﾗｷｹﾝ","kana_city":"ﾂｸﾊﾞﾐﾗｲｼ","kana_address":"ﾌﾞﾀｲ","pref":"茨城県","city":"つくばみらい市","address":"豊体"},
{"zip_code":"3002304","kana_pref":"ｲﾊﾞﾗｷｹﾝ","kana_city":"ﾂｸﾊﾞﾐﾗｲｼ","kana_address":"ﾌﾞﾍｴｼﾝﾃﾞﾝ","pref":"茨城県","city":"つくばみらい市","address":"武兵衛新田"},
{"zip_code":"3002422","kana_pref":"ｲﾊﾞﾗｷｹﾝ","kana_city":"ﾂｸﾊﾞﾐﾗｲｼ","kana_address":"ﾌﾙｶﾜ","pref":"茨城県","city":"つくばみらい市","address":"古川"},
{"zip_code":"3002446","kana_pref":"ｲﾊﾞﾗｷｹﾝ","kana_city":"ﾂｸﾊﾞﾐﾗｲｼ","kana_address":"ﾎｿｼﾛ","pref":"茨城県","city":"つくばみらい市","address":"細代"},
{"zip_code":"3002417","kana_pref":"ｲﾊﾞﾗｷｹﾝ","kana_city":"ﾂｸﾊﾞﾐﾗｲｼ","kana_address":"ﾏｷﾞ","pref":"茨城県","city":"つくばみらい市","address":"真木"},
{"zip_code":"3002414","kana_pref":"ｲﾊﾞﾗｷｹﾝ","kana_city":"ﾂｸﾊﾞﾐﾗｲｼ","kana_address":"ﾏｷﾞ","pref":"茨城県","city":"つくばみらい市","address":"真木"},
{"zip_code":"3002302","kana_pref":"ｲﾊﾞﾗｷｹﾝ","kana_city":"ﾂｸﾊﾞﾐﾗｲｼ","kana_address":"ﾏﾐｱﾅ","pref":"茨城県","city":"つくばみらい市","address":"狸穴"},
{"zip_code":"3002404","kana_pref":"ｲﾊﾞﾗｷｹﾝ","kana_city":"ﾂｸﾊﾞﾐﾗｲｼ","kana_address":"ﾐﾅﾐ","pref":"茨城県","city":"つくばみらい市","address":"南"},
{"zip_code":"3002306","kana_pref":"ｲﾊﾞﾗｷｹﾝ","kana_city":"ﾂｸﾊﾞﾐﾗｲｼ","kana_address":"ﾐﾅﾐｵｵﾀ","pref":"茨城県","city":"つくばみらい市","address":"南太田"},
{"zip_code":"3002451","kana_pref":"ｲﾊﾞﾗｷｹﾝ","kana_city":"ﾂｸﾊﾞﾐﾗｲｼ","kana_address":"ﾐﾉﾜ","pref":"茨城県","city":"つくばみらい市","address":"箕輪"},
{"zip_code":"3002426","kana_pref":"ｲﾊﾞﾗｷｹﾝ","kana_city":"ﾂｸﾊﾞﾐﾗｲｼ","kana_address":"ﾐﾔﾄﾞ","pref":"茨城県","city":"つくばみらい市","address":"宮戸"},
{"zip_code":"3002343","kana_pref":"ｲﾊﾞﾗｷｹﾝ","kana_city":"ﾂｸﾊﾞﾐﾗｲｼ","kana_address":"ﾑｼﾞﾅﾌﾞﾁ","pref":"茨城県","city":"つくばみらい市","address":"狸渕"},
{"zip_code":"3002337","kana_pref":"ｲﾊﾞﾗｷｹﾝ","kana_city":"ﾂｸﾊﾞﾐﾗｲｼ","kana_address":"ﾔｲﾀ","pref":"茨城県","city":"つくばみらい市","address":"谷井田"},
{"zip_code":"3002357","kana_pref":"ｲﾊﾞﾗｷｹﾝ","kana_city":"ﾂｸﾊﾞﾐﾗｲｼ","kana_address":"ﾔｸﾞﾁ","pref":"茨城県","city":"つくばみらい市","address":"谷口"},
{"zip_code":"3000400","kana_pref":"ｲﾊﾞﾗｷｹﾝ","kana_city":"ｲﾅｼｷｸﾞﾝﾐﾎﾑﾗ","kana_address":"","pref":"茨城県","city":"稲敷郡美浦村","address":""},
{"zip_code":"3000424","kana_pref":"ｲﾊﾞﾗｷｹﾝ","kana_city":"ｲﾅｼｷｸﾞﾝﾐﾎﾑﾗ","kana_address":"ｳｹﾘｮｳ","pref":"茨城県","city":"稲敷郡美浦村","address":"受領"},
{"zip_code":"3000409","kana_pref":"ｲﾊﾞﾗｷｹﾝ","kana_city":"ｲﾅｼｷｸﾞﾝﾐﾎﾑﾗ","kana_address":"ｳｼｺﾞﾒ","pref":"茨城県","city":"稲敷郡美浦村","address":"牛込"},
{"zip_code":"3000422","kana_pref":"ｲﾊﾞﾗｷｹﾝ","kana_city":"ｲﾅｼｷｸﾞﾝﾐﾎﾑﾗ","kana_address":"ｵｵｽｶﾂﾞ","pref":"茨城県","city":"稲敷郡美浦村","address":"大須賀津"},
{"zip_code":"3000411","kana_pref":"ｲﾊﾞﾗｷｹﾝ","kana_city":"ｲﾅｼｷｸﾞﾝﾐﾎﾑﾗ","kana_address":"ｵｵﾀ","pref":"茨城県","city":"稲敷郡美浦村","address":"太田"},
{"zip_code":"3000416","kana_pref":"ｲﾊﾞﾗｷｹﾝ","kana_city":"ｲﾅｼｷｸﾞﾝﾐﾎﾑﾗ","kana_address":"ｵｵﾂｶ","pref":"茨城県","city":"稲敷郡美浦村","address":"大塚"},
{"zip_code":"3000413","kana_pref":"ｲﾊﾞﾗｷｹﾝ","kana_city":"ｲﾅｼｷｸﾞﾝﾐﾎﾑﾗ","kana_address":"ｵｵﾔ","pref":"茨城県","city":"稲敷郡美浦村","address":"大谷"},
{"zip_code":"3000402","kana_pref":"ｲﾊﾞﾗｷｹﾝ","kana_city":"ｲﾅｼｷｸﾞﾝﾐﾎﾑﾗ","kana_address":"ｵｵﾔﾏ","pref":"茨城県","city":"稲敷郡美浦村","address":"大山"},
{"zip_code":"3000425","kana_pref":"ｲﾊﾞﾗｷｹﾝ","kana_city":"ｲﾅｼｷｸﾞﾝﾐﾎﾑﾗ","kana_address":"ｵｷﾂ","pref":"茨城県","city":"稲敷郡美浦村","address":"興津"},
{"zip_code":"3000433","kana_pref":"ｲﾊﾞﾗｷｹﾝ","kana_city":"ｲﾅｼｷｸﾞﾝﾐﾎﾑﾗ","kana_address":"ｷ","pref":"茨城県","city":"稲敷郡美浦村","address":"木"},
{"zip_code":"3000421","kana_pref":"ｲﾊﾞﾗｷｹﾝ","kana_city":"ｲﾅｼｷｸﾞﾝﾐﾎﾑﾗ","kana_address":"ｷﾊﾗ","pref":"茨城県","city":"稲敷郡美浦村","address":"木原"},
{"zip_code":"3000420","kana_pref":"ｲﾊﾞﾗｷｹﾝ","kana_city":"ｲﾅｼｷｸﾞﾝﾐﾎﾑﾗ","kana_address":"ｺﾞｳﾅｶ","pref":"茨城県","city":"稲敷郡美浦村","address":"郷中"},
{"zip_code":"3000419","kana_pref":"ｲﾊﾞﾗｷｹﾝ","kana_city":"ｲﾅｼｷｸﾞﾝﾐﾎﾑﾗ","kana_address":"ｻﾝﾉｳ","pref":"茨城県","city":"稲敷郡美浦村","address":"山王"},
{"zip_code":"3000414","kana_pref":"ｲﾊﾞﾗｷｹﾝ","kana_city":"ｲﾅｼｷｸﾞﾝﾐﾎﾑﾗ","kana_address":"ｼﾀﾞ","pref":"茨城県","city":"稲敷郡美浦村","address":"信太"},
{"zip_code":"3000432","kana_pref":"ｲﾊﾞﾗｷｹﾝ","kana_city":"ｲﾅｼｷｸﾞﾝﾐﾎﾑﾗ","kana_address":"ｼﾞｮｳｺｳ","pref":"茨城県","city":"稲敷郡美浦村","address":"定光"},
{"zip_code":"3000404","kana_pref":"ｲﾊﾞﾗｷｹﾝ","kana_city":"ｲﾅｼｷｸﾞﾝﾐﾎﾑﾗ","kana_address":"ﾂﾁｳﾗ","pref":"茨城県","city":"稲敷郡美浦村","address":"土浦"},
{"zip_code":"3000426","kana_pref":"ｲﾊﾞﾗｷｹﾝ","kana_city":"ｲﾅｼｷｸﾞﾝﾐﾎﾑﾗ","kana_address":"ﾂﾁﾔ","pref":"茨城県","city":"稲敷郡美浦村","address":"土屋"},
{"zip_code":"3000435","kana_pref":"ｲﾊﾞﾗｷｹﾝ","kana_city":"ｲﾅｼｷｸﾞﾝﾐﾎﾑﾗ","kana_address":"ﾅｶﾉｳﾁ","pref":"茨城県","city":"稲敷郡美浦村","address":"中野内"},
{"zip_code":"3000408","kana_pref":"ｲﾊﾞﾗｷｹﾝ","kana_city":"ｲﾅｼｷｸﾞﾝﾐﾎﾑﾗ","kana_address":"ﾈﾋﾞ","pref":"茨城県","city":"稲敷郡美浦村","address":"根火"},
{"zip_code":"3000436","kana_pref":"ｲﾊﾞﾗｷｹﾝ","kana_city":"ｲﾅｼｷｸﾞﾝﾐﾎﾑﾗ","kana_address":"ﾈﾓﾄ","pref":"茨城県","city":"稲敷郡美浦村","address":"根本"},
{"zip_code":"3000418","kana_pref":"ｲﾊﾞﾗｷｹﾝ","kana_city":"ｲﾅｼｷｸﾞﾝﾐﾎﾑﾗ","kana_address":"ﾊﾅﾐﾂﾞｶ","pref":"茨城県","city":"稲敷郡美浦村","address":"花見塚"},
{"zip_code":"3000427","kana_pref":"ｲﾊﾞﾗｷｹﾝ","kana_city":"ｲﾅｼｷｸﾞﾝﾐﾎﾑﾗ","kana_address":"ﾌｻ","pref":"茨城県","city":"稲敷郡美浦村","address":"布佐"},
{"zip_code":"3000428","kana_pref":"ｲﾊﾞﾗｷｹﾝ","kana_city":"ｲﾅｼｷｸﾞﾝﾐﾎﾑﾗ","kana_address":"ﾌﾅｺ","pref":"茨城県","city":"稲敷郡美浦村","address":"舟子"},
{"zip_code":"3000434","kana_pref":"ｲﾊﾞﾗｷｹﾝ","kana_city":"ｲﾅｼｷｸﾞﾝﾐﾎﾑﾗ","kana_address":"ﾎｯﾀ","pref":"茨城県","city":"稲敷郡美浦村","address":"堀田"},
{"zip_code":"3000401","kana_pref":"ｲﾊﾞﾗｷｹﾝ","kana_city":"ｲﾅｼｷｸﾞﾝﾐﾎﾑﾗ","kana_address":"ﾏｶﾞｷ","pref":"茨城県","city":"稲敷郡美浦村","address":"馬掛"},
{"zip_code":"3000405","kana_pref":"ｲﾊﾞﾗｷｹﾝ","kana_city":"ｲﾅｼｷｸﾞﾝﾐﾎﾑﾗ","kana_address":"ﾏﾉ","pref":"茨城県","city":"稲敷郡美浦村","address":"間野"},
{"zip_code":"3000403","kana_pref":"ｲﾊﾞﾗｷｹﾝ","kana_city":"ｲﾅｼｷｸﾞﾝﾐﾎﾑﾗ","kana_address":"ﾏﾐﾔﾏ","pref":"茨城県","city":"稲敷郡美浦村","address":"馬見山"},
{"zip_code":"3000415","kana_pref":"ｲﾊﾞﾗｷｹﾝ","kana_city":"ｲﾅｼｷｸﾞﾝﾐﾎﾑﾗ","kana_address":"ﾐｺﾏ","pref":"茨城県","city":"稲敷郡美浦村","address":"美駒"},
{"zip_code":"3000410","kana_pref":"ｲﾊﾞﾗｷｹﾝ","kana_city":"ｲﾅｼｷｸﾞﾝﾐﾎﾑﾗ","kana_address":"ﾐﾄﾞﾘﾀﾞｲ","pref":"茨城県","city":"稲敷郡美浦村","address":"みどり台"},
{"zip_code":"3000437","kana_pref":"ｲﾊﾞﾗｷｹﾝ","kana_city":"ｲﾅｼｷｸﾞﾝﾐﾎﾑﾗ","kana_address":"ﾐﾊﾙ","pref":"茨城県","city":"稲敷郡美浦村","address":"見晴"},
{"zip_code":"3000412","kana_pref":"ｲﾊﾞﾗｷｹﾝ","kana_city":"ｲﾅｼｷｸﾞﾝﾐﾎﾑﾗ","kana_address":"ﾐﾔｼﾞ","pref":"茨城県","city":"稲敷郡美浦村","address":"宮地"},
{"zip_code":"3000431","kana_pref":"ｲﾊﾞﾗｷｹﾝ","kana_city":"ｲﾅｼｷｸﾞﾝﾐﾎﾑﾗ","kana_address":"ﾓﾄﾊｼ","pref":"茨城県","city":"稲敷郡美浦村","address":"本橋"},
{"zip_code":"3000423","kana_pref":"ｲﾊﾞﾗｷｹﾝ","kana_city":"ｲﾅｼｷｸﾞﾝﾐﾎﾑﾗ","kana_address":"ﾓﾛ","pref":"茨城県","city":"稲敷郡美浦村","address":"茂呂"},
{"zip_code":"3000407","kana_pref":"ｲﾊﾞﾗｷｹﾝ","kana_city":"ｲﾅｼｷｸﾞﾝﾐﾎﾑﾗ","kana_address":"ﾔｲﾀ","pref":"茨城県","city":"稲敷郡美浦村","address":"八井田"},
{"zip_code":"3000417","kana_pref":"ｲﾊﾞﾗｷｹﾝ","kana_city":"ｲﾅｼｷｸﾞﾝﾐﾎﾑﾗ","kana_address":"ﾔﾅｶ","pref":"茨城県","city":"稲敷郡美浦村","address":"谷中"},
{"zip_code":"3000406","kana_pref":"ｲﾊﾞﾗｷｹﾝ","kana_city":"ｲﾅｼｷｸﾞﾝﾐﾎﾑﾗ","kana_address":"ﾔﾏｳﾁ","pref":"茨城県","city":"稲敷郡美浦村","address":"山内"},
{"zip_code":"3000300","kana_pref":"ｲﾊﾞﾗｷｹﾝ","kana_city":"ｲﾅｼｷｸﾞﾝｱﾐﾏﾁ","kana_address":"","pref":"茨城県","city":"稲敷郡阿見町","address":""},
{"zip_code":"3000301","kana_pref":"ｲﾊﾞﾗｷｹﾝ","kana_city":"ｲﾅｼｷｸﾞﾝｱﾐﾏﾁ","kana_address":"ｱｵﾔﾄﾞ","pref":"茨城県","city":"稲敷郡阿見町","address":"青宿"},
{"zip_code":"3000306","kana_pref":"ｲﾊﾞﾗｷｹﾝ","kana_city":"ｲﾅｼｷｸﾞﾝｱﾐﾏﾁ","kana_address":"ｱｹﾎﾞﾉ","pref":"茨城県","city":"稲敷郡阿見町","address":"曙"},
{"zip_code":"3000331","kana_pref":"ｲﾊﾞﾗｷｹﾝ","kana_city":"ｲﾅｼｷｸﾞﾝｱﾐﾏﾁ","kana_address":"ｱﾐ","pref":"茨城県","city":"稲敷郡阿見町","address":"阿見"},
{"zip_code":"3001151","kana_pref":"ｲﾊﾞﾗｷｹﾝ","kana_city":"ｲﾅｼｷｸﾞﾝｱﾐﾏﾁ","kana_address":"ｱﾗｶﾜｵｷ","pref":"茨城県","city":"稲敷郡阿見町","address":"荒川沖"},
{"zip_code":"3001152","kana_pref":"ｲﾊﾞﾗｷｹﾝ","kana_city":"ｲﾅｼｷｸﾞﾝｱﾐﾏﾁ","kana_address":"ｱﾗｶﾜﾎﾝｺﾞｳ","pref":"茨城県","city":"稲敷郡阿見町","address":"荒川本郷"},
{"zip_code":"3000324","kana_pref":"ｲﾊﾞﾗｷｹﾝ","kana_city":"ｲﾅｼｷｸﾞﾝｱﾐﾏﾁ","kana_address":"ｲｲｸﾞﾗ","pref":"茨城県","city":"稲敷郡阿見町","address":"飯倉"},
{"zip_code":"3000313","kana_pref":"ｲﾊﾞﾗｷｹﾝ","kana_city":"ｲﾅｼｷｸﾞﾝｱﾐﾏﾁ","kana_address":"ｲｼｶﾜ","pref":"茨城県","city":"稲敷郡阿見町","address":"石川"},
{"zip_code":"3000341","kana_pref":"ｲﾊﾞﾗｷｹﾝ","kana_city":"ｲﾅｼｷｸﾞﾝｱﾐﾏﾁ","kana_address":"ｳｽﾞﾗﾉ","pref":"茨城県","city":"稲敷郡阿見町","address":"うずら野"},
{"zip_code":"3000323","kana_pref":"ｲﾊﾞﾗｷｹﾝ","kana_city":"ｲﾅｼｷｸﾞﾝｱﾐﾏﾁ","kana_address":"ｵｵｶﾞﾀ","pref":"茨城県","city":"稲敷郡阿見町","address":"大形"},
{"zip_code":"3000303","kana_pref":"ｲﾊﾞﾗｷｹﾝ","kana_city":"ｲﾅｼｷｸﾞﾝｱﾐﾏﾁ","kana_address":"ｵｵﾑﾛ","pref":"茨城県","city":"稲敷郡阿見町","address":"大室"},
{"zip_code":"3000335","kana_pref":"ｲﾊﾞﾗｷｹﾝ","kana_city":"ｲﾅｼｷｸﾞﾝｱﾐﾏﾁ","kana_address":"ｵｶｻﾞｷ","pref":"茨城県","city":"稲敷郡阿見町","address":"岡崎"},
{"zip_code":"3000314","kana_pref":"ｲﾊﾞﾗｷｹﾝ","kana_city":"ｲﾅｼｷｸﾞﾝｱﾐﾏﾁ","kana_address":"ｵｯﾊﾟﾗ","pref":"茨城県","city":"稲敷郡阿見町","address":"追原"},
{"zip_code":"3000304","kana_pref":"ｲﾊﾞﾗｷｹﾝ","kana_city":"ｲﾅｼｷｸﾞﾝｱﾐﾏﾁ","kana_address":"ｶｹｳﾏ","pref":"茨城県","city":"稲敷郡阿見町","address":"掛馬"},
{"zip_code":"3000315","kana_pref":"ｲﾊﾞﾗｷｹﾝ","kana_city":"ｲﾅｼｷｸﾞﾝｱﾐﾏﾁ","kana_address":"ｶｽﾐﾉｻﾄ","pref":"茨城県","city":"稲敷郡阿見町","address":"香澄の里"},
{"zip_code":"3001154","kana_pref":"ｲﾊﾞﾗｷｹﾝ","kana_city":"ｲﾅｼｷｸﾞﾝｱﾐﾏﾁ","kana_address":"ｶﾐﾅｶﾞ","pref":"茨城県","city":"稲敷郡阿見町","address":"上長"},
{"zip_code":"3000322","kana_pref":"ｲﾊﾞﾗｷｹﾝ","kana_city":"ｲﾅｼｷｸﾞﾝｱﾐﾏﾁ","kana_address":"ｷﾐｼﾞﾏ","pref":"茨城県","city":"稲敷郡阿見町","address":"君島"},
{"zip_code":"3001157","kana_pref":"ｲﾊﾞﾗｷｹﾝ","kana_city":"ｲﾅｼｷｸﾞﾝｱﾐﾏﾁ","kana_address":"ｺｲｹ","pref":"茨城県","city":"稲敷郡阿見町","address":"小池"},
{"zip_code":"3000311","kana_pref":"ｲﾊﾞﾗｷｹﾝ","kana_city":"ｲﾅｼｷｸﾞﾝｱﾐﾏﾁ","kana_address":"ｼﾏﾂﾞ","pref":"茨城県","city":"稲敷郡阿見町","address":"島津"},
{"zip_code":"3001153","kana_pref":"ｲﾊﾞﾗｷｹﾝ","kana_city":"ｲﾅｼｷｸﾞﾝｱﾐﾏﾁ","kana_address":"ｼﾞﾂｺｸ","pref":"茨城県","city":"稲敷郡阿見町","address":"実穀"},
{"zip_code":"3000325","kana_pref":"ｲﾊﾞﾗｷｹﾝ","kana_city":"ｲﾅｼｷｸﾞﾝｱﾐﾏﾁ","kana_address":"ｼﾞｮｳｼﾞｮｳ","pref":"茨城県","city":"稲敷郡阿見町","address":"上条"},
{"zip_code":"3000334","kana_pref":"ｲﾊﾞﾗｷｹﾝ","kana_city":"ｲﾅｼｷｸﾞﾝｱﾐﾏﾁ","kana_address":"ｽｽﾞｷ","pref":"茨城県","city":"稲敷郡阿見町","address":"鈴木"},
{"zip_code":"3001158","kana_pref":"ｲﾊﾞﾗｷｹﾝ","kana_city":"ｲﾅｼｷｸﾞﾝｱﾐﾏﾁ","kana_address":"ｽﾐﾖｼ","pref":"茨城県","city":"稲敷郡阿見町","address":"住吉"},
{"zip_code":"3000305","kana_pref":"ｲﾊﾞﾗｷｹﾝ","kana_city":"ｲﾅｼｷｸﾞﾝｱﾐﾏﾁ","kana_address":"ﾀｶｸ","pref":"茨城県","city":"稲敷郡阿見町","address":"竹来"},
{"zip_code":"3000332","kana_pref":"ｲﾊﾞﾗｷｹﾝ","kana_city":"ｲﾅｼｷｸﾞﾝｱﾐﾏﾁ","kana_address":"ﾁｭｳｵｳ","pref":"茨城県","city":"稲敷郡阿見町","address":"中央"},
{"zip_code":"3000337","kana_pref":"ｲﾊﾞﾗｷｹﾝ","kana_city":"ｲﾅｼｷｸﾞﾝｱﾐﾏﾁ","kana_address":"ﾅｶｺﾞｳ","pref":"茨城県","city":"稲敷郡阿見町","address":"中郷"},
{"zip_code":"3000312","kana_pref":"ｲﾊﾞﾗｷｹﾝ","kana_city":"ｲﾅｼｷｸﾞﾝｱﾐﾏﾁ","kana_address":"ﾅﾝﾍﾟｲﾀﾞｲ","pref":"茨城県","city":"稲敷郡阿見町","address":"南平台"},
{"zip_code":"3000336","kana_pref":"ｲﾊﾞﾗｷｹﾝ","kana_city":"ｲﾅｼｷｸﾞﾝｱﾐﾏﾁ","kana_address":"ﾆｼｺﾞｳ","pref":"茨城県","city":"稲敷郡阿見町","address":"西郷"},
{"zip_code":"3000302","kana_pref":"ｲﾊﾞﾗｷｹﾝ","kana_city":"ｲﾅｼｷｸﾞﾝｱﾐﾏﾁ","kana_address":"ﾊｻﾏﾄﾞ","pref":"茨城県","city":"稲敷郡阿見町","address":"廻戸"},
{"zip_code":"3000321","kana_pref":"ｲﾊﾞﾗｷｹﾝ","kana_city":"ｲﾅｼｷｸﾞﾝｱﾐﾏﾁ","kana_address":"ﾊﾅﾜ","pref":"茨城県","city":"稲敷郡阿見町","address":"塙"},
{"zip_code":"3001156","kana_pref":"ｲﾊﾞﾗｷｹﾝ","kana_city":"ｲﾅｼｷｸﾞﾝｱﾐﾏﾁ","kana_address":"ﾌｸﾀﾞ","pref":"茨城県","city":"稲敷郡阿見町","address":"福田"},
{"zip_code":"3000326","kana_pref":"ｲﾊﾞﾗｷｹﾝ","kana_city":"ｲﾅｼｷｸﾞﾝｱﾐﾏﾁ","kana_address":"ﾎｼﾉｻﾄ","pref":"茨城県","city":"稲敷郡阿見町","address":"星の里"},
{"zip_code":"3001159","kana_pref":"ｲﾊﾞﾗｷｹﾝ","kana_city":"ｲﾅｼｷｸﾞﾝｱﾐﾏﾁ","kana_address":"ﾎﾝｺﾞｳ","pref":"茨城県","city":"稲敷郡阿見町","address":"本郷"},
{"zip_code":"3001155","kana_pref":"ｲﾊﾞﾗｷｹﾝ","kana_city":"ｲﾅｼｷｸﾞﾝｱﾐﾏﾁ","kana_address":"ﾖｼﾜﾗ","pref":"茨城県","city":"稲敷郡阿見町","address":"吉原"},
{"zip_code":"3000333","kana_pref":"ｲﾊﾞﾗｷｹﾝ","kana_city":"ｲﾅｼｷｸﾞﾝｱﾐﾏﾁ","kana_address":"ﾜｶｸﾞﾘ","pref":"茨城県","city":"稲敷郡阿見町","address":"若栗"},
{"zip_code":"3001300","kana_pref":"ｲﾊﾞﾗｷｹﾝ","kana_city":"ｲﾅｼｷｸﾞﾝｶﾜﾁﾏﾁ","kana_address":"","pref":"茨城県","city":"稲敷郡河内町","address":""},
{"zip_code":"3001404","kana_pref":"ｲﾊﾞﾗｷｹﾝ","kana_city":"ｲﾅｼｷｸﾞﾝｶﾜﾁﾏﾁ","kana_address":"ｶﾀﾏｷ","pref":"茨城県","city":"稲敷郡河内町","address":"片巻"},
{"zip_code":"3001403","kana_pref":"ｲﾊﾞﾗｷｹﾝ","kana_city":"ｲﾅｼｷｸﾞﾝｶﾜﾁﾏﾁ","kana_address":"ｶﾅｴﾂ","pref":"茨城県","city":"稲敷郡河内町","address":"金江津"},
{"zip_code":"3001324","kana_pref":"ｲﾊﾞﾗｷｹﾝ","kana_city":"ｲﾅｼｷｸﾞﾝｶﾜﾁﾏﾁ","kana_address":"ｹﾞﾝｾｲﾀﾞ","pref":"茨城県","city":"稲敷郡河内町","address":"源清田"},
{"zip_code":"3001332","kana_pref":"ｲﾊﾞﾗｷｹﾝ","kana_city":"ｲﾅｼｷｸﾞﾝｶﾜﾁﾏﾁ","kana_address":"ｺｳﾔ","pref":"茨城県","city":"稲敷郡河内町","address":"幸谷"},
{"zip_code":"3001322","kana_pref":"ｲﾊﾞﾗｷｹﾝ","kana_city":"ｲﾅｼｷｸﾞﾝｶﾜﾁﾏﾁ","kana_address":"ｺｶﾞﾊﾞﾔｼ","pref":"茨城県","city":"稲敷郡河内町","address":"古河林"},
{"zip_code":"3001334","kana_pref":"ｲﾊﾞﾗｷｹﾝ","kana_city":"ｲﾅｼｷｸﾞﾝｶﾜﾁﾏﾁ","kana_address":"ｺﾊﾞﾔｼﾁｮｳﾌﾞ","pref":"茨城県","city":"稲敷郡河内町","address":"小林町歩"},
{"zip_code":"3001327","kana_pref":"ｲﾊﾞﾗｷｹﾝ","kana_city":"ｲﾅｼｷｸﾞﾝｶﾜﾁﾏﾁ","kana_address":"ｻｼﾏ","pref":"茨城県","city":"稲敷郡河内町","address":"猿島"},
{"zip_code":"3001406","kana_pref":"ｲﾊﾞﾗｷｹﾝ","kana_city":"ｲﾅｼｷｸﾞﾝｶﾜﾁﾏﾁ","kana_address":"ｼﾓｶﾉｳ","pref":"茨城県","city":"稲敷郡河内町","address":"下加納"},
{"zip_code":"3001314","kana_pref":"ｲﾊﾞﾗｷｹﾝ","kana_city":"ｲﾅｼｷｸﾞﾝｶﾜﾁﾏﾁ","kana_address":"ｼﾓﾁｮｳﾌﾞ","pref":"茨城県","city":"稲敷郡河内町","address":"下町歩"},
{"zip_code":"3001401","kana_pref":"ｲﾊﾞﾗｷｹﾝ","kana_city":"ｲﾅｼｷｸﾞﾝｶﾜﾁﾏﾁ","kana_address":"ｼﾞｭｳｻﾝﾏﾄﾞ","pref":"茨城県","city":"稲敷郡河内町","address":"十三間戸"},
{"zip_code":"3001315","kana_pref":"ｲﾊﾞﾗｷｹﾝ","kana_city":"ｲﾅｼｷｸﾞﾝｶﾜﾁﾏﾁ","kana_address":"ｼﾞｭｳﾘ","pref":"茨城県","city":"稲敷郡河内町","address":"十里"},
{"zip_code":"3001311","kana_pref":"ｲﾊﾞﾗｷｹﾝ","kana_city":"ｲﾅｼｷｸﾞﾝｶﾜﾁﾏﾁ","kana_address":"ｼｮｳﾌﾞｶﾜ","pref":"茨城県","city":"稲敷郡河内町","address":"庄布川"},
{"zip_code":"3001333","kana_pref":"ｲﾊﾞﾗｷｹﾝ","kana_city":"ｲﾅｼｷｸﾞﾝｶﾜﾁﾏﾁ","kana_address":"ｽﾐｻﾞｷﾁｮｳﾌﾞ","pref":"茨城県","city":"稲敷郡河内町","address":"角崎町歩"},
{"zip_code":"3001336","kana_pref":"ｲﾊﾞﾗｷｹﾝ","kana_city":"ｲﾅｼｷｸﾞﾝｶﾜﾁﾏﾁ","kana_address":"ﾀﾞｲﾄｸﾅﾍﾞｺｼﾝﾃﾞﾝ","pref":"茨城県","city":"稲敷郡河内町","address":"大徳鍋子新田"},
{"zip_code":"3001313","kana_pref":"ｲﾊﾞﾗｷｹﾝ","kana_city":"ｲﾅｼｷｸﾞﾝｶﾜﾁﾏﾁ","kana_address":"ﾀｶﾞﾜ","pref":"茨城県","city":"稲敷郡河内町","address":"田川"},
{"zip_code":"3001405","kana_pref":"ｲﾊﾞﾗｷｹﾝ","kana_city":"ｲﾅｼｷｸﾞﾝｶﾜﾁﾏﾁ","kana_address":"ﾀｶﾞﾜ","pref":"茨城県","city":"稲敷郡河内町","address":"田川"},
{"zip_code":"3001323","kana_pref":"ｲﾊﾞﾗｷｹﾝ","kana_city":"ｲﾅｼｷｸﾞﾝｶﾜﾁﾏﾁ","kana_address":"ﾃｸﾞﾘ","pref":"茨城県","city":"稲敷郡河内町","address":"手栗"},
{"zip_code":"3001312","kana_pref":"ｲﾊﾞﾗｷｹﾝ","kana_city":"ｲﾅｼｷｸﾞﾝｶﾜﾁﾏﾁ","kana_address":"ﾅｶﾞｻｵ","pref":"茨城県","city":"稲敷郡河内町","address":"長竿"},
{"zip_code":"3001321","kana_pref":"ｲﾊﾞﾗｷｹﾝ","kana_city":"ｲﾅｼｷｸﾞﾝｶﾜﾁﾏﾁ","kana_address":"ﾊﾈｷ","pref":"茨城県","city":"稲敷郡河内町","address":"羽子騎"},
{"zip_code":"3001402","kana_pref":"ｲﾊﾞﾗｷｹﾝ","kana_city":"ｲﾅｼｷｸﾞﾝｶﾜﾁﾏﾁ","kana_address":"ﾋﾗｶﾜ","pref":"茨城県","city":"稲敷郡河内町","address":"平川"},
{"zip_code":"3001316","kana_pref":"ｲﾊﾞﾗｷｹﾝ","kana_city":"ｲﾅｼｷｸﾞﾝｶﾜﾁﾏﾁ","kana_address":"ﾌｶﾏ","pref":"茨城県","city":"稲敷郡河内町","address":"布鎌"},
{"zip_code":"3001325","kana_pref":"ｲﾊﾞﾗｷｹﾝ","kana_city":"ｲﾅｼｷｸﾞﾝｶﾜﾁﾏﾁ","kana_address":"ﾍｲｻﾞﾌﾞﾛｳ","pref":"茨城県","city":"稲敷郡河内町","address":"平三郎"},
{"zip_code":"3001331","kana_pref":"ｲﾊﾞﾗｷｹﾝ","kana_city":"ｲﾅｼｷｸﾞﾝｶﾜﾁﾏﾁ","kana_address":"ﾏﾅｲﾀ","pref":"茨城県","city":"稲敷郡河内町","address":"生板"},
{"zip_code":"3001335","kana_pref":"ｲﾊﾞﾗｷｹﾝ","kana_city":"ｲﾅｼｷｸﾞﾝｶﾜﾁﾏﾁ","kana_address":"ﾏﾅｲﾀﾅﾍﾞｺｼﾝﾃﾞﾝ","pref":"茨城県","city":"稲敷郡河内町","address":"生板鍋子新田"},
{"zip_code":"3001326","kana_pref":"ｲﾊﾞﾗｷｹﾝ","kana_city":"ｲﾅｼｷｸﾞﾝｶﾜﾁﾏﾁ","kana_address":"ﾐﾔﾌﾞﾁ","pref":"茨城県","city":"稲敷郡河内町","address":"宮淵"},
{"zip_code":"3001337","kana_pref":"ｲﾊﾞﾗｷｹﾝ","kana_city":"ｲﾅｼｷｸﾞﾝｶﾜﾁﾏﾁ","kana_address":"ﾘｭｳｶﾞｻｷﾁｮｳﾌﾞ","pref":"茨城県","city":"稲敷郡河内町","address":"竜ケ崎町歩"},
{"zip_code":"3003500","kana_pref":"ｲﾊﾞﾗｷｹﾝ","kana_city":"ﾕｳｷｸﾞﾝﾔﾁﾖﾏﾁ","kana_address":"","pref":"茨城県","city":"結城郡八千代町","address":""},
{"zip_code":"3003555","kana_pref":"ｲﾊﾞﾗｷｹﾝ","kana_city":"ﾕｳｷｸﾞﾝﾔﾁﾖﾏﾁ","kana_address":"ｱｼｶﾞﾔ","pref":"茨城県","city":"結城郡八千代町","address":"芦ケ谷"},
{"zip_code":"3003556","kana_pref":"ｲﾊﾞﾗｷｹﾝ","kana_city":"ﾕｳｷｸﾞﾝﾔﾁﾖﾏﾁ","kana_address":"ｱｼｶﾞﾔｼﾝﾃﾞﾝ","pref":"茨城県","city":"結城郡八千代町","address":"芦ケ谷新田"},
{"zip_code":"3003519","kana_pref":"ｲﾊﾞﾗｷｹﾝ","kana_city":"ﾕｳｷｸﾞﾝﾔﾁﾖﾏﾁ","kana_address":"ｱﾗｲ","pref":"茨城県","city":"結城郡八千代町","address":"新井"},
{"zip_code":"3003535","kana_pref":"ｲﾊﾞﾗｷｹﾝ","kana_city":"ﾕｳｷｸﾞﾝﾔﾁﾖﾏﾁ","kana_address":"ｱﾜﾉ","pref":"茨城県","city":"結城郡八千代町","address":"粟野"},
{"zip_code":"3003562","kana_pref":"ｲﾊﾞﾗｷｹﾝ","kana_city":"ﾕｳｷｸﾞﾝﾔﾁﾖﾏﾁ","kana_address":"ｲｿ","pref":"茨城県","city":"結城郡八千代町","address":"磯"},
{"zip_code":"3003531","kana_pref":"ｲﾊﾞﾗｷｹﾝ","kana_city":"ﾕｳｷｸﾞﾝﾔﾁﾖﾏﾁ","kana_address":"ｲﾏｻﾞﾄ","pref":"茨城県","city":"結城郡八千代町","address":"今里"},
{"zip_code":"3003514","kana_pref":"ｲﾊﾞﾗｷｹﾝ","kana_city":"ﾕｳｷｸﾞﾝﾔﾁﾖﾏﾁ","kana_address":"ｵｵｻﾄ","pref":"茨城県","city":"結城郡八千代町","address":"大里"},
{"zip_code":"3003534","kana_pref":"ｲﾊﾞﾗｷｹﾝ","kana_city":"ﾕｳｷｸﾞﾝﾔﾁﾖﾏﾁ","kana_address":"ｵｵﾀ","pref":"茨城県","city":"結城郡八千代町","address":"太田"},
{"zip_code":"3003571","kana_pref":"ｲﾊﾞﾗｷｹﾝ","kana_city":"ﾕｳｷｸﾞﾝﾔﾁﾖﾏﾁ","kana_address":"ｵｵﾄﾞｼﾝﾃﾞﾝ","pref":"茨城県","city":"結城郡八千代町","address":"大戸新田"},
{"zip_code":"3003552","kana_pref":"ｲﾊﾞﾗｷｹﾝ","kana_city":"ﾕｳｷｸﾞﾝﾔﾁﾖﾏﾁ","kana_address":"ｵｵﾏｷﾞ","pref":"茨城県","city":"結城郡八千代町","address":"大間木"},
{"zip_code":"3003515","kana_pref":"ｲﾊﾞﾗｷｹﾝ","kana_city":"ﾕｳｷｸﾞﾝﾔﾁﾖﾏﾁ","kana_address":"ｵｵﾜﾀﾞﾄﾞ","pref":"茨城県","city":"結城郡八千代町","address":"大渡戸"},
{"zip_code":"3003554","kana_pref":"ｲﾊﾞﾗｷｹﾝ","kana_city":"ﾕｳｷｸﾞﾝﾔﾁﾖﾏﾁ","kana_address":"ｵｻｷ","pref":"茨城県","city":"結城郡八千代町","address":"尾崎"},
{"zip_code":"3003526","kana_pref":"ｲﾊﾞﾗｷｹﾝ","kana_city":"ﾕｳｷｸﾞﾝﾔﾁﾖﾏﾁ","kana_address":"ｶｲﾔ","pref":"茨城県","city":"結城郡八千代町","address":"貝谷"},
{"zip_code":"3003503","kana_pref":"ｲﾊﾞﾗｷｹﾝ","kana_city":"ﾕｳｷｸﾞﾝﾔﾁﾖﾏﾁ","kana_address":"ｶｽﾚｲ","pref":"茨城県","city":"結城郡八千代町","address":"粕礼"},
{"zip_code":"3003533","kana_pref":"ｲﾊﾞﾗｷｹﾝ","kana_city":"ﾕｳｷｸﾞﾝﾔﾁﾖﾏﾁ","kana_address":"ｶﾀｶｸ","pref":"茨城県","city":"結城郡八千代町","address":"片角"},
{"zip_code":"3003537","kana_pref":"ｲﾊﾞﾗｷｹﾝ","kana_city":"ﾕｳｷｸﾞﾝﾔﾁﾖﾏﾁ","kana_address":"ｶﾘﾊｼ","pref":"茨城県","city":"結城郡八千代町","address":"苅橋"},
{"zip_code":"3003521","kana_pref":"ｲﾊﾞﾗｷｹﾝ","kana_city":"ﾕｳｷｸﾞﾝﾔﾁﾖﾏﾁ","kana_address":"ｶﾜｼﾞﾘ","pref":"茨城県","city":"結城郡八千代町","address":"川尻"},
{"zip_code":"3003513","kana_pref":"ｲﾊﾞﾗｷｹﾝ","kana_city":"ﾕｳｷｸﾞﾝﾔﾁﾖﾏﾁ","kana_address":"ｸｹﾞﾀ","pref":"茨城県","city":"結城郡八千代町","address":"久下田"},
{"zip_code":"3003551","kana_pref":"ｲﾊﾞﾗｷｹﾝ","kana_city":"ﾕｳｷｸﾞﾝﾔﾁﾖﾏﾁ","kana_address":"ｸﾘﾔﾏ","pref":"茨城県","city":"結城郡八千代町","address":"栗山"},
{"zip_code":"3003512","kana_pref":"ｲﾊﾞﾗｷｹﾝ","kana_city":"ﾕｳｷｸﾞﾝﾔﾁﾖﾏﾁ","kana_address":"ｺﾔ","pref":"茨城県","city":"結城郡八千代町","address":"小屋"},
{"zip_code":"3003505","kana_pref":"ｲﾊﾞﾗｷｹﾝ","kana_city":"ﾕｳｷｸﾞﾝﾔﾁﾖﾏﾁ","kana_address":"ｻﾉ","pref":"茨城県","city":"結城郡八千代町","address":"佐野"},
{"zip_code":"3003501","kana_pref":"ｲﾊﾞﾗｷｹﾝ","kana_city":"ﾕｳｷｸﾞﾝﾔﾁﾖﾏﾁ","kana_address":"ｼｵﾓﾄ","pref":"茨城県","city":"結城郡八千代町","address":"塩本"},
{"zip_code":"3003502","kana_pref":"ｲﾊﾞﾗｷｹﾝ","kana_city":"ﾕｳｷｸﾞﾝﾔﾁﾖﾏﾁ","kana_address":"ｼﾓﾔﾏｶﾜ","pref":"茨城県","city":"結城郡八千代町","address":"下山川"},
{"zip_code":"3003541","kana_pref":"ｲﾊﾞﾗｷｹﾝ","kana_city":"ﾕｳｷｸﾞﾝﾔﾁﾖﾏﾁ","kana_address":"ｼﾝﾁ","pref":"茨城県","city":"結城郡八千代町","address":"新地"},
{"zip_code":"3003543","kana_pref":"ｲﾊﾞﾗｷｹﾝ","kana_city":"ﾕｳｷｸﾞﾝﾔﾁﾖﾏﾁ","kana_address":"ｼﾝﾁｼﾝﾃﾞﾝ","pref":"茨城県","city":"結城郡八千代町","address":"新地新田"},
{"zip_code":"3003572","kana_pref":"ｲﾊﾞﾗｷｹﾝ","kana_city":"ﾕｳｷｸﾞﾝﾔﾁﾖﾏﾁ","kana_address":"ｽｹﾞﾉﾔ","pref":"茨城県","city":"結城郡八千代町","address":"菅谷"},
{"zip_code":"3003511","kana_pref":"ｲﾊﾞﾗｷｹﾝ","kana_city":"ﾕｳｷｸﾞﾝﾔﾁﾖﾏﾁ","kana_address":"ｾﾄｲ","pref":"茨城県","city":"結城郡八千代町","address":"瀬戸井"},
{"zip_code":"3003516","kana_pref":"ｲﾊﾞﾗｷｹﾝ","kana_city":"ﾕｳｷｸﾞﾝﾔﾁﾖﾏﾁ","kana_address":"ﾀｶｻｷ","pref":"茨城県","city":"結城郡八千代町","address":"高崎"},
{"zip_code":"3003517","kana_pref":"ｲﾊﾞﾗｷｹﾝ","kana_city":"ﾕｳｷｸﾞﾝﾔﾁﾖﾏﾁ","kana_address":"ﾂﾎﾞｲ","pref":"茨城県","city":"結城郡八千代町","address":"坪井"},
{"zip_code":"3003536","kana_pref":"ｲﾊﾞﾗｷｹﾝ","kana_city":"ﾕｳｷｸﾞﾝﾔﾁﾖﾏﾁ","kana_address":"ﾅｶﾉ","pref":"茨城県","city":"結城郡八千代町","address":"中野"},
{"zip_code":"3003506","kana_pref":"ｲﾊﾞﾗｷｹﾝ","kana_city":"ﾕｳｷｸﾞﾝﾔﾁﾖﾏﾁ","kana_address":"ﾅﾘﾀ","pref":"茨城県","city":"結城郡八千代町","address":"成田"},
{"zip_code":"3003539","kana_pref":"ｲﾊﾞﾗｷｹﾝ","kana_city":"ﾕｳｷｸﾞﾝﾔﾁﾖﾏﾁ","kana_address":"ﾆｴﾄﾞ","pref":"茨城県","city":"結城郡八千代町","address":"仁江戸"},
{"zip_code":"3003504","kana_pref":"ｲﾊﾞﾗｷｹﾝ","kana_city":"ﾕｳｷｸﾞﾝﾔﾁﾖﾏﾁ","kana_address":"ﾆｼｵｵﾔﾏ","pref":"茨城県","city":"結城郡八千代町","address":"西大山"},
{"zip_code":"3003525","kana_pref":"ｲﾊﾞﾗｷｹﾝ","kana_city":"ﾕｳｷｸﾞﾝﾔﾁﾖﾏﾁ","kana_address":"ﾇﾏﾓﾘ","pref":"茨城県","city":"結城郡八千代町","address":"沼森"},
{"zip_code":"3003518","kana_pref":"ｲﾊﾞﾗｷｹﾝ","kana_city":"ﾕｳｷｸﾞﾝﾔﾁﾖﾏﾁ","kana_address":"ﾉﾂﾒ","pref":"茨城県","city":"結城郡八千代町","address":"野爪"},
{"zip_code":"3003523","kana_pref":"ｲﾊﾞﾗｷｹﾝ","kana_city":"ﾕｳｷｸﾞﾝﾔﾁﾖﾏﾁ","kana_address":"ﾊｯﾁｮｳ","pref":"茨城県","city":"結城郡八千代町","address":"八町"},
{"zip_code":"3003538","kana_pref":"ｲﾊﾞﾗｷｹﾝ","kana_city":"ﾕｳｷｸﾞﾝﾔﾁﾖﾏﾁ","kana_address":"ﾋｶﾞｼｵｵﾔﾏ","pref":"茨城県","city":"結城郡八千代町","address":"東大山"},
{"zip_code":"3003527","kana_pref":"ｲﾊﾞﾗｷｹﾝ","kana_city":"ﾕｳｷｸﾞﾝﾔﾁﾖﾏﾁ","kana_address":"ﾋｶﾞｼﾊﾗ","pref":"茨城県","city":"結城郡八千代町","address":"東原"},
{"zip_code":"3003545","kana_pref":"ｲﾊﾞﾗｷｹﾝ","kana_city":"ﾕｳｷｸﾞﾝﾔﾁﾖﾏﾁ","kana_address":"ﾋｶﾞｼﾌｷﾀﾞ","pref":"茨城県","city":"結城郡八千代町","address":"東蕗田"},
{"zip_code":"3003524","kana_pref":"ｲﾊﾞﾗｷｹﾝ","kana_city":"ﾕｳｷｸﾞﾝﾔﾁﾖﾏﾁ","kana_address":"ﾋｮｳｺﾞ","pref":"茨城県","city":"結城郡八千代町","address":"兵庫"},
{"zip_code":"3003561","kana_pref":"ｲﾊﾞﾗｷｹﾝ","kana_city":"ﾕｳｷｸﾞﾝﾔﾁﾖﾏﾁ","kana_address":"ﾋﾗﾂｶ","pref":"茨城県","city":"結城郡八千代町","address":"平塚"},
{"zip_code":"3003553","kana_pref":"ｲﾊﾞﾗｷｹﾝ","kana_city":"ﾕｳｷｸﾞﾝﾔﾁﾖﾏﾁ","kana_address":"ﾌｷﾀﾞ","pref":"茨城県","city":"結城郡八千代町","address":"蕗田"},
{"zip_code":"3003542","kana_pref":"ｲﾊﾞﾗｷｹﾝ","kana_city":"ﾕｳｷｸﾞﾝﾔﾁﾖﾏﾁ","kana_address":"ﾌｸｵｶ","pref":"茨城県","city":"結城郡八千代町","address":"福岡"},
{"zip_code":"3003522","kana_pref":"ｲﾊﾞﾗｷｹﾝ","kana_city":"ﾕｳｷｸﾞﾝﾔﾁﾖﾏﾁ","kana_address":"ﾌｸﾛ","pref":"茨城県","city":"結城郡八千代町","address":"袋"},
{"zip_code":"3003532","kana_pref":"ｲﾊﾞﾗｷｹﾝ","kana_city":"ﾕｳｷｸﾞﾝﾔﾁﾖﾏﾁ","kana_address":"ﾎﾝｺﾞｳ","pref":"茨城県","city":"結城郡八千代町","address":"本郷"},
{"zip_code":"3003565","kana_pref":"ｲﾊﾞﾗｷｹﾝ","kana_city":"ﾕｳｷｸﾞﾝﾔﾁﾖﾏﾁ","kana_address":"ﾏﾂﾓﾄ","pref":"茨城県","city":"結城郡八千代町","address":"松本"},
{"zip_code":"3003564","kana_pref":"ｲﾊﾞﾗｷｹﾝ","kana_city":"ﾕｳｷｸﾞﾝﾔﾁﾖﾏﾁ","kana_address":"ﾐﾉｸﾁ","pref":"茨城県","city":"結城郡八千代町","address":"水口"},
{"zip_code":"3003563","kana_pref":"ｲﾊﾞﾗｷｹﾝ","kana_city":"ﾕｳｷｸﾞﾝﾔﾁﾖﾏﾁ","kana_address":"ﾑﾗﾇｷ","pref":"茨城県","city":"結城郡八千代町","address":"村貫"},
{"zip_code":"3003544","kana_pref":"ｲﾊﾞﾗｷｹﾝ","kana_city":"ﾕｳｷｸﾞﾝﾔﾁﾖﾏﾁ","kana_address":"ﾜｶ","pref":"茨城県","city":"結城郡八千代町","address":"若"},
{"zip_code":"3001600","kana_pref":"ｲﾊﾞﾗｷｹﾝ","kana_city":"ｷﾀｿｳﾏｸﾞﾝﾄﾈﾏﾁ","kana_address":"","pref":"茨城県","city":"北相馬郡利根町","address":""},
{"zip_code":"3001603","kana_pref":"ｲﾊﾞﾗｷｹﾝ","kana_city":"ｷﾀｿｳﾏｸﾞﾝﾄﾈﾏﾁ","kana_address":"ｵｸﾔﾏ","pref":"茨城県","city":"北相馬郡利根町","address":"奥山"},
{"zip_code":"3001634","kana_pref":"ｲﾊﾞﾗｷｹﾝ","kana_city":"ｷﾀｿｳﾏｸﾞﾝﾄﾈﾏﾁ","kana_address":"ｵｼﾂｹｼﾝﾃﾞﾝ","pref":"茨城県","city":"北相馬郡利根町","address":"押付新田"},
{"zip_code":"3001602","kana_pref":"ｲﾊﾞﾗｷｹﾝ","kana_city":"ｷﾀｿｳﾏｸﾞﾝﾄﾈﾏﾁ","kana_address":"ｵｼﾄﾞ","pref":"茨城県","city":"北相馬郡利根町","address":"押戸"},
{"zip_code":"3001612","kana_pref":"ｲﾊﾞﾗｷｹﾝ","kana_city":"ｷﾀｿｳﾏｸﾞﾝﾄﾈﾏﾁ","kana_address":"ｶﾉｳｼﾝﾃﾞﾝ","pref":"茨城県","city":"北相馬郡利根町","address":"加納新田"},
{"zip_code":"3001635","kana_pref":"ｲﾊﾞﾗｷｹﾝ","kana_city":"ｷﾀｿｳﾏｸﾞﾝﾄﾈﾏﾁ","kana_address":"ｶﾐｿﾞﾈ","pref":"茨城県","city":"北相馬郡利根町","address":"上曽根"},
{"zip_code":"3001626","kana_pref":"ｲﾊﾞﾗｷｹﾝ","kana_city":"ｷﾀｿｳﾏｸﾞﾝﾄﾈﾏﾁ","kana_address":"ｼｷﾉｵｶ","pref":"茨城県","city":"北相馬郡利根町","address":"四季の丘"},
{"zip_code":"3001633","kana_pref":"ｲﾊﾞﾗｷｹﾝ","kana_city":"ｷﾀｿｳﾏｸﾞﾝﾄﾈﾏﾁ","kana_address":"ｼﾓｲ","pref":"茨城県","city":"北相馬郡利根町","address":"下井"},
{"zip_code":"3001632","kana_pref":"ｲﾊﾞﾗｷｹﾝ","kana_city":"ｷﾀｿｳﾏｸﾞﾝﾄﾈﾏﾁ","kana_address":"ｼﾓｿﾞﾈ","pref":"茨城県","city":"北相馬郡利根町","address":"下曽根"},
{"zip_code":"3001611","kana_pref":"ｲﾊﾞﾗｷｹﾝ","kana_city":"ｷﾀｿｳﾏｸﾞﾝﾄﾈﾏﾁ","kana_address":"ｿｳｼﾝﾃﾞﾝ","pref":"茨城県","city":"北相馬郡利根町","address":"惣新田"},
{"zip_code":"3001605","kana_pref":"ｲﾊﾞﾗｷｹﾝ","kana_city":"ｷﾀｿｳﾏｸﾞﾝﾄﾈﾏﾁ","kana_address":"ﾀﾞｲﾍｲ","pref":"茨城県","city":"北相馬郡利根町","address":"大平"},
{"zip_code":"3001601","kana_pref":"ｲﾊﾞﾗｷｹﾝ","kana_city":"ｷﾀｿｳﾏｸﾞﾝﾄﾈﾏﾁ","kana_address":"ﾀﾞｲﾎﾞｳ","pref":"茨城県","city":"北相馬郡利根町","address":"大房"},
{"zip_code":"3001616","kana_pref":"ｲﾊﾞﾗｷｹﾝ","kana_city":"ｷﾀｿｳﾏｸﾞﾝﾄﾈﾏﾁ","kana_address":"ﾀﾂｷﾞ","pref":"茨城県","city":"北相馬郡利根町","address":"立木"},
{"zip_code":"3001614","kana_pref":"ｲﾊﾞﾗｷｹﾝ","kana_city":"ｷﾀｿｳﾏｸﾞﾝﾄﾈﾏﾁ","kana_address":"ﾀﾂｻﾞｷ","pref":"茨城県","city":"北相馬郡利根町","address":"立崎"},
{"zip_code":"3001624","kana_pref":"ｲﾊﾞﾗｷｹﾝ","kana_city":"ｷﾀｿｳﾏｸﾞﾝﾄﾈﾏﾁ","kana_address":"ﾅｶﾀｷﾞﾘ","pref":"茨城県","city":"北相馬郡利根町","address":"中田切"},
{"zip_code":"3001615","kana_pref":"ｲﾊﾞﾗｷｹﾝ","kana_city":"ｷﾀｿｳﾏｸﾞﾝﾄﾈﾏﾁ","kana_address":"ﾅｶﾔ","pref":"茨城県","city":"北相馬郡利根町","address":"中谷"},
{"zip_code":"3001623","kana_pref":"ｲﾊﾞﾗｷｹﾝ","kana_city":"ｷﾀｿｳﾏｸﾞﾝﾄﾈﾏﾁ","kana_address":"ﾊﾁﾏﾝﾀﾞｲ","pref":"茨城県","city":"北相馬郡利根町","address":"八幡台"},
{"zip_code":"3001625","kana_pref":"ｲﾊﾞﾗｷｹﾝ","kana_city":"ｷﾀｿｳﾏｸﾞﾝﾄﾈﾏﾁ","kana_address":"ﾊﾅｶ","pref":"茨城県","city":"北相馬郡利根町","address":"羽中"},
{"zip_code":"3001636","kana_pref":"ｲﾊﾞﾗｷｹﾝ","kana_city":"ｷﾀｿｳﾏｸﾞﾝﾄﾈﾏﾁ","kana_address":"ﾊﾈﾉ","pref":"茨城県","city":"北相馬郡利根町","address":"羽根野"},
{"zip_code":"3001631","kana_pref":"ｲﾊﾞﾗｷｹﾝ","kana_city":"ｷﾀｿｳﾏｸﾞﾝﾄﾈﾏﾁ","kana_address":"ﾊﾔｵ","pref":"茨城県","city":"北相馬郡利根町","address":"早尾"},
{"zip_code":"3001613","kana_pref":"ｲﾊﾞﾗｷｹﾝ","kana_city":"ｷﾀｿｳﾏｸﾞﾝﾄﾈﾏﾁ","kana_address":"ﾋｶﾞｼｵｸﾔﾏｼﾝﾃﾞﾝ","pref":"茨城県","city":"北相馬郡利根町","address":"東奥山新田"},
{"zip_code":"3001622","kana_pref":"ｲﾊﾞﾗｷｹﾝ","kana_city":"ｷﾀｿｳﾏｸﾞﾝﾄﾈﾏﾁ","kana_address":"ﾌｶﾜ","pref":"茨城県","city":"北相馬郡利根町","address":"布川"},
{"zip_code":"3001621","kana_pref":"ｲﾊﾞﾗｷｹﾝ","kana_city":"ｷﾀｿｳﾏｸﾞﾝﾄﾈﾏﾁ","kana_address":"ﾌｸﾉｷ","pref":"茨城県","city":"北相馬郡利根町","address":"福木"},
{"zip_code":"3001606","kana_pref":"ｲﾊﾞﾗｷｹﾝ","kana_city":"ｷﾀｿｳﾏｸﾞﾝﾄﾈﾏﾁ","kana_address":"ﾓｴｷﾞﾉﾀﾞｲ","pref":"茨城県","city":"北相馬郡利根町","address":"もえぎ野台"},
{"zip_code":"3001604","kana_pref":"ｲﾊﾞﾗｷｹﾝ","kana_city":"ｷﾀｿｳﾏｸﾞﾝﾄﾈﾏﾁ","kana_address":"ﾖｺｽｶ","pref":"茨城県","city":"北相馬郡利根町","address":"横須賀"}]}