{"zip_code":[
{"zip_code":"3010000","kana_pref":"ｲﾊﾞﾗｷｹﾝ","kana_city":"ﾘｭｳｶﾞｻｷｼ","kana_address":"","pref":"茨城県","city":"龍ケ崎市","address":""},
{"zip_code":"3010821","kana_pref":"ｲﾊﾞﾗｷｹﾝ","kana_city":"ﾘｭｳｶﾞｻｷｼ","kana_address":"ｱｽﾞﾏﾏﾁ","pref":"茨城県","city":"龍ケ崎市","address":"東町"},
{"zip_code":"3010838","kana_pref":"ｲﾊﾞﾗｷｹﾝ","kana_city":"ﾘｭｳｶﾞｻｷｼ","kana_address":"ｱﾀﾄﾞﾏﾁ","pref":"茨城県","city":"龍ケ崎市","address":"愛戸町"},
{"zip_code":"3010857","kana_pref":"ｲﾊﾞﾗｷｹﾝ","kana_city":"ﾘｭｳｶﾞｻｷｼ","kana_address":"ｲｽﾞﾐﾏﾁ","pref":"茨城県","city":"龍ケ崎市","address":"泉町"},
{"zip_code":"3010801","kana_pref":"ｲﾊﾞﾗｷｹﾝ","kana_city":"ﾘｭｳｶﾞｻｷｼ","kana_address":"ｲﾀﾊﾞｼﾏﾁ","pref":"茨城県","city":"龍ケ崎市","address":"板橋町"},
{"zip_code":"3010045","kana_pref":"ｲﾊﾞﾗｷｹﾝ","kana_city":"ﾘｭｳｶﾞｻｷｼ","kana_address":"ｲﾅﾘｼﾝﾃﾞﾝﾏﾁ","pref":"茨城県","city":"龍ケ崎市","address":"稲荷新田町"},
{"zip_code":"3010046","kana_pref":"ｲﾊﾞﾗｷｹﾝ","kana_city":"ﾘｭｳｶﾞｻｷｼ","kana_address":"ｲﾚｼﾞﾏﾁ","pref":"茨城県","city":"龍ケ崎市","address":"入地町"},
{"zip_code":"3010805","kana_pref":"ｲﾊﾞﾗｷｹﾝ","kana_city":"ﾘｭｳｶﾞｻｷｼ","kana_address":"ｳｽｸﾗﾏﾁ","pref":"茨城県","city":"龍ケ崎市","address":"薄倉町"},
{"zip_code":"3010851","kana_pref":"ｲﾊﾞﾗｷｹﾝ","kana_city":"ﾘｭｳｶﾞｻｷｼ","kana_address":"ｵｵﾂｶﾏﾁ","pref":"茨城県","city":"龍ケ崎市","address":"大塚町"},
{"zip_code":"3010025","kana_pref":"ｲﾊﾞﾗｷｹﾝ","kana_city":"ﾘｭｳｶﾞｻｷｼ","kana_address":"ｵｵﾄﾞﾒﾏﾁ","pref":"茨城県","city":"龍ケ崎市","address":"大留町"},
{"zip_code":"3010856","kana_pref":"ｲﾊﾞﾗｷｹﾝ","kana_city":"ﾘｭｳｶﾞｻｷｼ","kana_address":"ｶｲﾊﾗﾂｶﾏﾁ","pref":"茨城県","city":"龍ケ崎市","address":"貝原塚町"},
{"zip_code":"3010006","kana_pref":"ｲﾊﾞﾗｷｹﾝ","kana_city":"ﾘｭｳｶﾞｻｷｼ","kana_address":"ｶﾄﾞｸﾗｼﾝﾃﾞﾝﾏﾁ","pref":"茨城県","city":"龍ケ崎市","address":"門倉新田町"},
{"zip_code":"3010817","kana_pref":"ｲﾊﾞﾗｷｹﾝ","kana_city":"ﾘｭｳｶﾞｻｷｼ","kana_address":"ｶﾐﾀﾞｲﾄｸｼﾝﾏﾁ","pref":"茨城県","city":"龍ケ崎市","address":"上大徳新町"},
{"zip_code":"3010012","kana_pref":"ｲﾊﾞﾗｷｹﾝ","kana_city":"ﾘｭｳｶﾞｻｷｼ","kana_address":"ｶﾐﾏﾁ","pref":"茨城県","city":"龍ケ崎市","address":"上町"},
{"zip_code":"3010048","kana_pref":"ｲﾊﾞﾗｷｹﾝ","kana_city":"ﾘｭｳｶﾞｻｷｼ","kana_address":"ｶﾜｻｷﾏﾁ","pref":"茨城県","city":"龍ケ崎市","address":"川崎町"},
{"zip_code":"3010825","kana_pref":"ｲﾊﾞﾗｷｹﾝ","kana_city":"ﾘｭｳｶﾞｻｷｼ","kana_address":"ｶﾜﾖｺﾞｳ","pref":"茨城県","city":"龍ケ崎市","address":"川余郷"},
{"zip_code":"3010005","kana_pref":"ｲﾊﾞﾗｷｹﾝ","kana_city":"ﾘｭｳｶﾞｻｷｼ","kana_address":"ｶﾜﾗｼﾛﾏﾁ","pref":"茨城県","city":"龍ケ崎市","address":"川原代町"},
{"zip_code":"3010021","kana_pref":"ｲﾊﾞﾗｷｹﾝ","kana_city":"ﾘｭｳｶﾞｻｷｼ","kana_address":"ｷﾀｶﾀﾏﾁ","pref":"茨城県","city":"龍ケ崎市","address":"北方町"},
{"zip_code":"3010001","kana_pref":"ｲﾊﾞﾗｷｹﾝ","kana_city":"ﾘｭｳｶﾞｻｷｼ","kana_address":"ｸﾎﾞﾀﾞｲ","pref":"茨城県","city":"龍ケ崎市","address":"久保台"},
{"zip_code":"3010802","kana_pref":"ｲﾊﾞﾗｷｹﾝ","kana_city":"ﾘｭｳｶﾞｻｷｼ","kana_address":"ｺｳｻﾏﾁ","pref":"茨城県","city":"龍ケ崎市","address":"高作町"},
{"zip_code":"3010822","kana_pref":"ｲﾊﾞﾗｷｹﾝ","kana_city":"ﾘｭｳｶﾞｻｷｼ","kana_address":"ｺｳｼﾞｭﾝﾀ","pref":"茨城県","city":"龍ケ崎市","address":"光順田"},
{"zip_code":"3010852","kana_pref":"ｲﾊﾞﾗｷｹﾝ","kana_city":"ﾘｭｳｶﾞｻｷｼ","kana_address":"ｺｳﾖｳﾀﾞｲ","pref":"茨城県","city":"龍ケ崎市","address":"向陽台"},
{"zip_code":"3010044","kana_pref":"ｲﾊﾞﾗｷｹﾝ","kana_city":"ﾘｭｳｶﾞｻｷｼ","kana_address":"ｺｼﾊﾞ","pref":"茨城県","city":"龍ケ崎市","address":"小柴"},
{"zip_code":"3010834","kana_pref":"ｲﾊﾞﾗｷｹﾝ","kana_city":"ﾘｭｳｶﾞｻｷｼ","kana_address":"ｺｼﾞｮｳ","pref":"茨城県","city":"龍ケ崎市","address":"古城"},
{"zip_code":"3010034","kana_pref":"ｲﾊﾞﾗｷｹﾝ","kana_city":"ﾘｭｳｶﾞｻｷｼ","kana_address":"ｺﾄｵﾘｺｳﾔﾏﾁ","pref":"茨城県","city":"龍ケ崎市","address":"小通幸谷町"},
{"zip_code":"3010018","kana_pref":"ｲﾊﾞﾗｷｹﾝ","kana_city":"ﾘｭｳｶﾞｻｷｼ","kana_address":"ｺﾒﾏﾁ","pref":"茨城県","city":"龍ケ崎市","address":"米町"},
{"zip_code":"3010826","kana_pref":"ｲﾊﾞﾗｷｹﾝ","kana_city":"ﾘｭｳｶﾞｻｷｼ","kana_address":"ｻｶｴﾏﾁ","pref":"茨城県","city":"龍ケ崎市","address":"栄町"},
{"zip_code":"3010032","kana_pref":"ｲﾊﾞﾗｷｹﾝ","kana_city":"ﾘｭｳｶﾞｻｷｼ","kana_address":"ｻﾇｷ","pref":"茨城県","city":"龍ケ崎市","address":"佐貫"},
{"zip_code":"3010033","kana_pref":"ｲﾊﾞﾗｷｹﾝ","kana_city":"ﾘｭｳｶﾞｻｷｼ","kana_address":"ｻﾇｷﾏﾁ","pref":"茨城県","city":"龍ケ崎市","address":"佐貫町"},
{"zip_code":"3010812","kana_pref":"ｲﾊﾞﾗｷｹﾝ","kana_city":"ﾘｭｳｶﾞｻｷｼ","kana_address":"ｻﾇﾏﾏﾁ","pref":"茨城県","city":"龍ケ崎市","address":"佐沼町"},
{"zip_code":"3010824","kana_pref":"ｲﾊﾞﾗｷｹﾝ","kana_city":"ﾘｭｳｶﾞｻｷｼ","kana_address":"ｼﾓﾏﾁ","pref":"茨城県","city":"龍ケ崎市","address":"下町"},
{"zip_code":"3010847","kana_pref":"ｲﾊﾞﾗｷｹﾝ","kana_city":"ﾘｭｳｶﾞｻｷｼ","kana_address":"ｼﾞｮｳﾉｳﾁ","pref":"茨城県","city":"龍ケ崎市","address":"城ノ内"},
{"zip_code":"3010031","kana_pref":"ｲﾊﾞﾗｷｹﾝ","kana_city":"ﾘｭｳｶﾞｻｷｼ","kana_address":"ｼｮｳﾍﾞｴｼﾝﾃﾞﾝﾏﾁ","pref":"茨城県","city":"龍ケ崎市","address":"庄兵衛新田町"},
{"zip_code":"3010841","kana_pref":"ｲﾊﾞﾗｷｹﾝ","kana_city":"ﾘｭｳｶﾞｻｷｼ","kana_address":"ｼﾗﾊﾈ","pref":"茨城県","city":"龍ケ崎市","address":"白羽"},
{"zip_code":"3010833","kana_pref":"ｲﾊﾞﾗｷｹﾝ","kana_city":"ﾘｭｳｶﾞｻｷｼ","kana_address":"ｼﾛｼﾀ","pref":"茨城県","city":"龍ケ崎市","address":"城下"},
{"zip_code":"3010813","kana_pref":"ｲﾊﾞﾗｷｹﾝ","kana_city":"ﾘｭｳｶﾞｻｷｼ","kana_address":"ｼﾝﾏﾁ","pref":"茨城県","city":"龍ケ崎市","address":"新町"},
{"zip_code":"3010815","kana_pref":"ｲﾊﾞﾗｷｹﾝ","kana_city":"ﾘｭｳｶﾞｻｷｼ","kana_address":"ｽｳﾌﾞﾅ","pref":"茨城県","city":"龍ケ崎市","address":"直鮒"},
{"zip_code":"3010014","kana_pref":"ｲﾊﾞﾗｷｹﾝ","kana_city":"ﾘｭｳｶﾞｻｷｼ","kana_address":"ｽﾄｳﾎﾘﾏﾁ","pref":"茨城県","city":"龍ケ崎市","address":"須藤堀町"},
{"zip_code":"3010823","kana_pref":"ｲﾊﾞﾗｷｹﾝ","kana_city":"ﾘｭｳｶﾞｻｷｼ","kana_address":"ｽﾅﾏﾁ","pref":"茨城県","city":"龍ケ崎市","address":"砂町"},
{"zip_code":"3010816","kana_pref":"ｲﾊﾞﾗｷｹﾝ","kana_city":"ﾘｭｳｶﾞｻｷｼ","kana_address":"ﾀﾞｲﾄｸﾏﾁ","pref":"茨城県","city":"龍ケ崎市","address":"大徳町"},
{"zip_code":"3010814","kana_pref":"ｲﾊﾞﾗｷｹﾝ","kana_city":"ﾘｭｳｶﾞｻｷｼ","kana_address":"ﾀｶｽﾅ","pref":"茨城県","city":"龍ケ崎市","address":"高砂"},
{"zip_code":"3010026","kana_pref":"ｲﾊﾞﾗｷｹﾝ","kana_city":"ﾘｭｳｶﾞｻｷｼ","kana_address":"ﾀｶｽﾏﾁ","pref":"茨城県","city":"龍ケ崎市","address":"高須町"},
{"zip_code":"3010839","kana_pref":"ｲﾊﾞﾗｷｹﾝ","kana_city":"ﾘｭｳｶﾞｻｷｼ","kana_address":"ﾀﾞｼﾔﾏﾏﾁ","pref":"茨城県","city":"龍ケ崎市","address":"出し山町"},
{"zip_code":"3010835","kana_pref":"ｲﾊﾞﾗｷｹﾝ","kana_city":"ﾘｭｳｶﾞｻｷｼ","kana_address":"ﾀﾏﾁ","pref":"茨城県","city":"龍ケ崎市","address":"田町"},
{"zip_code":"3010836","kana_pref":"ｲﾊﾞﾗｷｹﾝ","kana_city":"ﾘｭｳｶﾞｻｷｼ","kana_address":"ﾃﾗｺﾞ","pref":"茨城県","city":"龍ケ崎市","address":"寺後"},
{"zip_code":"3010024","kana_pref":"ｲﾊﾞﾗｷｹﾝ","kana_city":"ﾘｭｳｶﾞｻｷｼ","kana_address":"ﾄﾖﾀﾞﾏﾁ","pref":"茨城県","city":"龍ケ崎市","address":"豊田町"},
{"zip_code":"3010854","kana_pref":"ｲﾊﾞﾗｷｹﾝ","kana_city":"ﾘｭｳｶﾞｻｷｼ","kana_address":"ﾅｶｻﾞﾄﾏﾁ","pref":"茨城県","city":"龍ケ崎市","address":"中里"},
{"zip_code":"3010002","kana_pref":"ｲﾊﾞﾗｷｹﾝ","kana_city":"ﾘｭｳｶﾞｻｷｼ","kana_address":"ﾅｶﾈﾀﾞｲ","pref":"茨城県","city":"龍ケ崎市","address":"中根台"},
{"zip_code":"3010016","kana_pref":"ｲﾊﾞﾗｷｹﾝ","kana_city":"ﾘｭｳｶﾞｻｷｼ","kana_address":"ﾅｶﾞｵｷｼﾝﾃﾞﾝﾏﾁ","pref":"茨城県","city":"龍ケ崎市","address":"長沖新田町"},
{"zip_code":"3010015","kana_pref":"ｲﾊﾞﾗｷｹﾝ","kana_city":"ﾘｭｳｶﾞｻｷｼ","kana_address":"ﾅｶﾞｵｷﾏﾁ","pref":"茨城県","city":"龍ケ崎市","address":"長沖町"},
{"zip_code":"3010804","kana_pref":"ｲﾊﾞﾗｷｹﾝ","kana_city":"ﾘｭｳｶﾞｻｷｼ","kana_address":"ﾅｶﾞﾐﾈﾏﾁ","pref":"茨城県","city":"龍ケ崎市","address":"長峰町"},
{"zip_code":"3010042","kana_pref":"ｲﾊﾞﾗｷｹﾝ","kana_city":"ﾘｭｳｶﾞｻｷｼ","kana_address":"ﾅｶﾞﾔﾏ","pref":"茨城県","city":"龍ケ崎市","address":"長山"},
{"zip_code":"3010845","kana_pref":"ｲﾊﾞﾗｷｹﾝ","kana_city":"ﾘｭｳｶﾞｻｷｼ","kana_address":"ﾅﾄﾞｵｶ","pref":"茨城県","city":"龍ケ崎市","address":"奈戸岡"},
{"zip_code":"3010004","kana_pref":"ｲﾊﾞﾗｷｹﾝ","kana_city":"ﾘｭｳｶﾞｻｷｼ","kana_address":"ﾅﾚｳﾏﾏﾁ","pref":"茨城県","city":"龍ケ崎市","address":"馴馬町"},
{"zip_code":"3010007","kana_pref":"ｲﾊﾞﾗｷｹﾝ","kana_city":"ﾘｭｳｶﾞｻｷｼ","kana_address":"ﾅﾚｼﾊﾞﾏﾁ","pref":"茨城県","city":"龍ケ崎市","address":"馴柴町"},
{"zip_code":"3010803","kana_pref":"ｲﾊﾞﾗｷｹﾝ","kana_city":"ﾘｭｳｶﾞｻｷｼ","kana_address":"ﾇﾙﾄﾏﾁ","pref":"茨城県","city":"龍ケ崎市","address":"塗戸町"},
{"zip_code":"3010837","kana_pref":"ｲﾊﾞﾗｷｹﾝ","kana_city":"ﾘｭｳｶﾞｻｷｼ","kana_address":"ﾈﾏﾁ","pref":"茨城県","city":"龍ケ崎市","address":"根町"},
{"zip_code":"3010023","kana_pref":"ｲﾊﾞﾗｷｹﾝ","kana_city":"ﾘｭｳｶﾞｻｷｼ","kana_address":"ﾊｸﾞﾛﾏﾁ","pref":"茨城県","city":"龍ケ崎市","address":"羽黒町"},
{"zip_code":"3010843","kana_pref":"ｲﾊﾞﾗｷｹﾝ","kana_city":"ﾘｭｳｶﾞｻｷｼ","kana_address":"ﾊﾊﾞﾗﾏﾁ","pref":"茨城県","city":"龍ケ崎市","address":"羽原町"},
{"zip_code":"3010806","kana_pref":"ｲﾊﾞﾗｷｹﾝ","kana_city":"ﾘｭｳｶﾞｻｷｼ","kana_address":"ﾊﾝﾀﾞﾏﾁ","pref":"茨城県","city":"龍ケ崎市","address":"半田町"},
{"zip_code":"3010035","kana_pref":"ｲﾊﾞﾗｷｹﾝ","kana_city":"ﾘｭｳｶﾞｻｷｼ","kana_address":"ﾋｴｶﾞﾗﾏﾁ","pref":"茨城県","city":"龍ケ崎市","address":"稗柄町"},
{"zip_code":"3010017","kana_pref":"ｲﾊﾞﾗｷｹﾝ","kana_city":"ﾘｭｳｶﾞｻｷｼ","kana_address":"ﾋﾒﾐﾔﾏﾁ","pref":"茨城県","city":"龍ケ崎市","address":"姫宮町"},
{"zip_code":"3010003","kana_pref":"ｲﾊﾞﾗｷｹﾝ","kana_city":"ﾘｭｳｶﾞｻｷｼ","kana_address":"ﾋﾗﾀﾞｲ","pref":"茨城県","city":"龍ケ崎市","address":"平台"},
{"zip_code":"3010844","kana_pref":"ｲﾊﾞﾗｷｹﾝ","kana_city":"ﾘｭｳｶﾞｻｷｼ","kana_address":"ﾋﾗﾊﾀ","pref":"茨城県","city":"龍ケ崎市","address":"平畑"},
{"zip_code":"3010855","kana_pref":"ｲﾊﾞﾗｷｹﾝ","kana_city":"ﾘｭｳｶﾞｻｷｼ","kana_address":"ﾌｼﾞｶﾞｵｶ","pref":"茨城県","city":"龍ケ崎市","address":"藤ケ丘"},
{"zip_code":"3010846","kana_pref":"ｲﾊﾞﾗｷｹﾝ","kana_city":"ﾘｭｳｶﾞｻｷｼ","kana_address":"ﾍﾞｯｼｮﾏﾁ","pref":"茨城県","city":"龍ケ崎市","address":"別所町"},
{"zip_code":"3010853","kana_pref":"ｲﾊﾞﾗｷｹﾝ","kana_city":"ﾘｭｳｶﾞｻｷｼ","kana_address":"ﾏﾂｶﾞｵｶ","pref":"茨城県","city":"龍ケ崎市","address":"松ケ丘"},
{"zip_code":"3010043","kana_pref":"ｲﾊﾞﾗｷｹﾝ","kana_city":"ﾘｭｳｶﾞｻｷｼ","kana_address":"ﾏﾂﾊﾞ","pref":"茨城県","city":"龍ケ崎市","address":"松葉"},
{"zip_code":"3010013","kana_pref":"ｲﾊﾞﾗｷｹﾝ","kana_city":"ﾘｭｳｶﾞｻｷｼ","kana_address":"ﾐｽﾞﾓﾝ","pref":"茨城県","city":"龍ケ崎市","address":"水門"},
{"zip_code":"3010832","kana_pref":"ｲﾊﾞﾗｷｹﾝ","kana_city":"ﾘｭｳｶﾞｻｷｼ","kana_address":"ﾐﾄﾞﾘﾁｮｳ","pref":"茨城県","city":"龍ケ崎市","address":"緑町"},
{"zip_code":"3010022","kana_pref":"ｲﾊﾞﾗｷｹﾝ","kana_city":"ﾘｭｳｶﾞｻｷｼ","kana_address":"ﾐﾅﾐｶﾞｵｶ","pref":"茨城県","city":"龍ケ崎市","address":"南が丘"},
{"zip_code":"3010047","kana_pref":"ｲﾊﾞﾗｷｹﾝ","kana_city":"ﾘｭｳｶﾞｻｷｼ","kana_address":"ﾐﾅﾐﾅｶｼﾞﾏﾏﾁ","pref":"茨城県","city":"龍ケ崎市","address":"南中島町"},
{"zip_code":"3010811","kana_pref":"ｲﾊﾞﾗｷｹﾝ","kana_city":"ﾘｭｳｶﾞｻｷｼ","kana_address":"ﾐﾔﾌﾞﾁﾏﾁ","pref":"茨城県","city":"龍ケ崎市","address":"宮渕町"},
{"zip_code":"3010842","kana_pref":"ｲﾊﾞﾗｷｹﾝ","kana_city":"ﾘｭｳｶﾞｻｷｼ","kana_address":"ﾔｼﾛﾏﾁ","pref":"茨城県","city":"龍ケ崎市","address":"八代町"},
{"zip_code":"3010831","kana_pref":"ｲﾊﾞﾗｷｹﾝ","kana_city":"ﾘｭｳｶﾞｻｷｼ","kana_address":"ﾔﾊﾗﾏﾁ","pref":"茨城県","city":"龍ケ崎市","address":"野原町"},
{"zip_code":"3010011","kana_pref":"ｲﾊﾞﾗｷｹﾝ","kana_city":"ﾘｭｳｶﾞｻｷｼ","kana_address":"ﾖｺﾏﾁ","pref":"茨城県","city":"龍ケ崎市","address":"横町"},
{"zip_code":"3010041","kana_pref":"ｲﾊﾞﾗｷｹﾝ","kana_city":"ﾘｭｳｶﾞｻｷｼ","kana_address":"ﾜｶｼﾊﾞﾏﾁ","pref":"茨城県","city":"龍ケ崎市","address":"若柴町"},
{"zip_code":"3010902","kana_pref":"ｲﾊﾞﾗｷｹﾝ","kana_city":"ｲﾅｼｷｼ","kana_address":"ｶﾐﾈﾓﾄ","pref":"茨城県","city":"稲敷市","address":"上根本"},
{"zip_code":"3010901","kana_pref":"ｲﾊﾞﾗｷｹﾝ","kana_city":"ｲﾅｼｷｼ","kana_address":"ｼﾓﾈﾓﾄ","pref":"茨城県","city":"稲敷市","address":"下根本"}]}