{"zip_code":[
{"zip_code":"3030000","kana_pref":"ｲﾊﾞﾗｷｹﾝ","kana_city":"ｼﾞｮｳｿｳｼ","kana_address":"","pref":"茨城県","city":"常総市","address":""},
{"zip_code":"3030002","kana_pref":"ｲﾊﾞﾗｷｹﾝ","kana_city":"ｼﾞｮｳｿｳｼ","kana_address":"ｱｲﾉﾔﾏﾁ","pref":"茨城県","city":"常総市","address":"相野谷町"},
{"zip_code":"3030011","kana_pref":"ｲﾊﾞﾗｷｹﾝ","kana_city":"ｼﾞｮｳｿｳｼ","kana_address":"ｱｽﾞﾏﾁｮｳ","pref":"茨城県","city":"常総市","address":"東町"},
{"zip_code":"3030016","kana_pref":"ｲﾊﾞﾗｷｹﾝ","kana_city":"ｼﾞｮｳｿｳｼ","kana_address":"ｱﾗｲｷﾞﾏﾁ","pref":"茨城県","city":"常総市","address":"新井木町"},
{"zip_code":"3030043","kana_pref":"ｲﾊﾞﾗｷｹﾝ","kana_city":"ｼﾞｮｳｿｳｼ","kana_address":"ｳﾁﾓﾘﾔﾏﾁ","pref":"茨城県","city":"常総市","address":"内守谷町"},
{"zip_code":"3030046","kana_pref":"ｲﾊﾞﾗｷｹﾝ","kana_city":"ｼﾞｮｳｿｳｼ","kana_address":"ｳﾁﾓﾘﾔﾏﾁｷﾇﾉｻﾄ","pref":"茨城県","city":"常総市","address":"内守谷町きぬの里"},
{"zip_code":"3030012","kana_pref":"ｲﾊﾞﾗｷｹﾝ","kana_city":"ｼﾞｮｳｿｳｼ","kana_address":"ｵｵｻｷﾏﾁ","pref":"茨城県","city":"常総市","address":"大崎町"},
{"zip_code":"3030045","kana_pref":"ｲﾊﾞﾗｷｹﾝ","kana_city":"ｼﾞｮｳｿｳｼ","kana_address":"ｵｵﾂｶﾄﾞﾏﾁ","pref":"茨城県","city":"常総市","address":"大塚戸町"},
{"zip_code":"3030006","kana_pref":"ｲﾊﾞﾗｷｹﾝ","kana_city":"ｼﾞｮｳｿｳｼ","kana_address":"ｺﾔﾏﾄﾞﾏﾁ","pref":"茨城県","city":"常総市","address":"小山戸町"},
{"zip_code":"3030042","kana_pref":"ｲﾊﾞﾗｷｹﾝ","kana_city":"ｼﾞｮｳｿｳｼ","kana_address":"ｻｶﾃﾏﾁ","pref":"茨城県","city":"常総市","address":"坂手町"},
{"zip_code":"3030018","kana_pref":"ｲﾊﾞﾗｷｹﾝ","kana_city":"ｼﾞｮｳｿｳｼ","kana_address":"ｼﾞｭｯｶﾏﾁ","pref":"茨城県","city":"常総市","address":"十花町"},
{"zip_code":"3030044","kana_pref":"ｲﾊﾞﾗｷｹﾝ","kana_city":"ｼﾞｮｳｿｳｼ","kana_address":"ｽｶﾞｵﾏﾁ","pref":"茨城県","city":"常総市","address":"菅生町"},
{"zip_code":"3030015","kana_pref":"ｲﾊﾞﾗｷｹﾝ","kana_city":"ｼﾞｮｳｿｳｼ","kana_address":"ﾁｮｳｽｹﾏﾁ","pref":"茨城県","city":"常総市","address":"長助町"},
{"zip_code":"3030041","kana_pref":"ｲﾊﾞﾗｷｹﾝ","kana_city":"ｼﾞｮｳｿｳｼ","kana_address":"ﾄﾖｵｶﾏﾁ","pref":"茨城県","city":"常総市","address":"豊岡町"},
{"zip_code":"3030001","kana_pref":"ｲﾊﾞﾗｷｹﾝ","kana_city":"ｼﾞｮｳｿｳｼ","kana_address":"ﾅｶﾔﾏﾏﾁ","pref":"茨城県","city":"常総市","address":"中山町"},
{"zip_code":"3030014","kana_pref":"ｲﾊﾞﾗｷｹﾝ","kana_city":"ｼﾞｮｳｿｳｼ","kana_address":"ﾋｮｳﾏﾁ","pref":"茨城県","city":"常総市","address":"兵町"},
{"zip_code":"3030017","kana_pref":"ｲﾊﾞﾗｷｹﾝ","kana_city":"ｼﾞｮｳｿｳｼ","kana_address":"ﾍｲﾏﾁ","pref":"茨城県","city":"常総市","address":"平町"},
{"zip_code":"3030025","kana_pref":"ｲﾊﾞﾗｷｹﾝ","kana_city":"ｼﾞｮｳｿｳｼ","kana_address":"ﾐﾂｶｲﾄﾞｳｶﾒｵｶﾁｮｳ","pref":"茨城県","city":"常総市","address":"水海道亀岡町"},
{"zip_code":"3030032","kana_pref":"ｲﾊﾞﾗｷｹﾝ","kana_city":"ｼﾞｮｳｿｳｼ","kana_address":"ﾐﾂｶｲﾄﾞｳｶﾜﾏﾀﾁｮｳ","pref":"茨城県","city":"常総市","address":"水海道川又町"},
{"zip_code":"3030033","kana_pref":"ｲﾊﾞﾗｷｹﾝ","kana_city":"ｼﾞｮｳｿｳｼ","kana_address":"ﾐﾂｶｲﾄﾞｳｺｳﾔﾏﾁ","pref":"茨城県","city":"常総市","address":"水海道高野町"},
{"zip_code":"3030024","kana_pref":"ｲﾊﾞﾗｷｹﾝ","kana_city":"ｼﾞｮｳｿｳｼ","kana_address":"ﾐﾂｶｲﾄﾞｳｻｶｴﾁｮｳ","pref":"茨城県","city":"常総市","address":"水海道栄町"},
{"zip_code":"3030021","kana_pref":"ｲﾊﾞﾗｷｹﾝ","kana_city":"ｼﾞｮｳｿｳｼ","kana_address":"ﾐﾂｶｲﾄﾞｳｽﾜﾏﾁ","pref":"茨城県","city":"常総市","address":"水海道諏訪町"},
{"zip_code":"3030023","kana_pref":"ｲﾊﾞﾗｷｹﾝ","kana_city":"ｼﾞｮｳｿｳｼ","kana_address":"ﾐﾂｶｲﾄﾞｳﾀｶﾗﾏﾁ","pref":"茨城県","city":"常総市","address":"水海道宝町"},
{"zip_code":"3030034","kana_pref":"ｲﾊﾞﾗｷｹﾝ","kana_city":"ｼﾞｮｳｿｳｼ","kana_address":"ﾐﾂｶｲﾄﾞｳﾃﾝﾏﾝﾁｮｳ","pref":"茨城県","city":"常総市","address":"水海道天満町"},
{"zip_code":"3030003","kana_pref":"ｲﾊﾞﾗｷｹﾝ","kana_city":"ｼﾞｮｳｿｳｼ","kana_address":"ﾐﾂｶｲﾄﾞｳﾊｼﾓﾄﾁｮｳ","pref":"茨城県","city":"常総市","address":"水海道橋本町"},
{"zip_code":"3030022","kana_pref":"ｲﾊﾞﾗｷｹﾝ","kana_city":"ｼﾞｮｳｿｳｼ","kana_address":"ﾐﾂｶｲﾄﾞｳﾌﾁｶﾞｼﾗﾏﾁ","pref":"茨城県","city":"常総市","address":"水海道淵頭町"},
{"zip_code":"3030026","kana_pref":"ｲﾊﾞﾗｷｹﾝ","kana_city":"ｼﾞｮｳｿｳｼ","kana_address":"ﾐﾂｶｲﾄﾞｳﾎﾝﾁｮｳ","pref":"茨城県","city":"常総市","address":"水海道本町"},
{"zip_code":"3030004","kana_pref":"ｲﾊﾞﾗｷｹﾝ","kana_city":"ｼﾞｮｳｿｳｼ","kana_address":"ﾐﾂｶｲﾄﾞｳﾓﾄﾏﾁ","pref":"茨城県","city":"常総市","address":"水海道元町"},
{"zip_code":"3030005","kana_pref":"ｲﾊﾞﾗｷｹﾝ","kana_city":"ｼﾞｮｳｿｳｼ","kana_address":"ﾐﾂｶｲﾄﾞｳﾓﾘｼﾀﾏﾁ","pref":"茨城県","city":"常総市","address":"水海道森下町"},
{"zip_code":"3030031","kana_pref":"ｲﾊﾞﾗｷｹﾝ","kana_city":"ｼﾞｮｳｿｳｼ","kana_address":"ﾐﾂｶｲﾄﾞｳﾔﾏﾀﾞﾏﾁ","pref":"茨城県","city":"常総市","address":"水海道山田町"},
{"zip_code":"3030013","kana_pref":"ｲﾊﾞﾗｷｹﾝ","kana_city":"ｼﾞｮｳｿｳｼ","kana_address":"ﾐﾉﾜﾏﾁ","pref":"茨城県","city":"常総市","address":"箕輪町"}]}