{"zip_code":[
{"zip_code":"3040000","kana_pref":"ｲﾊﾞﾗｷｹﾝ","kana_city":"ｼﾓﾂﾏｼ","kana_address":"","pref":"茨城県","city":"下妻市","address":""},
{"zip_code":"3040074","kana_pref":"ｲﾊﾞﾗｷｹﾝ","kana_city":"ｼﾓﾂﾏｼ","kana_address":"ｱｶｽ","pref":"茨城県","city":"下妻市","address":"赤須"},
{"zip_code":"3040803","kana_pref":"ｲﾊﾞﾗｷｹﾝ","kana_city":"ｼﾓﾂﾏｼ","kana_address":"ｲｺﾞﾀﾞﾂ","pref":"茨城県","city":"下妻市","address":"伊古立"},
{"zip_code":"3040057","kana_pref":"ｲﾊﾞﾗｷｹﾝ","kana_city":"ｼﾓﾂﾏｼ","kana_address":"ｲｼﾉﾐﾔ","pref":"茨城県","city":"下妻市","address":"石の宮"},
{"zip_code":"3040053","kana_pref":"ｲﾊﾞﾗｷｹﾝ","kana_city":"ｼﾓﾂﾏｼ","kana_address":"ｲﾏｲｽﾞﾐ","pref":"茨城県","city":"下妻市","address":"今泉"},
{"zip_code":"3040002","kana_pref":"ｲﾊﾞﾗｷｹﾝ","kana_city":"ｼﾓﾂﾏｼ","kana_address":"ｴ","pref":"茨城県","city":"下妻市","address":"江"},
{"zip_code":"3040004","kana_pref":"ｲﾊﾞﾗｷｹﾝ","kana_city":"ｼﾓﾂﾏｼ","kana_address":"ｵｵｷ","pref":"茨城県","city":"下妻市","address":"大木"},
{"zip_code":"3040025","kana_pref":"ｲﾊﾞﾗｷｹﾝ","kana_city":"ｼﾓﾂﾏｼ","kana_address":"ｵｵｷｼﾝﾃﾞﾝ","pref":"茨城県","city":"下妻市","address":"大木新田"},
{"zip_code":"3040023","kana_pref":"ｲﾊﾞﾗｷｹﾝ","kana_city":"ｼﾓﾂﾏｼ","kana_address":"ｵｵｸｼ","pref":"茨城県","city":"下妻市","address":"大串"},
{"zip_code":"3040801","kana_pref":"ｲﾊﾞﾗｷｹﾝ","kana_city":"ｼﾓﾂﾏｼ","kana_address":"ｵｵｿﾞﾉｷ","pref":"茨城県","city":"下妻市","address":"大園木"},
{"zip_code":"3040804","kana_pref":"ｲﾊﾞﾗｷｹﾝ","kana_city":"ｼﾓﾂﾏｼ","kana_address":"ｵｻｶﾞﾔ","pref":"茨城県","city":"下妻市","address":"長萱"},
{"zip_code":"3040051","kana_pref":"ｲﾊﾞﾗｷｹﾝ","kana_city":"ｼﾓﾂﾏｼ","kana_address":"ｵｼﾞﾏ","pref":"茨城県","city":"下妻市","address":"小島"},
{"zip_code":"3040063","kana_pref":"ｲﾊﾞﾗｷｹﾝ","kana_city":"ｼﾓﾂﾏｼ","kana_address":"ｵﾉｺﾁｮｳ","pref":"茨城県","city":"下妻市","address":"小野子町"},
{"zip_code":"3040016","kana_pref":"ｲﾊﾞﾗｷｹﾝ","kana_city":"ｼﾓﾂﾏｼ","kana_address":"ｶｽﾞｽ","pref":"茨城県","city":"下妻市","address":"数須"},
{"zip_code":"3040819","kana_pref":"ｲﾊﾞﾗｷｹﾝ","kana_city":"ｼﾓﾂﾏｼ","kana_address":"ｶﾏﾆﾜ","pref":"茨城県","city":"下妻市","address":"鎌庭"},
{"zip_code":"3040050","kana_pref":"ｲﾊﾞﾗｷｹﾝ","kana_city":"ｼﾓﾂﾏｼ","kana_address":"ｶﾒｻﾞｷ","pref":"茨城県","city":"下妻市","address":"亀崎"},
{"zip_code":"3040048","kana_pref":"ｲﾊﾞﾗｷｹﾝ","kana_city":"ｼﾓﾂﾏｼ","kana_address":"ｶﾖｳ","pref":"茨城県","city":"下妻市","address":"加養"},
{"zip_code":"3040805","kana_pref":"ｲﾊﾞﾗｷｹﾝ","kana_city":"ｼﾓﾂﾏｼ","kana_address":"ｶﾗｻｷ","pref":"茨城県","city":"下妻市","address":"唐崎"},
{"zip_code":"3040021","kana_pref":"ｲﾊﾞﾗｷｹﾝ","kana_city":"ｼﾓﾂﾏｼ","kana_address":"ｷﾀﾀﾞｲﾎｳ","pref":"茨城県","city":"下妻市","address":"北大宝"},
{"zip_code":"3040818","kana_pref":"ｲﾊﾞﾗｷｹﾝ","kana_city":"ｼﾓﾂﾏｼ","kana_address":"ｷﾇ","pref":"茨城県","city":"下妻市","address":"鬼怒"},
{"zip_code":"3040073","kana_pref":"ｲﾊﾞﾗｷｹﾝ","kana_city":"ｼﾓﾂﾏｼ","kana_address":"ｷﾘｶﾞｾ","pref":"茨城県","city":"下妻市","address":"桐ケ瀬"},
{"zip_code":"3040802","kana_pref":"ｲﾊﾞﾗｷｹﾝ","kana_city":"ｼﾓﾂﾏｼ","kana_address":"ｸｼﾞﾗ","pref":"茨城県","city":"下妻市","address":"鯨"},
{"zip_code":"3040007","kana_pref":"ｲﾊﾞﾗｷｹﾝ","kana_city":"ｼﾓﾂﾏｼ","kana_address":"ｸﾛｺﾏ","pref":"茨城県","city":"下妻市","address":"黒駒"},
{"zip_code":"3040823","kana_pref":"ｲﾊﾞﾗｷｹﾝ","kana_city":"ｼﾓﾂﾏｼ","kana_address":"ｺﾞｶ","pref":"茨城県","city":"下妻市","address":"五箇"},
{"zip_code":"3040034","kana_pref":"ｲﾊﾞﾗｷｹﾝ","kana_city":"ｼﾓﾂﾏｼ","kana_address":"ｻｶｲ","pref":"茨城県","city":"下妻市","address":"坂井"},
{"zip_code":"3040024","kana_pref":"ｲﾊﾞﾗｷｹﾝ","kana_city":"ｼﾓﾂﾏｼ","kana_address":"ｻｶﾓﾄｼﾝﾃﾞﾝ","pref":"茨城県","city":"下妻市","address":"坂本新田"},
{"zip_code":"3040055","kana_pref":"ｲﾊﾞﾗｷｹﾝ","kana_city":"ｼﾓﾂﾏｼ","kana_address":"ｻﾇﾏｼﾝﾃﾞﾝ","pref":"茨城県","city":"下妻市","address":"砂沼新田"},
{"zip_code":"3040013","kana_pref":"ｲﾊﾞﾗｷｹﾝ","kana_city":"ｼﾓﾂﾏｼ","kana_address":"ｼﾀﾐﾔ","pref":"茨城県","city":"下妻市","address":"下宮"},
{"zip_code":"3040071","kana_pref":"ｲﾊﾞﾗｷｹﾝ","kana_city":"ｼﾓﾂﾏｼ","kana_address":"ｼｯﾃ","pref":"茨城県","city":"下妻市","address":"尻手"},
{"zip_code":"3040006","kana_pref":"ｲﾊﾞﾗｷｹﾝ","kana_city":"ｼﾓﾂﾏｼ","kana_address":"ｼﾊﾞ","pref":"茨城県","city":"下妻市","address":"柴"},
{"zip_code":"3040072","kana_pref":"ｲﾊﾞﾗｷｹﾝ","kana_city":"ｼﾓﾂﾏｼ","kana_address":"ｼﾌﾞｲ","pref":"茨城県","city":"下妻市","address":"渋井"},
{"zip_code":"3040815","kana_pref":"ｲﾊﾞﾗｷｹﾝ","kana_city":"ｼﾓﾂﾏｼ","kana_address":"ｼﾌﾞﾀ","pref":"茨城県","city":"下妻市","address":"渋田"},
{"zip_code":"3040028","kana_pref":"ｲﾊﾞﾗｷｹﾝ","kana_city":"ｼﾓﾂﾏｼ","kana_address":"ｼﾓｷﾄﾞ","pref":"茨城県","city":"下妻市","address":"下木戸"},
{"zip_code":"3040811","kana_pref":"ｲﾊﾞﾗｷｹﾝ","kana_city":"ｼﾓﾂﾏｼ","kana_address":"ｼﾓｸﾞﾘ","pref":"茨城県","city":"下妻市","address":"下栗"},
{"zip_code":"3040015","kana_pref":"ｲﾊﾞﾗｷｹﾝ","kana_city":"ｼﾓﾂﾏｼ","kana_address":"ｼﾓﾀﾞ","pref":"茨城県","city":"下妻市","address":"下田"},
{"zip_code":"3040066","kana_pref":"ｲﾊﾞﾗｷｹﾝ","kana_city":"ｼﾓﾂﾏｼ","kana_address":"ｼﾓﾂﾏｺｳ","pref":"茨城県","city":"下妻市","address":"下妻甲"},
{"zip_code":"3040067","kana_pref":"ｲﾊﾞﾗｷｹﾝ","kana_city":"ｼﾓﾂﾏｼ","kana_address":"ｼﾓﾂﾏｵﾂ","pref":"茨城県","city":"下妻市","address":"下妻乙"},
{"zip_code":"3040061","kana_pref":"ｲﾊﾞﾗｷｹﾝ","kana_city":"ｼﾓﾂﾏｼ","kana_address":"ｼﾓﾂﾏﾍｲ","pref":"茨城県","city":"下妻市","address":"下妻丙"},
{"zip_code":"3040068","kana_pref":"ｲﾊﾞﾗｷｹﾝ","kana_city":"ｼﾓﾂﾏｼ","kana_address":"ｼﾓﾂﾏﾃｲ","pref":"茨城県","city":"下妻市","address":"下妻丁"},
{"zip_code":"3040062","kana_pref":"ｲﾊﾞﾗｷｹﾝ","kana_city":"ｼﾓﾂﾏｼ","kana_address":"ｼﾓﾂﾏﾎﾞ","pref":"茨城県","city":"下妻市","address":"下妻戊"},
{"zip_code":"3040011","kana_pref":"ｲﾊﾞﾗｷｹﾝ","kana_city":"ｼﾓﾂﾏｼ","kana_address":"ｼﾝﾒｲ","pref":"茨城県","city":"下妻市","address":"神明"},
{"zip_code":"3040003","kana_pref":"ｲﾊﾞﾗｷｹﾝ","kana_city":"ｼﾓﾂﾏｼ","kana_address":"ｾｷﾓﾄｼﾀ","pref":"茨城県","city":"下妻市","address":"関本下"},
{"zip_code":"3040814","kana_pref":"ｲﾊﾞﾗｷｹﾝ","kana_city":"ｼﾓﾂﾏｼ","kana_address":"ｿｳﾄﾞｳ","pref":"茨城県","city":"下妻市","address":"宗道"},
{"zip_code":"3040022","kana_pref":"ｲﾊﾞﾗｷｹﾝ","kana_city":"ｼﾓﾂﾏｼ","kana_address":"ﾀﾞｲﾎｳ","pref":"茨城県","city":"下妻市","address":"大宝"},
{"zip_code":"3040031","kana_pref":"ｲﾊﾞﾗｷｹﾝ","kana_city":"ｼﾓﾂﾏｼ","kana_address":"ﾀｶｻｲ","pref":"茨城県","city":"下妻市","address":"高道祖"},
{"zip_code":"3040812","kana_pref":"ｲﾊﾞﾗｷｹﾝ","kana_city":"ｼﾓﾂﾏｼ","kana_address":"ﾀｹﾞ","pref":"茨城県","city":"下妻市","address":"田下"},
{"zip_code":"3040069","kana_pref":"ｲﾊﾞﾗｷｹﾝ","kana_city":"ｼﾓﾂﾏｼ","kana_address":"ﾀﾏﾁ","pref":"茨城県","city":"下妻市","address":"田町"},
{"zip_code":"3040017","kana_pref":"ｲﾊﾞﾗｷｹﾝ","kana_city":"ｼﾓﾂﾏｼ","kana_address":"ﾁｸﾜｼﾞﾏ","pref":"茨城県","city":"下妻市","address":"筑波島"},
{"zip_code":"3040054","kana_pref":"ｲﾊﾞﾗｷｹﾝ","kana_city":"ｼﾓﾂﾏｼ","kana_address":"ﾅｶｲｻﾞｼ","pref":"茨城県","city":"下妻市","address":"中居指"},
{"zip_code":"3040014","kana_pref":"ｲﾊﾞﾗｷｹﾝ","kana_city":"ｼﾓﾂﾏｼ","kana_address":"ﾅｶｺﾞｳ","pref":"茨城県","city":"下妻市","address":"中郷"},
{"zip_code":"3040056","kana_pref":"ｲﾊﾞﾗｷｹﾝ","kana_city":"ｼﾓﾂﾏｼ","kana_address":"ﾅｶﾞﾂｶ","pref":"茨城県","city":"下妻市","address":"長塚"},
{"zip_code":"3040049","kana_pref":"ｲﾊﾞﾗｷｹﾝ","kana_city":"ｼﾓﾂﾏｼ","kana_address":"ﾆｲﾎﾞﾘ","pref":"茨城県","city":"下妻市","address":"新堀"},
{"zip_code":"3040052","kana_pref":"ｲﾊﾞﾗｷｹﾝ","kana_city":"ｼﾓﾂﾏｼ","kana_address":"ﾆﾎﾝｷﾞ","pref":"茨城県","city":"下妻市","address":"二本紀"},
{"zip_code":"3040817","kana_pref":"ｲﾊﾞﾗｷｹﾝ","kana_city":"ｼﾓﾂﾏｼ","kana_address":"ﾊﾈｺﾞ","pref":"茨城県","city":"下妻市","address":"羽子"},
{"zip_code":"3040816","kana_pref":"ｲﾊﾞﾗｷｹﾝ","kana_city":"ｼﾓﾂﾏｼ","kana_address":"ﾊﾗ","pref":"茨城県","city":"下妻市","address":"原"},
{"zip_code":"3040005","kana_pref":"ｲﾊﾞﾗｷｹﾝ","kana_city":"ｼﾓﾂﾏｼ","kana_address":"ﾊﾝﾔ","pref":"茨城県","city":"下妻市","address":"半谷"},
{"zip_code":"3040032","kana_pref":"ｲﾊﾞﾗｷｹﾝ","kana_city":"ｼﾓﾂﾏｼ","kana_address":"ﾋｹ","pref":"茨城県","city":"下妻市","address":"比毛"},
{"zip_code":"3040047","kana_pref":"ｲﾊﾞﾗｷｹﾝ","kana_city":"ｼﾓﾂﾏｼ","kana_address":"ﾋｼﾞﾔ","pref":"茨城県","city":"下妻市","address":"肘谷"},
{"zip_code":"3040046","kana_pref":"ｲﾊﾞﾗｷｹﾝ","kana_city":"ｼﾓﾂﾏｼ","kana_address":"ﾋﾊﾞｼ","pref":"茨城県","city":"下妻市","address":"樋橋"},
{"zip_code":"3040001","kana_pref":"ｲﾊﾞﾗｷｹﾝ","kana_city":"ｼﾓﾂﾏｼ","kana_address":"ﾋﾗｶﾀ","pref":"茨城県","city":"下妻市","address":"平方"},
{"zip_code":"3040018","kana_pref":"ｲﾊﾞﾗｷｹﾝ","kana_city":"ｼﾓﾂﾏｼ","kana_address":"ﾋﾗｶﾜﾄﾞ","pref":"茨城県","city":"下妻市","address":"平川戸"},
{"zip_code":"3040026","kana_pref":"ｲﾊﾞﾗｷｹﾝ","kana_city":"ｼﾓﾂﾏｼ","kana_address":"ﾋﾗﾇﾏ","pref":"茨城県","city":"下妻市","address":"平沼"},
{"zip_code":"3040027","kana_pref":"ｲﾊﾞﾗｷｹﾝ","kana_city":"ｼﾓﾂﾏｼ","kana_address":"ﾌｸﾀﾞ","pref":"茨城県","city":"下妻市","address":"福田"},
{"zip_code":"3040042","kana_pref":"ｲﾊﾞﾗｷｹﾝ","kana_city":"ｼﾓﾂﾏｼ","kana_address":"ﾌｸﾛﾊﾀ","pref":"茨城県","city":"下妻市","address":"袋畑"},
{"zip_code":"3040041","kana_pref":"ｲﾊﾞﾗｷｹﾝ","kana_city":"ｼﾓﾂﾏｼ","kana_address":"ﾌﾙｻﾜ","pref":"茨城県","city":"下妻市","address":"古沢"},
{"zip_code":"3040821","kana_pref":"ｲﾊﾞﾗｷｹﾝ","kana_city":"ｼﾓﾂﾏｼ","kana_address":"ﾍﾞｯﾌﾟ","pref":"茨城県","city":"下妻市","address":"別府"},
{"zip_code":"3040033","kana_pref":"ｲﾊﾞﾗｷｹﾝ","kana_city":"ｼﾓﾂﾏｼ","kana_address":"ﾎﾘｺﾞﾒ","pref":"茨城県","city":"下妻市","address":"堀篭"},
{"zip_code":"3040065","kana_pref":"ｲﾊﾞﾗｷｹﾝ","kana_city":"ｼﾓﾂﾏｼ","kana_address":"ﾎﾝｼﾞｭｸﾁｮｳ","pref":"茨城県","city":"下妻市","address":"本宿町"},
{"zip_code":"3040813","kana_pref":"ｲﾊﾞﾗｷｹﾝ","kana_city":"ｼﾓﾂﾏｼ","kana_address":"ﾎﾝｿｳﾄﾞｳ","pref":"茨城県","city":"下妻市","address":"本宗道"},
{"zip_code":"3040076","kana_pref":"ｲﾊﾞﾗｷｹﾝ","kana_city":"ｼﾓﾂﾏｼ","kana_address":"ﾏｴｶﾞﾜﾗ","pref":"茨城県","city":"下妻市","address":"前河原"},
{"zip_code":"3040806","kana_pref":"ｲﾊﾞﾗｷｹﾝ","kana_city":"ｼﾓﾂﾏｼ","kana_address":"ﾐﾀ","pref":"茨城県","city":"下妻市","address":"見田"},
{"zip_code":"3040822","kana_pref":"ｲﾊﾞﾗｷｹﾝ","kana_city":"ｼﾓﾂﾏｼ","kana_address":"ﾐﾅﾊﾞ","pref":"茨城県","city":"下妻市","address":"皆葉"},
{"zip_code":"3040075","kana_pref":"ｲﾊﾞﾗｷｹﾝ","kana_city":"ｼﾓﾂﾏｼ","kana_address":"ﾐﾅﾐﾊﾗ","pref":"茨城県","city":"下妻市","address":"南原"},
{"zip_code":"3040824","kana_pref":"ｲﾊﾞﾗｷｹﾝ","kana_city":"ｼﾓﾂﾏｼ","kana_address":"ﾑﾗｵｶ","pref":"茨城県","city":"下妻市","address":"村岡"},
{"zip_code":"3040064","kana_pref":"ｲﾊﾞﾗｷｹﾝ","kana_city":"ｼﾓﾂﾏｼ","kana_address":"ﾓﾄｼﾛﾁｮｳ","pref":"茨城県","city":"下妻市","address":"本城町"},
{"zip_code":"3040044","kana_pref":"ｲﾊﾞﾗｷｹﾝ","kana_city":"ｼﾓﾂﾏｼ","kana_address":"ﾔｷﾞﾜﾗ","pref":"茨城県","city":"下妻市","address":"柳原"},
{"zip_code":"3040043","kana_pref":"ｲﾊﾞﾗｷｹﾝ","kana_city":"ｼﾓﾂﾏｼ","kana_address":"ﾔﾀﾍﾞ","pref":"茨城県","city":"下妻市","address":"谷田部"},
{"zip_code":"3040045","kana_pref":"ｲﾊﾞﾗｷｹﾝ","kana_city":"ｼﾓﾂﾏｼ","kana_address":"ﾔﾏｼﾞﾘ","pref":"茨城県","city":"下妻市","address":"山尻"},
{"zip_code":"3040035","kana_pref":"ｲﾊﾞﾗｷｹﾝ","kana_city":"ｼﾓﾂﾏｼ","kana_address":"ﾖｺﾈ","pref":"茨城県","city":"下妻市","address":"横根"},
{"zip_code":"3040012","kana_pref":"ｲﾊﾞﾗｷｹﾝ","kana_city":"ｼﾓﾂﾏｼ","kana_address":"ﾜｶﾔﾅｷﾞ","pref":"茨城県","city":"下妻市","address":"若柳"}]}