{"zip_code":[
{"zip_code":"3050000","kana_pref":"ｲﾊﾞﾗｷｹﾝ","kana_city":"ﾂｸﾊﾞｼ","kana_address":"","pref":"茨城県","city":"つくば市","address":""},
{"zip_code":"3050062","kana_pref":"ｲﾊﾞﾗｷｹﾝ","kana_city":"ﾂｸﾊﾞｼ","kana_address":"ｱｶﾂｶ","pref":"茨城県","city":"つくば市","address":"赤塚"},
{"zip_code":"3050804","kana_pref":"ｲﾊﾞﾗｷｹﾝ","kana_city":"ﾂｸﾊﾞｼ","kana_address":"ｱｻﾋ","pref":"茨城県","city":"つくば市","address":"旭"},
{"zip_code":"3050031","kana_pref":"ｲﾊﾞﾗｷｹﾝ","kana_city":"ﾂｸﾊﾞｼ","kana_address":"ｱﾂﾞﾏ","pref":"茨城県","city":"つくば市","address":"吾妻"},
{"zip_code":"3050005","kana_pref":"ｲﾊﾞﾗｷｹﾝ","kana_city":"ﾂｸﾊﾞｼ","kana_address":"ｱﾏｸﾎﾞ","pref":"茨城県","city":"つくば市","address":"天久保"},
{"zip_code":"3050835","kana_pref":"ｲﾊﾞﾗｷｹﾝ","kana_city":"ﾂｸﾊﾞｼ","kana_address":"ｱﾗｲ","pref":"茨城県","city":"つくば市","address":"新井"},
{"zip_code":"3050076","kana_pref":"ｲﾊﾞﾗｷｹﾝ","kana_city":"ﾂｸﾊﾞｼ","kana_address":"ｱﾗﾏｷﾀﾞ","pref":"茨城県","city":"つくば市","address":"新牧田"},
{"zip_code":"3050874","kana_pref":"ｲﾊﾞﾗｷｹﾝ","kana_city":"ﾂｸﾊﾞｼ","kana_address":"ｲｲﾀﾞ","pref":"茨城県","city":"つくば市","address":"飯田"},
{"zip_code":"3050901","kana_pref":"ｲﾊﾞﾗｷｹﾝ","kana_city":"ﾂｸﾊﾞｼ","kana_address":"ｲｹﾉﾀﾞｲ","pref":"茨城県","city":"つくば市","address":"池の台"},
{"zip_code":"3050073","kana_pref":"ｲﾊﾞﾗｷｹﾝ","kana_city":"ﾂｸﾊﾞｼ","kana_address":"ｲﾁﾉﾀﾞｲ","pref":"茨城県","city":"つくば市","address":"市之台"},
{"zip_code":"3050071","kana_pref":"ｲﾊﾞﾗｷｹﾝ","kana_city":"ﾂｸﾊﾞｼ","kana_address":"ｲﾅｵｶ","pref":"茨城県","city":"つくば市","address":"稲岡"},
{"zip_code":"3050061","kana_pref":"ｲﾊﾞﾗｷｹﾝ","kana_city":"ﾂｸﾊﾞｼ","kana_address":"ｲﾅﾘﾏｴ","pref":"茨城県","city":"つくば市","address":"稲荷前"},
{"zip_code":"3050855","kana_pref":"ｲﾊﾞﾗｷｹﾝ","kana_city":"ﾂｸﾊﾞｼ","kana_address":"ｲﾏｲｽﾞﾐ","pref":"茨城県","city":"つくば市","address":"今泉"},
{"zip_code":"3050002","kana_pref":"ｲﾊﾞﾗｷｹﾝ","kana_city":"ﾂｸﾊﾞｼ","kana_address":"ｳｴﾉ","pref":"茨城県","city":"つくば市","address":"上野"},
{"zip_code":"3050023","kana_pref":"ｲﾊﾞﾗｷｹﾝ","kana_city":"ﾂｸﾊﾞｼ","kana_address":"ｳｴﾉﾑﾛ","pref":"茨城県","city":"つくば市","address":"上ノ室"},
{"zip_code":"3050045","kana_pref":"ｲﾊﾞﾗｷｹﾝ","kana_city":"ﾂｸﾊﾞｼ","kana_address":"ｳﾒｿﾞﾉ","pref":"茨城県","city":"つくば市","address":"梅園"},
{"zip_code":"3050853","kana_pref":"ｲﾊﾞﾗｷｹﾝ","kana_city":"ﾂｸﾊﾞｼ","kana_address":"ｴﾉｷﾄﾞ","pref":"茨城県","city":"つくば市","address":"榎戸"},
{"zip_code":"3050016","kana_pref":"ｲﾊﾞﾗｷｹﾝ","kana_city":"ﾂｸﾊﾞｼ","kana_address":"ｵｵ","pref":"茨城県","city":"つくば市","address":"大"},
{"zip_code":"3050845","kana_pref":"ｲﾊﾞﾗｷｹﾝ","kana_city":"ﾂｸﾊﾞｼ","kana_address":"ｵｵｼﾞﾗﾊｻﾞﾏ","pref":"茨城県","city":"つくば市","address":"大白硲"},
{"zip_code":"3050801","kana_pref":"ｲﾊﾞﾗｷｹﾝ","kana_city":"ﾂｸﾊﾞｼ","kana_address":"ｵｵﾎ","pref":"茨城県","city":"つくば市","address":"大穂"},
{"zip_code":"3050851","kana_pref":"ｲﾊﾞﾗｷｹﾝ","kana_city":"ﾂｸﾊﾞｼ","kana_address":"ｵｵﾜｼ","pref":"茨城県","city":"つくば市","address":"大わし"},
{"zip_code":"3050026","kana_pref":"ｲﾊﾞﾗｷｹﾝ","kana_city":"ﾂｸﾊﾞｼ","kana_address":"ｵｶﾑﾗｼﾝﾃﾞﾝ","pref":"茨城県","city":"つくば市","address":"岡村新田"},
{"zip_code":"3050053","kana_pref":"ｲﾊﾞﾗｷｹﾝ","kana_city":"ﾂｸﾊﾞｼ","kana_address":"ｵﾉｶﾞﾜ","pref":"茨城県","city":"つくば市","address":"小野川"},
{"zip_code":"3050034","kana_pref":"ｲﾊﾞﾗｷｹﾝ","kana_city":"ﾂｸﾊﾞｼ","kana_address":"ｵﾉｻﾞｷ","pref":"茨城県","city":"つくば市","address":"小野崎"},
{"zip_code":"3050816","kana_pref":"ｲﾊﾞﾗｷｹﾝ","kana_city":"ﾂｸﾊﾞｼ","kana_address":"ｶﾞｸｴﾝﾉﾓﾘ","pref":"茨城県","city":"つくば市","address":"学園の森"},
{"zip_code":"3050818","kana_pref":"ｲﾊﾞﾗｷｹﾝ","kana_city":"ﾂｸﾊﾞｼ","kana_address":"ｶﾞｸｴﾝﾐﾅﾐ","pref":"茨城県","city":"つくば市","address":"学園南"},
{"zip_code":"3050064","kana_pref":"ｲﾊﾞﾗｷｹﾝ","kana_city":"ﾂｸﾊﾞｼ","kana_address":"ｶｼﾞｳﾁ","pref":"茨城県","city":"つくば市","address":"梶内"},
{"zip_code":"3050821","kana_pref":"ｲﾊﾞﾗｷｹﾝ","kana_city":"ﾂｸﾊﾞｼ","kana_address":"ｶｽｶﾞ","pref":"茨城県","city":"つくば市","address":"春日"},
{"zip_code":"3050877","kana_pref":"ｲﾊﾞﾗｷｹﾝ","kana_city":"ﾂｸﾊﾞｼ","kana_address":"ｶﾀﾀﾞ","pref":"茨城県","city":"つくば市","address":"片田"},
{"zip_code":"3050824","kana_pref":"ｲﾊﾞﾗｷｹﾝ","kana_city":"ﾂｸﾊﾞｼ","kana_address":"ｶﾂﾗｷﾞﾈｻｷ","pref":"茨城県","city":"つくば市","address":"葛城根崎"},
{"zip_code":"3050871","kana_pref":"ｲﾊﾞﾗｷｹﾝ","kana_city":"ﾂｸﾊﾞｼ","kana_address":"ｶﾐｶﾔﾏﾙ","pref":"茨城県","city":"つくば市","address":"上萱丸"},
{"zip_code":"3050011","kana_pref":"ｲﾊﾞﾗｷｹﾝ","kana_city":"ﾂｸﾊﾞｼ","kana_address":"ｶﾐｻﾞｶｲ","pref":"茨城県","city":"つくば市","address":"上境"},
{"zip_code":"3050055","kana_pref":"ｲﾊﾞﾗｷｹﾝ","kana_city":"ﾂｸﾊﾞｼ","kana_address":"ｶﾐﾊﾗ","pref":"茨城県","city":"つくば市","address":"上原"},
{"zip_code":"3050041","kana_pref":"ｲﾊﾞﾗｷｹﾝ","kana_city":"ﾂｸﾊﾞｼ","kana_address":"ｶﾐﾋﾛｵｶ","pref":"茨城県","city":"つくば市","address":"上広岡"},
{"zip_code":"3050854","kana_pref":"ｲﾊﾞﾗｷｹﾝ","kana_city":"ﾂｸﾊﾞｼ","kana_address":"ｶﾐﾖｺﾊﾞ","pref":"茨城県","city":"つくば市","address":"上横場"},
{"zip_code":"3050822","kana_pref":"ｲﾊﾞﾗｷｹﾝ","kana_city":"ﾂｸﾊﾞｼ","kana_address":"ｶﾘﾏ","pref":"茨城県","city":"つくば市","address":"苅間"},
{"zip_code":"3050856","kana_pref":"ｲﾊﾞﾗｷｹﾝ","kana_city":"ﾂｸﾊﾞｼ","kana_address":"ｶﾝﾉﾝﾀﾞｲ","pref":"茨城県","city":"つくば市","address":"観音台"},
{"zip_code":"3050022","kana_pref":"ｲﾊﾞﾗｷｹﾝ","kana_city":"ﾂｸﾊﾞｼ","kana_address":"ｷｾ","pref":"茨城県","city":"つくば市","address":"吉瀬"},
{"zip_code":"3050811","kana_pref":"ｲﾊﾞﾗｷｹﾝ","kana_city":"ﾂｸﾊﾞｼ","kana_address":"ｷﾀｻﾄ","pref":"茨城県","city":"つくば市","address":"北郷"},
{"zip_code":"3050072","kana_pref":"ｲﾊﾞﾗｷｹﾝ","kana_city":"ﾂｸﾊﾞｼ","kana_address":"ｷﾀﾅｶｼﾞﾏ","pref":"茨城県","city":"つくば市","address":"北中島"},
{"zip_code":"3050066","kana_pref":"ｲﾊﾞﾗｷｹﾝ","kana_city":"ﾂｸﾊﾞｼ","kana_address":"ｷﾀﾅｶﾂﾞﾏ","pref":"茨城県","city":"つくば市","address":"北中妻"},
{"zip_code":"3050024","kana_pref":"ｲﾊﾞﾗｷｹﾝ","kana_city":"ﾂｸﾊﾞｼ","kana_address":"ｸﾗｶｹ","pref":"茨城県","city":"つくば市","address":"倉掛"},
{"zip_code":"3050001","kana_pref":"ｲﾊﾞﾗｷｹﾝ","kana_city":"ﾂｸﾊﾞｼ","kana_address":"ｸﾘﾊﾗ","pref":"茨城県","city":"つくば市","address":"栗原"},
{"zip_code":"3050817","kana_pref":"ｲﾊﾞﾗｷｹﾝ","kana_city":"ﾂｸﾊﾞｼ","kana_address":"ｹﾝｷｭｳｶﾞｸｴﾝ","pref":"茨城県","city":"つくば市","address":"研究学園"},
{"zip_code":"3050074","kana_pref":"ｲﾊﾞﾗｷｹﾝ","kana_city":"ﾂｸﾊﾞｼ","kana_address":"ｺｳﾔﾀﾞｲ","pref":"茨城県","city":"つくば市","address":"高野台"},
{"zip_code":"3050844","kana_pref":"ｲﾊﾞﾗｷｹﾝ","kana_city":"ﾂｸﾊﾞｼ","kana_address":"ｺｼﾞﾗﾊｻﾞﾏ","pref":"茨城県","city":"つくば市","address":"小白硲"},
{"zip_code":"3050018","kana_pref":"ｲﾊﾞﾗｷｹﾝ","kana_city":"ﾂｸﾊﾞｼ","kana_address":"ｺﾝﾀﾞ","pref":"茨城県","city":"つくば市","address":"金田"},
{"zip_code":"3050028","kana_pref":"ｲﾊﾞﾗｷｹﾝ","kana_city":"ﾂｸﾊﾞｼ","kana_address":"ｻｲｷ","pref":"茨城県","city":"つくば市","address":"妻木"},
{"zip_code":"3050036","kana_pref":"ｲﾊﾞﾗｷｹﾝ","kana_city":"ﾂｸﾊﾞｼ","kana_address":"ｻｲｺﾞｳ","pref":"茨城県","city":"つくば市","address":"西郷"},
{"zip_code":"3050867","kana_pref":"ｲﾊﾞﾗｷｹﾝ","kana_city":"ﾂｸﾊﾞｼ","kana_address":"ｻｶｲﾀﾞ","pref":"茨城県","city":"つくば市","address":"境田"},
{"zip_code":"3050864","kana_pref":"ｲﾊﾞﾗｷｹﾝ","kana_city":"ﾂｸﾊﾞｼ","kana_address":"ｻｶｲﾏﾂ","pref":"茨城県","city":"つくば市","address":"境松"},
{"zip_code":"3050013","kana_pref":"ｲﾊﾞﾗｷｹﾝ","kana_city":"ﾂｸﾊﾞｼ","kana_address":"ｻｶｴ","pref":"茨城県","city":"つくば市","address":"栄"},
{"zip_code":"3050003","kana_pref":"ｲﾊﾞﾗｷｹﾝ","kana_city":"ﾂｸﾊﾞｼ","kana_address":"ｻｸﾗ","pref":"茨城県","city":"つくば市","address":"桜"},
{"zip_code":"3050019","kana_pref":"ｲﾊﾞﾗｷｹﾝ","kana_city":"ﾂｸﾊﾞｼ","kana_address":"ｻｸﾗﾉﾓﾘ","pref":"茨城県","city":"つくば市","address":"さくらの森"},
{"zip_code":"3050043","kana_pref":"ｲﾊﾞﾗｷｹﾝ","kana_city":"ﾂｸﾊﾞｼ","kana_address":"ｻｻｷﾞ","pref":"茨城県","city":"つくば市","address":"大角豆"},
{"zip_code":"3050004","kana_pref":"ｲﾊﾞﾗｷｹﾝ","kana_city":"ﾂｸﾊﾞｼ","kana_address":"ｼﾊﾞｻｷ","pref":"茨城県","city":"つくば市","address":"柴崎"},
{"zip_code":"3050833","kana_pref":"ｲﾊﾞﾗｷｹﾝ","kana_city":"ﾂｸﾊﾞｼ","kana_address":"ｼﾏ","pref":"茨城県","city":"つくば市","address":"島"},
{"zip_code":"3050872","kana_pref":"ｲﾊﾞﾗｷｹﾝ","kana_city":"ﾂｸﾊﾞｼ","kana_address":"ｼﾓｶﾔﾏﾙ","pref":"茨城県","city":"つくば市","address":"下萱丸"},
{"zip_code":"3050063","kana_pref":"ｲﾊﾞﾗｷｹﾝ","kana_city":"ﾂｸﾊﾞｼ","kana_address":"ｼﾓﾊﾗ","pref":"茨城県","city":"つくば市","address":"下原"},
{"zip_code":"3050813","kana_pref":"ｲﾊﾞﾗｷｹﾝ","kana_city":"ﾂｸﾊﾞｼ","kana_address":"ｼﾓﾋﾗﾂｶ","pref":"茨城県","city":"つくば市","address":"下平塚"},
{"zip_code":"3050042","kana_pref":"ｲﾊﾞﾗｷｹﾝ","kana_city":"ﾂｸﾊﾞｼ","kana_address":"ｼﾓﾋﾛｵｶ","pref":"茨城県","city":"つくば市","address":"下広岡"},
{"zip_code":"3050075","kana_pref":"ｲﾊﾞﾗｷｹﾝ","kana_city":"ﾂｸﾊﾞｼ","kana_address":"ｼﾓﾖｺﾊﾞ","pref":"茨城県","city":"つくば市","address":"下横場"},
{"zip_code":"3050014","kana_pref":"ｲﾊﾞﾗｷｹﾝ","kana_city":"ﾂｸﾊﾞｼ","kana_address":"ｼｮｳｴｲ","pref":"茨城県","city":"つくば市","address":"松栄"},
{"zip_code":"3050847","kana_pref":"ｲﾊﾞﾗｷｹﾝ","kana_city":"ﾂｸﾊﾞｼ","kana_address":"ｼﾞﾝﾊﾞ","pref":"茨城県","city":"つくば市","address":"陣場"},
{"zip_code":"3050047","kana_pref":"ｲﾊﾞﾗｷｹﾝ","kana_city":"ﾂｸﾊﾞｼ","kana_address":"ｾﾝｹﾞﾝ","pref":"茨城県","city":"つくば市","address":"千現"},
{"zip_code":"3050846","kana_pref":"ｲﾊﾞﾗｷｹﾝ","kana_city":"ﾂｸﾊﾞｼ","kana_address":"ﾀｲﾗ","pref":"茨城県","city":"つくば市","address":"平"},
{"zip_code":"3050077","kana_pref":"ｲﾊﾞﾗｷｹﾝ","kana_city":"ﾂｸﾊﾞｼ","kana_address":"ﾀｶﾉﾊﾗ","pref":"茨城県","city":"つくば市","address":"鷹野原"},
{"zip_code":"3050032","kana_pref":"ｲﾊﾞﾗｷｹﾝ","kana_city":"ﾂｸﾊﾞｼ","kana_address":"ﾀｹｿﾞﾉ","pref":"茨城県","city":"つくば市","address":"竹園"},
{"zip_code":"3050802","kana_pref":"ｲﾊﾞﾗｷｹﾝ","kana_city":"ﾂｸﾊﾞｼ","kana_address":"ﾀﾁﾊﾗ","pref":"茨城県","city":"つくば市","address":"立原"},
{"zip_code":"3050067","kana_pref":"ｲﾊﾞﾗｷｹﾝ","kana_city":"ﾂｸﾊﾞｼ","kana_address":"ﾀﾃﾉ","pref":"茨城県","city":"つくば市","address":"館野"},
{"zip_code":"3050834","kana_pref":"ｲﾊﾞﾗｷｹﾝ","kana_city":"ﾂｸﾊﾞｼ","kana_address":"ﾃｼﾛｷﾞ","pref":"茨城県","city":"つくば市","address":"手代木"},
{"zip_code":"3050006","kana_pref":"ｲﾊﾞﾗｷｹﾝ","kana_city":"ﾂｸﾊﾞｼ","kana_address":"ﾃﾝﾉｳﾀﾞｲ","pref":"茨城県","city":"つくば市","address":"天王台"},
{"zip_code":"3050068","kana_pref":"ｲﾊﾞﾗｷｹﾝ","kana_city":"ﾂｸﾊﾞｼ","kana_address":"ﾅｶｳﾁ","pref":"茨城県","city":"つくば市","address":"中内"},
{"zip_code":"3050012","kana_pref":"ｲﾊﾞﾗｷｹﾝ","kana_city":"ﾂｸﾊﾞｼ","kana_address":"ﾅｶﾈ","pref":"茨城県","city":"つくば市","address":"中根"},
{"zip_code":"3050873","kana_pref":"ｲﾊﾞﾗｷｹﾝ","kana_city":"ﾂｸﾊﾞｼ","kana_address":"ﾅｶﾉ","pref":"茨城県","city":"つくば市","address":"中野"},
{"zip_code":"3050052","kana_pref":"ｲﾊﾞﾗｷｹﾝ","kana_city":"ﾂｸﾊﾞｼ","kana_address":"ﾅｶﾞﾐﾈ","pref":"茨城県","city":"つくば市","address":"長峰"},
{"zip_code":"3050044","kana_pref":"ｲﾊﾞﾗｷｹﾝ","kana_city":"ﾂｸﾊﾞｼ","kana_address":"ﾅﾐｷ","pref":"茨城県","city":"つくば市","address":"並木"},
{"zip_code":"3050054","kana_pref":"ｲﾊﾞﾗｷｹﾝ","kana_city":"ﾂｸﾊﾞｼ","kana_address":"ﾆｼｵｵﾇﾏ","pref":"茨城県","city":"つくば市","address":"西大沼"},
{"zip_code":"3050831","kana_pref":"ｲﾊﾞﾗｷｹﾝ","kana_city":"ﾂｸﾊﾞｼ","kana_address":"ﾆｼｵｵﾊｼ","pref":"茨城県","city":"つくば市","address":"西大橋"},
{"zip_code":"3050832","kana_pref":"ｲﾊﾞﾗｷｹﾝ","kana_city":"ﾂｸﾊﾞｼ","kana_address":"ﾆｼｵｶ","pref":"茨城県","city":"つくば市","address":"西岡"},
{"zip_code":"3050876","kana_pref":"ｲﾊﾞﾗｷｹﾝ","kana_city":"ﾂｸﾊﾞｼ","kana_address":"ﾆｼｸﾘﾔﾏ","pref":"茨城県","city":"つくば市","address":"西栗山"},
{"zip_code":"3050902","kana_pref":"ｲﾊﾞﾗｷｹﾝ","kana_city":"ﾂｸﾊﾞｼ","kana_address":"ﾆｼﾉｻﾜ","pref":"茨城県","city":"つくば市","address":"西の沢"},
{"zip_code":"3050815","kana_pref":"ｲﾊﾞﾗｷｹﾝ","kana_city":"ﾂｸﾊﾞｼ","kana_address":"ﾆｼﾊﾗ","pref":"茨城県","city":"つくば市","address":"西原"},
{"zip_code":"3050814","kana_pref":"ｲﾊﾞﾗｷｹﾝ","kana_city":"ﾂｸﾊﾞｼ","kana_address":"ﾆｼﾋﾗﾂｶ","pref":"茨城県","city":"つくば市","address":"西平塚"},
{"zip_code":"3050051","kana_pref":"ｲﾊﾞﾗｷｹﾝ","kana_city":"ﾂｸﾊﾞｼ","kana_address":"ﾆﾉﾐﾔ","pref":"茨城県","city":"つくば市","address":"二の宮"},
{"zip_code":"3050865","kana_pref":"ｲﾊﾞﾗｷｹﾝ","kana_city":"ﾂｸﾊﾞｼ","kana_address":"ﾈｻｷ","pref":"茨城県","city":"つくば市","address":"根崎"},
{"zip_code":"3050843","kana_pref":"ｲﾊﾞﾗｷｹﾝ","kana_city":"ﾂｸﾊﾞｼ","kana_address":"ﾊﾁﾏﾝﾀﾞｲ","pref":"茨城県","city":"つくば市","address":"八幡台"},
{"zip_code":"3050875","kana_pref":"ｲﾊﾞﾗｷｹﾝ","kana_city":"ﾂｸﾊﾞｼ","kana_address":"ﾊﾅｼﾏｼﾝﾃﾞﾝ","pref":"茨城県","city":"つくば市","address":"花島新田"},
{"zip_code":"3050029","kana_pref":"ｲﾊﾞﾗｷｹﾝ","kana_city":"ﾂｸﾊﾞｼ","kana_address":"ﾊﾅｿﾞﾉ","pref":"茨城県","city":"つくば市","address":"花園"},
{"zip_code":"3050805","kana_pref":"ｲﾊﾞﾗｷｹﾝ","kana_city":"ﾂｸﾊﾞｼ","kana_address":"ﾊﾅﾊﾞﾀｹ","pref":"茨城県","city":"つくば市","address":"花畑"},
{"zip_code":"3050025","kana_pref":"ｲﾊﾞﾗｷｹﾝ","kana_city":"ﾂｸﾊﾞｼ","kana_address":"ﾊﾅﾑﾛ","pref":"茨城県","city":"つくば市","address":"花室"},
{"zip_code":"3050857","kana_pref":"ｲﾊﾞﾗｷｹﾝ","kana_city":"ﾂｸﾊﾞｼ","kana_address":"ﾊﾅﾚ","pref":"茨城県","city":"つくば市","address":"羽成"},
{"zip_code":"3050823","kana_pref":"ｲﾊﾞﾗｷｹﾝ","kana_city":"ﾂｸﾊﾞｼ","kana_address":"ﾊﾗ","pref":"茨城県","city":"つくば市","address":"原"},
{"zip_code":"3050007","kana_pref":"ｲﾊﾞﾗｷｹﾝ","kana_city":"ﾂｸﾊﾞｼ","kana_address":"ﾊﾙｶｾﾞﾀﾞｲ","pref":"茨城県","city":"つくば市","address":"春風台"},
{"zip_code":"3050046","kana_pref":"ｲﾊﾞﾗｷｹﾝ","kana_city":"ﾂｸﾊﾞｼ","kana_address":"ﾋｶﾞｼ","pref":"茨城県","city":"つくば市","address":"東"},
{"zip_code":"3050033","kana_pref":"ｲﾊﾞﾗｷｹﾝ","kana_city":"ﾂｸﾊﾞｼ","kana_address":"ﾋｶﾞｼｱﾗｲ","pref":"茨城県","city":"つくば市","address":"東新井"},
{"zip_code":"3050027","kana_pref":"ｲﾊﾞﾗｷｹﾝ","kana_city":"ﾂｸﾊﾞｼ","kana_address":"ﾋｶﾞｼｵｶ","pref":"茨城県","city":"つくば市","address":"東岡"},
{"zip_code":"3050812","kana_pref":"ｲﾊﾞﾗｷｹﾝ","kana_city":"ﾂｸﾊﾞｼ","kana_address":"ﾋｶﾞｼﾋﾗﾂｶ","pref":"茨城県","city":"つくば市","address":"東平塚"},
{"zip_code":"3050862","kana_pref":"ｲﾊﾞﾗｷｹﾝ","kana_city":"ﾂｸﾊﾞｼ","kana_address":"ﾋｶﾞｼﾏﾙﾔﾏ","pref":"茨城県","city":"つくば市","address":"東丸山"},
{"zip_code":"3050852","kana_pref":"ｲﾊﾞﾗｷｹﾝ","kana_city":"ﾂｸﾊﾞｼ","kana_address":"ﾌｼﾞﾓﾄ","pref":"茨城県","city":"つくば市","address":"藤本"},
{"zip_code":"3050021","kana_pref":"ｲﾊﾞﾗｷｹﾝ","kana_city":"ﾂｸﾊﾞｼ","kana_address":"ﾌﾙｸ","pref":"茨城県","city":"つくば市","address":"古来"},
{"zip_code":"3050866","kana_pref":"ｲﾊﾞﾗｷｹﾝ","kana_city":"ﾂｸﾊﾞｼ","kana_address":"ﾌﾙﾀﾞﾃ","pref":"茨城県","city":"つくば市","address":"古館"},
{"zip_code":"3050035","kana_pref":"ｲﾊﾞﾗｷｹﾝ","kana_city":"ﾂｸﾊﾞｼ","kana_address":"ﾏﾂｼﾛ","pref":"茨城県","city":"つくば市","address":"松代"},
{"zip_code":"3050015","kana_pref":"ｲﾊﾞﾗｷｹﾝ","kana_city":"ﾂｸﾊﾞｼ","kana_address":"ﾏﾂﾂﾞｶ","pref":"茨城県","city":"つくば市","address":"松塚"},
{"zip_code":"3050056","kana_pref":"ｲﾊﾞﾗｷｹﾝ","kana_city":"ﾂｸﾊﾞｼ","kana_address":"ﾏﾂﾉｷ","pref":"茨城県","city":"つくば市","address":"松野木"},
{"zip_code":"3050903","kana_pref":"ｲﾊﾞﾗｷｹﾝ","kana_city":"ﾂｸﾊﾞｼ","kana_address":"ﾏﾂﾉｻﾄ","pref":"茨城県","city":"つくば市","address":"松の里"},
{"zip_code":"3050863","kana_pref":"ｲﾊﾞﾗｷｹﾝ","kana_city":"ﾂｸﾊﾞｼ","kana_address":"ﾐﾄﾞﾘｶﾞｵｶ","pref":"茨城県","city":"つくば市","address":"緑が丘"},
{"zip_code":"3050881","kana_pref":"ｲﾊﾞﾗｷｹﾝ","kana_city":"ﾂｸﾊﾞｼ","kana_address":"ﾐﾄﾞﾘﾉ","pref":"茨城県","city":"つくば市","address":"みどりの"},
{"zip_code":"3050882","kana_pref":"ｲﾊﾞﾗｷｹﾝ","kana_city":"ﾂｸﾊﾞｼ","kana_address":"ﾐﾄﾞﾘﾉﾁｭｳｵｳ","pref":"茨城県","city":"つくば市","address":"みどりの中央"},
{"zip_code":"3050883","kana_pref":"ｲﾊﾞﾗｷｹﾝ","kana_city":"ﾂｸﾊﾞｼ","kana_address":"ﾐﾄﾞﾘﾉﾋｶﾞｼ","pref":"茨城県","city":"つくば市","address":"みどりの東"},
{"zip_code":"3050884","kana_pref":"ｲﾊﾞﾗｷｹﾝ","kana_city":"ﾂｸﾊﾞｼ","kana_address":"ﾐﾄﾞﾘﾉﾐﾅﾐ","pref":"茨城県","city":"つくば市","address":"みどりの南"},
{"zip_code":"3050065","kana_pref":"ｲﾊﾞﾗｷｹﾝ","kana_city":"ﾂｸﾊﾞｼ","kana_address":"ﾐﾅﾐﾅｶﾂﾞﾏ","pref":"茨城県","city":"つくば市","address":"南中妻"},
{"zip_code":"3050803","kana_pref":"ｲﾊﾞﾗｷｹﾝ","kana_city":"ﾂｸﾊﾞｼ","kana_address":"ﾐﾅﾐﾊﾗ","pref":"茨城県","city":"つくば市","address":"南原"},
{"zip_code":"3050841","kana_pref":"ｲﾊﾞﾗｷｹﾝ","kana_city":"ﾂｸﾊﾞｼ","kana_address":"ﾐﾕｷｶﾞｵｶ","pref":"茨城県","city":"つくば市","address":"御幸が丘"},
{"zip_code":"3050842","kana_pref":"ｲﾊﾞﾗｷｹﾝ","kana_city":"ﾂｸﾊﾞｼ","kana_address":"ﾔｷﾞﾊｼ","pref":"茨城県","city":"つくば市","address":"柳橋"},
{"zip_code":"3050861","kana_pref":"ｲﾊﾞﾗｷｹﾝ","kana_city":"ﾂｸﾊﾞｼ","kana_address":"ﾔﾀﾍﾞ","pref":"茨城県","city":"つくば市","address":"谷田部"},
{"zip_code":"3050836","kana_pref":"ｲﾊﾞﾗｷｹﾝ","kana_city":"ﾂｸﾊﾞｼ","kana_address":"ﾔﾏﾅｶ","pref":"茨城県","city":"つくば市","address":"山中"},
{"zip_code":"3050017","kana_pref":"ｲﾊﾞﾗｷｹﾝ","kana_city":"ﾂｸﾊﾞｼ","kana_address":"ﾖｺﾏﾁ","pref":"茨城県","city":"つくば市","address":"横町"},
{"zip_code":"3050008","kana_pref":"ｲﾊﾞﾗｷｹﾝ","kana_city":"ﾂｸﾊﾞｼ","kana_address":"ﾘｭｳｾｲﾀﾞｲ","pref":"茨城県","city":"つくば市","address":"流星台"}]}