{"zip_code":[
{"zip_code":"3060000","kana_pref":"ｲﾊﾞﾗｷｹﾝ","kana_city":"ｺｶﾞｼ","kana_address":"","pref":"茨城県","city":"古河市","address":""},
{"zip_code":"3060012","kana_pref":"ｲﾊﾞﾗｷｹﾝ","kana_city":"ｺｶﾞｼ","kana_address":"ｱｻﾋﾁｮｳ","pref":"茨城県","city":"古河市","address":"旭町"},
{"zip_code":"3060044","kana_pref":"ｲﾊﾞﾗｷｹﾝ","kana_city":"ｺｶﾞｼ","kana_address":"ｱﾗｸﾀﾞ","pref":"茨城県","city":"古河市","address":"新久田"},
{"zip_code":"3060224","kana_pref":"ｲﾊﾞﾗｷｹﾝ","kana_city":"ｺｶﾞｼ","kana_address":"ｲｻｺﾞｲｼﾝﾃﾞﾝ","pref":"茨城県","city":"古河市","address":"砂井新田"},
{"zip_code":"3060225","kana_pref":"ｲﾊﾞﾗｷｹﾝ","kana_city":"ｺｶﾞｼ","kana_address":"ｲｿﾍﾞ","pref":"茨城県","city":"古河市","address":"磯部"},
{"zip_code":"3060202","kana_pref":"ｲﾊﾞﾗｷｹﾝ","kana_city":"ｺｶﾞｼ","kana_address":"ｲﾅﾐﾔ","pref":"茨城県","city":"古河市","address":"稲宮"},
{"zip_code":"3060105","kana_pref":"ｲﾊﾞﾗｷｹﾝ","kana_city":"ｺｶﾞｼ","kana_address":"ｴｸﾞﾁ","pref":"茨城県","city":"古河市","address":"江口"},
{"zip_code":"3060236","kana_pref":"ｲﾊﾞﾗｷｹﾝ","kana_city":"ｺｶﾞｼ","kana_address":"ｵｵﾂﾂﾐ","pref":"茨城県","city":"古河市","address":"大堤"},
{"zip_code":"3060032","kana_pref":"ｲﾊﾞﾗｷｹﾝ","kana_city":"ｺｶﾞｼ","kana_address":"ｵｵﾃﾏﾁ","pref":"茨城県","city":"古河市","address":"大手町"},
{"zip_code":"3060052","kana_pref":"ｲﾊﾞﾗｷｹﾝ","kana_city":"ｺｶﾞｼ","kana_address":"ｵｵﾔﾏ","pref":"茨城県","city":"古河市","address":"大山"},
{"zip_code":"3060111","kana_pref":"ｲﾊﾞﾗｷｹﾝ","kana_city":"ｺｶﾞｼ","kana_address":"ｵｵﾜﾀﾞ","pref":"茨城県","city":"古河市","address":"大和田"},
{"zip_code":"3060206","kana_pref":"ｲﾊﾞﾗｷｹﾝ","kana_city":"ｺｶﾞｼ","kana_address":"ｵｶｻﾞﾄ","pref":"茨城県","city":"古河市","address":"丘里"},
{"zip_code":"3060101","kana_pref":"ｲﾊﾞﾗｷｹﾝ","kana_city":"ｺｶﾞｼ","kana_address":"ｵｻｷ","pref":"茨城県","city":"古河市","address":"尾崎"},
{"zip_code":"3060226","kana_pref":"ｲﾊﾞﾗｷｹﾝ","kana_city":"ｺｶﾞｼ","kana_address":"ｵﾅﾇﾏ","pref":"茨城県","city":"古河市","address":"女沼"},
{"zip_code":"3060104","kana_pref":"ｲﾊﾞﾗｷｹﾝ","kana_city":"ｺｶﾞｼ","kana_address":"ｵﾝﾅ","pref":"茨城県","city":"古河市","address":"恩名"},
{"zip_code":"3060211","kana_pref":"ｲﾊﾞﾗｷｹﾝ","kana_city":"ｺｶﾞｼ","kana_address":"ｶｽﾞﾛｳ","pref":"茨城県","city":"古河市","address":"葛生"},
{"zip_code":"3060223","kana_pref":"ｲﾊﾞﾗｷｹﾝ","kana_city":"ｺｶﾞｼ","kana_address":"ｶﾐｲｻｺﾞｲ","pref":"茨城県","city":"古河市","address":"上砂井"},
{"zip_code":"3060201","kana_pref":"ｲﾊﾞﾗｷｹﾝ","kana_city":"ｺｶﾞｼ","kana_address":"ｶﾐｵｵﾉ","pref":"茨城県","city":"古河市","address":"上大野"},
{"zip_code":"3060128","kana_pref":"ｲﾊﾞﾗｷｹﾝ","kana_city":"ｺｶﾞｼ","kana_address":"ｶﾐｶﾀﾀ","pref":"茨城県","city":"古河市","address":"上片田"},
{"zip_code":"3060234","kana_pref":"ｲﾊﾞﾗｷｹﾝ","kana_city":"ｺｶﾞｼ","kana_address":"ｶﾐﾍﾐ","pref":"茨城県","city":"古河市","address":"上辺見"},
{"zip_code":"3060122","kana_pref":"ｲﾊﾞﾗｷｹﾝ","kana_city":"ｺｶﾞｼ","kana_address":"ｶﾐﾜﾀﾞ","pref":"茨城県","city":"古河市","address":"上和田"},
{"zip_code":"3060213","kana_pref":"ｲﾊﾞﾗｷｹﾝ","kana_city":"ｺｶﾞｼ","kana_address":"ｷﾀﾄﾈ","pref":"茨城県","city":"古河市","address":"北利根"},
{"zip_code":"3060005","kana_pref":"ｲﾊﾞﾗｷｹﾝ","kana_city":"ｺｶﾞｼ","kana_address":"ｷﾀﾏﾁ","pref":"茨城県","city":"古河市","address":"北町"},
{"zip_code":"3060106","kana_pref":"ｲﾊﾞﾗｷｹﾝ","kana_city":"ｺｶﾞｼ","kana_address":"ｷﾀﾏﾅｶﾊﾞｼ","pref":"茨城県","city":"古河市","address":"北間中橋"},
{"zip_code":"3060115","kana_pref":"ｲﾊﾞﾗｷｹﾝ","kana_city":"ｺｶﾞｼ","kana_address":"ｷﾀﾔﾏﾀ","pref":"茨城県","city":"古河市","address":"北山田"},
{"zip_code":"3060212","kana_pref":"ｲﾊﾞﾗｷｹﾝ","kana_city":"ｺｶﾞｼ","kana_address":"ｸﾉｳ","pref":"茨城県","city":"古河市","address":"久能"},
{"zip_code":"3060055","kana_pref":"ｲﾊﾞﾗｷｹﾝ","kana_city":"ｺｶﾞｼ","kana_address":"ｹﾔｷﾀﾞｲﾗ","pref":"茨城県","city":"古河市","address":"けやき平"},
{"zip_code":"3060041","kana_pref":"ｲﾊﾞﾗｷｹﾝ","kana_city":"ｺｶﾞｼ","kana_address":"ｺｳﾉｽ","pref":"茨城県","city":"古河市","address":"鴻巣"},
{"zip_code":"3060214","kana_pref":"ｲﾊﾞﾗｷｹﾝ","kana_city":"ｺｶﾞｼ","kana_address":"ｺｳﾔ","pref":"茨城県","city":"古河市","address":"高野"},
{"zip_code":"3060016","kana_pref":"ｲﾊﾞﾗｷｹﾝ","kana_city":"ｺｶﾞｼ","kana_address":"ｺｶﾞ","pref":"茨城県","city":"古河市","address":"古河"},
{"zip_code":"3060231","kana_pref":"ｲﾊﾞﾗｷｹﾝ","kana_city":"ｺｶﾞｼ","kana_address":"ｺﾂﾞﾂﾐ","pref":"茨城県","city":"古河市","address":"小堤"},
{"zip_code":"3060123","kana_pref":"ｲﾊﾞﾗｷｹﾝ","kana_city":"ｺｶﾞｼ","kana_address":"ｺﾞﾍｲ","pref":"茨城県","city":"古河市","address":"五部"},
{"zip_code":"3060045","kana_pref":"ｲﾊﾞﾗｷｹﾝ","kana_city":"ｺｶﾞｼ","kana_address":"ｺﾏｶﾞｻｷ","pref":"茨城県","city":"古河市","address":"駒ケ崎"},
{"zip_code":"3060121","kana_pref":"ｲﾊﾞﾗｷｹﾝ","kana_city":"ｺｶﾞｼ","kana_address":"ｺﾏｺﾞﾒ","pref":"茨城県","city":"古河市","address":"駒込"},
{"zip_code":"3060221","kana_pref":"ｲﾊﾞﾗｷｹﾝ","kana_city":"ｺｶﾞｼ","kana_address":"ｺﾏﾊﾈ","pref":"茨城県","city":"古河市","address":"駒羽根"},
{"zip_code":"3060024","kana_pref":"ｲﾊﾞﾗｷｹﾝ","kana_city":"ｺｶﾞｼ","kana_address":"ｻｲﾜｲﾁｮｳ","pref":"茨城県","city":"古河市","address":"幸町"},
{"zip_code":"3060056","kana_pref":"ｲﾊﾞﾗｷｹﾝ","kana_city":"ｺｶﾞｼ","kana_address":"ｻｶﾏ","pref":"茨城県","city":"古河市","address":"坂間"},
{"zip_code":"3060036","kana_pref":"ｲﾊﾞﾗｷｹﾝ","kana_city":"ｺｶﾞｼ","kana_address":"ｻｸﾗﾏﾁ","pref":"茨城県","city":"古河市","address":"桜町"},
{"zip_code":"3060042","kana_pref":"ｲﾊﾞﾗｷｹﾝ","kana_city":"ｺｶﾞｼ","kana_address":"ｻﾝﾜ","pref":"茨城県","city":"古河市","address":"三和"},
{"zip_code":"3060001","kana_pref":"ｲﾊﾞﾗｷｹﾝ","kana_city":"ｺｶﾞｼ","kana_address":"ｼｽﾞｶﾁｮｳ","pref":"茨城県","city":"古河市","address":"静町"},
{"zip_code":"3060204","kana_pref":"ｲﾊﾞﾗｷｹﾝ","kana_city":"ｺｶﾞｼ","kana_address":"ｼﾓｵｵﾉ","pref":"茨城県","city":"古河市","address":"下大野"},
{"zip_code":"3060127","kana_pref":"ｲﾊﾞﾗｷｹﾝ","kana_city":"ｺｶﾞｼ","kana_address":"ｼﾓｶﾀﾀ","pref":"茨城県","city":"古河市","address":"下片田"},
{"zip_code":"3060235","kana_pref":"ｲﾊﾞﾗｷｹﾝ","kana_city":"ｺｶﾞｼ","kana_address":"ｼﾓﾍﾐ","pref":"茨城県","city":"古河市","address":"下辺見"},
{"zip_code":"3060014","kana_pref":"ｲﾊﾞﾗｷｹﾝ","kana_city":"ｺｶﾞｼ","kana_address":"ｼﾓﾔﾏﾁｮｳ","pref":"茨城県","city":"古河市","address":"下山町"},
{"zip_code":"3060222","kana_pref":"ｲﾊﾞﾗｷｹﾝ","kana_city":"ｺｶﾞｼ","kana_address":"ｼｬｶ","pref":"茨城県","city":"古河市","address":"釈迦"},
{"zip_code":"3060116","kana_pref":"ｲﾊﾞﾗｷｹﾝ","kana_city":"ｺｶﾞｼ","kana_address":"ｼﾝﾜﾀﾞ","pref":"茨城県","city":"古河市","address":"新和田"},
{"zip_code":"3060205","kana_pref":"ｲﾊﾞﾗｷｹﾝ","kana_city":"ｺｶﾞｼ","kana_address":"ｾｷﾄﾞ","pref":"茨城県","city":"古河市","address":"関戸"},
{"zip_code":"3060047","kana_pref":"ｲﾊﾞﾗｷｹﾝ","kana_city":"ｺｶﾞｼ","kana_address":"ﾀﾂｻﾞｷ","pref":"茨城県","city":"古河市","address":"立崎"},
{"zip_code":"3060051","kana_pref":"ｲﾊﾞﾗｷｹﾝ","kana_city":"ｺｶﾞｼ","kana_address":"ﾁｬﾔｼﾝﾃﾞﾝ","pref":"茨城県","city":"古河市","address":"茶屋新田"},
{"zip_code":"3060033","kana_pref":"ｲﾊﾞﾗｷｹﾝ","kana_city":"ｺｶﾞｼ","kana_address":"ﾁｭｳｵｳﾁｮｳ","pref":"茨城県","city":"古河市","address":"中央町"},
{"zip_code":"3060103","kana_pref":"ｲﾊﾞﾗｷｹﾝ","kana_city":"ｺｶﾞｼ","kana_address":"ﾁｮｳｻﾞｴﾓﾝｼﾝﾃﾞﾝ","pref":"茨城県","city":"古河市","address":"長左エ門新田"},
{"zip_code":"3060007","kana_pref":"ｲﾊﾞﾗｷｹﾝ","kana_city":"ｺｶﾞｼ","kana_address":"ﾄｷﾜﾁｮｳ","pref":"茨城県","city":"古河市","address":"常盤町"},
{"zip_code":"3060043","kana_pref":"ｲﾊﾞﾗｷｹﾝ","kana_city":"ｺｶﾞｼ","kana_address":"ﾄﾘﾊﾐ","pref":"茨城県","city":"古河市","address":"鳥喰"},
{"zip_code":"3060053","kana_pref":"ｲﾊﾞﾗｷｹﾝ","kana_city":"ｺｶﾞｼ","kana_address":"ﾅｶﾀﾞ","pref":"茨城県","city":"古河市","address":"中田"},
{"zip_code":"3060054","kana_pref":"ｲﾊﾞﾗｷｹﾝ","kana_city":"ｺｶﾞｼ","kana_address":"ﾅｶﾀﾞｼﾝﾃﾞﾝ","pref":"茨城県","city":"古河市","address":"中田新田"},
{"zip_code":"3060110","kana_pref":"ｲﾊﾞﾗｷｹﾝ","kana_city":"ｺｶﾞｼ","kana_address":"ﾅｻｷ","pref":"茨城県","city":"古河市","address":"名崎"},
{"zip_code":"3060233","kana_pref":"ｲﾊﾞﾗｷｹﾝ","kana_city":"ｺｶﾞｼ","kana_address":"ﾆｼｳｼｶﾞﾔ","pref":"茨城県","city":"古河市","address":"西牛谷"},
{"zip_code":"3060037","kana_pref":"ｲﾊﾞﾗｷｹﾝ","kana_city":"ｺｶﾞｼ","kana_address":"ﾆｼｷﾁｮｳ","pref":"茨城県","city":"古河市","address":"錦町"},
{"zip_code":"3060038","kana_pref":"ｲﾊﾞﾗｷｹﾝ","kana_city":"ｺｶﾞｼ","kana_address":"ﾆｼﾏﾁ","pref":"茨城県","city":"古河市","address":"西町"},
{"zip_code":"3060109","kana_pref":"ｲﾊﾞﾗｷｹﾝ","kana_city":"ｺｶﾞｼ","kana_address":"ﾆｼﾏﾅｶﾊﾞｼ","pref":"茨城県","city":"古河市","address":"西間中橋"},
{"zip_code":"3060125","kana_pref":"ｲﾊﾞﾗｷｹﾝ","kana_city":"ｺｶﾞｼ","kana_address":"ﾆﾚｲ","pref":"茨城県","city":"古河市","address":"仁連"},
{"zip_code":"3060035","kana_pref":"ｲﾊﾞﾗｷｹﾝ","kana_city":"ｺｶﾞｼ","kana_address":"ﾊｾ","pref":"茨城県","city":"古河市","address":"長谷"},
{"zip_code":"3060034","kana_pref":"ｲﾊﾞﾗｷｹﾝ","kana_city":"ｺｶﾞｼ","kana_address":"ﾊｾﾏﾁ","pref":"茨城県","city":"古河市","address":"長谷町"},
{"zip_code":"3060026","kana_pref":"ｲﾊﾞﾗｷｹﾝ","kana_city":"ｺｶﾞｼ","kana_address":"ﾊﾗ","pref":"茨城県","city":"古河市","address":"原"},
{"zip_code":"3060025","kana_pref":"ｲﾊﾞﾗｷｹﾝ","kana_city":"ｺｶﾞｼ","kana_address":"ﾊﾗﾏﾁ","pref":"茨城県","city":"古河市","address":"原町"},
{"zip_code":"3060011","kana_pref":"ｲﾊﾞﾗｷｹﾝ","kana_city":"ｺｶﾞｼ","kana_address":"ﾋｶﾞｼ","pref":"茨城県","city":"古河市","address":"東"},
{"zip_code":"3060232","kana_pref":"ｲﾊﾞﾗｷｹﾝ","kana_city":"ｺｶﾞｼ","kana_address":"ﾋｶﾞｼｳｼｶﾞﾔ","pref":"茨城県","city":"古河市","address":"東牛谷"},
{"zip_code":"3060013","kana_pref":"ｲﾊﾞﾗｷｹﾝ","kana_city":"ｺｶﾞｼ","kana_address":"ﾋｶﾞｼﾎﾝﾁｮｳ","pref":"茨城県","city":"古河市","address":"東本町"},
{"zip_code":"3060107","kana_pref":"ｲﾊﾞﾗｷｹﾝ","kana_city":"ｺｶﾞｼ","kana_address":"ﾋｶﾞｼﾏﾅｶﾊﾞｼ","pref":"茨城県","city":"古河市","address":"東間中橋"},
{"zip_code":"3060124","kana_pref":"ｲﾊﾞﾗｷｹﾝ","kana_city":"ｺｶﾞｼ","kana_address":"ﾋｶﾞｼﾓﾛｶﾜ","pref":"茨城県","city":"古河市","address":"東諸川"},
{"zip_code":"3060112","kana_pref":"ｲﾊﾞﾗｷｹﾝ","kana_city":"ｺｶﾞｼ","kana_address":"ﾋｶﾞｼﾔﾏﾀ","pref":"茨城県","city":"古河市","address":"東山田"},
{"zip_code":"3060006","kana_pref":"ｲﾊﾞﾗｷｹﾝ","kana_city":"ｺｶﾞｼ","kana_address":"ﾍｲﾜﾏﾁ","pref":"茨城県","city":"古河市","address":"平和町"},
{"zip_code":"3060023","kana_pref":"ｲﾊﾞﾗｷｹﾝ","kana_city":"ｺｶﾞｼ","kana_address":"ﾎﾝﾁｮｳ","pref":"茨城県","city":"古河市","address":"本町"},
{"zip_code":"3060216","kana_pref":"ｲﾊﾞﾗｷｹﾝ","kana_city":"ｺｶﾞｼ","kana_address":"ﾏｴﾊﾞﾔｼ","pref":"茨城県","city":"古河市","address":"前林"},
{"zip_code":"3060046","kana_pref":"ｲﾊﾞﾗｷｹﾝ","kana_city":"ｺｶﾞｼ","kana_address":"ﾏｷﾉｼﾞ","pref":"茨城県","city":"古河市","address":"牧野地"},
{"zip_code":"3060021","kana_pref":"ｲﾊﾞﾗｷｹﾝ","kana_city":"ｺｶﾞｼ","kana_address":"ﾏﾂﾅﾐ","pref":"茨城県","city":"古河市","address":"松並"},
{"zip_code":"3060215","kana_pref":"ｲﾊﾞﾗｷｹﾝ","kana_city":"ｺｶﾞｼ","kana_address":"ﾐｽﾞｳﾐ","pref":"茨城県","city":"古河市","address":"水海"},
{"zip_code":"3060002","kana_pref":"ｲﾊﾞﾗｷｹﾝ","kana_city":"ｺｶﾞｼ","kana_address":"ﾐｽｷﾞﾁｮｳ","pref":"茨城県","city":"古河市","address":"三杉町"},
{"zip_code":"3060003","kana_pref":"ｲﾊﾞﾗｷｹﾝ","kana_city":"ｺｶﾞｼ","kana_address":"ﾐﾄﾞﾘﾁｮｳ","pref":"茨城県","city":"古河市","address":"緑町"},
{"zip_code":"3060015","kana_pref":"ｲﾊﾞﾗｷｹﾝ","kana_city":"ｺｶﾞｼ","kana_address":"ﾐﾅﾐﾁｮｳ","pref":"茨城県","city":"古河市","address":"南町"},
{"zip_code":"3060108","kana_pref":"ｲﾊﾞﾗｷｹﾝ","kana_city":"ｺｶﾞｼ","kana_address":"ﾐﾅﾐﾏﾅｶﾊﾞｼ","pref":"茨城県","city":"古河市","address":"南間中橋"},
{"zip_code":"3060031","kana_pref":"ｲﾊﾞﾗｷｹﾝ","kana_city":"ｺｶﾞｼ","kana_address":"ﾐﾔﾏｴﾁｮｳ","pref":"茨城県","city":"古河市","address":"宮前町"},
{"zip_code":"3060126","kana_pref":"ｲﾊﾞﾗｷｹﾝ","kana_city":"ｺｶﾞｼ","kana_address":"ﾓﾛｶﾜ","pref":"茨城県","city":"古河市","address":"諸川"},
{"zip_code":"3060113","kana_pref":"ｲﾊﾞﾗｷｹﾝ","kana_city":"ｺｶﾞｼ","kana_address":"ﾔｶﾞｲ","pref":"茨城県","city":"古河市","address":"谷貝"},
{"zip_code":"3060203","kana_pref":"ｲﾊﾞﾗｷｹﾝ","kana_city":"ｺｶﾞｼ","kana_address":"ﾔｷﾞﾊｼ","pref":"茨城県","city":"古河市","address":"柳橋"},
{"zip_code":"3060114","kana_pref":"ｲﾊﾞﾗｷｹﾝ","kana_city":"ｺｶﾞｼ","kana_address":"ﾔﾏﾀ","pref":"茨城県","city":"古河市","address":"山田"},
{"zip_code":"3060022","kana_pref":"ｲﾊﾞﾗｷｹﾝ","kana_city":"ｺｶﾞｼ","kana_address":"ﾖｺﾔﾏﾁｮｳ","pref":"茨城県","city":"古河市","address":"横山町"},
{"zip_code":"3060004","kana_pref":"ｲﾊﾞﾗｷｹﾝ","kana_city":"ｺｶﾞｼ","kana_address":"ﾗｲﾃﾞﾝﾁｮｳ","pref":"茨城県","city":"古河市","address":"雷電町"},
{"zip_code":"3060600","kana_pref":"ｲﾊﾞﾗｷｹﾝ","kana_city":"ﾊﾞﾝﾄﾞｳｼ","kana_address":"","pref":"茨城県","city":"坂東市","address":""},
{"zip_code":"3060631","kana_pref":"ｲﾊﾞﾗｷｹﾝ","kana_city":"ﾊﾞﾝﾄﾞｳｼ","kana_address":"ｲﾜｲ","pref":"茨城県","city":"坂東市","address":"岩井"},
{"zip_code":"3060514","kana_pref":"ｲﾊﾞﾗｷｹﾝ","kana_city":"ﾊﾞﾝﾄﾞｳｼ","kana_address":"ｳﾁﾉﾔﾏ","pref":"茨城県","city":"坂東市","address":"内野山"},
{"zip_code":"3060504","kana_pref":"ｲﾊﾞﾗｷｹﾝ","kana_city":"ﾊﾞﾝﾄﾞｳｼ","kana_address":"ｵｲｺﾞ","pref":"茨城県","city":"坂東市","address":"生子"},
{"zip_code":"3060503","kana_pref":"ｲﾊﾞﾗｷｹﾝ","kana_city":"ﾊﾞﾝﾄﾞｳｼ","kana_address":"ｵｲｺﾞｼﾝﾃﾞﾝ","pref":"茨城県","city":"坂東市","address":"生子新田"},
{"zip_code":"3060615","kana_pref":"ｲﾊﾞﾗｷｹﾝ","kana_city":"ﾊﾞﾝﾄﾞｳｼ","kana_address":"ｵｵｸﾞﾁ","pref":"茨城県","city":"坂東市","address":"大口"},
{"zip_code":"3060613","kana_pref":"ｲﾊﾞﾗｷｹﾝ","kana_city":"ﾊﾞﾝﾄﾞｳｼ","kana_address":"ｵｵｸﾞﾁｼﾝﾃﾞﾝ","pref":"茨城県","city":"坂東市","address":"大口新田"},
{"zip_code":"3060622","kana_pref":"ｲﾊﾞﾗｷｹﾝ","kana_city":"ﾊﾞﾝﾄﾞｳｼ","kana_address":"ｵｵｻｷ","pref":"茨城県","city":"坂東市","address":"大崎"},
{"zip_code":"3060601","kana_pref":"ｲﾊﾞﾗｷｹﾝ","kana_city":"ﾊﾞﾝﾄﾞｳｼ","kana_address":"ｵｵﾏｼﾝﾃﾞﾝ","pref":"茨城県","city":"坂東市","address":"大馬新田"},
{"zip_code":"3060621","kana_pref":"ｲﾊﾞﾗｷｹﾝ","kana_city":"ﾊﾞﾝﾄﾞｳｼ","kana_address":"ｵｵﾔｸﾞﾁ","pref":"茨城県","city":"坂東市","address":"大谷口"},
{"zip_code":"3060626","kana_pref":"ｲﾊﾞﾗｷｹﾝ","kana_city":"ﾊﾞﾝﾄﾞｳｼ","kana_address":"ｵﾔﾏ","pref":"茨城県","city":"坂東市","address":"小山"},
{"zip_code":"3060617","kana_pref":"ｲﾊﾞﾗｷｹﾝ","kana_city":"ﾊﾞﾝﾄﾞｳｼ","kana_address":"ｶﾄﾞﾔﾏ","pref":"茨城県","city":"坂東市","address":"神田山"},
{"zip_code":"3060611","kana_pref":"ｲﾊﾞﾗｷｹﾝ","kana_city":"ﾊﾞﾝﾄﾞｳｼ","kana_address":"ｶﾄﾞﾔﾏｼﾝﾃﾞﾝ","pref":"茨城県","city":"坂東市","address":"神田山新田"},
{"zip_code":"3060654","kana_pref":"ｲﾊﾞﾗｷｹﾝ","kana_city":"ﾊﾞﾝﾄﾞｳｼ","kana_address":"ｶﾐｲｽﾞｼﾏ","pref":"茨城県","city":"坂東市","address":"上出島"},
{"zip_code":"3060657","kana_pref":"ｲﾊﾞﾗｷｹﾝ","kana_city":"ﾊﾞﾝﾄﾞｳｼ","kana_address":"ｶﾘﾔﾄﾞ","pref":"茨城県","city":"坂東市","address":"借宿"},
{"zip_code":"3060603","kana_pref":"ｲﾊﾞﾗｷｹﾝ","kana_city":"ﾊﾞﾝﾄﾞｳｼ","kana_address":"ｶﾝｽｹｼﾝﾃﾞﾝ","pref":"茨城県","city":"坂東市","address":"勘助新田"},
{"zip_code":"3060643","kana_pref":"ｲﾊﾞﾗｷｹﾝ","kana_city":"ﾊﾞﾝﾄﾞｳｼ","kana_address":"ｷﾏｶﾞｾ","pref":"茨城県","city":"坂東市","address":"木間ケ瀬"},
{"zip_code":"3060636","kana_pref":"ｲﾊﾞﾗｷｹﾝ","kana_city":"ﾊﾞﾝﾄﾞｳｼ","kana_address":"ｷﾘﾉｷ","pref":"茨城県","city":"坂東市","address":"桐木"},
{"zip_code":"3060641","kana_pref":"ｲﾊﾞﾗｷｹﾝ","kana_city":"ﾊﾞﾝﾄﾞｳｼ","kana_address":"ｸｸﾞｲﾄﾞ","pref":"茨城県","city":"坂東市","address":"鵠戸"},
{"zip_code":"3060515","kana_pref":"ｲﾊﾞﾗｷｹﾝ","kana_city":"ﾊﾞﾝﾄﾞｳｼ","kana_address":"ｸﾂｶｹ","pref":"茨城県","city":"坂東市","address":"沓掛"},
{"zip_code":"3060513","kana_pref":"ｲﾊﾞﾗｷｹﾝ","kana_city":"ﾊﾞﾝﾄﾞｳｼ","kana_address":"ｸﾘﾔﾏｼﾝﾃﾞﾝ","pref":"茨城県","city":"坂東市","address":"栗山新田"},
{"zip_code":"3060635","kana_pref":"ｲﾊﾞﾗｷｹﾝ","kana_city":"ﾊﾞﾝﾄﾞｳｼ","kana_address":"ｺｲｽﾞﾐ","pref":"茨城県","city":"坂東市","address":"小泉"},
{"zip_code":"3060608","kana_pref":"ｲﾊﾞﾗｷｹﾝ","kana_city":"ﾊﾞﾝﾄﾞｳｼ","kana_address":"ｺｳｼﾝﾀﾞｲﾗ","pref":"茨城県","city":"坂東市","address":"幸神平"},
{"zip_code":"3060606","kana_pref":"ｲﾊﾞﾗｷｹﾝ","kana_city":"ﾊﾞﾝﾄﾞｳｼ","kana_address":"ｺｳﾀﾞ","pref":"茨城県","city":"坂東市","address":"幸田"},
{"zip_code":"3060604","kana_pref":"ｲﾊﾞﾗｷｹﾝ","kana_city":"ﾊﾞﾝﾄﾞｳｼ","kana_address":"ｺｳﾀﾞｼﾝﾃﾞﾝ","pref":"茨城県","city":"坂東市","address":"幸田新田"},
{"zip_code":"3060644","kana_pref":"ｲﾊﾞﾗｷｹﾝ","kana_city":"ﾊﾞﾝﾄﾞｳｼ","kana_address":"ｺﾌﾞｳﾁ","pref":"茨城県","city":"坂東市","address":"古布内"},
{"zip_code":"3060653","kana_pref":"ｲﾊﾞﾗｷｹﾝ","kana_city":"ﾊﾞﾝﾄﾞｳｼ","kana_address":"ｺﾏﾊﾈ","pref":"茨城県","city":"坂東市","address":"駒跿"},
{"zip_code":"3060501","kana_pref":"ｲﾊﾞﾗｷｹﾝ","kana_city":"ﾊﾞﾝﾄﾞｳｼ","kana_address":"ｻｶｻｲ","pref":"茨城県","city":"坂東市","address":"逆井"},
{"zip_code":"3060512","kana_pref":"ｲﾊﾞﾗｷｹﾝ","kana_city":"ﾊﾞﾝﾄﾞｳｼ","kana_address":"ｻﾍｲﾀｼﾝﾃﾞﾝ","pref":"茨城県","city":"坂東市","address":"左平太新田"},
{"zip_code":"3060633","kana_pref":"ｲﾊﾞﾗｷｹﾝ","kana_city":"ﾊﾞﾝﾄﾞｳｼ","kana_address":"ｼﾓｲｽﾞｼﾏ","pref":"茨城県","city":"坂東市","address":"下出島"},
{"zip_code":"3060614","kana_pref":"ｲﾊﾞﾗｷｹﾝ","kana_city":"ﾊﾞﾝﾄﾞｳｼ","kana_address":"ｼｮｳｴﾓﾝｼﾝﾃﾞﾝ","pref":"茨城県","city":"坂東市","address":"庄右衛門新田"},
{"zip_code":"3060505","kana_pref":"ｲﾊﾞﾗｷｹﾝ","kana_city":"ﾊﾞﾝﾄﾞｳｼ","kana_address":"ｽｶﾞﾔ","pref":"茨城県","city":"坂東市","address":"菅谷"},
{"zip_code":"3060656","kana_pref":"ｲﾊﾞﾗｷｹﾝ","kana_city":"ﾊﾞﾝﾄﾞｳｼ","kana_address":"ﾃﾗｸ","pref":"茨城県","city":"坂東市","address":"寺久"},
{"zip_code":"3060652","kana_pref":"ｲﾊﾞﾗｷｹﾝ","kana_city":"ﾊﾞﾝﾄﾞｳｼ","kana_address":"ﾄﾐﾀ","pref":"茨城県","city":"坂東市","address":"冨田"},
{"zip_code":"3060634","kana_pref":"ｲﾊﾞﾗｷｹﾝ","kana_city":"ﾊﾞﾝﾄﾞｳｼ","kana_address":"ﾅｶｻﾞﾄ","pref":"茨城県","city":"坂東市","address":"中里"},
{"zip_code":"3060645","kana_pref":"ｲﾊﾞﾗｷｹﾝ","kana_city":"ﾊﾞﾝﾄﾞｳｼ","kana_address":"ﾅｶﾞｽ","pref":"茨城県","city":"坂東市","address":"長須"},
{"zip_code":"3060642","kana_pref":"ｲﾊﾞﾗｷｹﾝ","kana_city":"ﾊﾞﾝﾄﾞｳｼ","kana_address":"ﾅｶﾞﾔ","pref":"茨城県","city":"坂東市","address":"長谷"},
{"zip_code":"3060616","kana_pref":"ｲﾊﾞﾗｷｹﾝ","kana_city":"ﾊﾞﾝﾄﾞｳｼ","kana_address":"ﾈｺｻﾞﾈ","pref":"茨城県","city":"坂東市","address":"猫実"},
{"zip_code":"3060612","kana_pref":"ｲﾊﾞﾗｷｹﾝ","kana_city":"ﾊﾞﾝﾄﾞｳｼ","kana_address":"ﾈｺｻﾞﾈｼﾝﾃﾞﾝ","pref":"茨城県","city":"坂東市","address":"猫実新田"},
{"zip_code":"3060651","kana_pref":"ｲﾊﾞﾗｷｹﾝ","kana_city":"ﾊﾞﾝﾄﾞｳｼ","kana_address":"ﾊﾝﾔ","pref":"茨城県","city":"坂東市","address":"半谷"},
{"zip_code":"3060602","kana_pref":"ｲﾊﾞﾗｷｹﾝ","kana_city":"ﾊﾞﾝﾄﾞｳｼ","kana_address":"ﾍｲﾊﾁｼﾝﾃﾞﾝ","pref":"茨城県","city":"坂東市","address":"平八新田"},
{"zip_code":"3060632","kana_pref":"ｲﾊﾞﾗｷｹﾝ","kana_city":"ﾊﾞﾝﾄﾞｳｼ","kana_address":"ﾍﾀ","pref":"茨城県","city":"坂東市","address":"辺田"},
{"zip_code":"3060623","kana_pref":"ｲﾊﾞﾗｷｹﾝ","kana_city":"ﾊﾞﾝﾄﾞｳｼ","kana_address":"ﾎｳｼﾄ","pref":"茨城県","city":"坂東市","address":"法師戸"},
{"zip_code":"3060511","kana_pref":"ｲﾊﾞﾗｷｹﾝ","kana_city":"ﾊﾞﾝﾄﾞｳｼ","kana_address":"ﾏｺﾞﾍﾞｴｼﾝﾃﾞﾝ","pref":"茨城県","city":"坂東市","address":"孫兵エ新田"},
{"zip_code":"3060605","kana_pref":"ｲﾊﾞﾗｷｹﾝ","kana_city":"ﾊﾞﾝﾄﾞｳｼ","kana_address":"ﾏﾀﾃ","pref":"茨城県","city":"坂東市","address":"馬立"},
{"zip_code":"3060637","kana_pref":"ｲﾊﾞﾗｷｹﾝ","kana_city":"ﾊﾞﾝﾄﾞｳｼ","kana_address":"ﾐﾄﾞﾘﾁｮｳ","pref":"茨城県","city":"坂東市","address":"みどり町"},
{"zip_code":"3060655","kana_pref":"ｲﾊﾞﾗｷｹﾝ","kana_city":"ﾊﾞﾝﾄﾞｳｼ","kana_address":"ﾐﾑﾗ","pref":"茨城県","city":"坂東市","address":"みむら"},
{"zip_code":"3060625","kana_pref":"ｲﾊﾞﾗｷｹﾝ","kana_city":"ﾊﾞﾝﾄﾞｳｼ","kana_address":"ﾑｼﾛｳﾁ","pref":"茨城県","city":"坂東市","address":"莚打"},
{"zip_code":"3060624","kana_pref":"ｲﾊﾞﾗｷｹﾝ","kana_city":"ﾊﾞﾝﾄﾞｳｼ","kana_address":"ﾔﾊｷﾞ","pref":"茨城県","city":"坂東市","address":"矢作"},
{"zip_code":"3060502","kana_pref":"ｲﾊﾞﾗｷｹﾝ","kana_city":"ﾊﾞﾝﾄﾞｳｼ","kana_address":"ﾔﾏ","pref":"茨城県","city":"坂東市","address":"山"},
{"zip_code":"3060607","kana_pref":"ｲﾊﾞﾗｷｹﾝ","kana_city":"ﾊﾞﾝﾄﾞｳｼ","kana_address":"ﾕﾀﾞ","pref":"茨城県","city":"坂東市","address":"弓田"},
{"zip_code":"3060300","kana_pref":"ｲﾊﾞﾗｷｹﾝ","kana_city":"ｻｼﾏｸﾞﾝｺﾞｶﾏﾁ","kana_address":"","pref":"茨城県","city":"猿島郡五霞町","address":""},
{"zip_code":"3060303","kana_pref":"ｲﾊﾞﾗｷｹﾝ","kana_city":"ｻｼﾏｸﾞﾝｺﾞｶﾏﾁ","kana_address":"ｴｶﾞﾜ","pref":"茨城県","city":"猿島郡五霞町","address":"江川"},
{"zip_code":"3060311","kana_pref":"ｲﾊﾞﾗｷｹﾝ","kana_city":"ｻｼﾏｸﾞﾝｺﾞｶﾏﾁ","kana_address":"ｵｵﾌｸﾀﾞ","pref":"茨城県","city":"猿島郡五霞町","address":"大福田"},
{"zip_code":"3060314","kana_pref":"ｲﾊﾞﾗｷｹﾝ","kana_city":"ｻｼﾏｸﾞﾝｺﾞｶﾏﾁ","kana_address":"ｶﾜﾂﾏ","pref":"茨城県","city":"猿島郡五霞町","address":"川妻"},
{"zip_code":"3060304","kana_pref":"ｲﾊﾞﾗｷｹﾝ","kana_city":"ｻｼﾏｸﾞﾝｺﾞｶﾏﾁ","kana_address":"ｺｳｼｭ","pref":"茨城県","city":"猿島郡五霞町","address":"幸主"},
{"zip_code":"3060315","kana_pref":"ｲﾊﾞﾗｷｹﾝ","kana_city":"ｻｼﾏｸﾞﾝｺﾞｶﾏﾁ","kana_address":"ｺﾃｻｼ","pref":"茨城県","city":"猿島郡五霞町","address":"小手指"},
{"zip_code":"3060307","kana_pref":"ｲﾊﾞﾗｷｹﾝ","kana_city":"ｻｼﾏｸﾞﾝｺﾞｶﾏﾁ","kana_address":"ｺﾌｸﾀﾞ","pref":"茨城県","city":"猿島郡五霞町","address":"小福田"},
{"zip_code":"3060302","kana_pref":"ｲﾊﾞﾗｷｹﾝ","kana_city":"ｻｼﾏｸﾞﾝｺﾞｶﾏﾁ","kana_address":"ｻﾝﾉｳ","pref":"茨城県","city":"猿島郡五霞町","address":"山王"},
{"zip_code":"3060301","kana_pref":"ｲﾊﾞﾗｷｹﾝ","kana_city":"ｻｼﾏｸﾞﾝｺﾞｶﾏﾁ","kana_address":"ｻﾝﾉｳﾔﾏ","pref":"茨城県","city":"猿島郡五霞町","address":"山王山"},
{"zip_code":"3060316","kana_pref":"ｲﾊﾞﾗｷｹﾝ","kana_city":"ｻｼﾏｸﾞﾝｺﾞｶﾏﾁ","kana_address":"ｼｬｶ","pref":"茨城県","city":"猿島郡五霞町","address":"釈迦"},
{"zip_code":"3060312","kana_pref":"ｲﾊﾞﾗｷｹﾝ","kana_city":"ｻｼﾏｸﾞﾝｺﾞｶﾏﾁ","kana_address":"ｼﾝｺｳﾔ","pref":"茨城県","city":"猿島郡五霞町","address":"新幸谷"},
{"zip_code":"3060306","kana_pref":"ｲﾊﾞﾗｷｹﾝ","kana_city":"ｻｼﾏｸﾞﾝｺﾞｶﾏﾁ","kana_address":"ﾊﾗｼﾞｭｸﾀﾞｲ","pref":"茨城県","city":"猿島郡五霞町","address":"原宿台"},
{"zip_code":"3060305","kana_pref":"ｲﾊﾞﾗｷｹﾝ","kana_city":"ｻｼﾏｸﾞﾝｺﾞｶﾏﾁ","kana_address":"ﾌﾕｷﾞ","pref":"茨城県","city":"猿島郡五霞町","address":"冬木"},
{"zip_code":"3060317","kana_pref":"ｲﾊﾞﾗｷｹﾝ","kana_city":"ｻｼﾏｸﾞﾝｺﾞｶﾏﾁ","kana_address":"ﾏｴﾊﾞﾔｼ","pref":"茨城県","city":"猿島郡五霞町","address":"前林"},
{"zip_code":"3060313","kana_pref":"ｲﾊﾞﾗｷｹﾝ","kana_city":"ｻｼﾏｸﾞﾝｺﾞｶﾏﾁ","kana_address":"ﾓﾄｸﾘﾊｼ","pref":"茨城県","city":"猿島郡五霞町","address":"元栗橋"},
{"zip_code":"3060400","kana_pref":"ｲﾊﾞﾗｷｹﾝ","kana_city":"ｻｼﾏｸﾞﾝｻｶｲﾏﾁ","kana_address":"","pref":"茨城県","city":"猿島郡境町","address":""},
{"zip_code":"3060433","kana_pref":"ｲﾊﾞﾗｷｹﾝ","kana_city":"ｻｼﾏｸﾞﾝｻｶｲﾏﾁ","kana_address":"ｻｶｲﾏﾁﾉﾂｷﾞﾆﾊﾞﾝﾁｶﾞｸﾙﾊﾞｱｲ","pref":"茨城県","city":"猿島郡境町","address":"境町の次に番地がくる場合"},
{"zip_code":"3060422","kana_pref":"ｲﾊﾞﾗｷｹﾝ","kana_city":"ｻｼﾏｸﾞﾝｻｶｲﾏﾁ","kana_address":"ｲﾁﾉﾔ","pref":"茨城県","city":"猿島郡境町","address":"一ノ谷"},
{"zip_code":"3060407","kana_pref":"ｲﾊﾞﾗｷｹﾝ","kana_city":"ｻｼﾏｸﾞﾝｻｶｲﾏﾁ","kana_address":"ｲﾅｵ","pref":"茨城県","city":"猿島郡境町","address":"稲尾"},
{"zip_code":"3060414","kana_pref":"ｲﾊﾞﾗｷｹﾝ","kana_city":"ｻｼﾏｸﾞﾝｻｶｲﾏﾁ","kana_address":"ｳﾁｶﾄﾞ","pref":"茨城県","city":"猿島郡境町","address":"内門"},
{"zip_code":"3060427","kana_pref":"ｲﾊﾞﾗｷｹﾝ","kana_city":"ｻｼﾏｸﾞﾝｻｶｲﾏﾁ","kana_address":"ｳﾗﾑｺｳ","pref":"茨城県","city":"猿島郡境町","address":"浦向"},
{"zip_code":"3060426","kana_pref":"ｲﾊﾞﾗｷｹﾝ","kana_city":"ｻｼﾏｸﾞﾝｻｶｲﾏﾁ","kana_address":"ｶﾈｵｶ","pref":"茨城県","city":"猿島郡境町","address":"金岡"},
{"zip_code":"3060434","kana_pref":"ｲﾊﾞﾗｷｹﾝ","kana_city":"ｻｼﾏｸﾞﾝｻｶｲﾏﾁ","kana_address":"ｶﾐｺﾊﾞｼ","pref":"茨城県","city":"猿島郡境町","address":"上小橋"},
{"zip_code":"3060424","kana_pref":"ｲﾊﾞﾗｷｹﾝ","kana_city":"ｻｼﾏｸﾞﾝｻｶｲﾏﾁ","kana_address":"ｷﾘｶﾞｻｸ","pref":"茨城県","city":"猿島郡境町","address":"桐ケ作"},
{"zip_code":"3060412","kana_pref":"ｲﾊﾞﾗｷｹﾝ","kana_city":"ｻｼﾏｸﾞﾝｻｶｲﾏﾁ","kana_address":"ｸﾘﾔﾏ","pref":"茨城県","city":"猿島郡境町","address":"栗山"},
{"zip_code":"3060402","kana_pref":"ｲﾊﾞﾗｷｹﾝ","kana_city":"ｻｼﾏｸﾞﾝｻｶｲﾏﾁ","kana_address":"ｻﾙﾔﾏ","pref":"茨城県","city":"猿島郡境町","address":"猿山"},
{"zip_code":"3060401","kana_pref":"ｲﾊﾞﾗｷｹﾝ","kana_city":"ｻｼﾏｸﾞﾝｻｶｲﾏﾁ","kana_address":"ｼﾄﾘ","pref":"茨城県","city":"猿島郡境町","address":"志鳥"},
{"zip_code":"3060411","kana_pref":"ｲﾊﾞﾗｷｹﾝ","kana_city":"ｻｼﾏｸﾞﾝｻｶｲﾏﾁ","kana_address":"ｼﾓｲｻｺﾞｲ","pref":"茨城県","city":"猿島郡境町","address":"下砂井"},
{"zip_code":"3060432","kana_pref":"ｲﾊﾞﾗｷｹﾝ","kana_city":"ｻｼﾏｸﾞﾝｻｶｲﾏﾁ","kana_address":"ｼﾓｺﾊﾞｼ","pref":"茨城県","city":"猿島郡境町","address":"下小橋"},
{"zip_code":"3060403","kana_pref":"ｲﾊﾞﾗｷｹﾝ","kana_city":"ｻｼﾏｸﾞﾝｻｶｲﾏﾁ","kana_address":"ｼﾞｬｲｹ","pref":"茨城県","city":"猿島郡境町","address":"蛇池"},
{"zip_code":"3060421","kana_pref":"ｲﾊﾞﾗｷｹﾝ","kana_city":"ｻｼﾏｸﾞﾝｻｶｲﾏﾁ","kana_address":"ｿﾒﾔ","pref":"茨城県","city":"猿島郡境町","address":"染谷"},
{"zip_code":"3060405","kana_pref":"ｲﾊﾞﾗｷｹﾝ","kana_city":"ｻｼﾏｸﾞﾝｻｶｲﾏﾁ","kana_address":"ﾂｶｻﾞｷ","pref":"茨城県","city":"猿島郡境町","address":"塚崎"},
{"zip_code":"3060404","kana_pref":"ｲﾊﾞﾗｷｹﾝ","kana_city":"ｻｼﾏｸﾞﾝｻｶｲﾏﾁ","kana_address":"ﾅｶﾞｲﾄﾞ","pref":"茨城県","city":"猿島郡境町","address":"長井戸"},
{"zip_code":"3060431","kana_pref":"ｲﾊﾞﾗｷｹﾝ","kana_city":"ｻｼﾏｸﾞﾝｻｶｲﾏﾁ","kana_address":"ﾆｼｲｽﾞﾐﾀﾞ","pref":"茨城県","city":"猿島郡境町","address":"西泉田"},
{"zip_code":"3060425","kana_pref":"ｲﾊﾞﾗｷｹﾝ","kana_city":"ｻｼﾏｸﾞﾝｻｶｲﾏﾁ","kana_address":"ﾆｯﾀﾄﾞ","pref":"茨城県","city":"猿島郡境町","address":"新田戸"},
{"zip_code":"3060416","kana_pref":"ｲﾊﾞﾗｷｹﾝ","kana_city":"ｻｼﾏｸﾞﾝｻｶｲﾏﾁ","kana_address":"ﾌｾｷﾞ","pref":"茨城県","city":"猿島郡境町","address":"伏木"},
{"zip_code":"3060423","kana_pref":"ｲﾊﾞﾗｷｹﾝ","kana_city":"ｻｼﾏｸﾞﾝｻｶｲﾏﾁ","kana_address":"ﾓﾄﾞ","pref":"茨城県","city":"猿島郡境町","address":"百戸"},
{"zip_code":"3060413","kana_pref":"ｲﾊﾞﾗｷｹﾝ","kana_city":"ｻｼﾏｸﾞﾝｻｶｲﾏﾁ","kana_address":"ﾔﾏｻﾞｷ","pref":"茨城県","city":"猿島郡境町","address":"山崎"},
{"zip_code":"3060435","kana_pref":"ｲﾊﾞﾗｷｹﾝ","kana_city":"ｻｼﾏｸﾞﾝｻｶｲﾏﾁ","kana_address":"ﾖｳｺｳﾀﾞｲ","pref":"茨城県","city":"猿島郡境町","address":"陽光台"},
{"zip_code":"3060406","kana_pref":"ｲﾊﾞﾗｷｹﾝ","kana_city":"ｻｼﾏｸﾞﾝｻｶｲﾏﾁ","kana_address":"ﾖｺﾂｶ","pref":"茨城県","city":"猿島郡境町","address":"横塚"},
{"zip_code":"3060417","kana_pref":"ｲﾊﾞﾗｷｹﾝ","kana_city":"ｻｼﾏｸﾞﾝｻｶｲﾏﾁ","kana_address":"ﾜｶﾊﾞﾔｼ","pref":"茨城県","city":"猿島郡境町","address":"若林"},
{"zip_code":"3060415","kana_pref":"ｲﾊﾞﾗｷｹﾝ","kana_city":"ｻｼﾏｸﾞﾝｻｶｲﾏﾁ","kana_address":"ﾜｺﾞ","pref":"茨城県","city":"猿島郡境町","address":"大歩"}]}