{"zip_code":[
{"zip_code":"3070000","kana_pref":"ｲﾊﾞﾗｷｹﾝ","kana_city":"ﾕｳｷｼ","kana_address":"","pref":"茨城県","city":"結城市","address":""},
{"zip_code":"3070028","kana_pref":"ｲﾊﾞﾗｷｹﾝ","kana_city":"ﾕｳｷｼ","kana_address":"ｲﾏｼﾞｭｸ","pref":"茨城県","city":"結城市","address":"今宿"},
{"zip_code":"3070045","kana_pref":"ｲﾊﾞﾗｷｹﾝ","kana_city":"ﾕｳｷｼ","kana_address":"ｳｴﾅｼ","pref":"茨城県","city":"結城市","address":"上成"},
{"zip_code":"3070041","kana_pref":"ｲﾊﾞﾗｷｹﾝ","kana_city":"ﾕｳｷｼ","kana_address":"ｴｶﾞﾜｵｵﾏﾁ","pref":"茨城県","city":"結城市","address":"江川大町"},
{"zip_code":"3070042","kana_pref":"ｲﾊﾞﾗｷｹﾝ","kana_city":"ﾕｳｷｼ","kana_address":"ｴｶﾞﾜｼﾝｼﾞｭｸ","pref":"茨城県","city":"結城市","address":"江川新宿"},
{"zip_code":"3070031","kana_pref":"ｲﾊﾞﾗｷｹﾝ","kana_city":"ﾕｳｷｼ","kana_address":"ｵｵｷ","pref":"茨城県","city":"結城市","address":"大木"},
{"zip_code":"3070055","kana_pref":"ｲﾊﾞﾗｷｹﾝ","kana_city":"ﾕｳｷｼ","kana_address":"ｵｵﾊｼﾁｮｳ","pref":"茨城県","city":"結城市","address":"大橋町"},
{"zip_code":"3070002","kana_pref":"ｲﾊﾞﾗｷｹﾝ","kana_city":"ﾕｳｷｼ","kana_address":"ｵｵﾔｾﾞ","pref":"茨城県","city":"結城市","address":"大谷瀬"},
{"zip_code":"3070007","kana_pref":"ｲﾊﾞﾗｷｹﾝ","kana_city":"ﾕｳｷｼ","kana_address":"ｵﾀﾞﾊﾞﾔｼ","pref":"茨城県","city":"結城市","address":"小田林"},
{"zip_code":"3070027","kana_pref":"ｲﾊﾞﾗｷｹﾝ","kana_city":"ﾕｳｷｼ","kana_address":"ｶｽﾚｲ","pref":"茨城県","city":"結城市","address":"粕礼"},
{"zip_code":"3070015","kana_pref":"ｲﾊﾞﾗｷｹﾝ","kana_city":"ﾕｳｷｼ","kana_address":"ｶﾅｸﾎﾞ","pref":"茨城県","city":"結城市","address":"鹿窪"},
{"zip_code":"3070021","kana_pref":"ｲﾊﾞﾗｷｹﾝ","kana_city":"ﾕｳｷｼ","kana_address":"ｶﾐﾔﾏｶﾜ","pref":"茨城県","city":"結城市","address":"上山川"},
{"zip_code":"3070005","kana_pref":"ｲﾊﾞﾗｷｹﾝ","kana_city":"ﾕｳｷｼ","kana_address":"ｶﾜｷﾔ","pref":"茨城県","city":"結城市","address":"川木谷"},
{"zip_code":"3070012","kana_pref":"ｲﾊﾞﾗｷｹﾝ","kana_city":"ﾕｳｷｼ","kana_address":"ｸﾎﾞﾀ","pref":"茨城県","city":"結城市","address":"久保田"},
{"zip_code":"3070051","kana_pref":"ｲﾊﾞﾗｷｹﾝ","kana_city":"ﾕｳｷｼ","kana_address":"ｺｸﾌﾞﾁｮｳ","pref":"茨城県","city":"結城市","address":"国府町"},
{"zip_code":"3070006","kana_pref":"ｲﾊﾞﾗｷｹﾝ","kana_city":"ﾕｳｷｼ","kana_address":"ｺﾞｽｹ","pref":"茨城県","city":"結城市","address":"五助"},
{"zip_code":"3070011","kana_pref":"ｲﾊﾞﾗｷｹﾝ","kana_city":"ﾕｳｷｼ","kana_address":"ｺﾓﾘ","pref":"茨城県","city":"結城市","address":"小森"},
{"zip_code":"3070023","kana_pref":"ｲﾊﾞﾗｷｹﾝ","kana_city":"ﾕｳｷｼ","kana_address":"ｻﾝﾉｳ","pref":"茨城県","city":"結城市","address":"山王"},
{"zip_code":"3070038","kana_pref":"ｲﾊﾞﾗｷｹﾝ","kana_city":"ﾕｳｷｼ","kana_address":"ｼﾒﾊﾞ","pref":"茨城県","city":"結城市","address":"七五三場"},
{"zip_code":"3070054","kana_pref":"ｲﾊﾞﾗｷｹﾝ","kana_city":"ﾕｳｷｼ","kana_address":"ｼﾞｮｳﾅﾝﾏﾁ","pref":"茨城県","city":"結城市","address":"城南町"},
{"zip_code":"3070034","kana_pref":"ｲﾊﾞﾗｷｹﾝ","kana_city":"ﾕｳｷｼ","kana_address":"ｼﾝｼﾞｭｸｼﾝﾃﾞﾝ","pref":"茨城県","city":"結城市","address":"新宿新田"},
{"zip_code":"3070016","kana_pref":"ｲﾊﾞﾗｷｹﾝ","kana_city":"ﾕｳｷｼ","kana_address":"ｼﾝﾂﾂﾐﾅｶﾄﾞｵﾘ","pref":"茨城県","city":"結城市","address":"新堤仲通り"},
{"zip_code":"3070053","kana_pref":"ｲﾊﾞﾗｷｹﾝ","kana_city":"ﾕｳｷｼ","kana_address":"ｼﾝﾌﾟｸｼﾞ","pref":"茨城県","city":"結城市","address":"新福寺"},
{"zip_code":"3070035","kana_pref":"ｲﾊﾞﾗｷｹﾝ","kana_city":"ﾕｳｷｼ","kana_address":"ｾﾞﾝｴﾓﾝｼﾝﾃﾞﾝ","pref":"茨城県","city":"結城市","address":"善右ヱ門新田"},
{"zip_code":"3070043","kana_pref":"ｲﾊﾞﾗｷｹﾝ","kana_city":"ﾕｳｷｼ","kana_address":"ﾀｹｲ","pref":"茨城県","city":"結城市","address":"武井"},
{"zip_code":"3070044","kana_pref":"ｲﾊﾞﾗｷｹﾝ","kana_city":"ﾕｳｷｼ","kana_address":"ﾀﾏ","pref":"茨城県","city":"結城市","address":"田間"},
{"zip_code":"3070052","kana_pref":"ｲﾊﾞﾗｷｹﾝ","kana_city":"ﾕｳｷｼ","kana_address":"ﾁｭｳｵｳﾁｮｳ","pref":"茨城県","city":"結城市","address":"中央町"},
{"zip_code":"3070013","kana_pref":"ｲﾊﾞﾗｷｹﾝ","kana_city":"ﾕｳｷｼ","kana_address":"ﾅｶ","pref":"茨城県","city":"結城市","address":"中"},
{"zip_code":"3070026","kana_pref":"ｲﾊﾞﾗｷｹﾝ","kana_city":"ﾕｳｷｼ","kana_address":"ﾊｶﾞｻｷ","pref":"茨城県","city":"結城市","address":"芳賀崎"},
{"zip_code":"3070025","kana_pref":"ｲﾊﾞﾗｷｹﾝ","kana_city":"ﾕｳｷｼ","kana_address":"ﾊﾏﾉﾍﾞ","pref":"茨城県","city":"結城市","address":"浜野辺"},
{"zip_code":"3070014","kana_pref":"ｲﾊﾞﾗｷｹﾝ","kana_city":"ﾕｳｷｼ","kana_address":"ﾊﾔｼ","pref":"茨城県","city":"結城市","address":"林"},
{"zip_code":"3070037","kana_pref":"ｲﾊﾞﾗｷｹﾝ","kana_city":"ﾕｳｷｼ","kana_address":"ﾋｶﾞｼﾓﾛ","pref":"茨城県","city":"結城市","address":"東茂呂"},
{"zip_code":"3070003","kana_pref":"ｲﾊﾞﾗｷｹﾝ","kana_city":"ﾕｳｷｼ","kana_address":"ﾌｼﾞﾐﾁｮｳ","pref":"茨城県","city":"結城市","address":"富士見町"},
{"zip_code":"3070032","kana_pref":"ｲﾊﾞﾗｷｹﾝ","kana_city":"ﾕｳｷｼ","kana_address":"ﾌﾙｼﾞｭｸｼﾝﾃﾞﾝ","pref":"茨城県","city":"結城市","address":"古宿新田"},
{"zip_code":"3070036","kana_pref":"ｲﾊﾞﾗｷｹﾝ","kana_city":"ﾕｳｷｼ","kana_address":"ﾎｸﾅﾝﾓﾛ","pref":"茨城県","city":"結城市","address":"北南茂呂"},
{"zip_code":"3070024","kana_pref":"ｲﾊﾞﾗｷｹﾝ","kana_city":"ﾕｳｷｼ","kana_address":"ﾐｯｶｲﾄﾞｳ","pref":"茨城県","city":"結城市","address":"水海道"},
{"zip_code":"3070004","kana_pref":"ｲﾊﾞﾗｷｹﾝ","kana_city":"ﾕｳｷｼ","kana_address":"ﾐﾄﾞﾘﾁｮｳ","pref":"茨城県","city":"結城市","address":"みどり町"},
{"zip_code":"3070022","kana_pref":"ｲﾊﾞﾗｷｹﾝ","kana_city":"ﾕｳｷｼ","kana_address":"ﾔﾊﾞﾀ","pref":"茨城県","city":"結城市","address":"矢畑"},
{"zip_code":"3070033","kana_pref":"ｲﾊﾞﾗｷｹﾝ","kana_city":"ﾕｳｷｼ","kana_address":"ﾔﾏｶﾜｼﾝｼﾞｭｸ","pref":"茨城県","city":"結城市","address":"山川新宿"},
{"zip_code":"3070001","kana_pref":"ｲﾊﾞﾗｷｹﾝ","kana_city":"ﾕｳｷｼ","kana_address":"ﾕｳｷ","pref":"茨城県","city":"結城市","address":"結城"},
{"zip_code":"3070046","kana_pref":"ｲﾊﾞﾗｷｹﾝ","kana_city":"ﾕｳｷｼ","kana_address":"ﾕｳｷｻｸ","pref":"茨城県","city":"結城市","address":"結城作"},
{"zip_code":"3070017","kana_pref":"ｲﾊﾞﾗｷｹﾝ","kana_city":"ﾕｳｷｼ","kana_address":"ﾜｶﾐﾔ","pref":"茨城県","city":"結城市","address":"若宮"}]}