{"zip_code":[
{"zip_code":"3080000","kana_pref":"ｲﾊﾞﾗｷｹﾝ","kana_city":"ﾁｸｾｲｼ","kana_address":"","pref":"茨城県","city":"筑西市","address":""},
{"zip_code":"3080836","kana_pref":"ｲﾊﾞﾗｷｹﾝ","kana_city":"ﾁｸｾｲｼ","kana_address":"ｱｻﾋｶﾞｵｶ","pref":"茨城県","city":"筑西市","address":"旭ケ丘"},
{"zip_code":"3080064","kana_pref":"ｲﾊﾞﾗｷｹﾝ","kana_city":"ﾁｸｾｲｼ","kana_address":"ｲｲｼﾞﾏ","pref":"茨城県","city":"筑西市","address":"飯島"},
{"zip_code":"3080835","kana_pref":"ｲﾊﾞﾗｷｹﾝ","kana_city":"ﾁｸｾｲｼ","kana_address":"ｲｲﾀﾞ","pref":"茨城県","city":"筑西市","address":"飯田"},
{"zip_code":"3080853","kana_pref":"ｲﾊﾞﾗｷｹﾝ","kana_city":"ﾁｸｾｲｼ","kana_address":"ｲｻﾐ","pref":"茨城県","city":"筑西市","address":"伊讃美"},
{"zip_code":"3080856","kana_pref":"ｲﾊﾞﾗｷｹﾝ","kana_city":"ﾁｸｾｲｼ","kana_address":"ｲｻﾔﾏ","pref":"茨城県","city":"筑西市","address":"伊佐山"},
{"zip_code":"3080075","kana_pref":"ｲﾊﾞﾗｷｹﾝ","kana_city":"ﾁｸｾｲｼ","kana_address":"ｲｼﾄｳ","pref":"茨城県","city":"筑西市","address":"石塔"},
{"zip_code":"3080055","kana_pref":"ｲﾊﾞﾗｷｹﾝ","kana_city":"ﾁｸｾｲｼ","kana_address":"ｲｼﾊﾗﾀﾞ","pref":"茨城県","city":"筑西市","address":"石原田"},
{"zip_code":"3080076","kana_pref":"ｲﾊﾞﾗｷｹﾝ","kana_city":"ﾁｸｾｲｼ","kana_address":"ｲｽﾞﾐ","pref":"茨城県","city":"筑西市","address":"泉"},
{"zip_code":"3080116","kana_pref":"ｲﾊﾞﾗｷｹﾝ","kana_city":"ﾁｸｾｲｼ","kana_address":"ｲﾀﾊﾞｼ","pref":"茨城県","city":"筑西市","address":"板橋"},
{"zip_code":"3080827","kana_pref":"ｲﾊﾞﾗｷｹﾝ","kana_city":"ﾁｸｾｲｼ","kana_address":"ｲﾁﾉﾍﾞ","pref":"茨城県","city":"筑西市","address":"市野辺"},
{"zip_code":"3080842","kana_pref":"ｲﾊﾞﾗｷｹﾝ","kana_city":"ﾁｸｾｲｼ","kana_address":"ｲｯﾎﾟﾝﾏﾂ","pref":"茨城県","city":"筑西市","address":"一本松"},
{"zip_code":"3080805","kana_pref":"ｲﾊﾞﾗｷｹﾝ","kana_city":"ﾁｸｾｲｼ","kana_address":"ｲﾅﾉﾍﾞ","pref":"茨城県","city":"筑西市","address":"稲野辺"},
{"zip_code":"3080106","kana_pref":"ｲﾊﾞﾗｷｹﾝ","kana_city":"ﾁｸｾｲｼ","kana_address":"ｲﾅﾘ","pref":"茨城県","city":"筑西市","address":"稲荷"},
{"zip_code":"3080117","kana_pref":"ｲﾊﾞﾗｷｹﾝ","kana_city":"ﾁｸｾｲｼ","kana_address":"ｲﾇﾂﾞｶ","pref":"茨城県","city":"筑西市","address":"犬塚"},
{"zip_code":"3080101","kana_pref":"ｲﾊﾞﾗｷｹﾝ","kana_city":"ﾁｸｾｲｼ","kana_address":"ｲﾉｳｴ","pref":"茨城県","city":"筑西市","address":"井上"},
{"zip_code":"3080129","kana_pref":"ｲﾊﾞﾗｷｹﾝ","kana_city":"ﾁｸｾｲｼ","kana_address":"ｳｴﾉ","pref":"茨城県","city":"筑西市","address":"上野"},
{"zip_code":"3080128","kana_pref":"ｲﾊﾞﾗｷｹﾝ","kana_city":"ﾁｸｾｲｼ","kana_address":"ｴ","pref":"茨城県","city":"筑西市","address":"江"},
{"zip_code":"3080015","kana_pref":"ｲﾊﾞﾗｷｹﾝ","kana_city":"ﾁｸｾｲｼ","kana_address":"ｵｵｾﾞｷ","pref":"茨城県","city":"筑西市","address":"大関"},
{"zip_code":"3080813","kana_pref":"ｲﾊﾞﾗｷｹﾝ","kana_city":"ﾁｸｾｲｼ","kana_address":"ｵｵﾂｶ","pref":"茨城県","city":"筑西市","address":"大塚"},
{"zip_code":"3080852","kana_pref":"ｲﾊﾞﾗｷｹﾝ","kana_city":"ﾁｸｾｲｼ","kana_address":"ｵｵﾔ","pref":"茨城県","city":"筑西市","address":"大谷"},
{"zip_code":"3080051","kana_pref":"ｲﾊﾞﾗｷｹﾝ","kana_city":"ﾁｸｾｲｼ","kana_address":"ｵｶｾﾞﾘ","pref":"茨城県","city":"筑西市","address":"岡芹"},
{"zip_code":"3080857","kana_pref":"ｲﾊﾞﾗｷｹﾝ","kana_city":"ﾁｸｾｲｼ","kana_address":"ｵｶﾞﾜ","pref":"茨城県","city":"筑西市","address":"小川"},
{"zip_code":"3080012","kana_pref":"ｲﾊﾞﾗｷｹﾝ","kana_city":"ﾁｸｾｲｼ","kana_address":"ｵｸﾀﾞ","pref":"茨城県","city":"筑西市","address":"奥田"},
{"zip_code":"3080854","kana_pref":"ｲﾊﾞﾗｷｹﾝ","kana_city":"ﾁｸｾｲｼ","kana_address":"ｵｻﾞｶﾀ","pref":"茨城県","city":"筑西市","address":"女方"},
{"zip_code":"3080002","kana_pref":"ｲﾊﾞﾗｷｹﾝ","kana_city":"ﾁｸｾｲｼ","kana_address":"ｵﾁｱｲ","pref":"茨城県","city":"筑西市","address":"落合"},
{"zip_code":"3080041","kana_pref":"ｲﾊﾞﾗｷｹﾝ","kana_city":"ﾁｸｾｲｼ","kana_address":"ｵﾂ","pref":"茨城県","city":"筑西市","address":"乙"},
{"zip_code":"3080806","kana_pref":"ｲﾊﾞﾗｷｹﾝ","kana_city":"ﾁｸｾｲｼ","kana_address":"ｵﾊﾞﾔｼ","pref":"茨城県","city":"筑西市","address":"小林"},
{"zip_code":"3080007","kana_pref":"ｲﾊﾞﾗｷｹﾝ","kana_city":"ﾁｸｾｲｼ","kana_address":"ｵﾘﾓﾄ","pref":"茨城県","city":"筑西市","address":"折本"},
{"zip_code":"3080837","kana_pref":"ｲﾊﾞﾗｷｹﾝ","kana_city":"ﾁｸｾｲｼ","kana_address":"ｶｹﾞｻﾜ","pref":"茨城県","city":"筑西市","address":"嘉家佐和"},
{"zip_code":"3080107","kana_pref":"ｲﾊﾞﾗｷｹﾝ","kana_city":"ﾁｸｾｲｼ","kana_address":"ｶｼﾞｳﾁ","pref":"茨城県","city":"筑西市","address":"梶内"},
{"zip_code":"3080804","kana_pref":"ｲﾊﾞﾗｷｹﾝ","kana_city":"ﾁｸｾｲｼ","kana_address":"ｶﾅﾏﾙ","pref":"茨城県","city":"筑西市","address":"金丸"},
{"zip_code":"3080815","kana_pref":"ｲﾊﾞﾗｷｹﾝ","kana_city":"ﾁｸｾｲｼ","kana_address":"ｶﾐｶﾜﾅｺﾞ","pref":"茨城県","city":"筑西市","address":"上川中子"},
{"zip_code":"3080017","kana_pref":"ｲﾊﾞﾗｷｹﾝ","kana_city":"ﾁｸｾｲｼ","kana_address":"ｶﾐﾅｶﾔﾏ","pref":"茨城県","city":"筑西市","address":"上中山"},
{"zip_code":"3080067","kana_pref":"ｲﾊﾞﾗｷｹﾝ","kana_city":"ﾁｸｾｲｼ","kana_address":"ｶﾐﾋﾗﾂｶ","pref":"茨城県","city":"筑西市","address":"上平塚"},
{"zip_code":"3080063","kana_pref":"ｲﾊﾞﾗｷｹﾝ","kana_city":"ﾁｸｾｲｼ","kana_address":"ｶﾐﾜｹ","pref":"茨城県","city":"筑西市","address":"神分"},
{"zip_code":"3080801","kana_pref":"ｲﾊﾞﾗｷｹﾝ","kana_city":"ﾁｸｾｲｼ","kana_address":"ｶﾜｽﾐ","pref":"茨城県","city":"筑西市","address":"川澄"},
{"zip_code":"3080814","kana_pref":"ｲﾊﾞﾗｷｹﾝ","kana_city":"ﾁｸｾｲｼ","kana_address":"ｶﾜﾂﾞﾚ","pref":"茨城県","city":"筑西市","address":"川連"},
{"zip_code":"3080104","kana_pref":"ｲﾊﾞﾗｷｹﾝ","kana_city":"ﾁｸｾｲｼ","kana_address":"ｷﾄﾞ","pref":"茨城県","city":"筑西市","address":"木戸"},
{"zip_code":"3080071","kana_pref":"ｲﾊﾞﾗｷｹﾝ","kana_city":"ﾁｸｾｲｼ","kana_address":"ｸﾁﾄﾞ","pref":"茨城県","city":"筑西市","address":"口戸"},
{"zip_code":"3080061","kana_pref":"ｲﾊﾞﾗｷｹﾝ","kana_city":"ﾁｸｾｲｼ","kana_address":"ｸﾘｼﾏ","pref":"茨城県","city":"筑西市","address":"栗島"},
{"zip_code":"3080102","kana_pref":"ｲﾊﾞﾗｷｹﾝ","kana_city":"ﾁｸｾｲｼ","kana_address":"ｸﾛｺﾞ","pref":"茨城県","city":"筑西市","address":"黒子"},
{"zip_code":"3080021","kana_pref":"ｲﾊﾞﾗｷｹﾝ","kana_city":"ﾁｸｾｲｼ","kana_address":"ｺｳ","pref":"茨城県","city":"筑西市","address":"甲"},
{"zip_code":"3080004","kana_pref":"ｲﾊﾞﾗｷｹﾝ","kana_city":"ﾁｸｾｲｼ","kana_address":"ｺｳﾀﾞ","pref":"茨城県","city":"筑西市","address":"国府田"},
{"zip_code":"3080077","kana_pref":"ｲﾊﾞﾗｷｹﾝ","kana_city":"ﾁｸｾｲｼ","kana_address":"ｺｼｷﾞ","pref":"茨城県","city":"筑西市","address":"子思儀"},
{"zip_code":"3080866","kana_pref":"ｲﾊﾞﾗｷｹﾝ","kana_city":"ﾁｸｾｲｼ","kana_address":"ｺﾞｼｮﾐﾔ","pref":"茨城県","city":"筑西市","address":"五所宮"},
{"zip_code":"3080862","kana_pref":"ｲﾊﾞﾗｷｹﾝ","kana_city":"ﾁｸｾｲｼ","kana_address":"ｺﾊﾞﾅ","pref":"茨城県","city":"筑西市","address":"小塙"},
{"zip_code":"3080848","kana_pref":"ｲﾊﾞﾗｷｹﾝ","kana_city":"ﾁｸｾｲｼ","kana_address":"ｻｲﾜｲﾁｮｳ","pref":"茨城県","city":"筑西市","address":"幸町"},
{"zip_code":"3080065","kana_pref":"ｲﾊﾞﾗｷｹﾝ","kana_city":"ﾁｸｾｲｼ","kana_address":"ｻｻﾂﾞｶ","pref":"茨城県","city":"筑西市","address":"笹塚"},
{"zip_code":"3080072","kana_pref":"ｲﾊﾞﾗｷｹﾝ","kana_city":"ﾁｸｾｲｼ","kana_address":"ｼﾊﾞﾔﾏ","pref":"茨城県","city":"筑西市","address":"柴山"},
{"zip_code":"3080823","kana_pref":"ｲﾊﾞﾗｷｹﾝ","kana_city":"ﾁｸｾｲｼ","kana_address":"ｼﾏ","pref":"茨城県","city":"筑西市","address":"島"},
{"zip_code":"3080851","kana_pref":"ｲﾊﾞﾗｷｹﾝ","kana_city":"ﾁｸｾｲｼ","kana_address":"ｼﾓｴﾂﾞﾚ","pref":"茨城県","city":"筑西市","address":"下江連"},
{"zip_code":"3080826","kana_pref":"ｲﾊﾞﾗｷｹﾝ","kana_city":"ﾁｸｾｲｼ","kana_address":"ｼﾓｵｶｻﾞｷ","pref":"茨城県","city":"筑西市","address":"下岡崎"},
{"zip_code":"3080855","kana_pref":"ｲﾊﾞﾗｷｹﾝ","kana_city":"ﾁｸｾｲｼ","kana_address":"ｼﾓｶﾜｼﾏ","pref":"茨城県","city":"筑西市","address":"下川島"},
{"zip_code":"3080011","kana_pref":"ｲﾊﾞﾗｷｹﾝ","kana_city":"ﾁｸｾｲｼ","kana_address":"ｼﾓﾀｶﾀﾞ","pref":"茨城県","city":"筑西市","address":"下高田"},
{"zip_code":"3080825","kana_pref":"ｲﾊﾞﾗｷｹﾝ","kana_city":"ﾁｸｾｲｼ","kana_address":"ｼﾓﾅｶﾔﾏ","pref":"茨城県","city":"筑西市","address":"下中山"},
{"zip_code":"3080844","kana_pref":"ｲﾊﾞﾗｷｹﾝ","kana_city":"ﾁｸｾｲｼ","kana_address":"ｼﾓﾉﾄﾞﾉ","pref":"茨城県","city":"筑西市","address":"下野殿"},
{"zip_code":"3080066","kana_pref":"ｲﾊﾞﾗｷｹﾝ","kana_city":"ﾁｸｾｲｼ","kana_address":"ｼﾓﾋﾗﾂｶ","pref":"茨城県","city":"筑西市","address":"下平塚"},
{"zip_code":"3080052","kana_pref":"ｲﾊﾞﾗｷｹﾝ","kana_city":"ﾁｸｾｲｼ","kana_address":"ｽｶﾞﾔ","pref":"茨城県","city":"筑西市","address":"菅谷"},
{"zip_code":"3080113","kana_pref":"ｲﾊﾞﾗｷｹﾝ","kana_city":"ﾁｸｾｲｼ","kana_address":"ｾｷﾀﾃ","pref":"茨城県","city":"筑西市","address":"関舘"},
{"zip_code":"3080124","kana_pref":"ｲﾊﾞﾗｷｹﾝ","kana_city":"ﾁｸｾｲｼ","kana_address":"ｾｷﾓﾄｱｸﾄ","pref":"茨城県","city":"筑西市","address":"関本肥土"},
{"zip_code":"3080122","kana_pref":"ｲﾊﾞﾗｷｹﾝ","kana_city":"ﾁｸｾｲｼ","kana_address":"ｾｷﾓﾄｶﾐ","pref":"茨城県","city":"筑西市","address":"関本上"},
{"zip_code":"3080123","kana_pref":"ｲﾊﾞﾗｷｹﾝ","kana_city":"ﾁｸｾｲｼ","kana_address":"ｾｷﾓﾄｶﾐﾅｶ","pref":"茨城県","city":"筑西市","address":"関本上中"},
{"zip_code":"3080127","kana_pref":"ｲﾊﾞﾗｷｹﾝ","kana_city":"ﾁｸｾｲｼ","kana_address":"ｾｷﾓﾄｼﾓ","pref":"茨城県","city":"筑西市","address":"関本下"},
{"zip_code":"3080126","kana_pref":"ｲﾊﾞﾗｷｹﾝ","kana_city":"ﾁｸｾｲｼ","kana_address":"ｾｷﾓﾄﾅｶ","pref":"茨城県","city":"筑西市","address":"関本中"},
{"zip_code":"3080125","kana_pref":"ｲﾊﾞﾗｷｹﾝ","kana_city":"ﾁｸｾｲｼ","kana_address":"ｾｷﾓﾄﾜｹﾅｶ","pref":"茨城県","city":"筑西市","address":"関本分中"},
{"zip_code":"3080864","kana_pref":"ｲﾊﾞﾗｷｹﾝ","kana_city":"ﾁｸｾｲｼ","kana_address":"ｿｳｶｼﾞﾏ","pref":"茨城県","city":"筑西市","address":"掉ケ島"},
{"zip_code":"3080807","kana_pref":"ｲﾊﾞﾗｷｹﾝ","kana_city":"ﾁｸｾｲｼ","kana_address":"ﾀｶｼﾏ","pref":"茨城県","city":"筑西市","address":"高島"},
{"zip_code":"3080847","kana_pref":"ｲﾊﾞﾗｷｹﾝ","kana_city":"ﾁｸｾｲｼ","kana_address":"ﾀﾏﾄﾞ","pref":"茨城県","city":"筑西市","address":"玉戸"},
{"zip_code":"3080074","kana_pref":"ｲﾊﾞﾗｷｹﾝ","kana_city":"ﾁｸｾｲｼ","kana_address":"ﾁｸｾﾞ","pref":"茨城県","city":"筑西市","address":"筑瀬"},
{"zip_code":"3080822","kana_pref":"ｲﾊﾞﾗｷｹﾝ","kana_city":"ﾁｸｾｲｼ","kana_address":"ﾂｶﾊﾗ","pref":"茨城県","city":"筑西市","address":"塚原"},
{"zip_code":"3080103","kana_pref":"ｲﾊﾞﾗｷｹﾝ","kana_city":"ﾁｸｾｲｼ","kana_address":"ﾂｼﾞ","pref":"茨城県","city":"筑西市","address":"辻"},
{"zip_code":"3080816","kana_pref":"ｲﾊﾞﾗｷｹﾝ","kana_city":"ﾁｸｾｲｼ","kana_address":"ﾄｸﾓﾁ","pref":"茨城県","city":"筑西市","address":"徳持"},
{"zip_code":"3080053","kana_pref":"ｲﾊﾞﾗｷｹﾝ","kana_city":"ﾁｸｾｲｼ","kana_address":"ﾄﾉﾂﾞｶ","pref":"茨城県","city":"筑西市","address":"外塚"},
{"zip_code":"3080803","kana_pref":"ｲﾊﾞﾗｷｹﾝ","kana_city":"ﾁｸｾｲｼ","kana_address":"ﾅｵｲ","pref":"茨城県","city":"筑西市","address":"直井"},
{"zip_code":"3080005","kana_pref":"ｲﾊﾞﾗｷｹﾝ","kana_city":"ﾁｸｾｲｼ","kana_address":"ﾅｶﾀﾞﾃ","pref":"茨城県","city":"筑西市","address":"中舘"},
{"zip_code":"3080108","kana_pref":"ｲﾊﾞﾗｷｹﾝ","kana_city":"ﾁｸｾｲｼ","kana_address":"ﾅｶﾑﾗｼﾝﾃﾞﾝ","pref":"茨城県","city":"筑西市","address":"中村新田"},
{"zip_code":"3080821","kana_pref":"ｲﾊﾞﾗｷｹﾝ","kana_city":"ﾁｸｾｲｼ","kana_address":"ﾅﾘﾀ","pref":"茨城県","city":"筑西市","address":"成田"},
{"zip_code":"3080841","kana_pref":"ｲﾊﾞﾗｷｹﾝ","kana_city":"ﾁｸｾｲｼ","kana_address":"ﾆｷﾞﾅﾘ","pref":"茨城県","city":"筑西市","address":"二木成"},
{"zip_code":"3080834","kana_pref":"ｲﾊﾞﾗｷｹﾝ","kana_city":"ﾁｸｾｲｼ","kana_address":"ﾆｼｲｼﾀﾞ","pref":"茨城県","city":"筑西市","address":"西石田"},
{"zip_code":"3080062","kana_pref":"ｲﾊﾞﾗｷｹﾝ","kana_city":"ﾁｸｾｲｼ","kana_address":"ﾆｼｵｵｼﾏ","pref":"茨城県","city":"筑西市","address":"西大島"},
{"zip_code":"3080845","kana_pref":"ｲﾊﾞﾗｷｹﾝ","kana_city":"ﾁｸｾｲｼ","kana_address":"ﾆｼﾎｳ","pref":"茨城県","city":"筑西市","address":"西方"},
{"zip_code":"3080105","kana_pref":"ｲﾊﾞﾗｷｹﾝ","kana_city":"ﾁｸｾｲｼ","kana_address":"ﾆｼﾎｽﾞｴ","pref":"茨城県","city":"筑西市","address":"西保末"},
{"zip_code":"3080054","kana_pref":"ｲﾊﾞﾗｷｹﾝ","kana_city":"ﾁｸｾｲｼ","kana_address":"ﾆｼﾔｶﾞｲ","pref":"茨城県","city":"筑西市","address":"西谷貝"},
{"zip_code":"3080867","kana_pref":"ｲﾊﾞﾗｷｹﾝ","kana_city":"ﾁｸｾｲｼ","kana_address":"ﾆｼﾔﾏﾀﾞ","pref":"茨城県","city":"筑西市","address":"西山田"},
{"zip_code":"3080832","kana_pref":"ｲﾊﾞﾗｷｹﾝ","kana_city":"ﾁｸｾｲｼ","kana_address":"ﾆｼﾖﾉｳ","pref":"茨城県","city":"筑西市","address":"西榎生"},
{"zip_code":"3080846","kana_pref":"ｲﾊﾞﾗｷｹﾝ","kana_city":"ﾁｸｾｲｼ","kana_address":"ﾇﾉｶﾞﾜ","pref":"茨城県","city":"筑西市","address":"布川"},
{"zip_code":"3080016","kana_pref":"ｲﾊﾞﾗｷｹﾝ","kana_city":"ﾁｸｾｲｼ","kana_address":"ﾉ","pref":"茨城県","city":"筑西市","address":"野"},
{"zip_code":"3080833","kana_pref":"ｲﾊﾞﾗｷｹﾝ","kana_city":"ﾁｸｾｲｼ","kana_address":"ﾉﾀﾞ","pref":"茨城県","city":"筑西市","address":"野田"},
{"zip_code":"3080843","kana_pref":"ｲﾊﾞﾗｷｹﾝ","kana_city":"ﾁｸｾｲｼ","kana_address":"ﾉﾄﾞﾉ","pref":"茨城県","city":"筑西市","address":"野殿"},
{"zip_code":"3080863","kana_pref":"ｲﾊﾞﾗｷｹﾝ","kana_city":"ﾁｸｾｲｼ","kana_address":"ﾊｲﾂｶ","pref":"茨城県","city":"筑西市","address":"灰塚"},
{"zip_code":"3080014","kana_pref":"ｲﾊﾞﾗｷｹﾝ","kana_city":"ﾁｸｾｲｼ","kana_address":"ﾊｶﾞﾀ","pref":"茨城県","city":"筑西市","address":"羽方"},
{"zip_code":"3080013","kana_pref":"ｲﾊﾞﾗｷｹﾝ","kana_city":"ﾁｸｾｲｼ","kana_address":"ﾊｯﾀ","pref":"茨城県","city":"筑西市","address":"八田"},
{"zip_code":"3080114","kana_pref":"ｲﾊﾞﾗｷｹﾝ","kana_city":"ﾁｸｾｲｼ","kana_address":"ﾊﾅﾀﾞ","pref":"茨城県","city":"筑西市","address":"花田"},
{"zip_code":"3080115","kana_pref":"ｲﾊﾞﾗｷｹﾝ","kana_city":"ﾁｸｾｲｼ","kana_address":"ﾊﾅﾊﾞｼ","pref":"茨城県","city":"筑西市","address":"花橋"},
{"zip_code":"3080073","kana_pref":"ｲﾊﾞﾗｷｹﾝ","kana_city":"ﾁｸｾｲｼ","kana_address":"ﾊﾔｼ","pref":"茨城県","city":"筑西市","address":"林"},
{"zip_code":"3080831","kana_pref":"ｲﾊﾞﾗｷｹﾝ","kana_city":"ﾁｸｾｲｼ","kana_address":"ﾋｶﾞｼﾖﾉｳ","pref":"茨城県","city":"筑西市","address":"東榎生"},
{"zip_code":"3080001","kana_pref":"ｲﾊﾞﾗｷｹﾝ","kana_city":"ﾁｸｾｲｼ","kana_address":"ﾋｸﾞﾁ","pref":"茨城県","city":"筑西市","address":"樋口"},
{"zip_code":"3080812","kana_pref":"ｲﾊﾞﾗｷｹﾝ","kana_city":"ﾁｸｾｲｼ","kana_address":"ﾌｶﾐ","pref":"茨城県","city":"筑西市","address":"深見"},
{"zip_code":"3080112","kana_pref":"ｲﾊﾞﾗｷｹﾝ","kana_city":"ﾁｸｾｲｼ","kana_address":"ﾌｼﾞｶﾞﾔ","pref":"茨城県","city":"筑西市","address":"藤ケ谷"},
{"zip_code":"3080121","kana_pref":"ｲﾊﾞﾗｷｹﾝ","kana_city":"ﾁｸｾｲｼ","kana_address":"ﾌﾅﾀﾞﾏ","pref":"茨城県","city":"筑西市","address":"船玉"},
{"zip_code":"3080111","kana_pref":"ｲﾊﾞﾗｷｹﾝ","kana_city":"ﾁｸｾｲｼ","kana_address":"ﾌﾆｭｳ","pref":"茨城県","city":"筑西市","address":"舟生"},
{"zip_code":"3080031","kana_pref":"ｲﾊﾞﾗｷｹﾝ","kana_city":"ﾁｸｾｲｼ","kana_address":"ﾍｲ","pref":"茨城県","city":"筑西市","address":"丙"},
{"zip_code":"3080003","kana_pref":"ｲﾊﾞﾗｷｹﾝ","kana_city":"ﾁｸｾｲｼ","kana_address":"ﾏｸﾀﾞ","pref":"茨城県","city":"筑西市","address":"蒔田"},
{"zip_code":"3080042","kana_pref":"ｲﾊﾞﾗｷｹﾝ","kana_city":"ﾁｸｾｲｼ","kana_address":"ﾐﾄﾞﾘﾏﾁ","pref":"茨城県","city":"筑西市","address":"みどり町"},
{"zip_code":"3080811","kana_pref":"ｲﾊﾞﾗｷｹﾝ","kana_city":"ﾁｸｾｲｼ","kana_address":"ﾓﾀﾞ","pref":"茨城県","city":"筑西市","address":"茂田"},
{"zip_code":"3080861","kana_pref":"ｲﾊﾞﾗｷｹﾝ","kana_city":"ﾁｸｾｲｼ","kana_address":"ﾓﾘｿｴｼﾞﾏ","pref":"茨城県","city":"筑西市","address":"森添島"},
{"zip_code":"3080056","kana_pref":"ｲﾊﾞﾗｷｹﾝ","kana_city":"ﾁｸｾｲｼ","kana_address":"ﾔﾅｶ","pref":"茨城県","city":"筑西市","address":"谷中"},
{"zip_code":"3080006","kana_pref":"ｲﾊﾞﾗｷｹﾝ","kana_city":"ﾁｸｾｲｼ","kana_address":"ﾔﾍﾞ","pref":"茨城県","city":"筑西市","address":"谷部"},
{"zip_code":"3080865","kana_pref":"ｲﾊﾞﾗｷｹﾝ","kana_city":"ﾁｸｾｲｼ","kana_address":"ﾔﾏｻﾞｷ","pref":"茨城県","city":"筑西市","address":"山崎"},
{"zip_code":"3080802","kana_pref":"ｲﾊﾞﾗｷｹﾝ","kana_city":"ﾁｸｾｲｼ","kana_address":"ﾖｺｼﾏ","pref":"茨城県","city":"筑西市","address":"横島"},
{"zip_code":"3080838","kana_pref":"ｲﾊﾞﾗｷｹﾝ","kana_city":"ﾁｸｾｲｼ","kana_address":"ﾖﾉｳ","pref":"茨城県","city":"筑西市","address":"榎生"},
{"zip_code":"3080824","kana_pref":"ｲﾊﾞﾗｷｹﾝ","kana_city":"ﾁｸｾｲｼ","kana_address":"ﾜﾗﾋﾞ","pref":"茨城県","city":"筑西市","address":"蕨"}]}