{"zip_code":[
{"zip_code":"3091600","kana_pref":"ｲﾊﾞﾗｷｹﾝ","kana_city":"ｶｻﾏｼ","kana_address":"","pref":"茨城県","city":"笠間市","address":""},
{"zip_code":"3091616","kana_pref":"ｲﾊﾞﾗｷｹﾝ","kana_city":"ｶｻﾏｼ","kana_address":"ｱｶｻｶ","pref":"茨城県","city":"笠間市","address":"赤坂"},
{"zip_code":"3091717","kana_pref":"ｲﾊﾞﾗｷｹﾝ","kana_city":"ｶｻﾏｼ","kana_address":"ｱｻﾋﾏﾁ","pref":"茨城県","city":"笠間市","address":"旭町"},
{"zip_code":"3091632","kana_pref":"ｲﾊﾞﾗｷｹﾝ","kana_city":"ｶｻﾏｼ","kana_address":"ｲｲｺﾞｳ","pref":"茨城県","city":"笠間市","address":"飯合"},
{"zip_code":"3091605","kana_pref":"ｲﾊﾞﾗｷｹﾝ","kana_city":"ｶｻﾏｼ","kana_address":"ｲｲﾀﾞ","pref":"茨城県","city":"笠間市","address":"飯田"},
{"zip_code":"3091602","kana_pref":"ｲﾊﾞﾗｷｹﾝ","kana_city":"ｶｻﾏｼ","kana_address":"ｲｹﾉﾍﾞ","pref":"茨城県","city":"笠間市","address":"池野辺"},
{"zip_code":"3091613","kana_pref":"ｲﾊﾞﾗｷｹﾝ","kana_city":"ｶｻﾏｼ","kana_address":"ｲｼｲ","pref":"茨城県","city":"笠間市","address":"石井"},
{"zip_code":"3091607","kana_pref":"ｲﾊﾞﾗｷｹﾝ","kana_city":"ｶｻﾏｼ","kana_address":"ｲｼﾃﾞﾗ","pref":"茨城県","city":"笠間市","address":"石寺"},
{"zip_code":"3091635","kana_pref":"ｲﾊﾞﾗｷｹﾝ","kana_city":"ｶｻﾏｼ","kana_address":"ｲﾅﾀﾞ","pref":"茨城県","city":"笠間市","address":"稲田"},
{"zip_code":"3091636","kana_pref":"ｲﾊﾞﾗｷｹﾝ","kana_city":"ｶｻﾏｼ","kana_address":"ｵｵｺﾞﾄ","pref":"茨城県","city":"笠間市","address":"大郷戸"},
{"zip_code":"3091724","kana_pref":"ｲﾊﾞﾗｷｹﾝ","kana_city":"ｶｻﾏｼ","kana_address":"ｵｵｺﾞﾔﾏ","pref":"茨城県","city":"笠間市","address":"大古山"},
{"zip_code":"3091738","kana_pref":"ｲﾊﾞﾗｷｹﾝ","kana_city":"ｶｻﾏｼ","kana_address":"ｵｵﾀﾏﾁ","pref":"茨城県","city":"笠間市","address":"大田町"},
{"zip_code":"3091601","kana_pref":"ｲﾊﾞﾗｷｹﾝ","kana_city":"ｶｻﾏｼ","kana_address":"ｵｵﾊｼ","pref":"茨城県","city":"笠間市","address":"大橋"},
{"zip_code":"3091604","kana_pref":"ｲﾊﾞﾗｷｹﾝ","kana_city":"ｶｻﾏｼ","kana_address":"ｵｵﾌﾞﾁ","pref":"茨城県","city":"笠間市","address":"大渕"},
{"zip_code":"3091701","kana_pref":"ｲﾊﾞﾗｷｹﾝ","kana_city":"ｶｻﾏｼ","kana_address":"ｵﾊﾞﾗ","pref":"茨城県","city":"笠間市","address":"小原"},
{"zip_code":"3091611","kana_pref":"ｲﾊﾞﾗｷｹﾝ","kana_city":"ｶｻﾏｼ","kana_address":"ｶｻﾏ","pref":"茨城県","city":"笠間市","address":"笠間"},
{"zip_code":"3091713","kana_pref":"ｲﾊﾞﾗｷｹﾝ","kana_city":"ｶｻﾏｼ","kana_address":"ｶｼﾜｲ","pref":"茨城県","city":"笠間市","address":"柏井"},
{"zip_code":"3091637","kana_pref":"ｲﾊﾞﾗｷｹﾝ","kana_city":"ｶｻﾏｼ","kana_address":"ｶﾀﾆﾜ","pref":"茨城県","city":"笠間市","address":"片庭"},
{"zip_code":"3091615","kana_pref":"ｲﾊﾞﾗｷｹﾝ","kana_city":"ｶｻﾏｼ","kana_address":"ｶﾅｲ","pref":"茨城県","city":"笠間市","address":"金井"},
{"zip_code":"3091731","kana_pref":"ｲﾊﾞﾗｷｹﾝ","kana_city":"ｶｻﾏｼ","kana_address":"ｶﾐｲﾁﾊﾞﾗ","pref":"茨城県","city":"笠間市","address":"上市原"},
{"zip_code":"3091623","kana_pref":"ｲﾊﾞﾗｷｹﾝ","kana_city":"ｶｻﾏｼ","kana_address":"ｶﾐｶｶﾞﾀﾞ","pref":"茨城県","city":"笠間市","address":"上加賀田"},
{"zip_code":"3091624","kana_pref":"ｲﾊﾞﾗｷｹﾝ","kana_city":"ｶｻﾏｼ","kana_address":"ｷﾀﾖｼﾜﾗ","pref":"茨城県","city":"笠間市","address":"北吉原"},
{"zip_code":"3091625","kana_pref":"ｲﾊﾞﾗｷｹﾝ","kana_city":"ｶｻﾏｼ","kana_address":"ｸﾙｽ","pref":"茨城県","city":"笠間市","address":"来栖"},
{"zip_code":"3091703","kana_pref":"ｲﾊﾞﾗｷｹﾝ","kana_city":"ｶｻﾏｼ","kana_address":"ｺｲﾌﾞﾁ","pref":"茨城県","city":"笠間市","address":"鯉淵"},
{"zip_code":"3091706","kana_pref":"ｲﾊﾞﾗｷｹﾝ","kana_city":"ｶｻﾏｼ","kana_address":"ｺｳﾉｽ","pref":"茨城県","city":"笠間市","address":"鴻巣"},
{"zip_code":"3091702","kana_pref":"ｲﾊﾞﾗｷｹﾝ","kana_city":"ｶｻﾏｼ","kana_address":"ｺﾞﾍｲ","pref":"茨城県","city":"笠間市","address":"五平"},
{"zip_code":"3091626","kana_pref":"ｲﾊﾞﾗｷｹﾝ","kana_city":"ｶｻﾏｼ","kana_address":"ｼﾓｲﾁｹﾞ","pref":"茨城県","city":"笠間市","address":"下市毛"},
{"zip_code":"3091733","kana_pref":"ｲﾊﾞﾗｷｹﾝ","kana_city":"ｶｻﾏｼ","kana_address":"ｼﾓｲﾁﾊﾞﾗ","pref":"茨城県","city":"笠間市","address":"下市原"},
{"zip_code":"3091726","kana_pref":"ｲﾊﾞﾗｷｹﾝ","kana_city":"ｶｻﾏｼ","kana_address":"ｼﾓｶｶﾞﾀ","pref":"茨城県","city":"笠間市","address":"下加賀田"},
{"zip_code":"3091716","kana_pref":"ｲﾊﾞﾗｷｹﾝ","kana_city":"ｶｻﾏｼ","kana_address":"ｽﾐﾖｼ","pref":"茨城県","city":"笠間市","address":"住吉"},
{"zip_code":"3091722","kana_pref":"ｲﾊﾞﾗｷｹﾝ","kana_city":"ｶｻﾏｼ","kana_address":"ﾀｲﾗﾏﾁ","pref":"茨城県","city":"笠間市","address":"平町"},
{"zip_code":"3091737","kana_pref":"ｲﾊﾞﾗｷｹﾝ","kana_city":"ｶｻﾏｼ","kana_address":"ﾁｭｳｵｳ","pref":"茨城県","city":"笠間市","address":"中央"},
{"zip_code":"3091621","kana_pref":"ｲﾊﾞﾗｷｹﾝ","kana_city":"ｶｻﾏｼ","kana_address":"ﾃｺﾞｼ","pref":"茨城県","city":"笠間市","address":"手越"},
{"zip_code":"3091614","kana_pref":"ｲﾊﾞﾗｷｹﾝ","kana_city":"ｶｻﾏｼ","kana_address":"ﾃﾗｻﾞｷ","pref":"茨城県","city":"笠間市","address":"寺崎"},
{"zip_code":"3091735","kana_pref":"ｲﾊﾞﾗｷｹﾝ","kana_city":"ｶｻﾏｼ","kana_address":"ﾄﾓﾍﾞｴｷﾏｴ","pref":"茨城県","city":"笠間市","address":"友部駅前"},
{"zip_code":"3091732","kana_pref":"ｲﾊﾞﾗｷｹﾝ","kana_city":"ｶｻﾏｼ","kana_address":"ﾅｶｲﾁﾊﾞﾗ","pref":"茨城県","city":"笠間市","address":"中市原"},
{"zip_code":"3091712","kana_pref":"ｲﾊﾞﾗｷｹﾝ","kana_city":"ｶｻﾏｼ","kana_address":"ﾅｶﾞﾄﾛ","pref":"茨城県","city":"笠間市","address":"長兎路"},
{"zip_code":"3091711","kana_pref":"ｲﾊﾞﾗｷｹﾝ","kana_city":"ｶｻﾏｼ","kana_address":"ﾅﾑｻﾝﾂﾞｹ","pref":"茨城県","city":"笠間市","address":"随分附"},
{"zip_code":"3091714","kana_pref":"ｲﾊﾞﾗｷｹﾝ","kana_city":"ｶｻﾏｼ","kana_address":"ﾆｺﾀﾞ","pref":"茨城県","city":"笠間市","address":"仁古田"},
{"zip_code":"3091631","kana_pref":"ｲﾊﾞﾗｷｹﾝ","kana_city":"ｶｻﾏｼ","kana_address":"ﾊｺﾀﾞ","pref":"茨城県","city":"笠間市","address":"箱田"},
{"zip_code":"3091721","kana_pref":"ｲﾊﾞﾗｷｹﾝ","kana_city":"ｶｻﾏｼ","kana_address":"ﾊｼﾂﾞﾒ","pref":"茨城県","city":"笠間市","address":"橋爪"},
{"zip_code":"3091705","kana_pref":"ｲﾊﾞﾗｷｹﾝ","kana_city":"ｶｻﾏｼ","kana_address":"ﾋｶﾞｼﾀﾞｲﾗ","pref":"茨城県","city":"笠間市","address":"東平"},
{"zip_code":"3091606","kana_pref":"ｲﾊﾞﾗｷｹﾝ","kana_city":"ｶｻﾏｼ","kana_address":"ﾋｻﾞﾜ","pref":"茨城県","city":"笠間市","address":"日沢"},
{"zip_code":"3091612","kana_pref":"ｲﾊﾞﾗｷｹﾝ","kana_city":"ｶｻﾏｼ","kana_address":"ﾋｸｻﾊﾞ","pref":"茨城県","city":"笠間市","address":"日草場"},
{"zip_code":"3091603","kana_pref":"ｲﾊﾞﾗｷｹﾝ","kana_city":"ｶｻﾏｼ","kana_address":"ﾌｸﾀﾞ","pref":"茨城県","city":"笠間市","address":"福田"},
{"zip_code":"3091634","kana_pref":"ｲﾊﾞﾗｷｹﾝ","kana_city":"ｶｻﾏｼ","kana_address":"ﾌｸﾊﾗ","pref":"茨城県","city":"笠間市","address":"福原"},
{"zip_code":"3091725","kana_pref":"ｲﾊﾞﾗｷｹﾝ","kana_city":"ｶｻﾏｼ","kana_address":"ﾐﾅﾐｺｲｽﾞﾐ","pref":"茨城県","city":"笠間市","address":"南小泉"},
{"zip_code":"3091734","kana_pref":"ｲﾊﾞﾗｷｹﾝ","kana_city":"ｶｻﾏｼ","kana_address":"ﾐﾅﾐﾄﾓﾍﾞ","pref":"茨城県","city":"笠間市","address":"南友部"},
{"zip_code":"3091622","kana_pref":"ｲﾊﾞﾗｷｹﾝ","kana_city":"ｶｻﾏｼ","kana_address":"ﾐﾅﾐﾖｼﾜﾗ","pref":"茨城県","city":"笠間市","address":"南吉原"},
{"zip_code":"3091704","kana_pref":"ｲﾊﾞﾗｷｹﾝ","kana_city":"ｶｻﾏｼ","kana_address":"ﾐﾊﾗ","pref":"茨城県","city":"笠間市","address":"美原"},
{"zip_code":"3091633","kana_pref":"ｲﾊﾞﾗｷｹﾝ","kana_city":"ｶｻﾏｼ","kana_address":"ﾓﾄﾄﾞ","pref":"茨城県","city":"笠間市","address":"本戸"},
{"zip_code":"3091736","kana_pref":"ｲﾊﾞﾗｷｹﾝ","kana_city":"ｶｻﾏｼ","kana_address":"ﾔｸﾓ","pref":"茨城県","city":"笠間市","address":"八雲"},
{"zip_code":"3091723","kana_pref":"ｲﾊﾞﾗｷｹﾝ","kana_city":"ｶｻﾏｼ","kana_address":"ﾔﾉｼﾀ","pref":"茨城県","city":"笠間市","address":"矢野下"},
{"zip_code":"3091715","kana_pref":"ｲﾊﾞﾗｷｹﾝ","kana_city":"ｶｻﾏｼ","kana_address":"ﾕｻﾞｷ","pref":"茨城県","city":"笠間市","address":"湯崎"},
{"zip_code":"3091108","kana_pref":"ｲﾊﾞﾗｷｹﾝ","kana_city":"ﾁｸｾｲｼ","kana_address":"ｲﾃｴﾋﾞｻﾜ","pref":"茨城県","city":"筑西市","address":"井出蛯沢"},
{"zip_code":"3091125","kana_pref":"ｲﾊﾞﾗｷｹﾝ","kana_city":"ﾁｸｾｲｼ","kana_address":"ｵｵｼﾏ","pref":"茨城県","city":"筑西市","address":"大島"},
{"zip_code":"3091101","kana_pref":"ｲﾊﾞﾗｷｹﾝ","kana_city":"ﾁｸｾｲｼ","kana_address":"ｵｸﾞﾘ","pref":"茨城県","city":"筑西市","address":"小栗"},
{"zip_code":"3091107","kana_pref":"ｲﾊﾞﾗｷｹﾝ","kana_city":"ﾁｸｾｲｼ","kana_address":"ｶﾄﾞｲ","pref":"茨城県","city":"筑西市","address":"門井"},
{"zip_code":"3091111","kana_pref":"ｲﾊﾞﾗｷｹﾝ","kana_city":"ﾁｸｾｲｼ","kana_address":"ｶﾐﾎｼﾔ","pref":"茨城県","city":"筑西市","address":"上星谷"},
{"zip_code":"3091103","kana_pref":"ｲﾊﾞﾗｷｹﾝ","kana_city":"ﾁｸｾｲｼ","kana_address":"ｸｼﾞﾗ","pref":"茨城県","city":"筑西市","address":"久地楽"},
{"zip_code":"3091127","kana_pref":"ｲﾊﾞﾗｷｹﾝ","kana_city":"ﾁｸｾｲｼ","kana_address":"ｸﾜﾔﾏ","pref":"茨城県","city":"筑西市","address":"桑山"},
{"zip_code":"3091105","kana_pref":"ｲﾊﾞﾗｷｹﾝ","kana_city":"ﾁｸｾｲｼ","kana_address":"ｻﾝｺﾞｳ","pref":"茨城県","city":"筑西市","address":"三郷"},
{"zip_code":"3091126","kana_pref":"ｲﾊﾞﾗｷｹﾝ","kana_city":"ﾁｸｾｲｼ","kana_address":"ｼﾐｽﾞ","pref":"茨城県","city":"筑西市","address":"清水"},
{"zip_code":"3091123","kana_pref":"ｲﾊﾞﾗｷｹﾝ","kana_city":"ﾁｸｾｲｼ","kana_address":"ｼﾓｺﾞｳﾔ","pref":"茨城県","city":"筑西市","address":"下郷谷"},
{"zip_code":"3091122","kana_pref":"ｲﾊﾞﾗｷｹﾝ","kana_city":"ﾁｸｾｲｼ","kana_address":"ｼﾓﾎｼﾔ","pref":"茨城県","city":"筑西市","address":"下星谷"},
{"zip_code":"3091124","kana_pref":"ｲﾊﾞﾗｷｹﾝ","kana_city":"ﾁｸｾｲｼ","kana_address":"ﾁｷﾞｮｳ","pref":"茨城県","city":"筑西市","address":"知行"},
{"zip_code":"3091106","kana_pref":"ｲﾊﾞﾗｷｹﾝ","kana_city":"ﾁｸｾｲｼ","kana_address":"ﾆｲﾊﾘ","pref":"茨城県","city":"筑西市","address":"新治"},
{"zip_code":"3091115","kana_pref":"ｲﾊﾞﾗｷｹﾝ","kana_city":"ﾁｸｾｲｼ","kana_address":"ﾊｽﾇﾏ","pref":"茨城県","city":"筑西市","address":"蓮沼"},
{"zip_code":"3091104","kana_pref":"ｲﾊﾞﾗｷｹﾝ","kana_city":"ﾁｸｾｲｼ","kana_address":"ﾌﾙｺﾞｵﾘ","pref":"茨城県","city":"筑西市","address":"古郡"},
{"zip_code":"3091114","kana_pref":"ｲﾊﾞﾗｷｹﾝ","kana_city":"ﾁｸｾｲｼ","kana_address":"ﾎｿﾀﾞ","pref":"茨城県","city":"筑西市","address":"細田"},
{"zip_code":"3091117","kana_pref":"ｲﾊﾞﾗｷｹﾝ","kana_city":"ﾁｸｾｲｼ","kana_address":"ﾑｺｳｶﾜｽﾐ","pref":"茨城県","city":"筑西市","address":"向川澄"},
{"zip_code":"3091121","kana_pref":"ｲﾊﾞﾗｷｹﾝ","kana_city":"ﾁｸｾｲｼ","kana_address":"ﾔﾅｶﾞｼﾏ","pref":"茨城県","city":"筑西市","address":"谷永島"},
{"zip_code":"3091113","kana_pref":"ｲﾊﾞﾗｷｹﾝ","kana_city":"ﾁｸｾｲｼ","kana_address":"ﾔﾅｷﾞ","pref":"茨城県","city":"筑西市","address":"柳"},
{"zip_code":"3091112","kana_pref":"ｲﾊﾞﾗｷｹﾝ","kana_city":"ﾁｸｾｲｼ","kana_address":"ﾔﾊﾀ","pref":"茨城県","city":"筑西市","address":"八幡"},
{"zip_code":"3091116","kana_pref":"ｲﾊﾞﾗｷｹﾝ","kana_city":"ﾁｸｾｲｼ","kana_address":"ﾖｺﾂｶ","pref":"茨城県","city":"筑西市","address":"横塚"},
{"zip_code":"3091102","kana_pref":"ｲﾊﾞﾗｷｹﾝ","kana_city":"ﾁｸｾｲｼ","kana_address":"ﾖﾓｷﾞﾀ","pref":"茨城県","city":"筑西市","address":"蓬田"},
{"zip_code":"3091200","kana_pref":"ｲﾊﾞﾗｷｹﾝ","kana_city":"ｻｸﾗｶﾞﾜｼ","kana_address":"","pref":"茨城県","city":"桜川市","address":""},
{"zip_code":"3091241","kana_pref":"ｲﾊﾞﾗｷｹﾝ","kana_city":"ｻｸﾗｶﾞﾜｼ","kana_address":"ｱｵｷ","pref":"茨城県","city":"桜川市","address":"青木"},
{"zip_code":"3091456","kana_pref":"ｲﾊﾞﾗｷｹﾝ","kana_city":"ｻｸﾗｶﾞﾜｼ","kana_address":"ｱｵﾔｷﾞ","pref":"茨城県","city":"桜川市","address":"青柳"},
{"zip_code":"3091216","kana_pref":"ｲﾊﾞﾗｷｹﾝ","kana_city":"ｻｸﾗｶﾞﾜｼ","kana_address":"ｱｽｶ","pref":"茨城県","city":"桜川市","address":"明日香"},
{"zip_code":"3091234","kana_pref":"ｲﾊﾞﾗｷｹﾝ","kana_city":"ｻｸﾗｶﾞﾜｼ","kana_address":"ｱﾍﾞﾀ","pref":"茨城県","city":"桜川市","address":"阿部田"},
{"zip_code":"3091202","kana_pref":"ｲﾊﾞﾗｷｹﾝ","kana_city":"ｻｸﾗｶﾞﾜｼ","kana_address":"ｲｲﾌﾞﾁ","pref":"茨城県","city":"桜川市","address":"飯淵"},
{"zip_code":"3091332","kana_pref":"ｲﾊﾞﾗｷｹﾝ","kana_city":"ｻｸﾗｶﾞﾜｼ","kana_address":"ｲｹｶﾞﾒ","pref":"茨城県","city":"桜川市","address":"池亀"},
{"zip_code":"3091457","kana_pref":"ｲﾊﾞﾗｷｹﾝ","kana_city":"ｻｸﾗｶﾞﾜｼ","kana_address":"ｲｿﾍﾞ","pref":"茨城県","city":"桜川市","address":"磯部"},
{"zip_code":"3091458","kana_pref":"ｲﾊﾞﾗｷｹﾝ","kana_city":"ｻｸﾗｶﾞﾜｼ","kana_address":"ｲﾅ","pref":"茨城県","city":"桜川市","address":"稲"},
{"zip_code":"3091217","kana_pref":"ｲﾊﾞﾗｷｹﾝ","kana_city":"ｻｸﾗｶﾞﾜｼ","kana_address":"ｲﾇﾀ","pref":"茨城県","city":"桜川市","address":"犬田"},
{"zip_code":"3091464","kana_pref":"ｲﾊﾞﾗｷｹﾝ","kana_city":"ｻｸﾗｶﾞﾜｼ","kana_address":"ｲﾏｲｽﾞﾐ","pref":"茨城県","city":"桜川市","address":"今泉"},
{"zip_code":"3091345","kana_pref":"ｲﾊﾞﾗｷｹﾝ","kana_city":"ｻｸﾗｶﾞﾜｼ","kana_address":"ｲﾘﾉ","pref":"茨城県","city":"桜川市","address":"入野"},
{"zip_code":"3091211","kana_pref":"ｲﾊﾞﾗｷｹﾝ","kana_city":"ｻｸﾗｶﾞﾜｼ","kana_address":"ｲﾜｾ","pref":"茨城県","city":"桜川市","address":"岩瀬"},
{"zip_code":"3091226","kana_pref":"ｲﾊﾞﾗｷｹﾝ","kana_city":"ｻｸﾗｶﾞﾜｼ","kana_address":"ｳｴﾉﾊﾗﾁｼﾝﾃﾞﾝ","pref":"茨城県","city":"桜川市","address":"上野原地新田"},
{"zip_code":"3091201","kana_pref":"ｲﾊﾞﾗｷｹﾝ","kana_city":"ｻｸﾗｶﾞﾜｼ","kana_address":"ｵｵｲｽﾞﾐ","pref":"茨城県","city":"桜川市","address":"大泉"},
{"zip_code":"3091244","kana_pref":"ｲﾊﾞﾗｷｹﾝ","kana_city":"ｻｸﾗｶﾞﾜｼ","kana_address":"ｵｵｸﾆﾀﾏ","pref":"茨城県","city":"桜川市","address":"大国玉"},
{"zip_code":"3091232","kana_pref":"ｲﾊﾞﾗｷｹﾝ","kana_city":"ｻｸﾗｶﾞﾜｼ","kana_address":"ｵｵｿﾞﾈ","pref":"茨城県","city":"桜川市","address":"大曽根"},
{"zip_code":"3091335","kana_pref":"ｲﾊﾞﾗｷｹﾝ","kana_city":"ｻｸﾗｶﾞﾜｼ","kana_address":"ｵｵﾂｷ","pref":"茨城県","city":"桜川市","address":"大月"},
{"zip_code":"3091222","kana_pref":"ｲﾊﾞﾗｷｹﾝ","kana_city":"ｻｸﾗｶﾞﾜｼ","kana_address":"ｵｻｶﾀ","pref":"茨城県","city":"桜川市","address":"長方"},
{"zip_code":"3091341","kana_pref":"ｲﾊﾞﾗｷｹﾝ","kana_city":"ｻｸﾗｶﾞﾜｼ","kana_address":"ｶﾄﾞｹ","pref":"茨城県","city":"桜川市","address":"門毛"},
{"zip_code":"3091245","kana_pref":"ｲﾊﾞﾗｷｹﾝ","kana_city":"ｻｸﾗｶﾞﾜｼ","kana_address":"ｶﾅｼｷ","pref":"茨城県","city":"桜川市","address":"金敷"},
{"zip_code":"3091454","kana_pref":"ｲﾊﾞﾗｷｹﾝ","kana_city":"ｻｸﾗｶﾞﾜｼ","kana_address":"ｶﾐｼﾛ","pref":"茨城県","city":"桜川市","address":"上城"},
{"zip_code":"3091343","kana_pref":"ｲﾊﾞﾗｷｹﾝ","kana_city":"ｻｸﾗｶﾞﾜｼ","kana_address":"ｶﾒｵｶ","pref":"茨城県","city":"桜川市","address":"亀岡"},
{"zip_code":"3091452","kana_pref":"ｲﾊﾞﾗｷｹﾝ","kana_city":"ｻｸﾗｶﾞﾜｼ","kana_address":"ｶﾓﾍﾞ","pref":"茨城県","city":"桜川市","address":"加茂部"},
{"zip_code":"3091465","kana_pref":"ｲﾊﾞﾗｷｹﾝ","kana_city":"ｻｸﾗｶﾞﾜｼ","kana_address":"ｷｳｴ","pref":"茨城県","city":"桜川市","address":"木植"},
{"zip_code":"3091204","kana_pref":"ｲﾊﾞﾗｷｹﾝ","kana_city":"ｻｸﾗｶﾞﾜｼ","kana_address":"ｸﾊﾞﾗ","pref":"茨城県","city":"桜川市","address":"久原"},
{"zip_code":"3091223","kana_pref":"ｲﾊﾞﾗｷｹﾝ","kana_city":"ｻｸﾗｶﾞﾜｼ","kana_address":"ｸﾜﾀﾞ","pref":"茨城県","city":"桜川市","address":"鍬田"},
{"zip_code":"3091336","kana_pref":"ｲﾊﾞﾗｷｹﾝ","kana_city":"ｻｸﾗｶﾞﾜｼ","kana_address":"ｺｼｵ","pref":"茨城県","city":"桜川市","address":"小塩"},
{"zip_code":"3091215","kana_pref":"ｲﾊﾞﾗｷｹﾝ","kana_city":"ｻｸﾗｶﾞﾜｼ","kana_address":"ｺﾞﾘｮｳ","pref":"茨城県","city":"桜川市","address":"御領"},
{"zip_code":"3091334","kana_pref":"ｲﾊﾞﾗｷｹﾝ","kana_city":"ｻｸﾗｶﾞﾜｼ","kana_address":"ｻｶﾓﾄ","pref":"茨城県","city":"桜川市","address":"坂本"},
{"zip_code":"3091466","kana_pref":"ｲﾊﾞﾗｷｹﾝ","kana_city":"ｻｸﾗｶﾞﾜｼ","kana_address":"ｻﾙﾀﾞ","pref":"茨城県","city":"桜川市","address":"猿田"},
{"zip_code":"3091225","kana_pref":"ｲﾊﾞﾗｷｹﾝ","kana_city":"ｻｸﾗｶﾞﾜｼ","kana_address":"ｼﾓｲｽﾞﾐ","pref":"茨城県","city":"桜川市","address":"下泉"},
{"zip_code":"3091462","kana_pref":"ｲﾊﾞﾗｷｹﾝ","kana_city":"ｻｸﾗｶﾞﾜｼ","kana_address":"ｿﾈ","pref":"茨城県","city":"桜川市","address":"曽根"},
{"zip_code":"3091243","kana_pref":"ｲﾊﾞﾗｷｹﾝ","kana_city":"ｻｸﾗｶﾞﾜｼ","kana_address":"ﾀｶｸ","pref":"茨城県","city":"桜川市","address":"高久"},
{"zip_code":"3091463","kana_pref":"ｲﾊﾞﾗｷｹﾝ","kana_city":"ｻｸﾗｶﾞﾜｼ","kana_address":"ﾀｶﾊﾀ","pref":"茨城県","city":"桜川市","address":"高幡"},
{"zip_code":"3091246","kana_pref":"ｲﾊﾞﾗｷｹﾝ","kana_city":"ｻｸﾗｶﾞﾜｼ","kana_address":"ﾀｶﾓﾘ","pref":"茨城県","city":"桜川市","address":"高森"},
{"zip_code":"3091205","kana_pref":"ｲﾊﾞﾗｷｹﾝ","kana_city":"ｻｸﾗｶﾞﾜｼ","kana_address":"ﾂﾂﾐﾉｳｴ","pref":"茨城県","city":"桜川市","address":"堤上"},
{"zip_code":"3091203","kana_pref":"ｲﾊﾞﾗｷｹﾝ","kana_city":"ｻｸﾗｶﾞﾜｼ","kana_address":"ﾄﾐｵｶ","pref":"茨城県","city":"桜川市","address":"富岡"},
{"zip_code":"3091347","kana_pref":"ｲﾊﾞﾗｷｹﾝ","kana_city":"ｻｸﾗｶﾞﾜｼ","kana_address":"ﾄﾐﾔ","pref":"茨城県","city":"桜川市","address":"富谷"},
{"zip_code":"3091453","kana_pref":"ｲﾊﾞﾗｷｹﾝ","kana_city":"ｻｸﾗｶﾞﾜｼ","kana_address":"ﾄﾓﾍﾞ","pref":"茨城県","city":"桜川市","address":"友部"},
{"zip_code":"3091224","kana_pref":"ｲﾊﾞﾗｷｹﾝ","kana_city":"ｻｸﾗｶﾞﾜｼ","kana_address":"ﾅｶｲｽﾞﾐ","pref":"茨城県","city":"桜川市","address":"中泉"},
{"zip_code":"3091346","kana_pref":"ｲﾊﾞﾗｷｹﾝ","kana_city":"ｻｸﾗｶﾞﾜｼ","kana_address":"ﾅｶｻﾞﾄ","pref":"茨城県","city":"桜川市","address":"中里"},
{"zip_code":"3091221","kana_pref":"ｲﾊﾞﾗｷｹﾝ","kana_city":"ｻｸﾗｶﾞﾜｼ","kana_address":"ﾆｼｲｲｵｶ","pref":"茨城県","city":"桜川市","address":"西飯岡"},
{"zip_code":"3091451","kana_pref":"ｲﾊﾞﾗｷｹﾝ","kana_city":"ｻｸﾗｶﾞﾜｼ","kana_address":"ﾆｼｺﾊﾞﾅﾜ","pref":"茨城県","city":"桜川市","address":"西小塙"},
{"zip_code":"3091213","kana_pref":"ｲﾊﾞﾗｷｹﾝ","kana_city":"ｻｸﾗｶﾞﾜｼ","kana_address":"ﾆｼｻｸﾗｶﾞﾜ","pref":"茨城県","city":"桜川市","address":"西桜川"},
{"zip_code":"3091242","kana_pref":"ｲﾊﾞﾗｷｹﾝ","kana_city":"ｻｸﾗｶﾞﾜｼ","kana_address":"ﾊﾈﾀ","pref":"茨城県","city":"桜川市","address":"羽田"},
{"zip_code":"3091233","kana_pref":"ｲﾊﾞﾗｷｹﾝ","kana_city":"ｻｸﾗｶﾞﾜｼ","kana_address":"ﾋｶﾞｼｲｲﾀﾞ","pref":"茨城県","city":"桜川市","address":"東飯田"},
{"zip_code":"3091214","kana_pref":"ｲﾊﾞﾗｷｹﾝ","kana_city":"ｻｸﾗｶﾞﾜｼ","kana_address":"ﾋｶﾞｼｻｸﾗｶﾞﾜ","pref":"茨城県","city":"桜川市","address":"東桜川"},
{"zip_code":"3091331","kana_pref":"ｲﾊﾞﾗｷｹﾝ","kana_city":"ｻｸﾗｶﾞﾜｼ","kana_address":"ﾋﾗｻﾜ","pref":"茨城県","city":"桜川市","address":"平澤"},
{"zip_code":"3091337","kana_pref":"ｲﾊﾞﾗｷｹﾝ","kana_city":"ｻｸﾗｶﾞﾜｼ","kana_address":"ﾌｸｻﾞｷ","pref":"茨城県","city":"桜川市","address":"福崎"},
{"zip_code":"3091212","kana_pref":"ｲﾊﾞﾗｷｹﾝ","kana_city":"ｻｸﾗｶﾞﾜｼ","kana_address":"ﾌｼﾞﾐﾀﾞｲ","pref":"茨城県","city":"桜川市","address":"富士見台"},
{"zip_code":"3091227","kana_pref":"ｲﾊﾞﾗｷｹﾝ","kana_city":"ｻｸﾗｶﾞﾜｼ","kana_address":"ﾎﾝｺﾞｳ","pref":"茨城県","city":"桜川市","address":"本郷"},
{"zip_code":"3091461","kana_pref":"ｲﾊﾞﾗｷｹﾝ","kana_city":"ｻｸﾗｶﾞﾜｼ","kana_address":"ﾏﾂﾀﾞ","pref":"茨城県","city":"桜川市","address":"松田"},
{"zip_code":"3091342","kana_pref":"ｲﾊﾞﾗｷｹﾝ","kana_city":"ｻｸﾗｶﾞﾜｼ","kana_address":"ﾏﾅｶ","pref":"茨城県","city":"桜川市","address":"間中"},
{"zip_code":"3091455","kana_pref":"ｲﾊﾞﾗｷｹﾝ","kana_city":"ｻｸﾗｶﾞﾜｼ","kana_address":"ﾐﾄ","pref":"茨城県","city":"桜川市","address":"水戸"},
{"zip_code":"3091344","kana_pref":"ｲﾊﾞﾗｷｹﾝ","kana_city":"ｻｸﾗｶﾞﾜｼ","kana_address":"ﾐﾅﾐｲｲﾀﾞ","pref":"茨城県","city":"桜川市","address":"南飯田"},
{"zip_code":"3091231","kana_pref":"ｲﾊﾞﾗｷｹﾝ","kana_city":"ｻｸﾗｶﾞﾜｼ","kana_address":"ﾓﾄｷﾞ","pref":"茨城県","city":"桜川市","address":"本木"},
{"zip_code":"3091333","kana_pref":"ｲﾊﾞﾗｷｹﾝ","kana_city":"ｻｸﾗｶﾞﾜｼ","kana_address":"ﾔﾏｸﾞﾁ","pref":"茨城県","city":"桜川市","address":"山口"}]}