{"zip_code":[
{"zip_code":"3100000","kana_pref":"ｲﾊﾞﾗｷｹﾝ","kana_city":"ﾐﾄｼ","kana_address":"","pref":"茨城県","city":"水戸市","address":""},
{"zip_code":"3100004","kana_pref":"ｲﾊﾞﾗｷｹﾝ","kana_city":"ﾐﾄｼ","kana_address":"ｱｵﾔｷﾞﾁｮｳ","pref":"茨城県","city":"水戸市","address":"青柳町"},
{"zip_code":"3100822","kana_pref":"ｲﾊﾞﾗｷｹﾝ","kana_city":"ﾐﾄｼ","kana_address":"ｱｸﾂｵｵﾉ","pref":"茨城県","city":"水戸市","address":"圷大野"},
{"zip_code":"3100046","kana_pref":"ｲﾊﾞﾗｷｹﾝ","kana_city":"ﾐﾄｼ","kana_address":"ｱｹﾎﾞﾉﾁｮｳ","pref":"茨城県","city":"水戸市","address":"曙町"},
{"zip_code":"3100831","kana_pref":"ｲﾊﾞﾗｷｹﾝ","kana_city":"ﾐﾄｼ","kana_address":"ｱｻﾋﾁｮｳ","pref":"茨城県","city":"水戸市","address":"朝日町"},
{"zip_code":"3100054","kana_pref":"ｲﾊﾞﾗｷｹﾝ","kana_city":"ﾐﾄｼ","kana_address":"ｱﾀｺﾞﾁｮｳ","pref":"茨城県","city":"水戸市","address":"愛宕町"},
{"zip_code":"3100905","kana_pref":"ｲﾊﾞﾗｷｹﾝ","kana_city":"ﾐﾄｼ","kana_address":"ｲｼｶﾜ","pref":"茨城県","city":"水戸市","address":"石川"},
{"zip_code":"3100904","kana_pref":"ｲﾊﾞﾗｷｹﾝ","kana_city":"ﾐﾄｼ","kana_address":"ｲｼｶﾜﾁｮｳ","pref":"茨城県","city":"水戸市","address":"石川町"},
{"zip_code":"3100026","kana_pref":"ｲﾊﾞﾗｷｹﾝ","kana_city":"ﾐﾄｼ","kana_address":"ｲｽﾞﾐﾁｮｳ","pref":"茨城県","city":"水戸市","address":"泉町"},
{"zip_code":"3100062","kana_pref":"ｲﾊﾞﾗｷｹﾝ","kana_city":"ﾐﾄｼ","kana_address":"ｵｵﾏﾁ","pref":"茨城県","city":"水戸市","address":"大町"},
{"zip_code":"3100852","kana_pref":"ｲﾊﾞﾗｷｹﾝ","kana_city":"ﾐﾄｼ","kana_address":"ｶｻﾊﾗﾁｮｳ","pref":"茨城県","city":"水戸市","address":"笠原町"},
{"zip_code":"3100066","kana_pref":"ｲﾊﾞﾗｷｹﾝ","kana_city":"ﾐﾄｼ","kana_address":"ｶﾈﾏﾁ","pref":"茨城県","city":"水戸市","address":"金町"},
{"zip_code":"3100001","kana_pref":"ｲﾊﾞﾗｷｹﾝ","kana_city":"ﾐﾄｼ","kana_address":"ｶﾐｶﾞﾁﾁｮｳ","pref":"茨城県","city":"水戸市","address":"上河内町"},
{"zip_code":"3100041","kana_pref":"ｲﾊﾞﾗｷｹﾝ","kana_city":"ﾐﾄｼ","kana_address":"ｶﾐﾐﾄ","pref":"茨城県","city":"水戸市","address":"上水戸"},
{"zip_code":"3100814","kana_pref":"ｲﾊﾞﾗｷｹﾝ","kana_city":"ﾐﾄｼ","kana_address":"ｶﾜﾗﾔ","pref":"茨城県","city":"水戸市","address":"瓦谷"},
{"zip_code":"3100061","kana_pref":"ｲﾊﾞﾗｷｹﾝ","kana_city":"ﾐﾄｼ","kana_address":"ｷﾀﾐﾁｮｳ","pref":"茨城県","city":"水戸市","address":"北見町"},
{"zip_code":"3100842","kana_pref":"ｲﾊﾞﾗｷｹﾝ","kana_city":"ﾐﾄｼ","kana_address":"ｹﾔｷﾀﾞｲ","pref":"茨城県","city":"水戸市","address":"けやき台"},
{"zip_code":"3100063","kana_pref":"ｲﾊﾞﾗｷｹﾝ","kana_city":"ﾐﾄｼ","kana_address":"ｺﾞｹﾝﾁｮｳ","pref":"茨城県","city":"水戸市","address":"五軒町"},
{"zip_code":"3100914","kana_pref":"ｲﾊﾞﾗｷｹﾝ","kana_city":"ﾐﾄｼ","kana_address":"ｺﾌﾞｷﾁｮｳ","pref":"茨城県","city":"水戸市","address":"小吹町"},
{"zip_code":"3100816","kana_pref":"ｲﾊﾞﾗｷｹﾝ","kana_city":"ﾐﾄｼ","kana_address":"ｺﾝﾔﾁｮｳ","pref":"茨城県","city":"水戸市","address":"紺屋町"},
{"zip_code":"3100064","kana_pref":"ｲﾊﾞﾗｷｹﾝ","kana_city":"ﾐﾄｼ","kana_address":"ｻｶｴﾁｮｳ","pref":"茨城県","city":"水戸市","address":"栄町"},
{"zip_code":"3100841","kana_pref":"ｲﾊﾞﾗｷｹﾝ","kana_city":"ﾐﾄｼ","kana_address":"ｻｶﾄﾞﾁｮｳ","pref":"茨城県","city":"水戸市","address":"酒門町"},
{"zip_code":"3100802","kana_pref":"ｲﾊﾞﾗｷｹﾝ","kana_city":"ﾐﾄｼ","kana_address":"ｻｸﾏﾁ","pref":"茨城県","city":"水戸市","address":"柵町"},
{"zip_code":"3100801","kana_pref":"ｲﾊﾞﾗｷｹﾝ","kana_city":"ﾐﾄｼ","kana_address":"ｻｸﾗｶﾞﾜ","pref":"茨城県","city":"水戸市","address":"桜川"},
{"zip_code":"3100011","kana_pref":"ｲﾊﾞﾗｷｹﾝ","kana_city":"ﾐﾄｼ","kana_address":"ｻﾝﾉﾏﾙ","pref":"茨城県","city":"水戸市","address":"三の丸"},
{"zip_code":"3100826","kana_pref":"ｲﾊﾞﾗｷｹﾝ","kana_city":"ﾐﾄｼ","kana_address":"ｼﾌﾞｲﾁｮｳ","pref":"茨城県","city":"水戸市","address":"渋井町"},
{"zip_code":"3100023","kana_pref":"ｲﾊﾞﾗｷｹﾝ","kana_city":"ﾐﾄｼ","kana_address":"ｼﾓﾊﾞｲｺｳ","pref":"茨城県","city":"水戸市","address":"下梅香"},
{"zip_code":"3100042","kana_pref":"ｲﾊﾞﾗｷｹﾝ","kana_city":"ﾐﾄｼ","kana_address":"ｼﾞﾕｳｶﾞｵｶ","pref":"茨城県","city":"水戸市","address":"自由が丘"},
{"zip_code":"3100012","kana_pref":"ｲﾊﾞﾗｷｹﾝ","kana_city":"ﾐﾄｼ","kana_address":"ｼﾞｮｳﾄｳ","pref":"茨城県","city":"水戸市","address":"城東"},
{"zip_code":"3100803","kana_pref":"ｲﾊﾞﾗｷｹﾝ","kana_city":"ﾐﾄｼ","kana_address":"ｼﾞｮｳﾅﾝ","pref":"茨城県","city":"水戸市","address":"城南"},
{"zip_code":"3100804","kana_pref":"ｲﾊﾞﾗｷｹﾝ","kana_city":"ﾐﾄｼ","kana_address":"ｼﾗｳﾒ","pref":"茨城県","city":"水戸市","address":"白梅"},
{"zip_code":"3100036","kana_pref":"ｲﾊﾞﾗｷｹﾝ","kana_city":"ﾐﾄｼ","kana_address":"ｼﾝｿｳ","pref":"茨城県","city":"水戸市","address":"新荘"},
{"zip_code":"3100045","kana_pref":"ｲﾊﾞﾗｷｹﾝ","kana_city":"ﾐﾄｼ","kana_address":"ｼﾝﾊﾗ","pref":"茨城県","city":"水戸市","address":"新原"},
{"zip_code":"3100005","kana_pref":"ｲﾊﾞﾗｷｹﾝ","kana_city":"ﾐﾄｼ","kana_address":"ｽｲﾌﾁｮｳ","pref":"茨城県","city":"水戸市","address":"水府町"},
{"zip_code":"3100053","kana_pref":"ｲﾊﾞﾗｷｹﾝ","kana_city":"ﾐﾄｼ","kana_address":"ｽｴﾋﾛﾁｮｳ","pref":"茨城県","city":"水戸市","address":"末広町"},
{"zip_code":"3100844","kana_pref":"ｲﾊﾞﾗｷｹﾝ","kana_city":"ﾐﾄｼ","kana_address":"ｽﾐﾖｼﾁｮｳ","pref":"茨城県","city":"水戸市","address":"住吉町"},
{"zip_code":"3100851","kana_pref":"ｲﾊﾞﾗｷｹﾝ","kana_city":"ﾐﾄｼ","kana_address":"ｾﾝﾊﾞﾁｮｳ","pref":"茨城県","city":"水戸市","address":"千波町"},
{"zip_code":"3100031","kana_pref":"ｲﾊﾞﾗｷｹﾝ","kana_city":"ﾐﾄｼ","kana_address":"ﾀﾞｲｸﾏﾁ","pref":"茨城県","city":"水戸市","address":"大工町"},
{"zip_code":"3100901","kana_pref":"ｲﾊﾞﾗｷｹﾝ","kana_city":"ﾐﾄｼ","kana_address":"ﾀﾉﾁｮｳ","pref":"茨城県","city":"水戸市","address":"田野町"},
{"zip_code":"3100051","kana_pref":"ｲﾊﾞﾗｷｹﾝ","kana_city":"ﾐﾄｼ","kana_address":"ﾁﾄｾ","pref":"茨城県","city":"水戸市","address":"ちとせ"},
{"zip_code":"3100805","kana_pref":"ｲﾊﾞﾗｷｹﾝ","kana_city":"ﾐﾄｼ","kana_address":"ﾁｭｳｵｳ","pref":"茨城県","city":"水戸市","address":"中央"},
{"zip_code":"3100025","kana_pref":"ｲﾊﾞﾗｷｹﾝ","kana_city":"ﾐﾄｼ","kana_address":"ﾃﾝﾉｳﾁｮｳ","pref":"茨城県","city":"水戸市","address":"天王町"},
{"zip_code":"3100846","kana_pref":"ｲﾊﾞﾗｷｹﾝ","kana_city":"ﾐﾄｼ","kana_address":"ﾄｳﾉﾁｮｳ","pref":"茨城県","city":"水戸市","address":"東野町"},
{"zip_code":"3100033","kana_pref":"ｲﾊﾞﾗｷｹﾝ","kana_city":"ﾐﾄｼ","kana_address":"ﾄｷﾜﾁｮｳ","pref":"茨城県","city":"水戸市","address":"常磐町"},
{"zip_code":"3100821","kana_pref":"ｲﾊﾞﾗｷｹﾝ","kana_city":"ﾐﾄｼ","kana_address":"ﾅｶｵｵﾉ","pref":"茨城県","city":"水戸市","address":"中大野"},
{"zip_code":"3100002","kana_pref":"ｲﾊﾞﾗｷｹﾝ","kana_city":"ﾐﾄｼ","kana_address":"ﾅｶｶﾞﾁﾁｮｳ","pref":"茨城県","city":"水戸市","address":"中河内町"},
{"zip_code":"3100824","kana_pref":"ｲﾊﾞﾗｷｹﾝ","kana_city":"ﾐﾄｼ","kana_address":"ﾆｼｵｵﾉ","pref":"茨城県","city":"水戸市","address":"西大野"},
{"zip_code":"3100044","kana_pref":"ｲﾊﾞﾗｷｹﾝ","kana_city":"ﾐﾄｼ","kana_address":"ﾆｼﾊﾗ","pref":"茨城県","city":"水戸市","address":"西原"},
{"zip_code":"3100067","kana_pref":"ｲﾊﾞﾗｷｹﾝ","kana_city":"ﾐﾄｼ","kana_address":"ﾈﾓﾄ","pref":"茨城県","city":"水戸市","address":"根本"},
{"zip_code":"3100068","kana_pref":"ｲﾊﾞﾗｷｹﾝ","kana_city":"ﾐﾄｼ","kana_address":"ﾈﾓﾄﾁｮｳ","pref":"茨城県","city":"水戸市","address":"根本町"},
{"zip_code":"3100022","kana_pref":"ｲﾊﾞﾗｷｹﾝ","kana_city":"ﾐﾄｼ","kana_address":"ﾊﾞｲｺｳ","pref":"茨城県","city":"水戸市","address":"梅香"},
{"zip_code":"3100055","kana_pref":"ｲﾊﾞﾗｷｹﾝ","kana_city":"ﾐﾄｼ","kana_address":"ﾊｶﾏﾂｶ","pref":"茨城県","city":"水戸市","address":"袴塚"},
{"zip_code":"3100065","kana_pref":"ｲﾊﾞﾗｷｹﾝ","kana_city":"ﾐﾄｼ","kana_address":"ﾊﾁﾏﾝﾁｮｳ","pref":"茨城県","city":"水戸市","address":"八幡町"},
{"zip_code":"3100812","kana_pref":"ｲﾊﾞﾗｷｹﾝ","kana_city":"ﾐﾄｼ","kana_address":"ﾊﾏﾀﾞ","pref":"茨城県","city":"水戸市","address":"浜田"},
{"zip_code":"3100813","kana_pref":"ｲﾊﾞﾗｷｹﾝ","kana_city":"ﾐﾄｼ","kana_address":"ﾊﾏﾀﾞﾁｮｳ","pref":"茨城県","city":"水戸市","address":"浜田町"},
{"zip_code":"3100823","kana_pref":"ｲﾊﾞﾗｷｹﾝ","kana_city":"ﾐﾄｼ","kana_address":"ﾋｶﾞｼｵｵﾉ","pref":"茨城県","city":"水戸市","address":"東大野"},
{"zip_code":"3100811","kana_pref":"ｲﾊﾞﾗｷｹﾝ","kana_city":"ﾐﾄｼ","kana_address":"ﾋｶﾞｼｻｸﾗｶﾞﾜ","pref":"茨城県","city":"水戸市","address":"東桜川"},
{"zip_code":"3100818","kana_pref":"ｲﾊﾞﾗｷｹﾝ","kana_city":"ﾐﾄｼ","kana_address":"ﾋｶﾞｼﾀﾞｲ","pref":"茨城県","city":"水戸市","address":"東台"},
{"zip_code":"3100035","kana_pref":"ｲﾊﾞﾗｷｹﾝ","kana_city":"ﾐﾄｼ","kana_address":"ﾋｶﾞｼﾊﾗ","pref":"茨城県","city":"水戸市","address":"東原"},
{"zip_code":"3100024","kana_pref":"ｲﾊﾞﾗｷｹﾝ","kana_city":"ﾐﾄｼ","kana_address":"ﾋﾞｾﾞﾝﾏﾁ","pref":"茨城県","city":"水戸市","address":"備前町"},
{"zip_code":"3100853","kana_pref":"ｲﾊﾞﾗｷｹﾝ","kana_city":"ﾐﾄｼ","kana_address":"ﾋﾗｽﾁｮｳ","pref":"茨城県","city":"水戸市","address":"平須町"},
{"zip_code":"3100833","kana_pref":"ｲﾊﾞﾗｷｹﾝ","kana_city":"ﾐﾄｼ","kana_address":"ﾌｼﾞｶﾞﾗﾁｮｳ","pref":"茨城県","city":"水戸市","address":"藤柄町"},
{"zip_code":"3100056","kana_pref":"ｲﾊﾞﾗｷｹﾝ","kana_city":"ﾐﾄｼ","kana_address":"ﾌﾞﾝｷｮｳ","pref":"茨城県","city":"水戸市","address":"文京"},
{"zip_code":"3100903","kana_pref":"ｲﾊﾞﾗｷｹﾝ","kana_city":"ﾐﾄｼ","kana_address":"ﾎﾘﾁｮｳ","pref":"茨城県","city":"水戸市","address":"堀町"},
{"zip_code":"3100815","kana_pref":"ｲﾊﾞﾗｷｹﾝ","kana_city":"ﾐﾄｼ","kana_address":"ﾎﾝﾁｮｳ","pref":"茨城県","city":"水戸市","address":"本町"},
{"zip_code":"3100043","kana_pref":"ｲﾊﾞﾗｷｹﾝ","kana_city":"ﾐﾄｼ","kana_address":"ﾏﾂｶﾞｵｶ","pref":"茨城県","city":"水戸市","address":"松が丘"},
{"zip_code":"3100052","kana_pref":"ｲﾊﾞﾗｷｹﾝ","kana_city":"ﾐﾄｼ","kana_address":"ﾏﾂﾓﾄﾁｮｳ","pref":"茨城県","city":"水戸市","address":"松本町"},
{"zip_code":"3100912","kana_pref":"ｲﾊﾞﾗｷｹﾝ","kana_city":"ﾐﾄｼ","kana_address":"ﾐｶﾞﾜ","pref":"茨城県","city":"水戸市","address":"見川"},
{"zip_code":"3100913","kana_pref":"ｲﾊﾞﾗｷｹﾝ","kana_city":"ﾐﾄｼ","kana_address":"ﾐｶﾞﾜﾁｮｳ","pref":"茨城県","city":"水戸市","address":"見川町"},
{"zip_code":"3100034","kana_pref":"ｲﾊﾞﾗｷｹﾝ","kana_city":"ﾐﾄｼ","kana_address":"ﾐﾄﾞﾘﾁｮｳ","pref":"茨城県","city":"水戸市","address":"緑町"},
{"zip_code":"3100021","kana_pref":"ｲﾊﾞﾗｷｹﾝ","kana_city":"ﾐﾄｼ","kana_address":"ﾐﾅﾐﾏﾁ","pref":"茨城県","city":"水戸市","address":"南町"},
{"zip_code":"3100834","kana_pref":"ｲﾊﾞﾗｷｹﾝ","kana_city":"ﾐﾄｼ","kana_address":"ﾐﾔｳﾁﾁｮｳ","pref":"茨城県","city":"水戸市","address":"宮内町"},
{"zip_code":"3100015","kana_pref":"ｲﾊﾞﾗｷｹﾝ","kana_city":"ﾐﾄｼ","kana_address":"ﾐﾔﾏﾁ","pref":"茨城県","city":"水戸市","address":"宮町"},
{"zip_code":"3100911","kana_pref":"ｲﾊﾞﾗｷｹﾝ","kana_city":"ﾐﾄｼ","kana_address":"ﾐﾜ","pref":"茨城県","city":"水戸市","address":"見和"},
{"zip_code":"3100843","kana_pref":"ｲﾊﾞﾗｷｹﾝ","kana_city":"ﾐﾄｼ","kana_address":"ﾓﾄｲｼｶﾜﾁｮｳ","pref":"茨城県","city":"水戸市","address":"元石川町"},
{"zip_code":"3100835","kana_pref":"ｲﾊﾞﾗｷｹﾝ","kana_city":"ﾐﾄｼ","kana_address":"ﾓﾄﾀﾞｲﾏﾁ","pref":"茨城県","city":"水戸市","address":"元台町"},
{"zip_code":"3100032","kana_pref":"ｲﾊﾞﾗｷｹﾝ","kana_city":"ﾐﾄｼ","kana_address":"ﾓﾄﾔﾏﾁｮｳ","pref":"茨城県","city":"水戸市","address":"元山町"},
{"zip_code":"3100836","kana_pref":"ｲﾊﾞﾗｷｹﾝ","kana_city":"ﾐﾄｼ","kana_address":"ﾓﾄﾖｼﾀﾞﾁｮｳ","pref":"茨城県","city":"水戸市","address":"元吉田町"},
{"zip_code":"3100825","kana_pref":"ｲﾊﾞﾗｷｹﾝ","kana_city":"ﾐﾄｼ","kana_address":"ﾔﾀﾞﾁｮｳ","pref":"茨城県","city":"水戸市","address":"谷田町"},
{"zip_code":"3100003","kana_pref":"ｲﾊﾞﾗｷｹﾝ","kana_city":"ﾐﾄｼ","kana_address":"ﾔﾅｶﾜﾁｮｳ","pref":"茨城県","city":"水戸市","address":"柳河町"},
{"zip_code":"3100817","kana_pref":"ｲﾊﾞﾗｷｹﾝ","kana_city":"ﾐﾄｼ","kana_address":"ﾔﾅｷﾞﾏﾁ","pref":"茨城県","city":"水戸市","address":"柳町"},
{"zip_code":"3100845","kana_pref":"ｲﾊﾞﾗｷｹﾝ","kana_city":"ﾐﾄｼ","kana_address":"ﾖｼｻﾞﾜﾁｮｳ","pref":"茨城県","city":"水戸市","address":"吉沢町"},
{"zip_code":"3100832","kana_pref":"ｲﾊﾞﾗｷｹﾝ","kana_city":"ﾐﾄｼ","kana_address":"ﾖｼﾀﾞ","pref":"茨城県","city":"水戸市","address":"吉田"},
{"zip_code":"3100827","kana_pref":"ｲﾊﾞﾗｷｹﾝ","kana_city":"ﾐﾄｼ","kana_address":"ﾖｼﾇﾏﾁｮｳ","pref":"茨城県","city":"水戸市","address":"吉沼町"},
{"zip_code":"3100847","kana_pref":"ｲﾊﾞﾗｷｹﾝ","kana_city":"ﾐﾄｼ","kana_address":"ﾖﾈｻﾞﾜﾁｮｳ","pref":"茨城県","city":"水戸市","address":"米沢町"},
{"zip_code":"3100013","kana_pref":"ｲﾊﾞﾗｷｹﾝ","kana_city":"ﾐﾄｼ","kana_address":"ﾜｶﾐﾔ","pref":"茨城県","city":"水戸市","address":"若宮"},
{"zip_code":"3100014","kana_pref":"ｲﾊﾞﾗｷｹﾝ","kana_city":"ﾐﾄｼ","kana_address":"ﾜｶﾐﾔﾁｮｳ","pref":"茨城県","city":"水戸市","address":"若宮町"},
{"zip_code":"3100902","kana_pref":"ｲﾊﾞﾗｷｹﾝ","kana_city":"ﾐﾄｼ","kana_address":"ﾜﾀﾘﾁｮｳ","pref":"茨城県","city":"水戸市","address":"渡里町"}]}