{"zip_code":[
{"zip_code":"3114141","kana_pref":"ｲﾊﾞﾗｷｹﾝ","kana_city":"ﾐﾄｼ","kana_address":"ｱｶﾂｶ","pref":"茨城県","city":"水戸市","address":"赤塚"},
{"zip_code":"3111122","kana_pref":"ｲﾊﾞﾗｷｹﾝ","kana_city":"ﾐﾄｼ","kana_address":"ｱｷﾅﾘﾁｮｳ","pref":"茨城県","city":"水戸市","address":"秋成町"},
{"zip_code":"3114165","kana_pref":"ｲﾊﾞﾗｷｹﾝ","kana_city":"ﾐﾄｼ","kana_address":"ｱﾎﾞｯｹﾁｮｳ","pref":"茨城県","city":"水戸市","address":"木葉下町"},
{"zip_code":"3114155","kana_pref":"ｲﾊﾞﾗｷｹﾝ","kana_city":"ﾐﾄｼ","kana_address":"ｲｲｼﾞﾏﾁｮｳ","pref":"茨城県","city":"水戸市","address":"飯島町"},
{"zip_code":"3114206","kana_pref":"ｲﾊﾞﾗｷｹﾝ","kana_city":"ﾐﾄｼ","kana_address":"ｲｲﾄﾐﾁｮｳ","pref":"茨城県","city":"水戸市","address":"飯富町"},
{"zip_code":"3114202","kana_pref":"ｲﾊﾞﾗｷｹﾝ","kana_city":"ﾐﾄｼ","kana_address":"ｲﾜﾈﾁｮｳ","pref":"茨城県","city":"水戸市","address":"岩根町"},
{"zip_code":"3111115","kana_pref":"ｲﾊﾞﾗｷｹﾝ","kana_city":"ﾐﾄｼ","kana_address":"ｵｵｸｼﾁｮｳ","pref":"茨城県","city":"水戸市","address":"大串町"},
{"zip_code":"3114143","kana_pref":"ｲﾊﾞﾗｷｹﾝ","kana_city":"ﾐﾄｼ","kana_address":"ｵｵﾂｶﾁｮｳ","pref":"茨城県","city":"水戸市","address":"大塚町"},
{"zip_code":"3111125","kana_pref":"ｲﾊﾞﾗｷｹﾝ","kana_city":"ﾐﾄｼ","kana_address":"ｵｵﾊﾞﾁｮｳ","pref":"茨城県","city":"水戸市","address":"大場町"},
{"zip_code":"3114163","kana_pref":"ｲﾊﾞﾗｷｹﾝ","kana_city":"ﾐﾄｼ","kana_address":"ｶｸﾗｲﾁｮｳ","pref":"茨城県","city":"水戸市","address":"加倉井町"},
{"zip_code":"3114162","kana_pref":"ｲﾊﾞﾗｷｹﾝ","kana_city":"ﾐﾄｼ","kana_address":"ｶﾅﾔﾁｮｳ","pref":"茨城県","city":"水戸市","address":"金谷町"},
{"zip_code":"3114203","kana_pref":"ｲﾊﾞﾗｷｹﾝ","kana_city":"ﾐﾄｼ","kana_address":"ｶﾐｸﾆｲﾁｮｳ","pref":"茨城県","city":"水戸市","address":"上国井町"},
{"zip_code":"3114154","kana_pref":"ｲﾊﾞﾗｷｹﾝ","kana_city":"ﾐﾄｼ","kana_address":"ｶﾔﾊﾞﾁｮｳ","pref":"茨城県","city":"水戸市","address":"萱場町"},
{"zip_code":"3111112","kana_pref":"ｲﾊﾞﾗｷｹﾝ","kana_city":"ﾐﾄｼ","kana_address":"ｶﾜﾏﾀﾁｮｳ","pref":"茨城県","city":"水戸市","address":"川又町"},
{"zip_code":"3114152","kana_pref":"ｲﾊﾞﾗｷｹﾝ","kana_city":"ﾐﾄｼ","kana_address":"ｶﾜﾜﾀﾞ","pref":"茨城県","city":"水戸市","address":"河和田"},
{"zip_code":"3114153","kana_pref":"ｲﾊﾞﾗｷｹﾝ","kana_city":"ﾐﾄｼ","kana_address":"ｶﾜﾜﾀﾞﾁｮｳ","pref":"茨城県","city":"水戸市","address":"河和田町"},
{"zip_code":"3111133","kana_pref":"ｲﾊﾞﾗｷｹﾝ","kana_city":"ﾐﾄｼ","kana_address":"ｸﾘｻｷﾁｮｳ","pref":"茨城県","city":"水戸市","address":"栗崎町"},
{"zip_code":"3111111","kana_pref":"ｲﾊﾞﾗｷｹﾝ","kana_city":"ﾐﾄｼ","kana_address":"ｺｲｽﾞﾐﾁｮｳ","pref":"茨城県","city":"水戸市","address":"小泉町"},
{"zip_code":"3111114","kana_pref":"ｲﾊﾞﾗｷｹﾝ","kana_city":"ﾐﾄｼ","kana_address":"ｼｵｶﾞｻｷﾁｮｳ","pref":"茨城県","city":"水戸市","address":"塩崎町"},
{"zip_code":"3111121","kana_pref":"ｲﾊﾞﾗｷｹﾝ","kana_city":"ﾐﾄｼ","kana_address":"ｼﾏﾀﾞﾁｮｳ","pref":"茨城県","city":"水戸市","address":"島田町"},
{"zip_code":"3111123","kana_pref":"ｲﾊﾞﾗｷｹﾝ","kana_city":"ﾐﾄｼ","kana_address":"ｼﾓｲﾘﾉﾁｮｳ","pref":"茨城県","city":"水戸市","address":"下入野町"},
{"zip_code":"3111131","kana_pref":"ｲﾊﾞﾗｷｹﾝ","kana_city":"ﾐﾄｼ","kana_address":"ｼﾓｵｵﾉﾁｮｳ","pref":"茨城県","city":"水戸市","address":"下大野町"},
{"zip_code":"3114205","kana_pref":"ｲﾊﾞﾗｷｹﾝ","kana_city":"ﾐﾄｼ","kana_address":"ｼﾓｸﾆｲﾁｮｳ","pref":"茨城県","city":"水戸市","address":"下国井町"},
{"zip_code":"3114204","kana_pref":"ｲﾊﾞﾗｷｹﾝ","kana_city":"ﾐﾄｼ","kana_address":"ﾀﾔﾁｮｳ","pref":"茨城県","city":"水戸市","address":"田谷町"},
{"zip_code":"3111136","kana_pref":"ｲﾊﾞﾗｷｹﾝ","kana_city":"ﾐﾄｼ","kana_address":"ﾄｳﾏｴ","pref":"茨城県","city":"水戸市","address":"東前"},
{"zip_code":"3111132","kana_pref":"ｲﾊﾞﾗｷｹﾝ","kana_city":"ﾐﾄｼ","kana_address":"ﾄｳﾏｴﾁｮｳ","pref":"茨城県","city":"水戸市","address":"東前町"},
{"zip_code":"3114146","kana_pref":"ｲﾊﾞﾗｷｹﾝ","kana_city":"ﾐﾄｼ","kana_address":"ﾅｶﾏﾙﾁｮｳ","pref":"茨城県","city":"水戸市","address":"中丸町"},
{"zip_code":"3114207","kana_pref":"ｲﾊﾞﾗｷｹﾝ","kana_city":"ﾐﾄｼ","kana_address":"ﾅﾙｻﾜﾁｮｳ","pref":"茨城県","city":"水戸市","address":"成沢町"},
{"zip_code":"3114142","kana_pref":"ｲﾊﾞﾗｷｹﾝ","kana_city":"ﾐﾄｼ","kana_address":"ﾋｶﾞｼｱｶﾂｶ","pref":"茨城県","city":"水戸市","address":"東赤塚"},
{"zip_code":"3114151","kana_pref":"ｲﾊﾞﾗｷｹﾝ","kana_city":"ﾐﾄｼ","kana_address":"ﾋﾒｺﾞ","pref":"茨城県","city":"水戸市","address":"姫子"},
{"zip_code":"3114144","kana_pref":"ｲﾊﾞﾗｷｹﾝ","kana_city":"ﾐﾄｼ","kana_address":"ﾋﾗｸｴﾁｮｳ","pref":"茨城県","city":"水戸市","address":"開江町"},
{"zip_code":"3111113","kana_pref":"ｲﾊﾞﾗｷｹﾝ","kana_city":"ﾐﾄｼ","kana_address":"ﾋﾗﾄﾁｮｳ","pref":"茨城県","city":"水戸市","address":"平戸町"},
{"zip_code":"3114201","kana_pref":"ｲﾊﾞﾗｷｹﾝ","kana_city":"ﾐﾄｼ","kana_address":"ﾌｼﾞｲﾁｮｳ","pref":"茨城県","city":"水戸市","address":"藤井町"},
{"zip_code":"3114208","kana_pref":"ｲﾊﾞﾗｷｹﾝ","kana_city":"ﾐﾄｼ","kana_address":"ﾌｼﾞｶﾞﾊﾗ","pref":"茨城県","city":"水戸市","address":"藤が原"},
{"zip_code":"3114145","kana_pref":"ｲﾊﾞﾗｷｹﾝ","kana_city":"ﾐﾄｼ","kana_address":"ﾌﾀﾊﾞﾀﾞｲ","pref":"茨城県","city":"水戸市","address":"双葉台"},
{"zip_code":"3114161","kana_pref":"ｲﾊﾞﾗｷｹﾝ","kana_city":"ﾐﾄｼ","kana_address":"ﾏﾀｸﾞﾏﾁｮｳ","pref":"茨城県","city":"水戸市","address":"全隈町"},
{"zip_code":"3111124","kana_pref":"ｲﾊﾞﾗｷｹﾝ","kana_city":"ﾐﾄｼ","kana_address":"ﾓﾘﾄﾁｮｳ","pref":"茨城県","city":"水戸市","address":"森戸町"},
{"zip_code":"3114164","kana_pref":"ｲﾊﾞﾗｷｹﾝ","kana_city":"ﾐﾄｼ","kana_address":"ﾔﾂﾁｮｳ","pref":"茨城県","city":"水戸市","address":"谷津町"},
{"zip_code":"3111134","kana_pref":"ｲﾊﾞﾗｷｹﾝ","kana_city":"ﾐﾄｼ","kana_address":"ﾕﾘｶﾞｵｶﾁｮｳ","pref":"茨城県","city":"水戸市","address":"百合が丘町"},
{"zip_code":"3111135","kana_pref":"ｲﾊﾞﾗｷｹﾝ","kana_city":"ﾐﾄｼ","kana_address":"ﾛｸﾀﾝﾀﾞﾁｮｳ","pref":"茨城県","city":"水戸市","address":"六反田町"},
{"zip_code":"3110402","kana_pref":"ｲﾊﾞﾗｷｹﾝ","kana_city":"ﾋﾀﾁｼ","kana_address":"ｲﾘｼｹﾝﾁｮｳ","pref":"茨城県","city":"日立市","address":"入四間町"},
{"zip_code":"3110404","kana_pref":"ｲﾊﾞﾗｷｹﾝ","kana_city":"ﾋﾀﾁｼ","kana_address":"ｼﾓﾌｶｵｷﾞﾁｮｳ","pref":"茨城県","city":"日立市","address":"下深荻町"},
{"zip_code":"3110401","kana_pref":"ｲﾊﾞﾗｷｹﾝ","kana_city":"ﾋﾀﾁｼ","kana_address":"ﾅｶﾌｶｵｷﾞﾁｮｳ","pref":"茨城県","city":"日立市","address":"中深荻町"},
{"zip_code":"3110403","kana_pref":"ｲﾊﾞﾗｷｹﾝ","kana_city":"ﾋﾀﾁｼ","kana_address":"ﾋｶﾞｼｺﾞｳﾄﾞﾁｮｳ","pref":"茨城県","city":"日立市","address":"東河内町"},
{"zip_code":"3110508","kana_pref":"ｲﾊﾞﾗｷｹﾝ","kana_city":"ﾋﾀﾁｵｵﾀｼ","kana_address":"ｵｵｽｹﾞﾁｮｳ","pref":"茨城県","city":"常陸太田市","address":"大菅町"},
{"zip_code":"3110505","kana_pref":"ｲﾊﾞﾗｷｹﾝ","kana_city":"ﾋﾀﾁｵｵﾀｼ","kana_address":"ｵｵﾅｶﾁｮｳ","pref":"茨城県","city":"常陸太田市","address":"大中町"},
{"zip_code":"3110506","kana_pref":"ｲﾊﾞﾗｷｹﾝ","kana_city":"ﾋﾀﾁｵｵﾀｼ","kana_address":"ｵﾘﾊｼﾁｮｳ","pref":"茨城県","city":"常陸太田市","address":"折橋町"},
{"zip_code":"3110509","kana_pref":"ｲﾊﾞﾗｷｹﾝ","kana_city":"ﾋﾀﾁｵｵﾀｼ","kana_address":"ｶﾐﾌｶｵｷﾞﾁｮｳ","pref":"茨城県","city":"常陸太田市","address":"上深荻町"},
{"zip_code":"3110301","kana_pref":"ｲﾊﾞﾗｷｹﾝ","kana_city":"ﾋﾀﾁｵｵﾀｼ","kana_address":"ｶﾜﾁﾆｼﾁｮｳ","pref":"茨城県","city":"常陸太田市","address":"河内西町"},
{"zip_code":"3110507","kana_pref":"ｲﾊﾞﾗｷｹﾝ","kana_city":"ﾋﾀﾁｵｵﾀｼ","kana_address":"ｺｽｹﾞﾁｮｳ","pref":"茨城県","city":"常陸太田市","address":"小菅町"},
{"zip_code":"3110503","kana_pref":"ｲﾊﾞﾗｷｹﾝ","kana_city":"ﾋﾀﾁｵｵﾀｼ","kana_address":"ｺﾂﾞﾏﾁｮｳ","pref":"茨城県","city":"常陸太田市","address":"小妻町"},
{"zip_code":"3110504","kana_pref":"ｲﾊﾞﾗｷｹﾝ","kana_city":"ﾋﾀﾁｵｵﾀｼ","kana_address":"ｺﾅｶﾁｮｳ","pref":"茨城県","city":"常陸太田市","address":"小中町"},
{"zip_code":"3110501","kana_pref":"ｲﾊﾞﾗｷｹﾝ","kana_city":"ﾋﾀﾁｵｵﾀｼ","kana_address":"ｻﾄｶﾞﾜﾁｮｳ","pref":"茨城県","city":"常陸太田市","address":"里川町"},
{"zip_code":"3110325","kana_pref":"ｲﾊﾞﾗｷｹﾝ","kana_city":"ﾋﾀﾁｵｵﾀｼ","kana_address":"ｻﾄﾉﾐﾔﾁｮｳ","pref":"茨城県","city":"常陸太田市","address":"里野宮町"},
{"zip_code":"3110322","kana_pref":"ｲﾊﾞﾗｷｹﾝ","kana_city":"ﾋﾀﾁｵｵﾀｼ","kana_address":"ｼﾞｮｳﾌｸｼﾞﾁｮｳ","pref":"茨城県","city":"常陸太田市","address":"常福地町"},
{"zip_code":"3110324","kana_pref":"ｲﾊﾞﾗｷｹﾝ","kana_city":"ﾋﾀﾁｵｵﾀｼ","kana_address":"ｼﾗﾜﾁｮｳ","pref":"茨城県","city":"常陸太田市","address":"白羽町"},
{"zip_code":"3110323","kana_pref":"ｲﾊﾞﾗｷｹﾝ","kana_city":"ﾋﾀﾁｵｵﾀｼ","kana_address":"ﾁﾉﾈﾁｮｳ","pref":"茨城県","city":"常陸太田市","address":"茅根町"},
{"zip_code":"3110502","kana_pref":"ｲﾊﾞﾗｷｹﾝ","kana_city":"ﾋﾀﾁｵｵﾀｼ","kana_address":"ﾄｸﾀﾞﾁｮｳ","pref":"茨城県","city":"常陸太田市","address":"徳田町"},
{"zip_code":"3110314","kana_pref":"ｲﾊﾞﾗｷｹﾝ","kana_city":"ﾋﾀﾁｵｵﾀｼ","kana_address":"ﾆｼｺﾞｳﾄｶﾐﾁｮｳ","pref":"茨城県","city":"常陸太田市","address":"西河内上町"},
{"zip_code":"3110313","kana_pref":"ｲﾊﾞﾗｷｹﾝ","kana_city":"ﾋﾀﾁｵｵﾀｼ","kana_address":"ﾆｼｺﾞｳﾄﾅｶﾁｮｳ","pref":"茨城県","city":"常陸太田市","address":"西河内中町"},
{"zip_code":"3110312","kana_pref":"ｲﾊﾞﾗｷｹﾝ","kana_city":"ﾋﾀﾁｵｵﾀｼ","kana_address":"ﾆｼｺﾞｳﾄｼﾓﾁｮｳ","pref":"茨城県","city":"常陸太田市","address":"西河内下町"},
{"zip_code":"3110321","kana_pref":"ｲﾊﾞﾗｷｹﾝ","kana_city":"ﾋﾀﾁｵｵﾀｼ","kana_address":"ﾊﾙﾄﾓﾁｮｳ","pref":"茨城県","city":"常陸太田市","address":"春友町"},
{"zip_code":"3110311","kana_pref":"ｲﾊﾞﾗｷｹﾝ","kana_city":"ﾋﾀﾁｵｵﾀｼ","kana_address":"ﾏﾁﾔﾁｮｳ","pref":"茨城県","city":"常陸太田市","address":"町屋町"},
{"zip_code":"3111241","kana_pref":"ｲﾊﾞﾗｷｹﾝ","kana_city":"ﾋﾀﾁﾅｶｼ","kana_address":"ｱｶｻｶ","pref":"茨城県","city":"ひたちなか市","address":"赤坂"},
{"zip_code":"3111264","kana_pref":"ｲﾊﾞﾗｷｹﾝ","kana_city":"ﾋﾀﾁﾅｶｼ","kana_address":"ｱｻｲﾅｲ","pref":"茨城県","city":"ひたちなか市","address":"浅井内"},
{"zip_code":"3111201","kana_pref":"ｲﾊﾞﾗｷｹﾝ","kana_city":"ﾋﾀﾁﾅｶｼ","kana_address":"ｱｼﾞｶﾞｳﾗﾁｮｳ","pref":"茨城県","city":"ひたちなか市","address":"阿字ケ浦町"},
{"zip_code":"3111255","kana_pref":"ｲﾊﾞﾗｷｹﾝ","kana_city":"ﾋﾀﾁﾅｶｼ","kana_address":"ｱﾒｻﾞﾜﾔﾂ","pref":"茨城県","city":"ひたちなか市","address":"雨沢谷津"},
{"zip_code":"3111202","kana_pref":"ｲﾊﾞﾗｷｹﾝ","kana_city":"ﾋﾀﾁﾅｶｼ","kana_address":"ｲｿｻﾞｷﾁｮｳ","pref":"茨城県","city":"ひたちなか市","address":"磯崎町"},
{"zip_code":"3111213","kana_pref":"ｲﾊﾞﾗｷｹﾝ","kana_city":"ﾋﾀﾁﾅｶｼ","kana_address":"ｳｼｸﾎﾞ","pref":"茨城県","city":"ひたちなか市","address":"牛久保"},
{"zip_code":"3111263","kana_pref":"ｲﾊﾞﾗｷｹﾝ","kana_city":"ﾋﾀﾁﾅｶｼ","kana_address":"ｵｼｮｳﾂｶ","pref":"茨城県","city":"ひたちなか市","address":"和尚塚"},
{"zip_code":"3111222","kana_pref":"ｲﾊﾞﾗｷｹﾝ","kana_city":"ﾋﾀﾁﾅｶｼ","kana_address":"ｶｲﾓﾝﾁｮｳ","pref":"茨城県","city":"ひたちなか市","address":"海門町"},
{"zip_code":"3111207","kana_pref":"ｲﾊﾞﾗｷｹﾝ","kana_city":"ﾋﾀﾁﾅｶｼ","kana_address":"ｶﾗｽｶﾞﾀﾞｲ","pref":"茨城県","city":"ひたちなか市","address":"烏ケ台"},
{"zip_code":"3111243","kana_pref":"ｲﾊﾞﾗｷｹﾝ","kana_city":"ﾋﾀﾁﾅｶｼ","kana_address":"ｷﾀｶﾐｼｷﾀﾞｲ","pref":"茨城県","city":"ひたちなか市","address":"北神敷台"},
{"zip_code":"3111236","kana_pref":"ｲﾊﾞﾗｷｹﾝ","kana_city":"ﾋﾀﾁﾅｶｼ","kana_address":"ｺｸｼﾞﾝﾏｴ","pref":"茨城県","city":"ひたちなか市","address":"国神前"},
{"zip_code":"3111253","kana_pref":"ｲﾊﾞﾗｷｹﾝ","kana_city":"ﾋﾀﾁﾅｶｼ","kana_address":"ｺﾔｶﾞﾈ","pref":"茨城県","city":"ひたちなか市","address":"小谷金"},
{"zip_code":"3111226","kana_pref":"ｲﾊﾞﾗｷｹﾝ","kana_city":"ﾋﾀﾁﾅｶｼ","kana_address":"ｻｲﾜｲﾁｮｳ","pref":"茨城県","city":"ひたちなか市","address":"幸町"},
{"zip_code":"3111223","kana_pref":"ｲﾊﾞﾗｷｹﾝ","kana_city":"ﾋﾀﾁﾅｶｼ","kana_address":"ｻｶｴﾁｮｳ","pref":"茨城県","city":"ひたちなか市","address":"栄町"},
{"zip_code":"3111211","kana_pref":"ｲﾊﾞﾗｷｹﾝ","kana_city":"ﾋﾀﾁﾅｶｼ","kana_address":"ｻﾜﾒｷ","pref":"茨城県","city":"ひたちなか市","address":"沢メキ"},
{"zip_code":"3111247","kana_pref":"ｲﾊﾞﾗｷｹﾝ","kana_city":"ﾋﾀﾁﾅｶｼ","kana_address":"ｼｼﾞｭｳﾎﾂｸ","pref":"茨城県","city":"ひたちなか市","address":"四十発句"},
{"zip_code":"3111225","kana_pref":"ｲﾊﾞﾗｷｹﾝ","kana_city":"ﾋﾀﾁﾅｶｼ","kana_address":"ｼｬｶﾏﾁ","pref":"茨城県","city":"ひたちなか市","address":"釈迦町"},
{"zip_code":"3111205","kana_pref":"ｲﾊﾞﾗｷｹﾝ","kana_city":"ﾋﾀﾁﾅｶｼ","kana_address":"ｼﾞｭｳｻﾝﾌﾞｷﾞｮｳ","pref":"茨城県","city":"ひたちなか市","address":"十三奉行"},
{"zip_code":"3111237","kana_pref":"ｲﾊﾞﾗｷｹﾝ","kana_city":"ﾋﾀﾁﾅｶｼ","kana_address":"ｾｷﾄﾞ","pref":"茨城県","city":"ひたちなか市","address":"関戸"},
{"zip_code":"3111246","kana_pref":"ｲﾊﾞﾗｷｹﾝ","kana_city":"ﾋﾀﾁﾅｶｼ","kana_address":"ｿｳｶﾞﾈﾁｮｳ","pref":"茨城県","city":"ひたちなか市","address":"相金町"},
{"zip_code":"3111245","kana_pref":"ｲﾊﾞﾗｷｹﾝ","kana_city":"ﾋﾀﾁﾅｶｼ","kana_address":"ﾀﾃﾔﾏ","pref":"茨城県","city":"ひたちなか市","address":"館山"},
{"zip_code":"3111235","kana_pref":"ｲﾊﾞﾗｷｹﾝ","kana_city":"ﾋﾀﾁﾅｶｼ","kana_address":"ﾀﾅｶｳｼﾛ","pref":"茨城県","city":"ひたちなか市","address":"田中後"},
{"zip_code":"3111248","kana_pref":"ｲﾊﾞﾗｷｹﾝ","kana_city":"ﾋﾀﾁﾅｶｼ","kana_address":"ﾀﾐﾔﾊﾗ","pref":"茨城県","city":"ひたちなか市","address":"田宮原"},
{"zip_code":"3111261","kana_pref":"ｲﾊﾞﾗｷｹﾝ","kana_city":"ﾋﾀﾁﾅｶｼ","kana_address":"ﾂﾙｼﾛ","pref":"茨城県","city":"ひたちなか市","address":"鶴代"},
{"zip_code":"3111227","kana_pref":"ｲﾊﾞﾗｷｹﾝ","kana_city":"ﾋﾀﾁﾅｶｼ","kana_address":"ﾄﾞｳｼﾀﾁｮｳ","pref":"茨城県","city":"ひたちなか市","address":"洞下町"},
{"zip_code":"3111262","kana_pref":"ｲﾊﾞﾗｷｹﾝ","kana_city":"ﾋﾀﾁﾅｶｼ","kana_address":"ﾄﾞｳﾒｷ","pref":"茨城県","city":"ひたちなか市","address":"道メキ"},
{"zip_code":"3111212","kana_pref":"ｲﾊﾞﾗｷｹﾝ","kana_city":"ﾋﾀﾁﾅｶｼ","kana_address":"ﾄﾉﾔﾏﾁｮｳ","pref":"茨城県","city":"ひたちなか市","address":"殿山町"},
{"zip_code":"3111254","kana_pref":"ｲﾊﾞﾗｷｹﾝ","kana_city":"ﾋﾀﾁﾅｶｼ","kana_address":"ﾆｲﾂﾞﾂﾐ","pref":"茨城県","city":"ひたちなか市","address":"新堤"},
{"zip_code":"3111242","kana_pref":"ｲﾊﾞﾗｷｹﾝ","kana_city":"ﾋﾀﾁﾅｶｼ","kana_address":"ﾆｼｱｶｻｶ","pref":"茨城県","city":"ひたちなか市","address":"西赤坂"},
{"zip_code":"3111206","kana_pref":"ｲﾊﾞﾗｷｹﾝ","kana_city":"ﾋﾀﾁﾅｶｼ","kana_address":"ﾆｼｼﾞｭｳｻﾝﾌﾞｷﾞｮｳ","pref":"茨城県","city":"ひたちなか市","address":"西十三奉行"},
{"zip_code":"3111228","kana_pref":"ｲﾊﾞﾗｷｹﾝ","kana_city":"ﾋﾀﾁﾅｶｼ","kana_address":"ﾊﾁﾏﾝﾁｮｳ","pref":"茨城県","city":"ひたちなか市","address":"八幡町"},
{"zip_code":"3111215","kana_pref":"ｲﾊﾞﾗｷｹﾝ","kana_city":"ﾋﾀﾁﾅｶｼ","kana_address":"ﾋｶﾞｼﾎﾝﾁｮｳ","pref":"茨城県","city":"ひたちなか市","address":"東本町"},
{"zip_code":"3111203","kana_pref":"ｲﾊﾞﾗｷｹﾝ","kana_city":"ﾋﾀﾁﾅｶｼ","kana_address":"ﾋﾗｲｿﾁｮｳ","pref":"茨城県","city":"ひたちなか市","address":"平磯町"},
{"zip_code":"3111204","kana_pref":"ｲﾊﾞﾗｷｹﾝ","kana_city":"ﾋﾀﾁﾅｶｼ","kana_address":"ﾋﾗｲｿﾄｵﾊﾗﾁｮｳ","pref":"茨城県","city":"ひたちなか市","address":"平磯遠原町"},
{"zip_code":"3111218","kana_pref":"ｲﾊﾞﾗｷｹﾝ","kana_city":"ﾋﾀﾁﾅｶｼ","kana_address":"ﾌｼﾞﾉｳｴ","pref":"茨城県","city":"ひたちなか市","address":"富士ノ上"},
{"zip_code":"3111217","kana_pref":"ｲﾊﾞﾗｷｹﾝ","kana_city":"ﾋﾀﾁﾅｶｼ","kana_address":"ﾌｼﾞﾉｼﾀ","pref":"茨城県","city":"ひたちなか市","address":"富士ノ下"},
{"zip_code":"3111266","kana_pref":"ｲﾊﾞﾗｷｹﾝ","kana_city":"ﾋﾀﾁﾅｶｼ","kana_address":"ﾌﾅｸﾎﾞ","pref":"茨城県","city":"ひたちなか市","address":"船窪"},
{"zip_code":"3111252","kana_pref":"ｲﾊﾞﾗｷｹﾝ","kana_city":"ﾋﾀﾁﾅｶｼ","kana_address":"ﾍﾀﾉ","pref":"茨城県","city":"ひたちなか市","address":"部田野"},
{"zip_code":"3111233","kana_pref":"ｲﾊﾞﾗｷｹﾝ","kana_city":"ﾋﾀﾁﾅｶｼ","kana_address":"ﾎﾘｶﾜ","pref":"茨城県","city":"ひたちなか市","address":"堀川"},
{"zip_code":"3111267","kana_pref":"ｲﾊﾞﾗｷｹﾝ","kana_city":"ﾋﾀﾁﾅｶｼ","kana_address":"ﾏﾜﾘﾒ","pref":"茨城県","city":"ひたちなか市","address":"廻り目"},
{"zip_code":"3111238","kana_pref":"ｲﾊﾞﾗｷｹﾝ","kana_city":"ﾋﾀﾁﾅｶｼ","kana_address":"ﾐﾀﾀﾞﾁｮｳ","pref":"茨城県","city":"ひたちなか市","address":"美田多町"},
{"zip_code":"3111216","kana_pref":"ｲﾊﾞﾗｷｹﾝ","kana_city":"ﾋﾀﾁﾅｶｼ","kana_address":"ﾐﾅﾄｲｽﾞﾐﾁｮｳ","pref":"茨城県","city":"ひたちなか市","address":"湊泉町"},
{"zip_code":"3111229","kana_pref":"ｲﾊﾞﾗｷｹﾝ","kana_city":"ﾋﾀﾁﾅｶｼ","kana_address":"ﾐﾅﾄﾁｭｳｵｳ","pref":"茨城県","city":"ひたちなか市","address":"湊中央"},
{"zip_code":"3111268","kana_pref":"ｲﾊﾞﾗｷｹﾝ","kana_city":"ﾋﾀﾁﾅｶｼ","kana_address":"ﾐﾅﾄﾅｶﾊﾗ","pref":"茨城県","city":"ひたちなか市","address":"湊中原"},
{"zip_code":"3111221","kana_pref":"ｲﾊﾞﾗｷｹﾝ","kana_city":"ﾋﾀﾁﾅｶｼ","kana_address":"ﾐﾅﾄﾎﾝﾁｮｳ","pref":"茨城県","city":"ひたちなか市","address":"湊本町"},
{"zip_code":"3111244","kana_pref":"ｲﾊﾞﾗｷｹﾝ","kana_city":"ﾋﾀﾁﾅｶｼ","kana_address":"ﾐﾅﾐｶﾐｼｷﾀﾞｲ","pref":"茨城県","city":"ひたちなか市","address":"南神敷台"},
{"zip_code":"3111234","kana_pref":"ｲﾊﾞﾗｷｹﾝ","kana_city":"ﾋﾀﾁﾅｶｼ","kana_address":"ﾐﾈｳｼﾛ","pref":"茨城県","city":"ひたちなか市","address":"峰後"},
{"zip_code":"3111265","kana_pref":"ｲﾊﾞﾗｷｹﾝ","kana_city":"ﾋﾀﾁﾅｶｼ","kana_address":"ﾑｼﾞﾅﾔﾂ","pref":"茨城県","city":"ひたちなか市","address":"狢谷津"},
{"zip_code":"3111232","kana_pref":"ｲﾊﾞﾗｷｹﾝ","kana_city":"ﾋﾀﾁﾅｶｼ","kana_address":"ﾔﾅｷﾞｶﾞｵｶ","pref":"茨城県","city":"ひたちなか市","address":"柳が丘"},
{"zip_code":"3111231","kana_pref":"ｲﾊﾞﾗｷｹﾝ","kana_city":"ﾋﾀﾁﾅｶｼ","kana_address":"ﾔﾅｷﾞｻﾜ","pref":"茨城県","city":"ひたちなか市","address":"柳沢"},
{"zip_code":"3111251","kana_pref":"ｲﾊﾞﾗｷｹﾝ","kana_city":"ﾋﾀﾁﾅｶｼ","kana_address":"ﾔﾏｻﾞｷ","pref":"茨城県","city":"ひたちなか市","address":"山崎"},
{"zip_code":"3111224","kana_pref":"ｲﾊﾞﾗｷｹﾝ","kana_city":"ﾋﾀﾁﾅｶｼ","kana_address":"ﾔﾏﾉｳｴﾁｮｳ","pref":"茨城県","city":"ひたちなか市","address":"山ノ上町"},
{"zip_code":"3111214","kana_pref":"ｲﾊﾞﾗｷｹﾝ","kana_city":"ﾋﾀﾁﾅｶｼ","kana_address":"ﾜﾀﾞﾁｮｳ","pref":"茨城県","city":"ひたちなか市","address":"和田町"},
{"zip_code":"3112211","kana_pref":"ｲﾊﾞﾗｷｹﾝ","kana_city":"ｶｼﾏｼ","kana_address":"ｱｵﾂｶ","pref":"茨城県","city":"鹿嶋市","address":"青塚"},
{"zip_code":"3112204","kana_pref":"ｲﾊﾞﾗｷｹﾝ","kana_city":"ｶｼﾏｼ","kana_address":"ｱﾗｲ","pref":"茨城県","city":"鹿嶋市","address":"荒井"},
{"zip_code":"3112215","kana_pref":"ｲﾊﾞﾗｷｹﾝ","kana_city":"ｶｼﾏｼ","kana_address":"ｶｽﾞ","pref":"茨城県","city":"鹿嶋市","address":"和"},
{"zip_code":"3112221","kana_pref":"ｲﾊﾞﾗｷｹﾝ","kana_city":"ｶｼﾏｼ","kana_address":"ｺｳﾔ","pref":"茨城県","city":"鹿嶋市","address":"荒野"},
{"zip_code":"3112222","kana_pref":"ｲﾊﾞﾗｷｹﾝ","kana_city":"ｶｼﾏｼ","kana_address":"ｺﾔﾏ","pref":"茨城県","city":"鹿嶋市","address":"小山"},
{"zip_code":"3112207","kana_pref":"ｲﾊﾞﾗｷｹﾝ","kana_city":"ｶｼﾏｼ","kana_address":"ｼｻﾞｷ","pref":"茨城県","city":"鹿嶋市","address":"志崎"},
{"zip_code":"3112201","kana_pref":"ｲﾊﾞﾗｷｹﾝ","kana_city":"ｶｼﾏｼ","kana_address":"ﾀﾞｲｼｮｳｼｻﾞｷ","pref":"茨城県","city":"鹿嶋市","address":"大小志崎"},
{"zip_code":"3112206","kana_pref":"ｲﾊﾞﾗｷｹﾝ","kana_city":"ｶｼﾏｼ","kana_address":"ﾀｹｲ","pref":"茨城県","city":"鹿嶋市","address":"武井"},
{"zip_code":"3112202","kana_pref":"ｲﾊﾞﾗｷｹﾝ","kana_city":"ｶｼﾏｼ","kana_address":"ﾀｹｲｶﾞﾏ","pref":"茨城県","city":"鹿嶋市","address":"武井釜"},
{"zip_code":"3112214","kana_pref":"ｲﾊﾞﾗｷｹﾝ","kana_city":"ｶｼﾏｼ","kana_address":"ﾀﾅｷﾞ","pref":"茨城県","city":"鹿嶋市","address":"棚木"},
{"zip_code":"3112205","kana_pref":"ｲﾊﾞﾗｷｹﾝ","kana_city":"ｶｼﾏｼ","kana_address":"ﾂｶﾞ","pref":"茨城県","city":"鹿嶋市","address":"津賀"},
{"zip_code":"3112212","kana_pref":"ｲﾊﾞﾗｷｹﾝ","kana_city":"ｶｼﾏｼ","kana_address":"ﾂﾉｵﾚ","pref":"茨城県","city":"鹿嶋市","address":"角折"},
{"zip_code":"3112213","kana_pref":"ｲﾊﾞﾗｷｹﾝ","kana_city":"ｶｼﾏｼ","kana_address":"ﾅｶ","pref":"茨城県","city":"鹿嶋市","address":"中"},
{"zip_code":"3112224","kana_pref":"ｲﾊﾞﾗｷｹﾝ","kana_city":"ｶｼﾏｼ","kana_address":"ﾅﾗｹﾞ","pref":"茨城県","city":"鹿嶋市","address":"奈良毛"},
{"zip_code":"3112203","kana_pref":"ｲﾊﾞﾗｷｹﾝ","kana_city":"ｶｼﾏｼ","kana_address":"ﾊﾏﾂｶﾞ","pref":"茨城県","city":"鹿嶋市","address":"浜津賀"},
{"zip_code":"3112223","kana_pref":"ｲﾊﾞﾗｷｹﾝ","kana_city":"ｶｼﾏｼ","kana_address":"ﾊﾔｼ","pref":"茨城県","city":"鹿嶋市","address":"林"},
{"zip_code":"3112400","kana_pref":"ｲﾊﾞﾗｷｹﾝ","kana_city":"ｲﾀｺｼ","kana_address":"","pref":"茨城県","city":"潮来市","address":""},
{"zip_code":"3112425","kana_pref":"ｲﾊﾞﾗｷｹﾝ","kana_city":"ｲﾀｺｼ","kana_address":"ｱﾔﾒ","pref":"茨城県","city":"潮来市","address":"あやめ"},
{"zip_code":"3112424","kana_pref":"ｲﾊﾞﾗｷｹﾝ","kana_city":"ｲﾀｺｼ","kana_address":"ｲﾀｺ","pref":"茨城県","city":"潮来市","address":"潮来"},
{"zip_code":"3112436","kana_pref":"ｲﾊﾞﾗｷｹﾝ","kana_city":"ｲﾀｺｼ","kana_address":"ｳｼﾎﾞﾘ","pref":"茨城県","city":"潮来市","address":"牛堀"},
{"zip_code":"3112435","kana_pref":"ｲﾊﾞﾗｷｹﾝ","kana_city":"ｲﾀｺｼ","kana_address":"ｳﾜﾄ","pref":"茨城県","city":"潮来市","address":"上戸"},
{"zip_code":"3112402","kana_pref":"ｲﾊﾞﾗｷｹﾝ","kana_city":"ｲﾀｺｼ","kana_address":"ｵｵｳ","pref":"茨城県","city":"潮来市","address":"大生"},
{"zip_code":"3112401","kana_pref":"ｲﾊﾞﾗｷｹﾝ","kana_city":"ｲﾀｺｼ","kana_address":"ｵｵｶﾞ","pref":"茨城県","city":"潮来市","address":"大賀"},
{"zip_code":"3112422","kana_pref":"ｲﾊﾞﾗｷｹﾝ","kana_city":"ｲﾀｺｼ","kana_address":"ｵｵｽ","pref":"茨城県","city":"潮来市","address":"大洲"},
{"zip_code":"3112426","kana_pref":"ｲﾊﾞﾗｷｹﾝ","kana_city":"ｲﾀｺｼ","kana_address":"ｵｵﾂｶﾉ","pref":"茨城県","city":"潮来市","address":"大塚野"},
{"zip_code":"3112441","kana_pref":"ｲﾊﾞﾗｷｹﾝ","kana_city":"ｲﾀｺｼ","kana_address":"ｵｵﾔﾏ","pref":"茨城県","city":"潮来市","address":"大山"},
{"zip_code":"3112403","kana_pref":"ｲﾊﾞﾗｷｹﾝ","kana_city":"ｲﾀｺｼ","kana_address":"ｶﾏﾔ","pref":"茨城県","city":"潮来市","address":"釜谷"},
{"zip_code":"3112440","kana_pref":"ｲﾊﾞﾗｷｹﾝ","kana_city":"ｲﾀｺｼ","kana_address":"ｶﾜｵ","pref":"茨城県","city":"潮来市","address":"川尾"},
{"zip_code":"3112431","kana_pref":"ｲﾊﾞﾗｷｹﾝ","kana_city":"ｲﾀｺｼ","kana_address":"ｷﾖﾐｽﾞ","pref":"茨城県","city":"潮来市","address":"清水"},
{"zip_code":"3112442","kana_pref":"ｲﾊﾞﾗｷｹﾝ","kana_city":"ｲﾀｺｼ","kana_address":"ｺｲｽﾞﾐ","pref":"茨城県","city":"潮来市","address":"小泉"},
{"zip_code":"3112444","kana_pref":"ｲﾊﾞﾗｷｹﾝ","kana_city":"ｲﾀｺｼ","kana_address":"ｺｲｽﾞﾐﾐﾅﾐ","pref":"茨城県","city":"潮来市","address":"小泉南"},
{"zip_code":"3112407","kana_pref":"ｲﾊﾞﾗｷｹﾝ","kana_city":"ｲﾀｺｼ","kana_address":"ｼﾀﾀﾞ","pref":"茨城県","city":"潮来市","address":"下田"},
{"zip_code":"3112434","kana_pref":"ｲﾊﾞﾗｷｹﾝ","kana_city":"ｲﾀｺｼ","kana_address":"ｼﾏｽ","pref":"茨城県","city":"潮来市","address":"島須"},
{"zip_code":"3112406","kana_pref":"ｲﾊﾞﾗｷｹﾝ","kana_city":"ｲﾀｺｼ","kana_address":"ｼﾝｸﾞｳ","pref":"茨城県","city":"潮来市","address":"新宮"},
{"zip_code":"3112443","kana_pref":"ｲﾊﾞﾗｷｹﾝ","kana_city":"ｲﾀｺｼ","kana_address":"ｼﾝｸﾞｳﾐﾅﾐ","pref":"茨城県","city":"潮来市","address":"新宮南"},
{"zip_code":"3112448","kana_pref":"ｲﾊﾞﾗｷｹﾝ","kana_city":"ｲﾀｺｼ","kana_address":"ｽｶ","pref":"茨城県","city":"潮来市","address":"須賀"},
{"zip_code":"3112446","kana_pref":"ｲﾊﾞﾗｷｹﾝ","kana_city":"ｲﾀｺｼ","kana_address":"ｽｶﾐﾅﾐ","pref":"茨城県","city":"潮来市","address":"須賀南"},
{"zip_code":"3112408","kana_pref":"ｲﾊﾞﾗｷｹﾝ","kana_city":"ｲﾀｺｼ","kana_address":"ｽｻｷ","pref":"茨城県","city":"潮来市","address":"洲崎"},
{"zip_code":"3112405","kana_pref":"ｲﾊﾞﾗｷｹﾝ","kana_city":"ｲﾀｺｼ","kana_address":"ﾂｲｼﾞ","pref":"茨城県","city":"潮来市","address":"築地"},
{"zip_code":"3112421","kana_pref":"ｲﾊﾞﾗｷｹﾝ","kana_city":"ｲﾀｺｼ","kana_address":"ﾂｼﾞ","pref":"茨城県","city":"潮来市","address":"辻"},
{"zip_code":"3112418","kana_pref":"ｲﾊﾞﾗｷｹﾝ","kana_city":"ｲﾀｺｼ","kana_address":"ﾄｸｼﾏ","pref":"茨城県","city":"潮来市","address":"徳島"},
{"zip_code":"3112437","kana_pref":"ｲﾊﾞﾗｷｹﾝ","kana_city":"ｲﾀｺｼ","kana_address":"ﾅｶﾞﾔﾏ","pref":"茨城県","city":"潮来市","address":"永山"},
{"zip_code":"3112415","kana_pref":"ｲﾊﾞﾗｷｹﾝ","kana_city":"ｲﾀｺｼ","kana_address":"ﾉﾌﾞｶﾀ","pref":"茨城県","city":"潮来市","address":"延方"},
{"zip_code":"3112409","kana_pref":"ｲﾊﾞﾗｷｹﾝ","kana_city":"ｲﾀｺｼ","kana_address":"ﾉﾌﾞｶﾀﾋｶﾞｼ","pref":"茨城県","city":"潮来市","address":"延方東"},
{"zip_code":"3112410","kana_pref":"ｲﾊﾞﾗｷｹﾝ","kana_city":"ｲﾀｺｼ","kana_address":"ﾉﾌﾞｶﾀﾆｼ","pref":"茨城県","city":"潮来市","address":"延方西"},
{"zip_code":"3112423","kana_pref":"ｲﾊﾞﾗｷｹﾝ","kana_city":"ｲﾀｺｼ","kana_address":"ﾋﾉﾃﾞ","pref":"茨城県","city":"潮来市","address":"日の出"},
{"zip_code":"3112419","kana_pref":"ｲﾊﾞﾗｷｹﾝ","kana_city":"ｲﾀｺｼ","kana_address":"ﾌｸｼﾏ","pref":"茨城県","city":"潮来市","address":"福島"},
{"zip_code":"3112449","kana_pref":"ｲﾊﾞﾗｷｹﾝ","kana_city":"ｲﾀｺｼ","kana_address":"ﾌｯﾀｶ","pref":"茨城県","city":"潮来市","address":"古高"},
{"zip_code":"3112433","kana_pref":"ｲﾊﾞﾗｷｹﾝ","kana_city":"ｲﾀｺｼ","kana_address":"ﾎﾘﾉｳﾁ","pref":"茨城県","city":"潮来市","address":"堀之内"},
{"zip_code":"3112416","kana_pref":"ｲﾊﾞﾗｷｹﾝ","kana_city":"ｲﾀｺｼ","kana_address":"ﾏｴｶﾜ","pref":"茨城県","city":"潮来市","address":"前川"},
{"zip_code":"3112447","kana_pref":"ｲﾊﾞﾗｷｹﾝ","kana_city":"ｲﾀｺｼ","kana_address":"ﾏｶﾞﾘﾏﾂ","pref":"茨城県","city":"潮来市","address":"曲松"},
{"zip_code":"3112445","kana_pref":"ｲﾊﾞﾗｷｹﾝ","kana_city":"ｲﾀｺｼ","kana_address":"ﾏｶﾞﾘﾏﾂﾐﾅﾐ","pref":"茨城県","city":"潮来市","address":"曲松南"},
{"zip_code":"3112404","kana_pref":"ｲﾊﾞﾗｷｹﾝ","kana_city":"ｲﾀｺｼ","kana_address":"ﾐｽﾞﾊﾗ","pref":"茨城県","city":"潮来市","address":"水原"},
{"zip_code":"3112412","kana_pref":"ｲﾊﾞﾗｷｹﾝ","kana_city":"ｲﾀｺｼ","kana_address":"ﾐﾔﾏｴ","pref":"茨城県","city":"潮来市","address":"宮前"},
{"zip_code":"3112432","kana_pref":"ｲﾊﾞﾗｷｹﾝ","kana_city":"ｲﾀｺｼ","kana_address":"ﾓﾄｷﾞ","pref":"茨城県","city":"潮来市","address":"茂木"},
{"zip_code":"3112417","kana_pref":"ｲﾊﾞﾗｷｹﾝ","kana_city":"ｲﾀｺｼ","kana_address":"ﾖﾈｼﾞﾏ","pref":"茨城県","city":"潮来市","address":"米島"},
{"zip_code":"3114611","kana_pref":"ｲﾊﾞﾗｷｹﾝ","kana_city":"ﾋﾀﾁｵｵﾐﾔｼ","kana_address":"ｱｷﾀ","pref":"茨城県","city":"常陸大宮市","address":"秋田"},
{"zip_code":"3114501","kana_pref":"ｲﾊﾞﾗｷｹﾝ","kana_city":"ﾋﾀﾁｵｵﾐﾔｼ","kana_address":"ｶﾄﾞｲ","pref":"茨城県","city":"常陸大宮市","address":"門井"},
{"zip_code":"3114614","kana_pref":"ｲﾊﾞﾗｷｹﾝ","kana_city":"ﾋﾀﾁｵｵﾐﾔｼ","kana_address":"ｶﾅｲ","pref":"茨城県","city":"常陸大宮市","address":"金井"},
{"zip_code":"3114617","kana_pref":"ｲﾊﾞﾗｷｹﾝ","kana_city":"ﾋﾀﾁｵｵﾐﾔｼ","kana_address":"ｶﾐｲｾﾊﾀ","pref":"茨城県","city":"常陸大宮市","address":"上伊勢畑"},
{"zip_code":"3114615","kana_pref":"ｲﾊﾞﾗｷｹﾝ","kana_city":"ﾋﾀﾁｵｵﾐﾔｼ","kana_address":"ｼﾓｲｾﾊﾀ","pref":"茨城県","city":"常陸大宮市","address":"下伊勢畑"},
{"zip_code":"3114612","kana_pref":"ｲﾊﾞﾗｷｹﾝ","kana_city":"ﾋﾀﾁｵｵﾐﾔｼ","kana_address":"ﾅｶｲ","pref":"茨城県","city":"常陸大宮市","address":"中居"},
{"zip_code":"3114613","kana_pref":"ｲﾊﾞﾗｷｹﾝ","kana_city":"ﾋﾀﾁｵｵﾐﾔｼ","kana_address":"ﾅｶﾞｸﾗ","pref":"茨城県","city":"常陸大宮市","address":"長倉"},
{"zip_code":"3114503","kana_pref":"ｲﾊﾞﾗｷｹﾝ","kana_city":"ﾋﾀﾁｵｵﾐﾔｼ","kana_address":"ﾉｸﾞﾁ","pref":"茨城県","city":"常陸大宮市","address":"野口"},
{"zip_code":"3114502","kana_pref":"ｲﾊﾞﾗｷｹﾝ","kana_city":"ﾋﾀﾁｵｵﾐﾔｼ","kana_address":"ﾉｸﾞﾁﾀﾞｲﾗ","pref":"茨城県","city":"常陸大宮市","address":"野口平"},
{"zip_code":"3114618","kana_pref":"ｲﾊﾞﾗｷｹﾝ","kana_city":"ﾋﾀﾁｵｵﾐﾔｼ","kana_address":"ﾉﾀﾞ","pref":"茨城県","city":"常陸大宮市","address":"野田"},
{"zip_code":"3114616","kana_pref":"ｲﾊﾞﾗｷｹﾝ","kana_city":"ﾋﾀﾁｵｵﾐﾔｼ","kana_address":"ﾋﾔﾏ","pref":"茨城県","city":"常陸大宮市","address":"桧山"},
{"zip_code":"3110100","kana_pref":"ｲﾊﾞﾗｷｹﾝ","kana_city":"ﾅｶｼ","kana_address":"","pref":"茨城県","city":"那珂市","address":""},
{"zip_code":"3110134","kana_pref":"ｲﾊﾞﾗｷｹﾝ","kana_city":"ﾅｶｼ","kana_address":"ｲｲﾀﾞ","pref":"茨城県","city":"那珂市","address":"飯田"},
{"zip_code":"3110125","kana_pref":"ｲﾊﾞﾗｷｹﾝ","kana_city":"ﾅｶｼ","kana_address":"ｵｵｳﾁ","pref":"茨城県","city":"那珂市","address":"大内"},
{"zip_code":"3110135","kana_pref":"ｲﾊﾞﾗｷｹﾝ","kana_city":"ﾅｶｼ","kana_address":"ｶｼﾏ","pref":"茨城県","city":"那珂市","address":"鹿島"},
{"zip_code":"3110136","kana_pref":"ｲﾊﾞﾗｷｹﾝ","kana_city":"ﾅｶｼ","kana_address":"ｶﾄﾍﾞ","pref":"茨城県","city":"那珂市","address":"門部"},
{"zip_code":"3110116","kana_pref":"ｲﾊﾞﾗｷｹﾝ","kana_city":"ﾅｶｼ","kana_address":"ｶﾐｶﾞﾁ","pref":"茨城県","city":"那珂市","address":"上河内"},
{"zip_code":"3110123","kana_pref":"ｲﾊﾞﾗｷｹﾝ","kana_city":"ﾅｶｼ","kana_address":"ｶﾐｸﾆｲ","pref":"茨城県","city":"那珂市","address":"上国井"},
{"zip_code":"3110131","kana_pref":"ｲﾊﾞﾗｷｹﾝ","kana_city":"ﾅｶｼ","kana_address":"ｷﾀｻｶｲﾃﾞ","pref":"茨城県","city":"那珂市","address":"北酒出"},
{"zip_code":"3110133","kana_pref":"ｲﾊﾞﾗｷｹﾝ","kana_city":"ﾅｶｼ","kana_address":"ｺｳﾉｽ","pref":"茨城県","city":"那珂市","address":"鴻巣"},
{"zip_code":"3110111","kana_pref":"ｲﾊﾞﾗｷｹﾝ","kana_city":"ﾅｶｼ","kana_address":"ｺﾞﾀﾞｲ","pref":"茨城県","city":"那珂市","address":"後台"},
{"zip_code":"3110126","kana_pref":"ｲﾊﾞﾗｷｹﾝ","kana_city":"ﾅｶｼ","kana_address":"ｼﾓｴﾄﾞ","pref":"茨城県","city":"那珂市","address":"下江戸"},
{"zip_code":"3110105","kana_pref":"ｲﾊﾞﾗｷｹﾝ","kana_city":"ﾅｶｼ","kana_address":"ｽｶﾞﾔ","pref":"茨城県","city":"那珂市","address":"菅谷"},
{"zip_code":"3110106","kana_pref":"ｲﾊﾞﾗｷｹﾝ","kana_city":"ﾅｶｼ","kana_address":"ｽｷﾞ","pref":"茨城県","city":"那珂市","address":"杉"},
{"zip_code":"3110110","kana_pref":"ｲﾊﾞﾗｷｹﾝ","kana_city":"ﾅｶｼ","kana_address":"ﾀｹﾉｳﾁ","pref":"茨城県","city":"那珂市","address":"竹ノ内"},
{"zip_code":"3110124","kana_pref":"ｲﾊﾞﾗｷｹﾝ","kana_city":"ﾅｶｼ","kana_address":"ﾀｻｷ","pref":"茨城県","city":"那珂市","address":"田崎"},
{"zip_code":"3110112","kana_pref":"ｲﾊﾞﾗｷｹﾝ","kana_city":"ﾅｶｼ","kana_address":"ﾂﾀﾞ","pref":"茨城県","city":"那珂市","address":"津田"},
{"zip_code":"3110104","kana_pref":"ｲﾊﾞﾗｷｹﾝ","kana_city":"ﾅｶｼ","kana_address":"ﾂﾂﾐ","pref":"茨城県","city":"那珂市","address":"堤"},
{"zip_code":"3110122","kana_pref":"ｲﾊﾞﾗｷｹﾝ","kana_city":"ﾅｶｼ","kana_address":"ﾄ","pref":"茨城県","city":"那珂市","address":"戸"},
{"zip_code":"3110121","kana_pref":"ｲﾊﾞﾗｷｹﾝ","kana_city":"ﾅｶｼ","kana_address":"ﾄｻﾞｷ","pref":"茨城県","city":"那珂市","address":"戸崎"},
{"zip_code":"3110117","kana_pref":"ｲﾊﾞﾗｷｹﾝ","kana_city":"ﾅｶｼ","kana_address":"ﾄﾖﾊﾞﾐ","pref":"茨城県","city":"那珂市","address":"豊喰"},
{"zip_code":"3110113","kana_pref":"ｲﾊﾞﾗｷｹﾝ","kana_city":"ﾅｶｼ","kana_address":"ﾅｶﾀﾞｲ","pref":"茨城県","city":"那珂市","address":"中台"},
{"zip_code":"3110115","kana_pref":"ｲﾊﾞﾗｷｹﾝ","kana_city":"ﾅｶｼ","kana_address":"ﾆｼｷﾉｸﾗ","pref":"茨城県","city":"那珂市","address":"西木倉"},
{"zip_code":"3110108","kana_pref":"ｲﾊﾞﾗｷｹﾝ","kana_city":"ﾅｶｼ","kana_address":"ﾇｶﾀﾞｷﾀｺﾞｳ","pref":"茨城県","city":"那珂市","address":"額田北郷"},
{"zip_code":"3110109","kana_pref":"ｲﾊﾞﾗｷｹﾝ","kana_city":"ﾅｶｼ","kana_address":"ﾇｶﾀﾞﾋｶﾞｼｺﾞｳ","pref":"茨城県","city":"那珂市","address":"額田東郷"},
{"zip_code":"3110107","kana_pref":"ｲﾊﾞﾗｷｹﾝ","kana_city":"ﾅｶｼ","kana_address":"ﾇｶﾀﾞﾐﾅﾐｺﾞｳ","pref":"茨城県","city":"那珂市","address":"額田南郷"},
{"zip_code":"3110114","kana_pref":"ｲﾊﾞﾗｷｹﾝ","kana_city":"ﾅｶｼ","kana_address":"ﾋｶﾞｼｷﾉｸﾗ","pref":"茨城県","city":"那珂市","address":"東木倉"},
{"zip_code":"3110118","kana_pref":"ｲﾊﾞﾗｷｹﾝ","kana_city":"ﾅｶｼ","kana_address":"ﾌｸﾀﾞ","pref":"茨城県","city":"那珂市","address":"福田"},
{"zip_code":"3110132","kana_pref":"ｲﾊﾞﾗｷｹﾝ","kana_city":"ﾅｶｼ","kana_address":"ﾐﾅﾐｻｶｲﾃﾞ","pref":"茨城県","city":"那珂市","address":"南酒出"},
{"zip_code":"3110102","kana_pref":"ｲﾊﾞﾗｷｹﾝ","kana_city":"ﾅｶｼ","kana_address":"ﾑｺｳﾔﾏ","pref":"茨城県","city":"那珂市","address":"向山"},
{"zip_code":"3110101","kana_pref":"ｲﾊﾞﾗｷｹﾝ","kana_city":"ﾅｶｼ","kana_address":"ﾓﾄｺﾒｻﾞｷ","pref":"茨城県","city":"那珂市","address":"本米崎"},
{"zip_code":"3110103","kana_pref":"ｲﾊﾞﾗｷｹﾝ","kana_city":"ﾅｶｼ","kana_address":"ﾖｺﾎﾞﾘ","pref":"茨城県","city":"那珂市","address":"横堀"},
{"zip_code":"3113800","kana_pref":"ｲﾊﾞﾗｷｹﾝ","kana_city":"ﾅﾒｶﾞﾀｼ","kana_address":"","pref":"茨城県","city":"行方市","address":""},
{"zip_code":"3113831","kana_pref":"ｲﾊﾞﾗｷｹﾝ","kana_city":"ﾅﾒｶﾞﾀｼ","kana_address":"ｱｵﾇﾏ","pref":"茨城県","city":"行方市","address":"青沼"},
{"zip_code":"3113832","kana_pref":"ｲﾊﾞﾗｷｹﾝ","kana_city":"ﾅﾒｶﾞﾀｼ","kana_address":"ｱｿｳ","pref":"茨城県","city":"行方市","address":"麻生"},
{"zip_code":"3113814","kana_pref":"ｲﾊﾞﾗｷｹﾝ","kana_city":"ﾅﾒｶﾞﾀｼ","kana_address":"ｱﾏｶﾞｹ","pref":"茨城県","city":"行方市","address":"天掛"},
{"zip_code":"3113518","kana_pref":"ｲﾊﾞﾗｷｹﾝ","kana_city":"ﾅﾒｶﾞﾀｼ","kana_address":"ｱﾗｼﾞｭｸ","pref":"茨城県","city":"行方市","address":"荒宿"},
{"zip_code":"3113803","kana_pref":"ｲﾊﾞﾗｷｹﾝ","kana_city":"ﾅﾒｶﾞﾀｼ","kana_address":"ｲｶﾞｲ","pref":"茨城県","city":"行方市","address":"井貝"},
{"zip_code":"3113827","kana_pref":"ｲﾊﾞﾗｷｹﾝ","kana_city":"ﾅﾒｶﾞﾀｼ","kana_address":"ｲｼｶﾞﾐ","pref":"茨城県","city":"行方市","address":"石神"},
{"zip_code":"3113817","kana_pref":"ｲﾊﾞﾗｷｹﾝ","kana_city":"ﾅﾒｶﾞﾀｼ","kana_address":"ｲﾀﾉﾐﾈ","pref":"茨城県","city":"行方市","address":"板峰"},
{"zip_code":"3113515","kana_pref":"ｲﾊﾞﾗｷｹﾝ","kana_city":"ﾅﾒｶﾞﾀｼ","kana_address":"ｲﾉｳｴ","pref":"茨城県","city":"行方市","address":"井上"},
{"zip_code":"3113516","kana_pref":"ｲﾊﾞﾗｷｹﾝ","kana_city":"ﾅﾒｶﾞﾀｼ","kana_address":"ｲﾉｳｴﾌｼﾞｲ","pref":"茨城県","city":"行方市","address":"井上藤井"},
{"zip_code":"3113824","kana_pref":"ｲﾊﾞﾗｷｹﾝ","kana_city":"ﾅﾒｶﾞﾀｼ","kana_address":"ｳｻﾞｷ","pref":"茨城県","city":"行方市","address":"宇崎"},
{"zip_code":"3111705","kana_pref":"ｲﾊﾞﾗｷｹﾝ","kana_city":"ﾅﾒｶﾞﾀｼ","kana_address":"ｳﾁｼﾞｭｸ","pref":"茨城県","city":"行方市","address":"内宿"},
{"zip_code":"3113822","kana_pref":"ｲﾊﾞﾗｷｹﾝ","kana_city":"ﾅﾒｶﾞﾀｼ","kana_address":"ｵｶ","pref":"茨城県","city":"行方市","address":"岡"},
{"zip_code":"3113508","kana_pref":"ｲﾊﾞﾗｷｹﾝ","kana_city":"ﾅﾒｶﾞﾀｼ","kana_address":"ｵｷｽ","pref":"茨城県","city":"行方市","address":"沖洲"},
{"zip_code":"3113802","kana_pref":"ｲﾊﾞﾗｷｹﾝ","kana_city":"ﾅﾒｶﾞﾀｼ","kana_address":"ｵｼﾀ","pref":"茨城県","city":"行方市","address":"於下"},
{"zip_code":"3113804","kana_pref":"ｲﾊﾞﾗｷｹﾝ","kana_city":"ﾅﾒｶﾞﾀｼ","kana_address":"ｵﾀﾞｶ","pref":"茨城県","city":"行方市","address":"小高"},
{"zip_code":"3111724","kana_pref":"ｲﾊﾞﾗｷｹﾝ","kana_city":"ﾅﾒｶﾞﾀｼ","kana_address":"ｵﾇｷ","pref":"茨城県","city":"行方市","address":"小貫"},
{"zip_code":"3111715","kana_pref":"ｲﾊﾞﾗｷｹﾝ","kana_city":"ﾅﾒｶﾞﾀｼ","kana_address":"ｵﾊﾞﾀ","pref":"茨城県","city":"行方市","address":"小幡"},
{"zip_code":"3111716","kana_pref":"ｲﾊﾞﾗｷｹﾝ","kana_city":"ﾅﾒｶﾞﾀｼ","kana_address":"ｷﾀﾀｶｵｶ","pref":"茨城県","city":"行方市","address":"北高岡"},
{"zip_code":"3113821","kana_pref":"ｲﾊﾞﾗｷｹﾝ","kana_city":"ﾅﾒｶﾞﾀｼ","kana_address":"ｸﾗｶﾜ","pref":"茨城県","city":"行方市","address":"蔵川"},
{"zip_code":"3113807","kana_pref":"ｲﾊﾞﾗｷｹﾝ","kana_city":"ﾅﾒｶﾞﾀｼ","kana_address":"ｺﾞﾁｮｳﾀﾞ","pref":"茨城県","city":"行方市","address":"五町田"},
{"zip_code":"3113816","kana_pref":"ｲﾊﾞﾗｷｹﾝ","kana_city":"ﾅﾒｶﾞﾀｼ","kana_address":"ｺﾏｷ","pref":"茨城県","city":"行方市","address":"小牧"},
{"zip_code":"3113813","kana_pref":"ｲﾊﾞﾗｷｹﾝ","kana_city":"ﾅﾒｶﾞﾀｼ","kana_address":"ｺﾓﾀ","pref":"茨城県","city":"行方市","address":"籠田"},
{"zip_code":"3113514","kana_pref":"ｲﾊﾞﾗｷｹﾝ","kana_city":"ﾅﾒｶﾞﾀｼ","kana_address":"ｻｲﾚﾝｼﾞ","pref":"茨城県","city":"行方市","address":"西蓮寺"},
{"zip_code":"3113835","kana_pref":"ｲﾊﾞﾗｷｹﾝ","kana_city":"ﾅﾒｶﾞﾀｼ","kana_address":"ｼﾏﾅﾐ","pref":"茨城県","city":"行方市","address":"島並"},
{"zip_code":"3113823","kana_pref":"ｲﾊﾞﾗｷｹﾝ","kana_city":"ﾅﾒｶﾞﾀｼ","kana_address":"ｼﾗﾊﾏ","pref":"茨城県","city":"行方市","address":"白浜"},
{"zip_code":"3113811","kana_pref":"ｲﾊﾞﾗｷｹﾝ","kana_city":"ﾅﾒｶﾞﾀｼ","kana_address":"ｼﾛｸ","pref":"茨城県","city":"行方市","address":"四鹿"},
{"zip_code":"3113815","kana_pref":"ｲﾊﾞﾗｷｹﾝ","kana_city":"ﾅﾒｶﾞﾀｼ","kana_address":"ｼﾝｸﾞｳ","pref":"茨城県","city":"行方市","address":"新宮"},
{"zip_code":"3113812","kana_pref":"ｲﾊﾞﾗｷｹﾝ","kana_city":"ﾅﾒｶﾞﾀｼ","kana_address":"ｽｷﾞﾀﾞｲﾗ","pref":"茨城県","city":"行方市","address":"杉平"},
{"zip_code":"3113501","kana_pref":"ｲﾊﾞﾗｷｹﾝ","kana_city":"ﾅﾒｶﾞﾀｼ","kana_address":"ｾﾘｻﾞﾜ","pref":"茨城県","city":"行方市","address":"芹沢"},
{"zip_code":"3113511","kana_pref":"ｲﾊﾞﾗｷｹﾝ","kana_city":"ﾅﾒｶﾞﾀｼ","kana_address":"ﾀﾏﾂｸﾘｵﾂ","pref":"茨城県","city":"行方市","address":"玉造乙"},
{"zip_code":"3113512","kana_pref":"ｲﾊﾞﾗｷｹﾝ","kana_city":"ﾅﾒｶﾞﾀｼ","kana_address":"ﾀﾏﾂｸﾘｺｳ","pref":"茨城県","city":"行方市","address":"玉造甲"},
{"zip_code":"3113513","kana_pref":"ｲﾊﾞﾗｷｹﾝ","kana_city":"ﾅﾒｶﾞﾀｼ","kana_address":"ﾃｶﾞ","pref":"茨城県","city":"行方市","address":"手賀"},
{"zip_code":"3113833","kana_pref":"ｲﾊﾞﾗｷｹﾝ","kana_city":"ﾅﾒｶﾞﾀｼ","kana_address":"ﾄﾐﾀ","pref":"茨城県","city":"行方市","address":"富田"},
{"zip_code":"3111713","kana_pref":"ｲﾊﾞﾗｷｹﾝ","kana_city":"ﾅﾒｶﾞﾀｼ","kana_address":"ﾅｶﾈ","pref":"茨城県","city":"行方市","address":"中根"},
{"zip_code":"3111701","kana_pref":"ｲﾊﾞﾗｷｹﾝ","kana_city":"ﾅﾒｶﾞﾀｼ","kana_address":"ﾅｶﾞﾉｴ","pref":"茨城県","city":"行方市","address":"長野江"},
{"zip_code":"3111722","kana_pref":"ｲﾊﾞﾗｷｹﾝ","kana_city":"ﾅﾒｶﾞﾀｼ","kana_address":"ﾅﾐｷ","pref":"茨城県","city":"行方市","address":"次木"},
{"zip_code":"3113801","kana_pref":"ｲﾊﾞﾗｷｹﾝ","kana_city":"ﾅﾒｶﾞﾀｼ","kana_address":"ﾅﾒｶﾀ","pref":"茨城県","city":"行方市","address":"行方"},
{"zip_code":"3111703","kana_pref":"ｲﾊﾞﾗｷｹﾝ","kana_city":"ﾅﾒｶﾞﾀｼ","kana_address":"ﾅﾘﾀ","pref":"茨城県","city":"行方市","address":"成田"},
{"zip_code":"3113825","kana_pref":"ｲﾊﾞﾗｷｹﾝ","kana_city":"ﾅﾒｶﾞﾀｼ","kana_address":"ﾈｺﾞﾔ","pref":"茨城県","city":"行方市","address":"根小屋"},
{"zip_code":"3113503","kana_pref":"ｲﾊﾞﾗｷｹﾝ","kana_city":"ﾅﾒｶﾞﾀｼ","kana_address":"ﾈｼﾞｷ","pref":"茨城県","city":"行方市","address":"捻木"},
{"zip_code":"3113805","kana_pref":"ｲﾊﾞﾗｷｹﾝ","kana_city":"ﾅﾒｶﾞﾀｼ","kana_address":"ﾊｼｶﾄﾞ","pref":"茨城県","city":"行方市","address":"橋門"},
{"zip_code":"3113507","kana_pref":"ｲﾊﾞﾗｷｹﾝ","kana_city":"ﾅﾒｶﾞﾀｼ","kana_address":"ﾊﾆｭｳ","pref":"茨城県","city":"行方市","address":"羽生"},
{"zip_code":"3113505","kana_pref":"ｲﾊﾞﾗｷｹﾝ","kana_city":"ﾅﾒｶﾞﾀｼ","kana_address":"ﾊﾏ","pref":"茨城県","city":"行方市","address":"浜"},
{"zip_code":"3111712","kana_pref":"ｲﾊﾞﾗｷｹﾝ","kana_city":"ﾅﾒｶﾞﾀｼ","kana_address":"ﾊﾝｼﾞｮｳ","pref":"茨城県","city":"行方市","address":"繁昌"},
{"zip_code":"3113517","kana_pref":"ｲﾊﾞﾗｷｹﾝ","kana_city":"ﾅﾒｶﾞﾀｼ","kana_address":"ﾌｼﾞｲ","pref":"茨城県","city":"行方市","address":"藤井"},
{"zip_code":"3113806","kana_pref":"ｲﾊﾞﾗｷｹﾝ","kana_city":"ﾅﾒｶﾞﾀｼ","kana_address":"ﾌﾅｺ","pref":"茨城県","city":"行方市","address":"船子"},
{"zip_code":"3113834","kana_pref":"ｲﾊﾞﾗｷｹﾝ","kana_city":"ﾅﾒｶﾞﾀｼ","kana_address":"ﾎﾎﾞｹ","pref":"茨城県","city":"行方市","address":"粗毛"},
{"zip_code":"3113836","kana_pref":"ｲﾊﾞﾗｷｹﾝ","kana_city":"ﾅﾒｶﾞﾀｼ","kana_address":"ﾐﾅﾐ","pref":"茨城県","city":"行方市","address":"南"},
{"zip_code":"3111714","kana_pref":"ｲﾊﾞﾗｷｹﾝ","kana_city":"ﾅﾒｶﾞﾀｼ","kana_address":"ﾐﾅﾐﾀｶｵｶ","pref":"茨城県","city":"行方市","address":"南高岡"},
{"zip_code":"3111702","kana_pref":"ｲﾊﾞﾗｷｹﾝ","kana_city":"ﾅﾒｶﾞﾀｼ","kana_address":"ﾐﾜ","pref":"茨城県","city":"行方市","address":"三和"},
{"zip_code":"3113506","kana_pref":"ｲﾊﾞﾗｷｹﾝ","kana_city":"ﾅﾒｶﾞﾀｼ","kana_address":"ﾔｷﾏｷ","pref":"茨城県","city":"行方市","address":"八木蒔"},
{"zip_code":"3113504","kana_pref":"ｲﾊﾞﾗｷｹﾝ","kana_city":"ﾅﾒｶﾞﾀｼ","kana_address":"ﾔｼﾞﾏ","pref":"茨城県","city":"行方市","address":"谷島"},
{"zip_code":"3113826","kana_pref":"ｲﾊﾞﾗｷｹﾝ","kana_city":"ﾅﾒｶﾞﾀｼ","kana_address":"ﾔﾊﾞﾀ","pref":"茨城県","city":"行方市","address":"矢幡"},
{"zip_code":"3111704","kana_pref":"ｲﾊﾞﾗｷｹﾝ","kana_city":"ﾅﾒｶﾞﾀｼ","kana_address":"ﾔﾏﾀﾞ","pref":"茨城県","city":"行方市","address":"山田"},
{"zip_code":"3111723","kana_pref":"ｲﾊﾞﾗｷｹﾝ","kana_city":"ﾅﾒｶﾞﾀｼ","kana_address":"ﾕｸﾄﾞ","pref":"茨城県","city":"行方市","address":"行戸"},
{"zip_code":"3111711","kana_pref":"ｲﾊﾞﾗｷｹﾝ","kana_city":"ﾅﾒｶﾞﾀｼ","kana_address":"ﾖｼｶﾜ","pref":"茨城県","city":"行方市","address":"吉川"},
{"zip_code":"3111721","kana_pref":"ｲﾊﾞﾗｷｹﾝ","kana_city":"ﾅﾒｶﾞﾀｼ","kana_address":"ﾘｮｳｼｭｸ","pref":"茨城県","city":"行方市","address":"両宿"},
{"zip_code":"3113502","kana_pref":"ｲﾊﾞﾗｷｹﾝ","kana_city":"ﾅﾒｶﾞﾀｼ","kana_address":"ﾜｶｳﾐ","pref":"茨城県","city":"行方市","address":"若海"},
{"zip_code":"3111500","kana_pref":"ｲﾊﾞﾗｷｹﾝ","kana_city":"ﾎｺﾀｼ","kana_address":"","pref":"茨城県","city":"鉾田市","address":""},
{"zip_code":"3111535","kana_pref":"ｲﾊﾞﾗｷｹﾝ","kana_city":"ﾎｺﾀｼ","kana_address":"ｱｵﾔｷﾞ","pref":"茨城県","city":"鉾田市","address":"青柳"},
{"zip_code":"3112101","kana_pref":"ｲﾊﾞﾗｷｹﾝ","kana_city":"ﾎｺﾀｼ","kana_address":"ｱｵﾔﾏ","pref":"茨城県","city":"鉾田市","address":"青山"},
{"zip_code":"3111506","kana_pref":"ｲﾊﾞﾗｷｹﾝ","kana_city":"ﾎｺﾀｼ","kana_address":"ｱｷﾔﾏ","pref":"茨城県","city":"鉾田市","address":"秋山"},
{"zip_code":"3112118","kana_pref":"ｲﾊﾞﾗｷｹﾝ","kana_city":"ﾎｺﾀｼ","kana_address":"ｱﾀﾞﾏ","pref":"茨城県","city":"鉾田市","address":"阿玉"},
{"zip_code":"3111411","kana_pref":"ｲﾊﾞﾗｷｹﾝ","kana_city":"ﾎｺﾀｼ","kana_address":"ｱﾗｼﾞ","pref":"茨城県","city":"鉾田市","address":"荒地"},
{"zip_code":"3111504","kana_pref":"ｲﾊﾞﾗｷｹﾝ","kana_city":"ﾎｺﾀｼ","kana_address":"ｱﾝﾎﾞｳ","pref":"茨城県","city":"鉾田市","address":"安房"},
{"zip_code":"3112112","kana_pref":"ｲﾊﾞﾗｷｹﾝ","kana_city":"ﾎｺﾀｼ","kana_address":"ｲｲｼﾞﾏ","pref":"茨城県","city":"鉾田市","address":"飯島"},
{"zip_code":"3111521","kana_pref":"ｲﾊﾞﾗｷｹﾝ","kana_city":"ﾎｺﾀｼ","kana_address":"ｲｲﾅ","pref":"茨城県","city":"鉾田市","address":"飯名"},
{"zip_code":"3112114","kana_pref":"ｲﾊﾞﾗｷｹﾝ","kana_city":"ﾎｺﾀｼ","kana_address":"ｴｶﾞﾜ","pref":"茨城県","city":"鉾田市","address":"江川"},
{"zip_code":"3112117","kana_pref":"ｲﾊﾞﾗｷｹﾝ","kana_city":"ﾎｺﾀｼ","kana_address":"ｵｵｸﾗ","pref":"茨城県","city":"鉾田市","address":"大蔵"},
{"zip_code":"3111513","kana_pref":"ｲﾊﾞﾗｷｹﾝ","kana_city":"ﾎｺﾀｼ","kana_address":"ｵｵﾀｹ","pref":"茨城県","city":"鉾田市","address":"大竹"},
{"zip_code":"3111502","kana_pref":"ｲﾊﾞﾗｷｹﾝ","kana_city":"ﾎｺﾀｼ","kana_address":"ｵｵﾄﾞ","pref":"茨城県","city":"鉾田市","address":"大戸"},
{"zip_code":"3111536","kana_pref":"ｲﾊﾞﾗｷｹﾝ","kana_city":"ﾎｺﾀｼ","kana_address":"ｵｵﾜﾀﾞ","pref":"茨城県","city":"鉾田市","address":"大和田"},
{"zip_code":"3112104","kana_pref":"ｲﾊﾞﾗｷｹﾝ","kana_city":"ﾎｺﾀｼ","kana_address":"ｶｼﾞﾔﾏ","pref":"茨城県","city":"鉾田市","address":"梶山"},
{"zip_code":"3111511","kana_pref":"ｲﾊﾞﾗｷｹﾝ","kana_city":"ﾎｺﾀｼ","kana_address":"ｶｼﾜｸﾏ","pref":"茨城県","city":"鉾田市","address":"柏熊"},
{"zip_code":"3111424","kana_pref":"ｲﾊﾞﾗｷｹﾝ","kana_city":"ﾎｺﾀｼ","kana_address":"ｶｼﾜｸﾏｼﾝﾃﾞﾝ","pref":"茨城県","city":"鉾田市","address":"柏熊新田"},
{"zip_code":"3111422","kana_pref":"ｲﾊﾞﾗｷｹﾝ","kana_city":"ﾎｺﾀｼ","kana_address":"ｶﾂｵﾘ","pref":"茨城県","city":"鉾田市","address":"勝下"},
{"zip_code":"3111421","kana_pref":"ｲﾊﾞﾗｷｹﾝ","kana_city":"ﾎｺﾀｼ","kana_address":"ｶﾂｵﾘｼﾝﾃﾞﾝ","pref":"茨城県","city":"鉾田市","address":"勝下新田"},
{"zip_code":"3111515","kana_pref":"ｲﾊﾞﾗｷｹﾝ","kana_city":"ﾎｺﾀｼ","kana_address":"ｶﾏﾀ","pref":"茨城県","city":"鉾田市","address":"烟田"},
{"zip_code":"3111405","kana_pref":"ｲﾊﾞﾗｷｹﾝ","kana_city":"ﾎｺﾀｼ","kana_address":"ｶﾐｵｵﾀ","pref":"茨城県","city":"鉾田市","address":"上太田"},
{"zip_code":"3111403","kana_pref":"ｲﾊﾞﾗｷｹﾝ","kana_city":"ﾎｺﾀｼ","kana_address":"ｶﾐｶﾞﾏ","pref":"茨城県","city":"鉾田市","address":"上釜"},
{"zip_code":"3112111","kana_pref":"ｲﾊﾞﾗｷｹﾝ","kana_city":"ﾎｺﾀｼ","kana_address":"ｶﾐｻﾞﾜ","pref":"茨城県","city":"鉾田市","address":"上沢"},
{"zip_code":"3111532","kana_pref":"ｲﾊﾞﾗｷｹﾝ","kana_city":"ﾎｺﾀｼ","kana_address":"ｶﾐﾄﾐﾀ","pref":"茨城県","city":"鉾田市","address":"上冨田"},
{"zip_code":"3112113","kana_pref":"ｲﾊﾞﾗｷｹﾝ","kana_city":"ﾎｺﾀｼ","kana_address":"ｶﾐﾊﾀｷ","pref":"茨城県","city":"鉾田市","address":"上幡木"},
{"zip_code":"3111527","kana_pref":"ｲﾊﾞﾗｷｹﾝ","kana_city":"ﾎｺﾀｼ","kana_address":"ｶﾘﾔﾄﾞ","pref":"茨城県","city":"鉾田市","address":"借宿"},
{"zip_code":"3111523","kana_pref":"ｲﾊﾞﾗｷｹﾝ","kana_city":"ﾎｺﾀｼ","kana_address":"ｸｼﾋｷ","pref":"茨城県","city":"鉾田市","address":"串挽"},
{"zip_code":"3112103","kana_pref":"ｲﾊﾞﾗｷｹﾝ","kana_city":"ﾎｺﾀｼ","kana_address":"ｸﾐｱｹﾞ","pref":"茨城県","city":"鉾田市","address":"汲上"},
{"zip_code":"3111414","kana_pref":"ｲﾊﾞﾗｷｹﾝ","kana_city":"ﾎｺﾀｼ","kana_address":"ｺﾅｼﾞ","pref":"茨城県","city":"鉾田市","address":"子生"},
{"zip_code":"3111505","kana_pref":"ｲﾊﾞﾗｷｹﾝ","kana_city":"ﾎｺﾀｼ","kana_address":"ｺﾏｷﾞﾈ","pref":"茨城県","city":"鉾田市","address":"駒木根"},
{"zip_code":"3111404","kana_pref":"ｲﾊﾞﾗｷｹﾝ","kana_city":"ﾎｺﾀｼ","kana_address":"ｻﾜｼﾞﾘ","pref":"茨城県","city":"鉾田市","address":"沢尻"},
{"zip_code":"3111416","kana_pref":"ｲﾊﾞﾗｷｹﾝ","kana_city":"ﾎｺﾀｼ","kana_address":"ｼｶﾀﾞ","pref":"茨城県","city":"鉾田市","address":"鹿田"},
{"zip_code":"3111402","kana_pref":"ｲﾊﾞﾗｷｹﾝ","kana_city":"ﾎｺﾀｼ","kana_address":"ｼﾓｵｵﾀ","pref":"茨城県","city":"鉾田市","address":"下太田"},
{"zip_code":"3111533","kana_pref":"ｲﾊﾞﾗｷｹﾝ","kana_city":"ﾎｺﾀｼ","kana_address":"ｼﾓﾄﾐﾀ","pref":"茨城県","city":"鉾田市","address":"下冨田"},
{"zip_code":"3111512","kana_pref":"ｲﾊﾞﾗｷｹﾝ","kana_city":"ﾎｺﾀｼ","kana_address":"ｼﾗﾂｶ","pref":"茨城県","city":"鉾田市","address":"白塚"},
{"zip_code":"3111516","kana_pref":"ｲﾊﾞﾗｷｹﾝ","kana_city":"ﾎｺﾀｼ","kana_address":"ｼﾝﾎｺﾀ","pref":"茨城県","city":"鉾田市","address":"新鉾田"},
{"zip_code":"3111518","kana_pref":"ｲﾊﾞﾗｷｹﾝ","kana_city":"ﾎｺﾀｼ","kana_address":"ｼﾝﾎｺﾀﾆｼ","pref":"茨城県","city":"鉾田市","address":"新鉾田西"},
{"zip_code":"3111531","kana_pref":"ｲﾊﾞﾗｷｹﾝ","kana_city":"ﾎｺﾀｼ","kana_address":"ｽｹﾞﾉﾔ","pref":"茨城県","city":"鉾田市","address":"菅野谷"},
{"zip_code":"3112102","kana_pref":"ｲﾊﾞﾗｷｹﾝ","kana_city":"ﾎｺﾀｼ","kana_address":"ﾀﾞｲﾆｺﾞﾘｻﾜ","pref":"茨城県","city":"鉾田市","address":"台濁沢"},
{"zip_code":"3111524","kana_pref":"ｲﾊﾞﾗｷｹﾝ","kana_city":"ﾎｺﾀｼ","kana_address":"ﾀｶﾀﾞ","pref":"茨城県","city":"鉾田市","address":"高田"},
{"zip_code":"3111423","kana_pref":"ｲﾊﾞﾗｷｹﾝ","kana_city":"ﾎｺﾀｼ","kana_address":"ﾀｷﾊﾏ","pref":"茨城県","city":"鉾田市","address":"滝浜"},
{"zip_code":"3111406","kana_pref":"ｲﾊﾞﾗｷｹﾝ","kana_city":"ﾎｺﾀｼ","kana_address":"ﾀｻｷ","pref":"茨城県","city":"鉾田市","address":"田崎"},
{"zip_code":"3111412","kana_pref":"ｲﾊﾞﾗｷｹﾝ","kana_city":"ﾎｺﾀｼ","kana_address":"ﾀﾏﾀﾞ","pref":"茨城県","city":"鉾田市","address":"玉田"},
{"zip_code":"3111415","kana_pref":"ｲﾊﾞﾗｷｹﾝ","kana_city":"ﾎｺﾀｼ","kana_address":"ﾂｸﾘﾔ","pref":"茨城県","city":"鉾田市","address":"造谷"},
{"zip_code":"3111522","kana_pref":"ｲﾊﾞﾗｷｹﾝ","kana_city":"ﾎｺﾀｼ","kana_address":"ﾄｳｶﾞｻｷ","pref":"茨城県","city":"鉾田市","address":"塔ケ崎"},
{"zip_code":"3111528","kana_pref":"ｲﾊﾞﾗｷｹﾝ","kana_city":"ﾎｺﾀｼ","kana_address":"ﾄｳﾏ","pref":"茨城県","city":"鉾田市","address":"当間"},
{"zip_code":"3111427","kana_pref":"ｲﾊﾞﾗｷｹﾝ","kana_city":"ﾎｺﾀｼ","kana_address":"ﾄｷﾜ","pref":"茨城県","city":"鉾田市","address":"常磐"},
{"zip_code":"3111503","kana_pref":"ｲﾊﾞﾗｷｹﾝ","kana_city":"ﾎｺﾀｼ","kana_address":"ﾄｸｼｭｸ","pref":"茨城県","city":"鉾田市","address":"徳宿"},
{"zip_code":"3111534","kana_pref":"ｲﾊﾞﾗｷｹﾝ","kana_city":"ﾎｺﾀｼ","kana_address":"ﾄﾘﾉｽ","pref":"茨城県","city":"鉾田市","address":"鳥栖"},
{"zip_code":"3112115","kana_pref":"ｲﾊﾞﾗｷｹﾝ","kana_city":"ﾎｺﾀｼ","kana_address":"ﾅｶｲ","pref":"茨城県","city":"鉾田市","address":"中居"},
{"zip_code":"3111525","kana_pref":"ｲﾊﾞﾗｷｹﾝ","kana_city":"ﾎｺﾀｼ","kana_address":"ﾉﾄﾓ","pref":"茨城県","city":"鉾田市","address":"野友"},
{"zip_code":"3111526","kana_pref":"ｲﾊﾞﾗｷｹﾝ","kana_city":"ﾎｺﾀｼ","kana_address":"ﾊﾊﾞﾗ","pref":"茨城県","city":"鉾田市","address":"半原"},
{"zip_code":"3111413","kana_pref":"ｲﾊﾞﾗｷｹﾝ","kana_city":"ﾎｺﾀｼ","kana_address":"ﾋﾔﾐｽﾞ","pref":"茨城県","city":"鉾田市","address":"冷水"},
{"zip_code":"3112116","kana_pref":"ｲﾊﾞﾗｷｹﾝ","kana_city":"ﾎｺﾀｼ","kana_address":"ﾌﾀﾞ","pref":"茨城県","city":"鉾田市","address":"札"},
{"zip_code":"3112105","kana_pref":"ｲﾊﾞﾗｷｹﾝ","kana_city":"ﾎｺﾀｼ","kana_address":"ﾌﾀｴｻｸ","pref":"茨城県","city":"鉾田市","address":"二重作"},
{"zip_code":"3111501","kana_pref":"ｲﾊﾞﾗｷｹﾝ","kana_city":"ﾎｺﾀｼ","kana_address":"ﾌﾅｷ","pref":"茨城県","city":"鉾田市","address":"舟木"},
{"zip_code":"3111517","kana_pref":"ｲﾊﾞﾗｷｹﾝ","kana_city":"ﾎｺﾀｼ","kana_address":"ﾎｺﾀ","pref":"茨城県","city":"鉾田市","address":"鉾田"},
{"zip_code":"3111401","kana_pref":"ｲﾊﾞﾗｷｹﾝ","kana_city":"ﾎｺﾀｼ","kana_address":"ﾐﾉﾜ","pref":"茨城県","city":"鉾田市","address":"箕輪"},
{"zip_code":"3111537","kana_pref":"ｲﾊﾞﾗｷｹﾝ","kana_city":"ﾎｺﾀｼ","kana_address":"ﾓﾐｼﾞ","pref":"茨城県","city":"鉾田市","address":"紅葉"},
{"zip_code":"3111426","kana_pref":"ｲﾊﾞﾗｷｹﾝ","kana_city":"ﾎｺﾀｼ","kana_address":"ﾓﾐﾔﾏ","pref":"茨城県","city":"鉾田市","address":"樅山"},
{"zip_code":"3111514","kana_pref":"ｲﾊﾞﾗｷｹﾝ","kana_city":"ﾎｺﾀｼ","kana_address":"ﾔｽﾂﾞｶ","pref":"茨城県","city":"鉾田市","address":"安塚"},
{"zip_code":"3111425","kana_pref":"ｲﾊﾞﾗｷｹﾝ","kana_city":"ﾎｺﾀｼ","kana_address":"ﾕﾂﾎﾞ","pref":"茨城県","city":"鉾田市","address":"湯坪"},
{"zip_code":"3113404","kana_pref":"ｲﾊﾞﾗｷｹﾝ","kana_city":"ｵﾐﾀﾏｼ","kana_address":"ｲｲｻｷ","pref":"茨城県","city":"小美玉市","address":"飯前"},
{"zip_code":"3113423","kana_pref":"ｲﾊﾞﾗｷｹﾝ","kana_city":"ｵﾐﾀﾏｼ","kana_address":"ｵｶﾞﾜ","pref":"茨城県","city":"小美玉市","address":"小川"},
{"zip_code":"3113405","kana_pref":"ｲﾊﾞﾗｷｹﾝ","kana_city":"ｵﾐﾀﾏｼ","kana_address":"ｶﾐｱｲ","pref":"茨城県","city":"小美玉市","address":"上合"},
{"zip_code":"3113436","kana_pref":"ｲﾊﾞﾗｷｹﾝ","kana_city":"ｵﾐﾀﾏｼ","kana_address":"ｶﾐﾀﾏﾘ","pref":"茨城県","city":"小美玉市","address":"上玉里"},
{"zip_code":"3113403","kana_pref":"ｲﾊﾞﾗｷｹﾝ","kana_city":"ｵﾐﾀﾏｼ","kana_address":"ｶﾐﾖｼｶｹﾞ","pref":"茨城県","city":"小美玉市","address":"上吉影"},
{"zip_code":"3113412","kana_pref":"ｲﾊﾞﾗｷｹﾝ","kana_city":"ｵﾐﾀﾏｼ","kana_address":"ｶﾜﾄﾞ","pref":"茨城県","city":"小美玉市","address":"川戸"},
{"zip_code":"3113431","kana_pref":"ｲﾊﾞﾗｷｹﾝ","kana_city":"ｵﾐﾀﾏｼ","kana_address":"ｶﾜﾅｺﾞ","pref":"茨城県","city":"小美玉市","address":"川中子"},
{"zip_code":"3113417","kana_pref":"ｲﾊﾞﾗｷｹﾝ","kana_city":"ｵﾐﾀﾏｼ","kana_address":"ｸﾗｶｽﾞ","pref":"茨城県","city":"小美玉市","address":"倉数"},
{"zip_code":"3113434","kana_pref":"ｲﾊﾞﾗｷｹﾝ","kana_city":"ｵﾐﾀﾏｼ","kana_address":"ｸﾘﾏﾀｼｶ","pref":"茨城県","city":"小美玉市","address":"栗又四ケ"},
{"zip_code":"3113425","kana_pref":"ｲﾊﾞﾗｷｹﾝ","kana_city":"ｵﾐﾀﾏｼ","kana_address":"ｺﾊﾞﾅﾜ","pref":"茨城県","city":"小美玉市","address":"小塙"},
{"zip_code":"3113402","kana_pref":"ｲﾊﾞﾗｷｹﾝ","kana_city":"ｵﾐﾀﾏｼ","kana_address":"ｻｻﾞｲ","pref":"茨城県","city":"小美玉市","address":"佐才"},
{"zip_code":"3113432","kana_pref":"ｲﾊﾞﾗｷｹﾝ","kana_city":"ｵﾐﾀﾏｼ","kana_address":"ｼﾓﾀﾏﾘ","pref":"茨城県","city":"小美玉市","address":"下玉里"},
{"zip_code":"3113426","kana_pref":"ｲﾊﾞﾗｷｹﾝ","kana_city":"ｵﾐﾀﾏｼ","kana_address":"ｼﾓﾊﾞﾊﾞ","pref":"茨城県","city":"小美玉市","address":"下馬場"},
{"zip_code":"3113406","kana_pref":"ｲﾊﾞﾗｷｹﾝ","kana_city":"ｵﾐﾀﾏｼ","kana_address":"ｼﾓﾖｼｶｹﾞ","pref":"茨城県","city":"小美玉市","address":"下吉影"},
{"zip_code":"3113401","kana_pref":"ｲﾊﾞﾗｷｹﾝ","kana_city":"ｵﾐﾀﾏｼ","kana_address":"ｾﾗｸ","pref":"茨城県","city":"小美玉市","address":"世楽"},
{"zip_code":"3113433","kana_pref":"ｲﾊﾞﾗｷｹﾝ","kana_city":"ｵﾐﾀﾏｼ","kana_address":"ﾀｶｻｷ","pref":"茨城県","city":"小美玉市","address":"高崎"},
{"zip_code":"3113435","kana_pref":"ｲﾊﾞﾗｷｹﾝ","kana_city":"ｵﾐﾀﾏｼ","kana_address":"ﾀｷﾞﾔ","pref":"茨城県","city":"小美玉市","address":"田木谷"},
{"zip_code":"3113414","kana_pref":"ｲﾊﾞﾗｷｹﾝ","kana_city":"ｵﾐﾀﾏｼ","kana_address":"ﾄﾉｳﾁ","pref":"茨城県","city":"小美玉市","address":"外之内"},
{"zip_code":"3113422","kana_pref":"ｲﾊﾞﾗｷｹﾝ","kana_city":"ｵﾐﾀﾏｼ","kana_address":"ﾅｶﾉﾍﾞ","pref":"茨城県","city":"小美玉市","address":"中延"},
{"zip_code":"3113411","kana_pref":"ｲﾊﾞﾗｷｹﾝ","kana_city":"ｵﾐﾀﾏｼ","kana_address":"ﾉﾀﾞ","pref":"茨城県","city":"小美玉市","address":"野田"},
{"zip_code":"3113424","kana_pref":"ｲﾊﾞﾗｷｹﾝ","kana_city":"ｵﾐﾀﾏｼ","kana_address":"ﾊﾀﾔ","pref":"茨城県","city":"小美玉市","address":"幡谷"},
{"zip_code":"3113437","kana_pref":"ｲﾊﾞﾗｷｹﾝ","kana_city":"ｵﾐﾀﾏｼ","kana_address":"ﾋｶﾞｼﾀﾅｶ","pref":"茨城県","city":"小美玉市","address":"東田中"},
{"zip_code":"3113415","kana_pref":"ｲﾊﾞﾗｷｹﾝ","kana_city":"ｵﾐﾀﾏｼ","kana_address":"ﾋｬｸﾘ","pref":"茨城県","city":"小美玉市","address":"百里"},
{"zip_code":"3113421","kana_pref":"ｲﾊﾞﾗｷｹﾝ","kana_city":"ｵﾐﾀﾏｼ","kana_address":"ﾐﾔﾀ","pref":"茨城県","city":"小美玉市","address":"宮田"},
{"zip_code":"3113413","kana_pref":"ｲﾊﾞﾗｷｹﾝ","kana_city":"ｵﾐﾀﾏｼ","kana_address":"ﾔﾏﾉ","pref":"茨城県","city":"小美玉市","address":"山野"},
{"zip_code":"3113416","kana_pref":"ｲﾊﾞﾗｷｹﾝ","kana_city":"ｵﾐﾀﾏｼ","kana_address":"ﾖｻﾞﾜ","pref":"茨城県","city":"小美玉市","address":"与沢"},
{"zip_code":"3113100","kana_pref":"ｲﾊﾞﾗｷｹﾝ","kana_city":"ﾋｶﾞｼｲﾊﾞﾗｷｸﾞﾝｲﾊﾞﾗｷﾏﾁ","kana_address":"","pref":"茨城県","city":"東茨城郡茨城町","address":""},
{"zip_code":"3113137","kana_pref":"ｲﾊﾞﾗｷｹﾝ","kana_city":"ﾋｶﾞｼｲﾊﾞﾗｷｸﾞﾝｲﾊﾞﾗｷﾏﾁ","kana_address":"ｱｶﾞｹ","pref":"茨城県","city":"東茨城郡茨城町","address":"網掛"},
{"zip_code":"3113147","kana_pref":"ｲﾊﾞﾗｷｹﾝ","kana_city":"ﾋｶﾞｼｲﾊﾞﾗｷｸﾞﾝｲﾊﾞﾗｷﾏﾁ","kana_address":"ｱｷﾊﾞ","pref":"茨城県","city":"東茨城郡茨城町","address":"秋葉"},
{"zip_code":"3113152","kana_pref":"ｲﾊﾞﾗｷｹﾝ","kana_city":"ﾋｶﾞｼｲﾊﾞﾗｷｸﾞﾝｲﾊﾞﾗｷﾏﾁ","kana_address":"ｲｲﾇﾏ","pref":"茨城県","city":"東茨城郡茨城町","address":"飯沼"},
{"zip_code":"3113111","kana_pref":"ｲﾊﾞﾗｷｹﾝ","kana_city":"ﾋｶﾞｼｲﾊﾞﾗｷｸﾞﾝｲﾊﾞﾗｷﾏﾁ","kana_address":"ｳﾏﾜﾀﾘ","pref":"茨城県","city":"東茨城郡茨城町","address":"馬渡"},
{"zip_code":"3113135","kana_pref":"ｲﾊﾞﾗｷｹﾝ","kana_city":"ﾋｶﾞｼｲﾊﾞﾗｷｸﾞﾝｲﾊﾞﾗｷﾏﾁ","kana_address":"ｴﾋﾞｻﾜ","pref":"茨城県","city":"東茨城郡茨城町","address":"海老沢"},
{"zip_code":"3113114","kana_pref":"ｲﾊﾞﾗｷｹﾝ","kana_city":"ﾋｶﾞｼｲﾊﾞﾗｷｸﾞﾝｲﾊﾞﾗｷﾏﾁ","kana_address":"ｵｵﾄﾞ","pref":"茨城県","city":"東茨城郡茨城町","address":"大戸"},
{"zip_code":"3113156","kana_pref":"ｲﾊﾞﾗｷｹﾝ","kana_city":"ﾋｶﾞｼｲﾊﾞﾗｷｸﾞﾝｲﾊﾞﾗｷﾏﾁ","kana_address":"ｵｸﾉﾔ","pref":"茨城県","city":"東茨城郡茨城町","address":"奥谷"},
{"zip_code":"3113131","kana_pref":"ｲﾊﾞﾗｷｹﾝ","kana_city":"ﾋｶﾞｼｲﾊﾞﾗｷｸﾞﾝｲﾊﾞﾗｷﾏﾁ","kana_address":"ｵﾂﾞﾂﾐ","pref":"茨城県","city":"東茨城郡茨城町","address":"小堤"},
{"zip_code":"3113157","kana_pref":"ｲﾊﾞﾗｷｹﾝ","kana_city":"ﾋｶﾞｼｲﾊﾞﾗｷｸﾞﾝｲﾊﾞﾗｷﾏﾁ","kana_address":"ｵﾊﾞﾀ","pref":"茨城県","city":"東茨城郡茨城町","address":"小幡"},
{"zip_code":"3113145","kana_pref":"ｲﾊﾞﾗｷｹﾝ","kana_city":"ﾋｶﾞｼｲﾊﾞﾗｷｸﾞﾝｲﾊﾞﾗｷﾏﾁ","kana_address":"ｶﾐｱﾏｶﾞｲ","pref":"茨城県","city":"東茨城郡茨城町","address":"上雨ケ谷"},
{"zip_code":"3113153","kana_pref":"ｲﾊﾞﾗｷｹﾝ","kana_city":"ﾋｶﾞｼｲﾊﾞﾗｷｸﾞﾝｲﾊﾞﾗｷﾏﾁ","kana_address":"ｶﾐｲｲﾇﾏ","pref":"茨城県","city":"東茨城郡茨城町","address":"上飯沼"},
{"zip_code":"3113122","kana_pref":"ｲﾊﾞﾗｷｹﾝ","kana_city":"ﾋｶﾞｼｲﾊﾞﾗｷｸﾞﾝｲﾊﾞﾗｷﾏﾁ","kana_address":"ｶﾐｲｼｻﾞｷ","pref":"茨城県","city":"東茨城郡茨城町","address":"上石崎"},
{"zip_code":"3113134","kana_pref":"ｲﾊﾞﾗｷｹﾝ","kana_city":"ﾋｶﾞｼｲﾊﾞﾗｷｸﾞﾝｲﾊﾞﾗｷﾏﾁ","kana_address":"ｶﾐﾔﾄﾞ","pref":"茨城県","city":"東茨城郡茨城町","address":"神宿"},
{"zip_code":"3113141","kana_pref":"ｲﾊﾞﾗｷｹﾝ","kana_city":"ﾋｶﾞｼｲﾊﾞﾗｷｸﾞﾝｲﾊﾞﾗｷﾏﾁ","kana_address":"ｶﾝﾔ","pref":"茨城県","city":"東茨城郡茨城町","address":"神谷"},
{"zip_code":"3113151","kana_pref":"ｲﾊﾞﾗｷｹﾝ","kana_city":"ﾋｶﾞｼｲﾊﾞﾗｷｸﾞﾝｲﾊﾞﾗｷﾏﾁ","kana_address":"ｷﾍﾞ","pref":"茨城県","city":"東茨城郡茨城町","address":"木部"},
{"zip_code":"3113146","kana_pref":"ｲﾊﾞﾗｷｹﾝ","kana_city":"ﾋｶﾞｼｲﾊﾞﾗｷｸﾞﾝｲﾊﾞﾗｷﾏﾁ","kana_address":"ｹﾞｻﾞ","pref":"茨城県","city":"東茨城郡茨城町","address":"下座"},
{"zip_code":"3113107","kana_pref":"ｲﾊﾞﾗｷｹﾝ","kana_city":"ﾋｶﾞｼｲﾊﾞﾗｷｸﾞﾝｲﾊﾞﾗｷﾏﾁ","kana_address":"ｺﾂﾞﾙ","pref":"茨城県","city":"東茨城郡茨城町","address":"小鶴"},
{"zip_code":"3113132","kana_pref":"ｲﾊﾞﾗｷｹﾝ","kana_city":"ﾋｶﾞｼｲﾊﾞﾗｷｸﾞﾝｲﾊﾞﾗｷﾏﾁ","kana_address":"ｺﾏﾊﾞ","pref":"茨城県","city":"東茨城郡茨城町","address":"駒場"},
{"zip_code":"3113104","kana_pref":"ｲﾊﾞﾗｷｹﾝ","kana_city":"ﾋｶﾞｼｲﾊﾞﾗｷｸﾞﾝｲﾊﾞﾗｷﾏﾁ","kana_address":"ｺﾏﾜﾀﾘ","pref":"茨城県","city":"東茨城郡茨城町","address":"駒渡"},
{"zip_code":"3113106","kana_pref":"ｲﾊﾞﾗｷｹﾝ","kana_city":"ﾋｶﾞｼｲﾊﾞﾗｷｸﾞﾝｲﾊﾞﾗｷﾏﾁ","kana_address":"ｺﾔｽ","pref":"茨城県","city":"東茨城郡茨城町","address":"越安"},
{"zip_code":"3113113","kana_pref":"ｲﾊﾞﾗｷｹﾝ","kana_city":"ﾋｶﾞｼｲﾊﾞﾗｷｸﾞﾝｲﾊﾞﾗｷﾏﾁ","kana_address":"ｺﾝﾄﾞｳ","pref":"茨城県","city":"東茨城郡茨城町","address":"近藤"},
{"zip_code":"3113117","kana_pref":"ｲﾊﾞﾗｷｹﾝ","kana_city":"ﾋｶﾞｼｲﾊﾞﾗｷｸﾞﾝｲﾊﾞﾗｷﾏﾁ","kana_address":"ｻｸﾗﾉｻﾄ","pref":"茨城県","city":"東茨城郡茨城町","address":"桜の郷"},
{"zip_code":"3113144","kana_pref":"ｲﾊﾞﾗｷｹﾝ","kana_city":"ﾋｶﾞｼｲﾊﾞﾗｷｸﾞﾝｲﾊﾞﾗｷﾏﾁ","kana_address":"ｼﾓｱﾏｶﾞｲ","pref":"茨城県","city":"東茨城郡茨城町","address":"下雨ケ谷"},
{"zip_code":"3113154","kana_pref":"ｲﾊﾞﾗｷｹﾝ","kana_city":"ﾋｶﾞｼｲﾊﾞﾗｷｸﾞﾝｲﾊﾞﾗｷﾏﾁ","kana_address":"ｼﾓｲｲﾇﾏ","pref":"茨城県","city":"東茨城郡茨城町","address":"下飯沼"},
{"zip_code":"3113125","kana_pref":"ｲﾊﾞﾗｷｹﾝ","kana_city":"ﾋｶﾞｼｲﾊﾞﾗｷｸﾞﾝｲﾊﾞﾗｷﾏﾁ","kana_address":"ｼﾓｲｼｻﾞｷ","pref":"茨城県","city":"東茨城郡茨城町","address":"下石崎"},
{"zip_code":"3113155","kana_pref":"ｲﾊﾞﾗｷｹﾝ","kana_city":"ﾋｶﾞｼｲﾊﾞﾗｷｸﾞﾝｲﾊﾞﾗｷﾏﾁ","kana_address":"ｼﾓﾊｼﾞ","pref":"茨城県","city":"東茨城郡茨城町","address":"下土師"},
{"zip_code":"3113138","kana_pref":"ｲﾊﾞﾗｷｹﾝ","kana_city":"ﾋｶﾞｼｲﾊﾞﾗｷｸﾞﾝｲﾊﾞﾗｷﾏﾁ","kana_address":"ｼﾞｮｳﾉｳﾁ","pref":"茨城県","city":"東茨城郡茨城町","address":"城之内"},
{"zip_code":"3113105","kana_pref":"ｲﾊﾞﾗｷｹﾝ","kana_city":"ﾋｶﾞｼｲﾊﾞﾗｷｸﾞﾝｲﾊﾞﾗｷﾏﾁ","kana_address":"ｿﾊﾞﾊﾗ","pref":"茨城県","city":"東茨城郡茨城町","address":"蕎麦原"},
{"zip_code":"3113108","kana_pref":"ｲﾊﾞﾗｷｹﾝ","kana_city":"ﾋｶﾞｼｲﾊﾞﾗｷｸﾞﾝｲﾊﾞﾗｷﾏﾁ","kana_address":"ﾁｭｳｵｳｺｳｷﾞｮｳﾀﾞﾝﾁ","pref":"茨城県","city":"東茨城郡茨城町","address":"中央工業団地"},
{"zip_code":"3113112","kana_pref":"ｲﾊﾞﾗｷｹﾝ","kana_city":"ﾋｶﾞｼｲﾊﾞﾗｷｸﾞﾝｲﾊﾞﾗｷﾏﾁ","kana_address":"ﾄｺｲ","pref":"茨城県","city":"東茨城郡茨城町","address":"常井"},
{"zip_code":"3113142","kana_pref":"ｲﾊﾞﾗｷｹﾝ","kana_city":"ﾋｶﾞｼｲﾊﾞﾗｷｸﾞﾝｲﾊﾞﾗｷﾏﾁ","kana_address":"ﾄﾘﾊﾀ","pref":"茨城県","city":"東茨城郡茨城町","address":"鳥羽田"},
{"zip_code":"3113124","kana_pref":"ｲﾊﾞﾗｷｹﾝ","kana_city":"ﾋｶﾞｼｲﾊﾞﾗｷｸﾞﾝｲﾊﾞﾗｷﾏﾁ","kana_address":"ﾅｶｲｼｻﾞｷ","pref":"茨城県","city":"東茨城郡茨城町","address":"中石崎"},
{"zip_code":"3113116","kana_pref":"ｲﾊﾞﾗｷｹﾝ","kana_city":"ﾋｶﾞｼｲﾊﾞﾗｷｸﾞﾝｲﾊﾞﾗｷﾏﾁ","kana_address":"ﾅｶﾞｵｶ","pref":"茨城県","city":"東茨城郡茨城町","address":"長岡"},
{"zip_code":"3113143","kana_pref":"ｲﾊﾞﾗｷｹﾝ","kana_city":"ﾋｶﾞｼｲﾊﾞﾗｷｸﾞﾝｲﾊﾞﾗｷﾏﾁ","kana_address":"ﾅﾏｲｻﾞﾜ","pref":"茨城県","city":"東茨城郡茨城町","address":"生井沢"},
{"zip_code":"3113103","kana_pref":"ｲﾊﾞﾗｷｹﾝ","kana_city":"ﾋｶﾞｼｲﾊﾞﾗｷｸﾞﾝｲﾊﾞﾗｷﾏﾁ","kana_address":"ﾉｿ","pref":"茨城県","city":"東茨城郡茨城町","address":"野曽"},
{"zip_code":"3113115","kana_pref":"ｲﾊﾞﾗｷｹﾝ","kana_city":"ﾋｶﾞｼｲﾊﾞﾗｷｸﾞﾝｲﾊﾞﾗｷﾏﾁ","kana_address":"ﾏｴﾀﾞ","pref":"茨城県","city":"東茨城郡茨城町","address":"前田"},
{"zip_code":"3113101","kana_pref":"ｲﾊﾞﾗｷｹﾝ","kana_city":"ﾋｶﾞｼｲﾊﾞﾗｷｸﾞﾝｲﾊﾞﾗｷﾏﾁ","kana_address":"ﾐﾅﾐｶﾜﾏﾀ","pref":"茨城県","city":"東茨城郡茨城町","address":"南川又"},
{"zip_code":"3113102","kana_pref":"ｲﾊﾞﾗｷｹﾝ","kana_city":"ﾋｶﾞｼｲﾊﾞﾗｷｸﾞﾝｲﾊﾞﾗｷﾏﾁ","kana_address":"ﾐﾅﾐｸﾘｻﾞｷ","pref":"茨城県","city":"東茨城郡茨城町","address":"南栗崎"},
{"zip_code":"3113133","kana_pref":"ｲﾊﾞﾗｷｹﾝ","kana_city":"ﾋｶﾞｼｲﾊﾞﾗｷｸﾞﾝｲﾊﾞﾗｷﾏﾁ","kana_address":"ﾐﾅﾐｼﾏﾀﾞ","pref":"茨城県","city":"東茨城郡茨城町","address":"南島田"},
{"zip_code":"3113136","kana_pref":"ｲﾊﾞﾗｷｹﾝ","kana_city":"ﾋｶﾞｼｲﾊﾞﾗｷｸﾞﾝｲﾊﾞﾗｷﾏﾁ","kana_address":"ﾐﾔｶﾞｻｷ","pref":"茨城県","city":"東茨城郡茨城町","address":"宮ケ崎"},
{"zip_code":"3113121","kana_pref":"ｲﾊﾞﾗｷｹﾝ","kana_city":"ﾋｶﾞｼｲﾊﾞﾗｷｸﾞﾝｲﾊﾞﾗｷﾏﾁ","kana_address":"ﾔﾀﾍﾞ","pref":"茨城県","city":"東茨城郡茨城町","address":"谷田部"},
{"zip_code":"3113123","kana_pref":"ｲﾊﾞﾗｷｹﾝ","kana_city":"ﾋｶﾞｼｲﾊﾞﾗｷｸﾞﾝｲﾊﾞﾗｷﾏﾁ","kana_address":"ﾜｶﾐﾔ","pref":"茨城県","city":"東茨城郡茨城町","address":"若宮"},
{"zip_code":"3111300","kana_pref":"ｲﾊﾞﾗｷｹﾝ","kana_city":"ﾋｶﾞｼｲﾊﾞﾗｷｸﾞﾝｵｵｱﾗｲﾏﾁ","kana_address":"","pref":"茨城県","city":"東茨城郡大洗町","address":""},
{"zip_code":"3111301","kana_pref":"ｲﾊﾞﾗｷｹﾝ","kana_city":"ﾋｶﾞｼｲﾊﾞﾗｷｸﾞﾝｵｵｱﾗｲﾏﾁ","kana_address":"ｲｿﾊﾏﾁｮｳ","pref":"茨城県","city":"東茨城郡大洗町","address":"磯浜町"},
{"zip_code":"3111302","kana_pref":"ｲﾊﾞﾗｷｹﾝ","kana_city":"ﾋｶﾞｼｲﾊﾞﾗｷｸﾞﾝｵｵｱﾗｲﾏﾁ","kana_address":"ｲｿﾐﾁ","pref":"茨城県","city":"東茨城郡大洗町","address":"磯道"},
{"zip_code":"3111311","kana_pref":"ｲﾊﾞﾗｷｹﾝ","kana_city":"ﾋｶﾞｼｲﾊﾞﾗｷｸﾞﾝｵｵｱﾗｲﾏﾁ","kana_address":"ｵｵﾇｷﾁｮｳ","pref":"茨城県","city":"東茨城郡大洗町","address":"大貫町"},
{"zip_code":"3111312","kana_pref":"ｲﾊﾞﾗｷｹﾝ","kana_city":"ﾋｶﾞｼｲﾊﾞﾗｷｸﾞﾝｵｵｱﾗｲﾏﾁ","kana_address":"ｶﾐﾔﾏﾁｮｳ","pref":"茨城県","city":"東茨城郡大洗町","address":"神山町"},
{"zip_code":"3111306","kana_pref":"ｲﾊﾞﾗｷｹﾝ","kana_city":"ﾋｶﾞｼｲﾊﾞﾗｷｸﾞﾝｵｵｱﾗｲﾏﾁ","kana_address":"ｺﾞﾀﾝﾀﾞ","pref":"茨城県","city":"東茨城郡大洗町","address":"五反田"},
{"zip_code":"3111307","kana_pref":"ｲﾊﾞﾗｷｹﾝ","kana_city":"ﾋｶﾞｼｲﾊﾞﾗｷｸﾞﾝｵｵｱﾗｲﾏﾁ","kana_address":"ｻｸﾗﾐﾁ","pref":"茨城県","city":"東茨城郡大洗町","address":"桜道"},
{"zip_code":"3111303","kana_pref":"ｲﾊﾞﾗｷｹﾝ","kana_city":"ﾋｶﾞｼｲﾊﾞﾗｷｸﾞﾝｵｵｱﾗｲﾏﾁ","kana_address":"ﾄｳｺｳﾀﾞｲ","pref":"茨城県","city":"東茨城郡大洗町","address":"東光台"},
{"zip_code":"3111313","kana_pref":"ｲﾊﾞﾗｷｹﾝ","kana_city":"ﾋｶﾞｼｲﾊﾞﾗｷｸﾞﾝｵｵｱﾗｲﾏﾁ","kana_address":"ﾅﾘﾀﾁｮｳ","pref":"茨城県","city":"東茨城郡大洗町","address":"成田町"},
{"zip_code":"3111305","kana_pref":"ｲﾊﾞﾗｷｹﾝ","kana_city":"ﾋｶﾞｼｲﾊﾞﾗｷｸﾞﾝｵｵｱﾗｲﾏﾁ","kana_address":"ﾐﾅﾄﾁｭｳｵｳ","pref":"茨城県","city":"東茨城郡大洗町","address":"港中央"},
{"zip_code":"3111304","kana_pref":"ｲﾊﾞﾗｷｹﾝ","kana_city":"ﾋｶﾞｼｲﾊﾞﾗｷｸﾞﾝｵｵｱﾗｲﾏﾁ","kana_address":"ﾜﾄﾞｳ","pref":"茨城県","city":"東茨城郡大洗町","address":"和銅"},
{"zip_code":"3114300","kana_pref":"ｲﾊﾞﾗｷｹﾝ","kana_city":"ﾋｶﾞｼｲﾊﾞﾗｷｸﾞﾝｼﾛｻﾄﾏﾁ","kana_address":"","pref":"茨城県","city":"東茨城郡城里町","address":""},
{"zip_code":"3114321","kana_pref":"ｲﾊﾞﾗｷｹﾝ","kana_city":"ﾋｶﾞｼｲﾊﾞﾗｷｸﾞﾝｼﾛｻﾄﾏﾁ","kana_address":"ｱﾜ","pref":"茨城県","city":"東茨城郡城里町","address":"粟"},
{"zip_code":"3114344","kana_pref":"ｲﾊﾞﾗｷｹﾝ","kana_city":"ﾋｶﾞｼｲﾊﾞﾗｷｸﾞﾝｼﾛｻﾄﾏﾁ","kana_address":"ｱﾜﾔﾏ","pref":"茨城県","city":"東茨城郡城里町","address":"阿波山"},
{"zip_code":"3114303","kana_pref":"ｲﾊﾞﾗｷｹﾝ","kana_city":"ﾋｶﾞｼｲﾊﾞﾗｷｸﾞﾝｼﾛｻﾄﾏﾁ","kana_address":"ｲｼﾂｶ","pref":"茨城県","city":"東茨城郡城里町","address":"石塚"},
{"zip_code":"3114312","kana_pref":"ｲﾊﾞﾗｷｹﾝ","kana_city":"ﾋｶﾞｼｲﾊﾞﾗｷｸﾞﾝｼﾛｻﾄﾏﾁ","kana_address":"ｲｿﾉ","pref":"茨城県","city":"東茨城郡城里町","address":"磯野"},
{"zip_code":"3114331","kana_pref":"ｲﾊﾞﾗｷｹﾝ","kana_city":"ﾋｶﾞｼｲﾊﾞﾗｷｸﾞﾝｼﾛｻﾄﾏﾁ","kana_address":"ｲﾜﾌﾈ","pref":"茨城県","city":"東茨城郡城里町","address":"岩船"},
{"zip_code":"3114403","kana_pref":"ｲﾊﾞﾗｷｹﾝ","kana_city":"ﾋｶﾞｼｲﾊﾞﾗｷｸﾞﾝｼﾛｻﾄﾏﾁ","kana_address":"ｵｵｱﾐ","pref":"茨城県","city":"東茨城郡城里町","address":"大網"},
{"zip_code":"3114402","kana_pref":"ｲﾊﾞﾗｷｹﾝ","kana_city":"ﾋｶﾞｼｲﾊﾞﾗｷｸﾞﾝｼﾛｻﾄﾏﾁ","kana_address":"ｵｶﾞﾁ","pref":"茨城県","city":"東茨城郡城里町","address":"小勝"},
{"zip_code":"3114316","kana_pref":"ｲﾊﾞﾗｷｹﾝ","kana_city":"ﾋｶﾞｼｲﾊﾞﾗｷｸﾞﾝｼﾛｻﾄﾏﾁ","kana_address":"ｵｻｶ","pref":"茨城県","city":"東茨城郡城里町","address":"小坂"},
{"zip_code":"3114317","kana_pref":"ｲﾊﾞﾗｷｹﾝ","kana_city":"ﾋｶﾞｼｲﾊﾞﾗｷｸﾞﾝｼﾛｻﾄﾏﾁ","kana_address":"ｶﾂﾐｻﾞﾜ","pref":"茨城県","city":"東茨城郡城里町","address":"勝見沢"},
{"zip_code":"3114305","kana_pref":"ｲﾊﾞﾗｷｹﾝ","kana_city":"ﾋｶﾞｼｲﾊﾞﾗｷｸﾞﾝｼﾛｻﾄﾏﾁ","kana_address":"ｶﾐｱｵﾔﾏ","pref":"茨城県","city":"東茨城郡城里町","address":"上青山"},
{"zip_code":"3114405","kana_pref":"ｲﾊﾞﾗｷｹﾝ","kana_city":"ﾋｶﾞｼｲﾊﾞﾗｷｸﾞﾝｼﾛｻﾄﾏﾁ","kana_address":"ｶﾐｱｶｻﾜ","pref":"茨城県","city":"東茨城郡城里町","address":"上赤沢"},
{"zip_code":"3114323","kana_pref":"ｲﾊﾞﾗｷｹﾝ","kana_city":"ﾋｶﾞｼｲﾊﾞﾗｷｸﾞﾝｼﾛｻﾄﾏﾁ","kana_address":"ｶﾐｱｸﾂ","pref":"茨城県","city":"東茨城郡城里町","address":"上圷"},
{"zip_code":"3114342","kana_pref":"ｲﾊﾞﾗｷｹﾝ","kana_city":"ﾋｶﾞｼｲﾊﾞﾗｷｸﾞﾝｼﾛｻﾄﾏﾁ","kana_address":"ｶﾐｱﾉｻﾜ","pref":"茨城県","city":"東茨城郡城里町","address":"上阿野沢"},
{"zip_code":"3114301","kana_pref":"ｲﾊﾞﾗｷｹﾝ","kana_city":"ﾋｶﾞｼｲﾊﾞﾗｷｸﾞﾝｼﾛｻﾄﾏﾁ","kana_address":"ｶﾐｲｽﾞﾐ","pref":"茨城県","city":"東茨城郡城里町","address":"上泉"},
{"zip_code":"3114313","kana_pref":"ｲﾊﾞﾗｷｹﾝ","kana_city":"ﾋｶﾞｼｲﾊﾞﾗｷｸﾞﾝｼﾛｻﾄﾏﾁ","kana_address":"ｶﾐｲﾘﾉ","pref":"茨城県","city":"東茨城郡城里町","address":"上入野"},
{"zip_code":"3114315","kana_pref":"ｲﾊﾞﾗｷｹﾝ","kana_city":"ﾋｶﾞｼｲﾊﾞﾗｷｸﾞﾝｼﾛｻﾄﾏﾁ","kana_address":"ｶﾐﾌﾙｳﾁ","pref":"茨城県","city":"東茨城郡城里町","address":"上古内"},
{"zip_code":"3114325","kana_pref":"ｲﾊﾞﾗｷｹﾝ","kana_city":"ﾋｶﾞｼｲﾊﾞﾗｷｸﾞﾝｼﾛｻﾄﾏﾁ","kana_address":"ｷﾀｶﾀ","pref":"茨城県","city":"東茨城郡城里町","address":"北方"},
{"zip_code":"3114341","kana_pref":"ｲﾊﾞﾗｷｹﾝ","kana_city":"ﾋｶﾞｼｲﾊﾞﾗｷｸﾞﾝｼﾛｻﾄﾏﾁ","kana_address":"ｺﾞｾﾞﾝﾔﾏ","pref":"茨城県","city":"東茨城郡城里町","address":"御前山"},
{"zip_code":"3114404","kana_pref":"ｲﾊﾞﾗｷｹﾝ","kana_city":"ﾋｶﾞｼｲﾊﾞﾗｷｸﾞﾝｼﾛｻﾄﾏﾁ","kana_address":"ｻﾅﾊﾞﾀ","pref":"茨城県","city":"東茨城郡城里町","address":"真端"},
{"zip_code":"3114401","kana_pref":"ｲﾊﾞﾗｷｹﾝ","kana_city":"ﾋｶﾞｼｲﾊﾞﾗｷｸﾞﾝｼﾛｻﾄﾏﾁ","kana_address":"ｼｵｺﾞ","pref":"茨城県","city":"東茨城郡城里町","address":"塩子"},
{"zip_code":"3114304","kana_pref":"ｲﾊﾞﾗｷｹﾝ","kana_city":"ﾋｶﾞｼｲﾊﾞﾗｷｸﾞﾝｼﾛｻﾄﾏﾁ","kana_address":"ｼﾓｱｵﾔﾏ","pref":"茨城県","city":"東茨城郡城里町","address":"下青山"},
{"zip_code":"3114406","kana_pref":"ｲﾊﾞﾗｷｹﾝ","kana_city":"ﾋｶﾞｼｲﾊﾞﾗｷｸﾞﾝｼﾛｻﾄﾏﾁ","kana_address":"ｼﾓｱｶｻﾜ","pref":"茨城県","city":"東茨城郡城里町","address":"下赤沢"},
{"zip_code":"3114322","kana_pref":"ｲﾊﾞﾗｷｹﾝ","kana_city":"ﾋｶﾞｼｲﾊﾞﾗｷｸﾞﾝｼﾛｻﾄﾏﾁ","kana_address":"ｼﾓｱｸﾂ","pref":"茨城県","city":"東茨城郡城里町","address":"下圷"},
{"zip_code":"3114343","kana_pref":"ｲﾊﾞﾗｷｹﾝ","kana_city":"ﾋｶﾞｼｲﾊﾞﾗｷｸﾞﾝｼﾛｻﾄﾏﾁ","kana_address":"ｼﾓｱﾉｻﾜ","pref":"茨城県","city":"東茨城郡城里町","address":"下阿野沢"},
{"zip_code":"3114314","kana_pref":"ｲﾊﾞﾗｷｹﾝ","kana_city":"ﾋｶﾞｼｲﾊﾞﾗｷｸﾞﾝｼﾛｻﾄﾏﾁ","kana_address":"ｼﾓﾌﾙｳﾁ","pref":"茨城県","city":"東茨城郡城里町","address":"下古内"},
{"zip_code":"3114335","kana_pref":"ｲﾊﾞﾗｷｹﾝ","kana_city":"ﾋｶﾞｼｲﾊﾞﾗｷｸﾞﾝｼﾛｻﾄﾏﾁ","kana_address":"ｽｽﾞｺｳﾔ","pref":"茨城県","city":"東茨城郡城里町","address":"錫高野"},
{"zip_code":"3114324","kana_pref":"ｲﾊﾞﾗｷｹﾝ","kana_city":"ﾋｶﾞｼｲﾊﾞﾗｷｸﾞﾝｼﾛｻﾄﾏﾁ","kana_address":"ﾀｶｸ","pref":"茨城県","city":"東茨城郡城里町","address":"高久"},
{"zip_code":"3114333","kana_pref":"ｲﾊﾞﾗｷｹﾝ","kana_city":"ﾋｶﾞｼｲﾊﾞﾗｷｸﾞﾝｼﾛｻﾄﾏﾁ","kana_address":"ﾀｶﾈ","pref":"茨城県","city":"東茨城郡城里町","address":"高根"},
{"zip_code":"3114332","kana_pref":"ｲﾊﾞﾗｷｹﾝ","kana_city":"ﾋｶﾞｼｲﾊﾞﾗｷｸﾞﾝｼﾛｻﾄﾏﾁ","kana_address":"ﾀｶﾈﾀﾞｲ","pref":"茨城県","city":"東茨城郡城里町","address":"高根台"},
{"zip_code":"3114407","kana_pref":"ｲﾊﾞﾗｷｹﾝ","kana_city":"ﾋｶﾞｼｲﾊﾞﾗｷｸﾞﾝｼﾛｻﾄﾏﾁ","kana_address":"ﾄｸﾗ","pref":"茨城県","city":"東茨城郡城里町","address":"徳蔵"},
{"zip_code":"3114302","kana_pref":"ｲﾊﾞﾗｷｹﾝ","kana_city":"ﾋｶﾞｼｲﾊﾞﾗｷｸﾞﾝｼﾛｻﾄﾏﾁ","kana_address":"ﾅｶｻｲ","pref":"茨城県","city":"東茨城郡城里町","address":"那珂西"},
{"zip_code":"3114306","kana_pref":"ｲﾊﾞﾗｷｹﾝ","kana_city":"ﾋｶﾞｼｲﾊﾞﾗｷｸﾞﾝｼﾛｻﾄﾏﾁ","kana_address":"ﾊﾙｿﾉ","pref":"茨城県","city":"東茨城郡城里町","address":"春園"},
{"zip_code":"3114334","kana_pref":"ｲﾊﾞﾗｷｹﾝ","kana_city":"ﾋｶﾞｼｲﾊﾞﾗｷｸﾞﾝｼﾛｻﾄﾏﾁ","kana_address":"ﾏｺﾞﾈ","pref":"茨城県","city":"東茨城郡城里町","address":"孫根"},
{"zip_code":"3114311","kana_pref":"ｲﾊﾞﾗｷｹﾝ","kana_city":"ﾋｶﾞｼｲﾊﾞﾗｷｸﾞﾝｼﾛｻﾄﾏﾁ","kana_address":"ﾏｼｲ","pref":"茨城県","city":"東茨城郡城里町","address":"増井"},
{"zip_code":"3114411","kana_pref":"ﾄﾁｷﾞｹﾝ","kana_city":"ﾊｶﾞｸﾞﾝﾓﾃｷﾞﾏﾁ","kana_address":"ﾋﾔﾏ","pref":"栃木県","city":"芳賀郡茂木町","address":"桧山"}]}