{"zip_code":[
{"zip_code":"3120000","kana_pref":"ｲﾊﾞﾗｷｹﾝ","kana_city":"ﾋﾀﾁﾅｶｼ","kana_address":"","pref":"茨城県","city":"ひたちなか市","address":""},
{"zip_code":"3120056","kana_pref":"ｲﾊﾞﾗｷｹﾝ","kana_city":"ﾋﾀﾁﾅｶｼ","kana_address":"ｱｵﾊﾞﾁｮｳ","pref":"茨城県","city":"ひたちなか市","address":"青葉町"},
{"zip_code":"3120057","kana_pref":"ｲﾊﾞﾗｷｹﾝ","kana_city":"ﾋﾀﾁﾅｶｼ","kana_address":"ｲｼｶﾜﾁｮｳ","pref":"茨城県","city":"ひたちなか市","address":"石川町"},
{"zip_code":"3120033","kana_pref":"ｲﾊﾞﾗｷｹﾝ","kana_city":"ﾋﾀﾁﾅｶｼ","kana_address":"ｲﾁｹﾞ","pref":"茨城県","city":"ひたちなか市","address":"市毛"},
{"zip_code":"3120061","kana_pref":"ｲﾊﾞﾗｷｹﾝ","kana_city":"ﾋﾀﾁﾅｶｼ","kana_address":"ｲﾅﾀﾞ","pref":"茨城県","city":"ひたちなか市","address":"稲田"},
{"zip_code":"3120014","kana_pref":"ｲﾊﾞﾗｷｹﾝ","kana_city":"ﾋﾀﾁﾅｶｼ","kana_address":"ｳｼﾛﾉ","pref":"茨城県","city":"ひたちなか市","address":"後野"},
{"zip_code":"3120035","kana_pref":"ｲﾊﾞﾗｷｹﾝ","kana_city":"ﾋﾀﾁﾅｶｼ","kana_address":"ｴﾀﾞｶﾜ","pref":"茨城県","city":"ひたちなか市","address":"枝川"},
{"zip_code":"3120023","kana_pref":"ｲﾊﾞﾗｷｹﾝ","kana_city":"ﾋﾀﾁﾅｶｼ","kana_address":"ｵｵﾀﾞｲﾗ","pref":"茨城県","city":"ひたちなか市","address":"大平"},
{"zip_code":"3120007","kana_pref":"ｲﾊﾞﾗｷｹﾝ","kana_city":"ﾋﾀﾁﾅｶｼ","kana_address":"ｵﾇｷﾔﾏ","pref":"茨城県","city":"ひたちなか市","address":"小貫山"},
{"zip_code":"3120047","kana_pref":"ｲﾊﾞﾗｷｹﾝ","kana_city":"ﾋﾀﾁﾅｶｼ","kana_address":"ｵﾓﾃﾁｮｳ","pref":"茨城県","city":"ひたちなか市","address":"表町"},
{"zip_code":"3120048","kana_pref":"ｲﾊﾞﾗｷｹﾝ","kana_city":"ﾋﾀﾁﾅｶｼ","kana_address":"ｶｽｶﾞﾁｮｳ","pref":"茨城県","city":"ひたちなか市","address":"春日町"},
{"zip_code":"3120024","kana_pref":"ｲﾊﾞﾗｷｹﾝ","kana_city":"ﾋﾀﾁﾅｶｼ","kana_address":"ｶﾂｸﾗ","pref":"茨城県","city":"ひたちなか市","address":"勝倉"},
{"zip_code":"3120046","kana_pref":"ｲﾊﾞﾗｷｹﾝ","kana_city":"ﾋﾀﾁﾅｶｼ","kana_address":"ｶﾂﾀｲｽﾞﾐﾁｮｳ","pref":"茨城県","city":"ひたちなか市","address":"勝田泉町"},
{"zip_code":"3120045","kana_pref":"ｲﾊﾞﾗｷｹﾝ","kana_city":"ﾋﾀﾁﾅｶｼ","kana_address":"ｶﾂﾀﾁｭｳｵｳ","pref":"茨城県","city":"ひたちなか市","address":"勝田中央"},
{"zip_code":"3120027","kana_pref":"ｲﾊﾞﾗｷｹﾝ","kana_city":"ﾋﾀﾁﾅｶｼ","kana_address":"ｶﾂﾀﾅｶﾊﾗﾁｮｳ","pref":"茨城県","city":"ひたちなか市","address":"勝田中原町"},
{"zip_code":"3120026","kana_pref":"ｲﾊﾞﾗｷｹﾝ","kana_city":"ﾋﾀﾁﾅｶｼ","kana_address":"ｶﾂﾀﾎﾝﾁｮｳ","pref":"茨城県","city":"ひたちなか市","address":"勝田本町"},
{"zip_code":"3120022","kana_pref":"ｲﾊﾞﾗｷｹﾝ","kana_city":"ﾋﾀﾁﾅｶｼ","kana_address":"ｶﾈｱｹﾞ","pref":"茨城県","city":"ひたちなか市","address":"金上"},
{"zip_code":"3120013","kana_pref":"ｲﾊﾞﾗｷｹﾝ","kana_city":"ﾋﾀﾁﾅｶｼ","kana_address":"ｶﾐﾉ","pref":"茨城県","city":"ひたちなか市","address":"上野"},
{"zip_code":"3120043","kana_pref":"ｲﾊﾞﾗｷｹﾝ","kana_city":"ﾋﾀﾁﾅｶｼ","kana_address":"ｷｮｳｴｲﾁｮｳ","pref":"茨城県","city":"ひたちなか市","address":"共栄町"},
{"zip_code":"3120002","kana_pref":"ｲﾊﾞﾗｷｹﾝ","kana_city":"ﾋﾀﾁﾅｶｼ","kana_address":"ｺｳﾔ","pref":"茨城県","city":"ひたちなか市","address":"高野"},
{"zip_code":"3120015","kana_pref":"ｲﾊﾞﾗｷｹﾝ","kana_city":"ﾋﾀﾁﾅｶｼ","kana_address":"ｺｽﾅﾁｮｳ","pref":"茨城県","city":"ひたちなか市","address":"小砂町"},
{"zip_code":"3120031","kana_pref":"ｲﾊﾞﾗｷｹﾝ","kana_city":"ﾋﾀﾁﾅｶｼ","kana_address":"ｺﾞﾀﾞｲ","pref":"茨城県","city":"ひたちなか市","address":"後台"},
{"zip_code":"3120018","kana_pref":"ｲﾊﾞﾗｷｹﾝ","kana_city":"ﾋﾀﾁﾅｶｼ","kana_address":"ｻｻﾉﾁｮｳ","pref":"茨城県","city":"ひたちなか市","address":"笹野町"},
{"zip_code":"3120001","kana_pref":"ｲﾊﾞﾗｷｹﾝ","kana_city":"ﾋﾀﾁﾅｶｼ","kana_address":"ｻﾜ","pref":"茨城県","city":"ひたちなか市","address":"佐和"},
{"zip_code":"3120005","kana_pref":"ｲﾊﾞﾗｷｹﾝ","kana_city":"ﾋﾀﾁﾅｶｼ","kana_address":"ｼﾝｺｳﾁｮｳ","pref":"茨城県","city":"ひたちなか市","address":"新光町"},
{"zip_code":"3120053","kana_pref":"ｲﾊﾞﾗｷｹﾝ","kana_city":"ﾋﾀﾁﾅｶｼ","kana_address":"ｿﾄﾉ","pref":"茨城県","city":"ひたちなか市","address":"外野"},
{"zip_code":"3120055","kana_pref":"ｲﾊﾞﾗｷｹﾝ","kana_city":"ﾋﾀﾁﾅｶｼ","kana_address":"ﾀｲｾｲﾁｮｳ","pref":"茨城県","city":"ひたちなか市","address":"大成町"},
{"zip_code":"3120062","kana_pref":"ｲﾊﾞﾗｷｹﾝ","kana_city":"ﾋﾀﾁﾅｶｼ","kana_address":"ﾀｶﾊﾞ","pref":"茨城県","city":"ひたちなか市","address":"高場"},
{"zip_code":"3120025","kana_pref":"ｲﾊﾞﾗｷｹﾝ","kana_city":"ﾋﾀﾁﾅｶｼ","kana_address":"ﾀｹﾀﾞ","pref":"茨城県","city":"ひたちなか市","address":"武田"},
{"zip_code":"3120063","kana_pref":"ｲﾊﾞﾗｷｹﾝ","kana_city":"ﾋﾀﾁﾅｶｼ","kana_address":"ﾀﾋﾞｺ","pref":"茨城県","city":"ひたちなか市","address":"田彦"},
{"zip_code":"3120003","kana_pref":"ｲﾊﾞﾗｷｹﾝ","kana_city":"ﾋﾀﾁﾅｶｼ","kana_address":"ﾀﾗｻﾞｷ","pref":"茨城県","city":"ひたちなか市","address":"足崎"},
{"zip_code":"3120032","kana_pref":"ｲﾊﾞﾗｷｹﾝ","kana_city":"ﾋﾀﾁﾅｶｼ","kana_address":"ﾂﾀﾞ","pref":"茨城県","city":"ひたちなか市","address":"津田"},
{"zip_code":"3120036","kana_pref":"ｲﾊﾞﾗｷｹﾝ","kana_city":"ﾋﾀﾁﾅｶｼ","kana_address":"ﾂﾀﾞﾋｶﾞｼ","pref":"茨城県","city":"ひたちなか市","address":"津田東"},
{"zip_code":"3120051","kana_pref":"ｲﾊﾞﾗｷｹﾝ","kana_city":"ﾋﾀﾁﾅｶｼ","kana_address":"ﾄﾞｳﾊﾀ","pref":"茨城県","city":"ひたちなか市","address":"堂端"},
{"zip_code":"3120011","kana_pref":"ｲﾊﾞﾗｷｹﾝ","kana_city":"ﾋﾀﾁﾅｶｼ","kana_address":"ﾅｶﾈ","pref":"茨城県","city":"ひたちなか市","address":"中根"},
{"zip_code":"3120004","kana_pref":"ｲﾊﾞﾗｷｹﾝ","kana_city":"ﾋﾀﾁﾅｶｼ","kana_address":"ﾅｶﾞｽﾅ","pref":"茨城県","city":"ひたちなか市","address":"長砂"},
{"zip_code":"3120017","kana_pref":"ｲﾊﾞﾗｷｹﾝ","kana_city":"ﾋﾀﾁﾅｶｼ","kana_address":"ﾅｶﾞﾎﾘﾁｮｳ","pref":"茨城県","city":"ひたちなか市","address":"長堀町"},
{"zip_code":"3120041","kana_pref":"ｲﾊﾞﾗｷｹﾝ","kana_city":"ﾋﾀﾁﾅｶｼ","kana_address":"ﾆｼｵｵｼﾏ","pref":"茨城県","city":"ひたちなか市","address":"西大島"},
{"zip_code":"3120054","kana_pref":"ｲﾊﾞﾗｷｹﾝ","kana_city":"ﾋﾀﾁﾅｶｼ","kana_address":"ﾊｼｶﾍﾞ","pref":"茨城県","city":"ひたちなか市","address":"はしかべ"},
{"zip_code":"3120052","kana_pref":"ｲﾊﾞﾗｷｹﾝ","kana_city":"ﾋﾀﾁﾅｶｼ","kana_address":"ﾋｶﾞｼｲｼｶﾜ","pref":"茨城県","city":"ひたちなか市","address":"東石川"},
{"zip_code":"3120042","kana_pref":"ｲﾊﾞﾗｷｹﾝ","kana_city":"ﾋﾀﾁﾅｶｼ","kana_address":"ﾋｶﾞｼｵｵｼﾏ","pref":"茨城県","city":"ひたちなか市","address":"東大島"},
{"zip_code":"3120034","kana_pref":"ｲﾊﾞﾗｷｹﾝ","kana_city":"ﾋﾀﾁﾅｶｼ","kana_address":"ﾎﾘｸﾞﾁ","pref":"茨城県","city":"ひたちなか市","address":"堀口"},
{"zip_code":"3120006","kana_pref":"ｲﾊﾞﾗｷｹﾝ","kana_city":"ﾋﾀﾁﾅｶｼ","kana_address":"ﾏｴﾊﾏ","pref":"茨城県","city":"ひたちなか市","address":"前浜"},
{"zip_code":"3120016","kana_pref":"ｲﾊﾞﾗｷｹﾝ","kana_city":"ﾋﾀﾁﾅｶｼ","kana_address":"ﾏﾂﾄﾞﾁｮｳ","pref":"茨城県","city":"ひたちなか市","address":"松戸町"},
{"zip_code":"3120012","kana_pref":"ｲﾊﾞﾗｷｹﾝ","kana_city":"ﾋﾀﾁﾅｶｼ","kana_address":"ﾏﾜﾀﾘ","pref":"茨城県","city":"ひたちなか市","address":"馬渡"},
{"zip_code":"3120021","kana_pref":"ｲﾊﾞﾗｷｹﾝ","kana_city":"ﾋﾀﾁﾅｶｼ","kana_address":"ﾐﾀﾝﾀﾞ","pref":"茨城県","city":"ひたちなか市","address":"三反田"},
{"zip_code":"3120044","kana_pref":"ｲﾊﾞﾗｷｹﾝ","kana_city":"ﾋﾀﾁﾅｶｼ","kana_address":"ﾓﾄﾏﾁ","pref":"茨城県","city":"ひたちなか市","address":"元町"}]}