{"zip_code":[
{"zip_code":"3130000","kana_pref":"ｲﾊﾞﾗｷｹﾝ","kana_city":"ﾋﾀﾁｵｵﾀｼ","kana_address":"","pref":"茨城県","city":"常陸太田市","address":""},
{"zip_code":"3130102","kana_pref":"ｲﾊﾞﾗｷｹﾝ","kana_city":"ﾋﾀﾁｵｵﾀｼ","kana_address":"ｱｶﾂﾞﾁﾁｮｳ","pref":"茨城県","city":"常陸太田市","address":"赤土町"},
{"zip_code":"3130121","kana_pref":"ｲﾊﾞﾗｷｹﾝ","kana_city":"ﾋﾀﾁｵｵﾀｼ","kana_address":"ｱｼﾏﾁｮｳ","pref":"茨城県","city":"常陸太田市","address":"芦間町"},
{"zip_code":"3130132","kana_pref":"ｲﾊﾞﾗｷｹﾝ","kana_city":"ﾋﾀﾁｵｵﾀｼ","kana_address":"ｱﾗｼﾞﾁｮｳ","pref":"茨城県","city":"常陸太田市","address":"新地町"},
{"zip_code":"3130007","kana_pref":"ｲﾊﾞﾗｷｹﾝ","kana_city":"ﾋﾀﾁｵｵﾀｼ","kana_address":"ｱﾗｼﾞｭｸﾁｮｳ","pref":"茨城県","city":"常陸太田市","address":"新宿町"},
{"zip_code":"3130045","kana_pref":"ｲﾊﾞﾗｷｹﾝ","kana_city":"ﾋﾀﾁｵｵﾀｼ","kana_address":"ｱﾜﾊﾞﾗﾁｮｳ","pref":"茨城県","city":"常陸太田市","address":"粟原町"},
{"zip_code":"3130042","kana_pref":"ｲﾊﾞﾗｷｹﾝ","kana_city":"ﾋﾀﾁｵｵﾀｼ","kana_address":"ｲｿﾍﾞﾁｮｳ","pref":"茨城県","city":"常陸太田市","address":"磯部町"},
{"zip_code":"3130041","kana_pref":"ｲﾊﾞﾗｷｹﾝ","kana_city":"ﾋﾀﾁｵｵﾀｼ","kana_address":"ｲﾅｷﾞﾁｮｳ","pref":"茨城県","city":"常陸太田市","address":"稲木町"},
{"zip_code":"3130112","kana_pref":"ｲﾊﾞﾗｷｹﾝ","kana_city":"ﾋﾀﾁｵｵﾀｼ","kana_address":"ｲﾜﾃﾁｮｳ","pref":"茨城県","city":"常陸太田市","address":"岩手町"},
{"zip_code":"3130037","kana_pref":"ｲﾊﾞﾗｷｹﾝ","kana_city":"ﾋﾀﾁｵｵﾀｼ","kana_address":"ｳﾁﾀﾞﾁｮｳ","pref":"茨城県","city":"常陸太田市","address":"内田町"},
{"zip_code":"3130063","kana_pref":"ｲﾊﾞﾗｷｹﾝ","kana_city":"ﾋﾀﾁｵｵﾀｼ","kana_address":"ｳﾁﾎﾞﾘﾁｮｳ","pref":"茨城県","city":"常陸太田市","address":"内堀町"},
{"zip_code":"3130116","kana_pref":"ｲﾊﾞﾗｷｹﾝ","kana_city":"ﾋﾀﾁｵｵﾀｼ","kana_address":"ｵｵｶﾀﾁｮｳ","pref":"茨城県","city":"常陸太田市","address":"大方町"},
{"zip_code":"3130125","kana_pref":"ｲﾊﾞﾗｷｹﾝ","kana_city":"ﾋﾀﾁｵｵﾀｼ","kana_address":"ｵｵｻﾄﾁｮｳ","pref":"茨城県","city":"常陸太田市","address":"大里町"},
{"zip_code":"3130124","kana_pref":"ｲﾊﾞﾗｷｹﾝ","kana_city":"ﾋﾀﾁｵｵﾀｼ","kana_address":"ｵｵﾀﾞｲﾗﾁｮｳ","pref":"茨城県","city":"常陸太田市","address":"大平町"},
{"zip_code":"3130021","kana_pref":"ｲﾊﾞﾗｷｹﾝ","kana_city":"ﾋﾀﾁｵｵﾀｼ","kana_address":"ｵｵﾓﾘﾁｮｳ","pref":"茨城県","city":"常陸太田市","address":"大森町"},
{"zip_code":"3130031","kana_pref":"ｲﾊﾞﾗｷｹﾝ","kana_city":"ﾋﾀﾁｵｵﾀｼ","kana_address":"ｵｶﾀﾞﾁｮｳ","pref":"茨城県","city":"常陸太田市","address":"岡田町"},
{"zip_code":"3130038","kana_pref":"ｲﾊﾞﾗｷｹﾝ","kana_city":"ﾋﾀﾁｵｵﾀｼ","kana_address":"ｵｻﾞﾜﾁｮｳ","pref":"茨城県","city":"常陸太田市","address":"小沢町"},
{"zip_code":"3130135","kana_pref":"ｲﾊﾞﾗｷｹﾝ","kana_city":"ﾋﾀﾁｵｵﾀｼ","kana_address":"ｵｼﾞﾏﾁｮｳ","pref":"茨城県","city":"常陸太田市","address":"小島町"},
{"zip_code":"3130036","kana_pref":"ｲﾊﾞﾗｷｹﾝ","kana_city":"ﾋﾀﾁｵｵﾀｼ","kana_address":"ｵﾁｱｲﾁｮｳ","pref":"茨城県","city":"常陸太田市","address":"落合町"},
{"zip_code":"3130033","kana_pref":"ｲﾊﾞﾗｷｹﾝ","kana_city":"ﾋﾀﾁｵｵﾀｼ","kana_address":"ｵﾒﾁｮｳ","pref":"茨城県","city":"常陸太田市","address":"小目町"},
{"zip_code":"3130035","kana_pref":"ｲﾊﾞﾗｷｹﾝ","kana_city":"ﾋﾀﾁｵｵﾀｼ","kana_address":"ｶｷﾜﾁｮｳ","pref":"茨城県","city":"常陸太田市","address":"堅磐町"},
{"zip_code":"3130016","kana_pref":"ｲﾊﾞﾗｷｹﾝ","kana_city":"ﾋﾀﾁｵｵﾀｼ","kana_address":"ｶﾅｲﾁｮｳ","pref":"茨城県","city":"常陸太田市","address":"金井町"},
{"zip_code":"3130001","kana_pref":"ｲﾊﾞﾗｷｹﾝ","kana_city":"ﾋﾀﾁｵｵﾀｼ","kana_address":"ｶﾐｵｵｶﾄﾞﾁｮｳ","pref":"茨城県","city":"常陸太田市","address":"上大門町"},
{"zip_code":"3130046","kana_pref":"ｲﾊﾞﾗｷｹﾝ","kana_city":"ﾋﾀﾁｵｵﾀｼ","kana_address":"ｶﾐｶﾜｲﾁｮｳ","pref":"茨城県","city":"常陸太田市","address":"上河合町"},
{"zip_code":"3130353","kana_pref":"ｲﾊﾞﾗｷｹﾝ","kana_city":"ﾋﾀﾁｵｵﾀｼ","kana_address":"ｶﾐﾀｶｸﾗﾁｮｳ","pref":"茨城県","city":"常陸太田市","address":"上高倉町"},
{"zip_code":"3130034","kana_pref":"ｲﾊﾞﾗｷｹﾝ","kana_city":"ﾋﾀﾁｵｵﾀｼ","kana_address":"ｶﾐﾄﾞｷﾞｳﾁﾁｮｳ","pref":"茨城県","city":"常陸太田市","address":"上土木内町"},
{"zip_code":"3130104","kana_pref":"ｲﾊﾞﾗｷｹﾝ","kana_city":"ﾋﾀﾁｵｵﾀｼ","kana_address":"ｶﾐﾄｼｶｽﾞﾁｮｳ","pref":"茨城県","city":"常陸太田市","address":"上利員町"},
{"zip_code":"3130101","kana_pref":"ｲﾊﾞﾗｷｹﾝ","kana_city":"ﾋﾀﾁｵｵﾀｼ","kana_address":"ｶﾐﾐﾔｶﾜｳﾁﾁｮｳ","pref":"茨城県","city":"常陸太田市","address":"上宮河内町"},
{"zip_code":"3130023","kana_pref":"ｲﾊﾞﾗｷｹﾝ","kana_city":"ﾋﾀﾁｵｵﾀｼ","kana_address":"ｶﾒｻﾞｸﾁｮｳ","pref":"茨城県","city":"常陸太田市","address":"亀作町"},
{"zip_code":"3130015","kana_pref":"ｲﾊﾞﾗｷｹﾝ","kana_city":"ﾋﾀﾁｵｵﾀｼ","kana_address":"ｷｻﾞｷｲﾁﾁｮｳ","pref":"茨城県","city":"常陸太田市","address":"木崎一町"},
{"zip_code":"3130014","kana_pref":"ｲﾊﾞﾗｷｹﾝ","kana_city":"ﾋﾀﾁｵｵﾀｼ","kana_address":"ｷｻﾞｷﾆﾁｮｳ","pref":"茨城県","city":"常陸太田市","address":"木崎二町"},
{"zip_code":"3130126","kana_pref":"ｲﾊﾞﾗｷｹﾝ","kana_city":"ﾋﾀﾁｵｵﾀｼ","kana_address":"ｸｽﾘﾔﾁｮｳ","pref":"茨城県","city":"常陸太田市","address":"薬谷町"},
{"zip_code":"3130221","kana_pref":"ｲﾊﾞﾗｷｹﾝ","kana_city":"ﾋﾀﾁｵｵﾀｼ","kana_address":"ｸﾆﾔｽﾁｮｳ","pref":"茨城県","city":"常陸太田市","address":"国安町"},
{"zip_code":"3130123","kana_pref":"ｲﾊﾞﾗｷｹﾝ","kana_city":"ﾋﾀﾁｵｵﾀｼ","kana_address":"ｸﾒﾁｮｳ","pref":"茨城県","city":"常陸太田市","address":"久米町"},
{"zip_code":"3130351","kana_pref":"ｲﾊﾞﾗｷｹﾝ","kana_city":"ﾋﾀﾁｵｵﾀｼ","kana_address":"ｹｶﾞﾉﾁｮｳ","pref":"茨城県","city":"常陸太田市","address":"天下野町"},
{"zip_code":"3130064","kana_pref":"ｲﾊﾞﾗｷｹﾝ","kana_city":"ﾋﾀﾁｵｵﾀｼ","kana_address":"ｺﾄﾌﾞｷﾁｮｳ","pref":"茨城県","city":"常陸太田市","address":"寿町"},
{"zip_code":"3130005","kana_pref":"ｲﾊﾞﾗｷｹﾝ","kana_city":"ﾋﾀﾁｵｵﾀｼ","kana_address":"ｻｶｴﾁｮｳ","pref":"茨城県","city":"常陸太田市","address":"栄町"},
{"zip_code":"3130032","kana_pref":"ｲﾊﾞﾗｷｹﾝ","kana_city":"ﾋﾀﾁｵｵﾀｼ","kana_address":"ｻﾜﾒﾁｮｳ","pref":"茨城県","city":"常陸太田市","address":"沢目町"},
{"zip_code":"3130012","kana_pref":"ｲﾊﾞﾗｷｹﾝ","kana_city":"ﾋﾀﾁｵｵﾀｼ","kana_address":"ｻﾝｻﾞｲﾁｮｳ","pref":"茨城県","city":"常陸太田市","address":"三才町"},
{"zip_code":"3130047","kana_pref":"ｲﾊﾞﾗｷｹﾝ","kana_city":"ﾋﾀﾁｵｵﾀｼ","kana_address":"ｼﾏﾁｮｳ","pref":"茨城県","city":"常陸太田市","address":"島町"},
{"zip_code":"3130002","kana_pref":"ｲﾊﾞﾗｷｹﾝ","kana_city":"ﾋﾀﾁｵｵﾀｼ","kana_address":"ｼﾓｵｵｶﾄﾞﾁｮｳ","pref":"茨城県","city":"常陸太田市","address":"下大門町"},
{"zip_code":"3130044","kana_pref":"ｲﾊﾞﾗｷｹﾝ","kana_city":"ﾋﾀﾁｵｵﾀｼ","kana_address":"ｼﾓｶﾜｲﾁｮｳ","pref":"茨城県","city":"常陸太田市","address":"下河合町"},
{"zip_code":"3130352","kana_pref":"ｲﾊﾞﾗｷｹﾝ","kana_city":"ﾋﾀﾁｵｵﾀｼ","kana_address":"ｼﾓﾀｶｸﾗﾁｮｳ","pref":"茨城県","city":"常陸太田市","address":"下高倉町"},
{"zip_code":"3130106","kana_pref":"ｲﾊﾞﾗｷｹﾝ","kana_city":"ﾋﾀﾁｵｵﾀｼ","kana_address":"ｼﾓﾄｼｶｽﾞﾁｮｳ","pref":"茨城県","city":"常陸太田市","address":"下利員町"},
{"zip_code":"3130103","kana_pref":"ｲﾊﾞﾗｷｹﾝ","kana_city":"ﾋﾀﾁｵｵﾀｼ","kana_address":"ｼﾓﾐﾔｶﾜｳﾁﾁｮｳ","pref":"茨城県","city":"常陸太田市","address":"下宮河内町"},
{"zip_code":"3130003","kana_pref":"ｲﾊﾞﾗｷｹﾝ","kana_city":"ﾋﾀﾁｵｵﾀｼ","kana_address":"ｽﾞｲﾘｭｳﾁｮｳ","pref":"茨城県","city":"常陸太田市","address":"瑞龍町"},
{"zip_code":"3130111","kana_pref":"ｲﾊﾞﾗｷｹﾝ","kana_city":"ﾋﾀﾁｵｵﾀｼ","kana_address":"ｾﾝｽﾞﾁｮｳ","pref":"茨城県","city":"常陸太田市","address":"千寿町"},
{"zip_code":"3130113","kana_pref":"ｲﾊﾞﾗｷｹﾝ","kana_city":"ﾋﾀﾁｵｵﾀｼ","kana_address":"ﾀｶｶﾞｷﾁｮｳ","pref":"茨城県","city":"常陸太田市","address":"高柿町"},
{"zip_code":"3130024","kana_pref":"ｲﾊﾞﾗｷｹﾝ","kana_city":"ﾋﾀﾁｵｵﾀｼ","kana_address":"ﾀｶﾇｷﾁｮｳ","pref":"茨城県","city":"常陸太田市","address":"高貫町"},
{"zip_code":"3130115","kana_pref":"ｲﾊﾞﾗｷｹﾝ","kana_city":"ﾋﾀﾁｵｵﾀｼ","kana_address":"ﾀｹｱｲﾁｮｳ","pref":"茨城県","city":"常陸太田市","address":"竹合町"},
{"zip_code":"3130225","kana_pref":"ｲﾊﾞﾗｷｹﾝ","kana_city":"ﾋﾀﾁｵｵﾀｼ","kana_address":"ﾀﾅﾔﾁｮｳ","pref":"茨城県","city":"常陸太田市","address":"棚谷町"},
{"zip_code":"3130122","kana_pref":"ｲﾊﾞﾗｷｹﾝ","kana_city":"ﾋﾀﾁｵｵﾀｼ","kana_address":"ﾀﾏﾂｸﾘﾁｮｳ","pref":"茨城県","city":"常陸太田市","address":"玉造町"},
{"zip_code":"3130026","kana_pref":"ｲﾊﾞﾗｷｹﾝ","kana_city":"ﾋﾀﾁｵｵﾀｼ","kana_address":"ﾀﾜﾀﾘﾁｮｳ","pref":"茨城県","city":"常陸太田市","address":"田渡町"},
{"zip_code":"3130049","kana_pref":"ｲﾊﾞﾗｷｹﾝ","kana_city":"ﾋﾀﾁｵｵﾀｼ","kana_address":"ﾃﾝｼﾞﾝﾊﾞﾔｼﾁｮｳ","pref":"茨城県","city":"常陸太田市","address":"天神林町"},
{"zip_code":"3130224","kana_pref":"ｲﾊﾞﾗｷｹﾝ","kana_city":"ﾋﾀﾁｵｵﾀｼ","kana_address":"ﾄｳﾚﾝｼﾞﾁｮｳ","pref":"茨城県","city":"常陸太田市","address":"東連地町"},
{"zip_code":"3130061","kana_pref":"ｲﾊﾞﾗｷｹﾝ","kana_city":"ﾋﾀﾁｵｵﾀｼ","kana_address":"ﾅｶｼﾞｮｳﾁｮｳ","pref":"茨城県","city":"常陸太田市","address":"中城町"},
{"zip_code":"3130212","kana_pref":"ｲﾊﾞﾗｷｹﾝ","kana_city":"ﾋﾀﾁｵｵﾀｼ","kana_address":"ﾅｶｿﾞﾒﾁｮｳ","pref":"茨城県","city":"常陸太田市","address":"中染町"},
{"zip_code":"3130105","kana_pref":"ｲﾊﾞﾗｷｹﾝ","kana_city":"ﾋﾀﾁｵｵﾀｼ","kana_address":"ﾅｶﾄｼｶｽﾞﾁｮｳ","pref":"茨城県","city":"常陸太田市","address":"中利員町"},
{"zip_code":"3130134","kana_pref":"ｲﾊﾞﾗｷｹﾝ","kana_city":"ﾋﾀﾁｵｵﾀｼ","kana_address":"ﾅｶﾉﾁｮｳ","pref":"茨城県","city":"常陸太田市","address":"中野町"},
{"zip_code":"3130056","kana_pref":"ｲﾊﾞﾗｷｹﾝ","kana_city":"ﾋﾀﾁｵｵﾀｼ","kana_address":"ﾆｼｲﾁﾁｮｳ","pref":"茨城県","city":"常陸太田市","address":"西一町"},
{"zip_code":"3130055","kana_pref":"ｲﾊﾞﾗｷｹﾝ","kana_city":"ﾋﾀﾁｵｵﾀｼ","kana_address":"ﾆｼﾆﾁｮｳ","pref":"茨城県","city":"常陸太田市","address":"西二町"},
{"zip_code":"3130054","kana_pref":"ｲﾊﾞﾗｷｹﾝ","kana_city":"ﾋﾀﾁｵｵﾀｼ","kana_address":"ﾆｼｻﾝﾁｮｳ","pref":"茨城県","city":"常陸太田市","address":"西三町"},
{"zip_code":"3130215","kana_pref":"ｲﾊﾞﾗｷｹﾝ","kana_city":"ﾋﾀﾁｵｵﾀｼ","kana_address":"ﾆｼｿﾞﾒﾁｮｳ","pref":"茨城県","city":"常陸太田市","address":"西染町"},
{"zip_code":"3130011","kana_pref":"ｲﾊﾞﾗｷｹﾝ","kana_city":"ﾋﾀﾁｵｵﾀｼ","kana_address":"ﾆｼﾐﾔﾁｮｳ","pref":"茨城県","city":"常陸太田市","address":"西宮町"},
{"zip_code":"3130027","kana_pref":"ｲﾊﾞﾗｷｹﾝ","kana_city":"ﾋﾀﾁｵｵﾀｼ","kana_address":"ﾊｾﾁｮｳ","pref":"茨城県","city":"常陸太田市","address":"長谷町"},
{"zip_code":"3130025","kana_pref":"ｲﾊﾞﾗｷｹﾝ","kana_city":"ﾋﾀﾁｵｵﾀｼ","kana_address":"ﾊﾀﾁｮｳ","pref":"茨城県","city":"常陸太田市","address":"幡町"},
{"zip_code":"3130131","kana_pref":"ｲﾊﾞﾗｷｹﾝ","kana_city":"ﾋﾀﾁｵｵﾀｼ","kana_address":"ﾊﾅﾌﾞｻﾁｮｳ","pref":"茨城県","city":"常陸太田市","address":"花房町"},
{"zip_code":"3130062","kana_pref":"ｲﾊﾞﾗｷｹﾝ","kana_city":"ﾋﾀﾁｵｵﾀｼ","kana_address":"ﾊﾅﾜﾁｮｳ","pref":"茨城県","city":"常陸太田市","address":"塙町"},
{"zip_code":"3130004","kana_pref":"ｲﾊﾞﾗｷｹﾝ","kana_city":"ﾋﾀﾁｵｵﾀｼ","kana_address":"ﾊﾞﾊﾞﾁｮｳ","pref":"茨城県","city":"常陸太田市","address":"馬場町"},
{"zip_code":"3130051","kana_pref":"ｲﾊﾞﾗｷｹﾝ","kana_city":"ﾋﾀﾁｵｵﾀｼ","kana_address":"ﾋｶﾞｼｲﾁﾁｮｳ","pref":"茨城県","city":"常陸太田市","address":"東一町"},
{"zip_code":"3130052","kana_pref":"ｲﾊﾞﾗｷｹﾝ","kana_city":"ﾋﾀﾁｵｵﾀｼ","kana_address":"ﾋｶﾞｼﾆﾁｮｳ","pref":"茨城県","city":"常陸太田市","address":"東二町"},
{"zip_code":"3130053","kana_pref":"ｲﾊﾞﾗｷｹﾝ","kana_city":"ﾋﾀﾁｵｵﾀｼ","kana_address":"ﾋｶﾞｼｻﾝﾁｮｳ","pref":"茨城県","city":"常陸太田市","address":"東三町"},
{"zip_code":"3130211","kana_pref":"ｲﾊﾞﾗｷｹﾝ","kana_city":"ﾋﾀﾁｵｵﾀｼ","kana_address":"ﾋｶﾞｼｿﾞﾒﾁｮｳ","pref":"茨城県","city":"常陸太田市","address":"東染町"},
{"zip_code":"3130048","kana_pref":"ｲﾊﾞﾗｷｹﾝ","kana_city":"ﾋﾀﾁｵｵﾀｼ","kana_address":"ﾌｼﾞﾀﾁｮｳ","pref":"茨城県","city":"常陸太田市","address":"藤田町"},
{"zip_code":"3130008","kana_pref":"ｲﾊﾞﾗｷｹﾝ","kana_city":"ﾋﾀﾁｵｵﾀｼ","kana_address":"ﾏｼｲﾁｮｳ","pref":"茨城県","city":"常陸太田市","address":"増井町"},
{"zip_code":"3130213","kana_pref":"ｲﾊﾞﾗｷｹﾝ","kana_city":"ﾋﾀﾁｵｵﾀｼ","kana_address":"ﾏﾁﾀﾞﾁｮｳ","pref":"茨城県","city":"常陸太田市","address":"町田町"},
{"zip_code":"3130133","kana_pref":"ｲﾊﾞﾗｷｹﾝ","kana_city":"ﾋﾀﾁｵｵﾀｼ","kana_address":"ﾏﾂｻﾞｶﾁｮｳ","pref":"茨城県","city":"常陸太田市","address":"松栄町"},
{"zip_code":"3130222","kana_pref":"ｲﾊﾞﾗｷｹﾝ","kana_city":"ﾋﾀﾁｵｵﾀｼ","kana_address":"ﾏﾂﾀﾞｲﾗﾁｮｳ","pref":"茨城県","city":"常陸太田市","address":"松平町"},
{"zip_code":"3130022","kana_pref":"ｲﾊﾞﾗｷｹﾝ","kana_city":"ﾋﾀﾁｵｵﾀｼ","kana_address":"ﾏﾕﾐﾁｮｳ","pref":"茨城県","city":"常陸太田市","address":"真弓町"},
{"zip_code":"3130114","kana_pref":"ｲﾊﾞﾗｷｹﾝ","kana_city":"ﾋﾀﾁｵｵﾀｼ","kana_address":"ﾐﾁｮｳ","pref":"茨城県","city":"常陸太田市","address":"箕町"},
{"zip_code":"3130117","kana_pref":"ｲﾊﾞﾗｷｹﾝ","kana_city":"ﾋﾀﾁｵｵﾀｼ","kana_address":"ﾐﾔﾉｻﾄﾁｮｳ","pref":"茨城県","city":"常陸太田市","address":"宮の郷町"},
{"zip_code":"3130006","kana_pref":"ｲﾊﾞﾗｷｹﾝ","kana_city":"ﾋﾀﾁｵｵﾀｼ","kana_address":"ﾐﾔﾓﾄﾁｮｳ","pref":"茨城県","city":"常陸太田市","address":"宮本町"},
{"zip_code":"3130043","kana_pref":"ｲﾊﾞﾗｷｹﾝ","kana_city":"ﾋﾀﾁｵｵﾀｼ","kana_address":"ﾔｶﾞﾜﾗﾁｮｳ","pref":"茨城県","city":"常陸太田市","address":"谷河原町"},
{"zip_code":"3130013","kana_pref":"ｲﾊﾞﾗｷｹﾝ","kana_city":"ﾋﾀﾁｵｵﾀｼ","kana_address":"ﾔﾏｼﾀﾁｮｳ","pref":"茨城県","city":"常陸太田市","address":"山下町"},
{"zip_code":"3130214","kana_pref":"ｲﾊﾞﾗｷｹﾝ","kana_city":"ﾋﾀﾁｵｵﾀｼ","kana_address":"ﾜｸﾞﾁｮｳ","pref":"茨城県","city":"常陸太田市","address":"和久町"},
{"zip_code":"3130223","kana_pref":"ｲﾊﾞﾗｷｹﾝ","kana_city":"ﾋﾀﾁｵｵﾀｼ","kana_address":"ﾜﾀﾞﾁｮｳ","pref":"茨城県","city":"常陸太田市","address":"和田町"}]}