{"zip_code":[
{"zip_code":"3150000","kana_pref":"ｲﾊﾞﾗｷｹﾝ","kana_city":"ｲｼｵｶｼ","kana_address":"","pref":"茨城県","city":"石岡市","address":""},
{"zip_code":"3150148","kana_pref":"ｲﾊﾞﾗｷｹﾝ","kana_city":"ｲｼｵｶｼ","kana_address":"ｱｵﾀ","pref":"茨城県","city":"石岡市","address":"青田"},
{"zip_code":"3150038","kana_pref":"ｲﾊﾞﾗｷｹﾝ","kana_city":"ｲｼｵｶｼ","kana_address":"ｱｻﾋﾀﾞｲ","pref":"茨城県","city":"石岡市","address":"旭台"},
{"zip_code":"3150021","kana_pref":"ｲﾊﾞﾗｷｹﾝ","kana_city":"ｲｼｵｶｼ","kana_address":"ｱﾗｶﾞﾈ","pref":"茨城県","city":"石岡市","address":"荒金"},
{"zip_code":"3150030","kana_pref":"ｲﾊﾞﾗｷｹﾝ","kana_city":"ｲｼｵｶｼ","kana_address":"ｲｹﾉﾀﾞｲ","pref":"茨城県","city":"石岡市","address":"池の台"},
{"zip_code":"3150001","kana_pref":"ｲﾊﾞﾗｷｹﾝ","kana_city":"ｲｼｵｶｼ","kana_address":"ｲｼｵｶ","pref":"茨城県","city":"石岡市","address":"石岡"},
{"zip_code":"3150046","kana_pref":"ｲﾊﾞﾗｷｹﾝ","kana_city":"ｲｼｵｶｼ","kana_address":"ｲｼｶﾜ","pref":"茨城県","city":"石岡市","address":"石川"},
{"zip_code":"3150025","kana_pref":"ｲﾊﾞﾗｷｹﾝ","kana_city":"ｲｼｵｶｼ","kana_address":"ｲｽﾞﾐﾁｮｳ","pref":"茨城県","city":"石岡市","address":"泉町"},
{"zip_code":"3150047","kana_pref":"ｲﾊﾞﾗｷｹﾝ","kana_city":"ｲｼｵｶｼ","kana_address":"ｲｾｷ","pref":"茨城県","city":"石岡市","address":"井関"},
{"zip_code":"3150162","kana_pref":"ｲﾊﾞﾗｷｹﾝ","kana_city":"ｲｼｵｶｼ","kana_address":"ｳｼﾞｴ","pref":"茨城県","city":"石岡市","address":"宇治会"},
{"zip_code":"3150115","kana_pref":"ｲﾊﾞﾗｷｹﾝ","kana_city":"ｲｼｵｶｼ","kana_address":"ｳﾗｽ","pref":"茨城県","city":"石岡市","address":"浦須"},
{"zip_code":"3150157","kana_pref":"ｲﾊﾞﾗｷｹﾝ","kana_city":"ｲｼｵｶｼ","kana_address":"ｳﾜｿ","pref":"茨城県","city":"石岡市","address":"上曽"},
{"zip_code":"3150009","kana_pref":"ｲﾊﾞﾗｷｹﾝ","kana_city":"ｲｼｵｶｼ","kana_address":"ｵｵｽﾅ","pref":"茨城県","city":"石岡市","address":"大砂"},
{"zip_code":"3150102","kana_pref":"ｲﾊﾞﾗｷｹﾝ","kana_city":"ｲｼｵｶｼ","kana_address":"ｵｵﾀ","pref":"茨城県","city":"石岡市","address":"太田"},
{"zip_code":"3150105","kana_pref":"ｲﾊﾞﾗｷｹﾝ","kana_city":"ｲｼｵｶｼ","kana_address":"ｵｵﾂｶ","pref":"茨城県","city":"石岡市","address":"大塚"},
{"zip_code":"3150101","kana_pref":"ｲﾊﾞﾗｷｹﾝ","kana_city":"ｲｼｵｶｼ","kana_address":"ｵｵﾏｽ","pref":"茨城県","city":"石岡市","address":"大増"},
{"zip_code":"3150036","kana_pref":"ｲﾊﾞﾗｷｹﾝ","kana_city":"ｲｼｵｶｼ","kana_address":"ｵｵﾔﾂ","pref":"茨城県","city":"石岡市","address":"大谷津"},
{"zip_code":"3150165","kana_pref":"ｲﾊﾞﾗｷｹﾝ","kana_city":"ｲｼｵｶｼ","kana_address":"ｵｸﾞﾗ","pref":"茨城県","city":"石岡市","address":"小倉"},
{"zip_code":"3150144","kana_pref":"ｲﾊﾞﾗｷｹﾝ","kana_city":"ｲｼｵｶｼ","kana_address":"ｵﾉｺﾞｴ","pref":"茨城県","city":"石岡市","address":"小野越"},
{"zip_code":"3150155","kana_pref":"ｲﾊﾞﾗｷｹﾝ","kana_city":"ｲｼｵｶｼ","kana_address":"ｵﾊﾞﾀ","pref":"茨城県","city":"石岡市","address":"小幡"},
{"zip_code":"3150104","kana_pref":"ｲﾊﾞﾗｷｹﾝ","kana_city":"ｲｼｵｶｼ","kana_address":"ｵﾐ","pref":"茨城県","city":"石岡市","address":"小見"},
{"zip_code":"3150166","kana_pref":"ｲﾊﾞﾗｷｹﾝ","kana_city":"ｲｼｵｶｼ","kana_address":"ｵﾔﾏﾀﾞ","pref":"茨城県","city":"石岡市","address":"小山田"},
{"zip_code":"3150015","kana_pref":"ｲﾊﾞﾗｷｹﾝ","kana_city":"ｲｼｵｶｼ","kana_address":"ｶｲｼﾞ","pref":"茨城県","city":"石岡市","address":"貝地"},
{"zip_code":"3150116","kana_pref":"ｲﾊﾞﾗｷｹﾝ","kana_city":"ｲｼｵｶｼ","kana_address":"ｶｷｵｶ","pref":"茨城県","city":"石岡市","address":"柿岡"},
{"zip_code":"3150002","kana_pref":"ｲﾊﾞﾗｷｹﾝ","kana_city":"ｲｼｵｶｼ","kana_address":"ｶｼﾜﾊﾞﾗ","pref":"茨城県","city":"石岡市","address":"柏原"},
{"zip_code":"3150004","kana_pref":"ｲﾊﾞﾗｷｹﾝ","kana_city":"ｲｼｵｶｼ","kana_address":"ｶｼﾜﾊﾞﾗﾁｮｳ","pref":"茨城県","city":"石岡市","address":"柏原町"},
{"zip_code":"3150113","kana_pref":"ｲﾊﾞﾗｷｹﾝ","kana_city":"ｲｼｵｶｼ","kana_address":"ｶﾀｵｶ","pref":"茨城県","city":"石岡市","address":"片岡"},
{"zip_code":"3150136","kana_pref":"ｲﾊﾞﾗｷｹﾝ","kana_city":"ｲｼｵｶｼ","kana_address":"ｶﾀﾉ","pref":"茨城県","city":"石岡市","address":"片野"},
{"zip_code":"3150137","kana_pref":"ｲﾊﾞﾗｷｹﾝ","kana_city":"ｲｼｵｶｼ","kana_address":"ｶﾅｻｼ","pref":"茨城県","city":"石岡市","address":"金指"},
{"zip_code":"3150005","kana_pref":"ｲﾊﾞﾗｷｹﾝ","kana_city":"ｲｼｵｶｼ","kana_address":"ｶﾉｺ","pref":"茨城県","city":"石岡市","address":"鹿の子"},
{"zip_code":"3150154","kana_pref":"ｲﾊﾞﾗｷｹﾝ","kana_city":"ｲｼｵｶｼ","kana_address":"ｶﾐｱｵﾔｷﾞ","pref":"茨城県","city":"石岡市","address":"上青柳"},
{"zip_code":"3150138","kana_pref":"ｲﾊﾞﾗｷｹﾝ","kana_city":"ｲｼｵｶｼ","kana_address":"ｶﾐﾊﾞﾔｼ","pref":"茨城県","city":"石岡市","address":"上林"},
{"zip_code":"3150135","kana_pref":"ｲﾊﾞﾗｷｹﾝ","kana_city":"ｲｼｵｶｼ","kana_address":"ｶﾖｳﾉ","pref":"茨城県","city":"石岡市","address":"加生野"},
{"zip_code":"3150114","kana_pref":"ｲﾊﾞﾗｷｹﾝ","kana_city":"ｲｼｵｶｼ","kana_address":"ｶﾗｽﾘ","pref":"茨城県","city":"石岡市","address":"嘉良寿理"},
{"zip_code":"3150134","kana_pref":"ｲﾊﾞﾗｷｹﾝ","kana_city":"ｲｼｵｶｼ","kana_address":"ｶﾜﾏﾀ","pref":"茨城県","city":"石岡市","address":"川又"},
{"zip_code":"3150111","kana_pref":"ｲﾊﾞﾗｷｹﾝ","kana_city":"ｲｼｵｶｼ","kana_address":"ｶﾜﾗﾔ","pref":"茨城県","city":"石岡市","address":"瓦谷"},
{"zip_code":"3150044","kana_pref":"ｲﾊﾞﾗｷｹﾝ","kana_city":"ｲｼｵｶｼ","kana_address":"ｷﾀﾈﾓﾄ","pref":"茨城県","city":"石岡市","address":"北根本"},
{"zip_code":"3150012","kana_pref":"ｲﾊﾞﾗｷｹﾝ","kana_city":"ｲｼｵｶｼ","kana_address":"ｷﾀﾌﾁｭｳ","pref":"茨城県","city":"石岡市","address":"北府中"},
{"zip_code":"3150163","kana_pref":"ｲﾊﾞﾗｷｹﾝ","kana_city":"ｲｼｵｶｼ","kana_address":"ｸｼﾞﾗｵｶ","pref":"茨城県","city":"石岡市","address":"鯨岡"},
{"zip_code":"3150010","kana_pref":"ｲﾊﾞﾗｷｹﾝ","kana_city":"ｲｼｵｶｼ","kana_address":"ｺﾞｲｼｻﾞﾜ","pref":"茨城県","city":"石岡市","address":"碁石沢"},
{"zip_code":"3150032","kana_pref":"ｲﾊﾞﾗｷｹﾝ","kana_city":"ｲｼｵｶｼ","kana_address":"ｺｲﾄﾞ","pref":"茨城県","city":"石岡市","address":"小井戸"},
{"zip_code":"3150014","kana_pref":"ｲﾊﾞﾗｷｹﾝ","kana_city":"ｲｼｵｶｼ","kana_address":"ｺｸﾌ","pref":"茨城県","city":"石岡市","address":"国府"},
{"zip_code":"3150161","kana_pref":"ｲﾊﾞﾗｷｹﾝ","kana_city":"ｲｼｵｶｼ","kana_address":"ｺﾊﾞﾅ","pref":"茨城県","city":"石岡市","address":"小塙"},
{"zip_code":"3150164","kana_pref":"ｲﾊﾞﾗｷｹﾝ","kana_city":"ｲｼｵｶｼ","kana_address":"ｺﾔ","pref":"茨城県","city":"石岡市","address":"小屋"},
{"zip_code":"3150019","kana_pref":"ｲﾊﾞﾗｷｹﾝ","kana_city":"ｲｼｵｶｼ","kana_address":"ｻｶｴﾏﾂ","pref":"茨城県","city":"石岡市","address":"栄松"},
{"zip_code":"3150117","kana_pref":"ｲﾊﾞﾗｷｹﾝ","kana_city":"ｲｼｵｶｼ","kana_address":"ｻｸ","pref":"茨城県","city":"石岡市","address":"佐久"},
{"zip_code":"3150143","kana_pref":"ｲﾊﾞﾗｷｹﾝ","kana_city":"ｲｼｵｶｼ","kana_address":"ｼﾊﾞｳﾁ","pref":"茨城県","city":"石岡市","address":"柴内"},
{"zip_code":"3150124","kana_pref":"ｲﾊﾞﾗｷｹﾝ","kana_city":"ｲｼｵｶｼ","kana_address":"ｼﾊﾞﾏ","pref":"茨城県","city":"石岡市","address":"柴間"},
{"zip_code":"3150153","kana_pref":"ｲﾊﾞﾗｷｹﾝ","kana_city":"ｲｼｵｶｼ","kana_address":"ｼﾓｱｵﾔｷﾞ","pref":"茨城県","city":"石岡市","address":"下青柳"},
{"zip_code":"3150131","kana_pref":"ｲﾊﾞﾗｷｹﾝ","kana_city":"ｲｼｵｶｼ","kana_address":"ｼﾓﾊﾞﾔｼ","pref":"茨城県","city":"石岡市","address":"下林"},
{"zip_code":"3150011","kana_pref":"ｲﾊﾞﾗｷｹﾝ","kana_city":"ｲｼｵｶｼ","kana_address":"ｼｮｳｼﾞｮｳｳﾁ","pref":"茨城県","city":"石岡市","address":"正上内"},
{"zip_code":"3150146","kana_pref":"ｲﾊﾞﾗｷｹﾝ","kana_city":"ｲｼｵｶｼ","kana_address":"ｼｮｳﾌﾞｻﾞﾜ","pref":"茨城県","city":"石岡市","address":"菖蒲沢"},
{"zip_code":"3150151","kana_pref":"ｲﾊﾞﾗｷｹﾝ","kana_city":"ｲｼｵｶｼ","kana_address":"ｽｶﾞﾏ","pref":"茨城県","city":"石岡市","address":"須釜"},
{"zip_code":"3150027","kana_pref":"ｲﾊﾞﾗｷｹﾝ","kana_city":"ｲｼｵｶｼ","kana_address":"ｽｷﾞﾅﾐ","pref":"茨城県","city":"石岡市","address":"杉並"},
{"zip_code":"3150026","kana_pref":"ｲﾊﾞﾗｷｹﾝ","kana_city":"ｲｼｵｶｼ","kana_address":"ｽｷﾞﾉｲ","pref":"茨城県","city":"石岡市","address":"杉の井"},
{"zip_code":"3150016","kana_pref":"ｲﾊﾞﾗｷｹﾝ","kana_city":"ｲｼｵｶｼ","kana_address":"ｿｳｼｬ","pref":"茨城県","city":"石岡市","address":"総社"},
{"zip_code":"3150007","kana_pref":"ｲﾊﾞﾗｷｹﾝ","kana_city":"ｲｼｵｶｼ","kana_address":"ｿﾒﾔ","pref":"茨城県","city":"石岡市","address":"染谷"},
{"zip_code":"3150045","kana_pref":"ｲﾊﾞﾗｷｹﾝ","kana_city":"ｲｼｵｶｼ","kana_address":"ﾀｶﾊﾏ","pref":"茨城県","city":"石岡市","address":"高浜"},
{"zip_code":"3150041","kana_pref":"ｲﾊﾞﾗｷｹﾝ","kana_city":"ｲｼｵｶｼ","kana_address":"ﾀｼﾞﾏ","pref":"茨城県","city":"石岡市","address":"田島"},
{"zip_code":"3150141","kana_pref":"ｲﾊﾞﾗｷｹﾝ","kana_city":"ｲｼｵｶｼ","kana_address":"ﾂｷｵｶ","pref":"茨城県","city":"石岡市","address":"月岡"},
{"zip_code":"3150147","kana_pref":"ｲﾊﾞﾗｷｹﾝ","kana_city":"ｲｼｵｶｼ","kana_address":"ﾂｼﾞ","pref":"茨城県","city":"石岡市","address":"辻"},
{"zip_code":"3150033","kana_pref":"ｲﾊﾞﾗｷｹﾝ","kana_city":"ｲｼｵｶｼ","kana_address":"ﾄｳｺｳﾀﾞｲ","pref":"茨城県","city":"石岡市","address":"東光台"},
{"zip_code":"3150043","kana_pref":"ｲﾊﾞﾗｷｹﾝ","kana_city":"ｲｼｵｶｼ","kana_address":"ﾅｶﾂｶﾞﾜ","pref":"茨城県","city":"石岡市","address":"中津川"},
{"zip_code":"3150103","kana_pref":"ｲﾊﾞﾗｷｹﾝ","kana_city":"ｲｼｵｶｼ","kana_address":"ﾅｶﾄﾞ","pref":"茨城県","city":"石岡市","address":"中戸"},
{"zip_code":"3150006","kana_pref":"ｲﾊﾞﾗｷｹﾝ","kana_city":"ｲｼｵｶｼ","kana_address":"ﾅﾐｷ","pref":"茨城県","city":"石岡市","address":"並木"},
{"zip_code":"3150022","kana_pref":"ｲﾊﾞﾗｷｹﾝ","kana_city":"ｲｼｵｶｼ","kana_address":"ﾅﾒﾘｶﾜ","pref":"茨城県","city":"石岡市","address":"行里川"},
{"zip_code":"3150029","kana_pref":"ｲﾊﾞﾗｷｹﾝ","kana_city":"ｲｼｵｶｼ","kana_address":"ﾈｱﾀﾘ","pref":"茨城県","city":"石岡市","address":"根当"},
{"zip_code":"3150132","kana_pref":"ｲﾊﾞﾗｷｹﾝ","kana_city":"ｲｼｵｶｼ","kana_address":"ﾈｺﾞﾔ","pref":"茨城県","city":"石岡市","address":"根小屋"},
{"zip_code":"3150118","kana_pref":"ｲﾊﾞﾗｷｹﾝ","kana_city":"ｲｼｵｶｼ","kana_address":"ﾉﾀﾞ","pref":"茨城県","city":"石岡市","address":"野田"},
{"zip_code":"3150024","kana_pref":"ｲﾊﾞﾗｷｹﾝ","kana_city":"ｲｼｵｶｼ","kana_address":"ﾊﾁｹﾝﾀﾞｲ","pref":"茨城県","city":"石岡市","address":"八軒台"},
{"zip_code":"3150042","kana_pref":"ｲﾊﾞﾗｷｹﾝ","kana_city":"ｲｼｵｶｼ","kana_address":"ﾊﾞﾗｷ","pref":"茨城県","city":"石岡市","address":"茨城"},
{"zip_code":"3150133","kana_pref":"ｲﾊﾞﾗｷｹﾝ","kana_city":"ｲｼｵｶｼ","kana_address":"ﾊﾝﾀﾞ","pref":"茨城県","city":"石岡市","address":"半田"},
{"zip_code":"3150028","kana_pref":"ｲﾊﾞﾗｷｹﾝ","kana_city":"ｲｼｵｶｼ","kana_address":"ﾊﾝﾉｷ","pref":"茨城県","city":"石岡市","address":"半ノ木"},
{"zip_code":"3150037","kana_pref":"ｲﾊﾞﾗｷｹﾝ","kana_city":"ｲｼｵｶｼ","kana_address":"ﾋｶﾞｼｲｼｵｶ","pref":"茨城県","city":"石岡市","address":"東石岡"},
{"zip_code":"3150031","kana_pref":"ｲﾊﾞﾗｷｹﾝ","kana_city":"ｲｼｵｶｼ","kana_address":"ﾋｶﾞｼｵｵﾊｼ","pref":"茨城県","city":"石岡市","address":"東大橋"},
{"zip_code":"3150034","kana_pref":"ｲﾊﾞﾗｷｹﾝ","kana_city":"ｲｼｵｶｼ","kana_address":"ﾋｶﾞｼﾀﾅｶ","pref":"茨城県","city":"石岡市","address":"東田中"},
{"zip_code":"3150122","kana_pref":"ｲﾊﾞﾗｷｹﾝ","kana_city":"ｲｼｵｶｼ","kana_address":"ﾋｶﾞｼﾅﾙｲ","pref":"茨城県","city":"石岡市","address":"東成井"},
{"zip_code":"3150023","kana_pref":"ｲﾊﾞﾗｷｹﾝ","kana_city":"ｲｼｵｶｼ","kana_address":"ﾋｶﾞｼﾌﾁｭｳ","pref":"茨城県","city":"石岡市","address":"東府中"},
{"zip_code":"3150013","kana_pref":"ｲﾊﾞﾗｷｹﾝ","kana_city":"ｲｼｵｶｼ","kana_address":"ﾌﾁｭｳ","pref":"茨城県","city":"石岡市","address":"府中"},
{"zip_code":"3150145","kana_pref":"ｲﾊﾞﾗｷｹﾝ","kana_city":"ｲｼｵｶｼ","kana_address":"ﾌﾞｯｼｮｳｼﾞ","pref":"茨城県","city":"石岡市","address":"仏生寺"},
{"zip_code":"3150112","kana_pref":"ｲﾊﾞﾗｷｹﾝ","kana_city":"ｲｼｵｶｼ","kana_address":"ﾍﾊﾞﾗ","pref":"茨城県","city":"石岡市","address":"部原"},
{"zip_code":"3150152","kana_pref":"ｲﾊﾞﾗｷｹﾝ","kana_city":"ｲｼｵｶｼ","kana_address":"ﾎｿﾔ","pref":"茨城県","city":"石岡市","address":"細谷"},
{"zip_code":"3150121","kana_pref":"ｲﾊﾞﾗｷｹﾝ","kana_city":"ｲｼｵｶｼ","kana_address":"ﾏｲｴ","pref":"茨城県","city":"石岡市","address":"真家"},
{"zip_code":"3150035","kana_pref":"ｲﾊﾞﾗｷｹﾝ","kana_city":"ｲｼｵｶｼ","kana_address":"ﾐﾅﾐﾀﾞｲ","pref":"茨城県","city":"石岡市","address":"南台"},
{"zip_code":"3150048","kana_pref":"ｲﾊﾞﾗｷｹﾝ","kana_city":"ｲｼｵｶｼ","kana_address":"ﾐﾑﾗ","pref":"茨城県","city":"石岡市","address":"三村"},
{"zip_code":"3150123","kana_pref":"ｲﾊﾞﾗｷｹﾝ","kana_city":"ｲｼｵｶｼ","kana_address":"ﾐﾔｶﾞｻｷ","pref":"茨城県","city":"石岡市","address":"宮ケ崎"},
{"zip_code":"3150008","kana_pref":"ｲﾊﾞﾗｷｹﾝ","kana_city":"ｲｼｵｶｼ","kana_address":"ﾑﾗｶﾐ","pref":"茨城県","city":"石岡市","address":"村上"},
{"zip_code":"3150125","kana_pref":"ｲﾊﾞﾗｷｹﾝ","kana_city":"ｲｼｵｶｼ","kana_address":"ﾔﾏｻﾞｷ","pref":"茨城県","city":"石岡市","address":"山崎"},
{"zip_code":"3150003","kana_pref":"ｲﾊﾞﾗｷｹﾝ","kana_city":"ｲｼｵｶｼ","kana_address":"ﾔﾑｶｲﾁｮｳ","pref":"茨城県","city":"石岡市","address":"谷向町"},
{"zip_code":"3150142","kana_pref":"ｲﾊﾞﾗｷｹﾝ","kana_city":"ｲｼｵｶｼ","kana_address":"ﾕﾂﾞﾘ","pref":"茨城県","city":"石岡市","address":"弓弦"},
{"zip_code":"3150156","kana_pref":"ｲﾊﾞﾗｷｹﾝ","kana_city":"ｲｼｵｶｼ","kana_address":"ﾖｼｳ","pref":"茨城県","city":"石岡市","address":"吉生"},
{"zip_code":"3150167","kana_pref":"ｲﾊﾞﾗｷｹﾝ","kana_city":"ｲｼｵｶｼ","kana_address":"ﾘｭｳﾒｲ","pref":"茨城県","city":"石岡市","address":"龍明"},
{"zip_code":"3150018","kana_pref":"ｲﾊﾞﾗｷｹﾝ","kana_city":"ｲｼｵｶｼ","kana_address":"ﾜｶﾏﾂ","pref":"茨城県","city":"石岡市","address":"若松"},
{"zip_code":"3150017","kana_pref":"ｲﾊﾞﾗｷｹﾝ","kana_city":"ｲｼｵｶｼ","kana_address":"ﾜｶﾐﾔ","pref":"茨城県","city":"石岡市","address":"若宮"},
{"zip_code":"3150000","kana_pref":"ｲﾊﾞﾗｷｹﾝ","kana_city":"ｶｽﾐｶﾞｳﾗｼ","kana_address":"","pref":"茨城県","city":"かすみがうら市","address":""},
{"zip_code":"3150078","kana_pref":"ｲﾊﾞﾗｷｹﾝ","kana_city":"ｶｽﾐｶﾞｳﾗｼ","kana_address":"ｱﾜﾀﾞ","pref":"茨城県","city":"かすみがうら市","address":"粟田"},
{"zip_code":"3150063","kana_pref":"ｲﾊﾞﾗｷｹﾝ","kana_city":"ｶｽﾐｶﾞｳﾗｼ","kana_address":"ｲｲﾀﾞ","pref":"茨城県","city":"かすみがうら市","address":"飯田"},
{"zip_code":"3150071","kana_pref":"ｲﾊﾞﾗｷｹﾝ","kana_city":"ｶｽﾐｶﾞｳﾗｼ","kana_address":"ｲﾁｶﾜ","pref":"茨城県","city":"かすみがうら市","address":"市川"},
{"zip_code":"3150054","kana_pref":"ｲﾊﾞﾗｷｹﾝ","kana_city":"ｶｽﾐｶﾞｳﾗｼ","kana_address":"ｲﾅﾖｼ","pref":"茨城県","city":"かすみがうら市","address":"稲吉"},
{"zip_code":"3150053","kana_pref":"ｲﾊﾞﾗｷｹﾝ","kana_city":"ｶｽﾐｶﾞｳﾗｼ","kana_address":"ｲﾅﾖｼﾋｶﾞｼ","pref":"茨城県","city":"かすみがうら市","address":"稲吉東"},
{"zip_code":"3150055","kana_pref":"ｲﾊﾞﾗｷｹﾝ","kana_city":"ｶｽﾐｶﾞｳﾗｼ","kana_address":"ｲﾅﾖｼﾐﾅﾐ","pref":"茨城県","city":"かすみがうら市","address":"稲吉南"},
{"zip_code":"3150064","kana_pref":"ｲﾊﾞﾗｷｹﾝ","kana_city":"ｶｽﾐｶﾞｳﾗｼ","kana_address":"ｵｵﾐﾈ","pref":"茨城県","city":"かすみがうら市","address":"大峰"},
{"zip_code":"3150056","kana_pref":"ｲﾊﾞﾗｷｹﾝ","kana_city":"ｶｽﾐｶﾞｳﾗｼ","kana_address":"ｶﾐｲﾅﾖｼ","pref":"茨城県","city":"かすみがうら市","address":"上稲吉"},
{"zip_code":"3150065","kana_pref":"ｲﾊﾞﾗｷｹﾝ","kana_city":"ｶｽﾐｶﾞｳﾗｼ","kana_address":"ｶﾐｻﾔ","pref":"茨城県","city":"かすみがうら市","address":"上佐谷"},
{"zip_code":"3150076","kana_pref":"ｲﾊﾞﾗｷｹﾝ","kana_city":"ｶｽﾐｶﾞｳﾗｼ","kana_address":"ｶﾐｼﾂﾞｸ","pref":"茨城県","city":"かすみがうら市","address":"上志筑"},
{"zip_code":"3150057","kana_pref":"ｲﾊﾞﾗｷｹﾝ","kana_city":"ｶｽﾐｶﾞｳﾗｼ","kana_address":"ｶﾐﾂﾁﾀﾞ","pref":"茨城県","city":"かすみがうら市","address":"上土田"},
{"zip_code":"3150061","kana_pref":"ｲﾊﾞﾗｷｹﾝ","kana_city":"ｶｽﾐｶﾞｳﾗｼ","kana_address":"ｺﾞﾀﾝﾀﾞ","pref":"茨城県","city":"かすみがうら市","address":"五反田"},
{"zip_code":"3150052","kana_pref":"ｲﾊﾞﾗｷｹﾝ","kana_city":"ｶｽﾐｶﾞｳﾗｼ","kana_address":"ｼﾓｲﾅﾖｼ","pref":"茨城県","city":"かすみがうら市","address":"下稲吉"},
{"zip_code":"3150067","kana_pref":"ｲﾊﾞﾗｷｹﾝ","kana_city":"ｶｽﾐｶﾞｳﾗｼ","kana_address":"ｼﾓｻﾔ","pref":"茨城県","city":"かすみがうら市","address":"下佐谷"},
{"zip_code":"3150074","kana_pref":"ｲﾊﾞﾗｷｹﾝ","kana_city":"ｶｽﾐｶﾞｳﾗｼ","kana_address":"ｼﾓｼﾂﾞｸ","pref":"茨城県","city":"かすみがうら市","address":"下志筑"},
{"zip_code":"3150058","kana_pref":"ｲﾊﾞﾗｷｹﾝ","kana_city":"ｶｽﾐｶﾞｳﾗｼ","kana_address":"ｼﾓﾂﾁﾀﾞ","pref":"茨城県","city":"かすみがうら市","address":"下土田"},
{"zip_code":"3150077","kana_pref":"ｲﾊﾞﾗｷｹﾝ","kana_city":"ｶｽﾐｶﾞｳﾗｼ","kana_address":"ﾀｶｸﾗ","pref":"茨城県","city":"かすみがうら市","address":"高倉"},
{"zip_code":"3150066","kana_pref":"ｲﾊﾞﾗｷｹﾝ","kana_city":"ｶｽﾐｶﾞｳﾗｼ","kana_address":"ﾅｶｻﾔ","pref":"茨城県","city":"かすみがうら市","address":"中佐谷"},
{"zip_code":"3150075","kana_pref":"ｲﾊﾞﾗｷｹﾝ","kana_city":"ｶｽﾐｶﾞｳﾗｼ","kana_address":"ﾅｶｼﾂﾞｸ","pref":"茨城県","city":"かすみがうら市","address":"中志筑"},
{"zip_code":"3150051","kana_pref":"ｲﾊﾞﾗｷｹﾝ","kana_city":"ｶｽﾐｶﾞｳﾗｼ","kana_address":"ﾆｲﾊﾘ","pref":"茨城県","city":"かすみがうら市","address":"新治"},
{"zip_code":"3150073","kana_pref":"ｲﾊﾞﾗｷｹﾝ","kana_city":"ｶｽﾐｶﾞｳﾗｼ","kana_address":"ﾆｼﾉﾃﾞﾗ","pref":"茨城県","city":"かすみがうら市","address":"西野寺"},
{"zip_code":"3150072","kana_pref":"ｲﾊﾞﾗｷｹﾝ","kana_city":"ｶｽﾐｶﾞｳﾗｼ","kana_address":"ﾋｶﾞｼﾉﾃﾞﾗ","pref":"茨城県","city":"かすみがうら市","address":"東野寺"},
{"zip_code":"3150068","kana_pref":"ｲﾊﾞﾗｷｹﾝ","kana_city":"ｶｽﾐｶﾞｳﾗｼ","kana_address":"ﾔﾏﾓﾄ","pref":"茨城県","city":"かすみがうら市","address":"山本"},
{"zip_code":"3150069","kana_pref":"ｲﾊﾞﾗｷｹﾝ","kana_city":"ｶｽﾐｶﾞｳﾗｼ","kana_address":"ﾕｷｲﾘ","pref":"茨城県","city":"かすみがうら市","address":"雪入"},
{"zip_code":"3150062","kana_pref":"ｲﾊﾞﾗｷｹﾝ","kana_city":"ｶｽﾐｶﾞｳﾗｼ","kana_address":"ﾖｺﾎﾞﾘ","pref":"茨城県","city":"かすみがうら市","address":"横堀"}]}