{"zip_code":[
{"zip_code":"3160036","kana_pref":"ｲﾊﾞﾗｷｹﾝ","kana_city":"ﾋﾀﾁｼ","kana_address":"ｱﾕｶﾜﾁｮｳ","pref":"茨城県","city":"日立市","address":"鮎川町"},
{"zip_code":"3160012","kana_pref":"ｲﾊﾞﾗｷｹﾝ","kana_city":"ﾋﾀﾁｼ","kana_address":"ｵｵｸﾎﾞﾁｮｳ","pref":"茨城県","city":"日立市","address":"大久保町"},
{"zip_code":"3160022","kana_pref":"ｲﾊﾞﾗｷｹﾝ","kana_city":"ﾋﾀﾁｼ","kana_address":"ｵｵﾇﾏﾁｮｳ","pref":"茨城県","city":"日立市","address":"大沼町"},
{"zip_code":"3160015","kana_pref":"ｲﾊﾞﾗｷｹﾝ","kana_city":"ﾋﾀﾁｼ","kana_address":"ｶﾈｻﾜﾁｮｳ","pref":"茨城県","city":"日立市","address":"金沢町"},
{"zip_code":"3160005","kana_pref":"ｲﾊﾞﾗｷｹﾝ","kana_city":"ﾋﾀﾁｼ","kana_address":"ｶﾜﾗｺﾞﾁｮｳ","pref":"茨城県","city":"日立市","address":"河原子町"},
{"zip_code":"3160035","kana_pref":"ｲﾊﾞﾗｷｹﾝ","kana_city":"ﾋﾀﾁｼ","kana_address":"ｺｸﾌﾞﾁｮｳ","pref":"茨城県","city":"日立市","address":"国分町"},
{"zip_code":"3160002","kana_pref":"ｲﾊﾞﾗｷｹﾝ","kana_city":"ﾋﾀﾁｼ","kana_address":"ｻｸﾗｶﾞﾜﾁｮｳ","pref":"茨城県","city":"日立市","address":"桜川町"},
{"zip_code":"3160006","kana_pref":"ｲﾊﾞﾗｷｹﾝ","kana_city":"ﾋﾀﾁｼ","kana_address":"ｽｴﾋﾛﾁｮｳ","pref":"茨城県","city":"日立市","address":"末広町"},
{"zip_code":"3160001","kana_pref":"ｲﾊﾞﾗｷｹﾝ","kana_city":"ﾋﾀﾁｼ","kana_address":"ｽﾜﾁｮｳ","pref":"茨城県","city":"日立市","address":"諏訪町"},
{"zip_code":"3160021","kana_pref":"ｲﾊﾞﾗｷｹﾝ","kana_city":"ﾋﾀﾁｼ","kana_address":"ﾀﾞｲﾊﾗﾁｮｳ","pref":"茨城県","city":"日立市","address":"台原町"},
{"zip_code":"3160003","kana_pref":"ｲﾊﾞﾗｷｹﾝ","kana_city":"ﾋﾀﾁｼ","kana_address":"ﾀｶﾞﾁｮｳ","pref":"茨城県","city":"日立市","address":"多賀町"},
{"zip_code":"3160013","kana_pref":"ｲﾊﾞﾗｷｹﾝ","kana_city":"ﾋﾀﾁｼ","kana_address":"ﾁｺｸﾁｮｳ","pref":"茨城県","city":"日立市","address":"千石町"},
{"zip_code":"3160033","kana_pref":"ｲﾊﾞﾗｷｹﾝ","kana_city":"ﾋﾀﾁｼ","kana_address":"ﾅｶﾅﾙｻﾜﾁｮｳ","pref":"茨城県","city":"日立市","address":"中成沢町"},
{"zip_code":"3160007","kana_pref":"ｲﾊﾞﾗｷｹﾝ","kana_city":"ﾋﾀﾁｼ","kana_address":"ﾅｶﾏﾙﾁｮｳ","pref":"茨城県","city":"日立市","address":"中丸町"},
{"zip_code":"3160031","kana_pref":"ｲﾊﾞﾗｷｹﾝ","kana_city":"ﾋﾀﾁｼ","kana_address":"ﾅﾙｻﾜﾁｮｳ","pref":"茨城県","city":"日立市","address":"成沢町"},
{"zip_code":"3160032","kana_pref":"ｲﾊﾞﾗｷｹﾝ","kana_city":"ﾋﾀﾁｼ","kana_address":"ﾆｼﾅﾙｻﾜﾁｮｳ","pref":"茨城県","city":"日立市","address":"西成沢町"},
{"zip_code":"3160011","kana_pref":"ｲﾊﾞﾗｷｹﾝ","kana_city":"ﾋﾀﾁｼ","kana_address":"ﾊﾅﾔﾏﾁｮｳ","pref":"茨城県","city":"日立市","address":"塙山町"},
{"zip_code":"3160023","kana_pref":"ｲﾊﾞﾗｷｹﾝ","kana_city":"ﾋﾀﾁｼ","kana_address":"ﾋｶﾞｼｵｵﾇﾏﾁｮｳ","pref":"茨城県","city":"日立市","address":"東大沼町"},
{"zip_code":"3160014","kana_pref":"ｲﾊﾞﾗｷｹﾝ","kana_city":"ﾋﾀﾁｼ","kana_address":"ﾋｶﾞｼｶﾈｻﾜﾁｮｳ","pref":"茨城県","city":"日立市","address":"東金沢町"},
{"zip_code":"3160004","kana_pref":"ｲﾊﾞﾗｷｹﾝ","kana_city":"ﾋﾀﾁｼ","kana_address":"ﾋｶﾞｼﾀｶﾞﾁｮｳ","pref":"茨城県","city":"日立市","address":"東多賀町"},
{"zip_code":"3160034","kana_pref":"ｲﾊﾞﾗｷｹﾝ","kana_city":"ﾋﾀﾁｼ","kana_address":"ﾋｶﾞｼﾅﾙｻﾜﾁｮｳ","pref":"茨城県","city":"日立市","address":"東成沢町"},
{"zip_code":"3160026","kana_pref":"ｲﾊﾞﾗｷｹﾝ","kana_city":"ﾋﾀﾁｼ","kana_address":"ﾐｶﾉﾊﾗﾁｮｳ","pref":"茨城県","city":"日立市","address":"みかの原町"},
{"zip_code":"3160024","kana_pref":"ｲﾊﾞﾗｷｹﾝ","kana_city":"ﾋﾀﾁｼ","kana_address":"ﾐｽﾞｷﾁｮｳ","pref":"茨城県","city":"日立市","address":"水木町"},
{"zip_code":"3160025","kana_pref":"ｲﾊﾞﾗｷｹﾝ","kana_city":"ﾋﾀﾁｼ","kana_address":"ﾓﾘﾔﾏﾁｮｳ","pref":"茨城県","city":"日立市","address":"森山町"}]}