{"zip_code":[
{"zip_code":"3170000","kana_pref":"ｲﾊﾞﾗｷｹﾝ","kana_city":"ﾋﾀﾁｼ","kana_address":"","pref":"茨城県","city":"日立市","address":""},
{"zip_code":"3170075","kana_pref":"ｲﾊﾞﾗｷｹﾝ","kana_city":"ﾋﾀﾁｼ","kana_address":"ｱｲｶﾞﾁｮｳ","pref":"茨城県","city":"日立市","address":"相賀町"},
{"zip_code":"3170074","kana_pref":"ｲﾊﾞﾗｷｹﾝ","kana_city":"ﾋﾀﾁｼ","kana_address":"ｱｻﾋﾁｮｳ","pref":"茨城県","city":"日立市","address":"旭町"},
{"zip_code":"3170076","kana_pref":"ｲﾊﾞﾗｷｹﾝ","kana_city":"ﾋﾀﾁｼ","kana_address":"ｵｳｾﾁｮｳ","pref":"茨城県","city":"日立市","address":"会瀬町"},
{"zip_code":"3170071","kana_pref":"ｲﾊﾞﾗｷｹﾝ","kana_city":"ﾋﾀﾁｼ","kana_address":"ｶｼﾏﾁｮｳ","pref":"茨城県","city":"日立市","address":"鹿島町"},
{"zip_code":"3170064","kana_pref":"ｲﾊﾞﾗｷｹﾝ","kana_city":"ﾋﾀﾁｼ","kana_address":"ｶﾐﾈﾁｮｳ","pref":"茨城県","city":"日立市","address":"神峰町"},
{"zip_code":"3170073","kana_pref":"ｲﾊﾞﾗｷｹﾝ","kana_city":"ﾋﾀﾁｼ","kana_address":"ｻｲﾜｲﾁｮｳ","pref":"茨城県","city":"日立市","address":"幸町"},
{"zip_code":"3170077","kana_pref":"ｲﾊﾞﾗｷｹﾝ","kana_city":"ﾋﾀﾁｼ","kana_address":"ｼﾞｮｳﾅﾝﾁｮｳ","pref":"茨城県","city":"日立市","address":"城南町"},
{"zip_code":"3170056","kana_pref":"ｲﾊﾞﾗｷｹﾝ","kana_city":"ﾋﾀﾁｼ","kana_address":"ｼﾛｶﾞﾈﾁｮｳ","pref":"茨城県","city":"日立市","address":"白銀町"},
{"zip_code":"3170065","kana_pref":"ｲﾊﾞﾗｷｹﾝ","kana_city":"ﾋﾀﾁｼ","kana_address":"ｽｹｶﾞﾜﾁｮｳ","pref":"茨城県","city":"日立市","address":"助川町"},
{"zip_code":"3170066","kana_pref":"ｲﾊﾞﾗｷｹﾝ","kana_city":"ﾋﾀﾁｼ","kana_address":"ﾀｶｽｽﾞﾁｮｳ","pref":"茨城県","city":"日立市","address":"高鈴町"},
{"zip_code":"3170053","kana_pref":"ｲﾊﾞﾗｷｹﾝ","kana_city":"ﾋﾀﾁｼ","kana_address":"ﾅﾒｶﾜﾁｮｳ","pref":"茨城県","city":"日立市","address":"滑川町"},
{"zip_code":"3170051","kana_pref":"ｲﾊﾞﾗｷｹﾝ","kana_city":"ﾋﾀﾁｼ","kana_address":"ﾅﾒｶﾜﾎﾝﾁｮｳ","pref":"茨城県","city":"日立市","address":"滑川本町"},
{"zip_code":"3170061","kana_pref":"ｲﾊﾞﾗｷｹﾝ","kana_city":"ﾋﾀﾁｼ","kana_address":"ﾋｶﾞｼﾁｮｳ","pref":"茨城県","city":"日立市","address":"東町"},
{"zip_code":"3170052","kana_pref":"ｲﾊﾞﾗｷｹﾝ","kana_city":"ﾋﾀﾁｼ","kana_address":"ﾋｶﾞｼﾅﾒｶﾜﾁｮｳ","pref":"茨城県","city":"日立市","address":"東滑川町"},
{"zip_code":"3170062","kana_pref":"ｲﾊﾞﾗｷｹﾝ","kana_city":"ﾋﾀﾁｼ","kana_address":"ﾍｲﾜﾁｮｳ","pref":"茨城県","city":"日立市","address":"平和町"},
{"zip_code":"3170072","kana_pref":"ｲﾊﾞﾗｷｹﾝ","kana_city":"ﾋﾀﾁｼ","kana_address":"ﾍﾞﾝﾃﾝﾁｮｳ","pref":"茨城県","city":"日立市","address":"弁天町"},
{"zip_code":"3170055","kana_pref":"ｲﾊﾞﾗｷｹﾝ","kana_city":"ﾋﾀﾁｼ","kana_address":"ﾐﾔﾀﾁｮｳ","pref":"茨城県","city":"日立市","address":"宮田町"},
{"zip_code":"3170054","kana_pref":"ｲﾊﾞﾗｷｹﾝ","kana_city":"ﾋﾀﾁｼ","kana_address":"ﾓﾄﾐﾔﾁｮｳ","pref":"茨城県","city":"日立市","address":"本宮町"},
{"zip_code":"3170063","kana_pref":"ｲﾊﾞﾗｷｹﾝ","kana_city":"ﾋﾀﾁｼ","kana_address":"ﾜｶﾊﾞﾁｮｳ","pref":"茨城県","city":"日立市","address":"若葉町"}]}