{"zip_code":[
{"zip_code":"3180000","kana_pref":"ｲﾊﾞﾗｷｹﾝ","kana_city":"ﾀｶﾊｷﾞｼ","kana_address":"","pref":"茨城県","city":"高萩市","address":""},
{"zip_code":"3180001","kana_pref":"ｲﾊﾞﾗｷｹﾝ","kana_city":"ﾀｶﾊｷﾞｼ","kana_address":"ｱｶﾊﾏ","pref":"茨城県","city":"高萩市","address":"赤浜"},
{"zip_code":"3180024","kana_pref":"ｲﾊﾞﾗｷｹﾝ","kana_city":"ﾀｶﾊｷﾞｼ","kana_address":"ｱｷﾔﾏ","pref":"茨城県","city":"高萩市","address":"秋山"},
{"zip_code":"3180021","kana_pref":"ｲﾊﾞﾗｷｹﾝ","kana_city":"ﾀｶﾊｷﾞｼ","kana_address":"ｱﾗｶﾜ","pref":"茨城県","city":"高萩市","address":"安良川"},
{"zip_code":"3180012","kana_pref":"ｲﾊﾞﾗｷｹﾝ","kana_city":"ﾀｶﾊｷﾞｼ","kana_address":"ｱﾘｱｹﾁｮｳ","pref":"茨城県","city":"高萩市","address":"有明町"},
{"zip_code":"3180022","kana_pref":"ｲﾊﾞﾗｷｹﾝ","kana_city":"ﾀｶﾊｷﾞｼ","kana_address":"ｲｼﾀｷ","pref":"茨城県","city":"高萩市","address":"石滝"},
{"zip_code":"3180103","kana_pref":"ｲﾊﾞﾗｷｹﾝ","kana_city":"ﾀｶﾊｷﾞｼ","kana_address":"ｵｵﾉ","pref":"茨城県","city":"高萩市","address":"大能"},
{"zip_code":"3180031","kana_pref":"ｲﾊﾞﾗｷｹﾝ","kana_city":"ﾀｶﾊｷﾞｼ","kana_address":"ｶｽｶﾞﾁｮｳ","pref":"茨城県","city":"高萩市","address":"春日町"},
{"zip_code":"3180105","kana_pref":"ｲﾊﾞﾗｷｹﾝ","kana_city":"ﾀｶﾊｷﾞｼ","kana_address":"ｶﾐｷﾐﾀﾞ","pref":"茨城県","city":"高萩市","address":"上君田"},
{"zip_code":"3180004","kana_pref":"ｲﾊﾞﾗｷｹﾝ","kana_city":"ﾀｶﾊｷﾞｼ","kana_address":"ｶﾐﾃﾂﾞﾅ","pref":"茨城県","city":"高萩市","address":"上手綱"},
{"zip_code":"3180023","kana_pref":"ｲﾊﾞﾗｷｹﾝ","kana_city":"ﾀｶﾊｷﾞｼ","kana_address":"ｼﾏﾅ","pref":"茨城県","city":"高萩市","address":"島名"},
{"zip_code":"3180106","kana_pref":"ｲﾊﾞﾗｷｹﾝ","kana_city":"ﾀｶﾊｷﾞｼ","kana_address":"ｼﾓｷﾐﾀﾞ","pref":"茨城県","city":"高萩市","address":"下君田"},
{"zip_code":"3180003","kana_pref":"ｲﾊﾞﾗｷｹﾝ","kana_city":"ﾀｶﾊｷﾞｼ","kana_address":"ｼﾓﾃﾂﾞﾅ","pref":"茨城県","city":"高萩市","address":"下手綱"},
{"zip_code":"3180002","kana_pref":"ｲﾊﾞﾗｷｹﾝ","kana_city":"ﾀｶﾊｷﾞｼ","kana_address":"ﾀｶﾄﾞ","pref":"茨城県","city":"高萩市","address":"高戸"},
{"zip_code":"3180034","kana_pref":"ｲﾊﾞﾗｷｹﾝ","kana_city":"ﾀｶﾊｷﾞｼ","kana_address":"ﾀｶﾊｷﾞ","pref":"茨城県","city":"高萩市","address":"高萩"},
{"zip_code":"3180013","kana_pref":"ｲﾊﾞﾗｷｹﾝ","kana_city":"ﾀｶﾊｷﾞｼ","kana_address":"ﾀｶﾊﾏﾁｮｳ","pref":"茨城県","city":"高萩市","address":"高浜町"},
{"zip_code":"3180104","kana_pref":"ｲﾊﾞﾗｷｹﾝ","kana_city":"ﾀｶﾊｷﾞｼ","kana_address":"ﾅｶﾄﾞｶﾞﾜ","pref":"茨城県","city":"高萩市","address":"中戸川"},
{"zip_code":"3180014","kana_pref":"ｲﾊﾞﾗｷｹﾝ","kana_city":"ﾀｶﾊｷﾞｼ","kana_address":"ﾋｶﾞｼﾎﾝﾁｮｳ","pref":"茨城県","city":"高萩市","address":"東本町"},
{"zip_code":"3180011","kana_pref":"ｲﾊﾞﾗｷｹﾝ","kana_city":"ﾀｶﾊｷﾞｼ","kana_address":"ﾋｾﾞﾝﾁｮｳ","pref":"茨城県","city":"高萩市","address":"肥前町"},
{"zip_code":"3180025","kana_pref":"ｲﾊﾞﾗｷｹﾝ","kana_city":"ﾀｶﾊｷﾞｼ","kana_address":"ﾌｸﾀﾞｲﾗ","pref":"茨城県","city":"高萩市","address":"福平"},
{"zip_code":"3180005","kana_pref":"ｲﾊﾞﾗｷｹﾝ","kana_city":"ﾀｶﾊｷﾞｼ","kana_address":"ﾎﾞｳｶｲ","pref":"茨城県","city":"高萩市","address":"望海"},
{"zip_code":"3180033","kana_pref":"ｲﾊﾞﾗｷｹﾝ","kana_city":"ﾀｶﾊｷﾞｼ","kana_address":"ﾎﾝﾁｮｳ","pref":"茨城県","city":"高萩市","address":"本町"},
{"zip_code":"3180032","kana_pref":"ｲﾊﾞﾗｷｹﾝ","kana_city":"ﾀｶﾊｷﾞｼ","kana_address":"ﾔﾏﾄﾁｮｳ","pref":"茨城県","city":"高萩市","address":"大和町"},
{"zip_code":"3180101","kana_pref":"ｲﾊﾞﾗｷｹﾝ","kana_city":"ﾀｶﾊｷﾞｼ","kana_address":"ﾖｺｶﾜ","pref":"茨城県","city":"高萩市","address":"横川"},
{"zip_code":"3180102","kana_pref":"ｲﾊﾞﾗｷｹﾝ","kana_city":"ﾀｶﾊｷﾞｼ","kana_address":"ﾜｶｸﾞﾘ","pref":"茨城県","city":"高萩市","address":"若栗"}]}