{"zip_code":[
{"zip_code":"3190314","kana_pref":"ｲﾊﾞﾗｷｹﾝ","kana_city":"ﾐﾄｼ","kana_address":"ｱｶｵｾｷﾁｮｳ","pref":"茨城県","city":"水戸市","address":"赤尾関町"},
{"zip_code":"3190304","kana_pref":"ｲﾊﾞﾗｷｹﾝ","kana_city":"ﾐﾄｼ","kana_address":"ｱﾘｶﾞﾁｮｳ","pref":"茨城県","city":"水戸市","address":"有賀町"},
{"zip_code":"3190311","kana_pref":"ｲﾊﾞﾗｷｹﾝ","kana_city":"ﾐﾄｼ","kana_address":"ｳｼﾌﾞｼﾁｮｳ","pref":"茨城県","city":"水戸市","address":"牛伏町"},
{"zip_code":"3190315","kana_pref":"ｲﾊﾞﾗｷｹﾝ","kana_city":"ﾐﾄｼ","kana_address":"ｳﾁﾊﾗﾁｮｳ","pref":"茨城県","city":"水戸市","address":"内原町"},
{"zip_code":"3190312","kana_pref":"ｲﾊﾞﾗｷｹﾝ","kana_city":"ﾐﾄｼ","kana_address":"ｵｵﾀﾞﾗﾁｮｳ","pref":"茨城県","city":"水戸市","address":"大足町"},
{"zip_code":"3190307","kana_pref":"ｲﾊﾞﾗｷｹﾝ","kana_city":"ﾐﾄｼ","kana_address":"ｵﾊﾞﾗﾁｮｳ","pref":"茨城県","city":"水戸市","address":"小原町"},
{"zip_code":"3190303","kana_pref":"ｲﾊﾞﾗｷｹﾝ","kana_city":"ﾐﾄｼ","kana_address":"ｸﾛｲｿﾁｮｳ","pref":"茨城県","city":"水戸市","address":"黒磯町"},
{"zip_code":"3190323","kana_pref":"ｲﾊﾞﾗｷｹﾝ","kana_city":"ﾐﾄｼ","kana_address":"ｺｲﾌﾞﾁﾁｮｳ","pref":"茨城県","city":"水戸市","address":"鯉淵町"},
{"zip_code":"3190325","kana_pref":"ｲﾊﾞﾗｷｹﾝ","kana_city":"ﾐﾄｼ","kana_address":"ｺﾊﾞﾔｼﾁｮｳ","pref":"茨城県","city":"水戸市","address":"小林町"},
{"zip_code":"3190324","kana_pref":"ｲﾊﾞﾗｷｹﾝ","kana_city":"ﾐﾄｼ","kana_address":"ｺﾞﾍｲﾁｮｳ","pref":"茨城県","city":"水戸市","address":"五平町"},
{"zip_code":"3190322","kana_pref":"ｲﾊﾞﾗｷｹﾝ","kana_city":"ﾐﾄｼ","kana_address":"ｼﾓﾉﾁｮｳ","pref":"茨城県","city":"水戸市","address":"下野町"},
{"zip_code":"3190306","kana_pref":"ｲﾊﾞﾗｷｹﾝ","kana_city":"ﾐﾄｼ","kana_address":"ｽｷﾞｻｷﾁｮｳ","pref":"茨城県","city":"水戸市","address":"杉崎町"},
{"zip_code":"3190321","kana_pref":"ｲﾊﾞﾗｷｹﾝ","kana_city":"ﾐﾄｼ","kana_address":"ﾀｶﾀﾞﾁｮｳ","pref":"茨城県","city":"水戸市","address":"高田町"},
{"zip_code":"3190301","kana_pref":"ｲﾊﾞﾗｷｹﾝ","kana_city":"ﾐﾄｼ","kana_address":"ﾀｼﾞﾏﾁｮｳ","pref":"茨城県","city":"水戸市","address":"田島町"},
{"zip_code":"3190313","kana_pref":"ｲﾊﾞﾗｷｹﾝ","kana_city":"ﾐﾄｼ","kana_address":"ﾂｲｼﾞﾁｮｳ","pref":"茨城県","city":"水戸市","address":"筑地町"},
{"zip_code":"3190305","kana_pref":"ｲﾊﾞﾗｷｹﾝ","kana_city":"ﾐﾄｼ","kana_address":"ﾅｶﾊﾗﾁｮｳ","pref":"茨城県","city":"水戸市","address":"中原町"},
{"zip_code":"3190302","kana_pref":"ｲﾊﾞﾗｷｹﾝ","kana_city":"ﾐﾄｼ","kana_address":"ﾐﾉﾜﾁｮｳ","pref":"茨城県","city":"水戸市","address":"三野輪町"},
{"zip_code":"3190316","kana_pref":"ｲﾊﾞﾗｷｹﾝ","kana_city":"ﾐﾄｼ","kana_address":"ﾐﾕﾁｮｳ","pref":"茨城県","city":"水戸市","address":"三湯町"},
{"zip_code":"3191415","kana_pref":"ｲﾊﾞﾗｷｹﾝ","kana_city":"ﾋﾀﾁｼ","kana_address":"ｱｲﾀﾞﾁｮｳ","pref":"茨城県","city":"日立市","address":"相田町"},
{"zip_code":"3191418","kana_pref":"ｲﾊﾞﾗｷｹﾝ","kana_city":"ﾋﾀﾁｼ","kana_address":"ｲｻｺﾞｻﾞﾜﾁｮｳ","pref":"茨城県","city":"日立市","address":"砂沢町"},
{"zip_code":"3191225","kana_pref":"ｲﾊﾞﾗｷｹﾝ","kana_city":"ﾋﾀﾁｼ","kana_address":"ｲｼﾅｻﾞｶﾁｮｳ","pref":"茨城県","city":"日立市","address":"石名坂町"},
{"zip_code":"3191221","kana_pref":"ｲﾊﾞﾗｷｹﾝ","kana_city":"ﾋﾀﾁｼ","kana_address":"ｵｵﾐｶﾁｮｳ","pref":"茨城県","city":"日立市","address":"大みか町"},
{"zip_code":"3191234","kana_pref":"ｲﾊﾞﾗｷｹﾝ","kana_city":"ﾋﾀﾁｼ","kana_address":"ｵｵﾜﾀﾞﾁｮｳ","pref":"茨城県","city":"日立市","address":"大和田町"},
{"zip_code":"3191413","kana_pref":"ｲﾊﾞﾗｷｹﾝ","kana_city":"ﾋﾀﾁｼ","kana_address":"ｵｷﾞﾂﾁｮｳ","pref":"茨城県","city":"日立市","address":"小木津町"},
{"zip_code":"3191412","kana_pref":"ｲﾊﾞﾗｷｹﾝ","kana_city":"ﾋﾀﾁｼ","kana_address":"ｵﾘｶｻﾁｮｳ","pref":"茨城県","city":"日立市","address":"折笠町"},
{"zip_code":"3191417","kana_pref":"ｲﾊﾞﾗｷｹﾝ","kana_city":"ﾋﾀﾁｼ","kana_address":"ｶﾐｱｲﾁｮｳ","pref":"茨城県","city":"日立市","address":"かみあい町"},
{"zip_code":"3191411","kana_pref":"ｲﾊﾞﾗｷｹﾝ","kana_city":"ﾋﾀﾁｼ","kana_address":"ｶﾜｼﾞﾘﾁｮｳ","pref":"茨城県","city":"日立市","address":"川尻町"},
{"zip_code":"3191233","kana_pref":"ｲﾊﾞﾗｷｹﾝ","kana_city":"ﾋﾀﾁｼ","kana_address":"ｶﾝﾀﾞﾁｮｳ","pref":"茨城県","city":"日立市","address":"神田町"},
{"zip_code":"3191222","kana_pref":"ｲﾊﾞﾗｷｹﾝ","kana_city":"ﾋﾀﾁｼ","kana_address":"ｸｼﾞﾁｮｳ","pref":"茨城県","city":"日立市","address":"久慈町"},
{"zip_code":"3191232","kana_pref":"ｲﾊﾞﾗｷｹﾝ","kana_city":"ﾋﾀﾁｼ","kana_address":"ｼﾓﾄﾞｷﾞｳﾁﾁｮｳ","pref":"茨城県","city":"日立市","address":"下土木内町"},
{"zip_code":"3191301","kana_pref":"ｲﾊﾞﾗｷｹﾝ","kana_city":"ﾋﾀﾁｼ","kana_address":"ｼﾞｭｳｵｳﾁｮｳｲｼ","pref":"茨城県","city":"日立市","address":"十王町伊師"},
{"zip_code":"3191302","kana_pref":"ｲﾊﾞﾗｷｹﾝ","kana_city":"ﾋﾀﾁｼ","kana_address":"ｼﾞｭｳｵｳﾁｮｳｲｼﾎﾝｺﾞｳ","pref":"茨城県","city":"日立市","address":"十王町伊師本郷"},
{"zip_code":"3191306","kana_pref":"ｲﾊﾞﾗｷｹﾝ","kana_city":"ﾋﾀﾁｼ","kana_address":"ｼﾞｭｳｵｳﾁｮｳｸﾛｻｶ","pref":"茨城県","city":"日立市","address":"十王町黒坂"},
{"zip_code":"3191308","kana_pref":"ｲﾊﾞﾗｷｹﾝ","kana_city":"ﾋﾀﾁｼ","kana_address":"ｼﾞｭｳｵｳﾁｮｳｼﾛﾉｵｶ","pref":"茨城県","city":"日立市","address":"十王町城の丘"},
{"zip_code":"3191305","kana_pref":"ｲﾊﾞﾗｷｹﾝ","kana_city":"ﾋﾀﾁｼ","kana_address":"ｼﾞｭｳｵｳﾁｮｳﾀｶﾊﾗ","pref":"茨城県","city":"日立市","address":"十王町高原"},
{"zip_code":"3191304","kana_pref":"ｲﾊﾞﾗｷｹﾝ","kana_city":"ﾋﾀﾁｼ","kana_address":"ｼﾞｭｳｵｳﾁｮｳﾄﾓﾍﾞ","pref":"茨城県","city":"日立市","address":"十王町友部"},
{"zip_code":"3191303","kana_pref":"ｲﾊﾞﾗｷｹﾝ","kana_city":"ﾋﾀﾁｼ","kana_address":"ｼﾞｭｳｵｳﾁｮｳﾄﾓﾍﾞﾋｶﾞｼ","pref":"茨城県","city":"日立市","address":"十王町友部東"},
{"zip_code":"3191307","kana_pref":"ｲﾊﾞﾗｷｹﾝ","kana_city":"ﾋﾀﾁｼ","kana_address":"ｼﾞｭｳｵｳﾁｮｳﾔﾏﾍﾞ","pref":"茨城県","city":"日立市","address":"十王町山部"},
{"zip_code":"3191416","kana_pref":"ｲﾊﾞﾗｷｹﾝ","kana_city":"ﾋﾀﾁｼ","kana_address":"ﾀｼﾞﾘﾁｮｳ","pref":"茨城県","city":"日立市","address":"田尻町"},
{"zip_code":"3191231","kana_pref":"ｲﾊﾞﾗｷｹﾝ","kana_city":"ﾋﾀﾁｼ","kana_address":"ﾄﾒﾁｮｳ","pref":"茨城県","city":"日立市","address":"留町"},
{"zip_code":"3191414","kana_pref":"ｲﾊﾞﾗｷｹﾝ","kana_city":"ﾋﾀﾁｼ","kana_address":"ﾋﾀﾞｶﾁｮｳ","pref":"茨城県","city":"日立市","address":"日高町"},
{"zip_code":"3191223","kana_pref":"ｲﾊﾞﾗｷｹﾝ","kana_city":"ﾋﾀﾁｼ","kana_address":"ﾐﾅﾄﾁｮｳ","pref":"茨城県","city":"日立市","address":"みなと町"},
{"zip_code":"3191224","kana_pref":"ｲﾊﾞﾗｷｹﾝ","kana_city":"ﾋﾀﾁｼ","kana_address":"ﾐﾅﾐｺｳﾔﾁｮｳ","pref":"茨城県","city":"日立市","address":"南高野町"},
{"zip_code":"3191235","kana_pref":"ｲﾊﾞﾗｷｹﾝ","kana_city":"ﾋﾀﾁｼ","kana_address":"ﾓﾐﾔﾁｮｳ","pref":"茨城県","city":"日立市","address":"茂宮町"},
{"zip_code":"3191500","kana_pref":"ｲﾊﾞﾗｷｹﾝ","kana_city":"ｷﾀｲﾊﾞﾗｷｼ","kana_address":"","pref":"茨城県","city":"北茨城市","address":""},
{"zip_code":"3191541","kana_pref":"ｲﾊﾞﾗｷｹﾝ","kana_city":"ｷﾀｲﾊﾞﾗｷｼ","kana_address":"ｲｿﾊﾗﾁｮｳｲｿﾊﾗ","pref":"茨城県","city":"北茨城市","address":"磯原町磯原"},
{"zip_code":"3191547","kana_pref":"ｲﾊﾞﾗｷｹﾝ","kana_city":"ｷﾀｲﾊﾞﾗｷｼ","kana_address":"ｲｿﾊﾗﾁｮｳｳﾂﾉ","pref":"茨城県","city":"北茨城市","address":"磯原町内野"},
{"zip_code":"3191546","kana_pref":"ｲﾊﾞﾗｷｹﾝ","kana_city":"ｷﾀｲﾊﾞﾗｷｼ","kana_address":"ｲｿﾊﾗﾁｮｳｵｵﾂｶ","pref":"茨城県","city":"北茨城市","address":"磯原町大塚"},
{"zip_code":"3191544","kana_pref":"ｲﾊﾞﾗｷｹﾝ","kana_city":"ｷﾀｲﾊﾞﾗｷｼ","kana_address":"ｲｿﾊﾗﾁｮｳｶﾐｿｳﾀﾞ","pref":"茨城県","city":"北茨城市","address":"磯原町上相田"},
{"zip_code":"3191545","kana_pref":"ｲﾊﾞﾗｷｹﾝ","kana_city":"ｷﾀｲﾊﾞﾗｷｼ","kana_address":"ｲｿﾊﾗﾁｮｳｷｻﾗ","pref":"茨城県","city":"北茨城市","address":"磯原町木皿"},
{"zip_code":"3191543","kana_pref":"ｲﾊﾞﾗｷｹﾝ","kana_city":"ｷﾀｲﾊﾞﾗｷｼ","kana_address":"ｲｿﾊﾗﾁｮｳﾄﾖﾀﾞ","pref":"茨城県","city":"北茨城市","address":"磯原町豊田"},
{"zip_code":"3191542","kana_pref":"ｲﾊﾞﾗｷｹﾝ","kana_city":"ｷﾀｲﾊﾞﾗｷｼ","kana_address":"ｲｿﾊﾗﾁｮｳﾎﾝﾁｮｳ","pref":"茨城県","city":"北茨城市","address":"磯原町本町"},
{"zip_code":"3191702","kana_pref":"ｲﾊﾞﾗｷｹﾝ","kana_city":"ｷﾀｲﾊﾞﾗｷｼ","kana_address":"ｵｵﾂﾁｮｳ","pref":"茨城県","city":"北茨城市","address":"大津町"},
{"zip_code":"3191703","kana_pref":"ｲﾊﾞﾗｷｹﾝ","kana_city":"ｷﾀｲﾊﾞﾗｷｼ","kana_address":"ｵｵﾂﾁｮｳｲﾂﾞﾗ","pref":"茨城県","city":"北茨城市","address":"大津町五浦"},
{"zip_code":"3191704","kana_pref":"ｲﾊﾞﾗｷｹﾝ","kana_city":"ｷﾀｲﾊﾞﾗｷｼ","kana_address":"ｵｵﾂﾁｮｳｷﾀﾁｮｳ","pref":"茨城県","city":"北茨城市","address":"大津町北町"},
{"zip_code":"3191714","kana_pref":"ｲﾊﾞﾗｷｹﾝ","kana_city":"ｷﾀｲﾊﾞﾗｷｼ","kana_address":"ｾｷﾅﾐﾁｮｳｶﾐｵｶｶﾐ","pref":"茨城県","city":"北茨城市","address":"関南町神岡上"},
{"zip_code":"3191715","kana_pref":"ｲﾊﾞﾗｷｹﾝ","kana_city":"ｷﾀｲﾊﾞﾗｷｼ","kana_address":"ｾｷﾅﾐﾁｮｳｶﾐｵｶｼﾓ","pref":"茨城県","city":"北茨城市","address":"関南町神岡下"},
{"zip_code":"3191712","kana_pref":"ｲﾊﾞﾗｷｹﾝ","kana_city":"ｷﾀｲﾊﾞﾗｷｼ","kana_address":"ｾｷﾅﾐﾁｮｳｻﾄﾈｶﾞﾜ","pref":"茨城県","city":"北茨城市","address":"関南町里根川"},
{"zip_code":"3191711","kana_pref":"ｲﾊﾞﾗｷｹﾝ","kana_city":"ｷﾀｲﾊﾞﾗｷｼ","kana_address":"ｾｷﾅﾐﾁｮｳｾｷﾓﾄｼﾓ","pref":"茨城県","city":"北茨城市","address":"関南町関本下"},
{"zip_code":"3191713","kana_pref":"ｲﾊﾞﾗｷｹﾝ","kana_city":"ｷﾀｲﾊﾞﾗｷｼ","kana_address":"ｾｷﾅﾐﾁｮｳﾆｲﾀﾞ","pref":"茨城県","city":"北茨城市","address":"関南町仁井田"},
{"zip_code":"3191727","kana_pref":"ｲﾊﾞﾗｷｹﾝ","kana_city":"ｷﾀｲﾊﾞﾗｷｼ","kana_address":"ｾｷﾓﾄﾁｮｳｵｶﾞﾜ","pref":"茨城県","city":"北茨城市","address":"関本町小川"},
{"zip_code":"3191726","kana_pref":"ｲﾊﾞﾗｷｹﾝ","kana_city":"ｷﾀｲﾊﾞﾗｷｼ","kana_address":"ｾｷﾓﾄﾁｮｳｻｲﾏﾙ","pref":"茨城県","city":"北茨城市","address":"関本町才丸"},
{"zip_code":"3191721","kana_pref":"ｲﾊﾞﾗｷｹﾝ","kana_city":"ｷﾀｲﾊﾞﾗｷｼ","kana_address":"ｾｷﾓﾄﾁｮｳｾｷﾓﾄｶﾐ","pref":"茨城県","city":"北茨城市","address":"関本町関本上"},
{"zip_code":"3191723","kana_pref":"ｲﾊﾞﾗｷｹﾝ","kana_city":"ｷﾀｲﾊﾞﾗｷｼ","kana_address":"ｾｷﾓﾄﾁｮｳｾｷﾓﾄﾅｶ","pref":"茨城県","city":"北茨城市","address":"関本町関本中"},
{"zip_code":"3191724","kana_pref":"ｲﾊﾞﾗｷｹﾝ","kana_city":"ｷﾀｲﾊﾞﾗｷｼ","kana_address":"ｾｷﾓﾄﾁｮｳﾊｯﾀﾝ","pref":"茨城県","city":"北茨城市","address":"関本町八反"},
{"zip_code":"3191722","kana_pref":"ｲﾊﾞﾗｷｹﾝ","kana_city":"ｷﾀｲﾊﾞﾗｷｼ","kana_address":"ｾｷﾓﾄﾁｮｳﾌｸﾀﾞ","pref":"茨城県","city":"北茨城市","address":"関本町福田"},
{"zip_code":"3191725","kana_pref":"ｲﾊﾞﾗｷｹﾝ","kana_city":"ｷﾀｲﾊﾞﾗｷｼ","kana_address":"ｾｷﾓﾄﾁｮｳﾌｼﾞｶﾞｵｶ","pref":"茨城県","city":"北茨城市","address":"関本町富士ケ丘"},
{"zip_code":"3191552","kana_pref":"ｲﾊﾞﾗｷｹﾝ","kana_city":"ｷﾀｲﾊﾞﾗｷｼ","kana_address":"ﾅｶｺﾞｳﾁｮｳｱｼｱﾗｲ","pref":"茨城県","city":"北茨城市","address":"中郷町足洗"},
{"zip_code":"3191554","kana_pref":"ｲﾊﾞﾗｷｹﾝ","kana_city":"ｷﾀｲﾊﾞﾗｷｼ","kana_address":"ﾅｶｺﾞｳﾁｮｳｱﾜﾉ","pref":"茨城県","city":"北茨城市","address":"中郷町粟野"},
{"zip_code":"3191558","kana_pref":"ｲﾊﾞﾗｷｹﾝ","kana_city":"ｷﾀｲﾊﾞﾗｷｼ","kana_address":"ﾅｶｺﾞｳﾁｮｳｲｼｵｶ","pref":"茨城県","city":"北茨城市","address":"中郷町石岡"},
{"zip_code":"3191555","kana_pref":"ｲﾊﾞﾗｷｹﾝ","kana_city":"ｷﾀｲﾊﾞﾗｷｼ","kana_address":"ﾅｶｺﾞｳﾁｮｳｵﾉﾔｻｼ","pref":"茨城県","city":"北茨城市","address":"中郷町小野矢指"},
{"zip_code":"3191559","kana_pref":"ｲﾊﾞﾗｷｹﾝ","kana_city":"ｷﾀｲﾊﾞﾗｷｼ","kana_address":"ﾅｶｺﾞｳﾁｮｳｶﾐｻｸﾗｲ","pref":"茨城県","city":"北茨城市","address":"中郷町上桜井"},
{"zip_code":"3191553","kana_pref":"ｲﾊﾞﾗｷｹﾝ","kana_city":"ｷﾀｲﾊﾞﾗｷｼ","kana_address":"ﾅｶｺﾞｳﾁｮｳｼｵﾐｶﾞｵｶ","pref":"茨城県","city":"北茨城市","address":"中郷町汐見ケ丘"},
{"zip_code":"3191551","kana_pref":"ｲﾊﾞﾗｷｹﾝ","kana_city":"ｷﾀｲﾊﾞﾗｷｼ","kana_address":"ﾅｶｺﾞｳﾁｮｳｼﾓｻｸﾗｲ","pref":"茨城県","city":"北茨城市","address":"中郷町下桜井"},
{"zip_code":"3191556","kana_pref":"ｲﾊﾞﾗｷｹﾝ","kana_city":"ｷﾀｲﾊﾞﾗｷｼ","kana_address":"ﾅｶｺﾞｳﾁｮｳﾋﾀﾅ","pref":"茨城県","city":"北茨城市","address":"中郷町日棚"},
{"zip_code":"3191557","kana_pref":"ｲﾊﾞﾗｷｹﾝ","kana_city":"ｷﾀｲﾊﾞﾗｷｼ","kana_address":"ﾅｶｺﾞｳﾁｮｳﾏﾂｲ","pref":"茨城県","city":"北茨城市","address":"中郷町松井"},
{"zip_code":"3191538","kana_pref":"ｲﾊﾞﾗｷｹﾝ","kana_city":"ｷﾀｲﾊﾞﾗｷｼ","kana_address":"ﾊﾅｶﾜﾁｮｳｱｽﾞﾊﾀ","pref":"茨城県","city":"北茨城市","address":"華川町小豆畑"},
{"zip_code":"3191535","kana_pref":"ｲﾊﾞﾗｷｹﾝ","kana_city":"ｷﾀｲﾊﾞﾗｷｼ","kana_address":"ﾊﾅｶﾜﾁｮｳｳｽﾊﾞ","pref":"茨城県","city":"北茨城市","address":"華川町臼場"},
{"zip_code":"3191532","kana_pref":"ｲﾊﾞﾗｷｹﾝ","kana_city":"ｷﾀｲﾊﾞﾗｷｼ","kana_address":"ﾊﾅｶﾜﾁｮｳｶﾐｺﾂﾀﾞ","pref":"茨城県","city":"北茨城市","address":"華川町上小津田"},
{"zip_code":"3191533","kana_pref":"ｲﾊﾞﾗｷｹﾝ","kana_city":"ｷﾀｲﾊﾞﾗｷｼ","kana_address":"ﾊﾅｶﾜﾁｮｳｼﾓｺﾂﾀﾞ","pref":"茨城県","city":"北茨城市","address":"華川町下小津田"},
{"zip_code":"3191534","kana_pref":"ｲﾊﾞﾗｷｹﾝ","kana_city":"ｷﾀｲﾊﾞﾗｷｼ","kana_address":"ﾊﾅｶﾜﾁｮｳｸﾙﾏ","pref":"茨城県","city":"北茨城市","address":"華川町車"},
{"zip_code":"3191537","kana_pref":"ｲﾊﾞﾗｷｹﾝ","kana_city":"ｷﾀｲﾊﾞﾗｷｼ","kana_address":"ﾊﾅｶﾜﾁｮｳｼﾓｿｳﾀﾞ","pref":"茨城県","city":"北茨城市","address":"華川町下相田"},
{"zip_code":"3191536","kana_pref":"ｲﾊﾞﾗｷｹﾝ","kana_city":"ｷﾀｲﾊﾞﾗｷｼ","kana_address":"ﾊﾅｶﾜﾁｮｳﾅｶﾂﾏ","pref":"茨城県","city":"北茨城市","address":"華川町中妻"},
{"zip_code":"3191531","kana_pref":"ｲﾊﾞﾗｷｹﾝ","kana_city":"ｷﾀｲﾊﾞﾗｷｼ","kana_address":"ﾊﾅｶﾜﾁｮｳﾊﾅｿﾞﾉ","pref":"茨城県","city":"北茨城市","address":"華川町花園"},
{"zip_code":"3191701","kana_pref":"ｲﾊﾞﾗｷｹﾝ","kana_city":"ｷﾀｲﾊﾞﾗｷｼ","kana_address":"ﾋﾗｶﾀﾁｮｳ","pref":"茨城県","city":"北茨城市","address":"平潟町"},
{"zip_code":"3190206","kana_pref":"ｲﾊﾞﾗｷｹﾝ","kana_city":"ｶｻﾏｼ","kana_address":"ｱｺﾞ","pref":"茨城県","city":"笠間市","address":"安居"},
{"zip_code":"3190209","kana_pref":"ｲﾊﾞﾗｷｹﾝ","kana_city":"ｶｻﾏｼ","kana_address":"ｲｽﾞﾐ","pref":"茨城県","city":"笠間市","address":"泉"},
{"zip_code":"3190208","kana_pref":"ｲﾊﾞﾗｷｹﾝ","kana_city":"ｶｻﾏｼ","kana_address":"ｲﾁﾉﾔ","pref":"茨城県","city":"笠間市","address":"市野谷"},
{"zip_code":"3190205","kana_pref":"ｲﾊﾞﾗｷｹﾝ","kana_city":"ｶｻﾏｼ","kana_address":"ｵｼﾉﾍﾞ","pref":"茨城県","city":"笠間市","address":"押辺"},
{"zip_code":"3190201","kana_pref":"ｲﾊﾞﾗｷｹﾝ","kana_city":"ｶｻﾏｼ","kana_address":"ｶﾐｺﾞｳ","pref":"茨城県","city":"笠間市","address":"上郷"},
{"zip_code":"3190202","kana_pref":"ｲﾊﾞﾗｷｹﾝ","kana_city":"ｶｻﾏｼ","kana_address":"ｼﾓｺﾞｳ","pref":"茨城県","city":"笠間市","address":"下郷"},
{"zip_code":"3190204","kana_pref":"ｲﾊﾞﾗｷｹﾝ","kana_city":"ｶｻﾏｼ","kana_address":"ﾊｼﾞ","pref":"茨城県","city":"笠間市","address":"土師"},
{"zip_code":"3190207","kana_pref":"ｲﾊﾞﾗｷｹﾝ","kana_city":"ｶｻﾏｼ","kana_address":"ﾌｸｼﾏ","pref":"茨城県","city":"笠間市","address":"福島"},
{"zip_code":"3190203","kana_pref":"ｲﾊﾞﾗｷｹﾝ","kana_city":"ｶｻﾏｼ","kana_address":"ﾖｼｵｶ","pref":"茨城県","city":"笠間市","address":"吉岡"},
{"zip_code":"3192200","kana_pref":"ｲﾊﾞﾗｷｹﾝ","kana_city":"ﾋﾀﾁｵｵﾐﾔｼ","kana_address":"","pref":"茨城県","city":"常陸大宮市","address":""},
{"zip_code":"3192135","kana_pref":"ｲﾊﾞﾗｷｹﾝ","kana_city":"ﾋﾀﾁｵｵﾐﾔｼ","kana_address":"ｲｼｻﾞﾜ","pref":"茨城県","city":"常陸大宮市","address":"石沢"},
{"zip_code":"3192144","kana_pref":"ｲﾊﾞﾗｷｹﾝ","kana_city":"ﾋﾀﾁｵｵﾐﾔｼ","kana_address":"ｲｽﾞﾐ","pref":"茨城県","city":"常陸大宮市","address":"泉"},
{"zip_code":"3192415","kana_pref":"ｲﾊﾞﾗｷｹﾝ","kana_city":"ﾋﾀﾁｵｵﾐﾔｼ","kana_address":"ｲﾘﾎﾝｺﾞｳ","pref":"茨城県","city":"常陸大宮市","address":"入本郷"},
{"zip_code":"3192211","kana_pref":"ｲﾊﾞﾗｷｹﾝ","kana_city":"ﾋﾀﾁｵｵﾐﾔｼ","kana_address":"ｲﾜｻﾞｷ","pref":"茨城県","city":"常陸大宮市","address":"岩崎"},
{"zip_code":"3192251","kana_pref":"ｲﾊﾞﾗｷｹﾝ","kana_city":"ﾋﾀﾁｵｵﾐﾔｼ","kana_address":"ｳﾊﾞｶﾞﾁｮｳ","pref":"茨城県","city":"常陸大宮市","address":"姥賀町"},
{"zip_code":"3192145","kana_pref":"ｲﾊﾞﾗｷｹﾝ","kana_city":"ﾋﾀﾁｵｵﾐﾔｼ","kana_address":"ｳﾙﾉ","pref":"茨城県","city":"常陸大宮市","address":"宇留野"},
{"zip_code":"3192418","kana_pref":"ｲﾊﾞﾗｷｹﾝ","kana_city":"ﾋﾀﾁｵｵﾐﾔｼ","kana_address":"ｵｵｲﾜ","pref":"茨城県","city":"常陸大宮市","address":"大岩"},
{"zip_code":"3192203","kana_pref":"ｲﾊﾞﾗｷｹﾝ","kana_city":"ﾋﾀﾁｵｵﾐﾔｼ","kana_address":"ｵｸﾞﾗ","pref":"茨城県","city":"常陸大宮市","address":"小倉"},
{"zip_code":"3193116","kana_pref":"ｲﾊﾞﾗｷｹﾝ","kana_city":"ﾋﾀﾁｵｵﾐﾔｼ","kana_address":"ｵｻﾀﾞ","pref":"茨城県","city":"常陸大宮市","address":"長田"},
{"zip_code":"3192412","kana_pref":"ｲﾊﾞﾗｷｹﾝ","kana_city":"ﾋﾀﾁｵｵﾐﾔｼ","kana_address":"ｵｾｻﾞﾜ","pref":"茨城県","city":"常陸大宮市","address":"小瀬沢"},
{"zip_code":"3192602","kana_pref":"ｲﾊﾞﾗｷｹﾝ","kana_city":"ﾋﾀﾁｵｵﾐﾔｼ","kana_address":"ｵﾀﾉ","pref":"茨城県","city":"常陸大宮市","address":"小田野"},
{"zip_code":"3192405","kana_pref":"ｲﾊﾞﾗｷｹﾝ","kana_city":"ﾋﾀﾁｵｵﾐﾔｼ","kana_address":"ｵﾀﾞﾏ","pref":"茨城県","city":"常陸大宮市","address":"小玉"},
{"zip_code":"3193112","kana_pref":"ｲﾊﾞﾗｷｹﾝ","kana_city":"ﾋﾀﾁｵｵﾐﾔｼ","kana_address":"ｵﾇｷ","pref":"茨城県","city":"常陸大宮市","address":"小貫"},
{"zip_code":"3192133","kana_pref":"ｲﾊﾞﾗｷｹﾝ","kana_city":"ﾋﾀﾁｵｵﾐﾔｼ","kana_address":"ｵﾉ","pref":"茨城県","city":"常陸大宮市","address":"小野"},
{"zip_code":"3192132","kana_pref":"ｲﾊﾞﾗｷｹﾝ","kana_city":"ﾋﾀﾁｵｵﾐﾔｼ","kana_address":"ｵﾊﾞ","pref":"茨城県","city":"常陸大宮市","address":"小場"},
{"zip_code":"3192142","kana_pref":"ｲﾊﾞﾗｷｹﾝ","kana_city":"ﾋﾀﾁｵｵﾐﾔｼ","kana_address":"ｶﾐｲﾜｾ","pref":"茨城県","city":"常陸大宮市","address":"上岩瀬"},
{"zip_code":"3192212","kana_pref":"ｲﾊﾞﾗｷｹﾝ","kana_city":"ﾋﾀﾁｵｵﾐﾔｼ","kana_address":"ｶﾐｵｵｶﾞ","pref":"茨城県","city":"常陸大宮市","address":"上大賀"},
{"zip_code":"3192401","kana_pref":"ｲﾊﾞﾗｷｹﾝ","kana_city":"ﾋﾀﾁｵｵﾐﾔｼ","kana_address":"ｶﾐｵｾ","pref":"茨城県","city":"常陸大宮市","address":"上小瀬"},
{"zip_code":"3192261","kana_pref":"ｲﾊﾞﾗｷｹﾝ","kana_city":"ﾋﾀﾁｵｵﾐﾔｼ","kana_address":"ｶﾐﾁｮｳ","pref":"茨城県","city":"常陸大宮市","address":"上町"},
{"zip_code":"3192511","kana_pref":"ｲﾊﾞﾗｷｹﾝ","kana_city":"ﾋﾀﾁｵｵﾐﾔｼ","kana_address":"ｶﾐﾋｻﾞﾜ","pref":"茨城県","city":"常陸大宮市","address":"上檜沢"},
{"zip_code":"3192136","kana_pref":"ｲﾊﾞﾗｷｹﾝ","kana_city":"ﾋﾀﾁｵｵﾐﾔｼ","kana_address":"ｶﾐﾑﾗﾀ","pref":"茨城県","city":"常陸大宮市","address":"上村田"},
{"zip_code":"3192226","kana_pref":"ｲﾊﾞﾗｷｹﾝ","kana_city":"ﾋﾀﾁｵｵﾐﾔｼ","kana_address":"ｷﾀｼｵｺﾞ","pref":"茨城県","city":"常陸大宮市","address":"北塩子"},
{"zip_code":"3192254","kana_pref":"ｲﾊﾞﾗｷｹﾝ","kana_city":"ﾋﾀﾁｵｵﾐﾔｼ","kana_address":"ｷﾀﾁｮｳ","pref":"茨城県","city":"常陸大宮市","address":"北町"},
{"zip_code":"3193104","kana_pref":"ｲﾊﾞﾗｷｹﾝ","kana_city":"ﾋﾀﾁｵｵﾐﾔｼ","kana_address":"ｷﾀﾄﾐﾀﾞ","pref":"茨城県","city":"常陸大宮市","address":"北富田"},
{"zip_code":"3192404","kana_pref":"ｲﾊﾞﾗｷｹﾝ","kana_city":"ﾋﾀﾁｵｵﾐﾔｼ","kana_address":"ｸﾆｵｻ","pref":"茨城県","city":"常陸大宮市","address":"国長"},
{"zip_code":"3193101","kana_pref":"ｲﾊﾞﾗｷｹﾝ","kana_city":"ﾋﾀﾁｵｵﾐﾔｼ","kana_address":"ｸﾘｭｳ","pref":"茨城県","city":"常陸大宮市","address":"久隆"},
{"zip_code":"3192213","kana_pref":"ｲﾊﾞﾗｷｹﾝ","kana_city":"ﾋﾀﾁｵｵﾐﾔｼ","kana_address":"ｺｲﾜｲ","pref":"茨城県","city":"常陸大宮市","address":"小祝"},
{"zip_code":"3192134","kana_pref":"ｲﾊﾞﾗｷｹﾝ","kana_city":"ﾋﾀﾁｵｵﾐﾔｼ","kana_address":"ｺｳｷﾞｮｳﾀﾞﾝﾁ","pref":"茨城県","city":"常陸大宮市","address":"工業団地"},
{"zip_code":"3192411","kana_pref":"ｲﾊﾞﾗｷｹﾝ","kana_city":"ﾋﾀﾁｵｵﾐﾔｼ","kana_address":"ｺﾌﾞﾈ","pref":"茨城県","city":"常陸大宮市","address":"小舟"},
{"zip_code":"3192264","kana_pref":"ｲﾊﾞﾗｷｹﾝ","kana_city":"ﾋﾀﾁｵｵﾐﾔｼ","kana_address":"ｻｶｴﾁｮｳ","pref":"茨城県","city":"常陸大宮市","address":"栄町"},
{"zip_code":"3192202","kana_pref":"ｲﾊﾞﾗｷｹﾝ","kana_city":"ﾋﾀﾁｵｵﾐﾔｼ","kana_address":"ｼｵﾊﾞﾗ","pref":"茨城県","city":"常陸大宮市","address":"塩原"},
{"zip_code":"3192141","kana_pref":"ｲﾊﾞﾗｷｹﾝ","kana_city":"ﾋﾀﾁｵｵﾐﾔｼ","kana_address":"ｼﾓｲﾜｾ","pref":"茨城県","city":"常陸大宮市","address":"下岩瀬"},
{"zip_code":"3192402","kana_pref":"ｲﾊﾞﾗｷｹﾝ","kana_city":"ﾋﾀﾁｵｵﾐﾔｼ","kana_address":"ｼﾓｵｾ","pref":"茨城県","city":"常陸大宮市","address":"下小瀬"},
{"zip_code":"3192262","kana_pref":"ｲﾊﾞﾗｷｹﾝ","kana_city":"ﾋﾀﾁｵｵﾐﾔｼ","kana_address":"ｼﾓﾁｮｳ","pref":"茨城県","city":"常陸大宮市","address":"下町"},
{"zip_code":"3192512","kana_pref":"ｲﾊﾞﾗｷｹﾝ","kana_city":"ﾋﾀﾁｵｵﾐﾔｼ","kana_address":"ｼﾓﾋｻﾞﾜ","pref":"茨城県","city":"常陸大宮市","address":"下檜沢"},
{"zip_code":"3192131","kana_pref":"ｲﾊﾞﾗｷｹﾝ","kana_city":"ﾋﾀﾁｵｵﾐﾔｼ","kana_address":"ｼﾓﾑﾗﾀ","pref":"茨城県","city":"常陸大宮市","address":"下村田"},
{"zip_code":"3192416","kana_pref":"ｲﾊﾞﾗｷｹﾝ","kana_city":"ﾋﾀﾁｵｵﾐﾔｼ","kana_address":"ｾﾝﾀﾞ","pref":"茨城県","city":"常陸大宮市","address":"千田"},
{"zip_code":"3192214","kana_pref":"ｲﾊﾞﾗｷｹﾝ","kana_city":"ﾋﾀﾁｵｵﾐﾔｼ","kana_address":"ﾀｶｽ","pref":"茨城県","city":"常陸大宮市","address":"鷹巣"},
{"zip_code":"3192601","kana_pref":"ｲﾊﾞﾗｷｹﾝ","kana_city":"ﾋﾀﾁｵｵﾐﾔｼ","kana_address":"ﾀｶﾌﾞ","pref":"茨城県","city":"常陸大宮市","address":"高部"},
{"zip_code":"3192253","kana_pref":"ｲﾊﾞﾗｷｹﾝ","kana_city":"ﾋﾀﾁｵｵﾐﾔｼ","kana_address":"ﾀｶﾜﾀﾘﾁｮｳ","pref":"茨城県","city":"常陸大宮市","address":"高渡町"},
{"zip_code":"3192256","kana_pref":"ｲﾊﾞﾗｷｹﾝ","kana_city":"ﾋﾀﾁｵｵﾐﾔｼ","kana_address":"ﾀｺﾞｳﾁﾁｮｳ","pref":"茨城県","city":"常陸大宮市","address":"田子内町"},
{"zip_code":"3192201","kana_pref":"ｲﾊﾞﾗｷｹﾝ","kana_city":"ﾋﾀﾁｵｵﾐﾔｼ","kana_address":"ﾀﾂﾉｸﾁ","pref":"茨城県","city":"常陸大宮市","address":"辰ノ口"},
{"zip_code":"3192227","kana_pref":"ｲﾊﾞﾗｷｹﾝ","kana_city":"ﾋﾀﾁｵｵﾐﾔｼ","kana_address":"ﾃﾙﾀﾞ","pref":"茨城県","city":"常陸大宮市","address":"照田"},
{"zip_code":"3193115","kana_pref":"ｲﾊﾞﾗｷｹﾝ","kana_city":"ﾋﾀﾁｵｵﾐﾔｼ","kana_address":"ﾃﾙﾀﾞ","pref":"茨城県","city":"常陸大宮市","address":"照田"},
{"zip_code":"3193113","kana_pref":"ｲﾊﾞﾗｷｹﾝ","kana_city":"ﾋﾀﾁｵｵﾐﾔｼ","kana_address":"ﾃﾙﾔﾏ","pref":"茨城県","city":"常陸大宮市","address":"照山"},
{"zip_code":"3192224","kana_pref":"ｲﾊﾞﾗｷｹﾝ","kana_city":"ﾋﾀﾁｵｵﾐﾔｼ","kana_address":"ﾄｳﾉ","pref":"茨城県","city":"常陸大宮市","address":"東野"},
{"zip_code":"3192204","kana_pref":"ｲﾊﾞﾗｷｹﾝ","kana_city":"ﾋﾀﾁｵｵﾐﾔｼ","kana_address":"ﾄﾐｵｶ","pref":"茨城県","city":"常陸大宮市","address":"富岡"},
{"zip_code":"3192603","kana_pref":"ｲﾊﾞﾗｷｹﾝ","kana_city":"ﾋﾀﾁｵｵﾐﾔｼ","kana_address":"ﾄﾘﾉｺ","pref":"茨城県","city":"常陸大宮市","address":"鷲子"},
{"zip_code":"3192403","kana_pref":"ｲﾊﾞﾗｷｹﾝ","kana_city":"ﾋﾀﾁｵｵﾐﾔｼ","kana_address":"ﾅｶ","pref":"茨城県","city":"常陸大宮市","address":"那賀"},
{"zip_code":"3193117","kana_pref":"ｲﾊﾞﾗｷｹﾝ","kana_city":"ﾋﾀﾁｵｵﾐﾔｼ","kana_address":"ﾅｶﾞｻﾜ","pref":"茨城県","city":"常陸大宮市","address":"長沢"},
{"zip_code":"3192265","kana_pref":"ｲﾊﾞﾗｷｹﾝ","kana_city":"ﾋﾀﾁｵｵﾐﾔｼ","kana_address":"ﾅｶﾄﾐﾁｮｳ","pref":"茨城県","city":"常陸大宮市","address":"中富町"},
{"zip_code":"3192225","kana_pref":"ｲﾊﾞﾗｷｹﾝ","kana_city":"ﾋﾀﾁｵｵﾐﾔｼ","kana_address":"ﾆｼｼｵｺﾞ","pref":"茨城県","city":"常陸大宮市","address":"西塩子"},
{"zip_code":"3193106","kana_pref":"ｲﾊﾞﾗｷｹﾝ","kana_city":"ﾋﾀﾁｵｵﾐﾔｼ","kana_address":"ﾆｼﾉｳﾁ","pref":"茨城県","city":"常陸大宮市","address":"西野内"},
{"zip_code":"3192143","kana_pref":"ｲﾊﾞﾗｷｹﾝ","kana_city":"ﾋﾀﾁｵｵﾐﾔｼ","kana_address":"ﾈﾓﾄ","pref":"茨城県","city":"常陸大宮市","address":"根本"},
{"zip_code":"3193114","kana_pref":"ｲﾊﾞﾗｷｹﾝ","kana_city":"ﾋﾀﾁｵｵﾐﾔｼ","kana_address":"ﾉｶﾞﾐ","pref":"茨城県","city":"常陸大宮市","address":"野上"},
{"zip_code":"3192255","kana_pref":"ｲﾊﾞﾗｷｹﾝ","kana_city":"ﾋﾀﾁｵｵﾐﾔｼ","kana_address":"ﾉﾅｶﾁｮｳ","pref":"茨城県","city":"常陸大宮市","address":"野中町"},
{"zip_code":"3192221","kana_pref":"ｲﾊﾞﾗｷｹﾝ","kana_city":"ﾋﾀﾁｵｵﾐﾔｼ","kana_address":"ﾊｯﾀ","pref":"茨城県","city":"常陸大宮市","address":"八田"},
{"zip_code":"3192252","kana_pref":"ｲﾊﾞﾗｷｹﾝ","kana_city":"ﾋﾀﾁｵｵﾐﾔｼ","kana_address":"ﾋｶﾞｼﾄﾐﾁｮｳ","pref":"茨城県","city":"常陸大宮市","address":"東富町"},
{"zip_code":"3192513","kana_pref":"ｲﾊﾞﾗｷｹﾝ","kana_city":"ﾋﾀﾁｵｵﾐﾔｼ","kana_address":"ﾋﾉｻﾜ","pref":"茨城県","city":"常陸大宮市","address":"氷之沢"},
{"zip_code":"3193107","kana_pref":"ｲﾊﾞﾗｷｹﾝ","kana_city":"ﾋﾀﾁｵｵﾐﾔｼ","kana_address":"ﾌﾆｭｳ","pref":"茨城県","city":"常陸大宮市","address":"舟生"},
{"zip_code":"3192413","kana_pref":"ｲﾊﾞﾗｷｹﾝ","kana_city":"ﾋﾀﾁｵｵﾐﾔｼ","kana_address":"ﾏﾂﾉｸｻ","pref":"茨城県","city":"常陸大宮市","address":"松之草"},
{"zip_code":"3192263","kana_pref":"ｲﾊﾞﾗｷｹﾝ","kana_city":"ﾋﾀﾁｵｵﾐﾔｼ","kana_address":"ﾐﾅﾐﾁｮｳ","pref":"茨城県","city":"常陸大宮市","address":"南町"},
{"zip_code":"3192205","kana_pref":"ｲﾊﾞﾗｷｹﾝ","kana_city":"ﾋﾀﾁｵｵﾐﾔｼ","kana_address":"ﾐﾔﾉｻﾄ","pref":"茨城県","city":"常陸大宮市","address":"宮の郷"},
{"zip_code":"3192223","kana_pref":"ｲﾊﾞﾗｷｹﾝ","kana_city":"ﾋﾀﾁｵｵﾐﾔｼ","kana_address":"ﾐﾖｼ","pref":"茨城県","city":"常陸大宮市","address":"三美"},
{"zip_code":"3193102","kana_pref":"ｲﾊﾞﾗｷｹﾝ","kana_city":"ﾋﾀﾁｵｵﾐﾔｼ","kana_address":"ﾓﾘｶﾞﾈ","pref":"茨城県","city":"常陸大宮市","address":"盛金"},
{"zip_code":"3193105","kana_pref":"ｲﾊﾞﾗｷｹﾝ","kana_city":"ﾋﾀﾁｵｵﾐﾔｼ","kana_address":"ﾓﾛｻﾞﾜ","pref":"茨城県","city":"常陸大宮市","address":"諸沢"},
{"zip_code":"3193111","kana_pref":"ｲﾊﾞﾗｷｹﾝ","kana_city":"ﾋﾀﾁｵｵﾐﾔｼ","kana_address":"ﾔﾏｶﾞﾀ","pref":"茨城県","city":"常陸大宮市","address":"山方"},
{"zip_code":"3193103","kana_pref":"ｲﾊﾞﾗｷｹﾝ","kana_city":"ﾋﾀﾁｵｵﾐﾔｼ","kana_address":"ﾔﾜﾗ","pref":"茨城県","city":"常陸大宮市","address":"家和楽"},
{"zip_code":"3192266","kana_pref":"ｲﾊﾞﾗｷｹﾝ","kana_city":"ﾋﾀﾁｵｵﾐﾔｼ","kana_address":"ﾕｶﾞﾀﾞｲﾁｮｳ","pref":"茨城県","city":"常陸大宮市","address":"抽ケ台町"},
{"zip_code":"3192417","kana_pref":"ｲﾊﾞﾗｷｹﾝ","kana_city":"ﾋﾀﾁｵｵﾐﾔｼ","kana_address":"ﾕｺﾞｳﾄ","pref":"茨城県","city":"常陸大宮市","address":"油河内"},
{"zip_code":"3192414","kana_pref":"ｲﾊﾞﾗｷｹﾝ","kana_city":"ﾋﾀﾁｵｵﾐﾔｼ","kana_address":"ﾖｼﾏﾙ","pref":"茨城県","city":"常陸大宮市","address":"吉丸"},
{"zip_code":"3192222","kana_pref":"ｲﾊﾞﾗｷｹﾝ","kana_city":"ﾋﾀﾁｵｵﾐﾔｼ","kana_address":"ﾜｶﾊﾞﾔｼ","pref":"茨城県","city":"常陸大宮市","address":"若林"},
{"zip_code":"3192102","kana_pref":"ｲﾊﾞﾗｷｹﾝ","kana_city":"ﾅｶｼ","kana_address":"ｳﾘﾂﾞﾗ","pref":"茨城県","city":"那珂市","address":"瓜連"},
{"zip_code":"3192105","kana_pref":"ｲﾊﾞﾗｷｹﾝ","kana_city":"ﾅｶｼ","kana_address":"ｺﾄｸ","pref":"茨城県","city":"那珂市","address":"古徳"},
{"zip_code":"3192106","kana_pref":"ｲﾊﾞﾗｷｹﾝ","kana_city":"ﾅｶｼ","kana_address":"ｼｽﾞ","pref":"茨城県","city":"那珂市","address":"静"},
{"zip_code":"3192107","kana_pref":"ｲﾊﾞﾗｷｹﾝ","kana_city":"ﾅｶｼ","kana_address":"ｼﾓｵｵｶﾞ","pref":"茨城県","city":"那珂市","address":"下大賀"},
{"zip_code":"3192103","kana_pref":"ｲﾊﾞﾗｷｹﾝ","kana_city":"ﾅｶｼ","kana_address":"ﾅｶｻﾞﾄ","pref":"茨城県","city":"那珂市","address":"中里"},
{"zip_code":"3192104","kana_pref":"ｲﾊﾞﾗｷｹﾝ","kana_city":"ﾅｶｼ","kana_address":"ﾋﾗﾉ","pref":"茨城県","city":"那珂市","address":"平野"},
{"zip_code":"3190100","kana_pref":"ｲﾊﾞﾗｷｹﾝ","kana_city":"ｵﾐﾀﾏｼ","kana_address":"","pref":"茨城県","city":"小美玉市","address":""},
{"zip_code":"3190122","kana_pref":"ｲﾊﾞﾗｷｹﾝ","kana_city":"ｵﾐﾀﾏｼ","kana_address":"ｴﾄﾞ","pref":"茨城県","city":"小美玉市","address":"江戸"},
{"zip_code":"3190137","kana_pref":"ｲﾊﾞﾗｷｹﾝ","kana_city":"ｵﾐﾀﾏｼ","kana_address":"ｵｵｻﾞｻ","pref":"茨城県","city":"小美玉市","address":"大笹"},
{"zip_code":"3190126","kana_pref":"ｲﾊﾞﾗｷｹﾝ","kana_city":"ｵﾐﾀﾏｼ","kana_address":"ｵｵﾔ","pref":"茨城県","city":"小美玉市","address":"大谷"},
{"zip_code":"3190125","kana_pref":"ｲﾊﾞﾗｷｹﾝ","kana_city":"ｵﾐﾀﾏｼ","kana_address":"ｵｿﾉｳ","pref":"茨城県","city":"小美玉市","address":"小曽納"},
{"zip_code":"3190106","kana_pref":"ｲﾊﾞﾗｷｹﾝ","kana_city":"ｵﾐﾀﾏｼ","kana_address":"ｶﾀｸﾗ","pref":"茨城県","city":"小美玉市","address":"堅倉"},
{"zip_code":"3190115","kana_pref":"ｲﾊﾞﾗｷｹﾝ","kana_city":"ｵﾐﾀﾏｼ","kana_address":"ｶﾐﾊﾞﾊﾞ","pref":"茨城県","city":"小美玉市","address":"上馬場"},
{"zip_code":"3190107","kana_pref":"ｲﾊﾞﾗｷｹﾝ","kana_city":"ｵﾐﾀﾏｼ","kana_address":"ｺｲﾜﾄ","pref":"茨城県","city":"小美玉市","address":"小岩戸"},
{"zip_code":"3190102","kana_pref":"ｲﾊﾞﾗｷｹﾝ","kana_city":"ｵﾐﾀﾏｼ","kana_address":"ｻｲｺﾞｳﾁ","pref":"茨城県","city":"小美玉市","address":"西郷地"},
{"zip_code":"3190104","kana_pref":"ｲﾊﾞﾗｷｹﾝ","kana_city":"ｵﾐﾀﾏｼ","kana_address":"ｻﾝｶﾞ","pref":"茨城県","city":"小美玉市","address":"三箇"},
{"zip_code":"3190103","kana_pref":"ｲﾊﾞﾗｷｹﾝ","kana_city":"ｵﾐﾀﾏｼ","kana_address":"ｼﾊﾞﾀｶ","pref":"茨城県","city":"小美玉市","address":"柴高"},
{"zip_code":"3190135","kana_pref":"ｲﾊﾞﾗｷｹﾝ","kana_city":"ｵﾐﾀﾏｼ","kana_address":"ﾀｶﾀﾞ","pref":"茨城県","city":"小美玉市","address":"高田"},
{"zip_code":"3190113","kana_pref":"ｲﾊﾞﾗｷｹﾝ","kana_city":"ｵﾐﾀﾏｼ","kana_address":"ﾀｹﾊﾗ","pref":"茨城県","city":"小美玉市","address":"竹原"},
{"zip_code":"3190112","kana_pref":"ｲﾊﾞﾗｷｹﾝ","kana_city":"ｵﾐﾀﾏｼ","kana_address":"ﾀｹﾊﾗｼﾓｺﾞｳ","pref":"茨城県","city":"小美玉市","address":"竹原下郷"},
{"zip_code":"3190114","kana_pref":"ｲﾊﾞﾗｷｹﾝ","kana_city":"ｵﾐﾀﾏｼ","kana_address":"ﾀｹﾊﾗﾅｶｺﾞｳ","pref":"茨城県","city":"小美玉市","address":"竹原中郷"},
{"zip_code":"3190105","kana_pref":"ｲﾊﾞﾗｷｹﾝ","kana_city":"ｵﾐﾀﾏｼ","kana_address":"ﾂﾙﾀ","pref":"茨城県","city":"小美玉市","address":"鶴田"},
{"zip_code":"3190136","kana_pref":"ｲﾊﾞﾗｷｹﾝ","kana_city":"ｵﾐﾀﾏｼ","kana_address":"ﾃﾂﾂﾞﾐ","pref":"茨城県","city":"小美玉市","address":"手堤"},
{"zip_code":"3190131","kana_pref":"ｲﾊﾞﾗｷｹﾝ","kana_city":"ｵﾐﾀﾏｼ","kana_address":"ﾃﾗｻﾞｷ","pref":"茨城県","city":"小美玉市","address":"寺崎"},
{"zip_code":"3190116","kana_pref":"ｲﾊﾞﾗｷｹﾝ","kana_city":"ｵﾐﾀﾏｼ","kana_address":"ﾅｶﾀﾞｲ","pref":"茨城県","city":"小美玉市","address":"中台"},
{"zip_code":"3190111","kana_pref":"ｲﾊﾞﾗｷｹﾝ","kana_city":"ｵﾐﾀﾏｼ","kana_address":"ﾅｶﾉﾔ","pref":"茨城県","city":"小美玉市","address":"中野谷"},
{"zip_code":"3190134","kana_pref":"ｲﾊﾞﾗｷｹﾝ","kana_city":"ｵﾐﾀﾏｼ","kana_address":"ﾉｳﾊﾞ","pref":"茨城県","city":"小美玉市","address":"納場"},
{"zip_code":"3190121","kana_pref":"ｲﾊﾞﾗｷｹﾝ","kana_city":"ｵﾐﾀﾏｼ","kana_address":"ﾊｶﾘ","pref":"茨城県","city":"小美玉市","address":"羽刈"},
{"zip_code":"3190101","kana_pref":"ｲﾊﾞﾗｷｹﾝ","kana_city":"ｵﾐﾀﾏｼ","kana_address":"ﾊｼﾊﾞﾐ","pref":"茨城県","city":"小美玉市","address":"橋場美"},
{"zip_code":"3190123","kana_pref":"ｲﾊﾞﾗｷｹﾝ","kana_city":"ｵﾐﾀﾏｼ","kana_address":"ﾊﾄﾘ","pref":"茨城県","city":"小美玉市","address":"羽鳥"},
{"zip_code":"3190124","kana_pref":"ｲﾊﾞﾗｷｹﾝ","kana_city":"ｵﾐﾀﾏｼ","kana_address":"ﾊﾅﾉｲ","pref":"茨城県","city":"小美玉市","address":"花野井"},
{"zip_code":"3190133","kana_pref":"ｲﾊﾞﾗｷｹﾝ","kana_city":"ｵﾐﾀﾏｼ","kana_address":"ﾊﾘﾎｼ","pref":"茨城県","city":"小美玉市","address":"張星"},
{"zip_code":"3190132","kana_pref":"ｲﾊﾞﾗｷｹﾝ","kana_city":"ｵﾐﾀﾏｼ","kana_address":"ﾍﾑﾛ","pref":"茨城県","city":"小美玉市","address":"部室"},
{"zip_code":"3190108","kana_pref":"ｲﾊﾞﾗｷｹﾝ","kana_city":"ｵﾐﾀﾏｼ","kana_address":"ﾏﾂﾉﾁ","pref":"茨城県","city":"小美玉市","address":"先後"},
{"zip_code":"3191100","kana_pref":"ｲﾊﾞﾗｷｹﾝ","kana_city":"ﾅｶｸﾞﾝﾄｳｶｲﾑﾗ","kana_address":"","pref":"茨城県","city":"那珂郡東海村","address":""},
{"zip_code":"3191102","kana_pref":"ｲﾊﾞﾗｷｹﾝ","kana_city":"ﾅｶｸﾞﾝﾄｳｶｲﾑﾗ","kana_address":"ｲｼｶﾞﾐｳﾁｼﾞｭｸ","pref":"茨城県","city":"那珂郡東海村","address":"石神内宿"},
{"zip_code":"3191101","kana_pref":"ｲﾊﾞﾗｷｹﾝ","kana_city":"ﾅｶｸﾞﾝﾄｳｶｲﾑﾗ","kana_address":"ｲｼｶﾞﾐﾄｼﾞｭｸ","pref":"茨城県","city":"那珂郡東海村","address":"石神外宿"},
{"zip_code":"3191104","kana_pref":"ｲﾊﾞﾗｷｹﾝ","kana_city":"ﾅｶｸﾞﾝﾄｳｶｲﾑﾗ","kana_address":"ｶﾒｼﾀ","pref":"茨城県","city":"那珂郡東海村","address":"亀下"},
{"zip_code":"3191106","kana_pref":"ｲﾊﾞﾗｷｹﾝ","kana_city":"ﾅｶｸﾞﾝﾄｳｶｲﾑﾗ","kana_address":"ｼﾗｶﾀ","pref":"茨城県","city":"那珂郡東海村","address":"白方"},
{"zip_code":"3191109","kana_pref":"ｲﾊﾞﾗｷｹﾝ","kana_city":"ﾅｶｸﾞﾝﾄｳｶｲﾑﾗ","kana_address":"ｼﾗｶﾀﾁｭｳｵｳ","pref":"茨城県","city":"那珂郡東海村","address":"白方中央"},
{"zip_code":"3191114","kana_pref":"ｲﾊﾞﾗｷｹﾝ","kana_city":"ﾅｶｸﾞﾝﾄｳｶｲﾑﾗ","kana_address":"ｽﾜﾏ","pref":"茨城県","city":"那珂郡東海村","address":"須和間"},
{"zip_code":"3191103","kana_pref":"ｲﾊﾞﾗｷｹﾝ","kana_city":"ﾅｶｸﾞﾝﾄｳｶｲﾑﾗ","kana_address":"ﾀｹｶﾞﾜﾗ","pref":"茨城県","city":"那珂郡東海村","address":"竹瓦"},
{"zip_code":"3191113","kana_pref":"ｲﾊﾞﾗｷｹﾝ","kana_city":"ﾅｶｸﾞﾝﾄｳｶｲﾑﾗ","kana_address":"ﾃﾙﾇﾏ","pref":"茨城県","city":"那珂郡東海村","address":"照沼"},
{"zip_code":"3191117","kana_pref":"ｲﾊﾞﾗｷｹﾝ","kana_city":"ﾅｶｸﾞﾝﾄｳｶｲﾑﾗ","kana_address":"ﾄｳｶｲ","pref":"茨城県","city":"那珂郡東海村","address":"東海"},
{"zip_code":"3191105","kana_pref":"ｲﾊﾞﾗｷｹﾝ","kana_city":"ﾅｶｸﾞﾝﾄｳｶｲﾑﾗ","kana_address":"ﾄﾖｵｶ","pref":"茨城県","city":"那珂郡東海村","address":"豊岡"},
{"zip_code":"3191107","kana_pref":"ｲﾊﾞﾗｷｹﾝ","kana_city":"ﾅｶｸﾞﾝﾄｳｶｲﾑﾗ","kana_address":"ﾄﾖｼﾛ","pref":"茨城県","city":"那珂郡東海村","address":"豊白"},
{"zip_code":"3191111","kana_pref":"ｲﾊﾞﾗｷｹﾝ","kana_city":"ﾅｶｸﾞﾝﾄｳｶｲﾑﾗ","kana_address":"ﾌﾅｲｼｶﾜ","pref":"茨城県","city":"那珂郡東海村","address":"舟石川"},
{"zip_code":"3191116","kana_pref":"ｲﾊﾞﾗｷｹﾝ","kana_city":"ﾅｶｸﾞﾝﾄｳｶｲﾑﾗ","kana_address":"ﾌﾅｲｼｶﾜｴｷﾆｼ","pref":"茨城県","city":"那珂郡東海村","address":"舟石川駅西"},
{"zip_code":"3191118","kana_pref":"ｲﾊﾞﾗｷｹﾝ","kana_city":"ﾅｶｸﾞﾝﾄｳｶｲﾑﾗ","kana_address":"ﾌﾅｲｼｶﾜｴｷﾋｶﾞｼ","pref":"茨城県","city":"那珂郡東海村","address":"舟石川駅東"},
{"zip_code":"3191115","kana_pref":"ｲﾊﾞﾗｷｹﾝ","kana_city":"ﾅｶｸﾞﾝﾄｳｶｲﾑﾗ","kana_address":"ﾌﾅﾊﾞ","pref":"茨城県","city":"那珂郡東海村","address":"船場"},
{"zip_code":"3191112","kana_pref":"ｲﾊﾞﾗｷｹﾝ","kana_city":"ﾅｶｸﾞﾝﾄｳｶｲﾑﾗ","kana_address":"ﾑﾗﾏﾂ","pref":"茨城県","city":"那珂郡東海村","address":"村松"},
{"zip_code":"3191108","kana_pref":"ｲﾊﾞﾗｷｹﾝ","kana_city":"ﾅｶｸﾞﾝﾄｳｶｲﾑﾗ","kana_address":"ﾑﾗﾏﾂｷﾀ","pref":"茨城県","city":"那珂郡東海村","address":"村松北"},
{"zip_code":"3193500","kana_pref":"ｲﾊﾞﾗｷｹﾝ","kana_city":"ｸｼﾞｸﾞﾝﾀﾞｲｺﾞﾏﾁ","kana_address":"","pref":"茨城県","city":"久慈郡大子町","address":""},
{"zip_code":"3193534","kana_pref":"ｲﾊﾞﾗｷｹﾝ","kana_city":"ｸｼﾞｸﾞﾝﾀﾞｲｺﾞﾏﾁ","kana_address":"ｱｲｶﾜ","pref":"茨城県","city":"久慈郡大子町","address":"相川"},
{"zip_code":"3193541","kana_pref":"ｲﾊﾞﾗｷｹﾝ","kana_city":"ｸｼﾞｸﾞﾝﾀﾞｲｺﾞﾏﾁ","kana_address":"ｱｻｶﾜ","pref":"茨城県","city":"久慈郡大子町","address":"浅川"},
{"zip_code":"3193538","kana_pref":"ｲﾊﾞﾗｷｹﾝ","kana_city":"ｸｼﾞｸﾞﾝﾀﾞｲｺﾞﾏﾁ","kana_address":"ｱｼﾉｸﾗ","pref":"茨城県","city":"久慈郡大子町","address":"芦野倉"},
{"zip_code":"3193551","kana_pref":"ｲﾊﾞﾗｷｹﾝ","kana_city":"ｸｼﾞｸﾞﾝﾀﾞｲｺﾞﾏﾁ","kana_address":"ｲｹﾀﾞ","pref":"茨城県","city":"久慈郡大子町","address":"池田"},
{"zip_code":"3193515","kana_pref":"ｲﾊﾞﾗｷｹﾝ","kana_city":"ｸｼﾞｸﾞﾝﾀﾞｲｺﾞﾏﾁ","kana_address":"ｳﾁｵｵﾉ","pref":"茨城県","city":"久慈郡大子町","address":"内大野"},
{"zip_code":"3193531","kana_pref":"ｲﾊﾞﾗｷｹﾝ","kana_city":"ｸｼﾞｸﾞﾝﾀﾞｲｺﾞﾏﾁ","kana_address":"ｳﾜｵｶ","pref":"茨城県","city":"久慈郡大子町","address":"上岡"},
{"zip_code":"3193366","kana_pref":"ｲﾊﾞﾗｷｹﾝ","kana_city":"ｸｼﾞｸﾞﾝﾀﾞｲｺﾞﾏﾁ","kana_address":"ｵｵｻﾜ","pref":"茨城県","city":"久慈郡大子町","address":"大沢"},
{"zip_code":"3193513","kana_pref":"ｲﾊﾞﾗｷｹﾝ","kana_city":"ｸｼﾞｸﾞﾝﾀﾞｲｺﾞﾏﾁ","kana_address":"ｵｵﾅﾏｾ","pref":"茨城県","city":"久慈郡大子町","address":"大生瀬"},
{"zip_code":"3193535","kana_pref":"ｲﾊﾞﾗｷｹﾝ","kana_city":"ｸｼﾞｸﾞﾝﾀﾞｲｺﾞﾏﾁ","kana_address":"ｶﾐｶﾈｻﾜ","pref":"茨城県","city":"久慈郡大子町","address":"上金沢"},
{"zip_code":"3193703","kana_pref":"ｲﾊﾞﾗｷｹﾝ","kana_city":"ｸｼﾞｸﾞﾝﾀﾞｲｺﾞﾏﾁ","kana_address":"ｶﾐｺﾞｳ","pref":"茨城県","city":"久慈郡大子町","address":"上郷"},
{"zip_code":"3193704","kana_pref":"ｲﾊﾞﾗｷｹﾝ","kana_city":"ｸｼﾞｸﾞﾝﾀﾞｲｺﾞﾏﾁ","kana_address":"ｶﾐﾉﾐﾔ","pref":"茨城県","city":"久慈郡大子町","address":"上野宮"},
{"zip_code":"3193556","kana_pref":"ｲﾊﾞﾗｷｹﾝ","kana_city":"ｸｼﾞｸﾞﾝﾀﾞｲｺﾞﾏﾁ","kana_address":"ｶﾜﾔﾏ","pref":"茨城県","city":"久慈郡大子町","address":"川山"},
{"zip_code":"3193521","kana_pref":"ｲﾊﾞﾗｷｹﾝ","kana_city":"ｸｼﾞｸﾞﾝﾀﾞｲｺﾞﾏﾁ","kana_address":"ｷﾀﾀｹﾞ","pref":"茨城県","city":"久慈郡大子町","address":"北田気"},
{"zip_code":"3193363","kana_pref":"ｲﾊﾞﾗｷｹﾝ","kana_city":"ｸｼﾞｸﾞﾝﾀﾞｲｺﾞﾏﾁ","kana_address":"ｷﾀﾄﾐﾀ","pref":"茨城県","city":"久慈郡大子町","address":"北富田"},
{"zip_code":"3193701","kana_pref":"ｲﾊﾞﾗｷｹﾝ","kana_city":"ｸｼﾞｸﾞﾝﾀﾞｲｺﾞﾏﾁ","kana_address":"ｷﾀﾖｼｻﾞﾜ","pref":"茨城県","city":"久慈郡大子町","address":"北吉沢"},
{"zip_code":"3193522","kana_pref":"ｲﾊﾞﾗｷｹﾝ","kana_city":"ｸｼﾞｸﾞﾝﾀﾞｲｺﾞﾏﾁ","kana_address":"ｸﾉｾ","pref":"茨城県","city":"久慈郡大子町","address":"久野瀬"},
{"zip_code":"3193512","kana_pref":"ｲﾊﾞﾗｷｹﾝ","kana_city":"ｸｼﾞｸﾞﾝﾀﾞｲｺﾞﾏﾁ","kana_address":"ｺﾅﾏｾ","pref":"茨城県","city":"久慈郡大子町","address":"小生瀬"},
{"zip_code":"3193361","kana_pref":"ｲﾊﾞﾗｷｹﾝ","kana_city":"ｸｼﾞｸﾞﾝﾀﾞｲｺﾞﾏﾁ","kana_address":"ｺﾛﾌｼﾞ","pref":"茨城県","city":"久慈郡大子町","address":"頃藤"},
{"zip_code":"3193362","kana_pref":"ｲﾊﾞﾗｷｹﾝ","kana_city":"ｸｼﾞｸﾞﾝﾀﾞｲｺﾞﾏﾁ","kana_address":"ｻｲｶﾞﾈ","pref":"茨城県","city":"久慈郡大子町","address":"西金"},
{"zip_code":"3193543","kana_pref":"ｲﾊﾞﾗｷｹﾝ","kana_city":"ｸｼﾞｸﾞﾝﾀﾞｲｺﾞﾏﾁ","kana_address":"ｻﾇｷ","pref":"茨城県","city":"久慈郡大子町","address":"左貫"},
{"zip_code":"3193533","kana_pref":"ｲﾊﾞﾗｷｹﾝ","kana_city":"ｸｼﾞｸﾞﾝﾀﾞｲｺﾞﾏﾁ","kana_address":"ｼﾓｶﾈｻﾜ","pref":"茨城県","city":"久慈郡大子町","address":"下金沢"},
{"zip_code":"3193524","kana_pref":"ｲﾊﾞﾗｷｹﾝ","kana_city":"ｸｼﾞｸﾞﾝﾀﾞｲｺﾞﾏﾁ","kana_address":"ｼﾓﾂﾊﾗ","pref":"茨城県","city":"久慈郡大子町","address":"下津原"},
{"zip_code":"3193555","kana_pref":"ｲﾊﾞﾗｷｹﾝ","kana_city":"ｸｼﾞｸﾞﾝﾀﾞｲｺﾞﾏﾁ","kana_address":"ｼﾓﾉﾐﾔ","pref":"茨城県","city":"久慈郡大子町","address":"下野宮"},
{"zip_code":"3193514","kana_pref":"ｲﾊﾞﾗｷｹﾝ","kana_city":"ｸｼﾞｸﾞﾝﾀﾞｲｺﾞﾏﾁ","kana_address":"ｿﾄｵｵﾉ","pref":"茨城県","city":"久慈郡大子町","address":"外大野"},
{"zip_code":"3193526","kana_pref":"ｲﾊﾞﾗｷｹﾝ","kana_city":"ｸｼﾞｸﾞﾝﾀﾞｲｺﾞﾏﾁ","kana_address":"ﾀﾞｲｺﾞ","pref":"茨城県","city":"久慈郡大子町","address":"大子"},
{"zip_code":"3193511","kana_pref":"ｲﾊﾞﾗｷｹﾝ","kana_city":"ｸｼﾞｸﾞﾝﾀﾞｲｺﾞﾏﾁ","kana_address":"ﾀｶｼﾊﾞ","pref":"茨城県","city":"久慈郡大子町","address":"高柴"},
{"zip_code":"3193554","kana_pref":"ｲﾊﾞﾗｷｹﾝ","kana_city":"ｸｼﾞｸﾞﾝﾀﾞｲｺﾞﾏﾁ","kana_address":"ﾀｶﾀﾞ","pref":"茨城県","city":"久慈郡大子町","address":"高田"},
{"zip_code":"3193536","kana_pref":"ｲﾊﾞﾗｷｹﾝ","kana_city":"ｸｼﾞｸﾞﾝﾀﾞｲｺﾞﾏﾁ","kana_address":"ﾀﾉｻﾜ","pref":"茨城県","city":"久慈郡大子町","address":"田野沢"},
{"zip_code":"3193365","kana_pref":"ｲﾊﾞﾗｷｹﾝ","kana_city":"ｸｼﾞｸﾞﾝﾀﾞｲｺﾞﾏﾁ","kana_address":"ﾄﾁﾊﾗ","pref":"茨城県","city":"久慈郡大子町","address":"栃原"},
{"zip_code":"3193705","kana_pref":"ｲﾊﾞﾗｷｹﾝ","kana_city":"ｸｼﾞｸﾞﾝﾀﾞｲｺﾞﾏﾁ","kana_address":"ﾅｶｺﾞｳ","pref":"茨城県","city":"久慈郡大子町","address":"中郷"},
{"zip_code":"3193542","kana_pref":"ｲﾊﾞﾗｷｹﾝ","kana_city":"ｸｼﾞｸﾞﾝﾀﾞｲｺﾞﾏﾁ","kana_address":"ﾊﾂﾊﾞﾗ","pref":"茨城県","city":"久慈郡大子町","address":"初原"},
{"zip_code":"3193537","kana_pref":"ｲﾊﾞﾗｷｹﾝ","kana_city":"ｸｼﾞｸﾞﾝﾀﾞｲｺﾞﾏﾁ","kana_address":"ﾊﾅﾜ","pref":"茨城県","city":"久慈郡大子町","address":"塙"},
{"zip_code":"3193523","kana_pref":"ｲﾊﾞﾗｷｹﾝ","kana_city":"ｸｼﾞｸﾞﾝﾀﾞｲｺﾞﾏﾁ","kana_address":"ﾌｸﾛﾀﾞ","pref":"茨城県","city":"久慈郡大子町","address":"袋田"},
{"zip_code":"3193544","kana_pref":"ｲﾊﾞﾗｷｹﾝ","kana_city":"ｸｼﾞｸﾞﾝﾀﾞｲｺﾞﾏﾁ","kana_address":"ﾏｷﾞﾉﾁ","pref":"茨城県","city":"久慈郡大子町","address":"槇野地"},
{"zip_code":"3193702","kana_pref":"ｲﾊﾞﾗｷｹﾝ","kana_city":"ｸｼﾞｸﾞﾝﾀﾞｲｺﾞﾏﾁ","kana_address":"ﾏﾁﾂｷ","pref":"茨城県","city":"久慈郡大子町","address":"町付"},
{"zip_code":"3193525","kana_pref":"ｲﾊﾞﾗｷｹﾝ","kana_city":"ｸｼﾞｸﾞﾝﾀﾞｲｺﾞﾏﾁ","kana_address":"ﾐﾅﾐﾀｹﾞ","pref":"茨城県","city":"久慈郡大子町","address":"南田気"},
{"zip_code":"3193553","kana_pref":"ｲﾊﾞﾗｷｹﾝ","kana_city":"ｸｼﾞｸﾞﾝﾀﾞｲｺﾞﾏﾁ","kana_address":"ﾐｮｳｶﾞ","pref":"茨城県","city":"久慈郡大子町","address":"冥賀"},
{"zip_code":"3193364","kana_pref":"ｲﾊﾞﾗｷｹﾝ","kana_city":"ｸｼﾞｸﾞﾝﾀﾞｲｺﾞﾏﾁ","kana_address":"ﾓﾘｶﾞﾈ","pref":"茨城県","city":"久慈郡大子町","address":"盛金"},
{"zip_code":"3193552","kana_pref":"ｲﾊﾞﾗｷｹﾝ","kana_city":"ｸｼﾞｸﾞﾝﾀﾞｲｺﾞﾏﾁ","kana_address":"ﾔﾀﾞ","pref":"茨城県","city":"久慈郡大子町","address":"矢田"},
{"zip_code":"3193532","kana_pref":"ｲﾊﾞﾗｷｹﾝ","kana_city":"ｸｼﾞｸﾞﾝﾀﾞｲｺﾞﾏﾁ","kana_address":"ﾔﾏﾀﾞ","pref":"茨城県","city":"久慈郡大子町","address":"山田"}]}