{"zip_code":[
{"zip_code":"3200845","kana_pref":"ﾄﾁｷﾞｹﾝ","kana_city":"ｳﾂﾉﾐﾔｼ","kana_address":"ｱｹﾎﾞﾉﾁｮｳ","pref":"栃木県","city":"宇都宮市","address":"明保野町"},
{"zip_code":"3200818","kana_pref":"ﾄﾁｷﾞｹﾝ","kana_city":"ｳﾂﾉﾐﾔｼ","kana_address":"ｱｻﾋ","pref":"栃木県","city":"宇都宮市","address":"旭"},
{"zip_code":"3200801","kana_pref":"ﾄﾁｷﾞｹﾝ","kana_city":"ｳﾂﾉﾐﾔｼ","kana_address":"ｲｹｶﾞﾐﾁｮｳ","pref":"栃木県","city":"宇都宮市","address":"池上町"},
{"zip_code":"3200034","kana_pref":"ﾄﾁｷﾞｹﾝ","kana_city":"ｳﾂﾉﾐﾔｼ","kana_address":"ｲｽﾞﾐﾁｮｳ","pref":"栃木県","city":"宇都宮市","address":"泉町"},
{"zip_code":"3200821","kana_pref":"ﾄﾁｷﾞｹﾝ","kana_city":"ｳﾂﾉﾐﾔｼ","kana_address":"ｲﾁｼﾞｮｳ","pref":"栃木県","city":"宇都宮市","address":"一条"},
{"zip_code":"3200047","kana_pref":"ﾄﾁｷﾞｹﾝ","kana_city":"ｳﾂﾉﾐﾔｼ","kana_address":"ｲﾁﾉｻﾜ","pref":"栃木県","city":"宇都宮市","address":"一の沢"},
{"zip_code":"3200049","kana_pref":"ﾄﾁｷﾞｹﾝ","kana_city":"ｳﾂﾉﾐﾔｼ","kana_address":"ｲﾁﾉｻﾜﾏﾁ","pref":"栃木県","city":"宇都宮市","address":"一ノ沢町"},
{"zip_code":"3200812","kana_pref":"ﾄﾁｷﾞｹﾝ","kana_city":"ｳﾂﾉﾐﾔｼ","kana_address":"ｲﾁﾊﾞﾝﾁｮｳ","pref":"栃木県","city":"宇都宮市","address":"一番町"},
{"zip_code":"3200802","kana_pref":"ﾄﾁｷﾞｹﾝ","kana_city":"ｳﾂﾉﾐﾔｼ","kana_address":"ｴﾉﾏﾁ","pref":"栃木県","city":"宇都宮市","address":"江野町"},
{"zip_code":"3200014","kana_pref":"ﾄﾁｷﾞｹﾝ","kana_city":"ｳﾂﾉﾐﾔｼ","kana_address":"ｵｵｿﾞ","pref":"栃木県","city":"宇都宮市","address":"大曽"},
{"zip_code":"3200811","kana_pref":"ﾄﾁｷﾞｹﾝ","kana_city":"ｳﾂﾉﾐﾔｼ","kana_address":"ｵｵﾄﾞｵﾘ","pref":"栃木県","city":"宇都宮市","address":"大通り"},
{"zip_code":"3200823","kana_pref":"ﾄﾁｷﾞｹﾝ","kana_city":"ｳﾂﾉﾐﾔｼ","kana_address":"ｵｸﾗﾏﾁ","pref":"栃木県","city":"宇都宮市","address":"御蔵町"},
{"zip_code":"3200036","kana_pref":"ﾄﾁｷﾞｹﾝ","kana_city":"ｳﾂﾉﾐﾔｼ","kana_address":"ｵﾊﾞﾀ","pref":"栃木県","city":"宇都宮市","address":"小幡"},
{"zip_code":"3200013","kana_pref":"ﾄﾁｷﾞｹﾝ","kana_city":"ｳﾂﾉﾐﾔｼ","kana_address":"ｶﾐｵｵｿﾞﾏﾁ","pref":"栃木県","city":"宇都宮市","address":"上大曽町"},
{"zip_code":"3200855","kana_pref":"ﾄﾁｷﾞｹﾝ","kana_city":"ｳﾂﾉﾐﾔｼ","kana_address":"ｶﾐｶｹﾏﾁ","pref":"栃木県","city":"宇都宮市","address":"上欠町"},
{"zip_code":"3200058","kana_pref":"ﾄﾁｷﾞｹﾝ","kana_city":"ｳﾂﾉﾐﾔｼ","kana_address":"ｶﾐﾄﾏﾂﾘ","pref":"栃木県","city":"宇都宮市","address":"上戸祭"},
{"zip_code":"3200051","kana_pref":"ﾄﾁｷﾞｹﾝ","kana_city":"ｳﾂﾉﾐﾔｼ","kana_address":"ｶﾐﾄﾏﾂﾘﾁｮｳ","pref":"栃木県","city":"宇都宮市","address":"上戸祭町"},
{"zip_code":"3200822","kana_pref":"ﾄﾁｷﾞｹﾝ","kana_city":"ｳﾂﾉﾐﾔｼ","kana_address":"ｶﾜﾗﾏﾁ","pref":"栃木県","city":"宇都宮市","address":"河原町"},
{"zip_code":"3200002","kana_pref":"ﾄﾁｷﾞｹﾝ","kana_city":"ｳﾂﾉﾐﾔｼ","kana_address":"ｶﾜﾗﾔﾁｮｳ","pref":"栃木県","city":"宇都宮市","address":"瓦谷町"},
{"zip_code":"3200844","kana_pref":"ﾄﾁｷﾞｹﾝ","kana_city":"ｳﾂﾉﾐﾔｼ","kana_address":"ｷｸｽｲﾁｮｳ","pref":"栃木県","city":"宇都宮市","address":"菊水町"},
{"zip_code":"3200048","kana_pref":"ﾄﾁｷﾞｹﾝ","kana_city":"ｳﾂﾉﾐﾔｼ","kana_address":"ｷﾀｲﾁﾉｻﾜﾏﾁ","pref":"栃木県","city":"宇都宮市","address":"北一の沢町"},
{"zip_code":"3200842","kana_pref":"ﾄﾁｷﾞｹﾝ","kana_city":"ｳﾂﾉﾐﾔｼ","kana_address":"ｷｮｳﾏﾁ","pref":"栃木県","city":"宇都宮市","address":"京町"},
{"zip_code":"3200037","kana_pref":"ﾄﾁｷﾞｹﾝ","kana_city":"ｳﾂﾉﾐﾔｼ","kana_address":"ｷﾖｽﾐ","pref":"栃木県","city":"宇都宮市","address":"清住"},
{"zip_code":"3200066","kana_pref":"ﾄﾁｷﾞｹﾝ","kana_city":"ｳﾂﾉﾐﾔｼ","kana_address":"ｺﾏﾆｭｳ","pref":"栃木県","city":"宇都宮市","address":"駒生"},
{"zip_code":"3200065","kana_pref":"ﾄﾁｷﾞｹﾝ","kana_city":"ｳﾂﾉﾐﾔｼ","kana_address":"ｺﾏﾆｭｳﾏﾁ","pref":"栃木県","city":"宇都宮市","address":"駒生町"},
{"zip_code":"3200042","kana_pref":"ﾄﾁｷﾞｹﾝ","kana_city":"ｳﾂﾉﾐﾔｼ","kana_address":"ｻﾞｲﾓｸﾁｮｳ","pref":"栃木県","city":"宇都宮市","address":"材木町"},
{"zip_code":"3200848","kana_pref":"ﾄﾁｷﾞｹﾝ","kana_city":"ｳﾂﾉﾐﾔｼ","kana_address":"ｻｲﾜｲﾁｮｳ","pref":"栃木県","city":"宇都宮市","address":"幸町"},
{"zip_code":"3200024","kana_pref":"ﾄﾁｷﾞｹﾝ","kana_city":"ｳﾂﾉﾐﾔｼ","kana_address":"ｻｶｴﾁｮｳ","pref":"栃木県","city":"宇都宮市","address":"栄町"},
{"zip_code":"3200854","kana_pref":"ﾄﾁｷﾞｹﾝ","kana_city":"ｳﾂﾉﾐﾔｼ","kana_address":"ｻｷﾞﾉﾔﾏﾁ","pref":"栃木県","city":"宇都宮市","address":"鷺の谷町"},
{"zip_code":"3200043","kana_pref":"ﾄﾁｷﾞｹﾝ","kana_city":"ｳﾂﾉﾐﾔｼ","kana_address":"ｻｸﾗ","pref":"栃木県","city":"宇都宮市","address":"桜"},
{"zip_code":"3200814","kana_pref":"ﾄﾁｷﾞｹﾝ","kana_city":"ｳﾂﾉﾐﾔｼ","kana_address":"ｻﾝﾊﾞﾝﾁｮｳ","pref":"栃木県","city":"宇都宮市","address":"三番町"},
{"zip_code":"3200853","kana_pref":"ﾄﾁｷﾞｹﾝ","kana_city":"ｳﾂﾉﾐﾔｼ","kana_address":"ｼﾓｶｹﾏﾁ","pref":"栃木県","city":"宇都宮市","address":"下欠町"},
{"zip_code":"3200824","kana_pref":"ﾄﾁｷﾞｹﾝ","kana_city":"ｳﾂﾉﾐﾔｼ","kana_address":"ｼﾓｶﾞﾜﾗ","pref":"栃木県","city":"宇都宮市","address":"下河原"},
{"zip_code":"3200825","kana_pref":"ﾄﾁｷﾞｹﾝ","kana_city":"ｳﾂﾉﾐﾔｼ","kana_address":"ｼﾓｶﾞﾜﾗﾏﾁ","pref":"栃木県","city":"宇都宮市","address":"下河原町"},
{"zip_code":"3200852","kana_pref":"ﾄﾁｷﾞｹﾝ","kana_city":"ｳﾂﾉﾐﾔｼ","kana_address":"ｼﾓﾄｶﾐﾁｮｳ","pref":"栃木県","city":"宇都宮市","address":"下砥上町"},
{"zip_code":"3200055","kana_pref":"ﾄﾁｷﾞｹﾝ","kana_city":"ｳﾂﾉﾐﾔｼ","kana_address":"ｼﾓﾄﾏﾂﾘ","pref":"栃木県","city":"宇都宮市","address":"下戸祭"},
{"zip_code":"3200032","kana_pref":"ﾄﾁｷﾞｹﾝ","kana_city":"ｳﾂﾉﾐﾔｼ","kana_address":"ｼｮｳﾜ","pref":"栃木県","city":"宇都宮市","address":"昭和"},
{"zip_code":"3200831","kana_pref":"ﾄﾁｷﾞｹﾝ","kana_city":"ｳﾂﾉﾐﾔｼ","kana_address":"ｼﾝﾏﾁ","pref":"栃木県","city":"宇都宮市","address":"新町"},
{"zip_code":"3200864","kana_pref":"ﾄﾁｷﾞｹﾝ","kana_city":"ｳﾂﾉﾐﾔｼ","kana_address":"ｽﾐﾖｼﾁｮｳ","pref":"栃木県","city":"宇都宮市","address":"住吉町"},
{"zip_code":"3200022","kana_pref":"ﾄﾁｷﾞｹﾝ","kana_city":"ｳﾂﾉﾐﾔｼ","kana_address":"ｾﾝﾅﾐﾏﾁ","pref":"栃木県","city":"宇都宮市","address":"千波町"},
{"zip_code":"3200867","kana_pref":"ﾄﾁｷﾞｹﾝ","kana_city":"ｳﾂﾉﾐﾔｼ","kana_address":"ﾀﾞｲｶﾝ","pref":"栃木県","city":"宇都宮市","address":"大寛"},
{"zip_code":"3200061","kana_pref":"ﾄﾁｷﾞｹﾝ","kana_city":"ｳﾂﾉﾐﾔｼ","kana_address":"ﾀｶﾗｷﾞﾁｮｳ","pref":"栃木県","city":"宇都宮市","address":"宝木町"},
{"zip_code":"3200075","kana_pref":"ﾄﾁｷﾞｹﾝ","kana_city":"ｳﾂﾉﾐﾔｼ","kana_address":"ﾀｶﾗｷﾞﾎﾝﾁｮｳ","pref":"栃木県","city":"宇都宮市","address":"宝木本町"},
{"zip_code":"3200846","kana_pref":"ﾄﾁｷﾞｹﾝ","kana_city":"ｳﾂﾉﾐﾔｼ","kana_address":"ﾀｷﾉﾊﾗ","pref":"栃木県","city":"宇都宮市","address":"滝の原"},
{"zip_code":"3200847","kana_pref":"ﾄﾁｷﾞｹﾝ","kana_city":"ｳﾂﾉﾐﾔｼ","kana_address":"ﾀｷﾔﾁｮｳ","pref":"栃木県","city":"宇都宮市","address":"滝谷町"},
{"zip_code":"3200806","kana_pref":"ﾄﾁｷﾞｹﾝ","kana_city":"ｳﾂﾉﾐﾔｼ","kana_address":"ﾁｭｳｵｳ","pref":"栃木県","city":"宇都宮市","address":"中央"},
{"zip_code":"3200805","kana_pref":"ﾄﾁｷﾞｹﾝ","kana_city":"ｳﾂﾉﾐﾔｼ","kana_address":"ﾁｭｳｵｳﾎﾝﾁｮｳ","pref":"栃木県","city":"宇都宮市","address":"中央本町"},
{"zip_code":"3200857","kana_pref":"ﾄﾁｷﾞｹﾝ","kana_city":"ｳﾂﾉﾐﾔｼ","kana_address":"ﾂﾙﾀ","pref":"栃木県","city":"宇都宮市","address":"鶴田"},
{"zip_code":"3200851","kana_pref":"ﾄﾁｷﾞｹﾝ","kana_city":"ｳﾂﾉﾐﾔｼ","kana_address":"ﾂﾙﾀﾏﾁ","pref":"栃木県","city":"宇都宮市","address":"鶴田町"},
{"zip_code":"3200816","kana_pref":"ﾄﾁｷﾞｹﾝ","kana_city":"ｳﾂﾉﾐﾔｼ","kana_address":"ﾃﾝｼﾞﾝ","pref":"栃木県","city":"宇都宮市","address":"天神"},
{"zip_code":"3200035","kana_pref":"ﾄﾁｷﾞｹﾝ","kana_city":"ｳﾂﾉﾐﾔｼ","kana_address":"ﾃﾞﾝﾏﾁｮｳ","pref":"栃木県","city":"宇都宮市","address":"伝馬町"},
{"zip_code":"3200856","kana_pref":"ﾄﾁｷﾞｹﾝ","kana_city":"ｳﾂﾉﾐﾔｼ","kana_address":"ﾄｶﾐﾁｮｳ","pref":"栃木県","city":"宇都宮市","address":"砥上町"},
{"zip_code":"3200056","kana_pref":"ﾄﾁｷﾞｹﾝ","kana_city":"ｳﾂﾉﾐﾔｼ","kana_address":"ﾄﾏﾂﾘ","pref":"栃木県","city":"宇都宮市","address":"戸祭"},
{"zip_code":"3200017","kana_pref":"ﾄﾁｷﾞｹﾝ","kana_city":"ｳﾂﾉﾐﾔｼ","kana_address":"ﾄﾏﾂﾘﾀﾞｲ","pref":"栃木県","city":"宇都宮市","address":"戸祭台"},
{"zip_code":"3200053","kana_pref":"ﾄﾁｷﾞｹﾝ","kana_city":"ｳﾂﾉﾐﾔｼ","kana_address":"ﾄﾏﾂﾘﾁｮｳ","pref":"栃木県","city":"宇都宮市","address":"戸祭町"},
{"zip_code":"3200031","kana_pref":"ﾄﾁｷﾞｹﾝ","kana_city":"ｳﾂﾉﾐﾔｼ","kana_address":"ﾄﾏﾂﾘﾓﾄﾁｮｳ","pref":"栃木県","city":"宇都宮市","address":"戸祭元町"},
{"zip_code":"3200003","kana_pref":"ﾄﾁｷﾞｹﾝ","kana_city":"ｳﾂﾉﾐﾔｼ","kana_address":"ﾄﾖｻﾄﾀﾞｲ","pref":"栃木県","city":"宇都宮市","address":"豊郷台"},
{"zip_code":"3200045","kana_pref":"ﾄﾁｷﾞｹﾝ","kana_city":"ｳﾂﾉﾐﾔｼ","kana_address":"ﾅｶｲﾁﾉｻﾜﾏﾁ","pref":"栃木県","city":"宇都宮市","address":"中一の沢町"},
{"zip_code":"3200004","kana_pref":"ﾄﾁｷﾞｹﾝ","kana_city":"ｳﾂﾉﾐﾔｼ","kana_address":"ﾅｶﾞｵｶﾁｮｳ","pref":"栃木県","city":"宇都宮市","address":"長岡町"},
{"zip_code":"3200815","kana_pref":"ﾄﾁｷﾞｹﾝ","kana_city":"ｳﾂﾉﾐﾔｼ","kana_address":"ﾅｶｶﾞﾜﾗﾏﾁ","pref":"栃木県","city":"宇都宮市","address":"中河原町"},
{"zip_code":"3200057","kana_pref":"ﾄﾁｷﾞｹﾝ","kana_city":"ｳﾂﾉﾐﾔｼ","kana_address":"ﾅｶﾄﾏﾂﾘ","pref":"栃木県","city":"宇都宮市","address":"中戸祭"},
{"zip_code":"3200052","kana_pref":"ﾄﾁｷﾞｹﾝ","kana_city":"ｳﾂﾉﾐﾔｼ","kana_address":"ﾅｶﾄﾏﾂﾘﾁｮｳ","pref":"栃木県","city":"宇都宮市","address":"中戸祭町"},
{"zip_code":"3200023","kana_pref":"ﾄﾁｷﾞｹﾝ","kana_city":"ｳﾂﾉﾐﾔｼ","kana_address":"ﾅｶﾏﾁ","pref":"栃木県","city":"宇都宮市","address":"仲町"},
{"zip_code":"3200861","kana_pref":"ﾄﾁｷﾞｹﾝ","kana_city":"ｳﾂﾉﾐﾔｼ","kana_address":"ﾆｼ","pref":"栃木県","city":"宇都宮市","address":"西"},
{"zip_code":"3200046","kana_pref":"ﾄﾁｷﾞｹﾝ","kana_city":"ｳﾂﾉﾐﾔｼ","kana_address":"ﾆｼｲﾁﾉｻﾜﾏﾁ","pref":"栃木県","city":"宇都宮市","address":"西一の沢町"},
{"zip_code":"3200866","kana_pref":"ﾄﾁｷﾞｹﾝ","kana_city":"ｳﾂﾉﾐﾔｼ","kana_address":"ﾆｼﾀﾞｲｶﾝ","pref":"栃木県","city":"宇都宮市","address":"西大寛"},
{"zip_code":"3200064","kana_pref":"ﾄﾁｷﾞｹﾝ","kana_city":"ｳﾂﾉﾐﾔｼ","kana_address":"ﾆｼﾉﾐﾔ","pref":"栃木県","city":"宇都宮市","address":"西の宮"},
{"zip_code":"3200862","kana_pref":"ﾄﾁｷﾞｹﾝ","kana_city":"ｳﾂﾉﾐﾔｼ","kana_address":"ﾆｼﾊﾗ","pref":"栃木県","city":"宇都宮市","address":"西原"},
{"zip_code":"3200826","kana_pref":"ﾄﾁｷﾞｹﾝ","kana_city":"ｳﾂﾉﾐﾔｼ","kana_address":"ﾆｼﾊﾗﾁｮｳ","pref":"栃木県","city":"宇都宮市","address":"西原町"},
{"zip_code":"3200813","kana_pref":"ﾄﾁｷﾞｹﾝ","kana_city":"ｳﾂﾉﾐﾔｼ","kana_address":"ﾆﾊﾞﾝﾁｮｳ","pref":"栃木県","city":"宇都宮市","address":"二番町"},
{"zip_code":"3200071","kana_pref":"ﾄﾁｷﾞｹﾝ","kana_city":"ｳﾂﾉﾐﾔｼ","kana_address":"ﾉｻﾞﾜﾏﾁ","pref":"栃木県","city":"宇都宮市","address":"野沢町"},
{"zip_code":"3200015","kana_pref":"ﾄﾁｷﾞｹﾝ","kana_city":"ｳﾂﾉﾐﾔｼ","kana_address":"ﾊﾁﾏﾝﾀﾞｲ","pref":"栃木県","city":"宇都宮市","address":"八幡台"},
{"zip_code":"3200843","kana_pref":"ﾄﾁｷﾞｹﾝ","kana_city":"ｳﾂﾉﾐﾔｼ","kana_address":"ﾊﾅｿﾞﾉﾁｮｳ","pref":"栃木県","city":"宇都宮市","address":"花園町"},
{"zip_code":"3200827","kana_pref":"ﾄﾁｷﾞｹﾝ","kana_city":"ｳﾂﾉﾐﾔｼ","kana_address":"ﾊﾅﾌﾞｻ","pref":"栃木県","city":"宇都宮市","address":"花房"},
{"zip_code":"3200828","kana_pref":"ﾄﾁｷﾞｹﾝ","kana_city":"ｳﾂﾉﾐﾔｼ","kana_address":"ﾊﾅﾌﾞｻﾎﾝﾁｮｳ","pref":"栃木県","city":"宇都宮市","address":"花房本町"},
{"zip_code":"3200027","kana_pref":"ﾄﾁｷﾞｹﾝ","kana_city":"ｳﾂﾉﾐﾔｼ","kana_address":"ﾊﾅﾜﾀﾞ","pref":"栃木県","city":"宇都宮市","address":"塙田"},
{"zip_code":"3200026","kana_pref":"ﾄﾁｷﾞｹﾝ","kana_city":"ｳﾂﾉﾐﾔｼ","kana_address":"ﾊﾞﾊﾞﾄﾞｵﾘ","pref":"栃木県","city":"宇都宮市","address":"馬場通り"},
{"zip_code":"3200062","kana_pref":"ﾄﾁｷﾞｹﾝ","kana_city":"ｳﾂﾉﾐﾔｼ","kana_address":"ﾋｶﾞｼﾀｶﾗｷﾞﾁｮｳ","pref":"栃木県","city":"宇都宮市","address":"東宝木町"},
{"zip_code":"3200054","kana_pref":"ﾄﾁｷﾞｹﾝ","kana_city":"ｳﾂﾉﾐﾔｼ","kana_address":"ﾋｶﾞｼﾄﾏﾂﾘ","pref":"栃木県","city":"宇都宮市","address":"東戸祭"},
{"zip_code":"3200021","kana_pref":"ﾄﾁｷﾞｹﾝ","kana_city":"ｳﾂﾉﾐﾔｼ","kana_address":"ﾋｶﾞｼﾊﾅﾜﾀﾞ","pref":"栃木県","city":"宇都宮市","address":"東塙田"},
{"zip_code":"3200832","kana_pref":"ﾄﾁｷﾞｹﾝ","kana_city":"ｳﾂﾉﾐﾔｼ","kana_address":"ﾋﾉﾃﾞ","pref":"栃木県","city":"宇都宮市","address":"日の出"},
{"zip_code":"3200011","kana_pref":"ﾄﾁｷﾞｹﾝ","kana_city":"ｳﾂﾉﾐﾔｼ","kana_address":"ﾌｼﾞﾐｶﾞｵｶ","pref":"栃木県","city":"宇都宮市","address":"富士見が丘"},
{"zip_code":"3200804","kana_pref":"ﾄﾁｷﾞｹﾝ","kana_city":"ｳﾂﾉﾐﾔｼ","kana_address":"ﾌﾀｱﾗﾏﾁ","pref":"栃木県","city":"宇都宮市","address":"二荒町"},
{"zip_code":"3200833","kana_pref":"ﾄﾁｷﾞｹﾝ","kana_city":"ｳﾂﾉﾐﾔｼ","kana_address":"ﾌﾄﾞｳﾏｴ","pref":"栃木県","city":"宇都宮市","address":"不動前"},
{"zip_code":"3200038","kana_pref":"ﾄﾁｷﾞｹﾝ","kana_city":"ｳﾂﾉﾐﾔｼ","kana_address":"ﾎｼｶﾞｵｶ","pref":"栃木県","city":"宇都宮市","address":"星が丘"},
{"zip_code":"3200073","kana_pref":"ﾄﾁｷﾞｹﾝ","kana_city":"ｳﾂﾉﾐﾔｼ","kana_address":"ﾎｿﾔ","pref":"栃木県","city":"宇都宮市","address":"細谷"},
{"zip_code":"3200074","kana_pref":"ﾄﾁｷﾞｹﾝ","kana_city":"ｳﾂﾉﾐﾔｼ","kana_address":"ﾎｿﾔﾁｮｳ","pref":"栃木県","city":"宇都宮市","address":"細谷町"},
{"zip_code":"3200033","kana_pref":"ﾄﾁｷﾞｹﾝ","kana_city":"ｳﾂﾉﾐﾔｼ","kana_address":"ﾎﾝﾁｮｳ","pref":"栃木県","city":"宇都宮市","address":"本町"},
{"zip_code":"3200817","kana_pref":"ﾄﾁｷﾞｹﾝ","kana_city":"ｳﾂﾉﾐﾔｼ","kana_address":"ﾎﾝﾏﾙﾁｮｳ","pref":"栃木県","city":"宇都宮市","address":"本丸町"},
{"zip_code":"3200803","kana_pref":"ﾄﾁｷﾞｹﾝ","kana_city":"ｳﾂﾉﾐﾔｼ","kana_address":"ﾏｹﾞｼﾁｮｳ","pref":"栃木県","city":"宇都宮市","address":"曲師町"},
{"zip_code":"3200807","kana_pref":"ﾄﾁｷﾞｹﾝ","kana_city":"ｳﾂﾉﾐﾔｼ","kana_address":"ﾏﾂｶﾞﾐﾈ","pref":"栃木県","city":"宇都宮市","address":"松が峰"},
{"zip_code":"3200041","kana_pref":"ﾄﾁｷﾞｹﾝ","kana_city":"ｳﾂﾉﾐﾔｼ","kana_address":"ﾏﾂﾊﾞﾗ","pref":"栃木県","city":"宇都宮市","address":"松原"},
{"zip_code":"3200863","kana_pref":"ﾄﾁｷﾞｹﾝ","kana_city":"ｳﾂﾉﾐﾔｼ","kana_address":"ﾐｻｵﾁｮｳ","pref":"栃木県","city":"宇都宮市","address":"操町"},
{"zip_code":"3200044","kana_pref":"ﾄﾁｷﾞｹﾝ","kana_city":"ｳﾂﾉﾐﾔｼ","kana_address":"ﾐﾅﾐｲﾁﾉｻﾜﾏﾁ","pref":"栃木県","city":"宇都宮市","address":"南一の沢町"},
{"zip_code":"3200808","kana_pref":"ﾄﾁｷﾞｹﾝ","kana_city":"ｳﾂﾉﾐﾔｼ","kana_address":"ﾐﾔｿﾞﾉﾁｮｳ","pref":"栃木県","city":"宇都宮市","address":"宮園町"},
{"zip_code":"3200835","kana_pref":"ﾄﾁｷﾞｹﾝ","kana_city":"ｳﾂﾉﾐﾔｼ","kana_address":"ﾐﾔﾊﾗ","pref":"栃木県","city":"宇都宮市","address":"宮原"},
{"zip_code":"3200025","kana_pref":"ﾄﾁｷﾞｹﾝ","kana_city":"ｳﾂﾉﾐﾔｼ","kana_address":"ﾐﾔﾏﾁ","pref":"栃木県","city":"宇都宮市","address":"宮町"},
{"zip_code":"3200865","kana_pref":"ﾄﾁｷﾞｹﾝ","kana_city":"ｳﾂﾉﾐﾔｼ","kana_address":"ﾑﾂﾐﾁｮｳ","pref":"栃木県","city":"宇都宮市","address":"睦町"},
{"zip_code":"3200836","kana_pref":"ﾄﾁｷﾞｹﾝ","kana_city":"ｳﾂﾉﾐﾔｼ","kana_address":"ﾔﾏﾄ","pref":"栃木県","city":"宇都宮市","address":"大和"},
{"zip_code":"3200012","kana_pref":"ﾄﾁｷﾞｹﾝ","kana_city":"ｳﾂﾉﾐﾔｼ","kana_address":"ﾔﾏﾓﾄ","pref":"栃木県","city":"宇都宮市","address":"山本"},
{"zip_code":"3200016","kana_pref":"ﾄﾁｷﾞｹﾝ","kana_city":"ｳﾂﾉﾐﾔｼ","kana_address":"ﾔﾏﾓﾄﾏﾁ","pref":"栃木県","city":"宇都宮市","address":"山本町"},
{"zip_code":"3200837","kana_pref":"ﾄﾁｷﾞｹﾝ","kana_city":"ｳﾂﾉﾐﾔｼ","kana_address":"ﾔﾖｲ","pref":"栃木県","city":"宇都宮市","address":"弥生"},
{"zip_code":"3200063","kana_pref":"ﾄﾁｷﾞｹﾝ","kana_city":"ｳﾂﾉﾐﾔｼ","kana_address":"ﾖｳｻｲﾁｮｳ","pref":"栃木県","city":"宇都宮市","address":"陽西町"},
{"zip_code":"3200834","kana_pref":"ﾄﾁｷﾞｹﾝ","kana_city":"ｳﾂﾉﾐﾔｼ","kana_address":"ﾖｳﾅﾝ","pref":"栃木県","city":"宇都宮市","address":"陽南"},
{"zip_code":"3200005","kana_pref":"ﾄﾁｷﾞｹﾝ","kana_city":"ｳﾂﾉﾐﾔｼ","kana_address":"ﾖｺﾔﾏ","pref":"栃木県","city":"宇都宮市","address":"横山"},
{"zip_code":"3200001","kana_pref":"ﾄﾁｷﾞｹﾝ","kana_city":"ｳﾂﾉﾐﾔｼ","kana_address":"ﾖｺﾔﾏﾁｮｳ","pref":"栃木県","city":"宇都宮市","address":"横山町"},
{"zip_code":"3200838","kana_pref":"ﾄﾁｷﾞｹﾝ","kana_city":"ｳﾂﾉﾐﾔｼ","kana_address":"ﾖｼﾉ","pref":"栃木県","city":"宇都宮市","address":"吉野"},
{"zip_code":"3200841","kana_pref":"ﾄﾁｷﾞｹﾝ","kana_city":"ｳﾂﾉﾐﾔｼ","kana_address":"ﾛｸﾄﾞｳﾏﾁ","pref":"栃木県","city":"宇都宮市","address":"六道町"},
{"zip_code":"3200072","kana_pref":"ﾄﾁｷﾞｹﾝ","kana_city":"ｳﾂﾉﾐﾔｼ","kana_address":"ﾜｶｸｻ","pref":"栃木県","city":"宇都宮市","address":"若草"}]}