{"zip_code":[
{"zip_code":"3220602","kana_pref":"ﾄﾁｷﾞｹﾝ","kana_city":"ﾄﾁｷﾞｼ","kana_address":"ﾆｼｶﾀﾏﾁｶﾅｲ","pref":"栃木県","city":"栃木市","address":"西方町金井"},
{"zip_code":"3220601","kana_pref":"ﾄﾁｷﾞｹﾝ","kana_city":"ﾄﾁｷﾞｼ","kana_address":"ﾆｼｶﾀﾏﾁｶﾅｻｷ","pref":"栃木県","city":"栃木市","address":"西方町金崎"},
{"zip_code":"3220603","kana_pref":"ﾄﾁｷﾞｹﾝ","kana_city":"ﾄﾁｷﾞｼ","kana_address":"ﾆｼｶﾀﾏﾁﾎﾝｺﾞｳ","pref":"栃木県","city":"栃木市","address":"西方町本郷"},
{"zip_code":"3220606","kana_pref":"ﾄﾁｷﾞｹﾝ","kana_city":"ﾄﾁｷﾞｼ","kana_address":"ﾆｼｶﾀﾏﾁﾎﾝｼﾞｮｳ","pref":"栃木県","city":"栃木市","address":"西方町本城"},
{"zip_code":"3220605","kana_pref":"ﾄﾁｷﾞｹﾝ","kana_city":"ﾄﾁｷﾞｼ","kana_address":"ﾆｼｶﾀﾏﾁﾏﾅｺﾞ","pref":"栃木県","city":"栃木市","address":"西方町真名子"},
{"zip_code":"3220604","kana_pref":"ﾄﾁｷﾞｹﾝ","kana_city":"ﾄﾁｷﾞｼ","kana_address":"ﾆｼｶﾀﾏﾁﾓﾄ","pref":"栃木県","city":"栃木市","address":"西方町元"},
{"zip_code":"3220000","kana_pref":"ﾄﾁｷﾞｹﾝ","kana_city":"ｶﾇﾏｼ","kana_address":"","pref":"栃木県","city":"鹿沼市","address":""},
{"zip_code":"3220058","kana_pref":"ﾄﾁｷﾞｹﾝ","kana_city":"ｶﾇﾏｼ","kana_address":"ｱｻｳﾁｮｳ","pref":"栃木県","city":"鹿沼市","address":"麻苧町"},
{"zip_code":"3220345","kana_pref":"ﾄﾁｷﾞｹﾝ","kana_city":"ｶﾇﾏｼ","kana_address":"ｱｻﾋｶﾞｵｶ","pref":"栃木県","city":"鹿沼市","address":"旭が丘"},
{"zip_code":"3220035","kana_pref":"ﾄﾁｷﾞｹﾝ","kana_city":"ｶﾇﾏｼ","kana_address":"ｱｻﾋﾁｮｳ","pref":"栃木県","city":"鹿沼市","address":"朝日町"},
{"zip_code":"3220022","kana_pref":"ﾄﾁｷﾞｹﾝ","kana_city":"ｶﾇﾏｼ","kana_address":"ｱｽﾞﾏﾁｮｳ","pref":"栃木県","city":"鹿沼市","address":"東町"},
{"zip_code":"3220342","kana_pref":"ﾄﾁｷﾞｹﾝ","kana_city":"ｶﾇﾏｼ","kana_address":"ｱﾌﾞﾗﾃﾞﾝﾏﾁ","pref":"栃木県","city":"鹿沼市","address":"油田町"},
{"zip_code":"3220018","kana_pref":"ﾄﾁｷﾞｹﾝ","kana_city":"ｶﾇﾏｼ","kana_address":"ｲｹﾉﾓﾘ","pref":"栃木県","city":"鹿沼市","address":"池ノ森"},
{"zip_code":"3220055","kana_pref":"ﾄﾁｷﾞｹﾝ","kana_city":"ｶﾇﾏｼ","kana_address":"ｲｼﾊﾞｼﾁｮｳ","pref":"栃木県","city":"鹿沼市","address":"石橋町"},
{"zip_code":"3220062","kana_pref":"ﾄﾁｷﾞｹﾝ","kana_city":"ｶﾇﾏｼ","kana_address":"ｲｽﾞﾐﾁｮｳ","pref":"栃木県","city":"鹿沼市","address":"泉町"},
{"zip_code":"3220536","kana_pref":"ﾄﾁｷﾞｹﾝ","kana_city":"ｶﾇﾏｼ","kana_address":"ｲｿﾏﾁ","pref":"栃木県","city":"鹿沼市","address":"磯町"},
{"zip_code":"3220068","kana_pref":"ﾄﾁｷﾞｹﾝ","kana_city":"ｶﾇﾏｼ","kana_address":"ｲﾏﾐﾔﾁｮｳ","pref":"栃木県","city":"鹿沼市","address":"今宮町"},
{"zip_code":"3220307","kana_pref":"ﾄﾁｷﾞｹﾝ","kana_city":"ｶﾇﾏｼ","kana_address":"ｲﾘｱﾜﾉ","pref":"栃木県","city":"鹿沼市","address":"入粟野"},
{"zip_code":"3220021","kana_pref":"ﾄﾁｷﾞｹﾝ","kana_city":"ｶﾇﾏｼ","kana_address":"ｳﾜﾉﾏﾁ","pref":"栃木県","city":"鹿沼市","address":"上野町"},
{"zip_code":"3220525","kana_pref":"ﾄﾁｷﾞｹﾝ","kana_city":"ｶﾇﾏｼ","kana_address":"ｵｵﾜﾀﾞﾏﾁ","pref":"栃木県","city":"鹿沼市","address":"大和田町"},
{"zip_code":"3220005","kana_pref":"ﾄﾁｷﾞｹﾝ","kana_city":"ｶﾇﾏｼ","kana_address":"ｵﾅﾘﾊﾞｼﾁｮｳ","pref":"栃木県","city":"鹿沼市","address":"御成橋町"},
{"zip_code":"3220027","kana_pref":"ﾄﾁｷﾞｹﾝ","kana_city":"ｶﾇﾏｼ","kana_address":"ｶｲｼﾞﾏﾏﾁ","pref":"栃木県","city":"鹿沼市","address":"貝島町"},
{"zip_code":"3220304","kana_pref":"ﾄﾁｷﾞｹﾝ","kana_city":"ｶﾇﾏｼ","kana_address":"ｶｼﾜｷﾞ","pref":"栃木県","city":"鹿沼市","address":"柏木"},
{"zip_code":"3220252","kana_pref":"ﾄﾁｷﾞｹﾝ","kana_city":"ｶﾇﾏｼ","kana_address":"ｶｿﾞﾉ","pref":"栃木県","city":"鹿沼市","address":"加園"},
{"zip_code":"3220015","kana_pref":"ﾄﾁｷﾞｹﾝ","kana_city":"ｶﾇﾏｼ","kana_address":"ｶﾐｲｼｶﾜ","pref":"栃木県","city":"鹿沼市","address":"上石川"},
{"zip_code":"3220102","kana_pref":"ﾄﾁｷﾞｹﾝ","kana_city":"ｶﾇﾏｼ","kana_address":"ｶﾐｵｵｸﾎﾞ","pref":"栃木県","city":"鹿沼市","address":"上大久保"},
{"zip_code":"3220423","kana_pref":"ﾄﾁｷﾞｹﾝ","kana_city":"ｶﾇﾏｼ","kana_address":"ｶﾐｶｽｵ","pref":"栃木県","city":"鹿沼市","address":"上粕尾"},
{"zip_code":"3220254","kana_pref":"ﾄﾁｷﾞｹﾝ","kana_city":"ｶﾇﾏｼ","kana_address":"ｶﾐｸｶﾞ","pref":"栃木県","city":"鹿沼市","address":"上久我"},
{"zip_code":"3220065","kana_pref":"ﾄﾁｷﾞｹﾝ","kana_city":"ｶﾇﾏｼ","kana_address":"ｶﾐｻﾞｲﾓｸﾁｮｳ","pref":"栃木県","city":"鹿沼市","address":"上材木町"},
{"zip_code":"3220066","kana_pref":"ﾄﾁｷﾞｹﾝ","kana_city":"ｶﾇﾏｼ","kana_address":"ｶﾐﾀﾏﾁ","pref":"栃木県","city":"鹿沼市","address":"上田町"},
{"zip_code":"3220045","kana_pref":"ﾄﾁｷﾞｹﾝ","kana_city":"ｶﾇﾏｼ","kana_address":"ｶﾐﾄﾞﾉﾏﾁ","pref":"栃木県","city":"鹿沼市","address":"上殿町"},
{"zip_code":"3220522","kana_pref":"ﾄﾁｷﾞｹﾝ","kana_city":"ｶﾇﾏｼ","kana_address":"ｶﾐﾅﾗﾌﾞﾏﾁ","pref":"栃木県","city":"鹿沼市","address":"上奈良部町"},
{"zip_code":"3220346","kana_pref":"ﾄﾁｷﾞｹﾝ","kana_city":"ｶﾇﾏｼ","kana_address":"ｶﾐﾅﾝﾏﾏﾁ","pref":"栃木県","city":"鹿沼市","address":"上南摩町"},
{"zip_code":"3220076","kana_pref":"ﾄﾁｷﾞｹﾝ","kana_city":"ｶﾇﾏｼ","kana_address":"ｶﾐﾋﾅﾀ","pref":"栃木県","city":"鹿沼市","address":"上日向"},
{"zip_code":"3220534","kana_pref":"ﾄﾁｷﾞｹﾝ","kana_city":"ｶﾇﾏｼ","kana_address":"ｶﾒﾜﾀﾞﾏﾁ","pref":"栃木県","city":"鹿沼市","address":"亀和田町"},
{"zip_code":"3220533","kana_pref":"ﾄﾁｷﾞｹﾝ","kana_city":"ｶﾇﾏｼ","kana_address":"ｷﾀｱｶﾂﾞｶﾏﾁ","pref":"栃木県","city":"鹿沼市","address":"北赤塚町"},
{"zip_code":"3220301","kana_pref":"ﾄﾁｷﾞｹﾝ","kana_city":"ｶﾇﾏｼ","kana_address":"ｷﾀﾊﾝﾀﾞ","pref":"栃木県","city":"鹿沼市","address":"北半田"},
{"zip_code":"3220052","kana_pref":"ﾄﾁｷﾞｹﾝ","kana_city":"ｶﾇﾏｼ","kana_address":"ｷﾞﾝｻﾞ","pref":"栃木県","city":"鹿沼市","address":"銀座"},
{"zip_code":"3220101","kana_pref":"ﾄﾁｷﾞｹﾝ","kana_city":"ｶﾇﾏｼ","kana_address":"ｸｻｷﾞｭｳ","pref":"栃木県","city":"鹿沼市","address":"草久"},
{"zip_code":"3220305","kana_pref":"ﾄﾁｷﾞｹﾝ","kana_city":"ｶﾇﾏｼ","kana_address":"ｸﾁｱﾜﾉ","pref":"栃木県","city":"鹿沼市","address":"口粟野"},
{"zip_code":"3220303","kana_pref":"ﾄﾁｷﾞｹﾝ","kana_city":"ｶﾇﾏｼ","kana_address":"ｸﾉ","pref":"栃木県","city":"鹿沼市","address":"久野"},
{"zip_code":"3220051","kana_pref":"ﾄﾁｷﾞｹﾝ","kana_city":"ｶﾇﾏｼ","kana_address":"ｸﾎﾞﾁｮｳ","pref":"栃木県","city":"鹿沼市","address":"久保町"},
{"zip_code":"3220024","kana_pref":"ﾄﾁｷﾞｹﾝ","kana_city":"ｶﾇﾏｼ","kana_address":"ｺｳﾎﾞｳﾀﾞｲ","pref":"栃木県","city":"鹿沼市","address":"晃望台"},
{"zip_code":"3220009","kana_pref":"ﾄﾁｷﾞｹﾝ","kana_city":"ｶﾇﾏｼ","kana_address":"ｺｳﾔ","pref":"栃木県","city":"鹿沼市","address":"高谷"},
{"zip_code":"3220008","kana_pref":"ﾄﾁｷﾞｹﾝ","kana_city":"ｶﾇﾏｼ","kana_address":"ｺｶﾞｼﾏﾁ","pref":"栃木県","city":"鹿沼市","address":"古賀志町"},
{"zip_code":"3220023","kana_pref":"ﾄﾁｷﾞｹﾝ","kana_city":"ｶﾇﾏｼ","kana_address":"ｻｲﾜｲﾁｮｳ","pref":"栃木県","city":"鹿沼市","address":"幸町"},
{"zip_code":"3220028","kana_pref":"ﾄﾁｷﾞｹﾝ","kana_city":"ｶﾇﾏｼ","kana_address":"ｻｶｴﾁｮｳ","pref":"栃木県","city":"鹿沼市","address":"栄町"},
{"zip_code":"3220069","kana_pref":"ﾄﾁｷﾞｹﾝ","kana_city":"ｶﾇﾏｼ","kana_address":"ｻｶﾀﾔﾏ","pref":"栃木県","city":"鹿沼市","address":"坂田山"},
{"zip_code":"3220047","kana_pref":"ﾄﾁｷﾞｹﾝ","kana_city":"ｶﾇﾏｼ","kana_address":"ｻｹﾉﾔ","pref":"栃木県","city":"鹿沼市","address":"酒野谷"},
{"zip_code":"3220078","kana_pref":"ﾄﾁｷﾞｹﾝ","kana_city":"ｶﾇﾏｼ","kana_address":"ｻｻﾊﾗﾀﾞ","pref":"栃木県","city":"鹿沼市","address":"笹原田"},
{"zip_code":"3220014","kana_pref":"ﾄﾁｷﾞｹﾝ","kana_city":"ｶﾇﾏｼ","kana_address":"ｻﾂｷﾁｮｳ","pref":"栃木県","city":"鹿沼市","address":"さつき町"},
{"zip_code":"3220343","kana_pref":"ﾄﾁｷﾞｹﾝ","kana_city":"ｶﾇﾏｼ","kana_address":"ｻﾒﾏﾁ","pref":"栃木県","city":"鹿沼市","address":"佐目町"},
{"zip_code":"3220041","kana_pref":"ﾄﾁｷﾞｹﾝ","kana_city":"ｶﾇﾏｼ","kana_address":"ｻﾝｺｳﾁｮｳ","pref":"栃木県","city":"鹿沼市","address":"三幸町"},
{"zip_code":"3220527","kana_pref":"ﾄﾁｷﾞｹﾝ","kana_city":"ｶﾇﾏｼ","kana_address":"ｼｵﾔﾏﾏﾁ","pref":"栃木県","city":"鹿沼市","address":"塩山町"},
{"zip_code":"3220017","kana_pref":"ﾄﾁｷﾞｹﾝ","kana_city":"ｶﾇﾏｼ","kana_address":"ｼﾓｲｼｶﾜ","pref":"栃木県","city":"鹿沼市","address":"下石川"},
{"zip_code":"3220103","kana_pref":"ﾄﾁｷﾞｹﾝ","kana_city":"ｶﾇﾏｼ","kana_address":"ｼﾓｵｵｸﾎﾞ","pref":"栃木県","city":"鹿沼市","address":"下大久保"},
{"zip_code":"3220421","kana_pref":"ﾄﾁｷﾞｹﾝ","kana_city":"ｶﾇﾏｼ","kana_address":"ｼﾓｶｽｵ","pref":"栃木県","city":"鹿沼市","address":"下粕尾"},
{"zip_code":"3220253","kana_pref":"ﾄﾁｷﾞｹﾝ","kana_city":"ｶﾇﾏｼ","kana_address":"ｼﾓｸｶﾞ","pref":"栃木県","city":"鹿沼市","address":"下久我"},
{"zip_code":"3220056","kana_pref":"ﾄﾁｷﾞｹﾝ","kana_city":"ｶﾇﾏｼ","kana_address":"ｼﾓｻﾞｲﾓｸﾁｮｳ","pref":"栃木県","city":"鹿沼市","address":"下材木町"},
{"zip_code":"3220256","kana_pref":"ﾄﾁｷﾞｹﾝ","kana_city":"ｶﾇﾏｼ","kana_address":"ｼﾓｻﾞﾜ","pref":"栃木県","city":"鹿沼市","address":"下沢"},
{"zip_code":"3220004","kana_pref":"ﾄﾁｷﾞｹﾝ","kana_city":"ｶﾇﾏｼ","kana_address":"ｼﾓﾀｹｼﾏﾁ","pref":"栃木県","city":"鹿沼市","address":"下武子町"},
{"zip_code":"3220036","kana_pref":"ﾄﾁｷﾞｹﾝ","kana_city":"ｶﾇﾏｼ","kana_address":"ｼﾓﾀﾏﾁ","pref":"栃木県","city":"鹿沼市","address":"下田町"},
{"zip_code":"3220079","kana_pref":"ﾄﾁｷﾞｹﾝ","kana_city":"ｶﾇﾏｼ","kana_address":"ｼﾓﾄｵﾍﾞ","pref":"栃木県","city":"鹿沼市","address":"下遠部"},
{"zip_code":"3220523","kana_pref":"ﾄﾁｷﾞｹﾝ","kana_city":"ｶﾇﾏｼ","kana_address":"ｼﾓﾅﾗﾌﾞﾏﾁ","pref":"栃木県","city":"鹿沼市","address":"下奈良部町"},
{"zip_code":"3220341","kana_pref":"ﾄﾁｷﾞｹﾝ","kana_city":"ｶﾇﾏｼ","kana_address":"ｼﾓﾅﾝﾏﾏﾁ","pref":"栃木県","city":"鹿沼市","address":"下南摩町"},
{"zip_code":"3220075","kana_pref":"ﾄﾁｷﾞｹﾝ","kana_city":"ｶﾇﾏｼ","kana_address":"ｼﾓﾋﾅﾀ","pref":"栃木県","city":"鹿沼市","address":"下日向"},
{"zip_code":"3220054","kana_pref":"ﾄﾁｷﾞｹﾝ","kana_city":"ｶﾇﾏｼ","kana_address":"ｼﾓﾖｺﾏﾁ","pref":"栃木県","city":"鹿沼市","address":"下横町"},
{"zip_code":"3220011","kana_pref":"ﾄﾁｷﾞｹﾝ","kana_city":"ｶﾇﾏｼ","kana_address":"ｼﾗｸﾜﾀﾞ","pref":"栃木県","city":"鹿沼市","address":"白桑田"},
{"zip_code":"3220038","kana_pref":"ﾄﾁｷﾞｹﾝ","kana_city":"ｶﾇﾏｼ","kana_address":"ｽｴﾋﾛﾁｮｳ","pref":"栃木県","city":"鹿沼市","address":"末広町"},
{"zip_code":"3220061","kana_pref":"ﾄﾁｷﾞｹﾝ","kana_city":"ｶﾇﾏｼ","kana_address":"ｾﾝｼﾞｭﾏﾁ","pref":"栃木県","city":"鹿沼市","address":"千手町"},
{"zip_code":"3220002","kana_pref":"ﾄﾁｷﾞｹﾝ","kana_city":"ｶﾇﾏｼ","kana_address":"ｾﾝﾄﾞ","pref":"栃木県","city":"鹿沼市","address":"千渡"},
{"zip_code":"3220007","kana_pref":"ﾄﾁｷﾞｹﾝ","kana_city":"ｶﾇﾏｼ","kana_address":"ﾀｹｼ","pref":"栃木県","city":"鹿沼市","address":"武子"},
{"zip_code":"3220072","kana_pref":"ﾄﾁｷﾞｹﾝ","kana_city":"ｶﾇﾏｼ","kana_address":"ﾀﾏﾀﾞﾏﾁ","pref":"栃木県","city":"鹿沼市","address":"玉田町"},
{"zip_code":"3220057","kana_pref":"ﾄﾁｷﾞｹﾝ","kana_city":"ｶﾇﾏｼ","kana_address":"ﾃﾗﾏﾁ","pref":"栃木県","city":"鹿沼市","address":"寺町"},
{"zip_code":"3220067","kana_pref":"ﾄﾁｷﾞｹﾝ","kana_city":"ｶﾇﾏｼ","kana_address":"ﾃﾝｼﾞﾝﾁｮｳ","pref":"栃木県","city":"鹿沼市","address":"天神町"},
{"zip_code":"3220001","kana_pref":"ﾄﾁｷﾞｹﾝ","kana_city":"ｶﾇﾏｼ","kana_address":"ﾄﾁｸﾎﾞ","pref":"栃木県","city":"鹿沼市","address":"栃窪"},
{"zip_code":"3220063","kana_pref":"ﾄﾁｷﾞｹﾝ","kana_city":"ｶﾇﾏｼ","kana_address":"ﾄﾊﾘﾁｮｳ","pref":"栃木県","city":"鹿沼市","address":"戸張町"},
{"zip_code":"3220006","kana_pref":"ﾄﾁｷﾞｹﾝ","kana_city":"ｶﾇﾏｼ","kana_address":"ﾄﾐｵｶ","pref":"栃木県","city":"鹿沼市","address":"富岡"},
{"zip_code":"3220044","kana_pref":"ﾄﾁｷﾞｹﾝ","kana_city":"ｶﾇﾏｼ","kana_address":"ﾄﾘｲﾄﾞﾁｮｳ","pref":"栃木県","city":"鹿沼市","address":"鳥居跡町"},
{"zip_code":"3220306","kana_pref":"ﾄﾁｷﾞｹﾝ","kana_city":"ｶﾇﾏｼ","kana_address":"ﾅｶｱﾜﾉ","pref":"栃木県","city":"鹿沼市","address":"中粟野"},
{"zip_code":"3220422","kana_pref":"ﾄﾁｷﾞｹﾝ","kana_city":"ｶﾇﾏｼ","kana_address":"ﾅｶｶｽｵ","pref":"栃木県","city":"鹿沼市","address":"中粕尾"},
{"zip_code":"3220037","kana_pref":"ﾄﾁｷﾞｹﾝ","kana_city":"ｶﾇﾏｼ","kana_address":"ﾅｶﾀﾏﾁ","pref":"栃木県","city":"鹿沼市","address":"中田町"},
{"zip_code":"3220053","kana_pref":"ﾄﾁｷﾞｹﾝ","kana_city":"ｶﾇﾏｼ","kana_address":"ﾅｶﾏﾁ","pref":"栃木県","city":"鹿沼市","address":"仲町"},
{"zip_code":"3220528","kana_pref":"ﾄﾁｷﾞｹﾝ","kana_city":"ｶﾇﾏｼ","kana_address":"ﾅｻﾊﾗﾏﾁ","pref":"栃木県","city":"鹿沼市","address":"奈佐原町"},
{"zip_code":"3220003","kana_pref":"ﾄﾁｷﾞｹﾝ","kana_city":"ｶﾇﾏｼ","kana_address":"ﾆｶﾞﾐﾄﾞｳﾏﾁ","pref":"栃木県","city":"鹿沼市","address":"仁神堂町"},
{"zip_code":"3220073","kana_pref":"ﾄﾁｷﾞｹﾝ","kana_city":"ｶﾇﾏｼ","kana_address":"ﾆｼｶﾇﾏﾏﾁ","pref":"栃木県","city":"鹿沼市","address":"西鹿沼町"},
{"zip_code":"3220344","kana_pref":"ﾄﾁｷﾞｹﾝ","kana_city":"ｶﾇﾏｼ","kana_address":"ﾆｼｻﾞﾜﾏﾁ","pref":"栃木県","city":"鹿沼市","address":"西沢町"},
{"zip_code":"3220029","kana_pref":"ﾄﾁｷﾞｹﾝ","kana_city":"ｶﾇﾏｼ","kana_address":"ﾆｼﾓﾛ","pref":"栃木県","city":"鹿沼市","address":"西茂呂"},
{"zip_code":"3220521","kana_pref":"ﾄﾁｷﾞｹﾝ","kana_city":"ｶﾇﾏｼ","kana_address":"ﾆｯｺｳﾅﾗﾌﾞﾏﾁ","pref":"栃木県","city":"鹿沼市","address":"日光奈良部町"},
{"zip_code":"3220526","kana_pref":"ﾄﾁｷﾞｹﾝ","kana_city":"ｶﾇﾏｼ","kana_address":"ﾆﾚｷﾞﾏﾁ","pref":"栃木県","city":"鹿沼市","address":"楡木町"},
{"zip_code":"3220535","kana_pref":"ﾄﾁｷﾞｹﾝ","kana_city":"ｶﾇﾏｼ","kana_address":"ﾉｻﾞﾜﾏﾁ","pref":"栃木県","city":"鹿沼市","address":"野沢町"},
{"zip_code":"3220251","kana_pref":"ﾄﾁｷﾞｹﾝ","kana_city":"ｶﾇﾏｼ","kana_address":"ﾉｼﾞﾘ","pref":"栃木県","city":"鹿沼市","address":"野尻"},
{"zip_code":"3220049","kana_pref":"ﾄﾁｷﾞｹﾝ","kana_city":"ｶﾇﾏｼ","kana_address":"ﾊﾅｵｶﾏﾁ","pref":"栃木県","city":"鹿沼市","address":"花岡町"},
{"zip_code":"3220039","kana_pref":"ﾄﾁｷﾞｹﾝ","kana_city":"ｶﾇﾏｼ","kana_address":"ﾋｶﾞｼｽｴﾋﾛﾁｮｳ","pref":"栃木県","city":"鹿沼市","address":"東末広町"},
{"zip_code":"3220255","kana_pref":"ﾄﾁｷﾞｹﾝ","kana_city":"ｶﾇﾏｼ","kana_address":"ﾋｷﾀﾞ","pref":"栃木県","city":"鹿沼市","address":"引田"},
{"zip_code":"3220074","kana_pref":"ﾄﾁｷﾞｹﾝ","kana_city":"ｶﾇﾏｼ","kana_address":"ﾋﾖｼﾁｮｳ","pref":"栃木県","city":"鹿沼市","address":"日吉町"},
{"zip_code":"3220077","kana_pref":"ﾄﾁｷﾞｹﾝ","kana_city":"ｶﾇﾏｼ","kana_address":"ﾌｶｲﾜ","pref":"栃木県","city":"鹿沼市","address":"深岩"},
{"zip_code":"3220013","kana_pref":"ﾄﾁｷﾞｹﾝ","kana_city":"ｶﾇﾏｼ","kana_address":"ﾌｶﾂﾞ","pref":"栃木県","city":"鹿沼市","address":"深津"},
{"zip_code":"3220302","kana_pref":"ﾄﾁｷﾞｹﾝ","kana_city":"ｶﾇﾏｼ","kana_address":"ﾌｶﾎﾄﾞ","pref":"栃木県","city":"鹿沼市","address":"深程"},
{"zip_code":"3220532","kana_pref":"ﾄﾁｷﾞｹﾝ","kana_city":"ｶﾇﾏｼ","kana_address":"ﾌｼﾞｴﾏﾁ","pref":"栃木県","city":"鹿沼市","address":"藤江町"},
{"zip_code":"3220034","kana_pref":"ﾄﾁｷﾞｹﾝ","kana_city":"ｶﾇﾏｼ","kana_address":"ﾌﾁｭｳﾏﾁ","pref":"栃木県","city":"鹿沼市","address":"府中町"},
{"zip_code":"3220033","kana_pref":"ﾄﾁｷﾞｹﾝ","kana_city":"ｶﾇﾏｼ","kana_address":"ﾌﾄﾞｺﾛﾁｮｳ","pref":"栃木県","city":"鹿沼市","address":"府所町"},
{"zip_code":"3220032","kana_pref":"ﾄﾁｷﾞｹﾝ","kana_city":"ｶﾇﾏｼ","kana_address":"ﾌﾄﾞｺﾛﾎﾝﾁｮｳ","pref":"栃木県","city":"鹿沼市","address":"府所本町"},
{"zip_code":"3220064","kana_pref":"ﾄﾁｷﾞｹﾝ","kana_city":"ｶﾇﾏｼ","kana_address":"ﾌﾞﾝｶﾊﾞｼﾁｮｳ","pref":"栃木県","city":"鹿沼市","address":"文化橋町"},
{"zip_code":"3220042","kana_pref":"ﾄﾁｷﾞｹﾝ","kana_city":"ｶﾇﾏｼ","kana_address":"ﾎｳﾗｲﾁｮｳ","pref":"栃木県","city":"鹿沼市","address":"蓬莱町"},
{"zip_code":"3220012","kana_pref":"ﾄﾁｷﾞｹﾝ","kana_city":"ｶﾇﾏｼ","kana_address":"ﾏﾂﾊﾞﾗ","pref":"栃木県","city":"鹿沼市","address":"松原"},
{"zip_code":"3220025","kana_pref":"ﾄﾁｷﾞｹﾝ","kana_city":"ｶﾇﾏｼ","kana_address":"ﾐﾄﾞﾘﾁｮｳ","pref":"栃木県","city":"鹿沼市","address":"緑町"},
{"zip_code":"3220531","kana_pref":"ﾄﾁｷﾞｹﾝ","kana_city":"ｶﾇﾏｼ","kana_address":"ﾐﾅﾐｳｴﾉﾏﾁ","pref":"栃木県","city":"鹿沼市","address":"南上野町"},
{"zip_code":"3220524","kana_pref":"ﾄﾁｷﾞｹﾝ","kana_city":"ｶﾇﾏｼ","kana_address":"ﾐﾅﾐﾁｮｳ","pref":"栃木県","city":"鹿沼市","address":"みなみ町"},
{"zip_code":"3220071","kana_pref":"ﾄﾁｷﾞｹﾝ","kana_city":"ｶﾇﾏｼ","kana_address":"ﾐﾉ","pref":"栃木県","city":"鹿沼市","address":"見野"},
{"zip_code":"3220031","kana_pref":"ﾄﾁｷﾞｹﾝ","kana_city":"ｶﾇﾏｼ","kana_address":"ﾑﾂﾐﾁｮｳ","pref":"栃木県","city":"鹿沼市","address":"睦町"},
{"zip_code":"3220048","kana_pref":"ﾄﾁｷﾞｹﾝ","kana_city":"ｶﾇﾏｼ","kana_address":"ﾑﾗｲﾏﾁ","pref":"栃木県","city":"鹿沼市","address":"村井町"},
{"zip_code":"3220046","kana_pref":"ﾄﾁｷﾞｹﾝ","kana_city":"ｶﾇﾏｼ","kana_address":"ﾓﾐﾔﾏﾏﾁ","pref":"栃木県","city":"鹿沼市","address":"樅山町"},
{"zip_code":"3220026","kana_pref":"ﾄﾁｷﾞｹﾝ","kana_city":"ｶﾇﾏｼ","kana_address":"ﾓﾛ","pref":"栃木県","city":"鹿沼市","address":"茂呂"},
{"zip_code":"3220043","kana_pref":"ﾄﾁｷﾞｹﾝ","kana_city":"ｶﾇﾏｼ","kana_address":"ﾖﾛｽﾞﾁｮｳ","pref":"栃木県","city":"鹿沼市","address":"万町"},
{"zip_code":"3220016","kana_pref":"ﾄﾁｷﾞｹﾝ","kana_city":"ｶﾇﾏｼ","kana_address":"ﾘｭｳﾂｳｾﾝﾀｰ","pref":"栃木県","city":"鹿沼市","address":"流通センター"}]}