{"zip_code":[
{"zip_code":"3240000","kana_pref":"ﾄﾁｷﾞｹﾝ","kana_city":"ｵｵﾀﾜﾗｼ","kana_address":"","pref":"栃木県","city":"大田原市","address":""},
{"zip_code":"3240015","kana_pref":"ﾄﾁｷﾞｹﾝ","kana_city":"ｵｵﾀﾜﾗｼ","kana_address":"ｱｶｾﾞ","pref":"栃木県","city":"大田原市","address":"赤瀬"},
{"zip_code":"3240043","kana_pref":"ﾄﾁｷﾞｹﾝ","kana_city":"ｵｵﾀﾜﾗｼ","kana_address":"ｱｻｶ","pref":"栃木県","city":"大田原市","address":"浅香"},
{"zip_code":"3240061","kana_pref":"ﾄﾁｷﾞｹﾝ","kana_city":"ｵｵﾀﾜﾗｼ","kana_address":"ｱﾗｲ","pref":"栃木県","city":"大田原市","address":"荒井"},
{"zip_code":"3240413","kana_pref":"ﾄﾁｷﾞｹﾝ","kana_city":"ｵｵﾀﾜﾗｼ","kana_address":"ｱﾗｼﾞｭｸ","pref":"栃木県","city":"大田原市","address":"新宿"},
{"zip_code":"3240006","kana_pref":"ﾄﾁｷﾞｹﾝ","kana_city":"ｵｵﾀﾜﾗｼ","kana_address":"ｲﾁﾉｻﾜ","pref":"栃木県","city":"大田原市","address":"市野沢"},
{"zip_code":"3240064","kana_pref":"ﾄﾁｷﾞｹﾝ","kana_city":"ｵｵﾀﾜﾗｼ","kana_address":"ｲﾏｲｽﾞﾐ","pref":"栃木県","city":"大田原市","address":"今泉"},
{"zip_code":"3240035","kana_pref":"ﾄﾁｷﾞｹﾝ","kana_city":"ｵｵﾀﾜﾗｼ","kana_address":"ｳｽﾊﾞ","pref":"栃木県","city":"大田原市","address":"薄葉"},
{"zip_code":"3240022","kana_pref":"ﾄﾁｷﾞｹﾝ","kana_city":"ｵｵﾀﾜﾗｼ","kana_address":"ｳﾀﾞｶﾞﾜ","pref":"栃木県","city":"大田原市","address":"宇田川"},
{"zip_code":"3240213","kana_pref":"ﾄﾁｷﾞｹﾝ","kana_city":"ｵｵﾀﾜﾗｼ","kana_address":"ｳﾝｶﾞﾝｼﾞ","pref":"栃木県","city":"大田原市","address":"雲岩寺"},
{"zip_code":"3240025","kana_pref":"ﾄﾁｷﾞｹﾝ","kana_city":"ｵｵﾀﾜﾗｼ","kana_address":"ｵｵｶﾞﾐ","pref":"栃木県","city":"大田原市","address":"大神"},
{"zip_code":"3240204","kana_pref":"ﾄﾁｷﾞｹﾝ","kana_city":"ｵｵﾀﾜﾗｼ","kana_address":"ｵｵｸﾎﾞ","pref":"栃木県","city":"大田原市","address":"大久保"},
{"zip_code":"3240242","kana_pref":"ﾄﾁｷﾞｹﾝ","kana_city":"ｵｵﾀﾜﾗｼ","kana_address":"ｵｵﾏﾒﾀﾞ","pref":"栃木県","city":"大田原市","address":"大豆田"},
{"zip_code":"3240236","kana_pref":"ﾄﾁｷﾞｹﾝ","kana_city":"ｵｵﾀﾜﾗｼ","kana_address":"ｵｵﾜ","pref":"栃木県","city":"大田原市","address":"大輪"},
{"zip_code":"3240065","kana_pref":"ﾄﾁｷﾞｹﾝ","kana_city":"ｵｵﾀﾜﾗｼ","kana_address":"ｵｶ","pref":"栃木県","city":"大田原市","address":"岡"},
{"zip_code":"3240027","kana_pref":"ﾄﾁｷﾞｹﾝ","kana_city":"ｵｵﾀﾜﾗｼ","kana_address":"ｵｷﾞﾉﾒ","pref":"栃木県","city":"大田原市","address":"荻野目"},
{"zip_code":"3240017","kana_pref":"ﾄﾁｷﾞｹﾝ","kana_city":"ｵｵﾀﾜﾗｼ","kana_address":"ｵｸｻﾜ","pref":"栃木県","city":"大田原市","address":"奥沢"},
{"zip_code":"3240001","kana_pref":"ﾄﾁｷﾞｹﾝ","kana_city":"ｵｵﾀﾜﾗｼ","kana_address":"ｵﾄﾚｻﾞﾜ","pref":"栃木県","city":"大田原市","address":"乙連沢"},
{"zip_code":"3240046","kana_pref":"ﾄﾁｷﾞｹﾝ","kana_city":"ｵｵﾀﾜﾗｼ","kana_address":"ｶｼﾞﾔ","pref":"栃木県","city":"大田原市","address":"加治屋"},
{"zip_code":"3240223","kana_pref":"ﾄﾁｷﾞｹﾝ","kana_city":"ｵｵﾀﾜﾗｼ","kana_address":"ｶﾀﾀ","pref":"栃木県","city":"大田原市","address":"片田"},
{"zip_code":"3240414","kana_pref":"ﾄﾁｷﾞｹﾝ","kana_city":"ｵｵﾀﾜﾗｼ","kana_address":"ｶﾀﾌﾀ","pref":"栃木県","city":"大田原市","address":"片府田"},
{"zip_code":"3240013","kana_pref":"ﾄﾁｷﾞｹﾝ","kana_city":"ｵｵﾀﾜﾗｼ","kana_address":"ｶﾊﾞﾀ","pref":"栃木県","city":"大田原市","address":"鹿畑"},
{"zip_code":"3240037","kana_pref":"ﾄﾁｷﾞｹﾝ","kana_city":"ｵｵﾀﾜﾗｼ","kana_address":"ｶﾐｲｼｶﾞﾐ","pref":"栃木県","city":"大田原市","address":"上石上"},
{"zip_code":"3240018","kana_pref":"ﾄﾁｷﾞｹﾝ","kana_city":"ｵｵﾀﾜﾗｼ","kana_address":"ｶﾐｵｸｻﾜ","pref":"栃木県","city":"大田原市","address":"上奥沢"},
{"zip_code":"3240221","kana_pref":"ﾄﾁｷﾞｹﾝ","kana_city":"ｵｵﾀﾜﾗｼ","kana_address":"ｶﾒﾋｻ","pref":"栃木県","city":"大田原市","address":"亀久"},
{"zip_code":"3240214","kana_pref":"ﾄﾁｷﾞｹﾝ","kana_city":"ｵｵﾀﾜﾗｼ","kana_address":"ｶﾜｶﾐ","pref":"栃木県","city":"大田原市","address":"川上"},
{"zip_code":"3240208","kana_pref":"ﾄﾁｷﾞｹﾝ","kana_city":"ｵｵﾀﾜﾗｼ","kana_address":"ｶﾜﾀﾞ","pref":"栃木県","city":"大田原市","address":"川田"},
{"zip_code":"3240207","kana_pref":"ﾄﾁｷﾞｹﾝ","kana_city":"ｵｵﾀﾜﾗｼ","kana_address":"ｶﾜﾗ","pref":"栃木県","city":"大田原市","address":"河原"},
{"zip_code":"3240202","kana_pref":"ﾄﾁｷﾞｹﾝ","kana_city":"ｵｵﾀﾜﾗｼ","kana_address":"ｷｻﾞﾐ","pref":"栃木県","city":"大田原市","address":"木佐美"},
{"zip_code":"3240016","kana_pref":"ﾄﾁｷﾞｹﾝ","kana_city":"ｵｵﾀﾜﾗｼ","kana_address":"ｷﾀｵｵﾜｸﾞ","pref":"栃木県","city":"大田原市","address":"北大和久"},
{"zip_code":"3240011","kana_pref":"ﾄﾁｷﾞｹﾝ","kana_city":"ｵｵﾀﾜﾗｼ","kana_address":"ｷﾀｶﾈﾏﾙ","pref":"栃木県","city":"大田原市","address":"北金丸"},
{"zip_code":"3240224","kana_pref":"ﾄﾁｷﾞｹﾝ","kana_city":"ｵｵﾀﾜﾗｼ","kana_address":"ｷﾀﾀｷ","pref":"栃木県","city":"大田原市","address":"北滝"},
{"zip_code":"3240231","kana_pref":"ﾄﾁｷﾞｹﾝ","kana_city":"ｵｵﾀﾜﾗｼ","kana_address":"ｷﾀﾉｶﾞﾐ","pref":"栃木県","city":"大田原市","address":"北野上"},
{"zip_code":"3240205","kana_pref":"ﾄﾁｷﾞｹﾝ","kana_city":"ｵｵﾀﾜﾗｼ","kana_address":"ｸﾉﾏﾀ","pref":"栃木県","city":"大田原市","address":"久野又"},
{"zip_code":"3240014","kana_pref":"ﾄﾁｷﾞｹﾝ","kana_city":"ｵｵﾀﾜﾗｼ","kana_address":"ｸﾗﾎﾈ","pref":"栃木県","city":"大田原市","address":"倉骨"},
{"zip_code":"3240233","kana_pref":"ﾄﾁｷﾞｹﾝ","kana_city":"ｵｵﾀﾜﾗｼ","kana_address":"ｸﾛﾊﾞﾈﾀﾏﾁ","pref":"栃木県","city":"大田原市","address":"黒羽田町"},
{"zip_code":"3240241","kana_pref":"ﾄﾁｷﾞｹﾝ","kana_city":"ｵｵﾀﾜﾗｼ","kana_address":"ｸﾛﾊﾞﾈﾑｺｳﾏﾁ","pref":"栃木県","city":"大田原市","address":"黒羽向町"},
{"zip_code":"3240003","kana_pref":"ﾄﾁｷﾞｹﾝ","kana_city":"ｵｵﾀﾜﾗｼ","kana_address":"ｺﾀﾞｷ","pref":"栃木県","city":"大田原市","address":"小滝"},
{"zip_code":"3240402","kana_pref":"ﾄﾁｷﾞｹﾝ","kana_city":"ｵｵﾀﾜﾗｼ","kana_address":"ｺﾌﾞﾅﾄ","pref":"栃木県","city":"大田原市","address":"小船渡"},
{"zip_code":"3240032","kana_pref":"ﾄﾁｷﾞｹﾝ","kana_city":"ｵｵﾀﾜﾗｼ","kana_address":"ｻｸﾔﾏ","pref":"栃木県","city":"大田原市","address":"佐久山"},
{"zip_code":"3240246","kana_pref":"ﾄﾁｷﾞｹﾝ","kana_city":"ｵｵﾀﾜﾗｼ","kana_address":"ｻﾌﾞｲ","pref":"栃木県","city":"大田原市","address":"寒井"},
{"zip_code":"3240404","kana_pref":"ﾄﾁｷﾞｹﾝ","kana_city":"ｵｵﾀﾜﾗｼ","kana_address":"ｻﾗﾄﾞ","pref":"栃木県","city":"大田原市","address":"佐良土"},
{"zip_code":"3240415","kana_pref":"ﾄﾁｷﾞｹﾝ","kana_city":"ｵｵﾀﾜﾗｼ","kana_address":"ｼﾅｶﾞﾜ","pref":"栃木県","city":"大田原市","address":"品川"},
{"zip_code":"3240036","kana_pref":"ﾄﾁｷﾞｹﾝ","kana_city":"ｵｵﾀﾜﾗｼ","kana_address":"ｼﾓｲｼｶﾞﾐ","pref":"栃木県","city":"大田原市","address":"下石上"},
{"zip_code":"3240052","kana_pref":"ﾄﾁｷﾞｹﾝ","kana_city":"ｵｵﾀﾜﾗｼ","kana_address":"ｼﾛﾔﾏ","pref":"栃木県","city":"大田原市","address":"城山"},
{"zip_code":"3240055","kana_pref":"ﾄﾁｷﾞｹﾝ","kana_city":"ｵｵﾀﾜﾗｼ","kana_address":"ｼﾝﾄﾐﾁｮｳ","pref":"栃木県","city":"大田原市","address":"新富町"},
{"zip_code":"3240042","kana_pref":"ﾄﾁｷﾞｹﾝ","kana_city":"ｵｵﾀﾜﾗｼ","kana_address":"ｽｴﾋﾛ","pref":"栃木県","city":"大田原市","address":"末広"},
{"zip_code":"3240211","kana_pref":"ﾄﾁｷﾞｹﾝ","kana_city":"ｵｵﾀﾜﾗｼ","kana_address":"ｽｶｶﾞﾜ","pref":"栃木県","city":"大田原市","address":"須賀川"},
{"zip_code":"3240212","kana_pref":"ﾄﾁｷﾞｹﾝ","kana_city":"ｵｵﾀﾜﾗｼ","kana_address":"ｽｻｷﾞ","pref":"栃木県","city":"大田原市","address":"須佐木"},
{"zip_code":"3240057","kana_pref":"ﾄﾁｷﾞｹﾝ","kana_city":"ｵｵﾀﾜﾗｼ","kana_address":"ｽﾐﾖｼﾁｮｳ","pref":"栃木県","city":"大田原市","address":"住吉町"},
{"zip_code":"3240401","kana_pref":"ﾄﾁｷﾞｹﾝ","kana_city":"ｵｵﾀﾜﾗｼ","kana_address":"ｾﾊﾞﾊﾗ","pref":"栃木県","city":"大田原市","address":"狭原"},
{"zip_code":"3240026","kana_pref":"ﾄﾁｷﾞｹﾝ","kana_city":"ｵｵﾀﾜﾗｼ","kana_address":"ﾀｷｵｶ","pref":"栃木県","city":"大田原市","address":"滝岡"},
{"zip_code":"3240033","kana_pref":"ﾄﾁｷﾞｹﾝ","kana_city":"ｵｵﾀﾜﾗｼ","kana_address":"ﾀｷｻﾞﾜ","pref":"栃木県","city":"大田原市","address":"滝沢"},
{"zip_code":"3240044","kana_pref":"ﾄﾁｷﾞｹﾝ","kana_city":"ｵｵﾀﾜﾗｼ","kana_address":"ﾁｶｿﾉ","pref":"栃木県","city":"大田原市","address":"親園"},
{"zip_code":"3240056","kana_pref":"ﾄﾁｷﾞｹﾝ","kana_city":"ｵｵﾀﾜﾗｼ","kana_address":"ﾁｭｳｵｳ","pref":"栃木県","city":"大田原市","address":"中央"},
{"zip_code":"3240203","kana_pref":"ﾄﾁｷﾞｹﾝ","kana_city":"ｵｵﾀﾜﾗｼ","kana_address":"ﾃﾗｼﾞｭｸ","pref":"栃木県","city":"大田原市","address":"寺宿"},
{"zip_code":"3240066","kana_pref":"ﾄﾁｷﾞｹﾝ","kana_city":"ｵｵﾀﾜﾗｼ","kana_address":"ﾄﾉｳﾁ","pref":"栃木県","city":"大田原市","address":"戸野内"},
{"zip_code":"3240004","kana_pref":"ﾄﾁｷﾞｹﾝ","kana_city":"ｵｵﾀﾜﾗｼ","kana_address":"ﾄﾐｲｹ","pref":"栃木県","city":"大田原市","address":"富池"},
{"zip_code":"3240062","kana_pref":"ﾄﾁｷﾞｹﾝ","kana_city":"ｵｵﾀﾜﾗｼ","kana_address":"ﾅｶﾀﾞﾜﾗ","pref":"栃木県","city":"大田原市","address":"中田原"},
{"zip_code":"3240206","kana_pref":"ﾄﾁｷﾞｹﾝ","kana_city":"ｵｵﾀﾜﾗｼ","kana_address":"ﾅｶﾉｳﾁ","pref":"栃木県","city":"大田原市","address":"中野内"},
{"zip_code":"3240405","kana_pref":"ﾄﾁｷﾞｹﾝ","kana_city":"ｵｵﾀﾜﾗｼ","kana_address":"ﾅｶﾉﾊﾗ","pref":"栃木県","city":"大田原市","address":"中の原"},
{"zip_code":"3240215","kana_pref":"ﾄﾁｷﾞｹﾝ","kana_city":"ｵｵﾀﾜﾗｼ","kana_address":"ﾅﾝﾎﾞｳ","pref":"栃木県","city":"大田原市","address":"南方"},
{"zip_code":"3240005","kana_pref":"ﾄﾁｷﾞｹﾝ","kana_city":"ｵｵﾀﾜﾗｼ","kana_address":"ﾈﾘﾇｷ","pref":"栃木県","city":"大田原市","address":"練貫"},
{"zip_code":"3240038","kana_pref":"ﾄﾁｷﾞｹﾝ","kana_city":"ｵｵﾀﾜﾗｼ","kana_address":"ﾉｻﾞｷ","pref":"栃木県","city":"大田原市","address":"野崎"},
{"zip_code":"3240244","kana_pref":"ﾄﾁｷﾞｹﾝ","kana_city":"ｵｵﾀﾜﾗｼ","kana_address":"ﾊﾁｽ","pref":"栃木県","city":"大田原市","address":"蜂巣"},
{"zip_code":"3240023","kana_pref":"ﾄﾁｷﾞｹﾝ","kana_city":"ｵｵﾀﾜﾗｼ","kana_address":"ﾊﾅｿﾞﾉ","pref":"栃木県","city":"大田原市","address":"花園"},
{"zip_code":"3240002","kana_pref":"ﾄﾁｷﾞｹﾝ","kana_city":"ｵｵﾀﾜﾗｼ","kana_address":"ﾊﾝﾀﾞ","pref":"栃木県","city":"大田原市","address":"羽田"},
{"zip_code":"3240245","kana_pref":"ﾄﾁｷﾞｹﾝ","kana_city":"ｵｵﾀﾜﾗｼ","kana_address":"ﾋﾉｷｻﾞﾜ","pref":"栃木県","city":"大田原市","address":"桧木沢"},
{"zip_code":"3240034","kana_pref":"ﾄﾁｷﾞｹﾝ","kana_city":"ｵｵﾀﾜﾗｼ","kana_address":"ﾋﾗｻﾜ","pref":"栃木県","city":"大田原市","address":"平沢"},
{"zip_code":"3240412","kana_pref":"ﾄﾁｷﾞｹﾝ","kana_city":"ｵｵﾀﾜﾗｼ","kana_address":"ﾋﾙﾀ","pref":"栃木県","city":"大田原市","address":"蛭田"},
{"zip_code":"3240411","kana_pref":"ﾄﾁｷﾞｹﾝ","kana_city":"ｵｵﾀﾜﾗｼ","kana_address":"ﾋﾙﾊﾀ","pref":"栃木県","city":"大田原市","address":"蛭畑"},
{"zip_code":"3240024","kana_pref":"ﾄﾁｷﾞｹﾝ","kana_city":"ｵｵﾀﾜﾗｼ","kana_address":"ﾌｸﾜﾗ","pref":"栃木県","city":"大田原市","address":"福原"},
{"zip_code":"3240031","kana_pref":"ﾄﾁｷﾞｹﾝ","kana_city":"ｵｵﾀﾜﾗｼ","kana_address":"ﾌｼﾞｻﾜ","pref":"栃木県","city":"大田原市","address":"藤沢"},
{"zip_code":"3240028","kana_pref":"ﾄﾁｷﾞｹﾝ","kana_city":"ｵｵﾀﾜﾗｼ","kana_address":"ﾌｼﾞﾐ","pref":"栃木県","city":"大田原市","address":"富士見"},
{"zip_code":"3240235","kana_pref":"ﾄﾁｷﾞｹﾝ","kana_city":"ｵｵﾀﾜﾗｼ","kana_address":"ﾎﾘﾉｳﾁ","pref":"栃木県","city":"大田原市","address":"堀之内"},
{"zip_code":"3240041","kana_pref":"ﾄﾁｷﾞｹﾝ","kana_city":"ｵｵﾀﾜﾗｼ","kana_address":"ﾎﾝﾁｮｳ","pref":"栃木県","city":"大田原市","address":"本町"},
{"zip_code":"3240234","kana_pref":"ﾄﾁｷﾞｹﾝ","kana_city":"ｵｵﾀﾜﾗｼ","kana_address":"ﾏｴﾀ","pref":"栃木県","city":"大田原市","address":"前田"},
{"zip_code":"3240063","kana_pref":"ﾄﾁｷﾞｹﾝ","kana_city":"ｵｵﾀﾜﾗｼ","kana_address":"ﾏﾁｼﾞﾏ","pref":"栃木県","city":"大田原市","address":"町島"},
{"zip_code":"3240045","kana_pref":"ﾄﾁｷﾞｹﾝ","kana_city":"ｵｵﾀﾜﾗｼ","kana_address":"ﾐﾄﾞﾘ","pref":"栃木県","city":"大田原市","address":"実取"},
{"zip_code":"3240012","kana_pref":"ﾄﾁｷﾞｹﾝ","kana_city":"ｵｵﾀﾜﾗｼ","kana_address":"ﾐﾅﾐｶﾈﾏﾙ","pref":"栃木県","city":"大田原市","address":"南金丸"},
{"zip_code":"3240047","kana_pref":"ﾄﾁｷﾞｹﾝ","kana_city":"ｵｵﾀﾜﾗｼ","kana_address":"ﾐﾊﾗ","pref":"栃木県","city":"大田原市","address":"美原"},
{"zip_code":"3240058","kana_pref":"ﾄﾁｷﾞｹﾝ","kana_city":"ｵｵﾀﾜﾗｼ","kana_address":"ﾑﾗｻｷﾂﾞｶ","pref":"栃木県","city":"大田原市","address":"紫塚"},
{"zip_code":"3240053","kana_pref":"ﾄﾁｷﾞｹﾝ","kana_city":"ｵｵﾀﾜﾗｼ","kana_address":"ﾓﾄﾏﾁ","pref":"栃木県","city":"大田原市","address":"元町"},
{"zip_code":"3240222","kana_pref":"ﾄﾁｷﾞｹﾝ","kana_city":"ｵｵﾀﾜﾗｼ","kana_address":"ﾔｸﾞﾗ","pref":"栃木県","city":"大田原市","address":"矢倉"},
{"zip_code":"3240232","kana_pref":"ﾄﾁｷﾞｹﾝ","kana_city":"ｵｵﾀﾜﾗｼ","kana_address":"ﾔｼｵ","pref":"栃木県","city":"大田原市","address":"八塩"},
{"zip_code":"3240051","kana_pref":"ﾄﾁｷﾞｹﾝ","kana_city":"ｵｵﾀﾜﾗｼ","kana_address":"ﾔﾏﾉﾃ","pref":"栃木県","city":"大田原市","address":"山の手"},
{"zip_code":"3240403","kana_pref":"ﾄﾁｷﾞｹﾝ","kana_city":"ｵｵﾀﾜﾗｼ","kana_address":"ﾕﾂﾞｶﾐ","pref":"栃木県","city":"大田原市","address":"湯津上"},
{"zip_code":"3240243","kana_pref":"ﾄﾁｷﾞｹﾝ","kana_city":"ｵｵﾀﾜﾗｼ","kana_address":"ﾖｾﾞ","pref":"栃木県","city":"大田原市","address":"余瀬"},
{"zip_code":"3240201","kana_pref":"ﾄﾁｷﾞｹﾝ","kana_city":"ｵｵﾀﾜﾗｼ","kana_address":"ﾘｮｳｺﾞｳ","pref":"栃木県","city":"大田原市","address":"両郷"},
{"zip_code":"3240021","kana_pref":"ﾄﾁｷﾞｹﾝ","kana_city":"ｵｵﾀﾜﾗｼ","kana_address":"ﾜｶｸｻ","pref":"栃木県","city":"大田原市","address":"若草"},
{"zip_code":"3240054","kana_pref":"ﾄﾁｷﾞｹﾝ","kana_city":"ｵｵﾀﾜﾗｼ","kana_address":"ﾜｶﾏﾂﾁｮｳ","pref":"栃木県","city":"大田原市","address":"若松町"},
{"zip_code":"3240600","kana_pref":"ﾄﾁｷﾞｹﾝ","kana_city":"ﾅｽｸﾞﾝﾅｶｶﾞﾜﾏﾁ","kana_address":"","pref":"栃木県","city":"那須郡那珂川町","address":""},
{"zip_code":"3240605","kana_pref":"ﾄﾁｷﾞｹﾝ","kana_city":"ﾅｽｸﾞﾝﾅｶｶﾞﾜﾏﾁ","kana_address":"ｵｵｳﾁ","pref":"栃木県","city":"那須郡那珂川町","address":"大内"},
{"zip_code":"3240606","kana_pref":"ﾄﾁｷﾞｹﾝ","kana_city":"ﾅｽｸﾞﾝﾅｶｶﾞﾜﾏﾁ","kana_address":"ｵｵﾅﾁ","pref":"栃木県","city":"那須郡那珂川町","address":"大那地"},
{"zip_code":"3240601","kana_pref":"ﾄﾁｷﾞｹﾝ","kana_city":"ﾅｽｸﾞﾝﾅｶｶﾞﾜﾏﾁ","kana_address":"ｵｵﾔﾏﾀﾞｶﾐｺﾞｳ","pref":"栃木県","city":"那須郡那珂川町","address":"大山田上郷"},
{"zip_code":"3240602","kana_pref":"ﾄﾁｷﾞｹﾝ","kana_city":"ﾅｽｸﾞﾝﾅｶｶﾞﾜﾏﾁ","kana_address":"ｵｵﾔﾏﾀﾞｼﾓｺﾞｳ","pref":"栃木県","city":"那須郡那珂川町","address":"大山田下郷"},
{"zip_code":"3240501","kana_pref":"ﾄﾁｷﾞｹﾝ","kana_city":"ﾅｽｸﾞﾝﾅｶｶﾞﾜﾏﾁ","kana_address":"ｵｶﾞﾜ","pref":"栃木県","city":"那須郡那珂川町","address":"小川"},
{"zip_code":"3240503","kana_pref":"ﾄﾁｷﾞｹﾝ","kana_city":"ﾅｽｸﾞﾝﾅｶｶﾞﾜﾏﾁ","kana_address":"ｵﾝﾀﾞ","pref":"栃木県","city":"那須郡那珂川町","address":"恩田"},
{"zip_code":"3240515","kana_pref":"ﾄﾁｷﾞｹﾝ","kana_city":"ﾅｽｸﾞﾝﾅｶｶﾞﾜﾏﾁ","kana_address":"ｶﾀﾋﾗ","pref":"栃木県","city":"那須郡那珂川町","address":"片平"},
{"zip_code":"3240617","kana_pref":"ﾄﾁｷﾞｹﾝ","kana_city":"ﾅｽｸﾞﾝﾅｶｶﾞﾜﾏﾁ","kana_address":"ｷﾀﾑｶﾀﾞ","pref":"栃木県","city":"那須郡那珂川町","address":"北向田"},
{"zip_code":"3240504","kana_pref":"ﾄﾁｷﾞｹﾝ","kana_city":"ﾅｽｸﾞﾝﾅｶｶﾞﾜﾏﾁ","kana_address":"ｸｽﾞﾘ","pref":"栃木県","city":"那須郡那珂川町","address":"薬利"},
{"zip_code":"3240614","kana_pref":"ﾄﾁｷﾞｹﾝ","kana_city":"ﾅｽｸﾞﾝﾅｶｶﾞﾜﾏﾁ","kana_address":"ｸﾅｾ","pref":"栃木県","city":"那須郡那珂川町","address":"久那瀬"},
{"zip_code":"3240611","kana_pref":"ﾄﾁｷﾞｹﾝ","kana_city":"ﾅｽｸﾞﾝﾅｶｶﾞﾜﾏﾁ","kana_address":"ｺｲｻｺﾞ","pref":"栃木県","city":"那須郡那珂川町","address":"小砂"},
{"zip_code":"3240618","kana_pref":"ﾄﾁｷﾞｹﾝ","kana_city":"ﾅｽｸﾞﾝﾅｶｶﾞﾜﾏﾁ","kana_address":"ｺｸﾞﾁ","pref":"栃木県","city":"那須郡那珂川町","address":"小口"},
{"zip_code":"3240506","kana_pref":"ﾄﾁｷﾞｹﾝ","kana_city":"ﾅｽｸﾞﾝﾅｶｶﾞﾜﾏﾁ","kana_address":"ｼﾞｮｳﾎｳｼﾞ","pref":"栃木県","city":"那須郡那珂川町","address":"浄法寺"},
{"zip_code":"3240513","kana_pref":"ﾄﾁｷﾞｹﾝ","kana_city":"ﾅｽｸﾞﾝﾅｶｶﾞﾜﾏﾁ","kana_address":"ｼﾗｸ","pref":"栃木県","city":"那須郡那珂川町","address":"白久"},
{"zip_code":"3240514","kana_pref":"ﾄﾁｷﾞｹﾝ","kana_city":"ﾅｽｸﾞﾝﾅｶｶﾞﾜﾏﾁ","kana_address":"ﾀｶｵｶ","pref":"栃木県","city":"那須郡那珂川町","address":"高岡"},
{"zip_code":"3240608","kana_pref":"ﾄﾁｷﾞｹﾝ","kana_city":"ﾅｽｸﾞﾝﾅｶｶﾞﾜﾏﾁ","kana_address":"ﾀｹﾌﾞ","pref":"栃木県","city":"那須郡那珂川町","address":"健武"},
{"zip_code":"3240616","kana_pref":"ﾄﾁｷﾞｹﾝ","kana_city":"ﾅｽｸﾞﾝﾅｶｶﾞﾜﾏﾁ","kana_address":"ﾄﾐﾔﾏ","pref":"栃木県","city":"那須郡那珂川町","address":"富山"},
{"zip_code":"3240613","kana_pref":"ﾄﾁｷﾞｹﾝ","kana_city":"ﾅｽｸﾞﾝﾅｶｶﾞﾜﾏﾁ","kana_address":"ﾊﾞﾄｳ","pref":"栃木県","city":"那須郡那珂川町","address":"馬頭"},
{"zip_code":"3240516","kana_pref":"ﾄﾁｷﾞｹﾝ","kana_city":"ﾅｽｸﾞﾝﾅｶｶﾞﾜﾏﾁ","kana_address":"ﾋｶﾞｼﾄﾀﾞ","pref":"栃木県","city":"那須郡那珂川町","address":"東戸田"},
{"zip_code":"3240615","kana_pref":"ﾄﾁｷﾞｹﾝ","kana_city":"ﾅｽｸﾞﾝﾅｶｶﾞﾜﾏﾁ","kana_address":"ﾏﾂﾉ","pref":"栃木県","city":"那須郡那珂川町","address":"松野"},
{"zip_code":"3240502","kana_pref":"ﾄﾁｷﾞｹﾝ","kana_city":"ﾅｽｸﾞﾝﾅｶｶﾞﾜﾏﾁ","kana_address":"ﾐﾜ","pref":"栃木県","city":"那須郡那珂川町","address":"三輪"},
{"zip_code":"3240604","kana_pref":"ﾄﾁｷﾞｹﾝ","kana_city":"ﾅｽｸﾞﾝﾅｶｶﾞﾜﾏﾁ","kana_address":"ﾓﾘｲｽﾞﾐ","pref":"栃木県","city":"那須郡那珂川町","address":"盛泉"},
{"zip_code":"3240603","kana_pref":"ﾄﾁｷﾞｹﾝ","kana_city":"ﾅｽｸﾞﾝﾅｶｶﾞﾜﾏﾁ","kana_address":"ﾔｶﾜ","pref":"栃木県","city":"那須郡那珂川町","address":"谷川"},
{"zip_code":"3240512","kana_pref":"ﾄﾁｷﾞｹﾝ","kana_city":"ﾅｽｸﾞﾝﾅｶｶﾞﾜﾏﾁ","kana_address":"ﾔﾀﾞ","pref":"栃木県","city":"那須郡那珂川町","address":"谷田"},
{"zip_code":"3240607","kana_pref":"ﾄﾁｷﾞｹﾝ","kana_city":"ﾅｽｸﾞﾝﾅｶｶﾞﾜﾏﾁ","kana_address":"ﾔﾏﾀ","pref":"栃木県","city":"那須郡那珂川町","address":"矢又"},
{"zip_code":"3240505","kana_pref":"ﾄﾁｷﾞｹﾝ","kana_city":"ﾅｽｸﾞﾝﾅｶｶﾞﾜﾏﾁ","kana_address":"ﾖｼｲ","pref":"栃木県","city":"那須郡那珂川町","address":"芳井"},
{"zip_code":"3240511","kana_pref":"ﾄﾁｷﾞｹﾝ","kana_city":"ﾅｽｸﾞﾝﾅｶｶﾞﾜﾏﾁ","kana_address":"ﾖｼﾀﾞ","pref":"栃木県","city":"那須郡那珂川町","address":"吉田"},
{"zip_code":"3240612","kana_pref":"ﾄﾁｷﾞｹﾝ","kana_city":"ﾅｽｸﾞﾝﾅｶｶﾞﾜﾏﾁ","kana_address":"ﾜﾐ","pref":"栃木県","city":"那須郡那珂川町","address":"和見"}]}