{"zip_code":[
{"zip_code":"3270000","kana_pref":"ﾄﾁｷﾞｹﾝ","kana_city":"ｻﾉｼ","kana_address":"","pref":"栃木県","city":"佐野市","address":""},
{"zip_code":"3270023","kana_pref":"ﾄﾁｷﾞｹﾝ","kana_city":"ｻﾉｼ","kana_address":"ｱｲｵｲﾁｮｳ","pref":"栃木県","city":"佐野市","address":"相生町"},
{"zip_code":"3270511","kana_pref":"ﾄﾁｷﾞｹﾝ","kana_city":"ｻﾉｼ","kana_address":"ｱｲｻﾜﾁｮｳ","pref":"栃木県","city":"佐野市","address":"会沢町"},
{"zip_code":"3270004","kana_pref":"ﾄﾁｷﾞｹﾝ","kana_city":"ｻﾉｼ","kana_address":"ｱｶｻｶﾁｮｳ","pref":"栃木県","city":"佐野市","address":"赤坂町"},
{"zip_code":"3270104","kana_pref":"ﾄﾁｷﾞｹﾝ","kana_city":"ｻﾉｼ","kana_address":"ｱｶﾐﾁｮｳ","pref":"栃木県","city":"佐野市","address":"赤見町"},
{"zip_code":"3270517","kana_pref":"ﾄﾁｷﾞｹﾝ","kana_city":"ｻﾉｼ","kana_address":"ｱｷﾔﾏﾁｮｳ","pref":"栃木県","city":"佐野市","address":"秋山町"},
{"zip_code":"3270525","kana_pref":"ﾄﾁｷﾞｹﾝ","kana_city":"ｻﾉｼ","kana_address":"ｱｸﾄﾁｮｳ","pref":"栃木県","city":"佐野市","address":"あくと町"},
{"zip_code":"3270831","kana_pref":"ﾄﾁｷﾞｹﾝ","kana_city":"ｻﾉｼ","kana_address":"ｱｻﾇﾏﾁｮｳ","pref":"栃木県","city":"佐野市","address":"浅沼町"},
{"zip_code":"3270011","kana_pref":"ﾄﾁｷﾞｹﾝ","kana_city":"ｻﾉｼ","kana_address":"ｱｻﾋﾁｮｳ","pref":"栃木県","city":"佐野市","address":"朝日町"},
{"zip_code":"3270815","kana_pref":"ﾄﾁｷﾞｹﾝ","kana_city":"ｻﾉｼ","kana_address":"ｱﾌﾞﾂｶﾁｮｳ","pref":"栃木県","city":"佐野市","address":"鐙塚町"},
{"zip_code":"3270825","kana_pref":"ﾄﾁｷﾞｹﾝ","kana_city":"ｻﾉｼ","kana_address":"ｲｲﾀﾁｮｳ","pref":"栃木県","city":"佐野市","address":"飯田町"},
{"zip_code":"3270021","kana_pref":"ﾄﾁｷﾞｹﾝ","kana_city":"ｻﾉｼ","kana_address":"ｲｶﾞﾁｮｳ","pref":"栃木県","city":"佐野市","address":"伊賀町"},
{"zip_code":"3270103","kana_pref":"ﾄﾁｷﾞｹﾝ","kana_city":"ｻﾉｼ","kana_address":"ｲｼﾂﾞｶﾁｮｳ","pref":"栃木県","city":"佐野市","address":"石塚町"},
{"zip_code":"3270102","kana_pref":"ﾄﾁｷﾞｹﾝ","kana_city":"ｻﾉｼ","kana_address":"ｲｽﾞﾙﾊﾗﾁｮｳ","pref":"栃木県","city":"佐野市","address":"出流原町"},
{"zip_code":"3270817","kana_pref":"ﾄﾁｷﾞｹﾝ","kana_city":"ｻﾉｼ","kana_address":"ｲｾﾔﾏﾁｮｳ","pref":"栃木県","city":"佐野市","address":"伊勢山町"},
{"zip_code":"3270806","kana_pref":"ﾄﾁｷﾞｹﾝ","kana_city":"ｻﾉｼ","kana_address":"ｲﾇﾌﾞｼｶﾐﾁｮｳ","pref":"栃木県","city":"佐野市","address":"犬伏上町"},
{"zip_code":"3270805","kana_pref":"ﾄﾁｷﾞｹﾝ","kana_city":"ｻﾉｼ","kana_address":"ｲﾇﾌﾞｼﾅｶﾁｮｳ","pref":"栃木県","city":"佐野市","address":"犬伏中町"},
{"zip_code":"3270804","kana_pref":"ﾄﾁｷﾞｹﾝ","kana_city":"ｻﾉｼ","kana_address":"ｲﾇﾌﾞｼｼﾓﾁｮｳ","pref":"栃木県","city":"佐野市","address":"犬伏下町"},
{"zip_code":"3270803","kana_pref":"ﾄﾁｷﾞｹﾝ","kana_city":"ｻﾉｼ","kana_address":"ｲﾇﾌﾞｼｼﾝﾏﾁ","pref":"栃木県","city":"佐野市","address":"犬伏新町"},
{"zip_code":"3270034","kana_pref":"ﾄﾁｷﾞｹﾝ","kana_city":"ｻﾉｼ","kana_address":"ｲﾎﾞｳﾁﾁｮｳ","pref":"栃木県","city":"佐野市","address":"伊保内町"},
{"zip_code":"3270307","kana_pref":"ﾄﾁｷﾞｹﾝ","kana_city":"ｻﾉｼ","kana_address":"ｲﾜｻﾞｷﾁｮｳ","pref":"栃木県","city":"佐野市","address":"岩崎町"},
{"zip_code":"3270832","kana_pref":"ﾄﾁｷﾞｹﾝ","kana_city":"ｻﾉｼ","kana_address":"ｳｴｶﾐﾁｮｳ","pref":"栃木県","city":"佐野市","address":"植上町"},
{"zip_code":"3270835","kana_pref":"ﾄﾁｷﾞｹﾝ","kana_city":"ｻﾉｼ","kana_address":"ｳｴｼﾓﾁｮｳ","pref":"栃木県","city":"佐野市","address":"植下町"},
{"zip_code":"3270837","kana_pref":"ﾄﾁｷﾞｹﾝ","kana_city":"ｻﾉｼ","kana_address":"ｳｴﾉﾁｮｳ","pref":"栃木県","city":"佐野市","address":"植野町"},
{"zip_code":"3270322","kana_pref":"ﾄﾁｷﾞｹﾝ","kana_city":"ｻﾉｼ","kana_address":"ｳﾒｿﾞﾉﾁｮｳ","pref":"栃木県","city":"佐野市","address":"梅園町"},
{"zip_code":"3270012","kana_pref":"ﾄﾁｷﾞｹﾝ","kana_city":"ｻﾉｼ","kana_address":"ｵｵｸﾗﾁｮｳ","pref":"栃木県","city":"佐野市","address":"大蔵町"},
{"zip_code":"3270807","kana_pref":"ﾄﾁｷﾞｹﾝ","kana_city":"ｻﾉｼ","kana_address":"ｵｵｸﾞﾘﾁｮｳ","pref":"栃木県","city":"佐野市","address":"大栗町"},
{"zip_code":"3270033","kana_pref":"ﾄﾁｷﾞｹﾝ","kana_city":"ｻﾉｼ","kana_address":"ｵｵｺﾞﾔﾁｮｳ","pref":"栃木県","city":"佐野市","address":"大古屋町"},
{"zip_code":"3270003","kana_pref":"ﾄﾁｷﾞｹﾝ","kana_city":"ｻﾉｼ","kana_address":"ｵｵﾊｼﾁｮｳ","pref":"栃木県","city":"佐野市","address":"大橋町"},
{"zip_code":"3270316","kana_pref":"ﾄﾁｷﾞｹﾝ","kana_city":"ｻﾉｼ","kana_address":"ｵﾐﾁｮｳ","pref":"栃木県","city":"佐野市","address":"小見町"},
{"zip_code":"3270515","kana_pref":"ﾄﾁｷﾞｹﾝ","kana_city":"ｻﾉｼ","kana_address":"ｶｷﾀﾞｲﾗﾁｮｳ","pref":"栃木県","city":"佐野市","address":"柿平町"},
{"zip_code":"3270523","kana_pref":"ﾄﾁｷﾞｹﾝ","kana_city":"ｻﾉｼ","kana_address":"ｶﾀﾔﾏﾁｮｳ","pref":"栃木県","city":"佐野市","address":"嘉多山町"},
{"zip_code":"3270015","kana_pref":"ﾄﾁｷﾞｹﾝ","kana_city":"ｻﾉｼ","kana_address":"ｶﾅｲｶﾐﾁｮｳ","pref":"栃木県","city":"佐野市","address":"金井上町"},
{"zip_code":"3270007","kana_pref":"ﾄﾁｷﾞｹﾝ","kana_city":"ｻﾉｼ","kana_address":"ｶﾅﾌｷﾁｮｳ","pref":"栃木県","city":"佐野市","address":"金吹町"},
{"zip_code":"3270025","kana_pref":"ﾄﾁｷﾞｹﾝ","kana_city":"ｻﾉｼ","kana_address":"ｶﾅﾔｼﾓﾁｮｳ","pref":"栃木県","city":"佐野市","address":"金屋下町"},
{"zip_code":"3270026","kana_pref":"ﾄﾁｷﾞｹﾝ","kana_city":"ｻﾉｼ","kana_address":"ｶﾅﾔﾅｶﾁｮｳ","pref":"栃木県","city":"佐野市","address":"金屋仲町"},
{"zip_code":"3270032","kana_pref":"ﾄﾁｷﾞｹﾝ","kana_city":"ｻﾉｼ","kana_address":"ｶﾈﾂﾞｶﾁｮｳ","pref":"栃木県","city":"佐野市","address":"庚申塚町"},
{"zip_code":"3270006","kana_pref":"ﾄﾁｷﾞｹﾝ","kana_city":"ｻﾉｼ","kana_address":"ｶﾐﾀﾞｲﾁｮｳ","pref":"栃木県","city":"佐野市","address":"上台町"},
{"zip_code":"3270042","kana_pref":"ﾄﾁｷﾞｹﾝ","kana_city":"ｻﾉｼ","kana_address":"ｶﾐﾊﾈﾀﾞﾁｮｳ","pref":"栃木県","city":"佐野市","address":"上羽田町"},
{"zip_code":"3270024","kana_pref":"ﾄﾁｷﾞｹﾝ","kana_city":"ｻﾉｼ","kana_address":"ｶﾒｲﾁｮｳ","pref":"栃木県","city":"佐野市","address":"亀井町"},
{"zip_code":"3270321","kana_pref":"ﾄﾁｷﾞｹﾝ","kana_city":"ｻﾉｼ","kana_address":"ｶﾝﾏﾁｮｳ","pref":"栃木県","city":"佐野市","address":"閑馬町"},
{"zip_code":"3270827","kana_pref":"ﾄﾁｷﾞｹﾝ","kana_city":"ｻﾉｼ","kana_address":"ｷﾀﾓﾛﾁｮｳ","pref":"栃木県","city":"佐野市","address":"北茂呂町"},
{"zip_code":"3270043","kana_pref":"ﾄﾁｷﾞｹﾝ","kana_city":"ｻﾉｼ","kana_address":"ｷﾐﾀﾁｮｳ","pref":"栃木県","city":"佐野市","address":"君田町"},
{"zip_code":"3270507","kana_pref":"ﾄﾁｷﾞｹﾝ","kana_city":"ｻﾉｼ","kana_address":"ｸｽﾞｳﾆｼ","pref":"栃木県","city":"佐野市","address":"葛生西"},
{"zip_code":"3270501","kana_pref":"ﾄﾁｷﾞｹﾝ","kana_city":"ｻﾉｼ","kana_address":"ｸｽﾞｳﾋｶﾞｼ","pref":"栃木県","city":"佐野市","address":"葛生東"},
{"zip_code":"3270845","kana_pref":"ﾄﾁｷﾞｹﾝ","kana_city":"ｻﾉｼ","kana_address":"ｸﾎﾞﾁｮｳ","pref":"栃木県","city":"佐野市","address":"久保町"},
{"zip_code":"3270813","kana_pref":"ﾄﾁｷﾞｹﾝ","kana_city":"ｻﾉｼ","kana_address":"ｸﾛﾊｶﾏﾁｮｳ","pref":"栃木県","city":"佐野市","address":"黒袴町"},
{"zip_code":"3270822","kana_pref":"ﾄﾁｷﾞｹﾝ","kana_city":"ｻﾉｼ","kana_address":"ｺｴﾅﾁｮｳ","pref":"栃木県","city":"佐野市","address":"越名町"},
{"zip_code":"3270001","kana_pref":"ﾄﾁｷﾞｹﾝ","kana_city":"ｻﾉｼ","kana_address":"ｺﾅｶﾁｮｳ","pref":"栃木県","city":"佐野市","address":"小中町"},
{"zip_code":"3270816","kana_pref":"ﾄﾁｷﾞｹﾝ","kana_city":"ｻﾉｼ","kana_address":"ｻｶｴﾁｮｳ","pref":"栃木県","city":"佐野市","address":"栄町"},
{"zip_code":"3270301","kana_pref":"ﾄﾁｷﾞｹﾝ","kana_city":"ｻﾉｼ","kana_address":"ｻｸﾊﾗﾁｮｳ","pref":"栃木県","city":"佐野市","address":"作原町"},
{"zip_code":"3270005","kana_pref":"ﾄﾁｷﾞｹﾝ","kana_city":"ｻﾉｼ","kana_address":"ｼﾁｹﾝﾁｮｳ","pref":"栃木県","city":"佐野市","address":"七軒町"},
{"zip_code":"3270836","kana_pref":"ﾄﾁｷﾞｹﾝ","kana_city":"ｻﾉｼ","kana_address":"ｼﾞﾁｭｳﾁｮｳ","pref":"栃木県","city":"佐野市","address":"寺中町"},
{"zip_code":"3270044","kana_pref":"ﾄﾁｷﾞｹﾝ","kana_city":"ｻﾉｼ","kana_address":"ｼﾓﾊﾈﾀﾞﾁｮｳ","pref":"栃木県","city":"佐野市","address":"下羽田町"},
{"zip_code":"3270325","kana_pref":"ﾄﾁｷﾞｹﾝ","kana_city":"ｻﾉｼ","kana_address":"ｼﾓﾋｺﾏﾁｮｳ","pref":"栃木県","city":"佐野市","address":"下彦間町"},
{"zip_code":"3270302","kana_pref":"ﾄﾁｷﾞｹﾝ","kana_city":"ｻﾉｼ","kana_address":"ｼﾗｲﾜﾁｮｳ","pref":"栃木県","city":"佐野市","address":"白岩町"},
{"zip_code":"3270314","kana_pref":"ﾄﾁｷﾞｹﾝ","kana_city":"ｻﾉｼ","kana_address":"ｼﾝﾖｼﾐｽﾞﾁｮｳ","pref":"栃木県","city":"佐野市","address":"新吉水町"},
{"zip_code":"3270811","kana_pref":"ﾄﾁｷﾞｹﾝ","kana_city":"ｻﾉｼ","kana_address":"ｾｷｶﾞﾜﾁｮｳ","pref":"栃木県","city":"佐野市","address":"関川町"},
{"zip_code":"3270514","kana_pref":"ﾄﾁｷﾞｹﾝ","kana_city":"ｻﾉｼ","kana_address":"ｾﾝﾊﾞﾁｮｳ","pref":"栃木県","city":"佐野市","address":"仙波町"},
{"zip_code":"3270016","kana_pref":"ﾄﾁｷﾞｹﾝ","kana_city":"ｻﾉｼ","kana_address":"ﾀﾞｲｼｭｸﾁｮｳ","pref":"栃木県","city":"佐野市","address":"大祝町"},
{"zip_code":"3270017","kana_pref":"ﾄﾁｷﾞｹﾝ","kana_city":"ｻﾉｼ","kana_address":"ﾀﾞｲﾁｮｳ","pref":"栃木県","city":"佐野市","address":"大町"},
{"zip_code":"3270022","kana_pref":"ﾄﾁｷﾞｹﾝ","kana_city":"ｻﾉｼ","kana_address":"ﾀｶｻｺﾞﾁｮｳ","pref":"栃木県","city":"佐野市","address":"高砂町"},
{"zip_code":"3270821","kana_pref":"ﾄﾁｷﾞｹﾝ","kana_city":"ｻﾉｼ","kana_address":"ﾀｶﾊｷﾞﾁｮｳ","pref":"栃木県","city":"佐野市","address":"高萩町"},
{"zip_code":"3270045","kana_pref":"ﾄﾁｷﾞｹﾝ","kana_city":"ｻﾉｼ","kana_address":"ﾀｶﾊｼﾁｮｳ","pref":"栃木県","city":"佐野市","address":"高橋町"},
{"zip_code":"3270823","kana_pref":"ﾄﾁｷﾞｹﾝ","kana_city":"ｻﾉｼ","kana_address":"ﾀｶﾔﾏﾁｮｳ","pref":"栃木県","city":"佐野市","address":"高山町"},
{"zip_code":"3270031","kana_pref":"ﾄﾁｷﾞｹﾝ","kana_city":"ｻﾉｼ","kana_address":"ﾀｼﾞﾏﾁｮｳ","pref":"栃木県","city":"佐野市","address":"田島町"},
{"zip_code":"3270311","kana_pref":"ﾄﾁｷﾞｹﾝ","kana_city":"ｻﾉｼ","kana_address":"ﾀﾀﾞﾁｮｳ","pref":"栃木県","city":"佐野市","address":"多田町"},
{"zip_code":"3270317","kana_pref":"ﾄﾁｷﾞｹﾝ","kana_city":"ｻﾉｼ","kana_address":"ﾀﾇﾏﾁｮｳ","pref":"栃木県","city":"佐野市","address":"田沼町"},
{"zip_code":"3270841","kana_pref":"ﾄﾁｷﾞｹﾝ","kana_city":"ｻﾉｼ","kana_address":"ﾀﾉｲﾘﾁｮｳ","pref":"栃木県","city":"佐野市","address":"田之入町"},
{"zip_code":"3270502","kana_pref":"ﾄﾁｷﾞｹﾝ","kana_city":"ｻﾉｼ","kana_address":"ﾂｲｼﾞﾁｮｳ","pref":"栃木県","city":"佐野市","address":"築地町"},
{"zip_code":"3270101","kana_pref":"ﾄﾁｷﾞｹﾝ","kana_city":"ｻﾉｼ","kana_address":"ﾃﾗｸﾎﾞﾁｮｳ","pref":"栃木県","city":"佐野市","address":"寺久保町"},
{"zip_code":"3270847","kana_pref":"ﾄﾁｷﾞｹﾝ","kana_city":"ｻﾉｼ","kana_address":"ﾃﾝｼﾞﾝﾁｮｳ","pref":"栃木県","city":"佐野市","address":"天神町"},
{"zip_code":"3270014","kana_pref":"ﾄﾁｷﾞｹﾝ","kana_city":"ｻﾉｼ","kana_address":"ﾃﾝﾐｮｳﾁｮｳ","pref":"栃木県","city":"佐野市","address":"天明町"},
{"zip_code":"3270312","kana_pref":"ﾄﾁｷﾞｹﾝ","kana_city":"ｻﾉｼ","kana_address":"ﾄﾁﾓﾄﾁｮｳ","pref":"栃木県","city":"佐野市","address":"栃本町"},
{"zip_code":"3270323","kana_pref":"ﾄﾁｷﾞｹﾝ","kana_city":"ｻﾉｼ","kana_address":"ﾄﾅﾗﾁｮｳ","pref":"栃木県","city":"佐野市","address":"戸奈良町"},
{"zip_code":"3270844","kana_pref":"ﾄﾁｷﾞｹﾝ","kana_city":"ｻﾉｼ","kana_address":"ﾄﾐｵｶﾁｮｳ","pref":"栃木県","city":"佐野市","address":"富岡町"},
{"zip_code":"3270306","kana_pref":"ﾄﾁｷﾞｹﾝ","kana_city":"ｻﾉｼ","kana_address":"ﾄﾑﾛﾁｮｳ","pref":"栃木県","city":"佐野市","address":"戸室町"},
{"zip_code":"3270512","kana_pref":"ﾄﾁｷﾞｹﾝ","kana_city":"ｻﾉｼ","kana_address":"ﾄﾖｼﾛﾁｮｳ","pref":"栃木県","city":"佐野市","address":"豊代町"},
{"zip_code":"3270524","kana_pref":"ﾄﾁｷﾞｹﾝ","kana_city":"ｻﾉｼ","kana_address":"ﾅｶﾞｻｶﾁｮｳ","pref":"栃木県","city":"佐野市","address":"長坂町"},
{"zip_code":"3270504","kana_pref":"ﾄﾁｷﾞｹﾝ","kana_city":"ｻﾉｼ","kana_address":"ﾅｶﾁｮｳ","pref":"栃木県","city":"佐野市","address":"中町"},
{"zip_code":"3270002","kana_pref":"ﾄﾁｷﾞｹﾝ","kana_city":"ｻﾉｼ","kana_address":"ﾅﾐｷﾁｮｳ","pref":"栃木県","city":"佐野市","address":"並木町"},
{"zip_code":"3270842","kana_pref":"ﾄﾁｷﾞｹﾝ","kana_city":"ｻﾉｼ","kana_address":"ﾅﾗﾌﾞﾁﾁｮｳ","pref":"栃木県","city":"佐野市","address":"奈良渕町"},
{"zip_code":"3270814","kana_pref":"ﾄﾁｷﾞｹﾝ","kana_city":"ｻﾉｼ","kana_address":"ﾆｼｳﾗﾁｮｳ","pref":"栃木県","city":"佐野市","address":"西浦町"},
{"zip_code":"3270802","kana_pref":"ﾄﾁｷﾞｹﾝ","kana_city":"ｻﾉｼ","kana_address":"ﾆﾗｶﾞﾜﾁｮｳ","pref":"栃木県","city":"佐野市","address":"韮川町"},
{"zip_code":"3270303","kana_pref":"ﾄﾁｷﾞｹﾝ","kana_city":"ｻﾉｼ","kana_address":"ﾊｾﾊﾞﾁｮｳ","pref":"栃木県","city":"佐野市","address":"長谷場町"},
{"zip_code":"3270508","kana_pref":"ﾄﾁｷﾞｹﾝ","kana_city":"ｻﾉｼ","kana_address":"ﾊﾁﾉｷﾁｮｳ","pref":"栃木県","city":"佐野市","address":"鉢木町"},
{"zip_code":"3270231","kana_pref":"ﾄﾁｷﾞｹﾝ","kana_city":"ｻﾉｼ","kana_address":"ﾋｺﾏﾁｮｳ","pref":"栃木県","city":"佐野市","address":"飛駒町"},
{"zip_code":"3270801","kana_pref":"ﾄﾁｷﾞｹﾝ","kana_city":"ｻﾉｼ","kana_address":"ﾌｼﾞﾁｮｳ","pref":"栃木県","city":"佐野市","address":"富士町"},
{"zip_code":"3270503","kana_pref":"ﾄﾁｷﾞｹﾝ","kana_city":"ｻﾉｼ","kana_address":"ﾌｼﾞﾐﾁｮｳ","pref":"栃木県","city":"佐野市","address":"富士見町"},
{"zip_code":"3270305","kana_pref":"ﾄﾁｷﾞｹﾝ","kana_city":"ｻﾉｼ","kana_address":"ﾌﾅｺｼﾁｮｳ","pref":"栃木県","city":"佐野市","address":"船越町"},
{"zip_code":"3270035","kana_pref":"ﾄﾁｷﾞｹﾝ","kana_city":"ｻﾉｼ","kana_address":"ﾌﾅﾂｶﾞﾜﾁｮｳ","pref":"栃木県","city":"佐野市","address":"船津川町"},
{"zip_code":"3270843","kana_pref":"ﾄﾁｷﾞｹﾝ","kana_city":"ｻﾉｼ","kana_address":"ﾎﾘｺﾞﾒﾁｮｳ","pref":"栃木県","city":"佐野市","address":"堀米町"},
{"zip_code":"3270013","kana_pref":"ﾄﾁｷﾞｹﾝ","kana_city":"ｻﾉｼ","kana_address":"ﾎﾝﾁｮｳ","pref":"栃木県","city":"佐野市","address":"本町"},
{"zip_code":"3270824","kana_pref":"ﾄﾁｷﾞｹﾝ","kana_city":"ｻﾉｼ","kana_address":"ﾏｶﾄﾞﾁｮｳ","pref":"栃木県","city":"佐野市","address":"馬門町"},
{"zip_code":"3270513","kana_pref":"ﾄﾁｷﾞｹﾝ","kana_city":"ｻﾉｼ","kana_address":"ﾏｷﾞﾁｮｳ","pref":"栃木県","city":"佐野市","address":"牧町"},
{"zip_code":"3270812","kana_pref":"ﾄﾁｷﾞｹﾝ","kana_city":"ｻﾉｼ","kana_address":"ﾏﾁﾔﾁｮｳ","pref":"栃木県","city":"佐野市","address":"町谷町"},
{"zip_code":"3270304","kana_pref":"ﾄﾁｷﾞｹﾝ","kana_city":"ｻﾉｼ","kana_address":"ﾐｶｸﾞﾗﾁｮｳ","pref":"栃木県","city":"佐野市","address":"御神楽町"},
{"zip_code":"3270516","kana_pref":"ﾄﾁｷﾞｹﾝ","kana_city":"ｻﾉｼ","kana_address":"ﾐｽﾞｷﾁｮｳ","pref":"栃木県","city":"佐野市","address":"水木町"},
{"zip_code":"3270509","kana_pref":"ﾄﾁｷﾞｹﾝ","kana_city":"ｻﾉｼ","kana_address":"ﾐﾔｼﾀﾁｮｳ","pref":"栃木県","city":"佐野市","address":"宮下町"},
{"zip_code":"3270046","kana_pref":"ﾄﾁｷﾞｹﾝ","kana_city":"ｻﾉｼ","kana_address":"ﾑﾗｶﾐﾁｮｳ","pref":"栃木県","city":"佐野市","address":"村上町"},
{"zip_code":"3270041","kana_pref":"ﾄﾁｷﾞｹﾝ","kana_city":"ｻﾉｼ","kana_address":"ﾒﾝﾄﾞﾘﾁｮｳ","pref":"栃木県","city":"佐野市","address":"免鳥町"},
{"zip_code":"3270826","kana_pref":"ﾄﾁｷﾞｹﾝ","kana_city":"ｻﾉｼ","kana_address":"ﾓﾛﾔﾏﾁｮｳ","pref":"栃木県","city":"佐野市","address":"茂呂山町"},
{"zip_code":"3270324","kana_pref":"ﾄﾁｷﾞｹﾝ","kana_city":"ｻﾉｼ","kana_address":"ﾔﾏｶﾞﾀﾁｮｳ","pref":"栃木県","city":"佐野市","address":"山形町"},
{"zip_code":"3270318","kana_pref":"ﾄﾁｷﾞｹﾝ","kana_city":"ｻﾉｼ","kana_address":"ﾔﾏｺｼﾁｮｳ","pref":"栃木県","city":"佐野市","address":"山越町"},
{"zip_code":"3270505","kana_pref":"ﾄﾁｷﾞｹﾝ","kana_city":"ｻﾉｼ","kana_address":"ﾔﾏｽｹﾞﾁｮｳ","pref":"栃木県","city":"佐野市","address":"山菅町"},
{"zip_code":"3270027","kana_pref":"ﾄﾁｷﾞｹﾝ","kana_city":"ｻﾉｼ","kana_address":"ﾔﾏﾄﾁｮｳ","pref":"栃木県","city":"佐野市","address":"大和町"},
{"zip_code":"3270315","kana_pref":"ﾄﾁｷﾞｹﾝ","kana_city":"ｻﾉｼ","kana_address":"ﾖｼﾐｽﾞｴｷﾏｴ","pref":"栃木県","city":"佐野市","address":"吉水駅前"},
{"zip_code":"3270313","kana_pref":"ﾄﾁｷﾞｹﾝ","kana_city":"ｻﾉｼ","kana_address":"ﾖｼﾐｽﾞﾁｮｳ","pref":"栃木県","city":"佐野市","address":"吉水町"},
{"zip_code":"3270818","kana_pref":"ﾄﾁｷﾞｹﾝ","kana_city":"ｻﾉｼ","kana_address":"ﾖﾈﾔﾏﾐﾅﾐﾁｮｳ","pref":"栃木県","city":"佐野市","address":"米山南町"},
{"zip_code":"3270028","kana_pref":"ﾄﾁｷﾞｹﾝ","kana_city":"ｻﾉｼ","kana_address":"ﾖﾛｽﾞﾁｮｳ","pref":"栃木県","city":"佐野市","address":"万町"},
{"zip_code":"3270846","kana_pref":"ﾄﾁｷﾞｹﾝ","kana_city":"ｻﾉｼ","kana_address":"ﾜｶﾏﾂﾁｮｳ","pref":"栃木県","city":"佐野市","address":"若松町"},
{"zip_code":"3270833","kana_pref":"ﾄﾁｷﾞｹﾝ","kana_city":"ｻﾉｼ","kana_address":"ﾜｶﾐﾔｶﾐﾁｮｳ","pref":"栃木県","city":"佐野市","address":"若宮上町"},
{"zip_code":"3270834","kana_pref":"ﾄﾁｷﾞｹﾝ","kana_city":"ｻﾉｼ","kana_address":"ﾜｶﾐﾔｼﾓﾁｮｳ","pref":"栃木県","city":"佐野市","address":"若宮下町"}]}