{"zip_code":[
{"zip_code":"3291113","kana_pref":"ﾄﾁｷﾞｹﾝ","kana_city":"ｳﾂﾉﾐﾔｼ","kana_address":"ｱｲﾉｻﾜﾁｮｳ","pref":"栃木県","city":"宇都宮市","address":"相野沢町"},
{"zip_code":"3291117","kana_pref":"ﾄﾁｷﾞｹﾝ","kana_city":"ｳﾂﾉﾐﾔｼ","kana_address":"ｶﾉｳﾔﾁｮｳ","pref":"栃木県","city":"宇都宮市","address":"叶谷町"},
{"zip_code":"3291106","kana_pref":"ﾄﾁｷﾞｹﾝ","kana_city":"ｳﾂﾉﾐﾔｼ","kana_address":"ｶﾐｵｵﾂｶﾁｮｳ","pref":"栃木県","city":"宇都宮市","address":"上大塚町"},
{"zip_code":"3291112","kana_pref":"ﾄﾁｷﾞｹﾝ","kana_city":"ｳﾂﾉﾐﾔｼ","kana_address":"ｶﾐﾀﾜﾗﾁｮｳ","pref":"栃木県","city":"宇都宮市","address":"上田原町"},
{"zip_code":"3291111","kana_pref":"ﾄﾁｷﾞｹﾝ","kana_city":"ｳﾂﾉﾐﾔｼ","kana_address":"ｻｶﾂﾞﾗﾁｮｳ","pref":"栃木県","city":"宇都宮市","address":"逆面町"},
{"zip_code":"3291101","kana_pref":"ﾄﾁｷﾞｹﾝ","kana_city":"ｳﾂﾉﾐﾔｼ","kana_address":"ｻｹﾞﾊｼﾁｮｳ","pref":"栃木県","city":"宇都宮市","address":"下ケ橋町"},
{"zip_code":"3291104","kana_pref":"ﾄﾁｷﾞｹﾝ","kana_city":"ｳﾂﾉﾐﾔｼ","kana_address":"ｼﾓｵｶﾓﾄﾁｮｳ","pref":"栃木県","city":"宇都宮市","address":"下岡本町"},
{"zip_code":"3291115","kana_pref":"ﾄﾁｷﾞｹﾝ","kana_city":"ｳﾂﾉﾐﾔｼ","kana_address":"ｼﾓﾀﾜﾗﾁｮｳ","pref":"栃木県","city":"宇都宮市","address":"下田原町"},
{"zip_code":"3291102","kana_pref":"ﾄﾁｷﾞｹﾝ","kana_city":"ｳﾂﾉﾐﾔｼ","kana_address":"ｼﾗｻﾜﾁｮｳ","pref":"栃木県","city":"宇都宮市","address":"白沢町"},
{"zip_code":"3291114","kana_pref":"ﾄﾁｷﾞｹﾝ","kana_city":"ｳﾂﾉﾐﾔｼ","kana_address":"ﾀｶﾗｲﾁｮｳ","pref":"栃木県","city":"宇都宮市","address":"宝井町"},
{"zip_code":"3291105","kana_pref":"ﾄﾁｷﾞｹﾝ","kana_city":"ｳﾂﾉﾐﾔｼ","kana_address":"ﾅｶｵｶﾓﾄﾁｮｳ","pref":"栃木県","city":"宇都宮市","address":"中岡本町"},
{"zip_code":"3291107","kana_pref":"ﾄﾁｷﾞｹﾝ","kana_city":"ｳﾂﾉﾐﾔｼ","kana_address":"ﾅｶﾞﾐﾈﾁｮｳ","pref":"栃木県","city":"宇都宮市","address":"長峰町"},
{"zip_code":"3291103","kana_pref":"ﾄﾁｷﾞｹﾝ","kana_city":"ｳﾂﾉﾐﾔｼ","kana_address":"ﾋｶﾞｼｵｶﾓﾄﾁｮｳ","pref":"栃木県","city":"宇都宮市","address":"東岡本町"},
{"zip_code":"3291108","kana_pref":"ﾄﾁｷﾞｹﾝ","kana_city":"ｳﾂﾉﾐﾔｼ","kana_address":"ﾌﾙﾀﾁｮｳ","pref":"栃木県","city":"宇都宮市","address":"古田町"},
{"zip_code":"3291116","kana_pref":"ﾄﾁｷﾞｹﾝ","kana_city":"ｳﾂﾉﾐﾔｼ","kana_address":"ﾘｭｳﾌﾞｸﾁｮｳ","pref":"栃木県","city":"宇都宮市","address":"立伏町"},
{"zip_code":"3294212","kana_pref":"ﾄﾁｷﾞｹﾝ","kana_city":"ｱｼｶｶﾞｼ","kana_address":"ｲﾅｵｶﾁｮｳ","pref":"栃木県","city":"足利市","address":"稲岡町"},
{"zip_code":"3294215","kana_pref":"ﾄﾁｷﾞｹﾝ","kana_city":"ｱｼｶｶﾞｼ","kana_address":"ｵｸﾄﾞﾁｮｳ","pref":"栃木県","city":"足利市","address":"奥戸町"},
{"zip_code":"3294217","kana_pref":"ﾄﾁｷﾞｹﾝ","kana_city":"ｱｼｶｶﾞｼ","kana_address":"ｺﾏﾊﾞﾁｮｳ","pref":"栃木県","city":"足利市","address":"駒場町"},
{"zip_code":"3294214","kana_pref":"ﾄﾁｷﾞｹﾝ","kana_city":"ｱｼｶｶﾞｼ","kana_address":"ﾀﾀﾞｷﾁｮｳ","pref":"栃木県","city":"足利市","address":"多田木町"},
{"zip_code":"3294213","kana_pref":"ﾄﾁｷﾞｹﾝ","kana_city":"ｱｼｶｶﾞｼ","kana_address":"ﾃﾗｵｶﾁｮｳ","pref":"栃木県","city":"足利市","address":"寺岡町"},
{"zip_code":"3294211","kana_pref":"ﾄﾁｷﾞｹﾝ","kana_city":"ｱｼｶｶﾞｼ","kana_address":"ﾆｼﾊﾞﾁｮｳ","pref":"栃木県","city":"足利市","address":"西場町"},
{"zip_code":"3294216","kana_pref":"ﾄﾁｷﾞｹﾝ","kana_city":"ｱｼｶｶﾞｼ","kana_address":"ﾊｻﾏﾁｮｳ","pref":"栃木県","city":"足利市","address":"迫間町"},
{"zip_code":"3294425","kana_pref":"ﾄﾁｷﾞｹﾝ","kana_city":"ﾄﾁｷﾞｼ","kana_address":"ｵｵﾋﾗﾏﾁｱﾗｲ","pref":"栃木県","city":"栃木市","address":"大平町新"},
{"zip_code":"3294401","kana_pref":"ﾄﾁｷﾞｹﾝ","kana_city":"ﾄﾁｷﾞｼ","kana_address":"ｵｵﾋﾗﾏﾁｳｼｸ","pref":"栃木県","city":"栃木市","address":"大平町牛久"},
{"zip_code":"3294422","kana_pref":"ﾄﾁｷﾞｹﾝ","kana_city":"ﾄﾁｷﾞｼ","kana_address":"ｵｵﾋﾗﾏﾁｴﾉﾓﾄ","pref":"栃木県","city":"栃木市","address":"大平町榎本"},
{"zip_code":"3294413","kana_pref":"ﾄﾁｷﾞｹﾝ","kana_city":"ﾄﾁｷﾞｼ","kana_address":"ｵｵﾋﾗﾏﾁｶﾐﾀｶｼﾏ","pref":"栃木県","city":"栃木市","address":"大平町上高島"},
{"zip_code":"3294407","kana_pref":"ﾄﾁｷﾞｹﾝ","kana_city":"ﾄﾁｷﾞｼ","kana_address":"ｵｵﾋﾗﾏﾁｶﾜﾂﾚ","pref":"栃木県","city":"栃木市","address":"大平町川連"},
{"zip_code":"3294412","kana_pref":"ﾄﾁｷﾞｹﾝ","kana_city":"ﾄﾁｷﾞｼ","kana_address":"ｵｵﾋﾗﾏﾁｷﾀﾀｹｲ","pref":"栃木県","city":"栃木市","address":"大平町北武井"},
{"zip_code":"3294403","kana_pref":"ﾄﾁｷﾞｹﾝ","kana_city":"ﾄﾁｷﾞｼ","kana_address":"ｵｵﾋﾗﾏﾁｸﾗｲ","pref":"栃木県","city":"栃木市","address":"大平町蔵井"},
{"zip_code":"3294414","kana_pref":"ﾄﾁｷﾞｹﾝ","kana_city":"ﾄﾁｷﾞｼ","kana_address":"ｵｵﾋﾗﾏﾁｼﾓﾀｶｼﾏ","pref":"栃木県","city":"栃木市","address":"大平町下高島"},
{"zip_code":"3294406","kana_pref":"ﾄﾁｷﾞｹﾝ","kana_city":"ﾄﾁｷﾞｼ","kana_address":"ｵｵﾋﾗﾏﾁｼﾓﾐﾅｶﾞﾜ","pref":"栃木県","city":"栃木市","address":"大平町下皆川"},
{"zip_code":"3294404","kana_pref":"ﾄﾁｷﾞｹﾝ","kana_city":"ﾄﾁｷﾞｼ","kana_address":"ｵｵﾋﾗﾏﾁﾄﾐﾀﾞ","pref":"栃木県","city":"栃木市","address":"大平町富田"},
{"zip_code":"3294402","kana_pref":"ﾄﾁｷﾞｹﾝ","kana_city":"ﾄﾁｷﾞｼ","kana_address":"ｵｵﾋﾗﾏﾁﾄﾞﾖ","pref":"栃木県","city":"栃木市","address":"大平町土与"},
{"zip_code":"3294421","kana_pref":"ﾄﾁｷﾞｹﾝ","kana_city":"ﾄﾁｷﾞｼ","kana_address":"ｵｵﾋﾗﾏﾁﾆｼﾉﾀﾞ","pref":"栃木県","city":"栃木市","address":"大平町西野田"},
{"zip_code":"3294423","kana_pref":"ﾄﾁｷﾞｹﾝ","kana_city":"ﾄﾁｷﾞｼ","kana_address":"ｵｵﾋﾗﾏﾁﾆｼﾐｽﾞｼﾛ","pref":"栃木県","city":"栃木市","address":"大平町西水代"},
{"zip_code":"3294405","kana_pref":"ﾄﾁｷﾞｹﾝ","kana_city":"ﾄﾁｷﾞｼ","kana_address":"ｵｵﾋﾗﾏﾁﾆｼﾔﾏﾀﾞ","pref":"栃木県","city":"栃木市","address":"大平町西山田"},
{"zip_code":"3294424","kana_pref":"ﾄﾁｷﾞｹﾝ","kana_city":"ﾄﾁｷﾞｼ","kana_address":"ｵｵﾋﾗﾏﾁﾊｸﾁｭｳ","pref":"栃木県","city":"栃木市","address":"大平町伯仲"},
{"zip_code":"3294415","kana_pref":"ﾄﾁｷﾞｹﾝ","kana_city":"ﾄﾁｷﾞｼ","kana_address":"ｵｵﾋﾗﾏﾁﾏﾕﾐ","pref":"栃木県","city":"栃木市","address":"大平町真弓"},
{"zip_code":"3294411","kana_pref":"ﾄﾁｷﾞｹﾝ","kana_city":"ﾄﾁｷﾞｼ","kana_address":"ｵｵﾋﾗﾏﾁﾖｺﾎﾞﾘ","pref":"栃木県","city":"栃木市","address":"大平町横堀"},
{"zip_code":"3290316","kana_pref":"ﾄﾁｷﾞｹﾝ","kana_city":"ﾄﾁｷﾞｼ","kana_address":"ﾌｼﾞｵｶﾏﾁｲｼｶﾜ","pref":"栃木県","city":"栃木市","address":"藤岡町石川"},
{"zip_code":"3290317","kana_pref":"ﾄﾁｷﾞｹﾝ","kana_city":"ﾄﾁｷﾞｼ","kana_address":"ﾌｼﾞｵｶﾏﾁﾀﾃﾜｷ","pref":"栃木県","city":"栃木市","address":"藤岡町帯刀"},
{"zip_code":"3290311","kana_pref":"ﾄﾁｷﾞｹﾝ","kana_city":"ﾄﾁｷﾞｼ","kana_address":"ﾌｼﾞｵｶﾏﾁﾄﾐﾖｼ","pref":"栃木県","city":"栃木市","address":"藤岡町富吉"},
{"zip_code":"3290319","kana_pref":"ﾄﾁｷﾞｹﾝ","kana_city":"ﾄﾁｷﾞｼ","kana_address":"ﾌｼﾞｵｶﾏﾁﾅｶﾈ","pref":"栃木県","city":"栃木市","address":"藤岡町中根"},
{"zip_code":"3290318","kana_pref":"ﾄﾁｷﾞｹﾝ","kana_city":"ﾄﾁｷﾞｼ","kana_address":"ﾌｼﾞｵｶﾏﾁﾆｼﾏｴﾊﾗ","pref":"栃木県","city":"栃木市","address":"藤岡町西前原"},
{"zip_code":"3290314","kana_pref":"ﾄﾁｷﾞｹﾝ","kana_city":"ﾄﾁｷﾞｼ","kana_address":"ﾌｼﾞｵｶﾏﾁﾆｯﾊﾟ","pref":"栃木県","city":"栃木市","address":"藤岡町新波"},
{"zip_code":"3290312","kana_pref":"ﾄﾁｷﾞｹﾝ","kana_city":"ﾄﾁｷﾞｼ","kana_address":"ﾌｼﾞｵｶﾏﾁﾋﾙﾇﾏ","pref":"栃木県","city":"栃木市","address":"藤岡町蛭沼"},
{"zip_code":"3290315","kana_pref":"ﾄﾁｷﾞｹﾝ","kana_city":"ﾄﾁｷﾞｼ","kana_address":"ﾌｼﾞｵｶﾏﾁﾍﾔ","pref":"栃木県","city":"栃木市","address":"藤岡町部屋"},
{"zip_code":"3290313","kana_pref":"ﾄﾁｷﾞｹﾝ","kana_city":"ﾄﾁｷﾞｼ","kana_address":"ﾌｼﾞｵｶﾏﾁﾐﾄﾞﾘｶﾜ","pref":"栃木県","city":"栃木市","address":"藤岡町緑川"},
{"zip_code":"3290211","kana_pref":"ﾄﾁｷﾞｹﾝ","kana_city":"ｵﾔﾏｼ","kana_address":"ｱｶﾂｷ","pref":"栃木県","city":"小山市","address":"暁"},
{"zip_code":"3290215","kana_pref":"ﾄﾁｷﾞｹﾝ","kana_city":"ｵﾔﾏｼ","kana_address":"ｱｼﾞﾄ","pref":"栃木県","city":"小山市","address":"網戸"},
{"zip_code":"3290201","kana_pref":"ﾄﾁｷﾞｹﾝ","kana_city":"ｵﾔﾏｼ","kana_address":"ｱﾜﾉﾐﾔ","pref":"栃木県","city":"小山市","address":"粟宮"},
{"zip_code":"3290207","kana_pref":"ﾄﾁｷﾞｹﾝ","kana_city":"ｵﾔﾏｼ","kana_address":"ｳﾂｸｼｶﾞｵｶ","pref":"栃木県","city":"小山市","address":"美しが丘"},
{"zip_code":"3290228","kana_pref":"ﾄﾁｷﾞｹﾝ","kana_city":"ｵﾔﾏｼ","kana_address":"ｵｼｷﾘ","pref":"栃木県","city":"小山市","address":"押切"},
{"zip_code":"3290214","kana_pref":"ﾄﾁｷﾞｹﾝ","kana_city":"ｵﾔﾏｼ","kana_address":"ｵﾄﾒ","pref":"栃木県","city":"小山市","address":"乙女"},
{"zip_code":"3290229","kana_pref":"ﾄﾁｷﾞｹﾝ","kana_city":"ｵﾔﾏｼ","kana_address":"ｶｶﾞﾐ","pref":"栃木県","city":"小山市","address":"鏡"},
{"zip_code":"3290222","kana_pref":"ﾄﾁｷﾞｹﾝ","kana_city":"ｵﾔﾏｼ","kana_address":"ｶﾐﾅﾏｲ","pref":"栃木県","city":"小山市","address":"上生井"},
{"zip_code":"3290221","kana_pref":"ﾄﾁｷﾞｹﾝ","kana_city":"ｵﾔﾏｼ","kana_address":"ｷﾗ","pref":"栃木県","city":"小山市","address":"生良"},
{"zip_code":"3290226","kana_pref":"ﾄﾁｷﾞｹﾝ","kana_city":"ｵﾔﾏｼ","kana_address":"ｻﾑｶﾜ","pref":"栃木県","city":"小山市","address":"寒川"},
{"zip_code":"3290223","kana_pref":"ﾄﾁｷﾞｹﾝ","kana_city":"ｵﾔﾏｼ","kana_address":"ｼﾓﾅﾏｲ","pref":"栃木県","city":"小山市","address":"下生井"},
{"zip_code":"3290224","kana_pref":"ﾄﾁｷﾞｹﾝ","kana_city":"ｵﾔﾏｼ","kana_address":"ｼﾗﾄﾘ","pref":"栃木県","city":"小山市","address":"白鳥"},
{"zip_code":"3290202","kana_pref":"ﾄﾁｷﾞｹﾝ","kana_city":"ｵﾔﾏｼ","kana_address":"ｾﾝﾀﾞﾂﾞｶ","pref":"栃木県","city":"小山市","address":"千駄塚"},
{"zip_code":"3290227","kana_pref":"ﾄﾁｷﾞｹﾝ","kana_city":"ｵﾔﾏｼ","kana_address":"ﾅｶｻﾞﾄ","pref":"栃木県","city":"小山市","address":"中里"},
{"zip_code":"3290216","kana_pref":"ﾄﾁｷﾞｹﾝ","kana_city":"ｵﾔﾏｼ","kana_address":"ﾅﾗﾉｷ","pref":"栃木県","city":"小山市","address":"楢木"},
{"zip_code":"3290203","kana_pref":"ﾄﾁｷﾞｹﾝ","kana_city":"ｵﾔﾏｼ","kana_address":"ﾆｼｸﾛﾀﾞ","pref":"栃木県","city":"小山市","address":"西黒田"},
{"zip_code":"3290225","kana_pref":"ﾄﾁｷﾞｹﾝ","kana_city":"ｵﾔﾏｼ","kana_address":"ﾊｻﾏﾀﾞ","pref":"栃木県","city":"小山市","address":"迫間田"},
{"zip_code":"3290204","kana_pref":"ﾄﾁｷﾞｹﾝ","kana_city":"ｵﾔﾏｼ","kana_address":"ﾋｶﾞｼｸﾛﾀﾞ","pref":"栃木県","city":"小山市","address":"東黒田"},
{"zip_code":"3290206","kana_pref":"ﾄﾁｷﾞｹﾝ","kana_city":"ｵﾔﾏｼ","kana_address":"ﾋｶﾞｼﾏﾏﾀﾞ","pref":"栃木県","city":"小山市","address":"東間々田"},
{"zip_code":"3290212","kana_pref":"ﾄﾁｷﾞｹﾝ","kana_city":"ｵﾔﾏｼ","kana_address":"ﾋﾗﾜ","pref":"栃木県","city":"小山市","address":"平和"},
{"zip_code":"3290205","kana_pref":"ﾄﾁｷﾞｹﾝ","kana_city":"ｵﾔﾏｼ","kana_address":"ﾏﾏﾀﾞ","pref":"栃木県","city":"小山市","address":"間々田"},
{"zip_code":"3290213","kana_pref":"ﾄﾁｷﾞｹﾝ","kana_city":"ｵﾔﾏｼ","kana_address":"ﾐﾅﾐｲｲﾀﾞ","pref":"栃木県","city":"小山市","address":"南飯田"},
{"zip_code":"3290217","kana_pref":"ﾄﾁｷﾞｹﾝ","kana_city":"ｵﾔﾏｼ","kana_address":"ﾐﾅﾐｵﾄﾒ","pref":"栃木県","city":"小山市","address":"南乙女"},
{"zip_code":"3292100","kana_pref":"ﾄﾁｷﾞｹﾝ","kana_city":"ﾔｲﾀｼ","kana_address":"","pref":"栃木県","city":"矢板市","address":""},
{"zip_code":"3292136","kana_pref":"ﾄﾁｷﾞｹﾝ","kana_city":"ﾔｲﾀｼ","kana_address":"ｱｽﾞﾏﾁｮｳ","pref":"栃木県","city":"矢板市","address":"東町"},
{"zip_code":"3292121","kana_pref":"ﾄﾁｷﾞｹﾝ","kana_city":"ﾔｲﾀｼ","kana_address":"ｱﾗｲ","pref":"栃木県","city":"矢板市","address":"荒井"},
{"zip_code":"3291572","kana_pref":"ﾄﾁｷﾞｹﾝ","kana_city":"ﾔｲﾀｼ","kana_address":"ｱﾝｻﾞﾜ","pref":"栃木県","city":"矢板市","address":"安沢"},
{"zip_code":"3291576","kana_pref":"ﾄﾁｷﾞｹﾝ","kana_city":"ﾔｲﾀｼ","kana_address":"ｲｼｾﾞｷ","pref":"栃木県","city":"矢板市","address":"石関"},
{"zip_code":"3292504","kana_pref":"ﾄﾁｷﾞｹﾝ","kana_city":"ﾔｲﾀｼ","kana_address":"ｲｽﾞﾐ","pref":"栃木県","city":"矢板市","address":"泉"},
{"zip_code":"3292161","kana_pref":"ﾄﾁｷﾞｹﾝ","kana_city":"ﾔｲﾀｼ","kana_address":"ｵｳｷﾞﾁｮｳ","pref":"栃木県","city":"矢板市","address":"扇町"},
{"zip_code":"3291575","kana_pref":"ﾄﾁｷﾞｹﾝ","kana_city":"ﾔｲﾀｼ","kana_address":"ｵｵﾂｷ","pref":"栃木県","city":"矢板市","address":"大槻"},
{"zip_code":"3291574","kana_pref":"ﾄﾁｷﾞｹﾝ","kana_city":"ﾔｲﾀｼ","kana_address":"ｵﾂﾊﾀ","pref":"栃木県","city":"矢板市","address":"乙畑"},
{"zip_code":"3292163","kana_pref":"ﾄﾁｷﾞｹﾝ","kana_city":"ﾔｲﾀｼ","kana_address":"ｶｼﾏﾁｮｳ","pref":"栃木県","city":"矢板市","address":"鹿島町"},
{"zip_code":"3291571","kana_pref":"ﾄﾁｷﾞｹﾝ","kana_city":"ﾔｲﾀｼ","kana_address":"ｶﾀｵｶ","pref":"栃木県","city":"矢板市","address":"片岡"},
{"zip_code":"3292155","kana_pref":"ﾄﾁｷﾞｹﾝ","kana_city":"ﾔｲﾀｼ","kana_address":"ｶﾀﾏﾀ","pref":"栃木県","city":"矢板市","address":"片俣"},
{"zip_code":"3292501","kana_pref":"ﾄﾁｷﾞｹﾝ","kana_city":"ﾔｲﾀｼ","kana_address":"ｶﾐｲｻﾉ","pref":"栃木県","city":"矢板市","address":"上伊佐野"},
{"zip_code":"3292513","kana_pref":"ﾄﾁｷﾞｹﾝ","kana_city":"ﾔｲﾀｼ","kana_address":"ｶﾐｵｵﾀ","pref":"栃木県","city":"矢板市","address":"上太田"},
{"zip_code":"3292123","kana_pref":"ﾄﾁｷﾞｹﾝ","kana_city":"ﾔｲﾀｼ","kana_address":"ｶﾐﾁｮｳ","pref":"栃木県","city":"矢板市","address":"上町"},
{"zip_code":"3292144","kana_pref":"ﾄﾁｷﾞｹﾝ","kana_city":"ﾔｲﾀｼ","kana_address":"ｶﾜｻｷｿﾘﾏﾁ","pref":"栃木県","city":"矢板市","address":"川崎反町"},
{"zip_code":"3292142","kana_pref":"ﾄﾁｷﾞｹﾝ","kana_city":"ﾔｲﾀｼ","kana_address":"ｷﾊﾞﾀ","pref":"栃木県","city":"矢板市","address":"木幡"},
{"zip_code":"3292154","kana_pref":"ﾄﾁｷﾞｹﾝ","kana_city":"ﾔｲﾀｼ","kana_address":"ｸﾗｶｹ","pref":"栃木県","city":"矢板市","address":"倉掛"},
{"zip_code":"3292151","kana_pref":"ﾄﾁｷﾞｹﾝ","kana_city":"ﾔｲﾀｼ","kana_address":"ｺｳｵｶ","pref":"栃木県","city":"矢板市","address":"幸岡"},
{"zip_code":"3291573","kana_pref":"ﾄﾁｷﾞｹﾝ","kana_city":"ﾔｲﾀｼ","kana_address":"ｺｴﾊﾀ","pref":"栃木県","city":"矢板市","address":"越畑"},
{"zip_code":"3291579","kana_pref":"ﾄﾁｷﾞｹﾝ","kana_city":"ﾔｲﾀｼ","kana_address":"ｺﾌﾞｼﾀﾞｲ","pref":"栃木県","city":"矢板市","address":"こぶし台"},
{"zip_code":"3292143","kana_pref":"ﾄﾁｷﾞｹﾝ","kana_city":"ﾔｲﾀｼ","kana_address":"ｻｶｲﾊﾞﾔｼ","pref":"栃木県","city":"矢板市","address":"境林"},
{"zip_code":"3292132","kana_pref":"ﾄﾁｷﾞｹﾝ","kana_city":"ﾔｲﾀｼ","kana_address":"ｻﾜ","pref":"栃木県","city":"矢板市","address":"沢"},
{"zip_code":"3292156","kana_pref":"ﾄﾁｷﾞｹﾝ","kana_city":"ﾔｲﾀｼ","kana_address":"ｼｵﾀﾞ","pref":"栃木県","city":"矢板市","address":"塩田"},
{"zip_code":"3292502","kana_pref":"ﾄﾁｷﾞｹﾝ","kana_city":"ﾔｲﾀｼ","kana_address":"ｼﾓｲｻﾉ","pref":"栃木県","city":"矢板市","address":"下伊佐野"},
{"zip_code":"3292124","kana_pref":"ﾄﾁｷﾞｹﾝ","kana_city":"ﾔｲﾀｼ","kana_address":"ｼﾓｵｵﾀ","pref":"栃木県","city":"矢板市","address":"下太田"},
{"zip_code":"3292162","kana_pref":"ﾄﾁｷﾞｹﾝ","kana_city":"ﾔｲﾀｼ","kana_address":"ｽｴﾋﾛﾁｮｳ","pref":"栃木県","city":"矢板市","address":"末広町"},
{"zip_code":"3292153","kana_pref":"ﾄﾁｷﾞｹﾝ","kana_city":"ﾔｲﾀｼ","kana_address":"ﾀｶｼｵ","pref":"栃木県","city":"矢板市","address":"高塩"},
{"zip_code":"3292505","kana_pref":"ﾄﾁｷﾞｹﾝ","kana_city":"ﾔｲﾀｼ","kana_address":"ﾀﾂｱｼ","pref":"栃木県","city":"矢板市","address":"立足"},
{"zip_code":"3292152","kana_pref":"ﾄﾁｷﾞｹﾝ","kana_city":"ﾔｲﾀｼ","kana_address":"ﾀﾃﾉｶﾜ","pref":"栃木県","city":"矢板市","address":"館ノ川"},
{"zip_code":"3292503","kana_pref":"ﾄﾁｷﾞｹﾝ","kana_city":"ﾔｲﾀｼ","kana_address":"ﾀﾉﾊﾗ","pref":"栃木県","city":"矢板市","address":"田野原"},
{"zip_code":"3291577","kana_pref":"ﾄﾁｷﾞｹﾝ","kana_city":"ﾔｲﾀｼ","kana_address":"ﾀﾏﾀﾞ","pref":"栃木県","city":"矢板市","address":"玉田"},
{"zip_code":"3292131","kana_pref":"ﾄﾁｷﾞｹﾝ","kana_city":"ﾔｲﾀｼ","kana_address":"ﾂﾁﾔ","pref":"栃木県","city":"矢板市","address":"土屋"},
{"zip_code":"3292145","kana_pref":"ﾄﾁｷﾞｹﾝ","kana_city":"ﾔｲﾀｼ","kana_address":"ﾄﾐﾀ","pref":"栃木県","city":"矢板市","address":"富田"},
{"zip_code":"3292133","kana_pref":"ﾄﾁｷﾞｹﾝ","kana_city":"ﾔｲﾀｼ","kana_address":"ﾄﾖﾀﾞ","pref":"栃木県","city":"矢板市","address":"豊田"},
{"zip_code":"3292135","kana_pref":"ﾄﾁｷﾞｹﾝ","kana_city":"ﾔｲﾀｼ","kana_address":"ﾅｶ","pref":"栃木県","city":"矢板市","address":"中"},
{"zip_code":"3292514","kana_pref":"ﾄﾁｷﾞｹﾝ","kana_city":"ﾔｲﾀｼ","kana_address":"ﾅｶﾞｲ","pref":"栃木県","city":"矢板市","address":"長井"},
{"zip_code":"3292134","kana_pref":"ﾄﾁｷﾞｹﾝ","kana_city":"ﾔｲﾀｼ","kana_address":"ﾅﾘﾀ","pref":"栃木県","city":"矢板市","address":"成田"},
{"zip_code":"3292141","kana_pref":"ﾄﾁｷﾞｹﾝ","kana_city":"ﾔｲﾀｼ","kana_address":"ﾊﾔｶﾜﾁｮｳ","pref":"栃木県","city":"矢板市","address":"早川町"},
{"zip_code":"3292122","kana_pref":"ﾄﾁｷﾞｹﾝ","kana_city":"ﾔｲﾀｼ","kana_address":"ﾊﾘｳ","pref":"栃木県","city":"矢板市","address":"針生"},
{"zip_code":"3292512","kana_pref":"ﾄﾁｷﾞｹﾝ","kana_city":"ﾔｲﾀｼ","kana_address":"ﾋｶﾞｼｲｽﾞﾐ","pref":"栃木県","city":"矢板市","address":"東泉"},
{"zip_code":"3292506","kana_pref":"ﾄﾁｷﾞｹﾝ","kana_city":"ﾔｲﾀｼ","kana_address":"ﾋﾗﾉ","pref":"栃木県","city":"矢板市","address":"平野"},
{"zip_code":"3292164","kana_pref":"ﾄﾁｷﾞｹﾝ","kana_city":"ﾔｲﾀｼ","kana_address":"ﾎﾝﾁｮｳ","pref":"栃木県","city":"矢板市","address":"本町"},
{"zip_code":"3292165","kana_pref":"ﾄﾁｷﾞｹﾝ","kana_city":"ﾔｲﾀｼ","kana_address":"ﾔｲﾀ","pref":"栃木県","city":"矢板市","address":"矢板"},
{"zip_code":"3292511","kana_pref":"ﾄﾁｷﾞｹﾝ","kana_city":"ﾔｲﾀｼ","kana_address":"ﾔﾏﾀﾞ","pref":"栃木県","city":"矢板市","address":"山田"},
{"zip_code":"3291578","kana_pref":"ﾄﾁｷﾞｹﾝ","kana_city":"ﾔｲﾀｼ","kana_address":"ﾔﾏﾅﾜｼﾛ","pref":"栃木県","city":"矢板市","address":"山苗代"},
{"zip_code":"3292721","kana_pref":"ﾄﾁｷﾞｹﾝ","kana_city":"ﾅｽｼｵﾊﾞﾗｼ","kana_address":"ｱｽﾞﾏﾁｮｳ","pref":"栃木県","city":"那須塩原市","address":"東町"},
{"zip_code":"3292725","kana_pref":"ﾄﾁｷﾞｹﾝ","kana_city":"ﾅｽｼｵﾊﾞﾗｼ","kana_address":"ｱﾀｺﾞﾁｮｳ","pref":"栃木県","city":"那須塩原市","address":"あたご町"},
{"zip_code":"3292763","kana_pref":"ﾄﾁｷﾞｹﾝ","kana_city":"ﾅｽｼｵﾊﾞﾗｼ","kana_address":"ｲｸﾞﾁ","pref":"栃木県","city":"那須塩原市","address":"井口"},
{"zip_code":"3292711","kana_pref":"ﾄﾁｷﾞｹﾝ","kana_city":"ﾅｽｼｵﾊﾞﾗｼ","kana_address":"ｲｼﾊﾞﾔｼ","pref":"栃木県","city":"那須塩原市","address":"石林"},
{"zip_code":"3292732","kana_pref":"ﾄﾁｷﾞｹﾝ","kana_city":"ﾅｽｼｵﾊﾞﾗｼ","kana_address":"ｲｯｸﾁｮｳ","pref":"栃木県","city":"那須塩原市","address":"一区町"},
{"zip_code":"3292816","kana_pref":"ﾄﾁｷﾞｹﾝ","kana_city":"ﾅｽｼｵﾊﾞﾗｼ","kana_address":"ｳﾂﾉ","pref":"栃木県","city":"那須塩原市","address":"宇都野"},
{"zip_code":"3292726","kana_pref":"ﾄﾁｷﾞｹﾝ","kana_city":"ﾅｽｼｵﾊﾞﾗｼ","kana_address":"ｵｳｷﾞﾁｮｳ","pref":"栃木県","city":"那須塩原市","address":"扇町"},
{"zip_code":"3293153","kana_pref":"ﾄﾁｷﾞｹﾝ","kana_city":"ﾅｽｼｵﾊﾞﾗｼ","kana_address":"ｵｵﾊﾗﾏ","pref":"栃木県","city":"那須塩原市","address":"大原間"},
{"zip_code":"3293157","kana_pref":"ﾄﾁｷﾞｹﾝ","kana_city":"ﾅｽｼｵﾊﾞﾗｼ","kana_address":"ｵｵﾊﾗﾏﾆｼ","pref":"栃木県","city":"那須塩原市","address":"大原間西"},
{"zip_code":"3292803","kana_pref":"ﾄﾁｷﾞｹﾝ","kana_city":"ﾅｽｼｵﾊﾞﾗｼ","kana_address":"ｵｿﾉｻﾜ","pref":"栃木県","city":"那須塩原市","address":"遅野沢"},
{"zip_code":"3292804","kana_pref":"ﾄﾁｷﾞｹﾝ","kana_city":"ﾅｽｼｵﾊﾞﾗｼ","kana_address":"ｵﾘﾄﾞ","pref":"栃木県","city":"那須塩原市","address":"折戸"},
{"zip_code":"3292812","kana_pref":"ﾄﾁｷﾞｹﾝ","kana_city":"ﾅｽｼｵﾊﾞﾗｼ","kana_address":"ｶﾈｻﾞﾜ","pref":"栃木県","city":"那須塩原市","address":"金沢"},
{"zip_code":"3293121","kana_pref":"ﾄﾁｷﾞｹﾝ","kana_city":"ﾅｽｼｵﾊﾞﾗｼ","kana_address":"ｶﾉｻｷ","pref":"栃木県","city":"那須塩原市","address":"鹿野崎"},
{"zip_code":"3292748","kana_pref":"ﾄﾁｷﾞｹﾝ","kana_city":"ﾅｽｼｵﾊﾞﾗｼ","kana_address":"ｶﾐｱｶﾀﾞ","pref":"栃木県","city":"那須塩原市","address":"上赤田"},
{"zip_code":"3293134","kana_pref":"ﾄﾁｷﾞｹﾝ","kana_city":"ﾅｽｼｵﾊﾞﾗｼ","kana_address":"ｶﾐｵｵﾂｶｼﾝﾃﾞﾝ","pref":"栃木県","city":"那須塩原市","address":"上大塚新田"},
{"zip_code":"3292814","kana_pref":"ﾄﾁｷﾞｹﾝ","kana_city":"ﾅｽｼｵﾊﾞﾗｼ","kana_address":"ｶﾐｵｵﾇｷ","pref":"栃木県","city":"那須塩原市","address":"上大貫"},
{"zip_code":"3293127","kana_pref":"ﾄﾁｷﾞｹﾝ","kana_city":"ﾅｽｼｵﾊﾞﾗｼ","kana_address":"ｶﾐｺﾞｳﾔ","pref":"栃木県","city":"那須塩原市","address":"上郷屋"},
{"zip_code":"3292923","kana_pref":"ﾄﾁｷﾞｹﾝ","kana_city":"ﾅｽｼｵﾊﾞﾗｼ","kana_address":"ｶﾐｼｵﾊﾞﾗ","pref":"栃木県","city":"那須塩原市","address":"上塩原"},
{"zip_code":"3293154","kana_pref":"ﾄﾁｷﾞｹﾝ","kana_city":"ﾅｽｼｵﾊﾞﾗｼ","kana_address":"ｶﾐﾅｶﾉ","pref":"栃木県","city":"那須塩原市","address":"上中野"},
{"zip_code":"3292805","kana_pref":"ﾄﾁｷﾞｹﾝ","kana_city":"ﾅｽｼｵﾊﾞﾗｼ","kana_address":"ｶﾐﾖｺﾊﾞﾔｼ","pref":"栃木県","city":"那須塩原市","address":"上横林"},
{"zip_code":"3293131","kana_pref":"ﾄﾁｷﾞｹﾝ","kana_city":"ﾅｽｼｵﾊﾞﾗｼ","kana_address":"ｶﾗｽｷﾞ","pref":"栃木県","city":"那須塩原市","address":"唐杉"},
{"zip_code":"3293145","kana_pref":"ﾄﾁｷﾞｹﾝ","kana_city":"ﾅｽｼｵﾊﾞﾗｼ","kana_address":"ｷｿﾊﾀﾅｶ","pref":"栃木県","city":"那須塩原市","address":"木曾畑中"},
{"zip_code":"3292741","kana_pref":"ﾄﾁｷﾞｹﾝ","kana_city":"ﾅｽｼｵﾊﾞﾗｼ","kana_address":"ｷﾀｱｶﾀﾞ","pref":"栃木県","city":"那須塩原市","address":"北赤田"},
{"zip_code":"3292734","kana_pref":"ﾄﾁｷﾞｹﾝ","kana_city":"ﾅｽｼｵﾊﾞﾗｼ","kana_address":"ｷﾀﾌﾀﾂﾑﾛ","pref":"栃木県","city":"那須塩原市","address":"北二つ室"},
{"zip_code":"3293132","kana_pref":"ﾄﾁｷﾞｹﾝ","kana_city":"ﾅｽｼｵﾊﾞﾗｼ","kana_address":"ｷﾀﾔﾛｸ","pref":"栃木県","city":"那須塩原市","address":"北弥六"},
{"zip_code":"3293151","kana_pref":"ﾄﾁｷﾞｹﾝ","kana_city":"ﾅｽｼｵﾊﾞﾗｼ","kana_address":"ｷﾀﾜﾀﾞ","pref":"栃木県","city":"那須塩原市","address":"北和田"},
{"zip_code":"3293133","kana_pref":"ﾄﾁｷﾞｹﾝ","kana_city":"ﾅｽｼｵﾊﾞﾗｼ","kana_address":"ｸﾂｶｹ","pref":"栃木県","city":"那須塩原市","address":"沓掛"},
{"zip_code":"3292753","kana_pref":"ﾄﾁｷﾞｹﾝ","kana_city":"ﾅｽｼｵﾊﾞﾗｼ","kana_address":"ｺﾞｹﾝﾁｮｳ","pref":"栃木県","city":"那須塩原市","address":"五軒町"},
{"zip_code":"3293155","kana_pref":"ﾄﾁｷﾞｹﾝ","kana_city":"ﾅｽｼｵﾊﾞﾗｼ","kana_address":"ｻｻﾇﾏ","pref":"栃木県","city":"那須塩原市","address":"笹沼"},
{"zip_code":"3293142","kana_pref":"ﾄﾁｷﾞｹﾝ","kana_city":"ﾅｽｼｵﾊﾞﾗｼ","kana_address":"ｻﾉ","pref":"栃木県","city":"那須塩原市","address":"佐野"},
{"zip_code":"3292745","kana_pref":"ﾄﾁｷﾞｹﾝ","kana_city":"ﾅｽｼｵﾊﾞﾗｼ","kana_address":"ｻﾝｸﾁｮｳ","pref":"栃木県","city":"那須塩原市","address":"三区町"},
{"zip_code":"3293143","kana_pref":"ﾄﾁｷﾞｹﾝ","kana_city":"ﾅｽｼｵﾊﾞﾗｼ","kana_address":"ｻﾝﾎﾞﾝｷﾞ","pref":"栃木県","city":"那須塩原市","address":"三本木"},
{"zip_code":"3293122","kana_pref":"ﾄﾁｷﾞｹﾝ","kana_city":"ﾅｽｼｵﾊﾞﾗｼ","kana_address":"ｼｵﾉｻｷ","pref":"栃木県","city":"那須塩原市","address":"塩野崎"},
{"zip_code":"3293123","kana_pref":"ﾄﾁｷﾞｹﾝ","kana_city":"ﾅｽｼｵﾊﾞﾗｼ","kana_address":"ｼｵﾉｻｷｼﾝﾃﾞﾝ","pref":"栃木県","city":"那須塩原市","address":"塩野崎新田"},
{"zip_code":"3292921","kana_pref":"ﾄﾁｷﾞｹﾝ","kana_city":"ﾅｽｼｵﾊﾞﾗｼ","kana_address":"ｼｵﾊﾞﾗ","pref":"栃木県","city":"那須塩原市","address":"塩原"},
{"zip_code":"3293152","kana_pref":"ﾄﾁｷﾞｹﾝ","kana_city":"ﾅｽｼｵﾊﾞﾗｼ","kana_address":"ｼﾏｶﾀ","pref":"栃木県","city":"那須塩原市","address":"島方"},
{"zip_code":"3292815","kana_pref":"ﾄﾁｷﾞｹﾝ","kana_city":"ﾅｽｼｵﾊﾞﾗｼ","kana_address":"ｼﾓｵｵﾇｷ","pref":"栃木県","city":"那須塩原市","address":"下大貫"},
{"zip_code":"3292811","kana_pref":"ﾄﾁｷﾞｹﾝ","kana_city":"ﾅｽｼｵﾊﾞﾗｼ","kana_address":"ｼﾓﾀﾉ","pref":"栃木県","city":"那須塩原市","address":"下田野"},
{"zip_code":"3292712","kana_pref":"ﾄﾁｷﾞｹﾝ","kana_city":"ﾅｽｼｵﾊﾞﾗｼ","kana_address":"ｼﾓﾅｶﾞﾀ","pref":"栃木県","city":"那須塩原市","address":"下永田"},
{"zip_code":"3293146","kana_pref":"ﾄﾁｷﾞｹﾝ","kana_city":"ﾅｽｼｵﾊﾞﾗｼ","kana_address":"ｼﾓﾅｶﾉ","pref":"栃木県","city":"那須塩原市","address":"下中野"},
{"zip_code":"3292704","kana_pref":"ﾄﾁｷﾞｹﾝ","kana_city":"ﾅｽｼｵﾊﾞﾗｼ","kana_address":"ｼﾝﾅﾝ","pref":"栃木県","city":"那須塩原市","address":"新南"},
{"zip_code":"3292701","kana_pref":"ﾄﾁｷﾞｹﾝ","kana_city":"ﾅｽｼｵﾊﾞﾗｼ","kana_address":"ｾｷﾈ","pref":"栃木県","city":"那須塩原市","address":"関根"},
{"zip_code":"3292801","kana_pref":"ﾄﾁｷﾞｹﾝ","kana_city":"ﾅｽｼｵﾊﾞﾗｼ","kana_address":"ｾｷﾔ","pref":"栃木県","city":"那須塩原市","address":"関谷"},
{"zip_code":"3292747","kana_pref":"ﾄﾁｷﾞｹﾝ","kana_city":"ﾅｽｼｵﾊﾞﾗｼ","kana_address":"ｾﾝﾎﾞﾝﾏﾂ","pref":"栃木県","city":"那須塩原市","address":"千本松"},
{"zip_code":"3292813","kana_pref":"ﾄﾁｷﾞｹﾝ","kana_city":"ﾅｽｼｵﾊﾞﾗｼ","kana_address":"ﾀｶｱﾂ","pref":"栃木県","city":"那須塩原市","address":"高阿津"},
{"zip_code":"3292707","kana_pref":"ﾄﾁｷﾞｹﾝ","kana_city":"ﾅｽｼｵﾊﾞﾗｼ","kana_address":"ﾀｶﾔﾅｷﾞ","pref":"栃木県","city":"那須塩原市","address":"高柳"},
{"zip_code":"3292735","kana_pref":"ﾄﾁｷﾞｹﾝ","kana_city":"ﾅｽｼｵﾊﾞﾗｼ","kana_address":"ﾀﾕｳﾂﾞｶ","pref":"栃木県","city":"那須塩原市","address":"太夫塚"},
{"zip_code":"3292703","kana_pref":"ﾄﾁｷﾞｹﾝ","kana_city":"ﾅｽｼｵﾊﾞﾗｼ","kana_address":"ﾂｷﾇｷｻﾞﾜ","pref":"栃木県","city":"那須塩原市","address":"槻沢"},
{"zip_code":"3293126","kana_pref":"ﾄﾁｷﾞｹﾝ","kana_city":"ﾅｽｼｵﾊﾞﾗｼ","kana_address":"ﾅｶｳﾁ","pref":"栃木県","city":"那須塩原市","address":"中内"},
{"zip_code":"3292924","kana_pref":"ﾄﾁｷﾞｹﾝ","kana_city":"ﾅｽｼｵﾊﾞﾗｼ","kana_address":"ﾅｶｼｵﾊﾞﾗ","pref":"栃木県","city":"那須塩原市","address":"中塩原"},
{"zip_code":"3292727","kana_pref":"ﾄﾁｷﾞｹﾝ","kana_city":"ﾅｽｼｵﾊﾞﾗｼ","kana_address":"ﾅｶﾞﾀﾁｮｳ","pref":"栃木県","city":"那須塩原市","address":"永田町"},
{"zip_code":"3292733","kana_pref":"ﾄﾁｷﾞｹﾝ","kana_city":"ﾅｽｼｵﾊﾞﾗｼ","kana_address":"ﾆｸﾁｮｳ","pref":"栃木県","city":"那須塩原市","address":"二区町"},
{"zip_code":"3292744","kana_pref":"ﾄﾁｷﾞｹﾝ","kana_city":"ﾅｽｼｵﾊﾞﾗｼ","kana_address":"ﾆｼｱｶﾀﾞ","pref":"栃木県","city":"那須塩原市","address":"西赤田"},
{"zip_code":"3292722","kana_pref":"ﾄﾁｷﾞｹﾝ","kana_city":"ﾅｽｼｵﾊﾞﾗｼ","kana_address":"ﾆｼｱｻﾋﾁｮｳ","pref":"栃木県","city":"那須塩原市","address":"西朝日町"},
{"zip_code":"3292764","kana_pref":"ﾄﾁｷﾞｹﾝ","kana_city":"ﾅｽｼｵﾊﾞﾗｼ","kana_address":"ﾆｼｵｿｻﾞﾜ","pref":"栃木県","city":"那須塩原市","address":"西遅沢"},
{"zip_code":"3292724","kana_pref":"ﾄﾁｷﾞｹﾝ","kana_city":"ﾅｽｼｵﾊﾞﾗｼ","kana_address":"ﾆｼｻｲﾜｲﾁｮｳ","pref":"栃木県","city":"那須塩原市","address":"西幸町"},
{"zip_code":"3292728","kana_pref":"ﾄﾁｷﾞｹﾝ","kana_city":"ﾅｽｼｵﾊﾞﾗｼ","kana_address":"ﾆｼｻｶｴﾁｮｳ","pref":"栃木県","city":"那須塩原市","address":"西栄町"},
{"zip_code":"3292762","kana_pref":"ﾄﾁｷﾞｹﾝ","kana_city":"ﾅｽｼｵﾊﾞﾗｼ","kana_address":"ﾆｼﾄﾐﾔﾏ","pref":"栃木県","city":"那須塩原市","address":"西富山"},
{"zip_code":"3292755","kana_pref":"ﾄﾁｷﾞｹﾝ","kana_city":"ﾅｽｼｵﾊﾞﾗｼ","kana_address":"ﾆｼﾊﾗﾁｮｳ","pref":"栃木県","city":"那須塩原市","address":"西原町"},
{"zip_code":"3292756","kana_pref":"ﾄﾁｷﾞｹﾝ","kana_city":"ﾅｽｼｵﾊﾞﾗｼ","kana_address":"ﾆｼﾐｼﾏ","pref":"栃木県","city":"那須塩原市","address":"西三島"},
{"zip_code":"3292754","kana_pref":"ﾄﾁｷﾞｹﾝ","kana_city":"ﾅｽｼｵﾊﾞﾗｼ","kana_address":"ﾆｼﾔﾏﾄ","pref":"栃木県","city":"那須塩原市","address":"西大和"},
{"zip_code":"3292807","kana_pref":"ﾄﾁｷﾞｹﾝ","kana_city":"ﾅｽｼｵﾊﾞﾗｼ","kana_address":"ﾆﾜﾄｺ","pref":"栃木県","city":"那須塩原市","address":"接骨木"},
{"zip_code":"3293144","kana_pref":"ﾄﾁｷﾞｹﾝ","kana_city":"ﾅｽｼｵﾊﾞﾗｼ","kana_address":"ﾇﾏﾉﾀﾜ","pref":"栃木県","city":"那須塩原市","address":"沼野田和"},
{"zip_code":"3293124","kana_pref":"ﾄﾁｷﾞｹﾝ","kana_city":"ﾅｽｼｵﾊﾞﾗｼ","kana_address":"ﾊｯﾀﾁ","pref":"栃木県","city":"那須塩原市","address":"波立"},
{"zip_code":"3292742","kana_pref":"ﾄﾁｷﾞｹﾝ","kana_city":"ﾅｽｼｵﾊﾞﾗｼ","kana_address":"ﾋｶﾞｼｱｶﾀﾞ","pref":"栃木県","city":"那須塩原市","address":"東赤田"},
{"zip_code":"3292761","kana_pref":"ﾄﾁｷﾞｹﾝ","kana_city":"ﾅｽｼｵﾊﾞﾗｼ","kana_address":"ﾋｶﾞｼｵｿｻﾞﾜ","pref":"栃木県","city":"那須塩原市","address":"東遅沢"},
{"zip_code":"3293147","kana_pref":"ﾄﾁｷﾞｹﾝ","kana_city":"ﾅｽｼｵﾊﾞﾗｼ","kana_address":"ﾋｶﾞｼｺﾔ","pref":"栃木県","city":"那須塩原市","address":"東小屋"},
{"zip_code":"3292702","kana_pref":"ﾄﾁｷﾞｹﾝ","kana_city":"ﾅｽｼｵﾊﾞﾗｼ","kana_address":"ﾋｶﾞｼｾｷﾈ","pref":"栃木県","city":"那須塩原市","address":"東関根"},
{"zip_code":"3292751","kana_pref":"ﾄﾁｷﾞｹﾝ","kana_city":"ﾅｽｼｵﾊﾞﾗｼ","kana_address":"ﾋｶﾞｼﾐｼﾏ","pref":"栃木県","city":"那須塩原市","address":"東三島"},
{"zip_code":"3292802","kana_pref":"ﾄﾁｷﾞｹﾝ","kana_city":"ﾅｽｼｵﾊﾞﾗｼ","kana_address":"ﾋｷﾇﾏ","pref":"栃木県","city":"那須塩原市","address":"蟇沼"},
{"zip_code":"3292731","kana_pref":"ﾄﾁｷﾞｹﾝ","kana_city":"ﾅｽｼｵﾊﾞﾗｼ","kana_address":"ﾌﾀﾂﾑﾛ","pref":"栃木県","city":"那須塩原市","address":"二つ室"},
{"zip_code":"3293156","kana_pref":"ﾄﾁｷﾞｹﾝ","kana_city":"ﾅｽｼｵﾊﾞﾗｼ","kana_address":"ﾎｳｷｮｳ","pref":"栃木県","city":"那須塩原市","address":"方京"},
{"zip_code":"3293135","kana_pref":"ﾄﾁｷﾞｹﾝ","kana_city":"ﾅｽｼｵﾊﾞﾗｼ","kana_address":"ﾏｴﾔﾛｸ","pref":"栃木県","city":"那須塩原市","address":"前弥六"},
{"zip_code":"3293136","kana_pref":"ﾄﾁｷﾞｹﾝ","kana_city":"ﾅｽｼｵﾊﾞﾗｼ","kana_address":"ﾏｴﾔﾛｸﾐﾅﾐﾁｮｳ","pref":"栃木県","city":"那須塩原市","address":"前弥六南町"},
{"zip_code":"3292752","kana_pref":"ﾄﾁｷﾞｹﾝ","kana_city":"ﾅｽｼｵﾊﾞﾗｼ","kana_address":"ﾐｼﾏ","pref":"栃木県","city":"那須塩原市","address":"三島"},
{"zip_code":"3292713","kana_pref":"ﾄﾁｷﾞｹﾝ","kana_city":"ﾅｽｼｵﾊﾞﾗｼ","kana_address":"ﾐﾄﾞﾘ","pref":"栃木県","city":"那須塩原市","address":"緑"},
{"zip_code":"3292743","kana_pref":"ﾄﾁｷﾞｹﾝ","kana_city":"ﾅｽｼｵﾊﾞﾗｼ","kana_address":"ﾐﾅﾐｱｶﾀﾞ","pref":"栃木県","city":"那須塩原市","address":"南赤田"},
{"zip_code":"3292705","kana_pref":"ﾄﾁｷﾞｹﾝ","kana_city":"ﾅｽｼｵﾊﾞﾗｼ","kana_address":"ﾐﾅﾐｺﾞｳﾔ","pref":"栃木県","city":"那須塩原市","address":"南郷屋"},
{"zip_code":"3292723","kana_pref":"ﾄﾁｷﾞｹﾝ","kana_city":"ﾅｽｼｵﾊﾞﾗｼ","kana_address":"ﾐﾅﾐﾁｮｳ","pref":"栃木県","city":"那須塩原市","address":"南町"},
{"zip_code":"3293125","kana_pref":"ﾄﾁｷﾞｹﾝ","kana_city":"ﾅｽｼｵﾊﾞﾗｼ","kana_address":"ﾑｸﾘﾔ","pref":"栃木県","city":"那須塩原市","address":"無栗屋"},
{"zip_code":"3292706","kana_pref":"ﾄﾁｷﾞｹﾝ","kana_city":"ﾅｽｼｵﾊﾞﾗｼ","kana_address":"ﾑﾂﾐ","pref":"栃木県","city":"那須塩原市","address":"睦"},
{"zip_code":"3293141","kana_pref":"ﾄﾁｷﾞｹﾝ","kana_city":"ﾅｽｼｵﾊﾞﾗｼ","kana_address":"ﾔﾏﾅｶｼﾝﾃﾞﾝ","pref":"栃木県","city":"那須塩原市","address":"山中新田"},
{"zip_code":"3292922","kana_pref":"ﾄﾁｷﾞｹﾝ","kana_city":"ﾅｽｼｵﾊﾞﾗｼ","kana_address":"ﾕﾓﾄｼｵﾊﾞﾗ","pref":"栃木県","city":"那須塩原市","address":"湯本塩原"},
{"zip_code":"3292806","kana_pref":"ﾄﾁｷﾞｹﾝ","kana_city":"ﾅｽｼｵﾊﾞﾗｼ","kana_address":"ﾖｺﾊﾞﾔｼ","pref":"栃木県","city":"那須塩原市","address":"横林"},
{"zip_code":"3292746","kana_pref":"ﾄﾁｷﾞｹﾝ","kana_city":"ﾅｽｼｵﾊﾞﾗｼ","kana_address":"ﾖﾝｸﾁｮｳ","pref":"栃木県","city":"那須塩原市","address":"四区町"},
{"zip_code":"3291300","kana_pref":"ﾄﾁｷﾞｹﾝ","kana_city":"ｻｸﾗｼ","kana_address":"","pref":"栃木県","city":"さくら市","address":""},
{"zip_code":"3291311","kana_pref":"ﾄﾁｷﾞｹﾝ","kana_city":"ｻｸﾗｼ","kana_address":"ｳｼﾞｲｴ","pref":"栃木県","city":"さくら市","address":"氏家"},
{"zip_code":"3291315","kana_pref":"ﾄﾁｷﾞｹﾝ","kana_city":"ｻｸﾗｼ","kana_address":"ｳｼﾞｲｴｼﾝﾃﾞﾝ","pref":"栃木県","city":"さくら市","address":"氏家新田"},
{"zip_code":"3291323","kana_pref":"ﾄﾁｷﾞｹﾝ","kana_city":"ｻｸﾗｼ","kana_address":"ｳﾉｻﾄ","pref":"栃木県","city":"さくら市","address":"卯の里"},
{"zip_code":"3291306","kana_pref":"ﾄﾁｷﾞｹﾝ","kana_city":"ｻｸﾗｼ","kana_address":"ｳﾜﾉ","pref":"栃木県","city":"さくら市","address":"上野"},
{"zip_code":"3291415","kana_pref":"ﾄﾁｷﾞｹﾝ","kana_city":"ｻｸﾗｼ","kana_address":"ｵｲﾚ","pref":"栃木県","city":"さくら市","address":"小入"},
{"zip_code":"3291325","kana_pref":"ﾄﾁｷﾞｹﾝ","kana_city":"ｻｸﾗｼ","kana_address":"ｵｵﾅｶ","pref":"栃木県","city":"さくら市","address":"大中"},
{"zip_code":"3291334","kana_pref":"ﾄﾁｷﾞｹﾝ","kana_city":"ｻｸﾗｼ","kana_address":"ｵｼｱｹﾞ","pref":"栃木県","city":"さくら市","address":"押上"},
{"zip_code":"3291314","kana_pref":"ﾄﾁｷﾞｹﾝ","kana_city":"ｻｸﾗｼ","kana_address":"ｶｷﾉｷｻﾞﾜ","pref":"栃木県","city":"さくら市","address":"柿木沢"},
{"zip_code":"3291313","kana_pref":"ﾄﾁｷﾞｹﾝ","kana_city":"ｻｸﾗｼ","kana_address":"ｶｷﾉｷｻﾞﾜｼﾝﾃﾞﾝ","pref":"栃木県","city":"さくら市","address":"柿木沢新田"},
{"zip_code":"3291304","kana_pref":"ﾄﾁｷﾞｹﾝ","kana_city":"ｻｸﾗｼ","kana_address":"ｶｼﾞｶﾞｻﾜ","pref":"栃木県","city":"さくら市","address":"鍛冶ケ沢"},
{"zip_code":"3291413","kana_pref":"ﾄﾁｷﾞｹﾝ","kana_city":"ｻｸﾗｼ","kana_address":"ｶﾂﾗｷﾞ","pref":"栃木県","city":"さくら市","address":"葛城"},
{"zip_code":"3291405","kana_pref":"ﾄﾁｷﾞｹﾝ","kana_city":"ｻｸﾗｼ","kana_address":"ｶﾅｴﾀﾞ","pref":"栃木県","city":"さくら市","address":"金枝"},
{"zip_code":"3291404","kana_pref":"ﾄﾁｷﾞｹﾝ","kana_city":"ｻｸﾗｼ","kana_address":"ｶﾉｺﾊﾀ","pref":"栃木県","city":"さくら市","address":"鹿子畑"},
{"zip_code":"3291332","kana_pref":"ﾄﾁｷﾞｹﾝ","kana_city":"ｻｸﾗｼ","kana_address":"ｶﾏｽｻｶ","pref":"栃木県","city":"さくら市","address":"蒲須坂"},
{"zip_code":"3291316","kana_pref":"ﾄﾁｷﾞｹﾝ","kana_city":"ｻｸﾗｼ","kana_address":"ｶﾐｱｸﾂ","pref":"栃木県","city":"さくら市","address":"上阿久津"},
{"zip_code":"3291401","kana_pref":"ﾄﾁｷﾞｹﾝ","kana_city":"ｻｸﾗｼ","kana_address":"ｶﾐｺｳﾄﾞ","pref":"栃木県","city":"さくら市","address":"上河戸"},
{"zip_code":"3291322","kana_pref":"ﾄﾁｷﾞｹﾝ","kana_city":"ｻｸﾗｼ","kana_address":"ｷﾀｸｻｶﾞﾜ","pref":"栃木県","city":"さくら市","address":"北草川"},
{"zip_code":"3291412","kana_pref":"ﾄﾁｷﾞｹﾝ","kana_city":"ｻｸﾗｼ","kana_address":"ｷﾂﾚｶﾞﾜ","pref":"栃木県","city":"さくら市","address":"喜連川"},
{"zip_code":"3291324","kana_pref":"ﾄﾁｷﾞｹﾝ","kana_city":"ｻｸﾗｼ","kana_address":"ｸｻｶﾞﾜ","pref":"栃木県","city":"さくら市","address":"草川"},
{"zip_code":"3291416","kana_pref":"ﾄﾁｷﾞｹﾝ","kana_city":"ｻｸﾗｼ","kana_address":"ｻｸﾗｶﾞｵｶ","pref":"栃木県","city":"さくら市","address":"桜ケ丘"},
{"zip_code":"3291312","kana_pref":"ﾄﾁｷﾞｹﾝ","kana_city":"ｻｸﾗｼ","kana_address":"ｻｸﾗﾉ","pref":"栃木県","city":"さくら市","address":"櫻野"},
{"zip_code":"3291402","kana_pref":"ﾄﾁｷﾞｹﾝ","kana_city":"ｻｸﾗｼ","kana_address":"ｼﾓｺｳﾄﾞ","pref":"栃木県","city":"さくら市","address":"下河戸"},
{"zip_code":"3291414","kana_pref":"ﾄﾁｷﾞｹﾝ","kana_city":"ｻｸﾗｼ","kana_address":"ｿｳﾄﾒ","pref":"栃木県","city":"さくら市","address":"早乙女"},
{"zip_code":"3291327","kana_pref":"ﾄﾁｷﾞｹﾝ","kana_city":"ｻｸﾗｼ","kana_address":"ﾄﾐﾉｵｶ","pref":"栃木県","city":"さくら市","address":"富野岡"},
{"zip_code":"3291333","kana_pref":"ﾄﾁｷﾞｹﾝ","kana_city":"ｻｸﾗｼ","kana_address":"ﾅｶﾞｸﾎﾞ","pref":"栃木県","city":"さくら市","address":"長久保"},
{"zip_code":"3291301","kana_pref":"ﾄﾁｷﾞｹﾝ","kana_city":"ｻｸﾗｼ","kana_address":"ﾊｺﾉﾓﾘｼﾝﾃﾞﾝ","pref":"栃木県","city":"さくら市","address":"箱森新田"},
{"zip_code":"3291305","kana_pref":"ﾄﾁｷﾞｹﾝ","kana_city":"ｻｸﾗｼ","kana_address":"ﾊｻﾏﾀﾞ","pref":"栃木県","city":"さくら市","address":"狹間田"},
{"zip_code":"3291321","kana_pref":"ﾄﾁｷﾞｹﾝ","kana_city":"ｻｸﾗｼ","kana_address":"ﾊﾞﾊﾞ","pref":"栃木県","city":"さくら市","address":"馬場"},
{"zip_code":"3291417","kana_pref":"ﾄﾁｷﾞｹﾝ","kana_city":"ｻｸﾗｼ","kana_address":"ﾌｨｵｰﾚｷﾂﾚｶﾞﾜ","pref":"栃木県","city":"さくら市","address":"フィオーレ喜連川"},
{"zip_code":"3291403","kana_pref":"ﾄﾁｷﾞｹﾝ","kana_city":"ｻｸﾗｼ","kana_address":"ﾎﾂﾞﾐ","pref":"栃木県","city":"さくら市","address":"穂積"},
{"zip_code":"3291331","kana_pref":"ﾄﾁｷﾞｹﾝ","kana_city":"ｻｸﾗｼ","kana_address":"ﾏﾂｼﾏ","pref":"栃木県","city":"さくら市","address":"松島"},
{"zip_code":"3291303","kana_pref":"ﾄﾁｷﾞｹﾝ","kana_city":"ｻｸﾗｼ","kana_address":"ﾏﾂﾔﾏ","pref":"栃木県","city":"さくら市","address":"松山"},
{"zip_code":"3291302","kana_pref":"ﾄﾁｷﾞｹﾝ","kana_city":"ｻｸﾗｼ","kana_address":"ﾏﾂﾔﾏｼﾝﾃﾞﾝ","pref":"栃木県","city":"さくら市","address":"松山新田"},
{"zip_code":"3291406","kana_pref":"ﾄﾁｷﾞｹﾝ","kana_city":"ｻｸﾗｼ","kana_address":"ﾐﾅﾐﾜﾀﾞ","pref":"栃木県","city":"さくら市","address":"南和田"},
{"zip_code":"3291326","kana_pref":"ﾄﾁｷﾞｹﾝ","kana_city":"ｻｸﾗｼ","kana_address":"ﾑｺｳｶﾞﾜﾗ","pref":"栃木県","city":"さくら市","address":"向河原"},
{"zip_code":"3291411","kana_pref":"ﾄﾁｷﾞｹﾝ","kana_city":"ｻｸﾗｼ","kana_address":"ﾜｼｼﾞｭｸ","pref":"栃木県","city":"さくら市","address":"鷲宿"},
{"zip_code":"3290400","kana_pref":"ﾄﾁｷﾞｹﾝ","kana_city":"ｼﾓﾂｹｼ","kana_address":"","pref":"栃木県","city":"下野市","address":""},
{"zip_code":"3290511","kana_pref":"ﾄﾁｷﾞｹﾝ","kana_city":"ｼﾓﾂｹｼ","kana_address":"ｲｼﾊﾞｼ","pref":"栃木県","city":"下野市","address":"石橋"},
{"zip_code":"3290403","kana_pref":"ﾄﾁｷﾞｹﾝ","kana_city":"ｼﾓﾂｹｼ","kana_address":"ｲﾀﾞｲﾏｴ","pref":"栃木県","city":"下野市","address":"医大前"},
{"zip_code":"3290413","kana_pref":"ﾄﾁｷﾞｹﾝ","kana_city":"ｼﾓﾂｹｼ","kana_address":"ｴｷﾋｶﾞｼ","pref":"栃木県","city":"下野市","address":"駅東"},
{"zip_code":"3290519","kana_pref":"ﾄﾁｷﾞｹﾝ","kana_city":"ｼﾓﾂｹｼ","kana_address":"ｵｵﾏﾂﾔﾏ","pref":"栃木県","city":"下野市","address":"大松山"},
{"zip_code":"3290501","kana_pref":"ﾄﾁｷﾞｹﾝ","kana_city":"ｼﾓﾂｹｼ","kana_address":"ｶﾐｺﾔﾏ","pref":"栃木県","city":"下野市","address":"上古山"},
{"zip_code":"3290504","kana_pref":"ﾄﾁｷﾞｹﾝ","kana_city":"ｼﾓﾂｹｼ","kana_address":"ｶﾐﾀﾞｲ","pref":"栃木県","city":"下野市","address":"上台"},
{"zip_code":"3290517","kana_pref":"ﾄﾁｷﾞｹﾝ","kana_city":"ｼﾓﾂｹｼ","kana_address":"ｶﾐﾀﾞｲﾘｮｳ","pref":"栃木県","city":"下野市","address":"上大領"},
{"zip_code":"3290411","kana_pref":"ﾄﾁｷﾞｹﾝ","kana_city":"ｼﾓﾂｹｼ","kana_address":"ｶﾗｽｶﾞﾓﾘ","pref":"栃木県","city":"下野市","address":"烏ケ森"},
{"zip_code":"3290415","kana_pref":"ﾄﾁｷﾞｹﾝ","kana_city":"ｼﾓﾂｹｼ","kana_address":"ｶﾜﾅｺﾞ","pref":"栃木県","city":"下野市","address":"川中子"},
{"zip_code":"3290434","kana_pref":"ﾄﾁｷﾞｹﾝ","kana_city":"ｼﾓﾂｹｼ","kana_address":"ｷﾞｵﾝ","pref":"栃木県","city":"下野市","address":"祇園"},
{"zip_code":"3290414","kana_pref":"ﾄﾁｷﾞｹﾝ","kana_city":"ｼﾓﾂｹｼ","kana_address":"ｺｶﾞﾈｲ","pref":"栃木県","city":"下野市","address":"小金井"},
{"zip_code":"3290417","kana_pref":"ﾄﾁｷﾞｹﾝ","kana_city":"ｼﾓﾂｹｼ","kana_address":"ｺｸﾌﾞﾝｼﾞ","pref":"栃木県","city":"下野市","address":"国分寺"},
{"zip_code":"3290402","kana_pref":"ﾄﾁｷﾞｹﾝ","kana_city":"ｼﾓﾂｹｼ","kana_address":"ｻｻﾊﾗ","pref":"栃木県","city":"下野市","address":"笹原"},
{"zip_code":"3290412","kana_pref":"ﾄﾁｷﾞｹﾝ","kana_city":"ｼﾓﾂｹｼ","kana_address":"ｼﾊﾞ","pref":"栃木県","city":"下野市","address":"柴"},
{"zip_code":"3290512","kana_pref":"ﾄﾁｷﾞｹﾝ","kana_city":"ｼﾓﾂｹｼ","kana_address":"ｼﾓｲｼﾊﾞｼ","pref":"栃木県","city":"下野市","address":"下石橋"},
{"zip_code":"3290502","kana_pref":"ﾄﾁｷﾞｹﾝ","kana_city":"ｼﾓﾂｹｼ","kana_address":"ｼﾓｺﾔﾏ","pref":"栃木県","city":"下野市","address":"下古山"},
{"zip_code":"3290513","kana_pref":"ﾄﾁｷﾞｹﾝ","kana_city":"ｼﾓﾂｹｼ","kana_address":"ｼﾓﾀﾞｲﾘｮｳ","pref":"栃木県","city":"下野市","address":"下大領"},
{"zip_code":"3290503","kana_pref":"ﾄﾁｷﾞｹﾝ","kana_city":"ｼﾓﾂｹｼ","kana_address":"ｼﾓﾅｶﾞﾀ","pref":"栃木県","city":"下野市","address":"下長田"},
{"zip_code":"3290424","kana_pref":"ﾄﾁｷﾞｹﾝ","kana_city":"ｼﾓﾂｹｼ","kana_address":"ｼﾓﾌﾊﾞｻﾐ","pref":"栃木県","city":"下野市","address":"下文狹"},
{"zip_code":"3290516","kana_pref":"ﾄﾁｷﾞｹﾝ","kana_city":"ｼﾓﾂｹｼ","kana_address":"ﾀﾞｲｺｳｼﾞ","pref":"栃木県","city":"下野市","address":"大光寺"},
{"zip_code":"3290425","kana_pref":"ﾄﾁｷﾞｹﾝ","kana_city":"ｼﾓﾂｹｼ","kana_address":"ﾀﾅｶ","pref":"栃木県","city":"下野市","address":"田中"},
{"zip_code":"3290515","kana_pref":"ﾄﾁｷﾞｹﾝ","kana_city":"ｼﾓﾂｹｼ","kana_address":"ﾅｶﾀﾞｲﾘｮｳ","pref":"栃木県","city":"下野市","address":"中大領"},
{"zip_code":"3290421","kana_pref":"ﾄﾁｷﾞｹﾝ","kana_city":"ｼﾓﾂｹｼ","kana_address":"ﾅﾘﾀ","pref":"栃木県","city":"下野市","address":"成田"},
{"zip_code":"3290432","kana_pref":"ﾄﾁｷﾞｹﾝ","kana_city":"ｼﾓﾂｹｼ","kana_address":"ﾆﾗｶﾞﾜ","pref":"栃木県","city":"下野市","address":"仁良川"},
{"zip_code":"3290506","kana_pref":"ﾄﾁｷﾞｹﾝ","kana_city":"ｼﾓﾂｹｼ","kana_address":"ﾊｼﾓﾄ","pref":"栃木県","city":"下野市","address":"橋本"},
{"zip_code":"3290518","kana_pref":"ﾄﾁｷﾞｹﾝ","kana_city":"ｼﾓﾂｹｼ","kana_address":"ﾊﾅﾉｷ","pref":"栃木県","city":"下野市","address":"花の木"},
{"zip_code":"3290514","kana_pref":"ﾄﾁｷﾞｹﾝ","kana_city":"ｼﾓﾂｹｼ","kana_address":"ﾋｶﾞｼﾏｴﾊﾗ","pref":"栃木県","city":"下野市","address":"東前原"},
{"zip_code":"3290507","kana_pref":"ﾄﾁｷﾞｹﾝ","kana_city":"ｼﾓﾂｹｼ","kana_address":"ﾌﾞﾝｷｮｳ","pref":"栃木県","city":"下野市","address":"文教"},
{"zip_code":"3290505","kana_pref":"ﾄﾁｷﾞｹﾝ","kana_city":"ｼﾓﾂｹｼ","kana_address":"ﾎｿﾔ","pref":"栃木県","city":"下野市","address":"細谷"},
{"zip_code":"3290422","kana_pref":"ﾄﾁｷﾞｹﾝ","kana_city":"ｼﾓﾂｹｼ","kana_address":"ﾏﾁﾀﾞ","pref":"栃木県","city":"下野市","address":"町田"},
{"zip_code":"3290433","kana_pref":"ﾄﾁｷﾞｹﾝ","kana_city":"ｼﾓﾂｹｼ","kana_address":"ﾐﾄﾞﾘ","pref":"栃木県","city":"下野市","address":"緑"},
{"zip_code":"3290401","kana_pref":"ﾄﾁｷﾞｹﾝ","kana_city":"ｼﾓﾂｹｼ","kana_address":"ﾐﾉﾜ","pref":"栃木県","city":"下野市","address":"箕輪"},
{"zip_code":"3290418","kana_pref":"ﾄﾁｷﾞｹﾝ","kana_city":"ｼﾓﾂｹｼ","kana_address":"ﾑﾗｻｷ","pref":"栃木県","city":"下野市","address":"紫"},
{"zip_code":"3290431","kana_pref":"ﾄﾁｷﾞｹﾝ","kana_city":"ｼﾓﾂｹｼ","kana_address":"ﾔｸｼｼﾞ","pref":"栃木県","city":"下野市","address":"薬師寺"},
{"zip_code":"3290423","kana_pref":"ﾄﾁｷﾞｹﾝ","kana_city":"ｼﾓﾂｹｼ","kana_address":"ﾔｼﾞﾂｶ","pref":"栃木県","city":"下野市","address":"谷地賀"},
{"zip_code":"3290600","kana_pref":"ﾄﾁｷﾞｹﾝ","kana_city":"ｶﾜﾁｸﾞﾝｶﾐﾉｶﾜﾏﾁ","kana_address":"","pref":"栃木県","city":"河内郡上三川町","address":""},
{"zip_code":"3290521","kana_pref":"ﾄﾁｷﾞｹﾝ","kana_city":"ｶﾜﾁｸﾞﾝｶﾐﾉｶﾜﾏﾁ","kana_address":"ｲｼﾀ","pref":"栃木県","city":"河内郡上三川町","address":"石田"},
{"zip_code":"3290606","kana_pref":"ﾄﾁｷﾞｹﾝ","kana_city":"ｶﾜﾁｸﾞﾝｶﾐﾉｶﾜﾏﾁ","kana_address":"ｲｿｵｶ","pref":"栃木県","city":"河内郡上三川町","address":"磯岡"},
{"zip_code":"3290525","kana_pref":"ﾄﾁｷﾞｹﾝ","kana_city":"ｶﾜﾁｸﾞﾝｶﾐﾉｶﾜﾏﾁ","kana_address":"ｵｵﾔﾏ","pref":"栃木県","city":"河内郡上三川町","address":"大山"},
{"zip_code":"3290617","kana_pref":"ﾄﾁｷﾞｹﾝ","kana_city":"ｶﾜﾁｸﾞﾝｶﾐﾉｶﾜﾏﾁ","kana_address":"ｶﾐｶﾓｳ","pref":"栃木県","city":"河内郡上三川町","address":"上蒲生"},
{"zip_code":"3290527","kana_pref":"ﾄﾁｷﾞｹﾝ","kana_city":"ｶﾜﾁｸﾞﾝｶﾐﾉｶﾜﾏﾁ","kana_address":"ｶﾐｺｳﾇｼ","pref":"栃木県","city":"河内郡上三川町","address":"上神主"},
{"zip_code":"3290604","kana_pref":"ﾄﾁｷﾞｹﾝ","kana_city":"ｶﾜﾁｸﾞﾝｶﾐﾉｶﾜﾏﾁ","kana_address":"ｶﾐｺﾞｳ","pref":"栃木県","city":"河内郡上三川町","address":"上郷"},
{"zip_code":"3290611","kana_pref":"ﾄﾁｷﾞｹﾝ","kana_city":"ｶﾜﾁｸﾞﾝｶﾐﾉｶﾜﾏﾁ","kana_address":"ｶﾐﾉｶﾜ","pref":"栃木県","city":"河内郡上三川町","address":"上三川"},
{"zip_code":"3290601","kana_pref":"ﾄﾁｷﾞｹﾝ","kana_city":"ｶﾜﾁｸﾞﾝｶﾐﾉｶﾜﾏﾁ","kana_address":"ｶﾐﾌﾊﾞｻﾐ","pref":"栃木県","city":"河内郡上三川町","address":"上文挾"},
{"zip_code":"3290522","kana_pref":"ﾄﾁｷﾞｹﾝ","kana_city":"ｶﾜﾁｸﾞﾝｶﾐﾉｶﾜﾏﾁ","kana_address":"ｶﾜﾅｺﾞ","pref":"栃木県","city":"河内郡上三川町","address":"川中子"},
{"zip_code":"3290614","kana_pref":"ﾄﾁｷﾞｹﾝ","kana_city":"ｶﾜﾁｸﾞﾝｶﾐﾉｶﾜﾏﾁ","kana_address":"ｺﾞﾌﾞｲﾁ","pref":"栃木県","city":"河内郡上三川町","address":"五分一"},
{"zip_code":"3290613","kana_pref":"ﾄﾁｷﾞｹﾝ","kana_city":"ｶﾜﾁｸﾞﾝｶﾐﾉｶﾜﾏﾁ","kana_address":"ｻｶｳｴ","pref":"栃木県","city":"河内郡上三川町","address":"坂上"},
{"zip_code":"3290526","kana_pref":"ﾄﾁｷﾞｹﾝ","kana_city":"ｶﾜﾁｸﾞﾝｶﾐﾉｶﾜﾏﾁ","kana_address":"ｻﾔﾄﾞｳ","pref":"栃木県","city":"河内郡上三川町","address":"鞘堂"},
{"zip_code":"3290612","kana_pref":"ﾄﾁｷﾞｹﾝ","kana_city":"ｶﾜﾁｸﾞﾝｶﾐﾉｶﾜﾏﾁ","kana_address":"ｻﾝﾎﾞﾝｷﾞ","pref":"栃木県","city":"河内郡上三川町","address":"三本木"},
{"zip_code":"3290616","kana_pref":"ﾄﾁｷﾞｹﾝ","kana_city":"ｶﾜﾁｸﾞﾝｶﾐﾉｶﾜﾏﾁ","kana_address":"ｼﾓｶﾓｳ","pref":"栃木県","city":"河内郡上三川町","address":"下蒲生"},
{"zip_code":"3290529","kana_pref":"ﾄﾁｷﾞｹﾝ","kana_city":"ｶﾜﾁｸﾞﾝｶﾐﾉｶﾜﾏﾁ","kana_address":"ｼﾓｺｳﾇｼ","pref":"栃木県","city":"河内郡上三川町","address":"下神主"},
{"zip_code":"3290618","kana_pref":"ﾄﾁｷﾞｹﾝ","kana_city":"ｶﾜﾁｸﾞﾝｶﾐﾉｶﾜﾏﾁ","kana_address":"ｼﾗｻｷﾞ","pref":"栃木県","city":"河内郡上三川町","address":"しらさぎ"},
{"zip_code":"3290524","kana_pref":"ﾄﾁｷﾞｹﾝ","kana_city":"ｶﾜﾁｸﾞﾝｶﾐﾉｶﾜﾏﾁ","kana_address":"ﾀｺｳ","pref":"栃木県","city":"河内郡上三川町","address":"多功"},
{"zip_code":"3290530","kana_pref":"ﾄﾁｷﾞｹﾝ","kana_city":"ｶﾜﾁｸﾞﾝｶﾐﾉｶﾜﾏﾁ","kana_address":"ﾃﾝｼﾞﾝﾁｮｳ","pref":"栃木県","city":"河内郡上三川町","address":"天神町"},
{"zip_code":"3290608","kana_pref":"ﾄﾁｷﾞｹﾝ","kana_city":"ｶﾜﾁｸﾞﾝｶﾐﾉｶﾜﾏﾁ","kana_address":"ﾆｼｷﾉｼﾛ","pref":"栃木県","city":"河内郡上三川町","address":"西木代"},
{"zip_code":"3290605","kana_pref":"ﾄﾁｷﾞｹﾝ","kana_city":"ｶﾜﾁｸﾞﾝｶﾐﾉｶﾜﾏﾁ","kana_address":"ﾆｼﾀﾃﾇﾏ","pref":"栃木県","city":"河内郡上三川町","address":"西蓼沼"},
{"zip_code":"3290607","kana_pref":"ﾄﾁｷﾞｹﾝ","kana_city":"ｶﾜﾁｸﾞﾝｶﾐﾉｶﾜﾏﾁ","kana_address":"ﾆｼﾌｻﾞｶｼ","pref":"栃木県","city":"河内郡上三川町","address":"西汗"},
{"zip_code":"3290603","kana_pref":"ﾄﾁｷﾞｹﾝ","kana_city":"ｶﾜﾁｸﾞﾝｶﾐﾉｶﾜﾏﾁ","kana_address":"ﾋｶﾞｼﾀﾃﾇﾏ","pref":"栃木県","city":"河内郡上三川町","address":"東蓼沼"},
{"zip_code":"3290602","kana_pref":"ﾄﾁｷﾞｹﾝ","kana_city":"ｶﾜﾁｸﾞﾝｶﾐﾉｶﾜﾏﾁ","kana_address":"ﾋｶﾞｼﾌｻﾞｶｼ","pref":"栃木県","city":"河内郡上三川町","address":"東汗"},
{"zip_code":"3290615","kana_pref":"ﾄﾁｷﾞｹﾝ","kana_city":"ｶﾜﾁｸﾞﾝｶﾐﾉｶﾜﾏﾁ","kana_address":"ﾐﾑﾗ","pref":"栃木県","city":"河内郡上三川町","address":"三村"},
{"zip_code":"3290523","kana_pref":"ﾄﾁｷﾞｹﾝ","kana_city":"ｶﾜﾁｸﾞﾝｶﾐﾉｶﾜﾏﾁ","kana_address":"ﾔﾅ","pref":"栃木県","city":"河内郡上三川町","address":"梁"},
{"zip_code":"3290528","kana_pref":"ﾄﾁｷﾞｹﾝ","kana_city":"ｶﾜﾁｸﾞﾝｶﾐﾉｶﾜﾏﾁ","kana_address":"ﾕｳｷｶﾞｵｶ","pref":"栃木県","city":"河内郡上三川町","address":"ゆうきが丘"},
{"zip_code":"3290100","kana_pref":"ﾄﾁｷﾞｹﾝ","kana_city":"ｼﾓﾂｶﾞｸﾞﾝﾉｷﾞﾏﾁ","kana_address":"","pref":"栃木県","city":"下都賀郡野木町","address":""},
{"zip_code":"3290102","kana_pref":"ﾄﾁｷﾞｹﾝ","kana_city":"ｼﾓﾂｶﾞｸﾞﾝﾉｷﾞﾏﾁ","kana_address":"ｳﾙｳｼﾞﾏ","pref":"栃木県","city":"下都賀郡野木町","address":"潤島"},
{"zip_code":"3290105","kana_pref":"ﾄﾁｷﾞｹﾝ","kana_city":"ｼﾓﾂｶﾞｸﾞﾝﾉｷﾞﾏﾁ","kana_address":"ｶﾜﾀﾞ","pref":"栃木県","city":"下都賀郡野木町","address":"川田"},
{"zip_code":"3290104","kana_pref":"ﾄﾁｷﾞｹﾝ","kana_city":"ｼﾓﾂｶﾞｸﾞﾝﾉｷﾞﾏﾁ","kana_address":"ｻｶﾞﾜﾉ","pref":"栃木県","city":"下都賀郡野木町","address":"佐川野"},
{"zip_code":"3290101","kana_pref":"ﾄﾁｷﾞｹﾝ","kana_city":"ｼﾓﾂｶﾞｸﾞﾝﾉｷﾞﾏﾁ","kana_address":"ﾄﾓﾇﾏ","pref":"栃木県","city":"下都賀郡野木町","address":"友沼"},
{"zip_code":"3290113","kana_pref":"ﾄﾁｷﾞｹﾝ","kana_city":"ｼﾓﾂｶﾞｸﾞﾝﾉｷﾞﾏﾁ","kana_address":"ﾅｶﾔ","pref":"栃木県","city":"下都賀郡野木町","address":"中谷"},
{"zip_code":"3290114","kana_pref":"ﾄﾁｷﾞｹﾝ","kana_city":"ｼﾓﾂｶﾞｸﾞﾝﾉｷﾞﾏﾁ","kana_address":"ﾉｷﾞ","pref":"栃木県","city":"下都賀郡野木町","address":"野木"},
{"zip_code":"3290115","kana_pref":"ﾄﾁｷﾞｹﾝ","kana_city":"ｼﾓﾂｶﾞｸﾞﾝﾉｷﾞﾏﾁ","kana_address":"ﾉﾜﾀ","pref":"栃木県","city":"下都賀郡野木町","address":"野渡"},
{"zip_code":"3290111","kana_pref":"ﾄﾁｷﾞｹﾝ","kana_city":"ｼﾓﾂｶﾞｸﾞﾝﾉｷﾞﾏﾁ","kana_address":"ﾏﾙﾊﾞﾔｼ","pref":"栃木県","city":"下都賀郡野木町","address":"丸林"},
{"zip_code":"3290112","kana_pref":"ﾄﾁｷﾞｹﾝ","kana_city":"ｼﾓﾂｶﾞｸﾞﾝﾉｷﾞﾏﾁ","kana_address":"ﾐﾅﾐｱｶﾂｶ","pref":"栃木県","city":"下都賀郡野木町","address":"南赤塚"},
{"zip_code":"3290103","kana_pref":"ﾄﾁｷﾞｹﾝ","kana_city":"ｼﾓﾂｶﾞｸﾞﾝﾉｷﾞﾏﾁ","kana_address":"ﾜｶﾊﾞﾔｼ","pref":"栃木県","city":"下都賀郡野木町","address":"若林"},
{"zip_code":"3294300","kana_pref":"ﾄﾁｷﾞｹﾝ","kana_city":"ｼﾓﾂｶﾞｸﾞﾝｲﾜﾌﾈﾏﾁ","kana_address":"","pref":"栃木県","city":"下都賀郡岩舟町","address":""},
{"zip_code":"3294302","kana_pref":"ﾄﾁｷﾞｹﾝ","kana_city":"ｼﾓﾂｶﾞｸﾞﾝｲﾜﾌﾈﾏﾁ","kana_address":"ｲｶﾊﾞﾀ","pref":"栃木県","city":"下都賀郡岩舟町","address":"五十畑"},
{"zip_code":"3294303","kana_pref":"ﾄﾁｷﾞｹﾝ","kana_city":"ｼﾓﾂｶﾞｸﾞﾝｲﾜﾌﾈﾏﾁ","kana_address":"ｲｽﾞﾐ","pref":"栃木県","city":"下都賀郡岩舟町","address":"和泉"},
{"zip_code":"3294314","kana_pref":"ﾄﾁｷﾞｹﾝ","kana_city":"ｼﾓﾂｶﾞｸﾞﾝｲﾜﾌﾈﾏﾁ","kana_address":"ｵﾉﾃﾞﾗ","pref":"栃木県","city":"下都賀郡岩舟町","address":"小野寺"},
{"zip_code":"3294313","kana_pref":"ﾄﾁｷﾞｹﾝ","kana_city":"ｼﾓﾂｶﾞｸﾞﾝｲﾜﾌﾈﾏﾁ","kana_address":"ｶﾐｵｶ","pref":"栃木県","city":"下都賀郡岩舟町","address":"上岡"},
{"zip_code":"3294307","kana_pref":"ﾄﾁｷﾞｹﾝ","kana_city":"ｼﾓﾂｶﾞｸﾞﾝｲﾜﾌﾈﾏﾁ","kana_address":"ｼｽﾞｶ","pref":"栃木県","city":"下都賀郡岩舟町","address":"静"},
{"zip_code":"3294305","kana_pref":"ﾄﾁｷﾞｹﾝ","kana_city":"ｼﾓﾂｶﾞｸﾞﾝｲﾜﾌﾈﾏﾁ","kana_address":"ｼｽﾞｺ","pref":"栃木県","city":"下都賀郡岩舟町","address":"静戸"},
{"zip_code":"3294304","kana_pref":"ﾄﾁｷﾞｹﾝ","kana_city":"ｼﾓﾂｶﾞｸﾞﾝｲﾜﾌﾈﾏﾁ","kana_address":"ｼｽﾞﾜ","pref":"栃木県","city":"下都賀郡岩舟町","address":"静和"},
{"zip_code":"3294312","kana_pref":"ﾄﾁｷﾞｹﾝ","kana_city":"ｼﾓﾂｶﾞｸﾞﾝｲﾜﾌﾈﾏﾁ","kana_address":"ｼﾓｵｶ","pref":"栃木県","city":"下都賀郡岩舟町","address":"下岡"},
{"zip_code":"3294308","kana_pref":"ﾄﾁｷﾞｹﾝ","kana_city":"ｼﾓﾂｶﾞｸﾞﾝｲﾜﾌﾈﾏﾁ","kana_address":"ｼﾓﾂﾊﾞﾗ","pref":"栃木県","city":"下都賀郡岩舟町","address":"下津原"},
{"zip_code":"3294309","kana_pref":"ﾄﾁｷﾞｹﾝ","kana_city":"ｼﾓﾂｶﾞｸﾞﾝｲﾜﾌﾈﾏﾁ","kana_address":"ﾀﾀﾐｵｶ","pref":"栃木県","city":"下都賀郡岩舟町","address":"畳岡"},
{"zip_code":"3294316","kana_pref":"ﾄﾁｷﾞｹﾝ","kana_city":"ｼﾓﾂｶﾞｸﾞﾝｲﾜﾌﾈﾏﾁ","kana_address":"ﾆｯｻﾄ","pref":"栃木県","city":"下都賀郡岩舟町","address":"新里"},
{"zip_code":"3294311","kana_pref":"ﾄﾁｷﾞｹﾝ","kana_city":"ｼﾓﾂｶﾞｸﾞﾝｲﾜﾌﾈﾏﾁ","kana_address":"ﾌﾙｴ","pref":"栃木県","city":"下都賀郡岩舟町","address":"古江"},
{"zip_code":"3294306","kana_pref":"ﾄﾁｷﾞｹﾝ","kana_city":"ｼﾓﾂｶﾞｸﾞﾝｲﾜﾌﾈﾏﾁ","kana_address":"ﾏｶﾞﾉｼﾏ","pref":"栃木県","city":"下都賀郡岩舟町","address":"曲ケ島"},
{"zip_code":"3294315","kana_pref":"ﾄﾁｷﾞｹﾝ","kana_city":"ｼﾓﾂｶﾞｸﾞﾝｲﾜﾌﾈﾏﾁ","kana_address":"ﾐﾔ","pref":"栃木県","city":"下都賀郡岩舟町","address":"三谷"},
{"zip_code":"3294301","kana_pref":"ﾄﾁｷﾞｹﾝ","kana_city":"ｼﾓﾂｶﾞｸﾞﾝｲﾜﾌﾈﾏﾁ","kana_address":"ﾜｼﾉｽ","pref":"栃木県","city":"下都賀郡岩舟町","address":"鷲巣"},
{"zip_code":"3292200","kana_pref":"ﾄﾁｷﾞｹﾝ","kana_city":"ｼｵﾔｸﾞﾝｼｵﾔﾏﾁ","kana_address":"","pref":"栃木県","city":"塩谷郡塩谷町","address":""},
{"zip_code":"3292225","kana_pref":"ﾄﾁｷﾞｹﾝ","kana_city":"ｼｵﾔｸﾞﾝｼｵﾔﾏﾁ","kana_address":"ｲｲｵｶ","pref":"栃木県","city":"塩谷郡塩谷町","address":"飯岡"},
{"zip_code":"3292337","kana_pref":"ﾄﾁｷﾞｹﾝ","kana_city":"ｼｵﾔｸﾞﾝｼｵﾔﾏﾁ","kana_address":"ｲｽﾞﾐ","pref":"栃木県","city":"塩谷郡塩谷町","address":"泉"},
{"zip_code":"3292339","kana_pref":"ﾄﾁｷﾞｹﾝ","kana_city":"ｼｵﾔｸﾞﾝｼｵﾔﾏﾁ","kana_address":"ｳﾜｻﾜ","pref":"栃木県","city":"塩谷郡塩谷町","address":"上沢"},
{"zip_code":"3292335","kana_pref":"ﾄﾁｷﾞｹﾝ","kana_city":"ｼｵﾔｸﾞﾝｼｵﾔﾏﾁ","kana_address":"ｳﾜﾀｲﾗ","pref":"栃木県","city":"塩谷郡塩谷町","address":"上平"},
{"zip_code":"3292334","kana_pref":"ﾄﾁｷﾞｹﾝ","kana_city":"ｼｵﾔｸﾞﾝｼｵﾔﾏﾁ","kana_address":"ｵｵｸﾎﾞ","pref":"栃木県","city":"塩谷郡塩谷町","address":"大久保"},
{"zip_code":"3292332","kana_pref":"ﾄﾁｷﾞｹﾝ","kana_city":"ｼｵﾔｸﾞﾝｼｵﾔﾏﾁ","kana_address":"ｵｵﾐﾔ","pref":"栃木県","city":"塩谷郡塩谷町","address":"大宮"},
{"zip_code":"3292336","kana_pref":"ﾄﾁｷﾞｹﾝ","kana_city":"ｼｵﾔｸﾞﾝｼｵﾔﾏﾁ","kana_address":"ｶｻﾞﾐ","pref":"栃木県","city":"塩谷郡塩谷町","address":"風見"},
{"zip_code":"3292338","kana_pref":"ﾄﾁｷﾞｹﾝ","kana_city":"ｼｵﾔｸﾞﾝｼｵﾔﾏﾁ","kana_address":"ｶｻﾞﾐﾔﾏﾀﾞ","pref":"栃木県","city":"塩谷郡塩谷町","address":"風見山田"},
{"zip_code":"3292224","kana_pref":"ﾄﾁｷﾞｹﾝ","kana_city":"ｼｵﾔｸﾞﾝｼｵﾔﾏﾁ","kana_address":"ｶﾅｴﾀﾞ","pref":"栃木県","city":"塩谷郡塩谷町","address":"金枝"},
{"zip_code":"3292216","kana_pref":"ﾄﾁｷﾞｹﾝ","kana_city":"ｼｵﾔｸﾞﾝｼｵﾔﾏﾁ","kana_address":"ｶﾐﾃﾗｼﾏ","pref":"栃木県","city":"塩谷郡塩谷町","address":"上寺島"},
{"zip_code":"3292212","kana_pref":"ﾄﾁｷﾞｹﾝ","kana_city":"ｼｵﾔｸﾞﾝｼｵﾔﾏﾁ","kana_address":"ｷｻﾞﾐ","pref":"栃木県","city":"塩谷郡塩谷町","address":"喜佐見"},
{"zip_code":"3292213","kana_pref":"ﾄﾁｷﾞｹﾝ","kana_city":"ｼｵﾔｸﾞﾝｼｵﾔﾏﾁ","kana_address":"ｸﾏﾉｷ","pref":"栃木県","city":"塩谷郡塩谷町","address":"熊ノ木"},
{"zip_code":"3292442","kana_pref":"ﾄﾁｷﾞｹﾝ","kana_city":"ｼｵﾔｸﾞﾝｼｵﾔﾏﾁ","kana_address":"ｻﾇｷ","pref":"栃木県","city":"塩谷郡塩谷町","address":"佐貫"},
{"zip_code":"3292215","kana_pref":"ﾄﾁｷﾞｹﾝ","kana_city":"ｼｵﾔｸﾞﾝｼｵﾔﾏﾁ","kana_address":"ｼﾓﾃﾗｼﾏ","pref":"栃木県","city":"塩谷郡塩谷町","address":"下寺島"},
{"zip_code":"3292331","kana_pref":"ﾄﾁｷﾞｹﾝ","kana_city":"ｼｵﾔｸﾞﾝｼｵﾔﾏﾁ","kana_address":"ﾀﾄﾞｺﾛ","pref":"栃木県","city":"塩谷郡塩谷町","address":"田所"},
{"zip_code":"3292221","kana_pref":"ﾄﾁｷﾞｹﾝ","kana_city":"ｼｵﾔｸﾞﾝｼｵﾔﾏﾁ","kana_address":"ﾀﾏﾆｭｳ","pref":"栃木県","city":"塩谷郡塩谷町","address":"玉生"},
{"zip_code":"3292222","kana_pref":"ﾄﾁｷﾞｹﾝ","kana_city":"ｼｵﾔｸﾞﾝｼｵﾔﾏﾁ","kana_address":"ﾄﾞｳｼﾀ","pref":"栃木県","city":"塩谷郡塩谷町","address":"道下"},
{"zip_code":"3292211","kana_pref":"ﾄﾁｷﾞｹﾝ","kana_city":"ｼｵﾔｸﾞﾝｼｵﾔﾏﾁ","kana_address":"ﾄﾊﾞｼﾝﾃﾞﾝ","pref":"栃木県","city":"塩谷郡塩谷町","address":"鳥羽新田"},
{"zip_code":"3292223","kana_pref":"ﾄﾁｷﾞｹﾝ","kana_city":"ｼｵﾔｸﾞﾝｼｵﾔﾏﾁ","kana_address":"ﾊﾗｵｷﾞﾉﾒ","pref":"栃木県","city":"塩谷郡塩谷町","address":"原荻野目"},
{"zip_code":"3292214","kana_pref":"ﾄﾁｷﾞｹﾝ","kana_city":"ｼｵﾔｸﾞﾝｼｵﾔﾏﾁ","kana_address":"ﾋｶﾞｼﾎﾞｳ","pref":"栃木県","city":"塩谷郡塩谷町","address":"東房"},
{"zip_code":"3292333","kana_pref":"ﾄﾁｷﾞｹﾝ","kana_city":"ｼｵﾔｸﾞﾝｼｵﾔﾏﾁ","kana_address":"ﾋｼﾞｳﾁ","pref":"栃木県","city":"塩谷郡塩谷町","address":"肘内"},
{"zip_code":"3292441","kana_pref":"ﾄﾁｷﾞｹﾝ","kana_city":"ｼｵﾔｸﾞﾝｼｵﾔﾏﾁ","kana_address":"ﾌﾆｭｳ","pref":"栃木県","city":"塩谷郡塩谷町","address":"船生"},
{"zip_code":"3292226","kana_pref":"ﾄﾁｷﾞｹﾝ","kana_city":"ｼｵﾔｸﾞﾝｼｵﾔﾏﾁ","kana_address":"ﾖｼﾊﾞｼﾝﾃﾞﾝ","pref":"栃木県","city":"塩谷郡塩谷町","address":"芦場新田"},
{"zip_code":"3291200","kana_pref":"ﾄﾁｷﾞｹﾝ","kana_city":"ｼｵﾔｸﾞﾝﾀｶﾈｻﾞﾜﾏﾁ","kana_address":"","pref":"栃木県","city":"塩谷郡高根沢町","address":""},
{"zip_code":"3291205","kana_pref":"ﾄﾁｷﾞｹﾝ","kana_city":"ｼｵﾔｸﾞﾝﾀｶﾈｻﾞﾜﾏﾁ","kana_address":"ｲｲﾑﾛ","pref":"栃木県","city":"塩谷郡高根沢町","address":"飯室"},
{"zip_code":"3291225","kana_pref":"ﾄﾁｷﾞｹﾝ","kana_city":"ｼｵﾔｸﾞﾝﾀｶﾈｻﾞﾜﾏﾁ","kana_address":"ｲｼﾂﾞｴ","pref":"栃木県","city":"塩谷郡高根沢町","address":"石末"},
{"zip_code":"3291217","kana_pref":"ﾄﾁｷﾞｹﾝ","kana_city":"ｼｵﾔｸﾞﾝﾀｶﾈｻﾞﾜﾏﾁ","kana_address":"ｵｵﾀ","pref":"栃木県","city":"塩谷郡高根沢町","address":"太田"},
{"zip_code":"3291226","kana_pref":"ﾄﾁｷﾞｹﾝ","kana_city":"ｼｵﾔｸﾞﾝﾀｶﾈｻﾞﾜﾏﾁ","kana_address":"ｵｵﾔ","pref":"栃木県","city":"塩谷郡高根沢町","address":"大谷"},
{"zip_code":"3291201","kana_pref":"ﾄﾁｷﾞｹﾝ","kana_city":"ｼｵﾔｸﾞﾝﾀｶﾈｻﾞﾜﾏﾁ","kana_address":"ｶｷﾉｷｻﾞﾜ","pref":"栃木県","city":"塩谷郡高根沢町","address":"柿木沢"},
{"zip_code":"3291235","kana_pref":"ﾄﾁｷﾞｹﾝ","kana_city":"ｼｵﾔｸﾞﾝﾀｶﾈｻﾞﾜﾏﾁ","kana_address":"ｶﾐｱｸﾂ","pref":"栃木県","city":"塩谷郡高根沢町","address":"上阿久津"},
{"zip_code":"3291212","kana_pref":"ﾄﾁｷﾞｹﾝ","kana_city":"ｼｵﾔｸﾞﾝﾀｶﾈｻﾞﾜﾏﾁ","kana_address":"ｶﾐｶｼﾜｻﾞｷ","pref":"栃木県","city":"塩谷郡高根沢町","address":"上柏崎"},
{"zip_code":"3291224","kana_pref":"ﾄﾁｷﾞｹﾝ","kana_city":"ｼｵﾔｸﾞﾝﾀｶﾈｻﾞﾜﾏﾁ","kana_address":"ｶﾐﾀｶﾈｻﾞﾜ","pref":"栃木県","city":"塩谷郡高根沢町","address":"上高根沢"},
{"zip_code":"3291211","kana_pref":"ﾄﾁｷﾞｹﾝ","kana_city":"ｼｵﾔｸﾞﾝﾀｶﾈｻﾞﾜﾏﾁ","kana_address":"ｶﾒﾅｼ","pref":"栃木県","city":"塩谷郡高根沢町","address":"亀梨"},
{"zip_code":"3291215","kana_pref":"ﾄﾁｷﾞｹﾝ","kana_city":"ｼｵﾔｸﾞﾝﾀｶﾈｻﾞﾜﾏﾁ","kana_address":"ｷｭｳﾌﾞ","pref":"栃木県","city":"塩谷郡高根沢町","address":"給部"},
{"zip_code":"3291223","kana_pref":"ﾄﾁｷﾞｹﾝ","kana_city":"ｼｵﾔｸﾞﾝﾀｶﾈｻﾞﾜﾏﾁ","kana_address":"ｸﾘｶﾞｼﾏ","pref":"栃木県","city":"塩谷郡高根沢町","address":"栗ケ島"},
{"zip_code":"3291216","kana_pref":"ﾄﾁｷﾞｹﾝ","kana_city":"ｼｵﾔｸﾞﾝﾀｶﾈｻﾞﾜﾏﾁ","kana_address":"ｸﾜｸﾎﾞ","pref":"栃木県","city":"塩谷郡高根沢町","address":"桑窪"},
{"zip_code":"3291232","kana_pref":"ﾄﾁｷﾞｹﾝ","kana_city":"ｼｵﾔｸﾞﾝﾀｶﾈｻﾞﾜﾏﾁ","kana_address":"ｺｳﾖｳﾀﾞｲ","pref":"栃木県","city":"塩谷郡高根沢町","address":"光陽台"},
{"zip_code":"3291213","kana_pref":"ﾄﾁｷﾞｹﾝ","kana_city":"ｼｵﾔｸﾞﾝﾀｶﾈｻﾞﾜﾏﾁ","kana_address":"ｼﾓｶｼﾜｻﾞｷ","pref":"栃木県","city":"塩谷郡高根沢町","address":"下柏崎"},
{"zip_code":"3291222","kana_pref":"ﾄﾁｷﾞｹﾝ","kana_city":"ｼｵﾔｸﾞﾝﾀｶﾈｻﾞﾜﾏﾁ","kana_address":"ﾃﾗﾜﾀﾄﾞ","pref":"栃木県","city":"塩谷郡高根沢町","address":"寺渡戸"},
{"zip_code":"3291234","kana_pref":"ﾄﾁｷﾞｹﾝ","kana_city":"ｼｵﾔｸﾞﾝﾀｶﾈｻﾞﾜﾏﾁ","kana_address":"ﾅｶｱｸﾂ","pref":"栃木県","city":"塩谷郡高根沢町","address":"中阿久津"},
{"zip_code":"3291214","kana_pref":"ﾄﾁｷﾞｹﾝ","kana_city":"ｼｵﾔｸﾞﾝﾀｶﾈｻﾞﾜﾏﾁ","kana_address":"ﾅｶｶｼﾜｻﾞｷ","pref":"栃木県","city":"塩谷郡高根沢町","address":"中柏崎"},
{"zip_code":"3291221","kana_pref":"ﾄﾁｷﾞｹﾝ","kana_city":"ｼｵﾔｸﾞﾝﾀｶﾈｻﾞﾜﾏﾁ","kana_address":"ﾆｼｺﾞｳﾔ","pref":"栃木県","city":"塩谷郡高根沢町","address":"西高谷"},
{"zip_code":"3291202","kana_pref":"ﾄﾁｷﾞｹﾝ","kana_city":"ｼｵﾔｸﾞﾝﾀｶﾈｻﾞﾜﾏﾁ","kana_address":"ﾊｻﾏﾀ","pref":"栃木県","city":"塩谷郡高根沢町","address":"狭間田"},
{"zip_code":"3291207","kana_pref":"ﾄﾁｷﾞｹﾝ","kana_city":"ｼｵﾔｸﾞﾝﾀｶﾈｻﾞﾜﾏﾁ","kana_address":"ﾊﾅｵｶ","pref":"栃木県","city":"塩谷郡高根沢町","address":"花岡"},
{"zip_code":"3291206","kana_pref":"ﾄﾁｷﾞｹﾝ","kana_city":"ｼｵﾔｸﾞﾝﾀｶﾈｻﾞﾜﾏﾁ","kana_address":"ﾋﾗﾀ","pref":"栃木県","city":"塩谷郡高根沢町","address":"平田"},
{"zip_code":"3291203","kana_pref":"ﾄﾁｷﾞｹﾝ","kana_city":"ｼｵﾔｸﾞﾝﾀｶﾈｻﾞﾜﾏﾁ","kana_address":"ﾌｽｸ","pref":"栃木県","city":"塩谷郡高根沢町","address":"伏久"},
{"zip_code":"3291204","kana_pref":"ﾄﾁｷﾞｹﾝ","kana_city":"ｼｵﾔｸﾞﾝﾀｶﾈｻﾞﾜﾏﾁ","kana_address":"ﾌﾊﾞｻﾐ","pref":"栃木県","city":"塩谷郡高根沢町","address":"文挾"},
{"zip_code":"3291233","kana_pref":"ﾄﾁｷﾞｹﾝ","kana_city":"ｼｵﾔｸﾞﾝﾀｶﾈｻﾞﾜﾏﾁ","kana_address":"ﾎｳｼｬｸｼﾞ","pref":"栃木県","city":"塩谷郡高根沢町","address":"宝積寺"},
{"zip_code":"3291231","kana_pref":"ﾄﾁｷﾞｹﾝ","kana_city":"ｼｵﾔｸﾞﾝﾀｶﾈｻﾞﾜﾏﾁ","kana_address":"ﾎｳｾｷﾀﾞｲ","pref":"栃木県","city":"塩谷郡高根沢町","address":"宝石台"},
{"zip_code":"3293200","kana_pref":"ﾄﾁｷﾞｹﾝ","kana_city":"ﾅｽｸﾞﾝﾅｽﾏﾁ","kana_address":"","pref":"栃木県","city":"那須郡那須町","address":""},
{"zip_code":"3293443","kana_pref":"ﾄﾁｷﾞｹﾝ","kana_city":"ﾅｽｸﾞﾝﾅｽﾏﾁ","kana_address":"ｱｼﾉ","pref":"栃木県","city":"那須郡那須町","address":"芦野"},
{"zip_code":"3293432","kana_pref":"ﾄﾁｷﾞｹﾝ","kana_city":"ﾅｽｸﾞﾝﾅｽﾏﾁ","kana_address":"ｱｽﾞｻ","pref":"栃木県","city":"那須郡那須町","address":"梓"},
{"zip_code":"3293436","kana_pref":"ﾄﾁｷﾞｹﾝ","kana_city":"ﾅｽｸﾞﾝﾅｽﾏﾁ","kana_address":"ｲｵｳﾉ","pref":"栃木県","city":"那須郡那須町","address":"伊王野"},
{"zip_code":"3293447","kana_pref":"ﾄﾁｷﾞｹﾝ","kana_city":"ﾅｽｸﾞﾝﾅｽﾏﾁ","kana_address":"ｲﾅｻﾞﾜ","pref":"栃木県","city":"那須郡那須町","address":"稲沢"},
{"zip_code":"3293221","kana_pref":"ﾄﾁｷﾞｹﾝ","kana_city":"ﾅｽｸﾞﾝﾅｽﾏﾁ","kana_address":"ｳﾙｼﾂｶ","pref":"栃木県","city":"那須郡那須町","address":"漆塚"},
{"zip_code":"3293223","kana_pref":"ﾄﾁｷﾞｹﾝ","kana_city":"ﾅｽｸﾞﾝﾅｽﾏﾁ","kana_address":"ｵｵｼﾏ","pref":"栃木県","city":"那須郡那須町","address":"大島"},
{"zip_code":"3293431","kana_pref":"ﾄﾁｷﾞｹﾝ","kana_city":"ﾅｽｸﾞﾝﾅｽﾏﾁ","kana_address":"ｵｵﾊﾀ","pref":"栃木県","city":"那須郡那須町","address":"大畑"},
{"zip_code":"3293433","kana_pref":"ﾄﾁｷﾞｹﾝ","kana_city":"ﾅｽｸﾞﾝﾅｽﾏﾁ","kana_address":"ｵｵﾜｽ","pref":"栃木県","city":"那須郡那須町","address":"大和須"},
{"zip_code":"3293444","kana_pref":"ﾄﾁｷﾞｹﾝ","kana_city":"ﾅｽｸﾞﾝﾅｽﾏﾁ","kana_address":"ﾃﾗｺ","pref":"栃木県","city":"那須郡那須町","address":"寺子"},
{"zip_code":"3293215","kana_pref":"ﾄﾁｷﾞｹﾝ","kana_city":"ﾅｽｸﾞﾝﾅｽﾏﾁ","kana_address":"ﾃﾗｺｵﾂ","pref":"栃木県","city":"那須郡那須町","address":"寺子乙"},
{"zip_code":"3293222","kana_pref":"ﾄﾁｷﾞｹﾝ","kana_city":"ﾅｽｸﾞﾝﾅｽﾏﾁ","kana_address":"ﾃﾗｺﾍｲ","pref":"栃木県","city":"那須郡那須町","address":"寺子丙"},
{"zip_code":"3293212","kana_pref":"ﾄﾁｷﾞｹﾝ","kana_city":"ﾅｽｸﾞﾝﾅｽﾏﾁ","kana_address":"ﾄﾐｵｶ","pref":"栃木県","city":"那須郡那須町","address":"富岡"},
{"zip_code":"3293213","kana_pref":"ﾄﾁｷﾞｹﾝ","kana_city":"ﾅｽｸﾞﾝﾅｽﾏﾁ","kana_address":"ﾄﾖﾊﾗ","pref":"栃木県","city":"那須郡那須町","address":"豊原"},
{"zip_code":"3293211","kana_pref":"ﾄﾁｷﾞｹﾝ","kana_city":"ﾅｽｸﾞﾝﾅｽﾏﾁ","kana_address":"ﾄﾖﾊﾗｺｳ","pref":"栃木県","city":"那須郡那須町","address":"豊原甲"},
{"zip_code":"3293224","kana_pref":"ﾄﾁｷﾞｹﾝ","kana_city":"ﾅｽｸﾞﾝﾅｽﾏﾁ","kana_address":"ﾄﾖﾊﾗｵﾂ","pref":"栃木県","city":"那須郡那須町","address":"豊原乙"},
{"zip_code":"3293225","kana_pref":"ﾄﾁｷﾞｹﾝ","kana_city":"ﾅｽｸﾞﾝﾅｽﾏﾁ","kana_address":"ﾄﾖﾊﾗﾍｲ","pref":"栃木県","city":"那須郡那須町","address":"豊原丙"},
{"zip_code":"3293446","kana_pref":"ﾄﾁｷﾞｹﾝ","kana_city":"ﾅｽｸﾞﾝﾅｽﾏﾁ","kana_address":"ﾇﾏﾉｲ","pref":"栃木県","city":"那須郡那須町","address":"沼野井"},
{"zip_code":"3293445","kana_pref":"ﾄﾁｷﾞｹﾝ","kana_city":"ﾅｽｸﾞﾝﾅｽﾏﾁ","kana_address":"ﾋｶﾞｼｲﾜｻﾞｷ","pref":"栃木県","city":"那須郡那須町","address":"東岩崎"},
{"zip_code":"3293437","kana_pref":"ﾄﾁｷﾞｹﾝ","kana_city":"ﾅｽｸﾞﾝﾅｽﾏﾁ","kana_address":"ﾐﾉｻﾞﾜ","pref":"栃木県","city":"那須郡那須町","address":"蓑沢"},
{"zip_code":"3293435","kana_pref":"ﾄﾁｷﾞｹﾝ","kana_city":"ﾅｽｸﾞﾝﾅｽﾏﾁ","kana_address":"ﾑﾂﾔ","pref":"栃木県","city":"那須郡那須町","address":"睦家"},
{"zip_code":"3293434","kana_pref":"ﾄﾁｷﾞｹﾝ","kana_city":"ﾅｽｸﾞﾝﾅｽﾏﾁ","kana_address":"ﾔﾅｾﾞ","pref":"栃木県","city":"那須郡那須町","address":"梁瀬"},
{"zip_code":"3293214","kana_pref":"ﾄﾁｷﾞｹﾝ","kana_city":"ﾅｽｸﾞﾝﾅｽﾏﾁ","kana_address":"ﾖｺｵｶ(1563","pref":"栃木県","city":"那須郡那須町","address":"横岡（１５６３"},
{"zip_code":"3293214","kana_pref":"ﾄﾁｷﾞｹﾝ","kana_city":"ﾅｽｸﾞﾝﾅｽﾏﾁ","kana_address":"1660","pref":"栃木県","city":"那須郡那須町","address":"１６６０"},
{"zip_code":"3293214","kana_pref":"ﾄﾁｷﾞｹﾝ","kana_city":"ﾅｽｸﾞﾝﾅｽﾏﾁ","kana_address":"1670","pref":"栃木県","city":"那須郡那須町","address":"１６７０"},
{"zip_code":"3293214","kana_pref":"ﾄﾁｷﾞｹﾝ","kana_city":"ﾅｽｸﾞﾝﾅｽﾏﾁ","kana_address":"1728","pref":"栃木県","city":"那須郡那須町","address":"１７２８"},
{"zip_code":"3293214","kana_pref":"ﾄﾁｷﾞｹﾝ","kana_city":"ﾅｽｸﾞﾝﾅｽﾏﾁ","kana_address":"1736","pref":"栃木県","city":"那須郡那須町","address":"１７３６"},
{"zip_code":"3293214","kana_pref":"ﾄﾁｷﾞｹﾝ","kana_city":"ﾅｽｸﾞﾝﾅｽﾏﾁ","kana_address":"174","pref":"栃木県","city":"那須郡那須町","address":"１７４"},
{"zip_code":"3293214","kana_pref":"ﾄﾁｷﾞｹﾝ","kana_city":"ﾅｽｸﾞﾝﾅｽﾏﾁ","kana_address":"8ﾊﾞﾝﾁ","pref":"栃木県","city":"那須郡那須町","address":"８番地"},
{"zip_code":"3293214","kana_pref":"ﾄﾁｷﾞｹﾝ","kana_city":"ﾅｽｸﾞﾝﾅｽﾏﾁ","kana_address":"1767-4ﾊﾞﾝﾁ)","pref":"栃木県","city":"那須郡那須町","address":"１７６７−４番地）"},
{"zip_code":"3293442","kana_pref":"ﾄﾁｷﾞｹﾝ","kana_city":"ﾅｽｸﾞﾝﾅｽﾏﾁ","kana_address":"ﾖｺｵｶ","pref":"栃木県","city":"那須郡那須町","address":"横岡"},
{"zip_code":"3293441","kana_pref":"ﾄﾁｷﾞｹﾝ","kana_city":"ﾅｽｸﾞﾝﾅｽﾏﾁ","kana_address":"ﾖﾘｲ","pref":"栃木県","city":"那須郡那須町","address":"寄居"}]}