{"zip_code":[
{"zip_code":"3300800","kana_pref":"ｻｲﾀﾏｹﾝ","kana_city":"ｻｲﾀﾏｼｵｵﾐﾔｸ","kana_address":"","pref":"埼玉県","city":"さいたま市大宮区","address":""},
{"zip_code":"3300841","kana_pref":"ｻｲﾀﾏｹﾝ","kana_city":"ｻｲﾀﾏｼｵｵﾐﾔｸ","kana_address":"ｱｽﾞﾏﾁｮｳ","pref":"埼玉県","city":"さいたま市大宮区","address":"東町"},
{"zip_code":"3300834","kana_pref":"ｻｲﾀﾏｹﾝ","kana_city":"ｻｲﾀﾏｼｵｵﾐﾔｸ","kana_address":"ｱﾏﾇﾏﾁｮｳ","pref":"埼玉県","city":"さいたま市大宮区","address":"天沼町"},
{"zip_code":"3300852","kana_pref":"ｻｲﾀﾏｹﾝ","kana_city":"ｻｲﾀﾏｼｵｵﾐﾔｸ","kana_address":"ｵｵﾅﾘﾁｮｳ","pref":"埼玉県","city":"さいたま市大宮区","address":"大成町"},
{"zip_code":"3300836","kana_pref":"ｻｲﾀﾏｹﾝ","kana_city":"ｻｲﾀﾏｼｵｵﾐﾔｸ","kana_address":"ｵｵﾊﾗ","pref":"埼玉県","city":"さいたま市大宮区","address":"大原"},
{"zip_code":"3300855","kana_pref":"ｻｲﾀﾏｹﾝ","kana_city":"ｻｲﾀﾏｼｵｵﾐﾔｸ","kana_address":"ｶﾐｺﾁｮｳ","pref":"埼玉県","city":"さいたま市大宮区","address":"上小町"},
{"zip_code":"3300843","kana_pref":"ｻｲﾀﾏｹﾝ","kana_city":"ｻｲﾀﾏｼｵｵﾐﾔｸ","kana_address":"ｷｼｷﾁｮｳ","pref":"埼玉県","city":"さいたま市大宮区","address":"吉敷町"},
{"zip_code":"3300835","kana_pref":"ｻｲﾀﾏｹﾝ","kana_city":"ｻｲﾀﾏｼｵｵﾐﾔｸ","kana_address":"ｷﾀﾌﾞｸﾛﾁｮｳ","pref":"埼玉県","city":"さいたま市大宮区","address":"北袋町"},
{"zip_code":"3300851","kana_pref":"ｻｲﾀﾏｹﾝ","kana_city":"ｻｲﾀﾏｼｵｵﾐﾔｸ","kana_address":"ｸｼﾋｷﾁｮｳ","pref":"埼玉県","city":"さいたま市大宮区","address":"櫛引町"},
{"zip_code":"3300854","kana_pref":"ｻｲﾀﾏｹﾝ","kana_city":"ｻｲﾀﾏｼｵｵﾐﾔｸ","kana_address":"ｻｸﾗｷﾞﾁｮｳ","pref":"埼玉県","city":"さいたま市大宮区","address":"桜木町"},
{"zip_code":"3300844","kana_pref":"ｻｲﾀﾏｹﾝ","kana_city":"ｻｲﾀﾏｼｵｵﾐﾔｸ","kana_address":"ｼﾓﾁｮｳ","pref":"埼玉県","city":"さいたま市大宮区","address":"下町"},
{"zip_code":"3300805","kana_pref":"ｻｲﾀﾏｹﾝ","kana_city":"ｻｲﾀﾏｼｵｵﾐﾔｸ","kana_address":"ｼﾞｭﾉｳﾁｮｳ","pref":"埼玉県","city":"さいたま市大宮区","address":"寿能町"},
{"zip_code":"3300842","kana_pref":"ｻｲﾀﾏｹﾝ","kana_city":"ｻｲﾀﾏｼｵｵﾐﾔｸ","kana_address":"ｾﾝｹﾞﾝﾁｮｳ","pref":"埼玉県","city":"さいたま市大宮区","address":"浅間町"},
{"zip_code":"3300846","kana_pref":"ｻｲﾀﾏｹﾝ","kana_city":"ｻｲﾀﾏｼｵｵﾐﾔｸ","kana_address":"ﾀﾞｲﾓﾝﾁｮｳ","pref":"埼玉県","city":"さいたま市大宮区","address":"大門町"},
{"zip_code":"3300803","kana_pref":"ｻｲﾀﾏｹﾝ","kana_city":"ｻｲﾀﾏｼｵｵﾐﾔｸ","kana_address":"ﾀｶﾊﾅﾁｮｳ","pref":"埼玉県","city":"さいたま市大宮区","address":"高鼻町"},
{"zip_code":"3300801","kana_pref":"ｻｲﾀﾏｹﾝ","kana_city":"ｻｲﾀﾏｼｵｵﾐﾔｸ","kana_address":"ﾄﾞﾃﾁｮｳ","pref":"埼玉県","city":"さいたま市大宮区","address":"土手町"},
{"zip_code":"3300845","kana_pref":"ｻｲﾀﾏｹﾝ","kana_city":"ｻｲﾀﾏｼｵｵﾐﾔｸ","kana_address":"ﾅｶﾁｮｳ","pref":"埼玉県","city":"さいたま市大宮区","address":"仲町"},
{"zip_code":"3300853","kana_pref":"ｻｲﾀﾏｹﾝ","kana_city":"ｻｲﾀﾏｼｵｵﾐﾔｸ","kana_address":"ﾆｼｷﾁｮｳ","pref":"埼玉県","city":"さいたま市大宮区","address":"錦町"},
{"zip_code":"3300804","kana_pref":"ｻｲﾀﾏｹﾝ","kana_city":"ｻｲﾀﾏｼｵｵﾐﾔｸ","kana_address":"ﾎﾘﾉｳﾁﾁｮｳ","pref":"埼玉県","city":"さいたま市大宮区","address":"堀の内町"},
{"zip_code":"3300856","kana_pref":"ｻｲﾀﾏｹﾝ","kana_city":"ｻｲﾀﾏｼｵｵﾐﾔｸ","kana_address":"ﾐﾊｼ","pref":"埼玉県","city":"さいたま市大宮区","address":"三橋"},
{"zip_code":"3300802","kana_pref":"ｻｲﾀﾏｹﾝ","kana_city":"ｻｲﾀﾏｼｵｵﾐﾔｸ","kana_address":"ﾐﾔﾁｮｳ","pref":"埼玉県","city":"さいたま市大宮区","address":"宮町"},
{"zip_code":"3300000","kana_pref":"ｻｲﾀﾏｹﾝ","kana_city":"ｻｲﾀﾏｼﾁｭｳｵｳｸ","kana_address":"","pref":"埼玉県","city":"さいたま市中央区","address":""},
{"zip_code":"3300081","kana_pref":"ｻｲﾀﾏｹﾝ","kana_city":"ｻｲﾀﾏｼﾁｭｳｵｳｸ","kana_address":"ｼﾝﾄｼﾝ","pref":"埼玉県","city":"さいたま市中央区","address":"新都心"},
{"zip_code":"3306090","kana_pref":"ｻｲﾀﾏｹﾝ","kana_city":"ｻｲﾀﾏｼﾁｭｳｵｳｸ","kana_address":"ｼﾝﾄｼﾝﾒｲｼﾞﾔｽﾀﾞｾｲﾒｲｻｲﾀﾏｼﾝﾄｼﾝﾋﾞﾙ","pref":"埼玉県","city":"さいたま市中央区","address":"新都心明治安田生命さいたま新都心ビル"},
{"zip_code":"3306001","kana_pref":"ｻｲﾀﾏｹﾝ","kana_city":"ｻｲﾀﾏｼﾁｭｳｵｳｸ","kana_address":"ｼﾝﾄｼﾝﾒｲｼﾞﾔｽﾀﾞｾｲﾒｲｻｲﾀﾏｼﾝﾄｼﾝﾋﾞﾙ","pref":"埼玉県","city":"さいたま市中央区","address":"新都心明治安田生命さいたま新都心ビル"},
{"zip_code":"3306002","kana_pref":"ｻｲﾀﾏｹﾝ","kana_city":"ｻｲﾀﾏｼﾁｭｳｵｳｸ","kana_address":"ｼﾝﾄｼﾝﾒｲｼﾞﾔｽﾀﾞｾｲﾒｲｻｲﾀﾏｼﾝﾄｼﾝﾋﾞﾙ","pref":"埼玉県","city":"さいたま市中央区","address":"新都心明治安田生命さいたま新都心ビル"},
{"zip_code":"3306003","kana_pref":"ｻｲﾀﾏｹﾝ","kana_city":"ｻｲﾀﾏｼﾁｭｳｵｳｸ","kana_address":"ｼﾝﾄｼﾝﾒｲｼﾞﾔｽﾀﾞｾｲﾒｲｻｲﾀﾏｼﾝﾄｼﾝﾋﾞﾙ","pref":"埼玉県","city":"さいたま市中央区","address":"新都心明治安田生命さいたま新都心ビル"},
{"zip_code":"3306004","kana_pref":"ｻｲﾀﾏｹﾝ","kana_city":"ｻｲﾀﾏｼﾁｭｳｵｳｸ","kana_address":"ｼﾝﾄｼﾝﾒｲｼﾞﾔｽﾀﾞｾｲﾒｲｻｲﾀﾏｼﾝﾄｼﾝﾋﾞﾙ","pref":"埼玉県","city":"さいたま市中央区","address":"新都心明治安田生命さいたま新都心ビル"},
{"zip_code":"3306005","kana_pref":"ｻｲﾀﾏｹﾝ","kana_city":"ｻｲﾀﾏｼﾁｭｳｵｳｸ","kana_address":"ｼﾝﾄｼﾝﾒｲｼﾞﾔｽﾀﾞｾｲﾒｲｻｲﾀﾏｼﾝﾄｼﾝﾋﾞﾙ","pref":"埼玉県","city":"さいたま市中央区","address":"新都心明治安田生命さいたま新都心ビル"},
{"zip_code":"3306006","kana_pref":"ｻｲﾀﾏｹﾝ","kana_city":"ｻｲﾀﾏｼﾁｭｳｵｳｸ","kana_address":"ｼﾝﾄｼﾝﾒｲｼﾞﾔｽﾀﾞｾｲﾒｲｻｲﾀﾏｼﾝﾄｼﾝﾋﾞﾙ","pref":"埼玉県","city":"さいたま市中央区","address":"新都心明治安田生命さいたま新都心ビル"},
{"zip_code":"3306007","kana_pref":"ｻｲﾀﾏｹﾝ","kana_city":"ｻｲﾀﾏｼﾁｭｳｵｳｸ","kana_address":"ｼﾝﾄｼﾝﾒｲｼﾞﾔｽﾀﾞｾｲﾒｲｻｲﾀﾏｼﾝﾄｼﾝﾋﾞﾙ","pref":"埼玉県","city":"さいたま市中央区","address":"新都心明治安田生命さいたま新都心ビル"},
{"zip_code":"3306008","kana_pref":"ｻｲﾀﾏｹﾝ","kana_city":"ｻｲﾀﾏｼﾁｭｳｵｳｸ","kana_address":"ｼﾝﾄｼﾝﾒｲｼﾞﾔｽﾀﾞｾｲﾒｲｻｲﾀﾏｼﾝﾄｼﾝﾋﾞﾙ","pref":"埼玉県","city":"さいたま市中央区","address":"新都心明治安田生命さいたま新都心ビル"},
{"zip_code":"3306009","kana_pref":"ｻｲﾀﾏｹﾝ","kana_city":"ｻｲﾀﾏｼﾁｭｳｵｳｸ","kana_address":"ｼﾝﾄｼﾝﾒｲｼﾞﾔｽﾀﾞｾｲﾒｲｻｲﾀﾏｼﾝﾄｼﾝﾋﾞﾙ","pref":"埼玉県","city":"さいたま市中央区","address":"新都心明治安田生命さいたま新都心ビル"},
{"zip_code":"3306010","kana_pref":"ｻｲﾀﾏｹﾝ","kana_city":"ｻｲﾀﾏｼﾁｭｳｵｳｸ","kana_address":"ｼﾝﾄｼﾝﾒｲｼﾞﾔｽﾀﾞｾｲﾒｲｻｲﾀﾏｼﾝﾄｼﾝﾋﾞﾙ","pref":"埼玉県","city":"さいたま市中央区","address":"新都心明治安田生命さいたま新都心ビル"},
{"zip_code":"3306011","kana_pref":"ｻｲﾀﾏｹﾝ","kana_city":"ｻｲﾀﾏｼﾁｭｳｵｳｸ","kana_address":"ｼﾝﾄｼﾝﾒｲｼﾞﾔｽﾀﾞｾｲﾒｲｻｲﾀﾏｼﾝﾄｼﾝﾋﾞﾙ","pref":"埼玉県","city":"さいたま市中央区","address":"新都心明治安田生命さいたま新都心ビル"},
{"zip_code":"3306012","kana_pref":"ｻｲﾀﾏｹﾝ","kana_city":"ｻｲﾀﾏｼﾁｭｳｵｳｸ","kana_address":"ｼﾝﾄｼﾝﾒｲｼﾞﾔｽﾀﾞｾｲﾒｲｻｲﾀﾏｼﾝﾄｼﾝﾋﾞﾙ","pref":"埼玉県","city":"さいたま市中央区","address":"新都心明治安田生命さいたま新都心ビル"},
{"zip_code":"3306013","kana_pref":"ｻｲﾀﾏｹﾝ","kana_city":"ｻｲﾀﾏｼﾁｭｳｵｳｸ","kana_address":"ｼﾝﾄｼﾝﾒｲｼﾞﾔｽﾀﾞｾｲﾒｲｻｲﾀﾏｼﾝﾄｼﾝﾋﾞﾙ","pref":"埼玉県","city":"さいたま市中央区","address":"新都心明治安田生命さいたま新都心ビル"},
{"zip_code":"3306014","kana_pref":"ｻｲﾀﾏｹﾝ","kana_city":"ｻｲﾀﾏｼﾁｭｳｵｳｸ","kana_address":"ｼﾝﾄｼﾝﾒｲｼﾞﾔｽﾀﾞｾｲﾒｲｻｲﾀﾏｼﾝﾄｼﾝﾋﾞﾙ","pref":"埼玉県","city":"さいたま市中央区","address":"新都心明治安田生命さいたま新都心ビル"},
{"zip_code":"3306015","kana_pref":"ｻｲﾀﾏｹﾝ","kana_city":"ｻｲﾀﾏｼﾁｭｳｵｳｸ","kana_address":"ｼﾝﾄｼﾝﾒｲｼﾞﾔｽﾀﾞｾｲﾒｲｻｲﾀﾏｼﾝﾄｼﾝﾋﾞﾙ","pref":"埼玉県","city":"さいたま市中央区","address":"新都心明治安田生命さいたま新都心ビル"},
{"zip_code":"3306016","kana_pref":"ｻｲﾀﾏｹﾝ","kana_city":"ｻｲﾀﾏｼﾁｭｳｵｳｸ","kana_address":"ｼﾝﾄｼﾝﾒｲｼﾞﾔｽﾀﾞｾｲﾒｲｻｲﾀﾏｼﾝﾄｼﾝﾋﾞﾙ","pref":"埼玉県","city":"さいたま市中央区","address":"新都心明治安田生命さいたま新都心ビル"},
{"zip_code":"3306017","kana_pref":"ｻｲﾀﾏｹﾝ","kana_city":"ｻｲﾀﾏｼﾁｭｳｵｳｸ","kana_address":"ｼﾝﾄｼﾝﾒｲｼﾞﾔｽﾀﾞｾｲﾒｲｻｲﾀﾏｼﾝﾄｼﾝﾋﾞﾙ","pref":"埼玉県","city":"さいたま市中央区","address":"新都心明治安田生命さいたま新都心ビル"},
{"zip_code":"3306018","kana_pref":"ｻｲﾀﾏｹﾝ","kana_city":"ｻｲﾀﾏｼﾁｭｳｵｳｸ","kana_address":"ｼﾝﾄｼﾝﾒｲｼﾞﾔｽﾀﾞｾｲﾒｲｻｲﾀﾏｼﾝﾄｼﾝﾋﾞﾙ","pref":"埼玉県","city":"さいたま市中央区","address":"新都心明治安田生命さいたま新都心ビル"},
{"zip_code":"3306019","kana_pref":"ｻｲﾀﾏｹﾝ","kana_city":"ｻｲﾀﾏｼﾁｭｳｵｳｸ","kana_address":"ｼﾝﾄｼﾝﾒｲｼﾞﾔｽﾀﾞｾｲﾒｲｻｲﾀﾏｼﾝﾄｼﾝﾋﾞﾙ","pref":"埼玉県","city":"さいたま市中央区","address":"新都心明治安田生命さいたま新都心ビル"},
{"zip_code":"3306020","kana_pref":"ｻｲﾀﾏｹﾝ","kana_city":"ｻｲﾀﾏｼﾁｭｳｵｳｸ","kana_address":"ｼﾝﾄｼﾝﾒｲｼﾞﾔｽﾀﾞｾｲﾒｲｻｲﾀﾏｼﾝﾄｼﾝﾋﾞﾙ","pref":"埼玉県","city":"さいたま市中央区","address":"新都心明治安田生命さいたま新都心ビル"},
{"zip_code":"3306021","kana_pref":"ｻｲﾀﾏｹﾝ","kana_city":"ｻｲﾀﾏｼﾁｭｳｵｳｸ","kana_address":"ｼﾝﾄｼﾝﾒｲｼﾞﾔｽﾀﾞｾｲﾒｲｻｲﾀﾏｼﾝﾄｼﾝﾋﾞﾙ","pref":"埼玉県","city":"さいたま市中央区","address":"新都心明治安田生命さいたま新都心ビル"},
{"zip_code":"3306022","kana_pref":"ｻｲﾀﾏｹﾝ","kana_city":"ｻｲﾀﾏｼﾁｭｳｵｳｸ","kana_address":"ｼﾝﾄｼﾝﾒｲｼﾞﾔｽﾀﾞｾｲﾒｲｻｲﾀﾏｼﾝﾄｼﾝﾋﾞﾙ","pref":"埼玉県","city":"さいたま市中央区","address":"新都心明治安田生命さいたま新都心ビル"},
{"zip_code":"3306023","kana_pref":"ｻｲﾀﾏｹﾝ","kana_city":"ｻｲﾀﾏｼﾁｭｳｵｳｸ","kana_address":"ｼﾝﾄｼﾝﾒｲｼﾞﾔｽﾀﾞｾｲﾒｲｻｲﾀﾏｼﾝﾄｼﾝﾋﾞﾙ","pref":"埼玉県","city":"さいたま市中央区","address":"新都心明治安田生命さいたま新都心ビル"},
{"zip_code":"3306024","kana_pref":"ｻｲﾀﾏｹﾝ","kana_city":"ｻｲﾀﾏｼﾁｭｳｵｳｸ","kana_address":"ｼﾝﾄｼﾝﾒｲｼﾞﾔｽﾀﾞｾｲﾒｲｻｲﾀﾏｼﾝﾄｼﾝﾋﾞﾙ","pref":"埼玉県","city":"さいたま市中央区","address":"新都心明治安田生命さいたま新都心ビル"},
{"zip_code":"3306025","kana_pref":"ｻｲﾀﾏｹﾝ","kana_city":"ｻｲﾀﾏｼﾁｭｳｵｳｸ","kana_address":"ｼﾝﾄｼﾝﾒｲｼﾞﾔｽﾀﾞｾｲﾒｲｻｲﾀﾏｼﾝﾄｼﾝﾋﾞﾙ","pref":"埼玉県","city":"さいたま市中央区","address":"新都心明治安田生命さいたま新都心ビル"},
{"zip_code":"3306026","kana_pref":"ｻｲﾀﾏｹﾝ","kana_city":"ｻｲﾀﾏｼﾁｭｳｵｳｸ","kana_address":"ｼﾝﾄｼﾝﾒｲｼﾞﾔｽﾀﾞｾｲﾒｲｻｲﾀﾏｼﾝﾄｼﾝﾋﾞﾙ","pref":"埼玉県","city":"さいたま市中央区","address":"新都心明治安田生命さいたま新都心ビル"},
{"zip_code":"3306027","kana_pref":"ｻｲﾀﾏｹﾝ","kana_city":"ｻｲﾀﾏｼﾁｭｳｵｳｸ","kana_address":"ｼﾝﾄｼﾝﾒｲｼﾞﾔｽﾀﾞｾｲﾒｲｻｲﾀﾏｼﾝﾄｼﾝﾋﾞﾙ","pref":"埼玉県","city":"さいたま市中央区","address":"新都心明治安田生命さいたま新都心ビル"},
{"zip_code":"3306028","kana_pref":"ｻｲﾀﾏｹﾝ","kana_city":"ｻｲﾀﾏｼﾁｭｳｵｳｸ","kana_address":"ｼﾝﾄｼﾝﾒｲｼﾞﾔｽﾀﾞｾｲﾒｲｻｲﾀﾏｼﾝﾄｼﾝﾋﾞﾙ","pref":"埼玉県","city":"さいたま市中央区","address":"新都心明治安田生命さいたま新都心ビル"},
{"zip_code":"3306029","kana_pref":"ｻｲﾀﾏｹﾝ","kana_city":"ｻｲﾀﾏｼﾁｭｳｵｳｸ","kana_address":"ｼﾝﾄｼﾝﾒｲｼﾞﾔｽﾀﾞｾｲﾒｲｻｲﾀﾏｼﾝﾄｼﾝﾋﾞﾙ","pref":"埼玉県","city":"さいたま市中央区","address":"新都心明治安田生命さいたま新都心ビル"},
{"zip_code":"3306030","kana_pref":"ｻｲﾀﾏｹﾝ","kana_city":"ｻｲﾀﾏｼﾁｭｳｵｳｸ","kana_address":"ｼﾝﾄｼﾝﾒｲｼﾞﾔｽﾀﾞｾｲﾒｲｻｲﾀﾏｼﾝﾄｼﾝﾋﾞﾙ","pref":"埼玉県","city":"さいたま市中央区","address":"新都心明治安田生命さいたま新都心ビル"},
{"zip_code":"3306031","kana_pref":"ｻｲﾀﾏｹﾝ","kana_city":"ｻｲﾀﾏｼﾁｭｳｵｳｸ","kana_address":"ｼﾝﾄｼﾝﾒｲｼﾞﾔｽﾀﾞｾｲﾒｲｻｲﾀﾏｼﾝﾄｼﾝﾋﾞﾙ","pref":"埼玉県","city":"さいたま市中央区","address":"新都心明治安田生命さいたま新都心ビル"},
{"zip_code":"3306032","kana_pref":"ｻｲﾀﾏｹﾝ","kana_city":"ｻｲﾀﾏｼﾁｭｳｵｳｸ","kana_address":"ｼﾝﾄｼﾝﾒｲｼﾞﾔｽﾀﾞｾｲﾒｲｻｲﾀﾏｼﾝﾄｼﾝﾋﾞﾙ","pref":"埼玉県","city":"さいたま市中央区","address":"新都心明治安田生命さいたま新都心ビル"},
{"zip_code":"3306033","kana_pref":"ｻｲﾀﾏｹﾝ","kana_city":"ｻｲﾀﾏｼﾁｭｳｵｳｸ","kana_address":"ｼﾝﾄｼﾝﾒｲｼﾞﾔｽﾀﾞｾｲﾒｲｻｲﾀﾏｼﾝﾄｼﾝﾋﾞﾙ","pref":"埼玉県","city":"さいたま市中央区","address":"新都心明治安田生命さいたま新都心ビル"},
{"zip_code":"3306034","kana_pref":"ｻｲﾀﾏｹﾝ","kana_city":"ｻｲﾀﾏｼﾁｭｳｵｳｸ","kana_address":"ｼﾝﾄｼﾝﾒｲｼﾞﾔｽﾀﾞｾｲﾒｲｻｲﾀﾏｼﾝﾄｼﾝﾋﾞﾙ","pref":"埼玉県","city":"さいたま市中央区","address":"新都心明治安田生命さいたま新都心ビル"},
{"zip_code":"3306035","kana_pref":"ｻｲﾀﾏｹﾝ","kana_city":"ｻｲﾀﾏｼﾁｭｳｵｳｸ","kana_address":"ｼﾝﾄｼﾝﾒｲｼﾞﾔｽﾀﾞｾｲﾒｲｻｲﾀﾏｼﾝﾄｼﾝﾋﾞﾙ","pref":"埼玉県","city":"さいたま市中央区","address":"新都心明治安田生命さいたま新都心ビル"},
{"zip_code":"3300000","kana_pref":"ｻｲﾀﾏｹﾝ","kana_city":"ｻｲﾀﾏｼｳﾗﾜｸ","kana_address":"","pref":"埼玉県","city":"さいたま市浦和区","address":""},
{"zip_code":"3300046","kana_pref":"ｻｲﾀﾏｹﾝ","kana_city":"ｻｲﾀﾏｼｳﾗﾜｸ","kana_address":"ｵｵﾊﾗ","pref":"埼玉県","city":"さいたま市浦和区","address":"大原"},
{"zip_code":"3300071","kana_pref":"ｻｲﾀﾏｹﾝ","kana_city":"ｻｲﾀﾏｼｳﾗﾜｸ","kana_address":"ｶﾐｷｻﾞｷ","pref":"埼玉県","city":"さいたま市浦和区","address":"上木崎"},
{"zip_code":"3300042","kana_pref":"ｻｲﾀﾏｹﾝ","kana_city":"ｻｲﾀﾏｼｳﾗﾜｸ","kana_address":"ｷｻﾞｷ","pref":"埼玉県","city":"さいたま市浦和区","address":"木崎"},
{"zip_code":"3300064","kana_pref":"ｻｲﾀﾏｹﾝ","kana_city":"ｻｲﾀﾏｼｳﾗﾜｸ","kana_address":"ｷｼﾁｮｳ","pref":"埼玉県","city":"さいたま市浦和区","address":"岸町"},
{"zip_code":"3300074","kana_pref":"ｻｲﾀﾏｹﾝ","kana_city":"ｻｲﾀﾏｼｳﾗﾜｸ","kana_address":"ｷﾀｳﾗﾜ","pref":"埼玉県","city":"さいたま市浦和区","address":"北浦和"},
{"zip_code":"3300045","kana_pref":"ｻｲﾀﾏｹﾝ","kana_city":"ｻｲﾀﾏｼｳﾗﾜｸ","kana_address":"ｺｳｻﾞﾝﾁｮｳ","pref":"埼玉県","city":"さいたま市浦和区","address":"皇山町"},
{"zip_code":"3300051","kana_pref":"ｻｲﾀﾏｹﾝ","kana_city":"ｻｲﾀﾏｼｳﾗﾜｸ","kana_address":"ｺﾏﾊﾞ","pref":"埼玉県","city":"さいたま市浦和区","address":"駒場"},
{"zip_code":"3300065","kana_pref":"ｻｲﾀﾏｹﾝ","kana_city":"ｻｲﾀﾏｼｳﾗﾜｸ","kana_address":"ｼﾝﾒｲ","pref":"埼玉県","city":"さいたま市浦和区","address":"神明"},
{"zip_code":"3300044","kana_pref":"ｻｲﾀﾏｹﾝ","kana_city":"ｻｲﾀﾏｼｳﾗﾜｸ","kana_address":"ｾｶﾞｻｷ","pref":"埼玉県","city":"さいたま市浦和区","address":"瀬ケ崎"},
{"zip_code":"3300043","kana_pref":"ｻｲﾀﾏｹﾝ","kana_city":"ｻｲﾀﾏｼｳﾗﾜｸ","kana_address":"ﾀﾞｲﾄｳ","pref":"埼玉県","city":"さいたま市浦和区","address":"大東"},
{"zip_code":"3300063","kana_pref":"ｻｲﾀﾏｹﾝ","kana_city":"ｻｲﾀﾏｼｳﾗﾜｸ","kana_address":"ﾀｶｻｺﾞ","pref":"埼玉県","city":"さいたま市浦和区","address":"高砂"},
{"zip_code":"3300061","kana_pref":"ｻｲﾀﾏｹﾝ","kana_city":"ｻｲﾀﾏｼｳﾗﾜｸ","kana_address":"ﾄｷﾜ","pref":"埼玉県","city":"さいたま市浦和区","address":"常盤"},
{"zip_code":"3300062","kana_pref":"ｻｲﾀﾏｹﾝ","kana_city":"ｻｲﾀﾏｼｳﾗﾜｸ","kana_address":"ﾅｶﾁｮｳ","pref":"埼玉県","city":"さいたま市浦和区","address":"仲町"},
{"zip_code":"3300075","kana_pref":"ｻｲﾀﾏｹﾝ","kana_city":"ｻｲﾀﾏｼｳﾗﾜｸ","kana_address":"ﾊﾘｶﾞﾔ","pref":"埼玉県","city":"さいたま市浦和区","address":"針ケ谷"},
{"zip_code":"3300054","kana_pref":"ｻｲﾀﾏｹﾝ","kana_city":"ｻｲﾀﾏｼｳﾗﾜｸ","kana_address":"ﾋｶﾞｼｷｼﾁｮｳ","pref":"埼玉県","city":"さいたま市浦和区","address":"東岸町"},
{"zip_code":"3300055","kana_pref":"ｻｲﾀﾏｹﾝ","kana_city":"ｻｲﾀﾏｼｳﾗﾜｸ","kana_address":"ﾋｶﾞｼﾀｶｻｺﾞﾁｮｳ","pref":"埼玉県","city":"さいたま市浦和区","address":"東高砂町"},
{"zip_code":"3300056","kana_pref":"ｻｲﾀﾏｹﾝ","kana_city":"ｻｲﾀﾏｼｳﾗﾜｸ","kana_address":"ﾋｶﾞｼﾅｶﾁｮｳ","pref":"埼玉県","city":"さいたま市浦和区","address":"東仲町"},
{"zip_code":"3300053","kana_pref":"ｻｲﾀﾏｹﾝ","kana_city":"ｻｲﾀﾏｼｳﾗﾜｸ","kana_address":"ﾏｴｼﾞ","pref":"埼玉県","city":"さいたま市浦和区","address":"前地"},
{"zip_code":"3300041","kana_pref":"ｻｲﾀﾏｹﾝ","kana_city":"ｻｲﾀﾏｼｳﾗﾜｸ","kana_address":"ﾐｻｷ","pref":"埼玉県","city":"さいたま市浦和区","address":"三崎"},
{"zip_code":"3300073","kana_pref":"ｻｲﾀﾏｹﾝ","kana_city":"ｻｲﾀﾏｼｳﾗﾜｸ","kana_address":"ﾓﾄﾁｮｳ","pref":"埼玉県","city":"さいたま市浦和区","address":"元町"},
{"zip_code":"3300052","kana_pref":"ｻｲﾀﾏｹﾝ","kana_city":"ｻｲﾀﾏｼｳﾗﾜｸ","kana_address":"ﾓﾄﾌﾞﾄ","pref":"埼玉県","city":"さいたま市浦和区","address":"本太"},
{"zip_code":"3300072","kana_pref":"ｻｲﾀﾏｹﾝ","kana_city":"ｻｲﾀﾏｼｳﾗﾜｸ","kana_address":"ﾘｮｳｹ","pref":"埼玉県","city":"さいたま市浦和区","address":"領家"}]}