{"zip_code":[
{"zip_code":"3320000","kana_pref":"ｻｲﾀﾏｹﾝ","kana_city":"ｶﾜｸﾞﾁｼ","kana_address":"","pref":"埼玉県","city":"川口市","address":""},
{"zip_code":"3320031","kana_pref":"ｻｲﾀﾏｹﾝ","kana_city":"ｶﾜｸﾞﾁｼ","kana_address":"ｱｵｷ","pref":"埼玉県","city":"川口市","address":"青木"},
{"zip_code":"3320001","kana_pref":"ｻｲﾀﾏｹﾝ","kana_city":"ｶﾜｸﾞﾁｼ","kana_address":"ｱｻﾋ","pref":"埼玉県","city":"川口市","address":"朝日"},
{"zip_code":"3320005","kana_pref":"ｻｲﾀﾏｹﾝ","kana_city":"ｶﾜｸﾞﾁｼ","kana_address":"ｱﾗｲﾁｮｳ","pref":"埼玉県","city":"川口市","address":"新井町"},
{"zip_code":"3320029","kana_pref":"ｻｲﾀﾏｹﾝ","kana_city":"ｶﾜｸﾞﾁｼ","kana_address":"ｱﾗｶﾜﾁｮｳ","pref":"埼玉県","city":"川口市","address":"荒川町"},
{"zip_code":"3320023","kana_pref":"ｻｲﾀﾏｹﾝ","kana_city":"ｶﾜｸﾞﾁｼ","kana_address":"ｲｲﾂﾞｶ","pref":"埼玉県","city":"川口市","address":"飯塚"},
{"zip_code":"3320024","kana_pref":"ｻｲﾀﾏｹﾝ","kana_city":"ｶﾜｸﾞﾁｼ","kana_address":"ｲｲﾊﾗﾁｮｳ","pref":"埼玉県","city":"川口市","address":"飯原町"},
{"zip_code":"3320014","kana_pref":"ｻｲﾀﾏｹﾝ","kana_city":"ｶﾜｸﾞﾁｼ","kana_address":"ｶﾅﾔﾏﾁｮｳ","pref":"埼玉県","city":"川口市","address":"金山町"},
{"zip_code":"3320015","kana_pref":"ｻｲﾀﾏｹﾝ","kana_city":"ｶﾜｸﾞﾁｼ","kana_address":"ｶﾜｸﾞﾁ","pref":"埼玉県","city":"川口市","address":"川口"},
{"zip_code":"3320007","kana_pref":"ｻｲﾀﾏｹﾝ","kana_city":"ｶﾜｸﾞﾁｼ","kana_address":"ｶﾜﾊﾗﾁｮｳ","pref":"埼玉県","city":"川口市","address":"河原町"},
{"zip_code":"3320016","kana_pref":"ｻｲﾀﾏｹﾝ","kana_city":"ｶﾜｸﾞﾁｼ","kana_address":"ｻｲﾜｲﾁｮｳ","pref":"埼玉県","city":"川口市","address":"幸町"},
{"zip_code":"3320017","kana_pref":"ｻｲﾀﾏｹﾝ","kana_city":"ｶﾜｸﾞﾁｼ","kana_address":"ｻｶｴﾁｮｳ","pref":"埼玉県","city":"川口市","address":"栄町"},
{"zip_code":"3320006","kana_pref":"ｻｲﾀﾏｹﾝ","kana_city":"ｶﾜｸﾞﾁｼ","kana_address":"ｽｴﾋﾛ","pref":"埼玉県","city":"川口市","address":"末広"},
{"zip_code":"3320032","kana_pref":"ｻｲﾀﾏｹﾝ","kana_city":"ｶﾜｸﾞﾁｼ","kana_address":"ﾅｶｱｵｷ","pref":"埼玉県","city":"川口市","address":"中青木"},
{"zip_code":"3320022","kana_pref":"ｻｲﾀﾏｹﾝ","kana_city":"ｶﾜｸﾞﾁｼ","kana_address":"ﾅｶﾁｮｳ","pref":"埼玉県","city":"川口市","address":"仲町"},
{"zip_code":"3320034","kana_pref":"ｻｲﾀﾏｹﾝ","kana_city":"ｶﾜｸﾞﾁｼ","kana_address":"ﾅﾐｷ","pref":"埼玉県","city":"川口市","address":"並木"},
{"zip_code":"3320033","kana_pref":"ｻｲﾀﾏｹﾝ","kana_city":"ｶﾜｸﾞﾁｼ","kana_address":"ﾅﾐｷﾓﾄﾏﾁ","pref":"埼玉県","city":"川口市","address":"並木元町"},
{"zip_code":"3320035","kana_pref":"ｻｲﾀﾏｹﾝ","kana_city":"ｶﾜｸﾞﾁｼ","kana_address":"ﾆｼｱｵｷ","pref":"埼玉県","city":"川口市","address":"西青木"},
{"zip_code":"3320021","kana_pref":"ｻｲﾀﾏｹﾝ","kana_city":"ｶﾜｸﾞﾁｼ","kana_address":"ﾆｼｶﾜｸﾞﾁ","pref":"埼玉県","city":"川口市","address":"西川口"},
{"zip_code":"3320025","kana_pref":"ｻｲﾀﾏｹﾝ","kana_city":"ｶﾜｸﾞﾁｼ","kana_address":"ﾊﾗﾏﾁ","pref":"埼玉県","city":"川口市","address":"原町"},
{"zip_code":"3320003","kana_pref":"ｻｲﾀﾏｹﾝ","kana_city":"ｶﾜｸﾞﾁｼ","kana_address":"ﾋｶﾞｼﾘｮｳｹ","pref":"埼玉県","city":"川口市","address":"東領家"},
{"zip_code":"3320013","kana_pref":"ｻｲﾀﾏｹﾝ","kana_city":"ｶﾜｸﾞﾁｼ","kana_address":"ﾌﾅﾄﾁｮｳ","pref":"埼玉県","city":"川口市","address":"舟戸町"},
{"zip_code":"3320012","kana_pref":"ｻｲﾀﾏｹﾝ","kana_city":"ｶﾜｸﾞﾁｼ","kana_address":"ﾎﾝﾁｮｳ","pref":"埼玉県","city":"川口市","address":"本町"},
{"zip_code":"3320027","kana_pref":"ｻｲﾀﾏｹﾝ","kana_city":"ｶﾜｸﾞﾁｼ","kana_address":"ﾐﾄﾞﾘﾁｮｳ","pref":"埼玉県","city":"川口市","address":"緑町"},
{"zip_code":"3320026","kana_pref":"ｻｲﾀﾏｹﾝ","kana_city":"ｶﾜｸﾞﾁｼ","kana_address":"ﾐﾅﾐﾁｮｳ","pref":"埼玉県","city":"川口市","address":"南町"},
{"zip_code":"3320028","kana_pref":"ｻｲﾀﾏｹﾝ","kana_city":"ｶﾜｸﾞﾁｼ","kana_address":"ﾐﾔﾁｮｳ","pref":"埼玉県","city":"川口市","address":"宮町"},
{"zip_code":"3320011","kana_pref":"ｻｲﾀﾏｹﾝ","kana_city":"ｶﾜｸﾞﾁｼ","kana_address":"ﾓﾄｺﾞｳ","pref":"埼玉県","city":"川口市","address":"元郷"},
{"zip_code":"3320002","kana_pref":"ｻｲﾀﾏｹﾝ","kana_city":"ｶﾜｸﾞﾁｼ","kana_address":"ﾔﾍｲ","pref":"埼玉県","city":"川口市","address":"弥平"},
{"zip_code":"3320004","kana_pref":"ｻｲﾀﾏｹﾝ","kana_city":"ｶﾜｸﾞﾁｼ","kana_address":"ﾘｮｳｹ","pref":"埼玉県","city":"川口市","address":"領家"}]}