{"zip_code":[
{"zip_code":"3330824","kana_pref":"ｻｲﾀﾏｹﾝ","kana_city":"ｶﾜｸﾞﾁｼ","kana_address":"ｱｶｼﾊﾞｼﾝﾃﾞﾝ","pref":"埼玉県","city":"川口市","address":"赤芝新田"},
{"zip_code":"3330825","kana_pref":"ｻｲﾀﾏｹﾝ","kana_city":"ｶﾜｸﾞﾁｼ","kana_address":"ｱｶﾔﾏ","pref":"埼玉県","city":"川口市","address":"赤山"},
{"zip_code":"3330826","kana_pref":"ｻｲﾀﾏｹﾝ","kana_city":"ｶﾜｸﾞﾁｼ","kana_address":"ｱﾗｲｼﾞｭｸ","pref":"埼玉県","city":"川口市","address":"新井宿"},
{"zip_code":"3330812","kana_pref":"ｻｲﾀﾏｹﾝ","kana_city":"ｶﾜｸﾞﾁｼ","kana_address":"ｱﾝｷﾞｮｳﾆｼﾀﾃﾉ","pref":"埼玉県","city":"川口市","address":"安行西立野"},
{"zip_code":"3330836","kana_pref":"ｻｲﾀﾏｹﾝ","kana_city":"ｶﾜｸﾞﾁｼ","kana_address":"ｱﾝｷﾞｮｳﾘｮｳｻﾞｲｹ","pref":"埼玉県","city":"川口市","address":"安行領在家"},
{"zip_code":"3330834","kana_pref":"ｻｲﾀﾏｹﾝ","kana_city":"ｶﾜｸﾞﾁｼ","kana_address":"ｱﾝｷﾞｮｳﾘｮｳﾈｷﾞｼ","pref":"埼玉県","city":"川口市","address":"安行領根岸"},
{"zip_code":"3330865","kana_pref":"ｻｲﾀﾏｹﾝ","kana_city":"ｶﾜｸﾞﾁｼ","kana_address":"ｲｶﾘ","pref":"埼玉県","city":"川口市","address":"伊刈"},
{"zip_code":"3330823","kana_pref":"ｻｲﾀﾏｹﾝ","kana_city":"ｶﾜｸﾞﾁｼ","kana_address":"ｲｼｶﾞﾐ","pref":"埼玉県","city":"川口市","address":"石神"},
{"zip_code":"3330844","kana_pref":"ｻｲﾀﾏｹﾝ","kana_city":"ｶﾜｸﾞﾁｼ","kana_address":"ｶﾐｱｵｷ","pref":"埼玉県","city":"川口市","address":"上青木"},
{"zip_code":"3330845","kana_pref":"ｻｲﾀﾏｹﾝ","kana_city":"ｶﾜｸﾞﾁｼ","kana_address":"ｶﾐｱｵｷﾆｼ","pref":"埼玉県","city":"川口市","address":"上青木西"},
{"zip_code":"3330831","kana_pref":"ｻｲﾀﾏｹﾝ","kana_city":"ｶﾜｸﾞﾁｼ","kana_address":"ｷｿﾞﾛ","pref":"埼玉県","city":"川口市","address":"木曽呂"},
{"zip_code":"3330862","kana_pref":"ｻｲﾀﾏｹﾝ","kana_city":"ｶﾜｸﾞﾁｼ","kana_address":"ｷﾀｿﾞﾉﾁｮｳ","pref":"埼玉県","city":"川口市","address":"北園町"},
{"zip_code":"3330815","kana_pref":"ｻｲﾀﾏｹﾝ","kana_city":"ｶﾜｸﾞﾁｼ","kana_address":"ｷﾀﾊﾗﾀﾞｲ","pref":"埼玉県","city":"川口市","address":"北原台"},
{"zip_code":"3330804","kana_pref":"ｻｲﾀﾏｹﾝ","kana_city":"ｶﾜｸﾞﾁｼ","kana_address":"ｷｭｳｻﾞｴﾓﾝｼﾝﾃﾞﾝ","pref":"埼玉県","city":"川口市","address":"久左衛門新田"},
{"zip_code":"3330814","kana_pref":"ｻｲﾀﾏｹﾝ","kana_city":"ｶﾜｸﾞﾁｼ","kana_address":"ｷﾞｮｴ","pref":"埼玉県","city":"川口市","address":"行衛"},
{"zip_code":"3330822","kana_pref":"ｻｲﾀﾏｹﾝ","kana_city":"ｶﾜｸﾞﾁｼ","kana_address":"ｹﾞﾝｻﾞｴﾓﾝｼﾝﾃﾞﾝ","pref":"埼玉県","city":"川口市","address":"源左衛門新田"},
{"zip_code":"3330832","kana_pref":"ｻｲﾀﾏｹﾝ","kana_city":"ｶﾜｸﾞﾁｼ","kana_address":"ｺﾞｳﾄﾞ","pref":"埼玉県","city":"川口市","address":"神戸"},
{"zip_code":"3330857","kana_pref":"ｻｲﾀﾏｹﾝ","kana_city":"ｶﾜｸﾞﾁｼ","kana_address":"ｺﾔﾊﾞ","pref":"埼玉県","city":"川口市","address":"小谷場"},
{"zip_code":"3330863","kana_pref":"ｻｲﾀﾏｹﾝ","kana_city":"ｶﾜｸﾞﾁｼ","kana_address":"ｻﾞｲｹﾁｮｳ","pref":"埼玉県","city":"川口市","address":"在家町"},
{"zip_code":"3330816","kana_pref":"ｻｲﾀﾏｹﾝ","kana_city":"ｶﾜｸﾞﾁｼ","kana_address":"ｻｼﾏ","pref":"埼玉県","city":"川口市","address":"差間"},
{"zip_code":"3330866","kana_pref":"ｻｲﾀﾏｹﾝ","kana_city":"ｶﾜｸﾞﾁｼ","kana_address":"ｼﾊﾞ","pref":"埼玉県","city":"川口市","address":"芝"},
{"zip_code":"3330848","kana_pref":"ｻｲﾀﾏｹﾝ","kana_city":"ｶﾜｸﾞﾁｼ","kana_address":"ｼﾊﾞｼﾓ","pref":"埼玉県","city":"川口市","address":"芝下"},
{"zip_code":"3330851","kana_pref":"ｻｲﾀﾏｹﾝ","kana_city":"ｶﾜｸﾞﾁｼ","kana_address":"ｼﾊﾞｼﾝﾏﾁ","pref":"埼玉県","city":"川口市","address":"芝新町"},
{"zip_code":"3330853","kana_pref":"ｻｲﾀﾏｹﾝ","kana_city":"ｶﾜｸﾞﾁｼ","kana_address":"ｼﾊﾞｿﾞﾉﾁｮｳ","pref":"埼玉県","city":"川口市","address":"芝園町"},
{"zip_code":"3330868","kana_pref":"ｻｲﾀﾏｹﾝ","kana_city":"ｶﾜｸﾞﾁｼ","kana_address":"ｼﾊﾞﾀｶｷﾞ","pref":"埼玉県","city":"川口市","address":"芝高木"},
{"zip_code":"3330856","kana_pref":"ｻｲﾀﾏｹﾝ","kana_city":"ｶﾜｸﾞﾁｼ","kana_address":"ｼﾊﾞﾂｶﾊﾞﾗ","pref":"埼玉県","city":"川口市","address":"芝塚原"},
{"zip_code":"3330847","kana_pref":"ｻｲﾀﾏｹﾝ","kana_city":"ｶﾜｸﾞﾁｼ","kana_address":"ｼﾊﾞﾅｶﾀﾞ","pref":"埼玉県","city":"川口市","address":"芝中田"},
{"zip_code":"3330855","kana_pref":"ｻｲﾀﾏｹﾝ","kana_city":"ｶﾜｸﾞﾁｼ","kana_address":"ｼﾊﾞﾆｼ","pref":"埼玉県","city":"川口市","address":"芝西"},
{"zip_code":"3330867","kana_pref":"ｻｲﾀﾏｹﾝ","kana_city":"ｶﾜｸﾞﾁｼ","kana_address":"ｼﾊﾞﾋｶﾞｼﾁｮｳ","pref":"埼玉県","city":"川口市","address":"芝東町"},
{"zip_code":"3330852","kana_pref":"ｻｲﾀﾏｹﾝ","kana_city":"ｶﾜｸﾞﾁｼ","kana_address":"ｼﾊﾞﾋﾉﾂﾒ","pref":"埼玉県","city":"川口市","address":"芝樋ノ爪"},
{"zip_code":"3330854","kana_pref":"ｻｲﾀﾏｹﾝ","kana_city":"ｶﾜｸﾞﾁｼ","kana_address":"ｼﾊﾞﾌｼﾞ","pref":"埼玉県","city":"川口市","address":"芝富士"},
{"zip_code":"3330869","kana_pref":"ｻｲﾀﾏｹﾝ","kana_city":"ｶﾜｸﾞﾁｼ","kana_address":"ｼﾊﾞﾐﾔﾈﾁｮｳ","pref":"埼玉県","city":"川口市","address":"芝宮根町"},
{"zip_code":"3330807","kana_pref":"ｻｲﾀﾏｹﾝ","kana_city":"ｶﾜｸﾞﾁｼ","kana_address":"ﾁｮｳｿﾞｳ","pref":"埼玉県","city":"川口市","address":"長蔵"},
{"zip_code":"3330808","kana_pref":"ｻｲﾀﾏｹﾝ","kana_city":"ｶﾜｸﾞﾁｼ","kana_address":"ﾁｮｳｿﾞｳｼﾝﾃﾞﾝ","pref":"埼玉県","city":"川口市","address":"長蔵新田"},
{"zip_code":"3330803","kana_pref":"ｻｲﾀﾏｹﾝ","kana_city":"ｶﾜｸﾞﾁｼ","kana_address":"ﾄｳﾍﾞｴｼﾝﾃﾞﾝ","pref":"埼玉県","city":"川口市","address":"藤兵衛新田"},
{"zip_code":"3330811","kana_pref":"ｻｲﾀﾏｹﾝ","kana_city":"ｶﾜｸﾞﾁｼ","kana_address":"ﾄﾂﾞｶ","pref":"埼玉県","city":"川口市","address":"戸塚"},
{"zip_code":"3330806","kana_pref":"ｻｲﾀﾏｹﾝ","kana_city":"ｶﾜｸﾞﾁｼ","kana_address":"ﾄﾂﾞｶｻｶｲﾁｮｳ","pref":"埼玉県","city":"川口市","address":"戸塚境町"},
{"zip_code":"3330805","kana_pref":"ｻｲﾀﾏｹﾝ","kana_city":"ｶﾜｸﾞﾁｼ","kana_address":"ﾄﾂﾞｶﾊｻﾐﾁｮｳ","pref":"埼玉県","city":"川口市","address":"戸塚鋏町"},
{"zip_code":"3330802","kana_pref":"ｻｲﾀﾏｹﾝ","kana_city":"ｶﾜｸﾞﾁｼ","kana_address":"ﾄﾂﾞｶﾋｶﾞｼ","pref":"埼玉県","city":"川口市","address":"戸塚東"},
{"zip_code":"3330833","kana_pref":"ｻｲﾀﾏｹﾝ","kana_city":"ｶﾜｸﾞﾁｼ","kana_address":"ﾆｼｱﾗｲｼﾞｭｸ","pref":"埼玉県","city":"川口市","address":"西新井宿"},
{"zip_code":"3330813","kana_pref":"ｻｲﾀﾏｹﾝ","kana_city":"ｶﾜｸﾞﾁｼ","kana_address":"ﾆｼﾀﾃﾉ","pref":"埼玉県","city":"川口市","address":"西立野"},
{"zip_code":"3330821","kana_pref":"ｻｲﾀﾏｹﾝ","kana_city":"ｶﾜｸﾞﾁｼ","kana_address":"ﾋｶﾞｼｳﾁﾉ","pref":"埼玉県","city":"川口市","address":"東内野"},
{"zip_code":"3330801","kana_pref":"ｻｲﾀﾏｹﾝ","kana_city":"ｶﾜｸﾞﾁｼ","kana_address":"ﾋｶﾞｼｶﾜｸﾞﾁ","pref":"埼玉県","city":"川口市","address":"東川口"},
{"zip_code":"3330843","kana_pref":"ｻｲﾀﾏｹﾝ","kana_city":"ｶﾜｸﾞﾁｼ","kana_address":"ﾏｴｶﾐﾁｮｳ","pref":"埼玉県","city":"川口市","address":"前上町"},
{"zip_code":"3330842","kana_pref":"ｻｲﾀﾏｹﾝ","kana_city":"ｶﾜｸﾞﾁｼ","kana_address":"ﾏｴｶﾜ","pref":"埼玉県","city":"川口市","address":"前川"},
{"zip_code":"3330841","kana_pref":"ｻｲﾀﾏｹﾝ","kana_city":"ｶﾜｸﾞﾁｼ","kana_address":"ﾏｴｶﾜﾁｮｳ","pref":"埼玉県","city":"川口市","address":"前川町"},
{"zip_code":"3330835","kana_pref":"ｻｲﾀﾏｹﾝ","kana_city":"ｶﾜｸﾞﾁｼ","kana_address":"ﾐﾁｱｲ","pref":"埼玉県","city":"川口市","address":"道合"},
{"zip_code":"3330846","kana_pref":"ｻｲﾀﾏｹﾝ","kana_city":"ｶﾜｸﾞﾁｼ","kana_address":"ﾐﾅﾐﾏｴｶﾜ","pref":"埼玉県","city":"川口市","address":"南前川"},
{"zip_code":"3330861","kana_pref":"ｻｲﾀﾏｹﾝ","kana_city":"ｶﾜｸﾞﾁｼ","kana_address":"ﾔﾅｷﾞｻｷ","pref":"埼玉県","city":"川口市","address":"柳崎"},
{"zip_code":"3330864","kana_pref":"ｻｲﾀﾏｹﾝ","kana_city":"ｶﾜｸﾞﾁｼ","kana_address":"ﾔﾅﾈﾁｮｳ","pref":"埼玉県","city":"川口市","address":"柳根町"}]}