{"zip_code":[
{"zip_code":"3340073","kana_pref":"ｻｲﾀﾏｹﾝ","kana_city":"ｶﾜｸﾞﾁｼ","kana_address":"ｱｶｲ","pref":"埼玉県","city":"川口市","address":"赤井"},
{"zip_code":"3340059","kana_pref":"ｻｲﾀﾏｹﾝ","kana_city":"ｶﾜｸﾞﾁｼ","kana_address":"ｱﾝｷﾞｮｳ","pref":"埼玉県","city":"川口市","address":"安行"},
{"zip_code":"3340054","kana_pref":"ｻｲﾀﾏｹﾝ","kana_city":"ｶﾜｸﾞﾁｼ","kana_address":"ｱﾝｷﾞｮｳｷﾀﾔ","pref":"埼玉県","city":"川口市","address":"安行北谷"},
{"zip_code":"3340053","kana_pref":"ｻｲﾀﾏｹﾝ","kana_city":"ｶﾜｸﾞﾁｼ","kana_address":"ｱﾝｷﾞｮｳｷﾁｿﾞｳ","pref":"埼玉県","city":"川口市","address":"安行吉蔵"},
{"zip_code":"3340055","kana_pref":"ｻｲﾀﾏｹﾝ","kana_city":"ｶﾜｸﾞﾁｼ","kana_address":"ｱﾝｷﾞｮｳｺﾔﾏ","pref":"埼玉県","city":"川口市","address":"安行小山"},
{"zip_code":"3340071","kana_pref":"ｻｲﾀﾏｹﾝ","kana_city":"ｶﾜｸﾞﾁｼ","kana_address":"ｱﾝｷﾞｮｳｼﾞﾘﾝ","pref":"埼玉県","city":"川口市","address":"安行慈林"},
{"zip_code":"3340051","kana_pref":"ｻｲﾀﾏｹﾝ","kana_city":"ｶﾜｸﾞﾁｼ","kana_address":"ｱﾝｷﾞｮｳﾄｳﾊﾁ","pref":"埼玉県","city":"川口市","address":"安行藤八"},
{"zip_code":"3340057","kana_pref":"ｻｲﾀﾏｹﾝ","kana_city":"ｶﾜｸﾞﾁｼ","kana_address":"ｱﾝｷﾞｮｳﾊﾗ","pref":"埼玉県","city":"川口市","address":"安行原"},
{"zip_code":"3340072","kana_pref":"ｻｲﾀﾏｹﾝ","kana_city":"ｶﾜｸﾞﾁｼ","kana_address":"ｱﾝｷﾞｮｳﾖｼｵｶ","pref":"埼玉県","city":"川口市","address":"安行吉岡"},
{"zip_code":"3340058","kana_pref":"ｻｲﾀﾏｹﾝ","kana_city":"ｶﾜｸﾞﾁｼ","kana_address":"ｱﾝｷﾞｮｳﾘｮｳｹ","pref":"埼玉県","city":"川口市","address":"安行領家"},
{"zip_code":"3340052","kana_pref":"ｻｲﾀﾏｹﾝ","kana_city":"ｶﾜｸﾞﾁｼ","kana_address":"ｱﾝｷﾞｮｳﾃﾞﾜ","pref":"埼玉県","city":"川口市","address":"安行出羽"},
{"zip_code":"3340074","kana_pref":"ｻｲﾀﾏｹﾝ","kana_city":"ｶﾜｸﾞﾁｼ","kana_address":"ｴﾄﾞ","pref":"埼玉県","city":"川口市","address":"江戸"},
{"zip_code":"3340075","kana_pref":"ｻｲﾀﾏｹﾝ","kana_city":"ｶﾜｸﾞﾁｼ","kana_address":"ｴﾄﾞﾌﾞｸﾛ","pref":"埼玉県","city":"川口市","address":"江戸袋"},
{"zip_code":"3340067","kana_pref":"ｻｲﾀﾏｹﾝ","kana_city":"ｶﾜｸﾞﾁｼ","kana_address":"ｵｵﾀｹ","pref":"埼玉県","city":"川口市","address":"大竹"},
{"zip_code":"3340003","kana_pref":"ｻｲﾀﾏｹﾝ","kana_city":"ｶﾜｸﾞﾁｼ","kana_address":"ｻｶｼﾀﾁｮｳ","pref":"埼玉県","city":"川口市","address":"坂下町"},
{"zip_code":"3340001","kana_pref":"ｻｲﾀﾏｹﾝ","kana_city":"ｶﾜｸﾞﾁｼ","kana_address":"ｻｸﾗﾁｮｳ","pref":"埼玉県","city":"川口市","address":"桜町"},
{"zip_code":"3340005","kana_pref":"ｻｲﾀﾏｹﾝ","kana_city":"ｶﾜｸﾞﾁｼ","kana_address":"ｻﾄ","pref":"埼玉県","city":"川口市","address":"里"},
{"zip_code":"3340004","kana_pref":"ｻｲﾀﾏｹﾝ","kana_city":"ｶﾜｸﾞﾁｼ","kana_address":"ﾂｼﾞ","pref":"埼玉県","city":"川口市","address":"辻"},
{"zip_code":"3340061","kana_pref":"ｻｲﾀﾏｹﾝ","kana_city":"ｶﾜｸﾞﾁｼ","kana_address":"ﾆｲﾎﾘ","pref":"埼玉県","city":"川口市","address":"新堀"},
{"zip_code":"3340068","kana_pref":"ｻｲﾀﾏｹﾝ","kana_city":"ｶﾜｸﾞﾁｼ","kana_address":"ﾆｲﾎﾘﾁｮｳ","pref":"埼玉県","city":"川口市","address":"新堀町"},
{"zip_code":"3340062","kana_pref":"ｻｲﾀﾏｹﾝ","kana_city":"ｶﾜｸﾞﾁｼ","kana_address":"ﾊｴﾏﾂ","pref":"埼玉県","city":"川口市","address":"榛松"},
{"zip_code":"3340064","kana_pref":"ｻｲﾀﾏｹﾝ","kana_city":"ｶﾜｸﾞﾁｼ","kana_address":"ﾊｽﾇﾏ","pref":"埼玉県","city":"川口市","address":"蓮沼"},
{"zip_code":"3340012","kana_pref":"ｻｲﾀﾏｹﾝ","kana_city":"ｶﾜｸﾞﾁｼ","kana_address":"ﾊﾁﾏﾝｷﾞ","pref":"埼玉県","city":"川口市","address":"八幡木"},
{"zip_code":"3340002","kana_pref":"ｻｲﾀﾏｹﾝ","kana_city":"ｶﾜｸﾞﾁｼ","kana_address":"ﾊﾄｶﾞﾔﾎﾝﾁｮｳ","pref":"埼玉県","city":"川口市","address":"鳩ヶ谷本町"},
{"zip_code":"3340015","kana_pref":"ｻｲﾀﾏｹﾝ","kana_city":"ｶﾜｸﾞﾁｼ","kana_address":"ﾊﾄｶﾞﾔﾐﾄﾞﾘﾁｮｳ","pref":"埼玉県","city":"川口市","address":"鳩ヶ谷緑町"},
{"zip_code":"3340066","kana_pref":"ｻｲﾀﾏｹﾝ","kana_city":"ｶﾜｸﾞﾁｼ","kana_address":"ﾋｶﾞｼｶｲﾂﾞｶ","pref":"埼玉県","city":"川口市","address":"東貝塚"},
{"zip_code":"3340063","kana_pref":"ｻｲﾀﾏｹﾝ","kana_city":"ｶﾜｸﾞﾁｼ","kana_address":"ﾋｶﾞｼﾎﾝｺﾞｳ","pref":"埼玉県","city":"川口市","address":"東本郷"},
{"zip_code":"3340076","kana_pref":"ｻｲﾀﾏｹﾝ","kana_city":"ｶﾜｸﾞﾁｼ","kana_address":"ﾎﾝﾊﾞｽ","pref":"埼玉県","city":"川口市","address":"本蓮"},
{"zip_code":"3340014","kana_pref":"ｻｲﾀﾏｹﾝ","kana_city":"ｶﾜｸﾞﾁｼ","kana_address":"ﾏｴﾀ","pref":"埼玉県","city":"川口市","address":"前田"},
{"zip_code":"3340065","kana_pref":"ｻｲﾀﾏｹﾝ","kana_city":"ｶﾜｸﾞﾁｼ","kana_address":"ﾏｴﾉｼｭｸ","pref":"埼玉県","city":"川口市","address":"前野宿"},
{"zip_code":"3340011","kana_pref":"ｻｲﾀﾏｹﾝ","kana_city":"ｶﾜｸﾞﾁｼ","kana_address":"ﾐﾂﾜ","pref":"埼玉県","city":"川口市","address":"三ツ和"},
{"zip_code":"3340013","kana_pref":"ｻｲﾀﾏｹﾝ","kana_city":"ｶﾜｸﾞﾁｼ","kana_address":"ﾐﾅﾐﾊﾄｶﾞﾔ","pref":"埼玉県","city":"川口市","address":"南鳩ヶ谷"},
{"zip_code":"3340056","kana_pref":"ｻｲﾀﾏｹﾝ","kana_city":"ｶﾜｸﾞﾁｼ","kana_address":"ﾐﾈ","pref":"埼玉県","city":"川口市","address":"峯"}]}