{"zip_code":[
{"zip_code":"3350000","kana_pref":"ｻｲﾀﾏｹﾝ","kana_city":"ﾜﾗﾋﾞｼ","kana_address":"","pref":"埼玉県","city":"蕨市","address":""},
{"zip_code":"3350001","kana_pref":"ｻｲﾀﾏｹﾝ","kana_city":"ﾜﾗﾋﾞｼ","kana_address":"ｷﾀﾏﾁ","pref":"埼玉県","city":"蕨市","address":"北町"},
{"zip_code":"3350004","kana_pref":"ｻｲﾀﾏｹﾝ","kana_city":"ﾜﾗﾋﾞｼ","kana_address":"ﾁｭｳｵｳ","pref":"埼玉県","city":"蕨市","address":"中央"},
{"zip_code":"3350002","kana_pref":"ｻｲﾀﾏｹﾝ","kana_city":"ﾜﾗﾋﾞｼ","kana_address":"ﾂｶｺﾞｼ","pref":"埼玉県","city":"蕨市","address":"塚越"},
{"zip_code":"3350005","kana_pref":"ｻｲﾀﾏｹﾝ","kana_city":"ﾜﾗﾋﾞｼ","kana_address":"ﾆｼｷﾁｮｳ","pref":"埼玉県","city":"蕨市","address":"錦町"},
{"zip_code":"3350003","kana_pref":"ｻｲﾀﾏｹﾝ","kana_city":"ﾜﾗﾋﾞｼ","kana_address":"ﾐﾅﾐﾁｮｳ","pref":"埼玉県","city":"蕨市","address":"南町"},
{"zip_code":"3350000","kana_pref":"ｻｲﾀﾏｹﾝ","kana_city":"ﾄﾀﾞｼ","kana_address":"","pref":"埼玉県","city":"戸田市","address":""},
{"zip_code":"3350022","kana_pref":"ｻｲﾀﾏｹﾝ","kana_city":"ﾄﾀﾞｼ","kana_address":"ｶﾐﾄﾀﾞ","pref":"埼玉県","city":"戸田市","address":"上戸田"},
{"zip_code":"3350015","kana_pref":"ｻｲﾀﾏｹﾝ","kana_city":"ﾄﾀﾞｼ","kana_address":"ｶﾜｷﾞｼ","pref":"埼玉県","city":"戸田市","address":"川岸"},
{"zip_code":"3350013","kana_pref":"ｻｲﾀﾏｹﾝ","kana_city":"ﾄﾀﾞｼ","kana_address":"ｷｻﾞﾜ","pref":"埼玉県","city":"戸田市","address":"喜沢"},
{"zip_code":"3350014","kana_pref":"ｻｲﾀﾏｹﾝ","kana_city":"ﾄﾀﾞｼ","kana_address":"ｷｻﾞﾜﾐﾅﾐ","pref":"埼玉県","city":"戸田市","address":"喜沢南"},
{"zip_code":"3350034","kana_pref":"ｻｲﾀﾏｹﾝ","kana_city":"ﾄﾀﾞｼ","kana_address":"ｻｻﾒ","pref":"埼玉県","city":"戸田市","address":"笹目"},
{"zip_code":"3350035","kana_pref":"ｻｲﾀﾏｹﾝ","kana_city":"ﾄﾀﾞｼ","kana_address":"ｻｻﾒﾐﾅﾐﾁｮｳ","pref":"埼玉県","city":"戸田市","address":"笹目南町"},
{"zip_code":"3350033","kana_pref":"ｻｲﾀﾏｹﾝ","kana_city":"ﾄﾀﾞｼ","kana_address":"ｻｻﾒｷﾀﾁｮｳ","pref":"埼玉県","city":"戸田市","address":"笹目北町"},
{"zip_code":"3350037","kana_pref":"ｻｲﾀﾏｹﾝ","kana_city":"ﾄﾀﾞｼ","kana_address":"ｼﾓｻｻﾒ","pref":"埼玉県","city":"戸田市","address":"下笹目"},
{"zip_code":"3350011","kana_pref":"ｻｲﾀﾏｹﾝ","kana_city":"ﾄﾀﾞｼ","kana_address":"ｼﾓﾄﾀﾞ","pref":"埼玉県","city":"戸田市","address":"下戸田"},
{"zip_code":"3350016","kana_pref":"ｻｲﾀﾏｹﾝ","kana_city":"ﾄﾀﾞｼ","kana_address":"ｼﾓﾏｴ","pref":"埼玉県","city":"戸田市","address":"下前"},
{"zip_code":"3350024","kana_pref":"ｻｲﾀﾏｹﾝ","kana_city":"ﾄﾀﾞｼ","kana_address":"ﾄﾀﾞｺｳｴﾝ","pref":"埼玉県","city":"戸田市","address":"戸田公園"},
{"zip_code":"3350012","kana_pref":"ｻｲﾀﾏｹﾝ","kana_city":"ﾄﾀﾞｼ","kana_address":"ﾅｶﾁｮｳ","pref":"埼玉県","city":"戸田市","address":"中町"},
{"zip_code":"3350021","kana_pref":"ｻｲﾀﾏｹﾝ","kana_city":"ﾄﾀﾞｼ","kana_address":"ﾆｲｿﾞ","pref":"埼玉県","city":"戸田市","address":"新曽"},
{"zip_code":"3350026","kana_pref":"ｻｲﾀﾏｹﾝ","kana_city":"ﾄﾀﾞｼ","kana_address":"ﾆｲｿﾞﾐﾅﾐ","pref":"埼玉県","city":"戸田市","address":"新曽南"},
{"zip_code":"3350036","kana_pref":"ｻｲﾀﾏｹﾝ","kana_city":"ﾄﾀﾞｼ","kana_address":"ﾊﾔｾ","pref":"埼玉県","city":"戸田市","address":"早瀬"},
{"zip_code":"3350027","kana_pref":"ｻｲﾀﾏｹﾝ","kana_city":"ﾄﾀﾞｼ","kana_address":"ﾋｶﾜﾁｮｳ","pref":"埼玉県","city":"戸田市","address":"氷川町"},
{"zip_code":"3350031","kana_pref":"ｻｲﾀﾏｹﾝ","kana_city":"ﾄﾀﾞｼ","kana_address":"ﾋﾞｼﾞｮｷﾞ","pref":"埼玉県","city":"戸田市","address":"美女木"},
{"zip_code":"3350032","kana_pref":"ｻｲﾀﾏｹﾝ","kana_city":"ﾄﾀﾞｼ","kana_address":"ﾋﾞｼﾞｮｷﾞﾋｶﾞｼ","pref":"埼玉県","city":"戸田市","address":"美女木東"},
{"zip_code":"3350023","kana_pref":"ｻｲﾀﾏｹﾝ","kana_city":"ﾄﾀﾞｼ","kana_address":"ﾎﾝﾁｮｳ","pref":"埼玉県","city":"戸田市","address":"本町"},
{"zip_code":"3350025","kana_pref":"ｻｲﾀﾏｹﾝ","kana_city":"ﾄﾀﾞｼ","kana_address":"ﾐﾅﾐﾁｮｳ","pref":"埼玉県","city":"戸田市","address":"南町"}]}