{"zip_code":[
{"zip_code":"3360000","kana_pref":"ｻｲﾀﾏｹﾝ","kana_city":"ｻｲﾀﾏｼﾐﾅﾐｸ","kana_address":"","pref":"埼玉県","city":"さいたま市南区","address":""},
{"zip_code":"3360034","kana_pref":"ｻｲﾀﾏｹﾝ","kana_city":"ｻｲﾀﾏｼﾐﾅﾐｸ","kana_address":"ｳﾁﾔ","pref":"埼玉県","city":"さいたま市南区","address":"内谷"},
{"zip_code":"3360043","kana_pref":"ｻｲﾀﾏｹﾝ","kana_city":"ｻｲﾀﾏｼﾐﾅﾐｸ","kana_address":"ｴﾝｼｮｳｼﾞ","pref":"埼玉県","city":"さいたま市南区","address":"円正寺"},
{"zip_code":"3360042","kana_pref":"ｻｲﾀﾏｹﾝ","kana_city":"ｻｲﾀﾏｼﾐﾅﾐｸ","kana_address":"ｵｵﾔｸﾞﾁ","pref":"埼玉県","city":"さいたま市南区","address":"大谷口"},
{"zip_code":"3360016","kana_pref":"ｻｲﾀﾏｹﾝ","kana_city":"ｻｲﾀﾏｼﾐﾅﾐｸ","kana_address":"ｵｵﾔﾊﾞ","pref":"埼玉県","city":"さいたま市南区","address":"大谷場"},
{"zip_code":"3360031","kana_pref":"ｻｲﾀﾏｹﾝ","kana_city":"ｻｲﾀﾏｼﾐﾅﾐｸ","kana_address":"ｼｶﾃﾌﾞｸﾛ","pref":"埼玉県","city":"さいたま市南区","address":"鹿手袋"},
{"zip_code":"3360022","kana_pref":"ｻｲﾀﾏｹﾝ","kana_city":"ｻｲﾀﾏｼﾐﾅﾐｸ","kana_address":"ｼﾗﾊﾀ","pref":"埼玉県","city":"さいたま市南区","address":"白幡"},
{"zip_code":"3360023","kana_pref":"ｻｲﾀﾏｹﾝ","kana_city":"ｻｲﾀﾏｼﾐﾅﾐｸ","kana_address":"ｼﾝﾒｲ","pref":"埼玉県","city":"さいたま市南区","address":"神明"},
{"zip_code":"3360038","kana_pref":"ｻｲﾀﾏｹﾝ","kana_city":"ｻｲﾀﾏｼﾐﾅﾐｸ","kana_address":"ｾｷ","pref":"埼玉県","city":"さいたま市南区","address":"関"},
{"zip_code":"3360015","kana_pref":"ｻｲﾀﾏｹﾝ","kana_city":"ｻｲﾀﾏｼﾐﾅﾐｸ","kana_address":"ﾀﾞｲﾀｸﾎﾞ","pref":"埼玉県","city":"さいたま市南区","address":"太田窪"},
{"zip_code":"3360026","kana_pref":"ｻｲﾀﾏｹﾝ","kana_city":"ｻｲﾀﾏｼﾐﾅﾐｸ","kana_address":"ﾂｼﾞ","pref":"埼玉県","city":"さいたま市南区","address":"辻"},
{"zip_code":"3360036","kana_pref":"ｻｲﾀﾏｹﾝ","kana_city":"ｻｲﾀﾏｼﾐﾅﾐｸ","kana_address":"ﾃｲｶﾞｲ","pref":"埼玉県","city":"さいたま市南区","address":"堤外"},
{"zip_code":"3360027","kana_pref":"ｻｲﾀﾏｹﾝ","kana_city":"ｻｲﾀﾏｼﾐﾅﾐｸ","kana_address":"ﾇﾏｶｹﾞ","pref":"埼玉県","city":"さいたま市南区","address":"沼影"},
{"zip_code":"3360024","kana_pref":"ｻｲﾀﾏｹﾝ","kana_city":"ｻｲﾀﾏｼﾐﾅﾐｸ","kana_address":"ﾈｷﾞｼ","pref":"埼玉県","city":"さいたま市南区","address":"根岸"},
{"zip_code":"3360041","kana_pref":"ｻｲﾀﾏｹﾝ","kana_city":"ｻｲﾀﾏｼﾐﾅﾐｸ","kana_address":"ﾋﾛｶﾞﾔﾄ","pref":"埼玉県","city":"さいたま市南区","address":"広ケ谷戸"},
{"zip_code":"3360025","kana_pref":"ｻｲﾀﾏｹﾝ","kana_city":"ｻｲﾀﾏｼﾐﾅﾐｸ","kana_address":"ﾌﾞｿﾞｳ","pref":"埼玉県","city":"さいたま市南区","address":"文蔵"},
{"zip_code":"3360021","kana_pref":"ｻｲﾀﾏｹﾝ","kana_city":"ｻｲﾀﾏｼﾐﾅﾐｸ","kana_address":"ﾍﾞｯｼｮ","pref":"埼玉県","city":"さいたま市南区","address":"別所"},
{"zip_code":"3360033","kana_pref":"ｻｲﾀﾏｹﾝ","kana_city":"ｻｲﾀﾏｼﾐﾅﾐｸ","kana_address":"ﾏｶﾞﾓﾄ","pref":"埼玉県","city":"さいたま市南区","address":"曲本"},
{"zip_code":"3360035","kana_pref":"ｻｲﾀﾏｹﾝ","kana_city":"ｻｲﾀﾏｼﾐﾅﾐｸ","kana_address":"ﾏﾂﾓﾄ","pref":"埼玉県","city":"さいたま市南区","address":"松本"},
{"zip_code":"3360017","kana_pref":"ｻｲﾀﾏｹﾝ","kana_city":"ｻｲﾀﾏｼﾐﾅﾐｸ","kana_address":"ﾐﾅﾐｳﾗﾜ","pref":"埼玉県","city":"さいたま市南区","address":"南浦和"},
{"zip_code":"3360018","kana_pref":"ｻｲﾀﾏｹﾝ","kana_city":"ｻｲﾀﾏｼﾐﾅﾐｸ","kana_address":"ﾐﾅﾐﾎﾝﾁｮｳ","pref":"埼玉県","city":"さいたま市南区","address":"南本町"},
{"zip_code":"3360032","kana_pref":"ｻｲﾀﾏｹﾝ","kana_city":"ｻｲﾀﾏｼﾐﾅﾐｸ","kana_address":"ﾖﾂﾔ","pref":"埼玉県","city":"さいたま市南区","address":"四谷"},
{"zip_code":"3360900","kana_pref":"ｻｲﾀﾏｹﾝ","kana_city":"ｻｲﾀﾏｼﾐﾄﾞﾘｸ","kana_address":"","pref":"埼玉県","city":"さいたま市緑区","address":""},
{"zip_code":"3360921","kana_pref":"ｻｲﾀﾏｹﾝ","kana_city":"ｻｲﾀﾏｼﾐﾄﾞﾘｸ","kana_address":"ｲﾇﾏｶﾀ","pref":"埼玉県","city":"さいたま市緑区","address":"井沼方"},
{"zip_code":"3360974","kana_pref":"ｻｲﾀﾏｹﾝ","kana_city":"ｻｲﾀﾏｼﾐﾄﾞﾘｸ","kana_address":"ｵｵｻｷ","pref":"埼玉県","city":"さいたま市緑区","address":"大崎"},
{"zip_code":"3360922","kana_pref":"ｻｲﾀﾏｹﾝ","kana_city":"ｻｲﾀﾏｼﾐﾄﾞﾘｸ","kana_address":"ｵｵﾏｷ","pref":"埼玉県","city":"さいたま市緑区","address":"大牧"},
{"zip_code":"3360923","kana_pref":"ｻｲﾀﾏｹﾝ","kana_city":"ｻｲﾀﾏｼﾐﾄﾞﾘｸ","kana_address":"ｵｵﾏｷﾞ","pref":"埼玉県","city":"さいたま市緑区","address":"大間木"},
{"zip_code":"3360934","kana_pref":"ｻｲﾀﾏｹﾝ","kana_city":"ｻｲﾀﾏｼﾐﾄﾞﾘｸ","kana_address":"ｵｵﾔｸﾞﾁ","pref":"埼玉県","city":"さいたま市緑区","address":"大谷口"},
{"zip_code":"3360977","kana_pref":"ｻｲﾀﾏｹﾝ","kana_city":"ｻｲﾀﾏｼﾐﾄﾞﾘｸ","kana_address":"ｶﾐﾉﾀﾞ","pref":"埼玉県","city":"さいたま市緑区","address":"上野田"},
{"zip_code":"3360966","kana_pref":"ｻｲﾀﾏｹﾝ","kana_city":"ｻｲﾀﾏｼﾐﾄﾞﾘｸ","kana_address":"ｷﾀﾊﾗ","pref":"埼玉県","city":"さいたま市緑区","address":"北原"},
{"zip_code":"3360961","kana_pref":"ｻｲﾀﾏｹﾝ","kana_city":"ｻｲﾀﾏｼﾐﾄﾞﾘｸ","kana_address":"ｹﾞﾝﾊﾞｼﾝﾃﾞﾝ","pref":"埼玉県","city":"さいたま市緑区","address":"玄蕃新田"},
{"zip_code":"3360907","kana_pref":"ｻｲﾀﾏｹﾝ","kana_city":"ｻｲﾀﾏｼﾐﾄﾞﾘｸ","kana_address":"ｻｲﾄﾞ","pref":"埼玉県","city":"さいたま市緑区","address":"道祖土"},
{"zip_code":"3360917","kana_pref":"ｻｲﾀﾏｹﾝ","kana_city":"ｻｲﾀﾏｼﾐﾄﾞﾘｸ","kana_address":"ｼﾊﾞﾊﾗ","pref":"埼玉県","city":"さいたま市緑区","address":"芝原"},
{"zip_code":"3360962","kana_pref":"ｻｲﾀﾏｹﾝ","kana_city":"ｻｲﾀﾏｼﾐﾄﾞﾘｸ","kana_address":"ｼﾓﾉﾀﾞ","pref":"埼玉県","city":"さいたま市緑区","address":"下野田"},
{"zip_code":"3360925","kana_pref":"ｻｲﾀﾏｹﾝ","kana_city":"ｻｲﾀﾏｼﾐﾄﾞﾘｸ","kana_address":"ｼﾓﾔﾏｸﾞﾁｼﾝﾃﾞﾝ","pref":"埼玉県","city":"さいたま市緑区","address":"下山口新田"},
{"zip_code":"3360913","kana_pref":"ｻｲﾀﾏｹﾝ","kana_city":"ｻｲﾀﾏｼﾐﾄﾞﾘｸ","kana_address":"ｼﾝｼﾞｭｸ","pref":"埼玉県","city":"さいたま市緑区","address":"新宿"},
{"zip_code":"3360936","kana_pref":"ｻｲﾀﾏｹﾝ","kana_city":"ｻｲﾀﾏｼﾐﾄﾞﾘｸ","kana_address":"ﾀﾞｲﾀｸﾎﾞ","pref":"埼玉県","city":"さいたま市緑区","address":"太田窪"},
{"zip_code":"3360905","kana_pref":"ｻｲﾀﾏｹﾝ","kana_city":"ｻｲﾀﾏｼﾐﾄﾞﾘｸ","kana_address":"ﾀﾞｲﾄﾞｳ","pref":"埼玉県","city":"さいたま市緑区","address":"大道"},
{"zip_code":"3360963","kana_pref":"ｻｲﾀﾏｹﾝ","kana_city":"ｻｲﾀﾏｼﾐﾄﾞﾘｸ","kana_address":"ﾀﾞｲﾓﾝ","pref":"埼玉県","city":"さいたま市緑区","address":"大門"},
{"zip_code":"3360975","kana_pref":"ｻｲﾀﾏｹﾝ","kana_city":"ｻｲﾀﾏｼﾐﾄﾞﾘｸ","kana_address":"ﾀﾞｲﾔﾏ","pref":"埼玉県","city":"さいたま市緑区","address":"代山"},
{"zip_code":"3360971","kana_pref":"ｻｲﾀﾏｹﾝ","kana_city":"ｻｲﾀﾏｼﾐﾄﾞﾘｸ","kana_address":"ﾀｶﾊﾞﾀｹ","pref":"埼玉県","city":"さいたま市緑区","address":"高畑"},
{"zip_code":"3360976","kana_pref":"ｻｲﾀﾏｹﾝ","kana_city":"ｻｲﾀﾏｼﾐﾄﾞﾘｸ","kana_address":"ﾃﾗﾔﾏ","pref":"埼玉県","city":"さいたま市緑区","address":"寺山"},
{"zip_code":"3360932","kana_pref":"ｻｲﾀﾏｹﾝ","kana_city":"ｻｲﾀﾏｼﾐﾄﾞﾘｸ","kana_address":"ﾅｶｵ","pref":"埼玉県","city":"さいたま市緑区","address":"中尾"},
{"zip_code":"3360972","kana_pref":"ｻｲﾀﾏｹﾝ","kana_city":"ｻｲﾀﾏｼﾐﾄﾞﾘｸ","kana_address":"ﾅｶﾉﾀﾞ","pref":"埼玉県","city":"さいたま市緑区","address":"中野田"},
{"zip_code":"3360973","kana_pref":"ｻｲﾀﾏｹﾝ","kana_city":"ｻｲﾀﾏｼﾐﾄﾞﾘｸ","kana_address":"ﾅﾝﾌﾞﾘｮｳﾂｼﾞ","pref":"埼玉県","city":"さいたま市緑区","address":"南部領辻"},
{"zip_code":"3360924","kana_pref":"ｻｲﾀﾏｹﾝ","kana_city":"ｻｲﾀﾏｼﾐﾄﾞﾘｸ","kana_address":"ﾊｽﾐｼﾝﾃﾞﾝ","pref":"埼玉県","city":"さいたま市緑区","address":"蓮見新田"},
{"zip_code":"3360931","kana_pref":"ｻｲﾀﾏｹﾝ","kana_city":"ｻｲﾀﾏｼﾐﾄﾞﾘｸ","kana_address":"ﾊﾗﾔﾏ","pref":"埼玉県","city":"さいたま市緑区","address":"原山"},
{"zip_code":"3360912","kana_pref":"ｻｲﾀﾏｹﾝ","kana_city":"ｻｲﾀﾏｼﾐﾄﾞﾘｸ","kana_address":"ﾊﾞﾝﾊﾞ","pref":"埼玉県","city":"さいたま市緑区","address":"馬場"},
{"zip_code":"3360926","kana_pref":"ｻｲﾀﾏｹﾝ","kana_city":"ｻｲﾀﾏｼﾐﾄﾞﾘｸ","kana_address":"ﾋｶﾞｼｳﾗﾜ","pref":"埼玉県","city":"さいたま市緑区","address":"東浦和"},
{"zip_code":"3360964","kana_pref":"ｻｲﾀﾏｹﾝ","kana_city":"ｻｲﾀﾏｼﾐﾄﾞﾘｸ","kana_address":"ﾋｶﾞｼﾀﾞｲﾓﾝ","pref":"埼玉県","city":"さいたま市緑区","address":"東大門"},
{"zip_code":"3360918","kana_pref":"ｻｲﾀﾏｹﾝ","kana_city":"ｻｲﾀﾏｼﾐﾄﾞﾘｸ","kana_address":"ﾏﾂｷ","pref":"埼玉県","city":"さいたま市緑区","address":"松木"},
{"zip_code":"3360965","kana_pref":"ｻｲﾀﾏｹﾝ","kana_city":"ｻｲﾀﾏｼﾐﾄﾞﾘｸ","kana_address":"ﾏﾐﾔ","pref":"埼玉県","city":"さいたま市緑区","address":"間宮"},
{"zip_code":"3360906","kana_pref":"ｻｲﾀﾏｹﾝ","kana_city":"ｻｲﾀﾏｼﾐﾄﾞﾘｸ","kana_address":"ﾐｳﾗ","pref":"埼玉県","city":"さいたま市緑区","address":"三浦"},
{"zip_code":"3360915","kana_pref":"ｻｲﾀﾏｹﾝ","kana_city":"ｻｲﾀﾏｼﾐﾄﾞﾘｸ","kana_address":"ﾐﾇﾏ","pref":"埼玉県","city":"さいたま市緑区","address":"見沼"},
{"zip_code":"3360911","kana_pref":"ｻｲﾀﾏｹﾝ","kana_city":"ｻｲﾀﾏｼﾐﾄﾞﾘｸ","kana_address":"ﾐﾑﾛ","pref":"埼玉県","city":"さいたま市緑区","address":"三室"},
{"zip_code":"3360914","kana_pref":"ｻｲﾀﾏｹﾝ","kana_city":"ｻｲﾀﾏｼﾐﾄﾞﾘｸ","kana_address":"ﾐﾔｳｼﾛ","pref":"埼玉県","city":"さいたま市緑区","address":"宮後"},
{"zip_code":"3360916","kana_pref":"ｻｲﾀﾏｹﾝ","kana_city":"ｻｲﾀﾏｼﾐﾄﾞﾘｸ","kana_address":"ﾐﾔﾓﾄ","pref":"埼玉県","city":"さいたま市緑区","address":"宮本"},
{"zip_code":"3360903","kana_pref":"ｻｲﾀﾏｹﾝ","kana_city":"ｻｲﾀﾏｼﾐﾄﾞﾘｸ","kana_address":"ﾔﾏｻﾞｷ","pref":"埼玉県","city":"さいたま市緑区","address":"山崎"}]}