{"zip_code":[
{"zip_code":"3370000","kana_pref":"ｻｲﾀﾏｹﾝ","kana_city":"ｻｲﾀﾏｼﾐﾇﾏｸ","kana_address":"","pref":"埼玉県","city":"さいたま市見沼区","address":""},
{"zip_code":"3370014","kana_pref":"ｻｲﾀﾏｹﾝ","kana_city":"ｻｲﾀﾏｼﾐﾇﾏｸ","kana_address":"ｵｵﾔ","pref":"埼玉県","city":"さいたま市見沼区","address":"大谷"},
{"zip_code":"3370053","kana_pref":"ｻｲﾀﾏｹﾝ","kana_city":"ｻｲﾀﾏｼﾐﾇﾏｸ","kana_address":"ｵｵﾜﾀﾞﾁｮｳ","pref":"埼玉県","city":"さいたま市見沼区","address":"大和田町"},
{"zip_code":"3370004","kana_pref":"ｻｲﾀﾏｹﾝ","kana_city":"ｻｲﾀﾏｼﾐﾇﾏｸ","kana_address":"ｵﾛｼﾁｮｳ","pref":"埼玉県","city":"さいたま市見沼区","address":"卸町"},
{"zip_code":"3370022","kana_pref":"ｻｲﾀﾏｹﾝ","kana_city":"ｻｲﾀﾏｼﾐﾇﾏｸ","kana_address":"ｶﾀﾔ","pref":"埼玉県","city":"さいたま市見沼区","address":"加田屋"},
{"zip_code":"3370027","kana_pref":"ｻｲﾀﾏｹﾝ","kana_city":"ｻｲﾀﾏｼﾐﾇﾏｸ","kana_address":"ｶﾀﾔｼﾝﾃﾞﾝ","pref":"埼玉県","city":"さいたま市見沼区","address":"加田屋新田"},
{"zip_code":"3370024","kana_pref":"ｻｲﾀﾏｹﾝ","kana_city":"ｻｲﾀﾏｼﾐﾇﾏｸ","kana_address":"ｶﾀﾔﾅｷﾞ","pref":"埼玉県","city":"さいたま市見沼区","address":"片柳"},
{"zip_code":"3370023","kana_pref":"ｻｲﾀﾏｹﾝ","kana_city":"ｻｲﾀﾏｼﾐﾇﾏｸ","kana_address":"ｶﾀﾔﾅｷﾞﾋｶﾞｼ","pref":"埼玉県","city":"さいたま市見沼区","address":"片柳東"},
{"zip_code":"3370044","kana_pref":"ｻｲﾀﾏｹﾝ","kana_city":"ｻｲﾀﾏｼﾐﾇﾏｸ","kana_address":"ｶﾐﾔﾏｸﾞﾁｼﾝﾃﾞﾝ","pref":"埼玉県","city":"さいたま市見沼区","address":"上山口新田"},
{"zip_code":"3370005","kana_pref":"ｻｲﾀﾏｹﾝ","kana_city":"ｻｲﾀﾏｼﾐﾇﾏｸ","kana_address":"ｺﾌｶｻｸ","pref":"埼玉県","city":"さいたま市見沼区","address":"小深作"},
{"zip_code":"3370031","kana_pref":"ｻｲﾀﾏｹﾝ","kana_city":"ｻｲﾀﾏｼﾐﾇﾏｸ","kana_address":"ｻｻﾏﾙ","pref":"埼玉県","city":"さいたま市見沼区","address":"笹丸"},
{"zip_code":"3370006","kana_pref":"ｻｲﾀﾏｹﾝ","kana_city":"ｻｲﾀﾏｼﾐﾇﾏｸ","kana_address":"ｼﾏﾁｮｳ","pref":"埼玉県","city":"さいたま市見沼区","address":"島町"},
{"zip_code":"3370045","kana_pref":"ｻｲﾀﾏｹﾝ","kana_city":"ｻｲﾀﾏｼﾐﾇﾏｸ","kana_address":"ｼﾝｳｴﾓﾝｼﾝﾃﾞﾝ","pref":"埼玉県","city":"さいたま市見沼区","address":"新右エ門新田"},
{"zip_code":"3370054","kana_pref":"ｻｲﾀﾏｹﾝ","kana_city":"ｻｲﾀﾏｼﾐﾇﾏｸ","kana_address":"ｽﾅﾁｮｳ","pref":"埼玉県","city":"さいたま市見沼区","address":"砂町"},
{"zip_code":"3370026","kana_pref":"ｻｲﾀﾏｹﾝ","kana_city":"ｻｲﾀﾏｼﾐﾇﾏｸ","kana_address":"ｿﾒﾔ","pref":"埼玉県","city":"さいたま市見沼区","address":"染谷"},
{"zip_code":"3370043","kana_pref":"ｻｲﾀﾏｹﾝ","kana_city":"ｻｲﾀﾏｼﾐﾇﾏｸ","kana_address":"ﾅｶｶﾞﾜ","pref":"埼玉県","city":"さいたま市見沼区","address":"中川"},
{"zip_code":"3370013","kana_pref":"ｻｲﾀﾏｹﾝ","kana_city":"ｻｲﾀﾏｼﾐﾇﾏｸ","kana_address":"ﾆｲﾂﾞﾂﾐ","pref":"埼玉県","city":"さいたま市見沼区","address":"新堤"},
{"zip_code":"3370035","kana_pref":"ｻｲﾀﾏｹﾝ","kana_city":"ｻｲﾀﾏｼﾐﾇﾏｸ","kana_address":"ﾆｼﾔﾏｼﾝﾃﾞﾝ","pref":"埼玉県","city":"さいたま市見沼区","address":"西山新田"},
{"zip_code":"3370034","kana_pref":"ｻｲﾀﾏｹﾝ","kana_city":"ｻｲﾀﾏｼﾐﾇﾏｸ","kana_address":"ﾆｼﾔﾏﾑﾗｼﾝﾃﾞﾝ","pref":"埼玉県","city":"さいたま市見沼区","address":"西山村新田"},
{"zip_code":"3370015","kana_pref":"ｻｲﾀﾏｹﾝ","kana_city":"ｻｲﾀﾏｼﾐﾇﾏｸ","kana_address":"ﾊｽﾇﾏ","pref":"埼玉県","city":"さいたま市見沼区","address":"蓮沼"},
{"zip_code":"3370008","kana_pref":"ｻｲﾀﾏｹﾝ","kana_city":"ｻｲﾀﾏｼﾐﾇﾏｸ","kana_address":"ﾊﾙｵｶ","pref":"埼玉県","city":"さいたま市見沼区","address":"春岡"},
{"zip_code":"3370002","kana_pref":"ｻｲﾀﾏｹﾝ","kana_city":"ｻｲﾀﾏｼﾐﾇﾏｸ","kana_address":"ﾊﾙﾉ","pref":"埼玉県","city":"さいたま市見沼区","address":"春野"},
{"zip_code":"3370032","kana_pref":"ｻｲﾀﾏｹﾝ","kana_city":"ｻｲﾀﾏｼﾐﾇﾏｸ","kana_address":"ﾋｶﾞｼｱﾗｲ","pref":"埼玉県","city":"さいたま市見沼区","address":"東新井"},
{"zip_code":"3370051","kana_pref":"ｻｲﾀﾏｹﾝ","kana_city":"ｻｲﾀﾏｼﾐﾇﾏｸ","kana_address":"ﾋｶﾞｼｵｵﾐﾔ","pref":"埼玉県","city":"さいたま市見沼区","address":"東大宮"},
{"zip_code":"3370012","kana_pref":"ｻｲﾀﾏｹﾝ","kana_city":"ｻｲﾀﾏｼﾐﾇﾏｸ","kana_address":"ﾋｶﾞｼﾐﾔｼﾀ","pref":"埼玉県","city":"さいたま市見沼区","address":"東宮下"},
{"zip_code":"3370016","kana_pref":"ｻｲﾀﾏｹﾝ","kana_city":"ｻｲﾀﾏｼﾐﾇﾏｸ","kana_address":"ﾋｶﾞｼﾓﾝｾﾞﾝ","pref":"埼玉県","city":"さいたま市見沼区","address":"東門前"},
{"zip_code":"3370021","kana_pref":"ｻｲﾀﾏｹﾝ","kana_city":"ｻｲﾀﾏｼﾐﾇﾏｸ","kana_address":"ﾋｻﾞｺ","pref":"埼玉県","city":"さいたま市見沼区","address":"膝子"},
{"zip_code":"3370003","kana_pref":"ｻｲﾀﾏｹﾝ","kana_city":"ｻｲﾀﾏｼﾐﾇﾏｸ","kana_address":"ﾌｶｻｸ","pref":"埼玉県","city":"さいたま市見沼区","address":"深作"},
{"zip_code":"3370017","kana_pref":"ｻｲﾀﾏｹﾝ","kana_city":"ｻｲﾀﾏｼﾐﾇﾏｸ","kana_address":"ﾌｯﾄﾉ","pref":"埼玉県","city":"さいたま市見沼区","address":"風渡野"},
{"zip_code":"3370052","kana_pref":"ｻｲﾀﾏｹﾝ","kana_city":"ｻｲﾀﾏｼﾐﾇﾏｸ","kana_address":"ﾎﾘｻｷﾁｮｳ","pref":"埼玉県","city":"さいたま市見沼区","address":"堀崎町"},
{"zip_code":"3370001","kana_pref":"ｻｲﾀﾏｹﾝ","kana_city":"ｻｲﾀﾏｼﾐﾇﾏｸ","kana_address":"ﾏﾙｶﾞｻｷ","pref":"埼玉県","city":"さいたま市見沼区","address":"丸ケ崎"},
{"zip_code":"3370007","kana_pref":"ｻｲﾀﾏｹﾝ","kana_city":"ｻｲﾀﾏｼﾐﾇﾏｸ","kana_address":"ﾏﾙｶﾞｻｷﾁｮｳ","pref":"埼玉県","city":"さいたま市見沼区","address":"丸ケ崎町"},
{"zip_code":"3370033","kana_pref":"ｻｲﾀﾏｹﾝ","kana_city":"ｻｲﾀﾏｼﾐﾇﾏｸ","kana_address":"ﾐｸﾗ","pref":"埼玉県","city":"さいたま市見沼区","address":"御蔵"},
{"zip_code":"3370042","kana_pref":"ｻｲﾀﾏｹﾝ","kana_city":"ｻｲﾀﾏｼﾐﾇﾏｸ","kana_address":"ﾐﾅﾐﾅｶﾉ","pref":"埼玉県","city":"さいたま市見沼区","address":"南中野"},
{"zip_code":"3370041","kana_pref":"ｻｲﾀﾏｹﾝ","kana_city":"ｻｲﾀﾏｼﾐﾇﾏｸ","kana_address":"ﾐﾅﾐﾅｶﾏﾙ","pref":"埼玉県","city":"さいたま市見沼区","address":"南中丸"},
{"zip_code":"3370011","kana_pref":"ｻｲﾀﾏｹﾝ","kana_city":"ｻｲﾀﾏｼﾐﾇﾏｸ","kana_address":"ﾐﾔｶﾞﾔﾄｳ","pref":"埼玉県","city":"さいたま市見沼区","address":"宮ケ谷塔"},
{"zip_code":"3370036","kana_pref":"ｻｲﾀﾏｹﾝ","kana_city":"ｻｲﾀﾏｼﾐﾇﾏｸ","kana_address":"ﾐﾔﾏ","pref":"埼玉県","city":"さいたま市見沼区","address":"見山"},
{"zip_code":"3370025","kana_pref":"ｻｲﾀﾏｹﾝ","kana_city":"ｻｲﾀﾏｼﾐﾇﾏｸ","kana_address":"ﾔﾏ","pref":"埼玉県","city":"さいたま市見沼区","address":"山"}]}