{"zip_code":[
{"zip_code":"3380014","kana_pref":"ｻｲﾀﾏｹﾝ","kana_city":"ｻｲﾀﾏｼﾁｭｳｵｳｸ","kana_address":"ｳｴﾐﾈ","pref":"埼玉県","city":"さいたま市中央区","address":"上峰"},
{"zip_code":"3380007","kana_pref":"ｻｲﾀﾏｹﾝ","kana_city":"ｻｲﾀﾏｼﾁｭｳｵｳｸ","kana_address":"ｴﾝﾅﾐ","pref":"埼玉県","city":"さいたま市中央区","address":"円阿弥"},
{"zip_code":"3380012","kana_pref":"ｻｲﾀﾏｹﾝ","kana_city":"ｻｲﾀﾏｼﾁｭｳｵｳｸ","kana_address":"ｵｵﾄ","pref":"埼玉県","city":"さいたま市中央区","address":"大戸"},
{"zip_code":"3380001","kana_pref":"ｻｲﾀﾏｹﾝ","kana_city":"ｻｲﾀﾏｼﾁｭｳｵｳｸ","kana_address":"ｶﾐｵﾁｱｲ","pref":"埼玉県","city":"さいたま市中央区","address":"上落合"},
{"zip_code":"3380005","kana_pref":"ｻｲﾀﾏｹﾝ","kana_city":"ｻｲﾀﾏｼﾁｭｳｵｳｸ","kana_address":"ｻｸﾗｵｶ","pref":"埼玉県","city":"さいたま市中央区","address":"桜丘"},
{"zip_code":"3380002","kana_pref":"ｻｲﾀﾏｹﾝ","kana_city":"ｻｲﾀﾏｼﾁｭｳｵｳｸ","kana_address":"ｼﾓｵﾁｱｲ","pref":"埼玉県","city":"さいたま市中央区","address":"下落合"},
{"zip_code":"3380011","kana_pref":"ｻｲﾀﾏｹﾝ","kana_city":"ｻｲﾀﾏｼﾁｭｳｵｳｸ","kana_address":"ｼﾝﾅｶｻﾞﾄ","pref":"埼玉県","city":"さいたま市中央区","address":"新中里"},
{"zip_code":"3380013","kana_pref":"ｻｲﾀﾏｹﾝ","kana_city":"ｻｲﾀﾏｼﾁｭｳｵｳｸ","kana_address":"ｽｽﾞﾔ","pref":"埼玉県","city":"さいたま市中央区","address":"鈴谷"},
{"zip_code":"3380006","kana_pref":"ｻｲﾀﾏｹﾝ","kana_city":"ｻｲﾀﾏｼﾁｭｳｵｳｸ","kana_address":"ﾊﾁｵｳｼﾞ","pref":"埼玉県","city":"さいたま市中央区","address":"八王子"},
{"zip_code":"3380004","kana_pref":"ｻｲﾀﾏｹﾝ","kana_city":"ｻｲﾀﾏｼﾁｭｳｵｳｸ","kana_address":"ﾎﾝﾏﾁﾆｼ","pref":"埼玉県","city":"さいたま市中央区","address":"本町西"},
{"zip_code":"3380003","kana_pref":"ｻｲﾀﾏｹﾝ","kana_city":"ｻｲﾀﾏｼﾁｭｳｵｳｸ","kana_address":"ﾎﾝﾏﾁﾋｶﾞｼ","pref":"埼玉県","city":"さいたま市中央区","address":"本町東"},
{"zip_code":"3380800","kana_pref":"ｻｲﾀﾏｹﾝ","kana_city":"ｻｲﾀﾏｼｻｸﾗｸ","kana_address":"","pref":"埼玉県","city":"さいたま市桜区","address":""},
{"zip_code":"3380826","kana_pref":"ｻｲﾀﾏｹﾝ","kana_city":"ｻｲﾀﾏｼｻｸﾗｸ","kana_address":"ｵｵｸﾎﾞﾘｮｳｹ","pref":"埼玉県","city":"さいたま市桜区","address":"大久保領家"},
{"zip_code":"3380824","kana_pref":"ｻｲﾀﾏｹﾝ","kana_city":"ｻｲﾀﾏｼｻｸﾗｸ","kana_address":"ｶﾐｵｵｸﾎﾞ","pref":"埼玉県","city":"さいたま市桜区","address":"上大久保"},
{"zip_code":"3380815","kana_pref":"ｻｲﾀﾏｹﾝ","kana_city":"ｻｲﾀﾏｼｻｸﾗｸ","kana_address":"ｺﾞｾｷ","pref":"埼玉県","city":"さいたま市桜区","address":"五関"},
{"zip_code":"3380813","kana_pref":"ｻｲﾀﾏｹﾝ","kana_city":"ｻｲﾀﾏｼｻｸﾗｸ","kana_address":"ｻﾞｲｹ","pref":"埼玉県","city":"さいたま市桜区","address":"在家"},
{"zip_code":"3380823","kana_pref":"ｻｲﾀﾏｹﾝ","kana_city":"ｻｲﾀﾏｼｻｸﾗｸ","kana_address":"ｻｶﾜ","pref":"埼玉県","city":"さいたま市桜区","address":"栄和"},
{"zip_code":"3380833","kana_pref":"ｻｲﾀﾏｹﾝ","kana_city":"ｻｲﾀﾏｼｻｸﾗｸ","kana_address":"ｻｸﾗﾀﾞ","pref":"埼玉県","city":"さいたま市桜区","address":"桜田"},
{"zip_code":"3380834","kana_pref":"ｻｲﾀﾏｹﾝ","kana_city":"ｻｲﾀﾏｼｻｸﾗｸ","kana_address":"ｼﾋﾞﾗｷ","pref":"埼玉県","city":"さいたま市桜区","address":"新開"},
{"zip_code":"3380825","kana_pref":"ｻｲﾀﾏｹﾝ","kana_city":"ｻｲﾀﾏｼｻｸﾗｸ","kana_address":"ｼﾓｵｵｸﾎﾞ","pref":"埼玉県","city":"さいたま市桜区","address":"下大久保"},
{"zip_code":"3380814","kana_pref":"ｻｲﾀﾏｹﾝ","kana_city":"ｻｲﾀﾏｼｻｸﾗｸ","kana_address":"ｼｭｸ","pref":"埼玉県","city":"さいたま市桜区","address":"宿"},
{"zip_code":"3380817","kana_pref":"ｻｲﾀﾏｹﾝ","kana_city":"ｻｲﾀﾏｼｻｸﾗｸ","kana_address":"ｼｮｳﾜ","pref":"埼玉県","city":"さいたま市桜区","address":"昭和"},
{"zip_code":"3380811","kana_pref":"ｻｲﾀﾏｹﾝ","kana_city":"ｻｲﾀﾏｼｻｸﾗｸ","kana_address":"ｼﾗｸﾜ","pref":"埼玉県","city":"さいたま市桜区","address":"白鍬"},
{"zip_code":"3380812","kana_pref":"ｻｲﾀﾏｹﾝ","kana_city":"ｻｲﾀﾏｼｻｸﾗｸ","kana_address":"ｼﾞﾝﾃﾞ","pref":"埼玉県","city":"さいたま市桜区","address":"神田"},
{"zip_code":"3380837","kana_pref":"ｻｲﾀﾏｹﾝ","kana_city":"ｻｲﾀﾏｼｻｸﾗｸ","kana_address":"ﾀｼﾞﾏ","pref":"埼玉県","city":"さいたま市桜区","address":"田島"},
{"zip_code":"3380816","kana_pref":"ｻｲﾀﾏｹﾝ","kana_city":"ｻｲﾀﾏｼｻｸﾗｸ","kana_address":"ﾂｶﾓﾄ","pref":"埼玉県","city":"さいたま市桜区","address":"塚本"},
{"zip_code":"3380835","kana_pref":"ｻｲﾀﾏｹﾝ","kana_city":"ｻｲﾀﾏｼｻｸﾗｸ","kana_address":"ﾄﾞｳｼﾞｮｳ","pref":"埼玉県","city":"さいたま市桜区","address":"道場"},
{"zip_code":"3380822","kana_pref":"ｻｲﾀﾏｹﾝ","kana_city":"ｻｲﾀﾏｼｻｸﾗｸ","kana_address":"ﾅｶｼﾞﾏ","pref":"埼玉県","city":"さいたま市桜区","address":"中島"},
{"zip_code":"3380832","kana_pref":"ｻｲﾀﾏｹﾝ","kana_city":"ｻｲﾀﾏｼｻｸﾗｸ","kana_address":"ﾆｼﾎﾞﾘ","pref":"埼玉県","city":"さいたま市桜区","address":"西堀"},
{"zip_code":"3380836","kana_pref":"ｻｲﾀﾏｹﾝ","kana_city":"ｻｲﾀﾏｼｻｸﾗｸ","kana_address":"ﾏﾁﾔ","pref":"埼玉県","city":"さいたま市桜区","address":"町谷"},
{"zip_code":"3380831","kana_pref":"ｻｲﾀﾏｹﾝ","kana_city":"ｻｲﾀﾏｼｻｸﾗｸ","kana_address":"ﾐﾅﾐﾓﾄｼﾞｭｸ","pref":"埼玉県","city":"さいたま市桜区","address":"南元宿"},
{"zip_code":"3380821","kana_pref":"ｻｲﾀﾏｹﾝ","kana_city":"ｻｲﾀﾏｼｻｸﾗｸ","kana_address":"ﾔﾏｸﾎﾞ","pref":"埼玉県","city":"さいたま市桜区","address":"山久保"}]}