{"zip_code":[
{"zip_code":"3390000","kana_pref":"ｻｲﾀﾏｹﾝ","kana_city":"ｻｲﾀﾏｼｲﾜﾂｷｸ","kana_address":"","pref":"埼玉県","city":"さいたま市岩槻区","address":""},
{"zip_code":"3390071","kana_pref":"ｻｲﾀﾏｹﾝ","kana_city":"ｻｲﾀﾏｼｲﾜﾂｷｸ","kana_address":"ｱｲﾉﾊﾗ","pref":"埼玉県","city":"さいたま市岩槻区","address":"相野原"},
{"zip_code":"3390066","kana_pref":"ｻｲﾀﾏｹﾝ","kana_city":"ｻｲﾀﾏｼｲﾜﾂｷｸ","kana_address":"ｱﾀｺﾞﾁｮｳ","pref":"埼玉県","city":"さいたま市岩槻区","address":"愛宕町"},
{"zip_code":"3390031","kana_pref":"ｻｲﾀﾏｹﾝ","kana_city":"ｻｲﾀﾏｼｲﾜﾂｷｸ","kana_address":"ｲｲﾂﾞｶ","pref":"埼玉県","city":"さいたま市岩槻区","address":"飯塚"},
{"zip_code":"3390061","kana_pref":"ｻｲﾀﾏｹﾝ","kana_city":"ｻｲﾀﾏｼｲﾜﾂｷｸ","kana_address":"ｲﾜﾂｷ","pref":"埼玉県","city":"さいたま市岩槻区","address":"岩槻"},
{"zip_code":"3390073","kana_pref":"ｻｲﾀﾏｹﾝ","kana_city":"ｻｲﾀﾏｼｲﾜﾂｷｸ","kana_address":"ｳｴﾉ","pref":"埼玉県","city":"さいたま市岩槻区","address":"上野"},
{"zip_code":"3390037","kana_pref":"ｻｲﾀﾏｹﾝ","kana_city":"ｻｲﾀﾏｼｲﾜﾂｷｸ","kana_address":"ｳｷﾔ","pref":"埼玉県","city":"さいたま市岩槻区","address":"浮谷"},
{"zip_code":"3390002","kana_pref":"ｻｲﾀﾏｹﾝ","kana_city":"ｻｲﾀﾏｼｲﾜﾂｷｸ","kana_address":"ｳﾗｼﾞｵﾝｼﾞ","pref":"埼玉県","city":"さいたま市岩槻区","address":"裏慈恩寺"},
{"zip_code":"3390013","kana_pref":"ｻｲﾀﾏｹﾝ","kana_city":"ｻｲﾀﾏｼｲﾜﾂｷｸ","kana_address":"ｵｵｸﾞﾁ","pref":"埼玉県","city":"さいたま市岩槻区","address":"大口"},
{"zip_code":"3390052","kana_pref":"ｻｲﾀﾏｹﾝ","kana_city":"ｻｲﾀﾏｼｲﾜﾂｷｸ","kana_address":"ｵｵﾀ","pref":"埼玉県","city":"さいたま市岩槻区","address":"太田"},
{"zip_code":"3390014","kana_pref":"ｻｲﾀﾏｹﾝ","kana_city":"ｻｲﾀﾏｼｲﾜﾂｷｸ","kana_address":"ｵｵﾄ","pref":"埼玉県","city":"さいたま市岩槻区","address":"大戸"},
{"zip_code":"3390018","kana_pref":"ｻｲﾀﾏｹﾝ","kana_city":"ｻｲﾀﾏｼｲﾜﾂｷｸ","kana_address":"ｵｵﾉｼﾞﾏ","pref":"埼玉県","city":"さいたま市岩槻区","address":"大野島"},
{"zip_code":"3390017","kana_pref":"ｻｲﾀﾏｹﾝ","kana_city":"ｻｲﾀﾏｼｲﾜﾂｷｸ","kana_address":"ｵｵﾓﾘ","pref":"埼玉県","city":"さいたま市岩槻区","address":"大森"},
{"zip_code":"3390015","kana_pref":"ｻｲﾀﾏｹﾝ","kana_city":"ｻｲﾀﾏｼｲﾜﾂｷｸ","kana_address":"ｵｵﾔ","pref":"埼玉県","city":"さいたま市岩槻区","address":"大谷"},
{"zip_code":"3390027","kana_pref":"ｻｲﾀﾏｹﾝ","kana_city":"ｻｲﾀﾏｼｲﾜﾂｷｸ","kana_address":"ｵｶﾞｻｷ","pref":"埼玉県","city":"さいたま市岩槻区","address":"尾ケ崎"},
{"zip_code":"3390026","kana_pref":"ｻｲﾀﾏｹﾝ","kana_city":"ｻｲﾀﾏｼｲﾜﾂｷｸ","kana_address":"ｵｶﾞｻｷｼﾝﾃﾞﾝ","pref":"埼玉県","city":"さいたま市岩槻区","address":"尾ケ崎新田"},
{"zip_code":"3390008","kana_pref":"ｻｲﾀﾏｹﾝ","kana_city":"ｻｲﾀﾏｼｲﾜﾂｷｸ","kana_address":"ｵﾓﾃｼﾞｵﾝｼﾞ","pref":"埼玉県","city":"さいたま市岩槻区","address":"表慈恩寺"},
{"zip_code":"3390024","kana_pref":"ｻｲﾀﾏｹﾝ","kana_city":"ｻｲﾀﾏｼｲﾜﾂｷｸ","kana_address":"ｶｷﾞｱｹﾞ","pref":"埼玉県","city":"さいたま市岩槻区","address":"釣上"},
{"zip_code":"3390025","kana_pref":"ｻｲﾀﾏｹﾝ","kana_city":"ｻｲﾀﾏｼｲﾜﾂｷｸ","kana_address":"ｶｷﾞｱｹﾞｼﾝﾃﾞﾝ","pref":"埼玉県","city":"さいたま市岩槻区","address":"釣上新田"},
{"zip_code":"3390056","kana_pref":"ｻｲﾀﾏｹﾝ","kana_city":"ｻｲﾀﾏｼｲﾜﾂｷｸ","kana_address":"ｶｸﾗ","pref":"埼玉県","city":"さいたま市岩槻区","address":"加倉"},
{"zip_code":"3390078","kana_pref":"ｻｲﾀﾏｹﾝ","kana_city":"ｻｲﾀﾏｼｲﾜﾂｷｸ","kana_address":"ｶｹ","pref":"埼玉県","city":"さいたま市岩槻区","address":"掛"},
{"zip_code":"3390045","kana_pref":"ｻｲﾀﾏｹﾝ","kana_city":"ｻｲﾀﾏｼｲﾜﾂｷｸ","kana_address":"ｶｼﾜｻﾞｷ","pref":"埼玉県","city":"さいたま市岩槻区","address":"柏崎"},
{"zip_code":"3390075","kana_pref":"ｻｲﾀﾏｹﾝ","kana_city":"ｻｲﾀﾏｼｲﾜﾂｷｸ","kana_address":"ｶﾅｼｹﾞ","pref":"埼玉県","city":"さいたま市岩槻区","address":"金重"},
{"zip_code":"3390001","kana_pref":"ｻｲﾀﾏｹﾝ","kana_city":"ｻｲﾀﾏｼｲﾜﾂｷｸ","kana_address":"ｶﾅﾑﾛ","pref":"埼玉県","city":"さいたま市岩槻区","address":"鹿室"},
{"zip_code":"3390006","kana_pref":"ｻｲﾀﾏｹﾝ","kana_city":"ｻｲﾀﾏｼｲﾜﾂｷｸ","kana_address":"ｶﾐｻﾄ","pref":"埼玉県","city":"さいたま市岩槻区","address":"上里"},
{"zip_code":"3390033","kana_pref":"ｻｲﾀﾏｹﾝ","kana_city":"ｻｲﾀﾏｼｲﾜﾂｷｸ","kana_address":"ｸﾛﾔ","pref":"埼玉県","city":"さいたま市岩槻区","address":"黒谷"},
{"zip_code":"3390072","kana_pref":"ｻｲﾀﾏｹﾝ","kana_city":"ｻｲﾀﾏｼｲﾜﾂｷｸ","kana_address":"ｺｶﾊﾞ","pref":"埼玉県","city":"さいたま市岩槻区","address":"古ケ場"},
{"zip_code":"3390003","kana_pref":"ｻｲﾀﾏｹﾝ","kana_city":"ｻｲﾀﾏｼｲﾜﾂｷｸ","kana_address":"ｺﾐｿﾞ","pref":"埼玉県","city":"さいたま市岩槻区","address":"小溝"},
{"zip_code":"3390034","kana_pref":"ｻｲﾀﾏｹﾝ","kana_city":"ｻｲﾀﾏｼｲﾜﾂｷｸ","kana_address":"ｻｻｸﾎﾞ","pref":"埼玉県","city":"さいたま市岩槻区","address":"笹久保"},
{"zip_code":"3390035","kana_pref":"ｻｲﾀﾏｹﾝ","kana_city":"ｻｲﾀﾏｼｲﾜﾂｷｸ","kana_address":"ｻｻｸﾎﾞｼﾝﾃﾞﾝ","pref":"埼玉県","city":"さいたま市岩槻区","address":"笹久保新田"},
{"zip_code":"3390009","kana_pref":"ｻｲﾀﾏｹﾝ","kana_city":"ｻｲﾀﾏｼｲﾜﾂｷｸ","kana_address":"ｼﾞｵﾝｼﾞ","pref":"埼玉県","city":"さいたま市岩槻区","address":"慈恩寺"},
{"zip_code":"3390043","kana_pref":"ｻｲﾀﾏｹﾝ","kana_city":"ｻｲﾀﾏｼｲﾜﾂｷｸ","kana_address":"ｼﾞｮｳﾅﾝ","pref":"埼玉県","city":"さいたま市岩槻区","address":"城南"},
{"zip_code":"3390053","kana_pref":"ｻｲﾀﾏｹﾝ","kana_city":"ｻｲﾀﾏｼｲﾜﾂｷｸ","kana_address":"ｼﾛﾏﾁ","pref":"埼玉県","city":"さいたま市岩槻区","address":"城町"},
{"zip_code":"3390044","kana_pref":"ｻｲﾀﾏｹﾝ","kana_city":"ｻｲﾀﾏｼｲﾜﾂｷｸ","kana_address":"ｼﾝﾌﾟｸｼﾞ","pref":"埼玉県","city":"さいたま市岩槻区","address":"真福寺"},
{"zip_code":"3390021","kana_pref":"ｻｲﾀﾏｹﾝ","kana_city":"ｻｲﾀﾏｼｲﾜﾂｷｸ","kana_address":"ｽｴﾀﾞ","pref":"埼玉県","city":"さいたま市岩槻区","address":"末田"},
{"zip_code":"3390007","kana_pref":"ｻｲﾀﾏｹﾝ","kana_city":"ｻｲﾀﾏｼｲﾜﾂｷｸ","kana_address":"ｽﾜ","pref":"埼玉県","city":"さいたま市岩槻区","address":"諏訪"},
{"zip_code":"3390022","kana_pref":"ｻｲﾀﾏｹﾝ","kana_city":"ｻｲﾀﾏｼｲﾜﾂｷｸ","kana_address":"ﾀｶｿﾈ","pref":"埼玉県","city":"さいたま市岩槻区","address":"高曽根"},
{"zip_code":"3390004","kana_pref":"ｻｲﾀﾏｹﾝ","kana_city":"ｻｲﾀﾏｼｲﾜﾂｷｸ","kana_address":"ﾄｸﾘｷ","pref":"埼玉県","city":"さいたま市岩槻区","address":"徳力"},
{"zip_code":"3390054","kana_pref":"ｻｲﾀﾏｹﾝ","kana_city":"ｻｲﾀﾏｼｲﾜﾂｷｸ","kana_address":"ﾅｶﾁｮｳ","pref":"埼玉県","city":"さいたま市岩槻区","address":"仲町"},
{"zip_code":"3390011","kana_pref":"ｻｲﾀﾏｹﾝ","kana_city":"ｻｲﾀﾏｼｲﾜﾂｷｸ","kana_address":"ﾅｶﾞﾐﾔ","pref":"埼玉県","city":"さいたま市岩槻区","address":"長宮"},
{"zip_code":"3390068","kana_pref":"ｻｲﾀﾏｹﾝ","kana_city":"ｻｲﾀﾏｼｲﾜﾂｷｸ","kana_address":"ﾅﾐｷ","pref":"埼玉県","city":"さいたま市岩槻区","address":"並木"},
{"zip_code":"3390016","kana_pref":"ｻｲﾀﾏｹﾝ","kana_city":"ｻｲﾀﾏｼｲﾜﾂｷｸ","kana_address":"ﾆｲｶﾞﾀｽｶ","pref":"埼玉県","city":"さいたま市岩槻区","address":"新方須賀"},
{"zip_code":"3390081","kana_pref":"ｻｲﾀﾏｹﾝ","kana_city":"ｻｲﾀﾏｼｲﾜﾂｷｸ","kana_address":"ﾆｼﾊﾗ","pref":"埼玉県","city":"さいたま市岩槻区","address":"西原"},
{"zip_code":"3390082","kana_pref":"ｻｲﾀﾏｹﾝ","kana_city":"ｻｲﾀﾏｼｲﾜﾂｷｸ","kana_address":"ﾆｼﾊﾗﾀﾞｲ","pref":"埼玉県","city":"さいたま市岩槻区","address":"西原台"},
{"zip_code":"3390067","kana_pref":"ｻｲﾀﾏｹﾝ","kana_city":"ｻｲﾀﾏｼｲﾜﾂｷｸ","kana_address":"ﾆｼﾏﾁ","pref":"埼玉県","city":"さいたま市岩槻区","address":"西町"},
{"zip_code":"3390023","kana_pref":"ｻｲﾀﾏｹﾝ","kana_city":"ｻｲﾀﾏｼｲﾜﾂｷｸ","kana_address":"ﾉﾏｺﾞ","pref":"埼玉県","city":"さいたま市岩槻区","address":"野孫"},
{"zip_code":"3390047","kana_pref":"ｻｲﾀﾏｹﾝ","kana_city":"ｻｲﾀﾏｼｲﾜﾂｷｸ","kana_address":"ﾊﾗﾏﾁ","pref":"埼玉県","city":"さいたま市岩槻区","address":"原町"},
{"zip_code":"3390005","kana_pref":"ｻｲﾀﾏｹﾝ","kana_city":"ｻｲﾀﾏｼｲﾜﾂｷｸ","kana_address":"ﾋｶﾞｼｲﾜﾂｷ","pref":"埼玉県","city":"さいたま市岩槻区","address":"東岩槻"},
{"zip_code":"3390055","kana_pref":"ｻｲﾀﾏｹﾝ","kana_city":"ｻｲﾀﾏｼｲﾜﾂｷｸ","kana_address":"ﾋｶﾞｼﾁｮｳ","pref":"埼玉県","city":"さいたま市岩槻区","address":"東町"},
{"zip_code":"3390064","kana_pref":"ｻｲﾀﾏｹﾝ","kana_city":"ｻｲﾀﾏｼｲﾜﾂｷｸ","kana_address":"ﾋﾉﾃﾞﾁｮｳ","pref":"埼玉県","city":"さいたま市岩槻区","address":"日の出町"},
{"zip_code":"3390042","kana_pref":"ｻｲﾀﾏｹﾝ","kana_city":"ｻｲﾀﾏｼｲﾜﾂｷｸ","kana_address":"ﾌﾅｲ","pref":"埼玉県","city":"さいたま市岩槻区","address":"府内"},
{"zip_code":"3390076","kana_pref":"ｻｲﾀﾏｹﾝ","kana_city":"ｻｲﾀﾏｼｲﾜﾂｷｸ","kana_address":"ﾍｲﾘﾝｼﾞ","pref":"埼玉県","city":"さいたま市岩槻区","address":"平林寺"},
{"zip_code":"3390074","kana_pref":"ｻｲﾀﾏｹﾝ","kana_city":"ｻｲﾀﾏｼｲﾜﾂｷｸ","kana_address":"ﾎﾝｼﾞｭｸ","pref":"埼玉県","city":"さいたま市岩槻区","address":"本宿"},
{"zip_code":"3390057","kana_pref":"ｻｲﾀﾏｹﾝ","kana_city":"ｻｲﾀﾏｼｲﾜﾂｷｸ","kana_address":"ﾎﾝﾁｮｳ","pref":"埼玉県","city":"さいたま市岩槻区","address":"本町"},
{"zip_code":"3390058","kana_pref":"ｻｲﾀﾏｹﾝ","kana_city":"ｻｲﾀﾏｼｲﾜﾂｷｸ","kana_address":"ﾎﾝﾏﾙ","pref":"埼玉県","city":"さいたま市岩槻区","address":"本丸"},
{"zip_code":"3390077","kana_pref":"ｻｲﾀﾏｹﾝ","kana_city":"ｻｲﾀﾏｼｲﾜﾂｷｸ","kana_address":"ﾏｺﾞﾒ","pref":"埼玉県","city":"さいたま市岩槻区","address":"馬込"},
{"zip_code":"3390012","kana_pref":"ｻｲﾀﾏｹﾝ","kana_city":"ｻｲﾀﾏｼｲﾜﾂｷｸ","kana_address":"ﾏｼﾅｶﾞ","pref":"埼玉県","city":"さいたま市岩槻区","address":"増長"},
{"zip_code":"3390032","kana_pref":"ｻｲﾀﾏｹﾝ","kana_city":"ｻｲﾀﾏｼｲﾜﾂｷｸ","kana_address":"ﾐﾅﾐｼﾓｱﾗｲ","pref":"埼玉県","city":"さいたま市岩槻区","address":"南下新井"},
{"zip_code":"3390062","kana_pref":"ｻｲﾀﾏｹﾝ","kana_city":"ｻｲﾀﾏｼｲﾜﾂｷｸ","kana_address":"ﾐﾅﾐﾂｼﾞ","pref":"埼玉県","city":"さいたま市岩槻区","address":"南辻"},
{"zip_code":"3390051","kana_pref":"ｻｲﾀﾏｹﾝ","kana_city":"ｻｲﾀﾏｼｲﾜﾂｷｸ","kana_address":"ﾐﾅﾐﾋﾗﾉ","pref":"埼玉県","city":"さいたま市岩槻区","address":"南平野"},
{"zip_code":"3390069","kana_pref":"ｻｲﾀﾏｹﾝ","kana_city":"ｻｲﾀﾏｼｲﾜﾂｷｸ","kana_address":"ﾐﾉﾜ","pref":"埼玉県","city":"さいたま市岩槻区","address":"箕輪"},
{"zip_code":"3390065","kana_pref":"ｻｲﾀﾏｹﾝ","kana_city":"ｻｲﾀﾏｼｲﾜﾂｷｸ","kana_address":"ﾐﾔﾁｮｳ","pref":"埼玉県","city":"さいたま市岩槻区","address":"宮町"},
{"zip_code":"3390063","kana_pref":"ｻｲﾀﾏｹﾝ","kana_city":"ｻｲﾀﾏｼｲﾜﾂｷｸ","kana_address":"ﾐﾕｷﾁｮｳ","pref":"埼玉県","city":"さいたま市岩槻区","address":"美幸町"},
{"zip_code":"3390041","kana_pref":"ｻｲﾀﾏｹﾝ","kana_city":"ｻｲﾀﾏｼｲﾜﾂｷｸ","kana_address":"ﾑﾗｸﾆ","pref":"埼玉県","city":"さいたま市岩槻区","address":"村国"},
{"zip_code":"3390046","kana_pref":"ｻｲﾀﾏｹﾝ","kana_city":"ｻｲﾀﾏｼｲﾜﾂｷｸ","kana_address":"ﾔｼﾞﾀ","pref":"埼玉県","city":"さいたま市岩槻区","address":"谷下"},
{"zip_code":"3390036","kana_pref":"ｻｲﾀﾏｹﾝ","kana_city":"ｻｲﾀﾏｼｲﾜﾂｷｸ","kana_address":"ﾖｺﾈ","pref":"埼玉県","city":"さいたま市岩槻区","address":"横根"}]}