{"zip_code":[
{"zip_code":"3400000","kana_pref":"ｻｲﾀﾏｹﾝ","kana_city":"ｿｳｶｼ","kana_address":"","pref":"埼玉県","city":"草加市","address":""},
{"zip_code":"3400002","kana_pref":"ｻｲﾀﾏｹﾝ","kana_city":"ｿｳｶｼ","kana_address":"ｱｵﾔｷﾞ","pref":"埼玉県","city":"草加市","address":"青柳"},
{"zip_code":"3400007","kana_pref":"ｻｲﾀﾏｹﾝ","kana_city":"ｿｳｶｼ","kana_address":"ｱｵﾔｷﾞﾁｮｳ","pref":"埼玉県","city":"草加市","address":"青柳町"},
{"zip_code":"3400053","kana_pref":"ｻｲﾀﾏｹﾝ","kana_city":"ｿｳｶｼ","kana_address":"ｱｻﾋﾁｮｳ","pref":"埼玉県","city":"草加市","address":"旭町"},
{"zip_code":"3400032","kana_pref":"ｻｲﾀﾏｹﾝ","kana_city":"ｿｳｶｼ","kana_address":"ｱｽﾏﾁｮｳ","pref":"埼玉県","city":"草加市","address":"遊馬町"},
{"zip_code":"3400003","kana_pref":"ｻｲﾀﾏｹﾝ","kana_city":"ｿｳｶｼ","kana_address":"ｲﾅﾘ","pref":"埼玉県","city":"草加市","address":"稲荷"},
{"zip_code":"3400001","kana_pref":"ｻｲﾀﾏｹﾝ","kana_city":"ｿｳｶｼ","kana_address":"ｶｷﾉｷﾁｮｳ","pref":"埼玉県","city":"草加市","address":"柿木町"},
{"zip_code":"3400042","kana_pref":"ｻｲﾀﾏｹﾝ","kana_city":"ｿｳｶｼ","kana_address":"ｶﾞｸｴﾝﾁｮｳ","pref":"埼玉県","city":"草加市","address":"学園町"},
{"zip_code":"3400046","kana_pref":"ｻｲﾀﾏｹﾝ","kana_city":"ｿｳｶｼ","kana_address":"ｷﾀﾔ","pref":"埼玉県","city":"草加市","address":"北谷"},
{"zip_code":"3400047","kana_pref":"ｻｲﾀﾏｹﾝ","kana_city":"ｿｳｶｼ","kana_address":"ｷﾀﾔﾁｮｳ","pref":"埼玉県","city":"草加市","address":"北谷町"},
{"zip_code":"3400052","kana_pref":"ｻｲﾀﾏｹﾝ","kana_city":"ｿｳｶｼ","kana_address":"ｷﾝﾒｲﾁｮｳ","pref":"埼玉県","city":"草加市","address":"金明町"},
{"zip_code":"3400045","kana_pref":"ｻｲﾀﾏｹﾝ","kana_city":"ｿｳｶｼ","kana_address":"ｺﾔﾏ","pref":"埼玉県","city":"草加市","address":"小山"},
{"zip_code":"3400011","kana_pref":"ｻｲﾀﾏｹﾝ","kana_city":"ｿｳｶｼ","kana_address":"ｻｶｴﾁｮｳ","pref":"埼玉県","city":"草加市","address":"栄町"},
{"zip_code":"3400056","kana_pref":"ｻｲﾀﾏｹﾝ","kana_city":"ｿｳｶｼ","kana_address":"ｼﾝｴｲﾁｮｳ","pref":"埼玉県","city":"草加市","address":"新栄町"},
{"zip_code":"3400054","kana_pref":"ｻｲﾀﾏｹﾝ","kana_city":"ｿｳｶｼ","kana_address":"ｼﾝｾﾞﾝﾁｮｳ","pref":"埼玉県","city":"草加市","address":"新善町"},
{"zip_code":"3400012","kana_pref":"ｻｲﾀﾏｹﾝ","kana_city":"ｿｳｶｼ","kana_address":"ｼﾝﾒｲ","pref":"埼玉県","city":"草加市","address":"神明"},
{"zip_code":"3400014","kana_pref":"ｻｲﾀﾏｹﾝ","kana_city":"ｿｳｶｼ","kana_address":"ｽﾐﾖｼ","pref":"埼玉県","city":"草加市","address":"住吉"},
{"zip_code":"3400055","kana_pref":"ｻｲﾀﾏｹﾝ","kana_city":"ｿｳｶｼ","kana_address":"ｾｲﾓﾝﾁｮｳ","pref":"埼玉県","city":"草加市","address":"清門町"},
{"zip_code":"3400022","kana_pref":"ｻｲﾀﾏｹﾝ","kana_city":"ｿｳｶｼ","kana_address":"ｾｻﾞｷ","pref":"埼玉県","city":"草加市","address":"瀬崎"},
{"zip_code":"3400043","kana_pref":"ｻｲﾀﾏｹﾝ","kana_city":"ｿｳｶｼ","kana_address":"ｿｳｶ","pref":"埼玉県","city":"草加市","address":"草加"},
{"zip_code":"3400015","kana_pref":"ｻｲﾀﾏｹﾝ","kana_city":"ｿｳｶｼ","kana_address":"ﾀｶｻｺﾞ","pref":"埼玉県","city":"草加市","address":"高砂"},
{"zip_code":"3400016","kana_pref":"ｻｲﾀﾏｹﾝ","kana_city":"ｿｳｶｼ","kana_address":"ﾁｭｳｵｳ","pref":"埼玉県","city":"草加市","address":"中央"},
{"zip_code":"3400051","kana_pref":"ｻｲﾀﾏｹﾝ","kana_city":"ｿｳｶｼ","kana_address":"ﾁｮｳｴｲﾁｮｳ","pref":"埼玉県","city":"草加市","address":"長栄町"},
{"zip_code":"3400021","kana_pref":"ｻｲﾀﾏｹﾝ","kana_city":"ｿｳｶｼ","kana_address":"ﾃｼﾛﾁｮｳ","pref":"埼玉県","city":"草加市","address":"手代町"},
{"zip_code":"3400036","kana_pref":"ｻｲﾀﾏｹﾝ","kana_city":"ｿｳｶｼ","kana_address":"ﾅｴﾂﾞｶﾁｮｳ","pref":"埼玉県","city":"草加市","address":"苗塚町"},
{"zip_code":"3400005","kana_pref":"ｻｲﾀﾏｹﾝ","kana_city":"ｿｳｶｼ","kana_address":"ﾅｶﾈ","pref":"埼玉県","city":"草加市","address":"中根"},
{"zip_code":"3400035","kana_pref":"ｻｲﾀﾏｹﾝ","kana_city":"ｿｳｶｼ","kana_address":"ﾆｼﾁｮｳ","pref":"埼玉県","city":"草加市","address":"西町"},
{"zip_code":"3400031","kana_pref":"ｻｲﾀﾏｹﾝ","kana_city":"ｿｳｶｼ","kana_address":"ﾆｯｻﾄﾁｮｳ","pref":"埼玉県","city":"草加市","address":"新里町"},
{"zip_code":"3400044","kana_pref":"ｻｲﾀﾏｹﾝ","kana_city":"ｿｳｶｼ","kana_address":"ﾊﾅｸﾞﾘ","pref":"埼玉県","city":"草加市","address":"花栗"},
{"zip_code":"3400048","kana_pref":"ｻｲﾀﾏｹﾝ","kana_city":"ｿｳｶｼ","kana_address":"ﾊﾗﾁｮｳ","pref":"埼玉県","city":"草加市","address":"原町"},
{"zip_code":"3400034","kana_pref":"ｻｲﾀﾏｹﾝ","kana_city":"ｿｳｶｼ","kana_address":"ﾋｶﾜﾁｮｳ","pref":"埼玉県","city":"草加市","address":"氷川町"},
{"zip_code":"3400004","kana_pref":"ｻｲﾀﾏｹﾝ","kana_city":"ｿｳｶｼ","kana_address":"ﾍﾞﾝﾃﾝ","pref":"埼玉県","city":"草加市","address":"弁天"},
{"zip_code":"3400013","kana_pref":"ｻｲﾀﾏｹﾝ","kana_city":"ｿｳｶｼ","kana_address":"ﾏﾂｴ","pref":"埼玉県","city":"草加市","address":"松江"},
{"zip_code":"3400041","kana_pref":"ｻｲﾀﾏｹﾝ","kana_city":"ｿｳｶｼ","kana_address":"ﾏﾂﾊﾞﾗ","pref":"埼玉県","city":"草加市","address":"松原"},
{"zip_code":"3400028","kana_pref":"ｻｲﾀﾏｹﾝ","kana_city":"ｿｳｶｼ","kana_address":"ﾔﾂｶ","pref":"埼玉県","city":"草加市","address":"谷塚"},
{"zip_code":"3400024","kana_pref":"ｻｲﾀﾏｹﾝ","kana_city":"ｿｳｶｼ","kana_address":"ﾔﾂｶｶﾐﾁｮｳ","pref":"埼玉県","city":"草加市","address":"谷塚上町"},
{"zip_code":"3400025","kana_pref":"ｻｲﾀﾏｹﾝ","kana_city":"ｿｳｶｼ","kana_address":"ﾔﾂｶﾅｶﾁｮｳ","pref":"埼玉県","city":"草加市","address":"谷塚仲町"},
{"zip_code":"3400023","kana_pref":"ｻｲﾀﾏｹﾝ","kana_city":"ｿｳｶｼ","kana_address":"ﾔﾂｶﾁｮｳ","pref":"埼玉県","city":"草加市","address":"谷塚町"},
{"zip_code":"3400033","kana_pref":"ｻｲﾀﾏｹﾝ","kana_city":"ｿｳｶｼ","kana_address":"ﾔﾅｷﾞｼﾏﾁｮｳ","pref":"埼玉県","city":"草加市","address":"柳島町"},
{"zip_code":"3400006","kana_pref":"ｻｲﾀﾏｹﾝ","kana_city":"ｿｳｶｼ","kana_address":"ﾔﾜﾀﾁｮｳ","pref":"埼玉県","city":"草加市","address":"八幡町"},
{"zip_code":"3400017","kana_pref":"ｻｲﾀﾏｹﾝ","kana_city":"ｿｳｶｼ","kana_address":"ﾖｼﾁｮｳ","pref":"埼玉県","city":"草加市","address":"吉町"},
{"zip_code":"3400026","kana_pref":"ｻｲﾀﾏｹﾝ","kana_city":"ｿｳｶｼ","kana_address":"ﾘｮｳｼﾝﾃﾞﾝﾋｶﾞｼﾁｮｳ","pref":"埼玉県","city":"草加市","address":"両新田東町"},
{"zip_code":"3400027","kana_pref":"ｻｲﾀﾏｹﾝ","kana_city":"ｿｳｶｼ","kana_address":"ﾘｮｳｼﾝﾃﾞﾝﾆｼﾁｮｳ","pref":"埼玉県","city":"草加市","address":"両新田西町"},
{"zip_code":"3400211","kana_pref":"ｻｲﾀﾏｹﾝ","kana_city":"ｸｷｼ","kana_address":"ｳｴｳﾁ","pref":"埼玉県","city":"久喜市","address":"上内"},
{"zip_code":"3400204","kana_pref":"ｻｲﾀﾏｹﾝ","kana_city":"ｸｷｼ","kana_address":"ｶﾐｶﾜｻｷ","pref":"埼玉県","city":"久喜市","address":"上川崎"},
{"zip_code":"3400212","kana_pref":"ｻｲﾀﾏｹﾝ","kana_city":"ｸｷｼ","kana_address":"ｷｭｳﾎﾝｼﾞ","pref":"埼玉県","city":"久喜市","address":"久本寺"},
{"zip_code":"3400214","kana_pref":"ｻｲﾀﾏｹﾝ","kana_city":"ｸｷｼ","kana_address":"ｸｽﾞﾒ","pref":"埼玉県","city":"久喜市","address":"葛梅"},
{"zip_code":"3400215","kana_pref":"ｻｲﾀﾏｹﾝ","kana_city":"ｸｷｼ","kana_address":"ｻｶｴ","pref":"埼玉県","city":"久喜市","address":"栄"},
{"zip_code":"3400203","kana_pref":"ｻｲﾀﾏｹﾝ","kana_city":"ｸｷｼ","kana_address":"ｻｸﾗﾀﾞ","pref":"埼玉県","city":"久喜市","address":"桜田"},
{"zip_code":"3400218","kana_pref":"ｻｲﾀﾏｹﾝ","kana_city":"ｸｷｼ","kana_address":"ｽﾅﾊﾗ","pref":"埼玉県","city":"久喜市","address":"砂原"},
{"zip_code":"3400205","kana_pref":"ｻｲﾀﾏｹﾝ","kana_city":"ｸｷｼ","kana_address":"ｿﾄﾉ","pref":"埼玉県","city":"久喜市","address":"外野"},
{"zip_code":"3400213","kana_pref":"ｻｲﾀﾏｹﾝ","kana_city":"ｸｷｼ","kana_address":"ﾅｶﾂﾞﾏ","pref":"埼玉県","city":"久喜市","address":"中妻"},
{"zip_code":"3400206","kana_pref":"ｻｲﾀﾏｹﾝ","kana_city":"ｸｷｼ","kana_address":"ﾆｼｵｵﾜ","pref":"埼玉県","city":"久喜市","address":"西大輪"},
{"zip_code":"3400201","kana_pref":"ｻｲﾀﾏｹﾝ","kana_city":"ｸｷｼ","kana_address":"ﾊｯﾎﾟｳ","pref":"埼玉県","city":"久喜市","address":"八甫"},
{"zip_code":"3400202","kana_pref":"ｻｲﾀﾏｹﾝ","kana_city":"ｸｷｼ","kana_address":"ﾋｶﾞｼｵｵﾜ","pref":"埼玉県","city":"久喜市","address":"東大輪"},
{"zip_code":"3400217","kana_pref":"ｻｲﾀﾏｹﾝ","kana_city":"ｸｷｼ","kana_address":"ﾜｼﾉﾐﾔ","pref":"埼玉県","city":"久喜市","address":"鷲宮"},
{"zip_code":"3400216","kana_pref":"ｻｲﾀﾏｹﾝ","kana_city":"ｸｷｼ","kana_address":"ﾜｼﾉﾐﾔﾁｭｳｵｳ","pref":"埼玉県","city":"久喜市","address":"鷲宮中央"},
{"zip_code":"3400800","kana_pref":"ｻｲﾀﾏｹﾝ","kana_city":"ﾔｼｵｼ","kana_address":"","pref":"埼玉県","city":"八潮市","address":""},
{"zip_code":"3400806","kana_pref":"ｻｲﾀﾏｹﾝ","kana_city":"ﾔｼｵｼ","kana_address":"ｲｸﾞｻ","pref":"埼玉県","city":"八潮市","address":"伊草"},
{"zip_code":"3400821","kana_pref":"ｻｲﾀﾏｹﾝ","kana_city":"ﾔｼｵｼ","kana_address":"ｲｾﾉ","pref":"埼玉県","city":"八潮市","address":"伊勢野"},
{"zip_code":"3400835","kana_pref":"ｻｲﾀﾏｹﾝ","kana_city":"ﾔｼｵｼ","kana_address":"ｳｷﾂﾞｶ","pref":"埼玉県","city":"八潮市","address":"浮塚"},
{"zip_code":"3400822","kana_pref":"ｻｲﾀﾏｹﾝ","kana_city":"ﾔｼｵｼ","kana_address":"ｵｵｾﾞ","pref":"埼玉県","city":"八潮市","address":"大瀬"},
{"zip_code":"3400834","kana_pref":"ｻｲﾀﾏｹﾝ","kana_city":"ﾔｼｵｼ","kana_address":"ｵｵｿﾈ","pref":"埼玉県","city":"八潮市","address":"大曽根"},
{"zip_code":"3400824","kana_pref":"ｻｲﾀﾏｹﾝ","kana_city":"ﾔｼｵｼ","kana_address":"ｶﾞｹ","pref":"埼玉県","city":"八潮市","address":"垳"},
{"zip_code":"3400803","kana_pref":"ｻｲﾀﾏｹﾝ","kana_city":"ﾔｼｵｼ","kana_address":"ｶﾐﾊﾞﾝﾊﾞ","pref":"埼玉県","city":"八潮市","address":"上馬場"},
{"zip_code":"3400813","kana_pref":"ｻｲﾀﾏｹﾝ","kana_city":"ﾔｼｵｼ","kana_address":"ｷｿﾞﾈ","pref":"埼玉県","city":"八潮市","address":"木曽根"},
{"zip_code":"3400804","kana_pref":"ｻｲﾀﾏｹﾝ","kana_city":"ﾔｼｵｼ","kana_address":"ｺｻｸﾀﾞ","pref":"埼玉県","city":"八潮市","address":"小作田"},
{"zip_code":"3400823","kana_pref":"ｻｲﾀﾏｹﾝ","kana_city":"ﾔｼｵｼ","kana_address":"ｺｼﾝﾃﾞﾝ","pref":"埼玉県","city":"八潮市","address":"古新田"},
{"zip_code":"3400807","kana_pref":"ｻｲﾀﾏｹﾝ","kana_city":"ﾔｼｵｼ","kana_address":"ｼﾝﾏﾁ","pref":"埼玉県","city":"八潮市","address":"新町"},
{"zip_code":"3400825","kana_pref":"ｻｲﾀﾏｹﾝ","kana_city":"ﾔｼｵｼ","kana_address":"ﾀﾞｲﾊﾞﾗ","pref":"埼玉県","city":"八潮市","address":"大原"},
{"zip_code":"3400816","kana_pref":"ｻｲﾀﾏｹﾝ","kana_city":"ﾔｼｵｼ","kana_address":"ﾁｭｳｵｳ","pref":"埼玉県","city":"八潮市","address":"中央"},
{"zip_code":"3400802","kana_pref":"ｻｲﾀﾏｹﾝ","kana_city":"ﾔｼｵｼ","kana_address":"ﾂﾙｶﾞｿﾈ","pref":"埼玉県","city":"八潮市","address":"鶴ケ曽根"},
{"zip_code":"3400812","kana_pref":"ｻｲﾀﾏｹﾝ","kana_city":"ﾔｼｵｼ","kana_address":"ﾅｶﾊﾞﾝﾊﾞ","pref":"埼玉県","city":"八潮市","address":"中馬場"},
{"zip_code":"3400833","kana_pref":"ｻｲﾀﾏｹﾝ","kana_city":"ﾔｼｵｼ","kana_address":"ﾆｼﾌﾞｸﾛ","pref":"埼玉県","city":"八潮市","address":"西袋"},
{"zip_code":"3400811","kana_pref":"ｻｲﾀﾏｹﾝ","kana_city":"ﾔｼｵｼ","kana_address":"ﾆﾁｮｳﾒ","pref":"埼玉県","city":"八潮市","address":"二丁目"},
{"zip_code":"3400801","kana_pref":"ｻｲﾀﾏｹﾝ","kana_city":"ﾔｼｵｼ","kana_address":"ﾊﾁｼﾞｮｳ","pref":"埼玉県","city":"八潮市","address":"八條"},
{"zip_code":"3400805","kana_pref":"ｻｲﾀﾏｹﾝ","kana_city":"ﾔｼｵｼ","kana_address":"ﾏﾂﾉｷ","pref":"埼玉県","city":"八潮市","address":"松之木"},
{"zip_code":"3400808","kana_pref":"ｻｲﾀﾏｹﾝ","kana_city":"ﾔｼｵｼ","kana_address":"ﾐﾄﾞﾘﾁｮｳ","pref":"埼玉県","city":"八潮市","address":"緑町"},
{"zip_code":"3400831","kana_pref":"ｻｲﾀﾏｹﾝ","kana_city":"ﾔｼｵｼ","kana_address":"ﾐﾅﾐｳｼﾛﾔ","pref":"埼玉県","city":"八潮市","address":"南後谷"},
{"zip_code":"3400814","kana_pref":"ｻｲﾀﾏｹﾝ","kana_city":"ﾔｼｵｼ","kana_address":"ﾐﾅﾐｶﾜｻｷ","pref":"埼玉県","city":"八潮市","address":"南川崎"},
{"zip_code":"3400815","kana_pref":"ｻｲﾀﾏｹﾝ","kana_city":"ﾔｼｵｼ","kana_address":"ﾔｼｵ","pref":"埼玉県","city":"八潮市","address":"八潮"},
{"zip_code":"3400832","kana_pref":"ｻｲﾀﾏｹﾝ","kana_city":"ﾔｼｵｼ","kana_address":"ﾔﾅｷﾞﾉﾐﾔ","pref":"埼玉県","city":"八潮市","address":"柳之宮"},
{"zip_code":"3400100","kana_pref":"ｻｲﾀﾏｹﾝ","kana_city":"ｻｯﾃｼ","kana_address":"","pref":"埼玉県","city":"幸手市","address":""},
{"zip_code":"3400103","kana_pref":"ｻｲﾀﾏｹﾝ","kana_city":"ｻｯﾃｼ","kana_address":"ｳﾁｺﾞｳﾏ","pref":"埼玉県","city":"幸手市","address":"内国府間"},
{"zip_code":"3400104","kana_pref":"ｻｲﾀﾏｹﾝ","kana_city":"ｻｯﾃｼ","kana_address":"ｴﾝﾄﾞｳｳﾁ","pref":"埼玉県","city":"幸手市","address":"円藤内"},
{"zip_code":"3400164","kana_pref":"ｻｲﾀﾏｹﾝ","kana_city":"ｻｯﾃｼ","kana_address":"ｶﾋﾅﾀ","pref":"埼玉県","city":"幸手市","address":"香日向"},
{"zip_code":"3400124","kana_pref":"ｻｲﾀﾏｹﾝ","kana_city":"ｻｯﾃｼ","kana_address":"ｶﾐｳﾜﾀﾞ","pref":"埼玉県","city":"幸手市","address":"上宇和田"},
{"zip_code":"3400146","kana_pref":"ｻｲﾀﾏｹﾝ","kana_city":"ｻｯﾃｼ","kana_address":"ｶﾐｵｳｷﾞ","pref":"埼玉県","city":"幸手市","address":"神扇"},
{"zip_code":"3400155","kana_pref":"ｻｲﾀﾏｹﾝ","kana_city":"ｻｯﾃｼ","kana_address":"ｶﾐﾀｶﾉ","pref":"埼玉県","city":"幸手市","address":"上高野"},
{"zip_code":"3400121","kana_pref":"ｻｲﾀﾏｹﾝ","kana_city":"ｻｯﾃｼ","kana_address":"ｶﾐﾖｼﾊﾞ","pref":"埼玉県","city":"幸手市","address":"上吉羽"},
{"zip_code":"3400111","kana_pref":"ｻｲﾀﾏｹﾝ","kana_city":"ｻｯﾃｼ","kana_address":"ｷﾀ","pref":"埼玉県","city":"幸手市","address":"北"},
{"zip_code":"3400123","kana_pref":"ｻｲﾀﾏｹﾝ","kana_city":"ｻｯﾃｼ","kana_address":"ｷﾀﾞﾁ","pref":"埼玉県","city":"幸手市","address":"木立"},
{"zip_code":"3400112","kana_pref":"ｻｲﾀﾏｹﾝ","kana_city":"ｻｯﾃｼ","kana_address":"ｺﾞﾝｹﾞﾝﾄﾞｳ","pref":"埼玉県","city":"幸手市","address":"権現堂"},
{"zip_code":"3400154","kana_pref":"ｻｲﾀﾏｹﾝ","kana_city":"ｻｯﾃｼ","kana_address":"ｻｶｴ","pref":"埼玉県","city":"幸手市","address":"栄"},
{"zip_code":"3400113","kana_pref":"ｻｲﾀﾏｹﾝ","kana_city":"ｻｯﾃｼ","kana_address":"ｻｯﾃ","pref":"埼玉県","city":"幸手市","address":"幸手"},
{"zip_code":"3400125","kana_pref":"ｻｲﾀﾏｹﾝ","kana_city":"ｻｯﾃｼ","kana_address":"ｼﾓｳﾜﾀﾞ","pref":"埼玉県","city":"幸手市","address":"下宇和田"},
{"zip_code":"3400162","kana_pref":"ｻｲﾀﾏｹﾝ","kana_city":"ｻｯﾃｼ","kana_address":"ｼﾓｶﾜｻｷ","pref":"埼玉県","city":"幸手市","address":"下川崎"},
{"zip_code":"3400126","kana_pref":"ｻｲﾀﾏｹﾝ","kana_city":"ｻｯﾃｼ","kana_address":"ｼﾓﾖｼﾊﾞ","pref":"埼玉県","city":"幸手市","address":"下吉羽"},
{"zip_code":"3400122","kana_pref":"ｻｲﾀﾏｹﾝ","kana_city":"ｻｯﾃｼ","kana_address":"ｼﾝﾒｲｳﾁ","pref":"埼玉県","city":"幸手市","address":"神明内"},
{"zip_code":"3400133","kana_pref":"ｻｲﾀﾏｹﾝ","kana_city":"ｻｯﾃｼ","kana_address":"ｿｳｼﾝﾃﾞﾝ","pref":"埼玉県","city":"幸手市","address":"惣新田"},
{"zip_code":"3400101","kana_pref":"ｻｲﾀﾏｹﾝ","kana_city":"ｻｯﾃｼ","kana_address":"ｿﾄｺﾞｳﾏ","pref":"埼玉県","city":"幸手市","address":"外国府間"},
{"zip_code":"3400102","kana_pref":"ｻｲﾀﾏｹﾝ","kana_city":"ｻｯﾃｼ","kana_address":"ﾀｶｽｶ","pref":"埼玉県","city":"幸手市","address":"高須賀"},
{"zip_code":"3400161","kana_pref":"ｻｲﾀﾏｹﾝ","kana_city":"ｻｯﾃｼ","kana_address":"ﾁﾂﾞｶ","pref":"埼玉県","city":"幸手市","address":"千塚"},
{"zip_code":"3400152","kana_pref":"ｻｲﾀﾏｹﾝ","kana_city":"ｻｯﾃｼ","kana_address":"ﾃﾝｼﾞﾝｼﾏ","pref":"埼玉県","city":"幸手市","address":"天神島"},
{"zip_code":"3400144","kana_pref":"ｻｲﾀﾏｹﾝ","kana_city":"ｻｯﾃｼ","kana_address":"ﾄｼﾏ","pref":"埼玉県","city":"幸手市","address":"戸島"},
{"zip_code":"3400115","kana_pref":"ｻｲﾀﾏｹﾝ","kana_city":"ｻｯﾃｼ","kana_address":"ﾅｶ","pref":"埼玉県","city":"幸手市","address":"中"},
{"zip_code":"3400163","kana_pref":"ｻｲﾀﾏｹﾝ","kana_city":"ｻｯﾃｼ","kana_address":"ﾅｶｶﾜｻｷ","pref":"埼玉県","city":"幸手市","address":"中川崎"},
{"zip_code":"3400132","kana_pref":"ｻｲﾀﾏｹﾝ","kana_city":"ｻｯﾃｼ","kana_address":"ﾅｶｼﾞﾏ","pref":"埼玉県","city":"幸手市","address":"中島"},
{"zip_code":"3400142","kana_pref":"ｻｲﾀﾏｹﾝ","kana_city":"ｻｯﾃｼ","kana_address":"ﾅｶﾉ","pref":"埼玉県","city":"幸手市","address":"中野"},
{"zip_code":"3400143","kana_pref":"ｻｲﾀﾏｹﾝ","kana_city":"ｻｯﾃｼ","kana_address":"ﾅｶﾞﾏ","pref":"埼玉県","city":"幸手市","address":"長間"},
{"zip_code":"3400116","kana_pref":"ｻｲﾀﾏｹﾝ","kana_city":"ｻｯﾃｼ","kana_address":"ﾆｼ","pref":"埼玉県","city":"幸手市","address":"西"},
{"zip_code":"3400131","kana_pref":"ｻｲﾀﾏｹﾝ","kana_city":"ｻｯﾃｼ","kana_address":"ﾆｼｾｷﾔﾄﾞ","pref":"埼玉県","city":"幸手市","address":"西関宿"},
{"zip_code":"3400134","kana_pref":"ｻｲﾀﾏｹﾝ","kana_city":"ｻｯﾃｼ","kana_address":"ﾊﾅｼﾞﾏ","pref":"埼玉県","city":"幸手市","address":"花島"},
{"zip_code":"3400114","kana_pref":"ｻｲﾀﾏｹﾝ","kana_city":"ｻｯﾃｼ","kana_address":"ﾋｶﾞｼ","pref":"埼玉県","city":"幸手市","address":"東"},
{"zip_code":"3400145","kana_pref":"ｻｲﾀﾏｹﾝ","kana_city":"ｻｯﾃｼ","kana_address":"ﾋﾗｽｶ","pref":"埼玉県","city":"幸手市","address":"平須賀"},
{"zip_code":"3400141","kana_pref":"ｻｲﾀﾏｹﾝ","kana_city":"ｻｯﾃｼ","kana_address":"ﾋﾗﾉ","pref":"埼玉県","city":"幸手市","address":"平野"},
{"zip_code":"3400136","kana_pref":"ｻｲﾀﾏｹﾝ","kana_city":"ｻｯﾃｼ","kana_address":"ﾎｿﾉ","pref":"埼玉県","city":"幸手市","address":"細野"},
{"zip_code":"3400135","kana_pref":"ｻｲﾀﾏｹﾝ","kana_city":"ｻｯﾃｼ","kana_address":"ﾏｷﾉｼﾞ","pref":"埼玉県","city":"幸手市","address":"槇野地"},
{"zip_code":"3400105","kana_pref":"ｻｲﾀﾏｹﾝ","kana_city":"ｻｯﾃｼ","kana_address":"ﾏﾂｲｼ","pref":"埼玉県","city":"幸手市","address":"松石"},
{"zip_code":"3400151","kana_pref":"ｻｲﾀﾏｹﾝ","kana_city":"ｻｯﾃｼ","kana_address":"ﾐﾄﾞﾘﾀﾞｲ","pref":"埼玉県","city":"幸手市","address":"緑台"},
{"zip_code":"3400156","kana_pref":"ｻｲﾀﾏｹﾝ","kana_city":"ｻｯﾃｼ","kana_address":"ﾐﾅﾐ","pref":"埼玉県","city":"幸手市","address":"南"},
{"zip_code":"3400153","kana_pref":"ｻｲﾀﾏｹﾝ","kana_city":"ｻｯﾃｼ","kana_address":"ﾖｼﾉ","pref":"埼玉県","city":"幸手市","address":"吉野"}]}