{"zip_code":[
{"zip_code":"3410000","kana_pref":"ｻｲﾀﾏｹﾝ","kana_city":"ﾐｻﾄｼ","kana_address":"","pref":"埼玉県","city":"三郷市","address":""},
{"zip_code":"3410036","kana_pref":"ｻｲﾀﾏｹﾝ","kana_city":"ﾐｻﾄｼ","kana_address":"ｱｽﾞﾏﾁｮｳ","pref":"埼玉県","city":"三郷市","address":"東町"},
{"zip_code":"3410054","kana_pref":"ｻｲﾀﾏｹﾝ","kana_city":"ﾐｻﾄｼ","kana_address":"ｲｽﾞﾐ","pref":"埼玉県","city":"三郷市","address":"泉"},
{"zip_code":"3410033","kana_pref":"ｻｲﾀﾏｹﾝ","kana_city":"ﾐｻﾄｼ","kana_address":"ｲﾁｽｹ","pref":"埼玉県","city":"三郷市","address":"市助"},
{"zip_code":"3410031","kana_pref":"ｻｲﾀﾏｹﾝ","kana_city":"ﾐｻﾄｼ","kana_address":"ｲﾜﾉｷ","pref":"埼玉県","city":"三郷市","address":"岩野木"},
{"zip_code":"3410014","kana_pref":"ｻｲﾀﾏｹﾝ","kana_city":"ﾐｻﾄｼ","kana_address":"ｳｼﾛﾔ","pref":"埼玉県","city":"三郷市","address":"後谷"},
{"zip_code":"3410011","kana_pref":"ｻｲﾀﾏｹﾝ","kana_city":"ﾐｻﾄｼ","kana_address":"ｳﾈﾒ","pref":"埼玉県","city":"三郷市","address":"采女"},
{"zip_code":"3410022","kana_pref":"ｻｲﾀﾏｹﾝ","kana_city":"ﾐｻﾄｼ","kana_address":"ｵｵﾋﾛﾄ","pref":"埼玉県","city":"三郷市","address":"大広戸"},
{"zip_code":"3410046","kana_pref":"ｻｲﾀﾏｹﾝ","kana_city":"ﾐｻﾄｼ","kana_address":"ｶﾏｸﾗ","pref":"埼玉県","city":"三郷市","address":"鎌倉"},
{"zip_code":"3410055","kana_pref":"ｻｲﾀﾏｹﾝ","kana_city":"ﾐｻﾄｼ","kana_address":"ｶﾐｸﾞﾁ","pref":"埼玉県","city":"三郷市","address":"上口"},
{"zip_code":"3410006","kana_pref":"ｻｲﾀﾏｹﾝ","kana_city":"ﾐｻﾄｼ","kana_address":"ｶﾐﾋｺｶﾜﾄﾞ","pref":"埼玉県","city":"三郷市","address":"上彦川戸"},
{"zip_code":"3410004","kana_pref":"ｻｲﾀﾏｹﾝ","kana_city":"ﾐｻﾄｼ","kana_address":"ｶﾐﾋｺﾅ","pref":"埼玉県","city":"三郷市","address":"上彦名"},
{"zip_code":"3410026","kana_pref":"ｻｲﾀﾏｹﾝ","kana_city":"ﾐｻﾄｼ","kana_address":"ｺｳﾎﾞｳ","pref":"埼玉県","city":"三郷市","address":"幸房"},
{"zip_code":"3410008","kana_pref":"ｻｲﾀﾏｹﾝ","kana_city":"ﾐｻﾄｼ","kana_address":"ｺﾏｶﾞﾀ","pref":"埼玉県","city":"三郷市","address":"駒形"},
{"zip_code":"3410013","kana_pref":"ｻｲﾀﾏｹﾝ","kana_city":"ﾐｻﾄｼ","kana_address":"ｺﾔﾎﾞﾘ","pref":"埼玉県","city":"三郷市","address":"小谷堀"},
{"zip_code":"3410043","kana_pref":"ｻｲﾀﾏｹﾝ","kana_city":"ﾐｻﾄｼ","kana_address":"ｻｶｴ","pref":"埼玉県","city":"三郷市","address":"栄"},
{"zip_code":"3410027","kana_pref":"ｻｲﾀﾏｹﾝ","kana_city":"ﾐｻﾄｼ","kana_address":"ｻｻﾂﾞｶ","pref":"埼玉県","city":"三郷市","address":"笹塚"},
{"zip_code":"3410021","kana_pref":"ｻｲﾀﾏｹﾝ","kana_city":"ﾐｻﾄｼ","kana_address":"ｻﾂｷﾀﾞｲﾗ","pref":"埼玉県","city":"三郷市","address":"さつき平"},
{"zip_code":"3410007","kana_pref":"ｻｲﾀﾏｹﾝ","kana_city":"ﾐｻﾄｼ","kana_address":"ｼﾓﾋｺｶﾜﾄﾞ","pref":"埼玉県","city":"三郷市","address":"下彦川戸"},
{"zip_code":"3410009","kana_pref":"ｻｲﾀﾏｹﾝ","kana_city":"ﾐｻﾄｼ","kana_address":"ｼﾝﾐｻﾄﾗﾗｼﾃｨ","pref":"埼玉県","city":"三郷市","address":"新三郷ららシティ"},
{"zip_code":"3410034","kana_pref":"ｻｲﾀﾏｹﾝ","kana_city":"ﾐｻﾄｼ","kana_address":"ｼﾝﾜ","pref":"埼玉県","city":"三郷市","address":"新和"},
{"zip_code":"3410015","kana_pref":"ｻｲﾀﾏｹﾝ","kana_city":"ﾐｻﾄｼ","kana_address":"ｾﾞﾝﾏ","pref":"埼玉県","city":"三郷市","address":"前間"},
{"zip_code":"3410037","kana_pref":"ｻｲﾀﾏｹﾝ","kana_city":"ﾐｻﾄｼ","kana_address":"ﾀｶｽ","pref":"埼玉県","city":"三郷市","address":"高州"},
{"zip_code":"3410035","kana_pref":"ｻｲﾀﾏｹﾝ","kana_city":"ﾐｻﾄｼ","kana_address":"ﾀｶﾉ","pref":"埼玉県","city":"三郷市","address":"鷹野"},
{"zip_code":"3410016","kana_pref":"ｻｲﾀﾏｹﾝ","kana_city":"ﾐｻﾄｼ","kana_address":"ﾀﾅｶｼﾝﾃﾞﾝ","pref":"埼玉県","city":"三郷市","address":"田中新田"},
{"zip_code":"3410017","kana_pref":"ｻｲﾀﾏｹﾝ","kana_city":"ﾐｻﾄｼ","kana_address":"ﾀﾝｺﾞ","pref":"埼玉県","city":"三郷市","address":"丹後"},
{"zip_code":"3410051","kana_pref":"ｻｲﾀﾏｹﾝ","kana_city":"ﾐｻﾄｼ","kana_address":"ﾃﾝｼﾞﾝ","pref":"埼玉県","city":"三郷市","address":"天神"},
{"zip_code":"3410044","kana_pref":"ｻｲﾀﾏｹﾝ","kana_city":"ﾐｻﾄｼ","kana_address":"ﾄｶﾞｻｷ","pref":"埼玉県","city":"三郷市","address":"戸ケ崎"},
{"zip_code":"3410023","kana_pref":"ｻｲﾀﾏｹﾝ","kana_city":"ﾐｻﾄｼ","kana_address":"ﾆｿﾞｳ","pref":"埼玉県","city":"三郷市","address":"仁蔵"},
{"zip_code":"3410041","kana_pref":"ｻｲﾀﾏｹﾝ","kana_city":"ﾐｻﾄｼ","kana_address":"ﾊﾅﾜﾀﾞ","pref":"埼玉県","city":"三郷市","address":"花和田"},
{"zip_code":"3410056","kana_pref":"ｻｲﾀﾏｹﾝ","kana_city":"ﾐｻﾄｼ","kana_address":"ﾊﾞﾝｼｮｳﾒﾝ","pref":"埼玉県","city":"三郷市","address":"番匠免"},
{"zip_code":"3410012","kana_pref":"ｻｲﾀﾏｹﾝ","kana_city":"ﾐｻﾄｼ","kana_address":"ﾊﾝﾀ","pref":"埼玉県","city":"三郷市","address":"半田"},
{"zip_code":"3410001","kana_pref":"ｻｲﾀﾏｹﾝ","kana_city":"ﾐｻﾄｼ","kana_address":"ﾋｺｲﾄ","pref":"埼玉県","city":"三郷市","address":"彦糸"},
{"zip_code":"3410058","kana_pref":"ｻｲﾀﾏｹﾝ","kana_city":"ﾐｻﾄｼ","kana_address":"ﾋｺｴ","pref":"埼玉県","city":"三郷市","address":"彦江"},
{"zip_code":"3410002","kana_pref":"ｻｲﾀﾏｹﾝ","kana_city":"ﾐｻﾄｼ","kana_address":"ﾋｺｵﾄ","pref":"埼玉県","city":"三郷市","address":"彦音"},
{"zip_code":"3410005","kana_pref":"ｻｲﾀﾏｹﾝ","kana_city":"ﾐｻﾄｼ","kana_address":"ﾋｺｶﾜﾄﾞ","pref":"埼玉県","city":"三郷市","address":"彦川戸"},
{"zip_code":"3410053","kana_pref":"ｻｲﾀﾏｹﾝ","kana_city":"ﾐｻﾄｼ","kana_address":"ﾋｺｸﾗ","pref":"埼玉県","city":"三郷市","address":"彦倉"},
{"zip_code":"3410057","kana_pref":"ｻｲﾀﾏｹﾝ","kana_city":"ﾐｻﾄｼ","kana_address":"ﾋｺｻﾜ","pref":"埼玉県","city":"三郷市","address":"彦沢"},
{"zip_code":"3410003","kana_pref":"ｻｲﾀﾏｹﾝ","kana_city":"ﾐｻﾄｼ","kana_address":"ﾋｺﾅﾘ","pref":"埼玉県","city":"三郷市","address":"彦成"},
{"zip_code":"3410052","kana_pref":"ｻｲﾀﾏｹﾝ","kana_city":"ﾐｻﾄｼ","kana_address":"ﾋｺﾉ","pref":"埼玉県","city":"三郷市","address":"彦野"},
{"zip_code":"3410024","kana_pref":"ｻｲﾀﾏｹﾝ","kana_city":"ﾐｻﾄｼ","kana_address":"ﾐｻﾄ","pref":"埼玉県","city":"三郷市","address":"三郷"},
{"zip_code":"3410028","kana_pref":"ｻｲﾀﾏｹﾝ","kana_city":"ﾐｻﾄｼ","kana_address":"ﾐﾅﾐﾊｽﾇﾏ","pref":"埼玉県","city":"三郷市","address":"南蓮沼"},
{"zip_code":"3410025","kana_pref":"ｻｲﾀﾏｹﾝ","kana_city":"ﾐｻﾄｼ","kana_address":"ﾓﾀｲ","pref":"埼玉県","city":"三郷市","address":"茂田井"},
{"zip_code":"3410042","kana_pref":"ｻｲﾀﾏｹﾝ","kana_city":"ﾐｻﾄｼ","kana_address":"ﾔｸﾞﾁ","pref":"埼玉県","city":"三郷市","address":"谷口"},
{"zip_code":"3410032","kana_pref":"ｻｲﾀﾏｹﾝ","kana_city":"ﾐｻﾄｼ","kana_address":"ﾔﾅｶ","pref":"埼玉県","city":"三郷市","address":"谷中"},
{"zip_code":"3410045","kana_pref":"ｻｲﾀﾏｹﾝ","kana_city":"ﾐｻﾄｼ","kana_address":"ﾖﾏｷ","pref":"埼玉県","city":"三郷市","address":"寄巻"},
{"zip_code":"3410018","kana_pref":"ｻｲﾀﾏｹﾝ","kana_city":"ﾐｻﾄｼ","kana_address":"ﾜｾﾀﾞ","pref":"埼玉県","city":"三郷市","address":"早稲田"}]}