{"zip_code":[
{"zip_code":"3420000","kana_pref":"ｻｲﾀﾏｹﾝ","kana_city":"ﾖｼｶﾜｼ","kana_address":"","pref":"埼玉県","city":"吉川市","address":""},
{"zip_code":"3420016","kana_pref":"ｻｲﾀﾏｹﾝ","kana_city":"ﾖｼｶﾜｼ","kana_address":"ｱｲﾉﾔ","pref":"埼玉県","city":"吉川市","address":"会野谷"},
{"zip_code":"3420008","kana_pref":"ｻｲﾀﾏｹﾝ","kana_city":"ﾖｼｶﾜｼ","kana_address":"ｱｻﾋ","pref":"埼玉県","city":"吉川市","address":"旭"},
{"zip_code":"3420025","kana_pref":"ｻｲﾀﾏｹﾝ","kana_city":"ﾖｼｶﾜｼ","kana_address":"ｲｲｼﾞﾏ","pref":"埼玉県","city":"吉川市","address":"飯島"},
{"zip_code":"3420022","kana_pref":"ｻｲﾀﾏｹﾝ","kana_city":"ﾖｼｶﾜｼ","kana_address":"ｶﾄｳ","pref":"埼玉県","city":"吉川市","address":"加藤"},
{"zip_code":"3420001","kana_pref":"ｻｲﾀﾏｹﾝ","kana_city":"ﾖｼｶﾜｼ","kana_address":"ｶﾐｳﾁｶﾜ","pref":"埼玉県","city":"吉川市","address":"上内川"},
{"zip_code":"3420017","kana_pref":"ｻｲﾀﾏｹﾝ","kana_city":"ﾖｼｶﾜｼ","kana_address":"ｶﾐｻｻﾂﾞｶ","pref":"埼玉県","city":"吉川市","address":"上笹塚"},
{"zip_code":"3420052","kana_pref":"ｻｲﾀﾏｹﾝ","kana_city":"ﾖｼｶﾜｼ","kana_address":"ｶﾜﾄﾞﾐ","pref":"埼玉県","city":"吉川市","address":"川富"},
{"zip_code":"3420051","kana_pref":"ｻｲﾀﾏｹﾝ","kana_city":"ﾖｼｶﾜｼ","kana_address":"ｶﾜﾉ","pref":"埼玉県","city":"吉川市","address":"川野"},
{"zip_code":"3420005","kana_pref":"ｻｲﾀﾏｹﾝ","kana_city":"ﾖｼｶﾜｼ","kana_address":"ｶﾜﾌｼﾞ","pref":"埼玉県","city":"吉川市","address":"川藤"},
{"zip_code":"3420045","kana_pref":"ｻｲﾀﾏｹﾝ","kana_city":"ﾖｼｶﾜｼ","kana_address":"ｷｳﾘ","pref":"埼玉県","city":"吉川市","address":"木売"},
{"zip_code":"3420044","kana_pref":"ｻｲﾀﾏｹﾝ","kana_city":"ﾖｼｶﾜｼ","kana_address":"ｷｳﾘｼﾝﾃﾞﾝ","pref":"埼玉県","city":"吉川市","address":"木売新田"},
{"zip_code":"3420046","kana_pref":"ｻｲﾀﾏｹﾝ","kana_city":"ﾖｼｶﾜｼ","kana_address":"ｷｮｳﾎ","pref":"埼玉県","city":"吉川市","address":"共保"},
{"zip_code":"3420058","kana_pref":"ｻｲﾀﾏｹﾝ","kana_city":"ﾖｼｶﾜｼ","kana_address":"ｷﾖﾐﾉ","pref":"埼玉県","city":"吉川市","address":"きよみ野"},
{"zip_code":"3420043","kana_pref":"ｻｲﾀﾏｹﾝ","kana_city":"ﾖｼｶﾜｼ","kana_address":"ｺﾏﾂｶﾞﾜ","pref":"埼玉県","city":"吉川市","address":"小松川"},
{"zip_code":"3420050","kana_pref":"ｻｲﾀﾏｹﾝ","kana_city":"ﾖｼｶﾜｼ","kana_address":"ｻｶｴﾁｮｳ","pref":"埼玉県","city":"吉川市","address":"栄町"},
{"zip_code":"3420023","kana_pref":"ｻｲﾀﾏｹﾝ","kana_city":"ﾖｼｶﾜｼ","kana_address":"ｻﾗﾇﾏ","pref":"埼玉県","city":"吉川市","address":"皿沼"},
{"zip_code":"3420021","kana_pref":"ｻｲﾀﾏｹﾝ","kana_city":"ﾖｼｶﾜｼ","kana_address":"ｼｼﾐﾂﾞｶ","pref":"埼玉県","city":"吉川市","address":"鹿見塚"},
{"zip_code":"3420002","kana_pref":"ｻｲﾀﾏｹﾝ","kana_city":"ﾖｼｶﾜｼ","kana_address":"ｼﾓｳﾁｶﾜ","pref":"埼玉県","city":"吉川市","address":"下内川"},
{"zip_code":"3420007","kana_pref":"ｻｲﾀﾏｹﾝ","kana_city":"ﾖｼｶﾜｼ","kana_address":"ｼﾞｭｳｲｯｹﾝ","pref":"埼玉県","city":"吉川市","address":"拾壱軒"},
{"zip_code":"3420059","kana_pref":"ｻｲﾀﾏｹﾝ","kana_city":"ﾖｼｶﾜｼ","kana_address":"ｼﾝｴｲ","pref":"埼玉県","city":"吉川市","address":"新栄"},
{"zip_code":"3420057","kana_pref":"ｻｲﾀﾏｹﾝ","kana_city":"ﾖｼｶﾜｼ","kana_address":"ｽｶ","pref":"埼玉県","city":"吉川市","address":"須賀"},
{"zip_code":"3420053","kana_pref":"ｻｲﾀﾏｹﾝ","kana_city":"ﾖｼｶﾜｼ","kana_address":"ｾｷ","pref":"埼玉県","city":"吉川市","address":"関"},
{"zip_code":"3420014","kana_pref":"ｻｲﾀﾏｹﾝ","kana_city":"ﾖｼｶﾜｼ","kana_address":"ｾｷｼﾝﾃﾞﾝ","pref":"埼玉県","city":"吉川市","address":"関新田"},
{"zip_code":"3420036","kana_pref":"ｻｲﾀﾏｹﾝ","kana_city":"ﾖｼｶﾜｼ","kana_address":"ﾀｶﾄﾞﾐ","pref":"埼玉県","city":"吉川市","address":"高富"},
{"zip_code":"3420035","kana_pref":"ｻｲﾀﾏｹﾝ","kana_city":"ﾖｼｶﾜｼ","kana_address":"ﾀｶﾋｻ","pref":"埼玉県","city":"吉川市","address":"高久"},
{"zip_code":"3420034","kana_pref":"ｻｲﾀﾏｹﾝ","kana_city":"ﾖｼｶﾜｼ","kana_address":"ﾄﾞｳﾆﾜ","pref":"埼玉県","city":"吉川市","address":"道庭"},
{"zip_code":"3420026","kana_pref":"ｻｲﾀﾏｹﾝ","kana_city":"ﾖｼｶﾜｼ","kana_address":"ﾄﾞｼﾞｮｳ","pref":"埼玉県","city":"吉川市","address":"土場"},
{"zip_code":"3420037","kana_pref":"ｻｲﾀﾏｹﾝ","kana_city":"ﾖｼｶﾜｼ","kana_address":"ﾄﾐｼﾝﾃﾞﾝ","pref":"埼玉県","city":"吉川市","address":"富新田"},
{"zip_code":"3420015","kana_pref":"ｻｲﾀﾏｹﾝ","kana_city":"ﾖｼｶﾜｼ","kana_address":"ﾅｶｲ","pref":"埼玉県","city":"吉川市","address":"中井"},
{"zip_code":"3420047","kana_pref":"ｻｲﾀﾏｹﾝ","kana_city":"ﾖｼｶﾜｼ","kana_address":"ﾅｶｶﾞﾜﾀﾞｲ","pref":"埼玉県","city":"吉川市","address":"中川台"},
{"zip_code":"3420031","kana_pref":"ｻｲﾀﾏｹﾝ","kana_city":"ﾖｼｶﾜｼ","kana_address":"ﾅｶｼﾞﾏ","pref":"埼玉県","city":"吉川市","address":"中島"},
{"zip_code":"3420033","kana_pref":"ｻｲﾀﾏｹﾝ","kana_city":"ﾖｼｶﾜｼ","kana_address":"ﾅｶｿﾞﾈ","pref":"埼玉県","city":"吉川市","address":"中曽根"},
{"zip_code":"3420042","kana_pref":"ｻｲﾀﾏｹﾝ","kana_city":"ﾖｼｶﾜｼ","kana_address":"ﾅｶﾉ","pref":"埼玉県","city":"吉川市","address":"中野"},
{"zip_code":"3420004","kana_pref":"ｻｲﾀﾏｹﾝ","kana_city":"ﾖｼｶﾜｼ","kana_address":"ﾅﾍﾞｺｳｼﾞ","pref":"埼玉県","city":"吉川市","address":"鍋小路"},
{"zip_code":"3420003","kana_pref":"ｻｲﾀﾏｹﾝ","kana_city":"ﾖｼｶﾜｼ","kana_address":"ﾊﾁｺｼﾝﾃﾞﾝ","pref":"埼玉県","city":"吉川市","address":"八子新田"},
{"zip_code":"3420024","kana_pref":"ｻｲﾀﾏｹﾝ","kana_city":"ﾖｼｶﾜｼ","kana_address":"ﾊﾝﾜﾘ","pref":"埼玉県","city":"吉川市","address":"半割"},
{"zip_code":"3420012","kana_pref":"ｻｲﾀﾏｹﾝ","kana_city":"ﾖｼｶﾜｼ","kana_address":"ﾋﾗｶﾀｼﾝﾃﾞﾝ","pref":"埼玉県","city":"吉川市","address":"平方新田"},
{"zip_code":"3420056","kana_pref":"ｻｲﾀﾏｹﾝ","kana_city":"ﾖｼｶﾜｼ","kana_address":"ﾋﾗﾇﾏ","pref":"埼玉県","city":"吉川市","address":"平沼"},
{"zip_code":"3420011","kana_pref":"ｻｲﾀﾏｹﾝ","kana_city":"ﾖｼｶﾜｼ","kana_address":"ﾌｶｲｼﾝﾃﾞﾝ","pref":"埼玉県","city":"吉川市","address":"深井新田"},
{"zip_code":"3420032","kana_pref":"ｻｲﾀﾏｹﾝ","kana_city":"ﾖｼｶﾜｼ","kana_address":"ﾌﾀﾂﾇﾏ","pref":"埼玉県","city":"吉川市","address":"二ツ沼"},
{"zip_code":"3420041","kana_pref":"ｻｲﾀﾏｹﾝ","kana_city":"ﾖｼｶﾜｼ","kana_address":"ﾎ","pref":"埼玉県","city":"吉川市","address":"保"},
{"zip_code":"3420038","kana_pref":"ｻｲﾀﾏｹﾝ","kana_city":"ﾖｼｶﾜｼ","kana_address":"ﾐﾅﾐ","pref":"埼玉県","city":"吉川市","address":"美南"},
{"zip_code":"3420006","kana_pref":"ｻｲﾀﾏｹﾝ","kana_city":"ﾖｼｶﾜｼ","kana_address":"ﾐﾅﾐﾋﾛｼﾏ","pref":"埼玉県","city":"吉川市","address":"南広島"},
{"zip_code":"3420027","kana_pref":"ｻｲﾀﾏｹﾝ","kana_city":"ﾖｼｶﾜｼ","kana_address":"ﾐﾜﾉｴ","pref":"埼玉県","city":"吉川市","address":"三輪野江"},
{"zip_code":"3420055","kana_pref":"ｻｲﾀﾏｹﾝ","kana_city":"ﾖｼｶﾜｼ","kana_address":"ﾖｼｶﾜ","pref":"埼玉県","city":"吉川市","address":"吉川"},
{"zip_code":"3420054","kana_pref":"ｻｲﾀﾏｹﾝ","kana_city":"ﾖｼｶﾜｼ","kana_address":"ﾖｼｶﾜﾀﾞﾝﾁ","pref":"埼玉県","city":"吉川市","address":"吉川団地"},
{"zip_code":"3420013","kana_pref":"ｻｲﾀﾏｹﾝ","kana_city":"ﾖｼｶﾜｼ","kana_address":"ﾖｼﾔ","pref":"埼玉県","city":"吉川市","address":"吉屋"}]}