{"zip_code":[
{"zip_code":"3430000","kana_pref":"ｻｲﾀﾏｹﾝ","kana_city":"ｺｼｶﾞﾔｼ","kana_address":"","pref":"埼玉県","city":"越谷市","address":""},
{"zip_code":"3430807","kana_pref":"ｻｲﾀﾏｹﾝ","kana_city":"ｺｼｶﾞﾔｼ","kana_address":"ｱｶﾔﾏﾁｮｳ","pref":"埼玉県","city":"越谷市","address":"赤山町"},
{"zip_code":"3430808","kana_pref":"ｻｲﾀﾏｹﾝ","kana_city":"ｺｼｶﾞﾔｼ","kana_address":"ｱｶﾔﾏﾎﾝﾁｮｳ","pref":"埼玉県","city":"越谷市","address":"赤山本町"},
{"zip_code":"3430826","kana_pref":"ｻｲﾀﾏｹﾝ","kana_city":"ｺｼｶﾞﾔｼ","kana_address":"ｱｽﾞﾏﾁｮｳ","pref":"埼玉県","city":"越谷市","address":"東町"},
{"zip_code":"3430831","kana_pref":"ｻｲﾀﾏｹﾝ","kana_city":"ｺｼｶﾞﾔｼ","kana_address":"ｲﾊﾗ","pref":"埼玉県","city":"越谷市","address":"伊原"},
{"zip_code":"3430025","kana_pref":"ｻｲﾀﾏｹﾝ","kana_city":"ｺｼｶﾞﾔｼ","kana_address":"ｵｵｻﾜ","pref":"埼玉県","city":"越谷市","address":"大澤"},
{"zip_code":"3430031","kana_pref":"ｻｲﾀﾏｹﾝ","kana_city":"ｺｼｶﾞﾔｼ","kana_address":"ｵｵｻﾞﾄ","pref":"埼玉県","city":"越谷市","address":"大里"},
{"zip_code":"3430005","kana_pref":"ｻｲﾀﾏｹﾝ","kana_city":"ｺｼｶﾞﾔｼ","kana_address":"ｵｵｽｷﾞ","pref":"埼玉県","city":"越谷市","address":"大杉"},
{"zip_code":"3430034","kana_pref":"ｻｲﾀﾏｹﾝ","kana_city":"ｺｼｶﾞﾔｼ","kana_address":"ｵｵﾀｹ","pref":"埼玉県","city":"越谷市","address":"大竹"},
{"zip_code":"3430044","kana_pref":"ｻｲﾀﾏｹﾝ","kana_city":"ｺｼｶﾞﾔｼ","kana_address":"ｵｵﾄﾞﾏﾘ","pref":"埼玉県","city":"越谷市","address":"大泊"},
{"zip_code":"3430021","kana_pref":"ｻｲﾀﾏｹﾝ","kana_city":"ｺｼｶﾞﾔｼ","kana_address":"ｵｵﾊﾞﾔｼ","pref":"埼玉県","city":"越谷市","address":"大林"},
{"zip_code":"3430027","kana_pref":"ｻｲﾀﾏｹﾝ","kana_city":"ｺｼｶﾞﾔｼ","kana_address":"ｵｵﾌｻ","pref":"埼玉県","city":"越谷市","address":"大房"},
{"zip_code":"3430004","kana_pref":"ｻｲﾀﾏｹﾝ","kana_city":"ｺｼｶﾞﾔｼ","kana_address":"ｵｵﾏﾂ","pref":"埼玉県","city":"越谷市","address":"大松"},
{"zip_code":"3430844","kana_pref":"ｻｲﾀﾏｹﾝ","kana_city":"ｺｼｶﾞﾔｼ","kana_address":"ｵｵﾏﾉﾁｮｳ","pref":"埼玉県","city":"越谷市","address":"大間野町"},
{"zip_code":"3430035","kana_pref":"ｻｲﾀﾏｹﾝ","kana_city":"ｺｼｶﾞﾔｼ","kana_address":"ｵｵﾐﾁ","pref":"埼玉県","city":"越谷市","address":"大道"},
{"zip_code":"3430008","kana_pref":"ｻｲﾀﾏｹﾝ","kana_city":"ｺｼｶﾞﾔｼ","kana_address":"ｵｵﾖｼ","pref":"埼玉県","city":"越谷市","address":"大吉"},
{"zip_code":"3430802","kana_pref":"ｻｲﾀﾏｹﾝ","kana_city":"ｺｼｶﾞﾔｼ","kana_address":"ｵｿｶﾞﾜ","pref":"埼玉県","city":"越谷市","address":"小曽川"},
{"zip_code":"3430033","kana_pref":"ｻｲﾀﾏｹﾝ","kana_city":"ｺｼｶﾞﾔｼ","kana_address":"ｵﾝﾏ","pref":"埼玉県","city":"越谷市","address":"恩間"},
{"zip_code":"3430037","kana_pref":"ｻｲﾀﾏｹﾝ","kana_city":"ｺｼｶﾞﾔｼ","kana_address":"ｵﾝﾏｼﾝﾃﾞﾝ","pref":"埼玉県","city":"越谷市","address":"恩間新田"},
{"zip_code":"3430043","kana_pref":"ｻｲﾀﾏｹﾝ","kana_city":"ｺｼｶﾞﾔｼ","kana_address":"ｶﾐﾏｸﾘ","pref":"埼玉県","city":"越谷市","address":"上間久里"},
{"zip_code":"3430838","kana_pref":"ｻｲﾀﾏｹﾝ","kana_city":"ｺｼｶﾞﾔｼ","kana_address":"ｶﾞﾓｳ","pref":"埼玉県","city":"越谷市","address":"蒲生"},
{"zip_code":"3430843","kana_pref":"ｻｲﾀﾏｹﾝ","kana_city":"ｺｼｶﾞﾔｼ","kana_address":"ｶﾞﾓｳｱｶﾈﾁｮｳ","pref":"埼玉県","city":"越谷市","address":"蒲生茜町"},
{"zip_code":"3430842","kana_pref":"ｻｲﾀﾏｹﾝ","kana_city":"ｺｼｶﾞﾔｼ","kana_address":"ｶﾞﾓｳｱｻﾋﾁｮｳ","pref":"埼玉県","city":"越谷市","address":"蒲生旭町"},
{"zip_code":"3430834","kana_pref":"ｻｲﾀﾏｹﾝ","kana_city":"ｺｼｶﾞﾔｼ","kana_address":"ｶﾞﾓｳｱﾀｺﾞﾁｮｳ","pref":"埼玉県","city":"越谷市","address":"蒲生愛宕町"},
{"zip_code":"3430836","kana_pref":"ｻｲﾀﾏｹﾝ","kana_city":"ｺｼｶﾞﾔｼ","kana_address":"ｶﾞﾓｳｺﾄﾌﾞｷﾁｮｳ","pref":"埼玉県","city":"越谷市","address":"蒲生寿町"},
{"zip_code":"3430841","kana_pref":"ｻｲﾀﾏｹﾝ","kana_city":"ｺｼｶﾞﾔｼ","kana_address":"ｶﾞﾓｳﾋｶﾞｼﾁｮｳ","pref":"埼玉県","city":"越谷市","address":"蒲生東町"},
{"zip_code":"3430835","kana_pref":"ｻｲﾀﾏｹﾝ","kana_city":"ｺｼｶﾞﾔｼ","kana_address":"ｶﾞﾓｳﾆｼﾏﾁ","pref":"埼玉県","city":"越谷市","address":"蒲生西町"},
{"zip_code":"3430833","kana_pref":"ｻｲﾀﾏｹﾝ","kana_city":"ｺｼｶﾞﾔｼ","kana_address":"ｶﾞﾓｳﾐﾅﾐﾁｮｳ","pref":"埼玉県","city":"越谷市","address":"蒲生南町"},
{"zip_code":"3430837","kana_pref":"ｻｲﾀﾏｹﾝ","kana_city":"ｺｼｶﾞﾔｼ","kana_address":"ｶﾞﾓｳﾎﾝﾁｮｳ","pref":"埼玉県","city":"越谷市","address":"蒲生本町"},
{"zip_code":"3430827","kana_pref":"ｻｲﾀﾏｹﾝ","kana_city":"ｺｼｶﾞﾔｼ","kana_address":"ｶﾜﾔﾅｷﾞﾁｮｳ","pref":"埼玉県","city":"越谷市","address":"川柳町"},
{"zip_code":"3430821","kana_pref":"ｻｲﾀﾏｹﾝ","kana_city":"ｺｼｶﾞﾔｼ","kana_address":"ｶﾜﾗｿﾞﾈ","pref":"埼玉県","city":"越谷市","address":"瓦曽根"},
{"zip_code":"3430854","kana_pref":"ｻｲﾀﾏｹﾝ","kana_city":"ｺｼｶﾞﾔｼ","kana_address":"ｷﾀｳｼﾛﾔ","pref":"埼玉県","city":"越谷市","address":"北後谷"},
{"zip_code":"3430006","kana_pref":"ｻｲﾀﾏｹﾝ","kana_city":"ｺｼｶﾞﾔｼ","kana_address":"ｷﾀｶﾜｻｷ","pref":"埼玉県","city":"越谷市","address":"北川崎"},
{"zip_code":"3430026","kana_pref":"ｻｲﾀﾏｹﾝ","kana_city":"ｺｼｶﾞﾔｼ","kana_address":"ｷﾀｺｼｶﾞﾔ","pref":"埼玉県","city":"越谷市","address":"北越谷"},
{"zip_code":"3430024","kana_pref":"ｻｲﾀﾏｹﾝ","kana_city":"ｺｼｶﾞﾔｼ","kana_address":"ｺｼｶﾞﾔ","pref":"埼玉県","city":"越谷市","address":"越ケ谷"},
{"zip_code":"3430813","kana_pref":"ｻｲﾀﾏｹﾝ","kana_city":"ｺｼｶﾞﾔｼ","kana_address":"ｺｼｶﾞﾔ","pref":"埼玉県","city":"越谷市","address":"越ケ谷"},
{"zip_code":"3430818","kana_pref":"ｻｲﾀﾏｹﾝ","kana_city":"ｺｼｶﾞﾔｼ","kana_address":"ｺｼｶﾞﾔﾎﾝﾁｮｳ","pref":"埼玉県","city":"越谷市","address":"越ケ谷本町"},
{"zip_code":"3430811","kana_pref":"ｻｲﾀﾏｹﾝ","kana_city":"ｺｼｶﾞﾔｼ","kana_address":"ｺﾞﾃﾝﾁｮｳ","pref":"埼玉県","city":"越谷市","address":"御殿町"},
{"zip_code":"3430823","kana_pref":"ｻｲﾀﾏｹﾝ","kana_city":"ｺｼｶﾞﾔｼ","kana_address":"ｻｶﾞﾐﾁｮｳ","pref":"埼玉県","city":"越谷市","address":"相模町"},
{"zip_code":"3430036","kana_pref":"ｻｲﾀﾏｹﾝ","kana_city":"ｺｼｶﾞﾔｼ","kana_address":"ｻﾝﾉﾐﾔ","pref":"埼玉県","city":"越谷市","address":"三野宮"},
{"zip_code":"3430851","kana_pref":"ｻｲﾀﾏｹﾝ","kana_city":"ｺｼｶﾞﾔｼ","kana_address":"ｼﾁｻﾞﾁｮｳ","pref":"埼玉県","city":"越谷市","address":"七左町"},
{"zip_code":"3430045","kana_pref":"ｻｲﾀﾏｹﾝ","kana_city":"ｺｼｶﾞﾔｼ","kana_address":"ｼﾓﾏｸﾘ","pref":"埼玉県","city":"越谷市","address":"下間久里"},
{"zip_code":"3430852","kana_pref":"ｻｲﾀﾏｹﾝ","kana_city":"ｺｼｶﾞﾔｼ","kana_address":"ｼﾝｶﾜﾁｮｳ","pref":"埼玉県","city":"越谷市","address":"新川町"},
{"zip_code":"3430805","kana_pref":"ｻｲﾀﾏｹﾝ","kana_city":"ｺｼｶﾞﾔｼ","kana_address":"ｼﾝﾒｲﾁｮｳ","pref":"埼玉県","city":"越谷市","address":"神明町"},
{"zip_code":"3430803","kana_pref":"ｻｲﾀﾏｹﾝ","kana_city":"ｺｼｶﾞﾔｼ","kana_address":"ｽﾅﾊﾗ","pref":"埼玉県","city":"越谷市","address":"砂原"},
{"zip_code":"3430042","kana_pref":"ｻｲﾀﾏｹﾝ","kana_city":"ｺｼｶﾞﾔｼ","kana_address":"ｾﾝｹﾞﾝﾀﾞｲﾋｶﾞｼ","pref":"埼玉県","city":"越谷市","address":"千間台東"},
{"zip_code":"3430041","kana_pref":"ｻｲﾀﾏｹﾝ","kana_city":"ｺｼｶﾞﾔｼ","kana_address":"ｾﾝｹﾞﾝﾀﾞｲﾆｼ","pref":"埼玉県","city":"越谷市","address":"千間台西"},
{"zip_code":"3430825","kana_pref":"ｻｲﾀﾏｹﾝ","kana_city":"ｺｼｶﾞﾔｼ","kana_address":"ﾀｲｾｲﾁｮｳ","pref":"埼玉県","city":"越谷市","address":"大成町"},
{"zip_code":"3430013","kana_pref":"ｻｲﾀﾏｹﾝ","kana_city":"ｺｼｶﾞﾔｼ","kana_address":"ﾅｶｼﾞﾏ","pref":"埼玉県","city":"越谷市","address":"中島"},
{"zip_code":"3430817","kana_pref":"ｻｲﾀﾏｹﾝ","kana_city":"ｺｼｶﾞﾔｼ","kana_address":"ﾅｶﾏﾁ","pref":"埼玉県","city":"越谷市","address":"中町"},
{"zip_code":"3430853","kana_pref":"ｻｲﾀﾏｹﾝ","kana_city":"ｺｼｶﾞﾔｼ","kana_address":"ﾅｶﾞｼﾏ","pref":"埼玉県","city":"越谷市","address":"長島"},
{"zip_code":"3430855","kana_pref":"ｻｲﾀﾏｹﾝ","kana_city":"ｺｼｶﾞﾔｼ","kana_address":"ﾆｼｱﾗｲ","pref":"埼玉県","city":"越谷市","address":"西新井"},
{"zip_code":"3430822","kana_pref":"ｻｲﾀﾏｹﾝ","kana_city":"ｺｼｶﾞﾔｼ","kana_address":"ﾆｼｶﾀ","pref":"埼玉県","city":"越谷市","address":"西方"},
{"zip_code":"3430801","kana_pref":"ｻｲﾀﾏｹﾝ","kana_city":"ｺｼｶﾞﾔｼ","kana_address":"ﾉｼﾞﾏ","pref":"埼玉県","city":"越谷市","address":"野島"},
{"zip_code":"3430846","kana_pref":"ｻｲﾀﾏｹﾝ","kana_city":"ｺｼｶﾞﾔｼ","kana_address":"ﾉﾎﾞﾘﾄﾁｮｳ","pref":"埼玉県","city":"越谷市","address":"登戸町"},
{"zip_code":"3430015","kana_pref":"ｻｲﾀﾏｹﾝ","kana_city":"ｺｼｶﾞﾔｼ","kana_address":"ﾊﾅﾀ","pref":"埼玉県","city":"越谷市","address":"花田"},
{"zip_code":"3430022","kana_pref":"ｻｲﾀﾏｹﾝ","kana_city":"ｺｼｶﾞﾔｼ","kana_address":"ﾋｶﾞｼｵｵｻﾜ","pref":"埼玉県","city":"越谷市","address":"東大沢"},
{"zip_code":"3430023","kana_pref":"ｻｲﾀﾏｹﾝ","kana_city":"ｺｼｶﾞﾔｼ","kana_address":"ﾋｶﾞｼｺｼｶﾞﾔ","pref":"埼玉県","city":"越谷市","address":"東越谷"},
{"zip_code":"3430814","kana_pref":"ｻｲﾀﾏｹﾝ","kana_city":"ｺｼｶﾞﾔｼ","kana_address":"ﾋｶﾞｼﾔﾅｷﾞﾀﾞﾁｮｳ","pref":"埼玉県","city":"越谷市","address":"東柳田町"},
{"zip_code":"3430002","kana_pref":"ｻｲﾀﾏｹﾝ","kana_city":"ｺｼｶﾞﾔｼ","kana_address":"ﾋﾗｶﾀ","pref":"埼玉県","city":"越谷市","address":"平方"},
{"zip_code":"3430001","kana_pref":"ｻｲﾀﾏｹﾝ","kana_city":"ｺｼｶﾞﾔｼ","kana_address":"ﾋﾗｶﾀﾐﾅﾐﾁｮｳ","pref":"埼玉県","city":"越谷市","address":"平方南町"},
{"zip_code":"3430032","kana_pref":"ｻｲﾀﾏｹﾝ","kana_city":"ｺｼｶﾞﾔｼ","kana_address":"ﾌｸﾛﾔﾏ","pref":"埼玉県","city":"越谷市","address":"袋山"},
{"zip_code":"3430003","kana_pref":"ｻｲﾀﾏｹﾝ","kana_city":"ｺｼｶﾞﾔｼ","kana_address":"ﾌﾅﾄ","pref":"埼玉県","city":"越谷市","address":"船渡"},
{"zip_code":"3430011","kana_pref":"ｻｲﾀﾏｹﾝ","kana_city":"ｺｼｶﾞﾔｼ","kana_address":"ﾏｼﾊﾞﾔｼ","pref":"埼玉県","city":"越谷市","address":"増林"},
{"zip_code":"3430012","kana_pref":"ｻｲﾀﾏｹﾝ","kana_city":"ｺｼｶﾞﾔｼ","kana_address":"ﾏｼﾓﾘ","pref":"埼玉県","city":"越谷市","address":"増森"},
{"zip_code":"3430804","kana_pref":"ｻｲﾀﾏｹﾝ","kana_city":"ｺｼｶﾞﾔｼ","kana_address":"ﾐﾅﾐｵｷﾞｼﾏ","pref":"埼玉県","city":"越谷市","address":"南荻島"},
{"zip_code":"3430845","kana_pref":"ｻｲﾀﾏｹﾝ","kana_city":"ｺｼｶﾞﾔｼ","kana_address":"ﾐﾅﾐｺｼｶﾞﾔ","pref":"埼玉県","city":"越谷市","address":"南越谷"},
{"zip_code":"3430832","kana_pref":"ｻｲﾀﾏｹﾝ","kana_city":"ｺｼｶﾞﾔｼ","kana_address":"ﾐﾅﾐﾁｮｳ","pref":"埼玉県","city":"越谷市","address":"南町"},
{"zip_code":"3430014","kana_pref":"ｻｲﾀﾏｹﾝ","kana_city":"ｺｼｶﾞﾔｼ","kana_address":"ﾐﾔﾏｴ","pref":"埼玉県","city":"越谷市","address":"宮前"},
{"zip_code":"3430806","kana_pref":"ｻｲﾀﾏｹﾝ","kana_city":"ｺｼｶﾞﾔｼ","kana_address":"ﾐﾔﾓﾄﾁｮｳ","pref":"埼玉県","city":"越谷市","address":"宮本町"},
{"zip_code":"3430007","kana_pref":"ｻｲﾀﾏｹﾝ","kana_city":"ｺｼｶﾞﾔｼ","kana_address":"ﾑｺｳﾊﾞﾀｹ","pref":"埼玉県","city":"越谷市","address":"向畑"},
{"zip_code":"3430815","kana_pref":"ｻｲﾀﾏｹﾝ","kana_city":"ｺｼｶﾞﾔｼ","kana_address":"ﾓﾄﾔﾅｷﾞﾀﾞﾁｮｳ","pref":"埼玉県","city":"越谷市","address":"元柳田町"},
{"zip_code":"3430046","kana_pref":"ｻｲﾀﾏｹﾝ","kana_city":"ｺｼｶﾞﾔｼ","kana_address":"ﾔｻｶﾁｮｳ","pref":"埼玉県","city":"越谷市","address":"弥栄町"},
{"zip_code":"3430047","kana_pref":"ｻｲﾀﾏｹﾝ","kana_city":"ｺｼｶﾞﾔｼ","kana_address":"ﾔｼﾞｭｳﾛｳ","pref":"埼玉県","city":"越谷市","address":"弥十郎"},
{"zip_code":"3430856","kana_pref":"ｻｲﾀﾏｹﾝ","kana_city":"ｺｼｶﾞﾔｼ","kana_address":"ﾔﾅｶﾁｮｳ","pref":"埼玉県","city":"越谷市","address":"谷中町"},
{"zip_code":"3430812","kana_pref":"ｻｲﾀﾏｹﾝ","kana_city":"ｺｼｶﾞﾔｼ","kana_address":"ﾔﾅｷﾞﾁｮｳ","pref":"埼玉県","city":"越谷市","address":"柳町"},
{"zip_code":"3430816","kana_pref":"ｻｲﾀﾏｹﾝ","kana_city":"ｺｼｶﾞﾔｼ","kana_address":"ﾔﾖｲﾁｮｳ","pref":"埼玉県","city":"越谷市","address":"弥生町"},
{"zip_code":"3430824","kana_pref":"ｻｲﾀﾏｹﾝ","kana_city":"ｺｼｶﾞﾔｼ","kana_address":"ﾘｭｳﾂｳﾀﾞﾝﾁ","pref":"埼玉県","city":"越谷市","address":"流通団地"},
{"zip_code":"3430100","kana_pref":"ｻｲﾀﾏｹﾝ","kana_city":"ｷﾀｶﾂｼｶｸﾞﾝﾏﾂﾌﾞｼﾏﾁ","kana_address":"","pref":"埼玉県","city":"北葛飾郡松伏町","address":""},
{"zip_code":"3430101","kana_pref":"ｻｲﾀﾏｹﾝ","kana_city":"ｷﾀｶﾂｼｶｸﾞﾝﾏﾂﾌﾞｼﾏﾁ","kana_address":"ｳｵﾇﾏ","pref":"埼玉県","city":"北葛飾郡松伏町","address":"魚沼"},
{"zip_code":"3430106","kana_pref":"ｻｲﾀﾏｹﾝ","kana_city":"ｷﾀｶﾂｼｶｸﾞﾝﾏﾂﾌﾞｼﾏﾁ","kana_address":"ｵｵｶﾜﾄﾞ","pref":"埼玉県","city":"北葛飾郡松伏町","address":"大川戸"},
{"zip_code":"3430103","kana_pref":"ｻｲﾀﾏｹﾝ","kana_city":"ｷﾀｶﾂｼｶｸﾞﾝﾏﾂﾌﾞｼﾏﾁ","kana_address":"ｶﾅｽｷﾞ","pref":"埼玉県","city":"北葛飾郡松伏町","address":"金杉"},
{"zip_code":"3430115","kana_pref":"ｻｲﾀﾏｹﾝ","kana_city":"ｷﾀｶﾂｼｶｸﾞﾝﾏﾂﾌﾞｼﾏﾁ","kana_address":"ｶﾐｱｶｲﾜ","pref":"埼玉県","city":"北葛飾郡松伏町","address":"上赤岩"},
{"zip_code":"3430116","kana_pref":"ｻｲﾀﾏｹﾝ","kana_city":"ｷﾀｶﾂｼｶｸﾞﾝﾏﾂﾌﾞｼﾏﾁ","kana_address":"ｼﾓｱｶｲﾜ","pref":"埼玉県","city":"北葛飾郡松伏町","address":"下赤岩"},
{"zip_code":"3430105","kana_pref":"ｻｲﾀﾏｹﾝ","kana_city":"ｷﾀｶﾂｼｶｸﾞﾝﾏﾂﾌﾞｼﾏﾁ","kana_address":"ﾀｼﾞﾏ","pref":"埼玉県","city":"北葛飾郡松伏町","address":"田島"},
{"zip_code":"3430104","kana_pref":"ｻｲﾀﾏｹﾝ","kana_city":"ｷﾀｶﾂｼｶｸﾞﾝﾏﾂﾌﾞｼﾏﾁ","kana_address":"ﾀｼﾞﾏﾋｶﾞｼ","pref":"埼玉県","city":"北葛飾郡松伏町","address":"田島東"},
{"zip_code":"3430117","kana_pref":"ｻｲﾀﾏｹﾝ","kana_city":"ｷﾀｶﾂｼｶｸﾞﾝﾏﾂﾌﾞｼﾏﾁ","kana_address":"ﾀﾅｶ","pref":"埼玉県","city":"北葛飾郡松伏町","address":"田中"},
{"zip_code":"3430102","kana_pref":"ｻｲﾀﾏｹﾝ","kana_city":"ｷﾀｶﾂｼｶｸﾞﾝﾏﾂﾌﾞｼﾏﾁ","kana_address":"ﾂｷﾋｼﾞ","pref":"埼玉県","city":"北葛飾郡松伏町","address":"築比地"},
{"zip_code":"3430112","kana_pref":"ｻｲﾀﾏｹﾝ","kana_city":"ｷﾀｶﾂｼｶｸﾞﾝﾏﾂﾌﾞｼﾏﾁ","kana_address":"ﾏﾂﾊﾞ","pref":"埼玉県","city":"北葛飾郡松伏町","address":"松葉"},
{"zip_code":"3430111","kana_pref":"ｻｲﾀﾏｹﾝ","kana_city":"ｷﾀｶﾂｼｶｸﾞﾝﾏﾂﾌﾞｼﾏﾁ","kana_address":"ﾏﾂﾌﾞｼ","pref":"埼玉県","city":"北葛飾郡松伏町","address":"松伏"},
{"zip_code":"3430113","kana_pref":"ｻｲﾀﾏｹﾝ","kana_city":"ｷﾀｶﾂｼｶｸﾞﾝﾏﾂﾌﾞｼﾏﾁ","kana_address":"ﾕﾒﾐﾉ","pref":"埼玉県","city":"北葛飾郡松伏町","address":"ゆめみ野"},
{"zip_code":"3430114","kana_pref":"ｻｲﾀﾏｹﾝ","kana_city":"ｷﾀｶﾂｼｶｸﾞﾝﾏﾂﾌﾞｼﾏﾁ","kana_address":"ﾕﾒﾐﾉﾋｶﾞｼ","pref":"埼玉県","city":"北葛飾郡松伏町","address":"ゆめみ野東"}]}