{"zip_code":[
{"zip_code":"3440000","kana_pref":"ｻｲﾀﾏｹﾝ","kana_city":"ｶｽｶﾍﾞｼ","kana_address":"","pref":"埼玉県","city":"春日部市","address":""},
{"zip_code":"3440126","kana_pref":"ｻｲﾀﾏｹﾝ","kana_city":"ｶｽｶﾍﾞｼ","kana_address":"ｱｶｻｷ","pref":"埼玉県","city":"春日部市","address":"赤崎"},
{"zip_code":"3440015","kana_pref":"ｻｲﾀﾏｹﾝ","kana_city":"ｶｽｶﾍﾞｼ","kana_address":"ｱｶﾇﾏ","pref":"埼玉県","city":"春日部市","address":"赤沼"},
{"zip_code":"3440125","kana_pref":"ｻｲﾀﾏｹﾝ","kana_city":"ｶｽｶﾍﾞｼ","kana_address":"ｲｲﾇﾏ","pref":"埼玉県","city":"春日部市","address":"飯沼"},
{"zip_code":"3440031","kana_pref":"ｻｲﾀﾏｹﾝ","kana_city":"ｶｽｶﾍﾞｼ","kana_address":"ｲﾁﾉﾜﾘ","pref":"埼玉県","city":"春日部市","address":"一ノ割"},
{"zip_code":"3440004","kana_pref":"ｻｲﾀﾏｹﾝ","kana_city":"ｶｽｶﾍﾞｼ","kana_address":"ｳｼｼﾞﾏ","pref":"埼玉県","city":"春日部市","address":"牛島"},
{"zip_code":"3440051","kana_pref":"ｻｲﾀﾏｹﾝ","kana_city":"ｶｽｶﾍﾞｼ","kana_address":"ｳﾁﾏｷ","pref":"埼玉県","city":"春日部市","address":"内牧"},
{"zip_code":"3440052","kana_pref":"ｻｲﾀﾏｹﾝ","kana_city":"ｶｽｶﾍﾞｼ","kana_address":"ｳﾒﾀﾞ","pref":"埼玉県","city":"春日部市","address":"梅田"},
{"zip_code":"3440053","kana_pref":"ｻｲﾀﾏｹﾝ","kana_city":"ｶｽｶﾍﾞｼ","kana_address":"ｳﾒﾀﾞﾎﾝﾁｮｳ","pref":"埼玉県","city":"春日部市","address":"梅田本町"},
{"zip_code":"3440135","kana_pref":"ｻｲﾀﾏｹﾝ","kana_city":"ｶｽｶﾍﾞｼ","kana_address":"ｴﾉｷ","pref":"埼玉県","city":"春日部市","address":"榎"},
{"zip_code":"3440023","kana_pref":"ｻｲﾀﾏｹﾝ","kana_city":"ｶｽｶﾍﾞｼ","kana_address":"ｵｵｴﾀﾞ","pref":"埼玉県","city":"春日部市","address":"大枝"},
{"zip_code":"3440038","kana_pref":"ｻｲﾀﾏｹﾝ","kana_city":"ｶｽｶﾍﾞｼ","kana_address":"ｵｵﾇﾏ","pref":"埼玉県","city":"春日部市","address":"大沼"},
{"zip_code":"3440022","kana_pref":"ｻｲﾀﾏｹﾝ","kana_city":"ｶｽｶﾍﾞｼ","kana_address":"ｵｵﾊﾀ","pref":"埼玉県","city":"春日部市","address":"大畑"},
{"zip_code":"3440021","kana_pref":"ｻｲﾀﾏｹﾝ","kana_city":"ｶｽｶﾍﾞｼ","kana_address":"ｵｵﾊﾞ","pref":"埼玉県","city":"春日部市","address":"大場"},
{"zip_code":"3440116","kana_pref":"ｻｲﾀﾏｹﾝ","kana_city":"ｶｽｶﾍﾞｼ","kana_address":"ｵｵﾌﾞｽﾏ","pref":"埼玉県","city":"春日部市","address":"大衾"},
{"zip_code":"3440061","kana_pref":"ｻｲﾀﾏｹﾝ","kana_city":"ｶｽｶﾍﾞｼ","kana_address":"ｶｽｶﾍﾞ","pref":"埼玉県","city":"春日部市","address":"粕壁"},
{"zip_code":"3440062","kana_pref":"ｻｲﾀﾏｹﾝ","kana_city":"ｶｽｶﾍﾞｼ","kana_address":"ｶｽｶﾍﾞﾋｶﾞｼ","pref":"埼玉県","city":"春日部市","address":"粕壁東"},
{"zip_code":"3440117","kana_pref":"ｻｲﾀﾏｹﾝ","kana_city":"ｶｽｶﾍﾞｼ","kana_address":"ｶﾅｻｷ","pref":"埼玉県","city":"春日部市","address":"金崎"},
{"zip_code":"3440037","kana_pref":"ｻｲﾀﾏｹﾝ","kana_city":"ｶｽｶﾍﾞｼ","kana_address":"ｶﾐｵｵﾏｼｼﾝﾃﾞﾝ","pref":"埼玉県","city":"春日部市","address":"上大増新田"},
{"zip_code":"3440111","kana_pref":"ｻｲﾀﾏｹﾝ","kana_city":"ｶｽｶﾍﾞｼ","kana_address":"ｶﾐｶﾅｻｷ","pref":"埼玉県","city":"春日部市","address":"上金崎"},
{"zip_code":"3440103","kana_pref":"ｻｲﾀﾏｹﾝ","kana_city":"ｶｽｶﾍﾞｼ","kana_address":"ｶﾐｷﾂﾏ","pref":"埼玉県","city":"春日部市","address":"上吉妻"},
{"zip_code":"3440046","kana_pref":"ｻｲﾀﾏｹﾝ","kana_city":"ｶｽｶﾍﾞｼ","kana_address":"ｶﾐﾋﾙﾀﾞ","pref":"埼玉県","city":"春日部市","address":"上蛭田"},
{"zip_code":"3440121","kana_pref":"ｻｲﾀﾏｹﾝ","kana_city":"ｶｽｶﾍﾞｼ","kana_address":"ｶﾐﾔﾅｷﾞ","pref":"埼玉県","city":"春日部市","address":"上柳"},
{"zip_code":"3440132","kana_pref":"ｻｲﾀﾏｹﾝ","kana_city":"ｶｽｶﾍﾞｼ","kana_address":"ｶﾝﾏ","pref":"埼玉県","city":"春日部市","address":"神間"},
{"zip_code":"3440106","kana_pref":"ｻｲﾀﾏｹﾝ","kana_city":"ｶｽｶﾍﾞｼ","kana_address":"ｷｻｷ","pref":"埼玉県","city":"春日部市","address":"木崎"},
{"zip_code":"3440133","kana_pref":"ｻｲﾀﾏｹﾝ","kana_city":"ｶｽｶﾍﾞｼ","kana_address":"ｸﾇｷﾞ","pref":"埼玉県","city":"春日部市","address":"椚"},
{"zip_code":"3440136","kana_pref":"ｻｲﾀﾏｹﾝ","kana_city":"ｶｽｶﾍﾞｼ","kana_address":"ｸﾗﾂﾈ","pref":"埼玉県","city":"春日部市","address":"倉常"},
{"zip_code":"3440105","kana_pref":"ｻｲﾀﾏｹﾝ","kana_city":"ｶｽｶﾍﾞｼ","kana_address":"ｺﾀﾞｲﾗ","pref":"埼玉県","city":"春日部市","address":"小平"},
{"zip_code":"3440007","kana_pref":"ｻｲﾀﾏｹﾝ","kana_city":"ｶｽｶﾍﾞｼ","kana_address":"ｺﾌﾞﾁ","pref":"埼玉県","city":"春日部市","address":"小渕"},
{"zip_code":"3440124","kana_pref":"ｻｲﾀﾏｹﾝ","kana_city":"ｶｽｶﾍﾞｼ","kana_address":"ｺﾒｻｷ","pref":"埼玉県","city":"春日部市","address":"米崎"},
{"zip_code":"3440115","kana_pref":"ｻｲﾀﾏｹﾝ","kana_city":"ｶｽｶﾍﾞｼ","kana_address":"ｺﾒｼﾞﾏ","pref":"埼玉県","city":"春日部市","address":"米島"},
{"zip_code":"3440058","kana_pref":"ｻｲﾀﾏｹﾝ","kana_city":"ｶｽｶﾍﾞｼ","kana_address":"ｻｶｴﾁｮｳ","pref":"埼玉県","city":"春日部市","address":"栄町"},
{"zip_code":"3440036","kana_pref":"ｻｲﾀﾏｹﾝ","kana_city":"ｶｽｶﾍﾞｼ","kana_address":"ｼﾓｵｵﾏｼｼﾝﾃﾞﾝ","pref":"埼玉県","city":"春日部市","address":"下大増新田"},
{"zip_code":"3440104","kana_pref":"ｻｲﾀﾏｹﾝ","kana_city":"ｶｽｶﾍﾞｼ","kana_address":"ｼﾓｷﾂﾏ","pref":"埼玉県","city":"春日部市","address":"下吉妻"},
{"zip_code":"3440043","kana_pref":"ｻｲﾀﾏｹﾝ","kana_city":"ｶｽｶﾍﾞｼ","kana_address":"ｼﾓﾋﾙﾀﾞ","pref":"埼玉県","city":"春日部市","address":"下蛭田"},
{"zip_code":"3440122","kana_pref":"ｻｲﾀﾏｹﾝ","kana_city":"ｶｽｶﾍﾞｼ","kana_address":"ｼﾓﾔﾅｷﾞ","pref":"埼玉県","city":"春日部市","address":"下柳"},
{"zip_code":"3440003","kana_pref":"ｻｲﾀﾏｹﾝ","kana_city":"ｶｽｶﾍﾞｼ","kana_address":"ｼﾝｶﾜ","pref":"埼玉県","city":"春日部市","address":"新川"},
{"zip_code":"3440113","kana_pref":"ｻｲﾀﾏｹﾝ","kana_city":"ｶｽｶﾍﾞｼ","kana_address":"ｼﾝｼｭｸｼﾝﾃﾞﾝ","pref":"埼玉県","city":"春日部市","address":"新宿新田"},
{"zip_code":"3440127","kana_pref":"ｻｲﾀﾏｹﾝ","kana_city":"ｶｽｶﾍﾞｼ","kana_address":"ｽｲｶｸ","pref":"埼玉県","city":"春日部市","address":"水角"},
{"zip_code":"3440034","kana_pref":"ｻｲﾀﾏｹﾝ","kana_city":"ｶｽｶﾍﾞｼ","kana_address":"ｽｽｷﾔ","pref":"埼玉県","city":"春日部市","address":"薄谷"},
{"zip_code":"3440024","kana_pref":"ｻｲﾀﾏｹﾝ","kana_city":"ｶｽｶﾍﾞｼ","kana_address":"ｾﾝｹﾞﾝ","pref":"埼玉県","city":"春日部市","address":"千間"},
{"zip_code":"3440026","kana_pref":"ｻｲﾀﾏｹﾝ","kana_city":"ｶｽｶﾍﾞｼ","kana_address":"ﾀｹｻﾄﾅｶﾉ","pref":"埼玉県","city":"春日部市","address":"武里中野"},
{"zip_code":"3440134","kana_pref":"ｻｲﾀﾏｹﾝ","kana_city":"ｶｽｶﾍﾞｼ","kana_address":"ﾀﾃﾉ","pref":"埼玉県","city":"春日部市","address":"立野"},
{"zip_code":"3440067","kana_pref":"ｻｲﾀﾏｹﾝ","kana_city":"ｶｽｶﾍﾞｼ","kana_address":"ﾁｭｳｵｳ","pref":"埼玉県","city":"春日部市","address":"中央"},
{"zip_code":"3440013","kana_pref":"ｻｲﾀﾏｹﾝ","kana_city":"ｶｽｶﾍﾞｼ","kana_address":"ﾁｮｳｼｸﾞﾁ","pref":"埼玉県","city":"春日部市","address":"銚子口"},
{"zip_code":"3440107","kana_pref":"ｻｲﾀﾏｹﾝ","kana_city":"ｶｽｶﾍﾞｼ","kana_address":"ﾂｶｻｷ","pref":"埼玉県","city":"春日部市","address":"塚崎"},
{"zip_code":"3440045","kana_pref":"ｻｲﾀﾏｹﾝ","kana_city":"ｶｽｶﾍﾞｼ","kana_address":"ﾄﾞｳｸﾞﾁﾋﾙﾀﾞ","pref":"埼玉県","city":"春日部市","address":"道口蛭田"},
{"zip_code":"3440047","kana_pref":"ｻｲﾀﾏｹﾝ","kana_city":"ｶｽｶﾍﾞｼ","kana_address":"ﾄﾞｳｼﾞｭﾝｶﾜﾄﾞ","pref":"埼玉県","city":"春日部市","address":"道順川戸"},
{"zip_code":"3440014","kana_pref":"ｻｲﾀﾏｹﾝ","kana_city":"ｶｽｶﾍﾞｼ","kana_address":"ﾄﾖﾉﾁｮｳ","pref":"埼玉県","city":"春日部市","address":"豊野町"},
{"zip_code":"3440123","kana_pref":"ｻｲﾀﾏｹﾝ","kana_city":"ｶｽｶﾍﾞｼ","kana_address":"ﾅｶﾞﾇﾏ","pref":"埼玉県","city":"春日部市","address":"永沼"},
{"zip_code":"3440056","kana_pref":"ｻｲﾀﾏｹﾝ","kana_city":"ｶｽｶﾍﾞｼ","kana_address":"ﾆｲｶﾞﾀﾌｸﾛ","pref":"埼玉県","city":"春日部市","address":"新方袋"},
{"zip_code":"3440101","kana_pref":"ｻｲﾀﾏｹﾝ","kana_city":"ｶｽｶﾍﾞｼ","kana_address":"ﾆｼｵﾔﾉｲ","pref":"埼玉県","city":"春日部市","address":"西親野井"},
{"zip_code":"3440112","kana_pref":"ｻｲﾀﾏｹﾝ","kana_city":"ｶｽｶﾍﾞｼ","kana_address":"ﾆｼｶﾅﾉｲ","pref":"埼玉県","city":"春日部市","address":"西金野井"},
{"zip_code":"3440059","kana_pref":"ｻｲﾀﾏｹﾝ","kana_city":"ｶｽｶﾍﾞｼ","kana_address":"ﾆｼﾔｷﾞｻｷ","pref":"埼玉県","city":"春日部市","address":"西八木崎"},
{"zip_code":"3440102","kana_pref":"ｻｲﾀﾏｹﾝ","kana_city":"ｶｽｶﾍﾞｼ","kana_address":"ﾆｼﾎｳｼｭﾊﾞﾅ","pref":"埼玉県","city":"春日部市","address":"西宝珠花"},
{"zip_code":"3440006","kana_pref":"ｻｲﾀﾏｹﾝ","kana_city":"ｶｽｶﾍﾞｼ","kana_address":"ﾊｯﾁｮｳﾒ","pref":"埼玉県","city":"春日部市","address":"八丁目"},
{"zip_code":"3440044","kana_pref":"ｻｲﾀﾏｹﾝ","kana_city":"ｶｽｶﾍﾞｼ","kana_address":"ﾊﾅﾂﾞﾐ","pref":"埼玉県","city":"春日部市","address":"花積"},
{"zip_code":"3440054","kana_pref":"ｻｲﾀﾏｹﾝ","kana_city":"ｶｽｶﾍﾞｼ","kana_address":"ﾊﾏｶﾜﾄﾞ","pref":"埼玉県","city":"春日部市","address":"浜川戸"},
{"zip_code":"3440114","kana_pref":"ｻｲﾀﾏｹﾝ","kana_city":"ｶｽｶﾍﾞｼ","kana_address":"ﾋｶﾞｼﾅｶﾉ","pref":"埼玉県","city":"春日部市","address":"東中野"},
{"zip_code":"3440005","kana_pref":"ｻｲﾀﾏｹﾝ","kana_city":"ｶｽｶﾍﾞｼ","kana_address":"ﾋﾎﾞﾘ","pref":"埼玉県","city":"春日部市","address":"樋堀"},
{"zip_code":"3440002","kana_pref":"ｻｲﾀﾏｹﾝ","kana_city":"ｶｽｶﾍﾞｼ","kana_address":"ﾋﾛｳ","pref":"埼玉県","city":"春日部市","address":"樋籠"},
{"zip_code":"3440032","kana_pref":"ｻｲﾀﾏｹﾝ","kana_city":"ｶｽｶﾍﾞｼ","kana_address":"ﾋﾞﾝｺﾞﾋｶﾞｼ","pref":"埼玉県","city":"春日部市","address":"備後東"},
{"zip_code":"3440033","kana_pref":"ｻｲﾀﾏｹﾝ","kana_city":"ｶｽｶﾍﾞｼ","kana_address":"ﾋﾞﾝｺﾞﾆｼ","pref":"埼玉県","city":"春日部市","address":"備後西"},
{"zip_code":"3440011","kana_pref":"ｻｲﾀﾏｹﾝ","kana_city":"ｶｽｶﾍﾞｼ","kana_address":"ﾌｼﾞﾂｶ","pref":"埼玉県","city":"春日部市","address":"藤塚"},
{"zip_code":"3440001","kana_pref":"ｻｲﾀﾏｹﾝ","kana_city":"ｶｽｶﾍﾞｼ","kana_address":"ﾌﾄﾞｳｲﾝﾉ","pref":"埼玉県","city":"春日部市","address":"不動院野"},
{"zip_code":"3440016","kana_pref":"ｻｲﾀﾏｹﾝ","kana_city":"ｶｽｶﾍﾞｼ","kana_address":"ﾎﾝﾃﾞﾝﾁｮｳ","pref":"埼玉県","city":"春日部市","address":"本田町"},
{"zip_code":"3440042","kana_pref":"ｻｲﾀﾏｹﾝ","kana_city":"ｶｽｶﾍﾞｼ","kana_address":"ﾏｼﾄ","pref":"埼玉県","city":"春日部市","address":"増戸"},
{"zip_code":"3440041","kana_pref":"ｻｲﾀﾏｹﾝ","kana_city":"ｶｽｶﾍﾞｼ","kana_address":"ﾏｼﾄﾐ","pref":"埼玉県","city":"春日部市","address":"増富"},
{"zip_code":"3440025","kana_pref":"ｻｲﾀﾏｹﾝ","kana_city":"ｶｽｶﾍﾞｼ","kana_address":"ﾏｽﾀﾞｼﾝﾃﾞﾝ","pref":"埼玉県","city":"春日部市","address":"増田新田"},
{"zip_code":"3440063","kana_pref":"ｻｲﾀﾏｹﾝ","kana_city":"ｶｽｶﾍﾞｼ","kana_address":"ﾐﾄﾞﾘﾁｮｳ","pref":"埼玉県","city":"春日部市","address":"緑町"},
{"zip_code":"3440064","kana_pref":"ｻｲﾀﾏｹﾝ","kana_city":"ｶｽｶﾍﾞｼ","kana_address":"ﾐﾅﾐ","pref":"埼玉県","city":"春日部市","address":"南"},
{"zip_code":"3440057","kana_pref":"ｻｲﾀﾏｹﾝ","kana_city":"ｶｽｶﾍﾞｼ","kana_address":"ﾐﾅﾐｻｶｴﾁｮｳ","pref":"埼玉県","city":"春日部市","address":"南栄町"},
{"zip_code":"3440048","kana_pref":"ｻｲﾀﾏｹﾝ","kana_city":"ｶｽｶﾍﾞｼ","kana_address":"ﾐﾅﾐﾅｶｿﾞﾈ","pref":"埼玉県","city":"春日部市","address":"南中曽根"},
{"zip_code":"3440055","kana_pref":"ｻｲﾀﾏｹﾝ","kana_city":"ｶｽｶﾍﾞｼ","kana_address":"ﾔｷﾞｻｷﾁｮｳ","pref":"埼玉県","city":"春日部市","address":"八木崎町"},
{"zip_code":"3440065","kana_pref":"ｻｲﾀﾏｹﾝ","kana_city":"ｶｽｶﾍﾞｼ","kana_address":"ﾔﾊﾗ","pref":"埼玉県","city":"春日部市","address":"谷原"},
{"zip_code":"3440035","kana_pref":"ｻｲﾀﾏｹﾝ","kana_city":"ｶｽｶﾍﾞｼ","kana_address":"ﾔﾊﾗｼﾝﾃﾞﾝ","pref":"埼玉県","city":"春日部市","address":"谷原新田"},
{"zip_code":"3440066","kana_pref":"ｻｲﾀﾏｹﾝ","kana_city":"ｶｽｶﾍﾞｼ","kana_address":"ﾕﾀｶﾁｮｳ","pref":"埼玉県","city":"春日部市","address":"豊町"},
{"zip_code":"3440131","kana_pref":"ｻｲﾀﾏｹﾝ","kana_city":"ｶｽｶﾍﾞｼ","kana_address":"ﾖｼﾊｼ","pref":"埼玉県","city":"春日部市","address":"芦橋"},
{"zip_code":"3440012","kana_pref":"ｻｲﾀﾏｹﾝ","kana_city":"ｶｽｶﾍﾞｼ","kana_address":"ﾛｯｹﾝﾁｮｳ","pref":"埼玉県","city":"春日部市","address":"六軒町"}]}