{"zip_code":[
{"zip_code":"3450000","kana_pref":"ｻｲﾀﾏｹﾝ","kana_city":"ﾐﾅﾐｻｲﾀﾏｸﾞﾝﾐﾔｼﾛﾏﾁ","kana_address":"","pref":"埼玉県","city":"南埼玉郡宮代町","address":""},
{"zip_code":"3450826","kana_pref":"ｻｲﾀﾏｹﾝ","kana_city":"ﾐﾅﾐｻｲﾀﾏｸﾞﾝﾐﾔｼﾛﾏﾁ","kana_address":"ｶﾞｸｴﾝﾀﾞｲ","pref":"埼玉県","city":"南埼玉郡宮代町","address":"学園台"},
{"zip_code":"3450822","kana_pref":"ｻｲﾀﾏｹﾝ","kana_city":"ﾐﾅﾐｻｲﾀﾏｸﾞﾝﾐﾔｼﾛﾏﾁ","kana_address":"ｶｻﾊﾗ","pref":"埼玉県","city":"南埼玉郡宮代町","address":"笠原"},
{"zip_code":"3450816","kana_pref":"ｻｲﾀﾏｹﾝ","kana_city":"ﾐﾅﾐｻｲﾀﾏｸﾞﾝﾐﾔｼﾛﾏﾁ","kana_address":"ｶﾈﾊﾗ","pref":"埼玉県","city":"南埼玉郡宮代町","address":"金原"},
{"zip_code":"3450804","kana_pref":"ｻｲﾀﾏｹﾝ","kana_city":"ﾐﾅﾐｻｲﾀﾏｸﾞﾝﾐﾔｼﾛﾏﾁ","kana_address":"ｶﾜﾊﾞﾀ","pref":"埼玉県","city":"南埼玉郡宮代町","address":"川端"},
{"zip_code":"3450834","kana_pref":"ｻｲﾀﾏｹﾝ","kana_city":"ﾐﾅﾐｻｲﾀﾏｸﾞﾝﾐﾔｼﾛﾏﾁ","kana_address":"ｺｸﾉｳ","pref":"埼玉県","city":"南埼玉郡宮代町","address":"国納"},
{"zip_code":"3450825","kana_pref":"ｻｲﾀﾏｹﾝ","kana_city":"ﾐﾅﾐｻｲﾀﾏｸﾞﾝﾐﾔｼﾛﾏﾁ","kana_address":"ｻｶｻｲ","pref":"埼玉県","city":"南埼玉郡宮代町","address":"逆井"},
{"zip_code":"3450831","kana_pref":"ｻｲﾀﾏｹﾝ","kana_city":"ﾐﾅﾐｻｲﾀﾏｸﾞﾝﾐﾔｼﾛﾏﾁ","kana_address":"ｽｶ","pref":"埼玉県","city":"南埼玉郡宮代町","address":"須賀"},
{"zip_code":"3450821","kana_pref":"ｻｲﾀﾏｹﾝ","kana_city":"ﾐﾅﾐｻｲﾀﾏｸﾞﾝﾐﾔｼﾛﾏﾁ","kana_address":"ﾁｭｳｵｳ","pref":"埼玉県","city":"南埼玉郡宮代町","address":"中央"},
{"zip_code":"3450811","kana_pref":"ｻｲﾀﾏｹﾝ","kana_city":"ﾐﾅﾐｻｲﾀﾏｸﾞﾝﾐﾔｼﾛﾏﾁ","kana_address":"ﾄﾞｳﾌﾞﾂ","pref":"埼玉県","city":"南埼玉郡宮代町","address":"道佛"},
{"zip_code":"3450815","kana_pref":"ｻｲﾀﾏｹﾝ","kana_city":"ﾐﾅﾐｻｲﾀﾏｸﾞﾝﾐﾔｼﾛﾏﾁ","kana_address":"ﾅｶ","pref":"埼玉県","city":"南埼玉郡宮代町","address":"中"},
{"zip_code":"3450802","kana_pref":"ｻｲﾀﾏｹﾝ","kana_city":"ﾐﾅﾐｻｲﾀﾏｸﾞﾝﾐﾔｼﾛﾏﾁ","kana_address":"ﾅｶｼﾞﾏ","pref":"埼玉県","city":"南埼玉郡宮代町","address":"中島"},
{"zip_code":"3450833","kana_pref":"ｻｲﾀﾏｹﾝ","kana_city":"ﾐﾅﾐｻｲﾀﾏｸﾞﾝﾐﾔｼﾛﾏﾁ","kana_address":"ﾆｼｸﾒﾊﾗ","pref":"埼玉県","city":"南埼玉郡宮代町","address":"西粂原"},
{"zip_code":"3450817","kana_pref":"ｻｲﾀﾏｹﾝ","kana_city":"ﾐﾅﾐｻｲﾀﾏｸﾞﾝﾐﾔｼﾛﾏﾁ","kana_address":"ﾆｼﾊﾞﾗ","pref":"埼玉県","city":"南埼玉郡宮代町","address":"西原"},
{"zip_code":"3450814","kana_pref":"ｻｲﾀﾏｹﾝ","kana_city":"ﾐﾅﾐｻｲﾀﾏｸﾞﾝﾐﾔｼﾛﾏﾁ","kana_address":"ﾋｶﾞｼ","pref":"埼玉県","city":"南埼玉郡宮代町","address":"東"},
{"zip_code":"3450832","kana_pref":"ｻｲﾀﾏｹﾝ","kana_city":"ﾐﾅﾐｻｲﾀﾏｸﾞﾝﾐﾔｼﾛﾏﾁ","kana_address":"ﾋｶﾞｼｸﾒﾊﾗ","pref":"埼玉県","city":"南埼玉郡宮代町","address":"東粂原"},
{"zip_code":"3450813","kana_pref":"ｻｲﾀﾏｹﾝ","kana_city":"ﾐﾅﾐｻｲﾀﾏｸﾞﾝﾐﾔｼﾛﾏﾁ","kana_address":"ﾋｶﾞｼﾋﾒﾐﾔ","pref":"埼玉県","city":"南埼玉郡宮代町","address":"東姫宮"},
{"zip_code":"3450812","kana_pref":"ｻｲﾀﾏｹﾝ","kana_city":"ﾐﾅﾐｻｲﾀﾏｸﾞﾝﾐﾔｼﾛﾏﾁ","kana_address":"ﾋﾒﾐﾔ","pref":"埼玉県","city":"南埼玉郡宮代町","address":"姫宮"},
{"zip_code":"3450827","kana_pref":"ｻｲﾀﾏｹﾝ","kana_city":"ﾐﾅﾐｻｲﾀﾏｸﾞﾝﾐﾔｼﾛﾏﾁ","kana_address":"ﾎﾝﾃﾞﾝ","pref":"埼玉県","city":"南埼玉郡宮代町","address":"本田"},
{"zip_code":"3450823","kana_pref":"ｻｲﾀﾏｹﾝ","kana_city":"ﾐﾅﾐｻｲﾀﾏｸﾞﾝﾐﾔｼﾛﾏﾁ","kana_address":"ﾐﾔｼﾛ","pref":"埼玉県","city":"南埼玉郡宮代町","address":"宮代"},
{"zip_code":"3450835","kana_pref":"ｻｲﾀﾏｹﾝ","kana_city":"ﾐﾅﾐｻｲﾀﾏｸﾞﾝﾐﾔｼﾛﾏﾁ","kana_address":"ﾐﾔｼﾛﾀﾞｲ","pref":"埼玉県","city":"南埼玉郡宮代町","address":"宮代台"},
{"zip_code":"3450803","kana_pref":"ｻｲﾀﾏｹﾝ","kana_city":"ﾐﾅﾐｻｲﾀﾏｸﾞﾝﾐﾔｼﾛﾏﾁ","kana_address":"ﾐﾔﾋｶﾞｼ","pref":"埼玉県","city":"南埼玉郡宮代町","address":"宮東"},
{"zip_code":"3450801","kana_pref":"ｻｲﾀﾏｹﾝ","kana_city":"ﾐﾅﾐｻｲﾀﾏｸﾞﾝﾐﾔｼﾛﾏﾁ","kana_address":"ﾓﾝﾏ","pref":"埼玉県","city":"南埼玉郡宮代町","address":"百間"},
{"zip_code":"3450824","kana_pref":"ｻｲﾀﾏｹﾝ","kana_city":"ﾐﾅﾐｻｲﾀﾏｸﾞﾝﾐﾔｼﾛﾏﾁ","kana_address":"ﾔﾏｻﾞｷ","pref":"埼玉県","city":"南埼玉郡宮代町","address":"山崎"},
{"zip_code":"3450836","kana_pref":"ｻｲﾀﾏｹﾝ","kana_city":"ﾐﾅﾐｻｲﾀﾏｸﾞﾝﾐﾔｼﾛﾏﾁ","kana_address":"ﾜﾄﾞ","pref":"埼玉県","city":"南埼玉郡宮代町","address":"和戸"},
{"zip_code":"3450000","kana_pref":"ｻｲﾀﾏｹﾝ","kana_city":"ｷﾀｶﾂｼｶｸﾞﾝｽｷﾞﾄﾏﾁ","kana_address":"","pref":"埼玉県","city":"北葛飾郡杉戸町","address":""},
{"zip_code":"3450035","kana_pref":"ｻｲﾀﾏｹﾝ","kana_city":"ｷﾀｶﾂｼｶｸﾞﾝｽｷﾞﾄﾏﾁ","kana_address":"ｳﾁﾀﾞ","pref":"埼玉県","city":"北葛飾郡杉戸町","address":"内田"},
{"zip_code":"3450042","kana_pref":"ｻｲﾀﾏｹﾝ","kana_city":"ｷﾀｶﾂｼｶｸﾞﾝｽｷﾞﾄﾏﾁ","kana_address":"ｵｵｼﾞﾏ","pref":"埼玉県","city":"北葛飾郡杉戸町","address":"大島"},
{"zip_code":"3450022","kana_pref":"ｻｲﾀﾏｹﾝ","kana_city":"ｷﾀｶﾂｼｶｸﾞﾝｽｷﾞﾄﾏﾁ","kana_address":"ｵｵﾂｶ","pref":"埼玉県","city":"北葛飾郡杉戸町","address":"大塚"},
{"zip_code":"3450021","kana_pref":"ｻｲﾀﾏｹﾝ","kana_city":"ｷﾀｶﾂｼｶｸﾞﾝｽｷﾞﾄﾏﾁ","kana_address":"ｷﾀﾊｽﾇﾏ","pref":"埼玉県","city":"北葛飾郡杉戸町","address":"北蓮沼"},
{"zip_code":"3450001","kana_pref":"ｻｲﾀﾏｹﾝ","kana_city":"ｷﾀｶﾂｼｶｸﾞﾝｽｷﾞﾄﾏﾁ","kana_address":"ｷﾂﾞｳﾁ","pref":"埼玉県","city":"北葛飾郡杉戸町","address":"木津内"},
{"zip_code":"3450003","kana_pref":"ｻｲﾀﾏｹﾝ","kana_city":"ｷﾀｶﾂｼｶｸﾞﾝｽｷﾞﾄﾏﾁ","kana_address":"ｷﾉｶﾜ","pref":"埼玉県","city":"北葛飾郡杉戸町","address":"木野川"},
{"zip_code":"3450034","kana_pref":"ｻｲﾀﾏｹﾝ","kana_city":"ｷﾀｶﾂｼｶｸﾞﾝｽｷﾞﾄﾏﾁ","kana_address":"ｸﾗﾏﾂ","pref":"埼玉県","city":"北葛飾郡杉戸町","address":"倉松"},
{"zip_code":"3450014","kana_pref":"ｻｲﾀﾏｹﾝ","kana_city":"ｷﾀｶﾂｼｶｸﾞﾝｽｷﾞﾄﾏﾁ","kana_address":"ｻｲﾊﾞ","pref":"埼玉県","city":"北葛飾郡杉戸町","address":"才羽"},
{"zip_code":"3450033","kana_pref":"ｻｲﾀﾏｹﾝ","kana_city":"ｷﾀｶﾂｼｶｸﾞﾝｽｷﾞﾄﾏﾁ","kana_address":"ｻｻﾞｴﾓﾝ","pref":"埼玉県","city":"北葛飾郡杉戸町","address":"佐左エ門"},
{"zip_code":"3450043","kana_pref":"ｻｲﾀﾏｹﾝ","kana_city":"ｷﾀｶﾂｼｶｸﾞﾝｽｷﾞﾄﾏﾁ","kana_address":"ｼﾓﾀｶﾉ","pref":"埼玉県","city":"北葛飾郡杉戸町","address":"下高野"},
{"zip_code":"3450044","kana_pref":"ｻｲﾀﾏｹﾝ","kana_city":"ｷﾀｶﾂｼｶｸﾞﾝｽｷﾞﾄﾏﾁ","kana_address":"ｼﾓﾉ","pref":"埼玉県","city":"北葛飾郡杉戸町","address":"下野"},
{"zip_code":"3450036","kana_pref":"ｻｲﾀﾏｹﾝ","kana_city":"ｷﾀｶﾂｼｶｸﾞﾝｽｷﾞﾄﾏﾁ","kana_address":"ｽｷﾞﾄ","pref":"埼玉県","city":"北葛飾郡杉戸町","address":"杉戸"},
{"zip_code":"3450025","kana_pref":"ｻｲﾀﾏｹﾝ","kana_city":"ｷﾀｶﾂｼｶｸﾞﾝｽｷﾞﾄﾏﾁ","kana_address":"ｾｲｼﾞ","pref":"埼玉県","city":"北葛飾郡杉戸町","address":"清地"},
{"zip_code":"3450047","kana_pref":"ｻｲﾀﾏｹﾝ","kana_city":"ｷﾀｶﾂｼｶｸﾞﾝｽｷﾞﾄﾏﾁ","kana_address":"ﾀｶﾉﾀﾞｲﾋｶﾞｼ","pref":"埼玉県","city":"北葛飾郡杉戸町","address":"高野台東"},
{"zip_code":"3450045","kana_pref":"ｻｲﾀﾏｹﾝ","kana_city":"ｷﾀｶﾂｼｶｸﾞﾝｽｷﾞﾄﾏﾁ","kana_address":"ﾀｶﾉﾀﾞｲﾆｼ","pref":"埼玉県","city":"北葛飾郡杉戸町","address":"高野台西"},
{"zip_code":"3450046","kana_pref":"ｻｲﾀﾏｹﾝ","kana_city":"ｷﾀｶﾂｼｶｸﾞﾝｽｷﾞﾄﾏﾁ","kana_address":"ﾀｶﾉﾀﾞｲﾐﾅﾐ","pref":"埼玉県","city":"北葛飾郡杉戸町","address":"高野台南"},
{"zip_code":"3450024","kana_pref":"ｻｲﾀﾏｹﾝ","kana_city":"ｷﾀｶﾂｼｶｸﾞﾝｽｷﾞﾄﾏﾁ","kana_address":"ﾂﾂﾐﾈ","pref":"埼玉県","city":"北葛飾郡杉戸町","address":"堤根"},
{"zip_code":"3450013","kana_pref":"ｻｲﾀﾏｹﾝ","kana_city":"ｷﾀｶﾂｼｶｸﾞﾝｽｷﾞﾄﾏﾁ","kana_address":"ﾂﾊﾞｷ","pref":"埼玉県","city":"北葛飾郡杉戸町","address":"椿"},
{"zip_code":"3450031","kana_pref":"ｻｲﾀﾏｹﾝ","kana_city":"ｷﾀｶﾂｼｶｸﾞﾝｽｷﾞﾄﾏﾁ","kana_address":"ﾄｵﾉ","pref":"埼玉県","city":"北葛飾郡杉戸町","address":"遠野"},
{"zip_code":"3450015","kana_pref":"ｻｲﾀﾏｹﾝ","kana_city":"ｷﾀｶﾂｼｶｸﾞﾝｽｷﾞﾄﾏﾁ","kana_address":"ﾅﾗﾋﾞﾂｶ","pref":"埼玉県","city":"北葛飾郡杉戸町","address":"並塚"},
{"zip_code":"3450041","kana_pref":"ｻｲﾀﾏｹﾝ","kana_city":"ｷﾀｶﾂｼｶｸﾞﾝｽｷﾞﾄﾏﾁ","kana_address":"ﾊﾞﾗｼﾞﾏ","pref":"埼玉県","city":"北葛飾郡杉戸町","address":"茨島"},
{"zip_code":"3450011","kana_pref":"ｻｲﾀﾏｹﾝ","kana_city":"ｷﾀｶﾂｼｶｸﾞﾝｽｷﾞﾄﾏﾁ","kana_address":"ﾋﾞｮｳﾌﾞ","pref":"埼玉県","city":"北葛飾郡杉戸町","address":"屏風"},
{"zip_code":"3450032","kana_pref":"ｻｲﾀﾏｹﾝ","kana_city":"ｷﾀｶﾂｼｶｸﾞﾝｽｷﾞﾄﾏﾁ","kana_address":"ﾋﾛﾄﾇﾏ","pref":"埼玉県","city":"北葛飾郡杉戸町","address":"広戸沼"},
{"zip_code":"3450012","kana_pref":"ｻｲﾀﾏｹﾝ","kana_city":"ｷﾀｶﾂｼｶｸﾞﾝｽｷﾞﾄﾏﾁ","kana_address":"ﾌｶﾜ","pref":"埼玉県","city":"北葛飾郡杉戸町","address":"深輪"},
{"zip_code":"3450023","kana_pref":"ｻｲﾀﾏｹﾝ","kana_city":"ｷﾀｶﾂｼｶｸﾞﾝｽｷﾞﾄﾏﾁ","kana_address":"ﾎﾝｺﾞｳ","pref":"埼玉県","city":"北葛飾郡杉戸町","address":"本郷"},
{"zip_code":"3450004","kana_pref":"ｻｲﾀﾏｹﾝ","kana_city":"ｷﾀｶﾂｼｶｸﾞﾝｽｷﾞﾄﾏﾁ","kana_address":"ﾐﾔﾏｴ","pref":"埼玉県","city":"北葛飾郡杉戸町","address":"宮前"},
{"zip_code":"3450005","kana_pref":"ｻｲﾀﾏｹﾝ","kana_city":"ｷﾀｶﾂｼｶｸﾞﾝｽｷﾞﾄﾏﾁ","kana_address":"ﾒﾇﾏ","pref":"埼玉県","city":"北葛飾郡杉戸町","address":"目沼"},
{"zip_code":"3450037","kana_pref":"ｻｲﾀﾏｹﾝ","kana_city":"ｷﾀｶﾂｼｶｸﾞﾝｽｷﾞﾄﾏﾁ","kana_address":"ﾓﾄｼﾞﾏ","pref":"埼玉県","city":"北葛飾郡杉戸町","address":"本島"},
{"zip_code":"3450002","kana_pref":"ｻｲﾀﾏｹﾝ","kana_city":"ｷﾀｶﾂｼｶｸﾞﾝｽｷﾞﾄﾏﾁ","kana_address":"ﾜｼﾉｽ","pref":"埼玉県","city":"北葛飾郡杉戸町","address":"鷲巣"}]}