{"zip_code":[
{"zip_code":"3460000","kana_pref":"ｻｲﾀﾏｹﾝ","kana_city":"ｸｷｼ","kana_address":"","pref":"埼玉県","city":"久喜市","address":""},
{"zip_code":"3460011","kana_pref":"ｻｲﾀﾏｹﾝ","kana_city":"ｸｷｼ","kana_address":"ｱｵｹﾞ","pref":"埼玉県","city":"久喜市","address":"青毛"},
{"zip_code":"3460013","kana_pref":"ｻｲﾀﾏｹﾝ","kana_city":"ｸｷｼ","kana_address":"ｱｵﾊﾞ","pref":"埼玉県","city":"久喜市","address":"青葉"},
{"zip_code":"3460029","kana_pref":"ｻｲﾀﾏｹﾝ","kana_city":"ｸｷｼ","kana_address":"ｴﾂﾞﾗ","pref":"埼玉県","city":"久喜市","address":"江面"},
{"zip_code":"3460023","kana_pref":"ｻｲﾀﾏｹﾝ","kana_city":"ｸｷｼ","kana_address":"ｵｵﾀﾌﾞｸﾛ","pref":"埼玉県","city":"久喜市","address":"太田袋"},
{"zip_code":"3460038","kana_pref":"ｻｲﾀﾏｹﾝ","kana_city":"ｸｷｼ","kana_address":"ｶﾐｷﾖｸ","pref":"埼玉県","city":"久喜市","address":"上清久"},
{"zip_code":"3460021","kana_pref":"ｻｲﾀﾏｹﾝ","kana_city":"ｸｷｼ","kana_address":"ｶﾐﾊﾔﾐ","pref":"埼玉県","city":"久喜市","address":"上早見"},
{"zip_code":"3460006","kana_pref":"ｻｲﾀﾏｹﾝ","kana_city":"ｸｷｼ","kana_address":"ｶﾐﾏﾁ","pref":"埼玉県","city":"久喜市","address":"上町"},
{"zip_code":"3460028","kana_pref":"ｻｲﾀﾏｹﾝ","kana_city":"ｸｷｼ","kana_address":"ｶﾜﾗｲﾁｮｳ","pref":"埼玉県","city":"久喜市","address":"河原井町"},
{"zip_code":"3460024","kana_pref":"ｻｲﾀﾏｹﾝ","kana_city":"ｸｷｼ","kana_address":"ｷﾀｱｵﾔｷﾞ","pref":"埼玉県","city":"久喜市","address":"北青柳"},
{"zip_code":"3460036","kana_pref":"ｻｲﾀﾏｹﾝ","kana_city":"ｸｷｼ","kana_address":"ｷﾀﾅｶｿﾈ","pref":"埼玉県","city":"久喜市","address":"北中曽根"},
{"zip_code":"3460035","kana_pref":"ｻｲﾀﾏｹﾝ","kana_city":"ｸｷｼ","kana_address":"ｷﾖｸﾁｮｳ","pref":"埼玉県","city":"久喜市","address":"清久町"},
{"zip_code":"3460007","kana_pref":"ｻｲﾀﾏｹﾝ","kana_city":"ｸｷｼ","kana_address":"ｸｷｷﾀ","pref":"埼玉県","city":"久喜市","address":"久喜北"},
{"zip_code":"3460032","kana_pref":"ｻｲﾀﾏｹﾝ","kana_city":"ｸｷｼ","kana_address":"ｸｷｼﾝ","pref":"埼玉県","city":"久喜市","address":"久喜新"},
{"zip_code":"3460003","kana_pref":"ｻｲﾀﾏｹﾝ","kana_city":"ｸｷｼ","kana_address":"ｸｷﾁｭｳｵｳ","pref":"埼玉県","city":"久喜市","address":"久喜中央"},
{"zip_code":"3460016","kana_pref":"ｻｲﾀﾏｹﾝ","kana_city":"ｸｷｼ","kana_address":"ｸｷﾋｶﾞｼ","pref":"埼玉県","city":"久喜市","address":"久喜東"},
{"zip_code":"3460031","kana_pref":"ｻｲﾀﾏｹﾝ","kana_city":"ｸｷｼ","kana_address":"ｸｷﾎﾝ","pref":"埼玉県","city":"久喜市","address":"久喜本"},
{"zip_code":"3460012","kana_pref":"ｻｲﾀﾏｹﾝ","kana_city":"ｸｷｼ","kana_address":"ｸﾘﾊﾗ","pref":"埼玉県","city":"久喜市","address":"栗原"},
{"zip_code":"3460001","kana_pref":"ｻｲﾀﾏｹﾝ","kana_city":"ｸｷｼ","kana_address":"ｺｸﾞｷ","pref":"埼玉県","city":"久喜市","address":"古久喜"},
{"zip_code":"3460033","kana_pref":"ｻｲﾀﾏｹﾝ","kana_city":"ｸｷｼ","kana_address":"ｼﾓｷﾖｸ","pref":"埼玉県","city":"久喜市","address":"下清久"},
{"zip_code":"3460022","kana_pref":"ｻｲﾀﾏｹﾝ","kana_city":"ｸｷｼ","kana_address":"ｼﾓﾊﾔﾐ","pref":"埼玉県","city":"久喜市","address":"下早見"},
{"zip_code":"3460115","kana_pref":"ｻｲﾀﾏｹﾝ","kana_city":"ｸｷｼ","kana_address":"ｼｮｳﾌﾞﾁｮｳｵﾊﾞﾔｼ","pref":"埼玉県","city":"久喜市","address":"菖蒲町小林"},
{"zip_code":"3460111","kana_pref":"ｻｲﾀﾏｹﾝ","kana_city":"ｸｷｼ","kana_address":"ｼｮｳﾌﾞﾁｮｳｶﾐｵｵｻｷ","pref":"埼玉県","city":"久喜市","address":"菖蒲町上大崎"},
{"zip_code":"3460114","kana_pref":"ｻｲﾀﾏｹﾝ","kana_city":"ｸｷｼ","kana_address":"ｼｮｳﾌﾞﾁｮｳｶﾐｶﾔﾏ","pref":"埼玉県","city":"久喜市","address":"菖蒲町上栢間"},
{"zip_code":"3460102","kana_pref":"ｻｲﾀﾏｹﾝ","kana_city":"ｸｷｼ","kana_address":"ｼｮｳﾌﾞﾁｮｳｶﾜﾊﾗｲ","pref":"埼玉県","city":"久喜市","address":"菖蒲町河原井"},
{"zip_code":"3460104","kana_pref":"ｻｲﾀﾏｹﾝ","kana_city":"ｸｷｼ","kana_address":"ｼｮｳﾌﾞﾁｮｳｻﾝｶﾞ","pref":"埼玉県","city":"久喜市","address":"菖蒲町三箇"},
{"zip_code":"3460112","kana_pref":"ｻｲﾀﾏｹﾝ","kana_city":"ｸｷｼ","kana_address":"ｼｮｳﾌﾞﾁｮｳｼﾊﾞﾔﾏｼｺﾞｳ","pref":"埼玉県","city":"久喜市","address":"菖蒲町柴山枝郷"},
{"zip_code":"3460113","kana_pref":"ｻｲﾀﾏｹﾝ","kana_city":"ｸｷｼ","kana_address":"ｼｮｳﾌﾞﾁｮｳｼﾓｶﾔﾏ","pref":"埼玉県","city":"久喜市","address":"菖蒲町下栢間"},
{"zip_code":"3460106","kana_pref":"ｻｲﾀﾏｹﾝ","kana_city":"ｸｷｼ","kana_address":"ｼｮｳﾌﾞﾁｮｳｼｮｳﾌﾞ","pref":"埼玉県","city":"久喜市","address":"菖蒲町菖蒲"},
{"zip_code":"3460101","kana_pref":"ｻｲﾀﾏｹﾝ","kana_city":"ｸｷｼ","kana_address":"ｼｮｳﾌﾞﾁｮｳｼｮｳﾜﾇﾏ","pref":"埼玉県","city":"久喜市","address":"菖蒲町昭和沼"},
{"zip_code":"3460103","kana_pref":"ｻｲﾀﾏｹﾝ","kana_city":"ｸｷｼ","kana_address":"ｼｮｳﾌﾞﾁｮｳﾀﾞｲ","pref":"埼玉県","city":"久喜市","address":"菖蒲町台"},
{"zip_code":"3460105","kana_pref":"ｻｲﾀﾏｹﾝ","kana_city":"ｸｷｼ","kana_address":"ｼｮｳﾌﾞﾁｮｳﾆｲﾎﾞﾘ","pref":"埼玉県","city":"久喜市","address":"菖蒲町新堀"},
{"zip_code":"3460034","kana_pref":"ｻｲﾀﾏｹﾝ","kana_city":"ｸｷｼ","kana_address":"ﾄｺﾛｸﾞｷ","pref":"埼玉県","city":"久喜市","address":"所久喜"},
{"zip_code":"3460015","kana_pref":"ｻｲﾀﾏｹﾝ","kana_city":"ｸｷｼ","kana_address":"ﾆｼ","pref":"埼玉県","city":"久喜市","address":"西"},
{"zip_code":"3460002","kana_pref":"ｻｲﾀﾏｹﾝ","kana_city":"ｸｷｼ","kana_address":"ﾉｸﾞｷ","pref":"埼玉県","city":"久喜市","address":"野久喜"},
{"zip_code":"3460026","kana_pref":"ｻｲﾀﾏｹﾝ","kana_city":"ｸｷｼ","kana_address":"ﾊﾗ","pref":"埼玉県","city":"久喜市","address":"原"},
{"zip_code":"3460025","kana_pref":"ｻｲﾀﾏｹﾝ","kana_city":"ｸｷｼ","kana_address":"ﾋﾉｸﾁ","pref":"埼玉県","city":"久喜市","address":"樋ノ口"},
{"zip_code":"3460005","kana_pref":"ｻｲﾀﾏｹﾝ","kana_city":"ｸｷｼ","kana_address":"ﾎﾝﾁｮｳ","pref":"埼玉県","city":"久喜市","address":"本町"},
{"zip_code":"3460004","kana_pref":"ｻｲﾀﾏｹﾝ","kana_city":"ｸｷｼ","kana_address":"ﾐﾅﾐ","pref":"埼玉県","city":"久喜市","address":"南"},
{"zip_code":"3460027","kana_pref":"ｻｲﾀﾏｹﾝ","kana_city":"ｸｷｼ","kana_address":"ﾖｹﾎﾞﾘ","pref":"埼玉県","city":"久喜市","address":"除堀"},
{"zip_code":"3460014","kana_pref":"ｻｲﾀﾏｹﾝ","kana_city":"ｸｷｼ","kana_address":"ﾖｼﾊﾞ","pref":"埼玉県","city":"久喜市","address":"吉羽"},
{"zip_code":"3460037","kana_pref":"ｻｲﾀﾏｹﾝ","kana_city":"ｸｷｼ","kana_address":"ﾛｸﾏﾝﾌﾞ","pref":"埼玉県","city":"久喜市","address":"六万部"}]}