{"zip_code":[
{"zip_code":"3470000","kana_pref":"ｻｲﾀﾏｹﾝ","kana_city":"ｶｿﾞｼ","kana_address":"","pref":"埼玉県","city":"加須市","address":""},
{"zip_code":"3470057","kana_pref":"ｻｲﾀﾏｹﾝ","kana_city":"ｶｿﾞｼ","kana_address":"ｱﾀｺﾞ","pref":"埼玉県","city":"加須市","address":"愛宕"},
{"zip_code":"3470047","kana_pref":"ｻｲﾀﾏｹﾝ","kana_city":"ｶｿﾞｼ","kana_address":"ｱﾗｶﾜ","pref":"埼玉県","city":"加須市","address":"阿良川"},
{"zip_code":"3470024","kana_pref":"ｻｲﾀﾏｹﾝ","kana_city":"ｶｿﾞｼ","kana_address":"ｲﾏﾎﾞｺ","pref":"埼玉県","city":"加須市","address":"今鉾"},
{"zip_code":"3470112","kana_pref":"ｻｲﾀﾏｹﾝ","kana_city":"ｶｿﾞｼ","kana_address":"ｲﾓｸﾞｷ","pref":"埼玉県","city":"加須市","address":"芋茎"},
{"zip_code":"3470103","kana_pref":"ｻｲﾀﾏｹﾝ","kana_city":"ｶｿﾞｼ","kana_address":"ｳｼｶﾞｻﾈ","pref":"埼玉県","city":"加須市","address":"牛重"},
{"zip_code":"3470122","kana_pref":"ｻｲﾀﾏｹﾝ","kana_city":"ｶｿﾞｼ","kana_address":"ｳﾁﾀｶﾞﾔ","pref":"埼玉県","city":"加須市","address":"内田ケ谷"},
{"zip_code":"3470010","kana_pref":"ｻｲﾀﾏｹﾝ","kana_city":"ｶｿﾞｼ","kana_address":"ｵｵｸﾜ","pref":"埼玉県","city":"加須市","address":"大桑"},
{"zip_code":"3470001","kana_pref":"ｻｲﾀﾏｹﾝ","kana_city":"ｶｿﾞｼ","kana_address":"ｵｵｺﾞｴ","pref":"埼玉県","city":"加須市","address":"大越"},
{"zip_code":"3470027","kana_pref":"ｻｲﾀﾏｹﾝ","kana_city":"ｶｿﾞｼ","kana_address":"ｵｵﾑﾛ","pref":"埼玉県","city":"加須市","address":"大室"},
{"zip_code":"3470058","kana_pref":"ｻｲﾀﾏｹﾝ","kana_city":"ｶｿﾞｼ","kana_address":"ｵｶﾌﾙｲ","pref":"埼玉県","city":"加須市","address":"岡古井"},
{"zip_code":"3470125","kana_pref":"ｻｲﾀﾏｹﾝ","kana_city":"ｶｿﾞｼ","kana_address":"ｶﾐｻｷ","pref":"埼玉県","city":"加須市","address":"上崎"},
{"zip_code":"3470101","kana_pref":"ｻｲﾀﾏｹﾝ","kana_city":"ｶｿﾞｼ","kana_address":"ｶﾐﾀｶﾔﾅｷﾞ","pref":"埼玉県","city":"加須市","address":"上高柳"},
{"zip_code":"3470115","kana_pref":"ｻｲﾀﾏｹﾝ","kana_city":"ｶｿﾞｼ","kana_address":"ｶﾐﾀﾅﾀﾞﾚ","pref":"埼玉県","city":"加須市","address":"上種足"},
{"zip_code":"3470003","kana_pref":"ｻｲﾀﾏｹﾝ","kana_city":"ｶｿﾞｼ","kana_address":"ｶﾐﾋﾔﾘｶﾜ","pref":"埼玉県","city":"加須市","address":"上樋遣川"},
{"zip_code":"3470006","kana_pref":"ｻｲﾀﾏｹﾝ","kana_city":"ｶｿﾞｼ","kana_address":"ｶﾐﾐﾂﾏﾀ","pref":"埼玉県","city":"加須市","address":"上三俣"},
{"zip_code":"3470014","kana_pref":"ｻｲﾀﾏｹﾝ","kana_city":"ｶｿﾞｼ","kana_address":"ｶﾜｸﾞﾁ","pref":"埼玉県","city":"加須市","address":"川口"},
{"zip_code":"3470105","kana_pref":"ｻｲﾀﾏｹﾝ","kana_city":"ｶｿﾞｼ","kana_address":"ｷｻｲ","pref":"埼玉県","city":"加須市","address":"騎西"},
{"zip_code":"3470011","kana_pref":"ｻｲﾀﾏｹﾝ","kana_city":"ｶｿﾞｼ","kana_address":"ｷﾀｺﾊﾞﾏ","pref":"埼玉県","city":"加須市","address":"北小浜"},
{"zip_code":"3470013","kana_pref":"ｻｲﾀﾏｹﾝ","kana_city":"ｶｿﾞｼ","kana_address":"ｷﾀｼﾉｻﾞｷ","pref":"埼玉県","city":"加須市","address":"北篠崎"},
{"zip_code":"3470023","kana_pref":"ｻｲﾀﾏｹﾝ","kana_city":"ｶｿﾞｼ","kana_address":"ｷﾀﾂｼﾞ","pref":"埼玉県","city":"加須市","address":"北辻"},
{"zip_code":"3470063","kana_pref":"ｻｲﾀﾏｹﾝ","kana_city":"ｶｿﾞｼ","kana_address":"ｸｹﾞ","pref":"埼玉県","city":"加須市","address":"久下"},
{"zip_code":"3470041","kana_pref":"ｻｲﾀﾏｹﾝ","kana_city":"ｶｿﾞｼ","kana_address":"ｸｼﾂｸﾘ","pref":"埼玉県","city":"加須市","address":"串作"},
{"zip_code":"3470111","kana_pref":"ｻｲﾀﾏｹﾝ","kana_city":"ｶｿﾞｼ","kana_address":"ｺｳｸﾞｷ","pref":"埼玉県","city":"加須市","address":"鴻茎"},
{"zip_code":"3470042","kana_pref":"ｻｲﾀﾏｹﾝ","kana_city":"ｶｿﾞｼ","kana_address":"ｼﾀﾞﾐ","pref":"埼玉県","city":"加須市","address":"志多見"},
{"zip_code":"3470123","kana_pref":"ｻｲﾀﾏｹﾝ","kana_city":"ｶｿﾞｼ","kana_address":"ｼﾓｻｷ","pref":"埼玉県","city":"加須市","address":"下崎"},
{"zip_code":"3470033","kana_pref":"ｻｲﾀﾏｹﾝ","kana_city":"ｶｿﾞｼ","kana_address":"ｼﾓﾀｶﾔﾅｷﾞ","pref":"埼玉県","city":"加須市","address":"下高柳"},
{"zip_code":"3470113","kana_pref":"ｻｲﾀﾏｹﾝ","kana_city":"ｶｿﾞｼ","kana_address":"ｼﾓﾀﾅﾀﾞﾚ","pref":"埼玉県","city":"加須市","address":"下種足"},
{"zip_code":"3470005","kana_pref":"ｻｲﾀﾏｹﾝ","kana_city":"ｶｿﾞｼ","kana_address":"ｼﾓﾋﾔﾘｶﾜ","pref":"埼玉県","city":"加須市","address":"下樋遣川"},
{"zip_code":"3470007","kana_pref":"ｻｲﾀﾏｹﾝ","kana_city":"ｶｿﾞｼ","kana_address":"ｼﾓﾐﾂﾏﾀ","pref":"埼玉県","city":"加須市","address":"下三俣"},
{"zip_code":"3470053","kana_pref":"ｻｲﾀﾏｹﾝ","kana_city":"ｶｿﾞｼ","kana_address":"ｼﾓﾔ","pref":"埼玉県","city":"加須市","address":"下谷"},
{"zip_code":"3470107","kana_pref":"ｻｲﾀﾏｹﾝ","kana_city":"ｶｿﾞｼ","kana_address":"ｼｮｳﾉｳ","pref":"埼玉県","city":"加須市","address":"正能"},
{"zip_code":"3470061","kana_pref":"ｻｲﾀﾏｹﾝ","kana_city":"ｶｿﾞｼ","kana_address":"ｽﾜ","pref":"埼玉県","city":"加須市","address":"諏訪"},
{"zip_code":"3470106","kana_pref":"ｻｲﾀﾏｹﾝ","kana_city":"ｶｿﾞｼ","kana_address":"ｿﾄｶﾜ","pref":"埼玉県","city":"加須市","address":"外川"},
{"zip_code":"3470126","kana_pref":"ｻｲﾀﾏｹﾝ","kana_city":"ｶｿﾞｼ","kana_address":"ｿﾄﾀｶﾞﾔ","pref":"埼玉県","city":"加須市","address":"外田ケ谷"},
{"zip_code":"3470002","kana_pref":"ｻｲﾀﾏｹﾝ","kana_city":"ｶｿﾞｼ","kana_address":"ｿﾄﾉ","pref":"埼玉県","city":"加須市","address":"外野"},
{"zip_code":"3470068","kana_pref":"ｻｲﾀﾏｹﾝ","kana_city":"ｶｿﾞｼ","kana_address":"ﾀﾞｲﾓﾝﾁｮｳ","pref":"埼玉県","city":"加須市","address":"大門町"},
{"zip_code":"3470012","kana_pref":"ｻｲﾀﾏｹﾝ","kana_city":"ｶｿﾞｼ","kana_address":"ﾀﾓﾝｼﾞ","pref":"埼玉県","city":"加須市","address":"多門寺"},
{"zip_code":"3470055","kana_pref":"ｻｲﾀﾏｹﾝ","kana_city":"ｶｿﾞｼ","kana_address":"ﾁｭｳｵｳ","pref":"埼玉県","city":"加須市","address":"中央"},
{"zip_code":"3470034","kana_pref":"ｻｲﾀﾏｹﾝ","kana_city":"ｶｿﾞｼ","kana_address":"ﾂﾈｲｽﾞﾐ","pref":"埼玉県","city":"加須市","address":"常泉"},
{"zip_code":"3470064","kana_pref":"ｻｲﾀﾏｹﾝ","kana_city":"ｶｿﾞｼ","kana_address":"ﾄｳｴｲ","pref":"埼玉県","city":"加須市","address":"東栄"},
{"zip_code":"3470121","kana_pref":"ｻｲﾀﾏｹﾝ","kana_city":"ｶｿﾞｼ","kana_address":"ﾄﾞｳﾁ","pref":"埼玉県","city":"加須市","address":"道地"},
{"zip_code":"3470051","kana_pref":"ｻｲﾀﾏｹﾝ","kana_city":"ｶｿﾞｼ","kana_address":"ﾄｶﾞﾜ","pref":"埼玉県","city":"加須市","address":"戸川"},
{"zip_code":"3470108","kana_pref":"ｻｲﾀﾏｹﾝ","kana_city":"ｶｿﾞｼ","kana_address":"ﾄｻｷ","pref":"埼玉県","city":"加須市","address":"戸崎"},
{"zip_code":"3470056","kana_pref":"ｻｲﾀﾏｹﾝ","kana_city":"ｶｿﾞｼ","kana_address":"ﾄﾞﾃ","pref":"埼玉県","city":"加須市","address":"土手"},
{"zip_code":"3470116","kana_pref":"ｻｲﾀﾏｹﾝ","kana_city":"ｶｿﾞｼ","kana_address":"ﾄﾑﾛ","pref":"埼玉県","city":"加須市","address":"戸室"},
{"zip_code":"3470114","kana_pref":"ｻｲﾀﾏｹﾝ","kana_city":"ｶｿﾞｼ","kana_address":"ﾅｶﾀﾅﾀﾞﾚ","pref":"埼玉県","city":"加須市","address":"中種足"},
{"zip_code":"3470124","kana_pref":"ｻｲﾀﾏｹﾝ","kana_city":"ｶｿﾞｼ","kana_address":"ﾅｶﾉﾒ","pref":"埼玉県","city":"加須市","address":"中ノ目"},
{"zip_code":"3470008","kana_pref":"ｻｲﾀﾏｹﾝ","kana_city":"ｶｿﾞｼ","kana_address":"ﾅｶﾋﾔﾘｶﾜ","pref":"埼玉県","city":"加須市","address":"中樋遣川"},
{"zip_code":"3470117","kana_pref":"ｻｲﾀﾏｹﾝ","kana_city":"ｶｿﾞｼ","kana_address":"ﾆｼﾉﾔ","pref":"埼玉県","city":"加須市","address":"西ノ谷"},
{"zip_code":"3470104","kana_pref":"ｻｲﾀﾏｹﾝ","kana_city":"ｶｿﾞｼ","kana_address":"ﾈｺﾞﾔ","pref":"埼玉県","city":"加須市","address":"根古屋"},
{"zip_code":"3470019","kana_pref":"ｻｲﾀﾏｹﾝ","kana_city":"ｶｿﾞｼ","kana_address":"ﾊﾄﾔﾏﾁｮｳ","pref":"埼玉県","city":"加須市","address":"鳩山町"},
{"zip_code":"3470032","kana_pref":"ｻｲﾀﾏｹﾝ","kana_city":"ｶｿﾞｼ","kana_address":"ﾊﾅｻｷ","pref":"埼玉県","city":"加須市","address":"花崎"},
{"zip_code":"3470016","kana_pref":"ｻｲﾀﾏｹﾝ","kana_city":"ｶｿﾞｼ","kana_address":"ﾊﾅｻｷｷﾀ","pref":"埼玉県","city":"加須市","address":"花崎北"},
{"zip_code":"3470018","kana_pref":"ｻｲﾀﾏｹﾝ","kana_city":"ｶｿﾞｼ","kana_address":"ﾊﾏﾁｮｳ","pref":"埼玉県","city":"加須市","address":"浜町"},
{"zip_code":"3470102","kana_pref":"ｻｲﾀﾏｹﾝ","kana_city":"ｶｿﾞｼ","kana_address":"ﾋﾃﾞﾔｽ","pref":"埼玉県","city":"加須市","address":"日出安"},
{"zip_code":"3470046","kana_pref":"ｻｲﾀﾏｹﾝ","kana_city":"ｶｿﾞｼ","kana_address":"ﾋﾗﾅｶﾞ","pref":"埼玉県","city":"加須市","address":"平永"},
{"zip_code":"3470045","kana_pref":"ｻｲﾀﾏｹﾝ","kana_city":"ｶｿﾞｼ","kana_address":"ﾌｼﾞﾐﾁｮｳ","pref":"埼玉県","city":"加須市","address":"富士見町"},
{"zip_code":"3470054","kana_pref":"ｻｲﾀﾏｹﾝ","kana_city":"ｶｿﾞｼ","kana_address":"ﾌﾄﾞｳｵｶ","pref":"埼玉県","city":"加須市","address":"不動岡"},
{"zip_code":"3470021","kana_pref":"ｻｲﾀﾏｹﾝ","kana_city":"ｶｿﾞｼ","kana_address":"ﾌﾅｺｼ","pref":"埼玉県","city":"加須市","address":"船越"},
{"zip_code":"3470004","kana_pref":"ｻｲﾀﾏｹﾝ","kana_city":"ｶｿﾞｼ","kana_address":"ﾌﾙｶﾜ","pref":"埼玉県","city":"加須市","address":"古川"},
{"zip_code":"3470066","kana_pref":"ｻｲﾀﾏｹﾝ","kana_city":"ｶｿﾞｼ","kana_address":"ﾎﾝﾁｮｳ","pref":"埼玉県","city":"加須市","address":"本町"},
{"zip_code":"3470052","kana_pref":"ｻｲﾀﾏｹﾝ","kana_city":"ｶｿﾞｼ","kana_address":"ﾏﾁﾔｼﾝﾃﾞﾝ","pref":"埼玉県","city":"加須市","address":"町屋新田"},
{"zip_code":"3470022","kana_pref":"ｻｲﾀﾏｹﾝ","kana_city":"ｶｿﾞｼ","kana_address":"ﾐｽﾞﾌﾞｶ","pref":"埼玉県","city":"加須市","address":"水深"},
{"zip_code":"3470015","kana_pref":"ｻｲﾀﾏｹﾝ","kana_city":"ｶｿﾞｼ","kana_address":"ﾐﾅﾐｵｵｸﾜ","pref":"埼玉県","city":"加須市","address":"南大桑"},
{"zip_code":"3470028","kana_pref":"ｻｲﾀﾏｹﾝ","kana_city":"ｶｿﾞｼ","kana_address":"ﾐﾅﾐｵﾊﾞﾏ","pref":"埼玉県","city":"加須市","address":"南小浜"},
{"zip_code":"3470017","kana_pref":"ｻｲﾀﾏｹﾝ","kana_city":"ｶｿﾞｼ","kana_address":"ﾐﾅﾐｼﾉｻﾞｷ","pref":"埼玉県","city":"加須市","address":"南篠崎"},
{"zip_code":"3470031","kana_pref":"ｻｲﾀﾏｹﾝ","kana_city":"ｶｿﾞｼ","kana_address":"ﾐﾅﾐﾁｮｳ","pref":"埼玉県","city":"加須市","address":"南町"},
{"zip_code":"3470067","kana_pref":"ｻｲﾀﾏｹﾝ","kana_city":"ｶｿﾞｼ","kana_address":"ﾑｺｳｶﾞｼﾁｮｳ","pref":"埼玉県","city":"加須市","address":"向川岸町"},
{"zip_code":"3470062","kana_pref":"ｻｲﾀﾏｹﾝ","kana_city":"ｶｿﾞｼ","kana_address":"ﾑﾂﾐﾁｮｳ","pref":"埼玉県","city":"加須市","address":"睦町"},
{"zip_code":"3470043","kana_pref":"ｻｲﾀﾏｹﾝ","kana_city":"ｶｿﾞｼ","kana_address":"ﾓｳﾁ","pref":"埼玉県","city":"加須市","address":"馬内"},
{"zip_code":"3470065","kana_pref":"ｻｲﾀﾏｹﾝ","kana_city":"ｶｿﾞｼ","kana_address":"ﾓﾄﾏﾁ","pref":"埼玉県","city":"加須市","address":"元町"},
{"zip_code":"3470026","kana_pref":"ｻｲﾀﾏｹﾝ","kana_city":"ｶｿﾞｼ","kana_address":"ﾕｲｶﾞｼﾏ","pref":"埼玉県","city":"加須市","address":"油井ケ島"},
{"zip_code":"3470044","kana_pref":"ｻｲﾀﾏｹﾝ","kana_city":"ｶｿﾞｼ","kana_address":"ﾗｲﾊ","pref":"埼玉県","city":"加須市","address":"礼羽"},
{"zip_code":"3470025","kana_pref":"ｻｲﾀﾏｹﾝ","kana_city":"ｶｿﾞｼ","kana_address":"ﾜﾘﾒ","pref":"埼玉県","city":"加須市","address":"割目"}]}