{"zip_code":[
{"zip_code":"3480000","kana_pref":"ｻｲﾀﾏｹﾝ","kana_city":"ﾊﾆｭｳｼ","kana_address":"","pref":"埼玉県","city":"羽生市","address":""},
{"zip_code":"3480061","kana_pref":"ｻｲﾀﾏｹﾝ","kana_city":"ﾊﾆｭｳｼ","kana_address":"ｲﾅｺﾞ","pref":"埼玉県","city":"羽生市","address":"稲子"},
{"zip_code":"3480017","kana_pref":"ｻｲﾀﾏｹﾝ","kana_city":"ﾊﾆｭｳｼ","kana_address":"ｲﾏｲｽﾞﾐ","pref":"埼玉県","city":"羽生市","address":"今泉"},
{"zip_code":"3480016","kana_pref":"ｻｲﾀﾏｹﾝ","kana_city":"ﾊﾆｭｳｼ","kana_address":"ｵｵﾇﾏ","pref":"埼玉県","city":"羽生市","address":"大沼"},
{"zip_code":"3480062","kana_pref":"ｻｲﾀﾏｹﾝ","kana_city":"ﾊﾆｭｳｼ","kana_address":"ｵｻｷ","pref":"埼玉県","city":"羽生市","address":"尾崎"},
{"zip_code":"3480031","kana_pref":"ｻｲﾀﾏｹﾝ","kana_city":"ﾊﾆｭｳｼ","kana_address":"ｶﾊﾞｶﾞｻｷ","pref":"埼玉県","city":"羽生市","address":"加羽ケ崎"},
{"zip_code":"3480044","kana_pref":"ｻｲﾀﾏｹﾝ","kana_city":"ﾊﾆｭｳｼ","kana_address":"ｶﾐｲﾜｾ","pref":"埼玉県","city":"羽生市","address":"上岩瀬"},
{"zip_code":"3480035","kana_pref":"ｻｲﾀﾏｹﾝ","kana_city":"ﾊﾆｭｳｼ","kana_address":"ｶﾐｶﾜｻｷ","pref":"埼玉県","city":"羽生市","address":"上川崎"},
{"zip_code":"3480056","kana_pref":"ｻｲﾀﾏｹﾝ","kana_city":"ﾊﾆｭｳｼ","kana_address":"ｶﾐｶﾜﾏﾀ","pref":"埼玉県","city":"羽生市","address":"上川俣"},
{"zip_code":"3480041","kana_pref":"ｻｲﾀﾏｹﾝ","kana_city":"ﾊﾆｭｳｼ","kana_address":"ｶﾐｼﾝｺﾞｳ","pref":"埼玉県","city":"羽生市","address":"上新郷"},
{"zip_code":"3480025","kana_pref":"ｻｲﾀﾏｹﾝ","kana_city":"ﾊﾆｭｳｼ","kana_address":"ｶﾐﾃｺﾊﾞﾔｼ","pref":"埼玉県","city":"羽生市","address":"上手子林"},
{"zip_code":"3480027","kana_pref":"ｻｲﾀﾏｹﾝ","kana_city":"ﾊﾆｭｳｼ","kana_address":"ｶﾐﾊﾆｭｳ","pref":"埼玉県","city":"羽生市","address":"上羽生"},
{"zip_code":"3480005","kana_pref":"ｻｲﾀﾏｹﾝ","kana_city":"ﾊﾆｭｳｼ","kana_address":"ｶﾐﾑﾗｷﾐ","pref":"埼玉県","city":"羽生市","address":"上村君"},
{"zip_code":"3480039","kana_pref":"ｻｲﾀﾏｹﾝ","kana_city":"ﾊﾆｭｳｼ","kana_address":"ｶﾜｻｷ","pref":"埼玉県","city":"羽生市","address":"川崎"},
{"zip_code":"3480014","kana_pref":"ｻｲﾀﾏｹﾝ","kana_city":"ﾊﾆｭｳｼ","kana_address":"ｷｳｴﾓﾝｼﾝﾃﾞﾝ","pref":"埼玉県","city":"羽生市","address":"喜右エ門新田"},
{"zip_code":"3480057","kana_pref":"ｻｲﾀﾏｹﾝ","kana_city":"ﾊﾆｭｳｼ","kana_address":"ｷﾀ","pref":"埼玉県","city":"羽生市","address":"北"},
{"zip_code":"3480015","kana_pref":"ｻｲﾀﾏｹﾝ","kana_city":"ﾊﾆｭｳｼ","kana_address":"ｷﾀｵｷﾞｼﾏ","pref":"埼玉県","city":"羽生市","address":"北荻島"},
{"zip_code":"3480028","kana_pref":"ｻｲﾀﾏｹﾝ","kana_city":"ﾊﾆｭｳｼ","kana_address":"ｷﾀﾌﾞｸﾛ","pref":"埼玉県","city":"羽生市","address":"北袋"},
{"zip_code":"3480043","kana_pref":"ｻｲﾀﾏｹﾝ","kana_city":"ﾊﾆｭｳｼ","kana_address":"ｸﾜｻｷ","pref":"埼玉県","city":"羽生市","address":"桑崎"},
{"zip_code":"3480024","kana_pref":"ｻｲﾀﾏｹﾝ","kana_city":"ﾊﾆｭｳｼ","kana_address":"ｺﾞｳﾄﾞ","pref":"埼玉県","city":"羽生市","address":"神戸"},
{"zip_code":"3480042","kana_pref":"ｻｲﾀﾏｹﾝ","kana_city":"ﾊﾆｭｳｼ","kana_address":"ｺｽｶ","pref":"埼玉県","city":"羽生市","address":"小須賀"},
{"zip_code":"3480037","kana_pref":"ｻｲﾀﾏｹﾝ","kana_city":"ﾊﾆｭｳｼ","kana_address":"ｺﾏﾂ","pref":"埼玉県","city":"羽生市","address":"小松"},
{"zip_code":"3480038","kana_pref":"ｻｲﾀﾏｹﾝ","kana_city":"ﾊﾆｭｳｼ","kana_address":"ｺﾏﾂﾀﾞｲ","pref":"埼玉県","city":"羽生市","address":"小松台"},
{"zip_code":"3480045","kana_pref":"ｻｲﾀﾏｹﾝ","kana_city":"ﾊﾆｭｳｼ","kana_address":"ｼﾓｲﾜｾ","pref":"埼玉県","city":"羽生市","address":"下岩瀬"},
{"zip_code":"3480034","kana_pref":"ｻｲﾀﾏｹﾝ","kana_city":"ﾊﾆｭｳｼ","kana_address":"ｼﾓｶﾜｻｷ","pref":"埼玉県","city":"羽生市","address":"下川崎"},
{"zip_code":"3480047","kana_pref":"ｻｲﾀﾏｹﾝ","kana_city":"ﾊﾆｭｳｼ","kana_address":"ｼﾓｼﾝｺﾞｳ","pref":"埼玉県","city":"羽生市","address":"下新郷"},
{"zip_code":"3480048","kana_pref":"ｻｲﾀﾏｹﾝ","kana_city":"ﾊﾆｭｳｼ","kana_address":"ｼﾓｼﾝﾃﾞﾝ","pref":"埼玉県","city":"羽生市","address":"下新田"},
{"zip_code":"3480022","kana_pref":"ｻｲﾀﾏｹﾝ","kana_city":"ﾊﾆｭｳｼ","kana_address":"ｼﾓﾃｺﾊﾞﾔｼ","pref":"埼玉県","city":"羽生市","address":"下手子林"},
{"zip_code":"3480026","kana_pref":"ｻｲﾀﾏｹﾝ","kana_city":"ﾊﾆｭｳｼ","kana_address":"ｼﾓﾊﾆｭｳ","pref":"埼玉県","city":"羽生市","address":"下羽生"},
{"zip_code":"3480006","kana_pref":"ｻｲﾀﾏｹﾝ","kana_city":"ﾊﾆｭｳｼ","kana_address":"ｼﾓﾑﾗｷﾐ","pref":"埼玉県","city":"羽生市","address":"下村君"},
{"zip_code":"3480033","kana_pref":"ｻｲﾀﾏｹﾝ","kana_city":"ﾊﾆｭｳｼ","kana_address":"ｽｶｹﾞ","pref":"埼玉県","city":"羽生市","address":"須影"},
{"zip_code":"3480036","kana_pref":"ｻｲﾀﾏｹﾝ","kana_city":"ﾊﾆｭｳｼ","kana_address":"ｽﾅﾔﾏ","pref":"埼玉県","city":"羽生市","address":"砂山"},
{"zip_code":"3480058","kana_pref":"ｻｲﾀﾏｹﾝ","kana_city":"ﾊﾆｭｳｼ","kana_address":"ﾁｭｳｵｳ","pref":"埼玉県","city":"羽生市","address":"中央"},
{"zip_code":"3480001","kana_pref":"ｻｲﾀﾏｹﾝ","kana_city":"ﾊﾆｭｳｼ","kana_address":"ﾂﾂﾐ","pref":"埼玉県","city":"羽生市","address":"堤"},
{"zip_code":"3480003","kana_pref":"ｻｲﾀﾏｹﾝ","kana_city":"ﾊﾆｭｳｼ","kana_address":"ﾂﾈｷﾞ","pref":"埼玉県","city":"羽生市","address":"常木"},
{"zip_code":"3480046","kana_pref":"ｻｲﾀﾏｹﾝ","kana_city":"ﾊﾆｭｳｼ","kana_address":"ﾅｶｲﾜｾ","pref":"埼玉県","city":"羽生市","address":"中岩瀬"},
{"zip_code":"3480021","kana_pref":"ｻｲﾀﾏｹﾝ","kana_city":"ﾊﾆｭｳｼ","kana_address":"ﾅｶﾃｺﾊﾞﾔｼ","pref":"埼玉県","city":"羽生市","address":"中手子林"},
{"zip_code":"3480054","kana_pref":"ｻｲﾀﾏｹﾝ","kana_city":"ﾊﾆｭｳｼ","kana_address":"ﾆｼ","pref":"埼玉県","city":"羽生市","address":"西"},
{"zip_code":"3480055","kana_pref":"ｻｲﾀﾏｹﾝ","kana_city":"ﾊﾆｭｳｼ","kana_address":"ﾊﾆｭｳ","pref":"埼玉県","city":"羽生市","address":"羽生"},
{"zip_code":"3480052","kana_pref":"ｻｲﾀﾏｹﾝ","kana_city":"ﾊﾆｭｳｼ","kana_address":"ﾋｶﾞｼ","pref":"埼玉県","city":"羽生市","address":"東"},
{"zip_code":"3480032","kana_pref":"ｻｲﾀﾏｹﾝ","kana_city":"ﾊﾆｭｳｼ","kana_address":"ﾋﾃﾞﾔｽ","pref":"埼玉県","city":"羽生市","address":"秀安"},
{"zip_code":"3480013","kana_pref":"ｻｲﾀﾏｹﾝ","kana_city":"ﾊﾆｭｳｼ","kana_address":"ﾋﾉﾃｼﾝﾃﾞﾝ","pref":"埼玉県","city":"羽生市","address":"日野手新田"},
{"zip_code":"3480064","kana_pref":"ｻｲﾀﾏｹﾝ","kana_city":"ﾊﾆｭｳｼ","kana_address":"ﾌｼﾞｲｶﾐｸﾞﾐ","pref":"埼玉県","city":"羽生市","address":"藤井上組"},
{"zip_code":"3480065","kana_pref":"ｻｲﾀﾏｹﾝ","kana_city":"ﾊﾆｭｳｼ","kana_address":"ﾌｼﾞｲｼﾓｸﾞﾐ","pref":"埼玉県","city":"羽生市","address":"藤井下組"},
{"zip_code":"3480063","kana_pref":"ｻｲﾀﾏｹﾝ","kana_city":"ﾊﾆｭｳｼ","kana_address":"ﾎｯﾄ","pref":"埼玉県","city":"羽生市","address":"発戸"},
{"zip_code":"3480051","kana_pref":"ｻｲﾀﾏｹﾝ","kana_city":"ﾊﾆｭｳｼ","kana_address":"ﾎﾝｶﾜﾏﾀ","pref":"埼玉県","city":"羽生市","address":"本川俣"},
{"zip_code":"3480023","kana_pref":"ｻｲﾀﾏｹﾝ","kana_city":"ﾊﾆｭｳｼ","kana_address":"ﾏﾁﾔ","pref":"埼玉県","city":"羽生市","address":"町屋"},
{"zip_code":"3480011","kana_pref":"ｻｲﾀﾏｹﾝ","kana_city":"ﾊﾆｭｳｼ","kana_address":"ﾐﾀｶﾔ","pref":"埼玉県","city":"羽生市","address":"三田ケ谷"},
{"zip_code":"3480053","kana_pref":"ｻｲﾀﾏｹﾝ","kana_city":"ﾊﾆｭｳｼ","kana_address":"ﾐﾅﾐ","pref":"埼玉県","city":"羽生市","address":"南"},
{"zip_code":"3480071","kana_pref":"ｻｲﾀﾏｹﾝ","kana_city":"ﾊﾆｭｳｼ","kana_address":"ﾐﾅﾐﾊﾆｭｳ","pref":"埼玉県","city":"羽生市","address":"南羽生"},
{"zip_code":"3480002","kana_pref":"ｻｲﾀﾏｹﾝ","kana_city":"ﾊﾆｭｳｼ","kana_address":"ﾐｮｳ","pref":"埼玉県","city":"羽生市","address":"名"},
{"zip_code":"3480004","kana_pref":"ｻｲﾀﾏｹﾝ","kana_city":"ﾊﾆｭｳｼ","kana_address":"ﾐﾛｸ","pref":"埼玉県","city":"羽生市","address":"弥勒"},
{"zip_code":"3480012","kana_pref":"ｻｲﾀﾏｹﾝ","kana_city":"ﾊﾆｭｳｼ","kana_address":"ﾖﾍｴｼﾝﾃﾞﾝ","pref":"埼玉県","city":"羽生市","address":"与兵エ新田"}]}