{"zip_code":[
{"zip_code":"3491221","kana_pref":"ﾄﾁｷﾞｹﾝ","kana_city":"ﾄﾁｷﾞｼ","kana_address":"ﾌｼﾞｵｶﾏﾁｼﾀﾐﾔ","pref":"栃木県","city":"栃木市","address":"藤岡町下宮"},
{"zip_code":"3491144","kana_pref":"ｻｲﾀﾏｹﾝ","kana_city":"ｶｿﾞｼ","kana_address":"ｱｻﾞﾏ","pref":"埼玉県","city":"加須市","address":"阿佐間"},
{"zip_code":"3491146","kana_pref":"ｻｲﾀﾏｹﾝ","kana_city":"ｶｿﾞｼ","kana_address":"ｱﾗｲｼﾝﾃﾞﾝ","pref":"埼玉県","city":"加須市","address":"新井新田"},
{"zip_code":"3491211","kana_pref":"ｻｲﾀﾏｹﾝ","kana_city":"ｶｿﾞｼ","kana_address":"ｲｲﾂﾞﾐ","pref":"埼玉県","city":"加須市","address":"飯積"},
{"zip_code":"3491215","kana_pref":"ｻｲﾀﾏｹﾝ","kana_city":"ｶｿﾞｼ","kana_address":"ｲｶﾞﾌｸﾛ","pref":"埼玉県","city":"加須市","address":"伊賀袋"},
{"zip_code":"3491143","kana_pref":"ｻｲﾀﾏｹﾝ","kana_city":"ｶｿﾞｼ","kana_address":"ｵｲﾃﾞ","pref":"埼玉県","city":"加須市","address":"生出"},
{"zip_code":"3491202","kana_pref":"ｻｲﾀﾏｹﾝ","kana_city":"ｶｿﾞｼ","kana_address":"ｵﾉﾌｸﾛ","pref":"埼玉県","city":"加須市","address":"小野袋"},
{"zip_code":"3491203","kana_pref":"ｻｲﾀﾏｹﾝ","kana_city":"ｶｿﾞｼ","kana_address":"ｶｼﾜﾄﾞ","pref":"埼玉県","city":"加須市","address":"柏戸"},
{"zip_code":"3491147","kana_pref":"ｻｲﾀﾏｹﾝ","kana_city":"ｶｿﾞｼ","kana_address":"ｷﾀｵｵｸﾜ","pref":"埼玉県","city":"加須市","address":"北大桑"},
{"zip_code":"3491134","kana_pref":"ｻｲﾀﾏｹﾝ","kana_city":"ｶｿﾞｼ","kana_address":"ｷﾀｼﾓｱﾗｲ","pref":"埼玉県","city":"加須市","address":"北下新井"},
{"zip_code":"3491135","kana_pref":"ｻｲﾀﾏｹﾝ","kana_city":"ｶｿﾞｼ","kana_address":"ｷﾀﾋﾗﾉ","pref":"埼玉県","city":"加須市","address":"北平野"},
{"zip_code":"3491154","kana_pref":"ｻｲﾀﾏｹﾝ","kana_city":"ｶｿﾞｼ","kana_address":"ｹﾞｷｼﾝﾃﾞﾝ","pref":"埼玉県","city":"加須市","address":"外記新田"},
{"zip_code":"3491133","kana_pref":"ｻｲﾀﾏｹﾝ","kana_city":"ｶｿﾞｼ","kana_address":"ｺﾄﾖﾘ","pref":"埼玉県","city":"加須市","address":"琴寄"},
{"zip_code":"3491214","kana_pref":"ｻｲﾀﾏｹﾝ","kana_city":"ｶｿﾞｼ","kana_address":"ｺﾏﾊﾞ","pref":"埼玉県","city":"加須市","address":"駒場"},
{"zip_code":"3491213","kana_pref":"ｻｲﾀﾏｹﾝ","kana_city":"ｶｿﾞｼ","kana_address":"ｻｶｴ","pref":"埼玉県","city":"加須市","address":"栄"},
{"zip_code":"3491151","kana_pref":"ｻｲﾀﾏｹﾝ","kana_city":"ｶｿﾞｼ","kana_address":"ｻﾞﾜ","pref":"埼玉県","city":"加須市","address":"佐波"},
{"zip_code":"3491142","kana_pref":"ｻｲﾀﾏｹﾝ","kana_city":"ｶｿﾞｼ","kana_address":"ｼｬｸｼｷﾞ","pref":"埼玉県","city":"加須市","address":"杓子木"},
{"zip_code":"3491153","kana_pref":"ｻｲﾀﾏｹﾝ","kana_city":"ｶｿﾞｼ","kana_address":"ｼﾝｶﾜﾄﾞｵﾘ","pref":"埼玉県","city":"加須市","address":"新川通"},
{"zip_code":"3491158","kana_pref":"ｻｲﾀﾏｹﾝ","kana_city":"ｶｿﾞｼ","kana_address":"ｼﾝﾄﾈ","pref":"埼玉県","city":"加須市","address":"新利根"},
{"zip_code":"3491155","kana_pref":"ｻｲﾀﾏｹﾝ","kana_city":"ｶｿﾞｼ","kana_address":"ｽﾅﾊﾗ","pref":"埼玉県","city":"加須市","address":"砂原"},
{"zip_code":"3491157","kana_pref":"ｻｲﾀﾏｹﾝ","kana_city":"ｶｿﾞｼ","kana_address":"ﾄﾞｳﾒ","pref":"埼玉県","city":"加須市","address":"道目"},
{"zip_code":"3491148","kana_pref":"ｻｲﾀﾏｹﾝ","kana_city":"ｶｿﾞｼ","kana_address":"ﾄﾖﾉﾀﾞｲ","pref":"埼玉県","city":"加須市","address":"豊野台"},
{"zip_code":"3491131","kana_pref":"ｻｲﾀﾏｹﾝ","kana_city":"ｶｿﾞｼ","kana_address":"ﾅｶﾜﾀ","pref":"埼玉県","city":"加須市","address":"中渡"},
{"zip_code":"3491132","kana_pref":"ｻｲﾀﾏｹﾝ","kana_city":"ｶｿﾞｼ","kana_address":"ﾊﾀｲ","pref":"埼玉県","city":"加須市","address":"旗井"},
{"zip_code":"3491156","kana_pref":"ｻｲﾀﾏｹﾝ","kana_city":"ｶｿﾞｼ","kana_address":"ﾎｿﾏ","pref":"埼玉県","city":"加須市","address":"細間"},
{"zip_code":"3491216","kana_pref":"ｻｲﾀﾏｹﾝ","kana_city":"ｶｿﾞｼ","kana_address":"ﾎﾝｺﾞｳ","pref":"埼玉県","city":"加須市","address":"本郷"},
{"zip_code":"3491145","kana_pref":"ｻｲﾀﾏｹﾝ","kana_city":"ｶｿﾞｼ","kana_address":"ﾏｸﾁ","pref":"埼玉県","city":"加須市","address":"間口"},
{"zip_code":"3491141","kana_pref":"ｻｲﾀﾏｹﾝ","kana_city":"ｶｿﾞｼ","kana_address":"ﾏﾂﾅｶﾞｼﾝﾃﾞﾝ","pref":"埼玉県","city":"加須市","address":"松永新田"},
{"zip_code":"3491205","kana_pref":"ｻｲﾀﾏｹﾝ","kana_city":"ｶｿﾞｼ","kana_address":"ﾑｶｲｺｶﾞ","pref":"埼玉県","city":"加須市","address":"向古河"},
{"zip_code":"3491212","kana_pref":"ｻｲﾀﾏｹﾝ","kana_city":"ｶｿﾞｼ","kana_address":"ﾑｷﾞｸﾗ","pref":"埼玉県","city":"加須市","address":"麦倉"},
{"zip_code":"3491201","kana_pref":"ｻｲﾀﾏｹﾝ","kana_city":"ｶｿﾞｼ","kana_address":"ﾔｷﾞｭｳ","pref":"埼玉県","city":"加須市","address":"柳生"},
{"zip_code":"3491152","kana_pref":"ｻｲﾀﾏｹﾝ","kana_city":"ｶｿﾞｼ","kana_address":"ﾔﾍｴ","pref":"埼玉県","city":"加須市","address":"弥兵衛"},
{"zip_code":"3491204","kana_pref":"ｻｲﾀﾏｹﾝ","kana_city":"ｶｿﾞｼ","kana_address":"ﾖｳｺｳﾀﾞｲ","pref":"埼玉県","city":"加須市","address":"陽光台"},
{"zip_code":"3491115","kana_pref":"ｻｲﾀﾏｹﾝ","kana_city":"ｸｷｼ","kana_address":"ｱﾗｲ","pref":"埼玉県","city":"久喜市","address":"新井"},
{"zip_code":"3491121","kana_pref":"ｻｲﾀﾏｹﾝ","kana_city":"ｸｷｼ","kana_address":"ｲｻｶ","pref":"埼玉県","city":"久喜市","address":"伊坂"},
{"zip_code":"3491114","kana_pref":"ｻｲﾀﾏｹﾝ","kana_city":"ｸｷｼ","kana_address":"ｶﾜﾗﾀﾞｲ","pref":"埼玉県","city":"久喜市","address":"河原代"},
{"zip_code":"3491111","kana_pref":"ｻｲﾀﾏｹﾝ","kana_city":"ｸｷｼ","kana_address":"ｷﾀﾋﾛｼﾏ","pref":"埼玉県","city":"久喜市","address":"北広島"},
{"zip_code":"3491113","kana_pref":"ｻｲﾀﾏｹﾝ","kana_city":"ｸｷｼ","kana_address":"ｷﾂﾈﾂﾞｶ","pref":"埼玉県","city":"久喜市","address":"狐塚"},
{"zip_code":"3491104","kana_pref":"ｻｲﾀﾏｹﾝ","kana_city":"ｸｷｼ","kana_address":"ｸﾘﾊｼ","pref":"埼玉県","city":"久喜市","address":"栗橋"},
{"zip_code":"3491101","kana_pref":"ｻｲﾀﾏｹﾝ","kana_city":"ｸｷｼ","kana_address":"ｸﾘﾊｼｷﾀ","pref":"埼玉県","city":"久喜市","address":"栗橋北"},
{"zip_code":"3491102","kana_pref":"ｻｲﾀﾏｹﾝ","kana_city":"ｸｷｼ","kana_address":"ｸﾘﾊｼﾁｭｳｵｳ","pref":"埼玉県","city":"久喜市","address":"栗橋中央"},
{"zip_code":"3491103","kana_pref":"ｻｲﾀﾏｹﾝ","kana_city":"ｸｷｼ","kana_address":"ｸﾘﾊｼﾋｶﾞｼ","pref":"埼玉県","city":"久喜市","address":"栗橋東"},
{"zip_code":"3491105","kana_pref":"ｻｲﾀﾏｹﾝ","kana_city":"ｸｷｼ","kana_address":"ｺｴﾓﾝ","pref":"埼玉県","city":"久喜市","address":"小右衛門"},
{"zip_code":"3491124","kana_pref":"ｻｲﾀﾏｹﾝ","kana_city":"ｸｷｼ","kana_address":"ｻﾏ","pref":"埼玉県","city":"久喜市","address":"佐間"},
{"zip_code":"3491116","kana_pref":"ｻｲﾀﾏｹﾝ","kana_city":"ｸｷｼ","kana_address":"ｼﾏｶﾞﾜ","pref":"埼玉県","city":"久喜市","address":"島川"},
{"zip_code":"3491125","kana_pref":"ｻｲﾀﾏｹﾝ","kana_city":"ｸｷｼ","kana_address":"ﾀｶﾔﾅｷﾞ","pref":"埼玉県","city":"久喜市","address":"高柳"},
{"zip_code":"3491112","kana_pref":"ｻｲﾀﾏｹﾝ","kana_city":"ｸｷｼ","kana_address":"ﾅｶｻﾞﾄ","pref":"埼玉県","city":"久喜市","address":"中里"},
{"zip_code":"3491123","kana_pref":"ｻｲﾀﾏｹﾝ","kana_city":"ｸｷｼ","kana_address":"ﾏｶﾞﾏ","pref":"埼玉県","city":"久喜市","address":"間鎌"},
{"zip_code":"3491122","kana_pref":"ｻｲﾀﾏｹﾝ","kana_city":"ｸｷｼ","kana_address":"ﾏﾂﾅｶﾞ","pref":"埼玉県","city":"久喜市","address":"松永"},
{"zip_code":"3491106","kana_pref":"ｻｲﾀﾏｹﾝ","kana_city":"ｸｷｼ","kana_address":"ﾐﾄﾞﾘ","pref":"埼玉県","city":"久喜市","address":"緑"},
{"zip_code":"3491117","kana_pref":"ｻｲﾀﾏｹﾝ","kana_city":"ｸｷｼ","kana_address":"ﾐﾅﾐｸﾘﾊｼ","pref":"埼玉県","city":"久喜市","address":"南栗橋"},
{"zip_code":"3490100","kana_pref":"ｻｲﾀﾏｹﾝ","kana_city":"ﾊｽﾀﾞｼ","kana_address":"","pref":"埼玉県","city":"蓮田市","address":""},
{"zip_code":"3490126","kana_pref":"ｻｲﾀﾏｹﾝ","kana_city":"ﾊｽﾀﾞｼ","kana_address":"ｱﾔｾ","pref":"埼玉県","city":"蓮田市","address":"綾瀬"},
{"zip_code":"3490135","kana_pref":"ｻｲﾀﾏｹﾝ","kana_city":"ﾊｽﾀﾞｼ","kana_address":"ｲﾇﾏ","pref":"埼玉県","city":"蓮田市","address":"井沼"},
{"zip_code":"3490133","kana_pref":"ｻｲﾀﾏｹﾝ","kana_city":"ﾊｽﾀﾞｼ","kana_address":"ｳﾙｲﾄﾞ","pref":"埼玉県","city":"蓮田市","address":"閏戸"},
{"zip_code":"3490102","kana_pref":"ｻｲﾀﾏｹﾝ","kana_city":"ﾊｽﾀﾞｼ","kana_address":"ｴｶﾞｻｷ","pref":"埼玉県","city":"蓮田市","address":"江ケ崎"},
{"zip_code":"3490125","kana_pref":"ｻｲﾀﾏｹﾝ","kana_city":"ﾊｽﾀﾞｼ","kana_address":"ｵﾏｴﾊﾞｼ","pref":"埼玉県","city":"蓮田市","address":"御前橋"},
{"zip_code":"3490132","kana_pref":"ｻｲﾀﾏｹﾝ","kana_city":"ﾊｽﾀﾞｼ","kana_address":"ｶｲﾂﾞｶ","pref":"埼玉県","city":"蓮田市","address":"貝塚"},
{"zip_code":"3490122","kana_pref":"ｻｲﾀﾏｹﾝ","kana_city":"ﾊｽﾀﾞｼ","kana_address":"ｶﾐ","pref":"埼玉県","city":"蓮田市","address":"上"},
{"zip_code":"3490136","kana_pref":"ｻｲﾀﾏｹﾝ","kana_city":"ﾊｽﾀﾞｼ","kana_address":"ｶﾐﾋﾗﾉ","pref":"埼玉県","city":"蓮田市","address":"上平野"},
{"zip_code":"3490112","kana_pref":"ｻｲﾀﾏｹﾝ","kana_city":"ﾊｽﾀﾞｼ","kana_address":"ｶﾜｼﾞﾏ","pref":"埼玉県","city":"蓮田市","address":"川島"},
{"zip_code":"3490101","kana_pref":"ｻｲﾀﾏｹﾝ","kana_city":"ﾊｽﾀﾞｼ","kana_address":"ｸﾛﾊﾏ","pref":"埼玉県","city":"蓮田市","address":"黒浜"},
{"zip_code":"3490134","kana_pref":"ｻｲﾀﾏｹﾝ","kana_city":"ﾊｽﾀﾞｼ","kana_address":"ｺﾏｻｷ","pref":"埼玉県","city":"蓮田市","address":"駒崎"},
{"zip_code":"3490113","kana_pref":"ｻｲﾀﾏｹﾝ","kana_city":"ﾊｽﾀﾞｼ","kana_address":"ｻｸﾗﾀﾞｲ","pref":"埼玉県","city":"蓮田市","address":"桜台"},
{"zip_code":"3490103","kana_pref":"ｻｲﾀﾏｹﾝ","kana_city":"ﾊｽﾀﾞｼ","kana_address":"ｻｻﾔﾏ","pref":"埼玉県","city":"蓮田市","address":"笹山"},
{"zip_code":"3490143","kana_pref":"ｻｲﾀﾏｹﾝ","kana_city":"ﾊｽﾀﾞｼ","kana_address":"ｼﾞｮｳ","pref":"埼玉県","city":"蓮田市","address":"城"},
{"zip_code":"3490124","kana_pref":"ｻｲﾀﾏｹﾝ","kana_city":"ﾊｽﾀﾞｼ","kana_address":"ｽｴﾋﾛ","pref":"埼玉県","city":"蓮田市","address":"末広"},
{"zip_code":"3490121","kana_pref":"ｻｲﾀﾏｹﾝ","kana_city":"ﾊｽﾀﾞｼ","kana_address":"ｾｷﾔﾏ","pref":"埼玉県","city":"蓮田市","address":"関山"},
{"zip_code":"3490137","kana_pref":"ｻｲﾀﾏｹﾝ","kana_city":"ﾊｽﾀﾞｼ","kana_address":"ﾀｶﾑｼ","pref":"埼玉県","city":"蓮田市","address":"高虫"},
{"zip_code":"3490144","kana_pref":"ｻｲﾀﾏｹﾝ","kana_city":"ﾊｽﾀﾞｼ","kana_address":"ﾂﾊﾞｷﾔﾏ","pref":"埼玉県","city":"蓮田市","address":"椿山"},
{"zip_code":"3490141","kana_pref":"ｻｲﾀﾏｹﾝ","kana_city":"ﾊｽﾀﾞｼ","kana_address":"ﾆｼｼﾝｼｭｸ","pref":"埼玉県","city":"蓮田市","address":"西新宿"},
{"zip_code":"3490145","kana_pref":"ｻｲﾀﾏｹﾝ","kana_city":"ﾊｽﾀﾞｼ","kana_address":"ﾆｼｼﾞｮｳ","pref":"埼玉県","city":"蓮田市","address":"西城"},
{"zip_code":"3490131","kana_pref":"ｻｲﾀﾏｹﾝ","kana_city":"ﾊｽﾀﾞｼ","kana_address":"ﾈｶﾞﾈ","pref":"埼玉県","city":"蓮田市","address":"根金"},
{"zip_code":"3490115","kana_pref":"ｻｲﾀﾏｹﾝ","kana_city":"ﾊｽﾀﾞｼ","kana_address":"ﾊｽﾀﾞ","pref":"埼玉県","city":"蓮田市","address":"蓮田"},
{"zip_code":"3490111","kana_pref":"ｻｲﾀﾏｹﾝ","kana_city":"ﾊｽﾀﾞｼ","kana_address":"ﾋｶﾞｼ","pref":"埼玉県","city":"蓮田市","address":"東"},
{"zip_code":"3490123","kana_pref":"ｻｲﾀﾏｹﾝ","kana_city":"ﾊｽﾀﾞｼ","kana_address":"ﾎﾝﾁｮｳ","pref":"埼玉県","city":"蓮田市","address":"本町"},
{"zip_code":"3490114","kana_pref":"ｻｲﾀﾏｹﾝ","kana_city":"ﾊｽﾀﾞｼ","kana_address":"ﾏｺﾞﾒ","pref":"埼玉県","city":"蓮田市","address":"馬込"},
{"zip_code":"3490104","kana_pref":"ｻｲﾀﾏｹﾝ","kana_city":"ﾊｽﾀﾞｼ","kana_address":"ﾐﾄﾞﾘﾁｮｳ","pref":"埼玉県","city":"蓮田市","address":"緑町"},
{"zip_code":"3490142","kana_pref":"ｻｲﾀﾏｹﾝ","kana_city":"ﾊｽﾀﾞｼ","kana_address":"ﾐﾅﾐｼﾝｼｭｸ","pref":"埼玉県","city":"蓮田市","address":"南新宿"},
{"zip_code":"3490127","kana_pref":"ｻｲﾀﾏｹﾝ","kana_city":"ﾊｽﾀﾞｼ","kana_address":"ﾐﾇﾏﾁｮｳ","pref":"埼玉県","city":"蓮田市","address":"見沼町"},
{"zip_code":"3490128","kana_pref":"ｻｲﾀﾏｹﾝ","kana_city":"ﾊｽﾀﾞｼ","kana_address":"ﾔﾏﾉｳﾁ","pref":"埼玉県","city":"蓮田市","address":"山ノ内"},
{"zip_code":"3490200","kana_pref":"ｻｲﾀﾏｹﾝ","kana_city":"ﾐﾅﾐｻｲﾀﾏｸﾞﾝｼﾗｵｶﾏﾁ","kana_address":"","pref":"埼玉県","city":"南埼玉郡白岡町","address":""},
{"zip_code":"3490202","kana_pref":"ｻｲﾀﾏｹﾝ","kana_city":"ﾐﾅﾐｻｲﾀﾏｸﾞﾝｼﾗｵｶﾏﾁ","kana_address":"ｱﾗｲｼﾝﾃﾞﾝ","pref":"埼玉県","city":"南埼玉郡白岡町","address":"荒井新田"},
{"zip_code":"3490225","kana_pref":"ｻｲﾀﾏｹﾝ","kana_city":"ﾐﾅﾐｻｲﾀﾏｸﾞﾝｼﾗｵｶﾏﾁ","kana_address":"ｵｵﾀｱﾗｲ","pref":"埼玉県","city":"南埼玉郡白岡町","address":"太田新井"},
{"zip_code":"3490226","kana_pref":"ｻｲﾀﾏｹﾝ","kana_city":"ﾐﾅﾐｻｲﾀﾏｸﾞﾝｼﾗｵｶﾏﾁ","kana_address":"ｵｶｲｽﾞﾐ","pref":"埼玉県","city":"南埼玉郡白岡町","address":"岡泉"},
{"zip_code":"3490221","kana_pref":"ｻｲﾀﾏｹﾝ","kana_city":"ﾐﾅﾐｻｲﾀﾏｸﾞﾝｼﾗｵｶﾏﾁ","kana_address":"ｶﾐﾉﾀﾞ","pref":"埼玉県","city":"南埼玉郡白岡町","address":"上野田"},
{"zip_code":"3490217","kana_pref":"ｻｲﾀﾏｹﾝ","kana_city":"ﾐﾅﾐｻｲﾀﾏｸﾞﾝｼﾗｵｶﾏﾁ","kana_address":"ｺｸﾞｷ","pref":"埼玉県","city":"南埼玉郡白岡町","address":"小久喜"},
{"zip_code":"3490216","kana_pref":"ｻｲﾀﾏｹﾝ","kana_city":"ﾐﾅﾐｻｲﾀﾏｸﾞﾝｼﾗｵｶﾏﾁ","kana_address":"ｻﾅｶﾞﾔ","pref":"埼玉県","city":"南埼玉郡白岡町","address":"実ケ谷"},
{"zip_code":"3490204","kana_pref":"ｻｲﾀﾏｹﾝ","kana_city":"ﾐﾅﾐｻｲﾀﾏｸﾞﾝｼﾗｵｶﾏﾁ","kana_address":"ｼﾉﾂﾞ","pref":"埼玉県","city":"南埼玉郡白岡町","address":"篠津"},
{"zip_code":"3490201","kana_pref":"ｻｲﾀﾏｹﾝ","kana_city":"ﾐﾅﾐｻｲﾀﾏｸﾞﾝｼﾗｵｶﾏﾁ","kana_address":"ｼﾊﾞﾔﾏ","pref":"埼玉県","city":"南埼玉郡白岡町","address":"柴山"},
{"zip_code":"3490203","kana_pref":"ｻｲﾀﾏｹﾝ","kana_city":"ﾐﾅﾐｻｲﾀﾏｸﾞﾝｼﾗｵｶﾏﾁ","kana_address":"ｼﾓｵｵｻｷ","pref":"埼玉県","city":"南埼玉郡白岡町","address":"下大崎"},
{"zip_code":"3490223","kana_pref":"ｻｲﾀﾏｹﾝ","kana_city":"ﾐﾅﾐｻｲﾀﾏｸﾞﾝｼﾗｵｶﾏﾁ","kana_address":"ｼﾓﾉﾀﾞ","pref":"埼玉県","city":"南埼玉郡白岡町","address":"下野田"},
{"zip_code":"3490218","kana_pref":"ｻｲﾀﾏｹﾝ","kana_city":"ﾐﾅﾐｻｲﾀﾏｸﾞﾝｼﾗｵｶﾏﾁ","kana_address":"ｼﾗｵｶ","pref":"埼玉県","city":"南埼玉郡白岡町","address":"白岡"},
{"zip_code":"3490219","kana_pref":"ｻｲﾀﾏｹﾝ","kana_city":"ﾐﾅﾐｻｲﾀﾏｸﾞﾝｼﾗｵｶﾏﾁ","kana_address":"ｼﾗｵｶﾋｶﾞｼ","pref":"埼玉県","city":"南埼玉郡白岡町","address":"白岡東"},
{"zip_code":"3490212","kana_pref":"ｻｲﾀﾏｹﾝ","kana_city":"ﾐﾅﾐｻｲﾀﾏｸﾞﾝｼﾗｵｶﾏﾁ","kana_address":"ｼﾝｼﾗｵｶ","pref":"埼玉県","city":"南埼玉郡白岡町","address":"新白岡"},
{"zip_code":"3490215","kana_pref":"ｻｲﾀﾏｹﾝ","kana_city":"ﾐﾅﾐｻｲﾀﾏｸﾞﾝｼﾗｵｶﾏﾁ","kana_address":"ｾﾝﾀﾞﾉ","pref":"埼玉県","city":"南埼玉郡白岡町","address":"千駄野"},
{"zip_code":"3490213","kana_pref":"ｻｲﾀﾏｹﾝ","kana_city":"ﾐﾅﾐｻｲﾀﾏｸﾞﾝｼﾗｵｶﾏﾁ","kana_address":"ﾀｶｲﾜ","pref":"埼玉県","city":"南埼玉郡白岡町","address":"高岩"},
{"zip_code":"3490222","kana_pref":"ｻｲﾀﾏｹﾝ","kana_city":"ﾐﾅﾐｻｲﾀﾏｸﾞﾝｼﾗｵｶﾏﾁ","kana_address":"ﾂﾒﾀｶﾞﾔ","pref":"埼玉県","city":"南埼玉郡白岡町","address":"爪田ケ谷"},
{"zip_code":"3490214","kana_pref":"ｻｲﾀﾏｹﾝ","kana_city":"ﾐﾅﾐｻｲﾀﾏｸﾞﾝｼﾗｵｶﾏﾁ","kana_address":"ﾃﾗﾂｶ","pref":"埼玉県","city":"南埼玉郡白岡町","address":"寺塚"},
{"zip_code":"3490205","kana_pref":"ｻｲﾀﾏｹﾝ","kana_city":"ﾐﾅﾐｻｲﾀﾏｸﾞﾝｼﾗｵｶﾏﾁ","kana_address":"ﾆｼ","pref":"埼玉県","city":"南埼玉郡白岡町","address":"西"},
{"zip_code":"3490224","kana_pref":"ｻｲﾀﾏｹﾝ","kana_city":"ﾐﾅﾐｻｲﾀﾏｸﾞﾝｼﾗｵｶﾏﾁ","kana_address":"ﾋｺﾍﾞｴ","pref":"埼玉県","city":"南埼玉郡白岡町","address":"彦兵衛"},
{"zip_code":"3490211","kana_pref":"ｻｲﾀﾏｹﾝ","kana_city":"ﾐﾅﾐｻｲﾀﾏｸﾞﾝｼﾗｵｶﾏﾁ","kana_address":"ﾔｷﾞｭｳ","pref":"埼玉県","city":"南埼玉郡白岡町","address":"野牛"}]}