{"zip_code":[
{"zip_code":"3501100","kana_pref":"ｻｲﾀﾏｹﾝ","kana_city":"ｶﾜｺﾞｴｼ","kana_address":"","pref":"埼玉県","city":"川越市","address":""},
{"zip_code":"3501173","kana_pref":"ｻｲﾀﾏｹﾝ","kana_city":"ｶﾜｺﾞｴｼ","kana_address":"ｱｲﾅｼﾝﾃﾞﾝ","pref":"埼玉県","city":"川越市","address":"安比奈新田"},
{"zip_code":"3501164","kana_pref":"ｻｲﾀﾏｹﾝ","kana_city":"ｶﾜｺﾞｴｼ","kana_address":"ｱｵﾔｷﾞ","pref":"埼玉県","city":"川越市","address":"青柳"},
{"zip_code":"3501126","kana_pref":"ｻｲﾀﾏｹﾝ","kana_city":"ｶﾜｺﾞｴｼ","kana_address":"ｱｻﾋﾁｮｳ","pref":"埼玉県","city":"川越市","address":"旭町"},
{"zip_code":"3500806","kana_pref":"ｻｲﾀﾏｹﾝ","kana_city":"ｶﾜｺﾞｴｼ","kana_address":"ｱﾏﾇﾏｼﾝﾃﾞﾝ","pref":"埼玉県","city":"川越市","address":"天沼新田"},
{"zip_code":"3501125","kana_pref":"ｻｲﾀﾏｹﾝ","kana_city":"ｶﾜｺﾞｴｼ","kana_address":"ｱﾗｼﾞｭｸ","pref":"埼玉県","city":"川越市","address":"新宿"},
{"zip_code":"3501124","kana_pref":"ｻｲﾀﾏｹﾝ","kana_city":"ｶﾜｺﾞｴｼ","kana_address":"ｱﾗｼﾞｭｸﾏﾁ","pref":"埼玉県","city":"川越市","address":"新宿町"},
{"zip_code":"3501171","kana_pref":"ｻｲﾀﾏｹﾝ","kana_city":"ｶﾜｺﾞｴｼ","kana_address":"ｲｹﾉﾍﾞ","pref":"埼玉県","city":"川越市","address":"池辺"},
{"zip_code":"3500855","kana_pref":"ｻｲﾀﾏｹﾝ","kana_city":"ｶﾜｺﾞｴｼ","kana_address":"ｲｻﾇﾏ","pref":"埼玉県","city":"川越市","address":"伊佐沼"},
{"zip_code":"3500837","kana_pref":"ｻｲﾀﾏｹﾝ","kana_city":"ｶﾜｺﾞｴｼ","kana_address":"ｲｼﾀﾞ","pref":"埼玉県","city":"川越市","address":"石田"},
{"zip_code":"3500835","kana_pref":"ｻｲﾀﾏｹﾝ","kana_city":"ｶﾜｺﾞｴｼ","kana_address":"ｲｼﾀﾞﾎﾝｺﾞｳ","pref":"埼玉県","city":"川越市","address":"石田本郷"},
{"zip_code":"3500824","kana_pref":"ｻｲﾀﾏｹﾝ","kana_city":"ｶﾜｺﾞｴｼ","kana_address":"ｲｼﾜﾗﾏﾁ","pref":"埼玉県","city":"川越市","address":"石原町"},
{"zip_code":"3500026","kana_pref":"ｻｲﾀﾏｹﾝ","kana_city":"ｶﾜｺﾞｴｼ","kana_address":"ｲｽﾞﾐﾁｮｳ","pref":"埼玉県","city":"川越市","address":"泉町"},
{"zip_code":"3501108","kana_pref":"ｻｲﾀﾏｹﾝ","kana_city":"ｶﾜｺﾞｴｼ","kana_address":"ｲｾﾊﾗﾁｮｳ","pref":"埼玉県","city":"川越市","address":"伊勢原町"},
{"zip_code":"3501144","kana_pref":"ｻｲﾀﾏｹﾝ","kana_city":"ｶﾜｺﾞｴｼ","kana_address":"ｲﾅﾘﾁｮｳ","pref":"埼玉県","city":"川越市","address":"稲荷町"},
{"zip_code":"3500015","kana_pref":"ｻｲﾀﾏｹﾝ","kana_city":"ｶﾜｺﾞｴｼ","kana_address":"ｲﾏｲｽﾞﾐ","pref":"埼玉県","city":"川越市","address":"今泉"},
{"zip_code":"3501105","kana_pref":"ｻｲﾀﾏｹﾝ","kana_city":"ｶﾜｺﾞｴｼ","kana_address":"ｲﾏﾅﾘ","pref":"埼玉県","city":"川越市","address":"今成"},
{"zip_code":"3501151","kana_pref":"ｻｲﾀﾏｹﾝ","kana_city":"ｶﾜｺﾞｴｼ","kana_address":"ｲﾏﾌｸ","pref":"埼玉県","city":"川越市","address":"今福"},
{"zip_code":"3500017","kana_pref":"ｻｲﾀﾏｹﾝ","kana_city":"ｶﾜｺﾞｴｼ","kana_address":"ｳｼｺ","pref":"埼玉県","city":"川越市","address":"牛子"},
{"zip_code":"3500816","kana_pref":"ｻｲﾀﾏｹﾝ","kana_city":"ｶﾜｺﾞｴｼ","kana_address":"ｳﾜﾄﾞ","pref":"埼玉県","city":"川越市","address":"上戸"},
{"zip_code":"3500817","kana_pref":"ｻｲﾀﾏｹﾝ","kana_city":"ｶﾜｺﾞｴｼ","kana_address":"ｳﾜﾄﾞｼﾝﾏﾁ","pref":"埼玉県","city":"川越市","address":"上戸新町"},
{"zip_code":"3501134","kana_pref":"ｻｲﾀﾏｹﾝ","kana_city":"ｶﾜｺﾞｴｼ","kana_address":"ｵｳｷﾞｶﾞｼ","pref":"埼玉県","city":"川越市","address":"扇河岸"},
{"zip_code":"3500032","kana_pref":"ｻｲﾀﾏｹﾝ","kana_city":"ｶﾜｺﾞｴｼ","kana_address":"ｵｵｾﾝﾊﾞ","pref":"埼玉県","city":"川越市","address":"大仙波"},
{"zip_code":"3501128","kana_pref":"ｻｲﾀﾏｹﾝ","kana_city":"ｶﾜｺﾞｴｼ","kana_address":"ｵｵｾﾝﾊﾞｼﾝﾃﾞﾝ","pref":"埼玉県","city":"川越市","address":"大仙波新田"},
{"zip_code":"3501129","kana_pref":"ｻｲﾀﾏｹﾝ","kana_city":"ｶﾜｺﾞｴｼ","kana_address":"ｵｵﾂｶ","pref":"埼玉県","city":"川越市","address":"大塚"},
{"zip_code":"3501161","kana_pref":"ｻｲﾀﾏｹﾝ","kana_city":"ｶﾜｺﾞｴｼ","kana_address":"ｵｵﾂｶｼﾝﾃﾞﾝ","pref":"埼玉県","city":"川越市","address":"大塚新田"},
{"zip_code":"3501178","kana_pref":"ｻｲﾀﾏｹﾝ","kana_city":"ｶﾜｺﾞｴｼ","kana_address":"ｵｵﾂｶｼﾝﾏﾁ","pref":"埼玉県","city":"川越市","address":"大塚新町"},
{"zip_code":"3500057","kana_pref":"ｻｲﾀﾏｹﾝ","kana_city":"ｶﾜｺﾞｴｼ","kana_address":"ｵｵﾃﾏﾁ","pref":"埼玉県","city":"川越市","address":"大手町"},
{"zip_code":"3500021","kana_pref":"ｻｲﾀﾏｹﾝ","kana_city":"ｶﾜｺﾞｴｼ","kana_address":"ｵｵﾅｶｲ","pref":"埼玉県","city":"川越市","address":"大中居"},
{"zip_code":"3501168","kana_pref":"ｻｲﾀﾏｹﾝ","kana_city":"ｶﾜｺﾞｴｼ","kana_address":"ｵｵﾌｸﾛ","pref":"埼玉県","city":"川越市","address":"大袋"},
{"zip_code":"3501167","kana_pref":"ｻｲﾀﾏｹﾝ","kana_city":"ｶﾜｺﾞｴｼ","kana_address":"ｵｵﾌｸﾛｼﾝﾃﾞﾝ","pref":"埼玉県","city":"川越市","address":"大袋新田"},
{"zip_code":"3501104","kana_pref":"ｻｲﾀﾏｹﾝ","kana_city":"ｶﾜｺﾞｴｼ","kana_address":"ｵｶﾞﾔ","pref":"埼玉県","city":"川越市","address":"小ケ谷"},
{"zip_code":"3500841","kana_pref":"ｻｲﾀﾏｹﾝ","kana_city":"ｶﾜｺﾞｴｼ","kana_address":"ｵﾅﾘﾁｮｳ","pref":"埼玉県","city":"川越市","address":"御成町"},
{"zip_code":"3500012","kana_pref":"ｻｲﾀﾏｹﾝ","kana_city":"ｶﾜｺﾞｴｼ","kana_address":"ｶｲﾇﾏ","pref":"埼玉県","city":"川越市","address":"萱沼"},
{"zip_code":"3501175","kana_pref":"ｻｲﾀﾏｹﾝ","kana_city":"ｶﾜｺﾞｴｼ","kana_address":"ｶｻﾊﾀ","pref":"埼玉県","city":"川越市","address":"笠幡"},
{"zip_code":"3501179","kana_pref":"ｻｲﾀﾏｹﾝ","kana_city":"ｶﾜｺﾞｴｼ","kana_address":"ｶｼﾉﾀﾞｲ","pref":"埼玉県","city":"川越市","address":"かし野台"},
{"zip_code":"3501103","kana_pref":"ｻｲﾀﾏｹﾝ","kana_city":"ｶﾜｺﾞｴｼ","kana_address":"ｶｽﾐｶﾞｾｷﾋｶﾞｼ","pref":"埼玉県","city":"川越市","address":"霞ケ関東"},
{"zip_code":"3501109","kana_pref":"ｻｲﾀﾏｹﾝ","kana_city":"ｶﾜｺﾞｴｼ","kana_address":"ｶｽﾐｶﾞｾｷｷﾀ","pref":"埼玉県","city":"川越市","address":"霞ケ関北"},
{"zip_code":"3501174","kana_pref":"ｻｲﾀﾏｹﾝ","kana_city":"ｶﾜｺﾞｴｼ","kana_address":"ｶｽﾐﾉ","pref":"埼玉県","city":"川越市","address":"かすみ野"},
{"zip_code":"3500845","kana_pref":"ｻｲﾀﾏｹﾝ","kana_city":"ｶﾜｺﾞｴｼ","kana_address":"ｶﾐｵｲﾌﾞｸﾛ","pref":"埼玉県","city":"川越市","address":"上老袋"},
{"zip_code":"3501135","kana_pref":"ｻｲﾀﾏｹﾝ","kana_city":"ｶﾜｺﾞｴｼ","kana_address":"ｶﾐｼﾝｶﾞｼ","pref":"埼玉県","city":"川越市","address":"上新河岸"},
{"zip_code":"3500826","kana_pref":"ｻｲﾀﾏｹﾝ","kana_city":"ｶﾜｺﾞｴｼ","kana_address":"ｶﾐﾃﾗﾔﾏ","pref":"埼玉県","city":"川越市","address":"上寺山"},
{"zip_code":"3501112","kana_pref":"ｻｲﾀﾏｹﾝ","kana_city":"ｶﾜｺﾞｴｼ","kana_address":"ｶﾐﾉﾀﾞﾏﾁ","pref":"埼玉県","city":"川越市","address":"上野田町"},
{"zip_code":"3501154","kana_pref":"ｻｲﾀﾏｹﾝ","kana_city":"ｶﾜｺﾞｴｼ","kana_address":"ｶﾐﾏﾂﾊﾞﾗ","pref":"埼玉県","city":"川越市","address":"上松原"},
{"zip_code":"3500844","kana_pref":"ｻｲﾀﾏｹﾝ","kana_city":"ｶﾜｺﾞｴｼ","kana_address":"ｶﾓﾀﾞ","pref":"埼玉県","city":"川越市","address":"鴨田"},
{"zip_code":"3500852","kana_pref":"ｻｲﾀﾏｹﾝ","kana_city":"ｶﾜｺﾞｴｼ","kana_address":"ｶﾜｺﾞｴ","pref":"埼玉県","city":"川越市","address":"川越"},
{"zip_code":"3501176","kana_pref":"ｻｲﾀﾏｹﾝ","kana_city":"ｶﾜｺﾞｴｼ","kana_address":"ｶﾜﾂﾙ","pref":"埼玉県","city":"川越市","address":"川鶴"},
{"zip_code":"3501177","kana_pref":"ｻｲﾀﾏｹﾝ","kana_city":"ｶﾜｺﾞｴｼ","kana_address":"ｶﾜﾂﾙﾐﾖｼﾉ","pref":"埼玉県","city":"川越市","address":"かわつる三芳野"},
{"zip_code":"3501132","kana_pref":"ｻｲﾀﾏｹﾝ","kana_city":"ｶﾜｺﾞｴｼ","kana_address":"ｷｼ","pref":"埼玉県","city":"川越市","address":"岸"},
{"zip_code":"3501131","kana_pref":"ｻｲﾀﾏｹﾝ","kana_city":"ｶﾜｺﾞｴｼ","kana_address":"ｷｼﾏﾁ","pref":"埼玉県","city":"川越市","address":"岸町"},
{"zip_code":"3500842","kana_pref":"ｻｲﾀﾏｹﾝ","kana_city":"ｶﾜｺﾞｴｼ","kana_address":"ｷﾀﾀｼﾞﾏ","pref":"埼玉県","city":"川越市","address":"北田島"},
{"zip_code":"3500061","kana_pref":"ｻｲﾀﾏｹﾝ","kana_city":"ｶﾜｺﾞｴｼ","kana_address":"ｷﾀﾏﾁ","pref":"埼玉県","city":"川越市","address":"喜多町"},
{"zip_code":"3500016","kana_pref":"ｻｲﾀﾏｹﾝ","kana_city":"ｶﾜｺﾞｴｼ","kana_address":"ｷﾉﾒ","pref":"埼玉県","city":"川越市","address":"木野目"},
{"zip_code":"3500011","kana_pref":"ｻｲﾀﾏｹﾝ","kana_city":"ｶﾜｺﾞｴｼ","kana_address":"ｸｹﾞﾄﾞ","pref":"埼玉県","city":"川越市","address":"久下戸"},
{"zip_code":"3500815","kana_pref":"ｻｲﾀﾏｹﾝ","kana_city":"ｶﾜｺﾞｴｼ","kana_address":"ｸｼﾞﾗｲ","pref":"埼玉県","city":"川越市","address":"鯨井"},
{"zip_code":"3500809","kana_pref":"ｻｲﾀﾏｹﾝ","kana_city":"ｶﾜｺﾞｴｼ","kana_address":"ｸｼﾞﾗｲｼﾝﾃﾞﾝ","pref":"埼玉県","city":"川越市","address":"鯨井新田"},
{"zip_code":"3500055","kana_pref":"ｻｲﾀﾏｹﾝ","kana_city":"ｶﾜｺﾞｴｼ","kana_address":"ｸﾎﾞﾏﾁ","pref":"埼玉県","city":"川越市","address":"久保町"},
{"zip_code":"3501146","kana_pref":"ｻｲﾀﾏｹﾝ","kana_city":"ｶﾜｺﾞｴｼ","kana_address":"ｸﾏﾉﾁｮｳ","pref":"埼玉県","city":"川越市","address":"熊野町"},
{"zip_code":"3500053","kana_pref":"ｻｲﾀﾏｹﾝ","kana_city":"ｶﾜｺﾞｴｼ","kana_address":"ｸﾙﾜﾏﾁ","pref":"埼玉県","city":"川越市","address":"郭町"},
{"zip_code":"3501117","kana_pref":"ｻｲﾀﾏｹﾝ","kana_city":"ｶﾜｺﾞｴｼ","kana_address":"ｺｳｴｲﾁｮｳ","pref":"埼玉県","city":"川越市","address":"広栄町"},
{"zip_code":"3500031","kana_pref":"ｻｲﾀﾏｹﾝ","kana_city":"ｶﾜｺﾞｴｼ","kana_address":"ｺｾﾝﾊﾞ","pref":"埼玉県","city":"川越市","address":"小仙波"},
{"zip_code":"3500036","kana_pref":"ｻｲﾀﾏｹﾝ","kana_city":"ｶﾜｺﾞｴｼ","kana_address":"ｺｾﾝﾊﾞﾏﾁ","pref":"埼玉県","city":"川越市","address":"小仙波町"},
{"zip_code":"3500811","kana_pref":"ｻｲﾀﾏｹﾝ","kana_city":"ｶﾜｺﾞｴｼ","kana_address":"ｺﾂﾞﾂﾐ","pref":"埼玉県","city":"川越市","address":"小堤"},
{"zip_code":"3501116","kana_pref":"ｻｲﾀﾏｹﾝ","kana_city":"ｶﾜｺﾞｴｼ","kana_address":"ｺﾄﾌﾞｷﾁｮｳ","pref":"埼玉県","city":"川越市","address":"寿町"},
{"zip_code":"3500022","kana_pref":"ｻｲﾀﾏｹﾝ","kana_city":"ｶﾜｺﾞｴｼ","kana_address":"ｺﾅｶｲ","pref":"埼玉県","city":"川越市","address":"小中居"},
{"zip_code":"3501106","kana_pref":"ｻｲﾀﾏｹﾝ","kana_city":"ｶﾜｺﾞｴｼ","kana_address":"ｺﾑﾛ","pref":"埼玉県","city":"川越市","address":"小室"},
{"zip_code":"3500063","kana_pref":"ｻｲﾀﾏｹﾝ","kana_city":"ｶﾜｺﾞｴｼ","kana_address":"ｻｲﾜｲﾁｮｳ","pref":"埼玉県","city":"川越市","address":"幸町"},
{"zip_code":"3500803","kana_pref":"ｻｲﾀﾏｹﾝ","kana_city":"ｶﾜｺﾞｴｼ","kana_address":"ｻｶｴ","pref":"埼玉県","city":"川越市","address":"栄"},
{"zip_code":"3500054","kana_pref":"ｻｲﾀﾏｹﾝ","kana_city":"ｶﾜｺﾞｴｼ","kana_address":"ｻﾝｸﾎﾞﾁｮｳ","pref":"埼玉県","city":"川越市","address":"三久保町"},
{"zip_code":"3500067","kana_pref":"ｻｲﾀﾏｹﾝ","kana_city":"ｶﾜｺﾞｴｼ","kana_address":"ｻﾝｺｳﾁｮｳ","pref":"埼玉県","city":"川越市","address":"三光町"},
{"zip_code":"3500834","kana_pref":"ｻｲﾀﾏｹﾝ","kana_city":"ｶﾜｺﾞｴｼ","kana_address":"ｼｼｶｲ","pref":"埼玉県","city":"川越市","address":"鹿飼"},
{"zip_code":"3500051","kana_pref":"ｻｲﾀﾏｹﾝ","kana_city":"ｶﾜｺﾞｴｼ","kana_address":"ｼﾀﾏﾁ","pref":"埼玉県","city":"川越市","address":"志多町"},
{"zip_code":"3500013","kana_pref":"ｻｲﾀﾏｹﾝ","kana_city":"ｶﾜｺﾞｴｼ","kana_address":"ｼﾌﾞｲ","pref":"埼玉県","city":"川越市","address":"渋井"},
{"zip_code":"3501145","kana_pref":"ｻｲﾀﾏｹﾝ","kana_city":"ｶﾜｺﾞｴｼ","kana_address":"ｼﾐｽﾞﾁｮｳ","pref":"埼玉県","city":"川越市","address":"清水町"},
{"zip_code":"3501155","kana_pref":"ｻｲﾀﾏｹﾝ","kana_city":"ｶﾜｺﾞｴｼ","kana_address":"ｼﾓｱｶｻｶ","pref":"埼玉県","city":"川越市","address":"下赤坂"},
{"zip_code":"3500848","kana_pref":"ｻｲﾀﾏｹﾝ","kana_city":"ｶﾜｺﾞｴｼ","kana_address":"ｼﾓｵｲﾌﾞｸﾛ","pref":"埼玉県","city":"川越市","address":"下老袋"},
{"zip_code":"3500812","kana_pref":"ｻｲﾀﾏｹﾝ","kana_city":"ｶﾜｺﾞｴｼ","kana_address":"ｼﾓｵｻｶ","pref":"埼玉県","city":"川越市","address":"下小坂"},
{"zip_code":"3501136","kana_pref":"ｻｲﾀﾏｹﾝ","kana_city":"ｶﾜｺﾞｴｼ","kana_address":"ｼﾓｼﾝｶﾞｼ","pref":"埼玉県","city":"川越市","address":"下新河岸"},
{"zip_code":"3500804","kana_pref":"ｻｲﾀﾏｹﾝ","kana_city":"ｶﾜｺﾞｴｼ","kana_address":"ｼﾓﾋﾛﾔ","pref":"埼玉県","city":"川越市","address":"下広谷"},
{"zip_code":"3501153","kana_pref":"ｻｲﾀﾏｹﾝ","kana_city":"ｶﾜｺﾞｴｼ","kana_address":"ｼﾓﾏﾂﾊﾞﾗ","pref":"埼玉県","city":"川越市","address":"下松原"},
{"zip_code":"3500853","kana_pref":"ｻｲﾀﾏｹﾝ","kana_city":"ｶﾜｺﾞｴｼ","kana_address":"ｼﾛｼﾀﾏﾁ","pref":"埼玉県","city":"川越市","address":"城下町"},
{"zip_code":"3500043","kana_pref":"ｻｲﾀﾏｹﾝ","kana_city":"ｶﾜｺﾞｴｼ","kana_address":"ｼﾝﾄﾐﾁｮｳ","pref":"埼玉県","city":"川越市","address":"新富町"},
{"zip_code":"3500823","kana_pref":"ｻｲﾀﾏｹﾝ","kana_city":"ｶﾜｺﾞｴｼ","kana_address":"ｼﾝﾒｲﾁｮｳ","pref":"埼玉県","city":"川越市","address":"神明町"},
{"zip_code":"3500064","kana_pref":"ｻｲﾀﾏｹﾝ","kana_city":"ｶﾜｺﾞｴｼ","kana_address":"ｽｴﾋﾛﾁｮｳ","pref":"埼玉県","city":"川越市","address":"末広町"},
{"zip_code":"3500832","kana_pref":"ｻｲﾀﾏｹﾝ","kana_city":"ｶﾜｺﾞｴｼ","kana_address":"ｽｶﾞﾏ","pref":"埼玉県","city":"川越市","address":"菅間"},
{"zip_code":"3500046","kana_pref":"ｻｲﾀﾏｹﾝ","kana_city":"ｶﾜｺﾞｴｼ","kana_address":"ｽｶﾞﾜﾗﾏﾁ","pref":"埼玉県","city":"川越市","address":"菅原町"},
{"zip_code":"3501133","kana_pref":"ｻｲﾀﾏｹﾝ","kana_city":"ｶﾜｺﾞｴｼ","kana_address":"ｽﾅ","pref":"埼玉県","city":"川越市","address":"砂"},
{"zip_code":"3501152","kana_pref":"ｻｲﾀﾏｹﾝ","kana_city":"ｶﾜｺﾞｴｼ","kana_address":"ｽﾅｸﾎﾞ","pref":"埼玉県","city":"川越市","address":"砂久保"},
{"zip_code":"3501137","kana_pref":"ｻｲﾀﾏｹﾝ","kana_city":"ｶﾜｺﾞｴｼ","kana_address":"ｽﾅｼﾝﾃﾞﾝ","pref":"埼玉県","city":"川越市","address":"砂新田"},
{"zip_code":"3501147","kana_pref":"ｻｲﾀﾏｹﾝ","kana_city":"ｶﾜｺﾞｴｼ","kana_address":"ｽﾜﾁｮｳ","pref":"埼玉県","city":"川越市","address":"諏訪町"},
{"zip_code":"3500034","kana_pref":"ｻｲﾀﾏｹﾝ","kana_city":"ｶﾜｺﾞｴｼ","kana_address":"ｾﾝﾊﾞﾏﾁ","pref":"埼玉県","city":"川越市","address":"仙波町"},
{"zip_code":"3500004","kana_pref":"ｻｲﾀﾏｹﾝ","kana_city":"ｶﾜｺﾞｴｼ","kana_address":"ﾀｶｼﾏ","pref":"埼玉県","city":"川越市","address":"高島"},
{"zip_code":"3500801","kana_pref":"ｻｲﾀﾏｹﾝ","kana_city":"ｶﾜｺﾞｴｼ","kana_address":"ﾀｹﾉ","pref":"埼玉県","city":"川越市","address":"竹野"},
{"zip_code":"3501113","kana_pref":"ｻｲﾀﾏｹﾝ","kana_city":"ｶﾜｺﾞｴｼ","kana_address":"ﾀﾏﾁ","pref":"埼玉県","city":"川越市","address":"田町"},
{"zip_code":"3500825","kana_pref":"ｻｲﾀﾏｹﾝ","kana_city":"ｶﾜｺﾞｴｼ","kana_address":"ﾂｷﾖｼﾏﾁ","pref":"埼玉県","city":"川越市","address":"月吉町"},
{"zip_code":"3500854","kana_pref":"ｻｲﾀﾏｹﾝ","kana_city":"ｶﾜｺﾞｴｼ","kana_address":"ﾃﾗｲ","pref":"埼玉県","city":"川越市","address":"寺井"},
{"zip_code":"3501141","kana_pref":"ｻｲﾀﾏｹﾝ","kana_city":"ｶﾜｺﾞｴｼ","kana_address":"ﾃﾗｵ","pref":"埼玉県","city":"川越市","address":"寺尾"},
{"zip_code":"3500827","kana_pref":"ｻｲﾀﾏｹﾝ","kana_city":"ｶﾜｺﾞｴｼ","kana_address":"ﾃﾗﾔﾏ","pref":"埼玉県","city":"川越市","address":"寺山"},
{"zip_code":"3500843","kana_pref":"ｻｲﾀﾏｹﾝ","kana_city":"ｶﾜｺﾞｴｼ","kana_address":"ﾄｳﾐｮｳｼﾞ","pref":"埼玉県","city":"川越市","address":"東明寺"},
{"zip_code":"3500044","kana_pref":"ｻｲﾀﾏｹﾝ","kana_city":"ｶﾜｺﾞｴｼ","kana_address":"ﾄｵﾘﾏﾁ","pref":"埼玉県","city":"川越市","address":"通町"},
{"zip_code":"3501119","kana_pref":"ｻｲﾀﾏｹﾝ","kana_city":"ｶﾜｺﾞｴｼ","kana_address":"ﾄﾖﾀﾞｼﾝﾃﾞﾝ","pref":"埼玉県","city":"川越市","address":"豊田新田"},
{"zip_code":"3501110","kana_pref":"ｻｲﾀﾏｹﾝ","kana_city":"ｶﾜｺﾞｴｼ","kana_address":"ﾄﾖﾀﾞﾁｮｳ","pref":"埼玉県","city":"川越市","address":"豊田町"},
{"zip_code":"3501118","kana_pref":"ｻｲﾀﾏｹﾝ","kana_city":"ｶﾜｺﾞｴｼ","kana_address":"ﾄﾖﾀﾞﾎﾝ","pref":"埼玉県","city":"川越市","address":"豊田本"},
{"zip_code":"3500856","kana_pref":"ｻｲﾀﾏｹﾝ","kana_city":"ｶﾜｺﾞｴｼ","kana_address":"ﾄﾝﾔﾏﾁ","pref":"埼玉県","city":"川越市","address":"問屋町"},
{"zip_code":"3500846","kana_pref":"ｻｲﾀﾏｹﾝ","kana_city":"ｶﾜｺﾞｴｼ","kana_address":"ﾅｶｵｲﾌﾞｸﾛ","pref":"埼玉県","city":"川越市","address":"中老袋"},
{"zip_code":"3500065","kana_pref":"ｻｲﾀﾏｹﾝ","kana_city":"ｶﾜｺﾞｴｼ","kana_address":"ﾅｶﾁｮｳ","pref":"埼玉県","city":"川越市","address":"仲町"},
{"zip_code":"3500042","kana_pref":"ｻｲﾀﾏｹﾝ","kana_city":"ｶﾜｺﾞｴｼ","kana_address":"ﾅｶﾊﾗﾏﾁ","pref":"埼玉県","city":"川越市","address":"中原町"},
{"zip_code":"3501156","kana_pref":"ｻｲﾀﾏｹﾝ","kana_city":"ｶﾜｺﾞｴｼ","kana_address":"ﾅｶﾌｸ","pref":"埼玉県","city":"川越市","address":"中福"},
{"zip_code":"3501157","kana_pref":"ｻｲﾀﾏｹﾝ","kana_city":"ｶﾜｺﾞｴｼ","kana_address":"ﾅｶﾌｸﾋｶﾞｼ","pref":"埼玉県","city":"川越市","address":"中福東"},
{"zip_code":"3500023","kana_pref":"ｻｲﾀﾏｹﾝ","kana_city":"ｶﾜｺﾞｴｼ","kana_address":"ﾅﾐｷ","pref":"埼玉県","city":"川越市","address":"並木"},
{"zip_code":"3500024","kana_pref":"ｻｲﾀﾏｹﾝ","kana_city":"ｶﾜｺﾞｴｼ","kana_address":"ﾅﾐｷｼﾝﾏﾁ","pref":"埼玉県","city":"川越市","address":"並木新町"},
{"zip_code":"3500025","kana_pref":"ｻｲﾀﾏｹﾝ","kana_city":"ｶﾜｺﾞｴｼ","kana_address":"ﾅﾐｷﾆｼﾏﾁ","pref":"埼玉県","city":"川越市","address":"並木西町"},
{"zip_code":"3500035","kana_pref":"ｻｲﾀﾏｹﾝ","kana_city":"ｶﾜｺﾞｴｼ","kana_address":"ﾆｼｺｾﾝﾊﾞﾏﾁ","pref":"埼玉県","city":"川越市","address":"西小仙波町"},
{"zip_code":"3501160","kana_pref":"ｻｲﾀﾏｹﾝ","kana_city":"ｶﾜｺﾞｴｼ","kana_address":"ﾆｯﾄｳﾁｮｳ","pref":"埼玉県","city":"川越市","address":"日東町"},
{"zip_code":"3501111","kana_pref":"ｻｲﾀﾏｹﾝ","kana_city":"ｶﾜｺﾞｴｼ","kana_address":"ﾉﾀﾞ","pref":"埼玉県","city":"川越市","address":"野田"},
{"zip_code":"3501115","kana_pref":"ｻｲﾀﾏｹﾝ","kana_city":"ｶﾜｺﾞｴｼ","kana_address":"ﾉﾀﾞﾏﾁ","pref":"埼玉県","city":"川越市","address":"野田町"},
{"zip_code":"3500851","kana_pref":"ｻｲﾀﾏｹﾝ","kana_city":"ｶﾜｺﾞｴｼ","kana_address":"ﾋｶﾜﾁｮｳ","pref":"埼玉県","city":"川越市","address":"氷川町"},
{"zip_code":"3501114","kana_pref":"ｻｲﾀﾏｹﾝ","kana_city":"ｶﾜｺﾞｴｼ","kana_address":"ﾋｶﾞｼﾀﾏﾁ","pref":"埼玉県","city":"川越市","address":"東田町"},
{"zip_code":"3500847","kana_pref":"ｻｲﾀﾏｹﾝ","kana_city":"ｶﾜｺﾞｴｼ","kana_address":"ﾋｶﾞｼﾎﾝｼﾞｭｸ","pref":"埼玉県","city":"川越市","address":"東本宿"},
{"zip_code":"3500814","kana_pref":"ｻｲﾀﾏｹﾝ","kana_city":"ｶﾜｺﾞｴｼ","kana_address":"ﾋﾗﾂｶ","pref":"埼玉県","city":"川越市","address":"平塚"},
{"zip_code":"3500813","kana_pref":"ｻｲﾀﾏｹﾝ","kana_city":"ｶﾜｺﾞｴｼ","kana_address":"ﾋﾗﾂｶｼﾝﾃﾞﾝ","pref":"埼玉県","city":"川越市","address":"平塚新田"},
{"zip_code":"3500805","kana_pref":"ｻｲﾀﾏｹﾝ","kana_city":"ｶﾜｺﾞｴｼ","kana_address":"ﾋﾛﾔｼﾝﾏﾁ","pref":"埼玉県","city":"川越市","address":"広谷新町"},
{"zip_code":"3500831","kana_pref":"ｻｲﾀﾏｹﾝ","kana_city":"ｶﾜｺﾞｴｼ","kana_address":"ﾌｶﾜ","pref":"埼玉県","city":"川越市","address":"府川"},
{"zip_code":"3500821","kana_pref":"ｻｲﾀﾏｹﾝ","kana_city":"ｶﾜｺﾞｴｼ","kana_address":"ﾌｸﾀﾞ","pref":"埼玉県","city":"川越市","address":"福田"},
{"zip_code":"3500018","kana_pref":"ｻｲﾀﾏｹﾝ","kana_city":"ｶﾜｺﾞｴｼ","kana_address":"ﾌｼﾞｷﾁｮｳ","pref":"埼玉県","city":"川越市","address":"藤木町"},
{"zip_code":"3501166","kana_pref":"ｻｲﾀﾏｹﾝ","kana_city":"ｶﾜｺﾞｴｼ","kana_address":"ﾌｼﾞｸﾗ","pref":"埼玉県","city":"川越市","address":"藤倉"},
{"zip_code":"3501142","kana_pref":"ｻｲﾀﾏｹﾝ","kana_city":"ｶﾜｺﾞｴｼ","kana_address":"ﾌｼﾞﾏ","pref":"埼玉県","city":"川越市","address":"藤間"},
{"zip_code":"3500802","kana_pref":"ｻｲﾀﾏｹﾝ","kana_city":"ｶﾜｺﾞｴｼ","kana_address":"ﾌｼﾞﾐ","pref":"埼玉県","city":"川越市","address":"富士見"},
{"zip_code":"3500033","kana_pref":"ｻｲﾀﾏｹﾝ","kana_city":"ｶﾜｺﾞｴｼ","kana_address":"ﾌｼﾞﾐﾁｮｳ","pref":"埼玉県","city":"川越市","address":"富士見町"},
{"zip_code":"3501143","kana_pref":"ｻｲﾀﾏｹﾝ","kana_city":"ｶﾜｺﾞｴｼ","kana_address":"ﾌｼﾞﾜﾗﾁｮｳ","pref":"埼玉県","city":"川越市","address":"藤原町"},
{"zip_code":"3500014","kana_pref":"ｻｲﾀﾏｹﾝ","kana_city":"ｶﾜｺﾞｴｼ","kana_address":"ﾌﾙｲﾁﾊﾞ","pref":"埼玉県","city":"川越市","address":"古市場"},
{"zip_code":"3500001","kana_pref":"ｻｲﾀﾏｹﾝ","kana_city":"ｶﾜｺﾞｴｼ","kana_address":"ﾌﾙﾔｶﾐ","pref":"埼玉県","city":"川越市","address":"古谷上"},
{"zip_code":"3500002","kana_pref":"ｻｲﾀﾏｹﾝ","kana_city":"ｶﾜｺﾞｴｼ","kana_address":"ﾌﾙﾔﾎﾝｺﾞｳ","pref":"埼玉県","city":"川越市","address":"古谷本郷"},
{"zip_code":"3501172","kana_pref":"ｻｲﾀﾏｹﾝ","kana_city":"ｶﾜｺﾞｴｼ","kana_address":"ﾏｽｶﾀ","pref":"埼玉県","city":"川越市","address":"増形"},
{"zip_code":"3500056","kana_pref":"ｻｲﾀﾏｹﾝ","kana_city":"ｶﾜｺﾞｴｼ","kana_address":"ﾏﾂｴﾁｮｳ","pref":"埼玉県","city":"川越市","address":"松江町"},
{"zip_code":"3500857","kana_pref":"ｻｲﾀﾏｹﾝ","kana_city":"ｶﾜｺﾞｴｼ","kana_address":"ﾏﾂｺﾞｳ","pref":"埼玉県","city":"川越市","address":"松郷"},
{"zip_code":"3501101","kana_pref":"ｻｲﾀﾏｹﾝ","kana_city":"ｶﾜｺﾞｴｼ","kana_address":"ﾏﾄﾊﾞ","pref":"埼玉県","city":"川越市","address":"的場"},
{"zip_code":"3501107","kana_pref":"ｻｲﾀﾏｹﾝ","kana_city":"ｶﾜｺﾞｴｼ","kana_address":"ﾏﾄﾊﾞｼﾝﾏﾁ","pref":"埼玉県","city":"川越市","address":"的場新町"},
{"zip_code":"3501102","kana_pref":"ｻｲﾀﾏｹﾝ","kana_city":"ｶﾜｺﾞｴｼ","kana_address":"ﾏﾄﾊﾞｷﾀ","pref":"埼玉県","city":"川越市","address":"的場北"},
{"zip_code":"3501162","kana_pref":"ｻｲﾀﾏｹﾝ","kana_city":"ｶﾜｺﾞｴｼ","kana_address":"ﾐﾅﾐｵｵﾂｶ","pref":"埼玉県","city":"川越市","address":"南大塚"},
{"zip_code":"3500027","kana_pref":"ｻｲﾀﾏｹﾝ","kana_city":"ｶﾜｺﾞｴｼ","kana_address":"ﾐﾅﾐﾀｼﾞﾏ","pref":"埼玉県","city":"川越市","address":"南田島"},
{"zip_code":"3501165","kana_pref":"ｻｲﾀﾏｹﾝ","kana_city":"ｶﾜｺﾞｴｼ","kana_address":"ﾐﾅﾐﾀﾞｲ","pref":"埼玉県","city":"川越市","address":"南台"},
{"zip_code":"3500045","kana_pref":"ｻｲﾀﾏｹﾝ","kana_city":"ｶﾜｺﾞｴｼ","kana_address":"ﾐﾅﾐﾄｵﾘﾏﾁ","pref":"埼玉県","city":"川越市","address":"南通町"},
{"zip_code":"3500052","kana_pref":"ｻｲﾀﾏｹﾝ","kana_city":"ｶﾜｺﾞｴｼ","kana_address":"ﾐﾔｼﾀﾏﾁ","pref":"埼玉県","city":"川越市","address":"宮下町"},
{"zip_code":"3500838","kana_pref":"ｻｲﾀﾏｹﾝ","kana_city":"ｶﾜｺﾞｴｼ","kana_address":"ﾐﾔﾓﾄﾁｮｳ","pref":"埼玉県","city":"川越市","address":"宮元町"},
{"zip_code":"3501170","kana_pref":"ｻｲﾀﾏｹﾝ","kana_city":"ｶﾜｺﾞｴｼ","kana_address":"ﾑｻｼﾉ","pref":"埼玉県","city":"川越市","address":"むさし野"},
{"zip_code":"3501158","kana_pref":"ｻｲﾀﾏｹﾝ","kana_city":"ｶﾜｺﾞｴｼ","kana_address":"ﾑｻｼﾉﾐﾅﾐ","pref":"埼玉県","city":"川越市","address":"むさし野南"},
{"zip_code":"3500062","kana_pref":"ｻｲﾀﾏｹﾝ","kana_city":"ｶﾜｺﾞｴｼ","kana_address":"ﾓﾄﾏﾁ","pref":"埼玉県","city":"川越市","address":"元町"},
{"zip_code":"3500003","kana_pref":"ｻｲﾀﾏｹﾝ","kana_city":"ｶﾜｺﾞｴｼ","kana_address":"ﾔﾂｼﾏ","pref":"埼玉県","city":"川越市","address":"八ツ島"},
{"zip_code":"3500836","kana_pref":"ｻｲﾀﾏｹﾝ","kana_city":"ｶﾜｺﾞｴｼ","kana_address":"ﾔﾅｶ","pref":"埼玉県","city":"川越市","address":"谷中"},
{"zip_code":"3501169","kana_pref":"ｻｲﾀﾏｹﾝ","kana_city":"ｶﾜｺﾞｴｼ","kana_address":"ﾔﾏｼﾛ","pref":"埼玉県","city":"川越市","address":"山城"},
{"zip_code":"3500822","kana_pref":"ｻｲﾀﾏｹﾝ","kana_city":"ｶﾜｺﾞｴｼ","kana_address":"ﾔﾏﾀﾞ","pref":"埼玉県","city":"川越市","address":"山田"},
{"zip_code":"3500807","kana_pref":"ｻｲﾀﾏｹﾝ","kana_city":"ｶﾜｺﾞｴｼ","kana_address":"ﾖｼﾀﾞ","pref":"埼玉県","city":"川越市","address":"吉田"},
{"zip_code":"3500808","kana_pref":"ｻｲﾀﾏｹﾝ","kana_city":"ｶﾜｺﾞｴｼ","kana_address":"ﾖｼﾀﾞｼﾝﾏﾁ","pref":"埼玉県","city":"川越市","address":"吉田新町"},
{"zip_code":"3500833","kana_pref":"ｻｲﾀﾏｹﾝ","kana_city":"ｶﾜｺﾞｴｼ","kana_address":"ﾖｼﾉﾀﾞｲ","pref":"埼玉県","city":"川越市","address":"芳野台"},
{"zip_code":"3501163","kana_pref":"ｻｲﾀﾏｹﾝ","kana_city":"ｶﾜｺﾞｴｼ","kana_address":"ﾖﾂﾔﾀﾞｲ","pref":"埼玉県","city":"川越市","address":"四都野台"},
{"zip_code":"3500066","kana_pref":"ｻｲﾀﾏｹﾝ","kana_city":"ｶﾜｺﾞｴｼ","kana_address":"ﾚﾝｼﾞｬｸﾁｮｳ","pref":"埼玉県","city":"川越市","address":"連雀町"},
{"zip_code":"3500041","kana_pref":"ｻｲﾀﾏｹﾝ","kana_city":"ｶﾜｺﾞｴｼ","kana_address":"ﾛｯｹﾝﾏﾁ","pref":"埼玉県","city":"川越市","address":"六軒町"},
{"zip_code":"3501121","kana_pref":"ｻｲﾀﾏｹﾝ","kana_city":"ｶﾜｺﾞｴｼ","kana_address":"ﾜｷﾀｼﾝﾏﾁ","pref":"埼玉県","city":"川越市","address":"脇田新町"},
{"zip_code":"3501123","kana_pref":"ｻｲﾀﾏｹﾝ","kana_city":"ｶﾜｺﾞｴｼ","kana_address":"ﾜｷﾀﾎﾝﾁｮｳ","pref":"埼玉県","city":"川越市","address":"脇田本町"},
{"zip_code":"3501122","kana_pref":"ｻｲﾀﾏｹﾝ","kana_city":"ｶﾜｺﾞｴｼ","kana_address":"ﾜｷﾀﾏﾁ","pref":"埼玉県","city":"川越市","address":"脇田町"},
{"zip_code":"3501300","kana_pref":"ｻｲﾀﾏｹﾝ","kana_city":"ｻﾔﾏｼ","kana_address":"","pref":"埼玉県","city":"狭山市","address":""},
{"zip_code":"3501301","kana_pref":"ｻｲﾀﾏｹﾝ","kana_city":"ｻﾔﾏｼ","kana_address":"ｱｵﾔｷﾞ","pref":"埼玉県","city":"狭山市","address":"青柳"},
{"zip_code":"3501324","kana_pref":"ｻｲﾀﾏｹﾝ","kana_city":"ｻﾔﾏｼ","kana_address":"ｲﾅﾘﾔﾏ","pref":"埼玉県","city":"狭山市","address":"稲荷山"},
{"zip_code":"3501305","kana_pref":"ｻｲﾀﾏｹﾝ","kana_city":"ｻﾔﾏｼ","kana_address":"ｲﾙﾏｶﾞﾜ","pref":"埼玉県","city":"狭山市","address":"入間川"},
{"zip_code":"3501323","kana_pref":"ｻｲﾀﾏｹﾝ","kana_city":"ｻﾔﾏｼ","kana_address":"ｳﾉｷ","pref":"埼玉県","city":"狭山市","address":"鵜ノ木"},
{"zip_code":"3501314","kana_pref":"ｻｲﾀﾏｹﾝ","kana_city":"ｻﾔﾏｼ","kana_address":"ｶｻﾞｼ","pref":"埼玉県","city":"狭山市","address":"加佐志"},
{"zip_code":"3501335","kana_pref":"ｻｲﾀﾏｹﾝ","kana_city":"ｻﾔﾏｼ","kana_address":"ｶｼﾜﾊﾞﾗ","pref":"埼玉県","city":"狭山市","address":"柏原"},
{"zip_code":"3501336","kana_pref":"ｻｲﾀﾏｹﾝ","kana_city":"ｻﾔﾏｼ","kana_address":"ｶｼﾜﾊﾞﾗｼﾝﾃﾞﾝ","pref":"埼玉県","city":"狭山市","address":"柏原新田"},
{"zip_code":"3501313","kana_pref":"ｻｲﾀﾏｹﾝ","kana_city":"ｻﾔﾏｼ","kana_address":"ｶﾐｱｶｻｶ","pref":"埼玉県","city":"狭山市","address":"上赤坂"},
{"zip_code":"3501333","kana_pref":"ｻｲﾀﾏｹﾝ","kana_city":"ｻﾔﾏｼ","kana_address":"ｶﾐｵｸﾄﾞﾐ","pref":"埼玉県","city":"狭山市","address":"上奥富"},
{"zip_code":"3501321","kana_pref":"ｻｲﾀﾏｹﾝ","kana_city":"ｻﾔﾏｼ","kana_address":"ｶﾐﾋﾛｾ","pref":"埼玉県","city":"狭山市","address":"上広瀬"},
{"zip_code":"3501307","kana_pref":"ｻｲﾀﾏｹﾝ","kana_city":"ｻﾔﾏｼ","kana_address":"ｷﾞｵﾝ","pref":"埼玉県","city":"狭山市","address":"祇園"},
{"zip_code":"3501315","kana_pref":"ｻｲﾀﾏｹﾝ","kana_city":"ｻﾔﾏｼ","kana_address":"ｷﾀｲﾘｿ","pref":"埼玉県","city":"狭山市","address":"北入曽"},
{"zip_code":"3501327","kana_pref":"ｻｲﾀﾏｹﾝ","kana_city":"ｻﾔﾏｼ","kana_address":"ｻｻｲ","pref":"埼玉県","city":"狭山市","address":"笹井"},
{"zip_code":"3501334","kana_pref":"ｻｲﾀﾏｹﾝ","kana_city":"ｻﾔﾏｼ","kana_address":"ｻﾔﾏ","pref":"埼玉県","city":"狭山市","address":"狭山"},
{"zip_code":"3501304","kana_pref":"ｻｲﾀﾏｹﾝ","kana_city":"ｻﾔﾏｼ","kana_address":"ｻﾔﾏﾀﾞｲ","pref":"埼玉県","city":"狭山市","address":"狭山台"},
{"zip_code":"3501303","kana_pref":"ｻｲﾀﾏｹﾝ","kana_city":"ｻﾔﾏｼ","kana_address":"ｻﾜ","pref":"埼玉県","city":"狭山市","address":"沢"},
{"zip_code":"3501332","kana_pref":"ｻｲﾀﾏｹﾝ","kana_city":"ｻﾔﾏｼ","kana_address":"ｼﾓｵｸﾄﾞﾐ","pref":"埼玉県","city":"狭山市","address":"下奥富"},
{"zip_code":"3501322","kana_pref":"ｻｲﾀﾏｹﾝ","kana_city":"ｻﾔﾏｼ","kana_address":"ｼﾓﾋﾛｾ","pref":"埼玉県","city":"狭山市","address":"下広瀬"},
{"zip_code":"3501331","kana_pref":"ｻｲﾀﾏｹﾝ","kana_city":"ｻﾔﾏｼ","kana_address":"ｼﾝｻﾔﾏ","pref":"埼玉県","city":"狭山市","address":"新狭山"},
{"zip_code":"3501308","kana_pref":"ｻｲﾀﾏｹﾝ","kana_city":"ｻﾔﾏｼ","kana_address":"ﾁｭｳｵｳ","pref":"埼玉県","city":"狭山市","address":"中央"},
{"zip_code":"3501326","kana_pref":"ｻｲﾀﾏｹﾝ","kana_city":"ｻﾔﾏｼ","kana_address":"ﾂﾂｼﾞﾉ","pref":"埼玉県","city":"狭山市","address":"つつじ野"},
{"zip_code":"3501311","kana_pref":"ｻｲﾀﾏｹﾝ","kana_city":"ｻﾔﾏｼ","kana_address":"ﾅｶｼﾝﾃﾞﾝ","pref":"埼玉県","city":"狭山市","address":"中新田"},
{"zip_code":"3501325","kana_pref":"ｻｲﾀﾏｹﾝ","kana_city":"ｻﾔﾏｼ","kana_address":"ﾈｷﾞｼ","pref":"埼玉県","city":"狭山市","address":"根岸"},
{"zip_code":"3501302","kana_pref":"ｻｲﾀﾏｹﾝ","kana_city":"ｻﾔﾏｼ","kana_address":"ﾋｶﾞｼﾐﾂｷﾞ","pref":"埼玉県","city":"狭山市","address":"東三ツ木"},
{"zip_code":"3501319","kana_pref":"ｻｲﾀﾏｹﾝ","kana_city":"ｻﾔﾏｼ","kana_address":"ﾋﾛｾ","pref":"埼玉県","city":"狭山市","address":"広瀬"},
{"zip_code":"3501328","kana_pref":"ｻｲﾀﾏｹﾝ","kana_city":"ｻﾔﾏｼ","kana_address":"ﾋﾛｾﾀﾞｲ","pref":"埼玉県","city":"狭山市","address":"広瀬台"},
{"zip_code":"3501320","kana_pref":"ｻｲﾀﾏｹﾝ","kana_city":"ｻﾔﾏｼ","kana_address":"ﾋﾛｾﾋｶﾞｼ","pref":"埼玉県","city":"狭山市","address":"広瀬東"},
{"zip_code":"3501306","kana_pref":"ｻｲﾀﾏｹﾝ","kana_city":"ｻﾔﾏｼ","kana_address":"ﾌｼﾞﾐ","pref":"埼玉県","city":"狭山市","address":"富士見"},
{"zip_code":"3501312","kana_pref":"ｻｲﾀﾏｹﾝ","kana_city":"ｻﾔﾏｼ","kana_address":"ﾎﾘｶﾞﾈ","pref":"埼玉県","city":"狭山市","address":"堀兼"},
{"zip_code":"3501317","kana_pref":"ｻｲﾀﾏｹﾝ","kana_city":"ｻﾔﾏｼ","kana_address":"ﾐｽﾞﾉ","pref":"埼玉県","city":"狭山市","address":"水野"},
{"zip_code":"3501316","kana_pref":"ｻｲﾀﾏｹﾝ","kana_city":"ｻﾔﾏｼ","kana_address":"ﾐﾅﾐｲﾘｿ","pref":"埼玉県","city":"狭山市","address":"南入曽"},
{"zip_code":"3500200","kana_pref":"ｻｲﾀﾏｹﾝ","kana_city":"ｻｶﾄﾞｼ","kana_address":"","pref":"埼玉県","city":"坂戸市","address":""},
{"zip_code":"3500239","kana_pref":"ｻｲﾀﾏｹﾝ","kana_city":"ｻｶﾄﾞｼ","kana_address":"ｱｵﾀ","pref":"埼玉県","city":"坂戸市","address":"粟生田"},
{"zip_code":"3500207","kana_pref":"ｻｲﾀﾏｹﾝ","kana_city":"ｻｶﾄﾞｼ","kana_address":"ｱｵｷ","pref":"埼玉県","city":"坂戸市","address":"青木"},
{"zip_code":"3500201","kana_pref":"ｻｲﾀﾏｹﾝ","kana_city":"ｻｶﾄﾞｼ","kana_address":"ｱｶｵ","pref":"埼玉県","city":"坂戸市","address":"赤尾"},
{"zip_code":"3500238","kana_pref":"ｻｲﾀﾏｹﾝ","kana_city":"ｻｶﾄﾞｼ","kana_address":"ｱｻﾊﾞ","pref":"埼玉県","city":"坂戸市","address":"浅羽"},
{"zip_code":"3500237","kana_pref":"ｻｲﾀﾏｹﾝ","kana_city":"ｻｶﾄﾞｼ","kana_address":"ｱｻﾊﾞﾉ","pref":"埼玉県","city":"坂戸市","address":"浅羽野"},
{"zip_code":"3500273","kana_pref":"ｻｲﾀﾏｹﾝ","kana_city":"ｻｶﾄﾞｼ","kana_address":"ｱｼﾔﾏﾁｮｳ","pref":"埼玉県","city":"坂戸市","address":"芦山町"},
{"zip_code":"3500242","kana_pref":"ｻｲﾀﾏｹﾝ","kana_city":"ｻｶﾄﾞｼ","kana_address":"ｱﾂｶﾞﾜ","pref":"埼玉県","city":"坂戸市","address":"厚川"},
{"zip_code":"3500212","kana_pref":"ｻｲﾀﾏｹﾝ","kana_city":"ｻｶﾄﾞｼ","kana_address":"ｲｼｲ","pref":"埼玉県","city":"坂戸市","address":"石井"},
{"zip_code":"3500275","kana_pref":"ｻｲﾀﾏｹﾝ","kana_city":"ｻｶﾄﾞｼ","kana_address":"ｲｽﾞﾉﾔﾏﾁｮｳ","pref":"埼玉県","city":"坂戸市","address":"伊豆の山町"},
{"zip_code":"3500231","kana_pref":"ｻｲﾀﾏｹﾝ","kana_city":"ｻｶﾄﾞｼ","kana_address":"ｲｽﾞﾐﾁｮｳ","pref":"埼玉県","city":"坂戸市","address":"泉町"},
{"zip_code":"3500267","kana_pref":"ｻｲﾀﾏｹﾝ","kana_city":"ｻｶﾄﾞｼ","kana_address":"ｲﾏﾆｼ","pref":"埼玉県","city":"坂戸市","address":"今西"},
{"zip_code":"3500254","kana_pref":"ｻｲﾀﾏｹﾝ","kana_city":"ｻｶﾄﾞｼ","kana_address":"ｶｹﾉｳｴ","pref":"埼玉県","city":"坂戸市","address":"欠ノ上"},
{"zip_code":"3500219","kana_pref":"ｻｲﾀﾏｹﾝ","kana_city":"ｻｶﾄﾞｼ","kana_address":"ｶﾀﾔﾅｷﾞ","pref":"埼玉県","city":"坂戸市","address":"片柳"},
{"zip_code":"3500218","kana_pref":"ｻｲﾀﾏｹﾝ","kana_city":"ｻｶﾄﾞｼ","kana_address":"ｶﾀﾔﾅｷﾞｼﾝﾃﾞﾝ","pref":"埼玉県","city":"坂戸市","address":"片柳新田"},
{"zip_code":"3500268","kana_pref":"ｻｲﾀﾏｹﾝ","kana_city":"ｻｶﾄﾞｼ","kana_address":"ｶﾈﾀﾞ","pref":"埼玉県","city":"坂戸市","address":"金田"},
{"zip_code":"3500221","kana_pref":"ｻｲﾀﾏｹﾝ","kana_city":"ｻｶﾄﾞｼ","kana_address":"ｶﾏｸﾗﾁｮｳ","pref":"埼玉県","city":"坂戸市","address":"鎌倉町"},
{"zip_code":"3500271","kana_pref":"ｻｲﾀﾏｹﾝ","kana_city":"ｻｶﾄﾞｼ","kana_address":"ｶﾐﾖｼﾀﾞ","pref":"埼玉県","city":"坂戸市","address":"上吉田"},
{"zip_code":"3500243","kana_pref":"ｻｲﾀﾏｹﾝ","kana_city":"ｻｶﾄﾞｼ","kana_address":"ｶﾔｶﾞﾀ","pref":"埼玉県","city":"坂戸市","address":"萱方"},
{"zip_code":"3500266","kana_pref":"ｻｲﾀﾏｹﾝ","kana_city":"ｻｶﾄﾞｼ","kana_address":"ｷﾀｱｻﾊﾞ","pref":"埼玉県","city":"坂戸市","address":"北浅羽"},
{"zip_code":"3500253","kana_pref":"ｻｲﾀﾏｹﾝ","kana_city":"ｻｶﾄﾞｼ","kana_address":"ｷﾀｵｵﾂｶ","pref":"埼玉県","city":"坂戸市","address":"北大塚"},
{"zip_code":"3500258","kana_pref":"ｻｲﾀﾏｹﾝ","kana_city":"ｻｶﾄﾞｼ","kana_address":"ｷﾀﾐﾈ","pref":"埼玉県","city":"坂戸市","address":"北峰"},
{"zip_code":"3500248","kana_pref":"ｻｲﾀﾏｹﾝ","kana_city":"ｻｶﾄﾞｼ","kana_address":"ｹﾔｷﾀﾞｲ","pref":"埼玉県","city":"坂戸市","address":"けやき台"},
{"zip_code":"3500204","kana_pref":"ｻｲﾀﾏｹﾝ","kana_city":"ｻｶﾄﾞｼ","kana_address":"ｺｳﾔ","pref":"埼玉県","city":"坂戸市","address":"紺屋"},
{"zip_code":"3500202","kana_pref":"ｻｲﾀﾏｹﾝ","kana_city":"ｻｶﾄﾞｼ","kana_address":"ｺﾇﾏ","pref":"埼玉県","city":"坂戸市","address":"小沼"},
{"zip_code":"3500257","kana_pref":"ｻｲﾀﾏｹﾝ","kana_city":"ｻｶﾄﾞｼ","kana_address":"ｺﾔﾏ","pref":"埼玉県","city":"坂戸市","address":"小山"},
{"zip_code":"3500213","kana_pref":"ｻｲﾀﾏｹﾝ","kana_city":"ｻｶﾄﾞｼ","kana_address":"ｻｶｴ","pref":"埼玉県","city":"坂戸市","address":"栄"},
{"zip_code":"3500217","kana_pref":"ｻｲﾀﾏｹﾝ","kana_city":"ｻｶﾄﾞｼ","kana_address":"ｻｶﾄﾞ","pref":"埼玉県","city":"坂戸市","address":"坂戸"},
{"zip_code":"3500261","kana_pref":"ｻｲﾀﾏｹﾝ","kana_city":"ｻｶﾄﾞｼ","kana_address":"ｻﾜｷ","pref":"埼玉県","city":"坂戸市","address":"沢木"},
{"zip_code":"3500235","kana_pref":"ｻｲﾀﾏｹﾝ","kana_city":"ｻｶﾄﾞｼ","kana_address":"ｻﾝｺｳﾁｮｳ","pref":"埼玉県","city":"坂戸市","address":"三光町"},
{"zip_code":"3500211","kana_pref":"ｻｲﾀﾏｹﾝ","kana_city":"ｻｶﾄﾞｼ","kana_address":"ｼﾏﾀﾞ","pref":"埼玉県","city":"坂戸市","address":"島田"},
{"zip_code":"3500222","kana_pref":"ｻｲﾀﾏｹﾝ","kana_city":"ｻｶﾄﾞｼ","kana_address":"ｼﾐｽﾞﾁｮｳ","pref":"埼玉県","city":"坂戸市","address":"清水町"},
{"zip_code":"3500255","kana_pref":"ｻｲﾀﾏｹﾝ","kana_city":"ｻｶﾄﾞｼ","kana_address":"ｼﾞｮｳｶﾞﾝｼﾞ","pref":"埼玉県","city":"坂戸市","address":"成願寺"},
{"zip_code":"3500278","kana_pref":"ｻｲﾀﾏｹﾝ","kana_city":"ｻｶﾄﾞｼ","kana_address":"ｼﾝｶﾞﾔ","pref":"埼玉県","city":"坂戸市","address":"新ケ谷"},
{"zip_code":"3500272","kana_pref":"ｻｲﾀﾏｹﾝ","kana_city":"ｻｶﾄﾞｼ","kana_address":"ｽｴﾋﾛﾁｮｳ","pref":"埼玉県","city":"坂戸市","address":"末広町"},
{"zip_code":"3500215","kana_pref":"ｻｲﾀﾏｹﾝ","kana_city":"ｻｶﾄﾞｼ","kana_address":"ｾｷﾏ","pref":"埼玉県","city":"坂戸市","address":"関間"},
{"zip_code":"3500256","kana_pref":"ｻｲﾀﾏｹﾝ","kana_city":"ｻｶﾄﾞｼ","kana_address":"ｾﾞﾝﾉｳｼﾞ","pref":"埼玉県","city":"坂戸市","address":"善能寺"},
{"zip_code":"3500264","kana_pref":"ｻｲﾀﾏｹﾝ","kana_city":"ｻｶﾄﾞｼ","kana_address":"ﾀｹﾉｳﾁ","pref":"埼玉県","city":"坂戸市","address":"竹之内"},
{"zip_code":"3500246","kana_pref":"ｻｲﾀﾏｹﾝ","kana_city":"ｻｶﾄﾞｼ","kana_address":"ﾀﾜﾒ","pref":"埼玉県","city":"坂戸市","address":"多和目"},
{"zip_code":"3500214","kana_pref":"ｻｲﾀﾏｹﾝ","kana_city":"ｻｶﾄﾞｼ","kana_address":"ﾁﾖﾀﾞ","pref":"埼玉県","city":"坂戸市","address":"千代田"},
{"zip_code":"3500209","kana_pref":"ｻｲﾀﾏｹﾝ","kana_city":"ｻｶﾄﾞｼ","kana_address":"ﾂｶｺﾞｼ","pref":"埼玉県","city":"坂戸市","address":"塚越"},
{"zip_code":"3500251","kana_pref":"ｻｲﾀﾏｹﾝ","kana_city":"ｻｶﾄﾞｼ","kana_address":"ﾂｶｻｷ","pref":"埼玉県","city":"坂戸市","address":"塚崎"},
{"zip_code":"3500241","kana_pref":"ｻｲﾀﾏｹﾝ","kana_city":"ｻｶﾄﾞｼ","kana_address":"ﾂﾙﾏｲ","pref":"埼玉県","city":"坂戸市","address":"鶴舞"},
{"zip_code":"3500276","kana_pref":"ｻｲﾀﾏｹﾝ","kana_city":"ｻｶﾄﾞｼ","kana_address":"ﾄｸﾞﾁ","pref":"埼玉県","city":"坂戸市","address":"戸口"},
{"zip_code":"3500208","kana_pref":"ｻｲﾀﾏｹﾝ","kana_city":"ｻｶﾄﾞｼ","kana_address":"ﾄﾐﾔ","pref":"埼玉県","city":"坂戸市","address":"戸宮"},
{"zip_code":"3500206","kana_pref":"ｻｲﾀﾏｹﾝ","kana_city":"ｻｶﾄﾞｼ","kana_address":"ﾅｶｵｻｶ","pref":"埼玉県","city":"坂戸市","address":"中小坂"},
{"zip_code":"3500252","kana_pref":"ｻｲﾀﾏｹﾝ","kana_city":"ｻｶﾄﾞｼ","kana_address":"ﾅｶｻﾞﾄ","pref":"埼玉県","city":"坂戸市","address":"中里"},
{"zip_code":"3500227","kana_pref":"ｻｲﾀﾏｹﾝ","kana_city":"ｻｶﾄﾞｼ","kana_address":"ﾅｶﾁｮｳ","pref":"埼玉県","city":"坂戸市","address":"仲町"},
{"zip_code":"3500232","kana_pref":"ｻｲﾀﾏｹﾝ","kana_city":"ｻｶﾄﾞｼ","kana_address":"ﾅｶﾄﾐﾁｮｳ","pref":"埼玉県","city":"坂戸市","address":"中富町"},
{"zip_code":"3500265","kana_pref":"ｻｲﾀﾏｹﾝ","kana_city":"ｻｶﾄﾞｼ","kana_address":"ﾅｶﾞｵｶ","pref":"埼玉県","city":"坂戸市","address":"長岡"},
{"zip_code":"3500262","kana_pref":"ｻｲﾀﾏｹﾝ","kana_city":"ｻｶﾄﾞｼ","kana_address":"ﾆｲﾎﾘ","pref":"埼玉県","city":"坂戸市","address":"新堀"},
{"zip_code":"3500247","kana_pref":"ｻｲﾀﾏｹﾝ","kana_city":"ｻｶﾄﾞｼ","kana_address":"ﾆｼｻｶﾄﾞ","pref":"埼玉県","city":"坂戸市","address":"西坂戸"},
{"zip_code":"3500269","kana_pref":"ｻｲﾀﾏｹﾝ","kana_city":"ｻｶﾄﾞｼ","kana_address":"ﾆｯｻｲﾊﾅﾐｽﾞｷ","pref":"埼玉県","city":"坂戸市","address":"にっさい花みず木"},
{"zip_code":"3500236","kana_pref":"ｻｲﾀﾏｹﾝ","kana_city":"ｻｶﾄﾞｼ","kana_address":"ﾊﾅｶｹﾞﾁｮｳ","pref":"埼玉県","city":"坂戸市","address":"花影町"},
{"zip_code":"3500205","kana_pref":"ｻｲﾀﾏｹﾝ","kana_city":"ｻｶﾄﾞｼ","kana_address":"ﾋｶﾞｼｻｶﾄﾞ","pref":"埼玉県","city":"坂戸市","address":"東坂戸"},
{"zip_code":"3500277","kana_pref":"ｻｲﾀﾏｹﾝ","kana_city":"ｻｶﾄﾞｼ","kana_address":"ﾋｶﾞｼﾜﾀﾞ","pref":"埼玉県","city":"坂戸市","address":"東和田"},
{"zip_code":"3500225","kana_pref":"ｻｲﾀﾏｹﾝ","kana_city":"ｻｶﾄﾞｼ","kana_address":"ﾋﾉﾃﾞﾁｮｳ","pref":"埼玉県","city":"坂戸市","address":"日の出町"},
{"zip_code":"3500263","kana_pref":"ｻｲﾀﾏｹﾝ","kana_city":"ｻｶﾄﾞｼ","kana_address":"ﾎﾘｺﾞﾒ","pref":"埼玉県","city":"坂戸市","address":"堀込"},
{"zip_code":"3500226","kana_pref":"ｻｲﾀﾏｹﾝ","kana_city":"ｻｶﾄﾞｼ","kana_address":"ﾎﾝﾁｮｳ","pref":"埼玉県","city":"坂戸市","address":"本町"},
{"zip_code":"3500274","kana_pref":"ｻｲﾀﾏｹﾝ","kana_city":"ｻｶﾄﾞｼ","kana_address":"ﾐｿﾞﾊﾀﾁｮｳ","pref":"埼玉県","city":"坂戸市","address":"溝端町"},
{"zip_code":"3500234","kana_pref":"ｻｲﾀﾏｹﾝ","kana_city":"ｻｶﾄﾞｼ","kana_address":"ﾐﾄﾞﾘﾁｮｳ","pref":"埼玉県","city":"坂戸市","address":"緑町"},
{"zip_code":"3500233","kana_pref":"ｻｲﾀﾏｹﾝ","kana_city":"ｻｶﾄﾞｼ","kana_address":"ﾐﾅﾐﾁｮｳ","pref":"埼玉県","city":"坂戸市","address":"南町"},
{"zip_code":"3500228","kana_pref":"ｻｲﾀﾏｹﾝ","kana_city":"ｻｶﾄﾞｼ","kana_address":"ﾓﾄﾁｮｳ","pref":"埼玉県","city":"坂戸市","address":"元町"},
{"zip_code":"3500244","kana_pref":"ｻｲﾀﾏｹﾝ","kana_city":"ｻｶﾄﾞｼ","kana_address":"ﾓﾘﾄﾞ","pref":"埼玉県","city":"坂戸市","address":"森戸"},
{"zip_code":"3500229","kana_pref":"ｻｲﾀﾏｹﾝ","kana_city":"ｻｶﾄﾞｼ","kana_address":"ﾔｸｼﾁｮｳ","pref":"埼玉県","city":"坂戸市","address":"薬師町"},
{"zip_code":"3500216","kana_pref":"ｻｲﾀﾏｹﾝ","kana_city":"ｻｶﾄﾞｼ","kana_address":"ﾔﾅｷﾞﾁｮｳ","pref":"埼玉県","city":"坂戸市","address":"柳町"},
{"zip_code":"3500223","kana_pref":"ｻｲﾀﾏｹﾝ","kana_city":"ｻｶﾄﾞｼ","kana_address":"ﾔﾊﾀ","pref":"埼玉県","city":"坂戸市","address":"八幡"},
{"zip_code":"3500224","kana_pref":"ｻｲﾀﾏｹﾝ","kana_city":"ｻｶﾄﾞｼ","kana_address":"ﾔﾏﾀﾁｮｳ","pref":"埼玉県","city":"坂戸市","address":"山田町"},
{"zip_code":"3500203","kana_pref":"ｻｲﾀﾏｹﾝ","kana_city":"ｻｶﾄﾞｼ","kana_address":"ﾖｺﾇﾏ","pref":"埼玉県","city":"坂戸市","address":"横沼"},
{"zip_code":"3500245","kana_pref":"ｻｲﾀﾏｹﾝ","kana_city":"ｻｶﾄﾞｼ","kana_address":"ﾖｯｶｲﾁﾊﾞ","pref":"埼玉県","city":"坂戸市","address":"四日市場"},
{"zip_code":"3502200","kana_pref":"ｻｲﾀﾏｹﾝ","kana_city":"ﾂﾙｶﾞｼﾏｼ","kana_address":"","pref":"埼玉県","city":"鶴ヶ島市","address":""},
{"zip_code":"3502214","kana_pref":"ｻｲﾀﾏｹﾝ","kana_city":"ﾂﾙｶﾞｼﾏｼ","kana_address":"ｵｵﾀｶﾞﾔ","pref":"埼玉県","city":"鶴ヶ島市","address":"太田ヶ谷"},
{"zip_code":"3502225","kana_pref":"ｻｲﾀﾏｹﾝ","kana_city":"ﾂﾙｶﾞｼﾏｼ","kana_address":"ｶﾐｼﾝﾃﾞﾝ","pref":"埼玉県","city":"鶴ヶ島市","address":"上新田"},
{"zip_code":"3502203","kana_pref":"ｻｲﾀﾏｹﾝ","kana_city":"ﾂﾙｶﾞｼﾏｼ","kana_address":"ｶﾐﾋﾛﾔ","pref":"埼玉県","city":"鶴ヶ島市","address":"上広谷"},
{"zip_code":"3502212","kana_pref":"ｻｲﾀﾏｹﾝ","kana_city":"ﾂﾙｶﾞｼﾏｼ","kana_address":"ｷｮｳｴｲﾁｮｳ","pref":"埼玉県","city":"鶴ヶ島市","address":"共栄町"},
{"zip_code":"3502202","kana_pref":"ｻｲﾀﾏｹﾝ","kana_city":"ﾂﾙｶﾞｼﾏｼ","kana_address":"ｺﾞﾐｶﾞﾔ","pref":"埼玉県","city":"鶴ヶ島市","address":"五味ヶ谷"},
{"zip_code":"3502222","kana_pref":"ｻｲﾀﾏｹﾝ","kana_city":"ﾂﾙｶﾞｼﾏｼ","kana_address":"ｼﾓｼﾝﾃﾞﾝ","pref":"埼玉県","city":"鶴ヶ島市","address":"下新田"},
{"zip_code":"3502227","kana_pref":"ｻｲﾀﾏｹﾝ","kana_city":"ﾂﾙｶﾞｼﾏｼ","kana_address":"ｼﾝﾏﾁ","pref":"埼玉県","city":"鶴ヶ島市","address":"新町"},
{"zip_code":"3502213","kana_pref":"ｻｲﾀﾏｹﾝ","kana_city":"ﾂﾙｶﾞｼﾏｼ","kana_address":"ｽﾈｵﾘ","pref":"埼玉県","city":"鶴ヶ島市","address":"脚折"},
{"zip_code":"3502211","kana_pref":"ｻｲﾀﾏｹﾝ","kana_city":"ﾂﾙｶﾞｼﾏｼ","kana_address":"ｽﾈｵﾘﾁｮｳ","pref":"埼玉県","city":"鶴ヶ島市","address":"脚折町"},
{"zip_code":"3502223","kana_pref":"ｻｲﾀﾏｹﾝ","kana_city":"ﾂﾙｶﾞｼﾏｼ","kana_address":"ﾀｶｸﾗ","pref":"埼玉県","city":"鶴ヶ島市","address":"高倉"},
{"zip_code":"3502204","kana_pref":"ｻｲﾀﾏｹﾝ","kana_city":"ﾂﾙｶﾞｼﾏｼ","kana_address":"ﾂﾙｶﾞｵｶ","pref":"埼玉県","city":"鶴ヶ島市","address":"鶴ヶ丘"},
{"zip_code":"3502226","kana_pref":"ｻｲﾀﾏｹﾝ","kana_city":"ﾂﾙｶﾞｼﾏｼ","kana_address":"ﾅｶｼﾝﾃﾞﾝ","pref":"埼玉県","city":"鶴ヶ島市","address":"中新田"},
{"zip_code":"3502221","kana_pref":"ｻｲﾀﾏｹﾝ","kana_city":"ﾂﾙｶﾞｼﾏｼ","kana_address":"ﾊﾈｵﾘﾁｮｳ","pref":"埼玉県","city":"鶴ヶ島市","address":"羽折町"},
{"zip_code":"3502206","kana_pref":"ｻｲﾀﾏｹﾝ","kana_city":"ﾂﾙｶﾞｼﾏｼ","kana_address":"ﾌｼﾞｶﾞﾈ","pref":"埼玉県","city":"鶴ヶ島市","address":"藤金"},
{"zip_code":"3502201","kana_pref":"ｻｲﾀﾏｹﾝ","kana_city":"ﾂﾙｶﾞｼﾏｼ","kana_address":"ﾌｼﾞﾐ","pref":"埼玉県","city":"鶴ヶ島市","address":"富士見"},
{"zip_code":"3502224","kana_pref":"ｻｲﾀﾏｹﾝ","kana_city":"ﾂﾙｶﾞｼﾏｼ","kana_address":"ﾏﾁﾔ","pref":"埼玉県","city":"鶴ヶ島市","address":"町屋"},
{"zip_code":"3502205","kana_pref":"ｻｲﾀﾏｹﾝ","kana_city":"ﾂﾙｶﾞｼﾏｼ","kana_address":"ﾏﾂｶﾞｵｶ","pref":"埼玉県","city":"鶴ヶ島市","address":"松ヶ丘"},
{"zip_code":"3502217","kana_pref":"ｻｲﾀﾏｹﾝ","kana_city":"ﾂﾙｶﾞｼﾏｼ","kana_address":"ﾐﾂｷﾞ","pref":"埼玉県","city":"鶴ヶ島市","address":"三ツ木"},
{"zip_code":"3502216","kana_pref":"ｻｲﾀﾏｹﾝ","kana_city":"ﾂﾙｶﾞｼﾏｼ","kana_address":"ﾐﾂｷﾞｼﾝﾃﾞﾝ","pref":"埼玉県","city":"鶴ヶ島市","address":"三ツ木新田"},
{"zip_code":"3502219","kana_pref":"ｻｲﾀﾏｹﾝ","kana_city":"ﾂﾙｶﾞｼﾏｼ","kana_address":"ﾐﾂｷﾞｼﾝﾏﾁ","pref":"埼玉県","city":"鶴ヶ島市","address":"三ツ木新町"},
{"zip_code":"3502215","kana_pref":"ｻｲﾀﾏｹﾝ","kana_city":"ﾂﾙｶﾞｼﾏｼ","kana_address":"ﾐﾅﾐﾁｮｳ","pref":"埼玉県","city":"鶴ヶ島市","address":"南町"},
{"zip_code":"3502218","kana_pref":"ｻｲﾀﾏｹﾝ","kana_city":"ﾂﾙｶﾞｼﾏｼ","kana_address":"ﾔﾅｷﾞﾄﾞﾁｮｳ","pref":"埼玉県","city":"鶴ヶ島市","address":"柳戸町"},
{"zip_code":"3501200","kana_pref":"ｻｲﾀﾏｹﾝ","kana_city":"ﾋﾀﾞｶｼ","kana_address":"","pref":"埼玉県","city":"日高市","address":""},
{"zip_code":"3501203","kana_pref":"ｻｲﾀﾏｹﾝ","kana_city":"ﾋﾀﾞｶｼ","kana_address":"ｱｻﾋｶﾞｵｶ","pref":"埼玉県","city":"日高市","address":"旭ケ丘"},
{"zip_code":"3501225","kana_pref":"ｻｲﾀﾏｹﾝ","kana_city":"ﾋﾀﾞｶｼ","kana_address":"ｳﾏﾋｷｻﾞﾜ","pref":"埼玉県","city":"日高市","address":"馬引沢"},
{"zip_code":"3501246","kana_pref":"ｻｲﾀﾏｹﾝ","kana_city":"ﾋﾀﾞｶｼ","kana_address":"ｳﾒﾊﾗ","pref":"埼玉県","city":"日高市","address":"梅原"},
{"zip_code":"3501222","kana_pref":"ｻｲﾀﾏｹﾝ","kana_city":"ﾋﾀﾞｶｼ","kana_address":"ｵｵﾔｻﾞﾜ","pref":"埼玉県","city":"日高市","address":"大谷沢"},
{"zip_code":"3501227","kana_pref":"ｻｲﾀﾏｹﾝ","kana_city":"ﾋﾀﾞｶｼ","kana_address":"ｵﾅｶｹﾞ","pref":"埼玉県","city":"日高市","address":"女影"},
{"zip_code":"3501214","kana_pref":"ｻｲﾀﾏｹﾝ","kana_city":"ﾋﾀﾞｶｼ","kana_address":"ｵﾅｶｹﾞｼﾝﾃﾞﾝ","pref":"埼玉県","city":"日高市","address":"女影新田"},
{"zip_code":"3501234","kana_pref":"ｻｲﾀﾏｹﾝ","kana_city":"ﾋﾀﾞｶｼ","kana_address":"ｶﾐｶﾔﾏ","pref":"埼玉県","city":"日高市","address":"上鹿山"},
{"zip_code":"3501231","kana_pref":"ｻｲﾀﾏｹﾝ","kana_city":"ﾋﾀﾞｶｼ","kana_address":"ｶﾔﾏ","pref":"埼玉県","city":"日高市","address":"鹿山"},
{"zip_code":"3501242","kana_pref":"ｻｲﾀﾏｹﾝ","kana_city":"ﾋﾀﾞｶｼ","kana_address":"ｷﾀﾋﾗｻﾜ","pref":"埼玉県","city":"日高市","address":"北平沢"},
{"zip_code":"3501254","kana_pref":"ｻｲﾀﾏｹﾝ","kana_city":"ﾋﾀﾞｶｼ","kana_address":"ｸﾎﾞ","pref":"埼玉県","city":"日高市","address":"久保"},
{"zip_code":"3501245","kana_pref":"ｻｲﾀﾏｹﾝ","kana_city":"ﾋﾀﾞｶｼ","kana_address":"ｸﾘﾂﾎﾞ","pref":"埼玉県","city":"日高市","address":"栗坪"},
{"zip_code":"3501202","kana_pref":"ｻｲﾀﾏｹﾝ","kana_city":"ﾋﾀﾞｶｼ","kana_address":"ｺﾏﾃﾞﾗﾉｼﾝﾃﾞﾝ","pref":"埼玉県","city":"日高市","address":"駒寺野新田"},
{"zip_code":"3501251","kana_pref":"ｻｲﾀﾏｹﾝ","kana_city":"ﾋﾀﾞｶｼ","kana_address":"ｺﾏﾎﾝｺﾞｳ","pref":"埼玉県","city":"日高市","address":"高麗本郷"},
{"zip_code":"3501221","kana_pref":"ｻｲﾀﾏｹﾝ","kana_city":"ﾋﾀﾞｶｼ","kana_address":"ｼﾓｵｵﾔｻﾞﾜ","pref":"埼玉県","city":"日高市","address":"下大谷沢"},
{"zip_code":"3501233","kana_pref":"ｻｲﾀﾏｹﾝ","kana_city":"ﾋﾀﾞｶｼ","kana_address":"ｼﾓｶﾔﾏ","pref":"埼玉県","city":"日高市","address":"下鹿山"},
{"zip_code":"3501212","kana_pref":"ｻｲﾀﾏｹﾝ","kana_city":"ﾋﾀﾞｶｼ","kana_address":"ｼﾓﾀｶﾊｷﾞｼﾝﾃﾞﾝ","pref":"埼玉県","city":"日高市","address":"下高萩新田"},
{"zip_code":"3501252","kana_pref":"ｻｲﾀﾏｹﾝ","kana_city":"ﾋﾀﾞｶｼ","kana_address":"ｾｲﾘｭｳ","pref":"埼玉県","city":"日高市","address":"清流"},
{"zip_code":"3501253","kana_pref":"ｻｲﾀﾏｹﾝ","kana_city":"ﾋﾀﾞｶｼ","kana_address":"ﾀﾞｲ","pref":"埼玉県","city":"日高市","address":"台"},
{"zip_code":"3501247","kana_pref":"ｻｲﾀﾏｹﾝ","kana_city":"ﾋﾀﾞｶｼ","kana_address":"ﾀｶｵｶ","pref":"埼玉県","city":"日高市","address":"高岡"},
{"zip_code":"3501223","kana_pref":"ｻｲﾀﾏｹﾝ","kana_city":"ﾋﾀﾞｶｼ","kana_address":"ﾀｶﾄﾐ","pref":"埼玉県","city":"日高市","address":"高富"},
{"zip_code":"3501213","kana_pref":"ｻｲﾀﾏｹﾝ","kana_city":"ﾋﾀﾞｶｼ","kana_address":"ﾀｶﾊｷﾞ","pref":"埼玉県","city":"日高市","address":"高萩"},
{"zip_code":"3501215","kana_pref":"ｻｲﾀﾏｹﾝ","kana_city":"ﾋﾀﾞｶｼ","kana_address":"ﾀｶﾊｷﾞﾋｶﾞｼ","pref":"埼玉県","city":"日高市","address":"高萩東"},
{"zip_code":"3501224","kana_pref":"ｻｲﾀﾏｹﾝ","kana_city":"ﾋﾀﾞｶｼ","kana_address":"ﾀｷﾞ","pref":"埼玉県","city":"日高市","address":"田木"},
{"zip_code":"3501201","kana_pref":"ｻｲﾀﾏｹﾝ","kana_city":"ﾋﾀﾞｶｼ","kana_address":"ﾀﾊﾞﾒ","pref":"埼玉県","city":"日高市","address":"田波目"},
{"zip_code":"3501232","kana_pref":"ｻｲﾀﾏｹﾝ","kana_city":"ﾋﾀﾞｶｼ","kana_address":"ﾅｶｶﾔﾏ","pref":"埼玉県","city":"日高市","address":"中鹿山"},
{"zip_code":"3501226","kana_pref":"ｻｲﾀﾏｹﾝ","kana_city":"ﾋﾀﾞｶｼ","kana_address":"ﾅｶｻﾞﾜ","pref":"埼玉県","city":"日高市","address":"中沢"},
{"zip_code":"3501243","kana_pref":"ｻｲﾀﾏｹﾝ","kana_city":"ﾋﾀﾞｶｼ","kana_address":"ﾆｲﾎﾘ","pref":"埼玉県","city":"日高市","address":"新堀"},
{"zip_code":"3501204","kana_pref":"ｻｲﾀﾏｹﾝ","kana_city":"ﾋﾀﾞｶｼ","kana_address":"ﾆｲﾎﾘｼﾝﾃﾞﾝ","pref":"埼玉県","city":"日高市","address":"新堀新田"},
{"zip_code":"3501235","kana_pref":"ｻｲﾀﾏｹﾝ","kana_city":"ﾋﾀﾞｶｼ","kana_address":"ﾆﾚｷﾞ","pref":"埼玉県","city":"日高市","address":"楡木"},
{"zip_code":"3501244","kana_pref":"ｻｲﾀﾏｹﾝ","kana_city":"ﾋﾀﾞｶｼ","kana_address":"ﾉﾉﾐﾔ","pref":"埼玉県","city":"日高市","address":"野々宮"},
{"zip_code":"3501205","kana_pref":"ｻｲﾀﾏｹﾝ","kana_city":"ﾋﾀﾞｶｼ","kana_address":"ﾊﾗｼﾞｭｸ","pref":"埼玉県","city":"日高市","address":"原宿"},
{"zip_code":"3501206","kana_pref":"ｻｲﾀﾏｹﾝ","kana_city":"ﾋﾀﾞｶｼ","kana_address":"ﾐﾅﾐﾋﾗｻﾜ","pref":"埼玉県","city":"日高市","address":"南平沢"},
{"zip_code":"3501255","kana_pref":"ｻｲﾀﾏｹﾝ","kana_city":"ﾋﾀﾞｶｼ","kana_address":"ﾑｻｼﾀﾞｲ","pref":"埼玉県","city":"日高市","address":"武蔵台"},
{"zip_code":"3501211","kana_pref":"ｻｲﾀﾏｹﾝ","kana_city":"ﾋﾀﾞｶｼ","kana_address":"ﾓﾘﾄﾞｼﾝﾃﾞﾝ","pref":"埼玉県","city":"日高市","address":"森戸新田"},
{"zip_code":"3501236","kana_pref":"ｻｲﾀﾏｹﾝ","kana_city":"ﾋﾀﾞｶｼ","kana_address":"ﾔｴﾝﾀﾞ","pref":"埼玉県","city":"日高市","address":"猿田"},
{"zip_code":"3501241","kana_pref":"ｻｲﾀﾏｹﾝ","kana_city":"ﾋﾀﾞｶｼ","kana_address":"ﾔﾏﾈ","pref":"埼玉県","city":"日高市","address":"山根"},
{"zip_code":"3501257","kana_pref":"ｻｲﾀﾏｹﾝ","kana_city":"ﾋﾀﾞｶｼ","kana_address":"ﾖｺﾃ","pref":"埼玉県","city":"日高市","address":"横手"},
{"zip_code":"3500400","kana_pref":"ｻｲﾀﾏｹﾝ","kana_city":"ｲﾙﾏｸﾞﾝﾓﾛﾔﾏﾏﾁ","kana_address":"","pref":"埼玉県","city":"入間郡毛呂山町","address":""},
{"zip_code":"3500444","kana_pref":"ｻｲﾀﾏｹﾝ","kana_city":"ｲﾙﾏｸﾞﾝﾓﾛﾔﾏﾏﾁ","kana_address":"ｱｻﾋﾀﾞｲ","pref":"埼玉県","city":"入間郡毛呂山町","address":"旭台"},
{"zip_code":"3500455","kana_pref":"ｻｲﾀﾏｹﾝ","kana_city":"ｲﾙﾏｸﾞﾝﾓﾛﾔﾏﾏﾁ","kana_address":"ｱｽﾜ","pref":"埼玉県","city":"入間郡毛呂山町","address":"阿諏訪"},
{"zip_code":"3500434","kana_pref":"ｻｲﾀﾏｹﾝ","kana_city":"ｲﾙﾏｸﾞﾝﾓﾛﾔﾏﾏﾁ","kana_address":"ｲﾁﾊﾞ","pref":"埼玉県","city":"入間郡毛呂山町","address":"市場"},
{"zip_code":"3500441","kana_pref":"ｻｲﾀﾏｹﾝ","kana_city":"ｲﾙﾏｸﾞﾝﾓﾛﾔﾏﾏﾁ","kana_address":"ｲﾜｲ","pref":"埼玉県","city":"入間郡毛呂山町","address":"岩井"},
{"zip_code":"3500465","kana_pref":"ｻｲﾀﾏｹﾝ","kana_city":"ｲﾙﾏｸﾞﾝﾓﾛﾔﾏﾏﾁ","kana_address":"ｲﾜｲﾆｼ","pref":"埼玉県","city":"入間郡毛呂山町","address":"岩井西"},
{"zip_code":"3500467","kana_pref":"ｻｲﾀﾏｹﾝ","kana_city":"ｲﾙﾏｸﾞﾝﾓﾛﾔﾏﾏﾁ","kana_address":"ｲﾜｲﾋｶﾞｼ","pref":"埼玉県","city":"入間郡毛呂山町","address":"岩井東"},
{"zip_code":"3500452","kana_pref":"ｻｲﾀﾏｹﾝ","kana_city":"ｲﾙﾏｸﾞﾝﾓﾛﾔﾏﾏﾁ","kana_address":"ｵｵﾔｷﾞ","pref":"埼玉県","city":"入間郡毛呂山町","address":"大谷木"},
{"zip_code":"3500432","kana_pref":"ｻｲﾀﾏｹﾝ","kana_city":"ｲﾙﾏｸﾞﾝﾓﾛﾔﾏﾏﾁ","kana_address":"ｵｵﾙｲ","pref":"埼玉県","city":"入間郡毛呂山町","address":"大類"},
{"zip_code":"3500436","kana_pref":"ｻｲﾀﾏｹﾝ","kana_city":"ｲﾙﾏｸﾞﾝﾓﾛﾔﾏﾏﾁ","kana_address":"ｶﾜｶﾄﾞ","pref":"埼玉県","city":"入間郡毛呂山町","address":"川角"},
{"zip_code":"3500446","kana_pref":"ｻｲﾀﾏｹﾝ","kana_city":"ｲﾙﾏｸﾞﾝﾓﾛﾔﾏﾏﾁ","kana_address":"ｺﾀﾞﾔ","pref":"埼玉県","city":"入間郡毛呂山町","address":"小田谷"},
{"zip_code":"3500454","kana_pref":"ｻｲﾀﾏｹﾝ","kana_city":"ｲﾙﾏｸﾞﾝﾓﾛﾔﾏﾏﾁ","kana_address":"ｺﾞﾝｹﾞﾝﾄﾞｳ","pref":"埼玉県","city":"入間郡毛呂山町","address":"権現堂"},
{"zip_code":"3500438","kana_pref":"ｻｲﾀﾏｹﾝ","kana_city":"ｲﾙﾏｸﾞﾝﾓﾛﾔﾏﾏﾁ","kana_address":"ｻｲﾄﾞ","pref":"埼玉県","city":"入間郡毛呂山町","address":"西戸"},
{"zip_code":"3500435","kana_pref":"ｻｲﾀﾏｹﾝ","kana_city":"ｲﾙﾏｸﾞﾝﾓﾛﾔﾏﾏﾁ","kana_address":"ｼﾓｶﾞﾜﾗ","pref":"埼玉県","city":"入間郡毛呂山町","address":"下川原"},
{"zip_code":"3500453","kana_pref":"ｻｲﾀﾏｹﾝ","kana_city":"ｲﾙﾏｸﾞﾝﾓﾛﾔﾏﾏﾁ","kana_address":"ｼｭｸﾔ","pref":"埼玉県","city":"入間郡毛呂山町","address":"宿谷"},
{"zip_code":"3500456","kana_pref":"ｻｲﾀﾏｹﾝ","kana_city":"ｲﾙﾏｸﾞﾝﾓﾛﾔﾏﾏﾁ","kana_address":"ﾀｷﾉｲﾘ","pref":"埼玉県","city":"入間郡毛呂山町","address":"滝ノ入"},
{"zip_code":"3500461","kana_pref":"ｻｲﾀﾏｹﾝ","kana_city":"ｲﾙﾏｸﾞﾝﾓﾛﾔﾏﾏﾁ","kana_address":"ﾁｭｳｵｳ","pref":"埼玉県","city":"入間郡毛呂山町","address":"中央"},
{"zip_code":"3500445","kana_pref":"ｻｲﾀﾏｹﾝ","kana_city":"ｲﾙﾏｸﾞﾝﾓﾛﾔﾏﾏﾁ","kana_address":"ﾂﾂﾞﾗﾇｷ","pref":"埼玉県","city":"入間郡毛呂山町","address":"葛貫"},
{"zip_code":"3500443","kana_pref":"ｻｲﾀﾏｹﾝ","kana_city":"ｲﾙﾏｸﾞﾝﾓﾛﾔﾏﾏﾁ","kana_address":"ﾅｶﾞｾ","pref":"埼玉県","city":"入間郡毛呂山町","address":"長瀬"},
{"zip_code":"3500431","kana_pref":"ｻｲﾀﾏｹﾝ","kana_city":"ｲﾙﾏｸﾞﾝﾓﾛﾔﾏﾏﾁ","kana_address":"ﾆｶﾞﾊﾞﾔｼ","pref":"埼玉県","city":"入間郡毛呂山町","address":"苦林"},
{"zip_code":"3500433","kana_pref":"ｻｲﾀﾏｹﾝ","kana_city":"ｲﾙﾏｸﾞﾝﾓﾛﾔﾏﾏﾁ","kana_address":"ﾆｼｵｵｸﾎﾞ","pref":"埼玉県","city":"入間郡毛呂山町","address":"西大久保"},
{"zip_code":"3500466","kana_pref":"ｻｲﾀﾏｹﾝ","kana_city":"ｲﾙﾏｸﾞﾝﾓﾛﾔﾏﾏﾁ","kana_address":"ﾋﾗﾔﾏ","pref":"埼玉県","city":"入間郡毛呂山町","address":"平山"},
{"zip_code":"3500442","kana_pref":"ｻｲﾀﾏｹﾝ","kana_city":"ｲﾙﾏｸﾞﾝﾓﾛﾔﾏﾏﾁ","kana_address":"ﾏｴｸﾎﾞ","pref":"埼玉県","city":"入間郡毛呂山町","address":"前久保"},
{"zip_code":"3500463","kana_pref":"ｻｲﾀﾏｹﾝ","kana_city":"ｲﾙﾏｸﾞﾝﾓﾛﾔﾏﾏﾁ","kana_address":"ﾏｴｸﾎﾞﾐﾅﾐ","pref":"埼玉県","city":"入間郡毛呂山町","address":"前久保南"},
{"zip_code":"3500464","kana_pref":"ｻｲﾀﾏｹﾝ","kana_city":"ｲﾙﾏｸﾞﾝﾓﾛﾔﾏﾏﾁ","kana_address":"ﾐﾅﾐﾀﾞｲ","pref":"埼玉県","city":"入間郡毛呂山町","address":"南台"},
{"zip_code":"3500437","kana_pref":"ｻｲﾀﾏｹﾝ","kana_city":"ｲﾙﾏｸﾞﾝﾓﾛﾔﾏﾏﾁ","kana_address":"ﾐﾉﾜﾀﾞ","pref":"埼玉県","city":"入間郡毛呂山町","address":"箕和田"},
{"zip_code":"3500439","kana_pref":"ｻｲﾀﾏｹﾝ","kana_city":"ｲﾙﾏｸﾞﾝﾓﾛﾔﾏﾏﾁ","kana_address":"ﾒｼﾞﾛﾀﾞｲ","pref":"埼玉県","city":"入間郡毛呂山町","address":"目白台"},
{"zip_code":"3500451","kana_pref":"ｻｲﾀﾏｹﾝ","kana_city":"ｲﾙﾏｸﾞﾝﾓﾛﾔﾏﾏﾁ","kana_address":"ﾓﾛﾎﾝｺﾞｳ","pref":"埼玉県","city":"入間郡毛呂山町","address":"毛呂本郷"},
{"zip_code":"3500462","kana_pref":"ｻｲﾀﾏｹﾝ","kana_city":"ｲﾙﾏｸﾞﾝﾓﾛﾔﾏﾏﾁ","kana_address":"ﾜｶﾔﾏ","pref":"埼玉県","city":"入間郡毛呂山町","address":"若山"},
{"zip_code":"3500400","kana_pref":"ｻｲﾀﾏｹﾝ","kana_city":"ｲﾙﾏｸﾞﾝｵｺﾞｾﾏﾁ","kana_address":"","pref":"埼玉県","city":"入間郡越生町","address":""},
{"zip_code":"3500415","kana_pref":"ｻｲﾀﾏｹﾝ","kana_city":"ｲﾙﾏｸﾞﾝｵｺﾞｾﾏﾁ","kana_address":"ｳｴﾉ","pref":"埼玉県","city":"入間郡越生町","address":"上野"},
{"zip_code":"3500417","kana_pref":"ｻｲﾀﾏｹﾝ","kana_city":"ｲﾙﾏｸﾞﾝｵｺﾞｾﾏﾁ","kana_address":"ｳｴﾉﾋｶﾞｼ","pref":"埼玉県","city":"入間郡越生町","address":"上野東"},
{"zip_code":"3500403","kana_pref":"ｻｲﾀﾏｹﾝ","kana_city":"ｲﾙﾏｸﾞﾝｵｺﾞｾﾏﾁ","kana_address":"ｵｵﾔ","pref":"埼玉県","city":"入間郡越生町","address":"大谷"},
{"zip_code":"3500416","kana_pref":"ｻｲﾀﾏｹﾝ","kana_city":"ｲﾙﾏｸﾞﾝｵｺﾞｾﾏﾁ","kana_address":"ｵｺﾞｾ","pref":"埼玉県","city":"入間郡越生町","address":"越生"},
{"zip_code":"3500414","kana_pref":"ｻｲﾀﾏｹﾝ","kana_city":"ｲﾙﾏｸﾞﾝｵｺﾞｾﾏﾁ","kana_address":"ｵｺﾞｾﾋｶﾞｼ","pref":"埼玉県","city":"入間郡越生町","address":"越生東"},
{"zip_code":"3500402","kana_pref":"ｻｲﾀﾏｹﾝ","kana_city":"ｲﾙﾏｸﾞﾝｵｺﾞｾﾏﾁ","kana_address":"ｶﾉｼﾀ","pref":"埼玉県","city":"入間郡越生町","address":"鹿下"},
{"zip_code":"3500407","kana_pref":"ｻｲﾀﾏｹﾝ","kana_city":"ｲﾙﾏｸﾞﾝｵｺﾞｾﾏﾁ","kana_address":"ｶﾐﾔﾂ","pref":"埼玉県","city":"入間郡越生町","address":"上谷"},
{"zip_code":"3500411","kana_pref":"ｻｲﾀﾏｹﾝ","kana_city":"ｲﾙﾏｸﾞﾝｵｺﾞｾﾏﾁ","kana_address":"ｸﾛｲﾜ","pref":"埼玉県","city":"入間郡越生町","address":"黒岩"},
{"zip_code":"3500424","kana_pref":"ｻｲﾀﾏｹﾝ","kana_city":"ｲﾙﾏｸﾞﾝｵｺﾞｾﾏﾁ","kana_address":"ｸﾛﾔﾏ","pref":"埼玉県","city":"入間郡越生町","address":"黒山"},
{"zip_code":"3500422","kana_pref":"ｻｲﾀﾏｹﾝ","kana_city":"ｲﾙﾏｸﾞﾝｵｺﾞｾﾏﾁ","kana_address":"ｺｽｷﾞ","pref":"埼玉県","city":"入間郡越生町","address":"小杉"},
{"zip_code":"3500423","kana_pref":"ｻｲﾀﾏｹﾝ","kana_city":"ｲﾙﾏｸﾞﾝｵｺﾞｾﾏﾁ","kana_address":"ﾀﾞｲﾏ","pref":"埼玉県","city":"入間郡越生町","address":"大満"},
{"zip_code":"3500425","kana_pref":"ｻｲﾀﾏｹﾝ","kana_city":"ｲﾙﾏｸﾞﾝｵｺﾞｾﾏﾁ","kana_address":"ﾀﾂｶﾞﾔ","pref":"埼玉県","city":"入間郡越生町","address":"龍ケ谷"},
{"zip_code":"3500405","kana_pref":"ｻｲﾀﾏｹﾝ","kana_city":"ｲﾙﾏｸﾞﾝｵｺﾞｾﾏﾁ","kana_address":"ﾂｸﾈ","pref":"埼玉県","city":"入間郡越生町","address":"津久根"},
{"zip_code":"3500406","kana_pref":"ｻｲﾀﾏｹﾝ","kana_city":"ｲﾙﾏｸﾞﾝｵｺﾞｾﾏﾁ","kana_address":"ﾄﾞｳﾔﾏ","pref":"埼玉県","city":"入間郡越生町","address":"堂山"},
{"zip_code":"3500404","kana_pref":"ｻｲﾀﾏｹﾝ","kana_city":"ｲﾙﾏｸﾞﾝｵｺﾞｾﾏﾁ","kana_address":"ﾅﾙｾ","pref":"埼玉県","city":"入間郡越生町","address":"成瀬"},
{"zip_code":"3500412","kana_pref":"ｻｲﾀﾏｹﾝ","kana_city":"ｲﾙﾏｸﾞﾝｵｺﾞｾﾏﾁ","kana_address":"ﾆｼﾜﾀﾞ","pref":"埼玉県","city":"入間郡越生町","address":"西和田"},
{"zip_code":"3500413","kana_pref":"ｻｲﾀﾏｹﾝ","kana_city":"ｲﾙﾏｸﾞﾝｵｺﾞｾﾏﾁ","kana_address":"ﾈｵｲ","pref":"埼玉県","city":"入間郡越生町","address":"如意"},
{"zip_code":"3500401","kana_pref":"ｻｲﾀﾏｹﾝ","kana_city":"ｲﾙﾏｸﾞﾝｵｺﾞｾﾏﾁ","kana_address":"ﾌﾙｲｹ","pref":"埼玉県","city":"入間郡越生町","address":"古池"},
{"zip_code":"3500421","kana_pref":"ｻｲﾀﾏｹﾝ","kana_city":"ｲﾙﾏｸﾞﾝｵｺﾞｾﾏﾁ","kana_address":"ﾑｷﾞﾊﾗ","pref":"埼玉県","city":"入間郡越生町","address":"麦原"},
{"zip_code":"3500100","kana_pref":"ｻｲﾀﾏｹﾝ","kana_city":"ﾋｷｸﾞﾝｶﾜｼﾞﾏﾏﾁ","kana_address":"","pref":"埼玉県","city":"比企郡川島町","address":""},
{"zip_code":"3500153","kana_pref":"ｻｲﾀﾏｹﾝ","kana_city":"ﾋｷｸﾞﾝｶﾜｼﾞﾏﾏﾁ","kana_address":"ｲｲｼﾞﾏ","pref":"埼玉県","city":"比企郡川島町","address":"飯島"},
{"zip_code":"3500158","kana_pref":"ｻｲﾀﾏｹﾝ","kana_city":"ﾋｷｸﾞﾝｶﾜｼﾞﾏﾏﾁ","kana_address":"ｲｸﾞｻ","pref":"埼玉県","city":"比企郡川島町","address":"伊草"},
{"zip_code":"3500115","kana_pref":"ｻｲﾀﾏｹﾝ","kana_city":"ﾋｷｸﾞﾝｶﾜｼﾞﾏﾏﾁ","kana_address":"ｲｯﾎﾟﾝｷﾞ","pref":"埼玉県","city":"比企郡川島町","address":"一本木"},
{"zip_code":"3500127","kana_pref":"ｻｲﾀﾏｹﾝ","kana_city":"ﾋｷｸﾞﾝｶﾜｼﾞﾏﾏﾁ","kana_address":"ｳｼｶﾞﾔﾄ","pref":"埼玉県","city":"比企郡川島町","address":"牛ケ谷戸"},
{"zip_code":"3500101","kana_pref":"ｻｲﾀﾏｹﾝ","kana_city":"ﾋｷｸﾞﾝｶﾜｼﾞﾏﾏﾁ","kana_address":"ｳﾒﾉｷ","pref":"埼玉県","city":"比企郡川島町","address":"梅ノ木"},
{"zip_code":"3500105","kana_pref":"ｻｲﾀﾏｹﾝ","kana_city":"ﾋｷｸﾞﾝｶﾜｼﾞﾏﾏﾁ","kana_address":"ｵﾐﾉ","pref":"埼玉県","city":"比企郡川島町","address":"小見野"},
{"zip_code":"3500133","kana_pref":"ｻｲﾀﾏｹﾝ","kana_city":"ﾋｷｸﾞﾝｶﾜｼﾞﾏﾏﾁ","kana_address":"ｵﾓﾃ","pref":"埼玉県","city":"比企郡川島町","address":"表"},
{"zip_code":"3500156","kana_pref":"ｻｲﾀﾏｹﾝ","kana_city":"ﾋｷｸﾞﾝｶﾜｼﾞﾏﾏﾁ","kana_address":"ｶｸｾﾝ","pref":"埼玉県","city":"比企郡川島町","address":"角泉"},
{"zip_code":"3500107","kana_pref":"ｻｲﾀﾏｹﾝ","kana_city":"ﾋｷｸﾞﾝｶﾜｼﾞﾏﾏﾁ","kana_address":"ｶｺﾞ","pref":"埼玉県","city":"比企郡川島町","address":"加胡"},
{"zip_code":"3500152","kana_pref":"ｻｲﾀﾏｹﾝ","kana_city":"ﾋｷｸﾞﾝｶﾜｼﾞﾏﾏﾁ","kana_address":"ｶﾐｲｸﾞｻ","pref":"埼玉県","city":"比企郡川島町","address":"上伊草"},
{"zip_code":"3500142","kana_pref":"ｻｲﾀﾏｹﾝ","kana_city":"ﾋｷｸﾞﾝｶﾜｼﾞﾏﾏﾁ","kana_address":"ｶﾐｵｵﾔｼｷ","pref":"埼玉県","city":"比企郡川島町","address":"上大屋敷"},
{"zip_code":"3500106","kana_pref":"ｻｲﾀﾏｹﾝ","kana_city":"ﾋｷｸﾞﾝｶﾜｼﾞﾏﾏﾁ","kana_address":"ｶﾐｵﾐﾉ","pref":"埼玉県","city":"比企郡川島町","address":"上小見野"},
{"zip_code":"3500136","kana_pref":"ｻｲﾀﾏｹﾝ","kana_city":"ﾋｷｸﾞﾝｶﾜｼﾞﾏﾏﾁ","kana_address":"ｶﾐﾑｼﾞﾅ","pref":"埼玉県","city":"比企郡川島町","address":"上狢"},
{"zip_code":"3500121","kana_pref":"ｻｲﾀﾏｹﾝ","kana_city":"ﾋｷｸﾞﾝｶﾜｼﾞﾏﾏﾁ","kana_address":"ｶﾐﾔﾂﾊﾞﾔｼ","pref":"埼玉県","city":"比企郡川島町","address":"上八ツ林"},
{"zip_code":"3500168","kana_pref":"ｻｲﾀﾏｹﾝ","kana_city":"ﾋｷｸﾞﾝｶﾜｼﾞﾏﾏﾁ","kana_address":"ｶﾜｼﾞﾏ","pref":"埼玉県","city":"比企郡川島町","address":"かわじま"},
{"zip_code":"3500163","kana_pref":"ｻｲﾀﾏｹﾝ","kana_city":"ﾋｷｸﾞﾝｶﾜｼﾞﾏﾏﾁ","kana_address":"ｷﾀｿﾉﾍﾞ","pref":"埼玉県","city":"比企郡川島町","address":"北園部"},
{"zip_code":"3500155","kana_pref":"ｻｲﾀﾏｹﾝ","kana_city":"ﾋｷｸﾞﾝｶﾜｼﾞﾏﾏﾁ","kana_address":"ｸｷﾞﾅｼ","pref":"埼玉県","city":"比企郡川島町","address":"釘無"},
{"zip_code":"3500132","kana_pref":"ｻｲﾀﾏｹﾝ","kana_city":"ﾋｷｸﾞﾝｶﾜｼﾞﾏﾏﾁ","kana_address":"ｼﾁｸ","pref":"埼玉県","city":"比企郡川島町","address":"紫竹"},
{"zip_code":"3500104","kana_pref":"ｻｲﾀﾏｹﾝ","kana_city":"ﾋｷｸﾞﾝｶﾜｼﾞﾏﾏﾁ","kana_address":"ｼﾊﾞﾇﾏ","pref":"埼玉県","city":"比企郡川島町","address":"芝沼"},
{"zip_code":"3500157","kana_pref":"ｻｲﾀﾏｹﾝ","kana_city":"ﾋｷｸﾞﾝｶﾜｼﾞﾏﾏﾁ","kana_address":"ｼﾓｲｸﾞｻ","pref":"埼玉県","city":"比企郡川島町","address":"下伊草"},
{"zip_code":"3500144","kana_pref":"ｻｲﾀﾏｹﾝ","kana_city":"ﾋｷｸﾞﾝｶﾜｼﾞﾏﾏﾁ","kana_address":"ｼﾓｵｵﾔｼｷ","pref":"埼玉県","city":"比企郡川島町","address":"下大屋敷"},
{"zip_code":"3500102","kana_pref":"ｻｲﾀﾏｹﾝ","kana_city":"ﾋｷｸﾞﾝｶﾜｼﾞﾏﾏﾁ","kana_address":"ｼﾓｵﾐﾉ","pref":"埼玉県","city":"比企郡川島町","address":"下小見野"},
{"zip_code":"3500135","kana_pref":"ｻｲﾀﾏｹﾝ","kana_city":"ﾋｷｸﾞﾝｶﾜｼﾞﾏﾏﾁ","kana_address":"ｼﾓﾑｼﾞﾅ","pref":"埼玉県","city":"比企郡川島町","address":"下狢"},
{"zip_code":"3500122","kana_pref":"ｻｲﾀﾏｹﾝ","kana_city":"ﾋｷｸﾞﾝｶﾜｼﾞﾏﾏﾁ","kana_address":"ｼﾓﾔﾂﾊﾞﾔｼ","pref":"埼玉県","city":"比企郡川島町","address":"下八ツ林"},
{"zip_code":"3500162","kana_pref":"ｻｲﾀﾏｹﾝ","kana_city":"ﾋｷｸﾞﾝｶﾜｼﾞﾏﾏﾁ","kana_address":"ｼｮｳｼﾞｷ","pref":"埼玉県","city":"比企郡川島町","address":"正直"},
{"zip_code":"3500128","kana_pref":"ｻｲﾀﾏｹﾝ","kana_city":"ﾋｷｸﾞﾝｶﾜｼﾞﾏﾏﾁ","kana_address":"ｼﾛｲﾇﾏ","pref":"埼玉県","city":"比企郡川島町","address":"白井沼"},
{"zip_code":"3500141","kana_pref":"ｻｲﾀﾏｹﾝ","kana_city":"ﾋｷｸﾞﾝｶﾜｼﾞﾏﾏﾁ","kana_address":"ﾃﾞﾏﾙｼﾓｺﾞｳ","pref":"埼玉県","city":"比企郡川島町","address":"出丸下郷"},
{"zip_code":"3500143","kana_pref":"ｻｲﾀﾏｹﾝ","kana_city":"ﾋｷｸﾞﾝｶﾜｼﾞﾏﾏﾁ","kana_address":"ﾃﾞﾏﾙﾅｶｺﾞｳ","pref":"埼玉県","city":"比企郡川島町","address":"出丸中郷"},
{"zip_code":"3500145","kana_pref":"ｻｲﾀﾏｹﾝ","kana_city":"ﾋｷｸﾞﾝｶﾜｼﾞﾏﾏﾁ","kana_address":"ﾃﾞﾏﾙﾎﾝ","pref":"埼玉県","city":"比企郡川島町","address":"出丸本"},
{"zip_code":"3500113","kana_pref":"ｻｲﾀﾏｹﾝ","kana_city":"ﾋｷｸﾞﾝｶﾜｼﾞﾏﾏﾁ","kana_address":"ﾄｳﾌﾞ","pref":"埼玉県","city":"比企郡川島町","address":"東部"},
{"zip_code":"3500117","kana_pref":"ｻｲﾀﾏｹﾝ","kana_city":"ﾋｷｸﾞﾝｶﾜｼﾞﾏﾏﾁ","kana_address":"ﾄﾊﾞｲ","pref":"埼玉県","city":"比企郡川島町","address":"鳥羽井"},
{"zip_code":"3500112","kana_pref":"ｻｲﾀﾏｹﾝ","kana_city":"ﾋｷｸﾞﾝｶﾜｼﾞﾏﾏﾁ","kana_address":"ﾄﾊﾞｲｼﾝﾃﾞﾝ","pref":"埼玉県","city":"比企郡川島町","address":"鳥羽井新田"},
{"zip_code":"3500166","kana_pref":"ｻｲﾀﾏｹﾝ","kana_city":"ﾋｷｸﾞﾝｶﾜｼﾞﾏﾏﾁ","kana_address":"ﾄﾓﾘ","pref":"埼玉県","city":"比企郡川島町","address":"戸守"},
{"zip_code":"3500165","kana_pref":"ｻｲﾀﾏｹﾝ","kana_city":"ﾋｷｸﾞﾝｶﾜｼﾞﾏﾏﾁ","kana_address":"ﾅｶﾔﾏ","pref":"埼玉県","city":"比企郡川島町","address":"中山"},
{"zip_code":"3500161","kana_pref":"ｻｲﾀﾏｹﾝ","kana_city":"ﾋｷｸﾞﾝｶﾜｼﾞﾏﾏﾁ","kana_address":"ﾅｶﾞﾗｸ","pref":"埼玉県","city":"比企郡川島町","address":"長楽"},
{"zip_code":"3500134","kana_pref":"ｻｲﾀﾏｹﾝ","kana_city":"ﾋｷｸﾞﾝｶﾜｼﾞﾏﾏﾁ","kana_address":"ﾆｲﾎﾞﾘ","pref":"埼玉県","city":"比企郡川島町","address":"新堀"},
{"zip_code":"3500147","kana_pref":"ｻｲﾀﾏｹﾝ","kana_city":"ﾋｷｸﾞﾝｶﾜｼﾞﾏﾏﾁ","kana_address":"ﾆｼﾔ","pref":"埼玉県","city":"比企郡川島町","address":"西谷"},
{"zip_code":"3500123","kana_pref":"ｻｲﾀﾏｹﾝ","kana_city":"ﾋｷｸﾞﾝｶﾜｼﾞﾏﾏﾁ","kana_address":"ﾊﾀﾅｶ","pref":"埼玉県","city":"比企郡川島町","address":"畑中"},
{"zip_code":"3500151","kana_pref":"ｻｲﾀﾏｹﾝ","kana_city":"ﾋｷｸﾞﾝｶﾜｼﾞﾏﾏﾁ","kana_address":"ﾊﾁﾏﾝ","pref":"埼玉県","city":"比企郡川島町","address":"八幡"},
{"zip_code":"3500114","kana_pref":"ｻｲﾀﾏｹﾝ","kana_city":"ﾋｷｸﾞﾝｶﾜｼﾞﾏﾏﾁ","kana_address":"ﾋｶﾞｼｵｵﾂﾞｶ","pref":"埼玉県","city":"比企郡川島町","address":"東大塚"},
{"zip_code":"3500125","kana_pref":"ｻｲﾀﾏｹﾝ","kana_city":"ﾋｷｸﾞﾝｶﾜｼﾞﾏﾏﾁ","kana_address":"ﾋｶﾞｼﾉ","pref":"埼玉県","city":"比企郡川島町","address":"東野"},
{"zip_code":"3500131","kana_pref":"ｻｲﾀﾏｹﾝ","kana_city":"ﾋｷｸﾞﾝｶﾜｼﾞﾏﾏﾁ","kana_address":"ﾋﾗﾇﾏ","pref":"埼玉県","city":"比企郡川島町","address":"平沼"},
{"zip_code":"3500164","kana_pref":"ｻｲﾀﾏｹﾝ","kana_city":"ﾋｷｸﾞﾝｶﾜｼﾞﾏﾏﾁ","kana_address":"ﾌｷﾂﾞｶ","pref":"埼玉県","city":"比企郡川島町","address":"吹塚"},
{"zip_code":"3500146","kana_pref":"ｻｲﾀﾏｹﾝ","kana_city":"ﾋｷｸﾞﾝｶﾜｼﾞﾏﾏﾁ","kana_address":"ﾏｹﾞｼ","pref":"埼玉県","city":"比企郡川島町","address":"曲師"},
{"zip_code":"3500103","kana_pref":"ｻｲﾀﾏｹﾝ","kana_city":"ﾋｷｸﾞﾝｶﾜｼﾞﾏﾏﾁ","kana_address":"ﾏﾂﾅｶﾞ","pref":"埼玉県","city":"比企郡川島町","address":"松永"},
{"zip_code":"3500167","kana_pref":"ｻｲﾀﾏｹﾝ","kana_city":"ﾋｷｸﾞﾝｶﾜｼﾞﾏﾏﾁ","kana_address":"ﾐﾅﾐｿﾉﾍﾞ","pref":"埼玉県","city":"比企郡川島町","address":"南園部"},
{"zip_code":"3500124","kana_pref":"ｻｲﾀﾏｹﾝ","kana_city":"ﾋｷｸﾞﾝｶﾜｼﾞﾏﾏﾁ","kana_address":"ﾐﾎﾔｼﾞｭｸ","pref":"埼玉県","city":"比企郡川島町","address":"三保谷宿"},
{"zip_code":"3500137","kana_pref":"ｻｲﾀﾏｹﾝ","kana_city":"ﾋｷｸﾞﾝｶﾜｼﾞﾏﾏﾁ","kana_address":"ﾐﾔﾏｴ","pref":"埼玉県","city":"比企郡川島町","address":"宮前"},
{"zip_code":"3500116","kana_pref":"ｻｲﾀﾏｹﾝ","kana_city":"ﾋｷｸﾞﾝｶﾜｼﾞﾏﾏﾁ","kana_address":"ﾑｼﾂﾞｶ","pref":"埼玉県","city":"比企郡川島町","address":"虫塚"},
{"zip_code":"3500154","kana_pref":"ｻｲﾀﾏｹﾝ","kana_city":"ﾋｷｸﾞﾝｶﾜｼﾞﾏﾏﾁ","kana_address":"ﾔｽﾂﾞｶ","pref":"埼玉県","city":"比企郡川島町","address":"安塚"},
{"zip_code":"3500111","kana_pref":"ｻｲﾀﾏｹﾝ","kana_city":"ﾋｷｸﾞﾝｶﾜｼﾞﾏﾏﾁ","kana_address":"ﾔﾅｶ","pref":"埼玉県","city":"比企郡川島町","address":"谷中"},
{"zip_code":"3500126","kana_pref":"ｻｲﾀﾏｹﾝ","kana_city":"ﾋｷｸﾞﾝｶﾜｼﾞﾏﾏﾁ","kana_address":"ﾔﾏｶﾞﾔﾄ","pref":"埼玉県","city":"比企郡川島町","address":"山ケ谷戸"},
{"zip_code":"3500138","kana_pref":"ｻｲﾀﾏｹﾝ","kana_city":"ﾋｷｸﾞﾝｶﾜｼﾞﾏﾏﾁ","kana_address":"ﾖｼﾜﾗ","pref":"埼玉県","city":"比企郡川島町","address":"吉原"},
{"zip_code":"3500300","kana_pref":"ｻｲﾀﾏｹﾝ","kana_city":"ﾋｷｸﾞﾝﾊﾄﾔﾏﾏﾁ","kana_address":"","pref":"埼玉県","city":"比企郡鳩山町","address":""},
{"zip_code":"3500321","kana_pref":"ｻｲﾀﾏｹﾝ","kana_city":"ﾋｷｸﾞﾝﾊﾄﾔﾏﾏﾁ","kana_address":"ｱｶﾇﾏ","pref":"埼玉県","city":"比企郡鳩山町","address":"赤沼"},
{"zip_code":"3500311","kana_pref":"ｻｲﾀﾏｹﾝ","kana_city":"ﾋｷｸﾞﾝﾊﾄﾔﾏﾏﾁ","kana_address":"ｲｼｻﾞｶ","pref":"埼玉県","city":"比企郡鳩山町","address":"石坂"},
{"zip_code":"3500305","kana_pref":"ｻｲﾀﾏｹﾝ","kana_city":"ﾋｷｸﾞﾝﾊﾄﾔﾏﾏﾁ","kana_address":"ｲｽﾞｲ","pref":"埼玉県","city":"比企郡鳩山町","address":"泉井"},
{"zip_code":"3500322","kana_pref":"ｻｲﾀﾏｹﾝ","kana_city":"ﾋｷｸﾞﾝﾊﾄﾔﾏﾏﾁ","kana_address":"ｲﾏｼﾞｭｸ","pref":"埼玉県","city":"比企郡鳩山町","address":"今宿"},
{"zip_code":"3500302","kana_pref":"ｻｲﾀﾏｹﾝ","kana_city":"ﾋｷｸﾞﾝﾊﾄﾔﾏﾏﾁ","kana_address":"ｵｵﾊｼ","pref":"埼玉県","city":"比企郡鳩山町","address":"大橋"},
{"zip_code":"3500301","kana_pref":"ｻｲﾀﾏｹﾝ","kana_city":"ﾋｷｸﾞﾝﾊﾄﾔﾏﾏﾁ","kana_address":"ｵｸﾀﾞ","pref":"埼玉県","city":"比企郡鳩山町","address":"奥田"},
{"zip_code":"3500314","kana_pref":"ｻｲﾀﾏｹﾝ","kana_city":"ﾋｷｸﾞﾝﾊﾄﾔﾏﾏﾁ","kana_address":"ｶｴﾃﾞｶﾞｵｶ","pref":"埼玉県","city":"比企郡鳩山町","address":"楓ケ丘"},
{"zip_code":"3500303","kana_pref":"ｻｲﾀﾏｹﾝ","kana_city":"ﾋｷｸﾞﾝﾊﾄﾔﾏﾏﾁ","kana_address":"ｸﾏｲ","pref":"埼玉県","city":"比企郡鳩山町","address":"熊井"},
{"zip_code":"3500323","kana_pref":"ｻｲﾀﾏｹﾝ","kana_city":"ﾋｷｸﾞﾝﾊﾄﾔﾏﾏﾁ","kana_address":"ｺﾖｳ","pref":"埼玉県","city":"比企郡鳩山町","address":"小用"},
{"zip_code":"3500307","kana_pref":"ｻｲﾀﾏｹﾝ","kana_city":"ﾋｷｸﾞﾝﾊﾄﾔﾏﾏﾁ","kana_address":"ｽｴ","pref":"埼玉県","city":"比企郡鳩山町","address":"須江"},
{"zip_code":"3500304","kana_pref":"ｻｲﾀﾏｹﾝ","kana_city":"ﾋｷｸﾞﾝﾊﾄﾔﾏﾏﾁ","kana_address":"ﾀｶﾉｸﾗ","pref":"埼玉県","city":"比企郡鳩山町","address":"高野倉"},
{"zip_code":"3500306","kana_pref":"ｻｲﾀﾏｹﾝ","kana_city":"ﾋｷｸﾞﾝﾊﾄﾔﾏﾏﾁ","kana_address":"ﾀｹﾓﾄ","pref":"埼玉県","city":"比企郡鳩山町","address":"竹本"},
{"zip_code":"3500312","kana_pref":"ｻｲﾀﾏｹﾝ","kana_city":"ﾋｷｸﾞﾝﾊﾄﾔﾏﾏﾁ","kana_address":"ﾊﾄｶﾞｵｶ","pref":"埼玉県","city":"比企郡鳩山町","address":"鳩ケ丘"},
{"zip_code":"3500313","kana_pref":"ｻｲﾀﾏｹﾝ","kana_city":"ﾋｷｸﾞﾝﾊﾄﾔﾏﾏﾁ","kana_address":"ﾏﾂｶﾞｵｶ","pref":"埼玉県","city":"比企郡鳩山町","address":"松ケ丘"},
{"zip_code":"3500324","kana_pref":"ｻｲﾀﾏｹﾝ","kana_city":"ﾋｷｸﾞﾝﾊﾄﾔﾏﾏﾁ","kana_address":"ﾏﾒﾄﾞ","pref":"埼玉県","city":"比企郡鳩山町","address":"大豆戸"}]}