{"zip_code":[
{"zip_code":"3520000","kana_pref":"ｻｲﾀﾏｹﾝ","kana_city":"ﾆｲｻﾞｼ","kana_address":"","pref":"埼玉県","city":"新座市","address":""},
{"zip_code":"3520021","kana_pref":"ｻｲﾀﾏｹﾝ","kana_city":"ﾆｲｻﾞｼ","kana_address":"ｱﾀｺﾞ","pref":"埼玉県","city":"新座市","address":"あたご"},
{"zip_code":"3520015","kana_pref":"ｻｲﾀﾏｹﾝ","kana_city":"ﾆｲｻﾞｼ","kana_address":"ｲｹﾀﾞ","pref":"埼玉県","city":"新座市","address":"池田"},
{"zip_code":"3520033","kana_pref":"ｻｲﾀﾏｹﾝ","kana_city":"ﾆｲｻﾞｼ","kana_address":"ｲｼｶﾞﾐ","pref":"埼玉県","city":"新座市","address":"石神"},
{"zip_code":"3520004","kana_pref":"ｻｲﾀﾏｹﾝ","kana_city":"ﾆｲｻﾞｼ","kana_address":"ｵｵﾜﾀﾞ","pref":"埼玉県","city":"新座市","address":"大和田"},
{"zip_code":"3520025","kana_pref":"ｻｲﾀﾏｹﾝ","kana_city":"ﾆｲｻﾞｼ","kana_address":"ｶﾀﾔﾏ","pref":"埼玉県","city":"新座市","address":"片山"},
{"zip_code":"3520003","kana_pref":"ｻｲﾀﾏｹﾝ","kana_city":"ﾆｲｻﾞｼ","kana_address":"ｷﾀﾉ","pref":"埼玉県","city":"新座市","address":"北野"},
{"zip_code":"3520035","kana_pref":"ｻｲﾀﾏｹﾝ","kana_city":"ﾆｲｻﾞｼ","kana_address":"ｸﾘﾊﾗ","pref":"埼玉県","city":"新座市","address":"栗原"},
{"zip_code":"3520014","kana_pref":"ｻｲﾀﾏｹﾝ","kana_city":"ﾆｲｻﾞｼ","kana_address":"ｻｶｴ","pref":"埼玉県","city":"新座市","address":"栄"},
{"zip_code":"3520032","kana_pref":"ｻｲﾀﾏｹﾝ","kana_city":"ﾆｲｻﾞｼ","kana_address":"ｼﾝﾎﾞﾘ","pref":"埼玉県","city":"新座市","address":"新堀"},
{"zip_code":"3520017","kana_pref":"ｻｲﾀﾏｹﾝ","kana_city":"ﾆｲｻﾞｼ","kana_address":"ｽｶﾞｻﾜ","pref":"埼玉県","city":"新座市","address":"菅沢"},
{"zip_code":"3520024","kana_pref":"ｻｲﾀﾏｹﾝ","kana_city":"ﾆｲｻﾞｼ","kana_address":"ﾄﾞｳｼﾞｮｳ","pref":"埼玉県","city":"新座市","address":"道場"},
{"zip_code":"3520001","kana_pref":"ｻｲﾀﾏｹﾝ","kana_city":"ﾆｲｻﾞｼ","kana_address":"ﾄｵﾎｸ","pref":"埼玉県","city":"新座市","address":"東北"},
{"zip_code":"3520005","kana_pref":"ｻｲﾀﾏｹﾝ","kana_city":"ﾆｲｻﾞｼ","kana_address":"ﾅｶﾉ","pref":"埼玉県","city":"新座市","address":"中野"},
{"zip_code":"3520006","kana_pref":"ｻｲﾀﾏｹﾝ","kana_city":"ﾆｲｻﾞｼ","kana_address":"ﾆｲｻﾞ","pref":"埼玉県","city":"新座市","address":"新座"},
{"zip_code":"3520013","kana_pref":"ｻｲﾀﾏｹﾝ","kana_city":"ﾆｲｻﾞｼ","kana_address":"ﾆｲﾂﾞｶ","pref":"埼玉県","city":"新座市","address":"新塚"},
{"zip_code":"3520031","kana_pref":"ｻｲﾀﾏｹﾝ","kana_city":"ﾆｲｻﾞｼ","kana_address":"ﾆｼﾎﾞﾘ","pref":"埼玉県","city":"新座市","address":"西堀"},
{"zip_code":"3520034","kana_pref":"ｻｲﾀﾏｹﾝ","kana_city":"ﾆｲｻﾞｼ","kana_address":"ﾉﾃﾞﾗ","pref":"埼玉県","city":"新座市","address":"野寺"},
{"zip_code":"3520011","kana_pref":"ｻｲﾀﾏｹﾝ","kana_city":"ﾆｲｻﾞｼ","kana_address":"ﾉﾋﾞﾄﾒ","pref":"埼玉県","city":"新座市","address":"野火止"},
{"zip_code":"3520012","kana_pref":"ｻｲﾀﾏｹﾝ","kana_city":"ﾆｲｻﾞｼ","kana_address":"ﾊﾀﾅｶ","pref":"埼玉県","city":"新座市","address":"畑中"},
{"zip_code":"3520016","kana_pref":"ｻｲﾀﾏｹﾝ","kana_city":"ﾆｲｻﾞｼ","kana_address":"ﾊﾞﾊﾞ","pref":"埼玉県","city":"新座市","address":"馬場"},
{"zip_code":"3520002","kana_pref":"ｻｲﾀﾏｹﾝ","kana_city":"ﾆｲｻﾞｼ","kana_address":"ﾋｶﾞｼ","pref":"埼玉県","city":"新座市","address":"東"},
{"zip_code":"3520023","kana_pref":"ｻｲﾀﾏｹﾝ","kana_city":"ﾆｲｻﾞｼ","kana_address":"ﾎﾘﾉｳﾁ","pref":"埼玉県","city":"新座市","address":"堀ノ内"},
{"zip_code":"3520022","kana_pref":"ｻｲﾀﾏｹﾝ","kana_city":"ﾆｲｻﾞｼ","kana_address":"ﾎﾝﾀﾞ","pref":"埼玉県","city":"新座市","address":"本多"}]}