{"zip_code":[
{"zip_code":"3540000","kana_pref":"ｻｲﾀﾏｹﾝ","kana_city":"ﾌｼﾞﾐｼ","kana_address":"","pref":"埼玉県","city":"富士見市","address":""},
{"zip_code":"3540016","kana_pref":"ｻｲﾀﾏｹﾝ","kana_city":"ﾌｼﾞﾐｼ","kana_address":"ｴﾉｷﾁｮｳ","pref":"埼玉県","city":"富士見市","address":"榎町"},
{"zip_code":"3540012","kana_pref":"ｻｲﾀﾏｹﾝ","kana_city":"ﾌｼﾞﾐｼ","kana_address":"ｶｲﾂﾞｶ","pref":"埼玉県","city":"富士見市","address":"貝塚"},
{"zip_code":"3540031","kana_pref":"ｻｲﾀﾏｹﾝ","kana_city":"ﾌｼﾞﾐｼ","kana_address":"ｶﾂｾ","pref":"埼玉県","city":"富士見市","address":"勝瀬"},
{"zip_code":"3540034","kana_pref":"ｻｲﾀﾏｹﾝ","kana_city":"ﾌｼﾞﾐｼ","kana_address":"ｶﾐｻﾜ","pref":"埼玉県","city":"富士見市","address":"上沢"},
{"zip_code":"3540002","kana_pref":"ｻｲﾀﾏｹﾝ","kana_city":"ﾌｼﾞﾐｼ","kana_address":"ｶﾐﾅﾝﾊﾞﾀ","pref":"埼玉県","city":"富士見市","address":"上南畑"},
{"zip_code":"3540004","kana_pref":"ｻｲﾀﾏｹﾝ","kana_city":"ﾌｼﾞﾐｼ","kana_address":"ｼﾓﾅﾝﾊﾞﾀ","pref":"埼玉県","city":"富士見市","address":"下南畑"},
{"zip_code":"3540023","kana_pref":"ｻｲﾀﾏｹﾝ","kana_city":"ﾌｼﾞﾐｼ","kana_address":"ｽﾜ","pref":"埼玉県","city":"富士見市","address":"諏訪"},
{"zip_code":"3540025","kana_pref":"ｻｲﾀﾏｹﾝ","kana_city":"ﾌｼﾞﾐｼ","kana_address":"ｾｷｻﾞﾜ","pref":"埼玉県","city":"富士見市","address":"関沢"},
{"zip_code":"3540024","kana_pref":"ｻｲﾀﾏｹﾝ","kana_city":"ﾌｼﾞﾐｼ","kana_address":"ﾂﾙｾﾋｶﾞｼ","pref":"埼玉県","city":"富士見市","address":"鶴瀬東"},
{"zip_code":"3540026","kana_pref":"ｻｲﾀﾏｹﾝ","kana_city":"ﾌｼﾞﾐｼ","kana_address":"ﾂﾙｾﾆｼ","pref":"埼玉県","city":"富士見市","address":"鶴瀬西"},
{"zip_code":"3540021","kana_pref":"ｻｲﾀﾏｹﾝ","kana_city":"ﾌｼﾞﾐｼ","kana_address":"ﾂﾙﾏ","pref":"埼玉県","city":"富士見市","address":"鶴馬"},
{"zip_code":"3540003","kana_pref":"ｻｲﾀﾏｹﾝ","kana_city":"ﾌｼﾞﾐｼ","kana_address":"ﾅﾝﾊﾞﾀｼﾝﾃﾞﾝ","pref":"埼玉県","city":"富士見市","address":"南畑新田"},
{"zip_code":"3540018","kana_pref":"ｻｲﾀﾏｹﾝ","kana_city":"ﾌｼﾞﾐｼ","kana_address":"ﾆｼﾐｽﾞﾎﾀﾞｲ","pref":"埼玉県","city":"富士見市","address":"西みずほ台"},
{"zip_code":"3540033","kana_pref":"ｻｲﾀﾏｹﾝ","kana_city":"ﾌｼﾞﾐｼ","kana_address":"ﾊﾈｻﾜ","pref":"埼玉県","city":"富士見市","address":"羽沢"},
{"zip_code":"3540017","kana_pref":"ｻｲﾀﾏｹﾝ","kana_city":"ﾌｼﾞﾐｼ","kana_address":"ﾊﾘｶﾞﾔ","pref":"埼玉県","city":"富士見市","address":"針ケ谷"},
{"zip_code":"3540001","kana_pref":"ｻｲﾀﾏｹﾝ","kana_city":"ﾌｼﾞﾐｼ","kana_address":"ﾋｶﾞｼｵｵｸﾎﾞ","pref":"埼玉県","city":"富士見市","address":"東大久保"},
{"zip_code":"3540015","kana_pref":"ｻｲﾀﾏｹﾝ","kana_city":"ﾌｼﾞﾐｼ","kana_address":"ﾋｶﾞｼﾐｽﾞﾎﾀﾞｲ","pref":"埼玉県","city":"富士見市","address":"東みずほ台"},
{"zip_code":"3540035","kana_pref":"ｻｲﾀﾏｹﾝ","kana_city":"ﾌｼﾞﾐｼ","kana_address":"ﾌｼﾞﾐﾉﾆｼ","pref":"埼玉県","city":"富士見市","address":"ふじみ野西"},
{"zip_code":"3540036","kana_pref":"ｻｲﾀﾏｹﾝ","kana_city":"ﾌｼﾞﾐｼ","kana_address":"ﾌｼﾞﾐﾉﾋｶﾞｼ","pref":"埼玉県","city":"富士見市","address":"ふじみ野東"},
{"zip_code":"3540011","kana_pref":"ｻｲﾀﾏｹﾝ","kana_city":"ﾌｼﾞﾐｼ","kana_address":"ﾐｽﾞｺ","pref":"埼玉県","city":"富士見市","address":"水子"},
{"zip_code":"3540014","kana_pref":"ｻｲﾀﾏｹﾝ","kana_city":"ﾌｼﾞﾐｼ","kana_address":"ﾐｽﾞﾀﾆ","pref":"埼玉県","city":"富士見市","address":"水谷"},
{"zip_code":"3540013","kana_pref":"ｻｲﾀﾏｹﾝ","kana_city":"ﾌｼﾞﾐｼ","kana_address":"ﾐｽﾞﾀﾆﾋｶﾞｼ","pref":"埼玉県","city":"富士見市","address":"水谷東"},
{"zip_code":"3540006","kana_pref":"ｻｲﾀﾏｹﾝ","kana_city":"ﾌｼﾞﾐｼ","kana_address":"ﾐﾄﾞﾘﾉﾋｶﾞｼ","pref":"埼玉県","city":"富士見市","address":"みどり野東"},
{"zip_code":"3540008","kana_pref":"ｻｲﾀﾏｹﾝ","kana_city":"ﾌｼﾞﾐｼ","kana_address":"ﾐﾄﾞﾘﾉﾆｼ","pref":"埼玉県","city":"富士見市","address":"みどり野西"},
{"zip_code":"3540007","kana_pref":"ｻｲﾀﾏｹﾝ","kana_city":"ﾌｼﾞﾐｼ","kana_address":"ﾐﾄﾞﾘﾉﾐﾅﾐ","pref":"埼玉県","city":"富士見市","address":"みどり野南"},
{"zip_code":"3540005","kana_pref":"ｻｲﾀﾏｹﾝ","kana_city":"ﾌｼﾞﾐｼ","kana_address":"ﾐﾄﾞﾘﾉｷﾀ","pref":"埼玉県","city":"富士見市","address":"みどり野北"},
{"zip_code":"3540022","kana_pref":"ｻｲﾀﾏｹﾝ","kana_city":"ﾌｼﾞﾐｼ","kana_address":"ﾔﾏﾑﾛ","pref":"埼玉県","city":"富士見市","address":"山室"},
{"zip_code":"3540032","kana_pref":"ｻｲﾀﾏｹﾝ","kana_city":"ﾌｼﾞﾐｼ","kana_address":"ﾜﾀﾄﾞ","pref":"埼玉県","city":"富士見市","address":"渡戸"},
{"zip_code":"3540000","kana_pref":"ｻｲﾀﾏｹﾝ","kana_city":"ｲﾙﾏｸﾞﾝﾐﾖｼﾏﾁ","kana_address":"","pref":"埼玉県","city":"入間郡三芳町","address":""},
{"zip_code":"3540045","kana_pref":"ｻｲﾀﾏｹﾝ","kana_city":"ｲﾙﾏｸﾞﾝﾐﾖｼﾏﾁ","kana_address":"ｶﾐﾄﾒ","pref":"埼玉県","city":"入間郡三芳町","address":"上富"},
{"zip_code":"3540044","kana_pref":"ｻｲﾀﾏｹﾝ","kana_city":"ｲﾙﾏｸﾞﾝﾐﾖｼﾏﾁ","kana_address":"ｷﾀﾅｶﾞｲ","pref":"埼玉県","city":"入間郡三芳町","address":"北永井"},
{"zip_code":"3540043","kana_pref":"ｻｲﾀﾏｹﾝ","kana_city":"ｲﾙﾏｸﾞﾝﾐﾖｼﾏﾁ","kana_address":"ﾁｸﾏｻﾞﾜ","pref":"埼玉県","city":"入間郡三芳町","address":"竹間沢"},
{"zip_code":"3540046","kana_pref":"ｻｲﾀﾏｹﾝ","kana_city":"ｲﾙﾏｸﾞﾝﾐﾖｼﾏﾁ","kana_address":"ﾁｸﾏｻﾞﾜﾋｶﾞｼ","pref":"埼玉県","city":"入間郡三芳町","address":"竹間沢東"},
{"zip_code":"3540041","kana_pref":"ｻｲﾀﾏｹﾝ","kana_city":"ｲﾙﾏｸﾞﾝﾐﾖｼﾏﾁ","kana_address":"ﾌｼﾞｸﾎﾞ","pref":"埼玉県","city":"入間郡三芳町","address":"藤久保"},
{"zip_code":"3540042","kana_pref":"ｻｲﾀﾏｹﾝ","kana_city":"ｲﾙﾏｸﾞﾝﾐﾖｼﾏﾁ","kana_address":"ﾐﾖｼﾀﾞｲ","pref":"埼玉県","city":"入間郡三芳町","address":"みよし台"}]}