{"zip_code":[
{"zip_code":"3560000","kana_pref":"ｻｲﾀﾏｹﾝ","kana_city":"ﾌｼﾞﾐﾉｼ","kana_address":"","pref":"埼玉県","city":"ふじみ野市","address":""},
{"zip_code":"3560055","kana_pref":"ｻｲﾀﾏｹﾝ","kana_city":"ﾌｼﾞﾐﾉｼ","kana_address":"ｱｻﾋ","pref":"埼玉県","city":"ふじみ野市","address":"旭"},
{"zip_code":"3560019","kana_pref":"ｻｲﾀﾏｹﾝ","kana_city":"ﾌｼﾞﾐﾉｼ","kana_address":"ｲｹｶﾞﾐ","pref":"埼玉県","city":"ふじみ野市","address":"池上"},
{"zip_code":"3560057","kana_pref":"ｻｲﾀﾏｹﾝ","kana_city":"ﾌｼﾞﾐﾉｼ","kana_address":"ｲﾁｻﾜ","pref":"埼玉県","city":"ふじみ野市","address":"市沢"},
{"zip_code":"3560017","kana_pref":"ｻｲﾀﾏｹﾝ","kana_city":"ﾌｼﾞﾐﾉｼ","kana_address":"ｳｴﾉﾀﾞｲ","pref":"埼玉県","city":"ふじみ野市","address":"上野台"},
{"zip_code":"3560021","kana_pref":"ｻｲﾀﾏｹﾝ","kana_city":"ﾌｼﾞﾐﾉｼ","kana_address":"ｳｴﾉﾊﾗ","pref":"埼玉県","city":"ふじみ野市","address":"上ノ原"},
{"zip_code":"3560056","kana_pref":"ｻｲﾀﾏｹﾝ","kana_city":"ﾌｼﾞﾐﾉｼ","kana_address":"ｳﾚｼﾉ","pref":"埼玉県","city":"ふじみ野市","address":"うれし野"},
{"zip_code":"3560053","kana_pref":"ｻｲﾀﾏｹﾝ","kana_city":"ﾌｼﾞﾐﾉｼ","kana_address":"ｵｵｲ","pref":"埼玉県","city":"ふじみ野市","address":"大井"},
{"zip_code":"3560058","kana_pref":"ｻｲﾀﾏｹﾝ","kana_city":"ﾌｼﾞﾐﾉｼ","kana_address":"ｵｵｲﾁｭｳｵｳ","pref":"埼玉県","city":"ふじみ野市","address":"大井中央"},
{"zip_code":"3560054","kana_pref":"ｻｲﾀﾏｹﾝ","kana_city":"ﾌｼﾞﾐﾉｼ","kana_address":"ｵｵｲﾑｻｼﾉ","pref":"埼玉県","city":"ふじみ野市","address":"大井武蔵野"},
{"zip_code":"3560003","kana_pref":"ｻｲﾀﾏｹﾝ","kana_city":"ﾌｼﾞﾐﾉｼ","kana_address":"ｵｵﾊﾗ","pref":"埼玉県","city":"ふじみ野市","address":"大原"},
{"zip_code":"3560006","kana_pref":"ｻｲﾀﾏｹﾝ","kana_city":"ﾌｼﾞﾐﾉｼ","kana_address":"ｶｽﾐｶﾞｵｶ","pref":"埼玉県","city":"ふじみ野市","address":"霞ケ丘"},
{"zip_code":"3560004","kana_pref":"ｻｲﾀﾏｹﾝ","kana_city":"ﾌｼﾞﾐﾉｼ","kana_address":"ｶﾐﾌｸｵｶ","pref":"埼玉県","city":"ふじみ野市","address":"上福岡"},
{"zip_code":"3560051","kana_pref":"ｻｲﾀﾏｹﾝ","kana_city":"ﾌｼﾞﾐﾉｼ","kana_address":"ｶﾒｸﾎﾞ","pref":"埼玉県","city":"ふじみ野市","address":"亀久保"},
{"zip_code":"3560001","kana_pref":"ｻｲﾀﾏｹﾝ","kana_city":"ﾌｼﾞﾐﾉｼ","kana_address":"ｶﾜｻｷ","pref":"埼玉県","city":"ふじみ野市","address":"川崎"},
{"zip_code":"3560007","kana_pref":"ｻｲﾀﾏｹﾝ","kana_city":"ﾌｼﾞﾐﾉｼ","kana_address":"ｷﾀﾉ","pref":"埼玉県","city":"ふじみ野市","address":"北野"},
{"zip_code":"3560002","kana_pref":"ｻｲﾀﾏｹﾝ","kana_city":"ﾌｼﾞﾐﾉｼ","kana_address":"ｷﾖﾐ","pref":"埼玉県","city":"ふじみ野市","address":"清見"},
{"zip_code":"3560029","kana_pref":"ｻｲﾀﾏｹﾝ","kana_city":"ﾌｼﾞﾐﾉｼ","kana_address":"ｺﾏﾆｼ","pref":"埼玉県","city":"ふじみ野市","address":"駒西"},
{"zip_code":"3560034","kana_pref":"ｻｲﾀﾏｹﾝ","kana_city":"ﾌｼﾞﾐﾉｼ","kana_address":"ｺﾏﾊﾞﾔｼ","pref":"埼玉県","city":"ふじみ野市","address":"駒林"},
{"zip_code":"3560038","kana_pref":"ｻｲﾀﾏｹﾝ","kana_city":"ﾌｼﾞﾐﾉｼ","kana_address":"ｺﾏﾊﾔｼﾓﾄﾏﾁ","pref":"埼玉県","city":"ふじみ野市","address":"駒林元町"},
{"zip_code":"3560059","kana_pref":"ｻｲﾀﾏｹﾝ","kana_city":"ﾌｼﾞﾐﾉｼ","kana_address":"ｻｸﾗｶﾞｵｶ","pref":"埼玉県","city":"ふじみ野市","address":"桜ケ丘"},
{"zip_code":"3560030","kana_pref":"ｻｲﾀﾏｹﾝ","kana_city":"ﾌｼﾞﾐﾉｼ","kana_address":"ｼﾝｺﾏﾊﾞﾔｼ","pref":"埼玉県","city":"ふじみ野市","address":"新駒林"},
{"zip_code":"3560033","kana_pref":"ｻｲﾀﾏｹﾝ","kana_city":"ﾌｼﾞﾐﾉｼ","kana_address":"ｼﾝﾃﾞﾝ","pref":"埼玉県","city":"ふじみ野市","address":"新田"},
{"zip_code":"3560020","kana_pref":"ｻｲﾀﾏｹﾝ","kana_city":"ﾌｼﾞﾐﾉｼ","kana_address":"ｽｲｸﾞｳ","pref":"埼玉県","city":"ふじみ野市","address":"水宮"},
{"zip_code":"3560012","kana_pref":"ｻｲﾀﾏｹﾝ","kana_city":"ﾌｼﾞﾐﾉｼ","kana_address":"ﾀｷ","pref":"埼玉県","city":"ふじみ野市","address":"滝"},
{"zip_code":"3560026","kana_pref":"ｻｲﾀﾏｹﾝ","kana_city":"ﾌｼﾞﾐﾉｼ","kana_address":"ﾂｷｼﾞ","pref":"埼玉県","city":"ふじみ野市","address":"築地"},
{"zip_code":"3560045","kana_pref":"ｻｲﾀﾏｹﾝ","kana_city":"ﾌｼﾞﾐﾉｼ","kana_address":"ﾂﾙｶﾞｵｶ","pref":"埼玉県","city":"ふじみ野市","address":"鶴ケ岡"},
{"zip_code":"3560041","kana_pref":"ｻｲﾀﾏｹﾝ","kana_city":"ﾌｼﾞﾐﾉｼ","kana_address":"ﾂﾙｶﾞﾏｲ","pref":"埼玉県","city":"ふじみ野市","address":"鶴ケ舞"},
{"zip_code":"3560052","kana_pref":"ｻｲﾀﾏｹﾝ","kana_city":"ﾌｼﾞﾐﾉｼ","kana_address":"ﾅｴﾏ","pref":"埼玉県","city":"ふじみ野市","address":"苗間"},
{"zip_code":"3560025","kana_pref":"ｻｲﾀﾏｹﾝ","kana_city":"ﾌｼﾞﾐﾉｼ","kana_address":"ﾅｶ","pref":"埼玉県","city":"ふじみ野市","address":"仲"},
{"zip_code":"3560023","kana_pref":"ｻｲﾀﾏｹﾝ","kana_city":"ﾌｼﾞﾐﾉｼ","kana_address":"ﾅｶﾉｼﾏ","pref":"埼玉県","city":"ふじみ野市","address":"中ノ島"},
{"zip_code":"3560013","kana_pref":"ｻｲﾀﾏｹﾝ","kana_city":"ﾌｼﾞﾐﾉｼ","kana_address":"ﾅｶﾌｸｵｶ","pref":"埼玉県","city":"ふじみ野市","address":"中福岡"},
{"zip_code":"3560016","kana_pref":"ｻｲﾀﾏｹﾝ","kana_city":"ﾌｼﾞﾐﾉｼ","kana_address":"ﾅｶﾏﾙ","pref":"埼玉県","city":"ふじみ野市","address":"中丸"},
{"zip_code":"3560022","kana_pref":"ｻｲﾀﾏｹﾝ","kana_city":"ﾌｼﾞﾐﾉｼ","kana_address":"ﾅｶﾞﾐﾔ","pref":"埼玉県","city":"ふじみ野市","address":"長宮"},
{"zip_code":"3560005","kana_pref":"ｻｲﾀﾏｹﾝ","kana_city":"ﾌｼﾞﾐﾉｼ","kana_address":"ﾆｼ","pref":"埼玉県","city":"ふじみ野市","address":"西"},
{"zip_code":"3560044","kana_pref":"ｻｲﾀﾏｹﾝ","kana_city":"ﾌｼﾞﾐﾉｼ","kana_address":"ﾆｼﾂﾙｶﾞｵｶ","pref":"埼玉県","city":"ふじみ野市","address":"西鶴ケ岡"},
{"zip_code":"3560028","kana_pref":"ｻｲﾀﾏｹﾝ","kana_city":"ﾌｼﾞﾐﾉｼ","kana_address":"ﾆｼﾊﾗ","pref":"埼玉県","city":"ふじみ野市","address":"西原"},
{"zip_code":"3560015","kana_pref":"ｻｲﾀﾏｹﾝ","kana_city":"ﾌｼﾞﾐﾉｼ","kana_address":"ﾊﾅﾉｷ","pref":"埼玉県","city":"ふじみ野市","address":"花ノ木"},
{"zip_code":"3560042","kana_pref":"ｻｲﾀﾏｹﾝ","kana_city":"ﾌｼﾞﾐﾉｼ","kana_address":"ﾋｶﾞｼｸﾎﾞ","pref":"埼玉県","city":"ふじみ野市","address":"東久保"},
{"zip_code":"3560011","kana_pref":"ｻｲﾀﾏｹﾝ","kana_city":"ﾌｼﾞﾐﾉｼ","kana_address":"ﾌｸｵｶ","pref":"埼玉県","city":"ふじみ野市","address":"福岡"},
{"zip_code":"3560014","kana_pref":"ｻｲﾀﾏｹﾝ","kana_city":"ﾌｼﾞﾐﾉｼ","kana_address":"ﾌｸｵｶｼﾝﾃﾞﾝ","pref":"埼玉県","city":"ふじみ野市","address":"福岡新田"},
{"zip_code":"3560031","kana_pref":"ｻｲﾀﾏｹﾝ","kana_city":"ﾌｼﾞﾐﾉｼ","kana_address":"ﾌｸｵｶﾁｭｳｵｳ","pref":"埼玉県","city":"ふじみ野市","address":"福岡中央"},
{"zip_code":"3560037","kana_pref":"ｻｲﾀﾏｹﾝ","kana_city":"ﾌｼﾞﾐﾉｼ","kana_address":"ﾌｸｵｶﾑｻｼﾉ","pref":"埼玉県","city":"ふじみ野市","address":"福岡武蔵野"},
{"zip_code":"3560032","kana_pref":"ｻｲﾀﾏｹﾝ","kana_city":"ﾌｼﾞﾐﾉｼ","kana_address":"ﾌｼﾞﾐﾀﾞｲ","pref":"埼玉県","city":"ふじみ野市","address":"富士見台"},
{"zip_code":"3560050","kana_pref":"ｻｲﾀﾏｹﾝ","kana_city":"ﾌｼﾞﾐﾉｼ","kana_address":"ﾌｼﾞﾐﾉ","pref":"埼玉県","city":"ふじみ野市","address":"ふじみ野"},
{"zip_code":"3560027","kana_pref":"ｻｲﾀﾏｹﾝ","kana_city":"ﾌｼﾞﾐﾉｼ","kana_address":"ﾏﾂﾔﾏ","pref":"埼玉県","city":"ふじみ野市","address":"松山"},
{"zip_code":"3560035","kana_pref":"ｻｲﾀﾏｹﾝ","kana_city":"ﾌｼﾞﾐﾉｼ","kana_address":"ﾏﾙﾔﾏ","pref":"埼玉県","city":"ふじみ野市","address":"丸山"},
{"zip_code":"3560043","kana_pref":"ｻｲﾀﾏｹﾝ","kana_city":"ﾌｼﾞﾐﾉｼ","kana_address":"ﾐﾄﾞﾘｶﾞｵｶ","pref":"埼玉県","city":"ふじみ野市","address":"緑ケ丘"},
{"zip_code":"3560036","kana_pref":"ｻｲﾀﾏｹﾝ","kana_city":"ﾌｼﾞﾐﾉｼ","kana_address":"ﾐﾅﾐﾀﾞｲ","pref":"埼玉県","city":"ふじみ野市","address":"南台"},
{"zip_code":"3560018","kana_pref":"ｻｲﾀﾏｹﾝ","kana_city":"ﾌｼﾞﾐﾉｼ","kana_address":"ﾓﾄｼﾝﾃﾞﾝ","pref":"埼玉県","city":"ふじみ野市","address":"本新田"},
{"zip_code":"3560008","kana_pref":"ｻｲﾀﾏｹﾝ","kana_city":"ﾌｼﾞﾐﾉｼ","kana_address":"ﾓﾄﾌｸｵｶ","pref":"埼玉県","city":"ふじみ野市","address":"元福岡"},
{"zip_code":"3560024","kana_pref":"ｻｲﾀﾏｹﾝ","kana_city":"ﾌｼﾞﾐﾉｼ","kana_address":"ﾔﾀ","pref":"埼玉県","city":"ふじみ野市","address":"谷田"}]}