{"zip_code":[
{"zip_code":"3580000","kana_pref":"ｻｲﾀﾏｹﾝ","kana_city":"ｲﾙﾏｼ","kana_address":"","pref":"埼玉県","city":"入間市","address":""},
{"zip_code":"3580002","kana_pref":"ｻｲﾀﾏｹﾝ","kana_city":"ｲﾙﾏｼ","kana_address":"ｱｽﾞﾏﾁｮｳ","pref":"埼玉県","city":"入間市","address":"東町"},
{"zip_code":"3580031","kana_pref":"ｻｲﾀﾏｹﾝ","kana_city":"ｲﾙﾏｼ","kana_address":"ｱﾗｸ","pref":"埼玉県","city":"入間市","address":"新久"},
{"zip_code":"3580027","kana_pref":"ｻｲﾀﾏｹﾝ","kana_city":"ｲﾙﾏｼ","kana_address":"ｳｴｺﾞﾔﾀ","pref":"埼玉県","city":"入間市","address":"上小谷田"},
{"zip_code":"3580051","kana_pref":"ｻｲﾀﾏｹﾝ","kana_city":"ｲﾙﾏｼ","kana_address":"ｳｼｻﾞﾜﾁｮｳ","pref":"埼玉県","city":"入間市","address":"牛沢町"},
{"zip_code":"3580023","kana_pref":"ｻｲﾀﾏｹﾝ","kana_city":"ｲﾙﾏｼ","kana_address":"ｵｳｷﾞﾀﾞｲ","pref":"埼玉県","city":"入間市","address":"扇台"},
{"zip_code":"3580022","kana_pref":"ｻｲﾀﾏｹﾝ","kana_city":"ｲﾙﾏｼ","kana_address":"ｵｳｷﾞﾏﾁﾔ","pref":"埼玉県","city":"入間市","address":"扇町屋"},
{"zip_code":"3580004","kana_pref":"ｻｲﾀﾏｹﾝ","kana_city":"ｲﾙﾏｼ","kana_address":"ｶｷﾞﾔﾏ","pref":"埼玉県","city":"入間市","address":"鍵山"},
{"zip_code":"3580006","kana_pref":"ｻｲﾀﾏｹﾝ","kana_city":"ｲﾙﾏｼ","kana_address":"ｶｽｶﾞﾁｮｳ","pref":"埼玉県","city":"入間市","address":"春日町"},
{"zip_code":"3580048","kana_pref":"ｻｲﾀﾏｹﾝ","kana_city":"ｲﾙﾏｼ","kana_address":"ｶﾈｺﾁｭｳｵｳ","pref":"埼玉県","city":"入間市","address":"金子中央"},
{"zip_code":"3580013","kana_pref":"ｻｲﾀﾏｹﾝ","kana_city":"ｲﾙﾏｼ","kana_address":"ｶﾐﾌｼﾞｻﾜ","pref":"埼玉県","city":"入間市","address":"上藤沢"},
{"zip_code":"3580042","kana_pref":"ｻｲﾀﾏｹﾝ","kana_city":"ｲﾙﾏｼ","kana_address":"ｶﾐﾔｶﾞﾇｷ","pref":"埼玉県","city":"入間市","address":"上谷ケ貫"},
{"zip_code":"3580008","kana_pref":"ｻｲﾀﾏｹﾝ","kana_city":"ｲﾙﾏｼ","kana_address":"ｶﾜﾗﾏﾁ","pref":"埼玉県","city":"入間市","address":"河原町"},
{"zip_code":"3580024","kana_pref":"ｻｲﾀﾏｹﾝ","kana_city":"ｲﾙﾏｼ","kana_address":"ｸﾎﾞｲﾅﾘ","pref":"埼玉県","city":"入間市","address":"久保稲荷"},
{"zip_code":"3580007","kana_pref":"ｻｲﾀﾏｹﾝ","kana_city":"ｲﾙﾏｼ","kana_address":"ｸﾛｽ","pref":"埼玉県","city":"入間市","address":"黒須"},
{"zip_code":"3580001","kana_pref":"ｻｲﾀﾏｹﾝ","kana_city":"ｲﾙﾏｼ","kana_address":"ｺｳﾖｳﾀﾞｲ","pref":"埼玉県","city":"入間市","address":"向陽台"},
{"zip_code":"3580017","kana_pref":"ｻｲﾀﾏｹﾝ","kana_city":"ｲﾙﾏｼ","kana_address":"ｺﾏｶﾞﾀﾌｼﾞﾔﾏ","pref":"埼玉県","city":"入間市","address":"駒形富士山"},
{"zip_code":"3580026","kana_pref":"ｻｲﾀﾏｹﾝ","kana_city":"ｲﾙﾏｼ","kana_address":"ｺﾔﾀ","pref":"埼玉県","city":"入間市","address":"小谷田"},
{"zip_code":"3580032","kana_pref":"ｻｲﾀﾏｹﾝ","kana_city":"ｲﾙﾏｼ","kana_address":"ｻﾔﾏｶﾞﾊﾗ","pref":"埼玉県","city":"入間市","address":"狭山ケ原"},
{"zip_code":"3580033","kana_pref":"ｻｲﾀﾏｹﾝ","kana_city":"ｲﾙﾏｼ","kana_address":"ｻﾔﾏﾀﾞｲ","pref":"埼玉県","city":"入間市","address":"狭山台"},
{"zip_code":"3580011","kana_pref":"ｻｲﾀﾏｹﾝ","kana_city":"ｲﾙﾏｼ","kana_address":"ｼﾓﾌｼﾞｻﾜ","pref":"埼玉県","city":"入間市","address":"下藤沢"},
{"zip_code":"3580041","kana_pref":"ｻｲﾀﾏｹﾝ","kana_city":"ｲﾙﾏｼ","kana_address":"ｼﾓﾔｶﾞﾇｷ","pref":"埼玉県","city":"入間市","address":"下谷ケ貫"},
{"zip_code":"3580055","kana_pref":"ｻｲﾀﾏｹﾝ","kana_city":"ｲﾙﾏｼ","kana_address":"ｼﾝｺｳ","pref":"埼玉県","city":"入間市","address":"新光"},
{"zip_code":"3580025","kana_pref":"ｻｲﾀﾏｹﾝ","kana_city":"ｲﾙﾏｼ","kana_address":"ｾﾞﾝｿﾞｳｼﾝﾃﾞﾝ","pref":"埼玉県","city":"入間市","address":"善蔵新田"},
{"zip_code":"3580021","kana_pref":"ｻｲﾀﾏｹﾝ","kana_city":"ｲﾙﾏｼ","kana_address":"ﾀｶｸﾗ","pref":"埼玉県","city":"入間市","address":"高倉"},
{"zip_code":"3580016","kana_pref":"ｻｲﾀﾏｹﾝ","kana_city":"ｲﾙﾏｼ","kana_address":"ﾀｶﾈ","pref":"埼玉県","city":"入間市","address":"高根"},
{"zip_code":"3580045","kana_pref":"ｻｲﾀﾏｹﾝ","kana_city":"ｲﾙﾏｼ","kana_address":"ﾃﾗﾀﾞｹ","pref":"埼玉県","city":"入間市","address":"寺竹"},
{"zip_code":"3580003","kana_pref":"ｻｲﾀﾏｹﾝ","kana_city":"ｲﾙﾏｼ","kana_address":"ﾄﾖｵｶ","pref":"埼玉県","city":"入間市","address":"豊岡"},
{"zip_code":"3580035","kana_pref":"ｻｲﾀﾏｹﾝ","kana_city":"ｲﾙﾏｼ","kana_address":"ﾅｶｶﾞﾐ","pref":"埼玉県","city":"入間市","address":"中神"},
{"zip_code":"3580043","kana_pref":"ｻｲﾀﾏｹﾝ","kana_city":"ｲﾙﾏｼ","kana_address":"ﾆｼﾐﾂｷﾞ","pref":"埼玉県","city":"入間市","address":"西三ツ木"},
{"zip_code":"3580015","kana_pref":"ｻｲﾀﾏｹﾝ","kana_city":"ｲﾙﾏｼ","kana_address":"ﾆﾎﾝｷﾞ","pref":"埼玉県","city":"入間市","address":"二本木"},
{"zip_code":"3580034","kana_pref":"ｻｲﾀﾏｹﾝ","kana_city":"ｲﾙﾏｼ","kana_address":"ﾈｷﾞｼ","pref":"埼玉県","city":"入間市","address":"根岸"},
{"zip_code":"3580054","kana_pref":"ｻｲﾀﾏｹﾝ","kana_city":"ｲﾙﾏｼ","kana_address":"ﾉﾀﾞ","pref":"埼玉県","city":"入間市","address":"野田"},
{"zip_code":"3580036","kana_pref":"ｻｲﾀﾏｹﾝ","kana_city":"ｲﾙﾏｼ","kana_address":"ﾊﾅﾉｷ","pref":"埼玉県","city":"入間市","address":"花ノ木"},
{"zip_code":"3580012","kana_pref":"ｻｲﾀﾏｹﾝ","kana_city":"ｲﾙﾏｼ","kana_address":"ﾋｶﾞｼﾌｼﾞｻﾜ","pref":"埼玉県","city":"入間市","address":"東藤沢"},
{"zip_code":"3580053","kana_pref":"ｻｲﾀﾏｹﾝ","kana_city":"ｲﾙﾏｼ","kana_address":"ﾌﾞｼ","pref":"埼玉県","city":"入間市","address":"仏子"},
{"zip_code":"3580044","kana_pref":"ｻｲﾀﾏｹﾝ","kana_city":"ｲﾙﾏｼ","kana_address":"ﾐﾂｷﾞﾀﾞｲ","pref":"埼玉県","city":"入間市","address":"三ツ木台"},
{"zip_code":"3580046","kana_pref":"ｻｲﾀﾏｹﾝ","kana_city":"ｲﾙﾏｼ","kana_address":"ﾐﾅﾐﾐﾈ","pref":"埼玉県","city":"入間市","address":"南峯"},
{"zip_code":"3580014","kana_pref":"ｻｲﾀﾏｹﾝ","kana_city":"ｲﾙﾏｼ","kana_address":"ﾐﾔﾃﾞﾗ","pref":"埼玉県","city":"入間市","address":"宮寺"},
{"zip_code":"3580005","kana_pref":"ｻｲﾀﾏｹﾝ","kana_city":"ｲﾙﾏｼ","kana_address":"ﾐﾔﾏｴﾁｮｳ","pref":"埼玉県","city":"入間市","address":"宮前町"},
{"zip_code":"3580047","kana_pref":"ｻｲﾀﾏｹﾝ","kana_city":"ｲﾙﾏｼ","kana_address":"ﾓｸﾚﾝｼﾞ","pref":"埼玉県","city":"入間市","address":"木蓮寺"},
{"zip_code":"3580052","kana_pref":"ｻｲﾀﾏｹﾝ","kana_city":"ｲﾙﾏｼ","kana_address":"ﾓﾘｻｶ","pref":"埼玉県","city":"入間市","address":"森坂"}]}