{"zip_code":[
{"zip_code":"3600000","kana_pref":"ｻｲﾀﾏｹﾝ","kana_city":"ｸﾏｶﾞﾔｼ","kana_address":"","pref":"埼玉県","city":"熊谷市","address":""},
{"zip_code":"3600826","kana_pref":"ｻｲﾀﾏｹﾝ","kana_city":"ｸﾏｶﾞﾔｼ","kana_address":"ｱｶｷﾞﾁｮｳ","pref":"埼玉県","city":"熊谷市","address":"赤城町"},
{"zip_code":"3600033","kana_pref":"ｻｲﾀﾏｹﾝ","kana_city":"ｸﾏｶﾞﾔｼ","kana_address":"ｱｹﾎﾞﾉﾁｮｳ","pref":"埼玉県","city":"熊谷市","address":"曙町"},
{"zip_code":"3600231","kana_pref":"ｻｲﾀﾏｹﾝ","kana_city":"ｸﾏｶﾞﾔｼ","kana_address":"ｲｲﾂﾞｶ","pref":"埼玉県","city":"熊谷市","address":"飯塚"},
{"zip_code":"3600011","kana_pref":"ｻｲﾀﾏｹﾝ","kana_city":"ｸﾏｶﾞﾔｼ","kana_address":"ｲｹｶﾞﾐ","pref":"埼玉県","city":"熊谷市","address":"池上"},
{"zip_code":"3600816","kana_pref":"ｻｲﾀﾏｹﾝ","kana_city":"ｸﾏｶﾞﾔｼ","kana_address":"ｲｼﾊﾗ","pref":"埼玉県","city":"熊谷市","address":"石原"},
{"zip_code":"3600821","kana_pref":"ｻｲﾀﾏｹﾝ","kana_city":"ｸﾏｶﾞﾔｼ","kana_address":"ｲｾﾁｮｳ","pref":"埼玉県","city":"熊谷市","address":"伊勢町"},
{"zip_code":"3600105","kana_pref":"ｻｲﾀﾏｹﾝ","kana_city":"ｸﾏｶﾞﾔｼ","kana_address":"ｲﾀｲ","pref":"埼玉県","city":"熊谷市","address":"板井"},
{"zip_code":"3600236","kana_pref":"ｻｲﾀﾏｹﾝ","kana_city":"ｸﾏｶﾞﾔｼ","kana_address":"ｲﾁﾉﾂﾎﾞ","pref":"埼玉県","city":"熊谷市","address":"市ノ坪"},
{"zip_code":"3600005","kana_pref":"ｻｲﾀﾏｹﾝ","kana_city":"ｸﾏｶﾞﾔｼ","kana_address":"ｲﾏｲ","pref":"埼玉県","city":"熊谷市","address":"今井"},
{"zip_code":"3600212","kana_pref":"ｻｲﾀﾏｹﾝ","kana_city":"ｸﾏｶﾞﾔｼ","kana_address":"ｴﾅﾐ","pref":"埼玉県","city":"熊谷市","address":"江波"},
{"zip_code":"3600823","kana_pref":"ｻｲﾀﾏｹﾝ","kana_city":"ｸﾏｶﾞﾔｼ","kana_address":"ｴﾉｷﾁｮｳ","pref":"埼玉県","city":"熊谷市","address":"榎町"},
{"zip_code":"3600813","kana_pref":"ｻｲﾀﾏｹﾝ","kana_city":"ｸﾏｶﾞﾔｼ","kana_address":"ｴﾝｺｳ","pref":"埼玉県","city":"熊谷市","address":"円光"},
{"zip_code":"3600103","kana_pref":"ｻｲﾀﾏｹﾝ","kana_city":"ｸﾏｶﾞﾔｼ","kana_address":"ｵｴｶﾞﾜ","pref":"埼玉県","city":"熊谷市","address":"小江川"},
{"zip_code":"3600835","kana_pref":"ｻｲﾀﾏｹﾝ","kana_city":"ｸﾏｶﾞﾔｼ","kana_address":"ｵｵｱｿｳ","pref":"埼玉県","city":"熊谷市","address":"大麻生"},
{"zip_code":"3600025","kana_pref":"ｻｲﾀﾏｹﾝ","kana_city":"ｸﾏｶﾞﾔｼ","kana_address":"ｵｵｲ","pref":"埼玉県","city":"熊谷市","address":"太井"},
{"zip_code":"3600002","kana_pref":"ｻｲﾀﾏｹﾝ","kana_city":"ｸﾏｶﾞﾔｼ","kana_address":"ｵｵﾂｶ","pref":"埼玉県","city":"熊谷市","address":"大塚"},
{"zip_code":"3600221","kana_pref":"ｻｲﾀﾏｹﾝ","kana_city":"ｸﾏｶﾞﾔｼ","kana_address":"ｵｵﾉ","pref":"埼玉県","city":"熊谷市","address":"大野"},
{"zip_code":"3600812","kana_pref":"ｻｲﾀﾏｹﾝ","kana_city":"ｸﾏｶﾞﾔｼ","kana_address":"ｵｵﾊﾗ","pref":"埼玉県","city":"熊谷市","address":"大原"},
{"zip_code":"3600111","kana_pref":"ｻｲﾀﾏｹﾝ","kana_city":"ｸﾏｶﾞﾔｼ","kana_address":"ｵｼｷﾘ","pref":"埼玉県","city":"熊谷市","address":"押切"},
{"zip_code":"3600017","kana_pref":"ｻｲﾀﾏｹﾝ","kana_city":"ｸﾏｶﾞﾔｼ","kana_address":"ｵｿﾞﾈ","pref":"埼玉県","city":"熊谷市","address":"小曽根"},
{"zip_code":"3600242","kana_pref":"ｻｲﾀﾏｹﾝ","kana_city":"ｸﾏｶﾞﾔｼ","kana_address":"ｵﾇﾏ","pref":"埼玉県","city":"熊谷市","address":"男沼"},
{"zip_code":"3600803","kana_pref":"ｻｲﾀﾏｹﾝ","kana_city":"ｸﾏｶﾞﾔｼ","kana_address":"ｶｷﾇﾏ","pref":"埼玉県","city":"熊谷市","address":"柿沼"},
{"zip_code":"3600847","kana_pref":"ｻｲﾀﾏｹﾝ","kana_city":"ｸﾏｶﾞﾔｼ","kana_address":"ｶｺﾞﾊﾗﾐﾅﾐ","pref":"埼玉県","city":"熊谷市","address":"籠原南"},
{"zip_code":"3600046","kana_pref":"ｻｲﾀﾏｹﾝ","kana_city":"ｸﾏｶﾞﾔｼ","kana_address":"ｶﾏｸﾗﾁｮｳ","pref":"埼玉県","city":"熊谷市","address":"鎌倉町"},
{"zip_code":"3600234","kana_pref":"ｻｲﾀﾏｹﾝ","kana_city":"ｸﾏｶﾞﾔｼ","kana_address":"ｶﾐｴﾌﾞｸﾛ","pref":"埼玉県","city":"熊谷市","address":"上江袋"},
{"zip_code":"3600125","kana_pref":"ｻｲﾀﾏｹﾝ","kana_city":"ｸﾏｶﾞﾔｼ","kana_address":"ｶﾐｵﾝﾀﾞ","pref":"埼玉県","city":"熊谷市","address":"上恩田"},
{"zip_code":"3600004","kana_pref":"ｻｲﾀﾏｹﾝ","kana_city":"ｸﾏｶﾞﾔｼ","kana_address":"ｶﾐｶﾜｶﾐ","pref":"埼玉県","city":"熊谷市","address":"上川上"},
{"zip_code":"3600117","kana_pref":"ｻｲﾀﾏｹﾝ","kana_city":"ｸﾏｶﾞﾔｼ","kana_address":"ｶﾐｼﾝﾃﾞﾝ","pref":"埼玉県","city":"熊谷市","address":"上新田"},
{"zip_code":"3600213","kana_pref":"ｻｲﾀﾏｹﾝ","kana_city":"ｸﾏｶﾞﾔｼ","kana_address":"ｶﾐｽﾄﾞ","pref":"埼玉県","city":"熊谷市","address":"上須戸"},
{"zip_code":"3600001","kana_pref":"ｻｲﾀﾏｹﾝ","kana_city":"ｸﾏｶﾞﾔｼ","kana_address":"ｶﾐﾁｭｳｼﾞｮｳ","pref":"埼玉県","city":"熊谷市","address":"上中条"},
{"zip_code":"3600805","kana_pref":"ｻｲﾀﾏｹﾝ","kana_city":"ｸﾏｶﾞﾔｼ","kana_address":"ｶﾐﾅﾗ","pref":"埼玉県","city":"熊谷市","address":"上奈良"},
{"zip_code":"3600217","kana_pref":"ｻｲﾀﾏｹﾝ","kana_city":"ｸﾏｶﾞﾔｼ","kana_address":"ｶﾐﾈ","pref":"埼玉県","city":"熊谷市","address":"上根"},
{"zip_code":"3600012","kana_pref":"ｻｲﾀﾏｹﾝ","kana_city":"ｸﾏｶﾞﾔｼ","kana_address":"ｶﾐﾉ","pref":"埼玉県","city":"熊谷市","address":"上之"},
{"zip_code":"3600837","kana_pref":"ｻｲﾀﾏｹﾝ","kana_city":"ｸﾏｶﾞﾔｼ","kana_address":"ｶﾜﾊﾗｱｹﾄ","pref":"埼玉県","city":"熊谷市","address":"川原明戸"},
{"zip_code":"3600035","kana_pref":"ｻｲﾀﾏｹﾝ","kana_city":"ｸﾏｶﾞﾔｼ","kana_address":"ｶﾜﾗﾁｮｳ","pref":"埼玉県","city":"熊谷市","address":"河原町"},
{"zip_code":"3600136","kana_pref":"ｻｲﾀﾏｹﾝ","kana_city":"ｸﾏｶﾞﾔｼ","kana_address":"ｷｼｮｼｷ","pref":"埼玉県","city":"熊谷市","address":"吉所敷"},
{"zip_code":"3600032","kana_pref":"ｻｲﾀﾏｹﾝ","kana_city":"ｸﾏｶﾞﾔｼ","kana_address":"ｷﾞﾝｻﾞ","pref":"埼玉県","city":"熊谷市","address":"銀座"},
{"zip_code":"3600026","kana_pref":"ｻｲﾀﾏｹﾝ","kana_city":"ｸﾏｶﾞﾔｼ","kana_address":"ｸｹﾞ","pref":"埼玉県","city":"熊谷市","address":"久下"},
{"zip_code":"3600222","kana_pref":"ｻｲﾀﾏｹﾝ","kana_city":"ｸﾏｶﾞﾔｼ","kana_address":"ｸｽﾞﾜﾀﾞ","pref":"埼玉県","city":"熊谷市","address":"葛和田"},
{"zip_code":"3600131","kana_pref":"ｻｲﾀﾏｹﾝ","kana_city":"ｸﾏｶﾞﾔｼ","kana_address":"ｸｯﾄ","pref":"埼玉県","city":"熊谷市","address":"屈戸"},
{"zip_code":"3600831","kana_pref":"ｻｲﾀﾏｹﾝ","kana_city":"ｸﾏｶﾞﾔｼ","kana_address":"ｸﾎﾞｼﾞﾏ","pref":"埼玉県","city":"熊谷市","address":"久保島"},
{"zip_code":"3600016","kana_pref":"ｻｲﾀﾏｹﾝ","kana_city":"ｸﾏｶﾞﾔｼ","kana_address":"ｸﾏｶﾞﾔ","pref":"埼玉県","city":"熊谷市","address":"熊谷"},
{"zip_code":"3600122","kana_pref":"ｻｲﾀﾏｹﾝ","kana_city":"ｸﾏｶﾞﾔｼ","kana_address":"ｺｲｽﾞﾐ","pref":"埼玉県","city":"熊谷市","address":"小泉"},
{"zip_code":"3600015","kana_pref":"ｻｲﾀﾏｹﾝ","kana_city":"ｸﾏｶﾞﾔｼ","kana_address":"ｺｲﾂﾞｶ","pref":"埼玉県","city":"熊谷市","address":"肥塚"},
{"zip_code":"3600114","kana_pref":"ｻｲﾀﾏｹﾝ","kana_city":"ｸﾏｶﾞﾔｼ","kana_address":"ｺｳﾅﾝﾁｭｳｵｳ","pref":"埼玉県","city":"熊谷市","address":"江南中央"},
{"zip_code":"3600832","kana_pref":"ｻｲﾀﾏｹﾝ","kana_city":"ｸﾏｶﾞﾔｼ","kana_address":"ｺｼﾞﾏ","pref":"埼玉県","city":"熊谷市","address":"小島"},
{"zip_code":"3600036","kana_pref":"ｻｲﾀﾏｹﾝ","kana_city":"ｸﾏｶﾞﾔｼ","kana_address":"ｻｸﾗｷﾞﾁｮｳ","pref":"埼玉県","city":"熊谷市","address":"桜木町"},
{"zip_code":"3600814","kana_pref":"ｻｲﾀﾏｹﾝ","kana_city":"ｸﾏｶﾞﾔｼ","kana_address":"ｻｸﾗﾁｮｳ","pref":"埼玉県","city":"熊谷市","address":"桜町"},
{"zip_code":"3600023","kana_pref":"ｻｲﾀﾏｹﾝ","kana_city":"ｸﾏｶﾞﾔｼ","kana_address":"ｻﾔﾀﾞ","pref":"埼玉県","city":"熊谷市","address":"佐谷田"},
{"zip_code":"3600104","kana_pref":"ｻｲﾀﾏｹﾝ","kana_city":"ｸﾏｶﾞﾔｼ","kana_address":"ｼｵ","pref":"埼玉県","city":"熊谷市","address":"塩"},
{"zip_code":"3600106","kana_pref":"ｻｲﾀﾏｹﾝ","kana_city":"ｸﾏｶﾞﾔｼ","kana_address":"ｼﾊﾞ","pref":"埼玉県","city":"熊谷市","address":"柴"},
{"zip_code":"3600006","kana_pref":"ｻｲﾀﾏｹﾝ","kana_city":"ｸﾏｶﾞﾔｼ","kana_address":"ｼﾎｳｼﾞ","pref":"埼玉県","city":"熊谷市","address":"四方寺"},
{"zip_code":"3600123","kana_pref":"ｻｲﾀﾏｹﾝ","kana_city":"ｸﾏｶﾞﾔｼ","kana_address":"ｼﾓｵﾝﾀﾞ","pref":"埼玉県","city":"熊谷市","address":"下恩田"},
{"zip_code":"3600003","kana_pref":"ｻｲﾀﾏｹﾝ","kana_city":"ｸﾏｶﾞﾔｼ","kana_address":"ｼﾓｶﾜｶﾐ","pref":"埼玉県","city":"熊谷市","address":"下川上"},
{"zip_code":"3600802","kana_pref":"ｻｲﾀﾏｹﾝ","kana_city":"ｸﾏｶﾞﾔｼ","kana_address":"ｼﾓﾅﾗ","pref":"埼玉県","city":"熊谷市","address":"下奈良"},
{"zip_code":"3600851","kana_pref":"ｻｲﾀﾏｹﾝ","kana_city":"ｸﾏｶﾞﾔｼ","kana_address":"ｼﾓﾏｽﾀﾞ","pref":"埼玉県","city":"熊谷市","address":"下増田"},
{"zip_code":"3600846","kana_pref":"ｻｲﾀﾏｹﾝ","kana_city":"ｸﾏｶﾞﾔｼ","kana_address":"ｼﾞｭｳﾛｯｹﾝ","pref":"埼玉県","city":"熊谷市","address":"拾六間"},
{"zip_code":"3600027","kana_pref":"ｻｲﾀﾏｹﾝ","kana_city":"ｸﾏｶﾞﾔｼ","kana_address":"ｼﾝｶﾜ","pref":"埼玉県","city":"熊谷市","address":"新川"},
{"zip_code":"3600031","kana_pref":"ｻｲﾀﾏｹﾝ","kana_city":"ｸﾏｶﾞﾔｼ","kana_address":"ｽｴﾋﾛ","pref":"埼玉県","city":"熊谷市","address":"末広"},
{"zip_code":"3600102","kana_pref":"ｻｲﾀﾏｹﾝ","kana_city":"ｸﾏｶﾞﾔｼ","kana_address":"ｽｶﾞﾋﾛ","pref":"埼玉県","city":"熊谷市","address":"須賀広"},
{"zip_code":"3600834","kana_pref":"ｻｲﾀﾏｹﾝ","kana_city":"ｸﾏｶﾞﾔｼ","kana_address":"ｾﾅﾐ","pref":"埼玉県","city":"熊谷市","address":"瀬南"},
{"zip_code":"3600211","kana_pref":"ｻｲﾀﾏｹﾝ","kana_city":"ｸﾏｶﾞﾔｼ","kana_address":"ｾﾞﾝｶﾞｼﾏ","pref":"埼玉県","city":"熊谷市","address":"善ケ島"},
{"zip_code":"3600107","kana_pref":"ｻｲﾀﾏｹﾝ","kana_city":"ｸﾏｶﾞﾔｼ","kana_address":"ｾﾝﾀﾞｲ","pref":"埼玉県","city":"熊谷市","address":"千代"},
{"zip_code":"3600804","kana_pref":"ｻｲﾀﾏｹﾝ","kana_city":"ｸﾏｶﾞﾔｼ","kana_address":"ﾀﾞｲ","pref":"埼玉県","city":"熊谷市","address":"代"},
{"zip_code":"3600134","kana_pref":"ｻｲﾀﾏｹﾝ","kana_city":"ｸﾏｶﾞﾔｼ","kana_address":"ﾀｶﾓﾄ","pref":"埼玉県","city":"熊谷市","address":"高本"},
{"zip_code":"3600855","kana_pref":"ｻｲﾀﾏｹﾝ","kana_city":"ｸﾏｶﾞﾔｼ","kana_address":"ﾀｶﾔﾅｷﾞ","pref":"埼玉県","city":"熊谷市","address":"高柳"},
{"zip_code":"3600215","kana_pref":"ｻｲﾀﾏｹﾝ","kana_city":"ｸﾏｶﾞﾔｼ","kana_address":"ﾀｼﾞﾏ","pref":"埼玉県","city":"熊谷市","address":"田島"},
{"zip_code":"3600853","kana_pref":"ｻｲﾀﾏｹﾝ","kana_city":"ｸﾏｶﾞﾔｼ","kana_address":"ﾀﾏｲ","pref":"埼玉県","city":"熊谷市","address":"玉井"},
{"zip_code":"3600854","kana_pref":"ｻｲﾀﾏｹﾝ","kana_city":"ｸﾏｶﾞﾔｼ","kana_address":"ﾀﾏｲﾐﾅﾐ","pref":"埼玉県","city":"熊谷市","address":"玉井南"},
{"zip_code":"3600223","kana_pref":"ｻｲﾀﾏｹﾝ","kana_city":"ｸﾏｶﾞﾔｼ","kana_address":"ﾀﾜﾗｾ","pref":"埼玉県","city":"熊谷市","address":"俵瀬"},
{"zip_code":"3600018","kana_pref":"ｻｲﾀﾏｹﾝ","kana_city":"ｸﾏｶﾞﾔｼ","kana_address":"ﾁｭｳｵｳ","pref":"埼玉県","city":"熊谷市","address":"中央"},
{"zip_code":"3600825","kana_pref":"ｻｲﾀﾏｹﾝ","kana_city":"ｸﾏｶﾞﾔｼ","kana_address":"ﾂｷﾐﾁｮｳ","pref":"埼玉県","city":"熊谷市","address":"月見町"},
{"zip_code":"3600037","kana_pref":"ｻｲﾀﾏｹﾝ","kana_city":"ｸﾏｶﾞﾔｼ","kana_address":"ﾂｸﾊﾞ","pref":"埼玉県","city":"熊谷市","address":"筑波"},
{"zip_code":"3600132","kana_pref":"ｻｲﾀﾏｹﾝ","kana_city":"ｸﾏｶﾞﾔｼ","kana_address":"ﾂﾀﾞｼﾝﾃﾞﾝ","pref":"埼玉県","city":"熊谷市","address":"津田新田"},
{"zip_code":"3600244","kana_pref":"ｻｲﾀﾏｹﾝ","kana_city":"ｸﾏｶﾞﾔｼ","kana_address":"ﾃﾞｷｼﾞﾏ","pref":"埼玉県","city":"熊谷市","address":"出来島"},
{"zip_code":"3600121","kana_pref":"ｻｲﾀﾏｹﾝ","kana_city":"ｸﾏｶﾞﾔｼ","kana_address":"ﾃｼﾏ","pref":"埼玉県","city":"熊谷市","address":"手島"},
{"zip_code":"3600232","kana_pref":"ｻｲﾀﾏｹﾝ","kana_city":"ｸﾏｶﾞﾔｼ","kana_address":"ﾄﾞｳｶﾞﾔﾄ","pref":"埼玉県","city":"熊谷市","address":"道ケ谷戸"},
{"zip_code":"3600022","kana_pref":"ｻｲﾀﾏｹﾝ","kana_city":"ｸﾏｶﾞﾔｼ","kana_address":"ﾄﾃﾞ","pref":"埼玉県","city":"熊谷市","address":"戸出"},
{"zip_code":"3600024","kana_pref":"ｻｲﾀﾏｹﾝ","kana_city":"ｸﾏｶﾞﾔｼ","kana_address":"ﾄﾝﾔﾁｮｳ","pref":"埼玉県","city":"熊谷市","address":"問屋町"},
{"zip_code":"3600237","kana_pref":"ｻｲﾀﾏｹﾝ","kana_city":"ｸﾏｶﾞﾔｼ","kana_address":"ﾅｶﾞｲｵｵﾀ","pref":"埼玉県","city":"熊谷市","address":"永井太田"},
{"zip_code":"3600124","kana_pref":"ｻｲﾀﾏｹﾝ","kana_city":"ｸﾏｶﾞﾔｼ","kana_address":"ﾅｶｵﾝﾀﾞ","pref":"埼玉県","city":"熊谷市","address":"中恩田"},
{"zip_code":"3600133","kana_pref":"ｻｲﾀﾏｹﾝ","kana_city":"ｸﾏｶﾞﾔｼ","kana_address":"ﾅｶｿﾞﾈ","pref":"埼玉県","city":"熊谷市","address":"中曽根"},
{"zip_code":"3600047","kana_pref":"ｻｲﾀﾏｹﾝ","kana_city":"ｸﾏｶﾞﾔｼ","kana_address":"ﾅｶﾁｮｳ","pref":"埼玉県","city":"熊谷市","address":"仲町"},
{"zip_code":"3600801","kana_pref":"ｻｲﾀﾏｹﾝ","kana_city":"ｸﾏｶﾞﾔｼ","kana_address":"ﾅｶﾅﾗ","pref":"埼玉県","city":"熊谷市","address":"中奈良"},
{"zip_code":"3600013","kana_pref":"ｻｲﾀﾏｹﾝ","kana_city":"ｸﾏｶﾞﾔｼ","kana_address":"ﾅｶﾆｼ","pref":"埼玉県","city":"熊谷市","address":"中西"},
{"zip_code":"3600806","kana_pref":"ｻｲﾀﾏｹﾝ","kana_city":"ｸﾏｶﾞﾔｼ","kana_address":"ﾅﾗｼﾝﾃﾞﾝ","pref":"埼玉県","city":"熊谷市","address":"奈良新田"},
{"zip_code":"3600115","kana_pref":"ｻｲﾀﾏｹﾝ","kana_city":"ｸﾏｶﾞﾔｼ","kana_address":"ﾅﾘｻﾜ","pref":"埼玉県","city":"熊谷市","address":"成沢"},
{"zip_code":"3600817","kana_pref":"ｻｲﾀﾏｹﾝ","kana_city":"ｸﾏｶﾞﾔｼ","kana_address":"ﾆｲｼﾞﾏ","pref":"埼玉県","city":"熊谷市","address":"新島"},
{"zip_code":"3600841","kana_pref":"ｻｲﾀﾏｹﾝ","kana_city":"ｸﾏｶﾞﾔｼ","kana_address":"ﾆｲﾎﾞﾘ","pref":"埼玉県","city":"熊谷市","address":"新堀"},
{"zip_code":"3600842","kana_pref":"ｻｲﾀﾏｹﾝ","kana_city":"ｸﾏｶﾞﾔｼ","kana_address":"ﾆｲﾎﾞﾘｼﾝﾃﾞﾝ","pref":"埼玉県","city":"熊谷市","address":"新堀新田"},
{"zip_code":"3600214","kana_pref":"ｻｲﾀﾏｹﾝ","kana_city":"ｸﾏｶﾞﾔｼ","kana_address":"ﾆｼｼﾞｮｳ","pref":"埼玉県","city":"熊谷市","address":"西城"},
{"zip_code":"3600216","kana_pref":"ｻｲﾀﾏｹﾝ","kana_city":"ｸﾏｶﾞﾔｼ","kana_address":"ﾆｼﾉ","pref":"埼玉県","city":"熊谷市","address":"西野"},
{"zip_code":"3600857","kana_pref":"ｻｲﾀﾏｹﾝ","kana_city":"ｸﾏｶﾞﾔｼ","kana_address":"ﾆｼﾍﾞｯﾌﾟ","pref":"埼玉県","city":"熊谷市","address":"西別府"},
{"zip_code":"3600135","kana_pref":"ｻｲﾀﾏｹﾝ","kana_city":"ｸﾏｶﾞﾔｼ","kana_address":"ﾇﾏｸﾞﾛ","pref":"埼玉県","city":"熊谷市","address":"沼黒"},
{"zip_code":"3600101","kana_pref":"ｻｲﾀﾏｹﾝ","kana_city":"ｸﾏｶﾞﾔｼ","kana_address":"ﾉﾊﾗ","pref":"埼玉県","city":"熊谷市","address":"野原"},
{"zip_code":"3600014","kana_pref":"ｻｲﾀﾏｹﾝ","kana_city":"ｸﾏｶﾞﾔｼ","kana_address":"ﾊｺﾀﾞ","pref":"埼玉県","city":"熊谷市","address":"箱田"},
{"zip_code":"3600235","kana_pref":"ｻｲﾀﾏｹﾝ","kana_city":"ｸﾏｶﾞﾔｼ","kana_address":"ﾊﾞﾗｲ","pref":"埼玉県","city":"熊谷市","address":"原井"},
{"zip_code":"3600811","kana_pref":"ｻｲﾀﾏｹﾝ","kana_city":"ｸﾏｶﾞﾔｼ","kana_address":"ﾊﾗｼﾞﾏ","pref":"埼玉県","city":"熊谷市","address":"原島"},
{"zip_code":"3600852","kana_pref":"ｻｲﾀﾏｹﾝ","kana_city":"ｸﾏｶﾞﾔｼ","kana_address":"ﾋｶﾞｼﾍﾞｯﾌﾟ","pref":"埼玉県","city":"熊谷市","address":"東別府"},
{"zip_code":"3600224","kana_pref":"ｻｲﾀﾏｹﾝ","kana_city":"ｸﾏｶﾞﾔｼ","kana_address":"ﾋﾅﾀ","pref":"埼玉県","city":"熊谷市","address":"日向"},
{"zip_code":"3600112","kana_pref":"ｻｲﾀﾏｹﾝ","kana_city":"ｸﾏｶﾞﾔｼ","kana_address":"ﾋﾊﾙ","pref":"埼玉県","city":"熊谷市","address":"樋春"},
{"zip_code":"3600163","kana_pref":"ｻｲﾀﾏｹﾝ","kana_city":"ｸﾏｶﾞﾔｼ","kana_address":"ﾋﾗﾂｶｼﾝﾃﾞﾝ","pref":"埼玉県","city":"熊谷市","address":"平塚新田"},
{"zip_code":"3600021","kana_pref":"ｻｲﾀﾏｹﾝ","kana_city":"ｸﾏｶﾞﾔｼ","kana_address":"ﾋﾗﾄ","pref":"埼玉県","city":"熊谷市","address":"平戸"},
{"zip_code":"3600833","kana_pref":"ｻｲﾀﾏｹﾝ","kana_city":"ｸﾏｶﾞﾔｼ","kana_address":"ﾋﾛｾ","pref":"埼玉県","city":"熊谷市","address":"広瀬"},
{"zip_code":"3600836","kana_pref":"ｻｲﾀﾏｹﾝ","kana_city":"ｸﾏｶﾞﾔｼ","kana_address":"ﾌﾞﾀｲ","pref":"埼玉県","city":"熊谷市","address":"武体"},
{"zip_code":"3600856","kana_pref":"ｻｲﾀﾏｹﾝ","kana_city":"ｸﾏｶﾞﾔｼ","kana_address":"ﾍﾞｯﾌﾟ","pref":"埼玉県","city":"熊谷市","address":"別府"},
{"zip_code":"3600225","kana_pref":"ｻｲﾀﾏｹﾝ","kana_city":"ｸﾏｶﾞﾔｼ","kana_address":"ﾍﾞﾝｻﾞｲ","pref":"埼玉県","city":"熊谷市","address":"弁財"},
{"zip_code":"3600043","kana_pref":"ｻｲﾀﾏｹﾝ","kana_city":"ｸﾏｶﾞﾔｼ","kana_address":"ﾎｼｶﾜ","pref":"埼玉県","city":"熊谷市","address":"星川"},
{"zip_code":"3600815","kana_pref":"ｻｲﾀﾏｹﾝ","kana_city":"ｸﾏｶﾞﾔｼ","kana_address":"ﾎﾝｺﾞｸ","pref":"埼玉県","city":"熊谷市","address":"本石"},
{"zip_code":"3600042","kana_pref":"ｻｲﾀﾏｹﾝ","kana_city":"ｸﾏｶﾞﾔｼ","kana_address":"ﾎﾝﾁｮｳ","pref":"埼玉県","city":"熊谷市","address":"本町"},
{"zip_code":"3600161","kana_pref":"ｻｲﾀﾏｹﾝ","kana_city":"ｸﾏｶﾞﾔｼ","kana_address":"ﾏｹﾞﾁ","pref":"埼玉県","city":"熊谷市","address":"万吉"},
{"zip_code":"3600243","kana_pref":"ｻｲﾀﾏｹﾝ","kana_city":"ｸﾏｶﾞﾔｼ","kana_address":"ﾏﾏﾀﾞ","pref":"埼玉県","city":"熊谷市","address":"間々田"},
{"zip_code":"3600034","kana_pref":"ｻｲﾀﾏｹﾝ","kana_city":"ｸﾏｶﾞﾔｼ","kana_address":"ﾏﾝﾍﾟｲﾁｮｳ","pref":"埼玉県","city":"熊谷市","address":"万平町"},
{"zip_code":"3600844","kana_pref":"ｻｲﾀﾏｹﾝ","kana_city":"ｸﾏｶﾞﾔｼ","kana_address":"ﾐｲｽﾞｶﾞﾊﾗ","pref":"埼玉県","city":"熊谷市","address":"御稜威ケ原"},
{"zip_code":"3600843","kana_pref":"ｻｲﾀﾏｹﾝ","kana_city":"ｸﾏｶﾞﾔｼ","kana_address":"ﾐｶｼﾞﾘ","pref":"埼玉県","city":"熊谷市","address":"三ケ尻"},
{"zip_code":"3600113","kana_pref":"ｻｲﾀﾏｹﾝ","kana_city":"ｸﾏｶﾞﾔｼ","kana_address":"ﾐｼｮｳｼﾝﾃﾞﾝ","pref":"埼玉県","city":"熊谷市","address":"御正新田"},
{"zip_code":"3600116","kana_pref":"ｻｲﾀﾏｹﾝ","kana_city":"ｸﾏｶﾞﾔｼ","kana_address":"ﾐﾂﾓﾄ","pref":"埼玉県","city":"熊谷市","address":"三本"},
{"zip_code":"3600845","kana_pref":"ｻｲﾀﾏｹﾝ","kana_city":"ｸﾏｶﾞﾔｼ","kana_address":"ﾐﾄﾞﾘﾁｮｳ","pref":"埼玉県","city":"熊谷市","address":"美土里町"},
{"zip_code":"3600824","kana_pref":"ｻｲﾀﾏｹﾝ","kana_city":"ｸﾏｶﾞﾔｼ","kana_address":"ﾐﾊﾗｼﾁｮｳ","pref":"埼玉県","city":"熊谷市","address":"見晴町"},
{"zip_code":"3600041","kana_pref":"ｻｲﾀﾏｹﾝ","kana_city":"ｸﾏｶﾞﾔｼ","kana_address":"ﾐﾔﾁｮｳ","pref":"埼玉県","city":"熊谷市","address":"宮町"},
{"zip_code":"3600045","kana_pref":"ｻｲﾀﾏｹﾝ","kana_city":"ｸﾏｶﾞﾔｼ","kana_address":"ﾐﾔﾏｴﾁｮｳ","pref":"埼玉県","city":"熊谷市","address":"宮前町"},
{"zip_code":"3600822","kana_pref":"ｻｲﾀﾏｹﾝ","kana_city":"ｸﾏｶﾞﾔｼ","kana_address":"ﾐﾔﾓﾄﾁｮｳ","pref":"埼玉県","city":"熊谷市","address":"宮本町"},
{"zip_code":"3600162","kana_pref":"ｻｲﾀﾏｹﾝ","kana_city":"ｸﾏｶﾞﾔｼ","kana_address":"ﾑﾗｵｶ","pref":"埼玉県","city":"熊谷市","address":"村岡"},
{"zip_code":"3600201","kana_pref":"ｻｲﾀﾏｹﾝ","kana_city":"ｸﾏｶﾞﾔｼ","kana_address":"ﾒﾇﾏ","pref":"埼玉県","city":"熊谷市","address":"妻沼"},
{"zip_code":"3600245","kana_pref":"ｻｲﾀﾏｹﾝ","kana_city":"ｸﾏｶﾞﾔｼ","kana_address":"ﾒﾇﾏｺｼﾞﾏ","pref":"埼玉県","city":"熊谷市","address":"妻沼小島"},
{"zip_code":"3600241","kana_pref":"ｻｲﾀﾏｹﾝ","kana_city":"ｸﾏｶﾞﾔｼ","kana_address":"ﾒﾇﾏﾀﾞｲ","pref":"埼玉県","city":"熊谷市","address":"妻沼台"},
{"zip_code":"3600204","kana_pref":"ｻｲﾀﾏｹﾝ","kana_city":"ｸﾏｶﾞﾔｼ","kana_address":"ﾒﾇﾏﾁｭｳｵｳ","pref":"埼玉県","city":"熊谷市","address":"妻沼中央"},
{"zip_code":"3600238","kana_pref":"ｻｲﾀﾏｹﾝ","kana_city":"ｸﾏｶﾞﾔｼ","kana_address":"ﾒﾇﾏﾆｼ","pref":"埼玉県","city":"熊谷市","address":"妻沼西"},
{"zip_code":"3600202","kana_pref":"ｻｲﾀﾏｹﾝ","kana_city":"ｸﾏｶﾞﾔｼ","kana_address":"ﾒﾇﾏﾋｶﾞｼ","pref":"埼玉県","city":"熊谷市","address":"妻沼東"},
{"zip_code":"3600164","kana_pref":"ｻｲﾀﾏｹﾝ","kana_city":"ｸﾏｶﾞﾔｼ","kana_address":"ﾔｷﾞｲ","pref":"埼玉県","city":"熊谷市","address":"楊井"},
{"zip_code":"3600233","kana_pref":"ｻｲﾀﾏｹﾝ","kana_city":"ｸﾏｶﾞﾔｼ","kana_address":"ﾔｷﾞﾀ","pref":"埼玉県","city":"熊谷市","address":"八木田"},
{"zip_code":"3600218","kana_pref":"ｻｲﾀﾏｹﾝ","kana_city":"ｸﾏｶﾞﾔｼ","kana_address":"ﾔﾂｸﾁ","pref":"埼玉県","city":"熊谷市","address":"八ツ口"},
{"zip_code":"3600203","kana_pref":"ｻｲﾀﾏｹﾝ","kana_city":"ｸﾏｶﾞﾔｼ","kana_address":"ﾔﾄｳｺﾞ","pref":"埼玉県","city":"熊谷市","address":"弥藤吾"},
{"zip_code":"3600044","kana_pref":"ｻｲﾀﾏｹﾝ","kana_city":"ｸﾏｶﾞﾔｼ","kana_address":"ﾔﾖｲ","pref":"埼玉県","city":"熊谷市","address":"弥生"}]}