{"zip_code":[
{"zip_code":"3610000","kana_pref":"ｻｲﾀﾏｹﾝ","kana_city":"ｷﾞｮｳﾀﾞｼ","kana_address":"","pref":"埼玉県","city":"行田市","address":""},
{"zip_code":"3610074","kana_pref":"ｻｲﾀﾏｹﾝ","kana_city":"ｷﾞｮｳﾀﾞｼ","kana_address":"ｱｻﾋﾁｮｳ","pref":"埼玉県","city":"行田市","address":"旭町"},
{"zip_code":"3610011","kana_pref":"ｻｲﾀﾏｹﾝ","kana_city":"ｷﾞｮｳﾀﾞｼ","kana_address":"ｱﾗｷ","pref":"埼玉県","city":"行田市","address":"荒木"},
{"zip_code":"3610046","kana_pref":"ｻｲﾀﾏｹﾝ","kana_city":"ｷﾞｮｳﾀﾞｼ","kana_address":"ｲﾁﾘﾔﾏﾁｮｳ","pref":"埼玉県","city":"行田市","address":"壱里山町"},
{"zip_code":"3610081","kana_pref":"ｻｲﾀﾏｹﾝ","kana_city":"ｷﾞｮｳﾀﾞｼ","kana_address":"ｲﾇｽﾞｶ","pref":"埼玉県","city":"行田市","address":"犬塚"},
{"zip_code":"3610077","kana_pref":"ｻｲﾀﾏｹﾝ","kana_city":"ｷﾞｮｳﾀﾞｼ","kana_address":"ｵｼ","pref":"埼玉県","city":"行田市","address":"忍"},
{"zip_code":"3610045","kana_pref":"ｻｲﾀﾏｹﾝ","kana_city":"ｷﾞｮｳﾀﾞｼ","kana_address":"ｵｼｱｹﾞﾁｮｳ","pref":"埼玉県","city":"行田市","address":"押上町"},
{"zip_code":"3610007","kana_pref":"ｻｲﾀﾏｹﾝ","kana_city":"ｷﾞｮｳﾀﾞｼ","kana_address":"ｵﾐ","pref":"埼玉県","city":"行田市","address":"小見"},
{"zip_code":"3610034","kana_pref":"ｻｲﾀﾏｹﾝ","kana_city":"ｷﾞｮｳﾀﾞｼ","kana_address":"ｶｶﾞﾀﾞ","pref":"埼玉県","city":"行田市","address":"利田"},
{"zip_code":"3610044","kana_pref":"ｻｲﾀﾏｹﾝ","kana_city":"ｷﾞｮｳﾀﾞｼ","kana_address":"ｶﾄﾞｲﾁｮｳ","pref":"埼玉県","city":"行田市","address":"門井町"},
{"zip_code":"3610066","kana_pref":"ｻｲﾀﾏｹﾝ","kana_city":"ｷﾞｮｳﾀﾞｼ","kana_address":"ｶﾐｲｹﾓﾘ","pref":"埼玉県","city":"行田市","address":"上池守"},
{"zip_code":"3610001","kana_pref":"ｻｲﾀﾏｹﾝ","kana_city":"ｷﾞｮｳﾀﾞｼ","kana_address":"ｷﾀｶﾞﾜﾗ","pref":"埼玉県","city":"行田市","address":"北河原"},
{"zip_code":"3610073","kana_pref":"ｻｲﾀﾏｹﾝ","kana_city":"ｷﾞｮｳﾀﾞｼ","kana_address":"ｷﾞｮｳﾀﾞ","pref":"埼玉県","city":"行田市","address":"行田"},
{"zip_code":"3610065","kana_pref":"ｻｲﾀﾏｹﾝ","kana_city":"ｷﾞｮｳﾀﾞｼ","kana_address":"ｺｼｷﾀﾞ","pref":"埼玉県","city":"行田市","address":"小敷田"},
{"zip_code":"3610024","kana_pref":"ｻｲﾀﾏｹﾝ","kana_city":"ｷﾞｮｳﾀﾞｼ","kana_address":"ｺﾊﾞﾘ","pref":"埼玉県","city":"行田市","address":"小針"},
{"zip_code":"3610055","kana_pref":"ｻｲﾀﾏｹﾝ","kana_city":"ｷﾞｮｳﾀﾞｼ","kana_address":"ｺﾏｶﾞﾀ","pref":"埼玉県","city":"行田市","address":"駒形"},
{"zip_code":"3610005","kana_pref":"ｻｲﾀﾏｹﾝ","kana_city":"ｷﾞｮｳﾀﾞｼ","kana_address":"ｻｲｼﾞｮｳ","pref":"埼玉県","city":"行田市","address":"斎条"},
{"zip_code":"3610071","kana_pref":"ｻｲﾀﾏｹﾝ","kana_city":"ｷﾞｮｳﾀﾞｼ","kana_address":"ｻｶｴﾁｮｳ","pref":"埼玉県","city":"行田市","address":"栄町"},
{"zip_code":"3610002","kana_pref":"ｻｲﾀﾏｹﾝ","kana_city":"ｷﾞｮｳﾀﾞｼ","kana_address":"ｻｶﾏｷ","pref":"埼玉県","city":"行田市","address":"酒巻"},
{"zip_code":"3610025","kana_pref":"ｻｲﾀﾏｹﾝ","kana_city":"ｷﾞｮｳﾀﾞｼ","kana_address":"ｻｷﾀﾏ","pref":"埼玉県","city":"行田市","address":"埼玉"},
{"zip_code":"3610022","kana_pref":"ｻｲﾀﾏｹﾝ","kana_city":"ｷﾞｮｳﾀﾞｼ","kana_address":"ｻｸﾗﾁｮｳ","pref":"埼玉県","city":"行田市","address":"桜町"},
{"zip_code":"3610032","kana_pref":"ｻｲﾀﾏｹﾝ","kana_city":"ｷﾞｮｳﾀﾞｼ","kana_address":"ｻﾏ","pref":"埼玉県","city":"行田市","address":"佐間"},
{"zip_code":"3610063","kana_pref":"ｻｲﾀﾏｹﾝ","kana_city":"ｷﾞｮｳﾀﾞｼ","kana_address":"ｻﾗｵ","pref":"埼玉県","city":"行田市","address":"皿尾"},
{"zip_code":"3610047","kana_pref":"ｻｲﾀﾏｹﾝ","kana_city":"ｷﾞｮｳﾀﾞｼ","kana_address":"ｼﾐｽﾞﾁｮｳ","pref":"埼玉県","city":"行田市","address":"清水町"},
{"zip_code":"3610067","kana_pref":"ｻｲﾀﾏｹﾝ","kana_city":"ｷﾞｮｳﾀﾞｼ","kana_address":"ｼﾓｲｹﾓﾘ","pref":"埼玉県","city":"行田市","address":"下池守"},
{"zip_code":"3610037","kana_pref":"ｻｲﾀﾏｹﾝ","kana_city":"ｷﾞｮｳﾀﾞｼ","kana_address":"ｼﾓｵｼ","pref":"埼玉県","city":"行田市","address":"下忍"},
{"zip_code":"3610012","kana_pref":"ｻｲﾀﾏｹﾝ","kana_city":"ｷﾞｮｳﾀﾞｼ","kana_address":"ｼﾓｽﾄﾞ","pref":"埼玉県","city":"行田市","address":"下須戸"},
{"zip_code":"3610003","kana_pref":"ｻｲﾀﾏｹﾝ","kana_city":"ｷﾞｮｳﾀﾞｼ","kana_address":"ｼﾓﾁｭｳｼﾞｮｳ","pref":"埼玉県","city":"行田市","address":"下中条"},
{"zip_code":"3610057","kana_pref":"ｻｲﾀﾏｹﾝ","kana_city":"ｷﾞｮｳﾀﾞｼ","kana_address":"ｼﾞｮｳｻｲ","pref":"埼玉県","city":"行田市","address":"城西"},
{"zip_code":"3610054","kana_pref":"ｻｲﾀﾏｹﾝ","kana_city":"ｷﾞｮｳﾀﾞｼ","kana_address":"ｼﾞｮｳﾅﾝ","pref":"埼玉県","city":"行田市","address":"城南"},
{"zip_code":"3610006","kana_pref":"ｻｲﾀﾏｹﾝ","kana_city":"ｷﾞｮｳﾀﾞｼ","kana_address":"ｼﾗｶﾜﾄﾞ","pref":"埼玉県","city":"行田市","address":"白川戸"},
{"zip_code":"3610053","kana_pref":"ｻｲﾀﾏｹﾝ","kana_city":"ｷﾞｮｳﾀﾞｼ","kana_address":"ｽｲｼﾞｮｳｺｳｴﾝ","pref":"埼玉県","city":"行田市","address":"水城公園"},
{"zip_code":"3610004","kana_pref":"ｻｲﾀﾏｹﾝ","kana_city":"ｷﾞｮｳﾀﾞｼ","kana_address":"ｽｶ","pref":"埼玉県","city":"行田市","address":"須加"},
{"zip_code":"3610015","kana_pref":"ｻｲﾀﾏｹﾝ","kana_city":"ｷﾞｮｳﾀﾞｼ","kana_address":"ｾｷﾈ","pref":"埼玉県","city":"行田市","address":"関根"},
{"zip_code":"3610041","kana_pref":"ｻｲﾀﾏｹﾝ","kana_city":"ｷﾞｮｳﾀﾞｼ","kana_address":"ﾀﾅﾀﾞﾁｮｳ","pref":"埼玉県","city":"行田市","address":"棚田町"},
{"zip_code":"3610078","kana_pref":"ｻｲﾀﾏｹﾝ","kana_city":"ｷﾞｮｳﾀﾞｼ","kana_address":"ﾁｭｳｵｳ","pref":"埼玉県","city":"行田市","address":"中央"},
{"zip_code":"3610035","kana_pref":"ｻｲﾀﾏｹﾝ","kana_city":"ｷﾞｮｳﾀﾞｼ","kana_address":"ﾂﾂﾐﾈ","pref":"埼玉県","city":"行田市","address":"堤根"},
{"zip_code":"3610076","kana_pref":"ｻｲﾀﾏｹﾝ","kana_city":"ｷﾞｮｳﾀﾞｼ","kana_address":"ﾃﾝﾏ","pref":"埼玉県","city":"行田市","address":"天満"},
{"zip_code":"3610014","kana_pref":"ｻｲﾀﾏｹﾝ","kana_city":"ｷﾞｮｳﾀﾞｼ","kana_address":"ﾄｳﾏ","pref":"埼玉県","city":"行田市","address":"藤間"},
{"zip_code":"3610083","kana_pref":"ｻｲﾀﾏｹﾝ","kana_city":"ｷﾞｮｳﾀﾞｼ","kana_address":"ﾅｶｴﾌﾞｸﾛ","pref":"埼玉県","city":"行田市","address":"中江袋"},
{"zip_code":"3610064","kana_pref":"ｻｲﾀﾏｹﾝ","kana_city":"ｷﾞｮｳﾀﾞｼ","kana_address":"ﾅｶｻﾞﾄ","pref":"埼玉県","city":"行田市","address":"中里"},
{"zip_code":"3610023","kana_pref":"ｻｲﾀﾏｹﾝ","kana_city":"ｷﾞｮｳﾀﾞｼ","kana_address":"ﾅｶﾞﾉ","pref":"埼玉県","city":"行田市","address":"長野"},
{"zip_code":"3610042","kana_pref":"ｻｲﾀﾏｹﾝ","kana_city":"ｷﾞｮｳﾀﾞｼ","kana_address":"ﾆｼｼﾝﾏﾁ","pref":"埼玉県","city":"行田市","address":"西新町"},
{"zip_code":"3610026","kana_pref":"ｻｲﾀﾏｹﾝ","kana_city":"ｷﾞｮｳﾀﾞｼ","kana_address":"ﾉ","pref":"埼玉県","city":"行田市","address":"野"},
{"zip_code":"3610036","kana_pref":"ｻｲﾀﾏｹﾝ","kana_city":"ｷﾞｮｳﾀﾞｼ","kana_address":"ﾋﾉｳｴ","pref":"埼玉県","city":"行田市","address":"樋上"},
{"zip_code":"3610043","kana_pref":"ｻｲﾀﾏｹﾝ","kana_city":"ｷﾞｮｳﾀﾞｼ","kana_address":"ﾌｶﾐﾁｮｳ","pref":"埼玉県","city":"行田市","address":"深水町"},
{"zip_code":"3610021","kana_pref":"ｻｲﾀﾏｹﾝ","kana_city":"ｷﾞｮｳﾀﾞｼ","kana_address":"ﾌｼﾞﾐﾁｮｳ","pref":"埼玉県","city":"行田市","address":"富士見町"},
{"zip_code":"3610016","kana_pref":"ｻｲﾀﾏｹﾝ","kana_city":"ｷﾞｮｳﾀﾞｼ","kana_address":"ﾌｼﾞﾜﾗﾁｮｳ","pref":"埼玉県","city":"行田市","address":"藤原町"},
{"zip_code":"3610052","kana_pref":"ｻｲﾀﾏｹﾝ","kana_city":"ｷﾞｮｳﾀﾞｼ","kana_address":"ﾎﾝﾏﾙ","pref":"埼玉県","city":"行田市","address":"本丸"},
{"zip_code":"3610038","kana_pref":"ｻｲﾀﾏｹﾝ","kana_city":"ｷﾞｮｳﾀﾞｼ","kana_address":"ﾏｴﾔ","pref":"埼玉県","city":"行田市","address":"前谷"},
{"zip_code":"3610013","kana_pref":"ｻｲﾀﾏｹﾝ","kana_city":"ｷﾞｮｳﾀﾞｼ","kana_address":"ﾏﾅｲﾀ","pref":"埼玉県","city":"行田市","address":"真名板"},
{"zip_code":"3610082","kana_pref":"ｻｲﾀﾏｹﾝ","kana_city":"ｷﾞｮｳﾀﾞｼ","kana_address":"ﾏﾐﾂﾞｶ","pref":"埼玉県","city":"行田市","address":"馬見塚"},
{"zip_code":"3610031","kana_pref":"ｻｲﾀﾏｹﾝ","kana_city":"ｷﾞｮｳﾀﾞｼ","kana_address":"ﾐﾄﾞﾘﾁｮｳ","pref":"埼玉県","city":"行田市","address":"緑町"},
{"zip_code":"3610084","kana_pref":"ｻｲﾀﾏｹﾝ","kana_city":"ｷﾞｮｳﾀﾞｼ","kana_address":"ﾐﾅﾐｶﾜﾗ","pref":"埼玉県","city":"行田市","address":"南河原"},
{"zip_code":"3610072","kana_pref":"ｻｲﾀﾏｹﾝ","kana_city":"ｷﾞｮｳﾀﾞｼ","kana_address":"ﾐﾔﾓﾄ","pref":"埼玉県","city":"行田市","address":"宮本"},
{"zip_code":"3610075","kana_pref":"ｻｲﾀﾏｹﾝ","kana_city":"ｷﾞｮｳﾀﾞｼ","kana_address":"ﾑｶｲﾏﾁ","pref":"埼玉県","city":"行田市","address":"向町"},
{"zip_code":"3610056","kana_pref":"ｻｲﾀﾏｹﾝ","kana_city":"ｷﾞｮｳﾀﾞｼ","kana_address":"ﾓﾁﾀﾞ","pref":"埼玉県","city":"行田市","address":"持田"},
{"zip_code":"3610062","kana_pref":"ｻｲﾀﾏｹﾝ","kana_city":"ｷﾞｮｳﾀﾞｼ","kana_address":"ﾔｺﾞｳ","pref":"埼玉県","city":"行田市","address":"谷郷"},
{"zip_code":"3610051","kana_pref":"ｻｲﾀﾏｹﾝ","kana_city":"ｷﾞｮｳﾀﾞｼ","kana_address":"ﾔﾊﾞ","pref":"埼玉県","city":"行田市","address":"矢場"},
{"zip_code":"3610017","kana_pref":"ｻｲﾀﾏｹﾝ","kana_city":"ｷﾞｮｳﾀﾞｼ","kana_address":"ﾜｶｺﾀﾞﾏ","pref":"埼玉県","city":"行田市","address":"若小玉"},
{"zip_code":"3610033","kana_pref":"ｻｲﾀﾏｹﾝ","kana_city":"ｷﾞｮｳﾀﾞｼ","kana_address":"ﾜﾀﾘﾔﾅｷﾞ","pref":"埼玉県","city":"行田市","address":"渡柳"},
{"zip_code":"3610061","kana_pref":"ｻｲﾀﾏｹﾝ","kana_city":"ｷﾞｮｳﾀﾞｼ","kana_address":"ﾜﾀﾞ","pref":"埼玉県","city":"行田市","address":"和田"}]}