{"zip_code":[
{"zip_code":"3630000","kana_pref":"ｻｲﾀﾏｹﾝ","kana_city":"ｵｹｶﾞﾜｼ","kana_address":"","pref":"埼玉県","city":"桶川市","address":""},
{"zip_code":"3630002","kana_pref":"ｻｲﾀﾏｹﾝ","kana_city":"ｵｹｶﾞﾜｼ","kana_address":"ｱｶﾎﾞﾘ","pref":"埼玉県","city":"桶川市","address":"赤堀"},
{"zip_code":"3630023","kana_pref":"ｻｲﾀﾏｹﾝ","kana_city":"ｵｹｶﾞﾜｼ","kana_address":"ｱｻﾋ","pref":"埼玉県","city":"桶川市","address":"朝日"},
{"zip_code":"3630021","kana_pref":"ｻｲﾀﾏｹﾝ","kana_city":"ｵｹｶﾞﾜｼ","kana_address":"ｲｽﾞﾐ","pref":"埼玉県","city":"桶川市","address":"泉"},
{"zip_code":"3630001","kana_pref":"ｻｲﾀﾏｹﾝ","kana_city":"ｵｹｶﾞﾜｼ","kana_address":"ｶﾉｳ","pref":"埼玉県","city":"桶川市","address":"加納"},
{"zip_code":"3630026","kana_pref":"ｻｲﾀﾏｹﾝ","kana_city":"ｵｹｶﾞﾜｼ","kana_address":"ｶﾐﾋﾃﾞﾔ","pref":"埼玉県","city":"桶川市","address":"上日出谷"},
{"zip_code":"3630024","kana_pref":"ｻｲﾀﾏｹﾝ","kana_city":"ｵｹｶﾞﾜｼ","kana_address":"ｶﾓｶﾞﾜ","pref":"埼玉県","city":"桶川市","address":"鴨川"},
{"zip_code":"3630027","kana_pref":"ｻｲﾀﾏｹﾝ","kana_city":"ｵｹｶﾞﾜｼ","kana_address":"ｶﾜﾀﾔ","pref":"埼玉県","city":"桶川市","address":"川田谷"},
{"zip_code":"3630011","kana_pref":"ｻｲﾀﾏｹﾝ","kana_city":"ｵｹｶﾞﾜｼ","kana_address":"ｷﾀ","pref":"埼玉県","city":"桶川市","address":"北"},
{"zip_code":"3630006","kana_pref":"ｻｲﾀﾏｹﾝ","kana_city":"ｵｹｶﾞﾜｼ","kana_address":"ｸﾗﾀ","pref":"埼玉県","city":"桶川市","address":"倉田"},
{"zip_code":"3630004","kana_pref":"ｻｲﾀﾏｹﾝ","kana_city":"ｵｹｶﾞﾜｼ","kana_address":"ｺﾞﾁｮｳﾀﾞｲ","pref":"埼玉県","city":"桶川市","address":"五丁台"},
{"zip_code":"3630016","kana_pref":"ｻｲﾀﾏｹﾝ","kana_city":"ｵｹｶﾞﾜｼ","kana_address":"ｺﾄﾌﾞｷ","pref":"埼玉県","city":"桶川市","address":"寿"},
{"zip_code":"3630007","kana_pref":"ｻｲﾀﾏｹﾝ","kana_city":"ｵｹｶﾞﾜｼ","kana_address":"ｺﾊﾞﾘﾘｮｳｹ","pref":"埼玉県","city":"桶川市","address":"小針領家"},
{"zip_code":"3630008","kana_pref":"ｻｲﾀﾏｹﾝ","kana_city":"ｵｹｶﾞﾜｼ","kana_address":"ｻｶﾀ","pref":"埼玉県","city":"桶川市","address":"坂田"},
{"zip_code":"3630009","kana_pref":"ｻｲﾀﾏｹﾝ","kana_city":"ｵｹｶﾞﾜｼ","kana_address":"ｻｶﾀﾋｶﾞｼ","pref":"埼玉県","city":"桶川市","address":"坂田東"},
{"zip_code":"3630003","kana_pref":"ｻｲﾀﾏｹﾝ","kana_city":"ｵｹｶﾞﾜｼ","kana_address":"ｼﾉﾂﾞ","pref":"埼玉県","city":"桶川市","address":"篠津"},
{"zip_code":"3630025","kana_pref":"ｻｲﾀﾏｹﾝ","kana_city":"ｵｹｶﾞﾜｼ","kana_address":"ｼﾓﾋﾃﾞﾔ","pref":"埼玉県","city":"桶川市","address":"下日出谷"},
{"zip_code":"3630028","kana_pref":"ｻｲﾀﾏｹﾝ","kana_city":"ｵｹｶﾞﾜｼ","kana_address":"ｼﾓﾋﾃﾞﾔﾆｼ","pref":"埼玉県","city":"桶川市","address":"下日出谷西"},
{"zip_code":"3630014","kana_pref":"ｻｲﾀﾏｹﾝ","kana_city":"ｵｹｶﾞﾜｼ","kana_address":"ｼﾝﾒｲ","pref":"埼玉県","city":"桶川市","address":"神明"},
{"zip_code":"3630012","kana_pref":"ｻｲﾀﾏｹﾝ","kana_city":"ｵｹｶﾞﾜｼ","kana_address":"ｽｴﾋﾛ","pref":"埼玉県","city":"桶川市","address":"末広"},
{"zip_code":"3630005","kana_pref":"ｻｲﾀﾏｹﾝ","kana_city":"ｵｹｶﾞﾜｼ","kana_address":"ﾄﾈﾘｼﾝﾃﾞﾝ","pref":"埼玉県","city":"桶川市","address":"舎人新田"},
{"zip_code":"3630017","kana_pref":"ｻｲﾀﾏｹﾝ","kana_city":"ｵｹｶﾞﾜｼ","kana_address":"ﾆｼ","pref":"埼玉県","city":"桶川市","address":"西"},
{"zip_code":"3630013","kana_pref":"ｻｲﾀﾏｹﾝ","kana_city":"ｵｹｶﾞﾜｼ","kana_address":"ﾋｶﾞｼ","pref":"埼玉県","city":"桶川市","address":"東"},
{"zip_code":"3630015","kana_pref":"ｻｲﾀﾏｹﾝ","kana_city":"ｵｹｶﾞﾜｼ","kana_address":"ﾐﾅﾐ","pref":"埼玉県","city":"桶川市","address":"南"},
{"zip_code":"3630022","kana_pref":"ｻｲﾀﾏｹﾝ","kana_city":"ｵｹｶﾞﾜｼ","kana_address":"ﾜｶﾐﾔ","pref":"埼玉県","city":"桶川市","address":"若宮"}]}