{"zip_code":[
{"zip_code":"3640000","kana_pref":"ｻｲﾀﾏｹﾝ","kana_city":"ｷﾀﾓﾄｼ","kana_address":"","pref":"埼玉県","city":"北本市","address":""},
{"zip_code":"3640011","kana_pref":"ｻｲﾀﾏｹﾝ","kana_city":"ｷﾀﾓﾄｼ","kana_address":"ｱｻﾋ","pref":"埼玉県","city":"北本市","address":"朝日"},
{"zip_code":"3640007","kana_pref":"ｻｲﾀﾏｹﾝ","kana_city":"ｷﾀﾓﾄｼ","kana_address":"ｱｽﾞﾏ","pref":"埼玉県","city":"北本市","address":"東間"},
{"zip_code":"3640026","kana_pref":"ｻｲﾀﾏｹﾝ","kana_city":"ｷﾀﾓﾄｼ","kana_address":"ｱﾗｲ","pref":"埼玉県","city":"北本市","address":"荒井"},
{"zip_code":"3640024","kana_pref":"ｻｲﾀﾏｹﾝ","kana_city":"ｷﾀﾓﾄｼ","kana_address":"ｲｼﾄ","pref":"埼玉県","city":"北本市","address":"石戸"},
{"zip_code":"3640025","kana_pref":"ｻｲﾀﾏｹﾝ","kana_city":"ｷﾀﾓﾄｼ","kana_address":"ｲｼﾄｼﾞｭｸ","pref":"埼玉県","city":"北本市","address":"石戸宿"},
{"zip_code":"3640012","kana_pref":"ｻｲﾀﾏｹﾝ","kana_city":"ｷﾀﾓﾄｼ","kana_address":"ｷﾀﾅｶﾏﾙ","pref":"埼玉県","city":"北本市","address":"北中丸"},
{"zip_code":"3640006","kana_pref":"ｻｲﾀﾏｹﾝ","kana_city":"ｷﾀﾓﾄｼ","kana_address":"ｷﾀﾓﾄ","pref":"埼玉県","city":"北本市","address":"北本"},
{"zip_code":"3640021","kana_pref":"ｻｲﾀﾏｹﾝ","kana_city":"ｷﾀﾓﾄｼ","kana_address":"ｷﾀﾓﾄｼﾞｭｸ","pref":"埼玉県","city":"北本市","address":"北本宿"},
{"zip_code":"3640027","kana_pref":"ｻｲﾀﾏｹﾝ","kana_city":"ｷﾀﾓﾄｼ","kana_address":"ｻｶｴ","pref":"埼玉県","city":"北本市","address":"栄"},
{"zip_code":"3640022","kana_pref":"ｻｲﾀﾏｹﾝ","kana_city":"ｷﾀﾓﾄｼ","kana_address":"ｼﾓｲｼﾄｶﾐ","pref":"埼玉県","city":"北本市","address":"下石戸上"},
{"zip_code":"3640023","kana_pref":"ｻｲﾀﾏｹﾝ","kana_city":"ｷﾀﾓﾄｼ","kana_address":"ｼﾓｲｼﾄｼﾓ","pref":"埼玉県","city":"北本市","address":"下石戸下"},
{"zip_code":"3640034","kana_pref":"ｻｲﾀﾏｹﾝ","kana_city":"ｷﾀﾓﾄｼ","kana_address":"ﾀｶｵ","pref":"埼玉県","city":"北本市","address":"高尾"},
{"zip_code":"3640031","kana_pref":"ｻｲﾀﾏｹﾝ","kana_city":"ｷﾀﾓﾄｼ","kana_address":"ﾁｭｳｵｳ","pref":"埼玉県","city":"北本市","address":"中央"},
{"zip_code":"3640013","kana_pref":"ｻｲﾀﾏｹﾝ","kana_city":"ｷﾀﾓﾄｼ","kana_address":"ﾅｶﾏﾙ","pref":"埼玉県","city":"北本市","address":"中丸"},
{"zip_code":"3640035","kana_pref":"ｻｲﾀﾏｹﾝ","kana_city":"ｷﾀﾓﾄｼ","kana_address":"ﾆｼﾀｶｵ","pref":"埼玉県","city":"北本市","address":"西高尾"},
{"zip_code":"3640001","kana_pref":"ｻｲﾀﾏｹﾝ","kana_city":"ｷﾀﾓﾄｼ","kana_address":"ﾌｶｲ","pref":"埼玉県","city":"北本市","address":"深井"},
{"zip_code":"3640014","kana_pref":"ｻｲﾀﾏｹﾝ","kana_city":"ｷﾀﾓﾄｼ","kana_address":"ﾌﾀﾂﾔ","pref":"埼玉県","city":"北本市","address":"二ツ家"},
{"zip_code":"3640003","kana_pref":"ｻｲﾀﾏｹﾝ","kana_city":"ｷﾀﾓﾄｼ","kana_address":"ﾌﾙｲﾁﾊﾞ","pref":"埼玉県","city":"北本市","address":"古市場"},
{"zip_code":"3640033","kana_pref":"ｻｲﾀﾏｹﾝ","kana_city":"ｷﾀﾓﾄｼ","kana_address":"ﾎﾝﾁｮｳ","pref":"埼玉県","city":"北本市","address":"本町"},
{"zip_code":"3640032","kana_pref":"ｻｲﾀﾏｹﾝ","kana_city":"ｷﾀﾓﾄｼ","kana_address":"ﾐﾄﾞﾘ","pref":"埼玉県","city":"北本市","address":"緑"},
{"zip_code":"3640002","kana_pref":"ｻｲﾀﾏｹﾝ","kana_city":"ｷﾀﾓﾄｼ","kana_address":"ﾐﾔｳﾁ","pref":"埼玉県","city":"北本市","address":"宮内"},
{"zip_code":"3640005","kana_pref":"ｻｲﾀﾏｹﾝ","kana_city":"ｷﾀﾓﾄｼ","kana_address":"ﾓﾄｼﾞｭｸ","pref":"埼玉県","city":"北本市","address":"本宿"},
{"zip_code":"3640004","kana_pref":"ｻｲﾀﾏｹﾝ","kana_city":"ｷﾀﾓﾄｼ","kana_address":"ﾔﾏﾅｶ","pref":"埼玉県","city":"北本市","address":"山中"}]}