{"zip_code":[
{"zip_code":"3670000","kana_pref":"ｻｲﾀﾏｹﾝ","kana_city":"ﾎﾝｼﾞｮｳｼ","kana_address":"","pref":"埼玉県","city":"本庄市","address":""},
{"zip_code":"3670026","kana_pref":"ｻｲﾀﾏｹﾝ","kana_city":"ﾎﾝｼﾞｮｳｼ","kana_address":"ｱｻﾋﾁｮｳ","pref":"埼玉県","city":"本庄市","address":"朝日町"},
{"zip_code":"3670075","kana_pref":"ｻｲﾀﾏｹﾝ","kana_city":"ﾎﾝｼﾞｮｳｼ","kana_address":"ｱﾗｲ","pref":"埼玉県","city":"本庄市","address":"新井"},
{"zip_code":"3670027","kana_pref":"ｻｲﾀﾏｹﾝ","kana_city":"ﾎﾝｼﾞｮｳｼ","kana_address":"ｲｶｯｺ","pref":"埼玉県","city":"本庄市","address":"五十子"},
{"zip_code":"3670036","kana_pref":"ｻｲﾀﾏｹﾝ","kana_city":"ﾎﾝｼﾞｮｳｼ","kana_address":"ｲﾏｲ","pref":"埼玉県","city":"本庄市","address":"今井"},
{"zip_code":"3670038","kana_pref":"ｻｲﾀﾏｹﾝ","kana_city":"ﾎﾝｼﾞｮｳｼ","kana_address":"ｲﾏｲﾀﾞｲ","pref":"埼玉県","city":"本庄市","address":"いまい台"},
{"zip_code":"3670016","kana_pref":"ｻｲﾀﾏｹﾝ","kana_city":"ﾎﾝｼﾞｮｳｼ","kana_address":"ｳﾉﾓﾘ","pref":"埼玉県","city":"本庄市","address":"鵜森"},
{"zip_code":"3670041","kana_pref":"ｻｲﾀﾏｹﾝ","kana_city":"ﾎﾝｼﾞｮｳｼ","kana_address":"ｴｷﾅﾝ","pref":"埼玉県","city":"本庄市","address":"駅南"},
{"zip_code":"3670061","kana_pref":"ｻｲﾀﾏｹﾝ","kana_city":"ﾎﾝｼﾞｮｳｼ","kana_address":"ｵｼﾞﾏ","pref":"埼玉県","city":"本庄市","address":"小島"},
{"zip_code":"3670062","kana_pref":"ｻｲﾀﾏｹﾝ","kana_city":"ﾎﾝｼﾞｮｳｼ","kana_address":"ｵｼﾞﾏﾐﾅﾐ","pref":"埼玉県","city":"本庄市","address":"小島南"},
{"zip_code":"3670045","kana_pref":"ｻｲﾀﾏｹﾝ","kana_city":"ﾎﾝｼﾞｮｳｼ","kana_address":"ｶｼﾜ","pref":"埼玉県","city":"本庄市","address":"柏"},
{"zip_code":"3670007","kana_pref":"ｻｲﾀﾏｹﾝ","kana_city":"ﾎﾝｼﾞｮｳｼ","kana_address":"ｶﾐﾆｯﾃ","pref":"埼玉県","city":"本庄市","address":"上仁手"},
{"zip_code":"3670031","kana_pref":"ｻｲﾀﾏｹﾝ","kana_city":"ﾎﾝｼﾞｮｳｼ","kana_address":"ｷﾀﾎﾞﾘ","pref":"埼玉県","city":"本庄市","address":"北堀"},
{"zip_code":"3670037","kana_pref":"ｻｲﾀﾏｹﾝ","kana_city":"ﾎﾝｼﾞｮｳｼ","kana_address":"ｷｮｳｴｲ","pref":"埼玉県","city":"本庄市","address":"共栄"},
{"zip_code":"3670052","kana_pref":"ｻｲﾀﾏｹﾝ","kana_city":"ﾎﾝｼﾞｮｳｼ","kana_address":"ｷﾞﾝｻﾞ","pref":"埼玉県","city":"本庄市","address":"銀座"},
{"zip_code":"3670005","kana_pref":"ｻｲﾀﾏｹﾝ","kana_city":"ﾎﾝｼﾞｮｳｼ","kana_address":"ｸｸﾞｳ","pref":"埼玉県","city":"本庄市","address":"久々宇"},
{"zip_code":"3670032","kana_pref":"ｻｲﾀﾏｹﾝ","kana_city":"ﾎﾝｼﾞｮｳｼ","kana_address":"ｸﾘｻﾞｷ","pref":"埼玉県","city":"本庄市","address":"栗崎"},
{"zip_code":"3670042","kana_pref":"ｻｲﾀﾏｹﾝ","kana_city":"ﾎﾝｼﾞｮｳｼ","kana_address":"ｹﾔｷ","pref":"埼玉県","city":"本庄市","address":"けや木"},
{"zip_code":"3670044","kana_pref":"ｻｲﾀﾏｹﾝ","kana_city":"ﾎﾝｼﾞｮｳｼ","kana_address":"ｹﾝﾌﾟｸ","pref":"埼玉県","city":"本庄市","address":"見福"},
{"zip_code":"3670213","kana_pref":"ｻｲﾀﾏｹﾝ","kana_city":"ﾎﾝｼﾞｮｳｼ","kana_address":"ｺﾀﾞﾏﾁｮｳｱｷﾔﾏ","pref":"埼玉県","city":"本庄市","address":"児玉町秋山"},
{"zip_code":"3670225","kana_pref":"ｻｲﾀﾏｹﾝ","kana_city":"ﾎﾝｼﾞｮｳｼ","kana_address":"ｺﾀﾞﾏﾁｮｳｲｲｸﾞﾗ","pref":"埼玉県","city":"本庄市","address":"児玉町飯倉"},
{"zip_code":"3670251","kana_pref":"ｻｲﾀﾏｹﾝ","kana_city":"ﾎﾝｼﾞｮｳｼ","kana_address":"ｺﾀﾞﾏﾁｮｳｲﾅｻﾞﾜ","pref":"埼玉県","city":"本庄市","address":"児玉町稲沢"},
{"zip_code":"3670203","kana_pref":"ｻｲﾀﾏｹﾝ","kana_city":"ﾎﾝｼﾞｮｳｼ","kana_address":"ｺﾀﾞﾏﾁｮｳｲﾘｱｻﾞﾐ","pref":"埼玉県","city":"本庄市","address":"児玉町入浅見"},
{"zip_code":"3670254","kana_pref":"ｻｲﾀﾏｹﾝ","kana_city":"ﾎﾝｼﾞｮｳｼ","kana_address":"ｺﾀﾞﾏﾁｮｳｵｵﾀﾞ","pref":"埼玉県","city":"本庄市","address":"児玉町太駄"},
{"zip_code":"3670216","kana_pref":"ｻｲﾀﾏｹﾝ","kana_city":"ﾎﾝｼﾞｮｳｼ","kana_address":"ｺﾀﾞﾏﾁｮｳｶﾅﾔ","pref":"埼玉県","city":"本庄市","address":"児玉町金屋"},
{"zip_code":"3670205","kana_pref":"ｻｲﾀﾏｹﾝ","kana_city":"ﾎﾝｼﾞｮｳｼ","kana_address":"ｺﾀﾞﾏﾁｮｳｶﾐﾏｼﾓ","pref":"埼玉県","city":"本庄市","address":"児玉町上真下"},
{"zip_code":"3670211","kana_pref":"ｻｲﾀﾏｹﾝ","kana_city":"ﾎﾝｼﾞｮｳｼ","kana_address":"ｺﾀﾞﾏﾁｮｳｷﾀﾊﾞﾔｼ","pref":"埼玉県","city":"本庄市","address":"児玉町吉田林"},
{"zip_code":"3670206","kana_pref":"ｻｲﾀﾏｹﾝ","kana_city":"ﾎﾝｼﾞｮｳｼ","kana_address":"ｺﾀﾞﾏﾁｮｳｷｮｳｴｲ","pref":"埼玉県","city":"本庄市","address":"児玉町共栄"},
{"zip_code":"3670252","kana_pref":"ｻｲﾀﾏｹﾝ","kana_city":"ﾎﾝｼﾞｮｳｼ","kana_address":"ｺﾀﾞﾏﾁｮｳｹﾞﾝﾀﾞ","pref":"埼玉県","city":"本庄市","address":"児玉町元田"},
{"zip_code":"3670253","kana_pref":"ｻｲﾀﾏｹﾝ","kana_city":"ﾎﾝｼﾞｮｳｼ","kana_address":"ｺﾀﾞﾏﾁｮｳｺｳﾁ","pref":"埼玉県","city":"本庄市","address":"児玉町河内"},
{"zip_code":"3670214","kana_pref":"ｻｲﾀﾏｹﾝ","kana_city":"ﾎﾝｼﾞｮｳｼ","kana_address":"ｺﾀﾞﾏﾁｮｳｺﾀﾞｲﾗ","pref":"埼玉県","city":"本庄市","address":"児玉町小平"},
{"zip_code":"3670212","kana_pref":"ｻｲﾀﾏｹﾝ","kana_city":"ﾎﾝｼﾞｮｳｼ","kana_address":"ｺﾀﾞﾏﾁｮｳｺﾀﾞﾏ","pref":"埼玉県","city":"本庄市","address":"児玉町児玉"},
{"zip_code":"3670223","kana_pref":"ｻｲﾀﾏｹﾝ","kana_city":"ﾎﾝｼﾞｮｳｼ","kana_address":"ｺﾀﾞﾏﾁｮｳｼｵﾔ","pref":"埼玉県","city":"本庄市","address":"児玉町塩谷"},
{"zip_code":"3670202","kana_pref":"ｻｲﾀﾏｹﾝ","kana_city":"ﾎﾝｼﾞｮｳｼ","kana_address":"ｺﾀﾞﾏﾁｮｳｼﾓｱｻﾞﾐ","pref":"埼玉県","city":"本庄市","address":"児玉町下浅見"},
{"zip_code":"3670207","kana_pref":"ｻｲﾀﾏｹﾝ","kana_city":"ﾎﾝｼﾞｮｳｼ","kana_address":"ｺﾀﾞﾏﾁｮｳｼﾓﾏｼﾓ","pref":"埼玉県","city":"本庄市","address":"児玉町下真下"},
{"zip_code":"3670201","kana_pref":"ｻｲﾀﾏｹﾝ","kana_city":"ﾎﾝｼﾞｮｳｼ","kana_address":"ｺﾀﾞﾏﾁｮｳﾀｶｾﾞｷ","pref":"埼玉県","city":"本庄市","address":"児玉町高関"},
{"zip_code":"3670224","kana_pref":"ｻｲﾀﾏｹﾝ","kana_city":"ﾎﾝｼﾞｮｳｼ","kana_address":"ｺﾀﾞﾏﾁｮｳﾀｶﾔﾅｷﾞ","pref":"埼玉県","city":"本庄市","address":"児玉町高柳"},
{"zip_code":"3670222","kana_pref":"ｻｲﾀﾏｹﾝ","kana_city":"ﾎﾝｼﾞｮｳｼ","kana_address":"ｺﾀﾞﾏﾁｮｳﾀﾊﾞﾀ","pref":"埼玉県","city":"本庄市","address":"児玉町田端"},
{"zip_code":"3670215","kana_pref":"ｻｲﾀﾏｹﾝ","kana_city":"ﾎﾝｼﾞｮｳｼ","kana_address":"ｺﾀﾞﾏﾁｮｳﾅｶﾞｵｷ","pref":"埼玉県","city":"本庄市","address":"児玉町長沖"},
{"zip_code":"3670217","kana_pref":"ｻｲﾀﾏｹﾝ","kana_city":"ﾎﾝｼﾞｮｳｼ","kana_address":"ｺﾀﾞﾏﾁｮｳﾊﾁﾏﾝﾔﾏ","pref":"埼玉県","city":"本庄市","address":"児玉町八幡山"},
{"zip_code":"3670204","kana_pref":"ｻｲﾀﾏｹﾝ","kana_city":"ﾎﾝｼﾞｮｳｼ","kana_address":"ｺﾀﾞﾏﾁｮｳﾋﾙｶﾞﾜ","pref":"埼玉県","city":"本庄市","address":"児玉町蛭川"},
{"zip_code":"3670221","kana_pref":"ｻｲﾀﾏｹﾝ","kana_city":"ﾎﾝｼﾞｮｳｼ","kana_address":"ｺﾀﾞﾏﾁｮｳﾎｷﾉ","pref":"埼玉県","city":"本庄市","address":"児玉町保木野"},
{"zip_code":"3670226","kana_pref":"ｻｲﾀﾏｹﾝ","kana_city":"ﾎﾝｼﾞｮｳｼ","kana_address":"ｺﾀﾞﾏﾁｮｳﾐﾔｳﾁ","pref":"埼玉県","city":"本庄市","address":"児玉町宮内"},
{"zip_code":"3670023","kana_pref":"ｻｲﾀﾏｹﾝ","kana_city":"ﾎﾝｼﾞｮｳｼ","kana_address":"ｺﾄﾌﾞｷ","pref":"埼玉県","city":"本庄市","address":"寿"},
{"zip_code":"3670011","kana_pref":"ｻｲﾀﾏｹﾝ","kana_city":"ﾎﾝｼﾞｮｳｼ","kana_address":"ｺﾜｾﾞ","pref":"埼玉県","city":"本庄市","address":"小和瀬"},
{"zip_code":"3670046","kana_pref":"ｻｲﾀﾏｹﾝ","kana_city":"ﾎﾝｼﾞｮｳｼ","kana_address":"ｻｶｴ","pref":"埼玉県","city":"本庄市","address":"栄"},
{"zip_code":"3670071","kana_pref":"ｻｲﾀﾏｹﾝ","kana_city":"ﾎﾝｼﾞｮｳｼ","kana_address":"ｻﾝﾉｳﾄﾞｳ","pref":"埼玉県","city":"本庄市","address":"山王堂"},
{"zip_code":"3670039","kana_pref":"ｻｲﾀﾏｹﾝ","kana_city":"ﾎﾝｼﾞｮｳｼ","kana_address":"ｼｷﾉｻﾄ","pref":"埼玉県","city":"本庄市","address":"四季の里"},
{"zip_code":"3670034","kana_pref":"ｻｲﾀﾏｹﾝ","kana_city":"ﾎﾝｼﾞｮｳｼ","kana_address":"ｼﾎｳﾃﾞﾝ","pref":"埼玉県","city":"本庄市","address":"四方田"},
{"zip_code":"3670001","kana_pref":"ｻｲﾀﾏｹﾝ","kana_city":"ﾎﾝｼﾞｮｳｼ","kana_address":"ｼﾓﾆﾂﾃ","pref":"埼玉県","city":"本庄市","address":"下仁手"},
{"zip_code":"3670063","kana_pref":"ｻｲﾀﾏｹﾝ","kana_city":"ﾎﾝｼﾞｮｳｼ","kana_address":"ｼﾓﾉﾄﾞｳ","pref":"埼玉県","city":"本庄市","address":"下野堂"},
{"zip_code":"3670074","kana_pref":"ｻｲﾀﾏｹﾝ","kana_city":"ﾎﾝｼﾞｮｳｼ","kana_address":"ｽｷﾞﾔﾏ","pref":"埼玉県","city":"本庄市","address":"杉山"},
{"zip_code":"3670018","kana_pref":"ｻｲﾀﾏｹﾝ","kana_city":"ﾎﾝｼﾞｮｳｼ","kana_address":"ｽﾜﾁｮｳ","pref":"埼玉県","city":"本庄市","address":"諏訪町"},
{"zip_code":"3670003","kana_pref":"ｻｲﾀﾏｹﾝ","kana_city":"ﾎﾝｼﾞｮｳｼ","kana_address":"ﾀﾞｲﾏﾁ","pref":"埼玉県","city":"本庄市","address":"台町"},
{"zip_code":"3670013","kana_pref":"ｻｲﾀﾏｹﾝ","kana_city":"ﾎﾝｼﾞｮｳｼ","kana_address":"ﾀｷｾ","pref":"埼玉県","city":"本庄市","address":"滝瀬"},
{"zip_code":"3670006","kana_pref":"ｻｲﾀﾏｹﾝ","kana_city":"ﾎﾝｼﾞｮｳｼ","kana_address":"ﾀﾅｶ","pref":"埼玉県","city":"本庄市","address":"田中"},
{"zip_code":"3670053","kana_pref":"ｻｲﾀﾏｹﾝ","kana_city":"ﾎﾝｼﾞｮｳｼ","kana_address":"ﾁｭｳｵｳ","pref":"埼玉県","city":"本庄市","address":"中央"},
{"zip_code":"3670054","kana_pref":"ｻｲﾀﾏｹﾝ","kana_city":"ﾎﾝｼﾞｮｳｼ","kana_address":"ﾁﾖﾀﾞ","pref":"埼玉県","city":"本庄市","address":"千代田"},
{"zip_code":"3670056","kana_pref":"ｻｲﾀﾏｹﾝ","kana_city":"ﾎﾝｼﾞｮｳｼ","kana_address":"ﾃﾙﾜｶﾁｮｳ","pref":"埼玉県","city":"本庄市","address":"照若町"},
{"zip_code":"3670025","kana_pref":"ｻｲﾀﾏｹﾝ","kana_city":"ﾎﾝｼﾞｮｳｼ","kana_address":"ﾆｼｲｶﾂｺ","pref":"埼玉県","city":"本庄市","address":"西五十子"},
{"zip_code":"3670035","kana_pref":"ｻｲﾀﾏｹﾝ","kana_city":"ﾎﾝｼﾞｮｳｼ","kana_address":"ﾆｼﾄﾐﾀﾞ","pref":"埼玉県","city":"本庄市","address":"西富田"},
{"zip_code":"3670002","kana_pref":"ｻｲﾀﾏｹﾝ","kana_city":"ﾎﾝｼﾞｮｳｼ","kana_address":"ﾆｯﾃ","pref":"埼玉県","city":"本庄市","address":"仁手"},
{"zip_code":"3670072","kana_pref":"ｻｲﾀﾏｹﾝ","kana_city":"ﾎﾝｼﾞｮｳｼ","kana_address":"ﾇﾏﾜﾀﾞ","pref":"埼玉県","city":"本庄市","address":"沼和田"},
{"zip_code":"3670024","kana_pref":"ｻｲﾀﾏｹﾝ","kana_city":"ﾎﾝｼﾞｮｳｼ","kana_address":"ﾋｶﾞｼｲｶﾂｺ","pref":"埼玉県","city":"本庄市","address":"東五十子"},
{"zip_code":"3670021","kana_pref":"ｻｲﾀﾏｹﾝ","kana_city":"ﾎﾝｼﾞｮｳｼ","kana_address":"ﾋｶﾞｼﾀﾞｲ","pref":"埼玉県","city":"本庄市","address":"東台"},
{"zip_code":"3670033","kana_pref":"ｻｲﾀﾏｹﾝ","kana_city":"ﾎﾝｼﾞｮｳｼ","kana_address":"ﾋｶﾞｼﾄﾐﾀﾞ","pref":"埼玉県","city":"本庄市","address":"東富田"},
{"zip_code":"3670022","kana_pref":"ｻｲﾀﾏｹﾝ","kana_city":"ﾎﾝｼﾞｮｳｼ","kana_address":"ﾋﾉﾃﾞ","pref":"埼玉県","city":"本庄市","address":"日の出"},
{"zip_code":"3670017","kana_pref":"ｻｲﾀﾏｹﾝ","kana_city":"ﾎﾝｼﾞｮｳｼ","kana_address":"ﾎｳｼﾞﾄﾞｳ","pref":"埼玉県","city":"本庄市","address":"傍示堂"},
{"zip_code":"3670014","kana_pref":"ｻｲﾀﾏｹﾝ","kana_city":"ﾎﾝｼﾞｮｳｼ","kana_address":"ﾎｯﾀ","pref":"埼玉県","city":"本庄市","address":"堀田"},
{"zip_code":"3670051","kana_pref":"ｻｲﾀﾏｹﾝ","kana_city":"ﾎﾝｼﾞｮｳｼ","kana_address":"ﾎﾝｼﾞｮｳ","pref":"埼玉県","city":"本庄市","address":"本庄"},
{"zip_code":"3670047","kana_pref":"ｻｲﾀﾏｹﾝ","kana_city":"ﾎﾝｼﾞｮｳｼ","kana_address":"ﾏｴﾊﾗ","pref":"埼玉県","city":"本庄市","address":"前原"},
{"zip_code":"3670064","kana_pref":"ｻｲﾀﾏｹﾝ","kana_city":"ﾎﾝｼﾞｮｳｼ","kana_address":"ﾏﾝﾈﾝｼﾞ","pref":"埼玉県","city":"本庄市","address":"万年寺"},
{"zip_code":"3670043","kana_pref":"ｻｲﾀﾏｹﾝ","kana_city":"ﾎﾝｼﾞｮｳｼ","kana_address":"ﾐﾄﾞﾘ","pref":"埼玉県","city":"本庄市","address":"緑"},
{"zip_code":"3670048","kana_pref":"ｻｲﾀﾏｹﾝ","kana_city":"ﾎﾝｼﾞｮｳｼ","kana_address":"ﾐﾅﾐ","pref":"埼玉県","city":"本庄市","address":"南"},
{"zip_code":"3670073","kana_pref":"ｻｲﾀﾏｹﾝ","kana_city":"ﾎﾝｼﾞｮｳｼ","kana_address":"ﾐﾔｺｼﾞﾏ","pref":"埼玉県","city":"本庄市","address":"都島"},
{"zip_code":"3670012","kana_pref":"ｻｲﾀﾏｹﾝ","kana_city":"ﾎﾝｼﾞｮｳｼ","kana_address":"ﾐﾔﾄﾞ","pref":"埼玉県","city":"本庄市","address":"宮戸"},
{"zip_code":"3670015","kana_pref":"ｻｲﾀﾏｹﾝ","kana_city":"ﾎﾝｼﾞｮｳｼ","kana_address":"ﾓｸｻｲ","pref":"埼玉県","city":"本庄市","address":"牧西"},
{"zip_code":"3670004","kana_pref":"ｻｲﾀﾏｹﾝ","kana_city":"ﾎﾝｼﾞｮｳｼ","kana_address":"ﾓﾄﾏﾁ","pref":"埼玉県","city":"本庄市","address":"本町"},
{"zip_code":"3670055","kana_pref":"ｻｲﾀﾏｹﾝ","kana_city":"ﾎﾝｼﾞｮｳｼ","kana_address":"ﾜｶｲｽﾞﾐ","pref":"埼玉県","city":"本庄市","address":"若泉"},
{"zip_code":"3670100","kana_pref":"ｻｲﾀﾏｹﾝ","kana_city":"ｺﾀﾞﾏｸﾞﾝﾐｻﾄﾏﾁ","kana_address":"","pref":"埼玉県","city":"児玉郡美里町","address":""},
{"zip_code":"3670103","kana_pref":"ｻｲﾀﾏｹﾝ","kana_city":"ｺﾀﾞﾏｸﾞﾝﾐｻﾄﾏﾁ","kana_address":"ｱﾅｼ","pref":"埼玉県","city":"児玉郡美里町","address":"阿那志"},
{"zip_code":"3670113","kana_pref":"ｻｲﾀﾏｹﾝ","kana_city":"ｺﾀﾞﾏｸﾞﾝﾐｻﾄﾏﾁ","kana_address":"ｱﾏｶﾞｽ","pref":"埼玉県","city":"児玉郡美里町","address":"甘粕"},
{"zip_code":"3670115","kana_pref":"ｻｲﾀﾏｹﾝ","kana_city":"ｺﾀﾞﾏｸﾞﾝﾐｻﾄﾏﾁ","kana_address":"ｲﾉﾏﾀ","pref":"埼玉県","city":"児玉郡美里町","address":"猪俣"},
{"zip_code":"3670107","kana_pref":"ｻｲﾀﾏｹﾝ","kana_city":"ｺﾀﾞﾏｸﾞﾝﾐｻﾄﾏﾁ","kana_address":"ｷﾀｼﾞｭｳｼﾞｮｳ","pref":"埼玉県","city":"児玉郡美里町","address":"北十条"},
{"zip_code":"3670112","kana_pref":"ｻｲﾀﾏｹﾝ","kana_city":"ｺﾀﾞﾏｸﾞﾝﾐｻﾄﾏﾁ","kana_address":"ｷﾍﾞ","pref":"埼玉県","city":"児玉郡美里町","address":"木部"},
{"zip_code":"3670119","kana_pref":"ｻｲﾀﾏｹﾝ","kana_city":"ｺﾀﾞﾏｸﾞﾝﾐｻﾄﾏﾁ","kana_address":"ｺﾏｷﾞﾇ","pref":"埼玉県","city":"児玉郡美里町","address":"駒衣"},
{"zip_code":"3670101","kana_pref":"ｻｲﾀﾏｹﾝ","kana_city":"ｺﾀﾞﾏｸﾞﾝﾐｻﾄﾏﾁ","kana_address":"ｺﾓﾀﾞ","pref":"埼玉県","city":"児玉郡美里町","address":"小茂田"},
{"zip_code":"3670108","kana_pref":"ｻｲﾀﾏｹﾝ","kana_city":"ｺﾀﾞﾏｸﾞﾝﾐｻﾄﾏﾁ","kana_address":"ｼﾓｺﾀﾞﾏ","pref":"埼玉県","city":"児玉郡美里町","address":"下児玉"},
{"zip_code":"3670117","kana_pref":"ｻｲﾀﾏｹﾝ","kana_city":"ｺﾀﾞﾏｸﾞﾝﾐｻﾄﾏﾁ","kana_address":"ｼﾛｲｼ","pref":"埼玉県","city":"児玉郡美里町","address":"白石"},
{"zip_code":"3670102","kana_pref":"ｻｲﾀﾏｹﾝ","kana_city":"ｺﾀﾞﾏｸﾞﾝﾐｻﾄﾏﾁ","kana_address":"ｾｷ","pref":"埼玉県","city":"児玉郡美里町","address":"関"},
{"zip_code":"3670116","kana_pref":"ｻｲﾀﾏｹﾝ","kana_city":"ｺﾀﾞﾏｸﾞﾝﾐｻﾄﾏﾁ","kana_address":"ﾂﾌﾞﾗﾀ","pref":"埼玉県","city":"児玉郡美里町","address":"円良田"},
{"zip_code":"3670114","kana_pref":"ｻｲﾀﾏｹﾝ","kana_city":"ｺﾀﾞﾏｸﾞﾝﾐｻﾄﾏﾁ","kana_address":"ﾅｶｻﾞﾄ","pref":"埼玉県","city":"児玉郡美里町","address":"中里"},
{"zip_code":"3670105","kana_pref":"ｻｲﾀﾏｹﾝ","kana_city":"ｺﾀﾞﾏｸﾞﾝﾐｻﾄﾏﾁ","kana_address":"ﾇﾏｶﾞﾐ","pref":"埼玉県","city":"児玉郡美里町","address":"沼上"},
{"zip_code":"3670104","kana_pref":"ｻｲﾀﾏｹﾝ","kana_city":"ｺﾀﾞﾏｸﾞﾝﾐｻﾄﾏﾁ","kana_address":"ﾈｷﾞ","pref":"埼玉県","city":"児玉郡美里町","address":"根木"},
{"zip_code":"3670118","kana_pref":"ｻｲﾀﾏｹﾝ","kana_city":"ｺﾀﾞﾏｸﾞﾝﾐｻﾄﾏﾁ","kana_address":"ﾋﾛｷ","pref":"埼玉県","city":"児玉郡美里町","address":"広木"},
{"zip_code":"3670111","kana_pref":"ｻｲﾀﾏｹﾝ","kana_city":"ｺﾀﾞﾏｸﾞﾝﾐｻﾄﾏﾁ","kana_address":"ﾌﾙｺｵﾘ","pref":"埼玉県","city":"児玉郡美里町","address":"古郡"},
{"zip_code":"3670106","kana_pref":"ｻｲﾀﾏｹﾝ","kana_city":"ｺﾀﾞﾏｸﾞﾝﾐｻﾄﾏﾁ","kana_address":"ﾐﾅﾐｼﾞｭｳｼﾞｮｳ","pref":"埼玉県","city":"児玉郡美里町","address":"南十条"},
{"zip_code":"3670200","kana_pref":"ｻｲﾀﾏｹﾝ","kana_city":"ｺﾀﾞﾏｸﾞﾝｶﾐｶﾜﾏﾁ","kana_address":"","pref":"埼玉県","city":"児玉郡神川町","address":""},
{"zip_code":"3670234","kana_pref":"ｻｲﾀﾏｹﾝ","kana_city":"ｺﾀﾞﾏｸﾞﾝｶﾐｶﾜﾏﾁ","kana_address":"ｲｹﾀﾞ","pref":"埼玉県","city":"児玉郡神川町","address":"池田"},
{"zip_code":"3670245","kana_pref":"ｻｲﾀﾏｹﾝ","kana_city":"ｺﾀﾞﾏｸﾞﾝｶﾐｶﾜﾏﾁ","kana_address":"ｳｴﾀﾞｹ","pref":"埼玉県","city":"児玉郡神川町","address":"植竹"},
{"zip_code":"3670312","kana_pref":"ｻｲﾀﾏｹﾝ","kana_city":"ｺﾀﾞﾏｸﾞﾝｶﾐｶﾜﾏﾁ","kana_address":"ｶﾐｱｸﾞﾊﾗ","pref":"埼玉県","city":"児玉郡神川町","address":"上阿久原"},
{"zip_code":"3670243","kana_pref":"ｻｲﾀﾏｹﾝ","kana_city":"ｺﾀﾞﾏｸﾞﾝｶﾐｶﾜﾏﾁ","kana_address":"ｸﾏﾉﾄﾞｳ","pref":"埼玉県","city":"児玉郡神川町","address":"熊野堂"},
{"zip_code":"3670236","kana_pref":"ｻｲﾀﾏｹﾝ","kana_city":"ｺﾀﾞﾏｸﾞﾝｶﾐｶﾜﾏﾁ","kana_address":"ｺﾊﾞﾏ","pref":"埼玉県","city":"児玉郡神川町","address":"小浜"},
{"zip_code":"3670248","kana_pref":"ｻｲﾀﾏｹﾝ","kana_city":"ｺﾀﾞﾏｸﾞﾝｶﾐｶﾜﾏﾁ","kana_address":"ｼｹﾝｻﾞｲｹ","pref":"埼玉県","city":"児玉郡神川町","address":"四軒在家"},
{"zip_code":"3670311","kana_pref":"ｻｲﾀﾏｹﾝ","kana_city":"ｺﾀﾞﾏｸﾞﾝｶﾐｶﾜﾏﾁ","kana_address":"ｼﾓｱｸﾞﾊﾗ","pref":"埼玉県","city":"児玉郡神川町","address":"下阿久原"},
{"zip_code":"3670235","kana_pref":"ｻｲﾀﾏｹﾝ","kana_city":"ｺﾀﾞﾏｸﾞﾝｶﾐｶﾜﾏﾁ","kana_address":"ｼﾝｼｭｸ","pref":"埼玉県","city":"児玉郡神川町","address":"新宿"},
{"zip_code":"3670246","kana_pref":"ｻｲﾀﾏｹﾝ","kana_city":"ｺﾀﾞﾏｸﾞﾝｶﾐｶﾜﾏﾁ","kana_address":"ｾｷｸﾞﾁ","pref":"埼玉県","city":"児玉郡神川町","address":"関口"},
{"zip_code":"3670231","kana_pref":"ｻｲﾀﾏｹﾝ","kana_city":"ｺﾀﾞﾏｸﾞﾝｶﾐｶﾜﾏﾁ","kana_address":"ﾅｶﾆｲｻﾄ","pref":"埼玉県","city":"児玉郡神川町","address":"中新里"},
{"zip_code":"3670232","kana_pref":"ｻｲﾀﾏｹﾝ","kana_city":"ｺﾀﾞﾏｸﾞﾝｶﾐｶﾜﾏﾁ","kana_address":"ﾆｲｻﾄ","pref":"埼玉県","city":"児玉郡神川町","address":"新里"},
{"zip_code":"3670233","kana_pref":"ｻｲﾀﾏｹﾝ","kana_city":"ｺﾀﾞﾏｸﾞﾝｶﾐｶﾜﾏﾁ","kana_address":"ﾆﾉﾐﾔ","pref":"埼玉県","city":"児玉郡神川町","address":"二ノ宮"},
{"zip_code":"3670237","kana_pref":"ｻｲﾀﾏｹﾝ","kana_city":"ｺﾀﾞﾏｸﾞﾝｶﾐｶﾜﾏﾁ","kana_address":"ﾇｸｲ","pref":"埼玉県","city":"児玉郡神川町","address":"貫井"},
{"zip_code":"3670242","kana_pref":"ｻｲﾀﾏｹﾝ","kana_city":"ｺﾀﾞﾏｸﾞﾝｶﾐｶﾜﾏﾁ","kana_address":"ﾊﾗｼﾝﾃﾞﾝ","pref":"埼玉県","city":"児玉郡神川町","address":"原新田"},
{"zip_code":"3670238","kana_pref":"ｻｲﾀﾏｹﾝ","kana_city":"ｺﾀﾞﾏｸﾞﾝｶﾐｶﾜﾏﾁ","kana_address":"ﾋﾄﾞ","pref":"埼玉県","city":"児玉郡神川町","address":"肥土"},
{"zip_code":"3670247","kana_pref":"ｻｲﾀﾏｹﾝ","kana_city":"ｺﾀﾞﾏｸﾞﾝｶﾐｶﾜﾏﾁ","kana_address":"ﾓﾄｱﾎﾞ","pref":"埼玉県","city":"児玉郡神川町","address":"元阿保"},
{"zip_code":"3670241","kana_pref":"ｻｲﾀﾏｹﾝ","kana_city":"ｺﾀﾞﾏｸﾞﾝｶﾐｶﾜﾏﾁ","kana_address":"ﾓﾄﾊﾗ","pref":"埼玉県","city":"児玉郡神川町","address":"元原"},
{"zip_code":"3670313","kana_pref":"ｻｲﾀﾏｹﾝ","kana_city":"ｺﾀﾞﾏｸﾞﾝｶﾐｶﾜﾏﾁ","kana_address":"ﾔﾉｳ","pref":"埼玉県","city":"児玉郡神川町","address":"矢納"},
{"zip_code":"3670244","kana_pref":"ｻｲﾀﾏｹﾝ","kana_city":"ｺﾀﾞﾏｸﾞﾝｶﾐｶﾜﾏﾁ","kana_address":"ﾖｳｶｲﾁ","pref":"埼玉県","city":"児玉郡神川町","address":"八日市"},
{"zip_code":"3670301","kana_pref":"ｻｲﾀﾏｹﾝ","kana_city":"ｺﾀﾞﾏｸﾞﾝｶﾐｶﾜﾏﾁ","kana_address":"ﾜﾀﾙｾ","pref":"埼玉県","city":"児玉郡神川町","address":"渡瀬"}]}