{"zip_code":[
{"zip_code":"3680000","kana_pref":"ｻｲﾀﾏｹﾝ","kana_city":"ﾁﾁﾌﾞｼ","kana_address":"","pref":"埼玉県","city":"秩父市","address":""},
{"zip_code":"3680026","kana_pref":"ｻｲﾀﾏｹﾝ","kana_city":"ﾁﾁﾌﾞｼ","kana_address":"ｱｲｵｲﾁｮｳ","pref":"埼玉県","city":"秩父市","address":"相生町"},
{"zip_code":"3680016","kana_pref":"ｻｲﾀﾏｹﾝ","kana_city":"ﾁﾁﾌﾞｼ","kana_address":"ｱﾎﾞﾏﾁ","pref":"埼玉県","city":"秩父市","address":"阿保町"},
{"zip_code":"3680063","kana_pref":"ｻｲﾀﾏｹﾝ","kana_city":"ﾁﾁﾌﾞｼ","kana_address":"ｲｺﾀ","pref":"埼玉県","city":"秩父市","address":"伊古田"},
{"zip_code":"3680031","kana_pref":"ｻｲﾀﾏｹﾝ","kana_city":"ﾁﾁﾌﾞｼ","kana_address":"ｳｴﾉﾏﾁ","pref":"埼玉県","city":"秩父市","address":"上野町"},
{"zip_code":"3680065","kana_pref":"ｻｲﾀﾏｹﾝ","kana_city":"ﾁﾁﾌﾞｼ","kana_address":"ｵｵﾀ","pref":"埼玉県","city":"秩父市","address":"太田"},
{"zip_code":"3680005","kana_pref":"ｻｲﾀﾏｹﾝ","kana_city":"ﾁﾁﾌﾞｼ","kana_address":"ｵｵﾉﾊﾗ","pref":"埼玉県","city":"秩父市","address":"大野原"},
{"zip_code":"3680011","kana_pref":"ｻｲﾀﾏｹﾝ","kana_city":"ﾁﾁﾌﾞｼ","kana_address":"ｵｵﾊﾞﾀｹﾏﾁ","pref":"埼玉県","city":"秩父市","address":"大畑町"},
{"zip_code":"3680023","kana_pref":"ｻｲﾀﾏｹﾝ","kana_city":"ﾁﾁﾌﾞｼ","kana_address":"ｵｵﾐﾔ","pref":"埼玉県","city":"秩父市","address":"大宮"},
{"zip_code":"3680061","kana_pref":"ｻｲﾀﾏｹﾝ","kana_city":"ﾁﾁﾌﾞｼ","kana_address":"ｵﾊﾞｼﾗ","pref":"埼玉県","city":"秩父市","address":"小柱"},
{"zip_code":"3680014","kana_pref":"ｻｲﾀﾏｹﾝ","kana_city":"ﾁﾁﾌﾞｼ","kana_address":"ｶﾅﾑﾛﾏﾁ","pref":"埼玉県","city":"秩父市","address":"金室町"},
{"zip_code":"3680035","kana_pref":"ｻｲﾀﾏｹﾝ","kana_city":"ﾁﾁﾌﾞｼ","kana_address":"ｶﾐﾏﾁ","pref":"埼玉県","city":"秩父市","address":"上町"},
{"zip_code":"3680024","kana_pref":"ｻｲﾀﾏｹﾝ","kana_city":"ﾁﾁﾌﾞｼ","kana_address":"ｶﾐﾐﾔｼﾞﾏﾁ","pref":"埼玉県","city":"秩父市","address":"上宮地町"},
{"zip_code":"3680053","kana_pref":"ｻｲﾀﾏｹﾝ","kana_city":"ﾁﾁﾌﾞｼ","kana_address":"ｸﾅ","pref":"埼玉県","city":"秩父市","address":"久那"},
{"zip_code":"3680032","kana_pref":"ｻｲﾀﾏｹﾝ","kana_city":"ﾁﾁﾌﾞｼ","kana_address":"ｸﾏｷﾞﾏﾁ","pref":"埼玉県","city":"秩父市","address":"熊木町"},
{"zip_code":"3680001","kana_pref":"ｻｲﾀﾏｹﾝ","kana_city":"ﾁﾁﾌﾞｼ","kana_address":"ｸﾛﾔ","pref":"埼玉県","city":"秩父市","address":"黒谷"},
{"zip_code":"3680025","kana_pref":"ｻｲﾀﾏｹﾝ","kana_city":"ﾁﾁﾌﾞｼ","kana_address":"ｻｸﾗｷﾞﾏﾁ","pref":"埼玉県","city":"秩父市","address":"桜木町"},
{"zip_code":"3680003","kana_pref":"ｻｲﾀﾏｹﾝ","kana_city":"ﾁﾁﾌﾞｼ","kana_address":"ｻﾀﾞﾐﾈ","pref":"埼玉県","city":"秩父市","address":"定峰"},
{"zip_code":"3680064","kana_pref":"ｻｲﾀﾏｹﾝ","kana_city":"ﾁﾁﾌﾞｼ","kana_address":"ｼﾅｻﾞﾜ","pref":"埼玉県","city":"秩父市","address":"品沢"},
{"zip_code":"3680021","kana_pref":"ｻｲﾀﾏｹﾝ","kana_city":"ﾁﾁﾌﾞｼ","kana_address":"ｼﾓﾐﾔｼﾞﾏﾁ","pref":"埼玉県","city":"秩父市","address":"下宮地町"},
{"zip_code":"3680012","kana_pref":"ｻｲﾀﾏｹﾝ","kana_city":"ﾁﾁﾌﾞｼ","kana_address":"ﾀｷﾉｳｴﾏﾁ","pref":"埼玉県","city":"秩父市","address":"滝の上町"},
{"zip_code":"3680055","kana_pref":"ｻｲﾀﾏｹﾝ","kana_city":"ﾁﾁﾌﾞｼ","kana_address":"ﾀﾑﾗ","pref":"埼玉県","city":"秩父市","address":"田村"},
{"zip_code":"3680052","kana_pref":"ｻｲﾀﾏｹﾝ","kana_city":"ﾁﾁﾌﾞｼ","kana_address":"ﾁｶﾄﾏﾁ","pref":"埼玉県","city":"秩父市","address":"近戸町"},
{"zip_code":"3680056","kana_pref":"ｻｲﾀﾏｹﾝ","kana_city":"ﾁﾁﾌﾞｼ","kana_address":"ﾃﾗｵ","pref":"埼玉県","city":"秩父市","address":"寺尾"},
{"zip_code":"3680045","kana_pref":"ｻｲﾀﾏｹﾝ","kana_city":"ﾁﾁﾌﾞｼ","kana_address":"ﾄﾞｳｼﾞｮｳﾏﾁ","pref":"埼玉県","city":"秩父市","address":"道生町"},
{"zip_code":"3680002","kana_pref":"ｻｲﾀﾏｹﾝ","kana_city":"ﾁﾁﾌﾞｼ","kana_address":"ﾄﾁﾔ","pref":"埼玉県","city":"秩父市","address":"栃谷"},
{"zip_code":"3680043","kana_pref":"ｻｲﾀﾏｹﾝ","kana_city":"ﾁﾁﾌﾞｼ","kana_address":"ﾅｶﾏﾁ","pref":"埼玉県","city":"秩父市","address":"中町"},
{"zip_code":"3680022","kana_pref":"ｻｲﾀﾏｹﾝ","kana_city":"ﾁﾁﾌﾞｼ","kana_address":"ﾅｶﾐﾔｼﾞﾏﾁ","pref":"埼玉県","city":"秩父市","address":"中宮地町"},
{"zip_code":"3680051","kana_pref":"ｻｲﾀﾏｹﾝ","kana_city":"ﾁﾁﾌﾞｼ","kana_address":"ﾅｶﾑﾗﾏﾁ","pref":"埼玉県","city":"秩父市","address":"中村町"},
{"zip_code":"3680013","kana_pref":"ｻｲﾀﾏｹﾝ","kana_city":"ﾁﾁﾌﾞｼ","kana_address":"ﾅｶﾞﾀﾏﾁ","pref":"埼玉県","city":"秩父市","address":"永田町"},
{"zip_code":"3680033","kana_pref":"ｻｲﾀﾏｹﾝ","kana_city":"ﾁﾁﾌﾞｼ","kana_address":"ﾉｻｶﾏﾁ","pref":"埼玉県","city":"秩父市","address":"野坂町"},
{"zip_code":"3680041","kana_pref":"ｻｲﾀﾏｹﾝ","kana_city":"ﾁﾁﾌﾞｼ","kana_address":"ﾊﾞﾝﾊﾞﾏﾁ","pref":"埼玉県","city":"秩父市","address":"番場町"},
{"zip_code":"3680042","kana_pref":"ｻｲﾀﾏｹﾝ","kana_city":"ﾁﾁﾌﾞｼ","kana_address":"ﾋｶﾞｼﾏﾁ","pref":"埼玉県","city":"秩父市","address":"東町"},
{"zip_code":"3680034","kana_pref":"ｻｲﾀﾏｹﾝ","kana_city":"ﾁﾁﾌﾞｼ","kana_address":"ﾋﾉﾀﾞﾏﾁ","pref":"埼玉県","city":"秩父市","address":"日野田町"},
{"zip_code":"3680054","kana_pref":"ｻｲﾀﾏｹﾝ","kana_city":"ﾁﾁﾌﾞｼ","kana_address":"ﾍﾞｯｼｮ","pref":"埼玉県","city":"秩父市","address":"別所"},
{"zip_code":"3680066","kana_pref":"ｻｲﾀﾏｹﾝ","kana_city":"ﾁﾁﾌﾞｼ","kana_address":"ﾎﾘｷﾘ","pref":"埼玉県","city":"秩父市","address":"堀切"},
{"zip_code":"3680062","kana_pref":"ｻｲﾀﾏｹﾝ","kana_city":"ﾁﾁﾌﾞｼ","kana_address":"ﾏｲﾀ","pref":"埼玉県","city":"秩父市","address":"蒔田"},
{"zip_code":"3680067","kana_pref":"ｻｲﾀﾏｹﾝ","kana_city":"ﾁﾁﾌﾞｼ","kana_address":"ﾐﾄﾞﾘｶﾞｵｶ","pref":"埼玉県","city":"秩父市","address":"みどりが丘"},
{"zip_code":"3680046","kana_pref":"ｻｲﾀﾏｹﾝ","kana_city":"ﾁﾁﾌﾞｼ","kana_address":"ﾐﾔｶﾜﾁｮｳ","pref":"埼玉県","city":"秩父市","address":"宮側町"},
{"zip_code":"3680044","kana_pref":"ｻｲﾀﾏｹﾝ","kana_city":"ﾁﾁﾌﾞｼ","kana_address":"ﾓﾄﾏﾁ","pref":"埼玉県","city":"秩父市","address":"本町"},
{"zip_code":"3680015","kana_pref":"ｻｲﾀﾏｹﾝ","kana_city":"ﾁﾁﾌﾞｼ","kana_address":"ﾔﾅｷﾞﾀﾞﾏﾁ","pref":"埼玉県","city":"秩父市","address":"柳田町"},
{"zip_code":"3680004","kana_pref":"ｻｲﾀﾏｹﾝ","kana_city":"ﾁﾁﾌﾞｼ","kana_address":"ﾔﾏﾀﾞ","pref":"埼玉県","city":"秩父市","address":"山田"},
{"zip_code":"3680000","kana_pref":"ｻｲﾀﾏｹﾝ","kana_city":"ﾁﾁﾌﾞｸﾞﾝﾖｺｾﾞﾏﾁ","kana_address":"","pref":"埼玉県","city":"秩父郡横瀬町","address":""},
{"zip_code":"3680071","kana_pref":"ｻｲﾀﾏｹﾝ","kana_city":"ﾁﾁﾌﾞｸﾞﾝﾖｺｾﾞﾏﾁ","kana_address":"ｱｼｶﾞｸﾎﾞ","pref":"埼玉県","city":"秩父郡横瀬町","address":"芦ケ久保"},
{"zip_code":"3680072","kana_pref":"ｻｲﾀﾏｹﾝ","kana_city":"ﾁﾁﾌﾞｸﾞﾝﾖｺｾﾞﾏﾁ","kana_address":"ﾖｺｾﾞ","pref":"埼玉県","city":"秩父郡横瀬町","address":"横瀬"},
{"zip_code":"3680100","kana_pref":"ｻｲﾀﾏｹﾝ","kana_city":"ﾁﾁﾌﾞｸﾞﾝｵｶﾞﾉﾏﾁ","kana_address":"","pref":"埼玉県","city":"秩父郡小鹿野町","address":""},
{"zip_code":"3680111","kana_pref":"ｻｲﾀﾏｹﾝ","kana_city":"ﾁﾁﾌﾞｸﾞﾝｵｶﾞﾉﾏﾁ","kana_address":"ｲｲﾀﾞ","pref":"埼玉県","city":"秩父郡小鹿野町","address":"飯田"},
{"zip_code":"3680104","kana_pref":"ｻｲﾀﾏｹﾝ","kana_city":"ﾁﾁﾌﾞｸﾞﾝｵｶﾞﾉﾏﾁ","kana_address":"ｲｽﾞｻﾜ","pref":"埼玉県","city":"秩父郡小鹿野町","address":"伊豆沢"},
{"zip_code":"3680105","kana_pref":"ｻｲﾀﾏｹﾝ","kana_city":"ﾁﾁﾌﾞｸﾞﾝｵｶﾞﾉﾏﾁ","kana_address":"ｵｶﾞﾉ","pref":"埼玉県","city":"秩父郡小鹿野町","address":"小鹿野"},
{"zip_code":"3680113","kana_pref":"ｻｲﾀﾏｹﾝ","kana_city":"ﾁﾁﾌﾞｸﾞﾝｵｶﾞﾉﾏﾁ","kana_address":"ｶﾜﾗｻﾜ","pref":"埼玉県","city":"秩父郡小鹿野町","address":"河原沢"},
{"zip_code":"3680112","kana_pref":"ｻｲﾀﾏｹﾝ","kana_city":"ﾁﾁﾌﾞｸﾞﾝｵｶﾞﾉﾏﾁ","kana_address":"ｻﾝﾔﾏ","pref":"埼玉県","city":"秩父郡小鹿野町","address":"三山"},
{"zip_code":"3680101","kana_pref":"ｻｲﾀﾏｹﾝ","kana_city":"ﾁﾁﾌﾞｸﾞﾝｵｶﾞﾉﾏﾁ","kana_address":"ｼﾓｵｶﾞﾉ","pref":"埼玉県","city":"秩父郡小鹿野町","address":"下小鹿野"},
{"zip_code":"3680102","kana_pref":"ｻｲﾀﾏｹﾝ","kana_city":"ﾁﾁﾌﾞｸﾞﾝｵｶﾞﾉﾏﾁ","kana_address":"ﾅｶﾞﾙ","pref":"埼玉県","city":"秩父郡小鹿野町","address":"長留"},
{"zip_code":"3680103","kana_pref":"ｻｲﾀﾏｹﾝ","kana_city":"ﾁﾁﾌﾞｸﾞﾝｵｶﾞﾉﾏﾁ","kana_address":"ﾊﾝﾆｬ","pref":"埼玉県","city":"秩父郡小鹿野町","address":"般若"},
{"zip_code":"3680115","kana_pref":"ｻｲﾀﾏｹﾝ","kana_city":"ﾁﾁﾌﾞｸﾞﾝｵｶﾞﾉﾏﾁ","kana_address":"ﾋｵ","pref":"埼玉県","city":"秩父郡小鹿野町","address":"日尾"},
{"zip_code":"3680114","kana_pref":"ｻｲﾀﾏｹﾝ","kana_city":"ﾁﾁﾌﾞｸﾞﾝｵｶﾞﾉﾏﾁ","kana_address":"ﾌｼﾞｸﾗ","pref":"埼玉県","city":"秩父郡小鹿野町","address":"藤倉"},
{"zip_code":"3680202","kana_pref":"ｻｲﾀﾏｹﾝ","kana_city":"ﾁﾁﾌﾞｸﾞﾝｵｶﾞﾉﾏﾁ","kana_address":"ﾘｮｳｶﾐｺﾓﾘ","pref":"埼玉県","city":"秩父郡小鹿野町","address":"両神小森"},
{"zip_code":"3680201","kana_pref":"ｻｲﾀﾏｹﾝ","kana_city":"ﾁﾁﾌﾞｸﾞﾝｵｶﾞﾉﾏﾁ","kana_address":"ﾘｮｳｶﾐｽｽｷ","pref":"埼玉県","city":"秩父郡小鹿野町","address":"両神薄"}]}