{"zip_code":[
{"zip_code":"3690106","kana_pref":"ｻｲﾀﾏｹﾝ","kana_city":"ｸﾏｶﾞﾔｼ","kana_address":"ｱｲｱｹﾞ","pref":"埼玉県","city":"熊谷市","address":"相上"},
{"zip_code":"3690104","kana_pref":"ｻｲﾀﾏｹﾝ","kana_city":"ｸﾏｶﾞﾔｼ","kana_address":"ｶﾌﾞﾄﾔﾏ","pref":"埼玉県","city":"熊谷市","address":"冑山"},
{"zip_code":"3690103","kana_pref":"ｻｲﾀﾏｹﾝ","kana_city":"ｸﾏｶﾞﾔｼ","kana_address":"ｺﾔﾂﾊﾞﾔｼ","pref":"埼玉県","city":"熊谷市","address":"小八林"},
{"zip_code":"3690102","kana_pref":"ｻｲﾀﾏｹﾝ","kana_city":"ｸﾏｶﾞﾔｼ","kana_address":"ﾀﾏﾂｸﾘ","pref":"埼玉県","city":"熊谷市","address":"玉作"},
{"zip_code":"3690101","kana_pref":"ｻｲﾀﾏｹﾝ","kana_city":"ｸﾏｶﾞﾔｼ","kana_address":"ﾂﾀﾞ","pref":"埼玉県","city":"熊谷市","address":"津田"},
{"zip_code":"3690108","kana_pref":"ｻｲﾀﾏｹﾝ","kana_city":"ｸﾏｶﾞﾔｼ","kana_address":"ﾌﾅｷﾀﾞｲ","pref":"埼玉県","city":"熊谷市","address":"船木台"},
{"zip_code":"3690105","kana_pref":"ｻｲﾀﾏｹﾝ","kana_city":"ｸﾏｶﾞﾔｼ","kana_address":"ﾐﾉﾜ","pref":"埼玉県","city":"熊谷市","address":"箕輪"},
{"zip_code":"3690107","kana_pref":"ｻｲﾀﾏｹﾝ","kana_city":"ｸﾏｶﾞﾔｼ","kana_address":"ﾑｺｳﾔ","pref":"埼玉県","city":"熊谷市","address":"向谷"},
{"zip_code":"3691804","kana_pref":"ｻｲﾀﾏｹﾝ","kana_city":"ﾁﾁﾌﾞｼ","kana_address":"ｱﾗｶﾜｵﾉﾊﾞﾗ","pref":"埼玉県","city":"秩父市","address":"荒川小野原"},
{"zip_code":"3691802","kana_pref":"ｻｲﾀﾏｹﾝ","kana_city":"ﾁﾁﾌﾞｼ","kana_address":"ｱﾗｶﾜｶﾐﾀﾉ","pref":"埼玉県","city":"秩父市","address":"荒川上田野"},
{"zip_code":"3691801","kana_pref":"ｻｲﾀﾏｹﾝ","kana_city":"ﾁﾁﾌﾞｼ","kana_address":"ｱﾗｶﾜｸﾅ","pref":"埼玉県","city":"秩父市","address":"荒川久那"},
{"zip_code":"3691912","kana_pref":"ｻｲﾀﾏｹﾝ","kana_city":"ﾁﾁﾌﾞｼ","kana_address":"ｱﾗｶﾜｼﾛｸ","pref":"埼玉県","city":"秩父市","address":"荒川白久"},
{"zip_code":"3691911","kana_pref":"ｻｲﾀﾏｹﾝ","kana_city":"ﾁﾁﾌﾞｼ","kana_address":"ｱﾗｶﾜﾆｴｶﾞﾜ","pref":"埼玉県","city":"秩父市","address":"荒川贄川"},
{"zip_code":"3691803","kana_pref":"ｻｲﾀﾏｹﾝ","kana_city":"ﾁﾁﾌﾞｼ","kana_address":"ｱﾗｶﾜﾋﾉ","pref":"埼玉県","city":"秩父市","address":"荒川日野"},
{"zip_code":"3691874","kana_pref":"ｻｲﾀﾏｹﾝ","kana_city":"ﾁﾁﾌﾞｼ","kana_address":"ｲｽﾞﾐﾁｮｳ","pref":"埼玉県","city":"秩父市","address":"和泉町"},
{"zip_code":"3691873","kana_pref":"ｻｲﾀﾏｹﾝ","kana_city":"ﾁﾁﾌﾞｼ","kana_address":"ｳﾗﾔﾏ","pref":"埼玉県","city":"秩父市","address":"浦山"},
{"zip_code":"3691901","kana_pref":"ｻｲﾀﾏｹﾝ","kana_city":"ﾁﾁﾌﾞｼ","kana_address":"ｵｵﾀｷ","pref":"埼玉県","city":"秩父市","address":"大滝"},
{"zip_code":"3691872","kana_pref":"ｻｲﾀﾏｹﾝ","kana_city":"ﾁﾁﾌﾞｼ","kana_address":"ｶﾐｶｹﾞﾓﾘ","pref":"埼玉県","city":"秩父市","address":"上影森"},
{"zip_code":"3691505","kana_pref":"ｻｲﾀﾏｹﾝ","kana_city":"ﾁﾁﾌﾞｼ","kana_address":"ｶﾐﾖｼﾀﾞ","pref":"埼玉県","city":"秩父市","address":"上吉田"},
{"zip_code":"3691871","kana_pref":"ｻｲﾀﾏｹﾝ","kana_city":"ﾁﾁﾌﾞｼ","kana_address":"ｼﾓｶｹﾞﾓﾘ","pref":"埼玉県","city":"秩父市","address":"下影森"},
{"zip_code":"3691503","kana_pref":"ｻｲﾀﾏｹﾝ","kana_city":"ﾁﾁﾌﾞｼ","kana_address":"ｼﾓﾖｼﾀﾞ","pref":"埼玉県","city":"秩父市","address":"下吉田"},
{"zip_code":"3691903","kana_pref":"ｻｲﾀﾏｹﾝ","kana_city":"ﾁﾁﾌﾞｼ","kana_address":"ﾅｶﾂｶﾞﾜ","pref":"埼玉県","city":"秩父市","address":"中津川"},
{"zip_code":"3691902","kana_pref":"ｻｲﾀﾏｹﾝ","kana_city":"ﾁﾁﾌﾞｼ","kana_address":"ﾐﾂﾐﾈ","pref":"埼玉県","city":"秩父市","address":"三峰"},
{"zip_code":"3691502","kana_pref":"ｻｲﾀﾏｹﾝ","kana_city":"ﾁﾁﾌﾞｼ","kana_address":"ﾖｼﾀﾞｱｸﾞﾏ","pref":"埼玉県","city":"秩父市","address":"吉田阿熊"},
{"zip_code":"3691504","kana_pref":"ｻｲﾀﾏｹﾝ","kana_city":"ﾁﾁﾌﾞｼ","kana_address":"ﾖｼﾀﾞｲｻﾏ","pref":"埼玉県","city":"秩父市","address":"吉田石間"},
{"zip_code":"3691506","kana_pref":"ｻｲﾀﾏｹﾝ","kana_city":"ﾁﾁﾌﾞｼ","kana_address":"ﾖｼﾀﾞｵｵﾀﾌﾞ","pref":"埼玉県","city":"秩父市","address":"吉田太田部"},
{"zip_code":"3691501","kana_pref":"ｻｲﾀﾏｹﾝ","kana_city":"ﾁﾁﾌﾞｼ","kana_address":"ﾖｼﾀﾞﾋｻﾅｶﾞ","pref":"埼玉県","city":"秩父市","address":"吉田久長"},
{"zip_code":"3690123","kana_pref":"ｻｲﾀﾏｹﾝ","kana_city":"ｺｳﾉｽｼ","kana_address":"ｴﾉｷﾄﾞ","pref":"埼玉県","city":"鴻巣市","address":"榎戸"},
{"zip_code":"3690137","kana_pref":"ｻｲﾀﾏｹﾝ","kana_city":"ｺｳﾉｽｼ","kana_address":"ｵｵｱｼ","pref":"埼玉県","city":"鴻巣市","address":"大芦"},
{"zip_code":"3690112","kana_pref":"ｻｲﾀﾏｹﾝ","kana_city":"ｺｳﾉｽｼ","kana_address":"ｶﾏﾂｶ","pref":"埼玉県","city":"鴻巣市","address":"鎌塚"},
{"zip_code":"3690116","kana_pref":"ｻｲﾀﾏｹﾝ","kana_city":"ｺｳﾉｽｼ","kana_address":"ｷﾀｼﾝｼｭｸ","pref":"埼玉県","city":"鴻巣市","address":"北新宿"},
{"zip_code":"3690133","kana_pref":"ｻｲﾀﾏｹﾝ","kana_city":"ｺｳﾉｽｼ","kana_address":"ｺﾔ","pref":"埼玉県","city":"鴻巣市","address":"小谷"},
{"zip_code":"3690134","kana_pref":"ｻｲﾀﾏｹﾝ","kana_city":"ｺｳﾉｽｼ","kana_address":"ｻﾝﾁｮｳﾒﾝ","pref":"埼玉県","city":"鴻巣市","address":"三町免"},
{"zip_code":"3690113","kana_pref":"ｻｲﾀﾏｹﾝ","kana_city":"ｺｳﾉｽｼ","kana_address":"ｼﾓｵｼ","pref":"埼玉県","city":"鴻巣市","address":"下忍"},
{"zip_code":"3690111","kana_pref":"ｻｲﾀﾏｹﾝ","kana_city":"ｺｳﾉｽｼ","kana_address":"ｼﾝｼｭｸ","pref":"埼玉県","city":"鴻巣市","address":"新宿"},
{"zip_code":"3690114","kana_pref":"ｻｲﾀﾏｹﾝ","kana_city":"ｺｳﾉｽｼ","kana_address":"ﾂｸﾊﾞ","pref":"埼玉県","city":"鴻巣市","address":"筑波"},
{"zip_code":"3690124","kana_pref":"ｻｲﾀﾏｹﾝ","kana_city":"ｺｳﾉｽｼ","kana_address":"ﾊﾞﾗﾊﾗ","pref":"埼玉県","city":"鴻巣市","address":"荊原"},
{"zip_code":"3690136","kana_pref":"ｻｲﾀﾏｹﾝ","kana_city":"ｺｳﾉｽｼ","kana_address":"ﾌｷｱｹﾞ","pref":"埼玉県","city":"鴻巣市","address":"吹上"},
{"zip_code":"3690121","kana_pref":"ｻｲﾀﾏｹﾝ","kana_city":"ｺｳﾉｽｼ","kana_address":"ﾌｷｱｹﾞﾌｼﾞﾐ","pref":"埼玉県","city":"鴻巣市","address":"吹上富士見"},
{"zip_code":"3690115","kana_pref":"ｻｲﾀﾏｹﾝ","kana_city":"ｺｳﾉｽｼ","kana_address":"ﾌｷｱｹﾞﾎﾝﾁｮｳ","pref":"埼玉県","city":"鴻巣市","address":"吹上本町"},
{"zip_code":"3690131","kana_pref":"ｻｲﾀﾏｹﾝ","kana_city":"ｺｳﾉｽｼ","kana_address":"ﾌｸﾛ","pref":"埼玉県","city":"鴻巣市","address":"袋"},
{"zip_code":"3690132","kana_pref":"ｻｲﾀﾏｹﾝ","kana_city":"ｺｳﾉｽｼ","kana_address":"ﾏｴｽﾅ","pref":"埼玉県","city":"鴻巣市","address":"前砂"},
{"zip_code":"3690122","kana_pref":"ｻｲﾀﾏｹﾝ","kana_city":"ｺｳﾉｽｼ","kana_address":"ﾐﾅﾐ","pref":"埼玉県","city":"鴻巣市","address":"南"},
{"zip_code":"3690135","kana_pref":"ｻｲﾀﾏｹﾝ","kana_city":"ｺｳﾉｽｼ","kana_address":"ﾐｮｳﾖｳ","pref":"埼玉県","city":"鴻巣市","address":"明用"},
{"zip_code":"3691245","kana_pref":"ｻｲﾀﾏｹﾝ","kana_city":"ﾌｶﾔｼ","kana_address":"ｱﾗｶﾜ","pref":"埼玉県","city":"深谷市","address":"荒川"},
{"zip_code":"3690215","kana_pref":"ｻｲﾀﾏｹﾝ","kana_city":"ﾌｶﾔｼ","kana_address":"ｲﾏｲｽﾞﾐ","pref":"埼玉県","city":"深谷市","address":"今泉"},
{"zip_code":"3690222","kana_pref":"ｻｲﾀﾏｹﾝ","kana_city":"ﾌｶﾔｼ","kana_address":"ｳｼﾛﾊﾝｻﾞﾜ","pref":"埼玉県","city":"深谷市","address":"後榛沢"},
{"zip_code":"3690201","kana_pref":"ｻｲﾀﾏｹﾝ","kana_city":"ﾌｶﾔｼ","kana_address":"ｵｶ","pref":"埼玉県","city":"深谷市","address":"岡"},
{"zip_code":"3690202","kana_pref":"ｻｲﾀﾏｹﾝ","kana_city":"ﾌｶﾔｼ","kana_address":"ｵｶｻﾞﾄ","pref":"埼玉県","city":"深谷市","address":"岡里"},
{"zip_code":"3690211","kana_pref":"ｻｲﾀﾏｹﾝ","kana_city":"ﾌｶﾔｼ","kana_address":"ｵｶﾍﾞ","pref":"埼玉県","city":"深谷市","address":"岡部"},
{"zip_code":"3691246","kana_pref":"ｻｲﾀﾏｹﾝ","kana_city":"ﾌｶﾔｼ","kana_address":"ｵﾏｴﾀﾞ","pref":"埼玉県","city":"深谷市","address":"小前田"},
{"zip_code":"3691109","kana_pref":"ｻｲﾀﾏｹﾝ","kana_city":"ﾌｶﾔｼ","kana_address":"ｶﾐﾊﾗ","pref":"埼玉県","city":"深谷市","address":"上原"},
{"zip_code":"3691103","kana_pref":"ｻｲﾀﾏｹﾝ","kana_city":"ﾌｶﾔｼ","kana_address":"ｶﾜﾓﾄｱｹﾄ","pref":"埼玉県","city":"深谷市","address":"川本明戸"},
{"zip_code":"3691242","kana_pref":"ｻｲﾀﾏｹﾝ","kana_city":"ﾌｶﾔｼ","kana_address":"ｷﾀﾈ","pref":"埼玉県","city":"深谷市","address":"北根"},
{"zip_code":"3690212","kana_pref":"ｻｲﾀﾏｹﾝ","kana_city":"ﾌｶﾔｼ","kana_address":"ｸｼﾋﾞｷ","pref":"埼玉県","city":"深谷市","address":"櫛挽"},
{"zip_code":"3690225","kana_pref":"ｻｲﾀﾏｹﾝ","kana_city":"ﾌｶﾔｼ","kana_address":"ｸﾂｶｹ","pref":"埼玉県","city":"深谷市","address":"沓掛"},
{"zip_code":"3691244","kana_pref":"ｻｲﾀﾏｹﾝ","kana_city":"ﾌｶﾔｼ","kana_address":"ｸﾛﾀﾞ","pref":"埼玉県","city":"深谷市","address":"黒田"},
{"zip_code":"3691106","kana_pref":"ｻｲﾀﾏｹﾝ","kana_city":"ﾌｶﾔｼ","kana_address":"ｼﾗｸｻﾀﾞｲ","pref":"埼玉県","city":"深谷市","address":"白草台"},
{"zip_code":"3691104","kana_pref":"ｻｲﾀﾏｹﾝ","kana_city":"ﾌｶﾔｼ","kana_address":"ｽｶﾞﾇﾏ","pref":"埼玉県","city":"深谷市","address":"菅沼"},
{"zip_code":"3691102","kana_pref":"ｻｲﾀﾏｹﾝ","kana_city":"ﾌｶﾔｼ","kana_address":"ｾﾔﾏ","pref":"埼玉県","city":"深谷市","address":"瀬山"},
{"zip_code":"3691111","kana_pref":"ｻｲﾀﾏｹﾝ","kana_city":"ﾌｶﾔｼ","kana_address":"ﾀｹｶﾜ","pref":"埼玉県","city":"深谷市","address":"武川"},
{"zip_code":"3691108","kana_pref":"ｻｲﾀﾏｹﾝ","kana_city":"ﾌｶﾔｼ","kana_address":"ﾀﾅｶ","pref":"埼玉県","city":"深谷市","address":"田中"},
{"zip_code":"3691101","kana_pref":"ｻｲﾀﾏｹﾝ","kana_city":"ﾌｶﾔｼ","kana_address":"ﾅｶﾞｻﾞｲｹ","pref":"埼玉県","city":"深谷市","address":"長在家"},
{"zip_code":"3691243","kana_pref":"ｻｲﾀﾏｹﾝ","kana_city":"ﾌｶﾔｼ","kana_address":"ﾅｶﾞﾀ","pref":"埼玉県","city":"深谷市","address":"永田"},
{"zip_code":"3690224","kana_pref":"ｻｲﾀﾏｹﾝ","kana_city":"ﾌｶﾔｼ","kana_address":"ﾆｼﾀﾞ","pref":"埼玉県","city":"深谷市","address":"西田"},
{"zip_code":"3691107","kana_pref":"ｻｲﾀﾏｹﾝ","kana_city":"ﾌｶﾔｼ","kana_address":"ﾊﾀｹﾔﾏ","pref":"埼玉県","city":"深谷市","address":"畠山"},
{"zip_code":"3690213","kana_pref":"ｻｲﾀﾏｹﾝ","kana_city":"ﾌｶﾔｼ","kana_address":"ﾊﾘｶﾞﾔ","pref":"埼玉県","city":"深谷市","address":"針ケ谷"},
{"zip_code":"3690223","kana_pref":"ｻｲﾀﾏｹﾝ","kana_city":"ﾌｶﾔｼ","kana_address":"ﾊﾝｻﾞﾜ","pref":"埼玉県","city":"深谷市","address":"榛沢"},
{"zip_code":"3690221","kana_pref":"ｻｲﾀﾏｹﾝ","kana_city":"ﾌｶﾔｼ","kana_address":"ﾊﾝｻﾞﾜｼﾝﾃﾞﾝ","pref":"埼玉県","city":"深谷市","address":"榛沢新田"},
{"zip_code":"3690203","kana_pref":"ｻｲﾀﾏｹﾝ","kana_city":"ﾌｶﾔｼ","kana_address":"ﾌｻｲｼﾞ","pref":"埼玉県","city":"深谷市","address":"普済寺"},
{"zip_code":"3690214","kana_pref":"ｻｲﾀﾏｹﾝ","kana_city":"ﾌｶﾔｼ","kana_address":"ﾎﾝｺﾞｳ","pref":"埼玉県","city":"深谷市","address":"本郷"},
{"zip_code":"3691105","kana_pref":"ｻｲﾀﾏｹﾝ","kana_city":"ﾌｶﾔｼ","kana_address":"ﾎﾝﾀﾞ","pref":"埼玉県","city":"深谷市","address":"本田"},
{"zip_code":"3691241","kana_pref":"ｻｲﾀﾏｹﾝ","kana_city":"ﾌｶﾔｼ","kana_address":"ﾑｻｼﾉ","pref":"埼玉県","city":"深谷市","address":"武蔵野"},
{"zip_code":"3690217","kana_pref":"ｻｲﾀﾏｹﾝ","kana_city":"ﾌｶﾔｼ","kana_address":"ﾔﾏｶﾞ","pref":"埼玉県","city":"深谷市","address":"山河"},
{"zip_code":"3690216","kana_pref":"ｻｲﾀﾏｹﾝ","kana_city":"ﾌｶﾔｼ","kana_address":"ﾔﾏｻﾞｷ","pref":"埼玉県","city":"深谷市","address":"山崎"},
{"zip_code":"3691400","kana_pref":"ｻｲﾀﾏｹﾝ","kana_city":"ﾁﾁﾌﾞｸﾞﾝﾐﾅﾉﾏﾁ","kana_address":"","pref":"埼玉県","city":"秩父郡皆野町","address":""},
{"zip_code":"3691623","kana_pref":"ｻｲﾀﾏｹﾝ","kana_city":"ﾁﾁﾌﾞｸﾞﾝﾐﾅﾉﾏﾁ","kana_address":"ｵｵﾌﾁ","pref":"埼玉県","city":"秩父郡皆野町","address":"大淵"},
{"zip_code":"3691621","kana_pref":"ｻｲﾀﾏｹﾝ","kana_city":"ﾁﾁﾌﾞｸﾞﾝﾐﾅﾉﾏﾁ","kana_address":"ｶﾅｻｷ","pref":"埼玉県","city":"秩父郡皆野町","address":"金崎"},
{"zip_code":"3691601","kana_pref":"ｻｲﾀﾏｹﾝ","kana_city":"ﾁﾁﾌﾞｸﾞﾝﾐﾅﾉﾏﾁ","kana_address":"ｶﾈｻﾞﾜ","pref":"埼玉県","city":"秩父郡皆野町","address":"金沢"},
{"zip_code":"3691626","kana_pref":"ｻｲﾀﾏｹﾝ","kana_city":"ﾁﾁﾌﾞｸﾞﾝﾐﾅﾉﾏﾁ","kana_address":"ｶﾐﾋﾉｻﾞﾜ","pref":"埼玉県","city":"秩父郡皆野町","address":"上日野沢"},
{"zip_code":"3691622","kana_pref":"ｻｲﾀﾏｹﾝ","kana_city":"ﾁﾁﾌﾞｸﾞﾝﾐﾅﾉﾏﾁ","kana_address":"ｸﾆｶﾐ","pref":"埼玉県","city":"秩父郡皆野町","address":"国神"},
{"zip_code":"3691413","kana_pref":"ｻｲﾀﾏｹﾝ","kana_city":"ﾁﾁﾌﾞｸﾞﾝﾐﾅﾉﾏﾁ","kana_address":"ｼﾓﾀﾉ","pref":"埼玉県","city":"秩父郡皆野町","address":"下田野"},
{"zip_code":"3691625","kana_pref":"ｻｲﾀﾏｹﾝ","kana_city":"ﾁﾁﾌﾞｸﾞﾝﾐﾅﾉﾏﾁ","kana_address":"ｼﾓﾋﾉｻﾞﾜ","pref":"埼玉県","city":"秩父郡皆野町","address":"下日野沢"},
{"zip_code":"3691624","kana_pref":"ｻｲﾀﾏｹﾝ","kana_city":"ﾁﾁﾌﾞｸﾞﾝﾐﾅﾉﾏﾁ","kana_address":"ﾉﾏｷ","pref":"埼玉県","city":"秩父郡皆野町","address":"野巻"},
{"zip_code":"3691411","kana_pref":"ｻｲﾀﾏｹﾝ","kana_city":"ﾁﾁﾌﾞｸﾞﾝﾐﾅﾉﾏﾁ","kana_address":"ﾐｻﾜ","pref":"埼玉県","city":"秩父郡皆野町","address":"三沢"},
{"zip_code":"3691412","kana_pref":"ｻｲﾀﾏｹﾝ","kana_city":"ﾁﾁﾌﾞｸﾞﾝﾐﾅﾉﾏﾁ","kana_address":"ﾐﾅﾉ","pref":"埼玉県","city":"秩父郡皆野町","address":"皆野"},
{"zip_code":"3691300","kana_pref":"ｻｲﾀﾏｹﾝ","kana_city":"ﾁﾁﾌﾞｸﾞﾝﾅｶﾞﾄﾛﾏﾁ","kana_address":"","pref":"埼玉県","city":"秩父郡長瀞町","address":""},
{"zip_code":"3691312","kana_pref":"ｻｲﾀﾏｹﾝ","kana_city":"ﾁﾁﾌﾞｸﾞﾝﾅｶﾞﾄﾛﾏﾁ","kana_address":"ｲﾄﾞ","pref":"埼玉県","city":"秩父郡長瀞町","address":"井戸"},
{"zip_code":"3691311","kana_pref":"ｻｲﾀﾏｹﾝ","kana_city":"ﾁﾁﾌﾞｸﾞﾝﾅｶﾞﾄﾛﾏﾁ","kana_address":"ｲﾜﾀ","pref":"埼玉県","city":"秩父郡長瀞町","address":"岩田"},
{"zip_code":"3691303","kana_pref":"ｻｲﾀﾏｹﾝ","kana_city":"ﾁﾁﾌﾞｸﾞﾝﾅｶﾞﾄﾛﾏﾁ","kana_address":"ﾅｶﾉｶﾞﾐ","pref":"埼玉県","city":"秩父郡長瀞町","address":"中野上"},
{"zip_code":"3691305","kana_pref":"ｻｲﾀﾏｹﾝ","kana_city":"ﾁﾁﾌﾞｸﾞﾝﾅｶﾞﾄﾛﾏﾁ","kana_address":"ﾅｶﾞﾄﾛ","pref":"埼玉県","city":"秩父郡長瀞町","address":"長瀞"},
{"zip_code":"3691302","kana_pref":"ｻｲﾀﾏｹﾝ","kana_city":"ﾁﾁﾌﾞｸﾞﾝﾅｶﾞﾄﾛﾏﾁ","kana_address":"ﾉｶﾞﾐｼﾓｺﾞｳ","pref":"埼玉県","city":"秩父郡長瀞町","address":"野上下郷"},
{"zip_code":"3691313","kana_pref":"ｻｲﾀﾏｹﾝ","kana_city":"ﾁﾁﾌﾞｸﾞﾝﾅｶﾞﾄﾛﾏﾁ","kana_address":"ﾌｳﾌﾟ","pref":"埼玉県","city":"秩父郡長瀞町","address":"風布"},
{"zip_code":"3691304","kana_pref":"ｻｲﾀﾏｹﾝ","kana_city":"ﾁﾁﾌﾞｸﾞﾝﾅｶﾞﾄﾛﾏﾁ","kana_address":"ﾎﾝﾉｶﾞﾐ","pref":"埼玉県","city":"秩父郡長瀞町","address":"本野上"},
{"zip_code":"3691301","kana_pref":"ｻｲﾀﾏｹﾝ","kana_city":"ﾁﾁﾌﾞｸﾞﾝﾅｶﾞﾄﾛﾏﾁ","kana_address":"ﾔﾅｾ","pref":"埼玉県","city":"秩父郡長瀞町","address":"矢那瀬"},
{"zip_code":"3690300","kana_pref":"ｻｲﾀﾏｹﾝ","kana_city":"ｺﾀﾞﾏｸﾞﾝｶﾐｻﾄﾏﾁ","kana_address":"","pref":"埼玉県","city":"児玉郡上里町","address":""},
{"zip_code":"3690315","kana_pref":"ｻｲﾀﾏｹﾝ","kana_city":"ｺﾀﾞﾏｸﾞﾝｶﾐｻﾄﾏﾁ","kana_address":"ｵｵﾐﾄﾞｳ","pref":"埼玉県","city":"児玉郡上里町","address":"大御堂"},
{"zip_code":"3690303","kana_pref":"ｻｲﾀﾏｹﾝ","kana_city":"ｺﾀﾞﾏｸﾞﾝｶﾐｻﾄﾏﾁ","kana_address":"ｵｼﾎﾞ","pref":"埼玉県","city":"児玉郡上里町","address":"忍保"},
{"zip_code":"3690301","kana_pref":"ｻｲﾀﾏｹﾝ","kana_city":"ｺﾀﾞﾏｸﾞﾝｶﾐｻﾄﾏﾁ","kana_address":"ｶﾅｸﾎﾞ","pref":"埼玉県","city":"児玉郡上里町","address":"金久保"},
{"zip_code":"3690307","kana_pref":"ｻｲﾀﾏｹﾝ","kana_city":"ｺﾀﾞﾏｸﾞﾝｶﾐｻﾄﾏﾁ","kana_address":"ｶﾐ","pref":"埼玉県","city":"児玉郡上里町","address":"嘉美"},
{"zip_code":"3690317","kana_pref":"ｻｲﾀﾏｹﾝ","kana_city":"ｺﾀﾞﾏｸﾞﾝｶﾐｻﾄﾏﾁ","kana_address":"ｺﾞﾐｮｳ","pref":"埼玉県","city":"児玉郡上里町","address":"五明"},
{"zip_code":"3690306","kana_pref":"ｻｲﾀﾏｹﾝ","kana_city":"ｺﾀﾞﾏｸﾞﾝｶﾐｻﾄﾏﾁ","kana_address":"ｼﾁﾎﾝｷﾞ","pref":"埼玉県","city":"児玉郡上里町","address":"七本木"},
{"zip_code":"3690305","kana_pref":"ｻｲﾀﾏｹﾝ","kana_city":"ｺﾀﾞﾏｸﾞﾝｶﾐｻﾄﾏﾁ","kana_address":"ｼﾞﾝﾎﾞﾊﾗﾏﾁ","pref":"埼玉県","city":"児玉郡上里町","address":"神保原町"},
{"zip_code":"3690312","kana_pref":"ｻｲﾀﾏｹﾝ","kana_city":"ｺﾀﾞﾏｸﾞﾝｶﾐｻﾄﾏﾁ","kana_address":"ﾀﾃﾜｷ","pref":"埼玉県","city":"児玉郡上里町","address":"帯刀"},
{"zip_code":"3690313","kana_pref":"ｻｲﾀﾏｹﾝ","kana_city":"ｺﾀﾞﾏｸﾞﾝｶﾐｻﾄﾏﾁ","kana_address":"ﾂﾂﾐ","pref":"埼玉県","city":"児玉郡上里町","address":"堤"},
{"zip_code":"3690311","kana_pref":"ｻｲﾀﾏｹﾝ","kana_city":"ｺﾀﾞﾏｸﾞﾝｶﾐｻﾄﾏﾁ","kana_address":"ﾃｼｶﾞﾜﾗ","pref":"埼玉県","city":"児玉郡上里町","address":"勅使河原"},
{"zip_code":"3690316","kana_pref":"ｻｲﾀﾏｹﾝ","kana_city":"ｺﾀﾞﾏｸﾞﾝｶﾐｻﾄﾏﾁ","kana_address":"ﾅｶﾞﾊﾏ","pref":"埼玉県","city":"児玉郡上里町","address":"長浜"},
{"zip_code":"3690304","kana_pref":"ｻｲﾀﾏｹﾝ","kana_city":"ｺﾀﾞﾏｸﾞﾝｶﾐｻﾄﾏﾁ","kana_address":"ﾊｯﾁｮｳｶﾞﾜﾗ","pref":"埼玉県","city":"児玉郡上里町","address":"八町河原"},
{"zip_code":"3690308","kana_pref":"ｻｲﾀﾏｹﾝ","kana_city":"ｺﾀﾞﾏｸﾞﾝｶﾐｻﾄﾏﾁ","kana_address":"ﾋﾞｼｬﾄﾞ","pref":"埼玉県","city":"児玉郡上里町","address":"毘沙吐"},
{"zip_code":"3690318","kana_pref":"ｻｲﾀﾏｹﾝ","kana_city":"ｺﾀﾞﾏｸﾞﾝｶﾐｻﾄﾏﾁ","kana_address":"ﾌｼﾞｷﾄﾞ","pref":"埼玉県","city":"児玉郡上里町","address":"藤木戸"},
{"zip_code":"3690302","kana_pref":"ｻｲﾀﾏｹﾝ","kana_city":"ｺﾀﾞﾏｸﾞﾝｶﾐｻﾄﾏﾁ","kana_address":"ﾏﾕｽﾞﾐ","pref":"埼玉県","city":"児玉郡上里町","address":"黛"},
{"zip_code":"3690314","kana_pref":"ｻｲﾀﾏｹﾝ","kana_city":"ｺﾀﾞﾏｸﾞﾝｶﾐｻﾄﾏﾁ","kana_address":"ﾐﾏﾁ","pref":"埼玉県","city":"児玉郡上里町","address":"三町"},
{"zip_code":"3691200","kana_pref":"ｻｲﾀﾏｹﾝ","kana_city":"ｵｵｻﾄｸﾞﾝﾖﾘｲﾏﾁ","kana_address":"","pref":"埼玉県","city":"大里郡寄居町","address":""},
{"zip_code":"3691211","kana_pref":"ｻｲﾀﾏｹﾝ","kana_city":"ｵｵｻﾄｸﾞﾝﾖﾘｲﾏﾁ","kana_address":"ｱｶﾊﾏ","pref":"埼玉県","city":"大里郡寄居町","address":"赤浜"},
{"zip_code":"3691233","kana_pref":"ｻｲﾀﾏｹﾝ","kana_city":"ｵｵｻﾄｸﾞﾝﾖﾘｲﾏﾁ","kana_address":"ｱｷﾔﾏ","pref":"埼玉県","city":"大里郡寄居町","address":"秋山"},
{"zip_code":"3691214","kana_pref":"ｻｲﾀﾏｹﾝ","kana_city":"ｵｵｻﾄｸﾞﾝﾖﾘｲﾏﾁ","kana_address":"ｲﾏｲﾁ","pref":"埼玉県","city":"大里郡寄居町","address":"今市"},
{"zip_code":"3691234","kana_pref":"ｻｲﾀﾏｹﾝ","kana_city":"ｵｵｻﾄｸﾞﾝﾖﾘｲﾏﾁ","kana_address":"ｵﾘﾊﾗ","pref":"埼玉県","city":"大里郡寄居町","address":"折原"},
{"zip_code":"3691236","kana_pref":"ｻｲﾀﾏｹﾝ","kana_city":"ｵｵｻﾄｸﾞﾝﾖﾘｲﾏﾁ","kana_address":"ｶﾅｵ","pref":"埼玉県","city":"大里郡寄居町","address":"金尾"},
{"zip_code":"3691217","kana_pref":"ｻｲﾀﾏｹﾝ","kana_city":"ｵｵｻﾄｸﾞﾝﾖﾘｲﾏﾁ","kana_address":"ｺｿﾞﾉ","pref":"埼玉県","city":"大里郡寄居町","address":"小園"},
{"zip_code":"3691202","kana_pref":"ｻｲﾀﾏｹﾝ","kana_city":"ｵｵｻﾄｸﾞﾝﾖﾘｲﾏﾁ","kana_address":"ｻｸﾗｻﾞﾜ","pref":"埼玉県","city":"大里郡寄居町","address":"桜沢"},
{"zip_code":"3691205","kana_pref":"ｻｲﾀﾏｹﾝ","kana_city":"ｵｵｻﾄｸﾞﾝﾖﾘｲﾏﾁ","kana_address":"ｽｴﾉ","pref":"埼玉県","city":"大里郡寄居町","address":"末野"},
{"zip_code":"3691213","kana_pref":"ｻｲﾀﾏｹﾝ","kana_city":"ｵｵｻﾄｸﾞﾝﾖﾘｲﾏﾁ","kana_address":"ﾀｶﾉｽ","pref":"埼玉県","city":"大里郡寄居町","address":"鷹巣"},
{"zip_code":"3691231","kana_pref":"ｻｲﾀﾏｹﾝ","kana_city":"ｵｵｻﾄｸﾞﾝﾖﾘｲﾏﾁ","kana_address":"ﾀﾃﾊﾗ","pref":"埼玉県","city":"大里郡寄居町","address":"立原"},
{"zip_code":"3691222","kana_pref":"ｻｲﾀﾏｹﾝ","kana_city":"ｵｵｻﾄｸﾞﾝﾖﾘｲﾏﾁ","kana_address":"ﾂﾕﾅｼ","pref":"埼玉県","city":"大里郡寄居町","address":"露梨子"},
{"zip_code":"3691216","kana_pref":"ｻｲﾀﾏｹﾝ","kana_city":"ｵｵｻﾄｸﾞﾝﾖﾘｲﾏﾁ","kana_address":"ﾄﾐﾀﾞ","pref":"埼玉県","city":"大里郡寄居町","address":"富田"},
{"zip_code":"3691225","kana_pref":"ｻｲﾀﾏｹﾝ","kana_city":"ｵｵｻﾄｸﾞﾝﾖﾘｲﾏﾁ","kana_address":"ﾆｼﾉｲﾘ","pref":"埼玉県","city":"大里郡寄居町","address":"西ノ入"},
{"zip_code":"3691212","kana_pref":"ｻｲﾀﾏｹﾝ","kana_city":"ｵｵｻﾄｸﾞﾝﾖﾘｲﾏﾁ","kana_address":"ﾆｼﾌﾙｻﾄ","pref":"埼玉県","city":"大里郡寄居町","address":"西古里"},
{"zip_code":"3691224","kana_pref":"ｻｲﾀﾏｹﾝ","kana_city":"ｵｵｻﾄｸﾞﾝﾖﾘｲﾏﾁ","kana_address":"ﾊﾁｶﾞﾀ","pref":"埼玉県","city":"大里郡寄居町","address":"鉢形"},
{"zip_code":"3691235","kana_pref":"ｻｲﾀﾏｹﾝ","kana_city":"ｵｵｻﾄｸﾞﾝﾖﾘｲﾏﾁ","kana_address":"ﾌｳﾌﾟ","pref":"埼玉県","city":"大里郡寄居町","address":"風布"},
{"zip_code":"3691204","kana_pref":"ｻｲﾀﾏｹﾝ","kana_city":"ｵｵｻﾄｸﾞﾝﾖﾘｲﾏﾁ","kana_address":"ﾌｼﾞﾀ","pref":"埼玉県","city":"大里郡寄居町","address":"藤田"},
{"zip_code":"3691221","kana_pref":"ｻｲﾀﾏｹﾝ","kana_city":"ｵｵｻﾄｸﾞﾝﾖﾘｲﾏﾁ","kana_address":"ﾎﾀﾞﾜﾗ","pref":"埼玉県","city":"大里郡寄居町","address":"保田原"},
{"zip_code":"3691223","kana_pref":"ｻｲﾀﾏｹﾝ","kana_city":"ｵｵｻﾄｸﾞﾝﾖﾘｲﾏﾁ","kana_address":"ﾐｶﾔﾏ","pref":"埼玉県","city":"大里郡寄居町","address":"三ケ山"},
{"zip_code":"3691232","kana_pref":"ｻｲﾀﾏｹﾝ","kana_city":"ｵｵｻﾄｸﾞﾝﾖﾘｲﾏﾁ","kana_address":"ﾐｼﾅ","pref":"埼玉県","city":"大里郡寄居町","address":"三品"},
{"zip_code":"3691215","kana_pref":"ｻｲﾀﾏｹﾝ","kana_city":"ｵｵｻﾄｸﾞﾝﾖﾘｲﾏﾁ","kana_address":"ﾑﾚｲ","pref":"埼玉県","city":"大里郡寄居町","address":"牟礼"},
{"zip_code":"3691201","kana_pref":"ｻｲﾀﾏｹﾝ","kana_city":"ｵｵｻﾄｸﾞﾝﾖﾘｲﾏﾁ","kana_address":"ﾖｳﾄﾞ","pref":"埼玉県","city":"大里郡寄居町","address":"用土"},
{"zip_code":"3691203","kana_pref":"ｻｲﾀﾏｹﾝ","kana_city":"ｵｵｻﾄｸﾞﾝﾖﾘｲﾏﾁ","kana_address":"ﾖﾘｲ","pref":"埼玉県","city":"大里郡寄居町","address":"寄居"}]}