{"zip_code":[
{"zip_code":"3703573","kana_pref":"ｸﾞﾝﾏｹﾝ","kana_city":"ﾏｴﾊﾞｼｼ","kana_address":"ｱｵﾅｼﾏﾁ","pref":"群馬県","city":"前橋市","address":"青梨子町"},
{"zip_code":"3703571","kana_pref":"ｸﾞﾝﾏｹﾝ","kana_city":"ﾏｴﾊﾞｼｼ","kana_address":"ｲｹﾊﾀﾏﾁ","pref":"群馬県","city":"前橋市","address":"池端町"},
{"zip_code":"3703572","kana_pref":"ｸﾞﾝﾏｹﾝ","kana_city":"ﾏｴﾊﾞｼｼ","kana_address":"ｶﾐｱｵﾅｼﾏﾁ","pref":"群馬県","city":"前橋市","address":"上青梨子町"},
{"zip_code":"3703574","kana_pref":"ｸﾞﾝﾏｹﾝ","kana_city":"ﾏｴﾊﾞｼｼ","kana_address":"ｷﾖﾉﾏﾁ","pref":"群馬県","city":"前橋市","address":"清野町"},
{"zip_code":"3700000","kana_pref":"ｸﾞﾝﾏｹﾝ","kana_city":"ﾀｶｻｷｼ","kana_address":"","pref":"群馬県","city":"高崎市","address":""},
{"zip_code":"3700811","kana_pref":"ｸﾞﾝﾏｹﾝ","kana_city":"ﾀｶｻｷｼ","kana_address":"ｱｲｵｲﾁｮｳ","pref":"群馬県","city":"高崎市","address":"相生町"},
{"zip_code":"3700818","kana_pref":"ｸﾞﾝﾏｹﾝ","kana_city":"ﾀｶｻｷｼ","kana_address":"ｱｶｻｶﾏﾁ","pref":"群馬県","city":"高崎市","address":"赤坂町"},
{"zip_code":"3701211","kana_pref":"ｸﾞﾝﾏｹﾝ","kana_city":"ﾀｶｻｷｼ","kana_address":"ｱｸﾂﾏﾁ","pref":"群馬県","city":"高崎市","address":"阿久津町"},
{"zip_code":"3700052","kana_pref":"ｸﾞﾝﾏｹﾝ","kana_city":"ﾀｶｻｷｼ","kana_address":"ｱｻﾋﾁｮｳ","pref":"群馬県","city":"高崎市","address":"旭町"},
{"zip_code":"3703531","kana_pref":"ｸﾞﾝﾏｹﾝ","kana_city":"ﾀｶｻｷｼ","kana_address":"ｱｼｶﾄﾞﾏﾁ","pref":"群馬県","city":"高崎市","address":"足門町"},
{"zip_code":"3700045","kana_pref":"ｸﾞﾝﾏｹﾝ","kana_city":"ﾀｶｻｷｼ","kana_address":"ｱｽﾞﾏﾁｮｳ","pref":"群馬県","city":"高崎市","address":"東町"},
{"zip_code":"3700831","kana_pref":"ｸﾞﾝﾏｹﾝ","kana_city":"ﾀｶｻｷｼ","kana_address":"ｱﾗﾏﾁ","pref":"群馬県","city":"高崎市","address":"あら町"},
{"zip_code":"3700063","kana_pref":"ｸﾞﾝﾏｹﾝ","kana_city":"ﾀｶｻｷｼ","kana_address":"ｲｲﾀﾞﾏﾏﾁ","pref":"群馬県","city":"高崎市","address":"飯玉町"},
{"zip_code":"3700069","kana_pref":"ｸﾞﾝﾏｹﾝ","kana_city":"ﾀｶｻｷｼ","kana_address":"ｲｲﾂﾞｶﾏﾁ","pref":"群馬県","city":"高崎市","address":"飯塚町"},
{"zip_code":"3700864","kana_pref":"ｸﾞﾝﾏｹﾝ","kana_city":"ﾀｶｻｷｼ","kana_address":"ｲｼﾊﾗﾏﾁ","pref":"群馬県","city":"高崎市","address":"石原町"},
{"zip_code":"3703534","kana_pref":"ｸﾞﾝﾏｹﾝ","kana_city":"ﾀｶｻｷｼ","kana_address":"ｲﾃﾞﾏﾁ","pref":"群馬県","city":"高崎市","address":"井出町"},
{"zip_code":"3700062","kana_pref":"ｸﾞﾝﾏｹﾝ","kana_city":"ﾀｶｻｷｼ","kana_address":"ｲﾅﾘﾁｮｳ","pref":"群馬県","city":"高崎市","address":"稲荷町"},
{"zip_code":"3700004","kana_pref":"ｸﾞﾝﾏｹﾝ","kana_city":"ﾀｶｻｷｼ","kana_address":"ｲﾉﾏﾁ","pref":"群馬県","city":"高崎市","address":"井野町"},
{"zip_code":"3700044","kana_pref":"ｸﾞﾝﾏｹﾝ","kana_city":"ﾀｶｻｷｼ","kana_address":"ｲﾜｵｼﾏﾁ","pref":"群馬県","city":"高崎市","address":"岩押町"},
{"zip_code":"3701208","kana_pref":"ｸﾞﾝﾏｹﾝ","kana_city":"ﾀｶｻｷｼ","kana_address":"ｲﾜﾊﾅﾏﾁ","pref":"群馬県","city":"高崎市","address":"岩鼻町"},
{"zip_code":"3700067","kana_pref":"ｸﾞﾝﾏｹﾝ","kana_city":"ﾀｶｻｷｼ","kana_address":"ｳｹﾁﾏﾁ","pref":"群馬県","city":"高崎市","address":"請地町"},
{"zip_code":"3703518","kana_pref":"ｸﾞﾝﾏｹﾝ","kana_city":"ﾀｶｻｷｼ","kana_address":"ｳｼﾛﾋｷﾏﾏﾁ","pref":"群馬県","city":"高崎市","address":"後疋間町"},
{"zip_code":"3700807","kana_pref":"ｸﾞﾝﾏｹﾝ","kana_city":"ﾀｶｻｷｼ","kana_address":"ｳﾀｶﾞﾜﾁｮｳ","pref":"群馬県","city":"高崎市","address":"歌川町"},
{"zip_code":"3700046","kana_pref":"ｸﾞﾝﾏｹﾝ","kana_city":"ﾀｶｻｷｼ","kana_address":"ｴｷﾞﾏﾁ","pref":"群馬県","city":"高崎市","address":"江木町"},
{"zip_code":"3700012","kana_pref":"ｸﾞﾝﾏｹﾝ","kana_city":"ﾀｶｻｷｼ","kana_address":"ｵｵｻﾜﾏﾁ","pref":"群馬県","city":"高崎市","address":"大沢町"},
{"zip_code":"3700803","kana_pref":"ｸﾞﾝﾏｹﾝ","kana_city":"ﾀｶｻｷｼ","kana_address":"ｵｵﾊｼﾏﾁ","pref":"群馬県","city":"高崎市","address":"大橋町"},
{"zip_code":"3700072","kana_pref":"ｸﾞﾝﾏｹﾝ","kana_city":"ﾀｶｻｷｼ","kana_address":"ｵｵﾔｷﾞﾏﾁ","pref":"群馬県","city":"高崎市","address":"大八木町"},
{"zip_code":"3700086","kana_pref":"ｸﾞﾝﾏｹﾝ","kana_city":"ﾀｶｻｷｼ","kana_address":"ｵｷﾏﾁ","pref":"群馬県","city":"高崎市","address":"沖町"},
{"zip_code":"3700042","kana_pref":"ｸﾞﾝﾏｹﾝ","kana_city":"ﾀｶｻｷｼ","kana_address":"ｶｲｻﾞﾜﾏﾁ","pref":"群馬県","city":"高崎市","address":"貝沢町"},
{"zip_code":"3700838","kana_pref":"ｸﾞﾝﾏｹﾝ","kana_city":"ﾀｶｻｷｼ","kana_address":"ｶｼﾞﾁｮｳ","pref":"群馬県","city":"高崎市","address":"鍛冶町"},
{"zip_code":"3700862","kana_pref":"ｸﾞﾝﾏｹﾝ","kana_city":"ﾀｶｻｷｼ","kana_address":"ｶﾀｵｶﾏﾁ","pref":"群馬県","city":"高崎市","address":"片岡町"},
{"zip_code":"3700814","kana_pref":"ｸﾞﾝﾏｹﾝ","kana_city":"ﾀｶｻｷｼ","kana_address":"ｶﾀﾏﾁ","pref":"群馬県","city":"高崎市","address":"嘉多町"},
{"zip_code":"3700882","kana_pref":"ｸﾞﾝﾏｹﾝ","kana_city":"ﾀｶｻｷｼ","kana_address":"ｶﾅｲﾌﾞﾁﾏﾁ","pref":"群馬県","city":"高崎市","address":"金井淵町"},
{"zip_code":"3703511","kana_pref":"ｸﾞﾝﾏｹﾝ","kana_city":"ﾀｶｻｷｼ","kana_address":"ｶﾈｺﾏﾁ","pref":"群馬県","city":"高崎市","address":"金古町"},
{"zip_code":"3703335","kana_pref":"ｸﾞﾝﾏｹﾝ","kana_city":"ﾀｶｻｷｼ","kana_address":"ｶﾐｵｵｼﾏﾏﾁ","pref":"群馬県","city":"高崎市","address":"上大島町"},
{"zip_code":"3700031","kana_pref":"ｸﾞﾝﾏｹﾝ","kana_city":"ﾀｶｻｷｼ","kana_address":"ｶﾐｵｵﾙｲﾏﾁ","pref":"群馬県","city":"高崎市","address":"上大類町"},
{"zip_code":"3700078","kana_pref":"ｸﾞﾝﾏｹﾝ","kana_city":"ﾀｶｻｷｼ","kana_address":"ｶﾐｺﾄﾘﾏﾁ","pref":"群馬県","city":"高崎市","address":"上小鳥町"},
{"zip_code":"3700077","kana_pref":"ｸﾞﾝﾏｹﾝ","kana_city":"ﾀｶｻｷｼ","kana_address":"ｶﾐｺﾊﾞﾅﾏﾁ","pref":"群馬県","city":"高崎市","address":"上小塙町"},
{"zip_code":"3703345","kana_pref":"ｸﾞﾝﾏｹﾝ","kana_city":"ﾀｶｻｷｼ","kana_address":"ｶﾐｻﾄﾐﾏﾁ","pref":"群馬県","city":"高崎市","address":"上里見町"},
{"zip_code":"3700857","kana_pref":"ｸﾞﾝﾏｹﾝ","kana_city":"ﾀｶｻｷｼ","kana_address":"ｶﾐｻﾉﾏﾁ","pref":"群馬県","city":"高崎市","address":"上佐野町"},
{"zip_code":"3700027","kana_pref":"ｸﾞﾝﾏｹﾝ","kana_city":"ﾀｶｻｷｼ","kana_address":"ｶﾐﾀｷﾏﾁ","pref":"群馬県","city":"高崎市","address":"上滝町"},
{"zip_code":"3700871","kana_pref":"ｸﾞﾝﾏｹﾝ","kana_city":"ﾀｶｻｷｼ","kana_address":"ｶﾐﾄﾖｵｶﾏﾁ","pref":"群馬県","city":"高崎市","address":"上豊岡町"},
{"zip_code":"3700851","kana_pref":"ｸﾞﾝﾏｹﾝ","kana_city":"ﾀｶｻｷｼ","kana_address":"ｶﾐﾅｶｲﾏﾁ","pref":"群馬県","city":"高崎市","address":"上中居町"},
{"zip_code":"3700801","kana_pref":"ｸﾞﾝﾏｹﾝ","kana_city":"ﾀｶｻｷｼ","kana_address":"ｶﾐﾅﾐｴﾏﾁ","pref":"群馬県","city":"高崎市","address":"上並榎町"},
{"zip_code":"3703346","kana_pref":"ｸﾞﾝﾏｹﾝ","kana_city":"ﾀｶｻｷｼ","kana_address":"ｶﾐﾑﾛﾀﾞﾏﾁ","pref":"群馬県","city":"高崎市","address":"上室田町"},
{"zip_code":"3700806","kana_pref":"ｸﾞﾝﾏｹﾝ","kana_city":"ﾀｶｻｷｼ","kana_address":"ｶﾐﾜﾀﾞﾏﾁ","pref":"群馬県","city":"高崎市","address":"上和田町"},
{"zip_code":"3700084","kana_pref":"ｸﾞﾝﾏｹﾝ","kana_city":"ﾀｶｻｷｼ","kana_address":"ｷｸｼﾞﾏﾁ","pref":"群馬県","city":"高崎市","address":"菊地町"},
{"zip_code":"3700082","kana_pref":"ｸﾞﾝﾏｹﾝ","kana_city":"ﾀｶｻｷｼ","kana_address":"ｷﾀｱﾗﾅﾐﾏﾁ","pref":"群馬県","city":"高崎市","address":"北新波町"},
{"zip_code":"3700872","kana_pref":"ｸﾞﾝﾏｹﾝ","kana_city":"ﾀｶｻｷｼ","kana_address":"ｷﾀｸﾎﾞﾏﾁ","pref":"群馬県","city":"高崎市","address":"北久保町"},
{"zip_code":"3700056","kana_pref":"ｸﾞﾝﾏｹﾝ","kana_city":"ﾀｶｻｷｼ","kana_address":"ｷﾀﾄｵﾘﾏﾁ","pref":"群馬県","city":"高崎市","address":"北通町"},
{"zip_code":"3703513","kana_pref":"ｸﾞﾝﾏｹﾝ","kana_city":"ﾀｶｻｷｼ","kana_address":"ｷﾀﾊﾗﾏﾁ","pref":"群馬県","city":"高崎市","address":"北原町"},
{"zip_code":"3700842","kana_pref":"ｸﾞﾝﾏｹﾝ","kana_city":"ﾀｶｻｷｼ","kana_address":"ｷﾀﾌﾀﾊﾞﾁｮｳ","pref":"群馬県","city":"高崎市","address":"北双葉町"},
{"zip_code":"3701212","kana_pref":"ｸﾞﾝﾏｹﾝ","kana_city":"ﾀｶｻｷｼ","kana_address":"ｷﾍﾞﾏﾁ","pref":"群馬県","city":"高崎市","address":"木部町"},
{"zip_code":"3700011","kana_pref":"ｸﾞﾝﾏｹﾝ","kana_city":"ﾀｶｻｷｼ","kana_address":"ｷｮｳﾒﾏﾁ","pref":"群馬県","city":"高崎市","address":"京目町"},
{"zip_code":"3700088","kana_pref":"ｸﾞﾝﾏｹﾝ","kana_city":"ﾀｶｻｷｼ","kana_address":"ｷﾞｮｳﾘｷﾏﾁ","pref":"群馬県","city":"高崎市","address":"行力町"},
{"zip_code":"3700058","kana_pref":"ｸﾞﾝﾏｹﾝ","kana_city":"ﾀｶｻｷｼ","kana_address":"ｸｿﾞｳﾏﾁ","pref":"群馬県","city":"高崎市","address":"九蔵町"},
{"zip_code":"3701201","kana_pref":"ｸﾞﾝﾏｹﾝ","kana_city":"ﾀｶｻｷｼ","kana_address":"ｸﾗｶﾞﾉﾏﾁ","pref":"群馬県","city":"高崎市","address":"倉賀野町"},
{"zip_code":"3703404","kana_pref":"ｸﾞﾝﾏｹﾝ","kana_city":"ﾀｶｻｷｼ","kana_address":"ｸﾗﾌﾞﾁﾏﾁｲﾜｺｵﾘ","pref":"群馬県","city":"高崎市","address":"倉渕町岩氷"},
{"zip_code":"3703405","kana_pref":"ｸﾞﾝﾏｹﾝ","kana_city":"ﾀｶｻｷｼ","kana_address":"ｸﾗﾌﾞﾁﾏﾁｶﾜｳﾗ","pref":"群馬県","city":"高崎市","address":"倉渕町川浦"},
{"zip_code":"3703401","kana_pref":"ｸﾞﾝﾏｹﾝ","kana_city":"ﾀｶｻｷｼ","kana_address":"ｸﾗﾌﾞﾁﾏﾁｺﾞﾝﾀﾞ","pref":"群馬県","city":"高崎市","address":"倉渕町権田"},
{"zip_code":"3703402","kana_pref":"ｸﾞﾝﾏｹﾝ","kana_city":"ﾀｶｻｷｼ","kana_address":"ｸﾗﾌﾞﾁﾏﾁｻﾝﾉｸﾗ","pref":"群馬県","city":"高崎市","address":"倉渕町三ノ倉"},
{"zip_code":"3703403","kana_pref":"ｸﾞﾝﾏｹﾝ","kana_city":"ﾀｶｻｷｼ","kana_address":"ｸﾗﾌﾞﾁﾏﾁﾐｽﾞﾇﾏ","pref":"群馬県","city":"高崎市","address":"倉渕町水沼"},
{"zip_code":"3701205","kana_pref":"ｸﾞﾝﾏｹﾝ","kana_city":"ﾀｶｻｷｼ","kana_address":"ｸﾘｻﾞｷﾏﾁ","pref":"群馬県","city":"高崎市","address":"栗崎町"},
{"zip_code":"3700883","kana_pref":"ｸﾞﾝﾏｹﾝ","kana_city":"ﾀｶｻｷｼ","kana_address":"ｹﾝｻﾞｷﾏﾁ","pref":"群馬県","city":"高崎市","address":"剣崎町"},
{"zip_code":"3703336","kana_pref":"ｸﾞﾝﾏｹﾝ","kana_city":"ﾀｶｻｷｼ","kana_address":"ｺﾞｳﾄﾞﾏﾁ","pref":"群馬県","city":"高崎市","address":"神戸町"},
{"zip_code":"3700071","kana_pref":"ｸﾞﾝﾏｹﾝ","kana_city":"ﾀｶｻｷｼ","kana_address":"ｺﾔｷﾞﾏﾁ","pref":"群馬県","city":"高崎市","address":"小八木町"},
{"zip_code":"3700841","kana_pref":"ｸﾞﾝﾏｹﾝ","kana_city":"ﾀｶｻｷｼ","kana_address":"ｻｶｴﾁｮｳ","pref":"群馬県","city":"高崎市","address":"栄町"},
{"zip_code":"3700856","kana_pref":"ｸﾞﾝﾏｹﾝ","kana_city":"ﾀｶｻｷｼ","kana_address":"ｻﾉｸﾎﾞﾏﾁ","pref":"群馬県","city":"高崎市","address":"佐野窪町"},
{"zip_code":"3700827","kana_pref":"ｸﾞﾝﾏｹﾝ","kana_city":"ﾀｶｻｷｼ","kana_address":"ｻﾔﾁｮｳ","pref":"群馬県","city":"高崎市","address":"鞘町"},
{"zip_code":"3700845","kana_pref":"ｸﾞﾝﾏｹﾝ","kana_city":"ﾀｶｻｷｼ","kana_address":"ｼｺﾞｶﾏﾁ","pref":"群馬県","city":"高崎市","address":"新後閑町"},
{"zip_code":"3700035","kana_pref":"ｸﾞﾝﾏｹﾝ","kana_city":"ﾀｶｻｷｼ","kana_address":"ｼﾊﾞｻｷﾏﾁ","pref":"群馬県","city":"高崎市","address":"柴崎町"},
{"zip_code":"3700064","kana_pref":"ｸﾞﾝﾏｹﾝ","kana_city":"ﾀｶｻｷｼ","kana_address":"ｼﾊﾞﾂﾞｶﾏﾁ","pref":"群馬県","city":"高崎市","address":"芝塚町"},
{"zip_code":"3700015","kana_pref":"ｸﾞﾝﾏｹﾝ","kana_city":"ﾀｶｻｷｼ","kana_address":"ｼﾏﾉﾏﾁ","pref":"群馬県","city":"高崎市","address":"島野町"},
{"zip_code":"3700886","kana_pref":"ｸﾞﾝﾏｹﾝ","kana_city":"ﾀｶｻｷｼ","kana_address":"ｼﾓｵｵｼﾏﾏﾁ","pref":"群馬県","city":"高崎市","address":"下大島町"},
{"zip_code":"3700034","kana_pref":"ｸﾞﾝﾏｹﾝ","kana_city":"ﾀｶｻｷｼ","kana_address":"ｼﾓｵｵﾙｲﾏﾁ","pref":"群馬県","city":"高崎市","address":"下大類町"},
{"zip_code":"3700074","kana_pref":"ｸﾞﾝﾏｹﾝ","kana_city":"ﾀｶｻｷｼ","kana_address":"ｼﾓｺﾄﾘﾏﾁ","pref":"群馬県","city":"高崎市","address":"下小鳥町"},
{"zip_code":"3700076","kana_pref":"ｸﾞﾝﾏｹﾝ","kana_city":"ﾀｶｻｷｼ","kana_address":"ｼﾓｺﾊﾞﾅﾏﾁ","pref":"群馬県","city":"高崎市","address":"下小塙町"},
{"zip_code":"3700025","kana_pref":"ｸﾞﾝﾏｹﾝ","kana_city":"ﾀｶｻｷｼ","kana_address":"ｼﾓｻｲﾀﾞﾏﾁ","pref":"群馬県","city":"高崎市","address":"下斉田町"},
{"zip_code":"3703343","kana_pref":"ｸﾞﾝﾏｹﾝ","kana_city":"ﾀｶｻｷｼ","kana_address":"ｼﾓｻﾄﾐﾏﾁ","pref":"群馬県","city":"高崎市","address":"下里見町"},
{"zip_code":"3700855","kana_pref":"ｸﾞﾝﾏｹﾝ","kana_city":"ﾀｶｻｷｼ","kana_address":"ｼﾓｻﾉﾏﾁ","pref":"群馬県","city":"高崎市","address":"下佐野町"},
{"zip_code":"3700026","kana_pref":"ｸﾞﾝﾏｹﾝ","kana_city":"ﾀｶｻｷｼ","kana_address":"ｼﾓﾀｷﾏﾁ","pref":"群馬県","city":"高崎市","address":"下滝町"},
{"zip_code":"3700873","kana_pref":"ｸﾞﾝﾏｹﾝ","kana_city":"ﾀｶｻｷｼ","kana_address":"ｼﾓﾄﾖｵｶﾏﾁ","pref":"群馬県","city":"高崎市","address":"下豊岡町"},
{"zip_code":"3700853","kana_pref":"ｸﾞﾝﾏｹﾝ","kana_city":"ﾀｶｻｷｼ","kana_address":"ｼﾓﾅｶｲﾏﾁ","pref":"群馬県","city":"高崎市","address":"下中居町"},
{"zip_code":"3700854","kana_pref":"ｸﾞﾝﾏｹﾝ","kana_city":"ﾀｶｻｷｼ","kana_address":"ｼﾓﾉｼﾞｮｳﾏﾁ","pref":"群馬県","city":"高崎市","address":"下之城町"},
{"zip_code":"3703342","kana_pref":"ｸﾞﾝﾏｹﾝ","kana_city":"ﾀｶｻｷｼ","kana_address":"ｼﾓﾑﾛﾀﾞﾏﾁ","pref":"群馬県","city":"高崎市","address":"下室田町"},
{"zip_code":"3700837","kana_pref":"ｸﾞﾝﾏｹﾝ","kana_city":"ﾀｶｻｷｼ","kana_address":"ｼﾓﾖｺﾁｮｳ","pref":"群馬県","city":"高崎市","address":"下横町"},
{"zip_code":"3700846","kana_pref":"ｸﾞﾝﾏｹﾝ","kana_city":"ﾀｶｻｷｼ","kana_address":"ｼﾓﾜﾀﾞﾏﾁ","pref":"群馬県","city":"高崎市","address":"下和田町"},
{"zip_code":"3703331","kana_pref":"ｸﾞﾝﾏｹﾝ","kana_city":"ﾀｶｻｷｼ","kana_address":"ｼﾞｭｳﾓﾝｼﾞﾏﾁ","pref":"群馬県","city":"高崎市","address":"十文字町"},
{"zip_code":"3700032","kana_pref":"ｸﾞﾝﾏｹﾝ","kana_city":"ﾀｶｻｷｼ","kana_address":"ｼｭｸｵｵﾙｲﾏﾁ","pref":"群馬県","city":"高崎市","address":"宿大類町"},
{"zip_code":"3700022","kana_pref":"ｸﾞﾝﾏｹﾝ","kana_city":"ﾀｶｻｷｼ","kana_address":"ｼｭｸﾖｺﾃﾏﾁ","pref":"群馬県","city":"高崎市","address":"宿横手町"},
{"zip_code":"3700008","kana_pref":"ｸﾞﾝﾏｹﾝ","kana_city":"ﾀｶｻｷｼ","kana_address":"ｼｮｳｶﾝｼﾞﾏﾁ","pref":"群馬県","city":"高崎市","address":"正観寺町"},
{"zip_code":"3700068","kana_pref":"ｸﾞﾝﾏｹﾝ","kana_city":"ﾀｶｻｷｼ","kana_address":"ｼｮｳﾜﾏﾁ","pref":"群馬県","city":"高崎市","address":"昭和町"},
{"zip_code":"3703332","kana_pref":"ｸﾞﾝﾏｹﾝ","kana_city":"ﾀｶｻｷｼ","kana_address":"ｼﾗｲﾜﾏﾁ","pref":"群馬県","city":"高崎市","address":"白岩町"},
{"zip_code":"3700825","kana_pref":"ｸﾞﾝﾏｹﾝ","kana_city":"ﾀｶｻｷｼ","kana_address":"ｼﾛｶﾞﾈﾁｮｳ","pref":"群馬県","city":"高崎市","address":"白銀町"},
{"zip_code":"3700866","kana_pref":"ｸﾞﾝﾏｹﾝ","kana_city":"ﾀｶｻｷｼ","kana_address":"ｼﾛﾔﾏﾁｮｳ","pref":"群馬県","city":"高崎市","address":"城山町"},
{"zip_code":"3700821","kana_pref":"ｸﾞﾝﾏｹﾝ","kana_city":"ﾀｶｻｷｼ","kana_address":"ｼﾝｺﾝﾔﾏﾁ","pref":"群馬県","city":"高崎市","address":"新紺屋町"},
{"zip_code":"3700054","kana_pref":"ｸﾞﾝﾏｹﾝ","kana_city":"ﾀｶｻｷｼ","kana_address":"ｼﾝﾁｮｳ","pref":"群馬県","city":"高崎市","address":"真町"},
{"zip_code":"3700833","kana_pref":"ｸﾞﾝﾏｹﾝ","kana_city":"ﾀｶｻｷｼ","kana_address":"ｼﾝﾃﾞﾝﾏﾁ","pref":"群馬県","city":"高崎市","address":"新田町"},
{"zip_code":"3700003","kana_pref":"ｸﾞﾝﾏｹﾝ","kana_city":"ﾀｶｻｷｼ","kana_address":"ｼﾝﾎﾞﾀﾅｶﾏﾁ","pref":"群馬県","city":"高崎市","address":"新保田中町"},
{"zip_code":"3700018","kana_pref":"ｸﾞﾝﾏｹﾝ","kana_city":"ﾀｶｻｷｼ","kana_address":"ｼﾝﾎﾞﾏﾁ","pref":"群馬県","city":"高崎市","address":"新保町"},
{"zip_code":"3701301","kana_pref":"ｸﾞﾝﾏｹﾝ","kana_city":"ﾀｶｻｷｼ","kana_address":"ｼﾝﾏﾁ","pref":"群馬県","city":"高崎市","address":"新町"},
{"zip_code":"3700065","kana_pref":"ｸﾞﾝﾏｹﾝ","kana_city":"ﾀｶｻｷｼ","kana_address":"ｽｴﾋﾛﾁｮｳ","pref":"群馬県","city":"高崎市","address":"末広町"},
{"zip_code":"3703522","kana_pref":"ｸﾞﾝﾏｹﾝ","kana_city":"ﾀｶｻｷｼ","kana_address":"ｽｶﾞﾔﾏﾁ","pref":"群馬県","city":"高崎市","address":"菅谷町"},
{"zip_code":"3700832","kana_pref":"ｸﾞﾝﾏｹﾝ","kana_city":"ﾀｶｻｷｼ","kana_address":"ｽﾅｶﾞﾁｮｳ","pref":"群馬県","city":"高崎市","address":"砂賀町"},
{"zip_code":"3700804","kana_pref":"ｸﾞﾝﾏｹﾝ","kana_city":"ﾀｶｻｷｼ","kana_address":"ｽﾐﾖｼﾁｮｳ","pref":"群馬県","city":"高崎市","address":"住吉町"},
{"zip_code":"3700817","kana_pref":"ｸﾞﾝﾏｹﾝ","kana_city":"ﾀｶｻｷｼ","kana_address":"ｾｷｼﾛﾁｮｳ","pref":"群馬県","city":"高崎市","address":"堰代町"},
{"zip_code":"3701206","kana_pref":"ｸﾞﾝﾏｹﾝ","kana_city":"ﾀｶｻｷｼ","kana_address":"ﾀﾞｲｼﾝﾃﾞﾝﾏﾁ","pref":"群馬県","city":"高崎市","address":"台新田町"},
{"zip_code":"3700805","kana_pref":"ｸﾞﾝﾏｹﾝ","kana_city":"ﾀｶｻｷｼ","kana_address":"ﾀﾞｲﾏﾁ","pref":"群馬県","city":"高崎市","address":"台町"},
{"zip_code":"3700047","kana_pref":"ｸﾞﾝﾏｹﾝ","kana_city":"ﾀｶｻｷｼ","kana_address":"ﾀｶｻｺﾞﾁｮｳ","pref":"群馬県","city":"高崎市","address":"高砂町"},
{"zip_code":"3700043","kana_pref":"ｸﾞﾝﾏｹﾝ","kana_city":"ﾀｶｻｷｼ","kana_address":"ﾀｶｾﾞｷﾏﾁ","pref":"群馬県","city":"高崎市","address":"高関町"},
{"zip_code":"3703333","kana_pref":"ｸﾞﾝﾏｹﾝ","kana_city":"ﾀｶｻｷｼ","kana_address":"ﾀｶﾊﾏﾏﾁ","pref":"群馬県","city":"高崎市","address":"高浜町"},
{"zip_code":"3700829","kana_pref":"ｸﾞﾝﾏｹﾝ","kana_city":"ﾀｶｻｷｼ","kana_address":"ﾀｶﾏﾂﾁｮｳ","pref":"群馬県","city":"高崎市","address":"高松町"},
{"zip_code":"3700835","kana_pref":"ｸﾞﾝﾏｹﾝ","kana_city":"ﾀｶｻｷｼ","kana_address":"ﾀﾂﾐﾁｮｳ","pref":"群馬県","city":"高崎市","address":"竜見町"},
{"zip_code":"3700824","kana_pref":"ｸﾞﾝﾏｹﾝ","kana_city":"ﾀｶｻｷｼ","kana_address":"ﾀﾏﾁ","pref":"群馬県","city":"高崎市","address":"田町"},
{"zip_code":"3703515","kana_pref":"ｸﾞﾝﾏｹﾝ","kana_city":"ﾀｶｻｷｼ","kana_address":"ﾂｶﾀﾞﾏﾁ","pref":"群馬県","city":"高崎市","address":"塚田町"},
{"zip_code":"3700075","kana_pref":"ｸﾞﾝﾏｹﾝ","kana_city":"ﾀｶｻｷｼ","kana_address":"ﾂｸﾅﾜﾏﾁ","pref":"群馬県","city":"高崎市","address":"筑縄町"},
{"zip_code":"3700059","kana_pref":"ｸﾞﾝﾏｹﾝ","kana_city":"ﾀｶｻｷｼ","kana_address":"ﾂﾊﾞｷﾁｮｳ","pref":"群馬県","city":"高崎市","address":"椿町"},
{"zip_code":"3700848","kana_pref":"ｸﾞﾝﾏｹﾝ","kana_city":"ﾀｶｻｷｼ","kana_address":"ﾂﾙﾐﾁｮｳ","pref":"群馬県","city":"高崎市","address":"鶴見町"},
{"zip_code":"3700865","kana_pref":"ｸﾞﾝﾏｹﾝ","kana_city":"ﾀｶｻｷｼ","kana_address":"ﾃﾗｵﾏﾁ","pref":"群馬県","city":"高崎市","address":"寺尾町"},
{"zip_code":"3700061","kana_pref":"ｸﾞﾝﾏｹﾝ","kana_city":"ﾀｶｻｷｼ","kana_address":"ﾃﾝｼﾞﾝﾁｮｳ","pref":"群馬県","city":"高崎市","address":"天神町"},
{"zip_code":"3703516","kana_pref":"ｸﾞﾝﾏｹﾝ","kana_city":"ﾀｶｻｷｼ","kana_address":"ﾄｳｶﾀﾞｲﾏﾁ","pref":"群馬県","city":"高崎市","address":"稲荷台町"},
{"zip_code":"3700053","kana_pref":"ｸﾞﾝﾏｹﾝ","kana_city":"ﾀｶｻｷｼ","kana_address":"ﾄｵﾘﾏﾁ","pref":"群馬県","city":"高崎市","address":"通町"},
{"zip_code":"3700816","kana_pref":"ｸﾞﾝﾏｹﾝ","kana_city":"ﾀｶｻｷｼ","kana_address":"ﾄｷﾜﾁｮｳ","pref":"群馬県","city":"高崎市","address":"常盤町"},
{"zip_code":"3700006","kana_pref":"ｸﾞﾝﾏｹﾝ","kana_city":"ﾀｶｻｷｼ","kana_address":"ﾄﾝﾔﾏﾁ","pref":"群馬県","city":"高崎市","address":"問屋町"},
{"zip_code":"3700007","kana_pref":"ｸﾞﾝﾏｹﾝ","kana_city":"ﾀｶｻｷｼ","kana_address":"ﾄﾝﾔﾏﾁﾆｼ","pref":"群馬県","city":"高崎市","address":"問屋町西"},
{"zip_code":"3703524","kana_pref":"ｸﾞﾝﾏｹﾝ","kana_city":"ﾀｶｻｷｼ","kana_address":"ﾅｶｲｽﾞﾐﾏﾁ","pref":"群馬県","city":"高崎市","address":"中泉町"},
{"zip_code":"3700852","kana_pref":"ｸﾞﾝﾏｹﾝ","kana_city":"ﾀｶｻｷｼ","kana_address":"ﾅｶｲﾏﾁ","pref":"群馬県","city":"高崎市","address":"中居町"},
{"zip_code":"3700033","kana_pref":"ｸﾞﾝﾏｹﾝ","kana_city":"ﾀｶｻｷｼ","kana_address":"ﾅｶｵｵﾙｲﾏﾁ","pref":"群馬県","city":"高崎市","address":"中大類町"},
{"zip_code":"3700001","kana_pref":"ｸﾞﾝﾏｹﾝ","kana_city":"ﾀｶｻｷｼ","kana_address":"ﾅｶｵﾏﾁ","pref":"群馬県","city":"高崎市","address":"中尾町"},
{"zip_code":"3700823","kana_pref":"ｸﾞﾝﾏｹﾝ","kana_city":"ﾀｶｻｷｼ","kana_address":"ﾅｶｺﾝﾔﾏﾁ","pref":"群馬県","city":"高崎市","address":"中紺屋町"},
{"zip_code":"3703532","kana_pref":"ｸﾞﾝﾏｹﾝ","kana_city":"ﾀｶｻｷｼ","kana_address":"ﾅｶｻﾞﾄﾏﾁ","pref":"群馬県","city":"高崎市","address":"中里町"},
{"zip_code":"3703344","kana_pref":"ｸﾞﾝﾏｹﾝ","kana_city":"ﾀｶｻｷｼ","kana_address":"ﾅｶｻﾄﾐﾏﾁ","pref":"群馬県","city":"高崎市","address":"中里見町"},
{"zip_code":"3700023","kana_pref":"ｸﾞﾝﾏｹﾝ","kana_city":"ﾀｶｻｷｼ","kana_address":"ﾅｶｼﾞﾏﾏﾁ","pref":"群馬県","city":"高崎市","address":"中島町"},
{"zip_code":"3700874","kana_pref":"ｸﾞﾝﾏｹﾝ","kana_city":"ﾀｶｻｷｼ","kana_address":"ﾅｶﾄﾖｵｶﾏﾁ","pref":"群馬県","city":"高崎市","address":"中豊岡町"},
{"zip_code":"3703347","kana_pref":"ｸﾞﾝﾏｹﾝ","kana_city":"ﾀｶｻｷｼ","kana_address":"ﾅｶﾑﾛﾀﾞﾏﾁ","pref":"群馬県","city":"高崎市","address":"中室田町"},
{"zip_code":"3700802","kana_pref":"ｸﾞﾝﾏｹﾝ","kana_city":"ﾀｶｻｷｼ","kana_address":"ﾅﾐｴﾁｮｳ","pref":"群馬県","city":"高崎市","address":"並榎町"},
{"zip_code":"3700812","kana_pref":"ｸﾞﾝﾏｹﾝ","kana_city":"ﾀｶｻｷｼ","kana_address":"ﾅﾘﾀﾁｮｳ","pref":"群馬県","city":"高崎市","address":"成田町"},
{"zip_code":"3703512","kana_pref":"ｸﾞﾝﾏｹﾝ","kana_city":"ﾀｶｻｷｼ","kana_address":"ﾆｼｺｸﾌﾞﾏﾁ","pref":"群馬県","city":"高崎市","address":"西国分町"},
{"zip_code":"3700017","kana_pref":"ｸﾞﾝﾏｹﾝ","kana_city":"ﾀｶｻｷｼ","kana_address":"ﾆｼｼﾞﾏﾏﾁ","pref":"群馬県","city":"高崎市","address":"西島町"},
{"zip_code":"3700021","kana_pref":"ｸﾞﾝﾏｹﾝ","kana_city":"ﾀｶｻｷｼ","kana_address":"ﾆｼﾖｺﾃﾏﾁ","pref":"群馬県","city":"高崎市","address":"西横手町"},
{"zip_code":"3700048","kana_pref":"ｸﾞﾝﾏｹﾝ","kana_city":"ﾀｶｻｷｼ","kana_address":"ﾆｯｺｳﾁｮｳ","pref":"群馬県","city":"高崎市","address":"日光町"},
{"zip_code":"3701214","kana_pref":"ｸﾞﾝﾏｹﾝ","kana_city":"ﾀｶｻｷｼ","kana_address":"ﾈｺﾞﾔﾏﾁ","pref":"群馬県","city":"高崎市","address":"根小屋町"},
{"zip_code":"3700867","kana_pref":"ｸﾞﾝﾏｹﾝ","kana_city":"ﾀｶｻｷｼ","kana_address":"ﾉﾂｹﾏﾁ","pref":"群馬県","city":"高崎市","address":"乗附町"},
{"zip_code":"3700013","kana_pref":"ｸﾞﾝﾏｹﾝ","kana_city":"ﾀｶｻｷｼ","kana_address":"ﾊｷﾞﾜﾗﾏﾁ","pref":"群馬県","city":"高崎市","address":"萩原町"},
{"zip_code":"3700868","kana_pref":"ｸﾞﾝﾏｹﾝ","kana_city":"ﾀｶｻｷｼ","kana_address":"ﾊﾅﾀﾞｶﾏﾁ","pref":"群馬県","city":"高崎市","address":"鼻高町"},
{"zip_code":"3700081","kana_pref":"ｸﾞﾝﾏｹﾝ","kana_city":"ﾀｶｻｷｼ","kana_address":"ﾊﾏｶﾞﾜﾏﾁ","pref":"群馬県","city":"高崎市","address":"浜川町"},
{"zip_code":"3700005","kana_pref":"ｸﾞﾝﾏｹﾝ","kana_city":"ﾀｶｻｷｼ","kana_address":"ﾊﾏｼﾞﾘﾏﾁ","pref":"群馬県","city":"高崎市","address":"浜尻町"},
{"zip_code":"3703348","kana_pref":"ｸﾞﾝﾏｹﾝ","kana_city":"ﾀｶｻｷｼ","kana_address":"ﾊﾙﾅｺﾏﾁ","pref":"群馬県","city":"高崎市","address":"榛名湖町"},
{"zip_code":"3703341","kana_pref":"ｸﾞﾝﾏｹﾝ","kana_city":"ﾀｶｻｷｼ","kana_address":"ﾊﾙﾅｻﾝﾏﾁ","pref":"群馬県","city":"高崎市","address":"榛名山町"},
{"zip_code":"3700041","kana_pref":"ｸﾞﾝﾏｹﾝ","kana_city":"ﾀｶｻｷｼ","kana_address":"ﾋｶﾞｼｶｲｻﾞﾜﾏﾁ","pref":"群馬県","city":"高崎市","address":"東貝沢町"},
{"zip_code":"3703514","kana_pref":"ｸﾞﾝﾏｹﾝ","kana_city":"ﾀｶｻｷｼ","kana_address":"ﾋｶﾞｼｺｸﾌﾞﾏﾁ","pref":"群馬県","city":"高崎市","address":"東国分町"},
{"zip_code":"3701204","kana_pref":"ｸﾞﾝﾏｹﾝ","kana_city":"ﾀｶｻｷｼ","kana_address":"ﾋｶﾞｼﾅｶｻﾄﾏﾁ","pref":"群馬県","city":"高崎市","address":"東中里町"},
{"zip_code":"3703517","kana_pref":"ｸﾞﾝﾏｹﾝ","kana_city":"ﾀｶｻｷｼ","kana_address":"ﾋｷﾏﾏﾁ","pref":"群馬県","city":"高崎市","address":"引間町"},
{"zip_code":"3700863","kana_pref":"ｸﾞﾝﾏｹﾝ","kana_city":"ﾀｶｻｷｼ","kana_address":"ﾋｼﾞﾘｲｼﾏﾁ","pref":"群馬県","city":"高崎市","address":"聖石町"},
{"zip_code":"3700002","kana_pref":"ｸﾞﾝﾏｹﾝ","kana_city":"ﾀｶｻｷｼ","kana_address":"ﾋﾀﾞｶﾏﾁ","pref":"群馬県","city":"高崎市","address":"日高町"},
{"zip_code":"3700839","kana_pref":"ｸﾞﾝﾏｹﾝ","kana_city":"ﾀｶｻｷｼ","kana_address":"ﾋﾓﾉﾁｮｳ","pref":"群馬県","city":"高崎市","address":"檜物町"},
{"zip_code":"3703519","kana_pref":"ｸﾞﾝﾏｹﾝ","kana_city":"ﾀｶｻｷｼ","kana_address":"ﾋﾔﾐｽﾞﾏﾁ","pref":"群馬県","city":"高崎市","address":"冷水町"},
{"zip_code":"3703523","kana_pref":"ｸﾞﾝﾏｹﾝ","kana_city":"ﾀｶｻｷｼ","kana_address":"ﾌｸｼﾏﾏﾁ","pref":"群馬県","city":"高崎市","address":"福島町"},
{"zip_code":"3700875","kana_pref":"ｸﾞﾝﾏｹﾝ","kana_city":"ﾀｶｻｷｼ","kana_address":"ﾌｼﾞﾂｶﾏﾁ","pref":"群馬県","city":"高崎市","address":"藤塚町"},
{"zip_code":"3700843","kana_pref":"ｸﾞﾝﾏｹﾝ","kana_city":"ﾀｶｻｷｼ","kana_address":"ﾌﾀﾊﾞﾁｮｳ","pref":"群馬県","city":"高崎市","address":"双葉町"},
{"zip_code":"3703533","kana_pref":"ｸﾞﾝﾏｹﾝ","kana_city":"ﾀｶｻｷｼ","kana_address":"ﾎﾄﾞﾀﾏﾁ","pref":"群馬県","city":"高崎市","address":"保渡田町"},
{"zip_code":"3703334","kana_pref":"ｸﾞﾝﾏｹﾝ","kana_city":"ﾀｶｻｷｼ","kana_address":"ﾎﾝｺﾞｳﾏﾁ","pref":"群馬県","city":"高崎市","address":"本郷町"},
{"zip_code":"3700881","kana_pref":"ｸﾞﾝﾏｹﾝ","kana_city":"ﾀｶｻｷｼ","kana_address":"ﾏﾁﾔﾏﾁ","pref":"群馬県","city":"高崎市","address":"町屋町"},
{"zip_code":"3703102","kana_pref":"ｸﾞﾝﾏｹﾝ","kana_city":"ﾀｶｻｷｼ","kana_address":"ﾐｻﾄﾏﾁｵｲﾊﾞﾗ","pref":"群馬県","city":"高崎市","address":"箕郷町生原"},
{"zip_code":"3703101","kana_pref":"ｸﾞﾝﾏｹﾝ","kana_city":"ﾀｶｻｷｼ","kana_address":"ﾐｻﾄﾏﾁｶｼﾜｷﾞｻﾞﾜ","pref":"群馬県","city":"高崎市","address":"箕郷町柏木沢"},
{"zip_code":"3703114","kana_pref":"ｸﾞﾝﾏｹﾝ","kana_city":"ﾀｶｻｷｼ","kana_address":"ﾐｻﾄﾏﾁｶﾅｼｷﾀﾞｲﾗ","pref":"群馬県","city":"高崎市","address":"箕郷町金敷平"},
{"zip_code":"3703104","kana_pref":"ｸﾞﾝﾏｹﾝ","kana_city":"ﾀｶｻｷｼ","kana_address":"ﾐｻﾄﾏﾁｶﾐｼﾊﾞ","pref":"群馬県","city":"高崎市","address":"箕郷町上芝"},
{"zip_code":"3703103","kana_pref":"ｸﾞﾝﾏｹﾝ","kana_city":"ﾀｶｻｷｼ","kana_address":"ﾐｻﾄﾏﾁｼﾓｼﾊﾞ","pref":"群馬県","city":"高崎市","address":"箕郷町下芝"},
{"zip_code":"3703117","kana_pref":"ｸﾞﾝﾏｹﾝ","kana_city":"ﾀｶｻｷｼ","kana_address":"ﾐｻﾄﾏﾁｼﾗｶﾜ","pref":"群馬県","city":"高崎市","address":"箕郷町白川"},
{"zip_code":"3703112","kana_pref":"ｸﾞﾝﾏｹﾝ","kana_city":"ﾀｶｻｷｼ","kana_address":"ﾐｻﾄﾏﾁｾﾞﾝｼﾞ","pref":"群馬県","city":"高崎市","address":"箕郷町善地"},
{"zip_code":"3703115","kana_pref":"ｸﾞﾝﾏｹﾝ","kana_city":"ﾀｶｻｷｼ","kana_address":"ﾐｻﾄﾏﾁﾄﾐｵｶ","pref":"群馬県","city":"高崎市","address":"箕郷町富岡"},
{"zip_code":"3703111","kana_pref":"ｸﾞﾝﾏｹﾝ","kana_city":"ﾀｶｻｷｼ","kana_address":"ﾐｻﾄﾏﾁﾅｶﾉ","pref":"群馬県","city":"高崎市","address":"箕郷町中野"},
{"zip_code":"3703105","kana_pref":"ｸﾞﾝﾏｹﾝ","kana_city":"ﾀｶｻｷｼ","kana_address":"ﾐｻﾄﾏﾁﾆｼｱｷﾔ","pref":"群馬県","city":"高崎市","address":"箕郷町西明屋"},
{"zip_code":"3703106","kana_pref":"ｸﾞﾝﾏｹﾝ","kana_city":"ﾀｶｻｷｼ","kana_address":"ﾐｻﾄﾏﾁﾋｶﾞｼｱｷﾔ","pref":"群馬県","city":"高崎市","address":"箕郷町東明屋"},
{"zip_code":"3703113","kana_pref":"ｸﾞﾝﾏｹﾝ","kana_city":"ﾀｶｻｷｼ","kana_address":"ﾐｻﾄﾏﾁﾏﾂﾉｻﾜ","pref":"群馬県","city":"高崎市","address":"箕郷町松之沢"},
{"zip_code":"3703107","kana_pref":"ｸﾞﾝﾏｹﾝ","kana_city":"ﾀｶｻｷｼ","kana_address":"ﾐｻﾄﾏﾁﾔﾊﾞﾗ","pref":"群馬県","city":"高崎市","address":"箕郷町矢原"},
{"zip_code":"3703116","kana_pref":"ｸﾞﾝﾏｹﾝ","kana_city":"ﾀｶｻｷｼ","kana_address":"ﾐｻﾄﾏﾁﾜﾀﾞﾔﾏ","pref":"群馬県","city":"高崎市","address":"箕郷町和田山"},
{"zip_code":"3703337","kana_pref":"ｸﾞﾝﾏｹﾝ","kana_city":"ﾀｶｻｷｼ","kana_address":"ﾐﾂｺﾞｻﾜﾏﾁ","pref":"群馬県","city":"高崎市","address":"三ツ子沢町"},
{"zip_code":"3703525","kana_pref":"ｸﾞﾝﾏｹﾝ","kana_city":"ﾀｶｻｷｼ","kana_address":"ﾐﾂﾃﾞﾗﾏﾁ","pref":"群馬県","city":"高崎市","address":"三ツ寺町"},
{"zip_code":"3700073","kana_pref":"ｸﾞﾝﾏｹﾝ","kana_city":"ﾀｶｻｷｼ","kana_address":"ﾐﾄﾞﾘﾁｮｳ","pref":"群馬県","city":"高崎市","address":"緑町"},
{"zip_code":"3700083","kana_pref":"ｸﾞﾝﾏｹﾝ","kana_city":"ﾀｶｻｷｼ","kana_address":"ﾐﾅﾐｱﾗﾅﾐﾏﾁ","pref":"群馬県","city":"高崎市","address":"南新波町"},
{"zip_code":"3700036","kana_pref":"ｸﾞﾝﾏｹﾝ","kana_city":"ﾀｶｻｷｼ","kana_address":"ﾐﾅﾐｵｵﾙｲﾏﾁ","pref":"群馬県","city":"高崎市","address":"南大類町"},
{"zip_code":"3700834","kana_pref":"ｸﾞﾝﾏｹﾝ","kana_city":"ﾀｶｻｷｼ","kana_address":"ﾐﾅﾐﾁｮｳ","pref":"群馬県","city":"高崎市","address":"南町"},
{"zip_code":"3703338","kana_pref":"ｸﾞﾝﾏｹﾝ","kana_city":"ﾀｶｻｷｼ","kana_address":"ﾐﾔｻﾞﾜﾏﾁ","pref":"群馬県","city":"高崎市","address":"宮沢町"},
{"zip_code":"3701202","kana_pref":"ｸﾞﾝﾏｹﾝ","kana_city":"ﾀｶｻｷｼ","kana_address":"ﾐﾔﾊﾗﾁｮｳ","pref":"群馬県","city":"高崎市","address":"宮原町"},
{"zip_code":"3700828","kana_pref":"ｸﾞﾝﾏｹﾝ","kana_city":"ﾀｶｻｷｼ","kana_address":"ﾐﾔﾓﾄﾁｮｳ","pref":"群馬県","city":"高崎市","address":"宮元町"},
{"zip_code":"3703521","kana_pref":"ｸﾞﾝﾏｹﾝ","kana_city":"ﾀｶｻｷｼ","kana_address":"ﾑﾅﾀﾞｶﾏﾁ","pref":"群馬県","city":"高崎市","address":"棟高町"},
{"zip_code":"3700057","kana_pref":"ｸﾞﾝﾏｹﾝ","kana_city":"ﾀｶｻｷｼ","kana_address":"ﾓﾄｺﾝﾔﾏﾁ","pref":"群馬県","city":"高崎市","address":"元紺屋町"},
{"zip_code":"3700014","kana_pref":"ｸﾞﾝﾏｹﾝ","kana_city":"ﾀｶｻｷｼ","kana_address":"ﾓﾄｼﾏﾅﾏﾁ","pref":"群馬県","city":"高崎市","address":"元島名町"},
{"zip_code":"3700813","kana_pref":"ｸﾞﾝﾏｹﾝ","kana_city":"ﾀｶｻｷｼ","kana_address":"ﾓﾄﾏﾁ","pref":"群馬県","city":"高崎市","address":"本町"},
{"zip_code":"3700849","kana_pref":"ｸﾞﾝﾏｹﾝ","kana_city":"ﾀｶｻｷｼ","kana_address":"ﾔｼﾏﾁｮｳ","pref":"群馬県","city":"高崎市","address":"八島町"},
{"zip_code":"3700016","kana_pref":"ｸﾞﾝﾏｹﾝ","kana_city":"ﾀｶｻｷｼ","kana_address":"ﾔｼﾞﾏﾏﾁ","pref":"群馬県","city":"高崎市","address":"矢島町"},
{"zip_code":"3700861","kana_pref":"ｸﾞﾝﾏｹﾝ","kana_city":"ﾀｶｻｷｼ","kana_address":"ﾔﾁﾖﾏﾁ","pref":"群馬県","city":"高崎市","address":"八千代町"},
{"zip_code":"3701203","kana_pref":"ｸﾞﾝﾏｹﾝ","kana_city":"ﾀｶｻｷｼ","kana_address":"ﾔﾅｶﾏﾁ","pref":"群馬県","city":"高崎市","address":"矢中町"},
{"zip_code":"3700815","kana_pref":"ｸﾞﾝﾏｹﾝ","kana_city":"ﾀｶｻｷｼ","kana_address":"ﾔﾅｶﾞﾜﾁｮｳ","pref":"群馬県","city":"高崎市","address":"柳川町"},
{"zip_code":"3700024","kana_pref":"ｸﾞﾝﾏｹﾝ","kana_city":"ﾀｶｻｷｼ","kana_address":"ﾔﾊﾀﾊﾞﾗﾏﾁ","pref":"群馬県","city":"高崎市","address":"八幡原町"},
{"zip_code":"3700066","kana_pref":"ｸﾞﾝﾏｹﾝ","kana_city":"ﾀｶｻｷｼ","kana_address":"ﾔﾏﾀﾞﾁｮｳ","pref":"群馬県","city":"高崎市","address":"山田町"},
{"zip_code":"3701213","kana_pref":"ｸﾞﾝﾏｹﾝ","kana_city":"ﾀｶｻｷｼ","kana_address":"ﾔﾏﾅﾏﾁ","pref":"群馬県","city":"高崎市","address":"山名町"},
{"zip_code":"3700884","kana_pref":"ｸﾞﾝﾏｹﾝ","kana_city":"ﾀｶｻｷｼ","kana_address":"ﾔﾜﾀﾏﾁ","pref":"群馬県","city":"高崎市","address":"八幡町"},
{"zip_code":"3700051","kana_pref":"ｸﾞﾝﾏｹﾝ","kana_city":"ﾀｶｻｷｼ","kana_address":"ﾕﾐﾁｮｳ","pref":"群馬県","city":"高崎市","address":"弓町"},
{"zip_code":"3702107","kana_pref":"ｸﾞﾝﾏｹﾝ","kana_city":"ﾀｶｻｷｼ","kana_address":"ﾖｼｲﾏﾁｲｹ","pref":"群馬県","city":"高崎市","address":"吉井町池"},
{"zip_code":"3702114","kana_pref":"ｸﾞﾝﾏｹﾝ","kana_city":"ﾀｶｻｷｼ","kana_address":"ﾖｼｲﾏﾁｲｼｶﾞﾐ","pref":"群馬県","city":"高崎市","address":"吉井町石神"},
{"zip_code":"3702103","kana_pref":"ｸﾞﾝﾏｹﾝ","kana_city":"ﾀｶｻｷｼ","kana_address":"ﾖｼｲﾏﾁｲﾜｲ","pref":"群馬県","city":"高崎市","address":"吉井町岩井"},
{"zip_code":"3702131","kana_pref":"ｸﾞﾝﾏｹﾝ","kana_city":"ﾀｶｻｷｼ","kana_address":"ﾖｼｲﾏﾁｲﾜｻﾞｷ","pref":"群馬県","city":"高崎市","address":"吉井町岩崎"},
{"zip_code":"3702125","kana_pref":"ｸﾞﾝﾏｹﾝ","kana_city":"ﾀｶｻｷｼ","kana_address":"ﾖｼｲﾏﾁｵｵｻﾜ","pref":"群馬県","city":"高崎市","address":"吉井町大沢"},
{"zip_code":"3702111","kana_pref":"ｸﾞﾝﾏｹﾝ","kana_city":"ﾀｶｻｷｼ","kana_address":"ﾖｼｲﾏﾁｵｸﾞｼ","pref":"群馬県","city":"高崎市","address":"吉井町小串"},
{"zip_code":"3702135","kana_pref":"ｸﾞﾝﾏｹﾝ","kana_city":"ﾀｶｻｷｼ","kana_address":"ﾖｼｲﾏﾁｶﾀﾔﾏ","pref":"群馬県","city":"高崎市","address":"吉井町片山"},
{"zip_code":"3702139","kana_pref":"ｸﾞﾝﾏｹﾝ","kana_city":"ﾀｶｻｷｼ","kana_address":"ﾖｼｲﾏﾁｶﾐｵｸﾀﾞｲﾗ","pref":"群馬県","city":"高崎市","address":"吉井町上奥平"},
{"zip_code":"3702112","kana_pref":"ｸﾞﾝﾏｹﾝ","kana_city":"ﾀｶｻｷｼ","kana_address":"ﾖｼｲﾏﾁｸﾛｸﾏ","pref":"群馬県","city":"高崎市","address":"吉井町黒熊"},
{"zip_code":"3702102","kana_pref":"ｸﾞﾝﾏｹﾝ","kana_city":"ﾀｶｻｷｼ","kana_address":"ﾖｼｲﾏﾁｺｸﾞﾚ","pref":"群馬県","city":"高崎市","address":"吉井町小暮"},
{"zip_code":"3702136","kana_pref":"ｸﾞﾝﾏｹﾝ","kana_city":"ﾀｶｻｷｼ","kana_address":"ﾖｼｲﾏﾁｺﾀﾅ","pref":"群馬県","city":"高崎市","address":"吉井町小棚"},
{"zip_code":"3702137","kana_pref":"ｸﾞﾝﾏｹﾝ","kana_city":"ﾀｶｻｷｼ","kana_address":"ﾖｼｲﾏﾁｻｶｸﾞﾁ","pref":"群馬県","city":"高崎市","address":"吉井町坂口"},
{"zip_code":"3702124","kana_pref":"ｸﾞﾝﾏｹﾝ","kana_city":"ﾀｶｻｷｼ","kana_address":"ﾖｼｲﾏﾁｼｵ","pref":"群馬県","city":"高崎市","address":"吉井町塩"},
{"zip_code":"3702134","kana_pref":"ｸﾞﾝﾏｹﾝ","kana_city":"ﾀｶｻｷｼ","kana_address":"ﾖｼｲﾏﾁｼｵｶﾞﾜ","pref":"群馬県","city":"高崎市","address":"吉井町塩川"},
{"zip_code":"3702138","kana_pref":"ｸﾞﾝﾏｹﾝ","kana_city":"ﾀｶｻｷｼ","kana_address":"ﾖｼｲﾏﾁｼﾓｵｸﾀﾞｲﾗ","pref":"群馬県","city":"高崎市","address":"吉井町下奥平"},
{"zip_code":"3702121","kana_pref":"ｸﾞﾝﾏｹﾝ","kana_city":"ﾀｶｻｷｼ","kana_address":"ﾖｼｲﾏﾁｼﾓﾅｶﾞﾈ","pref":"群馬県","city":"高崎市","address":"吉井町下長根"},
{"zip_code":"3702123","kana_pref":"ｸﾞﾝﾏｹﾝ","kana_city":"ﾀｶｻｷｼ","kana_address":"ﾖｼｲﾏﾁｼﾞﾝﾎﾞ","pref":"群馬県","city":"高崎市","address":"吉井町神保"},
{"zip_code":"3702115","kana_pref":"ｸﾞﾝﾏｹﾝ","kana_city":"ﾀｶｻｷｼ","kana_address":"ﾖｼｲﾏﾁﾀｲﾗ","pref":"群馬県","city":"高崎市","address":"吉井町多比良"},
{"zip_code":"3702122","kana_pref":"ｸﾞﾝﾏｹﾝ","kana_city":"ﾀｶｻｷｼ","kana_address":"ﾖｼｲﾏﾁﾀｶ","pref":"群馬県","city":"高崎市","address":"吉井町高"},
{"zip_code":"3702116","kana_pref":"ｸﾞﾝﾏｹﾝ","kana_city":"ﾀｶｻｷｼ","kana_address":"ﾖｼｲﾏﾁﾀｺﾞ","pref":"群馬県","city":"高崎市","address":"吉井町多胡"},
{"zip_code":"3702105","kana_pref":"ｸﾞﾝﾏｹﾝ","kana_city":"ﾀｶｻｷｼ","kana_address":"ﾖｼｲﾏﾁﾅｶｼﾞﾏ","pref":"群馬県","city":"高崎市","address":"吉井町中島"},
{"zip_code":"3702127","kana_pref":"ｸﾞﾝﾏｹﾝ","kana_city":"ﾀｶｻｷｼ","kana_address":"ﾖｼｲﾏﾁﾅｶﾞﾈ","pref":"群馬県","city":"高崎市","address":"吉井町長根"},
{"zip_code":"3702101","kana_pref":"ｸﾞﾝﾏｹﾝ","kana_city":"ﾀｶｻｷｼ","kana_address":"ﾖｼｲﾏﾁﾅﾝﾖｳﾀﾞｲ","pref":"群馬県","city":"高崎市","address":"吉井町南陽台"},
{"zip_code":"3702126","kana_pref":"ｸﾞﾝﾏｹﾝ","kana_city":"ﾀｶｻｷｼ","kana_address":"ﾖｼｲﾏﾁﾋｶﾞｼﾔ","pref":"群馬県","city":"高崎市","address":"吉井町東谷"},
{"zip_code":"3702113","kana_pref":"ｸﾞﾝﾏｹﾝ","kana_city":"ﾀｶｻｷｼ","kana_address":"ﾖｼｲﾏﾁﾌｶｻﾜ","pref":"群馬県","city":"高崎市","address":"吉井町深沢"},
{"zip_code":"3702128","kana_pref":"ｸﾞﾝﾏｹﾝ","kana_city":"ﾀｶｻｷｼ","kana_address":"ﾖｼｲﾏﾁﾎﾝｺﾞｳ","pref":"群馬県","city":"高崎市","address":"吉井町本郷"},
{"zip_code":"3702104","kana_pref":"ｸﾞﾝﾏｹﾝ","kana_city":"ﾀｶｻｷｼ","kana_address":"ﾖｼｲﾏﾁﾏﾆﾜ","pref":"群馬県","city":"高崎市","address":"吉井町馬庭"},
{"zip_code":"3702106","kana_pref":"ｸﾞﾝﾏｹﾝ","kana_city":"ﾀｶｻｷｼ","kana_address":"ﾖｼｲﾏﾁﾔﾀ","pref":"群馬県","city":"高崎市","address":"吉井町矢田"},
{"zip_code":"3702132","kana_pref":"ｸﾞﾝﾏｹﾝ","kana_city":"ﾀｶｻｷｼ","kana_address":"ﾖｼｲﾏﾁﾖｼｲ","pref":"群馬県","city":"高崎市","address":"吉井町吉井"},
{"zip_code":"3702133","kana_pref":"ｸﾞﾝﾏｹﾝ","kana_city":"ﾀｶｻｷｼ","kana_address":"ﾖｼｲﾏﾁﾖｼｲｶﾜ","pref":"群馬県","city":"高崎市","address":"吉井町吉井川"},
{"zip_code":"3700819","kana_pref":"ｸﾞﾝﾏｹﾝ","kana_city":"ﾀｶｻｷｼ","kana_address":"ﾖﾂﾔﾏﾁ","pref":"群馬県","city":"高崎市","address":"四ツ屋町"},
{"zip_code":"3700822","kana_pref":"ｸﾞﾝﾏｹﾝ","kana_city":"ﾀｶｻｷｼ","kana_address":"ﾖﾘｱｲﾁｮｳ","pref":"群馬県","city":"高崎市","address":"寄合町"},
{"zip_code":"3700055","kana_pref":"ｸﾞﾝﾏｹﾝ","kana_city":"ﾀｶｻｷｼ","kana_address":"ﾗｶﾝﾁｮｳ","pref":"群馬県","city":"高崎市","address":"羅漢町"},
{"zip_code":"3700087","kana_pref":"ｸﾞﾝﾏｹﾝ","kana_city":"ﾀｶｻｷｼ","kana_address":"ﾗｸﾏﾏﾁ","pref":"群馬県","city":"高崎市","address":"楽間町"},
{"zip_code":"3700826","kana_pref":"ｸﾞﾝﾏｹﾝ","kana_city":"ﾀｶｻｷｼ","kana_address":"ﾚﾝｼﾞｬｸﾁｮｳ","pref":"群馬県","city":"高崎市","address":"連雀町"},
{"zip_code":"3700885","kana_pref":"ｸﾞﾝﾏｹﾝ","kana_city":"ﾀｶｻｷｼ","kana_address":"ﾜｶﾀﾏﾁ","pref":"群馬県","city":"高崎市","address":"若田町"},
{"zip_code":"3700836","kana_pref":"ｸﾞﾝﾏｹﾝ","kana_city":"ﾀｶｻｷｼ","kana_address":"ﾜｶﾏﾂﾁｮｳ","pref":"群馬県","city":"高崎市","address":"若松町"},
{"zip_code":"3700085","kana_pref":"ｸﾞﾝﾏｹﾝ","kana_city":"ﾀｶｻｷｼ","kana_address":"ﾜｶﾞﾐﾈﾏﾁ","pref":"群馬県","city":"高崎市","address":"我峰町"},
{"zip_code":"3700844","kana_pref":"ｸﾞﾝﾏｹﾝ","kana_city":"ﾀｶｻｷｼ","kana_address":"ﾜﾀﾞﾀﾅｶﾏﾁ","pref":"群馬県","city":"高崎市","address":"和田多中町"},
{"zip_code":"3701207","kana_pref":"ｸﾞﾝﾏｹﾝ","kana_city":"ﾀｶｻｷｼ","kana_address":"ﾜﾀﾇｷﾏﾁ","pref":"群馬県","city":"高崎市","address":"綿貫町"},
{"zip_code":"3700847","kana_pref":"ｸﾞﾝﾏｹﾝ","kana_city":"ﾀｶｻｷｼ","kana_address":"ﾜﾀﾞﾏﾁ","pref":"群馬県","city":"高崎市","address":"和田町"},
{"zip_code":"3700124","kana_pref":"ｸﾞﾝﾏｹﾝ","kana_city":"ｲｾｻｷｼ","kana_address":"ｻｶｲ","pref":"群馬県","city":"伊勢崎市","address":"境"},
{"zip_code":"3700123","kana_pref":"ｸﾞﾝﾏｹﾝ","kana_city":"ｲｾｻｷｼ","kana_address":"ｻｶｲｱｽﾞﾏ","pref":"群馬県","city":"伊勢崎市","address":"境東"},
{"zip_code":"3700105","kana_pref":"ｸﾞﾝﾏｹﾝ","kana_city":"ｲｾｻｷｼ","kana_address":"ｻｶｲｲﾖｸ","pref":"群馬県","city":"伊勢崎市","address":"境伊与久"},
{"zip_code":"3700135","kana_pref":"ｸﾞﾝﾏｹﾝ","kana_city":"ｲｾｻｷｼ","kana_address":"ｻｶｲｵｺﾉｷﾞ","pref":"群馬県","city":"伊勢崎市","address":"境小此木"},
{"zip_code":"3700121","kana_pref":"ｸﾞﾝﾏｹﾝ","kana_city":"ｲｾｻｷｼ","kana_address":"ｻｶｲｵﾅﾂﾞｶ","pref":"群馬県","city":"伊勢崎市","address":"境女塚"},
{"zip_code":"3700127","kana_pref":"ｸﾞﾝﾏｹﾝ","kana_city":"ｲｾｻｷｼ","kana_address":"ｻｶｲｶﾐﾀｹｼ","pref":"群馬県","city":"伊勢崎市","address":"境上武士"},
{"zip_code":"3700102","kana_pref":"ｸﾞﾝﾏｹﾝ","kana_city":"ｲｾｻｷｼ","kana_address":"ｻｶｲｶﾐﾌﾁﾅ","pref":"群馬県","city":"伊勢崎市","address":"境上渕名"},
{"zip_code":"3700111","kana_pref":"ｸﾞﾝﾏｹﾝ","kana_city":"ｲｾｻｷｼ","kana_address":"ｻｶｲｶﾐﾔｼﾞﾏ","pref":"群馬県","city":"伊勢崎市","address":"境上矢島"},
{"zip_code":"3700104","kana_pref":"ｸﾞﾝﾏｹﾝ","kana_city":"ｲｾｻｷｼ","kana_address":"ｻｶｲｷｼﾞﾏ","pref":"群馬県","city":"伊勢崎市","address":"境木島"},
{"zip_code":"3700122","kana_pref":"ｸﾞﾝﾏｹﾝ","kana_city":"ｲｾｻｷｼ","kana_address":"ｻｶｲｻｶｴ","pref":"群馬県","city":"伊勢崎市","address":"境栄"},
{"zip_code":"3700134","kana_pref":"ｸﾞﾝﾏｹﾝ","kana_city":"ｲｾｻｷｼ","kana_address":"ｻｶｲｼﾏﾑﾗ","pref":"群馬県","city":"伊勢崎市","address":"境島村"},
{"zip_code":"3700126","kana_pref":"ｸﾞﾝﾏｹﾝ","kana_city":"ｲｾｻｷｼ","kana_address":"ｻｶｲｼﾓﾀｹｼ","pref":"群馬県","city":"伊勢崎市","address":"境下武士"},
{"zip_code":"3700103","kana_pref":"ｸﾞﾝﾏｹﾝ","kana_city":"ｲｾｻｷｼ","kana_address":"ｻｶｲｼﾓﾌﾁﾅ","pref":"群馬県","city":"伊勢崎市","address":"境下渕名"},
{"zip_code":"3700114","kana_pref":"ｸﾞﾝﾏｹﾝ","kana_city":"ｲｾｻｷｼ","kana_address":"ｻｶｲｼﾝｴｲ","pref":"群馬県","city":"伊勢崎市","address":"境新栄"},
{"zip_code":"3700117","kana_pref":"ｸﾞﾝﾏｹﾝ","kana_city":"ｲｾｻｷｼ","kana_address":"ｻｶｲﾄﾞｳﾄﾞｳ","pref":"群馬県","city":"伊勢崎市","address":"境百々"},
{"zip_code":"3700116","kana_pref":"ｸﾞﾝﾏｹﾝ","kana_city":"ｲｾｻｷｼ","kana_address":"ｻｶｲﾄﾞｳﾄﾞｳﾋｶﾞｼ","pref":"群馬県","city":"伊勢崎市","address":"境百々東"},
{"zip_code":"3700133","kana_pref":"ｸﾞﾝﾏｹﾝ","kana_city":"ｲｾｻｷｼ","kana_address":"ｻｶｲﾅｶｼﾞﾏ","pref":"群馬県","city":"伊勢崎市","address":"境中島"},
{"zip_code":"3700112","kana_pref":"ｸﾞﾝﾏｹﾝ","kana_city":"ｲｾｻｷｼ","kana_address":"ｻｶｲﾆｼｲﾏｲ","pref":"群馬県","city":"伊勢崎市","address":"境西今井"},
{"zip_code":"3700125","kana_pref":"ｸﾞﾝﾏｹﾝ","kana_city":"ｲｾｻｷｼ","kana_address":"ｻｶｲﾊｷﾞﾜﾗ","pref":"群馬県","city":"伊勢崎市","address":"境萩原"},
{"zip_code":"3700101","kana_pref":"ｸﾞﾝﾏｹﾝ","kana_city":"ｲｾｻｷｼ","kana_address":"ｻｶｲﾋｶﾞｼｱﾗｲ","pref":"群馬県","city":"伊勢崎市","address":"境東新井"},
{"zip_code":"3700132","kana_pref":"ｸﾞﾝﾏｹﾝ","kana_city":"ｲｾｻｷｼ","kana_address":"ｻｶｲﾋﾗﾂﾞｶ","pref":"群馬県","city":"伊勢崎市","address":"境平塚"},
{"zip_code":"3700128","kana_pref":"ｸﾞﾝﾏｹﾝ","kana_city":"ｲｾｻｷｼ","kana_address":"ｻｶｲﾎｽﾞﾐ","pref":"群馬県","city":"伊勢崎市","address":"境保泉"},
{"zip_code":"3700113","kana_pref":"ｸﾞﾝﾏｹﾝ","kana_city":"ｲｾｻｷｼ","kana_address":"ｻｶｲﾐﾂｷﾞ","pref":"群馬県","city":"伊勢崎市","address":"境三ツ木"},
{"zip_code":"3700115","kana_pref":"ｸﾞﾝﾏｹﾝ","kana_city":"ｲｾｻｷｼ","kana_address":"ｻｶｲﾐﾊﾗ","pref":"群馬県","city":"伊勢崎市","address":"境美原"},
{"zip_code":"3700131","kana_pref":"ｸﾞﾝﾏｹﾝ","kana_city":"ｲｾｻｷｼ","kana_address":"ｻｶｲﾖﾈｵｶ","pref":"群馬県","city":"伊勢崎市","address":"境米岡"},
{"zip_code":"3700402","kana_pref":"ｸﾞﾝﾏｹﾝ","kana_city":"ｵｵﾀｼ","kana_address":"ｱｸﾂﾁｮｳ","pref":"群馬県","city":"太田市","address":"阿久津町"},
{"zip_code":"3700422","kana_pref":"ｸﾞﾝﾏｹﾝ","kana_city":"ｵｵﾀｼ","kana_address":"ｱﾝﾖｳｼﾞﾁｮｳ","pref":"群馬県","city":"太田市","address":"安養寺町"},
{"zip_code":"3700424","kana_pref":"ｸﾞﾝﾏｹﾝ","kana_city":"ｵｵﾀｼ","kana_address":"ｲﾃﾞﾂﾞｶﾁｮｳ","pref":"群馬県","city":"太田市","address":"出塚町"},
{"zip_code":"3700403","kana_pref":"ｸﾞﾝﾏｹﾝ","kana_city":"ｵｵﾀｼ","kana_address":"ｲﾜﾏﾂﾁｮｳ","pref":"群馬県","city":"太田市","address":"岩松町"},
{"zip_code":"3700423","kana_pref":"ｸﾞﾝﾏｹﾝ","kana_city":"ｵｵﾀｼ","kana_address":"ｵｵﾀﾁﾁｮｳ","pref":"群馬県","city":"太田市","address":"大舘町"},
{"zip_code":"3700405","kana_pref":"ｸﾞﾝﾏｹﾝ","kana_city":"ｵｵﾀｼ","kana_address":"ｵｼｷﾘﾁｮｳ","pref":"群馬県","city":"太田市","address":"押切町"},
{"zip_code":"3700401","kana_pref":"ｸﾞﾝﾏｹﾝ","kana_city":"ｵｵﾀｼ","kana_address":"ｵｼﾞﾏﾁｮｳ","pref":"群馬県","city":"太田市","address":"尾島町"},
{"zip_code":"3700421","kana_pref":"ｸﾞﾝﾏｹﾝ","kana_city":"ｵｵﾀｼ","kana_address":"ｶｽｶﾜﾁｮｳ","pref":"群馬県","city":"太田市","address":"粕川町"},
{"zip_code":"3700411","kana_pref":"ｸﾞﾝﾏｹﾝ","kana_city":"ｵｵﾀｼ","kana_address":"ｶﾒｵｶﾁｮｳ","pref":"群馬県","city":"太田市","address":"亀岡町"},
{"zip_code":"3700427","kana_pref":"ｸﾞﾝﾏｹﾝ","kana_city":"ｵｵﾀｼ","kana_address":"ｺｽﾞﾐﾀﾞﾁｮｳ","pref":"群馬県","city":"太田市","address":"小角田町"},
{"zip_code":"3700413","kana_pref":"ｸﾞﾝﾏｹﾝ","kana_city":"ｵｵﾀｼ","kana_address":"ｽｽﾞｶｹﾁｮｳ","pref":"群馬県","city":"太田市","address":"すずかけ町"},
{"zip_code":"3700426","kana_pref":"ｸﾞﾝﾏｹﾝ","kana_city":"ｵｵﾀｼ","kana_address":"ｾﾗﾀﾞﾁｮｳ","pref":"群馬県","city":"太田市","address":"世良田町"},
{"zip_code":"3700412","kana_pref":"ｸﾞﾝﾏｹﾝ","kana_city":"ｵｵﾀｼ","kana_address":"ﾀｲｼﾁｮｳ","pref":"群馬県","city":"太田市","address":"太子町"},
{"zip_code":"3700425","kana_pref":"ｸﾞﾝﾏｹﾝ","kana_city":"ｵｵﾀｼ","kana_address":"ﾄｸｶﾞﾜﾁｮｳ","pref":"群馬県","city":"太田市","address":"徳川町"},
{"zip_code":"3700331","kana_pref":"ｸﾞﾝﾏｹﾝ","kana_city":"ｵｵﾀｼ","kana_address":"ﾆｯﾀｱｶﾎﾞﾘﾁｮｳ","pref":"群馬県","city":"太田市","address":"新田赤堀町"},
{"zip_code":"3700304","kana_pref":"ｸﾞﾝﾏｹﾝ","kana_city":"ｵｵﾀｼ","kana_address":"ﾆｯﾀｲﾁﾁｮｳ","pref":"群馬県","city":"太田市","address":"新田市町"},
{"zip_code":"3700314","kana_pref":"ｸﾞﾝﾏｹﾝ","kana_city":"ｵｵﾀｼ","kana_address":"ﾆｯﾀｲﾁﾉｲﾁｮｳ","pref":"群馬県","city":"太田市","address":"新田市野井町"},
{"zip_code":"3700306","kana_pref":"ｸﾞﾝﾏｹﾝ","kana_city":"ｵｵﾀｼ","kana_address":"ﾆｯﾀｲﾁﾉｸﾗﾁｮｳ","pref":"群馬県","city":"太田市","address":"新田市野倉町"},
{"zip_code":"3700351","kana_pref":"ｸﾞﾝﾏｹﾝ","kana_city":"ｵｵﾀｼ","kana_address":"ﾆｯﾀｵｵﾁｮｳ","pref":"群馬県","city":"太田市","address":"新田大町"},
{"zip_code":"3700347","kana_pref":"ｸﾞﾝﾏｹﾝ","kana_city":"ｵｵﾀｼ","kana_address":"ﾆｯﾀｵｵﾈﾁｮｳ","pref":"群馬県","city":"太田市","address":"新田大根町"},
{"zip_code":"3700341","kana_pref":"ｸﾞﾝﾏｹﾝ","kana_city":"ｵｵﾀｼ","kana_address":"ﾆｯﾀｶﾅｲﾁｮｳ","pref":"群馬県","city":"太田市","address":"新田金井町"},
{"zip_code":"3700352","kana_pref":"ｸﾞﾝﾏｹﾝ","kana_city":"ｵｵﾀｼ","kana_address":"ﾆｯﾀｶﾈﾁｮｳ","pref":"群馬県","city":"太田市","address":"新田嘉祢町"},
{"zip_code":"3700342","kana_pref":"ｸﾞﾝﾏｹﾝ","kana_city":"ｵｵﾀｼ","kana_address":"ﾆｯﾀｶﾐｴﾀﾞﾁｮｳ","pref":"群馬県","city":"太田市","address":"新田上江田町"},
{"zip_code":"3700346","kana_pref":"ｸﾞﾝﾏｹﾝ","kana_city":"ｵｵﾀｼ","kana_address":"ﾆｯﾀｶﾐﾀﾞﾅｶﾁｮｳ","pref":"群馬県","city":"太田市","address":"新田上田中町"},
{"zip_code":"3700353","kana_pref":"ｸﾞﾝﾏｹﾝ","kana_city":"ｵｵﾀｼ","kana_address":"ﾆｯﾀｶﾐﾅｶﾁｮｳ","pref":"群馬県","city":"太田市","address":"新田上中町"},
{"zip_code":"3700321","kana_pref":"ｸﾞﾝﾏｹﾝ","kana_city":"ｵｵﾀｼ","kana_address":"ﾆｯﾀｷｻﾞｷﾁｮｳ","pref":"群馬県","city":"太田市","address":"新田木崎町"},
{"zip_code":"3700303","kana_pref":"ｸﾞﾝﾏｹﾝ","kana_city":"ｵｵﾀｼ","kana_address":"ﾆｯﾀｺｶﾞﾅｲﾁｮｳ","pref":"群馬県","city":"太田市","address":"新田小金井町"},
{"zip_code":"3700302","kana_pref":"ｸﾞﾝﾏｹﾝ","kana_city":"ｵｵﾀｼ","kana_address":"ﾆｯﾀｺｷﾝﾁｮｳ","pref":"群馬県","city":"太田市","address":"新田小金町"},
{"zip_code":"3700355","kana_pref":"ｸﾞﾝﾏｹﾝ","kana_city":"ｵｵﾀｼ","kana_address":"ﾆｯﾀｺﾞﾝｴﾓﾝﾁｮｳ","pref":"群馬県","city":"太田市","address":"新田権右衛門町"},
{"zip_code":"3700333","kana_pref":"ｸﾞﾝﾏｹﾝ","kana_city":"ｵｵﾀｼ","kana_address":"ﾆｯﾀｼﾓｴﾀﾞﾁｮｳ","pref":"群馬県","city":"太田市","address":"新田下江田町"},
{"zip_code":"3700343","kana_pref":"ｸﾞﾝﾏｹﾝ","kana_city":"ｵｵﾀｼ","kana_address":"ﾆｯﾀｼﾓﾀﾞﾅｶﾁｮｳ","pref":"群馬県","city":"太田市","address":"新田下田中町"},
{"zip_code":"3700313","kana_pref":"ｸﾞﾝﾏｹﾝ","kana_city":"ｵｵﾀｼ","kana_address":"ﾆｯﾀｿﾘﾏﾁﾁｮｳ","pref":"群馬県","city":"太田市","address":"新田反町町"},
{"zip_code":"3700334","kana_pref":"ｸﾞﾝﾏｹﾝ","kana_city":"ｵｵﾀｼ","kana_address":"ﾆｯﾀﾀｶｵﾁｮｳ","pref":"群馬県","city":"太田市","address":"新田高尾町"},
{"zip_code":"3700305","kana_pref":"ｸﾞﾝﾏｹﾝ","kana_city":"ｵｵﾀｼ","kana_address":"ﾆｯﾀﾀﾑﾗｼﾝﾃﾞﾝﾁｮｳ","pref":"群馬県","city":"太田市","address":"新田多村新田町"},
{"zip_code":"3700354","kana_pref":"ｸﾞﾝﾏｹﾝ","kana_city":"ｵｵﾀｼ","kana_address":"ﾆｯﾀﾀﾒｲｹﾁｮｳ","pref":"群馬県","city":"太田市","address":"新田溜池町"},
{"zip_code":"3700301","kana_pref":"ｸﾞﾝﾏｹﾝ","kana_city":"ｵｵﾀｼ","kana_address":"ﾆｯﾀﾃﾝﾗﾁｮｳ","pref":"群馬県","city":"太田市","address":"新田天良町"},
{"zip_code":"3700332","kana_pref":"ｸﾞﾝﾏｹﾝ","kana_city":"ｵｵﾀｼ","kana_address":"ﾆｯﾀﾅｶｴﾀﾞﾁｮｳ","pref":"群馬県","city":"太田市","address":"新田中江田町"},
{"zip_code":"3700356","kana_pref":"ｸﾞﾝﾏｹﾝ","kana_city":"ｵｵﾀｼ","kana_address":"ﾆｯﾀﾊｷﾞﾁｮｳ","pref":"群馬県","city":"太田市","address":"新田萩町"},
{"zip_code":"3700345","kana_pref":"ｸﾞﾝﾏｹﾝ","kana_city":"ｵｵﾀｼ","kana_address":"ﾆｯﾀﾊﾅｶﾂﾞｶﾁｮｳ","pref":"群馬県","city":"太田市","address":"新田花香塚町"},
{"zip_code":"3700344","kana_pref":"ｸﾞﾝﾏｹﾝ","kana_city":"ｵｵﾀｼ","kana_address":"ﾆｯﾀﾊﾔｶﾜﾁｮｳ","pref":"群馬県","city":"太田市","address":"新田早川町"},
{"zip_code":"3700311","kana_pref":"ｸﾞﾝﾏｹﾝ","kana_city":"ｵｵﾀｼ","kana_address":"ﾆｯﾀﾐｽﾞｷﾁｮｳ","pref":"群馬県","city":"太田市","address":"新田瑞木町"},
{"zip_code":"3700312","kana_pref":"ｸﾞﾝﾏｹﾝ","kana_city":"ｵｵﾀｼ","kana_address":"ﾆｯﾀﾑﾗﾀﾁｮｳ","pref":"群馬県","city":"太田市","address":"新田村田町"},
{"zip_code":"3700404","kana_pref":"ｸﾞﾝﾏｹﾝ","kana_city":"ｵｵﾀｼ","kana_address":"ﾋﾞｾﾞﾝｼﾞﾏﾁｮｳ","pref":"群馬県","city":"太田市","address":"備前島町"},
{"zip_code":"3700417","kana_pref":"ｸﾞﾝﾏｹﾝ","kana_city":"ｵｵﾀｼ","kana_address":"ﾌﾀﾂｺﾞﾔﾁｮｳ","pref":"群馬県","city":"太田市","address":"二ツ小屋町"},
{"zip_code":"3700414","kana_pref":"ｸﾞﾝﾏｹﾝ","kana_city":"ｵｵﾀｼ","kana_address":"ﾎﾘｸﾞﾁﾁｮｳ","pref":"群馬県","city":"太田市","address":"堀口町"},
{"zip_code":"3700406","kana_pref":"ｸﾞﾝﾏｹﾝ","kana_city":"ｵｵﾀｼ","kana_address":"ﾏｴｺﾞﾔﾁｮｳ","pref":"群馬県","city":"太田市","address":"前小屋町"},
{"zip_code":"3700416","kana_pref":"ｸﾞﾝﾏｹﾝ","kana_city":"ｵｵﾀｼ","kana_address":"ﾏｴｼﾞﾏﾁｮｳ","pref":"群馬県","city":"太田市","address":"前島町"},
{"zip_code":"3700415","kana_pref":"ｸﾞﾝﾏｹﾝ","kana_city":"ｵｵﾀｼ","kana_address":"ﾐﾅﾐｶﾞｵｶﾁｮｳ","pref":"群馬県","city":"太田市","address":"南ケ丘町"},
{"zip_code":"3700418","kana_pref":"ｸﾞﾝﾏｹﾝ","kana_city":"ｵｵﾀｼ","kana_address":"ﾑｻｼｼﾞﾏﾁｮｳ","pref":"群馬県","city":"太田市","address":"武蔵島町"},
{"zip_code":"3701401","kana_pref":"ｸﾞﾝﾏｹﾝ","kana_city":"ﾌｼﾞｵｶｼ","kana_address":"ｵﾆｼ","pref":"群馬県","city":"藤岡市","address":"鬼石"},
{"zip_code":"3701404","kana_pref":"ｸﾞﾝﾏｹﾝ","kana_city":"ﾌｼﾞｵｶｼ","kana_address":"ｻｶﾊﾗ","pref":"群馬県","city":"藤岡市","address":"坂原"},
{"zip_code":"3701405","kana_pref":"ｸﾞﾝﾏｹﾝ","kana_city":"ﾌｼﾞｵｶｼ","kana_address":"ｻﾝﾊﾞｶﾞﾜ","pref":"群馬県","city":"藤岡市","address":"三波川"},
{"zip_code":"3701406","kana_pref":"ｸﾞﾝﾏｹﾝ","kana_city":"ﾌｼﾞｵｶｼ","kana_address":"ｼﾞｮｳﾎﾞｳｼﾞ","pref":"群馬県","city":"藤岡市","address":"浄法寺"},
{"zip_code":"3701403","kana_pref":"ｸﾞﾝﾏｹﾝ","kana_city":"ﾌｼﾞｵｶｼ","kana_address":"ﾎﾐﾉﾔﾏ","pref":"群馬県","city":"藤岡市","address":"保美濃山"},
{"zip_code":"3701402","kana_pref":"ｸﾞﾝﾏｹﾝ","kana_city":"ﾌｼﾞｵｶｼ","kana_address":"ﾕｽﾞﾘﾊﾗ","pref":"群馬県","city":"藤岡市","address":"譲原"},
{"zip_code":"3702300","kana_pref":"ｸﾞﾝﾏｹﾝ","kana_city":"ﾄﾐｵｶｼ","kana_address":"","pref":"群馬県","city":"富岡市","address":""},
{"zip_code":"3702306","kana_pref":"ｸﾞﾝﾏｹﾝ","kana_city":"ﾄﾐｵｶｼ","kana_address":"ｱｲﾉﾀ","pref":"群馬県","city":"富岡市","address":"相野田"},
{"zip_code":"3702452","kana_pref":"ｸﾞﾝﾏｹﾝ","kana_city":"ﾄﾐｵｶｼ","kana_address":"ｲﾁﾉﾐﾔ","pref":"群馬県","city":"富岡市","address":"一ノ宮"},
{"zip_code":"3702322","kana_pref":"ｸﾞﾝﾏｹﾝ","kana_city":"ﾄﾐｵｶｼ","kana_address":"ｲﾜｿﾒ","pref":"群馬県","city":"富岡市","address":"岩染"},
{"zip_code":"3702451","kana_pref":"ｸﾞﾝﾏｹﾝ","kana_city":"ﾄﾐｵｶｼ","kana_address":"ｳﾀﾞ","pref":"群馬県","city":"富岡市","address":"宇田"},
{"zip_code":"3702335","kana_pref":"ｸﾞﾝﾏｹﾝ","kana_city":"ﾄﾐｵｶｼ","kana_address":"ｵｵｼﾏ","pref":"群馬県","city":"富岡市","address":"大島"},
{"zip_code":"3702321","kana_pref":"ｸﾞﾝﾏｹﾝ","kana_city":"ﾄﾐｵｶｼ","kana_address":"ｵｶﾓﾄ","pref":"群馬県","city":"富岡市","address":"岡本"},
{"zip_code":"3702466","kana_pref":"ｸﾞﾝﾏｹﾝ","kana_city":"ﾄﾐｵｶｼ","kana_address":"ｶﾇﾏ","pref":"群馬県","city":"富岡市","address":"蚊沼"},
{"zip_code":"3702455","kana_pref":"ｸﾞﾝﾏｹﾝ","kana_city":"ﾄﾐｵｶｼ","kana_address":"ｶﾉﾊﾗ","pref":"群馬県","city":"富岡市","address":"神農原"},
{"zip_code":"3702345","kana_pref":"ｸﾞﾝﾏｹﾝ","kana_city":"ﾄﾐｵｶｼ","kana_address":"ｶﾐｸﾛｲﾜ","pref":"群馬県","city":"富岡市","address":"上黒岩"},
{"zip_code":"3702456","kana_pref":"ｸﾞﾝﾏｹﾝ","kana_city":"ﾄﾐｵｶｼ","kana_address":"ｶﾐｺﾊﾞﾔｼ","pref":"群馬県","city":"富岡市","address":"上小林"},
{"zip_code":"3702317","kana_pref":"ｸﾞﾝﾏｹﾝ","kana_city":"ﾄﾐｵｶｼ","kana_address":"ｶﾐﾀｶｵ","pref":"群馬県","city":"富岡市","address":"上高尾"},
{"zip_code":"3702334","kana_pref":"ｸﾞﾝﾏｹﾝ","kana_city":"ﾄﾐｵｶｼ","kana_address":"ｶﾐﾀﾞｶｾ","pref":"群馬県","city":"富岡市","address":"上高瀬"},
{"zip_code":"3702461","kana_pref":"ｸﾞﾝﾏｹﾝ","kana_city":"ﾄﾐｵｶｼ","kana_address":"ｶﾐﾆｭｳ","pref":"群馬県","city":"富岡市","address":"上丹生"},
{"zip_code":"3702463","kana_pref":"ｸﾞﾝﾏｹﾝ","kana_city":"ﾄﾐｵｶｼ","kana_address":"ｶﾝﾅﾘ","pref":"群馬県","city":"富岡市","address":"神成"},
{"zip_code":"3702313","kana_pref":"ｸﾞﾝﾏｹﾝ","kana_city":"ﾄﾐｵｶｼ","kana_address":"ｷﾐｶﾜ","pref":"群馬県","city":"富岡市","address":"君川"},
{"zip_code":"3702344","kana_pref":"ｸﾞﾝﾏｹﾝ","kana_city":"ﾄﾐｵｶｼ","kana_address":"ｸﾛｶﾜ","pref":"群馬県","city":"富岡市","address":"黒川"},
{"zip_code":"3702301","kana_pref":"ｸﾞﾝﾏｹﾝ","kana_city":"ﾄﾐｵｶｼ","kana_address":"ｸﾜﾊﾗ","pref":"群馬県","city":"富岡市","address":"桑原"},
{"zip_code":"3702304","kana_pref":"ｸﾞﾝﾏｹﾝ","kana_city":"ﾄﾐｵｶｼ","kana_address":"ｺﾞｶ","pref":"群馬県","city":"富岡市","address":"後賀"},
{"zip_code":"3702302","kana_pref":"ｸﾞﾝﾏｹﾝ","kana_city":"ﾄﾐｵｶｼ","kana_address":"ｺｸﾜﾊﾗ","pref":"群馬県","city":"富岡市","address":"小桑原"},
{"zip_code":"3702341","kana_pref":"ｸﾞﾝﾏｹﾝ","kana_city":"ﾄﾐｵｶｼ","kana_address":"ｼﾓｸﾛｲﾜ","pref":"群馬県","city":"富岡市","address":"下黒岩"},
{"zip_code":"3702311","kana_pref":"ｸﾞﾝﾏｹﾝ","kana_city":"ﾄﾐｵｶｼ","kana_address":"ｼﾓﾀｶｵ","pref":"群馬県","city":"富岡市","address":"下高尾"},
{"zip_code":"3702332","kana_pref":"ｸﾞﾝﾏｹﾝ","kana_city":"ﾄﾐｵｶｼ","kana_address":"ｼﾓﾀﾞｶｾ","pref":"群馬県","city":"富岡市","address":"下高瀬"},
{"zip_code":"3702462","kana_pref":"ｸﾞﾝﾏｹﾝ","kana_city":"ﾄﾐｵｶｼ","kana_address":"ｼﾓﾆｭｳ","pref":"群馬県","city":"富岡市","address":"下丹生"},
{"zip_code":"3702305","kana_pref":"ｸﾞﾝﾏｹﾝ","kana_city":"ﾄﾐｵｶｼ","kana_address":"ｼﾗｲﾜ","pref":"群馬県","city":"富岡市","address":"白岩"},
{"zip_code":"3702315","kana_pref":"ｸﾞﾝﾏｹﾝ","kana_city":"ﾄﾐｵｶｼ","kana_address":"ｿｷﾞ","pref":"群馬県","city":"富岡市","address":"曾木"},
{"zip_code":"3702331","kana_pref":"ｸﾞﾝﾏｹﾝ","kana_city":"ﾄﾐｵｶｼ","kana_address":"ﾀｸﾐ","pref":"群馬県","city":"富岡市","address":"内匠"},
{"zip_code":"3702314","kana_pref":"ｸﾞﾝﾏｹﾝ","kana_city":"ﾄﾐｵｶｼ","kana_address":"ﾀｼﾞﾉ","pref":"群馬県","city":"富岡市","address":"田篠"},
{"zip_code":"3702454","kana_pref":"ｸﾞﾝﾏｹﾝ","kana_city":"ﾄﾐｵｶｼ","kana_address":"ﾀｼﾞﾏ","pref":"群馬県","city":"富岡市","address":"田島"},
{"zip_code":"3702316","kana_pref":"ｸﾞﾝﾏｹﾝ","kana_city":"ﾄﾐｵｶｼ","kana_address":"ﾄﾐｵｶ","pref":"群馬県","city":"富岡市","address":"富岡"},
{"zip_code":"3702465","kana_pref":"ｸﾞﾝﾏｹﾝ","kana_city":"ﾄﾐｵｶｼ","kana_address":"ﾅｶｻﾞﾜ","pref":"群馬県","city":"富岡市","address":"中沢"},
{"zip_code":"3702333","kana_pref":"ｸﾞﾝﾏｹﾝ","kana_city":"ﾄﾐｵｶｼ","kana_address":"ﾅｶﾀﾞｶｾ","pref":"群馬県","city":"富岡市","address":"中高瀬"},
{"zip_code":"3702343","kana_pref":"ｸﾞﾝﾏｹﾝ","kana_city":"ﾄﾐｵｶｼ","kana_address":"ﾅﾉｶｲﾁ","pref":"群馬県","city":"富岡市","address":"七日市"},
{"zip_code":"3702464","kana_pref":"ｸﾞﾝﾏｹﾝ","kana_city":"ﾄﾐｵｶｼ","kana_address":"ﾅﾝｼﾞｬｲ","pref":"群馬県","city":"富岡市","address":"南蛇井"},
{"zip_code":"3702323","kana_pref":"ｸﾞﾝﾏｹﾝ","kana_city":"ﾄﾐｵｶｼ","kana_address":"ﾉｶﾞﾐ","pref":"群馬県","city":"富岡市","address":"野上"},
{"zip_code":"3702467","kana_pref":"ｸﾞﾝﾏｹﾝ","kana_city":"ﾄﾐｵｶｼ","kana_address":"ﾊﾗ","pref":"群馬県","city":"富岡市","address":"原"},
{"zip_code":"3702307","kana_pref":"ｸﾞﾝﾏｹﾝ","kana_city":"ﾄﾐｵｶｼ","kana_address":"ﾌｼﾞｷ","pref":"群馬県","city":"富岡市","address":"藤木"},
{"zip_code":"3702342","kana_pref":"ｸﾞﾝﾏｹﾝ","kana_city":"ﾄﾐｵｶｼ","kana_address":"ﾍﾞﾂﾎﾟ","pref":"群馬県","city":"富岡市","address":"別保"},
{"zip_code":"3702312","kana_pref":"ｸﾞﾝﾏｹﾝ","kana_city":"ﾄﾐｵｶｼ","kana_address":"ﾎｼﾀﾞ","pref":"群馬県","city":"富岡市","address":"星田"},
{"zip_code":"3702324","kana_pref":"ｸﾞﾝﾏｹﾝ","kana_city":"ﾄﾐｵｶｼ","kana_address":"ﾐﾅﾐｺﾞｶ","pref":"群馬県","city":"富岡市","address":"南後箇"},
{"zip_code":"3702453","kana_pref":"ｸﾞﾝﾏｹﾝ","kana_city":"ﾄﾐｵｶｼ","kana_address":"ﾐﾔｻﾞｷ","pref":"群馬県","city":"富岡市","address":"宮崎"},
{"zip_code":"3702411","kana_pref":"ｸﾞﾝﾏｹﾝ","kana_city":"ﾄﾐｵｶｼ","kana_address":"ﾐｮｳｷﾞﾏﾁｶﾐﾀｶﾀ","pref":"群馬県","city":"富岡市","address":"妙義町上高田"},
{"zip_code":"3702412","kana_pref":"ｸﾞﾝﾏｹﾝ","kana_city":"ﾄﾐｵｶｼ","kana_address":"ﾐｮｳｷﾞﾏﾁｼﾓﾀｶﾀ","pref":"群馬県","city":"富岡市","address":"妙義町下高田"},
{"zip_code":"3702413","kana_pref":"ｸﾞﾝﾏｹﾝ","kana_city":"ﾄﾐｵｶｼ","kana_address":"ﾐｮｳｷﾞﾏﾁﾔｷﾞﾂﾚ","pref":"群馬県","city":"富岡市","address":"妙義町八木連"},
{"zip_code":"3702303","kana_pref":"ｸﾞﾝﾏｹﾝ","kana_city":"ﾄﾐｵｶｼ","kana_address":"ﾜﾗﾋﾞ","pref":"群馬県","city":"富岡市","address":"蕨"},
{"zip_code":"3703500","kana_pref":"ｸﾞﾝﾏｹﾝ","kana_city":"ｷﾀｸﾞﾝﾏｸﾞﾝｼﾝﾄｳﾑﾗ","kana_address":"","pref":"群馬県","city":"北群馬郡榛東村","address":""},
{"zip_code":"3703503","kana_pref":"ｸﾞﾝﾏｹﾝ","kana_city":"ｷﾀｸﾞﾝﾏｸﾞﾝｼﾝﾄｳﾑﾗ","kana_address":"ｱﾗｲ","pref":"群馬県","city":"北群馬郡榛東村","address":"新井"},
{"zip_code":"3703505","kana_pref":"ｸﾞﾝﾏｹﾝ","kana_city":"ｷﾀｸﾞﾝﾏｸﾞﾝｼﾝﾄｳﾑﾗ","kana_address":"ｳｴﾉﾊﾗ","pref":"群馬県","city":"北群馬郡榛東村","address":"上野原"},
{"zip_code":"3703501","kana_pref":"ｸﾞﾝﾏｹﾝ","kana_city":"ｷﾀｸﾞﾝﾏｸﾞﾝｼﾝﾄｳﾑﾗ","kana_address":"ﾅｶﾞｵｶ","pref":"群馬県","city":"北群馬郡榛東村","address":"長岡"},
{"zip_code":"3703504","kana_pref":"ｸﾞﾝﾏｹﾝ","kana_city":"ｷﾀｸﾞﾝﾏｸﾞﾝｼﾝﾄｳﾑﾗ","kana_address":"ﾋﾛﾊﾞﾊﾞ","pref":"群馬県","city":"北群馬郡榛東村","address":"広馬場"},
{"zip_code":"3703502","kana_pref":"ｸﾞﾝﾏｹﾝ","kana_city":"ｷﾀｸﾞﾝﾏｸﾞﾝｼﾝﾄｳﾑﾗ","kana_address":"ﾔﾏｺﾀﾞ","pref":"群馬県","city":"北群馬郡榛東村","address":"山子田"},
{"zip_code":"3703600","kana_pref":"ｸﾞﾝﾏｹﾝ","kana_city":"ｷﾀｸﾞﾝﾏｸﾞﾝﾖｼｵｶﾏﾁ","kana_address":"","pref":"群馬県","city":"北群馬郡吉岡町","address":""},
{"zip_code":"3703601","kana_pref":"ｸﾞﾝﾏｹﾝ","kana_city":"ｷﾀｸﾞﾝﾏｸﾞﾝﾖｼｵｶﾏﾁ","kana_address":"ｳﾙｼﾊﾞﾗ","pref":"群馬県","city":"北群馬郡吉岡町","address":"漆原"},
{"zip_code":"3703602","kana_pref":"ｸﾞﾝﾏｹﾝ","kana_city":"ｷﾀｸﾞﾝﾏｸﾞﾝﾖｼｵｶﾏﾁ","kana_address":"ｵｵｸﾎﾞ","pref":"群馬県","city":"北群馬郡吉岡町","address":"大久保"},
{"zip_code":"3703607","kana_pref":"ｸﾞﾝﾏｹﾝ","kana_city":"ｷﾀｸﾞﾝﾏｸﾞﾝﾖｼｵｶﾏﾁ","kana_address":"ｵｸﾞﾗ","pref":"群馬県","city":"北群馬郡吉岡町","address":"小倉"},
{"zip_code":"3703606","kana_pref":"ｸﾞﾝﾏｹﾝ","kana_city":"ｷﾀｸﾞﾝﾏｸﾞﾝﾖｼｵｶﾏﾁ","kana_address":"ｶﾐﾉﾀﾞ","pref":"群馬県","city":"北群馬郡吉岡町","address":"上野田"},
{"zip_code":"3703605","kana_pref":"ｸﾞﾝﾏｹﾝ","kana_city":"ｷﾀｸﾞﾝﾏｸﾞﾝﾖｼｵｶﾏﾁ","kana_address":"ｷﾀｼﾓ","pref":"群馬県","city":"北群馬郡吉岡町","address":"北下"},
{"zip_code":"3703608","kana_pref":"ｸﾞﾝﾏｹﾝ","kana_city":"ｷﾀｸﾞﾝﾏｸﾞﾝﾖｼｵｶﾏﾁ","kana_address":"ｼﾓﾉﾀﾞ","pref":"群馬県","city":"北群馬郡吉岡町","address":"下野田"},
{"zip_code":"3703603","kana_pref":"ｸﾞﾝﾏｹﾝ","kana_city":"ｷﾀｸﾞﾝﾏｸﾞﾝﾖｼｵｶﾏﾁ","kana_address":"ｼﾞﾝﾊﾞ","pref":"群馬県","city":"北群馬郡吉岡町","address":"陣場"},
{"zip_code":"3703604","kana_pref":"ｸﾞﾝﾏｹﾝ","kana_city":"ｷﾀｸﾞﾝﾏｸﾞﾝﾖｼｵｶﾏﾁ","kana_address":"ﾐﾅﾐｼﾓ","pref":"群馬県","city":"北群馬郡吉岡町","address":"南下"},
{"zip_code":"3701600","kana_pref":"ｸﾞﾝﾏｹﾝ","kana_city":"ﾀﾉｸﾞﾝｳｴﾉﾑﾗ","kana_address":"","pref":"群馬県","city":"多野郡上野村","address":""},
{"zip_code":"3701616","kana_pref":"ｸﾞﾝﾏｹﾝ","kana_city":"ﾀﾉｸﾞﾝｳｴﾉﾑﾗ","kana_address":"ｵｯﾁ","pref":"群馬県","city":"多野郡上野村","address":"乙父"},
{"zip_code":"3701615","kana_pref":"ｸﾞﾝﾏｹﾝ","kana_city":"ﾀﾉｸﾞﾝｳｴﾉﾑﾗ","kana_address":"ｵﾄﾓ","pref":"群馬県","city":"多野郡上野村","address":"乙母"},
{"zip_code":"3701613","kana_pref":"ｸﾞﾝﾏｹﾝ","kana_city":"ﾀﾉｸﾞﾝｳｴﾉﾑﾗ","kana_address":"ｶﾂﾔﾏ","pref":"群馬県","city":"多野郡上野村","address":"勝山"},
{"zip_code":"3701614","kana_pref":"ｸﾞﾝﾏｹﾝ","kana_city":"ﾀﾉｸﾞﾝｳｴﾉﾑﾗ","kana_address":"ｶﾜﾜ","pref":"群馬県","city":"多野郡上野村","address":"川和"},
{"zip_code":"3701617","kana_pref":"ｸﾞﾝﾏｹﾝ","kana_city":"ﾀﾉｸﾞﾝｳｴﾉﾑﾗ","kana_address":"ﾅﾗﾊﾗ","pref":"群馬県","city":"多野郡上野村","address":"楢原"},
{"zip_code":"3701611","kana_pref":"ｸﾞﾝﾏｹﾝ","kana_city":"ﾀﾉｸﾞﾝｳｴﾉﾑﾗ","kana_address":"ﾆｯﾊﾟ","pref":"群馬県","city":"多野郡上野村","address":"新羽"},
{"zip_code":"3701612","kana_pref":"ｸﾞﾝﾏｹﾝ","kana_city":"ﾀﾉｸﾞﾝｳｴﾉﾑﾗ","kana_address":"ﾉｸﾞﾘｻﾜ","pref":"群馬県","city":"多野郡上野村","address":"野栗沢"},
{"zip_code":"3701600","kana_pref":"ｸﾞﾝﾏｹﾝ","kana_city":"ﾀﾉｸﾞﾝｶﾝﾅﾏﾁ","kana_address":"","pref":"群馬県","city":"多野郡神流町","address":""},
{"zip_code":"3701511","kana_pref":"ｸﾞﾝﾏｹﾝ","kana_city":"ﾀﾉｸﾞﾝｶﾝﾅﾏﾁ","kana_address":"ｱｲﾊﾞﾗ","pref":"群馬県","city":"多野郡神流町","address":"相原"},
{"zip_code":"3701512","kana_pref":"ｸﾞﾝﾏｹﾝ","kana_city":"ﾀﾉｸﾞﾝｶﾝﾅﾏﾁ","kana_address":"ｱｵﾅｼ","pref":"群馬県","city":"多野郡神流町","address":"青梨"},
{"zip_code":"3701502","kana_pref":"ｸﾞﾝﾏｹﾝ","kana_city":"ﾀﾉｸﾞﾝｶﾝﾅﾏﾁ","kana_address":"ｱｿｳ","pref":"群馬県","city":"多野郡神流町","address":"麻生"},
{"zip_code":"3701604","kana_pref":"ｸﾞﾝﾏｹﾝ","kana_city":"ﾀﾉｸﾞﾝｶﾝﾅﾏﾁ","kana_address":"ｵﾂﾞｸ","pref":"群馬県","city":"多野郡神流町","address":"尾附"},
{"zip_code":"3701602","kana_pref":"ｸﾞﾝﾏｹﾝ","kana_city":"ﾀﾉｸﾞﾝｶﾝﾅﾏﾁ","kana_address":"ｶｶﾞﾊﾗ","pref":"群馬県","city":"多野郡神流町","address":"神ケ原"},
{"zip_code":"3701501","kana_pref":"ｸﾞﾝﾏｹﾝ","kana_city":"ﾀﾉｸﾞﾝｶﾝﾅﾏﾁ","kana_address":"ｶｼﾜｷﾞ","pref":"群馬県","city":"多野郡神流町","address":"柏木"},
{"zip_code":"3701506","kana_pref":"ｸﾞﾝﾏｹﾝ","kana_city":"ﾀﾉｸﾞﾝｶﾝﾅﾏﾁ","kana_address":"ｸﾛﾀﾞ","pref":"群馬県","city":"多野郡神流町","address":"黒田"},
{"zip_code":"3701513","kana_pref":"ｸﾞﾝﾏｹﾝ","kana_city":"ﾀﾉｸﾞﾝｶﾝﾅﾏﾁ","kana_address":"ｺﾀﾞｲﾗ","pref":"群馬県","city":"多野郡神流町","address":"小平"},
{"zip_code":"3701514","kana_pref":"ｸﾞﾝﾏｹﾝ","kana_city":"ﾀﾉｸﾞﾝｶﾝﾅﾏﾁ","kana_address":"ｼｵｻﾞﾜ","pref":"群馬県","city":"多野郡神流町","address":"塩沢"},
{"zip_code":"3701503","kana_pref":"ｸﾞﾝﾏｹﾝ","kana_city":"ﾀﾉｸﾞﾝｶﾝﾅﾏﾁ","kana_address":"ｼｮｳﾘ","pref":"群馬県","city":"多野郡神流町","address":"生利"},
{"zip_code":"3701515","kana_pref":"ｸﾞﾝﾏｹﾝ","kana_city":"ﾀﾉｸﾞﾝｶﾝﾅﾏﾁ","kana_address":"ﾌﾅｺ","pref":"群馬県","city":"多野郡神流町","address":"船子"},
{"zip_code":"3701603","kana_pref":"ｸﾞﾝﾏｹﾝ","kana_city":"ﾀﾉｸﾞﾝｶﾝﾅﾏﾁ","kana_address":"ﾍﾊﾞﾗ","pref":"群馬県","city":"多野郡神流町","address":"平原"},
{"zip_code":"3701504","kana_pref":"ｸﾞﾝﾏｹﾝ","kana_city":"ﾀﾉｸﾞﾝｶﾝﾅﾏﾁ","kana_address":"ﾏﾝﾊﾞ","pref":"群馬県","city":"多野郡神流町","address":"万場"},
{"zip_code":"3701505","kana_pref":"ｸﾞﾝﾏｹﾝ","kana_city":"ﾀﾉｸﾞﾝｶﾝﾅﾏﾁ","kana_address":"ﾓﾘﾄﾞ","pref":"群馬県","city":"多野郡神流町","address":"森戸"},
{"zip_code":"3701601","kana_pref":"ｸﾞﾝﾏｹﾝ","kana_city":"ﾀﾉｸﾞﾝｶﾝﾅﾏﾁ","kana_address":"ﾖﾉｵ","pref":"群馬県","city":"多野郡神流町","address":"魚尾"},
{"zip_code":"3702600","kana_pref":"ｸﾞﾝﾏｹﾝ","kana_city":"ｶﾝﾗｸﾞﾝｼﾓﾆﾀﾏﾁ","kana_address":"","pref":"群馬県","city":"甘楽郡下仁田町","address":""},
{"zip_code":"3702611","kana_pref":"ｸﾞﾝﾏｹﾝ","kana_city":"ｶﾝﾗｸﾞﾝｼﾓﾆﾀﾏﾁ","kana_address":"ｱｵｸﾗ","pref":"群馬県","city":"甘楽郡下仁田町","address":"青倉"},
{"zip_code":"3702613","kana_pref":"ｸﾞﾝﾏｹﾝ","kana_city":"ｶﾝﾗｸﾞﾝｼﾓﾆﾀﾏﾁ","kana_address":"ｵｵｸﾜﾊﾗ","pref":"群馬県","city":"甘楽郡下仁田町","address":"大桑原"},
{"zip_code":"3702614","kana_pref":"ｸﾞﾝﾏｹﾝ","kana_city":"ｶﾝﾗｸﾞﾝｼﾓﾆﾀﾏﾁ","kana_address":"ｶｻﾞｸﾁ","pref":"群馬県","city":"甘楽郡下仁田町","address":"風口"},
{"zip_code":"3702621","kana_pref":"ｸﾞﾝﾏｹﾝ","kana_city":"ｶﾝﾗｸﾞﾝｼﾓﾆﾀﾏﾁ","kana_address":"ｶﾐｵｻｶ","pref":"群馬県","city":"甘楽郡下仁田町","address":"上小坂"},
{"zip_code":"3702606","kana_pref":"ｸﾞﾝﾏｹﾝ","kana_city":"ｶﾝﾗｸﾞﾝｼﾓﾆﾀﾏﾁ","kana_address":"ｶﾜｲ","pref":"群馬県","city":"甘楽郡下仁田町","address":"川井"},
{"zip_code":"3702605","kana_pref":"ｸﾞﾝﾏｹﾝ","kana_city":"ｶﾝﾗｸﾞﾝｼﾓﾆﾀﾏﾁ","kana_address":"ｸﾘﾔﾏ","pref":"群馬県","city":"甘楽郡下仁田町","address":"栗山"},
{"zip_code":"3702623","kana_pref":"ｸﾞﾝﾏｹﾝ","kana_city":"ｶﾝﾗｸﾞﾝｼﾓﾆﾀﾏﾁ","kana_address":"ｼﾓｵｻｶ","pref":"群馬県","city":"甘楽郡下仁田町","address":"下小坂"},
{"zip_code":"3702616","kana_pref":"ｸﾞﾝﾏｹﾝ","kana_city":"ｶﾝﾗｸﾞﾝｼﾓﾆﾀﾏﾁ","kana_address":"ｼﾓｺﾞｳ","pref":"群馬県","city":"甘楽郡下仁田町","address":"下郷"},
{"zip_code":"3702601","kana_pref":"ｸﾞﾝﾏｹﾝ","kana_city":"ｶﾝﾗｸﾞﾝｼﾓﾆﾀﾏﾁ","kana_address":"ｼﾓﾆﾀ","pref":"群馬県","city":"甘楽郡下仁田町","address":"下仁田"},
{"zip_code":"3702622","kana_pref":"ｸﾞﾝﾏｹﾝ","kana_city":"ｶﾝﾗｸﾞﾝｼﾓﾆﾀﾏﾁ","kana_address":"ﾅｶｵｻｶ","pref":"群馬県","city":"甘楽郡下仁田町","address":"中小坂"},
{"zip_code":"3702627","kana_pref":"ｸﾞﾝﾏｹﾝ","kana_city":"ｶﾝﾗｸﾞﾝｼﾓﾆﾀﾏﾁ","kana_address":"ﾆｼﾉﾏｷ","pref":"群馬県","city":"甘楽郡下仁田町","address":"西野牧"},
{"zip_code":"3702602","kana_pref":"ｸﾞﾝﾏｹﾝ","kana_city":"ｶﾝﾗｸﾞﾝｼﾓﾆﾀﾏﾁ","kana_address":"ﾊｸｻﾝ","pref":"群馬県","city":"甘楽郡下仁田町","address":"白山"},
{"zip_code":"3702624","kana_pref":"ｸﾞﾝﾏｹﾝ","kana_city":"ｶﾝﾗｸﾞﾝｼﾓﾆﾀﾏﾁ","kana_address":"ﾋｶﾞｼﾉﾏｷ","pref":"群馬県","city":"甘楽郡下仁田町","address":"東野牧"},
{"zip_code":"3702612","kana_pref":"ｸﾞﾝﾏｹﾝ","kana_city":"ｶﾝﾗｸﾞﾝｼﾓﾆﾀﾏﾁ","kana_address":"ﾍﾊﾞﾗ","pref":"群馬県","city":"甘楽郡下仁田町","address":"平原"},
{"zip_code":"3702603","kana_pref":"ｸﾞﾝﾏｹﾝ","kana_city":"ｶﾝﾗｸﾞﾝｼﾓﾆﾀﾏﾁ","kana_address":"ﾏﾔﾏ","pref":"群馬県","city":"甘楽郡下仁田町","address":"馬山"},
{"zip_code":"3702626","kana_pref":"ｸﾞﾝﾏｹﾝ","kana_city":"ｶﾝﾗｸﾞﾝｼﾓﾆﾀﾏﾁ","kana_address":"ﾐﾅﾐﾉﾏｷ","pref":"群馬県","city":"甘楽郡下仁田町","address":"南野牧"},
{"zip_code":"3702615","kana_pref":"ｸﾞﾝﾏｹﾝ","kana_city":"ｶﾝﾗｸﾞﾝｼﾓﾆﾀﾏﾁ","kana_address":"ﾐﾔﾑﾛ","pref":"群馬県","city":"甘楽郡下仁田町","address":"宮室"},
{"zip_code":"3702625","kana_pref":"ｸﾞﾝﾏｹﾝ","kana_city":"ｶﾝﾗｸﾞﾝｼﾓﾆﾀﾏﾁ","kana_address":"ﾓﾄｼﾞｭｸ","pref":"群馬県","city":"甘楽郡下仁田町","address":"本宿"},
{"zip_code":"3702604","kana_pref":"ｸﾞﾝﾏｹﾝ","kana_city":"ｶﾝﾗｸﾞﾝｼﾓﾆﾀﾏﾁ","kana_address":"ﾖｼｻﾞｷ","pref":"群馬県","city":"甘楽郡下仁田町","address":"吉崎"},
{"zip_code":"3702800","kana_pref":"ｸﾞﾝﾏｹﾝ","kana_city":"ｶﾝﾗｸﾞﾝﾅﾝﾓｸﾑﾗ","kana_address":"","pref":"群馬県","city":"甘楽郡南牧村","address":""},
{"zip_code":"3702804","kana_pref":"ｸﾞﾝﾏｹﾝ","kana_city":"ｶﾝﾗｸﾞﾝﾅﾝﾓｸﾑﾗ","kana_address":"ｲﾜﾄﾞ","pref":"群馬県","city":"甘楽郡南牧村","address":"磐戸"},
{"zip_code":"3702801","kana_pref":"ｸﾞﾝﾏｹﾝ","kana_city":"ｶﾝﾗｸﾞﾝﾅﾝﾓｸﾑﾗ","kana_address":"ｵｵｼｵｻﾞﾜ","pref":"群馬県","city":"甘楽郡南牧村","address":"大塩沢"},
{"zip_code":"3702812","kana_pref":"ｸﾞﾝﾏｹﾝ","kana_city":"ｶﾝﾗｸﾞﾝﾅﾝﾓｸﾑﾗ","kana_address":"ｵｵﾆﾀ","pref":"群馬県","city":"甘楽郡南牧村","address":"大仁田"},
{"zip_code":"3702806","kana_pref":"ｸﾞﾝﾏｹﾝ","kana_city":"ｶﾝﾗｸﾞﾝﾅﾝﾓｸﾑﾗ","kana_address":"ｵｵﾋﾅﾀ","pref":"群馬県","city":"甘楽郡南牧村","address":"大日向"},
{"zip_code":"3702802","kana_pref":"ｸﾞﾝﾏｹﾝ","kana_city":"ｶﾝﾗｸﾞﾝﾅﾝﾓｸﾑﾗ","kana_address":"ｵｻﾞﾜ","pref":"群馬県","city":"甘楽郡南牧村","address":"小沢"},
{"zip_code":"3702815","kana_pref":"ｸﾞﾝﾏｹﾝ","kana_city":"ｶﾝﾗｸﾞﾝﾅﾝﾓｸﾑﾗ","kana_address":"ｸﾏｸﾗ","pref":"群馬県","city":"甘楽郡南牧村","address":"熊倉"},
{"zip_code":"3702803","kana_pref":"ｸﾞﾝﾏｹﾝ","kana_city":"ｶﾝﾗｸﾞﾝﾅﾝﾓｸﾑﾗ","kana_address":"ﾁﾊﾗ","pref":"群馬県","city":"甘楽郡南牧村","address":"千原"},
{"zip_code":"3702813","kana_pref":"ｸﾞﾝﾏｹﾝ","kana_city":"ｶﾝﾗｸﾞﾝﾅﾝﾓｸﾑﾗ","kana_address":"ﾄｻﾞﾜ","pref":"群馬県","city":"甘楽郡南牧村","address":"砥沢"},
{"zip_code":"3702814","kana_pref":"ｸﾞﾝﾏｹﾝ","kana_city":"ｶﾝﾗｸﾞﾝﾅﾝﾓｸﾑﾗ","kana_address":"ﾊｻﾞﾜ","pref":"群馬県","city":"甘楽郡南牧村","address":"羽沢"},
{"zip_code":"3702805","kana_pref":"ｸﾞﾝﾏｹﾝ","kana_city":"ｶﾝﾗｸﾞﾝﾅﾝﾓｸﾑﾗ","kana_address":"ﾋｻﾜ","pref":"群馬県","city":"甘楽郡南牧村","address":"檜沢"},
{"zip_code":"3702816","kana_pref":"ｸﾞﾝﾏｹﾝ","kana_city":"ｶﾝﾗｸﾞﾝﾅﾝﾓｸﾑﾗ","kana_address":"ﾎｼｵ","pref":"群馬県","city":"甘楽郡南牧村","address":"星尾"},
{"zip_code":"3702811","kana_pref":"ｸﾞﾝﾏｹﾝ","kana_city":"ｶﾝﾗｸﾞﾝﾅﾝﾓｸﾑﾗ","kana_address":"ﾑｸﾙﾏ","pref":"群馬県","city":"甘楽郡南牧村","address":"六車"},
{"zip_code":"3702200","kana_pref":"ｸﾞﾝﾏｹﾝ","kana_city":"ｶﾝﾗｸﾞﾝｶﾝﾗﾏﾁ","kana_address":"","pref":"群馬県","city":"甘楽郡甘楽町","address":""},
{"zip_code":"3702204","kana_pref":"ｸﾞﾝﾏｹﾝ","kana_city":"ｶﾝﾗｸﾞﾝｶﾝﾗﾏﾁ","kana_address":"ｱｷﾊﾀ","pref":"群馬県","city":"甘楽郡甘楽町","address":"秋畑"},
{"zip_code":"3702217","kana_pref":"ｸﾞﾝﾏｹﾝ","kana_city":"ｶﾝﾗｸﾞﾝｶﾝﾗﾏﾁ","kana_address":"ｱﾏﾋﾞｷ","pref":"群馬県","city":"甘楽郡甘楽町","address":"天引"},
{"zip_code":"3702201","kana_pref":"ｸﾞﾝﾏｹﾝ","kana_city":"ｶﾝﾗｸﾞﾝｶﾝﾗﾏﾁ","kana_address":"ｳｴﾉ","pref":"群馬県","city":"甘楽郡甘楽町","address":"上野"},
{"zip_code":"3702211","kana_pref":"ｸﾞﾝﾏｹﾝ","kana_city":"ｶﾝﾗｸﾞﾝｶﾝﾗﾏﾁ","kana_address":"ｵｶﾞﾜ","pref":"群馬県","city":"甘楽郡甘楽町","address":"小川"},
{"zip_code":"3702202","kana_pref":"ｸﾞﾝﾏｹﾝ","kana_city":"ｶﾝﾗｸﾞﾝｶﾝﾗﾏﾁ","kana_address":"ｵﾊﾞﾀ","pref":"群馬県","city":"甘楽郡甘楽町","address":"小幡"},
{"zip_code":"3702216","kana_pref":"ｸﾞﾝﾏｹﾝ","kana_city":"ｶﾝﾗｸﾞﾝｶﾝﾗﾏﾁ","kana_address":"ｶﾅｲ","pref":"群馬県","city":"甘楽郡甘楽町","address":"金井"},
{"zip_code":"3702205","kana_pref":"ｸﾞﾝﾏｹﾝ","kana_city":"ｶﾝﾗｸﾞﾝｶﾝﾗﾏﾁ","kana_address":"ｸﾆﾐﾈ","pref":"群馬県","city":"甘楽郡甘楽町","address":"国峰"},
{"zip_code":"3702213","kana_pref":"ｸﾞﾝﾏｹﾝ","kana_city":"ｶﾝﾗｸﾞﾝｶﾝﾗﾏﾁ","kana_address":"ｼﾗｸﾗ","pref":"群馬県","city":"甘楽郡甘楽町","address":"白倉"},
{"zip_code":"3702206","kana_pref":"ｸﾞﾝﾏｹﾝ","kana_city":"ｶﾝﾗｸﾞﾝｶﾝﾗﾏﾁ","kana_address":"ｾﾞﾝｹｲｼﾞ","pref":"群馬県","city":"甘楽郡甘楽町","address":"善慶寺"},
{"zip_code":"3702215","kana_pref":"ｸﾞﾝﾏｹﾝ","kana_city":"ｶﾝﾗｸﾞﾝｶﾝﾗﾏﾁ","kana_address":"ﾂｸﾘｲｼ","pref":"群馬県","city":"甘楽郡甘楽町","address":"造石"},
{"zip_code":"3702203","kana_pref":"ｸﾞﾝﾏｹﾝ","kana_city":"ｶﾝﾗｸﾞﾝｶﾝﾗﾏﾁ","kana_address":"ﾄﾄﾞﾛｸ","pref":"群馬県","city":"甘楽郡甘楽町","address":"轟"},
{"zip_code":"3702214","kana_pref":"ｸﾞﾝﾏｹﾝ","kana_city":"ｶﾝﾗｸﾞﾝｶﾝﾗﾏﾁ","kana_address":"ﾆﾜﾔ","pref":"群馬県","city":"甘楽郡甘楽町","address":"庭谷"},
{"zip_code":"3702212","kana_pref":"ｸﾞﾝﾏｹﾝ","kana_city":"ｶﾝﾗｸﾞﾝｶﾝﾗﾏﾁ","kana_address":"ﾌｸｼﾏ","pref":"群馬県","city":"甘楽郡甘楽町","address":"福島"},
{"zip_code":"3703321","kana_pref":"ｸﾞﾝﾏｹﾝ","kana_city":"ｱｶﾞﾂﾏｸﾞﾝﾋｶﾞｼｱｶﾞﾂﾏﾏﾁ","kana_address":"Array","pref":"群馬県","city":"吾妻郡東吾妻町","address":"泉沢"},
{"zip_code":"3703311","kana_pref":"ｸﾞﾝﾏｹﾝ","kana_city":"ｱｶﾞﾂﾏｸﾞﾝﾋｶﾞｼｱｶﾞﾂﾏﾏﾁ","kana_address":"ｵｶｻﾞｷ","pref":"群馬県","city":"吾妻郡東吾妻町","address":"岡崎"},
{"zip_code":"3703322","kana_pref":"ｸﾞﾝﾏｹﾝ","kana_city":"ｱｶﾞﾂﾏｸﾞﾝﾋｶﾞｼｱｶﾞﾂﾏﾏﾁ","kana_address":"ｶﾜﾄﾞ","pref":"群馬県","city":"吾妻郡東吾妻町","address":"川戸"},
{"zip_code":"3701100","kana_pref":"ｸﾞﾝﾏｹﾝ","kana_city":"ｻﾜｸﾞﾝﾀﾏﾑﾗﾏﾁ","kana_address":"","pref":"群馬県","city":"佐波郡玉村町","address":""},
{"zip_code":"3701116","kana_pref":"ｸﾞﾝﾏｹﾝ","kana_city":"ｻﾜｸﾞﾝﾀﾏﾑﾗﾏﾁ","kana_address":"ｲｲｸﾞﾗ","pref":"群馬県","city":"佐波郡玉村町","address":"飯倉"},
{"zip_code":"3701102","kana_pref":"ｸﾞﾝﾏｹﾝ","kana_city":"ｻﾜｸﾞﾝﾀﾏﾑﾗﾏﾁ","kana_address":"ｲｲﾂﾞｶ","pref":"群馬県","city":"佐波郡玉村町","address":"飯塚"},
{"zip_code":"3701135","kana_pref":"ｸﾞﾝﾏｹﾝ","kana_city":"ｻﾜｸﾞﾝﾀﾏﾑﾗﾏﾁ","kana_address":"ｲﾀｲ","pref":"群馬県","city":"佐波郡玉村町","address":"板井"},
{"zip_code":"3701126","kana_pref":"ｸﾞﾝﾏｹﾝ","kana_city":"ｻﾜｸﾞﾝﾀﾏﾑﾗﾏﾁ","kana_address":"ｳﾇｷ","pref":"群馬県","city":"佐波郡玉村町","address":"宇貫"},
{"zip_code":"3701121","kana_pref":"ｸﾞﾝﾏｹﾝ","kana_city":"ｻﾜｸﾞﾝﾀﾏﾑﾗﾏﾁ","kana_address":"ｶﾐｲｲｼﾞﾏ","pref":"群馬県","city":"佐波郡玉村町","address":"上飯島"},
{"zip_code":"3701133","kana_pref":"ｸﾞﾝﾏｹﾝ","kana_city":"ｻﾜｸﾞﾝﾀﾏﾑﾗﾏﾁ","kana_address":"ｶﾐｼﾝﾃﾞﾝ","pref":"群馬県","city":"佐波郡玉村町","address":"上新田"},
{"zip_code":"3701127","kana_pref":"ｸﾞﾝﾏｹﾝ","kana_city":"ｻﾜｸﾞﾝﾀﾏﾑﾗﾏﾁ","kana_address":"ｶﾐﾉﾃ","pref":"群馬県","city":"佐波郡玉村町","address":"上之手"},
{"zip_code":"3701104","kana_pref":"ｸﾞﾝﾏｹﾝ","kana_city":"ｻﾜｸﾞﾝﾀﾏﾑﾗﾏﾁ","kana_address":"ｶﾐﾌｸｼﾏ","pref":"群馬県","city":"佐波郡玉村町","address":"上福島"},
{"zip_code":"3701122","kana_pref":"ｸﾞﾝﾏｹﾝ","kana_city":"ｻﾜｸﾞﾝﾀﾏﾑﾗﾏﾁ","kana_address":"ｶﾐﾓｷﾞ","pref":"群馬県","city":"佐波郡玉村町","address":"上茂木"},
{"zip_code":"3701117","kana_pref":"ｸﾞﾝﾏｹﾝ","kana_city":"ｻﾜｸﾞﾝﾀﾏﾑﾗﾏﾁ","kana_address":"ｶﾜｲ","pref":"群馬県","city":"佐波郡玉村町","address":"川井"},
{"zip_code":"3701114","kana_pref":"ｸﾞﾝﾏｹﾝ","kana_city":"ｻﾜｸﾞﾝﾀﾏﾑﾗﾏﾁ","kana_address":"ｺｲｽﾞﾐ","pref":"群馬県","city":"佐波郡玉村町","address":"小泉"},
{"zip_code":"3701128","kana_pref":"ｸﾞﾝﾏｹﾝ","kana_city":"ｻﾜｸﾞﾝﾀﾏﾑﾗﾏﾁ","kana_address":"ｺﾞｶ","pref":"群馬県","city":"佐波郡玉村町","address":"後箇"},
{"zip_code":"3701115","kana_pref":"ｸﾞﾝﾏｹﾝ","kana_city":"ｻﾜｸﾞﾝﾀﾏﾑﾗﾏﾁ","kana_address":"ｺﾞﾘｮｳ","pref":"群馬県","city":"佐波郡玉村町","address":"五料"},
{"zip_code":"3701131","kana_pref":"ｸﾞﾝﾏｹﾝ","kana_city":"ｻﾜｸﾞﾝﾀﾏﾑﾗﾏﾁ","kana_address":"ｻｲﾀﾞ","pref":"群馬県","city":"佐波郡玉村町","address":"斉田"},
{"zip_code":"3701132","kana_pref":"ｸﾞﾝﾏｹﾝ","kana_city":"ｻﾜｸﾞﾝﾀﾏﾑﾗﾏﾁ","kana_address":"ｼﾓｼﾝﾃﾞﾝ","pref":"群馬県","city":"佐波郡玉村町","address":"下新田"},
{"zip_code":"3701112","kana_pref":"ｸﾞﾝﾏｹﾝ","kana_city":"ｻﾜｸﾞﾝﾀﾏﾑﾗﾏﾁ","kana_address":"ｼﾓﾉﾐﾔ","pref":"群馬県","city":"佐波郡玉村町","address":"下之宮"},
{"zip_code":"3701123","kana_pref":"ｸﾞﾝﾏｹﾝ","kana_city":"ｻﾜｸﾞﾝﾀﾏﾑﾗﾏﾁ","kana_address":"ｼﾓﾓｷﾞ","pref":"群馬県","city":"佐波郡玉村町","address":"下茂木"},
{"zip_code":"3701124","kana_pref":"ｸﾞﾝﾏｹﾝ","kana_city":"ｻﾜｸﾞﾝﾀﾏﾑﾗﾏﾁ","kana_address":"ﾂﾉﾌﾞﾁ","pref":"群馬県","city":"佐波郡玉村町","address":"角淵"},
{"zip_code":"3701111","kana_pref":"ｸﾞﾝﾏｹﾝ","kana_city":"ｻﾜｸﾞﾝﾀﾏﾑﾗﾏﾁ","kana_address":"ﾅﾝｷﾞｮｸ","pref":"群馬県","city":"佐波郡玉村町","address":"南玉"},
{"zip_code":"3701113","kana_pref":"ｸﾞﾝﾏｹﾝ","kana_city":"ｻﾜｸﾞﾝﾀﾏﾑﾗﾏﾁ","kana_address":"ﾊｺｲｼ","pref":"群馬県","city":"佐波郡玉村町","address":"箱石"},
{"zip_code":"3701103","kana_pref":"ｸﾞﾝﾏｹﾝ","kana_city":"ｻﾜｸﾞﾝﾀﾏﾑﾗﾏﾁ","kana_address":"ﾋｺﾞｼ","pref":"群馬県","city":"佐波郡玉村町","address":"樋越"},
{"zip_code":"3701105","kana_pref":"ｸﾞﾝﾏｹﾝ","kana_city":"ｻﾜｸﾞﾝﾀﾏﾑﾗﾏﾁ","kana_address":"ﾌｸｼﾞﾏ","pref":"群馬県","city":"佐波郡玉村町","address":"福島"},
{"zip_code":"3701101","kana_pref":"ｸﾞﾝﾏｹﾝ","kana_city":"ｻﾜｸﾞﾝﾀﾏﾑﾗﾏﾁ","kana_address":"ﾌｼﾞｶﾜ","pref":"群馬県","city":"佐波郡玉村町","address":"藤川"},
{"zip_code":"3701125","kana_pref":"ｸﾞﾝﾏｹﾝ","kana_city":"ｻﾜｸﾞﾝﾀﾏﾑﾗﾏﾁ","kana_address":"ﾔﾜﾀﾊﾞﾗ","pref":"群馬県","city":"佐波郡玉村町","address":"八幡原"},
{"zip_code":"3701134","kana_pref":"ｸﾞﾝﾏｹﾝ","kana_city":"ｻﾜｸﾞﾝﾀﾏﾑﾗﾏﾁ","kana_address":"ﾖﾛｸﾌﾞ","pref":"群馬県","city":"佐波郡玉村町","address":"与六分"},
{"zip_code":"3700700","kana_pref":"ｸﾞﾝﾏｹﾝ","kana_city":"ｵｳﾗｸﾞﾝﾒｲﾜﾏﾁ","kana_address":"","pref":"群馬県","city":"邑楽郡明和町","address":""},
{"zip_code":"3700711","kana_pref":"ｸﾞﾝﾏｹﾝ","kana_city":"ｵｳﾗｸﾞﾝﾒｲﾜﾏﾁ","kana_address":"ｲﾘｶﾔ","pref":"群馬県","city":"邑楽郡明和町","address":"入ケ谷"},
{"zip_code":"3700714","kana_pref":"ｸﾞﾝﾏｹﾝ","kana_city":"ｵｳﾗｸﾞﾝﾒｲﾜﾏﾁ","kana_address":"ｳﾒﾊﾞﾗ","pref":"群馬県","city":"邑楽郡明和町","address":"梅原"},
{"zip_code":"3700706","kana_pref":"ｸﾞﾝﾏｹﾝ","kana_city":"ｵｳﾗｸﾞﾝﾒｲﾜﾏﾁ","kana_address":"ｴｸﾞﾁ","pref":"群馬県","city":"邑楽郡明和町","address":"江口"},
{"zip_code":"3700715","kana_pref":"ｸﾞﾝﾏｹﾝ","kana_city":"ｵｳﾗｸﾞﾝﾒｲﾜﾏﾁ","kana_address":"ｵｵｻﾞﾇｷ","pref":"群馬県","city":"邑楽郡明和町","address":"大佐貫"},
{"zip_code":"3700718","kana_pref":"ｸﾞﾝﾏｹﾝ","kana_city":"ｵｳﾗｸﾞﾝﾒｲﾜﾏﾁ","kana_address":"ｵｵﾜ","pref":"群馬県","city":"邑楽郡明和町","address":"大輪"},
{"zip_code":"3700702","kana_pref":"ｸﾞﾝﾏｹﾝ","kana_city":"ｵｳﾗｸﾞﾝﾒｲﾜﾏﾁ","kana_address":"ｶﾐｴｸﾞﾛ","pref":"群馬県","city":"邑楽郡明和町","address":"上江黒"},
{"zip_code":"3700716","kana_pref":"ｸﾞﾝﾏｹﾝ","kana_city":"ｵｳﾗｸﾞﾝﾒｲﾜﾏﾁ","kana_address":"ｶﾜﾏﾀ","pref":"群馬県","city":"邑楽郡明和町","address":"川俣"},
{"zip_code":"3700703","kana_pref":"ｸﾞﾝﾏｹﾝ","kana_city":"ｵｳﾗｸﾞﾝﾒｲﾜﾏﾁ","kana_address":"ｼﾓｴｸﾞﾛ","pref":"群馬県","city":"邑楽郡明和町","address":"下江黒"},
{"zip_code":"3700717","kana_pref":"ｸﾞﾝﾏｹﾝ","kana_city":"ｵｳﾗｸﾞﾝﾒｲﾜﾏﾁ","kana_address":"ｽｶ","pref":"群馬県","city":"邑楽郡明和町","address":"須賀"},
{"zip_code":"3700705","kana_pref":"ｸﾞﾝﾏｹﾝ","kana_city":"ｵｳﾗｸﾞﾝﾒｲﾜﾏﾁ","kana_address":"ｾﾝﾂﾞｲ","pref":"群馬県","city":"邑楽郡明和町","address":"千津井"},
{"zip_code":"3700707","kana_pref":"ｸﾞﾝﾏｹﾝ","kana_city":"ｵｳﾗｸﾞﾝﾒｲﾜﾏﾁ","kana_address":"ﾀｼﾞﾏ","pref":"群馬県","city":"邑楽郡明和町","address":"田島"},
{"zip_code":"3700704","kana_pref":"ｸﾞﾝﾏｹﾝ","kana_city":"ｵｳﾗｸﾞﾝﾒｲﾜﾏﾁ","kana_address":"ﾄｺﾞｳﾀ","pref":"群馬県","city":"邑楽郡明和町","address":"斗合田"},
{"zip_code":"3700713","kana_pref":"ｸﾞﾝﾏｹﾝ","kana_city":"ｵｳﾗｸﾞﾝﾒｲﾜﾏﾁ","kana_address":"ﾅｶﾔ","pref":"群馬県","city":"邑楽郡明和町","address":"中谷"},
{"zip_code":"3700708","kana_pref":"ｸﾞﾝﾏｹﾝ","kana_city":"ｵｳﾗｸﾞﾝﾒｲﾜﾏﾁ","kana_address":"ﾆｯｻﾄ","pref":"群馬県","city":"邑楽郡明和町","address":"新里"},
{"zip_code":"3700701","kana_pref":"ｸﾞﾝﾏｹﾝ","kana_city":"ｵｳﾗｸﾞﾝﾒｲﾜﾏﾁ","kana_address":"ﾐﾅﾐｵｵｼﾏ","pref":"群馬県","city":"邑楽郡明和町","address":"南大島"},
{"zip_code":"3700712","kana_pref":"ｸﾞﾝﾏｹﾝ","kana_city":"ｵｳﾗｸﾞﾝﾒｲﾜﾏﾁ","kana_address":"ﾔｼﾞﾏ","pref":"群馬県","city":"邑楽郡明和町","address":"矢島"},
{"zip_code":"3700500","kana_pref":"ｸﾞﾝﾏｹﾝ","kana_city":"ｵｳﾗｸﾞﾝﾁﾖﾀﾞﾏﾁ","kana_address":"","pref":"群馬県","city":"邑楽郡千代田町","address":""},
{"zip_code":"3700503","kana_pref":"ｸﾞﾝﾏｹﾝ","kana_city":"ｵｳﾗｸﾞﾝﾁﾖﾀﾞﾏﾁ","kana_address":"ｱｶｲﾜ","pref":"群馬県","city":"邑楽郡千代田町","address":"赤岩"},
{"zip_code":"3700726","kana_pref":"ｸﾞﾝﾏｹﾝ","kana_city":"ｵｳﾗｸﾞﾝﾁﾖﾀﾞﾏﾁ","kana_address":"ｶﾐｺﾞｶ","pref":"群馬県","city":"邑楽郡千代田町","address":"上五箇"},
{"zip_code":"3700725","kana_pref":"ｸﾞﾝﾏｹﾝ","kana_city":"ｵｳﾗｸﾞﾝﾁﾖﾀﾞﾏﾁ","kana_address":"ｶﾐﾅｶﾓﾘ","pref":"群馬県","city":"邑楽郡千代田町","address":"上中森"},
{"zip_code":"3700722","kana_pref":"ｸﾞﾝﾏｹﾝ","kana_city":"ｵｳﾗｸﾞﾝﾁﾖﾀﾞﾏﾁ","kana_address":"ｶﾔﾉ","pref":"群馬県","city":"邑楽郡千代田町","address":"萱野"},
{"zip_code":"3700721","kana_pref":"ｸﾞﾝﾏｹﾝ","kana_city":"ｵｳﾗｸﾞﾝﾁﾖﾀﾞﾏﾁ","kana_address":"ｷｻﾞｷ","pref":"群馬県","city":"邑楽郡千代田町","address":"木崎"},
{"zip_code":"3700724","kana_pref":"ｸﾞﾝﾏｹﾝ","kana_city":"ｵｳﾗｸﾞﾝﾁﾖﾀﾞﾏﾁ","kana_address":"ｼﾓﾅｶﾓﾘ","pref":"群馬県","city":"邑楽郡千代田町","address":"下中森"},
{"zip_code":"3700723","kana_pref":"ｸﾞﾝﾏｹﾝ","kana_city":"ｵｳﾗｸﾞﾝﾁﾖﾀﾞﾏﾁ","kana_address":"ｼｮｳﾜ","pref":"群馬県","city":"邑楽郡千代田町","address":"昭和"},
{"zip_code":"3700505","kana_pref":"ｸﾞﾝﾏｹﾝ","kana_city":"ｵｳﾗｸﾞﾝﾁﾖﾀﾞﾏﾁ","kana_address":"ｼﾝﾌﾟｸｼﾞ","pref":"群馬県","city":"邑楽郡千代田町","address":"新福寺"},
{"zip_code":"3700727","kana_pref":"ｸﾞﾝﾏｹﾝ","kana_city":"ｵｳﾗｸﾞﾝﾁﾖﾀﾞﾏﾁ","kana_address":"ｾﾄﾞｲ","pref":"群馬県","city":"邑楽郡千代田町","address":"瀬戸井"},
{"zip_code":"3700502","kana_pref":"ｸﾞﾝﾏｹﾝ","kana_city":"ｵｳﾗｸﾞﾝﾁﾖﾀﾞﾏﾁ","kana_address":"ﾅﾍﾞﾔ","pref":"群馬県","city":"邑楽郡千代田町","address":"鍋谷"},
{"zip_code":"3700501","kana_pref":"ｸﾞﾝﾏｹﾝ","kana_city":"ｵｳﾗｸﾞﾝﾁﾖﾀﾞﾏﾁ","kana_address":"ﾌｸｼﾞﾏ","pref":"群馬県","city":"邑楽郡千代田町","address":"福島"},
{"zip_code":"3700504","kana_pref":"ｸﾞﾝﾏｹﾝ","kana_city":"ｵｳﾗｸﾞﾝﾁﾖﾀﾞﾏﾁ","kana_address":"ﾏｲｷﾞ","pref":"群馬県","city":"邑楽郡千代田町","address":"舞木"},
{"zip_code":"3700500","kana_pref":"ｸﾞﾝﾏｹﾝ","kana_city":"ｵｳﾗｸﾞﾝｵｵｲｽﾞﾐﾏﾁ","kana_address":"","pref":"群馬県","city":"邑楽郡大泉町","address":""},
{"zip_code":"3700514","kana_pref":"ｸﾞﾝﾏｹﾝ","kana_city":"ｵｳﾗｸﾞﾝｵｵｲｽﾞﾐﾏﾁ","kana_address":"ｱｻﾋ","pref":"群馬県","city":"邑楽郡大泉町","address":"朝日"},
{"zip_code":"3700531","kana_pref":"ｸﾞﾝﾏｹﾝ","kana_city":"ｵｳﾗｸﾞﾝｵｵｲｽﾞﾐﾏﾁ","kana_address":"ｲｽﾞﾐ","pref":"群馬県","city":"邑楽郡大泉町","address":"いずみ"},
{"zip_code":"3700534","kana_pref":"ｸﾞﾝﾏｹﾝ","kana_city":"ｵｳﾗｸﾞﾝｵｵｲｽﾞﾐﾏﾁ","kana_address":"ｵｶﾔﾏ","pref":"群馬県","city":"邑楽郡大泉町","address":"丘山"},
{"zip_code":"3700512","kana_pref":"ｸﾞﾝﾏｹﾝ","kana_city":"ｵｳﾗｸﾞﾝｵｵｲｽﾞﾐﾏﾁ","kana_address":"ｶﾐｺｲｽﾞﾐ","pref":"群馬県","city":"邑楽郡大泉町","address":"上小泉"},
{"zip_code":"3700511","kana_pref":"ｸﾞﾝﾏｹﾝ","kana_city":"ｵｳﾗｸﾞﾝｵｵｲｽﾞﾐﾏﾁ","kana_address":"ｷﾀｺｲｽﾞﾐ","pref":"群馬県","city":"邑楽郡大泉町","address":"北小泉"},
{"zip_code":"3700524","kana_pref":"ｸﾞﾝﾏｹﾝ","kana_city":"ｵｳﾗｸﾞﾝｵｵｲｽﾞﾐﾏﾁ","kana_address":"ｺｶｲ","pref":"群馬県","city":"邑楽郡大泉町","address":"古海"},
{"zip_code":"3700532","kana_pref":"ｸﾞﾝﾏｹﾝ","kana_city":"ｵｳﾗｸﾞﾝｵｵｲｽﾞﾐﾏﾁ","kana_address":"ｻｶﾀﾞ","pref":"群馬県","city":"邑楽郡大泉町","address":"坂田"},
{"zip_code":"3700515","kana_pref":"ｸﾞﾝﾏｹﾝ","kana_city":"ｵｳﾗｸﾞﾝｵｵｲｽﾞﾐﾏﾁ","kana_address":"ｼﾓｺｲｽﾞﾐ","pref":"群馬県","city":"邑楽郡大泉町","address":"下小泉"},
{"zip_code":"3700518","kana_pref":"ｸﾞﾝﾏｹﾝ","kana_city":"ｵｳﾗｸﾞﾝｵｵｲｽﾞﾐﾏﾁ","kana_address":"ｼﾛﾉｳﾁ","pref":"群馬県","city":"邑楽郡大泉町","address":"城之内"},
{"zip_code":"3700521","kana_pref":"ｸﾞﾝﾏｹﾝ","kana_city":"ｵｳﾗｸﾞﾝｵｵｲｽﾞﾐﾏﾁ","kana_address":"ｽﾐﾖｼ","pref":"群馬県","city":"邑楽郡大泉町","address":"住吉"},
{"zip_code":"3700533","kana_pref":"ｸﾞﾝﾏｹﾝ","kana_city":"ｵｳﾗｸﾞﾝｵｵｲｽﾞﾐﾏﾁ","kana_address":"ｾﾝｺﾞｸ","pref":"群馬県","city":"邑楽郡大泉町","address":"仙石"},
{"zip_code":"3700516","kana_pref":"ｸﾞﾝﾏｹﾝ","kana_city":"ｵｳﾗｸﾞﾝｵｵｲｽﾞﾐﾏﾁ","kana_address":"ﾁｭｳｵｳ","pref":"群馬県","city":"邑楽郡大泉町","address":"中央"},
{"zip_code":"3700517","kana_pref":"ｸﾞﾝﾏｹﾝ","kana_city":"ｵｳﾗｸﾞﾝｵｵｲｽﾞﾐﾏﾁ","kana_address":"ﾆｼｺｲｽﾞﾐ","pref":"群馬県","city":"邑楽郡大泉町","address":"西小泉"},
{"zip_code":"3700513","kana_pref":"ｸﾞﾝﾏｹﾝ","kana_city":"ｵｳﾗｸﾞﾝｵｵｲｽﾞﾐﾏﾁ","kana_address":"ﾋｶﾞｼｺｲｽﾞﾐ","pref":"群馬県","city":"邑楽郡大泉町","address":"東小泉"},
{"zip_code":"3700525","kana_pref":"ｸﾞﾝﾏｹﾝ","kana_city":"ｵｳﾗｸﾞﾝｵｵｲｽﾞﾐﾏﾁ","kana_address":"ﾋﾉﾃﾞ","pref":"群馬県","city":"邑楽郡大泉町","address":"日の出"},
{"zip_code":"3700522","kana_pref":"ｸﾞﾝﾏｹﾝ","kana_city":"ｵｳﾗｸﾞﾝｵｵｲｽﾞﾐﾏﾁ","kana_address":"ﾌｼﾞ","pref":"群馬県","city":"邑楽郡大泉町","address":"富士"},
{"zip_code":"3700536","kana_pref":"ｸﾞﾝﾏｹﾝ","kana_city":"ｵｳﾗｸﾞﾝｵｵｲｽﾞﾐﾏﾁ","kana_address":"ﾌﾙｺｵﾘ","pref":"群馬県","city":"邑楽郡大泉町","address":"古氷"},
{"zip_code":"3700523","kana_pref":"ｸﾞﾝﾏｹﾝ","kana_city":"ｵｳﾗｸﾞﾝｵｵｲｽﾞﾐﾏﾁ","kana_address":"ﾖｼﾀﾞ","pref":"群馬県","city":"邑楽郡大泉町","address":"吉田"},
{"zip_code":"3700535","kana_pref":"ｸﾞﾝﾏｹﾝ","kana_city":"ｵｳﾗｸﾞﾝｵｵｲｽﾞﾐﾏﾁ","kana_address":"ﾖﾘｷﾄﾞ","pref":"群馬県","city":"邑楽郡大泉町","address":"寄木戸"},
{"zip_code":"3700600","kana_pref":"ｸﾞﾝﾏｹﾝ","kana_city":"ｵｳﾗｸﾞﾝｵｳﾗﾏﾁ","kana_address":"","pref":"群馬県","city":"邑楽郡邑楽町","address":""},
{"zip_code":"3700614","kana_pref":"ｸﾞﾝﾏｹﾝ","kana_city":"ｵｳﾗｸﾞﾝｵｳﾗﾏﾁ","kana_address":"ｱｶﾎﾘ","pref":"群馬県","city":"邑楽郡邑楽町","address":"赤堀"},
{"zip_code":"3700606","kana_pref":"ｸﾞﾝﾏｹﾝ","kana_city":"ｵｳﾗｸﾞﾝｵｳﾗﾏﾁ","kana_address":"ｱｷﾂﾞﾏ","pref":"群馬県","city":"邑楽郡邑楽町","address":"秋妻"},
{"zip_code":"3700602","kana_pref":"ｸﾞﾝﾏｹﾝ","kana_city":"ｵｳﾗｸﾞﾝｵｳﾗﾏﾁ","kana_address":"ｱｹﾉ","pref":"群馬県","city":"邑楽郡邑楽町","address":"明野"},
{"zip_code":"3700604","kana_pref":"ｸﾞﾝﾏｹﾝ","kana_city":"ｵｳﾗｸﾞﾝｵｳﾗﾏﾁ","kana_address":"ｲｼｳﾁ","pref":"群馬県","city":"邑楽郡邑楽町","address":"石打"},
{"zip_code":"3700601","kana_pref":"ｸﾞﾝﾏｹﾝ","kana_city":"ｵｳﾗｸﾞﾝｵｳﾗﾏﾁ","kana_address":"ｳｽﾞﾗ","pref":"群馬県","city":"邑楽郡邑楽町","address":"鶉"},
{"zip_code":"3700611","kana_pref":"ｸﾞﾝﾏｹﾝ","kana_city":"ｵｳﾗｸﾞﾝｵｳﾗﾏﾁ","kana_address":"ｳｽﾞﾗｼﾝﾃﾞﾝ","pref":"群馬県","city":"邑楽郡邑楽町","address":"鶉新田"},
{"zip_code":"3700616","kana_pref":"ｸﾞﾝﾏｹﾝ","kana_city":"ｵｳﾗｸﾞﾝｵｳﾗﾏﾁ","kana_address":"ｺｳｾﾞﾝｼﾞ","pref":"群馬県","city":"邑楽郡邑楽町","address":"光善寺"},
{"zip_code":"3700615","kana_pref":"ｸﾞﾝﾏｹﾝ","kana_city":"ｵｳﾗｸﾞﾝｵｳﾗﾏﾁ","kana_address":"ｼﾉﾂﾞｶ","pref":"群馬県","city":"邑楽郡邑楽町","address":"篠塚"},
{"zip_code":"3700612","kana_pref":"ｸﾞﾝﾏｹﾝ","kana_city":"ｵｳﾗｸﾞﾝｵｳﾗﾏﾁ","kana_address":"ｼﾝﾅｶﾉ","pref":"群馬県","city":"邑楽郡邑楽町","address":"新中野"},
{"zip_code":"3700603","kana_pref":"ｸﾞﾝﾏｹﾝ","kana_city":"ｵｳﾗｸﾞﾝｵｳﾗﾏﾁ","kana_address":"ﾅｶﾉ","pref":"群馬県","city":"邑楽郡邑楽町","address":"中野"},
{"zip_code":"3700605","kana_pref":"ｸﾞﾝﾏｹﾝ","kana_city":"ｵｳﾗｸﾞﾝｵｳﾗﾏﾁ","kana_address":"ﾌｼﾞｶﾜ","pref":"群馬県","city":"邑楽郡邑楽町","address":"藤川"},
{"zip_code":"3700613","kana_pref":"ｸﾞﾝﾏｹﾝ","kana_city":"ｵｳﾗｸﾞﾝｵｳﾗﾏﾁ","kana_address":"ﾑｼﾞﾅﾂﾞｶ","pref":"群馬県","city":"邑楽郡邑楽町","address":"狸塚"}]}