{"zip_code":[
{"zip_code":"3710000","kana_pref":"ｸﾞﾝﾏｹﾝ","kana_city":"ﾏｴﾊﾞｼｼ","kana_address":"","pref":"群馬県","city":"前橋市","address":""},
{"zip_code":"3710826","kana_pref":"ｸﾞﾝﾏｹﾝ","kana_city":"ﾏｴﾊﾞｼｼ","kana_address":"ｱｵﾊﾞﾁｮｳ","pref":"群馬県","city":"前橋市","address":"青葉町"},
{"zip_code":"3710056","kana_pref":"ｸﾞﾝﾏｹﾝ","kana_city":"ﾏｴﾊﾞｼｼ","kana_address":"ｱｵﾔｷﾞﾏﾁ","pref":"群馬県","city":"前橋市","address":"青柳町"},
{"zip_code":"3710811","kana_pref":"ｸﾞﾝﾏｹﾝ","kana_city":"ﾏｴﾊﾞｼｼ","kana_address":"ｱｻｸﾗﾏﾁ","pref":"群馬県","city":"前橋市","address":"朝倉町"},
{"zip_code":"3710832","kana_pref":"ｸﾞﾝﾏｹﾝ","kana_city":"ﾏｴﾊﾞｼｼ","kana_address":"ｱｻﾋｶﾞｵｶﾏﾁ","pref":"群馬県","city":"前橋市","address":"朝日が丘町"},
{"zip_code":"3710014","kana_pref":"ｸﾞﾝﾏｹﾝ","kana_city":"ﾏｴﾊﾞｼｼ","kana_address":"ｱｻﾋﾁｮｳ","pref":"群馬県","city":"前橋市","address":"朝日町"},
{"zip_code":"3710803","kana_pref":"ｸﾞﾝﾏｹﾝ","kana_city":"ﾏｴﾊﾞｼｼ","kana_address":"ｱﾏｶﾞﾜﾊﾞﾗﾏﾁ","pref":"群馬県","city":"前橋市","address":"天川原町"},
{"zip_code":"3710802","kana_pref":"ｸﾞﾝﾏｹﾝ","kana_city":"ﾏｴﾊﾞｼｼ","kana_address":"ｱﾏｶﾞﾜﾏﾁ","pref":"群馬県","city":"前橋市","address":"天川町"},
{"zip_code":"3710044","kana_pref":"ｸﾞﾝﾏｹﾝ","kana_city":"ﾏｴﾊﾞｼｼ","kana_address":"ｱﾗﾏｷﾏﾁ","pref":"群馬県","city":"前橋市","address":"荒牧町"},
{"zip_code":"3710841","kana_pref":"ｸﾞﾝﾏｹﾝ","kana_city":"ﾏｴﾊﾞｼｼ","kana_address":"ｲｼｸﾗﾏﾁ","pref":"群馬県","city":"前橋市","address":"石倉町"},
{"zip_code":"3710006","kana_pref":"ｸﾞﾝﾏｹﾝ","kana_city":"ﾏｴﾊﾞｼｼ","kana_address":"ｲｼｾﾞｷﾏﾁ","pref":"群馬県","city":"前橋市","address":"石関町"},
{"zip_code":"3710245","kana_pref":"ｸﾞﾝﾏｹﾝ","kana_city":"ﾏｴﾊﾞｼｼ","kana_address":"ｲﾁﾉｾｷﾏﾁ","pref":"群馬県","city":"前橋市","address":"市之関町"},
{"zip_code":"3710035","kana_pref":"ｸﾞﾝﾏｹﾝ","kana_city":"ﾏｴﾊﾞｼｼ","kana_address":"ｲﾜｶﾞﾐﾏﾁ","pref":"群馬県","city":"前橋市","address":"岩神町"},
{"zip_code":"3710002","kana_pref":"ｸﾞﾝﾏｹﾝ","kana_city":"ﾏｴﾊﾞｼｼ","kana_address":"ｴｷﾞﾏﾁ","pref":"群馬県","city":"前橋市","address":"江木町"},
{"zip_code":"3710836","kana_pref":"ｸﾞﾝﾏｹﾝ","kana_city":"ﾏｴﾊﾞｼｼ","kana_address":"ｴﾀﾞﾏﾁ","pref":"群馬県","city":"前橋市","address":"江田町"},
{"zip_code":"3710223","kana_pref":"ｸﾞﾝﾏｹﾝ","kana_city":"ﾏｴﾊﾞｼｼ","kana_address":"ｵｵｺﾞﾏﾁ","pref":"群馬県","city":"前橋市","address":"大胡町"},
{"zip_code":"3710026","kana_pref":"ｸﾞﾝﾏｹﾝ","kana_city":"ﾏｴﾊﾞｼｼ","kana_address":"ｵｵﾃﾏﾁ","pref":"群馬県","city":"前橋市","address":"大手町"},
{"zip_code":"3710825","kana_pref":"ｸﾞﾝﾏｹﾝ","kana_city":"ﾏｴﾊﾞｼｼ","kana_address":"ｵｵﾄﾈﾏﾁ","pref":"群馬県","city":"前橋市","address":"大利根町"},
{"zip_code":"3710847","kana_pref":"ｸﾞﾝﾏｹﾝ","kana_city":"ﾏｴﾊﾞｼｼ","kana_address":"ｵｵﾄﾞﾓﾏﾁ","pref":"群馬県","city":"前橋市","address":"大友町"},
{"zip_code":"3710243","kana_pref":"ｸﾞﾝﾏｹﾝ","kana_city":"ﾏｴﾊﾞｼｼ","kana_address":"ｵｵﾏｴﾀﾏﾁ","pref":"群馬県","city":"前橋市","address":"大前田町"},
{"zip_code":"3710854","kana_pref":"ｸﾞﾝﾏｹﾝ","kana_city":"ﾏｴﾊﾞｼｼ","kana_address":"ｵｵﾜﾀﾘﾏﾁ","pref":"群馬県","city":"前橋市","address":"大渡町"},
{"zip_code":"3710001","kana_pref":"ｸﾞﾝﾏｹﾝ","kana_city":"ﾏｴﾊﾞｼｼ","kana_address":"ｵｷﾞｸﾎﾞﾏﾁ","pref":"群馬県","city":"前橋市","address":"荻窪町"},
{"zip_code":"3710024","kana_pref":"ｸﾞﾝﾏｹﾝ","kana_city":"ﾏｴﾊﾞｼｼ","kana_address":"ｵﾓﾃﾁｮｳ","pref":"群馬県","city":"前橋市","address":"表町"},
{"zip_code":"3710246","kana_pref":"ｸﾞﾝﾏｹﾝ","kana_city":"ﾏｴﾊﾞｼｼ","kana_address":"ｶｼﾜｸﾞﾗﾏﾁ","pref":"群馬県","city":"前橋市","address":"柏倉町"},
{"zip_code":"3710206","kana_pref":"ｸﾞﾝﾏｹﾝ","kana_city":"ﾏｴﾊﾞｼｼ","kana_address":"ｶｽｶﾜﾏﾁｱﾗﾔ","pref":"群馬県","city":"前橋市","address":"粕川町新屋"},
{"zip_code":"3710207","kana_pref":"ｸﾞﾝﾏｹﾝ","kana_city":"ﾏｴﾊﾞｼｼ","kana_address":"ｶｽｶﾜﾏﾁｲﾅｻﾄ","pref":"群馬県","city":"前橋市","address":"粕川町稲里"},
{"zip_code":"3710214","kana_pref":"ｸﾞﾝﾏｹﾝ","kana_city":"ﾏｴﾊﾞｼｼ","kana_address":"ｶｽｶﾜﾏﾁｵﾅﾌﾞﾁ","pref":"群馬県","city":"前橋市","address":"粕川町女渕"},
{"zip_code":"3710211","kana_pref":"ｸﾞﾝﾏｹﾝ","kana_city":"ﾏｴﾊﾞｼｼ","kana_address":"ｶｽｶﾜﾏﾁｶﾐﾋｶﾞｼﾀﾅﾎﾞ","pref":"群馬県","city":"前橋市","address":"粕川町上東田面"},
{"zip_code":"3710216","kana_pref":"ｸﾞﾝﾏｹﾝ","kana_city":"ﾏｴﾊﾞｼｼ","kana_address":"ｶｽｶﾜﾏﾁｺﾐｶﾞｲﾄ","pref":"群馬県","city":"前橋市","address":"粕川町込皆戸"},
{"zip_code":"3710212","kana_pref":"ｸﾞﾝﾏｹﾝ","kana_city":"ﾏｴﾊﾞｼｼ","kana_address":"ｶｽｶﾜﾏﾁｼﾓﾋｶﾞｼﾀﾅﾎﾞ","pref":"群馬県","city":"前橋市","address":"粕川町下東田面"},
{"zip_code":"3710204","kana_pref":"ｸﾞﾝﾏｹﾝ","kana_city":"ﾏｴﾊﾞｼｼ","kana_address":"ｶｽｶﾜﾏﾁｾﾞﾝ","pref":"群馬県","city":"前橋市","address":"粕川町膳"},
{"zip_code":"3710203","kana_pref":"ｸﾞﾝﾏｹﾝ","kana_city":"ﾏｴﾊﾞｼｼ","kana_address":"ｶｽｶﾜﾏﾁﾂｷﾀﾞ","pref":"群馬県","city":"前橋市","address":"粕川町月田"},
{"zip_code":"3710205","kana_pref":"ｸﾞﾝﾏｹﾝ","kana_city":"ﾏｴﾊﾞｼｼ","kana_address":"ｶｽｶﾜﾏﾁﾅｶ","pref":"群馬県","city":"前橋市","address":"粕川町中"},
{"zip_code":"3710201","kana_pref":"ｸﾞﾝﾏｹﾝ","kana_city":"ﾏｴﾊﾞｼｼ","kana_address":"ｶｽｶﾜﾏﾁﾅｶﾉｻﾜ","pref":"群馬県","city":"前橋市","address":"粕川町中之沢"},
{"zip_code":"3710217","kana_pref":"ｸﾞﾝﾏｹﾝ","kana_city":"ﾏｴﾊﾞｼｼ","kana_address":"ｶｽｶﾜﾏﾁﾆｼﾀﾅﾎﾞ","pref":"群馬県","city":"前橋市","address":"粕川町西田面"},
{"zip_code":"3710213","kana_pref":"ｸﾞﾝﾏｹﾝ","kana_city":"ﾏｴﾊﾞｼｼ","kana_address":"ｶｽｶﾜﾏﾁﾋﾄｲﾁ","pref":"群馬県","city":"前橋市","address":"粕川町一日市"},
{"zip_code":"3710215","kana_pref":"ｸﾞﾝﾏｹﾝ","kana_city":"ﾏｴﾊﾞｼｼ","kana_address":"ｶｽｶﾜﾏﾁﾌｶﾂﾞ","pref":"群馬県","city":"前橋市","address":"粕川町深津"},
{"zip_code":"3710218","kana_pref":"ｸﾞﾝﾏｹﾝ","kana_city":"ﾏｴﾊﾞｼｼ","kana_address":"ｶｽｶﾜﾏﾁﾏｴｶﾞｲﾄ","pref":"群馬県","city":"前橋市","address":"粕川町前皆戸"},
{"zip_code":"3710202","kana_pref":"ｸﾞﾝﾏｹﾝ","kana_city":"ﾏｴﾊﾞｼｼ","kana_address":"ｶｽｶﾜﾏﾁﾑﾛｻﾜ","pref":"群馬県","city":"前橋市","address":"粕川町室沢"},
{"zip_code":"3710124","kana_pref":"ｸﾞﾝﾏｹﾝ","kana_city":"ﾏｴﾊﾞｼｼ","kana_address":"ｶﾂｻﾜﾏﾁ","pref":"群馬県","city":"前橋市","address":"勝沢町"},
{"zip_code":"3710121","kana_pref":"ｸﾞﾝﾏｹﾝ","kana_city":"ﾏｴﾊﾞｼｼ","kana_address":"ｶﾅﾏﾙﾏﾁ","pref":"群馬県","city":"前橋市","address":"金丸町"},
{"zip_code":"3710007","kana_pref":"ｸﾞﾝﾏｹﾝ","kana_city":"ﾏｴﾊﾞｼｼ","kana_address":"ｶﾐｲｽﾞﾐﾏﾁ","pref":"群馬県","city":"前橋市","address":"上泉町"},
{"zip_code":"3710222","kana_pref":"ｸﾞﾝﾏｹﾝ","kana_city":"ﾏｴﾊﾞｼｼ","kana_address":"ｶﾐｵｵﾔﾏﾁ","pref":"群馬県","city":"前橋市","address":"上大屋町"},
{"zip_code":"3710052","kana_pref":"ｸﾞﾝﾏｹﾝ","kana_city":"ﾏｴﾊﾞｼｼ","kana_address":"ｶﾐｵｷﾏﾁ","pref":"群馬県","city":"前橋市","address":"上沖町"},
{"zip_code":"3710037","kana_pref":"ｸﾞﾝﾏｹﾝ","kana_city":"ﾏｴﾊﾞｼｼ","kana_address":"ｶﾐｺｲﾃﾞﾏﾁ","pref":"群馬県","city":"前橋市","address":"上小出町"},
{"zip_code":"3710816","kana_pref":"ｸﾞﾝﾏｹﾝ","kana_city":"ﾏｴﾊﾞｼｼ","kana_address":"ｶﾐｻﾄﾞﾘﾏﾁ","pref":"群馬県","city":"前橋市","address":"上佐鳥町"},
{"zip_code":"3710821","kana_pref":"ｸﾞﾝﾏｹﾝ","kana_city":"ﾏｴﾊﾞｼｼ","kana_address":"ｶﾐｼﾝﾃﾞﾝﾏﾁ","pref":"群馬県","city":"前橋市","address":"上新田町"},
{"zip_code":"3710051","kana_pref":"ｸﾞﾝﾏｹﾝ","kana_city":"ﾏｴﾊﾞｼｼ","kana_address":"ｶﾐﾎｿｲﾏﾁ","pref":"群馬県","city":"前橋市","address":"上細井町"},
{"zip_code":"3710004","kana_pref":"ｸﾞﾝﾏｹﾝ","kana_city":"ﾏｴﾊﾞｼｼ","kana_address":"ｶﾒｲｽﾞﾐﾏﾁ","pref":"群馬県","city":"前橋市","address":"亀泉町"},
{"zip_code":"3710041","kana_pref":"ｸﾞﾝﾏｹﾝ","kana_city":"ﾏｴﾊﾞｼｼ","kana_address":"ｶﾜﾊﾞﾀﾏﾁ","pref":"群馬県","city":"前橋市","address":"川端町"},
{"zip_code":"3710046","kana_pref":"ｸﾞﾝﾏｹﾝ","kana_city":"ﾏｴﾊﾞｼｼ","kana_address":"ｶﾜﾊﾗﾏﾁ","pref":"群馬県","city":"前橋市","address":"川原町"},
{"zip_code":"3710823","kana_pref":"ｸﾞﾝﾏｹﾝ","kana_city":"ﾏｴﾊﾞｼｼ","kana_address":"ｶﾜﾏｶﾞﾘﾏﾁ","pref":"群馬県","city":"前橋市","address":"川曲町"},
{"zip_code":"3710224","kana_pref":"ｸﾞﾝﾏｹﾝ","kana_city":"ﾏｴﾊﾞｼｼ","kana_address":"ｶﾜﾗﾊﾏﾏﾁ","pref":"群馬県","city":"前橋市","address":"河原浜町"},
{"zip_code":"3710055","kana_pref":"ｸﾞﾝﾏｹﾝ","kana_city":"ﾏｴﾊﾞｼｼ","kana_address":"ｷﾀｼﾛﾀﾏﾁ","pref":"群馬県","city":"前橋市","address":"北代田町"},
{"zip_code":"3710831","kana_pref":"ｸﾞﾝﾏｹﾝ","kana_city":"ﾏｴﾊﾞｼｼ","kana_address":"ｺｱｲｷﾞﾏﾁ","pref":"群馬県","city":"前橋市","address":"小相木町"},
{"zip_code":"3710025","kana_pref":"ｸﾞﾝﾏｹﾝ","kana_city":"ﾏｴﾊﾞｼｼ","kana_address":"ｺｳｳﾝﾁｮｳ","pref":"群馬県","city":"前橋市","address":"紅雲町"},
{"zip_code":"3710053","kana_pref":"ｸﾞﾝﾏｹﾝ","kana_city":"ﾏｴﾊﾞｼｼ","kana_address":"ｺｳﾂﾞｶﾏﾁ","pref":"群馬県","city":"前橋市","address":"幸塚町"},
{"zip_code":"3710813","kana_pref":"ｸﾞﾝﾏｹﾝ","kana_city":"ﾏｴﾊﾞｼｼ","kana_address":"ｺﾞｶﾝﾏﾁ","pref":"群馬県","city":"前橋市","address":"後閑町"},
{"zip_code":"3710033","kana_pref":"ｸﾞﾝﾏｹﾝ","kana_city":"ﾏｴﾊﾞｼｼ","kana_address":"ｺｸﾘｮｳﾏﾁ","pref":"群馬県","city":"前橋市","address":"国領町"},
{"zip_code":"3710834","kana_pref":"ｸﾞﾝﾏｹﾝ","kana_city":"ﾏｴﾊﾞｼｼ","kana_address":"ｺﾞｹﾏﾁ","pref":"群馬県","city":"前橋市","address":"後家町"},
{"zip_code":"3710122","kana_pref":"ｸﾞﾝﾏｹﾝ","kana_city":"ﾏｴﾊﾞｼｼ","kana_address":"ｺｻﾞｶｼﾏﾁ","pref":"群馬県","city":"前橋市","address":"小坂子町"},
{"zip_code":"3710134","kana_pref":"ｸﾞﾝﾏｹﾝ","kana_city":"ﾏｴﾊﾞｼｼ","kana_address":"ｺｼﾞﾝﾒｲﾏﾁ","pref":"群馬県","city":"前橋市","address":"小神明町"},
{"zip_code":"3710132","kana_pref":"ｸﾞﾝﾏｹﾝ","kana_city":"ﾏｴﾊﾞｼｼ","kana_address":"ｺﾞﾀﾞｲﾏﾁ","pref":"群馬県","city":"前橋市","address":"五代町"},
{"zip_code":"3710036","kana_pref":"ｸﾞﾝﾏｹﾝ","kana_city":"ﾏｴﾊﾞｼｼ","kana_address":"ｼｷｼﾏﾁｮｳ","pref":"群馬県","city":"前橋市","address":"敷島町"},
{"zip_code":"3710842","kana_pref":"ｸﾞﾝﾏｹﾝ","kana_city":"ﾏｴﾊﾞｼｼ","kana_address":"ｼﾓｲｼｸﾗﾏﾁ","pref":"群馬県","city":"前橋市","address":"下石倉町"},
{"zip_code":"3710011","kana_pref":"ｸﾞﾝﾏｹﾝ","kana_city":"ﾏｴﾊﾞｼｼ","kana_address":"ｼﾓｵｷﾏﾁ","pref":"群馬県","city":"前橋市","address":"下沖町"},
{"zip_code":"3710031","kana_pref":"ｸﾞﾝﾏｹﾝ","kana_city":"ﾏｴﾊﾞｼｼ","kana_address":"ｼﾓｺｲﾃﾞﾏﾁ","pref":"群馬県","city":"前橋市","address":"下小出町"},
{"zip_code":"3710815","kana_pref":"ｸﾞﾝﾏｹﾝ","kana_city":"ﾏｴﾊﾞｼｼ","kana_address":"ｼﾓｻﾄﾞﾘﾏﾁ","pref":"群馬県","city":"前橋市","address":"下佐鳥町"},
{"zip_code":"3710822","kana_pref":"ｸﾞﾝﾏｹﾝ","kana_city":"ﾏｴﾊﾞｼｼ","kana_address":"ｼﾓｼﾝﾃﾞﾝﾏﾁ","pref":"群馬県","city":"前橋市","address":"下新田町"},
{"zip_code":"3710054","kana_pref":"ｸﾞﾝﾏｹﾝ","kana_city":"ﾏｴﾊﾞｼｼ","kana_address":"ｼﾓﾎｿｲﾏﾁ","pref":"群馬県","city":"前橋市","address":"下細井町"},
{"zip_code":"3710016","kana_pref":"ｸﾞﾝﾏｹﾝ","kana_city":"ﾏｴﾊﾞｼｼ","kana_address":"ｼﾞｮｳﾄｳﾏﾁ","pref":"群馬県","city":"前橋市","address":"城東町"},
{"zip_code":"3710034","kana_pref":"ｸﾞﾝﾏｹﾝ","kana_city":"ﾏｴﾊﾞｼｼ","kana_address":"ｼｮｳﾜﾏﾁ","pref":"群馬県","city":"前橋市","address":"昭和町"},
{"zip_code":"3710843","kana_pref":"ｸﾞﾝﾏｹﾝ","kana_city":"ﾏｴﾊﾞｼｼ","kana_address":"ｼﾝﾏｴﾊﾞｼﾏﾁ","pref":"群馬県","city":"前橋市","address":"新前橋町"},
{"zip_code":"3710021","kana_pref":"ｸﾞﾝﾏｹﾝ","kana_city":"ﾏｴﾊﾞｼｼ","kana_address":"ｽﾐﾖｼﾁｮｳ","pref":"群馬県","city":"前橋市","address":"住吉町"},
{"zip_code":"3710047","kana_pref":"ｸﾞﾝﾏｹﾝ","kana_city":"ﾏｴﾊﾞｼｼ","kana_address":"ｾｷﾈﾏﾁ","pref":"群馬県","city":"前橋市","address":"関根町"},
{"zip_code":"3710853","kana_pref":"ｸﾞﾝﾏｹﾝ","kana_city":"ﾏｴﾊﾞｼｼ","kana_address":"ｿｳｼﾞｬﾏﾁ","pref":"群馬県","city":"前橋市","address":"総社町"},
{"zip_code":"3710851","kana_pref":"ｸﾞﾝﾏｹﾝ","kana_city":"ﾏｴﾊﾞｼｼ","kana_address":"ｿｳｼﾞｬﾏﾁｳｴﾉ","pref":"群馬県","city":"前橋市","address":"総社町植野"},
{"zip_code":"3710858","kana_pref":"ｸﾞﾝﾏｹﾝ","kana_city":"ﾏｴﾊﾞｼｼ","kana_address":"ｿｳｼﾞｬﾏﾁｻｸﾗｶﾞｵｶ","pref":"群馬県","city":"前橋市","address":"総社町桜が丘"},
{"zip_code":"3710852","kana_pref":"ｸﾞﾝﾏｹﾝ","kana_city":"ﾏｴﾊﾞｼｼ","kana_address":"ｿｳｼﾞｬﾏﾁｿｳｼﾞｬ","pref":"群馬県","city":"前橋市","address":"総社町総社"},
{"zip_code":"3710856","kana_pref":"ｸﾞﾝﾏｹﾝ","kana_city":"ﾏｴﾊﾞｼｼ","kana_address":"ｿｳｼﾞｬﾏﾁﾀｶｲ","pref":"群馬県","city":"前橋市","address":"総社町高井"},
{"zip_code":"3710857","kana_pref":"ｸﾞﾝﾏｹﾝ","kana_city":"ﾏｴﾊﾞｼｼ","kana_address":"ﾀｶｲﾏﾁ","pref":"群馬県","city":"前橋市","address":"高井町"},
{"zip_code":"3710123","kana_pref":"ｸﾞﾝﾏｹﾝ","kana_city":"ﾏｴﾊﾞｼｼ","kana_address":"ﾀｶﾊﾅﾀﾞｲ","pref":"群馬県","city":"前橋市","address":"高花台"},
{"zip_code":"3710235","kana_pref":"ｸﾞﾝﾏｹﾝ","kana_city":"ﾏｴﾊﾞｼｼ","kana_address":"ﾀｷｸﾎﾞﾏﾁ","pref":"群馬県","city":"前橋市","address":"滝窪町"},
{"zip_code":"3710048","kana_pref":"ｸﾞﾝﾏｹﾝ","kana_city":"ﾏｴﾊﾞｼｼ","kana_address":"ﾀｸﾞﾁﾏﾁ","pref":"群馬県","city":"前橋市","address":"田口町"},
{"zip_code":"3710022","kana_pref":"ｸﾞﾝﾏｹﾝ","kana_city":"ﾏｴﾊﾞｼｼ","kana_address":"ﾁﾖﾀﾞﾏﾁ","pref":"群馬県","city":"前橋市","address":"千代田町"},
{"zip_code":"3710003","kana_pref":"ｸﾞﾝﾏｹﾝ","kana_city":"ﾏｴﾊﾞｼｼ","kana_address":"ﾂﾂﾐﾏﾁ","pref":"群馬県","city":"前橋市","address":"堤町"},
{"zip_code":"3710824","kana_pref":"ｸﾞﾝﾏｹﾝ","kana_city":"ﾏｴﾊﾞｼｼ","kana_address":"ﾄｳｶｼﾝﾃﾞﾝﾏﾁ","pref":"群馬県","city":"前橋市","address":"稲荷新田町"},
{"zip_code":"3710131","kana_pref":"ｸﾞﾝﾏｹﾝ","kana_city":"ﾏｴﾊﾞｼｼ","kana_address":"ﾄｯﾄﾘﾏﾁ","pref":"群馬県","city":"前橋市","address":"鳥取町"},
{"zip_code":"3710845","kana_pref":"ｸﾞﾝﾏｹﾝ","kana_city":"ﾏｴﾊﾞｼｼ","kana_address":"ﾄﾘﾊﾞﾏﾁ","pref":"群馬県","city":"前橋市","address":"鳥羽町"},
{"zip_code":"3710855","kana_pref":"ｸﾞﾝﾏｹﾝ","kana_city":"ﾏｴﾊﾞｼｼ","kana_address":"ﾄﾝﾔﾏﾁ","pref":"群馬県","city":"前橋市","address":"問屋町"},
{"zip_code":"3710241","kana_pref":"ｸﾞﾝﾏｹﾝ","kana_city":"ﾏｴﾊﾞｼｼ","kana_address":"ﾅｴｶﾞｼﾏﾏﾁ","pref":"群馬県","city":"前橋市","address":"苗ケ島町"},
{"zip_code":"3710043","kana_pref":"ｸﾞﾝﾏｹﾝ","kana_city":"ﾏｴﾊﾞｼｼ","kana_address":"ﾅﾝｷﾂﾏﾁ","pref":"群馬県","city":"前橋市","address":"南橘町"},
{"zip_code":"3710013","kana_pref":"ｸﾞﾝﾏｹﾝ","kana_city":"ﾏｴﾊﾞｼｼ","kana_address":"ﾆｼｶﾀｶｲﾏﾁ","pref":"群馬県","city":"前橋市","address":"西片貝町"},
{"zip_code":"3710042","kana_pref":"ｸﾞﾝﾏｹﾝ","kana_city":"ﾏｴﾊﾞｼｼ","kana_address":"ﾆﾁﾘﾝｼﾞﾏﾁ","pref":"群馬県","city":"前橋市","address":"日輪寺町"},
{"zip_code":"3710817","kana_pref":"ｸﾞﾝﾏｹﾝ","kana_city":"ﾏｴﾊﾞｼｼ","kana_address":"ﾇﾃﾞｼﾞﾏﾏﾁ","pref":"群馬県","city":"前橋市","address":"ぬで島町"},
{"zip_code":"3710133","kana_pref":"ｸﾞﾝﾏｹﾝ","kana_city":"ﾏｴﾊﾞｼｼ","kana_address":"ﾊｹﾏﾁ","pref":"群馬県","city":"前橋市","address":"端気町"},
{"zip_code":"3710837","kana_pref":"ｸﾞﾝﾏｹﾝ","kana_city":"ﾏｴﾊﾞｼｼ","kana_address":"ﾊｺﾀﾞﾏﾁ","pref":"群馬県","city":"前橋市","address":"箱田町"},
{"zip_code":"3710244","kana_pref":"ｸﾞﾝﾏｹﾝ","kana_city":"ﾏｴﾊﾞｼｼ","kana_address":"ﾊﾅｹﾞｲｼﾏﾁ","pref":"群馬県","city":"前橋市","address":"鼻毛石町"},
{"zip_code":"3710242","kana_pref":"ｸﾞﾝﾏｹﾝ","kana_city":"ﾏｴﾊﾞｼｼ","kana_address":"ﾊﾞﾊﾞﾏﾁ","pref":"群馬県","city":"前橋市","address":"馬場町"},
{"zip_code":"3710012","kana_pref":"ｸﾞﾝﾏｹﾝ","kana_city":"ﾏｴﾊﾞｼｼ","kana_address":"ﾋｶﾞｼｶﾀｶｲﾏﾁ","pref":"群馬県","city":"前橋市","address":"東片貝町"},
{"zip_code":"3710234","kana_pref":"ｸﾞﾝﾏｹﾝ","kana_city":"ﾏｴﾊﾞｼｼ","kana_address":"ﾋｶﾞｼｶﾅﾏﾙﾏﾁ","pref":"群馬県","city":"前橋市","address":"東金丸町"},
{"zip_code":"3710833","kana_pref":"ｸﾞﾝﾏｹﾝ","kana_city":"ﾏｴﾊﾞｼｼ","kana_address":"ﾋｶﾘｶﾞｵｶﾏﾁ","pref":"群馬県","city":"前橋市","address":"光が丘町"},
{"zip_code":"3710221","kana_pref":"ｸﾞﾝﾏｹﾝ","kana_city":"ﾏｴﾊﾞｼｼ","kana_address":"ﾋｺﾞｼﾏﾁ","pref":"群馬県","city":"前橋市","address":"樋越町"},
{"zip_code":"3710017","kana_pref":"ｸﾞﾝﾏｹﾝ","kana_city":"ﾏｴﾊﾞｼｼ","kana_address":"ﾋﾖｼﾁｮｳ","pref":"群馬県","city":"前橋市","address":"日吉町"},
{"zip_code":"3710812","kana_pref":"ｸﾞﾝﾏｹﾝ","kana_city":"ﾏｴﾊﾞｼｼ","kana_address":"ﾋﾛｾﾁｮｳ","pref":"群馬県","city":"前橋市","address":"広瀬町"},
{"zip_code":"3710101","kana_pref":"ｸﾞﾝﾏｹﾝ","kana_city":"ﾏｴﾊﾞｼｼ","kana_address":"ﾌｼﾞﾐﾏﾁｱｶｷﾞｻﾝ","pref":"群馬県","city":"前橋市","address":"富士見町赤城山"},
{"zip_code":"3710105","kana_pref":"ｸﾞﾝﾏｹﾝ","kana_city":"ﾏｴﾊﾞｼｼ","kana_address":"ﾌｼﾞﾐﾏﾁｲｼｲ","pref":"群馬県","city":"前橋市","address":"富士見町石井"},
{"zip_code":"3710106","kana_pref":"ｸﾞﾝﾏｹﾝ","kana_city":"ﾏｴﾊﾞｼｼ","kana_address":"ﾌｼﾞﾐﾏﾁｲﾁﾉｷﾊﾞ","pref":"群馬県","city":"前橋市","address":"富士見町市之木場"},
{"zip_code":"3710113","kana_pref":"ｸﾞﾝﾏｹﾝ","kana_city":"ﾏｴﾊﾞｼｼ","kana_address":"ﾌｼﾞﾐﾏﾁｳﾙｸﾎﾞ","pref":"群馬県","city":"前橋市","address":"富士見町漆窪"},
{"zip_code":"3710115","kana_pref":"ｸﾞﾝﾏｹﾝ","kana_city":"ﾏｴﾊﾞｼｼ","kana_address":"ﾌｼﾞﾐﾏﾁｵｻﾞﾜ","pref":"群馬県","city":"前橋市","address":"富士見町小沢"},
{"zip_code":"3710103","kana_pref":"ｸﾞﾝﾏｹﾝ","kana_city":"ﾏｴﾊﾞｼｼ","kana_address":"ﾌｼﾞﾐﾏﾁｺｸﾞﾚ","pref":"群馬県","city":"前橋市","address":"富士見町小暮"},
{"zip_code":"3710111","kana_pref":"ｸﾞﾝﾏｹﾝ","kana_city":"ﾏｴﾊﾞｼｼ","kana_address":"ﾌｼﾞﾐﾏﾁｺﾒﾉ","pref":"群馬県","city":"前橋市","address":"富士見町米野"},
{"zip_code":"3710114","kana_pref":"ｸﾞﾝﾏｹﾝ","kana_city":"ﾏｴﾊﾞｼｼ","kana_address":"ﾌｼﾞﾐﾏﾁﾀｼﾞﾏ","pref":"群馬県","city":"前橋市","address":"富士見町田島"},
{"zip_code":"3710104","kana_pref":"ｸﾞﾝﾏｹﾝ","kana_city":"ﾏｴﾊﾞｼｼ","kana_address":"ﾌｼﾞﾐﾏﾁﾄｷｻﾞﾜ","pref":"群馬県","city":"前橋市","address":"富士見町時沢"},
{"zip_code":"3710116","kana_pref":"ｸﾞﾝﾏｹﾝ","kana_city":"ﾏｴﾊﾞｼｼ","kana_address":"ﾌｼﾞﾐﾏﾁﾊﾗﾉｺﾞｳ","pref":"群馬県","city":"前橋市","address":"富士見町原之郷"},
{"zip_code":"3710112","kana_pref":"ｸﾞﾝﾏｹﾝ","kana_city":"ﾏｴﾊﾞｼｼ","kana_address":"ﾌｼﾞﾐﾏﾁﾋｷﾀﾞ","pref":"群馬県","city":"前橋市","address":"富士見町引田"},
{"zip_code":"3710102","kana_pref":"ｸﾞﾝﾏｹﾝ","kana_city":"ﾏｴﾊﾞｼｼ","kana_address":"ﾌｼﾞﾐﾏﾁﾐﾅｻﾞﾜ","pref":"群馬県","city":"前橋市","address":"富士見町皆沢"},
{"zip_code":"3710107","kana_pref":"ｸﾞﾝﾏｹﾝ","kana_city":"ﾏｴﾊﾞｼｼ","kana_address":"ﾌｼﾞﾐﾏﾁﾔﾏｸﾞﾁ","pref":"群馬県","city":"前橋市","address":"富士見町山口"},
{"zip_code":"3710117","kana_pref":"ｸﾞﾝﾏｹﾝ","kana_city":"ﾏｴﾊﾞｼｼ","kana_address":"ﾌｼﾞﾐﾏﾁﾖｺﾑﾛ","pref":"群馬県","city":"前橋市","address":"富士見町横室"},
{"zip_code":"3710844","kana_pref":"ｸﾞﾝﾏｹﾝ","kana_city":"ﾏｴﾊﾞｼｼ","kana_address":"ﾌﾙｲﾁﾏﾁ","pref":"群馬県","city":"前橋市","address":"古市町"},
{"zip_code":"3710801","kana_pref":"ｸﾞﾝﾏｹﾝ","kana_city":"ﾏｴﾊﾞｼｼ","kana_address":"ﾌﾞﾝｷｮｳﾁｮｳ","pref":"群馬県","city":"前橋市","address":"文京町"},
{"zip_code":"3710027","kana_pref":"ｸﾞﾝﾏｹﾝ","kana_city":"ﾏｴﾊﾞｼｼ","kana_address":"ﾍｲﾜﾏﾁ","pref":"群馬県","city":"前橋市","address":"平和町"},
{"zip_code":"3710231","kana_pref":"ｸﾞﾝﾏｹﾝ","kana_city":"ﾏｴﾊﾞｼｼ","kana_address":"ﾎﾘｺｼﾏﾁ","pref":"群馬県","city":"前橋市","address":"堀越町"},
{"zip_code":"3710005","kana_pref":"ｸﾞﾝﾏｹﾝ","kana_city":"ﾏｴﾊﾞｼｼ","kana_address":"ﾎﾘﾉｼﾀﾏﾁ","pref":"群馬県","city":"前橋市","address":"堀之下町"},
{"zip_code":"3710023","kana_pref":"ｸﾞﾝﾏｹﾝ","kana_city":"ﾏｴﾊﾞｼｼ","kana_address":"ﾎﾝﾏﾁ","pref":"群馬県","city":"前橋市","address":"本町"},
{"zip_code":"3710835","kana_pref":"ｸﾞﾝﾏｹﾝ","kana_city":"ﾏｴﾊﾞｼｼ","kana_address":"ﾏｴﾊｺﾀﾞﾏﾁ","pref":"群馬県","city":"前橋市","address":"前箱田町"},
{"zip_code":"3710015","kana_pref":"ｸﾞﾝﾏｹﾝ","kana_city":"ﾏｴﾊﾞｼｼ","kana_address":"ﾐｶﾜﾁｮｳ","pref":"群馬県","city":"前橋市","address":"三河町"},
{"zip_code":"3710018","kana_pref":"ｸﾞﾝﾏｹﾝ","kana_city":"ﾏｴﾊﾞｼｼ","kana_address":"ﾐﾂﾏﾀﾏﾁ","pref":"群馬県","city":"前橋市","address":"三俣町"},
{"zip_code":"3710045","kana_pref":"ｸﾞﾝﾏｹﾝ","kana_city":"ﾏｴﾊﾞｼｼ","kana_address":"ﾐﾄﾞﾘｶﾞｵｶﾏﾁ","pref":"群馬県","city":"前橋市","address":"緑が丘町"},
{"zip_code":"3710805","kana_pref":"ｸﾞﾝﾏｹﾝ","kana_city":"ﾏｴﾊﾞｼｼ","kana_address":"ﾐﾅﾐﾁｮｳ","pref":"群馬県","city":"前橋市","address":"南町"},
{"zip_code":"3710125","kana_pref":"ｸﾞﾝﾏｹﾝ","kana_city":"ﾏｴﾊﾞｼｼ","kana_address":"ﾐﾈﾏﾁ","pref":"群馬県","city":"前橋市","address":"嶺町"},
{"zip_code":"3710814","kana_pref":"ｸﾞﾝﾏｹﾝ","kana_city":"ﾏｴﾊﾞｼｼ","kana_address":"ﾐﾔｼﾞﾏﾁ","pref":"群馬県","city":"前橋市","address":"宮地町"},
{"zip_code":"3710247","kana_pref":"ｸﾞﾝﾏｹﾝ","kana_city":"ﾏｴﾊﾞｼｼ","kana_address":"ﾐﾖｻﾜﾏﾁ","pref":"群馬県","city":"前橋市","address":"三夜沢町"},
{"zip_code":"3710232","kana_pref":"ｸﾞﾝﾏｹﾝ","kana_city":"ﾏｴﾊﾞｼｼ","kana_address":"ﾓﾄｷﾞﾏﾁ","pref":"群馬県","city":"前橋市","address":"茂木町"},
{"zip_code":"3710846","kana_pref":"ｸﾞﾝﾏｹﾝ","kana_city":"ﾏｴﾊﾞｼｼ","kana_address":"ﾓﾄｿｳｼﾞｬﾏﾁ","pref":"群馬県","city":"前橋市","address":"元総社町"},
{"zip_code":"3710233","kana_pref":"ｸﾞﾝﾏｹﾝ","kana_city":"ﾏｴﾊﾞｼｼ","kana_address":"ﾖｺｻﾞﾜﾏﾁ","pref":"群馬県","city":"前橋市","address":"横沢町"},
{"zip_code":"3710057","kana_pref":"ｸﾞﾝﾏｹﾝ","kana_city":"ﾏｴﾊﾞｼｼ","kana_address":"ﾘｭｳｿﾞｳｼﾞﾏﾁ","pref":"群馬県","city":"前橋市","address":"龍蔵寺町"},
{"zip_code":"3710804","kana_pref":"ｸﾞﾝﾏｹﾝ","kana_city":"ﾏｴﾊﾞｼｼ","kana_address":"ﾛｯｸﾏﾁ","pref":"群馬県","city":"前橋市","address":"六供町"},
{"zip_code":"3710032","kana_pref":"ｸﾞﾝﾏｹﾝ","kana_city":"ﾏｴﾊﾞｼｼ","kana_address":"ﾜｶﾐﾔﾁｮｳ","pref":"群馬県","city":"前橋市","address":"若宮町"}]}