{"zip_code":[
{"zip_code":"3740000","kana_pref":"ｸﾞﾝﾏｹﾝ","kana_city":"ﾀﾃﾊﾞﾔｼｼ","kana_address":"","pref":"群馬県","city":"館林市","address":""},
{"zip_code":"3740035","kana_pref":"ｸﾞﾝﾏｹﾝ","kana_city":"ﾀﾃﾊﾞﾔｼｼ","kana_address":"ｱｵﾔｷﾞﾁｮｳ","pref":"群馬県","city":"館林市","address":"青柳町"},
{"zip_code":"3740053","kana_pref":"ｸﾞﾝﾏｹﾝ","kana_city":"ﾀﾃﾊﾞﾔｼｼ","kana_address":"ｱｶﾂﾁﾁｮｳ","pref":"群馬県","city":"館林市","address":"赤土町"},
{"zip_code":"3740013","kana_pref":"ｸﾞﾝﾏｹﾝ","kana_city":"ﾀﾃﾊﾞﾔｼｼ","kana_address":"ｱｺｳﾀﾞﾁｮｳ","pref":"群馬県","city":"館林市","address":"赤生田町"},
{"zip_code":"3740014","kana_pref":"ｸﾞﾝﾏｹﾝ","kana_city":"ﾀﾃﾊﾞﾔｼｼ","kana_address":"ｱｺｳﾀﾞﾎﾝﾁｮｳ","pref":"群馬県","city":"館林市","address":"赤生田本町"},
{"zip_code":"3740063","kana_pref":"ｸﾞﾝﾏｹﾝ","kana_city":"ﾀﾃﾊﾞﾔｼｼ","kana_address":"ｱｻﾋﾁｮｳ","pref":"群馬県","city":"館林市","address":"朝日町"},
{"zip_code":"3740073","kana_pref":"ｸﾞﾝﾏｹﾝ","kana_city":"ﾀﾃﾊﾞﾔｼｼ","kana_address":"ｱｼﾂｷﾞﾁｮｳ","pref":"群馬県","city":"館林市","address":"足次町"},
{"zip_code":"3740045","kana_pref":"ｸﾞﾝﾏｹﾝ","kana_city":"ﾀﾃﾊﾞﾔｼｼ","kana_address":"ｲﾘｶﾔﾁｮｳ","pref":"群馬県","city":"館林市","address":"入ケ谷町"},
{"zip_code":"3740066","kana_pref":"ｸﾞﾝﾏｹﾝ","kana_city":"ﾀﾃﾊﾞﾔｼｼ","kana_address":"ｵｵｶｲﾄﾞｳ","pref":"群馬県","city":"館林市","address":"大街道"},
{"zip_code":"3740001","kana_pref":"ｸﾞﾝﾏｹﾝ","kana_city":"ﾀﾃﾊﾞﾔｼｼ","kana_address":"ｵｵｼﾏﾁｮｳ","pref":"群馬県","city":"館林市","address":"大島町"},
{"zip_code":"3740072","kana_pref":"ｸﾞﾝﾏｹﾝ","kana_city":"ﾀﾃﾊﾞﾔｼｼ","kana_address":"ｵｵｼﾝﾃﾞﾝﾁｮｳ","pref":"群馬県","city":"館林市","address":"大新田町"},
{"zip_code":"3740023","kana_pref":"ｸﾞﾝﾏｹﾝ","kana_city":"ﾀﾃﾊﾞﾔｼｼ","kana_address":"ｵｵﾃﾏﾁ","pref":"群馬県","city":"館林市","address":"大手町"},
{"zip_code":"3740054","kana_pref":"ｸﾞﾝﾏｹﾝ","kana_city":"ﾀﾃﾊﾞﾔｼｼ","kana_address":"ｵｵﾔﾁｮｳ","pref":"群馬県","city":"館林市","address":"大谷町"},
{"zip_code":"3740067","kana_pref":"ｸﾞﾝﾏｹﾝ","kana_city":"ﾀﾃﾊﾞﾔｼｼ","kana_address":"ｵｶﾉﾁｮｳ","pref":"群馬県","city":"館林市","address":"岡野町"},
{"zip_code":"3740019","kana_pref":"ｸﾞﾝﾏｹﾝ","kana_city":"ﾀﾃﾊﾞﾔｼｼ","kana_address":"ｵﾋﾞｷﾁｮｳ","pref":"群馬県","city":"館林市","address":"尾曳町"},
{"zip_code":"3740022","kana_pref":"ｸﾞﾝﾏｹﾝ","kana_city":"ﾀﾃﾊﾞﾔｼｼ","kana_address":"ｶﾎﾞｳｼﾁｮｳ","pref":"群馬県","city":"館林市","address":"加法師町"},
{"zip_code":"3740015","kana_pref":"ｸﾞﾝﾏｹﾝ","kana_city":"ﾀﾃﾊﾞﾔｼｼ","kana_address":"ｶﾐｱｺｳﾀﾞﾁｮｳ","pref":"群馬県","city":"館林市","address":"上赤生田町"},
{"zip_code":"3740079","kana_pref":"ｸﾞﾝﾏｹﾝ","kana_city":"ﾀﾃﾊﾞﾔｼｼ","kana_address":"ｶﾐｻｶﾞﾜﾀﾞﾁｮｳ","pref":"群馬県","city":"館林市","address":"上早川田町"},
{"zip_code":"3740046","kana_pref":"ｸﾞﾝﾏｹﾝ","kana_city":"ﾀﾃﾊﾞﾔｼｼ","kana_address":"ｶﾐﾐﾊﾞﾔｼﾁｮｳ","pref":"群馬県","city":"館林市","address":"上三林町"},
{"zip_code":"3740057","kana_pref":"ｸﾞﾝﾏｹﾝ","kana_city":"ﾀﾃﾊﾞﾔｼｼ","kana_address":"ｷﾀﾅﾙｼﾏﾁｮｳ","pref":"群馬県","city":"館林市","address":"北成島町"},
{"zip_code":"3740077","kana_pref":"ｸﾞﾝﾏｹﾝ","kana_city":"ﾀﾃﾊﾞﾔｼｼ","kana_address":"ｷﾄﾞﾁｮｳ","pref":"群馬県","city":"館林市","address":"木戸町"},
{"zip_code":"3740004","kana_pref":"ｸﾞﾝﾏｹﾝ","kana_city":"ﾀﾃﾊﾞﾔｼｼ","kana_address":"ｸｽﾉｷﾁｮｳ","pref":"群馬県","city":"館林市","address":"楠町"},
{"zip_code":"3740037","kana_pref":"ｸﾞﾝﾏｹﾝ","kana_city":"ﾀﾃﾊﾞﾔｼｼ","kana_address":"ｺｸﾜﾊﾞﾗﾁｮｳ","pref":"群馬県","city":"館林市","address":"小桑原町"},
{"zip_code":"3740042","kana_pref":"ｸﾞﾝﾏｹﾝ","kana_city":"ﾀﾃﾊﾞﾔｼｼ","kana_address":"ｺﾝﾄﾞｳﾁｮｳ","pref":"群馬県","city":"館林市","address":"近藤町"},
{"zip_code":"3740052","kana_pref":"ｸﾞﾝﾏｹﾝ","kana_city":"ﾀﾃﾊﾞﾔｼｼ","kana_address":"ｻｶｴﾁｮｳ","pref":"群馬県","city":"館林市","address":"栄町"},
{"zip_code":"3740069","kana_pref":"ｸﾞﾝﾏｹﾝ","kana_city":"ﾀﾃﾊﾞﾔｼｼ","kana_address":"ｻｶｼﾀﾁｮｳ","pref":"群馬県","city":"館林市","address":"坂下町"},
{"zip_code":"3740071","kana_pref":"ｸﾞﾝﾏｹﾝ","kana_city":"ﾀﾃﾊﾞﾔｼｼ","kana_address":"ｼﾓｻｶﾞﾜﾀﾞﾁｮｳ","pref":"群馬県","city":"館林市","address":"下早川田町"},
{"zip_code":"3740044","kana_pref":"ｸﾞﾝﾏｹﾝ","kana_city":"ﾀﾃﾊﾞﾔｼｼ","kana_address":"ｼﾓﾐﾊﾞﾔｼﾁｮｳ","pref":"群馬県","city":"館林市","address":"下三林町"},
{"zip_code":"3740018","kana_pref":"ｸﾞﾝﾏｹﾝ","kana_city":"ﾀﾃﾊﾞﾔｼｼ","kana_address":"ｼﾛﾏﾁ","pref":"群馬県","city":"館林市","address":"城町"},
{"zip_code":"3740051","kana_pref":"ｸﾞﾝﾏｹﾝ","kana_city":"ﾀﾃﾊﾞﾔｼｼ","kana_address":"ｼﾝｻｶｴﾁｮｳ","pref":"群馬県","city":"館林市","address":"新栄町"},
{"zip_code":"3740026","kana_pref":"ｸﾞﾝﾏｹﾝ","kana_city":"ﾀﾃﾊﾞﾔｼｼ","kana_address":"ｼﾝｼﾞｭｸ","pref":"群馬県","city":"館林市","address":"新宿"},
{"zip_code":"3740036","kana_pref":"ｸﾞﾝﾏｹﾝ","kana_city":"ﾀﾃﾊﾞﾔｼｼ","kana_address":"ｽﾜﾁｮｳ","pref":"群馬県","city":"館林市","address":"諏訪町"},
{"zip_code":"3740021","kana_pref":"ｸﾞﾝﾏｹﾝ","kana_city":"ﾀﾃﾊﾞﾔｼｼ","kana_address":"ｾﾄﾞﾔﾁｮｳ","pref":"群馬県","city":"館林市","address":"瀬戸谷町"},
{"zip_code":"3740064","kana_pref":"ｸﾞﾝﾏｹﾝ","kana_city":"ﾀﾃﾊﾞﾔｼｼ","kana_address":"ﾀﾞｲｶﾝﾁｮｳ","pref":"群馬県","city":"館林市","address":"代官町"},
{"zip_code":"3740068","kana_pref":"ｸﾞﾝﾏｹﾝ","kana_city":"ﾀﾃﾊﾞﾔｼｼ","kana_address":"ﾀﾞｲｼﾞｭｸﾁｮｳ","pref":"群馬県","city":"館林市","address":"台宿町"},
{"zip_code":"3740074","kana_pref":"ｸﾞﾝﾏｹﾝ","kana_city":"ﾀﾃﾊﾞﾔｼｼ","kana_address":"ﾀｶﾈﾁｮｳ","pref":"群馬県","city":"館林市","address":"高根町"},
{"zip_code":"3740002","kana_pref":"ｸﾞﾝﾏｹﾝ","kana_city":"ﾀﾃﾊﾞﾔｼｼ","kana_address":"ﾀﾔﾁｮｳ","pref":"群馬県","city":"館林市","address":"田谷町"},
{"zip_code":"3740009","kana_pref":"ｸﾞﾝﾏｹﾝ","kana_city":"ﾀﾃﾊﾞﾔｼｼ","kana_address":"ﾁﾂﾞｶﾁｮｳ","pref":"群馬県","city":"館林市","address":"千塚町"},
{"zip_code":"3740028","kana_pref":"ｸﾞﾝﾏｹﾝ","kana_city":"ﾀﾃﾊﾞﾔｼｼ","kana_address":"ﾁﾖﾀﾞﾁｮｳ","pref":"群馬県","city":"館林市","address":"千代田町"},
{"zip_code":"3740017","kana_pref":"ｸﾞﾝﾏｹﾝ","kana_city":"ﾀﾃﾊﾞﾔｼｼ","kana_address":"ﾂﾂｼﾞﾁｮｳ","pref":"群馬県","city":"館林市","address":"つつじ町"},
{"zip_code":"3740006","kana_pref":"ｸﾞﾝﾏｹﾝ","kana_city":"ﾀﾃﾊﾞﾔｼｼ","kana_address":"ﾄｳｺﾞｳﾁｮｳ","pref":"群馬県","city":"館林市","address":"当郷町"},
{"zip_code":"3740043","kana_pref":"ｸﾞﾝﾏｹﾝ","kana_city":"ﾀﾃﾊﾞﾔｼｼ","kana_address":"ﾅｴｷﾞﾁｮｳ","pref":"群馬県","city":"館林市","address":"苗木町"},
{"zip_code":"3740029","kana_pref":"ｸﾞﾝﾏｹﾝ","kana_city":"ﾀﾃﾊﾞﾔｼｼ","kana_address":"ﾅｶﾏﾁ","pref":"群馬県","city":"館林市","address":"仲町"},
{"zip_code":"3740055","kana_pref":"ｸﾞﾝﾏｹﾝ","kana_city":"ﾀﾃﾊﾞﾔｼｼ","kana_address":"ﾅﾙｼﾏﾁｮｳ","pref":"群馬県","city":"館林市","address":"成島町"},
{"zip_code":"3740075","kana_pref":"ｸﾞﾝﾏｹﾝ","kana_city":"ﾀﾃﾊﾞﾔｼｼ","kana_address":"ﾆｼﾀｶﾈﾁｮｳ","pref":"群馬県","city":"館林市","address":"西高根町"},
{"zip_code":"3740065","kana_pref":"ｸﾞﾝﾏｹﾝ","kana_city":"ﾀﾃﾊﾞﾔｼｼ","kana_address":"ﾆｼﾎﾝﾁｮｳ","pref":"群馬県","city":"館林市","address":"西本町"},
{"zip_code":"3740038","kana_pref":"ｸﾞﾝﾏｹﾝ","kana_city":"ﾀﾃﾊﾞﾔｼｼ","kana_address":"ﾆｼﾐｿﾉﾁｮｳ","pref":"群馬県","city":"館林市","address":"西美園町"},
{"zip_code":"3740047","kana_pref":"ｸﾞﾝﾏｹﾝ","kana_city":"ﾀﾃﾊﾞﾔｼｼ","kana_address":"ﾉﾍﾞﾁｮｳ","pref":"群馬県","city":"館林市","address":"野辺町"},
{"zip_code":"3740005","kana_pref":"ｸﾞﾝﾏｹﾝ","kana_city":"ﾀﾃﾊﾞﾔｼｼ","kana_address":"ﾊﾅﾔﾏﾁｮｳ","pref":"群馬県","city":"館林市","address":"花山町"},
{"zip_code":"3740012","kana_pref":"ｸﾞﾝﾏｹﾝ","kana_city":"ﾀﾃﾊﾞﾔｼｼ","kana_address":"ﾊﾈﾂｸｱｻﾋﾁｮｳ","pref":"群馬県","city":"館林市","address":"羽附旭町"},
{"zip_code":"3740011","kana_pref":"ｸﾞﾝﾏｹﾝ","kana_city":"ﾀﾃﾊﾞﾔｼｼ","kana_address":"ﾊﾈﾂｸﾁｮｳ","pref":"群馬県","city":"館林市","address":"羽附町"},
{"zip_code":"3740061","kana_pref":"ｸﾞﾝﾏｹﾝ","kana_city":"ﾀﾃﾊﾞﾔｼｼ","kana_address":"ﾋｶﾞｼﾋﾛｳﾁﾁｮｳ","pref":"群馬県","city":"館林市","address":"東広内町"},
{"zip_code":"3740031","kana_pref":"ｸﾞﾝﾏｹﾝ","kana_city":"ﾀﾃﾊﾞﾔｼｼ","kana_address":"ﾋｶﾞｼﾐｿﾉﾁｮｳ","pref":"群馬県","city":"館林市","address":"東美園町"},
{"zip_code":"3740076","kana_pref":"ｸﾞﾝﾏｹﾝ","kana_city":"ﾀﾃﾊﾞﾔｼｼ","kana_address":"ﾋﾅﾀﾁｮｳ","pref":"群馬県","city":"館林市","address":"日向町"},
{"zip_code":"3740062","kana_pref":"ｸﾞﾝﾏｹﾝ","kana_city":"ﾀﾃﾊﾞﾔｼｼ","kana_address":"ﾋﾛｳﾁﾁｮｳ","pref":"群馬県","city":"館林市","address":"広内町"},
{"zip_code":"3740041","kana_pref":"ｸﾞﾝﾏｹﾝ","kana_city":"ﾀﾃﾊﾞﾔｼｼ","kana_address":"ﾌｼﾞﾊﾗﾁｮｳ","pref":"群馬県","city":"館林市","address":"富士原町"},
{"zip_code":"3740027","kana_pref":"ｸﾞﾝﾏｹﾝ","kana_city":"ﾀﾃﾊﾞﾔｼｼ","kana_address":"ﾌｼﾞﾐﾁｮｳ","pref":"群馬県","city":"館林市","address":"富士見町"},
{"zip_code":"3740034","kana_pref":"ｸﾞﾝﾏｹﾝ","kana_city":"ﾀﾃﾊﾞﾔｼｼ","kana_address":"ﾌﾞﾝﾌﾞｸﾁｮｳ","pref":"群馬県","city":"館林市","address":"分福町"},
{"zip_code":"3740078","kana_pref":"ｸﾞﾝﾏｹﾝ","kana_city":"ﾀﾃﾊﾞﾔｼｼ","kana_address":"ﾎｳｼﾞﾂｶﾁｮｳ","pref":"群馬県","city":"館林市","address":"傍示塚町"},
{"zip_code":"3740008","kana_pref":"ｸﾞﾝﾏｹﾝ","kana_city":"ﾀﾃﾊﾞﾔｼｼ","kana_address":"ﾎｿｳﾁﾁｮｳ","pref":"群馬県","city":"館林市","address":"細内町"},
{"zip_code":"3740033","kana_pref":"ｸﾞﾝﾏｹﾝ","kana_city":"ﾀﾃﾊﾞﾔｼｼ","kana_address":"ﾎﾘｸﾁｮｳ","pref":"群馬県","city":"館林市","address":"堀工町"},
{"zip_code":"3740024","kana_pref":"ｸﾞﾝﾏｹﾝ","kana_city":"ﾀﾃﾊﾞﾔｼｼ","kana_address":"ﾎﾝﾁｮｳ","pref":"群馬県","city":"館林市","address":"本町"},
{"zip_code":"3740056","kana_pref":"ｸﾞﾝﾏｹﾝ","kana_city":"ﾀﾃﾊﾞﾔｼｼ","kana_address":"ﾏﾂﾇﾏﾁｮｳ","pref":"群馬県","city":"館林市","address":"松沼町"},
{"zip_code":"3740016","kana_pref":"ｸﾞﾝﾏｹﾝ","kana_city":"ﾀﾃﾊﾞﾔｼｼ","kana_address":"ﾏﾂﾊﾞﾗ","pref":"群馬県","city":"館林市","address":"松原"},
{"zip_code":"3740039","kana_pref":"ｸﾞﾝﾏｹﾝ","kana_city":"ﾀﾃﾊﾞﾔｼｼ","kana_address":"ﾐｿﾉﾁｮｳ","pref":"群馬県","city":"館林市","address":"美園町"},
{"zip_code":"3740025","kana_pref":"ｸﾞﾝﾏｹﾝ","kana_city":"ﾀﾃﾊﾞﾔｼｼ","kana_address":"ﾐﾄﾞﾘﾁｮｳ","pref":"群馬県","city":"館林市","address":"緑町"},
{"zip_code":"3740032","kana_pref":"ｸﾞﾝﾏｹﾝ","kana_city":"ﾀﾃﾊﾞﾔｼｼ","kana_address":"ﾐﾅﾐﾐｿﾉﾁｮｳ","pref":"群馬県","city":"館林市","address":"南美園町"},
{"zip_code":"3740003","kana_pref":"ｸﾞﾝﾏｹﾝ","kana_city":"ﾀﾃﾊﾞﾔｼｼ","kana_address":"ﾖﾂﾔﾁｮｳ","pref":"群馬県","city":"館林市","address":"四ツ谷町"},
{"zip_code":"3740007","kana_pref":"ｸﾞﾝﾏｹﾝ","kana_city":"ﾀﾃﾊﾞﾔｼｼ","kana_address":"ﾜｶﾐﾔﾁｮｳ","pref":"群馬県","city":"館林市","address":"若宮町"},
{"zip_code":"3740100","kana_pref":"ｸﾞﾝﾏｹﾝ","kana_city":"ｵｳﾗｸﾞﾝｲﾀｸﾗﾏﾁ","kana_address":"","pref":"群馬県","city":"邑楽郡板倉町","address":""},
{"zip_code":"3740112","kana_pref":"ｸﾞﾝﾏｹﾝ","kana_city":"ｵｳﾗｸﾞﾝｲﾀｸﾗﾏﾁ","kana_address":"ｱｻﾋﾉ","pref":"群馬県","city":"邑楽郡板倉町","address":"朝日野"},
{"zip_code":"3740123","kana_pref":"ｸﾞﾝﾏｹﾝ","kana_city":"ｵｳﾗｸﾞﾝｲﾀｸﾗﾏﾁ","kana_address":"ｲｲﾉ","pref":"群馬県","city":"邑楽郡板倉町","address":"飯野"},
{"zip_code":"3740113","kana_pref":"ｸﾞﾝﾏｹﾝ","kana_city":"ｵｳﾗｸﾞﾝｲﾀｸﾗﾏﾁ","kana_address":"ｲｽﾞﾐﾉ","pref":"群馬県","city":"邑楽郡板倉町","address":"泉野"},
{"zip_code":"3740132","kana_pref":"ｸﾞﾝﾏｹﾝ","kana_city":"ｵｳﾗｸﾞﾝｲﾀｸﾗﾏﾁ","kana_address":"ｲﾀｸﾗ","pref":"群馬県","city":"邑楽郡板倉町","address":"板倉"},
{"zip_code":"3740133","kana_pref":"ｸﾞﾝﾏｹﾝ","kana_city":"ｵｳﾗｸﾞﾝｲﾀｸﾗﾏﾁ","kana_address":"ｲﾜﾀ","pref":"群馬県","city":"邑楽郡板倉町","address":"岩田"},
{"zip_code":"3740135","kana_pref":"ｸﾞﾝﾏｹﾝ","kana_city":"ｵｳﾗｸﾞﾝｲﾀｸﾗﾏﾁ","kana_address":"ｳﾁｸﾗｼﾝﾃﾞﾝ","pref":"群馬県","city":"邑楽郡板倉町","address":"内蔵新田"},
{"zip_code":"3740111","kana_pref":"ｸﾞﾝﾏｹﾝ","kana_city":"ｵｳﾗｸﾞﾝｲﾀｸﾗﾏﾁ","kana_address":"ｴﾋﾞｾ","pref":"群馬県","city":"邑楽郡板倉町","address":"海老瀬"},
{"zip_code":"3740131","kana_pref":"ｸﾞﾝﾏｹﾝ","kana_city":"ｵｳﾗｸﾞﾝｲﾀｸﾗﾏﾁ","kana_address":"ｵｵｸﾗ","pref":"群馬県","city":"邑楽郡板倉町","address":"大蔵"},
{"zip_code":"3740122","kana_pref":"ｸﾞﾝﾏｹﾝ","kana_city":"ｵｳﾗｸﾞﾝｲﾀｸﾗﾏﾁ","kana_address":"ｵｵﾀｶｼﾏ","pref":"群馬県","city":"邑楽郡板倉町","address":"大高嶋"},
{"zip_code":"3740104","kana_pref":"ｸﾞﾝﾏｹﾝ","kana_city":"ｵｳﾗｸﾞﾝｲﾀｸﾗﾏﾁ","kana_address":"ｵｵﾆﾝﾊﾞ","pref":"群馬県","city":"邑楽郡板倉町","address":"大荷場"},
{"zip_code":"3740105","kana_pref":"ｸﾞﾝﾏｹﾝ","kana_city":"ｵｳﾗｸﾞﾝｲﾀｸﾗﾏﾁ","kana_address":"ｵｵﾏｶﾞﾘ","pref":"群馬県","city":"邑楽郡板倉町","address":"大曲"},
{"zip_code":"3740121","kana_pref":"ｸﾞﾝﾏｹﾝ","kana_city":"ｵｳﾗｸﾞﾝｲﾀｸﾗﾏﾁ","kana_address":"ｼﾓｺﾞｶ","pref":"群馬県","city":"邑楽郡板倉町","address":"下五箇"},
{"zip_code":"3740107","kana_pref":"ｸﾞﾝﾏｹﾝ","kana_city":"ｵｳﾗｸﾞﾝｲﾀｸﾗﾏﾁ","kana_address":"ﾆｼｵｶ","pref":"群馬県","city":"邑楽郡板倉町","address":"西岡"},
{"zip_code":"3740106","kana_pref":"ｸﾞﾝﾏｹﾝ","kana_city":"ｵｳﾗｸﾞﾝｲﾀｸﾗﾏﾁ","kana_address":"ﾆｼｵｶｼﾝﾃﾞﾝ","pref":"群馬県","city":"邑楽郡板倉町","address":"西岡新田"},
{"zip_code":"3740102","kana_pref":"ｸﾞﾝﾏｹﾝ","kana_city":"ｵｳﾗｸﾞﾝｲﾀｸﾗﾏﾁ","kana_address":"ﾊﾅﾚ","pref":"群馬県","city":"邑楽郡板倉町","address":"離"},
{"zip_code":"3740103","kana_pref":"ｸﾞﾝﾏｹﾝ","kana_city":"ｵｳﾗｸﾞﾝｲﾀｸﾗﾏﾁ","kana_address":"ﾎｿﾔ","pref":"群馬県","city":"邑楽郡板倉町","address":"細谷"},
{"zip_code":"3740134","kana_pref":"ｸﾞﾝﾏｹﾝ","kana_city":"ｵｳﾗｸﾞﾝｲﾀｸﾗﾏﾁ","kana_address":"ﾓﾐﾔ","pref":"群馬県","city":"邑楽郡板倉町","address":"籾谷"},
{"zip_code":"3740101","kana_pref":"ｸﾞﾝﾏｹﾝ","kana_city":"ｵｳﾗｸﾞﾝｲﾀｸﾗﾏﾁ","kana_address":"ﾖｹｶﾞﾜ","pref":"群馬県","city":"邑楽郡板倉町","address":"除川"}]}