{"zip_code":[
{"zip_code":"3750000","kana_pref":"ｸﾞﾝﾏｹﾝ","kana_city":"ﾌｼﾞｵｶｼ","kana_address":"","pref":"群馬県","city":"藤岡市","address":""},
{"zip_code":"3750042","kana_pref":"ｸﾞﾝﾏｹﾝ","kana_city":"ﾌｼﾞｵｶｼ","kana_address":"ｱﾕｶﾞﾜ","pref":"群馬県","city":"藤岡市","address":"鮎川"},
{"zip_code":"3750034","kana_pref":"ｸﾞﾝﾏｹﾝ","kana_city":"ﾌｼﾞｵｶｼ","kana_address":"ｳｼﾀ","pref":"群馬県","city":"藤岡市","address":"牛田"},
{"zip_code":"3750011","kana_pref":"ｸﾞﾝﾏｹﾝ","kana_city":"ﾌｼﾞｵｶｼ","kana_address":"ｵｶﾉｺﾞｳ","pref":"群馬県","city":"藤岡市","address":"岡之郷"},
{"zip_code":"3750045","kana_pref":"ｸﾞﾝﾏｹﾝ","kana_city":"ﾌｼﾞｵｶｼ","kana_address":"ｶﾅｲ","pref":"群馬県","city":"藤岡市","address":"金井"},
{"zip_code":"3750054","kana_pref":"ｸﾞﾝﾏｹﾝ","kana_city":"ﾌｼﾞｵｶｼ","kana_address":"ｶﾐｵｵﾂﾞｶ","pref":"群馬県","city":"藤岡市","address":"上大塚"},
{"zip_code":"3750057","kana_pref":"ｸﾞﾝﾏｹﾝ","kana_city":"ﾌｼﾞｵｶｼ","kana_address":"ｶﾐｵﾁｱｲ","pref":"群馬県","city":"藤岡市","address":"上落合"},
{"zip_code":"3750016","kana_pref":"ｸﾞﾝﾏｹﾝ","kana_city":"ﾌｼﾞｵｶｼ","kana_address":"ｶﾐｸﾘｽ","pref":"群馬県","city":"藤岡市","address":"上栗須"},
{"zip_code":"3750013","kana_pref":"ｸﾞﾝﾏｹﾝ","kana_city":"ﾌｼﾞｵｶｼ","kana_address":"ｶﾐﾄﾂﾞｶ","pref":"群馬県","city":"藤岡市","address":"上戸塚"},
{"zip_code":"3750047","kana_pref":"ｸﾞﾝﾏｹﾝ","kana_city":"ﾌｼﾞｵｶｼ","kana_address":"ｶﾐﾋﾉ","pref":"群馬県","city":"藤岡市","address":"上日野"},
{"zip_code":"3750033","kana_pref":"ｸﾞﾝﾏｹﾝ","kana_city":"ﾌｼﾞｵｶｼ","kana_address":"ｶﾜﾖｹ","pref":"群馬県","city":"藤岡市","address":"川除"},
{"zip_code":"3750021","kana_pref":"ｸﾞﾝﾏｹﾝ","kana_city":"ﾌｼﾞｵｶｼ","kana_address":"ｺﾊﾞﾔｼ","pref":"群馬県","city":"藤岡市","address":"小林"},
{"zip_code":"3750037","kana_pref":"ｸﾞﾝﾏｹﾝ","kana_city":"ﾌｼﾞｵｶｼ","kana_address":"ｻﾝﾎﾞｷﾞ","pref":"群馬県","city":"藤岡市","address":"三本木"},
{"zip_code":"3750017","kana_pref":"ｸﾞﾝﾏｹﾝ","kana_city":"ﾌｼﾞｵｶｼ","kana_address":"ｼﾉﾂﾞｶ","pref":"群馬県","city":"藤岡市","address":"篠塚"},
{"zip_code":"3750052","kana_pref":"ｸﾞﾝﾏｹﾝ","kana_city":"ﾌｼﾞｵｶｼ","kana_address":"ｼﾓｵｵﾂﾞｶ","pref":"群馬県","city":"藤岡市","address":"下大塚"},
{"zip_code":"3750014","kana_pref":"ｸﾞﾝﾏｹﾝ","kana_city":"ﾌｼﾞｵｶｼ","kana_address":"ｼﾓｸﾘｽ","pref":"群馬県","city":"藤岡市","address":"下栗須"},
{"zip_code":"3750012","kana_pref":"ｸﾞﾝﾏｹﾝ","kana_city":"ﾌｼﾞｵｶｼ","kana_address":"ｼﾓﾄﾂﾞｶ","pref":"群馬県","city":"藤岡市","address":"下戸塚"},
{"zip_code":"3750046","kana_pref":"ｸﾞﾝﾏｹﾝ","kana_city":"ﾌｼﾞｵｶｼ","kana_address":"ｼﾓﾋﾉ","pref":"群馬県","city":"藤岡市","address":"下日野"},
{"zip_code":"3750055","kana_pref":"ｸﾞﾝﾏｹﾝ","kana_city":"ﾌｼﾞｵｶｼ","kana_address":"ｼﾛｲｼ","pref":"群馬県","city":"藤岡市","address":"白石"},
{"zip_code":"3750032","kana_pref":"ｸﾞﾝﾏｹﾝ","kana_city":"ﾌｼﾞｵｶｼ","kana_address":"ｼﾞﾝﾀﾞ","pref":"群馬県","city":"藤岡市","address":"神田"},
{"zip_code":"3750036","kana_pref":"ｸﾞﾝﾏｹﾝ","kana_city":"ﾌｼﾞｵｶｼ","kana_address":"ﾀｶﾔﾏ","pref":"群馬県","city":"藤岡市","address":"高山"},
{"zip_code":"3750002","kana_pref":"ｸﾞﾝﾏｹﾝ","kana_city":"ﾌｼﾞｵｶｼ","kana_address":"ﾀﾂｲｼ","pref":"群馬県","city":"藤岡市","address":"立石"},
{"zip_code":"3750003","kana_pref":"ｸﾞﾝﾏｹﾝ","kana_city":"ﾌｼﾞｵｶｼ","kana_address":"ﾀﾂｲｼｼﾝﾃﾞﾝ","pref":"群馬県","city":"藤岡市","address":"立石新田"},
{"zip_code":"3750005","kana_pref":"ｸﾞﾝﾏｹﾝ","kana_city":"ﾌｼﾞｵｶｼ","kana_address":"ﾅｶ","pref":"群馬県","city":"藤岡市","address":"中"},
{"zip_code":"3750053","kana_pref":"ｸﾞﾝﾏｹﾝ","kana_city":"ﾌｼﾞｵｶｼ","kana_address":"ﾅｶｵｵﾂﾞｶ","pref":"群馬県","city":"藤岡市","address":"中大塚"},
{"zip_code":"3750015","kana_pref":"ｸﾞﾝﾏｹﾝ","kana_city":"ﾌｼﾞｵｶｼ","kana_address":"ﾅｶｸﾘｽ","pref":"群馬県","city":"藤岡市","address":"中栗須"},
{"zip_code":"3750001","kana_pref":"ｸﾞﾝﾏｹﾝ","kana_city":"ﾌｼﾞｵｶｼ","kana_address":"ﾅｶｼﾞﾏ","pref":"群馬県","city":"藤岡市","address":"中島"},
{"zip_code":"3750044","kana_pref":"ｸﾞﾝﾏｹﾝ","kana_city":"ﾌｼﾞｵｶｼ","kana_address":"ﾆｼﾋﾗｲ","pref":"群馬県","city":"藤岡市","address":"西平井"},
{"zip_code":"3750022","kana_pref":"ｸﾞﾝﾏｹﾝ","kana_city":"ﾌｼﾞｵｶｼ","kana_address":"ﾈｷﾞｼ","pref":"群馬県","city":"藤岡市","address":"根岸"},
{"zip_code":"3750043","kana_pref":"ｸﾞﾝﾏｹﾝ","kana_city":"ﾌｼﾞｵｶｼ","kana_address":"ﾋｶﾞｼﾋﾗｲ","pref":"群馬県","city":"藤岡市","address":"東平井"},
{"zip_code":"3750024","kana_pref":"ｸﾞﾝﾏｹﾝ","kana_city":"ﾌｼﾞｵｶｼ","kana_address":"ﾌｼﾞｵｶ","pref":"群馬県","city":"藤岡市","address":"藤岡"},
{"zip_code":"3750035","kana_pref":"ｸﾞﾝﾏｹﾝ","kana_city":"ﾌｼﾞｵｶｼ","kana_address":"ﾎﾐ","pref":"群馬県","city":"藤岡市","address":"保美"},
{"zip_code":"3750023","kana_pref":"ｸﾞﾝﾏｹﾝ","kana_city":"ﾌｼﾞｵｶｼ","kana_address":"ﾎﾝｺﾞｳ","pref":"群馬県","city":"藤岡市","address":"本郷"},
{"zip_code":"3750056","kana_pref":"ｸﾞﾝﾏｹﾝ","kana_city":"ﾌｼﾞｵｶｼ","kana_address":"ﾐﾂｷﾞ","pref":"群馬県","city":"藤岡市","address":"三ツ木"},
{"zip_code":"3750041","kana_pref":"ｸﾞﾝﾏｹﾝ","kana_city":"ﾌｼﾞｵｶｼ","kana_address":"ﾐﾄﾞﾉ","pref":"群馬県","city":"藤岡市","address":"緑埜"},
{"zip_code":"3750051","kana_pref":"ｸﾞﾝﾏｹﾝ","kana_city":"ﾌｼﾞｵｶｼ","kana_address":"ﾓﾄﾕﾙｷﾞﾄﾞｳ","pref":"群馬県","city":"藤岡市","address":"本動堂"},
{"zip_code":"3750004","kana_pref":"ｸﾞﾝﾏｹﾝ","kana_city":"ﾌｼﾞｵｶｼ","kana_address":"ﾓﾘ","pref":"群馬県","city":"藤岡市","address":"森"},
{"zip_code":"3750006","kana_pref":"ｸﾞﾝﾏｹﾝ","kana_city":"ﾌｼﾞｵｶｼ","kana_address":"ﾓﾘｼﾝﾃﾞﾝ","pref":"群馬県","city":"藤岡市","address":"森新田"},
{"zip_code":"3750031","kana_pref":"ｸﾞﾝﾏｹﾝ","kana_city":"ﾌｼﾞｵｶｼ","kana_address":"ﾔﾊﾞ","pref":"群馬県","city":"藤岡市","address":"矢場"}]}