{"zip_code":[
{"zip_code":"3760000","kana_pref":"ｸﾞﾝﾏｹﾝ","kana_city":"ｷﾘｭｳｼ","kana_address":"","pref":"群馬県","city":"桐生市","address":""},
{"zip_code":"3760011","kana_pref":"ｸﾞﾝﾏｹﾝ","kana_city":"ｷﾘｭｳｼ","kana_address":"ｱｲｵｲﾁｮｳ","pref":"群馬県","city":"桐生市","address":"相生町"},
{"zip_code":"3760037","kana_pref":"ｸﾞﾝﾏｹﾝ","kana_city":"ｷﾘｭｳｼ","kana_address":"ｱｻﾋﾁｮｳ","pref":"群馬県","city":"桐生市","address":"旭町"},
{"zip_code":"3760032","kana_pref":"ｸﾞﾝﾏｹﾝ","kana_city":"ｷﾘｭｳｼ","kana_address":"ｱｽﾞﾏﾁｮｳ","pref":"群馬県","city":"桐生市","address":"東町"},
{"zip_code":"3760033","kana_pref":"ｸﾞﾝﾏｹﾝ","kana_city":"ｷﾘｭｳｼ","kana_address":"ｲｽﾞﾐﾁｮｳ","pref":"群馬県","city":"桐生市","address":"泉町"},
{"zip_code":"3760022","kana_pref":"ｸﾞﾝﾏｹﾝ","kana_city":"ｷﾘｭｳｼ","kana_address":"ｲﾅﾘﾁｮｳ","pref":"群馬県","city":"桐生市","address":"稲荷町"},
{"zip_code":"3760601","kana_pref":"ｸﾞﾝﾏｹﾝ","kana_city":"ｷﾘｭｳｼ","kana_address":"ｳﾒﾀﾞﾁｮｳ","pref":"群馬県","city":"桐生市","address":"梅田町"},
{"zip_code":"3760044","kana_pref":"ｸﾞﾝﾏｹﾝ","kana_city":"ｷﾘｭｳｼ","kana_address":"ｴｲﾗｸﾁｮｳ","pref":"群馬県","city":"桐生市","address":"永楽町"},
{"zip_code":"3760024","kana_pref":"ｸﾞﾝﾏｹﾝ","kana_city":"ｷﾘｭｳｼ","kana_address":"ｵﾘﾋﾒﾁｮｳ","pref":"群馬県","city":"桐生市","address":"織姫町"},
{"zip_code":"3760041","kana_pref":"ｸﾞﾝﾏｹﾝ","kana_city":"ｷﾘｭｳｼ","kana_address":"ｶﾜｳﾁﾁｮｳ","pref":"群馬県","city":"桐生市","address":"川内町"},
{"zip_code":"3760036","kana_pref":"ｸﾞﾝﾏｹﾝ","kana_city":"ｷﾘｭｳｼ","kana_address":"ｶﾜｷﾞｼﾁｮｳ","pref":"群馬県","city":"桐生市","address":"川岸町"},
{"zip_code":"3760026","kana_pref":"ｸﾞﾝﾏｹﾝ","kana_city":"ｷﾘｭｳｼ","kana_address":"ｷﾖｾﾁｮｳ","pref":"群馬県","city":"桐生市","address":"清瀬町"},
{"zip_code":"3760145","kana_pref":"ｸﾞﾝﾏｹﾝ","kana_city":"ｷﾘｭｳｼ","kana_address":"ｸﾛﾎﾈﾁｮｳｶﾐﾀｻﾞﾜ","pref":"群馬県","city":"桐生市","address":"黒保根町上田沢"},
{"zip_code":"3760144","kana_pref":"ｸﾞﾝﾏｹﾝ","kana_city":"ｷﾘｭｳｼ","kana_address":"ｸﾛﾎﾈﾁｮｳｼﾓﾀｻﾞﾜ","pref":"群馬県","city":"桐生市","address":"黒保根町下田沢"},
{"zip_code":"3760143","kana_pref":"ｸﾞﾝﾏｹﾝ","kana_city":"ｷﾘｭｳｼ","kana_address":"ｸﾛﾎﾈﾁｮｳｼｭｸﾒｸﾞﾘ","pref":"群馬県","city":"桐生市","address":"黒保根町宿廻"},
{"zip_code":"3760141","kana_pref":"ｸﾞﾝﾏｹﾝ","kana_city":"ｷﾘｭｳｼ","kana_address":"ｸﾛﾎﾈﾁｮｳﾐｽﾞﾇﾏ","pref":"群馬県","city":"桐生市","address":"黒保根町水沼"},
{"zip_code":"3760142","kana_pref":"ｸﾞﾝﾏｹﾝ","kana_city":"ｷﾘｭｳｼ","kana_address":"ｸﾛﾎﾈﾁｮｳﾔｷﾞﾊﾗ","pref":"群馬県","city":"桐生市","address":"黒保根町八木原"},
{"zip_code":"3760004","kana_pref":"ｸﾞﾝﾏｹﾝ","kana_city":"ｷﾘｭｳｼ","kana_address":"ｺｳﾒﾁｮｳ","pref":"群馬県","city":"桐生市","address":"小梅町"},
{"zip_code":"3760043","kana_pref":"ｸﾞﾝﾏｹﾝ","kana_city":"ｷﾘｭｳｼ","kana_address":"ｺｿﾈﾁｮｳ","pref":"群馬県","city":"桐生市","address":"小曾根町"},
{"zip_code":"3760003","kana_pref":"ｸﾞﾝﾏｹﾝ","kana_city":"ｷﾘｭｳｼ","kana_address":"ｺﾄﾋﾗﾁｮｳ","pref":"群馬県","city":"桐生市","address":"琴平町"},
{"zip_code":"3760002","kana_pref":"ｸﾞﾝﾏｹﾝ","kana_city":"ｷﾘｭｳｼ","kana_address":"ｻｶｲﾉﾁｮｳ","pref":"群馬県","city":"桐生市","address":"境野町"},
{"zip_code":"3760012","kana_pref":"ｸﾞﾝﾏｹﾝ","kana_city":"ｷﾘｭｳｼ","kana_address":"ｻｸﾗｷﾞﾁｮｳ","pref":"群馬県","city":"桐生市","address":"桜木町"},
{"zip_code":"3760006","kana_pref":"ｸﾞﾝﾏｹﾝ","kana_city":"ｷﾘｭｳｼ","kana_address":"ｼﾝｼｭｸ","pref":"群馬県","city":"桐生市","address":"新宿"},
{"zip_code":"3760045","kana_pref":"ｸﾞﾝﾏｹﾝ","kana_city":"ｷﾘｭｳｼ","kana_address":"ｽｴﾋﾛﾁｮｳ","pref":"群馬県","city":"桐生市","address":"末広町"},
{"zip_code":"3760038","kana_pref":"ｸﾞﾝﾏｹﾝ","kana_city":"ｷﾘｭｳｼ","kana_address":"ﾀｶｻｺﾞﾁｮｳ","pref":"群馬県","city":"桐生市","address":"高砂町"},
{"zip_code":"3760042","kana_pref":"ｸﾞﾝﾏｹﾝ","kana_city":"ｷﾘｭｳｼ","kana_address":"ﾂﾂﾐﾁｮｳ","pref":"群馬県","city":"桐生市","address":"堤町"},
{"zip_code":"3760052","kana_pref":"ｸﾞﾝﾏｹﾝ","kana_city":"ｷﾘｭｳｼ","kana_address":"ﾃﾝｼﾞﾝﾁｮｳ","pref":"群馬県","city":"桐生市","address":"天神町"},
{"zip_code":"3760021","kana_pref":"ｸﾞﾝﾏｹﾝ","kana_city":"ｷﾘｭｳｼ","kana_address":"ﾄﾓｴﾁｮｳ","pref":"群馬県","city":"桐生市","address":"巴町"},
{"zip_code":"3760035","kana_pref":"ｸﾞﾝﾏｹﾝ","kana_city":"ｷﾘｭｳｼ","kana_address":"ﾅｶﾏﾁ","pref":"群馬県","city":"桐生市","address":"仲町"},
{"zip_code":"3760137","kana_pref":"ｸﾞﾝﾏｹﾝ","kana_city":"ｷﾘｭｳｼ","kana_address":"ﾆｲｻﾄﾁｮｳｱｶｷﾞｻﾝ","pref":"群馬県","city":"桐生市","address":"新里町赤城山"},
{"zip_code":"3760136","kana_pref":"ｸﾞﾝﾏｹﾝ","kana_city":"ｷﾘｭｳｼ","kana_address":"ﾆｲｻﾄﾁｮｳｲﾀﾊﾞｼ","pref":"群馬県","city":"桐生市","address":"新里町板橋"},
{"zip_code":"3760133","kana_pref":"ｸﾞﾝﾏｹﾝ","kana_city":"ｷﾘｭｳｼ","kana_address":"ﾆｲｻﾄﾁｮｳｵｵｸﾎﾞ","pref":"群馬県","city":"桐生市","address":"新里町大久保"},
{"zip_code":"3760131","kana_pref":"ｸﾞﾝﾏｹﾝ","kana_city":"ｷﾘｭｳｼ","kana_address":"ﾆｲｻﾄﾁｮｳｵｸｻﾞﾜ","pref":"群馬県","city":"桐生市","address":"新里町奥沢"},
{"zip_code":"3760124","kana_pref":"ｸﾞﾝﾏｹﾝ","kana_city":"ｷﾘｭｳｼ","kana_address":"ﾆｲｻﾄﾁｮｳｺﾊﾞﾔｼ","pref":"群馬県","city":"桐生市","address":"新里町小林"},
{"zip_code":"3760134","kana_pref":"ｸﾞﾝﾏｹﾝ","kana_city":"ｷﾘｭｳｼ","kana_address":"ﾆｲｻﾄﾁｮｳｾｷ","pref":"群馬県","city":"桐生市","address":"新里町関"},
{"zip_code":"3760135","kana_pref":"ｸﾞﾝﾏｹﾝ","kana_city":"ｷﾘｭｳｼ","kana_address":"ﾆｲｻﾄﾁｮｳﾀｶｲｽﾞﾐ","pref":"群馬県","city":"桐生市","address":"新里町高泉"},
{"zip_code":"3760123","kana_pref":"ｸﾞﾝﾏｹﾝ","kana_city":"ｷﾘｭｳｼ","kana_address":"ﾆｲｻﾄﾁｮｳﾀｹｲ","pref":"群馬県","city":"桐生市","address":"新里町武井"},
{"zip_code":"3760132","kana_pref":"ｸﾞﾝﾏｹﾝ","kana_city":"ｷﾘｭｳｼ","kana_address":"ﾆｲｻﾄﾁｮｳﾂﾙｶﾞﾔ","pref":"群馬県","city":"桐生市","address":"新里町鶴ケ谷"},
{"zip_code":"3760121","kana_pref":"ｸﾞﾝﾏｹﾝ","kana_city":"ｷﾘｭｳｼ","kana_address":"ﾆｲｻﾄﾁｮｳﾆｯｶﾜ","pref":"群馬県","city":"桐生市","address":"新里町新川"},
{"zip_code":"3760122","kana_pref":"ｸﾞﾝﾏｹﾝ","kana_city":"ｷﾘｭｳｼ","kana_address":"ﾆｲｻﾄﾁｮｳﾉ","pref":"群馬県","city":"桐生市","address":"新里町野"},
{"zip_code":"3760125","kana_pref":"ｸﾞﾝﾏｹﾝ","kana_city":"ｷﾘｭｳｼ","kana_address":"ﾆｲｻﾄﾁｮｳﾔﾏｶﾐ","pref":"群馬県","city":"桐生市","address":"新里町山上"},
{"zip_code":"3760023","kana_pref":"ｸﾞﾝﾏｹﾝ","kana_city":"ｷﾘｭｳｼ","kana_address":"ﾆｼｷﾁｮｳ","pref":"群馬県","city":"桐生市","address":"錦町"},
{"zip_code":"3760054","kana_pref":"ｸﾞﾝﾏｹﾝ","kana_city":"ｷﾘｭｳｼ","kana_address":"ﾆｼﾋｻｶﾀﾁｮｳ","pref":"群馬県","city":"桐生市","address":"西久方町"},
{"zip_code":"3760007","kana_pref":"ｸﾞﾝﾏｹﾝ","kana_city":"ｷﾘｭｳｼ","kana_address":"ﾊﾏﾏﾂﾁｮｳ","pref":"群馬県","city":"桐生市","address":"浜松町"},
{"zip_code":"3760034","kana_pref":"ｸﾞﾝﾏｹﾝ","kana_city":"ｷﾘｭｳｼ","kana_address":"ﾋｶﾞｼ","pref":"群馬県","city":"桐生市","address":"東"},
{"zip_code":"3760053","kana_pref":"ｸﾞﾝﾏｹﾝ","kana_city":"ｷﾘｭｳｼ","kana_address":"ﾋｶﾞｼﾋｻｶﾀﾁｮｳ","pref":"群馬県","city":"桐生市","address":"東久方町"},
{"zip_code":"3760001","kana_pref":"ｸﾞﾝﾏｹﾝ","kana_city":"ｷﾘｭｳｼ","kana_address":"ﾋｼﾏﾁ","pref":"群馬県","city":"桐生市","address":"菱町"},
{"zip_code":"3760051","kana_pref":"ｸﾞﾝﾏｹﾝ","kana_city":"ｷﾘｭｳｼ","kana_address":"ﾋﾗｲﾁｮｳ","pref":"群馬県","city":"桐生市","address":"平井町"},
{"zip_code":"3760013","kana_pref":"ｸﾞﾝﾏｹﾝ","kana_city":"ｷﾘｭｳｼ","kana_address":"ﾋﾛｻﾜﾁｮｳ","pref":"群馬県","city":"桐生市","address":"広沢町"},
{"zip_code":"3760014","kana_pref":"ｸﾞﾝﾏｹﾝ","kana_city":"ｷﾘｭｳｼ","kana_address":"ﾋﾛｻﾜﾁｮｳｱｲﾉｼﾏ","pref":"群馬県","city":"桐生市","address":"広沢町間ノ島"},
{"zip_code":"3760031","kana_pref":"ｸﾞﾝﾏｹﾝ","kana_city":"ｷﾘｭｳｼ","kana_address":"ﾎﾝﾁｮｳ","pref":"群馬県","city":"桐生市","address":"本町"},
{"zip_code":"3760025","kana_pref":"ｸﾞﾝﾏｹﾝ","kana_city":"ｷﾘｭｳｼ","kana_address":"ﾐﾊﾗﾁｮｳ","pref":"群馬県","city":"桐生市","address":"美原町"},
{"zip_code":"3760046","kana_pref":"ｸﾞﾝﾏｹﾝ","kana_city":"ｷﾘｭｳｼ","kana_address":"ﾐﾔﾏｴﾁｮｳ","pref":"群馬県","city":"桐生市","address":"宮前町"},
{"zip_code":"3760056","kana_pref":"ｸﾞﾝﾏｹﾝ","kana_city":"ｷﾘｭｳｼ","kana_address":"ﾐﾔﾓﾄﾁｮｳ","pref":"群馬県","city":"桐生市","address":"宮本町"},
{"zip_code":"3760005","kana_pref":"ｸﾞﾝﾏｹﾝ","kana_city":"ｷﾘｭｳｼ","kana_address":"ﾐﾖｼﾁｮｳ","pref":"群馬県","city":"桐生市","address":"三吉町"},
{"zip_code":"3760027","kana_pref":"ｸﾞﾝﾏｹﾝ","kana_city":"ｷﾘｭｳｼ","kana_address":"ﾓﾄｼﾞｭｸﾁｮｳ","pref":"群馬県","city":"桐生市","address":"元宿町"},
{"zip_code":"3760055","kana_pref":"ｸﾞﾝﾏｹﾝ","kana_city":"ｷﾘｭｳｼ","kana_address":"ﾖｺﾔﾏﾁｮｳ","pref":"群馬県","city":"桐生市","address":"横山町"},
{"zip_code":"3760100","kana_pref":"ｸﾞﾝﾏｹﾝ","kana_city":"ﾐﾄﾞﾘｼ","kana_address":"","pref":"群馬県","city":"みどり市","address":""},
{"zip_code":"3760306","kana_pref":"ｸﾞﾝﾏｹﾝ","kana_city":"ﾐﾄﾞﾘｼ","kana_address":"ｱｽﾞﾏﾁｮｳｵｷﾞﾊﾗ","pref":"群馬県","city":"みどり市","address":"東町荻原"},
{"zip_code":"3760302","kana_pref":"ｸﾞﾝﾏｹﾝ","kana_city":"ﾐﾄﾞﾘｼ","kana_address":"ｱｽﾞﾏﾁｮｳｸｻｷﾞ","pref":"群馬県","city":"みどり市","address":"東町草木"},
{"zip_code":"3760304","kana_pref":"ｸﾞﾝﾏｹﾝ","kana_city":"ﾐﾄﾞﾘｼ","kana_address":"ｱｽﾞﾏﾁｮｳｺﾞｳﾄﾞ","pref":"群馬県","city":"みどり市","address":"東町神戸"},
{"zip_code":"3760308","kana_pref":"ｸﾞﾝﾏｹﾝ","kana_city":"ﾐﾄﾞﾘｼ","kana_address":"ｱｽﾞﾏﾁｮｳｺﾅｶ","pref":"群馬県","city":"みどり市","address":"東町小中"},
{"zip_code":"3760303","kana_pref":"ｸﾞﾝﾏｹﾝ","kana_city":"ﾐﾄﾞﾘｼ","kana_address":"ｱｽﾞﾏﾁｮｳｻﾞﾏ","pref":"群馬県","city":"みどり市","address":"東町座間"},
{"zip_code":"3760305","kana_pref":"ｸﾞﾝﾏｹﾝ","kana_city":"ﾐﾄﾞﾘｼ","kana_address":"ｱｽﾞﾏﾁｮｳｻﾔﾄﾞ","pref":"群馬県","city":"みどり市","address":"東町小夜戸"},
{"zip_code":"3760301","kana_pref":"ｸﾞﾝﾏｹﾝ","kana_city":"ﾐﾄﾞﾘｼ","kana_address":"ｱｽﾞﾏﾁｮｳｿｳﾘ","pref":"群馬県","city":"みどり市","address":"東町沢入"},
{"zip_code":"3760307","kana_pref":"ｸﾞﾝﾏｹﾝ","kana_city":"ﾐﾄﾞﾘｼ","kana_address":"ｱｽﾞﾏﾁｮｳﾊﾅﾜ","pref":"群馬県","city":"みどり市","address":"東町花輪"},
{"zip_code":"3760114","kana_pref":"ｸﾞﾝﾏｹﾝ","kana_city":"ﾐﾄﾞﾘｼ","kana_address":"ｵｵﾏﾏﾁｮｳｱｻﾊﾞﾗ","pref":"群馬県","city":"みどり市","address":"大間々町浅原"},
{"zip_code":"3760101","kana_pref":"ｸﾞﾝﾏｹﾝ","kana_city":"ﾐﾄﾞﾘｼ","kana_address":"ｵｵﾏﾏﾁｮｳｵｵﾏﾏ","pref":"群馬県","city":"みどり市","address":"大間々町大間々"},
{"zip_code":"3760111","kana_pref":"ｸﾞﾝﾏｹﾝ","kana_city":"ﾐﾄﾞﾘｼ","kana_address":"ｵｵﾏﾏﾁｮｳｵﾀﾞｲﾗ","pref":"群馬県","city":"みどり市","address":"大間々町小平"},
{"zip_code":"3760104","kana_pref":"ｸﾞﾝﾏｹﾝ","kana_city":"ﾐﾄﾞﾘｼ","kana_address":"ｵｵﾏﾏﾁｮｳｶﾐｶﾝﾊﾞｲ","pref":"群馬県","city":"みどり市","address":"大間々町上神梅"},
{"zip_code":"3760102","kana_pref":"ｸﾞﾝﾏｹﾝ","kana_city":"ﾐﾄﾞﾘｼ","kana_address":"ｵｵﾏﾏﾁｮｳｷﾘﾊﾞﾗ","pref":"群馬県","city":"みどり市","address":"大間々町桐原"},
{"zip_code":"3760116","kana_pref":"ｸﾞﾝﾏｹﾝ","kana_city":"ﾐﾄﾞﾘｼ","kana_address":"ｵｵﾏﾏﾁｮｳｼｵｻﾞﾜ","pref":"群馬県","city":"みどり市","address":"大間々町塩沢"},
{"zip_code":"3760115","kana_pref":"ｸﾞﾝﾏｹﾝ","kana_city":"ﾐﾄﾞﾘｼ","kana_address":"ｵｵﾏﾏﾁｮｳｼｵﾊﾞﾗ","pref":"群馬県","city":"みどり市","address":"大間々町塩原"},
{"zip_code":"3760103","kana_pref":"ｸﾞﾝﾏｹﾝ","kana_city":"ﾐﾄﾞﾘｼ","kana_address":"ｵｵﾏﾏﾁｮｳｼﾓｶﾝﾊﾞｲ","pref":"群馬県","city":"みどり市","address":"大間々町下神梅"},
{"zip_code":"3760113","kana_pref":"ｸﾞﾝﾏｹﾝ","kana_city":"ﾐﾄﾞﾘｼ","kana_address":"ｵｵﾏﾏﾁｮｳﾀｶﾂﾄﾞ","pref":"群馬県","city":"みどり市","address":"大間々町高津戸"},
{"zip_code":"3760112","kana_pref":"ｸﾞﾝﾏｹﾝ","kana_city":"ﾐﾄﾞﾘｼ","kana_address":"ｵｵﾏﾏﾁｮｳﾅｶﾞｵﾈ","pref":"群馬県","city":"みどり市","address":"大間々町長尾根"}]}