{"zip_code":[
{"zip_code":"3770000","kana_pref":"ｸﾞﾝﾏｹﾝ","kana_city":"ｼﾌﾞｶﾜｼ","kana_address":"","pref":"群馬県","city":"渋川市","address":""},
{"zip_code":"3770031","kana_pref":"ｸﾞﾝﾏｹﾝ","kana_city":"ｼﾌﾞｶﾜｼ","kana_address":"ｱｸﾂ","pref":"群馬県","city":"渋川市","address":"阿久津"},
{"zip_code":"3770005","kana_pref":"ｸﾞﾝﾏｹﾝ","kana_city":"ｼﾌﾞｶﾜｼ","kana_address":"ｱﾘﾏ","pref":"群馬県","city":"渋川市","address":"有馬"},
{"zip_code":"3770102","kana_pref":"ｸﾞﾝﾏｹﾝ","kana_city":"ｼﾌﾞｶﾜｼ","kana_address":"ｲｶﾎﾏﾁｲｶﾎ","pref":"群馬県","city":"渋川市","address":"伊香保町伊香保"},
{"zip_code":"3770103","kana_pref":"ｸﾞﾝﾏｹﾝ","kana_city":"ｼﾌﾞｶﾜｼ","kana_address":"ｲｶﾎﾏﾁﾐｽﾞｻﾜ","pref":"群馬県","city":"渋川市","address":"伊香保町水沢"},
{"zip_code":"3770101","kana_pref":"ｸﾞﾝﾏｹﾝ","kana_city":"ｼﾌﾞｶﾜｼ","kana_address":"ｲｶﾎﾏﾁﾕﾅｶｺﾞ","pref":"群馬県","city":"渋川市","address":"伊香保町湯中子"},
{"zip_code":"3770007","kana_pref":"ｸﾞﾝﾏｹﾝ","kana_city":"ｼﾌﾞｶﾜｼ","kana_address":"ｲｼﾊﾗ","pref":"群馬県","city":"渋川市","address":"石原"},
{"zip_code":"3770024","kana_pref":"ｸﾞﾝﾏｹﾝ","kana_city":"ｼﾌﾞｶﾜｼ","kana_address":"ｳﾊﾞｼﾏ","pref":"群馬県","city":"渋川市","address":"祖母島"},
{"zip_code":"3770312","kana_pref":"ｸﾞﾝﾏｹﾝ","kana_city":"ｼﾌﾞｶﾜｼ","kana_address":"ｵﾉｺ","pref":"群馬県","city":"渋川市","address":"小野子"},
{"zip_code":"3770027","kana_pref":"ｸﾞﾝﾏｹﾝ","kana_city":"ｼﾌﾞｶﾜｼ","kana_address":"ｶﾅｲ","pref":"群馬県","city":"渋川市","address":"金井"},
{"zip_code":"3770201","kana_pref":"ｸﾞﾝﾏｹﾝ","kana_city":"ｼﾌﾞｶﾜｼ","kana_address":"ｶﾐｼﾛｲ","pref":"群馬県","city":"渋川市","address":"上白井"},
{"zip_code":"3770025","kana_pref":"ｸﾞﾝﾏｹﾝ","kana_city":"ｼﾌﾞｶﾜｼ","kana_address":"ｶﾜｼﾏ","pref":"群馬県","city":"渋川市","address":"川島"},
{"zip_code":"3770205","kana_pref":"ｸﾞﾝﾏｹﾝ","kana_city":"ｼﾌﾞｶﾜｼ","kana_address":"ｷﾀﾓｸ","pref":"群馬県","city":"渋川市","address":"北牧"},
{"zip_code":"3770008","kana_pref":"ｸﾞﾝﾏｹﾝ","kana_city":"ｼﾌﾞｶﾜｼ","kana_address":"ｼﾌﾞｶﾜ","pref":"群馬県","city":"渋川市","address":"渋川"},
{"zip_code":"3770204","kana_pref":"ｸﾞﾝﾏｹﾝ","kana_city":"ｼﾌﾞｶﾜｼ","kana_address":"ｼﾛｲ","pref":"群馬県","city":"渋川市","address":"白井"},
{"zip_code":"3770202","kana_pref":"ｸﾞﾝﾏｹﾝ","kana_city":"ｼﾌﾞｶﾜｼ","kana_address":"ﾅｶｺﾞｳ","pref":"群馬県","city":"渋川市","address":"中郷"},
{"zip_code":"3770002","kana_pref":"ｸﾞﾝﾏｹﾝ","kana_city":"ｼﾌﾞｶﾜｼ","kana_address":"ﾅｶﾑﾗ","pref":"群馬県","city":"渋川市","address":"中村"},
{"zip_code":"3770026","kana_pref":"ｸﾞﾝﾏｹﾝ","kana_city":"ｼﾌﾞｶﾜｼ","kana_address":"ﾅﾝﾓｸ","pref":"群馬県","city":"渋川市","address":"南牧"},
{"zip_code":"3770004","kana_pref":"ｸﾞﾝﾏｹﾝ","kana_city":"ｼﾌﾞｶﾜｼ","kana_address":"ﾊﾝﾀﾞ","pref":"群馬県","city":"渋川市","address":"半田"},
{"zip_code":"3770203","kana_pref":"ｸﾞﾝﾏｹﾝ","kana_city":"ｼﾌﾞｶﾜｼ","kana_address":"ﾌｷﾔ","pref":"群馬県","city":"渋川市","address":"吹屋"},
{"zip_code":"3770051","kana_pref":"ｸﾞﾝﾏｹﾝ","kana_city":"ｼﾌﾞｶﾜｼ","kana_address":"ﾎｯｷﾂﾏﾁｱｶｷﾞｻﾝ","pref":"群馬県","city":"渋川市","address":"北橘町赤城山"},
{"zip_code":"3770055","kana_pref":"ｸﾞﾝﾏｹﾝ","kana_city":"ｼﾌﾞｶﾜｼ","kana_address":"ﾎｯｷﾂﾏﾁｶﾐﾅﾑﾛ","pref":"群馬県","city":"渋川市","address":"北橘町上南室"},
{"zip_code":"3770052","kana_pref":"ｸﾞﾝﾏｹﾝ","kana_city":"ｼﾌﾞｶﾜｼ","kana_address":"ﾎｯｷﾂﾏﾁｶﾐﾊｺﾀﾞ","pref":"群馬県","city":"渋川市","address":"北橘町上箱田"},
{"zip_code":"3770065","kana_pref":"ｸﾞﾝﾏｹﾝ","kana_city":"ｼﾌﾞｶﾜｼ","kana_address":"ﾎｯｷﾂﾏﾁｺﾑﾛ","pref":"群馬県","city":"渋川市","address":"北橘町小室"},
{"zip_code":"3770054","kana_pref":"ｸﾞﾝﾏｹﾝ","kana_city":"ｼﾌﾞｶﾜｼ","kana_address":"ﾎｯｷﾂﾏﾁｼﾓﾅﾑﾛ","pref":"群馬県","city":"渋川市","address":"北橘町下南室"},
{"zip_code":"3770061","kana_pref":"ｸﾞﾝﾏｹﾝ","kana_city":"ｼﾌﾞｶﾜｼ","kana_address":"ﾎｯｷﾂﾏﾁｼﾓﾊｺﾀﾞ","pref":"群馬県","city":"渋川市","address":"北橘町下箱田"},
{"zip_code":"3770053","kana_pref":"ｸﾞﾝﾏｹﾝ","kana_city":"ｼﾌﾞｶﾜｼ","kana_address":"ﾎｯｷﾂﾏﾁﾊｺﾀﾞ","pref":"群馬県","city":"渋川市","address":"北橘町箱田"},
{"zip_code":"3770064","kana_pref":"ｸﾞﾝﾏｹﾝ","kana_city":"ｼﾌﾞｶﾜｼ","kana_address":"ﾎｯｷﾂﾏﾁﾊｯｻｷ","pref":"群馬県","city":"渋川市","address":"北橘町八崎"},
{"zip_code":"3770063","kana_pref":"ｸﾞﾝﾏｹﾝ","kana_city":"ｼﾌﾞｶﾜｼ","kana_address":"ﾎｯｷﾂﾏﾁﾌﾞﾝｺﾞｳﾊｯｻｷ","pref":"群馬県","city":"渋川市","address":"北橘町分郷八崎"},
{"zip_code":"3770062","kana_pref":"ｸﾞﾝﾏｹﾝ","kana_city":"ｼﾌﾞｶﾜｼ","kana_address":"ﾎｯｷﾂﾏﾁﾏｶﾍﾞ","pref":"群馬県","city":"渋川市","address":"北橘町真壁"},
{"zip_code":"3770006","kana_pref":"ｸﾞﾝﾏｹﾝ","kana_city":"ｼﾌﾞｶﾜｼ","kana_address":"ﾐﾕｷﾀﾞ","pref":"群馬県","city":"渋川市","address":"行幸田"},
{"zip_code":"3770311","kana_pref":"ｸﾞﾝﾏｹﾝ","kana_city":"ｼﾌﾞｶﾜｼ","kana_address":"ﾑﾗｶﾐ","pref":"群馬県","city":"渋川市","address":"村上"},
{"zip_code":"3770003","kana_pref":"ｸﾞﾝﾏｹﾝ","kana_city":"ｼﾌﾞｶﾜｼ","kana_address":"ﾔｷﾞﾊﾗ","pref":"群馬県","city":"渋川市","address":"八木原"},
{"zip_code":"3770206","kana_pref":"ｸﾞﾝﾏｹﾝ","kana_city":"ｼﾌﾞｶﾜｼ","kana_address":"ﾖｺﾎﾞﾘ","pref":"群馬県","city":"渋川市","address":"横堀"},
{"zip_code":"3770400","kana_pref":"ｸﾞﾝﾏｹﾝ","kana_city":"ｱｶﾞﾂﾏｸﾞﾝﾅｶﾉｼﾞｮｳﾏﾁ","kana_address":"","pref":"群馬県","city":"吾妻郡中之条町","address":""},
{"zip_code":"3770422","kana_pref":"ｸﾞﾝﾏｹﾝ","kana_city":"ｱｶﾞﾂﾏｸﾞﾝﾅｶﾉｼﾞｮｳﾏﾁ","kana_address":"ｱｵﾔﾏ","pref":"群馬県","city":"吾妻郡中之条町","address":"青山"},
{"zip_code":"3771311","kana_pref":"ｸﾞﾝﾏｹﾝ","kana_city":"ｱｶﾞﾂﾏｸﾞﾝﾅｶﾉｼﾞｮｳﾏﾁ","kana_address":"ｱｶｲﾜ","pref":"群馬県","city":"吾妻郡中之条町","address":"赤岩"},
{"zip_code":"3770417","kana_pref":"ｸﾞﾝﾏｹﾝ","kana_city":"ｱｶﾞﾂﾏｸﾞﾝﾅｶﾉｼﾞｮｳﾏﾁ","kana_address":"ｱｶｻｶ","pref":"群馬県","city":"吾妻郡中之条町","address":"赤坂"},
{"zip_code":"3770416","kana_pref":"ｸﾞﾝﾏｹﾝ","kana_city":"ｱｶﾞﾂﾏｸﾞﾝﾅｶﾉｼﾞｮｳﾏﾁ","kana_address":"ｱﾘｶﾞﾜ","pref":"群馬県","city":"吾妻郡中之条町","address":"蟻川"},
{"zip_code":"3770423","kana_pref":"ｸﾞﾝﾏｹﾝ","kana_city":"ｱｶﾞﾂﾏｸﾞﾝﾅｶﾉｼﾞｮｳﾏﾁ","kana_address":"ｲｾﾏﾁ","pref":"群馬県","city":"吾妻郡中之条町","address":"伊勢町"},
{"zip_code":"3770421","kana_pref":"ｸﾞﾝﾏｹﾝ","kana_city":"ｱｶﾞﾂﾏｸﾞﾝﾅｶﾉｼﾞｮｳﾏﾁ","kana_address":"ｲﾁｼﾛ","pref":"群馬県","city":"吾妻郡中之条町","address":"市城"},
{"zip_code":"3771701","kana_pref":"ｸﾞﾝﾏｹﾝ","kana_city":"ｱｶﾞﾂﾏｸﾞﾝﾅｶﾉｼﾞｮｳﾏﾁ","kana_address":"ｲﾘﾔﾏ","pref":"群馬県","city":"吾妻郡中之条町","address":"入山"},
{"zip_code":"3770431","kana_pref":"ｸﾞﾝﾏｹﾝ","kana_city":"ｱｶﾞﾂﾏｸﾞﾝﾅｶﾉｼﾞｮｳﾏﾁ","kana_address":"ｲﾜﾓﾄ","pref":"群馬県","city":"吾妻郡中之条町","address":"岩本"},
{"zip_code":"3771703","kana_pref":"ｸﾞﾝﾏｹﾝ","kana_city":"ｱｶﾞﾂﾏｸﾞﾝﾅｶﾉｼﾞｮｳﾏﾁ","kana_address":"ｵｵｼ","pref":"群馬県","city":"吾妻郡中之条町","address":"太子"},
{"zip_code":"3770413","kana_pref":"ｸﾞﾝﾏｹﾝ","kana_city":"ｱｶﾞﾂﾏｸﾞﾝﾅｶﾉｼﾞｮｳﾏﾁ","kana_address":"ｵｵﾂﾞｶ","pref":"群馬県","city":"吾妻郡中之条町","address":"大塚"},
{"zip_code":"3770544","kana_pref":"ｸﾞﾝﾏｹﾝ","kana_city":"ｱｶﾞﾂﾏｸﾞﾝﾅｶﾉｼﾞｮｳﾏﾁ","kana_address":"ｵﾘﾀﾞ","pref":"群馬県","city":"吾妻郡中之条町","address":"折田"},
{"zip_code":"3770433","kana_pref":"ｸﾞﾝﾏｹﾝ","kana_city":"ｱｶﾞﾂﾏｸﾞﾝﾅｶﾉｼﾞｮｳﾏﾁ","kana_address":"ｵﾘﾀﾞ","pref":"群馬県","city":"吾妻郡中之条町","address":"折田"},
{"zip_code":"3770541","kana_pref":"ｸﾞﾝﾏｹﾝ","kana_city":"ｱｶﾞﾂﾏｸﾞﾝﾅｶﾉｼﾞｮｳﾏﾁ","kana_address":"ｶﾐｻﾜﾀﾘ","pref":"群馬県","city":"吾妻郡中之条町","address":"上沢渡"},
{"zip_code":"3771704","kana_pref":"ｸﾞﾝﾏｹﾝ","kana_city":"ｱｶﾞﾂﾏｸﾞﾝﾅｶﾉｼﾞｮｳﾏﾁ","kana_address":"ｺｻﾒ","pref":"群馬県","city":"吾妻郡中之条町","address":"小雨"},
{"zip_code":"3770432","kana_pref":"ｸﾞﾝﾏｹﾝ","kana_city":"ｱｶﾞﾂﾏｸﾞﾝﾅｶﾉｼﾞｮｳﾏﾁ","kana_address":"ｺﾞﾀﾝﾀﾞ","pref":"群馬県","city":"吾妻郡中之条町","address":"五反田"},
{"zip_code":"3770601","kana_pref":"ｸﾞﾝﾏｹﾝ","kana_city":"ｱｶﾞﾂﾏｸﾞﾝﾅｶﾉｼﾞｮｳﾏﾁ","kana_address":"ｼﾏ","pref":"群馬県","city":"吾妻郡中之条町","address":"四万"},
{"zip_code":"3770542","kana_pref":"ｸﾞﾝﾏｹﾝ","kana_city":"ｱｶﾞﾂﾏｸﾞﾝﾅｶﾉｼﾞｮｳﾏﾁ","kana_address":"ｼﾓｻﾜﾀﾘ","pref":"群馬県","city":"吾妻郡中之条町","address":"下沢渡"},
{"zip_code":"3770411","kana_pref":"ｸﾞﾝﾏｹﾝ","kana_city":"ｱｶﾞﾂﾏｸﾞﾝﾅｶﾉｼﾞｮｳﾏﾁ","kana_address":"ﾀﾞｲﾄﾞｳ","pref":"群馬県","city":"吾妻郡中之条町","address":"大道"},
{"zip_code":"3770414","kana_pref":"ｸﾞﾝﾏｹﾝ","kana_city":"ｱｶﾞﾂﾏｸﾞﾝﾅｶﾉｼﾞｮｳﾏﾁ","kana_address":"ﾀｲﾗ","pref":"群馬県","city":"吾妻郡中之条町","address":"平"},
{"zip_code":"3770412","kana_pref":"ｸﾞﾝﾏｹﾝ","kana_city":"ｱｶﾞﾂﾏｸﾞﾝﾅｶﾉｼﾞｮｳﾏﾁ","kana_address":"ﾄﾁｸﾎﾞ","pref":"群馬県","city":"吾妻郡中之条町","address":"栃窪"},
{"zip_code":"3770424","kana_pref":"ｸﾞﾝﾏｹﾝ","kana_city":"ｱｶﾞﾂﾏｸﾞﾝﾅｶﾉｼﾞｮｳﾏﾁ","kana_address":"ﾅｶﾉｼﾞｮｳﾏﾁ","pref":"群馬県","city":"吾妻郡中之条町","address":"中之条町"},
{"zip_code":"3771702","kana_pref":"ｸﾞﾝﾏｹﾝ","kana_city":"ｱｶﾞﾂﾏｸﾞﾝﾅｶﾉｼﾞｮｳﾏﾁ","kana_address":"ﾅﾏｽ","pref":"群馬県","city":"吾妻郡中之条町","address":"生須"},
{"zip_code":"3770425","kana_pref":"ｸﾞﾝﾏｹﾝ","kana_city":"ｱｶﾞﾂﾏｸﾞﾝﾅｶﾉｼﾞｮｳﾏﾁ","kana_address":"ﾆｼﾅｶﾉｼﾞｮｳ","pref":"群馬県","city":"吾妻郡中之条町","address":"西中之条"},
{"zip_code":"3771312","kana_pref":"ｸﾞﾝﾏｹﾝ","kana_city":"ｱｶﾞﾂﾏｸﾞﾝﾅｶﾉｼﾞｮｳﾏﾁ","kana_address":"ﾋｶｹﾞ","pref":"群馬県","city":"吾妻郡中之条町","address":"日影"},
{"zip_code":"3770543","kana_pref":"ｸﾞﾝﾏｹﾝ","kana_city":"ｱｶﾞﾂﾏｸﾞﾝﾅｶﾉｼﾞｮｳﾏﾁ","kana_address":"ﾔﾏﾀﾞ","pref":"群馬県","city":"吾妻郡中之条町","address":"山田"},
{"zip_code":"3770434","kana_pref":"ｸﾞﾝﾏｹﾝ","kana_city":"ｱｶﾞﾂﾏｸﾞﾝﾅｶﾉｼﾞｮｳﾏﾁ","kana_address":"ﾔﾏﾀﾞ","pref":"群馬県","city":"吾妻郡中之条町","address":"山田"},
{"zip_code":"3770415","kana_pref":"ｸﾞﾝﾏｹﾝ","kana_city":"ｱｶﾞﾂﾏｸﾞﾝﾅｶﾉｼﾞｮｳﾏﾁ","kana_address":"ﾖｺｵ","pref":"群馬県","city":"吾妻郡中之条町","address":"横尾"},
{"zip_code":"3771300","kana_pref":"ｸﾞﾝﾏｹﾝ","kana_city":"ｱｶﾞﾂﾏｸﾞﾝﾅｶﾞﾉﾊﾗﾏﾁ","kana_address":"","pref":"群馬県","city":"吾妻郡長野原町","address":""},
{"zip_code":"3771310","kana_pref":"ｸﾞﾝﾏｹﾝ","kana_city":"ｱｶﾞﾂﾏｸﾞﾝﾅｶﾞﾉﾊﾗﾏﾁ","kana_address":"ｵｵｸﾜ","pref":"群馬県","city":"吾妻郡長野原町","address":"応桑"},
{"zip_code":"3771411","kana_pref":"ｸﾞﾝﾏｹﾝ","kana_city":"ｱｶﾞﾂﾏｸﾞﾝﾅｶﾞﾉﾊﾗﾏﾁ","kana_address":"ｵｵｸﾜ","pref":"群馬県","city":"吾妻郡長野原町","address":"応桑"},
{"zip_code":"3771308","kana_pref":"ｸﾞﾝﾏｹﾝ","kana_city":"ｱｶﾞﾂﾏｸﾞﾝﾅｶﾞﾉﾊﾗﾏﾁ","kana_address":"ｵｵﾂ","pref":"群馬県","city":"吾妻郡長野原町","address":"大津"},
{"zip_code":"3771301","kana_pref":"ｸﾞﾝﾏｹﾝ","kana_city":"ｱｶﾞﾂﾏｸﾞﾝﾅｶﾞﾉﾊﾗﾏﾁ","kana_address":"ｶﾜﾗﾊﾀ","pref":"群馬県","city":"吾妻郡長野原町","address":"川原畑"},
{"zip_code":"3771302","kana_pref":"ｸﾞﾝﾏｹﾝ","kana_city":"ｱｶﾞﾂﾏｸﾞﾝﾅｶﾞﾉﾊﾗﾏﾁ","kana_address":"ｶﾜﾗﾕ","pref":"群馬県","city":"吾妻郡長野原町","address":"川原湯"},
{"zip_code":"3771412","kana_pref":"ｸﾞﾝﾏｹﾝ","kana_city":"ｱｶﾞﾂﾏｸﾞﾝﾅｶﾞﾉﾊﾗﾏﾁ","kana_address":"ｷﾀｶﾙｲｻﾞﾜ","pref":"群馬県","city":"吾妻郡長野原町","address":"北軽井沢"},
{"zip_code":"3771304","kana_pref":"ｸﾞﾝﾏｹﾝ","kana_city":"ｱｶﾞﾂﾏｸﾞﾝﾅｶﾞﾉﾊﾗﾏﾁ","kana_address":"ﾅｶﾞﾉﾊﾗ","pref":"群馬県","city":"吾妻郡長野原町","address":"長野原"},
{"zip_code":"3771307","kana_pref":"ｸﾞﾝﾏｹﾝ","kana_city":"ｱｶﾞﾂﾏｸﾞﾝﾅｶﾞﾉﾊﾗﾏﾁ","kana_address":"ﾊﾈｵ","pref":"群馬県","city":"吾妻郡長野原町","address":"羽根尾"},
{"zip_code":"3771309","kana_pref":"ｸﾞﾝﾏｹﾝ","kana_city":"ｱｶﾞﾂﾏｸﾞﾝﾅｶﾞﾉﾊﾗﾏﾁ","kana_address":"ﾊﾔｼ","pref":"群馬県","city":"吾妻郡長野原町","address":"林"},
{"zip_code":"3771306","kana_pref":"ｸﾞﾝﾏｹﾝ","kana_city":"ｱｶﾞﾂﾏｸﾞﾝﾅｶﾞﾉﾊﾗﾏﾁ","kana_address":"ﾌﾙﾓﾘ","pref":"群馬県","city":"吾妻郡長野原町","address":"古森"},
{"zip_code":"3771305","kana_pref":"ｸﾞﾝﾏｹﾝ","kana_city":"ｱｶﾞﾂﾏｸﾞﾝﾅｶﾞﾉﾊﾗﾏﾁ","kana_address":"ﾖｷﾔ","pref":"群馬県","city":"吾妻郡長野原町","address":"与喜屋"},
{"zip_code":"3771303","kana_pref":"ｸﾞﾝﾏｹﾝ","kana_city":"ｱｶﾞﾂﾏｸﾞﾝﾅｶﾞﾉﾊﾗﾏﾁ","kana_address":"ﾖｺｶﾍﾞ","pref":"群馬県","city":"吾妻郡長野原町","address":"横壁"},
{"zip_code":"3771500","kana_pref":"ｸﾞﾝﾏｹﾝ","kana_city":"ｱｶﾞﾂﾏｸﾞﾝﾂﾏｺﾞｲﾑﾗ","kana_address":"","pref":"群馬県","city":"吾妻郡嬬恋村","address":""},
{"zip_code":"3771523","kana_pref":"ｸﾞﾝﾏｹﾝ","kana_city":"ｱｶﾞﾂﾏｸﾞﾝﾂﾏｺﾞｲﾑﾗ","kana_address":"ｱｼｳﾀﾞ","pref":"群馬県","city":"吾妻郡嬬恋村","address":"芦生田"},
{"zip_code":"3771521","kana_pref":"ｸﾞﾝﾏｹﾝ","kana_city":"ｱｶﾞﾂﾏｸﾞﾝﾂﾏｺﾞｲﾑﾗ","kana_address":"ｲﾏｲ","pref":"群馬県","city":"吾妻郡嬬恋村","address":"今井"},
{"zip_code":"3771613","kana_pref":"ｸﾞﾝﾏｹﾝ","kana_city":"ｱｶﾞﾂﾏｸﾞﾝﾂﾏｺﾞｲﾑﾗ","kana_address":"ｵｵｻﾞｻ","pref":"群馬県","city":"吾妻郡嬬恋村","address":"大笹"},
{"zip_code":"3771512","kana_pref":"ｸﾞﾝﾏｹﾝ","kana_city":"ｱｶﾞﾂﾏｸﾞﾝﾂﾏｺﾞｲﾑﾗ","kana_address":"ｵｵﾏｴ","pref":"群馬県","city":"吾妻郡嬬恋村","address":"大前"},
{"zip_code":"3771612","kana_pref":"ｸﾞﾝﾏｹﾝ","kana_city":"ｱｶﾞﾂﾏｸﾞﾝﾂﾏｺﾞｲﾑﾗ","kana_address":"ｵｵﾏｴ","pref":"群馬県","city":"吾妻郡嬬恋村","address":"大前"},
{"zip_code":"3771527","kana_pref":"ｸﾞﾝﾏｹﾝ","kana_city":"ｱｶﾞﾂﾏｸﾞﾝﾂﾏｺﾞｲﾑﾗ","kana_address":"ｶﾄﾞｶﾞｲ","pref":"群馬県","city":"吾妻郡嬬恋村","address":"門貝"},
{"zip_code":"3771403","kana_pref":"ｸﾞﾝﾏｹﾝ","kana_city":"ｱｶﾞﾂﾏｸﾞﾝﾂﾏｺﾞｲﾑﾗ","kana_address":"ｶﾝﾊﾞﾗ","pref":"群馬県","city":"吾妻郡嬬恋村","address":"鎌原"},
{"zip_code":"3771404","kana_pref":"ｸﾞﾝﾏｹﾝ","kana_city":"ｱｶﾞﾂﾏｸﾞﾝﾂﾏｺﾞｲﾑﾗ","kana_address":"ｶﾝﾊﾞﾗ","pref":"群馬県","city":"吾妻郡嬬恋村","address":"鎌原"},
{"zip_code":"3771401","kana_pref":"ｸﾞﾝﾏｹﾝ","kana_city":"ｱｶﾞﾂﾏｸﾞﾝﾂﾏｺﾞｲﾑﾗ","kana_address":"ｶﾝﾊﾞﾗ","pref":"群馬県","city":"吾妻郡嬬恋村","address":"鎌原"},
{"zip_code":"3771402","kana_pref":"ｸﾞﾝﾏｹﾝ","kana_city":"ｱｶﾞﾂﾏｸﾞﾝﾂﾏｺﾞｲﾑﾗ","kana_address":"ｶﾝﾊﾞﾗ","pref":"群馬県","city":"吾妻郡嬬恋村","address":"鎌原"},
{"zip_code":"3771616","kana_pref":"ｸﾞﾝﾏｹﾝ","kana_city":"ｱｶﾞﾂﾏｸﾞﾝﾂﾏｺﾞｲﾑﾗ","kana_address":"ｶﾝﾊﾞﾗ","pref":"群馬県","city":"吾妻郡嬬恋村","address":"鎌原"},
{"zip_code":"3771617","kana_pref":"ｸﾞﾝﾏｹﾝ","kana_city":"ｱｶﾞﾂﾏｸﾞﾝﾂﾏｺﾞｲﾑﾗ","kana_address":"ｶﾝﾊﾞﾗ","pref":"群馬県","city":"吾妻郡嬬恋村","address":"鎌原"},
{"zip_code":"3771615","kana_pref":"ｸﾞﾝﾏｹﾝ","kana_city":"ｱｶﾞﾂﾏｸﾞﾝﾂﾏｺﾞｲﾑﾗ","kana_address":"ｶﾝﾊﾞﾗ","pref":"群馬県","city":"吾妻郡嬬恋村","address":"鎌原"},
{"zip_code":"3771405","kana_pref":"ｸﾞﾝﾏｹﾝ","kana_city":"ｱｶﾞﾂﾏｸﾞﾝﾂﾏｺﾞｲﾑﾗ","kana_address":"ｶﾝﾊﾞﾗ","pref":"群馬県","city":"吾妻郡嬬恋村","address":"鎌原"},
{"zip_code":"3771524","kana_pref":"ｸﾞﾝﾏｹﾝ","kana_city":"ｱｶﾞﾂﾏｸﾞﾝﾂﾏｺﾞｲﾑﾗ","kana_address":"ｶﾝﾊﾞﾗ","pref":"群馬県","city":"吾妻郡嬬恋村","address":"鎌原"},
{"zip_code":"3771525","kana_pref":"ｸﾞﾝﾏｹﾝ","kana_city":"ｱｶﾞﾂﾏｸﾞﾝﾂﾏｺﾞｲﾑﾗ","kana_address":"ｻｲｸﾎﾞ","pref":"群馬県","city":"吾妻郡嬬恋村","address":"西窪"},
{"zip_code":"3771614","kana_pref":"ｸﾞﾝﾏｹﾝ","kana_city":"ｱｶﾞﾂﾏｸﾞﾝﾂﾏｺﾞｲﾑﾗ","kana_address":"ﾀｼﾛ","pref":"群馬県","city":"吾妻郡嬬恋村","address":"田代"},
{"zip_code":"3771522","kana_pref":"ｸﾞﾝﾏｹﾝ","kana_city":"ｱｶﾞﾂﾏｸﾞﾝﾂﾏｺﾞｲﾑﾗ","kana_address":"ﾌｸﾛｸﾞﾗ","pref":"群馬県","city":"吾妻郡嬬恋村","address":"袋倉"},
{"zip_code":"3771528","kana_pref":"ｸﾞﾝﾏｹﾝ","kana_city":"ｱｶﾞﾂﾏｸﾞﾝﾂﾏｺﾞｲﾑﾗ","kana_address":"ﾎｼﾏﾀ","pref":"群馬県","city":"吾妻郡嬬恋村","address":"干俣"},
{"zip_code":"3771611","kana_pref":"ｸﾞﾝﾏｹﾝ","kana_city":"ｱｶﾞﾂﾏｸﾞﾝﾂﾏｺﾞｲﾑﾗ","kana_address":"ﾎｼﾏﾀ","pref":"群馬県","city":"吾妻郡嬬恋村","address":"干俣"},
{"zip_code":"3771526","kana_pref":"ｸﾞﾝﾏｹﾝ","kana_city":"ｱｶﾞﾂﾏｸﾞﾝﾂﾏｺﾞｲﾑﾗ","kana_address":"ﾐﾊﾗ","pref":"群馬県","city":"吾妻郡嬬恋村","address":"三原"},
{"zip_code":"3771700","kana_pref":"ｸﾞﾝﾏｹﾝ","kana_city":"ｱｶﾞﾂﾏｸﾞﾝｸｻﾂﾏﾁ","kana_address":"","pref":"群馬県","city":"吾妻郡草津町","address":""},
{"zip_code":"3771711","kana_pref":"ｸﾞﾝﾏｹﾝ","kana_city":"ｱｶﾞﾂﾏｸﾞﾝｸｻﾂﾏﾁ","kana_address":"ｸｻﾂ","pref":"群馬県","city":"吾妻郡草津町","address":"草津"},
{"zip_code":"3771712","kana_pref":"ｸﾞﾝﾏｹﾝ","kana_city":"ｱｶﾞﾂﾏｸﾞﾝｸｻﾂﾏﾁ","kana_address":"ﾏｴｸﾞﾁ","pref":"群馬県","city":"吾妻郡草津町","address":"前口"},
{"zip_code":"3770700","kana_pref":"ｸﾞﾝﾏｹﾝ","kana_city":"ｱｶﾞﾂﾏｸﾞﾝﾀｶﾔﾏﾑﾗ","kana_address":"","pref":"群馬県","city":"吾妻郡高山村","address":""},
{"zip_code":"3770701","kana_pref":"ｸﾞﾝﾏｹﾝ","kana_city":"ｱｶﾞﾂﾏｸﾞﾝﾀｶﾔﾏﾑﾗ","kana_address":"ｼｯﾀｶ","pref":"群馬県","city":"吾妻郡高山村","address":"尻高"},
{"zip_code":"3770702","kana_pref":"ｸﾞﾝﾏｹﾝ","kana_city":"ｱｶﾞﾂﾏｸﾞﾝﾀｶﾔﾏﾑﾗ","kana_address":"ﾅｶﾔﾏ","pref":"群馬県","city":"吾妻郡高山村","address":"中山"},
{"zip_code":"3770800","kana_pref":"ｸﾞﾝﾏｹﾝ","kana_city":"ｱｶﾞﾂﾏｸﾞﾝﾋｶﾞｼｱｶﾞﾂﾏﾏﾁ","kana_address":"","pref":"群馬県","city":"吾妻郡東吾妻町","address":""},
{"zip_code":"3770812","kana_pref":"ｸﾞﾝﾏｹﾝ","kana_city":"ｱｶﾞﾂﾏｸﾞﾝﾋｶﾞｼｱｶﾞﾂﾏﾏﾁ","kana_address":"ｱﾂﾀﾞ","pref":"群馬県","city":"吾妻郡東吾妻町","address":"厚田"},
{"zip_code":"3770303","kana_pref":"ｸﾞﾝﾏｹﾝ","kana_city":"ｱｶﾞﾂﾏｸﾞﾝﾋｶﾞｼｱｶﾞﾂﾏﾏﾁ","kana_address":"ｱﾗﾏｷ","pref":"群馬県","city":"吾妻郡東吾妻町","address":"新巻"},
{"zip_code":"3770807","kana_pref":"ｸﾞﾝﾏｹﾝ","kana_city":"ｱｶﾞﾂﾏｸﾞﾝﾋｶﾞｼｱｶﾞﾂﾏﾏﾁ","kana_address":"ｲｽﾞﾐｻﾜ","pref":"群馬県","city":"吾妻郡東吾妻町","address":"泉沢"},
{"zip_code":"3770804","kana_pref":"ｸﾞﾝﾏｹﾝ","kana_city":"ｱｶﾞﾂﾏｸﾞﾝﾋｶﾞｼｱｶﾞﾂﾏﾏﾁ","kana_address":"ｲﾜｲ","pref":"群馬県","city":"吾妻郡東吾妻町","address":"岩井"},
{"zip_code":"3770815","kana_pref":"ｸﾞﾝﾏｹﾝ","kana_city":"ｱｶﾞﾂﾏｸﾞﾝﾋｶﾞｼｱｶﾞﾂﾏﾏﾁ","kana_address":"ｲﾜｼﾀ","pref":"群馬県","city":"吾妻郡東吾妻町","address":"岩下"},
{"zip_code":"3770805","kana_pref":"ｸﾞﾝﾏｹﾝ","kana_city":"ｱｶﾞﾂﾏｸﾞﾝﾋｶﾞｼｱｶﾞﾂﾏﾏﾁ","kana_address":"ｳｴｸﾞﾘ","pref":"群馬県","city":"吾妻郡東吾妻町","address":"植栗"},
{"zip_code":"3770935","kana_pref":"ｸﾞﾝﾏｹﾝ","kana_city":"ｱｶﾞﾂﾏｸﾞﾝﾋｶﾞｼｱｶﾞﾂﾏﾏﾁ","kana_address":"ｵｵｶｼﾜｷﾞ","pref":"群馬県","city":"吾妻郡東吾妻町","address":"大柏木"},
{"zip_code":"3770931","kana_pref":"ｸﾞﾝﾏｹﾝ","kana_city":"ｱｶﾞﾂﾏｸﾞﾝﾋｶﾞｼｱｶﾞﾂﾏﾏﾁ","kana_address":"ｵｵﾄﾞ","pref":"群馬県","city":"吾妻郡東吾妻町","address":"大戸"},
{"zip_code":"3770302","kana_pref":"ｸﾞﾝﾏｹﾝ","kana_city":"ｱｶﾞﾂﾏｸﾞﾝﾋｶﾞｼｱｶﾞﾂﾏﾏﾁ","kana_address":"ｵｶｻﾞｷ","pref":"群馬県","city":"吾妻郡東吾妻町","address":"岡崎"},
{"zip_code":"3770304","kana_pref":"ｸﾞﾝﾏｹﾝ","kana_city":"ｱｶﾞﾂﾏｸﾞﾝﾋｶﾞｼｱｶﾞﾂﾏﾏﾁ","kana_address":"ｵｸﾀﾞ","pref":"群馬県","city":"吾妻郡東吾妻町","address":"奥田"},
{"zip_code":"3770803","kana_pref":"ｸﾞﾝﾏｹﾝ","kana_city":"ｱｶﾞﾂﾏｸﾞﾝﾋｶﾞｼｱｶﾞﾂﾏﾏﾁ","kana_address":"ｶﾅｲ","pref":"群馬県","city":"吾妻郡東吾妻町","address":"金井"},
{"zip_code":"3770802","kana_pref":"ｸﾞﾝﾏｹﾝ","kana_city":"ｱｶﾞﾂﾏｸﾞﾝﾋｶﾞｼｱｶﾞﾂﾏﾏﾁ","kana_address":"ｶﾜﾄﾞ","pref":"群馬県","city":"吾妻郡東吾妻町","address":"川戸"},
{"zip_code":"3770806","kana_pref":"ｸﾞﾝﾏｹﾝ","kana_city":"ｱｶﾞﾂﾏｸﾞﾝﾋｶﾞｼｱｶﾞﾂﾏﾏﾁ","kana_address":"ｺｲｽﾞﾐ","pref":"群馬県","city":"吾妻郡東吾妻町","address":"小泉"},
{"zip_code":"3770811","kana_pref":"ｸﾞﾝﾏｹﾝ","kana_city":"ｱｶﾞﾂﾏｸﾞﾝﾋｶﾞｼｱｶﾞﾂﾏﾏﾁ","kana_address":"ｺﾞｳﾊﾞﾗ","pref":"群馬県","city":"吾妻郡東吾妻町","address":"郷原"},
{"zip_code":"3770305","kana_pref":"ｸﾞﾝﾏｹﾝ","kana_city":"ｱｶﾞﾂﾏｸﾞﾝﾋｶﾞｼｱｶﾞﾂﾏﾏﾁ","kana_address":"ｺﾞﾁｮｳﾀﾞ","pref":"群馬県","city":"吾妻郡東吾妻町","address":"五町田"},
{"zip_code":"3770934","kana_pref":"ｸﾞﾝﾏｹﾝ","kana_city":"ｱｶﾞﾂﾏｸﾞﾝﾋｶﾞｼｱｶﾞﾂﾏﾏﾁ","kana_address":"ｽｶﾞｵ","pref":"群馬県","city":"吾妻郡東吾妻町","address":"須賀尾"},
{"zip_code":"3770932","kana_pref":"ｸﾞﾝﾏｹﾝ","kana_city":"ｱｶﾞﾂﾏｸﾞﾝﾋｶﾞｼｱｶﾞﾂﾏﾏﾁ","kana_address":"ﾊｷﾞｭｳ","pref":"群馬県","city":"吾妻郡東吾妻町","address":"萩生"},
{"zip_code":"3770301","kana_pref":"ｸﾞﾝﾏｹﾝ","kana_city":"ｱｶﾞﾂﾏｸﾞﾝﾋｶﾞｼｱｶﾞﾂﾏﾏﾁ","kana_address":"ﾊｺｼﾞﾏ","pref":"群馬県","city":"吾妻郡東吾妻町","address":"箱島"},
{"zip_code":"3770801","kana_pref":"ｸﾞﾝﾏｹﾝ","kana_city":"ｱｶﾞﾂﾏｸﾞﾝﾋｶﾞｼｱｶﾞﾂﾏﾏﾁ","kana_address":"ﾊﾗﾏﾁ","pref":"群馬県","city":"吾妻郡東吾妻町","address":"原町"},
{"zip_code":"3770814","kana_pref":"ｸﾞﾝﾏｹﾝ","kana_city":"ｱｶﾞﾂﾏｸﾞﾝﾋｶﾞｼｱｶﾞﾂﾏﾏﾁ","kana_address":"ﾏﾂﾔ","pref":"群馬県","city":"吾妻郡東吾妻町","address":"松谷"},
{"zip_code":"3770813","kana_pref":"ｸﾞﾝﾏｹﾝ","kana_city":"ｱｶﾞﾂﾏｸﾞﾝﾋｶﾞｼｱｶﾞﾂﾏﾏﾁ","kana_address":"ﾐｼﾏ","pref":"群馬県","city":"吾妻郡東吾妻町","address":"三島"},
{"zip_code":"3770933","kana_pref":"ｸﾞﾝﾏｹﾝ","kana_city":"ｱｶﾞﾂﾏｸﾞﾝﾋｶﾞｼｱｶﾞﾂﾏﾏﾁ","kana_address":"ﾓﾄｼﾞｭｸ","pref":"群馬県","city":"吾妻郡東吾妻町","address":"本宿"},
{"zip_code":"3770816","kana_pref":"ｸﾞﾝﾏｹﾝ","kana_city":"ｱｶﾞﾂﾏｸﾞﾝﾋｶﾞｼｱｶﾞﾂﾏﾏﾁ","kana_address":"ﾔｸﾞﾗ","pref":"群馬県","city":"吾妻郡東吾妻町","address":"矢倉"}]}