{"zip_code":[
{"zip_code":"3792154","kana_pref":"ｸﾞﾝﾏｹﾝ","kana_city":"ﾏｴﾊﾞｼｼ","kana_address":"ｱﾏｶﾞﾜｵｵｼﾏﾏﾁ","pref":"群馬県","city":"前橋市","address":"天川大島町"},
{"zip_code":"3792112","kana_pref":"ｸﾞﾝﾏｹﾝ","kana_city":"ﾏｴﾊﾞｼｼ","kana_address":"ｱﾗｲﾏﾁ","pref":"群馬県","city":"前橋市","address":"新井町"},
{"zip_code":"3792107","kana_pref":"ｸﾞﾝﾏｹﾝ","kana_city":"ﾏｴﾊﾞｼｼ","kana_address":"ｱﾗｸﾁﾏﾁ","pref":"群馬県","city":"前橋市","address":"荒口町"},
{"zip_code":"3792106","kana_pref":"ｸﾞﾝﾏｹﾝ","kana_city":"ﾏｴﾊﾞｼｼ","kana_address":"ｱﾗｺﾏﾁ","pref":"群馬県","city":"前橋市","address":"荒子町"},
{"zip_code":"3792111","kana_pref":"ｸﾞﾝﾏｹﾝ","kana_city":"ﾏｴﾊﾞｼｼ","kana_address":"ｲｲﾄﾞｲﾏﾁ","pref":"群馬県","city":"前橋市","address":"飯土井町"},
{"zip_code":"3792101","kana_pref":"ｸﾞﾝﾏｹﾝ","kana_city":"ﾏｴﾊﾞｼｼ","kana_address":"ｲｽﾞﾐｻﾜﾏﾁ","pref":"群馬県","city":"前橋市","address":"泉沢町"},
{"zip_code":"3792116","kana_pref":"ｸﾞﾝﾏｹﾝ","kana_city":"ﾏｴﾊﾞｼｼ","kana_address":"ｲﾏｲﾏﾁ","pref":"群馬県","city":"前橋市","address":"今井町"},
{"zip_code":"3792115","kana_pref":"ｸﾞﾝﾏｹﾝ","kana_city":"ﾏｴﾊﾞｼｼ","kana_address":"ｳﾂﾎﾞｲﾏﾁ","pref":"群馬県","city":"前橋市","address":"笂井町"},
{"zip_code":"3792163","kana_pref":"ｸﾞﾝﾏｹﾝ","kana_city":"ﾏｴﾊﾞｼｼ","kana_address":"ｵﾅﾔﾏﾁ","pref":"群馬県","city":"前橋市","address":"女屋町"},
{"zip_code":"3792153","kana_pref":"ｸﾞﾝﾏｹﾝ","kana_city":"ﾏｴﾊﾞｼｼ","kana_address":"ｶﾐｵｵｼﾏﾏﾁ","pref":"群馬県","city":"前橋市","address":"上大島町"},
{"zip_code":"3792165","kana_pref":"ｸﾞﾝﾏｹﾝ","kana_city":"ﾏｴﾊﾞｼｼ","kana_address":"ｶﾐﾅｶﾞｲｿﾏﾁ","pref":"群馬県","city":"前橋市","address":"上長磯町"},
{"zip_code":"3792114","kana_pref":"ｸﾞﾝﾏｹﾝ","kana_city":"ﾏｴﾊﾞｼｼ","kana_address":"ｶﾐﾏｽﾀﾞﾏﾁ","pref":"群馬県","city":"前橋市","address":"上増田町"},
{"zip_code":"3792147","kana_pref":"ｸﾞﾝﾏｹﾝ","kana_city":"ﾏｴﾊﾞｼｼ","kana_address":"ｶﾒｻﾄﾏﾁ","pref":"群馬県","city":"前橋市","address":"亀里町"},
{"zip_code":"3792103","kana_pref":"ｸﾞﾝﾏｹﾝ","kana_city":"ﾏｴﾊﾞｼｼ","kana_address":"ｶﾝｻﾞﾜﾉﾓﾘ","pref":"群馬県","city":"前橋市","address":"神沢の森"},
{"zip_code":"3792146","kana_pref":"ｸﾞﾝﾏｹﾝ","kana_city":"ﾏｴﾊﾞｼｼ","kana_address":"ｸﾃﾞﾝﾏﾁ","pref":"群馬県","city":"前橋市","address":"公田町"},
{"zip_code":"3792162","kana_pref":"ｸﾞﾝﾏｹﾝ","kana_city":"ﾏｴﾊﾞｼｼ","kana_address":"ｺｼﾞﾏﾀﾏﾁ","pref":"群馬県","city":"前橋市","address":"小島田町"},
{"zip_code":"3792122","kana_pref":"ｸﾞﾝﾏｹﾝ","kana_city":"ﾏｴﾊﾞｼｼ","kana_address":"ｺﾏｶﾞﾀﾏﾁ","pref":"群馬県","city":"前橋市","address":"駒形町"},
{"zip_code":"3792121","kana_pref":"ｸﾞﾝﾏｹﾝ","kana_city":"ﾏｴﾊﾞｼｼ","kana_address":"ｺﾔﾊﾗﾏﾁ","pref":"群馬県","city":"前橋市","address":"小屋原町"},
{"zip_code":"3792123","kana_pref":"ｸﾞﾝﾏｹﾝ","kana_city":"ﾏｴﾊﾞｼｼ","kana_address":"ｻﾝﾉｳﾏﾁ","pref":"群馬県","city":"前橋市","address":"山王町"},
{"zip_code":"3792142","kana_pref":"ｸﾞﾝﾏｹﾝ","kana_city":"ﾏｴﾊﾞｼｼ","kana_address":"ｼﾓｱｳﾁﾏﾁ","pref":"群馬県","city":"前橋市","address":"下阿内町"},
{"zip_code":"3792152","kana_pref":"ｸﾞﾝﾏｹﾝ","kana_city":"ﾏｴﾊﾞｼｼ","kana_address":"ｼﾓｵｵｼﾏﾏﾁ","pref":"群馬県","city":"前橋市","address":"下大島町"},
{"zip_code":"3792102","kana_pref":"ｸﾞﾝﾏｹﾝ","kana_city":"ﾏｴﾊﾞｼｼ","kana_address":"ｼﾓｵｵﾔﾏﾁ","pref":"群馬県","city":"前橋市","address":"下大屋町"},
{"zip_code":"3792144","kana_pref":"ｸﾞﾝﾏｹﾝ","kana_city":"ﾏｴﾊﾞｼｼ","kana_address":"ｼﾓｶﾜﾏﾁ","pref":"群馬県","city":"前橋市","address":"下川町"},
{"zip_code":"3792151","kana_pref":"ｸﾞﾝﾏｹﾝ","kana_city":"ﾏｴﾊﾞｼｼ","kana_address":"ｼﾓﾅｶﾞｲｿﾏﾁ","pref":"群馬県","city":"前橋市","address":"下長磯町"},
{"zip_code":"3792113","kana_pref":"ｸﾞﾝﾏｹﾝ","kana_city":"ﾏｴﾊﾞｼｼ","kana_address":"ｼﾓﾏｽﾀﾞﾏﾁ","pref":"群馬県","city":"前橋市","address":"下増田町"},
{"zip_code":"3792108","kana_pref":"ｸﾞﾝﾏｹﾝ","kana_city":"ﾏｴﾊﾞｼｼ","kana_address":"ﾂﾙｶﾞﾔﾏﾁ","pref":"群馬県","city":"前橋市","address":"鶴が谷町"},
{"zip_code":"3792141","kana_pref":"ｸﾞﾝﾏｹﾝ","kana_city":"ﾏｴﾊﾞｼｼ","kana_address":"ﾂﾙｺｳｼﾞﾏﾁ","pref":"群馬県","city":"前橋市","address":"鶴光路町"},
{"zip_code":"3792135","kana_pref":"ｸﾞﾝﾏｹﾝ","kana_city":"ﾏｴﾊﾞｼｼ","kana_address":"ﾄｸﾏﾙﾏﾁ","pref":"群馬県","city":"前橋市","address":"徳丸町"},
{"zip_code":"3792161","kana_pref":"ｸﾞﾝﾏｹﾝ","kana_city":"ﾏｴﾊﾞｼｼ","kana_address":"ﾄﾐﾀﾞﾏﾁ","pref":"群馬県","city":"前橋市","address":"富田町"},
{"zip_code":"3792133","kana_pref":"ｸﾞﾝﾏｹﾝ","kana_city":"ﾏｴﾊﾞｼｼ","kana_address":"ﾅｶｳﾁﾏﾁ","pref":"群馬県","city":"前橋市","address":"中内町"},
{"zip_code":"3792143","kana_pref":"ｸﾞﾝﾏｹﾝ","kana_city":"ﾏｴﾊﾞｼｼ","kana_address":"ﾆｲﾎﾞﾘﾏﾁ","pref":"群馬県","city":"前橋市","address":"新堀町"},
{"zip_code":"3792104","kana_pref":"ｸﾞﾝﾏｹﾝ","kana_city":"ﾏｴﾊﾞｼｼ","kana_address":"ﾆｼｵｵﾑﾛﾏﾁ","pref":"群馬県","city":"前橋市","address":"西大室町"},
{"zip_code":"3792131","kana_pref":"ｸﾞﾝﾏｹﾝ","kana_city":"ﾏｴﾊﾞｼｼ","kana_address":"ﾆｼｾﾞﾝﾏﾁ","pref":"群馬県","city":"前橋市","address":"西善町"},
{"zip_code":"3792117","kana_pref":"ｸﾞﾝﾏｹﾝ","kana_city":"ﾏｴﾊﾞｼｼ","kana_address":"ﾆﾉﾐﾔﾏﾁ","pref":"群馬県","city":"前橋市","address":"二之宮町"},
{"zip_code":"3792166","kana_pref":"ｸﾞﾝﾏｹﾝ","kana_city":"ﾏｴﾊﾞｼｼ","kana_address":"ﾉﾅｶﾏﾁ","pref":"群馬県","city":"前橋市","address":"野中町"},
{"zip_code":"3792164","kana_pref":"ｸﾞﾝﾏｹﾝ","kana_city":"ﾏｴﾊﾞｼｼ","kana_address":"ﾋｶﾞｼｳｴﾉﾏﾁ","pref":"群馬県","city":"前橋市","address":"東上野町"},
{"zip_code":"3792105","kana_pref":"ｸﾞﾝﾏｹﾝ","kana_city":"ﾏｴﾊﾞｼｼ","kana_address":"ﾋｶﾞｼｵｵﾑﾛﾏﾁ","pref":"群馬県","city":"前橋市","address":"東大室町"},
{"zip_code":"3792132","kana_pref":"ｸﾞﾝﾏｹﾝ","kana_city":"ﾏｴﾊﾞｼｼ","kana_address":"ﾋｶﾞｼｾﾞﾝﾏﾁ","pref":"群馬県","city":"前橋市","address":"東善町"},
{"zip_code":"3792136","kana_pref":"ｸﾞﾝﾏｹﾝ","kana_city":"ﾏｴﾊﾞｼｼ","kana_address":"ﾎﾞｳﾏﾙﾏﾁ","pref":"群馬県","city":"前橋市","address":"房丸町"},
{"zip_code":"3792145","kana_pref":"ｸﾞﾝﾏｹﾝ","kana_city":"ﾏｴﾊﾞｼｼ","kana_address":"ﾖｺﾃﾏﾁ","pref":"群馬県","city":"前橋市","address":"横手町"},
{"zip_code":"3792134","kana_pref":"ｸﾞﾝﾏｹﾝ","kana_city":"ﾏｴﾊﾞｼｼ","kana_address":"ﾘｷﾏﾙﾏﾁ","pref":"群馬県","city":"前橋市","address":"力丸町"},
{"zip_code":"3792201","kana_pref":"ｸﾞﾝﾏｹﾝ","kana_city":"ｲｾｻｷｼ","kana_address":"ｱｲﾉﾔﾁｮｳ","pref":"群馬県","city":"伊勢崎市","address":"間野谷町"},
{"zip_code":"3792215","kana_pref":"ｸﾞﾝﾏｹﾝ","kana_city":"ｲｾｻｷｼ","kana_address":"ｱｶﾎﾞﾘｲﾏｲﾁｮｳ","pref":"群馬県","city":"伊勢崎市","address":"赤堀今井町"},
{"zip_code":"3792202","kana_pref":"ｸﾞﾝﾏｹﾝ","kana_city":"ｲｾｻｷｼ","kana_address":"ｱｶﾎﾞﾘｶｼﾏﾁｮｳ","pref":"群馬県","city":"伊勢崎市","address":"赤堀鹿島町"},
{"zip_code":"3792231","kana_pref":"ｸﾞﾝﾏｹﾝ","kana_city":"ｲｾｻｷｼ","kana_address":"ｱｽﾞﾏﾁｮｳ","pref":"群馬県","city":"伊勢崎市","address":"東町"},
{"zip_code":"3792217","kana_pref":"ｸﾞﾝﾏｹﾝ","kana_city":"ｲｾｻｷｼ","kana_address":"ｲｿﾁｮｳ","pref":"群馬県","city":"伊勢崎市","address":"磯町"},
{"zip_code":"3792211","kana_pref":"ｸﾞﾝﾏｹﾝ","kana_city":"ｲｾｻｷｼ","kana_address":"ｲﾁﾊﾞﾁｮｳ","pref":"群馬県","city":"伊勢崎市","address":"市場町"},
{"zip_code":"3792225","kana_pref":"ｸﾞﾝﾏｹﾝ","kana_city":"ｲｾｻｷｼ","kana_address":"ｶﾐﾀﾞﾁｮｳ","pref":"群馬県","city":"伊勢崎市","address":"上田町"},
{"zip_code":"3792221","kana_pref":"ｸﾞﾝﾏｹﾝ","kana_city":"ｲｾｻｷｼ","kana_address":"ｸﾆｻﾀﾞﾏﾁ","pref":"群馬県","city":"伊勢崎市","address":"国定町"},
{"zip_code":"3792232","kana_pref":"ｸﾞﾝﾏｹﾝ","kana_city":"ｲｾｻｷｼ","kana_address":"ｺｲｽﾞﾐﾁｮｳ","pref":"群馬県","city":"伊勢崎市","address":"小泉町"},
{"zip_code":"3792206","kana_pref":"ｸﾞﾝﾏｹﾝ","kana_city":"ｲｾｻｷｼ","kana_address":"ｺｳﾊﾞﾔｼﾁｮｳ","pref":"群馬県","city":"伊勢崎市","address":"香林町"},
{"zip_code":"3792213","kana_pref":"ｸﾞﾝﾏｹﾝ","kana_city":"ｲｾｻｷｼ","kana_address":"ｺﾞﾒｳｼﾁｮｳ","pref":"群馬県","city":"伊勢崎市","address":"五目牛町"},
{"zip_code":"3792214","kana_pref":"ｸﾞﾝﾏｹﾝ","kana_city":"ｲｾｻｷｼ","kana_address":"ｼﾓﾌﾚｲﾁｮｳ","pref":"群馬県","city":"伊勢崎市","address":"下触町"},
{"zip_code":"3792222","kana_pref":"ｸﾞﾝﾏｹﾝ","kana_city":"ｲｾｻｷｼ","kana_address":"ﾀﾍﾞｲﾁｮｳ","pref":"群馬県","city":"伊勢崎市","address":"田部井町"},
{"zip_code":"3792224","kana_pref":"ｸﾞﾝﾏｹﾝ","kana_city":"ｲｾｻｷｼ","kana_address":"ﾆｼｵﾎﾞｶﾀﾁｮｳ","pref":"群馬県","city":"伊勢崎市","address":"西小保方町"},
{"zip_code":"3792204","kana_pref":"ｸﾞﾝﾏｹﾝ","kana_city":"ｲｾｻｷｼ","kana_address":"ﾆｼｸﾎﾞﾁｮｳ","pref":"群馬県","city":"伊勢崎市","address":"西久保町"},
{"zip_code":"3792216","kana_pref":"ｸﾞﾝﾏｹﾝ","kana_city":"ｲｾｻｷｼ","kana_address":"ﾆｼﾉﾁｮｳ","pref":"群馬県","city":"伊勢崎市","address":"西野町"},
{"zip_code":"3792205","kana_pref":"ｸﾞﾝﾏｹﾝ","kana_city":"ｲｾｻｷｼ","kana_address":"ﾉﾁｮｳ","pref":"群馬県","city":"伊勢崎市","address":"野町"},
{"zip_code":"3792236","kana_pref":"ｸﾞﾝﾏｹﾝ","kana_city":"ｲｾｻｷｼ","kana_address":"ﾊﾁｽﾁｮｳ","pref":"群馬県","city":"伊勢崎市","address":"八寸町"},
{"zip_code":"3792234","kana_pref":"ｸﾞﾝﾏｹﾝ","kana_city":"ｲｾｻｷｼ","kana_address":"ﾋｶﾞｼｵﾎﾞｶﾀﾁｮｳ","pref":"群馬県","city":"伊勢崎市","address":"東小保方町"},
{"zip_code":"3792233","kana_pref":"ｸﾞﾝﾏｹﾝ","kana_city":"ｲｾｻｷｼ","kana_address":"ﾋﾗｲﾁｮｳ","pref":"群馬県","city":"伊勢崎市","address":"平井町"},
{"zip_code":"3792212","kana_pref":"ｸﾞﾝﾏｹﾝ","kana_city":"ｲｾｻｷｼ","kana_address":"ﾎﾘｼﾀﾁｮｳ","pref":"群馬県","city":"伊勢崎市","address":"堀下町"},
{"zip_code":"3792203","kana_pref":"ｸﾞﾝﾏｹﾝ","kana_city":"ｲｾｻｷｼ","kana_address":"ﾏｶﾞﾘｻﾜﾁｮｳ","pref":"群馬県","city":"伊勢崎市","address":"曲沢町"},
{"zip_code":"3792235","kana_pref":"ｸﾞﾝﾏｹﾝ","kana_city":"ｲｾｻｷｼ","kana_address":"ﾐﾑﾛﾁｮｳ","pref":"群馬県","city":"伊勢崎市","address":"三室町"},
{"zip_code":"3792306","kana_pref":"ｸﾞﾝﾏｹﾝ","kana_city":"ｵｵﾀｼ","kana_address":"ｵｵｸﾎﾞﾁｮｳ","pref":"群馬県","city":"太田市","address":"大久保町"},
{"zip_code":"3792304","kana_pref":"ｸﾞﾝﾏｹﾝ","kana_city":"ｵｵﾀｼ","kana_address":"ｵｵﾊﾞﾗﾁｮｳ","pref":"群馬県","city":"太田市","address":"大原町"},
{"zip_code":"3792301","kana_pref":"ｸﾞﾝﾏｹﾝ","kana_city":"ｵｵﾀｼ","kana_address":"ﾔﾌﾞﾂﾞｶﾁｮｳ","pref":"群馬県","city":"太田市","address":"藪塚町"},
{"zip_code":"3792302","kana_pref":"ｸﾞﾝﾏｹﾝ","kana_city":"ｵｵﾀｼ","kana_address":"ﾔﾏﾉｶﾐﾁｮｳ","pref":"群馬県","city":"太田市","address":"山之神町"},
{"zip_code":"3792303","kana_pref":"ｸﾞﾝﾏｹﾝ","kana_city":"ｵｵﾀｼ","kana_address":"ﾖﾘｱｲﾁｮｳ","pref":"群馬県","city":"太田市","address":"寄合町"},
{"zip_code":"3792305","kana_pref":"ｸﾞﾝﾏｹﾝ","kana_city":"ｵｵﾀｼ","kana_address":"ﾛｸｾﾝｺﾞｸﾁｮｳ","pref":"群馬県","city":"太田市","address":"六千石町"},
{"zip_code":"3791122","kana_pref":"ｸﾞﾝﾏｹﾝ","kana_city":"ｼﾌﾞｶﾜｼ","kana_address":"ｱｶｷﾞﾏﾁｶﾂﾎｻﾞﾜ","pref":"群馬県","city":"渋川市","address":"赤城町勝保沢"},
{"zip_code":"3791125","kana_pref":"ｸﾞﾝﾏｹﾝ","kana_city":"ｼﾌﾞｶﾜｼ","kana_address":"ｱｶｷﾞﾏﾁｶﾐﾐﾊﾗﾀﾞ","pref":"群馬県","city":"渋川市","address":"赤城町上三原田"},
{"zip_code":"3791111","kana_pref":"ｸﾞﾝﾏｹﾝ","kana_city":"ｼﾌﾞｶﾜｼ","kana_address":"ｱｶｷﾞﾏﾁｷﾀｱｶｷﾞｻﾝ","pref":"群馬県","city":"渋川市","address":"赤城町北赤城山"},
{"zip_code":"3791105","kana_pref":"ｸﾞﾝﾏｹﾝ","kana_city":"ｼﾌﾞｶﾜｼ","kana_address":"ｱｶｷﾞﾏﾁｷﾀｳｴﾉ","pref":"群馬県","city":"渋川市","address":"赤城町北上野"},
{"zip_code":"3791114","kana_pref":"ｸﾞﾝﾏｹﾝ","kana_city":"ｼﾌﾞｶﾜｼ","kana_address":"ｱｶｷﾞﾏﾁｻｶｴ","pref":"群馬県","city":"渋川市","address":"赤城町栄"},
{"zip_code":"3791104","kana_pref":"ｸﾞﾝﾏｹﾝ","kana_city":"ｼﾌﾞｶﾜｼ","kana_address":"ｱｶｷﾞﾏﾁｼｷｼﾏ","pref":"群馬県","city":"渋川市","address":"赤城町敷島"},
{"zip_code":"3791124","kana_pref":"ｸﾞﾝﾏｹﾝ","kana_city":"ｼﾌﾞｶﾜｼ","kana_address":"ｱｶｷﾞﾏﾁﾀｷｻﾞﾜ","pref":"群馬県","city":"渋川市","address":"赤城町滝沢"},
{"zip_code":"3791101","kana_pref":"ｸﾞﾝﾏｹﾝ","kana_city":"ｼﾌﾞｶﾜｼ","kana_address":"ｱｶｷﾞﾏﾁﾀﾅｼﾀ","pref":"群馬県","city":"渋川市","address":"赤城町棚下"},
{"zip_code":"3791127","kana_pref":"ｸﾞﾝﾏｹﾝ","kana_city":"ｼﾌﾞｶﾜｼ","kana_address":"ｱｶｷﾞﾏﾁﾀﾙ","pref":"群馬県","city":"渋川市","address":"赤城町樽"},
{"zip_code":"3791103","kana_pref":"ｸﾞﾝﾏｹﾝ","kana_city":"ｼﾌﾞｶﾜｼ","kana_address":"ｱｶｷﾞﾏﾁﾂｸﾀﾞ","pref":"群馬県","city":"渋川市","address":"赤城町津久田"},
{"zip_code":"3791102","kana_pref":"ｸﾞﾝﾏｹﾝ","kana_city":"ｼﾌﾞｶﾜｼ","kana_address":"ｱｶｷﾞﾏﾁﾅｶﾞｲｵｶﾞﾜﾀﾞ","pref":"群馬県","city":"渋川市","address":"赤城町長井小川田"},
{"zip_code":"3791115","kana_pref":"ｸﾞﾝﾏｹﾝ","kana_city":"ｼﾌﾞｶﾜｼ","kana_address":"ｱｶｷﾞﾏﾁﾐｿﾞﾛｷ","pref":"群馬県","city":"渋川市","address":"赤城町溝呂木"},
{"zip_code":"3791123","kana_pref":"ｸﾞﾝﾏｹﾝ","kana_city":"ｼﾌﾞｶﾜｼ","kana_address":"ｱｶｷﾞﾏﾁﾐﾀﾁ","pref":"群馬県","city":"渋川市","address":"赤城町見立"},
{"zip_code":"3791113","kana_pref":"ｸﾞﾝﾏｹﾝ","kana_city":"ｼﾌﾞｶﾜｼ","kana_address":"ｱｶｷﾞﾏﾁﾐﾅﾐｱｶｷﾞｻﾝ","pref":"群馬県","city":"渋川市","address":"赤城町南赤城山"},
{"zip_code":"3791126","kana_pref":"ｸﾞﾝﾏｹﾝ","kana_city":"ｼﾌﾞｶﾜｼ","kana_address":"ｱｶｷﾞﾏﾁﾐﾊﾗﾀﾞ","pref":"群馬県","city":"渋川市","address":"赤城町三原田"},
{"zip_code":"3791121","kana_pref":"ｸﾞﾝﾏｹﾝ","kana_city":"ｼﾌﾞｶﾜｼ","kana_address":"ｱｶｷﾞﾏﾁﾐﾔﾀﾞ","pref":"群馬県","city":"渋川市","address":"赤城町宮田"},
{"zip_code":"3791112","kana_pref":"ｸﾞﾝﾏｹﾝ","kana_city":"ｼﾌﾞｶﾜｼ","kana_address":"ｱｶｷﾞﾏﾁﾐﾔﾏ","pref":"群馬県","city":"渋川市","address":"赤城町深山"},
{"zip_code":"3791116","kana_pref":"ｸﾞﾝﾏｹﾝ","kana_city":"ｼﾌﾞｶﾜｼ","kana_address":"ｱｶｷﾞﾏﾁﾓﾁｶｼﾜｷﾞ","pref":"群馬県","city":"渋川市","address":"赤城町持柏木"},
{"zip_code":"3790202","kana_pref":"ｸﾞﾝﾏｹﾝ","kana_city":"ﾄﾐｵｶｼ","kana_address":"ﾐｮｳｷﾞﾏﾁｵｵｳｼ","pref":"群馬県","city":"富岡市","address":"妙義町大牛"},
{"zip_code":"3790205","kana_pref":"ｸﾞﾝﾏｹﾝ","kana_city":"ﾄﾐｵｶｼ","kana_address":"ﾐｮｳｷﾞﾏﾁｷﾀﾔﾏ","pref":"群馬県","city":"富岡市","address":"妙義町北山"},
{"zip_code":"3790208","kana_pref":"ｸﾞﾝﾏｹﾝ","kana_city":"ﾄﾐｵｶｼ","kana_address":"ﾐｮｳｷﾞﾏﾁｽｶﾞﾊﾗ","pref":"群馬県","city":"富岡市","address":"妙義町菅原"},
{"zip_code":"3790203","kana_pref":"ｸﾞﾝﾏｹﾝ","kana_city":"ﾄﾐｵｶｼ","kana_address":"ﾐｮｳｷﾞﾏﾁﾀｹ","pref":"群馬県","city":"富岡市","address":"妙義町岳"},
{"zip_code":"3790206","kana_pref":"ｸﾞﾝﾏｹﾝ","kana_city":"ﾄﾐｵｶｼ","kana_address":"ﾐｮｳｷﾞﾏﾁﾅｶｻﾞﾄ","pref":"群馬県","city":"富岡市","address":"妙義町中里"},
{"zip_code":"3790204","kana_pref":"ｸﾞﾝﾏｹﾝ","kana_city":"ﾄﾐｵｶｼ","kana_address":"ﾐｮｳｷﾞﾏﾁﾅﾒｻﾞﾜ","pref":"群馬県","city":"富岡市","address":"妙義町行沢"},
{"zip_code":"3790207","kana_pref":"ｸﾞﾝﾏｹﾝ","kana_city":"ﾄﾐｵｶｼ","kana_address":"ﾐｮｳｷﾞﾏﾁﾌﾙﾀﾁ","pref":"群馬県","city":"富岡市","address":"妙義町古立"},
{"zip_code":"3790201","kana_pref":"ｸﾞﾝﾏｹﾝ","kana_city":"ﾄﾐｵｶｼ","kana_address":"ﾐｮｳｷﾞﾏﾁﾐｮｳｷﾞ","pref":"群馬県","city":"富岡市","address":"妙義町妙義"},
{"zip_code":"3790209","kana_pref":"ｸﾞﾝﾏｹﾝ","kana_city":"ﾄﾐｵｶｼ","kana_address":"ﾐｮｳｷﾞﾏﾁﾓﾛﾄ","pref":"群馬県","city":"富岡市","address":"妙義町諸戸"},
{"zip_code":"3790100","kana_pref":"ｸﾞﾝﾏｹﾝ","kana_city":"ｱﾝﾅｶｼ","kana_address":"","pref":"群馬県","city":"安中市","address":""},
{"zip_code":"3790109","kana_pref":"ｸﾞﾝﾏｹﾝ","kana_city":"ｱﾝﾅｶｼ","kana_address":"ｱｷﾏﾐﾉﾘｶﾞｵｶ","pref":"群馬県","city":"安中市","address":"秋間みのりが丘"},
{"zip_code":"3790116","kana_pref":"ｸﾞﾝﾏｹﾝ","kana_city":"ｱﾝﾅｶｼ","kana_address":"ｱﾝﾅｶ","pref":"群馬県","city":"安中市","address":"安中"},
{"zip_code":"3790127","kana_pref":"ｸﾞﾝﾏｹﾝ","kana_city":"ｱﾝﾅｶｼ","kana_address":"ｲｿﾍﾞ","pref":"群馬県","city":"安中市","address":"磯部"},
{"zip_code":"3790111","kana_pref":"ｸﾞﾝﾏｹﾝ","kana_city":"ｱﾝﾅｶｼ","kana_address":"ｲﾀﾊﾅ","pref":"群馬県","city":"安中市","address":"板鼻"},
{"zip_code":"3790112","kana_pref":"ｸﾞﾝﾏｹﾝ","kana_city":"ｱﾝﾅｶｼ","kana_address":"ｲﾜｲ","pref":"群馬県","city":"安中市","address":"岩井"},
{"zip_code":"3790121","kana_pref":"ｸﾞﾝﾏｹﾝ","kana_city":"ｱﾝﾅｶｼ","kana_address":"ｵｵﾀｹ","pref":"群馬県","city":"安中市","address":"大竹"},
{"zip_code":"3790113","kana_pref":"ｸﾞﾝﾏｹﾝ","kana_city":"ｱﾝﾅｶｼ","kana_address":"ｵｵﾔ","pref":"群馬県","city":"安中市","address":"大谷"},
{"zip_code":"3790105","kana_pref":"ｸﾞﾝﾏｹﾝ","kana_city":"ｱﾝﾅｶｼ","kana_address":"ｵﾏﾀ","pref":"群馬県","city":"安中市","address":"小俣"},
{"zip_code":"3790108","kana_pref":"ｸﾞﾝﾏｹﾝ","kana_city":"ｱﾝﾅｶｼ","kana_address":"ｶﾐｺﾞｶﾝ","pref":"群馬県","city":"安中市","address":"上後閑"},
{"zip_code":"3790123","kana_pref":"ｸﾞﾝﾏｹﾝ","kana_city":"ｱﾝﾅｶｼ","kana_address":"ｶﾐﾏﾆﾀ","pref":"群馬県","city":"安中市","address":"上間仁田"},
{"zip_code":"3790135","kana_pref":"ｸﾞﾝﾏｹﾝ","kana_city":"ｱﾝﾅｶｼ","kana_address":"ｺﾞｳﾊﾞﾗ","pref":"群馬県","city":"安中市","address":"郷原"},
{"zip_code":"3790132","kana_pref":"ｸﾞﾝﾏｹﾝ","kana_city":"ｱﾝﾅｶｼ","kana_address":"ｺｳﾍﾞﾂﾄｳ","pref":"群馬県","city":"安中市","address":"高別当"},
{"zip_code":"3790124","kana_pref":"ｸﾞﾝﾏｹﾝ","kana_city":"ｱﾝﾅｶｼ","kana_address":"ｻｷﾞﾉﾐﾔ","pref":"群馬県","city":"安中市","address":"鷺宮"},
{"zip_code":"3790104","kana_pref":"ｸﾞﾝﾏｹﾝ","kana_city":"ｱﾝﾅｶｼ","kana_address":"ｼﾓｱｷﾏ","pref":"群馬県","city":"安中市","address":"下秋間"},
{"zip_code":"3790129","kana_pref":"ｸﾞﾝﾏｹﾝ","kana_city":"ｱﾝﾅｶｼ","kana_address":"ｼﾓｲｿﾍﾞ","pref":"群馬県","city":"安中市","address":"下磯部"},
{"zip_code":"3790106","kana_pref":"ｸﾞﾝﾏｹﾝ","kana_city":"ｱﾝﾅｶｼ","kana_address":"ｼﾓｺﾞｶﾝ","pref":"群馬県","city":"安中市","address":"下後閑"},
{"zip_code":"3790122","kana_pref":"ｸﾞﾝﾏｹﾝ","kana_city":"ｱﾝﾅｶｼ","kana_address":"ｼﾓﾏﾆﾀ","pref":"群馬県","city":"安中市","address":"下間仁田"},
{"zip_code":"3790103","kana_pref":"ｸﾞﾝﾏｹﾝ","kana_city":"ｱﾝﾅｶｼ","kana_address":"ﾅｶｱｷﾏ","pref":"群馬県","city":"安中市","address":"中秋間"},
{"zip_code":"3790107","kana_pref":"ｸﾞﾝﾏｹﾝ","kana_city":"ｱﾝﾅｶｼ","kana_address":"ﾅｶｺﾞｶﾝ","pref":"群馬県","city":"安中市","address":"中後閑"},
{"zip_code":"3790115","kana_pref":"ｸﾞﾝﾏｹﾝ","kana_city":"ｱﾝﾅｶｼ","kana_address":"ﾅｶｼﾞｭｸ","pref":"群馬県","city":"安中市","address":"中宿"},
{"zip_code":"3790125","kana_pref":"ｸﾞﾝﾏｹﾝ","kana_city":"ｱﾝﾅｶｼ","kana_address":"ﾅｶﾉﾔ","pref":"群馬県","city":"安中市","address":"中野谷"},
{"zip_code":"3790101","kana_pref":"ｸﾞﾝﾏｹﾝ","kana_city":"ｱﾝﾅｶｼ","kana_address":"ﾆｼｶﾐｱｷﾏ","pref":"群馬県","city":"安中市","address":"西上秋間"},
{"zip_code":"3790126","kana_pref":"ｸﾞﾝﾏｹﾝ","kana_city":"ｱﾝﾅｶｼ","kana_address":"ﾆｼｶﾐｲｿﾍﾞ","pref":"群馬県","city":"安中市","address":"西上磯部"},
{"zip_code":"3790114","kana_pref":"ｸﾞﾝﾏｹﾝ","kana_city":"ｱﾝﾅｶｼ","kana_address":"ﾉﾄﾞﾉ","pref":"群馬県","city":"安中市","address":"野殿"},
{"zip_code":"3790133","kana_pref":"ｸﾞﾝﾏｹﾝ","kana_city":"ｱﾝﾅｶｼ","kana_address":"ﾊﾗｲﾁ","pref":"群馬県","city":"安中市","address":"原市"},
{"zip_code":"3790102","kana_pref":"ｸﾞﾝﾏｹﾝ","kana_city":"ｱﾝﾅｶｼ","kana_address":"ﾋｶﾞｼｶﾐｱｷﾏ","pref":"群馬県","city":"安中市","address":"東上秋間"},
{"zip_code":"3790128","kana_pref":"ｸﾞﾝﾏｹﾝ","kana_city":"ｱﾝﾅｶｼ","kana_address":"ﾋｶﾞｼｶﾐｲｿﾍﾞ","pref":"群馬県","city":"安中市","address":"東上磯部"},
{"zip_code":"3790131","kana_pref":"ｸﾞﾝﾏｹﾝ","kana_city":"ｱﾝﾅｶｼ","kana_address":"ﾌﾙﾔ","pref":"群馬県","city":"安中市","address":"古屋"},
{"zip_code":"3790216","kana_pref":"ｸﾞﾝﾏｹﾝ","kana_city":"ｱﾝﾅｶｼ","kana_address":"ﾏﾂｲﾀﾞﾏﾁｱﾗｲ","pref":"群馬県","city":"安中市","address":"松井田町新井"},
{"zip_code":"3790305","kana_pref":"ｸﾞﾝﾏｹﾝ","kana_city":"ｱﾝﾅｶｼ","kana_address":"ﾏﾂｲﾀﾞﾏﾁｲﾘﾔﾏ","pref":"群馬県","city":"安中市","address":"松井田町入山"},
{"zip_code":"3790226","kana_pref":"ｸﾞﾝﾏｹﾝ","kana_city":"ｱﾝﾅｶｼ","kana_address":"ﾏﾂｲﾀﾞﾏﾁｵｸﾅﾀﾞ","pref":"群馬県","city":"安中市","address":"松井田町行田"},
{"zip_code":"3790213","kana_pref":"ｸﾞﾝﾏｹﾝ","kana_city":"ｱﾝﾅｶｼ","kana_address":"ﾏﾂｲﾀﾞﾏﾁｵﾋﾞﾅﾀ","pref":"群馬県","city":"安中市","address":"松井田町小日向"},
{"zip_code":"3790211","kana_pref":"ｸﾞﾝﾏｹﾝ","kana_city":"ｱﾝﾅｶｼ","kana_address":"ﾏﾂｲﾀﾞﾏﾁｶﾐﾏｽﾀﾞ","pref":"群馬県","city":"安中市","address":"松井田町上増田"},
{"zip_code":"3790304","kana_pref":"ｸﾞﾝﾏｹﾝ","kana_city":"ｱﾝﾅｶｼ","kana_address":"ﾏﾂｲﾀﾞﾏﾁｷﾀﾉﾏｷ","pref":"群馬県","city":"安中市","address":"松井田町北野牧"},
{"zip_code":"3790214","kana_pref":"ｸﾞﾝﾏｹﾝ","kana_city":"ｱﾝﾅｶｼ","kana_address":"ﾏﾂｲﾀﾞﾏﾁｺｸｶﾞ","pref":"群馬県","city":"安中市","address":"松井田町国衙"},
{"zip_code":"3790302","kana_pref":"ｸﾞﾝﾏｹﾝ","kana_city":"ｱﾝﾅｶｼ","kana_address":"ﾏﾂｲﾀﾞﾏﾁｺﾞﾘｮｳ","pref":"群馬県","city":"安中市","address":"松井田町五料"},
{"zip_code":"3790307","kana_pref":"ｸﾞﾝﾏｹﾝ","kana_city":"ｱﾝﾅｶｼ","kana_address":"ﾏﾂｲﾀﾞﾏﾁｻｶﾓﾄ","pref":"群馬県","city":"安中市","address":"松井田町坂本"},
{"zip_code":"3790212","kana_pref":"ｸﾞﾝﾏｹﾝ","kana_city":"ｱﾝﾅｶｼ","kana_address":"ﾏﾂｲﾀﾞﾏﾁｼﾓﾏｽﾀﾞ","pref":"群馬県","city":"安中市","address":"松井田町下増田"},
{"zip_code":"3790215","kana_pref":"ｸﾞﾝﾏｹﾝ","kana_city":"ｱﾝﾅｶｼ","kana_address":"ﾏﾂｲﾀﾞﾏﾁﾀｶﾅｼ","pref":"群馬県","city":"安中市","address":"松井田町高梨子"},
{"zip_code":"3790221","kana_pref":"ｸﾞﾝﾏｹﾝ","kana_city":"ｱﾝﾅｶｼ","kana_address":"ﾏﾂｲﾀﾞﾏﾁﾆｲﾎﾞﾘ","pref":"群馬県","city":"安中市","address":"松井田町新堀"},
{"zip_code":"3790223","kana_pref":"ｸﾞﾝﾏｹﾝ","kana_city":"ｱﾝﾅｶｼ","kana_address":"ﾏﾂｲﾀﾞﾏﾁﾆｹﾝｻﾞｲｹ","pref":"群馬県","city":"安中市","address":"松井田町二軒在家"},
{"zip_code":"3790303","kana_pref":"ｸﾞﾝﾏｹﾝ","kana_city":"ｱﾝﾅｶｼ","kana_address":"ﾏﾂｲﾀﾞﾏﾁﾆｼﾉﾏｷ","pref":"群馬県","city":"安中市","address":"松井田町西野牧"},
{"zip_code":"3790306","kana_pref":"ｸﾞﾝﾏｹﾝ","kana_city":"ｱﾝﾅｶｼ","kana_address":"ﾏﾂｲﾀﾞﾏﾁﾊﾗ","pref":"群馬県","city":"安中市","address":"松井田町原"},
{"zip_code":"3790217","kana_pref":"ｸﾞﾝﾏｹﾝ","kana_city":"ｱﾝﾅｶｼ","kana_address":"ﾏﾂｲﾀﾞﾏﾁﾋｼﾞｼｵ","pref":"群馬県","city":"安中市","address":"松井田町土塩"},
{"zip_code":"3790224","kana_pref":"ｸﾞﾝﾏｹﾝ","kana_city":"ｱﾝﾅｶｼ","kana_address":"ﾏﾂｲﾀﾞﾏﾁﾋﾄﾐ","pref":"群馬県","city":"安中市","address":"松井田町人見"},
{"zip_code":"3790222","kana_pref":"ｸﾞﾝﾏｹﾝ","kana_city":"ｱﾝﾅｶｼ","kana_address":"ﾏﾂｲﾀﾞﾏﾁﾏﾂｲﾀﾞ","pref":"群馬県","city":"安中市","address":"松井田町松井田"},
{"zip_code":"3790225","kana_pref":"ｸﾞﾝﾏｹﾝ","kana_city":"ｱﾝﾅｶｼ","kana_address":"ﾏﾂｲﾀﾞﾏﾁﾔｼﾛ","pref":"群馬県","city":"安中市","address":"松井田町八城"},
{"zip_code":"3790301","kana_pref":"ｸﾞﾝﾏｹﾝ","kana_city":"ｱﾝﾅｶｼ","kana_address":"ﾏﾂｲﾀﾞﾏﾁﾖｺｶﾜ","pref":"群馬県","city":"安中市","address":"松井田町横川"},
{"zip_code":"3790136","kana_pref":"ｸﾞﾝﾏｹﾝ","kana_city":"ｱﾝﾅｶｼ","kana_address":"ﾐﾈ","pref":"群馬県","city":"安中市","address":"嶺"},
{"zip_code":"3790134","kana_pref":"ｸﾞﾝﾏｹﾝ","kana_city":"ｱﾝﾅｶｼ","kana_address":"ﾔﾅｾ","pref":"群馬県","city":"安中市","address":"簗瀬"},
{"zip_code":"3792311","kana_pref":"ｸﾞﾝﾏｹﾝ","kana_city":"ﾐﾄﾞﾘｼ","kana_address":"ｶｻｶｹﾁｮｳｱｻﾞﾐ","pref":"群馬県","city":"みどり市","address":"笠懸町阿左美"},
{"zip_code":"3792312","kana_pref":"ｸﾞﾝﾏｹﾝ","kana_city":"ﾐﾄﾞﾘｼ","kana_address":"ｶｻｶｹﾁｮｳｸｸﾞｳ","pref":"群馬県","city":"みどり市","address":"笠懸町久宮"},
{"zip_code":"3792314","kana_pref":"ｸﾞﾝﾏｹﾝ","kana_city":"ﾐﾄﾞﾘｼ","kana_address":"ｶｻｶｹﾁｮｳｻｲｼｶﾀﾞ","pref":"群馬県","city":"みどり市","address":"笠懸町西鹿田"},
{"zip_code":"3792313","kana_pref":"ｸﾞﾝﾏｹﾝ","kana_city":"ﾐﾄﾞﾘｼ","kana_address":"ｶｻｶｹﾁｮｳｼｶ","pref":"群馬県","city":"みどり市","address":"笠懸町鹿"},
{"zip_code":"3791200","kana_pref":"ｸﾞﾝﾏｹﾝ","kana_city":"ﾄﾈｸﾞﾝｼｮｳﾜﾑﾗ","kana_address":"","pref":"群馬県","city":"利根郡昭和村","address":""},
{"zip_code":"3791207","kana_pref":"ｸﾞﾝﾏｹﾝ","kana_city":"ﾄﾈｸﾞﾝｼｮｳﾜﾑﾗ","kana_address":"ｱｶｷﾞﾊﾗ","pref":"群馬県","city":"利根郡昭和村","address":"赤城原"},
{"zip_code":"3791203","kana_pref":"ｸﾞﾝﾏｹﾝ","kana_city":"ﾄﾈｸﾞﾝｼｮｳﾜﾑﾗ","kana_address":"ｲﾄｲ","pref":"群馬県","city":"利根郡昭和村","address":"糸井"},
{"zip_code":"3791201","kana_pref":"ｸﾞﾝﾏｹﾝ","kana_city":"ﾄﾈｸﾞﾝｼｮｳﾜﾑﾗ","kana_address":"ｵｺﾞｾ","pref":"群馬県","city":"利根郡昭和村","address":"生越"},
{"zip_code":"3791202","kana_pref":"ｸﾞﾝﾏｹﾝ","kana_city":"ﾄﾈｸﾞﾝｼｮｳﾜﾑﾗ","kana_address":"ｶｲﾉｾ","pref":"群馬県","city":"利根郡昭和村","address":"貝野瀬"},
{"zip_code":"3791205","kana_pref":"ｸﾞﾝﾏｹﾝ","kana_city":"ﾄﾈｸﾞﾝｼｮｳﾜﾑﾗ","kana_address":"ｶﾜﾊｹ","pref":"群馬県","city":"利根郡昭和村","address":"川額"},
{"zip_code":"3791206","kana_pref":"ｸﾞﾝﾏｹﾝ","kana_city":"ﾄﾈｸﾞﾝｼｮｳﾜﾑﾗ","kana_address":"ﾄﾁｸﾎﾞ","pref":"群馬県","city":"利根郡昭和村","address":"橡久保"},
{"zip_code":"3791204","kana_pref":"ｸﾞﾝﾏｹﾝ","kana_city":"ﾄﾈｸﾞﾝｼｮｳﾜﾑﾗ","kana_address":"ﾓﾘｼﾀ","pref":"群馬県","city":"利根郡昭和村","address":"森下"},
{"zip_code":"3791300","kana_pref":"ｸﾞﾝﾏｹﾝ","kana_city":"ﾄﾈｸﾞﾝﾐﾅｶﾐﾏﾁ","kana_address":"","pref":"群馬県","city":"利根郡みなかみ町","address":""},
{"zip_code":"3791404","kana_pref":"ｸﾞﾝﾏｹﾝ","kana_city":"ﾄﾈｸﾞﾝﾐﾅｶﾐﾏﾁ","kana_address":"ｱｲﾏﾀ","pref":"群馬県","city":"利根郡みなかみ町","address":"相俣"},
{"zip_code":"3791618","kana_pref":"ｸﾞﾝﾏｹﾝ","kana_city":"ﾄﾈｸﾞﾝﾐﾅｶﾐﾏﾁ","kana_address":"ｱﾉｳｶﾞﾜ","pref":"群馬県","city":"利根郡みなかみ町","address":"阿能川"},
{"zip_code":"3791411","kana_pref":"ｸﾞﾝﾏｹﾝ","kana_city":"ﾄﾈｸﾞﾝﾐﾅｶﾐﾏﾁ","kana_address":"ｱﾗﾏｷ","pref":"群馬県","city":"利根郡みなかみ町","address":"新巻"},
{"zip_code":"3791723","kana_pref":"ｸﾞﾝﾏｹﾝ","kana_city":"ﾄﾈｸﾞﾝﾐﾅｶﾐﾏﾁ","kana_address":"ｱﾜｻﾞﾜ","pref":"群馬県","city":"利根郡みなかみ町","address":"粟沢"},
{"zip_code":"3791311","kana_pref":"ｸﾞﾝﾏｹﾝ","kana_city":"ﾄﾈｸﾞﾝﾐﾅｶﾐﾏﾁ","kana_address":"ｲｼｸﾗ","pref":"群馬県","city":"利根郡みなかみ町","address":"石倉"},
{"zip_code":"3791416","kana_pref":"ｸﾞﾝﾏｹﾝ","kana_city":"ﾄﾈｸﾞﾝﾐﾅｶﾐﾏﾁ","kana_address":"ｲﾘｽｶﾜ","pref":"群馬県","city":"利根郡みなかみ町","address":"入須川"},
{"zip_code":"3791727","kana_pref":"ｸﾞﾝﾏｹﾝ","kana_city":"ﾄﾈｸﾞﾝﾐﾅｶﾐﾏﾁ","kana_address":"ｵｵｱﾅ","pref":"群馬県","city":"利根郡みなかみ町","address":"大穴"},
{"zip_code":"3791302","kana_pref":"ｸﾞﾝﾏｹﾝ","kana_city":"ﾄﾈｸﾞﾝﾐﾅｶﾐﾏﾁ","kana_address":"ｵｵﾇﾏ","pref":"群馬県","city":"利根郡みなかみ町","address":"大沼"},
{"zip_code":"3791312","kana_pref":"ｸﾞﾝﾏｹﾝ","kana_city":"ﾄﾈｸﾞﾝﾐﾅｶﾐﾏﾁ","kana_address":"ｵｶﾞﾜ","pref":"群馬県","city":"利根郡みなかみ町","address":"小川"},
{"zip_code":"3791612","kana_pref":"ｸﾞﾝﾏｹﾝ","kana_city":"ﾄﾈｸﾞﾝﾐﾅｶﾐﾏﾁ","kana_address":"ｵﾋﾞﾅﾀ","pref":"群馬県","city":"利根郡みなかみ町","address":"小日向"},
{"zip_code":"3791611","kana_pref":"ｸﾞﾝﾏｹﾝ","kana_city":"ﾄﾈｸﾞﾝﾐﾅｶﾐﾏﾁ","kana_address":"ｶﾉｻﾜ","pref":"群馬県","city":"利根郡みなかみ町","address":"鹿野沢"},
{"zip_code":"3791315","kana_pref":"ｸﾞﾝﾏｹﾝ","kana_city":"ﾄﾈｸﾞﾝﾐﾅｶﾐﾏﾁ","kana_address":"ｶﾐﾂﾞ","pref":"群馬県","city":"利根郡みなかみ町","address":"上津"},
{"zip_code":"3791303","kana_pref":"ｸﾞﾝﾏｹﾝ","kana_city":"ﾄﾈｸﾞﾝﾐﾅｶﾐﾏﾁ","kana_address":"ｶﾐﾓｸ","pref":"群馬県","city":"利根郡みなかみ町","address":"上牧"},
{"zip_code":"3791616","kana_pref":"ｸﾞﾝﾏｹﾝ","kana_city":"ﾄﾈｸﾞﾝﾐﾅｶﾐﾏﾁ","kana_address":"ｶﾜｶﾐ","pref":"群馬県","city":"利根郡みなかみ町","address":"川上"},
{"zip_code":"3791726","kana_pref":"ｸﾞﾝﾏｹﾝ","kana_city":"ﾄﾈｸﾞﾝﾐﾅｶﾐﾏﾁ","kana_address":"ｺｳﾁ","pref":"群馬県","city":"利根郡みなかみ町","address":"幸知"},
{"zip_code":"3791305","kana_pref":"ｸﾞﾝﾏｹﾝ","kana_city":"ﾄﾈｸﾞﾝﾐﾅｶﾐﾏﾁ","kana_address":"ｺﾞｶﾝ","pref":"群馬県","city":"利根郡みなかみ町","address":"後閑"},
{"zip_code":"3791615","kana_pref":"ｸﾞﾝﾏｹﾝ","kana_city":"ﾄﾈｸﾞﾝﾐﾅｶﾐﾏﾁ","kana_address":"ｺﾆﾀ","pref":"群馬県","city":"利根郡みなかみ町","address":"小仁田"},
{"zip_code":"3791403","kana_pref":"ｸﾞﾝﾏｹﾝ","kana_city":"ﾄﾈｸﾞﾝﾐﾅｶﾐﾏﾁ","kana_address":"ｻﾙｶﾞｷｮｳｵﾝｾﾝ","pref":"群馬県","city":"利根郡みなかみ町","address":"猿ケ京温泉"},
{"zip_code":"3791314","kana_pref":"ｸﾞﾝﾏｹﾝ","kana_city":"ﾄﾈｸﾞﾝﾐﾅｶﾐﾏﾁ","kana_address":"ｼﾓﾂﾞ","pref":"群馬県","city":"利根郡みなかみ町","address":"下津"},
{"zip_code":"3791304","kana_pref":"ｸﾞﾝﾏｹﾝ","kana_city":"ﾄﾈｸﾞﾝﾐﾅｶﾐﾏﾁ","kana_address":"ｼﾓﾓｸ","pref":"群馬県","city":"利根郡みなかみ町","address":"下牧"},
{"zip_code":"3791418","kana_pref":"ｸﾞﾝﾏｹﾝ","kana_city":"ﾄﾈｸﾞﾝﾐﾅｶﾐﾏﾁ","kana_address":"ｽｶﾜ","pref":"群馬県","city":"利根郡みなかみ町","address":"須川"},
{"zip_code":"3791613","kana_pref":"ｸﾞﾝﾏｹﾝ","kana_city":"ﾄﾈｸﾞﾝﾐﾅｶﾐﾏﾁ","kana_address":"ﾀｶﾋﾅﾀ","pref":"群馬県","city":"利根郡みなかみ町","address":"高日向"},
{"zip_code":"3791619","kana_pref":"ｸﾞﾝﾏｹﾝ","kana_city":"ﾄﾈｸﾞﾝﾐﾅｶﾐﾏﾁ","kana_address":"ﾀﾆｶﾞﾜ","pref":"群馬県","city":"利根郡みなかみ町","address":"谷川"},
{"zip_code":"3791313","kana_pref":"ｸﾞﾝﾏｹﾝ","kana_city":"ﾄﾈｸﾞﾝﾐﾅｶﾐﾏﾁ","kana_address":"ﾂｷﾖﾉ","pref":"群馬県","city":"利根郡みなかみ町","address":"月夜野"},
{"zip_code":"3791725","kana_pref":"ｸﾞﾝﾏｹﾝ","kana_city":"ﾄﾈｸﾞﾝﾐﾅｶﾐﾏﾁ","kana_address":"ﾂﾅｺﾞ","pref":"群馬県","city":"利根郡みなかみ町","address":"綱子"},
{"zip_code":"3791614","kana_pref":"ｸﾞﾝﾏｹﾝ","kana_city":"ﾄﾈｸﾞﾝﾐﾅｶﾐﾏﾁ","kana_address":"ﾃﾗﾏ","pref":"群馬県","city":"利根郡みなかみ町","address":"寺間"},
{"zip_code":"3791401","kana_pref":"ｸﾞﾝﾏｹﾝ","kana_city":"ﾄﾈｸﾞﾝﾐﾅｶﾐﾏﾁ","kana_address":"ﾅｶﾞｲ","pref":"群馬県","city":"利根郡みなかみ町","address":"永井"},
{"zip_code":"3791301","kana_pref":"ｸﾞﾝﾏｹﾝ","kana_city":"ﾄﾈｸﾞﾝﾐﾅｶﾐﾏﾁ","kana_address":"ﾅﾒｻﾞﾜ","pref":"群馬県","city":"利根郡みなかみ町","address":"奈女沢"},
{"zip_code":"3791415","kana_pref":"ｸﾞﾝﾏｹﾝ","kana_city":"ﾄﾈｸﾞﾝﾐﾅｶﾐﾏﾁ","kana_address":"ﾆｼﾐﾈｽｶﾜ","pref":"群馬県","city":"利根郡みなかみ町","address":"西峰須川"},
{"zip_code":"3791412","kana_pref":"ｸﾞﾝﾏｹﾝ","kana_city":"ﾄﾈｸﾞﾝﾐﾅｶﾐﾏﾁ","kana_address":"ﾊﾊﾞ","pref":"群馬県","city":"利根郡みなかみ町","address":"羽場"},
{"zip_code":"3791417","kana_pref":"ｸﾞﾝﾏｹﾝ","kana_city":"ﾄﾈｸﾞﾝﾐﾅｶﾐﾏﾁ","kana_address":"ﾋｶﾞｼﾐﾈ","pref":"群馬県","city":"利根郡みなかみ町","address":"東峰"},
{"zip_code":"3791402","kana_pref":"ｸﾞﾝﾏｹﾝ","kana_city":"ﾄﾈｸﾞﾝﾐﾅｶﾐﾏﾁ","kana_address":"ﾌｸﾛ","pref":"群馬県","city":"利根郡みなかみ町","address":"吹路"},
{"zip_code":"3791721","kana_pref":"ｸﾞﾝﾏｹﾝ","kana_city":"ﾄﾈｸﾞﾝﾐﾅｶﾐﾏﾁ","kana_address":"ﾌｼﾞﾜﾗ","pref":"群馬県","city":"利根郡みなかみ町","address":"藤原"},
{"zip_code":"3791414","kana_pref":"ｸﾞﾝﾏｹﾝ","kana_city":"ﾄﾈｸﾞﾝﾐﾅｶﾐﾏﾁ","kana_address":"ﾌｾ","pref":"群馬県","city":"利根郡みなかみ町","address":"布施"},
{"zip_code":"3791308","kana_pref":"ｸﾞﾝﾏｹﾝ","kana_city":"ﾄﾈｸﾞﾝﾐﾅｶﾐﾏﾁ","kana_address":"ﾏﾆﾜ","pref":"群馬県","city":"利根郡みなかみ町","address":"真庭"},
{"zip_code":"3791307","kana_pref":"ｸﾞﾝﾏｹﾝ","kana_city":"ﾄﾈｸﾞﾝﾐﾅｶﾐﾏﾁ","kana_address":"ﾏﾝﾄﾞｺﾛ","pref":"群馬県","city":"利根郡みなかみ町","address":"政所"},
{"zip_code":"3791724","kana_pref":"ｸﾞﾝﾏｹﾝ","kana_city":"ﾄﾈｸﾞﾝﾐﾅｶﾐﾏﾁ","kana_address":"ﾑｺｳﾔﾏ","pref":"群馬県","city":"利根郡みなかみ町","address":"向山"},
{"zip_code":"3791306","kana_pref":"ｸﾞﾝﾏｹﾝ","kana_city":"ﾄﾈｸﾞﾝﾐﾅｶﾐﾏﾁ","kana_address":"ﾓﾛ","pref":"群馬県","city":"利根郡みなかみ町","address":"師"},
{"zip_code":"3791413","kana_pref":"ｸﾞﾝﾏｹﾝ","kana_city":"ﾄﾈｸﾞﾝﾐﾅｶﾐﾏﾁ","kana_address":"ﾓﾛﾀﾞ","pref":"群馬県","city":"利根郡みなかみ町","address":"師田"},
{"zip_code":"3791409","kana_pref":"ｸﾞﾝﾏｹﾝ","kana_city":"ﾄﾈｸﾞﾝﾐﾅｶﾐﾏﾁ","kana_address":"ﾕｼﾞｭｸｵﾝｾﾝ","pref":"群馬県","city":"利根郡みなかみ町","address":"湯宿温泉"},
{"zip_code":"3791617","kana_pref":"ｸﾞﾝﾏｹﾝ","kana_city":"ﾄﾈｸﾞﾝﾐﾅｶﾐﾏﾁ","kana_address":"ﾕﾊﾞﾗ","pref":"群馬県","city":"利根郡みなかみ町","address":"湯原"},
{"zip_code":"3791728","kana_pref":"ｸﾞﾝﾏｹﾝ","kana_city":"ﾄﾈｸﾞﾝﾐﾅｶﾐﾏﾁ","kana_address":"ﾕﾋﾞｿ","pref":"群馬県","city":"利根郡みなかみ町","address":"湯桧曽"},
{"zip_code":"3791722","kana_pref":"ｸﾞﾝﾏｹﾝ","kana_city":"ﾄﾈｸﾞﾝﾐﾅｶﾐﾏﾁ","kana_address":"ﾖｺﾞ","pref":"群馬県","city":"利根郡みなかみ町","address":"夜後"},
{"zip_code":"3791601","kana_pref":"ｸﾞﾝﾏｹﾝ","kana_city":"ﾄﾈｸﾞﾝﾐﾅｶﾐﾏﾁ","kana_address":"ﾖｼﾓﾄ","pref":"群馬県","city":"利根郡みなかみ町","address":"吉本"}]}