{"zip_code":[
{"zip_code":"3810000","kana_pref":"ﾅｶﾞﾉｹﾝ","kana_city":"ﾅｶﾞﾉｼ","kana_address":"","pref":"長野県","city":"長野市","address":""},
{"zip_code":"3812247","kana_pref":"ﾅｶﾞﾉｹﾝ","kana_city":"ﾅｶﾞﾉｼ","kana_address":"ｱｵｷｼﾞﾏ","pref":"長野県","city":"長野市","address":"青木島"},
{"zip_code":"3812242","kana_pref":"ﾅｶﾞﾉｹﾝ","kana_city":"ﾅｶﾞﾉｼ","kana_address":"ｱｵｷｼﾞﾏﾏﾁｱｵｷｼﾞﾏ","pref":"長野県","city":"長野市","address":"青木島町青木島"},
{"zip_code":"3812241","kana_pref":"ﾅｶﾞﾉｹﾝ","kana_city":"ﾅｶﾞﾉｼ","kana_address":"ｱｵｷｼﾞﾏﾏﾁｱｵｷｼﾞﾏｵﾂ","pref":"長野県","city":"長野市","address":"青木島町青木島乙"},
{"zip_code":"3812205","kana_pref":"ﾅｶﾞﾉｹﾝ","kana_city":"ﾅｶﾞﾉｼ","kana_address":"ｱｵｷｼﾞﾏﾏﾁｵｵﾂｶ","pref":"長野県","city":"長野市","address":"青木島町大塚"},
{"zip_code":"3812206","kana_pref":"ﾅｶﾞﾉｹﾝ","kana_city":"ﾅｶﾞﾉｼ","kana_address":"ｱｵｷｼﾞﾏﾏﾁﾂﾅｼﾏ","pref":"長野県","city":"長野市","address":"青木島町綱島"},
{"zip_code":"3810001","kana_pref":"ﾅｶﾞﾉｹﾝ","kana_city":"ﾅｶﾞﾉｼ","kana_address":"ｱｶﾇﾏ","pref":"長野県","city":"長野市","address":"赤沼"},
{"zip_code":"3810054","kana_pref":"ﾅｶﾞﾉｹﾝ","kana_city":"ﾅｶﾞﾉｼ","kana_address":"ｱｻｶﾜ","pref":"長野県","city":"長野市","address":"浅川"},
{"zip_code":"3810056","kana_pref":"ﾅｶﾞﾉｹﾝ","kana_city":"ﾅｶﾞﾉｼ","kana_address":"ｱｻｶﾜｵｼﾀﾞ","pref":"長野県","city":"長野市","address":"浅川押田"},
{"zip_code":"3810072","kana_pref":"ﾅｶﾞﾉｹﾝ","kana_city":"ﾅｶﾞﾉｼ","kana_address":"ｱｻｶﾜｷﾖﾐｽﾞ","pref":"長野県","city":"長野市","address":"浅川清水"},
{"zip_code":"3810057","kana_pref":"ﾅｶﾞﾉｹﾝ","kana_city":"ﾅｶﾞﾉｼ","kana_address":"ｱｻｶﾜﾆｼｼﾞｮｳ","pref":"長野県","city":"長野市","address":"浅川西条"},
{"zip_code":"3810066","kana_pref":"ﾅｶﾞﾉｹﾝ","kana_city":"ﾅｶﾞﾉｼ","kana_address":"ｱｻｶﾜﾆｼﾋﾗ","pref":"長野県","city":"長野市","address":"浅川西平"},
{"zip_code":"3810073","kana_pref":"ﾅｶﾞﾉｹﾝ","kana_city":"ﾅｶﾞﾉｼ","kana_address":"ｱｻｶﾜﾊﾀﾔﾏ","pref":"長野県","city":"長野市","address":"浅川畑山"},
{"zip_code":"3810064","kana_pref":"ﾅｶﾞﾉｹﾝ","kana_city":"ﾅｶﾞﾉｼ","kana_address":"ｱｻｶﾜﾋｶﾞｼｼﾞｮｳ","pref":"長野県","city":"長野市","address":"浅川東条"},
{"zip_code":"3810062","kana_pref":"ﾅｶﾞﾉｹﾝ","kana_city":"ﾅｶﾞﾉｼ","kana_address":"ｱｻｶﾜﾌｸｵｶ","pref":"長野県","city":"長野市","address":"浅川福岡"},
{"zip_code":"3810015","kana_pref":"ﾅｶﾞﾉｹﾝ","kana_city":"ﾅｶﾞﾉｼ","kana_address":"ｲｼﾜﾀ","pref":"長野県","city":"長野市","address":"石渡"},
{"zip_code":"3812202","kana_pref":"ﾅｶﾞﾉｹﾝ","kana_city":"ﾅｶﾞﾉｼ","kana_address":"ｲﾁﾊﾞ","pref":"長野県","city":"長野市","address":"市場"},
{"zip_code":"3812243","kana_pref":"ﾅｶﾞﾉｹﾝ","kana_city":"ﾅｶﾞﾉｼ","kana_address":"ｲﾅｻﾄ","pref":"長野県","city":"長野市","address":"稲里"},
{"zip_code":"3812211","kana_pref":"ﾅｶﾞﾉｹﾝ","kana_city":"ﾅｶﾞﾉｼ","kana_address":"ｲﾅｻﾄﾏﾁｼﾓﾋｶﾞﾉ","pref":"長野県","city":"長野市","address":"稲里町下氷鉋"},
{"zip_code":"3812214","kana_pref":"ﾅｶﾞﾉｹﾝ","kana_city":"ﾅｶﾞﾉｼ","kana_address":"ｲﾅｻﾄﾏﾁﾀﾏｷ","pref":"長野県","city":"長野市","address":"稲里町田牧"},
{"zip_code":"3812217","kana_pref":"ﾅｶﾞﾉｹﾝ","kana_city":"ﾅｶﾞﾉｼ","kana_address":"ｲﾅｻﾄﾏﾁﾁｭｳｵｳ","pref":"長野県","city":"長野市","address":"稲里町中央"},
{"zip_code":"3812215","kana_pref":"ﾅｶﾞﾉｹﾝ","kana_city":"ﾅｶﾞﾉｼ","kana_address":"ｲﾅｻﾄﾏﾁﾅｶﾋｶﾞﾉ","pref":"長野県","city":"長野市","address":"稲里町中氷鉋"},
{"zip_code":"3810042","kana_pref":"ﾅｶﾞﾉｹﾝ","kana_city":"ﾅｶﾞﾉｼ","kana_address":"ｲﾅﾀﾞ","pref":"長野県","city":"長野市","address":"稲田"},
{"zip_code":"3810085","kana_pref":"ﾅｶﾞﾉｹﾝ","kana_city":"ﾅｶﾞﾉｼ","kana_address":"ｳﾜﾉ","pref":"長野県","city":"長野市","address":"上野"},
{"zip_code":"3812703","kana_pref":"ﾅｶﾞﾉｹﾝ","kana_city":"ﾅｶﾞﾉｼ","kana_address":"ｵｵｵｶｵﾂ","pref":"長野県","city":"長野市","address":"大岡乙"},
{"zip_code":"3812704","kana_pref":"ﾅｶﾞﾉｹﾝ","kana_city":"ﾅｶﾞﾉｼ","kana_address":"ｵｵｵｶｺｳ","pref":"長野県","city":"長野市","address":"大岡甲"},
{"zip_code":"3812701","kana_pref":"ﾅｶﾞﾉｹﾝ","kana_city":"ﾅｶﾞﾉｼ","kana_address":"ｵｵｵｶﾅｶﾏｷ","pref":"長野県","city":"長野市","address":"大岡中牧"},
{"zip_code":"3812705","kana_pref":"ﾅｶﾞﾉｹﾝ","kana_city":"ﾅｶﾞﾉｼ","kana_address":"ｵｵｵｶﾋﾛｻｷ","pref":"長野県","city":"長野市","address":"大岡弘崎"},
{"zip_code":"3812702","kana_pref":"ﾅｶﾞﾉｹﾝ","kana_city":"ﾅｶﾞﾉｼ","kana_address":"ｵｵｵｶﾍｲ","pref":"長野県","city":"長野市","address":"大岡丙"},
{"zip_code":"3812207","kana_pref":"ﾅｶﾞﾉｹﾝ","kana_city":"ﾅｶﾞﾉｼ","kana_address":"ｵｵﾊｼﾐﾅﾐ","pref":"長野県","city":"長野市","address":"大橋南"},
{"zip_code":"3810004","kana_pref":"ﾅｶﾞﾉｹﾝ","kana_city":"ﾅｶﾞﾉｼ","kana_address":"ｵｵﾏﾁ","pref":"長野県","city":"長野市","address":"大町"},
{"zip_code":"3812212","kana_pref":"ﾅｶﾞﾉｹﾝ","kana_city":"ﾅｶﾞﾉｼ","kana_address":"ｵｼﾏﾀﾞﾏﾁ","pref":"長野県","city":"長野市","address":"小島田町"},
{"zip_code":"3810053","kana_pref":"ﾅｶﾞﾉｹﾝ","kana_city":"ﾅｶﾞﾉｼ","kana_address":"ｶｸﾞﾗﾊﾞｼ","pref":"長野県","city":"長野市","address":"神楽橋"},
{"zip_code":"3810023","kana_pref":"ﾅｶﾞﾉｹﾝ","kana_city":"ﾅｶﾞﾉｼ","kana_address":"ｶｻﾞﾏ","pref":"長野県","city":"長野市","address":"風間"},
{"zip_code":"3812222","kana_pref":"ﾅｶﾞﾉｹﾝ","kana_city":"ﾅｶﾞﾉｼ","kana_address":"ｶﾅｲﾀﾞ","pref":"長野県","city":"長野市","address":"金井田"},
{"zip_code":"3810007","kana_pref":"ﾅｶﾞﾉｹﾝ","kana_city":"ﾅｶﾞﾉｼ","kana_address":"ｶﾈﾊﾞｺ","pref":"長野県","city":"長野市","address":"金箱"},
{"zip_code":"3810082","kana_pref":"ﾅｶﾞﾉｹﾝ","kana_city":"ﾅｶﾞﾉｼ","kana_address":"ｶﾐｺﾏｻﾞﾜ","pref":"長野県","city":"長野市","address":"上駒沢"},
{"zip_code":"3812232","kana_pref":"ﾅｶﾞﾉｹﾝ","kana_city":"ﾅｶﾞﾉｼ","kana_address":"ｶﾜﾅｶｼﾞﾏﾁｮｳﾜｶﾊﾞﾁｮｳ","pref":"長野県","city":"長野市","address":"川中島町若葉町"},
{"zip_code":"3812226","kana_pref":"ﾅｶﾞﾉｹﾝ","kana_city":"ﾅｶﾞﾉｼ","kana_address":"ｶﾜﾅｶｼﾞﾏﾏﾁｲﾏｲ","pref":"長野県","city":"長野市","address":"川中島町今井"},
{"zip_code":"3812227","kana_pref":"ﾅｶﾞﾉｹﾝ","kana_city":"ﾅｶﾞﾉｼ","kana_address":"ｶﾜﾅｶｼﾞﾏﾏﾁｲﾏｲﾊﾗ","pref":"長野県","city":"長野市","address":"川中島町今井原"},
{"zip_code":"3812234","kana_pref":"ﾅｶﾞﾉｹﾝ","kana_city":"ﾅｶﾞﾉｼ","kana_address":"ｶﾜﾅｶｼﾞﾏﾏﾁｲﾏｻﾞﾄ","pref":"長野県","city":"長野市","address":"川中島町今里"},
{"zip_code":"3812233","kana_pref":"ﾅｶﾞﾉｹﾝ","kana_city":"ﾅｶﾞﾉｼ","kana_address":"ｶﾜﾅｶｼﾞﾏﾏﾁｶﾐﾋｶﾞﾉ","pref":"長野県","city":"長野市","address":"川中島町上氷鉋"},
{"zip_code":"3812224","kana_pref":"ﾅｶﾞﾉｹﾝ","kana_city":"ﾅｶﾞﾉｼ","kana_address":"ｶﾜﾅｶｼﾞﾏﾏﾁﾊﾗ","pref":"長野県","city":"長野市","address":"川中島町原"},
{"zip_code":"3812221","kana_pref":"ﾅｶﾞﾉｹﾝ","kana_city":"ﾅｶﾞﾉｼ","kana_address":"ｶﾜﾅｶｼﾞﾏﾏﾁﾐｸﾘﾔ","pref":"長野県","city":"長野市","address":"川中島町御厨"},
{"zip_code":"3812231","kana_pref":"ﾅｶﾞﾉｹﾝ","kana_city":"ﾅｶﾞﾉｼ","kana_address":"ｶﾜﾅｶｼﾞﾏﾏﾁﾖﾂﾔ","pref":"長野県","city":"長野市","address":"川中島町四ツ屋"},
{"zip_code":"3810014","kana_pref":"ﾅｶﾞﾉｹﾝ","kana_city":"ﾅｶﾞﾉｼ","kana_address":"ｷﾀｵﾜﾘﾍﾞ","pref":"長野県","city":"長野市","address":"北尾張部"},
{"zip_code":"3810075","kana_pref":"ﾅｶﾞﾉｹﾝ","kana_city":"ﾅｶﾞﾉｼ","kana_address":"ｷﾀｺﾞｳ","pref":"長野県","city":"長野市","address":"北郷"},
{"zip_code":"3810035","kana_pref":"ﾅｶﾞﾉｹﾝ","kana_city":"ﾅｶﾞﾉｼ","kana_address":"ｷﾀｼﾞｮｳﾏﾁ","pref":"長野県","city":"長野市","address":"北条町"},
{"zip_code":"3810025","kana_pref":"ﾅｶﾞﾉｹﾝ","kana_city":"ﾅｶﾞﾉｼ","kana_address":"ｷﾀﾅｶﾞｲｹ","pref":"長野県","city":"長野市","address":"北長池"},
{"zip_code":"3810005","kana_pref":"ﾅｶﾞﾉｹﾝ","kana_city":"ﾅｶﾞﾉｼ","kana_address":"ｷﾀﾎﾘ","pref":"長野県","city":"長野市","address":"北堀"},
{"zip_code":"3814301","kana_pref":"ﾅｶﾞﾉｹﾝ","kana_city":"ﾅｶﾞﾉｼ","kana_address":"ｷﾅｻ","pref":"長野県","city":"長野市","address":"鬼無里"},
{"zip_code":"3814303","kana_pref":"ﾅｶﾞﾉｹﾝ","kana_city":"ﾅｶﾞﾉｼ","kana_address":"ｷﾅｻｸｻｶﾞﾉ","pref":"長野県","city":"長野市","address":"鬼無里日下野"},
{"zip_code":"3814302","kana_pref":"ﾅｶﾞﾉｹﾝ","kana_city":"ﾅｶﾞﾉｼ","kana_address":"ｷﾅｻﾋｶｹﾞ","pref":"長野県","city":"長野市","address":"鬼無里日影"},
{"zip_code":"3810045","kana_pref":"ﾅｶﾞﾉｹﾝ","kana_city":"ﾅｶﾞﾉｼ","kana_address":"ｷﾘﾊﾗ","pref":"長野県","city":"長野市","address":"桐原"},
{"zip_code":"3810017","kana_pref":"ﾅｶﾞﾉｹﾝ","kana_city":"ﾅｶﾞﾉｼ","kana_address":"ｺｼﾞﾏ","pref":"長野県","city":"長野市","address":"小島"},
{"zip_code":"3810061","kana_pref":"ﾅｶﾞﾉｹﾝ","kana_city":"ﾅｶﾞﾉｼ","kana_address":"ｻｶﾅｶ","pref":"長野県","city":"長野市","address":"坂中"},
{"zip_code":"3810013","kana_pref":"ﾅｶﾞﾉｹﾝ","kana_city":"ﾅｶﾞﾉｼ","kana_address":"ｻｸﾗｼﾝﾏﾁ","pref":"長野県","city":"長野市","address":"桜新町"},
{"zip_code":"3812223","kana_pref":"ﾅｶﾞﾉｹﾝ","kana_city":"ﾅｶﾞﾉｼ","kana_address":"ｻﾄｼﾞﾏ","pref":"長野県","city":"長野市","address":"里島"},
{"zip_code":"3810081","kana_pref":"ﾅｶﾞﾉｹﾝ","kana_city":"ﾅｶﾞﾉｼ","kana_address":"ｻﾝｻｲ","pref":"長野県","city":"長野市","address":"三才"},
{"zip_code":"3812244","kana_pref":"ﾅｶﾞﾉｹﾝ","kana_city":"ﾅｶﾞﾉｼ","kana_address":"ｻﾝﾎﾞﾝﾔﾅｷﾞﾆｼ","pref":"長野県","city":"長野市","address":"三本柳西"},
{"zip_code":"3812245","kana_pref":"ﾅｶﾞﾉｹﾝ","kana_city":"ﾅｶﾞﾉｼ","kana_address":"ｻﾝﾎﾞﾝﾔﾅｷﾞﾋｶﾞｼ","pref":"長野県","city":"長野市","address":"三本柳東"},
{"zip_code":"3812225","kana_pref":"ﾅｶﾞﾉｹﾝ","kana_city":"ﾅｶﾞﾉｼ","kana_address":"ｼﾉﾉｲｵｶﾀﾞ","pref":"長野県","city":"長野市","address":"篠ノ井岡田"},
{"zip_code":"3812235","kana_pref":"ﾅｶﾞﾉｹﾝ","kana_city":"ﾅｶﾞﾉｼ","kana_address":"ｼﾉﾉｲｺﾏﾂﾊﾞﾗ","pref":"長野県","city":"長野市","address":"篠ノ井小松原"},
{"zip_code":"3810008","kana_pref":"ﾅｶﾞﾉｹﾝ","kana_city":"ﾅｶﾞﾉｼ","kana_address":"ｼﾓｺﾏｻﾞﾜ","pref":"長野県","city":"長野市","address":"下駒沢"},
{"zip_code":"3812216","kana_pref":"ﾅｶﾞﾉｹﾝ","kana_city":"ﾅｶﾞﾉｼ","kana_address":"ｼﾓﾋｶﾞﾉ","pref":"長野県","city":"長野市","address":"下氷鉋"},
{"zip_code":"3810063","kana_pref":"ﾅｶﾞﾉｹﾝ","kana_city":"ﾅｶﾞﾉｼ","kana_address":"ｼｬﾘ","pref":"長野県","city":"長野市","address":"伺去"},
{"zip_code":"3810065","kana_pref":"ﾅｶﾞﾉｹﾝ","kana_city":"ﾅｶﾞﾉｼ","kana_address":"ｼﾝｺｳｼﾞ","pref":"長野県","city":"長野市","address":"真光寺"},
{"zip_code":"3812352","kana_pref":"ﾅｶﾞﾉｹﾝ","kana_city":"ﾅｶﾞﾉｼ","kana_address":"ｼﾝｺｳﾏﾁｱｶﾀﾞ","pref":"長野県","city":"長野市","address":"信更町赤田"},
{"zip_code":"3812344","kana_pref":"ﾅｶﾞﾉｹﾝ","kana_city":"ﾅｶﾞﾉｼ","kana_address":"ｼﾝｺｳﾏﾁｱｹﾞｵ","pref":"長野県","city":"長野市","address":"信更町上尾"},
{"zip_code":"3812358","kana_pref":"ﾅｶﾞﾉｹﾝ","kana_city":"ﾅｶﾞﾉｼ","kana_address":"ｼﾝｺｳﾏﾁｲﾏｲｽﾞﾐ","pref":"長野県","city":"長野市","address":"信更町今泉"},
{"zip_code":"3812343","kana_pref":"ﾅｶﾞﾉｹﾝ","kana_city":"ﾅｶﾞﾉｼ","kana_address":"ｼﾝｺｳﾏﾁｻｸﾗｲ","pref":"長野県","city":"長野市","address":"信更町桜井"},
{"zip_code":"3812359","kana_pref":"ﾅｶﾞﾉｹﾝ","kana_city":"ﾅｶﾞﾉｼ","kana_address":"ｼﾝｺｳﾏﾁｻﾐｽﾞ","pref":"長野県","city":"長野市","address":"信更町三水"},
{"zip_code":"3812341","kana_pref":"ﾅｶﾞﾉｹﾝ","kana_city":"ﾅｶﾞﾉｼ","kana_address":"ｼﾝｺｳﾏﾁｼﾓﾀﾞｲﾗ","pref":"長野県","city":"長野市","address":"信更町下平"},
{"zip_code":"3812355","kana_pref":"ﾅｶﾞﾉｹﾝ","kana_city":"ﾅｶﾞﾉｼ","kana_address":"ｼﾝｺｳﾏﾁﾀｶﾉ","pref":"長野県","city":"長野市","address":"信更町高野"},
{"zip_code":"3812354","kana_pref":"ﾅｶﾞﾉｹﾝ","kana_city":"ﾅｶﾞﾉｼ","kana_address":"ｼﾝｺｳﾏﾁﾀｻﾞﾜ","pref":"長野県","city":"長野市","address":"信更町田沢"},
{"zip_code":"3812353","kana_pref":"ﾅｶﾞﾉｹﾝ","kana_city":"ﾅｶﾞﾉｼ","kana_address":"ｼﾝｺｳﾏﾁﾀﾉｸﾁ","pref":"長野県","city":"長野市","address":"信更町田野口"},
{"zip_code":"3812357","kana_pref":"ﾅｶﾞﾉｹﾝ","kana_city":"ﾅｶﾞﾉｼ","kana_address":"ｼﾝｺｳﾏﾁﾊｲﾊﾞﾗ","pref":"長野県","city":"長野市","address":"信更町灰原"},
{"zip_code":"3812351","kana_pref":"ﾅｶﾞﾉｹﾝ","kana_city":"ﾅｶﾞﾉｼ","kana_address":"ｼﾝｺｳﾏﾁﾋﾉﾀ","pref":"長野県","city":"長野市","address":"信更町氷ノ田"},
{"zip_code":"3812347","kana_pref":"ﾅｶﾞﾉｹﾝ","kana_city":"ﾅｶﾞﾉｼ","kana_address":"ｼﾝｺｳﾏﾁﾌﾙﾌｼﾞ","pref":"長野県","city":"長野市","address":"信更町古藤"},
{"zip_code":"3812342","kana_pref":"ﾅｶﾞﾉｹﾝ","kana_city":"ﾅｶﾞﾉｼ","kana_address":"ｼﾝｺｳﾏﾁﾐﾔﾀﾞｲﾗ","pref":"長野県","city":"長野市","address":"信更町宮平"},
{"zip_code":"3812346","kana_pref":"ﾅｶﾞﾉｹﾝ","kana_city":"ﾅｶﾞﾉｼ","kana_address":"ｼﾝｺｳﾏﾁﾔｽﾆﾜ","pref":"長野県","city":"長野市","address":"信更町安庭"},
{"zip_code":"3812356","kana_pref":"ﾅｶﾞﾉｹﾝ","kana_city":"ﾅｶﾞﾉｼ","kana_address":"ｼﾝｺｳﾏﾁﾖｼﾜﾗ","pref":"長野県","city":"長野市","address":"信更町吉原"},
{"zip_code":"3812345","kana_pref":"ﾅｶﾞﾉｹﾝ","kana_city":"ﾅｶﾞﾉｼ","kana_address":"ｼﾝｺｳﾏﾁﾜｸｲｹ","pref":"長野県","city":"長野市","address":"信更町涌池"},
{"zip_code":"3812404","kana_pref":"ﾅｶﾞﾉｹﾝ","kana_city":"ﾅｶﾞﾉｼ","kana_address":"ｼﾝｼｭｳｼﾝﾏﾁｶﾐｼﾞｮｳ","pref":"長野県","city":"長野市","address":"信州新町上条"},
{"zip_code":"3812401","kana_pref":"ﾅｶﾞﾉｹﾝ","kana_city":"ﾅｶﾞﾉｼ","kana_address":"ｼﾝｼｭｳｼﾝﾏﾁｺｴﾄﾞｳ","pref":"長野県","city":"長野市","address":"信州新町越道"},
{"zip_code":"3812406","kana_pref":"ﾅｶﾞﾉｹﾝ","kana_city":"ﾅｶﾞﾉｼ","kana_address":"ｼﾝｼｭｳｼﾝﾏﾁｻﾄﾎｶﾘ","pref":"長野県","city":"長野市","address":"信州新町里穂刈"},
{"zip_code":"3812413","kana_pref":"ﾅｶﾞﾉｹﾝ","kana_city":"ﾅｶﾞﾉｼ","kana_address":"ｼﾝｼｭｳｼﾝﾏﾁｼﾓｲﾁﾊﾞ","pref":"長野県","city":"長野市","address":"信州新町下市場"},
{"zip_code":"3812405","kana_pref":"ﾅｶﾞﾉｹﾝ","kana_city":"ﾅｶﾞﾉｼ","kana_address":"ｼﾝｼｭｳｼﾝﾏﾁｼﾝﾏﾁ","pref":"長野県","city":"長野市","address":"信州新町新町"},
{"zip_code":"3812424","kana_pref":"ﾅｶﾞﾉｹﾝ","kana_city":"ﾅｶﾞﾉｼ","kana_address":"ｼﾝｼｭｳｼﾝﾏﾁｿｳ","pref":"長野県","city":"長野市","address":"信州新町左右"},
{"zip_code":"3812411","kana_pref":"ﾅｶﾞﾉｹﾝ","kana_city":"ﾅｶﾞﾉｼ","kana_address":"ｼﾝｼｭｳｼﾝﾏﾁﾀｹﾌﾞｻ","pref":"長野県","city":"長野市","address":"信州新町竹房"},
{"zip_code":"3812415","kana_pref":"ﾅｶﾞﾉｹﾝ","kana_city":"ﾅｶﾞﾉｼ","kana_address":"ｼﾝｼｭｳｼﾝﾏﾁﾅｶﾏｷ","pref":"長野県","city":"長野市","address":"信州新町中牧"},
{"zip_code":"3812421","kana_pref":"ﾅｶﾞﾉｹﾝ","kana_city":"ﾅｶﾞﾉｼ","kana_address":"ｼﾝｼｭｳｼﾝﾏﾁﾉﾌﾞｼﾅ","pref":"長野県","city":"長野市","address":"信州新町信級"},
{"zip_code":"3812423","kana_pref":"ﾅｶﾞﾉｹﾝ","kana_city":"ﾅｶﾞﾉｼ","kana_address":"ｼﾝｼｭｳｼﾝﾏﾁﾋﾊﾗﾆｼ","pref":"長野県","city":"長野市","address":"信州新町日原西"},
{"zip_code":"3812422","kana_pref":"ﾅｶﾞﾉｹﾝ","kana_city":"ﾅｶﾞﾉｼ","kana_address":"ｼﾝｼｭｳｼﾝﾏﾁﾋﾊﾗﾋｶﾞｼ","pref":"長野県","city":"長野市","address":"信州新町日原東"},
{"zip_code":"3812416","kana_pref":"ﾅｶﾞﾉｹﾝ","kana_city":"ﾅｶﾞﾉｼ","kana_address":"ｼﾝｼｭｳｼﾝﾏﾁﾋﾛｻｷ","pref":"長野県","city":"長野市","address":"信州新町弘崎"},
{"zip_code":"3812414","kana_pref":"ﾅｶﾞﾉｹﾝ","kana_city":"ﾅｶﾞﾉｼ","kana_address":"ｼﾝｼｭｳｼﾝﾏﾁﾏｷﾀﾞﾅｶ","pref":"長野県","city":"長野市","address":"信州新町牧田中"},
{"zip_code":"3812412","kana_pref":"ﾅｶﾞﾉｹﾝ","kana_city":"ﾅｶﾞﾉｼ","kana_address":"ｼﾝｼｭｳｼﾝﾏﾁﾏｷﾉｼﾏ","pref":"長野県","city":"長野市","address":"信州新町牧野島"},
{"zip_code":"3812403","kana_pref":"ﾅｶﾞﾉｹﾝ","kana_city":"ﾅｶﾞﾉｼ","kana_address":"ｼﾝｼｭｳｼﾝﾏﾁﾐﾉﾁ","pref":"長野県","city":"長野市","address":"信州新町水内"},
{"zip_code":"3812402","kana_pref":"ﾅｶﾞﾉｹﾝ","kana_city":"ﾅｶﾞﾉｼ","kana_address":"ｼﾝｼｭｳｼﾝﾏﾁﾔﾏｶﾐｼﾞｮｳ","pref":"長野県","city":"長野市","address":"信州新町山上条"},
{"zip_code":"3812407","kana_pref":"ﾅｶﾞﾉｹﾝ","kana_city":"ﾅｶﾞﾉｼ","kana_address":"ｼﾝｼｭｳｼﾝﾏﾁﾔﾏﾎｶﾘ","pref":"長野県","city":"長野市","address":"信州新町山穂刈"},
{"zip_code":"3810071","kana_pref":"ﾅｶﾞﾉｹﾝ","kana_city":"ﾅｶﾞﾉｼ","kana_address":"ﾀﾞｲｶﾞｸﾎﾞ","pref":"長野県","city":"長野市","address":"台ケ窪"},
{"zip_code":"3810034","kana_pref":"ﾅｶﾞﾉｹﾝ","kana_city":"ﾅｶﾞﾉｼ","kana_address":"ﾀｶﾀﾞ","pref":"長野県","city":"長野市","address":"高田"},
{"zip_code":"3810087","kana_pref":"ﾅｶﾞﾉｹﾝ","kana_city":"ﾅｶﾞﾉｼ","kana_address":"ﾀｺ","pref":"長野県","city":"長野市","address":"田子"},
{"zip_code":"3810086","kana_pref":"ﾅｶﾞﾉｹﾝ","kana_city":"ﾅｶﾞﾉｼ","kana_address":"ﾀﾅｶ","pref":"長野県","city":"長野市","address":"田中"},
{"zip_code":"3812246","kana_pref":"ﾅｶﾞﾉｹﾝ","kana_city":"ﾅｶﾞﾉｼ","kana_address":"ﾀﾝﾊﾞｼﾞﾏ","pref":"長野県","city":"長野市","address":"丹波島"},
{"zip_code":"3810002","kana_pref":"ﾅｶﾞﾉｹﾝ","kana_city":"ﾅｶﾞﾉｼ","kana_address":"ﾂﾉ","pref":"長野県","city":"長野市","address":"津野"},
{"zip_code":"3814101","kana_pref":"ﾅｶﾞﾉｹﾝ","kana_city":"ﾅｶﾞﾉｼ","kana_address":"ﾄｶﾞｸｼ","pref":"長野県","city":"長野市","address":"戸隠"},
{"zip_code":"3814103","kana_pref":"ﾅｶﾞﾉｹﾝ","kana_city":"ﾅｶﾞﾉｼ","kana_address":"ﾄｶﾞｸｼｿﾔﾏ","pref":"長野県","city":"長野市","address":"戸隠祖山"},
{"zip_code":"3814104","kana_pref":"ﾅｶﾞﾉｹﾝ","kana_city":"ﾅｶﾞﾉｼ","kana_address":"ﾄｶﾞｸｼﾄﾁﾜﾗ","pref":"長野県","city":"長野市","address":"戸隠栃原"},
{"zip_code":"3814102","kana_pref":"ﾅｶﾞﾉｹﾝ","kana_city":"ﾅｶﾞﾉｼ","kana_address":"ﾄｶﾞｸｼﾄﾖｵｶ","pref":"長野県","city":"長野市","address":"戸隠豊岡"},
{"zip_code":"3810041","kana_pref":"ﾅｶﾞﾉｹﾝ","kana_city":"ﾅｶﾞﾉｼ","kana_address":"ﾄｸﾏ","pref":"長野県","city":"長野市","address":"徳間"},
{"zip_code":"3810006","kana_pref":"ﾅｶﾞﾉｹﾝ","kana_city":"ﾅｶﾞﾉｼ","kana_address":"ﾄﾐﾀｹ","pref":"長野県","city":"長野市","address":"富竹"},
{"zip_code":"3810044","kana_pref":"ﾅｶﾞﾉｹﾝ","kana_city":"ﾅｶﾞﾉｼ","kana_address":"ﾅｶｺﾞｴ","pref":"長野県","city":"長野市","address":"中越"},
{"zip_code":"3813203","kana_pref":"ﾅｶﾞﾉｹﾝ","kana_city":"ﾅｶﾞﾉｼ","kana_address":"ﾅｶｼﾞｮｳ","pref":"長野県","city":"長野市","address":"中条"},
{"zip_code":"3813202","kana_pref":"ﾅｶﾞﾉｹﾝ","kana_city":"ﾅｶﾞﾉｼ","kana_address":"ﾅｶｼﾞｮｳｸｻｶﾞﾉ","pref":"長野県","city":"長野市","address":"中条日下野"},
{"zip_code":"3813205","kana_pref":"ﾅｶﾞﾉｹﾝ","kana_city":"ﾅｶﾞﾉｼ","kana_address":"ﾅｶｼﾞｮｳｽﾒﾗｷﾞ","pref":"長野県","city":"長野市","address":"中条住良木"},
{"zip_code":"3813201","kana_pref":"ﾅｶﾞﾉｹﾝ","kana_city":"ﾅｶﾞﾉｼ","kana_address":"ﾅｶｼﾞｮｳﾋﾀﾞｶ","pref":"長野県","city":"長野市","address":"中条日高"},
{"zip_code":"3813204","kana_pref":"ﾅｶﾞﾉｹﾝ","kana_city":"ﾅｶﾞﾉｼ","kana_address":"ﾅｶｼﾞｮｳﾐﾔﾏｻ","pref":"長野県","city":"長野市","address":"中条御山里"},
{"zip_code":"3810074","kana_pref":"ﾅｶﾞﾉｹﾝ","kana_city":"ﾅｶﾞﾉｼ","kana_address":"ﾅｶｿﾞﾈ","pref":"長野県","city":"長野市","address":"中曽根"},
{"zip_code":"3813164","kana_pref":"ﾅｶﾞﾉｹﾝ","kana_city":"ﾅｶﾞﾉｼ","kana_address":"ﾅﾆｱｲｵﾂ","pref":"長野県","city":"長野市","address":"七二会乙"},
{"zip_code":"3813163","kana_pref":"ﾅｶﾞﾉｹﾝ","kana_city":"ﾅｶﾞﾉｼ","kana_address":"ﾅﾆｱｲｷ","pref":"長野県","city":"長野市","address":"七二会己"},
{"zip_code":"3813165","kana_pref":"ﾅｶﾞﾉｹﾝ","kana_city":"ﾅｶﾞﾉｼ","kana_address":"ﾅﾆｱｲｺｳ","pref":"長野県","city":"長野市","address":"七二会甲"},
{"zip_code":"3813161","kana_pref":"ﾅｶﾞﾉｹﾝ","kana_city":"ﾅｶﾞﾉｼ","kana_address":"ﾅﾆｱｲﾃｲ","pref":"長野県","city":"長野市","address":"七二会丁"},
{"zip_code":"3813166","kana_pref":"ﾅｶﾞﾉｹﾝ","kana_city":"ﾅｶﾞﾉｼ","kana_address":"ﾅﾆｱｲﾍｲ","pref":"長野県","city":"長野市","address":"七二会丙"},
{"zip_code":"3813162","kana_pref":"ﾅｶﾞﾉｹﾝ","kana_city":"ﾅｶﾞﾉｼ","kana_address":"ﾅﾆｱｲﾎﾞ","pref":"長野県","city":"長野市","address":"七二会戊"},
{"zip_code":"3810031","kana_pref":"ﾅｶﾞﾉｹﾝ","kana_city":"ﾅｶﾞﾉｼ","kana_address":"ﾆｼｵﾜﾘﾍﾞ","pref":"長野県","city":"長野市","address":"西尾張部"},
{"zip_code":"3810083","kana_pref":"ﾅｶﾞﾉｹﾝ","kana_city":"ﾅｶﾞﾉｼ","kana_address":"ﾆｼｻﾝｻｲ","pref":"長野県","city":"長野市","address":"西三才"},
{"zip_code":"3810037","kana_pref":"ﾅｶﾞﾉｹﾝ","kana_city":"ﾅｶﾞﾉｼ","kana_address":"ﾆｼﾜﾀﾞ","pref":"長野県","city":"長野市","address":"西和田"},
{"zip_code":"3810038","kana_pref":"ﾅｶﾞﾉｹﾝ","kana_city":"ﾅｶﾞﾉｼ","kana_address":"ﾋｶﾞｼﾜﾀﾞ","pref":"長野県","city":"長野市","address":"東和田"},
{"zip_code":"3810036","kana_pref":"ﾅｶﾞﾉｹﾝ","kana_city":"ﾅｶﾞﾉｼ","kana_address":"ﾋﾗﾊﾞﾔｼ","pref":"長野県","city":"長野市","address":"平林"},
{"zip_code":"3812213","kana_pref":"ﾅｶﾞﾉｹﾝ","kana_city":"ﾅｶﾞﾉｼ","kana_address":"ﾋﾛﾀ","pref":"長野県","city":"長野市","address":"広田"},
{"zip_code":"3810003","kana_pref":"ﾅｶﾞﾉｹﾝ","kana_city":"ﾅｶﾞﾉｼ","kana_address":"ﾎﾔｽ","pref":"長野県","city":"長野市","address":"穂保"},
{"zip_code":"3812203","kana_pref":"ﾅｶﾞﾉｹﾝ","kana_city":"ﾅｶﾞﾉｼ","kana_address":"ﾏｼﾏﾏﾁｶﾜｲ","pref":"長野県","city":"長野市","address":"真島町川合"},
{"zip_code":"3812204","kana_pref":"ﾅｶﾞﾉｹﾝ","kana_city":"ﾅｶﾞﾉｼ","kana_address":"ﾏｼﾏﾏﾁﾏｼﾏ","pref":"長野県","city":"長野市","address":"真島町真島"},
{"zip_code":"3810026","kana_pref":"ﾅｶﾞﾉｹﾝ","kana_city":"ﾅｶﾞﾉｼ","kana_address":"ﾏﾂｵｶ","pref":"長野県","city":"長野市","address":"松岡"},
{"zip_code":"3811226","kana_pref":"ﾅｶﾞﾉｹﾝ","kana_city":"ﾅｶﾞﾉｼ","kana_address":"ﾏﾂｼﾛｵﾝｾﾝ","pref":"長野県","city":"長野市","address":"松代温泉"},
{"zip_code":"3811234","kana_pref":"ﾅｶﾞﾉｹﾝ","kana_city":"ﾅｶﾞﾉｼ","kana_address":"ﾏﾂｼﾛﾏﾁｲﾜﾉ","pref":"長野県","city":"長野市","address":"松代町岩野"},
{"zip_code":"3811211","kana_pref":"ﾅｶﾞﾉｹﾝ","kana_city":"ﾅｶﾞﾉｼ","kana_address":"ﾏﾂｼﾛﾏﾁｵｵﾑﾛ","pref":"長野県","city":"長野市","address":"松代町大室"},
{"zip_code":"3811213","kana_pref":"ﾅｶﾞﾉｹﾝ","kana_city":"ﾅｶﾞﾉｼ","kana_address":"ﾏﾂｼﾛﾏﾁｵｼﾏﾀﾞ","pref":"長野県","city":"長野市","address":"松代町小島田"},
{"zip_code":"3811233","kana_pref":"ﾅｶﾞﾉｹﾝ","kana_city":"ﾅｶﾞﾉｼ","kana_address":"ﾏﾂｼﾛﾏﾁｷﾖﾉ","pref":"長野県","city":"長野市","address":"松代町清野"},
{"zip_code":"3811214","kana_pref":"ﾅｶﾞﾉｹﾝ","kana_city":"ﾅｶﾞﾉｼ","kana_address":"ﾏﾂｼﾛﾏﾁｼﾊﾞ","pref":"長野県","city":"長野市","address":"松代町柴"},
{"zip_code":"3811224","kana_pref":"ﾅｶﾞﾉｹﾝ","kana_city":"ﾅｶﾞﾉｼ","kana_address":"ﾏﾂｼﾛﾏﾁｼﾞｮｳﾄｳ","pref":"長野県","city":"長野市","address":"松代町城東"},
{"zip_code":"3811235","kana_pref":"ﾅｶﾞﾉｹﾝ","kana_city":"ﾅｶﾞﾉｼ","kana_address":"ﾏﾂｼﾛﾏﾁｼﾞｮｳﾎｸ","pref":"長野県","city":"長野市","address":"松代町城北"},
{"zip_code":"3811222","kana_pref":"ﾅｶﾞﾉｹﾝ","kana_city":"ﾅｶﾞﾉｼ","kana_address":"ﾏﾂｼﾛﾏﾁﾄﾖｻｶ","pref":"長野県","city":"長野市","address":"松代町豊栄"},
{"zip_code":"3811232","kana_pref":"ﾅｶﾞﾉｹﾝ","kana_city":"ﾅｶﾞﾉｼ","kana_address":"ﾏﾂｼﾛﾏﾁﾆｼｼﾞｮｳ","pref":"長野県","city":"長野市","address":"松代町西条"},
{"zip_code":"3811215","kana_pref":"ﾅｶﾞﾉｹﾝ","kana_city":"ﾅｶﾞﾉｼ","kana_address":"ﾏﾂｼﾛﾏﾁﾆｼﾃﾗｵ","pref":"長野県","city":"長野市","address":"松代町西寺尾"},
{"zip_code":"3811221","kana_pref":"ﾅｶﾞﾉｹﾝ","kana_city":"ﾅｶﾞﾉｼ","kana_address":"ﾏﾂｼﾛﾏﾁﾋｶﾞｼｼﾞｮｳ","pref":"長野県","city":"長野市","address":"松代町東条"},
{"zip_code":"3811225","kana_pref":"ﾅｶﾞﾉｹﾝ","kana_city":"ﾅｶﾞﾉｼ","kana_address":"ﾏﾂｼﾛﾏﾁﾋｶﾞｼﾃﾗｵ","pref":"長野県","city":"長野市","address":"松代町東寺尾"},
{"zip_code":"3811212","kana_pref":"ﾅｶﾞﾉｹﾝ","kana_city":"ﾅｶﾞﾉｼ","kana_address":"ﾏﾂｼﾛﾏﾁﾏｷｼﾏ","pref":"長野県","city":"長野市","address":"松代町牧島"},
{"zip_code":"3811231","kana_pref":"ﾅｶﾞﾉｹﾝ","kana_city":"ﾅｶﾞﾉｼ","kana_address":"ﾏﾂｼﾛﾏﾁﾏﾂｼﾛ","pref":"長野県","city":"長野市","address":"松代町松代"},
{"zip_code":"3810022","kana_pref":"ﾅｶﾞﾉｹﾝ","kana_city":"ﾅｶﾞﾉｼ","kana_address":"ﾏﾒｼﾞﾏ","pref":"長野県","city":"長野市","address":"大豆島"},
{"zip_code":"3810052","kana_pref":"ﾅｶﾞﾉｹﾝ","kana_city":"ﾅｶﾞﾉｼ","kana_address":"ﾏﾕﾐﾀﾞ","pref":"長野県","city":"長野市","address":"檀田"},
{"zip_code":"3810076","kana_pref":"ﾅｶﾞﾉｹﾝ","kana_city":"ﾅｶﾞﾉｼ","kana_address":"ﾐﾂﾃﾞ","pref":"長野県","city":"長野市","address":"三ツ出"},
{"zip_code":"3811223","kana_pref":"ﾅｶﾞﾉｹﾝ","kana_city":"ﾅｶﾞﾉｼ","kana_address":"ﾐﾅｶﾐﾀﾞｲ","pref":"長野県","city":"長野市","address":"皆神台"},
{"zip_code":"3810033","kana_pref":"ﾅｶﾞﾉｹﾝ","kana_city":"ﾅｶﾞﾉｼ","kana_address":"ﾐﾅﾐﾀｶﾀﾞ","pref":"長野県","city":"長野市","address":"南高田"},
{"zip_code":"3810024","kana_pref":"ﾅｶﾞﾉｹﾝ","kana_city":"ﾅｶﾞﾉｼ","kana_address":"ﾐﾅﾐﾅｶﾞｲｹ","pref":"長野県","city":"長野市","address":"南長池"},
{"zip_code":"3810016","kana_pref":"ﾅｶﾞﾉｹﾝ","kana_city":"ﾅｶﾞﾉｼ","kana_address":"ﾐﾅﾐﾎﾘ","pref":"長野県","city":"長野市","address":"南堀"},
{"zip_code":"3810011","kana_pref":"ﾅｶﾞﾉｹﾝ","kana_city":"ﾅｶﾞﾉｼ","kana_address":"ﾑﾗﾔﾏ","pref":"長野県","city":"長野市","address":"村山"},
{"zip_code":"3810055","kana_pref":"ﾅｶﾞﾉｹﾝ","kana_city":"ﾅｶﾞﾉｼ","kana_address":"ﾔｼｷﾀﾞ","pref":"長野県","city":"長野市","address":"屋敷田"},
{"zip_code":"3810021","kana_pref":"ﾅｶﾞﾉｹﾝ","kana_city":"ﾅｶﾞﾉｼ","kana_address":"ﾔｼﾏ","pref":"長野県","city":"長野市","address":"屋島"},
{"zip_code":"3810012","kana_pref":"ﾅｶﾞﾉｹﾝ","kana_city":"ﾅｶﾞﾉｼ","kana_address":"ﾔﾅｷﾞﾊﾗ","pref":"長野県","city":"長野市","address":"柳原"},
{"zip_code":"3810088","kana_pref":"ﾅｶﾞﾉｹﾝ","kana_city":"ﾅｶﾞﾉｼ","kana_address":"ﾖｼ","pref":"長野県","city":"長野市","address":"吉"},
{"zip_code":"3810043","kana_pref":"ﾅｶﾞﾉｹﾝ","kana_city":"ﾅｶﾞﾉｼ","kana_address":"ﾖｼﾀﾞ","pref":"長野県","city":"長野市","address":"吉田"},
{"zip_code":"3810084","kana_pref":"ﾅｶﾞﾉｹﾝ","kana_city":"ﾅｶﾞﾉｼ","kana_address":"ﾜｶﾂｷﾋｶﾞｼｼﾞｮｳ","pref":"長野県","city":"長野市","address":"若槻東条"},
{"zip_code":"3810051","kana_pref":"ﾅｶﾞﾉｹﾝ","kana_city":"ﾅｶﾞﾉｼ","kana_address":"ﾜｶﾂｷﾀﾞﾝﾁ","pref":"長野県","city":"長野市","address":"若槻団地"},
{"zip_code":"3810089","kana_pref":"ﾅｶﾞﾉｹﾝ","kana_city":"ﾅｶﾞﾉｼ","kana_address":"ﾜｶﾂｷﾆｼｼﾞｮｳ","pref":"長野県","city":"長野市","address":"若槻西条"},
{"zip_code":"3810103","kana_pref":"ﾅｶﾞﾉｹﾝ","kana_city":"ﾅｶﾞﾉｼ","kana_address":"ﾜｶﾎｶﾜﾀﾞ","pref":"長野県","city":"長野市","address":"若穂川田"},
{"zip_code":"3810102","kana_pref":"ﾅｶﾞﾉｹﾝ","kana_city":"ﾅｶﾞﾉｼ","kana_address":"ﾜｶﾎﾎｼﾅ","pref":"長野県","city":"長野市","address":"若穂保科"},
{"zip_code":"3810101","kana_pref":"ﾅｶﾞﾉｹﾝ","kana_city":"ﾅｶﾞﾉｼ","kana_address":"ﾜｶﾎﾜﾀｳﾁ","pref":"長野県","city":"長野市","address":"若穂綿内"},
{"zip_code":"3812201","kana_pref":"ﾅｶﾞﾉｹﾝ","kana_city":"ﾅｶﾞﾉｼ","kana_address":"ﾜｶﾎｳｼｼﾞﾏ","pref":"長野県","city":"長野市","address":"若穂牛島"},
{"zip_code":"3810104","kana_pref":"ﾅｶﾞﾉｹﾝ","kana_city":"ﾅｶﾞﾉｼ","kana_address":"ﾜｶﾎｳｼｼﾞﾏ","pref":"長野県","city":"長野市","address":"若穂牛島"},
{"zip_code":"3810032","kana_pref":"ﾅｶﾞﾉｹﾝ","kana_city":"ﾅｶﾞﾉｼ","kana_address":"ﾜｶﾐﾔ","pref":"長野県","city":"長野市","address":"若宮"},
{"zip_code":"3810200","kana_pref":"ﾅｶﾞﾉｹﾝ","kana_city":"ｶﾐﾀｶｲｸﾞﾝｵﾌﾞｾﾏﾁ","kana_address":"","pref":"長野県","city":"上高井郡小布施町","address":""},
{"zip_code":"3810204","kana_pref":"ﾅｶﾞﾉｹﾝ","kana_city":"ｶﾐﾀｶｲｸﾞﾝｵﾌﾞｾﾏﾁ","kana_address":"ｲｲﾀﾞ","pref":"長野県","city":"上高井郡小布施町","address":"飯田"},
{"zip_code":"3810203","kana_pref":"ﾅｶﾞﾉｹﾝ","kana_city":"ｶﾐﾀｶｲｸﾞﾝｵﾌﾞｾﾏﾁ","kana_address":"ｵｵｼﾞﾏ","pref":"長野県","city":"上高井郡小布施町","address":"大島"},
{"zip_code":"3810207","kana_pref":"ﾅｶﾞﾉｹﾝ","kana_city":"ｶﾐﾀｶｲｸﾞﾝｵﾌﾞｾﾏﾁ","kana_address":"ｵｼﾊ","pref":"長野県","city":"上高井郡小布施町","address":"押羽"},
{"zip_code":"3810201","kana_pref":"ﾅｶﾞﾉｹﾝ","kana_city":"ｶﾐﾀｶｲｸﾞﾝｵﾌﾞｾﾏﾁ","kana_address":"ｵﾌﾞｾ","pref":"長野県","city":"上高井郡小布施町","address":"小布施"},
{"zip_code":"3810211","kana_pref":"ﾅｶﾞﾉｹﾝ","kana_city":"ｶﾐﾀｶｲｸﾞﾝｵﾌﾞｾﾏﾁ","kana_address":"ｶﾘﾀﾞ","pref":"長野県","city":"上高井郡小布施町","address":"雁田"},
{"zip_code":"3810206","kana_pref":"ﾅｶﾞﾉｹﾝ","kana_city":"ｶﾐﾀｶｲｸﾞﾝｵﾌﾞｾﾏﾁ","kana_address":"ｷﾀｵｶ","pref":"長野県","city":"上高井郡小布施町","address":"北岡"},
{"zip_code":"3810205","kana_pref":"ﾅｶﾞﾉｹﾝ","kana_city":"ｶﾐﾀｶｲｸﾞﾝｵﾌﾞｾﾏﾁ","kana_address":"ｻﾝﾉｳｼﾞﾏ","pref":"長野県","city":"上高井郡小布施町","address":"山王島"},
{"zip_code":"3810208","kana_pref":"ﾅｶﾞﾉｹﾝ","kana_city":"ｶﾐﾀｶｲｸﾞﾝｵﾌﾞｾﾏﾁ","kana_address":"ﾂｽﾐ","pref":"長野県","city":"上高井郡小布施町","address":"都住"},
{"zip_code":"3810209","kana_pref":"ﾅｶﾞﾉｹﾝ","kana_city":"ｶﾐﾀｶｲｸﾞﾝｵﾌﾞｾﾏﾁ","kana_address":"ﾅｶﾏﾂ","pref":"長野県","city":"上高井郡小布施町","address":"中松"},
{"zip_code":"3810202","kana_pref":"ﾅｶﾞﾉｹﾝ","kana_city":"ｶﾐﾀｶｲｸﾞﾝｵﾌﾞｾﾏﾁ","kana_address":"ﾌｸﾊﾗ","pref":"長野県","city":"上高井郡小布施町","address":"福原"},
{"zip_code":"3810212","kana_pref":"ﾅｶﾞﾉｹﾝ","kana_city":"ｶﾐﾀｶｲｸﾞﾝｵﾌﾞｾﾏﾁ","kana_address":"ﾖｼｼﾞﾏ","pref":"長野県","city":"上高井郡小布施町","address":"吉島"},
{"zip_code":"3810400","kana_pref":"ﾅｶﾞﾉｹﾝ","kana_city":"ｼﾓﾀｶｲｸﾞﾝﾔﾏﾉｳﾁﾏﾁ","kana_address":"","pref":"長野県","city":"下高井郡山ノ内町","address":""},
{"zip_code":"3810402","kana_pref":"ﾅｶﾞﾉｹﾝ","kana_city":"ｼﾓﾀｶｲｸﾞﾝﾔﾏﾉｳﾁﾏﾁ","kana_address":"ｻﾉ","pref":"長野県","city":"下高井郡山ノ内町","address":"佐野"},
{"zip_code":"3810403","kana_pref":"ﾅｶﾞﾉｹﾝ","kana_city":"ｼﾓﾀｶｲｸﾞﾝﾔﾏﾉｳﾁﾏﾁ","kana_address":"ｻﾑｻﾜ","pref":"長野県","city":"下高井郡山ノ内町","address":"寒沢"},
{"zip_code":"3810404","kana_pref":"ﾅｶﾞﾉｹﾝ","kana_city":"ｼﾓﾀｶｲｸﾞﾝﾔﾏﾉｳﾁﾏﾁ","kana_address":"ﾄｶﾞﾘ","pref":"長野県","city":"下高井郡山ノ内町","address":"戸狩"},
{"zip_code":"3810401","kana_pref":"ﾅｶﾞﾉｹﾝ","kana_city":"ｼﾓﾀｶｲｸﾞﾝﾔﾏﾉｳﾁﾏﾁ","kana_address":"ﾋﾗｵ","pref":"長野県","city":"下高井郡山ノ内町","address":"平穏"},
{"zip_code":"3810405","kana_pref":"ﾅｶﾞﾉｹﾝ","kana_city":"ｼﾓﾀｶｲｸﾞﾝﾔﾏﾉｳﾁﾏﾁ","kana_address":"ﾖﾏｾ","pref":"長野県","city":"下高井郡山ノ内町","address":"夜間瀬"},
{"zip_code":"3813300","kana_pref":"ﾅｶﾞﾉｹﾝ","kana_city":"ｶﾐﾐﾉﾁｸﾞﾝｵｶﾞﾜﾑﾗ","kana_address":"","pref":"長野県","city":"上水内郡小川村","address":""},
{"zip_code":"3813301","kana_pref":"ﾅｶﾞﾉｹﾝ","kana_city":"ｶﾐﾐﾉﾁｸﾞﾝｵｶﾞﾜﾑﾗ","kana_address":"ｲﾅｵｶ","pref":"長野県","city":"上水内郡小川村","address":"稲丘"},
{"zip_code":"3813303","kana_pref":"ﾅｶﾞﾉｹﾝ","kana_city":"ｶﾐﾐﾉﾁｸﾞﾝｵｶﾞﾜﾑﾗ","kana_address":"ｵﾈﾔﾏ","pref":"長野県","city":"上水内郡小川村","address":"小根山"},
{"zip_code":"3813304","kana_pref":"ﾅｶﾞﾉｹﾝ","kana_city":"ｶﾐﾐﾉﾁｸﾞﾝｵｶﾞﾜﾑﾗ","kana_address":"ｾﾄｶﾞﾜ","pref":"長野県","city":"上水内郡小川村","address":"瀬戸川"},
{"zip_code":"3813302","kana_pref":"ﾅｶﾞﾉｹﾝ","kana_city":"ｶﾐﾐﾉﾁｸﾞﾝｵｶﾞﾜﾑﾗ","kana_address":"ﾀｶﾌ","pref":"長野県","city":"上水内郡小川村","address":"高府"}]}