{"zip_code":[
{"zip_code":"3820000","kana_pref":"ﾅｶﾞﾉｹﾝ","kana_city":"ｽｻﾞｶｼ","kana_address":"","pref":"長野県","city":"須坂市","address":""},
{"zip_code":"3820065","kana_pref":"ﾅｶﾞﾉｹﾝ","kana_city":"ｽｻﾞｶｼ","kana_address":"ｱｲﾉｼﾏ","pref":"長野県","city":"須坂市","address":"相之島"},
{"zip_code":"3820003","kana_pref":"ﾅｶﾞﾉｹﾝ","kana_city":"ｽｻﾞｶｼ","kana_address":"ｱｻﾋｶﾞｵｶ","pref":"長野県","city":"須坂市","address":"旭ケ丘"},
{"zip_code":"3820045","kana_pref":"ﾅｶﾞﾉｹﾝ","kana_city":"ｽｻﾞｶｼ","kana_address":"ｲﾉｳｴ","pref":"長野県","city":"須坂市","address":"井上"},
{"zip_code":"3820017","kana_pref":"ﾅｶﾞﾉｹﾝ","kana_city":"ｽｻﾞｶｼ","kana_address":"ｵｵﾓﾘﾏﾁ","pref":"長野県","city":"須坂市","address":"相森町"},
{"zip_code":"3820012","kana_pref":"ﾅｶﾞﾉｹﾝ","kana_city":"ｽｻﾞｶｼ","kana_address":"ｵｵﾔﾏﾁ","pref":"長野県","city":"須坂市","address":"大谷町"},
{"zip_code":"3820071","kana_pref":"ﾅｶﾞﾉｹﾝ","kana_city":"ｽｻﾞｶｼ","kana_address":"ｵｶﾞﾜﾗﾁｮｳ","pref":"長野県","city":"須坂市","address":"小河原町"},
{"zip_code":"3820025","kana_pref":"ﾅｶﾞﾉｹﾝ","kana_city":"ｽｻﾞｶｼ","kana_address":"ｵﾋﾞﾅﾀﾏﾁ","pref":"長野県","city":"須坂市","address":"大日向町"},
{"zip_code":"3820083","kana_pref":"ﾅｶﾞﾉｹﾝ","kana_city":"ｽｻﾞｶｼ","kana_address":"ｶﾐﾅｶﾏﾁ","pref":"長野県","city":"須坂市","address":"上中町"},
{"zip_code":"3820044","kana_pref":"ﾅｶﾞﾉｹﾝ","kana_city":"ｽｻﾞｶｼ","kana_address":"ｶﾐﾊｯﾁｮｳ","pref":"長野県","city":"須坂市","address":"上八町"},
{"zip_code":"3820033","kana_pref":"ﾅｶﾞﾉｹﾝ","kana_city":"ｽｻﾞｶｼ","kana_address":"ｶﾒｸﾗﾁｮｳ","pref":"長野県","city":"須坂市","address":"亀倉町"},
{"zip_code":"3820028","kana_pref":"ﾅｶﾞﾉｹﾝ","kana_city":"ｽｻﾞｶｼ","kana_address":"ｶﾞﾘｭｳ","pref":"長野県","city":"須坂市","address":"臥竜"},
{"zip_code":"3820084","kana_pref":"ﾅｶﾞﾉｹﾝ","kana_city":"ｽｻﾞｶｼ","kana_address":"ｶﾝﾏﾁ","pref":"長野県","city":"須坂市","address":"上町"},
{"zip_code":"3820061","kana_pref":"ﾅｶﾞﾉｹﾝ","kana_city":"ｽｻﾞｶｼ","kana_address":"ｷﾀｱｲﾉｼﾏﾁｮｳ","pref":"長野県","city":"須坂市","address":"北相之島町"},
{"zip_code":"3820002","kana_pref":"ﾅｶﾞﾉｹﾝ","kana_city":"ｽｻﾞｶｼ","kana_address":"ｷﾀｱｻﾋｶﾞｵｶﾁｮｳ","pref":"長野県","city":"須坂市","address":"北旭ケ丘町"},
{"zip_code":"3820092","kana_pref":"ﾅｶﾞﾉｹﾝ","kana_city":"ｽｻﾞｶｼ","kana_address":"ｷﾀﾊﾗﾁｮｳ","pref":"長野県","city":"須坂市","address":"北原町"},
{"zip_code":"3820077","kana_pref":"ﾅｶﾞﾉｹﾝ","kana_city":"ｽｻﾞｶｼ","kana_address":"ｷﾀﾖｺﾏﾁ","pref":"長野県","city":"須坂市","address":"北横町"},
{"zip_code":"3820048","kana_pref":"ﾅｶﾞﾉｹﾝ","kana_city":"ｽｻﾞｶｼ","kana_address":"ｸﾀﾝﾀﾞﾏﾁ","pref":"長野県","city":"須坂市","address":"九反田町"},
{"zip_code":"3820047","kana_pref":"ﾅｶﾞﾉｹﾝ","kana_city":"ｽｻﾞｶｼ","kana_address":"ｺｳﾀｶﾏﾁ","pref":"長野県","city":"須坂市","address":"幸高町"},
{"zip_code":"3820053","kana_pref":"ﾅｶﾞﾉｹﾝ","kana_city":"ｽｻﾞｶｼ","kana_address":"ｺﾞｶﾝﾏﾁ","pref":"長野県","city":"須坂市","address":"五閑町"},
{"zip_code":"3820085","kana_pref":"ﾅｶﾞﾉｹﾝ","kana_city":"ｽｻﾞｶｼ","kana_address":"ｺｸﾏﾁ","pref":"長野県","city":"須坂市","address":"穀町"},
{"zip_code":"3820062","kana_pref":"ﾅｶﾞﾉｹﾝ","kana_city":"ｽｻﾞｶｼ","kana_address":"ｺｼﾞﾏﾏﾁ","pref":"長野県","city":"須坂市","address":"小島町"},
{"zip_code":"3820026","kana_pref":"ﾅｶﾞﾉｹﾝ","kana_city":"ｽｻﾞｶｼ","kana_address":"ｻｶﾀﾞﾏﾁ","pref":"長野県","city":"須坂市","address":"坂田町"},
{"zip_code":"3820052","kana_pref":"ﾅｶﾞﾉｹﾝ","kana_city":"ｽｻﾞｶｼ","kana_address":"ｼｵｶﾞﾜﾏﾁ","pref":"長野県","city":"須坂市","address":"塩川町"},
{"zip_code":"3820024","kana_pref":"ﾅｶﾞﾉｹﾝ","kana_city":"ｽｻﾞｶｼ","kana_address":"ｼｵﾉﾏﾁ","pref":"長野県","city":"須坂市","address":"塩野町"},
{"zip_code":"3820043","kana_pref":"ﾅｶﾞﾉｹﾝ","kana_city":"ｽｻﾞｶｼ","kana_address":"ｼﾓﾊｯﾁｮｳ","pref":"長野県","city":"須坂市","address":"下八町"},
{"zip_code":"3820005","kana_pref":"ﾅｶﾞﾉｹﾝ","kana_city":"ｽｻﾞｶｼ","kana_address":"ｼﾝﾃﾞﾝﾁｮｳ","pref":"長野県","city":"須坂市","address":"新田町"},
{"zip_code":"3820014","kana_pref":"ﾅｶﾞﾉｹﾝ","kana_city":"ｽｻﾞｶｼ","kana_address":"ｼﾝﾏﾁ","pref":"長野県","city":"須坂市","address":"新町"},
{"zip_code":"3820075","kana_pref":"ﾅｶﾞﾉｹﾝ","kana_city":"ｽｻﾞｶｼ","kana_address":"ｽｻﾞｶﾊｲﾗﾝﾄﾞﾏﾁ","pref":"長野県","city":"須坂市","address":"須坂ハイランド町"},
{"zip_code":"3820099","kana_pref":"ﾅｶﾞﾉｹﾝ","kana_city":"ｽｻﾞｶｼ","kana_address":"ｽﾐｻｶ","pref":"長野県","city":"須坂市","address":"墨坂"},
{"zip_code":"3820098","kana_pref":"ﾅｶﾞﾉｹﾝ","kana_city":"ｽｻﾞｶｼ","kana_address":"ｽﾐｻｶﾐﾅﾐ","pref":"長野県","city":"須坂市","address":"墨坂南"},
{"zip_code":"3820015","kana_pref":"ﾅｶﾞﾉｹﾝ","kana_city":"ｽｻﾞｶｼ","kana_address":"ﾀｲｼﾏﾁ","pref":"長野県","city":"須坂市","address":"太子町"},
{"zip_code":"3820054","kana_pref":"ﾅｶﾞﾉｹﾝ","kana_city":"ｽｻﾞｶｼ","kana_address":"ﾀｶﾅｼﾏﾁ","pref":"長野県","city":"須坂市","address":"高梨町"},
{"zip_code":"3820016","kana_pref":"ﾅｶﾞﾉｹﾝ","kana_city":"ｽｻﾞｶｼ","kana_address":"ﾀｶﾊｼﾏﾁ","pref":"長野県","city":"須坂市","address":"高橋町"},
{"zip_code":"3820004","kana_pref":"ﾅｶﾞﾉｹﾝ","kana_city":"ｽｻﾞｶｼ","kana_address":"ﾀｶﾊﾞﾀﾏﾁ","pref":"長野県","city":"須坂市","address":"高畑町"},
{"zip_code":"3820091","kana_pref":"ﾅｶﾞﾉｹﾝ","kana_city":"ｽｻﾞｶｼ","kana_address":"ﾀﾂﾏﾁ","pref":"長野県","city":"須坂市","address":"立町"},
{"zip_code":"3820073","kana_pref":"ﾅｶﾞﾉｹﾝ","kana_city":"ｽｻﾞｶｼ","kana_address":"ﾀﾉｶﾐﾏﾁ","pref":"長野県","city":"須坂市","address":"田の神町"},
{"zip_code":"3820013","kana_pref":"ﾅｶﾞﾉｹﾝ","kana_city":"ｽｻﾞｶｼ","kana_address":"ﾄｷﾜﾁｮｳ","pref":"長野県","city":"須坂市","address":"常盤町"},
{"zip_code":"3820022","kana_pref":"ﾅｶﾞﾉｹﾝ","kana_city":"ｽｻﾞｶｼ","kana_address":"ﾄﾖｵｶｶﾐﾏﾁ","pref":"長野県","city":"須坂市","address":"豊丘上町"},
{"zip_code":"3820021","kana_pref":"ﾅｶﾞﾉｹﾝ","kana_city":"ｽｻﾞｶｼ","kana_address":"ﾄﾖｵｶﾏﾁ","pref":"長野県","city":"須坂市","address":"豊丘町"},
{"zip_code":"3820066","kana_pref":"ﾅｶﾞﾉｹﾝ","kana_city":"ｽｻﾞｶｼ","kana_address":"ﾄﾖｼﾏﾏﾁ","pref":"長野県","city":"須坂市","address":"豊島町"},
{"zip_code":"3820055","kana_pref":"ﾅｶﾞﾉｹﾝ","kana_city":"ｽｻﾞｶｼ","kana_address":"ﾅｶｼﾞﾏﾏﾁ","pref":"長野県","city":"須坂市","address":"中島町"},
{"zip_code":"3820082","kana_pref":"ﾅｶﾞﾉｹﾝ","kana_city":"ｽｻﾞｶｼ","kana_address":"ﾅｶﾏﾁ","pref":"長野県","city":"須坂市","address":"中町"},
{"zip_code":"3820032","kana_pref":"ﾅｶﾞﾉｹﾝ","kana_city":"ｽｻﾞｶｼ","kana_address":"ﾅﾂﾊﾞﾀﾁｮｳ","pref":"長野県","city":"須坂市","address":"夏端町"},
{"zip_code":"3820063","kana_pref":"ﾅｶﾞﾉｹﾝ","kana_city":"ｽｻﾞｶｼ","kana_address":"ﾆｼﾏﾁ","pref":"長野県","city":"須坂市","address":"西町"},
{"zip_code":"3820046","kana_pref":"ﾅｶﾞﾉｹﾝ","kana_city":"ｽｻﾞｶｼ","kana_address":"ﾆﾎﾞｸﾏﾁ","pref":"長野県","city":"須坂市","address":"二睦町"},
{"zip_code":"3820034","kana_pref":"ﾅｶﾞﾉｹﾝ","kana_city":"ｽｻﾞｶｼ","kana_address":"ﾆﾚｲﾁｮｳ","pref":"長野県","city":"須坂市","address":"仁礼町"},
{"zip_code":"3820064","kana_pref":"ﾅｶﾞﾉｹﾝ","kana_city":"ｽｻﾞｶｼ","kana_address":"ﾇﾏﾒﾏﾁ","pref":"長野県","city":"須坂市","address":"沼目町"},
{"zip_code":"3820037","kana_pref":"ﾅｶﾞﾉｹﾝ","kana_city":"ｽｻﾞｶｼ","kana_address":"ﾉﾍﾞﾏﾁ","pref":"長野県","city":"須坂市","address":"野辺町"},
{"zip_code":"3820076","kana_pref":"ﾅｶﾞﾉｹﾝ","kana_city":"ｽｻﾞｶｼ","kana_address":"ﾊﾞﾊﾞﾁｮｳ","pref":"長野県","city":"須坂市","address":"馬場町"},
{"zip_code":"3820074","kana_pref":"ﾅｶﾞﾉｹﾝ","kana_city":"ｽｻﾞｶｼ","kana_address":"ﾊﾙｷﾏﾁ","pref":"長野県","city":"須坂市","address":"春木町"},
{"zip_code":"3820006","kana_pref":"ﾅｶﾞﾉｹﾝ","kana_city":"ｽｻﾞｶｼ","kana_address":"ﾋｶﾘｶﾞｵｶﾆｭｰﾀｳﾝ","pref":"長野県","city":"須坂市","address":"光ケ丘ニュータウン"},
{"zip_code":"3820087","kana_pref":"ﾅｶﾞﾉｹﾝ","kana_city":"ｽｻﾞｶｼ","kana_address":"ﾋｶﾞｼﾖｺﾏﾁ","pref":"長野県","city":"須坂市","address":"東横町"},
{"zip_code":"3820056","kana_pref":"ﾅｶﾞﾉｹﾝ","kana_city":"ｽｻﾞｶｼ","kana_address":"ﾌｸｼﾞﾏﾏﾁ","pref":"長野県","city":"須坂市","address":"福島町"},
{"zip_code":"3820042","kana_pref":"ﾅｶﾞﾉｹﾝ","kana_city":"ｽｻﾞｶｼ","kana_address":"ﾎﾞｳｶﾞｸﾀﾞｲ","pref":"長野県","city":"須坂市","address":"望岳台"},
{"zip_code":"3820086","kana_pref":"ﾅｶﾞﾉｹﾝ","kana_city":"ｽｻﾞｶｼ","kana_address":"ﾎﾝｶﾝﾏﾁ","pref":"長野県","city":"須坂市","address":"本上町"},
{"zip_code":"3820011","kana_pref":"ﾅｶﾞﾉｹﾝ","kana_city":"ｽｻﾞｶｼ","kana_address":"ﾎﾝｺﾞｳﾏﾁ","pref":"長野県","city":"須坂市","address":"本郷町"},
{"zip_code":"3820001","kana_pref":"ﾅｶﾞﾉｹﾝ","kana_city":"ｽｻﾞｶｼ","kana_address":"ﾏﾂｶﾜﾏﾁ","pref":"長野県","city":"須坂市","address":"松川町"},
{"zip_code":"3820072","kana_pref":"ﾅｶﾞﾉｹﾝ","kana_city":"ｽｻﾞｶｼ","kana_address":"ﾐﾅﾐｵｶﾞﾜﾗﾏﾁ","pref":"長野県","city":"須坂市","address":"南小河原町"},
{"zip_code":"3820027","kana_pref":"ﾅｶﾞﾉｹﾝ","kana_city":"ｽｻﾞｶｼ","kana_address":"ﾐﾅﾐﾊﾗﾏﾁ","pref":"長野県","city":"須坂市","address":"南原町"},
{"zip_code":"3820097","kana_pref":"ﾅｶﾞﾉｹﾝ","kana_city":"ｽｻﾞｶｼ","kana_address":"ﾐﾅﾐﾖｺﾏﾁ","pref":"長野県","city":"須坂市","address":"南横町"},
{"zip_code":"3820036","kana_pref":"ﾅｶﾞﾉｹﾝ","kana_city":"ｽｻﾞｶｼ","kana_address":"ﾐｮｳﾄｸﾏﾁ","pref":"長野県","city":"須坂市","address":"明徳町"},
{"zip_code":"3820031","kana_pref":"ﾅｶﾞﾉｹﾝ","kana_city":"ｽｻﾞｶｼ","kana_address":"ﾑﾗｲｼﾏﾁ","pref":"長野県","city":"須坂市","address":"村石町"},
{"zip_code":"3820057","kana_pref":"ﾅｶﾞﾉｹﾝ","kana_city":"ｽｻﾞｶｼ","kana_address":"ﾑﾗﾔﾏﾏﾁ","pref":"長野県","city":"須坂市","address":"村山町"},
{"zip_code":"3820051","kana_pref":"ﾅｶﾞﾉｹﾝ","kana_city":"ｽｻﾞｶｼ","kana_address":"ﾔｴﾓﾘﾏﾁ","pref":"長野県","city":"須坂市","address":"八重森町"},
{"zip_code":"3820094","kana_pref":"ﾅｶﾞﾉｹﾝ","kana_city":"ｽｻﾞｶｼ","kana_address":"ﾔﾌﾞﾏﾁ","pref":"長野県","city":"須坂市","address":"屋部町"},
{"zip_code":"3820081","kana_pref":"ﾅｶﾞﾉｹﾝ","kana_city":"ｽｻﾞｶｼ","kana_address":"ﾖｺﾏﾁ","pref":"長野県","city":"須坂市","address":"横町"},
{"zip_code":"3820023","kana_pref":"ﾅｶﾞﾉｹﾝ","kana_city":"ｽｻﾞｶｼ","kana_address":"ﾖﾅｺﾏﾁ","pref":"長野県","city":"須坂市","address":"米子町"},
{"zip_code":"3820041","kana_pref":"ﾅｶﾞﾉｹﾝ","kana_city":"ｽｻﾞｶｼ","kana_address":"ﾖﾅﾓﾁﾏﾁ","pref":"長野県","city":"須坂市","address":"米持町"},
{"zip_code":"3820800","kana_pref":"ﾅｶﾞﾉｹﾝ","kana_city":"ｶﾐﾀｶｲｸﾞﾝﾀｶﾔﾏﾑﾗ","kana_address":"","pref":"長野県","city":"上高井郡高山村","address":""},
{"zip_code":"3820832","kana_pref":"ﾅｶﾞﾉｹﾝ","kana_city":"ｶﾐﾀｶｲｸﾞﾝﾀｶﾔﾏﾑﾗ","kana_address":"ｱｶﾜ","pref":"長野県","city":"上高井郡高山村","address":"赤和"},
{"zip_code":"3820831","kana_pref":"ﾅｶﾞﾉｹﾝ","kana_city":"ｶﾐﾀｶｲｸﾞﾝﾀｶﾔﾏﾑﾗ","kana_address":"ｱﾗｲﾊﾗ","pref":"長野県","city":"上高井郡高山村","address":"荒井原"},
{"zip_code":"3820815","kana_pref":"ﾅｶﾞﾉｹﾝ","kana_city":"ｶﾐﾀｶｲｸﾞﾝﾀｶﾔﾏﾑﾗ","kana_address":"ｵｷﾞｸﾎﾞ","pref":"長野県","city":"上高井郡高山村","address":"荻久保"},
{"zip_code":"3820833","kana_pref":"ﾅｶﾞﾉｹﾝ","kana_city":"ｶﾐﾀｶｲｸﾞﾝﾀｶﾔﾏﾑﾗ","kana_address":"ｸﾎﾞ","pref":"長野県","city":"上高井郡高山村","address":"久保"},
{"zip_code":"3820823","kana_pref":"ﾅｶﾞﾉｹﾝ","kana_city":"ｶﾐﾀｶｲｸﾞﾝﾀｶﾔﾏﾑﾗ","kana_address":"ｸﾛﾍﾞ","pref":"長野県","city":"上高井郡高山村","address":"黒部"},
{"zip_code":"3820801","kana_pref":"ﾅｶﾞﾉｹﾝ","kana_city":"ｶﾐﾀｶｲｸﾞﾝﾀｶﾔﾏﾑﾗ","kana_address":"ｺﾏﾊﾞ","pref":"長野県","city":"上高井郡高山村","address":"駒場"},
{"zip_code":"3820836","kana_pref":"ﾅｶﾞﾉｹﾝ","kana_city":"ｶﾐﾀｶｲｸﾞﾝﾀｶﾔﾏﾑﾗ","kana_address":"ｼﾝﾎﾞﾘ","pref":"長野県","city":"上高井郡高山村","address":"新堀"},
{"zip_code":"3820835","kana_pref":"ﾅｶﾞﾉｹﾝ","kana_city":"ｶﾐﾀｶｲｸﾞﾝﾀｶﾔﾏﾑﾗ","kana_address":"ｾﾝﾎﾞﾝﾏﾂ","pref":"長野県","city":"上高井郡高山村","address":"千本松"},
{"zip_code":"3820814","kana_pref":"ﾅｶﾞﾉｹﾝ","kana_city":"ｶﾐﾀｶｲｸﾞﾝﾀｶﾔﾏﾑﾗ","kana_address":"ﾃﾝｼﾞﾝﾊﾞﾗ","pref":"長野県","city":"上高井郡高山村","address":"天神原"},
{"zip_code":"3820804","kana_pref":"ﾅｶﾞﾉｹﾝ","kana_city":"ｶﾐﾀｶｲｸﾞﾝﾀｶﾔﾏﾑﾗ","kana_address":"ﾅｶﾊﾗ","pref":"長野県","city":"上高井郡高山村","address":"中原"},
{"zip_code":"3820806","kana_pref":"ﾅｶﾞﾉｹﾝ","kana_city":"ｶﾐﾀｶｲｸﾞﾝﾀｶﾔﾏﾑﾗ","kana_address":"ﾅｶﾋﾗ","pref":"長野県","city":"上高井郡高山村","address":"なかひら"},
{"zip_code":"3820822","kana_pref":"ﾅｶﾞﾉｹﾝ","kana_city":"ｶﾐﾀｶｲｸﾞﾝﾀｶﾔﾏﾑﾗ","kana_address":"ﾌｸｲﾊﾗ","pref":"長野県","city":"上高井郡高山村","address":"福井原"},
{"zip_code":"3820826","kana_pref":"ﾅｶﾞﾉｹﾝ","kana_city":"ｶﾐﾀｶｲｸﾞﾝﾀｶﾔﾏﾑﾗ","kana_address":"ﾌﾀﾂｲｼ","pref":"長野県","city":"上高井郡高山村","address":"二ツ石"},
{"zip_code":"3820837","kana_pref":"ﾅｶﾞﾉｹﾝ","kana_city":"ｶﾐﾀｶｲｸﾞﾝﾀｶﾔﾏﾑﾗ","kana_address":"ﾎﾘﾉｳﾁ","pref":"長野県","city":"上高井郡高山村","address":"堀之内"},
{"zip_code":"3820821","kana_pref":"ﾅｶﾞﾉｹﾝ","kana_city":"ｶﾐﾀｶｲｸﾞﾝﾀｶﾔﾏﾑﾗ","kana_address":"ﾏｷ","pref":"長野県","city":"上高井郡高山村","address":"牧"},
{"zip_code":"3820803","kana_pref":"ﾅｶﾞﾉｹﾝ","kana_city":"ｶﾐﾀｶｲｸﾞﾝﾀｶﾔﾏﾑﾗ","kana_address":"ﾏｽｶﾞﾀ","pref":"長野県","city":"上高井郡高山村","address":"桝形"},
{"zip_code":"3820827","kana_pref":"ﾅｶﾞﾉｹﾝ","kana_city":"ｶﾐﾀｶｲｸﾞﾝﾀｶﾔﾏﾑﾗ","kana_address":"ﾏﾂﾅﾐ","pref":"長野県","city":"上高井郡高山村","address":"松南"},
{"zip_code":"3820802","kana_pref":"ﾅｶﾞﾉｹﾝ","kana_city":"ｶﾐﾀｶｲｸﾞﾝﾀｶﾔﾏﾑﾗ","kana_address":"ﾏﾂﾊﾗ","pref":"長野県","city":"上高井郡高山村","address":"松原"},
{"zip_code":"3820805","kana_pref":"ﾅｶﾞﾉｹﾝ","kana_city":"ｶﾐﾀｶｲｸﾞﾝﾀｶﾔﾏﾑﾗ","kana_address":"ﾐｻﾄ","pref":"長野県","city":"上高井郡高山村","address":"三郷"},
{"zip_code":"3820834","kana_pref":"ﾅｶﾞﾉｹﾝ","kana_city":"ｶﾐﾀｶｲｸﾞﾝﾀｶﾔﾏﾑﾗ","kana_address":"ﾐｽﾞﾅｶ","pref":"長野県","city":"上高井郡高山村","address":"水中"},
{"zip_code":"3820824","kana_pref":"ﾅｶﾞﾉｹﾝ","kana_city":"ｶﾐﾀｶｲｸﾞﾝﾀｶﾔﾏﾑﾗ","kana_address":"ﾐﾄﾞﾘｶﾞｵｶ","pref":"長野県","city":"上高井郡高山村","address":"緑ケ丘"},
{"zip_code":"3820811","kana_pref":"ﾅｶﾞﾉｹﾝ","kana_city":"ｶﾐﾀｶｲｸﾞﾝﾀｶﾔﾏﾑﾗ","kana_address":"ﾐﾔｾｷ","pref":"長野県","city":"上高井郡高山村","address":"宮関"},
{"zip_code":"3820825","kana_pref":"ﾅｶﾞﾉｹﾝ","kana_city":"ｶﾐﾀｶｲｸﾞﾝﾀｶﾔﾏﾑﾗ","kana_address":"ﾑﾗｻｷ","pref":"長野県","city":"上高井郡高山村","address":"紫"},
{"zip_code":"3820816","kana_pref":"ﾅｶﾞﾉｹﾝ","kana_city":"ｶﾐﾀｶｲｸﾞﾝﾀｶﾔﾏﾑﾗ","kana_address":"ﾔﾏﾀﾞｵﾝｾﾝ","pref":"長野県","city":"上高井郡高山村","address":"山田温泉"},
{"zip_code":"3820817","kana_pref":"ﾅｶﾞﾉｹﾝ","kana_city":"ｶﾐﾀｶｲｸﾞﾝﾀｶﾔﾏﾑﾗ","kana_address":"ﾔﾏﾀﾞﾎﾞｸｼﾞｮｳ","pref":"長野県","city":"上高井郡高山村","address":"山田牧場"},
{"zip_code":"3820813","kana_pref":"ﾅｶﾞﾉｹﾝ","kana_city":"ｶﾐﾀｶｲｸﾞﾝﾀｶﾔﾏﾑﾗ","kana_address":"ﾜﾗﾋﾞﾀｲﾗ","pref":"長野県","city":"上高井郡高山村","address":"蕨平"}]}