{"zip_code":[
{"zip_code":"3830000","kana_pref":"ﾅｶﾞﾉｹﾝ","kana_city":"ﾅｶﾉｼ","kana_address":"","pref":"長野県","city":"中野市","address":""},
{"zip_code":"3830004","kana_pref":"ﾅｶﾞﾉｹﾝ","kana_city":"ﾅｶﾉｼ","kana_address":"ｱｶｲﾜ","pref":"長野県","city":"中野市","address":"赤岩"},
{"zip_code":"3830066","kana_pref":"ﾅｶﾞﾉｹﾝ","kana_city":"ﾅｶﾉｼ","kana_address":"ｱｯｶｲ","pref":"長野県","city":"中野市","address":"厚貝"},
{"zip_code":"3830064","kana_pref":"ﾅｶﾞﾉｹﾝ","kana_city":"ﾅｶﾉｼ","kana_address":"ｱﾗｲ","pref":"長野県","city":"中野市","address":"新井"},
{"zip_code":"3830052","kana_pref":"ﾅｶﾞﾉｹﾝ","kana_city":"ﾅｶﾉｼ","kana_address":"ｱﾝｹﾞﾝｼﾞ","pref":"長野県","city":"中野市","address":"安源寺"},
{"zip_code":"3830012","kana_pref":"ﾅｶﾞﾉｹﾝ","kana_city":"ﾅｶﾉｼ","kana_address":"ｲｯﾎﾟﾝｷﾞ","pref":"長野県","city":"中野市","address":"一本木"},
{"zip_code":"3830001","kana_pref":"ﾅｶﾞﾉｹﾝ","kana_city":"ﾅｶﾉｼ","kana_address":"ｲﾜｲ","pref":"長野県","city":"中野市","address":"岩井"},
{"zip_code":"3830041","kana_pref":"ﾅｶﾞﾉｹﾝ","kana_city":"ﾅｶﾉｼ","kana_address":"ｲﾜﾌﾈ","pref":"長野県","city":"中野市","address":"岩船"},
{"zip_code":"3830055","kana_pref":"ﾅｶﾞﾉｹﾝ","kana_city":"ﾅｶﾉｼ","kana_address":"ｳｼｲﾃﾞ","pref":"長野県","city":"中野市","address":"牛出"},
{"zip_code":"3830045","kana_pref":"ﾅｶﾞﾉｹﾝ","kana_city":"ﾅｶﾉｼ","kana_address":"ｴﾍﾞ","pref":"長野県","city":"中野市","address":"江部"},
{"zip_code":"3830057","kana_pref":"ﾅｶﾞﾉｹﾝ","kana_city":"ﾅｶﾉｼ","kana_address":"ｵｵﾏﾀ","pref":"長野県","city":"中野市","address":"大俣"},
{"zip_code":"3830023","kana_pref":"ﾅｶﾞﾉｹﾝ","kana_city":"ﾅｶﾉｼ","kana_address":"ｵﾀﾃ","pref":"長野県","city":"中野市","address":"小館"},
{"zip_code":"3830062","kana_pref":"ﾅｶﾞﾉｹﾝ","kana_city":"ﾅｶﾉｼ","kana_address":"ｶｻﾊﾗ","pref":"長野県","city":"中野市","address":"笠原"},
{"zip_code":"3830046","kana_pref":"ﾅｶﾞﾉｹﾝ","kana_city":"ﾅｶﾉｼ","kana_address":"ｶﾀｼｵ","pref":"長野県","city":"中野市","address":"片塩"},
{"zip_code":"3830008","kana_pref":"ﾅｶﾞﾉｹﾝ","kana_city":"ﾅｶﾉｼ","kana_address":"ｶﾅｲ","pref":"長野県","city":"中野市","address":"金井"},
{"zip_code":"3830053","kana_pref":"ﾅｶﾞﾉｹﾝ","kana_city":"ﾅｶﾉｼ","kana_address":"ｸｻﾏ","pref":"長野県","city":"中野市","address":"草間"},
{"zip_code":"3830056","kana_pref":"ﾅｶﾞﾉｹﾝ","kana_city":"ﾅｶﾉｼ","kana_address":"ｸﾘﾊﾞﾔｼ","pref":"長野県","city":"中野市","address":"栗林"},
{"zip_code":"3830005","kana_pref":"ﾅｶﾞﾉｹﾝ","kana_city":"ﾅｶﾉｼ","kana_address":"ｺｼ","pref":"長野県","city":"中野市","address":"越"},
{"zip_code":"3830037","kana_pref":"ﾅｶﾞﾉｹﾝ","kana_city":"ﾅｶﾉｼ","kana_address":"ｺﾀﾞﾅｶ","pref":"長野県","city":"中野市","address":"小田中"},
{"zip_code":"3830044","kana_pref":"ﾅｶﾞﾉｹﾝ","kana_city":"ﾅｶﾉｼ","kana_address":"ｻｸﾗｻﾜ","pref":"長野県","city":"中野市","address":"桜沢"},
{"zip_code":"3830032","kana_pref":"ﾅｶﾞﾉｹﾝ","kana_city":"ﾅｶﾉｼ","kana_address":"ｻﾗｼﾅ","pref":"長野県","city":"中野市","address":"更科"},
{"zip_code":"3830035","kana_pref":"ﾅｶﾞﾉｹﾝ","kana_city":"ﾅｶﾉｼ","kana_address":"ｼﾉｲ","pref":"長野県","city":"中野市","address":"篠井"},
{"zip_code":"3830034","kana_pref":"ﾅｶﾞﾉｹﾝ","kana_city":"ﾅｶﾉｼ","kana_address":"ｼﾝﾉ","pref":"長野県","city":"中野市","address":"新野"},
{"zip_code":"3830036","kana_pref":"ﾅｶﾞﾉｹﾝ","kana_city":"ﾅｶﾉｼ","kana_address":"ｼﾝﾎﾞ","pref":"長野県","city":"中野市","address":"新保"},
{"zip_code":"3830014","kana_pref":"ﾅｶﾞﾉｹﾝ","kana_city":"ﾅｶﾉｼ","kana_address":"ｽﾜﾁｮｳ","pref":"長野県","city":"中野市","address":"諏訪町"},
{"zip_code":"3830002","kana_pref":"ﾅｶﾞﾉｹﾝ","kana_city":"ﾅｶﾉｼ","kana_address":"ﾀｶﾞﾐ","pref":"長野県","city":"中野市","address":"田上"},
{"zip_code":"3830007","kana_pref":"ﾅｶﾞﾉｹﾝ","kana_city":"ﾅｶﾉｼ","kana_address":"ﾀｹﾊﾗ","pref":"長野県","city":"中野市","address":"竹原"},
{"zip_code":"3830054","kana_pref":"ﾅｶﾞﾉｹﾝ","kana_city":"ﾅｶﾉｼ","kana_address":"ﾀﾃｶﾞﾊﾅ","pref":"長野県","city":"中野市","address":"立ケ花"},
{"zip_code":"3830065","kana_pref":"ﾅｶﾞﾉｹﾝ","kana_city":"ﾅｶﾉｼ","kana_address":"ﾀﾑｷﾞ","pref":"長野県","city":"中野市","address":"田麦"},
{"zip_code":"3830022","kana_pref":"ﾅｶﾞﾉｹﾝ","kana_city":"ﾅｶﾉｼ","kana_address":"ﾁｭｳｵｳ","pref":"長野県","city":"中野市","address":"中央"},
{"zip_code":"3830013","kana_pref":"ﾅｶﾞﾉｹﾝ","kana_city":"ﾅｶﾉｼ","kana_address":"ﾅｶﾉ","pref":"長野県","city":"中野市","address":"中野"},
{"zip_code":"3830051","kana_pref":"ﾅｶﾞﾉｹﾝ","kana_city":"ﾅｶﾉｼ","kana_address":"ﾅﾅｾ","pref":"長野県","city":"中野市","address":"七瀬"},
{"zip_code":"3830031","kana_pref":"ﾅｶﾞﾉｹﾝ","kana_city":"ﾅｶﾉｼ","kana_address":"ﾅﾝｸﾞｳ","pref":"長野県","city":"中野市","address":"南宮"},
{"zip_code":"3830021","kana_pref":"ﾅｶﾞﾉｹﾝ","kana_city":"ﾅｶﾉｼ","kana_address":"ﾆｼ","pref":"長野県","city":"中野市","address":"西"},
{"zip_code":"3830042","kana_pref":"ﾅｶﾞﾉｹﾝ","kana_city":"ﾅｶﾉｼ","kana_address":"ﾆｼｼﾞｮｳ","pref":"長野県","city":"中野市","address":"西条"},
{"zip_code":"3830024","kana_pref":"ﾅｶﾞﾉｹﾝ","kana_city":"ﾅｶﾉｼ","kana_address":"ﾋｶﾞｼﾔﾏ","pref":"長野県","city":"中野市","address":"東山"},
{"zip_code":"3830006","kana_pref":"ﾅｶﾞﾉｹﾝ","kana_city":"ﾅｶﾉｼ","kana_address":"ﾌｶｻﾜ","pref":"長野県","city":"中野市","address":"深沢"},
{"zip_code":"3830061","kana_pref":"ﾅｶﾞﾉｹﾝ","kana_city":"ﾅｶﾉｼ","kana_address":"ﾍｷﾀﾞ","pref":"長野県","city":"中野市","address":"壁田"},
{"zip_code":"3830063","kana_pref":"ﾅｶﾞﾉｹﾝ","kana_city":"ﾅｶﾉｼ","kana_address":"ﾏﾅｶﾞｾ","pref":"長野県","city":"中野市","address":"間長瀬"},
{"zip_code":"3830033","kana_pref":"ﾅｶﾞﾉｹﾝ","kana_city":"ﾅｶﾉｼ","kana_address":"ﾏﾔﾏ","pref":"長野県","city":"中野市","address":"間山"},
{"zip_code":"3830043","kana_pref":"ﾅｶﾞﾉｹﾝ","kana_city":"ﾅｶﾉｼ","kana_address":"ﾐﾂﾜ","pref":"長野県","city":"中野市","address":"三ツ和"},
{"zip_code":"3830025","kana_pref":"ﾅｶﾞﾉｹﾝ","kana_city":"ﾅｶﾉｼ","kana_address":"ﾐﾖｼﾁｮｳ","pref":"長野県","city":"中野市","address":"三好町"},
{"zip_code":"3830003","kana_pref":"ﾅｶﾞﾉｹﾝ","kana_city":"ﾅｶﾉｼ","kana_address":"ﾔﾅｷﾞｻﾜ","pref":"長野県","city":"中野市","address":"柳沢"},
{"zip_code":"3830015","kana_pref":"ﾅｶﾞﾉｹﾝ","kana_city":"ﾅｶﾉｼ","kana_address":"ﾖｼﾀﾞ","pref":"長野県","city":"中野市","address":"吉田"},
{"zip_code":"3830011","kana_pref":"ﾅｶﾞﾉｹﾝ","kana_city":"ﾅｶﾉｼ","kana_address":"ﾜｶﾐﾔ","pref":"長野県","city":"中野市","address":"若宮"}]}