{"zip_code":[
{"zip_code":"3840097","kana_pref":"ｸﾞﾝﾏｹﾝ","kana_city":"ｱｶﾞﾂﾏｸﾞﾝﾂﾏｺﾞｲﾑﾗ","kana_address":"ｶﾝﾊﾞﾗ","pref":"群馬県","city":"吾妻郡嬬恋村","address":"鎌原"},
{"zip_code":"3840000","kana_pref":"ﾅｶﾞﾉｹﾝ","kana_city":"ｺﾓﾛｼ","kana_address":"","pref":"長野県","city":"小諸市","address":""},
{"zip_code":"3840025","kana_pref":"ﾅｶﾞﾉｹﾝ","kana_city":"ｺﾓﾛｼ","kana_address":"ｱｲｵｲﾁｮｳ","pref":"長野県","city":"小諸市","address":"相生町"},
{"zip_code":"3840011","kana_pref":"ﾅｶﾞﾉｹﾝ","kana_city":"ｺﾓﾛｼ","kana_address":"ｱｶｻｶ","pref":"長野県","city":"小諸市","address":"赤坂"},
{"zip_code":"3840021","kana_pref":"ﾅｶﾞﾉｹﾝ","kana_city":"ｺﾓﾛｼ","kana_address":"ｱﾏｲｹ","pref":"長野県","city":"小諸市","address":"天池"},
{"zip_code":"3840062","kana_pref":"ﾅｶﾞﾉｹﾝ","kana_city":"ｺﾓﾛｼ","kana_address":"ｱﾗﾎﾘ","pref":"長野県","city":"小諸市","address":"荒堀"},
{"zip_code":"3840014","kana_pref":"ﾅｶﾞﾉｹﾝ","kana_city":"ｺﾓﾛｼ","kana_address":"ｱﾗﾏﾁ","pref":"長野県","city":"小諸市","address":"荒町"},
{"zip_code":"3840096","kana_pref":"ﾅｶﾞﾉｹﾝ","kana_city":"ｺﾓﾛｼ","kana_address":"ｲｹﾉﾏｴ","pref":"長野県","city":"小諸市","address":"池ノ前"},
{"zip_code":"3840047","kana_pref":"ﾅｶﾞﾉｹﾝ","kana_city":"ｺﾓﾛｼ","kana_address":"ｲｺ","pref":"長野県","city":"小諸市","address":"井子"},
{"zip_code":"3840054","kana_pref":"ﾅｶﾞﾉｹﾝ","kana_city":"ｺﾓﾛｼ","kana_address":"ｲｼﾄｳｹﾞ","pref":"長野県","city":"小諸市","address":"石峠"},
{"zip_code":"3840083","kana_pref":"ﾅｶﾞﾉｹﾝ","kana_city":"ｺﾓﾛｼ","kana_address":"ｲﾁ","pref":"長野県","city":"小諸市","address":"市"},
{"zip_code":"3840033","kana_pref":"ﾅｶﾞﾉｹﾝ","kana_city":"ｺﾓﾛｼ","kana_address":"ｲﾁﾏﾁ","pref":"長野県","city":"小諸市","address":"市町"},
{"zip_code":"3840075","kana_pref":"ﾅｶﾞﾉｹﾝ","kana_city":"ｺﾓﾛｼ","kana_address":"ｳｴﾉﾀﾞｲﾗ","pref":"長野県","city":"小諸市","address":"上ノ平"},
{"zip_code":"3840042","kana_pref":"ﾅｶﾞﾉｹﾝ","kana_city":"ｺﾓﾛｼ","kana_address":"ｳｼﾛﾀﾞｲﾗ","pref":"長野県","city":"小諸市","address":"後平"},
{"zip_code":"3840077","kana_pref":"ﾅｶﾞﾉｹﾝ","kana_city":"ｺﾓﾛｼ","kana_address":"ｵｵｸｲ","pref":"長野県","city":"小諸市","address":"大杭"},
{"zip_code":"3840071","kana_pref":"ﾅｶﾞﾉｹﾝ","kana_city":"ｺﾓﾛｼ","kana_address":"ｵｵｸﾎﾞ","pref":"長野県","city":"小諸市","address":"大久保"},
{"zip_code":"3840031","kana_pref":"ﾅｶﾞﾉｹﾝ","kana_city":"ｺﾓﾛｼ","kana_address":"ｵｵﾃ","pref":"長野県","city":"小諸市","address":"大手"},
{"zip_code":"3840037","kana_pref":"ﾅｶﾞﾉｹﾝ","kana_city":"ｺﾓﾛｼ","kana_address":"ｵｼﾀﾞｼ","pref":"長野県","city":"小諸市","address":"押出"},
{"zip_code":"3840802","kana_pref":"ﾅｶﾞﾉｹﾝ","kana_city":"ｺﾓﾛｼ","kana_address":"ｵﾂ","pref":"長野県","city":"小諸市","address":"乙"},
{"zip_code":"3840004","kana_pref":"ﾅｶﾞﾉｹﾝ","kana_city":"ｺﾓﾛｼ","kana_address":"ｵﾄﾒ","pref":"長野県","city":"小諸市","address":"乙女"},
{"zip_code":"3840055","kana_pref":"ﾅｶﾞﾉｹﾝ","kana_city":"ｺﾓﾛｼ","kana_address":"ｶｼﾜｷﾞ","pref":"長野県","city":"小諸市","address":"柏木"},
{"zip_code":"3840061","kana_pref":"ﾅｶﾞﾉｹﾝ","kana_city":"ｺﾓﾛｼ","kana_address":"ｶﾏｽ","pref":"長野県","city":"小諸市","address":"加増"},
{"zip_code":"3840002","kana_pref":"ﾅｶﾞﾉｹﾝ","kana_city":"ｺﾓﾛｼ","kana_address":"ｶﾗﾏﾂ","pref":"長野県","city":"小諸市","address":"唐松"},
{"zip_code":"3840805","kana_pref":"ﾅｶﾞﾉｹﾝ","kana_city":"ｺﾓﾛｼ","kana_address":"ｷ","pref":"長野県","city":"小諸市","address":"己"},
{"zip_code":"3840076","kana_pref":"ﾅｶﾞﾉｹﾝ","kana_city":"ｺﾓﾛｼ","kana_address":"ｸﾎﾞ","pref":"長野県","city":"小諸市","address":"久保"},
{"zip_code":"3840024","kana_pref":"ﾅｶﾞﾉｹﾝ","kana_city":"ｺﾓﾛｼ","kana_address":"ｸﾏﾉﾄﾞｳ","pref":"長野県","city":"小諸市","address":"熊ノ堂"},
{"zip_code":"3840801","kana_pref":"ﾅｶﾞﾉｹﾝ","kana_city":"ｺﾓﾛｼ","kana_address":"ｺｳ","pref":"長野県","city":"小諸市","address":"甲"},
{"zip_code":"3840032","kana_pref":"ﾅｶﾞﾉｹﾝ","kana_city":"ｺﾓﾛｼ","kana_address":"ｺｼﾞｮｳ","pref":"長野県","city":"小諸市","address":"古城"},
{"zip_code":"3840001","kana_pref":"ﾅｶﾞﾉｹﾝ","kana_city":"ｺﾓﾛｼ","kana_address":"ｺﾊﾞﾗ","pref":"長野県","city":"小諸市","address":"小原"},
{"zip_code":"3840015","kana_pref":"ﾅｶﾞﾉｹﾝ","kana_city":"ｺﾓﾛｼ","kana_address":"ｺﾝﾔﾏﾁ","pref":"長野県","city":"小諸市","address":"紺屋町"},
{"zip_code":"3840018","kana_pref":"ﾅｶﾞﾉｹﾝ","kana_city":"ｺﾓﾛｼ","kana_address":"ｻｶﾉｳｴ","pref":"長野県","city":"小諸市","address":"坂ノ上"},
{"zip_code":"3840806","kana_pref":"ﾅｶﾞﾉｹﾝ","kana_city":"ｺﾓﾛｼ","kana_address":"ｼｵﾉ","pref":"長野県","city":"小諸市","address":"塩野"},
{"zip_code":"3840809","kana_pref":"ﾅｶﾞﾉｹﾝ","kana_city":"ｺﾓﾛｼ","kana_address":"ｼｹﾞﾉｺｳ","pref":"長野県","city":"小諸市","address":"滋野甲"},
{"zip_code":"3840023","kana_pref":"ﾅｶﾞﾉｹﾝ","kana_city":"ｺﾓﾛｼ","kana_address":"ｼﾉﾉﾒ","pref":"長野県","city":"小諸市","address":"東雲"},
{"zip_code":"3840046","kana_pref":"ﾅｶﾞﾉｹﾝ","kana_city":"ｺﾓﾛｼ","kana_address":"ｼﾎﾞｳﾀ","pref":"長野県","city":"小諸市","address":"芝生田"},
{"zip_code":"3840034","kana_pref":"ﾅｶﾞﾉｹﾝ","kana_city":"ｺﾓﾛｼ","kana_address":"ｼﾝﾏﾁ","pref":"長野県","city":"小諸市","address":"新町"},
{"zip_code":"3840082","kana_pref":"ﾅｶﾞﾉｹﾝ","kana_city":"ｺﾓﾛｼ","kana_address":"ｽﾜﾔﾏ","pref":"長野県","city":"小諸市","address":"諏訪山"},
{"zip_code":"3840045","kana_pref":"ﾅｶﾞﾉｹﾝ","kana_city":"ｺﾓﾛｼ","kana_address":"ﾀｷﾊﾞﾗ","pref":"長野県","city":"小諸市","address":"滝原"},
{"zip_code":"3840028","kana_pref":"ﾅｶﾞﾉｹﾝ","kana_city":"ｺﾓﾛｼ","kana_address":"ﾀﾏﾁ","pref":"長野県","city":"小諸市","address":"田町"},
{"zip_code":"3840007","kana_pref":"ﾅｶﾞﾉｹﾝ","kana_city":"ｺﾓﾛｼ","kana_address":"ﾂﾙﾏｷ","pref":"長野県","city":"小諸市","address":"鶴巻"},
{"zip_code":"3840804","kana_pref":"ﾅｶﾞﾉｹﾝ","kana_city":"ｺﾓﾛｼ","kana_address":"ﾃｲ","pref":"長野県","city":"小諸市","address":"丁"},
{"zip_code":"3840072","kana_pref":"ﾅｶﾞﾉｹﾝ","kana_city":"ｺﾓﾛｼ","kana_address":"ﾄｷｸﾎﾞ","pref":"長野県","city":"小諸市","address":"鴇久保"},
{"zip_code":"3840038","kana_pref":"ﾅｶﾞﾉｹﾝ","kana_city":"ｺﾓﾛｼ","kana_address":"ﾄﾁｷﾞ","pref":"長野県","city":"小諸市","address":"栃木"},
{"zip_code":"3840074","kana_pref":"ﾅｶﾞﾉｹﾝ","kana_city":"ｺﾓﾛｼ","kana_address":"ﾆｼｳﾗ","pref":"長野県","city":"小諸市","address":"西浦"},
{"zip_code":"3840044","kana_pref":"ﾅｶﾞﾉｹﾝ","kana_city":"ｺﾓﾛｼ","kana_address":"ﾆｼﾊﾞﾗ","pref":"長野県","city":"小諸市","address":"西原"},
{"zip_code":"3840048","kana_pref":"ﾅｶﾞﾉｹﾝ","kana_city":"ｺﾓﾛｼ","kana_address":"ﾇｶﾁ","pref":"長野県","city":"小諸市","address":"糠地"},
{"zip_code":"3840064","kana_pref":"ﾅｶﾞﾉｹﾝ","kana_city":"ｺﾓﾛｼ","kana_address":"ﾉﾘｾ","pref":"長野県","city":"小諸市","address":"乗瀬"},
{"zip_code":"3840051","kana_pref":"ﾅｶﾞﾉｹﾝ","kana_city":"ｺﾓﾛｼ","kana_address":"ﾊﾁﾏﾝ","pref":"長野県","city":"小諸市","address":"八満"},
{"zip_code":"3840016","kana_pref":"ﾅｶﾞﾉｹﾝ","kana_city":"ｺﾓﾛｼ","kana_address":"ﾊﾁﾏﾝﾁｮｳ","pref":"長野県","city":"小諸市","address":"八幡町"},
{"zip_code":"3840052","kana_pref":"ﾅｶﾞﾉｹﾝ","kana_city":"ｺﾓﾛｼ","kana_address":"ﾋｶﾞｼｸ","pref":"長野県","city":"小諸市","address":"東区"},
{"zip_code":"3840008","kana_pref":"ﾅｶﾞﾉｹﾝ","kana_city":"ｺﾓﾛｼ","kana_address":"ﾋｶﾞｼｺﾓﾛ","pref":"長野県","city":"小諸市","address":"東小諸"},
{"zip_code":"3840003","kana_pref":"ﾅｶﾞﾉｹﾝ","kana_city":"ｺﾓﾛｼ","kana_address":"ﾋｶﾞｼﾔﾏ","pref":"長野県","city":"小諸市","address":"東山"},
{"zip_code":"3840041","kana_pref":"ﾅｶﾞﾉｹﾝ","kana_city":"ｺﾓﾛｼ","kana_address":"ﾋｼﾀﾞｲﾗ","pref":"長野県","city":"小諸市","address":"菱平"},
{"zip_code":"3840094","kana_pref":"ﾅｶﾞﾉｹﾝ","kana_city":"ｺﾓﾛｼ","kana_address":"ﾋﾄﾂﾔ","pref":"長野県","city":"小諸市","address":"一ツ谷"},
{"zip_code":"3840065","kana_pref":"ﾅｶﾞﾉｹﾝ","kana_city":"ｺﾓﾛｼ","kana_address":"ﾋﾊﾞﾘｶﾞｵｶ","pref":"長野県","city":"小諸市","address":"ひばりケ丘"},
{"zip_code":"3840092","kana_pref":"ﾅｶﾞﾉｹﾝ","kana_city":"ｺﾓﾛｼ","kana_address":"ﾋﾗﾊﾗ","pref":"長野県","city":"小諸市","address":"平原"},
{"zip_code":"3840053","kana_pref":"ﾅｶﾞﾉｹﾝ","kana_city":"ｺﾓﾛｼ","kana_address":"ﾌｼﾞﾂｶ","pref":"長野県","city":"小諸市","address":"藤塚"},
{"zip_code":"3840036","kana_pref":"ﾅｶﾞﾉｹﾝ","kana_city":"ｺﾓﾛｼ","kana_address":"ﾌｼﾞﾐﾀﾞｲﾗ","pref":"長野県","city":"小諸市","address":"富士見平"},
{"zip_code":"3840803","kana_pref":"ﾅｶﾞﾉｹﾝ","kana_city":"ｺﾓﾛｼ","kana_address":"ﾍｲ","pref":"長野県","city":"小諸市","address":"丙"},
{"zip_code":"3840026","kana_pref":"ﾅｶﾞﾉｹﾝ","kana_city":"ｺﾓﾛｼ","kana_address":"ﾎﾝﾏﾁ","pref":"長野県","city":"小諸市","address":"本町"},
{"zip_code":"3840022","kana_pref":"ﾅｶﾞﾉｹﾝ","kana_city":"ｺﾓﾛｼ","kana_address":"ﾏﾂｲ","pref":"長野県","city":"小諸市","address":"松井"},
{"zip_code":"3840091","kana_pref":"ﾅｶﾞﾉｹﾝ","kana_city":"ｺﾓﾛｼ","kana_address":"ﾐｶｹﾞ","pref":"長野県","city":"小諸市","address":"御影"},
{"zip_code":"3840808","kana_pref":"ﾅｶﾞﾉｹﾝ","kana_city":"ｺﾓﾛｼ","kana_address":"ﾐｶｹﾞｼﾝﾃﾞﾝ","pref":"長野県","city":"小諸市","address":"御影新田"},
{"zip_code":"3840017","kana_pref":"ﾅｶﾞﾉｹﾝ","kana_city":"ｺﾓﾛｼ","kana_address":"ﾐﾂﾜ","pref":"長野県","city":"小諸市","address":"三和"},
{"zip_code":"3840013","kana_pref":"ﾅｶﾞﾉｹﾝ","kana_city":"ｺﾓﾛｼ","kana_address":"ﾐﾄﾞﾘｶﾞｵｶ","pref":"長野県","city":"小諸市","address":"緑ケ丘"},
{"zip_code":"3840063","kana_pref":"ﾅｶﾞﾉｹﾝ","kana_city":"ｺﾓﾛｼ","kana_address":"ﾐﾅﾐｶﾞﾊﾗ","pref":"長野県","city":"小諸市","address":"南ケ原"},
{"zip_code":"3840012","kana_pref":"ﾅｶﾞﾉｹﾝ","kana_city":"ｺﾓﾛｼ","kana_address":"ﾐﾅﾐﾁｮｳ","pref":"長野県","city":"小諸市","address":"南町"},
{"zip_code":"3840081","kana_pref":"ﾅｶﾞﾉｹﾝ","kana_city":"ｺﾓﾛｼ","kana_address":"ﾐﾏｷｶﾞﾊﾗ","pref":"長野県","city":"小諸市","address":"御牧ケ原"},
{"zip_code":"3840084","kana_pref":"ﾅｶﾞﾉｹﾝ","kana_city":"ｺﾓﾛｼ","kana_address":"ﾐﾐﾄﾘ","pref":"長野県","city":"小諸市","address":"耳取"},
{"zip_code":"3840078","kana_pref":"ﾅｶﾞﾉｹﾝ","kana_city":"ｺﾓﾛｼ","kana_address":"ﾐﾔｻﾞﾜ","pref":"長野県","city":"小諸市","address":"宮沢"},
{"zip_code":"3840005","kana_pref":"ﾅｶﾞﾉｹﾝ","kana_city":"ｺﾓﾛｼ","kana_address":"ﾐﾕｷﾁｮｳ","pref":"長野県","city":"小諸市","address":"御幸町"},
{"zip_code":"3840085","kana_pref":"ﾅｶﾞﾉｹﾝ","kana_city":"ｺﾓﾛｼ","kana_address":"ﾓﾘﾔﾏ","pref":"長野県","city":"小諸市","address":"森山"},
{"zip_code":"3840043","kana_pref":"ﾅｶﾞﾉｹﾝ","kana_city":"ｺﾓﾛｼ","kana_address":"ﾓﾛ","pref":"長野県","city":"小諸市","address":"諸"},
{"zip_code":"3840095","kana_pref":"ﾅｶﾞﾉｹﾝ","kana_city":"ｺﾓﾛｼ","kana_address":"ﾔﾁﾊﾗ","pref":"長野県","city":"小諸市","address":"谷地原"},
{"zip_code":"3840807","kana_pref":"ﾅｶﾞﾉｹﾝ","kana_city":"ｺﾓﾛｼ","kana_address":"ﾔﾏｳﾗ","pref":"長野県","city":"小諸市","address":"山浦"},
{"zip_code":"3840056","kana_pref":"ﾅｶﾞﾉｹﾝ","kana_city":"ｺﾓﾛｼ","kana_address":"ﾖﾂﾔ","pref":"長野県","city":"小諸市","address":"四ツ谷"},
{"zip_code":"3840006","kana_pref":"ﾅｶﾞﾉｹﾝ","kana_city":"ｺﾓﾛｼ","kana_address":"ﾖﾗﾏﾁ","pref":"長野県","city":"小諸市","address":"与良町"},
{"zip_code":"3840035","kana_pref":"ﾅｶﾞﾉｹﾝ","kana_city":"ｺﾓﾛｼ","kana_address":"ﾘｮｳｼﾞﾝ","pref":"長野県","city":"小諸市","address":"両神"},
{"zip_code":"3840027","kana_pref":"ﾅｶﾞﾉｹﾝ","kana_city":"ｺﾓﾛｼ","kana_address":"ﾛｯｸ","pref":"長野県","city":"小諸市","address":"六供"},
{"zip_code":"3840093","kana_pref":"ﾅｶﾞﾉｹﾝ","kana_city":"ｺﾓﾛｼ","kana_address":"ﾜﾀﾞ","pref":"長野県","city":"小諸市","address":"和田"},
{"zip_code":"3840621","kana_pref":"ﾅｶﾞﾉｹﾝ","kana_city":"ｻｸｼ","kana_address":"ｲﾘｻﾜ","pref":"長野県","city":"佐久市","address":"入澤"},
{"zip_code":"3842201","kana_pref":"ﾅｶﾞﾉｹﾝ","kana_city":"ｻｸｼ","kana_address":"ｲﾝﾅｲ","pref":"長野県","city":"佐久市","address":"印内"},
{"zip_code":"3840301","kana_pref":"ﾅｶﾞﾉｹﾝ","kana_city":"ｻｸｼ","kana_address":"ｳｽﾀﾞ","pref":"長野県","city":"佐久市","address":"臼田"},
{"zip_code":"3842205","kana_pref":"ﾅｶﾞﾉｹﾝ","kana_city":"ｻｸｼ","kana_address":"ｶｽｶﾞ","pref":"長野県","city":"佐久市","address":"春日"},
{"zip_code":"3840302","kana_pref":"ﾅｶﾞﾉｹﾝ","kana_city":"ｻｸｼ","kana_address":"ｶﾂﾏ","pref":"長野県","city":"佐久市","address":"勝間"},
{"zip_code":"3840306","kana_pref":"ﾅｶﾞﾉｹﾝ","kana_city":"ｻｸｼ","kana_address":"ｶﾐｵﾀｷﾞﾘ","pref":"長野県","city":"佐久市","address":"上小田切"},
{"zip_code":"3840304","kana_pref":"ﾅｶﾞﾉｹﾝ","kana_city":"ｻｸｼ","kana_address":"ｷﾀｶﾞﾜ","pref":"長野県","city":"佐久市","address":"北川"},
{"zip_code":"3842204","kana_pref":"ﾅｶﾞﾉｹﾝ","kana_city":"ｻｸｼ","kana_address":"ｷｮｳﾜ","pref":"長野県","city":"佐久市","address":"協和"},
{"zip_code":"3840411","kana_pref":"ﾅｶﾞﾉｹﾝ","kana_city":"ｻｸｼ","kana_address":"ｷﾖｶﾜ","pref":"長野県","city":"佐久市","address":"清川"},
{"zip_code":"3842101","kana_pref":"ﾅｶﾞﾉｹﾝ","kana_city":"ｻｸｼ","kana_address":"ｸﾜﾔﾏ","pref":"長野県","city":"佐久市","address":"桑山"},
{"zip_code":"3842104","kana_pref":"ﾅｶﾞﾉｹﾝ","kana_city":"ｻｸｼ","kana_address":"ｺｳ","pref":"長野県","city":"佐久市","address":"甲"},
{"zip_code":"3842102","kana_pref":"ﾅｶﾞﾉｹﾝ","kana_city":"ｻｸｼ","kana_address":"ｼｵﾅﾀﾞ","pref":"長野県","city":"佐久市","address":"塩名田"},
{"zip_code":"3840303","kana_pref":"ﾅｶﾞﾉｹﾝ","kana_city":"ｻｸｼ","kana_address":"ｼﾓｵﾀｷﾞﾘ","pref":"長野県","city":"佐久市","address":"下小田切"},
{"zip_code":"3840414","kana_pref":"ﾅｶﾞﾉｹﾝ","kana_city":"ｻｸｼ","kana_address":"ｼﾓｺﾞｴ","pref":"長野県","city":"佐久市","address":"下越"},
{"zip_code":"3840412","kana_pref":"ﾅｶﾞﾉｹﾝ","kana_city":"ｻｸｼ","kana_address":"ﾀｸﾞﾁ","pref":"長野県","city":"佐久市","address":"田口"},
{"zip_code":"3840305","kana_pref":"ﾅｶﾞﾉｹﾝ","kana_city":"ｻｸｼ","kana_address":"ﾅｶｵﾀｷﾞﾘ","pref":"長野県","city":"佐久市","address":"中小田切"},
{"zip_code":"3840622","kana_pref":"ﾅｶﾞﾉｹﾝ","kana_city":"ｻｸｼ","kana_address":"ﾋﾗﾊﾞﾔｼ","pref":"長野県","city":"佐久市","address":"平林"},
{"zip_code":"3842203","kana_pref":"ﾅｶﾞﾉｹﾝ","kana_city":"ｻｸｼ","kana_address":"ﾌｾ","pref":"長野県","city":"佐久市","address":"布施"},
{"zip_code":"3840413","kana_pref":"ﾅｶﾞﾉｹﾝ","kana_city":"ｻｸｼ","kana_address":"ﾐﾌﾞﾝ","pref":"長野県","city":"佐久市","address":"三分"},
{"zip_code":"3842103","kana_pref":"ﾅｶﾞﾉｹﾝ","kana_city":"ｻｸｼ","kana_address":"ﾐﾏﾖｾ","pref":"長野県","city":"佐久市","address":"御馬寄"},
{"zip_code":"3842206","kana_pref":"ﾅｶﾞﾉｹﾝ","kana_city":"ｻｸｼ","kana_address":"ﾓﾀｲ","pref":"長野県","city":"佐久市","address":"茂田井"},
{"zip_code":"3842202","kana_pref":"ﾅｶﾞﾉｹﾝ","kana_city":"ｻｸｼ","kana_address":"ﾓﾁﾂﾞｷ","pref":"長野県","city":"佐久市","address":"望月"},
{"zip_code":"3842105","kana_pref":"ﾅｶﾞﾉｹﾝ","kana_city":"ｻｸｼ","kana_address":"ﾔｼﾏ","pref":"長野県","city":"佐久市","address":"矢嶋"},
{"zip_code":"3842106","kana_pref":"ﾅｶﾞﾉｹﾝ","kana_city":"ｻｸｼ","kana_address":"ﾔﾜﾀ","pref":"長野県","city":"佐久市","address":"八幡"},
{"zip_code":"3840307","kana_pref":"ﾅｶﾞﾉｹﾝ","kana_city":"ｻｸｼ","kana_address":"ﾕﾊﾗ","pref":"長野県","city":"佐久市","address":"湯原"},
{"zip_code":"3842107","kana_pref":"ﾅｶﾞﾉｹﾝ","kana_city":"ｻｸｼ","kana_address":"ﾖﾓｷﾞﾀﾞ","pref":"長野県","city":"佐久市","address":"蓬田"},
{"zip_code":"3841100","kana_pref":"ﾅｶﾞﾉｹﾝ","kana_city":"ﾐﾅﾐｻｸｸﾞﾝｺｳﾐﾏﾁ","kana_address":"","pref":"長野県","city":"南佐久郡小海町","address":""},
{"zip_code":"3841104","kana_pref":"ﾅｶﾞﾉｹﾝ","kana_city":"ﾐﾅﾐｻｸｸﾞﾝｺｳﾐﾏﾁ","kana_address":"ｲﾅｺ","pref":"長野県","city":"南佐久郡小海町","address":"稲子"},
{"zip_code":"3841102","kana_pref":"ﾅｶﾞﾉｹﾝ","kana_city":"ﾐﾅﾐｻｸｸﾞﾝｺｳﾐﾏﾁ","kana_address":"ｺｳﾐ","pref":"長野県","city":"南佐久郡小海町","address":"小海"},
{"zip_code":"3841105","kana_pref":"ﾅｶﾞﾉｹﾝ","kana_city":"ﾐﾅﾐｻｸｸﾞﾝｺｳﾐﾏﾁ","kana_address":"ﾁﾖｻﾄ","pref":"長野県","city":"南佐久郡小海町","address":"千代里"},
{"zip_code":"3841103","kana_pref":"ﾅｶﾞﾉｹﾝ","kana_city":"ﾐﾅﾐｻｸｸﾞﾝｺｳﾐﾏﾁ","kana_address":"ﾄﾖｻﾄ","pref":"長野県","city":"南佐久郡小海町","address":"豊里"},
{"zip_code":"3841101","kana_pref":"ﾅｶﾞﾉｹﾝ","kana_city":"ﾐﾅﾐｻｸｸﾞﾝｺｳﾐﾏﾁ","kana_address":"ﾋｶﾞｼﾏﾅｶﾞｼ","pref":"長野県","city":"南佐久郡小海町","address":"東馬流"},
{"zip_code":"3841400","kana_pref":"ﾅｶﾞﾉｹﾝ","kana_city":"ﾐﾅﾐｻｸｸﾞﾝｶﾜｶﾐﾑﾗ","kana_address":"","pref":"長野県","city":"南佐久郡川上村","address":""},
{"zip_code":"3841403","kana_pref":"ﾅｶﾞﾉｹﾝ","kana_city":"ﾐﾅﾐｻｸｸﾞﾝｶﾜｶﾐﾑﾗ","kana_address":"ｱｷﾔﾏ","pref":"長野県","city":"南佐久郡川上村","address":"秋山"},
{"zip_code":"3841402","kana_pref":"ﾅｶﾞﾉｹﾝ","kana_city":"ﾐﾅﾐｻｸｸﾞﾝｶﾜｶﾐﾑﾗ","kana_address":"ｱｽﾞｻﾔﾏ","pref":"長野県","city":"南佐久郡川上村","address":"梓山"},
{"zip_code":"3841404","kana_pref":"ﾅｶﾞﾉｹﾝ","kana_city":"ﾐﾅﾐｻｸｸﾞﾝｶﾜｶﾐﾑﾗ","kana_address":"ｲｸﾞﾗ","pref":"長野県","city":"南佐久郡川上村","address":"居倉"},
{"zip_code":"3841405","kana_pref":"ﾅｶﾞﾉｹﾝ","kana_city":"ﾐﾅﾐｻｸｸﾞﾝｶﾜｶﾐﾑﾗ","kana_address":"ｵｵﾐﾔﾏ","pref":"長野県","city":"南佐久郡川上村","address":"大深山"},
{"zip_code":"3841401","kana_pref":"ﾅｶﾞﾉｹﾝ","kana_city":"ﾐﾅﾐｻｸｸﾞﾝｶﾜｶﾐﾑﾗ","kana_address":"ｶﾜﾊｹ","pref":"長野県","city":"南佐久郡川上村","address":"川端下"},
{"zip_code":"3841407","kana_pref":"ﾅｶﾞﾉｹﾝ","kana_city":"ﾐﾅﾐｻｸｸﾞﾝｶﾜｶﾐﾑﾗ","kana_address":"ｺﾞｼｮﾀﾞｲﾗ","pref":"長野県","city":"南佐久郡川上村","address":"御所平"},
{"zip_code":"3841406","kana_pref":"ﾅｶﾞﾉｹﾝ","kana_city":"ﾐﾅﾐｻｸｸﾞﾝｶﾜｶﾐﾑﾗ","kana_address":"ﾊﾗ","pref":"長野県","city":"南佐久郡川上村","address":"原"},
{"zip_code":"3841408","kana_pref":"ﾅｶﾞﾉｹﾝ","kana_city":"ﾐﾅﾐｻｸｸﾞﾝｶﾜｶﾐﾑﾗ","kana_address":"ﾋｻﾜ","pref":"長野県","city":"南佐久郡川上村","address":"樋沢"},
{"zip_code":"3841300","kana_pref":"ﾅｶﾞﾉｹﾝ","kana_city":"ﾐﾅﾐｻｸｸﾞﾝﾐﾅﾐﾏｷﾑﾗ","kana_address":"","pref":"長野県","city":"南佐久郡南牧村","address":""},
{"zip_code":"3841304","kana_pref":"ﾅｶﾞﾉｹﾝ","kana_city":"ﾐﾅﾐｻｸｸﾞﾝﾐﾅﾐﾏｷﾑﾗ","kana_address":"ｲﾀﾊﾞｼ","pref":"長野県","city":"南佐久郡南牧村","address":"板橋"},
{"zip_code":"3841301","kana_pref":"ﾅｶﾞﾉｹﾝ","kana_city":"ﾐﾅﾐｻｸｸﾞﾝﾐﾅﾐﾏｷﾑﾗ","kana_address":"ｳﾐｼﾞﾘ","pref":"長野県","city":"南佐久郡南牧村","address":"海尻"},
{"zip_code":"3841302","kana_pref":"ﾅｶﾞﾉｹﾝ","kana_city":"ﾐﾅﾐｻｸｸﾞﾝﾐﾅﾐﾏｷﾑﾗ","kana_address":"ｳﾐﾉｸﾁ","pref":"長野県","city":"南佐久郡南牧村","address":"海ノ口"},
{"zip_code":"3841305","kana_pref":"ﾅｶﾞﾉｹﾝ","kana_city":"ﾐﾅﾐｻｸｸﾞﾝﾐﾅﾐﾏｷﾑﾗ","kana_address":"ﾉﾍﾞﾔﾏ","pref":"長野県","city":"南佐久郡南牧村","address":"野辺山"},
{"zip_code":"3841306","kana_pref":"ﾅｶﾞﾉｹﾝ","kana_city":"ﾐﾅﾐｻｸｸﾞﾝﾐﾅﾐﾏｷﾑﾗ","kana_address":"ﾋﾗｻﾜ","pref":"長野県","city":"南佐久郡南牧村","address":"平沢"},
{"zip_code":"3841303","kana_pref":"ﾅｶﾞﾉｹﾝ","kana_city":"ﾐﾅﾐｻｸｸﾞﾝﾐﾅﾐﾏｷﾑﾗ","kana_address":"ﾋﾛｾ","pref":"長野県","city":"南佐久郡南牧村","address":"広瀬"},
{"zip_code":"3841211","kana_pref":"ﾅｶﾞﾉｹﾝ","kana_city":"ﾐﾅﾐｻｸｸﾞﾝﾐﾅﾐｱｲｷﾑﾗ","kana_address":"ﾐﾅﾐｱｲｷﾑﾗｲﾁｴﾝ","pref":"長野県","city":"南佐久郡南相木村","address":"南相木村一円"},
{"zip_code":"3841201","kana_pref":"ﾅｶﾞﾉｹﾝ","kana_city":"ﾐﾅﾐｻｸｸﾞﾝｷﾀｱｲｷﾑﾗ","kana_address":"ｷﾀｱｲｷﾑﾗｲﾁｴﾝ","pref":"長野県","city":"南佐久郡北相木村","address":"北相木村一円"},
{"zip_code":"3840600","kana_pref":"ﾅｶﾞﾉｹﾝ","kana_city":"ﾐﾅﾐｻｸｸﾞﾝｻｸﾎﾏﾁ","kana_address":"","pref":"長野県","city":"南佐久郡佐久穂町","address":""},
{"zip_code":"3840502","kana_pref":"ﾅｶﾞﾉｹﾝ","kana_city":"ﾐﾅﾐｻｸｸﾞﾝｻｸﾎﾏﾁ","kana_address":"ｵｵﾋﾅﾀ","pref":"長野県","city":"南佐久郡佐久穂町","address":"大日向"},
{"zip_code":"3840503","kana_pref":"ﾅｶﾞﾉｹﾝ","kana_city":"ﾐﾅﾐｻｸｸﾞﾝｻｸﾎﾏﾁ","kana_address":"ｶｲｾﾞ","pref":"長野県","city":"南佐久郡佐久穂町","address":"海瀬"},
{"zip_code":"3840614","kana_pref":"ﾅｶﾞﾉｹﾝ","kana_city":"ﾐﾅﾐｻｸｸﾞﾝｻｸﾎﾏﾁ","kana_address":"ｶﾐ","pref":"長野県","city":"南佐久郡佐久穂町","address":"上"},
{"zip_code":"3840613","kana_pref":"ﾅｶﾞﾉｹﾝ","kana_city":"ﾐﾅﾐｻｸｸﾞﾝｻｸﾎﾏﾁ","kana_address":"ﾀｶﾉﾏﾁ","pref":"長野県","city":"南佐久郡佐久穂町","address":"高野町"},
{"zip_code":"3840703","kana_pref":"ﾅｶﾞﾉｹﾝ","kana_city":"ﾐﾅﾐｻｸｸﾞﾝｻｸﾎﾏﾁ","kana_address":"ﾁﾖｻﾄ","pref":"長野県","city":"南佐久郡佐久穂町","address":"千代里"},
{"zip_code":"3840701","kana_pref":"ﾅｶﾞﾉｹﾝ","kana_city":"ﾐﾅﾐｻｸｸﾞﾝｻｸﾎﾏﾁ","kana_address":"ﾊﾀ","pref":"長野県","city":"南佐久郡佐久穂町","address":"畑"},
{"zip_code":"3840611","kana_pref":"ﾅｶﾞﾉｹﾝ","kana_city":"ﾐﾅﾐｻｸｸﾞﾝｻｸﾎﾏﾁ","kana_address":"ﾋﾗﾊﾞﾔｼ","pref":"長野県","city":"南佐久郡佐久穂町","address":"平林"},
{"zip_code":"3840702","kana_pref":"ﾅｶﾞﾉｹﾝ","kana_city":"ﾐﾅﾐｻｸｸﾞﾝｻｸﾎﾏﾁ","kana_address":"ﾎﾂﾞﾐ","pref":"長野県","city":"南佐久郡佐久穂町","address":"穂積"},
{"zip_code":"3840704","kana_pref":"ﾅｶﾞﾉｹﾝ","kana_city":"ﾐﾅﾐｻｸｸﾞﾝｻｸﾎﾏﾁ","kana_address":"ﾔｺｵﾘ","pref":"長野県","city":"南佐久郡佐久穂町","address":"八郡"},
{"zip_code":"3840612","kana_pref":"ﾅｶﾞﾉｹﾝ","kana_city":"ﾐﾅﾐｻｸｸﾞﾝｻｸﾎﾏﾁ","kana_address":"ﾔﾄﾞｲﾜ","pref":"長野県","city":"南佐久郡佐久穂町","address":"宿岩"},
{"zip_code":"3840501","kana_pref":"ﾅｶﾞﾉｹﾝ","kana_city":"ﾐﾅﾐｻｸｸﾞﾝｻｸﾎﾏﾁ","kana_address":"ﾖｼﾞ","pref":"長野県","city":"南佐久郡佐久穂町","address":"余地"},
{"zip_code":"3842300","kana_pref":"ﾅｶﾞﾉｹﾝ","kana_city":"ｷﾀｻｸｸﾞﾝﾀﾃｼﾅﾏﾁ","kana_address":"","pref":"長野県","city":"北佐久郡立科町","address":""},
{"zip_code":"3842305","kana_pref":"ﾅｶﾞﾉｹﾝ","kana_city":"ｷﾀｻｸｸﾞﾝﾀﾃｼﾅﾏﾁ","kana_address":"ｱｼﾀﾞ","pref":"長野県","city":"北佐久郡立科町","address":"芦田"},
{"zip_code":"3842309","kana_pref":"ﾅｶﾞﾉｹﾝ","kana_city":"ｷﾀｻｸｸﾞﾝﾀﾃｼﾅﾏﾁ","kana_address":"ｱｼﾀﾞﾊｯｶﾉ","pref":"長野県","city":"北佐久郡立科町","address":"芦田八ケ野"},
{"zip_code":"3842308","kana_pref":"ﾅｶﾞﾉｹﾝ","kana_city":"ｷﾀｻｸｸﾞﾝﾀﾃｼﾅﾏﾁ","kana_address":"ｳｼﾛｸ","pref":"長野県","city":"北佐久郡立科町","address":"牛鹿"},
{"zip_code":"3842306","kana_pref":"ﾅｶﾞﾉｹﾝ","kana_city":"ｷﾀｻｸｸﾞﾝﾀﾃｼﾅﾏﾁ","kana_address":"ｳﾔﾏ","pref":"長野県","city":"北佐久郡立科町","address":"宇山"},
{"zip_code":"3842301","kana_pref":"ﾅｶﾞﾉｹﾝ","kana_city":"ｷﾀｻｸｸﾞﾝﾀﾃｼﾅﾏﾁ","kana_address":"ｷﾘﾊﾗ","pref":"長野県","city":"北佐久郡立科町","address":"桐原"},
{"zip_code":"3842303","kana_pref":"ﾅｶﾞﾉｹﾝ","kana_city":"ｷﾀｻｸｸﾞﾝﾀﾃｼﾅﾏﾁ","kana_address":"ｼｵｻﾜ","pref":"長野県","city":"北佐久郡立科町","address":"塩沢"},
{"zip_code":"3842302","kana_pref":"ﾅｶﾞﾉｹﾝ","kana_city":"ｷﾀｻｸｸﾞﾝﾀﾃｼﾅﾏﾁ","kana_address":"ﾌｼﾞｻﾜ","pref":"長野県","city":"北佐久郡立科町","address":"藤沢"},
{"zip_code":"3842304","kana_pref":"ﾅｶﾞﾉｹﾝ","kana_city":"ｷﾀｻｸｸﾞﾝﾀﾃｼﾅﾏﾁ","kana_address":"ﾓﾀｲ(1-500","pref":"長野県","city":"北佐久郡立科町","address":"茂田井（１〜５００"},
{"zip_code":"3842304","kana_pref":"ﾅｶﾞﾉｹﾝ","kana_city":"ｷﾀｻｸｸﾞﾝﾀﾃｼﾅﾏﾁ","kana_address":"2527-2529","pref":"長野県","city":"北佐久郡立科町","address":"２５２７〜２５２９"},
{"zip_code":"3842304","kana_pref":"ﾅｶﾞﾉｹﾝ","kana_city":"ｷﾀｻｸｸﾞﾝﾀﾃｼﾅﾏﾁ","kana_address":")","pref":"長野県","city":"北佐久郡立科町","address":"）"},
{"zip_code":"3842211","kana_pref":"ﾅｶﾞﾉｹﾝ","kana_city":"ｷﾀｻｸｸﾞﾝﾀﾃｼﾅﾏﾁ","kana_address":"ﾓﾀｲ","pref":"長野県","city":"北佐久郡立科町","address":"茂田井"},
{"zip_code":"3842307","kana_pref":"ﾅｶﾞﾉｹﾝ","kana_city":"ｷﾀｻｸｸﾞﾝﾀﾃｼﾅﾏﾁ","kana_address":"ﾔﾏﾍﾞ","pref":"長野県","city":"北佐久郡立科町","address":"山部"}]}