{"zip_code":[
{"zip_code":"3860000","kana_pref":"ﾅｶﾞﾉｹﾝ","kana_city":"ｳｴﾀﾞｼ","kana_address":"","pref":"長野県","city":"上田市","address":""},
{"zip_code":"3860155","kana_pref":"ﾅｶﾞﾉｹﾝ","kana_city":"ｳｴﾀﾞｼ","kana_address":"ｱｵｸﾎﾞ","pref":"長野県","city":"上田市","address":"蒼久保"},
{"zip_code":"3860041","kana_pref":"ﾅｶﾞﾉｹﾝ","kana_city":"ｳｴﾀﾞｼ","kana_address":"ｱｷﾜ","pref":"長野県","city":"上田市","address":"秋和"},
{"zip_code":"3860411","kana_pref":"ﾅｶﾞﾉｹﾝ","kana_city":"ｳｴﾀﾞｼ","kana_address":"ｲｸﾀ","pref":"長野県","city":"上田市","address":"生田"},
{"zip_code":"3860153","kana_pref":"ﾅｶﾞﾉｹﾝ","kana_city":"ｳｴﾀﾞｼ","kana_address":"ｲﾜｼﾀ","pref":"長野県","city":"上田市","address":"岩下"},
{"zip_code":"3860001","kana_pref":"ﾅｶﾞﾉｹﾝ","kana_city":"ｳｴﾀﾞｼ","kana_address":"ｳｴﾀﾞ","pref":"長野県","city":"上田市","address":"上田"},
{"zip_code":"3861102","kana_pref":"ﾅｶﾞﾉｹﾝ","kana_city":"ｳｴﾀﾞｼ","kana_address":"ｳｴﾀﾞﾊﾗ","pref":"長野県","city":"上田市","address":"上田原"},
{"zip_code":"3860003","kana_pref":"ﾅｶﾞﾉｹﾝ","kana_city":"ｳｴﾀﾞｼ","kana_address":"ｳｴﾉ","pref":"長野県","city":"上田市","address":"上野"},
{"zip_code":"3861546","kana_pref":"ﾅｶﾞﾉｹﾝ","kana_city":"ｳｴﾀﾞｼ","kana_address":"ｳﾗﾉ","pref":"長野県","city":"上田市","address":"浦野"},
{"zip_code":"3860006","kana_pref":"ﾅｶﾞﾉｹﾝ","kana_city":"ｳｴﾀﾞｼ","kana_address":"ｳﾙｼﾄﾞ","pref":"長野県","city":"上田市","address":"漆戸"},
{"zip_code":"3860024","kana_pref":"ﾅｶﾞﾉｹﾝ","kana_city":"ｳｴﾀﾞｼ","kana_address":"ｵｵﾃ","pref":"長野県","city":"上田市","address":"大手"},
{"zip_code":"3860152","kana_pref":"ﾅｶﾞﾉｹﾝ","kana_city":"ｳｴﾀﾞｼ","kana_address":"ｵｵﾔ","pref":"長野県","city":"上田市","address":"大屋"},
{"zip_code":"3861543","kana_pref":"ﾅｶﾞﾉｹﾝ","kana_city":"ｳｴﾀﾞｼ","kana_address":"ｵｶ","pref":"長野県","city":"上田市","address":"岡"},
{"zip_code":"3860323","kana_pref":"ﾅｶﾞﾉｹﾝ","kana_city":"ｳｴﾀﾞｼ","kana_address":"ｶｹﾕｵﾝｾﾝ","pref":"長野県","city":"上田市","address":"鹿教湯温泉"},
{"zip_code":"3861103","kana_pref":"ﾅｶﾞﾉｹﾝ","kana_city":"ｳｴﾀﾞｼ","kana_address":"ｶﾊﾞﾀｹ","pref":"長野県","city":"上田市","address":"神畑"},
{"zip_code":"3861108","kana_pref":"ﾅｶﾞﾉｹﾝ","kana_city":"ｳｴﾀﾞｼ","kana_address":"ｶﾊﾞﾀｹｵﾂ","pref":"長野県","city":"上田市","address":"神畑乙"},
{"zip_code":"3860042","kana_pref":"ﾅｶﾞﾉｹﾝ","kana_city":"ｳｴﾀﾞｼ","kana_address":"ｶﾐｼｵｼﾞﾘ","pref":"長野県","city":"上田市","address":"上塩尻"},
{"zip_code":"3860508","kana_pref":"ﾅｶﾞﾉｹﾝ","kana_city":"ｳｴﾀﾞｼ","kana_address":"ｶﾐﾀｹｼ","pref":"長野県","city":"上田市","address":"上武石"},
{"zip_code":"3860404","kana_pref":"ﾅｶﾞﾉｹﾝ","kana_city":"ｳｴﾀﾞｼ","kana_address":"ｶﾐﾏﾙｺ","pref":"長野県","city":"上田市","address":"上丸子"},
{"zip_code":"3861541","kana_pref":"ﾅｶﾞﾉｹﾝ","kana_city":"ｳｴﾀﾞｼ","kana_address":"ｶﾐﾑﾛｶﾞ","pref":"長野県","city":"上田市","address":"上室賀"},
{"zip_code":"3861213","kana_pref":"ﾅｶﾞﾉｹﾝ","kana_city":"ｳｴﾀﾞｼ","kana_address":"ｺｱｿ","pref":"長野県","city":"上田市","address":"古安曽"},
{"zip_code":"3861106","kana_pref":"ﾅｶﾞﾉｹﾝ","kana_city":"ｳｴﾀﾞｼ","kana_address":"ｺｲｽﾞﾐ","pref":"長野県","city":"上田市","address":"小泉"},
{"zip_code":"3861545","kana_pref":"ﾅｶﾞﾉｹﾝ","kana_city":"ｳｴﾀﾞｼ","kana_address":"ｺｳﾄﾞ","pref":"長野県","city":"上田市","address":"越戸"},
{"zip_code":"3861324","kana_pref":"ﾅｶﾞﾉｹﾝ","kana_city":"ｳｴﾀﾞｼ","kana_address":"ｺﾞｶ","pref":"長野県","city":"上田市","address":"五加"},
{"zip_code":"3860016","kana_pref":"ﾅｶﾞﾉｹﾝ","kana_city":"ｳｴﾀﾞｼ","kana_address":"ｺｸﾌﾞ","pref":"長野県","city":"上田市","address":"国分"},
{"zip_code":"3860005","kana_pref":"ﾅｶﾞﾉｹﾝ","kana_city":"ｳｴﾀﾞｼ","kana_address":"ｺｻﾄ","pref":"長野県","city":"上田市","address":"古里"},
{"zip_code":"3860403","kana_pref":"ﾅｶﾞﾉｹﾝ","kana_city":"ｳｴﾀﾞｼ","kana_address":"ｺｼｺﾞｴ","pref":"長野県","city":"上田市","address":"腰越"},
{"zip_code":"3861322","kana_pref":"ﾅｶﾞﾉｹﾝ","kana_city":"ｳｴﾀﾞｼ","kana_address":"ｺｼﾞﾏ","pref":"長野県","city":"上田市","address":"小島"},
{"zip_code":"3860033","kana_pref":"ﾅｶﾞﾉｹﾝ","kana_city":"ｳｴﾀﾞｼ","kana_address":"ｺﾞｼｮ","pref":"長野県","city":"上田市","address":"御所"},
{"zip_code":"3860031","kana_pref":"ﾅｶﾞﾉｹﾝ","kana_city":"ｳｴﾀﾞｼ","kana_address":"ｺﾏｷ","pref":"長野県","city":"上田市","address":"小牧"},
{"zip_code":"3860014","kana_pref":"ﾅｶﾞﾉｹﾝ","kana_city":"ｳｴﾀﾞｼ","kana_address":"ｻﾞｲﾓｸﾁｮｳ","pref":"長野県","city":"上田市","address":"材木町"},
{"zip_code":"3862201","kana_pref":"ﾅｶﾞﾉｹﾝ","kana_city":"ｳｴﾀﾞｼ","kana_address":"ｻﾅﾀﾞﾏﾁｵｻ","pref":"長野県","city":"上田市","address":"真田町長"},
{"zip_code":"3862203","kana_pref":"ﾅｶﾞﾉｹﾝ","kana_city":"ｳｴﾀﾞｼ","kana_address":"ｻﾅﾀﾞﾏﾁｿｴﾋ","pref":"長野県","city":"上田市","address":"真田町傍陽"},
{"zip_code":"3862202","kana_pref":"ﾅｶﾞﾉｹﾝ","kana_city":"ｳｴﾀﾞｼ","kana_address":"ｻﾅﾀﾞﾏﾁﾓﾄﾊﾗ","pref":"長野県","city":"上田市","address":"真田町本原"},
{"zip_code":"3860401","kana_pref":"ﾅｶﾞﾉｹﾝ","kana_city":"ｳｴﾀﾞｼ","kana_address":"ｼｵｶﾜ","pref":"長野県","city":"上田市","address":"塩川"},
{"zip_code":"3860043","kana_pref":"ﾅｶﾞﾉｹﾝ","kana_city":"ｳｴﾀﾞｼ","kana_address":"ｼﾓｼｵｼﾞﾘ","pref":"長野県","city":"上田市","address":"下塩尻"},
{"zip_code":"3860503","kana_pref":"ﾅｶﾞﾉｹﾝ","kana_city":"ｳｴﾀﾞｼ","kana_address":"ｼﾓﾀｹｼ","pref":"長野県","city":"上田市","address":"下武石"},
{"zip_code":"3861211","kana_pref":"ﾅｶﾞﾉｹﾝ","kana_city":"ｳｴﾀﾞｼ","kana_address":"ｼﾓﾉｺﾞｳ","pref":"長野県","city":"上田市","address":"下之郷"},
{"zip_code":"3861214","kana_pref":"ﾅｶﾞﾉｹﾝ","kana_city":"ｳｴﾀﾞｼ","kana_address":"ｼﾓﾉｺﾞｳｵﾂ","pref":"長野県","city":"上田市","address":"下之郷乙"},
{"zip_code":"3861101","kana_pref":"ﾅｶﾞﾉｹﾝ","kana_city":"ｳｴﾀﾞｼ","kana_address":"ｼﾓﾉｼﾞｮｳ","pref":"長野県","city":"上田市","address":"下之条"},
{"zip_code":"3860406","kana_pref":"ﾅｶﾞﾉｹﾝ","kana_city":"ｳｴﾀﾞｼ","kana_address":"ｼﾓﾏﾙｺ","pref":"長野県","city":"上田市","address":"下丸子"},
{"zip_code":"3861542","kana_pref":"ﾅｶﾞﾉｹﾝ","kana_city":"ｳｴﾀﾞｼ","kana_address":"ｼﾓﾑﾛｶﾞ","pref":"長野県","city":"上田市","address":"下室賀"},
{"zip_code":"3861435","kana_pref":"ﾅｶﾞﾉｹﾝ","kana_city":"ｳｴﾀﾞｼ","kana_address":"ｼﾞｭｳﾆﾝ","pref":"長野県","city":"上田市","address":"十人"},
{"zip_code":"3861434","kana_pref":"ﾅｶﾞﾉｹﾝ","kana_city":"ｳｴﾀﾞｼ","kana_address":"ｼﾝﾏﾁ","pref":"長野県","city":"上田市","address":"新町"},
{"zip_code":"3862204","kana_pref":"ﾅｶﾞﾉｹﾝ","kana_city":"ｳｴﾀﾞｼ","kana_address":"ｽｶﾞﾀﾞｲﾗｺｳｹﾞﾝ","pref":"長野県","city":"上田市","address":"菅平高原"},
{"zip_code":"3860002","kana_pref":"ﾅｶﾞﾉｹﾝ","kana_city":"ｳｴﾀﾞｼ","kana_address":"ｽﾐﾖｼ","pref":"長野県","city":"上田市","address":"住吉"},
{"zip_code":"3860032","kana_pref":"ﾅｶﾞﾉｹﾝ","kana_city":"ｳｴﾀﾞｼ","kana_address":"ｽﾜｶﾞﾀ","pref":"長野県","city":"上田市","address":"諏訪形"},
{"zip_code":"3860502","kana_pref":"ﾅｶﾞﾉｹﾝ","kana_city":"ｳｴﾀﾞｼ","kana_address":"ﾀｹｼｵｷ","pref":"長野県","city":"上田市","address":"武石沖"},
{"zip_code":"3860504","kana_pref":"ﾅｶﾞﾉｹﾝ","kana_city":"ｳｴﾀﾞｼ","kana_address":"ﾀｹｼｵｻﾞﾜﾈ","pref":"長野県","city":"上田市","address":"武石小沢根"},
{"zip_code":"3860507","kana_pref":"ﾅｶﾞﾉｹﾝ","kana_city":"ｳｴﾀﾞｼ","kana_address":"ﾀｹｼｶﾐﾎﾝｲﾘ","pref":"長野県","city":"上田市","address":"武石上本入"},
{"zip_code":"3860506","kana_pref":"ﾅｶﾞﾉｹﾝ","kana_city":"ｳｴﾀﾞｼ","kana_address":"ﾀｹｼｼﾓﾎﾝｲﾘ","pref":"長野県","city":"上田市","address":"武石下本入"},
{"zip_code":"3860501","kana_pref":"ﾅｶﾞﾉｹﾝ","kana_city":"ｳｴﾀﾞｼ","kana_address":"ﾀｹｼﾄﾔ","pref":"長野県","city":"上田市","address":"武石鳥屋"},
{"zip_code":"3860505","kana_pref":"ﾅｶﾞﾉｹﾝ","kana_city":"ｳｴﾀﾞｼ","kana_address":"ﾀｹｼﾖﾘ","pref":"長野県","city":"上田市","address":"武石余里"},
{"zip_code":"3860012","kana_pref":"ﾅｶﾞﾉｹﾝ","kana_city":"ｳｴﾀﾞｼ","kana_address":"ﾁｭｳｵｳ","pref":"長野県","city":"上田市","address":"中央"},
{"zip_code":"3860013","kana_pref":"ﾅｶﾞﾉｹﾝ","kana_city":"ｳｴﾀﾞｼ","kana_address":"ﾁｭｳｵｳﾋｶﾞｼ","pref":"長野県","city":"上田市","address":"中央東"},
{"zip_code":"3860023","kana_pref":"ﾅｶﾞﾉｹﾝ","kana_city":"ｳｴﾀﾞｼ","kana_address":"ﾁｭｳｵｳﾆｼ","pref":"長野県","city":"上田市","address":"中央西"},
{"zip_code":"3860011","kana_pref":"ﾅｶﾞﾉｹﾝ","kana_city":"ｳｴﾀﾞｼ","kana_address":"ﾁｭｳｵｳｷﾀ","pref":"長野県","city":"上田市","address":"中央北"},
{"zip_code":"3861107","kana_pref":"ﾅｶﾞﾉｹﾝ","kana_city":"ｳｴﾀﾞｼ","kana_address":"ﾂｲｼﾞ","pref":"長野県","city":"上田市","address":"築地"},
{"zip_code":"3861433","kana_pref":"ﾅｶﾞﾉｹﾝ","kana_city":"ｳｴﾀﾞｼ","kana_address":"ﾃﾂﾞｶ","pref":"長野県","city":"上田市","address":"手塚"},
{"zip_code":"3860025","kana_pref":"ﾅｶﾞﾉｹﾝ","kana_city":"ｳｴﾀﾞｼ","kana_address":"ﾃﾝｼﾞﾝ","pref":"長野県","city":"上田市","address":"天神"},
{"zip_code":"3860015","kana_pref":"ﾅｶﾞﾉｹﾝ","kana_city":"ｳｴﾀﾞｼ","kana_address":"ﾄｷｲﾘ","pref":"長野県","city":"上田市","address":"常入"},
{"zip_code":"3860018","kana_pref":"ﾅｶﾞﾉｹﾝ","kana_city":"ｳｴﾀﾞｼ","kana_address":"ﾄｷﾀﾞ","pref":"長野県","city":"上田市","address":"常田"},
{"zip_code":"3860027","kana_pref":"ﾅｶﾞﾉｹﾝ","kana_city":"ｳｴﾀﾞｼ","kana_address":"ﾄｷﾜｷﾞ","pref":"長野県","city":"上田市","address":"常磐城"},
{"zip_code":"3860004","kana_pref":"ﾅｶﾞﾉｹﾝ","kana_city":"ｳｴﾀﾞｼ","kana_address":"ﾄﾉｼﾛ","pref":"長野県","city":"上田市","address":"殿城"},
{"zip_code":"3860407","kana_pref":"ﾅｶﾞﾉｹﾝ","kana_city":"ｳｴﾀﾞｼ","kana_address":"ﾅｶﾞｾ","pref":"長野県","city":"上田市","address":"長瀬"},
{"zip_code":"3861325","kana_pref":"ﾅｶﾞﾉｹﾝ","kana_city":"ｳｴﾀﾞｼ","kana_address":"ﾅｶﾉ","pref":"長野県","city":"上田市","address":"中野"},
{"zip_code":"3860034","kana_pref":"ﾅｶﾞﾉｹﾝ","kana_city":"ｳｴﾀﾞｼ","kana_address":"ﾅｶﾉｼﾞｮｳ","pref":"長野県","city":"上田市","address":"中之条"},
{"zip_code":"3860405","kana_pref":"ﾅｶﾞﾉｹﾝ","kana_city":"ｳｴﾀﾞｼ","kana_address":"ﾅｶﾏﾙｺ","pref":"長野県","city":"上田市","address":"中丸子"},
{"zip_code":"3861544","kana_pref":"ﾅｶﾞﾉｹﾝ","kana_city":"ｳｴﾀﾞｼ","kana_address":"ﾆｺﾀﾞ","pref":"長野県","city":"上田市","address":"仁古田"},
{"zip_code":"3860322","kana_pref":"ﾅｶﾞﾉｹﾝ","kana_city":"ｳｴﾀﾞｼ","kana_address":"ﾆｼｳﾁ","pref":"長野県","city":"上田市","address":"西内"},
{"zip_code":"3860026","kana_pref":"ﾅｶﾞﾉｹﾝ","kana_city":"ｳｴﾀﾞｼ","kana_address":"ﾆﾉﾏﾙ","pref":"長野県","city":"上田市","address":"二の丸"},
{"zip_code":"3861437","kana_pref":"ﾅｶﾞﾉｹﾝ","kana_city":"ｳｴﾀﾞｼ","kana_address":"ﾉｸﾞﾗ","pref":"長野県","city":"上田市","address":"野倉"},
{"zip_code":"3860156","kana_pref":"ﾅｶﾞﾉｹﾝ","kana_city":"ｳｴﾀﾞｼ","kana_address":"ﾊﾔｼﾉｺﾞｳ","pref":"長野県","city":"上田市","address":"林之郷"},
{"zip_code":"3860413","kana_pref":"ﾅｶﾞﾉｹﾝ","kana_city":"ｳｴﾀﾞｼ","kana_address":"ﾋｶﾞｼｳﾁ","pref":"長野県","city":"上田市","address":"東内"},
{"zip_code":"3860321","kana_pref":"ﾅｶﾞﾉｹﾝ","kana_city":"ｳｴﾀﾞｼ","kana_address":"ﾋﾗｲ","pref":"長野県","city":"上田市","address":"平井"},
{"zip_code":"3861104","kana_pref":"ﾅｶﾞﾉｹﾝ","kana_city":"ｳｴﾀﾞｼ","kana_address":"ﾌｸﾀ","pref":"長野県","city":"上田市","address":"福田"},
{"zip_code":"3861212","kana_pref":"ﾅｶﾞﾉｹﾝ","kana_city":"ｳｴﾀﾞｼ","kana_address":"ﾌｼﾞﾔﾏ","pref":"長野県","city":"上田市","address":"富士山"},
{"zip_code":"3860402","kana_pref":"ﾅｶﾞﾉｹﾝ","kana_city":"ｳｴﾀﾞｼ","kana_address":"ﾌｼﾞﾜﾗﾀﾞ","pref":"長野県","city":"上田市","address":"藤原田"},
{"zip_code":"3860017","kana_pref":"ﾅｶﾞﾉｹﾝ","kana_city":"ｳｴﾀﾞｼ","kana_address":"ﾌﾐｲﾘ","pref":"長野県","city":"上田市","address":"踏入"},
{"zip_code":"3861431","kana_pref":"ﾅｶﾞﾉｹﾝ","kana_city":"ｳｴﾀﾞｼ","kana_address":"ﾍﾞｯｼｮｵﾝｾﾝ","pref":"長野県","city":"上田市","address":"別所温泉"},
{"zip_code":"3861321","kana_pref":"ﾅｶﾞﾉｹﾝ","kana_city":"ｳｴﾀﾞｼ","kana_address":"ﾎﾔ","pref":"長野県","city":"上田市","address":"保野"},
{"zip_code":"3861323","kana_pref":"ﾅｶﾞﾉｹﾝ","kana_city":"ｳｴﾀﾞｼ","kana_address":"ﾎﾝｺﾞｳ","pref":"長野県","city":"上田市","address":"本郷"},
{"zip_code":"3861326","kana_pref":"ﾅｶﾞﾉｹﾝ","kana_city":"ｳｴﾀﾞｼ","kana_address":"ﾏｲﾀ","pref":"長野県","city":"上田市","address":"舞田"},
{"zip_code":"3861436","kana_pref":"ﾅｶﾞﾉｹﾝ","kana_city":"ｳｴﾀﾞｼ","kana_address":"ﾏｴﾔﾏ","pref":"長野県","city":"上田市","address":"前山"},
{"zip_code":"3860412","kana_pref":"ﾅｶﾞﾉｹﾝ","kana_city":"ｳｴﾀﾞｼ","kana_address":"ﾐﾀｹﾄﾞｳ","pref":"長野県","city":"上田市","address":"御嶽堂"},
{"zip_code":"3860022","kana_pref":"ﾅｶﾞﾉｹﾝ","kana_city":"ｳｴﾀﾞｼ","kana_address":"ﾐﾄﾞﾘｶﾞｵｶ","pref":"長野県","city":"上田市","address":"緑が丘"},
{"zip_code":"3860408","kana_pref":"ﾅｶﾞﾉｹﾝ","kana_city":"ｳｴﾀﾞｼ","kana_address":"ﾓﾄｳﾝﾉ","pref":"長野県","city":"上田市","address":"本海野"},
{"zip_code":"3861327","kana_pref":"ﾅｶﾞﾉｹﾝ","kana_city":"ｳｴﾀﾞｼ","kana_address":"ﾔｷﾞｻﾜ","pref":"長野県","city":"上田市","address":"八木沢"},
{"zip_code":"3861432","kana_pref":"ﾅｶﾞﾉｹﾝ","kana_city":"ｳｴﾀﾞｼ","kana_address":"ﾔﾏﾀﾞ","pref":"長野県","city":"上田市","address":"山田"},
{"zip_code":"3860151","kana_pref":"ﾅｶﾞﾉｹﾝ","kana_city":"ｳｴﾀﾞｼ","kana_address":"ﾖｼﾀﾞ","pref":"長野県","city":"上田市","address":"芳田"},
{"zip_code":"3861105","kana_pref":"ﾅｶﾞﾉｹﾝ","kana_city":"ｳｴﾀﾞｼ","kana_address":"ﾖｼﾀﾞ","pref":"長野県","city":"上田市","address":"吉田"},
{"zip_code":"3862211","kana_pref":"ﾅｶﾞﾉｹﾝ","kana_city":"ｽｻﾞｶｼ","kana_address":"ﾆﾚｲﾁｮｳ","pref":"長野県","city":"須坂市","address":"仁礼町"},
{"zip_code":"3861600","kana_pref":"ﾅｶﾞﾉｹﾝ","kana_city":"ﾁｲｻｶﾞﾀｸﾞﾝｱｵｷﾑﾗ","kana_address":"","pref":"長野県","city":"小県郡青木村","address":""},
{"zip_code":"3861605","kana_pref":"ﾅｶﾞﾉｹﾝ","kana_city":"ﾁｲｻｶﾞﾀｸﾞﾝｱｵｷﾑﾗ","kana_address":"ｵｶﾐ","pref":"長野県","city":"小県郡青木村","address":"夫神"},
{"zip_code":"3861606","kana_pref":"ﾅｶﾞﾉｹﾝ","kana_city":"ﾁｲｻｶﾞﾀｸﾞﾝｱｵｷﾑﾗ","kana_address":"ｸﾂｶｹ","pref":"長野県","city":"小県郡青木村","address":"沓掛"},
{"zip_code":"3861601","kana_pref":"ﾅｶﾞﾉｹﾝ","kana_city":"ﾁｲｻｶﾞﾀｸﾞﾝｱｵｷﾑﾗ","kana_address":"ﾀｻﾞﾜ","pref":"長野県","city":"小県郡青木村","address":"田沢"},
{"zip_code":"3861603","kana_pref":"ﾅｶﾞﾉｹﾝ","kana_city":"ﾁｲｻｶﾞﾀｸﾞﾝｱｵｷﾑﾗ","kana_address":"ﾄｳｺﾞｳ","pref":"長野県","city":"小県郡青木村","address":"当郷"},
{"zip_code":"3861604","kana_pref":"ﾅｶﾞﾉｹﾝ","kana_city":"ﾁｲｻｶﾞﾀｸﾞﾝｱｵｷﾑﾗ","kana_address":"ﾄﾉﾄﾞ","pref":"長野県","city":"小県郡青木村","address":"殿戸"},
{"zip_code":"3861607","kana_pref":"ﾅｶﾞﾉｹﾝ","kana_city":"ﾁｲｻｶﾞﾀｸﾞﾝｱｵｷﾑﾗ","kana_address":"ﾅﾗﾓﾄ","pref":"長野県","city":"小県郡青木村","address":"奈良本"},
{"zip_code":"3861602","kana_pref":"ﾅｶﾞﾉｹﾝ","kana_city":"ﾁｲｻｶﾞﾀｸﾞﾝｱｵｷﾑﾗ","kana_address":"ﾑﾗﾏﾂ","pref":"長野県","city":"小県郡青木村","address":"村松"},
{"zip_code":"3860600","kana_pref":"ﾅｶﾞﾉｹﾝ","kana_city":"ﾁｲｻｶﾞﾀｸﾞﾝﾅｶﾞﾜﾏﾁ","kana_address":"","pref":"長野県","city":"小県郡長和町","address":""},
{"zip_code":"3860601","kana_pref":"ﾅｶﾞﾉｹﾝ","kana_city":"ﾁｲｻｶﾞﾀｸﾞﾝﾅｶﾞﾜﾏﾁ","kana_address":"ﾀﾞｲﾓﾝ","pref":"長野県","city":"小県郡長和町","address":"大門"},
{"zip_code":"3860602","kana_pref":"ﾅｶﾞﾉｹﾝ","kana_city":"ﾁｲｻｶﾞﾀｸﾞﾝﾅｶﾞﾜﾏﾁ","kana_address":"ﾅｶﾞｸﾎﾞ","pref":"長野県","city":"小県郡長和町","address":"長久保"},
{"zip_code":"3860603","kana_pref":"ﾅｶﾞﾉｹﾝ","kana_city":"ﾁｲｻｶﾞﾀｸﾞﾝﾅｶﾞﾜﾏﾁ","kana_address":"ﾌﾙﾏﾁ","pref":"長野県","city":"小県郡長和町","address":"古町"},
{"zip_code":"3860701","kana_pref":"ﾅｶﾞﾉｹﾝ","kana_city":"ﾁｲｻｶﾞﾀｸﾞﾝﾅｶﾞﾜﾏﾁ","kana_address":"ﾜﾀﾞ","pref":"長野県","city":"小県郡長和町","address":"和田"}]}