{"zip_code":[
{"zip_code":"3870000","kana_pref":"ﾅｶﾞﾉｹﾝ","kana_city":"ﾁｸﾏｼ","kana_address":"","pref":"長野県","city":"千曲市","address":""},
{"zip_code":"3870001","kana_pref":"ﾅｶﾞﾉｹﾝ","kana_city":"ﾁｸﾏｼ","kana_address":"ｱﾒﾉﾐﾔ","pref":"長野県","city":"千曲市","address":"雨宮"},
{"zip_code":"3870006","kana_pref":"ﾅｶﾞﾉｹﾝ","kana_city":"ﾁｸﾏｼ","kana_address":"ｱﾜｻ","pref":"長野県","city":"千曲市","address":"粟佐"},
{"zip_code":"3870003","kana_pref":"ﾅｶﾞﾉｹﾝ","kana_city":"ﾁｸﾏｼ","kana_address":"ｲｷｶﾞﾔ","pref":"長野県","city":"千曲市","address":"生萱"},
{"zip_code":"3870021","kana_pref":"ﾅｶﾞﾉｹﾝ","kana_city":"ﾁｸﾏｼ","kana_address":"ｲﾅﾘﾔﾏ","pref":"長野県","city":"千曲市","address":"稲荷山"},
{"zip_code":"3870015","kana_pref":"ﾅｶﾞﾉｹﾝ","kana_city":"ﾁｸﾏｼ","kana_address":"ｲﾓｼﾞﾔ","pref":"長野県","city":"千曲市","address":"鋳物師屋"},
{"zip_code":"3870014","kana_pref":"ﾅｶﾞﾉｹﾝ","kana_city":"ﾁｸﾏｼ","kana_address":"ｳｯｻﾜ","pref":"長野県","city":"千曲市","address":"打沢"},
{"zip_code":"3870013","kana_pref":"ﾅｶﾞﾉｹﾝ","kana_city":"ﾁｸﾏｼ","kana_address":"ｵｼﾞﾏ","pref":"長野県","city":"千曲市","address":"小島"},
{"zip_code":"3870011","kana_pref":"ﾅｶﾞﾉｹﾝ","kana_city":"ﾁｸﾏｼ","kana_address":"ｸｲｾｹ","pref":"長野県","city":"千曲市","address":"杭瀬下"},
{"zip_code":"3870004","kana_pref":"ﾅｶﾞﾉｹﾝ","kana_city":"ﾁｸﾏｼ","kana_address":"ｸﾗｼﾅ","pref":"長野県","city":"千曲市","address":"倉科"},
{"zip_code":"3870024","kana_pref":"ﾅｶﾞﾉｹﾝ","kana_city":"ﾁｸﾏｼ","kana_address":"ｸﾜﾊﾞﾗ","pref":"長野県","city":"千曲市","address":"桑原"},
{"zip_code":"3870012","kana_pref":"ﾅｶﾞﾉｹﾝ","kana_city":"ﾁｸﾏｼ","kana_address":"ｻｸﾗﾄﾞｳ","pref":"長野県","city":"千曲市","address":"桜堂"},
{"zip_code":"3870016","kana_pref":"ﾅｶﾞﾉｹﾝ","kana_city":"ﾁｸﾏｼ","kana_address":"ｼﾞｬｸﾏｸ","pref":"長野県","city":"千曲市","address":"寂蒔"},
{"zip_code":"3870018","kana_pref":"ﾅｶﾞﾉｹﾝ","kana_city":"ﾁｸﾏｼ","kana_address":"ｼﾝﾃﾞﾝ","pref":"長野県","city":"千曲市","address":"新田"},
{"zip_code":"3870002","kana_pref":"ﾅｶﾞﾉｹﾝ","kana_city":"ﾁｸﾏｼ","kana_address":"ﾄﾞｸﾞﾁ","pref":"長野県","city":"千曲市","address":"土口"},
{"zip_code":"3870017","kana_pref":"ﾅｶﾞﾉｹﾝ","kana_city":"ﾁｸﾏｼ","kana_address":"ﾅｶ","pref":"長野県","city":"千曲市","address":"中"},
{"zip_code":"3870022","kana_pref":"ﾅｶﾞﾉｹﾝ","kana_city":"ﾁｸﾏｼ","kana_address":"ﾉﾀｶﾊﾞ","pref":"長野県","city":"千曲市","address":"野高場"},
{"zip_code":"3870005","kana_pref":"ﾅｶﾞﾉｹﾝ","kana_city":"ﾁｸﾏｼ","kana_address":"ﾓﾘ","pref":"長野県","city":"千曲市","address":"森"},
{"zip_code":"3870007","kana_pref":"ﾅｶﾞﾉｹﾝ","kana_city":"ﾁｸﾏｼ","kana_address":"ﾔｼﾛ","pref":"長野県","city":"千曲市","address":"屋代"},
{"zip_code":"3870023","kana_pref":"ﾅｶﾞﾉｹﾝ","kana_city":"ﾁｸﾏｼ","kana_address":"ﾔﾜﾀ","pref":"長野県","city":"千曲市","address":"八幡"}]}