{"zip_code":[
{"zip_code":"3888008","kana_pref":"ﾅｶﾞﾉｹﾝ","kana_city":"ﾅｶﾞﾉｼ","kana_address":"ｶｯｾﾝﾊﾞ","pref":"長野県","city":"長野市","address":"合戦場"},
{"zip_code":"3888004","kana_pref":"ﾅｶﾞﾉｹﾝ","kana_city":"ﾅｶﾞﾉｼ","kana_address":"ｼﾉﾉｲｱｲ","pref":"長野県","city":"長野市","address":"篠ノ井会"},
{"zip_code":"3888015","kana_pref":"ﾅｶﾞﾉｹﾝ","kana_city":"ﾅｶﾞﾉｼ","kana_address":"ｼﾉﾉｲｲｼｶﾜ","pref":"長野県","city":"長野市","address":"篠ノ井石川"},
{"zip_code":"3888016","kana_pref":"ﾅｶﾞﾉｹﾝ","kana_city":"ﾅｶﾞﾉｼ","kana_address":"ｼﾉﾉｲｳﾀﾋﾞ","pref":"長野県","city":"長野市","address":"篠ノ井有旅"},
{"zip_code":"3888006","kana_pref":"ﾅｶﾞﾉｹﾝ","kana_city":"ﾅｶﾞﾉｼ","kana_address":"ｼﾉﾉｲｵﾝﾍﾞｶﾞﾜ","pref":"長野県","city":"長野市","address":"篠ノ井御幣川"},
{"zip_code":"3888019","kana_pref":"ﾅｶﾞﾉｹﾝ","kana_city":"ﾅｶﾞﾉｼ","kana_address":"ｼﾉﾉｲｷﾈﾌﾞﾁ","pref":"長野県","city":"長野市","address":"篠ノ井杵淵"},
{"zip_code":"3888003","kana_pref":"ﾅｶﾞﾉｹﾝ","kana_city":"ﾅｶﾞﾉｼ","kana_address":"ｼﾉﾉｲｺﾓﾘ","pref":"長野県","city":"長野市","address":"篠ノ井小森"},
{"zip_code":"3888014","kana_pref":"ﾅｶﾞﾉｹﾝ","kana_city":"ﾅｶﾞﾉｼ","kana_address":"ｼﾉﾉｲｼｵｻﾞｷ","pref":"長野県","city":"長野市","address":"篠ノ井塩崎"},
{"zip_code":"3888002","kana_pref":"ﾅｶﾞﾉｹﾝ","kana_city":"ﾅｶﾞﾉｼ","kana_address":"ｼﾉﾉｲﾄｳﾌｸｼﾞ","pref":"長野県","city":"長野市","address":"篠ノ井東福寺"},
{"zip_code":"3888018","kana_pref":"ﾅｶﾞﾉｹﾝ","kana_city":"ﾅｶﾞﾉｼ","kana_address":"ｼﾉﾉｲﾆｼﾃﾞﾗｵ","pref":"長野県","city":"長野市","address":"篠ノ井西寺尾"},
{"zip_code":"3888011","kana_pref":"ﾅｶﾞﾉｹﾝ","kana_city":"ﾅｶﾞﾉｼ","kana_address":"ｼﾉﾉｲﾌｾｺﾞﾐｮｳ","pref":"長野県","city":"長野市","address":"篠ノ井布施五明"},
{"zip_code":"3888007","kana_pref":"ﾅｶﾞﾉｹﾝ","kana_city":"ﾅｶﾞﾉｼ","kana_address":"ｼﾉﾉｲﾌｾﾀｶﾀﾞ","pref":"長野県","city":"長野市","address":"篠ノ井布施高田"},
{"zip_code":"3888012","kana_pref":"ﾅｶﾞﾉｹﾝ","kana_city":"ﾅｶﾞﾉｼ","kana_address":"ｼﾉﾉｲﾌﾀﾂﾔﾅｷﾞ","pref":"長野県","city":"長野市","address":"篠ノ井二ツ柳"},
{"zip_code":"3888017","kana_pref":"ﾅｶﾞﾉｹﾝ","kana_city":"ﾅｶﾞﾉｼ","kana_address":"ｼﾉﾉｲﾔﾏﾌﾞｾ","pref":"長野県","city":"長野市","address":"篠ノ井山布施"},
{"zip_code":"3888005","kana_pref":"ﾅｶﾞﾉｹﾝ","kana_city":"ﾅｶﾞﾉｼ","kana_address":"ｼﾉﾉｲﾖｺﾀ","pref":"長野県","city":"長野市","address":"篠ノ井横田"},
{"zip_code":"3888020","kana_pref":"ﾅｶﾞﾉｹﾝ","kana_city":"ﾅｶﾞﾉｼ","kana_address":"ｼﾝﾒｲ","pref":"長野県","city":"長野市","address":"神明"},
{"zip_code":"3888001","kana_pref":"ﾅｶﾞﾉｹﾝ","kana_city":"ﾅｶﾞﾉｼ","kana_address":"ﾋｶﾞｼｻｲﾅﾐ","pref":"長野県","city":"長野市","address":"東犀南"},
{"zip_code":"3888013","kana_pref":"ﾅｶﾞﾉｹﾝ","kana_city":"ﾅｶﾞﾉｼ","kana_address":"ﾐｺﾄｶﾞﾜ","pref":"長野県","city":"長野市","address":"みこと川"}]}