{"zip_code":[
{"zip_code":"3890121","kana_pref":"ｸﾞﾝﾏｹﾝ","kana_city":"ｱﾝﾅｶｼ","kana_address":"ﾏﾂｲﾀﾞﾏﾁﾄｳｹﾞ","pref":"群馬県","city":"安中市","address":"松井田町峠"},
{"zip_code":"3892261","kana_pref":"ﾆｲｶﾞﾀｹﾝ","kana_city":"ﾐｮｳｺｳｼ","kana_address":"ﾀﾙﾓﾄ","pref":"新潟県","city":"妙高市","address":"樽本"},
{"zip_code":"3891104","kana_pref":"ﾅｶﾞﾉｹﾝ","kana_city":"ﾅｶﾞﾉｼ","kana_address":"ﾄﾖﾉﾏﾁｱｻﾉ","pref":"長野県","city":"長野市","address":"豊野町浅野"},
{"zip_code":"3891106","kana_pref":"ﾅｶﾞﾉｹﾝ","kana_city":"ﾅｶﾞﾉｼ","kana_address":"ﾄﾖﾉﾏﾁｲｼ","pref":"長野県","city":"長野市","address":"豊野町石"},
{"zip_code":"3891102","kana_pref":"ﾅｶﾞﾉｹﾝ","kana_city":"ﾅｶﾞﾉｼ","kana_address":"ﾄﾖﾉﾏﾁｵｵｸﾗ","pref":"長野県","city":"長野市","address":"豊野町大倉"},
{"zip_code":"3891103","kana_pref":"ﾅｶﾞﾉｹﾝ","kana_city":"ﾅｶﾞﾉｼ","kana_address":"ﾄﾖﾉﾏﾁｶﾆｻﾜ","pref":"長野県","city":"長野市","address":"豊野町蟹沢"},
{"zip_code":"3891101","kana_pref":"ﾅｶﾞﾉｹﾝ","kana_city":"ﾅｶﾞﾉｼ","kana_address":"ﾄﾖﾉﾏﾁｶﾜﾀﾆ","pref":"長野県","city":"長野市","address":"豊野町川谷"},
{"zip_code":"3891105","kana_pref":"ﾅｶﾞﾉｹﾝ","kana_city":"ﾅｶﾞﾉｼ","kana_address":"ﾄﾖﾉﾏﾁﾄﾖﾉ","pref":"長野県","city":"長野市","address":"豊野町豊野"},
{"zip_code":"3891107","kana_pref":"ﾅｶﾞﾉｹﾝ","kana_city":"ﾅｶﾞﾉｼ","kana_address":"ﾄﾖﾉﾏﾁﾐﾅﾐｺﾞｳ","pref":"長野県","city":"長野市","address":"豊野町南郷"},
{"zip_code":"3892103","kana_pref":"ﾅｶﾞﾉｹﾝ","kana_city":"ﾅｶﾉｼ","kana_address":"ｱﾅﾀﾞ","pref":"長野県","city":"中野市","address":"穴田"},
{"zip_code":"3892102","kana_pref":"ﾅｶﾞﾉｹﾝ","kana_city":"ﾅｶﾉｼ","kana_address":"ｶﾐｲﾏｲ","pref":"長野県","city":"中野市","address":"上今井"},
{"zip_code":"3892371","kana_pref":"ﾅｶﾞﾉｹﾝ","kana_city":"ﾅｶﾉｼ","kana_address":"ﾀｶﾞﾐ","pref":"長野県","city":"中野市","address":"田上"},
{"zip_code":"3892101","kana_pref":"ﾅｶﾞﾉｹﾝ","kana_city":"ﾅｶﾉｼ","kana_address":"ﾄﾖﾂ","pref":"長野県","city":"中野市","address":"豊津"},
{"zip_code":"3892104","kana_pref":"ﾅｶﾞﾉｹﾝ","kana_city":"ﾅｶﾉｼ","kana_address":"ﾅｶﾞｴ","pref":"長野県","city":"中野市","address":"永江"},
{"zip_code":"3892200","kana_pref":"ﾅｶﾞﾉｹﾝ","kana_city":"ｲｲﾔﾏｼ","kana_address":"","pref":"長野県","city":"飯山市","address":""},
{"zip_code":"3892251","kana_pref":"ﾅｶﾞﾉｹﾝ","kana_city":"ｲｲﾔﾏｼ","kana_address":"ｱｻﾋ","pref":"長野県","city":"飯山市","address":"旭"},
{"zip_code":"3892253","kana_pref":"ﾅｶﾞﾉｹﾝ","kana_city":"ｲｲﾔﾏｼ","kana_address":"ｲｲﾔﾏ","pref":"長野県","city":"飯山市","address":"飯山"},
{"zip_code":"3892602","kana_pref":"ﾅｶﾞﾉｹﾝ","kana_city":"ｲｲﾔﾏｼ","kana_address":"ｲﾁﾔﾏ","pref":"長野県","city":"飯山市","address":"一山"},
{"zip_code":"3892415","kana_pref":"ﾅｶﾞﾉｹﾝ","kana_city":"ｲｲﾔﾏｼ","kana_address":"ｵｵｲｹ","pref":"長野県","city":"飯山市","address":"大池"},
{"zip_code":"3892234","kana_pref":"ﾅｶﾞﾉｹﾝ","kana_city":"ｲｲﾔﾏｼ","kana_address":"ｷｼﾞﾏ","pref":"長野県","city":"飯山市","address":"木島"},
{"zip_code":"3892252","kana_pref":"ﾅｶﾞﾉｹﾝ","kana_city":"ｲｲﾔﾏｼ","kana_address":"ｺｻﾞﾜﾗ","pref":"長野県","city":"飯山市","address":"小佐原"},
{"zip_code":"3892418","kana_pref":"ﾅｶﾞﾉｹﾝ","kana_city":"ｲｲﾔﾏｼ","kana_address":"ｺﾄﾌﾞｷ","pref":"長野県","city":"飯山市","address":"寿"},
{"zip_code":"3892235","kana_pref":"ﾅｶﾞﾉｹﾝ","kana_city":"ｲｲﾔﾏｼ","kana_address":"ｻｶｲ","pref":"長野県","city":"飯山市","address":"坂井"},
{"zip_code":"3892255","kana_pref":"ﾅｶﾞﾉｹﾝ","kana_city":"ｲｲﾔﾏｼ","kana_address":"ｼｽﾞﾏ","pref":"長野県","city":"飯山市","address":"静間"},
{"zip_code":"3892232","kana_pref":"ﾅｶﾞﾉｹﾝ","kana_city":"ｲｲﾔﾏｼ","kana_address":"ｼﾓｷｼﾞﾏ","pref":"長野県","city":"飯山市","address":"下木島"},
{"zip_code":"3892242","kana_pref":"ﾅｶﾞﾉｹﾝ","kana_city":"ｲｲﾔﾏｼ","kana_address":"ｿﾉﾜﾀ","pref":"長野県","city":"飯山市","address":"其綿"},
{"zip_code":"3892601","kana_pref":"ﾅｶﾞﾉｹﾝ","kana_city":"ｲｲﾔﾏｼ","kana_address":"ﾃﾙｵｶ","pref":"長野県","city":"飯山市","address":"照岡"},
{"zip_code":"3892413","kana_pref":"ﾅｶﾞﾉｹﾝ","kana_city":"ｲｲﾔﾏｼ","kana_address":"ﾃﾙｻﾄ","pref":"長野県","city":"飯山市","address":"照里"},
{"zip_code":"3892231","kana_pref":"ﾅｶﾞﾉｹﾝ","kana_city":"ｲｲﾔﾏｼ","kana_address":"ﾃﾝｼﾝﾄﾞｳ","pref":"長野県","city":"飯山市","address":"天神堂"},
{"zip_code":"3892412","kana_pref":"ﾅｶﾞﾉｹﾝ","kana_city":"ｲｲﾔﾏｼ","kana_address":"ﾄｷｻﾄ","pref":"長野県","city":"飯山市","address":"常郷"},
{"zip_code":"3892414","kana_pref":"ﾅｶﾞﾉｹﾝ","kana_city":"ｲｲﾔﾏｼ","kana_address":"ﾄｷﾜ","pref":"長野県","city":"飯山市","address":"常盤"},
{"zip_code":"3892258","kana_pref":"ﾅｶﾞﾉｹﾝ","kana_city":"ｲｲﾔﾏｼ","kana_address":"ﾄﾐｸﾗ","pref":"長野県","city":"飯山市","address":"富倉"},
{"zip_code":"3892411","kana_pref":"ﾅｶﾞﾉｹﾝ","kana_city":"ｲｲﾔﾏｼ","kana_address":"ﾄﾖﾀﾞ","pref":"長野県","city":"飯山市","address":"豊田"},
{"zip_code":"3892417","kana_pref":"ﾅｶﾞﾉｹﾝ","kana_city":"ｲｲﾔﾏｼ","kana_address":"ﾅｶｿﾈ","pref":"長野県","city":"飯山市","address":"中曽根"},
{"zip_code":"3892233","kana_pref":"ﾅｶﾞﾉｹﾝ","kana_city":"ｲｲﾔﾏｼ","kana_address":"ﾉｻｶﾀﾞ","pref":"長野県","city":"飯山市","address":"野坂田"},
{"zip_code":"3892256","kana_pref":"ﾅｶﾞﾉｹﾝ","kana_city":"ｲｲﾔﾏｼ","kana_address":"ﾊﾁｽ","pref":"長野県","city":"飯山市","address":"蓮"},
{"zip_code":"3892257","kana_pref":"ﾅｶﾞﾉｹﾝ","kana_city":"ｲｲﾔﾏｼ","kana_address":"ﾏﾀﾞﾗｵｺｳｹﾞﾝ","pref":"長野県","city":"飯山市","address":"斑尾高原"},
{"zip_code":"3892322","kana_pref":"ﾅｶﾞﾉｹﾝ","kana_city":"ｲｲﾔﾏｼ","kana_address":"ﾐｽﾞﾎ","pref":"長野県","city":"飯山市","address":"瑞穂"},
{"zip_code":"3892321","kana_pref":"ﾅｶﾞﾉｹﾝ","kana_city":"ｲｲﾔﾏｼ","kana_address":"ﾐｽﾞﾎﾄﾖ","pref":"長野県","city":"飯山市","address":"瑞穂豊"},
{"zip_code":"3892416","kana_pref":"ﾅｶﾞﾉｹﾝ","kana_city":"ｲｲﾔﾏｼ","kana_address":"ﾐﾄﾞﾘ","pref":"長野県","city":"飯山市","address":"緑"},
{"zip_code":"3892254","kana_pref":"ﾅｶﾞﾉｹﾝ","kana_city":"ｲｲﾔﾏｼ","kana_address":"ﾐﾅﾐﾏﾁ","pref":"長野県","city":"飯山市","address":"南町"},
{"zip_code":"3892244","kana_pref":"ﾅｶﾞﾉｹﾝ","kana_city":"ｲｲﾔﾏｼ","kana_address":"ﾔｽﾀﾞ","pref":"長野県","city":"飯山市","address":"安田"},
{"zip_code":"3892241","kana_pref":"ﾅｶﾞﾉｹﾝ","kana_city":"ｲｲﾔﾏｼ","kana_address":"ﾔﾏｷﾞｼ","pref":"長野県","city":"飯山市","address":"山岸"},
{"zip_code":"3892243","kana_pref":"ﾅｶﾞﾉｹﾝ","kana_city":"ｲｲﾔﾏｼ","kana_address":"ﾖｼ","pref":"長野県","city":"飯山市","address":"吉"},
{"zip_code":"3890823","kana_pref":"ﾅｶﾞﾉｹﾝ","kana_city":"ﾁｸﾏｼ","kana_address":"ｱﾗﾔﾏ","pref":"長野県","city":"千曲市","address":"新山"},
{"zip_code":"3890806","kana_pref":"ﾅｶﾞﾉｹﾝ","kana_city":"ﾁｸﾏｼ","kana_address":"ｲｿﾍﾞ","pref":"長野県","city":"千曲市","address":"磯部"},
{"zip_code":"3890802","kana_pref":"ﾅｶﾞﾉｹﾝ","kana_city":"ﾁｸﾏｼ","kana_address":"ｳﾁｶﾜ","pref":"長野県","city":"千曲市","address":"内川"},
{"zip_code":"3890805","kana_pref":"ﾅｶﾞﾉｹﾝ","kana_city":"ﾁｸﾏｼ","kana_address":"ｶﾐﾄｸﾏ","pref":"長野県","city":"千曲市","address":"上徳間"},
{"zip_code":"3890822","kana_pref":"ﾅｶﾞﾉｹﾝ","kana_city":"ﾁｸﾏｼ","kana_address":"ｶﾐﾔﾏﾀﾞ","pref":"長野県","city":"千曲市","address":"上山田"},
{"zip_code":"3890821","kana_pref":"ﾅｶﾞﾉｹﾝ","kana_city":"ﾁｸﾏｼ","kana_address":"ｶﾐﾔﾏﾀﾞｵﾝｾﾝ","pref":"長野県","city":"千曲市","address":"上山田温泉"},
{"zip_code":"3890801","kana_pref":"ﾅｶﾞﾉｹﾝ","kana_city":"ﾁｸﾏｼ","kana_address":"ｺﾌﾞﾈﾔﾏ","pref":"長野県","city":"千曲市","address":"小船山"},
{"zip_code":"3890811","kana_pref":"ﾅｶﾞﾉｹﾝ","kana_city":"ﾁｸﾏｼ","kana_address":"ｽｻﾞｶ","pref":"長野県","city":"千曲市","address":"須坂"},
{"zip_code":"3890803","kana_pref":"ﾅｶﾞﾉｹﾝ","kana_city":"ﾁｸﾏｼ","kana_address":"ｾﾝﾎﾞﾝﾔﾅｷﾞ","pref":"長野県","city":"千曲市","address":"千本柳"},
{"zip_code":"3890824","kana_pref":"ﾅｶﾞﾉｹﾝ","kana_city":"ﾁｸﾏｼ","kana_address":"ﾁｶﾗｲｼ","pref":"長野県","city":"千曲市","address":"力石"},
{"zip_code":"3890804","kana_pref":"ﾅｶﾞﾉｹﾝ","kana_city":"ﾁｸﾏｼ","kana_address":"ﾄｸﾞﾗ","pref":"長野県","city":"千曲市","address":"戸倉"},
{"zip_code":"3890807","kana_pref":"ﾅｶﾞﾉｹﾝ","kana_city":"ﾁｸﾏｼ","kana_address":"ﾄｸﾞﾗｵﾝｾﾝ","pref":"長野県","city":"千曲市","address":"戸倉温泉"},
{"zip_code":"3890812","kana_pref":"ﾅｶﾞﾉｹﾝ","kana_city":"ﾁｸﾏｼ","kana_address":"ﾊﾈｵ","pref":"長野県","city":"千曲市","address":"羽尾"},
{"zip_code":"3890813","kana_pref":"ﾅｶﾞﾉｹﾝ","kana_city":"ﾁｸﾏｼ","kana_address":"ﾜｶﾐﾔ","pref":"長野県","city":"千曲市","address":"若宮"},
{"zip_code":"3890500","kana_pref":"ﾅｶﾞﾉｹﾝ","kana_city":"ﾄｳﾐｼ","kana_address":"","pref":"長野県","city":"東御市","address":""},
{"zip_code":"3890517","kana_pref":"ﾅｶﾞﾉｹﾝ","kana_city":"ﾄｳﾐｼ","kana_address":"ｱｶﾞﾀ","pref":"長野県","city":"東御市","address":"県"},
{"zip_code":"3890503","kana_pref":"ﾅｶﾞﾉｹﾝ","kana_city":"ﾄｳﾐｼ","kana_address":"ｱﾗﾔ","pref":"長野県","city":"東御市","address":"新屋"},
{"zip_code":"3890404","kana_pref":"ﾅｶﾞﾉｹﾝ","kana_city":"ﾄｳﾐｼ","kana_address":"ｵｵﾋﾅﾀ","pref":"長野県","city":"東御市","address":"大日向"},
{"zip_code":"3890504","kana_pref":"ﾅｶﾞﾉｹﾝ","kana_city":"ﾄｳﾐｼ","kana_address":"ｶｲｾﾞﾝｼﾞ","pref":"長野県","city":"東御市","address":"海善寺"},
{"zip_code":"3890514","kana_pref":"ﾅｶﾞﾉｹﾝ","kana_city":"ﾄｳﾐｼ","kana_address":"ｶｻﾞﾜ","pref":"長野県","city":"東御市","address":"加沢"},
{"zip_code":"3890505","kana_pref":"ﾅｶﾞﾉｹﾝ","kana_city":"ﾄｳﾐｼ","kana_address":"ｶﾉｳ","pref":"長野県","city":"東御市","address":"和"},
{"zip_code":"3890502","kana_pref":"ﾅｶﾞﾉｹﾝ","kana_city":"ﾄｳﾐｼ","kana_address":"ｸﾗｶｹ","pref":"長野県","city":"東御市","address":"鞍掛"},
{"zip_code":"3890519","kana_pref":"ﾅｶﾞﾉｹﾝ","kana_city":"ﾄｳﾐｼ","kana_address":"ｼｵｶﾜ","pref":"長野県","city":"東御市","address":"塩川"},
{"zip_code":"3890513","kana_pref":"ﾅｶﾞﾉｹﾝ","kana_city":"ﾄｳﾐｼ","kana_address":"ｼｹﾞﾉ","pref":"長野県","city":"東御市","address":"滋野"},
{"zip_code":"3890512","kana_pref":"ﾅｶﾞﾉｹﾝ","kana_city":"ﾄｳﾐｼ","kana_address":"ｼｹﾞﾉ","pref":"長野県","city":"東御市","address":"滋野"},
{"zip_code":"3890511","kana_pref":"ﾅｶﾞﾉｹﾝ","kana_city":"ﾄｳﾐｼ","kana_address":"ｼｹﾞﾉ","pref":"長野県","city":"東御市","address":"滋野"},
{"zip_code":"3890401","kana_pref":"ﾅｶﾞﾉｹﾝ","kana_city":"ﾄｳﾐｼ","kana_address":"ｼﾏｶﾞﾜﾗ","pref":"長野県","city":"東御市","address":"島川原"},
{"zip_code":"3890405","kana_pref":"ﾅｶﾞﾉｹﾝ","kana_city":"ﾄｳﾐｼ","kana_address":"ｼﾓﾉｼﾞｮｳ","pref":"長野県","city":"東御市","address":"下之城"},
{"zip_code":"3890516","kana_pref":"ﾅｶﾞﾉｹﾝ","kana_city":"ﾄｳﾐｼ","kana_address":"ﾀﾅｶ","pref":"長野県","city":"東御市","address":"田中"},
{"zip_code":"3890515","kana_pref":"ﾅｶﾞﾉｹﾝ","kana_city":"ﾄｳﾐｼ","kana_address":"ﾄｷﾀﾞ","pref":"長野県","city":"東御市","address":"常田"},
{"zip_code":"3890402","kana_pref":"ﾅｶﾞﾉｹﾝ","kana_city":"ﾄｳﾐｼ","kana_address":"ﾇﾉｼﾀ","pref":"長野県","city":"東御市","address":"布下"},
{"zip_code":"3890506","kana_pref":"ﾅｶﾞﾉｹﾝ","kana_city":"ﾄｳﾐｼ","kana_address":"ﾈﾂ","pref":"長野県","city":"東御市","address":"祢津"},
{"zip_code":"3890407","kana_pref":"ﾅｶﾞﾉｹﾝ","kana_city":"ﾄｳﾐｼ","kana_address":"ﾊｹﾔﾏ","pref":"長野県","city":"東御市","address":"羽毛山"},
{"zip_code":"3890501","kana_pref":"ﾅｶﾞﾉｹﾝ","kana_city":"ﾄｳﾐｼ","kana_address":"ﾐﾊﾘ","pref":"長野県","city":"東御市","address":"新張"},
{"zip_code":"3890403","kana_pref":"ﾅｶﾞﾉｹﾝ","kana_city":"ﾄｳﾐｼ","kana_address":"ﾐﾏｷﾊﾗ","pref":"長野県","city":"東御市","address":"御牧原"},
{"zip_code":"3890518","kana_pref":"ﾅｶﾞﾉｹﾝ","kana_city":"ﾄｳﾐｼ","kana_address":"ﾓﾄｳﾝﾉ","pref":"長野県","city":"東御市","address":"本海野"},
{"zip_code":"3890406","kana_pref":"ﾅｶﾞﾉｹﾝ","kana_city":"ﾄｳﾐｼ","kana_address":"ﾔｴﾊﾗ","pref":"長野県","city":"東御市","address":"八重原"},
{"zip_code":"3890100","kana_pref":"ﾅｶﾞﾉｹﾝ","kana_city":"ｷﾀｻｸｸﾞﾝｶﾙｲｻﾞﾜﾏﾁ","kana_address":"","pref":"長野県","city":"北佐久郡軽井沢町","address":""},
{"zip_code":"3890115","kana_pref":"ﾅｶﾞﾉｹﾝ","kana_city":"ｷﾀｻｸｸﾞﾝｶﾙｲｻﾞﾜﾏﾁ","kana_address":"ｵｲﾜｹ","pref":"長野県","city":"北佐久郡軽井沢町","address":"追分"},
{"zip_code":"3890102","kana_pref":"ﾅｶﾞﾉｹﾝ","kana_city":"ｷﾀｻｸｸﾞﾝｶﾙｲｻﾞﾜﾏﾁ","kana_address":"ｶﾙｲｻﾞﾜ","pref":"長野県","city":"北佐久郡軽井沢町","address":"軽井沢"},
{"zip_code":"3890103","kana_pref":"ﾅｶﾞﾉｹﾝ","kana_city":"ｷﾀｻｸｸﾞﾝｶﾙｲｻﾞﾜﾏﾁ","kana_address":"ｶﾙｲｻﾞﾜ","pref":"長野県","city":"北佐久郡軽井沢町","address":"軽井沢"},
{"zip_code":"3890104","kana_pref":"ﾅｶﾞﾉｹﾝ","kana_city":"ｷﾀｻｸｸﾞﾝｶﾙｲｻﾞﾜﾏﾁ","kana_address":"ｶﾙｲｻﾞﾜﾋｶﾞｼ","pref":"長野県","city":"北佐久郡軽井沢町","address":"軽井沢東"},
{"zip_code":"3890101","kana_pref":"ﾅｶﾞﾉｹﾝ","kana_city":"ｷﾀｻｸｸﾞﾝｶﾙｲｻﾞﾜﾏﾁ","kana_address":"ﾄｳｹﾞﾏﾁ","pref":"長野県","city":"北佐久郡軽井沢町","address":"峠町"},
{"zip_code":"3890112","kana_pref":"ﾅｶﾞﾉｹﾝ","kana_city":"ｷﾀｻｸｸﾞﾝｶﾙｲｻﾞﾜﾏﾁ","kana_address":"ﾅｶｶﾙｲｻﾞﾜ","pref":"長野県","city":"北佐久郡軽井沢町","address":"中軽井沢"},
{"zip_code":"3890111","kana_pref":"ﾅｶﾞﾉｹﾝ","kana_city":"ｷﾀｻｸｸﾞﾝｶﾙｲｻﾞﾜﾏﾁ","kana_address":"ﾅｶﾞｸﾗ","pref":"長野県","city":"北佐久郡軽井沢町","address":"長倉"},
{"zip_code":"3890113","kana_pref":"ﾅｶﾞﾉｹﾝ","kana_city":"ｷﾀｻｸｸﾞﾝｶﾙｲｻﾞﾜﾏﾁ","kana_address":"ﾎｯﾁ","pref":"長野県","city":"北佐久郡軽井沢町","address":"発地"},
{"zip_code":"3890114","kana_pref":"ﾅｶﾞﾉｹﾝ","kana_city":"ｷﾀｻｸｸﾞﾝｶﾙｲｻﾞﾜﾏﾁ","kana_address":"ﾓｻﾞﾜ","pref":"長野県","city":"北佐久郡軽井沢町","address":"茂沢"},
{"zip_code":"3890200","kana_pref":"ﾅｶﾞﾉｹﾝ","kana_city":"ｷﾀｻｸｸﾞﾝﾐﾖﾀﾏﾁ","kana_address":"","pref":"長野県","city":"北佐久郡御代田町","address":""},
{"zip_code":"3890205","kana_pref":"ﾅｶﾞﾉｹﾝ","kana_city":"ｷﾀｻｸｸﾞﾝﾐﾖﾀﾏﾁ","kana_address":"ｵﾓｶﾞｴ","pref":"長野県","city":"北佐久郡御代田町","address":"面替"},
{"zip_code":"3890202","kana_pref":"ﾅｶﾞﾉｹﾝ","kana_city":"ｷﾀｻｸｸﾞﾝﾐﾖﾀﾏﾁ","kana_address":"ｸｻｺﾞｴ","pref":"長野県","city":"北佐久郡御代田町","address":"草越"},
{"zip_code":"3890201","kana_pref":"ﾅｶﾞﾉｹﾝ","kana_city":"ｷﾀｻｸｸﾞﾝﾐﾖﾀﾏﾁ","kana_address":"ｼｵﾉ","pref":"長野県","city":"北佐久郡御代田町","address":"塩野"},
{"zip_code":"3890203","kana_pref":"ﾅｶﾞﾉｹﾝ","kana_city":"ｷﾀｻｸｸﾞﾝﾐﾖﾀﾏﾁ","kana_address":"ﾋﾛﾄ","pref":"長野県","city":"北佐久郡御代田町","address":"広戸"},
{"zip_code":"3890204","kana_pref":"ﾅｶﾞﾉｹﾝ","kana_city":"ｷﾀｻｸｸﾞﾝﾐﾖﾀﾏﾁ","kana_address":"ﾎｳｼｮｳ","pref":"長野県","city":"北佐久郡御代田町","address":"豊昇"},
{"zip_code":"3890207","kana_pref":"ﾅｶﾞﾉｹﾝ","kana_city":"ｷﾀｻｸｸﾞﾝﾐﾖﾀﾏﾁ","kana_address":"ﾏｾｸﾞﾁ","pref":"長野県","city":"北佐久郡御代田町","address":"馬瀬口"},
{"zip_code":"3890206","kana_pref":"ﾅｶﾞﾉｹﾝ","kana_city":"ｷﾀｻｸｸﾞﾝﾐﾖﾀﾏﾁ","kana_address":"ﾐﾖﾀ","pref":"長野県","city":"北佐久郡御代田町","address":"御代田"},
{"zip_code":"3890208","kana_pref":"ﾅｶﾞﾉｹﾝ","kana_city":"ｷﾀｻｸｸﾞﾝﾐﾖﾀﾏﾁ","kana_address":"ﾓｻﾜ","pref":"長野県","city":"北佐久郡御代田町","address":"茂沢"},
{"zip_code":"3890600","kana_pref":"ﾅｶﾞﾉｹﾝ","kana_city":"ﾊﾆｼﾅｸﾞﾝｻｶｷﾏﾁ","kana_address":"","pref":"長野県","city":"埴科郡坂城町","address":""},
{"zip_code":"3890604","kana_pref":"ﾅｶﾞﾉｹﾝ","kana_city":"ﾊﾆｼﾅｸﾞﾝｻｶｷﾏﾁ","kana_address":"ｱﾐｶｹ","pref":"長野県","city":"埴科郡坂城町","address":"網掛"},
{"zip_code":"3890605","kana_pref":"ﾅｶﾞﾉｹﾝ","kana_city":"ﾊﾆｼﾅｸﾞﾝｻｶｷﾏﾁ","kana_address":"ｳﾜﾀﾞｲﾗ","pref":"長野県","city":"埴科郡坂城町","address":"上平"},
{"zip_code":"3890606","kana_pref":"ﾅｶﾞﾉｹﾝ","kana_city":"ﾊﾆｼﾅｸﾞﾝｻｶｷﾏﾁ","kana_address":"ｶﾐｺﾞﾐｮｳ","pref":"長野県","city":"埴科郡坂城町","address":"上五明"},
{"zip_code":"3890601","kana_pref":"ﾅｶﾞﾉｹﾝ","kana_city":"ﾊﾆｼﾅｸﾞﾝｻｶｷﾏﾁ","kana_address":"ｻｶｷ","pref":"長野県","city":"埴科郡坂城町","address":"坂城"},
{"zip_code":"3890602","kana_pref":"ﾅｶﾞﾉｹﾝ","kana_city":"ﾊﾆｼﾅｸﾞﾝｻｶｷﾏﾁ","kana_address":"ﾅｶﾉｼﾞｮｳ","pref":"長野県","city":"埴科郡坂城町","address":"中之条"},
{"zip_code":"3890603","kana_pref":"ﾅｶﾞﾉｹﾝ","kana_city":"ﾊﾆｼﾅｸﾞﾝｻｶｷﾏﾁ","kana_address":"ﾐﾅﾐｼﾞｮｳ","pref":"長野県","city":"埴科郡坂城町","address":"南条"},
{"zip_code":"3892300","kana_pref":"ﾅｶﾞﾉｹﾝ","kana_city":"ｼﾓﾀｶｲｸﾞﾝｷｼﾞﾏﾀﾞｲﾗﾑﾗ","kana_address":"","pref":"長野県","city":"下高井郡木島平村","address":""},
{"zip_code":"3892302","kana_pref":"ﾅｶﾞﾉｹﾝ","kana_city":"ｼﾓﾀｶｲｸﾞﾝｷｼﾞﾏﾀﾞｲﾗﾑﾗ","kana_address":"ｵｳｺﾞｳ","pref":"長野県","city":"下高井郡木島平村","address":"往郷"},
{"zip_code":"3892303","kana_pref":"ﾅｶﾞﾉｹﾝ","kana_city":"ｼﾓﾀｶｲｸﾞﾝｷｼﾞﾏﾀﾞｲﾗﾑﾗ","kana_address":"ｶﾐｷｼﾞﾏ","pref":"長野県","city":"下高井郡木島平村","address":"上木島"},
{"zip_code":"3892301","kana_pref":"ﾅｶﾞﾉｹﾝ","kana_city":"ｼﾓﾀｶｲｸﾞﾝｷｼﾞﾏﾀﾞｲﾗﾑﾗ","kana_address":"ﾎﾀｶ","pref":"長野県","city":"下高井郡木島平村","address":"穂高"},
{"zip_code":"3892500","kana_pref":"ﾅｶﾞﾉｹﾝ","kana_city":"ｼﾓﾀｶｲｸﾞﾝﾉｻﾞﾜｵﾝｾﾝﾑﾗ","kana_address":"","pref":"長野県","city":"下高井郡野沢温泉村","address":""},
{"zip_code":"3892501","kana_pref":"ﾅｶﾞﾉｹﾝ","kana_city":"ｼﾓﾀｶｲｸﾞﾝﾉｻﾞﾜｵﾝｾﾝﾑﾗ","kana_address":"ﾂﾎﾞﾔﾏ","pref":"長野県","city":"下高井郡野沢温泉村","address":"坪山"},
{"zip_code":"3892502","kana_pref":"ﾅｶﾞﾉｹﾝ","kana_city":"ｼﾓﾀｶｲｸﾞﾝﾉｻﾞﾜｵﾝｾﾝﾑﾗ","kana_address":"ﾄﾖｻﾄ","pref":"長野県","city":"下高井郡野沢温泉村","address":"豊郷"},
{"zip_code":"3892612","kana_pref":"ﾅｶﾞﾉｹﾝ","kana_city":"ｼﾓﾀｶｲｸﾞﾝﾉｻﾞﾜｵﾝｾﾝﾑﾗ","kana_address":"ﾅﾅｶﾞﾏｷ","pref":"長野県","city":"下高井郡野沢温泉村","address":"七ケ巻"},
{"zip_code":"3892611","kana_pref":"ﾅｶﾞﾉｹﾝ","kana_city":"ｼﾓﾀｶｲｸﾞﾝﾉｻﾞﾜｵﾝｾﾝﾑﾗ","kana_address":"ﾋｶﾞｼｵｵﾀｷ","pref":"長野県","city":"下高井郡野沢温泉村","address":"東大滝"},
{"zip_code":"3892614","kana_pref":"ﾅｶﾞﾉｹﾝ","kana_city":"ｼﾓﾀｶｲｸﾞﾝﾉｻﾞﾜｵﾝｾﾝﾑﾗ","kana_address":"ﾋﾗﾊﾞﾔｼ","pref":"長野県","city":"下高井郡野沢温泉村","address":"平林"},
{"zip_code":"3892503","kana_pref":"ﾅｶﾞﾉｹﾝ","kana_city":"ｼﾓﾀｶｲｸﾞﾝﾉｻﾞﾜｵﾝｾﾝﾑﾗ","kana_address":"ﾏｴｻﾞｶ","pref":"長野県","city":"下高井郡野沢温泉村","address":"前坂"},
{"zip_code":"3892613","kana_pref":"ﾅｶﾞﾉｹﾝ","kana_city":"ｼﾓﾀｶｲｸﾞﾝﾉｻﾞﾜｵﾝｾﾝﾑﾗ","kana_address":"ﾑｼｳ","pref":"長野県","city":"下高井郡野沢温泉村","address":"虫生"},
{"zip_code":"3891300","kana_pref":"ﾅｶﾞﾉｹﾝ","kana_city":"ｶﾐﾐﾉﾁｸﾞﾝｼﾅﾉﾏﾁ","kana_address":"","pref":"長野県","city":"上水内郡信濃町","address":""},
{"zip_code":"3891311","kana_pref":"ﾅｶﾞﾉｹﾝ","kana_city":"ｶﾐﾐﾉﾁｸﾞﾝｼﾅﾉﾏﾁ","kana_address":"ｱﾗｾﾊﾞﾗ","pref":"長野県","city":"上水内郡信濃町","address":"荒瀬原"},
{"zip_code":"3891316","kana_pref":"ﾅｶﾞﾉｹﾝ","kana_city":"ｶﾐﾐﾉﾁｸﾞﾝｼﾅﾉﾏﾁ","kana_address":"ｵｵｲ","pref":"長野県","city":"上水内郡信濃町","address":"大井"},
{"zip_code":"3891305","kana_pref":"ﾅｶﾞﾉｹﾝ","kana_city":"ｶﾐﾐﾉﾁｸﾞﾝｼﾅﾉﾏﾁ","kana_address":"ｶｼﾜﾊﾞﾗ","pref":"長野県","city":"上水内郡信濃町","address":"柏原"},
{"zip_code":"3891304","kana_pref":"ﾅｶﾞﾉｹﾝ","kana_city":"ｶﾐﾐﾉﾁｸﾞﾝｼﾅﾉﾏﾁ","kana_address":"ｶﾐﾔﾏｺｸｻｲﾑﾗ","pref":"長野県","city":"上水内郡信濃町","address":"神山国際村"},
{"zip_code":"3891301","kana_pref":"ﾅｶﾞﾉｹﾝ","kana_city":"ｶﾐﾐﾉﾁｸﾞﾝｼﾅﾉﾏﾁ","kana_address":"ｸﾏｻｶ","pref":"長野県","city":"上水内郡信濃町","address":"熊坂"},
{"zip_code":"3891312","kana_pref":"ﾅｶﾞﾉｹﾝ","kana_city":"ｶﾐﾐﾉﾁｸﾞﾝｼﾅﾉﾏﾁ","kana_address":"ﾄﾐﾉ","pref":"長野県","city":"上水内郡信濃町","address":"富濃"},
{"zip_code":"3891303","kana_pref":"ﾅｶﾞﾉｹﾝ","kana_city":"ｶﾐﾐﾉﾁｸﾞﾝｼﾅﾉﾏﾁ","kana_address":"ﾉｼﾞﾘ","pref":"長野県","city":"上水内郡信濃町","address":"野尻"},
{"zip_code":"3891306","kana_pref":"ﾅｶﾞﾉｹﾝ","kana_city":"ｶﾐﾐﾉﾁｸﾞﾝｼﾅﾉﾏﾁ","kana_address":"ﾉｼﾞﾘ","pref":"長野県","city":"上水内郡信濃町","address":"野尻"},
{"zip_code":"3891315","kana_pref":"ﾅｶﾞﾉｹﾝ","kana_city":"ｶﾐﾐﾉﾁｸﾞﾝｼﾅﾉﾏﾁ","kana_address":"ﾋﾗｵｶ","pref":"長野県","city":"上水内郡信濃町","address":"平岡"},
{"zip_code":"3891313","kana_pref":"ﾅｶﾞﾉｹﾝ","kana_city":"ｶﾐﾐﾉﾁｸﾞﾝｼﾅﾉﾏﾁ","kana_address":"ﾌﾙﾏ","pref":"長野県","city":"上水内郡信濃町","address":"古間"},
{"zip_code":"3891302","kana_pref":"ﾅｶﾞﾉｹﾝ","kana_city":"ｶﾐﾐﾉﾁｸﾞﾝｼﾅﾉﾏﾁ","kana_address":"ﾌﾙﾐ","pref":"長野県","city":"上水内郡信濃町","address":"古海"},
{"zip_code":"3891314","kana_pref":"ﾅｶﾞﾉｹﾝ","kana_city":"ｶﾐﾐﾉﾁｸﾞﾝｼﾅﾉﾏﾁ","kana_address":"ﾎﾅﾐ","pref":"長野県","city":"上水内郡信濃町","address":"穂波"},
{"zip_code":"3891200","kana_pref":"ﾅｶﾞﾉｹﾝ","kana_city":"ｶﾐﾐﾉﾁｸﾞﾝｲｲﾂﾞﾅﾏﾁ","kana_address":"","pref":"長野県","city":"上水内郡飯綱町","address":""},
{"zip_code":"3891203","kana_pref":"ﾅｶﾞﾉｹﾝ","kana_city":"ｶﾐﾐﾉﾁｸﾞﾝｲｲﾂﾞﾅﾏﾁ","kana_address":"ｱｶｼｵ","pref":"長野県","city":"上水内郡飯綱町","address":"赤塩"},
{"zip_code":"3891201","kana_pref":"ﾅｶﾞﾉｹﾝ","kana_city":"ｶﾐﾐﾉﾁｸﾞﾝｲｲﾂﾞﾅﾏﾁ","kana_address":"ｲﾓｶﾞﾜ","pref":"長野県","city":"上水内郡飯綱町","address":"芋川"},
{"zip_code":"3891226","kana_pref":"ﾅｶﾞﾉｹﾝ","kana_city":"ｶﾐﾐﾉﾁｸﾞﾝｲｲﾂﾞﾅﾏﾁ","kana_address":"ｶﾜｶﾐ","pref":"長野県","city":"上水内郡飯綱町","address":"川上"},
{"zip_code":"3891205","kana_pref":"ﾅｶﾞﾉｹﾝ","kana_city":"ｶﾐﾐﾉﾁｸﾞﾝｲｲﾂﾞﾅﾏﾁ","kana_address":"ｶﾜﾀﾆ","pref":"長野県","city":"上水内郡飯綱町","address":"川谷"},
{"zip_code":"3891204","kana_pref":"ﾅｶﾞﾉｹﾝ","kana_city":"ｶﾐﾐﾉﾁｸﾞﾝｲｲﾂﾞﾅﾏﾁ","kana_address":"ｸﾗｲ","pref":"長野県","city":"上水内郡飯綱町","address":"倉井"},
{"zip_code":"3891214","kana_pref":"ﾅｶﾞﾉｹﾝ","kana_city":"ｶﾐﾐﾉﾁｸﾞﾝｲｲﾂﾞﾅﾏﾁ","kana_address":"ｸﾛｶﾜ","pref":"長野県","city":"上水内郡飯綱町","address":"黒川"},
{"zip_code":"3891227","kana_pref":"ﾅｶﾞﾉｹﾝ","kana_city":"ｶﾐﾐﾉﾁｸﾞﾝｲｲﾂﾞﾅﾏﾁ","kana_address":"ｺｳｻｶ","pref":"長野県","city":"上水内郡飯綱町","address":"高坂"},
{"zip_code":"3891215","kana_pref":"ﾅｶﾞﾉｹﾝ","kana_city":"ｶﾐﾐﾉﾁｸﾞﾝｲｲﾂﾞﾅﾏﾁ","kana_address":"ｺﾀﾞﾏ","pref":"長野県","city":"上水内郡飯綱町","address":"小玉"},
{"zip_code":"3891225","kana_pref":"ﾅｶﾞﾉｹﾝ","kana_city":"ｶﾐﾐﾉﾁｸﾞﾝｲｲﾂﾞﾅﾏﾁ","kana_address":"ｻｶｸﾞﾁ","pref":"長野県","city":"上水内郡飯綱町","address":"坂口"},
{"zip_code":"3891224","kana_pref":"ﾅｶﾞﾉｹﾝ","kana_city":"ｶﾐﾐﾉﾁｸﾞﾝｲｲﾂﾞﾅﾏﾁ","kana_address":"ｼﾞｿﾞｳｸﾎﾞ","pref":"長野県","city":"上水内郡飯綱町","address":"地蔵久保"},
{"zip_code":"3891223","kana_pref":"ﾅｶﾞﾉｹﾝ","kana_city":"ｶﾐﾐﾉﾁｸﾞﾝｲｲﾂﾞﾅﾏﾁ","kana_address":"ｿﾃﾞﾉﾔﾏ","pref":"長野県","city":"上水内郡飯綱町","address":"袖之山"},
{"zip_code":"3891212","kana_pref":"ﾅｶﾞﾉｹﾝ","kana_city":"ｶﾐﾐﾉﾁｸﾞﾝｲｲﾂﾞﾅﾏﾁ","kana_address":"ﾄﾖﾉ","pref":"長野県","city":"上水内郡飯綱町","address":"豊野"},
{"zip_code":"3891202","kana_pref":"ﾅｶﾞﾉｹﾝ","kana_city":"ｶﾐﾐﾉﾁｸﾞﾝｲｲﾂﾞﾅﾏﾁ","kana_address":"ﾋｶﾞｼｶｼﾜﾊﾞﾗ","pref":"長野県","city":"上水内郡飯綱町","address":"東柏原"},
{"zip_code":"3891213","kana_pref":"ﾅｶﾞﾉｹﾝ","kana_city":"ｶﾐﾐﾉﾁｸﾞﾝｲｲﾂﾞﾅﾏﾁ","kana_address":"ﾋﾗｲﾃﾞ","pref":"長野県","city":"上水内郡飯綱町","address":"平出"},
{"zip_code":"3891206","kana_pref":"ﾅｶﾞﾉｹﾝ","kana_city":"ｶﾐﾐﾉﾁｸﾞﾝｲｲﾂﾞﾅﾏﾁ","kana_address":"ﾌｺｳｼﾞ","pref":"長野県","city":"上水内郡飯綱町","address":"普光寺"},
{"zip_code":"3891221","kana_pref":"ﾅｶﾞﾉｹﾝ","kana_city":"ｶﾐﾐﾉﾁｸﾞﾝｲｲﾂﾞﾅﾏﾁ","kana_address":"ﾌﾙﾏﾁ","pref":"長野県","city":"上水内郡飯綱町","address":"古町"},
{"zip_code":"3891211","kana_pref":"ﾅｶﾞﾉｹﾝ","kana_city":"ｶﾐﾐﾉﾁｸﾞﾝｲｲﾂﾞﾅﾏﾁ","kana_address":"ﾑﾚ","pref":"長野県","city":"上水内郡飯綱町","address":"牟礼"},
{"zip_code":"3891222","kana_pref":"ﾅｶﾞﾉｹﾝ","kana_city":"ｶﾐﾐﾉﾁｸﾞﾝｲｲﾂﾞﾅﾏﾁ","kana_address":"ﾔﾅｷﾞｻﾄ","pref":"長野県","city":"上水内郡飯綱町","address":"柳里"},
{"zip_code":"3892700","kana_pref":"ﾅｶﾞﾉｹﾝ","kana_city":"ｼﾓﾐﾉﾁｸﾞﾝｻｶｴﾑﾗ","kana_address":"","pref":"長野県","city":"下水内郡栄村","address":""},
{"zip_code":"3892703","kana_pref":"ﾅｶﾞﾉｹﾝ","kana_city":"ｼﾓﾐﾉﾁｸﾞﾝｻｶｴﾑﾗ","kana_address":"ｻｶｲ","pref":"長野県","city":"下水内郡栄村","address":"堺"},
{"zip_code":"3892701","kana_pref":"ﾅｶﾞﾉｹﾝ","kana_city":"ｼﾓﾐﾉﾁｸﾞﾝｻｶｴﾑﾗ","kana_address":"ﾄﾖｻｶｴ","pref":"長野県","city":"下水内郡栄村","address":"豊栄"},
{"zip_code":"3892702","kana_pref":"ﾅｶﾞﾉｹﾝ","kana_city":"ｼﾓﾐﾉﾁｸﾞﾝｻｶｴﾑﾗ","kana_address":"ﾎｸｼﾝ","pref":"長野県","city":"下水内郡栄村","address":"北信"}]}