{"zip_code":[
{"zip_code":"3900812","kana_pref":"ﾅｶﾞﾉｹﾝ","kana_city":"ﾏﾂﾓﾄｼ","kana_address":"ｱｶﾞﾀ","pref":"長野県","city":"松本市","address":"県"},
{"zip_code":"3900802","kana_pref":"ﾅｶﾞﾉｹﾝ","kana_city":"ﾏﾂﾓﾄｼ","kana_address":"ｱｻﾋ","pref":"長野県","city":"松本市","address":"旭"},
{"zip_code":"3900303","kana_pref":"ﾅｶﾞﾉｹﾝ","kana_city":"ﾏﾂﾓﾄｼ","kana_address":"ｱｻﾏｵﾝｾﾝ","pref":"長野県","city":"松本市","address":"浅間温泉"},
{"zip_code":"3901702","kana_pref":"ﾅｶﾞﾉｹﾝ","kana_city":"ﾏﾂﾓﾄｼ","kana_address":"ｱｽﾞｻｶﾞﾜｱｽﾞｻ","pref":"長野県","city":"松本市","address":"梓川梓"},
{"zip_code":"3901703","kana_pref":"ﾅｶﾞﾉｹﾝ","kana_city":"ﾏﾂﾓﾄｼ","kana_address":"ｱｽﾞｻｶﾞﾜｳｴﾉ","pref":"長野県","city":"松本市","address":"梓川上野"},
{"zip_code":"3901701","kana_pref":"ﾅｶﾞﾉｹﾝ","kana_city":"ﾏﾂﾓﾄｼ","kana_address":"ｱｽﾞｻｶﾞﾜﾔﾏﾄ","pref":"長野県","city":"松本市","address":"梓川倭"},
{"zip_code":"3901504","kana_pref":"ﾅｶﾞﾉｹﾝ","kana_city":"ﾏﾂﾓﾄｼ","kana_address":"ｱﾂﾞﾐ","pref":"長野県","city":"松本市","address":"安曇"},
{"zip_code":"3901501","kana_pref":"ﾅｶﾞﾉｹﾝ","kana_city":"ﾏﾂﾓﾄｼ","kana_address":"ｱﾂﾞﾐ","pref":"長野県","city":"松本市","address":"安曇"},
{"zip_code":"3901516","kana_pref":"ﾅｶﾞﾉｹﾝ","kana_city":"ﾏﾂﾓﾄｼ","kana_address":"ｱﾂﾞﾐ","pref":"長野県","city":"松本市","address":"安曇"},
{"zip_code":"3901514","kana_pref":"ﾅｶﾞﾉｹﾝ","kana_city":"ﾏﾂﾓﾄｼ","kana_address":"ｱﾂﾞﾐ","pref":"長野県","city":"松本市","address":"安曇"},
{"zip_code":"3901502","kana_pref":"ﾅｶﾞﾉｹﾝ","kana_city":"ﾏﾂﾓﾄｼ","kana_address":"ｱﾂﾞﾐ","pref":"長野県","city":"松本市","address":"安曇"},
{"zip_code":"3901515","kana_pref":"ﾅｶﾞﾉｹﾝ","kana_city":"ﾏﾂﾓﾄｼ","kana_address":"ｱﾂﾞﾐ","pref":"長野県","city":"松本市","address":"安曇"},
{"zip_code":"3901513","kana_pref":"ﾅｶﾞﾉｹﾝ","kana_city":"ﾏﾂﾓﾄｼ","kana_address":"ｱﾂﾞﾐ","pref":"長野県","city":"松本市","address":"安曇"},
{"zip_code":"3901511","kana_pref":"ﾅｶﾞﾉｹﾝ","kana_city":"ﾏﾂﾓﾄｼ","kana_address":"ｱﾂﾞﾐ","pref":"長野県","city":"松本市","address":"安曇"},
{"zip_code":"3901512","kana_pref":"ﾅｶﾞﾉｹﾝ","kana_city":"ﾏﾂﾓﾄｼ","kana_address":"ｱﾂﾞﾐ","pref":"長野県","city":"松本市","address":"安曇"},
{"zip_code":"3901503","kana_pref":"ﾅｶﾞﾉｹﾝ","kana_city":"ﾏﾂﾓﾄｼ","kana_address":"ｱﾂﾞﾐ","pref":"長野県","city":"松本市","address":"安曇"},
{"zip_code":"3901506","kana_pref":"ﾅｶﾞﾉｹﾝ","kana_city":"ﾏﾂﾓﾄｼ","kana_address":"ｱﾂﾞﾐ","pref":"長野県","city":"松本市","address":"安曇"},
{"zip_code":"3901507","kana_pref":"ﾅｶﾞﾉｹﾝ","kana_city":"ﾏﾂﾓﾄｼ","kana_address":"ｱﾂﾞﾐ","pref":"長野県","city":"松本市","address":"安曇"},
{"zip_code":"3901520","kana_pref":"ﾅｶﾞﾉｹﾝ","kana_city":"ﾏﾂﾓﾄｼ","kana_address":"ｱﾂﾞﾐ","pref":"長野県","city":"松本市","address":"安曇"},
{"zip_code":"3900861","kana_pref":"ﾅｶﾞﾉｹﾝ","kana_city":"ﾏﾂﾓﾄｼ","kana_address":"ｱﾘｶﾞｻｷ","pref":"長野県","city":"松本市","address":"蟻ケ崎"},
{"zip_code":"3900867","kana_pref":"ﾅｶﾞﾉｹﾝ","kana_city":"ﾏﾂﾓﾄｼ","kana_address":"ｱﾘｶﾞｻｷﾀﾞｲ","pref":"長野県","city":"松本市","address":"蟻ケ崎台"},
{"zip_code":"3900831","kana_pref":"ﾅｶﾞﾉｹﾝ","kana_city":"ﾏﾂﾓﾄｼ","kana_address":"ｲｶﾞﾜｼﾞｮｳ","pref":"長野県","city":"松本市","address":"井川城"},
{"zip_code":"3900845","kana_pref":"ﾅｶﾞﾉｹﾝ","kana_city":"ﾏﾂﾓﾄｼ","kana_address":"ｲｼｼﾊﾞ","pref":"長野県","city":"松本市","address":"石芝"},
{"zip_code":"3900827","kana_pref":"ﾅｶﾞﾉｹﾝ","kana_city":"ﾏﾂﾓﾄｼ","kana_address":"ｲﾃﾞｶﾞﾜ","pref":"長野県","city":"松本市","address":"出川"},
{"zip_code":"3900826","kana_pref":"ﾅｶﾞﾉｹﾝ","kana_city":"ﾏﾂﾓﾄｼ","kana_address":"ｲﾃﾞｶﾞﾜﾏﾁ","pref":"長野県","city":"松本市","address":"出川町"},
{"zip_code":"3901131","kana_pref":"ﾅｶﾞﾉｹﾝ","kana_city":"ﾏﾂﾓﾄｼ","kana_address":"ｲﾏｲ","pref":"長野県","city":"松本市","address":"今井"},
{"zip_code":"3900222","kana_pref":"ﾅｶﾞﾉｹﾝ","kana_city":"ﾏﾂﾓﾄｼ","kana_address":"ｲﾘﾔﾏﾍﾞ","pref":"長野県","city":"松本市","address":"入山辺"},
{"zip_code":"3900813","kana_pref":"ﾅｶﾞﾉｹﾝ","kana_city":"ﾏﾂﾓﾄｼ","kana_address":"ｳｽﾞﾊｼ","pref":"長野県","city":"松本市","address":"埋橋"},
{"zip_code":"3900874","kana_pref":"ﾅｶﾞﾉｹﾝ","kana_city":"ﾏﾂﾓﾄｼ","kana_address":"ｵｵﾃ","pref":"長野県","city":"松本市","address":"大手"},
{"zip_code":"3900304","kana_pref":"ﾅｶﾞﾉｹﾝ","kana_city":"ﾏﾂﾓﾄｼ","kana_address":"ｵｵﾑﾗ","pref":"長野県","city":"松本市","address":"大村"},
{"zip_code":"3900314","kana_pref":"ﾅｶﾞﾉｹﾝ","kana_city":"ﾏﾂﾓﾄｼ","kana_address":"ｵｶﾀﾞｲﾌﾞｶ","pref":"長野県","city":"松本市","address":"岡田伊深"},
{"zip_code":"3900313","kana_pref":"ﾅｶﾞﾉｹﾝ","kana_city":"ﾏﾂﾓﾄｼ","kana_address":"ｵｶﾀﾞｼﾓｵｶﾀﾞ","pref":"長野県","city":"松本市","address":"岡田下岡田"},
{"zip_code":"3900315","kana_pref":"ﾅｶﾞﾉｹﾝ","kana_city":"ﾏﾂﾓﾄｼ","kana_address":"ｵｶﾀﾞﾏﾁ","pref":"長野県","city":"松本市","address":"岡田町"},
{"zip_code":"3900312","kana_pref":"ﾅｶﾞﾉｹﾝ","kana_city":"ﾏﾂﾓﾄｼ","kana_address":"ｵｶﾀﾞﾏﾂｵｶ","pref":"長野県","city":"松本市","address":"岡田松岡"},
{"zip_code":"3900876","kana_pref":"ﾅｶﾞﾉｹﾝ","kana_city":"ﾏﾂﾓﾄｼ","kana_address":"ｶｲﾁ","pref":"長野県","city":"松本市","address":"開智"},
{"zip_code":"3900837","kana_pref":"ﾅｶﾞﾉｹﾝ","kana_city":"ﾏﾂﾓﾄｼ","kana_address":"ｶﾏﾀﾞ","pref":"長野県","city":"松本市","address":"鎌田"},
{"zip_code":"3900822","kana_pref":"ﾅｶﾞﾉｹﾝ","kana_city":"ﾏﾂﾓﾄｼ","kana_address":"ｶﾝﾀﾞ","pref":"長野県","city":"松本市","address":"神田"},
{"zip_code":"3901243","kana_pref":"ﾅｶﾞﾉｹﾝ","kana_city":"ﾏﾂﾓﾄｼ","kana_address":"ｶﾝﾊﾞﾔｼ","pref":"長野県","city":"松本市","address":"神林"},
{"zip_code":"3900872","kana_pref":"ﾅｶﾞﾉｹﾝ","kana_city":"ﾏﾂﾓﾄｼ","kana_address":"ｷﾀﾌｶｼ","pref":"長野県","city":"松本市","address":"北深志"},
{"zip_code":"3900871","kana_pref":"ﾅｶﾞﾉｹﾝ","kana_city":"ﾏﾂﾓﾄｼ","kana_address":"ｷﾘ","pref":"長野県","city":"松本市","address":"桐"},
{"zip_code":"3901132","kana_pref":"ﾅｶﾞﾉｹﾝ","kana_city":"ﾏﾂﾓﾄｼ","kana_address":"ｸｳｺｳﾋｶﾞｼ","pref":"長野県","city":"松本市","address":"空港東"},
{"zip_code":"3900847","kana_pref":"ﾅｶﾞﾉｹﾝ","kana_city":"ﾏﾂﾓﾄｼ","kana_address":"ｻｻﾍﾞ","pref":"長野県","city":"松本市","address":"笹部"},
{"zip_code":"3900221","kana_pref":"ﾅｶﾞﾉｹﾝ","kana_city":"ﾏﾂﾓﾄｼ","kana_address":"ｻﾄﾔﾏﾍﾞ","pref":"長野県","city":"松本市","address":"里山辺"},
{"zip_code":"3900877","kana_pref":"ﾅｶﾞﾉｹﾝ","kana_city":"ﾏﾂﾓﾄｼ","kana_address":"ｻﾜﾑﾗ","pref":"長野県","city":"松本市","address":"沢村"},
{"zip_code":"3900301","kana_pref":"ﾅｶﾞﾉｹﾝ","kana_city":"ﾏﾂﾓﾄｼ","kana_address":"ｼﾅｸﾞﾗ","pref":"長野県","city":"松本市","address":"稲倉"},
{"zip_code":"3900851","kana_pref":"ﾅｶﾞﾉｹﾝ","kana_city":"ﾏﾂﾓﾄｼ","kana_address":"ｼﾏｳﾁ","pref":"長野県","city":"松本市","address":"島内"},
{"zip_code":"3900852","kana_pref":"ﾅｶﾞﾉｹﾝ","kana_city":"ﾏﾂﾓﾄｼ","kana_address":"ｼﾏﾀﾞﾁ","pref":"長野県","city":"松本市","address":"島立"},
{"zip_code":"3900805","kana_pref":"ﾅｶﾞﾉｹﾝ","kana_city":"ﾏﾂﾓﾄｼ","kana_address":"ｼﾐｽﾞ","pref":"長野県","city":"松本市","address":"清水"},
{"zip_code":"3900875","kana_pref":"ﾅｶﾞﾉｹﾝ","kana_city":"ﾏﾂﾓﾄｼ","kana_address":"ｼﾞｮｳｾｲ","pref":"長野県","city":"松本市","address":"城西"},
{"zip_code":"3900807","kana_pref":"ﾅｶﾞﾉｹﾝ","kana_city":"ﾏﾂﾓﾄｼ","kana_address":"ｼﾞｮｳﾄｳ","pref":"長野県","city":"松本市","address":"城東"},
{"zip_code":"3900828","kana_pref":"ﾅｶﾞﾉｹﾝ","kana_city":"ﾏﾂﾓﾄｼ","kana_address":"ｼｮｳﾅｲ","pref":"長野県","city":"松本市","address":"庄内"},
{"zip_code":"3900866","kana_pref":"ﾅｶﾞﾉｹﾝ","kana_city":"ﾏﾂﾓﾄｼ","kana_address":"ｼﾞｮｳﾔﾏ","pref":"長野県","city":"松本市","address":"城山"},
{"zip_code":"3900863","kana_pref":"ﾅｶﾞﾉｹﾝ","kana_city":"ﾏﾂﾓﾄｼ","kana_address":"ｼﾗｲﾀ","pref":"長野県","city":"松本市","address":"白板"},
{"zip_code":"3900865","kana_pref":"ﾅｶﾞﾉｹﾝ","kana_city":"ﾏﾂﾓﾄｼ","kana_address":"ｼﾝﾊﾞｼ","pref":"長野県","city":"松本市","address":"新橋"},
{"zip_code":"3900305","kana_pref":"ﾅｶﾞﾉｹﾝ","kana_city":"ﾏﾂﾓﾄｼ","kana_address":"ｿｳｻﾞ","pref":"長野県","city":"松本市","address":"惣社"},
{"zip_code":"3900842","kana_pref":"ﾅｶﾞﾉｹﾝ","kana_city":"ﾏﾂﾓﾄｼ","kana_address":"ｿﾔﾉ","pref":"長野県","city":"松本市","address":"征矢野"},
{"zip_code":"3900834","kana_pref":"ﾅｶﾞﾉｹﾝ","kana_city":"ﾏﾂﾓﾄｼ","kana_address":"ﾀｶﾐﾔﾅｶ","pref":"長野県","city":"松本市","address":"高宮中"},
{"zip_code":"3900835","kana_pref":"ﾅｶﾞﾉｹﾝ","kana_city":"ﾏﾂﾓﾄｼ","kana_address":"ﾀｶﾐﾔﾋｶﾞｼ","pref":"長野県","city":"松本市","address":"高宮東"},
{"zip_code":"3900844","kana_pref":"ﾅｶﾞﾉｹﾝ","kana_city":"ﾏﾂﾓﾄｼ","kana_address":"ﾀｶﾐﾔﾆｼ","pref":"長野県","city":"松本市","address":"高宮西"},
{"zip_code":"3900843","kana_pref":"ﾅｶﾞﾉｹﾝ","kana_city":"ﾏﾂﾓﾄｼ","kana_address":"ﾀｶﾐﾔﾐﾅﾐ","pref":"長野県","city":"松本市","address":"高宮南"},
{"zip_code":"3900836","kana_pref":"ﾅｶﾞﾉｹﾝ","kana_city":"ﾏﾂﾓﾄｼ","kana_address":"ﾀｶﾐﾔｷﾀ","pref":"長野県","city":"松本市","address":"高宮北"},
{"zip_code":"3900811","kana_pref":"ﾅｶﾞﾉｹﾝ","kana_city":"ﾏﾂﾓﾄｼ","kana_address":"ﾁｭｳｵｳ","pref":"長野県","city":"松本市","address":"中央"},
{"zip_code":"3900821","kana_pref":"ﾅｶﾞﾉｹﾝ","kana_city":"ﾏﾂﾓﾄｼ","kana_address":"ﾂｶﾏ","pref":"長野県","city":"松本市","address":"筑摩"},
{"zip_code":"3900816","kana_pref":"ﾅｶﾞﾉｹﾝ","kana_city":"ﾏﾂﾓﾄｼ","kana_address":"ﾅｶｼﾞｮｳ","pref":"長野県","city":"松本市","address":"中条"},
{"zip_code":"3900823","kana_pref":"ﾅｶﾞﾉｹﾝ","kana_city":"ﾏﾂﾓﾄｼ","kana_address":"ﾅｶﾔﾏ","pref":"長野県","city":"松本市","address":"中山"},
{"zip_code":"3900824","kana_pref":"ﾅｶﾞﾉｹﾝ","kana_city":"ﾏﾂﾓﾄｼ","kana_address":"ﾅｶﾔﾏﾀﾞｲ","pref":"長野県","city":"松本市","address":"中山台"},
{"zip_code":"3901611","kana_pref":"ﾅｶﾞﾉｹﾝ","kana_city":"ﾏﾂﾓﾄｼ","kana_address":"ﾅｶﾞﾜ","pref":"長野県","city":"松本市","address":"奈川"},
{"zip_code":"3900841","kana_pref":"ﾅｶﾞﾉｹﾝ","kana_city":"ﾏﾂﾓﾄｼ","kana_address":"ﾅｷﾞｻ","pref":"長野県","city":"松本市","address":"渚"},
{"zip_code":"3900825","kana_pref":"ﾅｶﾞﾉｹﾝ","kana_city":"ﾏﾂﾓﾄｼ","kana_address":"ﾅﾐﾔﾅｷﾞ","pref":"長野県","city":"松本市","address":"並柳"},
{"zip_code":"3901241","kana_pref":"ﾅｶﾞﾉｹﾝ","kana_city":"ﾏﾂﾓﾄｼ","kana_address":"ﾆｲﾑﾗ","pref":"長野県","city":"松本市","address":"新村"},
{"zip_code":"3901401","kana_pref":"ﾅｶﾞﾉｹﾝ","kana_city":"ﾏﾂﾓﾄｼ","kana_address":"ﾊﾀ","pref":"長野県","city":"松本市","address":"波田"},
{"zip_code":"3900817","kana_pref":"ﾅｶﾞﾉｹﾝ","kana_city":"ﾏﾂﾓﾄｼ","kana_address":"ﾊﾊﾞｳｴ","pref":"長野県","city":"松本市","address":"巾上"},
{"zip_code":"3900316","kana_pref":"ﾅｶﾞﾉｹﾝ","kana_city":"ﾏﾂﾓﾄｼ","kana_address":"ﾊﾗ","pref":"長野県","city":"松本市","address":"原"},
{"zip_code":"3900815","kana_pref":"ﾅｶﾞﾉｹﾝ","kana_city":"ﾏﾂﾓﾄｼ","kana_address":"ﾌｶｼ","pref":"長野県","city":"松本市","address":"深志"},
{"zip_code":"3900833","kana_pref":"ﾅｶﾞﾉｹﾝ","kana_city":"ﾏﾂﾓﾄｼ","kana_address":"ﾌﾀﾊﾞ","pref":"長野県","city":"松本市","address":"双葉"},
{"zip_code":"3900317","kana_pref":"ﾅｶﾞﾉｹﾝ","kana_city":"ﾏﾂﾓﾄｼ","kana_address":"ﾎﾗ","pref":"長野県","city":"松本市","address":"洞"},
{"zip_code":"3900814","kana_pref":"ﾅｶﾞﾉｹﾝ","kana_city":"ﾏﾂﾓﾄｼ","kana_address":"ﾎﾝｼﾞｮｳ","pref":"長野県","city":"松本市","address":"本庄"},
{"zip_code":"3900873","kana_pref":"ﾅｶﾞﾉｹﾝ","kana_city":"ﾏﾂﾓﾄｼ","kana_address":"ﾏﾙﾉｳﾁ","pref":"長野県","city":"松本市","address":"丸の内"},
{"zip_code":"3900302","kana_pref":"ﾅｶﾞﾉｹﾝ","kana_city":"ﾏﾂﾓﾄｼ","kana_address":"ﾐｻﾔﾏ","pref":"長野県","city":"松本市","address":"三才山"},
{"zip_code":"3900801","kana_pref":"ﾅｶﾞﾉｹﾝ","kana_city":"ﾏﾂﾓﾄｼ","kana_address":"ﾐｽｽﾞ","pref":"長野県","city":"松本市","address":"美須々"},
{"zip_code":"3900311","kana_pref":"ﾅｶﾞﾉｹﾝ","kana_city":"ﾏﾂﾓﾄｼ","kana_address":"ﾐｽﾞｸﾏ","pref":"長野県","city":"松本市","address":"水汲"},
{"zip_code":"3900306","kana_pref":"ﾅｶﾞﾉｹﾝ","kana_city":"ﾏﾂﾓﾄｼ","kana_address":"ﾐﾅﾐｱｻﾏ","pref":"長野県","city":"松本市","address":"南浅間"},
{"zip_code":"3900846","kana_pref":"ﾅｶﾞﾉｹﾝ","kana_city":"ﾏﾂﾓﾄｼ","kana_address":"ﾐﾅﾐﾊﾗ","pref":"長野県","city":"松本市","address":"南原"},
{"zip_code":"3900832","kana_pref":"ﾅｶﾞﾉｹﾝ","kana_city":"ﾏﾂﾓﾄｼ","kana_address":"ﾐﾅﾐﾏﾂﾓﾄ","pref":"長野県","city":"松本市","address":"南松本"},
{"zip_code":"3900862","kana_pref":"ﾅｶﾞﾉｹﾝ","kana_city":"ﾏﾂﾓﾄｼ","kana_address":"ﾐﾔﾌﾞﾁ","pref":"長野県","city":"松本市","address":"宮渕"},
{"zip_code":"3900864","kana_pref":"ﾅｶﾞﾉｹﾝ","kana_city":"ﾏﾂﾓﾄｼ","kana_address":"ﾐﾔﾌﾞﾁﾎﾝﾑﾗ","pref":"長野県","city":"松本市","address":"宮渕本村"},
{"zip_code":"3900806","kana_pref":"ﾅｶﾞﾉｹﾝ","kana_city":"ﾏﾂﾓﾄｼ","kana_address":"ﾒﾄﾊﾞ","pref":"長野県","city":"松本市","address":"女鳥羽"},
{"zip_code":"3900803","kana_pref":"ﾅｶﾞﾉｹﾝ","kana_city":"ﾏﾂﾓﾄｼ","kana_address":"ﾓﾄﾏﾁ","pref":"長野県","city":"松本市","address":"元町"},
{"zip_code":"3900804","kana_pref":"ﾅｶﾞﾉｹﾝ","kana_city":"ﾏﾂﾓﾄｼ","kana_address":"ﾖｺﾀ","pref":"長野県","city":"松本市","address":"横田"},
{"zip_code":"3900848","kana_pref":"ﾅｶﾞﾉｹﾝ","kana_city":"ﾏﾂﾓﾄｼ","kana_address":"ﾘｮｳｼﾏ","pref":"長野県","city":"松本市","address":"両島"},
{"zip_code":"3901242","kana_pref":"ﾅｶﾞﾉｹﾝ","kana_city":"ﾏﾂﾓﾄｼ","kana_address":"ﾜﾀﾞ","pref":"長野県","city":"松本市","address":"和田"},
{"zip_code":"3901301","kana_pref":"ﾅｶﾞﾉｹﾝ","kana_city":"ﾋｶﾞｼﾁｸﾏｸﾞﾝﾔﾏｶﾞﾀﾑﾗ","kana_address":"ﾔﾏｶﾞﾀﾑﾗｲﾁｴﾝ","pref":"長野県","city":"東筑摩郡山形村","address":"山形村一円"},
{"zip_code":"3901100","kana_pref":"ﾅｶﾞﾉｹﾝ","kana_city":"ﾋｶﾞｼﾁｸﾏｸﾞﾝｱｻﾋﾑﾗ","kana_address":"","pref":"長野県","city":"東筑摩郡朝日村","address":""},
{"zip_code":"3901102","kana_pref":"ﾅｶﾞﾉｹﾝ","kana_city":"ﾋｶﾞｼﾁｸﾏｸﾞﾝｱｻﾋﾑﾗ","kana_address":"ｵﾉｻﾞﾜ","pref":"長野県","city":"東筑摩郡朝日村","address":"小野沢"},
{"zip_code":"3901104","kana_pref":"ﾅｶﾞﾉｹﾝ","kana_city":"ﾋｶﾞｼﾁｸﾏｸﾞﾝｱｻﾋﾑﾗ","kana_address":"ｺﾐ","pref":"長野県","city":"東筑摩郡朝日村","address":"古見"},
{"zip_code":"3901101","kana_pref":"ﾅｶﾞﾉｹﾝ","kana_city":"ﾋｶﾞｼﾁｸﾏｸﾞﾝｱｻﾋﾑﾗ","kana_address":"ﾆｼｾﾊﾞ","pref":"長野県","city":"東筑摩郡朝日村","address":"西洗馬"},
{"zip_code":"3901103","kana_pref":"ﾅｶﾞﾉｹﾝ","kana_city":"ﾋｶﾞｼﾁｸﾏｸﾞﾝｱｻﾋﾑﾗ","kana_address":"ﾊﾘｵ","pref":"長野県","city":"東筑摩郡朝日村","address":"針尾"}]}