{"zip_code":[
{"zip_code":"3920000","kana_pref":"ﾅｶﾞﾉｹﾝ","kana_city":"ｽﾜｼ","kana_address":"","pref":"長野県","city":"諏訪市","address":""},
{"zip_code":"3920011","kana_pref":"ﾅｶﾞﾉｹﾝ","kana_city":"ｽﾜｼ","kana_address":"ｱｶﾊﾈ","pref":"長野県","city":"諏訪市","address":"赤羽根"},
{"zip_code":"3920026","kana_pref":"ﾅｶﾞﾉｹﾝ","kana_city":"ｽﾜｼ","kana_address":"ｵｵﾃ","pref":"長野県","city":"諏訪市","address":"大手"},
{"zip_code":"3920005","kana_pref":"ﾅｶﾞﾉｹﾝ","kana_city":"ｽﾜｼ","kana_address":"ｵｶﾑﾗ","pref":"長野県","city":"諏訪市","address":"岡村"},
{"zip_code":"3920013","kana_pref":"ﾅｶﾞﾉｹﾝ","kana_city":"ｽﾜｼ","kana_address":"ｵｷﾀﾏﾁ","pref":"長野県","city":"諏訪市","address":"沖田町"},
{"zip_code":"3920001","kana_pref":"ﾅｶﾞﾉｹﾝ","kana_city":"ｽﾜｼ","kana_address":"ｵﾜ","pref":"長野県","city":"諏訪市","address":"大和"},
{"zip_code":"3920021","kana_pref":"ﾅｶﾞﾉｹﾝ","kana_city":"ｽﾜｼ","kana_address":"ｶﾐｶﾞﾜ","pref":"長野県","city":"諏訪市","address":"上川"},
{"zip_code":"3920003","kana_pref":"ﾅｶﾞﾉｹﾝ","kana_city":"ｽﾜｼ","kana_address":"ｶﾐｽﾜ","pref":"長野県","city":"諏訪市","address":"上諏訪"},
{"zip_code":"3920008","kana_pref":"ﾅｶﾞﾉｹﾝ","kana_city":"ｽﾜｼ","kana_address":"ｷﾘｶﾞﾐﾈ","pref":"長野県","city":"諏訪市","address":"霧ケ峰"},
{"zip_code":"3920027","kana_pref":"ﾅｶﾞﾉｹﾝ","kana_city":"ｽﾜｼ","kana_address":"ｺｶﾞﾝﾄﾞｵﾘ","pref":"長野県","city":"諏訪市","address":"湖岸通り"},
{"zip_code":"3920131","kana_pref":"ﾅｶﾞﾉｹﾝ","kana_city":"ｽﾜｼ","kana_address":"ｺﾅﾐ","pref":"長野県","city":"諏訪市","address":"湖南"},
{"zip_code":"3920024","kana_pref":"ﾅｶﾞﾉｹﾝ","kana_city":"ｽﾜｼ","kana_address":"ｺﾜﾀ","pref":"長野県","city":"諏訪市","address":"小和田"},
{"zip_code":"3920023","kana_pref":"ﾅｶﾞﾉｹﾝ","kana_city":"ｽﾜｼ","kana_address":"ｺﾜﾀﾐﾅﾐ","pref":"長野県","city":"諏訪市","address":"小和田南"},
{"zip_code":"3920012","kana_pref":"ﾅｶﾞﾉｹﾝ","kana_city":"ｽﾜｼ","kana_address":"ｼｶﾞ","pref":"長野県","city":"諏訪市","address":"四賀"},
{"zip_code":"3920010","kana_pref":"ﾅｶﾞﾉｹﾝ","kana_city":"ｽﾜｼ","kana_address":"ｼﾌﾞｻｷ","pref":"長野県","city":"諏訪市","address":"渋崎"},
{"zip_code":"3920007","kana_pref":"ﾅｶﾞﾉｹﾝ","kana_city":"ｽﾜｼ","kana_address":"ｼﾐｽﾞ","pref":"長野県","city":"諏訪市","address":"清水"},
{"zip_code":"3920017","kana_pref":"ﾅｶﾞﾉｹﾝ","kana_city":"ｽﾜｼ","kana_address":"ｼﾞｮｳﾅﾝ","pref":"長野県","city":"諏訪市","address":"城南"},
{"zip_code":"3920025","kana_pref":"ﾅｶﾞﾉｹﾝ","kana_city":"ｽﾜｼ","kana_address":"ｽｴﾋﾛ","pref":"長野県","city":"諏訪市","address":"末広"},
{"zip_code":"3920009","kana_pref":"ﾅｶﾞﾉｹﾝ","kana_city":"ｽﾜｼ","kana_address":"ｽｷﾞﾅｲｹ","pref":"長野県","city":"諏訪市","address":"杉菜池"},
{"zip_code":"3920004","kana_pref":"ﾅｶﾞﾉｹﾝ","kana_city":"ｽﾜｼ","kana_address":"ｽﾜ","pref":"長野県","city":"諏訪市","address":"諏訪"},
{"zip_code":"3920022","kana_pref":"ﾅｶﾞﾉｹﾝ","kana_city":"ｽﾜｼ","kana_address":"ﾀｶｼﾏ","pref":"長野県","city":"諏訪市","address":"高島"},
{"zip_code":"3920016","kana_pref":"ﾅｶﾞﾉｹﾝ","kana_city":"ｽﾜｼ","kana_address":"ﾄﾖﾀﾞ","pref":"長野県","city":"諏訪市","address":"豊田"},
{"zip_code":"3920015","kana_pref":"ﾅｶﾞﾉｹﾝ","kana_city":"ｽﾜｼ","kana_address":"ﾅｶｽ","pref":"長野県","city":"諏訪市","address":"中洲"},
{"zip_code":"3920014","kana_pref":"ﾅｶﾞﾉｹﾝ","kana_city":"ｽﾜｼ","kana_address":"ﾐﾅﾐﾏﾁ","pref":"長野県","city":"諏訪市","address":"南町"},
{"zip_code":"3920006","kana_pref":"ﾅｶﾞﾉｹﾝ","kana_city":"ｽﾜｼ","kana_address":"ﾓﾄﾏﾁ","pref":"長野県","city":"諏訪市","address":"元町"},
{"zip_code":"3920002","kana_pref":"ﾅｶﾞﾉｹﾝ","kana_city":"ｽﾜｼ","kana_address":"ﾕﾉﾜｷ","pref":"長野県","city":"諏訪市","address":"湯の脇"}]}