{"zip_code":[
{"zip_code":"3930000","kana_pref":"ﾅｶﾞﾉｹﾝ","kana_city":"ｽﾜｸﾞﾝｼﾓｽﾜﾏﾁ","kana_address":"","pref":"長野県","city":"諏訪郡下諏訪町","address":""},
{"zip_code":"3930066","kana_pref":"ﾅｶﾞﾉｹﾝ","kana_city":"ｽﾜｸﾞﾝｼﾓｽﾜﾏﾁ","kana_address":"ｱｹﾎﾞﾉﾁｮｳ","pref":"長野県","city":"諏訪郡下諏訪町","address":"曙町"},
{"zip_code":"3930068","kana_pref":"ﾅｶﾞﾉｹﾝ","kana_city":"ｽﾜｸﾞﾝｼﾓｽﾜﾏﾁ","kana_address":"ｶｽｶﾞﾁｮｳ","pref":"長野県","city":"諏訪郡下諏訪町","address":"春日町"},
{"zip_code":"3930052","kana_pref":"ﾅｶﾞﾉｹﾝ","kana_city":"ｽﾜｸﾞﾝｼﾓｽﾜﾏﾁ","kana_address":"ｶﾐｸﾎﾞ","pref":"長野県","city":"諏訪郡下諏訪町","address":"上久保"},
{"zip_code":"3930053","kana_pref":"ﾅｶﾞﾉｹﾝ","kana_city":"ｽﾜｸﾞﾝｼﾓｽﾜﾏﾁ","kana_address":"ｶﾐﾊﾞﾂﾊﾟ","pref":"長野県","city":"諏訪郡下諏訪町","address":"上馬場"},
{"zip_code":"3930042","kana_pref":"ﾅｶﾞﾉｹﾝ","kana_city":"ｽﾜｸﾞﾝｼﾓｽﾜﾏﾁ","kana_address":"ｷﾀｼｵｳ","pref":"長野県","city":"諏訪郡下諏訪町","address":"北四王"},
{"zip_code":"3930014","kana_pref":"ﾅｶﾞﾉｹﾝ","kana_city":"ｽﾜｸﾞﾝｼﾓｽﾜﾏﾁ","kana_address":"ｷﾉｼﾀ","pref":"長野県","city":"諏訪郡下諏訪町","address":"木の下"},
{"zip_code":"3930026","kana_pref":"ﾅｶﾞﾉｹﾝ","kana_city":"ｽﾜｸﾞﾝｼﾓｽﾜﾏﾁ","kana_address":"ｸﾎﾞｶｲﾄﾞｳ","pref":"長野県","city":"諏訪郡下諏訪町","address":"久保海道"},
{"zip_code":"3930024","kana_pref":"ﾅｶﾞﾉｹﾝ","kana_city":"ｽﾜｸﾞﾝｼﾓｽﾜﾏﾁ","kana_address":"ｺﾞｶﾝ","pref":"長野県","city":"諏訪郡下諏訪町","address":"五官"},
{"zip_code":"3930044","kana_pref":"ﾅｶﾞﾉｹﾝ","kana_city":"ｽﾜｸﾞﾝｼﾓｽﾜﾏﾁ","kana_address":"ｺﾊﾝﾁｮｳ","pref":"長野県","city":"諏訪郡下諏訪町","address":"湖畔町"},
{"zip_code":"3930013","kana_pref":"ﾅｶﾞﾉｹﾝ","kana_city":"ｽﾜｸﾞﾝｼﾓｽﾜﾏﾁ","kana_address":"ｺﾕﾉｳｴ","pref":"長野県","city":"諏訪郡下諏訪町","address":"小湯の上"},
{"zip_code":"3930084","kana_pref":"ﾅｶﾞﾉｹﾝ","kana_city":"ｽﾜｸﾞﾝｼﾓｽﾜﾏﾁ","kana_address":"ｻｶｴﾁｮｳ","pref":"長野県","city":"諏訪郡下諏訪町","address":"栄町"},
{"zip_code":"3930065","kana_pref":"ﾅｶﾞﾉｹﾝ","kana_city":"ｽﾜｸﾞﾝｼﾓｽﾜﾏﾁ","kana_address":"ｻｷｶﾞｹﾁｮｳ","pref":"長野県","city":"諏訪郡下諏訪町","address":"魁町"},
{"zip_code":"3930072","kana_pref":"ﾅｶﾞﾉｹﾝ","kana_city":"ｽﾜｸﾞﾝｼﾓｽﾜﾏﾁ","kana_address":"ｻｸﾗﾏﾁ","pref":"長野県","city":"諏訪郡下諏訪町","address":"桜町"},
{"zip_code":"3930086","kana_pref":"ﾅｶﾞﾉｹﾝ","kana_city":"ｽﾜｸﾞﾝｼﾓｽﾜﾏﾁ","kana_address":"ｼﾐｽﾞﾏﾁ","pref":"長野県","city":"諏訪郡下諏訪町","address":"清水町"},
{"zip_code":"3930007","kana_pref":"ﾅｶﾞﾉｹﾝ","kana_city":"ｽﾜｸﾞﾝｼﾓｽﾜﾏﾁ","kana_address":"ｼﾓﾔｼｷ","pref":"長野県","city":"諏訪郡下諏訪町","address":"下屋敷"},
{"zip_code":"3930011","kana_pref":"ﾅｶﾞﾉｹﾝ","kana_city":"ｽﾜｸﾞﾝｼﾓｽﾜﾏﾁ","kana_address":"ｼﾝﾏﾁｳｴ","pref":"長野県","city":"諏訪郡下諏訪町","address":"新町上"},
{"zip_code":"3930018","kana_pref":"ﾅｶﾞﾉｹﾝ","kana_city":"ｽﾜｸﾞﾝｼﾓｽﾜﾏﾁ","kana_address":"ｼﾝﾏﾁｼﾀ","pref":"長野県","city":"諏訪郡下諏訪町","address":"新町下"},
{"zip_code":"3930054","kana_pref":"ﾅｶﾞﾉｹﾝ","kana_city":"ｽﾜｸﾞﾝｼﾓｽﾜﾏﾁ","kana_address":"ｽｹﾞﾉﾏﾁ","pref":"長野県","city":"諏訪郡下諏訪町","address":"菅野町"},
{"zip_code":"3930022","kana_pref":"ﾅｶﾞﾉｹﾝ","kana_city":"ｽﾜｸﾞﾝｼﾓｽﾜﾏﾁ","kana_address":"ｾｷﾔ","pref":"長野県","city":"諏訪郡下諏訪町","address":"関屋"},
{"zip_code":"3930051","kana_pref":"ﾅｶﾞﾉｹﾝ","kana_city":"ｽﾜｸﾞﾝｼﾓｽﾜﾏﾁ","kana_address":"ﾀｲｼｬﾄﾞｵﾘ","pref":"長野県","city":"諏訪郡下諏訪町","address":"大社通"},
{"zip_code":"3930092","kana_pref":"ﾅｶﾞﾉｹﾝ","kana_city":"ｽﾜｸﾞﾝｼﾓｽﾜﾏﾁ","kana_address":"ﾀﾞｲﾓﾝ","pref":"長野県","city":"諏訪郡下諏訪町","address":"大門"},
{"zip_code":"3930033","kana_pref":"ﾅｶﾞﾉｹﾝ","kana_city":"ｽﾜｸﾞﾝｼﾓｽﾜﾏﾁ","kana_address":"ﾀｶｷ","pref":"長野県","city":"諏訪郡下諏訪町","address":"高木"},
{"zip_code":"3930034","kana_pref":"ﾅｶﾞﾉｹﾝ","kana_city":"ｽﾜｸﾞﾝｼﾓｽﾜﾏﾁ","kana_address":"ﾀｶﾊﾏ","pref":"長野県","city":"諏訪郡下諏訪町","address":"高浜"},
{"zip_code":"3930021","kana_pref":"ﾅｶﾞﾉｹﾝ","kana_city":"ｽﾜｸﾞﾝｼﾓｽﾜﾏﾁ","kana_address":"ﾀｹｲ","pref":"長野県","city":"諏訪郡下諏訪町","address":"武居"},
{"zip_code":"3930015","kana_pref":"ﾅｶﾞﾉｹﾝ","kana_city":"ｽﾜｸﾞﾝｼﾓｽﾜﾏﾁ","kana_address":"ﾀﾂﾏﾁ","pref":"長野県","city":"諏訪郡下諏訪町","address":"立町"},
{"zip_code":"3930078","kana_pref":"ﾅｶﾞﾉｹﾝ","kana_city":"ｽﾜｸﾞﾝｼﾓｽﾜﾏﾁ","kana_address":"ﾀﾅｶﾏﾁ","pref":"長野県","city":"諏訪郡下諏訪町","address":"田中町"},
{"zip_code":"3930075","kana_pref":"ﾅｶﾞﾉｹﾝ","kana_city":"ｽﾜｸﾞﾝｼﾓｽﾜﾏﾁ","kana_address":"ﾁｭｳｵｳﾄﾞｵﾘ","pref":"長野県","city":"諏訪郡下諏訪町","address":"中央通"},
{"zip_code":"3930073","kana_pref":"ﾅｶﾞﾉｹﾝ","kana_city":"ｽﾜｸﾞﾝｼﾓｽﾜﾏﾁ","kana_address":"ﾂｶﾀﾞﾏﾁ","pref":"長野県","city":"諏訪郡下諏訪町","address":"塚田町"},
{"zip_code":"3930023","kana_pref":"ﾅｶﾞﾉｹﾝ","kana_city":"ｽﾜｸﾞﾝｼﾓｽﾜﾏﾁ","kana_address":"ﾄﾐｶﾞｵｶ","pref":"長野県","city":"諏訪郡下諏訪町","address":"富ケ丘"},
{"zip_code":"3930057","kana_pref":"ﾅｶﾞﾉｹﾝ","kana_city":"ｽﾜｸﾞﾝｼﾓｽﾜﾏﾁ","kana_address":"ﾄﾓﾉﾏﾁ","pref":"長野県","city":"諏訪郡下諏訪町","address":"友之町"},
{"zip_code":"3930001","kana_pref":"ﾅｶﾞﾉｹﾝ","kana_city":"ｽﾜｸﾞﾝｼﾓｽﾜﾏﾁ","kana_address":"ﾄﾖﾊｼ","pref":"長野県","city":"諏訪郡下諏訪町","address":"樋橋"},
{"zip_code":"3930064","kana_pref":"ﾅｶﾞﾉｹﾝ","kana_city":"ｽﾜｸﾞﾝｼﾓｽﾜﾏﾁ","kana_address":"ﾅｶｼｵﾁｮｳ","pref":"長野県","city":"諏訪郡下諏訪町","address":"中汐町"},
{"zip_code":"3930071","kana_pref":"ﾅｶﾞﾉｹﾝ","kana_city":"ｽﾜｸﾞﾝｼﾓｽﾜﾏﾁ","kana_address":"ﾅｶﾏﾁ","pref":"長野県","city":"諏訪郡下諏訪町","address":"仲町"},
{"zip_code":"3930047","kana_pref":"ﾅｶﾞﾉｹﾝ","kana_city":"ｽﾜｸﾞﾝｼﾓｽﾜﾏﾁ","kana_address":"ﾆｼｱｶｽﾅ","pref":"長野県","city":"諏訪郡下諏訪町","address":"西赤砂"},
{"zip_code":"3930041","kana_pref":"ﾅｶﾞﾉｹﾝ","kana_city":"ｽﾜｸﾞﾝｼﾓｽﾜﾏﾁ","kana_address":"ﾆｼｼｵｳ","pref":"長野県","city":"諏訪郡下諏訪町","address":"西四王"},
{"zip_code":"3930087","kana_pref":"ﾅｶﾞﾉｹﾝ","kana_city":"ｽﾜｸﾞﾝｼﾓｽﾜﾏﾁ","kana_address":"ﾆｼﾀｶﾉﾏﾁ","pref":"長野県","city":"諏訪郡下諏訪町","address":"西鷹野町"},
{"zip_code":"3930032","kana_pref":"ﾅｶﾞﾉｹﾝ","kana_city":"ｽﾜｸﾞﾝｼﾓｽﾜﾏﾁ","kana_address":"ﾆｼﾊﾏ","pref":"長野県","city":"諏訪郡下諏訪町","address":"西浜"},
{"zip_code":"3930082","kana_pref":"ﾅｶﾞﾉｹﾝ","kana_city":"ｽﾜｸﾞﾝｼﾓｽﾜﾏﾁ","kana_address":"ﾆｼﾔﾖｲﾁｮｳ","pref":"長野県","city":"諏訪郡下諏訪町","address":"西弥生町"},
{"zip_code":"3930035","kana_pref":"ﾅｶﾞﾉｹﾝ","kana_city":"ｽﾜｸﾞﾝｼﾓｽﾜﾏﾁ","kana_address":"ﾆｼﾕﾀｶ","pref":"長野県","city":"諏訪郡下諏訪町","address":"西豊"},
{"zip_code":"3930003","kana_pref":"ﾅｶﾞﾉｹﾝ","kana_city":"ｽﾜｸﾞﾝｼﾓｽﾜﾏﾁ","kana_address":"ﾊｷﾞｸﾗ","pref":"長野県","city":"諏訪郡下諏訪町","address":"萩倉"},
{"zip_code":"3930063","kana_pref":"ﾅｶﾞﾉｹﾝ","kana_city":"ｽﾜｸﾞﾝｼﾓｽﾜﾏﾁ","kana_address":"ﾊﾅｻｷﾁｮｳ","pref":"長野県","city":"諏訪郡下諏訪町","address":"花咲町"},
{"zip_code":"3930046","kana_pref":"ﾅｶﾞﾉｹﾝ","kana_city":"ｽﾜｸﾞﾝｼﾓｽﾜﾏﾁ","kana_address":"ﾋｶﾞｼｱｶｽﾅ","pref":"長野県","city":"諏訪郡下諏訪町","address":"東赤砂"},
{"zip_code":"3930043","kana_pref":"ﾅｶﾞﾉｹﾝ","kana_city":"ｽﾜｸﾞﾝｼﾓｽﾜﾏﾁ","kana_address":"ﾋｶﾞｼｼｵｳ","pref":"長野県","city":"諏訪郡下諏訪町","address":"東四王"},
{"zip_code":"3930085","kana_pref":"ﾅｶﾞﾉｹﾝ","kana_city":"ｽﾜｸﾞﾝｼﾓｽﾜﾏﾁ","kana_address":"ﾋｶﾞｼﾀｶﾉﾏﾁ","pref":"長野県","city":"諏訪郡下諏訪町","address":"東鷹野町"},
{"zip_code":"3930002","kana_pref":"ﾅｶﾞﾉｹﾝ","kana_city":"ｽﾜｸﾞﾝｼﾓｽﾜﾏﾁ","kana_address":"ﾋｶﾞｼﾏﾀ","pref":"長野県","city":"諏訪郡下諏訪町","address":"東俣"},
{"zip_code":"3930006","kana_pref":"ﾅｶﾞﾉｹﾝ","kana_city":"ｽﾜｸﾞﾝｼﾓｽﾜﾏﾁ","kana_address":"ﾋｶﾞｼﾏﾁｳｴ","pref":"長野県","city":"諏訪郡下諏訪町","address":"東町上"},
{"zip_code":"3930005","kana_pref":"ﾅｶﾞﾉｹﾝ","kana_city":"ｽﾜｸﾞﾝｼﾓｽﾜﾏﾁ","kana_address":"ﾋｶﾞｼﾏﾁﾅｶ","pref":"長野県","city":"諏訪郡下諏訪町","address":"東町中"},
{"zip_code":"3930004","kana_pref":"ﾅｶﾞﾉｹﾝ","kana_city":"ｽﾜｸﾞﾝｼﾓｽﾜﾏﾁ","kana_address":"ﾋｶﾞｼﾏﾁｼﾀ","pref":"長野県","city":"諏訪郡下諏訪町","address":"東町下"},
{"zip_code":"3930093","kana_pref":"ﾅｶﾞﾉｹﾝ","kana_city":"ｽﾜｸﾞﾝｼﾓｽﾜﾏﾁ","kana_address":"ﾋｶﾞｼﾔﾏﾀﾞ","pref":"長野県","city":"諏訪郡下諏訪町","address":"東山田"},
{"zip_code":"3930083","kana_pref":"ﾅｶﾞﾉｹﾝ","kana_city":"ｽﾜｸﾞﾝｼﾓｽﾜﾏﾁ","kana_address":"ﾋｶﾞｼﾔﾖｲﾁｮｳ","pref":"長野県","city":"諏訪郡下諏訪町","address":"東弥生町"},
{"zip_code":"3930031","kana_pref":"ﾅｶﾞﾉｹﾝ","kana_city":"ｽﾜｸﾞﾝｼﾓｽﾜﾏﾁ","kana_address":"ﾋｶﾞｼﾕﾀｶ","pref":"長野県","city":"諏訪郡下諏訪町","address":"東豊"},
{"zip_code":"3930062","kana_pref":"ﾅｶﾞﾉｹﾝ","kana_city":"ｽﾜｸﾞﾝｼﾓｽﾜﾏﾁ","kana_address":"ﾋﾗｻﾜﾁｮｳ","pref":"長野県","city":"諏訪郡下諏訪町","address":"平沢町"},
{"zip_code":"3930056","kana_pref":"ﾅｶﾞﾉｹﾝ","kana_city":"ｽﾜｸﾞﾝｼﾓｽﾜﾏﾁ","kana_address":"ﾋﾛｾﾁｮｳ","pref":"長野県","city":"諏訪郡下諏訪町","address":"広瀬町"},
{"zip_code":"3930055","kana_pref":"ﾅｶﾞﾉｹﾝ","kana_city":"ｽﾜｸﾞﾝｼﾓｽﾜﾏﾁ","kana_address":"ﾌｼﾞﾐﾁｮｳ","pref":"長野県","city":"諏訪郡下諏訪町","address":"富士見町"},
{"zip_code":"3930091","kana_pref":"ﾅｶﾞﾉｹﾝ","kana_city":"ｽﾜｸﾞﾝｼﾓｽﾜﾏﾁ","kana_address":"ﾎｼｶﾞｵｶ","pref":"長野県","city":"諏訪郡下諏訪町","address":"星が丘"},
{"zip_code":"3930025","kana_pref":"ﾅｶﾞﾉｹﾝ","kana_city":"ｽﾜｸﾞﾝｼﾓｽﾜﾏﾁ","kana_address":"ﾎﾝｺﾞｳ","pref":"長野県","city":"諏訪郡下諏訪町","address":"本郷"},
{"zip_code":"3930008","kana_pref":"ﾅｶﾞﾉｹﾝ","kana_city":"ｽﾜｸﾞﾝｼﾓｽﾜﾏﾁ","kana_address":"ﾏﾁﾔｼｷ","pref":"長野県","city":"諏訪郡下諏訪町","address":"町屋敷"},
{"zip_code":"3930061","kana_pref":"ﾅｶﾞﾉｹﾝ","kana_city":"ｽﾜｸﾞﾝｼﾓｽﾜﾏﾁ","kana_address":"ﾐﾀﾏﾁ","pref":"長野県","city":"諏訪郡下諏訪町","address":"御田町"},
{"zip_code":"3930074","kana_pref":"ﾅｶﾞﾉｹﾝ","kana_city":"ｽﾜｸﾞﾝｼﾓｽﾜﾏﾁ","kana_address":"ﾐﾄﾞﾘﾏﾁ","pref":"長野県","city":"諏訪郡下諏訪町","address":"緑町"},
{"zip_code":"3930045","kana_pref":"ﾅｶﾞﾉｹﾝ","kana_city":"ｽﾜｸﾞﾝｼﾓｽﾜﾏﾁ","kana_address":"ﾐﾅﾐｼｵｳ","pref":"長野県","city":"諏訪郡下諏訪町","address":"南四王"},
{"zip_code":"3930067","kana_pref":"ﾅｶﾞﾉｹﾝ","kana_city":"ｽﾜｸﾞﾝｼﾓｽﾜﾏﾁ","kana_address":"ﾔｷﾞﾋｶﾞｼ","pref":"長野県","city":"諏訪郡下諏訪町","address":"矢木東"},
{"zip_code":"3930076","kana_pref":"ﾅｶﾞﾉｹﾝ","kana_city":"ｽﾜｸﾞﾝｼﾓｽﾜﾏﾁ","kana_address":"ﾔｷﾞﾆｼ","pref":"長野県","city":"諏訪郡下諏訪町","address":"矢木西"},
{"zip_code":"3930077","kana_pref":"ﾅｶﾞﾉｹﾝ","kana_city":"ｽﾜｸﾞﾝｼﾓｽﾜﾏﾁ","kana_address":"ﾔｷﾞﾏﾁ","pref":"長野県","city":"諏訪郡下諏訪町","address":"矢木町"},
{"zip_code":"3930081","kana_pref":"ﾅｶﾞﾉｹﾝ","kana_city":"ｽﾜｸﾞﾝｼﾓｽﾜﾏﾁ","kana_address":"ﾔｼﾛﾋｶﾞｼﾏﾁ","pref":"長野県","city":"諏訪郡下諏訪町","address":"社東町"},
{"zip_code":"3930017","kana_pref":"ﾅｶﾞﾉｹﾝ","kana_city":"ｽﾜｸﾞﾝｼﾓｽﾜﾏﾁ","kana_address":"ﾕﾀﾞﾅｶﾏﾁ","pref":"長野県","city":"諏訪郡下諏訪町","address":"湯田仲町"},
{"zip_code":"3930016","kana_pref":"ﾅｶﾞﾉｹﾝ","kana_city":"ｽﾜｸﾞﾝｼﾓｽﾜﾏﾁ","kana_address":"ﾕﾀﾞﾏﾁ","pref":"長野県","city":"諏訪郡下諏訪町","address":"湯田町"},
{"zip_code":"3930012","kana_pref":"ﾅｶﾞﾉｹﾝ","kana_city":"ｽﾜｸﾞﾝｼﾓｽﾜﾏﾁ","kana_address":"ﾖｺﾏﾁ","pref":"長野県","city":"諏訪郡下諏訪町","address":"横町"},
{"zip_code":"3930019","kana_pref":"ﾅｶﾞﾉｹﾝ","kana_city":"ｽﾜｸﾞﾝｼﾓｽﾜﾏﾁ","kana_address":"ﾖｺﾏﾁｷﾉｼﾀ","pref":"長野県","city":"諏訪郡下諏訪町","address":"横町木の下"}]}