{"zip_code":[
{"zip_code":"3940000","kana_pref":"ﾅｶﾞﾉｹﾝ","kana_city":"ｵｶﾔｼ","kana_address":"","pref":"長野県","city":"岡谷市","address":""},
{"zip_code":"3940091","kana_pref":"ﾅｶﾞﾉｹﾝ","kana_city":"ｵｶﾔｼ","kana_address":"ｵｶﾔｼﾉﾂｷﾞﾆﾊﾞﾝﾁｶﾞｸﾙﾊﾞｱｲ","pref":"長野県","city":"岡谷市","address":"岡谷市の次に番地がくる場合"},
{"zip_code":"3940002","kana_pref":"ﾅｶﾞﾉｹﾝ","kana_city":"ｵｶﾔｼ","kana_address":"ｱｶﾊﾈ","pref":"長野県","city":"岡谷市","address":"赤羽"},
{"zip_code":"3940053","kana_pref":"ﾅｶﾞﾉｹﾝ","kana_city":"ｵｶﾔｼ","kana_address":"ｱｼﾉｻﾜ","pref":"長野県","city":"岡谷市","address":"芦ノ沢"},
{"zip_code":"3940001","kana_pref":"ﾅｶﾞﾉｹﾝ","kana_city":"ｵｶﾔｼ","kana_address":"ｲﾏｲ","pref":"長野県","city":"岡谷市","address":"今井"},
{"zip_code":"3940055","kana_pref":"ﾅｶﾞﾉｹﾝ","kana_city":"ｵｶﾔｼ","kana_address":"ｳﾁﾔﾏ","pref":"長野県","city":"岡谷市","address":"内山"},
{"zip_code":"3940051","kana_pref":"ﾅｶﾞﾉｹﾝ","kana_city":"ｵｶﾔｼ","kana_address":"ｴﾝﾚｲ","pref":"長野県","city":"岡谷市","address":"塩嶺"},
{"zip_code":"3940043","kana_pref":"ﾅｶﾞﾉｹﾝ","kana_city":"ｵｶﾔｼ","kana_address":"ｵｸﾗﾁｮｳ","pref":"長野県","city":"岡谷市","address":"御倉町"},
{"zip_code":"3940011","kana_pref":"ﾅｶﾞﾉｹﾝ","kana_city":"ｵｶﾔｼ","kana_address":"ｵｻﾁ","pref":"長野県","city":"岡谷市","address":"長地"},
{"zip_code":"3940089","kana_pref":"ﾅｶﾞﾉｹﾝ","kana_city":"ｵｶﾔｼ","kana_address":"ｵｻﾁｲｽﾞﾊﾔ","pref":"長野県","city":"岡谷市","address":"長地出早"},
{"zip_code":"3940084","kana_pref":"ﾅｶﾞﾉｹﾝ","kana_city":"ｵｶﾔｼ","kana_address":"ｵｻﾁｶﾀﾏﾁｮｳ","pref":"長野県","city":"岡谷市","address":"長地片間町"},
{"zip_code":"3940082","kana_pref":"ﾅｶﾞﾉｹﾝ","kana_city":"ｵｶﾔｼ","kana_address":"ｵｻﾁｺﾞｼｮ","pref":"長野県","city":"岡谷市","address":"長地御所"},
{"zip_code":"3940085","kana_pref":"ﾅｶﾞﾉｹﾝ","kana_city":"ｵｶﾔｼ","kana_address":"ｵｻﾁｺﾊｷﾞ","pref":"長野県","city":"岡谷市","address":"長地小萩"},
{"zip_code":"3940081","kana_pref":"ﾅｶﾞﾉｹﾝ","kana_city":"ｵｶﾔｼ","kana_address":"ｵｻﾁｺﾞﾝｹﾞﾝﾁｮｳ","pref":"長野県","city":"岡谷市","address":"長地権現町"},
{"zip_code":"3940087","kana_pref":"ﾅｶﾞﾉｹﾝ","kana_city":"ｵｶﾔｼ","kana_address":"ｵｻﾁｼｽﾞﾒ","pref":"長野県","city":"岡谷市","address":"長地鎮"},
{"zip_code":"3940083","kana_pref":"ﾅｶﾞﾉｹﾝ","kana_city":"ｵｶﾔｼ","kana_address":"ｵｻﾁｼﾊﾞﾐﾔ","pref":"長野県","city":"岡谷市","address":"長地柴宮"},
{"zip_code":"3940088","kana_pref":"ﾅｶﾞﾉｹﾝ","kana_city":"ｵｶﾔｼ","kana_address":"ｵｻﾁﾅｼｸﾎﾞ","pref":"長野県","city":"岡谷市","address":"長地梨久保"},
{"zip_code":"3940086","kana_pref":"ﾅｶﾞﾉｹﾝ","kana_city":"ｵｶﾔｼ","kana_address":"ｵｻﾁﾐﾅﾓﾄ","pref":"長野県","city":"岡谷市","address":"長地源"},
{"zip_code":"3940003","kana_pref":"ﾅｶﾞﾉｹﾝ","kana_city":"ｵｶﾔｼ","kana_address":"ｶﾓﾁｮｳ","pref":"長野県","city":"岡谷市","address":"加茂町"},
{"zip_code":"3940048","kana_pref":"ﾅｶﾞﾉｹﾝ","kana_city":"ｵｶﾔｼ","kana_address":"ｶﾜｷﾞｼｶﾐ","pref":"長野県","city":"岡谷市","address":"川岸上"},
{"zip_code":"3940047","kana_pref":"ﾅｶﾞﾉｹﾝ","kana_city":"ｵｶﾔｼ","kana_address":"ｶﾜｷﾞｼﾅｶ","pref":"長野県","city":"岡谷市","address":"川岸中"},
{"zip_code":"3940045","kana_pref":"ﾅｶﾞﾉｹﾝ","kana_city":"ｵｶﾔｼ","kana_address":"ｶﾜｷﾞｼﾋｶﾞｼ","pref":"長野県","city":"岡谷市","address":"川岸東"},
{"zip_code":"3940046","kana_pref":"ﾅｶﾞﾉｹﾝ","kana_city":"ｵｶﾔｼ","kana_address":"ｶﾜｷﾞｼﾆｼ","pref":"長野県","city":"岡谷市","address":"川岸西"},
{"zip_code":"3940022","kana_pref":"ﾅｶﾞﾉｹﾝ","kana_city":"ｵｶﾔｼ","kana_address":"ｷﾞﾝｻﾞ","pref":"長野県","city":"岡谷市","address":"銀座"},
{"zip_code":"3940021","kana_pref":"ﾅｶﾞﾉｹﾝ","kana_city":"ｵｶﾔｼ","kana_address":"ｺﾞｳﾀﾞ","pref":"長野県","city":"岡谷市","address":"郷田"},
{"zip_code":"3940034","kana_pref":"ﾅｶﾞﾉｹﾝ","kana_city":"ｵｶﾔｼ","kana_address":"ｺﾊﾝ","pref":"長野県","city":"岡谷市","address":"湖畔"},
{"zip_code":"3940029","kana_pref":"ﾅｶﾞﾉｹﾝ","kana_city":"ｵｶﾔｼ","kana_address":"ｻｲﾜｲﾁｮｳ","pref":"長野県","city":"岡谷市","address":"幸町"},
{"zip_code":"3940004","kana_pref":"ﾅｶﾞﾉｹﾝ","kana_city":"ｵｶﾔｼ","kana_address":"ｼﾝﾒｲﾁｮｳ","pref":"長野県","city":"岡谷市","address":"神明町"},
{"zip_code":"3940025","kana_pref":"ﾅｶﾞﾉｹﾝ","kana_city":"ｵｶﾔｼ","kana_address":"ﾀﾞｲｴｲﾁｮｳ","pref":"長野県","city":"岡谷市","address":"大栄町"},
{"zip_code":"3940031","kana_pref":"ﾅｶﾞﾉｹﾝ","kana_city":"ｵｶﾔｼ","kana_address":"ﾀﾅｶﾁｮｳ","pref":"長野県","city":"岡谷市","address":"田中町"},
{"zip_code":"3940027","kana_pref":"ﾅｶﾞﾉｹﾝ","kana_city":"ｵｶﾔｼ","kana_address":"ﾁｭｳｵｳﾁｮｳ","pref":"長野県","city":"岡谷市","address":"中央町"},
{"zip_code":"3940026","kana_pref":"ﾅｶﾞﾉｹﾝ","kana_city":"ｵｶﾔｼ","kana_address":"ﾂｶﾏﾁｮｳ","pref":"長野県","city":"岡谷市","address":"塚間町"},
{"zip_code":"3940035","kana_pref":"ﾅｶﾞﾉｹﾝ","kana_city":"ｵｶﾔｼ","kana_address":"ﾃﾝﾘｭｳﾁｮｳ","pref":"長野県","city":"岡谷市","address":"天竜町"},
{"zip_code":"3940042","kana_pref":"ﾅｶﾞﾉｹﾝ","kana_city":"ｵｶﾔｼ","kana_address":"ﾅﾙﾀﾁｮｳ","pref":"長野県","city":"岡谷市","address":"成田町"},
{"zip_code":"3940033","kana_pref":"ﾅｶﾞﾉｹﾝ","kana_city":"ｵｶﾔｼ","kana_address":"ﾅﾝｸﾞｳ","pref":"長野県","city":"岡谷市","address":"南宮"},
{"zip_code":"3940052","kana_pref":"ﾅｶﾞﾉｹﾝ","kana_city":"ｵｶﾔｼ","kana_address":"ﾆｼﾊﾞﾔｼ","pref":"長野県","city":"岡谷市","address":"西林"},
{"zip_code":"3940054","kana_pref":"ﾅｶﾞﾉｹﾝ","kana_city":"ｵｶﾔｼ","kana_address":"ﾊﾝﾉｷ","pref":"長野県","city":"岡谷市","address":"半ノ木"},
{"zip_code":"3940023","kana_pref":"ﾅｶﾞﾉｹﾝ","kana_city":"ｵｶﾔｼ","kana_address":"ﾋｶﾞｼｷﾞﾝｻﾞ","pref":"長野県","city":"岡谷市","address":"東銀座"},
{"zip_code":"3940056","kana_pref":"ﾅｶﾞﾉｹﾝ","kana_city":"ｵｶﾔｼ","kana_address":"ﾋｻﾞﾜ","pref":"長野県","city":"岡谷市","address":"樋沢"},
{"zip_code":"3940024","kana_pref":"ﾅｶﾞﾉｹﾝ","kana_city":"ｵｶﾔｼ","kana_address":"ﾎﾘﾉｳﾁ","pref":"長野県","city":"岡谷市","address":"堀ノ内"},
{"zip_code":"3940028","kana_pref":"ﾅｶﾞﾉｹﾝ","kana_city":"ｵｶﾔｼ","kana_address":"ﾎﾝﾁｮｳ","pref":"長野県","city":"岡谷市","address":"本町"},
{"zip_code":"3940044","kana_pref":"ﾅｶﾞﾉｹﾝ","kana_city":"ｵｶﾔｼ","kana_address":"ﾐﾅﾄ","pref":"長野県","city":"岡谷市","address":"湊"},
{"zip_code":"3940005","kana_pref":"ﾅｶﾞﾉｹﾝ","kana_city":"ｵｶﾔｼ","kana_address":"ﾔﾏｼﾀﾁｮｳ","pref":"長野県","city":"岡谷市","address":"山下町"},
{"zip_code":"3940041","kana_pref":"ﾅｶﾞﾉｹﾝ","kana_city":"ｵｶﾔｼ","kana_address":"ﾔﾏﾃﾁｮｳ","pref":"長野県","city":"岡谷市","address":"山手町"},
{"zip_code":"3940053","kana_pref":"ﾅｶﾞﾉｹﾝ","kana_city":"ｵｶﾔｼ","kana_address":"ﾖｷﾞﾄｷﾞｻﾜ","pref":"長野県","city":"岡谷市","address":"ヨギトギ沢"},
{"zip_code":"3940032","kana_pref":"ﾅｶﾞﾉｹﾝ","kana_city":"ｵｶﾔｼ","kana_address":"ﾜｶﾐﾔ","pref":"長野県","city":"岡谷市","address":"若宮"}]}