{"zip_code":[
{"zip_code":"3950000","kana_pref":"ﾅｶﾞﾉｹﾝ","kana_city":"ｲｲﾀﾞｼ","kana_address":"","pref":"長野県","city":"飯田市","address":""},
{"zip_code":"3950072","kana_pref":"ﾅｶﾞﾉｹﾝ","kana_city":"ｲｲﾀﾞｼ","kana_address":"ｱｹﾎﾞﾉﾁｮｳ","pref":"長野県","city":"飯田市","address":"曙町"},
{"zip_code":"3950055","kana_pref":"ﾅｶﾞﾉｹﾝ","kana_city":"ｲｲﾀﾞｼ","kana_address":"ｱｻﾋﾏﾁ","pref":"長野県","city":"飯田市","address":"旭町"},
{"zip_code":"3950085","kana_pref":"ﾅｶﾞﾉｹﾝ","kana_city":"ｲｲﾀﾞｼ","kana_address":"ｱｽﾞﾏﾁｮｳ","pref":"長野県","city":"飯田市","address":"吾妻町"},
{"zip_code":"3950036","kana_pref":"ﾅｶﾞﾉｹﾝ","kana_city":"ｲｲﾀﾞｼ","kana_address":"ｱﾀｺﾞﾁｮｳ","pref":"長野県","city":"飯田市","address":"愛宕町"},
{"zip_code":"3950152","kana_pref":"ﾅｶﾞﾉｹﾝ","kana_city":"ｲｲﾀﾞｼ","kana_address":"ｲｸﾗﾁｮｳ","pref":"長野県","city":"飯田市","address":"育良町"},
{"zip_code":"3950071","kana_pref":"ﾅｶﾞﾉｹﾝ","kana_city":"ｲｲﾀﾞｼ","kana_address":"ｲﾏﾐﾔﾁｮｳ","pref":"長野県","city":"飯田市","address":"今宮町"},
{"zip_code":"3950023","kana_pref":"ﾅｶﾞﾉｹﾝ","kana_city":"ｲｲﾀﾞｼ","kana_address":"ｴﾄﾞﾊﾏﾁｮｳ","pref":"長野県","city":"飯田市","address":"江戸浜町"},
{"zip_code":"3950015","kana_pref":"ﾅｶﾞﾉｹﾝ","kana_city":"ｲｲﾀﾞｼ","kana_address":"ｴﾄﾞﾏﾁ","pref":"長野県","city":"飯田市","address":"江戸町"},
{"zip_code":"3950046","kana_pref":"ﾅｶﾞﾉｹﾝ","kana_city":"ｲｲﾀﾞｼ","kana_address":"ｵｳｷﾞﾏﾁ","pref":"長野県","city":"飯田市","address":"扇町"},
{"zip_code":"3950034","kana_pref":"ﾅｶﾞﾉｹﾝ","kana_city":"ｲｲﾀﾞｼ","kana_address":"ｵｳﾃﾏﾁ","pref":"長野県","city":"飯田市","address":"追手町"},
{"zip_code":"3950053","kana_pref":"ﾅｶﾞﾉｹﾝ","kana_city":"ｲｲﾀﾞｼ","kana_address":"ｵｵｸﾎﾞﾁｮｳ","pref":"長野県","city":"飯田市","address":"大久保町"},
{"zip_code":"3950157","kana_pref":"ﾅｶﾞﾉｹﾝ","kana_city":"ｲｲﾀﾞｼ","kana_address":"ｵｵｾｷﾞ","pref":"長野県","city":"飯田市","address":"大瀬木"},
{"zip_code":"3950056","kana_pref":"ﾅｶﾞﾉｹﾝ","kana_city":"ｲｲﾀﾞｼ","kana_address":"ｵｵﾄﾞｵﾘ","pref":"長野県","city":"飯田市","address":"大通"},
{"zip_code":"3950068","kana_pref":"ﾅｶﾞﾉｹﾝ","kana_city":"ｲｲﾀﾞｼ","kana_address":"ｵｵﾔｽﾐ","pref":"長野県","city":"飯田市","address":"大休"},
{"zip_code":"3950028","kana_pref":"ﾅｶﾞﾉｹﾝ","kana_city":"ｲｲﾀﾞｼ","kana_address":"ｵｻﾋﾒﾁｮｳ","pref":"長野県","city":"飯田市","address":"長姫町"},
{"zip_code":"3950805","kana_pref":"ﾅｶﾞﾉｹﾝ","kana_city":"ｲｲﾀﾞｼ","kana_address":"ｶﾅｴｲｯｼｷ","pref":"長野県","city":"飯田市","address":"鼎一色"},
{"zip_code":"3950808","kana_pref":"ﾅｶﾞﾉｹﾝ","kana_city":"ｲｲﾀﾞｼ","kana_address":"ｶﾅｴｶﾐﾁｬﾔ","pref":"長野県","city":"飯田市","address":"鼎上茶屋"},
{"zip_code":"3950802","kana_pref":"ﾅｶﾞﾉｹﾝ","kana_city":"ｲｲﾀﾞｼ","kana_address":"ｶﾅｴｼﾓﾁｬﾔ","pref":"長野県","city":"飯田市","address":"鼎下茶屋"},
{"zip_code":"3950806","kana_pref":"ﾅｶﾞﾉｹﾝ","kana_city":"ｲｲﾀﾞｼ","kana_address":"ｶﾅｴｶﾐﾔﾏ","pref":"長野県","city":"飯田市","address":"鼎上山"},
{"zip_code":"3950803","kana_pref":"ﾅｶﾞﾉｹﾝ","kana_city":"ｲｲﾀﾞｼ","kana_address":"ｶﾅｴｼﾓﾔﾏ","pref":"長野県","city":"飯田市","address":"鼎下山"},
{"zip_code":"3950807","kana_pref":"ﾅｶﾞﾉｹﾝ","kana_city":"ｲｲﾀﾞｼ","kana_address":"ｶﾅｴｷﾘｲｼ","pref":"長野県","city":"飯田市","address":"鼎切石"},
{"zip_code":"3950801","kana_pref":"ﾅｶﾞﾉｹﾝ","kana_city":"ｲｲﾀﾞｼ","kana_address":"ｶﾅｴﾅｶﾀﾞｲﾗ","pref":"長野県","city":"飯田市","address":"鼎中平"},
{"zip_code":"3950804","kana_pref":"ﾅｶﾞﾉｹﾝ","kana_city":"ｲｲﾀﾞｼ","kana_address":"ｶﾅｴﾅｺﾞｸﾏ","pref":"長野県","city":"飯田市","address":"鼎名古熊"},
{"zip_code":"3950817","kana_pref":"ﾅｶﾞﾉｹﾝ","kana_city":"ｲｲﾀﾞｼ","kana_address":"ｶﾅｴﾋｶﾞｼｶﾅｴ","pref":"長野県","city":"飯田市","address":"鼎東鼎"},
{"zip_code":"3950026","kana_pref":"ﾅｶﾞﾉｹﾝ","kana_city":"ｲｲﾀﾞｼ","kana_address":"ｶﾅｴﾆｼｶﾅｴ","pref":"長野県","city":"飯田市","address":"鼎西鼎"},
{"zip_code":"3950002","kana_pref":"ﾅｶﾞﾉｹﾝ","kana_city":"ｲｲﾀﾞｼ","kana_address":"ｶﾐｻﾄｲｲﾇﾏ","pref":"長野県","city":"飯田市","address":"上郷飯沼"},
{"zip_code":"3950003","kana_pref":"ﾅｶﾞﾉｹﾝ","kana_city":"ｲｲﾀﾞｼ","kana_address":"ｶﾐｻﾄﾍﾞｯﾌﾟ","pref":"長野県","city":"飯田市","address":"上郷別府"},
{"zip_code":"3950004","kana_pref":"ﾅｶﾞﾉｹﾝ","kana_city":"ｲｲﾀﾞｼ","kana_address":"ｶﾐｻﾄｸﾛﾀﾞ","pref":"長野県","city":"飯田市","address":"上郷黒田"},
{"zip_code":"3950153","kana_pref":"ﾅｶﾞﾉｹﾝ","kana_city":"ｲｲﾀﾞｼ","kana_address":"ｶﾐﾄﾉｵｶ","pref":"長野県","city":"飯田市","address":"上殿岡"},
{"zip_code":"3950151","kana_pref":"ﾅｶﾞﾉｹﾝ","kana_city":"ｲｲﾀﾞｼ","kana_address":"ｷﾀｶﾞﾀ","pref":"長野県","city":"飯田市","address":"北方"},
{"zip_code":"3950031","kana_pref":"ﾅｶﾞﾉｹﾝ","kana_city":"ｲｲﾀﾞｼ","kana_address":"ｷﾞﾝｻﾞ","pref":"長野県","city":"飯田市","address":"銀座"},
{"zip_code":"3950241","kana_pref":"ﾅｶﾞﾉｹﾝ","kana_city":"ｲｲﾀﾞｼ","kana_address":"ｸﾒ","pref":"長野県","city":"飯田市","address":"久米"},
{"zip_code":"3950813","kana_pref":"ﾅｶﾞﾉｹﾝ","kana_city":"ｲｲﾀﾞｼ","kana_address":"ｹｶﾞ","pref":"長野県","city":"飯田市","address":"毛賀"},
{"zip_code":"3950013","kana_pref":"ﾅｶﾞﾉｹﾝ","kana_city":"ｲｲﾀﾞｼ","kana_address":"ｺﾃﾞﾝﾏﾁｮｳ","pref":"長野県","city":"飯田市","address":"小伝馬町"},
{"zip_code":"3950014","kana_pref":"ﾅｶﾞﾉｹﾝ","kana_city":"ｲｲﾀﾞｼ","kana_address":"ｻｸﾗﾏﾁ","pref":"長野県","city":"飯田市","address":"桜町"},
{"zip_code":"3950001","kana_pref":"ﾅｶﾞﾉｹﾝ","kana_city":"ｲｲﾀﾞｼ","kana_address":"ｻﾞｺｳｼﾞ","pref":"長野県","city":"飯田市","address":"座光寺"},
{"zip_code":"3950154","kana_pref":"ﾅｶﾞﾉｹﾝ","kana_city":"ｲｲﾀﾞｼ","kana_address":"ｼﾓﾄﾉｵｶ","pref":"長野県","city":"飯田市","address":"下殿岡"},
{"zip_code":"3950061","kana_pref":"ﾅｶﾞﾉｹﾝ","kana_city":"ｲｲﾀﾞｼ","kana_address":"ｼｮｳｴｲﾁｮｳ","pref":"長野県","city":"飯田市","address":"正永町"},
{"zip_code":"3950084","kana_pref":"ﾅｶﾞﾉｹﾝ","kana_city":"ｲｲﾀﾞｼ","kana_address":"ｽｽﾞｶﾁｮｳ","pref":"長野県","city":"飯田市","address":"鈴加町"},
{"zip_code":"3950062","kana_pref":"ﾅｶﾞﾉｹﾝ","kana_city":"ｲｲﾀﾞｼ","kana_address":"ｽﾅﾊﾗｲﾁｮｳ","pref":"長野県","city":"飯田市","address":"砂払町"},
{"zip_code":"3950018","kana_pref":"ﾅｶﾞﾉｹﾝ","kana_city":"ｲｲﾀﾞｼ","kana_address":"ｽﾜﾁｮｳ","pref":"長野県","city":"飯田市","address":"諏訪町"},
{"zip_code":"3950012","kana_pref":"ﾅｶﾞﾉｹﾝ","kana_city":"ｲｲﾀﾞｼ","kana_address":"ﾀﾞｲｵｳｼﾞ","pref":"長野県","city":"飯田市","address":"大王路"},
{"zip_code":"3950011","kana_pref":"ﾅｶﾞﾉｹﾝ","kana_city":"ｲｲﾀﾞｼ","kana_address":"ﾀﾞｲﾓﾝﾁｮｳ","pref":"長野県","city":"飯田市","address":"大門町"},
{"zip_code":"3950051","kana_pref":"ﾅｶﾞﾉｹﾝ","kana_city":"ｲｲﾀﾞｼ","kana_address":"ﾀｶﾊﾁｮｳ","pref":"長野県","city":"飯田市","address":"高羽町"},
{"zip_code":"3950048","kana_pref":"ﾅｶﾞﾉｹﾝ","kana_city":"ｲｲﾀﾞｼ","kana_address":"ﾀｷﾉｻﾜ","pref":"長野県","city":"飯田市","address":"滝の沢"},
{"zip_code":"3950242","kana_pref":"ﾅｶﾞﾉｹﾝ","kana_city":"ｲｲﾀﾞｼ","kana_address":"ﾀｹｻ","pref":"長野県","city":"飯田市","address":"竹佐"},
{"zip_code":"3950032","kana_pref":"ﾅｶﾞﾉｹﾝ","kana_city":"ｲｲﾀﾞｼ","kana_address":"ﾁｶﾗﾏﾁ","pref":"長野県","city":"飯田市","address":"主税町"},
{"zip_code":"3950045","kana_pref":"ﾅｶﾞﾉｹﾝ","kana_city":"ｲｲﾀﾞｼ","kana_address":"ﾁｸﾏﾁ","pref":"長野県","city":"飯田市","address":"知久町"},
{"zip_code":"3950041","kana_pref":"ﾅｶﾞﾉｹﾝ","kana_city":"ｲｲﾀﾞｼ","kana_address":"ﾁｭｳｵｳﾄﾞｵﾘ","pref":"長野県","city":"飯田市","address":"中央通り"},
{"zip_code":"3950016","kana_pref":"ﾅｶﾞﾉｹﾝ","kana_city":"ｲｲﾀﾞｼ","kana_address":"ﾃﾝﾏﾁｮｳ","pref":"長野県","city":"飯田市","address":"伝馬町"},
{"zip_code":"3950024","kana_pref":"ﾅｶﾞﾉｹﾝ","kana_city":"ｲｲﾀﾞｼ","kana_address":"ﾄｳｴｲﾁｮｳ","pref":"長野県","city":"飯田市","address":"東栄町"},
{"zip_code":"3950017","kana_pref":"ﾅｶﾞﾉｹﾝ","kana_city":"ｲｲﾀﾞｼ","kana_address":"ﾄｳｼﾝﾁｮｳ","pref":"長野県","city":"飯田市","address":"東新町"},
{"zip_code":"3950086","kana_pref":"ﾅｶﾞﾉｹﾝ","kana_city":"ｲｲﾀﾞｼ","kana_address":"ﾄｳﾜﾁｮｳ","pref":"長野県","city":"飯田市","address":"東和町"},
{"zip_code":"3950043","kana_pref":"ﾅｶﾞﾉｹﾝ","kana_city":"ｲｲﾀﾞｼ","kana_address":"ﾄｵﾘﾏﾁ","pref":"長野県","city":"飯田市","address":"通り町"},
{"zip_code":"3950033","kana_pref":"ﾅｶﾞﾉｹﾝ","kana_city":"ｲｲﾀﾞｼ","kana_address":"ﾄｷﾜﾏﾁ","pref":"長野県","city":"飯田市","address":"常盤町"},
{"zip_code":"3950021","kana_pref":"ﾅｶﾞﾉｹﾝ","kana_city":"ｲｲﾀﾞｼ","kana_address":"ﾅｶﾉﾁｮｳ","pref":"長野県","city":"飯田市","address":"仲ノ町"},
{"zip_code":"3950156","kana_pref":"ﾅｶﾞﾉｹﾝ","kana_city":"ｲｲﾀﾞｼ","kana_address":"ﾅｶﾑﾗ","pref":"長野県","city":"飯田市","address":"中村"},
{"zip_code":"3950083","kana_pref":"ﾅｶﾞﾉｹﾝ","kana_city":"ｲｲﾀﾞｼ","kana_address":"ﾆｼｷﾁｮｳ","pref":"長野県","city":"飯田市","address":"錦町"},
{"zip_code":"3950029","kana_pref":"ﾅｶﾞﾉｹﾝ","kana_city":"ｲｲﾀﾞｼ","kana_address":"ﾆﾎﾝﾏﾂ","pref":"長野県","city":"飯田市","address":"二本松"},
{"zip_code":"3950076","kana_pref":"ﾅｶﾞﾉｹﾝ","kana_city":"ｲｲﾀﾞｼ","kana_address":"ﾊｸｻﾝﾁｮｳ","pref":"長野県","city":"飯田市","address":"白山町"},
{"zip_code":"3950075","kana_pref":"ﾅｶﾞﾉｹﾝ","kana_city":"ｲｲﾀﾞｼ","kana_address":"ﾊｸｻﾝﾄﾞｵﾘ","pref":"長野県","city":"飯田市","address":"白山通り"},
{"zip_code":"3950243","kana_pref":"ﾅｶﾞﾉｹﾝ","kana_city":"ｲｲﾀﾞｼ","kana_address":"ﾊｺｶﾞﾜ","pref":"長野県","city":"飯田市","address":"箱川"},
{"zip_code":"3950066","kana_pref":"ﾅｶﾞﾉｹﾝ","kana_city":"ｲｲﾀﾞｼ","kana_address":"ﾊﾊﾞｱｶｻｶ","pref":"長野県","city":"飯田市","address":"羽場赤坂"},
{"zip_code":"3950065","kana_pref":"ﾅｶﾞﾉｹﾝ","kana_city":"ｲｲﾀﾞｼ","kana_address":"ﾊﾊﾞｶﾐｶﾞﾜﾗ","pref":"長野県","city":"飯田市","address":"羽場上河原"},
{"zip_code":"3950067","kana_pref":"ﾅｶﾞﾉｹﾝ","kana_city":"ｲｲﾀﾞｼ","kana_address":"ﾊﾊﾞｺﾞﾝｹﾞﾝ","pref":"長野県","city":"飯田市","address":"羽場権現"},
{"zip_code":"3950073","kana_pref":"ﾅｶﾞﾉｹﾝ","kana_city":"ｲｲﾀﾞｼ","kana_address":"ﾊﾊﾞｻﾞｶﾁｮｳ","pref":"長野県","city":"飯田市","address":"羽場坂町"},
{"zip_code":"3950063","kana_pref":"ﾅｶﾞﾉｹﾝ","kana_city":"ｲｲﾀﾞｼ","kana_address":"ﾊﾊﾞﾁｮｳ","pref":"長野県","city":"飯田市","address":"羽場町"},
{"zip_code":"3950064","kana_pref":"ﾅｶﾞﾉｹﾝ","kana_city":"ｲｲﾀﾞｼ","kana_address":"ﾊﾊﾞﾅｶﾊﾀ","pref":"長野県","city":"飯田市","address":"羽場仲畑"},
{"zip_code":"3950027","kana_pref":"ﾅｶﾞﾉｹﾝ","kana_city":"ｲｲﾀﾞｼ","kana_address":"ﾊﾞﾊﾞﾝﾁｮｳ","pref":"長野県","city":"飯田市","address":"馬場町"},
{"zip_code":"3950022","kana_pref":"ﾅｶﾞﾉｹﾝ","kana_city":"ｲｲﾀﾞｼ","kana_address":"ﾊﾏｲﾁｮｳ","pref":"長野県","city":"飯田市","address":"浜井町"},
{"zip_code":"3950025","kana_pref":"ﾅｶﾞﾉｹﾝ","kana_city":"ｲｲﾀﾞｼ","kana_address":"ﾋｶﾞｼﾁｭｳｵｳﾄﾞｵﾘ","pref":"長野県","city":"飯田市","address":"東中央通り"},
{"zip_code":"3950044","kana_pref":"ﾅｶﾞﾉｹﾝ","kana_city":"ｲｲﾀﾞｼ","kana_address":"ﾎﾝﾏﾁ","pref":"長野県","city":"飯田市","address":"本町"},
{"zip_code":"3950811","kana_pref":"ﾅｶﾞﾉｹﾝ","kana_city":"ｲｲﾀﾞｼ","kana_address":"ﾏﾂｵｱｹﾞﾐｿﾞ","pref":"長野県","city":"飯田市","address":"松尾上溝"},
{"zip_code":"3950821","kana_pref":"ﾅｶﾞﾉｹﾝ","kana_city":"ｲｲﾀﾞｼ","kana_address":"ﾏﾂｵｱﾗｲ","pref":"長野県","city":"飯田市","address":"松尾新井"},
{"zip_code":"3950824","kana_pref":"ﾅｶﾞﾉｹﾝ","kana_city":"ｲｲﾀﾞｼ","kana_address":"ﾏﾂｵｼﾐｽﾞ","pref":"長野県","city":"飯田市","address":"松尾清水"},
{"zip_code":"3950812","kana_pref":"ﾅｶﾞﾉｹﾝ","kana_city":"ｲｲﾀﾞｼ","kana_address":"ﾏﾂｵｼﾛﾀﾞ","pref":"長野県","city":"飯田市","address":"松尾代田"},
{"zip_code":"3950825","kana_pref":"ﾅｶﾞﾉｹﾝ","kana_city":"ｲｲﾀﾞｼ","kana_address":"ﾏﾂｵｼﾞｮｳ","pref":"長野県","city":"飯田市","address":"松尾城"},
{"zip_code":"3950822","kana_pref":"ﾅｶﾞﾉｹﾝ","kana_city":"ｲｲﾀﾞｼ","kana_address":"ﾏﾂｵﾃﾗﾄﾞｺ","pref":"長野県","city":"飯田市","address":"松尾寺所"},
{"zip_code":"3950815","kana_pref":"ﾅｶﾞﾉｹﾝ","kana_city":"ｲｲﾀﾞｼ","kana_address":"ﾏﾂｵﾄｷﾜﾀﾞｲ","pref":"長野県","city":"飯田市","address":"松尾常盤台"},
{"zip_code":"3950816","kana_pref":"ﾅｶﾞﾉｹﾝ","kana_city":"ｲｲﾀﾞｼ","kana_address":"ﾏﾂｵﾋｻｲ","pref":"長野県","city":"飯田市","address":"松尾久井"},
{"zip_code":"3950042","kana_pref":"ﾅｶﾞﾉｹﾝ","kana_city":"ｲｲﾀﾞｼ","kana_address":"ﾏﾂｵﾏﾁ","pref":"長野県","city":"飯田市","address":"松尾町"},
{"zip_code":"3950826","kana_pref":"ﾅｶﾞﾉｹﾝ","kana_city":"ｲｲﾀﾞｼ","kana_address":"ﾏﾂｵﾐｻｼﾞﾛ","pref":"長野県","city":"飯田市","address":"松尾水城"},
{"zip_code":"3950823","kana_pref":"ﾅｶﾞﾉｹﾝ","kana_city":"ｲｲﾀﾞｼ","kana_address":"ﾏﾂｵﾐｮｳ","pref":"長野県","city":"飯田市","address":"松尾明"},
{"zip_code":"3950074","kana_pref":"ﾅｶﾞﾉｹﾝ","kana_city":"ｲｲﾀﾞｼ","kana_address":"ﾏﾂｶﾜﾁｮｳ","pref":"長野県","city":"飯田市","address":"松川町"},
{"zip_code":"3950077","kana_pref":"ﾅｶﾞﾉｹﾝ","kana_city":"ｲｲﾀﾞｼ","kana_address":"ﾏﾙﾔﾏﾁｮｳ","pref":"長野県","city":"飯田市","address":"丸山町"},
{"zip_code":"3950035","kana_pref":"ﾅｶﾞﾉｹﾝ","kana_city":"ｲｲﾀﾞｼ","kana_address":"ﾐｽﾞﾉﾃﾁｮｳ","pref":"長野県","city":"飯田市","address":"水の手町"},
{"zip_code":"3950155","kana_pref":"ﾅｶﾞﾉｹﾝ","kana_city":"ｲｲﾀﾞｼ","kana_address":"ﾐｯｶｲﾁﾊﾞ","pref":"長野県","city":"飯田市","address":"三日市場"},
{"zip_code":"3950037","kana_pref":"ﾅｶﾞﾉｹﾝ","kana_city":"ｲｲﾀﾞｼ","kana_address":"ﾐﾅﾐﾄｷﾜﾏﾁ","pref":"長野県","city":"飯田市","address":"南常盤町"},
{"zip_code":"3950054","kana_pref":"ﾅｶﾞﾉｹﾝ","kana_city":"ｲｲﾀﾞｼ","kana_address":"ﾐﾉｾﾞﾁｮｳ","pref":"長野県","city":"飯田市","address":"箕瀬町"},
{"zip_code":"3950081","kana_pref":"ﾅｶﾞﾉｹﾝ","kana_city":"ｲｲﾀﾞｼ","kana_address":"ﾐﾔﾉｳｴ","pref":"長野県","city":"飯田市","address":"宮ノ上"},
{"zip_code":"3950082","kana_pref":"ﾅｶﾞﾉｹﾝ","kana_city":"ｲｲﾀﾞｼ","kana_address":"ﾐﾔﾉﾏｴ","pref":"長野県","city":"飯田市","address":"宮の前"},
{"zip_code":"3950052","kana_pref":"ﾅｶﾞﾉｹﾝ","kana_city":"ｲｲﾀﾞｼ","kana_address":"ﾓﾄﾏﾁ","pref":"長野県","city":"飯田市","address":"元町"},
{"zip_code":"3950244","kana_pref":"ﾅｶﾞﾉｹﾝ","kana_city":"ｲｲﾀﾞｼ","kana_address":"ﾔﾏﾓﾄ","pref":"長野県","city":"飯田市","address":"山本"},
{"zip_code":"3950245","kana_pref":"ﾅｶﾞﾉｹﾝ","kana_city":"ｲｲﾀﾞｼ","kana_address":"ﾔﾏﾓﾄﾌﾀﾂﾔﾏﾀﾞﾝﾁ","pref":"長野県","city":"飯田市","address":"山本二ツ山団地"},
{"zip_code":"3950814","kana_pref":"ﾅｶﾞﾉｹﾝ","kana_city":"ｲｲﾀﾞｼ","kana_address":"ﾔﾜﾀﾏﾁ","pref":"長野県","city":"飯田市","address":"八幡町"},
{"zip_code":"3950300","kana_pref":"ﾅｶﾞﾉｹﾝ","kana_city":"ｼﾓｲﾅｸﾞﾝｱﾁﾑﾗ","kana_address":"","pref":"長野県","city":"下伊那郡阿智村","address":""},
{"zip_code":"3950301","kana_pref":"ﾅｶﾞﾉｹﾝ","kana_city":"ｼﾓｲﾅｸﾞﾝｱﾁﾑﾗ","kana_address":"ｶｽｶﾞ","pref":"長野県","city":"下伊那郡阿智村","address":"春日"},
{"zip_code":"3950302","kana_pref":"ﾅｶﾞﾉｹﾝ","kana_city":"ｼﾓｲﾅｸﾞﾝｱﾁﾑﾗ","kana_address":"ｺﾞｶ","pref":"長野県","city":"下伊那郡阿智村","address":"伍和"},
{"zip_code":"3950305","kana_pref":"ﾅｶﾞﾉｹﾝ","kana_city":"ｼﾓｲﾅｸﾞﾝｱﾁﾑﾗ","kana_address":"ｺﾏ","pref":"長野県","city":"下伊那郡阿智村","address":"駒"},
{"zip_code":"3950303","kana_pref":"ﾅｶﾞﾉｹﾝ","kana_city":"ｼﾓｲﾅｸﾞﾝｱﾁﾑﾗ","kana_address":"ｺﾏﾊﾞ","pref":"長野県","city":"下伊那郡阿智村","address":"駒場"},
{"zip_code":"3950401","kana_pref":"ﾅｶﾞﾉｹﾝ","kana_city":"ｼﾓｲﾅｸﾞﾝｱﾁﾑﾗ","kana_address":"ｾｲﾅｲｼﾞ","pref":"長野県","city":"下伊那郡阿智村","address":"清内路"},
{"zip_code":"3950304","kana_pref":"ﾅｶﾞﾉｹﾝ","kana_city":"ｼﾓｲﾅｸﾞﾝｱﾁﾑﾗ","kana_address":"ﾁｻﾄ","pref":"長野県","city":"下伊那郡阿智村","address":"智里"},
{"zip_code":"3950501","kana_pref":"ﾅｶﾞﾉｹﾝ","kana_city":"ｼﾓｲﾅｸﾞﾝｱﾁﾑﾗ","kana_address":"ﾅﾐｱｲ","pref":"長野県","city":"下伊那郡阿智村","address":"浪合"},
{"zip_code":"3950601","kana_pref":"ﾅｶﾞﾉｹﾝ","kana_city":"ｼﾓｲﾅｸﾞﾝﾋﾗﾔﾑﾗ","kana_address":"ﾋﾗﾔﾑﾗｲﾁｴﾝ","pref":"長野県","city":"下伊那郡平谷村","address":"平谷村一円"},
{"zip_code":"3950701","kana_pref":"ﾅｶﾞﾉｹﾝ","kana_city":"ｼﾓｲﾅｸﾞﾝﾈﾊﾞﾑﾗ","kana_address":"ﾈﾊﾞﾑﾗｲﾁｴﾝ","pref":"長野県","city":"下伊那郡根羽村","address":"根羽村一円"},
{"zip_code":"3951100","kana_pref":"ﾅｶﾞﾉｹﾝ","kana_city":"ｼﾓｲﾅｸﾞﾝﾀｶｷﾞﾑﾗ","kana_address":"","pref":"長野県","city":"下伊那郡喬木村","address":""},
{"zip_code":"3951101","kana_pref":"ﾅｶﾞﾉｹﾝ","kana_city":"ｼﾓｲﾅｸﾞﾝﾀｶｷﾞﾑﾗ","kana_address":"ｱｼﾞﾏ","pref":"長野県","city":"下伊那郡喬木村","address":"阿島"},
{"zip_code":"3951108","kana_pref":"ﾅｶﾞﾉｹﾝ","kana_city":"ｼﾓｲﾅｸﾞﾝﾀｶｷﾞﾑﾗ","kana_address":"ｲｸﾏ","pref":"長野県","city":"下伊那郡喬木村","address":"伊久間"},
{"zip_code":"3951104","kana_pref":"ﾅｶﾞﾉｹﾝ","kana_city":"ｼﾓｲﾅｸﾞﾝﾀｶｷﾞﾑﾗ","kana_address":"ｳｼﾞﾉﾘ","pref":"長野県","city":"下伊那郡喬木村","address":"氏乗"},
{"zip_code":"3951103","kana_pref":"ﾅｶﾞﾉｹﾝ","kana_city":"ｼﾓｲﾅｸﾞﾝﾀｶｷﾞﾑﾗ","kana_address":"ｵｵｼﾏ","pref":"長野県","city":"下伊那郡喬木村","address":"大島"},
{"zip_code":"3951105","kana_pref":"ﾅｶﾞﾉｹﾝ","kana_city":"ｼﾓｲﾅｸﾞﾝﾀｶｷﾞﾑﾗ","kana_address":"ｵｵﾜﾁ","pref":"長野県","city":"下伊那郡喬木村","address":"大和知"},
{"zip_code":"3951107","kana_pref":"ﾅｶﾞﾉｹﾝ","kana_city":"ｼﾓｲﾅｸﾞﾝﾀｶｷﾞﾑﾗ","kana_address":"ｵｶﾞﾜ","pref":"長野県","city":"下伊那郡喬木村","address":"小川"},
{"zip_code":"3951102","kana_pref":"ﾅｶﾞﾉｹﾝ","kana_city":"ｼﾓｲﾅｸﾞﾝﾀｶｷﾞﾑﾗ","kana_address":"ｶｶｽ","pref":"長野県","city":"下伊那郡喬木村","address":"加々須"},
{"zip_code":"3951106","kana_pref":"ﾅｶﾞﾉｹﾝ","kana_city":"ｼﾓｲﾅｸﾞﾝﾀｶｷﾞﾑﾗ","kana_address":"ﾄﾐﾀﾞ","pref":"長野県","city":"下伊那郡喬木村","address":"富田"}]}