{"zip_code":[
{"zip_code":"3960000","kana_pref":"ﾅｶﾞﾉｹﾝ","kana_city":"ｲﾅｼ","kana_address":"","pref":"長野県","city":"伊那市","address":""},
{"zip_code":"3960025","kana_pref":"ﾅｶﾞﾉｹﾝ","kana_city":"ｲﾅｼ","kana_address":"ｱﾗｲ","pref":"長野県","city":"伊那市","address":"荒井"},
{"zip_code":"3960028","kana_pref":"ﾅｶﾞﾉｹﾝ","kana_city":"ｲﾅｼ","kana_address":"ｱﾗｲｳﾁﾉｶﾔ","pref":"長野県","city":"伊那市","address":"荒井内の萱"},
{"zip_code":"3960021","kana_pref":"ﾅｶﾞﾉｹﾝ","kana_city":"ｲﾅｼ","kana_address":"ｲﾅ","pref":"長野県","city":"伊那市","address":"伊那"},
{"zip_code":"3960011","kana_pref":"ﾅｶﾞﾉｹﾝ","kana_city":"ｲﾅｼ","kana_address":"ｲﾅﾍﾞ","pref":"長野県","city":"伊那市","address":"伊那部"},
{"zip_code":"3960008","kana_pref":"ﾅｶﾞﾉｹﾝ","kana_city":"ｲﾅｼ","kana_address":"ｳｴﾉﾊﾗ","pref":"長野県","city":"伊那市","address":"上の原"},
{"zip_code":"3960032","kana_pref":"ﾅｶﾞﾉｹﾝ","kana_city":"ｲﾅｼ","kana_address":"ｵｻﾞﾜ","pref":"長野県","city":"伊那市","address":"小沢"},
{"zip_code":"3960012","kana_pref":"ﾅｶﾞﾉｹﾝ","kana_city":"ｲﾅｼ","kana_address":"ｶﾐｼﾝﾃﾞﾝ","pref":"長野県","city":"伊那市","address":"上新田"},
{"zip_code":"3960006","kana_pref":"ﾅｶﾞﾉｹﾝ","kana_city":"ｲﾅｼ","kana_address":"ｶﾐﾏｷ","pref":"長野県","city":"伊那市","address":"上牧"},
{"zip_code":"3960014","kana_pref":"ﾅｶﾞﾉｹﾝ","kana_city":"ｲﾅｼ","kana_address":"ｷﾂﾈｼﾞﾏ","pref":"長野県","city":"伊那市","address":"狐島"},
{"zip_code":"3960033","kana_pref":"ﾅｶﾞﾉｹﾝ","kana_city":"ｲﾅｼ","kana_address":"ｺｼﾛｳｸﾎﾞ","pref":"長野県","city":"伊那市","address":"小四郎久保"},
{"zip_code":"3960010","kana_pref":"ﾅｶﾞﾉｹﾝ","kana_city":"ｲﾅｼ","kana_address":"ｻｶｲ","pref":"長野県","city":"伊那市","address":"境"},
{"zip_code":"3960024","kana_pref":"ﾅｶﾞﾉｹﾝ","kana_city":"ｲﾅｼ","kana_address":"ｻｶｼﾀ","pref":"長野県","city":"伊那市","address":"坂下"},
{"zip_code":"3960013","kana_pref":"ﾅｶﾞﾉｹﾝ","kana_city":"ｲﾅｼ","kana_address":"ｼﾓｼﾝﾃﾞﾝ","pref":"長野県","city":"伊那市","address":"下新田"},
{"zip_code":"3960114","kana_pref":"ﾅｶﾞﾉｹﾝ","kana_city":"ｲﾅｼ","kana_address":"ｾﾝﾐ","pref":"長野県","city":"伊那市","address":"仙美"},
{"zip_code":"3960212","kana_pref":"ﾅｶﾞﾉｹﾝ","kana_city":"ｲﾅｼ","kana_address":"ﾀｶﾄｵﾏﾁｵｻﾌｼﾞ","pref":"長野県","city":"伊那市","address":"高遠町長藤"},
{"zip_code":"3960305","kana_pref":"ﾅｶﾞﾉｹﾝ","kana_city":"ｲﾅｼ","kana_address":"ﾀｶﾄｵﾏﾁｵｻﾌｼﾞ","pref":"長野県","city":"伊那市","address":"高遠町長藤"},
{"zip_code":"3960215","kana_pref":"ﾅｶﾞﾉｹﾝ","kana_city":"ｲﾅｼ","kana_address":"ﾀｶﾄｵﾏﾁｵﾊﾞﾗ","pref":"長野県","city":"伊那市","address":"高遠町小原"},
{"zip_code":"3960214","kana_pref":"ﾅｶﾞﾉｹﾝ","kana_city":"ｲﾅｼ","kana_address":"ﾀｶﾄｵﾏﾁｶﾂﾏ","pref":"長野県","city":"伊那市","address":"高遠町勝間"},
{"zip_code":"3960217","kana_pref":"ﾅｶﾞﾉｹﾝ","kana_city":"ｲﾅｼ","kana_address":"ﾀｶﾄｵﾏﾁｶﾐﾔﾏﾀﾞ","pref":"長野県","city":"伊那市","address":"高遠町上山田"},
{"zip_code":"3960302","kana_pref":"ﾅｶﾞﾉｹﾝ","kana_city":"ｲﾅｼ","kana_address":"ﾀｶﾄｵﾏﾁｼﾋﾞﾗ","pref":"長野県","city":"伊那市","address":"高遠町芝平"},
{"zip_code":"3960216","kana_pref":"ﾅｶﾞﾉｹﾝ","kana_city":"ｲﾅｼ","kana_address":"ﾀｶﾄｵﾏﾁｼﾓﾔﾏﾀﾞ","pref":"長野県","city":"伊那市","address":"高遠町下山田"},
{"zip_code":"3960211","kana_pref":"ﾅｶﾞﾉｹﾝ","kana_city":"ｲﾅｼ","kana_address":"ﾀｶﾄｵﾏﾁﾆｼﾀｶﾄｵ","pref":"長野県","city":"伊那市","address":"高遠町西高遠"},
{"zip_code":"3960303","kana_pref":"ﾅｶﾞﾉｹﾝ","kana_city":"ｲﾅｼ","kana_address":"ﾀｶﾄｵﾏﾁﾊﾞﾗｸﾞﾁ","pref":"長野県","city":"伊那市","address":"高遠町荊口"},
{"zip_code":"3960213","kana_pref":"ﾅｶﾞﾉｹﾝ","kana_city":"ｲﾅｼ","kana_address":"ﾀｶﾄｵﾏﾁﾋｶﾞｼﾀｶﾄｵ","pref":"長野県","city":"伊那市","address":"高遠町東高遠"},
{"zip_code":"3960301","kana_pref":"ﾅｶﾞﾉｹﾝ","kana_city":"ｲﾅｼ","kana_address":"ﾀｶﾄｵﾏﾁﾌｼﾞｻﾜ","pref":"長野県","city":"伊那市","address":"高遠町藤沢"},
{"zip_code":"3960304","kana_pref":"ﾅｶﾞﾉｹﾝ","kana_city":"ｲﾅｼ","kana_address":"ﾀｶﾄｵﾏﾁﾔﾏﾑﾛ","pref":"長野県","city":"伊那市","address":"高遠町山室"},
{"zip_code":"3960015","kana_pref":"ﾅｶﾞﾉｹﾝ","kana_city":"ｲﾅｼ","kana_address":"ﾁｭｳｵｳ","pref":"長野県","city":"伊那市","address":"中央"},
{"zip_code":"3960002","kana_pref":"ﾅｶﾞﾉｹﾝ","kana_city":"ｲﾅｼ","kana_address":"ﾃﾗｻﾜｵｶ","pref":"長野県","city":"伊那市","address":"手良沢岡"},
{"zip_code":"3960004","kana_pref":"ﾅｶﾞﾉｹﾝ","kana_city":"ｲﾅｼ","kana_address":"ﾃﾗﾅｶﾂﾎﾞ","pref":"長野県","city":"伊那市","address":"手良中坪"},
{"zip_code":"3960003","kana_pref":"ﾅｶﾞﾉｹﾝ","kana_city":"ｲﾅｼ","kana_address":"ﾃﾗﾉｸﾞﾁ","pref":"長野県","city":"伊那市","address":"手良野口"},
{"zip_code":"3960621","kana_pref":"ﾅｶﾞﾉｹﾝ","kana_city":"ｲﾅｼ","kana_address":"ﾄﾐｶﾞﾀ","pref":"長野県","city":"伊那市","address":"富県"},
{"zip_code":"3960031","kana_pref":"ﾅｶﾞﾉｹﾝ","kana_city":"ｲﾅｼ","kana_address":"ﾅｶﾉﾊﾗ","pref":"長野県","city":"伊那市","address":"中の原"},
{"zip_code":"3960026","kana_pref":"ﾅｶﾞﾉｹﾝ","kana_city":"ｲﾅｼ","kana_address":"ﾆｼﾏﾁ","pref":"長野県","city":"伊那市","address":"西町"},
{"zip_code":"3960005","kana_pref":"ﾅｶﾞﾉｹﾝ","kana_city":"ｲﾅｼ","kana_address":"ﾉｿｺ","pref":"長野県","city":"伊那市","address":"野底"},
{"zip_code":"3960405","kana_pref":"ﾅｶﾞﾉｹﾝ","kana_city":"ｲﾅｼ","kana_address":"ﾊｾｲﾁﾉｾ","pref":"長野県","city":"伊那市","address":"長谷市野瀬"},
{"zip_code":"3960407","kana_pref":"ﾅｶﾞﾉｹﾝ","kana_city":"ｲﾅｼ","kana_address":"ﾊｾｳﾗ","pref":"長野県","city":"伊那市","address":"長谷浦"},
{"zip_code":"3960403","kana_pref":"ﾅｶﾞﾉｹﾝ","kana_city":"ｲﾅｼ","kana_address":"ﾊｾｸﾛｺﾞｳﾁ","pref":"長野県","city":"伊那市","address":"長谷黒河内"},
{"zip_code":"3960406","kana_pref":"ﾅｶﾞﾉｹﾝ","kana_city":"ｲﾅｼ","kana_address":"ﾊｾｽｷﾞｼﾏ","pref":"長野県","city":"伊那市","address":"長谷杉島"},
{"zip_code":"3960404","kana_pref":"ﾅｶﾞﾉｹﾝ","kana_city":"ｲﾅｼ","kana_address":"ﾊｾﾅｶｵ","pref":"長野県","city":"伊那市","address":"長谷中尾"},
{"zip_code":"3960401","kana_pref":"ﾅｶﾞﾉｹﾝ","kana_city":"ｲﾅｼ","kana_address":"ﾊｾﾋｼﾞ","pref":"長野県","city":"伊那市","address":"長谷非持"},
{"zip_code":"3960402","kana_pref":"ﾅｶﾞﾉｹﾝ","kana_city":"ｲﾅｼ","kana_address":"ﾊｾﾐｿﾞｸﾁ","pref":"長野県","city":"伊那市","address":"長谷溝口"},
{"zip_code":"3960009","kana_pref":"ﾅｶﾞﾉｹﾝ","kana_city":"ｲﾅｼ","kana_address":"ﾋｶｹﾞ","pref":"長野県","city":"伊那市","address":"日影"},
{"zip_code":"3960030","kana_pref":"ﾅｶﾞﾉｹﾝ","kana_city":"ｲﾅｼ","kana_address":"ﾋﾗｻﾜ","pref":"長野県","city":"伊那市","address":"平沢"},
{"zip_code":"3960001","kana_pref":"ﾅｶﾞﾉｹﾝ","kana_city":"ｲﾅｼ","kana_address":"ﾌｸｼﾞﾏ","pref":"長野県","city":"伊那市","address":"福島"},
{"zip_code":"3960112","kana_pref":"ﾅｶﾞﾉｹﾝ","kana_city":"ｲﾅｼ","kana_address":"ﾏｴﾊﾗ","pref":"長野県","city":"伊那市","address":"前原"},
{"zip_code":"3960027","kana_pref":"ﾅｶﾞﾉｹﾝ","kana_city":"ｲﾅｼ","kana_address":"ﾏｽﾐｶﾞｵｶ","pref":"長野県","city":"伊那市","address":"ますみヶ丘"},
{"zip_code":"3960111","kana_pref":"ﾅｶﾞﾉｹﾝ","kana_city":"ｲﾅｼ","kana_address":"ﾐｽｽﾞ","pref":"長野県","city":"伊那市","address":"美篶"},
{"zip_code":"3960022","kana_pref":"ﾅｶﾞﾉｹﾝ","kana_city":"ｲﾅｼ","kana_address":"ﾐｿﾉ","pref":"長野県","city":"伊那市","address":"御園"},
{"zip_code":"3960113","kana_pref":"ﾅｶﾞﾉｹﾝ","kana_city":"ｲﾅｼ","kana_address":"ﾐﾊﾗ","pref":"長野県","city":"伊那市","address":"美原"},
{"zip_code":"3960023","kana_pref":"ﾅｶﾞﾉｹﾝ","kana_city":"ｲﾅｼ","kana_address":"ﾔﾏﾃﾞﾗ","pref":"長野県","city":"伊那市","address":"山寺"},
{"zip_code":"3960029","kana_pref":"ﾅｶﾞﾉｹﾝ","kana_city":"ｲﾅｼ","kana_address":"ﾖｺﾔﾏ","pref":"長野県","city":"伊那市","address":"横山"},
{"zip_code":"3960007","kana_pref":"ﾅｶﾞﾉｹﾝ","kana_city":"ｲﾅｼ","kana_address":"ﾜｶﾐﾔ","pref":"長野県","city":"伊那市","address":"若宮"}]}