{"zip_code":[
{"zip_code":"3970201","kana_pref":"ﾅｶﾞﾉｹﾝ","kana_city":"ｷｿｸﾞﾝｵｳﾀｷﾑﾗ","kana_address":"ｵｳﾀｷﾑﾗｲﾁｴﾝ","pref":"長野県","city":"木曽郡王滝村","address":"王滝村一円"},
{"zip_code":"3970000","kana_pref":"ﾅｶﾞﾉｹﾝ","kana_city":"ｷｿｸﾞﾝｷｿﾏﾁ","kana_address":"","pref":"長野県","city":"木曽郡木曽町","address":""},
{"zip_code":"3970301","kana_pref":"ﾅｶﾞﾉｹﾝ","kana_city":"ｷｿｸﾞﾝｷｿﾏﾁ","kana_address":"ｶｲﾀﾞｺｳｹﾞﾝｽｴｶﾜ","pref":"長野県","city":"木曽郡木曽町","address":"開田高原末川"},
{"zip_code":"3970302","kana_pref":"ﾅｶﾞﾉｹﾝ","kana_city":"ｷｿｸﾞﾝｷｿﾏﾁ","kana_address":"ｶｲﾀﾞｺｳｹﾞﾝﾆｼﾉ","pref":"長野県","city":"木曽郡木曽町","address":"開田高原西野"},
{"zip_code":"3970002","kana_pref":"ﾅｶﾞﾉｹﾝ","kana_city":"ｷｿｸﾞﾝｷｿﾏﾁ","kana_address":"ｼﾝｶｲ","pref":"長野県","city":"木曽郡木曽町","address":"新開"},
{"zip_code":"3970003","kana_pref":"ﾅｶﾞﾉｹﾝ","kana_city":"ｷｿｸﾞﾝｷｿﾏﾁ","kana_address":"ｼﾝｶｲﾌｸ","pref":"長野県","city":"木曽郡木曽町","address":"新開福"},
{"zip_code":"3970001","kana_pref":"ﾅｶﾞﾉｹﾝ","kana_city":"ｷｿｸﾞﾝｷｿﾏﾁ","kana_address":"ﾌｸｼﾏ","pref":"長野県","city":"木曽郡木曽町","address":"福島"},
{"zip_code":"3970101","kana_pref":"ﾅｶﾞﾉｹﾝ","kana_city":"ｷｿｸﾞﾝｷｿﾏﾁ","kana_address":"ﾐﾀｹ","pref":"長野県","city":"木曽郡木曽町","address":"三岳"}]}