{"zip_code":[
{"zip_code":"4000000","kana_pref":"ﾔﾏﾅｼｹﾝ","kana_city":"ｺｳﾌｼ","kana_address":"","pref":"山梨県","city":"甲府市","address":""},
{"zip_code":"4000858","kana_pref":"ﾔﾏﾅｼｹﾝ","kana_city":"ｺｳﾌｼ","kana_address":"ｱｲｵｲ","pref":"山梨県","city":"甲府市","address":"相生"},
{"zip_code":"4000867","kana_pref":"ﾔﾏﾅｼｹﾝ","kana_city":"ｺｳﾌｼ","kana_address":"ｱｵﾇﾏ","pref":"山梨県","city":"甲府市","address":"青沼"},
{"zip_code":"4000828","kana_pref":"ﾔﾏﾅｼｹﾝ","kana_city":"ｺｳﾌｼ","kana_address":"ｱｵﾊﾞﾁｮｳ","pref":"山梨県","city":"甲府市","address":"青葉町"},
{"zip_code":"4000862","kana_pref":"ﾔﾏﾅｼｹﾝ","kana_city":"ｺｳﾌｼ","kana_address":"ｱｻｹ","pref":"山梨県","city":"甲府市","address":"朝気"},
{"zip_code":"4000025","kana_pref":"ﾔﾏﾅｼｹﾝ","kana_city":"ｺｳﾌｼ","kana_address":"ｱｻﾋ","pref":"山梨県","city":"甲府市","address":"朝日"},
{"zip_code":"4000023","kana_pref":"ﾔﾏﾅｼｹﾝ","kana_city":"ｺｳﾌｼ","kana_address":"ｱﾀｺﾞﾏﾁ","pref":"山梨県","city":"甲府市","address":"愛宕町"},
{"zip_code":"4000061","kana_pref":"ﾔﾏﾅｼｹﾝ","kana_city":"ｺｳﾌｼ","kana_address":"ｱﾗｶﾜ","pref":"山梨県","city":"甲府市","address":"荒川"},
{"zip_code":"4000035","kana_pref":"ﾔﾏﾅｼｹﾝ","kana_city":"ｺｳﾌｼ","kana_address":"ｲｲﾀﾞ","pref":"山梨県","city":"甲府市","address":"飯田"},
{"zip_code":"4001217","kana_pref":"ﾔﾏﾅｼｹﾝ","kana_city":"ｺｳﾌｼ","kana_address":"ｲｶﾘﾁｮｳ","pref":"山梨県","city":"甲府市","address":"猪狩町"},
{"zip_code":"4000062","kana_pref":"ﾔﾏﾅｼｹﾝ","kana_city":"ｺｳﾌｼ","kana_address":"ｲｹﾀﾞ","pref":"山梨県","city":"甲府市","address":"池田"},
{"zip_code":"4000856","kana_pref":"ﾔﾏﾅｼｹﾝ","kana_city":"ｺｳﾌｼ","kana_address":"ｲｾ","pref":"山梨県","city":"甲府市","address":"伊勢"},
{"zip_code":"4000013","kana_pref":"ﾔﾏﾅｼｹﾝ","kana_city":"ｺｳﾌｼ","kana_address":"ｲﾜｸﾎﾞﾁｮｳ","pref":"山梨県","city":"甲府市","address":"岩窪町"},
{"zip_code":"4000045","kana_pref":"ﾔﾏﾅｼｹﾝ","kana_city":"ｺｳﾌｼ","kana_address":"ｳｼﾛﾔﾁｮｳ","pref":"山梨県","city":"甲府市","address":"後屋町"},
{"zip_code":"4001504","kana_pref":"ﾔﾏﾅｼｹﾝ","kana_city":"ｺｳﾌｼ","kana_address":"ｳﾊﾞｸﾞﾁﾁｮｳ","pref":"山梨県","city":"甲府市","address":"右左口町"},
{"zip_code":"4000053","kana_pref":"ﾔﾏﾅｼｹﾝ","kana_city":"ｺｳﾌｼ","kana_address":"ｵｵｻﾄﾁｮｳ","pref":"山梨県","city":"甲府市","address":"大里町"},
{"zip_code":"4000865","kana_pref":"ﾔﾏﾅｼｹﾝ","kana_city":"ｺｳﾌｼ","kana_address":"ｵｵﾀﾏﾁ","pref":"山梨県","city":"甲府市","address":"太田町"},
{"zip_code":"4000055","kana_pref":"ﾔﾏﾅｼｹﾝ","kana_city":"ｺｳﾌｼ","kana_address":"ｵｵﾂﾏﾁ","pref":"山梨県","city":"甲府市","address":"大津町"},
{"zip_code":"4000015","kana_pref":"ﾔﾏﾅｼｹﾝ","kana_city":"ｺｳﾌｼ","kana_address":"ｵｵﾃ","pref":"山梨県","city":"甲府市","address":"大手"},
{"zip_code":"4000834","kana_pref":"ﾔﾏﾅｼｹﾝ","kana_city":"ｺｳﾌｼ","kana_address":"ｵﾁｱｲﾁｮｳ","pref":"山梨県","city":"甲府市","address":"落合町"},
{"zip_code":"4000028","kana_pref":"ﾔﾏﾅｼｹﾝ","kana_city":"ｺｳﾌｼ","kana_address":"ｵﾄﾜﾁｮｳ","pref":"山梨県","city":"甲府市","address":"音羽町"},
{"zip_code":"4000841","kana_pref":"ﾔﾏﾅｼｹﾝ","kana_city":"ｺｳﾌｼ","kana_address":"ｵﾏｶﾞﾘﾁｮｳ","pref":"山梨県","city":"甲府市","address":"小曲町"},
{"zip_code":"4000063","kana_pref":"ﾔﾏﾅｼｹﾝ","kana_city":"ｺｳﾌｼ","kana_address":"ｶﾈﾀｹﾁｮｳ","pref":"山梨県","city":"甲府市","address":"金竹町"},
{"zip_code":"4000814","kana_pref":"ﾔﾏﾅｼｹﾝ","kana_city":"ｺｳﾌｼ","kana_address":"ｶﾐｱﾊﾗﾏﾁ","pref":"山梨県","city":"甲府市","address":"上阿原町"},
{"zip_code":"4000041","kana_pref":"ﾔﾏﾅｼｹﾝ","kana_city":"ｺｳﾌｼ","kana_address":"ｶﾐｲｼﾀﾞ","pref":"山梨県","city":"甲府市","address":"上石田"},
{"zip_code":"4000845","kana_pref":"ﾔﾏﾅｼｹﾝ","kana_city":"ｺｳﾌｼ","kana_address":"ｶﾐｲﾏｲﾁｮｳ","pref":"山梨県","city":"甲府市","address":"上今井町"},
{"zip_code":"4000081","kana_pref":"ﾔﾏﾅｼｹﾝ","kana_city":"ｺｳﾌｼ","kana_address":"ｶﾐｵﾋﾞﾅﾁｮｳ","pref":"山梨県","city":"甲府市","address":"上帯那町"},
{"zip_code":"4000044","kana_pref":"ﾔﾏﾅｼｹﾝ","kana_city":"ｺｳﾌｼ","kana_address":"ｶﾐｺｶﾞﾜﾗﾁｮｳ","pref":"山梨県","city":"甲府市","address":"上小河原町"},
{"zip_code":"4000052","kana_pref":"ﾔﾏﾅｼｹﾝ","kana_city":"ｺｳﾌｼ","kana_address":"ｶﾐｼﾞｮｳｱﾗｲﾏﾁ","pref":"山梨県","city":"甲府市","address":"上条新居町"},
{"zip_code":"4000011","kana_pref":"ﾔﾏﾅｼｹﾝ","kana_city":"ｺｳﾌｼ","kana_address":"ｶﾐｾｷｽｲｼﾞﾏﾁ","pref":"山梨県","city":"甲府市","address":"上積翠寺町"},
{"zip_code":"4001501","kana_pref":"ﾔﾏﾅｼｹﾝ","kana_city":"ｺｳﾌｼ","kana_address":"ｶﾐｿﾈﾁｮｳ","pref":"山梨県","city":"甲府市","address":"上曽根町"},
{"zip_code":"4000831","kana_pref":"ﾔﾏﾅｼｹﾝ","kana_city":"ｺｳﾌｼ","kana_address":"ｶﾐﾁｮｳ","pref":"山梨県","city":"甲府市","address":"上町"},
{"zip_code":"4001506","kana_pref":"ﾔﾏﾅｼｹﾝ","kana_city":"ｺｳﾌｼ","kana_address":"ｶﾐﾑｺｳﾔﾏﾁｮｳ","pref":"山梨県","city":"甲府市","address":"上向山町"},
{"zip_code":"4001213","kana_pref":"ﾔﾏﾅｼｹﾝ","kana_city":"ｺｳﾌｼ","kana_address":"ｶﾜｸﾎﾞﾁｮｳ","pref":"山梨県","city":"甲府市","address":"川窪町"},
{"zip_code":"4000811","kana_pref":"ﾔﾏﾅｼｹﾝ","kana_city":"ｺｳﾌｼ","kana_address":"ｶﾜﾀﾞﾏﾁ","pref":"山梨県","city":"甲府市","address":"川田町"},
{"zip_code":"4000024","kana_pref":"ﾔﾏﾅｼｹﾝ","kana_city":"ｺｳﾌｼ","kana_address":"ｷﾀｸﾞﾁ","pref":"山梨県","city":"甲府市","address":"北口"},
{"zip_code":"4000005","kana_pref":"ﾔﾏﾅｼｹﾝ","kana_city":"ｺｳﾌｼ","kana_address":"ｷﾀｼﾝ","pref":"山梨県","city":"甲府市","address":"北新"},
{"zip_code":"4000065","kana_pref":"ﾔﾏﾅｼｹﾝ","kana_city":"ｺｳﾌｼ","kana_address":"ｸｶﾞﾜ","pref":"山梨県","city":"甲府市","address":"貢川"},
{"zip_code":"4000048","kana_pref":"ﾔﾏﾅｼｹﾝ","kana_city":"ｺｳﾌｼ","kana_address":"ｸｶﾞﾜﾎﾝﾁｮｳ","pref":"山梨県","city":"甲府市","address":"貢川本町"},
{"zip_code":"4000815","kana_pref":"ﾔﾏﾅｼｹﾝ","kana_city":"ｺｳﾌｼ","kana_address":"ｸﾀﾞﾏﾁｮｳ","pref":"山梨県","city":"甲府市","address":"国玉町"},
{"zip_code":"4001211","kana_pref":"ﾔﾏﾅｼｹﾝ","kana_city":"ｺｳﾌｼ","kana_address":"ｸﾛﾍﾞﾗﾁｮｳ","pref":"山梨県","city":"甲府市","address":"黒平町"},
{"zip_code":"4000043","kana_pref":"ﾔﾏﾅｼｹﾝ","kana_city":"ｺｳﾌｼ","kana_address":"ｺｸﾎﾞ","pref":"山梨県","city":"甲府市","address":"国母"},
{"zip_code":"4000836","kana_pref":"ﾔﾏﾅｼｹﾝ","kana_city":"ｺｳﾌｼ","kana_address":"ｺｾﾏﾁ","pref":"山梨県","city":"甲府市","address":"小瀬町"},
{"zip_code":"4000033","kana_pref":"ﾔﾏﾅｼｹﾝ","kana_city":"ｺｳﾌｼ","kana_address":"ｺﾄﾌﾞｷﾁｮｳ","pref":"山梨県","city":"甲府市","address":"寿町"},
{"zip_code":"4000014","kana_pref":"ﾔﾏﾅｼｹﾝ","kana_city":"ｺｳﾌｼ","kana_address":"ｺﾌﾁｭｳﾏﾁ","pref":"山梨県","city":"甲府市","address":"古府中町"},
{"zip_code":"4000002","kana_pref":"ﾔﾏﾅｼｹﾝ","kana_city":"ｺｳﾌｼ","kana_address":"ｺﾏﾂﾏﾁ","pref":"山梨県","city":"甲府市","address":"小松町"},
{"zip_code":"4000857","kana_pref":"ﾔﾏﾅｼｹﾝ","kana_city":"ｺｳﾌｼ","kana_address":"ｻｲﾜｲﾁｮｳ","pref":"山梨県","city":"甲府市","address":"幸町"},
{"zip_code":"4000805","kana_pref":"ﾔﾏﾅｼｹﾝ","kana_city":"ｺｳﾌｼ","kana_address":"ｻｶｵﾘ","pref":"山梨県","city":"甲府市","address":"酒折"},
{"zip_code":"4000804","kana_pref":"ﾔﾏﾅｼｹﾝ","kana_city":"ｺｳﾌｼ","kana_address":"ｻｶｵﾘﾁｮｳ","pref":"山梨県","city":"甲府市","address":"酒折町"},
{"zip_code":"4000803","kana_pref":"ﾔﾏﾅｼｹﾝ","kana_city":"ｺｳﾌｼ","kana_address":"ｻｸﾗｲﾁｮｳ","pref":"山梨県","city":"甲府市","address":"桜井町"},
{"zip_code":"4000822","kana_pref":"ﾔﾏﾅｼｹﾝ","kana_city":"ｺｳﾌｼ","kana_address":"ｻﾄﾖｼ","pref":"山梨県","city":"甲府市","address":"里吉"},
{"zip_code":"4000823","kana_pref":"ﾔﾏﾅｼｹﾝ","kana_city":"ｺｳﾌｼ","kana_address":"ｻﾄﾖｼﾁｮｳ","pref":"山梨県","city":"甲府市","address":"里吉町"},
{"zip_code":"4000026","kana_pref":"ﾔﾏﾅｼｹﾝ","kana_city":"ｺｳﾌｼ","kana_address":"ｼｵﾍﾞ","pref":"山梨県","city":"甲府市","address":"塩部"},
{"zip_code":"4000064","kana_pref":"ﾔﾏﾅｼｹﾝ","kana_city":"ｺｳﾌｼ","kana_address":"ｼﾓｲｲﾀﾞ","pref":"山梨県","city":"甲府市","address":"下飯田"},
{"zip_code":"4000046","kana_pref":"ﾔﾏﾅｼｹﾝ","kana_city":"ｺｳﾌｼ","kana_address":"ｼﾓｲｼﾀﾞ","pref":"山梨県","city":"甲府市","address":"下石田"},
{"zip_code":"4000842","kana_pref":"ﾔﾏﾅｼｹﾝ","kana_city":"ｺｳﾌｼ","kana_address":"ｼﾓｲﾏｲﾁｮｳ","pref":"山梨県","city":"甲府市","address":"下今井町"},
{"zip_code":"4000082","kana_pref":"ﾔﾏﾅｼｹﾝ","kana_city":"ｺｳﾌｼ","kana_address":"ｼﾓｵﾋﾞﾅﾁｮｳ","pref":"山梨県","city":"甲府市","address":"下帯那町"},
{"zip_code":"4000835","kana_pref":"ﾔﾏﾅｼｹﾝ","kana_city":"ｺｳﾌｼ","kana_address":"ｼﾓｶｼﾞﾔﾏﾁ","pref":"山梨県","city":"甲府市","address":"下鍛冶屋町"},
{"zip_code":"4000068","kana_pref":"ﾔﾏﾅｼｹﾝ","kana_city":"ｺｳﾌｼ","kana_address":"ｼﾓｶﾞﾜﾗﾁｮｳ","pref":"山梨県","city":"甲府市","address":"下河原町"},
{"zip_code":"4000853","kana_pref":"ﾔﾏﾅｼｹﾝ","kana_city":"ｺｳﾌｼ","kana_address":"ｼﾓｺｶﾞﾜﾗﾁｮｳ","pref":"山梨県","city":"甲府市","address":"下小河原町"},
{"zip_code":"4000012","kana_pref":"ﾔﾏﾅｼｹﾝ","kana_city":"ｺｳﾌｼ","kana_address":"ｼﾓｾｷｽｲｼﾞﾏﾁ","pref":"山梨県","city":"甲府市","address":"下積翠寺町"},
{"zip_code":"4001508","kana_pref":"ﾔﾏﾅｼｹﾝ","kana_city":"ｺｳﾌｼ","kana_address":"ｼﾓｿﾈﾁｮｳ","pref":"山梨県","city":"甲府市","address":"下曽根町"},
{"zip_code":"4001507","kana_pref":"ﾔﾏﾅｼｹﾝ","kana_city":"ｺｳﾌｼ","kana_address":"ｼﾓﾑｺｳﾔﾏﾁｮｳ","pref":"山梨県","city":"甲府市","address":"下向山町"},
{"zip_code":"4000861","kana_pref":"ﾔﾏﾅｼｹﾝ","kana_city":"ｺｳﾌｼ","kana_address":"ｼﾞｮｳﾄｳ","pref":"山梨県","city":"甲府市","address":"城東"},
{"zip_code":"4001502","kana_pref":"ﾔﾏﾅｼｹﾝ","kana_city":"ｺｳﾌｼ","kana_address":"ｼﾗｲﾁｮｳ","pref":"山梨県","city":"甲府市","address":"白井町"},
{"zip_code":"4001503","kana_pref":"ﾔﾏﾅｼｹﾝ","kana_city":"ｺｳﾌｼ","kana_address":"ｼﾝｷﾞｮｳｼﾞﾁｮｳ","pref":"山梨県","city":"甲府市","address":"心経寺町"},
{"zip_code":"4000066","kana_pref":"ﾔﾏﾅｼｹﾝ","kana_city":"ｺｳﾌｼ","kana_address":"ｼﾝﾃﾞﾝﾁｮｳ","pref":"山梨県","city":"甲府市","address":"新田町"},
{"zip_code":"4000821","kana_pref":"ﾔﾏﾅｼｹﾝ","kana_city":"ｺｳﾌｼ","kana_address":"ｽﾅﾀﾞﾁｮｳ","pref":"山梨県","city":"甲府市","address":"砂田町"},
{"zip_code":"4000851","kana_pref":"ﾔﾏﾅｼｹﾝ","kana_city":"ｺｳﾌｼ","kana_address":"ｽﾐﾖｼ","pref":"山梨県","city":"甲府市","address":"住吉"},
{"zip_code":"4000852","kana_pref":"ﾔﾏﾅｼｹﾝ","kana_city":"ｺｳﾌｼ","kana_address":"ｽﾐﾖｼﾎﾝﾁｮｳ","pref":"山梨県","city":"甲府市","address":"住吉本町"},
{"zip_code":"4000806","kana_pref":"ﾔﾏﾅｼｹﾝ","kana_city":"ｺｳﾌｼ","kana_address":"ｾﾞﾝｺｳｼﾞ","pref":"山梨県","city":"甲府市","address":"善光寺"},
{"zip_code":"4000801","kana_pref":"ﾔﾏﾅｼｹﾝ","kana_city":"ｺｳﾌｼ","kana_address":"ｾﾞﾝｺｳｼﾞﾏﾁ","pref":"山梨県","city":"甲府市","address":"善光寺町"},
{"zip_code":"4001219","kana_pref":"ﾔﾏﾅｼｹﾝ","kana_city":"ｺｳﾌｼ","kana_address":"ｿｳｶｻﾞﾜﾁｮｳ","pref":"山梨県","city":"甲府市","address":"草鹿沢町"},
{"zip_code":"4000072","kana_pref":"ﾔﾏﾅｼｹﾝ","kana_city":"ｺｳﾌｼ","kana_address":"ﾀﾞｲﾜﾁｮｳ","pref":"山梨県","city":"甲府市","address":"大和町"},
{"zip_code":"4001214","kana_pref":"ﾔﾏﾅｼｹﾝ","kana_city":"ｺｳﾌｼ","kana_address":"ﾀｶﾅﾘﾁｮｳ","pref":"山梨県","city":"甲府市","address":"高成町"},
{"zip_code":"4000042","kana_pref":"ﾔﾏﾅｼｹﾝ","kana_city":"ｺｳﾌｼ","kana_address":"ﾀｶﾊﾞﾀｹ","pref":"山梨県","city":"甲府市","address":"高畑"},
{"zip_code":"4001212","kana_pref":"ﾔﾏﾅｼｹﾝ","kana_city":"ｺｳﾌｼ","kana_address":"ﾀｶﾏﾁ","pref":"山梨県","city":"甲府市","address":"高町"},
{"zip_code":"4000057","kana_pref":"ﾔﾏﾅｼｹﾝ","kana_city":"ｺｳﾌｼ","kana_address":"ﾀｶﾑﾛﾁｮｳ","pref":"山梨県","city":"甲府市","address":"高室町"},
{"zip_code":"4000034","kana_pref":"ﾔﾏﾅｼｹﾝ","kana_city":"ｺｳﾌｼ","kana_address":"ﾀｶﾗ","pref":"山梨県","city":"甲府市","address":"宝"},
{"zip_code":"4000016","kana_pref":"ﾔﾏﾅｼｹﾝ","kana_city":"ｺｳﾌｼ","kana_address":"ﾀｹﾀﾞ","pref":"山梨県","city":"甲府市","address":"武田"},
{"zip_code":"4001215","kana_pref":"ﾔﾏﾅｼｹﾝ","kana_city":"ｺｳﾌｼ","kana_address":"ﾀｹﾋﾅﾀﾏﾁ","pref":"山梨県","city":"甲府市","address":"竹日向町"},
{"zip_code":"4000074","kana_pref":"ﾔﾏﾅｼｹﾝ","kana_city":"ｺｳﾌｼ","kana_address":"ﾁﾂﾞｶ","pref":"山梨県","city":"甲府市","address":"千塚"},
{"zip_code":"4000032","kana_pref":"ﾔﾏﾅｼｹﾝ","kana_city":"ｺｳﾌｼ","kana_address":"ﾁｭｳｵｳ","pref":"山梨県","city":"甲府市","address":"中央"},
{"zip_code":"4000067","kana_pref":"ﾔﾏﾅｼｹﾝ","kana_city":"ｺｳﾌｼ","kana_address":"ﾁｮｳｼｮｳｼﾞﾁｮｳ","pref":"山梨県","city":"甲府市","address":"長松寺町"},
{"zip_code":"4000003","kana_pref":"ﾔﾏﾅｼｹﾝ","kana_city":"ｺｳﾌｼ","kana_address":"ﾂｶﾊﾗﾁｮｳ","pref":"山梨県","city":"甲府市","address":"塚原町"},
{"zip_code":"4000006","kana_pref":"ﾔﾏﾅｼｹﾝ","kana_city":"ｺｳﾌｼ","kana_address":"ﾃﾝｼﾞﾝﾁｮｳ","pref":"山梨県","city":"甲府市","address":"天神町"},
{"zip_code":"4001216","kana_pref":"ﾔﾏﾅｼｹﾝ","kana_city":"ｺｳﾌｼ","kana_address":"ﾄｳｲﾜﾁｮｳ","pref":"山梨県","city":"甲府市","address":"塔岩町"},
{"zip_code":"4000807","kana_pref":"ﾔﾏﾅｼｹﾝ","kana_city":"ｺｳﾌｼ","kana_address":"ﾄｳｺｳｼﾞ","pref":"山梨県","city":"甲府市","address":"東光寺"},
{"zip_code":"4000808","kana_pref":"ﾔﾏﾅｼｹﾝ","kana_city":"ｺｳﾌｼ","kana_address":"ﾄｳｺｳｼﾞﾏﾁ","pref":"山梨県","city":"甲府市","address":"東光寺町"},
{"zip_code":"4000047","kana_pref":"ﾔﾏﾅｼｹﾝ","kana_city":"ｺｳﾌｼ","kana_address":"ﾄｸｷﾞｮｳ","pref":"山梨県","city":"甲府市","address":"徳行"},
{"zip_code":"4000049","kana_pref":"ﾔﾏﾅｼｹﾝ","kana_city":"ｺｳﾌｼ","kana_address":"ﾄﾐﾀｹ","pref":"山梨県","city":"甲府市","address":"富竹"},
{"zip_code":"4000855","kana_pref":"ﾔﾏﾅｼｹﾝ","kana_city":"ｺｳﾌｼ","kana_address":"ﾅｶｺｶﾞﾜﾗ","pref":"山梨県","city":"甲府市","address":"中小河原"},
{"zip_code":"4000854","kana_pref":"ﾔﾏﾅｼｹﾝ","kana_city":"ｺｳﾌｼ","kana_address":"ﾅｶｺｶﾞﾜﾗﾁｮｳ","pref":"山梨県","city":"甲府市","address":"中小河原町"},
{"zip_code":"4000844","kana_pref":"ﾔﾏﾅｼｹﾝ","kana_city":"ｺｳﾌｼ","kana_address":"ﾅｶﾁｮｳ","pref":"山梨県","city":"甲府市","address":"中町"},
{"zip_code":"4001505","kana_pref":"ﾔﾏﾅｼｹﾝ","kana_city":"ｺｳﾌｼ","kana_address":"ﾅｶﾊﾞﾀｹﾁｮｳ","pref":"山梨県","city":"甲府市","address":"中畑町"},
{"zip_code":"4000069","kana_pref":"ﾔﾏﾅｼｹﾝ","kana_city":"ｺｳﾌｼ","kana_address":"ﾅｶﾑﾗﾁｮｳ","pref":"山梨県","city":"甲府市","address":"中村町"},
{"zip_code":"4000825","kana_pref":"ﾔﾏﾅｼｹﾝ","kana_city":"ｺｳﾌｼ","kana_address":"ﾅﾅｻﾜﾁｮｳ","pref":"山梨県","city":"甲府市","address":"七沢町"},
{"zip_code":"4000833","kana_pref":"ﾔﾏﾅｼｹﾝ","kana_city":"ｺｳﾌｼ","kana_address":"ﾆｼｱﾌﾞﾗｶﾜﾁｮｳ","pref":"山梨県","city":"甲府市","address":"西油川町"},
{"zip_code":"4000054","kana_pref":"ﾔﾏﾅｼｹﾝ","kana_city":"ｺｳﾌｼ","kana_address":"ﾆｼｼﾓｼﾞｮｳﾏﾁ","pref":"山梨県","city":"甲府市","address":"西下条町"},
{"zip_code":"4000826","kana_pref":"ﾔﾏﾅｼｹﾝ","kana_city":"ｺｳﾌｼ","kana_address":"ﾆｼﾀｶﾊｼﾁｮｳ","pref":"山梨県","city":"甲府市","address":"西高橋町"},
{"zip_code":"4000004","kana_pref":"ﾔﾏﾅｼｹﾝ","kana_city":"ｺｳﾌｼ","kana_address":"ﾆｼﾀﾞﾁｮｳ","pref":"山梨県","city":"甲府市","address":"西田町"},
{"zip_code":"4000071","kana_pref":"ﾔﾏﾅｼｹﾝ","kana_city":"ｺｳﾌｼ","kana_address":"ﾊｸﾞﾛﾁｮｳ","pref":"山梨県","city":"甲府市","address":"羽黒町"},
{"zip_code":"4000843","kana_pref":"ﾔﾏﾅｼｹﾝ","kana_city":"ｺｳﾌｼ","kana_address":"ﾋｶﾞｼｼﾓｼﾞｮｳﾏﾁ","pref":"山梨県","city":"甲府市","address":"東下条町"},
{"zip_code":"4000083","kana_pref":"ﾔﾏﾅｼｹﾝ","kana_city":"ｺｳﾌｼ","kana_address":"ﾋﾗｾﾏﾁ","pref":"山梨県","city":"甲府市","address":"平瀬町"},
{"zip_code":"4000027","kana_pref":"ﾔﾏﾅｼｹﾝ","kana_city":"ｺｳﾌｼ","kana_address":"ﾌｼﾞﾐ","pref":"山梨県","city":"甲府市","address":"富士見"},
{"zip_code":"4000051","kana_pref":"ﾔﾏﾅｼｹﾝ","kana_city":"ｺｳﾌｼ","kana_address":"ﾌﾙｶﾐｼﾞｮｳﾏﾁ","pref":"山梨県","city":"甲府市","address":"古上条町"},
{"zip_code":"4000056","kana_pref":"ﾔﾏﾅｼｹﾝ","kana_city":"ｺｳﾌｼ","kana_address":"ﾎﾘﾉｳﾁﾁｮｳ","pref":"山梨県","city":"甲府市","address":"堀之内町"},
{"zip_code":"4000832","kana_pref":"ﾔﾏﾅｼｹﾝ","kana_city":"ｺｳﾌｼ","kana_address":"ﾏｽﾂﾎﾞﾁｮｳ","pref":"山梨県","city":"甲府市","address":"増坪町"},
{"zip_code":"4000031","kana_pref":"ﾔﾏﾅｼｹﾝ","kana_city":"ｺｳﾌｼ","kana_address":"ﾏﾙﾉｳﾁ","pref":"山梨県","city":"甲府市","address":"丸の内"},
{"zip_code":"4000007","kana_pref":"ﾔﾏﾅｼｹﾝ","kana_city":"ｺｳﾌｼ","kana_address":"ﾐｻｷ","pref":"山梨県","city":"甲府市","address":"美咲"},
{"zip_code":"4001218","kana_pref":"ﾔﾏﾅｼｹﾝ","kana_city":"ｺｳﾌｼ","kana_address":"ﾐﾀｹﾁｮｳ","pref":"山梨県","city":"甲府市","address":"御岳町"},
{"zip_code":"4000008","kana_pref":"ﾔﾏﾅｼｹﾝ","kana_city":"ｺｳﾌｼ","kana_address":"ﾐﾄﾞﾘｶﾞｵｶ","pref":"山梨県","city":"甲府市","address":"緑が丘"},
{"zip_code":"4000863","kana_pref":"ﾔﾏﾅｼｹﾝ","kana_city":"ｺｳﾌｼ","kana_address":"ﾐﾅﾐｸﾞﾁﾁｮｳ","pref":"山梨県","city":"甲府市","address":"南口町"},
{"zip_code":"4000058","kana_pref":"ﾔﾏﾅｼｹﾝ","kana_city":"ｺｳﾌｼ","kana_address":"ﾐﾔﾊﾞﾗﾁｮｳ","pref":"山梨県","city":"甲府市","address":"宮原町"},
{"zip_code":"4000021","kana_pref":"ﾔﾏﾅｼｹﾝ","kana_city":"ｺｳﾌｼ","kana_address":"ﾐﾔﾏｴﾁｮｳ","pref":"山梨県","city":"甲府市","address":"宮前町"},
{"zip_code":"4000813","kana_pref":"ﾔﾏﾅｼｹﾝ","kana_city":"ｺｳﾌｼ","kana_address":"ﾑｺｳﾏﾁ","pref":"山梨県","city":"甲府市","address":"向町"},
{"zip_code":"4000022","kana_pref":"ﾔﾏﾅｼｹﾝ","kana_city":"ｺｳﾌｼ","kana_address":"ﾓﾄｺﾝﾔﾏﾁ","pref":"山梨県","city":"甲府市","address":"元紺屋町"},
{"zip_code":"4000017","kana_pref":"ﾔﾏﾅｼｹﾝ","kana_city":"ｺｳﾌｼ","kana_address":"ﾔｶﾀ","pref":"山梨県","city":"甲府市","address":"屋形"},
{"zip_code":"4000075","kana_pref":"ﾔﾏﾅｼｹﾝ","kana_city":"ｺｳﾌｼ","kana_address":"ﾔﾏﾐﾔﾁｮｳ","pref":"山梨県","city":"甲府市","address":"山宮町"},
{"zip_code":"4000864","kana_pref":"ﾔﾏﾅｼｹﾝ","kana_city":"ｺｳﾌｼ","kana_address":"ﾕﾀﾞ","pref":"山梨県","city":"甲府市","address":"湯田"},
{"zip_code":"4000073","kana_pref":"ﾔﾏﾅｼｹﾝ","kana_city":"ｺｳﾌｼ","kana_address":"ﾕﾑﾗ","pref":"山梨県","city":"甲府市","address":"湯村"},
{"zip_code":"4000802","kana_pref":"ﾔﾏﾅｼｹﾝ","kana_city":"ｺｳﾌｼ","kana_address":"ﾖｺﾈﾏﾁ","pref":"山梨県","city":"甲府市","address":"横根町"},
{"zip_code":"4000827","kana_pref":"ﾔﾏﾅｼｹﾝ","kana_city":"ｺｳﾌｼ","kana_address":"ﾖﾓｷﾞｻﾜ","pref":"山梨県","city":"甲府市","address":"蓬沢"},
{"zip_code":"4000824","kana_pref":"ﾔﾏﾅｼｹﾝ","kana_city":"ｺｳﾌｼ","kana_address":"ﾖﾓｷﾞｻﾜﾏﾁ","pref":"山梨県","city":"甲府市","address":"蓬沢町"},
{"zip_code":"4000866","kana_pref":"ﾔﾏﾅｼｹﾝ","kana_city":"ｺｳﾌｼ","kana_address":"ﾜｶﾏﾂﾁｮｳ","pref":"山梨県","city":"甲府市","address":"若松町"},
{"zip_code":"4000001","kana_pref":"ﾔﾏﾅｼｹﾝ","kana_city":"ｺｳﾌｼ","kana_address":"ﾜﾀﾞﾏﾁ","pref":"山梨県","city":"甲府市","address":"和田町"},
{"zip_code":"4000812","kana_pref":"ﾔﾏﾅｼｹﾝ","kana_city":"ｺｳﾌｼ","kana_address":"ﾜﾄﾞﾏﾁ","pref":"山梨県","city":"甲府市","address":"和戸町"},
{"zip_code":"4000400","kana_pref":"ﾔﾏﾅｼｹﾝ","kana_city":"ﾐﾅﾐｱﾙﾌﾟｽｼ","kana_address":"","pref":"山梨県","city":"南アルプス市","address":""},
{"zip_code":"4000424","kana_pref":"ﾔﾏﾅｼｹﾝ","kana_city":"ﾐﾅﾐｱﾙﾌﾟｽｼ","kana_address":"ｱｷﾔﾏ","pref":"山梨県","city":"南アルプス市","address":"秋山"},
{"zip_code":"4000333","kana_pref":"ﾔﾏﾅｼｹﾝ","kana_city":"ﾐﾅﾐｱﾙﾌﾟｽｼ","kana_address":"ｱｻﾊﾞﾗ","pref":"山梨県","city":"南アルプス市","address":"浅原"},
{"zip_code":"4000241","kana_pref":"ﾔﾏﾅｼｹﾝ","kana_city":"ﾐﾅﾐｱﾙﾌﾟｽｼ","kana_address":"ｱｼﾔｽｱｼｸﾗ","pref":"山梨県","city":"南アルプス市","address":"芦安芦倉"},
{"zip_code":"4000242","kana_pref":"ﾔﾏﾅｼｹﾝ","kana_city":"ﾐﾅﾐｱﾙﾌﾟｽｼ","kana_address":"ｱｼﾔｽｱﾝﾂｳ","pref":"山梨県","city":"南アルプス市","address":"芦安安通"},
{"zip_code":"4000319","kana_pref":"ﾔﾏﾅｼｹﾝ","kana_city":"ﾐﾅﾐｱﾙﾌﾟｽｼ","kana_address":"ｱﾔﾒｶﾞｵｶ","pref":"山梨県","city":"南アルプス市","address":"あやめが丘"},
{"zip_code":"4000403","kana_pref":"ﾔﾏﾅｼｹﾝ","kana_city":"ﾐﾅﾐｱﾙﾌﾟｽｼ","kana_address":"ｱﾕｻﾞﾜ","pref":"山梨県","city":"南アルプス市","address":"鮎沢"},
{"zip_code":"4000226","kana_pref":"ﾔﾏﾅｼｹﾝ","kana_city":"ﾐﾅﾐｱﾙﾌﾟｽｼ","kana_address":"ｱﾘﾉ","pref":"山梨県","city":"南アルプス市","address":"有野"},
{"zip_code":"4000222","kana_pref":"ﾔﾏﾅｼｹﾝ","kana_city":"ﾐﾅﾐｱﾙﾌﾟｽｼ","kana_address":"ｲｲﾉ","pref":"山梨県","city":"南アルプス市","address":"飯野"},
{"zip_code":"4000224","kana_pref":"ﾔﾏﾅｼｹﾝ","kana_city":"ﾐﾅﾐｱﾙﾌﾟｽｼ","kana_address":"ｲｲﾉｼﾝﾃﾞﾝ","pref":"山梨県","city":"南アルプス市","address":"飯野新田"},
{"zip_code":"4000413","kana_pref":"ﾔﾏﾅｼｹﾝ","kana_city":"ﾐﾅﾐｱﾙﾌﾟｽｼ","kana_address":"ｲｽﾞﾐ","pref":"山梨県","city":"南アルプス市","address":"和泉"},
{"zip_code":"4000315","kana_pref":"ﾔﾏﾅｼｹﾝ","kana_city":"ﾐﾅﾐｱﾙﾌﾟｽｼ","kana_address":"ｳｴﾉ","pref":"山梨県","city":"南アルプス市","address":"上野"},
{"zip_code":"4000215","kana_pref":"ﾔﾏﾅｼｹﾝ","kana_city":"ﾐﾅﾐｱﾙﾌﾟｽｼ","kana_address":"ｳｴﾊｯﾀ","pref":"山梨県","city":"南アルプス市","address":"上八田"},
{"zip_code":"4000204","kana_pref":"ﾔﾏﾅｼｹﾝ","kana_city":"ﾐﾅﾐｱﾙﾌﾟｽｼ","kana_address":"ｴﾉｷﾊﾗ","pref":"山梨県","city":"南アルプス市","address":"榎原"},
{"zip_code":"4000401","kana_pref":"ﾔﾏﾅｼｹﾝ","kana_city":"ﾐﾅﾐｱﾙﾌﾟｽｼ","kana_address":"ｴﾊﾞﾗ","pref":"山梨県","city":"南アルプス市","address":"江原"},
{"zip_code":"4000234","kana_pref":"ﾔﾏﾅｼｹﾝ","kana_city":"ﾐﾅﾐｱﾙﾌﾟｽｼ","kana_address":"ｵｵｱﾗｼ","pref":"山梨県","city":"南アルプス市","address":"大嵐"},
{"zip_code":"4000306","kana_pref":"ﾔﾏﾅｼｹﾝ","kana_city":"ﾐﾅﾐｱﾙﾌﾟｽｼ","kana_address":"ｵｶﾞｻﾊﾗ","pref":"山梨県","city":"南アルプス市","address":"小笠原"},
{"zip_code":"4000423","kana_pref":"ﾔﾏﾅｼｹﾝ","kana_city":"ﾐﾅﾐｱﾙﾌﾟｽｼ","kana_address":"ｵﾁｱｲ","pref":"山梨県","city":"南アルプス市","address":"落合"},
{"zip_code":"4000335","kana_pref":"ﾔﾏﾅｼｹﾝ","kana_city":"ﾐﾅﾐｱﾙﾌﾟｽｼ","kana_address":"ｶｶﾞﾐ","pref":"山梨県","city":"南アルプス市","address":"加賀美"},
{"zip_code":"4000332","kana_pref":"ﾔﾏﾅｼｹﾝ","kana_city":"ﾐﾅﾐｱﾙﾌﾟｽｼ","kana_address":"ｶｶﾞﾐﾅｶｼﾞｮｳ","pref":"山梨県","city":"南アルプス市","address":"鏡中條"},
{"zip_code":"4000317","kana_pref":"ﾔﾏﾅｼｹﾝ","kana_city":"ﾐﾅﾐｱﾙﾌﾟｽｼ","kana_address":"ｶﾐｲﾁﾉｾ","pref":"山梨県","city":"南アルプス市","address":"上市之瀬"},
{"zip_code":"4000303","kana_pref":"ﾔﾏﾅｼｹﾝ","kana_city":"ﾐﾅﾐｱﾙﾌﾟｽｼ","kana_address":"ｶﾐｲﾏｲ","pref":"山梨県","city":"南アルプス市","address":"上今井"},
{"zip_code":"4000211","kana_pref":"ﾔﾏﾅｼｹﾝ","kana_city":"ﾐﾅﾐｱﾙﾌﾟｽｼ","kana_address":"ｶﾐｲﾏｽﾜ","pref":"山梨県","city":"南アルプス市","address":"上今諏訪"},
{"zip_code":"4000201","kana_pref":"ﾔﾏﾅｼｹﾝ","kana_city":"ﾐﾅﾐｱﾙﾌﾟｽｼ","kana_address":"ｶﾐﾀｶｽﾅ","pref":"山梨県","city":"南アルプス市","address":"上高砂"},
{"zip_code":"4000312","kana_pref":"ﾔﾏﾅｼｹﾝ","kana_city":"ﾐﾅﾐｱﾙﾌﾟｽｼ","kana_address":"ｶﾐﾐﾔｼﾞ","pref":"山梨県","city":"南アルプス市","address":"上宮地"},
{"zip_code":"4000421","kana_pref":"ﾔﾏﾅｼｹﾝ","kana_city":"ﾐﾅﾐｱﾙﾌﾟｽｼ","kana_address":"ｶﾜｶﾐ","pref":"山梨県","city":"南アルプス市","address":"川上"},
{"zip_code":"4000311","kana_pref":"ﾔﾏﾅｼｹﾝ","kana_city":"ﾐﾅﾐｱﾙﾌﾟｽｼ","kana_address":"ｸﾙﾜﾀﾞ","pref":"山梨県","city":"南アルプス市","address":"曲輪田"},
{"zip_code":"4000223","kana_pref":"ﾔﾏﾅｼｹﾝ","kana_city":"ﾐﾅﾐｱﾙﾌﾟｽｼ","kana_address":"ｸﾙﾜﾀﾞｼﾝﾃﾞﾝ","pref":"山梨県","city":"南アルプス市","address":"曲輪田新田"},
{"zip_code":"4000232","kana_pref":"ﾔﾏﾅｼｹﾝ","kana_city":"ﾐﾅﾐｱﾙﾌﾟｽｼ","kana_address":"ｺﾏﾊﾞ","pref":"山梨県","city":"南アルプス市","address":"駒場"},
{"zip_code":"4000221","kana_pref":"ﾔﾏﾅｼｹﾝ","kana_city":"ﾐﾅﾐｱﾙﾌﾟｽｼ","kana_address":"ｻﾞｲｹﾂｶ","pref":"山梨県","city":"南アルプス市","address":"在家塚"},
{"zip_code":"4000302","kana_pref":"ﾔﾏﾅｼｹﾝ","kana_city":"ﾐﾅﾐｱﾙﾌﾟｽｼ","kana_address":"ｻﾜﾉﾎﾞﾘ","pref":"山梨県","city":"南アルプス市","address":"沢登"},
{"zip_code":"4000231","kana_pref":"ﾔﾏﾅｼｹﾝ","kana_city":"ﾐﾅﾐｱﾙﾌﾟｽｼ","kana_address":"ｼｵﾉﾏｴ","pref":"山梨県","city":"南アルプス市","address":"塩前"},
{"zip_code":"4000417","kana_pref":"ﾔﾏﾅｼｹﾝ","kana_city":"ﾐﾅﾐｱﾙﾌﾟｽｼ","kana_address":"ｼﾐｽﾞ","pref":"山梨県","city":"南アルプス市","address":"清水"},
{"zip_code":"4000314","kana_pref":"ﾔﾏﾅｼｹﾝ","kana_city":"ﾐﾅﾐｱﾙﾌﾟｽｼ","kana_address":"ｼﾓｲﾁﾉｾ","pref":"山梨県","city":"南アルプス市","address":"下市之瀬"},
{"zip_code":"4000331","kana_pref":"ﾔﾏﾅｼｹﾝ","kana_city":"ﾐﾅﾐｱﾙﾌﾟｽｼ","kana_address":"ｼﾓｲﾏｲ","pref":"山梨県","city":"南アルプス市","address":"下今井"},
{"zip_code":"4000212","kana_pref":"ﾔﾏﾅｼｹﾝ","kana_city":"ﾐﾅﾐｱﾙﾌﾟｽｼ","kana_address":"ｼﾓｲﾏｽﾜ","pref":"山梨県","city":"南アルプス市","address":"下今諏訪"},
{"zip_code":"4000202","kana_pref":"ﾔﾏﾅｼｹﾝ","kana_city":"ﾐﾅﾐｱﾙﾌﾟｽｼ","kana_address":"ｼﾓﾀｶｽﾅ","pref":"山梨県","city":"南アルプス市","address":"下高砂"},
{"zip_code":"4000405","kana_pref":"ﾔﾏﾅｼｹﾝ","kana_city":"ﾐﾅﾐｱﾙﾌﾟｽｼ","kana_address":"ｼﾓﾐﾔｼﾞ","pref":"山梨県","city":"南アルプス市","address":"下宮地"},
{"zip_code":"4000305","kana_pref":"ﾔﾏﾅｼｹﾝ","kana_city":"ﾐﾅﾐｱﾙﾌﾟｽｼ","kana_address":"ｼﾞｭｳｺﾞｼｮ","pref":"山梨県","city":"南アルプス市","address":"十五所"},
{"zip_code":"4000233","kana_pref":"ﾔﾏﾅｼｹﾝ","kana_city":"ﾐﾅﾐｱﾙﾌﾟｽｼ","kana_address":"ｽｻﾜ","pref":"山梨県","city":"南アルプス市","address":"須沢"},
{"zip_code":"4000416","kana_pref":"ﾔﾏﾅｼｹﾝ","kana_city":"ﾐﾅﾐｱﾙﾌﾟｽｼ","kana_address":"ﾀﾞｲｼ","pref":"山梨県","city":"南アルプス市","address":"大師"},
{"zip_code":"4000318","kana_pref":"ﾔﾏﾅｼｹﾝ","kana_city":"ﾐﾅﾐｱﾙﾌﾟｽｼ","kana_address":"ﾀｶｵ","pref":"山梨県","city":"南アルプス市","address":"高尾"},
{"zip_code":"4000402","kana_pref":"ﾔﾏﾅｼｹﾝ","kana_city":"ﾐﾅﾐｱﾙﾌﾟｽｼ","kana_address":"ﾀｼﾞﾏ","pref":"山梨県","city":"南アルプス市","address":"田島"},
{"zip_code":"4000426","kana_pref":"ﾔﾏﾅｼｹﾝ","kana_city":"ﾐﾅﾐｱﾙﾌﾟｽｼ","kana_address":"ﾂｶﾊﾗ","pref":"山梨県","city":"南アルプス市","address":"塚原"},
{"zip_code":"4000225","kana_pref":"ﾔﾏﾅｼｹﾝ","kana_city":"ﾐﾅﾐｱﾙﾌﾟｽｼ","kana_address":"ﾂｸﾔﾏ","pref":"山梨県","city":"南アルプス市","address":"築山"},
{"zip_code":"4000337","kana_pref":"ﾔﾏﾅｼｹﾝ","kana_city":"ﾐﾅﾐｱﾙﾌﾟｽｼ","kana_address":"ﾃﾗﾍﾞ","pref":"山梨県","city":"南アルプス市","address":"寺部"},
{"zip_code":"4000334","kana_pref":"ﾔﾏﾅｼｹﾝ","kana_city":"ﾐﾅﾐｱﾙﾌﾟｽｼ","kana_address":"ﾄｳﾀﾞ","pref":"山梨県","city":"南アルプス市","address":"藤田"},
{"zip_code":"4000214","kana_pref":"ﾔﾏﾅｼｹﾝ","kana_city":"ﾐﾅﾐｱﾙﾌﾟｽｼ","kana_address":"ﾄﾞｳﾄﾞｳ","pref":"山梨県","city":"南アルプス市","address":"百々"},
{"zip_code":"4000336","kana_pref":"ﾔﾏﾅｼｹﾝ","kana_city":"ﾐﾅﾐｱﾙﾌﾟｽｼ","kana_address":"ﾄｳｶｲﾁﾊﾞ","pref":"山梨県","city":"南アルプス市","address":"十日市場"},
{"zip_code":"4000203","kana_pref":"ﾔﾏﾅｼｹﾝ","kana_city":"ﾐﾅﾐｱﾙﾌﾟｽｼ","kana_address":"ﾄｸﾅｶﾞ","pref":"山梨県","city":"南アルプス市","address":"徳永"},
{"zip_code":"4000414","kana_pref":"ﾔﾏﾅｼｹﾝ","kana_city":"ﾐﾅﾐｱﾙﾌﾟｽｼ","kana_address":"ﾄﾀﾞ","pref":"山梨県","city":"南アルプス市","address":"戸田"},
{"zip_code":"4000316","kana_pref":"ﾔﾏﾅｼｹﾝ","kana_city":"ﾐﾅﾐｱﾙﾌﾟｽｼ","kana_address":"ﾅｶﾉ","pref":"山梨県","city":"南アルプス市","address":"中野"},
{"zip_code":"4000411","kana_pref":"ﾔﾏﾅｼｹﾝ","kana_city":"ﾐﾅﾐｱﾙﾌﾟｽｼ","kana_address":"ﾆｼﾅﾝｺﾞ","pref":"山梨県","city":"南アルプス市","address":"西南湖"},
{"zip_code":"4000213","kana_pref":"ﾔﾏﾅｼｹﾝ","kana_city":"ﾐﾅﾐｱﾙﾌﾟｽｼ","kana_address":"ﾆｼﾉ","pref":"山梨県","city":"南アルプス市","address":"西野"},
{"zip_code":"4000422","kana_pref":"ﾔﾏﾅｼｹﾝ","kana_city":"ﾐﾅﾐｱﾙﾌﾟｽｼ","kana_address":"ﾊﾞﾗｻﾞﾜ","pref":"山梨県","city":"南アルプス市","address":"荊沢"},
{"zip_code":"4000412","kana_pref":"ﾔﾏﾅｼｹﾝ","kana_city":"ﾐﾅﾐｱﾙﾌﾟｽｼ","kana_address":"ﾋｶﾞｼﾅﾝｺﾞ","pref":"山梨県","city":"南アルプス市","address":"東南湖"},
{"zip_code":"4000313","kana_pref":"ﾔﾏﾅｼｹﾝ","kana_city":"ﾐﾅﾐｱﾙﾌﾟｽｼ","kana_address":"ﾋﾗｵｶ","pref":"山梨県","city":"南アルプス市","address":"平岡"},
{"zip_code":"4000404","kana_pref":"ﾔﾏﾅｼｹﾝ","kana_city":"ﾐﾅﾐｱﾙﾌﾟｽｼ","kana_address":"ﾌﾙｲﾁﾊﾞ","pref":"山梨県","city":"南アルプス市","address":"古市場"},
{"zip_code":"4000415","kana_pref":"ﾔﾏﾅｼｹﾝ","kana_city":"ﾐﾅﾐｱﾙﾌﾟｽｼ","kana_address":"ﾐﾔｻﾞﾜ","pref":"山梨県","city":"南アルプス市","address":"宮沢"},
{"zip_code":"4000206","kana_pref":"ﾔﾏﾅｼｹﾝ","kana_city":"ﾐﾅﾐｱﾙﾌﾟｽｼ","kana_address":"ﾑｼﾞﾅ","pref":"山梨県","city":"南アルプス市","address":"六科"},
{"zip_code":"4000301","kana_pref":"ﾔﾏﾅｼｹﾝ","kana_city":"ﾐﾅﾐｱﾙﾌﾟｽｼ","kana_address":"ﾓﾓｿﾉ","pref":"山梨県","city":"南アルプス市","address":"桃園"},
{"zip_code":"4000205","kana_pref":"ﾔﾏﾅｼｹﾝ","kana_city":"ﾐﾅﾐｱﾙﾌﾟｽｼ","kana_address":"ﾔｺﾞｼﾏ","pref":"山梨県","city":"南アルプス市","address":"野牛島"},
{"zip_code":"4000308","kana_pref":"ﾔﾏﾅｼｹﾝ","kana_city":"ﾐﾅﾐｱﾙﾌﾟｽｼ","kana_address":"ﾔﾏﾃﾞﾗ","pref":"山梨県","city":"南アルプス市","address":"山寺"},
{"zip_code":"4000425","kana_pref":"ﾔﾏﾅｼｹﾝ","kana_city":"ﾐﾅﾐｱﾙﾌﾟｽｼ","kana_address":"ﾕｻﾞﾜ","pref":"山梨県","city":"南アルプス市","address":"湯沢"},
{"zip_code":"4000304","kana_pref":"ﾔﾏﾅｼｹﾝ","kana_city":"ﾐﾅﾐｱﾙﾌﾟｽｼ","kana_address":"ﾖｼﾀﾞ","pref":"山梨県","city":"南アルプス市","address":"吉田"},
{"zip_code":"4000100","kana_pref":"ﾔﾏﾅｼｹﾝ","kana_city":"ｶｲｼ","kana_address":"","pref":"山梨県","city":"甲斐市","address":""},
{"zip_code":"4001126","kana_pref":"ﾔﾏﾅｼｹﾝ","kana_city":"ｶｲｼ","kana_address":"ｱﾃﾗ","pref":"山梨県","city":"甲斐市","address":"安寺"},
{"zip_code":"4000106","kana_pref":"ﾔﾏﾅｼｹﾝ","kana_city":"ｶｲｼ","kana_address":"ｲﾜﾓﾘ","pref":"山梨県","city":"甲斐市","address":"岩森"},
{"zip_code":"4000121","kana_pref":"ﾔﾏﾅｼｹﾝ","kana_city":"ｶｲｼ","kana_address":"ｳｼｸ","pref":"山梨県","city":"甲斐市","address":"牛句"},
{"zip_code":"4001114","kana_pref":"ﾔﾏﾅｼｹﾝ","kana_city":"ｶｲｼ","kana_address":"ｳﾁｶﾞｴｼ","pref":"山梨県","city":"甲斐市","address":"打返"},
{"zip_code":"4000108","kana_pref":"ﾔﾏﾅｼｹﾝ","kana_city":"ｶｲｼ","kana_address":"ｳﾂﾔ","pref":"山梨県","city":"甲斐市","address":"宇津谷"},
{"zip_code":"4001115","kana_pref":"ﾔﾏﾅｼｹﾝ","kana_city":"ｶｲｼ","kana_address":"ｳﾙｼﾄﾞ","pref":"山梨県","city":"甲斐市","address":"漆戸"},
{"zip_code":"4000128","kana_pref":"ﾔﾏﾅｼｹﾝ","kana_city":"ｶｲｼ","kana_address":"ｵｵｸﾎﾞ","pref":"山梨県","city":"甲斐市","address":"大久保"},
{"zip_code":"4000126","kana_pref":"ﾔﾏﾅｼｹﾝ","kana_city":"ｶｲｼ","kana_address":"ｵｵｼﾓｼﾞｮｳ","pref":"山梨県","city":"甲斐市","address":"大下条"},
{"zip_code":"4000103","kana_pref":"ﾔﾏﾅｼｹﾝ","kana_city":"ｶｲｼ","kana_address":"ｵｵﾇﾀ","pref":"山梨県","city":"甲斐市","address":"大垈"},
{"zip_code":"4001121","kana_pref":"ﾔﾏﾅｼｹﾝ","kana_city":"ｶｲｼ","kana_address":"ｶﾐｱｼｻﾞﾜ","pref":"山梨県","city":"甲斐市","address":"上芦沢"},
{"zip_code":"4001117","kana_pref":"ﾔﾏﾅｼｹﾝ","kana_city":"ｶｲｼ","kana_address":"ｶﾐｽｹﾞｸﾁ","pref":"山梨県","city":"甲斐市","address":"上菅口"},
{"zip_code":"4001123","kana_pref":"ﾔﾏﾅｼｹﾝ","kana_city":"ｶｲｼ","kana_address":"ｶﾐﾌｸｻﾞﾜ","pref":"山梨県","city":"甲斐市","address":"上福沢"},
{"zip_code":"4001113","kana_pref":"ﾔﾏﾅｼｹﾝ","kana_city":"ｶｲｼ","kana_address":"ｶﾒｻﾞﾜ","pref":"山梨県","city":"甲斐市","address":"亀沢"},
{"zip_code":"4001131","kana_pref":"ﾔﾏﾅｼｹﾝ","kana_city":"ｶｲｼ","kana_address":"ｶﾒｻﾞﾜ","pref":"山梨県","city":"甲斐市","address":"亀沢"},
{"zip_code":"4001112","kana_pref":"ﾔﾏﾅｼｹﾝ","kana_city":"ｶｲｼ","kana_address":"ｷｯｻﾜ","pref":"山梨県","city":"甲斐市","address":"吉沢"},
{"zip_code":"4001127","kana_pref":"ﾔﾏﾅｼｹﾝ","kana_city":"ｶｲｼ","kana_address":"ｺﾞｳﾄﾞ","pref":"山梨県","city":"甲斐市","address":"神戸"},
{"zip_code":"4000122","kana_pref":"ﾔﾏﾅｼｹﾝ","kana_city":"ｶｲｼ","kana_address":"ｻｶｲ","pref":"山梨県","city":"甲斐市","address":"境"},
{"zip_code":"4001116","kana_pref":"ﾔﾏﾅｼｹﾝ","kana_city":"ｶｲｼ","kana_address":"ｼｼﾀﾞｲﾗ","pref":"山梨県","city":"甲斐市","address":"獅子平"},
{"zip_code":"4000107","kana_pref":"ﾔﾏﾅｼｹﾝ","kana_city":"ｶｲｼ","kana_address":"ｼﾀﾞ","pref":"山梨県","city":"甲斐市","address":"志田"},
{"zip_code":"4000115","kana_pref":"ﾔﾏﾅｼｹﾝ","kana_city":"ｶｲｼ","kana_address":"ｼﾉﾊﾗ","pref":"山梨県","city":"甲斐市","address":"篠原"},
{"zip_code":"4000123","kana_pref":"ﾔﾏﾅｼｹﾝ","kana_city":"ｶｲｼ","kana_address":"ｼﾏｶﾐｼﾞｮｳ","pref":"山梨県","city":"甲斐市","address":"島上条"},
{"zip_code":"4001122","kana_pref":"ﾔﾏﾅｼｹﾝ","kana_city":"ｶｲｼ","kana_address":"ｼﾓｱｼｻﾞﾜ","pref":"山梨県","city":"甲斐市","address":"下芦沢"},
{"zip_code":"4000105","kana_pref":"ﾔﾏﾅｼｹﾝ","kana_city":"ｶｲｼ","kana_address":"ｼﾓｲﾏｲ","pref":"山梨県","city":"甲斐市","address":"下今井"},
{"zip_code":"4001125","kana_pref":"ﾔﾏﾅｼｹﾝ","kana_city":"ｶｲｼ","kana_address":"ｼﾓｽｹﾞｸﾞﾁ","pref":"山梨県","city":"甲斐市","address":"下菅口"},
{"zip_code":"4001124","kana_pref":"ﾔﾏﾅｼｹﾝ","kana_city":"ｶｲｼ","kana_address":"ｼﾓﾌｸｻﾞﾜ","pref":"山梨県","city":"甲斐市","address":"下福沢"},
{"zip_code":"4000101","kana_pref":"ﾔﾏﾅｼｹﾝ","kana_city":"ｶｲｼ","kana_address":"ｼｮｳﾌﾞｻﾞﾜ","pref":"山梨県","city":"甲斐市","address":"菖蒲沢"},
{"zip_code":"4001111","kana_pref":"ﾔﾏﾅｼｹﾝ","kana_city":"ｶｲｼ","kana_address":"ｾﾝﾀﾞ","pref":"山梨県","city":"甲斐市","address":"千田"},
{"zip_code":"4000116","kana_pref":"ﾔﾏﾅｼｹﾝ","kana_city":"ｶｲｼ","kana_address":"ﾀﾏｶﾞﾜ","pref":"山梨県","city":"甲斐市","address":"玉川"},
{"zip_code":"4000102","kana_pref":"ﾔﾏﾅｼｹﾝ","kana_city":"ｶｲｼ","kana_address":"ﾀﾞﾝｺﾞｱﾗｲ","pref":"山梨県","city":"甲斐市","address":"団子新居"},
{"zip_code":"4000127","kana_pref":"ﾔﾏﾅｼｹﾝ","kana_city":"ｶｲｼ","kana_address":"ﾃﾝｸﾞｻﾜ","pref":"山梨県","city":"甲斐市","address":"天狗沢"},
{"zip_code":"4000113","kana_pref":"ﾔﾏﾅｼｹﾝ","kana_city":"ｶｲｼ","kana_address":"ﾄﾐﾀｹｼﾝﾃﾞﾝ","pref":"山梨県","city":"甲斐市","address":"富竹新田"},
{"zip_code":"4000124","kana_pref":"ﾔﾏﾅｼｹﾝ","kana_city":"ｶｲｼ","kana_address":"ﾅｶｼﾓｼﾞｮｳ","pref":"山梨県","city":"甲斐市","address":"中下条"},
{"zip_code":"4000125","kana_pref":"ﾔﾏﾅｼｹﾝ","kana_city":"ｶｲｼ","kana_address":"ﾅｶﾞﾂﾞｶ","pref":"山梨県","city":"甲斐市","address":"長塚"},
{"zip_code":"4000112","kana_pref":"ﾔﾏﾅｼｹﾝ","kana_city":"ｶｲｼ","kana_address":"ﾅﾄﾘ","pref":"山梨県","city":"甲斐市","address":"名取"},
{"zip_code":"4000117","kana_pref":"ﾔﾏﾅｼｹﾝ","kana_city":"ｶｲｼ","kana_address":"ﾆｼﾔﾊﾀ","pref":"山梨県","city":"甲斐市","address":"西八幡"},
{"zip_code":"4000114","kana_pref":"ﾔﾏﾅｼｹﾝ","kana_city":"ｶｲｼ","kana_address":"ﾏﾝｻﾞｲ","pref":"山梨県","city":"甲斐市","address":"万才"},
{"zip_code":"4000118","kana_pref":"ﾔﾏﾅｼｹﾝ","kana_city":"ｶｲｼ","kana_address":"ﾘｭｳｵｳ","pref":"山梨県","city":"甲斐市","address":"竜王"},
{"zip_code":"4000111","kana_pref":"ﾔﾏﾅｼｹﾝ","kana_city":"ｶｲｼ","kana_address":"ﾘｭｳｵｳｼﾝﾏﾁ","pref":"山梨県","city":"甲斐市","address":"竜王新町"},
{"zip_code":"4000104","kana_pref":"ﾔﾏﾅｼｹﾝ","kana_city":"ｶｲｼ","kana_address":"ﾘｭｳｼﾞ","pref":"山梨県","city":"甲斐市","address":"龍地"},
{"zip_code":"4001514","kana_pref":"ﾔﾏﾅｼｹﾝ","kana_city":"ﾁｭｳｵｳｼ","kana_address":"ｱｻﾘ","pref":"山梨県","city":"中央市","address":"浅利"},
{"zip_code":"4001513","kana_pref":"ﾔﾏﾅｼｹﾝ","kana_city":"ﾁｭｳｵｳｼ","kana_address":"ｵｵﾄﾘｲ","pref":"山梨県","city":"中央市","address":"大鳥居"},
{"zip_code":"4001511","kana_pref":"ﾔﾏﾅｼｹﾝ","kana_city":"ﾁｭｳｵｳｼ","kana_address":"ｷﾊﾗ","pref":"山梨県","city":"中央市","address":"木原"},
{"zip_code":"4001512","kana_pref":"ﾔﾏﾅｼｹﾝ","kana_city":"ﾁｭｳｵｳｼ","kana_address":"ｾｷﾊﾗ","pref":"山梨県","city":"中央市","address":"関原"},
{"zip_code":"4001515","kana_pref":"ﾔﾏﾅｼｹﾝ","kana_city":"ﾁｭｳｵｳｼ","kana_address":"ﾀｶﾍﾞ","pref":"山梨県","city":"中央市","address":"高部"},
{"zip_code":"4000500","kana_pref":"ﾔﾏﾅｼｹﾝ","kana_city":"ﾐﾅﾐｺﾏｸﾞﾝﾌｼﾞｶﾜﾁｮｳ","kana_address":"","pref":"山梨県","city":"南巨摩郡富士川町","address":""},
{"zip_code":"4000501","kana_pref":"ﾔﾏﾅｼｹﾝ","kana_city":"ﾐﾅﾐｺﾏｸﾞﾝﾌｼﾞｶﾜﾁｮｳ","kana_address":"ｱｵﾔｷﾞﾏﾁ","pref":"山梨県","city":"南巨摩郡富士川町","address":"青柳町"},
{"zip_code":"4000602","kana_pref":"ﾔﾏﾅｼｹﾝ","kana_city":"ﾐﾅﾐｺﾏｸﾞﾝﾌｼﾞｶﾜﾁｮｳ","kana_address":"ｴｷﾏｴﾄﾞｵﾘ","pref":"山梨県","city":"南巨摩郡富士川町","address":"駅前通"},
{"zip_code":"4000506","kana_pref":"ﾔﾏﾅｼｹﾝ","kana_city":"ﾐﾅﾐｺﾏｸﾞﾝﾌｼﾞｶﾜﾁｮｳ","kana_address":"ｵｵｸﾇｷﾞ","pref":"山梨県","city":"南巨摩郡富士川町","address":"大椚"},
{"zip_code":"4000511","kana_pref":"ﾔﾏﾅｼｹﾝ","kana_city":"ﾐﾅﾐｺﾏｸﾞﾝﾌｼﾞｶﾜﾁｮｳ","kana_address":"ｵｵｸﾎﾞ","pref":"山梨県","city":"南巨摩郡富士川町","address":"大久保"},
{"zip_code":"4000601","kana_pref":"ﾔﾏﾅｼｹﾝ","kana_city":"ﾐﾅﾐｺﾏｸﾞﾝﾌｼﾞｶﾜﾁｮｳ","kana_address":"ｶｼﾞｶｻﾞﾜ","pref":"山梨県","city":"南巨摩郡富士川町","address":"鰍沢"},
{"zip_code":"4000603","kana_pref":"ﾔﾏﾅｼｹﾝ","kana_city":"ﾐﾅﾐｺﾏｸﾞﾝﾌｼﾞｶﾜﾁｮｳ","kana_address":"ｶｼﾏ","pref":"山梨県","city":"南巨摩郡富士川町","address":"鹿島"},
{"zip_code":"4000504","kana_pref":"ﾔﾏﾅｼｹﾝ","kana_city":"ﾐﾅﾐｺﾏｸﾞﾝﾌｼﾞｶﾜﾁｮｳ","kana_address":"ｺﾊﾞﾔｼ","pref":"山梨県","city":"南巨摩郡富士川町","address":"小林"},
{"zip_code":"4000512","kana_pref":"ﾔﾏﾅｼｹﾝ","kana_city":"ﾐﾅﾐｺﾏｸﾞﾝﾌｼﾞｶﾜﾁｮｳ","kana_address":"ｺﾑﾛ","pref":"山梨県","city":"南巨摩郡富士川町","address":"小室"},
{"zip_code":"4000502","kana_pref":"ﾔﾏﾅｼｹﾝ","kana_city":"ﾐﾅﾐｺﾏｸﾞﾝﾌｼﾞｶﾜﾁｮｳ","kana_address":"ｻｲｼｮｳｼﾞ","pref":"山梨県","city":"南巨摩郡富士川町","address":"最勝寺"},
{"zip_code":"4000606","kana_pref":"ﾔﾏﾅｼｹﾝ","kana_city":"ﾐﾅﾐｺﾏｸﾞﾝﾌｼﾞｶﾜﾁｮｳ","kana_address":"ｼﾞｯｺｸ","pref":"山梨県","city":"南巨摩郡富士川町","address":"十谷"},
{"zip_code":"4000513","kana_pref":"ﾔﾏﾅｼｹﾝ","kana_city":"ﾐﾅﾐｺﾏｸﾞﾝﾌｼﾞｶﾜﾁｮｳ","kana_address":"ﾀｶｵﾘ","pref":"山梨県","city":"南巨摩郡富士川町","address":"高下"},
{"zip_code":"4000608","kana_pref":"ﾔﾏﾅｼｹﾝ","kana_city":"ﾐﾅﾐｺﾏｸﾞﾝﾌｼﾞｶﾜﾁｮｳ","kana_address":"ﾁｮｳﾁｻﾞﾜ","pref":"山梨県","city":"南巨摩郡富士川町","address":"長知沢"},
{"zip_code":"4000515","kana_pref":"ﾔﾏﾅｼｹﾝ","kana_city":"ﾐﾅﾐｺﾏｸﾞﾝﾌｼﾞｶﾜﾁｮｳ","kana_address":"ﾂｷﾖﾈ","pref":"山梨県","city":"南巨摩郡富士川町","address":"舂米"},
{"zip_code":"4000503","kana_pref":"ﾔﾏﾅｼｹﾝ","kana_city":"ﾐﾅﾐｺﾏｸﾞﾝﾌｼﾞｶﾜﾁｮｳ","kana_address":"ﾃﾝｼﾞﾝﾅｶｼﾞｮｳ","pref":"山梨県","city":"南巨摩郡富士川町","address":"天神中條"},
{"zip_code":"4000607","kana_pref":"ﾔﾏﾅｼｹﾝ","kana_city":"ﾐﾅﾐｺﾏｸﾞﾝﾌｼﾞｶﾜﾁｮｳ","kana_address":"ﾄﾔ","pref":"山梨県","city":"南巨摩郡富士川町","address":"鳥屋"},
{"zip_code":"4000505","kana_pref":"ﾔﾏﾅｼｹﾝ","kana_city":"ﾐﾅﾐｺﾏｸﾞﾝﾌｼﾞｶﾜﾁｮｳ","kana_address":"ﾅｶﾞｻﾜ","pref":"山梨県","city":"南巨摩郡富士川町","address":"長澤"},
{"zip_code":"4000604","kana_pref":"ﾔﾏﾅｼｹﾝ","kana_city":"ﾐﾅﾐｺﾏｸﾞﾝﾌｼﾞｶﾜﾁｮｳ","kana_address":"ﾊｺﾊﾞﾗ","pref":"山梨県","city":"南巨摩郡富士川町","address":"箱原"},
{"zip_code":"4000514","kana_pref":"ﾔﾏﾅｼｹﾝ","kana_city":"ﾐﾅﾐｺﾏｸﾞﾝﾌｼﾞｶﾜﾁｮｳ","kana_address":"ﾋﾗﾊﾞﾔｼ","pref":"山梨県","city":"南巨摩郡富士川町","address":"平林"},
{"zip_code":"4000605","kana_pref":"ﾔﾏﾅｼｹﾝ","kana_city":"ﾐﾅﾐｺﾏｸﾞﾝﾌｼﾞｶﾜﾁｮｳ","kana_address":"ﾔﾅｶﾞﾜ","pref":"山梨県","city":"南巨摩郡富士川町","address":"柳川"}]}