{"zip_code":[
{"zip_code":"4010000","kana_pref":"ﾔﾏﾅｼｹﾝ","kana_city":"ｵｵﾂｷｼ","kana_address":"","pref":"山梨県","city":"大月市","address":""},
{"zip_code":"4010013","kana_pref":"ﾔﾏﾅｼｹﾝ","kana_city":"ｵｵﾂｷｼ","kana_address":"ｵｵﾂｷ","pref":"山梨県","city":"大月市","address":"大月"},
{"zip_code":"4010014","kana_pref":"ﾔﾏﾅｼｹﾝ","kana_city":"ｵｵﾂｷｼ","kana_address":"ｵｵﾂｷﾏﾁｵｵﾂｷ","pref":"山梨県","city":"大月市","address":"大月町大月"},
{"zip_code":"4010015","kana_pref":"ﾔﾏﾅｼｹﾝ","kana_city":"ｵｵﾂｷｼ","kana_address":"ｵｵﾂｷﾏﾁﾊﾅｻｷ","pref":"山梨県","city":"大月市","address":"大月町花咲"},
{"zip_code":"4010016","kana_pref":"ﾔﾏﾅｼｹﾝ","kana_city":"ｵｵﾂｷｼ","kana_address":"ｵｵﾂｷﾏﾁﾏｷﾞ","pref":"山梨県","city":"大月市","address":"大月町真木"},
{"zip_code":"4010011","kana_pref":"ﾔﾏﾅｼｹﾝ","kana_city":"ｵｵﾂｷｼ","kana_address":"ｺﾏﾊｼ","pref":"山梨県","city":"大月市","address":"駒橋"},
{"zip_code":"4010025","kana_pref":"ﾔﾏﾅｼｹﾝ","kana_city":"ｵｵﾂｷｼ","kana_address":"ｻｻｺﾞﾏﾁｸﾛﾉﾀﾞ","pref":"山梨県","city":"大月市","address":"笹子町黒野田"},
{"zip_code":"4010023","kana_pref":"ﾔﾏﾅｼｹﾝ","kana_city":"ｵｵﾂｷｼ","kana_address":"ｻｻｺﾞﾏﾁｼﾗﾉ","pref":"山梨県","city":"大月市","address":"笹子町白野"},
{"zip_code":"4010024","kana_pref":"ﾔﾏﾅｼｹﾝ","kana_city":"ｵｵﾂｷｼ","kana_address":"ｻｻｺﾞﾏﾁﾖｼｸﾎﾞ","pref":"山梨県","city":"大月市","address":"笹子町吉久保"},
{"zip_code":"4010005","kana_pref":"ﾔﾏﾅｼｹﾝ","kana_city":"ｵｵﾂｷｼ","kana_address":"ﾆｷﾞｵｶﾏﾁｱｻﾘ","pref":"山梨県","city":"大月市","address":"賑岡町浅利"},
{"zip_code":"4010002","kana_pref":"ﾔﾏﾅｼｹﾝ","kana_city":"ｵｵﾂｷｼ","kana_address":"ﾆｷﾞｵｶﾏﾁｲﾜﾄﾞﾉ","pref":"山梨県","city":"大月市","address":"賑岡町岩殿"},
{"zip_code":"4010006","kana_pref":"ﾔﾏﾅｼｹﾝ","kana_city":"ｵｵﾂｷｼ","kana_address":"ﾆｷﾞｵｶﾏﾁｵｸﾔﾏ","pref":"山梨県","city":"大月市","address":"賑岡町奥山"},
{"zip_code":"4010004","kana_pref":"ﾔﾏﾅｼｹﾝ","kana_city":"ｵｵﾂｷｼ","kana_address":"ﾆｷﾞｵｶﾏﾁｺﾜｾﾞ","pref":"山梨県","city":"大月市","address":"賑岡町強瀬"},
{"zip_code":"4010001","kana_pref":"ﾔﾏﾅｼｹﾝ","kana_city":"ｵｵﾂｷｼ","kana_address":"ﾆｷﾞｵｶﾏﾁﾊﾀｸﾞﾗ","pref":"山梨県","city":"大月市","address":"賑岡町畑倉"},
{"zip_code":"4010003","kana_pref":"ﾔﾏﾅｼｹﾝ","kana_city":"ｵｵﾂｷｼ","kana_address":"ﾆｷﾞｵｶﾏﾁﾕﾘｶﾞｵｶ","pref":"山梨県","city":"大月市","address":"賑岡町ゆりケ丘"},
{"zip_code":"4010021","kana_pref":"ﾔﾏﾅｼｹﾝ","kana_city":"ｵｵﾂｷｼ","kana_address":"ﾊﾂｶﾘﾏﾁｼﾓﾊﾂｶﾘ","pref":"山梨県","city":"大月市","address":"初狩町下初狩"},
{"zip_code":"4010022","kana_pref":"ﾔﾏﾅｼｹﾝ","kana_city":"ｵｵﾂｷｼ","kana_address":"ﾊﾂｶﾘﾏﾁﾅｶﾊﾂｶﾘ","pref":"山梨県","city":"大月市","address":"初狩町中初狩"},
{"zip_code":"4010012","kana_pref":"ﾔﾏﾅｼｹﾝ","kana_city":"ｵｵﾂｷｼ","kana_address":"ﾐﾀﾁ","pref":"山梨県","city":"大月市","address":"御太刀"},
{"zip_code":"4010201","kana_pref":"ﾔﾏﾅｼｹﾝ","kana_city":"ｳｴﾉﾊﾗｼ","kana_address":"ｱｷﾔﾏ","pref":"山梨県","city":"上野原市","address":"秋山"},
{"zip_code":"4010500","kana_pref":"ﾔﾏﾅｼｹﾝ","kana_city":"ﾐﾅﾐﾂﾙｸﾞﾝｵｼﾉﾑﾗ","kana_address":"","pref":"山梨県","city":"南都留郡忍野村","address":""},
{"zip_code":"4010512","kana_pref":"ﾔﾏﾅｼｹﾝ","kana_city":"ﾐﾅﾐﾂﾙｸﾞﾝｵｼﾉﾑﾗ","kana_address":"ｳﾁﾉ","pref":"山梨県","city":"南都留郡忍野村","address":"内野"},
{"zip_code":"4010511","kana_pref":"ﾔﾏﾅｼｹﾝ","kana_city":"ﾐﾅﾐﾂﾙｸﾞﾝｵｼﾉﾑﾗ","kana_address":"ｼﾎﾞｸｻ","pref":"山梨県","city":"南都留郡忍野村","address":"忍草"},
{"zip_code":"4010500","kana_pref":"ﾔﾏﾅｼｹﾝ","kana_city":"ﾐﾅﾐﾂﾙｸﾞﾝﾔﾏﾅｶｺﾑﾗ","kana_address":"","pref":"山梨県","city":"南都留郡山中湖村","address":""},
{"zip_code":"4010502","kana_pref":"ﾔﾏﾅｼｹﾝ","kana_city":"ﾐﾅﾐﾂﾙｸﾞﾝﾔﾏﾅｶｺﾑﾗ","kana_address":"ﾋﾗﾉ","pref":"山梨県","city":"南都留郡山中湖村","address":"平野"},
{"zip_code":"4010501","kana_pref":"ﾔﾏﾅｼｹﾝ","kana_city":"ﾐﾅﾐﾂﾙｸﾞﾝﾔﾏﾅｶｺﾑﾗ","kana_address":"ﾔﾏﾅｶ","pref":"山梨県","city":"南都留郡山中湖村","address":"山中"},
{"zip_code":"4010320","kana_pref":"ﾔﾏﾅｼｹﾝ","kana_city":"ﾐﾅﾐﾂﾙｸﾞﾝﾅﾙｻﾜﾑﾗ","kana_address":"ﾅﾙｻﾜﾑﾗｲﾁｴﾝ","pref":"山梨県","city":"南都留郡鳴沢村","address":"鳴沢村一円"},
{"zip_code":"4010300","kana_pref":"ﾔﾏﾅｼｹﾝ","kana_city":"ﾐﾅﾐﾂﾙｸﾞﾝﾌｼﾞｶﾜｸﾞﾁｺﾏﾁ","kana_address":"","pref":"山梨県","city":"南都留郡富士河口湖町","address":""},
{"zip_code":"4010303","kana_pref":"ﾔﾏﾅｼｹﾝ","kana_city":"ﾐﾅﾐﾂﾙｸﾞﾝﾌｼﾞｶﾜｸﾞﾁｺﾏﾁ","kana_address":"ｱｻﾞｶﾞﾜ","pref":"山梨県","city":"南都留郡富士河口湖町","address":"浅川"},
{"zip_code":"4010335","kana_pref":"ﾔﾏﾅｼｹﾝ","kana_city":"ﾐﾅﾐﾂﾙｸﾞﾝﾌｼﾞｶﾜｸﾞﾁｺﾏﾁ","kana_address":"ｵｵｱﾗｼ","pref":"山梨県","city":"南都留郡富士河口湖町","address":"大嵐"},
{"zip_code":"4010305","kana_pref":"ﾔﾏﾅｼｹﾝ","kana_city":"ﾐﾅﾐﾂﾙｸﾞﾝﾌｼﾞｶﾜｸﾞﾁｺﾏﾁ","kana_address":"ｵｵｲｼ","pref":"山梨県","city":"南都留郡富士河口湖町","address":"大石"},
{"zip_code":"4010310","kana_pref":"ﾔﾏﾅｼｹﾝ","kana_city":"ﾐﾅﾐﾂﾙｸﾞﾝﾌｼﾞｶﾜｸﾞﾁｺﾏﾁ","kana_address":"ｶﾂﾔﾏ","pref":"山梨県","city":"南都留郡富士河口湖町","address":"勝山"},
{"zip_code":"4010304","kana_pref":"ﾔﾏﾅｼｹﾝ","kana_city":"ﾐﾅﾐﾂﾙｸﾞﾝﾌｼﾞｶﾜｸﾞﾁｺﾏﾁ","kana_address":"ｶﾜｸﾞﾁ","pref":"山梨県","city":"南都留郡富士河口湖町","address":"河口"},
{"zip_code":"4010302","kana_pref":"ﾔﾏﾅｼｹﾝ","kana_city":"ﾐﾅﾐﾂﾙｸﾞﾝﾌｼﾞｶﾜｸﾞﾁｺﾏﾁ","kana_address":"ｺﾀﾞﾁ","pref":"山梨県","city":"南都留郡富士河口湖町","address":"小立"},
{"zip_code":"4010332","kana_pref":"ﾔﾏﾅｼｹﾝ","kana_city":"ﾐﾅﾐﾂﾙｸﾞﾝﾌｼﾞｶﾜｸﾞﾁｺﾏﾁ","kana_address":"ｻｲｺ","pref":"山梨県","city":"南都留郡富士河口湖町","address":"西湖"},
{"zip_code":"4010333","kana_pref":"ﾔﾏﾅｼｹﾝ","kana_city":"ﾐﾅﾐﾂﾙｸﾞﾝﾌｼﾞｶﾜｸﾞﾁｺﾏﾁ","kana_address":"ｻｲｺﾆｼ","pref":"山梨県","city":"南都留郡富士河口湖町","address":"西湖西"},
{"zip_code":"4010334","kana_pref":"ﾔﾏﾅｼｹﾝ","kana_city":"ﾐﾅﾐﾂﾙｸﾞﾝﾌｼﾞｶﾜｸﾞﾁｺﾏﾁ","kana_address":"ｻｲｺﾐﾅﾐ","pref":"山梨県","city":"南都留郡富士河口湖町","address":"西湖南"},
{"zip_code":"4010336","kana_pref":"ﾔﾏﾅｼｹﾝ","kana_city":"ﾐﾅﾐﾂﾙｸﾞﾝﾌｼﾞｶﾜｸﾞﾁｺﾏﾁ","kana_address":"ｼｮｳｼﾞ","pref":"山梨県","city":"南都留郡富士河口湖町","address":"精進"},
{"zip_code":"4010331","kana_pref":"ﾔﾏﾅｼｹﾝ","kana_city":"ﾐﾅﾐﾂﾙｸﾞﾝﾌｼﾞｶﾜｸﾞﾁｺﾏﾁ","kana_address":"ﾅｶﾞﾊﾏ","pref":"山梨県","city":"南都留郡富士河口湖町","address":"長浜"},
{"zip_code":"4010338","kana_pref":"ﾔﾏﾅｼｹﾝ","kana_city":"ﾐﾅﾐﾂﾙｸﾞﾝﾌｼﾞｶﾜｸﾞﾁｺﾏﾁ","kana_address":"ﾌｼﾞｶﾞﾈ","pref":"山梨県","city":"南都留郡富士河口湖町","address":"富士ケ嶺"},
{"zip_code":"4010301","kana_pref":"ﾔﾏﾅｼｹﾝ","kana_city":"ﾐﾅﾐﾂﾙｸﾞﾝﾌｼﾞｶﾜｸﾞﾁｺﾏﾁ","kana_address":"ﾌﾅﾂ","pref":"山梨県","city":"南都留郡富士河口湖町","address":"船津"},
{"zip_code":"4010337","kana_pref":"ﾔﾏﾅｼｹﾝ","kana_city":"ﾐﾅﾐﾂﾙｸﾞﾝﾌｼﾞｶﾜｸﾞﾁｺﾏﾁ","kana_address":"ﾓﾄｽ","pref":"山梨県","city":"南都留郡富士河口湖町","address":"本栖"}]}