{"zip_code":[
{"zip_code":"4020000","kana_pref":"ﾔﾏﾅｼｹﾝ","kana_city":"ﾂﾙｼ","kana_address":"","pref":"山梨県","city":"都留市","address":""},
{"zip_code":"4020015","kana_pref":"ﾔﾏﾅｼｹﾝ","kana_city":"ﾂﾙｼ","kana_address":"ｱｻﾋｿｼ","pref":"山梨県","city":"都留市","address":"朝日曽雌"},
{"zip_code":"4020014","kana_pref":"ﾔﾏﾅｼｹﾝ","kana_city":"ﾂﾙｼ","kana_address":"ｱｻﾋﾊﾞﾊﾞ","pref":"山梨県","city":"都留市","address":"朝日馬場"},
{"zip_code":"4020042","kana_pref":"ﾔﾏﾅｼｹﾝ","kana_city":"ﾂﾙｼ","kana_address":"ｱﾂﾊﾗ","pref":"山梨県","city":"都留市","address":"厚原"},
{"zip_code":"4020011","kana_pref":"ﾔﾏﾅｼｹﾝ","kana_city":"ﾂﾙｼ","kana_address":"ｲｸﾞﾗ","pref":"山梨県","city":"都留市","address":"井倉"},
{"zip_code":"4020023","kana_pref":"ﾔﾏﾅｼｹﾝ","kana_city":"ﾂﾙｼ","kana_address":"ｵｵﾉ","pref":"山梨県","city":"都留市","address":"大野"},
{"zip_code":"4020045","kana_pref":"ﾔﾏﾅｼｹﾝ","kana_city":"ﾂﾙｼ","kana_address":"ｵｵﾊﾀ","pref":"山梨県","city":"都留市","address":"大幡"},
{"zip_code":"4020002","kana_pref":"ﾔﾏﾅｼｹﾝ","kana_city":"ﾂﾙｼ","kana_address":"ｵｵﾊﾗ","pref":"山梨県","city":"都留市","address":"大原"},
{"zip_code":"4020006","kana_pref":"ﾔﾏﾅｼｹﾝ","kana_city":"ﾂﾙｼ","kana_address":"ｵｶﾞﾀﾔﾏ","pref":"山梨県","city":"都留市","address":"小形山"},
{"zip_code":"4020024","kana_pref":"ﾔﾏﾅｼｹﾝ","kana_city":"ﾂﾙｼ","kana_address":"ｵﾉ","pref":"山梨県","city":"都留市","address":"小野"},
{"zip_code":"4020034","kana_pref":"ﾔﾏﾅｼｹﾝ","kana_city":"ﾂﾙｼ","kana_address":"ｶﾂﾗﾏﾁ","pref":"山梨県","city":"都留市","address":"桂町"},
{"zip_code":"4020041","kana_pref":"ﾔﾏﾅｼｹﾝ","kana_city":"ﾂﾙｼ","kana_address":"ｶﾅｲ","pref":"山梨県","city":"都留市","address":"金井"},
{"zip_code":"4020044","kana_pref":"ﾔﾏﾅｼｹﾝ","kana_city":"ﾂﾙｼ","kana_address":"ｶﾊﾀ","pref":"山梨県","city":"都留市","address":"加畑"},
{"zip_code":"4020053","kana_pref":"ﾔﾏﾅｼｹﾝ","kana_city":"ﾂﾙｼ","kana_address":"ｶﾐﾔ","pref":"山梨県","city":"都留市","address":"上谷"},
{"zip_code":"4020055","kana_pref":"ﾔﾏﾅｼｹﾝ","kana_city":"ﾂﾙｼ","kana_address":"ｶﾜﾀﾞﾅ","pref":"山梨県","city":"都留市","address":"川棚"},
{"zip_code":"4020003","kana_pref":"ﾔﾏﾅｼｹﾝ","kana_city":"ﾂﾙｼ","kana_address":"ｶﾜﾓ","pref":"山梨県","city":"都留市","address":"川茂"},
{"zip_code":"4020033","kana_pref":"ﾔﾏﾅｼｹﾝ","kana_city":"ﾂﾙｼ","kana_address":"ｻｶｲ","pref":"山梨県","city":"都留市","address":"境"},
{"zip_code":"4020032","kana_pref":"ﾔﾏﾅｼｹﾝ","kana_city":"ﾂﾙｼ","kana_address":"ｼｼﾄﾞﾒ","pref":"山梨県","city":"都留市","address":"鹿留"},
{"zip_code":"4020051","kana_pref":"ﾔﾏﾅｼｹﾝ","kana_city":"ﾂﾙｼ","kana_address":"ｼﾓﾔ","pref":"山梨県","city":"都留市","address":"下谷"},
{"zip_code":"4020001","kana_pref":"ﾔﾏﾅｼｹﾝ","kana_city":"ﾂﾙｼ","kana_address":"ﾀﾉｸﾗ","pref":"山梨県","city":"都留市","address":"田野倉"},
{"zip_code":"4020054","kana_pref":"ﾔﾏﾅｼｹﾝ","kana_city":"ﾂﾙｼ","kana_address":"ﾀﾊﾗ","pref":"山梨県","city":"都留市","address":"田原"},
{"zip_code":"4020021","kana_pref":"ﾔﾏﾅｼｹﾝ","kana_city":"ﾂﾙｼ","kana_address":"ﾀﾏｶﾞﾜ","pref":"山梨県","city":"都留市","address":"玉川"},
{"zip_code":"4020052","kana_pref":"ﾔﾏﾅｼｹﾝ","kana_city":"ﾂﾙｼ","kana_address":"ﾁｭｳｵｳ","pref":"山梨県","city":"都留市","address":"中央"},
{"zip_code":"4020056","kana_pref":"ﾔﾏﾅｼｹﾝ","kana_city":"ﾂﾙｼ","kana_address":"ﾂﾙ","pref":"山梨県","city":"都留市","address":"つる"},
{"zip_code":"4020031","kana_pref":"ﾔﾏﾅｼｹﾝ","kana_city":"ﾂﾙｼ","kana_address":"ﾄｵｶｲﾁﾊﾞ","pref":"山梨県","city":"都留市","address":"十日市場"},
{"zip_code":"4020022","kana_pref":"ﾔﾏﾅｼｹﾝ","kana_city":"ﾂﾙｼ","kana_address":"ﾄｻﾞﾜ","pref":"山梨県","city":"都留市","address":"戸沢"},
{"zip_code":"4020046","kana_pref":"ﾔﾏﾅｼｹﾝ","kana_city":"ﾂﾙｼ","kana_address":"ﾅｶﾂﾓﾘ","pref":"山梨県","city":"都留市","address":"中津森"},
{"zip_code":"4020035","kana_pref":"ﾔﾏﾅｼｹﾝ","kana_city":"ﾂﾙｼ","kana_address":"ﾅﾂｶﾞﾘ","pref":"山梨県","city":"都留市","address":"夏狩"},
{"zip_code":"4020043","kana_pref":"ﾔﾏﾅｼｹﾝ","kana_city":"ﾂﾙｼ","kana_address":"ﾋﾗｸﾞﾘ","pref":"山梨県","city":"都留市","address":"平栗"},
{"zip_code":"4020004","kana_pref":"ﾔﾏﾅｼｹﾝ","kana_city":"ﾂﾙｼ","kana_address":"ﾌﾙｶﾜﾄﾞ","pref":"山梨県","city":"都留市","address":"古川渡"},
{"zip_code":"4020025","kana_pref":"ﾔﾏﾅｼｹﾝ","kana_city":"ﾂﾙｼ","kana_address":"ﾎｳﾉｳ","pref":"山梨県","city":"都留市","address":"法能"},
{"zip_code":"4020013","kana_pref":"ﾔﾏﾅｼｹﾝ","kana_city":"ﾂﾙｼ","kana_address":"ﾓﾘｻﾄ","pref":"山梨県","city":"都留市","address":"盛里"},
{"zip_code":"4020005","kana_pref":"ﾔﾏﾅｼｹﾝ","kana_city":"ﾂﾙｼ","kana_address":"ﾖｯｶｲﾁﾊﾞ","pref":"山梨県","city":"都留市","address":"四日市場"},
{"zip_code":"4020012","kana_pref":"ﾔﾏﾅｼｹﾝ","kana_city":"ﾂﾙｼ","kana_address":"ﾖﾅﾜ","pref":"山梨県","city":"都留市","address":"与縄"},
{"zip_code":"4020200","kana_pref":"ﾔﾏﾅｼｹﾝ","kana_city":"ﾐﾅﾐﾂﾙｸﾞﾝﾄﾞｳｼﾑﾗ","kana_address":"","pref":"山梨県","city":"南都留郡道志村","address":""},
{"zip_code":"4020225","kana_pref":"ﾔﾏﾅｼｹﾝ","kana_city":"ﾐﾅﾐﾂﾙｸﾞﾝﾄﾞｳｼﾑﾗ","kana_address":"ｲﾀﾊﾞｼ","pref":"山梨県","city":"南都留郡道志村","address":"板橋"},
{"zip_code":"4020207","kana_pref":"ﾔﾏﾅｼｹﾝ","kana_city":"ﾐﾅﾐﾂﾙｸﾞﾝﾄﾞｳｼﾑﾗ","kana_address":"ｵｵｸﾞﾘ","pref":"山梨県","city":"南都留郡道志村","address":"大栗"},
{"zip_code":"4020215","kana_pref":"ﾔﾏﾅｼｹﾝ","kana_city":"ﾐﾅﾐﾂﾙｸﾞﾝﾄﾞｳｼﾑﾗ","kana_address":"ｵｵｻﾞｽ","pref":"山梨県","city":"南都留郡道志村","address":"大指"},
{"zip_code":"4020202","kana_pref":"ﾔﾏﾅｼｹﾝ","kana_city":"ﾐﾅﾐﾂﾙｸﾞﾝﾄﾞｳｼﾑﾗ","kana_address":"ｵｵﾉ","pref":"山梨県","city":"南都留郡道志村","address":"大野"},
{"zip_code":"4020204","kana_pref":"ﾔﾏﾅｼｹﾝ","kana_city":"ﾐﾅﾐﾂﾙｸﾞﾝﾄﾞｳｼﾑﾗ","kana_address":"ｵｵﾑﾛｻﾞｽ","pref":"山梨県","city":"南都留郡道志村","address":"大室指"},
{"zip_code":"4020214","kana_pref":"ﾔﾏﾅｼｹﾝ","kana_city":"ﾐﾅﾐﾂﾙｸﾞﾝﾄﾞｳｼﾑﾗ","kana_address":"ｶﾜﾗﾊﾀ","pref":"山梨県","city":"南都留郡道志村","address":"川原畑"},
{"zip_code":"4020216","kana_pref":"ﾔﾏﾅｼｹﾝ","kana_city":"ﾐﾅﾐﾂﾙｸﾞﾝﾄﾞｳｼﾑﾗ","kana_address":"ｶﾏﾉﾏｴ","pref":"山梨県","city":"南都留郡道志村","address":"釜之前"},
{"zip_code":"4020227","kana_pref":"ﾔﾏﾅｼｹﾝ","kana_city":"ﾐﾅﾐﾂﾙｸﾞﾝﾄﾞｳｼﾑﾗ","kana_address":"ｶﾐｼﾛｲﾀｲﾗ","pref":"山梨県","city":"南都留郡道志村","address":"上白井平"},
{"zip_code":"4020223","kana_pref":"ﾔﾏﾅｼｹﾝ","kana_city":"ﾐﾅﾐﾂﾙｸﾞﾝﾄﾞｳｼﾑﾗ","kana_address":"ｶﾐｾﾞﾝﾉｷ","pref":"山梨県","city":"南都留郡道志村","address":"上善之木"},
{"zip_code":"4020221","kana_pref":"ﾔﾏﾅｼｹﾝ","kana_city":"ﾐﾅﾐﾂﾙｸﾞﾝﾄﾞｳｼﾑﾗ","kana_address":"ｶﾐﾅｶﾔﾏ","pref":"山梨県","city":"南都留郡道志村","address":"上中山"},
{"zip_code":"4020224","kana_pref":"ﾔﾏﾅｼｹﾝ","kana_city":"ﾐﾅﾐﾂﾙｸﾞﾝﾄﾞｳｼﾑﾗ","kana_address":"ｶﾜﾑﾗ","pref":"山梨県","city":"南都留郡道志村","address":"川村"},
{"zip_code":"4020203","kana_pref":"ﾔﾏﾅｼｹﾝ","kana_city":"ﾐﾅﾐﾂﾙｸﾞﾝﾄﾞｳｼﾑﾗ","kana_address":"ｸﾎﾞ","pref":"山梨県","city":"南都留郡道志村","address":"久保"},
{"zip_code":"4020206","kana_pref":"ﾔﾏﾅｼｹﾝ","kana_city":"ﾐﾅﾐﾂﾙｸﾞﾝﾄﾞｳｼﾑﾗ","kana_address":"ｺｾﾞﾝｼﾞ","pref":"山梨県","city":"南都留郡道志村","address":"小善地"},
{"zip_code":"4020226","kana_pref":"ﾔﾏﾅｼｹﾝ","kana_city":"ﾐﾅﾐﾂﾙｸﾞﾝﾄﾞｳｼﾑﾗ","kana_address":"ｼﾓｼﾛｲﾀｲﾗ","pref":"山梨県","city":"南都留郡道志村","address":"下白井平"},
{"zip_code":"4020222","kana_pref":"ﾔﾏﾅｼｹﾝ","kana_city":"ﾐﾅﾐﾂﾙｸﾞﾝﾄﾞｳｼﾑﾗ","kana_address":"ｼﾓｾﾞﾝﾉｷ","pref":"山梨県","city":"南都留郡道志村","address":"下善之木"},
{"zip_code":"4020219","kana_pref":"ﾔﾏﾅｼｹﾝ","kana_city":"ﾐﾅﾐﾂﾙｸﾞﾝﾄﾞｳｼﾑﾗ","kana_address":"ｼﾓﾅｶﾔﾏ","pref":"山梨県","city":"南都留郡道志村","address":"下中山"},
{"zip_code":"4020209","kana_pref":"ﾔﾏﾅｼｹﾝ","kana_city":"ﾐﾅﾐﾂﾙｸﾞﾝﾄﾞｳｼﾑﾗ","kana_address":"ﾀｹﾉﾓﾄ","pref":"山梨県","city":"南都留郡道志村","address":"竹之本"},
{"zip_code":"4020201","kana_pref":"ﾔﾏﾅｼｹﾝ","kana_city":"ﾐﾅﾐﾂﾙｸﾞﾝﾄﾞｳｼﾑﾗ","kana_address":"ﾂｷﾖﾉ","pref":"山梨県","city":"南都留郡道志村","address":"月夜野"},
{"zip_code":"4020205","kana_pref":"ﾔﾏﾅｼｹﾝ","kana_city":"ﾐﾅﾐﾂﾙｸﾞﾝﾄﾞｳｼﾑﾗ","kana_address":"ﾂﾊﾞｷ","pref":"山梨県","city":"南都留郡道志村","address":"椿"},
{"zip_code":"4020218","kana_pref":"ﾔﾏﾅｼｹﾝ","kana_city":"ﾐﾅﾐﾂﾙｸﾞﾝﾄﾞｳｼﾑﾗ","kana_address":"ﾅｶｶﾝｼﾞ","pref":"山梨県","city":"南都留郡道志村","address":"中神地"},
{"zip_code":"4020228","kana_pref":"ﾔﾏﾅｼｹﾝ","kana_city":"ﾐﾅﾐﾂﾙｸﾞﾝﾄﾞｳｼﾑﾗ","kana_address":"ﾅｶﾞﾏﾀ","pref":"山梨県","city":"南都留郡道志村","address":"長又"},
{"zip_code":"4020212","kana_pref":"ﾔﾏﾅｼｹﾝ","kana_city":"ﾐﾅﾐﾂﾙｸﾞﾝﾄﾞｳｼﾑﾗ","kana_address":"ﾆｼﾜﾃﾞﾑﾗ","pref":"山梨県","city":"南都留郡道志村","address":"西和出村"},
{"zip_code":"4020208","kana_pref":"ﾔﾏﾅｼｹﾝ","kana_city":"ﾐﾅﾐﾂﾙｸﾞﾝﾄﾞｳｼﾑﾗ","kana_address":"ﾊﾞﾝﾊﾞ","pref":"山梨県","city":"南都留郡道志村","address":"馬場"},
{"zip_code":"4020217","kana_pref":"ﾔﾏﾅｼｹﾝ","kana_city":"ﾐﾅﾐﾂﾙｸﾞﾝﾄﾞｳｼﾑﾗ","kana_address":"ﾋｶﾞｼｶﾝｼﾞ","pref":"山梨県","city":"南都留郡道志村","address":"東神地"},
{"zip_code":"4020211","kana_pref":"ﾔﾏﾅｼｹﾝ","kana_city":"ﾐﾅﾐﾂﾙｸﾞﾝﾄﾞｳｼﾑﾗ","kana_address":"ﾋｶﾞｼﾜﾃﾞﾑﾗ","pref":"山梨県","city":"南都留郡道志村","address":"東和出村"},
{"zip_code":"4020213","kana_pref":"ﾔﾏﾅｼｹﾝ","kana_city":"ﾐﾅﾐﾂﾙｸﾞﾝﾄﾞｳｼﾑﾗ","kana_address":"ﾔｿｳ","pref":"山梨県","city":"南都留郡道志村","address":"谷相"}]}