{"zip_code":[
{"zip_code":"4030000","kana_pref":"ﾔﾏﾅｼｹﾝ","kana_city":"ﾌｼﾞﾖｼﾀﾞｼ","kana_address":"","pref":"山梨県","city":"富士吉田市","address":""},
{"zip_code":"4030012","kana_pref":"ﾔﾏﾅｼｹﾝ","kana_city":"ﾌｼﾞﾖｼﾀﾞｼ","kana_address":"ｱｻﾋ","pref":"山梨県","city":"富士吉田市","address":"旭"},
{"zip_code":"4030011","kana_pref":"ﾔﾏﾅｼｹﾝ","kana_city":"ﾌｼﾞﾖｼﾀﾞｼ","kana_address":"ｱﾗｸﾗ","pref":"山梨県","city":"富士吉田市","address":"新倉"},
{"zip_code":"4030006","kana_pref":"ﾔﾏﾅｼｹﾝ","kana_city":"ﾌｼﾞﾖｼﾀﾞｼ","kana_address":"ｱﾗﾔ","pref":"山梨県","city":"富士吉田市","address":"新屋"},
{"zip_code":"4030003","kana_pref":"ﾔﾏﾅｼｹﾝ","kana_city":"ﾌｼﾞﾖｼﾀﾞｼ","kana_address":"ｵｵｱｽﾐ","pref":"山梨県","city":"富士吉田市","address":"大明見"},
{"zip_code":"4030001","kana_pref":"ﾔﾏﾅｼｹﾝ","kana_city":"ﾌｼﾞﾖｼﾀﾞｼ","kana_address":"ｶﾐｸﾚﾁ","pref":"山梨県","city":"富士吉田市","address":"上暮地"},
{"zip_code":"4030005","kana_pref":"ﾔﾏﾅｼｹﾝ","kana_city":"ﾌｼﾞﾖｼﾀﾞｼ","kana_address":"ｶﾐﾖｼﾀﾞ","pref":"山梨県","city":"富士吉田市","address":"上吉田"},
{"zip_code":"4030002","kana_pref":"ﾔﾏﾅｼｹﾝ","kana_city":"ﾌｼﾞﾖｼﾀﾞｼ","kana_address":"ｺｱｽﾐ","pref":"山梨県","city":"富士吉田市","address":"小明見"},
{"zip_code":"4030004","kana_pref":"ﾔﾏﾅｼｹﾝ","kana_city":"ﾌｼﾞﾖｼﾀﾞｼ","kana_address":"ｼﾓﾖｼﾀﾞ","pref":"山梨県","city":"富士吉田市","address":"下吉田"},
{"zip_code":"4030017","kana_pref":"ﾔﾏﾅｼｹﾝ","kana_city":"ﾌｼﾞﾖｼﾀﾞｼ","kana_address":"ｼﾝﾆｼﾊﾗ","pref":"山梨県","city":"富士吉田市","address":"新西原"},
{"zip_code":"4030014","kana_pref":"ﾔﾏﾅｼｹﾝ","kana_city":"ﾌｼﾞﾖｼﾀﾞｼ","kana_address":"ﾀﾂｶﾞｵｶ","pref":"山梨県","city":"富士吉田市","address":"竜ケ丘"},
{"zip_code":"4030015","kana_pref":"ﾔﾏﾅｼｹﾝ","kana_city":"ﾌｼﾞﾖｼﾀﾞｼ","kana_address":"ﾄｷﾜﾀﾞｲ","pref":"山梨県","city":"富士吉田市","address":"ときわ台"},
{"zip_code":"4030007","kana_pref":"ﾔﾏﾅｼｹﾝ","kana_city":"ﾌｼﾞﾖｼﾀﾞｼ","kana_address":"ﾅｶｿﾞﾈ","pref":"山梨県","city":"富士吉田市","address":"中曽根"},
{"zip_code":"4030016","kana_pref":"ﾔﾏﾅｼｹﾝ","kana_city":"ﾌｼﾞﾖｼﾀﾞｼ","kana_address":"ﾏﾂﾔﾏ","pref":"山梨県","city":"富士吉田市","address":"松山"},
{"zip_code":"4030013","kana_pref":"ﾔﾏﾅｼｹﾝ","kana_city":"ﾌｼﾞﾖｼﾀﾞｼ","kana_address":"ﾐﾄﾞﾘｶﾞｵｶ","pref":"山梨県","city":"富士吉田市","address":"緑ケ丘"},
{"zip_code":"4030000","kana_pref":"ﾔﾏﾅｼｹﾝ","kana_city":"ﾐﾅﾐﾂﾙｸﾞﾝﾆｼｶﾂﾗﾁｮｳ","kana_address":"","pref":"山梨県","city":"南都留郡西桂町","address":""},
{"zip_code":"4030022","kana_pref":"ﾔﾏﾅｼｹﾝ","kana_city":"ﾐﾅﾐﾂﾙｸﾞﾝﾆｼｶﾂﾗﾁｮｳ","kana_address":"ｵﾇﾏ","pref":"山梨県","city":"南都留郡西桂町","address":"小沼"},
{"zip_code":"4030023","kana_pref":"ﾔﾏﾅｼｹﾝ","kana_city":"ﾐﾅﾐﾂﾙｸﾞﾝﾆｼｶﾂﾗﾁｮｳ","kana_address":"ｸﾗﾐ","pref":"山梨県","city":"南都留郡西桂町","address":"倉見"},
{"zip_code":"4030021","kana_pref":"ﾔﾏﾅｼｹﾝ","kana_city":"ﾐﾅﾐﾂﾙｸﾞﾝﾆｼｶﾂﾗﾁｮｳ","kana_address":"ｼﾓｸﾚﾁ","pref":"山梨県","city":"南都留郡西桂町","address":"下暮地"}]}