{"zip_code":[
{"zip_code":"4050000","kana_pref":"ﾔﾏﾅｼｹﾝ","kana_city":"ﾔﾏﾅｼｼ","kana_address":"","pref":"山梨県","city":"山梨市","address":""},
{"zip_code":"4050044","kana_pref":"ﾔﾏﾅｼｹﾝ","kana_city":"ﾔﾏﾅｼｼ","kana_address":"ｲﾁｶﾞﾜ","pref":"山梨県","city":"山梨市","address":"市川"},
{"zip_code":"4050025","kana_pref":"ﾔﾏﾅｼｹﾝ","kana_city":"ﾔﾏﾅｼｼ","kana_address":"ｲｯﾁｮｳﾀﾅｶ","pref":"山梨県","city":"山梨市","address":"一町田中"},
{"zip_code":"4050024","kana_pref":"ﾔﾏﾅｼｹﾝ","kana_city":"ﾔﾏﾅｼｼ","kana_address":"ｳﾀﾀﾞ","pref":"山梨県","city":"山梨市","address":"歌田"},
{"zip_code":"4050043","kana_pref":"ﾔﾏﾅｼｹﾝ","kana_city":"ﾔﾏﾅｼｼ","kana_address":"ｴｿﾞﾊﾗ","pref":"山梨県","city":"山梨市","address":"江曽原"},
{"zip_code":"4050016","kana_pref":"ﾔﾏﾅｼｹﾝ","kana_city":"ﾔﾏﾅｼｼ","kana_address":"ｵｵﾉ","pref":"山梨県","city":"山梨市","address":"大野"},
{"zip_code":"4050033","kana_pref":"ﾔﾏﾅｼｹﾝ","kana_city":"ﾔﾏﾅｼｼ","kana_address":"ｵﾁｱｲ","pref":"山梨県","city":"山梨市","address":"落合"},
{"zip_code":"4050014","kana_pref":"ﾔﾏﾅｼｹﾝ","kana_city":"ﾔﾏﾅｼｼ","kana_address":"ｶﾐｲｼﾓﾘ","pref":"山梨県","city":"山梨市","address":"上石森"},
{"zip_code":"4050034","kana_pref":"ﾔﾏﾅｼｹﾝ","kana_city":"ﾔﾏﾅｼｼ","kana_address":"ｶﾐｲﾜｼﾀ","pref":"山梨県","city":"山梨市","address":"上岩下"},
{"zip_code":"4050018","kana_pref":"ﾔﾏﾅｼｹﾝ","kana_city":"ﾔﾏﾅｼｼ","kana_address":"ｶﾐｶﾉｶﾞﾜ","pref":"山梨県","city":"山梨市","address":"上神内川"},
{"zip_code":"4050022","kana_pref":"ﾔﾏﾅｼｹﾝ","kana_city":"ﾔﾏﾅｼｼ","kana_address":"ｶﾐｸﾘﾊﾞﾗ","pref":"山梨県","city":"山梨市","address":"上栗原"},
{"zip_code":"4050004","kana_pref":"ﾔﾏﾅｼｹﾝ","kana_city":"ﾔﾏﾅｼｼ","kana_address":"ｶﾐﾉﾜﾘ","pref":"山梨県","city":"山梨市","address":"上之割"},
{"zip_code":"4050013","kana_pref":"ﾔﾏﾅｼｹﾝ","kana_city":"ﾔﾏﾅｼｼ","kana_address":"ｶﾓｲﾃﾞﾗ","pref":"山梨県","city":"山梨市","address":"鴨居寺"},
{"zip_code":"4050041","kana_pref":"ﾔﾏﾅｼｹﾝ","kana_city":"ﾔﾏﾅｼｼ","kana_address":"ｷﾀ","pref":"山梨県","city":"山梨市","address":"北"},
{"zip_code":"4050048","kana_pref":"ﾔﾏﾅｼｹﾝ","kana_city":"ﾔﾏﾅｼｼ","kana_address":"ｷｯｻﾂ","pref":"山梨県","city":"山梨市","address":"切差"},
{"zip_code":"4050005","kana_pref":"ﾔﾏﾅｼｹﾝ","kana_city":"ﾔﾏﾅｼｼ","kana_address":"ｺﾊﾞﾗﾋｶﾞｼ","pref":"山梨県","city":"山梨市","address":"小原東"},
{"zip_code":"4050006","kana_pref":"ﾔﾏﾅｼｹﾝ","kana_city":"ﾔﾏﾅｼｼ","kana_address":"ｺﾊﾞﾗﾆｼ","pref":"山梨県","city":"山梨市","address":"小原西"},
{"zip_code":"4050011","kana_pref":"ﾔﾏﾅｼｹﾝ","kana_city":"ﾔﾏﾅｼｼ","kana_address":"ｻﾝｶﾞｼｮ","pref":"山梨県","city":"山梨市","address":"三ケ所"},
{"zip_code":"4050015","kana_pref":"ﾔﾏﾅｼｹﾝ","kana_city":"ﾔﾏﾅｼｼ","kana_address":"ｼﾓｲｼﾓﾘ","pref":"山梨県","city":"山梨市","address":"下石森"},
{"zip_code":"4050003","kana_pref":"ﾔﾏﾅｼｹﾝ","kana_city":"ﾔﾏﾅｼｼ","kana_address":"ｼﾓｲｼﾞﾘ","pref":"山梨県","city":"山梨市","address":"下井尻"},
{"zip_code":"4050017","kana_pref":"ﾔﾏﾅｼｹﾝ","kana_city":"ﾔﾏﾅｼｼ","kana_address":"ｼﾓｶﾉｶﾞﾜ","pref":"山梨県","city":"山梨市","address":"下神内川"},
{"zip_code":"4050023","kana_pref":"ﾔﾏﾅｼｹﾝ","kana_city":"ﾔﾏﾅｼｼ","kana_address":"ｼﾓｸﾘﾊﾞﾗ","pref":"山梨県","city":"山梨市","address":"下栗原"},
{"zip_code":"4050032","kana_pref":"ﾔﾏﾅｼｹﾝ","kana_city":"ﾔﾏﾅｼｼ","kana_address":"ｼｮｳﾄｸｼﾞ","pref":"山梨県","city":"山梨市","address":"正徳寺"},
{"zip_code":"4050045","kana_pref":"ﾔﾏﾅｼｹﾝ","kana_city":"ﾔﾏﾅｼｼ","kana_address":"ﾀﾞｲｸ","pref":"山梨県","city":"山梨市","address":"大工"},
{"zip_code":"4050021","kana_pref":"ﾔﾏﾅｼｹﾝ","kana_city":"ﾔﾏﾅｼｼ","kana_address":"ﾅｶﾑﾗ","pref":"山梨県","city":"山梨市","address":"中村"},
{"zip_code":"4050007","kana_pref":"ﾔﾏﾅｼｹﾝ","kana_city":"ﾔﾏﾅｼｼ","kana_address":"ﾅﾉｶｲﾁﾊﾞ","pref":"山梨県","city":"山梨市","address":"七日市場"},
{"zip_code":"4050001","kana_pref":"ﾔﾏﾅｼｹﾝ","kana_city":"ﾔﾏﾅｼｼ","kana_address":"ﾆｼ","pref":"山梨県","city":"山梨市","address":"西"},
{"zip_code":"4050002","kana_pref":"ﾔﾏﾅｼｹﾝ","kana_city":"ﾔﾏﾅｼｼ","kana_address":"ﾋｶﾞｼ","pref":"山梨県","city":"山梨市","address":"東"},
{"zip_code":"4050012","kana_pref":"ﾔﾏﾅｼｹﾝ","kana_city":"ﾔﾏﾅｼｼ","kana_address":"ﾋｶﾞｼｺﾞﾔｼｷ","pref":"山梨県","city":"山梨市","address":"東後屋敷"},
{"zip_code":"4050046","kana_pref":"ﾔﾏﾅｼｹﾝ","kana_city":"ﾔﾏﾅｼｼ","kana_address":"ﾎﾘﾉｳﾁ","pref":"山梨県","city":"山梨市","address":"堀内"},
{"zip_code":"4050031","kana_pref":"ﾔﾏﾅｼｹﾝ","kana_city":"ﾔﾏﾅｼｼ","kana_address":"ﾏﾝﾘｷ","pref":"山梨県","city":"山梨市","address":"万力"},
{"zip_code":"4050047","kana_pref":"ﾔﾏﾅｼｹﾝ","kana_city":"ﾔﾏﾅｼｼ","kana_address":"ﾐｽﾞｸﾁ","pref":"山梨県","city":"山梨市","address":"水口"},
{"zip_code":"4050042","kana_pref":"ﾔﾏﾅｼｹﾝ","kana_city":"ﾔﾏﾅｼｼ","kana_address":"ﾐﾅﾐ","pref":"山梨県","city":"山梨市","address":"南"},
{"zip_code":"4050036","kana_pref":"ﾔﾏﾅｼｹﾝ","kana_city":"ﾔﾏﾅｼｼ","kana_address":"ﾔﾂﾎﾞ","pref":"山梨県","city":"山梨市","address":"矢坪"},
{"zip_code":"4050035","kana_pref":"ﾔﾏﾅｼｹﾝ","kana_city":"ﾔﾏﾅｼｼ","kana_address":"ﾔﾏﾈ","pref":"山梨県","city":"山梨市","address":"山根"},
{"zip_code":"4050065","kana_pref":"ﾔﾏﾅｼｹﾝ","kana_city":"ﾌｴﾌｷｼ","kana_address":"ｲﾁﾉﾐﾔﾁｮｳｱﾗﾏｷ","pref":"山梨県","city":"笛吹市","address":"一宮町新巻"},
{"zip_code":"4050061","kana_pref":"ﾔﾏﾅｼｹﾝ","kana_city":"ﾌｴﾌｷｼ","kana_address":"ｲﾁﾉﾐﾔﾁｮｳｲｼ","pref":"山梨県","city":"笛吹市","address":"一宮町石"},
{"zip_code":"4050063","kana_pref":"ﾔﾏﾅｼｹﾝ","kana_city":"ﾌｴﾌｷｼ","kana_address":"ｲﾁﾉﾐﾔﾁｮｳｲﾁﾉｸﾗ","pref":"山梨県","city":"笛吹市","address":"一宮町市之蔵"},
{"zip_code":"4050056","kana_pref":"ﾔﾏﾅｼｹﾝ","kana_city":"ﾌｴﾌｷｼ","kana_address":"ｲﾁﾉﾐﾔﾁｮｳｲﾁﾉﾐﾔ","pref":"山梨県","city":"笛吹市","address":"一宮町一ノ宮"},
{"zip_code":"4050062","kana_pref":"ﾔﾏﾅｼｹﾝ","kana_city":"ﾌｴﾌｷｼ","kana_address":"ｲﾁﾉﾐﾔﾁｮｳｶﾅｻﾞﾜ","pref":"山梨県","city":"笛吹市","address":"一宮町金沢"},
{"zip_code":"4050079","kana_pref":"ﾔﾏﾅｼｹﾝ","kana_city":"ﾌｴﾌｷｼ","kana_address":"ｲﾁﾉﾐﾔﾁｮｳｶﾈﾀ","pref":"山梨県","city":"笛吹市","address":"一宮町金田"},
{"zip_code":"4050059","kana_pref":"ﾔﾏﾅｼｹﾝ","kana_city":"ﾌｴﾌｷｼ","kana_address":"ｲﾁﾉﾐﾔﾁｮｳｶﾐﾔﾊｷﾞ","pref":"山梨県","city":"笛吹市","address":"一宮町上矢作"},
{"zip_code":"4050066","kana_pref":"ﾔﾏﾅｼｹﾝ","kana_city":"ﾌｴﾌｷｼ","kana_address":"ｲﾁﾉﾐﾔﾁｮｳｶﾝｻﾞﾜ","pref":"山梨県","city":"笛吹市","address":"一宮町神沢"},
{"zip_code":"4050051","kana_pref":"ﾔﾏﾅｼｹﾝ","kana_city":"ﾌｴﾌｷｼ","kana_address":"ｲﾁﾉﾐﾔﾁｮｳｷﾀﾉﾛ","pref":"山梨県","city":"笛吹市","address":"一宮町北野呂"},
{"zip_code":"4050071","kana_pref":"ﾔﾏﾅｼｹﾝ","kana_city":"ﾌｴﾌｷｼ","kana_address":"ｲﾁﾉﾐﾔﾁｮｳｷﾀﾐﾔｺﾂﾞｶ","pref":"山梨県","city":"笛吹市","address":"一宮町北都塚"},
{"zip_code":"4050068","kana_pref":"ﾔﾏﾅｼｹﾝ","kana_city":"ﾌｴﾌｷｼ","kana_address":"ｲﾁﾉﾐﾔﾁｮｳｷﾂﾈｱﾗｲ","pref":"山梨県","city":"笛吹市","address":"一宮町狐新居"},
{"zip_code":"4050074","kana_pref":"ﾔﾏﾅｼｹﾝ","kana_city":"ﾌｴﾌｷｼ","kana_address":"ｲﾁﾉﾐﾔﾁｮｳｺｸﾌﾞ","pref":"山梨県","city":"笛吹市","address":"一宮町国分"},
{"zip_code":"4050058","kana_pref":"ﾔﾏﾅｼｹﾝ","kana_city":"ﾌｴﾌｷｼ","kana_address":"ｲﾁﾉﾐﾔﾁｮｳｺｼﾞｮｳ","pref":"山梨県","city":"笛吹市","address":"一宮町小城"},
{"zip_code":"4050064","kana_pref":"ﾔﾏﾅｼｹﾝ","kana_city":"ﾌｴﾌｷｼ","kana_address":"ｲﾁﾉﾐﾔﾁｮｳｼｵﾀﾞ","pref":"山梨県","city":"笛吹市","address":"一宮町塩田"},
{"zip_code":"4050055","kana_pref":"ﾔﾏﾅｼｹﾝ","kana_city":"ﾌｴﾌｷｼ","kana_address":"ｲﾁﾉﾐﾔﾁｮｳｼﾞｿﾞｳﾄﾞｳ","pref":"山梨県","city":"笛吹市","address":"一宮町地蔵堂"},
{"zip_code":"4050057","kana_pref":"ﾔﾏﾅｼｹﾝ","kana_city":"ﾌｴﾌｷｼ","kana_address":"ｲﾁﾉﾐﾔﾁｮｳｼﾓﾔﾊｷﾞ","pref":"山梨県","city":"笛吹市","address":"一宮町下矢作"},
{"zip_code":"4050073","kana_pref":"ﾔﾏﾅｼｹﾝ","kana_city":"ﾌｴﾌｷｼ","kana_address":"ｲﾁﾉﾐﾔﾁｮｳｽｴｷ","pref":"山梨県","city":"笛吹市","address":"一宮町末木"},
{"zip_code":"4050054","kana_pref":"ﾔﾏﾅｼｹﾝ","kana_city":"ﾌｴﾌｷｼ","kana_address":"ｲﾁﾉﾐﾔﾁｮｳｾﾝﾍﾞｲｼﾞ","pref":"山梨県","city":"笛吹市","address":"一宮町千米寺"},
{"zip_code":"4050076","kana_pref":"ﾔﾏﾅｼｹﾝ","kana_city":"ﾌｴﾌｷｼ","kana_address":"ｲﾁﾉﾐﾔﾁｮｳﾀｹﾊﾗﾀﾞ","pref":"山梨県","city":"笛吹市","address":"一宮町竹原田"},
{"zip_code":"4050078","kana_pref":"ﾔﾏﾅｼｹﾝ","kana_city":"ﾌｴﾌｷｼ","kana_address":"ｲﾁﾉﾐﾔﾁｮｳﾀﾅｶ","pref":"山梨県","city":"笛吹市","address":"一宮町田中"},
{"zip_code":"4050067","kana_pref":"ﾔﾏﾅｼｹﾝ","kana_city":"ﾌｴﾌｷｼ","kana_address":"ｲﾁﾉﾐﾔﾁｮｳﾂﾁﾂﾞｶ","pref":"山梨県","city":"笛吹市","address":"一宮町土塚"},
{"zip_code":"4050077","kana_pref":"ﾔﾏﾅｼｹﾝ","kana_city":"ﾌｴﾌｷｼ","kana_address":"ｲﾁﾉﾐﾔﾁｮｳﾂﾎﾞｲ","pref":"山梨県","city":"笛吹市","address":"一宮町坪井"},
{"zip_code":"4050053","kana_pref":"ﾔﾏﾅｼｹﾝ","kana_city":"ﾌｴﾌｷｼ","kana_address":"ｲﾁﾉﾐﾔﾁｮｳﾅｶｵ","pref":"山梨県","city":"笛吹市","address":"一宮町中尾"},
{"zip_code":"4050075","kana_pref":"ﾔﾏﾅｼｹﾝ","kana_city":"ﾌｴﾌｷｼ","kana_address":"ｲﾁﾉﾐﾔﾁｮｳﾊｼﾀﾃ","pref":"山梨県","city":"笛吹市","address":"一宮町橋立"},
{"zip_code":"4050069","kana_pref":"ﾔﾏﾅｼｹﾝ","kana_city":"ﾌｴﾌｷｼ","kana_address":"ｲﾁﾉﾐﾔﾁｮｳﾋｶﾞｼｱﾗｲ","pref":"山梨県","city":"笛吹市","address":"一宮町東新居"},
{"zip_code":"4050075","kana_pref":"ﾔﾏﾅｼｹﾝ","kana_city":"ﾌｴﾌｷｼ","kana_address":"ｲﾁﾉﾐﾔﾁｮｳﾋｶﾞｼﾊﾞﾗ","pref":"山梨県","city":"笛吹市","address":"一宮町東原"},
{"zip_code":"4050052","kana_pref":"ﾔﾏﾅｼｹﾝ","kana_city":"ﾌｴﾌｷｼ","kana_address":"ｲﾁﾉﾐﾔﾁｮｳﾐﾅﾐﾉﾛ","pref":"山梨県","city":"笛吹市","address":"一宮町南野呂"},
{"zip_code":"4050072","kana_pref":"ﾔﾏﾅｼｹﾝ","kana_city":"ﾌｴﾌｷｼ","kana_address":"ｲﾁﾉﾐﾔﾁｮｳﾓﾄﾐﾔｺﾂﾞｶ","pref":"山梨県","city":"笛吹市","address":"一宮町本都塚"}]}