{"zip_code":[
{"zip_code":"4060000","kana_pref":"ﾔﾏﾅｼｹﾝ","kana_city":"ﾌｴﾌｷｼ","kana_address":"","pref":"山梨県","city":"笛吹市","address":""},
{"zip_code":"4060031","kana_pref":"ﾔﾏﾅｼｹﾝ","kana_city":"ﾌｴﾌｷｼ","kana_address":"ｲｻﾜﾁｮｳｲﾁﾍﾞ","pref":"山梨県","city":"笛吹市","address":"石和町市部"},
{"zip_code":"4060045","kana_pref":"ﾔﾏﾅｼｹﾝ","kana_city":"ﾌｴﾌｷｼ","kana_address":"ｲｻﾜﾁｮｳｲﾄﾞ","pref":"山梨県","city":"笛吹市","address":"石和町井戸"},
{"zip_code":"4060042","kana_pref":"ﾔﾏﾅｼｹﾝ","kana_city":"ﾌｴﾌｷｼ","kana_address":"ｲｻﾜﾁｮｳｲﾏｲ","pref":"山梨県","city":"笛吹市","address":"石和町今井"},
{"zip_code":"4060025","kana_pref":"ﾔﾏﾅｼｹﾝ","kana_city":"ﾌｴﾌｷｼ","kana_address":"ｲｻﾜﾁｮｳｶﾐﾋﾗｲ","pref":"山梨県","city":"笛吹市","address":"石和町上平井"},
{"zip_code":"4060034","kana_pref":"ﾔﾏﾅｼｹﾝ","kana_city":"ﾌｴﾌｷｼ","kana_address":"ｲｻﾜﾁｮｳｶﾗｶｼﾜ","pref":"山梨県","city":"笛吹市","address":"石和町唐柏"},
{"zip_code":"4060024","kana_pref":"ﾔﾏﾅｼｹﾝ","kana_city":"ﾌｴﾌｷｼ","kana_address":"ｲｻﾜﾁｮｳｶﾜﾅｶｼﾞﾏ","pref":"山梨県","city":"笛吹市","address":"石和町川中島"},
{"zip_code":"4060036","kana_pref":"ﾔﾏﾅｼｹﾝ","kana_city":"ﾌｴﾌｷｼ","kana_address":"ｲｻﾜﾁｮｳｸﾎﾞﾅｶｼﾞﾏ","pref":"山梨県","city":"笛吹市","address":"石和町窪中島"},
{"zip_code":"4060033","kana_pref":"ﾔﾏﾅｼｹﾝ","kana_city":"ﾌｴﾌｷｼ","kana_address":"ｲｻﾜﾁｮｳｺｲｻﾜ","pref":"山梨県","city":"笛吹市","address":"石和町小石和"},
{"zip_code":"4060043","kana_pref":"ﾔﾏﾅｼｹﾝ","kana_city":"ﾌｴﾌｷｼ","kana_address":"ｲｻﾜﾁｮｳｺｳﾁ","pref":"山梨県","city":"笛吹市","address":"石和町河内"},
{"zip_code":"4060027","kana_pref":"ﾔﾏﾅｼｹﾝ","kana_city":"ﾌｴﾌｷｼ","kana_address":"ｲｻﾜﾁｮｳｼﾓﾋﾗｲ","pref":"山梨県","city":"笛吹市","address":"石和町下平井"},
{"zip_code":"4060044","kana_pref":"ﾔﾏﾅｼｹﾝ","kana_city":"ﾌｴﾌｷｼ","kana_address":"ｲｻﾜﾁｮｳｽﾅﾊﾗ","pref":"山梨県","city":"笛吹市","address":"石和町砂原"},
{"zip_code":"4060026","kana_pref":"ﾔﾏﾅｼｹﾝ","kana_city":"ﾌｴﾌｷｼ","kana_address":"ｲｻﾜﾁｮｳﾅｶｶﾞﾜ","pref":"山梨県","city":"笛吹市","address":"石和町中川"},
{"zip_code":"4060023","kana_pref":"ﾔﾏﾅｼｹﾝ","kana_city":"ﾌｴﾌｷｼ","kana_address":"ｲｻﾜﾁｮｳﾊﾂﾀ","pref":"山梨県","city":"笛吹市","address":"石和町八田"},
{"zip_code":"4060046","kana_pref":"ﾔﾏﾅｼｹﾝ","kana_city":"ﾌｴﾌｷｼ","kana_address":"ｲｻﾜﾁｮｳﾋｶﾞｼｱﾌﾞﾗｶﾜ","pref":"山梨県","city":"笛吹市","address":"石和町東油川"},
{"zip_code":"4060041","kana_pref":"ﾔﾏﾅｼｹﾝ","kana_city":"ﾌｴﾌｷｼ","kana_address":"ｲｻﾜﾁｮｳﾋｶﾞｼﾀｶﾊｼ","pref":"山梨県","city":"笛吹市","address":"石和町東高橋"},
{"zip_code":"4060035","kana_pref":"ﾔﾏﾅｼｹﾝ","kana_city":"ﾌｴﾌｷｼ","kana_address":"ｲｻﾜﾁｮｳﾋﾛｾ","pref":"山梨県","city":"笛吹市","address":"石和町広瀬"},
{"zip_code":"4060021","kana_pref":"ﾔﾏﾅｼｹﾝ","kana_city":"ﾌｴﾌｷｼ","kana_address":"ｲｻﾜﾁｮｳﾏﾂﾓﾄ","pref":"山梨県","city":"笛吹市","address":"石和町松本"},
{"zip_code":"4060022","kana_pref":"ﾔﾏﾅｼｹﾝ","kana_city":"ﾌｴﾌｷｼ","kana_address":"ｲｻﾜﾁｮｳﾔﾏｻｷ","pref":"山梨県","city":"笛吹市","address":"石和町山崎"},
{"zip_code":"4060032","kana_pref":"ﾔﾏﾅｼｹﾝ","kana_city":"ﾌｴﾌｷｼ","kana_address":"ｲｻﾜﾁｮｳﾖｯｶｲﾁﾊﾞ","pref":"山梨県","city":"笛吹市","address":"石和町四日市場"},
{"zip_code":"4060005","kana_pref":"ﾔﾏﾅｼｹﾝ","kana_city":"ﾌｴﾌｷｼ","kana_address":"ｶｽｶﾞｲﾁｮｳｶﾓ","pref":"山梨県","city":"笛吹市","address":"春日居町加茂"},
{"zip_code":"4060012","kana_pref":"ﾔﾏﾅｼｹﾝ","kana_city":"ﾌｴﾌｷｼ","kana_address":"ｶｽｶﾞｲﾁｮｳｸﾏﾉﾄﾞｳ","pref":"山梨県","city":"笛吹市","address":"春日居町熊野堂"},
{"zip_code":"4060003","kana_pref":"ﾔﾏﾅｼｹﾝ","kana_city":"ﾌｴﾌｷｼ","kana_address":"ｶｽｶﾞｲﾁｮｳｸﾜﾄﾞ","pref":"山梨県","city":"笛吹市","address":"春日居町桑戸"},
{"zip_code":"4060014","kana_pref":"ﾔﾏﾅｼｹﾝ","kana_city":"ﾌｴﾌｷｼ","kana_address":"ｶｽｶﾞｲﾁｮｳｺｸﾌ","pref":"山梨県","city":"笛吹市","address":"春日居町国府"},
{"zip_code":"4060004","kana_pref":"ﾔﾏﾅｼｹﾝ","kana_city":"ﾌｴﾌｷｼ","kana_address":"ｶｽｶﾞｲﾁｮｳｺﾏﾂ","pref":"山梨県","city":"笛吹市","address":"春日居町小松"},
{"zip_code":"4060015","kana_pref":"ﾔﾏﾅｼｹﾝ","kana_city":"ﾌｴﾌｷｼ","kana_address":"ｶｽｶﾞｲﾁｮｳｼｽﾞﾒ","pref":"山梨県","city":"笛吹市","address":"春日居町鎮目"},
{"zip_code":"4060001","kana_pref":"ﾔﾏﾅｼｹﾝ","kana_city":"ﾌｴﾌｷｼ","kana_address":"ｶｽｶﾞｲﾁｮｳｼﾓｲﾜｼﾀ","pref":"山梨県","city":"笛吹市","address":"春日居町下岩下"},
{"zip_code":"4060013","kana_pref":"ﾔﾏﾅｼｹﾝ","kana_city":"ﾌｴﾌｷｼ","kana_address":"ｶｽｶﾞｲﾁｮｳﾃﾗﾓﾄ","pref":"山梨県","city":"笛吹市","address":"春日居町寺本"},
{"zip_code":"4060011","kana_pref":"ﾔﾏﾅｼｹﾝ","kana_city":"ﾌｴﾌｷｼ","kana_address":"ｶｽｶﾞｲﾁｮｳﾄｸｼﾞｮｳ","pref":"山梨県","city":"笛吹市","address":"春日居町徳条"},
{"zip_code":"4060002","kana_pref":"ﾔﾏﾅｼｹﾝ","kana_city":"ﾌｴﾌｷｼ","kana_address":"ｶｽｶﾞｲﾁｮｳﾍﾞﾂﾃﾞﾝ","pref":"山梨県","city":"笛吹市","address":"春日居町別田"},
{"zip_code":"4060842","kana_pref":"ﾔﾏﾅｼｹﾝ","kana_city":"ﾌｴﾌｷｼ","kana_address":"ｻｶｲｶﾞﾜﾁｮｳｲｼﾊﾞｼ","pref":"山梨県","city":"笛吹市","address":"境川町石橋"},
{"zip_code":"4060855","kana_pref":"ﾔﾏﾅｼｹﾝ","kana_city":"ﾌｴﾌｷｼ","kana_address":"ｻｶｲｶﾞﾜﾁｮｳｵｵｸﾎﾞ","pref":"山梨県","city":"笛吹市","address":"境川町大窪"},
{"zip_code":"4060852","kana_pref":"ﾔﾏﾅｼｹﾝ","kana_city":"ﾌｴﾌｷｼ","kana_address":"ｻｶｲｶﾞﾜﾁｮｳｵｵｸﾞﾛｻｶ","pref":"山梨県","city":"笛吹市","address":"境川町大黒坂"},
{"zip_code":"4060841","kana_pref":"ﾔﾏﾅｼｹﾝ","kana_city":"ﾌｴﾌｷｼ","kana_address":"ｻｶｲｶﾞﾜﾁｮｳｵｵﾂﾎﾞ","pref":"山梨県","city":"笛吹市","address":"境川町大坪"},
{"zip_code":"4060851","kana_pref":"ﾔﾏﾅｼｹﾝ","kana_city":"ﾌｴﾌｷｼ","kana_address":"ｻｶｲｶﾞﾜﾁｮｳｺｸﾞﾛｻｶ","pref":"山梨県","city":"笛吹市","address":"境川町小黒坂"},
{"zip_code":"4060844","kana_pref":"ﾔﾏﾅｼｹﾝ","kana_city":"ﾌｴﾌｷｼ","kana_address":"ｻｶｲｶﾞﾜﾁｮｳｺﾔﾏ","pref":"山梨県","city":"笛吹市","address":"境川町小山"},
{"zip_code":"4060854","kana_pref":"ﾔﾏﾅｼｹﾝ","kana_city":"ﾌｴﾌｷｼ","kana_address":"ｻｶｲｶﾞﾜﾁｮｳﾃﾗｵ","pref":"山梨県","city":"笛吹市","address":"境川町寺尾"},
{"zip_code":"4060853","kana_pref":"ﾔﾏﾅｼｹﾝ","kana_city":"ﾌｴﾌｷｼ","kana_address":"ｻｶｲｶﾞﾜﾁｮｳﾌｼﾞﾇﾀ","pref":"山梨県","city":"笛吹市","address":"境川町藤垈"},
{"zip_code":"4060845","kana_pref":"ﾔﾏﾅｼｹﾝ","kana_city":"ﾌｴﾌｷｼ","kana_address":"ｻｶｲｶﾞﾜﾁｮｳﾎﾞｳｶﾞﾐﾈ","pref":"山梨県","city":"笛吹市","address":"境川町坊ケ峰"},
{"zip_code":"4060843","kana_pref":"ﾔﾏﾅｼｹﾝ","kana_city":"ﾌｴﾌｷｼ","kana_address":"ｻｶｲｶﾞﾜﾁｮｳﾏｴﾏﾀﾞ","pref":"山梨県","city":"笛吹市","address":"境川町前間田"},
{"zip_code":"4060846","kana_pref":"ﾔﾏﾅｼｹﾝ","kana_city":"ﾌｴﾌｷｼ","kana_address":"ｻｶｲｶﾞﾜﾁｮｳﾐﾂｸﾇｷﾞ","pref":"山梨県","city":"笛吹市","address":"境川町三椚"},
{"zip_code":"4060803","kana_pref":"ﾔﾏﾅｼｹﾝ","kana_city":"ﾌｴﾌｷｼ","kana_address":"ﾐｻｶﾁｮｳｲﾉｳｴ","pref":"山梨県","city":"笛吹市","address":"御坂町井之上"},
{"zip_code":"4060817","kana_pref":"ﾔﾏﾅｼｹﾝ","kana_city":"ﾌｴﾌｷｼ","kana_address":"ﾐｻｶﾁｮｳｵｵﾉｼﾞ","pref":"山梨県","city":"笛吹市","address":"御坂町大野寺"},
{"zip_code":"4060815","kana_pref":"ﾔﾏﾅｼｹﾝ","kana_city":"ﾌｴﾌｷｼ","kana_address":"ﾐｻｶﾁｮｳｵﾔﾏ","pref":"山梨県","city":"笛吹市","address":"御坂町尾山"},
{"zip_code":"4060802","kana_pref":"ﾔﾏﾅｼｹﾝ","kana_city":"ﾌｴﾌｷｼ","kana_address":"ﾐｻｶﾁｮｳｶﾈｶﾞﾜﾊﾞﾗ","pref":"山梨県","city":"笛吹市","address":"御坂町金川原"},
{"zip_code":"4060813","kana_pref":"ﾔﾏﾅｼｹﾝ","kana_city":"ﾌｴﾌｷｼ","kana_address":"ﾐｻｶﾁｮｳｶﾐｸﾛｺﾏ","pref":"山梨県","city":"笛吹市","address":"御坂町上黒駒"},
{"zip_code":"4060805","kana_pref":"ﾔﾏﾅｼｹﾝ","kana_city":"ﾌｴﾌｷｼ","kana_address":"ﾐｻｶﾁｮｳｸﾘｱｲ","pref":"山梨県","city":"笛吹市","address":"御坂町栗合"},
{"zip_code":"4060808","kana_pref":"ﾔﾏﾅｼｹﾝ","kana_city":"ﾌｴﾌｷｼ","kana_address":"ﾐｻｶﾁｮｳｺｸｶﾞ","pref":"山梨県","city":"笛吹市","address":"御坂町国衙"},
{"zip_code":"4060812","kana_pref":"ﾔﾏﾅｼｹﾝ","kana_city":"ﾌｴﾌｷｼ","kana_address":"ﾐｻｶﾁｮｳｼﾓｸﾛｺﾏ","pref":"山梨県","city":"笛吹市","address":"御坂町下黒駒"},
{"zip_code":"4060811","kana_pref":"ﾔﾏﾅｼｹﾝ","kana_city":"ﾌｴﾌｷｼ","kana_address":"ﾐｻｶﾁｮｳｼﾓﾉﾊﾗ","pref":"山梨県","city":"笛吹市","address":"御坂町下野原"},
{"zip_code":"4060818","kana_pref":"ﾔﾏﾅｼｹﾝ","kana_city":"ﾌｴﾌｷｼ","kana_address":"ﾐｻｶﾁｮｳｿﾊﾞﾂｶ","pref":"山梨県","city":"笛吹市","address":"御坂町蕎麦塚"},
{"zip_code":"4060816","kana_pref":"ﾔﾏﾅｼｹﾝ","kana_city":"ﾌｴﾌｷｼ","kana_address":"ﾐｻｶﾁｮｳﾀｹｲ","pref":"山梨県","city":"笛吹市","address":"御坂町竹居"},
{"zip_code":"4060814","kana_pref":"ﾔﾏﾅｼｹﾝ","kana_city":"ﾌｴﾌｷｼ","kana_address":"ﾐｻｶﾁｮｳﾄｳﾉｷ","pref":"山梨県","city":"笛吹市","address":"御坂町藤野木"},
{"zip_code":"4060804","kana_pref":"ﾔﾏﾅｼｹﾝ","kana_city":"ﾌｴﾌｷｼ","kana_address":"ﾐｻｶﾁｮｳﾅﾂﾒﾊﾗ","pref":"山梨県","city":"笛吹市","address":"御坂町夏目原"},
{"zip_code":"4060801","kana_pref":"ﾔﾏﾅｼｹﾝ","kana_city":"ﾌｴﾌｷｼ","kana_address":"ﾐｻｶﾁｮｳﾅﾘﾀ","pref":"山梨県","city":"笛吹市","address":"御坂町成田"},
{"zip_code":"4060807","kana_pref":"ﾔﾏﾅｼｹﾝ","kana_city":"ﾌｴﾌｷｼ","kana_address":"ﾐｻｶﾁｮｳﾆﾉﾐﾔ","pref":"山梨県","city":"笛吹市","address":"御坂町二之宮"},
{"zip_code":"4060806","kana_pref":"ﾔﾏﾅｼｹﾝ","kana_city":"ﾌｴﾌｷｼ","kana_address":"ﾐｻｶﾁｮｳﾔﾁｸﾗ","pref":"山梨県","city":"笛吹市","address":"御坂町八千蔵"},
{"zip_code":"4060825","kana_pref":"ﾔﾏﾅｼｹﾝ","kana_city":"ﾌｴﾌｷｼ","kana_address":"ﾔﾂｼﾛﾁｮｳｵｵﾏﾀﾞ","pref":"山梨県","city":"笛吹市","address":"八代町大間田"},
{"zip_code":"4060834","kana_pref":"ﾔﾏﾅｼｹﾝ","kana_city":"ﾌｴﾌｷｼ","kana_address":"ﾔﾂｼﾛﾁｮｳｵｶ","pref":"山梨県","city":"笛吹市","address":"八代町岡"},
{"zip_code":"4060821","kana_pref":"ﾔﾏﾅｼｹﾝ","kana_city":"ﾌｴﾌｷｼ","kana_address":"ﾔﾂｼﾛﾁｮｳｷﾀ","pref":"山梨県","city":"笛吹市","address":"八代町北"},
{"zip_code":"4060831","kana_pref":"ﾔﾏﾅｼｹﾝ","kana_city":"ﾌｴﾌｷｼ","kana_address":"ﾔﾂｼﾛﾁｮｳｺｳｶ","pref":"山梨県","city":"笛吹市","address":"八代町高家"},
{"zip_code":"4060832","kana_pref":"ﾔﾏﾅｼｹﾝ","kana_city":"ﾌｴﾌｷｼ","kana_address":"ﾔﾂｼﾛﾁｮｳﾀｹｲ","pref":"山梨県","city":"笛吹市","address":"八代町竹居"},
{"zip_code":"4060823","kana_pref":"ﾔﾏﾅｼｹﾝ","kana_city":"ﾌｴﾌｷｼ","kana_address":"ﾔﾂｼﾛﾁｮｳﾅｶﾞｲ","pref":"山梨県","city":"笛吹市","address":"八代町永井"},
{"zip_code":"4060833","kana_pref":"ﾔﾏﾅｼｹﾝ","kana_city":"ﾌｴﾌｷｼ","kana_address":"ﾔﾂｼﾛﾁｮｳﾅﾗﾊﾞﾗ","pref":"山梨県","city":"笛吹市","address":"八代町奈良原"},
{"zip_code":"4060824","kana_pref":"ﾔﾏﾅｼｹﾝ","kana_city":"ﾌｴﾌｷｼ","kana_address":"ﾔﾂｼﾛﾁｮｳﾏｻﾘ","pref":"山梨県","city":"笛吹市","address":"八代町増利"},
{"zip_code":"4060822","kana_pref":"ﾔﾏﾅｼｹﾝ","kana_city":"ﾌｴﾌｷｼ","kana_address":"ﾔﾂｼﾛﾁｮｳﾐﾅﾐ","pref":"山梨県","city":"笛吹市","address":"八代町南"},
{"zip_code":"4060835","kana_pref":"ﾔﾏﾅｼｹﾝ","kana_city":"ﾌｴﾌｷｼ","kana_address":"ﾔﾂｼﾛﾁｮｳﾖﾈｸﾗ","pref":"山梨県","city":"笛吹市","address":"八代町米倉"}]}