{"zip_code":[
{"zip_code":"4070000","kana_pref":"ﾔﾏﾅｼｹﾝ","kana_city":"ﾆﾗｻｷｼ","kana_address":"","pref":"山梨県","city":"韮崎市","address":""},
{"zip_code":"4070045","kana_pref":"ﾔﾏﾅｼｹﾝ","kana_city":"ﾆﾗｻｷｼ","kana_address":"ｱｻﾋﾏﾁｶﾐｼﾞｮｳﾅｶﾜﾘ","pref":"山梨県","city":"韮崎市","address":"旭町上條中割"},
{"zip_code":"4070046","kana_pref":"ﾔﾏﾅｼｹﾝ","kana_city":"ﾆﾗｻｷｼ","kana_address":"ｱｻﾋﾏﾁｶﾐｼﾞｮｳﾐﾅﾐﾜﾘ","pref":"山梨県","city":"韮崎市","address":"旭町上條南割"},
{"zip_code":"4070044","kana_pref":"ﾔﾏﾅｼｹﾝ","kana_city":"ﾆﾗｻｷｼ","kana_address":"ｱｻﾋﾏﾁｶﾐｼﾞｮｳｷﾀﾜﾘ","pref":"山梨県","city":"韮崎市","address":"旭町上條北割"},
{"zip_code":"4070263","kana_pref":"ﾔﾏﾅｼｹﾝ","kana_city":"ﾆﾗｻｷｼ","kana_address":"ｱﾅﾔﾏﾏﾁ","pref":"山梨県","city":"韮崎市","address":"穴山町"},
{"zip_code":"4070012","kana_pref":"ﾔﾏﾅｼｹﾝ","kana_city":"ﾆﾗｻｷｼ","kana_address":"ｲﾜｼﾀ","pref":"山梨県","city":"韮崎市","address":"岩下"},
{"zip_code":"4070011","kana_pref":"ﾔﾏﾅｼｹﾝ","kana_city":"ﾆﾗｻｷｼ","kana_address":"ｳｴﾉﾔﾏ","pref":"山梨県","city":"韮崎市","address":"上ノ山"},
{"zip_code":"4070036","kana_pref":"ﾔﾏﾅｼｹﾝ","kana_city":"ﾆﾗｻｷｼ","kana_address":"ｵｵｸｻﾏﾁｶﾐｼﾞｮｳﾋｶﾞｼﾜﾘ","pref":"山梨県","city":"韮崎市","address":"大草町上條東割"},
{"zip_code":"4070035","kana_pref":"ﾔﾏﾅｼｹﾝ","kana_city":"ﾆﾗｻｷｼ","kana_address":"ｵｵｸｻﾏﾁｼﾓｼﾞｮｳﾆｼﾜﾘ","pref":"山梨県","city":"韮崎市","address":"大草町下條西割"},
{"zip_code":"4070034","kana_pref":"ﾔﾏﾅｼｹﾝ","kana_city":"ﾆﾗｻｷｼ","kana_address":"ｵｵｸｻﾏﾁｼﾓｼﾞｮｳﾅｶﾜﾘ","pref":"山梨県","city":"韮崎市","address":"大草町下條中割"},
{"zip_code":"4070037","kana_pref":"ﾔﾏﾅｼｹﾝ","kana_city":"ﾆﾗｻｷｼ","kana_address":"ｵｵｸｻﾏﾁﾜｶｵ","pref":"山梨県","city":"韮崎市","address":"大草町若尾"},
{"zip_code":"4070007","kana_pref":"ﾔﾏﾅｼｹﾝ","kana_city":"ﾆﾗｻｷｼ","kana_address":"ｶﾐｳﾊﾞｲｼ","pref":"山梨県","city":"韮崎市","address":"上祖母石"},
{"zip_code":"4070042","kana_pref":"ﾔﾏﾅｼｹﾝ","kana_city":"ﾆﾗｻｷｼ","kana_address":"ｶﾐﾔﾏﾏﾁｷﾀﾐﾔｼﾞ","pref":"山梨県","city":"韮崎市","address":"神山町北宮地"},
{"zip_code":"4070041","kana_pref":"ﾔﾏﾅｼｹﾝ","kana_city":"ﾆﾗｻｷｼ","kana_address":"ｶﾐﾔﾏﾏﾁﾀｹﾀ","pref":"山梨県","city":"韮崎市","address":"神山町武田"},
{"zip_code":"4070043","kana_pref":"ﾔﾏﾅｼｹﾝ","kana_city":"ﾆﾗｻｷｼ","kana_address":"ｶﾐﾔﾏﾏﾁﾅﾍﾞﾔﾏ","pref":"山梨県","city":"韮崎市","address":"神山町鍋山"},
{"zip_code":"4070025","kana_pref":"ﾔﾏﾅｼｹﾝ","kana_city":"ﾆﾗｻｷｼ","kana_address":"ｻｶｴ","pref":"山梨県","city":"韮崎市","address":"栄"},
{"zip_code":"4070006","kana_pref":"ﾔﾏﾅｼｹﾝ","kana_city":"ﾆﾗｻｷｼ","kana_address":"ｼﾓｳﾊﾞｲｼ","pref":"山梨県","city":"韮崎市","address":"下祖母石"},
{"zip_code":"4070022","kana_pref":"ﾔﾏﾅｼｹﾝ","kana_city":"ﾆﾗｻｷｼ","kana_address":"ｽｲｼﾞﾝ","pref":"山梨県","city":"韮崎市","address":"水神"},
{"zip_code":"4070055","kana_pref":"ﾔﾏﾅｼｹﾝ","kana_city":"ﾆﾗｻｷｼ","kana_address":"ｾｲﾃﾂﾏﾁｱｵｷ","pref":"山梨県","city":"韮崎市","address":"清哲町青木"},
{"zip_code":"4070054","kana_pref":"ﾔﾏﾅｼｹﾝ","kana_city":"ﾆﾗｻｷｼ","kana_address":"ｾｲﾃﾂﾏﾁｵﾘｲ","pref":"山梨県","city":"韮崎市","address":"清哲町折居"},
{"zip_code":"4070057","kana_pref":"ﾔﾏﾅｼｹﾝ","kana_city":"ﾆﾗｻｷｼ","kana_address":"ｾｲﾃﾂﾏﾁﾋﾉｸﾞﾁ","pref":"山梨県","city":"韮崎市","address":"清哲町樋口"},
{"zip_code":"4070058","kana_pref":"ﾔﾏﾅｼｹﾝ","kana_city":"ﾆﾗｻｷｼ","kana_address":"ｾｲﾃﾂﾏﾁﾐｽﾞｶﾐ","pref":"山梨県","city":"韮崎市","address":"清哲町水上"},
{"zip_code":"4070032","kana_pref":"ﾔﾏﾅｼｹﾝ","kana_city":"ﾆﾗｻｷｼ","kana_address":"ﾀﾂｵｶﾏﾁｼﾓｼﾞｮｳﾋｶﾞｼﾜﾘ","pref":"山梨県","city":"韮崎市","address":"龍岡町下條東割"},
{"zip_code":"4070033","kana_pref":"ﾔﾏﾅｼｹﾝ","kana_city":"ﾆﾗｻｷｼ","kana_address":"ﾀﾂｵｶﾏﾁｼﾓｼﾞｮｳﾐﾅﾐﾜﾘ","pref":"山梨県","city":"韮崎市","address":"龍岡町下條南割"},
{"zip_code":"4070031","kana_pref":"ﾔﾏﾅｼｹﾝ","kana_city":"ﾆﾗｻｷｼ","kana_address":"ﾀﾂｵｶﾏﾁﾜｶｵｼﾝﾃﾞﾝ","pref":"山梨県","city":"韮崎市","address":"龍岡町若尾新田"},
{"zip_code":"4070023","kana_pref":"ﾔﾏﾅｼｹﾝ","kana_city":"ﾆﾗｻｷｼ","kana_address":"ﾁｭｳｵｳﾁｮｳ","pref":"山梨県","city":"韮崎市","address":"中央町"},
{"zip_code":"4070013","kana_pref":"ﾔﾏﾅｼｹﾝ","kana_city":"ﾆﾗｻｷｼ","kana_address":"ﾅｶｼﾞﾏ","pref":"山梨県","city":"韮崎市","address":"中島"},
{"zip_code":"4070261","kana_pref":"ﾔﾏﾅｼｹﾝ","kana_city":"ﾆﾗｻｷｼ","kana_address":"ﾅｶﾀﾞﾏﾁｺﾀｶﾞﾜ","pref":"山梨県","city":"韮崎市","address":"中田町小田川"},
{"zip_code":"4070262","kana_pref":"ﾔﾏﾅｼｹﾝ","kana_city":"ﾆﾗｻｷｼ","kana_address":"ﾅｶﾀﾞﾏﾁﾅｶｼﾞｮｳ","pref":"山梨県","city":"韮崎市","address":"中田町中條"},
{"zip_code":"4070005","kana_pref":"ﾔﾏﾅｼｹﾝ","kana_city":"ﾆﾗｻｷｼ","kana_address":"ﾋﾄﾂﾔ","pref":"山梨県","city":"韮崎市","address":"一ツ谷"},
{"zip_code":"4070001","kana_pref":"ﾔﾏﾅｼｹﾝ","kana_city":"ﾆﾗｻｷｼ","kana_address":"ﾌｼﾞｲﾏﾁｺﾏｲ","pref":"山梨県","city":"韮崎市","address":"藤井町駒井"},
{"zip_code":"4070002","kana_pref":"ﾔﾏﾅｼｹﾝ","kana_city":"ﾆﾗｻｷｼ","kana_address":"ﾌｼﾞｲﾏﾁｻｶｲ","pref":"山梨県","city":"韮崎市","address":"藤井町坂井"},
{"zip_code":"4070004","kana_pref":"ﾔﾏﾅｼｹﾝ","kana_city":"ﾆﾗｻｷｼ","kana_address":"ﾌｼﾞｲﾏﾁﾐﾅﾐｹﾞｼﾞｮｳ","pref":"山梨県","city":"韮崎市","address":"藤井町南下條"},
{"zip_code":"4070003","kana_pref":"ﾔﾏﾅｼｹﾝ","kana_city":"ﾆﾗｻｷｼ","kana_address":"ﾌｼﾞｲﾏﾁｷﾀｹﾞｼﾞｮｳ","pref":"山梨県","city":"韮崎市","address":"藤井町北下條"},
{"zip_code":"4070014","kana_pref":"ﾔﾏﾅｼｹﾝ","kana_city":"ﾆﾗｻｷｼ","kana_address":"ﾌｼﾞﾐ","pref":"山梨県","city":"韮崎市","address":"富士見"},
{"zip_code":"4070021","kana_pref":"ﾔﾏﾅｼｹﾝ","kana_city":"ﾆﾗｻｷｼ","kana_address":"ﾌｼﾞﾐｶﾞｵｶ","pref":"山梨県","city":"韮崎市","address":"富士見ケ丘"},
{"zip_code":"4070172","kana_pref":"ﾔﾏﾅｼｹﾝ","kana_city":"ﾆﾗｻｷｼ","kana_address":"ﾎｻｶﾏﾁｶﾐｲﾏｲ","pref":"山梨県","city":"韮崎市","address":"穂坂町上今井"},
{"zip_code":"4070176","kana_pref":"ﾔﾏﾅｼｹﾝ","kana_city":"ﾆﾗｻｷｼ","kana_address":"ﾎｻｶﾏﾁｻﾝﾉｸﾗ","pref":"山梨県","city":"韮崎市","address":"穂坂町三之蔵"},
{"zip_code":"4070173","kana_pref":"ﾔﾏﾅｼｹﾝ","kana_city":"ﾆﾗｻｷｼ","kana_address":"ﾎｻｶﾏﾁﾅｶﾞｸﾎﾞ","pref":"山梨県","city":"韮崎市","address":"穂坂町長久保"},
{"zip_code":"4070174","kana_pref":"ﾔﾏﾅｼｹﾝ","kana_city":"ﾆﾗｻｷｼ","kana_address":"ﾎｻｶﾏﾁﾐﾂｻﾜ","pref":"山梨県","city":"韮崎市","address":"穂坂町三ツ沢"},
{"zip_code":"4070175","kana_pref":"ﾔﾏﾅｼｹﾝ","kana_city":"ﾆﾗｻｷｼ","kana_address":"ﾎｻｶﾏﾁﾐﾔｸﾎﾞ","pref":"山梨県","city":"韮崎市","address":"穂坂町宮久保"},
{"zip_code":"4070171","kana_pref":"ﾔﾏﾅｼｹﾝ","kana_city":"ﾆﾗｻｷｼ","kana_address":"ﾎｻｶﾏﾁﾔﾅｷﾞﾀﾞｲﾗ","pref":"山梨県","city":"韮崎市","address":"穂坂町柳平"},
{"zip_code":"4070024","kana_pref":"ﾔﾏﾅｼｹﾝ","kana_city":"ﾆﾗｻｷｼ","kana_address":"ﾎﾝﾁｮｳ","pref":"山梨県","city":"韮崎市","address":"本町"},
{"zip_code":"4070051","kana_pref":"ﾔﾏﾅｼｹﾝ","kana_city":"ﾆﾗｻｷｼ","kana_address":"ﾏﾙﾉﾏﾁｶﾐﾂﾌﾞﾗｲ","pref":"山梨県","city":"韮崎市","address":"円野町上円井"},
{"zip_code":"4070052","kana_pref":"ﾔﾏﾅｼｹﾝ","kana_city":"ﾆﾗｻｷｼ","kana_address":"ﾏﾙﾉﾏﾁｼﾓﾂﾌﾞﾗｲ","pref":"山梨県","city":"韮崎市","address":"円野町下円井"},
{"zip_code":"4070053","kana_pref":"ﾔﾏﾅｼｹﾝ","kana_city":"ﾆﾗｻｷｼ","kana_address":"ﾏﾙﾉﾏﾁﾆｯﾄﾉ","pref":"山梨県","city":"韮崎市","address":"円野町入戸野"},
{"zip_code":"4070015","kana_pref":"ﾔﾏﾅｼｹﾝ","kana_city":"ﾆﾗｻｷｼ","kana_address":"ﾜｶﾐﾔ","pref":"山梨県","city":"韮崎市","address":"若宮"},
{"zip_code":"4070311","kana_pref":"ﾔﾏﾅｼｹﾝ","kana_city":"ﾎｸﾄｼ","kana_address":"ｵｵｲｽﾞﾐﾁｮｳﾆｼｲﾃﾞ8240-1","pref":"山梨県","city":"北杜市","address":"大泉町西井出８２４０−１"},
{"zip_code":"4070321","kana_pref":"ﾔﾏﾅｼｹﾝ","kana_city":"ﾎｸﾄｼ","kana_address":"ｽﾀﾏﾁｮｳｶﾐﾂｶﾞﾈ","pref":"山梨県","city":"北杜市","address":"須玉町上津金"},
{"zip_code":"4070322","kana_pref":"ﾔﾏﾅｼｹﾝ","kana_city":"ﾎｸﾄｼ","kana_address":"ｽﾀﾏﾁｮｳｼﾓﾂｶﾞﾈ","pref":"山梨県","city":"北杜市","address":"須玉町下津金"},
{"zip_code":"4070302","kana_pref":"ﾔﾏﾅｼｹﾝ","kana_city":"ﾎｸﾄｼ","kana_address":"ﾀｶﾈﾁｮｳｱｻｶﾜ","pref":"山梨県","city":"北杜市","address":"高根町浅川"},
{"zip_code":"4070301","kana_pref":"ﾔﾏﾅｼｹﾝ","kana_city":"ﾎｸﾄｼ","kana_address":"ﾀｶﾈﾁｮｳｷﾖｻﾄ","pref":"山梨県","city":"北杜市","address":"高根町清里"}]}