{"zip_code":[
{"zip_code":"4093711","kana_pref":"ﾔﾏﾅｼｹﾝ","kana_city":"ｺｳﾌｼ","kana_address":"ｶｹﾊｼﾏﾁ","pref":"山梨県","city":"甲府市","address":"梯町"},
{"zip_code":"4093712","kana_pref":"ﾔﾏﾅｼｹﾝ","kana_city":"ｺｳﾌｼ","kana_address":"ﾌﾙｾｷﾏﾁ","pref":"山梨県","city":"甲府市","address":"古関町"},
{"zip_code":"4090615","kana_pref":"ﾔﾏﾅｼｹﾝ","kana_city":"ｵｵﾂｷｼ","kana_address":"ｻﾙﾊｼﾏﾁｱｻﾋｵｻﾞﾜ","pref":"山梨県","city":"大月市","address":"猿橋町朝日小沢"},
{"zip_code":"4090613","kana_pref":"ﾔﾏﾅｼｹﾝ","kana_city":"ｵｵﾂｷｼ","kana_address":"ｻﾙﾊｼﾏﾁｲﾗﾊﾞﾗ","pref":"山梨県","city":"大月市","address":"猿橋町伊良原"},
{"zip_code":"4090616","kana_pref":"ﾔﾏﾅｼｹﾝ","kana_city":"ｵｵﾂｷｼ","kana_address":"ｻﾙﾊｼﾏﾁｵｻﾞﾜ","pref":"山梨県","city":"大月市","address":"猿橋町小沢"},
{"zip_code":"4090611","kana_pref":"ﾔﾏﾅｼｹﾝ","kana_city":"ｵｵﾂｷｼ","kana_address":"ｻﾙﾊｼﾏﾁｵｼﾉ","pref":"山梨県","city":"大月市","address":"猿橋町小篠"},
{"zip_code":"4090618","kana_pref":"ﾔﾏﾅｼｹﾝ","kana_city":"ｵｵﾂｷｼ","kana_address":"ｻﾙﾊｼﾏﾁｶﾂﾗﾀﾞｲ","pref":"山梨県","city":"大月市","address":"猿橋町桂台"},
{"zip_code":"4090614","kana_pref":"ﾔﾏﾅｼｹﾝ","kana_city":"ｵｵﾂｷｼ","kana_address":"ｻﾙﾊｼﾏﾁｻﾙﾊｼ","pref":"山梨県","city":"大月市","address":"猿橋町猿橋"},
{"zip_code":"4090617","kana_pref":"ﾔﾏﾅｼｹﾝ","kana_city":"ｵｵﾂｷｼ","kana_address":"ｻﾙﾊｼﾏﾁﾄﾉｳｴ","pref":"山梨県","city":"大月市","address":"猿橋町殿上"},
{"zip_code":"4090612","kana_pref":"ﾔﾏﾅｼｹﾝ","kana_city":"ｵｵﾂｷｼ","kana_address":"ｻﾙﾊｼﾏﾁﾌｼﾞｻｷ","pref":"山梨県","city":"大月市","address":"猿橋町藤崎"},
{"zip_code":"4090502","kana_pref":"ﾔﾏﾅｼｹﾝ","kana_city":"ｵｵﾂｷｼ","kana_address":"ﾄﾐﾊﾏﾏﾁﾄﾘｻﾜ","pref":"山梨県","city":"大月市","address":"富浜町鳥沢"},
{"zip_code":"4090501","kana_pref":"ﾔﾏﾅｼｹﾝ","kana_city":"ｵｵﾂｷｼ","kana_address":"ﾄﾐﾊﾏﾏﾁﾐﾔﾀﾆ","pref":"山梨県","city":"大月市","address":"富浜町宮谷"},
{"zip_code":"4090621","kana_pref":"ﾔﾏﾅｼｹﾝ","kana_city":"ｵｵﾂｷｼ","kana_address":"ﾅﾅﾎﾏﾁｱｻｶﾜ","pref":"山梨県","city":"大月市","address":"七保町浅川"},
{"zip_code":"4090623","kana_pref":"ﾔﾏﾅｼｹﾝ","kana_city":"ｵｵﾂｷｼ","kana_address":"ﾅﾅﾎﾏﾁｶｽﾞﾉ","pref":"山梨県","city":"大月市","address":"七保町葛野"},
{"zip_code":"4090627","kana_pref":"ﾔﾏﾅｼｹﾝ","kana_city":"ｵｵﾂｷｼ","kana_address":"ﾅﾅﾎﾏﾁｺﾏﾐﾔ","pref":"山梨県","city":"大月市","address":"七保町駒宮"},
{"zip_code":"4090622","kana_pref":"ﾔﾏﾅｼｹﾝ","kana_city":"ｵｵﾂｷｼ","kana_address":"ﾅﾅﾎﾏﾁｼﾓﾜﾀﾞ","pref":"山梨県","city":"大月市","address":"七保町下和田"},
{"zip_code":"4090626","kana_pref":"ﾔﾏﾅｼｹﾝ","kana_city":"ｵｵﾂｷｼ","kana_address":"ﾅﾅﾎﾏﾁｾﾄ","pref":"山梨県","city":"大月市","address":"七保町瀬戸"},
{"zip_code":"4090625","kana_pref":"ﾔﾏﾅｼｹﾝ","kana_city":"ｵｵﾂｷｼ","kana_address":"ﾅﾅﾎﾏﾁﾅﾗｺﾞ","pref":"山梨県","city":"大月市","address":"七保町奈良子"},
{"zip_code":"4090624","kana_pref":"ﾔﾏﾅｼｹﾝ","kana_city":"ｵｵﾂｷｼ","kana_address":"ﾅﾅﾎﾏﾁﾊﾔｼ","pref":"山梨県","city":"大月市","address":"七保町林"},
{"zip_code":"4090504","kana_pref":"ﾔﾏﾅｼｹﾝ","kana_city":"ｵｵﾂｷｼ","kana_address":"ﾔﾅｶﾞﾜﾏﾁｱﾗｸﾗ","pref":"山梨県","city":"大月市","address":"梁川町新倉"},
{"zip_code":"4090505","kana_pref":"ﾔﾏﾅｼｹﾝ","kana_city":"ｵｵﾂｷｼ","kana_address":"ﾔﾅｶﾞﾜﾏﾁｼｵｾﾞ","pref":"山梨県","city":"大月市","address":"梁川町塩瀬"},
{"zip_code":"4090506","kana_pref":"ﾔﾏﾅｼｹﾝ","kana_city":"ｵｵﾂｷｼ","kana_address":"ﾔﾅｶﾞﾜﾏﾁﾀﾁﾉ","pref":"山梨県","city":"大月市","address":"梁川町立野"},
{"zip_code":"4090503","kana_pref":"ﾔﾏﾅｼｹﾝ","kana_city":"ｵｵﾂｷｼ","kana_address":"ﾔﾅｶﾞﾜﾏﾁﾂﾅﾉｳｴ","pref":"山梨県","city":"大月市","address":"梁川町綱の上"},
{"zip_code":"4091501","kana_pref":"ﾔﾏﾅｼｹﾝ","kana_city":"ﾎｸﾄｼ","kana_address":"ｵｵｲｽﾞﾐﾁｮｳﾆｼｲﾃﾞ","pref":"山梨県","city":"北杜市","address":"大泉町西井出"},
{"zip_code":"4091502","kana_pref":"ﾔﾏﾅｼｹﾝ","kana_city":"ﾎｸﾄｼ","kana_address":"ｵｵｲｽﾞﾐﾁｮｳﾔﾄ","pref":"山梨県","city":"北杜市","address":"大泉町谷戸"},
{"zip_code":"4093702","kana_pref":"ﾔﾏﾅｼｹﾝ","kana_city":"ﾌｴﾌｷｼ","kana_address":"ｱｼｶﾞﾜﾁｮｳｱﾗｲﾊﾞﾗ","pref":"山梨県","city":"笛吹市","address":"芦川町新井原"},
{"zip_code":"4093704","kana_pref":"ﾔﾏﾅｼｹﾝ","kana_city":"ﾌｴﾌｷｼ","kana_address":"ｱｼｶﾞﾜﾁｮｳｵｳｼｭｸ","pref":"山梨県","city":"笛吹市","address":"芦川町鶯宿"},
{"zip_code":"4093701","kana_pref":"ﾔﾏﾅｼｹﾝ","kana_city":"ﾌｴﾌｷｼ","kana_address":"ｱｼｶﾞﾜﾁｮｳｶﾐｱｼｶﾞﾜ","pref":"山梨県","city":"笛吹市","address":"芦川町上芦川"},
{"zip_code":"4093703","kana_pref":"ﾔﾏﾅｼｹﾝ","kana_city":"ﾌｴﾌｷｼ","kana_address":"ｱｼｶﾞﾜﾁｮｳﾅｶｱｼｶﾞﾜ","pref":"山梨県","city":"笛吹市","address":"芦川町中芦川"},
{"zip_code":"4090100","kana_pref":"ﾔﾏﾅｼｹﾝ","kana_city":"ｳｴﾉﾊﾗｼ","kana_address":"","pref":"山梨県","city":"上野原市","address":""},
{"zip_code":"4090135","kana_pref":"ﾔﾏﾅｼｹﾝ","kana_city":"ｳｴﾉﾊﾗｼ","kana_address":"ｱｼｶﾞｷ","pref":"山梨県","city":"上野原市","address":"芦垣"},
{"zip_code":"4090113","kana_pref":"ﾔﾏﾅｼｹﾝ","kana_city":"ｳｴﾉﾊﾗｼ","kana_address":"ｱﾗﾀ","pref":"山梨県","city":"上野原市","address":"新田"},
{"zip_code":"4090124","kana_pref":"ﾔﾏﾅｼｹﾝ","kana_city":"ｳｴﾉﾊﾗｼ","kana_address":"ｲﾇﾒ","pref":"山梨県","city":"上野原市","address":"犬目"},
{"zip_code":"4090112","kana_pref":"ﾔﾏﾅｼｹﾝ","kana_city":"ｳｴﾉﾊﾗｼ","kana_address":"ｳｴﾉﾊﾗ","pref":"山梨県","city":"上野原市","address":"上野原"},
{"zip_code":"4090134","kana_pref":"ﾔﾏﾅｼｹﾝ","kana_city":"ｳｴﾉﾊﾗｼ","kana_address":"ｵｵｸﾇｷﾞ","pref":"山梨県","city":"上野原市","address":"大椚"},
{"zip_code":"4090138","kana_pref":"ﾔﾏﾅｼｹﾝ","kana_city":"ｳｴﾉﾊﾗｼ","kana_address":"ｵｵｸﾗ","pref":"山梨県","city":"上野原市","address":"大倉"},
{"zip_code":"4090131","kana_pref":"ﾔﾏﾅｼｹﾝ","kana_city":"ｳｴﾉﾊﾗｼ","kana_address":"ｵｵｿﾞﾈ","pref":"山梨県","city":"上野原市","address":"大曽根"},
{"zip_code":"4090123","kana_pref":"ﾔﾏﾅｼｹﾝ","kana_city":"ｳｴﾉﾊﾗｼ","kana_address":"ｵｵﾉ","pref":"山梨県","city":"上野原市","address":"大野"},
{"zip_code":"4090122","kana_pref":"ﾔﾏﾅｼｹﾝ","kana_city":"ｳｴﾉﾊﾗｼ","kana_address":"ｶﾜｲ","pref":"山梨県","city":"上野原市","address":"川合"},
{"zip_code":"4090136","kana_pref":"ﾔﾏﾅｼｹﾝ","kana_city":"ｳｴﾉﾊﾗｼ","kana_address":"ｸﾜｸﾎﾞ","pref":"山梨県","city":"上野原市","address":"桑久保"},
{"zip_code":"4090126","kana_pref":"ﾔﾏﾅｼｹﾝ","kana_city":"ｳｴﾉﾊﾗｼ","kana_address":"ｺﾓｱｼｵﾂ","pref":"山梨県","city":"上野原市","address":"コモアしおつ"},
{"zip_code":"4090141","kana_pref":"ﾔﾏﾅｼｹﾝ","kana_city":"ｳｴﾉﾊﾗｼ","kana_address":"ｻｲﾊﾗ","pref":"山梨県","city":"上野原市","address":"西原"},
{"zip_code":"4090121","kana_pref":"ﾔﾏﾅｼｹﾝ","kana_city":"ｳｴﾉﾊﾗｼ","kana_address":"ｼｵﾂ","pref":"山梨県","city":"上野原市","address":"四方津"},
{"zip_code":"4090132","kana_pref":"ﾔﾏﾅｼｹﾝ","kana_city":"ｳｴﾉﾊﾗｼ","kana_address":"ﾂﾙｶﾞﾜ","pref":"山梨県","city":"上野原市","address":"鶴川"},
{"zip_code":"4090114","kana_pref":"ﾔﾏﾅｼｹﾝ","kana_city":"ｳｴﾉﾊﾗｼ","kana_address":"ﾂﾙｼﾏ","pref":"山梨県","city":"上野原市","address":"鶴島"},
{"zip_code":"4090125","kana_pref":"ﾔﾏﾅｼｹﾝ","kana_city":"ｳｴﾉﾊﾗｼ","kana_address":"ﾉﾀｼﾞﾘ","pref":"山梨県","city":"上野原市","address":"野田尻"},
{"zip_code":"4090115","kana_pref":"ﾔﾏﾅｼｹﾝ","kana_city":"ｳｴﾉﾊﾗｼ","kana_address":"ﾏﾂﾄﾞﾒ","pref":"山梨県","city":"上野原市","address":"松留"},
{"zip_code":"4090133","kana_pref":"ﾔﾏﾅｼｹﾝ","kana_city":"ｳｴﾉﾊﾗｼ","kana_address":"ﾔﾂｻﾜ","pref":"山梨県","city":"上野原市","address":"八ツ沢"},
{"zip_code":"4090111","kana_pref":"ﾔﾏﾅｼｹﾝ","kana_city":"ｳｴﾉﾊﾗｼ","kana_address":"ﾕｽﾞﾘﾊﾗ","pref":"山梨県","city":"上野原市","address":"棡原"},
{"zip_code":"4090137","kana_pref":"ﾔﾏﾅｼｹﾝ","kana_city":"ｳｴﾉﾊﾗｼ","kana_address":"ﾜﾐ","pref":"山梨県","city":"上野原市","address":"和見"},
{"zip_code":"4091213","kana_pref":"ﾔﾏﾅｼｹﾝ","kana_city":"ｺｳｼｭｳｼ","kana_address":"ｴﾝｻﾞﾝｳｼｵｸ","pref":"山梨県","city":"甲州市","address":"塩山牛奥"},
{"zip_code":"4091321","kana_pref":"ﾔﾏﾅｼｹﾝ","kana_city":"ｺｳｼｭｳｼ","kana_address":"ｴﾝｻﾞﾝｳｼｵｸ(5288","pref":"山梨県","city":"甲州市","address":"塩山牛奥（５２８８"},
{"zip_code":"4091321","kana_pref":"ﾔﾏﾅｼｹﾝ","kana_city":"ｺｳｼｭｳｼ","kana_address":"5288-1","pref":"山梨県","city":"甲州市","address":"５２８８−１"},
{"zip_code":"4091321","kana_pref":"ﾔﾏﾅｼｹﾝ","kana_city":"ｺｳｼｭｳｼ","kana_address":"5288-3","pref":"山梨県","city":"甲州市","address":"５２８８−３"},
{"zip_code":"4091321","kana_pref":"ﾔﾏﾅｼｹﾝ","kana_city":"ｺｳｼｭｳｼ","kana_address":"5289","pref":"山梨県","city":"甲州市","address":"５２８９"},
{"zip_code":"4091321","kana_pref":"ﾔﾏﾅｼｹﾝ","kana_city":"ｺｳｼｭｳｼ","kana_address":"5289","pref":"山梨県","city":"甲州市","address":"５２８９"},
{"zip_code":"4091321","kana_pref":"ﾔﾏﾅｼｹﾝ","kana_city":"ｺｳｼｭｳｼ","kana_address":"-2","pref":"山梨県","city":"甲州市","address":"−２"},
{"zip_code":"4091321","kana_pref":"ﾔﾏﾅｼｹﾝ","kana_city":"ｺｳｼｭｳｼ","kana_address":"5289-15)","pref":"山梨県","city":"甲州市","address":"５２８９−１５）"},
{"zip_code":"4091211","kana_pref":"ﾔﾏﾅｼｹﾝ","kana_city":"ｺｳｼｭｳｼ","kana_address":"ｴﾝｻﾞﾝｶﾐﾊｷﾞﾊﾗ","pref":"山梨県","city":"甲州市","address":"塩山上萩原"},
{"zip_code":"4091212","kana_pref":"ﾔﾏﾅｼｹﾝ","kana_city":"ｺｳｼｭｳｼ","kana_address":"ｴﾝｻﾞﾝﾅｶﾊｷﾞﾊﾗ","pref":"山梨県","city":"甲州市","address":"塩山中萩原"},
{"zip_code":"4091303","kana_pref":"ﾔﾏﾅｼｹﾝ","kana_city":"ｺｳｼｭｳｼ","kana_address":"ｶﾂﾇﾏﾁｮｳｵｻﾃﾞ","pref":"山梨県","city":"甲州市","address":"勝沼町小佐手"},
{"zip_code":"4091316","kana_pref":"ﾔﾏﾅｼｹﾝ","kana_city":"ｺｳｼｭｳｼ","kana_address":"ｶﾂﾇﾏﾁｮｳｶﾂﾇﾏ","pref":"山梨県","city":"甲州市","address":"勝沼町勝沼"},
{"zip_code":"4091312","kana_pref":"ﾔﾏﾅｼｹﾝ","kana_city":"ｺｳｼｭｳｼ","kana_address":"ｶﾂﾇﾏﾁｮｳｶﾐｲﾜｻｷ","pref":"山梨県","city":"甲州市","address":"勝沼町上岩崎"},
{"zip_code":"4091304","kana_pref":"ﾔﾏﾅｼｹﾝ","kana_city":"ｺｳｼｭｳｼ","kana_address":"ｶﾂﾇﾏﾁｮｳｷｭｳｿｸ","pref":"山梨県","city":"甲州市","address":"勝沼町休息"},
{"zip_code":"4091313","kana_pref":"ﾔﾏﾅｼｹﾝ","kana_city":"ｺｳｼｭｳｼ","kana_address":"ｶﾂﾇﾏﾁｮｳｼﾓｲﾜｻｷ","pref":"山梨県","city":"甲州市","address":"勝沼町下岩崎"},
{"zip_code":"4091315","kana_pref":"ﾔﾏﾅｼｹﾝ","kana_city":"ｺｳｼｭｳｼ","kana_address":"ｶﾂﾇﾏﾁｮｳﾄﾄﾞﾛｷ","pref":"山梨県","city":"甲州市","address":"勝沼町等々力"},
{"zip_code":"4091301","kana_pref":"ﾔﾏﾅｼｹﾝ","kana_city":"ｺｳｼｭｳｼ","kana_address":"ｶﾂﾇﾏﾁｮｳﾅｶﾊﾗ","pref":"山梨県","city":"甲州市","address":"勝沼町中原"},
{"zip_code":"4091302","kana_pref":"ﾔﾏﾅｼｹﾝ","kana_city":"ｺｳｼｭｳｼ","kana_address":"ｶﾂﾇﾏﾁｮｳﾋｼﾔﾏ","pref":"山梨県","city":"甲州市","address":"勝沼町菱山"},
{"zip_code":"4091311","kana_pref":"ﾔﾏﾅｼｹﾝ","kana_city":"ｺｳｼｭｳｼ","kana_address":"ｶﾂﾇﾏﾁｮｳﾌｶｻﾜ","pref":"山梨県","city":"甲州市","address":"勝沼町深沢"},
{"zip_code":"4091314","kana_pref":"ﾔﾏﾅｼｹﾝ","kana_city":"ｺｳｼｭｳｼ","kana_address":"ｶﾂﾇﾏﾁｮｳﾌｼﾞｲ","pref":"山梨県","city":"甲州市","address":"勝沼町藤井"},
{"zip_code":"4091306","kana_pref":"ﾔﾏﾅｼｹﾝ","kana_city":"ｺｳｼｭｳｼ","kana_address":"ｶﾂﾇﾏﾁｮｳﾔﾏ","pref":"山梨県","city":"甲州市","address":"勝沼町山"},
{"zip_code":"4091305","kana_pref":"ﾔﾏﾅｼｹﾝ","kana_city":"ｺｳｼｭｳｼ","kana_address":"ｶﾂﾇﾏﾁｮｳﾜﾀﾂﾞｶ","pref":"山梨県","city":"甲州市","address":"勝沼町綿塚"},
{"zip_code":"4091202","kana_pref":"ﾔﾏﾅｼｹﾝ","kana_city":"ｺｳｼｭｳｼ","kana_address":"ﾔﾏﾄﾁｮｳﾀﾉ","pref":"山梨県","city":"甲州市","address":"大和町田野"},
{"zip_code":"4091205","kana_pref":"ﾔﾏﾅｼｹﾝ","kana_city":"ｺｳｼｭｳｼ","kana_address":"ﾔﾏﾄﾁｮｳﾂﾙｾ","pref":"山梨県","city":"甲州市","address":"大和町鶴瀬"},
{"zip_code":"4091201","kana_pref":"ﾔﾏﾅｼｹﾝ","kana_city":"ｺｳｼｭｳｼ","kana_address":"ﾔﾏﾄﾁｮｳﾄｸｻ","pref":"山梨県","city":"甲州市","address":"大和町木賊"},
{"zip_code":"4091203","kana_pref":"ﾔﾏﾅｼｹﾝ","kana_city":"ｺｳｼｭｳｼ","kana_address":"ﾔﾏﾄﾁｮｳﾊｼﾞｶﾉ","pref":"山梨県","city":"甲州市","address":"大和町初鹿野"},
{"zip_code":"4091204","kana_pref":"ﾔﾏﾅｼｹﾝ","kana_city":"ｺｳｼｭｳｼ","kana_address":"ﾔﾏﾄﾁｮｳﾋｶｹﾞ","pref":"山梨県","city":"甲州市","address":"大和町日影"},
{"zip_code":"4093800","kana_pref":"ﾔﾏﾅｼｹﾝ","kana_city":"ﾁｭｳｵｳｼ","kana_address":"","pref":"山梨県","city":"中央市","address":""},
{"zip_code":"4093813","kana_pref":"ﾔﾏﾅｼｹﾝ","kana_city":"ﾁｭｳｵｳｼ","kana_address":"ｲｯﾁｮｳﾊﾀ","pref":"山梨県","city":"中央市","address":"一町畑"},
{"zip_code":"4093804","kana_pref":"ﾔﾏﾅｼｹﾝ","kana_city":"ﾁｭｳｵｳｼ","kana_address":"ｲﾉｸﾁ","pref":"山梨県","city":"中央市","address":"井之口"},
{"zip_code":"4093834","kana_pref":"ﾔﾏﾅｼｹﾝ","kana_city":"ﾁｭｳｵｳｼ","kana_address":"ｲﾏﾌｸ","pref":"山梨県","city":"中央市","address":"今福"},
{"zip_code":"4093835","kana_pref":"ﾔﾏﾅｼｹﾝ","kana_city":"ﾁｭｳｵｳｼ","kana_address":"ｲﾏﾌｸｼﾝﾃﾞﾝ","pref":"山梨県","city":"中央市","address":"今福新田"},
{"zip_code":"4093844","kana_pref":"ﾔﾏﾅｼｹﾝ","kana_city":"ﾁｭｳｵｳｼ","kana_address":"ｳｽｲｱﾜﾗ","pref":"山梨県","city":"中央市","address":"臼井阿原"},
{"zip_code":"4093831","kana_pref":"ﾔﾏﾅｼｹﾝ","kana_city":"ﾁｭｳｵｳｼ","kana_address":"ｵｵﾀﾞﾜ","pref":"山梨県","city":"中央市","address":"大田和"},
{"zip_code":"4093812","kana_pref":"ﾔﾏﾅｼｹﾝ","kana_city":"ﾁｭｳｵｳｼ","kana_address":"ｵﾄｸﾞﾛ","pref":"山梨県","city":"中央市","address":"乙黒"},
{"zip_code":"4093823","kana_pref":"ﾔﾏﾅｼｹﾝ","kana_city":"ﾁｭｳｵｳｼ","kana_address":"ｶﾐｻﾝｼﾞｮｳ","pref":"山梨県","city":"中央市","address":"上三條"},
{"zip_code":"4093811","kana_pref":"ﾔﾏﾅｼｹﾝ","kana_city":"ﾁｭｳｵｳｼ","kana_address":"ｺﾞｸﾗｸｼﾞ","pref":"山梨県","city":"中央市","address":"極楽寺"},
{"zip_code":"4093821","kana_pref":"ﾔﾏﾅｼｹﾝ","kana_city":"ﾁｭｳｵｳｼ","kana_address":"ｼﾓｶﾄｳ","pref":"山梨県","city":"中央市","address":"下河東"},
{"zip_code":"4093822","kana_pref":"ﾔﾏﾅｼｹﾝ","kana_city":"ﾁｭｳｵｳｼ","kana_address":"ｼﾓｻﾝｼﾞｮｳ","pref":"山梨県","city":"中央市","address":"下三條"},
{"zip_code":"4093801","kana_pref":"ﾔﾏﾅｼｹﾝ","kana_city":"ﾁｭｳｵｳｼ","kana_address":"ﾅｶﾀﾞﾃ","pref":"山梨県","city":"中央市","address":"中楯"},
{"zip_code":"4093815","kana_pref":"ﾔﾏﾅｼｹﾝ","kana_city":"ﾁｭｳｵｳｼ","kana_address":"ﾅﾙｼﾏ","pref":"山梨県","city":"中央市","address":"成島"},
{"zip_code":"4093802","kana_pref":"ﾔﾏﾅｼｹﾝ","kana_city":"ﾁｭｳｵｳｼ","kana_address":"ﾆｼｱﾗｲ","pref":"山梨県","city":"中央市","address":"西新居"},
{"zip_code":"4093843","kana_pref":"ﾔﾏﾅｼｹﾝ","kana_city":"ﾁｭｳｵｳｼ","kana_address":"ﾆｼﾊﾅﾜ","pref":"山梨県","city":"中央市","address":"西花輪"},
{"zip_code":"4093842","kana_pref":"ﾔﾏﾅｼｹﾝ","kana_city":"ﾁｭｳｵｳｼ","kana_address":"ﾋｶﾞｼﾊﾅﾜ","pref":"山梨県","city":"中央市","address":"東花輪"},
{"zip_code":"4093833","kana_pref":"ﾔﾏﾅｼｹﾝ","kana_city":"ﾁｭｳｵｳｼ","kana_address":"ﾌｼﾞﾏｷ","pref":"山梨県","city":"中央市","address":"藤巻"},
{"zip_code":"4093841","kana_pref":"ﾔﾏﾅｼｹﾝ","kana_city":"ﾁｭｳｵｳｼ","kana_address":"ﾌｾ","pref":"山梨県","city":"中央市","address":"布施"},
{"zip_code":"4093832","kana_pref":"ﾔﾏﾅｼｹﾝ","kana_city":"ﾁｭｳｵｳｼ","kana_address":"ﾏｺﾞﾒ","pref":"山梨県","city":"中央市","address":"馬籠"},
{"zip_code":"4093814","kana_pref":"ﾔﾏﾅｼｹﾝ","kana_city":"ﾁｭｳｵｳｼ","kana_address":"ﾏﾁﾉﾀ","pref":"山梨県","city":"中央市","address":"町之田"},
{"zip_code":"4093845","kana_pref":"ﾔﾏﾅｼｹﾝ","kana_city":"ﾁｭｳｵｳｼ","kana_address":"ﾔﾏﾉｶﾐ","pref":"山梨県","city":"中央市","address":"山之神"},
{"zip_code":"4093803","kana_pref":"ﾔﾏﾅｼｹﾝ","kana_city":"ﾁｭｳｵｳｼ","kana_address":"ﾜｶﾐﾔ","pref":"山梨県","city":"中央市","address":"若宮"},
{"zip_code":"4093600","kana_pref":"ﾔﾏﾅｼｹﾝ","kana_city":"ﾆｼﾔﾂｼﾛｸﾞﾝｲﾁｶﾜﾐｻﾄﾁｮｳ","kana_address":"","pref":"山梨県","city":"西八代郡市川三郷町","address":""},
{"zip_code":"4093601","kana_pref":"ﾔﾏﾅｼｹﾝ","kana_city":"ﾆｼﾔﾂｼﾛｸﾞﾝｲﾁｶﾜﾐｻﾄﾁｮｳ","kana_address":"ｲﾁｶﾜﾀﾞｲﾓﾝ","pref":"山梨県","city":"西八代郡市川三郷町","address":"市川大門"},
{"zip_code":"4093234","kana_pref":"ﾔﾏﾅｼｹﾝ","kana_city":"ﾆｼﾔﾂｼﾛｸﾞﾝｲﾁｶﾜﾐｻﾄﾁｮｳ","kana_address":"ｲﾜｼﾀ","pref":"山梨県","city":"西八代郡市川三郷町","address":"岩下"},
{"zip_code":"4093244","kana_pref":"ﾔﾏﾅｼｹﾝ","kana_city":"ﾆｼﾔﾂｼﾛｸﾞﾝｲﾁｶﾜﾐｻﾄﾁｮｳ","kana_address":"ｲﾜﾏ","pref":"山梨県","city":"西八代郡市川三郷町","address":"岩間"},
{"zip_code":"4093607","kana_pref":"ﾔﾏﾅｼｹﾝ","kana_city":"ﾆｼﾔﾂｼﾛｸﾞﾝｲﾁｶﾜﾐｻﾄﾁｮｳ","kana_address":"ｲﾝｻﾞﾜ","pref":"山梨県","city":"西八代郡市川三郷町","address":"印沢"},
{"zip_code":"4093612","kana_pref":"ﾔﾏﾅｼｹﾝ","kana_city":"ﾆｼﾔﾂｼﾛｸﾞﾝｲﾁｶﾜﾐｻﾄﾁｮｳ","kana_address":"ｳｴﾉ","pref":"山梨県","city":"西八代郡市川三郷町","address":"上野"},
{"zip_code":"4093611","kana_pref":"ﾔﾏﾅｼｹﾝ","kana_city":"ﾆｼﾔﾂｼﾛｸﾞﾝｲﾁｶﾜﾐｻﾄﾁｮｳ","kana_address":"ｵｵﾂｶ","pref":"山梨県","city":"西八代郡市川三郷町","address":"大塚"},
{"zip_code":"4093231","kana_pref":"ﾔﾏﾅｼｹﾝ","kana_city":"ﾆｼﾔﾂｼﾛｸﾞﾝｲﾁｶﾜﾐｻﾄﾁｮｳ","kana_address":"ｵﾁｲ","pref":"山梨県","city":"西八代郡市川三郷町","address":"落居"},
{"zip_code":"4093243","kana_pref":"ﾔﾏﾅｼｹﾝ","kana_city":"ﾆｼﾔﾂｼﾛｸﾞﾝｲﾁｶﾜﾐｻﾄﾁｮｳ","kana_address":"ｶﾓｶﾞﾘﾂﾑｷﾞ","pref":"山梨県","city":"西八代郡市川三郷町","address":"鴨狩津向"},
{"zip_code":"4093245","kana_pref":"ﾔﾏﾅｼｹﾝ","kana_city":"ﾆｼﾔﾂｼﾛｸﾞﾝｲﾁｶﾜﾐｻﾄﾁｮｳ","kana_address":"ｸｽﾎ","pref":"山梨県","city":"西八代郡市川三郷町","address":"楠甫"},
{"zip_code":"4093603","kana_pref":"ﾔﾏﾅｼｹﾝ","kana_city":"ﾆｼﾔﾂｼﾛｸﾞﾝｲﾁｶﾜﾐｻﾄﾁｮｳ","kana_address":"ｸﾛｻﾞﾜ","pref":"山梨県","city":"西八代郡市川三郷町","address":"黒沢"},
{"zip_code":"4093233","kana_pref":"ﾔﾏﾅｼｹﾝ","kana_city":"ﾆｼﾔﾂｼﾛｸﾞﾝｲﾁｶﾜﾐｻﾄﾁｮｳ","kana_address":"ｺﾞﾊﾁ","pref":"山梨県","city":"西八代郡市川三郷町","address":"五八"},
{"zip_code":"4093622","kana_pref":"ﾔﾏﾅｼｹﾝ","kana_city":"ﾆｼﾔﾂｼﾛｸﾞﾝｲﾁｶﾜﾐｻﾄﾁｮｳ","kana_address":"ｻﾝﾁｮｳ","pref":"山梨県","city":"西八代郡市川三郷町","address":"三帳"},
{"zip_code":"4093621","kana_pref":"ﾔﾏﾅｼｹﾝ","kana_city":"ﾆｼﾔﾂｼﾛｸﾞﾝｲﾁｶﾜﾐｻﾄﾁｮｳ","kana_address":"ｼﾓｱｼｶﾞﾜ","pref":"山梨県","city":"西八代郡市川三郷町","address":"下芦川"},
{"zip_code":"4093605","kana_pref":"ﾔﾏﾅｼｹﾝ","kana_city":"ﾆｼﾔﾂｼﾛｸﾞﾝｲﾁｶﾜﾐｻﾄﾁｮｳ","kana_address":"ｼﾓｵｵﾄﾞﾘｲ","pref":"山梨県","city":"西八代郡市川三郷町","address":"下大鳥居"},
{"zip_code":"4093606","kana_pref":"ﾔﾏﾅｼｹﾝ","kana_city":"ﾆｼﾔﾂｼﾛｸﾞﾝｲﾁｶﾜﾐｻﾄﾁｮｳ","kana_address":"ﾀｶﾀ","pref":"山梨県","city":"西八代郡市川三郷町","address":"高田"},
{"zip_code":"4093623","kana_pref":"ﾔﾏﾅｼｹﾝ","kana_city":"ﾆｼﾔﾂｼﾛｸﾞﾝｲﾁｶﾜﾐｻﾄﾁｮｳ","kana_address":"ﾀｶﾊｷﾞ","pref":"山梨県","city":"西八代郡市川三郷町","address":"高萩"},
{"zip_code":"4093241","kana_pref":"ﾔﾏﾅｼｹﾝ","kana_city":"ﾆｼﾔﾂｼﾛｸﾞﾝｲﾁｶﾜﾐｻﾄﾁｮｳ","kana_address":"ﾂﾂﾞﾗｻﾜ","pref":"山梨県","city":"西八代郡市川三郷町","address":"葛籠沢"},
{"zip_code":"4093232","kana_pref":"ﾔﾏﾅｼｹﾝ","kana_city":"ﾆｼﾔﾂｼﾛｸﾞﾝｲﾁｶﾜﾐｻﾄﾁｮｳ","kana_address":"ﾃﾗﾄﾞｺ","pref":"山梨県","city":"西八代郡市川三郷町","address":"寺所"},
{"zip_code":"4093625","kana_pref":"ﾔﾏﾅｼｹﾝ","kana_city":"ﾆｼﾔﾂｼﾛｸﾞﾝｲﾁｶﾜﾐｻﾄﾁｮｳ","kana_address":"ﾅｶﾔﾏ","pref":"山梨県","city":"西八代郡市川三郷町","address":"中山"},
{"zip_code":"4093624","kana_pref":"ﾔﾏﾅｼｹﾝ","kana_city":"ﾆｼﾔﾂｼﾛｸﾞﾝｲﾁｶﾜﾐｻﾄﾁｮｳ","kana_address":"ﾇﾀ","pref":"山梨県","city":"西八代郡市川三郷町","address":"垈"},
{"zip_code":"4093626","kana_pref":"ﾔﾏﾅｼｹﾝ","kana_city":"ﾆｼﾔﾂｼﾛｸﾞﾝｲﾁｶﾜﾐｻﾄﾁｮｳ","kana_address":"ﾊﾀｸﾏ","pref":"山梨県","city":"西八代郡市川三郷町","address":"畑熊"},
{"zip_code":"4093604","kana_pref":"ﾔﾏﾅｼｹﾝ","kana_city":"ﾆｼﾔﾂｼﾛｸﾞﾝｲﾁｶﾜﾐｻﾄﾁｮｳ","kana_address":"ﾊﾁﾉｼﾘ","pref":"山梨県","city":"西八代郡市川三郷町","address":"八之尻"},
{"zip_code":"4093242","kana_pref":"ﾔﾏﾅｼｹﾝ","kana_city":"ﾆｼﾔﾂｼﾛｸﾞﾝｲﾁｶﾜﾐｻﾄﾁｮｳ","kana_address":"ﾐﾔﾊﾞﾗ","pref":"山梨県","city":"西八代郡市川三郷町","address":"宮原"},
{"zip_code":"4093602","kana_pref":"ﾔﾏﾅｼｹﾝ","kana_city":"ﾆｼﾔﾂｼﾛｸﾞﾝｲﾁｶﾜﾐｻﾄﾁｮｳ","kana_address":"ﾔﾏﾎ","pref":"山梨県","city":"西八代郡市川三郷町","address":"山保"},
{"zip_code":"4092700","kana_pref":"ﾔﾏﾅｼｹﾝ","kana_city":"ﾐﾅﾐｺﾏｸﾞﾝﾊﾔｶﾜﾁｮｳ","kana_address":"","pref":"山梨県","city":"南巨摩郡早川町","address":""},
{"zip_code":"4092733","kana_pref":"ﾔﾏﾅｼｹﾝ","kana_city":"ﾐﾅﾐｺﾏｸﾞﾝﾊﾔｶﾜﾁｮｳ","kana_address":"ｱｶｻﾜ","pref":"山梨県","city":"南巨摩郡早川町","address":"赤沢"},
{"zip_code":"4092734","kana_pref":"ﾔﾏﾅｼｹﾝ","kana_city":"ﾐﾅﾐｺﾏｸﾞﾝﾊﾔｶﾜﾁｮｳ","kana_address":"ｱﾒﾊﾀ","pref":"山梨県","city":"南巨摩郡早川町","address":"雨畑"},
{"zip_code":"4092703","kana_pref":"ﾔﾏﾅｼｹﾝ","kana_city":"ﾐﾅﾐｺﾏｸﾞﾝﾊﾔｶﾜﾁｮｳ","kana_address":"ｱﾗｸﾗ","pref":"山梨県","city":"南巨摩郡早川町","address":"新倉"},
{"zip_code":"4092731","kana_pref":"ﾔﾏﾅｼｹﾝ","kana_city":"ﾐﾅﾐｺﾏｸﾞﾝﾊﾔｶﾜﾁｮｳ","kana_address":"ｵｵｼﾏ","pref":"山梨県","city":"南巨摩郡早川町","address":"大島"},
{"zip_code":"4092704","kana_pref":"ﾔﾏﾅｼｹﾝ","kana_city":"ﾐﾅﾐｺﾏｸﾞﾝﾊﾔｶﾜﾁｮｳ","kana_address":"ｵｵﾊﾗﾉ","pref":"山梨県","city":"南巨摩郡早川町","address":"大原野"},
{"zip_code":"4092715","kana_pref":"ﾔﾏﾅｼｹﾝ","kana_city":"ﾐﾅﾐｺﾏｸﾞﾝﾊﾔｶﾜﾁｮｳ","kana_address":"ｷｮｳｶﾞｼﾏ","pref":"山梨県","city":"南巨摩郡早川町","address":"京ケ島"},
{"zip_code":"4092714","kana_pref":"ﾔﾏﾅｼｹﾝ","kana_city":"ﾐﾅﾐｺﾏｸﾞﾝﾊﾔｶﾜﾁｮｳ","kana_address":"ｸｻｼｵ","pref":"山梨県","city":"南巨摩郡早川町","address":"草塩"},
{"zip_code":"4092723","kana_pref":"ﾔﾏﾅｼｹﾝ","kana_city":"ﾐﾅﾐｺﾏｸﾞﾝﾊﾔｶﾜﾁｮｳ","kana_address":"ｸﾚﾂﾎﾞ","pref":"山梨県","city":"南巨摩郡早川町","address":"榑坪"},
{"zip_code":"4092732","kana_pref":"ﾔﾏﾅｼｹﾝ","kana_city":"ﾐﾅﾐｺﾏｸﾞﾝﾊﾔｶﾜﾁｮｳ","kana_address":"ｺｳｼﾞｭｳ","pref":"山梨県","city":"南巨摩郡早川町","address":"高住"},
{"zip_code":"4092725","kana_pref":"ﾔﾏﾅｼｹﾝ","kana_city":"ﾐﾅﾐｺﾏｸﾞﾝﾊﾔｶﾜﾁｮｳ","kana_address":"ｺﾅﾜ","pref":"山梨県","city":"南巨摩郡早川町","address":"小縄"},
{"zip_code":"4092722","kana_pref":"ﾔﾏﾅｼｹﾝ","kana_city":"ﾐﾅﾐｺﾏｸﾞﾝﾊﾔｶﾜﾁｮｳ","kana_address":"ｻｻﾊﾞｼﾘ","pref":"山梨県","city":"南巨摩郡早川町","address":"笹走"},
{"zip_code":"4092721","kana_pref":"ﾔﾏﾅｼｹﾝ","kana_city":"ﾐﾅﾐｺﾏｸﾞﾝﾊﾔｶﾜﾁｮｳ","kana_address":"ｼｵﾉｳｴ","pref":"山梨県","city":"南巨摩郡早川町","address":"塩之上"},
{"zip_code":"4092726","kana_pref":"ﾔﾏﾅｼｹﾝ","kana_city":"ﾐﾅﾐｺﾏｸﾞﾝﾊﾔｶﾜﾁｮｳ","kana_address":"ｾﾝｽﾞﾜ","pref":"山梨県","city":"南巨摩郡早川町","address":"千須和"},
{"zip_code":"4092711","kana_pref":"ﾔﾏﾅｼｹﾝ","kana_city":"ﾐﾅﾐｺﾏｸﾞﾝﾊﾔｶﾜﾁｮｳ","kana_address":"ﾂﾂﾞﾗ","pref":"山梨県","city":"南巨摩郡早川町","address":"黒桂"},
{"zip_code":"4092701","kana_pref":"ﾔﾏﾅｼｹﾝ","kana_city":"ﾐﾅﾐｺﾏｸﾞﾝﾊﾔｶﾜﾁｮｳ","kana_address":"ﾅﾗﾀﾞ","pref":"山梨県","city":"南巨摩郡早川町","address":"奈良田"},
{"zip_code":"4092712","kana_pref":"ﾔﾏﾅｼｹﾝ","kana_city":"ﾐﾅﾐｺﾏｸﾞﾝﾊﾔｶﾜﾁｮｳ","kana_address":"ﾆｼﾉﾐﾔ","pref":"山梨県","city":"南巨摩郡早川町","address":"西之宮"},
{"zip_code":"4092724","kana_pref":"ﾔﾏﾅｼｹﾝ","kana_city":"ﾐﾅﾐｺﾏｸﾞﾝﾊﾔｶﾜﾁｮｳ","kana_address":"ﾊｼﾞｶｼﾞﾏ","pref":"山梨県","city":"南巨摩郡早川町","address":"初鹿島"},
{"zip_code":"4092705","kana_pref":"ﾔﾏﾅｼｹﾝ","kana_city":"ﾐﾅﾐｺﾏｸﾞﾝﾊﾔｶﾜﾁｮｳ","kana_address":"ﾊﾔｶﾜ","pref":"山梨県","city":"南巨摩郡早川町","address":"早川"},
{"zip_code":"4092713","kana_pref":"ﾔﾏﾅｼｹﾝ","kana_city":"ﾐﾅﾐｺﾏｸﾞﾝﾊﾔｶﾜﾁｮｳ","kana_address":"ﾎ","pref":"山梨県","city":"南巨摩郡早川町","address":"保"},
{"zip_code":"4092727","kana_pref":"ﾔﾏﾅｼｹﾝ","kana_city":"ﾐﾅﾐｺﾏｸﾞﾝﾊﾔｶﾜﾁｮｳ","kana_address":"ﾐﾅｲ","pref":"山梨県","city":"南巨摩郡早川町","address":"薬袋"},
{"zip_code":"4092702","kana_pref":"ﾔﾏﾅｼｹﾝ","kana_city":"ﾐﾅﾐｺﾏｸﾞﾝﾊﾔｶﾜﾁｮｳ","kana_address":"ﾕｼﾞﾏ","pref":"山梨県","city":"南巨摩郡早川町","address":"湯島"},
{"zip_code":"4092500","kana_pref":"ﾔﾏﾅｼｹﾝ","kana_city":"ﾐﾅﾐｺﾏｸﾞﾝﾐﾉﾌﾞﾁｮｳ","kana_address":"","pref":"山梨県","city":"南巨摩郡身延町","address":""},
{"zip_code":"4092536","kana_pref":"ﾔﾏﾅｼｹﾝ","kana_city":"ﾐﾅﾐｺﾏｸﾞﾝﾐﾉﾌﾞﾁｮｳ","kana_address":"ｱｲﾏﾀ","pref":"山梨県","city":"南巨摩郡身延町","address":"相又"},
{"zip_code":"4092521","kana_pref":"ﾔﾏﾅｼｹﾝ","kana_city":"ﾐﾅﾐｺﾏｸﾞﾝﾐﾉﾌﾞﾁｮｳ","kana_address":"ｱﾜｸﾞﾗ","pref":"山梨県","city":"南巨摩郡身延町","address":"粟倉"},
{"zip_code":"4093423","kana_pref":"ﾔﾏﾅｼｹﾝ","kana_city":"ﾐﾅﾐｺﾏｸﾞﾝﾐﾉﾌﾞﾁｮｳ","kana_address":"ｲｲﾄﾐ","pref":"山梨県","city":"南巨摩郡身延町","address":"飯富"},
{"zip_code":"4092938","kana_pref":"ﾔﾏﾅｼｹﾝ","kana_city":"ﾐﾅﾐｺﾏｸﾞﾝﾐﾉﾌﾞﾁｮｳ","kana_address":"ｲﾁﾉｾ","pref":"山梨県","city":"南巨摩郡身延町","address":"市之瀬"},
{"zip_code":"4092937","kana_pref":"ﾔﾏﾅｼｹﾝ","kana_city":"ﾐﾅﾐｺﾏｸﾞﾝﾐﾉﾌﾞﾁｮｳ","kana_address":"ｲｯｼｷ","pref":"山梨県","city":"南巨摩郡身延町","address":"一色"},
{"zip_code":"4093424","kana_pref":"ﾔﾏﾅｼｹﾝ","kana_city":"ﾐﾅﾐｺﾏｸﾞﾝﾐﾉﾌﾞﾁｮｳ","kana_address":"ｲﾇﾏ","pref":"山梨県","city":"南巨摩郡身延町","address":"伊沼"},
{"zip_code":"4092933","kana_pref":"ﾔﾏﾅｼｹﾝ","kana_city":"ﾐﾅﾐｺﾏｸﾞﾝﾐﾉﾌﾞﾁｮｳ","kana_address":"ｲﾜｶｹ","pref":"山梨県","city":"南巨摩郡身延町","address":"岩欠"},
{"zip_code":"4092947","kana_pref":"ﾔﾏﾅｼｹﾝ","kana_city":"ﾐﾅﾐｺﾏｸﾞﾝﾐﾉﾌﾞﾁｮｳ","kana_address":"ｳｴﾉﾀｲﾗ","pref":"山梨県","city":"南巨摩郡身延町","address":"上之平"},
{"zip_code":"4092531","kana_pref":"ﾔﾏﾅｼｹﾝ","kana_city":"ﾐﾅﾐｺﾏｸﾞﾝﾐﾉﾌﾞﾁｮｳ","kana_address":"ｳﾒﾀﾞｲﾗ","pref":"山梨県","city":"南巨摩郡身延町","address":"梅平"},
{"zip_code":"4093434","kana_pref":"ﾔﾏﾅｼｹﾝ","kana_city":"ﾐﾅﾐｺﾏｸﾞﾝﾐﾉﾌﾞﾁｮｳ","kana_address":"ｴｼﾞﾘｸﾎﾞ","pref":"山梨県","city":"南巨摩郡身延町","address":"江尻窪"},
{"zip_code":"4092934","kana_pref":"ﾔﾏﾅｼｹﾝ","kana_city":"ﾐﾅﾐｺﾏｸﾞﾝﾐﾉﾌﾞﾁｮｳ","kana_address":"ｵｲﾀﾞｲﾗ","pref":"山梨県","city":"南巨摩郡身延町","address":"大炊平"},
{"zip_code":"4093111","kana_pref":"ﾔﾏﾅｼｹﾝ","kana_city":"ﾐﾅﾐｺﾏｸﾞﾝﾐﾉﾌﾞﾁｮｳ","kana_address":"ｵｵｲｿｺｲｿ","pref":"山梨県","city":"南巨摩郡身延町","address":"大磯小磯"},
{"zip_code":"4092406","kana_pref":"ﾔﾏﾅｼｹﾝ","kana_city":"ﾐﾅﾐｺﾏｸﾞﾝﾐﾉﾌﾞﾁｮｳ","kana_address":"ｵｵｸｽﾞﾚ","pref":"山梨県","city":"南巨摩郡身延町","address":"大崩"},
{"zip_code":"4093311","kana_pref":"ﾔﾏﾅｼｹﾝ","kana_city":"ﾐﾅﾐｺﾏｸﾞﾝﾐﾉﾌﾞﾁｮｳ","kana_address":"ｵｵｼｵ","pref":"山梨県","city":"南巨摩郡身延町","address":"大塩"},
{"zip_code":"4092415","kana_pref":"ﾔﾏﾅｼｹﾝ","kana_city":"ﾐﾅﾐｺﾏｸﾞﾝﾐﾉﾌﾞﾁｮｳ","kana_address":"ｵｵｼﾏ","pref":"山梨県","city":"南巨摩郡身延町","address":"大島"},
{"zip_code":"4092537","kana_pref":"ﾔﾏﾅｼｹﾝ","kana_city":"ﾐﾅﾐｺﾏｸﾞﾝﾐﾉﾌﾞﾁｮｳ","kana_address":"ｵｵｼﾞﾛ","pref":"山梨県","city":"南巨摩郡身延町","address":"大城"},
{"zip_code":"4092404","kana_pref":"ﾔﾏﾅｼｹﾝ","kana_city":"ﾐﾅﾐｺﾏｸﾞﾝﾐﾉﾌﾞﾁｮｳ","kana_address":"ｵｵﾇﾀ","pref":"山梨県","city":"南巨摩郡身延町","address":"大垈"},
{"zip_code":"4092532","kana_pref":"ﾔﾏﾅｼｹﾝ","kana_city":"ﾐﾅﾐｺﾏｸﾞﾝﾐﾉﾌﾞﾁｮｳ","kana_address":"ｵｵﾉ","pref":"山梨県","city":"南巨摩郡身延町","address":"大野"},
{"zip_code":"4093121","kana_pref":"ﾔﾏﾅｼｹﾝ","kana_city":"ﾐﾅﾐｺﾏｸﾞﾝﾐﾉﾌﾞﾁｮｳ","kana_address":"ｵｵﾔﾏ","pref":"山梨県","city":"南巨摩郡身延町","address":"大山"},
{"zip_code":"4093433","kana_pref":"ﾔﾏﾅｼｹﾝ","kana_city":"ﾐﾅﾐｺﾏｸﾞﾝﾐﾉﾌﾞﾁｮｳ","kana_address":"ｵｿｻﾞﾜ","pref":"山梨県","city":"南巨摩郡身延町","address":"遅沢"},
{"zip_code":"4092539","kana_pref":"ﾔﾏﾅｼｹﾝ","kana_city":"ﾐﾅﾐｺﾏｸﾞﾝﾐﾉﾌﾞﾁｮｳ","kana_address":"ｵﾀﾞﾌﾅﾊﾗ","pref":"山梨県","city":"南巨摩郡身延町","address":"小田船原"},
{"zip_code":"4092403","kana_pref":"ﾔﾏﾅｼｹﾝ","kana_city":"ﾐﾅﾐｺﾏｸﾞﾝﾐﾉﾌﾞﾁｮｳ","kana_address":"ｵﾋﾞｶﾈ","pref":"山梨県","city":"南巨摩郡身延町","address":"帯金"},
{"zip_code":"4093101","kana_pref":"ﾔﾏﾅｼｹﾝ","kana_city":"ﾐﾅﾐｺﾏｸﾞﾝﾐﾉﾌﾞﾁｮｳ","kana_address":"ｵﾘｶﾄﾞ","pref":"山梨県","city":"南巨摩郡身延町","address":"折門"},
{"zip_code":"4092538","kana_pref":"ﾔﾏﾅｼｹﾝ","kana_city":"ﾐﾅﾐｺﾏｸﾞﾝﾐﾉﾌﾞﾁｮｳ","kana_address":"ｶﾄﾞﾉ","pref":"山梨県","city":"南巨摩郡身延町","address":"門野"},
{"zip_code":"4093105","kana_pref":"ﾔﾏﾅｼｹﾝ","kana_city":"ﾐﾅﾐｺﾏｸﾞﾝﾐﾉﾌﾞﾁｮｳ","kana_address":"ｶﾏﾋﾀｲ","pref":"山梨県","city":"南巨摩郡身延町","address":"釜額"},
{"zip_code":"4093118","kana_pref":"ﾔﾏﾅｼｹﾝ","kana_city":"ﾐﾅﾐｺﾏｸﾞﾝﾐﾉﾌﾞﾁｮｳ","kana_address":"ｶﾐﾀﾝﾊﾞﾗ","pref":"山梨県","city":"南巨摩郡身延町","address":"上田原"},
{"zip_code":"4092401","kana_pref":"ﾔﾏﾅｼｹﾝ","kana_city":"ﾐﾅﾐｺﾏｸﾞﾝﾐﾉﾌﾞﾁｮｳ","kana_address":"ｶﾐﾔｷﾞｻﾜ","pref":"山梨県","city":"南巨摩郡身延町","address":"上八木沢"},
{"zip_code":"4092943","kana_pref":"ﾔﾏﾅｼｹﾝ","kana_city":"ﾐﾅﾐｺﾏｸﾞﾝﾐﾉﾌﾞﾁｮｳ","kana_address":"ｶﾜﾑｷ","pref":"山梨県","city":"南巨摩郡身延町","address":"川向"},
{"zip_code":"4092931","kana_pref":"ﾔﾏﾅｼｹﾝ","kana_city":"ﾐﾅﾐｺﾏｸﾞﾝﾐﾉﾌﾞﾁｮｳ","kana_address":"ｷﾀｶﾞﾜ","pref":"山梨県","city":"南巨摩郡身延町","address":"北川"},
{"zip_code":"4092935","kana_pref":"ﾔﾏﾅｼｹﾝ","kana_city":"ﾐﾅﾐｺﾏｸﾞﾝﾐﾉﾌﾞﾁｮｳ","kana_address":"ｷﾖｻﾞﾜ","pref":"山梨県","city":"南巨摩郡身延町","address":"清沢"},
{"zip_code":"4093304","kana_pref":"ﾔﾏﾅｼｹﾝ","kana_city":"ﾐﾅﾐｺﾏｸﾞﾝﾐﾉﾌﾞﾁｮｳ","kana_address":"ｷﾘｲｼ","pref":"山梨県","city":"南巨摩郡身延町","address":"切石"},
{"zip_code":"4093115","kana_pref":"ﾔﾏﾅｼｹﾝ","kana_city":"ﾐﾅﾐｺﾏｸﾞﾝﾐﾉﾌﾞﾁｮｳ","kana_address":"ｷﾘﾌｻｷﾞ","pref":"山梨県","city":"南巨摩郡身延町","address":"切房木"},
{"zip_code":"4093312","kana_pref":"ﾔﾏﾅｼｹﾝ","kana_city":"ﾐﾅﾐｺﾏｸﾞﾝﾐﾉﾌﾞﾁｮｳ","kana_address":"ｸﾅﾘ","pref":"山梨県","city":"南巨摩郡身延町","address":"久成"},
{"zip_code":"4093122","kana_pref":"ﾔﾏﾅｼｹﾝ","kana_city":"ﾐﾅﾐｺﾏｸﾞﾝﾐﾉﾌﾞﾁｮｳ","kana_address":"ｸﾎﾞ","pref":"山梨県","city":"南巨摩郡身延町","address":"久保"},
{"zip_code":"4093123","kana_pref":"ﾔﾏﾅｼｹﾝ","kana_city":"ﾐﾅﾐｺﾏｸﾞﾝﾐﾉﾌﾞﾁｮｳ","kana_address":"ｸﾏｻﾞﾜ","pref":"山梨県","city":"南巨摩郡身延町","address":"熊沢"},
{"zip_code":"4093116","kana_pref":"ﾔﾏﾅｼｹﾝ","kana_city":"ﾐﾅﾐｺﾏｸﾞﾝﾐﾉﾌﾞﾁｮｳ","kana_address":"ｸﾙﾏﾀﾞ","pref":"山梨県","city":"南巨摩郡身延町","address":"車田"},
{"zip_code":"4093112","kana_pref":"ﾔﾏﾅｼｹﾝ","kana_city":"ﾐﾅﾐｺﾏｸﾞﾝﾐﾉﾌﾞﾁｮｳ","kana_address":"ｼﾊﾞｸｻ","pref":"山梨県","city":"南巨摩郡身延町","address":"芝草"},
{"zip_code":"4093305","kana_pref":"ﾔﾏﾅｼｹﾝ","kana_city":"ﾐﾅﾐｺﾏｸﾞﾝﾐﾉﾌﾞﾁｮｳ","kana_address":"ｼﾓﾀﾝﾊﾞﾗ","pref":"山梨県","city":"南巨摩郡身延町","address":"下田原"},
{"zip_code":"4092942","kana_pref":"ﾔﾏﾅｼｹﾝ","kana_city":"ﾐﾅﾐｺﾏｸﾞﾝﾐﾉﾌﾞﾁｮｳ","kana_address":"ｼﾓﾍﾞ","pref":"山梨県","city":"南巨摩郡身延町","address":"下部"},
{"zip_code":"4092402","kana_pref":"ﾔﾏﾅｼｹﾝ","kana_city":"ﾐﾅﾐｺﾏｸﾞﾝﾐﾉﾌﾞﾁｮｳ","kana_address":"ｼﾓﾔｷﾞｻﾜ","pref":"山梨県","city":"南巨摩郡身延町","address":"下八木沢"},
{"zip_code":"4092522","kana_pref":"ﾔﾏﾅｼｹﾝ","kana_city":"ﾐﾅﾐｺﾏｸﾞﾝﾐﾉﾌﾞﾁｮｳ","kana_address":"ｼﾓﾔﾏ","pref":"山梨県","city":"南巨摩郡身延町","address":"下山"},
{"zip_code":"4092932","kana_pref":"ﾔﾏﾅｼｹﾝ","kana_city":"ﾐﾅﾐｺﾏｸﾞﾝﾐﾉﾌﾞﾁｮｳ","kana_address":"ｽｷﾞﾔﾏ","pref":"山梨県","city":"南巨摩郡身延町","address":"杉山"},
{"zip_code":"4092533","kana_pref":"ﾔﾏﾅｼｹﾝ","kana_city":"ﾐﾅﾐｺﾏｸﾞﾝﾐﾉﾌﾞﾁｮｳ","kana_address":"ｾｲｺﾞ","pref":"山梨県","city":"南巨摩郡身延町","address":"清子"},
{"zip_code":"4093107","kana_pref":"ﾔﾏﾅｼｹﾝ","kana_city":"ﾐﾅﾐｺﾏｸﾞﾝﾐﾉﾌﾞﾁｮｳ","kana_address":"ｾﾄ","pref":"山梨県","city":"南巨摩郡身延町","address":"瀬戸"},
{"zip_code":"4092946","kana_pref":"ﾔﾏﾅｼｹﾝ","kana_city":"ﾐﾅﾐｺﾏｸﾞﾝﾐﾉﾌﾞﾁｮｳ","kana_address":"ﾀﾞｲｺﾞ","pref":"山梨県","city":"南巨摩郡身延町","address":"大子"},
{"zip_code":"4092412","kana_pref":"ﾔﾏﾅｼｹﾝ","kana_city":"ﾐﾅﾐｺﾏｸﾞﾝﾐﾉﾌﾞﾁｮｳ","kana_address":"ﾂﾉｳﾁ","pref":"山梨県","city":"南巨摩郡身延町","address":"角打"},
{"zip_code":"4092405","kana_pref":"ﾔﾏﾅｼｹﾝ","kana_city":"ﾐﾅﾐｺﾏｸﾞﾝﾐﾉﾌﾞﾁｮｳ","kana_address":"ﾂﾊﾞｷｿﾞｳﾘ","pref":"山梨県","city":"南巨摩郡身延町","address":"椿草里"},
{"zip_code":"4093302","kana_pref":"ﾔﾏﾅｼｹﾝ","kana_city":"ﾐﾅﾐｺﾏｸﾞﾝﾐﾉﾌﾞﾁｮｳ","kana_address":"ﾃｳﾁｻﾞﾜ","pref":"山梨県","city":"南巨摩郡身延町","address":"手打沢"},
{"zip_code":"4093303","kana_pref":"ﾔﾏﾅｼｹﾝ","kana_city":"ﾐﾅﾐｺﾏｸﾞﾝﾐﾉﾌﾞﾁｮｳ","kana_address":"ﾃﾗｻﾜ","pref":"山梨県","city":"南巨摩郡身延町","address":"寺沢"},
{"zip_code":"4093124","kana_pref":"ﾔﾏﾅｼｹﾝ","kana_city":"ﾐﾅﾐｺﾏｸﾞﾝﾐﾉﾌﾞﾁｮｳ","kana_address":"ﾄｲﾀﾞ","pref":"山梨県","city":"南巨摩郡身延町","address":"樋田"},
{"zip_code":"4092936","kana_pref":"ﾔﾏﾅｼｹﾝ","kana_city":"ﾐﾅﾐｺﾏｸﾞﾝﾐﾉﾌﾞﾁｮｳ","kana_address":"ﾄｷﾜ","pref":"山梨県","city":"南巨摩郡身延町","address":"常葉"},
{"zip_code":"4093104","kana_pref":"ﾔﾏﾅｼｹﾝ","kana_city":"ﾐﾅﾐｺﾏｸﾞﾝﾐﾉﾌﾞﾁｮｳ","kana_address":"ﾅｶﾉｸﾗ","pref":"山梨県","city":"南巨摩郡身延町","address":"中之倉"},
{"zip_code":"4093432","kana_pref":"ﾔﾏﾅｼｹﾝ","kana_city":"ﾐﾅﾐｺﾏｸﾞﾝﾐﾉﾌﾞﾁｮｳ","kana_address":"ﾅｶﾔﾏ","pref":"山梨県","city":"南巨摩郡身延町","address":"中山"},
{"zip_code":"4093435","kana_pref":"ﾔﾏﾅｼｹﾝ","kana_city":"ﾐﾅﾐｺﾏｸﾞﾝﾐﾉﾌﾞﾁｮｳ","kana_address":"ﾅｼｺﾞ","pref":"山梨県","city":"南巨摩郡身延町","address":"梨子"},
{"zip_code":"4093301","kana_pref":"ﾔﾏﾅｼｹﾝ","kana_city":"ﾐﾅﾐｺﾏｸﾞﾝﾐﾉﾌﾞﾁｮｳ","kana_address":"ﾆｼｼﾞﾏ","pref":"山梨県","city":"南巨摩郡身延町","address":"西嶋"},
{"zip_code":"4093103","kana_pref":"ﾔﾏﾅｼｹﾝ","kana_city":"ﾐﾅﾐｺﾏｸﾞﾝﾐﾉﾌﾞﾁｮｳ","kana_address":"ﾈｯｺ","pref":"山梨県","city":"南巨摩郡身延町","address":"根子"},
{"zip_code":"4092523","kana_pref":"ﾔﾏﾅｼｹﾝ","kana_city":"ﾐﾅﾐｺﾏｸﾞﾝﾐﾉﾌﾞﾁｮｳ","kana_address":"ﾊｷｲ","pref":"山梨県","city":"南巨摩郡身延町","address":"波木井"},
{"zip_code":"4092945","kana_pref":"ﾔﾏﾅｼｹﾝ","kana_city":"ﾐﾅﾐｺﾏｸﾞﾝﾐﾉﾌﾞﾁｮｳ","kana_address":"ﾊﾀﾞｶｼﾞﾏ","pref":"山梨県","city":"南巨摩郡身延町","address":"波高島"},
{"zip_code":"4093102","kana_pref":"ﾔﾏﾅｼｹﾝ","kana_city":"ﾐﾅﾐｺﾏｸﾞﾝﾐﾉﾌﾞﾁｮｳ","kana_address":"ﾊｯｻｶ","pref":"山梨県","city":"南巨摩郡身延町","address":"八坂"},
{"zip_code":"4093307","kana_pref":"ﾔﾏﾅｼｹﾝ","kana_city":"ﾐﾅﾐｺﾏｸﾞﾝﾐﾉﾌﾞﾁｮｳ","kana_address":"ﾋﾅﾀﾐﾅﾐｻﾞﾜ","pref":"山梨県","city":"南巨摩郡身延町","address":"日向南沢"},
{"zip_code":"4092414","kana_pref":"ﾔﾏﾅｼｹﾝ","kana_city":"ﾐﾅﾐｺﾏｸﾞﾝﾐﾉﾌﾞﾁｮｳ","kana_address":"ﾋﾉｳｴ","pref":"山梨県","city":"南巨摩郡身延町","address":"樋之上"},
{"zip_code":"4093313","kana_pref":"ﾔﾏﾅｼｹﾝ","kana_city":"ﾐﾅﾐｺﾏｸﾞﾝﾐﾉﾌﾞﾁｮｳ","kana_address":"ﾋﾗｽ","pref":"山梨県","city":"南巨摩郡身延町","address":"平須"},
{"zip_code":"4093436","kana_pref":"ﾔﾏﾅｼｹﾝ","kana_city":"ﾐﾅﾐｺﾏｸﾞﾝﾐﾉﾌﾞﾁｮｳ","kana_address":"ﾌｸﾊﾗ","pref":"山梨県","city":"南巨摩郡身延町","address":"福原"},
{"zip_code":"4093106","kana_pref":"ﾔﾏﾅｼｹﾝ","kana_city":"ﾐﾅﾐｺﾏｸﾞﾝﾐﾉﾌﾞﾁｮｳ","kana_address":"ﾌﾙｾｷ","pref":"山梨県","city":"南巨摩郡身延町","address":"古関"},
{"zip_code":"4093437","kana_pref":"ﾔﾏﾅｼｹﾝ","kana_city":"ﾐﾅﾐｺﾏｸﾞﾝﾐﾉﾌﾞﾁｮｳ","kana_address":"ﾌﾙﾊｾ","pref":"山梨県","city":"南巨摩郡身延町","address":"古長谷"},
{"zip_code":"4092411","kana_pref":"ﾔﾏﾅｼｹﾝ","kana_city":"ﾐﾅﾐｺﾏｸﾞﾝﾐﾉﾌﾞﾁｮｳ","kana_address":"ﾏﾙﾀｷ","pref":"山梨県","city":"南巨摩郡身延町","address":"丸滝"},
{"zip_code":"4093117","kana_pref":"ﾔﾏﾅｼｹﾝ","kana_city":"ﾐﾅﾐｺﾏｸﾞﾝﾐﾉﾌﾞﾁｮｳ","kana_address":"ﾐｻﾜ","pref":"山梨県","city":"南巨摩郡身延町","address":"三沢"},
{"zip_code":"4093113","kana_pref":"ﾔﾏﾅｼｹﾝ","kana_city":"ﾐﾅﾐｺﾏｸﾞﾝﾐﾉﾌﾞﾁｮｳ","kana_address":"ﾐｽﾞﾌﾈ","pref":"山梨県","city":"南巨摩郡身延町","address":"水船"},
{"zip_code":"4093114","kana_pref":"ﾔﾏﾅｼｹﾝ","kana_city":"ﾐﾅﾐｺﾏｸﾞﾝﾐﾉﾌﾞﾁｮｳ","kana_address":"ﾐﾁ","pref":"山梨県","city":"南巨摩郡身延町","address":"道"},
{"zip_code":"4092534","kana_pref":"ﾔﾏﾅｼｹﾝ","kana_city":"ﾐﾅﾐｺﾏｸﾞﾝﾐﾉﾌﾞﾁｮｳ","kana_address":"ﾐﾂｺﾞｻﾞﾜ","pref":"山梨県","city":"南巨摩郡身延町","address":"光子沢"},
{"zip_code":"4093125","kana_pref":"ﾔﾏﾅｼｹﾝ","kana_city":"ﾐﾅﾐｺﾏｸﾞﾝﾐﾉﾌﾞﾁｮｳ","kana_address":"ﾐﾈ","pref":"山梨県","city":"南巨摩郡身延町","address":"嶺"},
{"zip_code":"4092524","kana_pref":"ﾔﾏﾅｼｹﾝ","kana_city":"ﾐﾅﾐｺﾏｸﾞﾝﾐﾉﾌﾞﾁｮｳ","kana_address":"ﾐﾉﾌﾞ","pref":"山梨県","city":"南巨摩郡身延町","address":"身延"},
{"zip_code":"4093422","kana_pref":"ﾔﾏﾅｼｹﾝ","kana_city":"ﾐﾅﾐｺﾏｸﾞﾝﾐﾉﾌﾞﾁｮｳ","kana_address":"ﾐﾔｷ","pref":"山梨県","city":"南巨摩郡身延町","address":"宮木"},
{"zip_code":"4092944","kana_pref":"ﾔﾏﾅｼｹﾝ","kana_city":"ﾐﾅﾐｺﾏｸﾞﾝﾐﾉﾌﾞﾁｮｳ","kana_address":"ﾓﾓｶﾞｸﾎﾞ","pref":"山梨県","city":"南巨摩郡身延町","address":"桃ケ窪"},
{"zip_code":"4093431","kana_pref":"ﾔﾏﾅｼｹﾝ","kana_city":"ﾐﾅﾐｺﾏｸﾞﾝﾐﾉﾌﾞﾁｮｳ","kana_address":"ﾔｻｲｸ","pref":"山梨県","city":"南巨摩郡身延町","address":"矢細工"},
{"zip_code":"4093126","kana_pref":"ﾔﾏﾅｼｹﾝ","kana_city":"ﾐﾅﾐｺﾏｸﾞﾝﾐﾉﾌﾞﾁｮｳ","kana_address":"ﾔﾏｶﾞ","pref":"山梨県","city":"南巨摩郡身延町","address":"山家"},
{"zip_code":"4092941","kana_pref":"ﾔﾏﾅｼｹﾝ","kana_city":"ﾐﾅﾐｺﾏｸﾞﾝﾐﾉﾌﾞﾁｮｳ","kana_address":"ﾕﾉｵｸ","pref":"山梨県","city":"南巨摩郡身延町","address":"湯之奥"},
{"zip_code":"4093421","kana_pref":"ﾔﾏﾅｼｹﾝ","kana_city":"ﾐﾅﾐｺﾏｸﾞﾝﾐﾉﾌﾞﾁｮｳ","kana_address":"ﾖｳｶｲﾁﾊﾞ","pref":"山梨県","city":"南巨摩郡身延町","address":"八日市場"},
{"zip_code":"4093306","kana_pref":"ﾔﾏﾅｼｹﾝ","kana_city":"ﾐﾅﾐｺﾏｸﾞﾝﾐﾉﾌﾞﾁｮｳ","kana_address":"ﾖｺﾞｻﾜ","pref":"山梨県","city":"南巨摩郡身延町","address":"夜子沢"},
{"zip_code":"4092535","kana_pref":"ﾔﾏﾅｼｹﾝ","kana_city":"ﾐﾅﾐｺﾏｸﾞﾝﾐﾉﾌﾞﾁｮｳ","kana_address":"ﾖｺﾈﾅｶ","pref":"山梨県","city":"南巨摩郡身延町","address":"横根中"},
{"zip_code":"4092413","kana_pref":"ﾔﾏﾅｼｹﾝ","kana_city":"ﾐﾅﾐｺﾏｸﾞﾝﾐﾉﾌﾞﾁｮｳ","kana_address":"ﾜﾀﾞ","pref":"山梨県","city":"南巨摩郡身延町","address":"和田"},
{"zip_code":"4092100","kana_pref":"ﾔﾏﾅｼｹﾝ","kana_city":"ﾐﾅﾐｺﾏｸﾞﾝﾅﾝﾌﾞﾁｮｳ","kana_address":"","pref":"山梨県","city":"南巨摩郡南部町","address":""},
{"zip_code":"4092304","kana_pref":"ﾔﾏﾅｼｹﾝ","kana_city":"ﾐﾅﾐｺﾏｸﾞﾝﾅﾝﾌﾞﾁｮｳ","kana_address":"ｲﾃﾞ","pref":"山梨県","city":"南巨摩郡南部町","address":"井出"},
{"zip_code":"4092305","kana_pref":"ﾔﾏﾅｼｹﾝ","kana_city":"ﾐﾅﾐｺﾏｸﾞﾝﾅﾝﾌﾞﾁｮｳ","kana_address":"ｳﾂﾌﾞﾅ","pref":"山梨県","city":"南巨摩郡南部町","address":"内船"},
{"zip_code":"4092213","kana_pref":"ﾔﾏﾅｼｹﾝ","kana_city":"ﾐﾅﾐｺﾏｸﾞﾝﾅﾝﾌﾞﾁｮｳ","kana_address":"ｵｵﾜ","pref":"山梨県","city":"南巨摩郡南部町","address":"大和"},
{"zip_code":"4092101","kana_pref":"ﾔﾏﾅｼｹﾝ","kana_city":"ﾐﾅﾐｺﾏｸﾞﾝﾅﾝﾌﾞﾁｮｳ","kana_address":"ｶｿﾞﾈ","pref":"山梨県","city":"南巨摩郡南部町","address":"楮根"},
{"zip_code":"4092301","kana_pref":"ﾔﾏﾅｼｹﾝ","kana_city":"ﾐﾅﾐｺﾏｸﾞﾝﾅﾝﾌﾞﾁｮｳ","kana_address":"ｶﾐｻﾉ","pref":"山梨県","city":"南巨摩郡南部町","address":"上佐野"},
{"zip_code":"4092214","kana_pref":"ﾔﾏﾅｼｹﾝ","kana_city":"ﾐﾅﾐｺﾏｸﾞﾝﾅﾝﾌﾞﾁｮｳ","kana_address":"ｼｵｻﾞﾜ","pref":"山梨県","city":"南巨摩郡南部町","address":"塩沢"},
{"zip_code":"4092302","kana_pref":"ﾔﾏﾅｼｹﾝ","kana_city":"ﾐﾅﾐｺﾏｸﾞﾝﾅﾝﾌﾞﾁｮｳ","kana_address":"ｼﾓｻﾉ","pref":"山梨県","city":"南巨摩郡南部町","address":"下佐野"},
{"zip_code":"4092303","kana_pref":"ﾔﾏﾅｼｹﾝ","kana_city":"ﾐﾅﾐｺﾏｸﾞﾝﾅﾝﾌﾞﾁｮｳ","kana_address":"ﾄｵｼﾏ","pref":"山梨県","city":"南巨摩郡南部町","address":"十島"},
{"zip_code":"4092211","kana_pref":"ﾔﾏﾅｼｹﾝ","kana_city":"ﾐﾅﾐｺﾏｸﾞﾝﾅﾝﾌﾞﾁｮｳ","kana_address":"ﾅｶﾉ","pref":"山梨県","city":"南巨摩郡南部町","address":"中野"},
{"zip_code":"4092216","kana_pref":"ﾔﾏﾅｼｹﾝ","kana_city":"ﾐﾅﾐｺﾏｸﾞﾝﾅﾝﾌﾞﾁｮｳ","kana_address":"ﾅﾙｼﾏ","pref":"山梨県","city":"南巨摩郡南部町","address":"成島"},
{"zip_code":"4092212","kana_pref":"ﾔﾏﾅｼｹﾝ","kana_city":"ﾐﾅﾐｺﾏｸﾞﾝﾅﾝﾌﾞﾁｮｳ","kana_address":"ﾅﾝﾌﾞ","pref":"山梨県","city":"南巨摩郡南部町","address":"南部"},
{"zip_code":"4092102","kana_pref":"ﾔﾏﾅｼｹﾝ","kana_city":"ﾐﾅﾐｺﾏｸﾞﾝﾅﾝﾌﾞﾁｮｳ","kana_address":"ﾌｸｼ","pref":"山梨県","city":"南巨摩郡南部町","address":"福士"},
{"zip_code":"4092217","kana_pref":"ﾔﾏﾅｼｹﾝ","kana_city":"ﾐﾅﾐｺﾏｸﾞﾝﾅﾝﾌﾞﾁｮｳ","kana_address":"ﾎﾝｺﾞｳ","pref":"山梨県","city":"南巨摩郡南部町","address":"本郷"},
{"zip_code":"4092103","kana_pref":"ﾔﾏﾅｼｹﾝ","kana_city":"ﾐﾅﾐｺﾏｸﾞﾝﾅﾝﾌﾞﾁｮｳ","kana_address":"ﾏﾝｻﾞﾜ","pref":"山梨県","city":"南巨摩郡南部町","address":"万沢"},
{"zip_code":"4092215","kana_pref":"ﾔﾏﾅｼｹﾝ","kana_city":"ﾐﾅﾐｺﾏｸﾞﾝﾅﾝﾌﾞﾁｮｳ","kana_address":"ﾔﾅｷﾞｼﾏ","pref":"山梨県","city":"南巨摩郡南部町","address":"柳島"},
{"zip_code":"4093800","kana_pref":"ﾔﾏﾅｼｹﾝ","kana_city":"ﾅｶｺﾏｸﾞﾝｼｮｳﾜﾁｮｳ","kana_address":"","pref":"山梨県","city":"中巨摩郡昭和町","address":""},
{"zip_code":"4093852","kana_pref":"ﾔﾏﾅｼｹﾝ","kana_city":"ﾅｶｺﾏｸﾞﾝｼｮｳﾜﾁｮｳ","kana_address":"ｲｯｸｲ","pref":"山梨県","city":"中巨摩郡昭和町","address":"飯喰"},
{"zip_code":"4093864","kana_pref":"ﾔﾏﾅｼｹﾝ","kana_city":"ﾅｶｺﾏｸﾞﾝｼｮｳﾜﾁｮｳ","kana_address":"ｵｼｺｼ","pref":"山梨県","city":"中巨摩郡昭和町","address":"押越"},
{"zip_code":"4093851","kana_pref":"ﾔﾏﾅｼｹﾝ","kana_city":"ﾅｶｺﾏｸﾞﾝｼｮｳﾜﾁｮｳ","kana_address":"ｶｻｲ","pref":"山梨県","city":"中巨摩郡昭和町","address":"河西"},
{"zip_code":"4093863","kana_pref":"ﾔﾏﾅｼｹﾝ","kana_city":"ﾅｶｺﾏｸﾞﾝｼｮｳﾜﾁｮｳ","kana_address":"ｶﾄｳﾅｶｼﾞﾏ","pref":"山梨県","city":"中巨摩郡昭和町","address":"河東中島"},
{"zip_code":"4093862","kana_pref":"ﾔﾏﾅｼｹﾝ","kana_city":"ﾅｶｺﾏｸﾞﾝｼｮｳﾜﾁｮｳ","kana_address":"ｶﾐｶﾞﾄｳ","pref":"山梨県","city":"中巨摩郡昭和町","address":"上河東"},
{"zip_code":"4093861","kana_pref":"ﾔﾏﾅｼｹﾝ","kana_city":"ﾅｶｺﾏｸﾞﾝｼｮｳﾜﾁｮｳ","kana_address":"ｶﾐｽｷｱﾜﾗ","pref":"山梨県","city":"中巨摩郡昭和町","address":"紙漉阿原"},
{"zip_code":"4093866","kana_pref":"ﾔﾏﾅｼｹﾝ","kana_city":"ﾅｶｺﾏｸﾞﾝｼｮｳﾜﾁｮｳ","kana_address":"ｻｲｼﾞｮｳ","pref":"山梨県","city":"中巨摩郡昭和町","address":"西条"},
{"zip_code":"4093865","kana_pref":"ﾔﾏﾅｼｹﾝ","kana_city":"ﾅｶｺﾏｸﾞﾝｼｮｳﾜﾁｮｳ","kana_address":"ｻｲｼﾞｮｳｼﾝﾃﾞﾝ","pref":"山梨県","city":"中巨摩郡昭和町","address":"西条新田"},
{"zip_code":"4093867","kana_pref":"ﾔﾏﾅｼｹﾝ","kana_city":"ﾅｶｺﾏｸﾞﾝｼｮｳﾜﾁｮｳ","kana_address":"ｼﾐｽﾞｱﾗｲ","pref":"山梨県","city":"中巨摩郡昭和町","address":"清水新居"},
{"zip_code":"4093853","kana_pref":"ﾔﾏﾅｼｹﾝ","kana_city":"ﾅｶｺﾏｸﾞﾝｼｮｳﾜﾁｮｳ","kana_address":"ﾂｲｼﾞｱﾗｲ","pref":"山梨県","city":"中巨摩郡昭和町","address":"築地新居"},
{"zip_code":"4093854","kana_pref":"ﾔﾏﾅｼｹﾝ","kana_city":"ﾅｶｺﾏｸﾞﾝｼｮｳﾜﾁｮｳ","kana_address":"ﾂｲｼﾞｼﾝﾃﾞﾝ","pref":"山梨県","city":"中巨摩郡昭和町","address":"築地新田"},
{"zip_code":"4090200","kana_pref":"ﾔﾏﾅｼｹﾝ","kana_city":"ｷﾀﾂﾙｸﾞﾝｺｽｹﾞﾑﾗ","kana_address":"","pref":"山梨県","city":"北都留郡小菅村","address":""},
{"zip_code":"4090142","kana_pref":"ﾔﾏﾅｼｹﾝ","kana_city":"ｷﾀﾂﾙｸﾞﾝｺｽｹﾞﾑﾗ","kana_address":"ｺｽｹﾞﾑﾗ","pref":"山梨県","city":"北都留郡小菅村","address":"小菅村"},
{"zip_code":"4090211","kana_pref":"ﾔﾏﾅｼｹﾝ","kana_city":"ｷﾀﾂﾙｸﾞﾝｺｽｹﾞﾑﾗ","kana_address":"ｺｽｹﾞﾑﾗ","pref":"山梨県","city":"北都留郡小菅村","address":"小菅村"},
{"zip_code":"4090300","kana_pref":"ﾔﾏﾅｼｹﾝ","kana_city":"ｷﾀﾂﾙｸﾞﾝﾀﾊﾞﾔﾏﾑﾗ","kana_address":"","pref":"山梨県","city":"北都留郡丹波山村","address":""},
{"zip_code":"4090301","kana_pref":"ﾔﾏﾅｼｹﾝ","kana_city":"ｷﾀﾂﾙｸﾞﾝﾀﾊﾞﾔﾏﾑﾗ","kana_address":"ｵｸｱｷ","pref":"山梨県","city":"北都留郡丹波山村","address":"奥秋"},
{"zip_code":"4090306","kana_pref":"ﾔﾏﾅｼｹﾝ","kana_city":"ｷﾀﾂﾙｸﾞﾝﾀﾊﾞﾔﾏﾑﾗ","kana_address":"ｵｼｶﾞｲﾄ","pref":"山梨県","city":"北都留郡丹波山村","address":"押垣外"},
{"zip_code":"4090314","kana_pref":"ﾔﾏﾅｼｹﾝ","kana_city":"ｷﾀﾂﾙｸﾞﾝﾀﾊﾞﾔﾏﾑﾗ","kana_address":"ｵﾏﾂﾘ","pref":"山梨県","city":"北都留郡丹波山村","address":"御祭"},
{"zip_code":"4090313","kana_pref":"ﾔﾏﾅｼｹﾝ","kana_city":"ｷﾀﾂﾙｸﾞﾝﾀﾊﾞﾔﾏﾑﾗ","kana_address":"ｵﾔｶﾞﾜ","pref":"山梨県","city":"北都留郡丹波山村","address":"親川"},
{"zip_code":"4090302","kana_pref":"ﾔﾏﾅｼｹﾝ","kana_city":"ｷﾀﾂﾙｸﾞﾝﾀﾊﾞﾔﾏﾑﾗ","kana_address":"ｶﾐｸﾞﾐ","pref":"山梨県","city":"北都留郡丹波山村","address":"上組"},
{"zip_code":"4090318","kana_pref":"ﾔﾏﾅｼｹﾝ","kana_city":"ｷﾀﾂﾙｸﾞﾝﾀﾊﾞﾔﾏﾑﾗ","kana_address":"ｶﾓｻﾜ","pref":"山梨県","city":"北都留郡丹波山村","address":"鴨沢"},
{"zip_code":"4090317","kana_pref":"ﾔﾏﾅｼｹﾝ","kana_city":"ｷﾀﾂﾙｸﾞﾝﾀﾊﾞﾔﾏﾑﾗ","kana_address":"ｺｿﾃﾞ","pref":"山梨県","city":"北都留郡丹波山村","address":"小袖"},
{"zip_code":"4090304","kana_pref":"ﾔﾏﾅｼｹﾝ","kana_city":"ｷﾀﾂﾙｸﾞﾝﾀﾊﾞﾔﾏﾑﾗ","kana_address":"ｼﾓｸﾞﾐ","pref":"山梨県","city":"北都留郡丹波山村","address":"下組"},
{"zip_code":"4090315","kana_pref":"ﾔﾏﾅｼｹﾝ","kana_city":"ｷﾀﾂﾙｸﾞﾝﾀﾊﾞﾔﾏﾑﾗ","kana_address":"ｽｷﾞﾅｸﾎﾞ","pref":"山梨県","city":"北都留郡丹波山村","address":"杉奈久保"},
{"zip_code":"4090305","kana_pref":"ﾔﾏﾅｼｹﾝ","kana_city":"ｷﾀﾂﾙｸﾞﾝﾀﾊﾞﾔﾏﾑﾗ","kana_address":"ﾀｶｵ","pref":"山梨県","city":"北都留郡丹波山村","address":"高尾"},
{"zip_code":"4090312","kana_pref":"ﾔﾏﾅｼｹﾝ","kana_city":"ｷﾀﾂﾙｸﾞﾝﾀﾊﾞﾔﾏﾑﾗ","kana_address":"ﾀｶﾊﾀ","pref":"山梨県","city":"北都留郡丹波山村","address":"高畑"},
{"zip_code":"4090316","kana_pref":"ﾔﾏﾅｼｹﾝ","kana_city":"ｷﾀﾂﾙｸﾞﾝﾀﾊﾞﾔﾏﾑﾗ","kana_address":"ﾄｺﾛﾊﾀ","pref":"山梨県","city":"北都留郡丹波山村","address":"所畑"},
{"zip_code":"4090303","kana_pref":"ﾔﾏﾅｼｹﾝ","kana_city":"ｷﾀﾂﾙｸﾞﾝﾀﾊﾞﾔﾏﾑﾗ","kana_address":"ﾅｶｸﾞﾐ","pref":"山梨県","city":"北都留郡丹波山村","address":"中組"},
{"zip_code":"4090311","kana_pref":"ﾔﾏﾅｼｹﾝ","kana_city":"ｷﾀﾂﾙｸﾞﾝﾀﾊﾞﾔﾏﾑﾗ","kana_address":"ﾎﾉｾ","pref":"山梨県","city":"北都留郡丹波山村","address":"保之瀬"}]}