{"zip_code":[
{"zip_code":"4100000","kana_pref":"ｼｽﾞｵｶｹﾝ","kana_city":"ﾇﾏﾂﾞｼ","kana_address":"","pref":"静岡県","city":"沼津市","address":""},
{"zip_code":"4100802","kana_pref":"ｼｽﾞｵｶｹﾝ","kana_city":"ﾇﾏﾂﾞｼ","kana_address":"ｱｹﾞﾂﾁﾁｮｳ","pref":"静岡県","city":"沼津市","address":"上土町"},
{"zip_code":"4100852","kana_pref":"ｼｽﾞｵｶｹﾝ","kana_city":"ﾇﾏﾂﾞｼ","kana_address":"ｱｻﾋﾁｮｳ","pref":"静岡県","city":"沼津市","address":"旭町"},
{"zip_code":"4100001","kana_pref":"ｼｽﾞｵｶｹﾝ","kana_city":"ﾇﾏﾂﾞｼ","kana_address":"ｱｼﾀｶ","pref":"静岡県","city":"沼津市","address":"足高"},
{"zip_code":"4100317","kana_pref":"ｼｽﾞｵｶｹﾝ","kana_city":"ﾇﾏﾂﾞｼ","kana_address":"ｲｼｶﾜ","pref":"静岡県","city":"沼津市","address":"石川"},
{"zip_code":"4100045","kana_pref":"ｼｽﾞｵｶｹﾝ","kana_city":"ﾇﾏﾂﾞｼ","kana_address":"ｲｽﾞﾐﾁｮｳ","pref":"静岡県","city":"沼津市","address":"泉町"},
{"zip_code":"4103401","kana_pref":"ｼｽﾞｵｶｹﾝ","kana_city":"ﾇﾏﾂﾞｼ","kana_address":"ｲﾀ","pref":"静岡県","city":"沼津市","address":"井田"},
{"zip_code":"4100831","kana_pref":"ｼｽﾞｵｶｹﾝ","kana_city":"ﾇﾏﾂﾞｼ","kana_address":"ｲﾁﾊﾞﾁｮｳ","pref":"静岡県","city":"沼津市","address":"市場町"},
{"zip_code":"4100866","kana_pref":"ｼｽﾞｵｶｹﾝ","kana_city":"ﾇﾏﾂﾞｼ","kana_address":"ｲﾁﾐﾁ","pref":"静岡県","city":"沼津市","address":"市道"},
{"zip_code":"4100314","kana_pref":"ｼｽﾞｵｶｹﾝ","kana_city":"ﾇﾏﾂﾞｼ","kana_address":"ｲｯﾎﾟﾝﾏﾂ","pref":"静岡県","city":"沼津市","address":"一本松"},
{"zip_code":"4100319","kana_pref":"ｼｽﾞｵｶｹﾝ","kana_city":"ﾇﾏﾂﾞｼ","kana_address":"ｲﾃﾞ","pref":"静岡県","city":"沼津市","address":"井出"},
{"zip_code":"4100875","kana_pref":"ｼｽﾞｵｶｹﾝ","kana_city":"ﾇﾏﾂﾞｼ","kana_address":"ｲﾏｻﾞﾜ","pref":"静岡県","city":"沼津市","address":"今沢"},
{"zip_code":"4100316","kana_pref":"ｼｽﾞｵｶｹﾝ","kana_city":"ﾇﾏﾂﾞｼ","kana_address":"ｳｴﾀﾞ","pref":"静岡県","city":"沼津市","address":"植田"},
{"zip_code":"4100892","kana_pref":"ｼｽﾞｵｶｹﾝ","kana_city":"ﾇﾏﾂﾞｼ","kana_address":"ｳｵﾁｮｳ","pref":"静岡県","city":"沼津市","address":"魚町"},
{"zip_code":"4100225","kana_pref":"ｼｽﾞｵｶｹﾝ","kana_city":"ﾇﾏﾂﾞｼ","kana_address":"ｳﾁｳﾗｵﾓｽ","pref":"静岡県","city":"沼津市","address":"内浦重須"},
{"zip_code":"4100222","kana_pref":"ｼｽﾞｵｶｹﾝ","kana_city":"ﾇﾏﾂﾞｼ","kana_address":"ｳﾁｳﾗｺｳﾐ","pref":"静岡県","city":"沼津市","address":"内浦小海"},
{"zip_code":"4100221","kana_pref":"ｼｽﾞｵｶｹﾝ","kana_city":"ﾇﾏﾂﾞｼ","kana_address":"ｳﾁｳﾗｼｹﾞﾃﾞﾗ","pref":"静岡県","city":"沼津市","address":"内浦重寺"},
{"zip_code":"4100224","kana_pref":"ｼｽﾞｵｶｹﾝ","kana_city":"ﾇﾏﾂﾞｼ","kana_address":"ｳﾁｳﾗﾅｶﾞﾊﾏ","pref":"静岡県","city":"沼津市","address":"内浦長浜"},
{"zip_code":"4100223","kana_pref":"ｼｽﾞｵｶｹﾝ","kana_city":"ﾇﾏﾂﾞｼ","kana_address":"ｳﾁｳﾗﾐﾄ","pref":"静岡県","city":"沼津市","address":"内浦三津"},
{"zip_code":"4100103","kana_pref":"ｼｽﾞｵｶｹﾝ","kana_city":"ﾇﾏﾂﾞｼ","kana_address":"ｴﾉｳﾗ","pref":"静岡県","city":"沼津市","address":"江浦"},
{"zip_code":"4100049","kana_pref":"ｼｽﾞｵｶｹﾝ","kana_city":"ﾇﾏﾂﾞｼ","kana_address":"ｴﾊﾞﾗﾁｮｳ","pref":"静岡県","city":"沼津市","address":"江原町"},
{"zip_code":"4100022","kana_pref":"ｼｽﾞｵｶｹﾝ","kana_city":"ﾇﾏﾂﾞｼ","kana_address":"ｵｵｵｶ","pref":"静岡県","city":"沼津市","address":"大岡"},
{"zip_code":"4100873","kana_pref":"ｼｽﾞｵｶｹﾝ","kana_city":"ﾇﾏﾂﾞｼ","kana_address":"ｵｵｽﾞﾜ","pref":"静岡県","city":"沼津市","address":"大諏訪"},
{"zip_code":"4100306","kana_pref":"ｼｽﾞｵｶｹﾝ","kana_city":"ﾇﾏﾂﾞｼ","kana_address":"ｵｵﾂｶ","pref":"静岡県","city":"沼津市","address":"大塚"},
{"zip_code":"4100801","kana_pref":"ｼｽﾞｵｶｹﾝ","kana_city":"ﾇﾏﾂﾞｼ","kana_address":"ｵｵﾃﾏﾁ","pref":"静岡県","city":"沼津市","address":"大手町"},
{"zip_code":"4100307","kana_pref":"ｼｽﾞｵｶｹﾝ","kana_city":"ﾇﾏﾂﾞｼ","kana_address":"ｵｵﾉ","pref":"静岡県","city":"沼津市","address":"青野"},
{"zip_code":"4100821","kana_pref":"ｼｽﾞｵｶｹﾝ","kana_city":"ﾇﾏﾂﾞｼ","kana_address":"ｵｵﾋﾗ","pref":"静岡県","city":"沼津市","address":"大平"},
{"zip_code":"4100012","kana_pref":"ｼｽﾞｵｶｹﾝ","kana_city":"ﾇﾏﾂﾞｼ","kana_address":"ｵｶｲｯｼｷ","pref":"静岡県","city":"沼津市","address":"岡一色"},
{"zip_code":"4100011","kana_pref":"ｼｽﾞｵｶｹﾝ","kana_city":"ﾇﾏﾂﾞｼ","kana_address":"ｵｶﾉﾐﾔ","pref":"静岡県","city":"沼津市","address":"岡宮"},
{"zip_code":"4100844","kana_pref":"ｼｽﾞｵｶｹﾝ","kana_city":"ﾇﾏﾂﾞｼ","kana_address":"ｶｽｶﾞﾁｮｳ","pref":"静岡県","city":"沼津市","address":"春日町"},
{"zip_code":"4100823","kana_pref":"ｼｽﾞｵｶｹﾝ","kana_city":"ﾇﾏﾂﾞｼ","kana_address":"ｶﾞﾆｭｳﾄﾞｳ","pref":"静岡県","city":"沼津市","address":"我入道"},
{"zip_code":"4100824","kana_pref":"ｼｽﾞｵｶｹﾝ","kana_city":"ﾇﾏﾂﾞｼ","kana_address":"ｶﾇｷｶﾞｵｶ","pref":"静岡県","city":"沼津市","address":"香貫が丘"},
{"zip_code":"4100813","kana_pref":"ｼｽﾞｵｶｹﾝ","kana_city":"ﾇﾏﾂﾞｼ","kana_address":"ｶﾐｶﾇｷ","pref":"静岡県","city":"沼津市","address":"上香貫"},
{"zip_code":"4100042","kana_pref":"ｼｽﾞｵｶｹﾝ","kana_city":"ﾇﾏﾂﾞｼ","kana_address":"ｶﾝﾀﾞﾁｮｳ","pref":"静岡県","city":"沼津市","address":"神田町"},
{"zip_code":"4100876","kana_pref":"ｼｽﾞｵｶｹﾝ","kana_city":"ﾇﾏﾂﾞｼ","kana_address":"ｷﾀｲﾏｻﾞﾜ","pref":"静岡県","city":"沼津市","address":"北今沢"},
{"zip_code":"4100061","kana_pref":"ｼｽﾞｵｶｹﾝ","kana_city":"ﾇﾏﾂﾞｼ","kana_address":"ｷﾀｿﾞﾉﾁｮｳ","pref":"静岡県","city":"沼津市","address":"北園町"},
{"zip_code":"4100054","kana_pref":"ｼｽﾞｵｶｹﾝ","kana_city":"ﾇﾏﾂﾞｼ","kana_address":"ｷﾀﾀｶｼﾏﾁｮｳ","pref":"静岡県","city":"沼津市","address":"北高島町"},
{"zip_code":"4100064","kana_pref":"ｼｽﾞｵｶｹﾝ","kana_city":"ﾇﾏﾂﾞｼ","kana_address":"ｷｮｳｴｲﾁｮｳ","pref":"静岡県","city":"沼津市","address":"共栄町"},
{"zip_code":"4100102","kana_pref":"ｼｽﾞｵｶｹﾝ","kana_city":"ﾇﾏﾂﾞｼ","kana_address":"ｸﾁﾉ","pref":"静岡県","city":"沼津市","address":"口野"},
{"zip_code":"4100893","kana_pref":"ｼｽﾞｵｶｹﾝ","kana_city":"ﾇﾏﾂﾞｼ","kana_address":"ｸﾏﾀﾞｶﾁｮｳ","pref":"静岡県","city":"沼津市","address":"くまだか町"},
{"zip_code":"4100819","kana_pref":"ｼｽﾞｵｶｹﾝ","kana_city":"ﾇﾏﾂﾞｼ","kana_address":"ｸﾛｾﾁｮｳ","pref":"静岡県","city":"沼津市","address":"黒瀬町"},
{"zip_code":"4100872","kana_pref":"ｼｽﾞｵｶｹﾝ","kana_city":"ﾇﾏﾂﾞｼ","kana_address":"ｺｽﾞﾜ","pref":"静岡県","city":"沼津市","address":"小諏訪"},
{"zip_code":"4100053","kana_pref":"ｼｽﾞｵｶｹﾝ","kana_city":"ﾇﾏﾂﾞｼ","kana_address":"ｺﾄﾌﾞｷﾁｮｳ","pref":"静岡県","city":"沼津市","address":"寿町"},
{"zip_code":"4100021","kana_pref":"ｼｽﾞｵｶｹﾝ","kana_city":"ﾇﾏﾂﾞｼ","kana_address":"ｺﾊﾞﾔｼﾀﾞｲ","pref":"静岡県","city":"沼津市","address":"小林台"},
{"zip_code":"4100804","kana_pref":"ｼｽﾞｵｶｹﾝ","kana_city":"ﾇﾏﾂﾞｼ","kana_address":"ｻｲｼﾞｮｳﾁｮｳ","pref":"静岡県","city":"沼津市","address":"西条町"},
{"zip_code":"4100862","kana_pref":"ｼｽﾞｵｶｹﾝ","kana_city":"ﾇﾏﾂﾞｼ","kana_address":"ｻｲﾜｲﾁｮｳ","pref":"静岡県","city":"沼津市","address":"幸町"},
{"zip_code":"4100044","kana_pref":"ｼｽﾞｵｶｹﾝ","kana_city":"ﾇﾏﾂﾞｼ","kana_address":"ｻﾂｷﾁｮｳ","pref":"静岡県","city":"沼津市","address":"五月町"},
{"zip_code":"4100052","kana_pref":"ｼｽﾞｵｶｹﾝ","kana_city":"ﾇﾏﾂﾞｼ","kana_address":"ｻﾜﾀﾞﾁｮｳ","pref":"静岡県","city":"沼津市","address":"沢田町"},
{"zip_code":"4100035","kana_pref":"ｼｽﾞｵｶｹﾝ","kana_city":"ﾇﾏﾂﾞｼ","kana_address":"ｻﾝﾉｳﾀﾞｲ","pref":"静岡県","city":"沼津市","address":"山王台"},
{"zip_code":"4100031","kana_pref":"ｼｽﾞｵｶｹﾝ","kana_city":"ﾇﾏﾂﾞｼ","kana_address":"ｻﾝﾏｲﾊﾞｼ","pref":"静岡県","city":"沼津市","address":"三枚橋"},
{"zip_code":"4100037","kana_pref":"ｼｽﾞｵｶｹﾝ","kana_city":"ﾇﾏﾂﾞｼ","kana_address":"ｻﾝﾏｲﾊﾞｼﾁｮｳ","pref":"静岡県","city":"沼津市","address":"三枚橋町"},
{"zip_code":"4100106","kana_pref":"ｼｽﾞｵｶｹﾝ","kana_city":"ﾇﾏﾂﾞｼ","kana_address":"ｼｹﾞ","pref":"静岡県","city":"沼津市","address":"志下"},
{"zip_code":"4100104","kana_pref":"ｼｽﾞｵｶｹﾝ","kana_city":"ﾇﾏﾂﾞｼ","kana_address":"ｼｼﾊﾏ","pref":"静岡県","city":"沼津市","address":"獅子浜"},
{"zip_code":"4100867","kana_pref":"ｼｽﾞｵｶｹﾝ","kana_city":"ﾇﾏﾂﾞｼ","kana_address":"ｼﾀｺｳｼﾞﾁｮｳ","pref":"静岡県","city":"沼津市","address":"下小路町"},
{"zip_code":"4100863","kana_pref":"ｼｽﾞｵｶｹﾝ","kana_city":"ﾇﾏﾂﾞｼ","kana_address":"ｼﾓｲｯﾁｮｳﾀﾞ","pref":"静岡県","city":"沼津市","address":"下一丁田"},
{"zip_code":"4100822","kana_pref":"ｼｽﾞｵｶｹﾝ","kana_city":"ﾇﾏﾂﾞｼ","kana_address":"ｼﾓｶﾇｷ","pref":"静岡県","city":"沼津市","address":"下香貫"},
{"zip_code":"4100841","kana_pref":"ｼｽﾞｵｶｹﾝ","kana_city":"ﾇﾏﾂﾞｼ","kana_address":"ｼﾓｶﾞﾜﾗﾁｮｳ","pref":"静岡県","city":"沼津市","address":"下河原町"},
{"zip_code":"4100867","kana_pref":"ｼｽﾞｵｶｹﾝ","kana_city":"ﾇﾏﾂﾞｼ","kana_address":"ｼﾓﾅｶﾐｿﾞ","pref":"静岡県","city":"沼津市","address":"下中溝"},
{"zip_code":"4100885","kana_pref":"ｼｽﾞｵｶｹﾝ","kana_city":"ﾇﾏﾂﾞｼ","kana_address":"ｼﾓﾎﾝﾁｮｳ","pref":"静岡県","city":"沼津市","address":"下本町"},
{"zip_code":"4100842","kana_pref":"ｼｽﾞｵｶｹﾝ","kana_city":"ﾇﾏﾂﾞｼ","kana_address":"ｼﾞｬﾏﾂﾁｮｳ","pref":"静岡県","city":"沼津市","address":"蛇松町"},
{"zip_code":"4100047","kana_pref":"ｼｽﾞｵｶｹﾝ","kana_city":"ﾇﾏﾂﾞｼ","kana_address":"ｼｮｳｴｲﾁｮｳ","pref":"静岡県","city":"沼津市","address":"庄栄町"},
{"zip_code":"4100805","kana_pref":"ｼｽﾞｵｶｹﾝ","kana_city":"ﾇﾏﾂﾞｼ","kana_address":"ｼﾛｶﾞﾈﾁｮｳ","pref":"静岡県","city":"沼津市","address":"白銀町"},
{"zip_code":"4100003","kana_pref":"ｼｽﾞｵｶｹﾝ","kana_city":"ﾇﾏﾂﾞｼ","kana_address":"ｼﾝｻﾜﾀﾞﾁｮｳ","pref":"静岡県","city":"沼津市","address":"新沢田町"},
{"zip_code":"4100048","kana_pref":"ｼｽﾞｵｶｹﾝ","kana_city":"ﾇﾏﾂﾞｼ","kana_address":"ｼﾝｼﾞｭｸﾁｮｳ","pref":"静岡県","city":"沼津市","address":"新宿町"},
{"zip_code":"4100895","kana_pref":"ｼｽﾞｵｶｹﾝ","kana_city":"ﾇﾏﾂﾞｼ","kana_address":"ｼﾝﾁｮｳ","pref":"静岡県","city":"沼津市","address":"新町"},
{"zip_code":"4100888","kana_pref":"ｼｽﾞｵｶｹﾝ","kana_city":"ﾇﾏﾂﾞｼ","kana_address":"ｽｴﾋﾛﾁｮｳ","pref":"静岡県","city":"沼津市","address":"末広町"},
{"zip_code":"4100033","kana_pref":"ｼｽﾞｵｶｹﾝ","kana_city":"ﾇﾏﾂﾞｼ","kana_address":"ｽｷﾞｻﾞｷﾁｮｳ","pref":"静岡県","city":"沼津市","address":"杉崎町"},
{"zip_code":"4100816","kana_pref":"ｼｽﾞｵｶｹﾝ","kana_city":"ﾇﾏﾂﾞｼ","kana_address":"ｽﾐﾖｼﾁｮｳ","pref":"静岡県","city":"沼津市","address":"住吉町"},
{"zip_code":"4100015","kana_pref":"ｼｽﾞｵｶｹﾝ","kana_city":"ﾇﾏﾂﾞｼ","kana_address":"ｽﾙｶﾞﾀﾞｲ","pref":"静岡県","city":"沼津市","address":"駿河台"},
{"zip_code":"4100886","kana_pref":"ｼｽﾞｵｶｹﾝ","kana_city":"ﾇﾏﾂﾞｼ","kana_address":"ｾﾝｹﾞﾝﾁｮｳ","pref":"静岡県","city":"沼津市","address":"浅間町"},
{"zip_code":"4100867","kana_pref":"ｼｽﾞｵｶｹﾝ","kana_city":"ﾇﾏﾂﾞｼ","kana_address":"ｾﾝﾎﾞﾝ","pref":"静岡県","city":"沼津市","address":"千本"},
{"zip_code":"4100854","kana_pref":"ｼｽﾞｵｶｹﾝ","kana_city":"ﾇﾏﾂﾞｼ","kana_address":"ｾﾝﾎﾞﾝﾄｷﾜﾁｮｳ","pref":"静岡県","city":"沼津市","address":"千本常盤町"},
{"zip_code":"4100847","kana_pref":"ｼｽﾞｵｶｹﾝ","kana_city":"ﾇﾏﾂﾞｼ","kana_address":"ｾﾝﾎﾞﾝﾅｶﾁｮｳ","pref":"静岡県","city":"沼津市","address":"千本中町"},
{"zip_code":"4100846","kana_pref":"ｼｽﾞｵｶｹﾝ","kana_city":"ﾇﾏﾂﾞｼ","kana_address":"ｾﾝﾎﾞﾝﾋｶﾞｼﾁｮｳ","pref":"静岡県","city":"沼津市","address":"千本東町"},
{"zip_code":"4100848","kana_pref":"ｼｽﾞｵｶｹﾝ","kana_city":"ﾇﾏﾂﾞｼ","kana_address":"ｾﾝﾎﾞﾝﾆｼﾁｮｳ","pref":"静岡県","city":"沼津市","address":"千本西町"},
{"zip_code":"4100855","kana_pref":"ｼｽﾞｵｶｹﾝ","kana_city":"ﾇﾏﾂﾞｼ","kana_address":"ｾﾝﾎﾞﾝﾐﾄﾞﾘﾁｮｳ","pref":"静岡県","city":"沼津市","address":"千本緑町"},
{"zip_code":"4100845","kana_pref":"ｼｽﾞｵｶｹﾝ","kana_city":"ﾇﾏﾂﾞｼ","kana_address":"ｾﾝﾎﾞﾝﾐﾅﾄﾏﾁ","pref":"静岡県","city":"沼津市","address":"千本港町"},
{"zip_code":"4100849","kana_pref":"ｼｽﾞｵｶｹﾝ","kana_city":"ﾇﾏﾂﾞｼ","kana_address":"ｾﾝﾎﾞﾝｺﾞｳﾘﾝ","pref":"静岡県","city":"沼津市","address":"千本郷林"},
{"zip_code":"4100803","kana_pref":"ｼｽﾞｵｶｹﾝ","kana_city":"ﾇﾏﾂﾞｼ","kana_address":"ｿｴﾁﾁｮｳ","pref":"静岡県","city":"沼津市","address":"添地町"},
{"zip_code":"4100883","kana_pref":"ｼｽﾞｵｶｹﾝ","kana_city":"ﾇﾏﾂﾞｼ","kana_address":"ﾀﾞｲﾓﾝﾁｮｳ","pref":"静岡県","city":"沼津市","address":"大門町"},
{"zip_code":"4100017","kana_pref":"ｼｽﾞｵｶｹﾝ","kana_city":"ﾇﾏﾂﾞｼ","kana_address":"ﾀｶｵﾀﾞｲ","pref":"静岡県","city":"沼津市","address":"高尾台"},
{"zip_code":"4100016","kana_pref":"ｼｽﾞｵｶｹﾝ","kana_city":"ﾇﾏﾂﾞｼ","kana_address":"ﾀｶｻｺﾞﾁｮｳ","pref":"静岡県","city":"沼津市","address":"高砂町"},
{"zip_code":"4100057","kana_pref":"ｼｽﾞｵｶｹﾝ","kana_city":"ﾇﾏﾂﾞｼ","kana_address":"ﾀｶｻﾞﾜﾁｮｳ","pref":"静岡県","city":"沼津市","address":"高沢町"},
{"zip_code":"4100056","kana_pref":"ｼｽﾞｵｶｹﾝ","kana_city":"ﾇﾏﾂﾞｼ","kana_address":"ﾀｶｼﾏﾁｮｳ","pref":"静岡県","city":"沼津市","address":"高島町"},
{"zip_code":"4100055","kana_pref":"ｼｽﾞｵｶｹﾝ","kana_city":"ﾇﾏﾂﾞｼ","kana_address":"ﾀｶｼﾏﾎﾝﾁｮｳ","pref":"静岡県","city":"沼津市","address":"高島本町"},
{"zip_code":"4100843","kana_pref":"ｼｽﾞｵｶｹﾝ","kana_city":"ﾇﾏﾂﾞｼ","kana_address":"ﾀﾃﾞﾊﾗﾁｮｳ","pref":"静岡県","city":"沼津市","address":"蓼原町"},
{"zip_code":"4100101","kana_pref":"ｼｽﾞｵｶｹﾝ","kana_city":"ﾇﾏﾂﾞｼ","kana_address":"ﾀﾋﾞ","pref":"静岡県","city":"沼津市","address":"多比"},
{"zip_code":"4100814","kana_pref":"ｼｽﾞｵｶｹﾝ","kana_city":"ﾇﾏﾂﾞｼ","kana_address":"ﾀﾏｴﾁｮｳ","pref":"静岡県","city":"沼津市","address":"玉江町"},
{"zip_code":"4100041","kana_pref":"ｼｽﾞｵｶｹﾝ","kana_city":"ﾇﾏﾂﾞｼ","kana_address":"ﾂﾂｲﾁｮｳ","pref":"静岡県","city":"沼津市","address":"筒井町"},
{"zip_code":"4100867","kana_pref":"ｼｽﾞｵｶｹﾝ","kana_city":"ﾇﾏﾂﾞｼ","kana_address":"ﾃﾞｸﾞﾁﾁｮｳ","pref":"静岡県","city":"沼津市","address":"出口町"},
{"zip_code":"4100891","kana_pref":"ｼｽﾞｵｶｹﾝ","kana_city":"ﾇﾏﾂﾞｼ","kana_address":"ﾄｵﾘﾖｺﾁｮｳ","pref":"静岡県","city":"沼津市","address":"通横町"},
{"zip_code":"4100853","kana_pref":"ｼｽﾞｵｶｹﾝ","kana_city":"ﾇﾏﾂﾞｼ","kana_address":"ﾄｷﾜﾁｮｳ","pref":"静岡県","city":"沼津市","address":"常盤町"},
{"zip_code":"4100305","kana_pref":"ｼｽﾞｵｶｹﾝ","kana_city":"ﾇﾏﾂﾞｼ","kana_address":"ﾄﾔ","pref":"静岡県","city":"沼津市","address":"鳥谷"},
{"zip_code":"4100006","kana_pref":"ｼｽﾞｵｶｹﾝ","kana_city":"ﾇﾏﾂﾞｼ","kana_address":"ﾅｶｻﾜﾀﾞ","pref":"静岡県","city":"沼津市","address":"中沢田"},
{"zip_code":"4100811","kana_pref":"ｼｽﾞｵｶｹﾝ","kana_city":"ﾇﾏﾂﾞｼ","kana_address":"ﾅｶｾﾁｮｳ","pref":"静岡県","city":"沼津市","address":"中瀬町"},
{"zip_code":"4100894","kana_pref":"ｼｽﾞｵｶｹﾝ","kana_city":"ﾇﾏﾂﾞｼ","kana_address":"ﾅｶﾁｮｳ","pref":"静岡県","city":"沼津市","address":"仲町"},
{"zip_code":"4100818","kana_pref":"ｼｽﾞｵｶｹﾝ","kana_city":"ﾇﾏﾂﾞｼ","kana_address":"ﾅｶﾊﾗﾁｮｳ","pref":"静岡県","city":"沼津市","address":"中原町"},
{"zip_code":"4100242","kana_pref":"ｼｽﾞｵｶｹﾝ","kana_city":"ﾇﾏﾂﾞｼ","kana_address":"ﾆｼｳﾗｱｼﾎﾞ","pref":"静岡県","city":"沼津市","address":"西浦足保"},
{"zip_code":"4100244","kana_pref":"ｼｽﾞｵｶｹﾝ","kana_city":"ﾇﾏﾂﾞｼ","kana_address":"ﾆｼｳﾗｴﾅｼ","pref":"静岡県","city":"沼津市","address":"西浦江梨"},
{"zip_code":"4100231","kana_pref":"ｼｽﾞｵｶｹﾝ","kana_city":"ﾇﾏﾂﾞｼ","kana_address":"ﾆｼｳﾗｷｼｮｳ","pref":"静岡県","city":"沼津市","address":"西浦木負"},
{"zip_code":"4100233","kana_pref":"ｼｽﾞｵｶｹﾝ","kana_city":"ﾇﾏﾂﾞｼ","kana_address":"ﾆｼｳﾗｸﾂﾞﾗ","pref":"静岡県","city":"沼津市","address":"西浦久連"},
{"zip_code":"4100243","kana_pref":"ｼｽﾞｵｶｹﾝ","kana_city":"ﾇﾏﾂﾞｼ","kana_address":"ﾆｼｳﾗｸﾘｮｳ","pref":"静岡県","city":"沼津市","address":"西浦久料"},
{"zip_code":"4100241","kana_pref":"ｼｽﾞｵｶｹﾝ","kana_city":"ﾇﾏﾂﾞｼ","kana_address":"ﾆｼｳﾗｺｳ","pref":"静岡県","city":"沼津市","address":"西浦古宇"},
{"zip_code":"4100232","kana_pref":"ｼｽﾞｵｶｹﾝ","kana_city":"ﾇﾏﾂﾞｼ","kana_address":"ﾆｼｳﾗｺｳﾁ","pref":"静岡県","city":"沼津市","address":"西浦河内"},
{"zip_code":"4100235","kana_pref":"ｼｽﾞｵｶｹﾝ","kana_city":"ﾇﾏﾂﾞｼ","kana_address":"ﾆｼｳﾗﾀﾁﾎﾞ","pref":"静岡県","city":"沼津市","address":"西浦立保"},
{"zip_code":"4100234","kana_pref":"ｼｽﾞｵｶｹﾝ","kana_city":"ﾇﾏﾂﾞｼ","kana_address":"ﾆｼｳﾗﾋﾗｻﾜ","pref":"静岡県","city":"沼津市","address":"西浦平沢"},
{"zip_code":"4100244","kana_pref":"ｼｽﾞｵｶｹﾝ","kana_city":"ﾇﾏﾂﾞｼ","kana_address":"ﾆｼｳﾗｵｵｾ","pref":"静岡県","city":"沼津市","address":"西浦大瀬"},
{"zip_code":"4100807","kana_pref":"ｼｽﾞｵｶｹﾝ","kana_city":"ﾇﾏﾂﾞｼ","kana_address":"ﾆｼｷﾁｮｳ","pref":"静岡県","city":"沼津市","address":"錦町"},
{"zip_code":"4100051","kana_pref":"ｼｽﾞｵｶｹﾝ","kana_city":"ﾇﾏﾂﾞｼ","kana_address":"ﾆｼｸﾏﾝﾄﾞｳ","pref":"静岡県","city":"沼津市","address":"西熊堂"},
{"zip_code":"4100007","kana_pref":"ｼｽﾞｵｶｹﾝ","kana_city":"ﾇﾏﾂﾞｼ","kana_address":"ﾆｼｻﾜﾀﾞ","pref":"静岡県","city":"沼津市","address":"西沢田"},
{"zip_code":"4100303","kana_pref":"ｼｽﾞｵｶｹﾝ","kana_city":"ﾇﾏﾂﾞｼ","kana_address":"ﾆｼｼｲｼﾞ","pref":"静岡県","city":"沼津市","address":"西椎路"},
{"zip_code":"4100835","kana_pref":"ｼｽﾞｵｶｹﾝ","kana_city":"ﾇﾏﾂﾞｼ","kana_address":"ﾆｼｼﾞﾏﾁｮｳ","pref":"静岡県","city":"沼津市","address":"西島町"},
{"zip_code":"4100313","kana_pref":"ｼｽﾞｵｶｹﾝ","kana_city":"ﾇﾏﾂﾞｼ","kana_address":"ﾆｼｿﾞｴﾁｮｳ","pref":"静岡県","city":"沼津市","address":"西添町"},
{"zip_code":"4100321","kana_pref":"ｼｽﾞｵｶｹﾝ","kana_city":"ﾇﾏﾂﾞｼ","kana_address":"ﾆｼﾉ","pref":"静岡県","city":"沼津市","address":"西野"},
{"zip_code":"4100871","kana_pref":"ｼｽﾞｵｶｹﾝ","kana_city":"ﾇﾏﾂﾞｼ","kana_address":"ﾆｼﾏｶﾄﾞ","pref":"静岡県","city":"沼津市","address":"西間門"},
{"zip_code":"4100867","kana_pref":"ｼｽﾞｵｶｹﾝ","kana_city":"ﾇﾏﾂﾞｼ","kana_address":"ﾆｼﾏﾂｼﾀ","pref":"静岡県","city":"沼津市","address":"西松下"},
{"zip_code":"4100058","kana_pref":"ｼｽﾞｵｶｹﾝ","kana_city":"ﾇﾏﾂﾞｼ","kana_address":"ﾇﾏｷﾀﾁｮｳ","pref":"静岡県","city":"沼津市","address":"沼北町"},
{"zip_code":"4100309","kana_pref":"ｼｽﾞｵｶｹﾝ","kana_city":"ﾇﾏﾂﾞｼ","kana_address":"ﾈｺﾞﾔ","pref":"静岡県","city":"沼津市","address":"根古屋"},
{"zip_code":"4100881","kana_pref":"ｼｽﾞｵｶｹﾝ","kana_city":"ﾇﾏﾂﾞｼ","kana_address":"ﾊﾁﾏﾝﾁｮｳ","pref":"静岡県","city":"沼津市","address":"八幡町"},
{"zip_code":"4100065","kana_pref":"ｼｽﾞｵｶｹﾝ","kana_city":"ﾇﾏﾂﾞｼ","kana_address":"ﾊﾅｿﾞﾉﾁｮｳ","pref":"静岡県","city":"沼津市","address":"花園町"},
{"zip_code":"4100312","kana_pref":"ｼｽﾞｵｶｹﾝ","kana_city":"ﾇﾏﾂﾞｼ","kana_address":"ﾊﾗ","pref":"静岡県","city":"沼津市","address":"原"},
{"zip_code":"4100311","kana_pref":"ｼｽﾞｵｶｹﾝ","kana_city":"ﾇﾏﾂﾞｼ","kana_address":"ﾊﾗﾏﾁﾅｶ","pref":"静岡県","city":"沼津市","address":"原町中"},
{"zip_code":"4100013","kana_pref":"ｼｽﾞｵｶｹﾝ","kana_city":"ﾇﾏﾂﾞｼ","kana_address":"ﾋｶﾞｼｸﾏﾝﾄﾞｳ","pref":"静岡県","city":"沼津市","address":"東熊堂"},
{"zip_code":"4100002","kana_pref":"ｼｽﾞｵｶｹﾝ","kana_city":"ﾇﾏﾂﾞｼ","kana_address":"ﾋｶﾞｼｻﾜﾀﾞ","pref":"静岡県","city":"沼津市","address":"東沢田"},
{"zip_code":"4100302","kana_pref":"ｼｽﾞｵｶｹﾝ","kana_city":"ﾇﾏﾂﾞｼ","kana_address":"ﾋｶﾞｼｼｲｼﾞ","pref":"静岡県","city":"沼津市","address":"東椎路"},
{"zip_code":"4100304","kana_pref":"ｼｽﾞｵｶｹﾝ","kana_city":"ﾇﾏﾂﾞｼ","kana_address":"ﾋｶﾞｼﾊﾞﾗ","pref":"静岡県","city":"沼津市","address":"東原"},
{"zip_code":"4100865","kana_pref":"ｼｽﾞｵｶｹﾝ","kana_city":"ﾇﾏﾂﾞｼ","kana_address":"ﾋｶﾞｼﾏｶﾄﾞ","pref":"静岡県","city":"沼津市","address":"東間門"},
{"zip_code":"4100887","kana_pref":"ｼｽﾞｵｶｹﾝ","kana_city":"ﾇﾏﾂﾞｼ","kana_address":"ﾋｶﾞｼﾐﾔｳｼﾛﾁｮｳ","pref":"静岡県","city":"沼津市","address":"東宮後町"},
{"zip_code":"4100032","kana_pref":"ｼｽﾞｵｶｹﾝ","kana_city":"ﾇﾏﾂﾞｼ","kana_address":"ﾋﾉﾃﾞﾁｮｳ","pref":"静岡県","city":"沼津市","address":"日の出町"},
{"zip_code":"4100318","kana_pref":"ｼｽﾞｵｶｹﾝ","kana_city":"ﾇﾏﾂﾞｼ","kana_address":"ﾋﾗﾇﾏ","pref":"静岡県","city":"沼津市","address":"平沼"},
{"zip_code":"4100036","kana_pref":"ｼｽﾞｵｶｹﾝ","kana_city":"ﾇﾏﾂﾞｼ","kana_address":"ﾋﾗﾏﾁ","pref":"静岡県","city":"沼津市","address":"平町"},
{"zip_code":"4100034","kana_pref":"ｼｽﾞｵｶｹﾝ","kana_city":"ﾇﾏﾂﾞｼ","kana_address":"ﾌｼﾞﾐﾁｮｳ","pref":"静岡県","city":"沼津市","address":"富士見町"},
{"zip_code":"4100005","kana_pref":"ｼｽﾞｵｶｹﾝ","kana_city":"ﾇﾏﾂﾞｼ","kana_address":"ﾌﾀﾊﾞﾁｮｳ","pref":"静岡県","city":"沼津市","address":"双葉町"},
{"zip_code":"4103402","kana_pref":"ｼｽﾞｵｶｹﾝ","kana_city":"ﾇﾏﾂﾞｼ","kana_address":"ﾍﾀﾞ","pref":"静岡県","city":"沼津市","address":"戸田"},
{"zip_code":"4100867","kana_pref":"ｼｽﾞｵｶｹﾝ","kana_city":"ﾇﾏﾂﾞｼ","kana_address":"ﾎﾝ","pref":"静岡県","city":"沼津市","address":"本"},
{"zip_code":"4100817","kana_pref":"ｼｽﾞｵｶｹﾝ","kana_city":"ﾇﾏﾂﾞｼ","kana_address":"ﾎﾝｺﾞｳﾁｮｳ","pref":"静岡県","city":"沼津市","address":"本郷町"},
{"zip_code":"4100004","kana_pref":"ｼｽﾞｵｶｹﾝ","kana_city":"ﾇﾏﾂﾞｼ","kana_address":"ﾎﾝﾀﾏﾁ","pref":"静岡県","city":"沼津市","address":"本田町"},
{"zip_code":"4100884","kana_pref":"ｼｽﾞｵｶｹﾝ","kana_city":"ﾇﾏﾂﾞｼ","kana_address":"ﾎﾝﾁｮｳ","pref":"静岡県","city":"沼津市","address":"本町"},
{"zip_code":"4100867","kana_pref":"ｼｽﾞｵｶｹﾝ","kana_city":"ﾇﾏﾂﾞｼ","kana_address":"ﾏｴﾀﾞ","pref":"静岡県","city":"沼津市","address":"前田"},
{"zip_code":"4100834","kana_pref":"ｼｽﾞｵｶｹﾝ","kana_city":"ﾇﾏﾂﾞｼ","kana_address":"ﾏｷｼﾞﾏﾁｮｳ","pref":"静岡県","city":"沼津市","address":"槇島町"},
{"zip_code":"4100105","kana_pref":"ｼｽﾞｵｶｹﾝ","kana_city":"ﾇﾏﾂﾞｼ","kana_address":"ﾏｺﾞﾒ","pref":"静岡県","city":"沼津市","address":"馬込"},
{"zip_code":"4100861","kana_pref":"ｼｽﾞｵｶｹﾝ","kana_city":"ﾇﾏﾂﾞｼ","kana_address":"ﾏｻｺﾞﾁｮｳ","pref":"静岡県","city":"沼津市","address":"真砂町"},
{"zip_code":"4100882","kana_pref":"ｼｽﾞｵｶｹﾝ","kana_city":"ﾇﾏﾂﾞｼ","kana_address":"ﾏﾁｶﾀﾏﾁ","pref":"静岡県","city":"沼津市","address":"町方町"},
{"zip_code":"4100014","kana_pref":"ｼｽﾞｵｶｹﾝ","kana_city":"ﾇﾏﾂﾞｼ","kana_address":"ﾏﾂｻﾜﾁｮｳ","pref":"静岡県","city":"沼津市","address":"松沢町"},
{"zip_code":"4100864","kana_pref":"ｼｽﾞｵｶｹﾝ","kana_city":"ﾇﾏﾂﾞｼ","kana_address":"ﾏﾂｼﾀ","pref":"静岡県","city":"沼津市","address":"松下"},
{"zip_code":"4100867","kana_pref":"ｼｽﾞｵｶｹﾝ","kana_city":"ﾇﾏﾂﾞｼ","kana_address":"ﾏﾂｼﾀﾋﾁﾀﾝﾀﾞ","pref":"静岡県","city":"沼津市","address":"松下七反田"},
{"zip_code":"4100874","kana_pref":"ｼｽﾞｵｶｹﾝ","kana_city":"ﾇﾏﾂﾞｼ","kana_address":"ﾏﾂﾅｶﾞ","pref":"静岡県","city":"沼津市","address":"松長"},
{"zip_code":"4100806","kana_pref":"ｼｽﾞｵｶｹﾝ","kana_city":"ﾇﾏﾂﾞｼ","kana_address":"ﾏﾙｺﾁｮｳ","pref":"静岡県","city":"沼津市","address":"丸子町"},
{"zip_code":"4100833","kana_pref":"ｼｽﾞｵｶｹﾝ","kana_city":"ﾇﾏﾂﾞｼ","kana_address":"ﾐｿﾉﾁｮｳ","pref":"静岡県","city":"沼津市","address":"三園町"},
{"zip_code":"4100063","kana_pref":"ｼｽﾞｵｶｹﾝ","kana_city":"ﾇﾏﾂﾞｼ","kana_address":"ﾐﾄﾞﾘｶﾞｵｶ","pref":"静岡県","city":"沼津市","address":"緑ケ丘"},
{"zip_code":"4100815","kana_pref":"ｼｽﾞｵｶｹﾝ","kana_city":"ﾇﾏﾂﾞｼ","kana_address":"ﾐﾅﾐﾎﾝｺﾞｳﾁｮｳ","pref":"静岡県","city":"沼津市","address":"南本郷町"},
{"zip_code":"4100062","kana_pref":"ｼｽﾞｵｶｹﾝ","kana_city":"ﾇﾏﾂﾞｼ","kana_address":"ﾐﾔﾏｴﾁｮｳ","pref":"静岡県","city":"沼津市","address":"宮前町"},
{"zip_code":"4100851","kana_pref":"ｼｽﾞｵｶｹﾝ","kana_city":"ﾇﾏﾂﾞｼ","kana_address":"ﾐﾔﾏﾁ","pref":"静岡県","city":"沼津市","address":"宮町"},
{"zip_code":"4100301","kana_pref":"ｼｽﾞｵｶｹﾝ","kana_city":"ﾇﾏﾂﾞｼ","kana_address":"ﾐﾔﾓﾄ","pref":"静岡県","city":"沼津市","address":"宮本"},
{"zip_code":"4100832","kana_pref":"ｼｽﾞｵｶｹﾝ","kana_city":"ﾇﾏﾂﾞｼ","kana_address":"ﾐﾕｷﾁｮｳ","pref":"静岡県","city":"沼津市","address":"御幸町"},
{"zip_code":"4100038","kana_pref":"ｼｽﾞｵｶｹﾝ","kana_city":"ﾇﾏﾂﾞｼ","kana_address":"ﾐﾖｼﾁｮｳ","pref":"静岡県","city":"沼津市","address":"三芳町"},
{"zip_code":"4100315","kana_pref":"ｼｽﾞｵｶｹﾝ","kana_city":"ﾇﾏﾂﾞｼ","kana_address":"ﾓﾓｻﾞﾄ","pref":"静岡県","city":"沼津市","address":"桃里"},
{"zip_code":"4100308","kana_pref":"ｼｽﾞｵｶｹﾝ","kana_city":"ﾇﾏﾂﾞｼ","kana_address":"ﾔﾅｷﾞｻﾜ","pref":"静岡県","city":"沼津市","address":"柳沢"},
{"zip_code":"4100043","kana_pref":"ｼｽﾞｵｶｹﾝ","kana_city":"ﾇﾏﾂﾞｼ","kana_address":"ﾔﾅｷﾞﾁｮｳ","pref":"静岡県","city":"沼津市","address":"柳町"},
{"zip_code":"4100812","kana_pref":"ｼｽﾞｵｶｹﾝ","kana_city":"ﾇﾏﾂﾞｼ","kana_address":"ﾔﾏｶﾞｼﾀﾁｮｳ","pref":"静岡県","city":"沼津市","address":"山ケ下町"},
{"zip_code":"4100018","kana_pref":"ｼｽﾞｵｶｹﾝ","kana_city":"ﾇﾏﾂﾞｼ","kana_address":"ﾕﾀｶﾁｮｳ","pref":"静岡県","city":"沼津市","address":"豊町"},
{"zip_code":"4100836","kana_pref":"ｼｽﾞｵｶｹﾝ","kana_city":"ﾇﾏﾂﾞｼ","kana_address":"ﾖｼﾀﾞﾁｮｳ","pref":"静岡県","city":"沼津市","address":"吉田町"},
{"zip_code":"4100046","kana_pref":"ｼｽﾞｵｶｹﾝ","kana_city":"ﾇﾏﾂﾞｼ","kana_address":"ﾖﾈﾔﾏﾁｮｳ","pref":"静岡県","city":"沼津市","address":"米山町"},
{"zip_code":"4100059","kana_pref":"ｼｽﾞｵｶｹﾝ","kana_city":"ﾇﾏﾂﾞｼ","kana_address":"ﾜｶﾊﾞﾁｮｳ","pref":"静岡県","city":"沼津市","address":"若葉町"},
{"zip_code":"4101100","kana_pref":"ｼｽﾞｵｶｹﾝ","kana_city":"ｽｿﾉｼ","kana_address":"","pref":"静岡県","city":"裾野市","address":""},
{"zip_code":"4101108","kana_pref":"ｼｽﾞｵｶｹﾝ","kana_city":"ｽｿﾉｼ","kana_address":"ｱｹﾞﾀ","pref":"静岡県","city":"裾野市","address":"上ケ田"},
{"zip_code":"4101117","kana_pref":"ｼｽﾞｵｶｹﾝ","kana_city":"ｽｿﾉｼ","kana_address":"ｲｼﾜｷ","pref":"静岡県","city":"裾野市","address":"石脇"},
{"zip_code":"4101123","kana_pref":"ｼｽﾞｵｶｹﾝ","kana_city":"ｽｿﾉｼ","kana_address":"ｲｽﾞｼﾏﾀ","pref":"静岡県","city":"裾野市","address":"伊豆島田"},
{"zip_code":"4101113","kana_pref":"ｼｽﾞｵｶｹﾝ","kana_city":"ｽｿﾉｼ","kana_address":"ｲﾅﾘ","pref":"静岡県","city":"裾野市","address":"稲荷"},
{"zip_code":"4101104","kana_pref":"ｼｽﾞｵｶｹﾝ","kana_city":"ｽｿﾉｼ","kana_address":"ｲﾏｻﾞﾄ","pref":"静岡県","city":"裾野市","address":"今里"},
{"zip_code":"4101101","kana_pref":"ｼｽﾞｵｶｹﾝ","kana_city":"ｽｿﾉｼ","kana_address":"ｲﾜﾅﾐ","pref":"静岡県","city":"裾野市","address":"岩波"},
{"zip_code":"4101114","kana_pref":"ｼｽﾞｵｶｹﾝ","kana_city":"ｽｿﾉｼ","kana_address":"ｵｵﾊﾀ","pref":"静岡県","city":"裾野市","address":"大畑"},
{"zip_code":"4101103","kana_pref":"ｼｽﾞｵｶｹﾝ","kana_city":"ｽｿﾉｼ","kana_address":"ｶｽﾞﾗﾔﾏ","pref":"静岡県","city":"裾野市","address":"葛山"},
{"zip_code":"4101106","kana_pref":"ｼｽﾞｵｶｹﾝ","kana_city":"ｽｿﾉｼ","kana_address":"ｶﾈｻﾞﾜ","pref":"静岡県","city":"裾野市","address":"金沢"},
{"zip_code":"4101111","kana_pref":"ｼｽﾞｵｶｹﾝ","kana_city":"ｽｿﾉｼ","kana_address":"ｸﾈ","pref":"静岡県","city":"裾野市","address":"久根"},
{"zip_code":"4101112","kana_pref":"ｼｽﾞｵｶｹﾝ","kana_city":"ｽｿﾉｼ","kana_address":"ｸﾓﾐｮｳ","pref":"静岡県","city":"裾野市","address":"公文名"},
{"zip_code":"4101118","kana_pref":"ｼｽﾞｵｶｹﾝ","kana_city":"ｽｿﾉｼ","kana_address":"ｻﾉ","pref":"静岡県","city":"裾野市","address":"佐野"},
{"zip_code":"4101105","kana_pref":"ｼｽﾞｵｶｹﾝ","kana_city":"ｽｿﾉｼ","kana_address":"ｼﾓﾜﾀﾞ","pref":"静岡県","city":"裾野市","address":"下和田"},
{"zip_code":"4101231","kana_pref":"ｼｽﾞｵｶｹﾝ","kana_city":"ｽｿﾉｼ","kana_address":"ｽﾔﾏ","pref":"静岡県","city":"裾野市","address":"須山"},
{"zip_code":"4101116","kana_pref":"ｼｽﾞｵｶｹﾝ","kana_city":"ｽｿﾉｼ","kana_address":"ｾﾝﾌﾟｸ","pref":"静岡県","city":"裾野市","address":"千福"},
{"zip_code":"4101115","kana_pref":"ｼｽﾞｵｶｹﾝ","kana_city":"ｽｿﾉｼ","kana_address":"ｾﾝﾌﾟｸｶﾞｵｶ","pref":"静岡県","city":"裾野市","address":"千福が丘"},
{"zip_code":"4101121","kana_pref":"ｼｽﾞｵｶｹﾝ","kana_city":"ｽｿﾉｼ","kana_address":"ﾁｬﾊﾞﾀｹ","pref":"静岡県","city":"裾野市","address":"茶畑"},
{"zip_code":"4101125","kana_pref":"ｼｽﾞｵｶｹﾝ","kana_city":"ｽｿﾉｼ","kana_address":"ﾄﾐｻﾞﾜ","pref":"静岡県","city":"裾野市","address":"富沢"},
{"zip_code":"4101127","kana_pref":"ｼｽﾞｵｶｹﾝ","kana_city":"ｽｿﾉｼ","kana_address":"ﾋﾗﾏﾂ","pref":"静岡県","city":"裾野市","address":"平松"},
{"zip_code":"4101102","kana_pref":"ｼｽﾞｵｶｹﾝ","kana_city":"ｽｿﾉｼ","kana_address":"ﾌｶﾗ","pref":"静岡県","city":"裾野市","address":"深良"},
{"zip_code":"4101128","kana_pref":"ｼｽﾞｵｶｹﾝ","kana_city":"ｽｿﾉｼ","kana_address":"ﾌﾀﾂﾔ","pref":"静岡県","city":"裾野市","address":"二ツ屋"},
{"zip_code":"4101107","kana_pref":"ｼｽﾞｵｶｹﾝ","kana_city":"ｽｿﾉｼ","kana_address":"ﾐｼｭｸ","pref":"静岡県","city":"裾野市","address":"御宿"},
{"zip_code":"4101124","kana_pref":"ｼｽﾞｵｶｹﾝ","kana_city":"ｽｿﾉｼ","kana_address":"ﾐｽﾞｸﾎﾞ","pref":"静岡県","city":"裾野市","address":"水窪"},
{"zip_code":"4101122","kana_pref":"ｼｽﾞｵｶｹﾝ","kana_city":"ｽｿﾉｼ","kana_address":"ﾑｷﾞﾂｶ","pref":"静岡県","city":"裾野市","address":"麦塚"},
{"zip_code":"4101126","kana_pref":"ｼｽﾞｵｶｹﾝ","kana_city":"ｽｿﾉｼ","kana_address":"ﾓﾓｿﾞﾉ","pref":"静岡県","city":"裾野市","address":"桃園"},
{"zip_code":"4101109","kana_pref":"ｼｽﾞｵｶｹﾝ","kana_city":"ｽｿﾉｼ","kana_address":"ﾖﾋﾞｺ","pref":"静岡県","city":"裾野市","address":"呼子"},
{"zip_code":"4102400","kana_pref":"ｼｽﾞｵｶｹﾝ","kana_city":"ｲｽﾞｼ","kana_address":"","pref":"静岡県","city":"伊豆市","address":""},
{"zip_code":"4103213","kana_pref":"ｼｽﾞｵｶｹﾝ","kana_city":"ｲｽﾞｼ","kana_address":"ｱｵﾊﾞﾈ","pref":"静岡県","city":"伊豆市","address":"青羽根"},
{"zip_code":"4102516","kana_pref":"ｼｽﾞｵｶｹﾝ","kana_city":"ｲｽﾞｼ","kana_address":"ｲｶﾀﾞﾊﾞ","pref":"静岡県","city":"伊豆市","address":"筏場"},
{"zip_code":"4103205","kana_pref":"ｼｽﾞｵｶｹﾝ","kana_city":"ｲｽﾞｼ","kana_address":"ｲﾁﾔﾏ","pref":"静岡県","city":"伊豆市","address":"市山"},
{"zip_code":"4102509","kana_pref":"ｼｽﾞｵｶｹﾝ","kana_city":"ｲｽﾞｼ","kana_address":"ｳﾒｷﾞ","pref":"静岡県","city":"伊豆市","address":"梅木"},
{"zip_code":"4102412","kana_pref":"ｼｽﾞｵｶｹﾝ","kana_city":"ｲｽﾞｼ","kana_address":"ｳﾘｭｳﾉ","pref":"静岡県","city":"伊豆市","address":"瓜生野"},
{"zip_code":"4102417","kana_pref":"ｼｽﾞｵｶｹﾝ","kana_city":"ｲｽﾞｼ","kana_address":"ｵｵｻﾜ","pref":"静岡県","city":"伊豆市","address":"大沢"},
{"zip_code":"4102415","kana_pref":"ｼｽﾞｵｶｹﾝ","kana_city":"ｲｽﾞｼ","kana_address":"ｵｵﾀﾞｲﾗ","pref":"静岡県","city":"伊豆市","address":"大平"},
{"zip_code":"4103217","kana_pref":"ｼｽﾞｵｶｹﾝ","kana_city":"ｲｽﾞｼ","kana_address":"ｵｵﾀﾞｲﾗｶｷｷﾞ","pref":"静岡県","city":"伊豆市","address":"大平柿木"},
{"zip_code":"4102402","kana_pref":"ｼｽﾞｵｶｹﾝ","kana_city":"ｲｽﾞｼ","kana_address":"ｵｵﾉ","pref":"静岡県","city":"伊豆市","address":"大野"},
{"zip_code":"4103301","kana_pref":"ｼｽﾞｵｶｹﾝ","kana_city":"ｲｽﾞｼ","kana_address":"ｵﾄﾞｲ","pref":"静岡県","city":"伊豆市","address":"小土肥"},
{"zip_code":"4102407","kana_pref":"ｼｽﾞｵｶｹﾝ","kana_city":"ｲｽﾞｼ","kana_address":"ｶｼﾜｸﾎﾞ","pref":"静岡県","city":"伊豆市","address":"柏久保"},
{"zip_code":"4102405","kana_pref":"ｼｽﾞｵｶｹﾝ","kana_city":"ｲｽﾞｼ","kana_address":"ｶﾄﾞﾉ","pref":"静岡県","city":"伊豆市","address":"加殿"},
{"zip_code":"4103209","kana_pref":"ｼｽﾞｵｶｹﾝ","kana_city":"ｲｽﾞｼ","kana_address":"ｶﾄﾞﾉﾊﾗ","pref":"静岡県","city":"伊豆市","address":"門野原"},
{"zip_code":"4102502","kana_pref":"ｼｽﾞｵｶｹﾝ","kana_city":"ｲｽﾞｼ","kana_address":"ｶﾐｼﾗｲﾜ","pref":"静岡県","city":"伊豆市","address":"上白岩"},
{"zip_code":"4103216","kana_pref":"ｼｽﾞｵｶｹﾝ","kana_city":"ｲｽﾞｼ","kana_address":"ｶﾐﾌﾅﾊﾞﾗ","pref":"静岡県","city":"伊豆市","address":"上船原"},
{"zip_code":"4102517","kana_pref":"ｼｽﾞｵｶｹﾝ","kana_city":"ｲｽﾞｼ","kana_address":"ｷｿｳﾎﾞｳ","pref":"静岡県","city":"伊豆市","address":"貴僧坊"},
{"zip_code":"4102411","kana_pref":"ｼｽﾞｵｶｹﾝ","kana_city":"ｲｽﾞｼ","kana_address":"ｸﾏｻｶ","pref":"静岡県","city":"伊豆市","address":"熊坂"},
{"zip_code":"4103202","kana_pref":"ｼｽﾞｵｶｹﾝ","kana_city":"ｲｽﾞｼ","kana_address":"ｸﾓｶﾞﾈ","pref":"静岡県","city":"伊豆市","address":"雲金"},
{"zip_code":"4103304","kana_pref":"ｼｽﾞｵｶｹﾝ","kana_city":"ｲｽﾞｼ","kana_address":"ｺｼﾓﾀﾞ","pref":"静岡県","city":"伊豆市","address":"小下田"},
{"zip_code":"4102413","kana_pref":"ｼｽﾞｵｶｹﾝ","kana_city":"ｲｽﾞｼ","kana_address":"ｺﾀﾞﾁﾉ","pref":"静岡県","city":"伊豆市","address":"小立野"},
{"zip_code":"4103201","kana_pref":"ｼｽﾞｵｶｹﾝ","kana_city":"ｲｽﾞｼ","kana_address":"ｻﾉ","pref":"静岡県","city":"伊豆市","address":"佐野"},
{"zip_code":"4102515","kana_pref":"ｼｽﾞｵｶｹﾝ","kana_city":"ｲｽﾞｼ","kana_address":"ｼﾞｿﾞｳﾄﾞｳ","pref":"静岡県","city":"伊豆市","address":"地蔵堂"},
{"zip_code":"4102501","kana_pref":"ｼｽﾞｵｶｹﾝ","kana_city":"ｲｽﾞｼ","kana_address":"ｼﾓｼﾗｲﾜ","pref":"静岡県","city":"伊豆市","address":"下白岩"},
{"zip_code":"4103214","kana_pref":"ｼｽﾞｵｶｹﾝ","kana_city":"ｲｽﾞｼ","kana_address":"ｼﾓﾌﾅﾊﾞﾗ","pref":"静岡県","city":"伊豆市","address":"下船原"},
{"zip_code":"4102416","kana_pref":"ｼｽﾞｵｶｹﾝ","kana_city":"ｲｽﾞｼ","kana_address":"ｼｭｾﾞﾝｼﾞ","pref":"静岡県","city":"伊豆市","address":"修善寺"},
{"zip_code":"4102503","kana_pref":"ｼｽﾞｵｶｹﾝ","kana_city":"ｲｽﾞｼ","kana_address":"ｼﾞｮｳ","pref":"静岡県","city":"伊豆市","address":"城"},
{"zip_code":"4102513","kana_pref":"ｼｽﾞｵｶｹﾝ","kana_city":"ｲｽﾞｼ","kana_address":"ｽｹﾞﾋｷ","pref":"静岡県","city":"伊豆市","address":"菅引"},
{"zip_code":"4102504","kana_pref":"ｼｽﾞｵｶｹﾝ","kana_city":"ｲｽﾞｼ","kana_address":"ｾｷﾉ","pref":"静岡県","city":"伊豆市","address":"関野"},
{"zip_code":"4103204","kana_pref":"ｼｽﾞｵｶｹﾝ","kana_city":"ｲｽﾞｼ","kana_address":"ﾀｻﾞﾜ","pref":"静岡県","city":"伊豆市","address":"田沢"},
{"zip_code":"4102404","kana_pref":"ｼｽﾞｵｶｹﾝ","kana_city":"ｲｽﾞｼ","kana_address":"ﾀｼﾛ","pref":"静岡県","city":"伊豆市","address":"田代"},
{"zip_code":"4103215","kana_pref":"ｼｽﾞｵｶｹﾝ","kana_city":"ｲｽﾞｼ","kana_address":"ﾂｷｶﾞｾ","pref":"静岡県","city":"伊豆市","address":"月ケ瀬"},
{"zip_code":"4103302","kana_pref":"ｼｽﾞｵｶｹﾝ","kana_city":"ｲｽﾞｼ","kana_address":"ﾄｲ","pref":"静岡県","city":"伊豆市","address":"土肥"},
{"zip_code":"4102506","kana_pref":"ｼｽﾞｵｶｹﾝ","kana_city":"ｲｽﾞｼ","kana_address":"ﾄｸﾅｶﾞ","pref":"静岡県","city":"伊豆市","address":"徳永"},
{"zip_code":"4102519","kana_pref":"ｼｽﾞｵｶｹﾝ","kana_city":"ｲｽﾞｼ","kana_address":"ﾄｸﾗﾉ","pref":"静岡県","city":"伊豆市","address":"戸倉野"},
{"zip_code":"4102403","kana_pref":"ｼｽﾞｵｶｹﾝ","kana_city":"ｲｽﾞｼ","kana_address":"ﾄｼｶﾞﾜ","pref":"静岡県","city":"伊豆市","address":"年川"},
{"zip_code":"4102512","kana_pref":"ｼｽﾞｵｶｹﾝ","kana_city":"ｲｽﾞｼ","kana_address":"ﾅｶﾊﾗﾄ","pref":"静岡県","city":"伊豆市","address":"中原戸"},
{"zip_code":"4102505","kana_pref":"ｼｽﾞｵｶｹﾝ","kana_city":"ｲｽﾞｼ","kana_address":"ﾊﾂﾏ","pref":"静岡県","city":"伊豆市","address":"八幡"},
{"zip_code":"4102507","kana_pref":"ｼｽﾞｵｶｹﾝ","kana_city":"ｲｽﾞｼ","kana_address":"ﾋｴｶﾜ","pref":"静岡県","city":"伊豆市","address":"冷川"},
{"zip_code":"4102406","kana_pref":"ｼｽﾞｵｶｹﾝ","kana_city":"ｲｽﾞｼ","kana_address":"ﾋﾅﾀ","pref":"静岡県","city":"伊豆市","address":"日向"},
{"zip_code":"4102518","kana_pref":"ｼｽﾞｵｶｹﾝ","kana_city":"ｲｽﾞｼ","kana_address":"ﾋﾒﾉﾕ","pref":"静岡県","city":"伊豆市","address":"姫之湯"},
{"zip_code":"4102418","kana_pref":"ｼｽﾞｵｶｹﾝ","kana_city":"ｲｽﾞｼ","kana_address":"ﾎﾘｷﾞﾘ","pref":"静岡県","city":"伊豆市","address":"堀切"},
{"zip_code":"4103212","kana_pref":"ｼｽﾞｵｶｹﾝ","kana_city":"ｲｽﾞｼ","kana_address":"ﾎﾝｶｷｷﾞ","pref":"静岡県","city":"伊豆市","address":"本柿木"},
{"zip_code":"4102414","kana_pref":"ｼｽﾞｵｶｹﾝ","kana_city":"ｲｽﾞｼ","kana_address":"ﾎﾝﾀﾞﾁﾉ","pref":"静岡県","city":"伊豆市","address":"本立野"},
{"zip_code":"4102401","kana_pref":"ｼｽﾞｵｶｹﾝ","kana_city":"ｲｽﾞｼ","kana_address":"ﾏｷﾉｺｳ","pref":"静岡県","city":"伊豆市","address":"牧之郷"},
{"zip_code":"4103211","kana_pref":"ｼｽﾞｵｶｹﾝ","kana_city":"ｲｽﾞｼ","kana_address":"ﾏﾂｶﾞｾ","pref":"静岡県","city":"伊豆市","address":"松ケ瀬"},
{"zip_code":"4102511","kana_pref":"ｼｽﾞｵｶｹﾝ","kana_city":"ｲｽﾞｼ","kana_address":"ﾐﾔｶﾐ","pref":"静岡県","city":"伊豆市","address":"宮上"},
{"zip_code":"4103207","kana_pref":"ｼｽﾞｵｶｹﾝ","kana_city":"ｲｽﾞｼ","kana_address":"ﾓﾁｺｼ","pref":"静岡県","city":"伊豆市","address":"持越"},
{"zip_code":"4103303","kana_pref":"ｼｽﾞｵｶｹﾝ","kana_city":"ｲｽﾞｼ","kana_address":"ﾔｷﾞｻﾜ","pref":"静岡県","city":"伊豆市","address":"八木沢"},
{"zip_code":"4103203","kana_pref":"ｼｽﾞｵｶｹﾝ","kana_city":"ｲｽﾞｼ","kana_address":"ﾔｸﾞﾏ","pref":"静岡県","city":"伊豆市","address":"矢熊"},
{"zip_code":"4102508","kana_pref":"ｼｽﾞｵｶｹﾝ","kana_city":"ｲｽﾞｼ","kana_address":"ﾔﾅｾ","pref":"静岡県","city":"伊豆市","address":"柳瀬"},
{"zip_code":"4103206","kana_pref":"ｼｽﾞｵｶｹﾝ","kana_city":"ｲｽﾞｼ","kana_address":"ﾕｶﾞｼﾏ","pref":"静岡県","city":"伊豆市","address":"湯ケ島"},
{"zip_code":"4103208","kana_pref":"ｼｽﾞｵｶｹﾝ","kana_city":"ｲｽﾞｼ","kana_address":"ﾖｼﾅ","pref":"静岡県","city":"伊豆市","address":"吉奈"},
{"zip_code":"4102514","kana_pref":"ｼｽﾞｵｶｹﾝ","kana_city":"ｲｽﾞｼ","kana_address":"ﾜﾗﾎﾞ","pref":"静岡県","city":"伊豆市","address":"原保"},
{"zip_code":"4102200","kana_pref":"ｼｽﾞｵｶｹﾝ","kana_city":"ｲｽﾞﾉｸﾆｼ","kana_address":"","pref":"静岡県","city":"伊豆の国市","address":""},
{"zip_code":"4102202","kana_pref":"ｼｽﾞｵｶｹﾝ","kana_city":"ｲｽﾞﾉｸﾆｼ","kana_address":"ｱﾏﾉ","pref":"静岡県","city":"伊豆の国市","address":"天野"},
{"zip_code":"4102311","kana_pref":"ｼｽﾞｵｶｹﾝ","kana_city":"ｲｽﾞﾉｸﾆｼ","kana_address":"ｳｷﾊｼ","pref":"静岡県","city":"伊豆の国市","address":"浮橋"},
{"zip_code":"4102112","kana_pref":"ｼｽﾞｵｶｹﾝ","kana_city":"ｲｽﾞﾉｸﾆｼ","kana_address":"ｳﾁﾅｶ","pref":"静岡県","city":"伊豆の国市","address":"内中"},
{"zip_code":"4102103","kana_pref":"ｼｽﾞｵｶｹﾝ","kana_city":"ｲｽﾞﾉｸﾆｼ","kana_address":"ｴﾒﾗﾙﾄﾞﾀｳﾝ","pref":"静岡県","city":"伊豆の国市","address":"エメラルドタウン"},
{"zip_code":"4102323","kana_pref":"ｼｽﾞｵｶｹﾝ","kana_city":"ｲｽﾞﾉｸﾆｼ","kana_address":"ｵｵﾋﾄ","pref":"静岡県","city":"伊豆の国市","address":"大仁"},
{"zip_code":"4102203","kana_pref":"ｼｽﾞｵｶｹﾝ","kana_city":"ｲｽﾞﾉｸﾆｼ","kana_address":"ｵｻｶ","pref":"静岡県","city":"伊豆の国市","address":"小坂"},
{"zip_code":"4102325","kana_pref":"ｼｽﾞｵｶｹﾝ","kana_city":"ｲｽﾞﾉｸﾆｼ","kana_address":"ｶﾐｼﾏ","pref":"静岡県","city":"伊豆の国市","address":"神島"},
{"zip_code":"4102223","kana_pref":"ｼｽﾞｵｶｹﾝ","kana_city":"ｲｽﾞﾉｸﾆｼ","kana_address":"ｷﾀｴﾏ","pref":"静岡県","city":"伊豆の国市","address":"北江間"},
{"zip_code":"4102201","kana_pref":"ｼｽﾞｵｶｹﾝ","kana_city":"ｲｽﾞﾉｸﾆｼ","kana_address":"ｺﾅ","pref":"静岡県","city":"伊豆の国市","address":"古奈"},
{"zip_code":"4102101","kana_pref":"ｼｽﾞｵｶｹﾝ","kana_city":"ｲｽﾞﾉｸﾆｼ","kana_address":"ｺﾏﾂｶﾞﾊﾗ","pref":"静岡県","city":"伊豆の国市","address":"小松ケ原"},
{"zip_code":"4102122","kana_pref":"ｼｽﾞｵｶｹﾝ","kana_city":"ｲｽﾞﾉｸﾆｼ","kana_address":"ｼﾞｹ","pref":"静岡県","city":"伊豆の国市","address":"寺家"},
{"zip_code":"4102314","kana_pref":"ｼｽﾞｵｶｹﾝ","kana_city":"ｲｽﾞﾉｸﾆｼ","kana_address":"ｼﾓﾊﾀ","pref":"静岡県","city":"伊豆の国市","address":"下畑"},
{"zip_code":"4102318","kana_pref":"ｼｽﾞｵｶｹﾝ","kana_city":"ｲｽﾞﾉｸﾆｼ","kana_address":"ｼﾗﾔﾏﾄﾞｳ","pref":"静岡県","city":"伊豆の国市","address":"白山堂"},
{"zip_code":"4102302","kana_pref":"ｼｽﾞｵｶｹﾝ","kana_city":"ｲｽﾞﾉｸﾆｼ","kana_address":"ｿｳｺｳｼﾞ","pref":"静岡県","city":"伊豆の国市","address":"宗光寺"},
{"zip_code":"4102304","kana_pref":"ｼｽﾞｵｶｹﾝ","kana_city":"ｲｽﾞﾉｸﾆｼ","kana_address":"ｿｳｺｳｼﾞ","pref":"静岡県","city":"伊豆の国市","address":"宗光寺"},
{"zip_code":"4102315","kana_pref":"ｼｽﾞｵｶｹﾝ","kana_city":"ｲｽﾞﾉｸﾆｼ","kana_address":"ﾀｷｮｳ","pref":"静岡県","city":"伊豆の国市","address":"田京"},
{"zip_code":"4102303","kana_pref":"ｼｽﾞｵｶｹﾝ","kana_city":"ｲｽﾞﾉｸﾆｼ","kana_address":"ﾀﾁﾊﾞﾅ","pref":"静岡県","city":"伊豆の国市","address":"立花"},
{"zip_code":"4102111","kana_pref":"ｼｽﾞｵｶｹﾝ","kana_city":"ｲｽﾞﾉｸﾆｼ","kana_address":"ﾀﾁﾊﾞﾅﾀﾞｲ","pref":"静岡県","city":"伊豆の国市","address":"立花台"},
{"zip_code":"4102301","kana_pref":"ｼｽﾞｵｶｹﾝ","kana_city":"ｲｽﾞﾉｸﾆｼ","kana_address":"ﾀﾅｶﾔﾏ","pref":"静岡県","city":"伊豆の国市","address":"田中山"},
{"zip_code":"4102313","kana_pref":"ｼｽﾞｵｶｹﾝ","kana_city":"ｲｽﾞﾉｸﾆｼ","kana_address":"ﾀﾜﾗﾉ","pref":"静岡県","city":"伊豆の国市","address":"田原野"},
{"zip_code":"4102121","kana_pref":"ｼｽﾞｵｶｹﾝ","kana_city":"ｲｽﾞﾉｸﾆｼ","kana_address":"ﾁｭｳｼﾞｮｳ","pref":"静岡県","city":"伊豆の国市","address":"中條"},
{"zip_code":"4102312","kana_pref":"ｼｽﾞｵｶｹﾝ","kana_city":"ｲｽﾞﾉｸﾆｼ","kana_address":"ﾁｮｳｼﾞｬｶﾞﾊﾗ","pref":"静岡県","city":"伊豆の国市","address":"長者原"},
{"zip_code":"4102213","kana_pref":"ｼｽﾞｵｶｹﾝ","kana_city":"ｲｽﾞﾉｸﾆｼ","kana_address":"ﾄｻﾜ","pref":"静岡県","city":"伊豆の国市","address":"戸沢"},
{"zip_code":"4102113","kana_pref":"ｼｽﾞｵｶｹﾝ","kana_city":"ｲｽﾞﾉｸﾆｼ","kana_address":"ﾅｶ","pref":"静岡県","city":"伊豆の国市","address":"中"},
{"zip_code":"4102211","kana_pref":"ｼｽﾞｵｶｹﾝ","kana_city":"ｲｽﾞﾉｸﾆｼ","kana_address":"ﾅｶﾞｵｶ","pref":"静岡県","city":"伊豆の国市","address":"長岡"},
{"zip_code":"4102131","kana_pref":"ｼｽﾞｵｶｹﾝ","kana_city":"ｲｽﾞﾉｸﾆｼ","kana_address":"ﾅｶﾞｻｷ","pref":"静岡県","city":"伊豆の国市","address":"長崎"},
{"zip_code":"4102324","kana_pref":"ｼｽﾞｵｶｹﾝ","kana_city":"ｲｽﾞﾉｸﾆｼ","kana_address":"ﾅｶｼﾞﾏ","pref":"静岡県","city":"伊豆の国市","address":"中島"},
{"zip_code":"4102212","kana_pref":"ｼｽﾞｵｶｹﾝ","kana_city":"ｲｽﾞﾉｸﾆｼ","kana_address":"ﾅｶﾞｾ","pref":"静岡県","city":"伊豆の国市","address":"長瀬"},
{"zip_code":"4102132","kana_pref":"ｼｽﾞｵｶｹﾝ","kana_city":"ｲｽﾞﾉｸﾆｼ","kana_address":"ﾅｺﾞﾔ","pref":"静岡県","city":"伊豆の国市","address":"奈古谷"},
{"zip_code":"4102114","kana_pref":"ｼｽﾞｵｶｹﾝ","kana_city":"ｲｽﾞﾉｸﾆｼ","kana_address":"ﾅﾝｼﾞｮｳ","pref":"静岡県","city":"伊豆の国市","address":"南條"},
{"zip_code":"4102142","kana_pref":"ｼｽﾞｵｶｹﾝ","kana_city":"ｲｽﾞﾉｸﾆｼ","kana_address":"ﾆﾗﾔﾏｶﾅﾔ","pref":"静岡県","city":"伊豆の国市","address":"韮山金谷"},
{"zip_code":"4102133","kana_pref":"ｼｽﾞｵｶｹﾝ","kana_city":"ｲｽﾞﾉｸﾆｼ","kana_address":"ﾆﾗﾔﾏﾀﾀﾞ","pref":"静岡県","city":"伊豆の国市","address":"韮山多田"},
{"zip_code":"4102144","kana_pref":"ｼｽﾞｵｶｹﾝ","kana_city":"ｲｽﾞﾉｸﾆｼ","kana_address":"ﾆﾗﾔﾏﾄﾞﾃﾜﾀﾞ","pref":"静岡県","city":"伊豆の国市","address":"韮山土手和田"},
{"zip_code":"4102143","kana_pref":"ｼｽﾞｵｶｹﾝ","kana_city":"ｲｽﾞﾉｸﾆｼ","kana_address":"ﾆﾗﾔﾏﾆﾗﾔﾏ","pref":"静岡県","city":"伊豆の国市","address":"韮山韮山"},
{"zip_code":"4102141","kana_pref":"ｼｽﾞｵｶｹﾝ","kana_city":"ｲｽﾞﾉｸﾆｼ","kana_address":"ﾆﾗﾔﾏﾔﾏｷ","pref":"静岡県","city":"伊豆の国市","address":"韮山山木"},
{"zip_code":"4102214","kana_pref":"ｼｽﾞｵｶｹﾝ","kana_city":"ｲｽﾞﾉｸﾆｼ","kana_address":"ﾊﾅｻｶ","pref":"静岡県","city":"伊豆の国市","address":"花坂"},
{"zip_code":"4102124","kana_pref":"ｼｽﾞｵｶｹﾝ","kana_city":"ｲｽﾞﾉｸﾆｼ","kana_address":"ﾊﾞﾗｷ","pref":"静岡県","city":"伊豆の国市","address":"原木"},
{"zip_code":"4102205","kana_pref":"ｼｽﾞｵｶｹﾝ","kana_city":"ｲｽﾞﾉｸﾆｼ","kana_address":"ﾌｼﾞﾐ","pref":"静岡県","city":"伊豆の国市","address":"富士見"},
{"zip_code":"4102102","kana_pref":"ｼｽﾞｵｶｹﾝ","kana_city":"ｲｽﾞﾉｸﾆｼ","kana_address":"ﾌｼﾞﾐﾆｭｰﾀｳﾝ","pref":"静岡県","city":"伊豆の国市","address":"富士見ニュータウン"},
{"zip_code":"4102204","kana_pref":"ｼｽﾞｵｶｹﾝ","kana_city":"ｲｽﾞﾉｸﾆｼ","kana_address":"ﾏﾏﾉｳｴ","pref":"静岡県","city":"伊豆の国市","address":"墹之上"},
{"zip_code":"4102316","kana_pref":"ｼｽﾞｵｶｹﾝ","kana_city":"ｲｽﾞﾉｸﾆｼ","kana_address":"ﾐｶﾄﾞ","pref":"静岡県","city":"伊豆の国市","address":"御門"},
{"zip_code":"4102221","kana_pref":"ｼｽﾞｵｶｹﾝ","kana_city":"ｲｽﾞﾉｸﾆｼ","kana_address":"ﾐﾅﾐｴﾏ","pref":"静岡県","city":"伊豆の国市","address":"南江間"},
{"zip_code":"4102321","kana_pref":"ｼｽﾞｵｶｹﾝ","kana_city":"ｲｽﾞﾉｸﾆｼ","kana_address":"ﾐﾌｸ","pref":"静岡県","city":"伊豆の国市","address":"三福"},
{"zip_code":"4102317","kana_pref":"ｼｽﾞｵｶｹﾝ","kana_city":"ｲｽﾞﾉｸﾆｼ","kana_address":"ﾓﾘｷ","pref":"静岡県","city":"伊豆の国市","address":"守木"},
{"zip_code":"4102322","kana_pref":"ｼｽﾞｵｶｹﾝ","kana_city":"ｲｽﾞﾉｸﾆｼ","kana_address":"ﾖｼﾀﾞ","pref":"静岡県","city":"伊豆の国市","address":"吉田"},
{"zip_code":"4102123","kana_pref":"ｼｽﾞｵｶｹﾝ","kana_city":"ｲｽﾞﾉｸﾆｼ","kana_address":"ﾖｯｶﾏﾁ","pref":"静岡県","city":"伊豆の国市","address":"四日町"},
{"zip_code":"4103600","kana_pref":"ｼｽﾞｵｶｹﾝ","kana_city":"ｶﾓｸﾞﾝﾏﾂｻﾞｷﾁｮｳ","kana_address":"","pref":"静岡県","city":"賀茂郡松崎町","address":""},
{"zip_code":"4103603","kana_pref":"ｼｽﾞｵｶｹﾝ","kana_city":"ｶﾓｸﾞﾝﾏﾂｻﾞｷﾁｮｳ","kana_address":"ｱｹﾌﾞｼ","pref":"静岡県","city":"賀茂郡松崎町","address":"明伏"},
{"zip_code":"4103601","kana_pref":"ｼｽﾞｵｶｹﾝ","kana_city":"ｶﾓｸﾞﾝﾏﾂｻﾞｷﾁｮｳ","kana_address":"ｲｹｼﾛ","pref":"静岡県","city":"賀茂郡松崎町","address":"池代"},
{"zip_code":"4103616","kana_pref":"ｼｽﾞｵｶｹﾝ","kana_city":"ｶﾓｸﾞﾝﾏﾂｻﾞｷﾁｮｳ","kana_address":"ｲｼﾌﾞ","pref":"静岡県","city":"賀茂郡松崎町","address":"石部"},
{"zip_code":"4103614","kana_pref":"ｼｽﾞｵｶｹﾝ","kana_city":"ｶﾓｸﾞﾝﾏﾂｻﾞｷﾁｮｳ","kana_address":"ｲﾜｼﾅﾅﾝｿｸ","pref":"静岡県","city":"賀茂郡松崎町","address":"岩科南側"},
{"zip_code":"4103613","kana_pref":"ｼｽﾞｵｶｹﾝ","kana_city":"ｶﾓｸﾞﾝﾏﾂｻﾞｷﾁｮｳ","kana_address":"ｲﾜｼﾅﾎｸｿｸ","pref":"静岡県","city":"賀茂郡松崎町","address":"岩科北側"},
{"zip_code":"4103617","kana_pref":"ｼｽﾞｵｶｹﾝ","kana_city":"ｶﾓｸﾞﾝﾏﾂｻﾞｷﾁｮｳ","kana_address":"ｲﾜﾁ","pref":"静岡県","city":"賀茂郡松崎町","address":"岩地"},
{"zip_code":"4103624","kana_pref":"ｼｽﾞｵｶｹﾝ","kana_city":"ｶﾓｸﾞﾝﾏﾂｻﾞｷﾁｮｳ","kana_address":"ｴﾅ","pref":"静岡県","city":"賀茂郡松崎町","address":"江奈"},
{"zip_code":"4103604","kana_pref":"ｼｽﾞｵｶｹﾝ","kana_city":"ｶﾓｸﾞﾝﾏﾂｻﾞｷﾁｮｳ","kana_address":"ｵｵｻﾜ","pref":"静岡県","city":"賀茂郡松崎町","address":"大沢"},
{"zip_code":"4103607","kana_pref":"ｼｽﾞｵｶｹﾝ","kana_city":"ｶﾓｸﾞﾝﾏﾂｻﾞｷﾁｮｳ","kana_address":"ｶﾄﾞﾉ","pref":"静岡県","city":"賀茂郡松崎町","address":"門野"},
{"zip_code":"4103615","kana_pref":"ｼｽﾞｵｶｹﾝ","kana_city":"ｶﾓｸﾞﾝﾏﾂｻﾞｷﾁｮｳ","kana_address":"ｸﾓﾐ","pref":"静岡県","city":"賀茂郡松崎町","address":"雲見"},
{"zip_code":"4103627","kana_pref":"ｼｽﾞｵｶｹﾝ","kana_city":"ｶﾓｸﾞﾝﾏﾂｻﾞｷﾁｮｳ","kana_address":"ｹﾝｷｭｳｼﾞ","pref":"静岡県","city":"賀茂郡松崎町","address":"建久寺"},
{"zip_code":"4103602","kana_pref":"ｼｽﾞｵｶｹﾝ","kana_city":"ｶﾓｸﾞﾝﾏﾂｻﾞｷﾁｮｳ","kana_address":"ｺｽｷﾞﾊﾗ","pref":"静岡県","city":"賀茂郡松崎町","address":"小杉原"},
{"zip_code":"4103625","kana_pref":"ｼｽﾞｵｶｹﾝ","kana_city":"ｶﾓｸﾞﾝﾏﾂｻﾞｷﾁｮｳ","kana_address":"ｻｸﾗﾀﾞ","pref":"静岡県","city":"賀茂郡松崎町","address":"桜田"},
{"zip_code":"4103623","kana_pref":"ｼｽﾞｵｶｹﾝ","kana_city":"ｶﾓｸﾞﾝﾏﾂｻﾞｷﾁｮｳ","kana_address":"ｼｸﾗ","pref":"静岡県","city":"賀茂郡松崎町","address":"伏倉"},
{"zip_code":"4103626","kana_pref":"ｼｽﾞｵｶｹﾝ","kana_city":"ｶﾓｸﾞﾝﾏﾂｻﾞｷﾁｮｳ","kana_address":"ﾅｶ","pref":"静岡県","city":"賀茂郡松崎町","address":"那賀"},
{"zip_code":"4103622","kana_pref":"ｼｽﾞｵｶｹﾝ","kana_city":"ｶﾓｸﾞﾝﾏﾂｻﾞｷﾁｮｳ","kana_address":"ﾅﾝｺﾞｳ","pref":"静岡県","city":"賀茂郡松崎町","address":"南郷"},
{"zip_code":"4103606","kana_pref":"ｼｽﾞｵｶｹﾝ","kana_city":"ｶﾓｸﾞﾝﾏﾂｻﾞｷﾁｮｳ","kana_address":"ﾌﾅﾀ","pref":"静岡県","city":"賀茂郡松崎町","address":"船田"},
{"zip_code":"4103611","kana_pref":"ｼｽﾞｵｶｹﾝ","kana_city":"ｶﾓｸﾞﾝﾏﾂｻﾞｷﾁｮｳ","kana_address":"ﾏﾂｻﾞｷ","pref":"静岡県","city":"賀茂郡松崎町","address":"松崎"},
{"zip_code":"4103618","kana_pref":"ｼｽﾞｵｶｹﾝ","kana_city":"ｶﾓｸﾞﾝﾏﾂｻﾞｷﾁｮｳ","kana_address":"ﾐﾁﾌﾞ","pref":"静岡県","city":"賀茂郡松崎町","address":"道部"},
{"zip_code":"4103605","kana_pref":"ｼｽﾞｵｶｹﾝ","kana_city":"ｶﾓｸﾞﾝﾏﾂｻﾞｷﾁｮｳ","kana_address":"ﾐﾈﾜ","pref":"静岡県","city":"賀茂郡松崎町","address":"峰輪"},
{"zip_code":"4103612","kana_pref":"ｼｽﾞｵｶｹﾝ","kana_city":"ｶﾓｸﾞﾝﾏﾂｻﾞｷﾁｮｳ","kana_address":"ﾐﾔｳﾁ","pref":"静岡県","city":"賀茂郡松崎町","address":"宮内"},
{"zip_code":"4103621","kana_pref":"ｼｽﾞｵｶｹﾝ","kana_city":"ｶﾓｸﾞﾝﾏﾂｻﾞｷﾁｮｳ","kana_address":"ﾖｼﾀﾞ","pref":"静岡県","city":"賀茂郡松崎町","address":"吉田"},
{"zip_code":"4103500","kana_pref":"ｼｽﾞｵｶｹﾝ","kana_city":"ｶﾓｸﾞﾝﾆｼｲｽﾞﾁｮｳ","kana_address":"","pref":"静岡県","city":"賀茂郡西伊豆町","address":""},
{"zip_code":"4103502","kana_pref":"ｼｽﾞｵｶｹﾝ","kana_city":"ｶﾓｸﾞﾝﾆｼｲｽﾞﾁｮｳ","kana_address":"ｱﾗﾘ","pref":"静岡県","city":"賀茂郡西伊豆町","address":"安良里"},
{"zip_code":"4103512","kana_pref":"ｼｽﾞｵｶｹﾝ","kana_city":"ｶﾓｸﾞﾝﾆｼｲｽﾞﾁｮｳ","kana_address":"ｲｼｷ","pref":"静岡県","city":"賀茂郡西伊豆町","address":"一色"},
{"zip_code":"4103501","kana_pref":"ｼｽﾞｵｶｹﾝ","kana_city":"ｶﾓｸﾞﾝﾆｼｲｽﾞﾁｮｳ","kana_address":"ｳｸﾞｽ","pref":"静岡県","city":"賀茂郡西伊豆町","address":"宇久須"},
{"zip_code":"4103511","kana_pref":"ｼｽﾞｵｶｹﾝ","kana_city":"ｶﾓｸﾞﾝﾆｼｲｽﾞﾁｮｳ","kana_address":"ｵｵｿｳﾘ","pref":"静岡県","city":"賀茂郡西伊豆町","address":"大沢里"},
{"zip_code":"4103515","kana_pref":"ｼｽﾞｵｶｹﾝ","kana_city":"ｶﾓｸﾞﾝﾆｼｲｽﾞﾁｮｳ","kana_address":"ﾀｺﾞ","pref":"静岡県","city":"賀茂郡西伊豆町","address":"田子"},
{"zip_code":"4103513","kana_pref":"ｼｽﾞｵｶｹﾝ","kana_city":"ｶﾓｸﾞﾝﾆｼｲｽﾞﾁｮｳ","kana_address":"ﾅｶ","pref":"静岡県","city":"賀茂郡西伊豆町","address":"中"},
{"zip_code":"4103514","kana_pref":"ｼｽﾞｵｶｹﾝ","kana_city":"ｶﾓｸﾞﾝﾆｼｲｽﾞﾁｮｳ","kana_address":"ﾆｼﾅ","pref":"静岡県","city":"賀茂郡西伊豆町","address":"仁科"},
{"zip_code":"4101300","kana_pref":"ｼｽﾞｵｶｹﾝ","kana_city":"ｽﾝﾄｳｸﾞﾝｵﾔﾏﾁｮｳ","kana_address":"","pref":"静岡県","city":"駿東郡小山町","address":""},
{"zip_code":"4101321","kana_pref":"ｼｽﾞｵｶｹﾝ","kana_city":"ｽﾝﾄｳｸﾞﾝｵﾔﾏﾁｮｳ","kana_address":"ｱﾀﾞﾉ","pref":"静岡県","city":"駿東郡小山町","address":"阿多野"},
{"zip_code":"4101314","kana_pref":"ｼｽﾞｵｶｹﾝ","kana_city":"ｽﾝﾄｳｸﾞﾝｵﾔﾏﾁｮｳ","kana_address":"ｱﾗｼﾊﾞ","pref":"静岡県","city":"駿東郡小山町","address":"新柴"},
{"zip_code":"4101303","kana_pref":"ｼｽﾞｵｶｹﾝ","kana_city":"ｽﾝﾄｳｸﾞﾝｵﾔﾏﾁｮｳ","kana_address":"ｲｷﾄﾞ","pref":"静岡県","city":"駿東郡小山町","address":"生土"},
{"zip_code":"4101325","kana_pref":"ｼｽﾞｵｶｹﾝ","kana_city":"ｽﾝﾄｳｸﾞﾝｵﾔﾏﾁｮｳ","kana_address":"ｲｼｷ","pref":"静岡県","city":"駿東郡小山町","address":"一色"},
{"zip_code":"4101306","kana_pref":"ｼｽﾞｵｶｹﾝ","kana_city":"ｽﾝﾄｳｸﾞﾝｵﾔﾏﾁｮｳ","kana_address":"ｳｴﾉ","pref":"静岡県","city":"駿東郡小山町","address":"上野"},
{"zip_code":"4101317","kana_pref":"ｼｽﾞｵｶｹﾝ","kana_city":"ｽﾝﾄｳｸﾞﾝｵﾔﾏﾁｮｳ","kana_address":"ｵｵｺﾞﾀﾞ","pref":"静岡県","city":"駿東郡小山町","address":"大胡田"},
{"zip_code":"4101308","kana_pref":"ｼｽﾞｵｶｹﾝ","kana_city":"ｽﾝﾄｳｸﾞﾝｵﾔﾏﾁｮｳ","kana_address":"ｵｵﾐｶ","pref":"静岡県","city":"駿東郡小山町","address":"大御神"},
{"zip_code":"4101311","kana_pref":"ｼｽﾞｵｶｹﾝ","kana_city":"ｽﾝﾄｳｸﾞﾝｵﾔﾏﾁｮｳ","kana_address":"ｵﾔﾏ","pref":"静岡県","city":"駿東郡小山町","address":"小山"},
{"zip_code":"4101323","kana_pref":"ｼｽﾞｵｶｹﾝ","kana_city":"ｽﾝﾄｳｸﾞﾝｵﾔﾏﾁｮｳ","kana_address":"ｶﾐﾌﾙｼﾛ","pref":"静岡県","city":"駿東郡小山町","address":"上古城"},
{"zip_code":"4101315","kana_pref":"ｼｽﾞｵｶｹﾝ","kana_city":"ｽﾝﾄｳｸﾞﾝｵﾔﾏﾁｮｳ","kana_address":"ｸﾜｷﾞ","pref":"静岡県","city":"駿東郡小山町","address":"桑木"},
{"zip_code":"4101432","kana_pref":"ｼｽﾞｵｶｹﾝ","kana_city":"ｽﾝﾄｳｸﾞﾝｵﾔﾏﾁｮｳ","kana_address":"ｼﾞｴｲﾀｲﾌｼﾞｶﾞｯｺｳ","pref":"静岡県","city":"駿東郡小山町","address":"自衛隊富士学校"},
{"zip_code":"4101324","kana_pref":"ｼｽﾞｵｶｹﾝ","kana_city":"ｽﾝﾄｳｸﾞﾝｵﾔﾏﾁｮｳ","kana_address":"ｼﾓｺﾊﾞﾔｼ","pref":"静岡県","city":"駿東郡小山町","address":"下小林"},
{"zip_code":"4101316","kana_pref":"ｼｽﾞｵｶｹﾝ","kana_city":"ｽﾝﾄｳｸﾞﾝｵﾔﾏﾁｮｳ","kana_address":"ｼﾓﾌﾙｼﾛ","pref":"静岡県","city":"駿東郡小山町","address":"下古城"},
{"zip_code":"4101312","kana_pref":"ｼｽﾞｵｶｹﾝ","kana_city":"ｽﾝﾄｳｸﾞﾝｵﾔﾏﾁｮｳ","kana_address":"ｽｶﾞﾇﾏ","pref":"静岡県","city":"駿東郡小山町","address":"菅沼"},
{"zip_code":"4101431","kana_pref":"ｼｽﾞｵｶｹﾝ","kana_city":"ｽﾝﾄｳｸﾞﾝｵﾔﾏﾁｮｳ","kana_address":"ｽﾊﾞｼﾘ","pref":"静岡県","city":"駿東郡小山町","address":"須走"},
{"zip_code":"4101313","kana_pref":"ｼｽﾞｵｶｹﾝ","kana_city":"ｽﾝﾄｳｸﾞﾝｵﾔﾏﾁｮｳ","kana_address":"ﾀｹﾉｼﾀ","pref":"静岡県","city":"駿東郡小山町","address":"竹之下"},
{"zip_code":"4101327","kana_pref":"ｼｽﾞｵｶｹﾝ","kana_city":"ｽﾝﾄｳｸﾞﾝｵﾔﾏﾁｮｳ","kana_address":"ﾀﾅｶﾞｼﾗ","pref":"静岡県","city":"駿東郡小山町","address":"棚頭"},
{"zip_code":"4101302","kana_pref":"ｼｽﾞｵｶｹﾝ","kana_city":"ｽﾝﾄｳｸﾞﾝｵﾔﾏﾁｮｳ","kana_address":"ﾅｶｼﾞﾏ","pref":"静岡県","city":"駿東郡小山町","address":"中島"},
{"zip_code":"4101307","kana_pref":"ｼｽﾞｵｶｹﾝ","kana_city":"ｽﾝﾄｳｸﾞﾝｵﾔﾏﾁｮｳ","kana_address":"ﾅｶﾋﾅﾀ","pref":"静岡県","city":"駿東郡小山町","address":"中日向"},
{"zip_code":"4101304","kana_pref":"ｼｽﾞｵｶｹﾝ","kana_city":"ｽﾝﾄｳｸﾞﾝｵﾔﾏﾁｮｳ","kana_address":"ﾌｼﾞﾏｶﾞﾘ","pref":"静岡県","city":"駿東郡小山町","address":"藤曲"},
{"zip_code":"4101301","kana_pref":"ｼｽﾞｵｶｹﾝ","kana_city":"ｽﾝﾄｳｸﾞﾝｵﾔﾏﾁｮｳ","kana_address":"ﾔﾅｷﾞｼﾏ","pref":"静岡県","city":"駿東郡小山町","address":"柳島"},
{"zip_code":"4101305","kana_pref":"ｼｽﾞｵｶｹﾝ","kana_city":"ｽﾝﾄｳｸﾞﾝｵﾔﾏﾁｮｳ","kana_address":"ﾕﾌﾞﾈ","pref":"静岡県","city":"駿東郡小山町","address":"湯船"},
{"zip_code":"4101326","kana_pref":"ｼｽﾞｵｶｹﾝ","kana_city":"ｽﾝﾄｳｸﾞﾝｵﾔﾏﾁｮｳ","kana_address":"ﾖｳｻﾜ","pref":"静岡県","city":"駿東郡小山町","address":"用沢"},
{"zip_code":"4101322","kana_pref":"ｼｽﾞｵｶｹﾝ","kana_city":"ｽﾝﾄｳｸﾞﾝｵﾔﾏﾁｮｳ","kana_address":"ﾖｼｸﾎﾞ","pref":"静岡県","city":"駿東郡小山町","address":"吉久保"}]}