{"zip_code":[
{"zip_code":"4110000","kana_pref":"ｼｽﾞｵｶｹﾝ","kana_city":"ﾐｼﾏｼ","kana_address":"","pref":"静岡県","city":"三島市","address":""},
{"zip_code":"4110811","kana_pref":"ｼｽﾞｵｶｹﾝ","kana_city":"ﾐｼﾏｼ","kana_address":"ｱｵｷ","pref":"静岡県","city":"三島市","address":"青木"},
{"zip_code":"4110020","kana_pref":"ｼｽﾞｵｶｹﾝ","kana_city":"ﾐｼﾏｼ","kana_address":"ｱｻﾋｶﾞｵｶ","pref":"静岡県","city":"三島市","address":"旭ケ丘"},
{"zip_code":"4110834","kana_pref":"ｼｽﾞｵｶｹﾝ","kana_city":"ﾐｼﾏｼ","kana_address":"ｱﾗﾔ","pref":"静岡県","city":"三島市","address":"新谷"},
{"zip_code":"4110037","kana_pref":"ｼｽﾞｵｶｹﾝ","kana_city":"ﾐｼﾏｼ","kana_address":"ｲｽﾞﾐﾁｮｳ","pref":"静岡県","city":"三島市","address":"泉町"},
{"zip_code":"4110015","kana_pref":"ｼｽﾞｵｶｹﾝ","kana_city":"ﾐｼﾏｼ","kana_address":"ｲﾁﾉﾔﾏｼﾝﾃﾞﾝ","pref":"静岡県","city":"三島市","address":"市山新田"},
{"zip_code":"4110036","kana_pref":"ｼｽﾞｵｶｹﾝ","kana_city":"ﾐｼﾏｼ","kana_address":"ｲﾁﾊﾞﾝﾁｮｳ","pref":"静岡県","city":"三島市","address":"一番町"},
{"zip_code":"4110025","kana_pref":"ｼｽﾞｵｶｹﾝ","kana_city":"ﾐｼﾏｼ","kana_address":"ｲｯﾁｮｳﾀﾞ","pref":"静岡県","city":"三島市","address":"壱町田"},
{"zip_code":"4110816","kana_pref":"ｼｽﾞｵｶｹﾝ","kana_city":"ﾐｼﾏｼ","kana_address":"ｳﾒﾅ","pref":"静岡県","city":"三島市","address":"梅名"},
{"zip_code":"4110035","kana_pref":"ｼｽﾞｵｶｹﾝ","kana_city":"ﾐｼﾏｼ","kana_address":"ｵｵﾐﾔﾁｮｳ","pref":"静岡県","city":"三島市","address":"大宮町"},
{"zip_code":"4110023","kana_pref":"ｼｽﾞｵｶｹﾝ","kana_city":"ﾐｼﾏｼ","kana_address":"ｶﾓ","pref":"静岡県","city":"三島市","address":"加茂"},
{"zip_code":"4110034","kana_pref":"ｼｽﾞｵｶｹﾝ","kana_city":"ﾐｼﾏｼ","kana_address":"ｶﾓｶﾞﾜﾁｮｳ","pref":"静岡県","city":"三島市","address":"加茂川町"},
{"zip_code":"4110845","kana_pref":"ｼｽﾞｵｶｹﾝ","kana_city":"ﾐｼﾏｼ","kana_address":"ｶﾔﾏﾁ","pref":"静岡県","city":"三島市","address":"加屋町"},
{"zip_code":"4110022","kana_pref":"ｼｽﾞｵｶｹﾝ","kana_city":"ﾐｼﾏｼ","kana_address":"ｶﾜﾊﾗｶﾞﾔ","pref":"静岡県","city":"三島市","address":"川原ケ谷"},
{"zip_code":"4110805","kana_pref":"ｼｽﾞｵｶｹﾝ","kana_city":"ﾐｼﾏｼ","kana_address":"ｷﾀｻﾞﾜ","pref":"静岡県","city":"三島市","address":"北沢"},
{"zip_code":"4110854","kana_pref":"ｼｽﾞｵｶｹﾝ","kana_city":"ﾐｼﾏｼ","kana_address":"ｷﾀﾀﾏﾁ","pref":"静岡県","city":"三島市","address":"北田町"},
{"zip_code":"4110844","kana_pref":"ｼｽﾞｵｶｹﾝ","kana_city":"ﾐｼﾏｼ","kana_address":"ｷﾖｽﾞﾐﾁｮｳ","pref":"静岡県","city":"三島市","address":"清住町"},
{"zip_code":"4110031","kana_pref":"ｼｽﾞｵｶｹﾝ","kana_city":"ﾐｼﾏｼ","kana_address":"ｺｳﾊﾞﾗﾁｮｳ","pref":"静岡県","city":"三島市","address":"幸原町"},
{"zip_code":"4110039","kana_pref":"ｼｽﾞｵｶｹﾝ","kana_city":"ﾐｼﾏｼ","kana_address":"ｺﾄﾌﾞｷﾁｮｳ","pref":"静岡県","city":"三島市","address":"寿町"},
{"zip_code":"4110846","kana_pref":"ｼｽﾞｵｶｹﾝ","kana_city":"ﾐｼﾏｼ","kana_address":"ｻｶｴﾁｮｳ","pref":"静岡県","city":"三島市","address":"栄町"},
{"zip_code":"4110012","kana_pref":"ｼｽﾞｵｶｹﾝ","kana_city":"ﾐｼﾏｼ","kana_address":"ｻｻﾊﾗｼﾝﾃﾞﾝ","pref":"静岡県","city":"三島市","address":"笹原新田"},
{"zip_code":"4110047","kana_pref":"ｼｽﾞｵｶｹﾝ","kana_city":"ﾐｼﾏｼ","kana_address":"ｻﾉ","pref":"静岡県","city":"三島市","address":"佐野"},
{"zip_code":"4110041","kana_pref":"ｼｽﾞｵｶｹﾝ","kana_city":"ﾐｼﾏｼ","kana_address":"ｻﾉﾐﾊﾗｼﾀﾞｲ","pref":"静岡県","city":"三島市","address":"佐野見晴台"},
{"zip_code":"4110043","kana_pref":"ｼｽﾞｵｶｹﾝ","kana_city":"ﾐｼﾏｼ","kana_address":"ｻﾜｼﾞ","pref":"静岡県","city":"三島市","address":"沢地"},
{"zip_code":"4110017","kana_pref":"ｼｽﾞｵｶｹﾝ","kana_city":"ﾐｼﾏｼ","kana_address":"ｻﾝｹｲﾀﾞｲ","pref":"静岡県","city":"三島市","address":"三恵台"},
{"zip_code":"4110857","kana_pref":"ｼｽﾞｵｶｹﾝ","kana_city":"ﾐｼﾏｼ","kana_address":"ｼﾊﾞﾎﾝﾁｮｳ","pref":"静岡県","city":"三島市","address":"芝本町"},
{"zip_code":"4110032","kana_pref":"ｼｽﾞｵｶｹﾝ","kana_city":"ﾐｼﾏｼ","kana_address":"ｽｴﾋﾛﾁｮｳ","pref":"静岡県","city":"三島市","address":"末広町"},
{"zip_code":"4110027","kana_pref":"ｼｽﾞｵｶｹﾝ","kana_city":"ﾐｼﾏｼ","kana_address":"ｾﾝﾏｲﾊﾞﾗ","pref":"静岡県","city":"三島市","address":"千枚原"},
{"zip_code":"4110853","kana_pref":"ｼｽﾞｵｶｹﾝ","kana_city":"ﾐｼﾏｼ","kana_address":"ﾀｲｼｬﾁｮｳ","pref":"静岡県","city":"三島市","address":"大社町"},
{"zip_code":"4110803","kana_pref":"ｼｽﾞｵｶｹﾝ","kana_city":"ﾐｼﾏｼ","kana_address":"ﾀﾞｲﾊﾞ","pref":"静岡県","city":"三島市","address":"大場"},
{"zip_code":"4110807","kana_pref":"ｼｽﾞｵｶｹﾝ","kana_city":"ﾐｼﾏｼ","kana_address":"ﾀｹｸﾗ","pref":"静岡県","city":"三島市","address":"竹倉"},
{"zip_code":"4110835","kana_pref":"ｼｽﾞｵｶｹﾝ","kana_city":"ﾐｼﾏｼ","kana_address":"ﾀﾏｶﾞﾜ","pref":"静岡県","city":"三島市","address":"玉川"},
{"zip_code":"4110014","kana_pref":"ｼｽﾞｵｶｹﾝ","kana_city":"ﾐｼﾏｼ","kana_address":"ﾀﾏｻﾞﾜ","pref":"静岡県","city":"三島市","address":"玉沢"},
{"zip_code":"4110804","kana_pref":"ｼｽﾞｵｶｹﾝ","kana_city":"ﾐｼﾏｼ","kana_address":"ﾀﾛ","pref":"静岡県","city":"三島市","address":"多呂"},
{"zip_code":"4110858","kana_pref":"ｼｽﾞｵｶｹﾝ","kana_city":"ﾐｼﾏｼ","kana_address":"ﾁｭｳｵｳﾁｮｳ","pref":"静岡県","city":"三島市","address":"中央町"},
{"zip_code":"4110016","kana_pref":"ｼｽﾞｵｶｹﾝ","kana_city":"ﾐｼﾏｼ","kana_address":"ﾂｶﾊﾗｼﾝﾃﾞﾝ","pref":"静岡県","city":"三島市","address":"塚原新田"},
{"zip_code":"4110813","kana_pref":"ｼｽﾞｵｶｹﾝ","kana_city":"ﾐｼﾏｼ","kana_address":"ﾂﾙﾊﾐ","pref":"静岡県","city":"三島市","address":"鶴喰"},
{"zip_code":"4110044","kana_pref":"ｼｽﾞｵｶｹﾝ","kana_city":"ﾐｼﾏｼ","kana_address":"ﾄｸﾗ","pref":"静岡県","city":"三島市","address":"徳倉"},
{"zip_code":"4110836","kana_pref":"ｼｽﾞｵｶｹﾝ","kana_city":"ﾐｼﾏｼ","kana_address":"ﾄﾐﾀﾏﾁ","pref":"静岡県","city":"三島市","address":"富田町"},
{"zip_code":"4110833","kana_pref":"ｼｽﾞｵｶｹﾝ","kana_city":"ﾐｼﾏｼ","kana_address":"ﾅｶ","pref":"静岡県","city":"三島市","address":"中"},
{"zip_code":"4110814","kana_pref":"ｼｽﾞｵｶｹﾝ","kana_city":"ﾐｼﾏｼ","kana_address":"ﾅｶｼﾞﾏ","pref":"静岡県","city":"三島市","address":"中島"},
{"zip_code":"4110838","kana_pref":"ｼｽﾞｵｶｹﾝ","kana_city":"ﾐｼﾏｼ","kana_address":"ﾅｶﾀﾏﾁ","pref":"静岡県","city":"三島市","address":"中田町"},
{"zip_code":"4110824","kana_pref":"ｼｽﾞｵｶｹﾝ","kana_city":"ﾐｼﾏｼ","kana_address":"ﾅｶﾞﾌﾞｾ","pref":"静岡県","city":"三島市","address":"長伏"},
{"zip_code":"4110808","kana_pref":"ｼｽﾞｵｶｹﾝ","kana_city":"ﾐｼﾏｼ","kana_address":"ﾆｼｷｶﾞｵｶ","pref":"静岡県","city":"三島市","address":"錦が丘"},
{"zip_code":"4110847","kana_pref":"ｼｽﾞｵｶｹﾝ","kana_city":"ﾐｼﾏｼ","kana_address":"ﾆｼﾎﾝﾁｮｳ","pref":"静岡県","city":"三島市","address":"西本町"},
{"zip_code":"4110038","kana_pref":"ｼｽﾞｵｶｹﾝ","kana_city":"ﾐｼﾏｼ","kana_address":"ﾆｼﾜｶﾁｮｳ","pref":"静岡県","city":"三島市","address":"西若町"},
{"zip_code":"4110045","kana_pref":"ｼｽﾞｵｶｹﾝ","kana_city":"ﾐｼﾏｼ","kana_address":"ﾊｷﾞ","pref":"静岡県","city":"三島市","address":"萩"},
{"zip_code":"4110817","kana_pref":"ｼｽﾞｵｶｹﾝ","kana_city":"ﾐｼﾏｼ","kana_address":"ﾊｯﾀﾊﾞﾀ","pref":"静岡県","city":"三島市","address":"八反畑"},
{"zip_code":"4110018","kana_pref":"ｼｽﾞｵｶｹﾝ","kana_city":"ﾐｼﾏｼ","kana_address":"ﾊﾂﾈﾀﾞｲ","pref":"静岡県","city":"三島市","address":"初音台"},
{"zip_code":"4110029","kana_pref":"ｼｽﾞｵｶｹﾝ","kana_city":"ﾐｼﾏｼ","kana_address":"ﾋｶﾘｶﾞｵｶ","pref":"静岡県","city":"三島市","address":"光ケ丘"},
{"zip_code":"4110026","kana_pref":"ｼｽﾞｵｶｹﾝ","kana_city":"ﾐｼﾏｼ","kana_address":"ﾋｶﾞｼｲｯﾁｮｳﾀﾞ","pref":"静岡県","city":"三島市","address":"東壱町田"},
{"zip_code":"4110802","kana_pref":"ｼｽﾞｵｶｹﾝ","kana_city":"ﾐｼﾏｼ","kana_address":"ﾋｶﾞｼﾀﾞｲﾊﾞ","pref":"静岡県","city":"三島市","address":"東大場"},
{"zip_code":"4110852","kana_pref":"ｼｽﾞｵｶｹﾝ","kana_city":"ﾐｼﾏｼ","kana_address":"ﾋｶﾞｼﾁｮｳ","pref":"静岡県","city":"三島市","address":"東町"},
{"zip_code":"4110831","kana_pref":"ｼｽﾞｵｶｹﾝ","kana_city":"ﾐｼﾏｼ","kana_address":"ﾋｶﾞｼﾎﾝﾁｮｳ","pref":"静岡県","city":"三島市","address":"東本町"},
{"zip_code":"4110851","kana_pref":"ｼｽﾞｵｶｹﾝ","kana_city":"ﾐｼﾏｼ","kana_address":"ﾋﾉﾃﾞﾁｮｳ","pref":"静岡県","city":"三島市","address":"日の出町"},
{"zip_code":"4110821","kana_pref":"ｼｽﾞｵｶｹﾝ","kana_city":"ﾐｼﾏｼ","kana_address":"ﾋﾗﾀ","pref":"静岡県","city":"三島市","address":"平田"},
{"zip_code":"4110856","kana_pref":"ｼｽﾞｵｶｹﾝ","kana_city":"ﾐｼﾏｼ","kana_address":"ﾋﾛｺｳｼﾞﾁｮｳ","pref":"静岡県","city":"三島市","address":"広小路町"},
{"zip_code":"4110812","kana_pref":"ｼｽﾞｵｶｹﾝ","kana_city":"ﾐｼﾏｼ","kana_address":"ﾌｼﾞｼﾛﾁｮｳ","pref":"静岡県","city":"三島市","address":"藤代町"},
{"zip_code":"4110028","kana_pref":"ｼｽﾞｵｶｹﾝ","kana_city":"ﾐｼﾏｼ","kana_address":"ﾌｼﾞﾋﾞﾚｯｼﾞ","pref":"静岡県","city":"三島市","address":"富士ビレッジ"},
{"zip_code":"4110021","kana_pref":"ｼｽﾞｵｶｹﾝ","kana_city":"ﾐｼﾏｼ","kana_address":"ﾌｼﾞﾐﾀﾞｲ","pref":"静岡県","city":"三島市","address":"富士見台"},
{"zip_code":"4110046","kana_pref":"ｼｽﾞｵｶｹﾝ","kana_city":"ﾐｼﾏｼ","kana_address":"ﾌﾖｳﾀﾞｲ","pref":"静岡県","city":"三島市","address":"芙蓉台"},
{"zip_code":"4110033","kana_pref":"ｼｽﾞｵｶｹﾝ","kana_city":"ﾐｼﾏｼ","kana_address":"ﾌﾞﾝｷｮｳﾁｮｳ","pref":"静岡県","city":"三島市","address":"文教町"},
{"zip_code":"4110042","kana_pref":"ｼｽﾞｵｶｹﾝ","kana_city":"ﾐｼﾏｼ","kana_address":"ﾍｲｾｲﾀﾞｲ","pref":"静岡県","city":"三島市","address":"平成台"},
{"zip_code":"4110855","kana_pref":"ｼｽﾞｵｶｹﾝ","kana_city":"ﾐｼﾏｼ","kana_address":"ﾎﾝﾁｮｳ","pref":"静岡県","city":"三島市","address":"本町"},
{"zip_code":"4110019","kana_pref":"ｼｽﾞｵｶｹﾝ","kana_city":"ﾐｼﾏｼ","kana_address":"ﾏﾂｶﾞｵｶ","pref":"静岡県","city":"三島市","address":"松が丘"},
{"zip_code":"4110822","kana_pref":"ｼｽﾞｵｶｹﾝ","kana_city":"ﾐｼﾏｼ","kana_address":"ﾏﾂﾓﾄ","pref":"静岡県","city":"三島市","address":"松本"},
{"zip_code":"4110823","kana_pref":"ｼｽﾞｵｶｹﾝ","kana_city":"ﾐｼﾏｼ","kana_address":"ﾐｿﾉ","pref":"静岡県","city":"三島市","address":"御園"},
{"zip_code":"4110013","kana_pref":"ｼｽﾞｵｶｹﾝ","kana_city":"ﾐｼﾏｼ","kana_address":"ﾐﾂﾔｼﾝﾃﾞﾝ","pref":"静岡県","city":"三島市","address":"三ツ谷新田"},
{"zip_code":"4110848","kana_pref":"ｼｽﾞｵｶｹﾝ","kana_city":"ﾐｼﾏｼ","kana_address":"ﾐﾄﾞﾘﾁｮｳ","pref":"静岡県","city":"三島市","address":"緑町"},
{"zip_code":"4110837","kana_pref":"ｼｽﾞｵｶｹﾝ","kana_city":"ﾐｼﾏｼ","kana_address":"ﾐﾅﾐﾀﾏﾁ","pref":"静岡県","city":"三島市","address":"南田町"},
{"zip_code":"4110842","kana_pref":"ｼｽﾞｵｶｹﾝ","kana_city":"ﾐｼﾏｼ","kana_address":"ﾐﾅﾐﾁｮｳ","pref":"静岡県","city":"三島市","address":"南町"},
{"zip_code":"4110832","kana_pref":"ｼｽﾞｵｶｹﾝ","kana_city":"ﾐｼﾏｼ","kana_address":"ﾐﾅﾐﾌﾂｶﾏﾁ","pref":"静岡県","city":"三島市","address":"南二日町"},
{"zip_code":"4110841","kana_pref":"ｼｽﾞｵｶｹﾝ","kana_city":"ﾐｼﾏｼ","kana_address":"ﾐﾅﾐﾎﾝﾁｮｳ","pref":"静岡県","city":"三島市","address":"南本町"},
{"zip_code":"4110843","kana_pref":"ｼｽﾞｵｶｹﾝ","kana_city":"ﾐｼﾏｼ","kana_address":"ﾐﾖｼﾁｮｳ","pref":"静岡県","city":"三島市","address":"三好町"},
{"zip_code":"4110815","kana_pref":"ｼｽﾞｵｶｹﾝ","kana_city":"ﾐｼﾏｼ","kana_address":"ﾔｽﾋｻ","pref":"静岡県","city":"三島市","address":"安久"},
{"zip_code":"4110801","kana_pref":"ｼｽﾞｵｶｹﾝ","kana_city":"ﾐｼﾏｼ","kana_address":"ﾔﾀ","pref":"静岡県","city":"三島市","address":"谷田"},
{"zip_code":"4110806","kana_pref":"ｼｽﾞｵｶｹﾝ","kana_city":"ﾐｼﾏｼ","kana_address":"ﾔﾅｷﾞｺﾞｳﾁ","pref":"静岡県","city":"三島市","address":"柳郷地"},
{"zip_code":"4110011","kana_pref":"ｼｽﾞｵｶｹﾝ","kana_city":"ﾐｼﾏｼ","kana_address":"ﾔﾏﾅｶｼﾝﾃﾞﾝ","pref":"静岡県","city":"三島市","address":"山中新田"},
{"zip_code":"4110024","kana_pref":"ｼｽﾞｵｶｹﾝ","kana_city":"ﾐｼﾏｼ","kana_address":"ﾜｶﾏﾂﾁｮｳ","pref":"静岡県","city":"三島市","address":"若松町"},
{"zip_code":"4110001","kana_pref":"ｼｽﾞｵｶｹﾝ","kana_city":"ﾀｶﾞﾀｸﾞﾝｶﾝﾅﾐﾁｮｳ","kana_address":"ｸﾜﾊﾗ","pref":"静岡県","city":"田方郡函南町","address":"桑原"},
{"zip_code":"4110001","kana_pref":"ｼｽﾞｵｶｹﾝ","kana_city":"ﾀｶﾞﾀｸﾞﾝｶﾝﾅﾐﾁｮｳ","kana_address":"ｸﾜﾊﾗ","pref":"静岡県","city":"田方郡函南町","address":"桑原"},
{"zip_code":"4110000","kana_pref":"ｼｽﾞｵｶｹﾝ","kana_city":"ｽﾝﾄｳｸﾞﾝｼﾐｽﾞﾁｮｳ","kana_address":"","pref":"静岡県","city":"駿東郡清水町","address":""},
{"zip_code":"4110912","kana_pref":"ｼｽﾞｵｶｹﾝ","kana_city":"ｽﾝﾄｳｸﾞﾝｼﾐｽﾞﾁｮｳ","kana_address":"ｵﾛｼﾀﾞﾝﾁ","pref":"静岡県","city":"駿東郡清水町","address":"卸団地"},
{"zip_code":"4110904","kana_pref":"ｼｽﾞｵｶｹﾝ","kana_city":"ｽﾝﾄｳｸﾞﾝｼﾐｽﾞﾁｮｳ","kana_address":"ｶｷﾀﾞ","pref":"静岡県","city":"駿東郡清水町","address":"柿田"},
{"zip_code":"4110911","kana_pref":"ｼｽﾞｵｶｹﾝ","kana_city":"ｽﾝﾄｳｸﾞﾝｼﾐｽﾞﾁｮｳ","kana_address":"ｸﾏｲﾃﾞﾝ","pref":"静岡県","city":"駿東郡清水町","address":"久米田"},
{"zip_code":"4110901","kana_pref":"ｼｽﾞｵｶｹﾝ","kana_city":"ｽﾝﾄｳｸﾞﾝｼﾐｽﾞﾁｮｳ","kana_address":"ｼﾝｼｭｸ","pref":"静岡県","city":"駿東郡清水町","address":"新宿"},
{"zip_code":"4110902","kana_pref":"ｼｽﾞｵｶｹﾝ","kana_city":"ｽﾝﾄｳｸﾞﾝｼﾐｽﾞﾁｮｳ","kana_address":"ﾀﾏｶﾞﾜ","pref":"静岡県","city":"駿東郡清水町","address":"玉川"},
{"zip_code":"4110903","kana_pref":"ｼｽﾞｵｶｹﾝ","kana_city":"ｽﾝﾄｳｸﾞﾝｼﾐｽﾞﾁｮｳ","kana_address":"ﾄﾞｳﾆﾜ","pref":"静岡県","city":"駿東郡清水町","address":"堂庭"},
{"zip_code":"4110917","kana_pref":"ｼｽﾞｵｶｹﾝ","kana_city":"ｽﾝﾄｳｸﾞﾝｼﾐｽﾞﾁｮｳ","kana_address":"ﾄｸﾗ","pref":"静岡県","city":"駿東郡清水町","address":"徳倉"},
{"zip_code":"4110913","kana_pref":"ｼｽﾞｵｶｹﾝ","kana_city":"ｽﾝﾄｳｸﾞﾝｼﾐｽﾞﾁｮｳ","kana_address":"ﾄﾀﾞ","pref":"静岡県","city":"駿東郡清水町","address":"戸田"},
{"zip_code":"4110916","kana_pref":"ｼｽﾞｵｶｹﾝ","kana_city":"ｽﾝﾄｳｸﾞﾝｼﾐｽﾞﾁｮｳ","kana_address":"ﾅｶﾄｸﾗ","pref":"静岡県","city":"駿東郡清水町","address":"中徳倉"},
{"zip_code":"4110905","kana_pref":"ｼｽﾞｵｶｹﾝ","kana_city":"ｽﾝﾄｳｸﾞﾝｼﾐｽﾞﾁｮｳ","kana_address":"ﾅｶﾞｻﾜ","pref":"静岡県","city":"駿東郡清水町","address":"長沢"},
{"zip_code":"4110914","kana_pref":"ｼｽﾞｵｶｹﾝ","kana_city":"ｽﾝﾄｳｸﾞﾝｼﾐｽﾞﾁｮｳ","kana_address":"ﾊﾀｹﾅｶ","pref":"静岡県","city":"駿東郡清水町","address":"畑中"},
{"zip_code":"4110907","kana_pref":"ｼｽﾞｵｶｹﾝ","kana_city":"ｽﾝﾄｳｸﾞﾝｼﾐｽﾞﾁｮｳ","kana_address":"ﾌｼﾐ","pref":"静岡県","city":"駿東郡清水町","address":"伏見"},
{"zip_code":"4110915","kana_pref":"ｼｽﾞｵｶｹﾝ","kana_city":"ｽﾝﾄｳｸﾞﾝｼﾐｽﾞﾁｮｳ","kana_address":"ﾏﾄﾊﾞ","pref":"静岡県","city":"駿東郡清水町","address":"的場"},
{"zip_code":"4110906","kana_pref":"ｼｽﾞｵｶｹﾝ","kana_city":"ｽﾝﾄｳｸﾞﾝｼﾐｽﾞﾁｮｳ","kana_address":"ﾔﾊﾀ","pref":"静岡県","city":"駿東郡清水町","address":"八幡"},
{"zip_code":"4110918","kana_pref":"ｼｽﾞｵｶｹﾝ","kana_city":"ｽﾝﾄｳｸﾞﾝｼﾐｽﾞﾁｮｳ","kana_address":"ﾕｶﾜ","pref":"静岡県","city":"駿東郡清水町","address":"湯川"},
{"zip_code":"4110000","kana_pref":"ｼｽﾞｵｶｹﾝ","kana_city":"ｽﾝﾄｳｸﾞﾝﾅｶﾞｲｽﾞﾐﾁｮｳ","kana_address":"","pref":"静岡県","city":"駿東郡長泉町","address":""},
{"zip_code":"4110941","kana_pref":"ｼｽﾞｵｶｹﾝ","kana_city":"ｽﾝﾄｳｸﾞﾝﾅｶﾞｲｽﾞﾐﾁｮｳ","kana_address":"ｶﾐﾄｶﾞﾘ","pref":"静岡県","city":"駿東郡長泉町","address":"上土狩"},
{"zip_code":"4110935","kana_pref":"ｼｽﾞｵｶｹﾝ","kana_city":"ｽﾝﾄｳｸﾞﾝﾅｶﾞｲｽﾞﾐﾁｮｳ","kana_address":"ｶﾐﾅｶﾞｸﾎﾞ","pref":"静岡県","city":"駿東郡長泉町","address":"上長窪"},
{"zip_code":"4110951","kana_pref":"ｼｽﾞｵｶｹﾝ","kana_city":"ｽﾝﾄｳｸﾞﾝﾅｶﾞｲｽﾞﾐﾁｮｳ","kana_address":"ｻｸﾗﾂﾞﾂﾐ","pref":"静岡県","city":"駿東郡長泉町","address":"桜堤"},
{"zip_code":"4110943","kana_pref":"ｼｽﾞｵｶｹﾝ","kana_city":"ｽﾝﾄｳｸﾞﾝﾅｶﾞｲｽﾞﾐﾁｮｳ","kana_address":"ｼﾓﾄｶﾞﾘ","pref":"静岡県","city":"駿東郡長泉町","address":"下土狩"},
{"zip_code":"4110934","kana_pref":"ｼｽﾞｵｶｹﾝ","kana_city":"ｽﾝﾄｳｸﾞﾝﾅｶﾞｲｽﾞﾐﾁｮｳ","kana_address":"ｼﾓﾅｶﾞｸﾎﾞ","pref":"静岡県","city":"駿東郡長泉町","address":"下長窪"},
{"zip_code":"4110944","kana_pref":"ｼｽﾞｵｶｹﾝ","kana_city":"ｽﾝﾄｳｸﾞﾝﾅｶﾞｲｽﾞﾐﾁｮｳ","kana_address":"ﾀｹﾊﾗ","pref":"静岡県","city":"駿東郡長泉町","address":"竹原"},
{"zip_code":"4110942","kana_pref":"ｼｽﾞｵｶｹﾝ","kana_city":"ｽﾝﾄｳｸﾞﾝﾅｶﾞｲｽﾞﾐﾁｮｳ","kana_address":"ﾅｶﾄｶﾞﾘ","pref":"静岡県","city":"駿東郡長泉町","address":"中土狩"},
{"zip_code":"4110933","kana_pref":"ｼｽﾞｵｶｹﾝ","kana_city":"ｽﾝﾄｳｸﾞﾝﾅｶﾞｲｽﾞﾐﾁｮｳ","kana_address":"ﾅﾒﾘ","pref":"静岡県","city":"駿東郡長泉町","address":"納米里"},
{"zip_code":"4110931","kana_pref":"ｼｽﾞｵｶｹﾝ","kana_city":"ｽﾝﾄｳｸﾞﾝﾅｶﾞｲｽﾞﾐﾁｮｳ","kana_address":"ﾋｶﾞｼﾉ","pref":"静岡県","city":"駿東郡長泉町","address":"東野"},
{"zip_code":"4110945","kana_pref":"ｼｽﾞｵｶｹﾝ","kana_city":"ｽﾝﾄｳｸﾞﾝﾅｶﾞｲｽﾞﾐﾁｮｳ","kana_address":"ﾎﾝｼﾞｭｸ","pref":"静岡県","city":"駿東郡長泉町","address":"本宿"},
{"zip_code":"4110932","kana_pref":"ｼｽﾞｵｶｹﾝ","kana_city":"ｽﾝﾄｳｸﾞﾝﾅｶﾞｲｽﾞﾐﾁｮｳ","kana_address":"ﾐﾅﾐｲｼｷ","pref":"静岡県","city":"駿東郡長泉町","address":"南一色"},
{"zip_code":"4110936","kana_pref":"ｼｽﾞｵｶｹﾝ","kana_city":"ｽﾝﾄｳｸﾞﾝﾅｶﾞｲｽﾞﾐﾁｮｳ","kana_address":"ﾓﾄﾅｶﾞｸﾎﾞ","pref":"静岡県","city":"駿東郡長泉町","address":"元長窪"}]}