{"zip_code":[
{"zip_code":"4120000","kana_pref":"ｼｽﾞｵｶｹﾝ","kana_city":"ｺﾞﾃﾝﾊﾞｼ","kana_address":"","pref":"静岡県","city":"御殿場市","address":""},
{"zip_code":"4120048","kana_pref":"ｼｽﾞｵｶｹﾝ","kana_city":"ｺﾞﾃﾝﾊﾞｼ","kana_address":"ｲﾀﾂﾞﾏ","pref":"静岡県","city":"御殿場市","address":"板妻"},
{"zip_code":"4120008","kana_pref":"ｼｽﾞｵｶｹﾝ","kana_city":"ｺﾞﾃﾝﾊﾞｼ","kana_address":"ｲﾝﾉ","pref":"静岡県","city":"御殿場市","address":"印野"},
{"zip_code":"4120034","kana_pref":"ｼｽﾞｵｶｹﾝ","kana_city":"ｺﾞﾃﾝﾊﾞｼ","kana_address":"ｵｵｻｶ","pref":"静岡県","city":"御殿場市","address":"大坂"},
{"zip_code":"4120014","kana_pref":"ｼｽﾞｵｶｹﾝ","kana_city":"ｺﾞﾃﾝﾊﾞｼ","kana_address":"ｵｵｾｷﾞ","pref":"静岡県","city":"御殿場市","address":"大堰"},
{"zip_code":"4120013","kana_pref":"ｼｽﾞｵｶｹﾝ","kana_city":"ｺﾞﾃﾝﾊﾞｼ","kana_address":"ｵｸﾞﾗﾉ","pref":"静岡県","city":"御殿場市","address":"小倉野"},
{"zip_code":"4120039","kana_pref":"ｼｽﾞｵｶｹﾝ","kana_city":"ｺﾞﾃﾝﾊﾞｼ","kana_address":"ｶﾏﾄﾞ","pref":"静岡県","city":"御殿場市","address":"竈"},
{"zip_code":"4120002","kana_pref":"ｼｽﾞｵｶｹﾝ","kana_city":"ｺﾞﾃﾝﾊﾞｼ","kana_address":"ｶﾐｺﾊﾞﾔｼ","pref":"静岡県","city":"御殿場市","address":"上小林"},
{"zip_code":"4120045","kana_pref":"ｼｽﾞｵｶｹﾝ","kana_city":"ｺﾞﾃﾝﾊﾞｼ","kana_address":"ｶﾜｼﾏﾀ","pref":"静岡県","city":"御殿場市","address":"川島田"},
{"zip_code":"4120009","kana_pref":"ｼｽﾞｵｶｹﾝ","kana_city":"ｺﾞﾃﾝﾊﾞｼ","kana_address":"ｶﾜﾔﾅｷﾞ","pref":"静岡県","city":"御殿場市","address":"川柳"},
{"zip_code":"4120041","kana_pref":"ｼｽﾞｵｶｹﾝ","kana_city":"ｺﾞﾃﾝﾊﾞｼ","kana_address":"ｸﾞﾐｻﾞﾜ","pref":"静岡県","city":"御殿場市","address":"茱萸沢"},
{"zip_code":"4120033","kana_pref":"ｼｽﾞｵｶｹﾝ","kana_city":"ｺﾞﾃﾝﾊﾞｼ","kana_address":"ｺｳﾔﾏ","pref":"静岡県","city":"御殿場市","address":"神山"},
{"zip_code":"4120029","kana_pref":"ｼｽﾞｵｶｹﾝ","kana_city":"ｺﾞﾃﾝﾊﾞｼ","kana_address":"ｺｳﾔﾏﾀﾞｲﾗ","pref":"静岡県","city":"御殿場市","address":"神山平"},
{"zip_code":"4120028","kana_pref":"ｼｽﾞｵｶｹﾝ","kana_city":"ｺﾞﾃﾝﾊﾞｼ","kana_address":"ｺﾞﾃﾝﾊﾞ","pref":"静岡県","city":"御殿場市","address":"御殿場"},
{"zip_code":"4120038","kana_pref":"ｼｽﾞｵｶｹﾝ","kana_city":"ｺﾞﾃﾝﾊﾞｼ","kana_address":"ｺﾏｶﾄﾞ","pref":"静岡県","city":"御殿場市","address":"駒門"},
{"zip_code":"4120003","kana_pref":"ｼｽﾞｵｶｹﾝ","kana_city":"ｺﾞﾃﾝﾊﾞｼ","kana_address":"ｼﾊﾞﾝﾀ","pref":"静岡県","city":"御殿場市","address":"柴怒田"},
{"zip_code":"4120047","kana_pref":"ｼｽﾞｵｶｹﾝ","kana_city":"ｺﾞﾃﾝﾊﾞｼ","kana_address":"ｼﾞﾝﾊﾞ","pref":"静岡県","city":"御殿場市","address":"神場"},
{"zip_code":"4120044","kana_pref":"ｼｽﾞｵｶｹﾝ","kana_city":"ｺﾞﾃﾝﾊﾞｼ","kana_address":"ｽｷﾞﾅｻﾞﾜ","pref":"静岡県","city":"御殿場市","address":"杉名沢"},
{"zip_code":"4120022","kana_pref":"ｼｽﾞｵｶｹﾝ","kana_city":"ｺﾞﾃﾝﾊﾞｼ","kana_address":"ｾｲｺﾞ","pref":"静岡県","city":"御殿場市","address":"清後"},
{"zip_code":"4120017","kana_pref":"ｼｽﾞｵｶｹﾝ","kana_city":"ｺﾞﾃﾝﾊﾞｼ","kana_address":"ﾂｶﾊﾞﾗ","pref":"静岡県","city":"御殿場市","address":"塚原"},
{"zip_code":"4120037","kana_pref":"ｼｽﾞｵｶｹﾝ","kana_city":"ｺﾞﾃﾝﾊﾞｼ","kana_address":"ﾅｶｼﾐｽﾞ","pref":"静岡県","city":"御殿場市","address":"中清水"},
{"zip_code":"4120006","kana_pref":"ｼｽﾞｵｶｹﾝ","kana_city":"ｺﾞﾃﾝﾊﾞｼ","kana_address":"ﾅｶﾊﾞﾀ","pref":"静岡県","city":"御殿場市","address":"中畑"},
{"zip_code":"4120015","kana_pref":"ｼｽﾞｵｶｹﾝ","kana_city":"ｺﾞﾃﾝﾊﾞｼ","kana_address":"ﾅｶﾏﾙ","pref":"静岡県","city":"御殿場市","address":"中丸"},
{"zip_code":"4120035","kana_pref":"ｼｽﾞｵｶｹﾝ","kana_city":"ｺﾞﾃﾝﾊﾞｼ","kana_address":"ﾅｶﾔﾏ","pref":"静岡県","city":"御殿場市","address":"中山"},
{"zip_code":"4120007","kana_pref":"ｼｽﾞｵｶｹﾝ","kana_city":"ｺﾞﾃﾝﾊﾞｼ","kana_address":"ﾅｶﾞﾂｶ","pref":"静岡県","city":"御殿場市","address":"永塚"},
{"zip_code":"4120043","kana_pref":"ｼｽﾞｵｶｹﾝ","kana_city":"ｺﾞﾃﾝﾊﾞｼ","kana_address":"ﾆｲﾊｼ","pref":"静岡県","city":"御殿場市","address":"新橋"},
{"zip_code":"4120027","kana_pref":"ｼｽﾞｵｶｹﾝ","kana_city":"ｺﾞﾃﾝﾊﾞｼ","kana_address":"ﾆｼﾀﾅｶ","pref":"静岡県","city":"御殿場市","address":"西田中"},
{"zip_code":"4120025","kana_pref":"ｼｽﾞｵｶｹﾝ","kana_city":"ｺﾞﾃﾝﾊﾞｼ","kana_address":"ﾆﾉｵｶ","pref":"静岡県","city":"御殿場市","address":"二の岡"},
{"zip_code":"4120021","kana_pref":"ｼｽﾞｵｶｹﾝ","kana_city":"ｺﾞﾃﾝﾊﾞｼ","kana_address":"ﾆﾏｲﾊﾞｼ","pref":"静岡県","city":"御殿場市","address":"二枚橋"},
{"zip_code":"4120031","kana_pref":"ｼｽﾞｵｶｹﾝ","kana_city":"ｺﾞﾃﾝﾊﾞｼ","kana_address":"ﾇﾏﾀ","pref":"静岡県","city":"御殿場市","address":"沼田"},
{"zip_code":"4120036","kana_pref":"ｼｽﾞｵｶｹﾝ","kana_city":"ｺﾞﾃﾝﾊﾞｼ","kana_address":"ﾊｷﾞｶﾌﾞ","pref":"静岡県","city":"御殿場市","address":"萩蕪"},
{"zip_code":"4120042","kana_pref":"ｼｽﾞｵｶｹﾝ","kana_city":"ｺﾞﾃﾝﾊﾞｼ","kana_address":"ﾊｷﾞﾜﾗ","pref":"静岡県","city":"御殿場市","address":"萩原"},
{"zip_code":"4120026","kana_pref":"ｼｽﾞｵｶｹﾝ","kana_city":"ｺﾞﾃﾝﾊﾞｼ","kana_address":"ﾋｶﾞｼﾀﾅｶ","pref":"静岡県","city":"御殿場市","address":"東田中"},
{"zip_code":"4120024","kana_pref":"ｼｽﾞｵｶｹﾝ","kana_city":"ｺﾞﾃﾝﾊﾞｼ","kana_address":"ﾋｶﾞｼﾔﾏ","pref":"静岡県","city":"御殿場市","address":"東山"},
{"zip_code":"4120005","kana_pref":"ｼｽﾞｵｶｹﾝ","kana_city":"ｺﾞﾃﾝﾊﾞｼ","kana_address":"ﾋﾄｽｷﾞ","pref":"静岡県","city":"御殿場市","address":"仁杉"},
{"zip_code":"4120023","kana_pref":"ｼｽﾞｵｶｹﾝ","kana_city":"ｺﾞﾃﾝﾊﾞｼ","kana_address":"ﾌｶｻﾜ","pref":"静岡県","city":"御殿場市","address":"深沢"},
{"zip_code":"4120051","kana_pref":"ｼｽﾞｵｶｹﾝ","kana_city":"ｺﾞﾃﾝﾊﾞｼ","kana_address":"ﾌｼﾞﾐﾊﾗ","pref":"静岡県","city":"御殿場市","address":"富士見原"},
{"zip_code":"4120032","kana_pref":"ｼｽﾞｵｶｹﾝ","kana_city":"ｺﾞﾃﾝﾊﾞｼ","kana_address":"ﾌﾀｺﾞ","pref":"静岡県","city":"御殿場市","address":"二子"},
{"zip_code":"4120011","kana_pref":"ｼｽﾞｵｶｹﾝ","kana_city":"ｺﾞﾃﾝﾊﾞｼ","kana_address":"ﾌﾙｻﾜ","pref":"静岡県","city":"御殿場市","address":"古沢"},
{"zip_code":"4120004","kana_pref":"ｼｽﾞｵｶｹﾝ","kana_city":"ｺﾞﾃﾝﾊﾞｼ","kana_address":"ﾎｯｸﾊﾞﾗ","pref":"静岡県","city":"御殿場市","address":"北久原"},
{"zip_code":"4120046","kana_pref":"ｼｽﾞｵｶｹﾝ","kana_city":"ｺﾞﾃﾝﾊﾞｼ","kana_address":"ﾎﾄｻﾞﾜ","pref":"静岡県","city":"御殿場市","address":"保土沢"},
{"zip_code":"4120012","kana_pref":"ｼｽﾞｵｶｹﾝ","kana_city":"ｺﾞﾃﾝﾊﾞｼ","kana_address":"ﾏｼﾀﾞ","pref":"静岡県","city":"御殿場市","address":"増田"},
{"zip_code":"4120001","kana_pref":"ｼｽﾞｵｶｹﾝ","kana_city":"ｺﾞﾃﾝﾊﾞｼ","kana_address":"ﾐﾄﾞﾉ","pref":"静岡県","city":"御殿場市","address":"水土野"},
{"zip_code":"4120016","kana_pref":"ｼｽﾞｵｶｹﾝ","kana_city":"ｺﾞﾃﾝﾊﾞｼ","kana_address":"ﾑｲｶｲﾁﾊﾞ","pref":"静岡県","city":"御殿場市","address":"六日市場"},
{"zip_code":"4120019","kana_pref":"ｼｽﾞｵｶｹﾝ","kana_city":"ｺﾞﾃﾝﾊﾞｼ","kana_address":"ﾔﾏｵﾀﾞ","pref":"静岡県","city":"御殿場市","address":"山尾田"},
{"zip_code":"4120018","kana_pref":"ｼｽﾞｵｶｹﾝ","kana_city":"ｺﾞﾃﾝﾊﾞｼ","kana_address":"ﾔﾏﾉｼﾘ","pref":"静岡県","city":"御殿場市","address":"山之尻"}]}