{"zip_code":[
{"zip_code":"4130000","kana_pref":"ｼｽﾞｵｶｹﾝ","kana_city":"ｱﾀﾐｼ","kana_address":"","pref":"静岡県","city":"熱海市","address":""},
{"zip_code":"4130039","kana_pref":"ｼｽﾞｵｶｹﾝ","kana_city":"ｱﾀﾐｼ","kana_address":"ｱｲﾉﾊﾗﾁｮｳ","pref":"静岡県","city":"熱海市","address":"相の原町"},
{"zip_code":"4130041","kana_pref":"ｼｽﾞｵｶｹﾝ","kana_city":"ｱﾀﾐｼ","kana_address":"ｱｵﾊﾞﾁｮｳ","pref":"静岡県","city":"熱海市","address":"青葉町"},
{"zip_code":"4130103","kana_pref":"ｼｽﾞｵｶｹﾝ","kana_city":"ｱﾀﾐｼ","kana_address":"ｱｼﾞﾛ","pref":"静岡県","city":"熱海市","address":"網代"},
{"zip_code":"4130033","kana_pref":"ｼｽﾞｵｶｹﾝ","kana_city":"ｱﾀﾐｼ","kana_address":"ｱﾀﾐ","pref":"静岡県","city":"熱海市","address":"熱海"},
{"zip_code":"4130002","kana_pref":"ｼｽﾞｵｶｹﾝ","kana_city":"ｱﾀﾐｼ","kana_address":"ｲｽﾞｻﾝ","pref":"静岡県","city":"熱海市","address":"伊豆山"},
{"zip_code":"4130001","kana_pref":"ｼｽﾞｵｶｹﾝ","kana_city":"ｱﾀﾐｼ","kana_address":"ｲｽﾞﾐ","pref":"静岡県","city":"熱海市","address":"泉"},
{"zip_code":"4130003","kana_pref":"ｼｽﾞｵｶｹﾝ","kana_city":"ｱﾀﾐｼ","kana_address":"ｶｲｺｳﾁｮｳ","pref":"静岡県","city":"熱海市","address":"海光町"},
{"zip_code":"4130005","kana_pref":"ｼｽﾞｵｶｹﾝ","kana_city":"ｱﾀﾐｼ","kana_address":"ｶｽｶﾞﾁｮｳ","pref":"静岡県","city":"熱海市","address":"春日町"},
{"zip_code":"4130018","kana_pref":"ｼｽﾞｵｶｹﾝ","kana_city":"ｱﾀﾐｼ","kana_address":"ｶﾐｼﾞｭｸﾁｮｳ","pref":"静岡県","city":"熱海市","address":"上宿町"},
{"zip_code":"4130101","kana_pref":"ｼｽﾞｵｶｹﾝ","kana_city":"ｱﾀﾐｼ","kana_address":"ｶﾐﾀｶﾞ","pref":"静岡県","city":"熱海市","address":"上多賀"},
{"zip_code":"4130013","kana_pref":"ｼｽﾞｵｶｹﾝ","kana_city":"ｱﾀﾐｼ","kana_address":"ｷﾞﾝｻﾞﾁｮｳ","pref":"静岡県","city":"熱海市","address":"銀座町"},
{"zip_code":"4130029","kana_pref":"ｼｽﾞｵｶｹﾝ","kana_city":"ｱﾀﾐｼ","kana_address":"ｺｱﾗｼﾁｮｳ","pref":"静岡県","city":"熱海市","address":"小嵐町"},
{"zip_code":"4130019","kana_pref":"ｼｽﾞｵｶｹﾝ","kana_city":"ｱﾀﾐｼ","kana_address":"ｻｷﾐﾁｮｳ","pref":"静岡県","city":"熱海市","address":"咲見町"},
{"zip_code":"4130025","kana_pref":"ｼｽﾞｵｶｹﾝ","kana_city":"ｱﾀﾐｼ","kana_address":"ｻｸﾗｷﾞﾁｮｳ","pref":"静岡県","city":"熱海市","address":"桜木町"},
{"zip_code":"4130028","kana_pref":"ｼｽﾞｵｶｹﾝ","kana_city":"ｱﾀﾐｼ","kana_address":"ｻｸﾗﾁｮｳ","pref":"静岡県","city":"熱海市","address":"桜町"},
{"zip_code":"4130037","kana_pref":"ｼｽﾞｵｶｹﾝ","kana_city":"ｱﾀﾐｼ","kana_address":"ｻｻﾗｶﾞﾀﾞｲﾁｮｳ","pref":"静岡県","city":"熱海市","address":"笹良ケ台町"},
{"zip_code":"4130021","kana_pref":"ｼｽﾞｵｶｹﾝ","kana_city":"ｱﾀﾐｼ","kana_address":"ｼﾐｽﾞﾁｮｳ","pref":"静岡県","city":"熱海市","address":"清水町"},
{"zip_code":"4130102","kana_pref":"ｼｽﾞｵｶｹﾝ","kana_city":"ｱﾀﾐｼ","kana_address":"ｼﾓﾀｶﾞ","pref":"静岡県","city":"熱海市","address":"下多賀"},
{"zip_code":"4130022","kana_pref":"ｼｽﾞｵｶｹﾝ","kana_city":"ｱﾀﾐｼ","kana_address":"ｼｮｳﾜﾁｮｳ","pref":"静岡県","city":"熱海市","address":"昭和町"},
{"zip_code":"4130011","kana_pref":"ｼｽﾞｵｶｹﾝ","kana_city":"ｱﾀﾐｼ","kana_address":"ﾀﾊﾗﾎﾝﾁｮｳ","pref":"静岡県","city":"熱海市","address":"田原本町"},
{"zip_code":"4130015","kana_pref":"ｼｽﾞｵｶｹﾝ","kana_city":"ｱﾀﾐｼ","kana_address":"ﾁｭｳｵｳﾁｮｳ","pref":"静岡県","city":"熱海市","address":"中央町"},
{"zip_code":"4130014","kana_pref":"ｼｽﾞｵｶｹﾝ","kana_city":"ｱﾀﾐｼ","kana_address":"ﾅｷﾞｻﾁｮｳ","pref":"静岡県","city":"熱海市","address":"渚町"},
{"zip_code":"4130038","kana_pref":"ｼｽﾞｵｶｹﾝ","kana_city":"ｱﾀﾐｼ","kana_address":"ﾆｼｱﾀﾐﾁｮｳ","pref":"静岡県","city":"熱海市","address":"西熱海町"},
{"zip_code":"4130034","kana_pref":"ｼｽﾞｵｶｹﾝ","kana_city":"ｱﾀﾐｼ","kana_address":"ﾆｼﾔﾏﾁｮｳ","pref":"静岡県","city":"熱海市","address":"西山町"},
{"zip_code":"4130032","kana_pref":"ｼｽﾞｵｶｹﾝ","kana_city":"ｱﾀﾐｼ","kana_address":"ﾊﾞｲｴﾝﾁｮｳ","pref":"静岡県","city":"熱海市","address":"梅園町"},
{"zip_code":"4130026","kana_pref":"ｼｽﾞｵｶｹﾝ","kana_city":"ｱﾀﾐｼ","kana_address":"ﾊﾞｲｶﾁｮｳ","pref":"静岡県","city":"熱海市","address":"梅花町"},
{"zip_code":"4130004","kana_pref":"ｼｽﾞｵｶｹﾝ","kana_city":"ｱﾀﾐｼ","kana_address":"ﾊﾂｼﾏ","pref":"静岡県","city":"熱海市","address":"初島"},
{"zip_code":"4130031","kana_pref":"ｼｽﾞｵｶｹﾝ","kana_city":"ｱﾀﾐｼ","kana_address":"ﾊﾔｼｶﾞｵｶﾁｮｳ","pref":"静岡県","city":"熱海市","address":"林ガ丘町"},
{"zip_code":"4130012","kana_pref":"ｼｽﾞｵｶｹﾝ","kana_city":"ｱﾀﾐｼ","kana_address":"ﾋｶﾞｼｶｲｶﾞﾝﾁｮｳ","pref":"静岡県","city":"熱海市","address":"東海岸町"},
{"zip_code":"4130036","kana_pref":"ｼｽﾞｵｶｹﾝ","kana_city":"ｱﾀﾐｼ","kana_address":"ﾋｶﾞﾈﾁｮｳ","pref":"静岡県","city":"熱海市","address":"日金町"},
{"zip_code":"4130017","kana_pref":"ｼｽﾞｵｶｹﾝ","kana_city":"ｱﾀﾐｼ","kana_address":"ﾌｸﾐﾁﾁｮｳ","pref":"静岡県","city":"熱海市","address":"福道町"},
{"zip_code":"4130035","kana_pref":"ｼｽﾞｵｶｹﾝ","kana_city":"ｱﾀﾐｼ","kana_address":"ﾐﾄﾞﾘｶﾞｵｶﾁｮｳ","pref":"静岡県","city":"熱海市","address":"緑ガ丘町"},
{"zip_code":"4130016","kana_pref":"ｼｽﾞｵｶｹﾝ","kana_city":"ｱﾀﾐｼ","kana_address":"ﾐﾅｸﾞﾁﾁｮｳ","pref":"静岡県","city":"熱海市","address":"水口町"},
{"zip_code":"4130027","kana_pref":"ｼｽﾞｵｶｹﾝ","kana_city":"ｱﾀﾐｼ","kana_address":"ﾓﾐｼﾞｶﾞｵｶﾁｮｳ","pref":"静岡県","city":"熱海市","address":"紅葉ガ丘町"},
{"zip_code":"4130006","kana_pref":"ｼｽﾞｵｶｹﾝ","kana_city":"ｱﾀﾐｼ","kana_address":"ﾓﾓﾔﾏﾁｮｳ","pref":"静岡県","city":"熱海市","address":"桃山町"},
{"zip_code":"4130042","kana_pref":"ｼｽﾞｵｶｹﾝ","kana_city":"ｱﾀﾐｼ","kana_address":"ﾔﾏﾃﾁｮｳ","pref":"静岡県","city":"熱海市","address":"山手町"},
{"zip_code":"4130024","kana_pref":"ｼｽﾞｵｶｹﾝ","kana_city":"ｱﾀﾐｼ","kana_address":"ﾜﾀﾞﾁｮｳ","pref":"静岡県","city":"熱海市","address":"和田町"},
{"zip_code":"4130023","kana_pref":"ｼｽﾞｵｶｹﾝ","kana_city":"ｱﾀﾐｼ","kana_address":"ﾜﾀﾞﾊﾏﾐﾅﾐﾁｮｳ","pref":"静岡県","city":"熱海市","address":"和田浜南町"},
{"zip_code":"4130233","kana_pref":"ｼｽﾞｵｶｹﾝ","kana_city":"ｲﾄｳｼ","kana_address":"ｱｶｻﾞﾜ","pref":"静岡県","city":"伊東市","address":"赤沢"},
{"zip_code":"4130234","kana_pref":"ｼｽﾞｵｶｹﾝ","kana_city":"ｲﾄｳｼ","kana_address":"ｲｹ","pref":"静岡県","city":"伊東市","address":"池"},
{"zip_code":"4130235","kana_pref":"ｼｽﾞｵｶｹﾝ","kana_city":"ｲﾄｳｼ","kana_address":"ｵｵﾑﾛｺｳｹﾞﾝ","pref":"静岡県","city":"伊東市","address":"大室高原"},
{"zip_code":"4130111","kana_pref":"ｼｽﾞｵｶｹﾝ","kana_city":"ｲﾄｳｼ","kana_address":"ｸﾞﾘｰﾝﾋﾙﾍﾞﾂｿｳﾁ","pref":"静岡県","city":"伊東市","address":"グリーンヒル別荘地"},
{"zip_code":"4130231","kana_pref":"ｼｽﾞｵｶｹﾝ","kana_city":"ｲﾄｳｼ","kana_address":"ﾌﾄ","pref":"静岡県","city":"伊東市","address":"富戸"},
{"zip_code":"4130232","kana_pref":"ｼｽﾞｵｶｹﾝ","kana_city":"ｲﾄｳｼ","kana_address":"ﾔﾜﾀﾉ","pref":"静岡県","city":"伊東市","address":"八幡野"},
{"zip_code":"4130711","kana_pref":"ｼｽﾞｵｶｹﾝ","kana_city":"ｼﾓﾀﾞｼ","kana_address":"ｱｲﾀﾏ","pref":"静岡県","city":"下田市","address":"相玉"},
{"zip_code":"4130703","kana_pref":"ｼｽﾞｵｶｹﾝ","kana_city":"ｼﾓﾀﾞｼ","kana_address":"ｱﾗｿﾞｳ","pref":"静岡県","city":"下田市","address":"荒増"},
{"zip_code":"4130715","kana_pref":"ｼｽﾞｵｶｹﾝ","kana_city":"ｼﾓﾀﾞｼ","kana_address":"ｳﾄﾞｶﾞﾈ","pref":"静岡県","city":"下田市","address":"宇土金"},
{"zip_code":"4130701","kana_pref":"ｼｽﾞｵｶｹﾝ","kana_city":"ｼﾓﾀﾞｼ","kana_address":"ｵﾁｱｲ","pref":"静岡県","city":"下田市","address":"落合"},
{"zip_code":"4130713","kana_pref":"ｼｽﾞｵｶｹﾝ","kana_city":"ｼﾓﾀﾞｼ","kana_address":"ｶｿﾞｳﾉ","pref":"静岡県","city":"下田市","address":"加増野"},
{"zip_code":"4130714","kana_pref":"ｼｽﾞｵｶｹﾝ","kana_city":"ｼﾓﾀﾞｼ","kana_address":"ｷﾀﾕｶﾞﾉ","pref":"静岡県","city":"下田市","address":"北湯ケ野"},
{"zip_code":"4130704","kana_pref":"ｼｽﾞｵｶｹﾝ","kana_city":"ｼﾓﾀﾞｼ","kana_address":"ｼｲﾊﾞﾗ","pref":"静岡県","city":"下田市","address":"椎原"},
{"zip_code":"4130716","kana_pref":"ｼｽﾞｵｶｹﾝ","kana_city":"ｼﾓﾀﾞｼ","kana_address":"ｽﾊﾗ","pref":"静岡県","city":"下田市","address":"須原"},
{"zip_code":"4130702","kana_pref":"ｼｽﾞｵｶｹﾝ","kana_city":"ｼﾓﾀﾞｼ","kana_address":"ﾎﾘﾉｳﾁ","pref":"静岡県","city":"下田市","address":"堀之内"},
{"zip_code":"4130705","kana_pref":"ｼｽﾞｵｶｹﾝ","kana_city":"ｼﾓﾀﾞｼ","kana_address":"ﾐﾂｸﾘ","pref":"静岡県","city":"下田市","address":"箕作"},
{"zip_code":"4130712","kana_pref":"ｼｽﾞｵｶｹﾝ","kana_city":"ｼﾓﾀﾞｼ","kana_address":"ﾖｺｶﾜ","pref":"静岡県","city":"下田市","address":"横川"},
{"zip_code":"4130300","kana_pref":"ｼｽﾞｵｶｹﾝ","kana_city":"ｶﾓｸﾞﾝﾋｶﾞｼｲｽﾞﾁｮｳ","kana_address":"","pref":"静岡県","city":"賀茂郡東伊豆町","address":""},
{"zip_code":"4130411","kana_pref":"ｼｽﾞｵｶｹﾝ","kana_city":"ｶﾓｸﾞﾝﾋｶﾞｼｲｽﾞﾁｮｳ","kana_address":"ｲﾅﾄﾘ","pref":"静岡県","city":"賀茂郡東伊豆町","address":"稲取"},
{"zip_code":"4130301","kana_pref":"ｼｽﾞｵｶｹﾝ","kana_city":"ｶﾓｸﾞﾝﾋｶﾞｼｲｽﾞﾁｮｳ","kana_address":"ｵｵｶﾜ","pref":"静岡県","city":"賀茂郡東伊豆町","address":"大川"},
{"zip_code":"4130303","kana_pref":"ｼｽﾞｵｶｹﾝ","kana_city":"ｶﾓｸﾞﾝﾋｶﾞｼｲｽﾞﾁｮｳ","kana_address":"ｶﾀｾ","pref":"静岡県","city":"賀茂郡東伊豆町","address":"片瀬"},
{"zip_code":"4130304","kana_pref":"ｼｽﾞｵｶｹﾝ","kana_city":"ｶﾓｸﾞﾝﾋｶﾞｼｲｽﾞﾁｮｳ","kana_address":"ｼﾗﾀ","pref":"静岡県","city":"賀茂郡東伊豆町","address":"白田"},
{"zip_code":"4130302","kana_pref":"ｼｽﾞｵｶｹﾝ","kana_city":"ｶﾓｸﾞﾝﾋｶﾞｼｲｽﾞﾁｮｳ","kana_address":"ﾅﾗﾓﾄ","pref":"静岡県","city":"賀茂郡東伊豆町","address":"奈良本"},
{"zip_code":"4130302","kana_pref":"ｼｽﾞｵｶｹﾝ","kana_city":"ｶﾓｸﾞﾝﾋｶﾞｼｲｽﾞﾁｮｳ","kana_address":"ﾎﾂｶﾜ","pref":"静岡県","city":"賀茂郡東伊豆町","address":"北川"},
{"zip_code":"4130500","kana_pref":"ｼｽﾞｵｶｹﾝ","kana_city":"ｶﾓｸﾞﾝｶﾜﾂﾞﾁｮｳ","kana_address":"","pref":"静岡県","city":"賀茂郡河津町","address":""},
{"zip_code":"4130509","kana_pref":"ｼｽﾞｵｶｹﾝ","kana_city":"ｶﾓｸﾞﾝｶﾜﾂﾞﾁｮｳ","kana_address":"ｵｵﾅﾍﾞ","pref":"静岡県","city":"賀茂郡河津町","address":"大鍋"},
{"zip_code":"4130502","kana_pref":"ｼｽﾞｵｶｹﾝ","kana_city":"ｶﾓｸﾞﾝｶﾜﾂﾞﾁｮｳ","kana_address":"ｶﾜﾂﾞｲｶﾀﾞﾊﾞ","pref":"静岡県","city":"賀茂郡河津町","address":"川津筏場"},
{"zip_code":"4130508","kana_pref":"ｼｽﾞｵｶｹﾝ","kana_city":"ｶﾓｸﾞﾝｶﾜﾂﾞﾁｮｳ","kana_address":"ｺﾅﾍﾞ","pref":"静岡県","city":"賀茂郡河津町","address":"小鍋"},
{"zip_code":"4130516","kana_pref":"ｼｽﾞｵｶｹﾝ","kana_city":"ｶﾓｸﾞﾝｶﾜﾂﾞﾁｮｳ","kana_address":"ｻｶｻｶﾞﾜ","pref":"静岡県","city":"賀茂郡河津町","address":"逆川"},
{"zip_code":"4130512","kana_pref":"ｼｽﾞｵｶｹﾝ","kana_city":"ｶﾓｸﾞﾝｶﾜﾂﾞﾁｮｳ","kana_address":"ｻｻﾊﾗ","pref":"静岡県","city":"賀茂郡河津町","address":"笹原"},
{"zip_code":"4130505","kana_pref":"ｼｽﾞｵｶｹﾝ","kana_city":"ｶﾓｸﾞﾝｶﾜﾂﾞﾁｮｳ","kana_address":"ｻﾜﾀﾞ","pref":"静岡県","city":"賀茂郡河津町","address":"沢田"},
{"zip_code":"4130506","kana_pref":"ｼｽﾞｵｶｹﾝ","kana_city":"ｶﾓｸﾞﾝｶﾜﾂﾞﾁｮｳ","kana_address":"ｼﾓｻｶﾞﾉ","pref":"静岡県","city":"賀茂郡河津町","address":"下佐ケ野"},
{"zip_code":"4130504","kana_pref":"ｼｽﾞｵｶｹﾝ","kana_city":"ｶﾓｸﾞﾝｶﾜﾂﾞﾁｮｳ","kana_address":"ﾀﾅｶ","pref":"静岡県","city":"賀茂郡河津町","address":"田中"},
{"zip_code":"4130501","kana_pref":"ｼｽﾞｵｶｹﾝ","kana_city":"ｶﾓｸﾞﾝｶﾜﾂﾞﾁｮｳ","kana_address":"ﾅｼﾓﾄ","pref":"静岡県","city":"賀茂郡河津町","address":"梨本"},
{"zip_code":"4130514","kana_pref":"ｼｽﾞｵｶｹﾝ","kana_city":"ｶﾓｸﾞﾝｶﾜﾂﾞﾁｮｳ","kana_address":"ﾅﾜｼﾞ","pref":"静岡県","city":"賀茂郡河津町","address":"縄地"},
{"zip_code":"4130513","kana_pref":"ｼｽﾞｵｶｹﾝ","kana_city":"ｶﾓｸﾞﾝｶﾜﾂﾞﾁｮｳ","kana_address":"ﾊﾏ","pref":"静岡県","city":"賀茂郡河津町","address":"浜"},
{"zip_code":"4130503","kana_pref":"ｼｽﾞｵｶｹﾝ","kana_city":"ｶﾓｸﾞﾝｶﾜﾂﾞﾁｮｳ","kana_address":"ﾐﾀﾞｶ","pref":"静岡県","city":"賀茂郡河津町","address":"見高"},
{"zip_code":"4130511","kana_pref":"ｼｽﾞｵｶｹﾝ","kana_city":"ｶﾓｸﾞﾝｶﾜﾂﾞﾁｮｳ","kana_address":"ﾐﾈ","pref":"静岡県","city":"賀茂郡河津町","address":"峰"},
{"zip_code":"4130515","kana_pref":"ｼｽﾞｵｶｹﾝ","kana_city":"ｶﾓｸﾞﾝｶﾜﾂﾞﾁｮｳ","kana_address":"ﾔﾂ","pref":"静岡県","city":"賀茂郡河津町","address":"谷津"},
{"zip_code":"4130507","kana_pref":"ｼｽﾞｵｶｹﾝ","kana_city":"ｶﾓｸﾞﾝｶﾜﾂﾞﾁｮｳ","kana_address":"ﾕｶﾞﾉ","pref":"静岡県","city":"賀茂郡河津町","address":"湯ケ野"}]}