{"zip_code":[
{"zip_code":"4150000","kana_pref":"ｼｽﾞｵｶｹﾝ","kana_city":"ｼﾓﾀﾞｼ","kana_address":"","pref":"静岡県","city":"下田市","address":""},
{"zip_code":"4150001","kana_pref":"ｼｽﾞｵｶｹﾝ","kana_city":"ｼﾓﾀﾞｼ","kana_address":"ｼﾓﾀﾞｼﾉﾂｷﾞﾆﾊﾞﾝﾁｶﾞｸﾙﾊﾞｱｲ","pref":"静岡県","city":"下田市","address":"下田市の次に番地がくる場合"},
{"zip_code":"4150021","kana_pref":"ｼｽﾞｵｶｹﾝ","kana_city":"ｼﾓﾀﾞｼ","kana_address":"ｲｯﾁｮｳﾒ","pref":"静岡県","city":"下田市","address":"一丁目"},
{"zip_code":"4150038","kana_pref":"ｼｽﾞｵｶｹﾝ","kana_city":"ｼﾓﾀﾞｼ","kana_address":"ｵｵｶﾞﾓ","pref":"静岡県","city":"下田市","address":"大賀茂"},
{"zip_code":"4150039","kana_pref":"ｼｽﾞｵｶｹﾝ","kana_city":"ｼﾓﾀﾞｼ","kana_address":"ｵｵｻﾜ","pref":"静岡県","city":"下田市","address":"大沢"},
{"zip_code":"4150013","kana_pref":"ｼｽﾞｵｶｹﾝ","kana_city":"ｼﾓﾀﾞｼ","kana_address":"ｶｷｻｷ","pref":"静岡県","city":"下田市","address":"柿崎"},
{"zip_code":"4150028","kana_pref":"ｼｽﾞｵｶｹﾝ","kana_city":"ｼﾓﾀﾞｼ","kana_address":"ｷｻﾐ","pref":"静岡県","city":"下田市","address":"吉佐美"},
{"zip_code":"4150027","kana_pref":"ｼｽﾞｵｶｹﾝ","kana_city":"ｼﾓﾀﾞｼ","kana_address":"ｷｭｳｵｶｶﾞﾀﾑﾗ","pref":"静岡県","city":"下田市","address":"旧岡方村"},
{"zip_code":"4150011","kana_pref":"ｼｽﾞｵｶｹﾝ","kana_city":"ｼﾓﾀﾞｼ","kana_address":"ｺｳﾁ","pref":"静岡県","city":"下田市","address":"河内"},
{"zip_code":"4150025","kana_pref":"ｼｽﾞｵｶｹﾝ","kana_city":"ｼﾓﾀﾞｼ","kana_address":"ｺﾞﾁｮｳﾒ","pref":"静岡県","city":"下田市","address":"五丁目"},
{"zip_code":"4150023","kana_pref":"ｼｽﾞｵｶｹﾝ","kana_city":"ｼﾓﾀﾞｼ","kana_address":"ｻﾝﾁｮｳﾒ","pref":"静岡県","city":"下田市","address":"三丁目"},
{"zip_code":"4150037","kana_pref":"ｼｽﾞｵｶｹﾝ","kana_city":"ｼﾓﾀﾞｼ","kana_address":"ｼｷﾈ","pref":"静岡県","city":"下田市","address":"敷根"},
{"zip_code":"4150012","kana_pref":"ｼｽﾞｵｶｹﾝ","kana_city":"ｼﾓﾀﾞｼ","kana_address":"ｼﾗﾊﾏ","pref":"静岡県","city":"下田市","address":"白浜"},
{"zip_code":"4150014","kana_pref":"ｼｽﾞｵｶｹﾝ","kana_city":"ｼﾓﾀﾞｼ","kana_address":"ｽｻﾞｷ","pref":"静岡県","city":"下田市","address":"須崎"},
{"zip_code":"4150015","kana_pref":"ｼｽﾞｵｶｹﾝ","kana_city":"ｼﾓﾀﾞｼ","kana_address":"ﾀｹｶﾞﾊﾏ","pref":"静岡県","city":"下田市","address":"武ガ浜"},
{"zip_code":"4150034","kana_pref":"ｼｽﾞｵｶｹﾝ","kana_city":"ｼﾓﾀﾞｼ","kana_address":"ﾀｺｳﾏ","pref":"静岡県","city":"下田市","address":"高馬"},
{"zip_code":"4150032","kana_pref":"ｼｽﾞｵｶｹﾝ","kana_city":"ｼﾓﾀﾞｼ","kana_address":"ﾀﾁﾉ","pref":"静岡県","city":"下田市","address":"立野"},
{"zip_code":"4150029","kana_pref":"ｼｽﾞｵｶｹﾝ","kana_city":"ｼﾓﾀﾞｼ","kana_address":"ﾄｳｼﾞ","pref":"静岡県","city":"下田市","address":"田牛"},
{"zip_code":"4150016","kana_pref":"ｼｽﾞｵｶｹﾝ","kana_city":"ｼﾓﾀﾞｼ","kana_address":"ﾅｶ","pref":"静岡県","city":"下田市","address":"中"},
{"zip_code":"4150018","kana_pref":"ｼｽﾞｵｶｹﾝ","kana_city":"ｼﾓﾀﾞｼ","kana_address":"ﾆｼﾅｶ","pref":"静岡県","city":"下田市","address":"西中"},
{"zip_code":"4150036","kana_pref":"ｼｽﾞｵｶｹﾝ","kana_city":"ｼﾓﾀﾞｼ","kana_address":"ﾆｼﾎﾝｺﾞｳ","pref":"静岡県","city":"下田市","address":"西本郷"},
{"zip_code":"4150022","kana_pref":"ｼｽﾞｵｶｹﾝ","kana_city":"ｼﾓﾀﾞｼ","kana_address":"ﾆﾁｮｳﾒ","pref":"静岡県","city":"下田市","address":"二丁目"},
{"zip_code":"4150017","kana_pref":"ｼｽﾞｵｶｹﾝ","kana_city":"ｼﾓﾀﾞｼ","kana_address":"ﾋｶﾞｼﾅｶ","pref":"静岡県","city":"下田市","address":"東中"},
{"zip_code":"4150035","kana_pref":"ｼｽﾞｵｶｹﾝ","kana_city":"ｼﾓﾀﾞｼ","kana_address":"ﾋｶﾞｼﾎﾝｺﾞｳ","pref":"静岡県","city":"下田市","address":"東本郷"},
{"zip_code":"4150033","kana_pref":"ｼｽﾞｵｶｹﾝ","kana_city":"ｼﾓﾀﾞｼ","kana_address":"ﾎﾝｺﾞｳ","pref":"静岡県","city":"下田市","address":"本郷"},
{"zip_code":"4150024","kana_pref":"ｼｽﾞｵｶｹﾝ","kana_city":"ｼﾓﾀﾞｼ","kana_address":"ﾖﾝﾁｮｳﾒ","pref":"静岡県","city":"下田市","address":"四丁目"},
{"zip_code":"4150031","kana_pref":"ｼｽﾞｵｶｹﾝ","kana_city":"ｼﾓﾀﾞｼ","kana_address":"ﾚﾝﾀﾞｲｼﾞ","pref":"静岡県","city":"下田市","address":"蓮台寺"},
{"zip_code":"4150026","kana_pref":"ｼｽﾞｵｶｹﾝ","kana_city":"ｼﾓﾀﾞｼ","kana_address":"ﾛｸﾁｮｳﾒ","pref":"静岡県","city":"下田市","address":"六丁目"},
{"zip_code":"4150300","kana_pref":"ｼｽﾞｵｶｹﾝ","kana_city":"ｶﾓｸﾞﾝﾐﾅﾐｲｽﾞﾁｮｳ","kana_address":"","pref":"静岡県","city":"賀茂郡南伊豆町","address":""},
{"zip_code":"4150151","kana_pref":"ｼｽﾞｵｶｹﾝ","kana_city":"ｶﾓｸﾞﾝﾐﾅﾐｲｽﾞﾁｮｳ","kana_address":"ｱｵｲﾁ","pref":"静岡県","city":"賀茂郡南伊豆町","address":"青市"},
{"zip_code":"4150327","kana_pref":"ｼｽﾞｵｶｹﾝ","kana_city":"ｶﾓｸﾞﾝﾐﾅﾐｲｽﾞﾁｮｳ","kana_address":"ｱｵﾉ","pref":"静岡県","city":"賀茂郡南伊豆町","address":"青野"},
{"zip_code":"4150306","kana_pref":"ｼｽﾞｵｶｹﾝ","kana_city":"ｶﾓｸﾞﾝﾐﾅﾐｲｽﾞﾁｮｳ","kana_address":"ｲｼｲ","pref":"静岡県","city":"賀茂郡南伊豆町","address":"石井"},
{"zip_code":"4150313","kana_pref":"ｼｽﾞｵｶｹﾝ","kana_city":"ｶﾓｸﾞﾝﾐﾅﾐｲｽﾞﾁｮｳ","kana_address":"ｲｼｷ","pref":"静岡県","city":"賀茂郡南伊豆町","address":"一色"},
{"zip_code":"4150301","kana_pref":"ｼｽﾞｵｶｹﾝ","kana_city":"ｶﾓｸﾞﾝﾐﾅﾐｲｽﾞﾁｮｳ","kana_address":"ｲﾁｼﾞｮｳ","pref":"静岡県","city":"賀茂郡南伊豆町","address":"一條"},
{"zip_code":"4150325","kana_pref":"ｼｽﾞｵｶｹﾝ","kana_city":"ｶﾓｸﾞﾝﾐﾅﾐｲｽﾞﾁｮｳ","kana_address":"ｲﾁﾉｾ","pref":"静岡県","city":"賀茂郡南伊豆町","address":"市之瀬"},
{"zip_code":"4150531","kana_pref":"ｼｽﾞｵｶｹﾝ","kana_city":"ｶﾓｸﾞﾝﾐﾅﾐｲｽﾞﾁｮｳ","kana_address":"ｲｯﾁｮｳﾀﾞ","pref":"静岡県","city":"賀茂郡南伊豆町","address":"一町田"},
{"zip_code":"4150531","kana_pref":"ｼｽﾞｵｶｹﾝ","kana_city":"ｶﾓｸﾞﾝﾐﾅﾐｲｽﾞﾁｮｳ","kana_address":"ｲﾊﾏ","pref":"静岡県","city":"賀茂郡南伊豆町","address":"伊浜"},
{"zip_code":"4150312","kana_pref":"ｼｽﾞｵｶｹﾝ","kana_city":"ｶﾓｸﾞﾝﾐﾅﾐｲｽﾞﾁｮｳ","kana_address":"ｲﾙﾏ","pref":"静岡県","city":"賀茂郡南伊豆町","address":"入間"},
{"zip_code":"4150156","kana_pref":"ｼｽﾞｵｶｹﾝ","kana_city":"ｶﾓｸﾞﾝﾐﾅﾐｲｽﾞﾁｮｳ","kana_address":"ｲﾛｳｻﾞｷ","pref":"静岡県","city":"賀茂郡南伊豆町","address":"石廊崎"},
{"zip_code":"4150322","kana_pref":"ｼｽﾞｵｶｹﾝ","kana_city":"ｶﾓｸﾞﾝﾐﾅﾐｲｽﾞﾁｮｳ","kana_address":"ｲﾜﾄﾞﾉ","pref":"静岡県","city":"賀茂郡南伊豆町","address":"岩殿"},
{"zip_code":"4150155","kana_pref":"ｼｽﾞｵｶｹﾝ","kana_city":"ｶﾓｸﾞﾝﾐﾅﾐｲｽﾞﾁｮｳ","kana_address":"ｵｵｾ","pref":"静岡県","city":"賀茂郡南伊豆町","address":"大瀬"},
{"zip_code":"4150531","kana_pref":"ｼｽﾞｵｶｹﾝ","kana_city":"ｶﾓｸﾞﾝﾐﾅﾐｲｽﾞﾁｮｳ","kana_address":"ｵﾁｲ","pref":"静岡県","city":"賀茂郡南伊豆町","address":"落居"},
{"zip_code":"4150304","kana_pref":"ｼｽﾞｵｶｹﾝ","kana_city":"ｶﾓｸﾞﾝﾐﾅﾐｲｽﾞﾁｮｳ","kana_address":"ｶﾉｳ","pref":"静岡県","city":"賀茂郡南伊豆町","address":"加納"},
{"zip_code":"4150324","kana_pref":"ｼｽﾞｵｶｹﾝ","kana_city":"ｶﾓｸﾞﾝﾐﾅﾐｲｽﾞﾁｮｳ","kana_address":"ｶﾐｵﾉ","pref":"静岡県","city":"賀茂郡南伊豆町","address":"上小野"},
{"zip_code":"4150302","kana_pref":"ｼｽﾞｵｶｹﾝ","kana_city":"ｶﾓｸﾞﾝﾐﾅﾐｲｽﾞﾁｮｳ","kana_address":"ｶﾐｶﾞﾓ","pref":"静岡県","city":"賀茂郡南伊豆町","address":"上賀茂"},
{"zip_code":"4150323","kana_pref":"ｼｽﾞｵｶｹﾝ","kana_city":"ｶﾓｸﾞﾝﾐﾅﾐｲｽﾞﾁｮｳ","kana_address":"ｶﾜｲﾉ","pref":"静岡県","city":"賀茂郡南伊豆町","address":"川合野"},
{"zip_code":"4150321","kana_pref":"ｼｽﾞｵｶｹﾝ","kana_city":"ｶﾓｸﾞﾝﾐﾅﾐｲｽﾞﾁｮｳ","kana_address":"ｹｸﾞﾗﾉ","pref":"静岡県","city":"賀茂郡南伊豆町","address":"毛倉野"},
{"zip_code":"4150532","kana_pref":"ｼｽﾞｵｶｹﾝ","kana_city":"ｶﾓｸﾞﾝﾐﾅﾐｲｽﾞﾁｮｳ","kana_address":"ｺｳﾗ","pref":"静岡県","city":"賀茂郡南伊豆町","address":"子浦"},
{"zip_code":"4150312","kana_pref":"ｼｽﾞｵｶｹﾝ","kana_city":"ｶﾓｸﾞﾝﾐﾅﾐｲｽﾞﾁｮｳ","kana_address":"ｻｼﾀﾞ","pref":"静岡県","city":"賀茂郡南伊豆町","address":"差田"},
{"zip_code":"4150154","kana_pref":"ｼｽﾞｵｶｹﾝ","kana_city":"ｶﾓｸﾞﾝﾐﾅﾐｲｽﾞﾁｮｳ","kana_address":"ｼﾀﾙ","pref":"静岡県","city":"賀茂郡南伊豆町","address":"下流"},
{"zip_code":"4150323","kana_pref":"ｼｽﾞｵｶｹﾝ","kana_city":"ｶﾓｸﾞﾝﾐﾅﾐｲｽﾞﾁｮｳ","kana_address":"ｼﾓｵﾉ","pref":"静岡県","city":"賀茂郡南伊豆町","address":"下小野"},
{"zip_code":"4150303","kana_pref":"ｼｽﾞｵｶｹﾝ","kana_city":"ｶﾓｸﾞﾝﾐﾅﾐｲｽﾞﾁｮｳ","kana_address":"ｼﾓｶﾞﾓ","pref":"静岡県","city":"賀茂郡南伊豆町","address":"下賀茂"},
{"zip_code":"4150326","kana_pref":"ｼｽﾞｵｶｹﾝ","kana_city":"ｶﾓｸﾞﾝﾐﾅﾐｲｽﾞﾁｮｳ","kana_address":"ｼﾞｬｲｼ","pref":"静岡県","city":"賀茂郡南伊豆町","address":"蛇石"},
{"zip_code":"4150533","kana_pref":"ｼｽﾞｵｶｹﾝ","kana_city":"ｶﾓｸﾞﾝﾐﾅﾐｲｽﾞﾁｮｳ","kana_address":"ﾀﾃｲﾜ","pref":"静岡県","city":"賀茂郡南伊豆町","address":"立岩"},
{"zip_code":"4150314","kana_pref":"ｼｽﾞｵｶｹﾝ","kana_city":"ｶﾓｸﾞﾝﾐﾅﾐｲｽﾞﾁｮｳ","kana_address":"ﾁｮｳｶﾞﾉ","pref":"静岡県","city":"賀茂郡南伊豆町","address":"蝶ケ野"},
{"zip_code":"4150153","kana_pref":"ｼｽﾞｵｶｹﾝ","kana_city":"ｶﾓｸﾞﾝﾐﾅﾐｲｽﾞﾁｮｳ","kana_address":"ﾃｲｼ","pref":"静岡県","city":"賀茂郡南伊豆町","address":"手石"},
{"zip_code":"4150531","kana_pref":"ｼｽﾞｵｶｹﾝ","kana_city":"ｶﾓｸﾞﾝﾐﾅﾐｲｽﾞﾁｮｳ","kana_address":"ﾃﾝｼﾞﾝﾊﾞﾗ","pref":"静岡県","city":"賀茂郡南伊豆町","address":"天神原"},
{"zip_code":"4150311","kana_pref":"ｼｽﾞｵｶｹﾝ","kana_city":"ｶﾓｸﾞﾝﾐﾅﾐｲｽﾞﾁｮｳ","kana_address":"ﾅｶｷﾞ","pref":"静岡県","city":"賀茂郡南伊豆町","address":"中木"},
{"zip_code":"4150305","kana_pref":"ｼｽﾞｵｶｹﾝ","kana_city":"ｶﾓｸﾞﾝﾐﾅﾐｲｽﾞﾁｮｳ","kana_address":"ﾆｼﾞｮｳ","pref":"静岡県","city":"賀茂郡南伊豆町","address":"二條"},
{"zip_code":"4150325","kana_pref":"ｼｽﾞｵｶｹﾝ","kana_city":"ｶﾓｸﾞﾝﾐﾅﾐｲｽﾞﾁｮｳ","kana_address":"ﾋﾗﾄﾞ","pref":"静岡県","city":"賀茂郡南伊豆町","address":"平戸"},
{"zip_code":"4150152","kana_pref":"ｼｽﾞｵｶｹﾝ","kana_city":"ｶﾓｸﾞﾝﾐﾅﾐｲｽﾞﾁｮｳ","kana_address":"ﾐﾅﾄ","pref":"静岡県","city":"賀茂郡南伊豆町","address":"湊"},
{"zip_code":"4150533","kana_pref":"ｼｽﾞｵｶｹﾝ","kana_city":"ｶﾓｸﾞﾝﾐﾅﾐｲｽﾞﾁｮｳ","kana_address":"ﾒﾗ","pref":"静岡県","city":"賀茂郡南伊豆町","address":"妻良"},
{"zip_code":"4150533","kana_pref":"ｼｽﾞｵｶｹﾝ","kana_city":"ｶﾓｸﾞﾝﾐﾅﾐｲｽﾞﾁｮｳ","kana_address":"ﾖｼﾀﾞ","pref":"静岡県","city":"賀茂郡南伊豆町","address":"吉田"}]}