{"zip_code":[
{"zip_code":"4160952","kana_pref":"ｼｽﾞｵｶｹﾝ","kana_city":"ﾌｼﾞｼ","kana_address":"ｱｵﾊﾞﾁｮｳ","pref":"静岡県","city":"富士市","address":"青葉町"},
{"zip_code":"4160901","kana_pref":"ｼｽﾞｵｶｹﾝ","kana_city":"ﾌｼﾞｼ","kana_address":"ｲﾜﾓﾄ","pref":"静岡県","city":"富士市","address":"岩本"},
{"zip_code":"4160912","kana_pref":"ｼｽﾞｵｶｹﾝ","kana_city":"ﾌｼﾞｼ","kana_address":"ｶｼﾞﾏﾁｮｳ","pref":"静岡県","city":"富士市","address":"加島町"},
{"zip_code":"4160942","kana_pref":"ｼｽﾞｵｶｹﾝ","kana_city":"ﾌｼﾞｼ","kana_address":"ｶﾐﾖｺﾜﾘ","pref":"静岡県","city":"富士市","address":"上横割"},
{"zip_code":"4160939","kana_pref":"ｼｽﾞｵｶｹﾝ","kana_city":"ﾌｼﾞｼ","kana_address":"ｶﾜﾅﾘｼﾞﾏ","pref":"静岡県","city":"富士市","address":"川成島"},
{"zip_code":"4160955","kana_pref":"ｼｽﾞｵｶｹﾝ","kana_city":"ﾌｼﾞｼ","kana_address":"ｶﾜﾅﾘｼﾝﾏﾁ","pref":"静岡県","city":"富士市","address":"川成新町"},
{"zip_code":"4160946","kana_pref":"ｼｽﾞｵｶｹﾝ","kana_city":"ﾌｼﾞｼ","kana_address":"ｺﾞｶﾝｼﾞﾏ","pref":"静岡県","city":"富士市","address":"五貫島"},
{"zip_code":"4160905","kana_pref":"ｼｽﾞｵｶｹﾝ","kana_city":"ﾌｼﾞｼ","kana_address":"ｺﾞﾐｼﾞﾏ","pref":"静岡県","city":"富士市","address":"五味島"},
{"zip_code":"4160934","kana_pref":"ｼｽﾞｵｶｹﾝ","kana_city":"ﾌｼﾞｼ","kana_address":"ｻﾒｼﾞﾏ","pref":"静岡県","city":"富士市","address":"鮫島"},
{"zip_code":"4160943","kana_pref":"ｼｽﾞｵｶｹﾝ","kana_city":"ﾌｼﾞｼ","kana_address":"ｼﾓﾖｺﾜﾘ","pref":"静岡県","city":"富士市","address":"下横割"},
{"zip_code":"4160941","kana_pref":"ｼｽﾞｵｶｹﾝ","kana_city":"ﾌｼﾞｼ","kana_address":"ｼﾞｭｳﾍﾞｴ","pref":"静岡県","city":"富士市","address":"十兵衛"},
{"zip_code":"4160935","kana_pref":"ｼｽﾞｵｶｹﾝ","kana_city":"ﾌｼﾞｼ","kana_address":"ﾀｺﾞ","pref":"静岡県","city":"富士市","address":"田子"},
{"zip_code":"4160931","kana_pref":"ｼｽﾞｵｶｹﾝ","kana_city":"ﾌｼﾞｼ","kana_address":"ﾀﾃﾞﾊﾗ","pref":"静岡県","city":"富士市","address":"蓼原"},
{"zip_code":"4160953","kana_pref":"ｼｽﾞｵｶｹﾝ","kana_city":"ﾌｼﾞｼ","kana_address":"ﾀﾃﾞﾊﾗﾁｮｳ","pref":"静岡県","city":"富士市","address":"蓼原町"},
{"zip_code":"4160936","kana_pref":"ｼｽﾞｵｶｹﾝ","kana_city":"ﾌｼﾞｼ","kana_address":"ﾅｶｶﾜﾊﾗ","pref":"静岡県","city":"富士市","address":"中河原"},
{"zip_code":"4160907","kana_pref":"ｼｽﾞｵｶｹﾝ","kana_city":"ﾌｼﾞｼ","kana_address":"ﾅｶｼﾞﾏ","pref":"静岡県","city":"富士市","address":"中島"},
{"zip_code":"4160933","kana_pref":"ｼｽﾞｵｶｹﾝ","kana_city":"ﾌｼﾞｼ","kana_address":"ﾅｶﾏﾙ","pref":"静岡県","city":"富士市","address":"中丸"},
{"zip_code":"4160902","kana_pref":"ｼｽﾞｵｶｹﾝ","kana_city":"ﾌｼﾞｼ","kana_address":"ﾅｶﾞﾄﾞｵﾘ","pref":"静岡県","city":"富士市","address":"長通"},
{"zip_code":"4160911","kana_pref":"ｼｽﾞｵｶｹﾝ","kana_city":"ﾌｼﾞｼ","kana_address":"ﾊﾁﾏﾝﾁｮｳ","pref":"静岡県","city":"富士市","address":"八幡町"},
{"zip_code":"4160938","kana_pref":"ｼｽﾞｵｶｹﾝ","kana_city":"ﾌｼﾞｼ","kana_address":"ﾊﾏﾀﾞﾁｮｳ","pref":"静岡県","city":"富士市","address":"浜田町"},
{"zip_code":"4160915","kana_pref":"ｼｽﾞｵｶｹﾝ","kana_city":"ﾌｼﾞｼ","kana_address":"ﾌｼﾞﾁｮｳ","pref":"静岡県","city":"富士市","address":"富士町"},
{"zip_code":"4160916","kana_pref":"ｼｽﾞｵｶｹﾝ","kana_city":"ﾌｼﾞｼ","kana_address":"ﾍｲｶﾞｷ","pref":"静岡県","city":"富士市","address":"平垣"},
{"zip_code":"4160918","kana_pref":"ｼｽﾞｵｶｹﾝ","kana_city":"ﾌｼﾞｼ","kana_address":"ﾍｲｶﾞｷﾁｮｳ","pref":"静岡県","city":"富士市","address":"平垣町"},
{"zip_code":"4160913","kana_pref":"ｼｽﾞｵｶｹﾝ","kana_city":"ﾌｼﾞｼ","kana_address":"ﾍｲｶﾞｷﾎﾝﾁｮｳ","pref":"静岡県","city":"富士市","address":"平垣本町"},
{"zip_code":"4160914","kana_pref":"ｼｽﾞｵｶｹﾝ","kana_city":"ﾌｼﾞｼ","kana_address":"ﾎﾝﾁｮｳ","pref":"静岡県","city":"富士市","address":"本町"},
{"zip_code":"4160937","kana_pref":"ｼｽﾞｵｶｹﾝ","kana_city":"ﾌｼﾞｼ","kana_address":"ﾏｴﾀﾞ","pref":"静岡県","city":"富士市","address":"前田"},
{"zip_code":"4160909","kana_pref":"ｼｽﾞｵｶｹﾝ","kana_city":"ﾌｼﾞｼ","kana_address":"ﾏﾂｵｶ","pref":"静岡県","city":"富士市","address":"松岡"},
{"zip_code":"4160919","kana_pref":"ｼｽﾞｵｶｹﾝ","kana_city":"ﾌｼﾞｼ","kana_address":"ﾏﾂﾄﾐﾏﾁ","pref":"静岡県","city":"富士市","address":"松富町"},
{"zip_code":"4160903","kana_pref":"ｼｽﾞｵｶｹﾝ","kana_city":"ﾌｼﾞｼ","kana_address":"ﾏﾂﾓﾄ","pref":"静岡県","city":"富士市","address":"松本"},
{"zip_code":"4160921","kana_pref":"ｼｽﾞｵｶｹﾝ","kana_city":"ﾌｼﾞｼ","kana_address":"ﾐﾄｼﾞﾏ","pref":"静岡県","city":"富士市","address":"水戸島"},
{"zip_code":"4160924","kana_pref":"ｼｽﾞｵｶｹﾝ","kana_city":"ﾌｼﾞｼ","kana_address":"ﾐﾄｼﾞﾏﾎﾝﾁｮｳ","pref":"静岡県","city":"富士市","address":"水戸島本町"},
{"zip_code":"4160922","kana_pref":"ｼｽﾞｵｶｹﾝ","kana_city":"ﾌｼﾞｼ","kana_address":"ﾐﾄｼﾞﾏﾓﾄﾁｮｳ","pref":"静岡県","city":"富士市","address":"水戸島元町"},
{"zip_code":"4160947","kana_pref":"ｼｽﾞｵｶｹﾝ","kana_city":"ﾌｼﾞｼ","kana_address":"ﾐﾔｼﾀ","pref":"静岡県","city":"富士市","address":"宮下"},
{"zip_code":"4160945","kana_pref":"ｼｽﾞｵｶｹﾝ","kana_city":"ﾌｼﾞｼ","kana_address":"ﾐﾔｼﾞﾏ","pref":"静岡県","city":"富士市","address":"宮島"},
{"zip_code":"4160906","kana_pref":"ｼｽﾞｵｶｹﾝ","kana_city":"ﾌｼﾞｼ","kana_address":"ﾓﾄｲﾁﾊﾞ","pref":"静岡県","city":"富士市","address":"本市場"},
{"zip_code":"4160904","kana_pref":"ｼｽﾞｵｶｹﾝ","kana_city":"ﾌｼﾞｼ","kana_address":"ﾓﾄｲﾁﾊﾞｼﾝﾃﾞﾝ","pref":"静岡県","city":"富士市","address":"本市場新田"},
{"zip_code":"4160954","kana_pref":"ｼｽﾞｵｶｹﾝ","kana_city":"ﾌｼﾞｼ","kana_address":"ﾓﾄｲﾁﾊﾞﾁｮｳ","pref":"静岡県","city":"富士市","address":"本市場町"},
{"zip_code":"4160917","kana_pref":"ｼｽﾞｵｶｹﾝ","kana_city":"ﾌｼﾞｼ","kana_address":"ﾓﾄﾁｮｳ","pref":"静岡県","city":"富士市","address":"元町"},
{"zip_code":"4160949","kana_pref":"ｼｽﾞｵｶｹﾝ","kana_city":"ﾌｼﾞｼ","kana_address":"ﾓﾘｼﾀ","pref":"静岡県","city":"富士市","address":"森下"},
{"zip_code":"4160948","kana_pref":"ｼｽﾞｵｶｹﾝ","kana_city":"ﾌｼﾞｼ","kana_address":"ﾓﾘｼﾞﾏ","pref":"静岡県","city":"富士市","address":"森島"},
{"zip_code":"4160932","kana_pref":"ｼｽﾞｵｶｹﾝ","kana_city":"ﾌｼﾞｼ","kana_address":"ﾔﾅｷﾞｼﾏ","pref":"静岡県","city":"富士市","address":"柳島"},
{"zip_code":"4160908","kana_pref":"ｼｽﾞｵｶｹﾝ","kana_city":"ﾌｼﾞｼ","kana_address":"ﾕﾉｷ","pref":"静岡県","city":"富士市","address":"柚木"},
{"zip_code":"4160944","kana_pref":"ｼｽﾞｵｶｹﾝ","kana_city":"ﾌｼﾞｼ","kana_address":"ﾖｺﾜﾘ","pref":"静岡県","city":"富士市","address":"横割"},
{"zip_code":"4160923","kana_pref":"ｼｽﾞｵｶｹﾝ","kana_city":"ﾌｼﾞｼ","kana_address":"ﾖｺﾜﾘﾎﾝﾁｮｳ","pref":"静岡県","city":"富士市","address":"横割本町"},
{"zip_code":"4160951","kana_pref":"ｼｽﾞｵｶｹﾝ","kana_city":"ﾌｼﾞｼ","kana_address":"ﾖﾈﾉﾐﾔﾁｮｳ","pref":"静岡県","city":"富士市","address":"米之宮町"}]}