{"zip_code":[
{"zip_code":"4170000","kana_pref":"ｼｽﾞｵｶｹﾝ","kana_city":"ﾌｼﾞｼ","kana_address":"","pref":"静岡県","city":"富士市","address":""},
{"zip_code":"4170046","kana_pref":"ｼｽﾞｵｶｹﾝ","kana_city":"ﾌｼﾞｼ","kana_address":"ｱｵｼﾏ","pref":"静岡県","city":"富士市","address":"青島"},
{"zip_code":"4170047","kana_pref":"ｼｽﾞｵｶｹﾝ","kana_city":"ﾌｼﾞｼ","kana_address":"ｱｵｼﾏﾁｮｳ","pref":"静岡県","city":"富士市","address":"青島町"},
{"zip_code":"4170042","kana_pref":"ｼｽﾞｵｶｹﾝ","kana_city":"ﾌｼﾞｼ","kana_address":"ｱﾗﾀｼﾞﾏ","pref":"静岡県","city":"富士市","address":"荒田島"},
{"zip_code":"4170043","kana_pref":"ｼｽﾞｵｶｹﾝ","kana_city":"ﾌｼﾞｼ","kana_address":"ｱﾗﾀｼﾞﾏﾁｮｳ","pref":"静岡県","city":"富士市","address":"荒田島町"},
{"zip_code":"4170804","kana_pref":"ｼｽﾞｵｶｹﾝ","kana_city":"ﾌｼﾞｼ","kana_address":"ｲｼｲ","pref":"静岡県","city":"富士市","address":"石井"},
{"zip_code":"4170862","kana_pref":"ｼｽﾞｵｶｹﾝ","kana_city":"ﾌｼﾞｼ","kana_address":"ｲｼｻﾞｶ","pref":"静岡県","city":"富士市","address":"石坂"},
{"zip_code":"4170808","kana_pref":"ｼｽﾞｵｶｹﾝ","kana_city":"ﾌｼﾞｼ","kana_address":"ｲｯｼｷ","pref":"静岡県","city":"富士市","address":"一色"},
{"zip_code":"4170846","kana_pref":"ｼｽﾞｵｶｹﾝ","kana_city":"ﾌｼﾞｼ","kana_address":"ｲﾏｲ","pref":"静岡県","city":"富士市","address":"今井"},
{"zip_code":"4170001","kana_pref":"ｼｽﾞｵｶｹﾝ","kana_city":"ﾌｼﾞｼ","kana_address":"ｲﾏｲｽﾞﾐ","pref":"静岡県","city":"富士市","address":"今泉"},
{"zip_code":"4170802","kana_pref":"ｼｽﾞｵｶｹﾝ","kana_city":"ﾌｼﾞｼ","kana_address":"ｲﾏﾐﾔ","pref":"静岡県","city":"富士市","address":"今宮"},
{"zip_code":"4170853","kana_pref":"ｼｽﾞｵｶｹﾝ","kana_city":"ﾌｼﾞｼ","kana_address":"ｳﾄｶﾞﾜﾋｶﾞｼﾁｮｳ","pref":"静岡県","city":"富士市","address":"宇東川東町"},
{"zip_code":"4170854","kana_pref":"ｼｽﾞｵｶｹﾝ","kana_city":"ﾌｼﾞｼ","kana_address":"ｳﾄｶﾞﾜﾆｼﾁｮｳ","pref":"静岡県","city":"富士市","address":"宇東川西町"},
{"zip_code":"4170805","kana_pref":"ｼｽﾞｵｶｹﾝ","kana_city":"ﾌｼﾞｼ","kana_address":"ｳﾅｲｶﾞﾌﾁ","pref":"静岡県","city":"富士市","address":"鵜無ケ淵"},
{"zip_code":"4170025","kana_pref":"ｼｽﾞｵｶｹﾝ","kana_city":"ﾌｼﾞｼ","kana_address":"ｳﾘｼﾞﾏ","pref":"静岡県","city":"富士市","address":"瓜島"},
{"zip_code":"4170057","kana_pref":"ｼｽﾞｵｶｹﾝ","kana_city":"ﾌｼﾞｼ","kana_address":"ｳﾘｼﾞﾏﾁｮｳ","pref":"静岡県","city":"富士市","address":"瓜島町"},
{"zip_code":"4170811","kana_pref":"ｼｽﾞｵｶｹﾝ","kana_city":"ﾌｼﾞｼ","kana_address":"ｴﾉｵ","pref":"静岡県","city":"富士市","address":"江尾"},
{"zip_code":"4170817","kana_pref":"ｼｽﾞｵｶｹﾝ","kana_city":"ﾌｼﾞｼ","kana_address":"ｴﾉｵﾐﾅﾐ","pref":"静岡県","city":"富士市","address":"江尾南"},
{"zip_code":"4170845","kana_pref":"ｼｽﾞｵｶｹﾝ","kana_city":"ﾌｼﾞｼ","kana_address":"ｵｵﾉｼﾝﾃﾞﾝ","pref":"静岡県","city":"富士市","address":"大野新田"},
{"zip_code":"4170801","kana_pref":"ｼｽﾞｵｶｹﾝ","kana_city":"ﾌｼﾞｼ","kana_address":"ｵｵﾌﾞﾁ","pref":"静岡県","city":"富士市","address":"大淵"},
{"zip_code":"4170803","kana_pref":"ｼｽﾞｵｶｹﾝ","kana_city":"ﾌｼﾞｼ","kana_address":"ｶｻﾞｷ","pref":"静岡県","city":"富士市","address":"桑崎"},
{"zip_code":"4170835","kana_pref":"ｼｽﾞｵｶｹﾝ","kana_city":"ﾌｼﾞｼ","kana_address":"ｶｼﾜﾊﾞﾗ","pref":"静岡県","city":"富士市","address":"柏原"},
{"zip_code":"4170821","kana_pref":"ｼｽﾞｵｶｹﾝ","kana_city":"ﾌｼﾞｼ","kana_address":"ｶﾐﾔ","pref":"静岡県","city":"富士市","address":"神谷"},
{"zip_code":"4170822","kana_pref":"ｼｽﾞｵｶｹﾝ","kana_city":"ﾌｼﾞｼ","kana_address":"ｶﾐﾔｼﾝﾏﾁ","pref":"静岡県","city":"富士市","address":"神谷新町"},
{"zip_code":"4170823","kana_pref":"ｼｽﾞｵｶｹﾝ","kana_city":"ﾌｼﾞｼ","kana_address":"ｶﾐﾔﾐﾅﾐ","pref":"静岡県","city":"富士市","address":"神谷南"},
{"zip_code":"4170825","kana_pref":"ｼｽﾞｵｶｹﾝ","kana_city":"ﾌｼﾞｼ","kana_address":"ｶﾜｼﾘ","pref":"静岡県","city":"富士市","address":"川尻"},
{"zip_code":"4170824","kana_pref":"ｼｽﾞｵｶｹﾝ","kana_city":"ﾌｼﾞｼ","kana_address":"ｶﾜｼﾘﾋｶﾞｼ","pref":"静岡県","city":"富士市","address":"川尻東"},
{"zip_code":"4170071","kana_pref":"ｼｽﾞｵｶｹﾝ","kana_city":"ﾌｼﾞｼ","kana_address":"ｸﾆｸﾎﾞ","pref":"静岡県","city":"富士市","address":"国久保"},
{"zip_code":"4170062","kana_pref":"ｼｽﾞｵｶｹﾝ","kana_city":"ﾌｼﾞｼ","kana_address":"ｺｳｻｲ","pref":"静岡県","city":"富士市","address":"香西"},
{"zip_code":"4170063","kana_pref":"ｼｽﾞｵｶｹﾝ","kana_city":"ﾌｼﾞｼ","kana_address":"ｺｳｻｲｼﾝﾃﾞﾝ","pref":"静岡県","city":"富士市","address":"香西新田"},
{"zip_code":"4170807","kana_pref":"ｼｽﾞｵｶｹﾝ","kana_city":"ﾌｼﾞｼ","kana_address":"ｺﾞｳﾄﾞ","pref":"静岡県","city":"富士市","address":"神戸"},
{"zip_code":"4170812","kana_pref":"ｼｽﾞｵｶｹﾝ","kana_city":"ﾌｼﾞｼ","kana_address":"ｻｶｲ","pref":"静岡県","city":"富士市","address":"境"},
{"zip_code":"4170842","kana_pref":"ｼｽﾞｵｶｹﾝ","kana_city":"ﾌｼﾞｼ","kana_address":"ｻﾝｼﾝﾃﾞﾝ","pref":"静岡県","city":"富士市","address":"三新田"},
{"zip_code":"4170033","kana_pref":"ｼｽﾞｵｶｹﾝ","kana_city":"ﾌｼﾞｼ","kana_address":"ｼﾏﾀﾞﾁｮｳ","pref":"静岡県","city":"富士市","address":"島田町"},
{"zip_code":"4170004","kana_pref":"ｼｽﾞｵｶｹﾝ","kana_city":"ﾌｼﾞｼ","kana_address":"ｼﾝﾊﾞｼﾁｮｳ","pref":"静岡県","city":"富士市","address":"新橋町"},
{"zip_code":"4170015","kana_pref":"ｼｽﾞｵｶｹﾝ","kana_city":"ﾌｼﾞｼ","kana_address":"ｽｽﾞｶﾜﾁｮｳ","pref":"静岡県","city":"富士市","address":"鈴川町"},
{"zip_code":"4170013","kana_pref":"ｼｽﾞｵｶｹﾝ","kana_city":"ﾌｼﾞｼ","kana_address":"ｽｽﾞｶﾜﾅｶﾁｮｳ","pref":"静岡県","city":"富士市","address":"鈴川中町"},
{"zip_code":"4170014","kana_pref":"ｼｽﾞｵｶｹﾝ","kana_city":"ﾌｼﾞｼ","kana_address":"ｽｽﾞｶﾜﾆｼﾁｮｳ","pref":"静岡県","city":"富士市","address":"鈴川西町"},
{"zip_code":"4170012","kana_pref":"ｼｽﾞｵｶｹﾝ","kana_city":"ﾌｼﾞｼ","kana_address":"ｽｽﾞｶﾜﾋｶﾞｼﾁｮｳ","pref":"静岡県","city":"富士市","address":"鈴川東町"},
{"zip_code":"4170011","kana_pref":"ｼｽﾞｵｶｹﾝ","kana_city":"ﾌｼﾞｼ","kana_address":"ｽｽﾞｶﾜﾎﾝﾁｮｳ","pref":"静岡県","city":"富士市","address":"鈴川本町"},
{"zip_code":"4170072","kana_pref":"ｼｽﾞｵｶｹﾝ","kana_city":"ﾌｼﾞｼ","kana_address":"ｾﾝｹﾞﾝｶﾐﾁｮｳ","pref":"静岡県","city":"富士市","address":"浅間上町"},
{"zip_code":"4170073","kana_pref":"ｼｽﾞｵｶｹﾝ","kana_city":"ﾌｼﾞｼ","kana_address":"ｾﾝｹﾞﾝﾎﾝﾁｮｳ","pref":"静岡県","city":"富士市","address":"浅間本町"},
{"zip_code":"4170048","kana_pref":"ｼｽﾞｵｶｹﾝ","kana_city":"ﾌｼﾞｼ","kana_address":"ﾀｶｼﾏﾁｮｳ","pref":"静岡県","city":"富士市","address":"高島町"},
{"zip_code":"4170044","kana_pref":"ｼｽﾞｵｶｹﾝ","kana_city":"ﾌｼﾞｼ","kana_address":"ﾀｶﾈﾁｮｳ","pref":"静岡県","city":"富士市","address":"高嶺町"},
{"zip_code":"4170031","kana_pref":"ｼｽﾞｵｶｹﾝ","kana_city":"ﾌｼﾞｼ","kana_address":"ﾀｼﾞﾏ","pref":"静岡県","city":"富士市","address":"田島"},
{"zip_code":"4170032","kana_pref":"ｼｽﾞｵｶｹﾝ","kana_city":"ﾌｼﾞｼ","kana_address":"ﾀｼﾞﾏｼﾝﾃﾞﾝ","pref":"静岡県","city":"富士市","address":"田島新田"},
{"zip_code":"4170843","kana_pref":"ｼｽﾞｵｶｹﾝ","kana_city":"ﾌｼﾞｼ","kana_address":"ﾀﾅｶｼﾝﾃﾞﾝ","pref":"静岡県","city":"富士市","address":"田中新田"},
{"zip_code":"4170052","kana_pref":"ｼｽﾞｵｶｹﾝ","kana_city":"ﾌｼﾞｼ","kana_address":"ﾁｭｳｵｳﾁｮｳ","pref":"静岡県","city":"富士市","address":"中央町"},
{"zip_code":"4170034","kana_pref":"ｼｽﾞｵｶｹﾝ","kana_city":"ﾌｼﾞｼ","kana_address":"ﾂﾀ","pref":"静岡県","city":"富士市","address":"津田"},
{"zip_code":"4170035","kana_pref":"ｼｽﾞｵｶｹﾝ","kana_city":"ﾌｼﾞｼ","kana_address":"ﾂﾀﾁｮｳ","pref":"静岡県","city":"富士市","address":"津田町"},
{"zip_code":"4170061","kana_pref":"ｼｽﾞｵｶｹﾝ","kana_city":"ﾌｼﾞｼ","kana_address":"ﾃﾞﾝﾎﾞｳ","pref":"静岡県","city":"富士市","address":"伝法"},
{"zip_code":"4170037","kana_pref":"ｼｽﾞｵｶｹﾝ","kana_city":"ﾌｼﾞｼ","kana_address":"ﾄﾉｷ","pref":"静岡県","city":"富士市","address":"外木"},
{"zip_code":"4170832","kana_pref":"ｼｽﾞｵｶｹﾝ","kana_city":"ﾌｼﾞｼ","kana_address":"ﾅｶｶｼﾜﾊﾞﾗｼﾝﾃﾞﾝ","pref":"静岡県","city":"富士市","address":"中柏原新田"},
{"zip_code":"4170036","kana_pref":"ｼｽﾞｵｶｹﾝ","kana_city":"ﾌｼﾞｼ","kana_address":"ﾅｶｶﾜﾊﾗ","pref":"静岡県","city":"富士市","address":"中河原"},
{"zip_code":"4170826","kana_pref":"ｼｽﾞｵｶｹﾝ","kana_city":"ﾌｼﾞｼ","kana_address":"ﾅｶｻﾞﾄ","pref":"静岡県","city":"富士市","address":"中里"},
{"zip_code":"4170809","kana_pref":"ｼｽﾞｵｶｹﾝ","kana_city":"ﾌｼﾞｼ","kana_address":"ﾅｶﾉ","pref":"静岡県","city":"富士市","address":"中野"},
{"zip_code":"4170054","kana_pref":"ｼｽﾞｵｶｹﾝ","kana_city":"ﾌｼﾞｼ","kana_address":"ﾅｶﾞﾀ","pref":"静岡県","city":"富士市","address":"永田"},
{"zip_code":"4170058","kana_pref":"ｼｽﾞｵｶｹﾝ","kana_city":"ﾌｼﾞｼ","kana_address":"ﾅｶﾞﾀｷﾀﾁｮｳ","pref":"静岡県","city":"富士市","address":"永田北町"},
{"zip_code":"4170055","kana_pref":"ｼｽﾞｵｶｹﾝ","kana_city":"ﾌｼﾞｼ","kana_address":"ﾅｶﾞﾀﾁｮｳ","pref":"静岡県","city":"富士市","address":"永田町"},
{"zip_code":"4170834","kana_pref":"ｼｽﾞｵｶｹﾝ","kana_city":"ﾌｼﾞｼ","kana_address":"ﾆｼｶｼﾜﾊﾞﾗｼﾝﾃﾞﾝ","pref":"静岡県","city":"富士市","address":"西柏原新田"},
{"zip_code":"4170045","kana_pref":"ｼｽﾞｵｶｹﾝ","kana_city":"ﾌｼﾞｼ","kana_address":"ﾆｼｷﾁｮｳ","pref":"静岡県","city":"富士市","address":"錦町"},
{"zip_code":"4170814","kana_pref":"ｼｽﾞｵｶｹﾝ","kana_city":"ﾌｼﾞｼ","kana_address":"ﾆｼﾌﾅﾂ","pref":"静岡県","city":"富士市","address":"西船津"},
{"zip_code":"4170833","kana_pref":"ｼｽﾞｵｶｹﾝ","kana_city":"ﾌｼﾞｼ","kana_address":"ﾇﾏﾀｼﾝﾃﾞﾝ","pref":"静岡県","city":"富士市","address":"沼田新田"},
{"zip_code":"4170852","kana_pref":"ｼｽﾞｵｶｹﾝ","kana_city":"ﾌｼﾞｼ","kana_address":"ﾊﾗﾀﾞ","pref":"静岡県","city":"富士市","address":"原田"},
{"zip_code":"4170831","kana_pref":"ｼｽﾞｵｶｹﾝ","kana_city":"ﾌｼﾞｼ","kana_address":"ﾋｶﾞｼｶｼﾜﾊﾞﾗｼﾝﾃﾞﾝ","pref":"静岡県","city":"富士市","address":"東柏原新田"},
{"zip_code":"4170847","kana_pref":"ｼｽﾞｵｶｹﾝ","kana_city":"ﾌｼﾞｼ","kana_address":"ﾋﾅ","pref":"静岡県","city":"富士市","address":"比奈"},
{"zip_code":"4170844","kana_pref":"ｼｽﾞｵｶｹﾝ","kana_city":"ﾌｼﾞｼ","kana_address":"ﾋﾉｷｼﾝﾃﾞﾝ","pref":"静岡県","city":"富士市","address":"桧新田"},
{"zip_code":"4170056","kana_pref":"ｼｽﾞｵｶｹﾝ","kana_city":"ﾌｼﾞｼ","kana_address":"ﾋﾉﾃﾞﾁｮｳ","pref":"静岡県","city":"富士市","address":"日乃出町"},
{"zip_code":"4170861","kana_pref":"ｼｽﾞｵｶｹﾝ","kana_city":"ﾌｼﾞｼ","kana_address":"ﾋﾛﾐﾋｶﾞｼﾎﾝﾁｮｳ","pref":"静岡県","city":"富士市","address":"広見東本町"},
{"zip_code":"4170863","kana_pref":"ｼｽﾞｵｶｹﾝ","kana_city":"ﾌｼﾞｼ","kana_address":"ﾋﾛﾐﾆｼﾎﾝﾁｮｳ","pref":"静岡県","city":"富士市","address":"広見西本町"},
{"zip_code":"4170864","kana_pref":"ｼｽﾞｵｶｹﾝ","kana_city":"ﾌｼﾞｼ","kana_address":"ﾋﾛﾐﾎﾝﾁｮｳ","pref":"静岡県","city":"富士市","address":"広見本町"},
{"zip_code":"4170841","kana_pref":"ｼｽﾞｵｶｹﾝ","kana_city":"ﾌｼﾞｼ","kana_address":"ﾌｼﾞｵｶ","pref":"静岡県","city":"富士市","address":"富士岡"},
{"zip_code":"4170851","kana_pref":"ｼｽﾞｵｶｹﾝ","kana_city":"ﾌｼﾞｼ","kana_address":"ﾌｼﾞﾐﾀﾞｲ","pref":"静岡県","city":"富士市","address":"富士見台"},
{"zip_code":"4170813","kana_pref":"ｼｽﾞｵｶｹﾝ","kana_city":"ﾌｼﾞｼ","kana_address":"ﾌﾅﾂ","pref":"静岡県","city":"富士市","address":"船津"},
{"zip_code":"4170806","kana_pref":"ｼｽﾞｵｶｹﾝ","kana_city":"ﾌｼﾞｼ","kana_address":"ﾏｶﾄﾞ","pref":"静岡県","city":"富士市","address":"間門"},
{"zip_code":"4170815","kana_pref":"ｼｽﾞｵｶｹﾝ","kana_city":"ﾌｼﾞｼ","kana_address":"ﾏｽｶﾞﾜ","pref":"静岡県","city":"富士市","address":"増川"},
{"zip_code":"4170816","kana_pref":"ｼｽﾞｵｶｹﾝ","kana_city":"ﾌｼﾞｼ","kana_address":"ﾏｽｶﾞﾜｼﾝﾏﾁ","pref":"静岡県","city":"富士市","address":"増川新町"},
{"zip_code":"4170855","kana_pref":"ｼｽﾞｵｶｹﾝ","kana_city":"ﾌｼﾞｼ","kana_address":"ﾐﾂｻﾞﾜ","pref":"静岡県","city":"富士市","address":"三ツ沢"},
{"zip_code":"4170049","kana_pref":"ｼｽﾞｵｶｹﾝ","kana_city":"ﾌｼﾞｼ","kana_address":"ﾐﾄﾞﾘﾁｮｳ","pref":"静岡県","city":"富士市","address":"緑町"},
{"zip_code":"4170026","kana_pref":"ｼｽﾞｵｶｹﾝ","kana_city":"ﾌｼﾞｼ","kana_address":"ﾐﾅﾐﾁｮｳ","pref":"静岡県","city":"富士市","address":"南町"},
{"zip_code":"4170041","kana_pref":"ｼｽﾞｵｶｹﾝ","kana_city":"ﾌｼﾞｼ","kana_address":"ﾐﾕｷﾁｮｳ","pref":"静岡県","city":"富士市","address":"御幸町"},
{"zip_code":"4170024","kana_pref":"ｼｽﾞｵｶｹﾝ","kana_city":"ﾌｼﾞｼ","kana_address":"ﾔｼﾛﾁｮｳ","pref":"静岡県","city":"富士市","address":"八代町"},
{"zip_code":"4170064","kana_pref":"ｼｽﾞｵｶｹﾝ","kana_city":"ﾌｼﾞｼ","kana_address":"ﾔﾖｲ","pref":"静岡県","city":"富士市","address":"弥生"},
{"zip_code":"4170065","kana_pref":"ｼｽﾞｵｶｹﾝ","kana_city":"ﾌｼﾞｼ","kana_address":"ﾔﾖｲｼﾝﾃﾞﾝ","pref":"静岡県","city":"富士市","address":"弥生新田"},
{"zip_code":"4170051","kana_pref":"ｼｽﾞｵｶｹﾝ","kana_city":"ﾌｼﾞｼ","kana_address":"ﾖｼﾜﾗ","pref":"静岡県","city":"富士市","address":"吉原"},
{"zip_code":"4170023","kana_pref":"ｼｽﾞｵｶｹﾝ","kana_city":"ﾌｼﾞｼ","kana_address":"ﾖｼﾜﾗﾀｶﾗﾁｮｳ","pref":"静岡県","city":"富士市","address":"吉原宝町"},
{"zip_code":"4170021","kana_pref":"ｼｽﾞｵｶｹﾝ","kana_city":"ﾌｼﾞｼ","kana_address":"ﾖﾀﾞﾊﾗ","pref":"静岡県","city":"富士市","address":"依田原"},
{"zip_code":"4170053","kana_pref":"ｼｽﾞｵｶｹﾝ","kana_city":"ﾌｼﾞｼ","kana_address":"ﾖﾀﾞﾊﾗｼﾝﾃﾞﾝ","pref":"静岡県","city":"富士市","address":"依田原新田"},
{"zip_code":"4170022","kana_pref":"ｼｽﾞｵｶｹﾝ","kana_city":"ﾌｼﾞｼ","kana_address":"ﾖﾀﾞﾊﾗﾁｮｳ","pref":"静岡県","city":"富士市","address":"依田原町"},
{"zip_code":"4170002","kana_pref":"ｼｽﾞｵｶｹﾝ","kana_city":"ﾌｼﾞｼ","kana_address":"ﾖﾀﾞﾊﾞｼ","pref":"静岡県","city":"富士市","address":"依田橋"},
{"zip_code":"4170003","kana_pref":"ｼｽﾞｵｶｹﾝ","kana_city":"ﾌｼﾞｼ","kana_address":"ﾖﾀﾞﾊﾞｼﾁｮｳ","pref":"静岡県","city":"富士市","address":"依田橋町"}]}