{"zip_code":[
{"zip_code":"4180000","kana_pref":"ｼｽﾞｵｶｹﾝ","kana_city":"ﾌｼﾞﾉﾐﾔｼ","kana_address":"","pref":"静岡県","city":"富士宮市","address":""},
{"zip_code":"4180047","kana_pref":"ｼｽﾞｵｶｹﾝ","kana_city":"ﾌｼﾞﾉﾐﾔｼ","kana_address":"ｱｵｷ","pref":"静岡県","city":"富士宮市","address":"青木"},
{"zip_code":"4180048","kana_pref":"ｼｽﾞｵｶｹﾝ","kana_city":"ﾌｼﾞﾉﾐﾔｼ","kana_address":"ｱｵｷﾀﾞｲﾗ","pref":"静岡県","city":"富士宮市","address":"青木平"},
{"zip_code":"4180016","kana_pref":"ｼｽﾞｵｶｹﾝ","kana_city":"ﾌｼﾞﾉﾐﾔｼ","kana_address":"ｱｺｳｼﾞ","pref":"静岡県","city":"富士宮市","address":"阿幸地"},
{"zip_code":"4180078","kana_pref":"ｼｽﾞｵｶｹﾝ","kana_city":"ﾌｼﾞﾉﾐﾔｼ","kana_address":"ｱｺｳｼﾞﾁｮｳ","pref":"静岡県","city":"富士宮市","address":"阿幸地町"},
{"zip_code":"4180037","kana_pref":"ｼｽﾞｵｶｹﾝ","kana_city":"ﾌｼﾞﾉﾐﾔｼ","kana_address":"ｱｺﾞﾔﾏ","pref":"静岡県","city":"富士宮市","address":"安居山"},
{"zip_code":"4180057","kana_pref":"ｼｽﾞｵｶｹﾝ","kana_city":"ﾌｼﾞﾉﾐﾔｼ","kana_address":"ｱｻﾋﾁｮｳ","pref":"静岡県","city":"富士宮市","address":"朝日町"},
{"zip_code":"4180032","kana_pref":"ｼｽﾞｵｶｹﾝ","kana_city":"ﾌｼﾞﾉﾐﾔｼ","kana_address":"ｱｻﾏﾁｮｳ","pref":"静岡県","city":"富士宮市","address":"浅間町"},
{"zip_code":"4180011","kana_pref":"ｼｽﾞｵｶｹﾝ","kana_city":"ﾌｼﾞﾉﾐﾔｼ","kana_address":"ｱﾜｸﾗ","pref":"静岡県","city":"富士宮市","address":"粟倉"},
{"zip_code":"4180018","kana_pref":"ｼｽﾞｵｶｹﾝ","kana_city":"ﾌｼﾞﾉﾐﾔｼ","kana_address":"ｱﾜｸﾗﾐﾅﾐﾁｮｳ","pref":"静岡県","city":"富士宮市","address":"粟倉南町"},
{"zip_code":"4180043","kana_pref":"ｼｽﾞｵｶｹﾝ","kana_city":"ﾌｼﾞﾉﾐﾔｼ","kana_address":"ｲｽﾞﾐﾁｮｳ","pref":"静岡県","city":"富士宮市","address":"泉町"},
{"zip_code":"4180108","kana_pref":"ｼｽﾞｵｶｹﾝ","kana_city":"ﾌｼﾞﾉﾐﾔｼ","kana_address":"ｲﾉｶｼﾗ","pref":"静岡県","city":"富士宮市","address":"猪之頭"},
{"zip_code":"4180104","kana_pref":"ｼｽﾞｵｶｹﾝ","kana_city":"ﾌｼﾞﾉﾐﾔｼ","kana_address":"ｳﾂﾉ","pref":"静岡県","city":"富士宮市","address":"内野"},
{"zip_code":"4180113","kana_pref":"ｼｽﾞｵｶｹﾝ","kana_city":"ﾌｼﾞﾉﾐﾔｼ","kana_address":"ｳﾏﾐﾂﾞｶ","pref":"静岡県","city":"富士宮市","address":"馬見塚"},
{"zip_code":"4180013","kana_pref":"ｼｽﾞｵｶｹﾝ","kana_city":"ﾌｼﾞﾉﾐﾔｼ","kana_address":"ｵｵｲﾜ","pref":"静岡県","city":"富士宮市","address":"大岩"},
{"zip_code":"4180044","kana_pref":"ｼｽﾞｵｶｹﾝ","kana_city":"ﾌｼﾞﾉﾐﾔｼ","kana_address":"ｵｵﾅｶｻﾞﾄ","pref":"静岡県","city":"富士宮市","address":"大中里"},
{"zip_code":"4180066","kana_pref":"ｼｽﾞｵｶｹﾝ","kana_city":"ﾌｼﾞﾉﾐﾔｼ","kana_address":"ｵｵﾐﾔﾁｮｳ","pref":"静岡県","city":"富士宮市","address":"大宮町"},
{"zip_code":"4180103","kana_pref":"ｼｽﾞｵｶｹﾝ","kana_city":"ﾌｼﾞﾉﾐﾔｼ","kana_address":"ｶﾐｲﾃﾞ","pref":"静岡県","city":"富士宮市","address":"上井出"},
{"zip_code":"4180116","kana_pref":"ｼｽﾞｵｶｹﾝ","kana_city":"ﾌｼﾞﾉﾐﾔｼ","kana_address":"ｶﾐｼﾞｮｳ","pref":"静岡県","city":"富士宮市","address":"上条"},
{"zip_code":"4180117","kana_pref":"ｼｽﾞｵｶｹﾝ","kana_city":"ﾌｼﾞﾉﾐﾔｼ","kana_address":"ｶﾘﾔﾄﾞ","pref":"静岡県","city":"富士宮市","address":"狩宿"},
{"zip_code":"4180031","kana_pref":"ｼｽﾞｵｶｹﾝ","kana_city":"ﾌｼﾞﾉﾐﾔｼ","kana_address":"ｶﾝﾀﾞｶﾞﾜﾁｮｳ","pref":"静岡県","city":"富士宮市","address":"神田川町"},
{"zip_code":"4180061","kana_pref":"ｼｽﾞｵｶｹﾝ","kana_city":"ﾌｼﾞﾉﾐﾔｼ","kana_address":"ｷﾀﾏﾁ","pref":"静岡県","city":"富士宮市","address":"北町"},
{"zip_code":"4180112","kana_pref":"ｼｽﾞｵｶｹﾝ","kana_city":"ﾌｼﾞﾉﾐﾔｼ","kana_address":"ｷﾀﾔﾏ","pref":"静岡県","city":"富士宮市","address":"北山"},
{"zip_code":"4180042","kana_pref":"ｼｽﾞｵｶｹﾝ","kana_city":"ﾌｼﾞﾉﾐﾔｼ","kana_address":"ｷﾌﾞﾈﾁｮｳ","pref":"静岡県","city":"富士宮市","address":"貴船町"},
{"zip_code":"4180034","kana_pref":"ｼｽﾞｵｶｹﾝ","kana_city":"ﾌｼﾞﾉﾐﾔｼ","kana_address":"ｸﾛﾀﾞ","pref":"静岡県","city":"富士宮市","address":"黒田"},
{"zip_code":"4180074","kana_pref":"ｼｽﾞｵｶｹﾝ","kana_city":"ﾌｼﾞﾉﾐﾔｼ","kana_address":"ｹﾞﾝﾄﾞｳｼﾞﾁｮｳ","pref":"静岡県","city":"富士宮市","address":"源道寺町"},
{"zip_code":"4180022","kana_pref":"ｼｽﾞｵｶｹﾝ","kana_city":"ﾌｼﾞﾉﾐﾔｼ","kana_address":"ｺｲｽﾞﾐ","pref":"静岡県","city":"富士宮市","address":"小泉"},
{"zip_code":"4180107","kana_pref":"ｼｽﾞｵｶｹﾝ","kana_city":"ﾌｼﾞﾉﾐﾔｼ","kana_address":"ｻｵﾘ","pref":"静岡県","city":"富士宮市","address":"佐折"},
{"zip_code":"4180114","kana_pref":"ｼｽﾞｵｶｹﾝ","kana_city":"ﾌｼﾞﾉﾐﾔｼ","kana_address":"ｼﾓｼﾞｮｳ","pref":"静岡県","city":"富士宮市","address":"下条"},
{"zip_code":"4180115","kana_pref":"ｼｽﾞｵｶｹﾝ","kana_city":"ﾌｼﾞﾉﾐﾔｼ","kana_address":"ｼｮｳｼﾞﾝｶﾞﾜ","pref":"静岡県","city":"富士宮市","address":"精進川"},
{"zip_code":"4180062","kana_pref":"ｼｽﾞｵｶｹﾝ","kana_city":"ﾌｼﾞﾉﾐﾔｼ","kana_address":"ｼﾞｮｳﾎｸﾁｮｳ","pref":"静岡県","city":"富士宮市","address":"城北町"},
{"zip_code":"4180021","kana_pref":"ｼｽﾞｵｶｹﾝ","kana_city":"ﾌｼﾞﾉﾐﾔｼ","kana_address":"ｽｷﾞﾀ","pref":"静岡県","city":"富士宮市","address":"杉田"},
{"zip_code":"4180055","kana_pref":"ｼｽﾞｵｶｹﾝ","kana_city":"ﾌｼﾞﾉﾐﾔｼ","kana_address":"ﾀｶﾗﾏﾁ","pref":"静岡県","city":"富士宮市","address":"宝町"},
{"zip_code":"4180075","kana_pref":"ｼｽﾞｵｶｹﾝ","kana_city":"ﾌｼﾞﾉﾐﾔｼ","kana_address":"ﾀﾅｶﾁｮｳ","pref":"静岡県","city":"富士宮市","address":"田中町"},
{"zip_code":"4180065","kana_pref":"ｼｽﾞｵｶｹﾝ","kana_city":"ﾌｼﾞﾉﾐﾔｼ","kana_address":"ﾁｭｳｵｳﾁｮｳ","pref":"静岡県","city":"富士宮市","address":"中央町"},
{"zip_code":"4180006","kana_pref":"ｼｽﾞｵｶｹﾝ","kana_city":"ﾌｼﾞﾉﾐﾔｼ","kana_address":"ﾄｶﾞﾐ","pref":"静岡県","city":"富士宮市","address":"外神"},
{"zip_code":"4180007","kana_pref":"ｼｽﾞｵｶｹﾝ","kana_city":"ﾌｼﾞﾉﾐﾔｼ","kana_address":"ﾄｶﾞﾐﾋｶﾞｼﾁｮｳ","pref":"静岡県","city":"富士宮市","address":"外神東町"},
{"zip_code":"4180046","kana_pref":"ｼｽﾞｵｶｹﾝ","kana_city":"ﾌｼﾞﾉﾐﾔｼ","kana_address":"ﾅｶｻﾞﾄﾋｶﾞｼﾁｮｳ","pref":"静岡県","city":"富士宮市","address":"中里東町"},
{"zip_code":"4180045","kana_pref":"ｼｽﾞｵｶｹﾝ","kana_city":"ﾌｼﾞﾉﾐﾔｼ","kana_address":"ﾅｶｼﾞﾏﾁｮｳ","pref":"静岡県","city":"富士宮市","address":"中島町"},
{"zip_code":"4180002","kana_pref":"ｼｽﾞｵｶｹﾝ","kana_city":"ﾌｼﾞﾉﾐﾔｼ","kana_address":"ﾅｶﾊﾗﾁｮｳ","pref":"静岡県","city":"富士宮市","address":"中原町"},
{"zip_code":"4180019","kana_pref":"ｼｽﾞｵｶｹﾝ","kana_city":"ﾌｼﾞﾉﾐﾔｼ","kana_address":"ﾅﾝﾘｮｳ","pref":"静岡県","city":"富士宮市","address":"南陵"},
{"zip_code":"4180076","kana_pref":"ｼｽﾞｵｶｹﾝ","kana_city":"ﾌｼﾞﾉﾐﾔｼ","kana_address":"ﾆｼｷﾁｮｳ","pref":"静岡県","city":"富士宮市","address":"錦町"},
{"zip_code":"4180026","kana_pref":"ｼｽﾞｵｶｹﾝ","kana_city":"ﾌｼﾞﾉﾐﾔｼ","kana_address":"ﾆｼｺｲｽﾞﾐﾁｮｳ","pref":"静岡県","city":"富士宮市","address":"西小泉町"},
{"zip_code":"4180056","kana_pref":"ｼｽﾞｵｶｹﾝ","kana_city":"ﾌｼﾞﾉﾐﾔｼ","kana_address":"ﾆｼﾏﾁ","pref":"静岡県","city":"富士宮市","address":"西町"},
{"zip_code":"4180024","kana_pref":"ｼｽﾞｵｶｹﾝ","kana_city":"ﾌｼﾞﾉﾐﾔｼ","kana_address":"ﾇｸﾄﾞ","pref":"静岡県","city":"富士宮市","address":"貫戸"},
{"zip_code":"4180036","kana_pref":"ｼｽﾞｵｶｹﾝ","kana_city":"ﾌｼﾞﾉﾐﾔｼ","kana_address":"ﾇﾏｸﾎﾞ","pref":"静岡県","city":"富士宮市","address":"沼久保"},
{"zip_code":"4180101","kana_pref":"ｼｽﾞｵｶｹﾝ","kana_city":"ﾌｼﾞﾉﾐﾔｼ","kana_address":"ﾈﾊﾞﾗ","pref":"静岡県","city":"富士宮市","address":"根原"},
{"zip_code":"4180039","kana_pref":"ｼｽﾞｵｶｹﾝ","kana_city":"ﾌｼﾞﾉﾐﾔｼ","kana_address":"ﾉﾅｶ","pref":"静岡県","city":"富士宮市","address":"野中"},
{"zip_code":"4180038","kana_pref":"ｼｽﾞｵｶｹﾝ","kana_city":"ﾌｼﾞﾉﾐﾔｼ","kana_address":"ﾉﾅｶﾁｮｳ","pref":"静岡県","city":"富士宮市","address":"野中町"},
{"zip_code":"4180033","kana_pref":"ｼｽﾞｵｶｹﾝ","kana_city":"ﾌｼﾞﾉﾐﾔｼ","kana_address":"ﾉﾅｶﾋｶﾞｼﾁｮｳ","pref":"静岡県","city":"富士宮市","address":"野中東町"},
{"zip_code":"4180105","kana_pref":"ｼｽﾞｵｶｹﾝ","kana_city":"ﾌｼﾞﾉﾐﾔｼ","kana_address":"ﾊﾗ","pref":"静岡県","city":"富士宮市","address":"原"},
{"zip_code":"4180106","kana_pref":"ｼｽﾞｵｶｹﾝ","kana_city":"ﾌｼﾞﾉﾐﾔｼ","kana_address":"ﾊﾝﾉ","pref":"静岡県","city":"富士宮市","address":"半野"},
{"zip_code":"4180054","kana_pref":"ｼｽﾞｵｶｹﾝ","kana_city":"ﾌｼﾞﾉﾐﾔｼ","kana_address":"ﾋｶﾘﾁｮｳ","pref":"静岡県","city":"富士宮市","address":"光町"},
{"zip_code":"4180071","kana_pref":"ｼｽﾞｵｶｹﾝ","kana_city":"ﾌｼﾞﾉﾐﾔｼ","kana_address":"ﾋｶﾞｼｱｺｳｼﾞ","pref":"静岡県","city":"富士宮市","address":"東阿幸地"},
{"zip_code":"4180077","kana_pref":"ｼｽﾞｵｶｹﾝ","kana_city":"ﾌｼﾞﾉﾐﾔｼ","kana_address":"ﾋｶﾞｼﾁｮｳ","pref":"静岡県","city":"富士宮市","address":"東町"},
{"zip_code":"4180102","kana_pref":"ｼｽﾞｵｶｹﾝ","kana_city":"ﾌｼﾞﾉﾐﾔｼ","kana_address":"ﾋﾄｱﾅ","pref":"静岡県","city":"富士宮市","address":"人穴"},
{"zip_code":"4180003","kana_pref":"ｼｽﾞｵｶｹﾝ","kana_city":"ﾌｼﾞﾉﾐﾔｼ","kana_address":"ﾋﾊﾞﾘｶﾞｵｶ","pref":"静岡県","city":"富士宮市","address":"ひばりが丘"},
{"zip_code":"4180014","kana_pref":"ｼｽﾞｵｶｹﾝ","kana_city":"ﾌｼﾞﾉﾐﾔｼ","kana_address":"ﾌｼﾞﾐｶﾞｵｶ","pref":"静岡県","city":"富士宮市","address":"富士見ケ丘"},
{"zip_code":"4180017","kana_pref":"ｼｽﾞｵｶｹﾝ","kana_city":"ﾌｼﾞﾉﾐﾔｼ","kana_address":"ﾌﾅｸﾎﾞﾁｮｳ","pref":"静岡県","city":"富士宮市","address":"舟久保町"},
{"zip_code":"4180109","kana_pref":"ｼｽﾞｵｶｹﾝ","kana_city":"ﾌｼﾞﾉﾐﾔｼ","kana_address":"ﾌﾓﾄ","pref":"静岡県","city":"富士宮市","address":"麓"},
{"zip_code":"4180035","kana_pref":"ｼｽﾞｵｶｹﾝ","kana_city":"ﾌｼﾞﾉﾐﾔｼ","kana_address":"ﾎｼﾔﾏ","pref":"静岡県","city":"富士宮市","address":"星山"},
{"zip_code":"4180058","kana_pref":"ｼｽﾞｵｶｹﾝ","kana_city":"ﾌｼﾞﾉﾐﾔｼ","kana_address":"ﾎﾅﾐﾁｮｳ","pref":"静岡県","city":"富士宮市","address":"穂波町"},
{"zip_code":"4180015","kana_pref":"ｼｽﾞｵｶｹﾝ","kana_city":"ﾌｼﾞﾉﾐﾔｼ","kana_address":"ﾏｲﾏｲｷﾞﾁｮｳ","pref":"静岡県","city":"富士宮市","address":"舞々木町"},
{"zip_code":"4180025","kana_pref":"ｼｽﾞｵｶｹﾝ","kana_city":"ﾌｼﾞﾉﾐﾔｼ","kana_address":"ﾏｴﾀﾞﾁｮｳ","pref":"静岡県","city":"富士宮市","address":"前田町"},
{"zip_code":"4180001","kana_pref":"ｼｽﾞｵｶｹﾝ","kana_city":"ﾌｼﾞﾉﾐﾔｼ","kana_address":"ﾏﾝﾉﾊﾗｼﾝﾃﾞﾝ","pref":"静岡県","city":"富士宮市","address":"万野原新田"},
{"zip_code":"4180004","kana_pref":"ｼｽﾞｵｶｹﾝ","kana_city":"ﾌｼﾞﾉﾐﾔｼ","kana_address":"ﾐｿﾉﾀﾞｲﾗ","pref":"静岡県","city":"富士宮市","address":"三園平"},
{"zip_code":"4180053","kana_pref":"ｼｽﾞｵｶｹﾝ","kana_city":"ﾌｼﾞﾉﾐﾔｼ","kana_address":"ﾐﾔｷﾀﾁｮｳ","pref":"静岡県","city":"富士宮市","address":"宮北町"},
{"zip_code":"4180067","kana_pref":"ｼｽﾞｵｶｹﾝ","kana_city":"ﾌｼﾞﾉﾐﾔｼ","kana_address":"ﾐﾔﾁｮｳ","pref":"静岡県","city":"富士宮市","address":"宮町"},
{"zip_code":"4180005","kana_pref":"ｼｽﾞｵｶｹﾝ","kana_city":"ﾌｼﾞﾉﾐﾔｼ","kana_address":"ﾐﾔﾊﾗ","pref":"静岡県","city":"富士宮市","address":"宮原"},
{"zip_code":"4180012","kana_pref":"ｼｽﾞｵｶｹﾝ","kana_city":"ﾌｼﾞﾉﾐﾔｼ","kana_address":"ﾑﾗﾔﾏ","pref":"静岡県","city":"富士宮市","address":"村山"},
{"zip_code":"4180064","kana_pref":"ｼｽﾞｵｶｹﾝ","kana_city":"ﾌｼﾞﾉﾐﾔｼ","kana_address":"ﾓﾄｼﾛﾁｮｳ","pref":"静岡県","city":"富士宮市","address":"元城町"},
{"zip_code":"4180072","kana_pref":"ｼｽﾞｵｶｹﾝ","kana_city":"ﾌｼﾞﾉﾐﾔｼ","kana_address":"ﾔﾀﾃﾁｮｳ","pref":"静岡県","city":"富士宮市","address":"矢立町"},
{"zip_code":"4180111","kana_pref":"ｼｽﾞｵｶｹﾝ","kana_city":"ﾌｼﾞﾉﾐﾔｼ","kana_address":"ﾔﾏﾐﾔ","pref":"静岡県","city":"富士宮市","address":"山宮"},
{"zip_code":"4180023","kana_pref":"ｼｽﾞｵｶｹﾝ","kana_city":"ﾌｼﾞﾉﾐﾔｼ","kana_address":"ﾔﾏﾓﾄ","pref":"静岡県","city":"富士宮市","address":"山本"},
{"zip_code":"4180068","kana_pref":"ｼｽﾞｵｶｹﾝ","kana_city":"ﾌｼﾞﾉﾐﾔｼ","kana_address":"ﾕﾀｶﾁｮｳ","pref":"静岡県","city":"富士宮市","address":"豊町"},
{"zip_code":"4180073","kana_pref":"ｼｽﾞｵｶｹﾝ","kana_city":"ﾌｼﾞﾉﾐﾔｼ","kana_address":"ﾕﾐｻﾞﾜﾁｮｳ","pref":"静岡県","city":"富士宮市","address":"弓沢町"},
{"zip_code":"4180041","kana_pref":"ｼｽﾞｵｶｹﾝ","kana_city":"ﾌｼﾞﾉﾐﾔｼ","kana_address":"ﾖﾄﾞｶﾞﾜﾁｮｳ","pref":"静岡県","city":"富士宮市","address":"淀川町"},
{"zip_code":"4180051","kana_pref":"ｼｽﾞｵｶｹﾝ","kana_city":"ﾌｼﾞﾉﾐﾔｼ","kana_address":"ﾖﾄﾞｼ","pref":"静岡県","city":"富士宮市","address":"淀師"},
{"zip_code":"4180052","kana_pref":"ｼｽﾞｵｶｹﾝ","kana_city":"ﾌｼﾞﾉﾐﾔｼ","kana_address":"ﾖﾄﾞﾋﾗﾁｮｳ","pref":"静岡県","city":"富士宮市","address":"淀平町"},
{"zip_code":"4180063","kana_pref":"ｼｽﾞｵｶｹﾝ","kana_city":"ﾌｼﾞﾉﾐﾔｼ","kana_address":"ﾜｶﾉﾐﾔﾁｮｳ","pref":"静岡県","city":"富士宮市","address":"若の宮町"}]}