{"zip_code":[
{"zip_code":"4190317","kana_pref":"ｼｽﾞｵｶｹﾝ","kana_city":"ﾌｼﾞﾉﾐﾔｼ","kana_address":"ｳﾂﾌﾞｻ","pref":"静岡県","city":"富士宮市","address":"内房"},
{"zip_code":"4190314","kana_pref":"ｼｽﾞｵｶｹﾝ","kana_city":"ﾌｼﾞﾉﾐﾔｼ","kana_address":"ｵｵｸﾎﾞ","pref":"静岡県","city":"富士宮市","address":"大久保"},
{"zip_code":"4190303","kana_pref":"ｼｽﾞｵｶｹﾝ","kana_city":"ﾌｼﾞﾉﾐﾔｼ","kana_address":"ｵｵｼｶｸﾎﾞ","pref":"静岡県","city":"富士宮市","address":"大鹿窪"},
{"zip_code":"4190311","kana_pref":"ｼｽﾞｵｶｹﾝ","kana_city":"ﾌｼﾞﾉﾐﾔｼ","kana_address":"ｶﾐｲﾅｺ","pref":"静岡県","city":"富士宮市","address":"上稲子"},
{"zip_code":"4190301","kana_pref":"ｼｽﾞｵｶｹﾝ","kana_city":"ﾌｼﾞﾉﾐﾔｼ","kana_address":"ｶﾐﾕﾉ","pref":"静岡県","city":"富士宮市","address":"上柚野"},
{"zip_code":"4190312","kana_pref":"ｼｽﾞｵｶｹﾝ","kana_city":"ﾌｼﾞﾉﾐﾔｼ","kana_address":"ｼﾓｲﾅｺ","pref":"静岡県","city":"富士宮市","address":"下稲子"},
{"zip_code":"4190305","kana_pref":"ｼｽﾞｵｶｹﾝ","kana_city":"ﾌｼﾞﾉﾐﾔｼ","kana_address":"ｼﾓﾕﾉ","pref":"静岡県","city":"富士宮市","address":"下柚野"},
{"zip_code":"4190304","kana_pref":"ｼｽﾞｵｶｹﾝ","kana_city":"ﾌｼﾞﾉﾐﾔｼ","kana_address":"ﾄﾘﾅﾐ","pref":"静岡県","city":"富士宮市","address":"鳥並"},
{"zip_code":"4190315","kana_pref":"ｼｽﾞｵｶｹﾝ","kana_city":"ﾌｼﾞﾉﾐﾔｼ","kana_address":"ﾅｶﾞﾇｷ","pref":"静岡県","city":"富士宮市","address":"長貫"},
{"zip_code":"4190313","kana_pref":"ｼｽﾞｵｶｹﾝ","kana_city":"ﾌｼﾞﾉﾐﾔｼ","kana_address":"ﾆｼﾔﾏ","pref":"静岡県","city":"富士宮市","address":"西山"},
{"zip_code":"4190302","kana_pref":"ｼｽﾞｵｶｹﾝ","kana_city":"ﾌｼﾞﾉﾐﾔｼ","kana_address":"ﾈｺｻﾞﾜ","pref":"静岡県","city":"富士宮市","address":"猫沢"},
{"zip_code":"4190316","kana_pref":"ｼｽﾞｵｶｹﾝ","kana_city":"ﾌｼﾞﾉﾐﾔｼ","kana_address":"ﾊﾌﾞﾅ","pref":"静岡県","city":"富士宮市","address":"羽鮒"},
{"zip_code":"4190201","kana_pref":"ｼｽﾞｵｶｹﾝ","kana_city":"ﾌｼﾞｼ","kana_address":"ｱﾂﾊﾗ","pref":"静岡県","city":"富士市","address":"厚原"},
{"zip_code":"4190204","kana_pref":"ｼｽﾞｵｶｹﾝ","kana_city":"ﾌｼﾞｼ","kana_address":"ｲﾘﾔﾏｾ","pref":"静岡県","city":"富士市","address":"入山瀬"},
{"zip_code":"4190202","kana_pref":"ｼｽﾞｵｶｹﾝ","kana_city":"ﾌｼﾞｼ","kana_address":"ｸｻﾞﾜ","pref":"静岡県","city":"富士市","address":"久沢"},
{"zip_code":"4190203","kana_pref":"ｼｽﾞｵｶｹﾝ","kana_city":"ﾌｼﾞｼ","kana_address":"ﾀｶｵｶﾎﾝﾁｮｳ","pref":"静岡県","city":"富士市","address":"鷹岡本町"},
{"zip_code":"4190205","kana_pref":"ｼｽﾞｵｶｹﾝ","kana_city":"ﾌｼﾞｼ","kana_address":"ﾃﾝﾏ","pref":"静岡県","city":"富士市","address":"天間"},
{"zip_code":"4190100","kana_pref":"ｼｽﾞｵｶｹﾝ","kana_city":"ﾀｶﾞﾀｸﾞﾝｶﾝﾅﾐﾁｮｳ","kana_address":"","pref":"静岡県","city":"田方郡函南町","address":""},
{"zip_code":"4190121","kana_pref":"ｼｽﾞｵｶｹﾝ","kana_city":"ﾀｶﾞﾀｸﾞﾝｶﾝﾅﾐﾁｮｳ","kana_address":"ｵｵﾀｹ","pref":"静岡県","city":"田方郡函南町","address":"大竹"},
{"zip_code":"4190113","kana_pref":"ｼｽﾞｵｶｹﾝ","kana_city":"ﾀｶﾞﾀｸﾞﾝｶﾝﾅﾐﾁｮｳ","kana_address":"ｵｵﾄﾞｲ","pref":"静岡県","city":"田方郡函南町","address":"大土肥"},
{"zip_code":"4190112","kana_pref":"ｼｽﾞｵｶｹﾝ","kana_city":"ﾀｶﾞﾀｸﾞﾝｶﾝﾅﾐﾁｮｳ","kana_address":"ｶｼﾔ","pref":"静岡県","city":"田方郡函南町","address":"柏谷"},
{"zip_code":"4190122","kana_pref":"ｼｽﾞｵｶｹﾝ","kana_city":"ﾀｶﾞﾀｸﾞﾝｶﾝﾅﾐﾁｮｳ","kana_address":"ｶﾐｻﾜ","pref":"静岡県","city":"田方郡函南町","address":"上沢"},
{"zip_code":"4190103","kana_pref":"ｼｽﾞｵｶｹﾝ","kana_city":"ﾀｶﾞﾀｸﾞﾝｶﾝﾅﾐﾁｮｳ","kana_address":"ｶﾙｲｻﾜ","pref":"静岡県","city":"田方郡函南町","address":"軽井沢"},
{"zip_code":"4190101","kana_pref":"ｼｽﾞｵｶｹﾝ","kana_city":"ﾀｶﾞﾀｸﾞﾝｶﾝﾅﾐﾁｮｳ","kana_address":"ｸﾜﾊﾗ","pref":"静岡県","city":"田方郡函南町","address":"桑原"},
{"zip_code":"4190115","kana_pref":"ｼｽﾞｵｶｹﾝ","kana_city":"ﾀｶﾞﾀｸﾞﾝｶﾝﾅﾐﾁｮｳ","kana_address":"ｼﾝﾃﾞﾝ","pref":"静岡県","city":"田方郡函南町","address":"新田"},
{"zip_code":"4190102","kana_pref":"ｼｽﾞｵｶｹﾝ","kana_city":"ﾀｶﾞﾀｸﾞﾝｶﾝﾅﾐﾁｮｳ","kana_address":"ﾀｼﾛ","pref":"静岡県","city":"田方郡函南町","address":"田代"},
{"zip_code":"4190105","kana_pref":"ｼｽﾞｵｶｹﾝ","kana_city":"ﾀｶﾞﾀｸﾞﾝｶﾝﾅﾐﾁｮｳ","kana_address":"ﾀﾝﾅ","pref":"静岡県","city":"田方郡函南町","address":"丹那"},
{"zip_code":"4190124","kana_pref":"ｼｽﾞｵｶｹﾝ","kana_city":"ﾀｶﾞﾀｸﾞﾝｶﾝﾅﾐﾁｮｳ","kana_address":"ﾂｶﾓﾄ","pref":"静岡県","city":"田方郡函南町","address":"塚本"},
{"zip_code":"4190114","kana_pref":"ｼｽﾞｵｶｹﾝ","kana_city":"ﾀｶﾞﾀｸﾞﾝｶﾝﾅﾐﾁｮｳ","kana_address":"ﾆｯﾀ","pref":"静岡県","city":"田方郡函南町","address":"仁田"},
{"zip_code":"4190104","kana_pref":"ｼｽﾞｵｶｹﾝ","kana_city":"ﾀｶﾞﾀｸﾞﾝｶﾝﾅﾐﾁｮｳ","kana_address":"ﾊﾀ","pref":"静岡県","city":"田方郡函南町","address":"畑"},
{"zip_code":"4190111","kana_pref":"ｼｽﾞｵｶｹﾝ","kana_city":"ﾀｶﾞﾀｸﾞﾝｶﾝﾅﾐﾁｮｳ","kana_address":"ﾊﾀｹ","pref":"静岡県","city":"田方郡函南町","address":"畑毛"},
{"zip_code":"4190125","kana_pref":"ｼｽﾞｵｶｹﾝ","kana_city":"ﾀｶﾞﾀｸﾞﾝｶﾝﾅﾐﾁｮｳ","kana_address":"ﾋﾀ","pref":"静岡県","city":"田方郡函南町","address":"肥田"},
{"zip_code":"4190116","kana_pref":"ｼｽﾞｵｶｹﾝ","kana_city":"ﾀｶﾞﾀｸﾞﾝｶﾝﾅﾐﾁｮｳ","kana_address":"ﾋﾓﾘ","pref":"静岡県","city":"田方郡函南町","address":"日守"},
{"zip_code":"4190107","kana_pref":"ｼｽﾞｵｶｹﾝ","kana_city":"ﾀｶﾞﾀｸﾞﾝｶﾝﾅﾐﾁｮｳ","kana_address":"ﾋﾗｲ","pref":"静岡県","city":"田方郡函南町","address":"平井"},
{"zip_code":"4190123","kana_pref":"ｼｽﾞｵｶｹﾝ","kana_city":"ﾀｶﾞﾀｸﾞﾝｶﾝﾅﾐﾁｮｳ","kana_address":"ﾏﾐﾔ","pref":"静岡県","city":"田方郡函南町","address":"間宮"},
{"zip_code":"4190106","kana_pref":"ｼｽﾞｵｶｹﾝ","kana_city":"ﾀｶﾞﾀｸﾞﾝｶﾝﾅﾐﾁｮｳ","kana_address":"ﾐﾅﾐﾊｺﾈﾀﾞｲﾔﾗﾝﾄﾞ","pref":"静岡県","city":"田方郡函南町","address":"南箱根ダイヤランド"}]}