{"zip_code":[
{"zip_code":"4200838","kana_pref":"ｼｽﾞｵｶｹﾝ","kana_city":"ｼｽﾞｵｶｼｱｵｲｸ","kana_address":"ｱｲｵｲﾁｮｳ","pref":"静岡県","city":"静岡市葵区","address":"相生町"},
{"zip_code":"4200017","kana_pref":"ｼｽﾞｵｶｹﾝ","kana_city":"ｼｽﾞｵｶｼｱｵｲｸ","kana_address":"ｱｵｲﾁｮｳ","pref":"静岡県","city":"静岡市葵区","address":"葵町"},
{"zip_code":"4200963","kana_pref":"ｼｽﾞｵｶｹﾝ","kana_city":"ｼｽﾞｵｶｼｱｵｲｸ","kana_address":"ｱｶﾏﾂ","pref":"静岡県","city":"静岡市葵区","address":"赤松"},
{"zip_code":"4200948","kana_pref":"ｼｽﾞｵｶｹﾝ","kana_city":"ｼｽﾞｵｶｼｱｵｲｸ","kana_address":"ｱｷﾔﾏﾁｮｳ","pref":"静岡県","city":"静岡市葵区","address":"秋山町"},
{"zip_code":"4200810","kana_pref":"ｼｽﾞｵｶｹﾝ","kana_city":"ｼｽﾞｵｶｼｱｵｲｸ","kana_address":"ｱｹﾞﾂﾁ","pref":"静岡県","city":"静岡市葵区","address":"上土"},
{"zip_code":"4200811","kana_pref":"ｼｽﾞｵｶｹﾝ","kana_city":"ｼｽﾞｵｶｼｱｵｲｸ","kana_address":"ｱｹﾞﾂﾁｼﾝﾃﾞﾝ","pref":"静岡県","city":"静岡市葵区","address":"上土新田"},
{"zip_code":"4200836","kana_pref":"ｼｽﾞｵｶｹﾝ","kana_city":"ｼｽﾞｵｶｼｱｵｲｸ","kana_address":"ｱｽﾞﾏﾁｮｳ","pref":"静岡県","city":"静岡市葵区","address":"東町"},
{"zip_code":"4200869","kana_pref":"ｼｽﾞｵｶｹﾝ","kana_city":"ｼｽﾞｵｶｼｱｵｲｸ","kana_address":"ｱﾍﾞﾁｮｳ","pref":"静岡県","city":"静岡市葵区","address":"安倍町"},
{"zip_code":"4200965","kana_pref":"ｼｽﾞｵｶｹﾝ","kana_city":"ｼｽﾞｵｶｼｱｵｲｸ","kana_address":"ｱﾘﾅｶﾞ","pref":"静岡県","city":"静岡市葵区","address":"有永"},
{"zip_code":"4200011","kana_pref":"ｼｽﾞｵｶｹﾝ","kana_city":"ｼｽﾞｵｶｼｱｵｲｸ","kana_address":"ｱﾝｻﾞｲ","pref":"静岡県","city":"静岡市葵区","address":"安西"},
{"zip_code":"4200882","kana_pref":"ｼｽﾞｵｶｹﾝ","kana_city":"ｼｽﾞｵｶｼｱｵｲｸ","kana_address":"ｱﾝﾄﾞｳ","pref":"静岡県","city":"静岡市葵区","address":"安東"},
{"zip_code":"4200863","kana_pref":"ｼｽﾞｵｶｹﾝ","kana_city":"ｼｽﾞｵｶｼｱｵｲｸ","kana_address":"ｱﾝﾄﾞｳﾔﾅｷﾞﾁｮｳ","pref":"静岡県","city":"静岡市葵区","address":"安東柳町"},
{"zip_code":"4200936","kana_pref":"ｼｽﾞｵｶｹﾝ","kana_city":"ｼｽﾞｵｶｼｱｵｲｸ","kana_address":"ｲｹｶﾞﾔ","pref":"静岡県","city":"静岡市葵区","address":"池ケ谷"},
{"zip_code":"4200935","kana_pref":"ｼｽﾞｵｶｹﾝ","kana_city":"ｼｽﾞｵｶｼｱｵｲｸ","kana_address":"ｲｹｶﾞﾔﾋｶﾞｼ","pref":"静岡県","city":"静岡市葵区","address":"池ケ谷東"},
{"zip_code":"4200071","kana_pref":"ｼｽﾞｵｶｹﾝ","kana_city":"ｼｽﾞｵｶｼｱｵｲｸ","kana_address":"ｲﾁﾊﾞﾝﾁｮｳ","pref":"静岡県","city":"静岡市葵区","address":"一番町"},
{"zip_code":"4200001","kana_pref":"ｼｽﾞｵｶｹﾝ","kana_city":"ｼｽﾞｵｶｼｱｵｲｸ","kana_address":"ｲﾉﾐﾔﾁｮｳ","pref":"静岡県","city":"静岡市葵区","address":"井宮町"},
{"zip_code":"4200946","kana_pref":"ｼｽﾞｵｶｹﾝ","kana_city":"ｼｽﾞｵｶｼｱｵｲｸ","kana_address":"ｲﾛﾊﾁｮｳ","pref":"静岡県","city":"静岡市葵区","address":"伊呂波町"},
{"zip_code":"4200952","kana_pref":"ｼｽﾞｵｶｹﾝ","kana_city":"ｼｽﾞｵｶｼｱｵｲｸ","kana_address":"ｳｼﾀﾞ","pref":"静岡県","city":"静岡市葵区","address":"牛田"},
{"zip_code":"4200038","kana_pref":"ｼｽﾞｵｶｹﾝ","kana_city":"ｼｽﾞｵｶｼｱｵｲｸ","kana_address":"ｳﾒﾔﾁｮｳ","pref":"静岡県","city":"静岡市葵区","address":"梅屋町"},
{"zip_code":"4200953","kana_pref":"ｼｽﾞｵｶｹﾝ","kana_city":"ｼｽﾞｵｶｼｱｵｲｸ","kana_address":"ｳﾙｼﾔﾏ","pref":"静岡県","city":"静岡市葵区","address":"漆山"},
{"zip_code":"4200853","kana_pref":"ｼｽﾞｵｶｹﾝ","kana_city":"ｼｽﾞｵｶｼｱｵｲｸ","kana_address":"ｵｳﾃﾏﾁ","pref":"静岡県","city":"静岡市葵区","address":"追手町"},
{"zip_code":"4200886","kana_pref":"ｼｽﾞｵｶｹﾝ","kana_city":"ｼｽﾞｵｶｼｱｵｲｸ","kana_address":"ｵｵｲﾜ","pref":"静岡県","city":"静岡市葵区","address":"大岩"},
{"zip_code":"4200884","kana_pref":"ｼｽﾞｵｶｹﾝ","kana_city":"ｼｽﾞｵｶｼｱｵｲｸ","kana_address":"ｵｵｲﾜﾎﾝﾁｮｳ","pref":"静岡県","city":"静岡市葵区","address":"大岩本町"},
{"zip_code":"4200883","kana_pref":"ｼｽﾞｵｶｹﾝ","kana_city":"ｼｽﾞｵｶｼｱｵｲｸ","kana_address":"ｵｵｲﾜﾐﾔｼﾀﾁｮｳ","pref":"静岡県","city":"静岡市葵区","address":"大岩宮下町"},
{"zip_code":"4200885","kana_pref":"ｼｽﾞｵｶｹﾝ","kana_city":"ｼｽﾞｵｶｼｱｵｲｸ","kana_address":"ｵｵｲﾜﾁｮｳ","pref":"静岡県","city":"静岡市葵区","address":"大岩町"},
{"zip_code":"4200026","kana_pref":"ｼｽﾞｵｶｹﾝ","kana_city":"ｼｽﾞｵｶｼｱｵｲｸ","kana_address":"ｵｵｶﾞﾏﾁ","pref":"静岡県","city":"静岡市葵区","address":"大鋸町"},
{"zip_code":"4200845","kana_pref":"ｼｽﾞｵｶｹﾝ","kana_city":"ｼｽﾞｵｶｼｱｵｲｸ","kana_address":"ｵｵﾀﾏﾁ","pref":"静岡県","city":"静岡市葵区","address":"太田町"},
{"zip_code":"4200834","kana_pref":"ｼｽﾞｵｶｹﾝ","kana_city":"ｼｽﾞｵｶｼｱｵｲｸ","kana_address":"ｵﾄﾜﾁｮｳ","pref":"静岡県","city":"静岡市葵区","address":"音羽町"},
{"zip_code":"4200873","kana_pref":"ｼｽﾞｵｶｹﾝ","kana_city":"ｼｽﾞｵｶｼｱｵｲｸ","kana_address":"ｶｺﾞｳｴ","pref":"静岡県","city":"静岡市葵区","address":"籠上"},
{"zip_code":"4200823","kana_pref":"ｼｽﾞｵｶｹﾝ","kana_city":"ｼｽﾞｵｶｼｱｵｲｸ","kana_address":"ｶｽｶﾞ","pref":"静岡県","city":"静岡市葵区","address":"春日"},
{"zip_code":"4200824","kana_pref":"ｼｽﾞｵｶｹﾝ","kana_city":"ｼｽﾞｵｶｼｱｵｲｸ","kana_address":"ｶｽｶﾞﾁｮｳ","pref":"静岡県","city":"静岡市葵区","address":"春日町"},
{"zip_code":"4200003","kana_pref":"ｼｽﾞｵｶｹﾝ","kana_city":"ｼｽﾞｵｶｼｱｵｲｸ","kana_address":"ｶﾀﾊﾁｮｳ","pref":"静岡県","city":"静岡市葵区","address":"片羽町"},
{"zip_code":"4200925","kana_pref":"ｼｽﾞｵｶｹﾝ","kana_city":"ｼｽﾞｵｶｼｱｵｲｸ","kana_address":"ｶﾄｳｼﾞﾏ","pref":"静岡県","city":"静岡市葵区","address":"加藤島"},
{"zip_code":"4200841","kana_pref":"ｼｽﾞｵｶｹﾝ","kana_city":"ｼｽﾞｵｶｼｱｵｲｸ","kana_address":"ｶﾐｱｼｱﾗｲ","pref":"静岡県","city":"静岡市葵区","address":"上足洗"},
{"zip_code":"4200014","kana_pref":"ｼｽﾞｵｶｹﾝ","kana_city":"ｼｽﾞｵｶｼｱｵｲｸ","kana_address":"ｶﾐｵｹﾔﾁｮｳ","pref":"静岡県","city":"静岡市葵区","address":"上桶屋町"},
{"zip_code":"4200815","kana_pref":"ｼｽﾞｵｶｹﾝ","kana_city":"ｼｽﾞｵｶｼｱｵｲｸ","kana_address":"ｶﾐｸﾂﾉﾔﾁｮｳ","pref":"静岡県","city":"静岡市葵区","address":"上沓谷町"},
{"zip_code":"4200039","kana_pref":"ｼｽﾞｵｶｹﾝ","kana_city":"ｼｽﾞｵｶｼｱｵｲｸ","kana_address":"ｶﾐｺﾞｸﾁｮｳ","pref":"静岡県","city":"静岡市葵区","address":"上石町"},
{"zip_code":"4200062","kana_pref":"ｼｽﾞｵｶｹﾝ","kana_city":"ｼｽﾞｵｶｼｱｵｲｸ","kana_address":"ｶﾐｼﾝﾄﾐﾁｮｳ","pref":"静岡県","city":"静岡市葵区","address":"上新富町"},
{"zip_code":"4200943","kana_pref":"ｼｽﾞｵｶｹﾝ","kana_city":"ｼｽﾞｵｶｼｱｵｲｸ","kana_address":"ｶﾐﾃﾝﾏ","pref":"静岡県","city":"静岡市葵区","address":"上伝馬"},
{"zip_code":"4200937","kana_pref":"ｼｽﾞｵｶｹﾝ","kana_city":"ｼｽﾞｵｶｼｱｵｲｸ","kana_address":"ｶﾗｾ","pref":"静岡県","city":"静岡市葵区","address":"唐瀬"},
{"zip_code":"4200923","kana_pref":"ｼｽﾞｵｶｹﾝ","kana_city":"ｼｽﾞｵｶｼｱｵｲｸ","kana_address":"ｶﾜｲ","pref":"静岡県","city":"静岡市葵区","address":"川合"},
{"zip_code":"4200924","kana_pref":"ｼｽﾞｵｶｹﾝ","kana_city":"ｼｽﾞｵｶｼｱｵｲｸ","kana_address":"ｶﾜｲｼﾝﾃﾞﾝ","pref":"静岡県","city":"静岡市葵区","address":"川合新田"},
{"zip_code":"4200052","kana_pref":"ｼｽﾞｵｶｹﾝ","kana_city":"ｼｽﾞｵｶｼｱｵｲｸ","kana_address":"ｶﾜｺﾞｼﾁｮｳ","pref":"静岡県","city":"静岡市葵区","address":"川越町"},
{"zip_code":"4200043","kana_pref":"ｼｽﾞｵｶｹﾝ","kana_city":"ｼｽﾞｵｶｼｱｵｲｸ","kana_address":"ｶﾜﾅﾍﾞﾁｮｳ","pref":"静岡県","city":"静岡市葵区","address":"川辺町"},
{"zip_code":"4200825","kana_pref":"ｼｽﾞｵｶｹﾝ","kana_city":"ｼｽﾞｵｶｼｱｵｲｸ","kana_address":"ｶﾜﾗﾊﾞﾁｮｳ","pref":"静岡県","city":"静岡市葵区","address":"瓦場町"},
{"zip_code":"4200931","kana_pref":"ｼｽﾞｵｶｹﾝ","kana_city":"ｼｽﾞｵｶｼｱｵｲｸ","kana_address":"ｶﾝｻﾞﾝ","pref":"静岡県","city":"静岡市葵区","address":"観山"},
{"zip_code":"4200961","kana_pref":"ｼｽﾞｵｶｹﾝ","kana_city":"ｼｽﾞｵｶｼｱｵｲｸ","kana_address":"ｷﾀ","pref":"静岡県","city":"静岡市葵区","address":"北"},
{"zip_code":"4200881","kana_pref":"ｼｽﾞｵｶｹﾝ","kana_city":"ｼｽﾞｵｶｼｱｵｲｸ","kana_address":"ｷﾀｱﾝﾄﾞｳ","pref":"静岡県","city":"静岡市葵区","address":"北安東"},
{"zip_code":"4200901","kana_pref":"ｼｽﾞｵｶｹﾝ","kana_city":"ｼｽﾞｵｶｼｱｵｲｸ","kana_address":"ｷﾀﾇﾏｶﾞﾐ","pref":"静岡県","city":"静岡市葵区","address":"北沼上"},
{"zip_code":"4200005","kana_pref":"ｼｽﾞｵｶｹﾝ","kana_city":"ｼｽﾞｵｶｼｱｵｲｸ","kana_address":"ｷﾀﾊﾞﾝﾁｮｳ","pref":"静岡県","city":"静岡市葵区","address":"北番町"},
{"zip_code":"4200025","kana_pref":"ｼｽﾞｵｶｹﾝ","kana_city":"ｼｽﾞｵｶｼｱｵｲｸ","kana_address":"ｷﾝｻﾞﾏﾁ","pref":"静岡県","city":"静岡市葵区","address":"金座町"},
{"zip_code":"4200816","kana_pref":"ｼｽﾞｵｶｹﾝ","kana_city":"ｼｽﾞｵｶｼｱｵｲｸ","kana_address":"ｸﾂﾉﾔ","pref":"静岡県","city":"静岡市葵区","address":"沓谷"},
{"zip_code":"4200022","kana_pref":"ｼｽﾞｵｶｹﾝ","kana_city":"ｼｽﾞｵｶｼｱｵｲｸ","kana_address":"ｸﾙﾏﾁｮｳ","pref":"静岡県","city":"静岡市葵区","address":"車町"},
{"zip_code":"4200851","kana_pref":"ｼｽﾞｵｶｹﾝ","kana_city":"ｼｽﾞｵｶｼｱｵｲｸ","kana_address":"ｸﾛｶﾞﾈﾁｮｳ","pref":"静岡県","city":"静岡市葵区","address":"黒金町"},
{"zip_code":"4200852","kana_pref":"ｼｽﾞｵｶｹﾝ","kana_city":"ｼｽﾞｵｶｼｱｵｲｸ","kana_address":"ｺｳﾔﾏﾁ","pref":"静岡県","city":"静岡市葵区","address":"紺屋町"},
{"zip_code":"4200075","kana_pref":"ｼｽﾞｵｶｹﾝ","kana_city":"ｼｽﾞｵｶｼｱｵｲｸ","kana_address":"ｺﾞﾊﾞﾝﾁｮｳ","pref":"静岡県","city":"静岡市葵区","address":"五番町"},
{"zip_code":"4200031","kana_pref":"ｼｽﾞｵｶｹﾝ","kana_city":"ｼｽﾞｵｶｼｱｵｲｸ","kana_address":"ｺﾞﾌｸﾁｮｳ","pref":"静岡県","city":"静岡市葵区","address":"呉服町"},
{"zip_code":"4200042","kana_pref":"ｼｽﾞｵｶｹﾝ","kana_city":"ｼｽﾞｵｶｼｱｵｲｸ","kana_address":"ｺﾏｶﾞﾀﾄﾞｵﾘ","pref":"静岡県","city":"静岡市葵区","address":"駒形通"},
{"zip_code":"4200002","kana_pref":"ｼｽﾞｵｶｹﾝ","kana_city":"ｼｽﾞｵｶｼｱｵｲｸ","kana_address":"ｻﾞｲﾓｸﾁｮｳ","pref":"静岡県","city":"静岡市葵区","address":"材木町"},
{"zip_code":"4200067","kana_pref":"ｼｽﾞｵｶｹﾝ","kana_city":"ｼｽﾞｵｶｼｱｵｲｸ","kana_address":"ｻｲﾜｲﾁｮｳ","pref":"静岡県","city":"静岡市葵区","address":"幸町"},
{"zip_code":"4200859","kana_pref":"ｼｽﾞｵｶｹﾝ","kana_city":"ｼｽﾞｵｶｼｱｵｲｸ","kana_address":"ｻｶｴﾁｮｳ","pref":"静岡県","city":"静岡市葵区","address":"栄町"},
{"zip_code":"4200048","kana_pref":"ｼｽﾞｵｶｹﾝ","kana_city":"ｼｽﾞｵｶｼｱｵｲｸ","kana_address":"ｻｸﾗｷﾞﾁｮｳ","pref":"静岡県","city":"静岡市葵区","address":"桜木町"},
{"zip_code":"4200945","kana_pref":"ｼｽﾞｵｶｹﾝ","kana_city":"ｼｽﾞｵｶｼｱｵｲｸ","kana_address":"ｻｸﾗﾁｮｳ","pref":"静岡県","city":"静岡市葵区","address":"桜町"},
{"zip_code":"4200073","kana_pref":"ｼｽﾞｵｶｹﾝ","kana_city":"ｼｽﾞｵｶｼｱｵｲｸ","kana_address":"ｻﾝﾊﾞﾝﾁｮｳ","pref":"静岡県","city":"静岡市葵区","address":"三番町"},
{"zip_code":"4200035","kana_pref":"ｼｽﾞｵｶｹﾝ","kana_city":"ｼｽﾞｵｶｼｱｵｲｸ","kana_address":"ｼﾁｹﾝﾁｮｳ","pref":"静岡県","city":"静岡市葵区","address":"七間町"},
{"zip_code":"4200077","kana_pref":"ｼｽﾞｵｶｹﾝ","kana_city":"ｼｽﾞｵｶｼｱｵｲｸ","kana_address":"ｼﾁﾊﾞﾝﾁｮｳ","pref":"静岡県","city":"静岡市葵区","address":"七番町"},
{"zip_code":"4200955","kana_pref":"ｼｽﾞｵｶｹﾝ","kana_city":"ｼｽﾞｵｶｼｱｵｲｸ","kana_address":"ｼﾊﾞﾊﾗ","pref":"静岡県","city":"静岡市葵区","address":"芝原"},
{"zip_code":"4200846","kana_pref":"ｼｽﾞｵｶｹﾝ","kana_city":"ｼｽﾞｵｶｼｱｵｲｸ","kana_address":"ｼﾞｮｳﾄｳﾁｮｳ","pref":"静岡県","city":"静岡市葵区","address":"城東町"},
{"zip_code":"4200854","kana_pref":"ｼｽﾞｵｶｹﾝ","kana_city":"ｼｽﾞｵｶｼｱｵｲｸ","kana_address":"ｼﾞｮｳﾅｲﾁｮｳ","pref":"静岡県","city":"静岡市葵区","address":"城内町"},
{"zip_code":"4200871","kana_pref":"ｼｽﾞｵｶｹﾝ","kana_city":"ｼｽﾞｵｶｼｱｵｲｸ","kana_address":"ｼｮｳﾌﾞ","pref":"静岡県","city":"静岡市葵区","address":"昭府"},
{"zip_code":"4200872","kana_pref":"ｼｽﾞｵｶｹﾝ","kana_city":"ｼｽﾞｵｶｼｱｵｲｸ","kana_address":"ｼｮｳﾌﾞﾁｮｳ","pref":"静岡県","city":"静岡市葵区","address":"昭府町"},
{"zip_code":"4200805","kana_pref":"ｼｽﾞｵｶｹﾝ","kana_city":"ｼｽﾞｵｶｼｱｵｲｸ","kana_address":"ｼﾞｮｳﾎｸ","pref":"静岡県","city":"静岡市葵区","address":"城北"},
{"zip_code":"4200033","kana_pref":"ｼｽﾞｵｶｹﾝ","kana_city":"ｼｽﾞｵｶｼｱｵｲｸ","kana_address":"ｼｮｳﾜﾁｮｳ","pref":"静岡県","city":"静岡市葵区","address":"昭和町"},
{"zip_code":"4200944","kana_pref":"ｼｽﾞｵｶｹﾝ","kana_city":"ｼｽﾞｵｶｼｱｵｲｸ","kana_address":"ｼﾝﾃﾝﾏ","pref":"静岡県","city":"静岡市葵区","address":"新伝馬"},
{"zip_code":"4200065","kana_pref":"ｼｽﾞｵｶｹﾝ","kana_city":"ｼｽﾞｵｶｼｱｵｲｸ","kana_address":"ｼﾝﾄｵﾘ","pref":"静岡県","city":"静岡市葵区","address":"新通"},
{"zip_code":"4200061","kana_pref":"ｼｽﾞｵｶｹﾝ","kana_city":"ｼｽﾞｵｶｼｱｵｲｸ","kana_address":"ｼﾝﾄﾐﾁｮｳ","pref":"静岡県","city":"静岡市葵区","address":"新富町"},
{"zip_code":"4200009","kana_pref":"ｼｽﾞｵｶｹﾝ","kana_city":"ｼｽﾞｵｶｼｱｵｲｸ","kana_address":"ｼﾝﾒｲﾁｮｳ","pref":"静岡県","city":"静岡市葵区","address":"神明町"},
{"zip_code":"4200008","kana_pref":"ｼｽﾞｵｶｹﾝ","kana_city":"ｼｽﾞｵｶｼｱｵｲｸ","kana_address":"ｽｲﾄﾞｳﾁｮｳ","pref":"静岡県","city":"静岡市葵区","address":"水道町"},
{"zip_code":"4200004","kana_pref":"ｼｽﾞｵｶｹﾝ","kana_city":"ｼｽﾞｵｶｼｱｵｲｸ","kana_address":"ｽｴﾋﾛﾁｮｳ","pref":"静岡県","city":"静岡市葵区","address":"末広町"},
{"zip_code":"4200016","kana_pref":"ｼｽﾞｵｶｹﾝ","kana_city":"ｼｽﾞｵｶｼｱｵｲｸ","kana_address":"ｽﾐﾖｼﾁｮｳ","pref":"静岡県","city":"静岡市葵区","address":"住吉町"},
{"zip_code":"4200036","kana_pref":"ｼｽﾞｵｶｹﾝ","kana_city":"ｼｽﾞｵｶｼｱｵｲｸ","kana_address":"ｽﾙｶﾞﾁｮｳ","pref":"静岡県","city":"静岡市葵区","address":"駿河町"},
{"zip_code":"4200902","kana_pref":"ｼｽﾞｵｶｹﾝ","kana_city":"ｼｽﾞｵｶｼｱｵｲｸ","kana_address":"ｽﾜ","pref":"静岡県","city":"静岡市葵区","address":"諏訪"},
{"zip_code":"4200855","kana_pref":"ｼｽﾞｵｶｹﾝ","kana_city":"ｼｽﾞｵｶｼｱｵｲｸ","kana_address":"ｽﾝﾌﾟｺｳｴﾝ","pref":"静岡県","city":"静岡市葵区","address":"駿府公園"},
{"zip_code":"4200856","kana_pref":"ｼｽﾞｵｶｹﾝ","kana_city":"ｼｽﾞｵｶｼｱｵｲｸ","kana_address":"ｽﾝﾌﾟﾁｮｳ","pref":"静岡県","city":"静岡市葵区","address":"駿府町"},
{"zip_code":"4200047","kana_pref":"ｼｽﾞｵｶｹﾝ","kana_city":"ｼｽﾞｵｶｼｱｵｲｸ","kana_address":"ｾｲｶﾝﾁｮｳ","pref":"静岡県","city":"静岡市葵区","address":"清閑町"},
{"zip_code":"4200911","kana_pref":"ｼｽﾞｵｶｹﾝ","kana_city":"ｼｽﾞｵｶｼｱｵｲｸ","kana_address":"ｾﾅ","pref":"静岡県","city":"静岡市葵区","address":"瀬名"},
{"zip_code":"4200916","kana_pref":"ｼｽﾞｵｶｹﾝ","kana_city":"ｼｽﾞｵｶｼｱｵｲｸ","kana_address":"ｾﾅﾁｭｳｵｳ","pref":"静岡県","city":"静岡市葵区","address":"瀬名中央"},
{"zip_code":"4200913","kana_pref":"ｼｽﾞｵｶｹﾝ","kana_city":"ｼｽﾞｵｶｼｱｵｲｸ","kana_address":"ｾﾅｶﾞﾜ","pref":"静岡県","city":"静岡市葵区","address":"瀬名川"},
{"zip_code":"4200862","kana_pref":"ｼｽﾞｵｶｹﾝ","kana_city":"ｼｽﾞｵｶｼｱｵｲｸ","kana_address":"ｾﾝｹﾞﾝﾁｮｳ","pref":"静岡県","city":"静岡市葵区","address":"浅間町"},
{"zip_code":"4200842","kana_pref":"ｼｽﾞｵｶｹﾝ","kana_city":"ｼｽﾞｵｶｼｱｵｲｸ","kana_address":"ｾﾞﾝｻﾞﾏﾁ","pref":"静岡県","city":"静岡市葵区","address":"銭座町"},
{"zip_code":"4200027","kana_pref":"ｼｽﾞｵｶｹﾝ","kana_city":"ｼｽﾞｵｶｼｱｵｲｸ","kana_address":"ﾀﾞｲｸﾁｮｳ","pref":"静岡県","city":"静岡市葵区","address":"大工町"},
{"zip_code":"4200839","kana_pref":"ｼｽﾞｵｶｹﾝ","kana_city":"ｼｽﾞｵｶｼｱｵｲｸ","kana_address":"ﾀｶｼﾞｮｳ","pref":"静岡県","city":"静岡市葵区","address":"鷹匠"},
{"zip_code":"4200934","kana_pref":"ｼｽﾞｵｶｹﾝ","kana_city":"ｼｽﾞｵｶｼｱｵｲｸ","kana_address":"ﾀｹﾐ","pref":"静岡県","city":"静岡市葵区","address":"岳美"},
{"zip_code":"4200874","kana_pref":"ｼｽﾞｵｶｹﾝ","kana_city":"ｼｽﾞｵｶｼｱｵｲｸ","kana_address":"ﾀﾂｷﾁｮｳ","pref":"静岡県","city":"静岡市葵区","address":"辰起町"},
{"zip_code":"4200933","kana_pref":"ｼｽﾞｵｶｹﾝ","kana_city":"ｼｽﾞｵｶｼｱｵｲｸ","kana_address":"ﾀﾃｲｼ","pref":"静岡県","city":"静岡市葵区","address":"立石"},
{"zip_code":"4200068","kana_pref":"ｼｽﾞｵｶｹﾝ","kana_city":"ｼｽﾞｵｶｼｱｵｲｸ","kana_address":"ﾀﾏﾁ","pref":"静岡県","city":"静岡市葵区","address":"田町"},
{"zip_code":"4200021","kana_pref":"ｼｽﾞｵｶｹﾝ","kana_city":"ｼｽﾞｵｶｼｱｵｲｸ","kana_address":"ﾁｬﾏﾁ","pref":"静岡県","city":"静岡市葵区","address":"茶町"},
{"zip_code":"4200803","kana_pref":"ｼｽﾞｵｶｹﾝ","kana_city":"ｼｽﾞｵｶｼｱｵｲｸ","kana_address":"ﾁﾖﾀﾞ","pref":"静岡県","city":"静岡市葵区","address":"千代田"},
{"zip_code":"4200947","kana_pref":"ｼｽﾞｵｶｹﾝ","kana_city":"ｼｽﾞｵｶｼｱｵｲｸ","kana_address":"ﾂﾂﾐﾁｮｳ","pref":"静岡県","city":"静岡市葵区","address":"堤町"},
{"zip_code":"4200951","kana_pref":"ｼｽﾞｵｶｹﾝ","kana_city":"ｼｽﾞｵｶｼｱｵｲｸ","kana_address":"ﾃﾝｼﾞﾝﾏｴ","pref":"静岡県","city":"静岡市葵区","address":"天神前"},
{"zip_code":"4200045","kana_pref":"ｼｽﾞｵｶｹﾝ","kana_city":"ｼｽﾞｵｶｼｱｵｲｸ","kana_address":"ﾃﾝﾉｳﾁｮｳ","pref":"静岡県","city":"静岡市葵区","address":"天王町"},
{"zip_code":"4200858","kana_pref":"ｼｽﾞｵｶｹﾝ","kana_city":"ｼｽﾞｵｶｼｱｵｲｸ","kana_address":"ﾃﾝﾏﾁｮｳ","pref":"静岡県","city":"静岡市葵区","address":"伝馬町"},
{"zip_code":"4200063","kana_pref":"ｼｽﾞｵｶｹﾝ","kana_city":"ｼｽﾞｵｶｼｱｵｲｸ","kana_address":"ﾄｵﾘｸﾙﾏﾁｮｳ","pref":"静岡県","city":"静岡市葵区","address":"通車町"},
{"zip_code":"4200029","kana_pref":"ｼｽﾞｵｶｹﾝ","kana_city":"ｼｽﾞｵｶｼｱｵｲｸ","kana_address":"ﾄｷﾞﾔﾁｮｳ","pref":"静岡県","city":"静岡市葵区","address":"研屋町"},
{"zip_code":"4200034","kana_pref":"ｼｽﾞｵｶｹﾝ","kana_city":"ｼｽﾞｵｶｼｱｵｲｸ","kana_address":"ﾄｷﾜﾁｮｳ","pref":"静岡県","city":"静岡市葵区","address":"常磐町"},
{"zip_code":"4200018","kana_pref":"ｼｽﾞｵｶｹﾝ","kana_city":"ｼｽﾞｵｶｼｱｵｲｸ","kana_address":"ﾄﾞﾀﾞﾕｳﾁｮｳ","pref":"静岡県","city":"静岡市葵区","address":"土太夫町"},
{"zip_code":"4200843","kana_pref":"ｼｽﾞｵｶｹﾝ","kana_city":"ｼｽﾞｵｶｼｱｵｲｸ","kana_address":"ﾄﾓｴﾁｮｳ","pref":"静岡県","city":"静岡市葵区","address":"巴町"},
{"zip_code":"4200932","kana_pref":"ｼｽﾞｵｶｹﾝ","kana_city":"ｼｽﾞｵｶｼｱｵｲｸ","kana_address":"ﾄﾖﾁ","pref":"静岡県","city":"静岡市葵区","address":"豊地"},
{"zip_code":"4200903","kana_pref":"ｼｽﾞｵｶｹﾝ","kana_city":"ｼｽﾞｵｶｼｱｵｲｸ","kana_address":"ﾅｶﾞｵ","pref":"静岡県","city":"静岡市葵区","address":"長尾"},
{"zip_code":"4200024","kana_pref":"ｼｽﾞｵｶｹﾝ","kana_city":"ｼｽﾞｵｶｼｱｵｲｸ","kana_address":"ﾅｶﾁｮｳ","pref":"静岡県","city":"静岡市葵区","address":"中町"},
{"zip_code":"4200813","kana_pref":"ｼｽﾞｵｶｹﾝ","kana_city":"ｼｽﾞｵｶｼｱｵｲｸ","kana_address":"ﾅｶﾞﾇﾏ","pref":"静岡県","city":"静岡市葵区","address":"長沼"},
{"zip_code":"4200015","kana_pref":"ｼｽﾞｵｶｹﾝ","kana_city":"ｼｽﾞｵｶｼｱｵｲｸ","kana_address":"ﾆｼｷﾁｮｳ","pref":"静岡県","city":"静岡市葵区","address":"錦町"},
{"zip_code":"4200866","kana_pref":"ｼｽﾞｵｶｹﾝ","kana_city":"ｼｽﾞｵｶｼｱｵｲｸ","kana_address":"ﾆｼｸｻﾌﾞｶﾁｮｳ","pref":"静岡県","city":"静岡市葵区","address":"西草深町"},
{"zip_code":"4200914","kana_pref":"ｼｽﾞｵｶｹﾝ","kana_city":"ｼｽﾞｵｶｼｱｵｲｸ","kana_address":"ﾆｼｾﾅﾁｮｳ","pref":"静岡県","city":"静岡市葵区","address":"西瀬名町"},
{"zip_code":"4200847","kana_pref":"ｼｽﾞｵｶｹﾝ","kana_city":"ｼｽﾞｵｶｼｱｵｲｸ","kana_address":"ﾆｼﾁﾖﾀﾞﾁｮｳ","pref":"静岡県","city":"静岡市葵区","address":"西千代田町"},
{"zip_code":"4200044","kana_pref":"ｼｽﾞｵｶｹﾝ","kana_city":"ｼｽﾞｵｶｼｱｵｲｸ","kana_address":"ﾆｼﾓﾝﾁｮｳ","pref":"静岡県","city":"静岡市葵区","address":"西門町"},
{"zip_code":"4200072","kana_pref":"ｼｽﾞｵｶｹﾝ","kana_city":"ｼｽﾞｵｶｼｱｵｲｸ","kana_address":"ﾆﾊﾞﾝﾁｮｳ","pref":"静岡県","city":"静岡市葵区","address":"二番町"},
{"zip_code":"4200921","kana_pref":"ｼｽﾞｵｶｹﾝ","kana_city":"ｼｽﾞｵｶｼｱｵｲｸ","kana_address":"ﾉﾀﾞｹ","pref":"静岡県","city":"静岡市葵区","address":"野丈"},
{"zip_code":"4200864","kana_pref":"ｼｽﾞｵｶｹﾝ","kana_city":"ｼｽﾞｵｶｼｱｵｲｸ","kana_address":"ﾊｾﾁｮｳ","pref":"静岡県","city":"静岡市葵区","address":"長谷町"},
{"zip_code":"4200966","kana_pref":"ｼｽﾞｵｶｹﾝ","kana_city":"ｼｽﾞｵｶｼｱｵｲｸ","kana_address":"ﾊﾀｶ","pref":"静岡県","city":"静岡市葵区","address":"羽高"},
{"zip_code":"4200078","kana_pref":"ｼｽﾞｵｶｹﾝ","kana_city":"ｼｽﾞｵｶｼｱｵｲｸ","kana_address":"ﾊﾁﾊﾞﾝﾁｮｳ","pref":"静岡県","city":"静岡市葵区","address":"八番町"},
{"zip_code":"4200867","kana_pref":"ｼｽﾞｵｶｹﾝ","kana_city":"ｼｽﾞｵｶｼｱｵｲｸ","kana_address":"ﾊﾞﾊﾞﾝﾁｮｳ","pref":"静岡県","city":"静岡市葵区","address":"馬場町"},
{"zip_code":"4200962","kana_pref":"ｼｽﾞｵｶｹﾝ","kana_city":"ｼｽﾞｵｶｼｱｵｲｸ","kana_address":"ﾋｶﾞｼ","pref":"静岡県","city":"静岡市葵区","address":"東"},
{"zip_code":"4200865","kana_pref":"ｼｽﾞｵｶｹﾝ","kana_city":"ｼｽﾞｵｶｼｱｵｲｸ","kana_address":"ﾋｶﾞｼｸｻﾌﾞｶﾁｮｳ","pref":"静岡県","city":"静岡市葵区","address":"東草深町"},
{"zip_code":"4200912","kana_pref":"ｼｽﾞｵｶｹﾝ","kana_city":"ｼｽﾞｵｶｼｱｵｲｸ","kana_address":"ﾋｶﾞｼｾﾅﾁｮｳ","pref":"静岡県","city":"静岡市葵区","address":"東瀬名町"},
{"zip_code":"4200833","kana_pref":"ｼｽﾞｵｶｹﾝ","kana_city":"ｼｽﾞｵｶｼｱｵｲｸ","kana_address":"ﾋｶﾞｼﾀｶｼﾞｮｳﾏﾁ","pref":"静岡県","city":"静岡市葵区","address":"東鷹匠町"},
{"zip_code":"4200801","kana_pref":"ｼｽﾞｵｶｹﾝ","kana_city":"ｼｽﾞｵｶｼｱｵｲｸ","kana_address":"ﾋｶﾞｼﾁﾖﾀﾞ","pref":"静岡県","city":"静岡市葵区","address":"東千代田"},
{"zip_code":"4200037","kana_pref":"ｼｽﾞｵｶｹﾝ","kana_city":"ｼｽﾞｵｶｼｱｵｲｸ","kana_address":"ﾋﾄﾔﾄﾞﾁｮｳ","pref":"静岡県","city":"静岡市葵区","address":"人宿町"},
{"zip_code":"4200837","kana_pref":"ｼｽﾞｵｶｹﾝ","kana_city":"ｼｽﾞｵｶｼｱｵｲｸ","kana_address":"ﾋﾉﾃﾞﾁｮｳ","pref":"静岡県","city":"静岡市葵区","address":"日出町"},
{"zip_code":"4200954","kana_pref":"ｼｽﾞｵｶｹﾝ","kana_city":"ｼｽﾞｵｶｼｱｵｲｸ","kana_address":"ﾋﾗﾔﾅｷﾞ","pref":"静岡県","city":"静岡市葵区","address":"平柳"},
{"zip_code":"4200904","kana_pref":"ｼｽﾞｵｶｹﾝ","kana_city":"ｼｽﾞｵｶｼｱｵｲｸ","kana_address":"ﾋﾗﾔﾏ","pref":"静岡県","city":"静岡市葵区","address":"平山"},
{"zip_code":"4200023","kana_pref":"ｼｽﾞｵｶｹﾝ","kana_city":"ｼｽﾞｵｶｼｱｵｲｸ","kana_address":"ﾌｼﾞﾐﾁｮｳ","pref":"静岡県","city":"静岡市葵区","address":"富士見町"},
{"zip_code":"4200041","kana_pref":"ｼｽﾞｵｶｹﾝ","kana_city":"ｼｽﾞｵｶｼｱｵｲｸ","kana_address":"ﾌﾀﾊﾞﾁｮｳ","pref":"静岡県","city":"静岡市葵区","address":"双葉町"},
{"zip_code":"4200812","kana_pref":"ｼｽﾞｵｶｹﾝ","kana_city":"ｼｽﾞｵｶｼｱｵｲｸ","kana_address":"ﾌﾙｼｮｳ","pref":"静岡県","city":"静岡市葵区","address":"古庄"},
{"zip_code":"4200876","kana_pref":"ｼｽﾞｵｶｹﾝ","kana_city":"ｼｽﾞｵｶｼｱｵｲｸ","kana_address":"ﾍｲﾜ","pref":"静岡県","city":"静岡市葵区","address":"平和"},
{"zip_code":"4200064","kana_pref":"ｼｽﾞｵｶｹﾝ","kana_city":"ｼｽﾞｵｶｼｱｵｲｸ","kana_address":"ﾎﾝﾄｵﾘ","pref":"静岡県","city":"静岡市葵区","address":"本通"},
{"zip_code":"4200066","kana_pref":"ｼｽﾞｵｶｹﾝ","kana_city":"ｼｽﾞｵｶｼｱｵｲｸ","kana_address":"ﾎﾝﾄｵﾘﾆｼﾏﾁ","pref":"静岡県","city":"静岡市葵区","address":"本通西町"},
{"zip_code":"4200957","kana_pref":"ｼｽﾞｵｶｹﾝ","kana_city":"ｼｽﾞｵｶｼｱｵｲｸ","kana_address":"ﾏｴﾊﾞﾔｼ","pref":"静岡県","city":"静岡市葵区","address":"前林"},
{"zip_code":"4200941","kana_pref":"ｼｽﾞｵｶｹﾝ","kana_city":"ｼｽﾞｵｶｼｱｵｲｸ","kana_address":"ﾏﾂﾄﾞﾐ","pref":"静岡県","city":"静岡市葵区","address":"松富"},
{"zip_code":"4200942","kana_pref":"ｼｽﾞｵｶｹﾝ","kana_city":"ｼｽﾞｵｶｼｱｵｲｸ","kana_address":"ﾏﾂﾄﾞﾐｶﾐｸﾞﾐ","pref":"静岡県","city":"静岡市葵区","address":"松富上組"},
{"zip_code":"4200861","kana_pref":"ｼｽﾞｵｶｹﾝ","kana_city":"ｼｽﾞｵｶｼｱｵｲｸ","kana_address":"ﾏﾙﾔﾏﾁｮｳ","pref":"静岡県","city":"静岡市葵区","address":"丸山町"},
{"zip_code":"4200875","kana_pref":"ｼｽﾞｵｶｹﾝ","kana_city":"ｼｽﾞｵｶｼｱｵｲｸ","kana_address":"ﾐｶﾜﾁｮｳ","pref":"静岡県","city":"静岡市葵区","address":"美川町"},
{"zip_code":"4200831","kana_pref":"ｼｽﾞｵｶｹﾝ","kana_city":"ｼｽﾞｵｶｼｱｵｲｸ","kana_address":"ﾐｽﾞｵﾁﾁｮｳ","pref":"静岡県","city":"静岡市葵区","address":"水落町"},
{"zip_code":"4200844","kana_pref":"ｼｽﾞｵｶｹﾝ","kana_city":"ｼｽﾞｵｶｼｱｵｲｸ","kana_address":"ﾐﾄﾞﾘﾁｮｳ","pref":"静岡県","city":"静岡市葵区","address":"緑町"},
{"zip_code":"4200956","kana_pref":"ｼｽﾞｵｶｹﾝ","kana_city":"ｼｽﾞｵｶｼｱｵｲｸ","kana_address":"ﾐﾅﾐ","pref":"静岡県","city":"静岡市葵区","address":"南"},
{"zip_code":"4200054","kana_pref":"ｼｽﾞｵｶｹﾝ","kana_city":"ｼｽﾞｵｶｼｱｵｲｸ","kana_address":"ﾐﾅﾐｱﾍﾞ","pref":"静岡県","city":"静岡市葵区","address":"南安倍"},
{"zip_code":"4200915","kana_pref":"ｼｽﾞｵｶｹﾝ","kana_city":"ｼｽﾞｵｶｼｱｵｲｸ","kana_address":"ﾐﾅﾐｾﾅﾁｮｳ","pref":"静岡県","city":"静岡市葵区","address":"南瀬名町"},
{"zip_code":"4200051","kana_pref":"ｼｽﾞｵｶｹﾝ","kana_city":"ｼｽﾞｵｶｼｱｵｲｸ","kana_address":"ﾐﾅﾐﾀﾏﾁ","pref":"静岡県","city":"静岡市葵区","address":"南田町"},
{"zip_code":"4200905","kana_pref":"ｼｽﾞｵｶｹﾝ","kana_city":"ｼｽﾞｵｶｼｱｵｲｸ","kana_address":"ﾐﾅﾐﾇﾏｶﾞﾐ","pref":"静岡県","city":"静岡市葵区","address":"南沼上"},
{"zip_code":"4200868","kana_pref":"ｼｽﾞｵｶｹﾝ","kana_city":"ｼｽﾞｵｶｼｱｵｲｸ","kana_address":"ﾐﾔｶﾞｻｷﾁｮｳ","pref":"静岡県","city":"静岡市葵区","address":"宮ケ崎町"},
{"zip_code":"4200822","kana_pref":"ｼｽﾞｵｶｹﾝ","kana_city":"ｼｽﾞｵｶｼｱｵｲｸ","kana_address":"ﾐﾔﾏｴﾁｮｳ","pref":"静岡県","city":"静岡市葵区","address":"宮前町"},
{"zip_code":"4200857","kana_pref":"ｼｽﾞｵｶｹﾝ","kana_city":"ｼｽﾞｵｶｼｱｵｲｸ","kana_address":"ﾐﾕｷﾁｮｳ","pref":"静岡県","city":"静岡市葵区","address":"御幸町"},
{"zip_code":"4200053","kana_pref":"ｼｽﾞｵｶｹﾝ","kana_city":"ｼｽﾞｵｶｼｱｵｲｸ","kana_address":"ﾐﾛｸ","pref":"静岡県","city":"静岡市葵区","address":"弥勒"},
{"zip_code":"4200028","kana_pref":"ｼｽﾞｵｶｹﾝ","kana_city":"ｼｽﾞｵｶｼｱｵｲｸ","kana_address":"ﾔｶﾀﾏﾁ","pref":"静岡県","city":"静岡市葵区","address":"屋形町"},
{"zip_code":"4200906","kana_pref":"ｼｽﾞｵｶｹﾝ","kana_city":"ｼｽﾞｵｶｼｱｵｲｸ","kana_address":"ﾔｸｼ","pref":"静岡県","city":"静岡市葵区","address":"薬師"},
{"zip_code":"4200013","kana_pref":"ｼｽﾞｵｶｹﾝ","kana_city":"ｼｽﾞｵｶｼｱｵｲｸ","kana_address":"ﾔﾁﾖﾁｮｳ","pref":"静岡県","city":"静岡市葵区","address":"八千代町"},
{"zip_code":"4200007","kana_pref":"ｼｽﾞｵｶｹﾝ","kana_city":"ｼｽﾞｵｶｼｱｵｲｸ","kana_address":"ﾔﾅｷﾞﾁｮｳ","pref":"静岡県","city":"静岡市葵区","address":"柳町"},
{"zip_code":"4200964","kana_pref":"ｼｽﾞｵｶｹﾝ","kana_city":"ｼｽﾞｵｶｼｱｵｲｸ","kana_address":"ﾔﾅｷﾞﾊﾗ","pref":"静岡県","city":"静岡市葵区","address":"柳原"},
{"zip_code":"4200012","kana_pref":"ｼｽﾞｵｶｹﾝ","kana_city":"ｼｽﾞｵｶｼｱｵｲｸ","kana_address":"ﾕｽﾞﾉｷﾁｮｳ","pref":"静岡県","city":"静岡市葵区","address":"柚木町"},
{"zip_code":"4200821","kana_pref":"ｼｽﾞｵｶｹﾝ","kana_city":"ｼｽﾞｵｶｼｱｵｲｸ","kana_address":"ﾕﾉｷ","pref":"静岡県","city":"静岡市葵区","address":"柚木"},
{"zip_code":"4200949","kana_pref":"ｼｽﾞｵｶｹﾝ","kana_city":"ｼｽﾞｵｶｼｱｵｲｸ","kana_address":"ﾖｲﾁ","pref":"静岡県","city":"静岡市葵区","address":"与一"},
{"zip_code":"4200832","kana_pref":"ｼｽﾞｵｶｹﾝ","kana_city":"ｼｽﾞｵｶｼｱｵｲｸ","kana_address":"ﾖｺｳﾁﾁｮｳ","pref":"静岡県","city":"静岡市葵区","address":"横内町"},
{"zip_code":"4200835","kana_pref":"ｼｽﾞｵｶｹﾝ","kana_city":"ｼｽﾞｵｶｼｱｵｲｸ","kana_address":"ﾖｺﾀﾏﾁ","pref":"静岡県","city":"静岡市葵区","address":"横田町"},
{"zip_code":"4200046","kana_pref":"ｼｽﾞｵｶｹﾝ","kana_city":"ｼｽﾞｵｶｼｱｵｲｸ","kana_address":"ﾖｼﾉﾁｮｳ","pref":"静岡県","city":"静岡市葵区","address":"吉野町"},
{"zip_code":"4200074","kana_pref":"ｼｽﾞｵｶｹﾝ","kana_city":"ｼｽﾞｵｶｼｱｵｲｸ","kana_address":"ﾖﾝﾊﾞﾝﾁｮｳ","pref":"静岡県","city":"静岡市葵区","address":"四番町"},
{"zip_code":"4200922","kana_pref":"ｼｽﾞｵｶｹﾝ","kana_city":"ｼｽﾞｵｶｼｱｵｲｸ","kana_address":"ﾘｭｳﾂｳｾﾝﾀｰ","pref":"静岡県","city":"静岡市葵区","address":"流通センター"},
{"zip_code":"4200804","kana_pref":"ｼｽﾞｵｶｹﾝ","kana_city":"ｼｽﾞｵｶｼｱｵｲｸ","kana_address":"ﾘｭｳﾅﾝ","pref":"静岡県","city":"静岡市葵区","address":"竜南"},
{"zip_code":"4200032","kana_pref":"ｼｽﾞｵｶｹﾝ","kana_city":"ｼｽﾞｵｶｼｱｵｲｸ","kana_address":"ﾘｮｳｶﾞｴﾁｮｳ","pref":"静岡県","city":"静岡市葵区","address":"両替町"},
{"zip_code":"4200076","kana_pref":"ｼｽﾞｵｶｹﾝ","kana_city":"ｼｽﾞｵｶｼｱｵｲｸ","kana_address":"ﾛｸﾊﾞﾝﾁｮｳ","pref":"静岡県","city":"静岡市葵区","address":"六番町"},
{"zip_code":"4200006","kana_pref":"ｼｽﾞｵｶｹﾝ","kana_city":"ｼｽﾞｵｶｼｱｵｲｸ","kana_address":"ﾜｶﾏﾂﾁｮｳ","pref":"静岡県","city":"静岡市葵区","address":"若松町"}]}