{"zip_code":[
{"zip_code":"4212309","kana_pref":"ｼｽﾞｵｶｹﾝ","kana_city":"ｼｽﾞｵｶｼｱｵｲｸ","kana_address":"ｱｲﾌﾞﾁ","pref":"静岡県","city":"静岡市葵区","address":"相渕"},
{"zip_code":"4211307","kana_pref":"ｼｽﾞｵｶｹﾝ","kana_city":"ｼｽﾞｵｶｼｱｵｲｸ","kana_address":"ｱｲﾏﾀ","pref":"静岡県","city":"静岡市葵区","address":"相俣"},
{"zip_code":"4211305","kana_pref":"ｼｽﾞｵｶｹﾝ","kana_city":"ｼｽﾞｵｶｼｱｵｲｸ","kana_address":"ｱｶｻﾞﾜ","pref":"静岡県","city":"静岡市葵区","address":"赤沢"},
{"zip_code":"4212125","kana_pref":"ｼｽﾞｵｶｹﾝ","kana_city":"ｼｽﾞｵｶｼｱｵｲｸ","kana_address":"ｱｼｸﾎﾞｵｸｸﾞﾐ","pref":"静岡県","city":"静岡市葵区","address":"足久保奥組"},
{"zip_code":"4212124","kana_pref":"ｼｽﾞｵｶｹﾝ","kana_city":"ｼｽﾞｵｶｼｱｵｲｸ","kana_address":"ｱｼｸﾎﾞｸﾁｸﾞﾐ","pref":"静岡県","city":"静岡市葵区","address":"足久保口組"},
{"zip_code":"4212114","kana_pref":"ｼｽﾞｵｶｹﾝ","kana_city":"ｼｽﾞｵｶｼｱｵｲｸ","kana_address":"ｱﾍﾞｸﾞﾁｼﾝﾃﾞﾝ","pref":"静岡県","city":"静岡市葵区","address":"安倍口新田"},
{"zip_code":"4212113","kana_pref":"ｼｽﾞｵｶｹﾝ","kana_city":"ｼｽﾞｵｶｼｱｵｲｸ","kana_address":"ｱﾍﾞｸﾞﾁﾀﾞﾝﾁ","pref":"静岡県","city":"静岡市葵区","address":"安倍口団地"},
{"zip_code":"4212106","kana_pref":"ｼｽﾞｵｶｹﾝ","kana_city":"ｼｽﾞｵｶｼｱｵｲｸ","kana_address":"ｳｼﾂﾞﾏ","pref":"静岡県","city":"静岡市葵区","address":"牛妻"},
{"zip_code":"4212118","kana_pref":"ｼｽﾞｵｶｹﾝ","kana_city":"ｼｽﾞｵｶｼｱｵｲｸ","kana_address":"ｳﾁﾏｷ","pref":"静岡県","city":"静岡市葵区","address":"内牧"},
{"zip_code":"4212303","kana_pref":"ｼｽﾞｵｶｹﾝ","kana_city":"ｼｽﾞｵｶｼｱｵｲｸ","kana_address":"ｳﾄｳｷﾞ","pref":"静岡県","city":"静岡市葵区","address":"有東木"},
{"zip_code":"4211222","kana_pref":"ｼｽﾞｵｶｹﾝ","kana_city":"ｼｽﾞｵｶｼｱｵｲｸ","kana_address":"ｳﾌﾞﾒ","pref":"静岡県","city":"静岡市葵区","address":"産女"},
{"zip_code":"4212301","kana_pref":"ｼｽﾞｵｶｹﾝ","kana_city":"ｼｽﾞｵｶｼｱｵｲｸ","kana_address":"ｳﾒｶﾞｼﾏ","pref":"静岡県","city":"静岡市葵区","address":"梅ケ島"},
{"zip_code":"4212112","kana_pref":"ｼｽﾞｵｶｹﾝ","kana_city":"ｼｽﾞｵｶｼｱｵｲｸ","kana_address":"ｴﾝﾄﾞｳｼﾝﾃﾞﾝ","pref":"静岡県","city":"静岡市葵区","address":"遠藤新田"},
{"zip_code":"4212227","kana_pref":"ｼｽﾞｵｶｹﾝ","kana_city":"ｼｽﾞｵｶｼｱｵｲｸ","kana_address":"ｵｵｻﾜ","pref":"静岡県","city":"静岡市葵区","address":"大沢"},
{"zip_code":"4211314","kana_pref":"ｼｽﾞｵｶｹﾝ","kana_city":"ｼｽﾞｵｶｼｱｵｲｸ","kana_address":"ｵｵﾊﾗ","pref":"静岡県","city":"静岡市葵区","address":"大原"},
{"zip_code":"4211401","kana_pref":"ｼｽﾞｵｶｹﾝ","kana_city":"ｼｽﾞｵｶｼｱｵｲｸ","kana_address":"ｵｵﾏ","pref":"静岡県","city":"静岡市葵区","address":"大間"},
{"zip_code":"4212215","kana_pref":"ｼｽﾞｵｶｹﾝ","kana_city":"ｼｽﾞｵｶｼｱｵｲｸ","kana_address":"ｵｸｲｹｶﾞﾔ","pref":"静岡県","city":"静岡市葵区","address":"奥池ケ谷"},
{"zip_code":"4212201","kana_pref":"ｼｽﾞｵｶｹﾝ","kana_city":"ｼｽﾞｵｶｼｱｵｲｸ","kana_address":"ｵｸｾﾝﾏﾀ","pref":"静岡県","city":"静岡市葵区","address":"奥仙俣"},
{"zip_code":"4212223","kana_pref":"ｼｽﾞｵｶｹﾝ","kana_city":"ｼｽﾞｵｶｼｱｵｲｸ","kana_address":"ｵﾁｱｲ","pref":"静岡県","city":"静岡市葵区","address":"落合"},
{"zip_code":"4211302","kana_pref":"ｼｽﾞｵｶｹﾝ","kana_city":"ｼｽﾞｵｶｼｱｵｲｸ","kana_address":"ｶｷﾞｱﾅ","pref":"静岡県","city":"静岡市葵区","address":"鍵穴"},
{"zip_code":"4212214","kana_pref":"ｼｽﾞｵｶｹﾝ","kana_city":"ｼｽﾞｵｶｼｱｵｲｸ","kana_address":"ｶｷｼﾏ","pref":"静岡県","city":"静岡市葵区","address":"柿島"},
{"zip_code":"4212107","kana_pref":"ｼｽﾞｵｶｹﾝ","kana_city":"ｼｽﾞｵｶｼｱｵｲｸ","kana_address":"ｶﾄﾞﾔ","pref":"静岡県","city":"静岡市葵区","address":"門屋"},
{"zip_code":"4212211","kana_pref":"ｼｽﾞｵｶｹﾝ","kana_city":"ｼｽﾞｵｶｼｱｵｲｸ","kana_address":"ｶﾐｵﾁｱｲ","pref":"静岡県","city":"静岡市葵区","address":"上落合"},
{"zip_code":"4212222","kana_pref":"ｼｽﾞｵｶｹﾝ","kana_city":"ｼｽﾞｵｶｼｱｵｲｸ","kana_address":"ｶﾔﾏ","pref":"静岡県","city":"静岡市葵区","address":"桂山"},
{"zip_code":"4211408","kana_pref":"ｼｽﾞｵｶｹﾝ","kana_city":"ｼｽﾞｵｶｼｱｵｲｸ","kana_address":"ｸｽﾞﾚﾉ","pref":"静岡県","city":"静岡市葵区","address":"崩野"},
{"zip_code":"4212203","kana_pref":"ｼｽﾞｵｶｹﾝ","kana_city":"ｼｽﾞｵｶｼｱｵｲｸ","kana_address":"ｸﾁｻｶﾓﾄ","pref":"静岡県","city":"静岡市葵区","address":"口坂本"},
{"zip_code":"4212202","kana_pref":"ｼｽﾞｵｶｹﾝ","kana_city":"ｼｽﾞｵｶｼｱｵｲｸ","kana_address":"ｸﾁｾﾝﾏﾀ","pref":"静岡県","city":"静岡市葵区","address":"口仙俣"},
{"zip_code":"4211308","kana_pref":"ｼｽﾞｵｶｹﾝ","kana_city":"ｼｽﾞｵｶｼｱｵｲｸ","kana_address":"ｸﾛﾏﾀ","pref":"静岡県","city":"静岡市葵区","address":"黒俣"},
{"zip_code":"4212117","kana_pref":"ｼｽﾞｵｶｹﾝ","kana_city":"ｼｽﾞｵｶｼｱｵｲｸ","kana_address":"ｺｳｱﾝｼﾝﾃﾞﾝ","pref":"静岡県","city":"静岡市葵区","address":"幸庵新田"},
{"zip_code":"4212105","kana_pref":"ｼｽﾞｵｶｹﾝ","kana_city":"ｼｽﾞｵｶｼｱｵｲｸ","kana_address":"ｺﾞｳｼﾞﾏ","pref":"静岡県","city":"静岡市葵区","address":"郷島"},
{"zip_code":"4212225","kana_pref":"ｼｽﾞｵｶｹﾝ","kana_city":"ｼｽﾞｵｶｼｱｵｲｸ","kana_address":"ｺｼｺﾞｴ","pref":"静岡県","city":"静岡市葵区","address":"腰越"},
{"zip_code":"4211301","kana_pref":"ｼｽﾞｵｶｹﾝ","kana_city":"ｼｽﾞｵｶｼｱｵｲｸ","kana_address":"ｺｼﾞﾏ","pref":"静岡県","city":"静岡市葵区","address":"小島"},
{"zip_code":"4211225","kana_pref":"ｼｽﾞｵｶｹﾝ","kana_city":"ｼｽﾞｵｶｼｱｵｲｸ","kana_address":"ｺｾﾞﾄ","pref":"静岡県","city":"静岡市葵区","address":"小瀬戸"},
{"zip_code":"4211316","kana_pref":"ｼｽﾞｵｶｹﾝ","kana_city":"ｼｽﾞｵｶｼｱｵｲｸ","kana_address":"ｺﾌﾞｽｷﾞ","pref":"静岡県","city":"静岡市葵区","address":"小布杉"},
{"zip_code":"4211405","kana_pref":"ｼｽﾞｵｶｹﾝ","kana_city":"ｼｽﾞｵｶｼｱｵｲｸ","kana_address":"ｻｶﾉｶﾐ","pref":"静岡県","city":"静岡市葵区","address":"坂ノ上"},
{"zip_code":"4211303","kana_pref":"ｼｽﾞｵｶｹﾝ","kana_city":"ｼｽﾞｵｶｼｱｵｲｸ","kana_address":"ｻｶﾓﾄ","pref":"静岡県","city":"静岡市葵区","address":"坂本"},
{"zip_code":"4211211","kana_pref":"ｼｽﾞｵｶｹﾝ","kana_city":"ｼｽﾞｵｶｼｱｵｲｸ","kana_address":"ｼｲﾉｵ","pref":"静岡県","city":"静岡市葵区","address":"慈悲尾"},
{"zip_code":"4212108","kana_pref":"ｼｽﾞｵｶｹﾝ","kana_city":"ｼｽﾞｵｶｼｱｵｲｸ","kana_address":"ｼﾓ","pref":"静岡県","city":"静岡市葵区","address":"下"},
{"zip_code":"4211201","kana_pref":"ｼｽﾞｵｶｹﾝ","kana_city":"ｼｽﾞｵｶｼｱｵｲｸ","kana_address":"ｼﾝﾏ","pref":"静岡県","city":"静岡市葵区","address":"新間"},
{"zip_code":"4211309","kana_pref":"ｼｽﾞｵｶｹﾝ","kana_city":"ｼｽﾞｵｶｼｱｵｲｸ","kana_address":"ｽｷﾞｵ","pref":"静岡県","city":"静岡市葵区","address":"杉尾"},
{"zip_code":"4211212","kana_pref":"ｼｽﾞｵｶｹﾝ","kana_city":"ｼｽﾞｵｶｼｱｵｲｸ","kana_address":"ｾﾝﾀﾞｲ","pref":"静岡県","city":"静岡市葵区","address":"千代"},
{"zip_code":"4211214","kana_pref":"ｼｽﾞｵｶｹﾝ","kana_city":"ｼｽﾞｵｶｼｱｵｲｸ","kana_address":"ﾀｷｮｳ","pref":"静岡県","city":"静岡市葵区","address":"建穂"},
{"zip_code":"4212224","kana_pref":"ｼｽﾞｵｶｹﾝ","kana_city":"ｼｽﾞｵｶｼｱｵｲｸ","kana_address":"ﾀｸﾐ","pref":"静岡県","city":"静岡市葵区","address":"内匠"},
{"zip_code":"4212103","kana_pref":"ｼｽﾞｵｶｹﾝ","kana_city":"ｼｽﾞｵｶｼｱｵｲｸ","kana_address":"ﾀﾜﾗｻﾞﾜ","pref":"静岡県","city":"静岡市葵区","address":"俵沢"},
{"zip_code":"4212101","kana_pref":"ｼｽﾞｵｶｹﾝ","kana_city":"ｼｽﾞｵｶｼｱｵｲｸ","kana_address":"ﾀﾜﾗﾐﾈ","pref":"静岡県","city":"静岡市葵区","address":"俵峰"},
{"zip_code":"4212121","kana_pref":"ｼｽﾞｵｶｹﾝ","kana_city":"ｼｽﾞｵｶｼｱｵｲｸ","kana_address":"ﾂﾄﾞﾉ","pref":"静岡県","city":"静岡市葵区","address":"津渡野"},
{"zip_code":"4211304","kana_pref":"ｼｽﾞｵｶｹﾝ","kana_city":"ｼｽﾞｵｶｼｱｵｲｸ","kana_address":"ﾃﾗｼﾞﾏ","pref":"静岡県","city":"静岡市葵区","address":"寺島"},
{"zip_code":"4212304","kana_pref":"ｼｽﾞｵｶｹﾝ","kana_city":"ｼｽﾞｵｶｼｱｵｲｸ","kana_address":"ﾄﾞ","pref":"静岡県","city":"静岡市葵区","address":"渡"},
{"zip_code":"4211404","kana_pref":"ｼｽﾞｵｶｹﾝ","kana_city":"ｼｽﾞｵｶｼｱｵｲｸ","kana_address":"ﾄﾁｻﾞﾜ","pref":"静岡県","city":"静岡市葵区","address":"栃沢"},
{"zip_code":"4211311","kana_pref":"ｼｽﾞｵｶｹﾝ","kana_city":"ｼｽﾞｵｶｼｱｵｲｸ","kana_address":"ﾄﾝｻﾞﾜ","pref":"静岡県","city":"静岡市葵区","address":"富沢"},
{"zip_code":"4212216","kana_pref":"ｼｽﾞｵｶｹﾝ","kana_city":"ｼｽﾞｵｶｼｱｵｲｸ","kana_address":"ﾅｶﾞｸﾏ","pref":"静岡県","city":"静岡市葵区","address":"長熊"},
{"zip_code":"4212221","kana_pref":"ｼｽﾞｵｶｹﾝ","kana_city":"ｼｽﾞｵｶｼｱｵｲｸ","kana_address":"ﾅｶｻﾞﾜ","pref":"静岡県","city":"静岡市葵区","address":"中沢"},
{"zip_code":"4212213","kana_pref":"ｼｽﾞｵｶｹﾝ","kana_city":"ｼｽﾞｵｶｼｱｵｲｸ","kana_address":"ﾅｶﾞﾂﾏﾀ","pref":"静岡県","city":"静岡市葵区","address":"長妻田"},
{"zip_code":"4212111","kana_pref":"ｼｽﾞｵｶｹﾝ","kana_city":"ｼｽﾞｵｶｼｱｵｲｸ","kana_address":"ﾅｶﾉｺﾞｳ","pref":"静岡県","city":"静岡市葵区","address":"中ノ郷"},
{"zip_code":"4212305","kana_pref":"ｼｽﾞｵｶｹﾝ","kana_city":"ｼｽﾞｵｶｼｱｵｲｸ","kana_address":"ﾅｶﾋﾗ","pref":"静岡県","city":"静岡市葵区","address":"中平"},
{"zip_code":"4211407","kana_pref":"ｼｽﾞｵｶｹﾝ","kana_city":"ｼｽﾞｵｶｼｱｵｲｸ","kana_address":"ﾅﾗｵ","pref":"静岡県","city":"静岡市葵区","address":"楢尾"},
{"zip_code":"4211312","kana_pref":"ｼｽﾞｵｶｹﾝ","kana_city":"ｼｽﾞｵｶｼｱｵｲｸ","kana_address":"ﾅﾗﾏ","pref":"静岡県","city":"静岡市葵区","address":"奈良間"},
{"zip_code":"4212116","kana_pref":"ｼｽﾞｵｶｹﾝ","kana_city":"ｼｽﾞｵｶｼｱｵｲｸ","kana_address":"ﾆｼｶﾞﾔ","pref":"静岡県","city":"静岡市葵区","address":"西ケ谷"},
{"zip_code":"4211226","kana_pref":"ｼｽﾞｵｶｹﾝ","kana_city":"ｼｽﾞｵｶｼｱｵｲｸ","kana_address":"ﾆｼﾏﾀ","pref":"静岡県","city":"静岡市葵区","address":"西又"},
{"zip_code":"4212302","kana_pref":"ｼｽﾞｵｶｹﾝ","kana_city":"ｼｽﾞｵｶｼｱｵｲｸ","kana_address":"ﾆｭｳｼﾞﾏ","pref":"静岡県","city":"静岡市葵区","address":"入島"},
{"zip_code":"4212104","kana_pref":"ｼｽﾞｵｶｹﾝ","kana_city":"ｼｽﾞｵｶｼｱｵｲｸ","kana_address":"ﾉﾀﾋﾗ","pref":"静岡県","city":"静岡市葵区","address":"野田平"},
{"zip_code":"4211215","kana_pref":"ｼｽﾞｵｶｹﾝ","kana_city":"ｼｽﾞｵｶｼｱｵｲｸ","kana_address":"ﾊﾄﾘ","pref":"静岡県","city":"静岡市葵区","address":"羽鳥"},
{"zip_code":"4211216","kana_pref":"ｼｽﾞｵｶｹﾝ","kana_city":"ｼｽﾞｵｶｼｱｵｲｸ","kana_address":"ﾊﾄﾘﾀﾞｲﾓﾝﾁｮｳ","pref":"静岡県","city":"静岡市葵区","address":"羽鳥大門町"},
{"zip_code":"4211217","kana_pref":"ｼｽﾞｵｶｹﾝ","kana_city":"ｼｽﾞｵｶｼｱｵｲｸ","kana_address":"ﾊﾄﾘﾎﾝﾁｮｳ","pref":"静岡県","city":"静岡市葵区","address":"羽鳥本町"},
{"zip_code":"4211224","kana_pref":"ｼｽﾞｵｶｹﾝ","kana_city":"ｼｽﾞｵｶｼｱｵｲｸ","kana_address":"ﾊﾝﾏ","pref":"静岡県","city":"静岡市葵区","address":"飯間"},
{"zip_code":"4211403","kana_pref":"ｼｽﾞｵｶｹﾝ","kana_city":"ｼｽﾞｵｶｼｱｵｲｸ","kana_address":"ﾋﾅﾀ","pref":"静岡県","city":"静岡市葵区","address":"日向"},
{"zip_code":"4212306","kana_pref":"ｼｽﾞｵｶｹﾝ","kana_city":"ｼｽﾞｵｶｼｱｵｲｸ","kana_address":"ﾋﾗﾉ","pref":"静岡県","city":"静岡市葵区","address":"平野"},
{"zip_code":"4211306","kana_pref":"ｼｽﾞｵｶｹﾝ","kana_city":"ｼｽﾞｵｶｼｱｵｲｸ","kana_address":"ﾋﾙｲﾄﾞ","pref":"静岡県","city":"静岡市葵区","address":"昼居渡"},
{"zip_code":"4212109","kana_pref":"ｼｽﾞｵｶｹﾝ","kana_city":"ｼｽﾞｵｶｼｱｵｲｸ","kana_address":"ﾌｸﾀﾞｶﾞﾔ","pref":"静岡県","city":"静岡市葵区","address":"福田ケ谷"},
{"zip_code":"4211315","kana_pref":"ｼｽﾞｵｶｹﾝ","kana_city":"ｼｽﾞｵｶｼｱｵｲｸ","kana_address":"ﾌｺｳﾘ","pref":"静岡県","city":"静岡市葵区","address":"富厚里"},
{"zip_code":"4211221","kana_pref":"ｼｽﾞｵｶｹﾝ","kana_city":"ｼｽﾞｵｶｼｱｵｲｸ","kana_address":"ﾏｷｶﾞﾔ","pref":"静岡県","city":"静岡市葵区","address":"牧ケ谷"},
{"zip_code":"4212122","kana_pref":"ｼｽﾞｵｶｹﾝ","kana_city":"ｼｽﾞｵｶｼｱｵｲｸ","kana_address":"ﾏﾂﾉ","pref":"静岡県","city":"静岡市葵区","address":"松野"},
{"zip_code":"4211313","kana_pref":"ｼｽﾞｵｶｹﾝ","kana_city":"ｼｽﾞｵｶｼｱｵｲｸ","kana_address":"ﾐｽﾞﾐｲﾛ","pref":"静岡県","city":"静岡市葵区","address":"水見色"},
{"zip_code":"4212217","kana_pref":"ｼｽﾞｵｶｹﾝ","kana_city":"ｼｽﾞｵｶｼｱｵｲｸ","kana_address":"ﾓﾘｺｼ","pref":"静岡県","city":"静岡市葵区","address":"森腰"},
{"zip_code":"4211402","kana_pref":"ｼｽﾞｵｶｹﾝ","kana_city":"ｼｽﾞｵｶｼｱｵｲｸ","kana_address":"ﾓﾛｺｻﾞﾜ","pref":"静岡県","city":"静岡市葵区","address":"諸子沢"},
{"zip_code":"4211409","kana_pref":"ｼｽﾞｵｶｹﾝ","kana_city":"ｼｽﾞｵｶｼｱｵｲｸ","kana_address":"ﾔｸｻ","pref":"静岡県","city":"静岡市葵区","address":"八草"},
{"zip_code":"4211202","kana_pref":"ｼｽﾞｵｶｹﾝ","kana_city":"ｼｽﾞｵｶｼｱｵｲｸ","kana_address":"ﾔﾂ","pref":"静岡県","city":"静岡市葵区","address":"谷津"},
{"zip_code":"4211213","kana_pref":"ｼｽﾞｵｶｹﾝ","kana_city":"ｼｽﾞｵｶｼｱｵｲｸ","kana_address":"ﾔﾏｻﾞｷ","pref":"静岡県","city":"静岡市葵区","address":"山崎"},
{"zip_code":"4212102","kana_pref":"ｼｽﾞｵｶｹﾝ","kana_city":"ｼｽﾞｵｶｼｱｵｲｸ","kana_address":"ﾕｼﾞﾏ","pref":"静岡県","city":"静岡市葵区","address":"油島"},
{"zip_code":"4212212","kana_pref":"ｼｽﾞｵｶｹﾝ","kana_city":"ｼｽﾞｵｶｼｱｵｲｸ","kana_address":"ﾕﾉ","pref":"静岡県","city":"静岡市葵区","address":"油野"},
{"zip_code":"4211406","kana_pref":"ｼｽﾞｵｶｹﾝ","kana_city":"ｼｽﾞｵｶｼｱｵｲｸ","kana_address":"ﾕﾉｼﾏ","pref":"静岡県","city":"静岡市葵区","address":"湯ノ島"},
{"zip_code":"4212123","kana_pref":"ｼｽﾞｵｶｹﾝ","kana_city":"ｼｽﾞｵｶｼｱｵｲｸ","kana_address":"ﾕﾔﾏ","pref":"静岡県","city":"静岡市葵区","address":"油山"},
{"zip_code":"4212226","kana_pref":"ｼｽﾞｵｶｹﾝ","kana_city":"ｼｽﾞｵｶｼｱｵｲｸ","kana_address":"ﾖｺｻﾜ","pref":"静岡県","city":"静岡市葵区","address":"横沢"},
{"zip_code":"4212307","kana_pref":"ｼｽﾞｵｶｹﾝ","kana_city":"ｼｽﾞｵｶｼｱｵｲｸ","kana_address":"ﾖｺﾔﾏ","pref":"静岡県","city":"静岡市葵区","address":"横山"},
{"zip_code":"4212115","kana_pref":"ｼｽﾞｵｶｹﾝ","kana_city":"ｼｽﾞｵｶｼｱｵｲｸ","kana_address":"ﾖｻﾞｴﾓﾝｼﾝﾃﾞﾝ","pref":"静岡県","city":"静岡市葵区","address":"与左衛門新田"},
{"zip_code":"4211223","kana_pref":"ｼｽﾞｵｶｹﾝ","kana_city":"ｼｽﾞｵｶｼｱｵｲｸ","kana_address":"ﾖｼﾂﾞ","pref":"静岡県","city":"静岡市葵区","address":"吉津"},
{"zip_code":"4212308","kana_pref":"ｼｽﾞｵｶｹﾝ","kana_city":"ｼｽﾞｵｶｼｱｵｲｸ","kana_address":"ﾜﾗﾋﾞﾉ","pref":"静岡県","city":"静岡市葵区","address":"蕨野"},
{"zip_code":"4210134","kana_pref":"ｼｽﾞｵｶｹﾝ","kana_city":"ｼｽﾞｵｶｼｽﾙｶﾞｸ","kana_address":"ｱｵｷ","pref":"静岡県","city":"静岡市駿河区","address":"青木"},
{"zip_code":"4210105","kana_pref":"ｼｽﾞｵｶｹﾝ","kana_city":"ｼｽﾞｵｶｼｽﾙｶﾞｸ","kana_address":"ｳﾂﾉﾔ","pref":"静岡県","city":"静岡市駿河区","address":"宇津ノ谷"},
{"zip_code":"4210136","kana_pref":"ｼｽﾞｵｶｹﾝ","kana_city":"ｼｽﾞｵｶｼｽﾙｶﾞｸ","kana_address":"ｵｵﾜﾀﾞ","pref":"静岡県","city":"静岡市駿河区","address":"大和田"},
{"zip_code":"4210135","kana_pref":"ｼｽﾞｵｶｹﾝ","kana_city":"ｼｽﾞｵｶｼｽﾙｶﾞｸ","kana_address":"ｵｻｶ","pref":"静岡県","city":"静岡市駿河区","address":"小坂"},
{"zip_code":"4210133","kana_pref":"ｼｽﾞｵｶｹﾝ","kana_city":"ｼｽﾞｵｶｼｽﾙｶﾞｸ","kana_address":"ｶﾏﾀ","pref":"静岡県","city":"静岡市駿河区","address":"鎌田"},
{"zip_code":"4210132","kana_pref":"ｼｽﾞｵｶｹﾝ","kana_city":"ｼｽﾞｵｶｼｽﾙｶﾞｸ","kana_address":"ｶﾐｶﾜﾊﾗ","pref":"静岡県","city":"静岡市駿河区","address":"上川原"},
{"zip_code":"4210106","kana_pref":"ｼｽﾞｵｶｹﾝ","kana_city":"ｼｽﾞｵｶｼｽﾙｶﾞｸ","kana_address":"ｷﾀﾏﾘｺ","pref":"静岡県","city":"静岡市駿河区","address":"北丸子"},
{"zip_code":"4210116","kana_pref":"ｼｽﾞｵｶｹﾝ","kana_city":"ｼｽﾞｵｶｼｽﾙｶﾞｸ","kana_address":"ｺｳﾖｳﾁｮｳ","pref":"静岡県","city":"静岡市駿河区","address":"光陽町"},
{"zip_code":"4210113","kana_pref":"ｼｽﾞｵｶｹﾝ","kana_city":"ｼｽﾞｵｶｼｽﾙｶﾞｸ","kana_address":"ｼﾓｶﾜﾊﾗ","pref":"静岡県","city":"静岡市駿河区","address":"下川原"},
{"zip_code":"4210117","kana_pref":"ｼｽﾞｵｶｹﾝ","kana_city":"ｼｽﾞｵｶｼｽﾙｶﾞｸ","kana_address":"ｼﾓｶﾜﾊﾗﾐﾅﾐ","pref":"静岡県","city":"静岡市駿河区","address":"下川原南"},
{"zip_code":"4210123","kana_pref":"ｼｽﾞｵｶｹﾝ","kana_city":"ｼｽﾞｵｶｼｽﾙｶﾞｸ","kana_address":"ｾｷﾍﾞ","pref":"静岡県","city":"静岡市駿河区","address":"石部"},
{"zip_code":"4210102","kana_pref":"ｼｽﾞｵｶｹﾝ","kana_city":"ｼｽﾞｵｶｼｽﾙｶﾞｸ","kana_address":"ﾃｺﾞｼ","pref":"静岡県","city":"静岡市駿河区","address":"手越"},
{"zip_code":"4210131","kana_pref":"ｼｽﾞｵｶｹﾝ","kana_city":"ｼｽﾞｵｶｼｽﾙｶﾞｸ","kana_address":"ﾃｺﾞｼﾊﾗ","pref":"静岡県","city":"静岡市駿河区","address":"手越原"},
{"zip_code":"4210137","kana_pref":"ｼｽﾞｵｶｹﾝ","kana_city":"ｼｽﾞｵｶｼｽﾙｶﾞｸ","kana_address":"ﾃﾗﾀﾞ","pref":"静岡県","city":"静岡市駿河区","address":"寺田"},
{"zip_code":"4210112","kana_pref":"ｼｽﾞｵｶｹﾝ","kana_city":"ｼｽﾞｵｶｼｽﾙｶﾞｸ","kana_address":"ﾄｳｼﾝﾃﾞﾝ","pref":"静岡県","city":"静岡市駿河区","address":"東新田"},
{"zip_code":"4210121","kana_pref":"ｼｽﾞｵｶｹﾝ","kana_city":"ｼｽﾞｵｶｼｽﾙｶﾞｸ","kana_address":"ﾋﾛﾉ","pref":"静岡県","city":"静岡市駿河区","address":"広野"},
{"zip_code":"4210103","kana_pref":"ｼｽﾞｵｶｹﾝ","kana_city":"ｼｽﾞｵｶｼｽﾙｶﾞｸ","kana_address":"ﾏﾘｺ","pref":"静岡県","city":"静岡市駿河区","address":"丸子"},
{"zip_code":"4210111","kana_pref":"ｼｽﾞｵｶｹﾝ","kana_city":"ｼｽﾞｵｶｼｽﾙｶﾞｸ","kana_address":"ﾏﾘｺｼﾝﾃﾞﾝ","pref":"静岡県","city":"静岡市駿河区","address":"丸子新田"},
{"zip_code":"4210104","kana_pref":"ｼｽﾞｵｶｹﾝ","kana_city":"ｼｽﾞｵｶｼｽﾙｶﾞｸ","kana_address":"ﾏﾘｺｾﾘｶﾞﾔﾁｮｳ","pref":"静岡県","city":"静岡市駿河区","address":"丸子芹が谷町"},
{"zip_code":"4210115","kana_pref":"ｼｽﾞｵｶｹﾝ","kana_city":"ｼｽﾞｵｶｼｽﾙｶﾞｸ","kana_address":"ﾐｽﾞﾎ","pref":"静岡県","city":"静岡市駿河区","address":"みずほ"},
{"zip_code":"4210101","kana_pref":"ｼｽﾞｵｶｹﾝ","kana_city":"ｼｽﾞｵｶｼｽﾙｶﾞｸ","kana_address":"ﾑｺｳｼｷｼﾞ","pref":"静岡県","city":"静岡市駿河区","address":"向敷地"},
{"zip_code":"4210122","kana_pref":"ｼｽﾞｵｶｹﾝ","kana_city":"ｼｽﾞｵｶｼｽﾙｶﾞｸ","kana_address":"ﾓﾁﾑﾈ","pref":"静岡県","city":"静岡市駿河区","address":"用宗"},
{"zip_code":"4210125","kana_pref":"ｼｽﾞｵｶｹﾝ","kana_city":"ｼｽﾞｵｶｼｽﾙｶﾞｸ","kana_address":"ﾓﾁﾑﾈｺｲｼﾁｮｳ","pref":"静岡県","city":"静岡市駿河区","address":"用宗小石町"},
{"zip_code":"4210124","kana_pref":"ｼｽﾞｵｶｹﾝ","kana_city":"ｼｽﾞｵｶｼｽﾙｶﾞｸ","kana_address":"ﾓﾁﾑﾈｼﾛﾔﾏﾁｮｳ","pref":"静岡県","city":"静岡市駿河区","address":"用宗城山町"},
{"zip_code":"4210126","kana_pref":"ｼｽﾞｵｶｹﾝ","kana_city":"ｼｽﾞｵｶｼｽﾙｶﾞｸ","kana_address":"ﾓﾁﾑﾈﾄﾓｴﾁｮｳ","pref":"静岡県","city":"静岡市駿河区","address":"用宗巴町"},
{"zip_code":"4210114","kana_pref":"ｼｽﾞｵｶｹﾝ","kana_city":"ｼｽﾞｵｶｼｽﾙｶﾞｸ","kana_address":"ﾓﾓｿﾞﾉﾁｮｳ","pref":"静岡県","city":"静岡市駿河区","address":"桃園町"},
{"zip_code":"4213203","kana_pref":"ｼｽﾞｵｶｹﾝ","kana_city":"ｼｽﾞｵｶｼｼﾐｽﾞｸ","kana_address":"ｶﾝﾊﾞﾗ","pref":"静岡県","city":"静岡市清水区","address":"蒲原"},
{"zip_code":"4213215","kana_pref":"ｼｽﾞｵｶｹﾝ","kana_city":"ｼｽﾞｵｶｼｼﾐｽﾞｸ","kana_address":"ｶﾝﾊﾞﾗｶﾝｻﾞﾜ","pref":"静岡県","city":"静岡市清水区","address":"蒲原神沢"},
{"zip_code":"4213212","kana_pref":"ｼｽﾞｵｶｹﾝ","kana_city":"ｼｽﾞｵｶｼｼﾐｽﾞｸ","kana_address":"ｶﾝﾊﾞﾗｺｶﾞﾈ","pref":"静岡県","city":"静岡市清水区","address":"蒲原小金"},
{"zip_code":"4213202","kana_pref":"ｼｽﾞｵｶｹﾝ","kana_city":"ｼｽﾞｵｶｼｼﾐｽﾞｸ","kana_address":"ｶﾝﾊﾞﾗｼﾝｴｲ","pref":"静岡県","city":"静岡市清水区","address":"蒲原新栄"},
{"zip_code":"4213211","kana_pref":"ｼｽﾞｵｶｹﾝ","kana_city":"ｼｽﾞｵｶｼｼﾐｽﾞｸ","kana_address":"ｶﾝﾊﾞﾗｼﾝﾃﾞﾝ","pref":"静岡県","city":"静岡市清水区","address":"蒲原新田"},
{"zip_code":"4213214","kana_pref":"ｼｽﾞｵｶｹﾝ","kana_city":"ｼｽﾞｵｶｼｼﾐｽﾞｸ","kana_address":"ｶﾝﾊﾞﾗｾｷﾞｻﾞﾜ","pref":"静岡県","city":"静岡市清水区","address":"蒲原堰沢"},
{"zip_code":"4213213","kana_pref":"ｼｽﾞｵｶｹﾝ","kana_city":"ｼｽﾞｵｶｼｼﾐｽﾞｸ","kana_address":"ｶﾝﾊﾞﾗﾅｶ","pref":"静岡県","city":"静岡市清水区","address":"蒲原中"},
{"zip_code":"4213201","kana_pref":"ｼｽﾞｵｶｹﾝ","kana_city":"ｼｽﾞｵｶｼｼﾐｽﾞｸ","kana_address":"ｶﾝﾊﾞﾗﾋｶﾞｼ","pref":"静岡県","city":"静岡市清水区","address":"蒲原東"},
{"zip_code":"4213103","kana_pref":"ｼｽﾞｵｶｹﾝ","kana_city":"ｼｽﾞｵｶｼｼﾐｽﾞｸ","kana_address":"ﾕｲ","pref":"静岡県","city":"静岡市清水区","address":"由比"},
{"zip_code":"4213107","kana_pref":"ｼｽﾞｵｶｹﾝ","kana_city":"ｼｽﾞｵｶｼｼﾐｽﾞｸ","kana_address":"ﾕｲｱｿｳ","pref":"静岡県","city":"静岡市清水区","address":"由比阿僧"},
{"zip_code":"4213111","kana_pref":"ｼｽﾞｵｶｹﾝ","kana_city":"ｼｽﾞｵｶｼｼﾐｽﾞｸ","kana_address":"ﾕｲｲﾏｼﾞｭｸ","pref":"静岡県","city":"静岡市清水区","address":"由比今宿"},
{"zip_code":"4213101","kana_pref":"ｼｽﾞｵｶｹﾝ","kana_city":"ｼｽﾞｵｶｼｼﾐｽﾞｸ","kana_address":"ﾕｲｲﾘﾔﾏ","pref":"静岡県","city":"静岡市清水区","address":"由比入山"},
{"zip_code":"4213104","kana_pref":"ｼｽﾞｵｶｹﾝ","kana_city":"ｼｽﾞｵｶｼｼﾐｽﾞｸ","kana_address":"ﾕｲｷﾀﾀﾞ","pref":"静岡県","city":"静岡市清水区","address":"由比北田"},
{"zip_code":"4213112","kana_pref":"ｼｽﾞｵｶｹﾝ","kana_city":"ｼｽﾞｵｶｼｼﾐｽﾞｸ","kana_address":"ﾕｲﾃﾗｵ","pref":"静岡県","city":"静岡市清水区","address":"由比寺尾"},
{"zip_code":"4213115","kana_pref":"ｼｽﾞｵｶｹﾝ","kana_city":"ｼｽﾞｵｶｼｼﾐｽﾞｸ","kana_address":"ﾕｲﾆｼｸﾗｻﾜ","pref":"静岡県","city":"静岡市清水区","address":"由比西倉澤"},
{"zip_code":"4213106","kana_pref":"ｼｽﾞｵｶｹﾝ","kana_city":"ｼｽﾞｵｶｼｼﾐｽﾞｸ","kana_address":"ﾕｲﾆｼﾔﾏﾃﾞﾗ","pref":"静岡県","city":"静岡市清水区","address":"由比西山寺"},
{"zip_code":"4213114","kana_pref":"ｼｽﾞｵｶｹﾝ","kana_city":"ｼｽﾞｵｶｼｼﾐｽﾞｸ","kana_address":"ﾕｲﾋｶﾞｼｸﾗｻﾜ","pref":"静岡県","city":"静岡市清水区","address":"由比東倉澤"},
{"zip_code":"4213102","kana_pref":"ｼｽﾞｵｶｹﾝ","kana_city":"ｼｽﾞｵｶｼｼﾐｽﾞｸ","kana_address":"ﾕｲﾋｶﾞｼﾔﾏﾃﾞﾗ","pref":"静岡県","city":"静岡市清水区","address":"由比東山寺"},
{"zip_code":"4213105","kana_pref":"ｼｽﾞｵｶｹﾝ","kana_city":"ｼｽﾞｵｶｼｼﾐｽﾞｸ","kana_address":"ﾕｲﾏﾁﾔﾊﾗ","pref":"静岡県","city":"静岡市清水区","address":"由比町屋原"},
{"zip_code":"4213305","kana_pref":"ｼｽﾞｵｶｹﾝ","kana_city":"ﾌｼﾞｼ","kana_address":"ｲﾜﾌﾞﾁ","pref":"静岡県","city":"富士市","address":"岩淵"},
{"zip_code":"4213304","kana_pref":"ｼｽﾞｵｶｹﾝ","kana_city":"ﾌｼﾞｼ","kana_address":"ｷｼﾞﾏ","pref":"静岡県","city":"富士市","address":"木島"},
{"zip_code":"4213301","kana_pref":"ｼｽﾞｵｶｹﾝ","kana_city":"ﾌｼﾞｼ","kana_address":"ｷﾀﾏﾂﾉ","pref":"静岡県","city":"富士市","address":"北松野"},
{"zip_code":"4213306","kana_pref":"ｼｽﾞｵｶｹﾝ","kana_city":"ﾌｼﾞｼ","kana_address":"ﾅｶﾉｺﾞｳ","pref":"静岡県","city":"富士市","address":"中之郷"},
{"zip_code":"4213302","kana_pref":"ｼｽﾞｵｶｹﾝ","kana_city":"ﾌｼﾞｼ","kana_address":"ﾅｶﾉﾀﾞｲ","pref":"静岡県","city":"富士市","address":"中野台"},
{"zip_code":"4213303","kana_pref":"ｼｽﾞｵｶｹﾝ","kana_city":"ﾌｼﾞｼ","kana_address":"ﾐﾅﾐﾏﾂﾉ","pref":"静岡県","city":"富士市","address":"南松野"},
{"zip_code":"4210216","kana_pref":"ｼｽﾞｵｶｹﾝ","kana_city":"ﾔｲﾂﾞｼ","kana_address":"ｱｲｶﾜ","pref":"静岡県","city":"焼津市","address":"相川"},
{"zip_code":"4210217","kana_pref":"ｼｽﾞｵｶｹﾝ","kana_city":"ﾔｲﾂﾞｼ","kana_address":"ｶﾐｲｽﾞﾐ","pref":"静岡県","city":"焼津市","address":"上泉"},
{"zip_code":"4210201","kana_pref":"ｼｽﾞｵｶｹﾝ","kana_city":"ﾔｲﾂﾞｼ","kana_address":"ｶﾐｺｽｷﾞ","pref":"静岡県","city":"焼津市","address":"上小杉"},
{"zip_code":"4210206","kana_pref":"ｼｽﾞｵｶｹﾝ","kana_city":"ﾔｲﾂﾞｼ","kana_address":"ｶﾐｼﾝﾃﾞﾝ","pref":"静岡県","city":"焼津市","address":"上新田"},
{"zip_code":"4210218","kana_pref":"ｼｽﾞｵｶｹﾝ","kana_city":"ﾔｲﾂﾞｼ","kana_address":"ｼﾓｴﾄﾞﾒ","pref":"静岡県","city":"焼津市","address":"下江留"},
{"zip_code":"4210202","kana_pref":"ｼｽﾞｵｶｹﾝ","kana_city":"ﾔｲﾂﾞｼ","kana_address":"ｼﾓｺｽｷﾞ","pref":"静岡県","city":"焼津市","address":"下小杉"},
{"zip_code":"4210204","kana_pref":"ｼｽﾞｵｶｹﾝ","kana_city":"ﾔｲﾂﾞｼ","kana_address":"ﾀｶｼﾝﾃﾞﾝ","pref":"静岡県","city":"焼津市","address":"高新田"},
{"zip_code":"4210214","kana_pref":"ｼｽﾞｵｶｹﾝ","kana_city":"ﾔｲﾂﾞｼ","kana_address":"ﾅｶｼﾞﾏ","pref":"静岡県","city":"焼津市","address":"中島"},
{"zip_code":"4210215","kana_pref":"ｼｽﾞｵｶｹﾝ","kana_city":"ﾔｲﾂﾞｼ","kana_address":"ﾆｼｼﾞﾏ","pref":"静岡県","city":"焼津市","address":"西島"},
{"zip_code":"4210213","kana_pref":"ｼｽﾞｵｶｹﾝ","kana_city":"ﾔｲﾂﾞｼ","kana_address":"ﾊﾌﾞﾁ","pref":"静岡県","city":"焼津市","address":"飯淵"},
{"zip_code":"4210203","kana_pref":"ｼｽﾞｵｶｹﾝ","kana_city":"ﾔｲﾂﾞｼ","kana_address":"ﾌｼﾞﾓﾘ","pref":"静岡県","city":"焼津市","address":"藤守"},
{"zip_code":"4210205","kana_pref":"ｼｽﾞｵｶｹﾝ","kana_city":"ﾔｲﾂﾞｼ","kana_address":"ﾑﾅﾀﾞｶ","pref":"静岡県","city":"焼津市","address":"宗高"},
{"zip_code":"4210211","kana_pref":"ｼｽﾞｵｶｹﾝ","kana_city":"ﾔｲﾂﾞｼ","kana_address":"ﾖｼﾅｶﾞ","pref":"静岡県","city":"焼津市","address":"吉永"},
{"zip_code":"4210212","kana_pref":"ｼｽﾞｵｶｹﾝ","kana_city":"ﾔｲﾂﾞｼ","kana_address":"ﾘｴﾓﾝ","pref":"静岡県","city":"焼津市","address":"利右衛門"},
{"zip_code":"4211103","kana_pref":"ｼｽﾞｵｶｹﾝ","kana_city":"ﾌｼﾞｴﾀﾞｼ","kana_address":"ｵｶﾍﾞﾁｮｳｱｵﾊﾈ","pref":"静岡県","city":"藤枝市","address":"岡部町青羽根"},
{"zip_code":"4211123","kana_pref":"ｼｽﾞｵｶｹﾝ","kana_city":"ﾌｼﾞｴﾀﾞｼ","kana_address":"ｵｶﾍﾞﾁｮｳｲﾘﾉ","pref":"静岡県","city":"藤枝市","address":"岡部町入野"},
{"zip_code":"4211131","kana_pref":"ｼｽﾞｵｶｹﾝ","kana_city":"ﾌｼﾞｴﾀﾞｼ","kana_address":"ｵｶﾍﾞﾁｮｳｳﾂﾀﾆ","pref":"静岡県","city":"藤枝市","address":"岡部町内谷"},
{"zip_code":"4211121","kana_pref":"ｼｽﾞｵｶｹﾝ","kana_city":"ﾌｼﾞｴﾀﾞｼ","kana_address":"ｵｶﾍﾞﾁｮｳｵｶﾍﾞ","pref":"静岡県","city":"藤枝市","address":"岡部町岡部"},
{"zip_code":"4211113","kana_pref":"ｼｽﾞｵｶｹﾝ","kana_city":"ﾌｼﾞｴﾀﾞｼ","kana_address":"ｵｶﾍﾞﾁｮｳｶﾂﾗｼﾏ","pref":"静岡県","city":"藤枝市","address":"岡部町桂島"},
{"zip_code":"4211122","kana_pref":"ｼｽﾞｵｶｹﾝ","kana_city":"ﾌｼﾞｴﾀﾞｼ","kana_address":"ｵｶﾍﾞﾁｮｳｺﾓﾁｻﾞｶ","pref":"静岡県","city":"藤枝市","address":"岡部町子持坂"},
{"zip_code":"4211101","kana_pref":"ｼｽﾞｵｶｹﾝ","kana_city":"ﾌｼﾞｴﾀﾞｼ","kana_address":"ｵｶﾍﾞﾁｮｳﾀﾏﾄﾘ","pref":"静岡県","city":"藤枝市","address":"岡部町玉取"},
{"zip_code":"4211112","kana_pref":"ｼｽﾞｵｶｹﾝ","kana_city":"ﾌｼﾞｴﾀﾞｼ","kana_address":"ｵｶﾍﾞﾁｮｳﾄﾉ","pref":"静岡県","city":"藤枝市","address":"岡部町殿"},
{"zip_code":"4211115","kana_pref":"ｼｽﾞｵｶｹﾝ","kana_city":"ﾌｼﾞｴﾀﾞｼ","kana_address":"ｵｶﾍﾞﾁｮｳﾆｭｳﾌﾈ","pref":"静岡県","city":"藤枝市","address":"岡部町新舟"},
{"zip_code":"4211111","kana_pref":"ｼｽﾞｵｶｹﾝ","kana_city":"ﾌｼﾞｴﾀﾞｼ","kana_address":"ｵｶﾍﾞﾁｮｳﾉﾀｻﾞﾜ","pref":"静岡県","city":"藤枝市","address":"岡部町野田沢"},
{"zip_code":"4211114","kana_pref":"ｼｽﾞｵｶｹﾝ","kana_city":"ﾌｼﾞｴﾀﾞｼ","kana_address":"ｵｶﾍﾞﾁｮｳﾊｻﾏ","pref":"静岡県","city":"藤枝市","address":"岡部町羽佐間"},
{"zip_code":"4211102","kana_pref":"ｼｽﾞｵｶｹﾝ","kana_city":"ﾌｼﾞｴﾀﾞｼ","kana_address":"ｵｶﾍﾞﾁｮｳﾐﾔｼﾞﾏ","pref":"静岡県","city":"藤枝市","address":"岡部町宮島"},
{"zip_code":"4211132","kana_pref":"ｼｽﾞｵｶｹﾝ","kana_city":"ﾌｼﾞｴﾀﾞｼ","kana_address":"ｵｶﾍﾞﾁｮｳﾐﾜ","pref":"静岡県","city":"藤枝市","address":"岡部町三輪"},
{"zip_code":"4211124","kana_pref":"ｼｽﾞｵｶｹﾝ","kana_city":"ﾌｼﾞｴﾀﾞｼ","kana_address":"ｵｶﾍﾞﾁｮｳﾑﾗﾗ","pref":"静岡県","city":"藤枝市","address":"岡部町村良"},
{"zip_code":"4210500","kana_pref":"ｼｽﾞｵｶｹﾝ","kana_city":"ﾏｷﾉﾊﾗｼ","kana_address":"","pref":"静岡県","city":"牧之原市","address":""},
{"zip_code":"4210512","kana_pref":"ｼｽﾞｵｶｹﾝ","kana_city":"ﾏｷﾉﾊﾗｼ","kana_address":"ｵｵｴ","pref":"静岡県","city":"牧之原市","address":"大江"},
{"zip_code":"4210526","kana_pref":"ｼｽﾞｵｶｹﾝ","kana_city":"ﾏｷﾉﾊﾗｼ","kana_address":"ｵｵｻﾜ","pref":"静岡県","city":"牧之原市","address":"大沢"},
{"zip_code":"4210506","kana_pref":"ｼｽﾞｵｶｹﾝ","kana_city":"ﾏｷﾉﾊﾗｼ","kana_address":"ｵｵﾖﾘ","pref":"静岡県","city":"牧之原市","address":"大寄"},
{"zip_code":"4210517","kana_pref":"ｼｽﾞｵｶｹﾝ","kana_city":"ﾏｷﾉﾊﾗｼ","kana_address":"ｵｶﾐ","pref":"静岡県","city":"牧之原市","address":"男神"},
{"zip_code":"4210531","kana_pref":"ｼｽﾞｵｶｹﾝ","kana_city":"ﾏｷﾉﾊﾗｼ","kana_address":"ｵﾁｲ","pref":"静岡県","city":"牧之原市","address":"落居"},
{"zip_code":"4210535","kana_pref":"ｼｽﾞｵｶｹﾝ","kana_city":"ﾏｷﾉﾊﾗｼ","kana_address":"ｶｻﾅ","pref":"静岡県","city":"牧之原市","address":"笠名"},
{"zip_code":"4210511","kana_pref":"ｼｽﾞｵｶｹﾝ","kana_city":"ﾏｷﾉﾊﾗｼ","kana_address":"ｶﾀﾊﾏ","pref":"静岡県","city":"牧之原市","address":"片浜"},
{"zip_code":"4210406","kana_pref":"ｼｽﾞｵｶｹﾝ","kana_city":"ﾏｷﾉﾊﾗｼ","kana_address":"ｶﾂﾀ","pref":"静岡県","city":"牧之原市","address":"勝田"},
{"zip_code":"4210402","kana_pref":"ｼｽﾞｵｶｹﾝ","kana_city":"ﾏｷﾉﾊﾗｼ","kana_address":"ｶﾂﾏ","pref":"静岡県","city":"牧之原市","address":"勝間"},
{"zip_code":"4210414","kana_pref":"ｼｽﾞｵｶｹﾝ","kana_city":"ﾏｷﾉﾊﾗｼ","kana_address":"ｶﾂﾏﾀ","pref":"静岡県","city":"牧之原市","address":"勝俣"},
{"zip_code":"4210525","kana_pref":"ｼｽﾞｵｶｹﾝ","kana_city":"ﾏｷﾉﾊﾗｼ","kana_address":"ｷｼﾞｮｼﾝﾃﾞﾝ","pref":"静岡県","city":"牧之原市","address":"鬼女新田"},
{"zip_code":"4210401","kana_pref":"ｼｽﾞｵｶｹﾝ","kana_city":"ﾏｷﾉﾊﾗｼ","kana_address":"ｷﾘﾔﾏ","pref":"静岡県","city":"牧之原市","address":"切山"},
{"zip_code":"4210504","kana_pref":"ｼｽﾞｵｶｹﾝ","kana_city":"ﾏｷﾉﾊﾗｼ","kana_address":"ｸﾛｺ","pref":"静岡県","city":"牧之原市","address":"黒子"},
{"zip_code":"4210515","kana_pref":"ｼｽﾞｵｶｹﾝ","kana_city":"ﾏｷﾉﾊﾗｼ","kana_address":"ｻｲｻﾝｼﾞ","pref":"静岡県","city":"牧之原市","address":"西山寺"},
{"zip_code":"4210411","kana_pref":"ｼｽﾞｵｶｹﾝ","kana_city":"ﾏｷﾉﾊﾗｼ","kana_address":"ｻｶｸﾞﾁ","pref":"静岡県","city":"牧之原市","address":"坂口"},
{"zip_code":"4210412","kana_pref":"ｼｽﾞｵｶｹﾝ","kana_city":"ﾏｷﾉﾊﾗｼ","kana_address":"ｻｶﾍﾞ","pref":"静岡県","city":"牧之原市","address":"坂部"},
{"zip_code":"4210522","kana_pref":"ｼｽﾞｵｶｹﾝ","kana_city":"ﾏｷﾉﾊﾗｼ","kana_address":"ｻｶﾞﾗ","pref":"静岡県","city":"牧之原市","address":"相良"},
{"zip_code":"4210527","kana_pref":"ｼｽﾞｵｶｹﾝ","kana_city":"ﾏｷﾉﾊﾗｼ","kana_address":"ｼｵﾐﾀﾞｲ","pref":"静岡県","city":"牧之原市","address":"汐見台"},
{"zip_code":"4210404","kana_pref":"ｼｽﾞｵｶｹﾝ","kana_city":"ﾏｷﾉﾊﾗｼ","kana_address":"ｼｽﾞﾀﾆ","pref":"静岡県","city":"牧之原市","address":"静谷"},
{"zip_code":"4210422","kana_pref":"ｼｽﾞｵｶｹﾝ","kana_city":"ﾏｷﾉﾊﾗｼ","kana_address":"ｼｽﾞﾅﾐ","pref":"静岡県","city":"牧之原市","address":"静波"},
{"zip_code":"4210532","kana_pref":"ｼｽﾞｵｶｹﾝ","kana_city":"ﾏｷﾉﾊﾗｼ","kana_address":"ｼﾞﾄｳｶﾞﾀ","pref":"静岡県","city":"牧之原市","address":"地頭方"},
{"zip_code":"4210408","kana_pref":"ｼｽﾞｵｶｹﾝ","kana_city":"ﾏｷﾉﾊﾗｼ","kana_address":"ｼﾏ","pref":"静岡県","city":"牧之原市","address":"嶋"},
{"zip_code":"4210405","kana_pref":"ｼｽﾞｵｶｹﾝ","kana_city":"ﾏｷﾉﾊﾗｼ","kana_address":"ｼﾗｲ","pref":"静岡県","city":"牧之原市","address":"白井"},
{"zip_code":"4210502","kana_pref":"ｼｽﾞｵｶｹﾝ","kana_city":"ﾏｷﾉﾊﾗｼ","kana_address":"ｼﾗｲ","pref":"静岡県","city":"牧之原市","address":"白井"},
{"zip_code":"4210533","kana_pref":"ｼｽﾞｵｶｹﾝ","kana_city":"ﾏｷﾉﾊﾗｼ","kana_address":"ｼﾝｼｮｳ","pref":"静岡県","city":"牧之原市","address":"新庄"},
{"zip_code":"4210514","kana_pref":"ｼｽﾞｵｶｹﾝ","kana_city":"ﾏｷﾉﾊﾗｼ","kana_address":"ｽｹﾞｶﾞﾔ","pref":"静岡県","city":"牧之原市","address":"菅ケ谷"},
{"zip_code":"4210524","kana_pref":"ｼｽﾞｵｶｹﾝ","kana_city":"ﾏｷﾉﾊﾗｼ","kana_address":"ｽｽｷ","pref":"静岡県","city":"牧之原市","address":"須々木"},
{"zip_code":"4210415","kana_pref":"ｼｽﾞｵｶｹﾝ","kana_city":"ﾏｷﾉﾊﾗｼ","kana_address":"ﾄﾞｳｼﾞｮｳ","pref":"静岡県","city":"牧之原市","address":"道場"},
{"zip_code":"4210403","kana_pref":"ｼｽﾞｵｶｹﾝ","kana_city":"ﾏｷﾉﾊﾗｼ","kana_address":"ﾅｶ","pref":"静岡県","city":"牧之原市","address":"中"},
{"zip_code":"4210505","kana_pref":"ｼｽﾞｵｶｹﾝ","kana_city":"ﾏｷﾉﾊﾗｼ","kana_address":"ﾅｶﾆｼ","pref":"静岡県","city":"牧之原市","address":"中西"},
{"zip_code":"4210508","kana_pref":"ｼｽﾞｵｶｹﾝ","kana_city":"ﾏｷﾉﾊﾗｼ","kana_address":"ﾆｼﾊｷﾞﾏ","pref":"静岡県","city":"牧之原市","address":"西萩間"},
{"zip_code":"4210413","kana_pref":"ｼｽﾞｵｶｹﾝ","kana_city":"ﾏｷﾉﾊﾗｼ","kana_address":"ﾆﾀ","pref":"静岡県","city":"牧之原市","address":"仁田"},
{"zip_code":"4210407","kana_pref":"ｼｽﾞｵｶｹﾝ","kana_city":"ﾏｷﾉﾊﾗｼ","kana_address":"ﾇﾉﾋｷﾊﾗ","pref":"静岡県","city":"牧之原市","address":"布引原"},
{"zip_code":"4210523","kana_pref":"ｼｽﾞｵｶｹﾝ","kana_city":"ﾏｷﾉﾊﾗｼ","kana_address":"ﾊﾂﾞ","pref":"静岡県","city":"牧之原市","address":"波津"},
{"zip_code":"4210501","kana_pref":"ｼｽﾞｵｶｹﾝ","kana_city":"ﾏｷﾉﾊﾗｼ","kana_address":"ﾋｶﾞｼﾊｷﾞﾏ","pref":"静岡県","city":"牧之原市","address":"東萩間"},
{"zip_code":"4210503","kana_pref":"ｼｽﾞｵｶｹﾝ","kana_city":"ﾏｷﾉﾊﾗｼ","kana_address":"ﾋﾙｶﾞﾔ","pref":"静岡県","city":"牧之原市","address":"蛭ケ谷"},
{"zip_code":"4210521","kana_pref":"ｼｽﾞｵｶｹﾝ","kana_city":"ﾏｷﾉﾊﾗｼ","kana_address":"ﾌｸｵｶ","pref":"静岡県","city":"牧之原市","address":"福岡"},
{"zip_code":"4210421","kana_pref":"ｼｽﾞｵｶｹﾝ","kana_city":"ﾏｷﾉﾊﾗｼ","kana_address":"ﾎｿｴ","pref":"静岡県","city":"牧之原市","address":"細江"},
{"zip_code":"4210534","kana_pref":"ｼｽﾞｵｶｹﾝ","kana_city":"ﾏｷﾉﾊﾗｼ","kana_address":"ﾎﾘﾉｼﾝﾃﾞﾝ","pref":"静岡県","city":"牧之原市","address":"堀野新田"},
{"zip_code":"4210509","kana_pref":"ｼｽﾞｵｶｹﾝ","kana_city":"ﾏｷﾉﾊﾗｼ","kana_address":"ﾏｷﾉﾊﾗ","pref":"静岡県","city":"牧之原市","address":"牧之原"},
{"zip_code":"4210409","kana_pref":"ｼｽﾞｵｶｹﾝ","kana_city":"ﾏｷﾉﾊﾗｼ","kana_address":"ﾏｷﾉﾊﾗ","pref":"静岡県","city":"牧之原市","address":"牧之原"},
{"zip_code":"4210513","kana_pref":"ｼｽﾞｵｶｹﾝ","kana_city":"ﾏｷﾉﾊﾗｼ","kana_address":"ﾏﾂﾓﾄ","pref":"静岡県","city":"牧之原市","address":"松本"},
{"zip_code":"4210516","kana_pref":"ｼｽﾞｵｶｹﾝ","kana_city":"ﾏｷﾉﾊﾗｼ","kana_address":"ﾒｶﾐ","pref":"静岡県","city":"牧之原市","address":"女神"},
{"zip_code":"4210507","kana_pref":"ｼｽﾞｵｶｹﾝ","kana_city":"ﾏｷﾉﾊﾗｼ","kana_address":"ﾜﾀﾞ","pref":"静岡県","city":"牧之原市","address":"和田"},
{"zip_code":"4210300","kana_pref":"ｼｽﾞｵｶｹﾝ","kana_city":"ﾊｲﾊﾞﾗｸﾞﾝﾖｼﾀﾞﾁｮｳ","kana_address":"","pref":"静岡県","city":"榛原郡吉田町","address":""},
{"zip_code":"4210305","kana_pref":"ｼｽﾞｵｶｹﾝ","kana_city":"ﾊｲﾊﾞﾗｸﾞﾝﾖｼﾀﾞﾁｮｳ","kana_address":"ｵｵﾊﾀ","pref":"静岡県","city":"榛原郡吉田町","address":"大幡"},
{"zip_code":"4210303","kana_pref":"ｼｽﾞｵｶｹﾝ","kana_city":"ﾊｲﾊﾞﾗｸﾞﾝﾖｼﾀﾞﾁｮｳ","kana_address":"ｶﾀｵｶ","pref":"静岡県","city":"榛原郡吉田町","address":"片岡"},
{"zip_code":"4210302","kana_pref":"ｼｽﾞｵｶｹﾝ","kana_city":"ﾊｲﾊﾞﾗｸﾞﾝﾖｼﾀﾞﾁｮｳ","kana_address":"ｶﾜｼﾘ","pref":"静岡県","city":"榛原郡吉田町","address":"川尻"},
{"zip_code":"4210304","kana_pref":"ｼｽﾞｵｶｹﾝ","kana_city":"ﾊｲﾊﾞﾗｸﾞﾝﾖｼﾀﾞﾁｮｳ","kana_address":"ｶﾝﾄﾞ","pref":"静岡県","city":"榛原郡吉田町","address":"神戸"},
{"zip_code":"4210301","kana_pref":"ｼｽﾞｵｶｹﾝ","kana_city":"ﾊｲﾊﾞﾗｸﾞﾝﾖｼﾀﾞﾁｮｳ","kana_address":"ｽﾐﾖｼ","pref":"静岡県","city":"榛原郡吉田町","address":"住吉"}]}