{"zip_code":[
{"zip_code":"4220000","kana_pref":"ｼｽﾞｵｶｹﾝ","kana_city":"ｼｽﾞｵｶｼｱｵｲｸ","kana_address":"","pref":"静岡県","city":"静岡市葵区","address":""},
{"zip_code":"4220000","kana_pref":"ｼｽﾞｵｶｹﾝ","kana_city":"ｼｽﾞｵｶｼｽﾙｶﾞｸ","kana_address":"","pref":"静岡県","city":"静岡市駿河区","address":""},
{"zip_code":"4228014","kana_pref":"ｼｽﾞｵｶｹﾝ","kana_city":"ｼｽﾞｵｶｼｽﾙｶﾞｸ","kana_address":"ｱｵｻﾜ","pref":"静岡県","city":"静岡市駿河区","address":"青沢"},
{"zip_code":"4228012","kana_pref":"ｼｽﾞｵｶｹﾝ","kana_city":"ｼｽﾞｵｶｼｽﾙｶﾞｸ","kana_address":"ｱｺﾞ","pref":"静岡県","city":"静岡市駿河区","address":"安居"},
{"zip_code":"4228031","kana_pref":"ｼｽﾞｵｶｹﾝ","kana_city":"ｼｽﾞｵｶｼｽﾙｶﾞｸ","kana_address":"ｱﾘｱｹﾁｮｳ","pref":"静岡県","city":"静岡市駿河区","address":"有明町"},
{"zip_code":"4228005","kana_pref":"ｼｽﾞｵｶｹﾝ","kana_city":"ｼｽﾞｵｶｼｽﾙｶﾞｸ","kana_address":"ｲｹﾀﾞ","pref":"静岡県","city":"静岡市駿河区","address":"池田"},
{"zip_code":"4228042","kana_pref":"ｼｽﾞｵｶｹﾝ","kana_city":"ｼｽﾞｵｶｼｽﾙｶﾞｸ","kana_address":"ｲｼﾀﾞ","pref":"静岡県","city":"静岡市駿河区","address":"石田"},
{"zip_code":"4228066","kana_pref":"ｼｽﾞｵｶｹﾝ","kana_city":"ｼｽﾞｵｶｼｽﾙｶﾞｸ","kana_address":"ｲｽﾞﾐﾁｮｳ","pref":"静岡県","city":"静岡市駿河区","address":"泉町"},
{"zip_code":"4228062","kana_pref":"ｼｽﾞｵｶｹﾝ","kana_city":"ｼｽﾞｵｶｼｽﾙｶﾞｸ","kana_address":"ｲﾅｶﾞﾜ","pref":"静岡県","city":"静岡市駿河区","address":"稲川"},
{"zip_code":"4228032","kana_pref":"ｼｽﾞｵｶｹﾝ","kana_city":"ｼｽﾞｵｶｼｽﾙｶﾞｸ","kana_address":"ｳﾄｳ","pref":"静岡県","city":"静岡市駿河区","address":"有東"},
{"zip_code":"4228075","kana_pref":"ｼｽﾞｵｶｹﾝ","kana_city":"ｼｽﾞｵｶｼｽﾙｶﾞｸ","kana_address":"ｵｵﾂﾎﾞﾁｮｳ","pref":"静岡県","city":"静岡市駿河区","address":"大坪町"},
{"zip_code":"4228017","kana_pref":"ｼｽﾞｵｶｹﾝ","kana_city":"ｼｽﾞｵｶｼｽﾙｶﾞｸ","kana_address":"ｵｵﾔ","pref":"静岡県","city":"静岡市駿河区","address":"大谷"},
{"zip_code":"4228072","kana_pref":"ｼｽﾞｵｶｹﾝ","kana_city":"ｼｽﾞｵｶｼｽﾙｶﾞｸ","kana_address":"ｵｸﾞﾛ","pref":"静岡県","city":"静岡市駿河区","address":"小黒"},
{"zip_code":"4228021","kana_pref":"ｼｽﾞｵｶｹﾝ","kana_city":"ｼｽﾞｵｶｼｽﾙｶﾞｸ","kana_address":"ｵｼｶ","pref":"静岡県","city":"静岡市駿河区","address":"小鹿"},
{"zip_code":"4228022","kana_pref":"ｼｽﾞｵｶｹﾝ","kana_city":"ｼｽﾞｵｶｼｽﾙｶﾞｸ","kana_address":"ｵﾝﾀﾞﾊﾞﾗ","pref":"静岡県","city":"静岡市駿河区","address":"恩田原"},
{"zip_code":"4228023","kana_pref":"ｼｽﾞｵｶｹﾝ","kana_city":"ｼｽﾞｵｶｼｽﾙｶﾞｸ","kana_address":"ｶﾀﾔﾏ","pref":"静岡県","city":"静岡市駿河区","address":"片山"},
{"zip_code":"4228004","kana_pref":"ｼｽﾞｵｶｹﾝ","kana_city":"ｼｽﾞｵｶｼｽﾙｶﾞｸ","kana_address":"ｸﾆﾖｼﾀﾞ","pref":"静岡県","city":"静岡市駿河区","address":"国吉田"},
{"zip_code":"4228008","kana_pref":"ｼｽﾞｵｶｹﾝ","kana_city":"ｼｽﾞｵｶｼｽﾙｶﾞｸ","kana_address":"ｸﾘﾊﾗ","pref":"静岡県","city":"静岡市駿河区","address":"栗原"},
{"zip_code":"4228055","kana_pref":"ｼｽﾞｵｶｹﾝ","kana_city":"ｼｽﾞｵｶｼｽﾙｶﾞｸ","kana_address":"ｺﾄﾌﾞｷﾁｮｳ","pref":"静岡県","city":"静岡市駿河区","address":"寿町"},
{"zip_code":"4228078","kana_pref":"ｼｽﾞｵｶｹﾝ","kana_city":"ｼｽﾞｵｶｼｽﾙｶﾞｸ","kana_address":"ｻﾂｷﾁｮｳ","pref":"静岡県","city":"静岡市駿河区","address":"さつき町"},
{"zip_code":"4228036","kana_pref":"ｼｽﾞｵｶｹﾝ","kana_city":"ｼｽﾞｵｶｼｽﾙｶﾞｸ","kana_address":"ｼｷｼﾞ","pref":"静岡県","city":"静岡市駿河区","address":"敷地"},
{"zip_code":"4228037","kana_pref":"ｼｽﾞｵｶｹﾝ","kana_city":"ｼｽﾞｵｶｼｽﾙｶﾞｸ","kana_address":"ｼﾓｼﾞﾏ","pref":"静岡県","city":"静岡市駿河区","address":"下島"},
{"zip_code":"4228064","kana_pref":"ｼｽﾞｵｶｹﾝ","kana_city":"ｼｽﾞｵｶｼｽﾙｶﾞｸ","kana_address":"ｼﾝｶﾜ","pref":"静岡県","city":"静岡市駿河区","address":"新川"},
{"zip_code":"4228034","kana_pref":"ｼｽﾞｵｶｹﾝ","kana_city":"ｼｽﾞｵｶｼｽﾙｶﾞｸ","kana_address":"ﾀｶﾏﾂ","pref":"静岡県","city":"静岡市駿河区","address":"高松"},
{"zip_code":"4228056","kana_pref":"ｼｽﾞｵｶｹﾝ","kana_city":"ｼｽﾞｵｶｼｽﾙｶﾞｸ","kana_address":"ﾂｼﾏﾁｮｳ","pref":"静岡県","city":"静岡市駿河区","address":"津島町"},
{"zip_code":"4228027","kana_pref":"ｼｽﾞｵｶｹﾝ","kana_city":"ｼｽﾞｵｶｼｽﾙｶﾞｸ","kana_address":"ﾄﾖﾀﾞ","pref":"静岡県","city":"静岡市駿河区","address":"豊田"},
{"zip_code":"4228071","kana_pref":"ｼｽﾞｵｶｹﾝ","kana_city":"ｼｽﾞｵｶｼｽﾙｶﾞｸ","kana_address":"ﾄﾖﾊﾗﾁｮｳ","pref":"静岡県","city":"静岡市駿河区","address":"豊原町"},
{"zip_code":"4228033","kana_pref":"ｼｽﾞｵｶｹﾝ","kana_city":"ｼｽﾞｵｶｼｽﾙｶﾞｸ","kana_address":"ﾄﾛ","pref":"静岡県","city":"静岡市駿河区","address":"登呂"},
{"zip_code":"4228046","kana_pref":"ｼｽﾞｵｶｹﾝ","kana_city":"ｼｽﾞｵｶｼｽﾙｶﾞｸ","kana_address":"ﾅｶｼﾞﾏ","pref":"静岡県","city":"静岡市駿河区","address":"中島"},
{"zip_code":"4228041","kana_pref":"ｼｽﾞｵｶｹﾝ","kana_city":"ｼｽﾞｵｶｼｽﾙｶﾞｸ","kana_address":"ﾅｶﾀﾞ","pref":"静岡県","city":"静岡市駿河区","address":"中田"},
{"zip_code":"4228043","kana_pref":"ｼｽﾞｵｶｹﾝ","kana_city":"ｼｽﾞｵｶｼｽﾙｶﾞｸ","kana_address":"ﾅｶﾀﾞﾎﾝﾁｮｳ","pref":"静岡県","city":"静岡市駿河区","address":"中田本町"},
{"zip_code":"4228051","kana_pref":"ｼｽﾞｵｶｹﾝ","kana_city":"ｼｽﾞｵｶｼｽﾙｶﾞｸ","kana_address":"ﾅｶﾉｼﾝﾃﾞﾝ","pref":"静岡県","city":"静岡市駿河区","address":"中野新田"},
{"zip_code":"4228058","kana_pref":"ｼｽﾞｵｶｹﾝ","kana_city":"ｼｽﾞｵｶｼｽﾙｶﾞｸ","kana_address":"ﾅｶﾊﾗ","pref":"静岡県","city":"静岡市駿河区","address":"中原"},
{"zip_code":"4228015","kana_pref":"ｼｽﾞｵｶｹﾝ","kana_city":"ｼｽﾞｵｶｼｽﾙｶﾞｸ","kana_address":"ﾅｶﾋﾗﾏﾂ","pref":"静岡県","city":"静岡市駿河区","address":"中平松"},
{"zip_code":"4228047","kana_pref":"ｼｽﾞｵｶｹﾝ","kana_city":"ｼｽﾞｵｶｼｽﾙｶﾞｸ","kana_address":"ﾅｶﾑﾗﾁｮｳ","pref":"静岡県","city":"静岡市駿河区","address":"中村町"},
{"zip_code":"4228001","kana_pref":"ｼｽﾞｵｶｹﾝ","kana_city":"ｼｽﾞｵｶｼｽﾙｶﾞｸ","kana_address":"ﾅｶﾖｼﾀﾞ","pref":"静岡県","city":"静岡市駿河区","address":"中吉田"},
{"zip_code":"4228018","kana_pref":"ｼｽﾞｵｶｹﾝ","kana_city":"ｼｽﾞｵｶｼｽﾙｶﾞｸ","kana_address":"ﾆｼｵｵﾔ","pref":"静岡県","city":"静岡市駿河区","address":"西大谷"},
{"zip_code":"4228045","kana_pref":"ｼｽﾞｵｶｹﾝ","kana_city":"ｼｽﾞｵｶｼｽﾙｶﾞｸ","kana_address":"ﾆｼｼﾞﾏ","pref":"静岡県","city":"静岡市駿河区","address":"西島"},
{"zip_code":"4228053","kana_pref":"ｼｽﾞｵｶｹﾝ","kana_city":"ｼｽﾞｵｶｼｽﾙｶﾞｸ","kana_address":"ﾆｼﾅｶﾊﾗ","pref":"静岡県","city":"静岡市駿河区","address":"西中原"},
{"zip_code":"4228016","kana_pref":"ｼｽﾞｵｶｹﾝ","kana_city":"ｼｽﾞｵｶｼｽﾙｶﾞｸ","kana_address":"ﾆｼﾋﾗﾏﾂ","pref":"静岡県","city":"静岡市駿河区","address":"西平松"},
{"zip_code":"4228044","kana_pref":"ｼｽﾞｵｶｹﾝ","kana_city":"ｼｽﾞｵｶｼｽﾙｶﾞｸ","kana_address":"ﾆｼﾜｷ","pref":"静岡県","city":"静岡市駿河区","address":"西脇"},
{"zip_code":"4228011","kana_pref":"ｼｽﾞｵｶｹﾝ","kana_city":"ｼｽﾞｵｶｼｽﾙｶﾞｸ","kana_address":"ﾈｺﾞﾔ","pref":"静岡県","city":"静岡市駿河区","address":"根古屋"},
{"zip_code":"4228007","kana_pref":"ｼｽﾞｵｶｹﾝ","kana_city":"ｼｽﾞｵｶｼｽﾙｶﾞｸ","kana_address":"ﾋｼﾞﾘｲｯｼｷ","pref":"静岡県","city":"静岡市駿河区","address":"聖一色"},
{"zip_code":"4228003","kana_pref":"ｼｽﾞｵｶｹﾝ","kana_city":"ｼｽﾞｵｶｼｽﾙｶﾞｸ","kana_address":"ﾋﾗｻﾜ","pref":"静岡県","city":"静岡市駿河区","address":"平沢"},
{"zip_code":"4228026","kana_pref":"ｼｽﾞｵｶｹﾝ","kana_city":"ｼｽﾞｵｶｼｽﾙｶﾞｸ","kana_address":"ﾌｼﾞﾐﾀﾞｲ","pref":"静岡県","city":"静岡市駿河区","address":"富士見台"},
{"zip_code":"4228013","kana_pref":"ｼｽﾞｵｶｹﾝ","kana_city":"ｼｽﾞｵｶｼｽﾙｶﾞｸ","kana_address":"ﾌﾙﾔﾄﾞ","pref":"静岡県","city":"静岡市駿河区","address":"古宿"},
{"zip_code":"4228006","kana_pref":"ｼｽﾞｵｶｹﾝ","kana_city":"ｼｽﾞｵｶｼｽﾙｶﾞｸ","kana_address":"ﾏｶﾞﾘｶﾈ","pref":"静岡県","city":"静岡市駿河区","address":"曲金"},
{"zip_code":"4228063","kana_pref":"ｼｽﾞｵｶｹﾝ","kana_city":"ｼｽﾞｵｶｼｽﾙｶﾞｸ","kana_address":"ﾏﾌﾞﾁ","pref":"静岡県","city":"静岡市駿河区","address":"馬渕"},
{"zip_code":"4228025","kana_pref":"ｼｽﾞｵｶｹﾝ","kana_city":"ｼｽﾞｵｶｼｽﾙｶﾞｸ","kana_address":"ﾐｽﾞｶﾐ","pref":"静岡県","city":"静岡市駿河区","address":"水上"},
{"zip_code":"4228057","kana_pref":"ｼｽﾞｵｶｹﾝ","kana_city":"ｼｽﾞｵｶｼｽﾙｶﾞｸ","kana_address":"ﾐｾ","pref":"静岡県","city":"静岡市駿河区","address":"見瀬"},
{"zip_code":"4228052","kana_pref":"ｼｽﾞｵｶｹﾝ","kana_city":"ｼｽﾞｵｶｼｽﾙｶﾞｸ","kana_address":"ﾐﾄﾞﾘｶﾞｵｶﾁｮｳ","pref":"静岡県","city":"静岡市駿河区","address":"緑が丘町"},
{"zip_code":"4228054","kana_pref":"ｼｽﾞｵｶｹﾝ","kana_city":"ｼｽﾞｵｶｼｽﾙｶﾞｸ","kana_address":"ﾐﾅﾐｱﾍﾞ","pref":"静岡県","city":"静岡市駿河区","address":"南安倍"},
{"zip_code":"4228067","kana_pref":"ｼｽﾞｵｶｹﾝ","kana_city":"ｼｽﾞｵｶｼｽﾙｶﾞｸ","kana_address":"ﾐﾅﾐﾁｮｳ","pref":"静岡県","city":"静岡市駿河区","address":"南町"},
{"zip_code":"4228074","kana_pref":"ｼｽﾞｵｶｹﾝ","kana_city":"ｼｽﾞｵｶｼｽﾙｶﾞｸ","kana_address":"ﾐﾅﾐﾔﾊﾀﾁｮｳ","pref":"静岡県","city":"静岡市駿河区","address":"南八幡町"},
{"zip_code":"4228024","kana_pref":"ｼｽﾞｵｶｹﾝ","kana_city":"ｼｽﾞｵｶｼｽﾙｶﾞｸ","kana_address":"ﾐﾔｶﾞﾜ","pref":"静岡県","city":"静岡市駿河区","address":"宮川"},
{"zip_code":"4228035","kana_pref":"ｼｽﾞｵｶｹﾝ","kana_city":"ｼｽﾞｵｶｼｽﾙｶﾞｸ","kana_address":"ﾐﾔﾀｹ","pref":"静岡県","city":"静岡市駿河区","address":"宮竹"},
{"zip_code":"4228065","kana_pref":"ｼｽﾞｵｶｹﾝ","kana_city":"ｼｽﾞｵｶｼｽﾙｶﾞｸ","kana_address":"ﾐﾔﾓﾄﾁｮｳ","pref":"静岡県","city":"静岡市駿河区","address":"宮本町"},
{"zip_code":"4228061","kana_pref":"ｼｽﾞｵｶｹﾝ","kana_city":"ｼｽﾞｵｶｼｽﾙｶﾞｸ","kana_address":"ﾓﾘｼﾀﾁｮｳ","pref":"静岡県","city":"静岡市駿河区","address":"森下町"},
{"zip_code":"4228002","kana_pref":"ｼｽﾞｵｶｹﾝ","kana_city":"ｼｽﾞｵｶｼｽﾙｶﾞｸ","kana_address":"ﾔﾀﾞ","pref":"静岡県","city":"静岡市駿河区","address":"谷田"},
{"zip_code":"4228076","kana_pref":"ｼｽﾞｵｶｹﾝ","kana_city":"ｼｽﾞｵｶｼｽﾙｶﾞｸ","kana_address":"ﾔﾊﾀ","pref":"静岡県","city":"静岡市駿河区","address":"八幡"},
{"zip_code":"4228073","kana_pref":"ｼｽﾞｵｶｹﾝ","kana_city":"ｼｽﾞｵｶｼｽﾙｶﾞｸ","kana_address":"ﾔﾊﾀﾔﾏ","pref":"静岡県","city":"静岡市駿河区","address":"八幡山"},
{"zip_code":"4228077","kana_pref":"ｼｽﾞｵｶｹﾝ","kana_city":"ｼｽﾞｵｶｼｽﾙｶﾞｸ","kana_address":"ﾔﾏﾄ","pref":"静岡県","city":"静岡市駿河区","address":"大和"},
{"zip_code":"4228009","kana_pref":"ｼｽﾞｵｶｹﾝ","kana_city":"ｼｽﾞｵｶｼｽﾙｶﾞｸ","kana_address":"ﾔﾖｲﾁｮｳ","pref":"静岡県","city":"静岡市駿河区","address":"弥生町"},
{"zip_code":"4220000","kana_pref":"ｼｽﾞｵｶｹﾝ","kana_city":"ｼｽﾞｵｶｼｼﾐｽﾞｸ","kana_address":"","pref":"静岡県","city":"静岡市清水区","address":""}]}