{"zip_code":[
{"zip_code":"4240821","kana_pref":"ｼｽﾞｵｶｹﾝ","kana_city":"ｼｽﾞｵｶｼｼﾐｽﾞｸ","kana_address":"ｱｲｵｲﾁｮｳ","pref":"静岡県","city":"静岡市清水区","address":"相生町"},
{"zip_code":"4240805","kana_pref":"ｼｽﾞｵｶｹﾝ","kana_city":"ｼｽﾞｵｶｼｼﾐｽﾞｸ","kana_address":"ｱｲｿﾞﾒﾁｮｳ","pref":"静岡県","city":"静岡市清水区","address":"愛染町"},
{"zip_code":"4240843","kana_pref":"ｼｽﾞｵｶｹﾝ","kana_city":"ｼｽﾞｵｶｼｼﾐｽﾞｸ","kana_address":"ｱｵﾊﾞﾁｮｳ","pref":"静岡県","city":"静岡市清水区","address":"青葉町"},
{"zip_code":"4240801","kana_pref":"ｼｽﾞｵｶｹﾝ","kana_city":"ｼｽﾞｵｶｼｼﾐｽﾞｸ","kana_address":"ｱｷﾖｼﾁｮｳ","pref":"静岡県","city":"静岡市清水区","address":"秋吉町"},
{"zip_code":"4240822","kana_pref":"ｼｽﾞｵｶｹﾝ","kana_city":"ｼｽﾞｵｶｼｼﾐｽﾞｸ","kana_address":"ｱｻﾋﾁｮｳ","pref":"静岡県","city":"静岡市清水区","address":"旭町"},
{"zip_code":"4240838","kana_pref":"ｼｽﾞｵｶｹﾝ","kana_city":"ｼｽﾞｵｶｼｼﾐｽﾞｸ","kana_address":"ｱﾜｼﾏﾁｮｳ","pref":"静岡県","city":"静岡市清水区","address":"淡島町"},
{"zip_code":"4240027","kana_pref":"ｼｽﾞｵｶｹﾝ","kana_city":"ｼｽﾞｵｶｼｼﾐｽﾞｸ","kana_address":"ｲｲﾀﾞﾁｮｳ","pref":"静岡県","city":"静岡市清水区","address":"飯田町"},
{"zip_code":"4240112","kana_pref":"ｼｽﾞｵｶｹﾝ","kana_city":"ｼｽﾞｵｶｼｼﾐｽﾞｸ","kana_address":"ｲｻﾌﾞ","pref":"静岡県","city":"静岡市清水区","address":"伊佐布"},
{"zip_code":"4240005","kana_pref":"ｼｽﾞｵｶｹﾝ","kana_city":"ｼｽﾞｵｶｼｼﾐｽﾞｸ","kana_address":"ｲｼｶﾜ","pref":"静岡県","city":"静岡市清水区","address":"石川"},
{"zip_code":"4240007","kana_pref":"ｼｽﾞｵｶｹﾝ","kana_city":"ｼｽﾞｵｶｼｼﾐｽﾞｸ","kana_address":"ｲｼｶﾜｼﾝﾏﾁ","pref":"静岡県","city":"静岡市清水区","address":"石川新町"},
{"zip_code":"4240006","kana_pref":"ｼｽﾞｵｶｹﾝ","kana_city":"ｼｽﾞｵｶｼｼﾐｽﾞｸ","kana_address":"ｲｼｶﾜﾎﾝﾁｮｳ","pref":"静岡県","city":"静岡市清水区","address":"石川本町"},
{"zip_code":"4240114","kana_pref":"ｼｽﾞｵｶｹﾝ","kana_city":"ｼｽﾞｵｶｼｼﾐｽﾞｸ","kana_address":"ｲﾊﾗﾁｮｳ","pref":"静岡県","city":"静岡市清水区","address":"庵原町"},
{"zip_code":"4240874","kana_pref":"ｼｽﾞｵｶｹﾝ","kana_city":"ｼｽﾞｵｶｼｼﾐｽﾞｸ","kana_address":"ｲﾏｲｽﾞﾐ","pref":"静岡県","city":"静岡市清水区","address":"今泉"},
{"zip_code":"4240831","kana_pref":"ｼｽﾞｵｶｹﾝ","kana_city":"ｼｽﾞｵｶｼｼﾐｽﾞｸ","kana_address":"ｲﾘｴ","pref":"静岡県","city":"静岡市清水区","address":"入江"},
{"zip_code":"4240839","kana_pref":"ｼｽﾞｵｶｹﾝ","kana_city":"ｼｽﾞｵｶｼｼﾐｽﾞｸ","kana_address":"ｲﾘｴｵｶﾁｮｳ","pref":"静岡県","city":"静岡市清水区","address":"入江岡町"},
{"zip_code":"4240832","kana_pref":"ｼｽﾞｵｶｹﾝ","kana_city":"ｼｽﾞｵｶｼｼﾐｽﾞｸ","kana_address":"ｲﾘｴﾐﾅﾐﾁｮｳ","pref":"静岡県","city":"静岡市清水区","address":"入江南町"},
{"zip_code":"4240942","kana_pref":"ｼｽﾞｵｶｹﾝ","kana_city":"ｼｽﾞｵｶｼｼﾐｽﾞｸ","kana_address":"ｲﾘﾌﾈﾁｮｳ","pref":"静岡県","city":"静岡市清水区","address":"入船町"},
{"zip_code":"4240873","kana_pref":"ｼｽﾞｵｶｹﾝ","kana_city":"ｼｽﾞｵｶｼｼﾐｽﾞｸ","kana_address":"ｳﾄｳｻﾞｶ","pref":"静岡県","city":"静岡市清水区","address":"有東坂"},
{"zip_code":"4240879","kana_pref":"ｼｽﾞｵｶｹﾝ","kana_city":"ｼｽﾞｵｶｼｼﾐｽﾞｸ","kana_address":"ｳﾄﾞﾎﾝﾁｮｳ","pref":"静岡県","city":"静岡市清水区","address":"有度本町"},
{"zip_code":"4240938","kana_pref":"ｼｽﾞｵｶｹﾝ","kana_city":"ｼｽﾞｵｶｼｼﾐｽﾞｸ","kana_address":"ｳﾒｶﾞｵｶ","pref":"静岡県","city":"静岡市清水区","address":"梅が岡"},
{"zip_code":"4240001","kana_pref":"ｼｽﾞｵｶｹﾝ","kana_city":"ｼｽﾞｵｶｼｼﾐｽﾞｸ","kana_address":"ｳﾒｶﾞﾔ","pref":"静岡県","city":"静岡市清水区","address":"梅ケ谷"},
{"zip_code":"4240948","kana_pref":"ｼｽﾞｵｶｹﾝ","kana_city":"ｼｽﾞｵｶｼｼﾐｽﾞｸ","kana_address":"ｳﾒﾀﾞﾁｮｳ","pref":"静岡県","city":"静岡市清水区","address":"梅田町"},
{"zip_code":"4240871","kana_pref":"ｼｽﾞｵｶｹﾝ","kana_city":"ｼｽﾞｵｶｼｼﾐｽﾞｸ","kana_address":"ｳﾜﾊﾗ","pref":"静岡県","city":"静岡市清水区","address":"上原"},
{"zip_code":"4240043","kana_pref":"ｼｽﾞｵｶｹﾝ","kana_city":"ｼｽﾞｵｶｼｼﾐｽﾞｸ","kana_address":"ｴｲﾗｸﾁｮｳ","pref":"静岡県","city":"静岡市清水区","address":"永楽町"},
{"zip_code":"4240044","kana_pref":"ｼｽﾞｵｶｹﾝ","kana_city":"ｼｽﾞｵｶｼｼﾐｽﾞｸ","kana_address":"ｴｼﾞﾘﾀﾞｲﾏﾁ","pref":"静岡県","city":"静岡市清水区","address":"江尻台町"},
{"zip_code":"4240818","kana_pref":"ｼｽﾞｵｶｹﾝ","kana_city":"ｼｽﾞｵｶｼｼﾐｽﾞｸ","kana_address":"ｴｼﾞﾘﾁｮｳ","pref":"静岡県","city":"静岡市清水区","address":"江尻町"},
{"zip_code":"4240815","kana_pref":"ｼｽﾞｵｶｹﾝ","kana_city":"ｼｽﾞｵｶｼｼﾐｽﾞｸ","kana_address":"ｴｼﾞﾘﾋｶﾞｼ","pref":"静岡県","city":"静岡市清水区","address":"江尻東"},
{"zip_code":"4240054","kana_pref":"ｼｽﾞｵｶｹﾝ","kana_city":"ｼｽﾞｵｶｼｼﾐｽﾞｸ","kana_address":"ｴﾋﾞｽﾁｮｳ","pref":"静岡県","city":"静岡市清水区","address":"恵比寿町"},
{"zip_code":"4240841","kana_pref":"ｼｽﾞｵｶｹﾝ","kana_city":"ｼｽﾞｵｶｼｼﾐｽﾞｸ","kana_address":"ｵｲﾜｹ","pref":"静岡県","city":"静岡市清水区","address":"追分"},
{"zip_code":"4240061","kana_pref":"ｼｽﾞｵｶｹﾝ","kana_city":"ｼｽﾞｵｶｼｼﾐｽﾞｸ","kana_address":"ｵｵｳﾁ","pref":"静岡県","city":"静岡市清水区","address":"大内"},
{"zip_code":"4240062","kana_pref":"ｼｽﾞｵｶｹﾝ","kana_city":"ｼｽﾞｵｶｼｼﾐｽﾞｸ","kana_address":"ｵｵｳﾁｼﾝﾃﾞﾝ","pref":"静岡県","city":"静岡市清水区","address":"大内新田"},
{"zip_code":"4240858","kana_pref":"ｼｽﾞｵｶｹﾝ","kana_city":"ｼｽﾞｵｶｼｼﾐｽﾞｸ","kana_address":"ｵｵｻﾜﾁｮｳ","pref":"静岡県","city":"静岡市清水区","address":"大沢町"},
{"zip_code":"4240847","kana_pref":"ｼｽﾞｵｶｹﾝ","kana_city":"ｼｽﾞｵｶｼｼﾐｽﾞｸ","kana_address":"ｵｵﾂﾎﾞ","pref":"静岡県","city":"静岡市清水区","address":"大坪"},
{"zip_code":"4240808","kana_pref":"ｼｽﾞｵｶｹﾝ","kana_city":"ｼｽﾞｵｶｼｼﾐｽﾞｸ","kana_address":"ｵｵﾃ","pref":"静岡県","city":"静岡市清水区","address":"大手"},
{"zip_code":"4240411","kana_pref":"ｼｽﾞｵｶｹﾝ","kana_city":"ｼｽﾞｵｶｼｼﾐｽﾞｸ","kana_address":"ｵｵﾋﾗ","pref":"静岡県","city":"静岡市清水区","address":"大平"},
{"zip_code":"4240931","kana_pref":"ｼｽﾞｵｶｹﾝ","kana_city":"ｼｽﾞｵｶｼｼﾐｽﾞｸ","kana_address":"ｵｶﾏﾁ","pref":"静岡県","city":"静岡市清水区","address":"岡町"},
{"zip_code":"4240203","kana_pref":"ｼｽﾞｵｶｹﾝ","kana_city":"ｼｽﾞｵｶｼｼﾐｽﾞｸ","kana_address":"ｵｷﾂｱｽﾞﾏﾁｮｳ","pref":"静岡県","city":"静岡市清水区","address":"興津東町"},
{"zip_code":"4240202","kana_pref":"ｼｽﾞｵｶｹﾝ","kana_city":"ｼｽﾞｵｶｼｼﾐｽﾞｸ","kana_address":"ｵｷﾂｲﾉｳｴﾁｮｳ","pref":"静岡県","city":"静岡市清水区","address":"興津井上町"},
{"zip_code":"4240206","kana_pref":"ｼｽﾞｵｶｹﾝ","kana_city":"ｼｽﾞｵｶｼｼﾐｽﾞｸ","kana_address":"ｵｷﾂｾｲｹﾝｼﾞﾁｮｳ","pref":"静岡県","city":"静岡市清水区","address":"興津清見寺町"},
{"zip_code":"4240204","kana_pref":"ｼｽﾞｵｶｹﾝ","kana_city":"ｼｽﾞｵｶｼｼﾐｽﾞｸ","kana_address":"ｵｷﾂﾅｶﾁｮｳ","pref":"静岡県","city":"静岡市清水区","address":"興津中町"},
{"zip_code":"4240205","kana_pref":"ｼｽﾞｵｶｹﾝ","kana_city":"ｼｽﾞｵｶｼｼﾐｽﾞｸ","kana_address":"ｵｷﾂﾎﾝﾁｮｳ","pref":"静岡県","city":"静岡市清水区","address":"興津本町"},
{"zip_code":"4240008","kana_pref":"ｼｽﾞｵｶｹﾝ","kana_city":"ｼｽﾞｵｶｼｼﾐｽﾞｸ","kana_address":"ｵｼｷﾘ","pref":"静岡県","city":"静岡市清水区","address":"押切"},
{"zip_code":"4240812","kana_pref":"ｼｽﾞｵｶｹﾝ","kana_city":"ｼｽﾞｵｶｼｼﾐｽﾞｸ","kana_address":"ｵｼﾊﾞﾁｮｳ","pref":"静岡県","city":"静岡市清水区","address":"小芝町"},
{"zip_code":"4240305","kana_pref":"ｼｽﾞｵｶｹﾝ","kana_city":"ｼｽﾞｵｶｼｼﾐｽﾞｸ","kana_address":"ｵｼﾞﾏﾁｮｳ","pref":"静岡県","city":"静岡市清水区","address":"小島町"},
{"zip_code":"4240306","kana_pref":"ｼｽﾞｵｶｹﾝ","kana_city":"ｼｽﾞｵｶｼｼﾐｽﾞｸ","kana_address":"ｵｼﾞﾏﾎﾝﾁｮｳ","pref":"静岡県","city":"静岡市清水区","address":"小島本町"},
{"zip_code":"4240103","kana_pref":"ｼｽﾞｵｶｹﾝ","kana_city":"ｼｽﾞｵｶｼｼﾐｽﾞｸ","kana_address":"ｵﾊﾞﾈ","pref":"静岡県","city":"静岡市清水区","address":"尾羽"},
{"zip_code":"4240902","kana_pref":"ｼｽﾞｵｶｹﾝ","kana_city":"ｼｽﾞｵｶｼｼﾐｽﾞｸ","kana_address":"ｵﾘﾄﾞ","pref":"静岡県","city":"静岡市清水区","address":"折戸"},
{"zip_code":"4240009","kana_pref":"ｼｽﾞｵｶｹﾝ","kana_city":"ｼｽﾞｵｶｼｼﾐｽﾞｸ","kana_address":"ｶｼｵ","pref":"静岡県","city":"静岡市清水区","address":"柏尾"},
{"zip_code":"4240842","kana_pref":"ｼｽﾞｵｶｹﾝ","kana_city":"ｼｽﾞｵｶｼｼﾐｽﾞｸ","kana_address":"ｶｽｶﾞ","pref":"静岡県","city":"静岡市清水区","address":"春日"},
{"zip_code":"4240827","kana_pref":"ｼｽﾞｵｶｹﾝ","kana_city":"ｼｽﾞｵｶｼｼﾐｽﾞｸ","kana_address":"ｶﾐ","pref":"静岡県","city":"静岡市清水区","address":"上"},
{"zip_code":"4240835","kana_pref":"ｼｽﾞｵｶｹﾝ","kana_city":"ｼｽﾞｵｶｼｼﾐｽﾞｸ","kana_address":"ｶﾐｼﾐｽﾞﾁｮｳ","pref":"静岡県","city":"静岡市清水区","address":"上清水町"},
{"zip_code":"4240857","kana_pref":"ｼｽﾞｵｶｹﾝ","kana_city":"ｼｽﾞｵｶｼｼﾐｽﾞｸ","kana_address":"ｶﾜﾊﾗﾁｮｳ","pref":"静岡県","city":"静岡市清水区","address":"川原町"},
{"zip_code":"4240852","kana_pref":"ｼｽﾞｵｶｹﾝ","kana_city":"ｼｽﾞｵｶｼｼﾐｽﾞｸ","kana_address":"ｶﾝﾀﾞﾁｮｳ","pref":"静岡県","city":"静岡市清水区","address":"神田町"},
{"zip_code":"4240865","kana_pref":"ｼｽﾞｵｶｹﾝ","kana_city":"ｼｽﾞｵｶｼｼﾐｽﾞｸ","kana_address":"ｷﾀﾔﾍﾞ","pref":"静岡県","city":"静岡市清水区","address":"北矢部"},
{"zip_code":"4240937","kana_pref":"ｼｽﾞｵｶｹﾝ","kana_city":"ｼｽﾞｵｶｼｼﾐｽﾞｸ","kana_address":"ｷﾀﾔﾍﾞﾁｮｳ","pref":"静岡県","city":"静岡市清水区","address":"北矢部町"},
{"zip_code":"4240052","kana_pref":"ｼｽﾞｵｶｹﾝ","kana_city":"ｼｽﾞｵｶｼｼﾐｽﾞｸ","kana_address":"ｷﾀﾜｷ","pref":"静岡県","city":"静岡市清水区","address":"北脇"},
{"zip_code":"4240051","kana_pref":"ｼｽﾞｵｶｹﾝ","kana_city":"ｼｽﾞｵｶｼｼﾐｽﾞｸ","kana_address":"ｷﾀﾜｷｼﾝﾃﾞﾝ","pref":"静岡県","city":"静岡市清水区","address":"北脇新田"},
{"zip_code":"4240055","kana_pref":"ｼｽﾞｵｶｹﾝ","kana_city":"ｼｽﾞｵｶｼｼﾐｽﾞｸ","kana_address":"ｷｯｶﾜ","pref":"静岡県","city":"静岡市清水区","address":"吉川"},
{"zip_code":"4240846","kana_pref":"ｼｽﾞｵｶｹﾝ","kana_city":"ｼｽﾞｵｶｼｼﾐｽﾞｸ","kana_address":"ｷﾉｼﾀﾁｮｳ","pref":"静岡県","city":"静岡市清水区","address":"木の下町"},
{"zip_code":"4240402","kana_pref":"ｼｽﾞｵｶｹﾝ","kana_city":"ｼｽﾞｵｶｼｼﾐｽﾞｸ","kana_address":"ｷﾖｼﾞ","pref":"静岡県","city":"静岡市清水区","address":"清地"},
{"zip_code":"4240817","kana_pref":"ｼｽﾞｵｶｹﾝ","kana_city":"ｼｽﾞｵｶｼｼﾐｽﾞｸ","kana_address":"ｷﾞﾝｻﾞ","pref":"静岡県","city":"静岡市清水区","address":"銀座"},
{"zip_code":"4240104","kana_pref":"ｼｽﾞｵｶｹﾝ","kana_city":"ｼｽﾞｵｶｼｼﾐｽﾞｸ","kana_address":"ｸｻｶﾞﾔ","pref":"静岡県","city":"静岡市清水区","address":"草ケ谷"},
{"zip_code":"4240886","kana_pref":"ｼｽﾞｵｶｹﾝ","kana_city":"ｼｽﾞｵｶｼｼﾐｽﾞｸ","kana_address":"ｸｻﾅｷﾞ","pref":"静岡県","city":"静岡市清水区","address":"草薙"},
{"zip_code":"4240884","kana_pref":"ｼｽﾞｵｶｹﾝ","kana_city":"ｼｽﾞｵｶｼｼﾐｽﾞｸ","kana_address":"ｸｻﾅｷﾞｲﾁﾘﾔﾏ","pref":"静岡県","city":"静岡市清水区","address":"草薙一里山"},
{"zip_code":"4240883","kana_pref":"ｼｽﾞｵｶｹﾝ","kana_city":"ｼｽﾞｵｶｼｼﾐｽﾞｸ","kana_address":"ｸｻﾅｷﾞｷﾀ","pref":"静岡県","city":"静岡市清水区","address":"草薙北"},
{"zip_code":"4240885","kana_pref":"ｼｽﾞｵｶｹﾝ","kana_city":"ｼｽﾞｵｶｼｼﾐｽﾞｸ","kana_address":"ｸｻﾅｷﾞｽｷﾞﾐﾁ","pref":"静岡県","city":"静岡市清水区","address":"草薙杉道"},
{"zip_code":"4240881","kana_pref":"ｼｽﾞｵｶｹﾝ","kana_city":"ｼｽﾞｵｶｼｼﾐｽﾞｸ","kana_address":"ｸｽﾉｷ","pref":"静岡県","city":"静岡市清水区","address":"楠"},
{"zip_code":"4240882","kana_pref":"ｼｽﾞｵｶｹﾝ","kana_city":"ｼｽﾞｵｶｼｼﾐｽﾞｸ","kana_address":"ｸｽﾉｷｼﾝﾃﾞﾝ","pref":"静岡県","city":"静岡市清水区","address":"楠新田"},
{"zip_code":"4240412","kana_pref":"ｼｽﾞｵｶｹﾝ","kana_city":"ｼｽﾞｵｶｼｼﾐｽﾞｸ","kana_address":"ｺｳﾁ","pref":"静岡県","city":"静岡市清水区","address":"河内"},
{"zip_code":"4240914","kana_pref":"ｼｽﾞｵｶｹﾝ","kana_city":"ｼｽﾞｵｶｼｼﾐｽﾞｸ","kana_address":"ｺｳﾅﾝﾁｮｳ","pref":"静岡県","city":"静岡市清水区","address":"港南町"},
{"zip_code":"4240302","kana_pref":"ｼｽﾞｵｶｹﾝ","kana_city":"ｼｽﾞｵｶｼｼﾐｽﾞｸ","kana_address":"ｺｺﾞｳﾁ","pref":"静岡県","city":"静岡市清水区","address":"小河内"},
{"zip_code":"4240917","kana_pref":"ｼｽﾞｵｶｹﾝ","kana_city":"ｼｽﾞｵｶｼｼﾐｽﾞｸ","kana_address":"ｺﾏｺﾞｴ","pref":"静岡県","city":"静岡市清水区","address":"駒越"},
{"zip_code":"4240906","kana_pref":"ｼｽﾞｵｶｹﾝ","kana_city":"ｼｽﾞｵｶｼｼﾐｽﾞｸ","kana_address":"ｺﾏｺﾞｴｷﾀﾏﾁ","pref":"静岡県","city":"静岡市清水区","address":"駒越北町"},
{"zip_code":"4240904","kana_pref":"ｼｽﾞｵｶｹﾝ","kana_city":"ｼｽﾞｵｶｼｼﾐｽﾞｸ","kana_address":"ｺﾏｺﾞｴﾅｶ","pref":"静岡県","city":"静岡市清水区","address":"駒越中"},
{"zip_code":"4240905","kana_pref":"ｼｽﾞｵｶｹﾝ","kana_city":"ｼｽﾞｵｶｼｼﾐｽﾞｸ","kana_address":"ｺﾏｺﾞｴﾆｼ","pref":"静岡県","city":"静岡市清水区","address":"駒越西"},
{"zip_code":"4240907","kana_pref":"ｼｽﾞｵｶｹﾝ","kana_city":"ｼｽﾞｵｶｼｼﾐｽﾞｸ","kana_address":"ｺﾏｺﾞｴﾋｶﾞｼﾁｮｳ","pref":"静岡県","city":"静岡市清水区","address":"駒越東町"},
{"zip_code":"4240903","kana_pref":"ｼｽﾞｵｶｹﾝ","kana_city":"ｼｽﾞｵｶｼｼﾐｽﾞｸ","kana_address":"ｺﾏｺﾞｴﾐﾅﾐﾁｮｳ","pref":"静岡県","city":"静岡市清水区","address":"駒越南町"},
{"zip_code":"4240923","kana_pref":"ｼｽﾞｵｶｹﾝ","kana_city":"ｼｽﾞｵｶｼｼﾐｽﾞｸ","kana_address":"ｻｲﾜｲﾁｮｳ","pref":"静岡県","city":"静岡市清水区","address":"幸町"},
{"zip_code":"4240836","kana_pref":"ｼｽﾞｵｶｹﾝ","kana_city":"ｼｽﾞｵｶｼｼﾐｽﾞｸ","kana_address":"ｻｸﾗｶﾞｵｶﾁｮｳ","pref":"静岡県","city":"静岡市清水区","address":"桜が丘町"},
{"zip_code":"4240837","kana_pref":"ｼｽﾞｵｶｹﾝ","kana_city":"ｼｽﾞｵｶｼｼﾐｽﾞｸ","kana_address":"ｻｸﾗﾊﾞｼﾁｮｳ","pref":"静岡県","city":"静岡市清水区","address":"桜橋町"},
{"zip_code":"4240933","kana_pref":"ｼｽﾞｵｶｹﾝ","kana_city":"ｼｽﾞｵｶｼｼﾐｽﾞｸ","kana_address":"ｻﾝｺｳﾁｮｳ","pref":"静岡県","city":"静岡市清水区","address":"三光町"},
{"zip_code":"4240405","kana_pref":"ｼｽﾞｵｶｹﾝ","kana_city":"ｼｽﾞｵｶｼｼﾐｽﾞｸ","kana_address":"ｼｹﾞﾉｼﾏ","pref":"静岡県","city":"静岡市清水区","address":"茂野島"},
{"zip_code":"4240301","kana_pref":"ｼｽﾞｵｶｹﾝ","kana_city":"ｼｽﾞｵｶｼｼﾐｽﾞｸ","kana_address":"ｼｼﾊﾗ","pref":"静岡県","city":"静岡市清水区","address":"宍原"},
{"zip_code":"4240053","kana_pref":"ｼｽﾞｵｶｹﾝ","kana_city":"ｼｽﾞｵｶｼｼﾐｽﾞｸ","kana_address":"ｼﾌﾞｶﾜ","pref":"静岡県","city":"静岡市清水区","address":"渋川"},
{"zip_code":"4240823","kana_pref":"ｼｽﾞｵｶｹﾝ","kana_city":"ｼｽﾞｵｶｼｼﾐｽﾞｸ","kana_address":"ｼﾏｻﾞｷﾁｮｳ","pref":"静岡県","city":"静岡市清水区","address":"島崎町"},
{"zip_code":"4240947","kana_pref":"ｼｽﾞｵｶｹﾝ","kana_city":"ｼｽﾞｵｶｼｼﾐｽﾞｸ","kana_address":"ｼﾐｽﾞﾏﾁ","pref":"静岡県","city":"静岡市清水区","address":"清水町"},
{"zip_code":"4240925","kana_pref":"ｼｽﾞｵｶｹﾝ","kana_city":"ｼｽﾞｵｶｼｼﾐｽﾞｸ","kana_address":"ｼﾐｽﾞﾑﾗﾏﾂﾁｻｷｼﾝﾃﾞﾝ","pref":"静岡県","city":"静岡市清水区","address":"清水村松地先新田"},
{"zip_code":"4240939","kana_pref":"ｼｽﾞｵｶｹﾝ","kana_city":"ｼｽﾞｵｶｼｼﾐｽﾞｸ","kana_address":"ｼﾓｼﾐｽﾞﾁｮｳ","pref":"静岡県","city":"静岡市清水区","address":"下清水町"},
{"zip_code":"4240021","kana_pref":"ｼｽﾞｵｶｹﾝ","kana_city":"ｼｽﾞｵｶｼｼﾐｽﾞｸ","kana_address":"ｼﾓﾉｷﾀ","pref":"静岡県","city":"静岡市清水区","address":"下野北"},
{"zip_code":"4240011","kana_pref":"ｼｽﾞｵｶｹﾝ","kana_city":"ｼｽﾞｵｶｼｼﾐｽﾞｸ","kana_address":"ｼﾓﾉﾁｮｳ","pref":"静岡県","city":"静岡市清水区","address":"下野町"},
{"zip_code":"4240029","kana_pref":"ｼｽﾞｵｶｹﾝ","kana_city":"ｼｽﾞｵｶｼｼﾐｽﾞｸ","kana_address":"ｼﾓﾉﾅｶ","pref":"静岡県","city":"静岡市清水区","address":"下野中"},
{"zip_code":"4240012","kana_pref":"ｼｽﾞｵｶｹﾝ","kana_city":"ｼｽﾞｵｶｼｼﾐｽﾞｸ","kana_address":"ｼﾓﾉﾆｼ","pref":"静岡県","city":"静岡市清水区","address":"下野西"},
{"zip_code":"4240028","kana_pref":"ｼｽﾞｵｶｹﾝ","kana_city":"ｼｽﾞｵｶｼｼﾐｽﾞｸ","kana_address":"ｼﾓﾉﾋｶﾞｼ","pref":"静岡県","city":"静岡市清水区","address":"下野東"},
{"zip_code":"4240013","kana_pref":"ｼｽﾞｵｶｹﾝ","kana_city":"ｼｽﾞｵｶｼｼﾐｽﾞｸ","kana_address":"ｼﾓﾉﾐﾄﾞﾘﾁｮｳ","pref":"静岡県","city":"静岡市清水区","address":"下野緑町"},
{"zip_code":"4240201","kana_pref":"ｼｽﾞｵｶｹﾝ","kana_city":"ｼｽﾞｵｶｼｼﾐｽﾞｸ","kana_address":"ｼｮｳｹﾞﾝｼﾞﾁｮｳ","pref":"静岡県","city":"静岡市清水区","address":"承元寺町"},
{"zip_code":"4240855","kana_pref":"ｼｽﾞｵｶｹﾝ","kana_city":"ｼｽﾞｵｶｼｼﾐｽﾞｸ","kana_address":"ｼｮｳﾌｸﾁｮｳ","pref":"静岡県","city":"静岡市清水区","address":"庄福町"},
{"zip_code":"4240856","kana_pref":"ｼｽﾞｵｶｹﾝ","kana_city":"ｼｽﾞｵｶｼｼﾐｽﾞｸ","kana_address":"ｼﾞｮｳﾘｷﾁｮｳ","pref":"静岡県","city":"静岡市清水区","address":"上力町"},
{"zip_code":"4240833","kana_pref":"ｼｽﾞｵｶｹﾝ","kana_city":"ｼｽﾞｵｶｼｼﾐｽﾞｸ","kana_address":"ｼﾝﾄﾐﾁｮｳ","pref":"静岡県","city":"静岡市清水区","address":"新富町"},
{"zip_code":"4240927","kana_pref":"ｼｽﾞｵｶｹﾝ","kana_city":"ｼｽﾞｵｶｼｼﾐｽﾞｸ","kana_address":"ｼﾝﾐﾄﾞﾘﾁｮｳ","pref":"静岡県","city":"静岡市清水区","address":"新緑町"},
{"zip_code":"4240824","kana_pref":"ｼｽﾞｵｶｹﾝ","kana_city":"ｼｽﾞｵｶｼｼﾐｽﾞｸ","kana_address":"ｼﾝﾐﾅﾄﾁｮｳ","pref":"静岡県","city":"静岡市清水区","address":"新港町"},
{"zip_code":"4240106","kana_pref":"ｼｽﾞｵｶｹﾝ","kana_city":"ｼｽﾞｵｶｼｼﾐｽﾞｸ","kana_address":"ｽｷﾞﾔﾏ","pref":"静岡県","city":"静岡市清水区","address":"杉山"},
{"zip_code":"4240924","kana_pref":"ｼｽﾞｵｶｹﾝ","kana_city":"ｼｽﾞｵｶｼｼﾐｽﾞｸ","kana_address":"ｾｲｶｲ","pref":"静岡県","city":"静岡市清水区","address":"清開"},
{"zip_code":"4240915","kana_pref":"ｼｽﾞｵｶｹﾝ","kana_city":"ｼｽﾞｵｶｼｼﾐｽﾞｸ","kana_address":"ｿﾞｳ","pref":"静岡県","city":"静岡市清水区","address":"増"},
{"zip_code":"4240037","kana_pref":"ｼｽﾞｵｶｹﾝ","kana_city":"ｼｽﾞｵｶｼｼﾐｽﾞｸ","kana_address":"ｿﾃﾞｼﾁｮｳ","pref":"静岡県","city":"静岡市清水区","address":"袖師町"},
{"zip_code":"4240041","kana_pref":"ｼｽﾞｵｶｹﾝ","kana_city":"ｼｽﾞｵｶｼｼﾐｽﾞｸ","kana_address":"ﾀｶﾊｼ","pref":"静岡県","city":"静岡市清水区","address":"高橋"},
{"zip_code":"4240048","kana_pref":"ｼｽﾞｵｶｹﾝ","kana_city":"ｼｽﾞｵｶｼｼﾐｽﾞｸ","kana_address":"ﾀｶﾊｼﾁｮｳ","pref":"静岡県","city":"静岡市清水区","address":"高橋町"},
{"zip_code":"4240042","kana_pref":"ｼｽﾞｵｶｹﾝ","kana_city":"ｼｽﾞｵｶｼｼﾐｽﾞｸ","kana_address":"ﾀｶﾊｼﾐﾅﾐﾁｮｳ","pref":"静岡県","city":"静岡市清水区","address":"高橋南町"},
{"zip_code":"4240404","kana_pref":"ｼｽﾞｵｶｹﾝ","kana_city":"ｼｽﾞｵｶｼｼﾐｽﾞｸ","kana_address":"ﾀｶﾔﾏ","pref":"静岡県","city":"静岡市清水区","address":"高山"},
{"zip_code":"4240813","kana_pref":"ｼｽﾞｵｶｹﾝ","kana_city":"ｼｽﾞｵｶｼｼﾐｽﾞｸ","kana_address":"ﾀｶﾗﾁｮｳ","pref":"静岡県","city":"静岡市清水区","address":"宝町"},
{"zip_code":"4240303","kana_pref":"ｼｽﾞｵｶｹﾝ","kana_city":"ｼｽﾞｵｶｼｼﾐｽﾞｸ","kana_address":"ﾀﾀﾞﾇﾏﾁｮｳ","pref":"静岡県","city":"静岡市清水区","address":"但沼町"},
{"zip_code":"4240304","kana_pref":"ｼｽﾞｵｶｹﾝ","kana_city":"ｼｽﾞｵｶｼｼﾐｽﾞｸ","kana_address":"ﾀﾁﾊﾞﾅ","pref":"静岡県","city":"静岡市清水区","address":"立花"},
{"zip_code":"4240804","kana_pref":"ｼｽﾞｵｶｹﾝ","kana_city":"ｼｽﾞｵｶｼｼﾐｽﾞｸ","kana_address":"ﾀﾏﾁ","pref":"静岡県","city":"静岡市清水区","address":"田町"},
{"zip_code":"4240828","kana_pref":"ｼｽﾞｵｶｹﾝ","kana_city":"ｼｽﾞｵｶｼｼﾐｽﾞｸ","kana_address":"ﾁﾄｾﾁｮｳ","pref":"静岡県","city":"静岡市清水区","address":"千歳町"},
{"zip_code":"4240944","kana_pref":"ｼｽﾞｵｶｹﾝ","kana_city":"ｼｽﾞｵｶｼｼﾐｽﾞｸ","kana_address":"ﾂｷｼﾞﾁｮｳ","pref":"静岡県","city":"静岡市清水区","address":"築地町"},
{"zip_code":"4240853","kana_pref":"ｼｽﾞｵｶｹﾝ","kana_city":"ｼｽﾞｵｶｼｼﾐｽﾞｸ","kana_address":"ﾂｷﾐﾁｮｳ","pref":"静岡県","city":"静岡市清水区","address":"月見町"},
{"zip_code":"4240806","kana_pref":"ｼｽﾞｵｶｹﾝ","kana_city":"ｼｽﾞｵｶｼｼﾐｽﾞｸ","kana_address":"ﾂｼﾞ","pref":"静岡県","city":"静岡市清水区","address":"辻"},
{"zip_code":"4240047","kana_pref":"ｼｽﾞｵｶｹﾝ","kana_city":"ｼｽﾞｵｶｼｼﾐｽﾞｸ","kana_address":"ﾂﾙﾏｲﾁｮｳ","pref":"静岡県","city":"静岡市清水区","address":"鶴舞町"},
{"zip_code":"4240809","kana_pref":"ｼｽﾞｵｶｹﾝ","kana_city":"ｼｽﾞｵｶｼｼﾐｽﾞｸ","kana_address":"ﾃﾝｼﾞﾝ","pref":"静岡県","city":"静岡市清水区","address":"天神"},
{"zip_code":"4240015","kana_pref":"ｼｽﾞｵｶｹﾝ","kana_city":"ｼｽﾞｵｶｼｼﾐｽﾞｸ","kana_address":"ﾃﾝﾉｳﾁｮｳ","pref":"静岡県","city":"静岡市清水区","address":"天王町"},
{"zip_code":"4240016","kana_pref":"ｼｽﾞｵｶｹﾝ","kana_city":"ｼｽﾞｵｶｼｼﾐｽﾞｸ","kana_address":"ﾃﾝﾉｳﾆｼ","pref":"静岡県","city":"静岡市清水区","address":"天王西"},
{"zip_code":"4240017","kana_pref":"ｼｽﾞｵｶｹﾝ","kana_city":"ｼｽﾞｵｶｼｼﾐｽﾞｸ","kana_address":"ﾃﾝﾉｳﾋｶﾞｼ","pref":"静岡県","city":"静岡市清水区","address":"天王東"},
{"zip_code":"4240014","kana_pref":"ｼｽﾞｵｶｹﾝ","kana_city":"ｼｽﾞｵｶｼｼﾐｽﾞｸ","kana_address":"ﾃﾝﾉｳﾐﾅﾐ","pref":"静岡県","city":"静岡市清水区","address":"天王南"},
{"zip_code":"4240414","kana_pref":"ｼｽﾞｵｶｹﾝ","kana_city":"ｼｽﾞｵｶｼｼﾐｽﾞｸ","kana_address":"ﾄﾞ","pref":"静岡県","city":"静岡市清水区","address":"土"},
{"zip_code":"4240851","kana_pref":"ｼｽﾞｵｶｹﾝ","kana_city":"ｼｽﾞｵｶｼｼﾐｽﾞｸ","kana_address":"ﾄﾞｳﾊﾞﾔｼ","pref":"静岡県","city":"静岡市清水区","address":"堂林"},
{"zip_code":"4240406","kana_pref":"ｼｽﾞｵｶｹﾝ","kana_city":"ｼｽﾞｵｶｼｼﾐｽﾞｸ","kana_address":"ﾄｽﾞﾗｻﾜ","pref":"静岡県","city":"静岡市清水区","address":"葛沢"},
{"zip_code":"4240912","kana_pref":"ｼｽﾞｵｶｹﾝ","kana_city":"ｼｽﾞｵｶｼｼﾐｽﾞｸ","kana_address":"ﾄﾉｻﾜ","pref":"静岡県","city":"静岡市清水区","address":"殿沢"},
{"zip_code":"4240829","kana_pref":"ｼｽﾞｵｶｹﾝ","kana_city":"ｼｽﾞｵｶｼｼﾐｽﾞｸ","kana_address":"ﾄﾓｴﾁｮｳ","pref":"静岡県","city":"静岡市清水区","address":"巴町"},
{"zip_code":"4240067","kana_pref":"ｼｽﾞｵｶｹﾝ","kana_city":"ｼｽﾞｵｶｼｼﾐｽﾞｸ","kana_address":"ﾄﾘｻｶ","pref":"静岡県","city":"静岡市清水区","address":"鳥坂"},
{"zip_code":"4240401","kana_pref":"ｼｽﾞｵｶｹﾝ","kana_city":"ｼｽﾞｵｶｼｼﾐｽﾞｸ","kana_address":"ﾅｶｺﾞｳﾁ","pref":"静岡県","city":"静岡市清水区","address":"中河内"},
{"zip_code":"4240065","kana_pref":"ｼｽﾞｵｶｹﾝ","kana_city":"ｼｽﾞｵｶｼｼﾐｽﾞｸ","kana_address":"ﾅｶﾞｻｷ","pref":"静岡県","city":"静岡市清水区","address":"長崎"},
{"zip_code":"4240064","kana_pref":"ｼｽﾞｵｶｹﾝ","kana_city":"ｼｽﾞｵｶｼｼﾐｽﾞｸ","kana_address":"ﾅｶﾞｻｷｼﾝﾃﾞﾝ","pref":"静岡県","city":"静岡市清水区","address":"長崎新田"},
{"zip_code":"4240068","kana_pref":"ｼｽﾞｵｶｹﾝ","kana_city":"ｼｽﾞｵｶｼｼﾐｽﾞｸ","kana_address":"ﾅｶﾞｻｷﾐﾅﾐﾁｮｳ","pref":"静岡県","city":"静岡市清水区","address":"長崎南町"},
{"zip_code":"4240888","kana_pref":"ｼｽﾞｵｶｹﾝ","kana_city":"ｼｽﾞｵｶｼｼﾐｽﾞｸ","kana_address":"ﾅｶﾉｺﾞｳ","pref":"静岡県","city":"静岡市清水区","address":"中之郷"},
{"zip_code":"4240854","kana_pref":"ｼｽﾞｵｶｹﾝ","kana_city":"ｼｽﾞｵｶｼｼﾐｽﾞｸ","kana_address":"ﾅｶﾔﾍﾞﾁｮｳ","pref":"静岡県","city":"静岡市清水区","address":"中矢部町"},
{"zip_code":"4240066","kana_pref":"ｼｽﾞｵｶｹﾝ","kana_city":"ｼｽﾞｵｶｼｼﾐｽﾞｸ","kana_address":"ﾅﾅﾂｼﾝﾔ","pref":"静岡県","city":"静岡市清水区","address":"七ツ新屋"},
{"zip_code":"4240046","kana_pref":"ｼｽﾞｵｶｹﾝ","kana_city":"ｼｽﾞｵｶｼｼﾐｽﾞｸ","kana_address":"ﾆｼｵｵﾏｶﾞﾘﾁｮｳ","pref":"静岡県","city":"静岡市清水区","address":"西大曲町"},
{"zip_code":"4240038","kana_pref":"ｼｽﾞｵｶｹﾝ","kana_city":"ｼｽﾞｵｶｼｼﾐｽﾞｸ","kana_address":"ﾆｼｸﾎﾞ","pref":"静岡県","city":"静岡市清水区","address":"西久保"},
{"zip_code":"4240413","kana_pref":"ｼｽﾞｵｶｹﾝ","kana_city":"ｼｽﾞｵｶｼｼﾐｽﾞｸ","kana_address":"ﾆｼｻﾞﾄ","pref":"静岡県","city":"静岡市清水区","address":"西里"},
{"zip_code":"4240844","kana_pref":"ｼｽﾞｵｶｹﾝ","kana_city":"ｼｽﾞｵｶｼｼﾐｽﾞｸ","kana_address":"ﾆｼﾀｶﾁｮｳ","pref":"静岡県","city":"静岡市清水区","address":"西高町"},
{"zip_code":"4240811","kana_pref":"ｼｽﾞｵｶｹﾝ","kana_city":"ｼｽﾞｵｶｼｼﾐｽﾞｸ","kana_address":"ﾆﾉﾏﾙﾁｮｳ","pref":"静岡県","city":"静岡市清水区","address":"二の丸町"},
{"zip_code":"4240415","kana_pref":"ｼｽﾞｵｶｹﾝ","kana_city":"ｼｽﾞｵｶｼｼﾐｽﾞｸ","kana_address":"ﾇﾉｻﾞﾜ","pref":"静岡県","city":"静岡市清水区","address":"布沢"},
{"zip_code":"4240935","kana_pref":"ｼｽﾞｵｶｹﾝ","kana_city":"ｼｽﾞｵｶｼｼﾐｽﾞｸ","kana_address":"ﾇﾏﾀﾁｮｳ","pref":"静岡県","city":"静岡市清水区","address":"沼田町"},
{"zip_code":"4240063","kana_pref":"ｼｽﾞｵｶｹﾝ","kana_city":"ｼｽﾞｵｶｼｼﾐｽﾞｸ","kana_address":"ﾉｳｼﾞﾏ","pref":"静岡県","city":"静岡市清水区","address":"能島"},
{"zip_code":"4240003","kana_pref":"ｼｽﾞｵｶｹﾝ","kana_city":"ｼｽﾞｵｶｼｼﾐｽﾞｸ","kana_address":"ﾊﾁｶﾞﾔ","pref":"静岡県","city":"静岡市清水区","address":"蜂ケ谷"},
{"zip_code":"4240004","kana_pref":"ｼｽﾞｵｶｹﾝ","kana_city":"ｼｽﾞｵｶｼｼﾐｽﾞｸ","kana_address":"ﾊﾁｶﾞﾔﾐﾅﾐﾁｮｳ","pref":"静岡県","city":"静岡市清水区","address":"蜂ケ谷南町"},
{"zip_code":"4240834","kana_pref":"ｼｽﾞｵｶｹﾝ","kana_city":"ｼｽﾞｵｶｼｼﾐｽﾞｸ","kana_address":"ﾊﾏﾀﾞﾁｮｳ","pref":"静岡県","city":"静岡市清水区","address":"浜田町"},
{"zip_code":"4240113","kana_pref":"ｼｽﾞｵｶｹﾝ","kana_city":"ｼｽﾞｵｶｼｼﾐｽﾞｸ","kana_address":"ﾊﾗ","pref":"静岡県","city":"静岡市清水区","address":"原"},
{"zip_code":"4240056","kana_pref":"ｼｽﾞｵｶｹﾝ","kana_city":"ｼｽﾞｵｶｼｼﾐｽﾞｸ","kana_address":"ﾊﾝｻﾞｴﾓﾝｼﾝﾃﾞﾝ","pref":"静岡県","city":"静岡市清水区","address":"半左衛門新田"},
{"zip_code":"4240045","kana_pref":"ｼｽﾞｵｶｹﾝ","kana_city":"ｼｽﾞｵｶｼｼﾐｽﾞｸ","kana_address":"ﾋｶﾞｼｵｵﾏｶﾞﾘﾁｮｳ","pref":"静岡県","city":"静岡市清水区","address":"東大曲町"},
{"zip_code":"4240929","kana_pref":"ｼｽﾞｵｶｹﾝ","kana_city":"ｼｽﾞｵｶｼｼﾐｽﾞｸ","kana_address":"ﾋﾀﾁﾁｮｳ","pref":"静岡県","city":"静岡市清水区","address":"日立町"},
{"zip_code":"4240922","kana_pref":"ｼｽﾞｵｶｹﾝ","kana_city":"ｼｽﾞｵｶｼｼﾐｽﾞｸ","kana_address":"ﾋﾉﾃﾞﾁｮｳ","pref":"静岡県","city":"静岡市清水区","address":"日の出町"},
{"zip_code":"4240872","kana_pref":"ｼｽﾞｵｶｹﾝ","kana_city":"ｼｽﾞｵｶｼｼﾐｽﾞｸ","kana_address":"ﾋﾗｶﾜｼﾞ","pref":"静岡県","city":"静岡市清水区","address":"平川地"},
{"zip_code":"4240102","kana_pref":"ｼｽﾞｵｶｹﾝ","kana_city":"ｼｽﾞｵｶｼｼﾐｽﾞｸ","kana_address":"ﾋﾛｾ","pref":"静岡県","city":"静岡市清水区","address":"広瀬"},
{"zip_code":"4240941","kana_pref":"ｼｽﾞｵｶｹﾝ","kana_city":"ｼｽﾞｵｶｼｼﾐｽﾞｸ","kana_address":"ﾌｼﾞﾐﾁｮｳ","pref":"静岡県","city":"静岡市清水区","address":"富士見町"},
{"zip_code":"4240866","kana_pref":"ｼｽﾞｵｶｹﾝ","kana_city":"ｼｽﾞｵｶｼｼﾐｽﾞｸ","kana_address":"ﾌﾅｺｼ","pref":"静岡県","city":"静岡市清水区","address":"船越"},
{"zip_code":"4240861","kana_pref":"ｼｽﾞｵｶｹﾝ","kana_city":"ｼｽﾞｵｶｼｼﾐｽﾞｸ","kana_address":"ﾌﾅｺｼﾁｮｳ","pref":"静岡県","city":"静岡市清水区","address":"船越町"},
{"zip_code":"4240862","kana_pref":"ｼｽﾞｵｶｹﾝ","kana_city":"ｼｽﾞｵｶｼｼﾐｽﾞｸ","kana_address":"ﾌﾅｺｼﾋｶﾞｼﾁｮｳ","pref":"静岡県","city":"静岡市清水区","address":"船越東町"},
{"zip_code":"4240863","kana_pref":"ｼｽﾞｵｶｹﾝ","kana_city":"ｼｽﾞｵｶｼｼﾐｽﾞｸ","kana_address":"ﾌﾅｺｼﾐﾅﾐﾁｮｳ","pref":"静岡県","city":"静岡市清水区","address":"船越南町"},
{"zip_code":"4240845","kana_pref":"ｼｽﾞｵｶｹﾝ","kana_city":"ｼｽﾞｵｶｼｼﾐｽﾞｸ","kana_address":"ﾌﾅﾊﾞﾗ","pref":"静岡県","city":"静岡市清水区","address":"船原"},
{"zip_code":"4240916","kana_pref":"ｼｽﾞｵｶｹﾝ","kana_city":"ｼｽﾞｵｶｼｼﾐｽﾞｸ","kana_address":"ﾍﾋﾞﾂｶ","pref":"静岡県","city":"静岡市清水区","address":"蛇塚"},
{"zip_code":"4240057","kana_pref":"ｼｽﾞｵｶｹﾝ","kana_city":"ｼｽﾞｵｶｼｼﾐｽﾞｸ","kana_address":"ﾎﾘｺﾞﾒ","pref":"静岡県","city":"静岡市清水区","address":"堀込"},
{"zip_code":"4240814","kana_pref":"ｼｽﾞｵｶｹﾝ","kana_city":"ｼｽﾞｵｶｼｼﾐｽﾞｸ","kana_address":"ﾎﾝｺﾞｳﾁｮｳ","pref":"静岡県","city":"静岡市清水区","address":"本郷町"},
{"zip_code":"4240949","kana_pref":"ｼｽﾞｵｶｹﾝ","kana_city":"ｼｽﾞｵｶｼｼﾐｽﾞｸ","kana_address":"ﾎﾝﾏﾁ","pref":"静岡県","city":"静岡市清水区","address":"本町"},
{"zip_code":"4240816","kana_pref":"ｼｽﾞｵｶｹﾝ","kana_city":"ｼｽﾞｵｶｼｼﾐｽﾞｸ","kana_address":"ﾏｻｺﾞﾁｮｳ","pref":"静岡県","city":"静岡市清水区","address":"真砂町"},
{"zip_code":"4240921","kana_pref":"ｼｽﾞｵｶｹﾝ","kana_city":"ｼｽﾞｵｶｼｼﾐｽﾞｸ","kana_address":"ﾏﾂｲﾁｮｳ","pref":"静岡県","city":"静岡市清水区","address":"松井町"},
{"zip_code":"4240825","kana_pref":"ｼｽﾞｵｶｹﾝ","kana_city":"ｼｽﾞｵｶｼｼﾐｽﾞｸ","kana_address":"ﾏﾂﾊﾞﾗﾁｮｳ","pref":"静岡県","city":"静岡市清水区","address":"松原町"},
{"zip_code":"4240875","kana_pref":"ｼｽﾞｵｶｹﾝ","kana_city":"ｼｽﾞｵｶｼｼﾐｽﾞｸ","kana_address":"ﾏﾊﾞｾ","pref":"静岡県","city":"静岡市清水区","address":"馬走"},
{"zip_code":"4240876","kana_pref":"ｼｽﾞｵｶｹﾝ","kana_city":"ｼｽﾞｵｶｼｼﾐｽﾞｸ","kana_address":"ﾏﾊﾞｾｷﾀ","pref":"静岡県","city":"静岡市清水区","address":"馬走北"},
{"zip_code":"4240877","kana_pref":"ｼｽﾞｵｶｹﾝ","kana_city":"ｼｽﾞｵｶｼｼﾐｽﾞｸ","kana_address":"ﾏﾊﾞｾｻｶﾉｳｴ","pref":"静岡県","city":"静岡市清水区","address":"馬走坂の上"},
{"zip_code":"4240826","kana_pref":"ｼｽﾞｵｶｹﾝ","kana_city":"ｼｽﾞｵｶｼｼﾐｽﾞｸ","kana_address":"ﾏﾝｾｲﾁｮｳ","pref":"静岡県","city":"静岡市清水区","address":"万世町"},
{"zip_code":"4240878","kana_pref":"ｼｽﾞｵｶｹﾝ","kana_city":"ｼｽﾞｵｶｼｼﾐｽﾞｸ","kana_address":"ﾐｶﾄﾞﾀﾞｲ","pref":"静岡県","city":"静岡市清水区","address":"御門台"},
{"zip_code":"4240928","kana_pref":"ｼｽﾞｵｶｹﾝ","kana_city":"ｼｽﾞｵｶｼｼﾐｽﾞｸ","kana_address":"ﾐﾄﾞﾘｶﾞｵｶﾁｮｳ","pref":"静岡県","city":"静岡市清水区","address":"緑が丘町"},
{"zip_code":"4240943","kana_pref":"ｼｽﾞｵｶｹﾝ","kana_city":"ｼｽﾞｵｶｼｼﾐｽﾞｸ","kana_address":"ﾐﾅﾄﾁｮｳ","pref":"静岡県","city":"静岡市清水区","address":"港町"},
{"zip_code":"4240932","kana_pref":"ｼｽﾞｵｶｹﾝ","kana_city":"ｼｽﾞｵｶｼｼﾐｽﾞｸ","kana_address":"ﾐﾅﾐｵｶﾏﾁ","pref":"静岡県","city":"静岡市清水区","address":"南岡町"},
{"zip_code":"4240864","kana_pref":"ｼｽﾞｵｶｹﾝ","kana_city":"ｼｽﾞｵｶｼｼﾐｽﾞｸ","kana_address":"ﾐﾅﾐﾔﾍﾞ","pref":"静岡県","city":"静岡市清水区","address":"南矢部"},
{"zip_code":"4240945","kana_pref":"ｼｽﾞｵｶｹﾝ","kana_city":"ｼｽﾞｵｶｼｼﾐｽﾞｸ","kana_address":"ﾐﾉﾜﾁｮｳ","pref":"静岡県","city":"静岡市清水区","address":"美濃輪町"},
{"zip_code":"4240901","kana_pref":"ｼｽﾞｵｶｹﾝ","kana_city":"ｼｽﾞｵｶｼｼﾐｽﾞｸ","kana_address":"ﾐﾎ","pref":"静岡県","city":"静岡市清水区","address":"三保"},
{"zip_code":"4240911","kana_pref":"ｼｽﾞｵｶｹﾝ","kana_city":"ｼｽﾞｵｶｼｼﾐｽﾞｸ","kana_address":"ﾐﾔｶﾐ","pref":"静岡県","city":"静岡市清水区","address":"宮加三"},
{"zip_code":"4240803","kana_pref":"ｼｽﾞｵｶｹﾝ","kana_city":"ｼｽﾞｵｶｼｼﾐｽﾞｸ","kana_address":"ﾐﾔｼﾀﾁｮｳ","pref":"静岡県","city":"静岡市清水区","address":"宮下町"},
{"zip_code":"4240807","kana_pref":"ｼｽﾞｵｶｹﾝ","kana_city":"ｼｽﾞｵｶｼｼﾐｽﾞｸ","kana_address":"ﾐﾔｼﾛﾁｮｳ","pref":"静岡県","city":"静岡市清水区","address":"宮代町"},
{"zip_code":"4240936","kana_pref":"ｼｽﾞｵｶｹﾝ","kana_city":"ｼｽﾞｵｶｼｼﾐｽﾞｸ","kana_address":"ﾑｶｲﾀﾞﾁｮｳ","pref":"静岡県","city":"静岡市清水区","address":"向田町"},
{"zip_code":"4240913","kana_pref":"ｼｽﾞｵｶｹﾝ","kana_city":"ｼｽﾞｵｶｼｼﾐｽﾞｸ","kana_address":"ﾑｶｴﾔﾏﾁｮｳ","pref":"静岡県","city":"静岡市清水区","address":"迎山町"},
{"zip_code":"4240926","kana_pref":"ｼｽﾞｵｶｹﾝ","kana_city":"ｼｽﾞｵｶｼｼﾐｽﾞｸ","kana_address":"ﾑﾗﾏﾂ","pref":"静岡県","city":"静岡市清水区","address":"村松"},
{"zip_code":"4240934","kana_pref":"ｼｽﾞｵｶｹﾝ","kana_city":"ｼｽﾞｵｶｼｼﾐｽﾞｸ","kana_address":"ﾑﾗﾏﾂﾊﾗ","pref":"静岡県","city":"静岡市清水区","address":"村松原"},
{"zip_code":"4240819","kana_pref":"ｼｽﾞｵｶｹﾝ","kana_city":"ｼｽﾞｵｶｼｼﾐｽﾞｸ","kana_address":"ﾓﾄｼﾛﾁｮｳ","pref":"静岡県","city":"静岡市清水区","address":"元城町"},
{"zip_code":"4240101","kana_pref":"ｼｽﾞｵｶｹﾝ","kana_city":"ｼｽﾞｵｶｼｼﾐｽﾞｸ","kana_address":"ﾓﾊﾞﾀ","pref":"静岡県","city":"静岡市清水区","address":"茂畑"},
{"zip_code":"4240212","kana_pref":"ｼｽﾞｵｶｹﾝ","kana_city":"ｼｽﾞｵｶｼｼﾐｽﾞｸ","kana_address":"ﾔｷﾞﾏﾁｮｳ","pref":"静岡県","city":"静岡市清水区","address":"八木間町"},
{"zip_code":"4240802","kana_pref":"ｼｽﾞｵｶｹﾝ","kana_city":"ｼｽﾞｵｶｼｼﾐｽﾞｸ","kana_address":"ﾔｸﾞﾗﾁｮｳ","pref":"静岡県","city":"静岡市清水区","address":"矢倉町"},
{"zip_code":"4240023","kana_pref":"ｼｽﾞｵｶｹﾝ","kana_city":"ｼｽﾞｵｶｼｼﾐｽﾞｸ","kana_address":"ﾔｻｶｷﾀ","pref":"静岡県","city":"静岡市清水区","address":"八坂北"},
{"zip_code":"4240022","kana_pref":"ｼｽﾞｵｶｹﾝ","kana_city":"ｼｽﾞｵｶｼｼﾐｽﾞｸ","kana_address":"ﾔｻｶﾁｮｳ","pref":"静岡県","city":"静岡市清水区","address":"八坂町"},
{"zip_code":"4240025","kana_pref":"ｼｽﾞｵｶｹﾝ","kana_city":"ｼｽﾞｵｶｼｼﾐｽﾞｸ","kana_address":"ﾔｻｶﾆｼﾁｮｳ","pref":"静岡県","city":"静岡市清水区","address":"八坂西町"},
{"zip_code":"4240024","kana_pref":"ｼｽﾞｵｶｹﾝ","kana_city":"ｼｽﾞｵｶｼｼﾐｽﾞｸ","kana_address":"ﾔｻｶﾋｶﾞｼ","pref":"静岡県","city":"静岡市清水区","address":"八坂東"},
{"zip_code":"4240026","kana_pref":"ｼｽﾞｵｶｹﾝ","kana_city":"ｼｽﾞｵｶｼｼﾐｽﾞｸ","kana_address":"ﾔｻｶﾐﾅﾐﾁｮｳ","pref":"静岡県","city":"静岡市清水区","address":"八坂南町"},
{"zip_code":"4240887","kana_pref":"ｼｽﾞｵｶｹﾝ","kana_city":"ｼｽﾞｵｶｼｼﾐｽﾞｸ","kana_address":"ﾔﾀﾞ","pref":"静岡県","city":"静岡市清水区","address":"谷田"},
{"zip_code":"4240946","kana_pref":"ｼｽﾞｵｶｹﾝ","kana_city":"ｼｽﾞｵｶｼｼﾐｽﾞｸ","kana_address":"ﾔﾁﾖﾁｮｳ","pref":"静岡県","city":"静岡市清水区","address":"八千代町"},
{"zip_code":"4240211","kana_pref":"ｼｽﾞｵｶｹﾝ","kana_city":"ｼｽﾞｵｶｼｼﾐｽﾞｸ","kana_address":"ﾔﾂﾁｮｳ","pref":"静岡県","city":"静岡市清水区","address":"谷津町"},
{"zip_code":"4240105","kana_pref":"ｼｽﾞｵｶｹﾝ","kana_city":"ｼｽﾞｵｶｼｼﾐｽﾞｸ","kana_address":"ﾔﾏｷﾘ","pref":"静岡県","city":"静岡市清水区","address":"山切"},
{"zip_code":"4240018","kana_pref":"ｼｽﾞｵｶｹﾝ","kana_city":"ｼｽﾞｵｶｼｼﾐｽﾞｸ","kana_address":"ﾔﾖｲﾁｮｳ","pref":"静岡県","city":"静岡市清水区","address":"弥生町"},
{"zip_code":"4240002","kana_pref":"ｼｽﾞｵｶｹﾝ","kana_city":"ｼｽﾞｵｶｼｼﾐｽﾞｸ","kana_address":"ﾔﾝﾊﾞﾗ","pref":"静岡県","city":"静岡市清水区","address":"山原"},
{"zip_code":"4240031","kana_pref":"ｼｽﾞｵｶｹﾝ","kana_city":"ｼｽﾞｵｶｼｼﾐｽﾞｸ","kana_address":"ﾖｺｽﾅ","pref":"静岡県","city":"静岡市清水区","address":"横砂"},
{"zip_code":"4240034","kana_pref":"ｼｽﾞｵｶｹﾝ","kana_city":"ｼｽﾞｵｶｼｼﾐｽﾞｸ","kana_address":"ﾖｺｽﾅﾅｶﾁｮｳ","pref":"静岡県","city":"静岡市清水区","address":"横砂中町"},
{"zip_code":"4240036","kana_pref":"ｼｽﾞｵｶｹﾝ","kana_city":"ｼｽﾞｵｶｼｼﾐｽﾞｸ","kana_address":"ﾖｺｽﾅﾆｼﾁｮｳ","pref":"静岡県","city":"静岡市清水区","address":"横砂西町"},
{"zip_code":"4240032","kana_pref":"ｼｽﾞｵｶｹﾝ","kana_city":"ｼｽﾞｵｶｼｼﾐｽﾞｸ","kana_address":"ﾖｺｽﾅﾋｶﾞｼﾁｮｳ","pref":"静岡県","city":"静岡市清水区","address":"横砂東町"},
{"zip_code":"4240033","kana_pref":"ｼｽﾞｵｶｹﾝ","kana_city":"ｼｽﾞｵｶｼｼﾐｽﾞｸ","kana_address":"ﾖｺｽﾅﾎﾝﾁｮｳ","pref":"静岡県","city":"静岡市清水区","address":"横砂本町"},
{"zip_code":"4240035","kana_pref":"ｼｽﾞｵｶｹﾝ","kana_city":"ｼｽﾞｵｶｼｼﾐｽﾞｸ","kana_address":"ﾖｺｽﾅﾐﾅﾐﾁｮｳ","pref":"静岡県","city":"静岡市清水区","address":"横砂南町"},
{"zip_code":"4240111","kana_pref":"ｼｽﾞｵｶｹﾝ","kana_city":"ｼｽﾞｵｶｼｼﾐｽﾞｸ","kana_address":"ﾖｼﾜﾗ","pref":"静岡県","city":"静岡市清水区","address":"吉原"},
{"zip_code":"4240403","kana_pref":"ｼｽﾞｵｶｹﾝ","kana_city":"ｼｽﾞｵｶｼｼﾐｽﾞｸ","kana_address":"ﾜﾀﾞｼﾏ","pref":"静岡県","city":"静岡市清水区","address":"和田島"}]}