{"zip_code":[
{"zip_code":"4250000","kana_pref":"ｼｽﾞｵｶｹﾝ","kana_city":"ﾔｲﾂﾞｼ","kana_address":"","pref":"静岡県","city":"焼津市","address":""},
{"zip_code":"4250023","kana_pref":"ｼｽﾞｵｶｹﾝ","kana_city":"ﾔｲﾂﾞｼ","kana_address":"ｱﾗﾔ","pref":"静岡県","city":"焼津市","address":"新屋"},
{"zip_code":"4250041","kana_pref":"ｼｽﾞｵｶｹﾝ","kana_city":"ﾔｲﾂﾞｼ","kana_address":"ｲｼﾂﾞ","pref":"静岡県","city":"焼津市","address":"石津"},
{"zip_code":"4250043","kana_pref":"ｼｽﾞｵｶｹﾝ","kana_city":"ﾔｲﾂﾞｼ","kana_address":"ｲｼﾂﾞﾅｶﾁｮｳ","pref":"静岡県","city":"焼津市","address":"石津中町"},
{"zip_code":"4250042","kana_pref":"ｼｽﾞｵｶｹﾝ","kana_city":"ﾔｲﾂﾞｼ","kana_address":"ｲｼﾂﾞﾐﾅﾄﾁｮｳ","pref":"静岡県","city":"焼津市","address":"石津港町"},
{"zip_code":"4250044","kana_pref":"ｼｽﾞｵｶｹﾝ","kana_city":"ﾔｲﾂﾞｼ","kana_address":"ｲｼﾂﾞﾑｶｲﾁｮｳ","pref":"静岡県","city":"焼津市","address":"石津向町"},
{"zip_code":"4250015","kana_pref":"ｼｽﾞｵｶｹﾝ","kana_city":"ﾔｲﾂﾞｼ","kana_address":"ｲｼﾜｷｶﾐ","pref":"静岡県","city":"焼津市","address":"石脇上"},
{"zip_code":"4250016","kana_pref":"ｼｽﾞｵｶｹﾝ","kana_city":"ﾔｲﾂﾞｼ","kana_address":"ｲｼﾜｷｼﾓ","pref":"静岡県","city":"焼津市","address":"石脇下"},
{"zip_code":"4250054","kana_pref":"ｼｽﾞｵｶｹﾝ","kana_city":"ﾔｲﾂﾞｼ","kana_address":"ｲｯｼｷ","pref":"静岡県","city":"焼津市","address":"一色"},
{"zip_code":"4250032","kana_pref":"ｼｽﾞｵｶｹﾝ","kana_city":"ﾔｲﾂﾞｼ","kana_address":"ｲﾜｼｶﾞｼﾏ","pref":"静岡県","city":"焼津市","address":"鰯ケ島"},
{"zip_code":"4250028","kana_pref":"ｼｽﾞｵｶｹﾝ","kana_city":"ﾔｲﾂﾞｼ","kana_address":"ｴｷｷﾀ","pref":"静岡県","city":"焼津市","address":"駅北"},
{"zip_code":"4250092","kana_pref":"ｼｽﾞｵｶｹﾝ","kana_city":"ﾔｲﾂﾞｼ","kana_address":"ｴﾁｺﾞｼﾏ","pref":"静岡県","city":"焼津市","address":"越後島"},
{"zip_code":"4250083","kana_pref":"ｼｽﾞｵｶｹﾝ","kana_city":"ﾔｲﾂﾞｼ","kana_address":"ｵｵ","pref":"静岡県","city":"焼津市","address":"大"},
{"zip_code":"4250066","kana_pref":"ｼｽﾞｵｶｹﾝ","kana_city":"ﾔｲﾂﾞｼ","kana_address":"ｵｵｼﾞﾏ","pref":"静岡県","city":"焼津市","address":"大島"},
{"zip_code":"4250069","kana_pref":"ｼｽﾞｵｶｹﾝ","kana_city":"ﾔｲﾂﾞｼ","kana_address":"ｵｵｼﾏｼﾝﾃﾞﾝ","pref":"静岡県","city":"焼津市","address":"大島新田"},
{"zip_code":"4250072","kana_pref":"ｼｽﾞｵｶｹﾝ","kana_city":"ﾔｲﾂﾞｼ","kana_address":"ｵｵｽﾞﾐ","pref":"静岡県","city":"焼津市","address":"大住"},
{"zip_code":"4250082","kana_pref":"ｼｽﾞｵｶｹﾝ","kana_city":"ﾔｲﾂﾞｼ","kana_address":"ｵｵﾑﾗ","pref":"静岡県","city":"焼津市","address":"大村"},
{"zip_code":"4250084","kana_pref":"ｼｽﾞｵｶｹﾝ","kana_city":"ﾔｲﾂﾞｼ","kana_address":"ｵｵﾑﾗｼﾝﾃﾞﾝ","pref":"静岡県","city":"焼津市","address":"大村新田"},
{"zip_code":"4250013","kana_pref":"ｼｽﾞｵｶｹﾝ","kana_city":"ﾔｲﾂﾞｼ","kana_address":"ｵｶﾄｳﾒ","pref":"静岡県","city":"焼津市","address":"岡当目"},
{"zip_code":"4250011","kana_pref":"ｼｽﾞｵｶｹﾝ","kana_city":"ﾔｲﾂﾞｼ","kana_address":"ｵﾊﾞﾏ","pref":"静岡県","city":"焼津市","address":"小浜"},
{"zip_code":"4250073","kana_pref":"ｼｽﾞｵｶｹﾝ","kana_city":"ﾔｲﾂﾞｼ","kana_address":"ｵﾔｲﾂﾞ","pref":"静岡県","city":"焼津市","address":"小柳津"},
{"zip_code":"4250005","kana_pref":"ｼｽﾞｵｶｹﾝ","kana_city":"ﾔｲﾂﾞｼ","kana_address":"ｶﾀﾉｶﾐ","pref":"静岡県","city":"焼津市","address":"方ノ上"},
{"zip_code":"4250058","kana_pref":"ｼｽﾞｵｶｹﾝ","kana_city":"ﾔｲﾂﾞｼ","kana_address":"ｷﾀｼﾝﾃﾞﾝ","pref":"静岡県","city":"焼津市","address":"北新田"},
{"zip_code":"4250024","kana_pref":"ｼｽﾞｵｶｹﾝ","kana_city":"ﾔｲﾂﾞｼ","kana_address":"ｷﾀﾊﾏﾄﾞｵﾘ","pref":"静岡県","city":"焼津市","address":"北浜通"},
{"zip_code":"4250077","kana_pref":"ｼｽﾞｵｶｹﾝ","kana_city":"ﾔｲﾂﾞｼ","kana_address":"ｺﾞｶﾎﾘﾉｳﾁ","pref":"静岡県","city":"焼津市","address":"五ケ堀之内"},
{"zip_code":"4250033","kana_pref":"ｼｽﾞｵｶｹﾝ","kana_city":"ﾔｲﾂﾞｼ","kana_address":"ｺｶﾞﾜ","pref":"静岡県","city":"焼津市","address":"小川"},
{"zip_code":"4250031","kana_pref":"ｼｽﾞｵｶｹﾝ","kana_city":"ﾔｲﾂﾞｼ","kana_address":"ｺｶﾞﾜｼﾝﾏﾁ","pref":"静岡県","city":"焼津市","address":"小川新町"},
{"zip_code":"4250086","kana_pref":"ｼｽﾞｵｶｹﾝ","kana_city":"ﾔｲﾂﾞｼ","kana_address":"ｺﾋｼﾞ","pref":"静岡県","city":"焼津市","address":"小土"},
{"zip_code":"4250076","kana_pref":"ｼｽﾞｵｶｹﾝ","kana_city":"ﾔｲﾂﾞｼ","kana_address":"ｺﾔｼｷ","pref":"静岡県","city":"焼津市","address":"小屋敷"},
{"zip_code":"4250027","kana_pref":"ｼｽﾞｵｶｹﾝ","kana_city":"ﾔｲﾂﾞｼ","kana_address":"ｻｶｴﾏﾁ","pref":"静岡県","city":"焼津市","address":"栄町"},
{"zip_code":"4250004","kana_pref":"ｼｽﾞｵｶｹﾝ","kana_city":"ﾔｲﾂﾞｼ","kana_address":"ｻｶﾓﾄ","pref":"静岡県","city":"焼津市","address":"坂本"},
{"zip_code":"4250046","kana_pref":"ｼｽﾞｵｶｹﾝ","kana_city":"ﾔｲﾂﾞｼ","kana_address":"ｻﾝｳｴﾓﾝｼﾝﾃﾞﾝ","pref":"静岡県","city":"焼津市","address":"三右衛門新田"},
{"zip_code":"4250071","kana_pref":"ｼｽﾞｵｶｹﾝ","kana_city":"ﾔｲﾂﾞｼ","kana_address":"ｻﾝｶﾞﾐｮｳ","pref":"静岡県","city":"焼津市","address":"三ケ名"},
{"zip_code":"4250085","kana_pref":"ｼｽﾞｵｶｹﾝ","kana_city":"ﾔｲﾂﾞｼ","kana_address":"ｼｵﾂ","pref":"静岡県","city":"焼津市","address":"塩津"},
{"zip_code":"4250057","kana_pref":"ｼｽﾞｵｶｹﾝ","kana_city":"ﾔｲﾂﾞｼ","kana_address":"ｼﾓｵﾀﾞ","pref":"静岡県","city":"焼津市","address":"下小田"},
{"zip_code":"4250056","kana_pref":"ｼｽﾞｵｶｹﾝ","kana_city":"ﾔｲﾂﾞｼ","kana_address":"ｼﾓｵﾀﾞﾅｶﾏﾁ","pref":"静岡県","city":"焼津市","address":"下小田中町"},
{"zip_code":"4250067","kana_pref":"ｼｽﾞｵｶｹﾝ","kana_city":"ﾔｲﾂﾞｼ","kana_address":"ｼﾞﾁｮｳｳｹｼｮ","pref":"静岡県","city":"焼津市","address":"治長請所"},
{"zip_code":"4250025","kana_pref":"ｼｽﾞｵｶｹﾝ","kana_city":"ﾔｲﾂﾞｼ","kana_address":"ｼﾞｮｳﾉｺｼ","pref":"静岡県","city":"焼津市","address":"城之腰"},
{"zip_code":"4250053","kana_pref":"ｼｽﾞｵｶｹﾝ","kana_city":"ﾔｲﾂﾞｼ","kana_address":"ｽﾐﾚﾀﾞｲ","pref":"静岡県","city":"焼津市","address":"すみれ台"},
{"zip_code":"4250006","kana_pref":"ｼｽﾞｵｶｹﾝ","kana_city":"ﾔｲﾂﾞｼ","kana_address":"ｾｷｶﾞﾀ","pref":"静岡県","city":"焼津市","address":"関方"},
{"zip_code":"4250065","kana_pref":"ｼｽﾞｵｶｹﾝ","kana_city":"ﾔｲﾂﾞｼ","kana_address":"ｿｳｳｴﾓﾝ","pref":"静岡県","city":"焼津市","address":"惣右衛門"},
{"zip_code":"4250081","kana_pref":"ｼｽﾞｵｶｹﾝ","kana_city":"ﾔｲﾂﾞｼ","kana_address":"ﾀﾞｲｴｲﾁｮｳ","pref":"静岡県","city":"焼津市","address":"大栄町"},
{"zip_code":"4250088","kana_pref":"ｼｽﾞｵｶｹﾝ","kana_city":"ﾔｲﾂﾞｼ","kana_address":"ﾀﾞｲｶｸｼﾞ","pref":"静岡県","city":"焼津市","address":"大覚寺"},
{"zip_code":"4250003","kana_pref":"ｼｽﾞｵｶｹﾝ","kana_city":"ﾔｲﾂﾞｼ","kana_address":"ﾀｶｻｷ","pref":"静岡県","city":"焼津市","address":"高崎"},
{"zip_code":"4250052","kana_pref":"ｼｽﾞｵｶｹﾝ","kana_city":"ﾔｲﾂﾞｼ","kana_address":"ﾀｼﾞﾘ","pref":"静岡県","city":"焼津市","address":"田尻"},
{"zip_code":"4250051","kana_pref":"ｼｽﾞｵｶｹﾝ","kana_city":"ﾔｲﾂﾞｼ","kana_address":"ﾀｼﾞﾘｷﾀ","pref":"静岡県","city":"焼津市","address":"田尻北"},
{"zip_code":"4250055","kana_pref":"ｼｽﾞｵｶｹﾝ","kana_city":"ﾔｲﾂﾞｼ","kana_address":"ﾄﾞｳﾊﾞﾗ","pref":"静岡県","city":"焼津市","address":"道原"},
{"zip_code":"4250014","kana_pref":"ｼｽﾞｵｶｹﾝ","kana_city":"ﾔｲﾂﾞｼ","kana_address":"ﾅｶｻﾞﾄ","pref":"静岡県","city":"焼津市","address":"中里"},
{"zip_code":"4250068","kana_pref":"ｼｽﾞｵｶｹﾝ","kana_city":"ﾔｲﾂﾞｼ","kana_address":"ﾅｶｼﾝﾃﾞﾝ","pref":"静岡県","city":"焼津市","address":"中新田"},
{"zip_code":"4250061","kana_pref":"ｼｽﾞｵｶｹﾝ","kana_city":"ﾔｲﾂﾞｼ","kana_address":"ﾅｶﾈ","pref":"静岡県","city":"焼津市","address":"中根"},
{"zip_code":"4250062","kana_pref":"ｼｽﾞｵｶｹﾝ","kana_city":"ﾔｲﾂﾞｼ","kana_address":"ﾅｶﾈｼﾝﾃﾞﾝ","pref":"静岡県","city":"焼津市","address":"中根新田"},
{"zip_code":"4250021","kana_pref":"ｼｽﾞｵｶｹﾝ","kana_city":"ﾔｲﾂﾞｼ","kana_address":"ﾅｶﾐﾅﾄ","pref":"静岡県","city":"焼津市","address":"中港"},
{"zip_code":"4250036","kana_pref":"ｼｽﾞｵｶｹﾝ","kana_city":"ﾔｲﾂﾞｼ","kana_address":"ﾆｼｺｶﾞﾜ","pref":"静岡県","city":"焼津市","address":"西小川"},
{"zip_code":"4250075","kana_pref":"ｼｽﾞｵｶｹﾝ","kana_city":"ﾔｲﾂﾞｼ","kana_address":"ﾆｼﾔｲﾂﾞ","pref":"静岡県","city":"焼津市","address":"西焼津"},
{"zip_code":"4250045","kana_pref":"ｼｽﾞｵｶｹﾝ","kana_city":"ﾔｲﾂﾞｼ","kana_address":"ﾈｷﾞｼﾏ","pref":"静岡県","city":"焼津市","address":"祢宜島"},
{"zip_code":"4250017","kana_pref":"ｼｽﾞｵｶｹﾝ","kana_city":"ﾔｲﾂﾞｼ","kana_address":"ﾉｱｷ","pref":"静岡県","city":"焼津市","address":"野秋"},
{"zip_code":"4250001","kana_pref":"ｼｽﾞｵｶｹﾝ","kana_city":"ﾔｲﾂﾞｼ","kana_address":"ﾊﾅｻﾞﾜ","pref":"静岡県","city":"焼津市","address":"花沢"},
{"zip_code":"4250012","kana_pref":"ｼｽﾞｵｶｹﾝ","kana_city":"ﾔｲﾂﾞｼ","kana_address":"ﾊﾏﾄｳﾒ","pref":"静岡県","city":"焼津市","address":"浜当目"},
{"zip_code":"4250035","kana_pref":"ｼｽﾞｵｶｹﾝ","kana_city":"ﾔｲﾂﾞｼ","kana_address":"ﾋｶﾞｼｺｶﾞﾜ","pref":"静岡県","city":"焼津市","address":"東小川"},
{"zip_code":"4250087","kana_pref":"ｼｽﾞｵｶｹﾝ","kana_city":"ﾔｲﾂﾞｼ","kana_address":"ﾎﾌｸｼﾞﾏ","pref":"静岡県","city":"焼津市","address":"保福島"},
{"zip_code":"4250063","kana_pref":"ｼｽﾞｵｶｹﾝ","kana_city":"ﾔｲﾂﾞｼ","kana_address":"ﾎﾝﾅｶﾈ","pref":"静岡県","city":"焼津市","address":"本中根"},
{"zip_code":"4250022","kana_pref":"ｼｽﾞｵｶｹﾝ","kana_city":"ﾔｲﾂﾞｼ","kana_address":"ﾎﾝﾏﾁ","pref":"静岡県","city":"焼津市","address":"本町"},
{"zip_code":"4250064","kana_pref":"ｼｽﾞｵｶｹﾝ","kana_city":"ﾔｲﾂﾞｼ","kana_address":"ﾐﾜ","pref":"静岡県","city":"焼津市","address":"三和"},
{"zip_code":"4250007","kana_pref":"ｼｽﾞｵｶｹﾝ","kana_city":"ﾔｲﾂﾞｼ","kana_address":"ﾑﾁｳｼ","pref":"静岡県","city":"焼津市","address":"策牛"},
{"zip_code":"4250026","kana_pref":"ｼｽﾞｵｶｹﾝ","kana_city":"ﾔｲﾂﾞｼ","kana_address":"ﾔｲﾂﾞ","pref":"静岡県","city":"焼津市","address":"焼津"},
{"zip_code":"4250091","kana_pref":"ｼｽﾞｵｶｹﾝ","kana_city":"ﾔｲﾂﾞｼ","kana_address":"ﾔｸﾞｽ","pref":"静岡県","city":"焼津市","address":"八楠"},
{"zip_code":"4250074","kana_pref":"ｼｽﾞｵｶｹﾝ","kana_city":"ﾔｲﾂﾞｼ","kana_address":"ﾔﾅｷﾞｱﾗﾔ","pref":"静岡県","city":"焼津市","address":"柳新屋"},
{"zip_code":"4250002","kana_pref":"ｼｽﾞｵｶｹﾝ","kana_city":"ﾔｲﾂﾞｼ","kana_address":"ﾖｼﾂﾞ","pref":"静岡県","city":"焼津市","address":"吉津"},
{"zip_code":"4250034","kana_pref":"ｼｽﾞｵｶｹﾝ","kana_city":"ﾔｲﾂﾞｼ","kana_address":"ﾖｿｳｼﾞ","pref":"静岡県","city":"焼津市","address":"与惣次"}]}