{"zip_code":[
{"zip_code":"4270000","kana_pref":"ｼｽﾞｵｶｹﾝ","kana_city":"ｼﾏﾀﾞｼ","kana_address":"","pref":"静岡県","city":"島田市","address":""},
{"zip_code":"4270018","kana_pref":"ｼｽﾞｵｶｹﾝ","kana_city":"ｼﾏﾀﾞｼ","kana_address":"ｱｻﾋ","pref":"静岡県","city":"島田市","address":"旭"},
{"zip_code":"4270006","kana_pref":"ｼｽﾞｵｶｹﾝ","kana_city":"ｼﾏﾀﾞｼ","kana_address":"ｱﾁｶﾞﾔ","pref":"静岡県","city":"島田市","address":"阿知ケ谷"},
{"zip_code":"4270232","kana_pref":"ｼｽﾞｵｶｹﾝ","kana_city":"ｼﾏﾀﾞｼ","kana_address":"ｲｸﾐ","pref":"静岡県","city":"島田市","address":"伊久美"},
{"zip_code":"4270104","kana_pref":"ｼｽﾞｵｶｹﾝ","kana_city":"ｼﾏﾀﾞｼ","kana_address":"ｲｸﾞﾁ","pref":"静岡県","city":"島田市","address":"井口"},
{"zip_code":"4270034","kana_pref":"ｼｽﾞｵｶｹﾝ","kana_city":"ｼﾏﾀﾞｼ","kana_address":"ｲﾀ","pref":"静岡県","city":"島田市","address":"伊太"},
{"zip_code":"4270038","kana_pref":"ｼｽﾞｵｶｹﾝ","kana_city":"ｼﾏﾀﾞｼ","kana_address":"ｲﾅﾘ","pref":"静岡県","city":"島田市","address":"稲荷"},
{"zip_code":"4270031","kana_pref":"ｼｽﾞｵｶｹﾝ","kana_city":"ｼﾏﾀﾞｼ","kana_address":"ｳｱﾐ","pref":"静岡県","city":"島田市","address":"鵜網"},
{"zip_code":"4270026","kana_pref":"ｼｽﾞｵｶｹﾝ","kana_city":"ｼﾏﾀﾞｼ","kana_address":"ｵｳｷﾞﾏﾁ","pref":"静岡県","city":"島田市","address":"扇町"},
{"zip_code":"4270013","kana_pref":"ｼｽﾞｵｶｹﾝ","kana_city":"ｼﾏﾀﾞｼ","kana_address":"ｵｳｹ","pref":"静岡県","city":"島田市","address":"御請"},
{"zip_code":"4270025","kana_pref":"ｼｽﾞｵｶｹﾝ","kana_city":"ｼﾏﾀﾞｼ","kana_address":"ｵｵｲﾁｮｳ","pref":"静岡県","city":"島田市","address":"大井町"},
{"zip_code":"4270033","kana_pref":"ｼｽﾞｵｶｹﾝ","kana_city":"ｼﾏﾀﾞｼ","kana_address":"ｵｵｶ","pref":"静岡県","city":"島田市","address":"相賀"},
{"zip_code":"4270023","kana_pref":"ｼｽﾞｵｶｹﾝ","kana_city":"ｼﾏﾀﾞｼ","kana_address":"ｵｵｶﾜﾁｮｳ","pref":"静岡県","city":"島田市","address":"大川町"},
{"zip_code":"4270002","kana_pref":"ｼｽﾞｵｶｹﾝ","kana_city":"ｼﾏﾀﾞｼ","kana_address":"ｵｵｸｻ","pref":"静岡県","city":"島田市","address":"大草"},
{"zip_code":"4270056","kana_pref":"ｼｽﾞｵｶｹﾝ","kana_city":"ｼﾏﾀﾞｼ","kana_address":"ｵｵﾂﾄﾞｵﾘ","pref":"静岡県","city":"島田市","address":"大津通"},
{"zip_code":"4270101","kana_pref":"ｼｽﾞｵｶｹﾝ","kana_city":"ｼﾏﾀﾞｼ","kana_address":"ｵｵﾔﾅｷﾞ","pref":"静岡県","city":"島田市","address":"大柳"},
{"zip_code":"4270102","kana_pref":"ｼｽﾞｵｶｹﾝ","kana_city":"ｼﾏﾀﾞｼ","kana_address":"ｵｵﾔﾅｷﾞﾐﾅﾐ","pref":"静岡県","city":"島田市","address":"大柳南"},
{"zip_code":"4270106","kana_pref":"ｼｽﾞｵｶｹﾝ","kana_city":"ｼﾏﾀﾞｼ","kana_address":"ｵｶﾀﾞ","pref":"静岡県","city":"島田市","address":"岡田"},
{"zip_code":"4270053","kana_pref":"ｼｽﾞｵｶｹﾝ","kana_city":"ｼﾏﾀﾞｼ","kana_address":"ｵｶﾘﾔﾁｮｳ","pref":"静岡県","city":"島田市","address":"御仮屋町"},
{"zip_code":"4270009","kana_pref":"ｼｽﾞｵｶｹﾝ","kana_city":"ｼﾏﾀﾞｼ","kana_address":"ｵｶﾞﾜ","pref":"静岡県","city":"島田市","address":"尾川"},
{"zip_code":"4270008","kana_pref":"ｼｽﾞｵｶｹﾝ","kana_city":"ｼﾏﾀﾞｼ","kana_address":"ｵﾁｱｲ","pref":"静岡県","city":"島田市","address":"落合"},
{"zip_code":"4270037","kana_pref":"ｼｽﾞｵｶｹﾝ","kana_city":"ｼﾏﾀﾞｼ","kana_address":"ｶﾜﾗ","pref":"静岡県","city":"島田市","address":"河原"},
{"zip_code":"4270032","kana_pref":"ｼｽﾞｵｶｹﾝ","kana_city":"ｼﾏﾀﾞｼ","kana_address":"ｶﾝｻﾞ","pref":"静岡県","city":"島田市","address":"神座"},
{"zip_code":"4270058","kana_pref":"ｼｽﾞｵｶｹﾝ","kana_city":"ｼﾏﾀﾞｼ","kana_address":"ｷﾞｵﾝﾁｮｳ","pref":"静岡県","city":"島田市","address":"祇園町"},
{"zip_code":"4270004","kana_pref":"ｼｽﾞｵｶｹﾝ","kana_city":"ｼﾏﾀﾞｼ","kana_address":"ｷｼ","pref":"静岡県","city":"島田市","address":"岸"},
{"zip_code":"4270005","kana_pref":"ｼｽﾞｵｶｹﾝ","kana_city":"ｼﾏﾀﾞｼ","kana_address":"ｷｼﾁｮｳ","pref":"静岡県","city":"島田市","address":"岸町"},
{"zip_code":"4270027","kana_pref":"ｼｽﾞｵｶｹﾝ","kana_city":"ｼﾏﾀﾞｼ","kana_address":"ｻｲﾜｲﾏﾁ","pref":"静岡県","city":"島田市","address":"幸町"},
{"zip_code":"4270028","kana_pref":"ｼｽﾞｵｶｹﾝ","kana_city":"ｼﾏﾀﾞｼ","kana_address":"ｻｶｴﾁｮｳ","pref":"静岡県","city":"島田市","address":"栄町"},
{"zip_code":"4270111","kana_pref":"ｼｽﾞｵｶｹﾝ","kana_city":"ｼﾏﾀﾞｼ","kana_address":"ｻｶﾓﾄ","pref":"静岡県","city":"島田市","address":"阪本"},
{"zip_code":"4270231","kana_pref":"ｼｽﾞｵｶｹﾝ","kana_city":"ｼﾏﾀﾞｼ","kana_address":"ｻｻﾏｼﾓ","pref":"静岡県","city":"島田市","address":"笹間下"},
{"zip_code":"4270059","kana_pref":"ｼｽﾞｵｶｹﾝ","kana_city":"ｼﾏﾀﾞｼ","kana_address":"ｼﾝﾃﾞﾝﾁｮｳ","pref":"静岡県","city":"島田市","address":"新田町"},
{"zip_code":"4270055","kana_pref":"ｼｽﾞｵｶｹﾝ","kana_city":"ｼﾏﾀﾞｼ","kana_address":"ｼﾝﾏﾁﾄﾞｵﾘ","pref":"静岡県","city":"島田市","address":"新町通"},
{"zip_code":"4270054","kana_pref":"ｼｽﾞｵｶｹﾝ","kana_city":"ｼﾏﾀﾞｼ","kana_address":"ﾀｶｻｺﾞﾁｮｳ","pref":"静岡県","city":"島田市","address":"高砂町"},
{"zip_code":"4270015","kana_pref":"ｼｽﾞｵｶｹﾝ","kana_city":"ｼﾏﾀﾞｼ","kana_address":"ﾀｶｼﾞﾏﾁｮｳ","pref":"静岡県","city":"島田市","address":"高島町"},
{"zip_code":"4270001","kana_pref":"ｼｽﾞｵｶｹﾝ","kana_city":"ｼﾏﾀﾞｼ","kana_address":"ﾁﾊﾞ","pref":"静岡県","city":"島田市","address":"千葉"},
{"zip_code":"4270042","kana_pref":"ｼｽﾞｵｶｹﾝ","kana_city":"ｼﾏﾀﾞｼ","kana_address":"ﾁｭｳｵｳﾁｮｳ","pref":"静岡県","city":"島田市","address":"中央町"},
{"zip_code":"4270112","kana_pref":"ｼｽﾞｵｶｹﾝ","kana_city":"ｼﾏﾀﾞｼ","kana_address":"ﾂｷｻｶ","pref":"静岡県","city":"島田市","address":"月坂"},
{"zip_code":"4270019","kana_pref":"ｼｽﾞｵｶｹﾝ","kana_city":"ｼﾏﾀﾞｼ","kana_address":"ﾄﾞｳｴﾂ","pref":"静岡県","city":"島田市","address":"道悦"},
{"zip_code":"4270014","kana_pref":"ｼｽﾞｵｶｹﾝ","kana_city":"ｼﾏﾀﾞｼ","kana_address":"ﾄﾞｳｴﾂｼﾞﾏ","pref":"静岡県","city":"島田市","address":"道悦島"},
{"zip_code":"4270003","kana_pref":"ｼｽﾞｵｶｹﾝ","kana_city":"ｼﾏﾀﾞｼ","kana_address":"ﾄｳｺｳｼﾞ","pref":"静岡県","city":"島田市","address":"東光寺"},
{"zip_code":"4270103","kana_pref":"ｼｽﾞｵｶｹﾝ","kana_city":"ｼﾏﾀﾞｼ","kana_address":"ﾅｶｶﾞﾜ","pref":"静岡県","city":"島田市","address":"中河"},
{"zip_code":"4270041","kana_pref":"ｼｽﾞｵｶｹﾝ","kana_city":"ｼﾏﾀﾞｼ","kana_address":"ﾅｶｶﾞﾜﾁｮｳ","pref":"静岡県","city":"島田市","address":"中河町"},
{"zip_code":"4270043","kana_pref":"ｼｽﾞｵｶｹﾝ","kana_city":"ｼﾏﾀﾞｼ","kana_address":"ﾅｶﾐｿﾞ","pref":"静岡県","city":"島田市","address":"中溝"},
{"zip_code":"4270047","kana_pref":"ｼｽﾞｵｶｹﾝ","kana_city":"ｼﾏﾀﾞｼ","kana_address":"ﾅｶﾐｿﾞﾁｮｳ","pref":"静岡県","city":"島田市","address":"中溝町"},
{"zip_code":"4270007","kana_pref":"ｼｽﾞｵｶｹﾝ","kana_city":"ｼﾏﾀﾞｼ","kana_address":"ﾉﾀﾞ","pref":"静岡県","city":"島田市","address":"野田"},
{"zip_code":"4270048","kana_pref":"ｼｽﾞｵｶｹﾝ","kana_city":"ｼﾏﾀﾞｼ","kana_address":"ﾊｯｻｼ","pref":"静岡県","city":"島田市","address":"旗指"},
{"zip_code":"4270061","kana_pref":"ｼｽﾞｵｶｹﾝ","kana_city":"ｼﾏﾀﾞｼ","kana_address":"ﾊﾞﾗﾉｵｶ","pref":"静岡県","city":"島田市","address":"ばらの丘"},
{"zip_code":"4270011","kana_pref":"ｼｽﾞｵｶｹﾝ","kana_city":"ｼﾏﾀﾞｼ","kana_address":"ﾋｶﾞｼﾁｮｳ","pref":"静岡県","city":"島田市","address":"東町"},
{"zip_code":"4270029","kana_pref":"ｼｽﾞｵｶｹﾝ","kana_city":"ｼﾏﾀﾞｼ","kana_address":"ﾋﾉﾃﾞﾁｮｳ","pref":"静岡県","city":"島田市","address":"日之出町"},
{"zip_code":"4270107","kana_pref":"ｼｽﾞｵｶｹﾝ","kana_city":"ｼﾏﾀﾞｼ","kana_address":"ﾌﾅｷ","pref":"静岡県","city":"島田市","address":"船木"},
{"zip_code":"4270016","kana_pref":"ｼｽﾞｵｶｹﾝ","kana_city":"ｼﾏﾀﾞｼ","kana_address":"ﾎｳﾗｲﾁｮｳ","pref":"静岡県","city":"島田市","address":"宝来町"},
{"zip_code":"4270012","kana_pref":"ｼｽﾞｵｶｹﾝ","kana_city":"ｼﾏﾀﾞｼ","kana_address":"ﾎｿｼﾞﾏ","pref":"静岡県","city":"島田市","address":"細島"},
{"zip_code":"4270022","kana_pref":"ｼｽﾞｵｶｹﾝ","kana_city":"ｼﾏﾀﾞｼ","kana_address":"ﾎﾝﾄｵﾘ","pref":"静岡県","city":"島田市","address":"本通"},
{"zip_code":"4270108","kana_pref":"ｼｽﾞｵｶｹﾝ","kana_city":"ｼﾏﾀﾞｼ","kana_address":"ﾏｷﾉﾊﾗ","pref":"静岡県","city":"島田市","address":"牧之原"},
{"zip_code":"4270052","kana_pref":"ｼｽﾞｵｶｹﾝ","kana_city":"ｼﾏﾀﾞｼ","kana_address":"ﾏﾂﾊﾞﾁｮｳ","pref":"静岡県","city":"島田市","address":"松葉町"},
{"zip_code":"4270036","kana_pref":"ｼｽﾞｵｶｹﾝ","kana_city":"ｼﾏﾀﾞｼ","kana_address":"ﾐﾂｱｲﾁｮｳ","pref":"静岡県","city":"島田市","address":"三ツ合町"},
{"zip_code":"4270017","kana_pref":"ｼｽﾞｵｶｹﾝ","kana_city":"ｼﾏﾀﾞｼ","kana_address":"ﾐﾅﾐ","pref":"静岡県","city":"島田市","address":"南"},
{"zip_code":"4270105","kana_pref":"ｼｽﾞｵｶｹﾝ","kana_city":"ｼﾏﾀﾞｼ","kana_address":"ﾐﾅﾐﾊﾗ","pref":"静岡県","city":"島田市","address":"南原"},
{"zip_code":"4270233","kana_pref":"ｼｽﾞｵｶｹﾝ","kana_city":"ｼﾏﾀﾞｼ","kana_address":"ﾐﾅﾘ","pref":"静岡県","city":"島田市","address":"身成"},
{"zip_code":"4270044","kana_pref":"ｼｽﾞｵｶｹﾝ","kana_city":"ｼﾏﾀﾞｼ","kana_address":"ﾐﾔｶﾞﾜﾁｮｳ","pref":"静岡県","city":"島田市","address":"宮川町"},
{"zip_code":"4270045","kana_pref":"ｼｽﾞｵｶｹﾝ","kana_city":"ｼﾏﾀﾞｼ","kana_address":"ﾑｶｲｼﾞﾏﾁｮｳ","pref":"静岡県","city":"島田市","address":"向島町"},
{"zip_code":"4270039","kana_pref":"ｼｽﾞｵｶｹﾝ","kana_city":"ｼﾏﾀﾞｼ","kana_address":"ﾑｸﾔ","pref":"静岡県","city":"島田市","address":"向谷"},
{"zip_code":"4270035","kana_pref":"ｼｽﾞｵｶｹﾝ","kana_city":"ｼﾏﾀﾞｼ","kana_address":"ﾑｸﾔﾓﾄﾏﾁ","pref":"静岡県","city":"島田市","address":"向谷元町"},
{"zip_code":"4270057","kana_pref":"ｼｽﾞｵｶｹﾝ","kana_city":"ｼﾏﾀﾞｼ","kana_address":"ﾓﾄｼﾏﾀﾞ","pref":"静岡県","city":"島田市","address":"元島田"},
{"zip_code":"4270051","kana_pref":"ｼｽﾞｵｶｹﾝ","kana_city":"ｼﾏﾀﾞｼ","kana_address":"ﾓﾄｼﾏﾀﾞﾋｶﾞｼﾁｮｳ","pref":"静岡県","city":"島田市","address":"元島田東町"},
{"zip_code":"4270021","kana_pref":"ｼｽﾞｵｶｹﾝ","kana_city":"ｼﾏﾀﾞｼ","kana_address":"ﾔﾅｷﾞﾏﾁ","pref":"静岡県","city":"島田市","address":"柳町"},
{"zip_code":"4270113","kana_pref":"ｼｽﾞｵｶｹﾝ","kana_city":"ｼﾏﾀﾞｼ","kana_address":"ﾕｲ","pref":"静岡県","city":"島田市","address":"湯日"},
{"zip_code":"4270024","kana_pref":"ｼｽﾞｵｶｹﾝ","kana_city":"ｼﾏﾀﾞｼ","kana_address":"ﾖｺｲ","pref":"静岡県","city":"島田市","address":"横井"},
{"zip_code":"4270046","kana_pref":"ｼｽﾞｵｶｹﾝ","kana_city":"ｼﾏﾀﾞｼ","kana_address":"ﾜｶﾏﾂﾁｮｳ","pref":"静岡県","city":"島田市","address":"若松町"}]}