{"zip_code":[
{"zip_code":"4313121","kana_pref":"ｼｽﾞｵｶｹﾝ","kana_city":"ﾊﾏﾏﾂｼﾋｶﾞｼｸ","kana_address":"ｱﾘﾀﾏｷﾀﾏﾁ","pref":"静岡県","city":"浜松市東区","address":"有玉北町"},
{"zip_code":"4313126","kana_pref":"ｼｽﾞｵｶｹﾝ","kana_city":"ﾊﾏﾏﾂｼﾋｶﾞｼｸ","kana_address":"ｱﾘﾀﾏﾀﾞｲ","pref":"静岡県","city":"浜松市東区","address":"有玉台"},
{"zip_code":"4313123","kana_pref":"ｼｽﾞｵｶｹﾝ","kana_city":"ﾊﾏﾏﾂｼﾋｶﾞｼｸ","kana_address":"ｱﾘﾀﾏﾆｼﾏﾁ","pref":"静岡県","city":"浜松市東区","address":"有玉西町"},
{"zip_code":"4313122","kana_pref":"ｼｽﾞｵｶｹﾝ","kana_city":"ﾊﾏﾏﾂｼﾋｶﾞｼｸ","kana_address":"ｱﾘﾀﾏﾐﾅﾐﾏﾁ","pref":"静岡県","city":"浜松市東区","address":"有玉南町"},
{"zip_code":"4313112","kana_pref":"ｼｽﾞｵｶｹﾝ","kana_city":"ﾊﾏﾏﾂｼﾋｶﾞｼｸ","kana_address":"ｵｵｼﾏﾁｮｳ","pref":"静岡県","city":"浜松市東区","address":"大島町"},
{"zip_code":"4313113","kana_pref":"ｼｽﾞｵｶｹﾝ","kana_city":"ﾊﾏﾏﾂｼﾋｶﾞｼｸ","kana_address":"ｵｵｾﾁｮｳ","pref":"静岡県","city":"浜松市東区","address":"大瀬町"},
{"zip_code":"4313106","kana_pref":"ｼｽﾞｵｶｹﾝ","kana_city":"ﾊﾏﾏﾂｼﾋｶﾞｼｸ","kana_address":"ｶｻｲｶﾐﾏﾁ","pref":"静岡県","city":"浜松市東区","address":"笠井上町"},
{"zip_code":"4313105","kana_pref":"ｼｽﾞｵｶｹﾝ","kana_city":"ﾊﾏﾏﾂｼﾋｶﾞｼｸ","kana_address":"ｶｻｲｼﾝﾃﾞﾝﾁｮｳ","pref":"静岡県","city":"浜松市東区","address":"笠井新田町"},
{"zip_code":"4313107","kana_pref":"ｼｽﾞｵｶｹﾝ","kana_city":"ﾊﾏﾏﾂｼﾋｶﾞｼｸ","kana_address":"ｶｻｲﾁｮｳ","pref":"静岡県","city":"浜松市東区","address":"笠井町"},
{"zip_code":"4313104","kana_pref":"ｼｽﾞｵｶｹﾝ","kana_city":"ﾊﾏﾏﾂｼﾋｶﾞｼｸ","kana_address":"ｷﾍｲﾁｮｳ","pref":"静岡県","city":"浜松市東区","address":"貴平町"},
{"zip_code":"4313103","kana_pref":"ｼｽﾞｵｶｹﾝ","kana_city":"ﾊﾏﾏﾂｼﾋｶﾞｼｸ","kana_address":"ｼﾞｮｳｺｳﾁｮｳ","pref":"静岡県","city":"浜松市東区","address":"常光町"},
{"zip_code":"4313114","kana_pref":"ｼｽﾞｵｶｹﾝ","kana_city":"ﾊﾏﾏﾂｼﾋｶﾞｼｸ","kana_address":"ｾｷｼﾁｮｳ","pref":"静岡県","city":"浜松市東区","address":"積志町"},
{"zip_code":"4313108","kana_pref":"ｼｽﾞｵｶｹﾝ","kana_city":"ﾊﾏﾏﾂｼﾋｶﾞｼｸ","kana_address":"ﾂﾈﾀｹﾁｮｳ","pref":"静岡県","city":"浜松市東区","address":"恒武町"},
{"zip_code":"4313102","kana_pref":"ｼｽﾞｵｶｹﾝ","kana_city":"ﾊﾏﾏﾂｼﾋｶﾞｼｸ","kana_address":"ﾄﾖﾆｼﾁｮｳ","pref":"静岡県","city":"浜松市東区","address":"豊西町"},
{"zip_code":"4313111","kana_pref":"ｼｽﾞｵｶｹﾝ","kana_city":"ﾊﾏﾏﾂｼﾋｶﾞｼｸ","kana_address":"ﾅｶｺﾞｵﾘﾁｮｳ","pref":"静岡県","city":"浜松市東区","address":"中郡町"},
{"zip_code":"4313115","kana_pref":"ｼｽﾞｵｶｹﾝ","kana_city":"ﾊﾏﾏﾂｼﾋｶﾞｼｸ","kana_address":"ﾆｼｶﾞｻｷﾁｮｳ","pref":"静岡県","city":"浜松市東区","address":"西ケ崎町"},
{"zip_code":"4313124","kana_pref":"ｼｽﾞｵｶｹﾝ","kana_city":"ﾊﾏﾏﾂｼﾋｶﾞｼｸ","kana_address":"ﾊﾝﾀﾞﾁｮｳ","pref":"静岡県","city":"浜松市東区","address":"半田町"},
{"zip_code":"4313125","kana_pref":"ｼｽﾞｵｶｹﾝ","kana_city":"ﾊﾏﾏﾂｼﾋｶﾞｼｸ","kana_address":"ﾊﾝﾀﾞﾔﾏ","pref":"静岡県","city":"浜松市東区","address":"半田山"},
{"zip_code":"4313101","kana_pref":"ｼｽﾞｵｶｹﾝ","kana_city":"ﾊﾏﾏﾂｼﾋｶﾞｼｸ","kana_address":"ﾕﾀｶﾁｮｳ","pref":"静岡県","city":"浜松市東区","address":"豊町"},
{"zip_code":"4311111","kana_pref":"ｼｽﾞｵｶｹﾝ","kana_city":"ﾊﾏﾏﾂｼﾆｼｸ","kana_address":"ｲｻｼﾞﾁｮｳ","pref":"静岡県","city":"浜松市西区","address":"伊左地町"},
{"zip_code":"4311112","kana_pref":"ｼｽﾞｵｶｹﾝ","kana_city":"ﾊﾏﾏﾂｼﾆｼｸ","kana_address":"ｵｵﾋﾄﾐﾁｮｳ","pref":"静岡県","city":"浜松市西区","address":"大人見町"},
{"zip_code":"4311102","kana_pref":"ｼｽﾞｵｶｹﾝ","kana_city":"ﾊﾏﾏﾂｼﾆｼｸ","kana_address":"ｵｵﾔﾏﾁｮｳ","pref":"静岡県","city":"浜松市西区","address":"大山町"},
{"zip_code":"4311209","kana_pref":"ｼｽﾞｵｶｹﾝ","kana_city":"ﾊﾏﾏﾂｼﾆｼｸ","kana_address":"ｶﾝｻﾞﾝｼﾞﾁｮｳ","pref":"静岡県","city":"浜松市西区","address":"舘山寺町"},
{"zip_code":"4311205","kana_pref":"ｼｽﾞｵｶｹﾝ","kana_city":"ﾊﾏﾏﾂｼﾆｼｸ","kana_address":"ｷｮｳﾜﾁｮｳ","pref":"静岡県","city":"浜松市西区","address":"協和町"},
{"zip_code":"4311202","kana_pref":"ｼｽﾞｵｶｹﾝ","kana_city":"ﾊﾏﾏﾂｼﾆｼｸ","kana_address":"ｸﾚﾏﾂﾁｮｳ","pref":"静岡県","city":"浜松市西区","address":"呉松町"},
{"zip_code":"4311103","kana_pref":"ｼｽﾞｵｶｹﾝ","kana_city":"ﾊﾏﾏﾂｼﾆｼｸ","kana_address":"ｺﾄｳﾁｮｳ","pref":"静岡県","city":"浜松市西区","address":"湖東町"},
{"zip_code":"4311113","kana_pref":"ｼｽﾞｵｶｹﾝ","kana_city":"ﾊﾏﾏﾂｼﾆｼｸ","kana_address":"ｺﾋﾄﾐﾁｮｳ","pref":"静岡県","city":"浜松市西区","address":"古人見町"},
{"zip_code":"4311104","kana_pref":"ｼｽﾞｵｶｹﾝ","kana_city":"ﾊﾏﾏﾂｼﾆｼｸ","kana_address":"ｻｸﾗﾀﾞｲ","pref":"静岡県","city":"浜松市西区","address":"桜台"},
{"zip_code":"4311114","kana_pref":"ｼｽﾞｵｶｹﾝ","kana_city":"ﾊﾏﾏﾂｼﾆｼｸ","kana_address":"ｻﾊﾏﾁｮｳ","pref":"静岡県","city":"浜松市西区","address":"佐浜町"},
{"zip_code":"4310201","kana_pref":"ｼｽﾞｵｶｹﾝ","kana_city":"ﾊﾏﾏﾂｼﾆｼｸ","kana_address":"ｼﾉﾊﾗﾁｮｳ","pref":"静岡県","city":"浜松市西区","address":"篠原町"},
{"zip_code":"4311208","kana_pref":"ｼｽﾞｵｶｹﾝ","kana_city":"ﾊﾏﾏﾂｼﾆｼｸ","kana_address":"ｼｮｳﾅｲﾁｮｳ","pref":"静岡県","city":"浜松市西区","address":"庄内町"},
{"zip_code":"4311206","kana_pref":"ｼｽﾞｵｶｹﾝ","kana_city":"ﾊﾏﾏﾂｼﾆｼｸ","kana_address":"ｼｮｳﾜﾁｮｳ","pref":"静岡県","city":"浜松市西区","address":"庄和町"},
{"zip_code":"4311204","kana_pref":"ｼｽﾞｵｶｹﾝ","kana_city":"ﾊﾏﾏﾂｼﾆｼｸ","kana_address":"ｼﾗｽﾁｮｳ","pref":"静岡県","city":"浜松市西区","address":"白洲町"},
{"zip_code":"4310202","kana_pref":"ｼｽﾞｵｶｹﾝ","kana_city":"ﾊﾏﾏﾂｼﾆｼｸ","kana_address":"ﾂﾎﾞｲﾁｮｳ","pref":"静岡県","city":"浜松市西区","address":"坪井町"},
{"zip_code":"4311203","kana_pref":"ｼｽﾞｵｶｹﾝ","kana_city":"ﾊﾏﾏﾂｼﾆｼｸ","kana_address":"ﾋﾗﾏﾂﾁｮｳ","pref":"静岡県","city":"浜松市西区","address":"平松町"},
{"zip_code":"4311201","kana_pref":"ｼｽﾞｵｶｹﾝ","kana_city":"ﾊﾏﾏﾂｼﾆｼｸ","kana_address":"ﾌｶﾊｷﾞﾁｮｳ","pref":"静岡県","city":"浜松市西区","address":"深萩町"},
{"zip_code":"4310212","kana_pref":"ｼｽﾞｵｶｹﾝ","kana_city":"ﾊﾏﾏﾂｼﾆｼｸ","kana_address":"ﾏｲｻｶﾁｮｳﾁｮｳｼﾞｭｳｼﾝﾃﾞﾝ","pref":"静岡県","city":"浜松市西区","address":"舞阪町長十新田"},
{"zip_code":"4310213","kana_pref":"ｼｽﾞｵｶｹﾝ","kana_city":"ﾊﾏﾏﾂｼﾆｼｸ","kana_address":"ﾏｲｻｶﾁｮｳﾊﾏﾀﾞ","pref":"静岡県","city":"浜松市西区","address":"舞阪町浜田"},
{"zip_code":"4310214","kana_pref":"ｼｽﾞｵｶｹﾝ","kana_city":"ﾊﾏﾏﾂｼﾆｼｸ","kana_address":"ﾏｲｻｶﾁｮｳﾍﾞﾝﾃﾝｼﾞﾏ","pref":"静岡県","city":"浜松市西区","address":"舞阪町弁天島"},
{"zip_code":"4310211","kana_pref":"ｼｽﾞｵｶｹﾝ","kana_city":"ﾊﾏﾏﾂｼﾆｼｸ","kana_address":"ﾏｲｻｶﾁｮｳﾏｲｻｶ","pref":"静岡県","city":"浜松市西区","address":"舞阪町舞阪"},
{"zip_code":"4310203","kana_pref":"ｼｽﾞｵｶｹﾝ","kana_city":"ﾊﾏﾏﾂｼﾆｼｸ","kana_address":"ﾏｺﾞｵﾘﾁｮｳ","pref":"静岡県","city":"浜松市西区","address":"馬郡町"},
{"zip_code":"4311207","kana_pref":"ｼｽﾞｵｶｹﾝ","kana_city":"ﾊﾏﾏﾂｼﾆｼｸ","kana_address":"ﾑﾗｸｼﾁｮｳ","pref":"静岡県","city":"浜松市西区","address":"村櫛町"},
{"zip_code":"4310103","kana_pref":"ｼｽﾞｵｶｹﾝ","kana_city":"ﾊﾏﾏﾂｼﾆｼｸ","kana_address":"ﾕｳﾄｳ","pref":"静岡県","city":"浜松市西区","address":"雄踏"},
{"zip_code":"4310102","kana_pref":"ｼｽﾞｵｶｹﾝ","kana_city":"ﾊﾏﾏﾂｼﾆｼｸ","kana_address":"ﾕｳﾄｳﾁｮｳｳﾌﾞﾐ","pref":"静岡県","city":"浜松市西区","address":"雄踏町宇布見"},
{"zip_code":"4310101","kana_pref":"ｼｽﾞｵｶｹﾝ","kana_city":"ﾊﾏﾏﾂｼﾆｼｸ","kana_address":"ﾕｳﾄｳﾁｮｳﾔﾏｻﾞｷ","pref":"静岡県","city":"浜松市西区","address":"雄踏町山崎"},
{"zip_code":"4311101","kana_pref":"ｼｽﾞｵｶｹﾝ","kana_city":"ﾊﾏﾏﾂｼﾆｼｸ","kana_address":"ﾜｺｳﾁｮｳ","pref":"静岡県","city":"浜松市西区","address":"和光町"},
{"zip_code":"4311115","kana_pref":"ｼｽﾞｵｶｹﾝ","kana_city":"ﾊﾏﾏﾂｼﾆｼｸ","kana_address":"ﾜｼﾞﾁｮｳ","pref":"静岡県","city":"浜松市西区","address":"和地町"},
{"zip_code":"4312212","kana_pref":"ｼｽﾞｵｶｹﾝ","kana_city":"ﾊﾏﾏﾂｼｷﾀｸ","kana_address":"ｲﾅｻﾁｮｳｲｲﾉﾔ","pref":"静岡県","city":"浜松市北区","address":"引佐町井伊谷"},
{"zip_code":"4312205","kana_pref":"ｼｽﾞｵｶｹﾝ","kana_city":"ﾊﾏﾏﾂｼｷﾀｸ","kana_address":"ｲﾅｻﾁｮｳｲﾀﾞｲﾗ","pref":"静岡県","city":"浜松市北区","address":"引佐町伊平"},
{"zip_code":"4312224","kana_pref":"ｼｽﾞｵｶｹﾝ","kana_city":"ﾊﾏﾏﾂｼｷﾀｸ","kana_address":"ｲﾅｻﾁｮｳｵｸﾔﾏ","pref":"静岡県","city":"浜松市北区","address":"引佐町奥山"},
{"zip_code":"4312213","kana_pref":"ｼｽﾞｵｶｹﾝ","kana_city":"ﾊﾏﾏﾂｼｷﾀｸ","kana_address":"ｲﾅｻﾁｮｳｶﾅｻｼ","pref":"静岡県","city":"浜松市北区","address":"引佐町金指"},
{"zip_code":"4312225","kana_pref":"ｼｽﾞｵｶｹﾝ","kana_city":"ﾊﾏﾏﾂｼｷﾀｸ","kana_address":"ｲﾅｻﾁｮｳｶﾘｼｭｸ","pref":"静岡県","city":"浜松市北区","address":"引佐町狩宿"},
{"zip_code":"4312202","kana_pref":"ｼｽﾞｵｶｹﾝ","kana_city":"ﾊﾏﾏﾂｼｷﾀｸ","kana_address":"ｲﾅｻﾁｮｳｶﾜﾅ","pref":"静岡県","city":"浜松市北区","address":"引佐町川名"},
{"zip_code":"4312222","kana_pref":"ｼｽﾞｵｶｹﾝ","kana_city":"ﾊﾏﾏﾂｼｷﾀｸ","kana_address":"ｲﾅｻﾁｮｳｸﾛﾌﾞﾁ","pref":"静岡県","city":"浜松市北区","address":"引佐町黒渕"},
{"zip_code":"4312537","kana_pref":"ｼｽﾞｵｶｹﾝ","kana_city":"ﾊﾏﾏﾂｼｷﾀｸ","kana_address":"ｲﾅｻﾁｮｳｼﾌﾞｶﾜ","pref":"静岡県","city":"浜松市北区","address":"引佐町渋川"},
{"zip_code":"4312533","kana_pref":"ｼｽﾞｵｶｹﾝ","kana_city":"ﾊﾏﾏﾂｼｷﾀｸ","kana_address":"ｲﾅｻﾁｮｳｼﾎｳｼﾞｮｳ","pref":"静岡県","city":"浜松市北区","address":"引佐町四方浄"},
{"zip_code":"4312215","kana_pref":"ｼｽﾞｵｶｹﾝ","kana_city":"ﾊﾏﾏﾂｼｷﾀｸ","kana_address":"ｲﾅｻﾁｮｳｼﾗｲﾜ","pref":"静岡県","city":"浜松市北区","address":"引佐町白岩"},
{"zip_code":"4312536","kana_pref":"ｼｽﾞｵｶｹﾝ","kana_city":"ﾊﾏﾏﾂｼｷﾀｸ","kana_address":"ｲﾅｻﾁｮｳﾀｻﾞﾜ","pref":"静岡県","city":"浜松市北区","address":"引佐町田沢"},
{"zip_code":"4312221","kana_pref":"ｼｽﾞｵｶｹﾝ","kana_city":"ﾊﾏﾏﾂｼｷﾀｸ","kana_address":"ｲﾅｻﾁｮｳﾀﾊﾞﾀｹ","pref":"静岡県","city":"浜松市北区","address":"引佐町田畑"},
{"zip_code":"4312223","kana_pref":"ｼｽﾞｵｶｹﾝ","kana_city":"ﾊﾏﾏﾂｼｷﾀｸ","kana_address":"ｲﾅｻﾁｮｳﾄﾁｸﾎﾞ","pref":"静岡県","city":"浜松市北区","address":"引佐町栃窪"},
{"zip_code":"4312204","kana_pref":"ｼｽﾞｵｶｹﾝ","kana_city":"ﾊﾏﾏﾂｼｷﾀｸ","kana_address":"ｲﾅｻﾁｮｳﾄｯｶ","pref":"静岡県","city":"浜松市北区","address":"引佐町兎荷"},
{"zip_code":"4312532","kana_pref":"ｼｽﾞｵｶｹﾝ","kana_city":"ﾊﾏﾏﾂｼｷﾀｸ","kana_address":"ｲﾅｻﾁｮｳﾆｼｸﾙﾒｷ","pref":"静岡県","city":"浜松市北区","address":"引佐町西久留女木"},
{"zip_code":"4312206","kana_pref":"ｼｽﾞｵｶｹﾝ","kana_city":"ﾊﾏﾏﾂｼｷﾀｸ","kana_address":"ｲﾅｻﾁｮｳﾆｼｸﾛﾀﾞ","pref":"静岡県","city":"浜松市北区","address":"引佐町西黒田"},
{"zip_code":"4312211","kana_pref":"ｼｽﾞｵｶｹﾝ","kana_city":"ﾊﾏﾏﾂｼｷﾀｸ","kana_address":"ｲﾅｻﾁｮｳﾊﾅﾀﾞｲﾗ","pref":"静岡県","city":"浜松市北区","address":"引佐町花平"},
{"zip_code":"4312531","kana_pref":"ｼｽﾞｵｶｹﾝ","kana_city":"ﾊﾏﾏﾂｼｷﾀｸ","kana_address":"ｲﾅｻﾁｮｳﾋｶﾞｼｸﾙﾒｷ","pref":"静岡県","city":"浜松市北区","address":"引佐町東久留女木"},
{"zip_code":"4312201","kana_pref":"ｼｽﾞｵｶｹﾝ","kana_city":"ﾊﾏﾏﾂｼｷﾀｸ","kana_address":"ｲﾅｻﾁｮｳﾋｶﾞｼｸﾙﾒｷ","pref":"静岡県","city":"浜松市北区","address":"引佐町東久留女木"},
{"zip_code":"4312207","kana_pref":"ｼｽﾞｵｶｹﾝ","kana_city":"ﾊﾏﾏﾂｼｷﾀｸ","kana_address":"ｲﾅｻﾁｮｳﾋｶﾞｼｸﾛﾀﾞ","pref":"静岡県","city":"浜松市北区","address":"引佐町東黒田"},
{"zip_code":"4312534","kana_pref":"ｼｽﾞｵｶｹﾝ","kana_city":"ﾊﾏﾏﾂｼｷﾀｸ","kana_address":"ｲﾅｻﾁｮｳﾍﾞｯｼﾖ","pref":"静岡県","city":"浜松市北区","address":"引佐町別所"},
{"zip_code":"4312535","kana_pref":"ｼｽﾞｵｶｹﾝ","kana_city":"ﾊﾏﾏﾂｼｷﾀｸ","kana_address":"ｲﾅｻﾁｮｳﾏﾄﾊﾞ","pref":"静岡県","city":"浜松市北区","address":"引佐町的場"},
{"zip_code":"4312203","kana_pref":"ｼｽﾞｵｶｹﾝ","kana_city":"ﾊﾏﾏﾂｼｷﾀｸ","kana_address":"ｲﾅｻﾁｮｳﾐﾀｹ","pref":"静岡県","city":"浜松市北区","address":"引佐町三岳"},
{"zip_code":"4312226","kana_pref":"ｼｽﾞｵｶｹﾝ","kana_city":"ﾊﾏﾏﾂｼｷﾀｸ","kana_address":"ｲﾅｻﾁｮｳﾔｻﾞﾜ","pref":"静岡県","city":"浜松市北区","address":"引佐町谷沢"},
{"zip_code":"4312214","kana_pref":"ｼｽﾞｵｶｹﾝ","kana_city":"ﾊﾏﾏﾂｼｷﾀｸ","kana_address":"ｲﾅｻﾁｮｳﾖｺｵ","pref":"静岡県","city":"浜松市北区","address":"引佐町横尾"},
{"zip_code":"4312103","kana_pref":"ｼｽﾞｵｶｹﾝ","kana_city":"ﾊﾏﾏﾂｼｷﾀｸ","kana_address":"ｼﾝﾐﾔｺﾀﾞ","pref":"静岡県","city":"浜松市北区","address":"新都田"},
{"zip_code":"4312101","kana_pref":"ｼｽﾞｵｶｹﾝ","kana_city":"ﾊﾏﾏﾂｼｷﾀｸ","kana_address":"ﾀｷｻﾜﾁｮｳ","pref":"静岡県","city":"浜松市北区","address":"滝沢町"},
{"zip_code":"4311301","kana_pref":"ｼｽﾞｵｶｹﾝ","kana_city":"ﾊﾏﾏﾂｼｷﾀｸ","kana_address":"ﾎｿｴﾁｮｳｵﾉ","pref":"静岡県","city":"浜松市北区","address":"細江町小野"},
{"zip_code":"4311305","kana_pref":"ｼｽﾞｵｶｹﾝ","kana_city":"ﾊﾏﾏﾂｼｷﾀｸ","kana_address":"ﾎｿｴﾁｮｳｷｶﾞ","pref":"静岡県","city":"浜松市北区","address":"細江町気賀"},
{"zip_code":"4311304","kana_pref":"ｼｽﾞｵｶｹﾝ","kana_city":"ﾊﾏﾏﾂｼｷﾀｸ","kana_address":"ﾎｿｴﾁｮｳﾅｶｶﾞﾜ","pref":"静岡県","city":"浜松市北区","address":"細江町中川"},
{"zip_code":"4311302","kana_pref":"ｼｽﾞｵｶｹﾝ","kana_city":"ﾊﾏﾏﾂｼｷﾀｸ","kana_address":"ﾎｿｴﾁｮｳﾋﾛｵｶ","pref":"静岡県","city":"浜松市北区","address":"細江町広岡"},
{"zip_code":"4311303","kana_pref":"ｼｽﾞｵｶｹﾝ","kana_city":"ﾊﾏﾏﾂｼｷﾀｸ","kana_address":"ﾎｿｴﾁｮｳﾐﾜ","pref":"静岡県","city":"浜松市北区","address":"細江町三和"},
{"zip_code":"4311404","kana_pref":"ｼｽﾞｵｶｹﾝ","kana_city":"ﾊﾏﾏﾂｼｷﾀｸ","kana_address":"ﾐｯｶﾋﾞﾁｮｳｳｼ","pref":"静岡県","city":"浜松市北区","address":"三ヶ日町宇志"},
{"zip_code":"4311403","kana_pref":"ｼｽﾞｵｶｹﾝ","kana_city":"ﾊﾏﾏﾂｼｷﾀｸ","kana_address":"ﾐｯｶﾋﾞﾁｮｳｵｵｻｷ","pref":"静岡県","city":"浜松市北区","address":"三ヶ日町大崎"},
{"zip_code":"4311407","kana_pref":"ｼｽﾞｵｶｹﾝ","kana_city":"ﾊﾏﾏﾂｼｷﾀｸ","kana_address":"ﾐｯｶﾋﾞﾁｮｳｵｵﾔ","pref":"静岡県","city":"浜松市北区","address":"三ヶ日町大谷"},
{"zip_code":"4311415","kana_pref":"ｼｽﾞｵｶｹﾝ","kana_city":"ﾊﾏﾏﾂｼｷﾀｸ","kana_address":"ﾐｯｶﾋﾞﾁｮｳｵｶﾓﾄ","pref":"静岡県","city":"浜松市北区","address":"三ヶ日町岡本"},
{"zip_code":"4311425","kana_pref":"ｼｽﾞｵｶｹﾝ","kana_city":"ﾊﾏﾏﾂｼｷﾀｸ","kana_address":"ﾐｯｶﾋﾞﾁｮｳｶﾐｵﾅ","pref":"静岡県","city":"浜松市北区","address":"三ヶ日町上尾奈"},
{"zip_code":"4311406","kana_pref":"ｼｽﾞｵｶｹﾝ","kana_city":"ﾊﾏﾏﾂｼｷﾀｸ","kana_address":"ﾐｯｶﾋﾞﾁｮｳｺﾏﾊﾞ","pref":"静岡県","city":"浜松市北区","address":"三ヶ日町駒場"},
{"zip_code":"4311401","kana_pref":"ｼｽﾞｵｶｹﾝ","kana_city":"ﾊﾏﾏﾂｼｷﾀｸ","kana_address":"ﾐｯｶﾋﾞﾁｮｳｻｸﾒ","pref":"静岡県","city":"浜松市北区","address":"三ヶ日町佐久米"},
{"zip_code":"4311424","kana_pref":"ｼｽﾞｵｶｹﾝ","kana_city":"ﾊﾏﾏﾂｼｷﾀｸ","kana_address":"ﾐｯｶﾋﾞﾁｮｳｼﾓｵﾅ","pref":"静岡県","city":"浜松市北区","address":"三ヶ日町下尾奈"},
{"zip_code":"4311412","kana_pref":"ｼｽﾞｵｶｹﾝ","kana_city":"ﾊﾏﾏﾂｼｷﾀｸ","kana_address":"ﾐｯｶﾋﾞﾁｮｳﾀﾀﾞｷ","pref":"静岡県","city":"浜松市北区","address":"三ヶ日町只木"},
{"zip_code":"4311402","kana_pref":"ｼｽﾞｵｶｹﾝ","kana_city":"ﾊﾏﾏﾂｼｷﾀｸ","kana_address":"ﾐｯｶﾋﾞﾁｮｳﾂﾂﾞｷ","pref":"静岡県","city":"浜松市北区","address":"三ヶ日町都筑"},
{"zip_code":"4311405","kana_pref":"ｼｽﾞｵｶｹﾝ","kana_city":"ﾊﾏﾏﾂｼｷﾀｸ","kana_address":"ﾐｯｶﾋﾞﾁｮｳﾂﾂﾞｻｷ","pref":"静岡県","city":"浜松市北区","address":"三ヶ日町津々崎"},
{"zip_code":"4311416","kana_pref":"ｼｽﾞｵｶｹﾝ","kana_city":"ﾊﾏﾏﾂｼｷﾀｸ","kana_address":"ﾐｯｶﾋﾞﾁｮｳﾂﾘ","pref":"静岡県","city":"浜松市北区","address":"三ヶ日町釣"},
{"zip_code":"4311423","kana_pref":"ｼｽﾞｵｶｹﾝ","kana_city":"ﾊﾏﾏﾂｼｷﾀｸ","kana_address":"ﾐｯｶﾋﾞﾁｮｳﾇｴｼﾛ","pref":"静岡県","city":"浜松市北区","address":"三ヶ日町鵺代"},
{"zip_code":"4311422","kana_pref":"ｼｽﾞｵｶｹﾝ","kana_city":"ﾊﾏﾏﾂｼｷﾀｸ","kana_address":"ﾐｯｶﾋﾞﾁｮｳﾋﾋﾞｻﾜ","pref":"静岡県","city":"浜松市北区","address":"三ヶ日町日比沢"},
{"zip_code":"4311417","kana_pref":"ｼｽﾞｵｶｹﾝ","kana_city":"ﾊﾏﾏﾂｼｷﾀｸ","kana_address":"ﾐｯｶﾋﾞﾁｮｳﾋﾗﾔﾏ","pref":"静岡県","city":"浜松市北区","address":"三ヶ日町平山"},
{"zip_code":"4311411","kana_pref":"ｼｽﾞｵｶｹﾝ","kana_city":"ﾊﾏﾏﾂｼｷﾀｸ","kana_address":"ﾐｯｶﾋﾞﾁｮｳﾌｸﾅｶﾞ","pref":"静岡県","city":"浜松市北区","address":"三ヶ日町福長"},
{"zip_code":"4311421","kana_pref":"ｼｽﾞｵｶｹﾝ","kana_city":"ﾊﾏﾏﾂｼｷﾀｸ","kana_address":"ﾐｯｶﾋﾞﾁｮｳﾎﾝｻﾞｶ","pref":"静岡県","city":"浜松市北区","address":"三ヶ日町本坂"},
{"zip_code":"4311413","kana_pref":"ｼｽﾞｵｶｹﾝ","kana_city":"ﾊﾏﾏﾂｼｷﾀｸ","kana_address":"ﾐｯｶﾋﾞﾁｮｳﾏｶﾔ","pref":"静岡県","city":"浜松市北区","address":"三ヶ日町摩訶耶"},
{"zip_code":"4311414","kana_pref":"ｼｽﾞｵｶｹﾝ","kana_city":"ﾊﾏﾏﾂｼｷﾀｸ","kana_address":"ﾐｯｶﾋﾞﾁｮｳﾐｯｶﾋﾞ","pref":"静岡県","city":"浜松市北区","address":"三ヶ日町三ヶ日"},
{"zip_code":"4312102","kana_pref":"ｼｽﾞｵｶｹﾝ","kana_city":"ﾊﾏﾏﾂｼｷﾀｸ","kana_address":"ﾐﾔｺﾀﾞﾁｮｳ","pref":"静岡県","city":"浜松市北区","address":"都田町"},
{"zip_code":"4312104","kana_pref":"ｼｽﾞｵｶｹﾝ","kana_city":"ﾊﾏﾏﾂｼｷﾀｸ","kana_address":"ﾜｼｻﾞﾜﾁｮｳ","pref":"静岡県","city":"浜松市北区","address":"鷲沢町"},
{"zip_code":"4313425","kana_pref":"ｼｽﾞｵｶｹﾝ","kana_city":"ﾊﾏﾏﾂｼﾃﾝﾘｭｳｸ","kana_address":"ｱｵﾔ","pref":"静岡県","city":"浜松市天竜区","address":"青谷"},
{"zip_code":"4313535","kana_pref":"ｼｽﾞｵｶｹﾝ","kana_city":"ﾊﾏﾏﾂｼﾃﾝﾘｭｳｸ","kana_address":"ｱｼｸﾎﾞ","pref":"静岡県","city":"浜松市天竜区","address":"芦窪"},
{"zip_code":"4313536","kana_pref":"ｼｽﾞｵｶｹﾝ","kana_city":"ﾊﾏﾏﾂｼﾃﾝﾘｭｳｸ","kana_address":"ｱﾃﾗ","pref":"静岡県","city":"浜松市天竜区","address":"阿寺"},
{"zip_code":"4313428","kana_pref":"ｼｽﾞｵｶｹﾝ","kana_city":"ﾊﾏﾏﾂｼﾃﾝﾘｭｳｸ","kana_address":"ｲｼｶﾞﾐ","pref":"静岡県","city":"浜松市天竜区","address":"石神"},
{"zip_code":"4313762","kana_pref":"ｼｽﾞｵｶｹﾝ","kana_city":"ﾊﾏﾏﾂｼﾃﾝﾘｭｳｸ","kana_address":"ｲｽｶ","pref":"静岡県","city":"浜松市天竜区","address":"伊砂"},
{"zip_code":"4313755","kana_pref":"ｼｽﾞｵｶｹﾝ","kana_city":"ﾊﾏﾏﾂｼﾃﾝﾘｭｳｸ","kana_address":"ｵｵｶﾜ","pref":"静岡県","city":"浜松市天竜区","address":"大川"},
{"zip_code":"4313642","kana_pref":"ｼｽﾞｵｶｹﾝ","kana_city":"ﾊﾏﾏﾂｼﾃﾝﾘｭｳｸ","kana_address":"ｵｵｸﾞﾘﾔｽ","pref":"静岡県","city":"浜松市天竜区","address":"大栗安"},
{"zip_code":"4313305","kana_pref":"ｼｽﾞｵｶｹﾝ","kana_city":"ﾊﾏﾏﾂｼﾃﾝﾘｭｳｸ","kana_address":"ｵｵﾔ","pref":"静岡県","city":"浜松市天竜区","address":"大谷"},
{"zip_code":"4313752","kana_pref":"ｼｽﾞｵｶｹﾝ","kana_city":"ﾊﾏﾏﾂｼﾃﾝﾘｭｳｸ","kana_address":"ｵｶﾞﾜ","pref":"静岡県","city":"浜松市天竜区","address":"小川"},
{"zip_code":"4313427","kana_pref":"ｼｽﾞｵｶｹﾝ","kana_city":"ﾊﾏﾏﾂｼﾃﾝﾘｭｳｸ","kana_address":"ｶﾐﾉ","pref":"静岡県","city":"浜松市天竜区","address":"上野"},
{"zip_code":"4313643","kana_pref":"ｼｽﾞｵｶｹﾝ","kana_city":"ﾊﾏﾏﾂｼﾃﾝﾘｭｳｸ","kana_address":"ｶﾝｻﾞﾜ","pref":"静岡県","city":"浜松市天竜区","address":"神沢"},
{"zip_code":"4313641","kana_pref":"ｼｽﾞｵｶｹﾝ","kana_city":"ﾊﾏﾏﾂｼﾃﾝﾘｭｳｸ","kana_address":"ｸﾏ","pref":"静岡県","city":"浜松市天竜区","address":"熊"},
{"zip_code":"4313753","kana_pref":"ｼｽﾞｵｶｹﾝ","kana_city":"ﾊﾏﾏﾂｼﾃﾝﾘｭｳｸ","kana_address":"ｻｸ","pref":"静岡県","city":"浜松市天竜区","address":"佐久"},
{"zip_code":"4314111","kana_pref":"ｼｽﾞｵｶｹﾝ","kana_city":"ﾊﾏﾏﾂｼﾃﾝﾘｭｳｸ","kana_address":"ｻｸﾏﾁｮｳｱｲﾂﾞｷ","pref":"静岡県","city":"浜松市天竜区","address":"佐久間町相月"},
{"zip_code":"4313906","kana_pref":"ｼｽﾞｵｶｹﾝ","kana_city":"ﾊﾏﾏﾂｼﾃﾝﾘｭｳｸ","kana_address":"ｻｸﾏﾁｮｳｳﾗｶﾜ","pref":"静岡県","city":"浜松市天竜区","address":"佐久間町浦川"},
{"zip_code":"4313902","kana_pref":"ｼｽﾞｵｶｹﾝ","kana_city":"ﾊﾏﾏﾂｼﾃﾝﾘｭｳｸ","kana_address":"ｻｸﾏﾁｮｳｵｵｲ","pref":"静岡県","city":"浜松市天竜区","address":"佐久間町大井"},
{"zip_code":"4314112","kana_pref":"ｼｽﾞｵｶｹﾝ","kana_city":"ﾊﾏﾏﾂｼﾃﾝﾘｭｳｸ","kana_address":"ｻｸﾏﾁｮｳｵｸﾘｮｳｹ","pref":"静岡県","city":"浜松市天竜区","address":"佐久間町奥領家"},
{"zip_code":"4313903","kana_pref":"ｼｽﾞｵｶｹﾝ","kana_city":"ﾊﾏﾏﾂｼﾃﾝﾘｭｳｸ","kana_address":"ｻｸﾏﾁｮｳｶﾐﾋﾗﾔﾏ","pref":"静岡県","city":"浜松市天竜区","address":"佐久間町上平山"},
{"zip_code":"4313907","kana_pref":"ｼｽﾞｵｶｹﾝ","kana_city":"ﾊﾏﾏﾂｼﾃﾝﾘｭｳｸ","kana_address":"ｻｸﾏﾁｮｳｶﾜｲ","pref":"静岡県","city":"浜松市天竜区","address":"佐久間町川合"},
{"zip_code":"4313901","kana_pref":"ｼｽﾞｵｶｹﾝ","kana_city":"ﾊﾏﾏﾂｼﾃﾝﾘｭｳｸ","kana_address":"ｻｸﾏﾁｮｳｻｸﾏ","pref":"静岡県","city":"浜松市天竜区","address":"佐久間町佐久間"},
{"zip_code":"4313904","kana_pref":"ｼｽﾞｵｶｹﾝ","kana_city":"ﾊﾏﾏﾂｼﾃﾝﾘｭｳｸ","kana_address":"ｻｸﾏﾁｮｳﾄｸﾞﾁ","pref":"静岡県","city":"浜松市天竜区","address":"佐久間町戸口"},
{"zip_code":"4313908","kana_pref":"ｼｽﾞｵｶｹﾝ","kana_city":"ﾊﾏﾏﾂｼﾃﾝﾘｭｳｸ","kana_address":"ｻｸﾏﾁｮｳﾅｶﾍﾞ","pref":"静岡県","city":"浜松市天竜区","address":"佐久間町中部"},
{"zip_code":"4313905","kana_pref":"ｼｽﾞｵｶｹﾝ","kana_city":"ﾊﾏﾏﾂｼﾃﾝﾘｭｳｸ","kana_address":"ｻｸﾏﾁｮｳﾊﾝﾊﾞ","pref":"静岡県","city":"浜松市天竜区","address":"佐久間町半場"},
{"zip_code":"4313304","kana_pref":"ｼｽﾞｵｶｹﾝ","kana_city":"ﾊﾏﾏﾂｼﾃﾝﾘｭｳｸ","kana_address":"ｼﾞﾛｳﾊﾁｼﾝﾃﾞﾝ","pref":"静岡県","city":"浜松市天竜区","address":"次郎八新田"},
{"zip_code":"4313754","kana_pref":"ｼｽﾞｵｶｹﾝ","kana_city":"ﾊﾏﾏﾂｼﾃﾝﾘｭｳｸ","kana_address":"ｿｳﾂﾞ","pref":"静岡県","city":"浜松市天竜区","address":"相津"},
{"zip_code":"4313302","kana_pref":"ｼｽﾞｵｶｹﾝ","kana_city":"ﾊﾏﾏﾂｼﾃﾝﾘｭｳｸ","kana_address":"ﾀﾀﾞﾗｲ","pref":"静岡県","city":"浜松市天竜区","address":"只来"},
{"zip_code":"4313804","kana_pref":"ｼｽﾞｵｶｹﾝ","kana_city":"ﾊﾏﾏﾂｼﾃﾝﾘｭｳｸ","kana_address":"ﾀﾂﾔﾏﾁｮｳｵｵﾐﾈ","pref":"静岡県","city":"浜松市天竜区","address":"龍山町大嶺"},
{"zip_code":"4313802","kana_pref":"ｼｽﾞｵｶｹﾝ","kana_city":"ﾊﾏﾏﾂｼﾃﾝﾘｭｳｸ","kana_address":"ﾀﾂﾔﾏﾁｮｳｼﾓﾋﾗﾔﾏ","pref":"静岡県","city":"浜松市天竜区","address":"龍山町下平山"},
{"zip_code":"4313801","kana_pref":"ｼｽﾞｵｶｹﾝ","kana_city":"ﾊﾏﾏﾂｼﾃﾝﾘｭｳｸ","kana_address":"ﾀﾂﾔﾏﾁｮｳｾｼﾞﾘ","pref":"静岡県","city":"浜松市天竜区","address":"龍山町瀬尻"},
{"zip_code":"4313803","kana_pref":"ｼｽﾞｵｶｹﾝ","kana_city":"ﾊﾏﾏﾂｼﾃﾝﾘｭｳｸ","kana_address":"ﾀﾂﾔﾏﾁｮｳﾄｸﾗ","pref":"静岡県","city":"浜松市天竜区","address":"龍山町戸倉"},
{"zip_code":"4313763","kana_pref":"ｼｽﾞｵｶｹﾝ","kana_city":"ﾊﾏﾏﾂｼﾃﾝﾘｭｳｸ","kana_address":"ﾂｷ","pref":"静岡県","city":"浜松市天竜区","address":"月"},
{"zip_code":"4313533","kana_pref":"ｼｽﾞｵｶｹﾝ","kana_city":"ﾊﾏﾏﾂｼﾃﾝﾘｭｳｸ","kana_address":"ﾅｶﾞｻﾜ","pref":"静岡県","city":"浜松市天竜区","address":"長沢"},
{"zip_code":"4313761","kana_pref":"ｼｽﾞｵｶｹﾝ","kana_city":"ﾊﾏﾏﾂｼﾃﾝﾘｭｳｸ","kana_address":"ﾆｼｳﾝﾅ","pref":"静岡県","city":"浜松市天竜区","address":"西雲名"},
{"zip_code":"4313532","kana_pref":"ｼｽﾞｵｶｹﾝ","kana_city":"ﾊﾏﾏﾂｼﾃﾝﾘｭｳｸ","kana_address":"ﾆｼﾌｼﾞﾀﾞｲﾗ","pref":"静岡県","city":"浜松市天竜区","address":"西藤平"},
{"zip_code":"4313421","kana_pref":"ｼｽﾞｵｶｹﾝ","kana_city":"ﾊﾏﾏﾂｼﾃﾝﾘｭｳｸ","kana_address":"ﾋｱﾘ","pref":"静岡県","city":"浜松市天竜区","address":"日明"},
{"zip_code":"4313751","kana_pref":"ｼｽﾞｵｶｹﾝ","kana_city":"ﾊﾏﾏﾂｼﾃﾝﾘｭｳｸ","kana_address":"ﾋｶﾞｼｳﾝﾅ","pref":"静岡県","city":"浜松市天竜区","address":"東雲名"},
{"zip_code":"4313531","kana_pref":"ｼｽﾞｵｶｹﾝ","kana_city":"ﾊﾏﾏﾂｼﾃﾝﾘｭｳｸ","kana_address":"ﾋｶﾞｼﾌｼﾞﾀﾞｲﾗ","pref":"静岡県","city":"浜松市天竜区","address":"東藤平"},
{"zip_code":"4313311","kana_pref":"ｼｽﾞｵｶｹﾝ","kana_city":"ﾊﾏﾏﾂｼﾃﾝﾘｭｳｸ","kana_address":"ﾌﾀﾏﾀﾁｮｳｱｸﾗ","pref":"静岡県","city":"浜松市天竜区","address":"二俣町阿蔵"},
{"zip_code":"4313315","kana_pref":"ｼｽﾞｵｶｹﾝ","kana_city":"ﾊﾏﾏﾂｼﾃﾝﾘｭｳｸ","kana_address":"ﾌﾀﾏﾀﾁｮｳｵｵｿﾉ","pref":"静岡県","city":"浜松市天竜区","address":"二俣町大園"},
{"zip_code":"4313313","kana_pref":"ｼｽﾞｵｶｹﾝ","kana_city":"ﾊﾏﾏﾂｼﾃﾝﾘｭｳｸ","kana_address":"ﾌﾀﾏﾀﾁｮｳｶｼﾞﾏ","pref":"静岡県","city":"浜松市天竜区","address":"二俣町鹿島"},
{"zip_code":"4313314","kana_pref":"ｼｽﾞｵｶｹﾝ","kana_city":"ﾊﾏﾏﾂｼﾃﾝﾘｭｳｸ","kana_address":"ﾌﾀﾏﾀﾁｮｳﾌﾀﾏﾀ","pref":"静岡県","city":"浜松市天竜区","address":"二俣町二俣"},
{"zip_code":"4313312","kana_pref":"ｼｽﾞｵｶｹﾝ","kana_city":"ﾊﾏﾏﾂｼﾃﾝﾘｭｳｸ","kana_address":"ﾌﾀﾏﾀﾁｮｳﾐﾅﾐｶｼﾞﾏ","pref":"静岡県","city":"浜松市天竜区","address":"二俣町南鹿島"},
{"zip_code":"4313534","kana_pref":"ｼｽﾞｵｶｹﾝ","kana_city":"ﾊﾏﾏﾂｼﾃﾝﾘｭｳｸ","kana_address":"ﾌﾄｺﾛﾔﾏ","pref":"静岡県","city":"浜松市天竜区","address":"懐山"},
{"zip_code":"4313306","kana_pref":"ｼｽﾞｵｶｹﾝ","kana_city":"ﾊﾏﾏﾂｼﾃﾝﾘｭｳｸ","kana_address":"ﾌﾅｷﾞﾗ","pref":"静岡県","city":"浜松市天竜区","address":"船明"},
{"zip_code":"4314101","kana_pref":"ｼｽﾞｵｶｹﾝ","kana_city":"ﾊﾏﾏﾂｼﾃﾝﾘｭｳｸ","kana_address":"ﾐｻｸﾎﾞﾁｮｳｵｸﾘｮｳｹ","pref":"静岡県","city":"浜松市天竜区","address":"水窪町奥領家"},
{"zip_code":"4314102","kana_pref":"ｼｽﾞｵｶｹﾝ","kana_city":"ﾊﾏﾏﾂｼﾃﾝﾘｭｳｸ","kana_address":"ﾐｻｸﾎﾞﾁｮｳｼﾞﾄｳｶﾞﾀ","pref":"静岡県","city":"浜松市天竜区","address":"水窪町地頭方"},
{"zip_code":"4314103","kana_pref":"ｼｽﾞｵｶｹﾝ","kana_city":"ﾊﾏﾏﾂｼﾃﾝﾘｭｳｸ","kana_address":"ﾐｻｸﾎﾞﾁｮｳﾔﾏｽﾞﾐ","pref":"静岡県","city":"浜松市天竜区","address":"水窪町山住"},
{"zip_code":"4313422","kana_pref":"ｼｽﾞｵｶｹﾝ","kana_city":"ﾊﾏﾏﾂｼﾃﾝﾘｭｳｸ","kana_address":"ﾐﾅｻﾞﾜ","pref":"静岡県","city":"浜松市天竜区","address":"米沢"},
{"zip_code":"4313303","kana_pref":"ｼｽﾞｵｶｹﾝ","kana_city":"ﾊﾏﾏﾂｼﾃﾝﾘｭｳｸ","kana_address":"ﾔﾏﾋｶﾞｼ","pref":"静岡県","city":"浜松市天竜区","address":"山東"},
{"zip_code":"4313756","kana_pref":"ｼｽﾞｵｶｹﾝ","kana_city":"ﾊﾏﾏﾂｼﾃﾝﾘｭｳｸ","kana_address":"ﾔﾔﾏ","pref":"静岡県","city":"浜松市天竜区","address":"谷山"},
{"zip_code":"4313301","kana_pref":"ｼｽﾞｵｶｹﾝ","kana_city":"ﾊﾏﾏﾂｼﾃﾝﾘｭｳｸ","kana_address":"ﾖｺｶﾜ","pref":"静岡県","city":"浜松市天竜区","address":"横川"},
{"zip_code":"4313764","kana_pref":"ｼｽﾞｵｶｹﾝ","kana_city":"ﾊﾏﾏﾂｼﾃﾝﾘｭｳｸ","kana_address":"ﾖｺﾔﾏﾁｮｳ","pref":"静岡県","city":"浜松市天竜区","address":"横山町"},
{"zip_code":"4313426","kana_pref":"ｼｽﾞｵｶｹﾝ","kana_city":"ﾊﾏﾏﾂｼﾃﾝﾘｭｳｸ","kana_address":"ﾘｮｳｼﾏ","pref":"静岡県","city":"浜松市天竜区","address":"両島"},
{"zip_code":"4313424","kana_pref":"ｼｽﾞｵｶｹﾝ","kana_city":"ﾊﾏﾏﾂｼﾃﾝﾘｭｳｸ","kana_address":"ﾘｮｸｹｲﾀﾞｲ","pref":"静岡県","city":"浜松市天竜区","address":"緑恵台"},
{"zip_code":"4313423","kana_pref":"ｼｽﾞｵｶｹﾝ","kana_city":"ﾊﾏﾏﾂｼﾃﾝﾘｭｳｸ","kana_address":"ﾜﾀｶﾞｼﾏ","pref":"静岡県","city":"浜松市天竜区","address":"渡ケ島"},
{"zip_code":"4310400","kana_pref":"ｼｽﾞｵｶｹﾝ","kana_city":"ｺｻｲｼ","kana_address":"","pref":"静岡県","city":"湖西市","address":""},
{"zip_code":"4310302","kana_pref":"ｼｽﾞｵｶｹﾝ","kana_city":"ｺｻｲｼ","kana_address":"ｱﾗｲﾁｮｳｱﾗｲ","pref":"静岡県","city":"湖西市","address":"新居町新居"},
{"zip_code":"4310304","kana_pref":"ｼｽﾞｵｶｹﾝ","kana_city":"ｺｻｲｼ","kana_address":"ｱﾗｲﾁｮｳｳﾁﾔﾏ","pref":"静岡県","city":"湖西市","address":"新居町内山"},
{"zip_code":"4310301","kana_pref":"ｼｽﾞｵｶｹﾝ","kana_city":"ｺｻｲｼ","kana_address":"ｱﾗｲﾁｮｳﾅｶﾉｺﾞｳ","pref":"静岡県","city":"湖西市","address":"新居町中之郷"},
{"zip_code":"4310303","kana_pref":"ｼｽﾞｵｶｹﾝ","kana_city":"ｺｻｲｼ","kana_address":"ｱﾗｲﾁｮｳﾊﾏﾅ","pref":"静岡県","city":"湖西市","address":"新居町浜名"},
{"zip_code":"4310411","kana_pref":"ｼｽﾞｵｶｹﾝ","kana_city":"ｺｻｲｼ","kana_address":"ｲﾘﾃﾞ","pref":"静岡県","city":"湖西市","address":"入出"},
{"zip_code":"4310412","kana_pref":"ｼｽﾞｵｶｹﾝ","kana_city":"ｺｻｲｼ","kana_address":"ｳﾁｳﾗ","pref":"静岡県","city":"湖西市","address":"内浦"},
{"zip_code":"4310425","kana_pref":"ｼｽﾞｵｶｹﾝ","kana_city":"ｺｻｲｼ","kana_address":"ｳﾒﾀﾞ","pref":"静岡県","city":"湖西市","address":"梅田"},
{"zip_code":"4310427","kana_pref":"ｼｽﾞｵｶｹﾝ","kana_city":"ｺｻｲｼ","kana_address":"ｴｷﾐﾅﾐ","pref":"静岡県","city":"湖西市","address":"駅南"},
{"zip_code":"4310404","kana_pref":"ｼｽﾞｵｶｹﾝ","kana_city":"ｺｻｲｼ","kana_address":"ｵｵﾀ","pref":"静岡県","city":"湖西市","address":"太田"},
{"zip_code":"4310403","kana_pref":"ｼｽﾞｵｶｹﾝ","kana_city":"ｺｻｲｼ","kana_address":"ｵｵﾁﾊﾞ","pref":"静岡県","city":"湖西市","address":"大知波"},
{"zip_code":"4310422","kana_pref":"ｼｽﾞｵｶｹﾝ","kana_city":"ｺｻｲｼ","kana_address":"ｵｶｻｷ","pref":"静岡県","city":"湖西市","address":"岡崎"},
{"zip_code":"4310432","kana_pref":"ｼｽﾞｵｶｹﾝ","kana_city":"ｺｻｲｼ","kana_address":"ｶｾﾞﾉﾓﾘ","pref":"静岡県","city":"湖西市","address":"風の杜"},
{"zip_code":"4310405","kana_pref":"ｼｽﾞｵｶｹﾝ","kana_city":"ｺｻｲｼ","kana_address":"ｶﾝｻﾞ","pref":"静岡県","city":"湖西市","address":"神座"},
{"zip_code":"4310441","kana_pref":"ｼｽﾞｵｶｹﾝ","kana_city":"ｺｻｲｼ","kana_address":"ｷﾋﾞ","pref":"静岡県","city":"湖西市","address":"吉美"},
{"zip_code":"4310442","kana_pref":"ｼｽﾞｵｶｹﾝ","kana_city":"ｺｻｲｼ","kana_address":"ｺﾐ","pref":"静岡県","city":"湖西市","address":"古見"},
{"zip_code":"4310452","kana_pref":"ｼｽﾞｵｶｹﾝ","kana_city":"ｺｻｲｼ","kana_address":"ｻｶｲｼﾞｭｸ","pref":"静岡県","city":"湖西市","address":"境宿"},
{"zip_code":"4310451","kana_pref":"ｼｽﾞｵｶｹﾝ","kana_city":"ｺｻｲｼ","kana_address":"ｼﾗｽｶ","pref":"静岡県","city":"湖西市","address":"白須賀"},
{"zip_code":"4310421","kana_pref":"ｼｽﾞｵｶｹﾝ","kana_city":"ｺｻｲｼ","kana_address":"ｼﾝｼﾞｮ","pref":"静岡県","city":"湖西市","address":"新所"},
{"zip_code":"4310423","kana_pref":"ｼｽﾞｵｶｹﾝ","kana_city":"ｺｻｲｼ","kana_address":"ｼﾝｼﾞｮ･ｵｶｻｷ･ｳﾒﾀﾞﾆｭｳｶｲﾁ","pref":"静岡県","city":"湖西市","address":"新所・岡崎・梅田入会地"},
{"zip_code":"4310424","kana_pref":"ｼｽﾞｵｶｹﾝ","kana_city":"ｺｻｲｼ","kana_address":"ｼﾝｼﾞｮﾊﾗ","pref":"静岡県","city":"湖西市","address":"新所原"},
{"zip_code":"4310426","kana_pref":"ｼｽﾞｵｶｹﾝ","kana_city":"ｺｻｲｼ","kana_address":"ｼﾝｼﾞｮﾊﾗﾋｶﾞｼ","pref":"静岡県","city":"湖西市","address":"新所原東"},
{"zip_code":"4310428","kana_pref":"ｼｽﾞｵｶｹﾝ","kana_city":"ｺｻｲｼ","kana_address":"ﾄｷﾜ","pref":"静岡県","city":"湖西市","address":"ときわ"},
{"zip_code":"4310444","kana_pref":"ｼｽﾞｵｶｹﾝ","kana_city":"ｺｻｲｼ","kana_address":"ﾎﾞｳｾﾞ","pref":"静岡県","city":"湖西市","address":"坊瀬"},
{"zip_code":"4310429","kana_pref":"ｼｽﾞｵｶｹﾝ","kana_city":"ｺｻｲｼ","kana_address":"ﾐﾅﾐﾀﾞｲ","pref":"静岡県","city":"湖西市","address":"南台"},
{"zip_code":"4310443","kana_pref":"ｼｽﾞｵｶｹﾝ","kana_city":"ｺｻｲｼ","kana_address":"ﾔﾏｸﾞﾁ","pref":"静岡県","city":"湖西市","address":"山口"},
{"zip_code":"4310401","kana_pref":"ｼｽﾞｵｶｹﾝ","kana_city":"ｺｻｲｼ","kana_address":"ﾖｺﾔﾏ","pref":"静岡県","city":"湖西市","address":"横山"},
{"zip_code":"4310402","kana_pref":"ｼｽﾞｵｶｹﾝ","kana_city":"ｺｻｲｼ","kana_address":"ﾘｷ","pref":"静岡県","city":"湖西市","address":"利木"},
{"zip_code":"4310431","kana_pref":"ｼｽﾞｵｶｹﾝ","kana_city":"ｺｻｲｼ","kana_address":"ﾜｼﾂﾞ","pref":"静岡県","city":"湖西市","address":"鷲津"},
{"zip_code":"4314121","kana_pref":"ｱｲﾁｹﾝ","kana_city":"ｷﾀｼﾀﾗｸﾞﾝﾄﾖﾈﾑﾗ","kana_address":"ﾄﾐﾔﾏ","pref":"愛知県","city":"北設楽郡豊根村","address":"富山"}]}