{"zip_code":[
{"zip_code":"4320000","kana_pref":"ｼｽﾞｵｶｹﾝ","kana_city":"ﾊﾏﾏﾂｼﾅｶｸ","kana_address":"","pref":"静岡県","city":"浜松市中区","address":""},
{"zip_code":"4328043","kana_pref":"ｼｽﾞｵｶｹﾝ","kana_city":"ﾊﾏﾏﾂｼﾅｶｸ","kana_address":"ｱｻﾀﾞﾁｮｳ","pref":"静岡県","city":"浜松市中区","address":"浅田町"},
{"zip_code":"4328033","kana_pref":"ｼｽﾞｵｶｹﾝ","kana_city":"ﾊﾏﾏﾂｼﾅｶｸ","kana_address":"ｴﾋﾞﾂｶ","pref":"静岡県","city":"浜松市中区","address":"海老塚"},
{"zip_code":"4328032","kana_pref":"ｼｽﾞｵｶｹﾝ","kana_city":"ﾊﾏﾏﾂｼﾅｶｸ","kana_address":"ｴﾋﾞﾂｶﾁｮｳ","pref":"静岡県","city":"浜松市中区","address":"海老塚町"},
{"zip_code":"4328046","kana_pref":"ｼｽﾞｵｶｹﾝ","kana_city":"ﾊﾏﾏﾂｼﾅｶｸ","kana_address":"ｶｽｶﾞﾁｮｳ","pref":"静岡県","city":"浜松市中区","address":"春日町"},
{"zip_code":"4328042","kana_pref":"ｼｽﾞｵｶｹﾝ","kana_city":"ﾊﾏﾏﾂｼﾅｶｸ","kana_address":"ｶﾐｱｻﾀﾞ","pref":"静岡県","city":"浜松市中区","address":"上浅田"},
{"zip_code":"4328047","kana_pref":"ｼｽﾞｵｶｹﾝ","kana_city":"ﾊﾏﾏﾂｼﾅｶｸ","kana_address":"ｶﾐﾀﾞﾏﾁ","pref":"静岡県","city":"浜松市中区","address":"神田町"},
{"zip_code":"4328023","kana_pref":"ｼｽﾞｵｶｹﾝ","kana_city":"ﾊﾏﾏﾂｼﾅｶｸ","kana_address":"ｶﾓｴ","pref":"静岡県","city":"浜松市中区","address":"鴨江"},
{"zip_code":"4328024","kana_pref":"ｼｽﾞｵｶｹﾝ","kana_city":"ﾊﾏﾏﾂｼﾅｶｸ","kana_address":"ｶﾓｴﾁｮｳ","pref":"静岡県","city":"浜松市中区","address":"鴨江町"},
{"zip_code":"4328025","kana_pref":"ｼｽﾞｵｶｹﾝ","kana_city":"ﾊﾏﾏﾂｼﾅｶｸ","kana_address":"ｻｶｴﾏﾁ","pref":"静岡県","city":"浜松市中区","address":"栄町"},
{"zip_code":"4328021","kana_pref":"ｼｽﾞｵｶｹﾝ","kana_city":"ﾊﾏﾏﾂｼﾅｶｸ","kana_address":"ｻﾅﾙﾀﾞｲ","pref":"静岡県","city":"浜松市中区","address":"佐鳴台"},
{"zip_code":"4328034","kana_pref":"ｼｽﾞｵｶｹﾝ","kana_city":"ﾊﾏﾏﾂｼﾅｶｸ","kana_address":"ｼｵﾏﾁ","pref":"静岡県","city":"浜松市中区","address":"塩町"},
{"zip_code":"4328014","kana_pref":"ｼｽﾞｵｶｹﾝ","kana_city":"ﾊﾏﾏﾂｼﾅｶｸ","kana_address":"ｼｶﾀﾆﾁｮｳ","pref":"静岡県","city":"浜松市中区","address":"鹿谷町"},
{"zip_code":"4328018","kana_pref":"ｼｽﾞｵｶｹﾝ","kana_city":"ﾊﾏﾏﾂｼﾅｶｸ","kana_address":"ｼｼﾞﾐﾂﾞｶ","pref":"静岡県","city":"浜松市中区","address":"蜆塚"},
{"zip_code":"4328011","kana_pref":"ｼｽﾞｵｶｹﾝ","kana_city":"ﾊﾏﾏﾂｼﾅｶｸ","kana_address":"ｼﾞｮｳﾎｸ","pref":"静岡県","city":"浜松市中区","address":"城北"},
{"zip_code":"4328041","kana_pref":"ｼｽﾞｵｶｹﾝ","kana_city":"ﾊﾏﾏﾂｼﾅｶｸ","kana_address":"ｽｶﾞﾜﾗﾁｮｳ","pref":"静岡県","city":"浜松市中区","address":"菅原町"},
{"zip_code":"4328015","kana_pref":"ｼｽﾞｵｶｹﾝ","kana_city":"ﾊﾏﾏﾂｼﾅｶｸ","kana_address":"ﾀｶﾏﾁ","pref":"静岡県","city":"浜松市中区","address":"高町"},
{"zip_code":"4328002","kana_pref":"ｼｽﾞｵｶｹﾝ","kana_city":"ﾊﾏﾏﾂｼﾅｶｸ","kana_address":"ﾄﾐﾂｶﾁｮｳ","pref":"静岡県","city":"浜松市中区","address":"富塚町"},
{"zip_code":"4328016","kana_pref":"ｼｽﾞｵｶｹﾝ","kana_city":"ﾊﾏﾏﾂｼﾅｶｸ","kana_address":"ﾅｶﾔﾏﾁｮｳ","pref":"静岡県","city":"浜松市中区","address":"中山町"},
{"zip_code":"4328031","kana_pref":"ｼｽﾞｵｶｹﾝ","kana_city":"ﾊﾏﾏﾂｼﾅｶｸ","kana_address":"ﾅﾒﾀﾞﾁｮｳ","pref":"静岡県","city":"浜松市中区","address":"平田町"},
{"zip_code":"4328035","kana_pref":"ｼｽﾞｵｶｹﾝ","kana_city":"ﾊﾏﾏﾂｼﾅｶｸ","kana_address":"ﾅﾙｺﾁｮｳ","pref":"静岡県","city":"浜松市中区","address":"成子町"},
{"zip_code":"4328045","kana_pref":"ｼｽﾞｵｶｹﾝ","kana_city":"ﾊﾏﾏﾂｼﾅｶｸ","kana_address":"ﾆｼｱｻﾀﾞ","pref":"静岡県","city":"浜松市中区","address":"西浅田"},
{"zip_code":"4328038","kana_pref":"ｼｽﾞｵｶｹﾝ","kana_city":"ﾊﾏﾏﾂｼﾅｶｸ","kana_address":"ﾆｼｲﾊﾞﾁｮｳ","pref":"静岡県","city":"浜松市中区","address":"西伊場町"},
{"zip_code":"4328012","kana_pref":"ｼｽﾞｵｶｹﾝ","kana_city":"ﾊﾏﾏﾂｼﾅｶｸ","kana_address":"ﾇﾉﾊｼ","pref":"静岡県","city":"浜松市中区","address":"布橋"},
{"zip_code":"4328053","kana_pref":"ｼｽﾞｵｶｹﾝ","kana_city":"ﾊﾏﾏﾂｼﾅｶｸ","kana_address":"ﾉﾘｴﾀﾞﾁｮｳ","pref":"静岡県","city":"浜松市中区","address":"法枝町"},
{"zip_code":"4328027","kana_pref":"ｼｽﾞｵｶｹﾝ","kana_city":"ﾊﾏﾏﾂｼﾅｶｸ","kana_address":"ﾊﾀｺﾞﾏﾁ","pref":"静岡県","city":"浜松市中区","address":"旅籠町"},
{"zip_code":"4328036","kana_pref":"ｼｽﾞｵｶｹﾝ","kana_city":"ﾊﾏﾏﾂｼﾅｶｸ","kana_address":"ﾋｶﾞｼｲﾊﾞ","pref":"静岡県","city":"浜松市中区","address":"東伊場"},
{"zip_code":"4328013","kana_pref":"ｼｽﾞｵｶｹﾝ","kana_city":"ﾊﾏﾏﾂｼﾅｶｸ","kana_address":"ﾋﾛｻﾜ","pref":"静岡県","city":"浜松市中区","address":"広沢"},
{"zip_code":"4328004","kana_pref":"ｼｽﾞｵｶｹﾝ","kana_city":"ﾊﾏﾏﾂｼﾅｶｸ","kana_address":"ﾌﾐｵｶﾁｮｳ","pref":"静岡県","city":"浜松市中区","address":"文丘町"},
{"zip_code":"4328017","kana_pref":"ｼｽﾞｵｶｹﾝ","kana_city":"ﾊﾏﾏﾂｼﾅｶｸ","kana_address":"ﾐｸﾐﾁｮｳ","pref":"静岡県","city":"浜松市中区","address":"三組町"},
{"zip_code":"4328044","kana_pref":"ｼｽﾞｵｶｹﾝ","kana_city":"ﾊﾏﾏﾂｼﾅｶｸ","kana_address":"ﾐﾅﾐｱｻﾀﾞ","pref":"静岡県","city":"浜松市中区","address":"南浅田"},
{"zip_code":"4328037","kana_pref":"ｼｽﾞｵｶｹﾝ","kana_city":"ﾊﾏﾏﾂｼﾅｶｸ","kana_address":"ﾐﾅﾐｲﾊﾞﾁｮｳ","pref":"静岡県","city":"浜松市中区","address":"南伊場町"},
{"zip_code":"4328026","kana_pref":"ｼｽﾞｵｶｹﾝ","kana_city":"ﾊﾏﾏﾂｼﾅｶｸ","kana_address":"ﾓﾄｳｵﾁｮｳ","pref":"静岡県","city":"浜松市中区","address":"元魚町"},
{"zip_code":"4328048","kana_pref":"ｼｽﾞｵｶｹﾝ","kana_city":"ﾊﾏﾏﾂｼﾅｶｸ","kana_address":"ﾓﾘﾀﾁｮｳ","pref":"静岡県","city":"浜松市中区","address":"森田町"},
{"zip_code":"4328022","kana_pref":"ｼｽﾞｵｶｹﾝ","kana_city":"ﾊﾏﾏﾂｼﾅｶｸ","kana_address":"ﾔﾏﾃﾁｮｳ","pref":"静岡県","city":"浜松市中区","address":"山手町"},
{"zip_code":"4328003","kana_pref":"ｼｽﾞｵｶｹﾝ","kana_city":"ﾊﾏﾏﾂｼﾅｶｸ","kana_address":"ﾜｼﾞﾔﾏ","pref":"静岡県","city":"浜松市中区","address":"和地山"},
{"zip_code":"4320000","kana_pref":"ｼｽﾞｵｶｹﾝ","kana_city":"ﾊﾏﾏﾂｼﾋｶﾞｼｸ","kana_address":"","pref":"静岡県","city":"浜松市東区","address":""},
{"zip_code":"4320000","kana_pref":"ｼｽﾞｵｶｹﾝ","kana_city":"ﾊﾏﾏﾂｼﾆｼｸ","kana_address":"","pref":"静岡県","city":"浜松市西区","address":""},
{"zip_code":"4328061","kana_pref":"ｼｽﾞｵｶｹﾝ","kana_city":"ﾊﾏﾏﾂｼﾆｼｸ","kana_address":"ｲﾘﾉﾁｮｳ","pref":"静岡県","city":"浜松市西区","address":"入野町"},
{"zip_code":"4328006","kana_pref":"ｼｽﾞｵｶｹﾝ","kana_city":"ﾊﾏﾏﾂｼﾆｼｸ","kana_address":"ｵｵｸﾎﾞﾁｮｳ","pref":"静岡県","city":"浜松市西区","address":"大久保町"},
{"zip_code":"4328068","kana_pref":"ｼｽﾞｵｶｹﾝ","kana_city":"ﾊﾏﾏﾂｼﾆｼｸ","kana_address":"ｵｵﾋﾗﾀﾞｲ","pref":"静岡県","city":"浜松市西区","address":"大平台"},
{"zip_code":"4328005","kana_pref":"ｼｽﾞｵｶｹﾝ","kana_city":"ﾊﾏﾏﾂｼﾆｼｸ","kana_address":"ｶﾐｶﾞﾔﾁｮｳ","pref":"静岡県","city":"浜松市西区","address":"神ケ谷町"},
{"zip_code":"4328007","kana_pref":"ｼｽﾞｵｶｹﾝ","kana_city":"ﾊﾏﾏﾂｼﾆｼｸ","kana_address":"ｶﾐﾊﾗﾁｮｳ","pref":"静岡県","city":"浜松市西区","address":"神原町"},
{"zip_code":"4328066","kana_pref":"ｼｽﾞｵｶｹﾝ","kana_city":"ﾊﾏﾏﾂｼﾆｼｸ","kana_address":"ｼﾄﾛﾁｮｳ","pref":"静岡県","city":"浜松市西区","address":"志都呂町"},
{"zip_code":"4328067","kana_pref":"ｼｽﾞｵｶｹﾝ","kana_city":"ﾊﾏﾏﾂｼﾆｼｸ","kana_address":"ﾆｼｶﾓｴﾁｮｳ","pref":"静岡県","city":"浜松市西区","address":"西鴨江町"},
{"zip_code":"4328001","kana_pref":"ｼｽﾞｵｶｹﾝ","kana_city":"ﾊﾏﾏﾂｼﾆｼｸ","kana_address":"ﾆｼﾔﾏﾁｮｳ","pref":"静岡県","city":"浜松市西区","address":"西山町"},
{"zip_code":"4320000","kana_pref":"ｼｽﾞｵｶｹﾝ","kana_city":"ﾊﾏﾏﾂｼﾐﾅﾐｸ","kana_address":"","pref":"静岡県","city":"浜松市南区","address":""},
{"zip_code":"4328055","kana_pref":"ｼｽﾞｵｶｹﾝ","kana_city":"ﾊﾏﾏﾂｼﾐﾅﾐｸ","kana_address":"ｵﾛｼﾎﾝﾏﾁ","pref":"静岡県","city":"浜松市南区","address":"卸本町"},
{"zip_code":"4328064","kana_pref":"ｼｽﾞｵｶｹﾝ","kana_city":"ﾊﾏﾏﾂｼﾐﾅﾐｸ","kana_address":"ｸﾗﾏﾂﾁｮｳ","pref":"静岡県","city":"浜松市南区","address":"倉松町"},
{"zip_code":"4328063","kana_pref":"ｼｽﾞｵｶｹﾝ","kana_city":"ﾊﾏﾏﾂｼﾐﾅﾐｸ","kana_address":"ｺｻﾞﾜﾀﾘﾁｮｳ","pref":"静岡県","city":"浜松市南区","address":"小沢渡町"},
{"zip_code":"4328062","kana_pref":"ｼｽﾞｵｶｹﾝ","kana_city":"ﾊﾏﾏﾂｼﾐﾅﾐｸ","kana_address":"ｿﾞｳﾗﾁｮｳ","pref":"静岡県","city":"浜松市南区","address":"増楽町"},
{"zip_code":"4328065","kana_pref":"ｼｽﾞｵｶｹﾝ","kana_city":"ﾊﾏﾏﾂｼﾐﾅﾐｸ","kana_address":"ﾀｶﾂｶﾁｮｳ","pref":"静岡県","city":"浜松市南区","address":"高塚町"},
{"zip_code":"4328054","kana_pref":"ｼｽﾞｵｶｹﾝ","kana_city":"ﾊﾏﾏﾂｼﾐﾅﾐｸ","kana_address":"ﾀｼﾞﾘﾁｮｳ","pref":"静岡県","city":"浜松市南区","address":"田尻町"},
{"zip_code":"4328057","kana_pref":"ｼｽﾞｵｶｹﾝ","kana_city":"ﾊﾏﾏﾂｼﾐﾅﾐｸ","kana_address":"ﾂﾂﾐﾁｮｳ","pref":"静岡県","city":"浜松市南区","address":"堤町"},
{"zip_code":"4328058","kana_pref":"ｼｽﾞｵｶｹﾝ","kana_city":"ﾊﾏﾏﾂｼﾐﾅﾐｸ","kana_address":"ﾆｯﾊﾟｼﾁｮｳ","pref":"静岡県","city":"浜松市南区","address":"新橋町"},
{"zip_code":"4328053","kana_pref":"ｼｽﾞｵｶｹﾝ","kana_city":"ﾊﾏﾏﾂｼﾐﾅﾐｸ","kana_address":"ﾉﾘｴﾀﾞﾁｮｳ","pref":"静岡県","city":"浜松市南区","address":"法枝町"},
{"zip_code":"4328052","kana_pref":"ｼｽﾞｵｶｹﾝ","kana_city":"ﾊﾏﾏﾂｼﾐﾅﾐｸ","kana_address":"ﾋｶﾞｼﾜｶﾊﾞﾔｼﾁｮｳ","pref":"静岡県","city":"浜松市南区","address":"東若林町"},
{"zip_code":"4328056","kana_pref":"ｼｽﾞｵｶｹﾝ","kana_city":"ﾊﾏﾏﾂｼﾐﾅﾐｸ","kana_address":"ﾖﾈﾂﾞﾁｮｳ","pref":"静岡県","city":"浜松市南区","address":"米津町"},
{"zip_code":"4328051","kana_pref":"ｼｽﾞｵｶｹﾝ","kana_city":"ﾊﾏﾏﾂｼﾐﾅﾐｸ","kana_address":"ﾜｶﾊﾞﾔｼﾁｮｳ","pref":"静岡県","city":"浜松市南区","address":"若林町"},
{"zip_code":"4320000","kana_pref":"ｼｽﾞｵｶｹﾝ","kana_city":"ﾊﾏﾏﾂｼｷﾀｸ","kana_address":"","pref":"静岡県","city":"浜松市北区","address":""},
{"zip_code":"4320000","kana_pref":"ｼｽﾞｵｶｹﾝ","kana_city":"ﾊﾏﾏﾂｼﾃﾝﾘｭｳｸ","kana_address":"","pref":"静岡県","city":"浜松市天竜区","address":""}]}