{"zip_code":[
{"zip_code":"4350055","kana_pref":"ｼｽﾞｵｶｹﾝ","kana_city":"ﾊﾏﾏﾂｼﾅｶｸ","kana_address":"ｼﾞｯｹﾝﾁｮｳ","pref":"静岡県","city":"浜松市中区","address":"十軒町"},
{"zip_code":"4350054","kana_pref":"ｼｽﾞｵｶｹﾝ","kana_city":"ﾊﾏﾏﾂｼﾅｶｸ","kana_address":"ｿｳﾃﾞﾁｮｳ","pref":"静岡県","city":"浜松市中区","address":"早出町"},
{"zip_code":"4350045","kana_pref":"ｼｽﾞｵｶｹﾝ","kana_city":"ﾊﾏﾏﾂｼﾅｶｸ","kana_address":"ﾎｿｼﾞﾏﾁｮｳ","pref":"静岡県","city":"浜松市中区","address":"細島町"},
{"zip_code":"4350005","kana_pref":"ｼｽﾞｵｶｹﾝ","kana_city":"ﾊﾏﾏﾂｼﾋｶﾞｼｸ","kana_address":"ｱﾝｼﾝﾁｮｳ","pref":"静岡県","city":"浜松市東区","address":"安新町"},
{"zip_code":"4350012","kana_pref":"ｼｽﾞｵｶｹﾝ","kana_city":"ﾊﾏﾏﾂｼﾋｶﾞｼｸ","kana_address":"ｱﾝﾏﾁｮｳ","pref":"静岡県","city":"浜松市東区","address":"安間町"},
{"zip_code":"4350051","kana_pref":"ｼｽﾞｵｶｹﾝ","kana_city":"ﾊﾏﾏﾂｼﾋｶﾞｼｸ","kana_address":"ｲﾁﾉﾁｮｳ","pref":"静岡県","city":"浜松市東区","address":"市野町"},
{"zip_code":"4350014","kana_pref":"ｼｽﾞｵｶｹﾝ","kana_city":"ﾊﾏﾏﾂｼﾋｶﾞｼｸ","kana_address":"ｵｵｶﾊﾞﾁｮｳ","pref":"静岡県","city":"浜松市東区","address":"大蒲町"},
{"zip_code":"4350053","kana_pref":"ｼｽﾞｵｶｹﾝ","kana_city":"ﾊﾏﾏﾂｼﾋｶﾞｼｸ","kana_address":"ｶﾐｱﾗﾔﾁｮｳ","pref":"静岡県","city":"浜松市東区","address":"上新屋町"},
{"zip_code":"4350001","kana_pref":"ｼｽﾞｵｶｹﾝ","kana_city":"ﾊﾏﾏﾂｼﾋｶﾞｼｸ","kana_address":"ｶﾐｲｼﾀﾞﾁｮｳ","pref":"静岡県","city":"浜松市東区","address":"上石田町"},
{"zip_code":"4350048","kana_pref":"ｼｽﾞｵｶｹﾝ","kana_city":"ﾊﾏﾏﾂｼﾋｶﾞｼｸ","kana_address":"ｶﾐﾆｼﾁｮｳ","pref":"静岡県","city":"浜松市東区","address":"上西町"},
{"zip_code":"4350041","kana_pref":"ｼｽﾞｵｶｹﾝ","kana_city":"ﾊﾏﾏﾂｼﾋｶﾞｼｸ","kana_address":"ｷﾀｼﾞﾏﾁｮｳ","pref":"静岡県","city":"浜松市東区","address":"北島町"},
{"zip_code":"4350011","kana_pref":"ｼｽﾞｵｶｹﾝ","kana_city":"ﾊﾏﾏﾂｼﾋｶﾞｼｸ","kana_address":"ｸﾆﾖｼﾁｮｳ","pref":"静岡県","city":"浜松市東区","address":"国吉町"},
{"zip_code":"4350056","kana_pref":"ｼｽﾞｵｶｹﾝ","kana_city":"ﾊﾏﾏﾂｼﾋｶﾞｼｸ","kana_address":"ｺｲｹﾁｮｳ","pref":"静岡県","city":"浜松市東区","address":"小池町"},
{"zip_code":"4350015","kana_pref":"ｼｽﾞｵｶｹﾝ","kana_city":"ﾊﾏﾏﾂｼﾋｶﾞｼｸ","kana_address":"ｺﾔｽﾁｮｳ","pref":"静岡県","city":"浜松市東区","address":"子安町"},
{"zip_code":"4350021","kana_pref":"ｼｽﾞｵｶｹﾝ","kana_city":"ﾊﾏﾏﾂｼﾋｶﾞｼｸ","kana_address":"ｻﾞｲﾓｸﾁｮｳ","pref":"静岡県","city":"浜松市東区","address":"材木町"},
{"zip_code":"4350042","kana_pref":"ｼｽﾞｵｶｹﾝ","kana_city":"ﾊﾏﾏﾂｼﾋｶﾞｼｸ","kana_address":"ｻｻｶﾞｾﾁｮｳ","pref":"静岡県","city":"浜松市東区","address":"篠ケ瀬町"},
{"zip_code":"4350006","kana_pref":"ｼｽﾞｵｶｹﾝ","kana_city":"ﾊﾏﾏﾂｼﾋｶﾞｼｸ","kana_address":"ｼﾓｲｼﾀﾞﾁｮｳ","pref":"静岡県","city":"浜松市東区","address":"下石田町"},
{"zip_code":"4350002","kana_pref":"ｼｽﾞｵｶｹﾝ","kana_city":"ﾊﾏﾏﾂｼﾋｶﾞｼｸ","kana_address":"ｼﾛﾄﾘﾁｮｳ","pref":"静岡県","city":"浜松市東区","address":"白鳥町"},
{"zip_code":"4350052","kana_pref":"ｼｽﾞｵｶｹﾝ","kana_city":"ﾊﾏﾏﾂｼﾋｶﾞｼｸ","kana_address":"ﾃﾝﾉｳﾁｮｳ","pref":"静岡県","city":"浜松市東区","address":"天王町"},
{"zip_code":"4350013","kana_pref":"ｼｽﾞｵｶｹﾝ","kana_city":"ﾊﾏﾏﾂｼﾋｶﾞｼｸ","kana_address":"ﾃﾝﾘｭｳｶﾞﾜﾁｮｳ","pref":"静岡県","city":"浜松市東区","address":"天龍川町"},
{"zip_code":"4350003","kana_pref":"ｼｽﾞｵｶｹﾝ","kana_city":"ﾊﾏﾏﾂｼﾋｶﾞｼｸ","kana_address":"ﾅｶｻﾄﾁｮｳ","pref":"静岡県","city":"浜松市東区","address":"中里町"},
{"zip_code":"4350057","kana_pref":"ｼｽﾞｵｶｹﾝ","kana_city":"ﾊﾏﾏﾂｼﾋｶﾞｼｸ","kana_address":"ﾅｶﾀﾞﾁｮｳ","pref":"静岡県","city":"浜松市東区","address":"中田町"},
{"zip_code":"4350031","kana_pref":"ｼｽﾞｵｶｹﾝ","kana_city":"ﾊﾏﾏﾂｼﾋｶﾞｼｸ","kana_address":"ﾅｶﾞﾂﾙﾁｮｳ","pref":"静岡県","city":"浜松市東区","address":"長鶴町"},
{"zip_code":"4350004","kana_pref":"ｼｽﾞｵｶｹﾝ","kana_city":"ﾊﾏﾏﾂｼﾋｶﾞｼｸ","kana_address":"ﾅｶﾉﾏﾁ","pref":"静岡県","city":"浜松市東区","address":"中野町"},
{"zip_code":"4350044","kana_pref":"ｼｽﾞｵｶｹﾝ","kana_city":"ﾊﾏﾏﾂｼﾋｶﾞｼｸ","kana_address":"ﾆｼﾂﾞｶﾁｮｳ","pref":"静岡県","city":"浜松市東区","address":"西塚町"},
{"zip_code":"4350047","kana_pref":"ｼｽﾞｵｶｹﾝ","kana_city":"ﾊﾏﾏﾂｼﾋｶﾞｼｸ","kana_address":"ﾊﾞﾗｼﾞﾏﾁｮｳ","pref":"静岡県","city":"浜松市東区","address":"原島町"},
{"zip_code":"4350008","kana_pref":"ｼｽﾞｵｶｹﾝ","kana_city":"ﾊﾏﾏﾂｼﾋｶﾞｼｸ","kana_address":"ﾏﾂｺｲｹﾁｮｳ","pref":"静岡県","city":"浜松市東区","address":"松小池町"},
{"zip_code":"4350046","kana_pref":"ｼｽﾞｵｶｹﾝ","kana_city":"ﾊﾏﾏﾂｼﾋｶﾞｼｸ","kana_address":"ﾏﾙﾂﾞｶﾁｮｳ","pref":"静岡県","city":"浜松市東区","address":"丸塚町"},
{"zip_code":"4350043","kana_pref":"ｼｽﾞｵｶｹﾝ","kana_city":"ﾊﾏﾏﾂｼﾋｶﾞｼｸ","kana_address":"ﾐﾔﾀｹﾁｮｳ","pref":"静岡県","city":"浜松市東区","address":"宮竹町"},
{"zip_code":"4350017","kana_pref":"ｼｽﾞｵｶｹﾝ","kana_city":"ﾊﾏﾏﾂｼﾋｶﾞｼｸ","kana_address":"ﾔｸｼﾁｮｳ","pref":"静岡県","city":"浜松市東区","address":"薬師町"},
{"zip_code":"4350018","kana_pref":"ｼｽﾞｵｶｹﾝ","kana_city":"ﾊﾏﾏﾂｼﾋｶﾞｼｸ","kana_address":"ﾔｸｼﾝﾁｮｳ","pref":"静岡県","city":"浜松市東区","address":"薬新町"},
{"zip_code":"4350029","kana_pref":"ｼｽﾞｵｶｹﾝ","kana_city":"ﾊﾏﾏﾂｼﾋｶﾞｼｸ","kana_address":"ﾘｭｳｺｳﾁｮｳ","pref":"静岡県","city":"浜松市東区","address":"龍光町"},
{"zip_code":"4350007","kana_pref":"ｼｽﾞｵｶｹﾝ","kana_city":"ﾊﾏﾏﾂｼﾋｶﾞｼｸ","kana_address":"ﾘｭｳﾂｳﾓﾄﾏﾁ","pref":"静岡県","city":"浜松市東区","address":"流通元町"},
{"zip_code":"4350016","kana_pref":"ｼｽﾞｵｶｹﾝ","kana_city":"ﾊﾏﾏﾂｼﾋｶﾞｼｸ","kana_address":"ﾜﾀﾞﾁｮｳ","pref":"静岡県","city":"浜松市東区","address":"和田町"},
{"zip_code":"4350037","kana_pref":"ｼｽﾞｵｶｹﾝ","kana_city":"ﾊﾏﾏﾂｼﾐﾅﾐｸ","kana_address":"ｱｵﾔﾁｮｳ","pref":"静岡県","city":"浜松市南区","address":"青屋町"},
{"zip_code":"4350028","kana_pref":"ｼｽﾞｵｶｹﾝ","kana_city":"ﾊﾏﾏﾂｼﾐﾅﾐｸ","kana_address":"ｲｲﾀﾞﾁｮｳ","pref":"静岡県","city":"浜松市南区","address":"飯田町"},
{"zip_code":"4350033","kana_pref":"ｼｽﾞｵｶｹﾝ","kana_city":"ﾊﾏﾏﾂｼﾐﾅﾐｸ","kana_address":"ｲｼﾊﾗﾁｮｳ","pref":"静岡県","city":"浜松市南区","address":"石原町"},
{"zip_code":"4350025","kana_pref":"ｼｽﾞｵｶｹﾝ","kana_city":"ﾊﾏﾏﾂｼﾐﾅﾐｸ","kana_address":"ｵｲﾏﾁｮｳ","pref":"静岡県","city":"浜松市南区","address":"老間町"},
{"zip_code":"4350024","kana_pref":"ｼｽﾞｵｶｹﾝ","kana_city":"ﾊﾏﾏﾂｼﾐﾅﾐｸ","kana_address":"ｵｵﾂｶﾁｮｳ","pref":"静岡県","city":"浜松市南区","address":"大塚町"},
{"zip_code":"4350026","kana_pref":"ｼｽﾞｵｶｹﾝ","kana_city":"ﾊﾏﾏﾂｼﾐﾅﾐｸ","kana_address":"ｶﾅｵﾘﾁｮｳ","pref":"静岡県","city":"浜松市南区","address":"金折町"},
{"zip_code":"4350038","kana_pref":"ｼｽﾞｵｶｹﾝ","kana_city":"ﾊﾏﾏﾂｼﾐﾅﾐｸ","kana_address":"ｻﾝﾜﾁｮｳ","pref":"静岡県","city":"浜松市南区","address":"三和町"},
{"zip_code":"4350027","kana_pref":"ｼｽﾞｵｶｹﾝ","kana_city":"ﾊﾏﾏﾂｼﾐﾅﾐｸ","kana_address":"ｼﾓｲｲﾀﾞﾁｮｳ","pref":"静岡県","city":"浜松市南区","address":"下飯田町"},
{"zip_code":"4350023","kana_pref":"ｼｽﾞｵｶｹﾝ","kana_city":"ﾊﾏﾏﾂｼﾐﾅﾐｸ","kana_address":"ｼﾝｶﾞｲﾁｮｳ","pref":"静岡県","city":"浜松市南区","address":"新貝町"},
{"zip_code":"4350035","kana_pref":"ｼｽﾞｵｶｹﾝ","kana_city":"ﾊﾏﾏﾂｼﾐﾅﾐｸ","kana_address":"ｾｲﾃﾞﾝｼﾞﾁｮｳ","pref":"静岡県","city":"浜松市南区","address":"西伝寺町"},
{"zip_code":"4350022","kana_pref":"ｼｽﾞｵｶｹﾝ","kana_city":"ﾊﾏﾏﾂｼﾐﾅﾐｸ","kana_address":"ﾂﾙﾐﾁｮｳ","pref":"静岡県","city":"浜松市南区","address":"鶴見町"},
{"zip_code":"4350032","kana_pref":"ｼｽﾞｵｶｹﾝ","kana_city":"ﾊﾏﾏﾂｼﾐﾅﾐｸ","kana_address":"ﾌﾙｶﾜﾁｮｳ","pref":"静岡県","city":"浜松市南区","address":"古川町"},
{"zip_code":"4350034","kana_pref":"ｼｽﾞｵｶｹﾝ","kana_city":"ﾊﾏﾏﾂｼﾐﾅﾐｸ","kana_address":"ﾔｽﾏﾂﾁｮｳ","pref":"静岡県","city":"浜松市南区","address":"安松町"},
{"zip_code":"4350036","kana_pref":"ｼｽﾞｵｶｹﾝ","kana_city":"ﾊﾏﾏﾂｼﾐﾅﾐｸ","kana_address":"ﾜﾀｾﾁｮｳ","pref":"静岡県","city":"浜松市南区","address":"渡瀬町"}]}