{"zip_code":[
{"zip_code":"4360000","kana_pref":"ｼｽﾞｵｶｹﾝ","kana_city":"ｶｹｶﾞﾜｼ","kana_address":"","pref":"静岡県","city":"掛川市","address":""},
{"zip_code":"4360018","kana_pref":"ｼｽﾞｵｶｹﾝ","kana_city":"ｶｹｶﾞﾜｼ","kana_address":"ｱｵｲﾁｮｳ","pref":"静岡県","city":"掛川市","address":"葵町"},
{"zip_code":"4360019","kana_pref":"ｼｽﾞｵｶｹﾝ","kana_city":"ｶｹｶﾞﾜｼ","kana_address":"ｱｵﾊﾞﾀﾞｲ","pref":"静岡県","city":"掛川市","address":"青葉台"},
{"zip_code":"4360041","kana_pref":"ｼｽﾞｵｶｹﾝ","kana_city":"ｶｹｶﾞﾜｼ","kana_address":"ｱｷﾊﾐﾁ","pref":"静岡県","city":"掛川市","address":"秋葉路"},
{"zip_code":"4360022","kana_pref":"ｼｽﾞｵｶｹﾝ","kana_city":"ｶｹｶﾞﾜｼ","kana_address":"ｱｹﾞﾊﾘ","pref":"静岡県","city":"掛川市","address":"上張"},
{"zip_code":"4360062","kana_pref":"ｼｽﾞｵｶｹﾝ","kana_city":"ｶｹｶﾞﾜｼ","kana_address":"ｱｻﾋｶﾞｵｶ","pref":"静岡県","city":"掛川市","address":"旭ケ丘"},
{"zip_code":"4360069","kana_pref":"ｼｽﾞｵｶｹﾝ","kana_city":"ｶｹｶﾞﾜｼ","kana_address":"ｱｻﾋﾀﾞｲ","pref":"静岡県","city":"掛川市","address":"旭台"},
{"zip_code":"4360089","kana_pref":"ｼｽﾞｵｶｹﾝ","kana_city":"ｶｹｶﾞﾜｼ","kana_address":"ｱﾝﾖｳｼﾞ","pref":"静岡県","city":"掛川市","address":"安養寺"},
{"zip_code":"4360225","kana_pref":"ｼｽﾞｵｶｹﾝ","kana_city":"ｶｹｶﾞﾜｼ","kana_address":"ｲｴｼﾛ","pref":"静岡県","city":"掛川市","address":"家代"},
{"zip_code":"4360227","kana_pref":"ｼｽﾞｵｶｹﾝ","kana_city":"ｶｹｶﾞﾜｼ","kana_address":"ｲｴｼﾛﾉｻﾄ","pref":"静岡県","city":"掛川市","address":"家代の里"},
{"zip_code":"4360332","kana_pref":"ｼｽﾞｵｶｹﾝ","kana_city":"ｶｹｶﾞﾜｼ","kana_address":"ｲｼﾞﾘ","pref":"静岡県","city":"掛川市","address":"居尻"},
{"zip_code":"4360016","kana_pref":"ｼｽﾞｵｶｹﾝ","kana_city":"ｶｹｶﾞﾜｼ","kana_address":"ｲﾀｻﾜ","pref":"静岡県","city":"掛川市","address":"板沢"},
{"zip_code":"4360072","kana_pref":"ｼｽﾞｵｶｹﾝ","kana_city":"ｶｹｶﾞﾜｼ","kana_address":"ｲﾝﾅｲ","pref":"静岡県","city":"掛川市","address":"印内"},
{"zip_code":"4360034","kana_pref":"ｼｽﾞｵｶｹﾝ","kana_city":"ｶｹｶﾞﾜｼ","kana_address":"ｳﾒﾊﾞｼ","pref":"静岡県","city":"掛川市","address":"梅橋"},
{"zip_code":"4360077","kana_pref":"ｼｽﾞｵｶｹﾝ","kana_city":"ｶｹｶﾞﾜｼ","kana_address":"ｴｷﾏｴ","pref":"静岡県","city":"掛川市","address":"駅前"},
{"zip_code":"4360043","kana_pref":"ｼｽﾞｵｶｹﾝ","kana_city":"ｶｹｶﾞﾜｼ","kana_address":"ｵｵｲｹ","pref":"静岡県","city":"掛川市","address":"大池"},
{"zip_code":"4360087","kana_pref":"ｼｽﾞｵｶｹﾝ","kana_city":"ｶｹｶﾞﾜｼ","kana_address":"ｵｵﾀﾛｳ","pref":"静岡県","city":"掛川市","address":"大多郎"},
{"zip_code":"4360009","kana_pref":"ｼｽﾞｵｶｹﾝ","kana_city":"ｶｹｶﾞﾜｼ","kana_address":"ｵｵﾉ","pref":"静岡県","city":"掛川市","address":"大野"},
{"zip_code":"4360335","kana_pref":"ｼｽﾞｵｶｹﾝ","kana_city":"ｶｹｶﾞﾜｼ","kana_address":"ｵｵﾜﾀﾞ","pref":"静岡県","city":"掛川市","address":"大和田"},
{"zip_code":"4360037","kana_pref":"ｼｽﾞｵｶｹﾝ","kana_city":"ｶｹｶﾞﾜｼ","kana_address":"ｵｶﾂ","pref":"静岡県","city":"掛川市","address":"岡津"},
{"zip_code":"4360045","kana_pref":"ｼｽﾞｵｶｹﾝ","kana_city":"ｶｹｶﾞﾜｼ","kana_address":"ｵﾀﾞｶﾁｮｳ","pref":"静岡県","city":"掛川市","address":"小鷹町"},
{"zip_code":"4360113","kana_pref":"ｼｽﾞｵｶｹﾝ","kana_city":"ｶｹｶﾞﾜｼ","kana_address":"ｶｸﾜ","pref":"静岡県","city":"掛川市","address":"各和"},
{"zip_code":"4360079","kana_pref":"ｼｽﾞｵｶｹﾝ","kana_city":"ｶｹｶﾞﾜｼ","kana_address":"ｶｹｶﾞﾜ","pref":"静岡県","city":"掛川市","address":"掛川"},
{"zip_code":"4360088","kana_pref":"ｼｽﾞｵｶｹﾝ","kana_city":"ｶｹｶﾞﾜｼ","kana_address":"ｶﾂﾗｶﾞｵｶ","pref":"静岡県","city":"掛川市","address":"葛ケ丘"},
{"zip_code":"4360073","kana_pref":"ｼｽﾞｵｶｹﾝ","kana_city":"ｶｹｶﾞﾜｼ","kana_address":"ｶﾈｼﾛ","pref":"静岡県","city":"掛川市","address":"金城"},
{"zip_code":"4360012","kana_pref":"ｼｽﾞｵｶｹﾝ","kana_city":"ｶｹｶﾞﾜｼ","kana_address":"ｶﾐｳﾁﾀﾞ","pref":"静岡県","city":"掛川市","address":"上内田"},
{"zip_code":"4360342","kana_pref":"ｼｽﾞｵｶｹﾝ","kana_city":"ｶｹｶﾞﾜｼ","kana_address":"ｶﾐｻｲｺﾞｳ","pref":"静岡県","city":"掛川市","address":"上西郷"},
{"zip_code":"4360221","kana_pref":"ｼｽﾞｵｶｹﾝ","kana_city":"ｶｹｶﾞﾜｼ","kana_address":"ｶﾐﾀﾙｷ","pref":"静岡県","city":"掛川市","address":"上垂木"},
{"zip_code":"4360101","kana_pref":"ｼｽﾞｵｶｹﾝ","kana_city":"ｶｹｶﾞﾜｼ","kana_address":"ｶﾐﾆｼﾉﾔ","pref":"静岡県","city":"掛川市","address":"上西之谷"},
{"zip_code":"4360049","kana_pref":"ｼｽﾞｵｶｹﾝ","kana_city":"ｶｹｶﾞﾜｼ","kana_address":"ｶﾐﾔｼｷ","pref":"静岡県","city":"掛川市","address":"上屋敷"},
{"zip_code":"4360028","kana_pref":"ｼｽﾞｵｶｹﾝ","kana_city":"ｶｹｶﾞﾜｼ","kana_address":"ｶﾒﾉｺｳ","pref":"静岡県","city":"掛川市","address":"亀の甲"},
{"zip_code":"4360014","kana_pref":"ｼｽﾞｵｶｹﾝ","kana_city":"ｶｹｶﾞﾜｼ","kana_address":"ｶﾞﾝｼｮｳｼﾞ","pref":"静岡県","city":"掛川市","address":"岩井寺"},
{"zip_code":"4360063","kana_pref":"ｼｽﾞｵｶｹﾝ","kana_city":"ｶｹｶﾞﾜｼ","kana_address":"ｷﾀｲｹｼﾝﾃﾞﾝ","pref":"静岡県","city":"掛川市","address":"北池新田"},
{"zip_code":"4360064","kana_pref":"ｼｽﾞｵｶｹﾝ","kana_city":"ｶｹｶﾞﾜｼ","kana_address":"ｷﾀﾓﾝ","pref":"静岡県","city":"掛川市","address":"北門"},
{"zip_code":"4360094","kana_pref":"ｼｽﾞｵｶｹﾝ","kana_city":"ｶｹｶﾞﾜｼ","kana_address":"ｷﾏﾁ","pref":"静岡県","city":"掛川市","address":"喜町"},
{"zip_code":"4360044","kana_pref":"ｼｽﾞｵｶｹﾝ","kana_city":"ｶｹｶﾞﾜｼ","kana_address":"ｷﾖｻｷ","pref":"静岡県","city":"掛川市","address":"清崎"},
{"zip_code":"4360074","kana_pref":"ｼｽﾞｵｶｹﾝ","kana_city":"ｶｹｶﾞﾜｼ","kana_address":"ｸｽﾞｶﾜ","pref":"静岡県","city":"掛川市","address":"葛川"},
{"zip_code":"4360027","kana_pref":"ｼｽﾞｵｶｹﾝ","kana_city":"ｶｹｶﾞﾜｼ","kana_address":"ｸﾎﾞ","pref":"静岡県","city":"掛川市","address":"久保"},
{"zip_code":"4360341","kana_pref":"ｼｽﾞｵｶｹﾝ","kana_city":"ｶｹｶﾞﾜｼ","kana_address":"ｸﾗﾐ","pref":"静岡県","city":"掛川市","address":"倉真"},
{"zip_code":"4360223","kana_pref":"ｼｽﾞｵｶｹﾝ","kana_city":"ｶｹｶﾞﾜｼ","kana_address":"ｸﾛﾀﾞ","pref":"静岡県","city":"掛川市","address":"黒田"},
{"zip_code":"4360331","kana_pref":"ｼｽﾞｵｶｹﾝ","kana_city":"ｶｹｶﾞﾜｼ","kana_address":"ｸﾛﾏﾀ","pref":"静岡県","city":"掛川市","address":"黒俣"},
{"zip_code":"4360023","kana_pref":"ｼｽﾞｵｶｹﾝ","kana_city":"ｶｹｶﾞﾜｼ","kana_address":"ｹﾂｴﾝｼﾞ","pref":"静岡県","city":"掛川市","address":"結縁寺"},
{"zip_code":"4360031","kana_pref":"ｼｽﾞｵｶｹﾝ","kana_city":"ｶｹｶﾞﾜｼ","kana_address":"ｺｳｺﾞｼｮ","pref":"静岡県","city":"掛川市","address":"高御所"},
{"zip_code":"4360055","kana_pref":"ｼｽﾞｵｶｹﾝ","kana_city":"ｶｹｶﾞﾜｼ","kana_address":"ｺｳﾔﾏﾁ","pref":"静岡県","city":"掛川市","address":"紺屋町"},
{"zip_code":"4360090","kana_pref":"ｼｽﾞｵｶｹﾝ","kana_city":"ｶｹｶﾞﾜｼ","kana_address":"ｺｳﾖｳ","pref":"静岡県","city":"掛川市","address":"光陽"},
{"zip_code":"4360068","kana_pref":"ｼｽﾞｵｶｹﾝ","kana_city":"ｶｹｶﾞﾜｼ","kana_address":"ｺﾞｼｮﾊﾞﾗ","pref":"静岡県","city":"掛川市","address":"御所原"},
{"zip_code":"4360013","kana_pref":"ｼｽﾞｵｶｹﾝ","kana_city":"ｶｹｶﾞﾜｼ","kana_address":"ｺﾄﾅﾘ","pref":"静岡県","city":"掛川市","address":"子隣"},
{"zip_code":"4360007","kana_pref":"ｼｽﾞｵｶｹﾝ","kana_city":"ｶｹｶﾞﾜｼ","kana_address":"ｺﾊﾞﾗｺ","pref":"静岡県","city":"掛川市","address":"小原子"},
{"zip_code":"4360343","kana_pref":"ｼｽﾞｵｶｹﾝ","kana_city":"ｶｹｶﾞﾜｼ","kana_address":"ｺﾞﾐｮｳ","pref":"静岡県","city":"掛川市","address":"五明"},
{"zip_code":"4360048","kana_pref":"ｼｽﾞｵｶｹﾝ","kana_city":"ｶｹｶﾞﾜｼ","kana_address":"ｻｲﾀﾞ","pref":"静岡県","city":"掛川市","address":"細田"},
{"zip_code":"4360084","kana_pref":"ｼｽﾞｵｶｹﾝ","kana_city":"ｶｹｶﾞﾜｼ","kana_address":"ｻｶｶﾞﾜ","pref":"静岡県","city":"掛川市","address":"逆川"},
{"zip_code":"4360078","kana_pref":"ｼｽﾞｵｶｹﾝ","kana_city":"ｶｹｶﾞﾜｼ","kana_address":"ｻｶﾅﾏﾁ","pref":"静岡県","city":"掛川市","address":"肴町"},
{"zip_code":"4360002","kana_pref":"ｼｽﾞｵｶｹﾝ","kana_city":"ｶｹｶﾞﾜｼ","kana_address":"ｻﾖｼｶ","pref":"静岡県","city":"掛川市","address":"佐夜鹿"},
{"zip_code":"4360039","kana_pref":"ｼｽﾞｵｶｹﾝ","kana_city":"ｶｹｶﾞﾜｼ","kana_address":"ｻﾜﾀﾞ","pref":"静岡県","city":"掛川市","address":"沢田"},
{"zip_code":"4360076","kana_pref":"ｼｽﾞｵｶｹﾝ","kana_city":"ｶｹｶﾞﾜｼ","kana_address":"ｼｵﾏﾁ","pref":"静岡県","city":"掛川市","address":"塩町"},
{"zip_code":"4360033","kana_pref":"ｼｽﾞｵｶｹﾝ","kana_city":"ｶｹｶﾞﾜｼ","kana_address":"ｼﾉﾝﾊﾞ","pref":"静岡県","city":"掛川市","address":"篠場"},
{"zip_code":"4360067","kana_pref":"ｼｽﾞｵｶｹﾝ","kana_city":"ｶｹｶﾞﾜｼ","kana_address":"ｼﾓｻｲｺﾞｳ","pref":"静岡県","city":"掛川市","address":"下西郷"},
{"zip_code":"4360222","kana_pref":"ｼｽﾞｵｶｹﾝ","kana_city":"ｶｹｶﾞﾜｼ","kana_address":"ｼﾓﾀﾙｷ","pref":"静岡県","city":"掛川市","address":"下垂木"},
{"zip_code":"4360025","kana_pref":"ｼｽﾞｵｶｹﾝ","kana_city":"ｶｹｶﾞﾜｼ","kana_address":"ｼﾓﾏﾀ","pref":"静岡県","city":"掛川市","address":"下俣"},
{"zip_code":"4360026","kana_pref":"ｼｽﾞｵｶｹﾝ","kana_city":"ｶｹｶﾞﾜｼ","kana_address":"ｼﾓﾏﾀﾐﾅﾐ","pref":"静岡県","city":"掛川市","address":"下俣南"},
{"zip_code":"4360057","kana_pref":"ｼｽﾞｵｶｹﾝ","kana_city":"ｶｹｶﾞﾜｼ","kana_address":"ｼﾞｭｳｸｼｭ","pref":"静岡県","city":"掛川市","address":"十九首"},
{"zip_code":"4360091","kana_pref":"ｼｽﾞｵｶｹﾝ","kana_city":"ｶｹｶﾞﾜｼ","kana_address":"ｼﾛｼﾀ","pref":"静岡県","city":"掛川市","address":"城下"},
{"zip_code":"4360054","kana_pref":"ｼｽﾞｵｶｹﾝ","kana_city":"ｶｹｶﾞﾜｼ","kana_address":"ｼﾛﾆｼ","pref":"静岡県","city":"掛川市","address":"城西"},
{"zip_code":"4360059","kana_pref":"ｼｽﾞｵｶｹﾝ","kana_city":"ｶｹｶﾞﾜｼ","kana_address":"ｼﾞｮｳﾎｸ","pref":"静岡県","city":"掛川市","address":"城北"},
{"zip_code":"4360017","kana_pref":"ｼｽﾞｵｶｹﾝ","kana_city":"ｶｹｶﾞﾜｼ","kana_address":"ｽｷﾞﾔ","pref":"静岡県","city":"掛川市","address":"杉谷"},
{"zip_code":"4360030","kana_pref":"ｼｽﾞｵｶｹﾝ","kana_city":"ｶｹｶﾞﾜｼ","kana_address":"ｽｷﾞﾔﾐﾅﾐ","pref":"静岡県","city":"掛川市","address":"杉谷南"},
{"zip_code":"4360337","kana_pref":"ｼｽﾞｵｶｹﾝ","kana_city":"ｶｹｶﾞﾜｼ","kana_address":"ｽﾐﾔｷ","pref":"静岡県","city":"掛川市","address":"炭焼"},
{"zip_code":"4360008","kana_pref":"ｼｽﾞｵｶｹﾝ","kana_city":"ｶｹｶﾞﾜｼ","kana_address":"ｾﾝﾊﾞ","pref":"静岡県","city":"掛川市","address":"千羽"},
{"zip_code":"4360083","kana_pref":"ｼｽﾞｵｶｹﾝ","kana_city":"ｶｹｶﾞﾜｼ","kana_address":"ｿﾉｶﾞﾔ","pref":"静岡県","city":"掛川市","address":"薗ケ谷"},
{"zip_code":"4360114","kana_pref":"ｼｽﾞｵｶｹﾝ","kana_city":"ｶｹｶﾞﾜｼ","kana_address":"ﾀｶﾀﾞ","pref":"静岡県","city":"掛川市","address":"高田"},
{"zip_code":"4360005","kana_pref":"ｼｽﾞｵｶｹﾝ","kana_city":"ｶｹｶﾞﾜｼ","kana_address":"ﾀﾞﾃｶﾞﾀ","pref":"静岡県","city":"掛川市","address":"伊達方"},
{"zip_code":"4360011","kana_pref":"ｼｽﾞｵｶｹﾝ","kana_city":"ｶｹｶﾞﾜｼ","kana_address":"ﾀﾏﾘ","pref":"静岡県","city":"掛川市","address":"満水"},
{"zip_code":"4360333","kana_pref":"ｼｽﾞｵｶｹﾝ","kana_city":"ｶｹｶﾞﾜｼ","kana_address":"ﾀﾝﾏ","pref":"静岡県","city":"掛川市","address":"丹間"},
{"zip_code":"4360082","kana_pref":"ｼｽﾞｵｶｹﾝ","kana_city":"ｶｹｶﾞﾜｼ","kana_address":"ﾀﾝﾖｳ","pref":"静岡県","city":"掛川市","address":"淡陽"},
{"zip_code":"4360056","kana_pref":"ｼｽﾞｵｶｹﾝ","kana_city":"ｶｹｶﾞﾜｼ","kana_address":"ﾁｭｳｵｳ","pref":"静岡県","city":"掛川市","address":"中央"},
{"zip_code":"4360046","kana_pref":"ｼｽﾞｵｶｹﾝ","kana_city":"ｶｹｶﾞﾜｼ","kana_address":"ﾁｭｳｵｳﾀｶﾏﾁ","pref":"静岡県","city":"掛川市","address":"中央高町"},
{"zip_code":"4360106","kana_pref":"ｼｽﾞｵｶｹﾝ","kana_city":"ｶｹｶﾞﾜｼ","kana_address":"ﾃﾗｼﾏ","pref":"静岡県","city":"掛川市","address":"寺島"},
{"zip_code":"4360065","kana_pref":"ｼｽﾞｵｶｹﾝ","kana_city":"ｶｹｶﾞﾜｼ","kana_address":"ﾃﾝﾉｳﾁｮｳ","pref":"静岡県","city":"掛川市","address":"天王町"},
{"zip_code":"4360035","kana_pref":"ｼｽﾞｵｶｹﾝ","kana_city":"ｶｹｶﾞﾜｼ","kana_address":"ﾄｸｲｽﾞﾐ","pref":"静岡県","city":"掛川市","address":"徳泉"},
{"zip_code":"4360224","kana_pref":"ｼｽﾞｵｶｹﾝ","kana_city":"ｶｹｶﾞﾜｼ","kana_address":"ﾄﾝﾍﾞ","pref":"静岡県","city":"掛川市","address":"富部"},
{"zip_code":"4360051","kana_pref":"ｼｽﾞｵｶｹﾝ","kana_city":"ｶｹｶﾞﾜｼ","kana_address":"ﾅｶｼﾞｭｸ","pref":"静岡県","city":"掛川市","address":"中宿"},
{"zip_code":"4360102","kana_pref":"ｼｽﾞｵｶｹﾝ","kana_city":"ｶｹｶﾞﾜｼ","kana_address":"ﾅｶﾆｼﾉﾔ","pref":"静岡県","city":"掛川市","address":"中西之谷"},
{"zip_code":"4360092","kana_pref":"ｼｽﾞｵｶｹﾝ","kana_city":"ｶｹｶﾞﾜｼ","kana_address":"ﾅｶﾏﾁ","pref":"静岡県","city":"掛川市","address":"中町"},
{"zip_code":"4360047","kana_pref":"ｼｽﾞｵｶｹﾝ","kana_city":"ｶｹｶﾞﾜｼ","kana_address":"ﾅｶﾞﾔ","pref":"静岡県","city":"掛川市","address":"長谷"},
{"zip_code":"4360058","kana_pref":"ｼｽﾞｵｶｹﾝ","kana_city":"ｶｹｶﾞﾜｼ","kana_address":"ﾅﾉｶﾏﾁ","pref":"静岡県","city":"掛川市","address":"七日町"},
{"zip_code":"4360085","kana_pref":"ｼｽﾞｵｶｹﾝ","kana_city":"ｶｹｶﾞﾜｼ","kana_address":"ﾅﾙﾀｷ","pref":"静岡県","city":"掛川市","address":"成滝"},
{"zip_code":"4360116","kana_pref":"ｼｽﾞｵｶｹﾝ","kana_city":"ｶｹｶﾞﾜｼ","kana_address":"ﾆｼﾔﾏ","pref":"静岡県","city":"掛川市","address":"西山"},
{"zip_code":"4360003","kana_pref":"ｼｽﾞｵｶｹﾝ","kana_city":"ｶｹｶﾞﾜｼ","kana_address":"ﾆｯｻｶ","pref":"静岡県","city":"掛川市","address":"日坂"},
{"zip_code":"4360071","kana_pref":"ｼｽﾞｵｶｹﾝ","kana_city":"ｶｹｶﾞﾜｼ","kana_address":"ﾆﾄｳ","pref":"静岡県","city":"掛川市","address":"仁藤"},
{"zip_code":"4360075","kana_pref":"ｼｽﾞｵｶｹﾝ","kana_city":"ｶｹｶﾞﾜｼ","kana_address":"ﾆﾄｳﾏﾁ","pref":"静岡県","city":"掛川市","address":"仁藤町"},
{"zip_code":"4360336","kana_pref":"ｼｽﾞｵｶｹﾝ","kana_city":"ｶｹｶﾞﾜｼ","kana_address":"ﾊｷﾞﾏ","pref":"静岡県","city":"掛川市","address":"萩間"},
{"zip_code":"4360117","kana_pref":"ｼｽﾞｵｶｹﾝ","kana_city":"ｶｹｶﾞﾜｼ","kana_address":"ﾊﾀｶﾏ","pref":"静岡県","city":"掛川市","address":"幡鎌"},
{"zip_code":"4360081","kana_pref":"ｼｽﾞｵｶｹﾝ","kana_city":"ｶｹｶﾞﾜｼ","kana_address":"ﾊﾂﾏ","pref":"静岡県","city":"掛川市","address":"初馬"},
{"zip_code":"4360036","kana_pref":"ｼｽﾞｵｶｹﾝ","kana_city":"ｶｹｶﾞﾜｼ","kana_address":"ﾊﾗｶﾞﾜ","pref":"静岡県","city":"掛川市","address":"原川"},
{"zip_code":"4360105","kana_pref":"ｼｽﾞｵｶｹﾝ","kana_city":"ｶｹｶﾞﾜｼ","kana_address":"ﾊﾗｻﾄ","pref":"静岡県","city":"掛川市","address":"原里"},
{"zip_code":"4360334","kana_pref":"ｼｽﾞｵｶｹﾝ","kana_city":"ｶｹｶﾞﾜｼ","kana_address":"ﾊﾗﾐｲｼ","pref":"静岡県","city":"掛川市","address":"孕石"},
{"zip_code":"4360001","kana_pref":"ｼｽﾞｵｶｹﾝ","kana_city":"ｶｹｶﾞﾜｼ","kana_address":"ﾋｶﾞｼﾔﾏ","pref":"静岡県","city":"掛川市","address":"東山"},
{"zip_code":"4360103","kana_pref":"ｼｽﾞｵｶｹﾝ","kana_city":"ｶｹｶﾞﾜｼ","kana_address":"ﾋｻｲｼﾞﾏ","pref":"静岡県","city":"掛川市","address":"久居島"},
{"zip_code":"4360104","kana_pref":"ｼｽﾞｵｶｹﾝ","kana_city":"ｶｹｶﾞﾜｼ","kana_address":"ﾋﾗｼﾏ","pref":"静岡県","city":"掛川市","address":"平島"},
{"zip_code":"4360032","kana_pref":"ｼｽﾞｵｶｹﾝ","kana_city":"ｶｹｶﾞﾜｼ","kana_address":"ﾋﾗﾉ","pref":"静岡県","city":"掛川市","address":"平野"},
{"zip_code":"4360042","kana_pref":"ｼｽﾞｵｶｹﾝ","kana_city":"ｶｹｶﾞﾜｼ","kana_address":"ﾌﾀｾｶﾞﾜ","pref":"静岡県","city":"掛川市","address":"二瀬川"},
{"zip_code":"4360112","kana_pref":"ｼｽﾞｵｶｹﾝ","kana_city":"ｶｹｶﾞﾜｼ","kana_address":"ﾎｿﾔ","pref":"静岡県","city":"掛川市","address":"細谷"},
{"zip_code":"4360111","kana_pref":"ｼｽﾞｵｶｹﾝ","kana_city":"ｶｹｶﾞﾜｼ","kana_address":"ﾎﾝｺﾞｳ","pref":"静岡県","city":"掛川市","address":"本郷"},
{"zip_code":"4360006","kana_pref":"ｼｽﾞｵｶｹﾝ","kana_city":"ｶｹｶﾞﾜｼ","kana_address":"ﾎﾝｼﾞｮ","pref":"静岡県","city":"掛川市","address":"本所"},
{"zip_code":"4360061","kana_pref":"ｼｽﾞｵｶｹﾝ","kana_city":"ｶｹｶﾞﾜｼ","kana_address":"ﾐｽﾞﾀﾘ","pref":"静岡県","city":"掛川市","address":"水垂"},
{"zip_code":"4360021","kana_pref":"ｼｽﾞｵｶｹﾝ","kana_city":"ｶｹｶﾞﾜｼ","kana_address":"ﾐﾄﾞﾘｶﾞｵｶ","pref":"静岡県","city":"掛川市","address":"緑ケ丘"},
{"zip_code":"4360029","kana_pref":"ｼｽﾞｵｶｹﾝ","kana_city":"ｶｹｶﾞﾜｼ","kana_address":"ﾐﾅﾐ","pref":"静岡県","city":"掛川市","address":"南"},
{"zip_code":"4360024","kana_pref":"ｼｽﾞｵｶｹﾝ","kana_city":"ｶｹｶﾞﾜｼ","kana_address":"ﾐﾅﾐｻｲｺﾞｳ","pref":"静岡県","city":"掛川市","address":"南西郷"},
{"zip_code":"4360086","kana_pref":"ｼｽﾞｵｶｹﾝ","kana_city":"ｶｹｶﾞﾜｼ","kana_address":"ﾐﾔﾜｷ","pref":"静岡県","city":"掛川市","address":"宮脇"},
{"zip_code":"4360004","kana_pref":"ｼｽﾞｵｶｹﾝ","kana_city":"ｶｹｶﾞﾜｼ","kana_address":"ﾔｻｶ","pref":"静岡県","city":"掛川市","address":"八坂"},
{"zip_code":"4360020","kana_pref":"ｼｽﾞｵｶｹﾝ","kana_city":"ｶｹｶﾞﾜｼ","kana_address":"ﾔｻｷﾁｮｳ","pref":"静岡県","city":"掛川市","address":"矢崎町"},
{"zip_code":"4360052","kana_pref":"ｼｽﾞｵｶｹﾝ","kana_city":"ｶｹｶﾞﾜｼ","kana_address":"ﾔﾅｷﾞﾁｮｳ","pref":"静岡県","city":"掛川市","address":"柳町"},
{"zip_code":"4360066","kana_pref":"ｼｽﾞｵｶｹﾝ","kana_city":"ｶｹｶﾞﾜｼ","kana_address":"ﾔﾉｸﾁﾁｮｳ","pref":"静岡県","city":"掛川市","address":"谷の口町"},
{"zip_code":"4360053","kana_pref":"ｼｽﾞｵｶｹﾝ","kana_city":"ｶｹｶﾞﾜｼ","kana_address":"ﾔﾖｲﾁｮｳ","pref":"静岡県","city":"掛川市","address":"弥生町"},
{"zip_code":"4360226","kana_pref":"ｼｽﾞｵｶｹﾝ","kana_city":"ｶｹｶﾞﾜｼ","kana_address":"ﾕｹ","pref":"静岡県","city":"掛川市","address":"遊家"},
{"zip_code":"4360115","kana_pref":"ｼｽﾞｵｶｹﾝ","kana_city":"ｶｹｶﾞﾜｼ","kana_address":"ﾖｼｵｶ","pref":"静岡県","city":"掛川市","address":"吉岡"},
{"zip_code":"4360038","kana_pref":"ｼｽﾞｵｶｹﾝ","kana_city":"ｶｹｶﾞﾜｼ","kana_address":"ﾘｮｳｹ","pref":"静岡県","city":"掛川市","address":"領家"},
{"zip_code":"4360093","kana_pref":"ｼｽﾞｵｶｹﾝ","kana_city":"ｶｹｶﾞﾜｼ","kana_address":"ﾚﾝｼﾞｬｸ","pref":"静岡県","city":"掛川市","address":"連雀"},
{"zip_code":"4360338","kana_pref":"ｼｽﾞｵｶｹﾝ","kana_city":"ｶｹｶﾞﾜｼ","kana_address":"ﾜｺｳ","pref":"静岡県","city":"掛川市","address":"和光"},
{"zip_code":"4360015","kana_pref":"ｼｽﾞｵｶｹﾝ","kana_city":"ｶｹｶﾞﾜｼ","kana_address":"ﾜﾀﾞ","pref":"静岡県","city":"掛川市","address":"和田"}]}