{"zip_code":[
{"zip_code":"4370617","kana_pref":"ｼｽﾞｵｶｹﾝ","kana_city":"ﾊﾏﾏﾂｼﾃﾝﾘｭｳｸ","kana_address":"ﾊﾙﾉﾁｮｳｲｶﾝﾄﾞｵｵｶﾐ","pref":"静岡県","city":"浜松市天竜区","address":"春野町筏戸大上"},
{"zip_code":"4370621","kana_pref":"ｼｽﾞｵｶｹﾝ","kana_city":"ﾊﾏﾏﾂｼﾃﾝﾘｭｳｸ","kana_address":"ﾊﾙﾉﾁｮｳｲｻｶﾞﾜ","pref":"静岡県","city":"浜松市天竜区","address":"春野町砂川"},
{"zip_code":"4370615","kana_pref":"ｼｽﾞｵｶｹﾝ","kana_city":"ﾊﾏﾏﾂｼﾃﾝﾘｭｳｸ","kana_address":"ﾊﾙﾉﾁｮｳｲｼｳﾁﾏﾂｼﾀ","pref":"静岡県","city":"浜松市天竜区","address":"春野町石打松下"},
{"zip_code":"4370607","kana_pref":"ｼｽﾞｵｶｹﾝ","kana_city":"ﾊﾏﾏﾂｼﾃﾝﾘｭｳｸ","kana_address":"ﾊﾙﾉﾁｮｳｲｼｷﾘ","pref":"静岡県","city":"浜松市天竜区","address":"春野町石切"},
{"zip_code":"4370624","kana_pref":"ｼｽﾞｵｶｹﾝ","kana_city":"ﾊﾏﾏﾂｼﾃﾝﾘｭｳｸ","kana_address":"ﾊﾙﾉﾁｮｳｲｽﾞﾐﾀﾞｲﾗ","pref":"静岡県","city":"浜松市天竜区","address":"春野町和泉平"},
{"zip_code":"4370622","kana_pref":"ｼｽﾞｵｶｹﾝ","kana_city":"ﾊﾏﾏﾂｼﾃﾝﾘｭｳｸ","kana_address":"ﾊﾙﾉﾁｮｳｵｵﾄｷ","pref":"静岡県","city":"浜松市天竜区","address":"春野町大時"},
{"zip_code":"4370608","kana_pref":"ｼｽﾞｵｶｹﾝ","kana_city":"ﾊﾏﾏﾂｼﾃﾝﾘｭｳｸ","kana_address":"ﾊﾙﾉﾁｮｳｵﾏﾀｷｮｳﾏﾙ","pref":"静岡県","city":"浜松市天竜区","address":"春野町小俣京丸"},
{"zip_code":"4370601","kana_pref":"ｼｽﾞｵｶｹﾝ","kana_city":"ﾊﾏﾏﾂｼﾃﾝﾘｭｳｸ","kana_address":"ﾊﾙﾉﾁｮｳｶﾜｶﾐ","pref":"静岡県","city":"浜松市天竜区","address":"春野町川上"},
{"zip_code":"4370623","kana_pref":"ｼｽﾞｵｶｹﾝ","kana_city":"ﾊﾏﾏﾂｼﾃﾝﾘｭｳｸ","kana_address":"ﾊﾙﾉﾁｮｳｸﾙﾐﾀﾞｲﾗ","pref":"静岡県","city":"浜松市天竜区","address":"春野町胡桃平"},
{"zip_code":"4370605","kana_pref":"ｼｽﾞｵｶｹﾝ","kana_city":"ﾊﾏﾏﾂｼﾃﾝﾘｭｳｸ","kana_address":"ﾊﾙﾉﾁｮｳｹﾀ","pref":"静岡県","city":"浜松市天竜区","address":"春野町気田"},
{"zip_code":"4370618","kana_pref":"ｼｽﾞｵｶｹﾝ","kana_city":"ﾊﾏﾏﾂｼﾃﾝﾘｭｳｸ","kana_address":"ﾊﾙﾉﾁｮｳｺｼｷﾀﾞｲﾗ","pref":"静岡県","city":"浜松市天竜区","address":"春野町越木平"},
{"zip_code":"4370603","kana_pref":"ｼｽﾞｵｶｹﾝ","kana_city":"ﾊﾏﾏﾂｼﾃﾝﾘｭｳｸ","kana_address":"ﾊﾙﾉﾁｮｳｺﾞﾜ","pref":"静岡県","city":"浜松市天竜区","address":"春野町五和"},
{"zip_code":"4370602","kana_pref":"ｼｽﾞｵｶｹﾝ","kana_city":"ﾊﾏﾏﾂｼﾃﾝﾘｭｳｸ","kana_address":"ﾊﾙﾉﾁｮｳｽｷﾞ","pref":"静岡県","city":"浜松市天竜区","address":"春野町杉"},
{"zip_code":"4370616","kana_pref":"ｼｽﾞｵｶｹﾝ","kana_city":"ﾊﾏﾏﾂｼﾃﾝﾘｭｳｸ","kana_address":"ﾊﾙﾉﾁｮｳﾀｸﾞﾛ","pref":"静岡県","city":"浜松市天竜区","address":"春野町田黒"},
{"zip_code":"4370611","kana_pref":"ｼｽﾞｵｶｹﾝ","kana_city":"ﾊﾏﾏﾂｼﾃﾝﾘｭｳｸ","kana_address":"ﾊﾙﾉﾁｮｳﾀｺﾞｳﾁ","pref":"静岡県","city":"浜松市天竜区","address":"春野町田河内"},
{"zip_code":"4370614","kana_pref":"ｼｽﾞｵｶｹﾝ","kana_city":"ﾊﾏﾏﾂｼﾃﾝﾘｭｳｸ","kana_address":"ﾊﾙﾉﾁｮｳﾁｮｳｿﾞｳｼﾞ","pref":"静岡県","city":"浜松市天竜区","address":"春野町長蔵寺"},
{"zip_code":"4370606","kana_pref":"ｼｽﾞｵｶｹﾝ","kana_city":"ﾊﾏﾏﾂｼﾃﾝﾘｭｳｸ","kana_address":"ﾊﾙﾉﾁｮｳﾄﾖｵｶ","pref":"静岡県","city":"浜松市天竜区","address":"春野町豊岡"},
{"zip_code":"4370612","kana_pref":"ｼｽﾞｵｶｹﾝ","kana_city":"ﾊﾏﾏﾂｼﾃﾝﾘｭｳｸ","kana_address":"ﾊﾙﾉﾁｮｳﾊﾅｼﾞﾏ","pref":"静岡県","city":"浜松市天竜区","address":"春野町花島"},
{"zip_code":"4370625","kana_pref":"ｼｽﾞｵｶｹﾝ","kana_city":"ﾊﾏﾏﾂｼﾃﾝﾘｭｳｸ","kana_address":"ﾊﾙﾉﾁｮｳﾎﾘﾉｳﾁ","pref":"静岡県","city":"浜松市天竜区","address":"春野町堀之内"},
{"zip_code":"4370613","kana_pref":"ｼｽﾞｵｶｹﾝ","kana_city":"ﾊﾏﾏﾂｼﾃﾝﾘｭｳｸ","kana_address":"ﾊﾙﾉﾁｮｳﾏｷﾉ","pref":"静岡県","city":"浜松市天竜区","address":"春野町牧野"},
{"zip_code":"4370604","kana_pref":"ｼｽﾞｵｶｹﾝ","kana_city":"ﾊﾏﾏﾂｼﾃﾝﾘｭｳｸ","kana_address":"ﾊﾙﾉﾁｮｳﾐﾔｶﾞﾜ","pref":"静岡県","city":"浜松市天竜区","address":"春野町宮川"},
{"zip_code":"4370626","kana_pref":"ｼｽﾞｵｶｹﾝ","kana_city":"ﾊﾏﾏﾂｼﾃﾝﾘｭｳｸ","kana_address":"ﾊﾙﾉﾁｮｳﾘｮｳｹ","pref":"静岡県","city":"浜松市天竜区","address":"春野町領家"},
{"zip_code":"4371206","kana_pref":"ｼｽﾞｵｶｹﾝ","kana_city":"ｲﾜﾀｼ","kana_address":"ｲｶｺﾞ","pref":"静岡県","city":"磐田市","address":"五十子"},
{"zip_code":"4371216","kana_pref":"ｼｽﾞｵｶｹﾝ","kana_city":"ｲﾜﾀｼ","kana_address":"ｲｯｼｷ","pref":"静岡県","city":"磐田市","address":"一色"},
{"zip_code":"4371217","kana_pref":"ｼｽﾞｵｶｹﾝ","kana_city":"ｲﾜﾀｼ","kana_address":"ｳﾍｴｼﾝﾃﾞﾝ","pref":"静岡県","city":"磐田市","address":"宇兵衛新田"},
{"zip_code":"4371211","kana_pref":"ｼｽﾞｵｶｹﾝ","kana_city":"ｲﾜﾀｼ","kana_address":"ｵｵﾜﾗ","pref":"静岡県","city":"磐田市","address":"大原"},
{"zip_code":"4371213","kana_pref":"ｼｽﾞｵｶｹﾝ","kana_city":"ｲﾜﾀｼ","kana_address":"ｼｵｼﾝﾃﾞﾝ","pref":"静岡県","city":"磐田市","address":"塩新田"},
{"zip_code":"4371205","kana_pref":"ｼｽﾞｵｶｹﾝ","kana_city":"ｲﾜﾀｼ","kana_address":"ｼﾓﾌﾄ","pref":"静岡県","city":"磐田市","address":"下太"},
{"zip_code":"4371214","kana_pref":"ｼｽﾞｵｶｹﾝ","kana_city":"ｲﾜﾀｼ","kana_address":"ｾｲｱﾝｼﾝﾃﾞﾝ","pref":"静岡県","city":"磐田市","address":"清庵新田"},
{"zip_code":"4371215","kana_pref":"ｼｽﾞｵｶｹﾝ","kana_city":"ｲﾜﾀｼ","kana_address":"ﾀﾛﾏｼﾝﾃﾞﾝ","pref":"静岡県","city":"磐田市","address":"太郎馬新田"},
{"zip_code":"4371202","kana_pref":"ｼｽﾞｵｶｹﾝ","kana_city":"ｲﾜﾀｼ","kana_address":"ﾄﾖﾊﾏ","pref":"静岡県","city":"磐田市","address":"豊浜"},
{"zip_code":"4371201","kana_pref":"ｼｽﾞｵｶｹﾝ","kana_city":"ｲﾜﾀｼ","kana_address":"ﾄﾖﾊﾏﾅｶﾉ","pref":"静岡県","city":"磐田市","address":"豊浜中野"},
{"zip_code":"4371208","kana_pref":"ｼｽﾞｵｶｹﾝ","kana_city":"ｲﾜﾀｼ","kana_address":"ﾋｶﾞｼｺｼﾞﾏ","pref":"静岡県","city":"磐田市","address":"東小島"},
{"zip_code":"4371207","kana_pref":"ｼｽﾞｵｶｹﾝ","kana_city":"ｲﾜﾀｼ","kana_address":"ﾋﾙｲｹ","pref":"静岡県","city":"磐田市","address":"蛭池"},
{"zip_code":"4371203","kana_pref":"ｼｽﾞｵｶｹﾝ","kana_city":"ｲﾜﾀｼ","kana_address":"ﾌｸﾃﾞ","pref":"静岡県","city":"磐田市","address":"福田"},
{"zip_code":"4371204","kana_pref":"ｼｽﾞｵｶｹﾝ","kana_city":"ｲﾜﾀｼ","kana_address":"ﾌｸﾃﾞﾅｶｼﾞﾏ","pref":"静岡県","city":"磐田市","address":"福田中島"},
{"zip_code":"4371209","kana_pref":"ｼｽﾞｵｶｹﾝ","kana_city":"ｲﾜﾀｼ","kana_address":"ﾐﾅﾐｼﾏ","pref":"静岡県","city":"磐田市","address":"南島"},
{"zip_code":"4371212","kana_pref":"ｼｽﾞｵｶｹﾝ","kana_city":"ｲﾜﾀｼ","kana_address":"ﾐﾅﾐﾀﾞ","pref":"静岡県","city":"磐田市","address":"南田"},
{"zip_code":"4371218","kana_pref":"ｼｽﾞｵｶｹﾝ","kana_city":"ｲﾜﾀｼ","kana_address":"ﾐﾅﾐﾀﾞｲﾍｴｼﾝﾃﾞﾝ","pref":"静岡県","city":"磐田市","address":"南田伊兵衛新田"},
{"zip_code":"4371436","kana_pref":"ｼｽﾞｵｶｹﾝ","kana_city":"ｶｹｶﾞﾜｼ","kana_address":"ｲﾏﾀｷ","pref":"静岡県","city":"掛川市","address":"今滝"},
{"zip_code":"4371438","kana_pref":"ｼｽﾞｵｶｹﾝ","kana_city":"ｶｹｶﾞﾜｼ","kana_address":"ｲﾘﾔﾏｾ","pref":"静岡県","city":"掛川市","address":"入山瀬"},
{"zip_code":"4371403","kana_pref":"ｼｽﾞｵｶｹﾝ","kana_city":"ｶｹｶﾞﾜｼ","kana_address":"ｲﾜﾅﾒ","pref":"静岡県","city":"掛川市","address":"岩滑"},
{"zip_code":"4371421","kana_pref":"ｼｽﾞｵｶｹﾝ","kana_city":"ｶｹｶﾞﾜｼ","kana_address":"ｵｵｻｶ","pref":"静岡県","city":"掛川市","address":"大坂"},
{"zip_code":"4371439","kana_pref":"ｼｽﾞｵｶｹﾝ","kana_city":"ｶｹｶﾞﾜｼ","kana_address":"ｵｵﾂﾎﾞﾀﾞｲ","pref":"静岡県","city":"掛川市","address":"大坪台"},
{"zip_code":"4371302","kana_pref":"ｼｽﾞｵｶｹﾝ","kana_city":"ｶｹｶﾞﾜｼ","kana_address":"ｵｵﾌﾞﾁ","pref":"静岡県","city":"掛川市","address":"大渕"},
{"zip_code":"4371303","kana_pref":"ｼｽﾞｵｶｹﾝ","kana_city":"ｶｹｶﾞﾜｼ","kana_address":"ｵｷﾉｽ","pref":"静岡県","city":"掛川市","address":"沖之須"},
{"zip_code":"4371407","kana_pref":"ｼｽﾞｵｶｹﾝ","kana_city":"ｶｹｶﾞﾜｼ","kana_address":"ｵﾇｷ","pref":"静岡県","city":"掛川市","address":"小貫"},
{"zip_code":"4371422","kana_pref":"ｼｽﾞｵｶｹﾝ","kana_city":"ｶｹｶﾞﾜｼ","kana_address":"ｶｲﾄ","pref":"静岡県","city":"掛川市","address":"海戸"},
{"zip_code":"4371433","kana_pref":"ｼｽﾞｵｶｹﾝ","kana_city":"ｶｹｶﾞﾜｼ","kana_address":"ｶﾐﾋｼﾞｶﾀ","pref":"静岡県","city":"掛川市","address":"上土方"},
{"zip_code":"4371431","kana_pref":"ｼｽﾞｵｶｹﾝ","kana_city":"ｶｹｶﾞﾜｼ","kana_address":"ｶﾐﾋｼﾞｶﾀｵﾁｱｲ","pref":"静岡県","city":"掛川市","address":"上土方落合"},
{"zip_code":"4371432","kana_pref":"ｼｽﾞｵｶｹﾝ","kana_city":"ｶｹｶﾞﾜｼ","kana_address":"ｶﾐﾋｼﾞｶﾀｺｳｷﾞｮｳﾀﾞﾝﾁ","pref":"静岡県","city":"掛川市","address":"上土方工業団地"},
{"zip_code":"4371437","kana_pref":"ｼｽﾞｵｶｹﾝ","kana_city":"ｶｹｶﾞﾜｼ","kana_address":"ｶﾐﾋｼﾞｶﾀﾀﾞﾝﾂﾞｸｼﾝﾃﾞﾝ","pref":"静岡県","city":"掛川市","address":"上土方旦付新田"},
{"zip_code":"4371435","kana_pref":"ｼｽﾞｵｶｹﾝ","kana_city":"ｶｹｶﾞﾜｼ","kana_address":"ｶﾐﾋｼﾞｶﾀﾐﾈﾑｶｲ","pref":"静岡県","city":"掛川市","address":"上土方嶺向"},
{"zip_code":"4371406","kana_pref":"ｼｽﾞｵｶｹﾝ","kana_city":"ｶｹｶﾞﾜｼ","kana_address":"ｶﾜｸﾎﾞ","pref":"静岡県","city":"掛川市","address":"川久保"},
{"zip_code":"4371415","kana_pref":"ｼｽﾞｵｶｹﾝ","kana_city":"ｶｹｶﾞﾜｼ","kana_address":"ｷｸﾊﾏ","pref":"静岡県","city":"掛川市","address":"菊浜"},
{"zip_code":"4371414","kana_pref":"ｼｽﾞｵｶｹﾝ","kana_city":"ｶｹｶﾞﾜｼ","kana_address":"ｸﾆｶﾈ","pref":"静岡県","city":"掛川市","address":"国包"},
{"zip_code":"4371413","kana_pref":"ｼｽﾞｵｶｹﾝ","kana_city":"ｶｹｶﾞﾜｼ","kana_address":"ｸﾆﾔｽ","pref":"静岡県","city":"掛川市","address":"国安"},
{"zip_code":"4371411","kana_pref":"ｼｽﾞｵｶｹﾝ","kana_city":"ｶｹｶﾞﾜｼ","kana_address":"ｻｶｻﾄ","pref":"静岡県","city":"掛川市","address":"坂里"},
{"zip_code":"4371434","kana_pref":"ｼｽﾞｵｶｹﾝ","kana_city":"ｶｹｶﾞﾜｼ","kana_address":"ｼﾓﾋｼﾞｶﾀ","pref":"静岡県","city":"掛川市","address":"下土方"},
{"zip_code":"4371401","kana_pref":"ｼｽﾞｵｶｹﾝ","kana_city":"ｶｹｶﾞﾜｼ","kana_address":"ﾀｶｾ","pref":"静岡県","city":"掛川市","address":"高瀬"},
{"zip_code":"4371412","kana_pref":"ｼｽﾞｵｶｹﾝ","kana_city":"ｶｹｶﾞﾜｼ","kana_address":"ﾁﾊﾏ","pref":"静岡県","city":"掛川市","address":"千浜"},
{"zip_code":"4371405","kana_pref":"ｼｽﾞｵｶｹﾝ","kana_city":"ｶｹｶﾞﾜｼ","kana_address":"ﾅｶ","pref":"静岡県","city":"掛川市","address":"中"},
{"zip_code":"4371402","kana_pref":"ｼｽﾞｵｶｹﾝ","kana_city":"ｶｹｶﾞﾜｼ","kana_address":"ﾅｶﾎｳ","pref":"静岡県","city":"掛川市","address":"中方"},
{"zip_code":"4371304","kana_pref":"ｼｽﾞｵｶｹﾝ","kana_city":"ｶｹｶﾞﾜｼ","kana_address":"ﾆｼｵｵﾌﾞﾁ","pref":"静岡県","city":"掛川市","address":"西大渕"},
{"zip_code":"4371404","kana_pref":"ｼｽﾞｵｶｹﾝ","kana_city":"ｶｹｶﾞﾜｼ","kana_address":"ﾆｼﾉﾔ","pref":"静岡県","city":"掛川市","address":"西之谷"},
{"zip_code":"4371423","kana_pref":"ｼｽﾞｵｶｹﾝ","kana_city":"ｶｹｶﾞﾜｼ","kana_address":"ﾊﾏｶﾞﾜｼﾝﾃﾞﾝ","pref":"静岡県","city":"掛川市","address":"浜川新田"},
{"zip_code":"4371424","kana_pref":"ｼｽﾞｵｶｹﾝ","kana_city":"ｶｹｶﾞﾜｼ","kana_address":"ﾊﾏﾉ","pref":"静岡県","city":"掛川市","address":"浜野"},
{"zip_code":"4371425","kana_pref":"ｼｽﾞｵｶｹﾝ","kana_city":"ｶｹｶﾞﾜｼ","kana_address":"ﾊﾏﾉｼﾝﾃﾞﾝ","pref":"静岡県","city":"掛川市","address":"浜野新田"},
{"zip_code":"4371416","kana_pref":"ｼｽﾞｵｶｹﾝ","kana_city":"ｶｹｶﾞﾜｼ","kana_address":"ﾐﾂﾏﾀ","pref":"静岡県","city":"掛川市","address":"三俣"},
{"zip_code":"4371305","kana_pref":"ｼｽﾞｵｶｹﾝ","kana_city":"ｶｹｶﾞﾜｼ","kana_address":"ﾔﾏｻﾞｷ","pref":"静岡県","city":"掛川市","address":"山崎"},
{"zip_code":"4371301","kana_pref":"ｼｽﾞｵｶｹﾝ","kana_city":"ｶｹｶﾞﾜｼ","kana_address":"ﾖｺｽｶ","pref":"静岡県","city":"掛川市","address":"横須賀"},
{"zip_code":"4370000","kana_pref":"ｼｽﾞｵｶｹﾝ","kana_city":"ﾌｸﾛｲｼ","kana_address":"","pref":"静岡県","city":"袋井市","address":""},
{"zip_code":"4370031","kana_pref":"ｼｽﾞｵｶｹﾝ","kana_city":"ﾌｸﾛｲｼ","kana_address":"ｱｲﾉ","pref":"静岡県","city":"袋井市","address":"愛野"},
{"zip_code":"4370039","kana_pref":"ｼｽﾞｵｶｹﾝ","kana_city":"ﾌｸﾛｲｼ","kana_address":"ｱｲﾉﾋｶﾞｼ","pref":"静岡県","city":"袋井市","address":"愛野東"},
{"zip_code":"4370040","kana_pref":"ｼｽﾞｵｶｹﾝ","kana_city":"ﾌｸﾛｲｼ","kana_address":"ｱｲﾉﾐﾅﾐ","pref":"静岡県","city":"袋井市","address":"愛野南"},
{"zip_code":"4370016","kana_pref":"ｼｽﾞｵｶｹﾝ","kana_city":"ﾌｸﾛｲｼ","kana_address":"ｱｵｲﾁｮｳ","pref":"静岡県","city":"袋井市","address":"葵町"},
{"zip_code":"4370034","kana_pref":"ｼｽﾞｵｶｹﾝ","kana_city":"ﾌｸﾛｲｼ","kana_address":"ｱｵｷﾁｮｳ","pref":"静岡県","city":"袋井市","address":"青木町"},
{"zip_code":"4371122","kana_pref":"ｼｽﾞｵｶｹﾝ","kana_city":"ﾌｸﾛｲｼ","kana_address":"ｱｻｵｶ","pref":"静岡県","city":"袋井市","address":"浅岡"},
{"zip_code":"4371102","kana_pref":"ｼｽﾞｵｶｹﾝ","kana_city":"ﾌｸﾛｲｼ","kana_address":"ｱｻﾅ","pref":"静岡県","city":"袋井市","address":"浅名"},
{"zip_code":"4371101","kana_pref":"ｼｽﾞｵｶｹﾝ","kana_city":"ﾌｸﾛｲｼ","kana_address":"ｱｻﾊﾞ","pref":"静岡県","city":"袋井市","address":"浅羽"},
{"zip_code":"4371123","kana_pref":"ｼｽﾞｵｶｹﾝ","kana_city":"ﾌｸﾛｲｼ","kana_address":"ｱｻﾊﾞｲｼｷ","pref":"静岡県","city":"袋井市","address":"浅羽一色"},
{"zip_code":"4370015","kana_pref":"ｼｽﾞｵｶｹﾝ","kana_city":"ﾌｸﾛｲｼ","kana_address":"ｱｻﾋﾁｮｳ","pref":"静岡県","city":"袋井市","address":"旭町"},
{"zip_code":"4370013","kana_pref":"ｼｽﾞｵｶｹﾝ","kana_city":"ﾌｸﾛｲｼ","kana_address":"ｱﾗﾔ","pref":"静岡県","city":"袋井市","address":"新屋"},
{"zip_code":"4370062","kana_pref":"ｼｽﾞｵｶｹﾝ","kana_city":"ﾌｸﾛｲｼ","kana_address":"ｲｽﾞﾐﾁｮｳ","pref":"静岡県","city":"袋井市","address":"泉町"},
{"zip_code":"4370033","kana_pref":"ｼｽﾞｵｶｹﾝ","kana_city":"ﾌｸﾛｲｼ","kana_address":"ｳｴﾀﾞﾁｮｳ","pref":"静岡県","city":"袋井市","address":"上田町"},
{"zip_code":"4370121","kana_pref":"ｼｽﾞｵｶｹﾝ","kana_city":"ﾌｸﾛｲｼ","kana_address":"ｳｶﾞﾘ","pref":"静岡県","city":"袋井市","address":"宇刈"},
{"zip_code":"4371105","kana_pref":"ｼｽﾞｵｶｹﾝ","kana_city":"ﾌｸﾛｲｼ","kana_address":"ｳﾒﾔﾏ","pref":"静岡県","city":"袋井市","address":"梅山"},
{"zip_code":"4370014","kana_pref":"ｼｽﾞｵｶｹﾝ","kana_city":"ﾌｸﾛｲｼ","kana_address":"ｴｲﾗｸﾁｮｳ","pref":"静岡県","city":"袋井市","address":"永楽町"},
{"zip_code":"4370052","kana_pref":"ｼｽﾞｵｶｹﾝ","kana_city":"ﾌｸﾛｲｼ","kana_address":"ｵｵﾀ","pref":"静岡県","city":"袋井市","address":"太田"},
{"zip_code":"4371112","kana_pref":"ｼｽﾞｵｶｹﾝ","kana_city":"ﾌｸﾛｲｼ","kana_address":"ｵｵﾉ","pref":"静岡県","city":"袋井市","address":"大野"},
{"zip_code":"4370006","kana_pref":"ｼｽﾞｵｶｹﾝ","kana_city":"ﾌｸﾛｲｼ","kana_address":"ｵｵﾔ","pref":"静岡県","city":"袋井市","address":"大谷"},
{"zip_code":"4371312","kana_pref":"ｼｽﾞｵｶｹﾝ","kana_city":"ﾌｸﾛｲｼ","kana_address":"ｵｶｻﾞｷ","pref":"静岡県","city":"袋井市","address":"岡崎"},
{"zip_code":"4370036","kana_pref":"ｼｽﾞｵｶｹﾝ","kana_city":"ﾌｸﾛｲｼ","kana_address":"ｵｶﾞﾜﾁｮｳ","pref":"静岡県","city":"袋井市","address":"小川町"},
{"zip_code":"4370124","kana_pref":"ｼｽﾞｵｶｹﾝ","kana_city":"ﾌｸﾛｲｼ","kana_address":"ｵｷﾔﾏﾅｼ","pref":"静岡県","city":"袋井市","address":"沖山梨"},
{"zip_code":"4370056","kana_pref":"ｼｽﾞｵｶｹﾝ","kana_city":"ﾌｸﾛｲｼ","kana_address":"ｵﾔﾏ","pref":"静岡県","city":"袋井市","address":"小山"},
{"zip_code":"4370127","kana_pref":"ｼｽﾞｵｶｹﾝ","kana_city":"ﾌｸﾛｲｼ","kana_address":"ｶｽｲﾉﾓﾘ","pref":"静岡県","city":"袋井市","address":"可睡の杜"},
{"zip_code":"4370028","kana_pref":"ｼｽﾞｵｶｹﾝ","kana_city":"ﾌｸﾛｲｼ","kana_address":"ｶﾐﾅｶﾞ","pref":"静岡県","city":"袋井市","address":"神長"},
{"zip_code":"4370125","kana_pref":"ｼｽﾞｵｶｹﾝ","kana_city":"ﾌｸﾛｲｼ","kana_address":"ｶﾐﾔﾏﾅｼ","pref":"静岡県","city":"袋井市","address":"上山梨"},
{"zip_code":"4370003","kana_pref":"ｼｽﾞｵｶｹﾝ","kana_city":"ﾌｸﾛｲｼ","kana_address":"ｶﾔﾏ","pref":"静岡県","city":"袋井市","address":"萱間"},
{"zip_code":"4370064","kana_pref":"ｼｽﾞｵｶｹﾝ","kana_city":"ﾌｸﾛｲｼ","kana_address":"ｶﾜｲ","pref":"静岡県","city":"袋井市","address":"川井"},
{"zip_code":"4370002","kana_pref":"ｼｽﾞｵｶｹﾝ","kana_city":"ﾌｸﾛｲｼ","kana_address":"ｶﾜｴ","pref":"静岡県","city":"袋井市","address":"川会"},
{"zip_code":"4370046","kana_pref":"ｼｽﾞｵｶｹﾝ","kana_city":"ﾌｸﾛｲｼ","kana_address":"ｷﾜﾗ","pref":"静岡県","city":"袋井市","address":"木原"},
{"zip_code":"4370012","kana_pref":"ｼｽﾞｵｶｹﾝ","kana_city":"ﾌｸﾛｲｼ","kana_address":"ｸﾆﾓﾄ","pref":"静岡県","city":"袋井市","address":"国本"},
{"zip_code":"4370061","kana_pref":"ｼｽﾞｵｶｹﾝ","kana_city":"ﾌｸﾛｲｼ","kana_address":"ｸﾉ","pref":"静岡県","city":"袋井市","address":"久能"},
{"zip_code":"4370025","kana_pref":"ｼｽﾞｵｶｹﾝ","kana_city":"ﾌｸﾛｲｼ","kana_address":"ｻｶｴﾏﾁ","pref":"静岡県","city":"袋井市","address":"栄町"},
{"zip_code":"4370037","kana_pref":"ｼｽﾞｵｶｹﾝ","kana_city":"ﾌｸﾛｲｼ","kana_address":"ｼﾐｽﾞﾁｮｳ","pref":"静岡県","city":"袋井市","address":"清水町"},
{"zip_code":"4370123","kana_pref":"ｼｽﾞｵｶｹﾝ","kana_city":"ﾌｸﾛｲｼ","kana_address":"ｼﾓﾔﾏﾅｼ","pref":"静岡県","city":"袋井市","address":"下山梨"},
{"zip_code":"4370035","kana_pref":"ｼｽﾞｵｶｹﾝ","kana_city":"ﾌｸﾛｲｼ","kana_address":"ｽﾅﾓﾄﾁｮｳ","pref":"静岡県","city":"袋井市","address":"砂本町"},
{"zip_code":"4370038","kana_pref":"ｼｽﾞｵｶｹﾝ","kana_city":"ﾌｸﾛｲｼ","kana_address":"ﾀﾞｲﾓﾝ","pref":"静岡県","city":"袋井市","address":"大門"},
{"zip_code":"4370023","kana_pref":"ｼｽﾞｵｶｹﾝ","kana_city":"ﾌｸﾛｲｼ","kana_address":"ﾀｶｵ","pref":"静岡県","city":"袋井市","address":"高尾"},
{"zip_code":"4370027","kana_pref":"ｼｽﾞｵｶｹﾝ","kana_city":"ﾌｸﾛｲｼ","kana_address":"ﾀｶｵﾁｮｳ","pref":"静岡県","city":"袋井市","address":"高尾町"},
{"zip_code":"4370063","kana_pref":"ｼｽﾞｵｶｹﾝ","kana_city":"ﾌｸﾛｲｼ","kana_address":"ﾀﾏﾁ","pref":"静岡県","city":"袋井市","address":"田町"},
{"zip_code":"4371116","kana_pref":"ｼｽﾞｵｶｹﾝ","kana_city":"ﾌｸﾛｲｼ","kana_address":"ﾀﾛｽｹ","pref":"静岡県","city":"袋井市","address":"太郎助"},
{"zip_code":"4370126","kana_pref":"ｼｽﾞｵｶｹﾝ","kana_city":"ﾌｸﾛｲｼ","kana_address":"ﾂｷﾐﾁｮｳ","pref":"静岡県","city":"袋井市","address":"月見町"},
{"zip_code":"4370055","kana_pref":"ｼｽﾞｵｶｹﾝ","kana_city":"ﾌｸﾛｲｼ","kana_address":"ﾂﾁﾊｼ","pref":"静岡県","city":"袋井市","address":"土橋"},
{"zip_code":"4370067","kana_pref":"ｼｽﾞｵｶｹﾝ","kana_city":"ﾌｸﾛｲｼ","kana_address":"ﾃﾝｼﾞﾝﾁｮｳ","pref":"静岡県","city":"袋井市","address":"天神町"},
{"zip_code":"4370054","kana_pref":"ｼｽﾞｵｶｹﾝ","kana_city":"ﾌｸﾛｲｼ","kana_address":"ﾄｸﾐﾂ","pref":"静岡県","city":"袋井市","address":"徳光"},
{"zip_code":"4371124","kana_pref":"ｼｽﾞｵｶｹﾝ","kana_city":"ﾌｸﾛｲｼ","kana_address":"ﾄﾐｻﾄ","pref":"静岡県","city":"袋井市","address":"富里"},
{"zip_code":"4370004","kana_pref":"ｼｽﾞｵｶｹﾝ","kana_city":"ﾌｸﾛｲｼ","kana_address":"ﾄﾓﾅｶﾞ","pref":"静岡県","city":"袋井市","address":"友永"},
{"zip_code":"4370032","kana_pref":"ｼｽﾞｵｶｹﾝ","kana_city":"ﾌｸﾛｲｼ","kana_address":"ﾄﾖｻﾜ","pref":"静岡県","city":"袋井市","address":"豊沢"},
{"zip_code":"4371103","kana_pref":"ｼｽﾞｵｶｹﾝ","kana_city":"ﾌｸﾛｲｼ","kana_address":"ﾄﾖｽﾞﾐ","pref":"静岡県","city":"袋井市","address":"豊住"},
{"zip_code":"4371125","kana_pref":"ｼｽﾞｵｶｹﾝ","kana_city":"ﾌｸﾛｲｼ","kana_address":"ﾅｶ","pref":"静岡県","city":"袋井市","address":"中"},
{"zip_code":"4371111","kana_pref":"ｼｽﾞｵｶｹﾝ","kana_city":"ﾌｸﾛｲｼ","kana_address":"ﾅｶｼﾝﾃﾞﾝ","pref":"静岡県","city":"袋井市","address":"中新田"},
{"zip_code":"4371126","kana_pref":"ｼｽﾞｵｶｹﾝ","kana_city":"ﾌｸﾛｲｼ","kana_address":"ﾅｶﾞﾐｿﾞ","pref":"静岡県","city":"袋井市","address":"長溝"},
{"zip_code":"4370043","kana_pref":"ｼｽﾞｵｶｹﾝ","kana_city":"ﾌｸﾛｲｼ","kana_address":"ﾆｲｹ","pref":"静岡県","city":"袋井市","address":"新池"},
{"zip_code":"4371104","kana_pref":"ｼｽﾞｵｶｹﾝ","kana_city":"ﾌｸﾛｲｼ","kana_address":"ﾆｲﾎﾞﾘ","pref":"静岡県","city":"袋井市","address":"新堀"},
{"zip_code":"4371118","kana_pref":"ｼｽﾞｵｶｹﾝ","kana_city":"ﾌｸﾛｲｼ","kana_address":"ﾆｼｶﾞｻｷ","pref":"静岡県","city":"袋井市","address":"西ケ崎"},
{"zip_code":"4370047","kana_pref":"ｼｽﾞｵｶｹﾝ","kana_city":"ﾌｸﾛｲｼ","kana_address":"ﾆｼﾀﾞ","pref":"静岡県","city":"袋井市","address":"西田"},
{"zip_code":"4371114","kana_pref":"ｼｽﾞｵｶｹﾝ","kana_city":"ﾌｸﾛｲｼ","kana_address":"ﾆｼﾄﾞｳﾘ","pref":"静岡県","city":"袋井市","address":"西同笠"},
{"zip_code":"4370053","kana_pref":"ｼｽﾞｵｶｹﾝ","kana_city":"ﾌｸﾛｲｼ","kana_address":"ﾉﾍﾞﾋｻ","pref":"静岡県","city":"袋井市","address":"延久"},
{"zip_code":"4371119","kana_pref":"ｼｽﾞｵｶｹﾝ","kana_city":"ﾌｸﾛｲｼ","kana_address":"ﾊﾂﾞｺｼ","pref":"静岡県","city":"袋井市","address":"初越"},
{"zip_code":"4370122","kana_pref":"ｼｽﾞｵｶｹﾝ","kana_city":"ﾌｸﾛｲｼ","kana_address":"ﾊﾙｵｶ","pref":"静岡県","city":"袋井市","address":"春岡"},
{"zip_code":"4371113","kana_pref":"ｼｽﾞｵｶｹﾝ","kana_city":"ﾌｸﾛｲｼ","kana_address":"ﾋｶﾞｼﾄﾞｳﾘ","pref":"静岡県","city":"袋井市","address":"東同笠"},
{"zip_code":"4370045","kana_pref":"ｼｽﾞｵｶｹﾝ","kana_city":"ﾌｸﾛｲｼ","kana_address":"ﾋｺｼﾞﾏ","pref":"静岡県","city":"袋井市","address":"彦島"},
{"zip_code":"4370021","kana_pref":"ｼｽﾞｵｶｹﾝ","kana_city":"ﾌｸﾛｲｼ","kana_address":"ﾋﾛｵｶ","pref":"静岡県","city":"袋井市","address":"広岡"},
{"zip_code":"4370051","kana_pref":"ｼｽﾞｵｶｹﾝ","kana_city":"ﾌｸﾛｲｼ","kana_address":"ﾌｶﾐ","pref":"静岡県","city":"袋井市","address":"深見"},
{"zip_code":"4370026","kana_pref":"ｼｽﾞｵｶｹﾝ","kana_city":"ﾌｸﾛｲｼ","kana_address":"ﾌｸﾛｲ","pref":"静岡県","city":"袋井市","address":"袋井"},
{"zip_code":"4370022","kana_pref":"ｼｽﾞｵｶｹﾝ","kana_city":"ﾌｸﾛｲｼ","kana_address":"ﾎｳｼﾞｮｳ","pref":"静岡県","city":"袋井市","address":"方丈"},
{"zip_code":"4370065","kana_pref":"ｼｽﾞｵｶｹﾝ","kana_city":"ﾌｸﾛｲｼ","kana_address":"ﾎﾘｺｼ","pref":"静岡県","city":"袋井市","address":"堀越"},
{"zip_code":"4371117","kana_pref":"ｼｽﾞｵｶｹﾝ","kana_city":"ﾌｸﾛｲｼ","kana_address":"ﾏﾂﾊﾞﾗ","pref":"静岡県","city":"袋井市","address":"松原"},
{"zip_code":"4370044","kana_pref":"ｼｽﾞｵｶｹﾝ","kana_city":"ﾌｸﾛｲｼ","kana_address":"ﾏﾂﾌﾞｸﾛｲ","pref":"静岡県","city":"袋井市","address":"松袋井"},
{"zip_code":"4370024","kana_pref":"ｼｽﾞｵｶｹﾝ","kana_city":"ﾌｸﾛｲｼ","kana_address":"ﾐｶﾄﾞﾁｮｳ","pref":"静岡県","city":"袋井市","address":"三門町"},
{"zip_code":"4370005","kana_pref":"ｼｽﾞｵｶｹﾝ","kana_city":"ﾌｸﾛｲｼ","kana_address":"ﾐﾄﾞﾘ","pref":"静岡県","city":"袋井市","address":"見取"},
{"zip_code":"4371115","kana_pref":"ｼｽﾞｵｶｹﾝ","kana_city":"ﾌｸﾛｲｼ","kana_address":"ﾐﾅﾄ","pref":"静岡県","city":"袋井市","address":"湊"},
{"zip_code":"4370041","kana_pref":"ｼｽﾞｵｶｹﾝ","kana_city":"ﾌｸﾛｲｼ","kana_address":"ﾑﾂﾐﾁｮｳ","pref":"静岡県","city":"袋井市","address":"睦町"},
{"zip_code":"4370011","kana_pref":"ｼｽﾞｵｶｹﾝ","kana_city":"ﾌｸﾛｲｼ","kana_address":"ﾑﾗﾏﾂ","pref":"静岡県","city":"袋井市","address":"村松"},
{"zip_code":"4371121","kana_pref":"ｼｽﾞｵｶｹﾝ","kana_city":"ﾌｸﾛｲｼ","kana_address":"ﾓﾛｲ","pref":"静岡県","city":"袋井市","address":"諸井"},
{"zip_code":"4371311","kana_pref":"ｼｽﾞｵｶｹﾝ","kana_city":"ﾌｸﾛｲｼ","kana_address":"ﾔﾏｻﾞｷ","pref":"静岡県","city":"袋井市","address":"山崎"},
{"zip_code":"4370066","kana_pref":"ｼｽﾞｵｶｹﾝ","kana_city":"ﾌｸﾛｲｼ","kana_address":"ﾔﾏｼﾅ","pref":"静岡県","city":"袋井市","address":"山科"},
{"zip_code":"4370001","kana_pref":"ｼｽﾞｵｶｹﾝ","kana_city":"ﾌｸﾛｲｼ","kana_address":"ﾔﾏﾀﾞ","pref":"静岡県","city":"袋井市","address":"山田"},
{"zip_code":"4370042","kana_pref":"ｼｽﾞｵｶｹﾝ","kana_city":"ﾌｸﾛｲｼ","kana_address":"ﾔﾏﾅﾁｮｳ","pref":"静岡県","city":"袋井市","address":"山名町"},
{"zip_code":"4370057","kana_pref":"ｼｽﾞｵｶｹﾝ","kana_city":"ﾌｸﾛｲｼ","kana_address":"ﾖｺｲ","pref":"静岡県","city":"袋井市","address":"横井"},
{"zip_code":"4370017","kana_pref":"ｼｽﾞｵｶｹﾝ","kana_city":"ﾌｸﾛｲｼ","kana_address":"ﾜｼｽﾞ","pref":"静岡県","city":"袋井市","address":"鷲巣"},
{"zip_code":"4371600","kana_pref":"ｼｽﾞｵｶｹﾝ","kana_city":"ｵﾏｴｻﾞｷｼ","kana_address":"","pref":"静岡県","city":"御前崎市","address":""},
{"zip_code":"4371612","kana_pref":"ｼｽﾞｵｶｹﾝ","kana_city":"ｵﾏｴｻﾞｷｼ","kana_address":"ｲｹｼﾝﾃﾞﾝ","pref":"静岡県","city":"御前崎市","address":"池新田"},
{"zip_code":"4371621","kana_pref":"ｼｽﾞｵｶｹﾝ","kana_city":"ｵﾏｴｻﾞｷｼ","kana_address":"ｵﾏｴｻﾞｷ","pref":"静岡県","city":"御前崎市","address":"御前崎"},
{"zip_code":"4371615","kana_pref":"ｼｽﾞｵｶｹﾝ","kana_city":"ｵﾏｴｻﾞｷｼ","kana_address":"ｶﾄﾞﾔ","pref":"静岡県","city":"御前崎市","address":"門屋"},
{"zip_code":"4371601","kana_pref":"ｼｽﾞｵｶｹﾝ","kana_city":"ｵﾏｴｻﾞｷｼ","kana_address":"ｶﾐｱｻﾋﾅ","pref":"静岡県","city":"御前崎市","address":"上朝比奈"},
{"zip_code":"4371613","kana_pref":"ｼｽﾞｵｶｹﾝ","kana_city":"ｵﾏｴｻﾞｷｼ","kana_address":"ｺﾞｳﾄﾞ","pref":"静岡県","city":"御前崎市","address":"合戸"},
{"zip_code":"4371604","kana_pref":"ｼｽﾞｵｶｹﾝ","kana_city":"ｵﾏｴｻﾞｷｼ","kana_address":"ｻｸﾗ","pref":"静岡県","city":"御前崎市","address":"佐倉"},
{"zip_code":"4371614","kana_pref":"ｼｽﾞｵｶｹﾝ","kana_city":"ｵﾏｴｻﾞｷｼ","kana_address":"ｼｵﾊﾞﾗｼﾝﾃﾞﾝ","pref":"静岡県","city":"御前崎市","address":"塩原新田"},
{"zip_code":"4371605","kana_pref":"ｼｽﾞｵｶｹﾝ","kana_city":"ｵﾏｴｻﾞｷｼ","kana_address":"ｼﾓｱｻﾋﾅ","pref":"静岡県","city":"御前崎市","address":"下朝比奈"},
{"zip_code":"4371622","kana_pref":"ｼｽﾞｵｶｹﾝ","kana_city":"ｵﾏｴｻﾞｷｼ","kana_address":"ｼﾛﾜ","pref":"静岡県","city":"御前崎市","address":"白羽"},
{"zip_code":"4371611","kana_pref":"ｼｽﾞｵｶｹﾝ","kana_city":"ｵﾏｴｻﾞｷｼ","kana_address":"ﾆｲﾉ","pref":"静岡県","city":"御前崎市","address":"新野"},
{"zip_code":"4371602","kana_pref":"ｼｽﾞｵｶｹﾝ","kana_city":"ｵﾏｴｻﾞｷｼ","kana_address":"ﾋｷ","pref":"静岡県","city":"御前崎市","address":"比木"},
{"zip_code":"4371623","kana_pref":"ｼｽﾞｵｶｹﾝ","kana_city":"ｵﾏｴｻﾞｷｼ","kana_address":"ﾐﾅﾄ","pref":"静岡県","city":"御前崎市","address":"港"},
{"zip_code":"4371603","kana_pref":"ｼｽﾞｵｶｹﾝ","kana_city":"ｵﾏｴｻﾞｷｼ","kana_address":"ﾐﾔｳﾁ","pref":"静岡県","city":"御前崎市","address":"宮内"},
{"zip_code":"4371507","kana_pref":"ｼｽﾞｵｶｹﾝ","kana_city":"ｷｸｶﾞﾜｼ","kana_address":"ｱｶﾂﾁ","pref":"静岡県","city":"菊川市","address":"赤土"},
{"zip_code":"4371524","kana_pref":"ｼｽﾞｵｶｹﾝ","kana_city":"ｷｸｶﾞﾜｼ","kana_address":"ｵｵｲｼ","pref":"静岡県","city":"菊川市","address":"大石"},
{"zip_code":"4371506","kana_pref":"ｼｽﾞｵｶｹﾝ","kana_city":"ｷｸｶﾞﾜｼ","kana_address":"ｶﾄｳ","pref":"静岡県","city":"菊川市","address":"河東"},
{"zip_code":"4371521","kana_pref":"ｼｽﾞｵｶｹﾝ","kana_city":"ｷｸｶﾞﾜｼ","kana_address":"ｶﾐﾋﾗｶﾜ","pref":"静岡県","city":"菊川市","address":"上平川"},
{"zip_code":"4371503","kana_pref":"ｼｽﾞｵｶｹﾝ","kana_city":"ｷｸｶﾞﾜｼ","kana_address":"ｶﾜｶﾐ","pref":"静岡県","city":"菊川市","address":"川上"},
{"zip_code":"4371512","kana_pref":"ｼｽﾞｵｶｹﾝ","kana_city":"ｷｸｶﾞﾜｼ","kana_address":"ｻﾙﾜﾀﾘ","pref":"静岡県","city":"菊川市","address":"猿渡"},
{"zip_code":"4371514","kana_pref":"ｼｽﾞｵｶｹﾝ","kana_city":"ｷｸｶﾞﾜｼ","kana_address":"ｼﾓﾋﾗｶﾜ","pref":"静岡県","city":"菊川市","address":"下平川"},
{"zip_code":"4371505","kana_pref":"ｼｽﾞｵｶｹﾝ","kana_city":"ｷｸｶﾞﾜｼ","kana_address":"ﾀｶﾊｼ","pref":"静岡県","city":"菊川市","address":"高橋"},
{"zip_code":"4371513","kana_pref":"ｼｽﾞｵｶｹﾝ","kana_city":"ｷｸｶﾞﾜｼ","kana_address":"ﾀﾅｸｻ","pref":"静岡県","city":"菊川市","address":"棚草"},
{"zip_code":"4371501","kana_pref":"ｼｽﾞｵｶｹﾝ","kana_city":"ｷｸｶﾞﾜｼ","kana_address":"ﾀﾝﾉ","pref":"静岡県","city":"菊川市","address":"丹野"},
{"zip_code":"4371523","kana_pref":"ｼｽﾞｵｶｹﾝ","kana_city":"ｷｸｶﾞﾜｼ","kana_address":"ﾄﾞｳﾔﾏｼﾝﾃﾞﾝ","pref":"静岡県","city":"菊川市","address":"堂山新田"},
{"zip_code":"4371504","kana_pref":"ｼｽﾞｵｶｹﾝ","kana_city":"ｷｸｶﾞﾜｼ","kana_address":"ﾊﾅﾐｽﾞｷ","pref":"静岡県","city":"菊川市","address":"花水木"},
{"zip_code":"4371502","kana_pref":"ｼｽﾞｵｶｹﾝ","kana_city":"ｷｸｶﾞﾜｼ","kana_address":"ﾌﾙﾔ","pref":"静岡県","city":"菊川市","address":"古谷"},
{"zip_code":"4371522","kana_pref":"ｼｽﾞｵｶｹﾝ","kana_city":"ｷｸｶﾞﾜｼ","kana_address":"ﾐﾈﾀﾞ","pref":"静岡県","city":"菊川市","address":"嶺田"},
{"zip_code":"4371511","kana_pref":"ｼｽﾞｵｶｹﾝ","kana_city":"ｷｸｶﾞﾜｼ","kana_address":"ﾓｯｷ","pref":"静岡県","city":"菊川市","address":"目木"},
{"zip_code":"4370200","kana_pref":"ｼｽﾞｵｶｹﾝ","kana_city":"ｼｭｳﾁｸﾞﾝﾓﾘﾏﾁ","kana_address":"","pref":"静岡県","city":"周智郡森町","address":""},
{"zip_code":"4370216","kana_pref":"ｼｽﾞｵｶｹﾝ","kana_city":"ｼｭｳﾁｸﾞﾝﾓﾘﾏﾁ","kana_address":"ｱﾒﾉﾐﾔ","pref":"静岡県","city":"周智郡森町","address":"天宮"},
{"zip_code":"4370222","kana_pref":"ｼｽﾞｵｶｹﾝ","kana_city":"ｼｭｳﾁｸﾞﾝﾓﾘﾏﾁ","kana_address":"ｲｲﾀﾞ","pref":"静岡県","city":"周智郡森町","address":"飯田"},
{"zip_code":"4370226","kana_pref":"ｼｽﾞｵｶｹﾝ","kana_city":"ｼｭｳﾁｸﾞﾝﾓﾘﾏﾁ","kana_address":"ｲﾁﾐﾔ","pref":"静岡県","city":"周智郡森町","address":"一宮"},
{"zip_code":"4370224","kana_pref":"ｼｽﾞｵｶｹﾝ","kana_city":"ｼｭｳﾁｸﾞﾝﾓﾘﾏﾁ","kana_address":"ｳｼｶｲ","pref":"静岡県","city":"周智郡森町","address":"牛飼"},
{"zip_code":"4370217","kana_pref":"ｼｽﾞｵｶｹﾝ","kana_city":"ｼｭｳﾁｸﾞﾝﾓﾘﾏﾁ","kana_address":"ｳｽﾊﾞ","pref":"静岡県","city":"周智郡森町","address":"薄場"},
{"zip_code":"4370221","kana_pref":"ｼｽﾞｵｶｹﾝ","kana_city":"ｼｭｳﾁｸﾞﾝﾓﾘﾏﾁ","kana_address":"ｴﾝﾃﾞﾝ","pref":"静岡県","city":"周智郡森町","address":"円田"},
{"zip_code":"4370205","kana_pref":"ｼｽﾞｵｶｹﾝ","kana_city":"ｼｭｳﾁｸﾞﾝﾓﾘﾏﾁ","kana_address":"ｵｵﾄﾘｲ","pref":"静岡県","city":"周智郡森町","address":"大鳥居"},
{"zip_code":"4370203","kana_pref":"ｼｽﾞｵｶｹﾝ","kana_city":"ｼｭｳﾁｸﾞﾝﾓﾘﾏﾁ","kana_address":"ｶｼﾞｼﾏ","pref":"静岡県","city":"周智郡森町","address":"鍛冶島"},
{"zip_code":"4370206","kana_pref":"ｼｽﾞｵｶｹﾝ","kana_city":"ｼｭｳﾁｸﾞﾝﾓﾘﾏﾁ","kana_address":"ｶﾂﾌﾞ","pref":"静岡県","city":"周智郡森町","address":"葛布"},
{"zip_code":"4370202","kana_pref":"ｼｽﾞｵｶｹﾝ","kana_city":"ｼｭｳﾁｸﾞﾝﾓﾘﾏﾁ","kana_address":"ｶﾒｸﾎﾞ","pref":"静岡県","city":"周智郡森町","address":"亀久保"},
{"zip_code":"4370214","kana_pref":"ｼｽﾞｵｶｹﾝ","kana_city":"ｼｭｳﾁｸﾞﾝﾓﾘﾏﾁ","kana_address":"ｸｻｶﾞﾔ","pref":"静岡県","city":"周智郡森町","address":"草ケ谷"},
{"zip_code":"4370201","kana_pref":"ｼｽﾞｵｶｹﾝ","kana_city":"ｼｭｳﾁｸﾞﾝﾓﾘﾏﾁ","kana_address":"ｻﾂﾞｶ","pref":"静岡県","city":"周智郡森町","address":"嵯塚"},
{"zip_code":"4370211","kana_pref":"ｼｽﾞｵｶｹﾝ","kana_city":"ｼｭｳﾁｸﾞﾝﾓﾘﾏﾁ","kana_address":"ｼﾛｼﾀ","pref":"静岡県","city":"周智郡森町","address":"城下"},
{"zip_code":"4370227","kana_pref":"ｼｽﾞｵｶｹﾝ","kana_city":"ｼｭｳﾁｸﾞﾝﾓﾘﾏﾁ","kana_address":"ﾀﾁﾊﾞﾅ","pref":"静岡県","city":"周智郡森町","address":"橘"},
{"zip_code":"4370204","kana_pref":"ｼｽﾞｵｶｹﾝ","kana_city":"ｼｭｳﾁｸﾞﾝﾓﾘﾏﾁ","kana_address":"ﾄｲﾂﾞﾒ","pref":"静岡県","city":"周智郡森町","address":"問詰"},
{"zip_code":"4370223","kana_pref":"ｼｽﾞｵｶｹﾝ","kana_city":"ｼｭｳﾁｸﾞﾝﾓﾘﾏﾁ","kana_address":"ﾅｶｶﾞﾜ","pref":"静岡県","city":"周智郡森町","address":"中川"},
{"zip_code":"4370207","kana_pref":"ｼｽﾞｵｶｹﾝ","kana_city":"ｼｭｳﾁｸﾞﾝﾓﾘﾏﾁ","kana_address":"ﾆｼﾏﾀ","pref":"静岡県","city":"周智郡森町","address":"西俣"},
{"zip_code":"4370208","kana_pref":"ｼｽﾞｵｶｹﾝ","kana_city":"ｼｭｳﾁｸﾞﾝﾓﾘﾏﾁ","kana_address":"ﾐｸﾗ","pref":"静岡県","city":"周智郡森町","address":"三倉"},
{"zip_code":"4370212","kana_pref":"ｼｽﾞｵｶｹﾝ","kana_city":"ｼｭｳﾁｸﾞﾝﾓﾘﾏﾁ","kana_address":"ﾑｶｲｱﾏｶﾞﾀ","pref":"静岡県","city":"周智郡森町","address":"向天方"},
{"zip_code":"4370213","kana_pref":"ｼｽﾞｵｶｹﾝ","kana_city":"ｼｭｳﾁｸﾞﾝﾓﾘﾏﾁ","kana_address":"ﾑﾂﾐ","pref":"静岡県","city":"周智郡森町","address":"睦実"},
{"zip_code":"4370215","kana_pref":"ｼｽﾞｵｶｹﾝ","kana_city":"ｼｭｳﾁｸﾞﾝﾓﾘﾏﾁ","kana_address":"ﾓﾘ","pref":"静岡県","city":"周智郡森町","address":"森"},
{"zip_code":"4370225","kana_pref":"ｼｽﾞｵｶｹﾝ","kana_city":"ｼｭｳﾁｸﾞﾝﾓﾘﾏﾁ","kana_address":"ﾔﾅｶ","pref":"静岡県","city":"周智郡森町","address":"谷中"}]}