{"zip_code":[
{"zip_code":"4390000","kana_pref":"ｼｽﾞｵｶｹﾝ","kana_city":"ｷｸｶﾞﾜｼ","kana_address":"","pref":"静岡県","city":"菊川市","address":""},
{"zip_code":"4390012","kana_pref":"ｼｽﾞｵｶｹﾝ","kana_city":"ｷｸｶﾞﾜｼ","kana_address":"ｱｵﾊﾞﾀﾞｲ","pref":"静岡県","city":"菊川市","address":"青葉台"},
{"zip_code":"4390017","kana_pref":"ｼｽﾞｵｶｹﾝ","kana_city":"ｷｸｶﾞﾜｼ","kana_address":"ｱｻﾋ","pref":"静岡県","city":"菊川市","address":"朝日"},
{"zip_code":"4390013","kana_pref":"ｼｽﾞｵｶｹﾝ","kana_city":"ｷｸｶﾞﾜｼ","kana_address":"ｳｼﾌﾞﾁ","pref":"静岡県","city":"菊川市","address":"牛渕"},
{"zip_code":"4390021","kana_pref":"ｼｽﾞｵｶｹﾝ","kana_city":"ｷｸｶﾞﾜｼ","kana_address":"ｵｲﾃﾞ","pref":"静岡県","city":"菊川市","address":"小出"},
{"zip_code":"4390031","kana_pref":"ｼｽﾞｵｶｹﾝ","kana_city":"ｷｸｶﾞﾜｼ","kana_address":"ｶﾓ","pref":"静岡県","city":"菊川市","address":"加茂"},
{"zip_code":"4390016","kana_pref":"ｼｽﾞｵｶｹﾝ","kana_city":"ｷｸｶﾞﾜｼ","kana_address":"ｶﾝﾉｵ","pref":"静岡県","city":"菊川市","address":"神尾"},
{"zip_code":"4390002","kana_pref":"ｼｽﾞｵｶｹﾝ","kana_city":"ｷｸｶﾞﾜｼ","kana_address":"ｸﾗｻﾜ","pref":"静岡県","city":"菊川市","address":"倉沢"},
{"zip_code":"4390014","kana_pref":"ｼｽﾞｵｶｹﾝ","kana_city":"ｷｸｶﾞﾜｼ","kana_address":"ｺｻﾞﾜ","pref":"静岡県","city":"菊川市","address":"小沢"},
{"zip_code":"4390003","kana_pref":"ｼｽﾞｵｶｹﾝ","kana_city":"ｷｸｶﾞﾜｼ","kana_address":"ｻﾊﾞｶ","pref":"静岡県","city":"菊川市","address":"沢水加"},
{"zip_code":"4390034","kana_pref":"ｼｽﾞｵｶｹﾝ","kana_city":"ｷｸｶﾞﾜｼ","kana_address":"ｼﾓｳﾁﾀﾞ","pref":"静岡県","city":"菊川市","address":"下内田"},
{"zip_code":"4390005","kana_pref":"ｼｽﾞｵｶｹﾝ","kana_city":"ｷｸｶﾞﾜｼ","kana_address":"ﾁｮｳｶｲｼﾞ","pref":"静岡県","city":"菊川市","address":"潮海寺"},
{"zip_code":"4390032","kana_pref":"ｼｽﾞｵｶｹﾝ","kana_city":"ｷｸｶﾞﾜｼ","kana_address":"ﾂｷｵｶ","pref":"静岡県","city":"菊川市","address":"月岡"},
{"zip_code":"4390025","kana_pref":"ｼｽﾞｵｶｹﾝ","kana_city":"ｷｸｶﾞﾜｼ","kana_address":"ﾂﾁﾊｼ","pref":"静岡県","city":"菊川市","address":"土橋"},
{"zip_code":"4390001","kana_pref":"ｼｽﾞｵｶｹﾝ","kana_city":"ｷｸｶﾞﾜｼ","kana_address":"ﾄﾐﾀ","pref":"静岡県","city":"菊川市","address":"富田"},
{"zip_code":"4390008","kana_pref":"ｼｽﾞｵｶｹﾝ","kana_city":"ｷｸｶﾞﾜｼ","kana_address":"ﾄﾓﾀﾞ","pref":"静岡県","city":"菊川市","address":"友田"},
{"zip_code":"4390036","kana_pref":"ｼｽﾞｵｶｹﾝ","kana_city":"ｷｸｶﾞﾜｼ","kana_address":"ﾅｶｳﾁﾀﾞ","pref":"静岡県","city":"菊川市","address":"中内田"},
{"zip_code":"4390011","kana_pref":"ｼｽﾞｵｶｹﾝ","kana_city":"ｷｸｶﾞﾜｼ","kana_address":"ﾅｶｼﾞﾏ","pref":"静岡県","city":"菊川市","address":"仲島"},
{"zip_code":"4390024","kana_pref":"ｼｽﾞｵｶｹﾝ","kana_city":"ｷｸｶﾞﾜｼ","kana_address":"ﾅﾗﾉ","pref":"静岡県","city":"菊川市","address":"奈良野"},
{"zip_code":"4390037","kana_pref":"ｼｽﾞｵｶｹﾝ","kana_city":"ｷｸｶﾞﾜｼ","kana_address":"ﾆｼｶﾀ","pref":"静岡県","city":"菊川市","address":"西方"},
{"zip_code":"4390026","kana_pref":"ｼｽﾞｵｶｹﾝ","kana_city":"ｷｸｶﾞﾜｼ","kana_address":"ﾆｼﾖｺｼﾞ","pref":"静岡県","city":"菊川市","address":"西横地"},
{"zip_code":"4390019","kana_pref":"ｼｽﾞｵｶｹﾝ","kana_city":"ｷｸｶﾞﾜｼ","kana_address":"ﾊﾝｾｲ","pref":"静岡県","city":"菊川市","address":"半済"},
{"zip_code":"4390022","kana_pref":"ｼｽﾞｵｶｹﾝ","kana_city":"ｷｸｶﾞﾜｼ","kana_address":"ﾋｶﾞｼﾖｺｼﾞ","pref":"静岡県","city":"菊川市","address":"東横地"},
{"zip_code":"4390035","kana_pref":"ｼｽﾞｵｶｹﾝ","kana_city":"ｷｸｶﾞﾜｼ","kana_address":"ﾋﾗｵ","pref":"静岡県","city":"菊川市","address":"平尾"},
{"zip_code":"4390006","kana_pref":"ｼｽﾞｵｶｹﾝ","kana_city":"ｷｸｶﾞﾜｼ","kana_address":"ﾎﾘﾉｳﾁ","pref":"静岡県","city":"菊川市","address":"堀之内"},
{"zip_code":"4390018","kana_pref":"ｼｽﾞｵｶｹﾝ","kana_city":"ｷｸｶﾞﾜｼ","kana_address":"ﾎﾝｼﾞｮ","pref":"静岡県","city":"菊川市","address":"本所"},
{"zip_code":"4390015","kana_pref":"ｼｽﾞｵｶｹﾝ","kana_city":"ｷｸｶﾞﾜｼ","kana_address":"ﾏｷﾉﾊﾗ","pref":"静岡県","city":"菊川市","address":"牧之原"},
{"zip_code":"4390023","kana_pref":"ｼｽﾞｵｶｹﾝ","kana_city":"ｷｸｶﾞﾜｼ","kana_address":"ﾐｻﾜ","pref":"静岡県","city":"菊川市","address":"三沢"},
{"zip_code":"4390033","kana_pref":"ｼｽﾞｵｶｹﾝ","kana_city":"ｷｸｶﾞﾜｼ","kana_address":"ﾐﾐｶﾞﾜ","pref":"静岡県","city":"菊川市","address":"耳川"},
{"zip_code":"4390007","kana_pref":"ｼｽﾞｵｶｹﾝ","kana_city":"ｷｸｶﾞﾜｼ","kana_address":"ﾔﾅｷﾞ","pref":"静岡県","city":"菊川市","address":"柳"},
{"zip_code":"4390009","kana_pref":"ｼｽﾞｵｶｹﾝ","kana_city":"ｷｸｶﾞﾜｼ","kana_address":"ﾖｼｻﾜ","pref":"静岡県","city":"菊川市","address":"吉沢"},
{"zip_code":"4390004","kana_pref":"ｼｽﾞｵｶｹﾝ","kana_city":"ｷｸｶﾞﾜｼ","kana_address":"ﾜﾀﾞ","pref":"静岡県","city":"菊川市","address":"和田"}]}