{"zip_code":[
{"zip_code":"4400061","kana_pref":"ｱｲﾁｹﾝ","kana_city":"ﾄﾖﾊｼｼ","kana_address":"ｱｸﾐﾁｮｳ","pref":"愛知県","city":"豊橋市","address":"飽海町"},
{"zip_code":"4400043","kana_pref":"ｱｲﾁｹﾝ","kana_city":"ﾄﾖﾊｼｼ","kana_address":"ｱｻｵｶﾁｮｳ","pref":"愛知県","city":"豊橋市","address":"朝丘町"},
{"zip_code":"4400058","kana_pref":"ｱｲﾁｹﾝ","kana_city":"ﾄﾖﾊｼｼ","kana_address":"ｱｻﾋﾎﾝﾏﾁ","pref":"愛知県","city":"豊橋市","address":"旭本町"},
{"zip_code":"4400057","kana_pref":"ｱｲﾁｹﾝ","kana_city":"ﾄﾖﾊｼｼ","kana_address":"ｱｻﾋﾏﾁ","pref":"愛知県","city":"豊橋市","address":"旭町"},
{"zip_code":"4400063","kana_pref":"ｱｲﾁｹﾝ","kana_city":"ﾄﾖﾊｼｼ","kana_address":"ｱｽﾞﾏﾀﾞﾅｶｺﾞｳﾁｮｳ","pref":"愛知県","city":"豊橋市","address":"東田中郷町"},
{"zip_code":"4400024","kana_pref":"ｱｲﾁｹﾝ","kana_city":"ﾄﾖﾊｼｼ","kana_address":"ｱｽﾞﾏﾀﾞﾁｮｳ","pref":"愛知県","city":"豊橋市","address":"東田町"},
{"zip_code":"4400054","kana_pref":"ｱｲﾁｹﾝ","kana_city":"ﾄﾖﾊｼｼ","kana_address":"ｱｽﾞﾏﾀﾞﾁｮｳ","pref":"愛知県","city":"豊橋市","address":"東田町"},
{"zip_code":"4400062","kana_pref":"ｱｲﾁｹﾝ","kana_city":"ﾄﾖﾊｼｼ","kana_address":"ｱｽﾞﾏﾀﾞﾁｮｳ","pref":"愛知県","city":"豊橋市","address":"東田町"},
{"zip_code":"4400062","kana_pref":"ｱｲﾁｹﾝ","kana_city":"ﾄﾖﾊｼｼ","kana_address":"ｱｽﾞﾏﾀﾞﾁｮｳ","pref":"愛知県","city":"豊橋市","address":"東田町"},
{"zip_code":"4400062","kana_pref":"ｱｲﾁｹﾝ","kana_city":"ﾄﾖﾊｼｼ","kana_address":"ｱｽﾞﾏﾀﾞﾁｮｳ","pref":"愛知県","city":"豊橋市","address":"東田町"},
{"zip_code":"4400066","kana_pref":"ｱｲﾁｹﾝ","kana_city":"ﾄﾖﾊｼｼ","kana_address":"ｱｽﾞﾏﾀﾞﾁｮｳ","pref":"愛知県","city":"豊橋市","address":"東田町"},
{"zip_code":"4400054","kana_pref":"ｱｲﾁｹﾝ","kana_city":"ﾄﾖﾊｼｼ","kana_address":"ｱｽﾞﾏﾀﾞﾁｮｳ","pref":"愛知県","city":"豊橋市","address":"東田町"},
{"zip_code":"4400054","kana_pref":"ｱｲﾁｹﾝ","kana_city":"ﾄﾖﾊｼｼ","kana_address":"ｱｽﾞﾏﾀﾞﾁｮｳ","pref":"愛知県","city":"豊橋市","address":"東田町"},
{"zip_code":"4400048","kana_pref":"ｱｲﾁｹﾝ","kana_city":"ﾄﾖﾊｼｼ","kana_address":"ｱｽﾞﾏﾀﾞﾁｮｳ","pref":"愛知県","city":"豊橋市","address":"東田町"},
{"zip_code":"4400047","kana_pref":"ｱｲﾁｹﾝ","kana_city":"ﾄﾖﾊｼｼ","kana_address":"ｱｽﾞﾏﾀﾞﾅｶﾉﾏﾁ","pref":"愛知県","city":"豊橋市","address":"東田仲の町"},
{"zip_code":"4400045","kana_pref":"ｱｲﾁｹﾝ","kana_city":"ﾄﾖﾊｼｼ","kana_address":"ｱﾂﾞﾏﾁｮｳ","pref":"愛知県","city":"豊橋市","address":"吾妻町"},
{"zip_code":"4400827","kana_pref":"ｱｲﾁｹﾝ","kana_city":"ﾄﾖﾊｼｼ","kana_address":"ｲｹﾐﾁｮｳ","pref":"愛知県","city":"豊橋市","address":"池見町"},
{"zip_code":"4400025","kana_pref":"ｱｲﾁｹﾝ","kana_city":"ﾄﾖﾊｼｼ","kana_address":"ｲﾊﾗﾁｮｳ","pref":"愛知県","city":"豊橋市","address":"井原町"},
{"zip_code":"4400801","kana_pref":"ｱｲﾁｹﾝ","kana_city":"ﾄﾖﾊｼｼ","kana_address":"ｲﾏﾊｼﾁｮｳ","pref":"愛知県","city":"豊橋市","address":"今橋町"},
{"zip_code":"4400833","kana_pref":"ｱｲﾁｹﾝ","kana_city":"ﾄﾖﾊｼｼ","kana_address":"ｲﾑﾚﾁｮｳﾆｼﾔﾏ","pref":"愛知県","city":"豊橋市","address":"飯村町西山"},
{"zip_code":"4400833","kana_pref":"ｱｲﾁｹﾝ","kana_city":"ﾄﾖﾊｼｼ","kana_address":"ﾀｶﾔﾏ","pref":"愛知県","city":"豊橋市","address":"高山"},
{"zip_code":"4400836","kana_pref":"ｱｲﾁｹﾝ","kana_city":"ﾄﾖﾊｼｼ","kana_address":"ｲﾑﾚﾁｮｳ","pref":"愛知県","city":"豊橋市","address":"飯村町"},
{"zip_code":"4400835","kana_pref":"ｱｲﾁｹﾝ","kana_city":"ﾄﾖﾊｼｼ","kana_address":"ｲﾑﾚﾐﾅﾐ","pref":"愛知県","city":"豊橋市","address":"飯村南"},
{"zip_code":"4400834","kana_pref":"ｱｲﾁｹﾝ","kana_city":"ﾄﾖﾊｼｼ","kana_address":"ｲﾑﾚｷﾀ","pref":"愛知県","city":"豊橋市","address":"飯村北"},
{"zip_code":"4400022","kana_pref":"ｱｲﾁｹﾝ","kana_city":"ﾄﾖﾊｼｼ","kana_address":"ｲﾜｻｷﾁｮｳ","pref":"愛知県","city":"豊橋市","address":"岩崎町"},
{"zip_code":"4400832","kana_pref":"ｱｲﾁｹﾝ","kana_city":"ﾄﾖﾊｼｼ","kana_address":"ｲﾜﾀﾁｮｳ","pref":"愛知県","city":"豊橋市","address":"岩田町"},
{"zip_code":"4400023","kana_pref":"ｱｲﾁｹﾝ","kana_city":"ﾄﾖﾊｼｼ","kana_address":"ｲﾜﾀﾁｮｳ","pref":"愛知県","city":"豊橋市","address":"岩田町"},
{"zip_code":"4400032","kana_pref":"ｱｲﾁｹﾝ","kana_city":"ﾄﾖﾊｼｼ","kana_address":"ｲﾜﾀﾁｮｳｲﾑﾗ","pref":"愛知県","city":"豊橋市","address":"岩田町居村"},
{"zip_code":"4400032","kana_pref":"ｱｲﾁｹﾝ","kana_city":"ﾄﾖﾊｼｼ","kana_address":"ｷﾀｺﾞｳﾅｶ","pref":"愛知県","city":"豊橋市","address":"北郷中"},
{"zip_code":"4400041","kana_pref":"ｱｲﾁｹﾝ","kana_city":"ﾄﾖﾊｼｼ","kana_address":"ｲﾜﾀﾁｮｳﾐﾔｼﾀ","pref":"愛知県","city":"豊橋市","address":"岩田町宮下"},
{"zip_code":"4400041","kana_pref":"ｱｲﾁｹﾝ","kana_city":"ﾄﾖﾊｼｼ","kana_address":"ﾐﾁｱｲ","pref":"愛知県","city":"豊橋市","address":"道合"},
{"zip_code":"4400842","kana_pref":"ｱｲﾁｹﾝ","kana_city":"ﾄﾖﾊｼｼ","kana_address":"ｲﾜﾔﾁｮｳ","pref":"愛知県","city":"豊橋市","address":"岩屋町"},
{"zip_code":"4400067","kana_pref":"ｱｲﾁｹﾝ","kana_city":"ﾄﾖﾊｼｼ","kana_address":"ｳｴｼﾞﾁｮｳ","pref":"愛知県","city":"豊橋市","address":"上地町"},
{"zip_code":"4400894","kana_pref":"ｱｲﾁｹﾝ","kana_city":"ﾄﾖﾊｼｼ","kana_address":"ｳｵﾏﾁ","pref":"愛知県","city":"豊橋市","address":"魚町"},
{"zip_code":"4400006","kana_pref":"ｱｲﾁｹﾝ","kana_city":"ﾄﾖﾊｼｼ","kana_address":"ｳｼｶﾜﾁｮｳ","pref":"愛知県","city":"豊橋市","address":"牛川町"},
{"zip_code":"4400006","kana_pref":"ｱｲﾁｹﾝ","kana_city":"ﾄﾖﾊｼｼ","kana_address":"ｳｼｶﾜﾁｮｳ","pref":"愛知県","city":"豊橋市","address":"牛川町"},
{"zip_code":"4400006","kana_pref":"ｱｲﾁｹﾝ","kana_city":"ﾄﾖﾊｼｼ","kana_address":"ｳｼｶﾜﾁｮｳ","pref":"愛知県","city":"豊橋市","address":"牛川町"},
{"zip_code":"4400006","kana_pref":"ｱｲﾁｹﾝ","kana_city":"ﾄﾖﾊｼｼ","kana_address":"ｳｼｶﾜﾁｮｳ","pref":"愛知県","city":"豊橋市","address":"牛川町"},
{"zip_code":"4400006","kana_pref":"ｱｲﾁｹﾝ","kana_city":"ﾄﾖﾊｼｼ","kana_address":"ｳｼｶﾜﾁｮｳ","pref":"愛知県","city":"豊橋市","address":"牛川町"},
{"zip_code":"4400016","kana_pref":"ｱｲﾁｹﾝ","kana_city":"ﾄﾖﾊｼｼ","kana_address":"ｳｼｶﾜﾁｮｳ","pref":"愛知県","city":"豊橋市","address":"牛川町"},
{"zip_code":"4400011","kana_pref":"ｱｲﾁｹﾝ","kana_city":"ﾄﾖﾊｼｼ","kana_address":"ｳｼｶﾜﾄﾞｵﾘ","pref":"愛知県","city":"豊橋市","address":"牛川通"},
{"zip_code":"4400015","kana_pref":"ｱｲﾁｹﾝ","kana_city":"ﾄﾖﾊｼｼ","kana_address":"ｳｼｶﾜﾔｸｼﾁｮｳ","pref":"愛知県","city":"豊橋市","address":"牛川薬師町"},
{"zip_code":"4400092","kana_pref":"ｱｲﾁｹﾝ","kana_city":"ﾄﾖﾊｼｼ","kana_address":"ｳﾘｺﾞｳﾁｮｳ","pref":"愛知県","city":"豊橋市","address":"瓜郷町"},
{"zip_code":"4400888","kana_pref":"ｱｲﾁｹﾝ","kana_city":"ﾄﾖﾊｼｼ","kana_address":"ｴｷﾏｴｵｵﾄﾞｵﾘ","pref":"愛知県","city":"豊橋市","address":"駅前大通"},
{"zip_code":"4400053","kana_pref":"ｱｲﾁｹﾝ","kana_city":"ﾄﾖﾊｼｼ","kana_address":"ｵｲﾏﾂﾁｮｳ","pref":"愛知県","city":"豊橋市","address":"老松町"},
{"zip_code":"4400826","kana_pref":"ｱｲﾁｹﾝ","kana_city":"ﾄﾖﾊｼｼ","kana_address":"ｵｵｲﾁｮｳ","pref":"愛知県","city":"豊橋市","address":"大井町"},
{"zip_code":"4400805","kana_pref":"ｱｲﾁｹﾝ","kana_city":"ﾄﾖﾊｼｼ","kana_address":"ｵｵﾃﾏﾁ","pref":"愛知県","city":"豊橋市","address":"大手町"},
{"zip_code":"4400076","kana_pref":"ｱｲﾁｹﾝ","kana_city":"ﾄﾖﾊｼｼ","kana_address":"ｵｵﾊｼﾄﾞｵﾘ","pref":"愛知県","city":"豊橋市","address":"大橋通"},
{"zip_code":"4400081","kana_pref":"ｱｲﾁｹﾝ","kana_city":"ﾄﾖﾊｼｼ","kana_address":"ｵｵﾑﾗﾁｮｳ","pref":"愛知県","city":"豊橋市","address":"大村町"},
{"zip_code":"4400856","kana_pref":"ｱｲﾁｹﾝ","kana_city":"ﾄﾖﾊｼｼ","kana_address":"ｶｷﾞﾀﾁｮｳ","pref":"愛知県","city":"豊橋市","address":"鍵田町"},
{"zip_code":"4400802","kana_pref":"ｱｲﾁｹﾝ","kana_city":"ﾄﾖﾊｼｼ","kana_address":"ｶｼﾞﾏﾁ","pref":"愛知県","city":"豊橋市","address":"鍛冶町"},
{"zip_code":"4400821","kana_pref":"ｱｲﾁｹﾝ","kana_city":"ﾄﾖﾊｼｼ","kana_address":"ｶｽｶﾞﾁｮｳ","pref":"愛知県","city":"豊橋市","address":"春日町"},
{"zip_code":"4400803","kana_pref":"ｱｲﾁｹﾝ","kana_city":"ﾄﾖﾊｼｼ","kana_address":"ｶﾈﾝﾃﾁｮｳ","pref":"愛知県","city":"豊橋市","address":"曲尺手町"},
{"zip_code":"4400074","kana_pref":"ｱｲﾁｹﾝ","kana_city":"ﾄﾖﾊｼｼ","kana_address":"ｶﾐﾃﾞﾝﾏﾁｮｳ","pref":"愛知県","city":"豊橋市","address":"上伝馬町"},
{"zip_code":"4400896","kana_pref":"ｱｲﾁｹﾝ","kana_city":"ﾄﾖﾊｼｼ","kana_address":"ｶﾔﾏﾁ","pref":"愛知県","city":"豊橋市","address":"萱町"},
{"zip_code":"4400094","kana_pref":"ｱｲﾁｹﾝ","kana_city":"ﾄﾖﾊｼｼ","kana_address":"ｶﾜｻｷﾁｮｳ","pref":"愛知県","city":"豊橋市","address":"川崎町"},
{"zip_code":"4400825","kana_pref":"ｱｲﾁｹﾝ","kana_city":"ﾄﾖﾊｼｼ","kana_address":"ｶﾜﾗﾏﾁ","pref":"愛知県","city":"豊橋市","address":"瓦町"},
{"zip_code":"4400824","kana_pref":"ｱｲﾁｹﾝ","kana_city":"ﾄﾖﾊｼｼ","kana_address":"ｶﾜﾗﾏﾁﾄﾞｵﾘ","pref":"愛知県","city":"豊橋市","address":"瓦町通"},
{"zip_code":"4400031","kana_pref":"ｱｲﾁｹﾝ","kana_city":"ﾄﾖﾊｼｼ","kana_address":"ｷﾀｲﾜﾀ","pref":"愛知県","city":"豊橋市","address":"北岩田"},
{"zip_code":"4400071","kana_pref":"ｱｲﾁｹﾝ","kana_city":"ﾄﾖﾊｼｼ","kana_address":"ｷﾀｼﾞﾏﾁｮｳ","pref":"愛知県","city":"豊橋市","address":"北島町"},
{"zip_code":"4400078","kana_pref":"ｱｲﾁｹﾝ","kana_city":"ﾄﾖﾊｼｼ","kana_address":"ｷﾇﾀﾁｮｳ","pref":"愛知県","city":"豊橋市","address":"絹田町"},
{"zip_code":"4400095","kana_pref":"ｱｲﾁｹﾝ","kana_city":"ﾄﾖﾊｼｼ","kana_address":"ｷﾖｽﾁｮｳ","pref":"愛知県","city":"豊橋市","address":"清須町"},
{"zip_code":"4400002","kana_pref":"ｱｲﾁｹﾝ","kana_city":"ﾄﾖﾊｼｼ","kana_address":"ｹﾞｼﾞｮｳﾋｶﾞｼﾏﾁ","pref":"愛知県","city":"豊橋市","address":"下条東町"},
{"zip_code":"4400001","kana_pref":"ｱｲﾁｹﾝ","kana_city":"ﾄﾖﾊｼｼ","kana_address":"ｹﾞｼﾞｮｳﾆｼﾏﾁ","pref":"愛知県","city":"豊橋市","address":"下条西町"},
{"zip_code":"4400873","kana_pref":"ｱｲﾁｹﾝ","kana_city":"ﾄﾖﾊｼｼ","kana_address":"ｺﾅﾜﾃﾁｮｳ","pref":"愛知県","city":"豊橋市","address":"小畷町"},
{"zip_code":"4400804","kana_pref":"ｱｲﾁｹﾝ","kana_city":"ﾄﾖﾊｼｼ","kana_address":"ｺﾞﾌｸﾏﾁ","pref":"愛知県","city":"豊橋市","address":"呉服町"},
{"zip_code":"4400064","kana_pref":"ｱｲﾁｹﾝ","kana_city":"ﾄﾖﾊｼｼ","kana_address":"ｻｲｺﾞｳﾁｮｳ","pref":"愛知県","city":"豊橋市","address":"西郷町"},
{"zip_code":"4400042","kana_pref":"ｱｲﾁｹﾝ","kana_city":"ﾄﾖﾊｼｼ","kana_address":"ｻｶｴﾏﾁ","pref":"愛知県","city":"豊橋市","address":"栄町"},
{"zip_code":"4400853","kana_pref":"ｱｲﾁｹﾝ","kana_city":"ﾄﾖﾊｼｼ","kana_address":"ｻﾄｳ","pref":"愛知県","city":"豊橋市","address":"佐藤"},
{"zip_code":"4400853","kana_pref":"ｱｲﾁｹﾝ","kana_city":"ﾄﾖﾊｼｼ","kana_address":"ｻﾄｳﾁｮｳ","pref":"愛知県","city":"豊橋市","address":"佐藤町"},
{"zip_code":"4400051","kana_pref":"ｱｲﾁｹﾝ","kana_city":"ﾄﾖﾊｼｼ","kana_address":"ｼﾉﾉﾒﾁｮｳ","pref":"愛知県","city":"豊橋市","address":"東雲町"},
{"zip_code":"4400091","kana_pref":"ｱｲﾁｹﾝ","kana_city":"ﾄﾖﾊｼｼ","kana_address":"ｼﾓｺﾞｲﾁｮｳ","pref":"愛知県","city":"豊橋市","address":"下五井町"},
{"zip_code":"4400083","kana_pref":"ｱｲﾁｹﾝ","kana_city":"ﾄﾖﾊｼｼ","kana_address":"ｼﾓｼﾞﾁｮｳ","pref":"愛知県","city":"豊橋市","address":"下地町"},
{"zip_code":"4400084","kana_pref":"ｱｲﾁｹﾝ","kana_city":"ﾄﾖﾊｼｼ","kana_address":"ｼﾓｼﾞﾁｮｳ","pref":"愛知県","city":"豊橋市","address":"下地町"},
{"zip_code":"4400083","kana_pref":"ｱｲﾁｹﾝ","kana_city":"ﾄﾖﾊｼｼ","kana_address":"ｼﾓｼﾞﾁｮｳ","pref":"愛知県","city":"豊橋市","address":"下地町"},
{"zip_code":"4400083","kana_pref":"ｱｲﾁｹﾝ","kana_city":"ﾄﾖﾊｼｼ","kana_address":"ｼﾓｼﾞﾁｮｳ","pref":"愛知県","city":"豊橋市","address":"下地町"},
{"zip_code":"4400083","kana_pref":"ｱｲﾁｹﾝ","kana_city":"ﾄﾖﾊｼｼ","kana_address":"ｼﾓｼﾞﾁｮｳ","pref":"愛知県","city":"豊橋市","address":"下地町"},
{"zip_code":"4400083","kana_pref":"ｱｲﾁｹﾝ","kana_city":"ﾄﾖﾊｼｼ","kana_address":"ｼﾓｼﾞﾁｮｳ","pref":"愛知県","city":"豊橋市","address":"下地町"},
{"zip_code":"4400084","kana_pref":"ｱｲﾁｹﾝ","kana_city":"ﾄﾖﾊｼｼ","kana_address":"ｼﾓｼﾞﾁｮｳ","pref":"愛知県","city":"豊橋市","address":"下地町"},
{"zip_code":"4400085","kana_pref":"ｱｲﾁｹﾝ","kana_city":"ﾄﾖﾊｼｼ","kana_address":"ｼﾓｼﾞﾁｮｳ","pref":"愛知県","city":"豊橋市","address":"下地町"},
{"zip_code":"4400083","kana_pref":"ｱｲﾁｹﾝ","kana_city":"ﾄﾖﾊｼｼ","kana_address":"ｼﾓｼﾞﾁｮｳ","pref":"愛知県","city":"豊橋市","address":"下地町"},
{"zip_code":"4400083","kana_pref":"ｱｲﾁｹﾝ","kana_city":"ﾄﾖﾊｼｼ","kana_address":"ｼﾓｼﾞﾁｮｳ","pref":"愛知県","city":"豊橋市","address":"下地町"},
{"zip_code":"4400084","kana_pref":"ｱｲﾁｹﾝ","kana_city":"ﾄﾖﾊｼｼ","kana_address":"ｼﾓｼﾞﾁｮｳ","pref":"愛知県","city":"豊橋市","address":"下地町"},
{"zip_code":"4400084","kana_pref":"ｱｲﾁｹﾝ","kana_city":"ﾄﾖﾊｼｼ","kana_address":"ｼﾓｼﾞﾁｮｳ","pref":"愛知県","city":"豊橋市","address":"下地町"},
{"zip_code":"4400083","kana_pref":"ｱｲﾁｹﾝ","kana_city":"ﾄﾖﾊｼｼ","kana_address":"ｼﾓｼﾞﾁｮｳ","pref":"愛知県","city":"豊橋市","address":"下地町"},
{"zip_code":"4400083","kana_pref":"ｱｲﾁｹﾝ","kana_city":"ﾄﾖﾊｼｼ","kana_address":"ｼﾓｼﾞﾁｮｳ","pref":"愛知県","city":"豊橋市","address":"下地町"},
{"zip_code":"4400083","kana_pref":"ｱｲﾁｹﾝ","kana_city":"ﾄﾖﾊｼｼ","kana_address":"ｼﾓｼﾞﾁｮｳ","pref":"愛知県","city":"豊橋市","address":"下地町"},
{"zip_code":"4400086","kana_pref":"ｱｲﾁｹﾝ","kana_city":"ﾄﾖﾊｼｼ","kana_address":"ｼﾓｼﾞﾁｮｳ","pref":"愛知県","city":"豊橋市","address":"下地町"},
{"zip_code":"4400883","kana_pref":"ｱｲﾁｹﾝ","kana_city":"ﾄﾖﾊｼｼ","kana_address":"ｼﾝｶﾜﾁｮｳ","pref":"愛知県","city":"豊橋市","address":"新川町"},
{"zip_code":"4400892","kana_pref":"ｱｲﾁｹﾝ","kana_city":"ﾄﾖﾊｼｼ","kana_address":"ｼﾝﾎﾝﾏﾁ","pref":"愛知県","city":"豊橋市","address":"新本町"},
{"zip_code":"4400882","kana_pref":"ｱｲﾁｹﾝ","kana_city":"ﾄﾖﾊｼｼ","kana_address":"ｼﾝﾒｲﾁｮｳ","pref":"愛知県","city":"豊橋市","address":"神明町"},
{"zip_code":"4400871","kana_pref":"ｱｲﾁｹﾝ","kana_city":"ﾄﾖﾊｼｼ","kana_address":"ｼﾝﾖｼﾁｮｳ","pref":"愛知県","city":"豊橋市","address":"新吉町"},
{"zip_code":"4400052","kana_pref":"ｱｲﾁｹﾝ","kana_city":"ﾄﾖﾊｼｼ","kana_address":"ｽﾐﾖｼﾁｮｳ","pref":"愛知県","city":"豊橋市","address":"住吉町"},
{"zip_code":"4400891","kana_pref":"ｱｲﾁｹﾝ","kana_city":"ﾄﾖﾊｼｼ","kana_address":"ｾｷﾔﾁｮｳ","pref":"愛知県","city":"豊橋市","address":"関屋町"},
{"zip_code":"4400884","kana_pref":"ｱｲﾁｹﾝ","kana_city":"ﾄﾖﾊｼｼ","kana_address":"ﾀﾞｲｺｸﾁｮｳ","pref":"愛知県","city":"豊橋市","address":"大国町"},
{"zip_code":"4400844","kana_pref":"ｱｲﾁｹﾝ","kana_city":"ﾄﾖﾊｼｼ","kana_address":"ﾀｶｼﾁｮｳ","pref":"愛知県","city":"豊橋市","address":"高師町"},
{"zip_code":"4400845","kana_pref":"ｱｲﾁｹﾝ","kana_city":"ﾄﾖﾊｼｼ","kana_address":"ﾀｶｼﾁｮｳ","pref":"愛知県","city":"豊橋市","address":"高師町"},
{"zip_code":"4400844","kana_pref":"ｱｲﾁｹﾝ","kana_city":"ﾄﾖﾊｼｼ","kana_address":"ﾀｶｼﾁｮｳ","pref":"愛知県","city":"豊橋市","address":"高師町"},
{"zip_code":"4400844","kana_pref":"ｱｲﾁｹﾝ","kana_city":"ﾄﾖﾊｼｼ","kana_address":"ﾀｶｼﾁｮｳ","pref":"愛知県","city":"豊橋市","address":"高師町"},
{"zip_code":"4400844","kana_pref":"ｱｲﾁｹﾝ","kana_city":"ﾄﾖﾊｼｼ","kana_address":"ﾀｶｼﾁｮｳ","pref":"愛知県","city":"豊橋市","address":"高師町"},
{"zip_code":"4400845","kana_pref":"ｱｲﾁｹﾝ","kana_city":"ﾄﾖﾊｼｼ","kana_address":"ﾀｶｼﾁｮｳ","pref":"愛知県","city":"豊橋市","address":"高師町"},
{"zip_code":"4400004","kana_pref":"ｱｲﾁｹﾝ","kana_city":"ﾄﾖﾊｼｼ","kana_address":"ﾀﾀﾞｺｳ","pref":"愛知県","city":"豊橋市","address":"忠興"},
{"zip_code":"4400021","kana_pref":"ｱｲﾁｹﾝ","kana_city":"ﾄﾖﾊｼｼ","kana_address":"ﾀﾒﾁｮｳ","pref":"愛知県","city":"豊橋市","address":"多米町"},
{"zip_code":"4400027","kana_pref":"ｱｲﾁｹﾝ","kana_city":"ﾄﾖﾊｼｼ","kana_address":"ﾀﾒﾅｶﾏﾁ","pref":"愛知県","city":"豊橋市","address":"多米中町"},
{"zip_code":"4400028","kana_pref":"ｱｲﾁｹﾝ","kana_city":"ﾄﾖﾊｼｼ","kana_address":"ﾀﾒﾋｶﾞｼﾏﾁ","pref":"愛知県","city":"豊橋市","address":"多米東町"},
{"zip_code":"4400026","kana_pref":"ｱｲﾁｹﾝ","kana_city":"ﾄﾖﾊｼｼ","kana_address":"ﾀﾒﾆｼﾏﾁ","pref":"愛知県","city":"豊橋市","address":"多米西町"},
{"zip_code":"4400816","kana_pref":"ｱｲﾁｹﾝ","kana_city":"ﾄﾖﾊｼｼ","kana_address":"ﾀﾞﾝｺﾞｳﾁｮｳ","pref":"愛知県","city":"豊橋市","address":"談合町"},
{"zip_code":"4400858","kana_pref":"ｱｲﾁｹﾝ","kana_city":"ﾄﾖﾊｼｼ","kana_address":"ﾂﾂｼﾞｶﾞｵｶ","pref":"愛知県","city":"豊橋市","address":"つつじが丘"},
{"zip_code":"4400822","kana_pref":"ｱｲﾁｹﾝ","kana_city":"ﾄﾖﾊｼｼ","kana_address":"ﾃﾞﾝﾏﾁｮｳ","pref":"愛知県","city":"豊橋市","address":"伝馬町"},
{"zip_code":"4400857","kana_pref":"ｱｲﾁｹﾝ","kana_city":"ﾄﾖﾊｼｼ","kana_address":"ﾄﾞｳｳﾗﾁｮｳ","pref":"愛知県","city":"豊橋市","address":"堂浦町"},
{"zip_code":"4400036","kana_pref":"ｱｲﾁｹﾝ","kana_city":"ﾄﾖﾊｼｼ","kana_address":"ﾄｳｺｳﾁｮｳ","pref":"愛知県","city":"豊橋市","address":"東光町"},
{"zip_code":"4400068","kana_pref":"ｱｲﾁｹﾝ","kana_city":"ﾄﾖﾊｼｼ","kana_address":"ﾄｳｺﾞｳﾁｮｳ","pref":"愛知県","city":"豊橋市","address":"東郷町"},
{"zip_code":"4400034","kana_pref":"ｱｲﾁｹﾝ","kana_city":"ﾄﾖﾊｼｼ","kana_address":"ﾄﾖｵｶﾁｮｳ","pref":"愛知県","city":"豊橋市","address":"豊岡町"},
{"zip_code":"4400832","kana_pref":"ｱｲﾁｹﾝ","kana_city":"ﾄﾖﾊｼｼ","kana_address":"ﾅｶｲﾜﾀ","pref":"愛知県","city":"豊橋市","address":"中岩田"},
{"zip_code":"4400885","kana_pref":"ｱｲﾁｹﾝ","kana_city":"ﾄﾖﾊｼｼ","kana_address":"ﾅｶｼﾊﾞﾁｮｳ","pref":"愛知県","city":"豊橋市","address":"中柴町"},
{"zip_code":"4400815","kana_pref":"ｱｲﾁｹﾝ","kana_city":"ﾄﾖﾊｼｼ","kana_address":"ﾅｶｾｺﾁｮｳ","pref":"愛知県","city":"豊橋市","address":"中世古町"},
{"zip_code":"4400046","kana_pref":"ｱｲﾁｹﾝ","kana_city":"ﾄﾖﾊｼｼ","kana_address":"ﾅｶﾉﾏﾁ","pref":"愛知県","city":"豊橋市","address":"仲ノ町"},
{"zip_code":"4400875","kana_pref":"ｱｲﾁｹﾝ","kana_city":"ﾄﾖﾊｼｼ","kana_address":"ﾅｶﾏﾂﾔﾏﾁｮｳ","pref":"愛知県","city":"豊橋市","address":"中松山町"},
{"zip_code":"4400082","kana_pref":"ｱｲﾁｹﾝ","kana_city":"ﾄﾖﾊｼｼ","kana_address":"ﾅｶﾞｾﾁｮｳ","pref":"愛知県","city":"豊橋市","address":"長瀬町"},
{"zip_code":"4400003","kana_pref":"ｱｲﾁｹﾝ","kana_city":"ﾄﾖﾊｼｼ","kana_address":"ﾅﾐﾉｳｴﾁｮｳ","pref":"愛知県","city":"豊橋市","address":"浪の上町"},
{"zip_code":"4400831","kana_pref":"ｱｲﾁｹﾝ","kana_city":"ﾄﾖﾊｼｼ","kana_address":"ﾆｼｲﾜﾀ","pref":"愛知県","city":"豊橋市","address":"西岩田"},
{"zip_code":"4400013","kana_pref":"ｱｲﾁｹﾝ","kana_city":"ﾄﾖﾊｼｼ","kana_address":"ﾆｼｵﾀﾞｶﾉ","pref":"愛知県","city":"豊橋市","address":"西小鷹野"},
{"zip_code":"4400887","kana_pref":"ｱｲﾁｹﾝ","kana_city":"ﾄﾖﾊｼｼ","kana_address":"ﾆｼｵﾀﾞﾜﾗﾁｮｳ","pref":"愛知県","city":"豊橋市","address":"西小田原町"},
{"zip_code":"4400841","kana_pref":"ｱｲﾁｹﾝ","kana_city":"ﾄﾖﾊｼｼ","kana_address":"ﾆｼｸﾞﾁﾁｮｳ","pref":"愛知県","city":"豊橋市","address":"西口町"},
{"zip_code":"4400811","kana_pref":"ｱｲﾁｹﾝ","kana_city":"ﾄﾖﾊｼｼ","kana_address":"ﾆｼｼﾝﾏﾁ","pref":"愛知県","city":"豊橋市","address":"西新町"},
{"zip_code":"4400876","kana_pref":"ｱｲﾁｹﾝ","kana_city":"ﾄﾖﾊｼｼ","kana_address":"ﾆｼﾏﾂﾔﾏﾁｮｳ","pref":"愛知県","city":"豊橋市","address":"西松山町"},
{"zip_code":"4400065","kana_pref":"ｱｲﾁｹﾝ","kana_city":"ﾄﾖﾊｼｼ","kana_address":"ﾆﾚﾝｷﾞﾁｮｳ","pref":"愛知県","city":"豊橋市","address":"仁連木町"},
{"zip_code":"4400806","kana_pref":"ｱｲﾁｹﾝ","kana_city":"ﾄﾖﾊｼｼ","kana_address":"ﾊｯﾁｮｳﾄﾞｵﾘ","pref":"愛知県","city":"豊橋市","address":"八町通"},
{"zip_code":"4400895","kana_pref":"ｱｲﾁｹﾝ","kana_city":"ﾄﾖﾊｼｼ","kana_address":"ﾊﾅｿﾞﾉﾁｮｳ","pref":"愛知県","city":"豊橋市","address":"花園町"},
{"zip_code":"4400075","kana_pref":"ｱｲﾁｹﾝ","kana_city":"ﾄﾖﾊｼｼ","kana_address":"ﾊﾅﾀﾞﾁｮｳ","pref":"愛知県","city":"豊橋市","address":"花田町"},
{"zip_code":"4400075","kana_pref":"ｱｲﾁｹﾝ","kana_city":"ﾄﾖﾊｼｼ","kana_address":"ﾊﾅﾀﾞﾁｮｳｶﾝﾕｳﾁ","pref":"愛知県","city":"豊橋市","address":"花田町官有地"},
{"zip_code":"4400075","kana_pref":"ｱｲﾁｹﾝ","kana_city":"ﾄﾖﾊｼｼ","kana_address":"ﾊﾅﾀﾞﾁｮｳﾆｼｼﾞｭｸ","pref":"愛知県","city":"豊橋市","address":"花田町西宿"},
{"zip_code":"4400075","kana_pref":"ｱｲﾁｹﾝ","kana_city":"ﾄﾖﾊｼｼ","kana_address":"ﾊﾅﾀﾞﾁｮｳ","pref":"愛知県","city":"豊橋市","address":"花田町"},
{"zip_code":"4400033","kana_pref":"ｱｲﾁｹﾝ","kana_city":"ﾄﾖﾊｼｼ","kana_address":"ﾋｶﾞｼｲﾜﾀ","pref":"愛知県","city":"豊橋市","address":"東岩田"},
{"zip_code":"4400012","kana_pref":"ｱｲﾁｹﾝ","kana_city":"ﾄﾖﾊｼｼ","kana_address":"ﾋｶﾞｼｵﾀﾞｶﾉ","pref":"愛知県","city":"豊橋市","address":"東小鷹野"},
{"zip_code":"4400886","kana_pref":"ｱｲﾁｹﾝ","kana_city":"ﾄﾖﾊｼｼ","kana_address":"ﾋｶﾞｼｵﾀﾞﾜﾗﾁｮｳ","pref":"愛知県","city":"豊橋市","address":"東小田原町"},
{"zip_code":"4400855","kana_pref":"ｱｲﾁｹﾝ","kana_city":"ﾄﾖﾊｼｼ","kana_address":"ﾋｶﾞｼｺｲｹﾁｮｳ","pref":"愛知県","city":"豊橋市","address":"東小池町"},
{"zip_code":"4400812","kana_pref":"ｱｲﾁｹﾝ","kana_city":"ﾄﾖﾊｼｼ","kana_address":"ﾋｶﾞｼｼﾝﾏﾁ","pref":"愛知県","city":"豊橋市","address":"東新町"},
{"zip_code":"4400874","kana_pref":"ｱｲﾁｹﾝ","kana_city":"ﾄﾖﾊｼｼ","kana_address":"ﾋｶﾞｼﾏﾂﾔﾏﾁｮｳ","pref":"愛知県","city":"豊橋市","address":"東松山町"},
{"zip_code":"4400843","kana_pref":"ｱｲﾁｹﾝ","kana_city":"ﾄﾖﾊｼｼ","kana_address":"ﾋｶﾞｼﾐﾕｷﾁｮｳ","pref":"愛知県","city":"豊橋市","address":"東幸町"},
{"zip_code":"4400038","kana_pref":"ｱｲﾁｹﾝ","kana_city":"ﾄﾖﾊｼｼ","kana_address":"ﾋﾗｶﾜﾎﾝﾏﾁ","pref":"愛知県","city":"豊橋市","address":"平川本町"},
{"zip_code":"4400035","kana_pref":"ｱｲﾁｹﾝ","kana_city":"ﾄﾖﾊｼｼ","kana_address":"ﾋﾗｶﾜﾐﾅﾐﾏﾁ","pref":"愛知県","city":"豊橋市","address":"平川南町"},
{"zip_code":"4400037","kana_pref":"ｱｲﾁｹﾝ","kana_city":"ﾄﾖﾊｼｼ","kana_address":"ﾋﾗｶﾜﾁｮｳ","pref":"愛知県","city":"豊橋市","address":"平川町"},
{"zip_code":"4400881","kana_pref":"ｱｲﾁｹﾝ","kana_city":"ﾄﾖﾊｼｼ","kana_address":"ﾋﾛｺｳｼﾞ","pref":"愛知県","city":"豊橋市","address":"広小路"},
{"zip_code":"4400893","kana_pref":"ｱｲﾁｹﾝ","kana_city":"ﾄﾖﾊｼｼ","kana_address":"ﾌﾀﾞｷﾞﾁｮｳ","pref":"愛知県","city":"豊橋市","address":"札木町"},
{"zip_code":"4400813","kana_pref":"ｱｲﾁｹﾝ","kana_city":"ﾄﾖﾊｼｼ","kana_address":"ﾌﾅﾊﾗﾁｮｳ","pref":"愛知県","city":"豊橋市","address":"舟原町"},
{"zip_code":"4400072","kana_pref":"ｱｲﾁｹﾝ","kana_city":"ﾄﾖﾊｼｼ","kana_address":"ﾌﾅﾏﾁ","pref":"愛知県","city":"豊橋市","address":"船町"},
{"zip_code":"4400814","kana_pref":"ｱｲﾁｹﾝ","kana_city":"ﾄﾖﾊｼｼ","kana_address":"ﾏｴﾀﾞﾁｮｳ","pref":"愛知県","city":"豊橋市","address":"前田町"},
{"zip_code":"4400872","kana_pref":"ｱｲﾁｹﾝ","kana_city":"ﾄﾖﾊｼｼ","kana_address":"ﾏｴﾀﾞﾅｶﾏﾁ","pref":"愛知県","city":"豊橋市","address":"前田中町"},
{"zip_code":"4400851","kana_pref":"ｱｲﾁｹﾝ","kana_city":"ﾄﾖﾊｼｼ","kana_address":"ﾏｴﾀﾞﾐﾅﾐﾏﾁ","pref":"愛知県","city":"豊橋市","address":"前田南町"},
{"zip_code":"4400055","kana_pref":"ｱｲﾁｹﾝ","kana_city":"ﾄﾖﾊｼｼ","kana_address":"ﾏｴﾊﾀﾁｮｳ","pref":"愛知県","city":"豊橋市","address":"前畑町"},
{"zip_code":"4400897","kana_pref":"ｱｲﾁｹﾝ","kana_city":"ﾄﾖﾊｼｼ","kana_address":"ﾏﾂﾊﾞﾁｮｳ","pref":"愛知県","city":"豊橋市","address":"松葉町"},
{"zip_code":"4400069","kana_pref":"ｱｲﾁｹﾝ","kana_city":"ﾄﾖﾊｼｼ","kana_address":"ﾐｿﾉﾁｮｳ","pref":"愛知県","city":"豊橋市","address":"御園町"},
{"zip_code":"4400005","kana_pref":"ｱｲﾁｹﾝ","kana_city":"ﾄﾖﾊｼｼ","kana_address":"ﾐﾄﾞﾘｶﾞｵｶ","pref":"愛知県","city":"豊橋市","address":"緑ケ丘"},
{"zip_code":"4400073","kana_pref":"ｱｲﾁｹﾝ","kana_city":"ﾄﾖﾊｼｼ","kana_address":"ﾐﾅﾄﾏﾁ","pref":"愛知県","city":"豊橋市","address":"湊町"},
{"zip_code":"4400056","kana_pref":"ｱｲﾁｹﾝ","kana_city":"ﾄﾖﾊｼｼ","kana_address":"ﾐﾅﾐｱｻﾋﾏﾁ","pref":"愛知県","city":"豊橋市","address":"南旭町"},
{"zip_code":"4400014","kana_pref":"ｱｲﾁｹﾝ","kana_city":"ﾄﾖﾊｼｼ","kana_address":"ﾐﾅﾐｳｼｶﾜ","pref":"愛知県","city":"豊橋市","address":"南牛川"},
{"zip_code":"4400823","kana_pref":"ｱｲﾁｹﾝ","kana_city":"ﾄﾖﾊｼｼ","kana_address":"ﾐﾅﾐｶﾜﾗﾏﾁ","pref":"愛知県","city":"豊橋市","address":"南瓦町"},
{"zip_code":"4400077","kana_pref":"ｱｲﾁｹﾝ","kana_city":"ﾄﾖﾊｼｼ","kana_address":"ﾐﾅﾐｼﾞﾏﾁｮｳ","pref":"愛知県","city":"豊橋市","address":"南島町"},
{"zip_code":"4400877","kana_pref":"ｱｲﾁｹﾝ","kana_city":"ﾄﾖﾊｼｼ","kana_address":"ﾐﾅﾐﾏﾂﾔﾏﾁｮｳ","pref":"愛知県","city":"豊橋市","address":"南松山町"},
{"zip_code":"4400838","kana_pref":"ｱｲﾁｹﾝ","kana_city":"ﾄﾖﾊｼｼ","kana_address":"ﾐﾉﾜﾁｮｳ","pref":"愛知県","city":"豊橋市","address":"三ノ輪町"},
{"zip_code":"4400837","kana_pref":"ｱｲﾁｹﾝ","kana_city":"ﾄﾖﾊｼｼ","kana_address":"ﾐﾉﾜﾁｮｳﾎﾝｺｳｼﾞ","pref":"愛知県","city":"豊橋市","address":"三ノ輪町本興寺"},
{"zip_code":"4400837","kana_pref":"ｱｲﾁｹﾝ","kana_city":"ﾄﾖﾊｼｼ","kana_address":"ﾐﾉﾜﾁｮｳﾐﾉﾜ","pref":"愛知県","city":"豊橋市","address":"三ノ輪町三ノ輪"},
{"zip_code":"4400044","kana_pref":"ｱｲﾁｹﾝ","kana_city":"ﾄﾖﾊｼｼ","kana_address":"ﾐﾔｼﾀﾁｮｳ","pref":"愛知県","city":"豊橋市","address":"宮下町"},
{"zip_code":"4400862","kana_pref":"ｱｲﾁｹﾝ","kana_city":"ﾄﾖﾊｼｼ","kana_address":"ﾑｶｲﾔﾏｵｵｲｹﾁｮｳ","pref":"愛知県","city":"豊橋市","address":"向山大池町"},
{"zip_code":"4400865","kana_pref":"ｱｲﾁｹﾝ","kana_city":"ﾄﾖﾊｼｼ","kana_address":"ﾑｶｲﾔﾏﾀﾞｲﾏﾁ","pref":"愛知県","city":"豊橋市","address":"向山台町"},
{"zip_code":"4400863","kana_pref":"ｱｲﾁｹﾝ","kana_city":"ﾄﾖﾊｼｼ","kana_address":"ﾑｶｲﾔﾏﾋｶﾞｼﾏﾁ","pref":"愛知県","city":"豊橋市","address":"向山東町"},
{"zip_code":"4400861","kana_pref":"ｱｲﾁｹﾝ","kana_city":"ﾄﾖﾊｼｼ","kana_address":"ﾑｶｲﾔﾏﾆｼﾏﾁ","pref":"愛知県","city":"豊橋市","address":"向山西町"},
{"zip_code":"4400864","kana_pref":"ｱｲﾁｹﾝ","kana_city":"ﾄﾖﾊｼｼ","kana_address":"ﾑｶｲﾔﾏﾁｮｳ","pref":"愛知県","city":"豊橋市","address":"向山町"},
{"zip_code":"4400854","kana_pref":"ｱｲﾁｹﾝ","kana_city":"ﾄﾖﾊｼｼ","kana_address":"ﾔﾏﾀﾞﾁｮｳ","pref":"愛知県","city":"豊橋市","address":"山田町"},
{"zip_code":"4400093","kana_pref":"ｱｲﾁｹﾝ","kana_city":"ﾄﾖﾊｼｼ","kana_address":"ﾖｺｽｶﾁｮｳ","pref":"愛知県","city":"豊橋市","address":"横須賀町"}]}