{"zip_code":[
{"zip_code":"4410000","kana_pref":"ｱｲﾁｹﾝ","kana_city":"ﾄﾖﾊｼｼ","kana_address":"","pref":"愛知県","city":"豊橋市","address":""},
{"zip_code":"4418085","kana_pref":"ｱｲﾁｹﾝ","kana_city":"ﾄﾖﾊｼｼ","kana_address":"ｱｵﾀｹﾁｮｳ","pref":"愛知県","city":"豊橋市","address":"青竹町"},
{"zip_code":"4418151","kana_pref":"ｱｲﾁｹﾝ","kana_city":"ﾄﾖﾊｼｼ","kana_address":"ｱｹﾎﾞﾉﾁｮｳ","pref":"愛知県","city":"豊橋市","address":"曙町"},
{"zip_code":"4418074","kana_pref":"ｱｲﾁｹﾝ","kana_city":"ﾄﾖﾊｼｼ","kana_address":"ｱｹﾐﾁｮｳ","pref":"愛知県","city":"豊橋市","address":"明海町"},
{"zip_code":"4418155","kana_pref":"ｱｲﾁｹﾝ","kana_city":"ﾄﾖﾊｼｼ","kana_address":"ｱｼﾊﾗﾁｮｳ","pref":"愛知県","city":"豊橋市","address":"芦原町"},
{"zip_code":"4413211","kana_pref":"ｱｲﾁｹﾝ","kana_city":"ﾄﾖﾊｼｼ","kana_address":"ｲｺﾍﾞﾁｮｳ","pref":"愛知県","city":"豊橋市","address":"伊古部町"},
{"zip_code":"4411106","kana_pref":"ｱｲﾁｹﾝ","kana_city":"ﾄﾖﾊｼｼ","kana_address":"ｲｼﾏｷｵﾉﾀﾞﾁｮｳ","pref":"愛知県","city":"豊橋市","address":"石巻小野田町"},
{"zip_code":"4411104","kana_pref":"ｱｲﾁｹﾝ","kana_city":"ﾄﾖﾊｼｼ","kana_address":"ｲｼﾏｷﾅｶﾔﾏﾁｮｳ","pref":"愛知県","city":"豊橋市","address":"石巻中山町"},
{"zip_code":"4411102","kana_pref":"ｱｲﾁｹﾝ","kana_city":"ﾄﾖﾊｼｼ","kana_address":"ｲｼﾏｷﾆｼｶﾞﾜﾁｮｳ","pref":"愛知県","city":"豊橋市","address":"石巻西川町"},
{"zip_code":"4411103","kana_pref":"ｱｲﾁｹﾝ","kana_city":"ﾄﾖﾊｼｼ","kana_address":"ｲｼﾏｷﾊｷﾞﾋﾗﾁｮｳ","pref":"愛知県","city":"豊橋市","address":"石巻萩平町"},
{"zip_code":"4411105","kana_pref":"ｱｲﾁｹﾝ","kana_city":"ﾄﾖﾊｼｼ","kana_address":"ｲｼﾏｷﾋﾗﾉﾁｮｳ","pref":"愛知県","city":"豊橋市","address":"石巻平野町"},
{"zip_code":"4411115","kana_pref":"ｱｲﾁｹﾝ","kana_city":"ﾄﾖﾊｼｼ","kana_address":"ｲｼﾏｷﾎﾝﾏﾁ","pref":"愛知県","city":"豊橋市","address":"石巻本町"},
{"zip_code":"4411112","kana_pref":"ｱｲﾁｹﾝ","kana_city":"ﾄﾖﾊｼｼ","kana_address":"ｲｼﾏｷﾁｮｳ","pref":"愛知県","city":"豊橋市","address":"石巻町"},
{"zip_code":"4418144","kana_pref":"ｱｲﾁｹﾝ","kana_city":"ﾄﾖﾊｼｼ","kana_address":"ｲｿﾍﾞｼﾀｼﾞﾁｮｳ","pref":"愛知県","city":"豊橋市","address":"磯辺下地町"},
{"zip_code":"4418084","kana_pref":"ｱｲﾁｹﾝ","kana_city":"ﾄﾖﾊｼｼ","kana_address":"ｲﾁﾊﾞ","pref":"愛知県","city":"豊橋市","address":"市場"},
{"zip_code":"4418148","kana_pref":"ｱｲﾁｹﾝ","kana_city":"ﾄﾖﾊｼｼ","kana_address":"ｲｯｼｷﾁｮｳ","pref":"愛知県","city":"豊橋市","address":"一色町"},
{"zip_code":"4418033","kana_pref":"ｱｲﾁｹﾝ","kana_city":"ﾄﾖﾊｼｼ","kana_address":"ｲﾘﾌﾈﾁｮｳ","pref":"愛知県","city":"豊橋市","address":"入船町"},
{"zip_code":"4418134","kana_pref":"ｱｲﾁｹﾝ","kana_city":"ﾄﾖﾊｼｼ","kana_address":"ｳｴﾀﾁｮｳ","pref":"愛知県","city":"豊橋市","address":"植田町"},
{"zip_code":"4418157","kana_pref":"ｱｲﾁｹﾝ","kana_city":"ﾄﾖﾊｼｼ","kana_address":"ｳｴﾉﾁｮｳ","pref":"愛知県","city":"豊橋市","address":"上野町"},
{"zip_code":"4418147","kana_pref":"ｱｲﾁｹﾝ","kana_city":"ﾄﾖﾊｼｼ","kana_address":"ｳﾁﾊﾞﾘﾁｮｳ","pref":"愛知県","city":"豊橋市","address":"内張町"},
{"zip_code":"4413104","kana_pref":"ｱｲﾁｹﾝ","kana_city":"ﾄﾖﾊｼｼ","kana_address":"ｳﾉﾔﾁｮｳ","pref":"愛知県","city":"豊橋市","address":"雲谷町"},
{"zip_code":"4413103","kana_pref":"ｱｲﾁｹﾝ","kana_city":"ﾄﾖﾊｼｼ","kana_address":"ｳﾉﾔﾁｮｳ","pref":"愛知県","city":"豊橋市","address":"雲谷町"},
{"zip_code":"4410155","kana_pref":"ｱｲﾁｹﾝ","kana_city":"ﾄﾖﾊｼｼ","kana_address":"ｳﾒﾔﾌﾞﾁｮｳ","pref":"愛知県","city":"豊橋市","address":"梅薮町"},
{"zip_code":"4410154","kana_pref":"ｱｲﾁｹﾝ","kana_city":"ﾄﾖﾊｼｼ","kana_address":"ｳﾒﾔﾌﾞﾆｼﾏﾁ","pref":"愛知県","city":"豊橋市","address":"梅薮西町"},
{"zip_code":"4418111","kana_pref":"ｱｲﾁｹﾝ","kana_city":"ﾄﾖﾊｼｼ","kana_address":"ｴｼﾞﾏﾁｮｳ","pref":"愛知県","city":"豊橋市","address":"江島町"},
{"zip_code":"4413301","kana_pref":"ｱｲﾁｹﾝ","kana_city":"ﾄﾖﾊｼｼ","kana_address":"ｵｲﾂﾁｮｳ","pref":"愛知県","city":"豊橋市","address":"老津町"},
{"zip_code":"4418082","kana_pref":"ｱｲﾁｹﾝ","kana_city":"ﾄﾖﾊｼｼ","kana_address":"ｵｳｶﾝﾁｮｳ","pref":"愛知県","city":"豊橋市","address":"往完町"},
{"zip_code":"4413131","kana_pref":"ｱｲﾁｹﾝ","kana_city":"ﾄﾖﾊｼｼ","kana_address":"ｵｵｲﾜﾁｮｳ","pref":"愛知県","city":"豊橋市","address":"大岩町"},
{"zip_code":"4413141","kana_pref":"ｱｲﾁｹﾝ","kana_city":"ﾄﾖﾊｼｼ","kana_address":"ｵｵｲﾜﾁｮｳ","pref":"愛知県","city":"豊橋市","address":"大岩町"},
{"zip_code":"4413146","kana_pref":"ｱｲﾁｹﾝ","kana_city":"ﾄﾖﾊｼｼ","kana_address":"ｵｵｲﾜﾁｮｳ","pref":"愛知県","city":"豊橋市","address":"大岩町"},
{"zip_code":"4413134","kana_pref":"ｱｲﾁｹﾝ","kana_city":"ﾄﾖﾊｼｼ","kana_address":"ｵｵｲﾜﾁｮｳ","pref":"愛知県","city":"豊橋市","address":"大岩町"},
{"zip_code":"4413132","kana_pref":"ｱｲﾁｹﾝ","kana_city":"ﾄﾖﾊｼｼ","kana_address":"ｵｵｲﾜﾁｮｳ","pref":"愛知県","city":"豊橋市","address":"大岩町"},
{"zip_code":"4413133","kana_pref":"ｱｲﾁｹﾝ","kana_city":"ﾄﾖﾊｼｼ","kana_address":"ｵｵｲﾜﾁｮｳ","pref":"愛知県","city":"豊橋市","address":"大岩町"},
{"zip_code":"4413142","kana_pref":"ｱｲﾁｹﾝ","kana_city":"ﾄﾖﾊｼｼ","kana_address":"ｵｵｲﾜﾁｮｳ","pref":"愛知県","city":"豊橋市","address":"大岩町"},
{"zip_code":"4413143","kana_pref":"ｱｲﾁｹﾝ","kana_city":"ﾄﾖﾊｼｼ","kana_address":"ｵｵｲﾜﾁｮｳ","pref":"愛知県","city":"豊橋市","address":"大岩町"},
{"zip_code":"4413144","kana_pref":"ｱｲﾁｹﾝ","kana_city":"ﾄﾖﾊｼｼ","kana_address":"ｵｵｲﾜﾁｮｳ","pref":"愛知県","city":"豊橋市","address":"大岩町"},
{"zip_code":"4413145","kana_pref":"ｱｲﾁｹﾝ","kana_city":"ﾄﾖﾊｼｼ","kana_address":"ｵｵｲﾜﾁｮｳ","pref":"愛知県","city":"豊橋市","address":"大岩町"},
{"zip_code":"4413147","kana_pref":"ｱｲﾁｹﾝ","kana_city":"ﾄﾖﾊｼｼ","kana_address":"ｵｵｲﾜﾁｮｳ","pref":"愛知県","city":"豊橋市","address":"大岩町"},
{"zip_code":"4418073","kana_pref":"ｱｲﾁｹﾝ","kana_city":"ﾄﾖﾊｼｼ","kana_address":"ｵｵｻｷﾁｮｳ","pref":"愛知県","city":"豊橋市","address":"大崎町"},
{"zip_code":"4418133","kana_pref":"ｱｲﾁｹﾝ","kana_city":"ﾄﾖﾊｼｼ","kana_address":"ｵｵｼﾐｽﾞﾁｮｳ","pref":"愛知県","city":"豊橋市","address":"大清水町"},
{"zip_code":"4418071","kana_pref":"ｱｲﾁｹﾝ","kana_city":"ﾄﾖﾊｼｼ","kana_address":"ｵｵﾔﾏﾁｮｳ","pref":"愛知県","city":"豊橋市","address":"大山町"},
{"zip_code":"4413101","kana_pref":"ｱｲﾁｹﾝ","kana_city":"ﾄﾖﾊｼｼ","kana_address":"ｵｵﾜｷﾁｮｳ","pref":"愛知県","city":"豊橋市","address":"大脇町"},
{"zip_code":"4413102","kana_pref":"ｱｲﾁｹﾝ","kana_city":"ﾄﾖﾊｼｼ","kana_address":"ｵｵﾜｷﾁｮｳ","pref":"愛知県","city":"豊橋市","address":"大脇町"},
{"zip_code":"4418066","kana_pref":"ｱｲﾁｹﾝ","kana_city":"ﾄﾖﾊｼｼ","kana_address":"ｵｶﾞｻｷﾁｮｳ","pref":"愛知県","city":"豊橋市","address":"王ケ崎町"},
{"zip_code":"4418068","kana_pref":"ｱｲﾁｹﾝ","kana_city":"ﾄﾖﾊｼｼ","kana_address":"ｶﾐﾉﾜﾁｮｳ","pref":"愛知県","city":"豊橋市","address":"神ノ輪町"},
{"zip_code":"4418047","kana_pref":"ｱｲﾁｹﾝ","kana_city":"ﾄﾖﾊｼｼ","kana_address":"ｶﾓﾀﾞﾁｮｳ","pref":"愛知県","city":"豊橋市","address":"鴨田町"},
{"zip_code":"4411101","kana_pref":"ｱｲﾁｹﾝ","kana_city":"ﾄﾖﾊｼｼ","kana_address":"ｶﾓﾁｮｳ","pref":"愛知県","city":"豊橋市","address":"賀茂町"},
{"zip_code":"4418045","kana_pref":"ｱｲﾁｹﾝ","kana_city":"ﾄﾖﾊｼｼ","kana_address":"ｷﾀｵｶﾁｮｳ","pref":"愛知県","city":"豊橋市","address":"北丘町"},
{"zip_code":"4418017","kana_pref":"ｱｲﾁｹﾝ","kana_city":"ﾄﾖﾊｼｼ","kana_address":"ｷﾀｶﾞﾜﾁｮｳ","pref":"愛知県","city":"豊橋市","address":"北側町"},
{"zip_code":"4418105","kana_pref":"ｱｲﾁｹﾝ","kana_city":"ﾄﾖﾊｼｼ","kana_address":"ｷﾀﾔﾏﾁｮｳ","pref":"愛知県","city":"豊橋市","address":"北山町"},
{"zip_code":"4418141","kana_pref":"ｱｲﾁｹﾝ","kana_city":"ﾄﾖﾊｼｼ","kana_address":"ｸｻﾏﾁｮｳ","pref":"愛知県","city":"豊橋市","address":"草間町"},
{"zip_code":"4418042","kana_pref":"ｱｲﾁｹﾝ","kana_city":"ﾄﾖﾊｼｼ","kana_address":"ｺｲｹﾁｮｳ","pref":"愛知県","city":"豊橋市","address":"小池町"},
{"zip_code":"4413122","kana_pref":"ｱｲﾁｹﾝ","kana_city":"ﾄﾖﾊｼｼ","kana_address":"ｺｼﾞﾏﾁｮｳ","pref":"愛知県","city":"豊橋市","address":"小島町"},
{"zip_code":"4418067","kana_pref":"ｱｲﾁｹﾝ","kana_city":"ﾄﾖﾊｼｼ","kana_address":"ｺﾊﾏﾁｮｳ","pref":"愛知県","city":"豊橋市","address":"小浜町"},
{"zip_code":"4418145","kana_pref":"ｱｲﾁｹﾝ","kana_city":"ﾄﾖﾊｼｼ","kana_address":"ｺﾏｶﾞﾀﾁｮｳ","pref":"愛知県","city":"豊橋市","address":"駒形町"},
{"zip_code":"4418109","kana_pref":"ｱｲﾁｹﾝ","kana_city":"ﾄﾖﾊｼｼ","kana_address":"ｺﾏﾂﾁｮｳ","pref":"愛知県","city":"豊橋市","address":"小松町"},
{"zip_code":"4413123","kana_pref":"ｱｲﾁｹﾝ","kana_city":"ﾄﾖﾊｼｼ","kana_address":"ｺﾏﾂﾊﾞﾗﾁｮｳ","pref":"愛知県","city":"豊橋市","address":"小松原町"},
{"zip_code":"4418003","kana_pref":"ｱｲﾁｹﾝ","kana_city":"ﾄﾖﾊｼｼ","kana_address":"ｺﾑｶｲﾁｮｳ","pref":"愛知県","city":"豊橋市","address":"小向町"},
{"zip_code":"4418011","kana_pref":"ｱｲﾁｹﾝ","kana_city":"ﾄﾖﾊｼｼ","kana_address":"ｺﾓｸﾞﾁﾁｮｳ","pref":"愛知県","city":"豊橋市","address":"菰口町"},
{"zip_code":"4418152","kana_pref":"ｱｲﾁｹﾝ","kana_city":"ﾄﾖﾊｼｼ","kana_address":"ｻﾝﾎﾞﾝｷﾞﾁｮｳ","pref":"愛知県","city":"豊橋市","address":"三本木町"},
{"zip_code":"4418069","kana_pref":"ｱｲﾁｹﾝ","kana_city":"ﾄﾖﾊｼｼ","kana_address":"ｼｵｻﾞｷﾁｮｳ","pref":"愛知県","city":"豊橋市","address":"潮崎町"},
{"zip_code":"4418021","kana_pref":"ｱｲﾁｹﾝ","kana_city":"ﾄﾖﾊｼｼ","kana_address":"ｼﾗｶﾜﾁｮｳ","pref":"愛知県","city":"豊橋市","address":"白河町"},
{"zip_code":"4413214","kana_pref":"ｱｲﾁｹﾝ","kana_city":"ﾄﾖﾊｼｼ","kana_address":"ｼﾛｼﾀﾁｮｳ","pref":"愛知県","city":"豊橋市","address":"城下町"},
{"zip_code":"4418146","kana_pref":"ｱｲﾁｹﾝ","kana_city":"ﾄﾖﾊｼｼ","kana_address":"ｼﾛﾔﾏﾁｮｳ","pref":"愛知県","city":"豊橋市","address":"城山町"},
{"zip_code":"4418016","kana_pref":"ｱｲﾁｹﾝ","kana_city":"ﾄﾖﾊｼｼ","kana_address":"ｼﾝｻｶｴﾁｮｳ","pref":"愛知県","city":"豊橋市","address":"新栄町"},
{"zip_code":"4410153","kana_pref":"ｱｲﾁｹﾝ","kana_city":"ﾄﾖﾊｼｼ","kana_address":"ｼﾝﾆｼﾊﾏﾁｮｳ","pref":"愛知県","city":"豊橋市","address":"新西浜町"},
{"zip_code":"4418077","kana_pref":"ｱｲﾁｹﾝ","kana_city":"ﾄﾖﾊｼｼ","kana_address":"ｼﾞﾝﾉｼﾝﾃﾞﾝﾁｮｳ","pref":"愛知県","city":"豊橋市","address":"神野新田町"},
{"zip_code":"4418076","kana_pref":"ｱｲﾁｹﾝ","kana_city":"ﾄﾖﾊｼｼ","kana_address":"ｼﾞﾝﾉﾆｼﾏﾁ","pref":"愛知県","city":"豊橋市","address":"神野西町"},
{"zip_code":"4418075","kana_pref":"ｱｲﾁｹﾝ","kana_city":"ﾄﾖﾊｼｼ","kana_address":"ｼﾞﾝﾉﾌﾄｳﾁｮｳ","pref":"愛知県","city":"豊橋市","address":"神野ふ頭町"},
{"zip_code":"4413302","kana_pref":"ｱｲﾁｹﾝ","kana_city":"ﾄﾖﾊｼｼ","kana_address":"ｽｷﾞﾔﾏﾁｮｳ","pref":"愛知県","city":"豊橋市","address":"杉山町"},
{"zip_code":"4411111","kana_pref":"ｱｲﾁｹﾝ","kana_city":"ﾄﾖﾊｼｼ","kana_address":"ｽｾﾁｮｳ","pref":"愛知県","city":"豊橋市","address":"嵩山町"},
{"zip_code":"4418043","kana_pref":"ｱｲﾁｹﾝ","kana_city":"ﾄﾖﾊｼｼ","kana_address":"ﾀｶｼｲｼﾂﾞｶﾁｮｳ","pref":"愛知県","city":"豊橋市","address":"高師石塚町"},
{"zip_code":"4418153","kana_pref":"ｱｲﾁｹﾝ","kana_city":"ﾄﾖﾊｼｼ","kana_address":"ﾀｶｼﾎﾝｺﾞｳﾁｮｳ","pref":"愛知県","city":"豊橋市","address":"高師本郷町"},
{"zip_code":"4418156","kana_pref":"ｱｲﾁｹﾝ","kana_city":"ﾄﾖﾊｼｼ","kana_address":"ﾀｶｼﾁｮｳ","pref":"愛知県","city":"豊橋市","address":"高師町"},
{"zip_code":"4418156","kana_pref":"ｱｲﾁｹﾝ","kana_city":"ﾄﾖﾊｼｼ","kana_address":"ﾀｶｼﾁｮｳ","pref":"愛知県","city":"豊橋市","address":"高師町"},
{"zip_code":"4418156","kana_pref":"ｱｲﾁｹﾝ","kana_city":"ﾄﾖﾊｼｼ","kana_address":"ﾀｶｼﾁｮｳ","pref":"愛知県","city":"豊橋市","address":"高師町"},
{"zip_code":"4418156","kana_pref":"ｱｲﾁｹﾝ","kana_city":"ﾄﾖﾊｼｼ","kana_address":"ﾀｶｼﾁｮｳ","pref":"愛知県","city":"豊橋市","address":"高師町"},
{"zip_code":"4418006","kana_pref":"ｱｲﾁｹﾝ","kana_city":"ﾄﾖﾊｼｼ","kana_address":"ﾀｶｽﾁｮｳ","pref":"愛知県","city":"豊橋市","address":"高洲町"},
{"zip_code":"4418116","kana_pref":"ｱｲﾁｹﾝ","kana_city":"ﾄﾖﾊｼｼ","kana_address":"ﾀｶﾀﾞﾁｮｳ","pref":"愛知県","city":"豊橋市","address":"高田町"},
{"zip_code":"4413203","kana_pref":"ｱｲﾁｹﾝ","kana_city":"ﾄﾖﾊｼｼ","kana_address":"ﾀｶﾂｶﾁｮｳ","pref":"愛知県","city":"豊橋市","address":"高塚町"},
{"zip_code":"4418028","kana_pref":"ｱｲﾁｹﾝ","kana_city":"ﾄﾖﾊｼｼ","kana_address":"ﾀﾁﾊﾞﾅﾁｮｳ","pref":"愛知県","city":"豊橋市","address":"立花町"},
{"zip_code":"4418015","kana_pref":"ｱｲﾁｹﾝ","kana_city":"ﾄﾖﾊｼｼ","kana_address":"ﾂｷｼﾞﾁｮｳ","pref":"愛知県","city":"豊橋市","address":"築地町"},
{"zip_code":"4413124","kana_pref":"ｱｲﾁｹﾝ","kana_city":"ﾄﾖﾊｼｼ","kana_address":"ﾃﾗｻﾜﾁｮｳ","pref":"愛知県","city":"豊橋市","address":"寺沢町"},
{"zip_code":"4418122","kana_pref":"ｱｲﾁｹﾝ","kana_city":"ﾄﾖﾊｼｼ","kana_address":"ﾃﾝﾊﾟｸﾁｮｳ","pref":"愛知県","city":"豊橋市","address":"天伯町"},
{"zip_code":"4418038","kana_pref":"ｱｲﾁｹﾝ","kana_city":"ﾄﾖﾊｼｼ","kana_address":"ﾄﾞｳｻﾞｶﾁｮｳ","pref":"愛知県","city":"豊橋市","address":"堂坂町"},
{"zip_code":"4418064","kana_pref":"ｱｲﾁｹﾝ","kana_city":"ﾄﾖﾊｼｼ","kana_address":"ﾄﾐﾓﾄﾁｮｳ","pref":"愛知県","city":"豊橋市","address":"富本町"},
{"zip_code":"4418086","kana_pref":"ｱｲﾁｹﾝ","kana_city":"ﾄﾖﾊｼｼ","kana_address":"ﾄﾝﾔﾁｮｳ","pref":"愛知県","city":"豊橋市","address":"問屋町"},
{"zip_code":"4418031","kana_pref":"ｱｲﾁｹﾝ","kana_city":"ﾄﾖﾊｼｼ","kana_address":"ﾅｶｺﾞｳﾁｮｳ","pref":"愛知県","city":"豊橋市","address":"中郷町"},
{"zip_code":"4418149","kana_pref":"ｱｲﾁｹﾝ","kana_city":"ﾄﾖﾊｼｼ","kana_address":"ﾅｶﾉﾁｮｳ","pref":"愛知県","city":"豊橋市","address":"中野町"},
{"zip_code":"4418037","kana_pref":"ｱｲﾁｹﾝ","kana_city":"ﾄﾖﾊｼｼ","kana_address":"ﾅｶﾊｼﾗﾁｮｳ","pref":"愛知県","city":"豊橋市","address":"中橋良町"},
{"zip_code":"4418065","kana_pref":"ｱｲﾁｹﾝ","kana_city":"ﾄﾖﾊｼｼ","kana_address":"ﾅｶﾊﾏﾁｮｳ","pref":"愛知県","city":"豊橋市","address":"中浜町"},
{"zip_code":"4413106","kana_pref":"ｱｲﾁｹﾝ","kana_city":"ﾄﾖﾊｼｼ","kana_address":"ﾅｶﾊﾗﾁｮｳ","pref":"愛知県","city":"豊橋市","address":"中原町"},
{"zip_code":"4413105","kana_pref":"ｱｲﾁｹﾝ","kana_city":"ﾄﾖﾊｼｼ","kana_address":"ﾅｶﾊﾗﾁｮｳ","pref":"愛知県","city":"豊橋市","address":"中原町"},
{"zip_code":"4413213","kana_pref":"ｱｲﾁｹﾝ","kana_city":"ﾄﾖﾊｼｼ","kana_address":"ﾆｼｱｶｻﾜﾁｮｳ","pref":"愛知県","city":"豊橋市","address":"西赤沢町"},
{"zip_code":"4418027","kana_pref":"ｱｲﾁｹﾝ","kana_city":"ﾄﾖﾊｼｼ","kana_address":"ﾆｼｷﾏﾁ","pref":"愛知県","city":"豊橋市","address":"錦町"},
{"zip_code":"4418048","kana_pref":"ｱｲﾁｹﾝ","kana_city":"ﾄﾖﾊｼｼ","kana_address":"ﾆｼｺｲｹﾁｮｳ","pref":"愛知県","city":"豊橋市","address":"西小池町"},
{"zip_code":"4418154","kana_pref":"ｱｲﾁｹﾝ","kana_city":"ﾄﾖﾊｼｼ","kana_address":"ﾆｼﾀｶｼﾁｮｳ","pref":"愛知県","city":"豊橋市","address":"西高師町"},
{"zip_code":"4413202","kana_pref":"ｱｲﾁｹﾝ","kana_city":"ﾄﾖﾊｼｼ","kana_address":"ﾆｼﾅﾅﾈﾁｮｳ","pref":"愛知県","city":"豊橋市","address":"西七根町"},
{"zip_code":"4418039","kana_pref":"ｱｲﾁｹﾝ","kana_city":"ﾄﾖﾊｼｼ","kana_address":"ﾆｼﾊｼﾗﾁｮｳ","pref":"愛知県","city":"豊橋市","address":"西橋良町"},
{"zip_code":"4418081","kana_pref":"ｱｲﾁｹﾝ","kana_city":"ﾄﾖﾊｼｼ","kana_address":"ﾆｼﾊﾀﾞﾁｮｳ","pref":"愛知県","city":"豊橋市","address":"西羽田町"},
{"zip_code":"4410156","kana_pref":"ｱｲﾁｹﾝ","kana_city":"ﾄﾖﾊｼｼ","kana_address":"ﾆｼﾊﾏﾁｮｳ","pref":"愛知県","city":"豊橋市","address":"西浜町"},
{"zip_code":"4418113","kana_pref":"ｱｲﾁｹﾝ","kana_city":"ﾄﾖﾊｼｼ","kana_address":"ﾆｼﾐﾕｷﾁｮｳ","pref":"愛知県","city":"豊橋市","address":"西幸町"},
{"zip_code":"4413121","kana_pref":"ｱｲﾁｹﾝ","kana_city":"ﾄﾖﾊｼｼ","kana_address":"ﾆｼﾔﾏﾁｮｳ","pref":"愛知県","city":"豊橋市","address":"西山町"},
{"zip_code":"4418022","kana_pref":"ｱｲﾁｹﾝ","kana_city":"ﾄﾖﾊｼｼ","kana_address":"ﾉｸﾞﾛﾁｮｳ","pref":"愛知県","city":"豊橋市","address":"野黒町"},
{"zip_code":"4418001","kana_pref":"ｱｲﾁｹﾝ","kana_city":"ﾄﾖﾊｼｼ","kana_address":"ﾉﾀﾞﾁｮｳ","pref":"愛知県","city":"豊橋市","address":"野田町"},
{"zip_code":"4418125","kana_pref":"ｱｲﾁｹﾝ","kana_city":"ﾄﾖﾊｼｼ","kana_address":"ﾉﾖﾘﾀﾞｲ","pref":"愛知県","city":"豊橋市","address":"野依台"},
{"zip_code":"4418124","kana_pref":"ｱｲﾁｹﾝ","kana_city":"ﾄﾖﾊｼｼ","kana_address":"ﾉﾖﾘﾁｮｳ","pref":"愛知県","city":"豊橋市","address":"野依町"},
{"zip_code":"4418054","kana_pref":"ｱｲﾁｹﾝ","kana_city":"ﾄﾖﾊｼｼ","kana_address":"ﾊｼﾗ1ﾊﾞﾝﾁｮｳ","pref":"愛知県","city":"豊橋市","address":"柱一番町"},
{"zip_code":"4418053","kana_pref":"ｱｲﾁｹﾝ","kana_city":"ﾄﾖﾊｼｼ","kana_address":"ﾊｼﾗ2ﾊﾞﾝﾁｮｳ","pref":"愛知県","city":"豊橋市","address":"柱二番町"},
{"zip_code":"4418052","kana_pref":"ｱｲﾁｹﾝ","kana_city":"ﾄﾖﾊｼｼ","kana_address":"ﾊｼﾗ3ﾊﾞﾝﾁｮｳ","pref":"愛知県","city":"豊橋市","address":"柱三番町"},
{"zip_code":"4418051","kana_pref":"ｱｲﾁｹﾝ","kana_city":"ﾄﾖﾊｼｼ","kana_address":"ﾊｼﾗ4ﾊﾞﾝﾁｮｳ","pref":"愛知県","city":"豊橋市","address":"柱四番町"},
{"zip_code":"4418059","kana_pref":"ｱｲﾁｹﾝ","kana_city":"ﾄﾖﾊｼｼ","kana_address":"ﾊｼﾗ5ﾊﾞﾝﾁｮｳ","pref":"愛知県","city":"豊橋市","address":"柱五番町"},
{"zip_code":"4418058","kana_pref":"ｱｲﾁｹﾝ","kana_city":"ﾄﾖﾊｼｼ","kana_address":"ﾊｼﾗ6ﾊﾞﾝﾁｮｳ","pref":"愛知県","city":"豊橋市","address":"柱六番町"},
{"zip_code":"4418057","kana_pref":"ｱｲﾁｹﾝ","kana_city":"ﾄﾖﾊｼｼ","kana_address":"ﾊｼﾗ7ﾊﾞﾝﾁｮｳ","pref":"愛知県","city":"豊橋市","address":"柱七番町"},
{"zip_code":"4418056","kana_pref":"ｱｲﾁｹﾝ","kana_city":"ﾄﾖﾊｼｼ","kana_address":"ﾊｼﾗ8ﾊﾞﾝﾁｮｳ","pref":"愛知県","city":"豊橋市","address":"柱八番町"},
{"zip_code":"4418055","kana_pref":"ｱｲﾁｹﾝ","kana_city":"ﾄﾖﾊｼｼ","kana_address":"ﾊｼﾗ9ﾊﾞﾝﾁｮｳ","pref":"愛知県","city":"豊橋市","address":"柱九番町"},
{"zip_code":"4418063","kana_pref":"ｱｲﾁｹﾝ","kana_city":"ﾄﾖﾊｼｼ","kana_address":"ﾊｼﾗﾁｮｳ","pref":"愛知県","city":"豊橋市","address":"橋良町"},
{"zip_code":"4418121","kana_pref":"ｱｲﾁｹﾝ","kana_city":"ﾄﾖﾊｼｼ","kana_address":"ﾊﾀｹﾀﾞﾁｮｳ","pref":"愛知県","city":"豊橋市","address":"畑ケ田町"},
{"zip_code":"4418012","kana_pref":"ｱｲﾁｹﾝ","kana_city":"ﾄﾖﾊｼｼ","kana_address":"ﾊﾀﾞﾁｮｳ","pref":"愛知県","city":"豊橋市","address":"羽田町"},
{"zip_code":"4418013","kana_pref":"ｱｲﾁｹﾝ","kana_city":"ﾄﾖﾊｼｼ","kana_address":"ﾊﾅﾀﾞ1ﾊﾞﾝﾁｮｳ","pref":"愛知県","city":"豊橋市","address":"花田一番町"},
{"zip_code":"4418014","kana_pref":"ｱｲﾁｹﾝ","kana_city":"ﾄﾖﾊｼｼ","kana_address":"ﾊﾅﾀﾞ2ﾊﾞﾝﾁｮｳ","pref":"愛知県","city":"豊橋市","address":"花田二番町"},
{"zip_code":"4418018","kana_pref":"ｱｲﾁｹﾝ","kana_city":"ﾄﾖﾊｼｼ","kana_address":"ﾊﾅﾀﾞ3ﾊﾞﾝﾁｮｳ","pref":"愛知県","city":"豊橋市","address":"花田三番町"},
{"zip_code":"4418024","kana_pref":"ｱｲﾁｹﾝ","kana_city":"ﾄﾖﾊｼｼ","kana_address":"ﾊﾅﾀﾞﾁｮｳ","pref":"愛知県","city":"豊橋市","address":"花田町"},
{"zip_code":"4418024","kana_pref":"ｱｲﾁｹﾝ","kana_city":"ﾄﾖﾊｼｼ","kana_address":"ﾊﾅﾀﾞﾁｮｳ","pref":"愛知県","city":"豊橋市","address":"花田町"},
{"zip_code":"4418024","kana_pref":"ｱｲﾁｹﾝ","kana_city":"ﾄﾖﾊｼｼ","kana_address":"ﾊﾅﾀﾞﾁｮｳ","pref":"愛知県","city":"豊橋市","address":"花田町"},
{"zip_code":"4418019","kana_pref":"ｱｲﾁｹﾝ","kana_city":"ﾄﾖﾊｼｼ","kana_address":"ﾊﾅﾀﾞﾁｮｳ","pref":"愛知県","city":"豊橋市","address":"花田町"},
{"zip_code":"4418032","kana_pref":"ｱｲﾁｹﾝ","kana_city":"ﾄﾖﾊｼｼ","kana_address":"ﾊﾅﾅｶﾁｮｳ","pref":"愛知県","city":"豊橋市","address":"花中町"},
{"zip_code":"4418026","kana_pref":"ｱｲﾁｹﾝ","kana_city":"ﾄﾖﾊｼｼ","kana_address":"ﾊﾈｲﾆｼﾏﾁ","pref":"愛知県","city":"豊橋市","address":"羽根井西町"},
{"zip_code":"4418029","kana_pref":"ｱｲﾁｹﾝ","kana_city":"ﾄﾖﾊｼｼ","kana_address":"ﾊﾈｲﾎﾝﾏﾁ","pref":"愛知県","city":"豊橋市","address":"羽根井本町"},
{"zip_code":"4418025","kana_pref":"ｱｲﾁｹﾝ","kana_city":"ﾄﾖﾊｼｼ","kana_address":"ﾊﾈｲﾁｮｳ","pref":"愛知県","city":"豊橋市","address":"羽根井町"},
{"zip_code":"4418117","kana_pref":"ｱｲﾁｹﾝ","kana_city":"ﾄﾖﾊｼｼ","kana_address":"ﾊﾏﾐﾁﾁｮｳ","pref":"愛知県","city":"豊橋市","address":"浜道町"},
{"zip_code":"4413111","kana_pref":"ｱｲﾁｹﾝ","kana_city":"ﾄﾖﾊｼｼ","kana_address":"ﾊﾗﾁｮｳ","pref":"愛知県","city":"豊橋市","address":"原町"},
{"zip_code":"4413212","kana_pref":"ｱｲﾁｹﾝ","kana_city":"ﾄﾖﾊｼｼ","kana_address":"ﾋｶﾞｼｱｶｻﾜﾁｮｳ","pref":"愛知県","city":"豊橋市","address":"東赤沢町"},
{"zip_code":"4418131","kana_pref":"ｱｲﾁｹﾝ","kana_city":"ﾄﾖﾊｼｼ","kana_address":"ﾋｶﾞｼｵｵｼﾐｽﾞﾁｮｳ","pref":"愛知県","city":"豊橋市","address":"東大清水町"},
{"zip_code":"4418062","kana_pref":"ｱｲﾁｹﾝ","kana_city":"ﾄﾖﾊｼｼ","kana_address":"ﾋｶﾞｼｺﾊﾏﾁｮｳ","pref":"愛知県","city":"豊橋市","address":"東小浜町"},
{"zip_code":"4418115","kana_pref":"ｱｲﾁｹﾝ","kana_city":"ﾄﾖﾊｼｼ","kana_address":"ﾋｶﾞｼﾀｶﾀﾞﾁｮｳ","pref":"愛知県","city":"豊橋市","address":"東高田町"},
{"zip_code":"4413201","kana_pref":"ｱｲﾁｹﾝ","kana_city":"ﾄﾖﾊｼｼ","kana_address":"ﾋｶﾞｼﾅﾅﾈﾁｮｳ","pref":"愛知県","city":"豊橋市","address":"東七根町"},
{"zip_code":"4418036","kana_pref":"ｱｲﾁｹﾝ","kana_city":"ﾄﾖﾊｼｼ","kana_address":"ﾋｶﾞｼﾊｼﾗﾁｮｳ","pref":"愛知県","city":"豊橋市","address":"東橋良町"},
{"zip_code":"4413112","kana_pref":"ｱｲﾁｹﾝ","kana_city":"ﾄﾖﾊｼｼ","kana_address":"ﾋｶﾞｼﾎｿﾔﾁｮｳ","pref":"愛知県","city":"豊橋市","address":"東細谷町"},
{"zip_code":"4411113","kana_pref":"ｱｲﾁｹﾝ","kana_city":"ﾄﾖﾊｼｼ","kana_address":"ﾋｶﾞｼﾓﾘｵｶ","pref":"愛知県","city":"豊橋市","address":"東森岡"},
{"zip_code":"4418083","kana_pref":"ｱｲﾁｹﾝ","kana_city":"ﾄﾖﾊｼｼ","kana_address":"ﾋｶﾞｼﾜｷ","pref":"愛知県","city":"豊橋市","address":"東脇"},
{"zip_code":"4410151","kana_pref":"ｱｲﾁｹﾝ","kana_city":"ﾄﾖﾊｼｼ","kana_address":"ﾋｼｷﾉﾁｮｳ","pref":"愛知県","city":"豊橋市","address":"日色野町"},
{"zip_code":"4418046","kana_pref":"ｱｲﾁｹﾝ","kana_city":"ﾄﾖﾊｼｼ","kana_address":"ﾌｸｵｶﾁｮｳ","pref":"愛知県","city":"豊橋市","address":"福岡町"},
{"zip_code":"4418005","kana_pref":"ｱｲﾁｹﾝ","kana_city":"ﾄﾖﾊｼｼ","kana_address":"ﾌｸｼﾏﾁｮｳ","pref":"愛知県","city":"豊橋市","address":"富久縞町"},
{"zip_code":"4418061","kana_pref":"ｱｲﾁｹﾝ","kana_city":"ﾄﾖﾊｼｼ","kana_address":"ﾌｼﾞｻﾜﾁｮｳ","pref":"愛知県","city":"豊橋市","address":"藤沢町"},
{"zip_code":"4418114","kana_pref":"ｱｲﾁｹﾝ","kana_city":"ﾄﾖﾊｼｼ","kana_address":"ﾌｼﾞﾅﾐﾁｮｳ","pref":"愛知県","city":"豊橋市","address":"藤並町"},
{"zip_code":"4418135","kana_pref":"ｱｲﾁｹﾝ","kana_city":"ﾄﾖﾊｼｼ","kana_address":"ﾌｼﾞﾐﾀﾞｲ","pref":"愛知県","city":"豊橋市","address":"富士見台"},
{"zip_code":"4413126","kana_pref":"ｱｲﾁｹﾝ","kana_city":"ﾄﾖﾊｼｼ","kana_address":"ﾌｼﾞﾐﾁｮｳ","pref":"愛知県","city":"豊橋市","address":"冨士見町"},
{"zip_code":"4413153","kana_pref":"ｱｲﾁｹﾝ","kana_city":"ﾄﾖﾊｼｼ","kana_address":"ﾌﾀｶﾞﾜﾁｮｳ","pref":"愛知県","city":"豊橋市","address":"二川町"},
{"zip_code":"4413154","kana_pref":"ｱｲﾁｹﾝ","kana_city":"ﾄﾖﾊｼｼ","kana_address":"ﾌﾀｶﾞﾜﾁｮｳ","pref":"愛知県","city":"豊橋市","address":"二川町"},
{"zip_code":"4413152","kana_pref":"ｱｲﾁｹﾝ","kana_city":"ﾄﾖﾊｼｼ","kana_address":"ﾌﾀｶﾞﾜﾁｮｳ","pref":"愛知県","city":"豊橋市","address":"二川町"},
{"zip_code":"4413151","kana_pref":"ｱｲﾁｹﾝ","kana_city":"ﾄﾖﾊｼｼ","kana_address":"ﾌﾀｶﾞﾜﾁｮｳ","pref":"愛知県","city":"豊橋市","address":"二川町"},
{"zip_code":"4413155","kana_pref":"ｱｲﾁｹﾝ","kana_city":"ﾄﾖﾊｼｼ","kana_address":"ﾌﾀｶﾞﾜﾁｮｳ","pref":"愛知県","city":"豊橋市","address":"二川町"},
{"zip_code":"4418072","kana_pref":"ｱｲﾁｹﾝ","kana_city":"ﾄﾖﾊｼｼ","kana_address":"ﾌﾅﾄﾁｮｳ","pref":"愛知県","city":"豊橋市","address":"船渡町"},
{"zip_code":"4413125","kana_pref":"ｱｲﾁｹﾝ","kana_city":"ﾄﾖﾊｼｼ","kana_address":"ﾎｳｴｲﾁｮｳ","pref":"愛知県","city":"豊橋市","address":"豊栄町"},
{"zip_code":"4413115","kana_pref":"ｱｲﾁｹﾝ","kana_city":"ﾄﾖﾊｼｼ","kana_address":"ﾎｳｾｲﾁｮｳ","pref":"愛知県","city":"豊橋市","address":"豊清町"},
{"zip_code":"4413113","kana_pref":"ｱｲﾁｹﾝ","kana_city":"ﾄﾖﾊｼｼ","kana_address":"ﾎｿﾔﾁｮｳ","pref":"愛知県","city":"豊橋市","address":"細谷町"},
{"zip_code":"4410152","kana_pref":"ｱｲﾁｹﾝ","kana_city":"ﾄﾖﾊｼｼ","kana_address":"ﾏｴｼﾊﾞﾁｮｳ","pref":"愛知県","city":"豊橋市","address":"前芝町"},
{"zip_code":"4418112","kana_pref":"ｱｲﾁｹﾝ","kana_city":"ﾄﾖﾊｼｼ","kana_address":"ﾏｷﾉﾁｮｳ","pref":"愛知県","city":"豊橋市","address":"牧野町"},
{"zip_code":"4418108","kana_pref":"ｱｲﾁｹﾝ","kana_city":"ﾄﾖﾊｼｼ","kana_address":"ﾏﾁﾊﾀﾁｮｳ","pref":"愛知県","city":"豊橋市","address":"町畑町"},
{"zip_code":"4418143","kana_pref":"ｱｲﾁｹﾝ","kana_city":"ﾄﾖﾊｼｼ","kana_address":"ﾏﾂｲﾁｮｳ","pref":"愛知県","city":"豊橋市","address":"松井町"},
{"zip_code":"4418034","kana_pref":"ｱｲﾁｹﾝ","kana_city":"ﾄﾖﾊｼｼ","kana_address":"ﾏﾂﾑﾗﾁｮｳ","pref":"愛知県","city":"豊橋市","address":"松村町"},
{"zip_code":"4418007","kana_pref":"ｱｲﾁｹﾝ","kana_city":"ﾄﾖﾊｼｼ","kana_address":"ﾏﾐﾂﾞｶﾁｮｳ","pref":"愛知県","city":"豊橋市","address":"馬見塚町"},
{"zip_code":"4418008","kana_pref":"ｱｲﾁｹﾝ","kana_city":"ﾄﾖﾊｼｼ","kana_address":"ﾐﾂｱｲﾁｮｳ","pref":"愛知県","city":"豊橋市","address":"三ツ相町"},
{"zip_code":"4413114","kana_pref":"ｱｲﾁｹﾝ","kana_city":"ﾄﾖﾊｼｼ","kana_address":"ﾐﾂﾔﾁｮｳ","pref":"愛知県","city":"豊橋市","address":"三弥町"},
{"zip_code":"4418132","kana_pref":"ｱｲﾁｹﾝ","kana_city":"ﾄﾖﾊｼｼ","kana_address":"ﾐﾅﾐｵｵｼﾐｽﾞﾁｮｳ","pref":"愛知県","city":"豊橋市","address":"南大清水町"},
{"zip_code":"4418044","kana_pref":"ｱｲﾁｹﾝ","kana_city":"ﾄﾖﾊｼｼ","kana_address":"ﾐﾅﾐｺｲｹﾁｮｳ","pref":"愛知県","city":"豊橋市","address":"南小池町"},
{"zip_code":"4418107","kana_pref":"ｱｲﾁｹﾝ","kana_city":"ﾄﾖﾊｼｼ","kana_address":"ﾐﾅﾐｻｶｴﾁｮｳ","pref":"愛知県","city":"豊橋市","address":"南栄町"},
{"zip_code":"4418142","kana_pref":"ｱｲﾁｹﾝ","kana_city":"ﾄﾖﾊｼｼ","kana_address":"ﾑｺｳｸｻﾏﾁｮｳ","pref":"愛知県","city":"豊橋市","address":"向草間町"},
{"zip_code":"4418088","kana_pref":"ｱｲﾁｹﾝ","kana_city":"ﾄﾖﾊｼｼ","kana_address":"ﾑﾛｲﾁﾊﾞﾁｮｳ","pref":"愛知県","city":"豊橋市","address":"牟呂市場町"},
{"zip_code":"4418089","kana_pref":"ｱｲﾁｹﾝ","kana_city":"ﾄﾖﾊｼｼ","kana_address":"ﾑﾛｵｵﾆｼﾁｮｳ","pref":"愛知県","city":"豊橋市","address":"牟呂大西町"},
{"zip_code":"4418090","kana_pref":"ｱｲﾁｹﾝ","kana_city":"ﾄﾖﾊｼｼ","kana_address":"ﾑﾛｸﾓﾝﾁｮｳ","pref":"愛知県","city":"豊橋市","address":"牟呂公文町"},
{"zip_code":"4418091","kana_pref":"ｱｲﾁｹﾝ","kana_city":"ﾄﾖﾊｼｼ","kana_address":"ﾑﾛｽｲｼﾞﾝﾁｮｳ","pref":"愛知県","city":"豊橋市","address":"牟呂水神町"},
{"zip_code":"4418092","kana_pref":"ｱｲﾁｹﾝ","kana_city":"ﾄﾖﾊｼｼ","kana_address":"ﾑﾛﾄｶﾞﾐﾁｮｳ","pref":"愛知県","city":"豊橋市","address":"牟呂外神町"},
{"zip_code":"4418093","kana_pref":"ｱｲﾁｹﾝ","kana_city":"ﾄﾖﾊｼｼ","kana_address":"ﾑﾛﾅｶﾑﾗﾁｮｳ","pref":"愛知県","city":"豊橋市","address":"牟呂中村町"},
{"zip_code":"4418087","kana_pref":"ｱｲﾁｹﾝ","kana_city":"ﾄﾖﾊｼｼ","kana_address":"ﾑﾛﾁｮｳ","pref":"愛知県","city":"豊橋市","address":"牟呂町"},
{"zip_code":"4411114","kana_pref":"ｱｲﾁｹﾝ","kana_city":"ﾄﾖﾊｼｼ","kana_address":"ﾓﾘｵｶﾁｮｳ","pref":"愛知県","city":"豊橋市","address":"森岡町"},
{"zip_code":"4418041","kana_pref":"ｱｲﾁｹﾝ","kana_city":"ﾄﾖﾊｼｼ","kana_address":"ﾔｷﾞｭｳﾁｮｳ","pref":"愛知県","city":"豊橋市","address":"柳生町"},
{"zip_code":"4418023","kana_pref":"ｱｲﾁｹﾝ","kana_city":"ﾄﾖﾊｼｼ","kana_address":"ﾔﾄｵﾘﾁｮｳ","pref":"愛知県","city":"豊橋市","address":"八通町"},
{"zip_code":"4418102","kana_pref":"ｱｲﾁｹﾝ","kana_city":"ﾄﾖﾊｼｼ","kana_address":"ﾔﾏﾀﾞ1ﾊﾞﾝﾁｮｳ","pref":"愛知県","city":"豊橋市","address":"山田一番町"},
{"zip_code":"4418104","kana_pref":"ｱｲﾁｹﾝ","kana_city":"ﾄﾖﾊｼｼ","kana_address":"ﾔﾏﾀﾞ2ﾊﾞﾝﾁｮｳ","pref":"愛知県","city":"豊橋市","address":"山田二番町"},
{"zip_code":"4418103","kana_pref":"ｱｲﾁｹﾝ","kana_city":"ﾄﾖﾊｼｼ","kana_address":"ﾔﾏﾀﾞ3ﾊﾞﾝﾁｮｳ","pref":"愛知県","city":"豊橋市","address":"山田三番町"},
{"zip_code":"4418101","kana_pref":"ｱｲﾁｹﾝ","kana_city":"ﾄﾖﾊｼｼ","kana_address":"ﾔﾏﾀﾞﾁｮｳ","pref":"愛知県","city":"豊橋市","address":"山田町"},
{"zip_code":"4418106","kana_pref":"ｱｲﾁｹﾝ","kana_city":"ﾄﾖﾊｼｼ","kana_address":"ﾔﾖｲﾁｮｳ","pref":"愛知県","city":"豊橋市","address":"弥生町"},
{"zip_code":"4418035","kana_pref":"ｱｲﾁｹﾝ","kana_city":"ﾄﾖﾊｼｼ","kana_address":"ﾕｳﾗｸﾁｮｳ","pref":"愛知県","city":"豊橋市","address":"有楽町"},
{"zip_code":"4418002","kana_pref":"ｱｲﾁｹﾝ","kana_city":"ﾄﾖﾊｼｼ","kana_address":"ﾖｼｶﾜﾁｮｳ","pref":"愛知県","city":"豊橋市","address":"吉川町"},
{"zip_code":"4418004","kana_pref":"ｱｲﾁｹﾝ","kana_city":"ﾄﾖﾊｼｼ","kana_address":"ﾖｼｻﾞｷﾁｮｳ","pref":"愛知県","city":"豊橋市","address":"吉前町"},
{"zip_code":"4418123","kana_pref":"ｱｲﾁｹﾝ","kana_city":"ﾄﾖﾊｼｼ","kana_address":"ﾜｶﾏﾂﾁｮｳ","pref":"愛知県","city":"豊橋市","address":"若松町"},
{"zip_code":"4410204","kana_pref":"ｱｲﾁｹﾝ","kana_city":"ﾄﾖｶﾜｼ","kana_address":"ｱｶｻｶﾀﾞｲ","pref":"愛知県","city":"豊川市","address":"赤坂台"},
{"zip_code":"4410202","kana_pref":"ｱｲﾁｹﾝ","kana_city":"ﾄﾖｶﾜｼ","kana_address":"ｱｶｻｶﾁｮｳ","pref":"愛知県","city":"豊川市","address":"赤坂町"},
{"zip_code":"4411203","kana_pref":"ｱｲﾁｹﾝ","kana_city":"ﾄﾖｶﾜｼ","kana_address":"ｱｼﾔﾏﾀﾞﾁｮｳ","pref":"愛知県","city":"豊川市","address":"足山田町"},
{"zip_code":"4411231","kana_pref":"ｱｲﾁｹﾝ","kana_city":"ﾄﾖｶﾜｼ","kana_address":"ｲﾁﾉﾐﾔﾁｮｳ","pref":"愛知県","city":"豊川市","address":"一宮町"},
{"zip_code":"4410105","kana_pref":"ｱｲﾁｹﾝ","kana_city":"ﾄﾖｶﾜｼ","kana_address":"ｲﾅﾁｮｳ","pref":"愛知県","city":"豊川市","address":"伊奈町"},
{"zip_code":"4411211","kana_pref":"ｱｲﾁｹﾝ","kana_city":"ﾄﾖｶﾜｼ","kana_address":"ｴｼﾞﾏﾁｮｳ","pref":"愛知県","city":"豊川市","address":"江島町"},
{"zip_code":"4411205","kana_pref":"ｱｲﾁｹﾝ","kana_city":"ﾄﾖｶﾜｼ","kana_address":"ｵｵｷﾞﾁｮｳ","pref":"愛知県","city":"豊川市","address":"大木町"},
{"zip_code":"4411212","kana_pref":"ｱｲﾁｹﾝ","kana_city":"ﾄﾖｶﾜｼ","kana_address":"ｶﾅｻﾞﾜﾁｮｳ","pref":"愛知県","city":"豊川市","address":"金沢町"},
{"zip_code":"4411202","kana_pref":"ｱｲﾁｹﾝ","kana_city":"ﾄﾖｶﾜｼ","kana_address":"ｶﾐﾅｶﾞﾔﾏﾁｮｳ","pref":"愛知県","city":"豊川市","address":"上長山町"},
{"zip_code":"4410103","kana_pref":"ｱｲﾁｹﾝ","kana_city":"ﾄﾖｶﾜｼ","kana_address":"ｺｻﾞｶｲﾁｮｳ","pref":"愛知県","city":"豊川市","address":"小坂井町"},
{"zip_code":"4410213","kana_pref":"ｱｲﾁｹﾝ","kana_city":"ﾄﾖｶﾜｼ","kana_address":"ｺﾞﾕﾁｮｳ","pref":"愛知県","city":"豊川市","address":"御油町"},
{"zip_code":"4410212","kana_pref":"ｱｲﾁｹﾝ","kana_city":"ﾄﾖｶﾜｼ","kana_address":"ｺﾞﾕﾁｮｳ","pref":"愛知県","city":"豊川市","address":"御油町"},
{"zip_code":"4410214","kana_pref":"ｱｲﾁｹﾝ","kana_city":"ﾄﾖｶﾜｼ","kana_address":"ｺﾞﾕﾁｮｳ","pref":"愛知県","city":"豊川市","address":"御油町"},
{"zip_code":"4410215","kana_pref":"ｱｲﾁｹﾝ","kana_city":"ﾄﾖｶﾜｼ","kana_address":"ｺﾞﾕﾁｮｳ","pref":"愛知県","city":"豊川市","address":"御油町"},
{"zip_code":"4410211","kana_pref":"ｱｲﾁｹﾝ","kana_city":"ﾄﾖｶﾜｼ","kana_address":"ｺﾞﾕﾁｮｳ","pref":"愛知県","city":"豊川市","address":"御油町"},
{"zip_code":"4411206","kana_pref":"ｱｲﾁｹﾝ","kana_city":"ﾄﾖｶﾜｼ","kana_address":"ｼﾉﾀﾞﾁｮｳ","pref":"愛知県","city":"豊川市","address":"篠田町"},
{"zip_code":"4410102","kana_pref":"ｱｲﾁｹﾝ","kana_city":"ﾄﾖｶﾜｼ","kana_address":"ｼﾉﾂﾞｶﾁｮｳ","pref":"愛知県","city":"豊川市","address":"篠束町"},
{"zip_code":"4410101","kana_pref":"ｱｲﾁｹﾝ","kana_city":"ﾄﾖｶﾜｼ","kana_address":"ｼｭｸﾁｮｳ","pref":"愛知県","city":"豊川市","address":"宿町"},
{"zip_code":"4411201","kana_pref":"ｱｲﾁｹﾝ","kana_city":"ﾄﾖｶﾜｼ","kana_address":"ﾄｳｼﾞｮｳﾁｮｳ","pref":"愛知県","city":"豊川市","address":"東上町"},
{"zip_code":"4411222","kana_pref":"ｱｲﾁｹﾝ","kana_city":"ﾄﾖｶﾜｼ","kana_address":"ﾄﾖﾂﾁｮｳ","pref":"愛知県","city":"豊川市","address":"豊津町"},
{"zip_code":"4410203","kana_pref":"ｱｲﾁｹﾝ","kana_city":"ﾄﾖｶﾜｼ","kana_address":"ﾅｶﾞｻﾜﾁｮｳ","pref":"愛知県","city":"豊川市","address":"長沢町"},
{"zip_code":"4411204","kana_pref":"ｱｲﾁｹﾝ","kana_city":"ﾄﾖｶﾜｼ","kana_address":"ﾆｼﾊﾞﾗﾁｮｳ","pref":"愛知県","city":"豊川市","address":"西原町"},
{"zip_code":"4410201","kana_pref":"ｱｲﾁｹﾝ","kana_city":"ﾄﾖｶﾜｼ","kana_address":"ﾊｷﾞﾁｮｳ","pref":"愛知県","city":"豊川市","address":"萩町"},
{"zip_code":"4411223","kana_pref":"ｱｲﾁｹﾝ","kana_city":"ﾄﾖｶﾜｼ","kana_address":"ﾊｼｵﾁｮｳ","pref":"愛知県","city":"豊川市","address":"橋尾町"},
{"zip_code":"4410104","kana_pref":"ｱｲﾁｹﾝ","kana_city":"ﾄﾖｶﾜｼ","kana_address":"ﾋﾗｲﾁｮｳ","pref":"愛知県","city":"豊川市","address":"平井町"},
{"zip_code":"4411221","kana_pref":"ｱｲﾁｹﾝ","kana_city":"ﾄﾖｶﾜｼ","kana_address":"ﾏﾂﾊﾞﾗﾁｮｳ","pref":"愛知県","city":"豊川市","address":"松原町"},
{"zip_code":"4410106","kana_pref":"ｱｲﾁｹﾝ","kana_city":"ﾄﾖｶﾜｼ","kana_address":"ﾐｿﾉ","pref":"愛知県","city":"豊川市","address":"美園"},
{"zip_code":"4410316","kana_pref":"ｱｲﾁｹﾝ","kana_city":"ﾄﾖｶﾜｼ","kana_address":"ﾐﾄﾁｮｳｱｶﾈ","pref":"愛知県","city":"豊川市","address":"御津町赤根"},
{"zip_code":"4410316","kana_pref":"ｱｲﾁｹﾝ","kana_city":"ﾄﾖｶﾜｼ","kana_address":"ﾐﾄﾁｮｳｱｶﾈｶﾄﾞﾀ","pref":"愛知県","city":"豊川市","address":"御津町赤根角田"},
{"zip_code":"4410316","kana_pref":"ｱｲﾁｹﾝ","kana_city":"ﾄﾖｶﾜｼ","kana_address":"ﾐﾄﾁｮｳｱｶﾈｶﾝﾊﾞ","pref":"愛知県","city":"豊川市","address":"御津町赤根神場"},
{"zip_code":"4410316","kana_pref":"ｱｲﾁｹﾝ","kana_city":"ﾄﾖｶﾜｼ","kana_address":"ﾐﾄﾁｮｳｱｶﾈｺｳｼﾞ","pref":"愛知県","city":"豊川市","address":"御津町赤根柑子"},
{"zip_code":"4410316","kana_pref":"ｱｲﾁｹﾝ","kana_city":"ﾄﾖｶﾜｼ","kana_address":"ﾐﾄﾁｮｳｱｶﾈｼﾓｶﾜ","pref":"愛知県","city":"豊川市","address":"御津町赤根下川"},
{"zip_code":"4410316","kana_pref":"ｱｲﾁｹﾝ","kana_city":"ﾄﾖｶﾜｼ","kana_address":"ﾐﾄﾁｮｳｱｶﾈｽｲｼﾞﾝ","pref":"愛知県","city":"豊川市","address":"御津町赤根水神"},
{"zip_code":"4410316","kana_pref":"ｱｲﾁｹﾝ","kana_city":"ﾄﾖｶﾜｼ","kana_address":"ﾐﾄﾁｮｳｱｶﾈﾂﾂﾐｼﾀ","pref":"愛知県","city":"豊川市","address":"御津町赤根堤下"},
{"zip_code":"4410316","kana_pref":"ｱｲﾁｹﾝ","kana_city":"ﾄﾖｶﾜｼ","kana_address":"ﾐﾄﾁｮｳｱｶﾈﾃﾝﾉｳ","pref":"愛知県","city":"豊川市","address":"御津町赤根天王"},
{"zip_code":"4410316","kana_pref":"ｱｲﾁｹﾝ","kana_city":"ﾄﾖｶﾜｼ","kana_address":"ﾐﾄﾁｮｳｱｶﾈﾄﾞｳﾄﾞｳ","pref":"愛知県","city":"豊川市","address":"御津町赤根百々"},
{"zip_code":"4410316","kana_pref":"ｱｲﾁｹﾝ","kana_city":"ﾄﾖｶﾜｼ","kana_address":"ﾐﾄﾁｮｳｱｶﾈﾅｶﾀ","pref":"愛知県","city":"豊川市","address":"御津町赤根仲田"},
{"zip_code":"4410316","kana_pref":"ｱｲﾁｹﾝ","kana_city":"ﾄﾖｶﾜｼ","kana_address":"ﾐﾄﾁｮｳｱｶﾈﾆｼﾊﾝｺﾞｳ","pref":"愛知県","city":"豊川市","address":"御津町赤根西半郷"},
{"zip_code":"4410316","kana_pref":"ｱｲﾁｹﾝ","kana_city":"ﾄﾖｶﾜｼ","kana_address":"ﾐﾄﾁｮｳｱｶﾈﾉﾀｹ","pref":"愛知県","city":"豊川市","address":"御津町赤根野竹"},
{"zip_code":"4410316","kana_pref":"ｱｲﾁｹﾝ","kana_city":"ﾄﾖｶﾜｼ","kana_address":"ﾐﾄﾁｮｳｱｶﾈﾊﾝｺﾞｳ","pref":"愛知県","city":"豊川市","address":"御津町赤根半郷"},
{"zip_code":"4410316","kana_pref":"ｱｲﾁｹﾝ","kana_city":"ﾄﾖｶﾜｼ","kana_address":"ﾐﾄﾁｮｳｱｶﾈﾏｴﾊﾏ","pref":"愛知県","city":"豊川市","address":"御津町赤根前浜"},
{"zip_code":"4410316","kana_pref":"ｱｲﾁｹﾝ","kana_city":"ﾄﾖｶﾜｼ","kana_address":"ﾐﾄﾁｮｳｱｶﾈﾏﾂﾊﾞ","pref":"愛知県","city":"豊川市","address":"御津町赤根松葉"},
{"zip_code":"4410316","kana_pref":"ｱｲﾁｹﾝ","kana_city":"ﾄﾖｶﾜｼ","kana_address":"ﾐﾄﾁｮｳｱｶﾈﾐﾔﾏｴ","pref":"愛知県","city":"豊川市","address":"御津町赤根宮前"},
{"zip_code":"4410316","kana_pref":"ｱｲﾁｹﾝ","kana_city":"ﾄﾖｶﾜｼ","kana_address":"ﾐﾄﾁｮｳｱｶﾈﾔｼｷ","pref":"愛知県","city":"豊川市","address":"御津町赤根屋敷"},
{"zip_code":"4410316","kana_pref":"ｱｲﾁｹﾝ","kana_city":"ﾄﾖｶﾜｼ","kana_address":"ﾐﾄﾁｮｳｱｶﾈﾔﾀﾞｲﾘ","pref":"愛知県","city":"豊川市","address":"御津町赤根谷田入"},
{"zip_code":"4410316","kana_pref":"ｱｲﾁｹﾝ","kana_city":"ﾄﾖｶﾜｼ","kana_address":"ﾐﾄﾁｮｳｱｶﾈﾔﾏﾀﾞ","pref":"愛知県","city":"豊川市","address":"御津町赤根山田"},
{"zip_code":"4410316","kana_pref":"ｱｲﾁｹﾝ","kana_city":"ﾄﾖｶﾜｼ","kana_address":"ﾐﾄﾁｮｳｱﾚﾉｻｷ","pref":"愛知県","city":"豊川市","address":"御津町安礼の崎"},
{"zip_code":"4410315","kana_pref":"ｱｲﾁｹﾝ","kana_city":"ﾄﾖｶﾜｼ","kana_address":"ﾐﾄﾁｮｳｵｵｸｻ","pref":"愛知県","city":"豊川市","address":"御津町大草"},
{"zip_code":"4410315","kana_pref":"ｱｲﾁｹﾝ","kana_city":"ﾄﾖｶﾜｼ","kana_address":"ﾐﾄﾁｮｳｵｵｸｻｳｴﾀｹ","pref":"愛知県","city":"豊川市","address":"御津町大草上竹"},
{"zip_code":"4410315","kana_pref":"ｱｲﾁｹﾝ","kana_city":"ﾄﾖｶﾜｼ","kana_address":"ﾐﾄﾁｮｳｵｵｸｻｵｵﾓﾘ","pref":"愛知県","city":"豊川市","address":"御津町大草大森"},
{"zip_code":"4410315","kana_pref":"ｱｲﾁｹﾝ","kana_city":"ﾄﾖｶﾜｼ","kana_address":"ﾐﾄﾁｮｳｵｵｸｻｶﾝﾊﾞ","pref":"愛知県","city":"豊川市","address":"御津町大草神場"},
{"zip_code":"4410315","kana_pref":"ｱｲﾁｹﾝ","kana_city":"ﾄﾖｶﾜｼ","kana_address":"ﾐﾄﾁｮｳｵｵｸｻｻｲｺﾞｳ","pref":"愛知県","city":"豊川市","address":"御津町大草西郷"},
{"zip_code":"4410315","kana_pref":"ｱｲﾁｹﾝ","kana_city":"ﾄﾖｶﾜｼ","kana_address":"ﾐﾄﾁｮｳｵｵｸｻｼﾝﾃﾞﾝ","pref":"愛知県","city":"豊川市","address":"御津町大草新田"},
{"zip_code":"4410315","kana_pref":"ｱｲﾁｹﾝ","kana_city":"ﾄﾖｶﾜｼ","kana_address":"ﾐﾄﾁｮｳｵｵｸｻｼﾞﾝﾃﾞﾝ","pref":"愛知県","city":"豊川市","address":"御津町大草神田"},
{"zip_code":"4410315","kana_pref":"ｱｲﾁｹﾝ","kana_city":"ﾄﾖｶﾜｼ","kana_address":"ﾐﾄﾁｮｳｵｵｸｻｿﾄｼﾝﾃﾞﾝ","pref":"愛知県","city":"豊川市","address":"御津町大草外新田"},
{"zip_code":"4410315","kana_pref":"ｱｲﾁｹﾝ","kana_city":"ﾄﾖｶﾜｼ","kana_address":"ﾐﾄﾁｮｳｵｵｸｻﾄｳｺﾞｳ","pref":"愛知県","city":"豊川市","address":"御津町大草東郷"},
{"zip_code":"4410315","kana_pref":"ｱｲﾁｹﾝ","kana_city":"ﾄﾖｶﾜｼ","kana_address":"ﾐﾄﾁｮｳｵｵｸｻﾆｼﾊﾏ","pref":"愛知県","city":"豊川市","address":"御津町大草西浜"},
{"zip_code":"4410315","kana_pref":"ｱｲﾁｹﾝ","kana_city":"ﾄﾖｶﾜｼ","kana_address":"ﾐﾄﾁｮｳｵｵｸｻﾆｼﾌﾝﾑｼﾛ","pref":"愛知県","city":"豊川市","address":"御津町大草西分莚"},
{"zip_code":"4410315","kana_pref":"ｱｲﾁｹﾝ","kana_city":"ﾄﾖｶﾜｼ","kana_address":"ﾐﾄﾁｮｳｵｵｸｻﾌﾝﾑｼﾛ","pref":"愛知県","city":"豊川市","address":"御津町大草分莚"},
{"zip_code":"4410315","kana_pref":"ｱｲﾁｹﾝ","kana_city":"ﾄﾖｶﾜｼ","kana_address":"ﾐﾄﾁｮｳｵｵｸｻﾑｶｲﾉ","pref":"愛知県","city":"豊川市","address":"御津町大草向野"},
{"zip_code":"4410311","kana_pref":"ｱｲﾁｹﾝ","kana_city":"ﾄﾖｶﾜｼ","kana_address":"ﾐﾄﾁｮｳｵﾝﾏ","pref":"愛知県","city":"豊川市","address":"御津町御馬"},
{"zip_code":"4410311","kana_pref":"ｱｲﾁｹﾝ","kana_city":"ﾄﾖｶﾜｼ","kana_address":"ﾐﾄﾁｮｳｵﾝﾏｳﾒﾀﾞ","pref":"愛知県","city":"豊川市","address":"御津町御馬梅田"},
{"zip_code":"4410311","kana_pref":"ｱｲﾁｹﾝ","kana_city":"ﾄﾖｶﾜｼ","kana_address":"ﾐﾄﾁｮｳｵﾝﾏｶﾐ","pref":"愛知県","city":"豊川市","address":"御津町御馬加美"},
{"zip_code":"4410311","kana_pref":"ｱｲﾁｹﾝ","kana_city":"ﾄﾖｶﾜｼ","kana_address":"ﾐﾄﾁｮｳｵﾝﾏｶﾜﾊﾞﾀ","pref":"愛知県","city":"豊川市","address":"御津町御馬川端"},
{"zip_code":"4410311","kana_pref":"ｱｲﾁｹﾝ","kana_city":"ﾄﾖｶﾜｼ","kana_address":"ﾐﾄﾁｮｳｵﾝﾏｼｵｲﾘ","pref":"愛知県","city":"豊川市","address":"御津町御馬塩入"},
{"zip_code":"4410311","kana_pref":"ｱｲﾁｹﾝ","kana_city":"ﾄﾖｶﾜｼ","kana_address":"ﾐﾄﾁｮｳｵﾝﾏｼｵﾊﾏ","pref":"愛知県","city":"豊川市","address":"御津町御馬塩浜"},
{"zip_code":"4410311","kana_pref":"ｱｲﾁｹﾝ","kana_city":"ﾄﾖｶﾜｼ","kana_address":"ﾐﾄﾁｮｳｵﾝﾏｾﾞﾝﾀﾞ","pref":"愛知県","city":"豊川市","address":"御津町御馬膳田"},
{"zip_code":"4410311","kana_pref":"ｱｲﾁｹﾝ","kana_city":"ﾄﾖｶﾜｼ","kana_address":"ﾐﾄﾁｮｳｵﾝﾏﾀﾏﾌｸﾛ","pref":"愛知県","city":"豊川市","address":"御津町御馬玉袋"},
{"zip_code":"4410311","kana_pref":"ｱｲﾁｹﾝ","kana_city":"ﾄﾖｶﾜｼ","kana_address":"ﾐﾄﾁｮｳｵﾝﾏﾂﾙｷﾞ","pref":"愛知県","city":"豊川市","address":"御津町御馬剱"},
{"zip_code":"4410311","kana_pref":"ｱｲﾁｹﾝ","kana_city":"ﾄﾖｶﾜｼ","kana_address":"ﾐﾄﾁｮｳｵﾝﾏﾅｶｼﾞﾏ","pref":"愛知県","city":"豊川市","address":"御津町御馬中島"},
{"zip_code":"4410311","kana_pref":"ｱｲﾁｹﾝ","kana_city":"ﾄﾖｶﾜｼ","kana_address":"ﾐﾄﾁｮｳｵﾝﾏﾅｶﾀﾞ","pref":"愛知県","city":"豊川市","address":"御津町御馬仲田"},
{"zip_code":"4410311","kana_pref":"ｱｲﾁｹﾝ","kana_city":"ﾄﾖｶﾜｼ","kana_address":"ﾐﾄﾁｮｳｵﾝﾏﾅｶﾞﾄｺ","pref":"愛知県","city":"豊川市","address":"御津町御馬長床"},
{"zip_code":"4410311","kana_pref":"ｱｲﾁｹﾝ","kana_city":"ﾄﾖｶﾜｼ","kana_address":"ﾐﾄﾁｮｳｵﾝﾏﾅｶﾞﾚﾀﾞ","pref":"愛知県","city":"豊川市","address":"御津町御馬流田"},
{"zip_code":"4410311","kana_pref":"ｱｲﾁｹﾝ","kana_city":"ﾄﾖｶﾜｼ","kana_address":"ﾐﾄﾁｮｳｵﾝﾏﾆｼ","pref":"愛知県","city":"豊川市","address":"御津町御馬西"},
{"zip_code":"4410311","kana_pref":"ｱｲﾁｹﾝ","kana_city":"ﾄﾖｶﾜｼ","kana_address":"ﾐﾄﾁｮｳｵﾝﾏﾆｼｳﾒ","pref":"愛知県","city":"豊川市","address":"御津町御馬西梅"},
{"zip_code":"4410311","kana_pref":"ｱｲﾁｹﾝ","kana_city":"ﾄﾖｶﾜｼ","kana_address":"ﾐﾄﾁｮｳｵﾝﾏﾉｿﾞｴ","pref":"愛知県","city":"豊川市","address":"御津町御馬野添"},
{"zip_code":"4410311","kana_pref":"ｱｲﾁｹﾝ","kana_city":"ﾄﾖｶﾜｼ","kana_address":"ﾐﾄﾁｮｳｵﾝﾏﾊﾏﾀ","pref":"愛知県","city":"豊川市","address":"御津町御馬浜田"},
{"zip_code":"4410311","kana_pref":"ｱｲﾁｹﾝ","kana_city":"ﾄﾖｶﾜｼ","kana_address":"ﾐﾄﾁｮｳｵﾝﾏﾋｶﾞｼ","pref":"愛知県","city":"豊川市","address":"御津町御馬東"},
{"zip_code":"4410311","kana_pref":"ｱｲﾁｹﾝ","kana_city":"ﾄﾖｶﾜｼ","kana_address":"ﾐﾄﾁｮｳｵﾝﾏﾐﾔｳﾗ","pref":"愛知県","city":"豊川市","address":"御津町御馬宮浦"},
{"zip_code":"4410311","kana_pref":"ｱｲﾁｹﾝ","kana_city":"ﾄﾖｶﾜｼ","kana_address":"ﾐﾄﾁｮｳｵﾝﾏﾑｶｲﾐﾁ","pref":"愛知県","city":"豊川市","address":"御津町御馬向道"},
{"zip_code":"4410323","kana_pref":"ｱｲﾁｹﾝ","kana_city":"ﾄﾖｶﾜｼ","kana_address":"ﾐﾄﾁｮｳｶﾈﾉ","pref":"愛知県","city":"豊川市","address":"御津町金野"},
{"zip_code":"4410323","kana_pref":"ｱｲﾁｹﾝ","kana_city":"ﾄﾖｶﾜｼ","kana_address":"ﾐﾄﾁｮｳｶﾈﾉｱｵｷ","pref":"愛知県","city":"豊川市","address":"御津町金野青木"},
{"zip_code":"4410323","kana_pref":"ｱｲﾁｹﾝ","kana_city":"ﾄﾖｶﾜｼ","kana_address":"ﾐﾄﾁｮｳｶﾈﾉｱﾌﾞﾗﾀﾞ","pref":"愛知県","city":"豊川市","address":"御津町金野油田"},
{"zip_code":"4410323","kana_pref":"ｱｲﾁｹﾝ","kana_city":"ﾄﾖｶﾜｼ","kana_address":"ﾐﾄﾁｮｳｶﾈﾉｲｼﾀﾞ","pref":"愛知県","city":"豊川市","address":"御津町金野石田"},
{"zip_code":"4410323","kana_pref":"ｱｲﾁｹﾝ","kana_city":"ﾄﾖｶﾜｼ","kana_address":"ﾐﾄﾁｮｳｶﾈﾉｲﾅﾊﾞ","pref":"愛知県","city":"豊川市","address":"御津町金野稲場"},
{"zip_code":"4410323","kana_pref":"ｱｲﾁｹﾝ","kana_city":"ﾄﾖｶﾜｼ","kana_address":"ﾐﾄﾁｮｳｶﾈﾉｲﾜﾓﾄ","pref":"愛知県","city":"豊川市","address":"御津町金野岩本"},
{"zip_code":"4410323","kana_pref":"ｱｲﾁｹﾝ","kana_city":"ﾄﾖｶﾜｼ","kana_address":"ﾐﾄﾁｮｳｶﾈﾉｳｴﾉ","pref":"愛知県","city":"豊川市","address":"御津町金野上野"},
{"zip_code":"4410323","kana_pref":"ｱｲﾁｹﾝ","kana_city":"ﾄﾖｶﾜｼ","kana_address":"ﾐﾄﾁｮｳｶﾈﾉｶｺﾞﾀ","pref":"愛知県","city":"豊川市","address":"御津町金野籠田"},
{"zip_code":"4410323","kana_pref":"ｱｲﾁｹﾝ","kana_city":"ﾄﾖｶﾜｼ","kana_address":"ﾐﾄﾁｮｳｶﾈﾉｶﾐｻﾜ","pref":"愛知県","city":"豊川市","address":"御津町金野上沢"},
{"zip_code":"4410323","kana_pref":"ｱｲﾁｹﾝ","kana_city":"ﾄﾖｶﾜｼ","kana_address":"ﾐﾄﾁｮｳｶﾈﾉｶﾝﾉﾝｼﾞ","pref":"愛知県","city":"豊川市","address":"御津町金野観音寺"},
{"zip_code":"4410323","kana_pref":"ｱｲﾁｹﾝ","kana_city":"ﾄﾖｶﾜｼ","kana_address":"ﾐﾄﾁｮｳｶﾈﾉｸﾆｻﾞｶ","pref":"愛知県","city":"豊川市","address":"御津町金野国坂"},
{"zip_code":"4410323","kana_pref":"ｱｲﾁｹﾝ","kana_city":"ﾄﾖｶﾜｼ","kana_address":"ﾐﾄﾁｮｳｶﾈﾉｺﾞｳｻｸ","pref":"愛知県","city":"豊川市","address":"御津町金野郷作"},
{"zip_code":"4410323","kana_pref":"ｱｲﾁｹﾝ","kana_city":"ﾄﾖｶﾜｼ","kana_address":"ﾐﾄﾁｮｳｶﾈﾉｺﾞﾀﾝﾀﾞ","pref":"愛知県","city":"豊川市","address":"御津町金野五反田"},
{"zip_code":"4410323","kana_pref":"ｱｲﾁｹﾝ","kana_city":"ﾄﾖｶﾜｼ","kana_address":"ﾐﾄﾁｮｳｶﾈﾉｺﾈｻﾞﾜ","pref":"愛知県","city":"豊川市","address":"御津町金野小根沢"},
{"zip_code":"4410323","kana_pref":"ｱｲﾁｹﾝ","kana_city":"ﾄﾖｶﾜｼ","kana_address":"ﾐﾄﾁｮｳｶﾈﾉｻﾙｻﾜ","pref":"愛知県","city":"豊川市","address":"御津町金野猿沢"},
{"zip_code":"4410323","kana_pref":"ｱｲﾁｹﾝ","kana_city":"ﾄﾖｶﾜｼ","kana_address":"ﾐﾄﾁｮｳｶﾈﾉｼﾀ","pref":"愛知県","city":"豊川市","address":"御津町金野下"},
{"zip_code":"4410323","kana_pref":"ｱｲﾁｹﾝ","kana_city":"ﾄﾖｶﾜｼ","kana_address":"ﾐﾄﾁｮｳｶﾈﾉｼﾓﾉﾏｴ","pref":"愛知県","city":"豊川市","address":"御津町金野下ノ前"},
{"zip_code":"4410323","kana_pref":"ｱｲﾁｹﾝ","kana_city":"ﾄﾖｶﾜｼ","kana_address":"ﾐﾄﾁｮｳｶﾈﾉｼﾝｽﾅﾀ","pref":"愛知県","city":"豊川市","address":"御津町金野新砂田"},
{"zip_code":"4410323","kana_pref":"ｱｲﾁｹﾝ","kana_city":"ﾄﾖｶﾜｼ","kana_address":"ﾐﾄﾁｮｳｶﾈﾉｼﾝﾔﾏｶｹﾞ","pref":"愛知県","city":"豊川市","address":"御津町金野新山影"},
{"zip_code":"4410323","kana_pref":"ｱｲﾁｹﾝ","kana_city":"ﾄﾖｶﾜｼ","kana_address":"ﾐﾄﾁｮｳｶﾈﾉｽﾅﾀ","pref":"愛知県","city":"豊川市","address":"御津町金野砂田"},
{"zip_code":"4410323","kana_pref":"ｱｲﾁｹﾝ","kana_city":"ﾄﾖｶﾜｼ","kana_address":"ﾐﾄﾁｮｳｶﾈﾉﾀｹｲﾘ","pref":"愛知県","city":"豊川市","address":"御津町金野竹入"},
{"zip_code":"4410323","kana_pref":"ｱｲﾁｹﾝ","kana_city":"ﾄﾖｶﾜｼ","kana_address":"ﾐﾄﾁｮｳｶﾈﾉﾀﾙﾐ","pref":"愛知県","city":"豊川市","address":"御津町金野足見"},
{"zip_code":"4410323","kana_pref":"ｱｲﾁｹﾝ","kana_city":"ﾄﾖｶﾜｼ","kana_address":"ﾐﾄﾁｮｳｶﾈﾉﾄｸｻﾌﾞ","pref":"愛知県","city":"豊川市","address":"御津町金野徳寒"},
{"zip_code":"4410323","kana_pref":"ｱｲﾁｹﾝ","kana_city":"ﾄﾖｶﾜｼ","kana_address":"ﾐﾄﾁｮｳｶﾈﾉﾅｶｷﾞﾘ","pref":"愛知県","city":"豊川市","address":"御津町金野中切"},
{"zip_code":"4410323","kana_pref":"ｱｲﾁｹﾝ","kana_city":"ﾄﾖｶﾜｼ","kana_address":"ﾐﾄﾁｮｳｶﾈﾉﾅｶﾊﾞﾀ","pref":"愛知県","city":"豊川市","address":"御津町金野中畑"},
{"zip_code":"4410323","kana_pref":"ｱｲﾁｹﾝ","kana_city":"ﾄﾖｶﾜｼ","kana_address":"ﾐﾄﾁｮｳｶﾈﾉﾆｼｻﾞﾜ","pref":"愛知県","city":"豊川市","address":"御津町金野西沢"},
{"zip_code":"4410323","kana_pref":"ｱｲﾁｹﾝ","kana_city":"ﾄﾖｶﾜｼ","kana_address":"ﾐﾄﾁｮｳｶﾈﾉﾊｲﾉｻﾞｶ","pref":"愛知県","city":"豊川市","address":"御津町金野灰野坂"},
{"zip_code":"4410323","kana_pref":"ｱｲﾁｹﾝ","kana_city":"ﾄﾖｶﾜｼ","kana_address":"ﾐﾄﾁｮｳｶﾈﾉﾊｾｻﾞﾜ","pref":"愛知県","city":"豊川市","address":"御津町金野長谷沢"},
{"zip_code":"4410323","kana_pref":"ｱｲﾁｹﾝ","kana_city":"ﾄﾖｶﾜｼ","kana_address":"ﾐﾄﾁｮｳｶﾈﾉﾋｶﾞｼｶﾜﾂﾞ","pref":"愛知県","city":"豊川市","address":"御津町金野東河津"},
{"zip_code":"4410323","kana_pref":"ｱｲﾁｹﾝ","kana_city":"ﾄﾖｶﾜｼ","kana_address":"ﾐﾄﾁｮｳｶﾈﾉﾋｶﾞｼﾀﾞ","pref":"愛知県","city":"豊川市","address":"御津町金野東田"},
{"zip_code":"4410323","kana_pref":"ｱｲﾁｹﾝ","kana_city":"ﾄﾖｶﾜｼ","kana_address":"ﾐﾄﾁｮｳｶﾈﾉﾋｶﾞｼﾊﾞﾀ","pref":"愛知県","city":"豊川市","address":"御津町金野東畑"},
{"zip_code":"4410323","kana_pref":"ｱｲﾁｹﾝ","kana_city":"ﾄﾖｶﾜｼ","kana_address":"ﾐﾄﾁｮｳｶﾈﾉﾋﾉｷｶﾜﾂﾞ","pref":"愛知県","city":"豊川市","address":"御津町金野桧河津"},
{"zip_code":"4410323","kana_pref":"ｱｲﾁｹﾝ","kana_city":"ﾄﾖｶﾜｼ","kana_address":"ﾐﾄﾁｮｳｶﾈﾉﾌｶｻﾞﾜ","pref":"愛知県","city":"豊川市","address":"御津町金野深沢"},
{"zip_code":"4410323","kana_pref":"ｱｲﾁｹﾝ","kana_city":"ﾄﾖｶﾜｼ","kana_address":"ﾐﾄﾁｮｳｶﾈﾉﾌｶﾀﾞ","pref":"愛知県","city":"豊川市","address":"御津町金野深田"},
{"zip_code":"4410323","kana_pref":"ｱｲﾁｹﾝ","kana_city":"ﾄﾖｶﾜｼ","kana_address":"ﾐﾄﾁｮｳｶﾈﾉﾌｸﾛﾀﾞ","pref":"愛知県","city":"豊川市","address":"御津町金野袋田"},
{"zip_code":"4410323","kana_pref":"ｱｲﾁｹﾝ","kana_city":"ﾄﾖｶﾜｼ","kana_address":"ﾐﾄﾁｮｳｶﾈﾉﾌｼﾞｶﾞﾔﾏ","pref":"愛知県","city":"豊川市","address":"御津町金野藤ケ山"},
{"zip_code":"4410323","kana_pref":"ｱｲﾁｹﾝ","kana_city":"ﾄﾖｶﾜｼ","kana_address":"ﾐﾄﾁｮｳｶﾈﾉﾌｼﾞｸﾎﾞ","pref":"愛知県","city":"豊川市","address":"御津町金野藤久保"},
{"zip_code":"4410323","kana_pref":"ｱｲﾁｹﾝ","kana_city":"ﾄﾖｶﾜｼ","kana_address":"ﾐﾄﾁｮｳｶﾈﾉﾐﾀｹ","pref":"愛知県","city":"豊川市","address":"御津町金野見竹"},
{"zip_code":"4410323","kana_pref":"ｱｲﾁｹﾝ","kana_city":"ﾄﾖｶﾜｼ","kana_address":"ﾐﾄﾁｮｳｶﾈﾉﾔﾏｶｹﾞ","pref":"愛知県","city":"豊川市","address":"御津町金野山影"},
{"zip_code":"4410323","kana_pref":"ｱｲﾁｹﾝ","kana_city":"ﾄﾖｶﾜｼ","kana_address":"ﾐﾄﾁｮｳｶﾈﾉﾔﾏﾓﾄ","pref":"愛知県","city":"豊川市","address":"御津町金野山本"},
{"zip_code":"4410323","kana_pref":"ｱｲﾁｹﾝ","kana_city":"ﾄﾖｶﾜｼ","kana_address":"ﾐﾄﾁｮｳｶﾈﾉﾖｺﾃ","pref":"愛知県","city":"豊川市","address":"御津町金野横手"},
{"zip_code":"4410301","kana_pref":"ｱｲﾁｹﾝ","kana_city":"ﾄﾖｶﾜｼ","kana_address":"ﾐﾄﾁｮｳｶﾐｻﾜｷ","pref":"愛知県","city":"豊川市","address":"御津町上佐脇"},
{"zip_code":"4410301","kana_pref":"ｱｲﾁｹﾝ","kana_city":"ﾄﾖｶﾜｼ","kana_address":"ﾐﾄﾁｮｳｶﾐｻﾜｷｱﾒﾀﾞ","pref":"愛知県","city":"豊川市","address":"御津町上佐脇雨田"},
{"zip_code":"4410301","kana_pref":"ｱｲﾁｹﾝ","kana_city":"ﾄﾖｶﾜｼ","kana_address":"ﾐﾄﾁｮｳｶﾐｻﾜｷｲﾇﾀ","pref":"愛知県","city":"豊川市","address":"御津町上佐脇犬田"},
{"zip_code":"4410301","kana_pref":"ｱｲﾁｹﾝ","kana_city":"ﾄﾖｶﾜｼ","kana_address":"ﾐﾄﾁｮｳｶﾐｻﾜｷｵｵｺﾞｵﾘ","pref":"愛知県","city":"豊川市","address":"御津町上佐脇大郡"},
{"zip_code":"4410301","kana_pref":"ｱｲﾁｹﾝ","kana_city":"ﾄﾖｶﾜｼ","kana_address":"ﾐﾄﾁｮｳｶﾐｻﾜｷｶﾜﾊﾗﾀﾞ","pref":"愛知県","city":"豊川市","address":"御津町上佐脇河原田"},
{"zip_code":"4410301","kana_pref":"ｱｲﾁｹﾝ","kana_city":"ﾄﾖｶﾜｼ","kana_address":"ﾐﾄﾁｮｳｶﾐｻﾜｷｶﾝﾉﾝﾄﾞｳ","pref":"愛知県","city":"豊川市","address":"御津町上佐脇観音堂"},
{"zip_code":"4410301","kana_pref":"ｱｲﾁｹﾝ","kana_city":"ﾄﾖｶﾜｼ","kana_address":"ﾐﾄﾁｮｳｶﾐｻﾜｷｷﾀｸ","pref":"愛知県","city":"豊川市","address":"御津町上佐脇北区"},
{"zip_code":"4410301","kana_pref":"ｱｲﾁｹﾝ","kana_city":"ﾄﾖｶﾜｼ","kana_address":"ﾐﾄﾁｮｳｶﾐｻﾜｷﾅｶｸ","pref":"愛知県","city":"豊川市","address":"御津町上佐脇中区"},
{"zip_code":"4410301","kana_pref":"ｱｲﾁｹﾝ","kana_city":"ﾄﾖｶﾜｼ","kana_address":"ﾐﾄﾁｮｳｶﾐｻﾜｷﾆｼｸ","pref":"愛知県","city":"豊川市","address":"御津町上佐脇西区"},
{"zip_code":"4410301","kana_pref":"ｱｲﾁｹﾝ","kana_city":"ﾄﾖｶﾜｼ","kana_address":"ﾐﾄﾁｮｳｶﾐｻﾜｷﾆｼﾉｶﾞｲﾂ","pref":"愛知県","city":"豊川市","address":"御津町上佐脇西ノ貝津"},
{"zip_code":"4410301","kana_pref":"ｱｲﾁｹﾝ","kana_city":"ﾄﾖｶﾜｼ","kana_address":"ﾐﾄﾁｮｳｶﾐｻﾜｷﾆﾎﾝﾏﾂ","pref":"愛知県","city":"豊川市","address":"御津町上佐脇二本松"},
{"zip_code":"4410301","kana_pref":"ｱｲﾁｹﾝ","kana_city":"ﾄﾖｶﾜｼ","kana_address":"ﾐﾄﾁｮｳｶﾐｻﾜｷﾉｶﾞﾜ","pref":"愛知県","city":"豊川市","address":"御津町上佐脇野川"},
{"zip_code":"4410301","kana_pref":"ｱｲﾁｹﾝ","kana_city":"ﾄﾖｶﾜｼ","kana_address":"ﾐﾄﾁｮｳｶﾐｻﾜｷﾉｿﾞｴ","pref":"愛知県","city":"豊川市","address":"御津町上佐脇野添"},
{"zip_code":"4410301","kana_pref":"ｱｲﾁｹﾝ","kana_city":"ﾄﾖｶﾜｼ","kana_address":"ﾐﾄﾁｮｳｶﾐｻﾜｷﾊﾅﾉｷ","pref":"愛知県","city":"豊川市","address":"御津町上佐脇花ノ木"},
{"zip_code":"4410301","kana_pref":"ｱｲﾁｹﾝ","kana_city":"ﾄﾖｶﾜｼ","kana_address":"ﾐﾄﾁｮｳｶﾐｻﾜｷﾋｶﾞｼｸ","pref":"愛知県","city":"豊川市","address":"御津町上佐脇東区"},
{"zip_code":"4410301","kana_pref":"ｱｲﾁｹﾝ","kana_city":"ﾄﾖｶﾜｼ","kana_address":"ﾐﾄﾁｮｳｶﾐｻﾜｷﾌｶﾀﾞ","pref":"愛知県","city":"豊川市","address":"御津町上佐脇深田"},
{"zip_code":"4410301","kana_pref":"ｱｲﾁｹﾝ","kana_city":"ﾄﾖｶﾜｼ","kana_address":"ﾐﾄﾁｮｳｶﾐｻﾜｷﾏﾂｼﾀ","pref":"愛知県","city":"豊川市","address":"御津町上佐脇松下"},
{"zip_code":"4410301","kana_pref":"ｱｲﾁｹﾝ","kana_city":"ﾄﾖｶﾜｼ","kana_address":"ﾐﾄﾁｮｳｶﾐｻﾜｷﾐﾅﾐｸ","pref":"愛知県","city":"豊川市","address":"御津町上佐脇南区"},
{"zip_code":"4410301","kana_pref":"ｱｲﾁｹﾝ","kana_city":"ﾄﾖｶﾜｼ","kana_address":"ﾐﾄﾁｮｳｶﾐｻﾜｷﾔｼｷ","pref":"愛知県","city":"豊川市","address":"御津町上佐脇屋敷"},
{"zip_code":"4410301","kana_pref":"ｱｲﾁｹﾝ","kana_city":"ﾄﾖｶﾜｼ","kana_address":"ﾐﾄﾁｮｳｶﾐｻﾜｷﾛｸﾀﾝﾊﾞﾀ","pref":"愛知県","city":"豊川市","address":"御津町上佐脇六反畑"},
{"zip_code":"4410304","kana_pref":"ｱｲﾁｹﾝ","kana_city":"ﾄﾖｶﾜｼ","kana_address":"ﾐﾄﾁｮｳｻﾜｷﾊﾏ","pref":"愛知県","city":"豊川市","address":"御津町佐脇浜"},
{"zip_code":"4410304","kana_pref":"ｱｲﾁｹﾝ","kana_city":"ﾄﾖｶﾜｼ","kana_address":"ﾐﾄﾁｮｳｻﾜｷﾊﾏ1ｺﾞｳﾁ","pref":"愛知県","city":"豊川市","address":"御津町佐脇浜一号地"},
{"zip_code":"4410304","kana_pref":"ｱｲﾁｹﾝ","kana_city":"ﾄﾖｶﾜｼ","kana_address":"ﾐﾄﾁｮｳｻﾜｷﾊﾏ2ｺﾞｳﾁ","pref":"愛知県","city":"豊川市","address":"御津町佐脇浜二号地"},
{"zip_code":"4410304","kana_pref":"ｱｲﾁｹﾝ","kana_city":"ﾄﾖｶﾜｼ","kana_address":"ﾐﾄﾁｮｳｻﾜｷﾊﾏ3ｺﾞｳﾁ","pref":"愛知県","city":"豊川市","address":"御津町佐脇浜三号地"},
{"zip_code":"4410302","kana_pref":"ｱｲﾁｹﾝ","kana_city":"ﾄﾖｶﾜｼ","kana_address":"ﾐﾄﾁｮｳｼﾓｻﾜｷ","pref":"愛知県","city":"豊川市","address":"御津町下佐脇"},
{"zip_code":"4410302","kana_pref":"ｱｲﾁｹﾝ","kana_city":"ﾄﾖｶﾜｼ","kana_address":"ﾐﾄﾁｮｳｼﾓｻﾜｷｱﾗｲﾀﾞｼ","pref":"愛知県","city":"豊川市","address":"御津町下佐脇洗出"},
{"zip_code":"4410302","kana_pref":"ｱｲﾁｹﾝ","kana_city":"ﾄﾖｶﾜｼ","kana_address":"ﾐﾄﾁｮｳｼﾓｻﾜｷｱﾗｺ","pref":"愛知県","city":"豊川市","address":"御津町下佐脇荒古"},
{"zip_code":"4410302","kana_pref":"ｱｲﾁｹﾝ","kana_city":"ﾄﾖｶﾜｼ","kana_address":"ﾐﾄﾁｮｳｼﾓｻﾜｷｱﾗﾔ","pref":"愛知県","city":"豊川市","address":"御津町下佐脇新屋"},
{"zip_code":"4410302","kana_pref":"ｱｲﾁｹﾝ","kana_city":"ﾄﾖｶﾜｼ","kana_address":"ﾐﾄﾁｮｳｼﾓｻﾜｷｲﾁﾊﾞ","pref":"愛知県","city":"豊川市","address":"御津町下佐脇市場"},
{"zip_code":"4410302","kana_pref":"ｱｲﾁｹﾝ","kana_city":"ﾄﾖｶﾜｼ","kana_address":"ﾐﾄﾁｮｳｼﾓｻﾜｷｲﾝﾃﾞﾝ","pref":"愛知県","city":"豊川市","address":"御津町下佐脇院田"},
{"zip_code":"4410302","kana_pref":"ｱｲﾁｹﾝ","kana_city":"ﾄﾖｶﾜｼ","kana_address":"ﾐﾄﾁｮｳｼﾓｻﾜｷｳﾒﾀﾞ","pref":"愛知県","city":"豊川市","address":"御津町下佐脇梅田"},
{"zip_code":"4410302","kana_pref":"ｱｲﾁｹﾝ","kana_city":"ﾄﾖｶﾜｼ","kana_address":"ﾐﾄﾁｮｳｼﾓｻﾜｷｶｺﾞﾊﾞﾀ","pref":"愛知県","city":"豊川市","address":"御津町下佐脇籠畑"},
{"zip_code":"4410302","kana_pref":"ｱｲﾁｹﾝ","kana_city":"ﾄﾖｶﾜｼ","kana_address":"ﾐﾄﾁｮｳｼﾓｻﾜｷｶﾏﾀﾞ","pref":"愛知県","city":"豊川市","address":"御津町下佐脇鎌田"},
{"zip_code":"4410302","kana_pref":"ｱｲﾁｹﾝ","kana_city":"ﾄﾖｶﾜｼ","kana_address":"ﾐﾄﾁｮｳｼﾓｻﾜｷｶﾜﾀﾞ","pref":"愛知県","city":"豊川市","address":"御津町下佐脇河田"},
{"zip_code":"4410302","kana_pref":"ｱｲﾁｹﾝ","kana_city":"ﾄﾖｶﾜｼ","kana_address":"ﾐﾄﾁｮｳｼﾓｻﾜｷｷﾀｳﾗ","pref":"愛知県","city":"豊川市","address":"御津町下佐脇北浦"},
{"zip_code":"4410302","kana_pref":"ｱｲﾁｹﾝ","kana_city":"ﾄﾖｶﾜｼ","kana_address":"ﾐﾄﾁｮｳｼﾓｻﾜｷｷﾞﾛｳ","pref":"愛知県","city":"豊川市","address":"御津町下佐脇義郎"},
{"zip_code":"4410302","kana_pref":"ｱｲﾁｹﾝ","kana_city":"ﾄﾖｶﾜｼ","kana_address":"ﾐﾄﾁｮｳｼﾓｻﾜｷｸｻｸ","pref":"愛知県","city":"豊川市","address":"御津町下佐脇九作"},
{"zip_code":"4410302","kana_pref":"ｱｲﾁｹﾝ","kana_city":"ﾄﾖｶﾜｼ","kana_address":"ﾐﾄﾁｮｳｼﾓｻﾜｷｺﾞｳﾅｶ","pref":"愛知県","city":"豊川市","address":"御津町下佐脇郷中"},
{"zip_code":"4410302","kana_pref":"ｱｲﾁｹﾝ","kana_city":"ﾄﾖｶﾜｼ","kana_address":"ﾐﾄﾁｮｳｼﾓｻﾜｷｺﾞｼｮ","pref":"愛知県","city":"豊川市","address":"御津町下佐脇御所"},
{"zip_code":"4410302","kana_pref":"ｱｲﾁｹﾝ","kana_city":"ﾄﾖｶﾜｼ","kana_address":"ﾐﾄﾁｮｳｼﾓｻﾜｷｻﾜｷﾊﾞﾗ","pref":"愛知県","city":"豊川市","address":"御津町下佐脇佐脇原"},
{"zip_code":"4410302","kana_pref":"ｱｲﾁｹﾝ","kana_city":"ﾄﾖｶﾜｼ","kana_address":"ﾐﾄﾁｮｳｼﾓｻﾜｷｼﾝｱﾗｲﾀﾞｼ","pref":"愛知県","city":"豊川市","address":"御津町下佐脇新洗出"},
{"zip_code":"4410302","kana_pref":"ｱｲﾁｹﾝ","kana_city":"ﾄﾖｶﾜｼ","kana_address":"ﾐﾄﾁｮｳｼﾓｻﾜｷｼﾝｳﾒﾀﾞ","pref":"愛知県","city":"豊川市","address":"御津町下佐脇新梅田"},
{"zip_code":"4410302","kana_pref":"ｱｲﾁｹﾝ","kana_city":"ﾄﾖｶﾜｼ","kana_address":"ﾐﾄﾁｮｳｼﾓｻﾜｷｼﾝﾊﾞﾀ","pref":"愛知県","city":"豊川市","address":"御津町下佐脇新畑"},
{"zip_code":"4410302","kana_pref":"ｱｲﾁｹﾝ","kana_city":"ﾄﾖｶﾜｼ","kana_address":"ﾐﾄﾁｮｳｼﾓｻﾜｷｾﾞｶﾞﾝ","pref":"愛知県","city":"豊川市","address":"御津町下佐脇是願"},
{"zip_code":"4410302","kana_pref":"ｱｲﾁｹﾝ","kana_city":"ﾄﾖｶﾜｼ","kana_address":"ﾐﾄﾁｮｳｼﾓｻﾜｷﾀｶﾊﾞﾀ","pref":"愛知県","city":"豊川市","address":"御津町下佐脇高畑"},
{"zip_code":"4410302","kana_pref":"ｱｲﾁｹﾝ","kana_city":"ﾄﾖｶﾜｼ","kana_address":"ﾐﾄﾁｮｳｼﾓｻﾜｷﾀｸﾞﾏ","pref":"愛知県","city":"豊川市","address":"御津町下佐脇田熊"},
{"zip_code":"4410302","kana_pref":"ｱｲﾁｹﾝ","kana_city":"ﾄﾖｶﾜｼ","kana_address":"ﾐﾄﾁｮｳｼﾓｻﾜｷﾀﾏﾌｸﾛ","pref":"愛知県","city":"豊川市","address":"御津町下佐脇玉袋"},
{"zip_code":"4410302","kana_pref":"ｱｲﾁｹﾝ","kana_city":"ﾄﾖｶﾜｼ","kana_address":"ﾐﾄﾁｮｳｼﾓｻﾜｷﾃﾞｸﾞﾁ","pref":"愛知県","city":"豊川市","address":"御津町下佐脇出口"},
{"zip_code":"4410302","kana_pref":"ｱｲﾁｹﾝ","kana_city":"ﾄﾖｶﾜｼ","kana_address":"ﾐﾄﾁｮｳｼﾓｻﾜｷﾃﾝｼﾞﾝ","pref":"愛知県","city":"豊川市","address":"御津町下佐脇天神"},
{"zip_code":"4410302","kana_pref":"ｱｲﾁｹﾝ","kana_city":"ﾄﾖｶﾜｼ","kana_address":"ﾐﾄﾁｮｳｼﾓｻﾜｷﾅｶｱﾚ","pref":"愛知県","city":"豊川市","address":"御津町下佐脇仲荒"},
{"zip_code":"4410302","kana_pref":"ｱｲﾁｹﾝ","kana_city":"ﾄﾖｶﾜｼ","kana_address":"ﾐﾄﾁｮｳｼﾓｻﾜｷﾅｶﾉﾂﾎﾞ","pref":"愛知県","city":"豊川市","address":"御津町下佐脇仲ノ坪"},
{"zip_code":"4410302","kana_pref":"ｱｲﾁｹﾝ","kana_city":"ﾄﾖｶﾜｼ","kana_address":"ﾐﾄﾁｮｳｼﾓｻﾜｷﾅﾜｸﾞﾁ","pref":"愛知県","city":"豊川市","address":"御津町下佐脇縄口"},
{"zip_code":"4410302","kana_pref":"ｱｲﾁｹﾝ","kana_city":"ﾄﾖｶﾜｼ","kana_address":"ﾐﾄﾁｮｳｼﾓｻﾜｷﾅﾜﾃ","pref":"愛知県","city":"豊川市","address":"御津町下佐脇縄手"},
{"zip_code":"4410302","kana_pref":"ｱｲﾁｹﾝ","kana_city":"ﾄﾖｶﾜｼ","kana_address":"ﾐﾄﾁｮｳｼﾓｻﾜｷﾉｸﾞﾁ","pref":"愛知県","city":"豊川市","address":"御津町下佐脇野口"},
{"zip_code":"4410302","kana_pref":"ｱｲﾁｹﾝ","kana_city":"ﾄﾖｶﾜｼ","kana_address":"ﾐﾄﾁｮｳｼﾓｻﾜｷﾉｻﾞｷ","pref":"愛知県","city":"豊川市","address":"御津町下佐脇野先"},
{"zip_code":"4410302","kana_pref":"ｱｲﾁｹﾝ","kana_city":"ﾄﾖｶﾜｼ","kana_address":"ﾐﾄﾁｮｳｼﾓｻﾜｷﾊﾁｼﾞﾘ","pref":"愛知県","city":"豊川市","address":"御津町下佐脇八尻"},
{"zip_code":"4410302","kana_pref":"ｱｲﾁｹﾝ","kana_city":"ﾄﾖｶﾜｼ","kana_address":"ﾐﾄﾁｮｳｼﾓｻﾜｷﾊｯﾀﾝﾀﾞ","pref":"愛知県","city":"豊川市","address":"御津町下佐脇八反田"},
{"zip_code":"4410302","kana_pref":"ｱｲﾁｹﾝ","kana_city":"ﾄﾖｶﾜｼ","kana_address":"ﾐﾄﾁｮｳｼﾓｻﾜｷﾊﾄﾘ","pref":"愛知県","city":"豊川市","address":"御津町下佐脇羽鳥"},
{"zip_code":"4410302","kana_pref":"ｱｲﾁｹﾝ","kana_city":"ﾄﾖｶﾜｼ","kana_address":"ﾐﾄﾁｮｳｼﾓｻﾜｷﾊﾅﾉｷ","pref":"愛知県","city":"豊川市","address":"御津町下佐脇花ノ木"},
{"zip_code":"4410302","kana_pref":"ｱｲﾁｹﾝ","kana_city":"ﾄﾖｶﾜｼ","kana_address":"ﾐﾄﾁｮｳｼﾓｻﾜｷﾊﾏﾐﾁ","pref":"愛知県","city":"豊川市","address":"御津町下佐脇浜道"},
{"zip_code":"4410302","kana_pref":"ｱｲﾁｹﾝ","kana_city":"ﾄﾖｶﾜｼ","kana_address":"ﾐﾄﾁｮｳｼﾓｻﾜｷﾋｷﾄｵｼ","pref":"愛知県","city":"豊川市","address":"御津町下佐脇引通"},
{"zip_code":"4410302","kana_pref":"ｱｲﾁｹﾝ","kana_city":"ﾄﾖｶﾜｼ","kana_address":"ﾐﾄﾁｮｳｼﾓｻﾜｷﾋﾛﾉ","pref":"愛知県","city":"豊川市","address":"御津町下佐脇広野"},
{"zip_code":"4410302","kana_pref":"ｱｲﾁｹﾝ","kana_city":"ﾄﾖｶﾜｼ","kana_address":"ﾐﾄﾁｮｳｼﾓｻﾜｷﾍｲｼﾞ","pref":"愛知県","city":"豊川市","address":"御津町下佐脇平次"},
{"zip_code":"4410302","kana_pref":"ｱｲﾁｹﾝ","kana_city":"ﾄﾖｶﾜｼ","kana_address":"ﾐﾄﾁｮｳｼﾓｻﾜｷﾎﾘｱｲ","pref":"愛知県","city":"豊川市","address":"御津町下佐脇堀合"},
{"zip_code":"4410302","kana_pref":"ｱｲﾁｹﾝ","kana_city":"ﾄﾖｶﾜｼ","kana_address":"ﾐﾄﾁｮｳｼﾓｻﾜｷﾏﾁｲ","pref":"愛知県","city":"豊川市","address":"御津町下佐脇待井"},
{"zip_code":"4410302","kana_pref":"ｱｲﾁｹﾝ","kana_city":"ﾄﾖｶﾜｼ","kana_address":"ﾐﾄﾁｮｳｼﾓｻﾜｷﾐﾔｺ","pref":"愛知県","city":"豊川市","address":"御津町下佐脇都"},
{"zip_code":"4410302","kana_pref":"ｱｲﾁｹﾝ","kana_city":"ﾄﾖｶﾜｼ","kana_address":"ﾐﾄﾁｮｳｼﾓｻﾜｷﾐﾔﾏｴ","pref":"愛知県","city":"豊川市","address":"御津町下佐脇宮前"},
{"zip_code":"4410302","kana_pref":"ｱｲﾁｹﾝ","kana_city":"ﾄﾖｶﾜｼ","kana_address":"ﾐﾄﾁｮｳｼﾓｻﾜｷﾐﾔﾓﾄ","pref":"愛知県","city":"豊川市","address":"御津町下佐脇宮本"},
{"zip_code":"4410302","kana_pref":"ｱｲﾁｹﾝ","kana_city":"ﾄﾖｶﾜｼ","kana_address":"ﾐﾄﾁｮｳｼﾓｻﾜｷﾑﾗｶﾐ","pref":"愛知県","city":"豊川市","address":"御津町下佐脇村上"},
{"zip_code":"4410302","kana_pref":"ｱｲﾁｹﾝ","kana_city":"ﾄﾖｶﾜｼ","kana_address":"ﾐﾄﾁｮｳｼﾓｻﾜｷﾔﾏｻﾞｷ","pref":"愛知県","city":"豊川市","address":"御津町下佐脇山崎"},
{"zip_code":"4410303","kana_pref":"ｱｲﾁｹﾝ","kana_city":"ﾄﾖｶﾜｼ","kana_address":"ﾐﾄﾁｮｳｼﾝﾃﾞﾝ","pref":"愛知県","city":"豊川市","address":"御津町新田"},
{"zip_code":"4410303","kana_pref":"ｱｲﾁｹﾝ","kana_city":"ﾄﾖｶﾜｼ","kana_address":"ﾐﾄﾁｮｳｼﾝﾃﾞﾝｱﾗｲﾀﾞｼ","pref":"愛知県","city":"豊川市","address":"御津町新田洗出"},
{"zip_code":"4410303","kana_pref":"ｱｲﾁｹﾝ","kana_city":"ﾄﾖｶﾜｼ","kana_address":"ﾐﾄﾁｮｳｼﾝﾃﾞﾝｼﾝｽﾅﾔﾏ","pref":"愛知県","city":"豊川市","address":"御津町新田新砂山"},
{"zip_code":"4410303","kana_pref":"ｱｲﾁｹﾝ","kana_city":"ﾄﾖｶﾜｼ","kana_address":"ﾐﾄﾁｮｳｼﾝﾃﾞﾝｽﾅﾔﾏ","pref":"愛知県","city":"豊川市","address":"御津町新田砂山"},
{"zip_code":"4410322","kana_pref":"ｱｲﾁｹﾝ","kana_city":"ﾄﾖｶﾜｼ","kana_address":"ﾐﾄﾁｮｳﾄﾖｻﾜ","pref":"愛知県","city":"豊川市","address":"御津町豊沢"},
{"zip_code":"4410322","kana_pref":"ｱｲﾁｹﾝ","kana_city":"ﾄﾖｶﾜｼ","kana_address":"ﾐﾄﾁｮｳﾄﾖｻﾜｱｶﾊﾞﾈ","pref":"愛知県","city":"豊川市","address":"御津町豊沢赤羽根"},
{"zip_code":"4410322","kana_pref":"ｱｲﾁｹﾝ","kana_city":"ﾄﾖｶﾜｼ","kana_address":"ﾐﾄﾁｮｳﾄﾖｻﾜｲｼﾄﾞｳﾉ","pref":"愛知県","city":"豊川市","address":"御津町豊沢石堂野"},
{"zip_code":"4410322","kana_pref":"ｱｲﾁｹﾝ","kana_city":"ﾄﾖｶﾜｼ","kana_address":"ﾐﾄﾁｮｳﾄﾖｻﾜｲﾘﾉｸﾁ","pref":"愛知県","city":"豊川市","address":"御津町豊沢入ノ口"},
{"zip_code":"4410322","kana_pref":"ｱｲﾁｹﾝ","kana_city":"ﾄﾖｶﾜｼ","kana_address":"ﾐﾄﾁｮｳﾄﾖｻﾜｳｴﾉﾔﾏ","pref":"愛知県","city":"豊川市","address":"御津町豊沢上野山"},
{"zip_code":"4410322","kana_pref":"ｱｲﾁｹﾝ","kana_city":"ﾄﾖｶﾜｼ","kana_address":"ﾐﾄﾁｮｳﾄﾖｻﾜｳｼﾛﾀﾞ","pref":"愛知県","city":"豊川市","address":"御津町豊沢後田"},
{"zip_code":"4410322","kana_pref":"ｱｲﾁｹﾝ","kana_city":"ﾄﾖｶﾜｼ","kana_address":"ﾐﾄﾁｮｳﾄﾖｻﾜｵｵｸﾗ","pref":"愛知県","city":"豊川市","address":"御津町豊沢大蔵"},
{"zip_code":"4410322","kana_pref":"ｱｲﾁｹﾝ","kana_city":"ﾄﾖｶﾜｼ","kana_address":"ﾐﾄﾁｮｳﾄﾖｻﾜｵｵｻﾜ","pref":"愛知県","city":"豊川市","address":"御津町豊沢大沢"},
{"zip_code":"4410322","kana_pref":"ｱｲﾁｹﾝ","kana_city":"ﾄﾖｶﾜｼ","kana_address":"ﾐﾄﾁｮｳﾄﾖｻﾜｵｵﾂﾎﾞ","pref":"愛知県","city":"豊川市","address":"御津町豊沢大坪"},
{"zip_code":"4410322","kana_pref":"ｱｲﾁｹﾝ","kana_city":"ﾄﾖｶﾜｼ","kana_address":"ﾐﾄﾁｮｳﾄﾖｻﾜｶﾜﾊﾗ","pref":"愛知県","city":"豊川市","address":"御津町豊沢川原"},
{"zip_code":"4410322","kana_pref":"ｱｲﾁｹﾝ","kana_city":"ﾄﾖｶﾜｼ","kana_address":"ﾐﾄﾁｮｳﾄﾖｻﾜｷｭｳｿﾞｳ","pref":"愛知県","city":"豊川市","address":"御津町豊沢久蔵"},
{"zip_code":"4410322","kana_pref":"ｱｲﾁｹﾝ","kana_city":"ﾄﾖｶﾜｼ","kana_address":"ﾐﾄﾁｮｳﾄﾖｻﾜｸﾗｼﾀ","pref":"愛知県","city":"豊川市","address":"御津町豊沢蔵下"},
{"zip_code":"4410322","kana_pref":"ｱｲﾁｹﾝ","kana_city":"ﾄﾖｶﾜｼ","kana_address":"ﾐﾄﾁｮｳﾄﾖｻﾜｺｻﾞﾜ","pref":"愛知県","city":"豊川市","address":"御津町豊沢小沢"},
{"zip_code":"4410322","kana_pref":"ｱｲﾁｹﾝ","kana_city":"ﾄﾖｶﾜｼ","kana_address":"ﾐﾄﾁｮｳﾄﾖｻﾜｺﾔﾏ","pref":"愛知県","city":"豊川市","address":"御津町豊沢小山"},
{"zip_code":"4410322","kana_pref":"ｱｲﾁｹﾝ","kana_city":"ﾄﾖｶﾜｼ","kana_address":"ﾐﾄﾁｮｳﾄﾖｻﾜｻﾜﾀﾘ","pref":"愛知県","city":"豊川市","address":"御津町豊沢沢渡"},
{"zip_code":"4410322","kana_pref":"ｱｲﾁｹﾝ","kana_city":"ﾄﾖｶﾜｼ","kana_address":"ﾐﾄﾁｮｳﾄﾖｻﾜｼﾉｶﾜ","pref":"愛知県","city":"豊川市","address":"御津町豊沢篠川"},
{"zip_code":"4410322","kana_pref":"ｱｲﾁｹﾝ","kana_city":"ﾄﾖｶﾜｼ","kana_address":"ﾐﾄﾁｮｳﾄﾖｻﾜｼﾝｺﾔﾏ","pref":"愛知県","city":"豊川市","address":"御津町豊沢新小山"},
{"zip_code":"4410322","kana_pref":"ｱｲﾁｹﾝ","kana_city":"ﾄﾖｶﾜｼ","kana_address":"ﾐﾄﾁｮｳﾄﾖｻﾜｼﾝｽｷﾞｼﾀ","pref":"愛知県","city":"豊川市","address":"御津町豊沢新杉下"},
{"zip_code":"4410322","kana_pref":"ｱｲﾁｹﾝ","kana_city":"ﾄﾖｶﾜｼ","kana_address":"ﾐﾄﾁｮｳﾄﾖｻﾜｽｷﾞｼﾀ","pref":"愛知県","city":"豊川市","address":"御津町豊沢杉下"},
{"zip_code":"4410322","kana_pref":"ｱｲﾁｹﾝ","kana_city":"ﾄﾖｶﾜｼ","kana_address":"ﾐﾄﾁｮｳﾄﾖｻﾜﾀﾙﾐ","pref":"愛知県","city":"豊川市","address":"御津町豊沢樽美"},
{"zip_code":"4410322","kana_pref":"ｱｲﾁｹﾝ","kana_city":"ﾄﾖｶﾜｼ","kana_address":"ﾐﾄﾁｮｳﾄﾖｻﾜﾊﾗｲﾃﾞﾝ","pref":"愛知県","city":"豊川市","address":"御津町豊沢払田"},
{"zip_code":"4410322","kana_pref":"ｱｲﾁｹﾝ","kana_city":"ﾄﾖｶﾜｼ","kana_address":"ﾐﾄﾁｮｳﾄﾖｻﾜﾋｷﾂﾘ","pref":"愛知県","city":"豊川市","address":"御津町豊沢引釣"},
{"zip_code":"4410322","kana_pref":"ｱｲﾁｹﾝ","kana_city":"ﾄﾖｶﾜｼ","kana_address":"ﾐﾄﾁｮｳﾄﾖｻﾜﾏﾂﾀﾞ","pref":"愛知県","city":"豊川市","address":"御津町豊沢松田"},
{"zip_code":"4410322","kana_pref":"ｱｲﾁｹﾝ","kana_city":"ﾄﾖｶﾜｼ","kana_address":"ﾐﾄﾁｮｳﾄﾖｻﾜﾏﾂﾉｼﾀ","pref":"愛知県","city":"豊川市","address":"御津町豊沢松ノ下"},
{"zip_code":"4410322","kana_pref":"ｱｲﾁｹﾝ","kana_city":"ﾄﾖｶﾜｼ","kana_address":"ﾐﾄﾁｮｳﾄﾖｻﾜﾐｻﾜ","pref":"愛知県","city":"豊川市","address":"御津町豊沢三沢"},
{"zip_code":"4410322","kana_pref":"ｱｲﾁｹﾝ","kana_city":"ﾄﾖｶﾜｼ","kana_address":"ﾐﾄﾁｮｳﾄﾖｻﾜﾐﾛｸｼﾞ","pref":"愛知県","city":"豊川市","address":"御津町豊沢弥勒寺"},
{"zip_code":"4410322","kana_pref":"ｱｲﾁｹﾝ","kana_city":"ﾄﾖｶﾜｼ","kana_address":"ﾐﾄﾁｮｳﾄﾖｻﾜﾔｸﾄﾞｳ","pref":"愛知県","city":"豊川市","address":"御津町豊沢薬堂"},
{"zip_code":"4410313","kana_pref":"ｱｲﾁｹﾝ","kana_city":"ﾄﾖｶﾜｼ","kana_address":"ﾐﾄﾁｮｳﾅｷﾞﾉ","pref":"愛知県","city":"豊川市","address":"御津町泙野"},
{"zip_code":"4410313","kana_pref":"ｱｲﾁｹﾝ","kana_city":"ﾄﾖｶﾜｼ","kana_address":"ﾐﾄﾁｮｳﾅｷﾞﾉｸｽﾉｷ","pref":"愛知県","city":"豊川市","address":"御津町泙野楠木"},
{"zip_code":"4410313","kana_pref":"ｱｲﾁｹﾝ","kana_city":"ﾄﾖｶﾜｼ","kana_address":"ﾐﾄﾁｮｳﾅｷﾞﾉｸﾛｼﾀ","pref":"愛知県","city":"豊川市","address":"御津町泙野久呂下"},
{"zip_code":"4410313","kana_pref":"ｱｲﾁｹﾝ","kana_city":"ﾄﾖｶﾜｼ","kana_address":"ﾐﾄﾁｮｳﾅｷﾞﾉｼﾝﾔｼｷ","pref":"愛知県","city":"豊川市","address":"御津町泙野新屋敷"},
{"zip_code":"4410313","kana_pref":"ｱｲﾁｹﾝ","kana_city":"ﾄﾖｶﾜｼ","kana_address":"ﾐﾄﾁｮｳﾅｷﾞﾉﾀｶﾊﾞﾀ","pref":"愛知県","city":"豊川市","address":"御津町泙野高畑"},
{"zip_code":"4410313","kana_pref":"ｱｲﾁｹﾝ","kana_city":"ﾄﾖｶﾜｼ","kana_address":"ﾐﾄﾁｮｳﾅｷﾞﾉﾁｮｳﾀﾞ","pref":"愛知県","city":"豊川市","address":"御津町泙野丁田"},
{"zip_code":"4410313","kana_pref":"ｱｲﾁｹﾝ","kana_city":"ﾄﾖｶﾜｼ","kana_address":"ﾐﾄﾁｮｳﾅｷﾞﾉﾅｶﾀﾞ","pref":"愛知県","city":"豊川市","address":"御津町泙野仲田"},
{"zip_code":"4410313","kana_pref":"ｱｲﾁｹﾝ","kana_city":"ﾄﾖｶﾜｼ","kana_address":"ﾐﾄﾁｮｳﾅｷﾞﾉﾅｶﾉﾂﾎﾞ","pref":"愛知県","city":"豊川市","address":"御津町泙野仲ノ坪"},
{"zip_code":"4410313","kana_pref":"ｱｲﾁｹﾝ","kana_city":"ﾄﾖｶﾜｼ","kana_address":"ﾐﾄﾁｮｳﾅｷﾞﾉﾊﾏｼﾝﾃﾞﾝ","pref":"愛知県","city":"豊川市","address":"御津町泙野浜新田"},
{"zip_code":"4410313","kana_pref":"ｱｲﾁｹﾝ","kana_city":"ﾄﾖｶﾜｼ","kana_address":"ﾐﾄﾁｮｳﾅｷﾞﾉﾎﾘｱｲ","pref":"愛知県","city":"豊川市","address":"御津町泙野堀合"},
{"zip_code":"4410313","kana_pref":"ｱｲﾁｹﾝ","kana_city":"ﾄﾖｶﾜｼ","kana_address":"ﾐﾄﾁｮｳﾅｷﾞﾉﾐﾔﾅｶﾞ","pref":"愛知県","city":"豊川市","address":"御津町泙野宮永"},
{"zip_code":"4410313","kana_pref":"ｱｲﾁｹﾝ","kana_city":"ﾄﾖｶﾜｼ","kana_address":"ﾐﾄﾁｮｳﾅｷﾞﾉﾑﾗｻｷ","pref":"愛知県","city":"豊川市","address":"御津町泙野村崎"},
{"zip_code":"4410313","kana_pref":"ｱｲﾁｹﾝ","kana_city":"ﾄﾖｶﾜｼ","kana_address":"ﾐﾄﾁｮｳﾅｷﾞﾉﾓﾁﾀﾞ","pref":"愛知県","city":"豊川市","address":"御津町泙野餅田"},
{"zip_code":"4410313","kana_pref":"ｱｲﾁｹﾝ","kana_city":"ﾄﾖｶﾜｼ","kana_address":"ﾐﾄﾁｮｳﾅｷﾞﾉﾔﾅｷﾞﾊﾗ","pref":"愛知県","city":"豊川市","address":"御津町泙野柳原"},
{"zip_code":"4410313","kana_pref":"ｱｲﾁｹﾝ","kana_city":"ﾄﾖｶﾜｼ","kana_address":"ﾐﾄﾁｮｳﾅｷﾞﾉﾔﾏｼﾀ","pref":"愛知県","city":"豊川市","address":"御津町泙野山下"},
{"zip_code":"4410313","kana_pref":"ｱｲﾁｹﾝ","kana_city":"ﾄﾖｶﾜｼ","kana_address":"ﾐﾄﾁｮｳﾅｷﾞﾉﾛｸｶｸ","pref":"愛知県","city":"豊川市","address":"御津町泙野六角"},
{"zip_code":"4410313","kana_pref":"ｱｲﾁｹﾝ","kana_city":"ﾄﾖｶﾜｼ","kana_address":"ﾐﾄﾁｮｳﾅｷﾞﾉﾛｸﾀﾝﾀﾞ","pref":"愛知県","city":"豊川市","address":"御津町泙野六反田"},
{"zip_code":"4410312","kana_pref":"ｱｲﾁｹﾝ","kana_city":"ﾄﾖｶﾜｼ","kana_address":"ﾐﾄﾁｮｳﾆｼｶﾞﾀ","pref":"愛知県","city":"豊川市","address":"御津町西方"},
{"zip_code":"4410312","kana_pref":"ｱｲﾁｹﾝ","kana_city":"ﾄﾖｶﾜｼ","kana_address":"ﾐﾄﾁｮｳﾆｼｶﾞﾀｱｹﾞﾊﾏ","pref":"愛知県","city":"豊川市","address":"御津町西方揚浜"},
{"zip_code":"4410312","kana_pref":"ｱｲﾁｹﾝ","kana_city":"ﾄﾖｶﾜｼ","kana_address":"ﾐﾄﾁｮｳﾆｼｶﾞﾀｲﾘﾊﾏ","pref":"愛知県","city":"豊川市","address":"御津町西方入浜"},
{"zip_code":"4410312","kana_pref":"ｱｲﾁｹﾝ","kana_city":"ﾄﾖｶﾜｼ","kana_address":"ﾐﾄﾁｮｳﾆｼｶﾞﾀｲﾘｮｳﾀﾞ","pref":"愛知県","city":"豊川市","address":"御津町西方井領田"},
{"zip_code":"4410312","kana_pref":"ｱｲﾁｹﾝ","kana_city":"ﾄﾖｶﾜｼ","kana_address":"ﾐﾄﾁｮｳﾆｼｶﾞﾀｷﾂﾈﾂﾞｶ","pref":"愛知県","city":"豊川市","address":"御津町西方狐塚"},
{"zip_code":"4410312","kana_pref":"ｱｲﾁｹﾝ","kana_city":"ﾄﾖｶﾜｼ","kana_address":"ﾐﾄﾁｮｳﾆｼｶﾞﾀｸｻｸ","pref":"愛知県","city":"豊川市","address":"御津町西方九策"},
{"zip_code":"4410312","kana_pref":"ｱｲﾁｹﾝ","kana_city":"ﾄﾖｶﾜｼ","kana_address":"ﾐﾄﾁｮｳﾆｼｶﾞﾀｹﾞﾝﾉｳ","pref":"愛知県","city":"豊川市","address":"御津町西方源農"},
{"zip_code":"4410312","kana_pref":"ｱｲﾁｹﾝ","kana_city":"ﾄﾖｶﾜｼ","kana_address":"ﾐﾄﾁｮｳﾆｼｶﾞﾀｺｶﾞｲﾂ","pref":"愛知県","city":"豊川市","address":"御津町西方小貝津"},
{"zip_code":"4410312","kana_pref":"ｱｲﾁｹﾝ","kana_city":"ﾄﾖｶﾜｼ","kana_address":"ﾐﾄﾁｮｳﾆｼｶﾞﾀｼﾓﾊﾏﾐﾁ","pref":"愛知県","city":"豊川市","address":"御津町西方下浜道"},
{"zip_code":"4410312","kana_pref":"ｱｲﾁｹﾝ","kana_city":"ﾄﾖｶﾜｼ","kana_address":"ﾐﾄﾁｮｳﾆｼｶﾞﾀｼﾞｮｳﾉｸﾁ","pref":"愛知県","city":"豊川市","address":"御津町西方常ノ口"},
{"zip_code":"4410312","kana_pref":"ｱｲﾁｹﾝ","kana_city":"ﾄﾖｶﾜｼ","kana_address":"ﾐﾄﾁｮｳﾆｼｶﾞﾀﾁｮｳﾀﾞ","pref":"愛知県","city":"豊川市","address":"御津町西方長田"},
{"zip_code":"4410312","kana_pref":"ｱｲﾁｹﾝ","kana_city":"ﾄﾖｶﾜｼ","kana_address":"ﾐﾄﾁｮｳﾆｼｶﾞﾀﾄｲﾀﾞ","pref":"愛知県","city":"豊川市","address":"御津町西方樋田"},
{"zip_code":"4410312","kana_pref":"ｱｲﾁｹﾝ","kana_city":"ﾄﾖｶﾜｼ","kana_address":"ﾐﾄﾁｮｳﾆｼｶﾞﾀﾅｶﾐﾁ","pref":"愛知県","city":"豊川市","address":"御津町西方中道"},
{"zip_code":"4410312","kana_pref":"ｱｲﾁｹﾝ","kana_city":"ﾄﾖｶﾜｼ","kana_address":"ﾐﾄﾁｮｳﾆｼｶﾞﾀﾅｶﾔｼｷ","pref":"愛知県","city":"豊川市","address":"御津町西方中屋敷"},
{"zip_code":"4410312","kana_pref":"ｱｲﾁｹﾝ","kana_city":"ﾄﾖｶﾜｼ","kana_address":"ﾐﾄﾁｮｳﾆｼｶﾞﾀﾅｼﾉ","pref":"愛知県","city":"豊川市","address":"御津町西方梨野"},
{"zip_code":"4410312","kana_pref":"ｱｲﾁｹﾝ","kana_city":"ﾄﾖｶﾜｼ","kana_address":"ﾐﾄﾁｮｳﾆｼｶﾞﾀﾊﾏﾀﾞ","pref":"愛知県","city":"豊川市","address":"御津町西方浜田"},
{"zip_code":"4410312","kana_pref":"ｱｲﾁｹﾝ","kana_city":"ﾄﾖｶﾜｼ","kana_address":"ﾐﾄﾁｮｳﾆｼｶﾞﾀﾋｸﾞﾗｼ","pref":"愛知県","city":"豊川市","address":"御津町西方日暮"},
{"zip_code":"4410312","kana_pref":"ｱｲﾁｹﾝ","kana_city":"ﾄﾖｶﾜｼ","kana_address":"ﾐﾄﾁｮｳﾆｼｶﾞﾀﾋﾛﾀ","pref":"愛知県","city":"豊川市","address":"御津町西方広田"},
{"zip_code":"4410312","kana_pref":"ｱｲﾁｹﾝ","kana_city":"ﾄﾖｶﾜｼ","kana_address":"ﾐﾄﾁｮｳﾆｼｶﾞﾀﾏﾂﾓﾄ","pref":"愛知県","city":"豊川市","address":"御津町西方松本"},
{"zip_code":"4410312","kana_pref":"ｱｲﾁｹﾝ","kana_city":"ﾄﾖｶﾜｼ","kana_address":"ﾐﾄﾁｮｳﾆｼｶﾞﾀﾐﾔﾅｶﾞ","pref":"愛知県","city":"豊川市","address":"御津町西方宮長"},
{"zip_code":"4410321","kana_pref":"ｱｲﾁｹﾝ","kana_city":"ﾄﾖｶﾜｼ","kana_address":"ﾐﾄﾁｮｳﾋﾛｲｼ","pref":"愛知県","city":"豊川市","address":"御津町広石"},
{"zip_code":"4410321","kana_pref":"ｱｲﾁｹﾝ","kana_city":"ﾄﾖｶﾜｼ","kana_address":"ﾐﾄﾁｮｳﾋﾛｲｼｲｼﾄﾞｳﾉ","pref":"愛知県","city":"豊川市","address":"御津町広石石堂野"},
{"zip_code":"4410321","kana_pref":"ｱｲﾁｹﾝ","kana_city":"ﾄﾖｶﾜｼ","kana_address":"ﾐﾄﾁｮｳﾋﾛｲｼｲﾁﾊﾞ","pref":"愛知県","city":"豊川市","address":"御津町広石市場"},
{"zip_code":"4410321","kana_pref":"ｱｲﾁｹﾝ","kana_city":"ﾄﾖｶﾜｼ","kana_address":"ﾐﾄﾁｮｳﾋﾛｲｼｳｼﾛﾊﾞﾀ","pref":"愛知県","city":"豊川市","address":"御津町広石後畠"},
{"zip_code":"4410321","kana_pref":"ｱｲﾁｹﾝ","kana_city":"ﾄﾖｶﾜｼ","kana_address":"ﾐﾄﾁｮｳﾋﾛｲｼｵｯｶﾜ","pref":"愛知県","city":"豊川市","address":"御津町広石越川"},
{"zip_code":"4410321","kana_pref":"ｱｲﾁｹﾝ","kana_city":"ﾄﾖｶﾜｼ","kana_address":"ﾐﾄﾁｮｳﾋﾛｲｼｶﾅﾄﾞｳ","pref":"愛知県","city":"豊川市","address":"御津町広石金堂"},
{"zip_code":"4410321","kana_pref":"ｱｲﾁｹﾝ","kana_city":"ﾄﾖｶﾜｼ","kana_address":"ﾐﾄﾁｮｳﾋﾛｲｼｸﾁﾅﾜﾂﾞｶ","pref":"愛知県","city":"豊川市","address":"御津町広石蛇塚"},
{"zip_code":"4410321","kana_pref":"ｱｲﾁｹﾝ","kana_city":"ﾄﾖｶﾜｼ","kana_address":"ﾐﾄﾁｮｳﾋﾛｲｼｺｳｻﾞｶ","pref":"愛知県","city":"豊川市","address":"御津町広石高坂"},
{"zip_code":"4410321","kana_pref":"ｱｲﾁｹﾝ","kana_city":"ﾄﾖｶﾜｼ","kana_address":"ﾐﾄﾁｮｳﾋﾛｲｼｺｼﾞﾛﾏｴ","pref":"愛知県","city":"豊川市","address":"御津町広石小城前"},
{"zip_code":"4410321","kana_pref":"ｱｲﾁｹﾝ","kana_city":"ﾄﾖｶﾜｼ","kana_address":"ﾐﾄﾁｮｳﾋﾛｲｼｺﾞﾀﾝﾀﾞ","pref":"愛知県","city":"豊川市","address":"御津町広石五反田"},
{"zip_code":"4410321","kana_pref":"ｱｲﾁｹﾝ","kana_city":"ﾄﾖｶﾜｼ","kana_address":"ﾐﾄﾁｮｳﾋﾛｲｼｺﾏｴ","pref":"愛知県","city":"豊川市","address":"御津町広石小前"},
{"zip_code":"4410321","kana_pref":"ｱｲﾁｹﾝ","kana_city":"ﾄﾖｶﾜｼ","kana_address":"ﾐﾄﾁｮｳﾋﾛｲｼｼﾝｸﾞｳｻﾝ","pref":"愛知県","city":"豊川市","address":"御津町広石新宮山"},
{"zip_code":"4410321","kana_pref":"ｱｲﾁｹﾝ","kana_city":"ﾄﾖｶﾜｼ","kana_address":"ﾐﾄﾁｮｳﾋﾛｲｼｾﾝｼﾞ","pref":"愛知県","city":"豊川市","address":"御津町広石千路"},
{"zip_code":"4410321","kana_pref":"ｱｲﾁｹﾝ","kana_city":"ﾄﾖｶﾜｼ","kana_address":"ﾐﾄﾁｮｳﾋﾛｲｼﾀｹﾓﾄ","pref":"愛知県","city":"豊川市","address":"御津町広石竹本"},
{"zip_code":"4410321","kana_pref":"ｱｲﾁｹﾝ","kana_city":"ﾄﾖｶﾜｼ","kana_address":"ﾐﾄﾁｮｳﾋﾛｲｼﾄﾁｶﾞﾂﾎﾞ","pref":"愛知県","city":"豊川市","address":"御津町広石枋ケ坪"},
{"zip_code":"4410321","kana_pref":"ｱｲﾁｹﾝ","kana_city":"ﾄﾖｶﾜｼ","kana_address":"ﾐﾄﾁｮｳﾋﾛｲｼﾅｶﾞｲﾀﾞ","pref":"愛知県","city":"豊川市","address":"御津町広石永井田"},
{"zip_code":"4410321","kana_pref":"ｱｲﾁｹﾝ","kana_city":"ﾄﾖｶﾜｼ","kana_address":"ﾐﾄﾁｮｳﾋﾛｲｼﾈｷﾞﾃﾞﾝ","pref":"愛知県","city":"豊川市","address":"御津町広石祢宜田"},
{"zip_code":"4410321","kana_pref":"ｱｲﾁｹﾝ","kana_city":"ﾄﾖｶﾜｼ","kana_address":"ﾐﾄﾁｮｳﾋﾛｲｼﾊﾗｲﾃﾞﾝ","pref":"愛知県","city":"豊川市","address":"御津町広石祓田"},
{"zip_code":"4410321","kana_pref":"ｱｲﾁｹﾝ","kana_city":"ﾄﾖｶﾜｼ","kana_address":"ﾐﾄﾁｮｳﾋﾛｲｼﾋｸﾞﾗｼ","pref":"愛知県","city":"豊川市","address":"御津町広石日暮"},
{"zip_code":"4410321","kana_pref":"ｱｲﾁｹﾝ","kana_city":"ﾄﾖｶﾜｼ","kana_address":"ﾐﾄﾁｮｳﾋﾛｲｼﾋﾛｸﾆ","pref":"愛知県","city":"豊川市","address":"御津町広石広国"},
{"zip_code":"4410321","kana_pref":"ｱｲﾁｹﾝ","kana_city":"ﾄﾖｶﾜｼ","kana_address":"ﾐﾄﾁｮｳﾋﾛｲｼﾌﾅﾂ","pref":"愛知県","city":"豊川市","address":"御津町広石船津"},
{"zip_code":"4410321","kana_pref":"ｱｲﾁｹﾝ","kana_city":"ﾄﾖｶﾜｼ","kana_address":"ﾐﾄﾁｮｳﾋﾛｲｼﾌﾅﾔﾏ","pref":"愛知県","city":"豊川市","address":"御津町広石船山"},
{"zip_code":"4410321","kana_pref":"ｱｲﾁｹﾝ","kana_city":"ﾄﾖｶﾜｼ","kana_address":"ﾐﾄﾁｮｳﾋﾛｲｼﾐｺﾃﾞﾝ","pref":"愛知県","city":"豊川市","address":"御津町広石神子田"},
{"zip_code":"4410321","kana_pref":"ｱｲﾁｹﾝ","kana_city":"ﾄﾖｶﾜｼ","kana_address":"ﾐﾄﾁｮｳﾋﾛｲｼﾐﾄﾔﾏ","pref":"愛知県","city":"豊川市","address":"御津町広石御津山"},
{"zip_code":"4410321","kana_pref":"ｱｲﾁｹﾝ","kana_city":"ﾄﾖｶﾜｼ","kana_address":"ﾐﾄﾁｮｳﾋﾛｲｼﾖｺﾏﾁ","pref":"愛知県","city":"豊川市","address":"御津町広石横町"},
{"zip_code":"4410314","kana_pref":"ｱｲﾁｹﾝ","kana_city":"ﾄﾖｶﾜｼ","kana_address":"ﾐﾄﾁｮｳﾐﾕｷﾊﾏ","pref":"愛知県","city":"豊川市","address":"御津町御幸浜"},
{"zip_code":"4410314","kana_pref":"ｱｲﾁｹﾝ","kana_city":"ﾄﾖｶﾜｼ","kana_address":"ﾐﾄﾁｮｳﾐﾕｷﾊﾏ1ｺﾞｳﾁ","pref":"愛知県","city":"豊川市","address":"御津町御幸浜一号地"},
{"zip_code":"4412513","kana_pref":"ｱｲﾁｹﾝ","kana_city":"ﾄﾖﾀｼ","kana_address":"ｲﾅﾌﾞﾁｮｳ","pref":"愛知県","city":"豊田市","address":"稲武町"},
{"zip_code":"4412511","kana_pref":"ｱｲﾁｹﾝ","kana_city":"ﾄﾖﾀｼ","kana_address":"ｵｵﾉｾﾁｮｳ","pref":"愛知県","city":"豊田市","address":"大野瀬町"},
{"zip_code":"4412516","kana_pref":"ｱｲﾁｹﾝ","kana_city":"ﾄﾖﾀｼ","kana_address":"ｵｼﾔﾏﾁｮｳ","pref":"愛知県","city":"豊田市","address":"押山町"},
{"zip_code":"4412525","kana_pref":"ｱｲﾁｹﾝ","kana_city":"ﾄﾖﾀｼ","kana_address":"ｵﾀｷﾞﾁｮｳ","pref":"愛知県","city":"豊田市","address":"小田木町"},
{"zip_code":"4412517","kana_pref":"ｱｲﾁｹﾝ","kana_city":"ﾄﾖﾀｼ","kana_address":"ｶﾜﾃﾁｮｳ","pref":"愛知県","city":"豊田市","address":"川手町"},
{"zip_code":"4412524","kana_pref":"ｱｲﾁｹﾝ","kana_city":"ﾄﾖﾀｼ","kana_address":"ｸﾛﾀﾞﾁｮｳ","pref":"愛知県","city":"豊田市","address":"黒田町"},
{"zip_code":"4412521","kana_pref":"ｱｲﾁｹﾝ","kana_city":"ﾄﾖﾀｼ","kana_address":"ｸﾜﾊﾞﾗﾁｮｳ","pref":"愛知県","city":"豊田市","address":"桑原町"},
{"zip_code":"4412523","kana_pref":"ｱｲﾁｹﾝ","kana_city":"ﾄﾖﾀｼ","kana_address":"ｺﾞｼｮｶﾞｲﾂﾁｮｳ","pref":"愛知県","city":"豊田市","address":"御所貝津町"},
{"zip_code":"4412526","kana_pref":"ｱｲﾁｹﾝ","kana_city":"ﾄﾖﾀｼ","kana_address":"ﾄﾐﾅｶﾞﾁｮｳ","pref":"愛知県","city":"豊田市","address":"富永町"},
{"zip_code":"4412514","kana_pref":"ｱｲﾁｹﾝ","kana_city":"ﾄﾖﾀｼ","kana_address":"ﾅｶﾄｳﾁｮｳ","pref":"愛知県","city":"豊田市","address":"中当町"},
{"zip_code":"4412515","kana_pref":"ｱｲﾁｹﾝ","kana_city":"ﾄﾖﾀｼ","kana_address":"ﾅﾂﾔｹﾁｮｳ","pref":"愛知県","city":"豊田市","address":"夏焼町"},
{"zip_code":"4412512","kana_pref":"ｱｲﾁｹﾝ","kana_city":"ﾄﾖﾀｼ","kana_address":"ﾉｲﾘﾁｮｳ","pref":"愛知県","city":"豊田市","address":"野入町"},
{"zip_code":"4412522","kana_pref":"ｱｲﾁｹﾝ","kana_city":"ﾄﾖﾀｼ","kana_address":"ﾌﾞｾﾂﾏﾁ","pref":"愛知県","city":"豊田市","address":"武節町"},
{"zip_code":"4411300","kana_pref":"ｱｲﾁｹﾝ","kana_city":"ｼﾝｼﾛｼ","kana_address":"","pref":"愛知県","city":"新城市","address":""},
{"zip_code":"4411951","kana_pref":"ｱｲﾁｹﾝ","kana_city":"ｼﾝｼﾛｼ","kana_address":"ｱｲｺﾞｳ","pref":"愛知県","city":"新城市","address":"愛郷"},
{"zip_code":"4411312","kana_pref":"ｱｲﾁｹﾝ","kana_city":"ｼﾝｼﾛｼ","kana_address":"ｱｻﾔ","pref":"愛知県","city":"新城市","address":"浅谷"},
{"zip_code":"4411317","kana_pref":"ｱｲﾁｹﾝ","kana_city":"ｼﾝｼﾛｼ","kana_address":"ｱﾙﾐ","pref":"愛知県","city":"新城市","address":"有海"},
{"zip_code":"4411602","kana_pref":"ｱｲﾁｹﾝ","kana_city":"ｼﾝｼﾛｼ","kana_address":"ｲｹﾊﾞ","pref":"愛知県","city":"新城市","address":"池場"},
{"zip_code":"4411342","kana_pref":"ｱｲﾁｹﾝ","kana_city":"ｼﾝｼﾛｼ","kana_address":"ｲｼﾀﾞ","pref":"愛知県","city":"新城市","address":"石田"},
{"zip_code":"4411365","kana_pref":"ｱｲﾁｹﾝ","kana_city":"ｼﾝｼﾛｼ","kana_address":"ｲｼﾅｺﾞｳ","pref":"愛知県","city":"新城市","address":"石名号"},
{"zip_code":"4411616","kana_pref":"ｱｲﾁｹﾝ","kana_city":"ｼﾝｼﾛｼ","kana_address":"ｲｼﾛ","pref":"愛知県","city":"新城市","address":"井代"},
{"zip_code":"4411321","kana_pref":"ｱｲﾁｹﾝ","kana_city":"ｼﾝｼﾛｼ","kana_address":"ｲﾁｶﾜ","pref":"愛知県","city":"新城市","address":"市川"},
{"zip_code":"4411348","kana_pref":"ｱｲﾁｹﾝ","kana_city":"ｼﾝｼﾛｼ","kana_address":"ｲﾁﾊﾞﾀﾞｲ","pref":"愛知県","city":"新城市","address":"市場台"},
{"zip_code":"4411953","kana_pref":"ｱｲﾁｹﾝ","kana_city":"ｼﾝｼﾛｼ","kana_address":"ｲｯｼｷ","pref":"愛知県","city":"新城市","address":"一色"},
{"zip_code":"4411351","kana_pref":"ｱｲﾁｹﾝ","kana_city":"ｼﾝｼﾛｼ","kana_address":"ｲﾅｷﾞ","pref":"愛知県","city":"新城市","address":"稲木"},
{"zip_code":"4411324","kana_pref":"ｱｲﾁｹﾝ","kana_city":"ｼﾝｼﾛｼ","kana_address":"ｲﾐﾁ","pref":"愛知県","city":"新城市","address":"井道"},
{"zip_code":"4411324","kana_pref":"ｱｲﾁｹﾝ","kana_city":"ｼﾝｼﾛｼ","kana_address":"ｵｸｲﾐﾁ","pref":"愛知県","city":"新城市","address":"奥井道"},
{"zip_code":"4411324","kana_pref":"ｱｲﾁｹﾝ","kana_city":"ｼﾝｼﾛｼ","kana_address":"ｳﾁｲﾐﾁ","pref":"愛知県","city":"新城市","address":"内井道"},
{"zip_code":"4411303","kana_pref":"ｱｲﾁｹﾝ","kana_city":"ｼﾝｼﾛｼ","kana_address":"ｳｼｸﾞﾗ","pref":"愛知県","city":"新城市","address":"牛倉"},
{"zip_code":"4411372","kana_pref":"ｱｲﾁｹﾝ","kana_city":"ｼﾝｼﾛｼ","kana_address":"ｳﾗﾉ","pref":"愛知県","city":"新城市","address":"裏野"},
{"zip_code":"4411943","kana_pref":"ｱｲﾁｹﾝ","kana_city":"ｼﾝｼﾛｼ","kana_address":"ｴﾋﾞ","pref":"愛知県","city":"新城市","address":"海老"},
{"zip_code":"4411615","kana_pref":"ｱｲﾁｹﾝ","kana_city":"ｼﾝｼﾛｼ","kana_address":"ｵｵﾉ","pref":"愛知県","city":"新城市","address":"大野"},
{"zip_code":"4411315","kana_pref":"ｱｲﾁｹﾝ","kana_city":"ｼﾝｼﾛｼ","kana_address":"ｵｵﾐ","pref":"愛知県","city":"新城市","address":"大海"},
{"zip_code":"4411304","kana_pref":"ｱｲﾁｹﾝ","kana_city":"ｼﾝｼﾛｼ","kana_address":"ｵｵﾐﾔ","pref":"愛知県","city":"新城市","address":"大宮"},
{"zip_code":"4411364","kana_pref":"ｱｲﾁｹﾝ","kana_city":"ｼﾝｼﾛｼ","kana_address":"ｵｷﾉ","pref":"愛知県","city":"新城市","address":"沖野"},
{"zip_code":"4411333","kana_pref":"ｱｲﾁｹﾝ","kana_city":"ｼﾝｼﾛｼ","kana_address":"ｵﾊﾞﾀ","pref":"愛知県","city":"新城市","address":"小畑"},
{"zip_code":"4411329","kana_pref":"ｱｲﾁｹﾝ","kana_city":"ｼﾝｼﾛｼ","kana_address":"ｶｻｲﾜ","pref":"愛知県","city":"新城市","address":"笠岩"},
{"zip_code":"4411354","kana_pref":"ｱｲﾁｹﾝ","kana_city":"ｼﾝｼﾛｼ","kana_address":"ｶﾀﾔﾏ","pref":"愛知県","city":"新城市","address":"片山"},
{"zip_code":"4411327","kana_pref":"ｱｲﾁｹﾝ","kana_city":"ｼﾝｼﾛｼ","kana_address":"ｶﾂｵﾌﾞﾁ","pref":"愛知県","city":"新城市","address":"鰹淵"},
{"zip_code":"4411693","kana_pref":"ｱｲﾁｹﾝ","kana_city":"ｼﾝｼﾛｼ","kana_address":"ｶﾄﾞﾔ","pref":"愛知県","city":"新城市","address":"門谷"},
{"zip_code":"4411944","kana_pref":"ｱｲﾁｹﾝ","kana_city":"ｼﾝｼﾛｼ","kana_address":"ｶﾄﾞﾔ","pref":"愛知県","city":"新城市","address":"門谷"},
{"zip_code":"4411355","kana_pref":"ｱｲﾁｹﾝ","kana_city":"ｼﾝｼﾛｼ","kana_address":"ｶﾐﾋﾗｲ","pref":"愛知県","city":"新城市","address":"上平井"},
{"zip_code":"4411622","kana_pref":"ｱｲﾁｹﾝ","kana_city":"ｼﾝｼﾛｼ","kana_address":"ｶﾐﾖｼﾀﾞ","pref":"愛知県","city":"新城市","address":"上吉田"},
{"zip_code":"4411601","kana_pref":"ｱｲﾁｹﾝ","kana_city":"ｼﾝｼﾛｼ","kana_address":"ｶﾜｲ","pref":"愛知県","city":"新城市","address":"川合"},
{"zip_code":"4411306","kana_pref":"ｱｲﾁｹﾝ","kana_city":"ｼﾝｼﾛｼ","kana_address":"ｶﾜｼﾞ","pref":"愛知県","city":"新城市","address":"川路"},
{"zip_code":"4411346","kana_pref":"ｱｲﾁｹﾝ","kana_city":"ｼﾝｼﾛｼ","kana_address":"ｶﾜﾀﾞ","pref":"愛知県","city":"新城市","address":"川田"},
{"zip_code":"4411347","kana_pref":"ｱｲﾁｹﾝ","kana_city":"ｼﾝｼﾛｼ","kana_address":"ｶﾜﾀﾞ","pref":"愛知県","city":"新城市","address":"川田"},
{"zip_code":"4411387","kana_pref":"ｱｲﾁｹﾝ","kana_city":"ｼﾝｼﾛｼ","kana_address":"ｷﾀﾊﾞﾀ","pref":"愛知県","city":"新城市","address":"北畑"},
{"zip_code":"4411945","kana_pref":"ｱｲﾁｹﾝ","kana_city":"ｼﾝｼﾛｼ","kana_address":"ｸﾛｾﾞ","pref":"愛知県","city":"新城市","address":"玖老勢"},
{"zip_code":"4411332","kana_pref":"ｱｲﾁｹﾝ","kana_city":"ｼﾝｼﾛｼ","kana_address":"ｸﾛﾀﾞ","pref":"愛知県","city":"新城市","address":"黒田"},
{"zip_code":"4411328","kana_pref":"ｱｲﾁｹﾝ","kana_city":"ｼﾝｼﾛｼ","kana_address":"ｻｸﾗﾌﾞﾁ","pref":"愛知県","city":"新城市","address":"桜淵"},
{"zip_code":"4411956","kana_pref":"ｱｲﾁｹﾝ","kana_city":"ｼﾝｼﾛｼ","kana_address":"ｼｵｾ","pref":"愛知県","city":"新城市","address":"塩瀬"},
{"zip_code":"4411381","kana_pref":"ｱｲﾁｹﾝ","kana_city":"ｼﾝｼﾛｼ","kana_address":"ｼﾀｶﾞﾜ","pref":"愛知県","city":"新城市","address":"下川"},
{"zip_code":"4411621","kana_pref":"ｱｲﾁｹﾝ","kana_city":"ｼﾝｼﾛｼ","kana_address":"ｼﾓﾖｼﾀﾞ","pref":"愛知県","city":"新城市","address":"下吉田"},
{"zip_code":"4411371","kana_pref":"ｱｲﾁｹﾝ","kana_city":"ｼﾝｼﾛｼ","kana_address":"ｼﾞｮｳﾎｸ","pref":"愛知県","city":"新城市","address":"城北"},
{"zip_code":"4411341","kana_pref":"ｱｲﾁｹﾝ","kana_city":"ｼﾝｼﾛｼ","kana_address":"ｽｷﾞﾔﾏ","pref":"愛知県","city":"新城市","address":"杉山"},
{"zip_code":"4411313","kana_pref":"ｱｲﾁｹﾝ","kana_city":"ｼﾝｼﾛｼ","kana_address":"ｽｻﾞﾜ","pref":"愛知県","city":"新城市","address":"出沢"},
{"zip_code":"4411311","kana_pref":"ｱｲﾁｹﾝ","kana_city":"ｼﾝｼﾛｼ","kana_address":"ｽﾅｶﾞ","pref":"愛知県","city":"新城市","address":"須長"},
{"zip_code":"4411612","kana_pref":"ｱｲﾁｹﾝ","kana_city":"ｼﾝｼﾛｼ","kana_address":"ｽﾔﾏ","pref":"愛知県","city":"新城市","address":"巣山"},
{"zip_code":"4411382","kana_pref":"ｱｲﾁｹﾝ","kana_city":"ｼﾝｼﾛｼ","kana_address":"ﾀｷﾉｳｴ","pref":"愛知県","city":"新城市","address":"滝ノ上"},
{"zip_code":"4411624","kana_pref":"ｱｲﾁｹﾝ","kana_city":"ｼﾝｼﾛｼ","kana_address":"ﾀｹﾉﾜ","pref":"愛知県","city":"新城市","address":"竹ノ輪"},
{"zip_code":"4411305","kana_pref":"ｱｲﾁｹﾝ","kana_city":"ｼﾝｼﾛｼ","kana_address":"ﾀｹﾋﾛ","pref":"愛知県","city":"新城市","address":"竹広"},
{"zip_code":"4411954","kana_pref":"ｱｲﾁｹﾝ","kana_city":"ｼﾝｼﾛｼ","kana_address":"ﾀﾀﾞﾓﾁ","pref":"愛知県","city":"新城市","address":"只持"},
{"zip_code":"4411533","kana_pref":"ｱｲﾁｹﾝ","kana_city":"ｼﾝｼﾛｼ","kana_address":"ﾂｸﾃﾞｱﾜﾗ","pref":"愛知県","city":"新城市","address":"作手荒原"},
{"zip_code":"4411411","kana_pref":"ｱｲﾁｹﾝ","kana_city":"ｼﾝｼﾛｼ","kana_address":"ﾂｸﾃﾞｲﾜﾅﾐ","pref":"愛知県","city":"新城市","address":"作手岩波"},
{"zip_code":"4411531","kana_pref":"ｱｲﾁｹﾝ","kana_city":"ｼﾝｼﾛｼ","kana_address":"ﾂｸﾃﾞｵｵﾜﾀﾞ","pref":"愛知県","city":"新城市","address":"作手大和田"},
{"zip_code":"4411412","kana_pref":"ｱｲﾁｹﾝ","kana_city":"ｼﾝｼﾛｼ","kana_address":"ﾂｸﾃﾞｶﾓｶﾞﾔ","pref":"愛知県","city":"新城市","address":"作手鴨ケ谷"},
{"zip_code":"4411414","kana_pref":"ｱｲﾁｹﾝ","kana_city":"ｼﾝｼﾛｼ","kana_address":"ﾂｸﾃﾞｷﾖｵｶ","pref":"愛知県","city":"新城市","address":"作手清岳"},
{"zip_code":"4411402","kana_pref":"ｱｲﾁｹﾝ","kana_city":"ｼﾝｼﾛｼ","kana_address":"ﾂｸﾃﾞｷﾜﾀﾞ","pref":"愛知県","city":"新城市","address":"作手木和田"},
{"zip_code":"4411421","kana_pref":"ｱｲﾁｹﾝ","kana_city":"ｼﾝｼﾛｼ","kana_address":"ﾂｸﾃﾞｸﾛｾ","pref":"愛知県","city":"新城市","address":"作手黒瀬"},
{"zip_code":"4411413","kana_pref":"ｱｲﾁｹﾝ","kana_city":"ｼﾝｼﾛｼ","kana_address":"ﾂｸﾃﾞｼﾗﾄﾘ","pref":"愛知県","city":"新城市","address":"作手白鳥"},
{"zip_code":"4411404","kana_pref":"ｱｲﾁｹﾝ","kana_city":"ｼﾝｼﾛｼ","kana_address":"ﾂｸﾃﾞｽｶﾞﾇﾏ","pref":"愛知県","city":"新城市","address":"作手菅沼"},
{"zip_code":"4411535","kana_pref":"ｱｲﾁｹﾝ","kana_city":"ｼﾝｼﾛｼ","kana_address":"ﾂｸﾃﾞｽｷﾞﾀﾞｲﾗ","pref":"愛知県","city":"新城市","address":"作手杉平"},
{"zip_code":"4411403","kana_pref":"ｱｲﾁｹﾝ","kana_city":"ｼﾝｼﾛｼ","kana_address":"ﾂｸﾃﾞｾﾞﾝﾌﾞ","pref":"愛知県","city":"新城市","address":"作手善夫"},
{"zip_code":"4411423","kana_pref":"ｱｲﾁｹﾝ","kana_city":"ｼﾝｼﾛｼ","kana_address":"ﾂｸﾃﾞﾀｶｻﾄ","pref":"愛知県","city":"新城市","address":"作手高里"},
{"zip_code":"4411532","kana_pref":"ｱｲﾁｹﾝ","kana_city":"ｼﾝｼﾛｼ","kana_address":"ﾂｸﾃﾞﾀｶﾏﾂ","pref":"愛知県","city":"新城市","address":"作手高松"},
{"zip_code":"4411534","kana_pref":"ｱｲﾁｹﾝ","kana_city":"ｼﾝｼﾛｼ","kana_address":"ﾂｸﾃﾞﾀｼﾛ","pref":"愛知県","city":"新城市","address":"作手田代"},
{"zip_code":"4411422","kana_pref":"ｱｲﾁｹﾝ","kana_city":"ｼﾝｼﾛｼ","kana_address":"ﾂｸﾃﾞﾀﾊﾞﾗ","pref":"愛知県","city":"新城市","address":"作手田原"},
{"zip_code":"4411424","kana_pref":"ｱｲﾁｹﾝ","kana_city":"ｼﾝｼﾛｼ","kana_address":"ﾂｸﾃﾞﾅｶｺﾞｳﾁ","pref":"愛知県","city":"新城市","address":"作手中河内"},
{"zip_code":"4411401","kana_pref":"ｱｲﾁｹﾝ","kana_city":"ｼﾝｼﾛｼ","kana_address":"ﾂｸﾃﾞﾓﾘﾖｼ","pref":"愛知県","city":"新城市","address":"作手守義"},
{"zip_code":"4411536","kana_pref":"ｱｲﾁｹﾝ","kana_city":"ｼﾝｼﾛｼ","kana_address":"ﾂｸﾃﾞﾔｽﾅｶﾞ","pref":"愛知県","city":"新城市","address":"作手保永"},
{"zip_code":"4411623","kana_pref":"ｱｲﾁｹﾝ","kana_city":"ｼﾝｼﾛｼ","kana_address":"ﾂｹﾞﾉ","pref":"愛知県","city":"新城市","address":"黄柳野"},
{"zip_code":"4411353","kana_pref":"ｱｲﾁｹﾝ","kana_city":"ｼﾝｼﾛｼ","kana_address":"ﾄｸｻﾀﾞ","pref":"愛知県","city":"新城市","address":"徳定"},
{"zip_code":"4411335","kana_pref":"ｱｲﾁｹﾝ","kana_city":"ｼﾝｼﾛｼ","kana_address":"ﾄﾐｵｶ","pref":"愛知県","city":"新城市","address":"富岡"},
{"zip_code":"4411336","kana_pref":"ｱｲﾁｹﾝ","kana_city":"ｼﾝｼﾛｼ","kana_address":"ﾄﾐｵｶ","pref":"愛知県","city":"新城市","address":"富岡"},
{"zip_code":"4411632","kana_pref":"ｱｲﾁｹﾝ","kana_city":"ｼﾝｼﾛｼ","kana_address":"ﾄﾐｻｶ","pref":"愛知県","city":"新城市","address":"富栄"},
{"zip_code":"4411307","kana_pref":"ｱｲﾁｹﾝ","kana_city":"ｼﾝｼﾛｼ","kana_address":"ﾄﾐｻﾞﾜ","pref":"愛知県","city":"新城市","address":"富沢"},
{"zip_code":"4411302","kana_pref":"ｱｲﾁｹﾝ","kana_city":"ｼﾝｼﾛｼ","kana_address":"ﾄﾐﾅｶﾞ","pref":"愛知県","city":"新城市","address":"富永"},
{"zip_code":"4411636","kana_pref":"ｱｲﾁｹﾝ","kana_city":"ｼﾝｼﾛｼ","kana_address":"ﾄﾐﾔｽ","pref":"愛知県","city":"新城市","address":"富保"},
{"zip_code":"4411631","kana_pref":"ｱｲﾁｹﾝ","kana_city":"ｼﾝｼﾛｼ","kana_address":"ﾄﾖｵｶ","pref":"愛知県","city":"新城市","address":"豊岡"},
{"zip_code":"4411352","kana_pref":"ｱｲﾁｹﾝ","kana_city":"ｼﾝｼﾛｼ","kana_address":"ﾄﾖｻｶ","pref":"愛知県","city":"新城市","address":"豊栄"},
{"zip_code":"4411345","kana_pref":"ｱｲﾁｹﾝ","kana_city":"ｼﾝｼﾛｼ","kana_address":"ﾄﾖｼﾏ","pref":"愛知県","city":"新城市","address":"豊島"},
{"zip_code":"4411334","kana_pref":"ｱｲﾁｹﾝ","kana_city":"ｼﾝｼﾛｼ","kana_address":"ﾅｶｳﾘ","pref":"愛知県","city":"新城市","address":"中宇利"},
{"zip_code":"4411634","kana_pref":"ｱｲﾁｹﾝ","kana_city":"ｼﾝｼﾛｼ","kana_address":"ﾅｶﾞｼﾉ","pref":"愛知県","city":"新城市","address":"長篠"},
{"zip_code":"4411952","kana_pref":"ｱｲﾁｹﾝ","kana_city":"ｼﾝｼﾛｼ","kana_address":"ﾅｶｼﾞﾏ","pref":"愛知県","city":"新城市","address":"中島"},
{"zip_code":"4411326","kana_pref":"ｱｲﾁｹﾝ","kana_city":"ｼﾝｼﾛｼ","kana_address":"ﾅｶﾉ","pref":"愛知県","city":"新城市","address":"中野"},
{"zip_code":"4411604","kana_pref":"ｱｲﾁｹﾝ","kana_city":"ｼﾝｼﾛｼ","kana_address":"ﾅｺｴ","pref":"愛知県","city":"新城市","address":"名越"},
{"zip_code":"4411611","kana_pref":"ｱｲﾁｹﾝ","kana_city":"ｼﾝｼﾛｼ","kana_address":"ﾅﾅｻﾄｲｯｼｷ","pref":"愛知県","city":"新城市","address":"七郷一色"},
{"zip_code":"4411384","kana_pref":"ｱｲﾁｹﾝ","kana_city":"ｼﾝｼﾛｼ","kana_address":"ﾆｼｲﾘﾌﾈ","pref":"愛知県","city":"新城市","address":"西入船"},
{"zip_code":"4411373","kana_pref":"ｱｲﾁｹﾝ","kana_city":"ｼﾝｼﾛｼ","kana_address":"ﾆｼｼﾝﾏﾁ","pref":"愛知県","city":"新城市","address":"西新町"},
{"zip_code":"4411325","kana_pref":"ｱｲﾁｹﾝ","kana_city":"ｼﾝｼﾛｼ","kana_address":"ﾆﾎﾝﾏﾂ","pref":"愛知県","city":"新城市","address":"二本松"},
{"zip_code":"4411331","kana_pref":"ｱｲﾁｹﾝ","kana_city":"ｼﾝｼﾛｼ","kana_address":"ﾆﾜﾉ","pref":"愛知県","city":"新城市","address":"庭野"},
{"zip_code":"4411343","kana_pref":"ｱｲﾁｹﾝ","kana_city":"ｼﾝｼﾛｼ","kana_address":"ﾉﾀﾞ","pref":"愛知県","city":"新城市","address":"野田"},
{"zip_code":"4411344","kana_pref":"ｱｲﾁｹﾝ","kana_city":"ｼﾝｼﾛｼ","kana_address":"ﾉﾀﾞ","pref":"愛知県","city":"新城市","address":"野田"},
{"zip_code":"4411605","kana_pref":"ｱｲﾁｹﾝ","kana_city":"ｼﾝｼﾛｼ","kana_address":"ﾉﾄｾ","pref":"愛知県","city":"新城市","address":"能登瀬"},
{"zip_code":"4411633","kana_pref":"ｱｲﾁｹﾝ","kana_city":"ｼﾝｼﾛｼ","kana_address":"ﾉﾘﾓﾄ","pref":"愛知県","city":"新城市","address":"乗本"},
{"zip_code":"4411388","kana_pref":"ｱｲﾁｹﾝ","kana_city":"ｼﾝｼﾛｼ","kana_address":"ﾊｼﾑｺｳ","pref":"愛知県","city":"新城市","address":"橋向"},
{"zip_code":"4411385","kana_pref":"ｱｲﾁｹﾝ","kana_city":"ｼﾝｼﾛｼ","kana_address":"ﾊﾁﾏﾝ","pref":"愛知県","city":"新城市","address":"八幡"},
{"zip_code":"4411383","kana_pref":"ｱｲﾁｹﾝ","kana_city":"ｼﾝｼﾛｼ","kana_address":"ﾋｶﾞｼｲﾘﾌﾈ","pref":"愛知県","city":"新城市","address":"東入船"},
{"zip_code":"4411363","kana_pref":"ｱｲﾁｹﾝ","kana_city":"ｼﾝｼﾛｼ","kana_address":"ﾋｶﾞｼｵｷﾉ","pref":"愛知県","city":"新城市","address":"東沖野"},
{"zip_code":"4411338","kana_pref":"ｱｲﾁｹﾝ","kana_city":"ｼﾝｼﾛｼ","kana_address":"ﾋﾄｸﾜﾀﾞ","pref":"愛知県","city":"新城市","address":"一鍬田"},
{"zip_code":"4411322","kana_pref":"ｱｲﾁｹﾝ","kana_city":"ｼﾝｼﾛｼ","kana_address":"ﾋﾖｼ","pref":"愛知県","city":"新城市","address":"日吉"},
{"zip_code":"4411362","kana_pref":"ｱｲﾁｹﾝ","kana_city":"ｼﾝｼﾛｼ","kana_address":"ﾋﾗｲ","pref":"愛知県","city":"新城市","address":"平井"},
{"zip_code":"4411361","kana_pref":"ｱｲﾁｹﾝ","kana_city":"ｼﾝｼﾛｼ","kana_address":"ﾋﾗｲ","pref":"愛知県","city":"新城市","address":"平井"},
{"zip_code":"4411946","kana_pref":"ｱｲﾁｹﾝ","kana_city":"ｼﾝｼﾛｼ","kana_address":"ﾌｸｶﾞﾜ","pref":"愛知県","city":"新城市","address":"副川"},
{"zip_code":"4411367","kana_pref":"ｱｲﾁｹﾝ","kana_city":"ｼﾝｼﾛｼ","kana_address":"ﾌﾀﾞｷﾞ","pref":"愛知県","city":"新城市","address":"札木"},
{"zip_code":"4411955","kana_pref":"ｱｲﾁｹﾝ","kana_city":"ｼﾝｼﾛｼ","kana_address":"ﾌﾘ","pref":"愛知県","city":"新城市","address":"布里"},
{"zip_code":"4411613","kana_pref":"ｱｲﾁｹﾝ","kana_city":"ｼﾝｼﾛｼ","kana_address":"ﾎｿｶﾜ","pref":"愛知県","city":"新城市","address":"細川"},
{"zip_code":"4411374","kana_pref":"ｱｲﾁｹﾝ","kana_city":"ｼﾝｼﾛｼ","kana_address":"ﾏﾁﾅﾐ","pref":"愛知県","city":"新城市","address":"町並"},
{"zip_code":"4411375","kana_pref":"ｱｲﾁｹﾝ","kana_city":"ｼﾝｼﾛｼ","kana_address":"ﾏﾄﾊﾞ","pref":"愛知県","city":"新城市","address":"的場"},
{"zip_code":"4411316","kana_pref":"ｱｲﾁｹﾝ","kana_city":"ｼﾝｼﾛｼ","kana_address":"ﾐﾄﾞﾘｶﾞｵｶ","pref":"愛知県","city":"新城市","address":"緑が丘"},
{"zip_code":"4411386","kana_pref":"ｱｲﾁｹﾝ","kana_city":"ｼﾝｼﾛｼ","kana_address":"ﾐﾅﾐﾊﾞﾀ","pref":"愛知県","city":"新城市","address":"南畑"},
{"zip_code":"4411378","kana_pref":"ｱｲﾁｹﾝ","kana_city":"ｼﾝｼﾛｼ","kana_address":"ﾐﾔﾉｳｼﾛ","pref":"愛知県","city":"新城市","address":"宮ノ後"},
{"zip_code":"4411376","kana_pref":"ｱｲﾁｹﾝ","kana_city":"ｼﾝｼﾛｼ","kana_address":"ﾐﾔﾉﾏｴ","pref":"愛知県","city":"新城市","address":"宮ノ前"},
{"zip_code":"4411603","kana_pref":"ｱｲﾁｹﾝ","kana_city":"ｼﾝｼﾛｼ","kana_address":"ﾐｮｳｺﾞｳ","pref":"愛知県","city":"新城市","address":"名号"},
{"zip_code":"4411377","kana_pref":"ｱｲﾁｹﾝ","kana_city":"ｼﾝｼﾛｼ","kana_address":"ﾐﾔﾉﾆｼ","pref":"愛知県","city":"新城市","address":"宮ノ西"},
{"zip_code":"4411366","kana_pref":"ｱｲﾁｹﾝ","kana_city":"ｼﾝｼﾛｼ","kana_address":"ﾑｶｲﾉ","pref":"愛知県","city":"新城市","address":"向野"},
{"zip_code":"4411614","kana_pref":"ｱｲﾁｹﾝ","kana_city":"ｼﾝｼﾛｼ","kana_address":"ﾑﾂﾀﾞｲﾗ","pref":"愛知県","city":"新城市","address":"睦平"},
{"zip_code":"4411368","kana_pref":"ｱｲﾁｹﾝ","kana_city":"ｼﾝｼﾛｼ","kana_address":"ﾔｼｷ","pref":"愛知県","city":"新城市","address":"屋敷"},
{"zip_code":"4411318","kana_pref":"ｱｲﾁｹﾝ","kana_city":"ｼﾝｼﾛｼ","kana_address":"ﾔﾂｶﾎ","pref":"愛知県","city":"新城市","address":"八束穂"},
{"zip_code":"4411337","kana_pref":"ｱｲﾁｹﾝ","kana_city":"ｼﾝｼﾛｼ","kana_address":"ﾔﾅｲ","pref":"愛知県","city":"新城市","address":"八名井"},
{"zip_code":"4411301","kana_pref":"ｱｲﾁｹﾝ","kana_city":"ｼﾝｼﾛｼ","kana_address":"ﾔﾍﾞ","pref":"愛知県","city":"新城市","address":"矢部"},
{"zip_code":"4411314","kana_pref":"ｱｲﾁｹﾝ","kana_city":"ｼﾝｼﾛｼ","kana_address":"ﾖｺｶﾞﾜ","pref":"愛知県","city":"新城市","address":"横川"},
{"zip_code":"4411323","kana_pref":"ｱｲﾁｹﾝ","kana_city":"ｼﾝｼﾛｼ","kana_address":"ﾖｼｶﾜ","pref":"愛知県","city":"新城市","address":"吉川"},
{"zip_code":"4411942","kana_pref":"ｱｲﾁｹﾝ","kana_city":"ｼﾝｼﾛｼ","kana_address":"ﾖﾂﾔ","pref":"愛知県","city":"新城市","address":"四谷"},
{"zip_code":"4411941","kana_pref":"ｱｲﾁｹﾝ","kana_city":"ｼﾝｼﾛｼ","kana_address":"ﾚﾝｺﾞｳ","pref":"愛知県","city":"新城市","address":"連合"},
{"zip_code":"4413400","kana_pref":"ｱｲﾁｹﾝ","kana_city":"ﾀﾊﾗｼ","kana_address":"","pref":"愛知県","city":"田原市","address":""},
{"zip_code":"4413418","kana_pref":"ｱｲﾁｹﾝ","kana_city":"ﾀﾊﾗｼ","kana_address":"ｱｲｶﾜﾁｮｳ","pref":"愛知県","city":"田原市","address":"相川町"},
{"zip_code":"4413422","kana_pref":"ｱｲﾁｹﾝ","kana_city":"ﾀﾊﾗｼ","kana_address":"ｱｶｲｼ","pref":"愛知県","city":"田原市","address":"赤石"},
{"zip_code":"4413502","kana_pref":"ｱｲﾁｹﾝ","kana_city":"ﾀﾊﾗｼ","kana_address":"ｱｶﾊﾞﾈﾁｮｳ","pref":"愛知県","city":"田原市","address":"赤羽根町"},
{"zip_code":"4413433","kana_pref":"ｱｲﾁｹﾝ","kana_city":"ﾀﾊﾗｼ","kana_address":"ｱｼﾁｮｳ","pref":"愛知県","city":"田原市","address":"芦町"},
{"zip_code":"4413604","kana_pref":"ｱｲﾁｹﾝ","kana_city":"ﾀﾊﾗｼ","kana_address":"ｲｶﾜﾂﾞﾁｮｳ","pref":"愛知県","city":"田原市","address":"伊川津町"},
{"zip_code":"4413505","kana_pref":"ｱｲﾁｹﾝ","kana_city":"ﾀﾊﾗｼ","kana_address":"ｲｹｼﾘﾁｮｳ","pref":"愛知県","city":"田原市","address":"池尻町"},
{"zip_code":"4413611","kana_pref":"ｱｲﾁｹﾝ","kana_city":"ﾀﾊﾗｼ","kana_address":"ｲｼｶﾞﾐﾁｮｳ","pref":"愛知県","city":"田原市","address":"石神町"},
{"zip_code":"4413624","kana_pref":"ｱｲﾁｹﾝ","kana_city":"ﾀﾊﾗｼ","kana_address":"ｲﾗｺﾞﾁｮｳ","pref":"愛知県","city":"田原市","address":"伊良湖町"},
{"zip_code":"4413601","kana_pref":"ｱｲﾁｹﾝ","kana_city":"ﾀﾊﾗｼ","kana_address":"ｳﾂﾞｴﾁｮｳ","pref":"愛知県","city":"田原市","address":"宇津江町"},
{"zip_code":"4413403","kana_pref":"ｱｲﾁｹﾝ","kana_city":"ﾀﾊﾗｼ","kana_address":"ｳﾗﾁｮｳ","pref":"愛知県","city":"田原市","address":"浦町"},
{"zip_code":"4413605","kana_pref":"ｱｲﾁｹﾝ","kana_city":"ﾀﾊﾗｼ","kana_address":"ｴﾋﾏﾁｮｳ","pref":"愛知県","city":"田原市","address":"江比間町"},
{"zip_code":"4413425","kana_pref":"ｱｲﾁｹﾝ","kana_city":"ﾀﾊﾗｼ","kana_address":"ｵｵｸｻﾁｮｳ","pref":"愛知県","city":"田原市","address":"大草町"},
{"zip_code":"4413426","kana_pref":"ｱｲﾁｹﾝ","kana_city":"ﾀﾊﾗｼ","kana_address":"ｵｵｸﾎﾞﾁｮｳ","pref":"愛知県","city":"田原市","address":"大久保町"},
{"zip_code":"4413504","kana_pref":"ｱｲﾁｹﾝ","kana_city":"ﾀﾊﾗｼ","kana_address":"ｵｯﾄﾁｮｳ","pref":"愛知県","city":"田原市","address":"越戸町"},
{"zip_code":"4413608","kana_pref":"ｱｲﾁｹﾝ","kana_city":"ﾀﾊﾗｼ","kana_address":"ｵﾘﾀﾁﾁｮｳ","pref":"愛知県","city":"田原市","address":"折立町"},
{"zip_code":"4413427","kana_pref":"ｱｲﾁｹﾝ","kana_city":"ﾀﾊﾗｼ","kana_address":"ｶｼﾞﾁｮｳ","pref":"愛知県","city":"田原市","address":"加治町"},
{"zip_code":"4413409","kana_pref":"ｱｲﾁｹﾝ","kana_city":"ﾀﾊﾗｼ","kana_address":"ｶﾀﾆｼ","pref":"愛知県","city":"田原市","address":"片西"},
{"zip_code":"4413404","kana_pref":"ｱｲﾁｹﾝ","kana_city":"ﾀﾊﾗｼ","kana_address":"ｶﾀﾊﾏﾁｮｳ","pref":"愛知県","city":"田原市","address":"片浜町"},
{"zip_code":"4413625","kana_pref":"ｱｲﾁｹﾝ","kana_city":"ﾀﾊﾗｼ","kana_address":"ｶﾒﾔﾏﾁｮｳ","pref":"愛知県","city":"田原市","address":"亀山町"},
{"zip_code":"4413415","kana_pref":"ｱｲﾁｹﾝ","kana_city":"ﾀﾊﾗｼ","kana_address":"ｶﾝﾍﾞﾁｮｳ","pref":"愛知県","city":"田原市","address":"神戸町"},
{"zip_code":"4413407","kana_pref":"ｱｲﾁｹﾝ","kana_city":"ﾀﾊﾗｼ","kana_address":"ｺｳｻｷ","pref":"愛知県","city":"田原市","address":"光崎"},
{"zip_code":"4413626","kana_pref":"ｱｲﾁｹﾝ","kana_city":"ﾀﾊﾗｼ","kana_address":"ｺｼｵﾂﾞﾁｮｳ","pref":"愛知県","city":"田原市","address":"小塩津町"},
{"zip_code":"4413613","kana_pref":"ｱｲﾁｹﾝ","kana_city":"ﾀﾊﾗｼ","kana_address":"ｺﾀﾞﾁｮｳ","pref":"愛知県","city":"田原市","address":"古田町"},
{"zip_code":"4413419","kana_pref":"ｱｲﾁｹﾝ","kana_city":"ﾀﾊﾗｼ","kana_address":"ｺﾞﾃﾝﾔﾏ","pref":"愛知県","city":"田原市","address":"御殿山"},
{"zip_code":"4413618","kana_pref":"ｱｲﾁｹﾝ","kana_city":"ﾀﾊﾗｼ","kana_address":"ｺﾅｶﾔﾏﾁｮｳ","pref":"愛知県","city":"田原市","address":"小中山町"},
{"zip_code":"4413436","kana_pref":"ｱｲﾁｹﾝ","kana_city":"ﾀﾊﾗｼ","kana_address":"ｼﾗﾊﾏ","pref":"愛知県","city":"田原市","address":"白浜"},
{"zip_code":"4413431","kana_pref":"ｱｲﾁｹﾝ","kana_city":"ﾀﾊﾗｼ","kana_address":"ｼﾛﾔﾁｮｳ","pref":"愛知県","city":"田原市","address":"白谷町"},
{"zip_code":"4413612","kana_pref":"ｱｲﾁｹﾝ","kana_city":"ﾀﾊﾗｼ","kana_address":"ﾀｶｷﾁｮｳ","pref":"愛知県","city":"田原市","address":"高木町"},
{"zip_code":"4413501","kana_pref":"ｱｲﾁｹﾝ","kana_city":"ﾀﾊﾗｼ","kana_address":"ﾀｶﾏﾂﾁｮｳ","pref":"愛知県","city":"田原市","address":"高松町"},
{"zip_code":"4413421","kana_pref":"ｱｲﾁｹﾝ","kana_city":"ﾀﾊﾗｼ","kana_address":"ﾀﾊﾗﾁｮｳ","pref":"愛知県","city":"田原市","address":"田原町"},
{"zip_code":"4413417","kana_pref":"ｱｲﾁｹﾝ","kana_city":"ﾀﾊﾗｼ","kana_address":"ﾄｼﾏﾁｮｳ","pref":"愛知県","city":"田原市","address":"豊島町"},
{"zip_code":"4413609","kana_pref":"ｱｲﾁｹﾝ","kana_city":"ﾀﾊﾗｼ","kana_address":"ﾅｶﾞｻﾜﾁｮｳ","pref":"愛知県","city":"田原市","address":"長沢町"},
{"zip_code":"4413615","kana_pref":"ｱｲﾁｹﾝ","kana_city":"ﾀﾊﾗｼ","kana_address":"ﾅｶﾔﾏﾁｮｳ","pref":"愛知県","city":"田原市","address":"中山町"},
{"zip_code":"4413435","kana_pref":"ｱｲﾁｹﾝ","kana_city":"ﾀﾊﾗｼ","kana_address":"ﾆｻｷﾁｮｳ","pref":"愛知県","city":"田原市","address":"仁崎町"},
{"zip_code":"4413423","kana_pref":"ｱｲﾁｹﾝ","kana_city":"ﾀﾊﾗｼ","kana_address":"ﾆｼｶﾝﾍﾞﾁｮｳ","pref":"愛知県","city":"田原市","address":"西神戸町"},
{"zip_code":"4413619","kana_pref":"ｱｲﾁｹﾝ","kana_city":"ﾀﾊﾗｼ","kana_address":"ﾆｼﾔﾏﾁｮｳ","pref":"愛知県","city":"田原市","address":"西山町"},
{"zip_code":"4413432","kana_pref":"ｱｲﾁｹﾝ","kana_city":"ﾀﾊﾗｼ","kana_address":"ﾉﾀﾞﾁｮｳ","pref":"愛知県","city":"田原市","address":"野田町"},
{"zip_code":"4413406","kana_pref":"ｱｲﾁｹﾝ","kana_city":"ﾀﾊﾗｼ","kana_address":"ﾊｾﾞﾁｮｳ","pref":"愛知県","city":"田原市","address":"波瀬町"},
{"zip_code":"4413602","kana_pref":"ｱｲﾁｹﾝ","kana_city":"ﾀﾊﾗｼ","kana_address":"ﾊﾁｵｳｼﾞﾁｮｳ","pref":"愛知県","city":"田原市","address":"八王子町"},
{"zip_code":"4413606","kana_pref":"ｱｲﾁｹﾝ","kana_city":"ﾀﾊﾗｼ","kana_address":"ﾊﾞﾌﾞｼﾁｮｳ","pref":"愛知県","city":"田原市","address":"馬伏町"},
{"zip_code":"4413623","kana_pref":"ｱｲﾁｹﾝ","kana_city":"ﾀﾊﾗｼ","kana_address":"ﾋｲﾁｮｳ","pref":"愛知県","city":"田原市","address":"日出町"},
{"zip_code":"4413416","kana_pref":"ｱｲﾁｹﾝ","kana_city":"ﾀﾊﾗｼ","kana_address":"ﾋｶﾞｼｱｶｲｼ","pref":"愛知県","city":"田原市","address":"東赤石"},
{"zip_code":"4413414","kana_pref":"ｱｲﾁｹﾝ","kana_city":"ﾀﾊﾗｼ","kana_address":"ﾋｶﾞｼｶﾝﾍﾞﾁｮｳ","pref":"愛知県","city":"田原市","address":"東神戸町"},
{"zip_code":"4413405","kana_pref":"ｱｲﾁｹﾝ","kana_city":"ﾀﾊﾗｼ","kana_address":"ﾋﾒﾐﾀﾞｲ","pref":"愛知県","city":"田原市","address":"姫見台"},
{"zip_code":"4413617","kana_pref":"ｱｲﾁｹﾝ","kana_city":"ﾀﾊﾗｼ","kana_address":"ﾌｸｴﾁｮｳ","pref":"愛知県","city":"田原市","address":"福江町"},
{"zip_code":"4413614","kana_pref":"ｱｲﾁｹﾝ","kana_city":"ﾀﾊﾗｼ","kana_address":"ﾎﾋﾞﾁｮｳ","pref":"愛知県","city":"田原市","address":"保美町"},
{"zip_code":"4413627","kana_pref":"ｱｲﾁｹﾝ","kana_city":"ﾀﾊﾗｼ","kana_address":"ﾎﾘｷﾘﾁｮｳ","pref":"愛知県","city":"田原市","address":"堀切町"},
{"zip_code":"4413434","kana_pref":"ｱｲﾁｹﾝ","kana_city":"ﾀﾊﾗｼ","kana_address":"ﾎﾙﾄﾀﾞｲ","pref":"愛知県","city":"田原市","address":"ほると台"},
{"zip_code":"4413401","kana_pref":"ｱｲﾁｹﾝ","kana_city":"ﾀﾊﾗｼ","kana_address":"ﾐﾄﾞﾘｶﾞﾊﾏ","pref":"愛知県","city":"田原市","address":"緑が浜"},
{"zip_code":"4413424","kana_pref":"ｱｲﾁｹﾝ","kana_city":"ﾀﾊﾗｼ","kana_address":"ﾐﾅﾐｶﾝﾍﾞﾁｮｳ","pref":"愛知県","city":"田原市","address":"南神戸町"},
{"zip_code":"4413616","kana_pref":"ｱｲﾁｹﾝ","kana_city":"ﾀﾊﾗｼ","kana_address":"ﾑｶｲﾔﾏﾁｮｳ","pref":"愛知県","city":"田原市","address":"向山町"},
{"zip_code":"4413413","kana_pref":"ｱｲﾁｹﾝ","kana_city":"ﾀﾊﾗｼ","kana_address":"ﾑﾂﾚﾁｮｳ","pref":"愛知県","city":"田原市","address":"六連町"},
{"zip_code":"4413603","kana_pref":"ｱｲﾁｹﾝ","kana_city":"ﾀﾊﾗｼ","kana_address":"ﾑﾗﾏﾂﾁｮｳ","pref":"愛知県","city":"田原市","address":"村松町"},
{"zip_code":"4413411","kana_pref":"ｱｲﾁｹﾝ","kana_city":"ﾀﾊﾗｼ","kana_address":"ﾔｸﾞﾏﾀﾞｲ","pref":"愛知県","city":"田原市","address":"やぐま台"},
{"zip_code":"4413412","kana_pref":"ｱｲﾁｹﾝ","kana_city":"ﾀﾊﾗｼ","kana_address":"ﾔｸﾞﾏﾁｮｳ","pref":"愛知県","city":"田原市","address":"谷熊町"},
{"zip_code":"4413621","kana_pref":"ｱｲﾁｹﾝ","kana_city":"ﾀﾊﾗｼ","kana_address":"ﾔﾏﾀﾞﾁｮｳ","pref":"愛知県","city":"田原市","address":"山田町"},
{"zip_code":"4413607","kana_pref":"ｱｲﾁｹﾝ","kana_city":"ﾀﾊﾗｼ","kana_address":"ﾕｳﾋｶﾞﾊﾏ","pref":"愛知県","city":"田原市","address":"夕陽が浜"},
{"zip_code":"4413408","kana_pref":"ｱｲﾁｹﾝ","kana_city":"ﾀﾊﾗｼ","kana_address":"ﾖｼｺﾞﾀﾞｲ","pref":"愛知県","city":"田原市","address":"吉胡台"},
{"zip_code":"4413402","kana_pref":"ｱｲﾁｹﾝ","kana_city":"ﾀﾊﾗｼ","kana_address":"ﾖｼｺﾞﾁｮｳ","pref":"愛知県","city":"田原市","address":"吉胡町"},
{"zip_code":"4413503","kana_pref":"ｱｲﾁｹﾝ","kana_city":"ﾀﾊﾗｼ","kana_address":"ﾜｶﾐﾁｮｳ","pref":"愛知県","city":"田原市","address":"若見町"},
{"zip_code":"4413622","kana_pref":"ｱｲﾁｹﾝ","kana_city":"ﾀﾊﾗｼ","kana_address":"ﾜｼﾞﾁｮｳ","pref":"愛知県","city":"田原市","address":"和地町"},
{"zip_code":"4412300","kana_pref":"ｱｲﾁｹﾝ","kana_city":"ｷﾀｼﾀﾗｸﾞﾝｼﾀﾗﾁｮｳ","kana_address":"","pref":"愛知県","city":"北設楽郡設楽町","address":""},
{"zip_code":"4412316","kana_pref":"ｱｲﾁｹﾝ","kana_city":"ｷﾀｼﾀﾗｸﾞﾝｼﾀﾗﾁｮｳ","kana_address":"ｱﾛｳ","pref":"愛知県","city":"北設楽郡設楽町","address":"荒尾"},
{"zip_code":"4412434","kana_pref":"ｱｲﾁｹﾝ","kana_city":"ｷﾀｼﾀﾗｸﾞﾝｼﾀﾗﾁｮｳ","kana_address":"ｵｵﾅｸﾞﾗ","pref":"愛知県","city":"北設楽郡設楽町","address":"大名倉"},
{"zip_code":"4412315","kana_pref":"ｱｲﾁｹﾝ","kana_city":"ｷﾀｼﾀﾗｸﾞﾝｼﾀﾗﾁｮｳ","kana_address":"ｶﾀﾞ","pref":"愛知県","city":"北設楽郡設楽町","address":"神田"},
{"zip_code":"4412433","kana_pref":"ｱｲﾁｹﾝ","kana_city":"ｷﾀｼﾀﾗｸﾞﾝｼﾀﾗﾁｮｳ","kana_address":"ｶﾜﾑｷ","pref":"愛知県","city":"北設楽郡設楽町","address":"川向"},
{"zip_code":"4412302","kana_pref":"ｱｲﾁｹﾝ","kana_city":"ｷﾀｼﾀﾗｸﾞﾝｼﾀﾗﾁｮｳ","kana_address":"ｷﾖｻｷ","pref":"愛知県","city":"北設楽郡設楽町","address":"清崎"},
{"zip_code":"4412317","kana_pref":"ｱｲﾁｹﾝ","kana_city":"ｷﾀｼﾀﾗｸﾞﾝｼﾀﾗﾁｮｳ","kana_address":"ｺﾏﾂ","pref":"愛知県","city":"北設楽郡設楽町","address":"小松"},
{"zip_code":"4412301","kana_pref":"ｱｲﾁｹﾝ","kana_city":"ｷﾀｼﾀﾗｸﾞﾝｼﾀﾗﾁｮｳ","kana_address":"ﾀｸﾞﾁ","pref":"愛知県","city":"北設楽郡設楽町","address":"田口"},
{"zip_code":"4412222","kana_pref":"ｱｲﾁｹﾝ","kana_city":"ｷﾀｼﾀﾗｸﾞﾝｼﾀﾗﾁｮｳ","kana_address":"ﾀﾅｲ","pref":"愛知県","city":"北設楽郡設楽町","address":"田内"},
{"zip_code":"4412221","kana_pref":"ｱｲﾁｹﾝ","kana_city":"ｷﾀｼﾀﾗｸﾞﾝｼﾀﾗﾁｮｳ","kana_address":"ﾀﾞﾐﾈ","pref":"愛知県","city":"北設楽郡設楽町","address":"田峯"},
{"zip_code":"4412601","kana_pref":"ｱｲﾁｹﾝ","kana_city":"ｷﾀｼﾀﾗｸﾞﾝｼﾀﾗﾁｮｳ","kana_address":"ﾂｸﾞ","pref":"愛知県","city":"北設楽郡設楽町","address":"津具"},
{"zip_code":"4412224","kana_pref":"ｱｲﾁｹﾝ","kana_city":"ｷﾀｼﾀﾗｸﾞﾝｼﾀﾗﾁｮｳ","kana_address":"ﾄﾖｸﾆ","pref":"愛知県","city":"北設楽郡設楽町","address":"豊邦"},
{"zip_code":"4412312","kana_pref":"ｱｲﾁｹﾝ","kana_city":"ｷﾀｼﾀﾗｸﾞﾝｼﾀﾗﾁｮｳ","kana_address":"ﾅｶﾞｴ","pref":"愛知県","city":"北設楽郡設楽町","address":"長江"},
{"zip_code":"4412531","kana_pref":"ｱｲﾁｹﾝ","kana_city":"ｷﾀｼﾀﾗｸﾞﾝｼﾀﾗﾁｮｳ","kana_address":"ﾆｼﾅｸﾞﾗ","pref":"愛知県","city":"北設楽郡設楽町","address":"西納庫"},
{"zip_code":"4412431","kana_pref":"ｱｲﾁｹﾝ","kana_city":"ｷﾀｼﾀﾗｸﾞﾝｼﾀﾗﾁｮｳ","kana_address":"ﾆｼﾅｸﾞﾗ","pref":"愛知県","city":"北設楽郡設楽町","address":"西納庫"},
{"zip_code":"4412432","kana_pref":"ｱｲﾁｹﾝ","kana_city":"ｷﾀｼﾀﾗｸﾞﾝｼﾀﾗﾁｮｳ","kana_address":"ﾋｶﾞｼﾅｸﾞﾗ","pref":"愛知県","city":"北設楽郡設楽町","address":"東納庫"},
{"zip_code":"4412314","kana_pref":"ｱｲﾁｹﾝ","kana_city":"ｷﾀｼﾀﾗｸﾞﾝｼﾀﾗﾁｮｳ","kana_address":"ﾋﾗﾔﾏ","pref":"愛知県","city":"北設楽郡設楽町","address":"平山"},
{"zip_code":"4412303","kana_pref":"ｱｲﾁｹﾝ","kana_city":"ｷﾀｼﾀﾗｸﾞﾝｼﾀﾗﾁｮｳ","kana_address":"ﾏﾂﾄﾞ","pref":"愛知県","city":"北設楽郡設楽町","address":"松戸"},
{"zip_code":"4412223","kana_pref":"ｱｲﾁｹﾝ","kana_city":"ｷﾀｼﾀﾗｸﾞﾝｼﾀﾗﾁｮｳ","kana_address":"ﾐﾂﾊｼ","pref":"愛知県","city":"北設楽郡設楽町","address":"三都橋"},
{"zip_code":"4412311","kana_pref":"ｱｲﾁｹﾝ","kana_city":"ｷﾀｼﾀﾗｸﾞﾝｼﾀﾗﾁｮｳ","kana_address":"ﾔﾂﾊｼ","pref":"愛知県","city":"北設楽郡設楽町","address":"八橋"},
{"zip_code":"4412313","kana_pref":"ｱｲﾁｹﾝ","kana_city":"ｷﾀｼﾀﾗｸﾞﾝｼﾀﾗﾁｮｳ","kana_address":"ﾜｲﾁ","pref":"愛知県","city":"北設楽郡設楽町","address":"和市"}]}