{"zip_code":[
{"zip_code":"4420000","kana_pref":"ｱｲﾁｹﾝ","kana_city":"ﾄﾖｶﾜｼ","kana_address":"","pref":"愛知県","city":"豊川市","address":""},
{"zip_code":"4420054","kana_pref":"ｱｲﾁｹﾝ","kana_city":"ﾄﾖｶﾜｼ","kana_address":"ｱｶｼﾛﾁｮｳ","pref":"愛知県","city":"豊川市","address":"赤代町"},
{"zip_code":"4420887","kana_pref":"ｱｲﾁｹﾝ","kana_city":"ﾄﾖｶﾜｼ","kana_address":"ｱｹﾉﾁｮｳ","pref":"愛知県","city":"豊川市","address":"明野町"},
{"zip_code":"4420015","kana_pref":"ｱｲﾁｹﾝ","kana_city":"ﾄﾖｶﾜｼ","kana_address":"ｱｹﾎﾞﾉﾁｮｳ","pref":"愛知県","city":"豊川市","address":"曙町"},
{"zip_code":"4420041","kana_pref":"ｱｲﾁｹﾝ","kana_city":"ﾄﾖｶﾜｼ","kana_address":"ｱｻﾋﾏﾁ","pref":"愛知県","city":"豊川市","address":"旭町"},
{"zip_code":"4420802","kana_pref":"ｱｲﾁｹﾝ","kana_city":"ﾄﾖｶﾜｼ","kana_address":"ｱｿｳﾀﾞﾁｮｳ","pref":"愛知県","city":"豊川市","address":"麻生田町"},
{"zip_code":"4420862","kana_pref":"ｱｲﾁｹﾝ","kana_city":"ﾄﾖｶﾜｼ","kana_address":"ｲﾁﾀﾞﾁｮｳ","pref":"愛知県","city":"豊川市","address":"市田町"},
{"zip_code":"4420023","kana_pref":"ｱｲﾁｹﾝ","kana_city":"ﾄﾖｶﾜｼ","kana_address":"ｲﾅﾘﾄﾞｵﾘ","pref":"愛知県","city":"豊川市","address":"稲荷通"},
{"zip_code":"4420814","kana_pref":"ｱｲﾁｹﾝ","kana_city":"ﾄﾖｶﾜｼ","kana_address":"ｲﾝﾉｺﾁｮｳ","pref":"愛知県","city":"豊川市","address":"院之子町"},
{"zip_code":"4420801","kana_pref":"ｱｲﾁｹﾝ","kana_city":"ﾄﾖｶﾜｼ","kana_address":"ｳｴﾉ","pref":"愛知県","city":"豊川市","address":"上野"},
{"zip_code":"4420886","kana_pref":"ｱｲﾁｹﾝ","kana_city":"ﾄﾖｶﾜｼ","kana_address":"ｳｼｸﾎﾞｴｷﾄﾞｵﾘ","pref":"愛知県","city":"豊川市","address":"牛久保駅通"},
{"zip_code":"4420826","kana_pref":"ｱｲﾁｹﾝ","kana_city":"ﾄﾖｶﾜｼ","kana_address":"ｳｼｸﾎﾞﾁｮｳ","pref":"愛知県","city":"豊川市","address":"牛久保町"},
{"zip_code":"4420045","kana_pref":"ｱｲﾁｹﾝ","kana_city":"ﾄﾖｶﾜｼ","kana_address":"ｴｷﾏｴﾄﾞｵﾘ","pref":"愛知県","city":"豊川市","address":"駅前通"},
{"zip_code":"4420007","kana_pref":"ｱｲﾁｹﾝ","kana_city":"ﾄﾖｶﾜｼ","kana_address":"ｵｵｻｷﾁｮｳ","pref":"愛知県","city":"豊川市","address":"大崎町"},
{"zip_code":"4420809","kana_pref":"ｱｲﾁｹﾝ","kana_city":"ﾄﾖｶﾜｼ","kana_address":"ｵｵﾊｼﾁｮｳ","pref":"愛知県","city":"豊川市","address":"大橋町"},
{"zip_code":"4420013","kana_pref":"ｱｲﾁｹﾝ","kana_city":"ﾄﾖｶﾜｼ","kana_address":"ｵｵﾎﾞﾘﾁｮｳ","pref":"愛知県","city":"豊川市","address":"大堀町"},
{"zip_code":"4420844","kana_pref":"ｱｲﾁｹﾝ","kana_city":"ﾄﾖｶﾜｼ","kana_address":"ｵﾀﾞﾌﾞﾁﾁｮｳ","pref":"愛知県","city":"豊川市","address":"小田渕町"},
{"zip_code":"4420048","kana_pref":"ｱｲﾁｹﾝ","kana_city":"ﾄﾖｶﾜｼ","kana_address":"ｶｲｳﾝﾄﾞｵﾘ","pref":"愛知県","city":"豊川市","address":"開運通"},
{"zip_code":"4420872","kana_pref":"ｱｲﾁｹﾝ","kana_city":"ﾄﾖｶﾜｼ","kana_address":"ｶﾅﾂﾞｶﾁｮｳ","pref":"愛知県","city":"豊川市","address":"金塚町"},
{"zip_code":"4420053","kana_pref":"ｱｲﾁｹﾝ","kana_city":"ﾄﾖｶﾜｼ","kana_address":"ｶﾅﾔﾁｮｳ","pref":"愛知県","city":"豊川市","address":"金屋町"},
{"zip_code":"4420067","kana_pref":"ｱｲﾁｹﾝ","kana_city":"ﾄﾖｶﾜｼ","kana_address":"ｶﾅﾔﾆｼﾏﾁ","pref":"愛知県","city":"豊川市","address":"金屋西町"},
{"zip_code":"4420055","kana_pref":"ｱｲﾁｹﾝ","kana_city":"ﾄﾖｶﾜｼ","kana_address":"ｶﾅﾔﾊﾞｼﾁｮｳ","pref":"愛知県","city":"豊川市","address":"金屋橋町"},
{"zip_code":"4420052","kana_pref":"ｱｲﾁｹﾝ","kana_city":"ﾄﾖｶﾜｼ","kana_address":"ｶﾅﾔﾎﾝﾏﾁ","pref":"愛知県","city":"豊川市","address":"金屋本町"},
{"zip_code":"4420066","kana_pref":"ｱｲﾁｹﾝ","kana_city":"ﾄﾖｶﾜｼ","kana_address":"ｶﾅﾔﾓﾄﾏﾁ","pref":"愛知県","city":"豊川市","address":"金屋元町"},
{"zip_code":"4420837","kana_pref":"ｱｲﾁｹﾝ","kana_city":"ﾄﾖｶﾜｼ","kana_address":"ｶﾜﾊﾅﾁｮｳ","pref":"愛知県","city":"豊川市","address":"川花町"},
{"zip_code":"4420042","kana_pref":"ｱｲﾁｹﾝ","kana_city":"ﾄﾖｶﾜｼ","kana_address":"ｷﾀｳﾗﾁｮｳ","pref":"愛知県","city":"豊川市","address":"北浦町"},
{"zip_code":"4420822","kana_pref":"ｱｲﾁｹﾝ","kana_city":"ﾄﾖｶﾜｼ","kana_address":"ｷﾞｮｳﾒｲﾁｮｳ","pref":"愛知県","city":"豊川市","address":"行明町"},
{"zip_code":"4420856","kana_pref":"ｱｲﾁｹﾝ","kana_city":"ﾄﾖｶﾜｼ","kana_address":"ｸﾎﾞﾁｮｳ","pref":"愛知県","city":"豊川市","address":"久保町"},
{"zip_code":"4420882","kana_pref":"ｱｲﾁｹﾝ","kana_city":"ﾄﾖｶﾜｼ","kana_address":"ｺｳｷﾁｮｳ","pref":"愛知県","city":"豊川市","address":"光輝町"},
{"zip_code":"4420828","kana_pref":"ｱｲﾁｹﾝ","kana_city":"ﾄﾖｶﾜｼ","kana_address":"ｺｳｼﾞﾁｮｳ","pref":"愛知県","city":"豊川市","address":"柑子町"},
{"zip_code":"4420854","kana_pref":"ｱｲﾁｹﾝ","kana_city":"ﾄﾖｶﾜｼ","kana_address":"ｺｳﾁｮｳ","pref":"愛知県","city":"豊川市","address":"国府町"},
{"zip_code":"4420852","kana_pref":"ｱｲﾁｹﾝ","kana_city":"ﾄﾖｶﾜｼ","kana_address":"ｺｳﾐﾅﾐ","pref":"愛知県","city":"豊川市","address":"国府南"},
{"zip_code":"4420884","kana_pref":"ｱｲﾁｹﾝ","kana_city":"ﾄﾖｶﾜｼ","kana_address":"ｺｳﾒｲﾁｮｳ","pref":"愛知県","city":"豊川市","address":"光明町"},
{"zip_code":"4420038","kana_pref":"ｱｲﾁｹﾝ","kana_city":"ﾄﾖｶﾜｼ","kana_address":"ｺｳﾖｳﾁｮｳ","pref":"愛知県","city":"豊川市","address":"光陽町"},
{"zip_code":"4420021","kana_pref":"ｱｲﾁｹﾝ","kana_city":"ﾄﾖｶﾜｼ","kana_address":"ｺｻﾞｸﾗﾁｮｳ","pref":"愛知県","city":"豊川市","address":"小桜町"},
{"zip_code":"4420832","kana_pref":"ｱｲﾁｹﾝ","kana_city":"ﾄﾖｶﾜｼ","kana_address":"ｺﾄﾌﾞｷﾄﾞｵﾘ","pref":"愛知県","city":"豊川市","address":"寿通"},
{"zip_code":"4420861","kana_pref":"ｱｲﾁｹﾝ","kana_city":"ﾄﾖｶﾜｼ","kana_address":"ｻﾞｲｶﾁｮｳ","pref":"愛知県","city":"豊川市","address":"財賀町"},
{"zip_code":"4420046","kana_pref":"ｱｲﾁｹﾝ","kana_city":"ﾄﾖｶﾜｼ","kana_address":"ｻｲﾜｲﾁｮｳ","pref":"愛知県","city":"豊川市","address":"幸町"},
{"zip_code":"4420836","kana_pref":"ｱｲﾁｹﾝ","kana_city":"ﾄﾖｶﾜｼ","kana_address":"ｻｶｲﾏﾁ","pref":"愛知県","city":"豊川市","address":"堺町"},
{"zip_code":"4420064","kana_pref":"ｱｲﾁｹﾝ","kana_city":"ﾄﾖｶﾜｼ","kana_address":"ｻｸﾗｶﾞｵｶﾁｮｳ","pref":"愛知県","city":"豊川市","address":"桜ケ丘町"},
{"zip_code":"4420027","kana_pref":"ｱｲﾁｹﾝ","kana_city":"ﾄﾖｶﾜｼ","kana_address":"ｻｸﾗｷﾞﾄﾞｵﾘ","pref":"愛知県","city":"豊川市","address":"桜木通"},
{"zip_code":"4420843","kana_pref":"ｱｲﾁｹﾝ","kana_city":"ﾄﾖｶﾜｼ","kana_address":"ｻｸﾗﾏﾁ","pref":"愛知県","city":"豊川市","address":"桜町"},
{"zip_code":"4420017","kana_pref":"ｱｲﾁｹﾝ","kana_city":"ﾄﾖｶﾜｼ","kana_address":"ｻﾄﾞﾁｮｳ","pref":"愛知県","city":"豊川市","address":"佐土町"},
{"zip_code":"4420875","kana_pref":"ｱｲﾁｹﾝ","kana_city":"ﾄﾖｶﾜｼ","kana_address":"ｻﾅｶﾞﾜﾁｮｳ","pref":"愛知県","city":"豊川市","address":"佐奈川町"},
{"zip_code":"4420006","kana_pref":"ｱｲﾁｹﾝ","kana_city":"ﾄﾖｶﾜｼ","kana_address":"ｻﾝｿﾞｳｺﾞﾁｮｳ","pref":"愛知県","city":"豊川市","address":"三蔵子町"},
{"zip_code":"4420824","kana_pref":"ｱｲﾁｹﾝ","kana_city":"ﾄﾖｶﾜｼ","kana_address":"ｼﾓﾅｶﾞﾔﾏﾁｮｳ","pref":"愛知県","city":"豊川市","address":"下長山町"},
{"zip_code":"4420877","kana_pref":"ｱｲﾁｹﾝ","kana_city":"ﾄﾖｶﾜｼ","kana_address":"ｼﾓﾉｶﾞﾜﾁｮｳ","pref":"愛知県","city":"豊川市","address":"下野川町"},
{"zip_code":"4420018","kana_pref":"ｱｲﾁｹﾝ","kana_city":"ﾄﾖｶﾜｼ","kana_address":"ｼﾗｸﾓﾁｮｳ","pref":"愛知県","city":"豊川市","address":"白雲町"},
{"zip_code":"4420847","kana_pref":"ｱｲﾁｹﾝ","kana_city":"ﾄﾖｶﾜｼ","kana_address":"ｼﾛﾄﾘ","pref":"愛知県","city":"豊川市","address":"白鳥"},
{"zip_code":"4420848","kana_pref":"ｱｲﾁｹﾝ","kana_city":"ﾄﾖｶﾜｼ","kana_address":"ｼﾛﾄﾘﾁｮｳ","pref":"愛知県","city":"豊川市","address":"白鳥町"},
{"zip_code":"4420853","kana_pref":"ｱｲﾁｹﾝ","kana_city":"ﾄﾖｶﾜｼ","kana_address":"ｼﾝｱｵｳﾏﾁｮｳ","pref":"愛知県","city":"豊川市","address":"新青馬町"},
{"zip_code":"4420855","kana_pref":"ｱｲﾁｹﾝ","kana_city":"ﾄﾖｶﾜｼ","kana_address":"ｼﾝｻｶｴﾏﾁ","pref":"愛知県","city":"豊川市","address":"新栄町"},
{"zip_code":"4420835","kana_pref":"ｱｲﾁｹﾝ","kana_city":"ﾄﾖｶﾜｼ","kana_address":"ｼﾝｻｸﾗﾏﾁﾄﾞｵﾘ","pref":"愛知県","city":"豊川市","address":"新桜町通"},
{"zip_code":"4420043","kana_pref":"ｱｲﾁｹﾝ","kana_city":"ﾄﾖｶﾜｼ","kana_address":"ｼﾝｼﾞｭｸﾁｮｳ","pref":"愛知県","city":"豊川市","address":"新宿町"},
{"zip_code":"4420878","kana_pref":"ｱｲﾁｹﾝ","kana_city":"ﾄﾖｶﾜｼ","kana_address":"ｼﾝﾐﾁﾁｮｳ","pref":"愛知県","city":"豊川市","address":"新道町"},
{"zip_code":"4420012","kana_pref":"ｱｲﾁｹﾝ","kana_city":"ﾄﾖｶﾜｼ","kana_address":"ｼﾝﾕﾀｶﾏﾁ","pref":"愛知県","city":"豊川市","address":"新豊町"},
{"zip_code":"4420029","kana_pref":"ｱｲﾁｹﾝ","kana_city":"ﾄﾖｶﾜｼ","kana_address":"ｽｴﾋﾛﾄﾞｵﾘ","pref":"愛知県","city":"豊川市","address":"末広通"},
{"zip_code":"4420819","kana_pref":"ｱｲﾁｹﾝ","kana_city":"ﾄﾖｶﾜｼ","kana_address":"ｽﾐﾖｼﾁｮｳ","pref":"愛知県","city":"豊川市","address":"住吉町"},
{"zip_code":"4420068","kana_pref":"ｱｲﾁｹﾝ","kana_city":"ﾄﾖｶﾜｼ","kana_address":"ｽﾜ","pref":"愛知県","city":"豊川市","address":"諏訪"},
{"zip_code":"4420069","kana_pref":"ｱｲﾁｹﾝ","kana_city":"ﾄﾖｶﾜｼ","kana_address":"ｽﾜﾆｼﾏﾁ","pref":"愛知県","city":"豊川市","address":"諏訪西町"},
{"zip_code":"4420815","kana_pref":"ｱｲﾁｹﾝ","kana_city":"ﾄﾖｶﾜｼ","kana_address":"ｾｷﾞﾁｮｳ","pref":"愛知県","city":"豊川市","address":"瀬木町"},
{"zip_code":"4420842","kana_pref":"ｱｲﾁｹﾝ","kana_city":"ﾄﾖｶﾜｼ","kana_address":"ｿﾞｳｼ","pref":"愛知県","city":"豊川市","address":"蔵子"},
{"zip_code":"4420841","kana_pref":"ｱｲﾁｹﾝ","kana_city":"ﾄﾖｶﾜｼ","kana_address":"ﾀﾞｲﾀﾞﾁｮｳ","pref":"愛知県","city":"豊川市","address":"代田町"},
{"zip_code":"4420883","kana_pref":"ｱｲﾁｹﾝ","kana_city":"ﾄﾖｶﾜｼ","kana_address":"ﾀｶﾐﾁｮｳ","pref":"愛知県","city":"豊川市","address":"高見町"},
{"zip_code":"4420845","kana_pref":"ｱｲﾁｹﾝ","kana_city":"ﾄﾖｶﾜｼ","kana_address":"ﾀﾒﾄｳﾁｮｳ","pref":"愛知県","city":"豊川市","address":"為当町"},
{"zip_code":"4420004","kana_pref":"ｱｲﾁｹﾝ","kana_city":"ﾄﾖｶﾜｼ","kana_address":"ﾀﾙｲﾁｮｳ","pref":"愛知県","city":"豊川市","address":"樽井町"},
{"zip_code":"4420001","kana_pref":"ｱｲﾁｹﾝ","kana_city":"ﾄﾖｶﾜｼ","kana_address":"ﾁｷﾞﾘﾁｮｳ","pref":"愛知県","city":"豊川市","address":"千両町"},
{"zip_code":"4420888","kana_pref":"ｱｲﾁｹﾝ","kana_city":"ﾄﾖｶﾜｼ","kana_address":"ﾁﾄｾﾄﾞｵﾘ","pref":"愛知県","city":"豊川市","address":"千歳通"},
{"zip_code":"4420051","kana_pref":"ｱｲﾁｹﾝ","kana_city":"ﾄﾖｶﾜｼ","kana_address":"ﾁｭｳｵｳﾄﾞｵﾘ","pref":"愛知県","city":"豊川市","address":"中央通"},
{"zip_code":"4420818","kana_pref":"ｱｲﾁｹﾝ","kana_city":"ﾄﾖｶﾜｼ","kana_address":"ﾁｭｳｼﾞｮｳﾁｮｳ","pref":"愛知県","city":"豊川市","address":"中条町"},
{"zip_code":"4420876","kana_pref":"ｱｲﾁｹﾝ","kana_city":"ﾄﾖｶﾜｼ","kana_address":"ﾁｭｳﾌﾞﾁｮｳ","pref":"愛知県","city":"豊川市","address":"中部町"},
{"zip_code":"4420039","kana_pref":"ｱｲﾁｹﾝ","kana_city":"ﾄﾖｶﾜｼ","kana_address":"ﾃﾝｼﾞﾝﾁｮｳ","pref":"愛知県","city":"豊川市","address":"天神町"},
{"zip_code":"4420022","kana_pref":"ｱｲﾁｹﾝ","kana_city":"ﾄﾖｶﾜｼ","kana_address":"ﾄｳｺｳﾁｮｳ","pref":"愛知県","city":"豊川市","address":"東光町"},
{"zip_code":"4420821","kana_pref":"ｱｲﾁｹﾝ","kana_city":"ﾄﾖｶﾜｼ","kana_address":"ﾄｳｺﾞﾁｮｳ","pref":"愛知県","city":"豊川市","address":"当古町"},
{"zip_code":"4420026","kana_pref":"ｱｲﾁｹﾝ","kana_city":"ﾄﾖｶﾜｼ","kana_address":"ﾄｳｼﾝﾁｮｳ","pref":"愛知県","city":"豊川市","address":"東新町"},
{"zip_code":"4420881","kana_pref":"ｱｲﾁｹﾝ","kana_city":"ﾄﾖｶﾜｼ","kana_address":"ﾄｳﾉｷﾞﾁｮｳ","pref":"愛知県","city":"豊川市","address":"塔ノ木町"},
{"zip_code":"4420019","kana_pref":"ｱｲﾁｹﾝ","kana_city":"ﾄﾖｶﾜｼ","kana_address":"ﾄｳﾒｲﾁｮｳ","pref":"愛知県","city":"豊川市","address":"東名町"},
{"zip_code":"4420813","kana_pref":"ｱｲﾁｹﾝ","kana_city":"ﾄﾖｶﾜｼ","kana_address":"ﾄﾞﾄﾞｳﾁｮｳ","pref":"愛知県","city":"豊川市","address":"土筒町"},
{"zip_code":"4420036","kana_pref":"ｱｲﾁｹﾝ","kana_city":"ﾄﾖｶﾜｼ","kana_address":"ﾄﾖｶﾜｻｶｴﾏﾁ","pref":"愛知県","city":"豊川市","address":"豊川栄町"},
{"zip_code":"4420032","kana_pref":"ｱｲﾁｹﾝ","kana_city":"ﾄﾖｶﾜｼ","kana_address":"ﾄﾖｶﾜﾅｶﾏﾁ","pref":"愛知県","city":"豊川市","address":"豊川仲町"},
{"zip_code":"4420031","kana_pref":"ｱｲﾁｹﾝ","kana_city":"ﾄﾖｶﾜｼ","kana_address":"ﾄﾖｶﾜﾆｼﾏﾁ","pref":"愛知県","city":"豊川市","address":"豊川西町"},
{"zip_code":"4420035","kana_pref":"ｱｲﾁｹﾝ","kana_city":"ﾄﾖｶﾜｼ","kana_address":"ﾄﾖｶﾜﾓﾄﾏﾁ","pref":"愛知県","city":"豊川市","address":"豊川元町"},
{"zip_code":"4420033","kana_pref":"ｱｲﾁｹﾝ","kana_city":"ﾄﾖｶﾜｼ","kana_address":"ﾄﾖｶﾜﾁｮｳ","pref":"愛知県","city":"豊川市","address":"豊川町"},
{"zip_code":"4420003","kana_pref":"ｱｲﾁｹﾝ","kana_city":"ﾄﾖｶﾜｼ","kana_address":"ﾅｶﾞｸｻﾁｮｳ","pref":"愛知県","city":"豊川市","address":"長草町"},
{"zip_code":"4420885","kana_pref":"ｱｲﾁｹﾝ","kana_city":"ﾄﾖｶﾜｼ","kana_address":"ﾅｶﾉｶﾞﾜﾁｮｳ","pref":"愛知県","city":"豊川市","address":"中野川町"},
{"zip_code":"4420833","kana_pref":"ｱｲﾁｹﾝ","kana_city":"ﾄﾖｶﾜｼ","kana_address":"ﾆｼｸﾞﾁﾁｮｳ","pref":"愛知県","city":"豊川市","address":"西口町"},
{"zip_code":"4420834","kana_pref":"ｱｲﾁｹﾝ","kana_city":"ﾄﾖｶﾜｼ","kana_address":"ﾆｼｺｳﾉｷﾞﾁｮｳ","pref":"愛知県","city":"豊川市","address":"西香ノ木町"},
{"zip_code":"4420063","kana_pref":"ｱｲﾁｹﾝ","kana_city":"ﾄﾖｶﾜｼ","kana_address":"ﾆｼｻｸﾗｷﾞﾁｮｳ","pref":"愛知県","city":"豊川市","address":"西桜木町"},
{"zip_code":"4420827","kana_pref":"ｱｲﾁｹﾝ","kana_city":"ﾄﾖｶﾜｼ","kana_address":"ﾆｼｼﾞﾏﾁｮｳ","pref":"愛知県","city":"豊川市","address":"西島町"},
{"zip_code":"4420838","kana_pref":"ｱｲﾁｹﾝ","kana_city":"ﾄﾖｶﾜｼ","kana_address":"ﾆｼﾂﾞｶﾁｮｳ","pref":"愛知県","city":"豊川市","address":"西塚町"},
{"zip_code":"4420034","kana_pref":"ｱｲﾁｹﾝ","kana_city":"ﾄﾖｶﾜｼ","kana_address":"ﾆｼﾎﾝﾏﾁ","pref":"愛知県","city":"豊川市","address":"西本町"},
{"zip_code":"4420024","kana_pref":"ｱｲﾁｹﾝ","kana_city":"ﾄﾖｶﾜｼ","kana_address":"ﾆｼﾕﾀｶﾏﾁ","pref":"愛知県","city":"豊川市","address":"西豊町"},
{"zip_code":"4420851","kana_pref":"ｱｲﾁｹﾝ","kana_city":"ﾄﾖｶﾜｼ","kana_address":"ﾉｸﾞﾁﾁｮｳ","pref":"愛知県","city":"豊川市","address":"野口町"},
{"zip_code":"4420879","kana_pref":"ｱｲﾁｹﾝ","kana_city":"ﾄﾖｶﾜｼ","kana_address":"ﾊｷﾞﾔﾏﾁｮｳ","pref":"愛知県","city":"豊川市","address":"萩山町"},
{"zip_code":"4420816","kana_pref":"ｱｲﾁｹﾝ","kana_city":"ﾄﾖｶﾜｼ","kana_address":"ﾊﾅｲﾁｮｳ","pref":"愛知県","city":"豊川市","address":"花井町"},
{"zip_code":"4420811","kana_pref":"ｱｲﾁｹﾝ","kana_city":"ﾄﾖｶﾜｼ","kana_address":"ﾊﾞﾊﾞﾁｮｳ","pref":"愛知県","city":"豊川市","address":"馬場町"},
{"zip_code":"4420011","kana_pref":"ｱｲﾁｹﾝ","kana_city":"ﾄﾖｶﾜｼ","kana_address":"ﾋｶﾞｼｱｹﾎﾞﾉﾁｮｳ","pref":"愛知県","city":"豊川市","address":"東曙町"},
{"zip_code":"4420028","kana_pref":"ｱｲﾁｹﾝ","kana_city":"ﾄﾖｶﾜｼ","kana_address":"ﾋｶﾞｼｻｸﾗｷﾞﾁｮｳ","pref":"愛知県","city":"豊川市","address":"東桜木町"},
{"zip_code":"4420025","kana_pref":"ｱｲﾁｹﾝ","kana_city":"ﾄﾖｶﾜｼ","kana_address":"ﾋｶﾞｼﾕﾀｶﾏﾁ","pref":"愛知県","city":"豊川市","address":"東豊町"},
{"zip_code":"4420863","kana_pref":"ｱｲﾁｹﾝ","kana_city":"ﾄﾖｶﾜｼ","kana_address":"ﾋﾗｵﾁｮｳ","pref":"愛知県","city":"豊川市","address":"平尾町"},
{"zip_code":"4420804","kana_pref":"ｱｲﾁｹﾝ","kana_city":"ﾄﾖｶﾜｼ","kana_address":"ﾌﾀﾊﾞﾁｮｳ","pref":"愛知県","city":"豊川市","address":"二葉町"},
{"zip_code":"4420044","kana_pref":"ｱｲﾁｹﾝ","kana_city":"ﾄﾖｶﾜｼ","kana_address":"ﾌﾀﾐﾁｮｳ","pref":"愛知県","city":"豊川市","address":"二見町"},
{"zip_code":"4420817","kana_pref":"ｱｲﾁｹﾝ","kana_city":"ﾄﾖｶﾜｼ","kana_address":"ﾌﾙｼﾞｭｸﾁｮｳ","pref":"愛知県","city":"豊川市","address":"古宿町"},
{"zip_code":"4420014","kana_pref":"ｱｲﾁｹﾝ","kana_city":"ﾄﾖｶﾜｼ","kana_address":"ﾎｳｴｲﾁｮｳ","pref":"愛知県","city":"豊川市","address":"豊栄町"},
{"zip_code":"4420061","kana_pref":"ｱｲﾁｹﾝ","kana_city":"ﾄﾖｶﾜｼ","kana_address":"ﾎﾉﾊﾗ","pref":"愛知県","city":"豊川市","address":"穂ノ原"},
{"zip_code":"4420005","kana_pref":"ｱｲﾁｹﾝ","kana_city":"ﾄﾖｶﾜｼ","kana_address":"ﾎﾝﾉｶﾞﾊﾗ","pref":"愛知県","city":"豊川市","address":"本野ケ原"},
{"zip_code":"4420062","kana_pref":"ｱｲﾁｹﾝ","kana_city":"ﾄﾖｶﾜｼ","kana_address":"ﾎﾝﾉﾁｮｳ","pref":"愛知県","city":"豊川市","address":"本野町"},
{"zip_code":"4420806","kana_pref":"ｱｲﾁｹﾝ","kana_city":"ﾄﾖｶﾜｼ","kana_address":"ﾏｷﾉﾁｮｳ","pref":"愛知県","city":"豊川市","address":"牧野町"},
{"zip_code":"4420823","kana_pref":"ｱｲﾁｹﾝ","kana_city":"ﾄﾖｶﾜｼ","kana_address":"ﾏｻｵｶﾁｮｳ","pref":"愛知県","city":"豊川市","address":"正岡町"},
{"zip_code":"4420871","kana_pref":"ｱｲﾁｹﾝ","kana_city":"ﾄﾖｶﾜｼ","kana_address":"ﾏﾂｶｾﾞﾁｮｳ","pref":"愛知県","city":"豊川市","address":"松風町"},
{"zip_code":"4420874","kana_pref":"ｱｲﾁｹﾝ","kana_city":"ﾄﾖｶﾜｼ","kana_address":"ﾏﾂﾋｻﾁｮｳ","pref":"愛知県","city":"豊川市","address":"松久町"},
{"zip_code":"4420812","kana_pref":"ｱｲﾁｹﾝ","kana_city":"ﾄﾖｶﾜｼ","kana_address":"ﾐｶﾐﾁｮｳ","pref":"愛知県","city":"豊川市","address":"三上町"},
{"zip_code":"4420049","kana_pref":"ｱｲﾁｹﾝ","kana_city":"ﾄﾖｶﾜｼ","kana_address":"ﾐﾄﾞﾘﾏﾁ","pref":"愛知県","city":"豊川市","address":"緑町"},
{"zip_code":"4420889","kana_pref":"ｱｲﾁｹﾝ","kana_city":"ﾄﾖｶﾜｼ","kana_address":"ﾐﾅﾐｵｵﾄﾞｵﾘ","pref":"愛知県","city":"豊川市","address":"南大通"},
{"zip_code":"4420008","kana_pref":"ｱｲﾁｹﾝ","kana_city":"ﾄﾖｶﾜｼ","kana_address":"ﾐﾅﾐﾁｷﾞﾘ","pref":"愛知県","city":"豊川市","address":"南千両"},
{"zip_code":"4420805","kana_pref":"ｱｲﾁｹﾝ","kana_city":"ﾄﾖｶﾜｼ","kana_address":"ﾐﾔﾊﾗﾁｮｳ","pref":"愛知県","city":"豊川市","address":"三谷原町"},
{"zip_code":"4420016","kana_pref":"ｱｲﾁｹﾝ","kana_city":"ﾄﾖｶﾜｼ","kana_address":"ﾐﾕｷﾁｮｳ","pref":"愛知県","city":"豊川市","address":"美幸町"},
{"zip_code":"4420825","kana_pref":"ｱｲﾁｹﾝ","kana_city":"ﾄﾖｶﾜｼ","kana_address":"ﾐﾜﾄﾞｵﾘ","pref":"愛知県","city":"豊川市","address":"美和通"},
{"zip_code":"4420803","kana_pref":"ｱｲﾁｹﾝ","kana_city":"ﾄﾖｶﾜｼ","kana_address":"ﾑｺｳｶﾞﾜﾗﾁｮｳ","pref":"愛知県","city":"豊川市","address":"向河原町"},
{"zip_code":"4420846","kana_pref":"ｱｲﾁｹﾝ","kana_city":"ﾄﾖｶﾜｼ","kana_address":"ﾓﾘ","pref":"愛知県","city":"豊川市","address":"森"},
{"zip_code":"4420037","kana_pref":"ｱｲﾁｹﾝ","kana_city":"ﾄﾖｶﾜｼ","kana_address":"ﾓﾝｾﾞﾝﾁｮｳ","pref":"愛知県","city":"豊川市","address":"門前町"},
{"zip_code":"4420807","kana_pref":"ｱｲﾁｹﾝ","kana_city":"ﾄﾖｶﾜｼ","kana_address":"ﾔｶﾞﾜﾁｮｳ","pref":"愛知県","city":"豊川市","address":"谷川町"},
{"zip_code":"4420873","kana_pref":"ｱｲﾁｹﾝ","kana_city":"ﾄﾖｶﾜｼ","kana_address":"ﾔﾏﾐﾁﾁｮｳ","pref":"愛知県","city":"豊川市","address":"山道町"},
{"zip_code":"4420831","kana_pref":"ｱｲﾁｹﾝ","kana_city":"ﾄﾖｶﾜｼ","kana_address":"ﾔﾖｲﾁｮｳ","pref":"愛知県","city":"豊川市","address":"弥生町"},
{"zip_code":"4420857","kana_pref":"ｱｲﾁｹﾝ","kana_city":"ﾄﾖｶﾜｼ","kana_address":"ﾔﾜﾀﾁｮｳ","pref":"愛知県","city":"豊川市","address":"八幡町"},
{"zip_code":"4420808","kana_pref":"ｱｲﾁｹﾝ","kana_city":"ﾄﾖｶﾜｼ","kana_address":"ﾕﾀｶｶﾞｵｶﾁｮｳ","pref":"愛知県","city":"豊川市","address":"豊が丘町"},
{"zip_code":"4420839","kana_pref":"ｱｲﾁｹﾝ","kana_city":"ﾄﾖｶﾜｼ","kana_address":"ﾖﾂﾔﾁｮｳ","pref":"愛知県","city":"豊川市","address":"四ツ谷町"},
{"zip_code":"4420002","kana_pref":"ｱｲﾁｹﾝ","kana_city":"ﾄﾖｶﾜｼ","kana_address":"ﾛｯｶｸﾁｮｳ","pref":"愛知県","city":"豊川市","address":"六角町"},
{"zip_code":"4420065","kana_pref":"ｱｲﾁｹﾝ","kana_city":"ﾄﾖｶﾜｼ","kana_address":"ﾜｶﾊﾞﾄﾁｮｳ","pref":"愛知県","city":"豊川市","address":"若鳩町"},
{"zip_code":"4420047","kana_pref":"ｱｲﾁｹﾝ","kana_city":"ﾄﾖｶﾜｼ","kana_address":"ﾜｶﾐﾔﾁｮｳ","pref":"愛知県","city":"豊川市","address":"若宮町"}]}