{"zip_code":[
{"zip_code":"4430000","kana_pref":"ｱｲﾁｹﾝ","kana_city":"ｶﾞﾏｺﾞｵﾘｼ","kana_address":"","pref":"愛知県","city":"蒲郡市","address":""},
{"zip_code":"4430045","kana_pref":"ｱｲﾁｹﾝ","kana_city":"ｶﾞﾏｺﾞｵﾘｼ","kana_address":"ｱｻﾋﾏﾁ","pref":"愛知県","city":"蒲郡市","address":"旭町"},
{"zip_code":"4430051","kana_pref":"ｱｲﾁｹﾝ","kana_city":"ｶﾞﾏｺﾞｵﾘｼ","kana_address":"ｱﾗｲｶﾞﾀﾁｮｳ","pref":"愛知県","city":"蒲郡市","address":"新井形町"},
{"zip_code":"4430052","kana_pref":"ｱｲﾁｹﾝ","kana_city":"ｶﾞﾏｺﾞｵﾘｼ","kana_address":"ｱﾗｲﾁｮｳ","pref":"愛知県","city":"蒲郡市","address":"新井町"},
{"zip_code":"4430101","kana_pref":"ｱｲﾁｹﾝ","kana_city":"ｶﾞﾏｺﾞｵﾘｼ","kana_address":"ｲｼｷﾁｮｳ","pref":"愛知県","city":"蒲郡市","address":"一色町"},
{"zip_code":"4430058","kana_pref":"ｱｲﾁｹﾝ","kana_city":"ｶﾞﾏｺﾞｵﾘｼ","kana_address":"ｳｴﾎﾝﾏﾁ","pref":"愛知県","city":"蒲郡市","address":"上本町"},
{"zip_code":"4430013","kana_pref":"ｱｲﾁｹﾝ","kana_city":"ｶﾞﾏｺﾞｵﾘｼ","kana_address":"ｵｵﾂｶﾁｮｳ","pref":"愛知県","city":"蒲郡市","address":"大塚町"},
{"zip_code":"4430014","kana_pref":"ｱｲﾁｹﾝ","kana_city":"ｶﾞﾏｺﾞｵﾘｼ","kana_address":"ｶｲﾖｳﾁｮｳ","pref":"愛知県","city":"蒲郡市","address":"海陽町"},
{"zip_code":"4430037","kana_pref":"ｱｲﾁｹﾝ","kana_city":"ｶﾞﾏｺﾞｵﾘｼ","kana_address":"ｶｼﾏﾁｮｳ","pref":"愛知県","city":"蒲郡市","address":"鹿島町"},
{"zip_code":"4430008","kana_pref":"ｱｲﾁｹﾝ","kana_city":"ｶﾞﾏｺﾞｵﾘｼ","kana_address":"ｶｼﾜﾊﾞﾗﾁｮｳ","pref":"愛知県","city":"蒲郡市","address":"柏原町"},
{"zip_code":"4430104","kana_pref":"ｱｲﾁｹﾝ","kana_city":"ｶﾞﾏｺﾞｵﾘｼ","kana_address":"ｶﾀﾊﾗﾁｮｳ","pref":"愛知県","city":"蒲郡市","address":"形原町"},
{"zip_code":"4430106","kana_pref":"ｱｲﾁｹﾝ","kana_city":"ｶﾞﾏｺﾞｵﾘｼ","kana_address":"ｶﾀﾊﾗﾁｮｳｶｽｶﾞｳﾗ","pref":"愛知県","city":"蒲郡市","address":"形原町春日浦"},
{"zip_code":"4430103","kana_pref":"ｱｲﾁｹﾝ","kana_city":"ｶﾞﾏｺﾞｵﾘｼ","kana_address":"ｶﾀﾊﾗﾁｮｳｷﾀﾊﾏ","pref":"愛知県","city":"蒲郡市","address":"形原町北浜"},
{"zip_code":"4430102","kana_pref":"ｱｲﾁｹﾝ","kana_city":"ｶﾞﾏｺﾞｵﾘｼ","kana_address":"ｶﾈﾋﾗﾁｮｳ","pref":"愛知県","city":"蒲郡市","address":"金平町"},
{"zip_code":"4430006","kana_pref":"ｱｲﾁｹﾝ","kana_city":"ｶﾞﾏｺﾞｵﾘｼ","kana_address":"ｶﾞﾏｺﾞｵﾘﾁｮｳ","pref":"愛知県","city":"蒲郡市","address":"蒲郡町"},
{"zip_code":"4430007","kana_pref":"ｱｲﾁｹﾝ","kana_city":"ｶﾞﾏｺﾞｵﾘｼ","kana_address":"ｶﾐﾉｺﾞｳﾁｮｳ","pref":"愛知県","city":"蒲郡市","address":"神ノ郷町"},
{"zip_code":"4430003","kana_pref":"ｱｲﾁｹﾝ","kana_city":"ｶﾞﾏｺﾞｵﾘｼ","kana_address":"ｺﾞｲﾁｮｳ","pref":"愛知県","city":"蒲郡市","address":"五井町"},
{"zip_code":"4430035","kana_pref":"ｱｲﾁｹﾝ","kana_city":"ｶﾞﾏｺﾞｵﾘｼ","kana_address":"ｻｶｴﾏﾁ","pref":"愛知県","city":"蒲郡市","address":"栄町"},
{"zip_code":"4430001","kana_pref":"ｱｲﾁｹﾝ","kana_city":"ｶﾞﾏｺﾞｵﾘｼ","kana_address":"ｻｶﾓﾄﾁｮｳ","pref":"愛知県","city":"蒲郡市","address":"坂本町"},
{"zip_code":"4430012","kana_pref":"ｱｲﾁｹﾝ","kana_city":"ｶﾞﾏｺﾞｵﾘｼ","kana_address":"ｻｶﾞﾗﾁｮｳ","pref":"愛知県","city":"蒲郡市","address":"相楽町"},
{"zip_code":"4430056","kana_pref":"ｱｲﾁｹﾝ","kana_city":"ｶﾞﾏｺﾞｵﾘｼ","kana_address":"ｼﾝﾒｲﾁｮｳ","pref":"愛知県","city":"蒲郡市","address":"神明町"},
{"zip_code":"4430002","kana_pref":"ｱｲﾁｹﾝ","kana_city":"ｶﾞﾏｺﾞｵﾘｼ","kana_address":"ｾｲﾀﾞﾁｮｳ","pref":"愛知県","city":"蒲郡市","address":"清田町"},
{"zip_code":"4430044","kana_pref":"ｱｲﾁｹﾝ","kana_city":"ｶﾞﾏｺﾞｵﾘｼ","kana_address":"ﾀｶﾗﾏﾁ","pref":"愛知県","city":"蒲郡市","address":"宝町"},
{"zip_code":"4430031","kana_pref":"ｱｲﾁｹﾝ","kana_city":"ｶﾞﾏｺﾞｵﾘｼ","kana_address":"ﾀｹｼﾏﾁｮｳ","pref":"愛知県","city":"蒲郡市","address":"竹島町"},
{"zip_code":"4430046","kana_pref":"ｱｲﾁｹﾝ","kana_city":"ｶﾞﾏｺﾞｵﾘｼ","kana_address":"ﾀｹﾉﾔﾁｮｳ","pref":"愛知県","city":"蒲郡市","address":"竹谷町"},
{"zip_code":"4430057","kana_pref":"ｱｲﾁｹﾝ","kana_city":"ｶﾞﾏｺﾞｵﾘｼ","kana_address":"ﾁｭｳｵｳﾎﾝﾏﾁ","pref":"愛知県","city":"蒲郡市","address":"中央本町"},
{"zip_code":"4430011","kana_pref":"ｱｲﾁｹﾝ","kana_city":"ｶﾞﾏｺﾞｵﾘｼ","kana_address":"ﾄﾖｵｶﾁｮｳ","pref":"愛知県","city":"蒲郡市","address":"豊岡町"},
{"zip_code":"4430105","kana_pref":"ｱｲﾁｹﾝ","kana_city":"ｶﾞﾏｺﾞｵﾘｼ","kana_address":"ﾆｼｳﾗﾁｮｳ","pref":"愛知県","city":"蒲郡市","address":"西浦町"},
{"zip_code":"4430047","kana_pref":"ｱｲﾁｹﾝ","kana_city":"ｶﾞﾏｺﾞｵﾘｼ","kana_address":"ﾆｼﾊｻﾏﾁｮｳ","pref":"愛知県","city":"蒲郡市","address":"西迫町"},
{"zip_code":"4430036","kana_pref":"ｱｲﾁｹﾝ","kana_city":"ｶﾞﾏｺﾞｵﾘｼ","kana_address":"ﾊﾏﾁｮｳ","pref":"愛知県","city":"蒲郡市","address":"浜町"},
{"zip_code":"4430004","kana_pref":"ｱｲﾁｹﾝ","kana_city":"ｶﾞﾏｺﾞｵﾘｼ","kana_address":"ﾋﾗﾀﾁｮｳ","pref":"愛知県","city":"蒲郡市","address":"平田町"},
{"zip_code":"4430038","kana_pref":"ｱｲﾁｹﾝ","kana_city":"ｶﾞﾏｺﾞｵﾘｼ","kana_address":"ﾋﾛｲｼﾁｮｳ","pref":"愛知県","city":"蒲郡市","address":"拾石町"},
{"zip_code":"4430054","kana_pref":"ｱｲﾁｹﾝ","kana_city":"ｶﾞﾏｺﾞｵﾘｼ","kana_address":"ﾌｿｳﾁｮｳ","pref":"愛知県","city":"蒲郡市","address":"府相町"},
{"zip_code":"4430053","kana_pref":"ｱｲﾁｹﾝ","kana_city":"ｶﾞﾏｺﾞｵﾘｼ","kana_address":"ﾎﾘｺﾞﾐﾁｮｳ","pref":"愛知県","city":"蒲郡市","address":"堀込町"},
{"zip_code":"4430059","kana_pref":"ｱｲﾁｹﾝ","kana_city":"ｶﾞﾏｺﾞｵﾘｼ","kana_address":"ﾎﾝﾏﾁ","pref":"愛知県","city":"蒲郡市","address":"本町"},
{"zip_code":"4430033","kana_pref":"ｱｲﾁｹﾝ","kana_city":"ｶﾞﾏｺﾞｵﾘｼ","kana_address":"ﾏﾂﾊﾞﾗﾁｮｳ","pref":"愛知県","city":"蒲郡市","address":"松原町"},
{"zip_code":"4430032","kana_pref":"ｱｲﾁｹﾝ","kana_city":"ｶﾞﾏｺﾞｵﾘｼ","kana_address":"ﾏﾙﾔﾏﾁｮｳ","pref":"愛知県","city":"蒲郡市","address":"丸山町"},
{"zip_code":"4430005","kana_pref":"ｱｲﾁｹﾝ","kana_city":"ｶﾞﾏｺﾞｵﾘｼ","kana_address":"ﾐｽﾞﾀｹﾁｮｳ","pref":"愛知県","city":"蒲郡市","address":"水竹町"},
{"zip_code":"4430048","kana_pref":"ｱｲﾁｹﾝ","kana_city":"ｶﾞﾏｺﾞｵﾘｼ","kana_address":"ﾐﾄﾞﾘﾏﾁ","pref":"愛知県","city":"蒲郡市","address":"緑町"},
{"zip_code":"4430034","kana_pref":"ｱｲﾁｹﾝ","kana_city":"ｶﾞﾏｺﾞｵﾘｼ","kana_address":"ﾐﾅﾄﾏﾁ","pref":"愛知県","city":"蒲郡市","address":"港町"},
{"zip_code":"4430022","kana_pref":"ｱｲﾁｹﾝ","kana_city":"ｶﾞﾏｺﾞｵﾘｼ","kana_address":"ﾐﾔｷﾀﾄﾞｵﾘ","pref":"愛知県","city":"蒲郡市","address":"三谷北通"},
{"zip_code":"4430021","kana_pref":"ｱｲﾁｹﾝ","kana_city":"ｶﾞﾏｺﾞｵﾘｼ","kana_address":"ﾐﾔﾁｮｳ","pref":"愛知県","city":"蒲郡市","address":"三谷町"},
{"zip_code":"4430041","kana_pref":"ｱｲﾁｹﾝ","kana_city":"ｶﾞﾏｺﾞｵﾘｼ","kana_address":"ﾐﾔﾅﾘﾁｮｳ","pref":"愛知県","city":"蒲郡市","address":"宮成町"},
{"zip_code":"4430042","kana_pref":"ｱｲﾁｹﾝ","kana_city":"ｶﾞﾏｺﾞｵﾘｼ","kana_address":"ﾐﾕｷﾁｮｳ","pref":"愛知県","city":"蒲郡市","address":"御幸町"},
{"zip_code":"4430043","kana_pref":"ｱｲﾁｹﾝ","kana_city":"ｶﾞﾏｺﾞｵﾘｼ","kana_address":"ﾓﾄﾏﾁ","pref":"愛知県","city":"蒲郡市","address":"元町"},
{"zip_code":"4430055","kana_pref":"ｱｲﾁｹﾝ","kana_city":"ｶﾞﾏｺﾞｵﾘｼ","kana_address":"ﾔｵﾄﾐﾁｮｳ","pref":"愛知県","city":"蒲郡市","address":"八百富町"}]}