{"zip_code":[
{"zip_code":"4440000","kana_pref":"ｱｲﾁｹﾝ","kana_city":"ｵｶｻﾞｷｼ","kana_address":"","pref":"愛知県","city":"岡崎市","address":""},
{"zip_code":"4440913","kana_pref":"ｱｲﾁｹﾝ","kana_city":"ｵｶｻﾞｷｼ","kana_address":"ｱｵｲﾁｮｳ","pref":"愛知県","city":"岡崎市","address":"葵町"},
{"zip_code":"4442131","kana_pref":"ｱｲﾁｹﾝ","kana_city":"ｵｶｻﾞｷｼ","kana_address":"ｱｵｷﾁｮｳ","pref":"愛知県","city":"岡崎市","address":"青木町"},
{"zip_code":"4440241","kana_pref":"ｱｲﾁｹﾝ","kana_city":"ｵｶｻﾞｷｼ","kana_address":"ｱｶｼﾌﾞﾁｮｳ","pref":"愛知県","city":"岡崎市","address":"赤渋町"},
{"zip_code":"4440025","kana_pref":"ｱｲﾁｹﾝ","kana_city":"ｵｶｻﾞｷｼ","kana_address":"ｱｹﾎﾞﾉﾁｮｳ","pref":"愛知県","city":"岡崎市","address":"曙町"},
{"zip_code":"4440022","kana_pref":"ｱｲﾁｹﾝ","kana_city":"ｵｶｻﾞｷｼ","kana_address":"ｱｻﾋﾁｮｳ","pref":"愛知県","city":"岡崎市","address":"朝日町"},
{"zip_code":"4443603","kana_pref":"ｱｲﾁｹﾝ","kana_city":"ｵｶｻﾞｷｼ","kana_address":"ｱﾒﾔﾏﾁｮｳ","pref":"愛知県","city":"岡崎市","address":"雨山町"},
{"zip_code":"4443162","kana_pref":"ｱｲﾁｹﾝ","kana_city":"ｵｶｻﾞｷｼ","kana_address":"ｱﾗｲﾁｮｳ","pref":"愛知県","city":"岡崎市","address":"新居町"},
{"zip_code":"4443617","kana_pref":"ｱｲﾁｹﾝ","kana_city":"ｵｶｻﾞｷｼ","kana_address":"ｱﾜﾌﾞﾁﾁｮｳ","pref":"愛知県","city":"岡崎市","address":"淡渕町"},
{"zip_code":"4440234","kana_pref":"ｱｲﾁｹﾝ","kana_city":"ｵｶｻﾞｷｼ","kana_address":"ｱﾝﾄﾞｳﾁｮｳ","pref":"愛知県","city":"岡崎市","address":"安藤町"},
{"zip_code":"4440078","kana_pref":"ｱｲﾁｹﾝ","kana_city":"ｵｶｻﾞｷｼ","kana_address":"ｲｶﾞｼﾝﾏﾁ","pref":"愛知県","city":"岡崎市","address":"伊賀新町"},
{"zip_code":"4440075","kana_pref":"ｱｲﾁｹﾝ","kana_city":"ｵｶｻﾞｷｼ","kana_address":"ｲｶﾞﾁｮｳ","pref":"愛知県","city":"岡崎市","address":"伊賀町"},
{"zip_code":"4443501","kana_pref":"ｱｲﾁｹﾝ","kana_city":"ｵｶｻﾞｷｼ","kana_address":"ｲｹｶﾞﾈﾁｮｳ","pref":"愛知県","city":"岡崎市","address":"池金町"},
{"zip_code":"4443434","kana_pref":"ｱｲﾁｹﾝ","kana_city":"ｵｶｻﾞｷｼ","kana_address":"ｲｻﾞﾜﾁｮｳ","pref":"愛知県","city":"岡崎市","address":"井沢町"},
{"zip_code":"4440079","kana_pref":"ｱｲﾁｹﾝ","kana_city":"ｵｶｻﾞｷｼ","kana_address":"ｲｼｶﾞﾐﾁｮｳ","pref":"愛知県","city":"岡崎市","address":"石神町"},
{"zip_code":"4443447","kana_pref":"ｱｲﾁｹﾝ","kana_city":"ｵｶｻﾞｷｼ","kana_address":"ｲｯｼｷﾁｮｳ","pref":"愛知県","city":"岡崎市","address":"一色町"},
{"zip_code":"4443601","kana_pref":"ｱｲﾁｹﾝ","kana_city":"ｵｶｻﾞｷｼ","kana_address":"ｲｼﾊﾗﾁｮｳ","pref":"愛知県","city":"岡崎市","address":"石原町"},
{"zip_code":"4443171","kana_pref":"ｱｲﾁｹﾝ","kana_city":"ｵｶｻﾞｷｼ","kana_address":"ｲﾀﾀﾞﾁｮｳ","pref":"愛知県","city":"岡崎市","address":"板田町"},
{"zip_code":"4440053","kana_pref":"ｱｲﾁｹﾝ","kana_city":"ｵｶｻﾞｷｼ","kana_address":"ｲﾀﾔﾏﾁ","pref":"愛知県","city":"岡崎市","address":"板屋町"},
{"zip_code":"4440069","kana_pref":"ｱｲﾁｹﾝ","kana_city":"ｵｶｻﾞｷｼ","kana_address":"ｲﾀﾞｼﾝﾏﾁ","pref":"愛知県","city":"岡崎市","address":"井田新町"},
{"zip_code":"4440912","kana_pref":"ｱｲﾁｹﾝ","kana_city":"ｵｶｻﾞｷｼ","kana_address":"ｲﾀﾞﾆｼﾏﾁ","pref":"愛知県","city":"岡崎市","address":"井田西町"},
{"zip_code":"4440068","kana_pref":"ｱｲﾁｹﾝ","kana_city":"ｵｶｻﾞｷｼ","kana_address":"ｲﾀﾞﾐﾅﾐﾏﾁ","pref":"愛知県","city":"岡崎市","address":"井田南町"},
{"zip_code":"4440076","kana_pref":"ｱｲﾁｹﾝ","kana_city":"ｵｶｻﾞｷｼ","kana_address":"ｲﾀﾞﾁｮｳ","pref":"愛知県","city":"岡崎市","address":"井田町"},
{"zip_code":"4440077","kana_pref":"ｱｲﾁｹﾝ","kana_city":"ｵｶｻﾞｷｼ","kana_address":"ｲﾀﾞﾁｮｳﾊﾞﾗﾂﾎﾞ","pref":"愛知県","city":"岡崎市","address":"井田町茨坪"},
{"zip_code":"4443521","kana_pref":"ｱｲﾁｹﾝ","kana_city":"ｵｶｻﾞｷｼ","kana_address":"ｲﾁﾊﾞﾁｮｳ","pref":"愛知県","city":"岡崎市","address":"市場町"},
{"zip_code":"4440203","kana_pref":"ｱｲﾁｹﾝ","kana_city":"ｵｶｻﾞｷｼ","kana_address":"ｲﾅｲﾁｮｳ","pref":"愛知県","city":"岡崎市","address":"井内町"},
{"zip_code":"4440071","kana_pref":"ｱｲﾁｹﾝ","kana_city":"ｵｶｻﾞｷｼ","kana_address":"ｲﾅｸﾞﾏﾁｮｳ","pref":"愛知県","city":"岡崎市","address":"稲熊町"},
{"zip_code":"4442132","kana_pref":"ｱｲﾁｹﾝ","kana_city":"ｵｶｻﾞｷｼ","kana_address":"ｲﾉｸﾁｼﾝﾏﾁ","pref":"愛知県","city":"岡崎市","address":"井ノ口新町"},
{"zip_code":"4442133","kana_pref":"ｱｲﾁｹﾝ","kana_city":"ｵｶｻﾞｷｼ","kana_address":"ｲﾉｸﾁﾁｮｳ","pref":"愛知県","city":"岡崎市","address":"井ノ口町"},
{"zip_code":"4442144","kana_pref":"ｱｲﾁｹﾝ","kana_city":"ｵｶｻﾞｷｼ","kana_address":"ｲﾜﾂﾞﾁｮｳ","pref":"愛知県","city":"岡崎市","address":"岩津町"},
{"zip_code":"4443344","kana_pref":"ｱｲﾁｹﾝ","kana_city":"ｵｶｻﾞｷｼ","kana_address":"ｲﾜﾄﾁｮｳ","pref":"愛知県","city":"岡崎市","address":"岩戸町"},
{"zip_code":"4443165","kana_pref":"ｱｲﾁｹﾝ","kana_city":"ｵｶｻﾞｷｼ","kana_address":"ｲﾜﾅｶﾁｮｳ","pref":"愛知県","city":"岡崎市","address":"岩中町"},
{"zip_code":"4440823","kana_pref":"ｱｲﾁｹﾝ","kana_city":"ｵｶｻﾞｷｼ","kana_address":"ｳｴｼﾞ","pref":"愛知県","city":"岡崎市","address":"上地"},
{"zip_code":"4440824","kana_pref":"ｱｲﾁｹﾝ","kana_city":"ｵｶｻﾞｷｼ","kana_address":"ｳｴｼﾞﾁｮｳ","pref":"愛知県","city":"岡崎市","address":"上地町"},
{"zip_code":"4440058","kana_pref":"ｱｲﾁｹﾝ","kana_city":"ｵｶｻﾞｷｼ","kana_address":"ｳｵﾏﾁ","pref":"愛知県","city":"岡崎市","address":"魚町"},
{"zip_code":"4440906","kana_pref":"ｱｲﾁｹﾝ","kana_city":"ｵｶｻﾞｷｼ","kana_address":"ｳﾄｳｷﾀﾏﾁ","pref":"愛知県","city":"岡崎市","address":"宇頭北町"},
{"zip_code":"4440905","kana_pref":"ｱｲﾁｹﾝ","kana_city":"ｵｶｻﾞｷｼ","kana_address":"ｳﾄｳﾁｮｳ","pref":"愛知県","city":"岡崎市","address":"宇頭町"},
{"zip_code":"4440950","kana_pref":"ｱｲﾁｹﾝ","kana_city":"ｵｶｻﾞｷｼ","kana_address":"ｳﾄｳﾋｶﾞｼﾏﾁ","pref":"愛知県","city":"岡崎市","address":"宇頭東町"},
{"zip_code":"4440949","kana_pref":"ｱｲﾁｹﾝ","kana_city":"ｵｶｻﾞｷｼ","kana_address":"ｳﾄｳﾐﾅﾐﾏﾁ","pref":"愛知県","city":"岡崎市","address":"宇頭南町"},
{"zip_code":"4440031","kana_pref":"ｱｲﾁｹﾝ","kana_city":"ｵｶｻﾞｷｼ","kana_address":"ｳﾒｿﾞﾉﾁｮｳ","pref":"愛知県","city":"岡崎市","address":"梅園町"},
{"zip_code":"4440843","kana_pref":"ｱｲﾁｹﾝ","kana_city":"ｵｶｻﾞｷｼ","kana_address":"ｴｸﾞﾁ","pref":"愛知県","city":"岡崎市","address":"江口"},
{"zip_code":"4442107","kana_pref":"ｱｲﾁｹﾝ","kana_city":"ｵｶｻﾞｷｼ","kana_address":"ｴﾀﾁｮｳ","pref":"愛知県","city":"岡崎市","address":"恵田町"},
{"zip_code":"4443334","kana_pref":"ｱｲﾁｹﾝ","kana_city":"ｵｶｻﾞｷｼ","kana_address":"ｵｲﾀﾞｲﾗﾁｮｳ","pref":"愛知県","city":"岡崎市","address":"生平町"},
{"zip_code":"4440003","kana_pref":"ｱｲﾁｹﾝ","kana_city":"ｵｶｻﾞｷｼ","kana_address":"ｵｲﾁｮｳ","pref":"愛知県","city":"岡崎市","address":"小美町"},
{"zip_code":"4443166","kana_pref":"ｱｲﾁｹﾝ","kana_city":"ｵｶｻﾞｷｼ","kana_address":"ｵｵｲﾉﾁｮｳ","pref":"愛知県","city":"岡崎市","address":"大井野町"},
{"zip_code":"4443604","kana_pref":"ｱｲﾁｹﾝ","kana_city":"ｵｶｻﾞｷｼ","kana_address":"ｵｵｼﾞﾛﾁｮｳ","pref":"愛知県","city":"岡崎市","address":"大代町"},
{"zip_code":"4443445","kana_pref":"ｱｲﾁｹﾝ","kana_city":"ｵｶｻﾞｷｼ","kana_address":"ｵｵﾀｶﾐﾁｮｳ","pref":"愛知県","city":"岡崎市","address":"大高味町"},
{"zip_code":"4440811","kana_pref":"ｱｲﾁｹﾝ","kana_city":"ｵｶｻﾞｷｼ","kana_address":"ｵｵﾆｼﾁｮｳ","pref":"愛知県","city":"岡崎市","address":"大西町"},
{"zip_code":"4440812","kana_pref":"ｱｲﾁｹﾝ","kana_city":"ｵｶｻﾞｷｼ","kana_address":"ｵｵﾆｼﾁｮｳﾐﾅﾐｶﾞﾊﾗ","pref":"愛知県","city":"岡崎市","address":"大西町南ケ原"},
{"zip_code":"4443502","kana_pref":"ｱｲﾁｹﾝ","kana_city":"ｵｶｻﾞｷｼ","kana_address":"ｵｵﾊﾞﾀﾁｮｳ","pref":"愛知県","city":"岡崎市","address":"大幡町"},
{"zip_code":"4440007","kana_pref":"ｱｲﾁｹﾝ","kana_city":"ｵｶｻﾞｷｼ","kana_address":"ｵｵﾋﾗﾁｮｳ","pref":"愛知県","city":"岡崎市","address":"大平町"},
{"zip_code":"4443161","kana_pref":"ｱｲﾁｹﾝ","kana_city":"ｵｶｻﾞｷｼ","kana_address":"ｵｵﾔﾅｷﾞﾁｮｳ","pref":"愛知県","city":"岡崎市","address":"大柳町"},
{"zip_code":"4440871","kana_pref":"ｱｲﾁｹﾝ","kana_city":"ｵｶｻﾞｷｼ","kana_address":"ｵｵﾆｼ","pref":"愛知県","city":"岡崎市","address":"大西"},
{"zip_code":"4440005","kana_pref":"ｱｲﾁｹﾝ","kana_city":"ｵｶｻﾞｷｼ","kana_address":"ｵｶﾁｮｳ","pref":"愛知県","city":"岡崎市","address":"岡町"},
{"zip_code":"4443436","kana_pref":"ｱｲﾁｹﾝ","kana_city":"ｵｶｻﾞｷｼ","kana_address":"ｵｸﾀﾞﾁｮｳ","pref":"愛知県","city":"岡崎市","address":"小久田町"},
{"zip_code":"4442108","kana_pref":"ｱｲﾁｹﾝ","kana_city":"ｵｶｻﾞｷｼ","kana_address":"ｵｸﾄﾉﾁｮｳ","pref":"愛知県","city":"岡崎市","address":"奥殿町"},
{"zip_code":"4442142","kana_pref":"ｱｲﾁｹﾝ","kana_city":"ｵｶｻﾞｷｼ","kana_address":"ｵｸﾔﾏﾀﾞﾁｮｳ","pref":"愛知県","city":"岡崎市","address":"奥山田町"},
{"zip_code":"4440009","kana_pref":"ｱｲﾁｹﾝ","kana_city":"ｵｶｻﾞｷｼ","kana_address":"ｵﾛﾁｮｳ","pref":"愛知県","city":"岡崎市","address":"小呂町"},
{"zip_code":"4443623","kana_pref":"ｱｲﾁｹﾝ","kana_city":"ｵｶｻﾞｷｼ","kana_address":"ｶｶﾂｶﾞﾜﾁｮｳ","pref":"愛知県","city":"岡崎市","address":"鹿勝川町"},
{"zip_code":"4440065","kana_pref":"ｱｲﾁｹﾝ","kana_city":"ｵｶｻﾞｷｼ","kana_address":"ｶｷﾀﾁｮｳ","pref":"愛知県","city":"岡崎市","address":"柿田町"},
{"zip_code":"4440011","kana_pref":"ｱｲﾁｹﾝ","kana_city":"ｵｶｻﾞｷｼ","kana_address":"ｶｹﾏﾁ","pref":"愛知県","city":"岡崎市","address":"欠町"},
{"zip_code":"4440041","kana_pref":"ｱｲﾁｹﾝ","kana_city":"ｵｶｻﾞｷｼ","kana_address":"ｶｺﾞﾀﾞﾁｮｳ","pref":"愛知県","city":"岡崎市","address":"籠田町"},
{"zip_code":"4443443","kana_pref":"ｱｲﾁｹﾝ","kana_city":"ｵｶｻﾞｷｼ","kana_address":"ｶｼﾞﾉﾁｮｳ","pref":"愛知県","city":"岡崎市","address":"鍛埜町"},
{"zip_code":"4443622","kana_pref":"ｱｲﾁｹﾝ","kana_city":"ｵｶｻﾞｷｼ","kana_address":"ｶｼﾔﾏﾁｮｳ","pref":"愛知県","city":"岡崎市","address":"樫山町"},
{"zip_code":"4443616","kana_pref":"ｱｲﾁｹﾝ","kana_city":"ｵｶｻﾞｷｼ","kana_address":"ｶﾀﾖｾﾁｮｳ","pref":"愛知県","city":"岡崎市","address":"片寄町"},
{"zip_code":"4440243","kana_pref":"ｱｲﾁｹﾝ","kana_city":"ｵｶｻﾞｷｼ","kana_address":"ｶﾐｱｵﾉﾁｮｳ","pref":"愛知県","city":"岡崎市","address":"上青野町"},
{"zip_code":"4440936","kana_pref":"ｱｲﾁｹﾝ","kana_city":"ｵｶｻﾞｷｼ","kana_address":"ｶﾐｻｻｷﾁｮｳ","pref":"愛知県","city":"岡崎市","address":"上佐々木町"},
{"zip_code":"4442136","kana_pref":"ｱｲﾁｹﾝ","kana_city":"ｵｶｻﾞｷｼ","kana_address":"ｶﾐｻﾄ","pref":"愛知県","city":"岡崎市","address":"上里"},
{"zip_code":"4443504","kana_pref":"ｱｲﾁｹﾝ","kana_city":"ｵｶｻﾞｷｼ","kana_address":"ｶﾐｿﾌﾞﾐﾁｮｳ","pref":"愛知県","city":"岡崎市","address":"上衣文町"},
{"zip_code":"4440246","kana_pref":"ｱｲﾁｹﾝ","kana_city":"ｵｶｻﾞｷｼ","kana_address":"ｶﾐﾐﾂｷﾞﾁｮｳ","pref":"愛知県","city":"岡崎市","address":"上三ツ木町"},
{"zip_code":"4440861","kana_pref":"ｱｲﾁｹﾝ","kana_city":"ｵｶｻﾞｷｼ","kana_address":"ｶﾐﾐｮｳﾀﾞｲｼﾞﾁｮｳ","pref":"愛知県","city":"岡崎市","address":"上明大寺町"},
{"zip_code":"4440858","kana_pref":"ｱｲﾁｹﾝ","kana_city":"ｵｶｻﾞｷｼ","kana_address":"ｶﾐﾑﾂﾅ","pref":"愛知県","city":"岡崎市","address":"上六名"},
{"zip_code":"4440859","kana_pref":"ｱｲﾁｹﾝ","kana_city":"ｵｶｻﾞｷｼ","kana_address":"ｶﾐﾑﾂﾅﾁｮｳ","pref":"愛知県","city":"岡崎市","address":"上六名町"},
{"zip_code":"4440201","kana_pref":"ｱｲﾁｹﾝ","kana_city":"ｵｶｻﾞｷｼ","kana_address":"ｶﾐﾜﾀﾞﾁｮｳ","pref":"愛知県","city":"岡崎市","address":"上和田町"},
{"zip_code":"4440049","kana_pref":"ｱｲﾁｹﾝ","kana_city":"ｵｶｻﾞｷｼ","kana_address":"ｶﾒｲﾁｮｳ","pref":"愛知県","city":"岡崎市","address":"亀井町"},
{"zip_code":"4442122","kana_pref":"ｱｲﾁｹﾝ","kana_city":"ｵｶｻﾞｷｼ","kana_address":"ｶﾓﾀﾞﾎﾝﾏﾁ","pref":"愛知県","city":"岡崎市","address":"鴨田本町"},
{"zip_code":"4442123","kana_pref":"ｱｲﾁｹﾝ","kana_city":"ｵｶｻﾞｷｼ","kana_address":"ｶﾓﾀﾞﾐﾅﾐﾏﾁ","pref":"愛知県","city":"岡崎市","address":"鴨田南町"},
{"zip_code":"4442121","kana_pref":"ｱｲﾁｹﾝ","kana_city":"ｵｶｻﾞｷｼ","kana_address":"ｶﾓﾀﾞﾁｮｳ","pref":"愛知県","city":"岡崎市","address":"鴨田町"},
{"zip_code":"4440043","kana_pref":"ｱｲﾁｹﾝ","kana_city":"ｵｶｻﾞｷｼ","kana_address":"ｶﾗｻﾜﾁｮｳ","pref":"愛知県","city":"岡崎市","address":"唐沢町"},
{"zip_code":"4442101","kana_pref":"ｱｲﾁｹﾝ","kana_city":"ｵｶｻﾞｷｼ","kana_address":"ｶﾜﾑｷﾁｮｳ","pref":"愛知県","city":"岡崎市","address":"川向町"},
{"zip_code":"4442118","kana_pref":"ｱｲﾁｹﾝ","kana_city":"ｵｶｻﾞｷｼ","kana_address":"ｶﾜﾗﾁｮｳ","pref":"愛知県","city":"岡崎市","address":"河原町"},
{"zip_code":"4443433","kana_pref":"ｱｲﾁｹﾝ","kana_city":"ｵｶｻﾞｷｼ","kana_address":"ｷｸﾀﾞｼﾁｮｳ","pref":"愛知県","city":"岡崎市","address":"木下町"},
{"zip_code":"4440951","kana_pref":"ｱｲﾁｹﾝ","kana_city":"ｵｶｻﾞｷｼ","kana_address":"ｷﾀﾉﾁｮｳ","pref":"愛知県","city":"岡崎市","address":"北野町"},
{"zip_code":"4440944","kana_pref":"ｱｲﾁｹﾝ","kana_city":"ｵｶｻﾞｷｼ","kana_address":"ｷﾀﾎﾝｺﾞｳﾁｮｳ","pref":"愛知県","city":"岡崎市","address":"北本郷町"},
{"zip_code":"4440033","kana_pref":"ｱｲﾁｹﾝ","kana_city":"ｵｶｻﾞｷｼ","kana_address":"ｷｭｳｴﾓﾝﾁｮｳ","pref":"愛知県","city":"岡崎市","address":"久右ヱ門町"},
{"zip_code":"4443332","kana_pref":"ｱｲﾁｹﾝ","kana_city":"ｵｶｻﾞｷｼ","kana_address":"ｷﾘｺｼﾁｮｳ","pref":"愛知県","city":"岡崎市","address":"切越町"},
{"zip_code":"4443431","kana_pref":"ｱｲﾁｹﾝ","kana_city":"ｵｶｻﾞｷｼ","kana_address":"ｷﾘﾔﾏﾁｮｳ","pref":"愛知県","city":"岡崎市","address":"切山町"},
{"zip_code":"4440851","kana_pref":"ｱｲﾁｹﾝ","kana_city":"ｵｶｻﾞｷｼ","kana_address":"ｸｺﾞｻｷﾁｮｳ","pref":"愛知県","city":"岡崎市","address":"久後崎町"},
{"zip_code":"4440214","kana_pref":"ｱｲﾁｹﾝ","kana_city":"ｵｶｻﾞｷｼ","kana_address":"ｸﾆﾏｻﾁｮｳ","pref":"愛知県","city":"岡崎市","address":"国正町"},
{"zip_code":"4443164","kana_pref":"ｱｲﾁｹﾝ","kana_city":"ｵｶｻﾞｷｼ","kana_address":"ｸﾗﾅﾐﾁｮｳ","pref":"愛知県","city":"岡崎市","address":"蔵次町"},
{"zip_code":"4440941","kana_pref":"ｱｲﾁｹﾝ","kana_city":"ｵｶｻﾞｷｼ","kana_address":"ｸﾚﾄﾞﾁｮｳ","pref":"愛知県","city":"岡崎市","address":"暮戸町"},
{"zip_code":"4443515","kana_pref":"ｱｲﾁｹﾝ","kana_city":"ｵｶｻﾞｷｼ","kana_address":"ｸﾜｶﾞｲﾁｮｳ","pref":"愛知県","city":"岡崎市","address":"桑谷町"},
{"zip_code":"4442141","kana_pref":"ｱｲﾁｹﾝ","kana_city":"ｵｶｻﾞｷｼ","kana_address":"ｸﾜﾊﾞﾗﾁｮｳ","pref":"愛知県","city":"岡崎市","address":"桑原町"},
{"zip_code":"4443437","kana_pref":"ｱｲﾁｹﾝ","kana_city":"ｵｶｻﾞｷｼ","kana_address":"ｹﾛﾁｮｳ","pref":"愛知県","city":"岡崎市","address":"毛呂町"},
{"zip_code":"4440052","kana_pref":"ｱｲﾁｹﾝ","kana_city":"ｵｶｻﾞｷｼ","kana_address":"ｺｳｾｲﾁｮｳ","pref":"愛知県","city":"岡崎市","address":"康生町"},
{"zip_code":"4440045","kana_pref":"ｱｲﾁｹﾝ","kana_city":"ｵｶｻﾞｷｼ","kana_address":"ｺｳｾｲﾄﾞｵﾘﾋｶﾞｼ","pref":"愛知県","city":"岡崎市","address":"康生通東"},
{"zip_code":"4440059","kana_pref":"ｱｲﾁｹﾝ","kana_city":"ｵｶｻﾞｷｼ","kana_address":"ｺｳｾｲﾄﾞｵﾘﾆｼ","pref":"愛知県","city":"岡崎市","address":"康生通西"},
{"zip_code":"4440044","kana_pref":"ｱｲﾁｹﾝ","kana_city":"ｵｶｻﾞｷｼ","kana_address":"ｺｳｾｲﾄﾞｵﾘﾐﾅﾐ","pref":"愛知県","city":"岡崎市","address":"康生通南"},
{"zip_code":"4440002","kana_pref":"ｱｲﾁｹﾝ","kana_city":"ｵｶｻﾞｷｼ","kana_address":"ｺｳﾘｭｳｼﾞﾁｮｳ","pref":"愛知県","city":"岡崎市","address":"高隆寺町"},
{"zip_code":"4442116","kana_pref":"ｱｲﾁｹﾝ","kana_city":"ｵｶｻﾞｷｼ","kana_address":"ｺﾄﾌﾞｷﾁｮｳ","pref":"愛知県","city":"岡崎市","address":"寿町"},
{"zip_code":"4440907","kana_pref":"ｱｲﾁｹﾝ","kana_city":"ｵｶｻﾞｷｼ","kana_address":"ｺﾊﾞﾘﾁｮｳ","pref":"愛知県","city":"岡崎市","address":"小針町"},
{"zip_code":"4443331","kana_pref":"ｱｲﾁｹﾝ","kana_city":"ｵｶｻﾞｷｼ","kana_address":"ｺﾌﾞﾁｮｳ","pref":"愛知県","city":"岡崎市","address":"古部町"},
{"zip_code":"4442104","kana_pref":"ｱｲﾁｹﾝ","kana_city":"ｵｶｻﾞｷｼ","kana_address":"ｺﾏﾀﾞﾁﾁｮｳ","pref":"愛知県","city":"岡崎市","address":"駒立町"},
{"zip_code":"4443163","kana_pref":"ｱｲﾁｹﾝ","kana_city":"ｵｶｻﾞｷｼ","kana_address":"ｺﾏﾙﾁｮｳ","pref":"愛知県","city":"岡崎市","address":"小丸町"},
{"zip_code":"4443342","kana_pref":"ｱｲﾁｹﾝ","kana_city":"ｵｶｻﾞｷｼ","kana_address":"ｻｲｸﾘﾁｮｳ","pref":"愛知県","city":"岡崎市","address":"才栗町"},
{"zip_code":"4440245","kana_pref":"ｱｲﾁｹﾝ","kana_city":"ｵｶｻﾞｷｼ","kana_address":"ｻﾞｲｹﾁｮｳ","pref":"愛知県","city":"岡崎市","address":"在家町"},
{"zip_code":"4440057","kana_pref":"ｱｲﾁｹﾝ","kana_city":"ｵｶｻﾞｷｼ","kana_address":"ｻﾞｲﾓｸﾁｮｳ","pref":"愛知県","city":"岡崎市","address":"材木町"},
{"zip_code":"4440012","kana_pref":"ｱｲﾁｹﾝ","kana_city":"ｵｶｻﾞｷｼ","kana_address":"ｻｶｴﾏﾁ","pref":"愛知県","city":"岡崎市","address":"栄町"},
{"zip_code":"4440213","kana_pref":"ｱｲﾁｹﾝ","kana_city":"ｵｶｻﾞｷｼ","kana_address":"ｻｶｿｳﾁｮｳ","pref":"愛知県","city":"岡崎市","address":"坂左右町"},
{"zip_code":"4443626","kana_pref":"ｱｲﾁｹﾝ","kana_city":"ｵｶｻﾞｷｼ","kana_address":"ｻｸﾗｲｼﾞﾁｮｳ","pref":"愛知県","city":"岡崎市","address":"桜井寺町"},
{"zip_code":"4443435","kana_pref":"ｱｲﾁｹﾝ","kana_city":"ｵｶｻﾞｷｼ","kana_address":"ｻｸﾗｶﾞﾀﾁｮｳ","pref":"愛知県","city":"岡崎市","address":"桜形町"},
{"zip_code":"4440216","kana_pref":"ｱｲﾁｹﾝ","kana_city":"ｵｶｻﾞｷｼ","kana_address":"ｻﾀﾞｸﾆﾁｮｳ","pref":"愛知県","city":"岡崎市","address":"定国町"},
{"zip_code":"4440937","kana_pref":"ｱｲﾁｹﾝ","kana_city":"ｵｶｻﾞｷｼ","kana_address":"ｼﾏｻｶﾁｮｳ","pref":"愛知県","city":"岡崎市","address":"島坂町"},
{"zip_code":"4440036","kana_pref":"ｱｲﾁｹﾝ","kana_city":"ｵｶｻﾞｷｼ","kana_address":"ｼﾏﾁｮｳ","pref":"愛知県","city":"岡崎市","address":"島町"},
{"zip_code":"4440244","kana_pref":"ｱｲﾁｹﾝ","kana_city":"ｵｶｻﾞｷｼ","kana_address":"ｼﾓｱｵﾉﾁｮｳ","pref":"愛知県","city":"岡崎市","address":"下青野町"},
{"zip_code":"4440935","kana_pref":"ｱｲﾁｹﾝ","kana_city":"ｵｶｻﾞｷｼ","kana_address":"ｼﾓｻｻｷﾁｮｳ","pref":"愛知県","city":"岡崎市","address":"下佐々木町"},
{"zip_code":"4443625","kana_pref":"ｱｲﾁｹﾝ","kana_city":"ｵｶｻﾞｷｼ","kana_address":"ｼﾓｿﾌﾞﾐﾁｮｳ","pref":"愛知県","city":"岡崎市","address":"下衣文町"},
{"zip_code":"4440247","kana_pref":"ｱｲﾁｹﾝ","kana_city":"ｵｶｻﾞｷｼ","kana_address":"ｼﾓﾐﾂｷﾞﾁｮｳ","pref":"愛知県","city":"岡崎市","address":"下三ツ木町"},
{"zip_code":"4440212","kana_pref":"ｱｲﾁｹﾝ","kana_city":"ｵｶｻﾞｷｼ","kana_address":"ｼﾓﾜﾀﾞﾁｮｳ","pref":"愛知県","city":"岡崎市","address":"下和田町"},
{"zip_code":"4440034","kana_pref":"ｱｲﾁｹﾝ","kana_city":"ｵｶｻﾞｷｼ","kana_address":"ｼﾞｭｳｵｳﾁｮｳ","pref":"愛知県","city":"岡崎市","address":"十王町"},
{"zip_code":"4440821","kana_pref":"ｱｲﾁｹﾝ","kana_city":"ｵｶｻﾞｷｼ","kana_address":"ｼｮｳｼﾞﾀﾞ","pref":"愛知県","city":"岡崎市","address":"庄司田"},
{"zip_code":"4440221","kana_pref":"ｱｲﾁｹﾝ","kana_city":"ｵｶｻﾞｷｼ","kana_address":"ｼｮｳﾅﾁｮｳ","pref":"愛知県","city":"岡崎市","address":"正名町"},
{"zip_code":"4440835","kana_pref":"ｱｲﾁｹﾝ","kana_city":"ｵｶｻﾞｷｼ","kana_address":"ｼﾞｮｳﾅﾝﾁｮｳ","pref":"愛知県","city":"岡崎市","address":"城南町"},
{"zip_code":"4440064","kana_pref":"ｱｲﾁｹﾝ","kana_city":"ｵｶｻﾞｷｼ","kana_address":"ｼﾞｮｳﾎｸﾁｮｳ","pref":"愛知県","city":"岡崎市","address":"城北町"},
{"zip_code":"4440938","kana_pref":"ｱｲﾁｹﾝ","kana_city":"ｵｶｻﾞｷｼ","kana_address":"ｼｮｳﾜﾁｮｳ","pref":"愛知県","city":"岡崎市","address":"昭和町"},
{"zip_code":"4440855","kana_pref":"ｱｲﾁｹﾝ","kana_city":"ｵｶｻﾞｷｼ","kana_address":"ｼﾝｸﾞｳﾁｮｳ","pref":"愛知県","city":"岡崎市","address":"真宮町"},
{"zip_code":"4443175","kana_pref":"ｱｲﾁｹﾝ","kana_city":"ｵｶｻﾞｷｼ","kana_address":"ｼﾝﾃﾞﾝ","pref":"愛知県","city":"岡崎市","address":"真伝"},
{"zip_code":"4443174","kana_pref":"ｱｲﾁｹﾝ","kana_city":"ｵｶｻﾞｷｼ","kana_address":"ｼﾝﾃﾞﾝﾁｮｳ","pref":"愛知県","city":"岡崎市","address":"真伝町"},
{"zip_code":"4442106","kana_pref":"ｱｲﾁｹﾝ","kana_city":"ｵｶｻﾞｷｼ","kana_address":"ｼﾝﾌﾟｸｼﾞﾁｮｳ","pref":"愛知県","city":"岡崎市","address":"真福寺町"},
{"zip_code":"4440914","kana_pref":"ｱｲﾁｹﾝ","kana_city":"ｵｶｻﾞｷｼ","kana_address":"ｽｴﾋﾛﾁｮｳ","pref":"愛知県","city":"岡崎市","address":"末広町"},
{"zip_code":"4440035","kana_pref":"ｱｲﾁｹﾝ","kana_city":"ｵｶｻﾞｷｼ","kana_address":"ｽｺﾞｳﾁｮｳ","pref":"愛知県","city":"岡崎市","address":"菅生町"},
{"zip_code":"4443341","kana_pref":"ｱｲﾁｹﾝ","kana_city":"ｵｶｻﾞｷｼ","kana_address":"ｽﾌﾞﾁﾁｮｳ","pref":"愛知県","city":"岡崎市","address":"須渕町"},
{"zip_code":"4443432","kana_pref":"ｱｲﾁｹﾝ","kana_city":"ｵｶｻﾞｷｼ","kana_address":"ｾﾞﾏﾝﾁﾞｮｳﾁｮｳ","pref":"愛知県","city":"岡崎市","address":"千万町町"},
{"zip_code":"4443448","kana_pref":"ｱｲﾁｹﾝ","kana_city":"ｵｶｻﾞｷｼ","kana_address":"ｿﾄﾔﾏﾁｮｳ","pref":"愛知県","city":"岡崎市","address":"外山町"},
{"zip_code":"4442134","kana_pref":"ｱｲﾁｹﾝ","kana_city":"ｵｶｻﾞｷｼ","kana_address":"ﾀﾞｲｼﾞｭｳｼﾞ","pref":"愛知県","city":"岡崎市","address":"大樹寺"},
{"zip_code":"4442135","kana_pref":"ｱｲﾁｹﾝ","kana_city":"ｵｶｻﾞｷｼ","kana_address":"ﾀﾞｲﾓﾝ","pref":"愛知県","city":"岡崎市","address":"大門"},
{"zip_code":"4440231","kana_pref":"ｱｲﾁｹﾝ","kana_city":"ｵｶｻﾞｷｼ","kana_address":"ﾀｶﾊｼﾁｮｳ","pref":"愛知県","city":"岡崎市","address":"高橋町"},
{"zip_code":"4443613","kana_pref":"ｱｲﾁｹﾝ","kana_city":"ｵｶｻﾞｷｼ","kana_address":"ﾀｷｼﾞﾘﾁｮｳ","pref":"愛知県","city":"岡崎市","address":"滝尻町"},
{"zip_code":"4443173","kana_pref":"ｱｲﾁｹﾝ","kana_city":"ｵｶｻﾞｷｼ","kana_address":"ﾀｷﾁｮｳ","pref":"愛知県","city":"岡崎市","address":"滝町"},
{"zip_code":"4443172","kana_pref":"ｱｲﾁｹﾝ","kana_city":"ｵｶｻﾞｷｼ","kana_address":"ﾀｸﾞﾁﾁｮｳ","pref":"愛知県","city":"岡崎市","address":"田口町"},
{"zip_code":"4440877","kana_pref":"ｱｲﾁｹﾝ","kana_city":"ｵｶｻﾞｷｼ","kana_address":"ﾀﾂﾐｱｻﾋﾏﾁ","pref":"愛知県","city":"岡崎市","address":"竜美旭町"},
{"zip_code":"4440870","kana_pref":"ｱｲﾁｹﾝ","kana_city":"ｵｶｻﾞｷｼ","kana_address":"ﾀﾂﾐｵｵｲﾘﾁｮｳ","pref":"愛知県","city":"岡崎市","address":"竜美大入町"},
{"zip_code":"4440872","kana_pref":"ｱｲﾁｹﾝ","kana_city":"ｵｶｻﾞｷｼ","kana_address":"ﾀﾂﾐｼﾝﾏﾁ","pref":"愛知県","city":"岡崎市","address":"竜美新町"},
{"zip_code":"4440873","kana_pref":"ｱｲﾁｹﾝ","kana_city":"ｵｶｻﾞｷｼ","kana_address":"ﾀﾂﾐﾀﾞｲ","pref":"愛知県","city":"岡崎市","address":"竜美台"},
{"zip_code":"4440879","kana_pref":"ｱｲﾁｹﾝ","kana_city":"ｵｶｻﾞｷｼ","kana_address":"ﾀﾂﾐﾅｶ","pref":"愛知県","city":"岡崎市","address":"竜美中"},
{"zip_code":"4440878","kana_pref":"ｱｲﾁｹﾝ","kana_city":"ｵｶｻﾞｷｼ","kana_address":"ﾀﾂﾐﾋｶﾞｼ","pref":"愛知県","city":"岡崎市","address":"竜美東"},
{"zip_code":"4440875","kana_pref":"ｱｲﾁｹﾝ","kana_city":"ｵｶｻﾞｷｼ","kana_address":"ﾀﾂﾐﾆｼ","pref":"愛知県","city":"岡崎市","address":"竜美西"},
{"zip_code":"4440874","kana_pref":"ｱｲﾁｹﾝ","kana_city":"ｵｶｻﾞｷｼ","kana_address":"ﾀﾂﾐﾐﾅﾐ","pref":"愛知県","city":"岡崎市","address":"竜美南"},
{"zip_code":"4440876","kana_pref":"ｱｲﾁｹﾝ","kana_city":"ｵｶｻﾞｷｼ","kana_address":"ﾀﾂﾐｷﾀ","pref":"愛知県","city":"岡崎市","address":"竜美北"},
{"zip_code":"4440054","kana_pref":"ｱｲﾁｹﾝ","kana_city":"ｵｶｻﾞｷｼ","kana_address":"ﾀﾏﾁ","pref":"愛知県","city":"岡崎市","address":"田町"},
{"zip_code":"4442105","kana_pref":"ｱｲﾁｹﾝ","kana_city":"ｵｶｻﾞｷｼ","kana_address":"ﾀﾝｻﾞｶﾁｮｳ","pref":"愛知県","city":"岡崎市","address":"丹坂町"},
{"zip_code":"4440931","kana_pref":"ｱｲﾁｹﾝ","kana_city":"ｵｶｻﾞｷｼ","kana_address":"ﾀﾞｲﾜﾁｮｳ","pref":"愛知県","city":"岡崎市","address":"大和町"},
{"zip_code":"4443335","kana_pref":"ｱｲﾁｹﾝ","kana_city":"ｵｶｻﾞｷｼ","kana_address":"ﾁﾊﾗｻﾞﾜﾁｮｳ","pref":"愛知県","city":"岡崎市","address":"茅原沢町"},
{"zip_code":"4440932","kana_pref":"ｱｲﾁｹﾝ","kana_city":"ｵｶｻﾞｷｼ","kana_address":"ﾂﾂﾊﾞﾘﾁｮｳ","pref":"愛知県","city":"岡崎市","address":"筒針町"},
{"zip_code":"4440844","kana_pref":"ｱｲﾁｹﾝ","kana_city":"ｵｶｻﾞｷｼ","kana_address":"ﾃﾝﾊﾟｸﾁｮｳ","pref":"愛知県","city":"岡崎市","address":"天白町"},
{"zip_code":"4440038","kana_pref":"ｱｲﾁｹﾝ","kana_city":"ｵｶｻﾞｷｼ","kana_address":"ﾃﾝﾏﾄﾞｵﾘ","pref":"愛知県","city":"岡崎市","address":"伝馬通"},
{"zip_code":"4440204","kana_pref":"ｱｲﾁｹﾝ","kana_city":"ｵｶｻﾞｷｼ","kana_address":"ﾄﾞｲﾁｮｳ","pref":"愛知県","city":"岡崎市","address":"土井町"},
{"zip_code":"4442115","kana_pref":"ｱｲﾁｹﾝ","kana_city":"ｵｶｻﾞｷｼ","kana_address":"ﾄﾞｳﾄﾞﾁｮｳ","pref":"愛知県","city":"岡崎市","address":"百々町"},
{"zip_code":"4442117","kana_pref":"ｱｲﾁｹﾝ","kana_city":"ｵｶｻﾞｷｼ","kana_address":"ﾄﾞｳﾄﾞﾆｼﾏﾁ","pref":"愛知県","city":"岡崎市","address":"百々西町"},
{"zip_code":"4443503","kana_pref":"ｱｲﾁｹﾝ","kana_city":"ｵｶｻﾞｷｼ","kana_address":"ﾄｳﾉｽﾁｮｳ","pref":"愛知県","city":"岡崎市","address":"鶇巣町"},
{"zip_code":"4442114","kana_pref":"ｱｲﾁｹﾝ","kana_city":"ｵｶｻﾞｷｼ","kana_address":"ﾄﾞｳﾏｴﾁｮｳ","pref":"愛知県","city":"岡崎市","address":"堂前町"},
{"zip_code":"4440849","kana_pref":"ｱｲﾁｹﾝ","kana_city":"ｵｶｻﾞｷｼ","kana_address":"ﾄｻｷｼﾝﾏﾁ","pref":"愛知県","city":"岡崎市","address":"戸崎新町"},
{"zip_code":"4440842","kana_pref":"ｱｲﾁｹﾝ","kana_city":"ｵｶｻﾞｷｼ","kana_address":"ﾄｻｷﾓﾄﾏﾁ","pref":"愛知県","city":"岡崎市","address":"戸崎元町"},
{"zip_code":"4440840","kana_pref":"ｱｲﾁｹﾝ","kana_city":"ｵｶｻﾞｷｼ","kana_address":"ﾄｻｷﾁｮｳ","pref":"愛知県","city":"岡崎市","address":"戸崎町"},
{"zip_code":"4440841","kana_pref":"ｱｲﾁｹﾝ","kana_city":"ｵｶｻﾞｷｼ","kana_address":"ﾄｻｷﾁｮｳﾌｼﾞﾊﾞｻﾐ","pref":"愛知県","city":"岡崎市","address":"戸崎町藤狭"},
{"zip_code":"4440946","kana_pref":"ｱｲﾁｹﾝ","kana_city":"ｵｶｻﾞｷｼ","kana_address":"ﾄﾐﾅｶﾞﾁｮｳ","pref":"愛知県","city":"岡崎市","address":"富永町"},
{"zip_code":"4443614","kana_pref":"ｱｲﾁｹﾝ","kana_city":"ｵｶｻﾞｷｼ","kana_address":"ﾄﾘｶﾜﾁｮｳ","pref":"愛知県","city":"岡崎市","address":"鳥川町"},
{"zip_code":"4443441","kana_pref":"ｱｲﾁｹﾝ","kana_city":"ｵｶｻﾞｷｼ","kana_address":"ﾄﾝﾋﾞｭｳﾁｮｳ","pref":"愛知県","city":"岡崎市","address":"冨尾町"},
{"zip_code":"4443446","kana_pref":"ｱｲﾁｹﾝ","kana_city":"ｵｶｻﾞｷｼ","kana_address":"ﾅｶｲﾁｮｳ","pref":"愛知県","city":"岡崎市","address":"中伊町"},
{"zip_code":"4443449","kana_pref":"ｱｲﾁｹﾝ","kana_city":"ｵｶｻﾞｷｼ","kana_address":"ﾅｶｲﾆｼﾁｮｳ","pref":"愛知県","city":"岡崎市","address":"中伊西町"},
{"zip_code":"4440921","kana_pref":"ｱｲﾁｹﾝ","kana_city":"ｵｶｻﾞｷｼ","kana_address":"ﾅｶｵｶｻﾞｷﾁｮｳ","pref":"愛知県","city":"岡崎市","address":"中岡崎町"},
{"zip_code":"4443605","kana_pref":"ｱｲﾁｹﾝ","kana_city":"ｵｶｻﾞｷｼ","kana_address":"ﾅｶｶﾞﾈﾁｮｳ","pref":"愛知県","city":"岡崎市","address":"中金町"},
{"zip_code":"4440226","kana_pref":"ｱｲﾁｹﾝ","kana_city":"ｵｶｻﾞｷｼ","kana_address":"ﾅｶｼﾞﾏﾁｮｳ","pref":"愛知県","city":"岡崎市","address":"中島町"},
{"zip_code":"4440224","kana_pref":"ｱｲﾁｹﾝ","kana_city":"ｵｶｻﾞｷｼ","kana_address":"ﾅｶｼﾞﾏﾅｶﾏﾁ","pref":"愛知県","city":"岡崎市","address":"中島中町"},
{"zip_code":"4440225","kana_pref":"ｱｲﾁｹﾝ","kana_city":"ｵｶｻﾞｷｼ","kana_address":"ﾅｶｼﾞﾏﾆｼﾏﾁ","pref":"愛知県","city":"岡崎市","address":"中島西町"},
{"zip_code":"4440223","kana_pref":"ｱｲﾁｹﾝ","kana_city":"ｵｶｻﾞｷｼ","kana_address":"ﾅｶｼﾞﾏﾋｶﾞｼﾏﾁ","pref":"愛知県","city":"岡崎市","address":"中島東町"},
{"zip_code":"4440942","kana_pref":"ｱｲﾁｹﾝ","kana_city":"ｵｶｻﾞｷｼ","kana_address":"ﾅｶｿﾞﾉﾁｮｳ","pref":"愛知県","city":"岡崎市","address":"中園町"},
{"zip_code":"4440836","kana_pref":"ｱｲﾁｹﾝ","kana_city":"ｵｶｻﾞｷｼ","kana_address":"ﾅｶﾀﾞﾁｮｳ","pref":"愛知県","city":"岡崎市","address":"中田町"},
{"zip_code":"4440242","kana_pref":"ｱｲﾁｹﾝ","kana_city":"ｵｶｻﾞｷｼ","kana_address":"ﾅｶﾉｺﾞｳﾁｮｳ","pref":"愛知県","city":"岡崎市","address":"中之郷町"},
{"zip_code":"4440015","kana_pref":"ｱｲﾁｹﾝ","kana_city":"ｵｶｻﾞｷｼ","kana_address":"ﾅｶﾏﾁ","pref":"愛知県","city":"岡崎市","address":"中町"},
{"zip_code":"4440215","kana_pref":"ｱｲﾁｹﾝ","kana_city":"ｵｶｻﾞｷｼ","kana_address":"ﾅｶﾑﾗﾁｮｳ","pref":"愛知県","city":"岡崎市","address":"中村町"},
{"zip_code":"4443621","kana_pref":"ｱｲﾁｹﾝ","kana_city":"ｵｶｻﾞｷｼ","kana_address":"ﾅﾂﾔﾏﾁｮｳ","pref":"愛知県","city":"岡崎市","address":"夏山町"},
{"zip_code":"4440939","kana_pref":"ｱｲﾁｹﾝ","kana_city":"ｵｶｻﾞｷｼ","kana_address":"ﾆｲﾎﾞﾘﾁｮｳ","pref":"愛知県","city":"岡崎市","address":"新堀町"},
{"zip_code":"4440222","kana_pref":"ｱｲﾁｹﾝ","kana_city":"ｵｶｻﾞｷｼ","kana_address":"ﾆｹﾝﾔﾁｮｳ","pref":"愛知県","city":"岡崎市","address":"二軒屋町"},
{"zip_code":"4442111","kana_pref":"ｱｲﾁｹﾝ","kana_city":"ｵｶｻﾞｷｼ","kana_address":"ﾆｼｱﾁﾜﾁｮｳ","pref":"愛知県","city":"岡崎市","address":"西阿知和町"},
{"zip_code":"4440055","kana_pref":"ｱｲﾁｹﾝ","kana_city":"ｵｶｻﾞｷｼ","kana_address":"ﾆｼｳｵﾏﾁ","pref":"愛知県","city":"岡崎市","address":"西魚町"},
{"zip_code":"4440904","kana_pref":"ｱｲﾁｹﾝ","kana_city":"ｵｶｻﾞｷｼ","kana_address":"ﾆｼｵｵﾄﾞﾓﾁｮｳ","pref":"愛知県","city":"岡崎市","address":"西大友町"},
{"zip_code":"4440067","kana_pref":"ｱｲﾁｹﾝ","kana_city":"ｵｶｻﾞｷｼ","kana_address":"ﾆｼｷﾏﾁ","pref":"愛知県","city":"岡崎市","address":"錦町"},
{"zip_code":"4442147","kana_pref":"ｱｲﾁｹﾝ","kana_city":"ｵｶｻﾞｷｼ","kana_address":"ﾆｼｸﾗﾏｴﾁｮｳ","pref":"愛知県","city":"岡崎市","address":"西蔵前町"},
{"zip_code":"4440024","kana_pref":"ｱｲﾁｹﾝ","kana_city":"ｵｶｻﾞｷｼ","kana_address":"ﾆｼﾅｶﾏﾁ","pref":"愛知県","city":"岡崎市","address":"西中町"},
{"zip_code":"4440947","kana_pref":"ｱｲﾁｹﾝ","kana_city":"ｵｶｻﾞｷｼ","kana_address":"ﾆｼﾎﾝｺﾞｳﾁｮｳ","pref":"愛知県","city":"岡崎市","address":"西本郷町"},
{"zip_code":"4440948","kana_pref":"ｱｲﾁｹﾝ","kana_city":"ｵｶｻﾞｷｼ","kana_address":"ﾆｼﾎﾝｺﾞｳﾁｮｳﾜｼﾔﾏ","pref":"愛知県","city":"岡崎市","address":"西本郷町和志山"},
{"zip_code":"4442148","kana_pref":"ｱｲﾁｹﾝ","kana_city":"ｵｶｻﾞｷｼ","kana_address":"ﾆｯｷﾁｮｳ","pref":"愛知県","city":"岡崎市","address":"仁木町"},
{"zip_code":"4440013","kana_pref":"ｱｲﾁｹﾝ","kana_city":"ｵｶｻﾞｷｼ","kana_address":"ﾈｲｼﾁｮｳ","pref":"愛知県","city":"岡崎市","address":"根石町"},
{"zip_code":"4440232","kana_pref":"ｱｲﾁｹﾝ","kana_city":"ｵｶｻﾞｷｼ","kana_address":"ﾈﾑﾉｷﾁｮｳ","pref":"愛知県","city":"岡崎市","address":"合歓木町"},
{"zip_code":"4440211","kana_pref":"ｱｲﾁｹﾝ","kana_city":"ｵｶｻﾞｷｼ","kana_address":"ﾉﾊﾞﾀﾁｮｳ","pref":"愛知県","city":"岡崎市","address":"野畑町"},
{"zip_code":"4440061","kana_pref":"ｱｲﾁｹﾝ","kana_city":"ｵｶｻﾞｷｼ","kana_address":"ﾉﾐﾁｮｳ","pref":"愛知県","city":"岡崎市","address":"能見町"},
{"zip_code":"4440073","kana_pref":"ｱｲﾁｹﾝ","kana_city":"ｵｶｻﾞｷｼ","kana_address":"ﾉﾐﾄﾞｵﾘ","pref":"愛知県","city":"岡崎市","address":"能見通"},
{"zip_code":"4443514","kana_pref":"ｱｲﾁｹﾝ","kana_city":"ｵｶｻﾞｷｼ","kana_address":"ﾊｸﾞﾘﾁｮｳ","pref":"愛知県","city":"岡崎市","address":"羽栗町"},
{"zip_code":"4443151","kana_pref":"ｱｲﾁｹﾝ","kana_city":"ｵｶｻﾞｷｼ","kana_address":"ﾊｺﾔﾅｷﾞﾁｮｳ","pref":"愛知県","city":"岡崎市","address":"箱柳町"},
{"zip_code":"4440001","kana_pref":"ｱｲﾁｹﾝ","kana_city":"ｵｶｻﾞｷｼ","kana_address":"ﾊｺﾔﾅｷﾞﾁｮｳ","pref":"愛知県","city":"岡崎市","address":"箱柳町"},
{"zip_code":"4440908","kana_pref":"ｱｲﾁｹﾝ","kana_city":"ｵｶｻﾞｷｼ","kana_address":"ﾊｼﾒﾁｮｳ","pref":"愛知県","city":"岡崎市","address":"橋目町"},
{"zip_code":"4440909","kana_pref":"ｱｲﾁｹﾝ","kana_city":"ｵｶｻﾞｷｼ","kana_address":"ﾊｼﾒﾁｮｳｵｺﾔﾆｼ","pref":"愛知県","city":"岡崎市","address":"橋目町御小屋西"},
{"zip_code":"4440837","kana_pref":"ｱｲﾁｹﾝ","kana_city":"ｵｶｻﾞｷｼ","kana_address":"ﾊｼﾗ","pref":"愛知県","city":"岡崎市","address":"柱"},
{"zip_code":"4440833","kana_pref":"ｱｲﾁｹﾝ","kana_city":"ｵｶｻﾞｷｼ","kana_address":"ﾊｼﾗｱｹﾎﾞﾉ","pref":"愛知県","city":"岡崎市","address":"柱曙"},
{"zip_code":"4440834","kana_pref":"ｱｲﾁｹﾝ","kana_city":"ｵｶｻﾞｷｼ","kana_address":"ﾊｼﾗﾁｮｳ","pref":"愛知県","city":"岡崎市","address":"柱町"},
{"zip_code":"4443343","kana_pref":"ｱｲﾁｹﾝ","kana_city":"ｵｶｻﾞｷｼ","kana_address":"ﾊﾀﾞﾅｼﾁｮｳ","pref":"愛知県","city":"岡崎市","address":"秦梨町"},
{"zip_code":"4440047","kana_pref":"ｱｲﾁｹﾝ","kana_city":"ｵｶｻﾞｷｼ","kana_address":"ﾊﾁﾏﾝﾁｮｳ","pref":"愛知県","city":"岡崎市","address":"八幡町"},
{"zip_code":"4443512","kana_pref":"ｱｲﾁｹﾝ","kana_city":"ｵｶｻﾞｷｼ","kana_address":"ﾊﾂﾁﾁｮｳ","pref":"愛知県","city":"岡崎市","address":"鉢地町"},
{"zip_code":"4440922","kana_pref":"ｱｲﾁｹﾝ","kana_city":"ｵｶｻﾞｷｼ","kana_address":"ﾊｯﾁｮｳﾐﾅﾐﾏﾁ","pref":"愛知県","city":"岡崎市","address":"八帖南町"},
{"zip_code":"4440924","kana_pref":"ｱｲﾁｹﾝ","kana_city":"ｵｶｻﾞｷｼ","kana_address":"ﾊｯﾁｮｳｷﾀﾏﾁ","pref":"愛知県","city":"岡崎市","address":"八帖北町"},
{"zip_code":"4440923","kana_pref":"ｱｲﾁｹﾝ","kana_city":"ｵｶｻﾞｷｼ","kana_address":"ﾊｯﾁｮｳﾁｮｳ","pref":"愛知県","city":"岡崎市","address":"八帖町"},
{"zip_code":"4440832","kana_pref":"ｱｲﾁｹﾝ","kana_city":"ｵｶｻﾞｷｼ","kana_address":"ﾊﾈﾋｶﾞｼﾏﾁ","pref":"愛知県","city":"岡崎市","address":"羽根東町"},
{"zip_code":"4440838","kana_pref":"ｱｲﾁｹﾝ","kana_city":"ｵｶｻﾞｷｼ","kana_address":"ﾊﾈﾆｼ","pref":"愛知県","city":"岡崎市","address":"羽根西"},
{"zip_code":"4440839","kana_pref":"ｱｲﾁｹﾝ","kana_city":"ｵｶｻﾞｷｼ","kana_address":"ﾊﾈﾆｼｼﾝﾏﾁ","pref":"愛知県","city":"岡崎市","address":"羽根西新町"},
{"zip_code":"4440831","kana_pref":"ｱｲﾁｹﾝ","kana_city":"ｵｶｻﾞｷｼ","kana_address":"ﾊﾈｷﾀﾏﾁ","pref":"愛知県","city":"岡崎市","address":"羽根北町"},
{"zip_code":"4440813","kana_pref":"ｱｲﾁｹﾝ","kana_city":"ｵｶｻﾞｷｼ","kana_address":"ﾊﾈﾁｮｳ","pref":"愛知県","city":"岡崎市","address":"羽根町"},
{"zip_code":"4440814","kana_pref":"ｱｲﾁｹﾝ","kana_city":"ｵｶｻﾞｷｼ","kana_address":"ﾊﾈﾁｮｳｱｽﾞｷｻｶ","pref":"愛知県","city":"岡崎市","address":"羽根町小豆坂"},
{"zip_code":"4440816","kana_pref":"ｱｲﾁｹﾝ","kana_city":"ｵｶｻﾞｷｼ","kana_address":"ﾊﾈﾁｮｳｵｵｲｹ","pref":"愛知県","city":"岡崎市","address":"羽根町大池"},
{"zip_code":"4440815","kana_pref":"ｱｲﾁｹﾝ","kana_city":"ｵｶｻﾞｷｼ","kana_address":"ﾊﾈﾁｮｳｼﾞﾝﾊﾞ","pref":"愛知県","city":"岡崎市","address":"羽根町陣場"},
{"zip_code":"4440828","kana_pref":"ｱｲﾁｹﾝ","kana_city":"ｵｶｻﾞｷｼ","kana_address":"ﾊﾘｻｷ","pref":"愛知県","city":"岡崎市","address":"針崎"},
{"zip_code":"4440827","kana_pref":"ｱｲﾁｹﾝ","kana_city":"ｵｶｻﾞｷｼ","kana_address":"ﾊﾘｻｷﾁｮｳ","pref":"愛知県","city":"岡崎市","address":"針崎町"},
{"zip_code":"4442102","kana_pref":"ｱｲﾁｹﾝ","kana_city":"ｵｶｻﾞｷｼ","kana_address":"ﾋｶｹﾞﾁｮｳ","pref":"愛知県","city":"岡崎市","address":"日影町"},
{"zip_code":"4442112","kana_pref":"ｱｲﾁｹﾝ","kana_city":"ｵｶｻﾞｷｼ","kana_address":"ﾋｶﾞｼｱﾁﾜﾁｮｳ","pref":"愛知県","city":"岡崎市","address":"東阿知和町"},
{"zip_code":"4440903","kana_pref":"ｱｲﾁｹﾝ","kana_city":"ｵｶｻﾞｷｼ","kana_address":"ﾋｶﾞｼｵｵﾄﾞﾓﾁｮｳ","pref":"愛知県","city":"岡崎市","address":"東大友町"},
{"zip_code":"4443602","kana_pref":"ｱｲﾁｹﾝ","kana_city":"ｵｶｻﾞｷｼ","kana_address":"ﾋｶﾞｼｶﾜﾊﾗﾁｮｳ","pref":"愛知県","city":"岡崎市","address":"東河原町"},
{"zip_code":"4442145","kana_pref":"ｱｲﾁｹﾝ","kana_city":"ｵｶｻﾞｷｼ","kana_address":"ﾋｶﾞｼｸﾗﾏｴ","pref":"愛知県","city":"岡崎市","address":"東蔵前"},
{"zip_code":"4442146","kana_pref":"ｱｲﾁｹﾝ","kana_city":"ｵｶｻﾞｷｼ","kana_address":"ﾋｶﾞｼｸﾗﾏｴﾁｮｳ","pref":"愛知県","city":"岡崎市","address":"東蔵前町"},
{"zip_code":"4440074","kana_pref":"ｱｲﾁｹﾝ","kana_city":"ｵｶｻﾞｷｼ","kana_address":"ﾋｶﾞｼﾉﾐﾁｮｳ","pref":"愛知県","city":"岡崎市","address":"東能見町"},
{"zip_code":"4440945","kana_pref":"ｱｲﾁｹﾝ","kana_city":"ｵｶｻﾞｷｼ","kana_address":"ﾋｶﾞｼﾎﾝｺﾞｳﾁｮｳ","pref":"愛知県","city":"岡崎市","address":"東本郷町"},
{"zip_code":"4440934","kana_pref":"ｱｲﾁｹﾝ","kana_city":"ｵｶｻﾞｷｼ","kana_address":"ﾋｶﾞｼﾏｷｳﾁﾁｮｳ","pref":"愛知県","city":"岡崎市","address":"東牧内町"},
{"zip_code":"4440863","kana_pref":"ｱｲﾁｹﾝ","kana_city":"ｵｶｻﾞｷｼ","kana_address":"ﾋｶﾞｼﾐｮｳﾀﾞｲｼﾞﾁｮｳ","pref":"愛知県","city":"岡崎市","address":"東明大寺町"},
{"zip_code":"4440917","kana_pref":"ｱｲﾁｹﾝ","kana_city":"ｵｶｻﾞｷｼ","kana_address":"ﾋﾅﾆｼﾏﾁ","pref":"愛知県","city":"岡崎市","address":"日名西町"},
{"zip_code":"4440915","kana_pref":"ｱｲﾁｹﾝ","kana_city":"ｵｶｻﾞｷｼ","kana_address":"ﾋﾅﾐﾅﾐﾏﾁ","pref":"愛知県","city":"岡崎市","address":"日名南町"},
{"zip_code":"4440911","kana_pref":"ｱｲﾁｹﾝ","kana_city":"ｵｶｻﾞｷｼ","kana_address":"ﾋﾅｷﾀﾏﾁ","pref":"愛知県","city":"岡崎市","address":"日名北町"},
{"zip_code":"4440918","kana_pref":"ｱｲﾁｹﾝ","kana_city":"ｵｶｻﾞｷｼ","kana_address":"ﾋﾅﾅｶﾏﾁ","pref":"愛知県","city":"岡崎市","address":"日名中町"},
{"zip_code":"4440916","kana_pref":"ｱｲﾁｹﾝ","kana_city":"ｵｶｻﾞｷｼ","kana_address":"ﾋﾅﾎﾝﾏﾁ","pref":"愛知県","city":"岡崎市","address":"日名本町"},
{"zip_code":"4440066","kana_pref":"ｱｲﾁｹﾝ","kana_city":"ｵｶｻﾞｷｼ","kana_address":"ﾋﾛﾊﾀﾁｮｳ","pref":"愛知県","city":"岡崎市","address":"広幡町"},
{"zip_code":"4440862","kana_pref":"ｱｲﾁｹﾝ","kana_city":"ｵｶｻﾞｷｼ","kana_address":"ﾌｷﾔﾁｮｳ","pref":"愛知県","city":"岡崎市","address":"吹矢町"},
{"zip_code":"4440825","kana_pref":"ｱｲﾁｹﾝ","kana_city":"ｵｶｻﾞｷｼ","kana_address":"ﾌｸｵｶﾁｮｳ","pref":"愛知県","city":"岡崎市","address":"福岡町"},
{"zip_code":"4440233","kana_pref":"ｱｲﾁｹﾝ","kana_city":"ｵｶｻﾞｷｼ","kana_address":"ﾌｸｵｹﾁｮｳ","pref":"愛知県","city":"岡崎市","address":"福桶町"},
{"zip_code":"4440056","kana_pref":"ｱｲﾁｹﾝ","kana_city":"ｵｶｻﾞｷｼ","kana_address":"ﾌｸｼﾞｭﾁｮｳ","pref":"愛知県","city":"岡崎市","address":"福寿町"},
{"zip_code":"4443527","kana_pref":"ｱｲﾁｹﾝ","kana_city":"ｵｶｻﾞｷｼ","kana_address":"ﾌｼﾞｶﾜｱﾗｺ","pref":"愛知県","city":"岡崎市","address":"藤川荒古"},
{"zip_code":"4443522","kana_pref":"ｱｲﾁｹﾝ","kana_city":"ｵｶｻﾞｷｼ","kana_address":"ﾌｼﾞｶﾜﾀﾞｲ","pref":"愛知県","city":"岡崎市","address":"藤川台"},
{"zip_code":"4443523","kana_pref":"ｱｲﾁｹﾝ","kana_city":"ｵｶｻﾞｷｼ","kana_address":"ﾌｼﾞｶﾜﾁｮｳ","pref":"愛知県","city":"岡崎市","address":"藤川町"},
{"zip_code":"4440817","kana_pref":"ｱｲﾁｹﾝ","kana_city":"ｵｶｻﾞｷｼ","kana_address":"ﾌﾌﾞｷﾁｮｳ","pref":"愛知県","city":"岡崎市","address":"不吹町"},
{"zip_code":"4440902","kana_pref":"ｱｲﾁｹﾝ","kana_city":"ｵｶｻﾞｷｼ","kana_address":"ﾍｺﾞｼﾁｮｳ","pref":"愛知県","city":"岡崎市","address":"舳越町"},
{"zip_code":"4440021","kana_pref":"ｱｲﾁｹﾝ","kana_city":"ｵｶｻﾞｷｼ","kana_address":"ﾎｳﾗｲﾁｮｳ","pref":"愛知県","city":"岡崎市","address":"蓬莱町"},
{"zip_code":"4442149","kana_pref":"ｱｲﾁｹﾝ","kana_city":"ｵｶｻﾞｷｼ","kana_address":"ﾎｿｶﾜﾁｮｳ","pref":"愛知県","city":"岡崎市","address":"細川町"},
{"zip_code":"4443615","kana_pref":"ｱｲﾁｹﾝ","kana_city":"ｵｶｻﾞｷｼ","kana_address":"ﾎｿﾐﾂﾁｮｳ","pref":"愛知県","city":"岡崎市","address":"細光町"},
{"zip_code":"4443442","kana_pref":"ｱｲﾁｹﾝ","kana_city":"ｵｶｻﾞｷｼ","kana_address":"ﾎｯｷｭｳﾁｮｳ","pref":"愛知県","city":"岡崎市","address":"保久町"},
{"zip_code":"4440206","kana_pref":"ｱｲﾁｹﾝ","kana_city":"ｵｶｻﾞｷｼ","kana_address":"ﾎﾂｼｮｳｼﾞﾁｮｳ","pref":"愛知県","city":"岡崎市","address":"法性寺町"},
{"zip_code":"4440004","kana_pref":"ｱｲﾁｹﾝ","kana_city":"ｵｶｻﾞｷｼ","kana_address":"ﾎﾎﾞﾁｮｳ","pref":"愛知県","city":"岡崎市","address":"保母町"},
{"zip_code":"4440008","kana_pref":"ｱｲﾁｹﾝ","kana_city":"ｵｶｻﾞｷｼ","kana_address":"ﾎﾗﾁｮｳ","pref":"愛知県","city":"岡崎市","address":"洞町"},
{"zip_code":"4440051","kana_pref":"ｱｲﾁｹﾝ","kana_city":"ｵｶｻﾞｷｼ","kana_address":"ﾎﾝﾏﾁﾄﾞｵﾘ","pref":"愛知県","city":"岡崎市","address":"本町通"},
{"zip_code":"4443511","kana_pref":"ｱｲﾁｹﾝ","kana_city":"ｵｶｻﾞｷｼ","kana_address":"ﾏｲｷﾞﾁｮｳ","pref":"愛知県","city":"岡崎市","address":"舞木町"},
{"zip_code":"4443624","kana_pref":"ｱｲﾁｹﾝ","kana_city":"ｵｶｻﾞｷｼ","kana_address":"ﾏｷﾋﾗﾁｮｳ","pref":"愛知県","city":"岡崎市","address":"牧平町"},
{"zip_code":"4440205","kana_pref":"ｱｲﾁｹﾝ","kana_city":"ｵｶｻﾞｷｼ","kana_address":"ﾏｷﾐﾄﾞｳﾁｮｳ","pref":"愛知県","city":"岡崎市","address":"牧御堂町"},
{"zip_code":"4442113","kana_pref":"ｱｲﾁｹﾝ","kana_city":"ｵｶｻﾞｷｼ","kana_address":"ﾏﾂﾊｼﾁｮｳ","pref":"愛知県","city":"岡崎市","address":"松橋町"},
{"zip_code":"4440062","kana_pref":"ｱｲﾁｹﾝ","kana_city":"ｵｶｻﾞｷｼ","kana_address":"ﾏﾂﾓﾄﾁｮｳ","pref":"愛知県","city":"岡崎市","address":"松本町"},
{"zip_code":"4440006","kana_pref":"ｱｲﾁｹﾝ","kana_city":"ｵｶｻﾞｷｼ","kana_address":"ﾏﾙﾔﾏﾁｮｳ","pref":"愛知県","city":"岡崎市","address":"丸山町"},
{"zip_code":"4440801","kana_pref":"ｱｲﾁｹﾝ","kana_city":"ｵｶｻﾞｷｼ","kana_address":"ﾐｱｲｼﾝﾏﾁ","pref":"愛知県","city":"岡崎市","address":"美合新町"},
{"zip_code":"4440807","kana_pref":"ｱｲﾁｹﾝ","kana_city":"ｵｶｻﾞｷｼ","kana_address":"ﾐｱｲﾆｼﾏﾁ","pref":"愛知県","city":"岡崎市","address":"美合西町"},
{"zip_code":"4440802","kana_pref":"ｱｲﾁｹﾝ","kana_city":"ｵｶｻﾞｷｼ","kana_address":"ﾐｱｲﾁｮｳ","pref":"愛知県","city":"岡崎市","address":"美合町"},
{"zip_code":"4440803","kana_pref":"ｱｲﾁｹﾝ","kana_city":"ｵｶｻﾞｷｼ","kana_address":"ﾐｱｲﾁｮｳｲﾘｺﾐ","pref":"愛知県","city":"岡崎市","address":"美合町入込"},
{"zip_code":"4440804","kana_pref":"ｱｲﾁｹﾝ","kana_city":"ｵｶｻﾞｷｼ","kana_address":"ﾐｱｲﾁｮｳｼｮｳﾀﾞ","pref":"愛知県","city":"岡崎市","address":"美合町生田"},
{"zip_code":"4440805","kana_pref":"ｱｲﾁｹﾝ","kana_city":"ｵｶｻﾞｷｼ","kana_address":"ﾐｱｲﾁｮｳｼﾞｿﾞｳﾉ","pref":"愛知県","city":"岡崎市","address":"美合町地蔵野"},
{"zip_code":"4440039","kana_pref":"ｱｲﾁｹﾝ","kana_city":"ｵｶｻﾞｷｼ","kana_address":"ﾐｶｹﾞﾁｮｳ","pref":"愛知県","city":"岡崎市","address":"花崗町"},
{"zip_code":"4440853","kana_pref":"ｱｲﾁｹﾝ","kana_city":"ｵｶｻﾞｷｼ","kana_address":"ﾐｻｷﾁｮｳ","pref":"愛知県","city":"岡崎市","address":"三崎町"},
{"zip_code":"4440806","kana_pref":"ｱｲﾁｹﾝ","kana_city":"ｵｶｻﾞｷｼ","kana_address":"ﾐﾄﾞﾘｶﾞｵｶ","pref":"愛知県","city":"岡崎市","address":"緑丘"},
{"zip_code":"4443444","kana_pref":"ｱｲﾁｹﾝ","kana_city":"ｵｶｻﾞｷｼ","kana_address":"ﾐﾅﾐｵｵｽﾁｮｳ","pref":"愛知県","city":"岡崎市","address":"南大須町"},
{"zip_code":"4440852","kana_pref":"ｱｲﾁｹﾝ","kana_city":"ｵｶｻﾞｷｼ","kana_address":"ﾐﾅﾐﾐｮｳﾀﾞｲｼﾞﾁｮｳ","pref":"愛知県","city":"岡崎市","address":"南明大寺町"},
{"zip_code":"4443526","kana_pref":"ｱｲﾁｹﾝ","kana_city":"ｵｶｻﾞｷｼ","kana_address":"ﾐﾉｶﾜｼﾝﾏﾁ","pref":"愛知県","city":"岡崎市","address":"蓑川新町"},
{"zip_code":"4443525","kana_pref":"ｱｲﾁｹﾝ","kana_city":"ｵｶｻﾞｷｼ","kana_address":"ﾐﾉｶﾞﾜﾁｮｳ","pref":"愛知県","city":"岡崎市","address":"蓑川町"},
{"zip_code":"4442109","kana_pref":"ｱｲﾁｹﾝ","kana_city":"ｵｶｻﾞｷｼ","kana_address":"ﾐﾔｲｼﾁｮｳ","pref":"愛知県","city":"岡崎市","address":"宮石町"},
{"zip_code":"4443611","kana_pref":"ｱｲﾁｹﾝ","kana_city":"ｵｶｻﾞｷｼ","kana_address":"ﾐﾔｻﾞｷﾁｮｳ","pref":"愛知県","city":"岡崎市","address":"宮崎町"},
{"zip_code":"4440202","kana_pref":"ｱｲﾁｹﾝ","kana_city":"ｵｶｻﾞｷｼ","kana_address":"ﾐﾔｼﾞﾁｮｳ","pref":"愛知県","city":"岡崎市","address":"宮地町"},
{"zip_code":"4443612","kana_pref":"ｱｲﾁｹﾝ","kana_city":"ｵｶｻﾞｷｼ","kana_address":"ﾐｮｳｹﾝﾁｮｳ","pref":"愛知県","city":"岡崎市","address":"明見町"},
{"zip_code":"4440869","kana_pref":"ｱｲﾁｹﾝ","kana_city":"ｵｶｻﾞｷｼ","kana_address":"ﾐｮｳﾀﾞｲｼﾞﾁｮｳ","pref":"愛知県","city":"岡崎市","address":"明大寺町"},
{"zip_code":"4440866","kana_pref":"ｱｲﾁｹﾝ","kana_city":"ｵｶｻﾞｷｼ","kana_address":"ﾐｮｳﾀﾞｲｼﾞﾁｮｳ","pref":"愛知県","city":"岡崎市","address":"明大寺町"},
{"zip_code":"4440867","kana_pref":"ｱｲﾁｹﾝ","kana_city":"ｵｶｻﾞｷｼ","kana_address":"ﾐｮｳﾀﾞｲｼﾞﾁｮｳ","pref":"愛知県","city":"岡崎市","address":"明大寺町"},
{"zip_code":"4440868","kana_pref":"ｱｲﾁｹﾝ","kana_city":"ｵｶｻﾞｷｼ","kana_address":"ﾐｮｳﾀﾞｲｼﾞﾁｮｳ","pref":"愛知県","city":"岡崎市","address":"明大寺町"},
{"zip_code":"4440864","kana_pref":"ｱｲﾁｹﾝ","kana_city":"ｵｶｻﾞｷｼ","kana_address":"ﾐｮｳﾀﾞｲｼﾞﾁｮｳ","pref":"愛知県","city":"岡崎市","address":"明大寺町"},
{"zip_code":"4440865","kana_pref":"ｱｲﾁｹﾝ","kana_city":"ｵｶｻﾞｷｼ","kana_address":"ﾐｮｳﾀﾞｲｼﾞﾁｮｳｵｵｲﾘ","pref":"愛知県","city":"岡崎市","address":"明大寺町大圦"},
{"zip_code":"4440860","kana_pref":"ｱｲﾁｹﾝ","kana_city":"ｵｶｻﾞｷｼ","kana_address":"ﾐｮｳﾀﾞｲｼﾞﾎﾝﾏﾁ","pref":"愛知県","city":"岡崎市","address":"明大寺本町"},
{"zip_code":"4440848","kana_pref":"ｱｲﾁｹﾝ","kana_city":"ｵｶｻﾞｷｼ","kana_address":"ﾑｶｲﾔﾏﾁｮｳ","pref":"愛知県","city":"岡崎市","address":"向山町"},
{"zip_code":"4440856","kana_pref":"ｱｲﾁｹﾝ","kana_city":"ｵｶｻﾞｷｼ","kana_address":"ﾑﾂﾅ","pref":"愛知県","city":"岡崎市","address":"六名"},
{"zip_code":"4440846","kana_pref":"ｱｲﾁｹﾝ","kana_city":"ｵｶｻﾞｷｼ","kana_address":"ﾑﾂﾅｼﾝﾏﾁ","pref":"愛知県","city":"岡崎市","address":"六名新町"},
{"zip_code":"4440847","kana_pref":"ｱｲﾁｹﾝ","kana_city":"ｵｶｻﾞｷｼ","kana_address":"ﾑﾂﾅﾋｶﾞｼﾏﾁ","pref":"愛知県","city":"岡崎市","address":"六名東町"},
{"zip_code":"4440854","kana_pref":"ｱｲﾁｹﾝ","kana_city":"ｵｶｻﾞｷｼ","kana_address":"ﾑﾂﾅﾎﾝﾏﾁ","pref":"愛知県","city":"岡崎市","address":"六名本町"},
{"zip_code":"4440845","kana_pref":"ｱｲﾁｹﾝ","kana_city":"ｵｶｻﾞｷｼ","kana_address":"ﾑﾂﾅﾐﾅﾐ","pref":"愛知県","city":"岡崎市","address":"六名南"},
{"zip_code":"4440857","kana_pref":"ｱｲﾁｹﾝ","kana_city":"ｵｶｻﾞｷｼ","kana_address":"ﾑﾂﾅﾁｮｳ","pref":"愛知県","city":"岡崎市","address":"六名町"},
{"zip_code":"4440016","kana_pref":"ｱｲﾁｹﾝ","kana_city":"ｵｶｻﾞｷｼ","kana_address":"ﾓﾄｶｹﾏﾁ","pref":"愛知県","city":"岡崎市","address":"元欠町"},
{"zip_code":"4443508","kana_pref":"ｱｲﾁｹﾝ","kana_city":"ｵｶｻﾞｷｼ","kana_address":"ﾓﾄｼﾞｭｸｱｶﾈ","pref":"愛知県","city":"岡崎市","address":"本宿茜"},
{"zip_code":"4443507","kana_pref":"ｱｲﾁｹﾝ","kana_city":"ｵｶｻﾞｷｼ","kana_address":"ﾓﾄｼﾞｭｸﾀﾞｲ","pref":"愛知県","city":"岡崎市","address":"本宿台"},
{"zip_code":"4443505","kana_pref":"ｱｲﾁｹﾝ","kana_city":"ｵｶｻﾞｷｼ","kana_address":"ﾓﾄｼﾞｭｸﾁｮｳ","pref":"愛知県","city":"岡崎市","address":"本宿町"},
{"zip_code":"4443506","kana_pref":"ｱｲﾁｹﾝ","kana_city":"ｵｶｻﾞｷｼ","kana_address":"ﾓﾄｼﾞｭｸﾆｼ","pref":"愛知県","city":"岡崎市","address":"本宿西"},
{"zip_code":"4440063","kana_pref":"ｱｲﾁｹﾝ","kana_city":"ｵｶｻﾞｷｼ","kana_address":"ﾓﾄﾉﾐﾁｮｳ","pref":"愛知県","city":"岡崎市","address":"元能見町"},
{"zip_code":"4440901","kana_pref":"ｱｲﾁｹﾝ","kana_city":"ｵｶｻﾞｷｼ","kana_address":"ﾓﾘｺｼﾁｮｳ","pref":"愛知県","city":"岡崎市","address":"森越町"},
{"zip_code":"4440032","kana_pref":"ｱｲﾁｹﾝ","kana_city":"ｵｶｻﾞｷｼ","kana_address":"ﾓﾝｾﾞﾝﾁｮｳ","pref":"愛知県","city":"岡崎市","address":"門前町"},
{"zip_code":"4443168","kana_pref":"ｱｲﾁｹﾝ","kana_city":"ｵｶｻﾞｷｼ","kana_address":"ﾔｽﾄﾞﾁｮｳ","pref":"愛知県","city":"岡崎市","address":"安戸町"},
{"zip_code":"4442143","kana_pref":"ｱｲﾁｹﾝ","kana_city":"ｵｶｻﾞｷｼ","kana_address":"ﾔﾂｷﾞﾁｮｳ","pref":"愛知県","city":"岡崎市","address":"八ツ木町"},
{"zip_code":"4440943","kana_pref":"ｱｲﾁｹﾝ","kana_city":"ｵｶｻﾞｷｼ","kana_address":"ﾔﾊｷﾞﾁｮｳ","pref":"愛知県","city":"岡崎市","address":"矢作町"},
{"zip_code":"4442137","kana_pref":"ｱｲﾁｹﾝ","kana_city":"ｵｶｻﾞｷｼ","kana_address":"ﾔﾌﾞﾀ","pref":"愛知県","city":"岡崎市","address":"薮田"},
{"zip_code":"4443516","kana_pref":"ｱｲﾁｹﾝ","kana_city":"ｵｶｻﾞｷｼ","kana_address":"ﾔﾏﾂﾅﾁｮｳ","pref":"愛知県","city":"岡崎市","address":"山綱町"},
{"zip_code":"4443513","kana_pref":"ｱｲﾁｹﾝ","kana_city":"ｵｶｻﾞｷｼ","kana_address":"ﾔﾏﾂﾅﾁｮｳ","pref":"愛知県","city":"岡崎市","address":"山綱町"},
{"zip_code":"4440037","kana_pref":"ｱｲﾁｹﾝ","kana_city":"ｵｶｻﾞｷｼ","kana_address":"ﾕｳｷﾝﾁｮｳ","pref":"愛知県","city":"岡崎市","address":"祐金町"},
{"zip_code":"4443167","kana_pref":"ｱｲﾁｹﾝ","kana_city":"ｵｶｻﾞｷｼ","kana_address":"ﾖﾅｺﾞｳﾁﾁｮｳ","pref":"愛知県","city":"岡崎市","address":"米河内町"},
{"zip_code":"4443333","kana_pref":"ｱｲﾁｹﾝ","kana_city":"ｵｶｻﾞｷｼ","kana_address":"ﾖﾓｷﾞｭｳﾁｮｳ","pref":"愛知県","city":"岡崎市","address":"蓬生町"},
{"zip_code":"4443524","kana_pref":"ｱｲﾁｹﾝ","kana_city":"ｵｶｻﾞｷｼ","kana_address":"ﾘｭｳｾﾝｼﾞﾁｮｳ","pref":"愛知県","city":"岡崎市","address":"竜泉寺町"},
{"zip_code":"4440023","kana_pref":"ｱｲﾁｹﾝ","kana_city":"ｵｶｻﾞｷｼ","kana_address":"ﾘｮｳﾏﾁ","pref":"愛知県","city":"岡崎市","address":"両町"},
{"zip_code":"4440046","kana_pref":"ｱｲﾁｹﾝ","kana_city":"ｵｶｻﾞｷｼ","kana_address":"ﾚﾝｼﾞｬｸﾄﾞｵﾘ","pref":"愛知県","city":"岡崎市","address":"連尺通"},
{"zip_code":"4440042","kana_pref":"ｱｲﾁｹﾝ","kana_city":"ｵｶｻﾞｷｼ","kana_address":"ﾛｸｼﾞｿﾞｳﾁｮｳ","pref":"愛知県","city":"岡崎市","address":"六地蔵町"},
{"zip_code":"4440072","kana_pref":"ｱｲﾁｹﾝ","kana_city":"ｵｶｻﾞｷｼ","kana_address":"ﾛｯｸﾁｮｳ","pref":"愛知県","city":"岡崎市","address":"六供町"},
{"zip_code":"4440048","kana_pref":"ｱｲﾁｹﾝ","kana_city":"ｵｶｻﾞｷｼ","kana_address":"ﾛｯｸﾎﾝﾏﾁ","pref":"愛知県","city":"岡崎市","address":"六供本町"},
{"zip_code":"4440826","kana_pref":"ｱｲﾁｹﾝ","kana_city":"ｵｶｻﾞｷｼ","kana_address":"ﾜｶﾏﾂﾁｮｳ","pref":"愛知県","city":"岡崎市","address":"若松町"},
{"zip_code":"4440822","kana_pref":"ｱｲﾁｹﾝ","kana_city":"ｵｶｻﾞｷｼ","kana_address":"ﾜｶﾏﾂﾋｶﾞｼ","pref":"愛知県","city":"岡崎市","address":"若松東"},
{"zip_code":"4440014","kana_pref":"ｱｲﾁｹﾝ","kana_city":"ｵｶｻﾞｷｼ","kana_address":"ﾜｶﾐﾔﾁｮｳ","pref":"愛知県","city":"岡崎市","address":"若宮町"},
{"zip_code":"4440933","kana_pref":"ｱｲﾁｹﾝ","kana_city":"ｵｶｻﾞｷｼ","kana_address":"ﾜﾀﾘﾁｮｳ","pref":"愛知県","city":"岡崎市","address":"渡町"},
{"zip_code":"4442103","kana_pref":"ｱｲﾁｹﾝ","kana_city":"ｵｶｻﾞｷｼ","kana_address":"ﾜﾂﾂﾞﾁｮｳ","pref":"愛知県","city":"岡崎市","address":"渡通津町"},
{"zip_code":"4442832","kana_pref":"ｱｲﾁｹﾝ","kana_city":"ﾄﾖﾀｼ","kana_address":"ｱｻﾞｶｲﾁｮｳ","pref":"愛知県","city":"豊田市","address":"浅谷町"},
{"zip_code":"4442843","kana_pref":"ｱｲﾁｹﾝ","kana_city":"ﾄﾖﾀｼ","kana_address":"ｱｻﾋﾔﾜﾀﾁｮｳ","pref":"愛知県","city":"豊田市","address":"旭八幡町"},
{"zip_code":"4442423","kana_pref":"ｱｲﾁｹﾝ","kana_city":"ﾄﾖﾀｼ","kana_address":"ｱｼﾞｷｮｳﾁｮｳ","pref":"愛知県","city":"豊田市","address":"安実京町"},
{"zip_code":"4442817","kana_pref":"ｱｲﾁｹﾝ","kana_city":"ﾄﾖﾀｼ","kana_address":"ｱｽｶﾞﾁｮｳ","pref":"愛知県","city":"豊田市","address":"明賀町"},
{"zip_code":"4442601","kana_pref":"ｱｲﾁｹﾝ","kana_city":"ﾄﾖﾀｼ","kana_address":"ｱｽｶﾞﾜﾁｮｳ","pref":"愛知県","city":"豊田市","address":"明川町"},
{"zip_code":"4442513","kana_pref":"ｱｲﾁｹﾝ","kana_city":"ﾄﾖﾀｼ","kana_address":"ｱｽｹｼﾗﾔﾏﾁｮｳ","pref":"愛知県","city":"豊田市","address":"足助白山町"},
{"zip_code":"4442424","kana_pref":"ｱｲﾁｹﾝ","kana_city":"ﾄﾖﾀｼ","kana_address":"ｱｽｹﾁｮｳ","pref":"愛知県","city":"豊田市","address":"足助町"},
{"zip_code":"4443202","kana_pref":"ｱｲﾁｹﾝ","kana_city":"ﾄﾖﾀｼ","kana_address":"ｱｿﾞｳﾁｮｳ","pref":"愛知県","city":"豊田市","address":"阿蔵町"},
{"zip_code":"4442418","kana_pref":"ｱｲﾁｹﾝ","kana_city":"ﾄﾖﾀｼ","kana_address":"ｱﾔﾄﾞﾁｮｳ","pref":"愛知県","city":"豊田市","address":"綾渡町"},
{"zip_code":"4443216","kana_pref":"ｱｲﾁｹﾝ","kana_city":"ﾄﾖﾀｼ","kana_address":"ｱﾗﾗｷﾞﾁｮｳ","pref":"愛知県","city":"豊田市","address":"蘭町"},
{"zip_code":"4442827","kana_pref":"ｱｲﾁｹﾝ","kana_city":"ﾄﾖﾀｼ","kana_address":"ｱﾝﾏﾁｮｳ","pref":"愛知県","city":"豊田市","address":"有間町"},
{"zip_code":"4442807","kana_pref":"ｱｲﾁｹﾝ","kana_city":"ﾄﾖﾀｼ","kana_address":"ｲｸﾏﾁｮｳ","pref":"愛知県","city":"豊田市","address":"伊熊町"},
{"zip_code":"4442824","kana_pref":"ｱｲﾁｹﾝ","kana_city":"ﾄﾖﾀｼ","kana_address":"ｲｹｼﾞﾏﾁｮｳ","pref":"愛知県","city":"豊田市","address":"池島町"},
{"zip_code":"4442837","kana_pref":"ｱｲﾁｹﾝ","kana_city":"ﾄﾖﾀｼ","kana_address":"ｲｼｷﾁｮｳ","pref":"愛知県","city":"豊田市","address":"一色町"},
{"zip_code":"4442825","kana_pref":"ｱｲﾁｹﾝ","kana_city":"ﾄﾖﾀｼ","kana_address":"ｲﾁﾀﾞｲﾗﾁｮｳ","pref":"愛知県","city":"豊田市","address":"市平町"},
{"zip_code":"4442354","kana_pref":"ｱｲﾁｹﾝ","kana_city":"ﾄﾖﾀｼ","kana_address":"ｲﾉｸﾁﾁｮｳ","pref":"愛知県","city":"豊田市","address":"井ノ口町"},
{"zip_code":"4442225","kana_pref":"ｱｲﾁｹﾝ","kana_city":"ﾄﾖﾀｼ","kana_address":"ｲﾜｸﾗﾁｮｳ","pref":"愛知県","city":"豊田市","address":"岩倉町"},
{"zip_code":"4442331","kana_pref":"ｱｲﾁｹﾝ","kana_city":"ﾄﾖﾀｼ","kana_address":"ｲﾜﾔﾁｮｳ","pref":"愛知県","city":"豊田市","address":"岩谷町"},
{"zip_code":"4442204","kana_pref":"ｱｲﾁｹﾝ","kana_city":"ﾄﾖﾀｼ","kana_address":"ｳｶﾞｾﾁｮｳ","pref":"愛知県","city":"豊田市","address":"鵜ケ瀬町"},
{"zip_code":"4442801","kana_pref":"ｱｲﾁｹﾝ","kana_city":"ﾄﾖﾀｼ","kana_address":"ｳｼｼﾞﾁｮｳ","pref":"愛知県","city":"豊田市","address":"牛地町"},
{"zip_code":"4442416","kana_pref":"ｱｲﾁｹﾝ","kana_city":"ﾄﾖﾀｼ","kana_address":"ｳﾄｳﾁｮｳ","pref":"愛知県","city":"豊田市","address":"有洞町"},
{"zip_code":"4442604","kana_pref":"ｱｲﾁｹﾝ","kana_city":"ﾄﾖﾀｼ","kana_address":"ｳﾊﾞﾔｷﾞﾁｮｳ","pref":"愛知県","city":"豊田市","address":"上八木町"},
{"zip_code":"4442406","kana_pref":"ｱｲﾁｹﾝ","kana_city":"ﾄﾖﾀｼ","kana_address":"ｳﾙｼﾊﾞﾀﾁｮｳ","pref":"愛知県","city":"豊田市","address":"漆畑町"},
{"zip_code":"4443203","kana_pref":"ｱｲﾁｹﾝ","kana_city":"ﾄﾖﾀｼ","kana_address":"ｳﾚﾉﾁｮｳ","pref":"愛知県","city":"豊田市","address":"宇連野町"},
{"zip_code":"4442206","kana_pref":"ｱｲﾁｹﾝ","kana_city":"ﾄﾖﾀｼ","kana_address":"ｵｳﾀｷﾁｮｳ","pref":"愛知県","city":"豊田市","address":"王滝町"},
{"zip_code":"4442501","kana_pref":"ｱｲﾁｹﾝ","kana_city":"ﾄﾖﾀｼ","kana_address":"ｵｵｲﾁｮｳ","pref":"愛知県","city":"豊田市","address":"大井町"},
{"zip_code":"4442217","kana_pref":"ｱｲﾁｹﾝ","kana_city":"ﾄﾖﾀｼ","kana_address":"ｵｵｳﾁﾁｮｳ","pref":"愛知県","city":"豊田市","address":"大内町"},
{"zip_code":"4442525","kana_pref":"ｱｲﾁｹﾝ","kana_city":"ﾄﾖﾀｼ","kana_address":"ｵｵｶﾜﾗﾁｮｳ","pref":"愛知県","city":"豊田市","address":"大河原町"},
{"zip_code":"4442511","kana_pref":"ｱｲﾁｹﾝ","kana_city":"ﾄﾖﾀｼ","kana_address":"ｵｵｸﾗﾁｮｳ","pref":"愛知県","city":"豊田市","address":"大蔵町"},
{"zip_code":"4443207","kana_pref":"ｱｲﾁｹﾝ","kana_city":"ﾄﾖﾀｼ","kana_address":"ｵｵｸﾜﾁｮｳ","pref":"愛知県","city":"豊田市","address":"大桑町"},
{"zip_code":"4442405","kana_pref":"ｱｲﾁｹﾝ","kana_city":"ﾄﾖﾀｼ","kana_address":"ｵｵｿﾞｳﾚﾝﾁｮｳ","pref":"愛知県","city":"豊田市","address":"大蔵連町"},
{"zip_code":"4442603","kana_pref":"ｱｲﾁｹﾝ","kana_city":"ﾄﾖﾀｼ","kana_address":"ｵｵﾀｶﾞﾁｮｳ","pref":"愛知県","city":"豊田市","address":"大多賀町"},
{"zip_code":"4442811","kana_pref":"ｱｲﾁｹﾝ","kana_city":"ﾄﾖﾀｼ","kana_address":"ｵｵﾀﾞﾁｮｳ","pref":"愛知県","city":"豊田市","address":"太田町"},
{"zip_code":"4442515","kana_pref":"ｱｲﾁｹﾝ","kana_city":"ﾄﾖﾀｼ","kana_address":"ｵｵﾂｶﾁｮｳ","pref":"愛知県","city":"豊田市","address":"大塚町"},
{"zip_code":"4442822","kana_pref":"ｱｲﾁｹﾝ","kana_city":"ﾄﾖﾀｼ","kana_address":"ｵｵﾂﾎﾞﾁｮｳ","pref":"愛知県","city":"豊田市","address":"大坪町"},
{"zip_code":"4443242","kana_pref":"ｱｲﾁｹﾝ","kana_city":"ﾄﾖﾀｼ","kana_address":"ｵｵﾇﾏﾁｮｳ","pref":"愛知県","city":"豊田市","address":"大沼町"},
{"zip_code":"4442812","kana_pref":"ｱｲﾁｹﾝ","kana_city":"ﾄﾖﾀｼ","kana_address":"ｵｼｲﾁｮｳ","pref":"愛知県","city":"豊田市","address":"押井町"},
{"zip_code":"4442809","kana_pref":"ｱｲﾁｹﾝ","kana_city":"ﾄﾖﾀｼ","kana_address":"ｵﾀｷﾞﾉﾁｮｳ","pref":"愛知県","city":"豊田市","address":"小滝野町"},
{"zip_code":"4442846","kana_pref":"ｱｲﾁｹﾝ","kana_city":"ﾄﾖﾀｼ","kana_address":"ｵﾄﾞﾁｮｳ","pref":"愛知県","city":"豊田市","address":"小渡町"},
{"zip_code":"4442844","kana_pref":"ｱｲﾁｹﾝ","kana_city":"ﾄﾖﾀｼ","kana_address":"ｵﾊﾞｻﾞﾜﾁｮｳ","pref":"愛知県","city":"豊田市","address":"伯母沢町"},
{"zip_code":"4442334","kana_pref":"ｱｲﾁｹﾝ","kana_city":"ﾄﾖﾀｼ","kana_address":"ｶｲｺﾞﾁｮｳ","pref":"愛知県","city":"豊田市","address":"国閑町"},
{"zip_code":"4442352","kana_pref":"ｱｲﾁｹﾝ","kana_city":"ﾄﾖﾀｼ","kana_address":"ｶｺﾞﾊﾔｼﾁｮｳ","pref":"愛知県","city":"豊田市","address":"篭林町"},
{"zip_code":"4442813","kana_pref":"ｱｲﾁｹﾝ","kana_city":"ﾄﾖﾀｼ","kana_address":"ｶｼｵﾁｮｳ","pref":"愛知県","city":"豊田市","address":"加塩町"},
{"zip_code":"4442214","kana_pref":"ｱｲﾁｹﾝ","kana_city":"ﾄﾖﾀｼ","kana_address":"ｶﾂﾗﾉﾁｮｳ","pref":"愛知県","city":"豊田市","address":"桂野町"},
{"zip_code":"4443223","kana_pref":"ｱｲﾁｹﾝ","kana_city":"ﾄﾖﾀｼ","kana_address":"ｶﾌﾞﾗｷﾁｮｳ","pref":"愛知県","city":"豊田市","address":"蕪木町"},
{"zip_code":"4442836","kana_pref":"ｱｲﾁｹﾝ","kana_city":"ﾄﾖﾀｼ","kana_address":"ｶﾐｷﾞﾘﾁｮｳ","pref":"愛知県","city":"豊田市","address":"上切町"},
{"zip_code":"4442531","kana_pref":"ｱｲﾁｹﾝ","kana_city":"ﾄﾖﾀｼ","kana_address":"ｶﾐｷﾘﾔﾏﾁｮｳ","pref":"愛知県","city":"豊田市","address":"上切山町"},
{"zip_code":"4442314","kana_pref":"ｱｲﾁｹﾝ","kana_city":"ﾄﾖﾀｼ","kana_address":"ｶﾐｺﾀﾞﾁｮｳ","pref":"愛知県","city":"豊田市","address":"上小田町"},
{"zip_code":"4442337","kana_pref":"ｱｲﾁｹﾝ","kana_city":"ﾄﾖﾀｼ","kana_address":"ｶﾐｻｷﾞﾘﾁｮｳ","pref":"愛知県","city":"豊田市","address":"上佐切町"},
{"zip_code":"4442835","kana_pref":"ｱｲﾁｹﾝ","kana_city":"ﾄﾖﾀｼ","kana_address":"ｶﾐﾅｶﾁｮｳ","pref":"愛知県","city":"豊田市","address":"上中町"},
{"zip_code":"4442335","kana_pref":"ｱｲﾁｹﾝ","kana_city":"ﾄﾖﾀｼ","kana_address":"ｶﾐﾜｷﾁｮｳ","pref":"愛知県","city":"豊田市","address":"上脇町"},
{"zip_code":"4442213","kana_pref":"ｱｲﾁｹﾝ","kana_city":"ﾄﾖﾀｼ","kana_address":"ｶﾓｶﾞﾜﾁｮｳ","pref":"愛知県","city":"豊田市","address":"加茂川町"},
{"zip_code":"4442403","kana_pref":"ｱｲﾁｹﾝ","kana_city":"ﾄﾖﾀｼ","kana_address":"ｶﾜｵﾓﾃﾁｮｳ","pref":"愛知県","city":"豊田市","address":"川面町"},
{"zip_code":"4443252","kana_pref":"ｱｲﾁｹﾝ","kana_city":"ﾄﾖﾀｼ","kana_address":"ｶﾝﾄﾞﾉﾁｮｳ","pref":"愛知県","city":"豊田市","address":"神殿町"},
{"zip_code":"4442502","kana_pref":"ｱｲﾁｹﾝ","kana_city":"ﾄﾖﾀｼ","kana_address":"ｷﾀｺﾀﾞﾁｮｳ","pref":"愛知県","city":"豊田市","address":"北小田町"},
{"zip_code":"4442343","kana_pref":"ｱｲﾁｹﾝ","kana_city":"ﾄﾖﾀｼ","kana_address":"ｷﾘﾔﾏﾁｮｳ","pref":"愛知県","city":"豊田市","address":"霧山町"},
{"zip_code":"4442216","kana_pref":"ｱｲﾁｹﾝ","kana_city":"ﾄﾖﾀｼ","kana_address":"ｸｷﾞｭｳﾀﾞｲﾗﾁｮｳ","pref":"愛知県","city":"豊田市","address":"九久平町"},
{"zip_code":"4442804","kana_pref":"ｱｲﾁｹﾝ","kana_city":"ﾄﾖﾀｼ","kana_address":"ｸｻｶﾍﾞﾁｮｳ","pref":"愛知県","city":"豊田市","address":"日下部町"},
{"zip_code":"4442326","kana_pref":"ｱｲﾁｹﾝ","kana_city":"ﾄﾖﾀｼ","kana_address":"ｸﾆﾔﾁｮｳ","pref":"愛知県","city":"豊田市","address":"国谷町"},
{"zip_code":"4443212","kana_pref":"ｱｲﾁｹﾝ","kana_city":"ﾄﾖﾀｼ","kana_address":"ｸﾛｻｶﾁｮｳ","pref":"愛知県","city":"豊田市","address":"黒坂町"},
{"zip_code":"4442407","kana_pref":"ｱｲﾁｹﾝ","kana_city":"ﾄﾖﾀｼ","kana_address":"ｸﾜﾀﾞﾜﾁｮｳ","pref":"愛知県","city":"豊田市","address":"桑田和町"},
{"zip_code":"4442325","kana_pref":"ｱｲﾁｹﾝ","kana_city":"ﾄﾖﾀｼ","kana_address":"ｸﾜﾊﾗﾀﾞﾁｮｳ","pref":"愛知県","city":"豊田市","address":"桑原田町"},
{"zip_code":"4442221","kana_pref":"ｱｲﾁｹﾝ","kana_city":"ﾄﾖﾀｼ","kana_address":"ｺｳｶｲﾁｮｳ","pref":"愛知県","city":"豊田市","address":"幸海町"},
{"zip_code":"4442821","kana_pref":"ｱｲﾁｹﾝ","kana_city":"ﾄﾖﾀｼ","kana_address":"ｺﾀﾞﾁｮｳ","pref":"愛知県","city":"豊田市","address":"小田町"},
{"zip_code":"4442608","kana_pref":"ｱｲﾁｹﾝ","kana_city":"ﾄﾖﾀｼ","kana_address":"ｺﾞﾀﾝﾀﾞﾁｮｳ","pref":"愛知県","city":"豊田市","address":"五反田町"},
{"zip_code":"4442521","kana_pref":"ｱｲﾁｹﾝ","kana_city":"ﾄﾖﾀｼ","kana_address":"ｺﾁｮｳ","pref":"愛知県","city":"豊田市","address":"小町"},
{"zip_code":"4442533","kana_pref":"ｱｲﾁｹﾝ","kana_city":"ﾄﾖﾀｼ","kana_address":"ｺﾃﾉｻﾜﾁｮｳ","pref":"愛知県","city":"豊田市","address":"小手沢町"},
{"zip_code":"4442805","kana_pref":"ｱｲﾁｹﾝ","kana_city":"ﾄﾖﾀｼ","kana_address":"ｺﾊﾞﾀﾁｮｳ","pref":"愛知県","city":"豊田市","address":"小畑町"},
{"zip_code":"4443213","kana_pref":"ｱｲﾁｹﾝ","kana_city":"ﾄﾖﾀｼ","kana_address":"ｺﾏﾂﾉﾁｮｳ","pref":"愛知県","city":"豊田市","address":"小松野町"},
{"zip_code":"4442201","kana_pref":"ｱｲﾁｹﾝ","kana_city":"ﾄﾖﾀｼ","kana_address":"ｻｶｳｴﾁｮｳ","pref":"愛知県","city":"豊田市","address":"坂上町"},
{"zip_code":"4442814","kana_pref":"ｱｲﾁｹﾝ","kana_city":"ﾄﾖﾀｼ","kana_address":"ｻｶｷﾉﾁｮｳ","pref":"愛知県","city":"豊田市","address":"榊野町"},
{"zip_code":"4442826","kana_pref":"ｱｲﾁｹﾝ","kana_city":"ﾄﾖﾀｼ","kana_address":"ｻｻﾄﾞﾁｮｳ","pref":"愛知県","city":"豊田市","address":"笹戸町"},
{"zip_code":"4442226","kana_pref":"ｱｲﾁｹﾝ","kana_city":"ﾄﾖﾀｼ","kana_address":"ｻﾁﾎﾀﾞｲ","pref":"愛知県","city":"豊田市","address":"幸穂台"},
{"zip_code":"4442311","kana_pref":"ｱｲﾁｹﾝ","kana_city":"ﾄﾖﾀｼ","kana_address":"ｻﾜﾉﾄﾞｳﾁｮｳ","pref":"愛知県","city":"豊田市","address":"沢ノ堂町"},
{"zip_code":"4442839","kana_pref":"ｱｲﾁｹﾝ","kana_city":"ﾄﾖﾀｼ","kana_address":"ｻﾝﾌﾞﾔﾏﾁｮｳ","pref":"愛知県","city":"豊田市","address":"三分山町"},
{"zip_code":"4442516","kana_pref":"ｱｲﾁｹﾝ","kana_city":"ﾄﾖﾀｼ","kana_address":"ｼｵﾉｻﾜﾁｮｳ","pref":"愛知県","city":"豊田市","address":"塩ノ沢町"},
{"zip_code":"4442841","kana_pref":"ｱｲﾁｹﾝ","kana_city":"ﾄﾖﾀｼ","kana_address":"ｼｽﾞﾗｾﾁｮｳ","pref":"愛知県","city":"豊田市","address":"閑羅瀬町"},
{"zip_code":"4442834","kana_pref":"ｱｲﾁｹﾝ","kana_city":"ﾄﾖﾀｼ","kana_address":"ｼﾏｻｷﾁｮｳ","pref":"愛知県","city":"豊田市","address":"島崎町"},
{"zip_code":"4442833","kana_pref":"ｱｲﾁｹﾝ","kana_city":"ﾄﾖﾀｼ","kana_address":"ｼﾓｷﾞﾘﾁｮｳ","pref":"愛知県","city":"豊田市","address":"下切町"},
{"zip_code":"4442321","kana_pref":"ｱｲﾁｹﾝ","kana_city":"ﾄﾖﾀｼ","kana_address":"ｼﾓｸﾆﾔﾁｮｳ","pref":"愛知県","city":"豊田市","address":"下国谷町"},
{"zip_code":"4442336","kana_pref":"ｱｲﾁｹﾝ","kana_city":"ﾄﾖﾀｼ","kana_address":"ｼﾓｻｷﾞﾘﾁｮｳ","pref":"愛知県","city":"豊田市","address":"下佐切町"},
{"zip_code":"4442332","kana_pref":"ｱｲﾁｹﾝ","kana_city":"ﾄﾖﾀｼ","kana_address":"ｼﾓﾀﾞｲﾗﾁｮｳ","pref":"愛知県","city":"豊田市","address":"下平町"},
{"zip_code":"4442838","kana_pref":"ｱｲﾁｹﾝ","kana_city":"ﾄﾖﾀｼ","kana_address":"ｼﾓﾅｶﾁｮｳ","pref":"愛知県","city":"豊田市","address":"下中町"},
{"zip_code":"4443222","kana_pref":"ｱｲﾁｹﾝ","kana_city":"ﾄﾖﾀｼ","kana_address":"ｼﾓﾔﾏﾀｼﾛﾁｮｳ","pref":"愛知県","city":"豊田市","address":"下山田代町"},
{"zip_code":"4442327","kana_pref":"ｱｲﾁｹﾝ","kana_city":"ﾄﾖﾀｼ","kana_address":"ｼﾗｸﾗﾁｮｳ","pref":"愛知県","city":"豊田市","address":"白倉町"},
{"zip_code":"4442505","kana_pref":"ｱｲﾁｹﾝ","kana_city":"ﾄﾖﾀｼ","kana_address":"ｼﾝﾓﾘﾁｮｳ","pref":"愛知県","city":"豊田市","address":"新盛町"},
{"zip_code":"4442816","kana_pref":"ｱｲﾁｹﾝ","kana_city":"ﾄﾖﾀｼ","kana_address":"ｽｷﾞﾓﾄﾁｮｳ","pref":"愛知県","city":"豊田市","address":"杉本町"},
{"zip_code":"4442409","kana_pref":"ｱｲﾁｹﾝ","kana_city":"ﾄﾖﾀｼ","kana_address":"ｽｺﾞｳﾁｮｳ","pref":"愛知県","city":"豊田市","address":"菅生町"},
{"zip_code":"4442831","kana_pref":"ｱｲﾁｹﾝ","kana_city":"ﾄﾖﾀｼ","kana_address":"ｽﾌﾞﾁﾁｮｳ","pref":"愛知県","city":"豊田市","address":"須渕町"},
{"zip_code":"4442524","kana_pref":"ｱｲﾁｹﾝ","kana_city":"ﾄﾖﾀｼ","kana_address":"ｽﾘﾁｮｳ","pref":"愛知県","city":"豊田市","address":"摺町"},
{"zip_code":"4442207","kana_pref":"ｱｲﾁｹﾝ","kana_city":"ﾄﾖﾀｼ","kana_address":"ｾｷﾅﾝﾁｮｳ","pref":"愛知県","city":"豊田市","address":"石楠町"},
{"zip_code":"4442606","kana_pref":"ｱｲﾁｹﾝ","kana_city":"ﾄﾖﾀｼ","kana_address":"ｾﾝﾀﾞﾁｮｳ","pref":"愛知県","city":"豊田市","address":"千田町"},
{"zip_code":"4442806","kana_pref":"ｱｲﾁｹﾝ","kana_city":"ﾄﾖﾀｼ","kana_address":"ｿｳﾀﾞﾁｮｳ","pref":"愛知県","city":"豊田市","address":"惣田町"},
{"zip_code":"4443221","kana_pref":"ｱｲﾁｹﾝ","kana_city":"ﾄﾖﾀｼ","kana_address":"ﾀｵﾘﾁｮｳ","pref":"愛知県","city":"豊田市","address":"田折町"},
{"zip_code":"4443208","kana_pref":"ｱｲﾁｹﾝ","kana_city":"ﾄﾖﾀｼ","kana_address":"ﾀｶﾉﾁｮｳ","pref":"愛知県","city":"豊田市","address":"高野町"},
{"zip_code":"4442212","kana_pref":"ｱｲﾁｹﾝ","kana_city":"ﾄﾖﾀｼ","kana_address":"ﾀｷﾜｷﾁｮｳ","pref":"愛知県","city":"豊田市","address":"滝脇町"},
{"zip_code":"4442402","kana_pref":"ｱｲﾁｹﾝ","kana_city":"ﾄﾖﾀｼ","kana_address":"ﾀﾂｵｶﾁｮｳ","pref":"愛知県","city":"豊田市","address":"竜岡町"},
{"zip_code":"4442802","kana_pref":"ｱｲﾁｹﾝ","kana_city":"ﾄﾖﾀｼ","kana_address":"ﾀﾂﾊﾗﾁｮｳ","pref":"愛知県","city":"豊田市","address":"田津原町"},
{"zip_code":"4443262","kana_pref":"ｱｲﾁｹﾝ","kana_city":"ﾄﾖﾀｼ","kana_address":"ﾀﾃｲﾜﾁｮｳ","pref":"愛知県","city":"豊田市","address":"立岩町"},
{"zip_code":"4443265","kana_pref":"ｱｲﾁｹﾝ","kana_city":"ﾄﾖﾀｼ","kana_address":"ﾀﾋﾗｻﾞﾜﾁｮｳ","pref":"愛知県","city":"豊田市","address":"田平沢町"},
{"zip_code":"4442353","kana_pref":"ｱｲﾁｹﾝ","kana_city":"ﾄﾖﾀｼ","kana_address":"ﾀﾌﾞﾘﾁｮｳ","pref":"愛知県","city":"豊田市","address":"田振町"},
{"zip_code":"4442605","kana_pref":"ｱｲﾁｹﾝ","kana_city":"ﾄﾖﾀｼ","kana_address":"ﾀﾏﾉﾁｮｳ","pref":"愛知県","city":"豊田市","address":"玉野町"},
{"zip_code":"4442355","kana_pref":"ｱｲﾁｹﾝ","kana_city":"ﾄﾖﾀｼ","kana_address":"ﾁｶｵｶﾁｮｳ","pref":"愛知県","city":"豊田市","address":"近岡町"},
{"zip_code":"4442414","kana_pref":"ｱｲﾁｹﾝ","kana_city":"ﾄﾖﾀｼ","kana_address":"ﾂﾂﾞﾗｻﾜﾁｮｳ","pref":"愛知県","city":"豊田市","address":"葛沢町"},
{"zip_code":"4442526","kana_pref":"ｱｲﾁｹﾝ","kana_city":"ﾄﾖﾀｼ","kana_address":"ﾂﾂﾞﾗﾁｮｳ","pref":"愛知県","city":"豊田市","address":"葛町"},
{"zip_code":"4442419","kana_pref":"ｱｲﾁｹﾝ","kana_city":"ﾄﾖﾀｼ","kana_address":"ﾂﾊﾞｷﾀﾞﾁﾁｮｳ","pref":"愛知県","city":"豊田市","address":"椿立町"},
{"zip_code":"4442803","kana_pref":"ｱｲﾁｹﾝ","kana_city":"ﾄﾖﾀｼ","kana_address":"ﾂﾎﾞｻｷﾁｮｳ","pref":"愛知県","city":"豊田市","address":"坪崎町"},
{"zip_code":"4442847","kana_pref":"ｱｲﾁｹﾝ","kana_city":"ﾄﾖﾀｼ","kana_address":"ﾄｷｾﾞﾁｮｳ","pref":"愛知県","city":"豊田市","address":"時瀬町"},
{"zip_code":"4443264","kana_pref":"ｱｲﾁｹﾝ","kana_city":"ﾄﾖﾀｼ","kana_address":"ﾄﾁﾀﾞﾁﾁｮｳ","pref":"愛知県","city":"豊田市","address":"栃立町"},
{"zip_code":"4442514","kana_pref":"ｱｲﾁｹﾝ","kana_city":"ﾄﾖﾀｼ","kana_address":"ﾄﾁﾉｻﾜﾁｮｳ","pref":"愛知県","city":"豊田市","address":"栃ノ沢町"},
{"zip_code":"4442324","kana_pref":"ｱｲﾁｹﾝ","kana_city":"ﾄﾖﾀｼ","kana_address":"ﾄﾁﾓﾄﾁｮｳ","pref":"愛知県","city":"豊田市","address":"栃本町"},
{"zip_code":"4442302","kana_pref":"ｱｲﾁｹﾝ","kana_city":"ﾄﾖﾀｼ","kana_address":"ﾄﾁｭｳﾁｮｳ","pref":"愛知県","city":"豊田市","address":"戸中町"},
{"zip_code":"4442510","kana_pref":"ｱｲﾁｹﾝ","kana_city":"ﾄﾖﾀｼ","kana_address":"ﾄﾐｵｶﾁｮｳ","pref":"愛知県","city":"豊田市","address":"富岡町"},
{"zip_code":"4442224","kana_pref":"ｱｲﾁｹﾝ","kana_city":"ﾄﾖﾀｼ","kana_address":"ﾄﾓｴﾁｮｳ","pref":"愛知県","city":"豊田市","address":"巴町"},
{"zip_code":"4442203","kana_pref":"ｱｲﾁｹﾝ","kana_city":"ﾄﾖﾀｼ","kana_address":"ﾄﾖﾏﾂﾁｮｳ","pref":"愛知県","city":"豊田市","address":"豊松町"},
{"zip_code":"4442215","kana_pref":"ｱｲﾁｹﾝ","kana_city":"ﾄﾖﾀｼ","kana_address":"ﾅｶｶﾞｲﾄﾁｮｳ","pref":"愛知県","city":"豊田市","address":"中垣内町"},
{"zip_code":"4442517","kana_pref":"ｱｲﾁｹﾝ","kana_city":"ﾄﾖﾀｼ","kana_address":"ﾅｶﾀﾞﾁﾁｮｳ","pref":"愛知県","city":"豊田市","address":"中立町"},
{"zip_code":"4442504","kana_pref":"ｱｲﾁｹﾝ","kana_city":"ﾄﾖﾀｼ","kana_address":"ﾅｶﾞﾉﾁｮｳ","pref":"愛知県","city":"豊田市","address":"永野町"},
{"zip_code":"4443201","kana_pref":"ｱｲﾁｹﾝ","kana_city":"ﾄﾖﾀｼ","kana_address":"ﾅｼﾉﾁｮｳ","pref":"愛知県","city":"豊田市","address":"梨野町"},
{"zip_code":"4442211","kana_pref":"ｱｲﾁｹﾝ","kana_city":"ﾄﾖﾀｼ","kana_address":"ﾅｶﾞｻﾜﾁｮｳ","pref":"愛知県","city":"豊田市","address":"長沢町"},
{"zip_code":"4442205","kana_pref":"ｱｲﾁｹﾝ","kana_city":"ﾄﾖﾀｼ","kana_address":"ﾅﾍﾞﾀﾁｮｳ","pref":"愛知県","city":"豊田市","address":"鍋田町"},
{"zip_code":"4442532","kana_pref":"ｱｲﾁｹﾝ","kana_city":"ﾄﾖﾀｼ","kana_address":"ﾆｼｶﾞｼｵﾁｮｳ","pref":"愛知県","city":"豊田市","address":"西樫尾町"},
{"zip_code":"4442404","kana_pref":"ｱｲﾁｹﾝ","kana_city":"ﾄﾖﾀｼ","kana_address":"ﾇﾀｻﾞﾜﾁｮｳ","pref":"愛知県","city":"豊田市","address":"怒田沢町"},
{"zip_code":"4442303","kana_pref":"ｱｲﾁｹﾝ","kana_city":"ﾄﾖﾀｼ","kana_address":"ﾉﾊﾞﾔｼﾁｮｳ","pref":"愛知県","city":"豊田市","address":"野林町"},
{"zip_code":"4442342","kana_pref":"ｱｲﾁｹﾝ","kana_city":"ﾄﾖﾀｼ","kana_address":"ﾉﾘｻﾀﾞﾁｮｳ","pref":"愛知県","city":"豊田市","address":"則定町"},
{"zip_code":"4443205","kana_pref":"ｱｲﾁｹﾝ","kana_city":"ﾄﾖﾀｼ","kana_address":"ﾉﾜﾗﾁｮｳ","pref":"愛知県","city":"豊田市","address":"野原町"},
{"zip_code":"4443231","kana_pref":"ｱｲﾁｹﾝ","kana_city":"ﾄﾖﾀｼ","kana_address":"ﾊﾅｻﾞﾜﾁｮｳ","pref":"愛知県","city":"豊田市","address":"花沢町"},
{"zip_code":"4443206","kana_pref":"ｱｲﾁｹﾝ","kana_city":"ﾄﾖﾀｼ","kana_address":"ﾊﾌﾞﾁｮｳ","pref":"愛知県","city":"豊田市","address":"羽布町"},
{"zip_code":"4442218","kana_pref":"ｱｲﾁｹﾝ","kana_city":"ﾄﾖﾀｼ","kana_address":"ﾊﾔｼｿﾞﾚﾁｮｳ","pref":"愛知県","city":"豊田市","address":"林添町"},
{"zip_code":"4442313","kana_pref":"ｱｲﾁｹﾝ","kana_city":"ﾄﾖﾀｼ","kana_address":"ﾋｴﾀﾞﾁｮｳ","pref":"愛知県","city":"豊田市","address":"冷田町"},
{"zip_code":"4442344","kana_pref":"ｱｲﾁｹﾝ","kana_city":"ﾄﾖﾀｼ","kana_address":"ﾋｶﾞｼｵｵｼﾏﾁｮｳ","pref":"愛知県","city":"豊田市","address":"東大島町"},
{"zip_code":"4443261","kana_pref":"ｱｲﾁｹﾝ","kana_city":"ﾄﾖﾀｼ","kana_address":"ﾋｶﾞｼｵｵﾊﾞﾔｼﾁｮｳ","pref":"愛知県","city":"豊田市","address":"東大林町"},
{"zip_code":"4442413","kana_pref":"ｱｲﾁｹﾝ","kana_city":"ﾄﾖﾀｼ","kana_address":"ﾋｶﾞｼｵｵﾐﾁｮｳ","pref":"愛知県","city":"豊田市","address":"東大見町"},
{"zip_code":"4442301","kana_pref":"ｱｲﾁｹﾝ","kana_city":"ﾄﾖﾀｼ","kana_address":"ﾋｶﾞｼｶﾜﾊﾞﾀﾁｮｳ","pref":"愛知県","city":"豊田市","address":"東川端町"},
{"zip_code":"4442528","kana_pref":"ｱｲﾁｹﾝ","kana_city":"ﾄﾖﾀｼ","kana_address":"ﾋｶﾞｼﾄﾞｱｲﾁｮｳ","pref":"愛知県","city":"豊田市","address":"東渡合町"},
{"zip_code":"4442512","kana_pref":"ｱｲﾁｹﾝ","kana_city":"ﾄﾖﾀｼ","kana_address":"ﾋｶﾞｼﾅｶﾔﾏﾁｮｳ","pref":"愛知県","city":"豊田市","address":"東中山町"},
{"zip_code":"4442823","kana_pref":"ｱｲﾁｹﾝ","kana_city":"ﾄﾖﾀｼ","kana_address":"ﾋｶﾞｼﾊｷﾞﾋﾗﾁｮｳ","pref":"愛知県","city":"豊田市","address":"東萩平町"},
{"zip_code":"4442506","kana_pref":"ｱｲﾁｹﾝ","kana_city":"ﾄﾖﾀｼ","kana_address":"ﾋｻｷﾞﾁｮｳ","pref":"愛知県","city":"豊田市","address":"久木町"},
{"zip_code":"4442607","kana_pref":"ｱｲﾁｹﾝ","kana_city":"ﾄﾖﾀｼ","kana_address":"ﾋﾗｻﾜﾁｮｳ","pref":"愛知県","city":"豊田市","address":"平沢町"},
{"zip_code":"4443251","kana_pref":"ｱｲﾁｹﾝ","kana_city":"ﾄﾖﾀｼ","kana_address":"ﾋﾗｾﾁｮｳ","pref":"愛知県","city":"豊田市","address":"平瀬町"},
{"zip_code":"4442333","kana_pref":"ｱｲﾁｹﾝ","kana_city":"ﾄﾖﾀｼ","kana_address":"ﾋﾛﾘﾁｮｳ","pref":"愛知県","city":"豊田市","address":"平折町"},
{"zip_code":"4442401","kana_pref":"ｱｲﾁｹﾝ","kana_city":"ﾄﾖﾀｼ","kana_address":"ﾌﾀﾐﾔﾁｮｳ","pref":"愛知県","city":"豊田市","address":"二タ宮町"},
{"zip_code":"4442503","kana_pref":"ｱｲﾁｹﾝ","kana_city":"ﾄﾖﾀｼ","kana_address":"ﾎｿﾀﾞﾁｮｳ","pref":"愛知県","city":"豊田市","address":"細田町"},
{"zip_code":"4442222","kana_pref":"ｱｲﾁｹﾝ","kana_city":"ﾄﾖﾀｼ","kana_address":"ﾎﾂﾞﾐﾁｮｳ","pref":"愛知県","city":"豊田市","address":"穂積町"},
{"zip_code":"4442808","kana_pref":"ｱｲﾁｹﾝ","kana_city":"ﾄﾖﾀｼ","kana_address":"ﾏｷﾓﾄﾁｮｳ","pref":"愛知県","city":"豊田市","address":"槇本町"},
{"zip_code":"4442223","kana_pref":"ｱｲﾁｹﾝ","kana_city":"ﾄﾖﾀｼ","kana_address":"ﾏﾂﾀﾞｲﾗｼｶﾞﾁｮｳ","pref":"愛知県","city":"豊田市","address":"松平志賀町"},
{"zip_code":"4442202","kana_pref":"ｱｲﾁｹﾝ","kana_city":"ﾄﾖﾀｼ","kana_address":"ﾏﾂﾀﾞｲﾗﾁｮｳ","pref":"愛知県","city":"豊田市","address":"松平町"},
{"zip_code":"4442845","kana_pref":"ｱｲﾁｹﾝ","kana_city":"ﾄﾖﾀｼ","kana_address":"ﾏﾝｼﾞｮｳﾁｮｳ","pref":"愛知県","city":"豊田市","address":"万町町"},
{"zip_code":"4442815","kana_pref":"ｱｲﾁｹﾝ","kana_city":"ﾄﾖﾀｼ","kana_address":"ﾏﾝﾈﾁｮｳ","pref":"愛知県","city":"豊田市","address":"万根町"},
{"zip_code":"4442411","kana_pref":"ｱｲﾁｹﾝ","kana_city":"ﾄﾖﾀｼ","kana_address":"ﾐｳﾁﾁｮｳ","pref":"愛知県","city":"豊田市","address":"御内町"},
{"zip_code":"4442522","kana_pref":"ｱｲﾁｹﾝ","kana_city":"ﾄﾖﾀｼ","kana_address":"ﾐｸﾗﾁｮｳ","pref":"愛知県","city":"豊田市","address":"御蔵町"},
{"zip_code":"4442523","kana_pref":"ｱｲﾁｹﾝ","kana_city":"ﾄﾖﾀｼ","kana_address":"ﾐｸﾞﾘﾁｮｳ","pref":"愛知県","city":"豊田市","address":"実栗町"},
{"zip_code":"4442417","kana_pref":"ｱｲﾁｹﾝ","kana_city":"ﾄﾖﾀｼ","kana_address":"ﾑﾛｸﾞﾁﾁｮｳ","pref":"愛知県","city":"豊田市","address":"室口町"},
{"zip_code":"4442451","kana_pref":"ｱｲﾁｹﾝ","kana_city":"ﾄﾖﾀｼ","kana_address":"ﾔｶﾞﾐﾁｮｳ","pref":"愛知県","city":"豊田市","address":"岩神町"},
{"zip_code":"4442351","kana_pref":"ｱｲﾁｹﾝ","kana_city":"ﾄﾖﾀｼ","kana_address":"ﾔｶﾞﾐﾁｮｳ","pref":"愛知県","city":"豊田市","address":"岩神町"},
{"zip_code":"4442415","kana_pref":"ｱｲﾁｹﾝ","kana_city":"ﾄﾖﾀｼ","kana_address":"ﾔﾏｶﾞｲﾁｮｳ","pref":"愛知県","city":"豊田市","address":"山谷町"},
{"zip_code":"4442412","kana_pref":"ｱｲﾁｹﾝ","kana_city":"ﾄﾖﾀｼ","kana_address":"ﾔﾏﾉﾅｶﾀﾞﾁﾁｮｳ","pref":"愛知県","city":"豊田市","address":"山ノ中立町"},
{"zip_code":"4442842","kana_pref":"ｱｲﾁｹﾝ","kana_city":"ﾄﾖﾀｼ","kana_address":"ﾖﾀﾞｲﾗﾁｮｳ","pref":"愛知県","city":"豊田市","address":"余平町"},
{"zip_code":"4442312","kana_pref":"ｱｲﾁｹﾝ","kana_city":"ﾄﾖﾀｼ","kana_address":"ﾖﾂﾏﾂﾁｮｳ","pref":"愛知県","city":"豊田市","address":"四ツ松町"},
{"zip_code":"4442602","kana_pref":"ｱｲﾁｹﾝ","kana_city":"ﾄﾖﾀｼ","kana_address":"ﾚﾝﾀﾞﾆﾁｮｳ","pref":"愛知県","city":"豊田市","address":"連谷町"},
{"zip_code":"4443211","kana_pref":"ｱｲﾁｹﾝ","kana_city":"ﾄﾖﾀｼ","kana_address":"ﾜｺﾞｳﾁｮｳ","pref":"愛知県","city":"豊田市","address":"和合町"},
{"zip_code":"4442527","kana_pref":"ｱｲﾁｹﾝ","kana_city":"ﾄﾖﾀｼ","kana_address":"ﾜﾁﾊﾞﾗﾁｮｳ","pref":"愛知県","city":"豊田市","address":"月原町"},
{"zip_code":"4441201","kana_pref":"ｱｲﾁｹﾝ","kana_city":"ｱﾝｼﾞｮｳｼ","kana_address":"ｲｼｲﾁｮｳ","pref":"愛知県","city":"安城市","address":"石井町"},
{"zip_code":"4441221","kana_pref":"ｱｲﾁｹﾝ","kana_city":"ｱﾝｼﾞｮｳｼ","kana_address":"ｲｽﾞﾐﾁｮｳ","pref":"愛知県","city":"安城市","address":"和泉町"},
{"zip_code":"4441225","kana_pref":"ｱｲﾁｹﾝ","kana_city":"ｱﾝｼﾞｮｳｼ","kana_address":"ｲｽﾞﾐﾁｮｳ","pref":"愛知県","city":"安城市","address":"和泉町"},
{"zip_code":"4441222","kana_pref":"ｱｲﾁｹﾝ","kana_city":"ｱﾝｼﾞｮｳｼ","kana_address":"ｲｽﾞﾐﾁｮｳ","pref":"愛知県","city":"安城市","address":"和泉町"},
{"zip_code":"4441223","kana_pref":"ｱｲﾁｹﾝ","kana_city":"ｱﾝｼﾞｮｳｼ","kana_address":"ｲｽﾞﾐﾁｮｳ","pref":"愛知県","city":"安城市","address":"和泉町"},
{"zip_code":"4441224","kana_pref":"ｱｲﾁｹﾝ","kana_city":"ｱﾝｼﾞｮｳｼ","kana_address":"ｲｽﾞﾐﾁｮｳ","pref":"愛知県","city":"安城市","address":"和泉町"},
{"zip_code":"4441214","kana_pref":"ｱｲﾁｹﾝ","kana_city":"ｱﾝｼﾞｮｳｼ","kana_address":"ｴﾉｷﾏｴﾁｮｳ","pref":"愛知県","city":"安城市","address":"榎前町"},
{"zip_code":"4441215","kana_pref":"ｱｲﾁｹﾝ","kana_city":"ｱﾝｼﾞｮｳｼ","kana_address":"ｴﾉｷﾏｴﾁｮｳ","pref":"愛知県","city":"安城市","address":"榎前町"},
{"zip_code":"4441162","kana_pref":"ｱｲﾁｹﾝ","kana_city":"ｱﾝｼﾞｮｳｼ","kana_address":"ｵｶﾞﾜﾁｮｳ","pref":"愛知県","city":"安城市","address":"小川町"},
{"zip_code":"4441152","kana_pref":"ｱｲﾁｹﾝ","kana_city":"ｱﾝｼﾞｮｳｼ","kana_address":"ｶﾜｼﾏﾁｮｳ","pref":"愛知県","city":"安城市","address":"川島町"},
{"zip_code":"4441163","kana_pref":"ｱｲﾁｹﾝ","kana_city":"ｱﾝｼﾞｮｳｼ","kana_address":"ｷﾄﾞﾁｮｳ","pref":"愛知県","city":"安城市","address":"木戸町"},
{"zip_code":"4441154","kana_pref":"ｱｲﾁｹﾝ","kana_city":"ｱﾝｼﾞｮｳｼ","kana_address":"ｻｸﾗｲﾁｮｳ","pref":"愛知県","city":"安城市","address":"桜井町"},
{"zip_code":"4441206","kana_pref":"ｱｲﾁｹﾝ","kana_city":"ｱﾝｼﾞｮｳｼ","kana_address":"ｼﾞｮｳｶﾞｲﾘﾁｮｳ","pref":"愛知県","city":"安城市","address":"城ケ入町"},
{"zip_code":"4441204","kana_pref":"ｱｲﾁｹﾝ","kana_city":"ｱﾝｼﾞｮｳｼ","kana_address":"ｼﾞｮｳｶﾞｲﾘﾁｮｳ","pref":"愛知県","city":"安城市","address":"城ケ入町"},
{"zip_code":"4441203","kana_pref":"ｱｲﾁｹﾝ","kana_city":"ｱﾝｼﾞｮｳｼ","kana_address":"ｼﾞｮｳｶﾞｲﾘﾁｮｳ","pref":"愛知県","city":"安城市","address":"城ケ入町"},
{"zip_code":"4441202","kana_pref":"ｱｲﾁｹﾝ","kana_city":"ｱﾝｼﾞｮｳｼ","kana_address":"ｼﾞｮｳｶﾞｲﾘﾁｮｳ","pref":"愛知県","city":"安城市","address":"城ケ入町"},
{"zip_code":"4441205","kana_pref":"ｱｲﾁｹﾝ","kana_city":"ｱﾝｼﾞｮｳｼ","kana_address":"ｼﾞｮｳｶﾞｲﾘﾁｮｳ","pref":"愛知県","city":"安城市","address":"城ケ入町"},
{"zip_code":"4441166","kana_pref":"ｱｲﾁｹﾝ","kana_city":"ｱﾝｼﾞｮｳｼ","kana_address":"ｼﾞﾘｮｳﾁｮｳ","pref":"愛知県","city":"安城市","address":"寺領町"},
{"zip_code":"4441211","kana_pref":"ｱｲﾁｹﾝ","kana_city":"ｱﾝｼﾞｮｳｼ","kana_address":"ﾈｻｷﾁｮｳ","pref":"愛知県","city":"安城市","address":"根崎町"},
{"zip_code":"4441212","kana_pref":"ｱｲﾁｹﾝ","kana_city":"ｱﾝｼﾞｮｳｼ","kana_address":"ﾈｻｷﾁｮｳ","pref":"愛知県","city":"安城市","address":"根崎町"},
{"zip_code":"4441165","kana_pref":"ｱｲﾁｹﾝ","kana_city":"ｱﾝｼﾞｮｳｼ","kana_address":"ﾉﾃﾞﾗﾁｮｳ","pref":"愛知県","city":"安城市","address":"野寺町"},
{"zip_code":"4441213","kana_pref":"ｱｲﾁｹﾝ","kana_city":"ｱﾝｼﾞｮｳｼ","kana_address":"ﾋｶﾞｼﾊﾞﾀﾁｮｳ","pref":"愛知県","city":"安城市","address":"東端町"},
{"zip_code":"4441153","kana_pref":"ｱｲﾁｹﾝ","kana_city":"ｱﾝｼﾞｮｳｼ","kana_address":"ﾋｶﾞｼﾏﾁ","pref":"愛知県","city":"安城市","address":"東町"},
{"zip_code":"4441161","kana_pref":"ｱｲﾁｹﾝ","kana_city":"ｱﾝｼﾞｮｳｼ","kana_address":"ﾋﾒｵｶﾞﾜﾁｮｳ","pref":"愛知県","city":"安城市","address":"姫小川町"},
{"zip_code":"4441164","kana_pref":"ｱｲﾁｹﾝ","kana_city":"ｱﾝｼﾞｮｳｼ","kana_address":"ﾌｼﾞｲﾁｮｳ","pref":"愛知県","city":"安城市","address":"藤井町"},
{"zip_code":"4441155","kana_pref":"ｱｲﾁｹﾝ","kana_city":"ｱﾝｼﾞｮｳｼ","kana_address":"ﾎﾘｳﾁﾁｮｳ","pref":"愛知県","city":"安城市","address":"堀内町"},
{"zip_code":"4441151","kana_pref":"ｱｲﾁｹﾝ","kana_city":"ｱﾝｼﾞｮｳｼ","kana_address":"ﾑﾗﾀﾞｶﾁｮｳ","pref":"愛知県","city":"安城市","address":"村高町"},
{"zip_code":"4440427","kana_pref":"ｱｲﾁｹﾝ","kana_city":"ﾆｼｵｼ","kana_address":"ｲｯｼｷﾁｮｳｱｶﾊﾞﾈ","pref":"愛知県","city":"西尾市","address":"一色町赤羽"},
{"zip_code":"4440422","kana_pref":"ｱｲﾁｹﾝ","kana_city":"ﾆｼｵｼ","kana_address":"ｲｯｼｷﾁｮｳｱｼﾞﾊﾏ","pref":"愛知県","city":"西尾市","address":"一色町味浜"},
{"zip_code":"4440412","kana_pref":"ｱｲﾁｹﾝ","kana_city":"ﾆｼｵｼ","kana_address":"ｲｯｼｷﾁｮｳｲｸﾀ","pref":"愛知県","city":"西尾市","address":"一色町生田"},
{"zip_code":"4440401","kana_pref":"ｱｲﾁｹﾝ","kana_city":"ﾆｼｵｼ","kana_address":"ｲｯｼｷﾁｮｳｲｹﾀﾞ","pref":"愛知県","city":"西尾市","address":"一色町池田"},
{"zip_code":"4440423","kana_pref":"ｱｲﾁｹﾝ","kana_city":"ﾆｼｵｼ","kana_address":"ｲｯｼｷﾁｮｳｲｯｼｷ","pref":"愛知県","city":"西尾市","address":"一色町一色"},
{"zip_code":"4440402","kana_pref":"ｱｲﾁｹﾝ","kana_city":"ﾆｼｵｼ","kana_address":"ｲｯｼｷﾁｮｳｵｵﾂｶ","pref":"愛知県","city":"西尾市","address":"一色町大塚"},
{"zip_code":"4440421","kana_pref":"ｱｲﾁｹﾝ","kana_city":"ﾆｼｵｼ","kana_address":"ｲｯｼｷﾁｮｳｶｲｼｮｳ","pref":"愛知県","city":"西尾市","address":"一色町開正"},
{"zip_code":"4440424","kana_pref":"ｱｲﾁｹﾝ","kana_city":"ﾆｼｵｼ","kana_address":"ｲｯｼｷﾁｮｳｺﾔﾌﾞ","pref":"愛知県","city":"西尾市","address":"一色町小薮"},
{"zip_code":"4440413","kana_pref":"ｱｲﾁｹﾝ","kana_city":"ﾆｼｵｼ","kana_address":"ｲｯｼｷﾁｮｳｻｶﾀｼﾝﾃﾞﾝ","pref":"愛知県","city":"西尾市","address":"一色町坂田新田"},
{"zip_code":"4440415","kana_pref":"ｱｲﾁｹﾝ","kana_city":"ﾆｼｵｼ","kana_address":"ｲｯｼｷﾁｮｳｻｶﾃｼﾞﾏ","pref":"愛知県","city":"西尾市","address":"一色町酒手島"},
{"zip_code":"4440416","kana_pref":"ｱｲﾁｹﾝ","kana_city":"ﾆｼｵｼ","kana_address":"ｲｯｼｷﾁｮｳｻｸｼﾏ","pref":"愛知県","city":"西尾市","address":"一色町佐久島"},
{"zip_code":"4440426","kana_pref":"ｱｲﾁｹﾝ","kana_city":"ﾆｼｵｼ","kana_address":"ｲｯｼｷﾁｮｳｼﾞﾒｲ","pref":"愛知県","city":"西尾市","address":"一色町治明"},
{"zip_code":"4440411","kana_pref":"ｱｲﾁｹﾝ","kana_city":"ﾆｼｵｼ","kana_address":"ｲｯｼｷﾁｮｳｾﾝｹﾞﾝ","pref":"愛知県","city":"西尾市","address":"一色町千間"},
{"zip_code":"4440405","kana_pref":"ｱｲﾁｹﾝ","kana_city":"ﾆｼｵｼ","kana_address":"ｲｯｼｷﾁｮｳｿｳｺﾞﾛｳ","pref":"愛知県","city":"西尾市","address":"一色町惣五郎"},
{"zip_code":"4440406","kana_pref":"ｱｲﾁｹﾝ","kana_city":"ﾆｼｵｼ","kana_address":"ｲｯｼｷﾁｮｳﾂｲｺﾞﾒ","pref":"愛知県","city":"西尾市","address":"一色町対米"},
{"zip_code":"4440428","kana_pref":"ｱｲﾁｹﾝ","kana_city":"ﾆｼｵｼ","kana_address":"ｲｯｼｷﾁｮｳﾅｶﾄｻﾞﾜ","pref":"愛知県","city":"西尾市","address":"一色町中外沢"},
{"zip_code":"4440404","kana_pref":"ｱｲﾁｹﾝ","kana_city":"ﾆｼｵｼ","kana_address":"ｲｯｼｷﾁｮｳﾉﾀﾞ","pref":"愛知県","city":"西尾市","address":"一色町野田"},
{"zip_code":"4440414","kana_pref":"ｱｲﾁｹﾝ","kana_city":"ﾆｼｵｼ","kana_address":"ｲｯｼｷﾁｮｳﾌｼﾞｴ","pref":"愛知県","city":"西尾市","address":"一色町藤江"},
{"zip_code":"4440425","kana_pref":"ｱｲﾁｹﾝ","kana_city":"ﾆｼｵｼ","kana_address":"ｲｯｼｷﾁｮｳﾎｿｶﾜ","pref":"愛知県","city":"西尾市","address":"一色町細川"},
{"zip_code":"4440407","kana_pref":"ｱｲﾁｹﾝ","kana_city":"ﾆｼｵｼ","kana_address":"ｲｯｼｷﾁｮｳﾏｴﾉ","pref":"愛知県","city":"西尾市","address":"一色町前野"},
{"zip_code":"4440403","kana_pref":"ｱｲﾁｹﾝ","kana_city":"ﾆｼｵｼ","kana_address":"ｲｯｼｷﾁｮｳﾏﾂｷｼﾞﾏ","pref":"愛知県","city":"西尾市","address":"一色町松木島"},
{"zip_code":"4440429","kana_pref":"ｱｲﾁｹﾝ","kana_city":"ﾆｼｵｼ","kana_address":"ｲｯｼｷﾁｮｳﾖｶﾞｼﾏ","pref":"愛知県","city":"西尾市","address":"一色町養ケ島"},
{"zip_code":"4440333","kana_pref":"ｱｲﾁｹﾝ","kana_city":"ﾆｼｵｼ","kana_address":"ｵｸﾀﾞﾁｮｳ","pref":"愛知県","city":"西尾市","address":"奥田町"},
{"zip_code":"4440332","kana_pref":"ｱｲﾁｹﾝ","kana_city":"ﾆｼｵｼ","kana_address":"ｵｸﾞﾘﾁｮｳ","pref":"愛知県","city":"西尾市","address":"小栗町"},
{"zip_code":"4440313","kana_pref":"ｱｲﾁｹﾝ","kana_city":"ﾆｼｵｼ","kana_address":"ｶﾐﾔﾀﾁｮｳ","pref":"愛知県","city":"西尾市","address":"上矢田町"},
{"zip_code":"4440321","kana_pref":"ｱｲﾁｹﾝ","kana_city":"ﾆｼｵｼ","kana_address":"ｶﾘﾔﾄﾞﾁｮｳ","pref":"愛知県","city":"西尾市","address":"刈宿町"},
{"zip_code":"4440523","kana_pref":"ｱｲﾁｹﾝ","kana_city":"ﾆｼｵｼ","kana_address":"ｷﾗﾁｮｳｱｲﾊﾞ","pref":"愛知県","city":"西尾市","address":"吉良町饗庭"},
{"zip_code":"4440517","kana_pref":"ｱｲﾁｹﾝ","kana_city":"ﾆｼｵｼ","kana_address":"ｷﾗﾁｮｳｵｵｼﾞﾏ","pref":"愛知県","city":"西尾市","address":"吉良町大島"},
{"zip_code":"4440531","kana_pref":"ｱｲﾁｹﾝ","kana_city":"ﾆｼｵｼ","kana_address":"ｷﾗﾁｮｳｵｶﾔﾏ","pref":"愛知県","city":"西尾市","address":"吉良町岡山"},
{"zip_code":"4440524","kana_pref":"ｱｲﾁｹﾝ","kana_city":"ﾆｼｵｼ","kana_address":"ｷﾗﾁｮｳｵｷﾞﾜﾗ","pref":"愛知県","city":"西尾市","address":"吉良町荻原"},
{"zip_code":"4440512","kana_pref":"ｱｲﾁｹﾝ","kana_city":"ﾆｼｵｼ","kana_address":"ｷﾗﾁｮｳｵｯｶﾜ","pref":"愛知県","city":"西尾市","address":"吉良町乙川"},
{"zip_code":"4440511","kana_pref":"ｱｲﾁｹﾝ","kana_city":"ﾆｼｵｼ","kana_address":"ｷﾗﾁｮｳｵﾔﾏﾀﾞ","pref":"愛知県","city":"西尾市","address":"吉良町小山田"},
{"zip_code":"4440521","kana_pref":"ｱｲﾁｹﾝ","kana_city":"ﾆｼｵｼ","kana_address":"ｷﾗﾁｮｳｶﾐﾖｺｽｶ","pref":"愛知県","city":"西尾市","address":"吉良町上横須賀"},
{"zip_code":"4440534","kana_pref":"ｱｲﾁｹﾝ","kana_city":"ﾆｼｵｼ","kana_address":"ｷﾗﾁｮｳｷﾀﾞ","pref":"愛知県","city":"西尾市","address":"吉良町木田"},
{"zip_code":"4440535","kana_pref":"ｱｲﾁｹﾝ","kana_city":"ﾆｼｵｼ","kana_address":"ｷﾗﾁｮｳｺﾏｷ","pref":"愛知県","city":"西尾市","address":"吉良町小牧"},
{"zip_code":"4440537","kana_pref":"ｱｲﾁｹﾝ","kana_city":"ﾆｼｵｼ","kana_address":"ｷﾗﾁｮｳｻｶｲ","pref":"愛知県","city":"西尾市","address":"吉良町酒井"},
{"zip_code":"4440522","kana_pref":"ｱｲﾁｹﾝ","kana_city":"ﾆｼｵｼ","kana_address":"ｷﾗﾁｮｳｼﾓﾖｺｽｶ","pref":"愛知県","city":"西尾市","address":"吉良町下横須賀"},
{"zip_code":"4440514","kana_pref":"ｱｲﾁｹﾝ","kana_city":"ﾆｼｵｼ","kana_address":"ｷﾗﾁｮｳｼﾗﾊﾏｼﾝﾃﾞﾝ","pref":"愛知県","city":"西尾市","address":"吉良町白浜新田"},
{"zip_code":"4440532","kana_pref":"ｱｲﾁｹﾝ","kana_city":"ﾆｼｵｼ","kana_address":"ｷﾗﾁｮｳｾﾄ","pref":"愛知県","city":"西尾市","address":"吉良町瀬戸"},
{"zip_code":"4440503","kana_pref":"ｱｲﾁｹﾝ","kana_city":"ﾆｼｵｼ","kana_address":"ｷﾗﾁｮｳﾂﾋﾗ","pref":"愛知県","city":"西尾市","address":"吉良町津平"},
{"zip_code":"4440533","kana_pref":"ｱｲﾁｹﾝ","kana_city":"ﾆｼｵｼ","kana_address":"ｷﾗﾁｮｳﾃﾗｼﾞﾏ","pref":"愛知県","city":"西尾市","address":"吉良町寺嶋"},
{"zip_code":"4440525","kana_pref":"ｱｲﾁｹﾝ","kana_city":"ﾆｼｵｼ","kana_address":"ｷﾗﾁｮｳﾄﾐﾀﾞ","pref":"愛知県","city":"西尾市","address":"吉良町富田"},
{"zip_code":"4440515","kana_pref":"ｱｲﾁｹﾝ","kana_city":"ﾆｼｵｼ","kana_address":"ｷﾗﾁｮｳﾄﾐﾖｼｼﾝﾃﾞﾝ","pref":"愛知県","city":"西尾市","address":"吉良町富好新田"},
{"zip_code":"4440504","kana_pref":"ｱｲﾁｹﾝ","kana_city":"ﾆｼｵｼ","kana_address":"ｷﾗﾁｮｳﾄﾓｸﾆ","pref":"愛知県","city":"西尾市","address":"吉良町友国"},
{"zip_code":"4440536","kana_pref":"ｱｲﾁｹﾝ","kana_city":"ﾆｼｵｼ","kana_address":"ｷﾗﾁｮｳﾅｶﾉ","pref":"愛知県","city":"西尾市","address":"吉良町中野"},
{"zip_code":"4440526","kana_pref":"ｱｲﾁｹﾝ","kana_city":"ﾆｼｵｼ","kana_address":"ｷﾗﾁｮｳﾊﾁﾏﾝｶﾜﾀﾞ","pref":"愛知県","city":"西尾市","address":"吉良町八幡川田"},
{"zip_code":"4440501","kana_pref":"ｱｲﾁｹﾝ","kana_city":"ﾆｼｵｼ","kana_address":"ｷﾗﾁｮｳﾏﾀﾞﾗﾒ","pref":"愛知県","city":"西尾市","address":"吉良町駮馬"},
{"zip_code":"4440513","kana_pref":"ｱｲﾁｹﾝ","kana_city":"ﾆｼｵｼ","kana_address":"ｷﾗﾁｮｳﾐﾔｻﾞｷ","pref":"愛知県","city":"西尾市","address":"吉良町宮崎"},
{"zip_code":"4440502","kana_pref":"ｱｲﾁｹﾝ","kana_city":"ﾆｼｵｼ","kana_address":"ｷﾗﾁｮｳﾐﾔﾊﾞ","pref":"愛知県","city":"西尾市","address":"吉良町宮迫"},
{"zip_code":"4440516","kana_pref":"ｱｲﾁｹﾝ","kana_city":"ﾆｼｵｼ","kana_address":"ｷﾗﾁｮｳﾖｼﾀﾞ","pref":"愛知県","city":"西尾市","address":"吉良町吉田"},
{"zip_code":"4440325","kana_pref":"ｱｲﾁｹﾝ","kana_city":"ﾆｼｵｼ","kana_address":"ｸｽﾑﾗﾁｮｳ","pref":"愛知県","city":"西尾市","address":"楠村町"},
{"zip_code":"4440312","kana_pref":"ｱｲﾁｹﾝ","kana_city":"ﾆｼｵｼ","kana_address":"ｸﾆﾓﾘﾁｮｳ","pref":"愛知県","city":"西尾市","address":"国森町"},
{"zip_code":"4440322","kana_pref":"ｱｲﾁｹﾝ","kana_city":"ﾆｼｵｼ","kana_address":"ｺﾐﾁｮｳ","pref":"愛知県","city":"西尾市","address":"巨海町"},
{"zip_code":"4440314","kana_pref":"ｱｲﾁｹﾝ","kana_city":"ﾆｼｵｼ","kana_address":"ｼﾓﾔﾀﾁｮｳ","pref":"愛知県","city":"西尾市","address":"下矢田町"},
{"zip_code":"4440311","kana_pref":"ｱｲﾁｹﾝ","kana_city":"ﾆｼｵｼ","kana_address":"ｼﾝｻﾞｲｹﾁｮｳ","pref":"愛知県","city":"西尾市","address":"新在家町"},
{"zip_code":"4440302","kana_pref":"ｱｲﾁｹﾝ","kana_city":"ﾆｼｵｼ","kana_address":"ﾀﾇｷ","pref":"愛知県","city":"西尾市","address":"田貫"},
{"zip_code":"4440301","kana_pref":"ｱｲﾁｹﾝ","kana_city":"ﾆｼｵｼ","kana_address":"ﾀﾇｷﾁｮｳ","pref":"愛知県","city":"西尾市","address":"田貫町"},
{"zip_code":"4440327","kana_pref":"ｱｲﾁｹﾝ","kana_city":"ﾆｼｵｼ","kana_address":"ﾃﾗﾂﾞ","pref":"愛知県","city":"西尾市","address":"寺津"},
{"zip_code":"4440324","kana_pref":"ｱｲﾁｹﾝ","kana_city":"ﾆｼｵｼ","kana_address":"ﾃﾗﾂﾞﾁｮｳ","pref":"愛知県","city":"西尾市","address":"寺津町"},
{"zip_code":"4440702","kana_pref":"ｱｲﾁｹﾝ","kana_city":"ﾆｼｵｼ","kana_address":"ﾃﾗﾍﾞﾁｮｳ","pref":"愛知県","city":"西尾市","address":"寺部町"},
{"zip_code":"4440315","kana_pref":"ｱｲﾁｹﾝ","kana_city":"ﾆｼｵｼ","kana_address":"ﾄｸﾅｶﾞﾁｮｳ","pref":"愛知県","city":"西尾市","address":"徳永町"},
{"zip_code":"4440704","kana_pref":"ｱｲﾁｹﾝ","kana_city":"ﾆｼｵｼ","kana_address":"ﾄﾊﾞﾁｮｳ","pref":"愛知県","city":"西尾市","address":"鳥羽町"},
{"zip_code":"4440326","kana_pref":"ｱｲﾁｹﾝ","kana_city":"ﾆｼｵｼ","kana_address":"ﾄﾐﾔﾏﾁｮｳ","pref":"愛知県","city":"西尾市","address":"富山町"},
{"zip_code":"4440323","kana_pref":"ｱｲﾁｹﾝ","kana_city":"ﾆｼｵｼ","kana_address":"ﾅｶﾈﾁｮｳ","pref":"愛知県","city":"西尾市","address":"中根町"},
{"zip_code":"4440304","kana_pref":"ｱｲﾁｹﾝ","kana_city":"ﾆｼｵｼ","kana_address":"ﾅｶﾊﾞﾀ","pref":"愛知県","city":"西尾市","address":"中畑"},
{"zip_code":"4440303","kana_pref":"ｱｲﾁｹﾝ","kana_city":"ﾆｼｵｼ","kana_address":"ﾅｶﾊﾞﾀﾁｮｳ","pref":"愛知県","city":"西尾市","address":"中畑町"},
{"zip_code":"4440336","kana_pref":"ｱｲﾁｹﾝ","kana_city":"ﾆｼｵｼ","kana_address":"ﾆｼｵｸﾀﾞﾁｮｳ","pref":"愛知県","city":"西尾市","address":"西奥田町"},
{"zip_code":"4440331","kana_pref":"ｱｲﾁｹﾝ","kana_city":"ﾆｼｵｼ","kana_address":"ﾆｼｺﾅｷﾞﾁｮｳ","pref":"愛知県","city":"西尾市","address":"西小梛町"},
{"zip_code":"4440703","kana_pref":"ｱｲﾁｹﾝ","kana_city":"ﾆｼｵｼ","kana_address":"ﾆｼﾊｽﾞﾁｮｳ","pref":"愛知県","city":"西尾市","address":"西幡豆町"},
{"zip_code":"4440316","kana_pref":"ｱｲﾁｹﾝ","kana_city":"ﾆｼｵｼ","kana_address":"ﾊﾂｶﾁｮｳ","pref":"愛知県","city":"西尾市","address":"羽塚町"},
{"zip_code":"4440701","kana_pref":"ｱｲﾁｹﾝ","kana_city":"ﾆｼｵｼ","kana_address":"ﾋｶﾞｼﾊｽﾞﾁｮｳ","pref":"愛知県","city":"西尾市","address":"東幡豆町"},
{"zip_code":"4440305","kana_pref":"ｱｲﾁｹﾝ","kana_city":"ﾆｼｵｼ","kana_address":"ﾍｲｻｶﾁｮｳ","pref":"愛知県","city":"西尾市","address":"平坂町"},
{"zip_code":"4440335","kana_pref":"ｱｲﾁｹﾝ","kana_city":"ﾆｼｵｼ","kana_address":"ﾐﾅﾄﾏﾁ","pref":"愛知県","city":"西尾市","address":"港町"},
{"zip_code":"4440334","kana_pref":"ｱｲﾁｹﾝ","kana_city":"ﾆｼｵｼ","kana_address":"ﾐﾅﾐｵｸﾀﾞﾁｮｳ","pref":"愛知県","city":"西尾市","address":"南奥田町"},
{"zip_code":"4441300","kana_pref":"ｱｲﾁｹﾝ","kana_city":"ﾀｶﾊﾏｼ","kana_address":"","pref":"愛知県","city":"高浜市","address":""},
{"zip_code":"4441325","kana_pref":"ｱｲﾁｹﾝ","kana_city":"ﾀｶﾊﾏｼ","kana_address":"ｱｵｷﾁｮｳ","pref":"愛知県","city":"高浜市","address":"青木町"},
{"zip_code":"4441324","kana_pref":"ｱｲﾁｹﾝ","kana_city":"ﾀｶﾊﾏｼ","kana_address":"ｱｵﾐﾁｮｳ","pref":"愛知県","city":"高浜市","address":"碧海町"},
{"zip_code":"4441334","kana_pref":"ｱｲﾁｹﾝ","kana_city":"ﾀｶﾊﾏｼ","kana_address":"ｶｽｶﾞﾁｮｳ","pref":"愛知県","city":"高浜市","address":"春日町"},
{"zip_code":"4441336","kana_pref":"ｱｲﾁｹﾝ","kana_city":"ﾀｶﾊﾏｼ","kana_address":"ｸﾚﾀｹﾁｮｳ","pref":"愛知県","city":"高浜市","address":"呉竹町"},
{"zip_code":"4441303","kana_pref":"ｱｲﾁｹﾝ","kana_city":"ﾀｶﾊﾏｼ","kana_address":"ｺｲｹﾁｮｳ","pref":"愛知県","city":"高浜市","address":"小池町"},
{"zip_code":"4441333","kana_pref":"ｱｲﾁｹﾝ","kana_city":"ﾀｶﾊﾏｼ","kana_address":"ｻﾜﾀﾘﾁｮｳ","pref":"愛知県","city":"高浜市","address":"沢渡町"},
{"zip_code":"4441312","kana_pref":"ｱｲﾁｹﾝ","kana_city":"ﾀｶﾊﾏｼ","kana_address":"ｼﾐｽﾞﾁｮｳ","pref":"愛知県","city":"高浜市","address":"清水町"},
{"zip_code":"4441301","kana_pref":"ｱｲﾁｹﾝ","kana_city":"ﾀｶﾊﾏｼ","kana_address":"ｼﾝﾃﾞﾝﾁｮｳ","pref":"愛知県","city":"高浜市","address":"新田町"},
{"zip_code":"4441305","kana_pref":"ｱｲﾁｹﾝ","kana_city":"ﾀｶﾊﾏｼ","kana_address":"ｼﾝﾒｲﾁｮｳ","pref":"愛知県","city":"高浜市","address":"神明町"},
{"zip_code":"4441323","kana_pref":"ｱｲﾁｹﾝ","kana_city":"ﾀｶﾊﾏｼ","kana_address":"ﾀﾄﾞﾁｮｳ","pref":"愛知県","city":"高浜市","address":"田戸町"},
{"zip_code":"4441304","kana_pref":"ｱｲﾁｹﾝ","kana_city":"ﾀｶﾊﾏｼ","kana_address":"ﾄﾖﾀﾞﾁｮｳ","pref":"愛知県","city":"高浜市","address":"豊田町"},
{"zip_code":"4441302","kana_pref":"ｱｲﾁｹﾝ","kana_city":"ﾀｶﾊﾏｼ","kana_address":"ﾊﾁﾏﾝﾁｮｳ","pref":"愛知県","city":"高浜市","address":"八幡町"},
{"zip_code":"4441321","kana_pref":"ｱｲﾁｹﾝ","kana_city":"ﾀｶﾊﾏｼ","kana_address":"ﾋｴﾀﾞﾁｮｳ","pref":"愛知県","city":"高浜市","address":"稗田町"},
{"zip_code":"4441322","kana_pref":"ｱｲﾁｹﾝ","kana_city":"ﾀｶﾊﾏｼ","kana_address":"ﾌﾀﾂｲｹﾁｮｳ","pref":"愛知県","city":"高浜市","address":"二池町"},
{"zip_code":"4441311","kana_pref":"ｱｲﾁｹﾝ","kana_city":"ﾀｶﾊﾏｼ","kana_address":"ﾎﾝｺﾞｳﾁｮｳ","pref":"愛知県","city":"高浜市","address":"本郷町"},
{"zip_code":"4441313","kana_pref":"ｱｲﾁｹﾝ","kana_city":"ﾀｶﾊﾏｼ","kana_address":"ﾑｶｲﾔﾏﾁｮｳ","pref":"愛知県","city":"高浜市","address":"向山町"},
{"zip_code":"4441331","kana_pref":"ｱｲﾁｹﾝ","kana_city":"ﾀｶﾊﾏｼ","kana_address":"ﾔｼｷﾁｮｳ","pref":"愛知県","city":"高浜市","address":"屋敷町"},
{"zip_code":"4441332","kana_pref":"ｱｲﾁｹﾝ","kana_city":"ﾀｶﾊﾏｼ","kana_address":"ﾕﾔﾏﾁｮｳ","pref":"愛知県","city":"高浜市","address":"湯山町"},
{"zip_code":"4441335","kana_pref":"ｱｲﾁｹﾝ","kana_city":"ﾀｶﾊﾏｼ","kana_address":"ﾖｼｶﾜﾁｮｳ","pref":"愛知県","city":"高浜市","address":"芳川町"},
{"zip_code":"4441314","kana_pref":"ｱｲﾁｹﾝ","kana_city":"ﾀｶﾊﾏｼ","kana_address":"ﾛﾝﾁﾁｮｳ","pref":"愛知県","city":"高浜市","address":"論地町"},
{"zip_code":"4440100","kana_pref":"ｱｲﾁｹﾝ","kana_city":"ﾇｶﾀｸﾞﾝｺｳﾀﾁｮｳ","kana_address":"","pref":"愛知県","city":"額田郡幸田町","address":""},
{"zip_code":"4440116","kana_pref":"ｱｲﾁｹﾝ","kana_city":"ﾇｶﾀｸﾞﾝｺｳﾀﾁｮｳ","kana_address":"ｱｼﾉﾔ","pref":"愛知県","city":"額田郡幸田町","address":"芦谷"},
{"zip_code":"4440103","kana_pref":"ｱｲﾁｹﾝ","kana_city":"ﾇｶﾀｸﾞﾝｺｳﾀﾁｮｳ","kana_address":"ｵｵｸｻ","pref":"愛知県","city":"額田郡幸田町","address":"大草"},
{"zip_code":"4440115","kana_pref":"ｱｲﾁｹﾝ","kana_city":"ﾇｶﾀｸﾞﾝｺｳﾀﾁｮｳ","kana_address":"ｵｷﾞ","pref":"愛知県","city":"額田郡幸田町","address":"荻"},
{"zip_code":"4440123","kana_pref":"ｱｲﾁｹﾝ","kana_city":"ﾇｶﾀｸﾞﾝｺｳﾀﾁｮｳ","kana_address":"ｶﾐﾑﾂｸﾞﾘ","pref":"愛知県","city":"額田郡幸田町","address":"上六栗"},
{"zip_code":"4440112","kana_pref":"ｱｲﾁｹﾝ","kana_city":"ﾇｶﾀｸﾞﾝｺｳﾀﾁｮｳ","kana_address":"ｷﾀﾜｼﾀﾞ","pref":"愛知県","city":"額田郡幸田町","address":"北鷲田"},
{"zip_code":"4440126","kana_pref":"ｱｲﾁｹﾝ","kana_city":"ﾇｶﾀｸﾞﾝｺｳﾀﾁｮｳ","kana_address":"ｷﾘﾔﾏ","pref":"愛知県","city":"額田郡幸田町","address":"桐山"},
{"zip_code":"4440102","kana_pref":"ｱｲﾁｹﾝ","kana_city":"ﾇｶﾀｸﾞﾝｺｳﾀﾁｮｳ","kana_address":"ｸﾎﾞﾀ","pref":"愛知県","city":"額田郡幸田町","address":"久保田"},
{"zip_code":"4440111","kana_pref":"ｱｲﾁｹﾝ","kana_city":"ﾇｶﾀｸﾞﾝｺｳﾀﾁｮｳ","kana_address":"ｺｳﾘｷ","pref":"愛知県","city":"額田郡幸田町","address":"高力"},
{"zip_code":"4440125","kana_pref":"ｱｲﾁｹﾝ","kana_city":"ﾇｶﾀｸﾞﾝｺｳﾀﾁｮｳ","kana_address":"ｻｶｻｶﾞﾜ","pref":"愛知県","city":"額田郡幸田町","address":"逆川"},
{"zip_code":"4440104","kana_pref":"ｱｲﾁｹﾝ","kana_city":"ﾇｶﾀｸﾞﾝｺｳﾀﾁｮｳ","kana_address":"ｻｶｻﾞｷ","pref":"愛知県","city":"額田郡幸田町","address":"坂崎"},
{"zip_code":"4440127","kana_pref":"ｱｲﾁｹﾝ","kana_city":"ﾇｶﾀｸﾞﾝｺｳﾀﾁｮｳ","kana_address":"ｽﾐ","pref":"愛知県","city":"額田郡幸田町","address":"須美"},
{"zip_code":"4440121","kana_pref":"ｱｲﾁｹﾝ","kana_city":"ﾇｶﾀｸﾞﾝｺｳﾀﾁｮｳ","kana_address":"ﾅｶﾞﾉ","pref":"愛知県","city":"額田郡幸田町","address":"永野"},
{"zip_code":"4440101","kana_pref":"ｱｲﾁｹﾝ","kana_city":"ﾇｶﾀｸﾞﾝｺｳﾀﾁｮｳ","kana_address":"ﾅｶﾞﾐﾈ","pref":"愛知県","city":"額田郡幸田町","address":"長嶺"},
{"zip_code":"4440128","kana_pref":"ｱｲﾁｹﾝ","kana_city":"ﾇｶﾀｸﾞﾝｺｳﾀﾁｮｳ","kana_address":"ﾉﾊﾞ","pref":"愛知県","city":"額田郡幸田町","address":"野場"},
{"zip_code":"4440113","kana_pref":"ｱｲﾁｹﾝ","kana_city":"ﾇｶﾀｸﾞﾝｺｳﾀﾁｮｳ","kana_address":"ﾋｼｲｹ","pref":"愛知県","city":"額田郡幸田町","address":"菱池"},
{"zip_code":"4440124","kana_pref":"ｱｲﾁｹﾝ","kana_city":"ﾇｶﾀｸﾞﾝｺｳﾀﾁｮｳ","kana_address":"ﾌｺｳｽﾞ","pref":"愛知県","city":"額田郡幸田町","address":"深溝"},
{"zip_code":"4440122","kana_pref":"ｱｲﾁｹﾝ","kana_city":"ﾇｶﾀｸﾞﾝｺｳﾀﾁｮｳ","kana_address":"ﾑﾂｸﾞﾘ","pref":"愛知県","city":"額田郡幸田町","address":"六栗"},
{"zip_code":"4440114","kana_pref":"ｱｲﾁｹﾝ","kana_city":"ﾇｶﾀｸﾞﾝｺｳﾀﾁｮｳ","kana_address":"ﾖｺｵﾁ","pref":"愛知県","city":"額田郡幸田町","address":"横落"}]}