{"zip_code":[
{"zip_code":"4480000","kana_pref":"ｱｲﾁｹﾝ","kana_city":"ｶﾘﾔｼ","kana_address":"","pref":"愛知県","city":"刈谷市","address":""},
{"zip_code":"4480027","kana_pref":"ｱｲﾁｹﾝ","kana_city":"ｶﾘﾔｼ","kana_address":"ｱｲｵｲﾁｮｳ","pref":"愛知県","city":"刈谷市","address":"相生町"},
{"zip_code":"4480838","kana_pref":"ｱｲﾁｹﾝ","kana_city":"ｶﾘﾔｼ","kana_address":"ｱｲﾂﾞﾏﾁｮｳ","pref":"愛知県","city":"刈谷市","address":"逢妻町"},
{"zip_code":"4480014","kana_pref":"ｱｲﾁｹﾝ","kana_city":"ｶﾘﾔｼ","kana_address":"ｱｵﾔﾏﾁｮｳ","pref":"愛知県","city":"刈谷市","address":"青山町"},
{"zip_code":"4480032","kana_pref":"ｱｲﾁｹﾝ","kana_city":"ｶﾘﾔｼ","kana_address":"ｱｻﾋﾏﾁ","pref":"愛知県","city":"刈谷市","address":"朝日町"},
{"zip_code":"4480814","kana_pref":"ｱｲﾁｹﾝ","kana_city":"ｶﾘﾔｼ","kana_address":"ｱﾗｲﾁｮｳ","pref":"愛知県","city":"刈谷市","address":"荒井町"},
{"zip_code":"4480001","kana_pref":"ｱｲﾁｹﾝ","kana_city":"ｶﾘﾔｼ","kana_address":"ｲｶﾞﾔﾁｮｳ","pref":"愛知県","city":"刈谷市","address":"井ケ谷町"},
{"zip_code":"4480044","kana_pref":"ｱｲﾁｹﾝ","kana_city":"ｶﾘﾔｼ","kana_address":"ｲｹﾀﾞﾁｮｳ","pref":"愛知県","city":"刈谷市","address":"池田町"},
{"zip_code":"4480022","kana_pref":"ｱｲﾁｹﾝ","kana_city":"ｶﾘﾔｼ","kana_address":"ｲｼｷﾁｮｳ","pref":"愛知県","city":"刈谷市","address":"一色町"},
{"zip_code":"4480004","kana_pref":"ｱｲﾁｹﾝ","kana_city":"ｶﾘﾔｼ","kana_address":"ｲｽﾞﾐﾀﾞﾁｮｳ","pref":"愛知県","city":"刈谷市","address":"泉田町"},
{"zip_code":"4480801","kana_pref":"ｱｲﾁｹﾝ","kana_city":"ｶﾘﾔｼ","kana_address":"ｲﾀｸﾗﾁｮｳ","pref":"愛知県","city":"刈谷市","address":"板倉町"},
{"zip_code":"4480041","kana_pref":"ｱｲﾁｹﾝ","kana_city":"ｶﾘﾔｼ","kana_address":"ｲﾁﾊﾞﾝﾁｮｳ","pref":"愛知県","city":"刈谷市","address":"一番町"},
{"zip_code":"4480002","kana_pref":"ｱｲﾁｹﾝ","kana_city":"ｶﾘﾔｼ","kana_address":"ｲﾁﾘﾔﾏﾁｮｳ","pref":"愛知県","city":"刈谷市","address":"一里山町"},
{"zip_code":"4480038","kana_pref":"ｱｲﾁｹﾝ","kana_city":"ｶﾘﾔｼ","kana_address":"ｲﾅﾊﾞﾁｮｳ","pref":"愛知県","city":"刈谷市","address":"稲場町"},
{"zip_code":"4480008","kana_pref":"ｱｲﾁｹﾝ","kana_city":"ｶﾘﾔｼ","kana_address":"ｲﾏｵｶﾁｮｳ","pref":"愛知県","city":"刈谷市","address":"今岡町"},
{"zip_code":"4480005","kana_pref":"ｱｲﾁｹﾝ","kana_city":"ｶﾘﾔｼ","kana_address":"ｲﾏｶﾞﾜﾁｮｳ","pref":"愛知県","city":"刈谷市","address":"今川町"},
{"zip_code":"4480857","kana_pref":"ｱｲﾁｹﾝ","kana_city":"ｶﾘﾔｼ","kana_address":"ｵｵﾃﾏﾁ","pref":"愛知県","city":"刈谷市","address":"大手町"},
{"zip_code":"4480813","kana_pref":"ｱｲﾁｹﾝ","kana_city":"ｶﾘﾔｼ","kana_address":"ｵｶﾞｷｴﾁｮｳ","pref":"愛知県","city":"刈谷市","address":"小垣江町"},
{"zip_code":"4480808","kana_pref":"ｱｲﾁｹﾝ","kana_city":"ｶﾘﾔｼ","kana_address":"ｵｷﾉﾁｮｳ","pref":"愛知県","city":"刈谷市","address":"沖野町"},
{"zip_code":"4480043","kana_pref":"ｱｲﾁｹﾝ","kana_city":"ｶﾘﾔｼ","kana_address":"ｵﾔﾏﾁｮｳ","pref":"愛知県","city":"刈谷市","address":"小山町"},
{"zip_code":"4480013","kana_pref":"ｱｲﾁｹﾝ","kana_city":"ｶﾘﾔｼ","kana_address":"ｵﾝﾀﾞﾁｮｳ","pref":"愛知県","city":"刈谷市","address":"恩田町"},
{"zip_code":"4480012","kana_pref":"ｱｲﾁｹﾝ","kana_city":"ｶﾘﾔｼ","kana_address":"ｶﾐｼｹﾞﾊﾗﾁｮｳ","pref":"愛知県","city":"刈谷市","address":"上重原町"},
{"zip_code":"4480851","kana_pref":"ｱｲﾁｹﾝ","kana_city":"ｶﾘﾔｼ","kana_address":"ｶﾝﾀﾞﾁｮｳ","pref":"愛知県","city":"刈谷市","address":"神田町"},
{"zip_code":"4480845","kana_pref":"ｱｲﾁｹﾝ","kana_city":"ｶﾘﾔｼ","kana_address":"ｷﾞﾝｻﾞ","pref":"愛知県","city":"刈谷市","address":"銀座"},
{"zip_code":"4480831","kana_pref":"ｱｲﾁｹﾝ","kana_city":"ｶﾘﾔｼ","kana_address":"ｸﾏﾉﾁｮｳ","pref":"愛知県","city":"刈谷市","address":"熊野町"},
{"zip_code":"4480856","kana_pref":"ｱｲﾁｹﾝ","kana_city":"ｶﾘﾔｼ","kana_address":"ｺﾄﾌﾞｷﾁｮｳ","pref":"愛知県","city":"刈谷市","address":"寿町"},
{"zip_code":"4480837","kana_pref":"ｱｲﾁｹﾝ","kana_city":"ｶﾘﾔｼ","kana_address":"ｺﾛﾓｻﾞｷﾁｮｳ","pref":"愛知県","city":"刈谷市","address":"衣崎町"},
{"zip_code":"4480025","kana_pref":"ｱｲﾁｹﾝ","kana_city":"ｶﾘﾔｼ","kana_address":"ｻｲﾜｲﾁｮｳ","pref":"愛知県","city":"刈谷市","address":"幸町"},
{"zip_code":"4480028","kana_pref":"ｱｲﾁｹﾝ","kana_city":"ｶﾘﾔｼ","kana_address":"ｻｸﾗﾏﾁ","pref":"愛知県","city":"刈谷市","address":"桜町"},
{"zip_code":"4480023","kana_pref":"ｱｲﾁｹﾝ","kana_city":"ｶﾘﾔｼ","kana_address":"ｼｹﾞﾊﾗﾎﾝﾏﾁ","pref":"愛知県","city":"刈谷市","address":"重原本町"},
{"zip_code":"4480024","kana_pref":"ｱｲﾁｹﾝ","kana_city":"ｶﾘﾔｼ","kana_address":"ｼﾓｼｹﾞﾊﾗﾁｮｳ","pref":"愛知県","city":"刈谷市","address":"下重原町"},
{"zip_code":"4480806","kana_pref":"ｱｲﾁｹﾝ","kana_city":"ｶﾘﾔｼ","kana_address":"ｼｮｳｴｲﾁｮｳ","pref":"愛知県","city":"刈谷市","address":"松栄町"},
{"zip_code":"4480029","kana_pref":"ｱｲﾁｹﾝ","kana_city":"ｶﾘﾔｼ","kana_address":"ｼｮｳﾜﾁｮｳ","pref":"愛知県","city":"刈谷市","address":"昭和町"},
{"zip_code":"4480833","kana_pref":"ｱｲﾁｹﾝ","kana_city":"ｶﾘﾔｼ","kana_address":"ｼﾛﾏﾁ","pref":"愛知県","city":"刈谷市","address":"城町"},
{"zip_code":"4480843","kana_pref":"ｱｲﾁｹﾝ","kana_city":"ｶﾘﾔｼ","kana_address":"ｼﾝｻｶｴﾏﾁ","pref":"愛知県","city":"刈谷市","address":"新栄町"},
{"zip_code":"4480015","kana_pref":"ｱｲﾁｹﾝ","kana_city":"ｶﾘﾔｼ","kana_address":"ｼﾝﾃﾞﾝﾁｮｳ","pref":"愛知県","city":"刈谷市","address":"新田町"},
{"zip_code":"4480045","kana_pref":"ｱｲﾁｹﾝ","kana_city":"ｶﾘﾔｼ","kana_address":"ｼﾝﾄﾐﾁｮｳ","pref":"愛知県","city":"刈谷市","address":"新富町"},
{"zip_code":"4480034","kana_pref":"ｱｲﾁｹﾝ","kana_city":"ｶﾘﾔｼ","kana_address":"ｼﾝﾒｲﾁｮｳ","pref":"愛知県","city":"刈谷市","address":"神明町"},
{"zip_code":"4480802","kana_pref":"ｱｲﾁｹﾝ","kana_city":"ｶﾘﾔｼ","kana_address":"ｽｴﾋﾛﾁｮｳ","pref":"愛知県","city":"刈谷市","address":"末広町"},
{"zip_code":"4480852","kana_pref":"ｱｲﾁｹﾝ","kana_city":"ｶﾘﾔｼ","kana_address":"ｽﾐﾖｼﾁｮｳ","pref":"愛知県","city":"刈谷市","address":"住吉町"},
{"zip_code":"4480855","kana_pref":"ｱｲﾁｹﾝ","kana_city":"ｶﾘﾔｼ","kana_address":"ﾀｲｼｮｳﾏﾁ","pref":"愛知県","city":"刈谷市","address":"大正町"},
{"zip_code":"4480037","kana_pref":"ｱｲﾁｹﾝ","kana_city":"ｶﾘﾔｼ","kana_address":"ﾀｶｸﾗﾁｮｳ","pref":"愛知県","city":"刈谷市","address":"高倉町"},
{"zip_code":"4480812","kana_pref":"ｱｲﾁｹﾝ","kana_city":"ｶﾘﾔｼ","kana_address":"ﾀｶｽﾁｮｳ","pref":"愛知県","city":"刈谷市","address":"高須町"},
{"zip_code":"4480047","kana_pref":"ｱｲﾁｹﾝ","kana_city":"ｶﾘﾔｼ","kana_address":"ﾀｶﾂﾅﾐﾁｮｳ","pref":"愛知県","city":"刈谷市","address":"高津波町"},
{"zip_code":"4480853","kana_pref":"ｱｲﾁｹﾝ","kana_city":"ｶﾘﾔｼ","kana_address":"ﾀｶﾏﾂﾁｮｳ","pref":"愛知県","city":"刈谷市","address":"高松町"},
{"zip_code":"4480847","kana_pref":"ｱｲﾁｹﾝ","kana_city":"ｶﾘﾔｼ","kana_address":"ﾀｶﾗﾏﾁ","pref":"愛知県","city":"刈谷市","address":"宝町"},
{"zip_code":"4480811","kana_pref":"ｱｲﾁｹﾝ","kana_city":"ｶﾘﾔｼ","kana_address":"ﾀﾏﾁ","pref":"愛知県","city":"刈谷市","address":"田町"},
{"zip_code":"4480011","kana_pref":"ｱｲﾁｹﾝ","kana_city":"ｶﾘﾔｼ","kana_address":"ﾂｲｼﾞﾁｮｳ","pref":"愛知県","city":"刈谷市","address":"築地町"},
{"zip_code":"4480834","kana_pref":"ｱｲﾁｹﾝ","kana_city":"ｶﾘﾔｼ","kana_address":"ﾂｶｻﾁｮｳ","pref":"愛知県","city":"刈谷市","address":"司町"},
{"zip_code":"4480846","kana_pref":"ｱｲﾁｹﾝ","kana_city":"ｶﾘﾔｼ","kana_address":"ﾃﾗﾖｺﾁｮｳ","pref":"愛知県","city":"刈谷市","address":"寺横町"},
{"zip_code":"4480824","kana_pref":"ｱｲﾁｹﾝ","kana_city":"ｶﾘﾔｼ","kana_address":"ﾃﾝﾉｳﾁｮｳ","pref":"愛知県","city":"刈谷市","address":"天王町"},
{"zip_code":"4480031","kana_pref":"ｱｲﾁｹﾝ","kana_city":"ｶﾘﾔｼ","kana_address":"ﾄｳｼﾝﾁｮｳ","pref":"愛知県","city":"刈谷市","address":"東新町"},
{"zip_code":"4480842","kana_pref":"ｱｲﾁｹﾝ","kana_city":"ｶﾘﾔｼ","kana_address":"ﾄｳﾖｳﾁｮｳ","pref":"愛知県","city":"刈谷市","address":"東陽町"},
{"zip_code":"4480848","kana_pref":"ｱｲﾁｹﾝ","kana_city":"ｶﾘﾔｼ","kana_address":"ﾄﾖﾀﾞﾁｮｳ","pref":"愛知県","city":"刈谷市","address":"豊田町"},
{"zip_code":"4480823","kana_pref":"ｱｲﾁｹﾝ","kana_city":"ｶﾘﾔｼ","kana_address":"ﾅｶｶﾞﾜﾁｮｳ","pref":"愛知県","city":"刈谷市","address":"中川町"},
{"zip_code":"4480815","kana_pref":"ｱｲﾁｹﾝ","kana_city":"ｶﾘﾔｼ","kana_address":"ﾅｶｼﾞﾏﾁｮｳ","pref":"愛知県","city":"刈谷市","address":"中島町"},
{"zip_code":"4480049","kana_pref":"ｱｲﾁｹﾝ","kana_city":"ｶﾘﾔｼ","kana_address":"ﾅｶﾃﾁｮｳ","pref":"愛知県","city":"刈谷市","address":"中手町"},
{"zip_code":"4480026","kana_pref":"ｱｲﾁｹﾝ","kana_city":"ｶﾘﾔｼ","kana_address":"ﾅｶﾔﾏﾁｮｳ","pref":"愛知県","city":"刈谷市","address":"中山町"},
{"zip_code":"4480006","kana_pref":"ｱｲﾁｹﾝ","kana_city":"ｶﾘﾔｼ","kana_address":"ﾆｼｻﾞｶｲﾁｮｳ","pref":"愛知県","city":"刈谷市","address":"西境町"},
{"zip_code":"4480862","kana_pref":"ｱｲﾁｹﾝ","kana_city":"ｶﾘﾔｼ","kana_address":"ﾉﾀﾞｼﾝﾏﾁ","pref":"愛知県","city":"刈谷市","address":"野田新町"},
{"zip_code":"4480803","kana_pref":"ｱｲﾁｹﾝ","kana_city":"ｶﾘﾔｼ","kana_address":"ﾉﾀﾞﾁｮｳ","pref":"愛知県","city":"刈谷市","address":"野田町"},
{"zip_code":"4480861","kana_pref":"ｱｲﾁｹﾝ","kana_city":"ｶﾘﾔｼ","kana_address":"ﾊｼﾞｮｳﾄﾞｷﾀﾏﾁ","pref":"愛知県","city":"刈谷市","address":"半城土北町"},
{"zip_code":"4480804","kana_pref":"ｱｲﾁｹﾝ","kana_city":"ｶﾘﾔｼ","kana_address":"ﾊｼﾞｮｳﾄﾞﾁｮｳ","pref":"愛知県","city":"刈谷市","address":"半城土町"},
{"zip_code":"4480805","kana_pref":"ｱｲﾁｹﾝ","kana_city":"ｶﾘﾔｼ","kana_address":"ﾊｼﾞｮｳﾄﾞﾅｶﾏﾁ","pref":"愛知県","city":"刈谷市","address":"半城土中町"},
{"zip_code":"4480816","kana_pref":"ｱｲﾁｹﾝ","kana_city":"ｶﾘﾔｼ","kana_address":"ﾊｼﾞｮｳﾄﾞﾆｼﾏﾁ","pref":"愛知県","city":"刈谷市","address":"半城土西町"},
{"zip_code":"4480021","kana_pref":"ｱｲﾁｹﾝ","kana_city":"ｶﾘﾔｼ","kana_address":"ﾊﾁｹﾝﾁｮｳ","pref":"愛知県","city":"刈谷市","address":"八軒町"},
{"zip_code":"4480832","kana_pref":"ｱｲﾁｹﾝ","kana_city":"ｶﾘﾔｼ","kana_address":"ﾊﾁﾏﾝﾁｮｳ","pref":"愛知県","city":"刈谷市","address":"八幡町"},
{"zip_code":"4480836","kana_pref":"ｱｲﾁｹﾝ","kana_city":"ｶﾘﾔｼ","kana_address":"ﾊﾏﾁｮｳ","pref":"愛知県","city":"刈谷市","address":"浜町"},
{"zip_code":"4480039","kana_pref":"ｱｲﾁｹﾝ","kana_city":"ｶﾘﾔｼ","kana_address":"ﾊﾗｻｷﾁｮｳ","pref":"愛知県","city":"刈谷市","address":"原崎町"},
{"zip_code":"4480810","kana_pref":"ｱｲﾁｹﾝ","kana_city":"ｶﾘﾔｼ","kana_address":"ﾊﾞﾜﾘﾁｮｳ","pref":"愛知県","city":"刈谷市","address":"場割町"},
{"zip_code":"4480807","kana_pref":"ｱｲﾁｹﾝ","kana_city":"ｶﾘﾔｼ","kana_address":"ﾋｶﾞｼｶﾘﾔﾁｮｳ","pref":"愛知県","city":"刈谷市","address":"東刈谷町"},
{"zip_code":"4480007","kana_pref":"ｱｲﾁｹﾝ","kana_city":"ｶﾘﾔｼ","kana_address":"ﾋｶﾞｼｻﾞｶｲﾁｮｳ","pref":"愛知県","city":"刈谷市","address":"東境町"},
{"zip_code":"4480046","kana_pref":"ｱｲﾁｹﾝ","kana_city":"ｶﾘﾔｼ","kana_address":"ﾋﾀﾞｶﾁｮｳ","pref":"愛知県","city":"刈谷市","address":"日高町"},
{"zip_code":"4480003","kana_pref":"ｱｲﾁｹﾝ","kana_city":"ｶﾘﾔｼ","kana_address":"ﾋﾄﾂｷﾞﾁｮｳ","pref":"愛知県","city":"刈谷市","address":"一ツ木町"},
{"zip_code":"4480844","kana_pref":"ｱｲﾁｹﾝ","kana_city":"ｶﾘﾔｼ","kana_address":"ﾋﾛｺｳｼﾞ","pref":"愛知県","city":"刈谷市","address":"広小路"},
{"zip_code":"4480042","kana_pref":"ｱｲﾁｹﾝ","kana_city":"ｶﾘﾔｼ","kana_address":"ﾋﾛﾐﾁｮｳ","pref":"愛知県","city":"刈谷市","address":"広見町"},
{"zip_code":"4480854","kana_pref":"ｱｲﾁｹﾝ","kana_city":"ｶﾘﾔｼ","kana_address":"ﾌｼﾞﾐﾁｮｳ","pref":"愛知県","city":"刈谷市","address":"富士見町"},
{"zip_code":"4480822","kana_pref":"ｱｲﾁｹﾝ","kana_city":"ｶﾘﾔｼ","kana_address":"ﾏﾂｻﾞｶﾁｮｳ","pref":"愛知県","city":"刈谷市","address":"松坂町"},
{"zip_code":"4480033","kana_pref":"ｱｲﾁｹﾝ","kana_city":"ｶﾘﾔｼ","kana_address":"ﾏﾙﾀﾁｮｳ","pref":"愛知県","city":"刈谷市","address":"丸田町"},
{"zip_code":"4480048","kana_pref":"ｱｲﾁｹﾝ","kana_city":"ｶﾘﾔｼ","kana_address":"ﾐﾀﾁｮｳ","pref":"愛知県","city":"刈谷市","address":"三田町"},
{"zip_code":"4480835","kana_pref":"ｱｲﾁｹﾝ","kana_city":"ｶﾘﾔｼ","kana_address":"ﾐﾅﾄﾏﾁ","pref":"愛知県","city":"刈谷市","address":"港町"},
{"zip_code":"4480809","kana_pref":"ｱｲﾁｹﾝ","kana_city":"ｶﾘﾔｼ","kana_address":"ﾐﾅﾐｵｷﾉﾁｮｳ","pref":"愛知県","city":"刈谷市","address":"南沖野町"},
{"zip_code":"4480841","kana_pref":"ｱｲﾁｹﾝ","kana_city":"ｶﾘﾔｼ","kana_address":"ﾐﾅﾐｻｸﾗﾏﾁ","pref":"愛知県","city":"刈谷市","address":"南桜町"},
{"zip_code":"4480821","kana_pref":"ｱｲﾁｹﾝ","kana_city":"ｶﾘﾔｼ","kana_address":"ﾐﾕｷﾁｮｳ","pref":"愛知県","city":"刈谷市","address":"御幸町"},
{"zip_code":"4480825","kana_pref":"ｱｲﾁｹﾝ","kana_city":"ｶﾘﾔｼ","kana_address":"ﾓﾄﾏﾁ","pref":"愛知県","city":"刈谷市","address":"元町"},
{"zip_code":"4480035","kana_pref":"ｱｲﾁｹﾝ","kana_city":"ｶﾘﾔｼ","kana_address":"ﾔﾊﾞﾁｮｳ","pref":"愛知県","city":"刈谷市","address":"矢場町"},
{"zip_code":"4480036","kana_pref":"ｱｲﾁｹﾝ","kana_city":"ｶﾘﾔｼ","kana_address":"ﾔﾏｲｹﾁｮｳ","pref":"愛知県","city":"刈谷市","address":"山池町"},
{"zip_code":"4480858","kana_pref":"ｱｲﾁｹﾝ","kana_city":"ｶﾘﾔｼ","kana_address":"ﾜｶﾏﾂﾁｮｳ","pref":"愛知県","city":"刈谷市","address":"若松町"}]}