{"zip_code":[
{"zip_code":"4490200","kana_pref":"ｱｲﾁｹﾝ","kana_city":"ｷﾀｼﾀﾗｸﾞﾝﾄｳｴｲﾁｮｳ","kana_address":"","pref":"愛知県","city":"北設楽郡東栄町","address":""},
{"zip_code":"4490202","kana_pref":"ｱｲﾁｹﾝ","kana_city":"ｷﾀｼﾀﾗｸﾞﾝﾄｳｴｲﾁｮｳ","kana_address":"ｱｼｺﾒ","pref":"愛知県","city":"北設楽郡東栄町","address":"足込"},
{"zip_code":"4490205","kana_pref":"ｱｲﾁｹﾝ","kana_city":"ｷﾀｼﾀﾗｸﾞﾝﾄｳｴｲﾁｮｳ","kana_address":"ｶﾜｶﾄﾞ","pref":"愛知県","city":"北設楽郡東栄町","address":"川角"},
{"zip_code":"4490206","kana_pref":"ｱｲﾁｹﾝ","kana_city":"ｷﾀｼﾀﾗｸﾞﾝﾄｳｴｲﾁｮｳ","kana_address":"ｼﾓﾀﾞ","pref":"愛知県","city":"北設楽郡東栄町","address":"下田"},
{"zip_code":"4490212","kana_pref":"ｱｲﾁｹﾝ","kana_city":"ｷﾀｼﾀﾗｸﾞﾝﾄｳｴｲﾁｮｳ","kana_address":"ﾂｷ","pref":"愛知県","city":"北設楽郡東栄町","address":"月"},
{"zip_code":"4490211","kana_pref":"ｱｲﾁｹﾝ","kana_city":"ｷﾀｼﾀﾗｸﾞﾝﾄｳｴｲﾁｮｳ","kana_address":"ﾅｶｼﾀﾗ","pref":"愛知県","city":"北設楽郡東栄町","address":"中設楽"},
{"zip_code":"4490215","kana_pref":"ｱｲﾁｹﾝ","kana_city":"ｷﾀｼﾀﾗｸﾞﾝﾄｳｴｲﾁｮｳ","kana_address":"ﾅﾈ","pref":"愛知県","city":"北設楽郡東栄町","address":"奈根"},
{"zip_code":"4490204","kana_pref":"ｱｲﾁｹﾝ","kana_city":"ｷﾀｼﾀﾗｸﾞﾝﾄｳｴｲﾁｮｳ","kana_address":"ﾆｼｿﾉﾒ","pref":"愛知県","city":"北設楽郡東栄町","address":"西薗目"},
{"zip_code":"4490203","kana_pref":"ｱｲﾁｹﾝ","kana_city":"ｷﾀｼﾀﾗｸﾞﾝﾄｳｴｲﾁｮｳ","kana_address":"ﾋｶﾞｼｿﾉﾒ","pref":"愛知県","city":"北設楽郡東栄町","address":"東薗目"},
{"zip_code":"4490213","kana_pref":"ｱｲﾁｹﾝ","kana_city":"ｷﾀｼﾀﾗｸﾞﾝﾄｳｴｲﾁｮｳ","kana_address":"ﾌﾘｸｻ","pref":"愛知県","city":"北設楽郡東栄町","address":"振草"},
{"zip_code":"4490214","kana_pref":"ｱｲﾁｹﾝ","kana_city":"ｷﾀｼﾀﾗｸﾞﾝﾄｳｴｲﾁｮｳ","kana_address":"ﾎﾝｺﾞｳ","pref":"愛知県","city":"北設楽郡東栄町","address":"本郷"},
{"zip_code":"4490201","kana_pref":"ｱｲﾁｹﾝ","kana_city":"ｷﾀｼﾀﾗｸﾞﾝﾄｳｴｲﾁｮｳ","kana_address":"ﾐｿﾉ","pref":"愛知県","city":"北設楽郡東栄町","address":"御園"},
{"zip_code":"4490216","kana_pref":"ｱｲﾁｹﾝ","kana_city":"ｷﾀｼﾀﾗｸﾞﾝﾄｳｴｲﾁｮｳ","kana_address":"ﾐﾜ","pref":"愛知県","city":"北設楽郡東栄町","address":"三輪"},
{"zip_code":"4490400","kana_pref":"ｱｲﾁｹﾝ","kana_city":"ｷﾀｼﾀﾗｸﾞﾝﾄﾖﾈﾑﾗ","kana_address":"","pref":"愛知県","city":"北設楽郡豊根村","address":""},
{"zip_code":"4490404","kana_pref":"ｱｲﾁｹﾝ","kana_city":"ｷﾀｼﾀﾗｸﾞﾝﾄﾖﾈﾑﾗ","kana_address":"ｶﾐｸﾛｶﾞﾜ","pref":"愛知県","city":"北設楽郡豊根村","address":"上黒川"},
{"zip_code":"4490402","kana_pref":"ｱｲﾁｹﾝ","kana_city":"ｷﾀｼﾀﾗｸﾞﾝﾄﾖﾈﾑﾗ","kana_address":"ｺﾏﾀﾞﾃ","pref":"愛知県","city":"北設楽郡豊根村","address":"古真立"},
{"zip_code":"4490405","kana_pref":"ｱｲﾁｹﾝ","kana_city":"ｷﾀｼﾀﾗｸﾞﾝﾄﾖﾈﾑﾗ","kana_address":"ｻｶｳﾊﾞ","pref":"愛知県","city":"北設楽郡豊根村","address":"坂宇場"},
{"zip_code":"4490403","kana_pref":"ｱｲﾁｹﾝ","kana_city":"ｷﾀｼﾀﾗｸﾞﾝﾄﾖﾈﾑﾗ","kana_address":"ｼﾓｸﾛｶﾞﾜ","pref":"愛知県","city":"北設楽郡豊根村","address":"下黒川"},
{"zip_code":"4490401","kana_pref":"ｱｲﾁｹﾝ","kana_city":"ｷﾀｼﾀﾗｸﾞﾝﾄﾖﾈﾑﾗ","kana_address":"ﾐｻﾜ","pref":"愛知県","city":"北設楽郡豊根村","address":"三沢"}]}