{"zip_code":[
{"zip_code":"4500007","kana_pref":"ｱｲﾁｹﾝ","kana_city":"ﾅｺﾞﾔｼﾅｶﾑﾗｸ","kana_address":"ｻｻｼﾏﾁｮｳ","pref":"愛知県","city":"名古屋市中村区","address":"笹島町"},
{"zip_code":"4500006","kana_pref":"ｱｲﾁｹﾝ","kana_city":"ﾅｺﾞﾔｼﾅｶﾑﾗｸ","kana_address":"ｼﾓﾋﾛｲﾁｮｳ","pref":"愛知県","city":"名古屋市中村区","address":"下広井町"},
{"zip_code":"4500001","kana_pref":"ｱｲﾁｹﾝ","kana_city":"ﾅｺﾞﾔｼﾅｶﾑﾗｸ","kana_address":"ﾅｺﾞﾉ","pref":"愛知県","city":"名古屋市中村区","address":"那古野"},
{"zip_code":"4500005","kana_pref":"ｱｲﾁｹﾝ","kana_city":"ﾅｺﾞﾔｼﾅｶﾑﾗｸ","kana_address":"ﾆｼﾋｵｷ","pref":"愛知県","city":"名古屋市中村区","address":"西日置"},
{"zip_code":"4500004","kana_pref":"ｱｲﾁｹﾝ","kana_city":"ﾅｺﾞﾔｼﾅｶﾑﾗｸ","kana_address":"ﾏﾂｼｹﾞﾁｮｳ","pref":"愛知県","city":"名古屋市中村区","address":"松重町"},
{"zip_code":"4506090","kana_pref":"ｱｲﾁｹﾝ","kana_city":"ﾅｺﾞﾔｼﾅｶﾑﾗｸ","kana_address":"ﾒｲｴｷｼﾞｪｲｱｰﾙｾﾝﾄﾗﾙﾀﾜｰｽﾞ","pref":"愛知県","city":"名古屋市中村区","address":"名駅ＪＲセントラルタワーズ"},
{"zip_code":"4506001","kana_pref":"ｱｲﾁｹﾝ","kana_city":"ﾅｺﾞﾔｼﾅｶﾑﾗｸ","kana_address":"ﾒｲｴｷｼﾞｪｲｱｰﾙｾﾝﾄﾗﾙﾀﾜｰｽﾞ","pref":"愛知県","city":"名古屋市中村区","address":"名駅ＪＲセントラルタワーズ"},
{"zip_code":"4506002","kana_pref":"ｱｲﾁｹﾝ","kana_city":"ﾅｺﾞﾔｼﾅｶﾑﾗｸ","kana_address":"ﾒｲｴｷｼﾞｪｲｱｰﾙｾﾝﾄﾗﾙﾀﾜｰｽﾞ","pref":"愛知県","city":"名古屋市中村区","address":"名駅ＪＲセントラルタワーズ"},
{"zip_code":"4506003","kana_pref":"ｱｲﾁｹﾝ","kana_city":"ﾅｺﾞﾔｼﾅｶﾑﾗｸ","kana_address":"ﾒｲｴｷｼﾞｪｲｱｰﾙｾﾝﾄﾗﾙﾀﾜｰｽﾞ","pref":"愛知県","city":"名古屋市中村区","address":"名駅ＪＲセントラルタワーズ"},
{"zip_code":"4506004","kana_pref":"ｱｲﾁｹﾝ","kana_city":"ﾅｺﾞﾔｼﾅｶﾑﾗｸ","kana_address":"ﾒｲｴｷｼﾞｪｲｱｰﾙｾﾝﾄﾗﾙﾀﾜｰｽﾞ","pref":"愛知県","city":"名古屋市中村区","address":"名駅ＪＲセントラルタワーズ"},
{"zip_code":"4506005","kana_pref":"ｱｲﾁｹﾝ","kana_city":"ﾅｺﾞﾔｼﾅｶﾑﾗｸ","kana_address":"ﾒｲｴｷｼﾞｪｲｱｰﾙｾﾝﾄﾗﾙﾀﾜｰｽﾞ","pref":"愛知県","city":"名古屋市中村区","address":"名駅ＪＲセントラルタワーズ"},
{"zip_code":"4506006","kana_pref":"ｱｲﾁｹﾝ","kana_city":"ﾅｺﾞﾔｼﾅｶﾑﾗｸ","kana_address":"ﾒｲｴｷｼﾞｪｲｱｰﾙｾﾝﾄﾗﾙﾀﾜｰｽﾞ","pref":"愛知県","city":"名古屋市中村区","address":"名駅ＪＲセントラルタワーズ"},
{"zip_code":"4506007","kana_pref":"ｱｲﾁｹﾝ","kana_city":"ﾅｺﾞﾔｼﾅｶﾑﾗｸ","kana_address":"ﾒｲｴｷｼﾞｪｲｱｰﾙｾﾝﾄﾗﾙﾀﾜｰｽﾞ","pref":"愛知県","city":"名古屋市中村区","address":"名駅ＪＲセントラルタワーズ"},
{"zip_code":"4506008","kana_pref":"ｱｲﾁｹﾝ","kana_city":"ﾅｺﾞﾔｼﾅｶﾑﾗｸ","kana_address":"ﾒｲｴｷｼﾞｪｲｱｰﾙｾﾝﾄﾗﾙﾀﾜｰｽﾞ","pref":"愛知県","city":"名古屋市中村区","address":"名駅ＪＲセントラルタワーズ"},
{"zip_code":"4506009","kana_pref":"ｱｲﾁｹﾝ","kana_city":"ﾅｺﾞﾔｼﾅｶﾑﾗｸ","kana_address":"ﾒｲｴｷｼﾞｪｲｱｰﾙｾﾝﾄﾗﾙﾀﾜｰｽﾞ","pref":"愛知県","city":"名古屋市中村区","address":"名駅ＪＲセントラルタワーズ"},
{"zip_code":"4506010","kana_pref":"ｱｲﾁｹﾝ","kana_city":"ﾅｺﾞﾔｼﾅｶﾑﾗｸ","kana_address":"ﾒｲｴｷｼﾞｪｲｱｰﾙｾﾝﾄﾗﾙﾀﾜｰｽﾞ","pref":"愛知県","city":"名古屋市中村区","address":"名駅ＪＲセントラルタワーズ"},
{"zip_code":"4506011","kana_pref":"ｱｲﾁｹﾝ","kana_city":"ﾅｺﾞﾔｼﾅｶﾑﾗｸ","kana_address":"ﾒｲｴｷｼﾞｪｲｱｰﾙｾﾝﾄﾗﾙﾀﾜｰｽﾞ","pref":"愛知県","city":"名古屋市中村区","address":"名駅ＪＲセントラルタワーズ"},
{"zip_code":"4506012","kana_pref":"ｱｲﾁｹﾝ","kana_city":"ﾅｺﾞﾔｼﾅｶﾑﾗｸ","kana_address":"ﾒｲｴｷｼﾞｪｲｱｰﾙｾﾝﾄﾗﾙﾀﾜｰｽﾞ","pref":"愛知県","city":"名古屋市中村区","address":"名駅ＪＲセントラルタワーズ"},
{"zip_code":"4506013","kana_pref":"ｱｲﾁｹﾝ","kana_city":"ﾅｺﾞﾔｼﾅｶﾑﾗｸ","kana_address":"ﾒｲｴｷｼﾞｪｲｱｰﾙｾﾝﾄﾗﾙﾀﾜｰｽﾞ","pref":"愛知県","city":"名古屋市中村区","address":"名駅ＪＲセントラルタワーズ"},
{"zip_code":"4506014","kana_pref":"ｱｲﾁｹﾝ","kana_city":"ﾅｺﾞﾔｼﾅｶﾑﾗｸ","kana_address":"ﾒｲｴｷｼﾞｪｲｱｰﾙｾﾝﾄﾗﾙﾀﾜｰｽﾞ","pref":"愛知県","city":"名古屋市中村区","address":"名駅ＪＲセントラルタワーズ"},
{"zip_code":"4506015","kana_pref":"ｱｲﾁｹﾝ","kana_city":"ﾅｺﾞﾔｼﾅｶﾑﾗｸ","kana_address":"ﾒｲｴｷｼﾞｪｲｱｰﾙｾﾝﾄﾗﾙﾀﾜｰｽﾞ","pref":"愛知県","city":"名古屋市中村区","address":"名駅ＪＲセントラルタワーズ"},
{"zip_code":"4506016","kana_pref":"ｱｲﾁｹﾝ","kana_city":"ﾅｺﾞﾔｼﾅｶﾑﾗｸ","kana_address":"ﾒｲｴｷｼﾞｪｲｱｰﾙｾﾝﾄﾗﾙﾀﾜｰｽﾞ","pref":"愛知県","city":"名古屋市中村区","address":"名駅ＪＲセントラルタワーズ"},
{"zip_code":"4506017","kana_pref":"ｱｲﾁｹﾝ","kana_city":"ﾅｺﾞﾔｼﾅｶﾑﾗｸ","kana_address":"ﾒｲｴｷｼﾞｪｲｱｰﾙｾﾝﾄﾗﾙﾀﾜｰｽﾞ","pref":"愛知県","city":"名古屋市中村区","address":"名駅ＪＲセントラルタワーズ"},
{"zip_code":"4506018","kana_pref":"ｱｲﾁｹﾝ","kana_city":"ﾅｺﾞﾔｼﾅｶﾑﾗｸ","kana_address":"ﾒｲｴｷｼﾞｪｲｱｰﾙｾﾝﾄﾗﾙﾀﾜｰｽﾞ","pref":"愛知県","city":"名古屋市中村区","address":"名駅ＪＲセントラルタワーズ"},
{"zip_code":"4506019","kana_pref":"ｱｲﾁｹﾝ","kana_city":"ﾅｺﾞﾔｼﾅｶﾑﾗｸ","kana_address":"ﾒｲｴｷｼﾞｪｲｱｰﾙｾﾝﾄﾗﾙﾀﾜｰｽﾞ","pref":"愛知県","city":"名古屋市中村区","address":"名駅ＪＲセントラルタワーズ"},
{"zip_code":"4506020","kana_pref":"ｱｲﾁｹﾝ","kana_city":"ﾅｺﾞﾔｼﾅｶﾑﾗｸ","kana_address":"ﾒｲｴｷｼﾞｪｲｱｰﾙｾﾝﾄﾗﾙﾀﾜｰｽﾞ","pref":"愛知県","city":"名古屋市中村区","address":"名駅ＪＲセントラルタワーズ"},
{"zip_code":"4506021","kana_pref":"ｱｲﾁｹﾝ","kana_city":"ﾅｺﾞﾔｼﾅｶﾑﾗｸ","kana_address":"ﾒｲｴｷｼﾞｪｲｱｰﾙｾﾝﾄﾗﾙﾀﾜｰｽﾞ","pref":"愛知県","city":"名古屋市中村区","address":"名駅ＪＲセントラルタワーズ"},
{"zip_code":"4506022","kana_pref":"ｱｲﾁｹﾝ","kana_city":"ﾅｺﾞﾔｼﾅｶﾑﾗｸ","kana_address":"ﾒｲｴｷｼﾞｪｲｱｰﾙｾﾝﾄﾗﾙﾀﾜｰｽﾞ","pref":"愛知県","city":"名古屋市中村区","address":"名駅ＪＲセントラルタワーズ"},
{"zip_code":"4506023","kana_pref":"ｱｲﾁｹﾝ","kana_city":"ﾅｺﾞﾔｼﾅｶﾑﾗｸ","kana_address":"ﾒｲｴｷｼﾞｪｲｱｰﾙｾﾝﾄﾗﾙﾀﾜｰｽﾞ","pref":"愛知県","city":"名古屋市中村区","address":"名駅ＪＲセントラルタワーズ"},
{"zip_code":"4506024","kana_pref":"ｱｲﾁｹﾝ","kana_city":"ﾅｺﾞﾔｼﾅｶﾑﾗｸ","kana_address":"ﾒｲｴｷｼﾞｪｲｱｰﾙｾﾝﾄﾗﾙﾀﾜｰｽﾞ","pref":"愛知県","city":"名古屋市中村区","address":"名駅ＪＲセントラルタワーズ"},
{"zip_code":"4506025","kana_pref":"ｱｲﾁｹﾝ","kana_city":"ﾅｺﾞﾔｼﾅｶﾑﾗｸ","kana_address":"ﾒｲｴｷｼﾞｪｲｱｰﾙｾﾝﾄﾗﾙﾀﾜｰｽﾞ","pref":"愛知県","city":"名古屋市中村区","address":"名駅ＪＲセントラルタワーズ"},
{"zip_code":"4506026","kana_pref":"ｱｲﾁｹﾝ","kana_city":"ﾅｺﾞﾔｼﾅｶﾑﾗｸ","kana_address":"ﾒｲｴｷｼﾞｪｲｱｰﾙｾﾝﾄﾗﾙﾀﾜｰｽﾞ","pref":"愛知県","city":"名古屋市中村区","address":"名駅ＪＲセントラルタワーズ"},
{"zip_code":"4506027","kana_pref":"ｱｲﾁｹﾝ","kana_city":"ﾅｺﾞﾔｼﾅｶﾑﾗｸ","kana_address":"ﾒｲｴｷｼﾞｪｲｱｰﾙｾﾝﾄﾗﾙﾀﾜｰｽﾞ","pref":"愛知県","city":"名古屋市中村区","address":"名駅ＪＲセントラルタワーズ"},
{"zip_code":"4506028","kana_pref":"ｱｲﾁｹﾝ","kana_city":"ﾅｺﾞﾔｼﾅｶﾑﾗｸ","kana_address":"ﾒｲｴｷｼﾞｪｲｱｰﾙｾﾝﾄﾗﾙﾀﾜｰｽﾞ","pref":"愛知県","city":"名古屋市中村区","address":"名駅ＪＲセントラルタワーズ"},
{"zip_code":"4506029","kana_pref":"ｱｲﾁｹﾝ","kana_city":"ﾅｺﾞﾔｼﾅｶﾑﾗｸ","kana_address":"ﾒｲｴｷｼﾞｪｲｱｰﾙｾﾝﾄﾗﾙﾀﾜｰｽﾞ","pref":"愛知県","city":"名古屋市中村区","address":"名駅ＪＲセントラルタワーズ"},
{"zip_code":"4506030","kana_pref":"ｱｲﾁｹﾝ","kana_city":"ﾅｺﾞﾔｼﾅｶﾑﾗｸ","kana_address":"ﾒｲｴｷｼﾞｪｲｱｰﾙｾﾝﾄﾗﾙﾀﾜｰｽﾞ","pref":"愛知県","city":"名古屋市中村区","address":"名駅ＪＲセントラルタワーズ"},
{"zip_code":"4506031","kana_pref":"ｱｲﾁｹﾝ","kana_city":"ﾅｺﾞﾔｼﾅｶﾑﾗｸ","kana_address":"ﾒｲｴｷｼﾞｪｲｱｰﾙｾﾝﾄﾗﾙﾀﾜｰｽﾞ","pref":"愛知県","city":"名古屋市中村区","address":"名駅ＪＲセントラルタワーズ"},
{"zip_code":"4506032","kana_pref":"ｱｲﾁｹﾝ","kana_city":"ﾅｺﾞﾔｼﾅｶﾑﾗｸ","kana_address":"ﾒｲｴｷｼﾞｪｲｱｰﾙｾﾝﾄﾗﾙﾀﾜｰｽﾞ","pref":"愛知県","city":"名古屋市中村区","address":"名駅ＪＲセントラルタワーズ"},
{"zip_code":"4506033","kana_pref":"ｱｲﾁｹﾝ","kana_city":"ﾅｺﾞﾔｼﾅｶﾑﾗｸ","kana_address":"ﾒｲｴｷｼﾞｪｲｱｰﾙｾﾝﾄﾗﾙﾀﾜｰｽﾞ","pref":"愛知県","city":"名古屋市中村区","address":"名駅ＪＲセントラルタワーズ"},
{"zip_code":"4506034","kana_pref":"ｱｲﾁｹﾝ","kana_city":"ﾅｺﾞﾔｼﾅｶﾑﾗｸ","kana_address":"ﾒｲｴｷｼﾞｪｲｱｰﾙｾﾝﾄﾗﾙﾀﾜｰｽﾞ","pref":"愛知県","city":"名古屋市中村区","address":"名駅ＪＲセントラルタワーズ"},
{"zip_code":"4506035","kana_pref":"ｱｲﾁｹﾝ","kana_city":"ﾅｺﾞﾔｼﾅｶﾑﾗｸ","kana_address":"ﾒｲｴｷｼﾞｪｲｱｰﾙｾﾝﾄﾗﾙﾀﾜｰｽﾞ","pref":"愛知県","city":"名古屋市中村区","address":"名駅ＪＲセントラルタワーズ"},
{"zip_code":"4506036","kana_pref":"ｱｲﾁｹﾝ","kana_city":"ﾅｺﾞﾔｼﾅｶﾑﾗｸ","kana_address":"ﾒｲｴｷｼﾞｪｲｱｰﾙｾﾝﾄﾗﾙﾀﾜｰｽﾞ","pref":"愛知県","city":"名古屋市中村区","address":"名駅ＪＲセントラルタワーズ"},
{"zip_code":"4506037","kana_pref":"ｱｲﾁｹﾝ","kana_city":"ﾅｺﾞﾔｼﾅｶﾑﾗｸ","kana_address":"ﾒｲｴｷｼﾞｪｲｱｰﾙｾﾝﾄﾗﾙﾀﾜｰｽﾞ","pref":"愛知県","city":"名古屋市中村区","address":"名駅ＪＲセントラルタワーズ"},
{"zip_code":"4506038","kana_pref":"ｱｲﾁｹﾝ","kana_city":"ﾅｺﾞﾔｼﾅｶﾑﾗｸ","kana_address":"ﾒｲｴｷｼﾞｪｲｱｰﾙｾﾝﾄﾗﾙﾀﾜｰｽﾞ","pref":"愛知県","city":"名古屋市中村区","address":"名駅ＪＲセントラルタワーズ"},
{"zip_code":"4506039","kana_pref":"ｱｲﾁｹﾝ","kana_city":"ﾅｺﾞﾔｼﾅｶﾑﾗｸ","kana_address":"ﾒｲｴｷｼﾞｪｲｱｰﾙｾﾝﾄﾗﾙﾀﾜｰｽﾞ","pref":"愛知県","city":"名古屋市中村区","address":"名駅ＪＲセントラルタワーズ"},
{"zip_code":"4506040","kana_pref":"ｱｲﾁｹﾝ","kana_city":"ﾅｺﾞﾔｼﾅｶﾑﾗｸ","kana_address":"ﾒｲｴｷｼﾞｪｲｱｰﾙｾﾝﾄﾗﾙﾀﾜｰｽﾞ","pref":"愛知県","city":"名古屋市中村区","address":"名駅ＪＲセントラルタワーズ"},
{"zip_code":"4506041","kana_pref":"ｱｲﾁｹﾝ","kana_city":"ﾅｺﾞﾔｼﾅｶﾑﾗｸ","kana_address":"ﾒｲｴｷｼﾞｪｲｱｰﾙｾﾝﾄﾗﾙﾀﾜｰｽﾞ","pref":"愛知県","city":"名古屋市中村区","address":"名駅ＪＲセントラルタワーズ"},
{"zip_code":"4506042","kana_pref":"ｱｲﾁｹﾝ","kana_city":"ﾅｺﾞﾔｼﾅｶﾑﾗｸ","kana_address":"ﾒｲｴｷｼﾞｪｲｱｰﾙｾﾝﾄﾗﾙﾀﾜｰｽﾞ","pref":"愛知県","city":"名古屋市中村区","address":"名駅ＪＲセントラルタワーズ"},
{"zip_code":"4506043","kana_pref":"ｱｲﾁｹﾝ","kana_city":"ﾅｺﾞﾔｼﾅｶﾑﾗｸ","kana_address":"ﾒｲｴｷｼﾞｪｲｱｰﾙｾﾝﾄﾗﾙﾀﾜｰｽﾞ","pref":"愛知県","city":"名古屋市中村区","address":"名駅ＪＲセントラルタワーズ"},
{"zip_code":"4506044","kana_pref":"ｱｲﾁｹﾝ","kana_city":"ﾅｺﾞﾔｼﾅｶﾑﾗｸ","kana_address":"ﾒｲｴｷｼﾞｪｲｱｰﾙｾﾝﾄﾗﾙﾀﾜｰｽﾞ","pref":"愛知県","city":"名古屋市中村区","address":"名駅ＪＲセントラルタワーズ"},
{"zip_code":"4506045","kana_pref":"ｱｲﾁｹﾝ","kana_city":"ﾅｺﾞﾔｼﾅｶﾑﾗｸ","kana_address":"ﾒｲｴｷｼﾞｪｲｱｰﾙｾﾝﾄﾗﾙﾀﾜｰｽﾞ","pref":"愛知県","city":"名古屋市中村区","address":"名駅ＪＲセントラルタワーズ"},
{"zip_code":"4506046","kana_pref":"ｱｲﾁｹﾝ","kana_city":"ﾅｺﾞﾔｼﾅｶﾑﾗｸ","kana_address":"ﾒｲｴｷｼﾞｪｲｱｰﾙｾﾝﾄﾗﾙﾀﾜｰｽﾞ","pref":"愛知県","city":"名古屋市中村区","address":"名駅ＪＲセントラルタワーズ"},
{"zip_code":"4506047","kana_pref":"ｱｲﾁｹﾝ","kana_city":"ﾅｺﾞﾔｼﾅｶﾑﾗｸ","kana_address":"ﾒｲｴｷｼﾞｪｲｱｰﾙｾﾝﾄﾗﾙﾀﾜｰｽﾞ","pref":"愛知県","city":"名古屋市中村区","address":"名駅ＪＲセントラルタワーズ"},
{"zip_code":"4506048","kana_pref":"ｱｲﾁｹﾝ","kana_city":"ﾅｺﾞﾔｼﾅｶﾑﾗｸ","kana_address":"ﾒｲｴｷｼﾞｪｲｱｰﾙｾﾝﾄﾗﾙﾀﾜｰｽﾞ","pref":"愛知県","city":"名古屋市中村区","address":"名駅ＪＲセントラルタワーズ"},
{"zip_code":"4506049","kana_pref":"ｱｲﾁｹﾝ","kana_city":"ﾅｺﾞﾔｼﾅｶﾑﾗｸ","kana_address":"ﾒｲｴｷｼﾞｪｲｱｰﾙｾﾝﾄﾗﾙﾀﾜｰｽﾞ","pref":"愛知県","city":"名古屋市中村区","address":"名駅ＪＲセントラルタワーズ"},
{"zip_code":"4506050","kana_pref":"ｱｲﾁｹﾝ","kana_city":"ﾅｺﾞﾔｼﾅｶﾑﾗｸ","kana_address":"ﾒｲｴｷｼﾞｪｲｱｰﾙｾﾝﾄﾗﾙﾀﾜｰｽﾞ","pref":"愛知県","city":"名古屋市中村区","address":"名駅ＪＲセントラルタワーズ"},
{"zip_code":"4506051","kana_pref":"ｱｲﾁｹﾝ","kana_city":"ﾅｺﾞﾔｼﾅｶﾑﾗｸ","kana_address":"ﾒｲｴｷｼﾞｪｲｱｰﾙｾﾝﾄﾗﾙﾀﾜｰｽﾞ","pref":"愛知県","city":"名古屋市中村区","address":"名駅ＪＲセントラルタワーズ"},
{"zip_code":"4506290","kana_pref":"ｱｲﾁｹﾝ","kana_city":"ﾅｺﾞﾔｼﾅｶﾑﾗｸ","kana_address":"ﾒｲｴｷﾐｯﾄﾞﾗﾝﾄﾞｽｸｴｱ","pref":"愛知県","city":"名古屋市中村区","address":"名駅ミッドランドスクエア"},
{"zip_code":"4506201","kana_pref":"ｱｲﾁｹﾝ","kana_city":"ﾅｺﾞﾔｼﾅｶﾑﾗｸ","kana_address":"ﾒｲｴｷﾐｯﾄﾞﾗﾝﾄﾞｽｸｴｱ","pref":"愛知県","city":"名古屋市中村区","address":"名駅ミッドランドスクエア"},
{"zip_code":"4506202","kana_pref":"ｱｲﾁｹﾝ","kana_city":"ﾅｺﾞﾔｼﾅｶﾑﾗｸ","kana_address":"ﾒｲｴｷﾐｯﾄﾞﾗﾝﾄﾞｽｸｴｱ","pref":"愛知県","city":"名古屋市中村区","address":"名駅ミッドランドスクエア"},
{"zip_code":"4506203","kana_pref":"ｱｲﾁｹﾝ","kana_city":"ﾅｺﾞﾔｼﾅｶﾑﾗｸ","kana_address":"ﾒｲｴｷﾐｯﾄﾞﾗﾝﾄﾞｽｸｴｱ","pref":"愛知県","city":"名古屋市中村区","address":"名駅ミッドランドスクエア"},
{"zip_code":"4506204","kana_pref":"ｱｲﾁｹﾝ","kana_city":"ﾅｺﾞﾔｼﾅｶﾑﾗｸ","kana_address":"ﾒｲｴｷﾐｯﾄﾞﾗﾝﾄﾞｽｸｴｱ","pref":"愛知県","city":"名古屋市中村区","address":"名駅ミッドランドスクエア"},
{"zip_code":"4506205","kana_pref":"ｱｲﾁｹﾝ","kana_city":"ﾅｺﾞﾔｼﾅｶﾑﾗｸ","kana_address":"ﾒｲｴｷﾐｯﾄﾞﾗﾝﾄﾞｽｸｴｱ","pref":"愛知県","city":"名古屋市中村区","address":"名駅ミッドランドスクエア"},
{"zip_code":"4506206","kana_pref":"ｱｲﾁｹﾝ","kana_city":"ﾅｺﾞﾔｼﾅｶﾑﾗｸ","kana_address":"ﾒｲｴｷﾐｯﾄﾞﾗﾝﾄﾞｽｸｴｱ","pref":"愛知県","city":"名古屋市中村区","address":"名駅ミッドランドスクエア"},
{"zip_code":"4506207","kana_pref":"ｱｲﾁｹﾝ","kana_city":"ﾅｺﾞﾔｼﾅｶﾑﾗｸ","kana_address":"ﾒｲｴｷﾐｯﾄﾞﾗﾝﾄﾞｽｸｴｱ","pref":"愛知県","city":"名古屋市中村区","address":"名駅ミッドランドスクエア"},
{"zip_code":"4506208","kana_pref":"ｱｲﾁｹﾝ","kana_city":"ﾅｺﾞﾔｼﾅｶﾑﾗｸ","kana_address":"ﾒｲｴｷﾐｯﾄﾞﾗﾝﾄﾞｽｸｴｱ","pref":"愛知県","city":"名古屋市中村区","address":"名駅ミッドランドスクエア"},
{"zip_code":"4506209","kana_pref":"ｱｲﾁｹﾝ","kana_city":"ﾅｺﾞﾔｼﾅｶﾑﾗｸ","kana_address":"ﾒｲｴｷﾐｯﾄﾞﾗﾝﾄﾞｽｸｴｱ","pref":"愛知県","city":"名古屋市中村区","address":"名駅ミッドランドスクエア"},
{"zip_code":"4506210","kana_pref":"ｱｲﾁｹﾝ","kana_city":"ﾅｺﾞﾔｼﾅｶﾑﾗｸ","kana_address":"ﾒｲｴｷﾐｯﾄﾞﾗﾝﾄﾞｽｸｴｱ","pref":"愛知県","city":"名古屋市中村区","address":"名駅ミッドランドスクエア"},
{"zip_code":"4506211","kana_pref":"ｱｲﾁｹﾝ","kana_city":"ﾅｺﾞﾔｼﾅｶﾑﾗｸ","kana_address":"ﾒｲｴｷﾐｯﾄﾞﾗﾝﾄﾞｽｸｴｱ","pref":"愛知県","city":"名古屋市中村区","address":"名駅ミッドランドスクエア"},
{"zip_code":"4506212","kana_pref":"ｱｲﾁｹﾝ","kana_city":"ﾅｺﾞﾔｼﾅｶﾑﾗｸ","kana_address":"ﾒｲｴｷﾐｯﾄﾞﾗﾝﾄﾞｽｸｴｱ","pref":"愛知県","city":"名古屋市中村区","address":"名駅ミッドランドスクエア"},
{"zip_code":"4506213","kana_pref":"ｱｲﾁｹﾝ","kana_city":"ﾅｺﾞﾔｼﾅｶﾑﾗｸ","kana_address":"ﾒｲｴｷﾐｯﾄﾞﾗﾝﾄﾞｽｸｴｱ","pref":"愛知県","city":"名古屋市中村区","address":"名駅ミッドランドスクエア"},
{"zip_code":"4506214","kana_pref":"ｱｲﾁｹﾝ","kana_city":"ﾅｺﾞﾔｼﾅｶﾑﾗｸ","kana_address":"ﾒｲｴｷﾐｯﾄﾞﾗﾝﾄﾞｽｸｴｱ","pref":"愛知県","city":"名古屋市中村区","address":"名駅ミッドランドスクエア"},
{"zip_code":"4506215","kana_pref":"ｱｲﾁｹﾝ","kana_city":"ﾅｺﾞﾔｼﾅｶﾑﾗｸ","kana_address":"ﾒｲｴｷﾐｯﾄﾞﾗﾝﾄﾞｽｸｴｱ","pref":"愛知県","city":"名古屋市中村区","address":"名駅ミッドランドスクエア"},
{"zip_code":"4506216","kana_pref":"ｱｲﾁｹﾝ","kana_city":"ﾅｺﾞﾔｼﾅｶﾑﾗｸ","kana_address":"ﾒｲｴｷﾐｯﾄﾞﾗﾝﾄﾞｽｸｴｱ","pref":"愛知県","city":"名古屋市中村区","address":"名駅ミッドランドスクエア"},
{"zip_code":"4506217","kana_pref":"ｱｲﾁｹﾝ","kana_city":"ﾅｺﾞﾔｼﾅｶﾑﾗｸ","kana_address":"ﾒｲｴｷﾐｯﾄﾞﾗﾝﾄﾞｽｸｴｱ","pref":"愛知県","city":"名古屋市中村区","address":"名駅ミッドランドスクエア"},
{"zip_code":"4506218","kana_pref":"ｱｲﾁｹﾝ","kana_city":"ﾅｺﾞﾔｼﾅｶﾑﾗｸ","kana_address":"ﾒｲｴｷﾐｯﾄﾞﾗﾝﾄﾞｽｸｴｱ","pref":"愛知県","city":"名古屋市中村区","address":"名駅ミッドランドスクエア"},
{"zip_code":"4506219","kana_pref":"ｱｲﾁｹﾝ","kana_city":"ﾅｺﾞﾔｼﾅｶﾑﾗｸ","kana_address":"ﾒｲｴｷﾐｯﾄﾞﾗﾝﾄﾞｽｸｴｱ","pref":"愛知県","city":"名古屋市中村区","address":"名駅ミッドランドスクエア"},
{"zip_code":"4506220","kana_pref":"ｱｲﾁｹﾝ","kana_city":"ﾅｺﾞﾔｼﾅｶﾑﾗｸ","kana_address":"ﾒｲｴｷﾐｯﾄﾞﾗﾝﾄﾞｽｸｴｱ","pref":"愛知県","city":"名古屋市中村区","address":"名駅ミッドランドスクエア"},
{"zip_code":"4506221","kana_pref":"ｱｲﾁｹﾝ","kana_city":"ﾅｺﾞﾔｼﾅｶﾑﾗｸ","kana_address":"ﾒｲｴｷﾐｯﾄﾞﾗﾝﾄﾞｽｸｴｱ","pref":"愛知県","city":"名古屋市中村区","address":"名駅ミッドランドスクエア"},
{"zip_code":"4506222","kana_pref":"ｱｲﾁｹﾝ","kana_city":"ﾅｺﾞﾔｼﾅｶﾑﾗｸ","kana_address":"ﾒｲｴｷﾐｯﾄﾞﾗﾝﾄﾞｽｸｴｱ","pref":"愛知県","city":"名古屋市中村区","address":"名駅ミッドランドスクエア"},
{"zip_code":"4506223","kana_pref":"ｱｲﾁｹﾝ","kana_city":"ﾅｺﾞﾔｼﾅｶﾑﾗｸ","kana_address":"ﾒｲｴｷﾐｯﾄﾞﾗﾝﾄﾞｽｸｴｱ","pref":"愛知県","city":"名古屋市中村区","address":"名駅ミッドランドスクエア"},
{"zip_code":"4506224","kana_pref":"ｱｲﾁｹﾝ","kana_city":"ﾅｺﾞﾔｼﾅｶﾑﾗｸ","kana_address":"ﾒｲｴｷﾐｯﾄﾞﾗﾝﾄﾞｽｸｴｱ","pref":"愛知県","city":"名古屋市中村区","address":"名駅ミッドランドスクエア"},
{"zip_code":"4506225","kana_pref":"ｱｲﾁｹﾝ","kana_city":"ﾅｺﾞﾔｼﾅｶﾑﾗｸ","kana_address":"ﾒｲｴｷﾐｯﾄﾞﾗﾝﾄﾞｽｸｴｱ","pref":"愛知県","city":"名古屋市中村区","address":"名駅ミッドランドスクエア"},
{"zip_code":"4506226","kana_pref":"ｱｲﾁｹﾝ","kana_city":"ﾅｺﾞﾔｼﾅｶﾑﾗｸ","kana_address":"ﾒｲｴｷﾐｯﾄﾞﾗﾝﾄﾞｽｸｴｱ","pref":"愛知県","city":"名古屋市中村区","address":"名駅ミッドランドスクエア"},
{"zip_code":"4506227","kana_pref":"ｱｲﾁｹﾝ","kana_city":"ﾅｺﾞﾔｼﾅｶﾑﾗｸ","kana_address":"ﾒｲｴｷﾐｯﾄﾞﾗﾝﾄﾞｽｸｴｱ","pref":"愛知県","city":"名古屋市中村区","address":"名駅ミッドランドスクエア"},
{"zip_code":"4506228","kana_pref":"ｱｲﾁｹﾝ","kana_city":"ﾅｺﾞﾔｼﾅｶﾑﾗｸ","kana_address":"ﾒｲｴｷﾐｯﾄﾞﾗﾝﾄﾞｽｸｴｱ","pref":"愛知県","city":"名古屋市中村区","address":"名駅ミッドランドスクエア"},
{"zip_code":"4506229","kana_pref":"ｱｲﾁｹﾝ","kana_city":"ﾅｺﾞﾔｼﾅｶﾑﾗｸ","kana_address":"ﾒｲｴｷﾐｯﾄﾞﾗﾝﾄﾞｽｸｴｱ","pref":"愛知県","city":"名古屋市中村区","address":"名駅ミッドランドスクエア"},
{"zip_code":"4506230","kana_pref":"ｱｲﾁｹﾝ","kana_city":"ﾅｺﾞﾔｼﾅｶﾑﾗｸ","kana_address":"ﾒｲｴｷﾐｯﾄﾞﾗﾝﾄﾞｽｸｴｱ","pref":"愛知県","city":"名古屋市中村区","address":"名駅ミッドランドスクエア"},
{"zip_code":"4506231","kana_pref":"ｱｲﾁｹﾝ","kana_city":"ﾅｺﾞﾔｼﾅｶﾑﾗｸ","kana_address":"ﾒｲｴｷﾐｯﾄﾞﾗﾝﾄﾞｽｸｴｱ","pref":"愛知県","city":"名古屋市中村区","address":"名駅ミッドランドスクエア"},
{"zip_code":"4506232","kana_pref":"ｱｲﾁｹﾝ","kana_city":"ﾅｺﾞﾔｼﾅｶﾑﾗｸ","kana_address":"ﾒｲｴｷﾐｯﾄﾞﾗﾝﾄﾞｽｸｴｱ","pref":"愛知県","city":"名古屋市中村区","address":"名駅ミッドランドスクエア"},
{"zip_code":"4506233","kana_pref":"ｱｲﾁｹﾝ","kana_city":"ﾅｺﾞﾔｼﾅｶﾑﾗｸ","kana_address":"ﾒｲｴｷﾐｯﾄﾞﾗﾝﾄﾞｽｸｴｱ","pref":"愛知県","city":"名古屋市中村区","address":"名駅ミッドランドスクエア"},
{"zip_code":"4506234","kana_pref":"ｱｲﾁｹﾝ","kana_city":"ﾅｺﾞﾔｼﾅｶﾑﾗｸ","kana_address":"ﾒｲｴｷﾐｯﾄﾞﾗﾝﾄﾞｽｸｴｱ","pref":"愛知県","city":"名古屋市中村区","address":"名駅ミッドランドスクエア"},
{"zip_code":"4506235","kana_pref":"ｱｲﾁｹﾝ","kana_city":"ﾅｺﾞﾔｼﾅｶﾑﾗｸ","kana_address":"ﾒｲｴｷﾐｯﾄﾞﾗﾝﾄﾞｽｸｴｱ","pref":"愛知県","city":"名古屋市中村区","address":"名駅ミッドランドスクエア"},
{"zip_code":"4506236","kana_pref":"ｱｲﾁｹﾝ","kana_city":"ﾅｺﾞﾔｼﾅｶﾑﾗｸ","kana_address":"ﾒｲｴｷﾐｯﾄﾞﾗﾝﾄﾞｽｸｴｱ","pref":"愛知県","city":"名古屋市中村区","address":"名駅ミッドランドスクエア"},
{"zip_code":"4506237","kana_pref":"ｱｲﾁｹﾝ","kana_city":"ﾅｺﾞﾔｼﾅｶﾑﾗｸ","kana_address":"ﾒｲｴｷﾐｯﾄﾞﾗﾝﾄﾞｽｸｴｱ","pref":"愛知県","city":"名古屋市中村区","address":"名駅ミッドランドスクエア"},
{"zip_code":"4506238","kana_pref":"ｱｲﾁｹﾝ","kana_city":"ﾅｺﾞﾔｼﾅｶﾑﾗｸ","kana_address":"ﾒｲｴｷﾐｯﾄﾞﾗﾝﾄﾞｽｸｴｱ","pref":"愛知県","city":"名古屋市中村区","address":"名駅ミッドランドスクエア"},
{"zip_code":"4506239","kana_pref":"ｱｲﾁｹﾝ","kana_city":"ﾅｺﾞﾔｼﾅｶﾑﾗｸ","kana_address":"ﾒｲｴｷﾐｯﾄﾞﾗﾝﾄﾞｽｸｴｱ","pref":"愛知県","city":"名古屋市中村区","address":"名駅ミッドランドスクエア"},
{"zip_code":"4506240","kana_pref":"ｱｲﾁｹﾝ","kana_city":"ﾅｺﾞﾔｼﾅｶﾑﾗｸ","kana_address":"ﾒｲｴｷﾐｯﾄﾞﾗﾝﾄﾞｽｸｴｱ","pref":"愛知県","city":"名古屋市中村区","address":"名駅ミッドランドスクエア"},
{"zip_code":"4506241","kana_pref":"ｱｲﾁｹﾝ","kana_city":"ﾅｺﾞﾔｼﾅｶﾑﾗｸ","kana_address":"ﾒｲｴｷﾐｯﾄﾞﾗﾝﾄﾞｽｸｴｱ","pref":"愛知県","city":"名古屋市中村区","address":"名駅ミッドランドスクエア"},
{"zip_code":"4506242","kana_pref":"ｱｲﾁｹﾝ","kana_city":"ﾅｺﾞﾔｼﾅｶﾑﾗｸ","kana_address":"ﾒｲｴｷﾐｯﾄﾞﾗﾝﾄﾞｽｸｴｱ","pref":"愛知県","city":"名古屋市中村区","address":"名駅ミッドランドスクエア"},
{"zip_code":"4506243","kana_pref":"ｱｲﾁｹﾝ","kana_city":"ﾅｺﾞﾔｼﾅｶﾑﾗｸ","kana_address":"ﾒｲｴｷﾐｯﾄﾞﾗﾝﾄﾞｽｸｴｱ","pref":"愛知県","city":"名古屋市中村区","address":"名駅ミッドランドスクエア"},
{"zip_code":"4506244","kana_pref":"ｱｲﾁｹﾝ","kana_city":"ﾅｺﾞﾔｼﾅｶﾑﾗｸ","kana_address":"ﾒｲｴｷﾐｯﾄﾞﾗﾝﾄﾞｽｸｴｱ","pref":"愛知県","city":"名古屋市中村区","address":"名駅ミッドランドスクエア"},
{"zip_code":"4506245","kana_pref":"ｱｲﾁｹﾝ","kana_city":"ﾅｺﾞﾔｼﾅｶﾑﾗｸ","kana_address":"ﾒｲｴｷﾐｯﾄﾞﾗﾝﾄﾞｽｸｴｱ","pref":"愛知県","city":"名古屋市中村区","address":"名駅ミッドランドスクエア"},
{"zip_code":"4506246","kana_pref":"ｱｲﾁｹﾝ","kana_city":"ﾅｺﾞﾔｼﾅｶﾑﾗｸ","kana_address":"ﾒｲｴｷﾐｯﾄﾞﾗﾝﾄﾞｽｸｴｱ","pref":"愛知県","city":"名古屋市中村区","address":"名駅ミッドランドスクエア"},
{"zip_code":"4506247","kana_pref":"ｱｲﾁｹﾝ","kana_city":"ﾅｺﾞﾔｼﾅｶﾑﾗｸ","kana_address":"ﾒｲｴｷﾐｯﾄﾞﾗﾝﾄﾞｽｸｴｱ","pref":"愛知県","city":"名古屋市中村区","address":"名駅ミッドランドスクエア"},
{"zip_code":"4500002","kana_pref":"ｱｲﾁｹﾝ","kana_city":"ﾅｺﾞﾔｼﾅｶﾑﾗｸ","kana_address":"ﾒｲｴｷ","pref":"愛知県","city":"名古屋市中村区","address":"名駅"},
{"zip_code":"4500003","kana_pref":"ｱｲﾁｹﾝ","kana_city":"ﾅｺﾞﾔｼﾅｶﾑﾗｸ","kana_address":"ﾒｲｴｷﾐﾅﾐ","pref":"愛知県","city":"名古屋市中村区","address":"名駅南"}]}