{"zip_code":[
{"zip_code":"4510000","kana_pref":"ｱｲﾁｹﾝ","kana_city":"ﾅｺﾞﾔｼﾆｼｸ","kana_address":"","pref":"愛知県","city":"名古屋市西区","address":""},
{"zip_code":"4510021","kana_pref":"ｱｲﾁｹﾝ","kana_city":"ﾅｺﾞﾔｼﾆｼｸ","kana_address":"ｱﾏﾂﾞｶﾁｮｳ","pref":"愛知県","city":"名古屋市西区","address":"天塚町"},
{"zip_code":"4510012","kana_pref":"ｱｲﾁｹﾝ","kana_city":"ﾅｺﾞﾔｼﾆｼｸ","kana_address":"ｲﾉｳﾁｮｳ","pref":"愛知県","city":"名古屋市西区","address":"稲生町"},
{"zip_code":"4510046","kana_pref":"ｱｲﾁｹﾝ","kana_city":"ﾅｺﾞﾔｼﾆｼｸ","kana_address":"ｳｼｼﾞﾏﾁｮｳ","pref":"愛知県","city":"名古屋市西区","address":"牛島町"},
{"zip_code":"4516090","kana_pref":"ｱｲﾁｹﾝ","kana_city":"ﾅｺﾞﾔｼﾆｼｸ","kana_address":"ｳｼｼﾞﾏﾁｮｳﾅｺﾞﾔﾙｰｾﾝﾄﾀﾜｰ","pref":"愛知県","city":"名古屋市西区","address":"牛島町名古屋ルーセントタワー"},
{"zip_code":"4516001","kana_pref":"ｱｲﾁｹﾝ","kana_city":"ﾅｺﾞﾔｼﾆｼｸ","kana_address":"ｳｼｼﾞﾏﾁｮｳﾅｺﾞﾔﾙｰｾﾝﾄﾀﾜｰ","pref":"愛知県","city":"名古屋市西区","address":"牛島町名古屋ルーセントタワー"},
{"zip_code":"4516002","kana_pref":"ｱｲﾁｹﾝ","kana_city":"ﾅｺﾞﾔｼﾆｼｸ","kana_address":"ｳｼｼﾞﾏﾁｮｳﾅｺﾞﾔﾙｰｾﾝﾄﾀﾜｰ","pref":"愛知県","city":"名古屋市西区","address":"牛島町名古屋ルーセントタワー"},
{"zip_code":"4516003","kana_pref":"ｱｲﾁｹﾝ","kana_city":"ﾅｺﾞﾔｼﾆｼｸ","kana_address":"ｳｼｼﾞﾏﾁｮｳﾅｺﾞﾔﾙｰｾﾝﾄﾀﾜｰ","pref":"愛知県","city":"名古屋市西区","address":"牛島町名古屋ルーセントタワー"},
{"zip_code":"4516004","kana_pref":"ｱｲﾁｹﾝ","kana_city":"ﾅｺﾞﾔｼﾆｼｸ","kana_address":"ｳｼｼﾞﾏﾁｮｳﾅｺﾞﾔﾙｰｾﾝﾄﾀﾜｰ","pref":"愛知県","city":"名古屋市西区","address":"牛島町名古屋ルーセントタワー"},
{"zip_code":"4516005","kana_pref":"ｱｲﾁｹﾝ","kana_city":"ﾅｺﾞﾔｼﾆｼｸ","kana_address":"ｳｼｼﾞﾏﾁｮｳﾅｺﾞﾔﾙｰｾﾝﾄﾀﾜｰ","pref":"愛知県","city":"名古屋市西区","address":"牛島町名古屋ルーセントタワー"},
{"zip_code":"4516006","kana_pref":"ｱｲﾁｹﾝ","kana_city":"ﾅｺﾞﾔｼﾆｼｸ","kana_address":"ｳｼｼﾞﾏﾁｮｳﾅｺﾞﾔﾙｰｾﾝﾄﾀﾜｰ","pref":"愛知県","city":"名古屋市西区","address":"牛島町名古屋ルーセントタワー"},
{"zip_code":"4516007","kana_pref":"ｱｲﾁｹﾝ","kana_city":"ﾅｺﾞﾔｼﾆｼｸ","kana_address":"ｳｼｼﾞﾏﾁｮｳﾅｺﾞﾔﾙｰｾﾝﾄﾀﾜｰ","pref":"愛知県","city":"名古屋市西区","address":"牛島町名古屋ルーセントタワー"},
{"zip_code":"4516008","kana_pref":"ｱｲﾁｹﾝ","kana_city":"ﾅｺﾞﾔｼﾆｼｸ","kana_address":"ｳｼｼﾞﾏﾁｮｳﾅｺﾞﾔﾙｰｾﾝﾄﾀﾜｰ","pref":"愛知県","city":"名古屋市西区","address":"牛島町名古屋ルーセントタワー"},
{"zip_code":"4516009","kana_pref":"ｱｲﾁｹﾝ","kana_city":"ﾅｺﾞﾔｼﾆｼｸ","kana_address":"ｳｼｼﾞﾏﾁｮｳﾅｺﾞﾔﾙｰｾﾝﾄﾀﾜｰ","pref":"愛知県","city":"名古屋市西区","address":"牛島町名古屋ルーセントタワー"},
{"zip_code":"4516010","kana_pref":"ｱｲﾁｹﾝ","kana_city":"ﾅｺﾞﾔｼﾆｼｸ","kana_address":"ｳｼｼﾞﾏﾁｮｳﾅｺﾞﾔﾙｰｾﾝﾄﾀﾜｰ","pref":"愛知県","city":"名古屋市西区","address":"牛島町名古屋ルーセントタワー"},
{"zip_code":"4516011","kana_pref":"ｱｲﾁｹﾝ","kana_city":"ﾅｺﾞﾔｼﾆｼｸ","kana_address":"ｳｼｼﾞﾏﾁｮｳﾅｺﾞﾔﾙｰｾﾝﾄﾀﾜｰ","pref":"愛知県","city":"名古屋市西区","address":"牛島町名古屋ルーセントタワー"},
{"zip_code":"4516012","kana_pref":"ｱｲﾁｹﾝ","kana_city":"ﾅｺﾞﾔｼﾆｼｸ","kana_address":"ｳｼｼﾞﾏﾁｮｳﾅｺﾞﾔﾙｰｾﾝﾄﾀﾜｰ","pref":"愛知県","city":"名古屋市西区","address":"牛島町名古屋ルーセントタワー"},
{"zip_code":"4516013","kana_pref":"ｱｲﾁｹﾝ","kana_city":"ﾅｺﾞﾔｼﾆｼｸ","kana_address":"ｳｼｼﾞﾏﾁｮｳﾅｺﾞﾔﾙｰｾﾝﾄﾀﾜｰ","pref":"愛知県","city":"名古屋市西区","address":"牛島町名古屋ルーセントタワー"},
{"zip_code":"4516014","kana_pref":"ｱｲﾁｹﾝ","kana_city":"ﾅｺﾞﾔｼﾆｼｸ","kana_address":"ｳｼｼﾞﾏﾁｮｳﾅｺﾞﾔﾙｰｾﾝﾄﾀﾜｰ","pref":"愛知県","city":"名古屋市西区","address":"牛島町名古屋ルーセントタワー"},
{"zip_code":"4516015","kana_pref":"ｱｲﾁｹﾝ","kana_city":"ﾅｺﾞﾔｼﾆｼｸ","kana_address":"ｳｼｼﾞﾏﾁｮｳﾅｺﾞﾔﾙｰｾﾝﾄﾀﾜｰ","pref":"愛知県","city":"名古屋市西区","address":"牛島町名古屋ルーセントタワー"},
{"zip_code":"4516016","kana_pref":"ｱｲﾁｹﾝ","kana_city":"ﾅｺﾞﾔｼﾆｼｸ","kana_address":"ｳｼｼﾞﾏﾁｮｳﾅｺﾞﾔﾙｰｾﾝﾄﾀﾜｰ","pref":"愛知県","city":"名古屋市西区","address":"牛島町名古屋ルーセントタワー"},
{"zip_code":"4516017","kana_pref":"ｱｲﾁｹﾝ","kana_city":"ﾅｺﾞﾔｼﾆｼｸ","kana_address":"ｳｼｼﾞﾏﾁｮｳﾅｺﾞﾔﾙｰｾﾝﾄﾀﾜｰ","pref":"愛知県","city":"名古屋市西区","address":"牛島町名古屋ルーセントタワー"},
{"zip_code":"4516018","kana_pref":"ｱｲﾁｹﾝ","kana_city":"ﾅｺﾞﾔｼﾆｼｸ","kana_address":"ｳｼｼﾞﾏﾁｮｳﾅｺﾞﾔﾙｰｾﾝﾄﾀﾜｰ","pref":"愛知県","city":"名古屋市西区","address":"牛島町名古屋ルーセントタワー"},
{"zip_code":"4516019","kana_pref":"ｱｲﾁｹﾝ","kana_city":"ﾅｺﾞﾔｼﾆｼｸ","kana_address":"ｳｼｼﾞﾏﾁｮｳﾅｺﾞﾔﾙｰｾﾝﾄﾀﾜｰ","pref":"愛知県","city":"名古屋市西区","address":"牛島町名古屋ルーセントタワー"},
{"zip_code":"4516020","kana_pref":"ｱｲﾁｹﾝ","kana_city":"ﾅｺﾞﾔｼﾆｼｸ","kana_address":"ｳｼｼﾞﾏﾁｮｳﾅｺﾞﾔﾙｰｾﾝﾄﾀﾜｰ","pref":"愛知県","city":"名古屋市西区","address":"牛島町名古屋ルーセントタワー"},
{"zip_code":"4516021","kana_pref":"ｱｲﾁｹﾝ","kana_city":"ﾅｺﾞﾔｼﾆｼｸ","kana_address":"ｳｼｼﾞﾏﾁｮｳﾅｺﾞﾔﾙｰｾﾝﾄﾀﾜｰ","pref":"愛知県","city":"名古屋市西区","address":"牛島町名古屋ルーセントタワー"},
{"zip_code":"4516022","kana_pref":"ｱｲﾁｹﾝ","kana_city":"ﾅｺﾞﾔｼﾆｼｸ","kana_address":"ｳｼｼﾞﾏﾁｮｳﾅｺﾞﾔﾙｰｾﾝﾄﾀﾜｰ","pref":"愛知県","city":"名古屋市西区","address":"牛島町名古屋ルーセントタワー"},
{"zip_code":"4516023","kana_pref":"ｱｲﾁｹﾝ","kana_city":"ﾅｺﾞﾔｼﾆｼｸ","kana_address":"ｳｼｼﾞﾏﾁｮｳﾅｺﾞﾔﾙｰｾﾝﾄﾀﾜｰ","pref":"愛知県","city":"名古屋市西区","address":"牛島町名古屋ルーセントタワー"},
{"zip_code":"4516024","kana_pref":"ｱｲﾁｹﾝ","kana_city":"ﾅｺﾞﾔｼﾆｼｸ","kana_address":"ｳｼｼﾞﾏﾁｮｳﾅｺﾞﾔﾙｰｾﾝﾄﾀﾜｰ","pref":"愛知県","city":"名古屋市西区","address":"牛島町名古屋ルーセントタワー"},
{"zip_code":"4516025","kana_pref":"ｱｲﾁｹﾝ","kana_city":"ﾅｺﾞﾔｼﾆｼｸ","kana_address":"ｳｼｼﾞﾏﾁｮｳﾅｺﾞﾔﾙｰｾﾝﾄﾀﾜｰ","pref":"愛知県","city":"名古屋市西区","address":"牛島町名古屋ルーセントタワー"},
{"zip_code":"4516026","kana_pref":"ｱｲﾁｹﾝ","kana_city":"ﾅｺﾞﾔｼﾆｼｸ","kana_address":"ｳｼｼﾞﾏﾁｮｳﾅｺﾞﾔﾙｰｾﾝﾄﾀﾜｰ","pref":"愛知県","city":"名古屋市西区","address":"牛島町名古屋ルーセントタワー"},
{"zip_code":"4516027","kana_pref":"ｱｲﾁｹﾝ","kana_city":"ﾅｺﾞﾔｼﾆｼｸ","kana_address":"ｳｼｼﾞﾏﾁｮｳﾅｺﾞﾔﾙｰｾﾝﾄﾀﾜｰ","pref":"愛知県","city":"名古屋市西区","address":"牛島町名古屋ルーセントタワー"},
{"zip_code":"4516028","kana_pref":"ｱｲﾁｹﾝ","kana_city":"ﾅｺﾞﾔｼﾆｼｸ","kana_address":"ｳｼｼﾞﾏﾁｮｳﾅｺﾞﾔﾙｰｾﾝﾄﾀﾜｰ","pref":"愛知県","city":"名古屋市西区","address":"牛島町名古屋ルーセントタワー"},
{"zip_code":"4516029","kana_pref":"ｱｲﾁｹﾝ","kana_city":"ﾅｺﾞﾔｼﾆｼｸ","kana_address":"ｳｼｼﾞﾏﾁｮｳﾅｺﾞﾔﾙｰｾﾝﾄﾀﾜｰ","pref":"愛知県","city":"名古屋市西区","address":"牛島町名古屋ルーセントタワー"},
{"zip_code":"4516030","kana_pref":"ｱｲﾁｹﾝ","kana_city":"ﾅｺﾞﾔｼﾆｼｸ","kana_address":"ｳｼｼﾞﾏﾁｮｳﾅｺﾞﾔﾙｰｾﾝﾄﾀﾜｰ","pref":"愛知県","city":"名古屋市西区","address":"牛島町名古屋ルーセントタワー"},
{"zip_code":"4516031","kana_pref":"ｱｲﾁｹﾝ","kana_city":"ﾅｺﾞﾔｼﾆｼｸ","kana_address":"ｳｼｼﾞﾏﾁｮｳﾅｺﾞﾔﾙｰｾﾝﾄﾀﾜｰ","pref":"愛知県","city":"名古屋市西区","address":"牛島町名古屋ルーセントタワー"},
{"zip_code":"4516032","kana_pref":"ｱｲﾁｹﾝ","kana_city":"ﾅｺﾞﾔｼﾆｼｸ","kana_address":"ｳｼｼﾞﾏﾁｮｳﾅｺﾞﾔﾙｰｾﾝﾄﾀﾜｰ","pref":"愛知県","city":"名古屋市西区","address":"牛島町名古屋ルーセントタワー"},
{"zip_code":"4516033","kana_pref":"ｱｲﾁｹﾝ","kana_city":"ﾅｺﾞﾔｼﾆｼｸ","kana_address":"ｳｼｼﾞﾏﾁｮｳﾅｺﾞﾔﾙｰｾﾝﾄﾀﾜｰ","pref":"愛知県","city":"名古屋市西区","address":"牛島町名古屋ルーセントタワー"},
{"zip_code":"4516034","kana_pref":"ｱｲﾁｹﾝ","kana_city":"ﾅｺﾞﾔｼﾆｼｸ","kana_address":"ｳｼｼﾞﾏﾁｮｳﾅｺﾞﾔﾙｰｾﾝﾄﾀﾜｰ","pref":"愛知県","city":"名古屋市西区","address":"牛島町名古屋ルーセントタワー"},
{"zip_code":"4516035","kana_pref":"ｱｲﾁｹﾝ","kana_city":"ﾅｺﾞﾔｼﾆｼｸ","kana_address":"ｳｼｼﾞﾏﾁｮｳﾅｺﾞﾔﾙｰｾﾝﾄﾀﾜｰ","pref":"愛知県","city":"名古屋市西区","address":"牛島町名古屋ルーセントタワー"},
{"zip_code":"4516036","kana_pref":"ｱｲﾁｹﾝ","kana_city":"ﾅｺﾞﾔｼﾆｼｸ","kana_address":"ｳｼｼﾞﾏﾁｮｳﾅｺﾞﾔﾙｰｾﾝﾄﾀﾜｰ","pref":"愛知県","city":"名古屋市西区","address":"牛島町名古屋ルーセントタワー"},
{"zip_code":"4516037","kana_pref":"ｱｲﾁｹﾝ","kana_city":"ﾅｺﾞﾔｼﾆｼｸ","kana_address":"ｳｼｼﾞﾏﾁｮｳﾅｺﾞﾔﾙｰｾﾝﾄﾀﾜｰ","pref":"愛知県","city":"名古屋市西区","address":"牛島町名古屋ルーセントタワー"},
{"zip_code":"4516038","kana_pref":"ｱｲﾁｹﾝ","kana_city":"ﾅｺﾞﾔｼﾆｼｸ","kana_address":"ｳｼｼﾞﾏﾁｮｳﾅｺﾞﾔﾙｰｾﾝﾄﾀﾜｰ","pref":"愛知県","city":"名古屋市西区","address":"牛島町名古屋ルーセントタワー"},
{"zip_code":"4516039","kana_pref":"ｱｲﾁｹﾝ","kana_city":"ﾅｺﾞﾔｼﾆｼｸ","kana_address":"ｳｼｼﾞﾏﾁｮｳﾅｺﾞﾔﾙｰｾﾝﾄﾀﾜｰ","pref":"愛知県","city":"名古屋市西区","address":"牛島町名古屋ルーセントタワー"},
{"zip_code":"4516040","kana_pref":"ｱｲﾁｹﾝ","kana_city":"ﾅｺﾞﾔｼﾆｼｸ","kana_address":"ｳｼｼﾞﾏﾁｮｳﾅｺﾞﾔﾙｰｾﾝﾄﾀﾜｰ","pref":"愛知県","city":"名古屋市西区","address":"牛島町名古屋ルーセントタワー"},
{"zip_code":"4510013","kana_pref":"ｱｲﾁｹﾝ","kana_city":"ﾅｺﾞﾔｼﾆｼｸ","kana_address":"ｴﾑｶｴﾁｮｳ","pref":"愛知県","city":"名古屋市西区","address":"江向町"},
{"zip_code":"4510082","kana_pref":"ｱｲﾁｹﾝ","kana_city":"ﾅｺﾞﾔｼﾆｼｸ","kana_address":"ｵｵｶﾈﾁｮｳ","pref":"愛知県","city":"名古屋市西区","address":"大金町"},
{"zip_code":"4510063","kana_pref":"ｱｲﾁｹﾝ","kana_city":"ﾅｺﾞﾔｼﾆｼｸ","kana_address":"ｵｼｷﾘ","pref":"愛知県","city":"名古屋市西区","address":"押切"},
{"zip_code":"4510022","kana_pref":"ｱｲﾁｹﾝ","kana_city":"ﾅｺﾞﾔｼﾆｼｸ","kana_address":"ｶｲﾀﾞﾁｮｳ","pref":"愛知県","city":"名古屋市西区","address":"貝田町"},
{"zip_code":"4510072","kana_pref":"ｱｲﾁｹﾝ","kana_city":"ﾅｺﾞﾔｼﾆｼｸ","kana_address":"ｶｻﾄﾘﾁｮｳ","pref":"愛知県","city":"名古屋市西区","address":"笠取町"},
{"zip_code":"4510025","kana_pref":"ｱｲﾁｹﾝ","kana_city":"ﾅｺﾞﾔｼﾆｼｸ","kana_address":"ｶﾐﾅｺﾞﾔ","pref":"愛知県","city":"名古屋市西区","address":"上名古屋"},
{"zip_code":"4510084","kana_pref":"ｱｲﾁｹﾝ","kana_city":"ﾅｺﾞﾔｼﾆｼｸ","kana_address":"ｶﾐﾎﾘｺｼﾁｮｳ","pref":"愛知県","city":"名古屋市西区","address":"上堀越町"},
{"zip_code":"4510044","kana_pref":"ｱｲﾁｹﾝ","kana_city":"ﾅｺﾞﾔｼﾆｼｸ","kana_address":"ｷｸｲ","pref":"愛知県","city":"名古屋市西区","address":"菊井"},
{"zip_code":"4510075","kana_pref":"ｱｲﾁｹﾝ","kana_city":"ﾅｺﾞﾔｼﾆｼｸ","kana_address":"ｺｳｾｲﾄｵﾘ","pref":"愛知県","city":"名古屋市西区","address":"康生通"},
{"zip_code":"4510015","kana_pref":"ｱｲﾁｹﾝ","kana_city":"ﾅｺﾞﾔｼﾆｼｸ","kana_address":"ｺｳﾉﾐﾁｮｳ","pref":"愛知県","city":"名古屋市西区","address":"香呑町"},
{"zip_code":"4510066","kana_pref":"ｱｲﾁｹﾝ","kana_city":"ﾅｺﾞﾔｼﾆｼｸ","kana_address":"ｺﾀﾞﾏ","pref":"愛知県","city":"名古屋市西区","address":"児玉"},
{"zip_code":"4510052","kana_pref":"ｱｲﾁｹﾝ","kana_city":"ﾅｺﾞﾔｼﾆｼｸ","kana_address":"ｻｺｳ","pref":"愛知県","city":"名古屋市西区","address":"栄生"},
{"zip_code":"4510077","kana_pref":"ｱｲﾁｹﾝ","kana_city":"ﾅｺﾞﾔｼﾆｼｸ","kana_address":"ｻｻﾂﾞｶﾁｮｳ","pref":"愛知県","city":"名古屋市西区","address":"笹塚町"},
{"zip_code":"4510031","kana_pref":"ｱｲﾁｹﾝ","kana_city":"ﾅｺﾞﾔｼﾆｼｸ","kana_address":"ｼﾞｮｳｻｲ","pref":"愛知県","city":"名古屋市西区","address":"城西"},
{"zip_code":"4510061","kana_pref":"ｱｲﾁｹﾝ","kana_city":"ﾅｺﾞﾔｼﾆｼｸ","kana_address":"ｼﾞｮｳｼﾝ","pref":"愛知県","city":"名古屋市西区","address":"浄心"},
{"zip_code":"4510073","kana_pref":"ｱｲﾁｹﾝ","kana_city":"ﾅｺﾞﾔｼﾆｼｸ","kana_address":"ｼﾞｮｳｼﾝﾎﾝﾄｵﾘ","pref":"愛知県","city":"名古屋市西区","address":"浄心本通"},
{"zip_code":"4510016","kana_pref":"ｱｲﾁｹﾝ","kana_city":"ﾅｺﾞﾔｼﾆｼｸ","kana_address":"ｼｮｳﾅｲﾄｵﾘ","pref":"愛知県","city":"名古屋市西区","address":"庄内通"},
{"zip_code":"4510023","kana_pref":"ｱｲﾁｹﾝ","kana_city":"ﾅｺﾞﾔｼﾆｼｸ","kana_address":"ｼﾞｮｳﾎｸﾁｮｳ","pref":"愛知県","city":"名古屋市西区","address":"城北町"},
{"zip_code":"4510083","kana_pref":"ｱｲﾁｹﾝ","kana_city":"ﾅｺﾞﾔｼﾆｼｸ","kana_address":"ｼﾝﾌﾟｸｼﾞﾁｮｳ","pref":"愛知県","city":"名古屋市西区","address":"新福寺町"},
{"zip_code":"4510043","kana_pref":"ｱｲﾁｹﾝ","kana_city":"ﾅｺﾞﾔｼﾆｼｸ","kana_address":"ｼﾝﾐﾁ","pref":"愛知県","city":"名古屋市西区","address":"新道"},
{"zip_code":"4510032","kana_pref":"ｱｲﾁｹﾝ","kana_city":"ﾅｺﾞﾔｼﾆｼｸ","kana_address":"ｽｷﾔﾁｮｳ","pref":"愛知県","city":"名古屋市西区","address":"数寄屋町"},
{"zip_code":"4510035","kana_pref":"ｱｲﾁｹﾝ","kana_city":"ﾅｺﾞﾔｼﾆｼｸ","kana_address":"ｾﾝｹﾞﾝ","pref":"愛知県","city":"名古屋市西区","address":"浅間"},
{"zip_code":"4510026","kana_pref":"ｱｲﾁｹﾝ","kana_city":"ﾅｺﾞﾔｼﾆｼｸ","kana_address":"ﾀﾊﾞﾀﾁｮｳ","pref":"愛知県","city":"名古屋市西区","address":"田幡町"},
{"zip_code":"4510024","kana_pref":"ｱｲﾁｹﾝ","kana_city":"ﾅｺﾞﾔｼﾆｼｸ","kana_address":"ﾁﾁﾌﾞﾄｵﾘ","pref":"愛知県","city":"名古屋市西区","address":"秩父通"},
{"zip_code":"4510065","kana_pref":"ｱｲﾁｹﾝ","kana_city":"ﾅｺﾞﾔｼﾆｼｸ","kana_address":"ﾃﾝｼﾞﾝﾔﾏﾁｮｳ","pref":"愛知県","city":"名古屋市西区","address":"天神山町"},
{"zip_code":"4510076","kana_pref":"ｱｲﾁｹﾝ","kana_city":"ﾅｺﾞﾔｼﾆｼｸ","kana_address":"ﾄｳｶﾞﾝﾁｮｳ","pref":"愛知県","city":"名古屋市西区","address":"東岸町"},
{"zip_code":"4510071","kana_pref":"ｱｲﾁｹﾝ","kana_city":"ﾅｺﾞﾔｼﾆｼｸ","kana_address":"ﾄﾘﾐﾁｮｳ","pref":"愛知県","city":"名古屋市西区","address":"鳥見町"},
{"zip_code":"4510042","kana_pref":"ｱｲﾁｹﾝ","kana_city":"ﾅｺﾞﾔｼﾆｼｸ","kana_address":"ﾅｺﾞﾉ","pref":"愛知県","city":"名古屋市西区","address":"那古野"},
{"zip_code":"4510081","kana_pref":"ｱｲﾁｹﾝ","kana_city":"ﾅｺﾞﾔｼﾆｼｸ","kana_address":"ﾅﾂﾞｶﾁｮｳ","pref":"愛知県","city":"名古屋市西区","address":"名塚町"},
{"zip_code":"4510027","kana_pref":"ｱｲﾁｹﾝ","kana_city":"ﾅｺﾞﾔｼﾆｼｸ","kana_address":"ﾆｼｼｶﾞﾁｮｳ","pref":"愛知県","city":"名古屋市西区","address":"西志賀町"},
{"zip_code":"4510051","kana_pref":"ｱｲﾁｹﾝ","kana_city":"ﾅｺﾞﾔｼﾆｼｸ","kana_address":"ﾉﾘﾀｹｼﾝﾏﾁ","pref":"愛知県","city":"名古屋市西区","address":"則武新町"},
{"zip_code":"4510062","kana_pref":"ｱｲﾁｹﾝ","kana_city":"ﾅｺﾞﾔｼﾆｼｸ","kana_address":"ﾊﾅﾉｷ","pref":"愛知県","city":"名古屋市西区","address":"花の木"},
{"zip_code":"4510041","kana_pref":"ｱｲﾁｹﾝ","kana_city":"ﾅｺﾞﾔｼﾆｼｸ","kana_address":"ﾊﾊﾞｼﾀ","pref":"愛知県","city":"名古屋市西区","address":"幅下"},
{"zip_code":"4510034","kana_pref":"ｱｲﾁｹﾝ","kana_city":"ﾅｺﾞﾔｼﾆｼｸ","kana_address":"ﾋﾉｸﾁﾁｮｳ","pref":"愛知県","city":"名古屋市西区","address":"樋の口町"},
{"zip_code":"4510053","kana_pref":"ｱｲﾁｹﾝ","kana_city":"ﾅｺﾞﾔｼﾆｼｸ","kana_address":"ﾋﾞﾜｼﾞﾏ","pref":"愛知県","city":"名古屋市西区","address":"枇杷島"},
{"zip_code":"4510055","kana_pref":"ｱｲﾁｹﾝ","kana_city":"ﾅｺﾞﾔｼﾆｼｸ","kana_address":"ﾎﾘｺｼ","pref":"愛知県","city":"名古屋市西区","address":"堀越"},
{"zip_code":"4510033","kana_pref":"ｱｲﾁｹﾝ","kana_city":"ﾅｺﾞﾔｼﾆｼｸ","kana_address":"ﾎﾘﾊﾞﾀﾁｮｳ","pref":"愛知県","city":"名古屋市西区","address":"堀端町"},
{"zip_code":"4510011","kana_pref":"ｱｲﾁｹﾝ","kana_city":"ﾅｺﾞﾔｼﾆｼｸ","kana_address":"ﾏｽｶﾞﾀﾁｮｳ","pref":"愛知県","city":"名古屋市西区","address":"桝形町"},
{"zip_code":"4510014","kana_pref":"ｱｲﾁｹﾝ","kana_city":"ﾅｺﾞﾔｼﾆｼｸ","kana_address":"ﾏﾀﾎﾁｮｳ","pref":"愛知県","city":"名古屋市西区","address":"又穂町"},
{"zip_code":"4510074","kana_pref":"ｱｲﾁｹﾝ","kana_city":"ﾅｺﾞﾔｼﾆｼｸ","kana_address":"ﾏﾝﾀﾞｲﾁｮｳ","pref":"愛知県","city":"名古屋市西区","address":"万代町"},
{"zip_code":"4510054","kana_pref":"ｱｲﾁｹﾝ","kana_city":"ﾅｺﾞﾔｼﾆｼｸ","kana_address":"ﾐﾅﾐﾎﾘｺｼ","pref":"愛知県","city":"名古屋市西区","address":"南堀越"},
{"zip_code":"4510045","kana_pref":"ｱｲﾁｹﾝ","kana_city":"ﾅｺﾞﾔｼﾆｼｸ","kana_address":"ﾒｲｴｷ","pref":"愛知県","city":"名古屋市西区","address":"名駅"},
{"zip_code":"4510064","kana_pref":"ｱｲﾁｹﾝ","kana_city":"ﾅｺﾞﾔｼﾆｼｸ","kana_address":"ﾒｲｾｲ","pref":"愛知県","city":"名古屋市西区","address":"名西"}]}