{"zip_code":[
{"zip_code":"4530000","kana_pref":"ｱｲﾁｹﾝ","kana_city":"ﾅｺﾞﾔｼﾅｶﾑﾗｸ","kana_address":"","pref":"愛知県","city":"名古屋市中村区","address":""},
{"zip_code":"4530848","kana_pref":"ｱｲﾁｹﾝ","kana_city":"ﾅｺﾞﾔｼﾅｶﾑﾗｸ","kana_address":"ｱﾗﾜｲﾁｮｳ","pref":"愛知県","city":"名古屋市中村区","address":"荒輪井町"},
{"zip_code":"4530066","kana_pref":"ｱｲﾁｹﾝ","kana_city":"ﾅｺﾞﾔｼﾅｶﾑﾗｸ","kana_address":"ｲﾅｶﾐﾁｮｳ","pref":"愛知県","city":"名古屋市中村区","address":"稲上町"},
{"zip_code":"4530849","kana_pref":"ｱｲﾁｹﾝ","kana_city":"ﾅｺﾞﾔｼﾅｶﾑﾗｸ","kana_address":"ｲﾅﾆｼﾁｮｳ","pref":"愛知県","city":"名古屋市中村区","address":"稲西町"},
{"zip_code":"4530841","kana_pref":"ｱｲﾁｹﾝ","kana_city":"ﾅｺﾞﾔｼﾅｶﾑﾗｸ","kana_address":"ｲﾅﾊﾞｼﾞﾁｮｳ","pref":"愛知県","city":"名古屋市中村区","address":"稲葉地町"},
{"zip_code":"4530057","kana_pref":"ｱｲﾁｹﾝ","kana_city":"ﾅｺﾞﾔｼﾅｶﾑﾗｸ","kana_address":"ｲﾅﾊﾞｼﾞﾎﾝﾄｵﾘ","pref":"愛知県","city":"名古屋市中村区","address":"稲葉地本通"},
{"zip_code":"4530832","kana_pref":"ｱｲﾁｹﾝ","kana_city":"ﾅｺﾞﾔｼﾅｶﾑﾗｸ","kana_address":"ｲﾇｲﾃﾞﾁｮｳ","pref":"愛知県","city":"名古屋市中村区","address":"乾出町"},
{"zip_code":"4530038","kana_pref":"ｱｲﾁｹﾝ","kana_city":"ﾅｺﾞﾔｼﾅｶﾑﾗｸ","kana_address":"ｲﾉｺｼﾁｮｳ","pref":"愛知県","city":"名古屋市中村区","address":"猪之越町"},
{"zip_code":"4530012","kana_pref":"ｱｲﾁｹﾝ","kana_city":"ﾅｺﾞﾔｼﾅｶﾑﾗｸ","kana_address":"ｲﾌﾞｶﾁｮｳ","pref":"愛知県","city":"名古屋市中村区","address":"井深町"},
{"zip_code":"4530847","kana_pref":"ｱｲﾁｹﾝ","kana_city":"ﾅｺﾞﾔｼﾅｶﾑﾗｸ","kana_address":"ｲﾜｶﾐﾁｮｳ","pref":"愛知県","city":"名古屋市中村区","address":"岩上町"},
{"zip_code":"4530862","kana_pref":"ｱｲﾁｹﾝ","kana_city":"ﾅｺﾞﾔｼﾅｶﾑﾗｸ","kana_address":"ｲﾜﾂｶﾁｮｳ","pref":"愛知県","city":"名古屋市中村区","address":"岩塚町"},
{"zip_code":"4530861","kana_pref":"ｱｲﾁｹﾝ","kana_city":"ﾅｺﾞﾔｼﾅｶﾑﾗｸ","kana_address":"ｲﾜﾂｶﾎﾝﾄｵﾘ","pref":"愛知県","city":"名古屋市中村区","address":"岩塚本通"},
{"zip_code":"4530853","kana_pref":"ｱｲﾁｹﾝ","kana_city":"ﾅｺﾞﾔｼﾅｶﾑﾗｸ","kana_address":"ｳｼﾀﾞﾄｵﾘ","pref":"愛知県","city":"名古屋市中村区","address":"牛田通"},
{"zip_code":"4530804","kana_pref":"ｱｲﾁｹﾝ","kana_city":"ﾅｺﾞﾔｼﾅｶﾑﾗｸ","kana_address":"ｵｳｺﾞﾝﾄﾞｵﾘ","pref":"愛知県","city":"名古屋市中村区","address":"黄金通"},
{"zip_code":"4530042","kana_pref":"ｱｲﾁｹﾝ","kana_city":"ﾅｺﾞﾔｼﾅｶﾑﾗｸ","kana_address":"ｵｵｱｷﾁｮｳ","pref":"愛知県","city":"名古屋市中村区","address":"大秋町"},
{"zip_code":"4530821","kana_pref":"ｱｲﾁｹﾝ","kana_city":"ﾅｺﾞﾔｼﾅｶﾑﾗｸ","kana_address":"ｵｵﾐﾔﾁｮｳ","pref":"愛知県","city":"名古屋市中村区","address":"大宮町"},
{"zip_code":"4530027","kana_pref":"ｱｲﾁｹﾝ","kana_city":"ﾅｺﾞﾔｼﾅｶﾑﾗｸ","kana_address":"ｵｵﾓﾝﾁｮｳ","pref":"愛知県","city":"名古屋市中村区","address":"大門町"},
{"zip_code":"4530825","kana_pref":"ｱｲﾁｹﾝ","kana_city":"ﾅｺﾞﾔｼﾅｶﾑﾗｸ","kana_address":"ｵｷﾀﾁｮｳ","pref":"愛知県","city":"名古屋市中村区","address":"沖田町"},
{"zip_code":"4530833","kana_pref":"ｱｲﾁｹﾝ","kana_city":"ﾅｺﾞﾔｼﾅｶﾑﾗｸ","kana_address":"ｵｼｷﾀﾞﾁｮｳ","pref":"愛知県","city":"名古屋市中村区","address":"押木田町"},
{"zip_code":"4530852","kana_pref":"ｱｲﾁｹﾝ","kana_city":"ﾅｺﾞﾔｼﾅｶﾑﾗｸ","kana_address":"ｶｸﾜﾘﾁｮｳ","pref":"愛知県","city":"名古屋市中村区","address":"角割町"},
{"zip_code":"4530855","kana_pref":"ｱｲﾁｹﾝ","kana_city":"ﾅｺﾞﾔｼﾅｶﾑﾗｸ","kana_address":"ｶｽﾓﾘﾁｮｳ","pref":"愛知県","city":"名古屋市中村区","address":"烏森町"},
{"zip_code":"4530055","kana_pref":"ｱｲﾁｹﾝ","kana_city":"ﾅｺﾞﾔｼﾅｶﾑﾗｸ","kana_address":"ｶﾄﾘﾁｮｳ","pref":"愛知県","city":"名古屋市中村区","address":"香取町"},
{"zip_code":"4530835","kana_pref":"ｱｲﾁｹﾝ","kana_city":"ﾅｺﾞﾔｼﾅｶﾑﾗｸ","kana_address":"ｶﾐｲｼｶﾜﾁｮｳ","pref":"愛知県","city":"名古屋市中村区","address":"上石川町"},
{"zip_code":"4530809","kana_pref":"ｱｲﾁｹﾝ","kana_city":"ﾅｺﾞﾔｼﾅｶﾑﾗｸ","kana_address":"ｶﾐｺﾒﾉﾁｮｳ","pref":"愛知県","city":"名古屋市中村区","address":"上米野町"},
{"zip_code":"4530043","kana_pref":"ｱｲﾁｹﾝ","kana_city":"ﾅｺﾞﾔｼﾅｶﾑﾗｸ","kana_address":"ｶﾐﾉﾐﾔﾁｮｳ","pref":"愛知県","city":"名古屋市中村区","address":"上ノ宮町"},
{"zip_code":"4530013","kana_pref":"ｱｲﾁｹﾝ","kana_city":"ﾅｺﾞﾔｼﾅｶﾑﾗｸ","kana_address":"ｶﾒｼﾞﾏ","pref":"愛知県","city":"名古屋市中村区","address":"亀島"},
{"zip_code":"4530843","kana_pref":"ｱｲﾁｹﾝ","kana_city":"ﾅｺﾞﾔｼﾅｶﾑﾗｸ","kana_address":"ｶﾓﾂｷﾁｮｳ","pref":"愛知県","city":"名古屋市中村区","address":"鴨付町"},
{"zip_code":"4530865","kana_pref":"ｱｲﾁｹﾝ","kana_city":"ﾅｺﾞﾔｼﾅｶﾑﾗｸ","kana_address":"ｶﾜﾏｴﾁｮｳ","pref":"愛知県","city":"名古屋市中村区","address":"川前町"},
{"zip_code":"4530068","kana_pref":"ｱｲﾁｹﾝ","kana_city":"ﾅｺﾞﾔｼﾅｶﾑﾗｸ","kana_address":"ｷｸｽｲﾁｮｳ","pref":"愛知県","city":"名古屋市中村区","address":"菊水町"},
{"zip_code":"4530824","kana_pref":"ｱｲﾁｹﾝ","kana_city":"ﾅｺﾞﾔｼﾅｶﾑﾗｸ","kana_address":"ｷﾀｳﾗﾁｮｳ","pref":"愛知県","city":"名古屋市中村区","address":"北浦町"},
{"zip_code":"4530815","kana_pref":"ｱｲﾁｹﾝ","kana_city":"ﾅｺﾞﾔｼﾅｶﾑﾗｸ","kana_address":"ｷﾀﾊﾀﾁｮｳ","pref":"愛知県","city":"名古屋市中村区","address":"北畑町"},
{"zip_code":"4530816","kana_pref":"ｱｲﾁｹﾝ","kana_city":"ﾅｺﾞﾔｼﾅｶﾑﾗｸ","kana_address":"ｷｮｳﾃﾞﾝﾁｮｳ","pref":"愛知県","city":"名古屋市中村区","address":"京田町"},
{"zip_code":"4530064","kana_pref":"ｱｲﾁｹﾝ","kana_city":"ﾅｺﾞﾔｼﾅｶﾑﾗｸ","kana_address":"ｸｻﾅｷﾞﾁｮｳ","pref":"愛知県","city":"名古屋市中村区","address":"草薙町"},
{"zip_code":"4530814","kana_pref":"ｱｲﾁｹﾝ","kana_city":"ﾅｺﾞﾔｼﾅｶﾑﾗｸ","kana_address":"ｸﾏﾉﾁｮｳ","pref":"愛知県","city":"名古屋市中村区","address":"熊野町"},
{"zip_code":"4530808","kana_pref":"ｱｲﾁｹﾝ","kana_city":"ﾅｺﾞﾔｼﾅｶﾑﾗｸ","kana_address":"ｺﾞｳﾏｴﾁｮｳ","pref":"愛知県","city":"名古屋市中村区","address":"郷前町"},
{"zip_code":"4530844","kana_pref":"ｱｲﾁｹﾝ","kana_city":"ﾅｺﾞﾔｼﾅｶﾑﾗｸ","kana_address":"ｺｶﾓﾁｮｳ","pref":"愛知県","city":"名古屋市中村区","address":"小鴨町"},
{"zip_code":"4530836","kana_pref":"ｱｲﾁｹﾝ","kana_city":"ﾅｺﾞﾔｼﾅｶﾑﾗｸ","kana_address":"ｺﾞﾀﾝｼﾞｮｳﾁｮｳ","pref":"愛知県","city":"名古屋市中村区","address":"五反城町"},
{"zip_code":"4530028","kana_pref":"ｱｲﾁｹﾝ","kana_city":"ﾅｺﾞﾔｼﾅｶﾑﾗｸ","kana_address":"ｺﾄﾌﾞｷﾁｮｳ","pref":"愛知県","city":"名古屋市中村区","address":"寿町"},
{"zip_code":"4530807","kana_pref":"ｱｲﾁｹﾝ","kana_city":"ﾅｺﾞﾔｼﾅｶﾑﾗｸ","kana_address":"ｺﾞﾝｹﾞﾝﾄｵﾘ","pref":"愛知県","city":"名古屋市中村区","address":"権現通"},
{"zip_code":"4530033","kana_pref":"ｱｲﾁｹﾝ","kana_city":"ﾅｺﾞﾔｼﾅｶﾑﾗｸ","kana_address":"ｻｺﾁｮｳ","pref":"愛知県","city":"名古屋市中村区","address":"栄生町"},
{"zip_code":"4530018","kana_pref":"ｱｲﾁｹﾝ","kana_city":"ﾅｺﾞﾔｼﾅｶﾑﾗｸ","kana_address":"ｻｺﾏｴﾁｮｳ","pref":"愛知県","city":"名古屋市中村区","address":"佐古前町"},
{"zip_code":"4530032","kana_pref":"ｱｲﾁｹﾝ","kana_city":"ﾅｺﾞﾔｼﾅｶﾑﾗｸ","kana_address":"ｼｵｲｹﾁｮｳ","pref":"愛知県","city":"名古屋市中村区","address":"塩池町"},
{"zip_code":"4530802","kana_pref":"ｱｲﾁｹﾝ","kana_city":"ﾅｺﾞﾔｼﾅｶﾑﾗｸ","kana_address":"ｼﾓｺﾒﾉﾁｮｳ","pref":"愛知県","city":"名古屋市中村区","address":"下米野町"},
{"zip_code":"4530827","kana_pref":"ｱｲﾁｹﾝ","kana_city":"ﾅｺﾞﾔｼﾅｶﾑﾗｸ","kana_address":"ｼﾓﾅｶﾑﾗﾁｮｳ","pref":"愛知県","city":"名古屋市中村区","address":"下中村町"},
{"zip_code":"4530035","kana_pref":"ｱｲﾁｹﾝ","kana_city":"ﾅｺﾞﾔｼﾅｶﾑﾗｸ","kana_address":"ｼﾞｭｳｵｳﾁｮｳ","pref":"愛知県","city":"名古屋市中村区","address":"十王町"},
{"zip_code":"4530067","kana_pref":"ｱｲﾁｹﾝ","kana_city":"ﾅｺﾞﾔｼﾅｶﾑﾗｸ","kana_address":"ｼｭｸｱﾄﾁｮｳ","pref":"愛知県","city":"名古屋市中村区","address":"宿跡町"},
{"zip_code":"4530819","kana_pref":"ｱｲﾁｹﾝ","kana_city":"ﾅｺﾞﾔｼﾅｶﾑﾗｸ","kana_address":"ｼﾞｮｳｼｭﾁｮｳ","pref":"愛知県","city":"名古屋市中村区","address":"城主町"},
{"zip_code":"4530817","kana_pref":"ｱｲﾁｹﾝ","kana_city":"ﾅｺﾞﾔｼﾅｶﾑﾗｸ","kana_address":"ｼﾗｺﾁｮｳ","pref":"愛知県","city":"名古屋市中村区","address":"白子町"},
{"zip_code":"4530058","kana_pref":"ｱｲﾁｹﾝ","kana_city":"ﾅｺﾞﾔｼﾅｶﾑﾗｸ","kana_address":"ｼﾛﾔｼｷﾁｮｳ","pref":"愛知県","city":"名古屋市中村区","address":"城屋敷町"},
{"zip_code":"4530031","kana_pref":"ｱｲﾁｹﾝ","kana_city":"ﾅｺﾞﾔｼﾅｶﾑﾗｸ","kana_address":"ｼﾝﾄﾐﾁｮｳ","pref":"愛知県","city":"名古屋市中村区","address":"新富町"},
{"zip_code":"4530056","kana_pref":"ｱｲﾁｹﾝ","kana_city":"ﾅｺﾞﾔｼﾅｶﾑﾗｸ","kana_address":"ｽﾅﾀﾞﾁｮｳ","pref":"愛知県","city":"名古屋市中村区","address":"砂田町"},
{"zip_code":"4530062","kana_pref":"ｱｲﾁｹﾝ","kana_city":"ﾅｺﾞﾔｼﾅｶﾑﾗｸ","kana_address":"ｽﾜﾁｮｳ","pref":"愛知県","city":"名古屋市中村区","address":"諏訪町"},
{"zip_code":"4530818","kana_pref":"ｱｲﾁｹﾝ","kana_city":"ﾅｺﾞﾔｼﾅｶﾑﾗｸ","kana_address":"ｾﾝﾅﾘﾄｵﾘ","pref":"愛知県","city":"名古屋市中村区","address":"千成通"},
{"zip_code":"4530801","kana_pref":"ｱｲﾁｹﾝ","kana_city":"ﾅｺﾞﾔｼﾅｶﾑﾗｸ","kana_address":"ﾀｲｺｳ","pref":"愛知県","city":"名古屋市中村区","address":"太閤"},
{"zip_code":"4530811","kana_pref":"ｱｲﾁｹﾝ","kana_city":"ﾅｺﾞﾔｼﾅｶﾑﾗｸ","kana_address":"ﾀｲｺｳﾄｵﾘ","pref":"愛知県","city":"名古屋市中村区","address":"太閤通"},
{"zip_code":"4530806","kana_pref":"ｱｲﾁｹﾝ","kana_city":"ﾅｺﾞﾔｼﾅｶﾑﾗｸ","kana_address":"ﾀｲｼｮｳﾁｮｳ","pref":"愛知県","city":"名古屋市中村区","address":"大正町"},
{"zip_code":"4530034","kana_pref":"ｱｲﾁｹﾝ","kana_city":"ﾅｺﾞﾔｼﾅｶﾑﾗｸ","kana_address":"ﾀﾞｲﾆﾁﾁｮｳ","pref":"愛知県","city":"名古屋市中村区","address":"大日町"},
{"zip_code":"4530854","kana_pref":"ｱｲﾁｹﾝ","kana_city":"ﾅｺﾞﾔｼﾅｶﾑﾗｸ","kana_address":"ﾀｶｽｶﾁｮｳ","pref":"愛知県","city":"名古屋市中村区","address":"高須賀町"},
{"zip_code":"4530037","kana_pref":"ｱｲﾁｹﾝ","kana_city":"ﾅｺﾞﾔｼﾅｶﾑﾗｸ","kana_address":"ﾀｶﾐﾁﾁｮｳ","pref":"愛知県","city":"名古屋市中村区","address":"高道町"},
{"zip_code":"4530016","kana_pref":"ｱｲﾁｹﾝ","kana_city":"ﾅｺﾞﾔｼﾅｶﾑﾗｸ","kana_address":"ﾀｹﾊﾞｼﾁｮｳ","pref":"愛知県","city":"名古屋市中村区","address":"竹橋町"},
{"zip_code":"4530011","kana_pref":"ｱｲﾁｹﾝ","kana_city":"ﾅｺﾞﾔｼﾅｶﾑﾗｸ","kana_address":"ﾁﾊﾗﾁｮｳ","pref":"愛知県","city":"名古屋市中村区","address":"千原町"},
{"zip_code":"4530015","kana_pref":"ｱｲﾁｹﾝ","kana_city":"ﾅｺﾞﾔｼﾅｶﾑﾗｸ","kana_address":"ﾂﾊﾞｷﾁｮｳ","pref":"愛知県","city":"名古屋市中村区","address":"椿町"},
{"zip_code":"4530842","kana_pref":"ｱｲﾁｹﾝ","kana_city":"ﾅｺﾞﾔｼﾅｶﾑﾗｸ","kana_address":"ﾂﾙｷﾞﾁｮｳ","pref":"愛知県","city":"名古屋市中村区","address":"剣町"},
{"zip_code":"4530834","kana_pref":"ｱｲﾁｹﾝ","kana_city":"ﾅｺﾞﾔｼﾅｶﾑﾗｸ","kana_address":"ﾄﾖｸﾆﾄｵﾘ","pref":"愛知県","city":"名古屋市中村区","address":"豊国通"},
{"zip_code":"4530051","kana_pref":"ｱｲﾁｹﾝ","kana_city":"ﾅｺﾞﾔｼﾅｶﾑﾗｸ","kana_address":"ﾄﾖﾊﾞﾀﾁｮｳ","pref":"愛知県","city":"名古屋市中村区","address":"豊幡町"},
{"zip_code":"4530044","kana_pref":"ｱｲﾁｹﾝ","kana_city":"ﾅｺﾞﾔｼﾅｶﾑﾗｸ","kana_address":"ﾄﾘｲﾄｵﾘ","pref":"愛知県","city":"名古屋市中村区","address":"鳥居通"},
{"zip_code":"4530054","kana_pref":"ｱｲﾁｹﾝ","kana_city":"ﾅｺﾞﾔｼﾅｶﾑﾗｸ","kana_address":"ﾄﾘｲﾆｼﾄｵﾘ","pref":"愛知県","city":"名古屋市中村区","address":"鳥居西通"},
{"zip_code":"4530022","kana_pref":"ｱｲﾁｹﾝ","kana_city":"ﾅｺﾞﾔｼﾅｶﾑﾗｸ","kana_address":"ﾅｶｼﾞﾏﾁｮｳ","pref":"愛知県","city":"名古屋市中村区","address":"中島町"},
{"zip_code":"4530053","kana_pref":"ｱｲﾁｹﾝ","kana_city":"ﾅｺﾞﾔｼﾅｶﾑﾗｸ","kana_address":"ﾅｶﾑﾗﾁｮｳ","pref":"愛知県","city":"名古屋市中村区","address":"中村町"},
{"zip_code":"4530831","kana_pref":"ｱｲﾁｹﾝ","kana_city":"ﾅｺﾞﾔｼﾅｶﾑﾗｸ","kana_address":"ﾅｶﾑﾗﾅｶﾏﾁ","pref":"愛知県","city":"名古屋市中村区","address":"中村中町"},
{"zip_code":"4530828","kana_pref":"ｱｲﾁｹﾝ","kana_city":"ﾅｺﾞﾔｼﾅｶﾑﾗｸ","kana_address":"ﾅｶﾑﾗﾎﾝﾏﾁ","pref":"愛知県","city":"名古屋市中村区","address":"中村本町"},
{"zip_code":"4530839","kana_pref":"ｱｲﾁｹﾝ","kana_city":"ﾅｺﾞﾔｼﾅｶﾑﾗｸ","kana_address":"ﾅｶﾞｵｻﾁｮｳ","pref":"愛知県","city":"名古屋市中村区","address":"長筬町"},
{"zip_code":"4530857","kana_pref":"ｱｲﾁｹﾝ","kana_city":"ﾅｺﾞﾔｼﾅｶﾑﾗｸ","kana_address":"ﾅｶﾞｸｻﾁｮｳ","pref":"愛知県","city":"名古屋市中村区","address":"長草町"},
{"zip_code":"4530803","kana_pref":"ｱｲﾁｹﾝ","kana_city":"ﾅｺﾞﾔｼﾅｶﾑﾗｸ","kana_address":"ﾅｶﾞﾄｲﾁｮｳ","pref":"愛知県","city":"名古屋市中村区","address":"長戸井町"},
{"zip_code":"4530856","kana_pref":"ｱｲﾁｹﾝ","kana_city":"ﾅｺﾞﾔｼﾅｶﾑﾗｸ","kana_address":"ﾅﾐｷ","pref":"愛知県","city":"名古屋市中村区","address":"並木"},
{"zip_code":"4530025","kana_pref":"ｱｲﾁｹﾝ","kana_city":"ﾅｺﾞﾔｼﾅｶﾑﾗｸ","kana_address":"ﾆｷﾞﾜｲﾁｮｳ","pref":"愛知県","city":"名古屋市中村区","address":"賑町"},
{"zip_code":"4530812","kana_pref":"ｱｲﾁｹﾝ","kana_city":"ﾅｺﾞﾔｼﾅｶﾑﾗｸ","kana_address":"ﾆｼｺﾒﾉﾁｮｳ","pref":"愛知県","city":"名古屋市中村区","address":"西米野町"},
{"zip_code":"4530846","kana_pref":"ｱｲﾁｹﾝ","kana_city":"ﾅｺﾞﾔｼﾅｶﾑﾗｸ","kana_address":"ﾆｼｻｶｴﾁｮｳ","pref":"愛知県","city":"名古屋市中村区","address":"西栄町"},
{"zip_code":"4530826","kana_pref":"ｱｲﾁｹﾝ","kana_city":"ﾅｺﾞﾔｼﾅｶﾑﾗｸ","kana_address":"ﾆﾌﾞｲｹﾁｮｳ","pref":"愛知県","city":"名古屋市中村区","address":"鈍池町"},
{"zip_code":"4530859","kana_pref":"ｱｲﾁｹﾝ","kana_city":"ﾅｺﾞﾔｼﾅｶﾑﾗｸ","kana_address":"ﾉｶﾞﾐﾁｮｳ","pref":"愛知県","city":"名古屋市中村区","address":"野上町"},
{"zip_code":"4530858","kana_pref":"ｱｲﾁｹﾝ","kana_city":"ﾅｺﾞﾔｼﾅｶﾑﾗｸ","kana_address":"ﾉﾀﾞﾁｮｳ","pref":"愛知県","city":"名古屋市中村区","address":"野田町"},
{"zip_code":"4530014","kana_pref":"ｱｲﾁｹﾝ","kana_city":"ﾅｺﾞﾔｼﾅｶﾑﾗｸ","kana_address":"ﾉﾘﾀｹ","pref":"愛知県","city":"名古屋市中村区","address":"則武"},
{"zip_code":"4530017","kana_pref":"ｱｲﾁｹﾝ","kana_city":"ﾅｺﾞﾔｼﾅｶﾑﾗｸ","kana_address":"ﾉﾘﾀｹﾎﾝﾄｵﾘ","pref":"愛知県","city":"名古屋市中村区","address":"則武本通"},
{"zip_code":"4530026","kana_pref":"ｱｲﾁｹﾝ","kana_city":"ﾅｺﾞﾔｼﾅｶﾑﾗｸ","kana_address":"ﾊｺﾞﾛﾓﾁｮｳ","pref":"愛知県","city":"名古屋市中村区","address":"羽衣町"},
{"zip_code":"4530069","kana_pref":"ｱｲﾁｹﾝ","kana_city":"ﾅｺﾞﾔｼﾅｶﾑﾗｸ","kana_address":"ﾊｼｼﾀﾁｮｳ","pref":"愛知県","city":"名古屋市中村区","address":"橋下町"},
{"zip_code":"4530851","kana_pref":"ｱｲﾁｹﾝ","kana_city":"ﾅｺﾞﾔｼﾅｶﾑﾗｸ","kana_address":"ﾊﾀｴﾄｵﾘ","pref":"愛知県","city":"名古屋市中村区","address":"畑江通"},
{"zip_code":"4530863","kana_pref":"ｱｲﾁｹﾝ","kana_city":"ﾅｺﾞﾔｼﾅｶﾑﾗｸ","kana_address":"ﾊｯｼｬ","pref":"愛知県","city":"名古屋市中村区","address":"八社"},
{"zip_code":"4530063","kana_pref":"ｱｲﾁｹﾝ","kana_city":"ﾅｺﾞﾔｼﾅｶﾑﾗｸ","kana_address":"ﾋｶﾞｼｼﾞｭｸﾁｮｳ","pref":"愛知県","city":"名古屋市中村区","address":"東宿町"},
{"zip_code":"4530823","kana_pref":"ｱｲﾁｹﾝ","kana_city":"ﾅｺﾞﾔｼﾅｶﾑﾗｸ","kana_address":"ﾋﾉﾐﾔﾁｮｳ","pref":"愛知県","city":"名古屋市中村区","address":"日ノ宮町"},
{"zip_code":"4530061","kana_pref":"ｱｲﾁｹﾝ","kana_city":"ﾅｺﾞﾔｼﾅｶﾑﾗｸ","kana_address":"ﾋﾋﾞﾂﾁｮｳ","pref":"愛知県","city":"名古屋市中村区","address":"日比津町"},
{"zip_code":"4530029","kana_pref":"ｱｲﾁｹﾝ","kana_city":"ﾅｺﾞﾔｼﾅｶﾑﾗｸ","kana_address":"ﾋﾖｼﾁｮｳ","pref":"愛知県","city":"名古屋市中村区","address":"日吉町"},
{"zip_code":"4530872","kana_pref":"ｱｲﾁｹﾝ","kana_city":"ﾅｺﾞﾔｼﾅｶﾑﾗｸ","kana_address":"ﾋﾗｲｹﾁｮｳ","pref":"愛知県","city":"名古屋市中村区","address":"平池町"},
{"zip_code":"4530805","kana_pref":"ｱｲﾁｹﾝ","kana_city":"ﾅｺﾞﾔｼﾅｶﾑﾗｸ","kana_address":"ﾌｶｶﾞﾜﾁｮｳ","pref":"愛知県","city":"名古屋市中村区","address":"深川町"},
{"zip_code":"4530045","kana_pref":"ｱｲﾁｹﾝ","kana_city":"ﾅｺﾞﾔｼﾅｶﾑﾗｸ","kana_address":"ﾌｼﾞｴﾁｮｳ","pref":"愛知県","city":"名古屋市中村区","address":"藤江町"},
{"zip_code":"4530837","kana_pref":"ｱｲﾁｹﾝ","kana_city":"ﾅｺﾞﾔｼﾅｶﾑﾗｸ","kana_address":"ﾌﾀｾﾁｮｳ","pref":"愛知県","city":"名古屋市中村区","address":"二瀬町"},
{"zip_code":"4530813","kana_pref":"ｱｲﾁｹﾝ","kana_city":"ﾅｺﾞﾔｼﾅｶﾑﾗｸ","kana_address":"ﾌﾀﾂﾊﾞｼﾁｮｳ","pref":"愛知県","city":"名古屋市中村区","address":"二ツ橋町"},
{"zip_code":"4530041","kana_pref":"ｱｲﾁｹﾝ","kana_city":"ﾅｺﾞﾔｼﾅｶﾑﾗｸ","kana_address":"ﾎﾝｼﾞﾝﾄｵﾘ","pref":"愛知県","city":"名古屋市中村区","address":"本陣通"},
{"zip_code":"4530871","kana_pref":"ｱｲﾁｹﾝ","kana_city":"ﾅｺﾞﾔｼﾅｶﾑﾗｸ","kana_address":"ﾏｷﾉﾁｮｳ","pref":"愛知県","city":"名古屋市中村区","address":"牧野町"},
{"zip_code":"4530021","kana_pref":"ｱｲﾁｹﾝ","kana_city":"ﾅｺﾞﾔｼﾅｶﾑﾗｸ","kana_address":"ﾏﾂﾊﾞﾗﾁｮｳ","pref":"愛知県","city":"名古屋市中村区","address":"松原町"},
{"zip_code":"4530046","kana_pref":"ｱｲﾁｹﾝ","kana_city":"ﾅｺﾞﾔｼﾅｶﾑﾗｸ","kana_address":"ﾐﾁｼﾀﾁｮｳ","pref":"愛知県","city":"名古屋市中村区","address":"道下町"},
{"zip_code":"4530845","kana_pref":"ｱｲﾁｹﾝ","kana_city":"ﾅｺﾞﾔｼﾅｶﾑﾗｸ","kana_address":"ﾐﾔﾂｶﾁｮｳ","pref":"愛知県","city":"名古屋市中村区","address":"宮塚町"},
{"zip_code":"4530838","kana_pref":"ｱｲﾁｹﾝ","kana_city":"ﾅｺﾞﾔｼﾅｶﾑﾗｸ","kana_address":"ﾑｺｳｼﾞﾏﾁｮｳ","pref":"愛知県","city":"名古屋市中村区","address":"向島町"},
{"zip_code":"4530002","kana_pref":"ｱｲﾁｹﾝ","kana_city":"ﾅｺﾞﾔｼﾅｶﾑﾗｸ","kana_address":"ﾒｲｴｷ(1-1-8","pref":"愛知県","city":"名古屋市中村区","address":"名駅（１−１−８"},
{"zip_code":"4530002","kana_pref":"ｱｲﾁｹﾝ","kana_city":"ﾅｺﾞﾔｼﾅｶﾑﾗｸ","kana_address":"1-1-12","pref":"愛知県","city":"名古屋市中村区","address":"１−１−１２"},
{"zip_code":"4530002","kana_pref":"ｱｲﾁｹﾝ","kana_city":"ﾅｺﾞﾔｼﾅｶﾑﾗｸ","kana_address":"1-1-13","pref":"愛知県","city":"名古屋市中村区","address":"１−１−１３"},
{"zip_code":"4530002","kana_pref":"ｱｲﾁｹﾝ","kana_city":"ﾅｺﾞﾔｼﾅｶﾑﾗｸ","kana_address":"1-1-14","pref":"愛知県","city":"名古屋市中村区","address":"１−１−１４"},
{"zip_code":"4530002","kana_pref":"ｱｲﾁｹﾝ","kana_city":"ﾅｺﾞﾔｼﾅｶﾑﾗｸ","kana_address":"1-3-4","pref":"愛知県","city":"名古屋市中村区","address":"１−３−４"},
{"zip_code":"4530002","kana_pref":"ｱｲﾁｹﾝ","kana_city":"ﾅｺﾞﾔｼﾅｶﾑﾗｸ","kana_address":"","pref":"愛知県","city":"名古屋市中村区","address":""},
{"zip_code":"4530002","kana_pref":"ｱｲﾁｹﾝ","kana_city":"ﾅｺﾞﾔｼﾅｶﾑﾗｸ","kana_address":"1-3-7)","pref":"愛知県","city":"名古屋市中村区","address":"１−３−７）"},
{"zip_code":"4530822","kana_pref":"ｱｲﾁｹﾝ","kana_city":"ﾅｺﾞﾔｼﾅｶﾑﾗｸ","kana_address":"ﾒｲｾｲﾄｵﾘ","pref":"愛知県","city":"名古屋市中村区","address":"名西通"},
{"zip_code":"4530024","kana_pref":"ｱｲﾁｹﾝ","kana_city":"ﾅｺﾞﾔｼﾅｶﾑﾗｸ","kana_address":"ﾒｲﾗｸﾁｮｳ","pref":"愛知県","city":"名古屋市中村区","address":"名楽町"},
{"zip_code":"4530047","kana_pref":"ｱｲﾁｹﾝ","kana_city":"ﾅｺﾞﾔｼﾅｶﾑﾗｸ","kana_address":"ﾓﾄﾅｶﾑﾗﾁｮｳ","pref":"愛知県","city":"名古屋市中村区","address":"元中村町"},
{"zip_code":"4530052","kana_pref":"ｱｲﾁｹﾝ","kana_city":"ﾅｺﾞﾔｼﾅｶﾑﾗｸ","kana_address":"ﾓﾘｽｴﾁｮｳ","pref":"愛知県","city":"名古屋市中村区","address":"森末町"},
{"zip_code":"4530036","kana_pref":"ｱｲﾁｹﾝ","kana_city":"ﾅｺﾞﾔｼﾅｶﾑﾗｸ","kana_address":"ﾓﾘﾀﾁｮｳ","pref":"愛知県","city":"名古屋市中村区","address":"森田町"},
{"zip_code":"4530065","kana_pref":"ｱｲﾁｹﾝ","kana_city":"ﾅｺﾞﾔｼﾅｶﾑﾗｸ","kana_address":"ﾔｽｸﾆﾁｮｳ","pref":"愛知県","city":"名古屋市中村区","address":"靖国町"},
{"zip_code":"4530866","kana_pref":"ｱｲﾁｹﾝ","kana_city":"ﾅｺﾞﾔｼﾅｶﾑﾗｸ","kana_address":"ﾖｺｲ","pref":"愛知県","city":"名古屋市中村区","address":"横井"},
{"zip_code":"4530867","kana_pref":"ｱｲﾁｹﾝ","kana_city":"ﾅｺﾞﾔｼﾅｶﾑﾗｸ","kana_address":"ﾖｺｲﾁｮｳ","pref":"愛知県","city":"名古屋市中村区","address":"横井町"},
{"zip_code":"4530864","kana_pref":"ｱｲﾁｹﾝ","kana_city":"ﾅｺﾞﾔｼﾅｶﾑﾗｸ","kana_address":"ﾖｺﾏｴﾁｮｳ","pref":"愛知県","city":"名古屋市中村区","address":"横前町"},
{"zip_code":"4530023","kana_pref":"ｱｲﾁｹﾝ","kana_city":"ﾅｺﾞﾔｼﾅｶﾑﾗｸ","kana_address":"ﾜｶﾐﾔﾁｮｳ","pref":"愛知県","city":"名古屋市中村区","address":"若宮町"}]}