{"zip_code":[
{"zip_code":"4540000","kana_pref":"ｱｲﾁｹﾝ","kana_city":"ﾅｺﾞﾔｼﾅｶｶﾞﾜｸ","kana_address":"","pref":"愛知県","city":"名古屋市中川区","address":""},
{"zip_code":"4540807","kana_pref":"ｱｲﾁｹﾝ","kana_city":"ﾅｺﾞﾔｼﾅｶｶﾞﾜｸ","kana_address":"ｱｲﾁﾁｮｳ","pref":"愛知県","city":"名古屋市中川区","address":"愛知町"},
{"zip_code":"4540057","kana_pref":"ｱｲﾁｹﾝ","kana_city":"ﾅｺﾞﾔｼﾅｶｶﾞﾜｸ","kana_address":"ｱﾂﾀｼﾝﾃﾞﾝﾋｶﾞｼｸﾞﾐ","pref":"愛知県","city":"名古屋市中川区","address":"熱田新田東組"},
{"zip_code":"4540032","kana_pref":"ｱｲﾁｹﾝ","kana_city":"ﾅｺﾞﾔｼﾅｶｶﾞﾜｸ","kana_address":"ｱﾗｴﾁｮｳ","pref":"愛知県","city":"名古屋市中川区","address":"荒江町"},
{"zip_code":"4540869","kana_pref":"ｱｲﾁｹﾝ","kana_city":"ﾅｺﾞﾔｼﾅｶｶﾞﾜｸ","kana_address":"ｱﾗｺ","pref":"愛知県","city":"名古屋市中川区","address":"荒子"},
{"zip_code":"4540044","kana_pref":"ｱｲﾁｹﾝ","kana_city":"ﾅｺﾞﾔｼﾅｶｶﾞﾜｸ","kana_address":"ｱﾗｺｼﾁｮｳ","pref":"愛知県","city":"名古屋市中川区","address":"荒越町"},
{"zip_code":"4540861","kana_pref":"ｱｲﾁｹﾝ","kana_city":"ﾅｺﾞﾔｼﾅｶｶﾞﾜｸ","kana_address":"ｱﾗｺﾁｮｳ","pref":"愛知県","city":"名古屋市中川区","address":"荒子町"},
{"zip_code":"4540922","kana_pref":"ｱｲﾁｹﾝ","kana_city":"ﾅｺﾞﾔｼﾅｶｶﾞﾜｸ","kana_address":"ｱﾗﾅｶﾁｮｳ","pref":"愛知県","city":"名古屋市中川区","address":"荒中町"},
{"zip_code":"4540946","kana_pref":"ｱｲﾁｹﾝ","kana_city":"ﾅｺﾞﾔｼﾅｶｶﾞﾜｸ","kana_address":"ｲｼｷｼﾝﾏﾁ","pref":"愛知県","city":"名古屋市中川区","address":"一色新町"},
{"zip_code":"4540023","kana_pref":"ｱｲﾁｹﾝ","kana_city":"ﾅｺﾞﾔｼﾅｶｶﾞﾜｸ","kana_address":"ｲｼﾊﾞﾁｮｳ","pref":"愛知県","city":"名古屋市中川区","address":"石場町"},
{"zip_code":"4540905","kana_pref":"ｱｲﾁｹﾝ","kana_city":"ﾅｺﾞﾔｼﾅｶｶﾞﾜｸ","kana_address":"ｲﾁﾔﾅｷﾞﾄﾞｵﾘ","pref":"愛知県","city":"名古屋市中川区","address":"一柳通"},
{"zip_code":"4540901","kana_pref":"ｱｲﾁｹﾝ","kana_city":"ﾅｺﾞﾔｼﾅｶｶﾞﾜｸ","kana_address":"ｲﾜﾂｶﾁｮｳ","pref":"愛知県","city":"名古屋市中川区","address":"岩塚町"},
{"zip_code":"4540043","kana_pref":"ｱｲﾁｹﾝ","kana_city":"ﾅｺﾞﾔｼﾅｶｶﾞﾜｸ","kana_address":"ｳｼﾀﾞﾃﾁｮｳ","pref":"愛知県","city":"名古屋市中川区","address":"牛立町"},
{"zip_code":"4540926","kana_pref":"ｱｲﾁｹﾝ","kana_city":"ﾅｺﾞﾔｼﾅｶｶﾞﾜｸ","kana_address":"ｳﾁﾃﾞ","pref":"愛知県","city":"名古屋市中川区","address":"打出"},
{"zip_code":"4540924","kana_pref":"ｱｲﾁｹﾝ","kana_city":"ﾅｺﾞﾔｼﾅｶｶﾞﾜｸ","kana_address":"ｳﾁﾃﾞﾁｮｳ","pref":"愛知県","city":"名古屋市中川区","address":"打出町"},
{"zip_code":"4540923","kana_pref":"ｱｲﾁｹﾝ","kana_city":"ﾅｺﾞﾔｼﾅｶｶﾞﾜｸ","kana_address":"ｳﾁﾃﾞﾎﾝﾏﾁ","pref":"愛知県","city":"名古屋市中川区","address":"打出本町"},
{"zip_code":"4540927","kana_pref":"ｱｲﾁｹﾝ","kana_city":"ﾅｺﾞﾔｼﾅｶｶﾞﾜｸ","kana_address":"ｳﾁﾅｶ","pref":"愛知県","city":"名古屋市中川区","address":"打中"},
{"zip_code":"4540845","kana_pref":"ｱｲﾁｹﾝ","kana_city":"ﾅｺﾞﾔｼﾅｶｶﾞﾜｸ","kana_address":"ｳﾏﾃﾁｮｳ","pref":"愛知県","city":"名古屋市中川区","address":"馬手町"},
{"zip_code":"4540001","kana_pref":"ｱｲﾁｹﾝ","kana_city":"ﾅｺﾞﾔｼﾅｶｶﾞﾜｸ","kana_address":"ｳﾝｶﾞﾁｮｳ","pref":"愛知県","city":"名古屋市中川区","address":"運河町"},
{"zip_code":"4540002","kana_pref":"ｱｲﾁｹﾝ","kana_city":"ﾅｺﾞﾔｼﾅｶｶﾞﾜｸ","kana_address":"ｳﾝｶﾞﾄｵﾘ","pref":"愛知県","city":"名古屋市中川区","address":"運河通"},
{"zip_code":"4540951","kana_pref":"ｱｲﾁｹﾝ","kana_city":"ﾅｺﾞﾔｼﾅｶｶﾞﾜｸ","kana_address":"ｴﾉｷﾂﾞﾆｼﾏﾁ","pref":"愛知県","city":"名古屋市中川区","address":"榎津西町"},
{"zip_code":"4540952","kana_pref":"ｱｲﾁｹﾝ","kana_city":"ﾅｺﾞﾔｼﾅｶｶﾞﾜｸ","kana_address":"ｴﾉｷﾏﾂﾁｮｳ","pref":"愛知県","city":"名古屋市中川区","address":"榎松町"},
{"zip_code":"4540954","kana_pref":"ｱｲﾁｹﾝ","kana_city":"ﾅｺﾞﾔｼﾅｶｶﾞﾜｸ","kana_address":"ｴﾏﾂ","pref":"愛知県","city":"名古屋市中川区","address":"江松"},
{"zip_code":"4540959","kana_pref":"ｱｲﾁｹﾝ","kana_city":"ﾅｺﾞﾔｼﾅｶｶﾞﾜｸ","kana_address":"ｴﾏﾂﾆｼﾏﾁ","pref":"愛知県","city":"名古屋市中川区","address":"江松西町"},
{"zip_code":"4540026","kana_pref":"ｱｲﾁｹﾝ","kana_city":"ﾅｺﾞﾔｼﾅｶｶﾞﾜｸ","kana_address":"ｵｲｾﾁｮｳ","pref":"愛知県","city":"名古屋市中川区","address":"笈瀬町"},
{"zip_code":"4540042","kana_pref":"ｱｲﾁｹﾝ","kana_city":"ﾅｺﾞﾔｼﾅｶｶﾞﾜｸ","kana_address":"ｵｳｼﾞﾝﾁｮｳ","pref":"愛知県","city":"名古屋市中川区","address":"応仁町"},
{"zip_code":"4540863","kana_pref":"ｱｲﾁｹﾝ","kana_city":"ﾅｺﾞﾔｼﾅｶｶﾞﾜｸ","kana_address":"ｵｵｼｵﾁｮｳ","pref":"愛知県","city":"名古屋市中川区","address":"大塩町"},
{"zip_code":"4540843","kana_pref":"ｱｲﾁｹﾝ","kana_city":"ﾅｺﾞﾔｼﾅｶｶﾞﾜｸ","kana_address":"ｵｵﾊﾀﾁｮｳ","pref":"愛知県","city":"名古屋市中川区","address":"大畑町"},
{"zip_code":"4540051","kana_pref":"ｱｲﾁｹﾝ","kana_city":"ﾅｺﾞﾔｼﾅｶｶﾞﾜｸ","kana_address":"ｵｵﾔﾏﾁｮｳ","pref":"愛知県","city":"名古屋市中川区","address":"大山町"},
{"zip_code":"4540841","kana_pref":"ｱｲﾁｹﾝ","kana_city":"ﾅｺﾞﾔｼﾅｶｶﾞﾜｸ","kana_address":"ｵｼﾓﾄﾁｮｳ","pref":"愛知県","city":"名古屋市中川区","address":"押元町"},
{"zip_code":"4540012","kana_pref":"ｱｲﾁｹﾝ","kana_city":"ﾅｺﾞﾔｼﾅｶｶﾞﾜｸ","kana_address":"ｵﾄｳﾊﾞｼ","pref":"愛知県","city":"名古屋市中川区","address":"尾頭橋"},
{"zip_code":"4540829","kana_pref":"ｱｲﾁｹﾝ","kana_city":"ﾅｺﾞﾔｼﾅｶｶﾞﾜｸ","kana_address":"ｵﾓﾄﾁｮｳ","pref":"愛知県","city":"名古屋市中川区","address":"小本町"},
{"zip_code":"4540906","kana_pref":"ｱｲﾁｹﾝ","kana_city":"ﾅｺﾞﾔｼﾅｶｶﾞﾜｸ","kana_address":"ｶｲﾍｲﾁｮｳ","pref":"愛知県","city":"名古屋市中川区","address":"開平町"},
{"zip_code":"4540865","kana_pref":"ｱｲﾁｹﾝ","kana_city":"ﾅｺﾞﾔｼﾅｶｶﾞﾜｸ","kana_address":"ｶｹｲﾘﾁｮｳ","pref":"愛知県","city":"名古屋市中川区","address":"掛入町"},
{"zip_code":"4540819","kana_pref":"ｱｲﾁｹﾝ","kana_city":"ﾅｺﾞﾔｼﾅｶｶﾞﾜｸ","kana_address":"ｶｽﾓﾘﾁｮｳ","pref":"愛知県","city":"名古屋市中川区","address":"烏森町"},
{"zip_code":"4540957","kana_pref":"ｱｲﾁｹﾝ","kana_city":"ﾅｺﾞﾔｼﾅｶｶﾞﾜｸ","kana_address":"ｶﾉｻﾄ","pref":"愛知県","city":"名古屋市中川区","address":"かの里"},
{"zip_code":"4540873","kana_pref":"ｱｲﾁｹﾝ","kana_city":"ﾅｺﾞﾔｼﾅｶｶﾞﾜｸ","kana_address":"ｶﾐﾀｶﾊﾞﾀ","pref":"愛知県","city":"名古屋市中川区","address":"上高畑"},
{"zip_code":"4540846","kana_pref":"ｱｲﾁｹﾝ","kana_city":"ﾅｺﾞﾔｼﾅｶｶﾞﾜｸ","kana_address":"ｶﾐﾅｶﾞﾚﾁｮｳ","pref":"愛知県","city":"名古屋市中川区","address":"上流町"},
{"zip_code":"4540833","kana_pref":"ｱｲﾁｹﾝ","kana_city":"ﾅｺﾞﾔｼﾅｶｶﾞﾜｸ","kana_address":"ｶﾐﾜｷﾁｮｳ","pref":"愛知県","city":"名古屋市中川区","address":"上脇町"},
{"zip_code":"4540916","kana_pref":"ｱｲﾁｹﾝ","kana_city":"ﾅｺﾞﾔｼﾅｶｶﾞﾜｸ","kana_address":"ｶﾜﾏｴﾁｮｳ","pref":"愛知県","city":"名古屋市中川区","address":"川前町"},
{"zip_code":"4540851","kana_pref":"ｱｲﾁｹﾝ","kana_city":"ﾅｺﾞﾔｼﾅｶｶﾞﾜｸ","kana_address":"ｷﾀｴﾁｮｳ","pref":"愛知県","city":"名古屋市中川区","address":"北江町"},
{"zip_code":"4540049","kana_pref":"ｱｲﾁｹﾝ","kana_city":"ﾅｺﾞﾔｼﾅｶｶﾞﾜｸ","kana_address":"ｷﾖｶﾜﾁｮｳ","pref":"愛知県","city":"名古屋市中川区","address":"清川町"},
{"zip_code":"4540832","kana_pref":"ｱｲﾁｹﾝ","kana_city":"ﾅｺﾞﾔｼﾅｶｶﾞﾜｸ","kana_address":"ｷﾖﾌﾈﾁｮｳ","pref":"愛知県","city":"名古屋市中川区","address":"清船町"},
{"zip_code":"4540874","kana_pref":"ｱｲﾁｹﾝ","kana_city":"ﾅｺﾞﾔｼﾅｶｶﾞﾜｸ","kana_address":"ｷﾗﾁｮｳ","pref":"愛知県","city":"名古屋市中川区","address":"吉良町"},
{"zip_code":"4540868","kana_pref":"ｱｲﾁｹﾝ","kana_city":"ﾅｺﾞﾔｼﾅｶｶﾞﾜｸ","kana_address":"ｸｻﾋﾗﾁｮｳ","pref":"愛知県","city":"名古屋市中川区","address":"草平町"},
{"zip_code":"4540984","kana_pref":"ｱｲﾁｹﾝ","kana_city":"ﾅｺﾞﾔｼﾅｶｶﾞﾜｸ","kana_address":"ｸﾏｲﾃﾞﾝ","pref":"愛知県","city":"名古屋市中川区","address":"供米田"},
{"zip_code":"4540856","kana_pref":"ｱｲﾁｹﾝ","kana_city":"ﾅｺﾞﾔｼﾅｶｶﾞﾜｸ","kana_address":"ｺｳｽﾄﾞｵﾘ","pref":"愛知県","city":"名古屋市中川区","address":"小碓通"},
{"zip_code":"4540808","kana_pref":"ｱｲﾁｹﾝ","kana_city":"ﾅｺﾞﾔｼﾅｶｶﾞﾜｸ","kana_address":"ｺｺﾉｴﾁｮｳ","pref":"愛知県","city":"名古屋市中川区","address":"九重町"},
{"zip_code":"4540875","kana_pref":"ｱｲﾁｹﾝ","kana_city":"ﾅｺﾞﾔｼﾅｶｶﾞﾜｸ","kana_address":"ｺｼﾛﾁｮｳ","pref":"愛知県","city":"名古屋市中川区","address":"小城町"},
{"zip_code":"4540849","kana_pref":"ｱｲﾁｹﾝ","kana_city":"ﾅｺﾞﾔｼﾅｶｶﾞﾜｸ","kana_address":"ｺﾂﾞｶﾁｮｳ","pref":"愛知県","city":"名古屋市中川区","address":"小塚町"},
{"zip_code":"4540033","kana_pref":"ｱｲﾁｹﾝ","kana_city":"ﾅｺﾞﾔｼﾅｶｶﾞﾜｸ","kana_address":"ｺﾞﾆｮｳｼ","pref":"愛知県","city":"名古屋市中川区","address":"五女子"},
{"zip_code":"4540034","kana_pref":"ｱｲﾁｹﾝ","kana_city":"ﾅｺﾞﾔｼﾅｶｶﾞﾜｸ","kana_address":"ｺﾞﾆｮｼﾁｮｳ","pref":"愛知県","city":"名古屋市中川区","address":"五女子町"},
{"zip_code":"4540828","kana_pref":"ｱｲﾁｹﾝ","kana_city":"ﾅｺﾞﾔｼﾅｶｶﾞﾜｸ","kana_address":"ｺﾓﾄ","pref":"愛知県","city":"名古屋市中川区","address":"小本"},
{"zip_code":"4540826","kana_pref":"ｱｲﾁｹﾝ","kana_city":"ﾅｺﾞﾔｼﾅｶｶﾞﾜｸ","kana_address":"ｺﾓﾄﾎﾝﾏﾁ","pref":"愛知県","city":"名古屋市中川区","address":"小本本町"},
{"zip_code":"4540812","kana_pref":"ｱｲﾁｹﾝ","kana_city":"ﾅｺﾞﾔｼﾅｶｶﾞﾜｸ","kana_address":"ｻﾂｷﾄｵﾘ","pref":"愛知県","city":"名古屋市中川区","address":"五月通"},
{"zip_code":"4540814","kana_pref":"ｱｲﾁｹﾝ","kana_city":"ﾅｺﾞﾔｼﾅｶｶﾞﾜｸ","kana_address":"ｻﾂｷﾐﾅﾐﾄｵﾘ","pref":"愛知県","city":"名古屋市中川区","address":"五月南通"},
{"zip_code":"4540011","kana_pref":"ｱｲﾁｹﾝ","kana_city":"ﾅｺﾞﾔｼﾅｶｶﾞﾜｸ","kana_address":"ｻﾝﾉｳ","pref":"愛知県","city":"名古屋市中川区","address":"山王"},
{"zip_code":"4540822","kana_pref":"ｱｲﾁｹﾝ","kana_city":"ﾅｺﾞﾔｼﾅｶｶﾞﾜｸ","kana_address":"ｼﾆｮｼﾁｮｳ","pref":"愛知県","city":"名古屋市中川区","address":"四女子町"},
{"zip_code":"4540839","kana_pref":"ｱｲﾁｹﾝ","kana_city":"ﾅｺﾞﾔｼﾅｶｶﾞﾜｸ","kana_address":"ｼﾉﾊﾗﾊﾞｼﾄｵﾘ","pref":"愛知県","city":"名古屋市中川区","address":"篠原橋通"},
{"zip_code":"4540974","kana_pref":"ｱｲﾁｹﾝ","kana_city":"ﾅｺﾞﾔｼﾅｶｶﾞﾜｸ","kana_address":"ｼﾏｲﾁｮｳ","pref":"愛知県","city":"名古屋市中川区","address":"島井町"},
{"zip_code":"4540945","kana_pref":"ｱｲﾁｹﾝ","kana_city":"ﾅｺﾞﾔｼﾅｶｶﾞﾜｸ","kana_address":"ｼﾓﾉｲｯｼｷﾁｮｳ","pref":"愛知県","city":"名古屋市中川区","address":"下之一色町"},
{"zip_code":"4540858","kana_pref":"ｱｲﾁｹﾝ","kana_city":"ﾅｺﾞﾔｼﾅｶｶﾞﾜｸ","kana_address":"ｼｮｳﾄｸﾁｮｳ","pref":"愛知県","city":"名古屋市中川区","address":"正徳町"},
{"zip_code":"4540854","kana_pref":"ｱｲﾁｹﾝ","kana_city":"ﾅｺﾞﾔｼﾅｶｶﾞﾜｸ","kana_address":"ｼｮｳﾈﾝﾁｮｳ","pref":"愛知県","city":"名古屋市中川区","address":"松年町"},
{"zip_code":"4540855","kana_pref":"ｱｲﾁｹﾝ","kana_city":"ﾅｺﾞﾔｼﾅｶｶﾞﾜｸ","kana_address":"ｼｮｳﾒｲﾁｮｳ","pref":"愛知県","city":"名古屋市中川区","address":"昭明町"},
{"zip_code":"4540852","kana_pref":"ｱｲﾁｹﾝ","kana_city":"ﾅｺﾞﾔｼﾅｶｶﾞﾜｸ","kana_address":"ｼｮｳﾜﾊﾞｼﾄｵﾘ","pref":"愛知県","city":"名古屋市中川区","address":"昭和橋通"},
{"zip_code":"4540046","kana_pref":"ｱｲﾁｹﾝ","kana_city":"ﾅｺﾞﾔｼﾅｶｶﾞﾜｸ","kana_address":"ｼﾝｺﾞｳﾁｮｳ","pref":"愛知県","city":"名古屋市中川区","address":"神郷町"},
{"zip_code":"4540055","kana_pref":"ｱｲﾁｹﾝ","kana_city":"ﾅｺﾞﾔｼﾅｶｶﾞﾜｸ","kana_address":"ｼﾞｭｳﾊﾞﾝﾁｮｳ","pref":"愛知県","city":"名古屋市中川区","address":"十番町"},
{"zip_code":"4540056","kana_pref":"ｱｲﾁｹﾝ","kana_city":"ﾅｺﾞﾔｼﾅｶｶﾞﾜｸ","kana_address":"ｼﾞｭｳｲﾁﾊﾞﾝﾁｮｳ","pref":"愛知県","city":"名古屋市中川区","address":"十一番町"},
{"zip_code":"4540947","kana_pref":"ｱｲﾁｹﾝ","kana_city":"ﾅｺﾞﾔｼﾅｶｶﾞﾜｸ","kana_address":"ｽｹﾐﾂ","pref":"愛知県","city":"名古屋市中川区","address":"助光"},
{"zip_code":"4540806","kana_pref":"ｱｲﾁｹﾝ","kana_city":"ﾅｺﾞﾔｼﾅｶｶﾞﾜｸ","kana_address":"ｽﾐｲｹﾁｮｳ","pref":"愛知県","city":"名古屋市中川区","address":"澄池町"},
{"zip_code":"4540821","kana_pref":"ｱｲﾁｹﾝ","kana_city":"ﾅｺﾞﾔｼﾅｶｶﾞﾜｸ","kana_address":"ｿｳｴﾝﾁｮｳ","pref":"愛知県","city":"名古屋市中川区","address":"宗円町"},
{"zip_code":"4540053","kana_pref":"ｱｲﾁｹﾝ","kana_city":"ﾅｺﾞﾔｼﾅｶｶﾞﾜｸ","kana_address":"ｿﾄｼﾝﾁｮｳ","pref":"愛知県","city":"名古屋市中川区","address":"外新町"},
{"zip_code":"4540991","kana_pref":"ｱｲﾁｹﾝ","kana_city":"ﾅｺﾞﾔｼﾅｶｶﾞﾜｸ","kana_address":"ﾀﾞｲﾁ","pref":"愛知県","city":"名古屋市中川区","address":"大地"},
{"zip_code":"4540943","kana_pref":"ｱｲﾁｹﾝ","kana_city":"ﾅｺﾞﾔｼﾅｶｶﾞﾜｸ","kana_address":"ﾀﾞｲﾄｳﾛｳ","pref":"愛知県","city":"名古屋市中川区","address":"大当郎"},
{"zip_code":"4540944","kana_pref":"ｱｲﾁｹﾝ","kana_city":"ﾅｺﾞﾔｼﾅｶｶﾞﾜｸ","kana_address":"ﾀﾞｲﾄｳﾛｳﾁｮｳ","pref":"愛知県","city":"名古屋市中川区","address":"大蟷螂町"},
{"zip_code":"4540838","kana_pref":"ｱｲﾁｹﾝ","kana_city":"ﾅｺﾞﾔｼﾅｶｶﾞﾜｸ","kana_address":"ﾀｲﾍｲﾄｵﾘ","pref":"愛知県","city":"名古屋市中川区","address":"太平通"},
{"zip_code":"4540936","kana_pref":"ｱｲﾁｹﾝ","kana_city":"ﾅｺﾞﾔｼﾅｶｶﾞﾜｸ","kana_address":"ﾀｶｽｷﾞﾁｮｳ","pref":"愛知県","city":"名古屋市中川区","address":"高杉町"},
{"zip_code":"4540911","kana_pref":"ｱｲﾁｹﾝ","kana_city":"ﾅｺﾞﾔｼﾅｶｶﾞﾜｸ","kana_address":"ﾀｶﾊﾞﾀ","pref":"愛知県","city":"名古屋市中川区","address":"高畑"},
{"zip_code":"4540058","kana_pref":"ｱｲﾁｹﾝ","kana_city":"ﾅｺﾞﾔｼﾅｶｶﾞﾜｸ","kana_address":"ﾀﾏｶﾜﾁｮｳ","pref":"愛知県","city":"名古屋市中川区","address":"玉川町"},
{"zip_code":"4540853","kana_pref":"ｱｲﾁｹﾝ","kana_city":"ﾅｺﾞﾔｼﾅｶｶﾞﾜｸ","kana_address":"ﾀﾏﾌﾈﾁｮｳ","pref":"愛知県","city":"名古屋市中川区","address":"玉船町"},
{"zip_code":"4540045","kana_pref":"ｱｲﾁｹﾝ","kana_city":"ﾅｺﾞﾔｼﾅｶｶﾞﾜｸ","kana_address":"ﾀﾝｺﾞﾁｮｳ","pref":"愛知県","city":"名古屋市中川区","address":"丹後町"},
{"zip_code":"4540816","kana_pref":"ｱｲﾁｹﾝ","kana_city":"ﾅｺﾞﾔｼﾅｶｶﾞﾜｸ","kana_address":"ﾁｭｳｷｮｳﾐﾅﾐﾄｵﾘ","pref":"愛知県","city":"名古屋市中川区","address":"中京南通"},
{"zip_code":"4540921","kana_pref":"ｱｲﾁｹﾝ","kana_city":"ﾅｺﾞﾔｼﾅｶｶﾞﾜｸ","kana_address":"ﾁｭｳｺﾞｳ","pref":"愛知県","city":"名古屋市中川区","address":"中郷"},
{"zip_code":"4540804","kana_pref":"ｱｲﾁｹﾝ","kana_city":"ﾅｺﾞﾔｼﾅｶｶﾞﾜｸ","kana_address":"ﾂｷｼﾏﾁｮｳ","pref":"愛知県","city":"名古屋市中川区","address":"月島町"},
{"zip_code":"4540827","kana_pref":"ｱｲﾁｹﾝ","kana_city":"ﾅｺﾞﾔｼﾅｶｶﾞﾜｸ","kana_address":"ﾂｼﾞﾊﾞﾀﾁｮｳ","pref":"愛知県","city":"名古屋市中川区","address":"辻畑町"},
{"zip_code":"4540824","kana_pref":"ｱｲﾁｹﾝ","kana_city":"ﾅｺﾞﾔｼﾅｶｶﾞﾜｸ","kana_address":"ﾂﾀﾓﾄﾁｮｳ","pref":"愛知県","city":"名古屋市中川区","address":"蔦元町"},
{"zip_code":"4540913","kana_pref":"ｱｲﾁｹﾝ","kana_city":"ﾅｺﾞﾔｼﾅｶｶﾞﾜｸ","kana_address":"ﾂﾁﾉﾁｮｳ","pref":"愛知県","city":"名古屋市中川区","address":"土野町"},
{"zip_code":"4540022","kana_pref":"ｱｲﾁｹﾝ","kana_city":"ﾅｺﾞﾔｼﾅｶｶﾞﾜｸ","kana_address":"ﾂﾕﾊｼ","pref":"愛知県","city":"名古屋市中川区","address":"露橋"},
{"zip_code":"4540028","kana_pref":"ｱｲﾁｹﾝ","kana_city":"ﾅｺﾞﾔｼﾅｶｶﾞﾜｸ","kana_address":"ﾂﾕﾊｼﾁｮｳ","pref":"愛知県","city":"名古屋市中川区","address":"露橋町"},
{"zip_code":"4540962","kana_pref":"ｱｲﾁｹﾝ","kana_city":"ﾅｺﾞﾔｼﾅｶｶﾞﾜｸ","kana_address":"ﾄﾀﾞ","pref":"愛知県","city":"名古屋市中川区","address":"戸田"},
{"zip_code":"4540967","kana_pref":"ｱｲﾁｹﾝ","kana_city":"ﾅｺﾞﾔｼﾅｶｶﾞﾜｸ","kana_address":"ﾄﾀﾞﾆｼ","pref":"愛知県","city":"名古屋市中川区","address":"戸田西"},
{"zip_code":"4540961","kana_pref":"ｱｲﾁｹﾝ","kana_city":"ﾅｺﾞﾔｼﾅｶｶﾞﾜｸ","kana_address":"ﾄﾀﾞﾒｲｾｲ","pref":"愛知県","city":"名古屋市中川区","address":"戸田明正"},
{"zip_code":"4540966","kana_pref":"ｱｲﾁｹﾝ","kana_city":"ﾅｺﾞﾔｼﾅｶｶﾞﾜｸ","kana_address":"ﾄﾀﾞﾕﾀｶ","pref":"愛知県","city":"名古屋市中川区","address":"戸田ゆたか"},
{"zip_code":"4540037","kana_pref":"ｱｲﾁｹﾝ","kana_city":"ﾅｺﾞﾔｼﾅｶｶﾞﾜｸ","kana_address":"ﾄﾐｶﾜﾁｮｳ","pref":"愛知県","city":"名古屋市中川区","address":"富川町"},
{"zip_code":"4540954","kana_pref":"ｱｲﾁｹﾝ","kana_city":"ﾅｺﾞﾔｼﾅｶｶﾞﾜｸ","kana_address":"ﾄﾐﾀﾞﾁｮｳｴﾏﾂ","pref":"愛知県","city":"名古屋市中川区","address":"富田町江松"},
{"zip_code":"4540955","kana_pref":"ｱｲﾁｹﾝ","kana_city":"ﾅｺﾞﾔｼﾅｶｶﾞﾜｸ","kana_address":"ﾄﾐﾀﾞﾁｮｳｶﾉｻﾄ","pref":"愛知県","city":"名古屋市中川区","address":"富田町包里"},
{"zip_code":"4540956","kana_pref":"ｱｲﾁｹﾝ","kana_city":"ﾅｺﾞﾔｼﾅｶｶﾞﾜｸ","kana_address":"ﾄﾐﾀﾞﾁｮｳｸﾏｲﾃﾞﾝ","pref":"愛知県","city":"名古屋市中川区","address":"富田町供米田"},
{"zip_code":"4540971","kana_pref":"ｱｲﾁｹﾝ","kana_city":"ﾅｺﾞﾔｼﾅｶｶﾞﾜｸ","kana_address":"ﾄﾐﾀﾞﾁｮｳｾﾝﾉﾝｼﾞ","pref":"愛知県","city":"名古屋市中川区","address":"富田町千音寺"},
{"zip_code":"4540961","kana_pref":"ｱｲﾁｹﾝ","kana_city":"ﾅｺﾞﾔｼﾅｶｶﾞﾜｸ","kana_address":"ﾄﾐﾀﾞﾁｮｳﾄﾀﾞ","pref":"愛知県","city":"名古屋市中川区","address":"富田町戸田"},
{"zip_code":"4540973","kana_pref":"ｱｲﾁｹﾝ","kana_city":"ﾅｺﾞﾔｼﾅｶｶﾞﾜｸ","kana_address":"ﾄﾐﾀﾞﾁｮｳﾊｯﾄﾘ","pref":"愛知県","city":"名古屋市中川区","address":"富田町服部"},
{"zip_code":"4540986","kana_pref":"ｱｲﾁｹﾝ","kana_city":"ﾅｺﾞﾔｼﾅｶｶﾞﾜｸ","kana_address":"ﾄﾐﾀﾞﾁｮｳﾊﾙﾀ","pref":"愛知県","city":"名古屋市中川区","address":"富田町春田"},
{"zip_code":"4540995","kana_pref":"ｱｲﾁｹﾝ","kana_city":"ﾅｺﾞﾔｼﾅｶｶﾞﾜｸ","kana_address":"ﾄﾐﾀﾞﾁｮｳﾌｼﾔ","pref":"愛知県","city":"名古屋市中川区","address":"富田町伏屋"},
{"zip_code":"4540942","kana_pref":"ｱｲﾁｹﾝ","kana_city":"ﾅｺﾞﾔｼﾅｶｶﾞﾜｸ","kana_address":"ﾄﾐﾀﾞﾁｮｳﾏｴﾀﾞ","pref":"愛知県","city":"名古屋市中川区","address":"富田町前田"},
{"zip_code":"4540993","kana_pref":"ｱｲﾁｹﾝ","kana_city":"ﾅｺﾞﾔｼﾅｶｶﾞﾜｸ","kana_address":"ﾄﾐﾀﾞﾁｮｳﾏﾂｼﾀ","pref":"愛知県","city":"名古屋市中川区","address":"富田町松下"},
{"zip_code":"4540992","kana_pref":"ｱｲﾁｹﾝ","kana_city":"ﾅｺﾞﾔｼﾅｶｶﾞﾜｸ","kana_address":"ﾄﾐﾀﾞﾁｮｳﾏﾝﾊﾞ","pref":"愛知県","city":"名古屋市中川区","address":"富田町万場"},
{"zip_code":"4540953","kana_pref":"ｱｲﾁｹﾝ","kana_city":"ﾅｺﾞﾔｼﾅｶｶﾞﾜｸ","kana_address":"ﾄﾐﾀﾞﾁｮｳﾖﾉｷﾂﾞ","pref":"愛知県","city":"名古屋市中川区","address":"富田町榎津"},
{"zip_code":"4540964","kana_pref":"ｱｲﾁｹﾝ","kana_city":"ﾅｺﾞﾔｼﾅｶｶﾞﾜｸ","kana_address":"ﾄﾐﾅｶﾞ","pref":"愛知県","city":"名古屋市中川区","address":"富永"},
{"zip_code":"4540823","kana_pref":"ｱｲﾁｹﾝ","kana_city":"ﾅｺﾞﾔｼﾅｶｶﾞﾜｸ","kana_address":"ﾄﾐﾌﾈﾁｮｳ","pref":"愛知県","city":"名古屋市中川区","address":"富船町"},
{"zip_code":"4540932","kana_pref":"ｱｲﾁｹﾝ","kana_city":"ﾅｺﾞﾔｼﾅｶｶﾞﾜｸ","kana_address":"ﾅｶｼﾞﾏｼﾝﾁｮｳ","pref":"愛知県","city":"名古屋市中川区","address":"中島新町"},
{"zip_code":"4540994","kana_pref":"ｱｲﾁｹﾝ","kana_city":"ﾅｺﾞﾔｼﾅｶｶﾞﾜｸ","kana_address":"ﾅｶﾞｽｶ","pref":"愛知県","city":"名古屋市中川区","address":"長須賀"},
{"zip_code":"4540925","kana_pref":"ｱｲﾁｹﾝ","kana_city":"ﾅｺﾞﾔｼﾅｶｶﾞﾜｸ","kana_address":"ﾅｶｽﾁｮｳ","pref":"愛知県","city":"名古屋市中川区","address":"中須町"},
{"zip_code":"4540837","kana_pref":"ｱｲﾁｹﾝ","kana_city":"ﾅｺﾞﾔｼﾅｶｶﾞﾜｸ","kana_address":"ﾅｶﾉｼﾝﾁｮｳ","pref":"愛知県","city":"名古屋市中川区","address":"中野新町"},
{"zip_code":"4540047","kana_pref":"ｱｲﾁｹﾝ","kana_city":"ﾅｺﾞﾔｼﾅｶｶﾞﾜｸ","kana_address":"ﾅｶﾉﾎﾝﾏﾁ","pref":"愛知県","city":"名古屋市中川区","address":"中野本町"},
{"zip_code":"4540931","kana_pref":"ｱｲﾁｹﾝ","kana_city":"ﾅｺﾞﾔｼﾅｶｶﾞﾜｸ","kana_address":"ﾅｶﾊﾅﾁｮｳ","pref":"愛知県","city":"名古屋市中川区","address":"中花町"},
{"zip_code":"4540815","kana_pref":"ｱｲﾁｹﾝ","kana_city":"ﾅｺﾞﾔｼﾅｶｶﾞﾜｸ","kana_address":"ﾅｶﾞﾗﾁｮｳ","pref":"愛知県","city":"名古屋市中川区","address":"長良町"},
{"zip_code":"4540972","kana_pref":"ｱｲﾁｹﾝ","kana_city":"ﾅｺﾞﾔｼﾅｶｶﾞﾜｸ","kana_address":"ﾆｲｴ","pref":"愛知県","city":"名古屋市中川区","address":"新家"},
{"zip_code":"4540934","kana_pref":"ｱｲﾁｹﾝ","kana_city":"ﾅｺﾞﾔｼﾅｶｶﾞﾜｸ","kana_address":"ﾆｼﾅｶｼﾞﾏ","pref":"愛知県","city":"名古屋市中川区","address":"西中島"},
{"zip_code":"4540004","kana_pref":"ｱｲﾁｹﾝ","kana_city":"ﾅｺﾞﾔｼﾅｶｶﾞﾜｸ","kana_address":"ﾆｼﾋｵｷ","pref":"愛知県","city":"名古屋市中川区","address":"西日置"},
{"zip_code":"4540005","kana_pref":"ｱｲﾁｹﾝ","kana_city":"ﾅｺﾞﾔｼﾅｶｶﾞﾜｸ","kana_address":"ﾆｼﾋｵｷﾁｮｳ","pref":"愛知県","city":"名古屋市中川区","address":"西日置町"},
{"zip_code":"4540982","kana_pref":"ｱｲﾁｹﾝ","kana_city":"ﾅｺﾞﾔｼﾅｶｶﾞﾜｸ","kana_address":"ﾆｼﾌｼﾔ","pref":"愛知県","city":"名古屋市中川区","address":"西伏屋"},
{"zip_code":"4540036","kana_pref":"ｱｲﾁｹﾝ","kana_city":"ﾅｺﾞﾔｼﾅｶｶﾞﾜｸ","kana_address":"ﾆﾆｮｼﾁｮｳ","pref":"愛知県","city":"名古屋市中川区","address":"二女子町"},
{"zip_code":"4540912","kana_pref":"ｱｲﾁｹﾝ","kana_city":"ﾅｺﾞﾔｼﾅｶｶﾞﾜｸ","kana_address":"ﾉﾀﾞ","pref":"愛知県","city":"名古屋市中川区","address":"野田"},
{"zip_code":"4540813","kana_pref":"ｱｲﾁｹﾝ","kana_city":"ﾅｺﾞﾔｼﾅｶｶﾞﾜｸ","kana_address":"ﾉﾘｺｼﾁｮｳ","pref":"愛知県","city":"名古屋市中川区","address":"乗越町"},
{"zip_code":"4540844","kana_pref":"ｱｲﾁｹﾝ","kana_city":"ﾅｺﾞﾔｼﾅｶｶﾞﾜｸ","kana_address":"ﾊｲｹﾁｮｳ","pref":"愛知県","city":"名古屋市中川区","address":"葉池町"},
{"zip_code":"4540860","kana_pref":"ｱｲﾁｹﾝ","kana_city":"ﾅｺﾞﾔｼﾅｶｶﾞﾜｸ","kana_address":"ﾊﾀﾀﾞﾁｮｳ","pref":"愛知県","city":"名古屋市中川区","address":"畑田町"},
{"zip_code":"4540016","kana_pref":"ｱｲﾁｹﾝ","kana_city":"ﾅｺﾞﾔｼﾅｶｶﾞﾜｸ","kana_address":"ﾊﾀﾉﾁｮｳ","pref":"愛知県","city":"名古屋市中川区","address":"幡野町"},
{"zip_code":"4540054","kana_pref":"ｱｲﾁｹﾝ","kana_city":"ﾅｺﾞﾔｼﾅｶｶﾞﾜｸ","kana_address":"ﾊﾁｹﾝﾁｮｳ","pref":"愛知県","city":"名古屋市中川区","address":"八剱町"},
{"zip_code":"4540877","kana_pref":"ｱｲﾁｹﾝ","kana_city":"ﾅｺﾞﾔｼﾅｶｶﾞﾜｸ","kana_address":"ﾊｯﾀﾁｮｳ","pref":"愛知県","city":"名古屋市中川区","address":"八田町"},
{"zip_code":"4540904","kana_pref":"ｱｲﾁｹﾝ","kana_city":"ﾅｺﾞﾔｼﾅｶｶﾞﾜｸ","kana_address":"ﾊｯﾀﾎﾝﾏﾁ","pref":"愛知県","city":"名古屋市中川区","address":"八田本町"},
{"zip_code":"4540976","kana_pref":"ｱｲﾁｹﾝ","kana_city":"ﾅｺﾞﾔｼﾅｶｶﾞﾜｸ","kana_address":"ﾊｯﾄﾘ","pref":"愛知県","city":"名古屋市中川区","address":"服部"},
{"zip_code":"4540902","kana_pref":"ｱｲﾁｹﾝ","kana_city":"ﾅｺﾞﾔｼﾅｶｶﾞﾜｸ","kana_address":"ﾊﾅｲｹﾁｮｳ","pref":"愛知県","city":"名古屋市中川区","address":"花池町"},
{"zip_code":"4540052","kana_pref":"ｱｲﾁｹﾝ","kana_city":"ﾅｺﾞﾔｼﾅｶｶﾞﾜｸ","kana_address":"ﾊﾅﾂﾞｶﾁｮｳ","pref":"愛知県","city":"名古屋市中川区","address":"花塚町"},
{"zip_code":"4540985","kana_pref":"ｱｲﾁｹﾝ","kana_city":"ﾅｺﾞﾔｼﾅｶｶﾞﾜｸ","kana_address":"ﾊﾙﾀ","pref":"愛知県","city":"名古屋市中川区","address":"春田"},
{"zip_code":"4540935","kana_pref":"ｱｲﾁｹﾝ","kana_city":"ﾅｺﾞﾔｼﾅｶｶﾞﾜｸ","kana_address":"ﾋｶﾞｼｵｺｼﾁｮｳ","pref":"愛知県","city":"名古屋市中川区","address":"東起町"},
{"zip_code":"4540958","kana_pref":"ｱｲﾁｹﾝ","kana_city":"ﾅｺﾞﾔｼﾅｶｶﾞﾜｸ","kana_address":"ﾋｶﾞｼｶﾉｻﾄﾁｮｳ","pref":"愛知県","city":"名古屋市中川区","address":"東かの里町"},
{"zip_code":"4540866","kana_pref":"ｱｲﾁｹﾝ","kana_city":"ﾅｺﾞﾔｼﾅｶｶﾞﾜｸ","kana_address":"ﾋｶﾞｼﾅｶｼﾞﾏﾁｮｳ","pref":"愛知県","city":"名古屋市中川区","address":"東中島町"},
{"zip_code":"4540983","kana_pref":"ｱｲﾁｹﾝ","kana_city":"ﾅｺﾞﾔｼﾅｶｶﾞﾜｸ","kana_address":"ﾋｶﾞｼﾊﾙﾀ","pref":"愛知県","city":"名古屋市中川区","address":"東春田"},
{"zip_code":"4540975","kana_pref":"ｱｲﾁｹﾝ","kana_city":"ﾅｺﾞﾔｼﾅｶｶﾞﾜｸ","kana_address":"ﾋﾁﾀﾝﾀﾞﾁｮｳ","pref":"愛知県","city":"名古屋市中川区","address":"七反田町"},
{"zip_code":"4540864","kana_pref":"ｱｲﾁｹﾝ","kana_city":"ﾅｺﾞﾔｼﾅｶｶﾞﾜｸ","kana_address":"ﾋﾗﾄﾁｮｳ","pref":"愛知県","city":"名古屋市中川区","address":"平戸町"},
{"zip_code":"4540027","kana_pref":"ｱｲﾁｹﾝ","kana_city":"ﾅｺﾞﾔｼﾅｶｶﾞﾜｸ","kana_address":"ﾋﾛｶﾜﾁｮｳ","pref":"愛知県","city":"名古屋市中川区","address":"広川町"},
{"zip_code":"4540007","kana_pref":"ｱｲﾁｹﾝ","kana_city":"ﾅｺﾞﾔｼﾅｶｶﾞﾜｸ","kana_address":"ﾋﾛｽﾐﾁｮｳ","pref":"愛知県","city":"名古屋市中川区","address":"広住町"},
{"zip_code":"4540867","kana_pref":"ｱｲﾁｹﾝ","kana_city":"ﾅｺﾞﾔｼﾅｶｶﾞﾜｸ","kana_address":"ﾋﾛﾀﾁｮｳ","pref":"愛知県","city":"名古屋市中川区","address":"広田町"},
{"zip_code":"4540059","kana_pref":"ｱｲﾁｹﾝ","kana_city":"ﾅｺﾞﾔｼﾅｶｶﾞﾜｸ","kana_address":"ﾌｸｶﾜﾁｮｳ","pref":"愛知県","city":"名古屋市中川区","address":"福川町"},
{"zip_code":"4540965","kana_pref":"ｱｲﾁｹﾝ","kana_city":"ﾅｺﾞﾔｼﾅｶｶﾞﾜｸ","kana_address":"ﾌｸｼﾏ","pref":"愛知県","city":"名古屋市中川区","address":"福島"},
{"zip_code":"4540802","kana_pref":"ｱｲﾁｹﾝ","kana_city":"ﾅｺﾞﾔｼﾅｶｶﾞﾜｸ","kana_address":"ﾌｸｽﾞﾐﾁｮｳ","pref":"愛知県","city":"名古屋市中川区","address":"福住町"},
{"zip_code":"4540836","kana_pref":"ｱｲﾁｹﾝ","kana_city":"ﾅｺﾞﾔｼﾅｶｶﾞﾜｸ","kana_address":"ﾌｸﾌﾈﾁｮｳ","pref":"愛知県","city":"名古屋市中川区","address":"福船町"},
{"zip_code":"4540996","kana_pref":"ｱｲﾁｹﾝ","kana_city":"ﾅｺﾞﾔｼﾅｶｶﾞﾜｸ","kana_address":"ﾌｼﾔ","pref":"愛知県","city":"名古屋市中川区","address":"伏屋"},
{"zip_code":"4540805","kana_pref":"ｱｲﾁｹﾝ","kana_city":"ﾅｺﾞﾔｼﾅｶｶﾞﾜｸ","kana_address":"ﾌﾅﾄﾁｮｳ","pref":"愛知県","city":"名古屋市中川区","address":"舟戸町"},
{"zip_code":"4540803","kana_pref":"ｱｲﾁｹﾝ","kana_city":"ﾅｺﾞﾔｼﾅｶｶﾞﾜｸ","kana_address":"ﾎｳｾｲﾁｮｳ","pref":"愛知県","city":"名古屋市中川区","address":"豊成町"},
{"zip_code":"4540859","kana_pref":"ｱｲﾁｹﾝ","kana_city":"ﾅｺﾞﾔｼﾅｶｶﾞﾜｸ","kana_address":"ﾎｳｿﾞｳﾁｮｳ","pref":"愛知県","city":"名古屋市中川区","address":"法蔵町"},
{"zip_code":"4540847","kana_pref":"ｱｲﾁｹﾝ","kana_city":"ﾅｺﾞﾔｼﾅｶｶﾞﾜｸ","kana_address":"ﾎｿｺﾒﾁｮｳ","pref":"愛知県","city":"名古屋市中川区","address":"細米町"},
{"zip_code":"4540933","kana_pref":"ｱｲﾁｹﾝ","kana_city":"ﾅｺﾞﾔｼﾅｶｶﾞﾜｸ","kana_address":"ﾎｯｹ","pref":"愛知県","city":"名古屋市中川区","address":"法華"},
{"zip_code":"4540937","kana_pref":"ｱｲﾁｹﾝ","kana_city":"ﾅｺﾞﾔｼﾅｶｶﾞﾜｸ","kana_address":"ﾎｯｹﾆｼﾏﾁ","pref":"愛知県","city":"名古屋市中川区","address":"法華西町"},
{"zip_code":"4540914","kana_pref":"ｱｲﾁｹﾝ","kana_city":"ﾅｺﾞﾔｼﾅｶｶﾞﾜｸ","kana_address":"ﾎﾝﾏｴﾀﾞﾁｮｳ","pref":"愛知県","city":"名古屋市中川区","address":"本前田町"},
{"zip_code":"4540941","kana_pref":"ｱｲﾁｹﾝ","kana_city":"ﾅｺﾞﾔｼﾅｶｶﾞﾜｸ","kana_address":"ﾏｴﾀﾞﾆｼﾏﾁ","pref":"愛知県","city":"名古屋市中川区","address":"前田西町"},
{"zip_code":"4540025","kana_pref":"ｱｲﾁｹﾝ","kana_city":"ﾅｺﾞﾔｼﾅｶｶﾞﾜｸ","kana_address":"ﾏｴﾅﾐﾁｮｳ","pref":"愛知県","city":"名古屋市中川区","address":"前並町"},
{"zip_code":"4540003","kana_pref":"ｱｲﾁｹﾝ","kana_city":"ﾅｺﾞﾔｼﾅｶｶﾞﾜｸ","kana_address":"ﾏﾂｼｹﾞﾁｮｳ","pref":"愛知県","city":"名古屋市中川区","address":"松重町"},
{"zip_code":"4540848","kana_pref":"ｱｲﾁｹﾝ","kana_city":"ﾅｺﾞﾔｼﾅｶｶﾞﾜｸ","kana_address":"ﾏﾂﾉｷﾁｮｳ","pref":"愛知県","city":"名古屋市中川区","address":"松ノ木町"},
{"zip_code":"4540818","kana_pref":"ｱｲﾁｹﾝ","kana_city":"ﾅｺﾞﾔｼﾅｶｶﾞﾜｸ","kana_address":"ﾏﾂﾊﾞﾁｮｳ","pref":"愛知県","city":"名古屋市中川区","address":"松葉町"},
{"zip_code":"4540862","kana_pref":"ｱｲﾁｹﾝ","kana_city":"ﾅｺﾞﾔｼﾅｶｶﾞﾜｸ","kana_address":"ﾏﾄﾊﾞﾁｮｳ","pref":"愛知県","city":"名古屋市中川区","address":"的場町"},
{"zip_code":"4540834","kana_pref":"ｱｲﾁｹﾝ","kana_city":"ﾅｺﾞﾔｼﾅｶｶﾞﾜｸ","kana_address":"ﾏﾙｺﾒﾁｮｳ","pref":"愛知県","city":"名古屋市中川区","address":"丸米町"},
{"zip_code":"4540872","kana_pref":"ｱｲﾁｹﾝ","kana_city":"ﾅｺﾞﾔｼﾅｶｶﾞﾜｸ","kana_address":"ﾏﾝﾁｮｳ","pref":"愛知県","city":"名古屋市中川区","address":"万町"},
{"zip_code":"4540997","kana_pref":"ｱｲﾁｹﾝ","kana_city":"ﾅｺﾞﾔｼﾅｶｶﾞﾜｸ","kana_address":"ﾏﾝﾊﾞ","pref":"愛知県","city":"名古屋市中川区","address":"万場"},
{"zip_code":"4540963","kana_pref":"ｱｲﾁｹﾝ","kana_city":"ﾅｺﾞﾔｼﾅｶｶﾞﾜｸ","kana_address":"ﾐｽﾞｻﾄ","pref":"愛知県","city":"名古屋市中川区","address":"水里"},
{"zip_code":"4540811","kana_pref":"ｱｲﾁｹﾝ","kana_city":"ﾅｺﾞﾔｼﾅｶｶﾞﾜｸ","kana_address":"ﾐﾂｲｹﾁｮｳ","pref":"愛知県","city":"名古屋市中川区","address":"三ツ池町"},
{"zip_code":"4540831","kana_pref":"ｱｲﾁｹﾝ","kana_city":"ﾅｺﾞﾔｼﾅｶｶﾞﾜｸ","kana_address":"ﾐﾂﾔﾁｮｳ","pref":"愛知県","city":"名古屋市中川区","address":"三ツ屋町"},
{"zip_code":"4540015","kana_pref":"ｱｲﾁｹﾝ","kana_city":"ﾅｺﾞﾔｼﾅｶｶﾞﾜｸ","kana_address":"ﾐﾅﾐﾔｸﾞﾏﾁｮｳ","pref":"愛知県","city":"名古屋市中川区","address":"南八熊町"},
{"zip_code":"4540817","kana_pref":"ｱｲﾁｹﾝ","kana_city":"ﾅｺﾞﾔｼﾅｶｶﾞﾜｸ","kana_address":"ﾐﾅﾐﾜｷﾁｮｳ","pref":"愛知県","city":"名古屋市中川区","address":"南脇町"},
{"zip_code":"4540842","kana_pref":"ｱｲﾁｹﾝ","kana_city":"ﾅｺﾞﾔｼﾅｶｶﾞﾜｸ","kana_address":"ﾐﾔﾜｷﾁｮｳ","pref":"愛知県","city":"名古屋市中川区","address":"宮脇町"},
{"zip_code":"4540857","kana_pref":"ｱｲﾁｹﾝ","kana_city":"ﾅｺﾞﾔｼﾅｶｶﾞﾜｸ","kana_address":"ﾒｲﾄｸﾁｮｳ","pref":"愛知県","city":"名古屋市中川区","address":"明徳町"},
{"zip_code":"4540048","kana_pref":"ｱｲﾁｹﾝ","kana_city":"ﾅｺﾞﾔｼﾅｶｶﾞﾜｸ","kana_address":"ﾓﾄﾅｶﾉﾁｮｳ","pref":"愛知県","city":"名古屋市中川区","address":"元中野町"},
{"zip_code":"4540801","kana_pref":"ｱｲﾁｹﾝ","kana_city":"ﾅｺﾞﾔｼﾅｶｶﾞﾜｸ","kana_address":"ﾓﾓﾌﾈﾁｮｳ","pref":"愛知県","city":"名古屋市中川区","address":"百船町"},
{"zip_code":"4540041","kana_pref":"ｱｲﾁｹﾝ","kana_city":"ﾅｺﾞﾔｼﾅｶｶﾞﾜｸ","kana_address":"ﾔｶﾞﾐﾁｮｳ","pref":"愛知県","city":"名古屋市中川区","address":"八神町"},
{"zip_code":"4540013","kana_pref":"ｱｲﾁｹﾝ","kana_city":"ﾅｺﾞﾔｼﾅｶｶﾞﾜｸ","kana_address":"ﾔｸﾞﾏ","pref":"愛知県","city":"名古屋市中川区","address":"八熊"},
{"zip_code":"4540035","kana_pref":"ｱｲﾁｹﾝ","kana_city":"ﾅｺﾞﾔｼﾅｶｶﾞﾜｸ","kana_address":"ﾔｸﾞﾏﾄﾞｵﾘ","pref":"愛知県","city":"名古屋市中川区","address":"八熊通"},
{"zip_code":"4540835","kana_pref":"ｱｲﾁｹﾝ","kana_city":"ﾅｺﾞﾔｼﾅｶｶﾞﾜｸ","kana_address":"ﾔﾂﾔﾁｮｳ","pref":"愛知県","city":"名古屋市中川区","address":"八家町"},
{"zip_code":"4540014","kana_pref":"ｱｲﾁｹﾝ","kana_city":"ﾅｺﾞﾔｼﾅｶｶﾞﾜｸ","kana_address":"ﾔﾅｶﾞﾜﾁｮｳ","pref":"愛知県","city":"名古屋市中川区","address":"柳川町"},
{"zip_code":"4540024","kana_pref":"ｱｲﾁｹﾝ","kana_city":"ﾅｺﾞﾔｼﾅｶｶﾞﾜｸ","kana_address":"ﾔﾅｷﾞｼﾏﾁｮｳ","pref":"愛知県","city":"名古屋市中川区","address":"柳島町"},
{"zip_code":"4540907","kana_pref":"ｱｲﾁｹﾝ","kana_city":"ﾅｺﾞﾔｼﾅｶｶﾞﾜｸ","kana_address":"ﾔﾅｷﾞﾀﾞﾁｮｳ","pref":"愛知県","city":"名古屋市中川区","address":"柳田町"},
{"zip_code":"4540006","kana_pref":"ｱｲﾁｹﾝ","kana_city":"ﾅｺﾞﾔｼﾅｶｶﾞﾜｸ","kana_address":"ﾔﾅｷﾞﾎﾞﾘﾁｮｳ","pref":"愛知県","city":"名古屋市中川区","address":"柳堀町"},
{"zip_code":"4540903","kana_pref":"ｱｲﾁｹﾝ","kana_city":"ﾅｺﾞﾔｼﾅｶｶﾞﾜｸ","kana_address":"ﾔﾅｾﾁｮｳ","pref":"愛知県","city":"名古屋市中川区","address":"柳瀬町"},
{"zip_code":"4540871","kana_pref":"ｱｲﾁｹﾝ","kana_city":"ﾅｺﾞﾔｼﾅｶｶﾞﾜｸ","kana_address":"ﾔﾅﾓﾘﾁｮｳ","pref":"愛知県","city":"名古屋市中川区","address":"柳森町"},
{"zip_code":"4540031","kana_pref":"ｱｲﾁｹﾝ","kana_city":"ﾅｺﾞﾔｼﾅｶｶﾞﾜｸ","kana_address":"ﾔﾊﾀﾎﾝﾄｵﾘ","pref":"愛知県","city":"名古屋市中川区","address":"八幡本通"},
{"zip_code":"4540915","kana_pref":"ｱｲﾁｹﾝ","kana_city":"ﾅｺﾞﾔｼﾅｶｶﾞﾜｸ","kana_address":"ﾖｺｲ","pref":"愛知県","city":"名古屋市中川区","address":"横井"},
{"zip_code":"4540021","kana_pref":"ｱｲﾁｹﾝ","kana_city":"ﾅｺﾞﾔｼﾅｶｶﾞﾜｸ","kana_address":"ﾖｺﾎﾞﾘﾁｮｳ","pref":"愛知県","city":"名古屋市中川区","address":"横堀町"},
{"zip_code":"4540917","kana_pref":"ｱｲﾁｹﾝ","kana_city":"ﾅｺﾞﾔｼﾅｶｶﾞﾜｸ","kana_address":"ﾖｺﾏｴﾁｮｳ","pref":"愛知県","city":"名古屋市中川区","address":"横前町"},
{"zip_code":"4540981","kana_pref":"ｱｲﾁｹﾝ","kana_city":"ﾅｺﾞﾔｼﾅｶｶﾞﾜｸ","kana_address":"ﾖｼﾂﾞ","pref":"愛知県","city":"名古屋市中川区","address":"吉津"},
{"zip_code":"4540825","kana_pref":"ｱｲﾁｹﾝ","kana_city":"ﾅｺﾞﾔｼﾅｶｶﾞﾜｸ","kana_address":"ﾖｼﾓﾄﾁｮｳ","pref":"愛知県","city":"名古屋市中川区","address":"好本町"},
{"zip_code":"4540876","kana_pref":"ｱｲﾁｹﾝ","kana_city":"ﾅｺﾞﾔｼﾅｶｶﾞﾜｸ","kana_address":"ﾜｶﾔﾏﾁｮｳ","pref":"愛知県","city":"名古屋市中川区","address":"若山町"}]}