{"zip_code":[
{"zip_code":"4550000","kana_pref":"ｱｲﾁｹﾝ","kana_city":"ﾅｺﾞﾔｼﾐﾅﾄｸ","kana_address":"","pref":"愛知県","city":"名古屋市港区","address":""},
{"zip_code":"4550857","kana_pref":"ｱｲﾁｹﾝ","kana_city":"ﾅｺﾞﾔｼﾐﾅﾄｸ","kana_address":"ｱｷﾊ","pref":"愛知県","city":"名古屋市港区","address":"秋葉"},
{"zip_code":"4550035","kana_pref":"ｱｲﾁｹﾝ","kana_city":"ﾅｺﾞﾔｼﾐﾅﾄｸ","kana_address":"ｱﾂﾀﾏｴｼﾝﾃﾞﾝ","pref":"愛知県","city":"名古屋市港区","address":"熱田前新田"},
{"zip_code":"4550815","kana_pref":"ｱｲﾁｹﾝ","kana_city":"ﾅｺﾞﾔｼﾐﾅﾄｸ","kana_address":"ｱﾌﾞﾗﾔﾁｮｳ","pref":"愛知県","city":"名古屋市港区","address":"油屋町"},
{"zip_code":"4550823","kana_pref":"ｱｲﾁｹﾝ","kana_city":"ﾅｺﾞﾔｼﾐﾅﾄｸ","kana_address":"ｲｼﾝﾁｮｳ","pref":"愛知県","city":"名古屋市港区","address":"惟信町"},
{"zip_code":"4550841","kana_pref":"ｱｲﾁｹﾝ","kana_city":"ﾅｺﾞﾔｼﾐﾅﾄｸ","kana_address":"ｲｯｼｭｳﾁｮｳ","pref":"愛知県","city":"名古屋市港区","address":"一州町"},
{"zip_code":"4550842","kana_pref":"ｱｲﾁｹﾝ","kana_city":"ﾅｺﾞﾔｼﾐﾅﾄｸ","kana_address":"ｲﾅｴｲ","pref":"愛知県","city":"名古屋市港区","address":"稲永"},
{"zip_code":"4550803","kana_pref":"ｱｲﾁｹﾝ","kana_city":"ﾅｺﾞﾔｼﾐﾅﾄｸ","kana_address":"ｲﾘﾊﾞ","pref":"愛知県","city":"名古屋市港区","address":"入場"},
{"zip_code":"4550802","kana_pref":"ｱｲﾁｹﾝ","kana_city":"ﾅｺﾞﾔｼﾐﾅﾄｸ","kana_address":"ｲﾘﾊﾞﾁｮｳ","pref":"愛知県","city":"名古屋市港区","address":"入場町"},
{"zip_code":"4550032","kana_pref":"ｱｲﾁｹﾝ","kana_city":"ﾅｺﾞﾔｼﾐﾅﾄｸ","kana_address":"ｲﾘﾌﾈ","pref":"愛知県","city":"名古屋市港区","address":"入船"},
{"zip_code":"4550052","kana_pref":"ｱｲﾁｹﾝ","kana_city":"ﾅｺﾞﾔｼﾐﾅﾄｸ","kana_address":"ｲﾛﾊﾁｮｳ","pref":"愛知県","city":"名古屋市港区","address":"いろは町"},
{"zip_code":"4550054","kana_pref":"ｱｲﾁｹﾝ","kana_city":"ﾅｺﾞﾔｼﾐﾅﾄｸ","kana_address":"ｴﾝｼﾞｬｸﾁｮｳ","pref":"愛知県","city":"名古屋市港区","address":"遠若町"},
{"zip_code":"4550801","kana_pref":"ｱｲﾁｹﾝ","kana_city":"ﾅｺﾞﾔｼﾐﾅﾄｸ","kana_address":"ｵｳｽ","pref":"愛知県","city":"名古屋市港区","address":"小碓"},
{"zip_code":"4550062","kana_pref":"ｱｲﾁｹﾝ","kana_city":"ﾅｺﾞﾔｼﾐﾅﾄｸ","kana_address":"ｵｳｽﾁｮｳ","pref":"愛知県","city":"名古屋市港区","address":"小碓町"},
{"zip_code":"4550024","kana_pref":"ｱｲﾁｹﾝ","kana_city":"ﾅｺﾞﾔｼﾐﾅﾄｸ","kana_address":"ｵｵｴﾁｮｳ","pref":"愛知県","city":"名古屋市港区","address":"大江町"},
{"zip_code":"4550046","kana_pref":"ｱｲﾁｹﾝ","kana_city":"ﾅｺﾞﾔｼﾐﾅﾄｸ","kana_address":"ｵｵﾃﾏﾁ","pref":"愛知県","city":"名古屋市港区","address":"大手町"},
{"zip_code":"4550861","kana_pref":"ｱｲﾁｹﾝ","kana_city":"ﾅｺﾞﾔｼﾐﾅﾄｸ","kana_address":"ｵｵﾆｼ","pref":"愛知県","city":"名古屋市港区","address":"大西"},
{"zip_code":"4550864","kana_pref":"ｱｲﾁｹﾝ","kana_city":"ﾅｺﾞﾔｼﾐﾅﾄｸ","kana_address":"ｵｶﾞﾜ","pref":"愛知県","city":"名古屋市港区","address":"小川"},
{"zip_code":"4550017","kana_pref":"ｱｲﾁｹﾝ","kana_city":"ﾅｺﾞﾔｼﾐﾅﾄｸ","kana_address":"ｶﾈｶﾜﾁｮｳ","pref":"愛知県","city":"名古屋市港区","address":"金川町"},
{"zip_code":"4550063","kana_pref":"ｱｲﾁｹﾝ","kana_city":"ﾅｺﾞﾔｼﾐﾅﾄｸ","kana_address":"ｶﾈﾌﾈﾁｮｳ","pref":"愛知県","city":"名古屋市港区","address":"金船町"},
{"zip_code":"4550016","kana_pref":"ｱｲﾁｹﾝ","kana_city":"ﾅｺﾞﾔｼﾐﾅﾄｸ","kana_address":"ｶﾜｸﾁﾁｮｳ","pref":"愛知県","city":"名古屋市港区","address":"河口町"},
{"zip_code":"4550856","kana_pref":"ｱｲﾁｹﾝ","kana_city":"ﾅｺﾞﾔｼﾐﾅﾄｸ","kana_address":"ｶﾜｿﾉ","pref":"愛知県","city":"名古屋市港区","address":"川園"},
{"zip_code":"4550073","kana_pref":"ｱｲﾁｹﾝ","kana_city":"ﾅｺﾞﾔｼﾐﾅﾄｸ","kana_address":"ｶﾜﾆｼﾄﾞｵﾘ","pref":"愛知県","city":"名古屋市港区","address":"川西通"},
{"zip_code":"4550076","kana_pref":"ｱｲﾁｹﾝ","kana_city":"ﾅｺﾞﾔｼﾐﾅﾄｸ","kana_address":"ｶﾜﾏﾁｮｳ","pref":"愛知県","city":"名古屋市港区","address":"川間町"},
{"zip_code":"4550066","kana_pref":"ｱｲﾁｹﾝ","kana_city":"ﾅｺﾞﾔｼﾐﾅﾄｸ","kana_address":"ｶﾝｾｲﾁｮｳ","pref":"愛知県","city":"名古屋市港区","address":"寛政町"},
{"zip_code":"4550021","kana_pref":"ｱｲﾁｹﾝ","kana_city":"ﾅｺﾞﾔｼﾐﾅﾄｸ","kana_address":"ｷﾊﾞﾁｮｳ","pref":"愛知県","city":"名古屋市港区","address":"木場町"},
{"zip_code":"4550848","kana_pref":"ｱｲﾁｹﾝ","kana_city":"ﾅｺﾞﾔｼﾐﾅﾄｸ","kana_address":"ｷﾝｼﾞｮｳﾌﾄｳ","pref":"愛知県","city":"名古屋市港区","address":"金城ふ頭"},
{"zip_code":"4550008","kana_pref":"ｱｲﾁｹﾝ","kana_city":"ﾅｺﾞﾔｼﾐﾅﾄｸ","kana_address":"ｸﾊﾞﾝﾁｮｳ","pref":"愛知県","city":"名古屋市港区","address":"九番町"},
{"zip_code":"4550015","kana_pref":"ｱｲﾁｹﾝ","kana_city":"ﾅｺﾞﾔｼﾐﾅﾄｸ","kana_address":"ｺｳｴｲ","pref":"愛知県","city":"名古屋市港区","address":"港栄"},
{"zip_code":"4550067","kana_pref":"ｱｲﾁｹﾝ","kana_city":"ﾅｺﾞﾔｼﾐﾅﾄｸ","kana_address":"ｺｳﾎｸﾁｮｳ","pref":"愛知県","city":"名古屋市港区","address":"港北町"},
{"zip_code":"4550018","kana_pref":"ｱｲﾁｹﾝ","kana_city":"ﾅｺﾞﾔｼﾐﾅﾄｸ","kana_address":"ｺｳﾒｲ","pref":"愛知県","city":"名古屋市港区","address":"港明"},
{"zip_code":"4550013","kana_pref":"ｱｲﾁｹﾝ","kana_city":"ﾅｺﾞﾔｼﾐﾅﾄｸ","kana_address":"ｺｳﾖｳ","pref":"愛知県","city":"名古屋市港区","address":"港陽"},
{"zip_code":"4550014","kana_pref":"ｱｲﾁｹﾝ","kana_city":"ﾅｺﾞﾔｼﾐﾅﾄｸ","kana_address":"ｺｳﾗｸ","pref":"愛知県","city":"名古屋市港区","address":"港楽"},
{"zip_code":"4550882","kana_pref":"ｱｲﾁｹﾝ","kana_city":"ﾅｺﾞﾔｼﾐﾅﾄｸ","kana_address":"ｺｶﾞｽ","pref":"愛知県","city":"名古屋市港区","address":"小賀須"},
{"zip_code":"4550077","kana_pref":"ｱｲﾁｹﾝ","kana_city":"ﾅｺﾞﾔｼﾐﾅﾄｸ","kana_address":"ｺﾜﾘﾄﾞｵﾘ","pref":"愛知県","city":"名古屋市港区","address":"小割通"},
{"zip_code":"4550041","kana_pref":"ｱｲﾁｹﾝ","kana_city":"ﾅｺﾞﾔｼﾐﾅﾄｸ","kana_address":"ｻｲﾜｲﾁｮｳ","pref":"愛知県","city":"名古屋市港区","address":"幸町"},
{"zip_code":"4550043","kana_pref":"ｱｲﾁｹﾝ","kana_city":"ﾅｺﾞﾔｼﾐﾅﾄｸ","kana_address":"ｻｷｶﾞｹﾁｮｳ","pref":"愛知県","city":"名古屋市港区","address":"魁町"},
{"zip_code":"4550012","kana_pref":"ｱｲﾁｹﾝ","kana_city":"ﾅｺﾞﾔｼﾐﾅﾄｸ","kana_address":"ｻｸﾗﾁｮｳ","pref":"愛知県","city":"名古屋市港区","address":"作倉町"},
{"zip_code":"4550042","kana_pref":"ｱｲﾁｹﾝ","kana_city":"ﾅｺﾞﾔｼﾐﾅﾄｸ","kana_address":"ｻﾉﾏﾁ","pref":"愛知県","city":"名古屋市港区","address":"佐野町"},
{"zip_code":"4550846","kana_pref":"ｱｲﾁｹﾝ","kana_city":"ﾅｺﾞﾔｼﾐﾅﾄｸ","kana_address":"ｼｵﾄﾒﾁｮｳ","pref":"愛知県","city":"名古屋市港区","address":"汐止町"},
{"zip_code":"4550844","kana_pref":"ｱｲﾁｹﾝ","kana_city":"ﾅｺﾞﾔｼﾐﾅﾄｸ","kana_address":"ｼｵﾅｷﾞﾁｮｳ","pref":"愛知県","city":"名古屋市港区","address":"潮凪町"},
{"zip_code":"4550028","kana_pref":"ｱｲﾁｹﾝ","kana_city":"ﾅｺﾞﾔｼﾐﾅﾄｸ","kana_address":"ｼｵﾐﾁｮｳ","pref":"愛知県","city":"名古屋市港区","address":"潮見町"},
{"zip_code":"4550884","kana_pref":"ｱｲﾁｹﾝ","kana_city":"ﾅｺﾞﾔｼﾐﾅﾄｸ","kana_address":"ｼﾁﾀﾝﾉ","pref":"愛知県","city":"名古屋市港区","address":"七反野"},
{"zip_code":"4550001","kana_pref":"ｱｲﾁｹﾝ","kana_city":"ﾅｺﾞﾔｼﾐﾅﾄｸ","kana_address":"ｼﾁﾊﾞﾝﾁｮｳ","pref":"愛知県","city":"名古屋市港区","address":"七番町"},
{"zip_code":"4550055","kana_pref":"ｱｲﾁｹﾝ","kana_city":"ﾅｺﾞﾔｼﾐﾅﾄｸ","kana_address":"ｼﾅｶﾞﾜﾁｮｳ","pref":"愛知県","city":"名古屋市港区","address":"品川町"},
{"zip_code":"4550831","kana_pref":"ｱｲﾁｹﾝ","kana_city":"ﾅｺﾞﾔｼﾐﾅﾄｸ","kana_address":"ｼﾞｭｳｲﾁﾔ","pref":"愛知県","city":"名古屋市港区","address":"十一屋"},
{"zip_code":"4550835","kana_pref":"ｱｲﾁｹﾝ","kana_city":"ﾅｺﾞﾔｼﾐﾅﾄｸ","kana_address":"ｼﾞｭｳｲﾁﾔﾁｮｳ","pref":"愛知県","city":"名古屋市港区","address":"十一屋町"},
{"zip_code":"4550075","kana_pref":"ｱｲﾁｹﾝ","kana_city":"ﾅｺﾞﾔｼﾐﾅﾄｸ","kana_address":"ｼｮｳﾄｸﾁｮｳ","pref":"愛知県","city":"名古屋市港区","address":"正徳町"},
{"zip_code":"4550074","kana_pref":"ｱｲﾁｹﾝ","kana_city":"ﾅｺﾞﾔｼﾐﾅﾄｸ","kana_address":"ｼｮｳﾎｳﾁｮｳ","pref":"愛知県","city":"名古屋市港区","address":"正保町"},
{"zip_code":"4550026","kana_pref":"ｱｲﾁｹﾝ","kana_city":"ﾅｺﾞﾔｼﾐﾅﾄｸ","kana_address":"ｼｮｳﾜﾁｮｳ","pref":"愛知県","city":"名古屋市港区","address":"昭和町"},
{"zip_code":"4550005","kana_pref":"ｱｲﾁｹﾝ","kana_city":"ﾅｺﾞﾔｼﾐﾅﾄｸ","kana_address":"ｼﾝｶﾜﾁｮｳ","pref":"愛知県","city":"名古屋市港区","address":"新川町"},
{"zip_code":"4550834","kana_pref":"ｱｲﾁｹﾝ","kana_city":"ﾅｺﾞﾔｼﾐﾅﾄｸ","kana_address":"ｼﾞﾝｸﾞｳｼﾞ","pref":"愛知県","city":"名古屋市港区","address":"神宮寺"},
{"zip_code":"4550863","kana_pref":"ｱｲﾁｹﾝ","kana_city":"ﾅｺﾞﾔｼﾐﾅﾄｸ","kana_address":"ｼﾝﾁｬﾔ","pref":"愛知県","city":"名古屋市港区","address":"新茶屋"},
{"zip_code":"4550071","kana_pref":"ｱｲﾁｹﾝ","kana_city":"ﾅｺﾞﾔｼﾐﾅﾄｸ","kana_address":"ｼﾝﾌﾈﾁｮｳ","pref":"愛知県","city":"名古屋市港区","address":"新船町"},
{"zip_code":"4550822","kana_pref":"ｱｲﾁｹﾝ","kana_city":"ﾅｺﾞﾔｼﾐﾅﾄｸ","kana_address":"ｼﾞﾝﾍﾞｴﾄｵﾘ","pref":"愛知県","city":"名古屋市港区","address":"甚兵衛通"},
{"zip_code":"4550056","kana_pref":"ｱｲﾁｹﾝ","kana_city":"ﾅｺﾞﾔｼﾐﾅﾄｸ","kana_address":"ｽﾅﾐﾁｮｳ","pref":"愛知県","city":"名古屋市港区","address":"砂美町"},
{"zip_code":"4550072","kana_pref":"ｱｲﾁｹﾝ","kana_city":"ﾅｺﾞﾔｼﾐﾅﾄｸ","kana_address":"ｽﾅﾘﾁｮｳ","pref":"愛知県","city":"名古屋市港区","address":"須成町"},
{"zip_code":"4550811","kana_pref":"ｱｲﾁｹﾝ","kana_city":"ﾅｺﾞﾔｼﾐﾅﾄｸ","kana_address":"ｾﾞﾝｼﾝﾁｮｳ","pref":"愛知県","city":"名古屋市港区","address":"善進町"},
{"zip_code":"4550813","kana_pref":"ｱｲﾁｹﾝ","kana_city":"ﾅｺﾞﾔｼﾐﾅﾄｸ","kana_address":"ｾﾞﾝｼﾝﾎﾝﾏﾁ","pref":"愛知県","city":"名古屋市港区","address":"善進本町"},
{"zip_code":"4550881","kana_pref":"ｱｲﾁｹﾝ","kana_city":"ﾅｺﾞﾔｼﾐﾅﾄｸ","kana_address":"ｾﾝﾄﾞｳﾊﾞ","pref":"愛知県","city":"名古屋市港区","address":"船頭場"},
{"zip_code":"4550814","kana_pref":"ｱｲﾁｹﾝ","kana_city":"ﾅｺﾞﾔｼﾐﾅﾄｸ","kana_address":"ｾﾞﾝﾅﾝﾁｮｳ","pref":"愛知県","city":"名古屋市港区","address":"善南町"},
{"zip_code":"4550812","kana_pref":"ｱｲﾁｹﾝ","kana_city":"ﾅｺﾞﾔｼﾐﾅﾄｸ","kana_address":"ｾﾞﾝﾎｸﾁｮｳ","pref":"愛知県","city":"名古屋市港区","address":"善北町"},
{"zip_code":"4550847","kana_pref":"ｱｲﾁｹﾝ","kana_city":"ﾅｺﾞﾔｼﾐﾅﾄｸ","kana_address":"ｿﾗﾐﾁｮｳ","pref":"愛知県","city":"名古屋市港区","address":"空見町"},
{"zip_code":"4550069","kana_pref":"ｱｲﾁｹﾝ","kana_city":"ﾅｺﾞﾔｼﾐﾅﾄｸ","kana_address":"ﾀｲﾒｲﾁｮｳ","pref":"愛知県","city":"名古屋市港区","address":"泰明町"},
{"zip_code":"4550821","kana_pref":"ｱｲﾁｹﾝ","kana_city":"ﾅｺﾞﾔｼﾐﾅﾄｸ","kana_address":"ﾀｶｷﾞﾁｮｳ","pref":"愛知県","city":"名古屋市港区","address":"高木町"},
{"zip_code":"4550825","kana_pref":"ｱｲﾁｹﾝ","kana_city":"ﾅｺﾞﾔｼﾐﾅﾄｸ","kana_address":"ﾀｶﾗｳﾗﾁｮｳ","pref":"愛知県","city":"名古屋市港区","address":"多加良浦町"},
{"zip_code":"4550003","kana_pref":"ｱｲﾁｹﾝ","kana_city":"ﾅｺﾞﾔｼﾐﾅﾄｸ","kana_address":"ﾀﾂﾐﾁｮｳ","pref":"愛知県","city":"名古屋市港区","address":"辰巳町"},
{"zip_code":"4550057","kana_pref":"ｱｲﾁｹﾝ","kana_city":"ﾅｺﾞﾔｼﾐﾅﾄｸ","kana_address":"ﾁｸﾓﾘﾁｮｳ","pref":"愛知県","city":"名古屋市港区","address":"築盛町"},
{"zip_code":"4550883","kana_pref":"ｱｲﾁｹﾝ","kana_city":"ﾅｺﾞﾔｼﾐﾅﾄｸ","kana_address":"ﾁﾀ","pref":"愛知県","city":"名古屋市港区","address":"知多"},
{"zip_code":"4550011","kana_pref":"ｱｲﾁｹﾝ","kana_city":"ﾅｺﾞﾔｼﾐﾅﾄｸ","kana_address":"ﾁﾄｾ","pref":"愛知県","city":"名古屋市港区","address":"千年"},
{"zip_code":"4550031","kana_pref":"ｱｲﾁｹﾝ","kana_city":"ﾅｺﾞﾔｼﾐﾅﾄｸ","kana_address":"ﾁﾄﾞﾘ","pref":"愛知県","city":"名古屋市港区","address":"千鳥"},
{"zip_code":"4550004","kana_pref":"ｱｲﾁｹﾝ","kana_city":"ﾅｺﾞﾔｼﾐﾅﾄｸ","kana_address":"ﾂｶﾈ","pref":"愛知県","city":"名古屋市港区","address":"津金"},
{"zip_code":"4550044","kana_pref":"ｱｲﾁｹﾝ","kana_city":"ﾅｺﾞﾔｼﾐﾅﾄｸ","kana_address":"ﾂｷｻﾝﾁｮｳ","pref":"愛知県","city":"名古屋市港区","address":"築三町"},
{"zip_code":"4550045","kana_pref":"ｱｲﾁｹﾝ","kana_city":"ﾅｺﾞﾔｼﾐﾅﾄｸ","kana_address":"ﾂｷｼﾞﾁｮｳ","pref":"愛知県","city":"名古屋市港区","address":"築地町"},
{"zip_code":"4550875","kana_pref":"ｱｲﾁｹﾝ","kana_city":"ﾅｺﾞﾔｼﾐﾅﾄｸ","kana_address":"ﾃﾗﾏｴﾁｮｳ","pref":"愛知県","city":"名古屋市港区","address":"寺前町"},
{"zip_code":"4550865","kana_pref":"ｱｲﾁｹﾝ","kana_city":"ﾅｺﾞﾔｼﾐﾅﾄｸ","kana_address":"ﾃﾝﾓｸﾁｮｳ","pref":"愛知県","city":"名古屋市港区","address":"天目町"},
{"zip_code":"4550002","kana_pref":"ｱｲﾁｹﾝ","kana_city":"ﾅｺﾞﾔｼﾐﾅﾄｸ","kana_address":"ﾄｳｶｲﾄﾞｵﾘ","pref":"愛知県","city":"名古屋市港区","address":"東海通"},
{"zip_code":"4550804","kana_pref":"ｱｲﾁｹﾝ","kana_city":"ﾅｺﾞﾔｼﾐﾅﾄｸ","kana_address":"ﾄｳﾁ","pref":"愛知県","city":"名古屋市港区","address":"当知"},
{"zip_code":"4550805","kana_pref":"ｱｲﾁｹﾝ","kana_city":"ﾅｺﾞﾔｼﾐﾅﾄｸ","kana_address":"ﾄｳﾁﾁｮｳ","pref":"愛知県","city":"名古屋市港区","address":"当知町"},
{"zip_code":"4550068","kana_pref":"ｱｲﾁｹﾝ","kana_city":"ﾅｺﾞﾔｼﾐﾅﾄｸ","kana_address":"ﾄﾞﾝｺﾞﾁｮｳ","pref":"愛知県","city":"名古屋市港区","address":"土古町"},
{"zip_code":"4550051","kana_pref":"ｱｲﾁｹﾝ","kana_city":"ﾅｺﾞﾔｼﾐﾅﾄｸ","kana_address":"ﾅｶｶﾞﾜﾎﾝﾏﾁ","pref":"愛知県","city":"名古屋市港区","address":"中川本町"},
{"zip_code":"4550047","kana_pref":"ｱｲﾁｹﾝ","kana_city":"ﾅｺﾞﾔｼﾐﾅﾄｸ","kana_address":"ﾅｶﾉｼﾞﾏﾄｵﾘ","pref":"愛知県","city":"名古屋市港区","address":"中之島通"},
{"zip_code":"4550852","kana_pref":"ｱｲﾁｹﾝ","kana_city":"ﾅｺﾞﾔｼﾐﾅﾄｸ","kana_address":"ﾅﾅｼﾏ","pref":"愛知県","city":"名古屋市港区","address":"七島"},
{"zip_code":"4550862","kana_pref":"ｱｲﾁｹﾝ","kana_city":"ﾅｺﾞﾔｼﾐﾅﾄｸ","kana_address":"ﾅﾝﾖｳﾁｮｳﾁｬﾔｼﾝﾃﾞﾝ","pref":"愛知県","city":"名古屋市港区","address":"南陽町茶屋新田"},
{"zip_code":"4550866","kana_pref":"ｱｲﾁｹﾝ","kana_city":"ﾅｺﾞﾔｼﾐﾅﾄｸ","kana_address":"ﾅﾝﾖｳﾁｮｳﾁｬﾔﾉﾁｼﾝﾃﾞﾝ","pref":"愛知県","city":"名古屋市港区","address":"南陽町茶屋後新田"},
{"zip_code":"4550853","kana_pref":"ｱｲﾁｹﾝ","kana_city":"ﾅｺﾞﾔｼﾐﾅﾄｸ","kana_address":"ﾅﾝﾖｳﾁｮｳﾅﾅｼﾏｼﾝﾃﾞﾝ","pref":"愛知県","city":"名古屋市港区","address":"南陽町七島新田"},
{"zip_code":"4550868","kana_pref":"ｱｲﾁｹﾝ","kana_city":"ﾅｺﾞﾔｼﾐﾅﾄｸ","kana_address":"ﾅﾝﾖｳﾁｮｳﾆｼﾌｸﾀ","pref":"愛知県","city":"名古屋市港区","address":"南陽町西福田"},
{"zip_code":"4550871","kana_pref":"ｱｲﾁｹﾝ","kana_city":"ﾅｺﾞﾔｼﾐﾅﾄｸ","kana_address":"ﾅﾝﾖｳﾁｮｳﾌｸﾀ","pref":"愛知県","city":"名古屋市港区","address":"南陽町福田"},
{"zip_code":"4550867","kana_pref":"ｱｲﾁｹﾝ","kana_city":"ﾅｺﾞﾔｼﾐﾅﾄｸ","kana_address":"ﾅﾝﾖｳﾁｮｳﾌｸﾀﾞﾏｴｼﾝﾃﾞﾝ","pref":"愛知県","city":"名古屋市港区","address":"南陽町福田前新田"},
{"zip_code":"4550872","kana_pref":"ｱｲﾁｹﾝ","kana_city":"ﾅｺﾞﾔｼﾐﾅﾄｸ","kana_address":"ﾆｼｶﾆﾀ","pref":"愛知県","city":"名古屋市港区","address":"西蟹田"},
{"zip_code":"4550824","kana_pref":"ｱｲﾁｹﾝ","kana_city":"ﾅｺﾞﾔｼﾐﾅﾄｸ","kana_address":"ﾆｼｶﾜﾁｮｳ","pref":"愛知県","city":"名古屋市港区","address":"西川町"},
{"zip_code":"4550843","kana_pref":"ｱｲﾁｹﾝ","kana_city":"ﾅｺﾞﾔｼﾐﾅﾄｸ","kana_address":"ﾆｼｷﾏﾁ","pref":"愛知県","city":"名古屋市港区","address":"錦町"},
{"zip_code":"4550034","kana_pref":"ｱｲﾁｹﾝ","kana_city":"ﾅｺﾞﾔｼﾐﾅﾄｸ","kana_address":"ﾆｼｸﾗﾁｮｳ","pref":"愛知県","city":"名古屋市港区","address":"西倉町"},
{"zip_code":"4550858","kana_pref":"ｱｲﾁｹﾝ","kana_city":"ﾅｺﾞﾔｼﾐﾅﾄｸ","kana_address":"ﾆｼﾁｬﾔ","pref":"愛知県","city":"名古屋市港区","address":"西茶屋"},
{"zip_code":"4550874","kana_pref":"ｱｲﾁｹﾝ","kana_city":"ﾅｺﾞﾔｼﾐﾅﾄｸ","kana_address":"ﾆｼﾌｸﾀ","pref":"愛知県","city":"名古屋市港区","address":"西福田"},
{"zip_code":"4550845","kana_pref":"ｱｲﾁｹﾝ","kana_city":"ﾅｺﾞﾔｼﾐﾅﾄｸ","kana_address":"ﾉｾｷ","pref":"愛知県","city":"名古屋市港区","address":"野跡"},
{"zip_code":"4550885","kana_pref":"ｱｲﾁｹﾝ","kana_city":"ﾅｺﾞﾔｼﾐﾅﾄｸ","kana_address":"ﾊｯﾋﾟｬｸｼﾞﾏ","pref":"愛知県","city":"名古屋市港区","address":"八百島"},
{"zip_code":"4550036","kana_pref":"ｱｲﾁｹﾝ","kana_city":"ﾅｺﾞﾔｼﾐﾅﾄｸ","kana_address":"ﾊﾏ","pref":"愛知県","city":"名古屋市港区","address":"浜"},
{"zip_code":"4550873","kana_pref":"ｱｲﾁｹﾝ","kana_city":"ﾅｺﾞﾔｼﾐﾅﾄｸ","kana_address":"ﾊﾙﾀﾉ","pref":"愛知県","city":"名古屋市港区","address":"春田野"},
{"zip_code":"4550886","kana_pref":"ｱｲﾁｹﾝ","kana_city":"ﾅｺﾞﾔｼﾐﾅﾄｸ","kana_address":"ﾋｶﾞｼｶﾆﾀ","pref":"愛知県","city":"名古屋市港区","address":"東蟹田"},
{"zip_code":"4550851","kana_pref":"ｱｲﾁｹﾝ","kana_city":"ﾅｺﾞﾔｼﾐﾅﾄｸ","kana_address":"ﾋｶﾞｼﾁｬﾔ","pref":"愛知県","city":"名古屋市港区","address":"東茶屋"},
{"zip_code":"4550023","kana_pref":"ｱｲﾁｹﾝ","kana_city":"ﾅｺﾞﾔｼﾐﾅﾄｸ","kana_address":"ﾋｶﾞｼﾂｷｼﾞﾁｮｳ","pref":"愛知県","city":"名古屋市港区","address":"東築地町"},
{"zip_code":"4550061","kana_pref":"ｱｲﾁｹﾝ","kana_city":"ﾅｺﾞﾔｼﾐﾅﾄｸ","kana_address":"ﾋｶﾞｼﾄﾞﾝｺﾞﾁｮｳ","pref":"愛知県","city":"名古屋市港区","address":"東土古町"},
{"zip_code":"4550887","kana_pref":"ｱｲﾁｹﾝ","kana_city":"ﾅｺﾞﾔｼﾐﾅﾄｸ","kana_address":"ﾌｸﾀ","pref":"愛知県","city":"名古屋市港区","address":"福田"},
{"zip_code":"4550876","kana_pref":"ｱｲﾁｹﾝ","kana_city":"ﾅｺﾞﾔｼﾐﾅﾄｸ","kana_address":"ﾌｸﾔ","pref":"愛知県","city":"名古屋市港区","address":"福屋"},
{"zip_code":"4550854","kana_pref":"ｱｲﾁｹﾝ","kana_city":"ﾅｺﾞﾔｼﾐﾅﾄｸ","kana_address":"ﾌｼﾞﾀｶ","pref":"愛知県","city":"名古屋市港区","address":"藤高"},
{"zip_code":"4550855","kana_pref":"ｱｲﾁｹﾝ","kana_city":"ﾅｺﾞﾔｼﾐﾅﾄｸ","kana_address":"ﾌｼﾞﾏｴ","pref":"愛知県","city":"名古屋市港区","address":"藤前"},
{"zip_code":"4550027","kana_pref":"ｱｲﾁｹﾝ","kana_city":"ﾅｺﾞﾔｼﾐﾅﾄｸ","kana_address":"ﾌﾅﾐﾁｮｳ","pref":"愛知県","city":"名古屋市港区","address":"船見町"},
{"zip_code":"4550832","kana_pref":"ｱｲﾁｹﾝ","kana_city":"ﾅｺﾞﾔｼﾐﾅﾄｸ","kana_address":"ﾎｳｼﾞﾝ","pref":"愛知県","city":"名古屋市港区","address":"宝神"},
{"zip_code":"4550833","kana_pref":"ｱｲﾁｹﾝ","kana_city":"ﾅｺﾞﾔｼﾐﾅﾄｸ","kana_address":"ﾎｳｼﾞﾝﾁｮｳ","pref":"愛知県","city":"名古屋市港区","address":"宝神町"},
{"zip_code":"4550065","kana_pref":"ｱｲﾁｹﾝ","kana_city":"ﾅｺﾞﾔｼﾐﾅﾄｸ","kana_address":"ﾎﾝｸﾞｳｼﾝﾏﾁ","pref":"愛知県","city":"名古屋市港区","address":"本宮新町"},
{"zip_code":"4550064","kana_pref":"ｱｲﾁｹﾝ","kana_city":"ﾅｺﾞﾔｼﾐﾅﾄｸ","kana_address":"ﾎﾝｸﾞｳﾁｮｳ","pref":"愛知県","city":"名古屋市港区","address":"本宮町"},
{"zip_code":"4550078","kana_pref":"ｱｲﾁｹﾝ","kana_city":"ﾅｺﾞﾔｼﾐﾅﾄｸ","kana_address":"ﾏﾙｲｹﾁｮｳ","pref":"愛知県","city":"名古屋市港区","address":"丸池町"},
{"zip_code":"4550033","kana_pref":"ｱｲﾁｹﾝ","kana_city":"ﾅｺﾞﾔｼﾐﾅﾄｸ","kana_address":"ﾐﾅﾄﾏﾁ","pref":"愛知県","city":"名古屋市港区","address":"港町"},
{"zip_code":"4550007","kana_pref":"ｱｲﾁｹﾝ","kana_city":"ﾅｺﾞﾔｼﾐﾅﾄｸ","kana_address":"ﾐﾅﾐ10ﾊﾞﾝﾁｮｳ","pref":"愛知県","city":"名古屋市港区","address":"南十番町"},
{"zip_code":"4550006","kana_pref":"ｱｲﾁｹﾝ","kana_city":"ﾅｺﾞﾔｼﾐﾅﾄｸ","kana_address":"ﾐﾅﾐ11ﾊﾞﾝﾁｮｳ","pref":"愛知県","city":"名古屋市港区","address":"南十一番町"},
{"zip_code":"4550037","kana_pref":"ｱｲﾁｹﾝ","kana_city":"ﾅｺﾞﾔｼﾐﾅﾄｸ","kana_address":"ﾒｲｺｳ","pref":"愛知県","city":"名古屋市港区","address":"名港"},
{"zip_code":"4550053","kana_pref":"ｱｲﾁｹﾝ","kana_city":"ﾅｺﾞﾔｼﾐﾅﾄｸ","kana_address":"ﾒｲｼﾁｮｳ","pref":"愛知県","city":"名古屋市港区","address":"名四町"},
{"zip_code":"4550806","kana_pref":"ｱｲﾁｹﾝ","kana_city":"ﾅｺﾞﾔｼﾐﾅﾄｸ","kana_address":"ﾒｲｼｮｳ","pref":"愛知県","city":"名古屋市港区","address":"明正"},
{"zip_code":"4550025","kana_pref":"ｱｲﾁｹﾝ","kana_city":"ﾅｺﾞﾔｼﾐﾅﾄｸ","kana_address":"ﾓﾄﾎｼｻﾞｷﾁｮｳ","pref":"愛知県","city":"名古屋市港区","address":"本星崎町"},
{"zip_code":"4550022","kana_pref":"ｱｲﾁｹﾝ","kana_city":"ﾅｺﾞﾔｼﾐﾅﾄｸ","kana_address":"ﾘｭｳｸﾞｳﾁｮｳ","pref":"愛知県","city":"名古屋市港区","address":"竜宮町"}]}