{"zip_code":[
{"zip_code":"4560000","kana_pref":"ｱｲﾁｹﾝ","kana_city":"ﾅｺﾞﾔｼｱﾂﾀｸ","kana_address":"","pref":"愛知県","city":"名古屋市熱田区","address":""},
{"zip_code":"4560075","kana_pref":"ｱｲﾁｹﾝ","kana_city":"ﾅｺﾞﾔｼｱﾂﾀｸ","kana_address":"ｱｵｲｹﾁｮｳ","pref":"愛知県","city":"名古屋市熱田区","address":"青池町"},
{"zip_code":"4560071","kana_pref":"ｱｲﾁｹﾝ","kana_city":"ﾅｺﾞﾔｼｱﾂﾀｸ","kana_address":"ｱｹﾉﾁｮｳ","pref":"愛知県","city":"名古屋市熱田区","address":"明野町"},
{"zip_code":"4560037","kana_pref":"ｱｲﾁｹﾝ","kana_city":"ﾅｺﾞﾔｼｱﾂﾀｸ","kana_address":"ｱﾂﾀｼﾝﾃﾞﾝﾋｶﾞｼｸﾞﾐ","pref":"愛知県","city":"名古屋市熱田区","address":"熱田新田東組"},
{"zip_code":"4560036","kana_pref":"ｱｲﾁｹﾝ","kana_city":"ﾅｺﾞﾔｼｱﾂﾀｸ","kana_address":"ｱﾂﾀﾆｼﾏﾁ","pref":"愛知県","city":"名古屋市熱田区","address":"熱田西町"},
{"zip_code":"4560005","kana_pref":"ｱｲﾁｹﾝ","kana_city":"ﾅｺﾞﾔｼｱﾂﾀｸ","kana_address":"ｲｹｳﾁﾁｮｳ","pref":"愛知県","city":"名古屋市熱田区","address":"池内町"},
{"zip_code":"4560053","kana_pref":"ｱｲﾁｹﾝ","kana_city":"ﾅｺﾞﾔｼｱﾂﾀｸ","kana_address":"ｲﾁﾊﾞﾝ","pref":"愛知県","city":"名古屋市熱田区","address":"一番"},
{"zip_code":"4560044","kana_pref":"ｱｲﾁｹﾝ","kana_city":"ﾅｺﾞﾔｼｱﾂﾀｸ","kana_address":"ｳﾁﾀﾞﾁｮｳ","pref":"愛知県","city":"名古屋市熱田区","address":"内田町"},
{"zip_code":"4560045","kana_pref":"ｱｲﾁｹﾝ","kana_city":"ﾅｺﾞﾔｼｱﾂﾀｸ","kana_address":"ｵｵｾｺﾁｮｳ","pref":"愛知県","city":"名古屋市熱田区","address":"大瀬子町"},
{"zip_code":"4560017","kana_pref":"ｱｲﾁｹﾝ","kana_city":"ﾅｺﾞﾔｼｱﾂﾀｸ","kana_address":"ｵﾄｳﾁｮｳ","pref":"愛知県","city":"名古屋市熱田区","address":"尾頭町"},
{"zip_code":"4560001","kana_pref":"ｱｲﾁｹﾝ","kana_city":"ﾅｺﾞﾔｼｱﾂﾀｸ","kana_address":"ｶﾅﾔﾏ","pref":"愛知県","city":"名古屋市熱田区","address":"金山"},
{"zip_code":"4560002","kana_pref":"ｱｲﾁｹﾝ","kana_city":"ﾅｺﾞﾔｼｱﾂﾀｸ","kana_address":"ｶﾅﾔﾏﾁｮｳ","pref":"愛知県","city":"名古屋市熱田区","address":"金山町"},
{"zip_code":"4560065","kana_pref":"ｱｲﾁｹﾝ","kana_city":"ﾅｺﾞﾔｼｱﾂﾀｸ","kana_address":"ｶﾜﾀﾞﾁｮｳ","pref":"愛知県","city":"名古屋市熱田区","address":"河田町"},
{"zip_code":"4560072","kana_pref":"ｱｲﾁｹﾝ","kana_city":"ﾅｺﾞﾔｼｱﾂﾀｸ","kana_address":"ｶﾜﾅﾐﾁｮｳ","pref":"愛知県","city":"名古屋市熱田区","address":"川並町"},
{"zip_code":"4560046","kana_pref":"ｱｲﾁｹﾝ","kana_city":"ﾅｺﾞﾔｼｱﾂﾀｸ","kana_address":"ｷﾉﾒﾁｮｳ","pref":"愛知県","city":"名古屋市熱田区","address":"木之免町"},
{"zip_code":"4560076","kana_pref":"ｱｲﾁｹﾝ","kana_city":"ﾅｺﾞﾔｼｱﾂﾀｸ","kana_address":"ｷﾚﾄﾁｮｳ","pref":"愛知県","city":"名古屋市熱田区","address":"切戸町"},
{"zip_code":"4560043","kana_pref":"ｱｲﾁｹﾝ","kana_city":"ﾅｺﾞﾔｼｱﾂﾀｸ","kana_address":"ｺﾞｳﾄﾞﾁｮｳ","pref":"愛知県","city":"名古屋市熱田区","address":"神戸町"},
{"zip_code":"4560064","kana_pref":"ｱｲﾁｹﾝ","kana_city":"ﾅｺﾞﾔｼｱﾂﾀｸ","kana_address":"ｺｼﾝﾁｮｳ","pref":"愛知県","city":"名古屋市熱田区","address":"古新町"},
{"zip_code":"4560057","kana_pref":"ｱｲﾁｹﾝ","kana_city":"ﾅｺﾞﾔｼｱﾂﾀｸ","kana_address":"ｺﾞﾊﾞﾝﾁｮｳ","pref":"愛知県","city":"名古屋市熱田区","address":"五番町"},
{"zip_code":"4560016","kana_pref":"ｱｲﾁｹﾝ","kana_city":"ﾅｺﾞﾔｼｱﾂﾀｸ","kana_address":"ｺﾞﾎﾝﾏﾂﾁｮｳ","pref":"愛知県","city":"名古屋市熱田区","address":"五本松町"},
{"zip_code":"4560061","kana_pref":"ｱｲﾁｹﾝ","kana_city":"ﾅｺﾞﾔｼｱﾂﾀｸ","kana_address":"ｻｲｺｳﾄｵﾘ","pref":"愛知県","city":"名古屋市熱田区","address":"西郊通"},
{"zip_code":"4560004","kana_pref":"ｱｲﾁｹﾝ","kana_city":"ﾅｺﾞﾔｼｱﾂﾀｸ","kana_address":"ｻｸﾗﾀﾞﾁｮｳ","pref":"愛知県","city":"名古屋市熱田区","address":"桜田町"},
{"zip_code":"4560012","kana_pref":"ｱｲﾁｹﾝ","kana_city":"ﾅｺﾞﾔｼｱﾂﾀｸ","kana_address":"ｻﾜｶﾐ","pref":"愛知県","city":"名古屋市熱田区","address":"沢上"},
{"zip_code":"4560006","kana_pref":"ｱｲﾁｹﾝ","kana_city":"ﾅｺﾞﾔｼｱﾂﾀｸ","kana_address":"ｻﾜｼﾀﾁｮｳ","pref":"愛知県","city":"名古屋市熱田区","address":"沢下町"},
{"zip_code":"4560056","kana_pref":"ｱｲﾁｹﾝ","kana_city":"ﾅｺﾞﾔｼｱﾂﾀｸ","kana_address":"ｻﾝﾊﾞﾝﾁｮｳ","pref":"愛知県","city":"名古屋市熱田区","address":"三番町"},
{"zip_code":"4560032","kana_pref":"ｱｲﾁｹﾝ","kana_city":"ﾅｺﾞﾔｼｱﾂﾀｸ","kana_address":"ｻﾝﾎﾞﾝﾏﾂﾁｮｳ","pref":"愛知県","city":"名古屋市熱田区","address":"三本松町"},
{"zip_code":"4560035","kana_pref":"ｱｲﾁｹﾝ","kana_city":"ﾅｺﾞﾔｼｱﾂﾀｸ","kana_address":"ｼﾛﾄﾘ","pref":"愛知県","city":"名古屋市熱田区","address":"白鳥"},
{"zip_code":"4560048","kana_pref":"ｱｲﾁｹﾝ","kana_city":"ﾅｺﾞﾔｼｱﾂﾀｸ","kana_address":"ｼﾛﾄﾘﾁｮｳ","pref":"愛知県","city":"名古屋市熱田区","address":"白鳥町"},
{"zip_code":"4560018","kana_pref":"ｱｲﾁｹﾝ","kana_city":"ﾅｺﾞﾔｼｱﾂﾀｸ","kana_address":"ｼﾝｵﾄｳ","pref":"愛知県","city":"名古屋市熱田区","address":"新尾頭"},
{"zip_code":"4560031","kana_pref":"ｱｲﾁｹﾝ","kana_city":"ﾅｺﾞﾔｼｱﾂﾀｸ","kana_address":"ｼﾞﾝｸﾞｳ","pref":"愛知県","city":"名古屋市熱田区","address":"神宮"},
{"zip_code":"4560068","kana_pref":"ｱｲﾁｹﾝ","kana_city":"ﾅｺﾞﾔｼｱﾂﾀｸ","kana_address":"ｼﾞﾝﾉﾁｮｳ","pref":"愛知県","city":"名古屋市熱田区","address":"神野町"},
{"zip_code":"4560042","kana_pref":"ｱｲﾁｹﾝ","kana_city":"ﾅｺﾞﾔｼｱﾂﾀｸ","kana_address":"ｽｶﾁｮｳ","pref":"愛知県","city":"名古屋市熱田区","address":"須賀町"},
{"zip_code":"4560013","kana_pref":"ｱｲﾁｹﾝ","kana_city":"ﾅｺﾞﾔｼｱﾂﾀｸ","kana_address":"ｿﾄﾄﾞｲﾁｮｳ","pref":"愛知県","city":"名古屋市熱田区","address":"外土居町"},
{"zip_code":"4560062","kana_pref":"ｱｲﾁｹﾝ","kana_city":"ﾅｺﾞﾔｼｱﾂﾀｸ","kana_address":"ﾀｲﾎｳ","pref":"愛知県","city":"名古屋市熱田区","address":"大宝"},
{"zip_code":"4560015","kana_pref":"ｱｲﾁｹﾝ","kana_city":"ﾅｺﾞﾔｼｱﾂﾀｸ","kana_address":"ﾀｶｸﾗﾁｮｳ","pref":"愛知県","city":"名古屋市熱田区","address":"高蔵町"},
{"zip_code":"4560047","kana_pref":"ｱｲﾁｹﾝ","kana_city":"ﾅｺﾞﾔｼｱﾂﾀｸ","kana_address":"ﾀﾅｶﾁｮｳ","pref":"愛知県","city":"名古屋市熱田区","address":"田中町"},
{"zip_code":"4560025","kana_pref":"ｱｲﾁｹﾝ","kana_city":"ﾅｺﾞﾔｼｱﾂﾀｸ","kana_address":"ﾀﾏﾉｲﾁｮｳ","pref":"愛知県","city":"名古屋市熱田区","address":"玉の井町"},
{"zip_code":"4560054","kana_pref":"ｱｲﾁｹﾝ","kana_city":"ﾅｺﾞﾔｼｱﾂﾀｸ","kana_address":"ﾁﾄｾ","pref":"愛知県","city":"名古屋市熱田区","address":"千年"},
{"zip_code":"4560073","kana_pref":"ｱｲﾁｹﾝ","kana_city":"ﾅｺﾞﾔｼｱﾂﾀｸ","kana_address":"ﾁﾖﾀﾞﾁｮｳ","pref":"愛知県","city":"名古屋市熱田区","address":"千代田町"},
{"zip_code":"4560034","kana_pref":"ｱｲﾁｹﾝ","kana_city":"ﾅｺﾞﾔｼｱﾂﾀｸ","kana_address":"ﾃﾝﾏ","pref":"愛知県","city":"名古屋市熱田区","address":"伝馬"},
{"zip_code":"4560041","kana_pref":"ｱｲﾁｹﾝ","kana_city":"ﾅｺﾞﾔｼｱﾂﾀｸ","kana_address":"ﾅｶｾﾁｮｳ","pref":"愛知県","city":"名古屋市熱田区","address":"中瀬町"},
{"zip_code":"4560014","kana_pref":"ｱｲﾁｹﾝ","kana_city":"ﾅｺﾞﾔｼｱﾂﾀｸ","kana_address":"ﾅｶﾀﾁｮｳ","pref":"愛知県","city":"名古屋市熱田区","address":"中田町"},
{"zip_code":"4560067","kana_pref":"ｱｲﾁｹﾝ","kana_city":"ﾅｺﾞﾔｼｱﾂﾀｸ","kana_address":"ﾅｶﾃﾞﾁｮｳ","pref":"愛知県","city":"名古屋市熱田区","address":"中出町"},
{"zip_code":"4560069","kana_pref":"ｱｲﾁｹﾝ","kana_city":"ﾅｺﾞﾔｼｱﾂﾀｸ","kana_address":"ﾅｶﾉｼﾝﾁｮｳ","pref":"愛知県","city":"名古屋市熱田区","address":"中野新町"},
{"zip_code":"4560003","kana_pref":"ｱｲﾁｹﾝ","kana_city":"ﾅｺﾞﾔｼｱﾂﾀｸ","kana_address":"ﾅﾐﾖｾﾁｮｳ","pref":"愛知県","city":"名古屋市熱田区","address":"波寄町"},
{"zip_code":"4560063","kana_pref":"ｱｲﾁｹﾝ","kana_city":"ﾅｺﾞﾔｼｱﾂﾀｸ","kana_address":"ﾆｼﾉﾁｮｳ","pref":"愛知県","city":"名古屋市熱田区","address":"西野町"},
{"zip_code":"4560052","kana_pref":"ｱｲﾁｹﾝ","kana_city":"ﾅｺﾞﾔｼｱﾂﾀｸ","kana_address":"ﾆﾊﾞﾝ","pref":"愛知県","city":"名古屋市熱田区","address":"二番"},
{"zip_code":"4560066","kana_pref":"ｱｲﾁｹﾝ","kana_city":"ﾅｺﾞﾔｼｱﾂﾀｸ","kana_address":"ﾉﾀﾞﾃﾁｮｳ","pref":"愛知県","city":"名古屋市熱田区","address":"野立町"},
{"zip_code":"4560077","kana_pref":"ｱｲﾁｹﾝ","kana_city":"ﾅｺﾞﾔｼｱﾂﾀｸ","kana_address":"ﾊﾀﾉﾁｮｳ","pref":"愛知県","city":"名古屋市熱田区","address":"幡野町"},
{"zip_code":"4560027","kana_pref":"ｱｲﾁｹﾝ","kana_city":"ﾅｺﾞﾔｼｱﾂﾀｸ","kana_address":"ﾊﾀﾔ","pref":"愛知県","city":"名古屋市熱田区","address":"旗屋"},
{"zip_code":"4560026","kana_pref":"ｱｲﾁｹﾝ","kana_city":"ﾅｺﾞﾔｼｱﾂﾀｸ","kana_address":"ﾊﾀﾔﾁｮｳ","pref":"愛知県","city":"名古屋市熱田区","address":"旗屋町"},
{"zip_code":"4560059","kana_pref":"ｱｲﾁｹﾝ","kana_city":"ﾅｺﾞﾔｼｱﾂﾀｸ","kana_address":"ﾊﾁﾊﾞﾝ","pref":"愛知県","city":"名古屋市熱田区","address":"八番"},
{"zip_code":"4560033","kana_pref":"ｱｲﾁｹﾝ","kana_city":"ﾅｺﾞﾔｼｱﾂﾀｸ","kana_address":"ﾊﾅｵﾓﾃﾁｮｳ","pref":"愛知県","city":"名古屋市熱田区","address":"花表町"},
{"zip_code":"4560011","kana_pref":"ｱｲﾁｹﾝ","kana_city":"ﾅｺﾞﾔｼｱﾂﾀｸ","kana_address":"ﾊﾅﾁｮｳ","pref":"愛知県","city":"名古屋市熱田区","address":"花町"},
{"zip_code":"4560074","kana_pref":"ｱｲﾁｹﾝ","kana_city":"ﾅｺﾞﾔｼｱﾂﾀｸ","kana_address":"ﾋﾋﾞﾉﾁｮｳ","pref":"愛知県","city":"名古屋市熱田区","address":"比々野町"},
{"zip_code":"4560055","kana_pref":"ｱｲﾁｹﾝ","kana_city":"ﾅｺﾞﾔｼｱﾂﾀｸ","kana_address":"ﾐﾅﾐｲﾁﾊﾞﾝﾁｮｳ","pref":"愛知県","city":"名古屋市熱田区","address":"南一番町"},
{"zip_code":"4560078","kana_pref":"ｱｲﾁｹﾝ","kana_city":"ﾅｺﾞﾔｼｱﾂﾀｸ","kana_address":"ﾐﾅﾐﾔｸﾞﾏﾁｮｳ","pref":"愛知県","city":"名古屋市熱田区","address":"南八熊町"},
{"zip_code":"4560023","kana_pref":"ｱｲﾁｹﾝ","kana_city":"ﾅｺﾞﾔｼｱﾂﾀｸ","kana_address":"ﾑﾂﾉ","pref":"愛知県","city":"名古屋市熱田区","address":"六野"},
{"zip_code":"4560024","kana_pref":"ｱｲﾁｹﾝ","kana_city":"ﾅｺﾞﾔｼｱﾂﾀｸ","kana_address":"ﾓﾘｺﾞﾁｮｳ","pref":"愛知県","city":"名古屋市熱田区","address":"森後町"},
{"zip_code":"4560022","kana_pref":"ｱｲﾁｹﾝ","kana_city":"ﾅｺﾞﾔｼｱﾂﾀｸ","kana_address":"ﾖｺﾀ","pref":"愛知県","city":"名古屋市熱田区","address":"横田"},
{"zip_code":"4560021","kana_pref":"ｱｲﾁｹﾝ","kana_city":"ﾅｺﾞﾔｼｱﾂﾀｸ","kana_address":"ﾖｻﾑﾁｮｳ","pref":"愛知県","city":"名古屋市熱田区","address":"夜寒町"},
{"zip_code":"4560051","kana_pref":"ｱｲﾁｹﾝ","kana_city":"ﾅｺﾞﾔｼｱﾂﾀｸ","kana_address":"ﾖﾝﾊﾞﾝ","pref":"愛知県","city":"名古屋市熱田区","address":"四番"},
{"zip_code":"4560058","kana_pref":"ｱｲﾁｹﾝ","kana_city":"ﾅｺﾞﾔｼｱﾂﾀｸ","kana_address":"ﾛｸﾊﾞﾝ","pref":"愛知県","city":"名古屋市熱田区","address":"六番"}]}