{"zip_code":[
{"zip_code":"4570000","kana_pref":"ｱｲﾁｹﾝ","kana_city":"ﾅｺﾞﾔｼﾐﾅﾐｸ","kana_address":"","pref":"愛知県","city":"名古屋市南区","address":""},
{"zip_code":"4570024","kana_pref":"ｱｲﾁｹﾝ","kana_city":"ﾅｺﾞﾔｼﾐﾅﾐｸ","kana_address":"ｱｶﾂﾎﾞﾁｮｳ","pref":"愛知県","city":"名古屋市南区","address":"赤坪町"},
{"zip_code":"4570063","kana_pref":"ｱｲﾁｹﾝ","kana_city":"ﾅｺﾞﾔｼﾐﾅﾐｸ","kana_address":"ｱﾊﾗﾁｮｳ","pref":"愛知県","city":"名古屋市南区","address":"阿原町"},
{"zip_code":"4570831","kana_pref":"ｱｲﾁｹﾝ","kana_city":"ﾅｺﾞﾔｼﾐﾅﾐｸ","kana_address":"ｱﾗﾊﾏﾁｮｳ","pref":"愛知県","city":"名古屋市南区","address":"荒浜町"},
{"zip_code":"4570075","kana_pref":"ｱｲﾁｹﾝ","kana_city":"ﾅｺﾞﾔｼﾐﾅﾐｸ","kana_address":"ｲｼﾓﾄﾁｮｳ","pref":"愛知県","city":"名古屋市南区","address":"石元町"},
{"zip_code":"4570015","kana_pref":"ｱｲﾁｹﾝ","kana_city":"ﾅｺﾞﾔｼﾐﾅﾐｸ","kana_address":"ｲﾜﾄﾁｮｳ","pref":"愛知県","city":"名古屋市南区","address":"岩戸町"},
{"zip_code":"4570862","kana_pref":"ｱｲﾁｹﾝ","kana_city":"ﾅｺﾞﾔｼﾐﾅﾐｸ","kana_address":"ｳﾁﾀﾞﾊﾞｼ","pref":"愛知県","city":"名古屋市南区","address":"内田橋"},
{"zip_code":"4570037","kana_pref":"ｱｲﾁｹﾝ","kana_city":"ﾅｺﾞﾔｼﾐﾅﾐｸ","kana_address":"ｵｳｷﾞﾀﾞﾁｮｳ","pref":"愛知県","city":"名古屋市南区","address":"扇田町"},
{"zip_code":"4570048","kana_pref":"ｱｲﾁｹﾝ","kana_city":"ﾅｺﾞﾔｼﾐﾅﾐｸ","kana_address":"ｵｵｲｿﾄｵﾘ","pref":"愛知県","city":"名古屋市南区","address":"大磯通"},
{"zip_code":"4570002","kana_pref":"ｱｲﾁｹﾝ","kana_city":"ﾅｺﾞﾔｼﾐﾅﾐｸ","kana_address":"ｵｵﾎﾘﾁｮｳ","pref":"愛知県","city":"名古屋市南区","address":"大堀町"},
{"zip_code":"4570035","kana_pref":"ｱｲﾁｹﾝ","kana_city":"ﾅｺﾞﾔｼﾐﾅﾐｸ","kana_address":"ｶｲﾂﾞｶﾁｮｳ","pref":"愛知県","city":"名古屋市南区","address":"貝塚町"},
{"zip_code":"4570007","kana_pref":"ｱｲﾁｹﾝ","kana_city":"ﾅｺﾞﾔｼﾐﾅﾐｸ","kana_address":"ｶｹｱｹﾞ","pref":"愛知県","city":"名古屋市南区","address":"駈上"},
{"zip_code":"4570051","kana_pref":"ｱｲﾁｹﾝ","kana_city":"ﾅｺﾞﾔｼﾐﾅﾐｸ","kana_address":"ｶｻﾃﾞﾗﾁｮｳ","pref":"愛知県","city":"名古屋市南区","address":"笠寺町"},
{"zip_code":"4570034","kana_pref":"ｱｲﾁｹﾝ","kana_city":"ﾅｺﾞﾔｼﾐﾅﾐｸ","kana_address":"ｶｽｶﾞﾉﾁｮｳ","pref":"愛知県","city":"名古屋市南区","address":"春日野町"},
{"zip_code":"4570052","kana_pref":"ｱｲﾁｹﾝ","kana_city":"ﾅｺﾞﾔｼﾐﾅﾐｸ","kana_address":"ｶｽﾊﾞﾀﾁｮｳ","pref":"愛知県","city":"名古屋市南区","address":"粕畠町"},
{"zip_code":"4570033","kana_pref":"ｱｲﾁｹﾝ","kana_city":"ﾅｺﾞﾔｼﾐﾅﾐｸ","kana_address":"ｶｽﾐﾁｮｳ","pref":"愛知県","city":"名古屋市南区","address":"霞町"},
{"zip_code":"4570802","kana_pref":"ｱｲﾁｹﾝ","kana_city":"ﾅｺﾞﾔｼﾐﾅﾐｸ","kana_address":"ｶﾅﾒﾁｮｳ","pref":"愛知県","city":"名古屋市南区","address":"要町"},
{"zip_code":"4570837","kana_pref":"ｱｲﾁｹﾝ","kana_city":"ﾅｺﾞﾔｼﾐﾅﾐｸ","kana_address":"ｶﾌｸﾁｮｳ","pref":"愛知県","city":"名古屋市南区","address":"加福町"},
{"zip_code":"4570836","kana_pref":"ｱｲﾁｹﾝ","kana_city":"ﾅｺﾞﾔｼﾐﾅﾐｸ","kana_address":"ｶﾌｸﾎﾝﾄｵﾘ","pref":"愛知県","city":"名古屋市南区","address":"加福本通"},
{"zip_code":"4570067","kana_pref":"ｱｲﾁｹﾝ","kana_city":"ﾅｺﾞﾔｼﾐﾅﾐｸ","kana_address":"ｶﾐﾊﾏﾁｮｳ","pref":"愛知県","city":"名古屋市南区","address":"上浜町"},
{"zip_code":"4570824","kana_pref":"ｱｲﾁｹﾝ","kana_city":"ﾅｺﾞﾔｼﾐﾅﾐｸ","kana_address":"ｶﾐﾏﾂﾁｮｳ","pref":"愛知県","city":"名古屋市南区","address":"神松町"},
{"zip_code":"4570845","kana_pref":"ｱｲﾁｹﾝ","kana_city":"ﾅｺﾞﾔｼﾐﾅﾐｸ","kana_address":"ｶﾝﾉﾝﾁｮｳ","pref":"愛知県","city":"名古屋市南区","address":"観音町"},
{"zip_code":"4570012","kana_pref":"ｱｲﾁｹﾝ","kana_city":"ﾅｺﾞﾔｼﾐﾅﾐｸ","kana_address":"ｷｸｽﾐ","pref":"愛知県","city":"名古屋市南区","address":"菊住"},
{"zip_code":"4570049","kana_pref":"ｱｲﾁｹﾝ","kana_city":"ﾅｺﾞﾔｼﾐﾅﾐｸ","kana_address":"ｷﾀｳﾁﾁｮｳ","pref":"愛知県","city":"名古屋市南区","address":"北内町"},
{"zip_code":"4570827","kana_pref":"ｱｲﾁｹﾝ","kana_city":"ﾅｺﾞﾔｼﾐﾅﾐｸ","kana_address":"ｷﾀｶﾞｼﾗﾁｮｳ","pref":"愛知県","city":"名古屋市南区","address":"北頭町"},
{"zip_code":"4570028","kana_pref":"ｱｲﾁｹﾝ","kana_city":"ﾅｺﾞﾔｼﾐﾅﾐｸ","kana_address":"ｸｽﾉｷﾁｮｳ","pref":"愛知県","city":"名古屋市南区","address":"楠町"},
{"zip_code":"4570804","kana_pref":"ｱｲﾁｹﾝ","kana_city":"ﾅｺﾞﾔｼﾐﾅﾐｸ","kana_address":"ｹﾞﾝﾍﾞｴﾁｮｳ","pref":"愛知県","city":"名古屋市南区","address":"源兵衛町"},
{"zip_code":"4570834","kana_pref":"ｱｲﾁｹﾝ","kana_city":"ﾅｺﾞﾔｼﾐﾅﾐｸ","kana_address":"ｺｳﾄｳﾄﾞｵﾘ","pref":"愛知県","city":"名古屋市南区","address":"港東通"},
{"zip_code":"4570851","kana_pref":"ｱｲﾁｹﾝ","kana_city":"ﾅｺﾞﾔｼﾐﾅﾐｸ","kana_address":"ｺﾞｼﾞｮｳﾁｮｳ","pref":"愛知県","city":"名古屋市南区","address":"五条町"},
{"zip_code":"4570044","kana_pref":"ｱｲﾁｹﾝ","kana_city":"ﾅｺﾞﾔｼﾐﾅﾐｸ","kana_address":"ｻｸｼﾀﾁｮｳ","pref":"愛知県","city":"名古屋市南区","address":"柵下町"},
{"zip_code":"4570005","kana_pref":"ｱｲﾁｹﾝ","kana_city":"ﾅｺﾞﾔｼﾐﾅﾐｸ","kana_address":"ｻｸﾗﾀﾞｲ","pref":"愛知県","city":"名古屋市南区","address":"桜台"},
{"zip_code":"4570038","kana_pref":"ｱｲﾁｹﾝ","kana_city":"ﾅｺﾞﾔｼﾐﾅﾐｸ","kana_address":"ｻｸﾗﾎﾝﾏﾁ","pref":"愛知県","city":"名古屋市南区","address":"桜本町"},
{"zip_code":"4570866","kana_pref":"ｱｲﾁｹﾝ","kana_city":"ﾅｺﾞﾔｼﾐﾅﾐｸ","kana_address":"ｻﾝｼﾞｮｳ","pref":"愛知県","city":"名古屋市南区","address":"三条"},
{"zip_code":"4570016","kana_pref":"ｱｲﾁｹﾝ","kana_city":"ﾅｺﾞﾔｼﾐﾅﾐｸ","kana_address":"ｼｵﾀﾞﾁｮｳ","pref":"愛知県","city":"名古屋市南区","address":"汐田町"},
{"zip_code":"4570078","kana_pref":"ｱｲﾁｹﾝ","kana_city":"ﾅｺﾞﾔｼﾐﾅﾐｸ","kana_address":"ｼｵﾔﾁｮｳ","pref":"愛知県","city":"名古屋市南区","address":"塩屋町"},
{"zip_code":"4570854","kana_pref":"ｱｲﾁｹﾝ","kana_city":"ﾅｺﾞﾔｼﾐﾅﾐｸ","kana_address":"ｼﾁｼﾞｮｳﾁｮｳ","pref":"愛知県","city":"名古屋市南区","address":"七条町"},
{"zip_code":"4570815","kana_pref":"ｱｲﾁｹﾝ","kana_city":"ﾅｺﾞﾔｼﾐﾅﾐｸ","kana_address":"ｼﾊﾞﾀﾁｮｳ","pref":"愛知県","city":"名古屋市南区","address":"柴田町"},
{"zip_code":"4570814","kana_pref":"ｱｲﾁｹﾝ","kana_city":"ﾅｺﾞﾔｼﾐﾅﾐｸ","kana_address":"ｼﾊﾞﾀﾎﾝﾄﾞｵﾘ","pref":"愛知県","city":"名古屋市南区","address":"柴田本通"},
{"zip_code":"4570023","kana_pref":"ｱｲﾁｹﾝ","kana_city":"ﾅｺﾞﾔｼﾐﾅﾐｸ","kana_address":"ｼﾊﾞﾁｮｳ","pref":"愛知県","city":"名古屋市南区","address":"芝町"},
{"zip_code":"4570047","kana_pref":"ｱｲﾁｹﾝ","kana_city":"ﾅｺﾞﾔｼﾐﾅﾐｸ","kana_address":"ｼﾛｼﾀﾁｮｳ","pref":"愛知県","city":"名古屋市南区","address":"城下町"},
{"zip_code":"4570054","kana_pref":"ｱｲﾁｹﾝ","kana_city":"ﾅｺﾞﾔｼﾐﾅﾐｸ","kana_address":"ｽﾅｸﾁﾁｮｳ","pref":"愛知県","city":"名古屋市南区","address":"砂口町"},
{"zip_code":"4570852","kana_pref":"ｱｲﾁｹﾝ","kana_city":"ﾅｺﾞﾔｼﾐﾅﾐｸ","kana_address":"ｾﾝﾗｸﾄｵﾘ","pref":"愛知県","city":"名古屋市南区","address":"泉楽通"},
{"zip_code":"4570042","kana_pref":"ｱｲﾁｹﾝ","kana_city":"ﾅｺﾞﾔｼﾐﾅﾐｸ","kana_address":"ｿｲｹﾁｮｳ","pref":"愛知県","city":"名古屋市南区","address":"曽池町"},
{"zip_code":"4570008","kana_pref":"ｱｲﾁｹﾝ","kana_city":"ﾅｺﾞﾔｼﾐﾅﾐｸ","kana_address":"ｿﾄﾔﾏ","pref":"愛知県","city":"名古屋市南区","address":"外山"},
{"zip_code":"4570811","kana_pref":"ｱｲﾁｹﾝ","kana_city":"ﾅｺﾞﾔｼﾐﾅﾐｸ","kana_address":"ﾀﾞｲﾄﾞｳﾁｮｳ","pref":"愛知県","city":"名古屋市南区","address":"大同町"},
{"zip_code":"4570031","kana_pref":"ｱｲﾁｹﾝ","kana_city":"ﾅｺﾞﾔｼﾐﾅﾐｸ","kana_address":"ﾀｲﾄﾘﾄｵﾘ","pref":"愛知県","city":"名古屋市南区","address":"鯛取通"},
{"zip_code":"4570819","kana_pref":"ｱｲﾁｹﾝ","kana_city":"ﾅｺﾞﾔｼﾐﾅﾐｸ","kana_address":"ﾀｷﾊﾙﾁｮｳ","pref":"愛知県","city":"名古屋市南区","address":"滝春町"},
{"zip_code":"4570077","kana_pref":"ｱｲﾁｹﾝ","kana_city":"ﾅｺﾞﾔｼﾐﾅﾐｸ","kana_address":"ﾀﾃﾜｷﾁｮｳ","pref":"愛知県","city":"名古屋市南区","address":"立脇町"},
{"zip_code":"4570801","kana_pref":"ｱｲﾁｹﾝ","kana_city":"ﾅｺﾞﾔｼﾐﾅﾐｸ","kana_address":"ﾀﾝｺﾞﾄｵﾘ","pref":"愛知県","city":"名古屋市南区","address":"丹後通"},
{"zip_code":"4570071","kana_pref":"ｱｲﾁｹﾝ","kana_city":"ﾅｺﾞﾔｼﾐﾅﾐｸ","kana_address":"ﾁｶﾏﾄｵﾘ","pref":"愛知県","city":"名古屋市南区","address":"千竈通"},
{"zip_code":"4570843","kana_pref":"ｱｲﾁｹﾝ","kana_city":"ﾅｺﾞﾔｼﾐﾅﾐｸ","kana_address":"ﾁｭｳｼﾞ","pref":"愛知県","city":"名古屋市南区","address":"忠次"},
{"zip_code":"4570825","kana_pref":"ｱｲﾁｹﾝ","kana_city":"ﾅｺﾞﾔｼﾐﾅﾐｸ","kana_address":"ﾂﾂﾐｵｺｼﾁｮｳ","pref":"愛知県","city":"名古屋市南区","address":"堤起町"},
{"zip_code":"4570844","kana_pref":"ｱｲﾁｹﾝ","kana_city":"ﾅｺﾞﾔｼﾐﾅﾐｸ","kana_address":"ﾂﾂﾐﾁｮｳ","pref":"愛知県","city":"名古屋市南区","address":"堤町"},
{"zip_code":"4570021","kana_pref":"ｱｲﾁｹﾝ","kana_city":"ﾅｺﾞﾔｼﾐﾅﾐｸ","kana_address":"ﾂﾙｻﾄﾁｮｳ","pref":"愛知県","city":"名古屋市南区","address":"鶴里町"},
{"zip_code":"4570003","kana_pref":"ｱｲﾁｹﾝ","kana_city":"ﾅｺﾞﾔｼﾐﾅﾐｸ","kana_address":"ﾂﾙﾀ","pref":"愛知県","city":"名古屋市南区","address":"鶴田"},
{"zip_code":"4570807","kana_pref":"ｱｲﾁｹﾝ","kana_city":"ﾅｺﾞﾔｼﾐﾅﾐｸ","kana_address":"ﾂﾙﾐﾄｵﾘ","pref":"愛知県","city":"名古屋市南区","address":"鶴見通"},
{"zip_code":"4570013","kana_pref":"ｱｲﾁｹﾝ","kana_city":"ﾅｺﾞﾔｼﾐﾅﾐｸ","kana_address":"ﾃﾗｻｷﾁｮｳ","pref":"愛知県","city":"名古屋市南区","address":"寺崎町"},
{"zip_code":"4570072","kana_pref":"ｱｲﾁｹﾝ","kana_city":"ﾅｺﾞﾔｼﾐﾅﾐｸ","kana_address":"ﾃﾗﾍﾞﾄﾞｵﾘ","pref":"愛知県","city":"名古屋市南区","address":"寺部通"},
{"zip_code":"4570803","kana_pref":"ｱｲﾁｹﾝ","kana_city":"ﾅｺﾞﾔｼﾐﾅﾐｸ","kana_address":"ﾃﾝﾊﾟｸﾁｮｳ","pref":"愛知県","city":"名古屋市南区","address":"天白町"},
{"zip_code":"4570076","kana_pref":"ｱｲﾁｹﾝ","kana_city":"ﾅｺﾞﾔｼﾐﾅﾐｸ","kana_address":"ﾄﾞｳｾﾞﾝﾁｮｳ","pref":"愛知県","city":"名古屋市南区","address":"道全町"},
{"zip_code":"4570864","kana_pref":"ｱｲﾁｹﾝ","kana_city":"ﾅｺﾞﾔｼﾐﾅﾐｸ","kana_address":"ﾄﾞｳﾄｸｷﾀﾏﾁ","pref":"愛知県","city":"名古屋市南区","address":"道徳北町"},
{"zip_code":"4570847","kana_pref":"ｱｲﾁｹﾝ","kana_city":"ﾅｺﾞﾔｼﾐﾅﾐｸ","kana_address":"ﾄﾞｳﾄｸｼﾝﾏﾁ","pref":"愛知県","city":"名古屋市南区","address":"道徳新町"},
{"zip_code":"4570846","kana_pref":"ｱｲﾁｹﾝ","kana_city":"ﾅｺﾞﾔｼﾐﾅﾐｸ","kana_address":"ﾄﾞｳﾄｸﾄｵﾘ","pref":"愛知県","city":"名古屋市南区","address":"道徳通"},
{"zip_code":"4570842","kana_pref":"ｱｲﾁｹﾝ","kana_city":"ﾅｺﾞﾔｼﾐﾅﾐｸ","kana_address":"ﾄﾍﾞｼﾀ","pref":"愛知県","city":"名古屋市南区","address":"戸部下"},
{"zip_code":"4570043","kana_pref":"ｱｲﾁｹﾝ","kana_city":"ﾅｺﾞﾔｼﾐﾅﾐｸ","kana_address":"ﾄﾍﾞﾁｮｳ","pref":"愛知県","city":"名古屋市南区","address":"戸部町"},
{"zip_code":"4570841","kana_pref":"ｱｲﾁｹﾝ","kana_city":"ﾅｺﾞﾔｼﾐﾅﾐｸ","kana_address":"ﾄﾖﾀﾞ","pref":"愛知県","city":"名古屋市南区","address":"豊田"},
{"zip_code":"4570855","kana_pref":"ｱｲﾁｹﾝ","kana_city":"ﾅｺﾞﾔｼﾐﾅﾐｸ","kana_address":"ﾄﾖﾀﾞﾁｮｳ","pref":"愛知県","city":"名古屋市南区","address":"豊田町"},
{"zip_code":"4570006","kana_pref":"ｱｲﾁｹﾝ","kana_city":"ﾅｺﾞﾔｼﾐﾅﾐｸ","kana_address":"ﾄﾘｽ","pref":"愛知県","city":"名古屋市南区","address":"鳥栖"},
{"zip_code":"4570057","kana_pref":"ｱｲﾁｹﾝ","kana_city":"ﾅｺﾞﾔｼﾐﾅﾐｸ","kana_address":"ﾄﾘﾔﾏﾁｮｳ","pref":"愛知県","city":"名古屋市南区","address":"鳥山町"},
{"zip_code":"4570004","kana_pref":"ｱｲﾁｹﾝ","kana_city":"ﾅｺﾞﾔｼﾐﾅﾐｸ","kana_address":"ﾅｶｴ","pref":"愛知県","city":"名古屋市南区","address":"中江"},
{"zip_code":"4570826","kana_pref":"ｱｲﾁｹﾝ","kana_city":"ﾅｺﾞﾔｼﾐﾅﾐｸ","kana_address":"ﾅｶﾜﾘﾁｮｳ","pref":"愛知県","city":"名古屋市南区","address":"中割町"},
{"zip_code":"4570066","kana_pref":"ｱｲﾁｹﾝ","kana_city":"ﾅｺﾞﾔｼﾐﾅﾐｸ","kana_address":"ﾅﾙｵ","pref":"愛知県","city":"名古屋市南区","address":"鳴尾"},
{"zip_code":"4570813","kana_pref":"ｱｲﾁｹﾝ","kana_city":"ﾅｺﾞﾔｼﾐﾅﾐｸ","kana_address":"ﾅﾙｵﾁｮｳ","pref":"愛知県","city":"名古屋市南区","address":"鳴尾町"},
{"zip_code":"4570806","kana_pref":"ｱｲﾁｹﾝ","kana_city":"ﾅｺﾞﾔｼﾐﾅﾐｸ","kana_address":"ﾅﾙﾊﾏﾁｮｳ","pref":"愛知県","city":"名古屋市南区","address":"鳴浜町"},
{"zip_code":"4570856","kana_pref":"ｱｲﾁｹﾝ","kana_city":"ﾅｺﾞﾔｼﾐﾅﾐｸ","kana_address":"ﾅﾝﾖｳﾄﾞｵﾘ","pref":"愛知県","city":"名古屋市南区","address":"南陽通"},
{"zip_code":"4570039","kana_pref":"ｱｲﾁｹﾝ","kana_city":"ﾅｺﾞﾔｼﾐﾅﾐｸ","kana_address":"ﾆｼｻｸﾗﾁｮｳ","pref":"愛知県","city":"名古屋市南区","address":"西桜町"},
{"zip_code":"4570073","kana_pref":"ｱｲﾁｹﾝ","kana_city":"ﾅｺﾞﾔｼﾐﾅﾐｸ","kana_address":"ﾆｼﾀﾞﾁｮｳ","pref":"愛知県","city":"名古屋市南区","address":"西田町"},
{"zip_code":"4570835","kana_pref":"ｱｲﾁｹﾝ","kana_city":"ﾅｺﾞﾔｼﾐﾅﾐｸ","kana_address":"ﾆｼﾏﾀﾍﾞｴﾁｮｳ","pref":"愛知県","city":"名古屋市南区","address":"西又兵ヱ町"},
{"zip_code":"4570025","kana_pref":"ｱｲﾁｹﾝ","kana_city":"ﾅｺﾞﾔｼﾐﾅﾐｸ","kana_address":"ﾊｸｳﾝﾁｮｳ","pref":"愛知県","city":"名古屋市南区","address":"白雲町"},
{"zip_code":"4570818","kana_pref":"ｱｲﾁｹﾝ","kana_city":"ﾅｺﾞﾔｼﾐﾅﾐｸ","kana_address":"ﾊｸｽｲﾁｮｳ","pref":"愛知県","city":"名古屋市南区","address":"白水町"},
{"zip_code":"4570822","kana_pref":"ｱｲﾁｹﾝ","kana_city":"ﾅｺﾞﾔｼﾐﾅﾐｸ","kana_address":"ﾊﾏﾀﾞﾁｮｳ","pref":"愛知県","city":"名古屋市南区","address":"浜田町"},
{"zip_code":"4570832","kana_pref":"ｱｲﾁｹﾝ","kana_city":"ﾅｺﾞﾔｼﾐﾅﾐｸ","kana_address":"ﾊﾏﾅｶﾁｮｳ","pref":"愛知県","city":"名古屋市南区","address":"浜中町"},
{"zip_code":"4570833","kana_pref":"ｱｲﾁｹﾝ","kana_city":"ﾅｺﾞﾔｼﾐﾅﾐｸ","kana_address":"ﾋｶﾞｼﾏﾀﾍﾞｴﾁｮｳ","pref":"愛知県","city":"名古屋市南区","address":"東又兵ヱ町"},
{"zip_code":"4570865","kana_pref":"ｱｲﾁｹﾝ","kana_city":"ﾅｺﾞﾔｼﾐﾅﾐｸ","kana_address":"ﾋﾑﾛﾁｮｳ","pref":"愛知県","city":"名古屋市南区","address":"氷室町"},
{"zip_code":"4570001","kana_pref":"ｱｲﾁｹﾝ","kana_city":"ﾅｺﾞﾔｼﾐﾅﾐｸ","kana_address":"ﾋﾗｺ","pref":"愛知県","city":"名古屋市南区","address":"平子"},
{"zip_code":"4570828","kana_pref":"ｱｲﾁｹﾝ","kana_city":"ﾅｺﾞﾔｼﾐﾅﾐｸ","kana_address":"ﾎｳｼｮｳﾁｮｳ","pref":"愛知県","city":"名古屋市南区","address":"宝生町"},
{"zip_code":"4570064","kana_pref":"ｱｲﾁｹﾝ","kana_city":"ﾅｺﾞﾔｼﾐﾅﾐｸ","kana_address":"ﾎｼｻﾞｷ","pref":"愛知県","city":"名古屋市南区","address":"星崎"},
{"zip_code":"4570812","kana_pref":"ｱｲﾁｹﾝ","kana_city":"ﾅｺﾞﾔｼﾐﾅﾐｸ","kana_address":"ﾎｼｻﾞｷﾁｮｳ","pref":"愛知県","city":"名古屋市南区","address":"星崎町"},
{"zip_code":"4570062","kana_pref":"ｱｲﾁｹﾝ","kana_city":"ﾅｺﾞﾔｼﾐﾅﾐｸ","kana_address":"ﾎｼｻﾞｷﾁｮｳ","pref":"愛知県","city":"名古屋市南区","address":"星崎町"},
{"zip_code":"4570061","kana_pref":"ｱｲﾁｹﾝ","kana_city":"ﾅｺﾞﾔｼﾐﾅﾐｸ","kana_address":"ﾎｼｻﾞｷﾁｮｳ","pref":"愛知県","city":"名古屋市南区","address":"星崎町"},
{"zip_code":"4570069","kana_pref":"ｱｲﾁｹﾝ","kana_city":"ﾅｺﾞﾔｼﾐﾅﾐｸ","kana_address":"ﾎｼｿﾞﾉﾁｮｳ","pref":"愛知県","city":"名古屋市南区","address":"星園町"},
{"zip_code":"4570055","kana_pref":"ｱｲﾁｹﾝ","kana_city":"ﾅｺﾞﾔｼﾐﾅﾐｸ","kana_address":"ﾎｼﾐﾔﾁｮｳ","pref":"愛知県","city":"名古屋市南区","address":"星宮町"},
{"zip_code":"4570074","kana_pref":"ｱｲﾁｹﾝ","kana_city":"ﾅｺﾞﾔｼﾐﾅﾐｸ","kana_address":"ﾎﾝｼﾞﾄﾞｵﾘ","pref":"愛知県","city":"名古屋市南区","address":"本地通"},
{"zip_code":"4570053","kana_pref":"ｱｲﾁｹﾝ","kana_city":"ﾅｺﾞﾔｼﾐﾅﾐｸ","kana_address":"ﾎﾝｼﾞｮｳﾁｮｳ","pref":"愛知県","city":"名古屋市南区","address":"本城町"},
{"zip_code":"4570058","kana_pref":"ｱｲﾁｹﾝ","kana_city":"ﾅｺﾞﾔｼﾐﾅﾐｸ","kana_address":"ﾏｴﾊﾏﾄﾞｵﾘ","pref":"愛知県","city":"名古屋市南区","address":"前浜通"},
{"zip_code":"4570046","kana_pref":"ｱｲﾁｹﾝ","kana_city":"ﾅｺﾞﾔｼﾐﾅﾐｸ","kana_address":"ﾏﾂｲｹﾁｮｳ","pref":"愛知県","city":"名古屋市南区","address":"松池町"},
{"zip_code":"4570808","kana_pref":"ｱｲﾁｹﾝ","kana_city":"ﾅｺﾞﾔｼﾐﾅﾐｸ","kana_address":"ﾏﾂｼﾀﾁｮｳ","pref":"愛知県","city":"名古屋市南区","address":"松下町"},
{"zip_code":"4570045","kana_pref":"ｱｲﾁｹﾝ","kana_city":"ﾅｺﾞﾔｼﾐﾅﾐｸ","kana_address":"ﾏﾂｼﾛﾁｮｳ","pref":"愛知県","city":"名古屋市南区","address":"松城町"},
{"zip_code":"4570068","kana_pref":"ｱｲﾁｹﾝ","kana_city":"ﾅｺﾞﾔｼﾐﾅﾐｸ","kana_address":"ﾐﾅﾐﾉ","pref":"愛知県","city":"名古屋市南区","address":"南野"},
{"zip_code":"4570026","kana_pref":"ｱｲﾁｹﾝ","kana_city":"ﾅｺﾞﾔｼﾐﾅﾐｸ","kana_address":"ﾐﾊﾗｼﾁｮｳ","pref":"愛知県","city":"名古屋市南区","address":"見晴町"},
{"zip_code":"4570022","kana_pref":"ｱｲﾁｹﾝ","kana_city":"ﾅｺﾞﾔｼﾐﾅﾐｸ","kana_address":"ﾐｮｳｴﾝﾁｮｳ","pref":"愛知県","city":"名古屋市南区","address":"明円町"},
{"zip_code":"4570805","kana_pref":"ｱｲﾁｹﾝ","kana_city":"ﾅｺﾞﾔｼﾐﾅﾐｸ","kana_address":"ﾐﾖｼﾁｮｳ","pref":"愛知県","city":"名古屋市南区","address":"三吉町"},
{"zip_code":"4570861","kana_pref":"ｱｲﾁｹﾝ","kana_city":"ﾅｺﾞﾔｼﾐﾅﾐｸ","kana_address":"ﾒｲｼﾞ","pref":"愛知県","city":"名古屋市南区","address":"明治"},
{"zip_code":"4570032","kana_pref":"ｱｲﾁｹﾝ","kana_city":"ﾅｺﾞﾔｼﾐﾅﾐｸ","kana_address":"ﾓﾄｻｸﾗﾀﾞﾁｮｳ","pref":"愛知県","city":"名古屋市南区","address":"元桜田町"},
{"zip_code":"4570823","kana_pref":"ｱｲﾁｹﾝ","kana_city":"ﾅｺﾞﾔｼﾐﾅﾐｸ","kana_address":"ﾓﾄｼｵﾁｮｳ","pref":"愛知県","city":"名古屋市南区","address":"元塩町"},
{"zip_code":"4570816","kana_pref":"ｱｲﾁｹﾝ","kana_city":"ﾅｺﾞﾔｼﾐﾅﾐｸ","kana_address":"ﾓﾄｼﾊﾞﾀﾋｶﾞｼﾏﾁ","pref":"愛知県","city":"名古屋市南区","address":"元柴田東町"},
{"zip_code":"4570817","kana_pref":"ｱｲﾁｹﾝ","kana_city":"ﾅｺﾞﾔｼﾐﾅﾐｸ","kana_address":"ﾓﾄｼﾊﾞﾀﾆｼﾏﾁ","pref":"愛知県","city":"名古屋市南区","address":"元柴田西町"},
{"zip_code":"4570065","kana_pref":"ｱｲﾁｹﾝ","kana_city":"ﾅｺﾞﾔｼﾐﾅﾐｸ","kana_address":"ﾓﾄﾅﾙｵﾁｮｳ","pref":"愛知県","city":"名古屋市南区","address":"元鳴尾町"},
{"zip_code":"4570056","kana_pref":"ｱｲﾁｹﾝ","kana_city":"ﾅｺﾞﾔｼﾐﾅﾐｸ","kana_address":"ﾓﾄﾎｼｻﾞｷﾁｮｳ","pref":"愛知県","city":"名古屋市南区","address":"本星崎町"},
{"zip_code":"4570041","kana_pref":"ｱｲﾁｹﾝ","kana_city":"ﾅｺﾞﾔｼﾐﾅﾐｸ","kana_address":"ﾔｸｼﾄﾞｵﾘ","pref":"愛知県","city":"名古屋市南区","address":"薬師通"},
{"zip_code":"4570821","kana_pref":"ｱｲﾁｹﾝ","kana_city":"ﾅｺﾞﾔｼﾐﾅﾐｸ","kana_address":"ﾔｼﾞｴﾁｮｳ","pref":"愛知県","city":"名古屋市南区","address":"弥次ヱ町"},
{"zip_code":"4570027","kana_pref":"ｱｲﾁｹﾝ","kana_city":"ﾅｺﾞﾔｼﾐﾅﾐｸ","kana_address":"ﾔﾖｲﾁｮｳ","pref":"愛知県","city":"名古屋市南区","address":"弥生町"},
{"zip_code":"4570863","kana_pref":"ｱｲﾁｹﾝ","kana_city":"ﾅｺﾞﾔｼﾐﾅﾐｸ","kana_address":"ﾕﾀｶ","pref":"愛知県","city":"名古屋市南区","address":"豊"},
{"zip_code":"4570014","kana_pref":"ｱｲﾁｹﾝ","kana_city":"ﾅｺﾞﾔｼﾐﾅﾐｸ","kana_address":"ﾖﾋﾞﾂｷﾞ","pref":"愛知県","city":"名古屋市南区","address":"呼続"},
{"zip_code":"4570011","kana_pref":"ｱｲﾁｹﾝ","kana_city":"ﾅｺﾞﾔｼﾐﾅﾐｸ","kana_address":"ﾖﾋﾞﾂｷﾞﾓﾄﾏﾁ","pref":"愛知県","city":"名古屋市南区","address":"呼続元町"},
{"zip_code":"4570853","kana_pref":"ｱｲﾁｹﾝ","kana_city":"ﾅｺﾞﾔｼﾐﾅﾐｸ","kana_address":"ﾛｸｼﾞｮｳﾁｮｳ","pref":"愛知県","city":"名古屋市南区","address":"六条町"},
{"zip_code":"4570036","kana_pref":"ｱｲﾁｹﾝ","kana_city":"ﾅｺﾞﾔｼﾐﾅﾐｸ","kana_address":"ﾜｶｸｻﾁｮｳ","pref":"愛知県","city":"名古屋市南区","address":"若草町"}]}