{"zip_code":[
{"zip_code":"4580000","kana_pref":"ｱｲﾁｹﾝ","kana_city":"ﾅｺﾞﾔｼﾐﾄﾞﾘｸ","kana_address":"","pref":"愛知県","city":"名古屋市緑区","address":""},
{"zip_code":"4580011","kana_pref":"ｱｲﾁｹﾝ","kana_city":"ﾅｺﾞﾔｼﾐﾄﾞﾘｸ","kana_address":"ｱｲｶﾜ","pref":"愛知県","city":"名古屋市緑区","address":"相川"},
{"zip_code":"4580033","kana_pref":"ｱｲﾁｹﾝ","kana_city":"ﾅｺﾞﾔｼﾐﾄﾞﾘｸ","kana_address":"ｱｲﾊﾞﾗｺﾞｳ","pref":"愛知県","city":"名古屋市緑区","address":"相原郷"},
{"zip_code":"4580833","kana_pref":"ｱｲﾁｹﾝ","kana_city":"ﾅｺﾞﾔｼﾐﾄﾞﾘｸ","kana_address":"ｱｵﾔﾏ","pref":"愛知県","city":"名古屋市緑区","address":"青山"},
{"zip_code":"4580837","kana_pref":"ｱｲﾁｹﾝ","kana_city":"ﾅｺﾞﾔｼﾐﾄﾞﾘｸ","kana_address":"ｱｶﾏﾂ","pref":"愛知県","city":"名古屋市緑区","address":"赤松"},
{"zip_code":"4580031","kana_pref":"ｱｲﾁｹﾝ","kana_city":"ﾅｺﾞﾔｼﾐﾄﾞﾘｸ","kana_address":"ｱｻﾋﾃﾞ","pref":"愛知県","city":"名古屋市緑区","address":"旭出"},
{"zip_code":"4580924","kana_pref":"ｱｲﾁｹﾝ","kana_city":"ﾅｺﾞﾔｼﾐﾄﾞﾘｸ","kana_address":"ｱﾘﾏﾂ","pref":"愛知県","city":"名古屋市緑区","address":"有松"},
{"zip_code":"4580903","kana_pref":"ｱｲﾁｹﾝ","kana_city":"ﾅｺﾞﾔｼﾐﾄﾞﾘｸ","kana_address":"ｱﾘﾏﾂｱﾀｺﾞ","pref":"愛知県","city":"名古屋市緑区","address":"有松愛宕"},
{"zip_code":"4580902","kana_pref":"ｱｲﾁｹﾝ","kana_city":"ﾅｺﾞﾔｼﾐﾄﾞﾘｸ","kana_address":"ｱﾘﾏﾂｻﾝﾁｮｳﾔﾏ","pref":"愛知県","city":"名古屋市緑区","address":"有松三丁山"},
{"zip_code":"4580901","kana_pref":"ｱｲﾁｹﾝ","kana_city":"ﾅｺﾞﾔｼﾐﾄﾞﾘｸ","kana_address":"ｱﾘﾏﾂﾁｮｳｱﾘﾏﾂ","pref":"愛知県","city":"名古屋市緑区","address":"有松町有松"},
{"zip_code":"4580916","kana_pref":"ｱｲﾁｹﾝ","kana_city":"ﾅｺﾞﾔｼﾐﾄﾞﾘｸ","kana_address":"ｱﾘﾏﾂﾁｮｳｵｹﾊｻﾞﾏ","pref":"愛知県","city":"名古屋市緑区","address":"有松町桶狭間"},
{"zip_code":"4580912","kana_pref":"ｱｲﾁｹﾝ","kana_city":"ﾅｺﾞﾔｼﾐﾄﾞﾘｸ","kana_address":"ｱﾘﾏﾂﾁｮｳｵｹﾊｻﾞﾏ","pref":"愛知県","city":"名古屋市緑区","address":"有松町桶狭間"},
{"zip_code":"4580911","kana_pref":"ｱｲﾁｹﾝ","kana_city":"ﾅｺﾞﾔｼﾐﾄﾞﾘｸ","kana_address":"ｱﾘﾏﾂﾁｮｳｵｹﾊｻﾞﾏ","pref":"愛知県","city":"名古屋市緑区","address":"有松町桶狭間"},
{"zip_code":"4580044","kana_pref":"ｱｲﾁｹﾝ","kana_city":"ﾅｺﾞﾔｼﾐﾄﾞﾘｸ","kana_address":"ｲｹｶﾞﾐﾀﾞｲ","pref":"愛知県","city":"名古屋市緑区","address":"池上台"},
{"zip_code":"4580830","kana_pref":"ｱｲﾁｹﾝ","kana_city":"ﾅｺﾞﾔｼﾐﾄﾞﾘｸ","kana_address":"ｳﾊﾞｺﾔﾏ","pref":"愛知県","city":"名古屋市緑区","address":"姥子山"},
{"zip_code":"4580001","kana_pref":"ｱｲﾁｹﾝ","kana_city":"ﾅｺﾞﾔｼﾐﾄﾞﾘｸ","kana_address":"ｳﾒｻﾄ","pref":"愛知県","city":"名古屋市緑区","address":"梅里"},
{"zip_code":"4580847","kana_pref":"ｱｲﾁｹﾝ","kana_city":"ﾅｺﾞﾔｼﾐﾄﾞﾘｸ","kana_address":"ｳﾗｻﾄ","pref":"愛知県","city":"名古屋市緑区","address":"浦里"},
{"zip_code":"4580832","kana_pref":"ｱｲﾁｹﾝ","kana_city":"ﾅｺﾞﾔｼﾐﾄﾞﾘｸ","kana_address":"ｳﾙｼﾔﾏ","pref":"愛知県","city":"名古屋市緑区","address":"漆山"},
{"zip_code":"4580032","kana_pref":"ｱｲﾁｹﾝ","kana_city":"ﾅｺﾞﾔｼﾐﾄﾞﾘｸ","kana_address":"ｵｵｶﾞﾀﾔﾏ","pref":"愛知県","city":"名古屋市緑区","address":"大形山"},
{"zip_code":"4580805","kana_pref":"ｱｲﾁｹﾝ","kana_city":"ﾅｺﾞﾔｼﾐﾄﾞﾘｸ","kana_address":"ｵｵｼﾐｽﾞ","pref":"愛知県","city":"名古屋市緑区","address":"大清水"},
{"zip_code":"4580806","kana_pref":"ｱｲﾁｹﾝ","kana_city":"ﾅｺﾞﾔｼﾐﾄﾞﾘｸ","kana_address":"ｵｵｼﾐｽﾞﾆｼ","pref":"愛知県","city":"名古屋市緑区","address":"大清水西"},
{"zip_code":"4580925","kana_pref":"ｱｲﾁｹﾝ","kana_city":"ﾅｺﾞﾔｼﾐﾄﾞﾘｸ","kana_address":"ｵｹﾊｻﾞﾏ","pref":"愛知県","city":"名古屋市緑区","address":"桶狭間"},
{"zip_code":"4580926","kana_pref":"ｱｲﾁｹﾝ","kana_city":"ﾅｺﾞﾔｼﾐﾄﾞﾘｸ","kana_address":"ｵｹﾊｻﾞﾏｳｴﾉﾔﾏ","pref":"愛知県","city":"名古屋市緑区","address":"桶狭間上の山"},
{"zip_code":"4580913","kana_pref":"ｱｲﾁｹﾝ","kana_city":"ﾅｺﾞﾔｼﾐﾄﾞﾘｸ","kana_address":"ｵｹﾊｻﾞﾏｷﾀ","pref":"愛知県","city":"名古屋市緑区","address":"桶狭間北"},
{"zip_code":"4580922","kana_pref":"ｱｲﾁｹﾝ","kana_city":"ﾅｺﾞﾔｼﾐﾄﾞﾘｸ","kana_address":"ｵｹﾊｻﾞﾏｷﾘﾄ","pref":"愛知県","city":"名古屋市緑区","address":"桶狭間切戸"},
{"zip_code":"4580921","kana_pref":"ｱｲﾁｹﾝ","kana_city":"ﾅｺﾞﾔｼﾐﾄﾞﾘｸ","kana_address":"ｵｹﾊｻﾞﾏｼﾐｽﾞﾔﾏ","pref":"愛知県","city":"名古屋市緑区","address":"桶狭間清水山"},
{"zip_code":"4580919","kana_pref":"ｱｲﾁｹﾝ","kana_city":"ﾅｺﾞﾔｼﾐﾄﾞﾘｸ","kana_address":"ｵｹﾊｻﾞﾏｼﾝﾒｲ","pref":"愛知県","city":"名古屋市緑区","address":"桶狭間神明"},
{"zip_code":"4580927","kana_pref":"ｱｲﾁｹﾝ","kana_city":"ﾅｺﾞﾔｼﾐﾄﾞﾘｸ","kana_address":"ｵｹﾊｻﾞﾏﾐﾅﾐ","pref":"愛知県","city":"名古屋市緑区","address":"桶狭間南"},
{"zip_code":"4580910","kana_pref":"ｱｲﾁｹﾝ","kana_city":"ﾅｺﾞﾔｼﾐﾄﾞﾘｸ","kana_address":"ｵｹﾊｻﾞﾏﾓﾘﾏｴ","pref":"愛知県","city":"名古屋市緑区","address":"桶狭間森前"},
{"zip_code":"4580024","kana_pref":"ｱｲﾁｹﾝ","kana_city":"ﾅｺﾞﾔｼﾐﾄﾞﾘｸ","kana_address":"ｵｻﾞｷﾔﾏ","pref":"愛知県","city":"名古屋市緑区","address":"尾崎山"},
{"zip_code":"4580803","kana_pref":"ｱｲﾁｹﾝ","kana_city":"ﾅｺﾞﾔｼﾐﾄﾞﾘｸ","kana_address":"ｶｶﾞﾐﾀﾞ","pref":"愛知県","city":"名古屋市緑区","address":"鏡田"},
{"zip_code":"4580007","kana_pref":"ｱｲﾁｹﾝ","kana_city":"ﾅｺﾞﾔｼﾐﾄﾞﾘｸ","kana_address":"ｶｺﾞﾔﾏ","pref":"愛知県","city":"名古屋市緑区","address":"篭山"},
{"zip_code":"4580829","kana_pref":"ｱｲﾁｹﾝ","kana_city":"ﾅｺﾞﾔｼﾐﾄﾞﾘｸ","kana_address":"ｶﾏｸﾗﾀﾞｲ","pref":"愛知県","city":"名古屋市緑区","address":"鎌倉台"},
{"zip_code":"4580016","kana_pref":"ｱｲﾁｹﾝ","kana_city":"ﾅｺﾞﾔｼﾐﾄﾞﾘｸ","kana_address":"ｶﾐｱｻﾋ","pref":"愛知県","city":"名古屋市緑区","address":"上旭"},
{"zip_code":"4580014","kana_pref":"ｱｲﾁｹﾝ","kana_city":"ﾅｺﾞﾔｼﾐﾄﾞﾘｸ","kana_address":"ｶﾐｻﾜ","pref":"愛知県","city":"名古屋市緑区","address":"神沢"},
{"zip_code":"4580812","kana_pref":"ｱｲﾁｹﾝ","kana_city":"ﾅｺﾞﾔｼﾐﾄﾞﾘｸ","kana_address":"ｶﾐﾉｸﾗ","pref":"愛知県","city":"名古屋市緑区","address":"神の倉"},
{"zip_code":"4580804","kana_pref":"ｱｲﾁｹﾝ","kana_city":"ﾅｺﾞﾔｼﾐﾄﾞﾘｸ","kana_address":"ｶﾒｶﾞﾎﾗ","pref":"愛知県","city":"名古屋市緑区","address":"亀が洞"},
{"zip_code":"4580003","kana_pref":"ｱｲﾁｹﾝ","kana_city":"ﾅｺﾞﾔｼﾐﾄﾞﾘｸ","kana_address":"ｸﾛｻﾜﾀﾞｲ","pref":"愛知県","city":"名古屋市緑区","address":"黒沢台"},
{"zip_code":"4580023","kana_pref":"ｱｲﾁｹﾝ","kana_city":"ﾅｺﾞﾔｼﾐﾄﾞﾘｸ","kana_address":"ｺｳﾌﾞﾂﾒ","pref":"愛知県","city":"名古屋市緑区","address":"鴻仏目"},
{"zip_code":"4580022","kana_pref":"ｱｲﾁｹﾝ","kana_city":"ﾅｺﾞﾔｼﾐﾄﾞﾘｸ","kana_address":"ｺｻｶ","pref":"愛知県","city":"名古屋市緑区","address":"小坂"},
{"zip_code":"4580047","kana_pref":"ｱｲﾁｹﾝ","kana_city":"ﾅｺﾞﾔｼﾐﾄﾞﾘｸ","kana_address":"ｺﾅﾙﾐ","pref":"愛知県","city":"名古屋市緑区","address":"古鳴海"},
{"zip_code":"4580820","kana_pref":"ｱｲﾁｹﾝ","kana_city":"ﾅｺﾞﾔｼﾐﾄﾞﾘｸ","kana_address":"ｻｶｲﾏﾂ","pref":"愛知県","city":"名古屋市緑区","address":"境松"},
{"zip_code":"4580825","kana_pref":"ｱｲﾁｹﾝ","kana_city":"ﾅｺﾞﾔｼﾐﾄﾞﾘｸ","kana_address":"ｻｷｮｳﾔﾏ","pref":"愛知県","city":"名古屋市緑区","address":"左京山"},
{"zip_code":"4580038","kana_pref":"ｱｲﾁｹﾝ","kana_city":"ﾅｺﾞﾔｼﾐﾄﾞﾘｸ","kana_address":"ｻｸﾉﾔﾏﾁｮｳ","pref":"愛知県","city":"名古屋市緑区","address":"作の山町"},
{"zip_code":"4580037","kana_pref":"ｱｲﾁｹﾝ","kana_city":"ﾅｺﾞﾔｼﾐﾄﾞﾘｸ","kana_address":"ｼｵﾐｶﾞｵｶ","pref":"愛知県","city":"名古屋市緑区","address":"潮見が丘"},
{"zip_code":"4580045","kana_pref":"ｱｲﾁｹﾝ","kana_city":"ﾅｺﾞﾔｼﾐﾄﾞﾘｸ","kana_address":"ｼｶﾔﾏ","pref":"愛知県","city":"名古屋市緑区","address":"鹿山"},
{"zip_code":"4580015","kana_pref":"ｱｲﾁｹﾝ","kana_city":"ﾅｺﾞﾔｼﾐﾄﾞﾘｸ","kana_address":"ｼﾉﾉｶｾﾞ","pref":"愛知県","city":"名古屋市緑区","address":"篠の風"},
{"zip_code":"4580039","kana_pref":"ｱｲﾁｹﾝ","kana_city":"ﾅｺﾞﾔｼﾐﾄﾞﾘｸ","kana_address":"ｼﾎﾝｷﾞ","pref":"愛知県","city":"名古屋市緑区","address":"四本木"},
{"zip_code":"4580836","kana_pref":"ｱｲﾁｹﾝ","kana_city":"ﾅｺﾞﾔｼﾐﾄﾞﾘｸ","kana_address":"ｼﾛﾂﾁ","pref":"愛知県","city":"名古屋市緑区","address":"白土"},
{"zip_code":"4580807","kana_pref":"ｱｲﾁｹﾝ","kana_city":"ﾅｺﾞﾔｼﾐﾄﾞﾘｸ","kana_address":"ｽﾅﾀﾞ","pref":"愛知県","city":"名古屋市緑区","address":"砂田"},
{"zip_code":"4580035","kana_pref":"ｱｲﾁｹﾝ","kana_city":"ﾅｺﾞﾔｼﾐﾄﾞﾘｸ","kana_address":"ｿﾈ","pref":"愛知県","city":"名古屋市緑区","address":"曽根"},
{"zip_code":"4580823","kana_pref":"ｱｲﾁｹﾝ","kana_city":"ﾅｺﾞﾔｼﾐﾄﾞﾘｸ","kana_address":"ﾀｲｼ","pref":"愛知県","city":"名古屋市緑区","address":"太子"},
{"zip_code":"4580822","kana_pref":"ｱｲﾁｹﾝ","kana_city":"ﾅｺﾞﾔｼﾐﾄﾞﾘｸ","kana_address":"ﾀｲｼｮｳｶﾞﾈ","pref":"愛知県","city":"名古屋市緑区","address":"大将ケ根"},
{"zip_code":"4580042","kana_pref":"ｱｲﾁｹﾝ","kana_city":"ﾅｺﾞﾔｼﾐﾄﾞﾘｸ","kana_address":"ﾀｶﾈﾀﾞｲ","pref":"愛知県","city":"名古屋市緑区","address":"高根台"},
{"zip_code":"4580021","kana_pref":"ｱｲﾁｹﾝ","kana_city":"ﾅｺﾞﾔｼﾐﾄﾞﾘｸ","kana_address":"ﾀｷﾉﾐｽﾞ","pref":"愛知県","city":"名古屋市緑区","address":"滝ノ水"},
{"zip_code":"4580917","kana_pref":"ｱｲﾁｹﾝ","kana_city":"ﾅｺﾞﾔｼﾐﾄﾞﾘｸ","kana_address":"ﾀｹｼﾞﾁｮｳ","pref":"愛知県","city":"名古屋市緑区","address":"武路町"},
{"zip_code":"4580814","kana_pref":"ｱｲﾁｹﾝ","kana_city":"ﾅｺﾞﾔｼﾐﾄﾞﾘｸ","kana_address":"ﾂﾙｶﾞｻﾜ","pref":"愛知県","city":"名古屋市緑区","address":"鶴が沢"},
{"zip_code":"4580815","kana_pref":"ｱｲﾁｹﾝ","kana_city":"ﾅｺﾞﾔｼﾐﾄﾞﾘｸ","kana_address":"ﾄｸｼｹﾞ","pref":"愛知県","city":"名古屋市緑区","address":"徳重"},
{"zip_code":"4580025","kana_pref":"ｱｲﾁｹﾝ","kana_city":"ﾅｺﾞﾔｼﾐﾄﾞﾘｸ","kana_address":"ﾄﾘｽﾐ","pref":"愛知県","city":"名古屋市緑区","address":"鳥澄"},
{"zip_code":"4580046","kana_pref":"ｱｲﾁｹﾝ","kana_city":"ﾅｺﾞﾔｼﾐﾄﾞﾘｸ","kana_address":"ﾅｶﾞﾈﾁｮｳ","pref":"愛知県","city":"名古屋市緑区","address":"長根町"},
{"zip_code":"4580005","kana_pref":"ｱｲﾁｹﾝ","kana_city":"ﾅｺﾞﾔｼﾐﾄﾞﾘｸ","kana_address":"ﾅﾙｵｶ","pref":"愛知県","city":"名古屋市緑区","address":"鳴丘"},
{"zip_code":"4580041","kana_pref":"ｱｲﾁｹﾝ","kana_city":"ﾅｺﾞﾔｼﾐﾄﾞﾘｸ","kana_address":"ﾅﾙｺﾁｮｳ","pref":"愛知県","city":"名古屋市緑区","address":"鳴子町"},
{"zip_code":"4580845","kana_pref":"ｱｲﾁｹﾝ","kana_city":"ﾅｺﾞﾔｼﾐﾄﾞﾘｸ","kana_address":"ﾅﾙﾐﾁｮｳ","pref":"愛知県","city":"名古屋市緑区","address":"鳴海町"},
{"zip_code":"4580824","kana_pref":"ｱｲﾁｹﾝ","kana_city":"ﾅｺﾞﾔｼﾐﾄﾞﾘｸ","kana_address":"ﾅﾙﾐﾁｮｳ","pref":"愛知県","city":"名古屋市緑区","address":"鳴海町"},
{"zip_code":"4580842","kana_pref":"ｱｲﾁｹﾝ","kana_city":"ﾅｺﾞﾔｼﾐﾄﾞﾘｸ","kana_address":"ﾅﾙﾐﾁｮｳ","pref":"愛知県","city":"名古屋市緑区","address":"鳴海町"},
{"zip_code":"4580828","kana_pref":"ｱｲﾁｹﾝ","kana_city":"ﾅｺﾞﾔｼﾐﾄﾞﾘｸ","kana_address":"ﾅﾙﾐﾁｮｳ","pref":"愛知県","city":"名古屋市緑区","address":"鳴海町"},
{"zip_code":"4580818","kana_pref":"ｱｲﾁｹﾝ","kana_city":"ﾅｺﾞﾔｼﾐﾄﾞﾘｸ","kana_address":"ﾅﾙﾐﾁｮｳ","pref":"愛知県","city":"名古屋市緑区","address":"鳴海町"},
{"zip_code":"4580821","kana_pref":"ｱｲﾁｹﾝ","kana_city":"ﾅｺﾞﾔｼﾐﾄﾞﾘｸ","kana_address":"ﾅﾙﾐﾁｮｳ","pref":"愛知県","city":"名古屋市緑区","address":"鳴海町"},
{"zip_code":"4580835","kana_pref":"ｱｲﾁｹﾝ","kana_city":"ﾅｺﾞﾔｼﾐﾄﾞﾘｸ","kana_address":"ﾅﾙﾐﾁｮｳ","pref":"愛知県","city":"名古屋市緑区","address":"鳴海町"},
{"zip_code":"4580811","kana_pref":"ｱｲﾁｹﾝ","kana_city":"ﾅｺﾞﾔｼﾐﾄﾞﾘｸ","kana_address":"ﾅﾙﾐﾁｮｳ","pref":"愛知県","city":"名古屋市緑区","address":"鳴海町"},
{"zip_code":"4580841","kana_pref":"ｱｲﾁｹﾝ","kana_city":"ﾅｺﾞﾔｼﾐﾄﾞﾘｸ","kana_address":"ﾅﾙﾐﾁｮｳ","pref":"愛知県","city":"名古屋市緑区","address":"鳴海町"},
{"zip_code":"4580834","kana_pref":"ｱｲﾁｹﾝ","kana_city":"ﾅｺﾞﾔｼﾐﾄﾞﾘｸ","kana_address":"ﾅﾙﾐﾁｮｳ","pref":"愛知県","city":"名古屋市緑区","address":"鳴海町"},
{"zip_code":"4580844","kana_pref":"ｱｲﾁｹﾝ","kana_city":"ﾅｺﾞﾔｼﾐﾄﾞﾘｸ","kana_address":"ﾅﾙﾐﾁｮｳ","pref":"愛知県","city":"名古屋市緑区","address":"鳴海町"},
{"zip_code":"4580827","kana_pref":"ｱｲﾁｹﾝ","kana_city":"ﾅｺﾞﾔｼﾐﾄﾞﾘｸ","kana_address":"ﾅﾙﾐﾁｮｳ","pref":"愛知県","city":"名古屋市緑区","address":"鳴海町"},
{"zip_code":"4580831","kana_pref":"ｱｲﾁｹﾝ","kana_city":"ﾅｺﾞﾔｼﾐﾄﾞﾘｸ","kana_address":"ﾅﾙﾐﾁｮｳ","pref":"愛知県","city":"名古屋市緑区","address":"鳴海町"},
{"zip_code":"4580817","kana_pref":"ｱｲﾁｹﾝ","kana_city":"ﾅｺﾞﾔｼﾐﾄﾞﾘｸ","kana_address":"ﾅﾙﾐﾁｮｳ","pref":"愛知県","city":"名古屋市緑区","address":"鳴海町"},
{"zip_code":"4580846","kana_pref":"ｱｲﾁｹﾝ","kana_city":"ﾅｺﾞﾔｼﾐﾄﾞﾘｸ","kana_address":"ﾅﾙﾐﾁｮｳ","pref":"愛知県","city":"名古屋市緑区","address":"鳴海町"},
{"zip_code":"4580819","kana_pref":"ｱｲﾁｹﾝ","kana_city":"ﾅｺﾞﾔｼﾐﾄﾞﾘｸ","kana_address":"ﾅﾙﾐﾁｮｳ","pref":"愛知県","city":"名古屋市緑区","address":"鳴海町"},
{"zip_code":"4580801","kana_pref":"ｱｲﾁｹﾝ","kana_city":"ﾅｺﾞﾔｼﾐﾄﾞﾘｸ","kana_address":"ﾅﾙﾐﾁｮｳ","pref":"愛知県","city":"名古屋市緑区","address":"鳴海町"},
{"zip_code":"4580918","kana_pref":"ｱｲﾁｹﾝ","kana_city":"ﾅｺﾞﾔｼﾐﾄﾞﾘｸ","kana_address":"ﾅﾝﾘｮｳ","pref":"愛知県","city":"名古屋市緑区","address":"南陵"},
{"zip_code":"4580809","kana_pref":"ｱｲﾁｹﾝ","kana_city":"ﾅｺﾞﾔｼﾐﾄﾞﾘｸ","kana_address":"ﾆｼｶﾐﾉｸﾗ","pref":"愛知県","city":"名古屋市緑区","address":"西神の倉"},
{"zip_code":"4580915","kana_pref":"ｱｲﾁｹﾝ","kana_city":"ﾅｺﾞﾔｼﾐﾄﾞﾘｸ","kana_address":"ﾉｽﾞｴﾁｮｳ","pref":"愛知県","city":"名古屋市緑区","address":"野末町"},
{"zip_code":"4580004","kana_pref":"ｱｲﾁｹﾝ","kana_city":"ﾅｺﾞﾔｼﾐﾄﾞﾘｸ","kana_address":"ﾉﾘｸﾗ","pref":"愛知県","city":"名古屋市緑区","address":"乗鞍"},
{"zip_code":"4580808","kana_pref":"ｱｲﾁｹﾝ","kana_city":"ﾅｺﾞﾔｼﾐﾄﾞﾘｸ","kana_address":"ﾋｶﾞｼｶﾐﾉｸﾗ","pref":"愛知県","city":"名古屋市緑区","address":"東神の倉"},
{"zip_code":"4580012","kana_pref":"ｱｲﾁｹﾝ","kana_city":"ﾅｺﾞﾔｼﾐﾄﾞﾘｸ","kana_address":"ﾋｻｶﾀ","pref":"愛知県","city":"名古屋市緑区","address":"久方"},
{"zip_code":"4580802","kana_pref":"ｱｲﾁｹﾝ","kana_city":"ﾅｺﾞﾔｼﾐﾄﾞﾘｸ","kana_address":"ﾋｮｳｺﾞ","pref":"愛知県","city":"名古屋市緑区","address":"兵庫"},
{"zip_code":"4580826","kana_pref":"ｱｲﾁｹﾝ","kana_city":"ﾅｺﾞﾔｼﾐﾄﾞﾘｸ","kana_address":"ﾋﾗｺｶﾞｵｶ","pref":"愛知県","city":"名古屋市緑区","address":"平子が丘"},
{"zip_code":"4580009","kana_pref":"ｱｲﾁｹﾝ","kana_city":"ﾅｺﾞﾔｼﾐﾄﾞﾘｸ","kana_address":"ﾋﾗﾃﾐﾅﾐ","pref":"愛知県","city":"名古屋市緑区","address":"平手南"},
{"zip_code":"4580008","kana_pref":"ｱｲﾁｹﾝ","kana_city":"ﾅｺﾞﾔｼﾐﾄﾞﾘｸ","kana_address":"ﾋﾗﾃｷﾀ","pref":"愛知県","city":"名古屋市緑区","address":"平手北"},
{"zip_code":"4580813","kana_pref":"ｱｲﾁｹﾝ","kana_city":"ﾅｺﾞﾔｼﾐﾄﾞﾘｸ","kana_address":"ﾌｼﾞﾂﾞｶ","pref":"愛知県","city":"名古屋市緑区","address":"藤塚"},
{"zip_code":"4580006","kana_pref":"ｱｲﾁｹﾝ","kana_city":"ﾅｺﾞﾔｼﾐﾄﾞﾘｸ","kana_address":"ﾎｿｸﾞﾁ","pref":"愛知県","city":"名古屋市緑区","address":"細口"},
{"zip_code":"4580013","kana_pref":"ｱｲﾁｹﾝ","kana_city":"ﾅｺﾞﾔｼﾐﾄﾞﾘｸ","kana_address":"ﾎﾗｶﾞｲ","pref":"愛知県","city":"名古屋市緑区","address":"ほら貝"},
{"zip_code":"4580843","kana_pref":"ｱｲﾁｹﾝ","kana_city":"ﾅｺﾞﾔｼﾐﾄﾞﾘｸ","kana_address":"ﾏﾂｶﾞﾈﾀﾞｲ","pref":"愛知県","city":"名古屋市緑区","address":"松が根台"},
{"zip_code":"4580043","kana_pref":"ｱｲﾁｹﾝ","kana_city":"ﾅｺﾞﾔｼﾐﾄﾞﾘｸ","kana_address":"ﾏﾝﾊﾞﾔﾏ","pref":"愛知県","city":"名古屋市緑区","address":"万場山"},
{"zip_code":"4580002","kana_pref":"ｱｲﾁｹﾝ","kana_city":"ﾅｺﾞﾔｼﾐﾄﾞﾘｸ","kana_address":"ﾓﾓﾔﾏ","pref":"愛知県","city":"名古屋市緑区","address":"桃山"},
{"zip_code":"4580817","kana_pref":"ｱｲﾁｹﾝ","kana_city":"ﾅｺﾞﾔｼﾐﾄﾞﾘｸ","kana_address":"ﾓﾛﾉｷ","pref":"愛知県","city":"名古屋市緑区","address":"諸の木"},
{"zip_code":"4580810","kana_pref":"ｱｲﾁｹﾝ","kana_city":"ﾅｺﾞﾔｼﾐﾄﾞﾘｸ","kana_address":"ﾔﾂﾏﾂ","pref":"愛知県","city":"名古屋市緑区","address":"八つ松"},
{"zip_code":"4580816","kana_pref":"ｱｲﾁｹﾝ","kana_city":"ﾅｺﾞﾔｼﾐﾄﾞﾘｸ","kana_address":"ﾖｺﾌﾞｷﾁｮｳ","pref":"愛知県","city":"名古屋市緑区","address":"横吹町"},
{"zip_code":"4580036","kana_pref":"ｱｲﾁｹﾝ","kana_city":"ﾅｺﾞﾔｼﾐﾄﾞﾘｸ","kana_address":"ﾛｸﾃﾞﾝ","pref":"愛知県","city":"名古屋市緑区","address":"六田"},
{"zip_code":"4580034","kana_pref":"ｱｲﾁｹﾝ","kana_city":"ﾅｺﾞﾔｼﾐﾄﾞﾘｸ","kana_address":"ﾜｶﾀ","pref":"愛知県","city":"名古屋市緑区","address":"若田"}]}