{"zip_code":[
{"zip_code":"4598004","kana_pref":"ｱｲﾁｹﾝ","kana_city":"ﾅｺﾞﾔｼﾐﾄﾞﾘｸ","kana_address":"ｱﾘﾏﾂﾐﾅﾐ","pref":"愛知県","city":"名古屋市緑区","address":"有松南"},
{"zip_code":"4598003","kana_pref":"ｱｲﾁｹﾝ","kana_city":"ﾅｺﾞﾔｼﾐﾄﾞﾘｸ","kana_address":"ｵｵﾀﾞｶﾀﾞｲ","pref":"愛知県","city":"名古屋市緑区","address":"大高台"},
{"zip_code":"4598001","kana_pref":"ｱｲﾁｹﾝ","kana_city":"ﾅｺﾞﾔｼﾐﾄﾞﾘｸ","kana_address":"ｵｵﾀﾞｶﾁｮｳ","pref":"愛知県","city":"名古屋市緑区","address":"大高町"},
{"zip_code":"4598007","kana_pref":"ｱｲﾁｹﾝ","kana_city":"ﾅｺﾞﾔｼﾐﾄﾞﾘｸ","kana_address":"ｵｵﾈﾔﾏ","pref":"愛知県","city":"名古屋市緑区","address":"大根山"},
{"zip_code":"4598006","kana_pref":"ｱｲﾁｹﾝ","kana_city":"ﾅｺﾞﾔｼﾐﾄﾞﾘｸ","kana_address":"ｸﾗｻｶ","pref":"愛知県","city":"名古屋市緑区","address":"倉坂"},
{"zip_code":"4598009","kana_pref":"ｱｲﾁｹﾝ","kana_city":"ﾅｺﾞﾔｼﾐﾄﾞﾘｸ","kana_address":"ｼﾐｽﾞﾔﾏ","pref":"愛知県","city":"名古屋市緑区","address":"清水山"},
{"zip_code":"4598008","kana_pref":"ｱｲﾁｹﾝ","kana_city":"ﾅｺﾞﾔｼﾐﾄﾞﾘｸ","kana_address":"ﾌﾞﾝｷｭｳﾔﾏ","pref":"愛知県","city":"名古屋市緑区","address":"文久山"},
{"zip_code":"4598002","kana_pref":"ｱｲﾁｹﾝ","kana_city":"ﾅｺﾞﾔｼﾐﾄﾞﾘｸ","kana_address":"ﾓﾘﾉｻﾄ","pref":"愛知県","city":"名古屋市緑区","address":"森の里"},
{"zip_code":"4598005","kana_pref":"ｱｲﾁｹﾝ","kana_city":"ﾅｺﾞﾔｼﾐﾄﾞﾘｸ","kana_address":"ﾘｮｯｶﾀﾞｲ","pref":"愛知県","city":"名古屋市緑区","address":"緑花台"}]}