{"zip_code":[
{"zip_code":"4610000","kana_pref":"ｱｲﾁｹﾝ","kana_city":"ﾅｺﾞﾔｼﾋｶﾞｼｸ","kana_address":"","pref":"愛知県","city":"名古屋市東区","address":""},
{"zip_code":"4610012","kana_pref":"ｱｲﾁｹﾝ","kana_city":"ﾅｺﾞﾔｼﾋｶﾞｼｸ","kana_address":"ｱｲｵｲﾁｮｳ","pref":"愛知県","city":"名古屋市東区","address":"相生町"},
{"zip_code":"4610004","kana_pref":"ｱｲﾁｹﾝ","kana_city":"ﾅｺﾞﾔｼﾋｶﾞｼｸ","kana_address":"ｱｵｲ","pref":"愛知県","city":"名古屋市東区","address":"葵"},
{"zip_code":"4610026","kana_pref":"ｱｲﾁｹﾝ","kana_city":"ﾅｺﾞﾔｼﾋｶﾞｼｸ","kana_address":"ｱｶﾂｶﾁｮｳ","pref":"愛知県","city":"名古屋市東区","address":"赤塚町"},
{"zip_code":"4610013","kana_pref":"ｱｲﾁｹﾝ","kana_city":"ﾅｺﾞﾔｼﾋｶﾞｼｸ","kana_address":"ｲｲﾀﾞﾏﾁ","pref":"愛知県","city":"名古屋市東区","address":"飯田町"},
{"zip_code":"4610001","kana_pref":"ｱｲﾁｹﾝ","kana_city":"ﾅｺﾞﾔｼﾋｶﾞｼｸ","kana_address":"ｲｽﾞﾐ","pref":"愛知県","city":"名古屋市東区","address":"泉"},
{"zip_code":"4610021","kana_pref":"ｱｲﾁｹﾝ","kana_city":"ﾅｺﾞﾔｼﾋｶﾞｼｸ","kana_address":"ｵｵｿﾞﾈ","pref":"愛知県","city":"名古屋市東区","address":"大曽根"},
{"zip_code":"4610033","kana_pref":"ｱｲﾁｹﾝ","kana_city":"ﾅｺﾞﾔｼﾋｶﾞｼｸ","kana_address":"ｵｵﾏﾂﾁｮｳ","pref":"愛知県","city":"名古屋市東区","address":"大松町"},
{"zip_code":"4610016","kana_pref":"ｱｲﾁｹﾝ","kana_city":"ﾅｺﾞﾔｼﾋｶﾞｼｸ","kana_address":"ｶﾐﾀﾃｽｷﾞﾉﾁｮｳ","pref":"愛知県","city":"名古屋市東区","address":"上竪杉町"},
{"zip_code":"4610036","kana_pref":"ｱｲﾁｹﾝ","kana_city":"ﾅｺﾞﾔｼﾋｶﾞｼｸ","kana_address":"ｸﾙﾏﾐﾁﾁｮｳ","pref":"愛知県","city":"名古屋市東区","address":"車道町"},
{"zip_code":"4610035","kana_pref":"ｱｲﾁｹﾝ","kana_city":"ﾅｺﾞﾔｼﾋｶﾞｼｸ","kana_address":"ｸﾛﾓﾝﾁｮｳ","pref":"愛知県","city":"名古屋市東区","address":"黒門町"},
{"zip_code":"4610049","kana_pref":"ｱｲﾁｹﾝ","kana_city":"ﾅｺﾞﾔｼﾋｶﾞｼｸ","kana_address":"ｺﾃﾞｷ","pref":"愛知県","city":"名古屋市東区","address":"古出来"},
{"zip_code":"4610019","kana_pref":"ｱｲﾁｹﾝ","kana_city":"ﾅｺﾞﾔｼﾋｶﾞｼｸ","kana_address":"ｻﾝﾉﾏﾙ","pref":"愛知県","city":"名古屋市東区","address":"三の丸"},
{"zip_code":"4610014","kana_pref":"ｱｲﾁｹﾝ","kana_city":"ﾅｺﾞﾔｼﾋｶﾞｼｸ","kana_address":"ｼｭﾓｸﾁｮｳ","pref":"愛知県","city":"名古屋市東区","address":"橦木町"},
{"zip_code":"4610011","kana_pref":"ｱｲﾁｹﾝ","kana_city":"ﾅｺﾞﾔｼﾋｶﾞｼｸ","kana_address":"ｼﾗｶﾍﾞ","pref":"愛知県","city":"名古屋市東区","address":"白壁"},
{"zip_code":"4610038","kana_pref":"ｱｲﾁｹﾝ","kana_city":"ﾅｺﾞﾔｼﾋｶﾞｼｸ","kana_address":"ｼﾝﾃﾞｷ","pref":"愛知県","city":"名古屋市東区","address":"新出来"},
{"zip_code":"4610045","kana_pref":"ｱｲﾁｹﾝ","kana_city":"ﾅｺﾞﾔｼﾋｶﾞｼｸ","kana_address":"ｽﾅﾀﾞﾊﾞｼ","pref":"愛知県","city":"名古屋市東区","address":"砂田橋"},
{"zip_code":"4610002","kana_pref":"ｱｲﾁｹﾝ","kana_city":"ﾅｺﾞﾔｼﾋｶﾞｼｸ","kana_address":"ﾀﾞｲｶﾝﾁｮｳ","pref":"愛知県","city":"名古屋市東区","address":"代官町"},
{"zip_code":"4610043","kana_pref":"ｱｲﾁｹﾝ","kana_city":"ﾅｺﾞﾔｼﾋｶﾞｼｸ","kana_address":"ﾀﾞｲｺｳ","pref":"愛知県","city":"名古屋市東区","address":"大幸"},
{"zip_code":"4610047","kana_pref":"ｱｲﾁｹﾝ","kana_city":"ﾅｺﾞﾔｼﾋｶﾞｼｸ","kana_address":"ﾀﾞｲｺｳﾐﾅﾐ","pref":"愛知県","city":"名古屋市東区","address":"大幸南"},
{"zip_code":"4610018","kana_pref":"ｱｲﾁｹﾝ","kana_city":"ﾅｺﾞﾔｼﾋｶﾞｼｸ","kana_address":"ﾁｶﾗﾏﾁ","pref":"愛知県","city":"名古屋市東区","address":"主税町"},
{"zip_code":"4610003","kana_pref":"ｱｲﾁｹﾝ","kana_city":"ﾅｺﾞﾔｼﾋｶﾞｼｸ","kana_address":"ﾂﾂｲ","pref":"愛知県","city":"名古屋市東区","address":"筒井"},
{"zip_code":"4610003","kana_pref":"ｱｲﾁｹﾝ","kana_city":"ﾅｺﾞﾔｼﾋｶﾞｼｸ","kana_address":"ﾂﾂｲﾁｮｳ","pref":"愛知県","city":"名古屋市東区","address":"筒井町"},
{"zip_code":"4610032","kana_pref":"ｱｲﾁｹﾝ","kana_city":"ﾅｺﾞﾔｼﾋｶﾞｼｸ","kana_address":"ﾃﾞｷﾏﾁ","pref":"愛知県","city":"名古屋市東区","address":"出来町"},
{"zip_code":"4610025","kana_pref":"ｱｲﾁｹﾝ","kana_city":"ﾅｺﾞﾔｼﾋｶﾞｼｸ","kana_address":"ﾄｸｶﾞﾜ","pref":"愛知県","city":"名古屋市東区","address":"徳川"},
{"zip_code":"4610023","kana_pref":"ｱｲﾁｹﾝ","kana_city":"ﾅｺﾞﾔｼﾋｶﾞｼｸ","kana_address":"ﾄｸｶﾞﾜﾁｮｳ","pref":"愛知県","city":"名古屋市東区","address":"徳川町"},
{"zip_code":"4610034","kana_pref":"ｱｲﾁｹﾝ","kana_city":"ﾅｺﾞﾔｼﾋｶﾞｼｸ","kana_address":"ﾄﾖﾏｴﾁｮｳ","pref":"愛知県","city":"名古屋市東区","address":"豊前町"},
{"zip_code":"4610007","kana_pref":"ｱｲﾁｹﾝ","kana_city":"ﾅｺﾞﾔｼﾋｶﾞｼｸ","kana_address":"ﾆｼｼﾝﾁｮｳ","pref":"愛知県","city":"名古屋市東区","address":"西新町"},
{"zip_code":"4610022","kana_pref":"ｱｲﾁｹﾝ","kana_city":"ﾅｺﾞﾔｼﾋｶﾞｼｸ","kana_address":"ﾋｶﾞｼｵｵｿﾞﾈﾁｮｳ","pref":"愛知県","city":"名古屋市東区","address":"東大曽根町"},
{"zip_code":"4610015","kana_pref":"ｱｲﾁｹﾝ","kana_city":"ﾅｺﾞﾔｼﾋｶﾞｼｸ","kana_address":"ﾋｶﾞｼｶﾀﾊﾏﾁ","pref":"愛知県","city":"名古屋市東区","address":"東片端町"},
{"zip_code":"4610005","kana_pref":"ｱｲﾁｹﾝ","kana_city":"ﾅｺﾞﾔｼﾋｶﾞｼｸ","kana_address":"ﾋｶﾞｼｻｸﾗ","pref":"愛知県","city":"名古屋市東区","address":"東桜"},
{"zip_code":"4610006","kana_pref":"ｱｲﾁｹﾝ","kana_city":"ﾅｺﾞﾔｼﾋｶﾞｼｸ","kana_address":"ﾋｶﾞｼｼﾝﾁｮｳ","pref":"愛知県","city":"名古屋市東区","address":"東新町"},
{"zip_code":"4610017","kana_pref":"ｱｲﾁｹﾝ","kana_city":"ﾅｺﾞﾔｼﾋｶﾞｼｸ","kana_address":"ﾋｶﾞｼｿﾄﾎﾞﾘﾁｮｳ","pref":"愛知県","city":"名古屋市東区","address":"東外堀町"},
{"zip_code":"4610009","kana_pref":"ｱｲﾁｹﾝ","kana_city":"ﾅｺﾞﾔｼﾋｶﾞｼｸ","kana_address":"ﾋｻﾔﾁｮｳ","pref":"愛知県","city":"名古屋市東区","address":"久屋町"},
{"zip_code":"4610037","kana_pref":"ｱｲﾁｹﾝ","kana_city":"ﾅｺﾞﾔｼﾋｶﾞｼｸ","kana_address":"ﾋｬｸﾆﾝﾁｮｳ","pref":"愛知県","city":"名古屋市東区","address":"百人町"},
{"zip_code":"4610008","kana_pref":"ｱｲﾁｹﾝ","kana_city":"ﾅｺﾞﾔｼﾋｶﾞｼｸ","kana_address":"ﾌﾞﾍｲﾁｮｳ","pref":"愛知県","city":"名古屋市東区","address":"武平町"},
{"zip_code":"4610046","kana_pref":"ｱｲﾁｹﾝ","kana_city":"ﾅｺﾞﾔｼﾋｶﾞｼｸ","kana_address":"ﾏｴﾅﾐﾁｮｳ","pref":"愛知県","city":"名古屋市東区","address":"前浪町"},
{"zip_code":"4610031","kana_pref":"ｱｲﾁｹﾝ","kana_city":"ﾅｺﾞﾔｼﾋｶﾞｼｸ","kana_address":"ﾒｲﾘﾝﾁｮｳ","pref":"愛知県","city":"名古屋市東区","address":"明倫町"},
{"zip_code":"4610040","kana_pref":"ｱｲﾁｹﾝ","kana_city":"ﾅｺﾞﾔｼﾋｶﾞｼｸ","kana_address":"ﾔﾀﾞ","pref":"愛知県","city":"名古屋市東区","address":"矢田"},
{"zip_code":"4610044","kana_pref":"ｱｲﾁｹﾝ","kana_city":"ﾅｺﾞﾔｼﾋｶﾞｼｸ","kana_address":"ﾔﾀﾞﾋｶﾞｼ","pref":"愛知県","city":"名古屋市東区","address":"矢田東"},
{"zip_code":"4610048","kana_pref":"ｱｲﾁｹﾝ","kana_city":"ﾅｺﾞﾔｼﾋｶﾞｼｸ","kana_address":"ﾔﾀﾞﾐﾅﾐ","pref":"愛知県","city":"名古屋市東区","address":"矢田南"},
{"zip_code":"4610024","kana_pref":"ｱｲﾁｹﾝ","kana_city":"ﾅｺﾞﾔｼﾋｶﾞｼｸ","kana_address":"ﾔﾏｸﾞﾁﾁｮｳ","pref":"愛知県","city":"名古屋市東区","address":"山口町"},
{"zip_code":"4610027","kana_pref":"ｱｲﾁｹﾝ","kana_city":"ﾅｺﾞﾔｼﾋｶﾞｼｸ","kana_address":"ﾖｼﾉ","pref":"愛知県","city":"名古屋市東区","address":"芳野"}]}