{"zip_code":[
{"zip_code":"4630000","kana_pref":"ｱｲﾁｹﾝ","kana_city":"ﾅｺﾞﾔｼﾓﾘﾔﾏｸ","kana_address":"","pref":"愛知県","city":"名古屋市守山区","address":""},
{"zip_code":"4630815","kana_pref":"ｱｲﾁｹﾝ","kana_city":"ﾅｺﾞﾔｼﾓﾘﾔﾏｸ","kana_address":"ｱｵﾊﾞﾀﾞｲ","pref":"愛知県","city":"名古屋市守山区","address":"青葉台"},
{"zip_code":"4630805","kana_pref":"ｱｲﾁｹﾝ","kana_city":"ﾅｺﾞﾔｼﾓﾘﾔﾏｸ","kana_address":"ｱｵﾔﾏﾀﾞｲ","pref":"愛知県","city":"名古屋市守山区","address":"青山台"},
{"zip_code":"4630037","kana_pref":"ｱｲﾁｹﾝ","kana_city":"ﾅｺﾞﾔｼﾓﾘﾔﾏｸ","kana_address":"ｱﾏｺﾀﾞ","pref":"愛知県","city":"名古屋市守山区","address":"天子田"},
{"zip_code":"4630804","kana_pref":"ｱｲﾁｹﾝ","kana_city":"ﾅｺﾞﾔｼﾓﾘﾔﾏｸ","kana_address":"ｲｽﾞﾐｶﾞｵｶ","pref":"愛知県","city":"名古屋市守山区","address":"泉が丘"},
{"zip_code":"4630075","kana_pref":"ｱｲﾁｹﾝ","kana_city":"ﾅｺﾞﾔｼﾓﾘﾔﾏｸ","kana_address":"ｲﾁﾊﾞ","pref":"愛知県","city":"名古屋市守山区","address":"市場"},
{"zip_code":"4630023","kana_pref":"ｱｲﾁｹﾝ","kana_city":"ﾅｺﾞﾔｼﾓﾘﾔﾏｸ","kana_address":"ｲﾏｼﾞﾘﾁｮｳ","pref":"愛知県","city":"名古屋市守山区","address":"今尻町"},
{"zip_code":"4630094","kana_pref":"ｱｲﾁｹﾝ","kana_city":"ﾅｺﾞﾔｼﾓﾘﾔﾏｸ","kana_address":"ｳｼﾏｷ","pref":"愛知県","city":"名古屋市守山区","address":"牛牧"},
{"zip_code":"4630044","kana_pref":"ｱｲﾁｹﾝ","kana_city":"ﾅｺﾞﾔｼﾓﾘﾔﾏｸ","kana_address":"ｵｵﾀｲ","pref":"愛知県","city":"名古屋市守山区","address":"太田井"},
{"zip_code":"4630041","kana_pref":"ｱｲﾁｹﾝ","kana_city":"ﾅｺﾞﾔｼﾓﾘﾔﾏｸ","kana_address":"ｵｵﾀﾆﾁｮｳ","pref":"愛知県","city":"名古屋市守山区","address":"大谷町"},
{"zip_code":"4630085","kana_pref":"ｱｲﾁｹﾝ","kana_city":"ﾅｺﾞﾔｼﾓﾘﾔﾏｸ","kana_address":"ｵｵﾏｷﾁｮｳ","pref":"愛知県","city":"名古屋市守山区","address":"大牧町"},
{"zip_code":"4630021","kana_pref":"ｱｲﾁｹﾝ","kana_city":"ﾅｺﾞﾔｼﾓﾘﾔﾏｸ","kana_address":"ｵｵﾓﾘ","pref":"愛知県","city":"名古屋市守山区","address":"大森"},
{"zip_code":"4630802","kana_pref":"ｱｲﾁｹﾝ","kana_city":"ﾅｺﾞﾔｼﾓﾘﾔﾏｸ","kana_address":"ｵｵﾓﾘｷﾀ","pref":"愛知県","city":"名古屋市守山区","address":"大森北"},
{"zip_code":"4630028","kana_pref":"ｱｲﾁｹﾝ","kana_city":"ﾅｺﾞﾔｼﾓﾘﾔﾏｸ","kana_address":"ｵｵﾓﾘﾊﾁﾘｭｳ","pref":"愛知県","city":"名古屋市守山区","address":"大森八龍"},
{"zip_code":"4630016","kana_pref":"ｱｲﾁｹﾝ","kana_city":"ﾅｺﾞﾔｼﾓﾘﾔﾏｸ","kana_address":"ｵｵﾔｼｷ","pref":"愛知県","city":"名古屋市守山区","address":"大屋敷"},
{"zip_code":"4630011","kana_pref":"ｱｲﾁｹﾝ","kana_city":"ﾅｺﾞﾔｼﾓﾘﾔﾏｸ","kana_address":"ｵﾊﾞﾀ","pref":"愛知県","city":"名古屋市守山区","address":"小幡"},
{"zip_code":"4630051","kana_pref":"ｱｲﾁｹﾝ","kana_city":"ﾅｺﾞﾔｼﾓﾘﾔﾏｸ","kana_address":"ｵﾊﾞﾀｵｵﾀ","pref":"愛知県","city":"名古屋市守山区","address":"小幡太田"},
{"zip_code":"4630008","kana_pref":"ｱｲﾁｹﾝ","kana_city":"ﾅｺﾞﾔｼﾓﾘﾔﾏｸ","kana_address":"ｵﾊﾞﾀｷﾀ","pref":"愛知県","city":"名古屋市守山区","address":"小幡北"},
{"zip_code":"4630047","kana_pref":"ｱｲﾁｹﾝ","kana_city":"ﾅｺﾞﾔｼﾓﾘﾔﾏｸ","kana_address":"ｵﾊﾞﾀｼﾞｮｳﾄｳ","pref":"愛知県","city":"名古屋市守山区","address":"小幡常燈"},
{"zip_code":"4630053","kana_pref":"ｱｲﾁｹﾝ","kana_city":"ﾅｺﾞﾔｼﾓﾘﾔﾏｸ","kana_address":"ｵﾊﾞﾀﾁﾖﾀﾞ","pref":"愛知県","city":"名古屋市守山区","address":"小幡千代田"},
{"zip_code":"4630013","kana_pref":"ｱｲﾁｹﾝ","kana_city":"ﾅｺﾞﾔｼﾓﾘﾔﾏｸ","kana_address":"ｵﾊﾞﾀﾅｶ","pref":"愛知県","city":"名古屋市守山区","address":"小幡中"},
{"zip_code":"4630052","kana_pref":"ｱｲﾁｹﾝ","kana_city":"ﾅｺﾞﾔｼﾓﾘﾔﾏｸ","kana_address":"ｵﾊﾞﾀﾐﾔﾉｺｼ","pref":"愛知県","city":"名古屋市守山区","address":"小幡宮ノ腰"},
{"zip_code":"4630048","kana_pref":"ｱｲﾁｹﾝ","kana_city":"ﾅｺﾞﾔｼﾓﾘﾔﾏｸ","kana_address":"ｵﾊﾞﾀﾐﾅﾐ","pref":"愛知県","city":"名古屋市守山区","address":"小幡南"},
{"zip_code":"4630072","kana_pref":"ｱｲﾁｹﾝ","kana_city":"ﾅｺﾞﾔｼﾓﾘﾔﾏｸ","kana_address":"ｶﾅﾔ","pref":"愛知県","city":"名古屋市守山区","address":"金屋"},
{"zip_code":"4630001","kana_pref":"ｱｲﾁｹﾝ","kana_city":"ﾅｺﾞﾔｼﾓﾘﾔﾏｸ","kana_address":"ｶﾐｼﾀﾞﾐ","pref":"愛知県","city":"名古屋市守山区","address":"上志段味"},
{"zip_code":"4630005","kana_pref":"ｱｲﾁｹﾝ","kana_city":"ﾅｺﾞﾔｼﾓﾘﾔﾏｸ","kana_address":"ｶﾜ","pref":"愛知県","city":"名古屋市守山区","address":"川"},
{"zip_code":"4630091","kana_pref":"ｱｲﾁｹﾝ","kana_city":"ﾅｺﾞﾔｼﾓﾘﾔﾏｸ","kana_address":"ｶﾜｶﾐﾁｮｳ","pref":"愛知県","city":"名古屋市守山区","address":"川上町"},
{"zip_code":"4630098","kana_pref":"ｱｲﾁｹﾝ","kana_city":"ﾅｺﾞﾔｼﾓﾘﾔﾏｸ","kana_address":"ｶﾜｷﾀﾁｮｳ","pref":"愛知県","city":"名古屋市守山区","address":"川北町"},
{"zip_code":"4630080","kana_pref":"ｱｲﾁｹﾝ","kana_city":"ﾅｺﾞﾔｼﾓﾘﾔﾏｸ","kana_address":"ｶﾜﾆｼ","pref":"愛知県","city":"名古屋市守山区","address":"川西"},
{"zip_code":"4630006","kana_pref":"ｱｲﾁｹﾝ","kana_city":"ﾅｺﾞﾔｼﾓﾘﾔﾏｸ","kana_address":"ｶﾜﾋｶﾞｼﾔﾏ","pref":"愛知県","city":"名古屋市守山区","address":"川東山"},
{"zip_code":"4630081","kana_pref":"ｱｲﾁｹﾝ","kana_city":"ﾅｺﾞﾔｼﾓﾘﾔﾏｸ","kana_address":"ｶﾜﾐﾔﾁｮｳ","pref":"愛知県","city":"名古屋市守山区","address":"川宮町"},
{"zip_code":"4630097","kana_pref":"ｱｲﾁｹﾝ","kana_city":"ﾅｺﾞﾔｼﾓﾘﾔﾏｸ","kana_address":"ｶﾜﾑﾗﾁｮｳ","pref":"愛知県","city":"名古屋市守山区","address":"川村町"},
{"zip_code":"4630814","kana_pref":"ｱｲﾁｹﾝ","kana_city":"ﾅｺﾞﾔｼﾓﾘﾔﾏｸ","kana_address":"ｷｷｮｳﾀﾞｲﾗ","pref":"愛知県","city":"名古屋市守山区","address":"桔梗平"},
{"zip_code":"4630017","kana_pref":"ｱｲﾁｹﾝ","kana_city":"ﾅｺﾞﾔｼﾓﾘﾔﾏｸ","kana_address":"ｷﾀﾔﾏ","pref":"愛知県","city":"名古屋市守山区","address":"喜多山"},
{"zip_code":"4630043","kana_pref":"ｱｲﾁｹﾝ","kana_city":"ﾅｺﾞﾔｼﾓﾘﾔﾏｸ","kana_address":"ｷﾀﾔﾏﾐﾅﾐ","pref":"愛知県","city":"名古屋市守山区","address":"喜多山南"},
{"zip_code":"4630004","kana_pref":"ｱｲﾁｹﾝ","kana_city":"ﾅｺﾞﾔｼﾓﾘﾔﾏｸ","kana_address":"ｷｯｺ","pref":"愛知県","city":"名古屋市守山区","address":"吉根"},
{"zip_code":"4630813","kana_pref":"ｱｲﾁｹﾝ","kana_city":"ﾅｺﾞﾔｼﾓﾘﾔﾏｸ","kana_address":"ｷｯｺﾐﾅﾐ","pref":"愛知県","city":"名古屋市守山区","address":"吉根南"},
{"zip_code":"4630079","kana_pref":"ｱｲﾁｹﾝ","kana_city":"ﾅｺﾞﾔｼﾓﾘﾔﾏｸ","kana_address":"ｺｳｼﾝ","pref":"愛知県","city":"名古屋市守山区","address":"幸心"},
{"zip_code":"4630029","kana_pref":"ｱｲﾁｹﾝ","kana_city":"ﾅｺﾞﾔｼﾓﾘﾔﾏｸ","kana_address":"ｺﾞｾﾞﾝﾎﾞﾗ","pref":"愛知県","city":"名古屋市守山区","address":"御膳洞"},
{"zip_code":"4630054","kana_pref":"ｱｲﾁｹﾝ","kana_city":"ﾅｺﾞﾔｼﾓﾘﾔﾏｸ","kana_address":"ｺﾛｸﾁｮｳ","pref":"愛知県","city":"名古屋市守山区","address":"小六町"},
{"zip_code":"4630812","kana_pref":"ｱｲﾁｹﾝ","kana_city":"ﾅｺﾞﾔｼﾓﾘﾔﾏｸ","kana_address":"ｻｻｶﾞﾈ","pref":"愛知県","city":"名古屋市守山区","address":"笹ヶ根"},
{"zip_code":"4630064","kana_pref":"ｱｲﾁｹﾝ","kana_city":"ﾅｺﾞﾔｼﾓﾘﾔﾏｸ","kana_address":"ｻﾗﾔｼｷ","pref":"愛知県","city":"名古屋市守山区","address":"更屋敷"},
{"zip_code":"4630034","kana_pref":"ｱｲﾁｹﾝ","kana_city":"ﾅｺﾞﾔｼﾓﾘﾔﾏｸ","kana_address":"ｼｹﾝﾔ","pref":"愛知県","city":"名古屋市守山区","address":"四軒家"},
{"zip_code":"4630003","kana_pref":"ｱｲﾁｹﾝ","kana_city":"ﾅｺﾞﾔｼﾓﾘﾔﾏｸ","kana_address":"ｼﾓｼﾀﾞﾐ","pref":"愛知県","city":"名古屋市守山区","address":"下志段味"},
{"zip_code":"4630092","kana_pref":"ｱｲﾁｹﾝ","kana_city":"ﾅｺﾞﾔｼﾓﾘﾔﾏｸ","kana_address":"ｼﾗｻﾜﾁｮｳ","pref":"愛知県","city":"名古屋市守山区","address":"白沢町"},
{"zip_code":"4630093","kana_pref":"ｱｲﾁｹﾝ","kana_city":"ﾅｺﾞﾔｼﾓﾘﾔﾏｸ","kana_address":"ｼﾛﾂﾁﾁｮｳ","pref":"愛知県","city":"名古屋市守山区","address":"城土町"},
{"zip_code":"4630014","kana_pref":"ｱｲﾁｹﾝ","kana_city":"ﾅｺﾞﾔｼﾓﾘﾔﾏｸ","kana_address":"ｼﾞｮｳﾅﾝﾁｮｳ","pref":"愛知県","city":"名古屋市守山区","address":"城南町"},
{"zip_code":"4630056","kana_pref":"ｱｲﾁｹﾝ","kana_city":"ﾅｺﾞﾔｼﾓﾘﾔﾏｸ","kana_address":"ｼﾝｼﾛ","pref":"愛知県","city":"名古屋市守山区","address":"新城"},
{"zip_code":"4630071","kana_pref":"ｱｲﾁｹﾝ","kana_city":"ﾅｺﾞﾔｼﾓﾘﾔﾏｸ","kana_address":"ｼﾝﾓﾘﾁｮｳ","pref":"愛知県","city":"名古屋市守山区","address":"新守町"},
{"zip_code":"4630069","kana_pref":"ｱｲﾁｹﾝ","kana_city":"ﾅｺﾞﾔｼﾓﾘﾔﾏｸ","kana_address":"ｼﾝﾓﾘﾆｼ","pref":"愛知県","city":"名古屋市守山区","address":"新守西"},
{"zip_code":"4630070","kana_pref":"ｱｲﾁｹﾝ","kana_city":"ﾅｺﾞﾔｼﾓﾘﾔﾏｸ","kana_address":"ｼﾝﾓﾘﾔﾏ","pref":"愛知県","city":"名古屋市守山区","address":"新守山"},
{"zip_code":"4630010","kana_pref":"ｱｲﾁｹﾝ","kana_city":"ﾅｺﾞﾔｼﾓﾘﾔﾏｸ","kana_address":"ｽｲｼｮｳｴﾝ","pref":"愛知県","city":"名古屋市守山区","address":"翠松園"},
{"zip_code":"4630078","kana_pref":"ｱｲﾁｹﾝ","kana_city":"ﾅｺﾞﾔｼﾓﾘﾔﾏｸ","kana_address":"ｾｺ","pref":"愛知県","city":"名古屋市守山区","address":"瀬古"},
{"zip_code":"4630068","kana_pref":"ｱｲﾁｹﾝ","kana_city":"ﾅｺﾞﾔｼﾓﾘﾔﾏｸ","kana_address":"ｾｺ","pref":"愛知県","city":"名古屋市守山区","address":"瀬古"},
{"zip_code":"4630090","kana_pref":"ｱｲﾁｹﾝ","kana_city":"ﾅｺﾞﾔｼﾓﾘﾔﾏｸ","kana_address":"ｾｺﾋｶﾞｼ","pref":"愛知県","city":"名古屋市守山区","address":"瀬古東"},
{"zip_code":"4630087","kana_pref":"ｱｲﾁｹﾝ","kana_city":"ﾅｺﾞﾔｼﾓﾘﾔﾏｸ","kana_address":"ﾀﾞｲｴｲｼﾞﾁｮｳ","pref":"愛知県","city":"名古屋市守山区","address":"大永寺町"},
{"zip_code":"4630095","kana_pref":"ｱｲﾁｹﾝ","kana_city":"ﾅｺﾞﾔｼﾓﾘﾔﾏｸ","kana_address":"ﾀｶｼﾏﾁｮｳ","pref":"愛知県","city":"名古屋市守山区","address":"高島町"},
{"zip_code":"4630012","kana_pref":"ｱｲﾁｹﾝ","kana_city":"ﾅｺﾞﾔｼﾓﾘﾔﾏｸ","kana_address":"ﾁｬｳｽﾏｴ","pref":"愛知県","city":"名古屋市守山区","address":"茶臼前"},
{"zip_code":"4630062","kana_pref":"ｱｲﾁｹﾝ","kana_city":"ﾅｺﾞﾔｼﾓﾘﾔﾏｸ","kana_address":"ﾁｮｳｴｲ","pref":"愛知県","city":"名古屋市守山区","address":"長栄"},
{"zip_code":"4630807","kana_pref":"ｱｲﾁｹﾝ","kana_city":"ﾅｺﾞﾔｼﾓﾘﾔﾏｸ","kana_address":"ﾂﾂﾞﾐｶﾞｵｶ","pref":"愛知県","city":"名古屋市守山区","address":"鼓が丘"},
{"zip_code":"4630088","kana_pref":"ｱｲﾁｹﾝ","kana_city":"ﾅｺﾞﾔｼﾓﾘﾔﾏｸ","kana_address":"ﾄﾘｶﾞﾐﾁｮｳ","pref":"愛知県","city":"名古屋市守山区","address":"鳥神町"},
{"zip_code":"4630076","kana_pref":"ｱｲﾁｹﾝ","kana_city":"ﾅｺﾞﾔｼﾓﾘﾔﾏｸ","kana_address":"ﾄﾘﾊﾞﾐ","pref":"愛知県","city":"名古屋市守山区","address":"鳥羽見"},
{"zip_code":"4630046","kana_pref":"ｱｲﾁｹﾝ","kana_city":"ﾅｺﾞﾔｼﾓﾘﾔﾏｸ","kana_address":"ﾅｴｼﾛ","pref":"愛知県","city":"名古屋市守山区","address":"苗代"},
{"zip_code":"4630002","kana_pref":"ｱｲﾁｹﾝ","kana_city":"ﾅｺﾞﾔｼﾓﾘﾔﾏｸ","kana_address":"ﾅｶｼﾀﾞﾐ","pref":"愛知県","city":"名古屋市守山区","address":"中志段味"},
{"zip_code":"4630057","kana_pref":"ｱｲﾁｹﾝ","kana_city":"ﾅｺﾞﾔｼﾓﾘﾔﾏｸ","kana_address":"ﾅｶｼﾝ","pref":"愛知県","city":"名古屋市守山区","address":"中新"},
{"zip_code":"4630086","kana_pref":"ｱｲﾁｹﾝ","kana_city":"ﾅｺﾞﾔｼﾓﾘﾔﾏｸ","kana_address":"ﾅｶﾞﾓﾘﾁｮｳ","pref":"愛知県","city":"名古屋市守山区","address":"永森町"},
{"zip_code":"4630089","kana_pref":"ｱｲﾁｹﾝ","kana_city":"ﾅｺﾞﾔｼﾓﾘﾔﾏｸ","kana_address":"ﾆｼｶﾞﾜﾗﾁｮｳ","pref":"愛知県","city":"名古屋市守山区","address":"西川原町"},
{"zip_code":"4630084","kana_pref":"ｱｲﾁｹﾝ","kana_city":"ﾅｺﾞﾔｼﾓﾘﾔﾏｸ","kana_address":"ﾆｼｼﾛ","pref":"愛知県","city":"名古屋市守山区","address":"西城"},
{"zip_code":"4630055","kana_pref":"ｱｲﾁｹﾝ","kana_city":"ﾅｺﾞﾔｼﾓﾘﾔﾏｸ","kana_address":"ﾆｼｼﾝ","pref":"愛知県","city":"名古屋市守山区","address":"西新"},
{"zip_code":"4630015","kana_pref":"ｱｲﾁｹﾝ","kana_city":"ﾅｺﾞﾔｼﾓﾘﾔﾏｸ","kana_address":"ﾆｼｼﾞﾏﾁｮｳ","pref":"愛知県","city":"名古屋市守山区","address":"西島町"},
{"zip_code":"4630065","kana_pref":"ｱｲﾁｹﾝ","kana_city":"ﾅｺﾞﾔｼﾓﾘﾔﾏｸ","kana_address":"ﾆｼﾞｯｹﾝﾔ","pref":"愛知県","city":"名古屋市守山区","address":"廿軒家"},
{"zip_code":"4630032","kana_pref":"ｱｲﾁｹﾝ","kana_city":"ﾅｺﾞﾔｼﾓﾘﾔﾏｸ","kana_address":"ﾊｸｻﾝ","pref":"愛知県","city":"名古屋市守山区","address":"白山"},
{"zip_code":"4630063","kana_pref":"ｱｲﾁｹﾝ","kana_city":"ﾅｺﾞﾔｼﾓﾘﾔﾏｸ","kana_address":"ﾊｯﾀﾝ","pref":"愛知県","city":"名古屋市守山区","address":"八反"},
{"zip_code":"4630808","kana_pref":"ｱｲﾁｹﾝ","kana_city":"ﾅｺﾞﾔｼﾓﾘﾔﾏｸ","kana_address":"ﾊﾅｻｷﾀﾞｲ","pref":"愛知県","city":"名古屋市守山区","address":"花咲台"},
{"zip_code":"4630038","kana_pref":"ｱｲﾁｹﾝ","kana_city":"ﾅｺﾞﾔｼﾓﾘﾔﾏｸ","kana_address":"ﾊﾗｻﾞｶｲﾁｮｳ","pref":"愛知県","city":"名古屋市守山区","address":"原境町"},
{"zip_code":"4630061","kana_pref":"ｱｲﾁｹﾝ","kana_city":"ﾅｺﾞﾔｼﾓﾘﾔﾏｸ","kana_address":"ﾋｶﾞｼﾔﾏﾁｮｳ","pref":"愛知県","city":"名古屋市守山区","address":"東山町"},
{"zip_code":"4630045","kana_pref":"ｱｲﾁｹﾝ","kana_city":"ﾅｺﾞﾔｼﾓﾘﾔﾏｸ","kana_address":"ﾋｼｲｹﾁｮｳ","pref":"愛知県","city":"名古屋市守山区","address":"菱池町"},
{"zip_code":"4630803","kana_pref":"ｱｲﾁｹﾝ","kana_city":"ﾅｺﾞﾔｼﾓﾘﾔﾏｸ","kana_address":"ﾋﾉｺﾞ","pref":"愛知県","city":"名古屋市守山区","address":"日の後"},
{"zip_code":"4630809","kana_pref":"ｱｲﾁｹﾝ","kana_city":"ﾅｺﾞﾔｼﾓﾘﾔﾏｸ","kana_address":"ﾋﾗｲｹﾋｶﾞｼ","pref":"愛知県","city":"名古屋市守山区","address":"平池東"},
{"zip_code":"4630811","kana_pref":"ｱｲﾁｹﾝ","kana_city":"ﾅｺﾞﾔｼﾓﾘﾔﾏｸ","kana_address":"ﾌｶｻﾜ","pref":"愛知県","city":"名古屋市守山区","address":"深沢"},
{"zip_code":"4630027","kana_pref":"ｱｲﾁｹﾝ","kana_city":"ﾅｺﾞﾔｼﾓﾘﾔﾏｸ","kana_address":"ﾍﾞﾝﾃﾝｶﾞｵｶ","pref":"愛知県","city":"名古屋市守山区","address":"弁天が丘"},
{"zip_code":"4630031","kana_pref":"ｱｲﾁｹﾝ","kana_city":"ﾅｺﾞﾔｼﾓﾘﾔﾏｸ","kana_address":"ﾎﾝｼﾞｶﾞｵｶ","pref":"愛知県","city":"名古屋市守山区","address":"本地が丘"},
{"zip_code":"4630066","kana_pref":"ｱｲﾁｹﾝ","kana_city":"ﾅｺﾞﾔｼﾓﾘﾔﾏｸ","kana_address":"ﾏﾁﾐﾅﾐ","pref":"愛知県","city":"名古屋市守山区","address":"町南"},
{"zip_code":"4630074","kana_pref":"ｱｲﾁｹﾝ","kana_city":"ﾅｺﾞﾔｼﾓﾘﾔﾏｸ","kana_address":"ﾏﾁｷﾀ","pref":"愛知県","city":"名古屋市守山区","address":"町北"},
{"zip_code":"4630007","kana_pref":"ｱｲﾁｹﾝ","kana_city":"ﾅｺﾞﾔｼﾓﾘﾔﾏｸ","kana_address":"ﾏﾂｻｶﾁｮｳ","pref":"愛知県","city":"名古屋市守山区","address":"松坂町"},
{"zip_code":"4630009","kana_pref":"ｱｲﾁｹﾝ","kana_city":"ﾅｺﾞﾔｼﾓﾘﾔﾏｸ","kana_address":"ﾐﾄﾞﾘｶﾞｵｶ","pref":"愛知県","city":"名古屋市守山区","address":"緑ケ丘"},
{"zip_code":"4630036","kana_pref":"ｱｲﾁｹﾝ","kana_city":"ﾅｺﾞﾔｼﾓﾘﾔﾏｸ","kana_address":"ﾑｶｴﾀﾞｲ","pref":"愛知県","city":"名古屋市守山区","address":"向台"},
{"zip_code":"4630083","kana_pref":"ｱｲﾁｹﾝ","kana_city":"ﾅｺﾞﾔｼﾓﾘﾔﾏｸ","kana_address":"ﾑﾗｱｲﾁｮｳ","pref":"愛知県","city":"名古屋市守山区","address":"村合町"},
{"zip_code":"4630082","kana_pref":"ｱｲﾁｹﾝ","kana_city":"ﾅｺﾞﾔｼﾓﾘﾔﾏｸ","kana_address":"ﾑﾗﾏｴﾁｮｳ","pref":"愛知県","city":"名古屋市守山区","address":"村前町"},
{"zip_code":"4630025","kana_pref":"ｱｲﾁｹﾝ","kana_city":"ﾅｺﾞﾔｼﾓﾘﾔﾏｸ","kana_address":"ﾓﾄｺﾞｳ","pref":"愛知県","city":"名古屋市守山区","address":"元郷"},
{"zip_code":"4630035","kana_pref":"ｱｲﾁｹﾝ","kana_city":"ﾅｺﾞﾔｼﾓﾘﾔﾏｸ","kana_address":"ﾓﾘﾀｶ","pref":"愛知県","city":"名古屋市守山区","address":"森孝"},
{"zip_code":"4630033","kana_pref":"ｱｲﾁｹﾝ","kana_city":"ﾅｺﾞﾔｼﾓﾘﾔﾏｸ","kana_address":"ﾓﾘﾀｶﾋｶﾞｼ","pref":"愛知県","city":"名古屋市守山区","address":"森孝東"},
{"zip_code":"4630073","kana_pref":"ｱｲﾁｹﾝ","kana_city":"ﾅｺﾞﾔｼﾓﾘﾔﾏｸ","kana_address":"ﾓﾘﾏｷﾁｮｳ","pref":"愛知県","city":"名古屋市守山区","address":"守牧町"},
{"zip_code":"4630096","kana_pref":"ｱｲﾁｹﾝ","kana_city":"ﾅｺﾞﾔｼﾓﾘﾔﾏｸ","kana_address":"ﾓﾘﾐﾔﾁｮｳ","pref":"愛知県","city":"名古屋市守山区","address":"森宮町"},
{"zip_code":"4630067","kana_pref":"ｱｲﾁｹﾝ","kana_city":"ﾅｺﾞﾔｼﾓﾘﾔﾏｸ","kana_address":"ﾓﾘﾔﾏ","pref":"愛知県","city":"名古屋市守山区","address":"守山"},
{"zip_code":"4630077","kana_pref":"ｱｲﾁｹﾝ","kana_city":"ﾅｺﾞﾔｼﾓﾘﾔﾏｸ","kana_address":"ﾓﾘﾔﾏ","pref":"愛知県","city":"名古屋市守山区","address":"守山"},
{"zip_code":"4630022","kana_pref":"ｱｲﾁｹﾝ","kana_city":"ﾅｺﾞﾔｼﾓﾘﾔﾏｸ","kana_address":"ﾔﾂﾙｷﾞ","pref":"愛知県","city":"名古屋市守山区","address":"八剣"},
{"zip_code":"4630042","kana_pref":"ｱｲﾁｹﾝ","kana_city":"ﾅｺﾞﾔｼﾓﾘﾔﾏｸ","kana_address":"ﾔﾊｷﾞﾁｮｳ","pref":"愛知県","city":"名古屋市守山区","address":"野萩町"},
{"zip_code":"4630026","kana_pref":"ｱｲﾁｹﾝ","kana_city":"ﾅｺﾞﾔｼﾓﾘﾔﾏｸ","kana_address":"ﾔﾌﾞﾀﾁｮｳ","pref":"愛知県","city":"名古屋市守山区","address":"藪田町"},
{"zip_code":"4630806","kana_pref":"ｱｲﾁｹﾝ","kana_city":"ﾅｺﾞﾔｼﾓﾘﾔﾏｸ","kana_address":"ﾕﾘｶﾞｵｶ","pref":"愛知県","city":"名古屋市守山区","address":"百合が丘"},
{"zip_code":"4630801","kana_pref":"ｱｲﾁｹﾝ","kana_city":"ﾅｺﾞﾔｼﾓﾘﾔﾏｸ","kana_address":"ﾘｭｳｾﾝｼﾞ","pref":"愛知県","city":"名古屋市守山区","address":"竜泉寺"},
{"zip_code":"4630024","kana_pref":"ｱｲﾁｹﾝ","kana_city":"ﾅｺﾞﾔｼﾓﾘﾔﾏｸ","kana_address":"ﾜｷﾀﾁｮｳ","pref":"愛知県","city":"名古屋市守山区","address":"脇田町"}]}