{"zip_code":[
{"zip_code":"4640000","kana_pref":"ｱｲﾁｹﾝ","kana_city":"ﾅｺﾞﾔｼﾁｸｻｸ","kana_address":"","pref":"愛知県","city":"名古屋市千種区","address":""},
{"zip_code":"4640852","kana_pref":"ｱｲﾁｹﾝ","kana_city":"ﾅｺﾞﾔｼﾁｸｻｸ","kana_address":"ｱｵﾔｷﾞﾁｮｳ","pref":"愛知県","city":"名古屋市千種区","address":"青柳町"},
{"zip_code":"4640094","kana_pref":"ｱｲﾁｹﾝ","kana_city":"ﾅｺﾞﾔｼﾁｸｻｸ","kana_address":"ｱｶｻｶﾁｮｳ","pref":"愛知県","city":"名古屋市千種区","address":"赤坂町"},
{"zip_code":"4640019","kana_pref":"ｱｲﾁｹﾝ","kana_city":"ﾅｺﾞﾔｼﾁｸｻｸ","kana_address":"ｱｹﾞﾊﾁｮｳ","pref":"愛知県","city":"名古屋市千種区","address":"揚羽町"},
{"zip_code":"4640811","kana_pref":"ｱｲﾁｹﾝ","kana_city":"ﾅｺﾞﾔｼﾁｸｻｸ","kana_address":"ｱｻｵｶﾁｮｳ","pref":"愛知県","city":"名古屋市千種区","address":"朝岡町"},
{"zip_code":"4640029","kana_pref":"ｱｲﾁｹﾝ","kana_city":"ﾅｺﾞﾔｼﾁｸｻｸ","kana_address":"ｲｹｶﾞﾐﾁｮｳ","pref":"愛知県","city":"名古屋市千種区","address":"池上町"},
{"zip_code":"4640067","kana_pref":"ｱｲﾁｹﾝ","kana_city":"ﾅｺﾞﾔｼﾁｸｻｸ","kana_address":"ｲｹｼﾀ","pref":"愛知県","city":"名古屋市千種区","address":"池下"},
{"zip_code":"4640066","kana_pref":"ｱｲﾁｹﾝ","kana_city":"ﾅｺﾞﾔｼﾁｸｻｸ","kana_address":"ｲｹｼﾀﾁｮｳ","pref":"愛知県","city":"名古屋市千種区","address":"池下町"},
{"zip_code":"4640818","kana_pref":"ｱｲﾁｹﾝ","kana_city":"ﾅｺﾞﾔｼﾁｸｻｸ","kana_address":"ｲｹｿﾉﾁｮｳ","pref":"愛知県","city":"名古屋市千種区","address":"池園町"},
{"zip_code":"4640012","kana_pref":"ｱｲﾁｹﾝ","kana_city":"ﾅｺﾞﾔｼﾁｸｻｸ","kana_address":"ｲﾀｶﾁｮｳｲﾉｺｲｼｼｼﾐﾁ","pref":"愛知県","city":"名古屋市千種区","address":"猪高町猪子石猪々道"},
{"zip_code":"4640824","kana_pref":"ｱｲﾁｹﾝ","kana_city":"ﾅｺﾞﾔｼﾁｸｻｸ","kana_address":"ｲﾅﾌﾈﾄｵﾘ","pref":"愛知県","city":"名古屋市千種区","address":"稲舟通"},
{"zip_code":"4640026","kana_pref":"ｱｲﾁｹﾝ","kana_city":"ﾅｺﾞﾔｼﾁｸｻｸ","kana_address":"ｲﾉｳｴﾁｮｳ","pref":"愛知県","city":"名古屋市千種区","address":"井上町"},
{"zip_code":"4640850","kana_pref":"ｱｲﾁｹﾝ","kana_city":"ﾅｺﾞﾔｼﾁｸｻｸ","kana_address":"ｲﾏｲｹ","pref":"愛知県","city":"名古屋市千種区","address":"今池"},
{"zip_code":"4640851","kana_pref":"ｱｲﾁｹﾝ","kana_city":"ﾅｺﾞﾔｼﾁｸｻｸ","kana_address":"ｲﾏｲｹﾐﾅﾐ","pref":"愛知県","city":"名古屋市千種区","address":"今池南"},
{"zip_code":"4640082","kana_pref":"ｱｲﾁｹﾝ","kana_city":"ﾅｺﾞﾔｼﾁｸｻｸ","kana_address":"ｳｴﾉ","pref":"愛知県","city":"名古屋市千種区","address":"上野"},
{"zip_code":"4640075","kana_pref":"ｱｲﾁｹﾝ","kana_city":"ﾅｺﾞﾔｼﾁｸｻｸ","kana_address":"ｳﾁﾔﾏ","pref":"愛知県","city":"名古屋市千種区","address":"内山"},
{"zip_code":"4640854","kana_pref":"ｱｲﾁｹﾝ","kana_city":"ﾅｺﾞﾔｼﾁｸｻｸ","kana_address":"ｵｵｸﾃﾁｮｳ","pref":"愛知県","city":"名古屋市千種区","address":"大久手町"},
{"zip_code":"4640833","kana_pref":"ｱｲﾁｹﾝ","kana_city":"ﾅｺﾞﾔｼﾁｸｻｸ","kana_address":"ｵｵｼﾏﾁｮｳ","pref":"愛知県","city":"名古屋市千種区","address":"大島町"},
{"zip_code":"4640837","kana_pref":"ｱｲﾁｹﾝ","kana_city":"ﾅｺﾞﾔｼﾁｸｻｸ","kana_address":"ｵｶｳｴﾁｮｳ","pref":"愛知県","city":"名古屋市千種区","address":"丘上町"},
{"zip_code":"4640835","kana_pref":"ｱｲﾁｹﾝ","kana_city":"ﾅｺﾞﾔｼﾁｸｻｸ","kana_address":"ｵﾀﾅﾁｮｳ","pref":"愛知県","city":"名古屋市千種区","address":"御棚町"},
{"zip_code":"4640816","kana_pref":"ｱｲﾁｹﾝ","kana_city":"ﾅｺﾞﾔｼﾁｸｻｸ","kana_address":"ｶｶﾞﾐｲｹﾄｵﾘ","pref":"愛知県","city":"名古屋市千種区","address":"鏡池通"},
{"zip_code":"4640841","kana_pref":"ｱｲﾁｹﾝ","kana_city":"ﾅｺﾞﾔｼﾁｸｻｸ","kana_address":"ｶｸｵｳｻﾞﾝﾄｵﾘ","pref":"愛知県","city":"名古屋市千種区","address":"覚王山通"},
{"zip_code":"4640041","kana_pref":"ｱｲﾁｹﾝ","kana_city":"ﾅｺﾞﾔｼﾁｸｻｸ","kana_address":"ｶｽﾐｶﾞｵｶ","pref":"愛知県","city":"名古屋市千種区","address":"霞ケ丘"},
{"zip_code":"4640002","kana_pref":"ｱｲﾁｹﾝ","kana_city":"ﾅｺﾞﾔｼﾁｸｻｸ","kana_address":"ｶﾅﾚﾊﾞｼ","pref":"愛知県","city":"名古屋市千種区","address":"香流橋"},
{"zip_code":"4640033","kana_pref":"ｱｲﾁｹﾝ","kana_city":"ﾅｺﾞﾔｼﾁｸｻｸ","kana_address":"ｶﾉｺﾁｮｳ","pref":"愛知県","city":"名古屋市千種区","address":"鹿子町"},
{"zip_code":"4640021","kana_pref":"ｱｲﾁｹﾝ","kana_city":"ﾅｺﾞﾔｼﾁｸｻｸ","kana_address":"ｶﾉｺﾃﾞﾝ","pref":"愛知県","city":"名古屋市千種区","address":"鹿子殿"},
{"zip_code":"4640086","kana_pref":"ｱｲﾁｹﾝ","kana_city":"ﾅｺﾞﾔｼﾁｸｻｸ","kana_address":"ｶﾔﾊﾞ","pref":"愛知県","city":"名古屋市千種区","address":"萱場"},
{"zip_code":"4640806","kana_pref":"ｱｲﾁｹﾝ","kana_city":"ﾅｺﾞﾔｼﾁｸｻｸ","kana_address":"ｶﾗﾔﾏﾁｮｳ","pref":"愛知県","city":"名古屋市千種区","address":"唐山町"},
{"zip_code":"4640826","kana_pref":"ｱｲﾁｹﾝ","kana_city":"ﾅｺﾞﾔｼﾁｸｻｸ","kana_address":"ｶﾜｻｷﾁｮｳ","pref":"愛知県","city":"名古屋市千種区","address":"川崎町"},
{"zip_code":"4640831","kana_pref":"ｱｲﾁｹﾝ","kana_city":"ﾅｺﾞﾔｼﾁｸｻｸ","kana_address":"ｶﾝｹﾞﾂﾁｮｳ","pref":"愛知県","city":"名古屋市千種区","address":"観月町"},
{"zip_code":"4640077","kana_pref":"ｱｲﾁｹﾝ","kana_city":"ﾅｺﾞﾔｼﾁｸｻｸ","kana_address":"ｶﾝﾀﾞﾁｮｳ","pref":"愛知県","city":"名古屋市千種区","address":"神田町"},
{"zip_code":"4640836","kana_pref":"ｱｲﾁｹﾝ","kana_city":"ﾅｺﾞﾔｼﾁｸｻｸ","kana_address":"ｷｸｻﾞｶﾁｮｳ","pref":"愛知県","city":"名古屋市千種区","address":"菊坂町"},
{"zip_code":"4640083","kana_pref":"ｱｲﾁｹﾝ","kana_city":"ﾅｺﾞﾔｼﾁｸｻｸ","kana_address":"ｷﾀﾁｸｻ","pref":"愛知県","city":"名古屋市千種区","address":"北千種"},
{"zip_code":"4640016","kana_pref":"ｱｲﾁｹﾝ","kana_city":"ﾅｺﾞﾔｼﾁｸｻｸ","kana_address":"ｷﾎﾞｳｶﾞｵｶ","pref":"愛知県","city":"名古屋市千種区","address":"希望ケ丘"},
{"zip_code":"4640004","kana_pref":"ｱｲﾁｹﾝ","kana_city":"ﾅｺﾞﾔｼﾁｸｻｸ","kana_address":"ｷｮｳﾒｲ","pref":"愛知県","city":"名古屋市千種区","address":"京命"},
{"zip_code":"4640034","kana_pref":"ｱｲﾁｹﾝ","kana_city":"ﾅｺﾞﾔｼﾁｸｻｸ","kana_address":"ｷﾖｽﾞﾐﾁｮｳ","pref":"愛知県","city":"名古屋市千種区","address":"清住町"},
{"zip_code":"4640842","kana_pref":"ｱｲﾁｹﾝ","kana_city":"ﾅｺﾞﾔｼﾁｸｻｸ","kana_address":"ｷﾘﾊﾞﾔｼﾁｮｳ","pref":"愛知県","city":"名古屋市千種区","address":"桐林町"},
{"zip_code":"4640037","kana_pref":"ｱｲﾁｹﾝ","kana_city":"ﾅｺﾞﾔｼﾁｸｻｸ","kana_address":"ｸｽﾓﾄﾁｮｳ","pref":"愛知県","city":"名古屋市千種区","address":"楠元町"},
{"zip_code":"4640815","kana_pref":"ｱｲﾁｹﾝ","kana_city":"ﾅｺﾞﾔｼﾁｸｻｸ","kana_address":"ｺｳｶﾞﾜﾁｮｳ","pref":"愛知県","city":"名古屋市千種区","address":"幸川町"},
{"zip_code":"4640061","kana_pref":"ｱｲﾁｹﾝ","kana_city":"ﾅｺﾞﾔｼﾁｸｻｸ","kana_address":"ｺｳﾖｳ","pref":"愛知県","city":"名古屋市千種区","address":"向陽"},
{"zip_code":"4640062","kana_pref":"ｱｲﾁｹﾝ","kana_city":"ﾅｺﾞﾔｼﾁｸｻｸ","kana_address":"ｺｳﾖｳﾁｮｳ","pref":"愛知県","city":"名古屋市千種区","address":"向陽町"},
{"zip_code":"4640085","kana_pref":"ｱｲﾁｹﾝ","kana_city":"ﾅｺﾞﾔｼﾁｸｻｸ","kana_address":"ｺﾃﾞｷ","pref":"愛知県","city":"名古屋市千種区","address":"古出来"},
{"zip_code":"4640853","kana_pref":"ｱｲﾁｹﾝ","kana_city":"ﾅｺﾞﾔｼﾁｸｻｸ","kana_address":"ｺﾏﾂﾁｮｳ","pref":"愛知県","city":"名古屋市千種区","address":"小松町"},
{"zip_code":"4640025","kana_pref":"ｱｲﾁｹﾝ","kana_city":"ﾅｺﾞﾔｼﾁｸｻｸ","kana_address":"ｻｸﾗｶﾞｵｶ","pref":"愛知県","city":"名古屋市千種区","address":"桜が丘"},
{"zip_code":"4640064","kana_pref":"ｱｲﾁｹﾝ","kana_city":"ﾅｺﾞﾔｼﾁｸｻｸ","kana_address":"ｻﾝﾓﾝﾁｮｳ","pref":"愛知県","city":"名古屋市千種区","address":"山門町"},
{"zip_code":"4640096","kana_pref":"ｱｲﾁｹﾝ","kana_city":"ﾅｺﾞﾔｼﾁｸｻｸ","kana_address":"ｼﾓｶﾀﾁｮｳ","pref":"愛知県","city":"名古屋市千種区","address":"下方町"},
{"zip_code":"4640044","kana_pref":"ｱｲﾁｹﾝ","kana_city":"ﾅｺﾞﾔｼﾁｸｻｸ","kana_address":"ｼﾞﾕｳｶﾞｵｶ","pref":"愛知県","city":"名古屋市千種区","address":"自由ケ丘"},
{"zip_code":"4640084","kana_pref":"ｱｲﾁｹﾝ","kana_city":"ﾅｺﾞﾔｼﾁｸｻｸ","kana_address":"ｼｮｳｹﾝ","pref":"愛知県","city":"名古屋市千種区","address":"松軒"},
{"zip_code":"4640823","kana_pref":"ｱｲﾁｹﾝ","kana_city":"ﾅｺﾞﾔｼﾁｸｻｸ","kana_address":"ｼｮｳﾁｸﾁｮｳ","pref":"愛知県","city":"名古屋市千種区","address":"松竹町"},
{"zip_code":"4640013","kana_pref":"ｱｲﾁｹﾝ","kana_city":"ﾅｺﾞﾔｼﾁｸｻｸ","kana_address":"ｼﾙﾀﾆﾁｮｳ","pref":"愛知県","city":"名古屋市千種区","address":"汁谷町"},
{"zip_code":"4640046","kana_pref":"ｱｲﾁｹﾝ","kana_city":"ﾅｺﾞﾔｼﾁｸｻｸ","kana_address":"ｼﾛﾔﾏｼﾝﾏﾁ","pref":"愛知県","city":"名古屋市千種区","address":"城山新町"},
{"zip_code":"4640846","kana_pref":"ｱｲﾁｹﾝ","kana_city":"ﾅｺﾞﾔｼﾁｸｻｸ","kana_address":"ｼﾛｷﾁｮｳ","pref":"愛知県","city":"名古屋市千種区","address":"城木町"},
{"zip_code":"4640045","kana_pref":"ｱｲﾁｹﾝ","kana_city":"ﾅｺﾞﾔｼﾁｸｻｸ","kana_address":"ｼﾛﾔﾏﾁｮｳ","pref":"愛知県","city":"名古屋市千種区","address":"城山町"},
{"zip_code":"4640027","kana_pref":"ｱｲﾁｹﾝ","kana_city":"ﾅｺﾞﾔｼﾁｸｻｸ","kana_address":"ｼﾝｲｹﾁｮｳ","pref":"愛知県","city":"名古屋市千種区","address":"新池町"},
{"zip_code":"4640859","kana_pref":"ｱｲﾁｹﾝ","kana_city":"ﾅｺﾞﾔｼﾁｸｻｸ","kana_address":"ｼﾝｻｶｴ","pref":"愛知県","city":"名古屋市千種区","address":"新栄"},
{"zip_code":"4640072","kana_pref":"ｱｲﾁｹﾝ","kana_city":"ﾅｺﾞﾔｼﾁｸｻｸ","kana_address":"ｼﾝﾎﾟﾁｮｳ","pref":"愛知県","city":"名古屋市千種区","address":"振甫町"},
{"zip_code":"4640003","kana_pref":"ｱｲﾁｹﾝ","kana_city":"ﾅｺﾞﾔｼﾁｸｻｸ","kana_address":"ｼﾝﾆｼ","pref":"愛知県","city":"名古屋市千種区","address":"新西"},
{"zip_code":"4640821","kana_pref":"ｱｲﾁｹﾝ","kana_city":"ﾅｺﾞﾔｼﾁｸｻｸ","kana_address":"ｽｴﾓﾘﾄｵﾘ","pref":"愛知県","city":"名古屋市千種区","address":"末盛通"},
{"zip_code":"4640087","kana_pref":"ｱｲﾁｹﾝ","kana_city":"ﾅｺﾞﾔｼﾁｸｻｸ","kana_address":"ｾｲﾒｲﾔﾏ","pref":"愛知県","city":"名古屋市千種区","address":"清明山"},
{"zip_code":"4640812","kana_pref":"ｱｲﾁｹﾝ","kana_city":"ﾅｺﾞﾔｼﾁｸｻｸ","kana_address":"ｿﾉﾔﾏﾁｮｳ","pref":"愛知県","city":"名古屋市千種区","address":"園山町"},
{"zip_code":"4640073","kana_pref":"ｱｲﾁｹﾝ","kana_city":"ﾅｺﾞﾔｼﾁｸｻｸ","kana_address":"ﾀｶﾐ","pref":"愛知県","city":"名古屋市千種区","address":"高見"},
{"zip_code":"4640007","kana_pref":"ｱｲﾁｹﾝ","kana_city":"ﾅｺﾞﾔｼﾁｸｻｸ","kana_address":"ﾀｹｺｼ","pref":"愛知県","city":"名古屋市千種区","address":"竹越"},
{"zip_code":"4640053","kana_pref":"ｱｲﾁｹﾝ","kana_city":"ﾅｺﾞﾔｼﾁｸｻｸ","kana_address":"ﾀｼﾛﾁｮｳ","pref":"愛知県","city":"名古屋市千種区","address":"田代町"},
{"zip_code":"4640023","kana_pref":"ｱｲﾁｹﾝ","kana_city":"ﾅｺﾞﾔｼﾁｸｻｸ","kana_address":"ﾀｼﾛﾁｮｳ","pref":"愛知県","city":"名古屋市千種区","address":"田代町"},
{"zip_code":"4640803","kana_pref":"ｱｲﾁｹﾝ","kana_city":"ﾅｺﾞﾔｼﾁｸｻｸ","kana_address":"ﾀｼﾛﾁｮｳ","pref":"愛知県","city":"名古屋市千種区","address":"田代町"},
{"zip_code":"4640051","kana_pref":"ｱｲﾁｹﾝ","kana_city":"ﾅｺﾞﾔｼﾁｸｻｸ","kana_address":"ﾀｼﾛﾁｮｳ","pref":"愛知県","city":"名古屋市千種区","address":"田代町"},
{"zip_code":"4640052","kana_pref":"ｱｲﾁｹﾝ","kana_city":"ﾅｺﾞﾔｼﾁｸｻｸ","kana_address":"ﾀｼﾛﾁｮｳ","pref":"愛知県","city":"名古屋市千種区","address":"田代町"},
{"zip_code":"4640054","kana_pref":"ｱｲﾁｹﾝ","kana_city":"ﾅｺﾞﾔｼﾁｸｻｸ","kana_address":"ﾀｼﾛﾁｮｳ","pref":"愛知県","city":"名古屋市千種区","address":"田代町"},
{"zip_code":"4640827","kana_pref":"ｱｲﾁｹﾝ","kana_city":"ﾅｺﾞﾔｼﾁｸｻｸ","kana_address":"ﾀｼﾛﾎﾝﾄｵﾘ","pref":"愛知県","city":"名古屋市千種区","address":"田代本通"},
{"zip_code":"4640081","kana_pref":"ｱｲﾁｹﾝ","kana_city":"ﾅｺﾞﾔｼﾁｸｻｸ","kana_address":"ﾀﾆｸﾞﾁﾁｮｳ","pref":"愛知県","city":"名古屋市千種区","address":"谷口町"},
{"zip_code":"4640858","kana_pref":"ｱｲﾁｹﾝ","kana_city":"ﾅｺﾞﾔｼﾁｸｻｸ","kana_address":"ﾁｸｻ","pref":"愛知県","city":"名古屋市千種区","address":"千種"},
{"zip_code":"4640855","kana_pref":"ｱｲﾁｹﾝ","kana_city":"ﾅｺﾞﾔｼﾁｸｻｸ","kana_address":"ﾁｸｻﾄｵﾘ","pref":"愛知県","city":"名古屋市千種区","address":"千種通"},
{"zip_code":"4640092","kana_pref":"ｱｲﾁｹﾝ","kana_city":"ﾅｺﾞﾔｼﾁｸｻｸ","kana_address":"ﾁｬﾔｶﾞｻｶ","pref":"愛知県","city":"名古屋市千種区","address":"茶屋が坂"},
{"zip_code":"4640093","kana_pref":"ｱｲﾁｹﾝ","kana_city":"ﾅｺﾞﾔｼﾁｸｻｸ","kana_address":"ﾁｬﾔｻｶﾄｵﾘ","pref":"愛知県","city":"名古屋市千種区","address":"茶屋坂通"},
{"zip_code":"4640005","kana_pref":"ｱｲﾁｹﾝ","kana_city":"ﾅｺﾞﾔｼﾁｸｻｸ","kana_address":"ﾁﾖｶﾞｵｶ","pref":"愛知県","city":"名古屋市千種区","address":"千代が丘"},
{"zip_code":"4640011","kana_pref":"ｱｲﾁｹﾝ","kana_city":"ﾅｺﾞﾔｼﾁｸｻｸ","kana_address":"ﾁﾖﾀﾞﾊﾞｼ","pref":"愛知県","city":"名古屋市千種区","address":"千代田橋"},
{"zip_code":"4640043","kana_pref":"ｱｲﾁｹﾝ","kana_city":"ﾅｺﾞﾔｼﾁｸｻｸ","kana_address":"ﾂｷｶﾞｵｶ","pref":"愛知県","city":"名古屋市千種区","address":"月ケ丘"},
{"zip_code":"4640056","kana_pref":"ｱｲﾁｹﾝ","kana_city":"ﾅｺﾞﾔｼﾁｸｻｸ","kana_address":"ﾂｷﾐｻﾞｶﾁｮｳ","pref":"愛知県","city":"名古屋市千種区","address":"月見坂町"},
{"zip_code":"4640871","kana_pref":"ｱｲﾁｹﾝ","kana_city":"ﾅｺﾞﾔｼﾁｸｻｸ","kana_address":"ﾃﾝﾊﾟｸﾁｮｳｳｴﾀﾞ","pref":"愛知県","city":"名古屋市千種区","address":"天白町植田"},
{"zip_code":"4640095","kana_pref":"ｱｲﾁｹﾝ","kana_city":"ﾅｺﾞﾔｼﾁｸｻｸ","kana_address":"ﾃﾝﾏﾄﾞｵﾘ","pref":"愛知県","city":"名古屋市千種区","address":"天満通"},
{"zip_code":"4640028","kana_pref":"ｱｲﾁｹﾝ","kana_city":"ﾅｺﾞﾔｼﾁｸｻｸ","kana_address":"ﾄｳﾒｲﾁｮｳ","pref":"愛知県","city":"名古屋市千種区","address":"東明町"},
{"zip_code":"4640031","kana_pref":"ｱｲﾁｹﾝ","kana_city":"ﾅｺﾞﾔｼﾁｸｻｸ","kana_address":"ﾄｸｶﾞﾜﾔﾏﾁｮｳ","pref":"愛知県","city":"名古屋市千種区","address":"徳川山町"},
{"zip_code":"4640074","kana_pref":"ｱｲﾁｹﾝ","kana_city":"ﾅｺﾞﾔｼﾁｸｻｸ","kana_address":"ﾅｶﾀ","pref":"愛知県","city":"名古屋市千種区","address":"仲田"},
{"zip_code":"4640017","kana_pref":"ｱｲﾁｹﾝ","kana_city":"ﾅｺﾞﾔｼﾁｸｻｸ","kana_address":"ﾅﾍﾞﾔｳｴﾉﾁｮｳ","pref":"愛知県","city":"名古屋市千種区","address":"鍋屋上野町"},
{"zip_code":"4640097","kana_pref":"ｱｲﾁｹﾝ","kana_city":"ﾅｺﾞﾔｼﾁｸｻｸ","kana_address":"ﾅﾍﾞﾔｳｴﾉﾁｮｳ","pref":"愛知県","city":"名古屋市千種区","address":"鍋屋上野町"},
{"zip_code":"4640018","kana_pref":"ｱｲﾁｹﾝ","kana_city":"ﾅｺﾞﾔｼﾁｸｻｸ","kana_address":"ﾅﾍﾞﾔｳｴﾉﾁｮｳ","pref":"愛知県","city":"名古屋市千種区","address":"鍋屋上野町"},
{"zip_code":"4640845","kana_pref":"ｱｲﾁｹﾝ","kana_city":"ﾅｺﾞﾔｼﾁｸｻｸ","kana_address":"ﾅﾝﾒｲﾁｮｳ","pref":"愛知県","city":"名古屋市千種区","address":"南明町"},
{"zip_code":"4640813","kana_pref":"ｱｲﾁｹﾝ","kana_city":"ﾅｺﾞﾔｼﾁｸｻｸ","kana_address":"ﾆｻﾞﾁｮｳ","pref":"愛知県","city":"名古屋市千種区","address":"仁座町"},
{"zip_code":"4640825","kana_pref":"ｱｲﾁｹﾝ","kana_city":"ﾅｺﾞﾔｼﾁｸｻｸ","kana_address":"ﾆｼｻｷﾁｮｳ","pref":"愛知県","city":"名古屋市千種区","address":"西崎町"},
{"zip_code":"4640063","kana_pref":"ｱｲﾁｹﾝ","kana_city":"ﾅｺﾞﾔｼﾁｸｻｸ","kana_address":"ﾆｼﾔﾏﾓﾄﾏﾁ","pref":"愛知県","city":"名古屋市千種区","address":"西山元町"},
{"zip_code":"4640844","kana_pref":"ｱｲﾁｹﾝ","kana_city":"ﾅｺﾞﾔｼﾁｸｻｸ","kana_address":"ﾆｯｼﾝﾄｵﾘ","pref":"愛知県","city":"名古屋市千種区","address":"日進通"},
{"zip_code":"4640032","kana_pref":"ｱｲﾁｹﾝ","kana_city":"ﾅｺﾞﾔｼﾁｸｻｸ","kana_address":"ﾈｺｶﾞﾎﾗﾄｵﾘ","pref":"愛知県","city":"名古屋市千種区","address":"猫洞通"},
{"zip_code":"4640805","kana_pref":"ｱｲﾁｹﾝ","kana_city":"ﾅｺﾞﾔｼﾁｸｻｸ","kana_address":"ﾊｷﾞｵｶﾁｮｳ","pref":"愛知県","city":"名古屋市千種区","address":"萩岡町"},
{"zip_code":"4640035","kana_pref":"ｱｲﾁｹﾝ","kana_city":"ﾅｺﾞﾔｼﾁｸｻｸ","kana_address":"ﾊｼﾓﾄﾁｮｳ","pref":"愛知県","city":"名古屋市千種区","address":"橋本町"},
{"zip_code":"4640857","kana_pref":"ｱｲﾁｹﾝ","kana_city":"ﾅｺﾞﾔｼﾁｸｻｸ","kana_address":"ﾊﾅﾀﾞﾁｮｳ","pref":"愛知県","city":"名古屋市千種区","address":"花田町"},
{"zip_code":"4640848","kana_pref":"ｱｲﾁｹﾝ","kana_city":"ﾅｺﾞﾔｼﾁｸｻｸ","kana_address":"ﾊﾙｵｶ","pref":"愛知県","city":"名古屋市千種区","address":"春岡"},
{"zip_code":"4640847","kana_pref":"ｱｲﾁｹﾝ","kana_city":"ﾅｺﾞﾔｼﾁｸｻｸ","kana_address":"ﾊﾙｵｶﾄｵﾘ","pref":"愛知県","city":"名古屋市千種区","address":"春岡通"},
{"zip_code":"4640038","kana_pref":"ｱｲﾁｹﾝ","kana_city":"ﾅｺﾞﾔｼﾁｸｻｸ","kana_address":"ﾊﾙｻﾄﾁｮｳ","pref":"愛知県","city":"名古屋市千種区","address":"春里町"},
{"zip_code":"4640006","kana_pref":"ｱｲﾁｹﾝ","kana_city":"ﾅｺﾞﾔｼﾁｸｻｸ","kana_address":"ﾋｶﾘｶﾞｵｶ","pref":"愛知県","city":"名古屋市千種区","address":"光が丘"},
{"zip_code":"4640001","kana_pref":"ｱｲﾁｹﾝ","kana_city":"ﾅｺﾞﾔｼﾁｸｻｸ","kana_address":"ﾋｶﾞｼﾁｸｻﾀﾞｲ","pref":"愛知県","city":"名古屋市千種区","address":"東千種台"},
{"zip_code":"4640807","kana_pref":"ｱｲﾁｹﾝ","kana_city":"ﾅｺﾞﾔｼﾁｸｻｸ","kana_address":"ﾋｶﾞｼﾔﾏﾄｵﾘ","pref":"愛知県","city":"名古屋市千種区","address":"東山通"},
{"zip_code":"4640804","kana_pref":"ｱｲﾁｹﾝ","kana_city":"ﾅｺﾞﾔｼﾁｸｻｸ","kana_address":"ﾋｶﾞｼﾔﾏﾓﾄﾏﾁ","pref":"愛知県","city":"名古屋市千種区","address":"東山元町"},
{"zip_code":"4640834","kana_pref":"ｱｲﾁｹﾝ","kana_city":"ﾅｺﾞﾔｼﾁｸｻｸ","kana_address":"ﾋﾉｵｶﾁｮｳ","pref":"愛知県","city":"名古屋市千種区","address":"日岡町"},
{"zip_code":"4640055","kana_pref":"ｱｲﾁｹﾝ","kana_city":"ﾅｺﾞﾔｼﾁｸｻｸ","kana_address":"ﾋﾒｲｹﾄﾞｵﾘ","pref":"愛知県","city":"名古屋市千種区","address":"姫池通"},
{"zip_code":"4640039","kana_pref":"ｱｲﾁｹﾝ","kana_city":"ﾅｺﾞﾔｼﾁｸｻｸ","kana_address":"ﾋﾖﾘﾁｮｳ","pref":"愛知県","city":"名古屋市千種区","address":"日和町"},
{"zip_code":"4640856","kana_pref":"ｱｲﾁｹﾝ","kana_city":"ﾅｺﾞﾔｼﾁｸｻｸ","kana_address":"ﾌｷｱｹﾞ","pref":"愛知県","city":"名古屋市千種区","address":"吹上"},
{"zip_code":"4640015","kana_pref":"ｱｲﾁｹﾝ","kana_city":"ﾅｺﾞﾔｼﾁｸｻｸ","kana_address":"ﾌｼﾞﾐﾀﾞｲ","pref":"愛知県","city":"名古屋市千種区","address":"富士見台"},
{"zip_code":"4640814","kana_pref":"ｱｲﾁｹﾝ","kana_city":"ﾅｺﾞﾔｼﾁｸｻｸ","kana_address":"ﾌﾛｳﾁｮｳ","pref":"愛知県","city":"名古屋市千種区","address":"不老町"},
{"zip_code":"4640024","kana_pref":"ｱｲﾁｹﾝ","kana_city":"ﾅｺﾞﾔｼﾁｸｻｸ","kana_address":"ﾍｲﾜｶﾞｵｶ","pref":"愛知県","city":"名古屋市千種区","address":"平和が丘"},
{"zip_code":"4640022","kana_pref":"ｱｲﾁｹﾝ","kana_city":"ﾅｺﾞﾔｼﾁｸｻｸ","kana_address":"ﾍｲﾜｺｳｴﾝ","pref":"愛知県","city":"名古屋市千種区","address":"平和公園"},
{"zip_code":"4640057","kana_pref":"ｱｲﾁｹﾝ","kana_city":"ﾅｺﾞﾔｼﾁｸｻｸ","kana_address":"ﾎｳｵｳﾁｮｳ","pref":"愛知県","city":"名古屋市千種区","address":"法王町"},
{"zip_code":"4640076","kana_pref":"ｱｲﾁｹﾝ","kana_city":"ﾅｺﾞﾔｼﾁｸｻｸ","kana_address":"ﾎｳﾈﾝﾁｮｳ","pref":"愛知県","city":"名古屋市千種区","address":"豊年町"},
{"zip_code":"4640801","kana_pref":"ｱｲﾁｹﾝ","kana_city":"ﾅｺﾞﾔｼﾁｸｻｸ","kana_address":"ﾎｼｶﾞｵｶ","pref":"愛知県","city":"名古屋市千種区","address":"星ケ丘"},
{"zip_code":"4640802","kana_pref":"ｱｲﾁｹﾝ","kana_city":"ﾅｺﾞﾔｼﾁｸｻｸ","kana_address":"ﾎｼｶﾞｵｶﾓﾄﾏﾁ","pref":"愛知県","city":"名古屋市千種区","address":"星が丘元町"},
{"zip_code":"4640808","kana_pref":"ｱｲﾁｹﾝ","kana_city":"ﾅｺﾞﾔｼﾁｸｻｸ","kana_address":"ﾎｼｶﾞｵｶﾔﾏﾃ","pref":"愛知県","city":"名古屋市千種区","address":"星が丘山手"},
{"zip_code":"4640822","kana_pref":"ｱｲﾁｹﾝ","kana_city":"ﾅｺﾞﾔｼﾁｸｻｸ","kana_address":"ﾎﾅﾐﾁｮｳ","pref":"愛知県","city":"名古屋市千種区","address":"穂波町"},
{"zip_code":"4640065","kana_pref":"ｱｲﾁｹﾝ","kana_city":"ﾅｺﾞﾔｼﾁｸｻｸ","kana_address":"ﾎﾘﾜﾘﾁｮｳ","pref":"愛知県","city":"名古屋市千種区","address":"堀割町"},
{"zip_code":"4640036","kana_pref":"ｱｲﾁｹﾝ","kana_city":"ﾅｺﾞﾔｼﾁｸｻｸ","kana_address":"ﾎﾝﾔﾏﾁｮｳ","pref":"愛知県","city":"名古屋市千種区","address":"本山町"},
{"zip_code":"4640843","kana_pref":"ｱｲﾁｹﾝ","kana_city":"ﾅｺﾞﾔｼﾁｸｻｸ","kana_address":"ﾏﾙﾔﾏﾁｮｳ","pref":"愛知県","city":"名古屋市千種区","address":"丸山町"},
{"zip_code":"4640014","kana_pref":"ｱｲﾁｹﾝ","kana_city":"ﾅｺﾞﾔｼﾁｸｻｸ","kana_address":"ﾐｶｹﾞﾁｮｳ","pref":"愛知県","city":"名古屋市千種区","address":"御影町"},
{"zip_code":"4640817","kana_pref":"ｱｲﾁｹﾝ","kana_city":"ﾅｺﾞﾔｼﾁｸｻｸ","kana_address":"ﾐﾂｹﾁｮｳ","pref":"愛知県","city":"名古屋市千種区","address":"見附町"},
{"zip_code":"4640042","kana_pref":"ｱｲﾁｹﾝ","kana_city":"ﾅｺﾞﾔｼﾁｸｻｸ","kana_address":"ﾐﾅﾐｶﾞｵｶ","pref":"愛知県","city":"名古屋市千種区","address":"南ケ丘"},
{"zip_code":"4640008","kana_pref":"ｱｲﾁｹﾝ","kana_city":"ﾅｺﾞﾔｼﾁｸｻｸ","kana_address":"ﾐﾔﾈﾀﾞｲ","pref":"愛知県","city":"名古屋市千種区","address":"宮根台"},
{"zip_code":"4640091","kana_pref":"ｱｲﾁｹﾝ","kana_city":"ﾅｺﾞﾔｼﾁｸｻｸ","kana_address":"ﾐﾔﾉｺｼﾁｮｳ","pref":"愛知県","city":"名古屋市千種区","address":"宮の腰町"},
{"zip_code":"4640832","kana_pref":"ｱｲﾁｹﾝ","kana_city":"ﾅｺﾞﾔｼﾁｸｻｸ","kana_address":"ﾔﾏｿﾞｴﾁｮｳ","pref":"愛知県","city":"名古屋市千種区","address":"山添町"},
{"zip_code":"4640819","kana_pref":"ｱｲﾁｹﾝ","kana_city":"ﾅｺﾞﾔｼﾁｸｻｸ","kana_address":"ﾖﾂﾔﾄｵﾘ","pref":"愛知県","city":"名古屋市千種区","address":"四谷通"},
{"zip_code":"4640071","kana_pref":"ｱｲﾁｹﾝ","kana_city":"ﾅｺﾞﾔｼﾁｸｻｸ","kana_address":"ﾜｶﾐｽﾞ","pref":"愛知県","city":"名古屋市千種区","address":"若水"}]}