{"zip_code":[
{"zip_code":"4660000","kana_pref":"ｱｲﾁｹﾝ","kana_city":"ﾅｺﾞﾔｼｼｮｳﾜｸ","kana_address":"","pref":"愛知県","city":"名古屋市昭和区","address":""},
{"zip_code":"4660003","kana_pref":"ｱｲﾁｹﾝ","kana_city":"ﾅｺﾞﾔｼｼｮｳﾜｸ","kana_address":"ｱｹﾎﾞﾉﾁｮｳ","pref":"愛知県","city":"名古屋市昭和区","address":"曙町"},
{"zip_code":"4660027","kana_pref":"ｱｲﾁｹﾝ","kana_city":"ﾅｺﾞﾔｼｼｮｳﾜｸ","kana_address":"ｱﾕﾁﾄｵﾘ","pref":"愛知県","city":"名古屋市昭和区","address":"阿由知通"},
{"zip_code":"4660844","kana_pref":"ｱｲﾁｹﾝ","kana_city":"ﾅｺﾞﾔｼｼｮｳﾜｸ","kana_address":"ｱﾗﾀﾁｮｳ","pref":"愛知県","city":"名古屋市昭和区","address":"荒田町"},
{"zip_code":"4660805","kana_pref":"ｱｲﾁｹﾝ","kana_city":"ﾅｺﾞﾔｼｼｮｳﾜｸ","kana_address":"ｲｶﾂﾁｮｳ","pref":"愛知県","city":"名古屋市昭和区","address":"伊勝町"},
{"zip_code":"4660043","kana_pref":"ｱｲﾁｹﾝ","kana_city":"ﾅｺﾞﾔｼｼｮｳﾜｸ","kana_address":"ｲｹﾊﾞﾀﾁｮｳ","pref":"愛知県","city":"名古屋市昭和区","address":"池端町"},
{"zip_code":"4660023","kana_pref":"ｱｲﾁｹﾝ","kana_city":"ﾅｺﾞﾔｼｼｮｳﾜｸ","kana_address":"ｲｼﾎﾞﾄｹﾁｮｳ","pref":"愛知県","city":"名古屋市昭和区","address":"石仏町"},
{"zip_code":"4660047","kana_pref":"ｱｲﾁｹﾝ","kana_city":"ﾅｺﾞﾔｼｼｮｳﾜｸ","kana_address":"ｴｲｷﾝﾁｮｳ","pref":"愛知県","city":"名古屋市昭和区","address":"永金町"},
{"zip_code":"4660037","kana_pref":"ｱｲﾁｹﾝ","kana_city":"ﾅｺﾞﾔｼｼｮｳﾜｸ","kana_address":"ｴﾎｳﾁｮｳ","pref":"愛知県","city":"名古屋市昭和区","address":"恵方町"},
{"zip_code":"4660054","kana_pref":"ｱｲﾁｹﾝ","kana_city":"ﾅｺﾞﾔｼｼｮｳﾜｸ","kana_address":"ｴﾝｼﾞｮｳﾁｮｳ","pref":"愛知県","city":"名古屋市昭和区","address":"円上町"},
{"zip_code":"4660858","kana_pref":"ｱｲﾁｹﾝ","kana_city":"ﾅｺﾞﾔｼｼｮｳﾜｸ","kana_address":"ｵﾘﾄﾞﾁｮｳ","pref":"愛知県","city":"名古屋市昭和区","address":"折戸町"},
{"zip_code":"4660802","kana_pref":"ｱｲﾁｹﾝ","kana_city":"ﾅｺﾞﾔｼｼｮｳﾜｸ","kana_address":"ｶﾐﾑﾗﾁｮｳ","pref":"愛知県","city":"名古屋市昭和区","address":"神村町"},
{"zip_code":"4660836","kana_pref":"ｱｲﾁｹﾝ","kana_city":"ﾅｺﾞﾔｼｼｮｳﾜｸ","kana_address":"ｶﾐﾔﾏﾁｮｳ","pref":"愛知県","city":"名古屋市昭和区","address":"上山町"},
{"zip_code":"4660856","kana_pref":"ｱｲﾁｹﾝ","kana_city":"ﾅｺﾞﾔｼｼｮｳﾜｸ","kana_address":"ｶﾜﾅﾁｮｳ","pref":"愛知県","city":"名古屋市昭和区","address":"川名町"},
{"zip_code":"4660855","kana_pref":"ｱｲﾁｹﾝ","kana_city":"ﾅｺﾞﾔｼｼｮｳﾜｸ","kana_address":"ｶﾜﾅﾎﾝﾏﾁ","pref":"愛知県","city":"名古屋市昭和区","address":"川名本町"},
{"zip_code":"4660827","kana_pref":"ｱｲﾁｹﾝ","kana_city":"ﾅｺﾞﾔｼｼｮｳﾜｸ","kana_address":"ｶﾜﾅﾔﾏﾁｮｳ","pref":"愛知県","city":"名古屋市昭和区","address":"川名山町"},
{"zip_code":"4660853","kana_pref":"ｱｲﾁｹﾝ","kana_city":"ﾅｺﾞﾔｼｼｮｳﾜｸ","kana_address":"ｶﾜﾊﾗﾄｵﾘ","pref":"愛知県","city":"名古屋市昭和区","address":"川原通"},
{"zip_code":"4660843","kana_pref":"ｱｲﾁｹﾝ","kana_city":"ﾅｺﾞﾔｼｼｮｳﾜｸ","kana_address":"ｷｸｿﾞﾉﾁｮｳ","pref":"愛知県","city":"名古屋市昭和区","address":"菊園町"},
{"zip_code":"4660006","kana_pref":"ｱｲﾁｹﾝ","kana_city":"ﾅｺﾞﾔｼｼｮｳﾜｸ","kana_address":"ｷﾀﾔﾏﾁｮｳ","pref":"愛知県","city":"名古屋市昭和区","address":"北山町"},
{"zip_code":"4660016","kana_pref":"ｱｲﾁｹﾝ","kana_city":"ﾅｺﾞﾔｼｼｮｳﾜｸ","kana_address":"ｷﾀﾔﾏﾎﾝﾏﾁ","pref":"愛知県","city":"名古屋市昭和区","address":"北山本町"},
{"zip_code":"4660001","kana_pref":"ｱｲﾁｹﾝ","kana_city":"ﾅｺﾞﾔｼｼｮｳﾜｸ","kana_address":"ｸﾙﾏﾀﾞﾁｮｳ","pref":"愛知県","city":"名古屋市昭和区","address":"車田町"},
{"zip_code":"4660031","kana_pref":"ｱｲﾁｹﾝ","kana_city":"ﾅｺﾞﾔｼｼｮｳﾜｸ","kana_address":"ｺｳﾊﾞｲﾁｮｳ","pref":"愛知県","city":"名古屋市昭和区","address":"紅梅町"},
{"zip_code":"4660051","kana_pref":"ｱｲﾁｹﾝ","kana_city":"ﾅｺﾞﾔｼｼｮｳﾜｸ","kana_address":"ｺﾞｷｿ","pref":"愛知県","city":"名古屋市昭和区","address":"御器所"},
{"zip_code":"4660061","kana_pref":"ｱｲﾁｹﾝ","kana_city":"ﾅｺﾞﾔｼｼｮｳﾜｸ","kana_address":"ｺﾞｷｿﾁｮｳ","pref":"愛知県","city":"名古屋市昭和区","address":"御器所町"},
{"zip_code":"4660015","kana_pref":"ｱｲﾁｹﾝ","kana_city":"ﾅｺﾞﾔｼｼｮｳﾜｸ","kana_address":"ｺﾞｷｿﾄｵﾘ","pref":"愛知県","city":"名古屋市昭和区","address":"御器所通"},
{"zip_code":"4660838","kana_pref":"ｱｲﾁｹﾝ","kana_city":"ﾅｺﾞﾔｼｼｮｳﾜｸ","kana_address":"ｺﾞｹﾝﾔﾁｮｳ","pref":"愛知県","city":"名古屋市昭和区","address":"五軒家町"},
{"zip_code":"4660021","kana_pref":"ｱｲﾁｹﾝ","kana_city":"ﾅｺﾞﾔｼｼｮｳﾜｸ","kana_address":"ｺｻｶﾁｮｳ","pref":"愛知県","city":"名古屋市昭和区","address":"小坂町"},
{"zip_code":"4660012","kana_pref":"ｱｲﾁｹﾝ","kana_city":"ﾅｺﾞﾔｼｼｮｳﾜｸ","kana_address":"ｺｻｸﾗﾁｮｳ","pref":"愛知県","city":"名古屋市昭和区","address":"小桜町"},
{"zip_code":"4660832","kana_pref":"ｱｲﾁｹﾝ","kana_city":"ﾅｺﾞﾔｼｼｮｳﾜｸ","kana_address":"ｺﾏｶﾞﾀﾁｮｳ","pref":"愛知県","city":"名古屋市昭和区","address":"駒方町"},
{"zip_code":"4660044","kana_pref":"ｱｲﾁｹﾝ","kana_city":"ﾅｺﾞﾔｼｼｮｳﾜｸ","kana_address":"ｻｸﾗﾔﾏﾁｮｳ","pref":"愛知県","city":"名古屋市昭和区","address":"桜山町"},
{"zip_code":"4660022","kana_pref":"ｱｲﾁｹﾝ","kana_city":"ﾅｺﾞﾔｼｼｮｳﾜｸ","kana_address":"ｼｵﾂｹﾄｵﾘ","pref":"愛知県","city":"名古屋市昭和区","address":"塩付通"},
{"zip_code":"4660837","kana_pref":"ｱｲﾁｹﾝ","kana_city":"ﾅｺﾞﾔｼｼｮｳﾜｸ","kana_address":"ｼｵﾐﾁｮｳ","pref":"愛知県","city":"名古屋市昭和区","address":"汐見町"},
{"zip_code":"4660025","kana_pref":"ｱｲﾁｹﾝ","kana_city":"ﾅｺﾞﾔｼｼｮｳﾜｸ","kana_address":"ｼﾓｶﾞﾏｴﾁｮｳ","pref":"愛知県","city":"名古屋市昭和区","address":"下構町"},
{"zip_code":"4660058","kana_pref":"ｱｲﾁｹﾝ","kana_city":"ﾅｺﾞﾔｼｼｮｳﾜｸ","kana_address":"ｼﾗｶﾈ","pref":"愛知県","city":"名古屋市昭和区","address":"白金"},
{"zip_code":"4660033","kana_pref":"ｱｲﾁｹﾝ","kana_city":"ﾅｺﾞﾔｼｼｮｳﾜｸ","kana_address":"ﾀﾞｲﾏﾁ","pref":"愛知県","city":"名古屋市昭和区","address":"台町"},
{"zip_code":"4660801","kana_pref":"ｱｲﾁｹﾝ","kana_city":"ﾅｺﾞﾔｼｼｮｳﾜｸ","kana_address":"ﾀｵﾓﾁｮｳ","pref":"愛知県","city":"名古屋市昭和区","address":"田面町"},
{"zip_code":"4660057","kana_pref":"ｱｲﾁｹﾝ","kana_city":"ﾅｺﾞﾔｼｼｮｳﾜｸ","kana_address":"ﾀｶﾂｼﾞﾁｮｳ","pref":"愛知県","city":"名古屋市昭和区","address":"高辻町"},
{"zip_code":"4660811","kana_pref":"ｱｲﾁｹﾝ","kana_city":"ﾅｺﾞﾔｼｼｮｳﾜｸ","kana_address":"ﾀｶﾐﾈﾁｮｳ","pref":"愛知県","city":"名古屋市昭和区","address":"高峯町"},
{"zip_code":"4660826","kana_pref":"ｱｲﾁｹﾝ","kana_city":"ﾅｺﾞﾔｼｼｮｳﾜｸ","kana_address":"ﾀｷｶﾜﾁｮｳ","pref":"愛知県","city":"名古屋市昭和区","address":"滝川町"},
{"zip_code":"4660053","kana_pref":"ｱｲﾁｹﾝ","kana_city":"ﾅｺﾞﾔｼｼｮｳﾜｸ","kana_address":"ﾀｷｺﾁｮｳ","pref":"愛知県","city":"名古屋市昭和区","address":"滝子町"},
{"zip_code":"4660055","kana_pref":"ｱｲﾁｹﾝ","kana_city":"ﾅｺﾞﾔｼｼｮｳﾜｸ","kana_address":"ﾀｷｺﾞﾄｵﾘ","pref":"愛知県","city":"名古屋市昭和区","address":"滝子通"},
{"zip_code":"4660842","kana_pref":"ｱｲﾁｹﾝ","kana_city":"ﾅｺﾞﾔｼｼｮｳﾜｸ","kana_address":"ﾀﾞﾝｹｲﾄｵﾘ","pref":"愛知県","city":"名古屋市昭和区","address":"檀溪通"},
{"zip_code":"4660011","kana_pref":"ｱｲﾁｹﾝ","kana_city":"ﾅｺﾞﾔｼｼｮｳﾜｸ","kana_address":"ﾂﾙﾊﾁｮｳ","pref":"愛知県","city":"名古屋市昭和区","address":"鶴羽町"},
{"zip_code":"4660064","kana_pref":"ｱｲﾁｹﾝ","kana_city":"ﾅｺﾞﾔｼｼｮｳﾜｸ","kana_address":"ﾂﾙﾏｲ","pref":"愛知県","city":"名古屋市昭和区","address":"鶴舞"},
{"zip_code":"4660065","kana_pref":"ｱｲﾁｹﾝ","kana_city":"ﾅｺﾞﾔｼｼｮｳﾜｸ","kana_address":"ﾂﾙﾏｲﾁｮｳ","pref":"愛知県","city":"名古屋市昭和区","address":"鶴舞町"},
{"zip_code":"4660041","kana_pref":"ｱｲﾁｹﾝ","kana_city":"ﾅｺﾞﾔｼｼｮｳﾜｸ","kana_address":"ﾃﾞｸﾞﾁﾁｮｳ","pref":"愛知県","city":"名古屋市昭和区","address":"出口町"},
{"zip_code":"4660032","kana_pref":"ｱｲﾁｹﾝ","kana_city":"ﾅｺﾞﾔｼｼｮｳﾜｸ","kana_address":"ﾃﾝｼﾞﾝﾁｮｳ","pref":"愛知県","city":"名古屋市昭和区","address":"天神町"},
{"zip_code":"4660056","kana_pref":"ｱｲﾁｹﾝ","kana_city":"ﾅｺﾞﾔｼｼｮｳﾜｸ","kana_address":"ﾄｳｺｳﾄｵﾘ","pref":"愛知県","city":"名古屋市昭和区","address":"東郊通"},
{"zip_code":"4660026","kana_pref":"ｱｲﾁｹﾝ","kana_city":"ﾅｺﾞﾔｼｼｮｳﾜｸ","kana_address":"ﾄｳｾｲﾁｮｳ","pref":"愛知県","city":"名古屋市昭和区","address":"陶生町"},
{"zip_code":"4660014","kana_pref":"ｱｲﾁｹﾝ","kana_city":"ﾅｺﾞﾔｼｼｮｳﾜｸ","kana_address":"ﾄｳﾊﾀﾁｮｳ","pref":"愛知県","city":"名古屋市昭和区","address":"東畑町"},
{"zip_code":"4660846","kana_pref":"ｱｲﾁｹﾝ","kana_city":"ﾅｺﾞﾔｼｼｮｳﾜｸ","kana_address":"ﾄﾀﾞﾁｮｳ","pref":"愛知県","city":"名古屋市昭和区","address":"戸田町"},
{"zip_code":"4660847","kana_pref":"ｱｲﾁｹﾝ","kana_city":"ﾅｺﾞﾔｼｼｮｳﾜｸ","kana_address":"ﾅｶﾞｲｹﾁｮｳ","pref":"愛知県","city":"名古屋市昭和区","address":"長池町"},
{"zip_code":"4660848","kana_pref":"ｱｲﾁｹﾝ","kana_city":"ﾅｺﾞﾔｼｼｮｳﾜｸ","kana_address":"ﾅｶﾞﾄﾁｮｳ","pref":"愛知県","city":"名古屋市昭和区","address":"長戸町"},
{"zip_code":"4660806","kana_pref":"ｱｲﾁｹﾝ","kana_city":"ﾅｺﾞﾔｼｼｮｳﾜｸ","kana_address":"ﾆｼﾊﾞﾀﾁｮｳ","pref":"愛知県","city":"名古屋市昭和区","address":"西畑町"},
{"zip_code":"4660852","kana_pref":"ｱｲﾁｹﾝ","kana_city":"ﾅｺﾞﾔｼｼｮｳﾜｸ","kana_address":"ﾊｷﾞﾜﾗﾁｮｳ","pref":"愛知県","city":"名古屋市昭和区","address":"萩原町"},
{"zip_code":"4660062","kana_pref":"ｱｲﾁｹﾝ","kana_city":"ﾅｺﾞﾔｼｼｮｳﾜｸ","kana_address":"ﾊｻﾞﾏﾁｮｳ","pref":"愛知県","city":"名古屋市昭和区","address":"狭間町"},
{"zip_code":"4660831","kana_pref":"ｱｲﾁｹﾝ","kana_city":"ﾅｺﾞﾔｼｼｮｳﾜｸ","kana_address":"ﾊﾅﾐﾄｵﾘ","pref":"愛知県","city":"名古屋市昭和区","address":"花見通"},
{"zip_code":"4660833","kana_pref":"ｱｲﾁｹﾝ","kana_city":"ﾅｺﾞﾔｼｼｮｳﾜｸ","kana_address":"ﾊﾔﾄﾁｮｳ","pref":"愛知県","city":"名古屋市昭和区","address":"隼人町"},
{"zip_code":"4660042","kana_pref":"ｱｲﾁｹﾝ","kana_city":"ﾅｺﾞﾔｼｼｮｳﾜｸ","kana_address":"ﾋﾛｲｹﾁｮｳ","pref":"愛知県","city":"名古屋市昭和区","address":"広池町"},
{"zip_code":"4660834","kana_pref":"ｱｲﾁｹﾝ","kana_city":"ﾅｺﾞﾔｼｼｮｳﾜｸ","kana_address":"ﾋﾛｼﾞﾁｮｳ","pref":"愛知県","city":"名古屋市昭和区","address":"広路町"},
{"zip_code":"4660854","kana_pref":"ｱｲﾁｹﾝ","kana_city":"ﾅｺﾞﾔｼｼｮｳﾜｸ","kana_address":"ﾋﾛｼﾞﾄｵﾘ","pref":"愛知県","city":"名古屋市昭和区","address":"広路通"},
{"zip_code":"4660841","kana_pref":"ｱｲﾁｹﾝ","kana_city":"ﾅｺﾞﾔｼｼｮｳﾜｸ","kana_address":"ﾋﾛｼﾞﾎﾝﾏﾁ","pref":"愛知県","city":"名古屋市昭和区","address":"広路本町"},
{"zip_code":"4660004","kana_pref":"ｱｲﾁｹﾝ","kana_city":"ﾅｺﾞﾔｼｼｮｳﾜｸ","kana_address":"ﾋﾛｾﾁｮｳ","pref":"愛知県","city":"名古屋市昭和区","address":"広瀬町"},
{"zip_code":"4660046","kana_pref":"ｱｲﾁｹﾝ","kana_city":"ﾅｺﾞﾔｼｼｮｳﾜｸ","kana_address":"ﾋﾛﾐﾁｮｳ","pref":"愛知県","city":"名古屋市昭和区","address":"広見町"},
{"zip_code":"4660002","kana_pref":"ｱｲﾁｹﾝ","kana_city":"ﾅｺﾞﾔｼｼｮｳﾜｸ","kana_address":"ﾌｷｱｹﾞﾁｮｳ","pref":"愛知県","city":"名古屋市昭和区","address":"吹上町"},
{"zip_code":"4660059","kana_pref":"ｱｲﾁｹﾝ","kana_city":"ﾅｺﾞﾔｼｼｮｳﾜｸ","kana_address":"ﾌｸｴ","pref":"愛知県","city":"名古屋市昭和区","address":"福江"},
{"zip_code":"4660803","kana_pref":"ｱｲﾁｹﾝ","kana_city":"ﾅｺﾞﾔｼｼｮｳﾜｸ","kana_address":"ﾌｸﾊﾗﾁｮｳ","pref":"愛知県","city":"名古屋市昭和区","address":"福原町"},
{"zip_code":"4660845","kana_pref":"ｱｲﾁｹﾝ","kana_city":"ﾅｺﾞﾔｼｼｮｳﾜｸ","kana_address":"ﾌｼﾞﾅﾘﾄｵﾘ","pref":"愛知県","city":"名古屋市昭和区","address":"藤成通"},
{"zip_code":"4660821","kana_pref":"ｱｲﾁｹﾝ","kana_city":"ﾅｺﾞﾔｼｼｮｳﾜｸ","kana_address":"ﾏｴﾔﾏﾁｮｳ","pref":"愛知県","city":"名古屋市昭和区","address":"前山町"},
{"zip_code":"4660035","kana_pref":"ｱｲﾁｹﾝ","kana_city":"ﾅｺﾞﾔｼｼｮｳﾜｸ","kana_address":"ﾏﾂｶｾﾞﾁｮｳ","pref":"愛知県","city":"名古屋市昭和区","address":"松風町"},
{"zip_code":"4660045","kana_pref":"ｱｲﾁｹﾝ","kana_city":"ﾅｺﾞﾔｼｼｮｳﾜｸ","kana_address":"ﾏﾙﾔﾁｮｳ","pref":"愛知県","city":"名古屋市昭和区","address":"丸屋町"},
{"zip_code":"4660013","kana_pref":"ｱｲﾁｹﾝ","kana_city":"ﾅｺﾞﾔｼｼｮｳﾜｸ","kana_address":"ﾐﾄﾞﾘﾁｮｳ","pref":"愛知県","city":"名古屋市昭和区","address":"緑町"},
{"zip_code":"4660835","kana_pref":"ｱｲﾁｹﾝ","kana_city":"ﾅｺﾞﾔｼｼｮｳﾜｸ","kana_address":"ﾐﾅﾐﾔﾏﾁｮｳ","pref":"愛知県","city":"名古屋市昭和区","address":"南山町"},
{"zip_code":"4660849","kana_pref":"ｱｲﾁｹﾝ","kana_city":"ﾅｺﾞﾔｼｼｮｳﾜｸ","kana_address":"ﾐﾅﾐﾜｹﾁｮｳ","pref":"愛知県","city":"名古屋市昭和区","address":"南分町"},
{"zip_code":"4660804","kana_pref":"ｱｲﾁｹﾝ","kana_city":"ﾅｺﾞﾔｼｼｮｳﾜｸ","kana_address":"ﾐﾔﾋｶﾞｼﾁｮｳ","pref":"愛知県","city":"名古屋市昭和区","address":"宮東町"},
{"zip_code":"4660814","kana_pref":"ｱｲﾁｹﾝ","kana_city":"ﾅｺﾞﾔｼｼｮｳﾜｸ","kana_address":"ﾐｮｳｹﾝﾁｮｳ","pref":"愛知県","city":"名古屋市昭和区","address":"妙見町"},
{"zip_code":"4660829","kana_pref":"ｱｲﾁｹﾝ","kana_city":"ﾅｺﾞﾔｼｼｮｳﾜｸ","kana_address":"ﾑｶｲﾔﾏﾁｮｳ","pref":"愛知県","city":"名古屋市昭和区","address":"向山町"},
{"zip_code":"4660052","kana_pref":"ｱｲﾁｹﾝ","kana_city":"ﾅｺﾞﾔｼｼｮｳﾜｸ","kana_address":"ﾑﾗｸﾓﾁｮｳ","pref":"愛知県","city":"名古屋市昭和区","address":"村雲町"},
{"zip_code":"4660034","kana_pref":"ｱｲﾁｹﾝ","kana_city":"ﾅｺﾞﾔｼｼｮｳﾜｸ","kana_address":"ﾒｲｹﾞﾂﾁｮｳ","pref":"愛知県","city":"名古屋市昭和区","address":"明月町"},
{"zip_code":"4660851","kana_pref":"ｱｲﾁｹﾝ","kana_city":"ﾅｺﾞﾔｼｼｮｳﾜｸ","kana_address":"ﾓﾄﾐﾔﾁｮｳ","pref":"愛知県","city":"名古屋市昭和区","address":"元宮町"},
{"zip_code":"4660823","kana_pref":"ｱｲﾁｹﾝ","kana_city":"ﾅｺﾞﾔｼｼｮｳﾜｸ","kana_address":"ﾔｸﾓﾁｮｳ","pref":"愛知県","city":"名古屋市昭和区","address":"八雲町"},
{"zip_code":"4660812","kana_pref":"ｱｲﾁｹﾝ","kana_city":"ﾅｺﾞﾔｼｼｮｳﾜｸ","kana_address":"ﾔｺﾞﾄﾌｼﾞﾐ","pref":"愛知県","city":"名古屋市昭和区","address":"八事富士見"},
{"zip_code":"4660825","kana_pref":"ｱｲﾁｹﾝ","kana_city":"ﾅｺﾞﾔｼｼｮｳﾜｸ","kana_address":"ﾔｺﾞﾄﾎﾝﾏﾁ","pref":"愛知県","city":"名古屋市昭和区","address":"八事本町"},
{"zip_code":"4660857","kana_pref":"ｱｲﾁｹﾝ","kana_city":"ﾅｺﾞﾔｼｼｮｳﾜｸ","kana_address":"ﾔｽﾀﾞﾄｵﾘ","pref":"愛知県","city":"名古屋市昭和区","address":"安田通"},
{"zip_code":"4660824","kana_pref":"ｱｲﾁｹﾝ","kana_city":"ﾅｺﾞﾔｼｼｮｳﾜｸ","kana_address":"ﾔﾏｻﾞﾄﾁｮｳ","pref":"愛知県","city":"名古屋市昭和区","address":"山里町"},
{"zip_code":"4660024","kana_pref":"ｱｲﾁｹﾝ","kana_city":"ﾅｺﾞﾔｼｼｮｳﾜｸ","kana_address":"ﾔﾏﾄﾁｮｳ","pref":"愛知県","city":"名古屋市昭和区","address":"大和町"},
{"zip_code":"4660828","kana_pref":"ｱｲﾁｹﾝ","kana_city":"ﾅｺﾞﾔｼｼｮｳﾜｸ","kana_address":"ﾔﾏﾅｶﾁｮｳ","pref":"愛知県","city":"名古屋市昭和区","address":"山中町"},
{"zip_code":"4660815","kana_pref":"ｱｲﾁｹﾝ","kana_city":"ﾅｺﾞﾔｼｼｮｳﾜｸ","kana_address":"ﾔﾏﾉﾃﾄｵﾘ","pref":"愛知県","city":"名古屋市昭和区","address":"山手通"},
{"zip_code":"4660807","kana_pref":"ｱｲﾁｹﾝ","kana_city":"ﾅｺﾞﾔｼｼｮｳﾜｸ","kana_address":"ﾔﾏﾊﾅﾁｮｳ","pref":"愛知県","city":"名古屋市昭和区","address":"山花町"},
{"zip_code":"4660063","kana_pref":"ｱｲﾁｹﾝ","kana_city":"ﾅｺﾞﾔｼｼｮｳﾜｸ","kana_address":"ﾔﾏﾜｷﾁｮｳ","pref":"愛知県","city":"名古屋市昭和区","address":"山脇町"},
{"zip_code":"4660005","kana_pref":"ｱｲﾁｹﾝ","kana_city":"ﾅｺﾞﾔｼｼｮｳﾜｸ","kana_address":"ﾕｷﾐﾁｮｳ","pref":"愛知県","city":"名古屋市昭和区","address":"雪見町"},
{"zip_code":"4660822","kana_pref":"ｱｲﾁｹﾝ","kana_city":"ﾅｺﾞﾔｼｼｮｳﾜｸ","kana_address":"ﾗｸｴﾝﾁｮｳ","pref":"愛知県","city":"名古屋市昭和区","address":"楽園町"},
{"zip_code":"4660036","kana_pref":"ｱｲﾁｹﾝ","kana_city":"ﾅｺﾞﾔｼｼｮｳﾜｸ","kana_address":"ﾜｶﾔｷﾞﾁｮｳ","pref":"愛知県","city":"名古屋市昭和区","address":"若柳町"}]}