{"zip_code":[
{"zip_code":"4700335","kana_pref":"ｱｲﾁｹﾝ","kana_city":"ﾄﾖﾀｼ","kana_address":"ｱｵｷﾁｮｳ","pref":"愛知県","city":"豊田市","address":"青木町"},
{"zip_code":"4700333","kana_pref":"ｱｲﾁｹﾝ","kana_city":"ﾄﾖﾀｼ","kana_address":"ｱﾗｲﾁｮｳ","pref":"愛知県","city":"豊田市","address":"荒井町"},
{"zip_code":"4700471","kana_pref":"ｱｲﾁｹﾝ","kana_city":"ﾄﾖﾀｼ","kana_address":"ｲｼﾀﾞﾀﾐﾁｮｳ","pref":"愛知県","city":"豊田市","address":"石畳町"},
{"zip_code":"4700463","kana_pref":"ｱｲﾁｹﾝ","kana_city":"ﾄﾖﾀｼ","kana_address":"ｲｼﾄﾋﾞﾁｮｳ","pref":"愛知県","city":"豊田市","address":"石飛町"},
{"zip_code":"4700329","kana_pref":"ｱｲﾁｹﾝ","kana_city":"ﾄﾖﾀｼ","kana_address":"ｲｼﾉﾁｮｳ","pref":"愛知県","city":"豊田市","address":"石野町"},
{"zip_code":"4700574","kana_pref":"ｱｲﾁｹﾝ","kana_city":"ﾄﾖﾀｼ","kana_address":"ｲﾁﾊﾞﾁｮｳ","pref":"愛知県","city":"豊田市","address":"市場町"},
{"zip_code":"4700372","kana_pref":"ｱｲﾁｹﾝ","kana_city":"ﾄﾖﾀｼ","kana_address":"ｲﾉｳｴﾁｮｳ","pref":"愛知県","city":"豊田市","address":"井上町"},
{"zip_code":"4700374","kana_pref":"ｱｲﾁｹﾝ","kana_city":"ﾄﾖﾀｼ","kana_address":"ｲﾎﾞﾁｮｳ","pref":"愛知県","city":"豊田市","address":"伊保町"},
{"zip_code":"4700515","kana_pref":"ｱｲﾁｹﾝ","kana_city":"ﾄﾖﾀｼ","kana_address":"ｲﾜｼﾀﾁｮｳ","pref":"愛知県","city":"豊田市","address":"岩下町"},
{"zip_code":"4701211","kana_pref":"ｱｲﾁｹﾝ","kana_city":"ﾄﾖﾀｼ","kana_address":"ｳﾈﾍﾞﾋｶﾞｼﾏﾁ","pref":"愛知県","city":"豊田市","address":"畝部東町"},
{"zip_code":"4701219","kana_pref":"ｱｲﾁｹﾝ","kana_city":"ﾄﾖﾀｼ","kana_address":"ｳﾈﾍﾞﾆｼﾏﾁ","pref":"愛知県","city":"豊田市","address":"畝部西町"},
{"zip_code":"4700341","kana_pref":"ｱｲﾁｹﾝ","kana_city":"ﾄﾖﾀｼ","kana_address":"ｳﾜﾊﾗﾁｮｳ","pref":"愛知県","city":"豊田市","address":"上原町"},
{"zip_code":"4700562","kana_pref":"ｱｲﾁｹﾝ","kana_city":"ﾄﾖﾀｼ","kana_address":"ｴｲﾀﾛｳﾁｮｳ","pref":"愛知県","city":"豊田市","address":"永太郎町"},
{"zip_code":"4701206","kana_pref":"ｱｲﾁｹﾝ","kana_city":"ﾄﾖﾀｼ","kana_address":"ｴｶｸｼﾝﾏﾁ","pref":"愛知県","city":"豊田市","address":"永覚新町"},
{"zip_code":"4701205","kana_pref":"ｱｲﾁｹﾝ","kana_city":"ﾄﾖﾀｼ","kana_address":"ｴｶｸﾁｮｳ","pref":"愛知県","city":"豊田市","address":"永覚町"},
{"zip_code":"4700401","kana_pref":"ｱｲﾁｹﾝ","kana_city":"ﾄﾖﾀｼ","kana_address":"ｵｵｲﾜﾁｮｳ","pref":"愛知県","city":"豊田市","address":"大岩町"},
{"zip_code":"4700511","kana_pref":"ｱｲﾁｹﾝ","kana_city":"ﾄﾖﾀｼ","kana_address":"ｵｵｶﾞｿﾞﾚﾁｮｳ","pref":"愛知県","city":"豊田市","address":"大ケ蔵連町"},
{"zip_code":"4700532","kana_pref":"ｱｲﾁｹﾝ","kana_city":"ﾄﾖﾀｼ","kana_address":"ｵｵｻｶﾁｮｳ","pref":"愛知県","city":"豊田市","address":"大坂町"},
{"zip_code":"4700342","kana_pref":"ｱｲﾁｹﾝ","kana_city":"ﾄﾖﾀｼ","kana_address":"ｵｵｼﾐｽﾞﾁｮｳ","pref":"愛知県","city":"豊田市","address":"大清水町"},
{"zip_code":"4700555","kana_pref":"ｱｲﾁｹﾝ","kana_city":"ﾄﾖﾀｼ","kana_address":"ｵｵﾀﾞｲﾗﾁｮｳ","pref":"愛知県","city":"豊田市","address":"大平町"},
{"zip_code":"4700355","kana_pref":"ｱｲﾁｹﾝ","kana_city":"ﾄﾖﾀｼ","kana_address":"ｵｵﾊﾞﾀﾁｮｳ","pref":"愛知県","city":"豊田市","address":"大畑町"},
{"zip_code":"4700553","kana_pref":"ｱｲﾁｹﾝ","kana_city":"ﾄﾖﾀｼ","kana_address":"ｵｵﾎﾞﾗﾁｮｳ","pref":"愛知県","city":"豊田市","address":"大洞町"},
{"zip_code":"4700552","kana_pref":"ｱｲﾁｹﾝ","kana_city":"ﾄﾖﾀｼ","kana_address":"ｵｶﾊﾞﾔｼﾁｮｳ","pref":"愛知県","city":"豊田市","address":"乙ケ林町"},
{"zip_code":"4701207","kana_pref":"ｱｲﾁｹﾝ","kana_city":"ﾄﾖﾀｼ","kana_address":"ｵｼｶﾓﾁｮｳ","pref":"愛知県","city":"豊田市","address":"鴛鴨町"},
{"zip_code":"4700303","kana_pref":"ｱｲﾁｹﾝ","kana_city":"ﾄﾖﾀｼ","kana_address":"ｵｼｻﾞﾜﾁｮｳ","pref":"愛知県","city":"豊田市","address":"押沢町"},
{"zip_code":"4700346","kana_pref":"ｱｲﾁｹﾝ","kana_city":"ﾄﾖﾀｼ","kana_address":"ｵﾄﾍﾞｶﾞｵｶ","pref":"愛知県","city":"豊田市","address":"乙部ケ丘"},
{"zip_code":"4700347","kana_pref":"ｱｲﾁｹﾝ","kana_city":"ﾄﾖﾀｼ","kana_address":"ｵﾄﾍﾞﾁｮｳ","pref":"愛知県","city":"豊田市","address":"乙部町"},
{"zip_code":"4700572","kana_pref":"ｱｲﾁｹﾝ","kana_city":"ﾄﾖﾀｼ","kana_address":"ｵﾊﾞﾗｵｵｸﾗﾁｮｳ","pref":"愛知県","city":"豊田市","address":"小原大倉町"},
{"zip_code":"4700502","kana_pref":"ｱｲﾁｹﾝ","kana_city":"ﾄﾖﾀｼ","kana_address":"ｵﾊﾞﾗｷﾀﾁｮｳ","pref":"愛知県","city":"豊田市","address":"小原北町"},
{"zip_code":"4700501","kana_pref":"ｱｲﾁｹﾝ","kana_city":"ﾄﾖﾀｼ","kana_address":"ｵﾊﾞﾗﾀｼﾛﾁｮｳ","pref":"愛知県","city":"豊田市","address":"小原田代町"},
{"zip_code":"4700531","kana_pref":"ｱｲﾁｹﾝ","kana_city":"ﾄﾖﾀｼ","kana_address":"ｵﾊﾞﾗﾁｮｳ","pref":"愛知県","city":"豊田市","address":"小原町"},
{"zip_code":"4700464","kana_pref":"ｱｲﾁｹﾝ","kana_city":"ﾄﾖﾀｼ","kana_address":"ｵﾘﾀﾞｲﾗﾁｮｳ","pref":"愛知県","city":"豊田市","address":"折平町"},
{"zip_code":"4700323","kana_pref":"ｱｲﾁｹﾝ","kana_city":"ﾄﾖﾀｼ","kana_address":"ｵﾛﾁｮｳ","pref":"愛知県","city":"豊田市","address":"小呂町"},
{"zip_code":"4700348","kana_pref":"ｱｲﾁｹﾝ","kana_city":"ﾄﾖﾀｼ","kana_address":"ｶｲﾂﾞﾁｮｳ","pref":"愛知県","city":"豊田市","address":"貝津町"},
{"zip_code":"4700505","kana_pref":"ｱｲﾁｹﾝ","kana_city":"ﾄﾖﾀｼ","kana_address":"ｶｼｶﾞﾎﾗﾁｮｳ","pref":"愛知県","city":"豊田市","address":"柏ケ洞町"},
{"zip_code":"4700533","kana_pref":"ｱｲﾁｹﾝ","kana_city":"ﾄﾖﾀｼ","kana_address":"ｶｼﾞﾔｼｷﾁｮｳ","pref":"愛知県","city":"豊田市","address":"鍛治屋敷町"},
{"zip_code":"4701216","kana_pref":"ｱｲﾁｹﾝ","kana_city":"ﾄﾖﾀｼ","kana_address":"ｶｽﾞｴﾁｮｳ","pref":"愛知県","city":"豊田市","address":"和会町"},
{"zip_code":"4700364","kana_pref":"ｱｲﾁｹﾝ","kana_city":"ﾄﾖﾀｼ","kana_address":"ｶﾉｳﾁｮｳ","pref":"愛知県","city":"豊田市","address":"加納町"},
{"zip_code":"4700421","kana_pref":"ｱｲﾁｹﾝ","kana_city":"ﾄﾖﾀｼ","kana_address":"ｶﾐｶﾜｸﾞﾁﾁｮｳ","pref":"愛知県","city":"豊田市","address":"上川口町"},
{"zip_code":"4701218","kana_pref":"ｱｲﾁｹﾝ","kana_city":"ﾄﾖﾀｼ","kana_address":"ｶﾐｺﾞｳﾁｮｳ","pref":"愛知県","city":"豊田市","address":"上郷町"},
{"zip_code":"4700322","kana_pref":"ｱｲﾁｹﾝ","kana_city":"ﾄﾖﾀｼ","kana_address":"ｶﾐﾀｶﾁｮｳ","pref":"愛知県","city":"豊田市","address":"上高町"},
{"zip_code":"4700462","kana_pref":"ｱｲﾁｹﾝ","kana_city":"ﾄﾖﾀｼ","kana_address":"ｶﾐﾄﾞｱｲﾁｮｳ","pref":"愛知県","city":"豊田市","address":"上渡合町"},
{"zip_code":"4700561","kana_pref":"ｱｲﾁｹﾝ","kana_city":"ﾄﾖﾀｼ","kana_address":"ｶﾐﾆｷﾞﾁｮｳ","pref":"愛知県","city":"豊田市","address":"上仁木町"},
{"zip_code":"4700375","kana_pref":"ｱｲﾁｹﾝ","kana_city":"ﾄﾖﾀｼ","kana_address":"ｶﾒｸﾋﾞﾁｮｳ","pref":"愛知県","city":"豊田市","address":"亀首町"},
{"zip_code":"4700513","kana_pref":"ｱｲﾁｹﾝ","kana_city":"ﾄﾖﾀｼ","kana_address":"ｶﾙｶﾔﾁｮｳ","pref":"愛知県","city":"豊田市","address":"苅萱町"},
{"zip_code":"4700575","kana_pref":"ｱｲﾁｹﾝ","kana_city":"ﾄﾖﾀｼ","kana_address":"ｶﾜｼﾓﾁｮｳ","pref":"愛知県","city":"豊田市","address":"川下町"},
{"zip_code":"4700328","kana_pref":"ｱｲﾁｹﾝ","kana_city":"ﾄﾖﾀｼ","kana_address":"ｶﾝﾊﾟﾁﾁｮｳ","pref":"愛知県","city":"豊田市","address":"勘八町"},
{"zip_code":"4700542","kana_pref":"ｱｲﾁｹﾝ","kana_city":"ﾄﾖﾀｼ","kana_address":"ｷｻﾀﾞｲﾗﾁｮｳ","pref":"愛知県","city":"豊田市","address":"喜佐平町"},
{"zip_code":"4700411","kana_pref":"ｱｲﾁｹﾝ","kana_city":"ﾄﾖﾀｼ","kana_address":"ｷｾﾁｮｳ","pref":"愛知県","city":"豊田市","address":"木瀬町"},
{"zip_code":"4700453","kana_pref":"ｱｲﾁｹﾝ","kana_city":"ﾄﾖﾀｼ","kana_address":"ｷﾀｲｼｷﾁｮｳ","pref":"愛知県","city":"豊田市","address":"北一色町"},
{"zip_code":"4700573","kana_pref":"ｱｲﾁｹﾝ","kana_city":"ﾄﾖﾀｼ","kana_address":"ｷﾀｵｵﾉﾁｮｳ","pref":"愛知県","city":"豊田市","address":"北大野町"},
{"zip_code":"4700543","kana_pref":"ｱｲﾁｹﾝ","kana_city":"ﾄﾖﾀｼ","kana_address":"ｷﾀｻｻﾀﾞｲﾗﾁｮｳ","pref":"愛知県","city":"豊田市","address":"北篠平町"},
{"zip_code":"4700305","kana_pref":"ｱｲﾁｹﾝ","kana_city":"ﾄﾖﾀｼ","kana_address":"ｸﾆﾂｷﾁｮｳ","pref":"愛知県","city":"豊田市","address":"国附町"},
{"zip_code":"4700522","kana_pref":"ｱｲﾁｹﾝ","kana_city":"ﾄﾖﾀｼ","kana_address":"ｸﾚﾏﾀﾁｮｳ","pref":"愛知県","city":"豊田市","address":"榑俣町"},
{"zip_code":"4700332","kana_pref":"ｱｲﾁｹﾝ","kana_city":"ﾄﾖﾀｼ","kana_address":"ｺｼﾄﾞﾁｮｳ","pref":"愛知県","city":"豊田市","address":"越戸町"},
{"zip_code":"4700306","kana_pref":"ｱｲﾁｹﾝ","kana_city":"ﾄﾖﾀｼ","kana_address":"ｺﾐﾈﾁｮｳ","pref":"愛知県","city":"豊田市","address":"小峯町"},
{"zip_code":"4701203","kana_pref":"ｱｲﾁｹﾝ","kana_city":"ﾄﾖﾀｼ","kana_address":"ｻｲﾜｲﾁｮｳ","pref":"愛知県","city":"豊田市","address":"幸町"},
{"zip_code":"4700352","kana_pref":"ｱｲﾁｹﾝ","kana_city":"ﾄﾖﾀｼ","kana_address":"ｻｻﾊﾞﾗﾁｮｳ","pref":"愛知県","city":"豊田市","address":"篠原町"},
{"zip_code":"4700504","kana_pref":"ｱｲﾁｹﾝ","kana_city":"ﾄﾖﾀｼ","kana_address":"ｻﾞｯｼｷﾁｮｳ","pref":"愛知県","city":"豊田市","address":"雑敷町"},
{"zip_code":"4700361","kana_pref":"ｱｲﾁｹﾝ","kana_city":"ﾄﾖﾀｼ","kana_address":"ｻﾅｹﾞﾁｮｳ","pref":"愛知県","city":"豊田市","address":"猿投町"},
{"zip_code":"4700564","kana_pref":"ｱｲﾁｹﾝ","kana_city":"ﾄﾖﾀｼ","kana_address":"ｻﾜﾀﾞﾁｮｳ","pref":"愛知県","city":"豊田市","address":"沢田町"},
{"zip_code":"4700402","kana_pref":"ｱｲﾁｹﾝ","kana_city":"ﾄﾖﾀｼ","kana_address":"ｻﾝｶﾞﾁｮｳ","pref":"愛知県","city":"豊田市","address":"三箇町"},
{"zip_code":"4700373","kana_pref":"ｱｲﾁｹﾝ","kana_city":"ﾄﾖﾀｼ","kana_address":"ｼｺﾞｳﾁｮｳ","pref":"愛知県","city":"豊田市","address":"四郷町"},
{"zip_code":"4700308","kana_pref":"ｱｲﾁｹﾝ","kana_city":"ﾄﾖﾀｼ","kana_address":"ｼﾀﾞﾚﾁｮｳ","pref":"愛知県","city":"豊田市","address":"枝下町"},
{"zip_code":"4700422","kana_pref":"ｱｲﾁｹﾝ","kana_city":"ﾄﾖﾀｼ","kana_address":"ｼﾓｶﾜｸﾞﾁﾁｮｳ","pref":"愛知県","city":"豊田市","address":"下川口町"},
{"zip_code":"4700565","kana_pref":"ｱｲﾁｹﾝ","kana_city":"ﾄﾖﾀｼ","kana_address":"ｼﾓﾆｷﾞﾁｮｳ","pref":"愛知県","city":"豊田市","address":"下仁木町"},
{"zip_code":"4700319","kana_pref":"ｱｲﾁｹﾝ","kana_city":"ﾄﾖﾀｼ","kana_address":"ｼﾓﾑﾛﾁｮｳ","pref":"愛知県","city":"豊田市","address":"下室町"},
{"zip_code":"4700343","kana_pref":"ｱｲﾁｹﾝ","kana_city":"ﾄﾖﾀｼ","kana_address":"ｼﾞｮｳｽｲﾁｮｳ","pref":"愛知県","city":"豊田市","address":"浄水町"},
{"zip_code":"4700403","kana_pref":"ｱｲﾁｹﾝ","kana_city":"ﾄﾖﾀｼ","kana_address":"ｼﾗｶﾜﾁｮｳ","pref":"愛知県","city":"豊田市","address":"白川町"},
{"zip_code":"4700313","kana_pref":"ｱｲﾁｹﾝ","kana_city":"ﾄﾖﾀｼ","kana_address":"ｼﾛﾐﾁｮｳ","pref":"愛知県","city":"豊田市","address":"城見町"},
{"zip_code":"4700534","kana_pref":"ｱｲﾁｹﾝ","kana_city":"ﾄﾖﾀｼ","kana_address":"ｽﾓﾓﾁｮｳ","pref":"愛知県","city":"豊田市","address":"李町"},
{"zip_code":"4700506","kana_pref":"ｱｲﾁｹﾝ","kana_city":"ﾄﾖﾀｼ","kana_address":"ｾﾝﾐﾁｮｳ","pref":"愛知県","city":"豊田市","address":"川見町"},
{"zip_code":"4701217","kana_pref":"ｱｲﾁｹﾝ","kana_city":"ﾄﾖﾀｼ","kana_address":"ﾀｲｾｲﾁｮｳ","pref":"愛知県","city":"豊田市","address":"大成町"},
{"zip_code":"4700376","kana_pref":"ｱｲﾁｹﾝ","kana_city":"ﾄﾖﾀｼ","kana_address":"ﾀｶﾏﾁ","pref":"愛知県","city":"豊田市","address":"高町"},
{"zip_code":"4700324","kana_pref":"ｱｲﾁｹﾝ","kana_city":"ﾄﾖﾀｼ","kana_address":"ﾀｷﾐﾁｮｳ","pref":"愛知県","city":"豊田市","address":"滝見町"},
{"zip_code":"4700423","kana_pref":"ｱｲﾁｹﾝ","kana_city":"ﾄﾖﾀｼ","kana_address":"ﾀﾓﾀﾞｲﾗﾁｮｳ","pref":"愛知県","city":"豊田市","address":"田茂平町"},
{"zip_code":"4700354","kana_pref":"ｱｲﾁｹﾝ","kana_city":"ﾄﾖﾀｼ","kana_address":"ﾀﾓﾐﾁｮｳ","pref":"愛知県","city":"豊田市","address":"田籾町"},
{"zip_code":"4700545","kana_pref":"ｱｲﾁｹﾝ","kana_city":"ﾄﾖﾀｼ","kana_address":"ﾁｱﾗｲﾁｮｳ","pref":"愛知県","city":"豊田市","address":"千洗町"},
{"zip_code":"4700318","kana_pref":"ｱｲﾁｹﾝ","kana_city":"ﾄﾖﾀｼ","kana_address":"ﾁｶﾗｲｼﾁｮｳ","pref":"愛知県","city":"豊田市","address":"力石町"},
{"zip_code":"4700316","kana_pref":"ｱｲﾁｹﾝ","kana_city":"ﾄﾖﾀｼ","kana_address":"ﾁﾄﾞﾘﾁｮｳ","pref":"愛知県","city":"豊田市","address":"千鳥町"},
{"zip_code":"4700327","kana_pref":"ｱｲﾁｹﾝ","kana_city":"ﾄﾖﾀｼ","kana_address":"ﾃﾗｼﾀﾁｮｳ","pref":"愛知県","city":"豊田市","address":"寺下町"},
{"zip_code":"4700544","kana_pref":"ｱｲﾁｹﾝ","kana_city":"ﾄﾖﾀｼ","kana_address":"ﾃﾗﾀﾞｲﾗﾁｮｳ","pref":"愛知県","city":"豊田市","address":"寺平町"},
{"zip_code":"4700325","kana_pref":"ｱｲﾁｹﾝ","kana_city":"ﾄﾖﾀｼ","kana_address":"ﾃﾛﾁｮｳ","pref":"愛知県","city":"豊田市","address":"手呂町"},
{"zip_code":"4700326","kana_pref":"ｱｲﾁｹﾝ","kana_city":"ﾄﾖﾀｼ","kana_address":"ﾃﾛﾁｮｳﾄｲﾀ","pref":"愛知県","city":"豊田市","address":"手呂町樋田"},
{"zip_code":"4700512","kana_pref":"ｱｲﾁｹﾝ","kana_city":"ﾄﾖﾀｼ","kana_address":"ﾄｳｺﾞｳﾁｮｳ","pref":"愛知県","city":"豊田市","address":"東郷町"},
{"zip_code":"4700535","kana_pref":"ｱｲﾁｹﾝ","kana_city":"ﾄﾖﾀｼ","kana_address":"ﾄﾞｳﾂﾞｷﾁｮｳ","pref":"愛知県","city":"豊田市","address":"百月町"},
{"zip_code":"4701202","kana_pref":"ｱｲﾁｹﾝ","kana_city":"ﾄﾖﾀｼ","kana_address":"ﾄｶﾞﾘﾁｮｳ","pref":"愛知県","city":"豊田市","address":"渡刈町"},
{"zip_code":"4700304","kana_pref":"ｱｲﾁｹﾝ","kana_city":"ﾄﾖﾀｼ","kana_address":"ﾄﾐﾀﾞﾁｮｳ","pref":"愛知県","city":"豊田市","address":"富田町"},
{"zip_code":"4700312","kana_pref":"ｱｲﾁｹﾝ","kana_city":"ﾄﾖﾀｼ","kana_address":"ﾅｶｶﾞﾈﾁｮｳ","pref":"愛知県","city":"豊田市","address":"中金町"},
{"zip_code":"4700315","kana_pref":"ｱｲﾁｹﾝ","kana_city":"ﾄﾖﾀｼ","kana_address":"ﾅｶｷﾞﾘﾁｮｳ","pref":"愛知県","city":"豊田市","address":"中切町"},
{"zip_code":"4700317","kana_pref":"ｱｲﾁｹﾝ","kana_city":"ﾄﾖﾀｼ","kana_address":"ﾅﾗｲﾁｮｳ","pref":"愛知県","city":"豊田市","address":"成合町"},
{"zip_code":"4700554","kana_pref":"ｱｲﾁｹﾝ","kana_city":"ﾄﾖﾀｼ","kana_address":"ﾆｶｹﾁｮｳ","pref":"愛知県","city":"豊田市","address":"荷掛町"},
{"zip_code":"4700404","kana_pref":"ｱｲﾁｹﾝ","kana_city":"ﾄﾖﾀｼ","kana_address":"ﾆｼｲﾁﾉﾉﾁｮｳ","pref":"愛知県","city":"豊田市","address":"西市野々町"},
{"zip_code":"4700521","kana_pref":"ｱｲﾁｹﾝ","kana_city":"ﾄﾖﾀｼ","kana_address":"ﾆｼﾀﾝﾊﾞﾁｮｳ","pref":"愛知県","city":"豊田市","address":"西丹波町"},
{"zip_code":"4700431","kana_pref":"ｱｲﾁｹﾝ","kana_city":"ﾄﾖﾀｼ","kana_address":"ﾆｼﾅｶﾔﾏﾁｮｳ","pref":"愛知県","city":"豊田市","address":"西中山町"},
{"zip_code":"4700541","kana_pref":"ｱｲﾁｹﾝ","kana_city":"ﾄﾖﾀｼ","kana_address":"ﾆｼﾊｷﾞﾉﾋﾗﾁｮｳ","pref":"愛知県","city":"豊田市","address":"西萩平町"},
{"zip_code":"4700309","kana_pref":"ｱｲﾁｹﾝ","kana_city":"ﾄﾖﾀｼ","kana_address":"ﾆｼﾋﾛｾﾁｮｳ","pref":"愛知県","city":"豊田市","address":"西広瀬町"},
{"zip_code":"4700526","kana_pref":"ｱｲﾁｹﾝ","kana_city":"ﾄﾖﾀｼ","kana_address":"ﾆｼﾎｿﾀﾞﾁｮｳ","pref":"愛知県","city":"豊田市","address":"西細田町"},
{"zip_code":"4700314","kana_pref":"ｱｲﾁｹﾝ","kana_city":"ﾄﾖﾀｼ","kana_address":"ﾉｸﾞﾁﾁｮｳ","pref":"愛知県","city":"豊田市","address":"野口町"},
{"zip_code":"4701204","kana_pref":"ｱｲﾁｹﾝ","kana_city":"ﾄﾖﾀｼ","kana_address":"ﾊｲﾂﾞﾁｮｳ","pref":"愛知県","city":"豊田市","address":"配津町"},
{"zip_code":"4700452","kana_pref":"ｱｲﾁｹﾝ","kana_city":"ﾄﾖﾀｼ","kana_address":"ﾊｻﾏﾁｮｳ","pref":"愛知県","city":"豊田市","address":"迫町"},
{"zip_code":"4700334","kana_pref":"ｱｲﾁｹﾝ","kana_city":"ﾄﾖﾀｼ","kana_address":"ﾊﾅﾓﾄﾁｮｳ","pref":"愛知県","city":"豊田市","address":"花本町"},
{"zip_code":"4700524","kana_pref":"ｱｲﾁｹﾝ","kana_city":"ﾄﾖﾀｼ","kana_address":"ﾋｵﾓﾁｮｳ","pref":"愛知県","city":"豊田市","address":"日面町"},
{"zip_code":"4700307","kana_pref":"ｱｲﾁｹﾝ","kana_city":"ﾄﾖﾀｼ","kana_address":"ﾋｶﾞｼﾋﾛｾﾁｮｳ","pref":"愛知県","city":"豊田市","address":"東広瀬町"},
{"zip_code":"4700345","kana_pref":"ｱｲﾁｹﾝ","kana_city":"ﾄﾖﾀｼ","kana_address":"ﾋｶﾞｼﾎﾐﾁｮｳ","pref":"愛知県","city":"豊田市","address":"東保見町"},
{"zip_code":"4700514","kana_pref":"ｱｲﾁｹﾝ","kana_city":"ﾄﾖﾀｼ","kana_address":"ﾋﾗｲﾜﾁｮｳ","pref":"愛知県","city":"豊田市","address":"平岩町"},
{"zip_code":"4700331","kana_pref":"ｱｲﾁｹﾝ","kana_city":"ﾄﾖﾀｼ","kana_address":"ﾋﾗﾄﾊﾞｼﾁｮｳ","pref":"愛知県","city":"豊田市","address":"平戸橋町"},
{"zip_code":"4700523","kana_pref":"ｱｲﾁｹﾝ","kana_city":"ﾄﾖﾀｼ","kana_address":"ﾋﾗﾊﾀﾁｮｳ","pref":"愛知県","city":"豊田市","address":"平畑町"},
{"zip_code":"4700351","kana_pref":"ｱｲﾁｹﾝ","kana_city":"ﾄﾖﾀｼ","kana_address":"ﾋﾛﾊﾀﾁｮｳ","pref":"愛知県","city":"豊田市","address":"広幡町"},
{"zip_code":"4701215","kana_pref":"ｱｲﾁｹﾝ","kana_city":"ﾄﾖﾀｼ","kana_address":"ﾋﾛﾐﾁｮｳ","pref":"愛知県","city":"豊田市","address":"広美町"},
{"zip_code":"4700441","kana_pref":"ｱｲﾁｹﾝ","kana_city":"ﾄﾖﾀｼ","kana_address":"ﾌｶﾐﾁｮｳ","pref":"愛知県","city":"豊田市","address":"深見町"},
{"zip_code":"4701214","kana_pref":"ｱｲﾁｹﾝ","kana_city":"ﾄﾖﾀｼ","kana_address":"ﾌｸｼﾞｭﾁｮｳ","pref":"愛知県","city":"豊田市","address":"福受町"},
{"zip_code":"4700451","kana_pref":"ｱｲﾁｹﾝ","kana_city":"ﾄﾖﾀｼ","kana_address":"ﾌｼﾞｵｶｲｲﾉﾁｮｳ","pref":"愛知県","city":"豊田市","address":"藤岡飯野町"},
{"zip_code":"4700302","kana_pref":"ｱｲﾁｹﾝ","kana_city":"ﾄﾖﾀｼ","kana_address":"ﾌｼﾞｻﾜﾁｮｳ","pref":"愛知県","city":"豊田市","address":"藤沢町"},
{"zip_code":"4701201","kana_pref":"ｱｲﾁｹﾝ","kana_city":"ﾄﾖﾀｼ","kana_address":"ﾎｳｴｲﾁｮｳ","pref":"愛知県","city":"豊田市","address":"豊栄町"},
{"zip_code":"4700311","kana_pref":"ｱｲﾁｹﾝ","kana_city":"ﾄﾖﾀｼ","kana_address":"ﾎｳﾕｳﾁｮｳ","pref":"愛知県","city":"豊田市","address":"芳友町"},
{"zip_code":"4700461","kana_pref":"ｱｲﾁｹﾝ","kana_city":"ﾄﾖﾀｼ","kana_address":"ﾎｸｿｷﾞﾁｮｳ","pref":"愛知県","city":"豊田市","address":"北曽木町"},
{"zip_code":"4700353","kana_pref":"ｱｲﾁｹﾝ","kana_city":"ﾄﾖﾀｼ","kana_address":"ﾎﾐｶﾞｵｶ","pref":"愛知県","city":"豊田市","address":"保見ケ丘"},
{"zip_code":"4700344","kana_pref":"ｱｲﾁｹﾝ","kana_city":"ﾄﾖﾀｼ","kana_address":"ﾎﾐﾁｮｳ","pref":"愛知県","city":"豊田市","address":"保見町"},
{"zip_code":"4700363","kana_pref":"ｱｲﾁｹﾝ","kana_city":"ﾄﾖﾀｼ","kana_address":"ﾎﾝﾄｸﾁｮｳ","pref":"愛知県","city":"豊田市","address":"本徳町"},
{"zip_code":"4700362","kana_pref":"ｱｲﾁｹﾝ","kana_city":"ﾄﾖﾀｼ","kana_address":"ﾏｲｷﾞﾁｮｳ","pref":"愛知県","city":"豊田市","address":"舞木町"},
{"zip_code":"4700503","kana_pref":"ｱｲﾁｹﾝ","kana_city":"ﾄﾖﾀｼ","kana_address":"ﾏｴﾎﾞﾗﾁｮｳ","pref":"愛知県","city":"豊田市","address":"前洞町"},
{"zip_code":"4701212","kana_pref":"ｱｲﾁｹﾝ","kana_city":"ﾄﾖﾀｼ","kana_address":"ﾏｽﾂﾞｶﾋｶﾞｼﾏﾁ","pref":"愛知県","city":"豊田市","address":"桝塚東町"},
{"zip_code":"4701213","kana_pref":"ｱｲﾁｹﾝ","kana_city":"ﾄﾖﾀｼ","kana_address":"ﾏｽﾂﾞｶﾆｼﾏﾁ","pref":"愛知県","city":"豊田市","address":"桝塚西町"},
{"zip_code":"4700571","kana_pref":"ｱｲﾁｹﾝ","kana_city":"ﾄﾖﾀｼ","kana_address":"ﾏﾂﾅﾁｮｳ","pref":"愛知県","city":"豊田市","address":"松名町"},
{"zip_code":"4700301","kana_pref":"ｱｲﾁｹﾝ","kana_city":"ﾄﾖﾀｼ","kana_address":"ﾏﾂﾐﾈﾁｮｳ","pref":"愛知県","city":"豊田市","address":"松嶺町"},
{"zip_code":"4700551","kana_pref":"ｱｲﾁｹﾝ","kana_city":"ﾄﾖﾀｼ","kana_address":"ﾐﾂｸﾎﾞﾁｮｳ","pref":"愛知県","city":"豊田市","address":"三ツ久保町"},
{"zip_code":"4700424","kana_pref":"ｱｲﾁｹﾝ","kana_city":"ﾄﾖﾀｼ","kana_address":"ﾐﾂｸﾘﾁｮｳ","pref":"愛知県","city":"豊田市","address":"御作町"},
{"zip_code":"4700371","kana_pref":"ｱｲﾁｹﾝ","kana_city":"ﾄﾖﾀｼ","kana_address":"ﾐﾌﾈﾁｮｳ","pref":"愛知県","city":"豊田市","address":"御船町"},
{"zip_code":"4700516","kana_pref":"ｱｲﾁｹﾝ","kana_city":"ﾄﾖﾀｼ","kana_address":"ﾐﾔｼﾛﾁｮｳ","pref":"愛知県","city":"豊田市","address":"宮代町"},
{"zip_code":"4700356","kana_pref":"ｱｲﾁｹﾝ","kana_city":"ﾄﾖﾀｼ","kana_address":"ﾔｸｻﾁｮｳ","pref":"愛知県","city":"豊田市","address":"八草町"},
{"zip_code":"4700525","kana_pref":"ｱｲﾁｹﾝ","kana_city":"ﾄﾖﾀｼ","kana_address":"ﾔﾅﾀﾞｲﾗﾁｮｳ","pref":"愛知県","city":"豊田市","address":"簗平町"},
{"zip_code":"4700321","kana_pref":"ｱｲﾁｹﾝ","kana_city":"ﾄﾖﾀｼ","kana_address":"ﾔﾏﾅｶﾁｮｳ","pref":"愛知県","city":"豊田市","address":"山中町"},
{"zip_code":"4700563","kana_pref":"ｱｲﾁｹﾝ","kana_city":"ﾄﾖﾀｼ","kana_address":"ﾕﾔﾁｮｳ","pref":"愛知県","city":"豊田市","address":"遊屋町"},
{"zip_code":"4701100","kana_pref":"ｱｲﾁｹﾝ","kana_city":"ﾄﾖｱｹｼ","kana_address":"","pref":"愛知県","city":"豊明市","address":""},
{"zip_code":"4701141","kana_pref":"ｱｲﾁｹﾝ","kana_city":"ﾄﾖｱｹｼ","kana_address":"ｱﾉﾁｮｳ","pref":"愛知県","city":"豊明市","address":"阿野町"},
{"zip_code":"4701144","kana_pref":"ｱｲﾁｹﾝ","kana_city":"ﾄﾖｱｹｼ","kana_address":"ｱﾉﾁｮｳ","pref":"愛知県","city":"豊明市","address":"阿野町"},
{"zip_code":"4701145","kana_pref":"ｱｲﾁｹﾝ","kana_city":"ﾄﾖｱｹｼ","kana_address":"ｱﾉﾁｮｳ","pref":"愛知県","city":"豊明市","address":"阿野町"},
{"zip_code":"4701146","kana_pref":"ｱｲﾁｹﾝ","kana_city":"ﾄﾖｱｹｼ","kana_address":"ｱﾉﾁｮｳ","pref":"愛知県","city":"豊明市","address":"阿野町"},
{"zip_code":"4701147","kana_pref":"ｱｲﾁｹﾝ","kana_city":"ﾄﾖｱｹｼ","kana_address":"ｱﾉﾁｮｳ","pref":"愛知県","city":"豊明市","address":"阿野町"},
{"zip_code":"4701143","kana_pref":"ｱｲﾁｹﾝ","kana_city":"ﾄﾖｱｹｼ","kana_address":"ｱﾉﾁｮｳ","pref":"愛知県","city":"豊明市","address":"阿野町"},
{"zip_code":"4701148","kana_pref":"ｱｲﾁｹﾝ","kana_city":"ﾄﾖｱｹｼ","kana_address":"ｱﾉﾁｮｳ","pref":"愛知県","city":"豊明市","address":"阿野町"},
{"zip_code":"4701142","kana_pref":"ｱｲﾁｹﾝ","kana_city":"ﾄﾖｱｹｼ","kana_address":"ｱﾉﾁｮｳ","pref":"愛知県","city":"豊明市","address":"阿野町"},
{"zip_code":"4701111","kana_pref":"ｱｲﾁｹﾝ","kana_city":"ﾄﾖｱｹｼ","kana_address":"ｵｵｸﾃﾁｮｳ","pref":"愛知県","city":"豊明市","address":"大久伝町"},
{"zip_code":"4701101","kana_pref":"ｱｲﾁｹﾝ","kana_city":"ﾄﾖｱｹｼ","kana_address":"ｸﾂｶｹﾁｮｳ","pref":"愛知県","city":"豊明市","address":"沓掛町"},
{"zip_code":"4701108","kana_pref":"ｱｲﾁｹﾝ","kana_city":"ﾄﾖｱｹｼ","kana_address":"ｸﾂｶｹﾁｮｳ","pref":"愛知県","city":"豊明市","address":"沓掛町"},
{"zip_code":"4701107","kana_pref":"ｱｲﾁｹﾝ","kana_city":"ﾄﾖｱｹｼ","kana_address":"ｸﾂｶｹﾁｮｳ","pref":"愛知県","city":"豊明市","address":"沓掛町"},
{"zip_code":"4701105","kana_pref":"ｱｲﾁｹﾝ","kana_city":"ﾄﾖｱｹｼ","kana_address":"ｸﾂｶｹﾁｮｳ","pref":"愛知県","city":"豊明市","address":"沓掛町"},
{"zip_code":"4701106","kana_pref":"ｱｲﾁｹﾝ","kana_city":"ﾄﾖｱｹｼ","kana_address":"ｸﾂｶｹﾁｮｳ","pref":"愛知県","city":"豊明市","address":"沓掛町"},
{"zip_code":"4701103","kana_pref":"ｱｲﾁｹﾝ","kana_city":"ﾄﾖｱｹｼ","kana_address":"ｸﾂｶｹﾁｮｳ","pref":"愛知県","city":"豊明市","address":"沓掛町"},
{"zip_code":"4701104","kana_pref":"ｱｲﾁｹﾝ","kana_city":"ﾄﾖｱｹｼ","kana_address":"ｸﾂｶｹﾁｮｳ","pref":"愛知県","city":"豊明市","address":"沓掛町"},
{"zip_code":"4701109","kana_pref":"ｱｲﾁｹﾝ","kana_city":"ﾄﾖｱｹｼ","kana_address":"ｸﾂｶｹﾁｮｳ","pref":"愛知県","city":"豊明市","address":"沓掛町"},
{"zip_code":"4701102","kana_pref":"ｱｲﾁｹﾝ","kana_city":"ﾄﾖｱｹｼ","kana_address":"ｸﾂｶｹﾁｮｳ","pref":"愛知県","city":"豊明市","address":"沓掛町"},
{"zip_code":"4701161","kana_pref":"ｱｲﾁｹﾝ","kana_city":"ﾄﾖｱｹｼ","kana_address":"ｻｶｴﾁｮｳ","pref":"愛知県","city":"豊明市","address":"栄町"},
{"zip_code":"4701165","kana_pref":"ｱｲﾁｹﾝ","kana_city":"ﾄﾖｱｹｼ","kana_address":"ｻｶｴﾁｮｳ","pref":"愛知県","city":"豊明市","address":"栄町"},
{"zip_code":"4701163","kana_pref":"ｱｲﾁｹﾝ","kana_city":"ﾄﾖｱｹｼ","kana_address":"ｻｶｴﾁｮｳ","pref":"愛知県","city":"豊明市","address":"栄町"},
{"zip_code":"4701164","kana_pref":"ｱｲﾁｹﾝ","kana_city":"ﾄﾖｱｹｼ","kana_address":"ｻｶｴﾁｮｳ","pref":"愛知県","city":"豊明市","address":"栄町"},
{"zip_code":"4701166","kana_pref":"ｱｲﾁｹﾝ","kana_city":"ﾄﾖｱｹｼ","kana_address":"ｻｶｴﾁｮｳ","pref":"愛知県","city":"豊明市","address":"栄町"},
{"zip_code":"4701162","kana_pref":"ｱｲﾁｹﾝ","kana_city":"ﾄﾖｱｹｼ","kana_address":"ｻｶｴﾁｮｳ","pref":"愛知県","city":"豊明市","address":"栄町"},
{"zip_code":"4701167","kana_pref":"ｱｲﾁｹﾝ","kana_city":"ﾄﾖｱｹｼ","kana_address":"ｻｶｴﾁｮｳ","pref":"愛知県","city":"豊明市","address":"栄町"},
{"zip_code":"4701168","kana_pref":"ｱｲﾁｹﾝ","kana_city":"ﾄﾖｱｹｼ","kana_address":"ｻｶｴﾁｮｳ","pref":"愛知県","city":"豊明市","address":"栄町"},
{"zip_code":"4701154","kana_pref":"ｱｲﾁｹﾝ","kana_city":"ﾄﾖｱｹｼ","kana_address":"ｼﾝｻｶｴﾁｮｳ","pref":"愛知県","city":"豊明市","address":"新栄町"},
{"zip_code":"4701112","kana_pref":"ｱｲﾁｹﾝ","kana_city":"ﾄﾖｱｹｼ","kana_address":"ｼﾝﾃﾞﾝﾁｮｳ","pref":"愛知県","city":"豊明市","address":"新田町"},
{"zip_code":"4701113","kana_pref":"ｱｲﾁｹﾝ","kana_city":"ﾄﾖｱｹｼ","kana_address":"ｼﾝﾃﾞﾝﾁｮｳ","pref":"愛知県","city":"豊明市","address":"新田町"},
{"zip_code":"4701114","kana_pref":"ｱｲﾁｹﾝ","kana_city":"ﾄﾖｱｹｼ","kana_address":"ｼﾝﾃﾞﾝﾁｮｳ","pref":"愛知県","city":"豊明市","address":"新田町"},
{"zip_code":"4701115","kana_pref":"ｱｲﾁｹﾝ","kana_city":"ﾄﾖｱｹｼ","kana_address":"ｼﾝﾃﾞﾝﾁｮｳ","pref":"愛知県","city":"豊明市","address":"新田町"},
{"zip_code":"4701116","kana_pref":"ｱｲﾁｹﾝ","kana_city":"ﾄﾖｱｹｼ","kana_address":"ｼﾝﾃﾞﾝﾁｮｳ","pref":"愛知県","city":"豊明市","address":"新田町"},
{"zip_code":"4701151","kana_pref":"ｱｲﾁｹﾝ","kana_city":"ﾄﾖｱｹｼ","kana_address":"ｾﾞﾝｺﾞﾁｮｳ","pref":"愛知県","city":"豊明市","address":"前後町"},
{"zip_code":"4701152","kana_pref":"ｱｲﾁｹﾝ","kana_city":"ﾄﾖｱｹｼ","kana_address":"ｾﾞﾝｺﾞﾁｮｳ","pref":"愛知県","city":"豊明市","address":"前後町"},
{"zip_code":"4701153","kana_pref":"ｱｲﾁｹﾝ","kana_city":"ﾄﾖｱｹｼ","kana_address":"ｾﾞﾝｺﾞﾁｮｳ","pref":"愛知県","city":"豊明市","address":"前後町"},
{"zip_code":"4701121","kana_pref":"ｱｲﾁｹﾝ","kana_city":"ﾄﾖｱｹｼ","kana_address":"ﾆｼｶﾞﾜﾁｮｳ","pref":"愛知県","city":"豊明市","address":"西川町"},
{"zip_code":"4701122","kana_pref":"ｱｲﾁｹﾝ","kana_city":"ﾄﾖｱｹｼ","kana_address":"ﾆｼｶﾞﾜﾁｮｳ","pref":"愛知県","city":"豊明市","address":"西川町"},
{"zip_code":"4701123","kana_pref":"ｱｲﾁｹﾝ","kana_city":"ﾄﾖｱｹｼ","kana_address":"ﾆｼｶﾞﾜﾁｮｳ","pref":"愛知県","city":"豊明市","address":"西川町"},
{"zip_code":"4701131","kana_pref":"ｱｲﾁｹﾝ","kana_city":"ﾄﾖｱｹｼ","kana_address":"ﾌﾀﾑﾗﾀﾞｲ","pref":"愛知県","city":"豊明市","address":"二村台"},
{"zip_code":"4701132","kana_pref":"ｱｲﾁｹﾝ","kana_city":"ﾄﾖｱｹｼ","kana_address":"ﾏｺﾞﾒﾁｮｳ","pref":"愛知県","city":"豊明市","address":"間米町"},
{"zip_code":"4701133","kana_pref":"ｱｲﾁｹﾝ","kana_city":"ﾄﾖｱｹｼ","kana_address":"ﾏｺﾞﾒﾁｮｳ","pref":"愛知県","city":"豊明市","address":"間米町"},
{"zip_code":"4701124","kana_pref":"ｱｲﾁｹﾝ","kana_city":"ﾄﾖｱｹｼ","kana_address":"ﾐｻｷﾁｮｳ","pref":"愛知県","city":"豊明市","address":"三崎町"},
{"zip_code":"4701126","kana_pref":"ｱｲﾁｹﾝ","kana_city":"ﾄﾖｱｹｼ","kana_address":"ﾐｻｷﾁｮｳ","pref":"愛知県","city":"豊明市","address":"三崎町"},
{"zip_code":"4701125","kana_pref":"ｱｲﾁｹﾝ","kana_city":"ﾄﾖｱｹｼ","kana_address":"ﾐｻｷﾁｮｳ","pref":"愛知県","city":"豊明市","address":"三崎町"},
{"zip_code":"4701127","kana_pref":"ｱｲﾁｹﾝ","kana_city":"ﾄﾖｱｹｼ","kana_address":"ﾐｻｷﾁｮｳ","pref":"愛知県","city":"豊明市","address":"三崎町"},
{"zip_code":"4700100","kana_pref":"ｱｲﾁｹﾝ","kana_city":"ﾆｯｼﾝｼ","kana_address":"","pref":"愛知県","city":"日進市","address":""},
{"zip_code":"4700125","kana_pref":"ｱｲﾁｹﾝ","kana_city":"ﾆｯｼﾝｼ","kana_address":"ｱｶｲｹ","pref":"愛知県","city":"日進市","address":"赤池"},
{"zip_code":"4700126","kana_pref":"ｱｲﾁｹﾝ","kana_city":"ﾆｯｼﾝｼ","kana_address":"ｱｶｲｹﾁｮｳ","pref":"愛知県","city":"日進市","address":"赤池町"},
{"zip_code":"4700127","kana_pref":"ｱｲﾁｹﾝ","kana_city":"ﾆｯｼﾝｼ","kana_address":"ｱｶｲｹﾐﾅﾐ","pref":"愛知県","city":"日進市","address":"赤池南"},
{"zip_code":"4700124","kana_pref":"ｱｲﾁｹﾝ","kana_city":"ﾆｯｼﾝｼ","kana_address":"ｱｻﾀﾞﾁｮｳ","pref":"愛知県","city":"日進市","address":"浅田町"},
{"zip_code":"4700128","kana_pref":"ｱｲﾁｹﾝ","kana_city":"ﾆｯｼﾝｼ","kana_address":"ｱｻﾀﾞﾋﾗｺ","pref":"愛知県","city":"日進市","address":"浅田平子"},
{"zip_code":"4700135","kana_pref":"ｱｲﾁｹﾝ","kana_city":"ﾆｯｼﾝｼ","kana_address":"ｲﾜｻｷﾀﾞｲ","pref":"愛知県","city":"日進市","address":"岩崎台"},
{"zip_code":"4700131","kana_pref":"ｱｲﾁｹﾝ","kana_city":"ﾆｯｼﾝｼ","kana_address":"ｲﾜｻｷﾁｮｳ","pref":"愛知県","city":"日進市","address":"岩崎町"},
{"zip_code":"4700104","kana_pref":"ｱｲﾁｹﾝ","kana_city":"ﾆｯｼﾝｼ","kana_address":"ｲﾜﾌｼﾞﾁｮｳ","pref":"愛知県","city":"日進市","address":"岩藤町"},
{"zip_code":"4700133","kana_pref":"ｱｲﾁｹﾝ","kana_city":"ﾆｯｼﾝｼ","kana_address":"ｳﾒﾓﾘﾀﾞｲ","pref":"愛知県","city":"日進市","address":"梅森台"},
{"zip_code":"4700132","kana_pref":"ｱｲﾁｹﾝ","kana_city":"ﾆｯｼﾝｼ","kana_address":"ｳﾒﾓﾘﾁｮｳ","pref":"愛知県","city":"日進市","address":"梅森町"},
{"zip_code":"4700115","kana_pref":"ｱｲﾁｹﾝ","kana_city":"ﾆｯｼﾝｼ","kana_address":"ｵﾘﾄﾞﾁｮｳ","pref":"愛知県","city":"日進市","address":"折戸町"},
{"zip_code":"4700134","kana_pref":"ｱｲﾁｹﾝ","kana_city":"ﾆｯｼﾝｼ","kana_address":"ｶｸﾞﾔﾏ","pref":"愛知県","city":"日進市","address":"香久山"},
{"zip_code":"4700122","kana_pref":"ｱｲﾁｹﾝ","kana_city":"ﾆｯｼﾝｼ","kana_address":"ｶﾆｺｳﾁｮｳ","pref":"愛知県","city":"日進市","address":"蟹甲町"},
{"zip_code":"4700103","kana_pref":"ｱｲﾁｹﾝ","kana_city":"ﾆｯｼﾝｼ","kana_address":"ｷﾀｼﾝﾁｮｳ","pref":"愛知県","city":"日進市","address":"北新町"},
{"zip_code":"4700105","kana_pref":"ｱｲﾁｹﾝ","kana_city":"ﾆｯｼﾝｼ","kana_address":"ｺﾞｼｷｴﾝ","pref":"愛知県","city":"日進市","address":"五色園"},
{"zip_code":"4700111","kana_pref":"ｱｲﾁｹﾝ","kana_city":"ﾆｯｼﾝｼ","kana_address":"ｺﾒﾉｷﾁｮｳ","pref":"愛知県","city":"日進市","address":"米野木町"},
{"zip_code":"4700113","kana_pref":"ｱｲﾁｹﾝ","kana_city":"ﾆｯｼﾝｼ","kana_address":"ｻｶｴ","pref":"愛知県","city":"日進市","address":"栄"},
{"zip_code":"4700101","kana_pref":"ｱｲﾁｹﾝ","kana_city":"ﾆｯｼﾝｼ","kana_address":"ｻﾝﾎﾞﾝｷﾞﾁｮｳ","pref":"愛知県","city":"日進市","address":"三本木町"},
{"zip_code":"4700136","kana_pref":"ｱｲﾁｹﾝ","kana_city":"ﾆｯｼﾝｼ","kana_address":"ﾀｹﾉﾔﾏ","pref":"愛知県","city":"日進市","address":"竹の山"},
{"zip_code":"4700123","kana_pref":"ｱｲﾁｹﾝ","kana_city":"ﾆｯｼﾝｼ","kana_address":"ﾉｶﾀﾁｮｳ","pref":"愛知県","city":"日進市","address":"野方町"},
{"zip_code":"4700116","kana_pref":"ｱｲﾁｹﾝ","kana_city":"ﾆｯｼﾝｼ","kana_address":"ﾋｶﾞｼﾔﾏ","pref":"愛知県","city":"日進市","address":"東山"},
{"zip_code":"4700112","kana_pref":"ｱｲﾁｹﾝ","kana_city":"ﾆｯｼﾝｼ","kana_address":"ﾌｼﾞｴﾀﾞﾁｮｳ","pref":"愛知県","city":"日進市","address":"藤枝町"},
{"zip_code":"4700102","kana_pref":"ｱｲﾁｹﾝ","kana_city":"ﾆｯｼﾝｼ","kana_address":"ﾌｼﾞｼﾏﾁｮｳ","pref":"愛知県","city":"日進市","address":"藤島町"},
{"zip_code":"4700117","kana_pref":"ｱｲﾁｹﾝ","kana_city":"ﾆｯｼﾝｼ","kana_address":"ﾌｼﾞﾂｶ","pref":"愛知県","city":"日進市","address":"藤塚"},
{"zip_code":"4700121","kana_pref":"ｱｲﾁｹﾝ","kana_city":"ﾆｯｼﾝｼ","kana_address":"ﾎﾝｺﾞｳﾁｮｳ","pref":"愛知県","city":"日進市","address":"本郷町"},
{"zip_code":"4700114","kana_pref":"ｱｲﾁｹﾝ","kana_city":"ﾆｯｼﾝｼ","kana_address":"ﾐﾅﾐｶﾞｵｶ","pref":"愛知県","city":"日進市","address":"南ケ丘"},
{"zip_code":"4700200","kana_pref":"ｱｲﾁｹﾝ","kana_city":"ﾐﾖｼｼ","kana_address":"","pref":"愛知県","city":"みよし市","address":""},
{"zip_code":"4700206","kana_pref":"ｱｲﾁｹﾝ","kana_city":"ﾐﾖｼｼ","kana_address":"ｱｻﾞﾌﾞﾁｮｳ","pref":"愛知県","city":"みよし市","address":"莇生町"},
{"zip_code":"4700207","kana_pref":"ｱｲﾁｹﾝ","kana_city":"ﾐﾖｼｼ","kana_address":"ｳｷｶﾞｲﾁｮｳ","pref":"愛知県","city":"みよし市","address":"福谷町"},
{"zip_code":"4700213","kana_pref":"ｱｲﾁｹﾝ","kana_city":"ﾐﾖｼｼ","kana_address":"ｳﾁｺｼﾁｮｳ","pref":"愛知県","city":"みよし市","address":"打越町"},
{"zip_code":"4700231","kana_pref":"ｱｲﾁｹﾝ","kana_city":"ﾐﾖｼｼ","kana_address":"ｸﾛｻﾞｻ","pref":"愛知県","city":"みよし市","address":"黒笹"},
{"zip_code":"4700232","kana_pref":"ｱｲﾁｹﾝ","kana_city":"ﾐﾖｼｼ","kana_address":"ｸﾛｻﾞｻｲｽﾞﾐ","pref":"愛知県","city":"みよし市","address":"黒笹いずみ"},
{"zip_code":"4700201","kana_pref":"ｱｲﾁｹﾝ","kana_city":"ﾐﾖｼｼ","kana_address":"ｸﾛｻﾞｻﾁｮｳ","pref":"愛知県","city":"みよし市","address":"黒笹町"},
{"zip_code":"4700209","kana_pref":"ｱｲﾁｹﾝ","kana_city":"ﾐﾖｼｼ","kana_address":"ｼｵﾐ","pref":"愛知県","city":"みよし市","address":"潮見"},
{"zip_code":"4700227","kana_pref":"ｱｲﾁｹﾝ","kana_city":"ﾐﾖｼｼ","kana_address":"ｿﾉﾊﾗ","pref":"愛知県","city":"みよし市","address":"園原"},
{"zip_code":"4700211","kana_pref":"ｱｲﾁｹﾝ","kana_city":"ﾐﾖｼｼ","kana_address":"ﾃﾝﾉｳﾀﾞｲ","pref":"愛知県","city":"みよし市","address":"天王台"},
{"zip_code":"4700226","kana_pref":"ｱｲﾁｹﾝ","kana_city":"ﾐﾖｼｼ","kana_address":"ﾆｼｲｼｷﾁｮｳ","pref":"愛知県","city":"みよし市","address":"西一色町"},
{"zip_code":"4700221","kana_pref":"ｱｲﾁｹﾝ","kana_city":"ﾐﾖｼｼ","kana_address":"ﾆｼｼﾞﾝﾄﾘﾔﾏ","pref":"愛知県","city":"みよし市","address":"西陣取山"},
{"zip_code":"4700222","kana_pref":"ｱｲﾁｹﾝ","kana_city":"ﾐﾖｼｼ","kana_address":"ﾋｶﾞｼｼﾞﾝﾄﾘﾔﾏ","pref":"愛知県","city":"みよし市","address":"東陣取山"},
{"zip_code":"4700223","kana_pref":"ｱｲﾁｹﾝ","kana_city":"ﾐﾖｼｼ","kana_address":"ﾋｶﾞｼﾊﾁｶﾞｲｹ","pref":"愛知県","city":"みよし市","address":"東蜂ヶ池"},
{"zip_code":"4700212","kana_pref":"ｱｲﾁｹﾝ","kana_city":"ﾐﾖｼｼ","kana_address":"ﾋｶﾞｼﾔﾏﾀﾞｲ","pref":"愛知県","city":"みよし市","address":"東山台"},
{"zip_code":"4700208","kana_pref":"ｱｲﾁｹﾝ","kana_city":"ﾐﾖｼｼ","kana_address":"ﾋﾊﾞﾘｶﾞｵｶ","pref":"愛知県","city":"みよし市","address":"ひばりヶ丘"},
{"zip_code":"4700225","kana_pref":"ｱｲﾁｹﾝ","kana_city":"ﾐﾖｼｼ","kana_address":"ﾌｸﾀﾁｮｳ","pref":"愛知県","city":"みよし市","address":"福田町"},
{"zip_code":"4700215","kana_pref":"ｱｲﾁｹﾝ","kana_city":"ﾐﾖｼｼ","kana_address":"ﾐﾅﾖｼﾀﾞｲ","pref":"愛知県","city":"みよし市","address":"みなよし台"},
{"zip_code":"4700214","kana_pref":"ｱｲﾁｹﾝ","kana_city":"ﾐﾖｼｼ","kana_address":"ﾐｮｳﾁﾁｮｳ","pref":"愛知県","city":"みよし市","address":"明知町"},
{"zip_code":"4700202","kana_pref":"ｱｲﾁｹﾝ","kana_city":"ﾐﾖｼｼ","kana_address":"ﾐﾖｼｶﾞｵｶ","pref":"愛知県","city":"みよし市","address":"三好丘"},
{"zip_code":"4700233","kana_pref":"ｱｲﾁｹﾝ","kana_city":"ﾐﾖｼｼ","kana_address":"ﾐﾖｼｶﾞｵｶｱｵﾊﾞ","pref":"愛知県","city":"みよし市","address":"三好丘あおば"},
{"zip_code":"4700203","kana_pref":"ｱｲﾁｹﾝ","kana_city":"ﾐﾖｼｼ","kana_address":"ﾐﾖｼｶﾞｵｶｱｻﾋ","pref":"愛知県","city":"みよし市","address":"三好丘旭"},
{"zip_code":"4700204","kana_pref":"ｱｲﾁｹﾝ","kana_city":"ﾐﾖｼｼ","kana_address":"ﾐﾖｼｶﾞｵｶｻｸﾗ","pref":"愛知県","city":"みよし市","address":"三好丘桜"},
{"zip_code":"4700205","kana_pref":"ｱｲﾁｹﾝ","kana_city":"ﾐﾖｼｼ","kana_address":"ﾐﾖｼｶﾞｵｶﾐﾄﾞﾘ","pref":"愛知県","city":"みよし市","address":"三好丘緑"},
{"zip_code":"4700224","kana_pref":"ｱｲﾁｹﾝ","kana_city":"ﾐﾖｼｼ","kana_address":"ﾐﾖｼﾁｮｳ","pref":"愛知県","city":"みよし市","address":"三好町"},
{"zip_code":"4700100","kana_pref":"ｱｲﾁｹﾝ","kana_city":"ｱｲﾁｸﾞﾝﾄｳｺﾞｳﾁｮｳ","kana_address":"","pref":"愛知県","city":"愛知郡東郷町","address":""},
{"zip_code":"4700152","kana_pref":"ｱｲﾁｹﾝ","kana_city":"ｱｲﾁｸﾞﾝﾄｳｺﾞｳﾁｮｳ","kana_address":"ｷﾀﾔﾏﾀﾞｲ","pref":"愛知県","city":"愛知郡東郷町","address":"北山台"},
{"zip_code":"4700155","kana_pref":"ｱｲﾁｹﾝ","kana_city":"ｱｲﾁｸﾞﾝﾄｳｺﾞｳﾁｮｳ","kana_address":"ｼﾗﾄﾘ","pref":"愛知県","city":"愛知郡東郷町","address":"白鳥"},
{"zip_code":"4700165","kana_pref":"ｱｲﾁｹﾝ","kana_city":"ｱｲﾁｸﾞﾝﾄｳｺﾞｳﾁｮｳ","kana_address":"ｼﾐｽﾞ","pref":"愛知県","city":"愛知郡東郷町","address":"清水"},
{"zip_code":"4700163","kana_pref":"ｱｲﾁｹﾝ","kana_city":"ｱｲﾁｸﾞﾝﾄｳｺﾞｳﾁｮｳ","kana_address":"ｽｽﾞﾐﾏﾂ","pref":"愛知県","city":"愛知郡東郷町","address":"涼松"},
{"zip_code":"4700162","kana_pref":"ｱｲﾁｹﾝ","kana_city":"ｱｲﾁｸﾞﾝﾄｳｺﾞｳﾁｮｳ","kana_address":"ﾊﾙｷ","pref":"愛知県","city":"愛知郡東郷町","address":"春木"},
{"zip_code":"4700161","kana_pref":"ｱｲﾁｹﾝ","kana_city":"ｱｲﾁｸﾞﾝﾄｳｺﾞｳﾁｮｳ","kana_address":"ﾊﾙｷﾀﾞｲ","pref":"愛知県","city":"愛知郡東郷町","address":"春木台"},
{"zip_code":"4700166","kana_pref":"ｱｲﾁｹﾝ","kana_city":"ｱｲﾁｸﾞﾝﾄｳｺﾞｳﾁｮｳ","kana_address":"ﾋｮｳｺﾞ","pref":"愛知県","city":"愛知郡東郷町","address":"兵庫"},
{"zip_code":"4700156","kana_pref":"ｱｲﾁｹﾝ","kana_city":"ｱｲﾁｸﾞﾝﾄｳｺﾞｳﾁｮｳ","kana_address":"ﾐﾀｹ","pref":"愛知県","city":"愛知郡東郷町","address":"御岳"},
{"zip_code":"4700164","kana_pref":"ｱｲﾁｹﾝ","kana_city":"ｱｲﾁｸﾞﾝﾄｳｺﾞｳﾁｮｳ","kana_address":"ﾐﾂｲｹ","pref":"愛知県","city":"愛知郡東郷町","address":"三ツ池"},
{"zip_code":"4700151","kana_pref":"ｱｲﾁｹﾝ","kana_city":"ｱｲﾁｸﾞﾝﾄｳｺﾞｳﾁｮｳ","kana_address":"ﾓﾛﾜ","pref":"愛知県","city":"愛知郡東郷町","address":"諸輪"},
{"zip_code":"4700153","kana_pref":"ｱｲﾁｹﾝ","kana_city":"ｱｲﾁｸﾞﾝﾄｳｺﾞｳﾁｮｳ","kana_address":"ﾜｺﾞｳ","pref":"愛知県","city":"愛知郡東郷町","address":"和合"},
{"zip_code":"4700154","kana_pref":"ｱｲﾁｹﾝ","kana_city":"ｱｲﾁｸﾞﾝﾄｳｺﾞｳﾁｮｳ","kana_address":"ﾜｺﾞｳｶﾞｵｶ","pref":"愛知県","city":"愛知郡東郷町","address":"和合ケ丘"},
{"zip_code":"4702200","kana_pref":"ｱｲﾁｹﾝ","kana_city":"ﾁﾀｸﾞﾝｱｸﾞｲﾁｮｳ","kana_address":"","pref":"愛知県","city":"知多郡阿久比町","address":""},
{"zip_code":"4702213","kana_pref":"ｱｲﾁｹﾝ","kana_city":"ﾁﾀｸﾞﾝｱｸﾞｲﾁｮｳ","kana_address":"ｱｸﾞｲ","pref":"愛知県","city":"知多郡阿久比町","address":"阿久比"},
{"zip_code":"4702203","kana_pref":"ｱｲﾁｹﾝ","kana_city":"ﾁﾀｸﾞﾝｱｸﾞｲﾁｮｳ","kana_address":"ｲﾀﾔﾏ","pref":"愛知県","city":"知多郡阿久比町","address":"板山"},
{"zip_code":"4702216","kana_pref":"ｱｲﾁｹﾝ","kana_city":"ﾁﾀｸﾞﾝｱｸﾞｲﾁｮｳ","kana_address":"ｳｴﾀﾞｲ","pref":"愛知県","city":"知多郡阿久比町","address":"植大"},
{"zip_code":"4702212","kana_pref":"ｱｲﾁｹﾝ","kana_city":"ﾁﾀｸﾞﾝｱｸﾞｲﾁｮｳ","kana_address":"ｳｻｶ","pref":"愛知県","city":"知多郡阿久比町","address":"卯坂"},
{"zip_code":"4702211","kana_pref":"ｱｲﾁｹﾝ","kana_city":"ﾁﾀｸﾞﾝｱｸﾞｲﾁｮｳ","kana_address":"ｸｻｷﾞ","pref":"愛知県","city":"知多郡阿久比町","address":"草木"},
{"zip_code":"4702201","kana_pref":"ｱｲﾁｹﾝ","kana_city":"ﾁﾀｸﾞﾝｱｸﾞｲﾁｮｳ","kana_address":"ｼﾗｻﾜ","pref":"愛知県","city":"知多郡阿久比町","address":"白沢"},
{"zip_code":"4702205","kana_pref":"ｱｲﾁｹﾝ","kana_city":"ﾁﾀｸﾞﾝｱｸﾞｲﾁｮｳ","kana_address":"ﾊｷﾞ","pref":"愛知県","city":"知多郡阿久比町","address":"萩"},
{"zip_code":"4702207","kana_pref":"ｱｲﾁｹﾝ","kana_city":"ﾁﾀｸﾞﾝｱｸﾞｲﾁｮｳ","kana_address":"ﾋﾅﾀﾉｵｶ","pref":"愛知県","city":"知多郡阿久比町","address":"陽なたの丘"},
{"zip_code":"4702202","kana_pref":"ｱｲﾁｹﾝ","kana_city":"ﾁﾀｸﾞﾝｱｸﾞｲﾁｮｳ","kana_address":"ﾌｸｽﾐ","pref":"愛知県","city":"知多郡阿久比町","address":"福住"},
{"zip_code":"4702204","kana_pref":"ｱｲﾁｹﾝ","kana_city":"ﾁﾀｸﾞﾝｱｸﾞｲﾁｮｳ","kana_address":"ﾐﾔﾂﾞ","pref":"愛知県","city":"知多郡阿久比町","address":"宮津"},
{"zip_code":"4702214","kana_pref":"ｱｲﾁｹﾝ","kana_city":"ﾁﾀｸﾞﾝｱｸﾞｲﾁｮｳ","kana_address":"ﾑｸｵｶ","pref":"愛知県","city":"知多郡阿久比町","address":"椋岡"},
{"zip_code":"4702215","kana_pref":"ｱｲﾁｹﾝ","kana_city":"ﾁﾀｸﾞﾝｱｸﾞｲﾁｮｳ","kana_address":"ﾔﾀｶ","pref":"愛知県","city":"知多郡阿久比町","address":"矢高"},
{"zip_code":"4702206","kana_pref":"ｱｲﾁｹﾝ","kana_city":"ﾁﾀｸﾞﾝｱｸﾞｲﾁｮｳ","kana_address":"ﾖｺﾏﾂ","pref":"愛知県","city":"知多郡阿久比町","address":"横松"},
{"zip_code":"4702100","kana_pref":"ｱｲﾁｹﾝ","kana_city":"ﾁﾀｸﾞﾝﾋｶﾞｼｳﾗﾁｮｳ","kana_address":"","pref":"愛知県","city":"知多郡東浦町","address":""},
{"zip_code":"4702104","kana_pref":"ｱｲﾁｹﾝ","kana_city":"ﾁﾀｸﾞﾝﾋｶﾞｼｳﾗﾁｮｳ","kana_address":"ｲｸｼﾞ","pref":"愛知県","city":"知多郡東浦町","address":"生路"},
{"zip_code":"4702103","kana_pref":"ｱｲﾁｹﾝ","kana_city":"ﾁﾀｸﾞﾝﾋｶﾞｼｳﾗﾁｮｳ","kana_address":"ｲｼﾊﾏ","pref":"愛知県","city":"知多郡東浦町","address":"石浜"},
{"zip_code":"4702102","kana_pref":"ｱｲﾁｹﾝ","kana_city":"ﾁﾀｸﾞﾝﾋｶﾞｼｳﾗﾁｮｳ","kana_address":"ｵｶﾞﾜ","pref":"愛知県","city":"知多郡東浦町","address":"緒川"},
{"zip_code":"4702105","kana_pref":"ｱｲﾁｹﾝ","kana_city":"ﾁﾀｸﾞﾝﾋｶﾞｼｳﾗﾁｮｳ","kana_address":"ﾌｼﾞｴ","pref":"愛知県","city":"知多郡東浦町","address":"藤江"},
{"zip_code":"4702101","kana_pref":"ｱｲﾁｹﾝ","kana_city":"ﾁﾀｸﾞﾝﾋｶﾞｼｳﾗﾁｮｳ","kana_address":"ﾓﾘｵｶ","pref":"愛知県","city":"知多郡東浦町","address":"森岡"},
{"zip_code":"4703300","kana_pref":"ｱｲﾁｹﾝ","kana_city":"ﾁﾀｸﾞﾝﾐﾅﾐﾁﾀﾁｮｳ","kana_address":"","pref":"愛知県","city":"知多郡南知多町","address":""},
{"zip_code":"4703321","kana_pref":"ｱｲﾁｹﾝ","kana_city":"ﾁﾀｸﾞﾝﾐﾅﾐﾁﾀﾁｮｳ","kana_address":"ｳﾂﾐ","pref":"愛知県","city":"知多郡南知多町","address":"内海"},
{"zip_code":"4703501","kana_pref":"ｱｲﾁｹﾝ","kana_city":"ﾁﾀｸﾞﾝﾐﾅﾐﾁﾀﾁｮｳ","kana_address":"ｵｵｲ","pref":"愛知県","city":"知多郡南知多町","address":"大井"},
{"zip_code":"4703502","kana_pref":"ｱｲﾁｹﾝ","kana_city":"ﾁﾀｸﾞﾝﾐﾅﾐﾁﾀﾁｮｳ","kana_address":"ｶﾀﾅ","pref":"愛知県","city":"知多郡南知多町","address":"片名"},
{"zip_code":"4703505","kana_pref":"ｱｲﾁｹﾝ","kana_city":"ﾁﾀｸﾞﾝﾐﾅﾐﾁﾀﾁｮｳ","kana_address":"ｼﾉｼﾞﾏ","pref":"愛知県","city":"知多郡南知多町","address":"篠島"},
{"zip_code":"4703411","kana_pref":"ｱｲﾁｹﾝ","kana_city":"ﾁﾀｸﾞﾝﾐﾅﾐﾁﾀﾁｮｳ","kana_address":"ﾄﾖｵｶ","pref":"愛知県","city":"知多郡南知多町","address":"豊丘"},
{"zip_code":"4703412","kana_pref":"ｱｲﾁｹﾝ","kana_city":"ﾁﾀｸﾞﾝﾐﾅﾐﾁﾀﾁｮｳ","kana_address":"ﾄﾖﾊﾏ","pref":"愛知県","city":"知多郡南知多町","address":"豊浜"},
{"zip_code":"4703504","kana_pref":"ｱｲﾁｹﾝ","kana_city":"ﾁﾀｸﾞﾝﾐﾅﾐﾁﾀﾁｮｳ","kana_address":"ﾋﾏｶｼﾞﾏ","pref":"愛知県","city":"知多郡南知多町","address":"日間賀島"},
{"zip_code":"4703503","kana_pref":"ｱｲﾁｹﾝ","kana_city":"ﾁﾀｸﾞﾝﾐﾅﾐﾁﾀﾁｮｳ","kana_address":"ﾓﾛｻﾞｷ","pref":"愛知県","city":"知多郡南知多町","address":"師崎"},
{"zip_code":"4703322","kana_pref":"ｱｲﾁｹﾝ","kana_city":"ﾁﾀｸﾞﾝﾐﾅﾐﾁﾀﾁｮｳ","kana_address":"ﾔﾏﾐ","pref":"愛知県","city":"知多郡南知多町","address":"山海"},
{"zip_code":"4703200","kana_pref":"ｱｲﾁｹﾝ","kana_city":"ﾁﾀｸﾞﾝﾐﾊﾏﾁｮｳ","kana_address":"","pref":"愛知県","city":"知多郡美浜町","address":""},
{"zip_code":"4702412","kana_pref":"ｱｲﾁｹﾝ","kana_city":"ﾁﾀｸﾞﾝﾐﾊﾏﾁｮｳ","kana_address":"ｳﾗﾄ","pref":"愛知県","city":"知多郡美浜町","address":"浦戸"},
{"zip_code":"4703233","kana_pref":"ｱｲﾁｹﾝ","kana_city":"ﾁﾀｸﾞﾝﾐﾊﾏﾁｮｳ","kana_address":"ｵｸﾀﾞ","pref":"愛知県","city":"知多郡美浜町","address":"奥田"},
{"zip_code":"4703236","kana_pref":"ｱｲﾁｹﾝ","kana_city":"ﾁﾀｸﾞﾝﾐﾊﾏﾁｮｳ","kana_address":"ｵﾉｳﾗ","pref":"愛知県","city":"知多郡美浜町","address":"小野浦"},
{"zip_code":"4703231","kana_pref":"ｱｲﾁｹﾝ","kana_city":"ﾁﾀｸﾞﾝﾐﾊﾏﾁｮｳ","kana_address":"ｶﾐﾉﾏ","pref":"愛知県","city":"知多郡美浜町","address":"上野間"},
{"zip_code":"4702403","kana_pref":"ｱｲﾁｹﾝ","kana_city":"ﾁﾀｸﾞﾝﾐﾊﾏﾁｮｳ","kana_address":"ｷﾀｶﾞﾀ","pref":"愛知県","city":"知多郡美浜町","address":"北方"},
{"zip_code":"4702413","kana_pref":"ｱｲﾁｹﾝ","kana_city":"ﾁﾀｸﾞﾝﾐﾊﾏﾁｮｳ","kana_address":"ｺｳ","pref":"愛知県","city":"知多郡美浜町","address":"古布"},
{"zip_code":"4702404","kana_pref":"ｱｲﾁｹﾝ","kana_city":"ﾁﾀｸﾞﾝﾐﾊﾏﾁｮｳ","kana_address":"ｺｳﾜ","pref":"愛知県","city":"知多郡美浜町","address":"河和"},
{"zip_code":"4702409","kana_pref":"ｱｲﾁｹﾝ","kana_city":"ﾁﾀｸﾞﾝﾐﾊﾏﾁｮｳ","kana_address":"ｺｳﾜ","pref":"愛知県","city":"知多郡美浜町","address":"河和"},
{"zip_code":"4702406","kana_pref":"ｱｲﾁｹﾝ","kana_city":"ﾁﾀｸﾞﾝﾐﾊﾏﾁｮｳ","kana_address":"ｺｳﾜ","pref":"愛知県","city":"知多郡美浜町","address":"河和"},
{"zip_code":"4702407","kana_pref":"ｱｲﾁｹﾝ","kana_city":"ﾁﾀｸﾞﾝﾐﾊﾏﾁｮｳ","kana_address":"ｺｳﾜ","pref":"愛知県","city":"知多郡美浜町","address":"河和"},
{"zip_code":"4702408","kana_pref":"ｱｲﾁｹﾝ","kana_city":"ﾁﾀｸﾞﾝﾐﾊﾏﾁｮｳ","kana_address":"ｺｳﾜ","pref":"愛知県","city":"知多郡美浜町","address":"河和"},
{"zip_code":"4702405","kana_pref":"ｱｲﾁｹﾝ","kana_city":"ﾁﾀｸﾞﾝﾐﾊﾏﾁｮｳ","kana_address":"ｺｳﾜﾀﾞｲ","pref":"愛知県","city":"知多郡美浜町","address":"河和台"},
{"zip_code":"4702411","kana_pref":"ｱｲﾁｹﾝ","kana_city":"ﾁﾀｸﾞﾝﾐﾊﾏﾁｮｳ","kana_address":"ｼﾝｳﾗﾄ","pref":"愛知県","city":"知多郡美浜町","address":"新浦戸"},
{"zip_code":"4703234","kana_pref":"ｱｲﾁｹﾝ","kana_city":"ﾁﾀｸﾞﾝﾐﾊﾏﾁｮｳ","kana_address":"ｼﾝｻｶｴ","pref":"愛知県","city":"知多郡美浜町","address":"新栄"},
{"zip_code":"4702402","kana_pref":"ｱｲﾁｹﾝ","kana_city":"ﾁﾀｸﾞﾝﾐﾊﾏﾁｮｳ","kana_address":"ﾄｷｼ","pref":"愛知県","city":"知多郡美浜町","address":"時志"},
{"zip_code":"4702414","kana_pref":"ｱｲﾁｹﾝ","kana_city":"ﾁﾀｸﾞﾝﾐﾊﾏﾁｮｳ","kana_address":"ﾄﾖｵｶ","pref":"愛知県","city":"知多郡美浜町","address":"豊丘"},
{"zip_code":"4703235","kana_pref":"ｱｲﾁｹﾝ","kana_city":"ﾁﾀｸﾞﾝﾐﾊﾏﾁｮｳ","kana_address":"ﾉﾏ","pref":"愛知県","city":"知多郡美浜町","address":"野間"},
{"zip_code":"4702401","kana_pref":"ｱｲﾁｹﾝ","kana_city":"ﾁﾀｸﾞﾝﾐﾊﾏﾁｮｳ","kana_address":"ﾌｯﾄ","pref":"愛知県","city":"知多郡美浜町","address":"布土"},
{"zip_code":"4703232","kana_pref":"ｱｲﾁｹﾝ","kana_city":"ﾁﾀｸﾞﾝﾐﾊﾏﾁｮｳ","kana_address":"ﾐﾊﾏﾘｮｸｴﾝ","pref":"愛知県","city":"知多郡美浜町","address":"美浜緑苑"},
{"zip_code":"4702300","kana_pref":"ｱｲﾁｹﾝ","kana_city":"ﾁﾀｸﾞﾝﾀｹﾄﾖﾁｮｳ","kana_address":"","pref":"愛知県","city":"知多郡武豊町","address":""},
{"zip_code":"4702384","kana_pref":"ｱｲﾁｹﾝ","kana_city":"ﾁﾀｸﾞﾝﾀｹﾄﾖﾁｮｳ","kana_address":"ｱｵｷｶﾞｵｶ","pref":"愛知県","city":"知多郡武豊町","address":"青木ケ丘"},
{"zip_code":"4702332","kana_pref":"ｱｲﾁｹﾝ","kana_city":"ﾁﾀｸﾞﾝﾀｹﾄﾖﾁｮｳ","kana_address":"ｱｹﾞ","pref":"愛知県","city":"知多郡武豊町","address":"上ケ"},
{"zip_code":"4702514","kana_pref":"ｱｲﾁｹﾝ","kana_city":"ﾁﾀｸﾞﾝﾀｹﾄﾖﾁｮｳ","kana_address":"ｱｻﾋ","pref":"愛知県","city":"知多郡武豊町","address":"旭"},
{"zip_code":"4702363","kana_pref":"ｱｲﾁｹﾝ","kana_city":"ﾁﾀｸﾞﾝﾀｹﾄﾖﾁｮｳ","kana_address":"ｱｻﾋｶﾞｵｶ","pref":"愛知県","city":"知多郡武豊町","address":"旭ケ丘"},
{"zip_code":"4702314","kana_pref":"ｱｲﾁｹﾝ","kana_city":"ﾁﾀｸﾞﾝﾀｹﾄﾖﾁｮｳ","kana_address":"ｱｻﾐｽﾞ","pref":"愛知県","city":"知多郡武豊町","address":"浅水"},
{"zip_code":"4702329","kana_pref":"ｱｲﾁｹﾝ","kana_city":"ﾁﾀｸﾞﾝﾀｹﾄﾖﾁｮｳ","kana_address":"ｲｹﾀﾞ","pref":"愛知県","city":"知多郡武豊町","address":"池田"},
{"zip_code":"4702311","kana_pref":"ｱｲﾁｹﾝ","kana_city":"ﾁﾀｸﾞﾝﾀｹﾄﾖﾁｮｳ","kana_address":"ｲｼｶﾜ","pref":"愛知県","city":"知多郡武豊町","address":"石川"},
{"zip_code":"4702551","kana_pref":"ｱｲﾁｹﾝ","kana_city":"ﾁﾀｸﾞﾝﾀｹﾄﾖﾁｮｳ","kana_address":"ｲｼﾀﾞ","pref":"愛知県","city":"知多郡武豊町","address":"石田"},
{"zip_code":"4702513","kana_pref":"ｱｲﾁｹﾝ","kana_city":"ﾁﾀｸﾞﾝﾀｹﾄﾖﾁｮｳ","kana_address":"ｲﾁｺﾞｳﾁ","pref":"愛知県","city":"知多郡武豊町","address":"一号地"},
{"zip_code":"4702301","kana_pref":"ｱｲﾁｹﾝ","kana_city":"ﾁﾀｸﾞﾝﾀｹﾄﾖﾁｮｳ","kana_address":"ｲｯﾁｮｳﾀﾞ","pref":"愛知県","city":"知多郡武豊町","address":"壱町田"},
{"zip_code":"4702506","kana_pref":"ｱｲﾁｹﾝ","kana_city":"ﾁﾀｸﾞﾝﾀｹﾄﾖﾁｮｳ","kana_address":"ｳｼﾛﾀﾞ","pref":"愛知県","city":"知多郡武豊町","address":"後田"},
{"zip_code":"4702503","kana_pref":"ｱｲﾁｹﾝ","kana_city":"ﾁﾀｸﾞﾝﾀｹﾄﾖﾁｮｳ","kana_address":"ｳｼﾛﾊﾞﾀ","pref":"愛知県","city":"知多郡武豊町","address":"後畑"},
{"zip_code":"4702324","kana_pref":"ｱｲﾁｹﾝ","kana_city":"ﾁﾀｸﾞﾝﾀｹﾄﾖﾁｮｳ","kana_address":"ｳﾁｶﾝﾅ","pref":"愛知県","city":"知多郡武豊町","address":"内鉋"},
{"zip_code":"4702377","kana_pref":"ｱｲﾁｹﾝ","kana_city":"ﾁﾀｸﾞﾝﾀｹﾄﾖﾁｮｳ","kana_address":"ｴｹﾞ","pref":"愛知県","city":"知多郡武豊町","address":"会下"},
{"zip_code":"4702337","kana_pref":"ｱｲﾁｹﾝ","kana_city":"ﾁﾀｸﾞﾝﾀｹﾄﾖﾁｮｳ","kana_address":"ｴｹﾞﾔｼｷ","pref":"愛知県","city":"知多郡武豊町","address":"ヱケ屋敷"},
{"zip_code":"4702366","kana_pref":"ｱｲﾁｹﾝ","kana_city":"ﾁﾀｸﾞﾝﾀｹﾄﾖﾁｮｳ","kana_address":"ｵｵｶﾞｹ","pref":"愛知県","city":"知多郡武豊町","address":"ヲヲガケ"},
{"zip_code":"4702543","kana_pref":"ｱｲﾁｹﾝ","kana_city":"ﾁﾀｸﾞﾝﾀｹﾄﾖﾁｮｳ","kana_address":"ｵｵﾔｼｷ","pref":"愛知県","city":"知多郡武豊町","address":"大屋敷"},
{"zip_code":"4702344","kana_pref":"ｱｲﾁｹﾝ","kana_city":"ﾁﾀｸﾞﾝﾀｹﾄﾖﾁｮｳ","kana_address":"ｶﾅｹﾞ","pref":"愛知県","city":"知多郡武豊町","address":"金下"},
{"zip_code":"4702302","kana_pref":"ｱｲﾁｹﾝ","kana_city":"ﾁﾀｸﾞﾝﾀｹﾄﾖﾁｮｳ","kana_address":"ｶﾉｺﾀﾞ","pref":"愛知県","city":"知多郡武豊町","address":"鹿ノ子田"},
{"zip_code":"4702364","kana_pref":"ｱｲﾁｹﾝ","kana_city":"ﾁﾀｸﾞﾝﾀｹﾄﾖﾁｮｳ","kana_address":"ｶﾐｵｺｼ","pref":"愛知県","city":"知多郡武豊町","address":"上起"},
{"zip_code":"4702376","kana_pref":"ｱｲﾁｹﾝ","kana_city":"ﾁﾀｸﾞﾝﾀｹﾄﾖﾁｮｳ","kana_address":"ｶﾐﾊﾗ","pref":"愛知県","city":"知多郡武豊町","address":"上原"},
{"zip_code":"4702387","kana_pref":"ｱｲﾁｹﾝ","kana_city":"ﾁﾀｸﾞﾝﾀｹﾄﾖﾁｮｳ","kana_address":"ｶﾐﾔﾏ","pref":"愛知県","city":"知多郡武豊町","address":"上山"},
{"zip_code":"4702306","kana_pref":"ｱｲﾁｹﾝ","kana_city":"ﾁﾀｸﾞﾝﾀｹﾄﾖﾁｮｳ","kana_address":"ｶﾐﾔﾏﾉﾀ","pref":"愛知県","city":"知多郡武豊町","address":"上山ノ田"},
{"zip_code":"4702354","kana_pref":"ｱｲﾁｹﾝ","kana_city":"ﾁﾀｸﾞﾝﾀｹﾄﾖﾁｮｳ","kana_address":"ｶﾜｼﾞﾘ","pref":"愛知県","city":"知多郡武豊町","address":"川尻"},
{"zip_code":"4702508","kana_pref":"ｱｲﾁｹﾝ","kana_city":"ﾁﾀｸﾞﾝﾀｹﾄﾖﾁｮｳ","kana_address":"ｶﾜﾜｷ","pref":"愛知県","city":"知多郡武豊町","address":"川脇"},
{"zip_code":"4702312","kana_pref":"ｱｲﾁｹﾝ","kana_city":"ﾁﾀｸﾞﾝﾀｹﾄﾖﾁｮｳ","kana_address":"ｷﾀｸﾞﾙﾜ","pref":"愛知県","city":"知多郡武豊町","address":"北曲輪"},
{"zip_code":"4702379","kana_pref":"ｱｲﾁｹﾝ","kana_city":"ﾁﾀｸﾞﾝﾀｹﾄﾖﾁｮｳ","kana_address":"ｷﾀｺﾏﾂﾀﾞﾆ","pref":"愛知県","city":"知多郡武豊町","address":"北小松谷"},
{"zip_code":"4702547","kana_pref":"ｱｲﾁｹﾝ","kana_city":"ﾁﾀｸﾞﾝﾀｹﾄﾖﾁｮｳ","kana_address":"ｷﾀｼﾝﾃﾞﾝ","pref":"愛知県","city":"知多郡武豊町","address":"北新田"},
{"zip_code":"4702385","kana_pref":"ｱｲﾁｹﾝ","kana_city":"ﾁﾀｸﾞﾝﾀｹﾄﾖﾁｮｳ","kana_address":"ｷﾀﾅｶﾈ","pref":"愛知県","city":"知多郡武豊町","address":"北中根"},
{"zip_code":"4702383","kana_pref":"ｱｲﾁｹﾝ","kana_city":"ﾁﾀｸﾞﾝﾀｹﾄﾖﾁｮｳ","kana_address":"ｷﾀﾅｶﾞﾑﾈ","pref":"愛知県","city":"知多郡武豊町","address":"北長宗"},
{"zip_code":"4702313","kana_pref":"ｱｲﾁｹﾝ","kana_city":"ﾁﾀｸﾞﾝﾀｹﾄﾖﾁｮｳ","kana_address":"ｷｭｳｺﾞｳﾁ","pref":"愛知県","city":"知多郡武豊町","address":"九号地"},
{"zip_code":"4702552","kana_pref":"ｱｲﾁｹﾝ","kana_city":"ﾁﾀｸﾞﾝﾀｹﾄﾖﾁｮｳ","kana_address":"ｸｻｸﾞﾁ","pref":"愛知県","city":"知多郡武豊町","address":"草口"},
{"zip_code":"4702358","kana_pref":"ｱｲﾁｹﾝ","kana_city":"ﾁﾀｸﾞﾝﾀｹﾄﾖﾁｮｳ","kana_address":"ｸｽﾉｷ","pref":"愛知県","city":"知多郡武豊町","address":"楠"},
{"zip_code":"4702323","kana_pref":"ｱｲﾁｹﾝ","kana_city":"ﾁﾀｸﾞﾝﾀｹﾄﾖﾁｮｳ","kana_address":"ｸﾁﾀﾞ","pref":"愛知県","city":"知多郡武豊町","address":"口田"},
{"zip_code":"4702504","kana_pref":"ｱｲﾁｹﾝ","kana_city":"ﾁﾀｸﾞﾝﾀｹﾄﾖﾁｮｳ","kana_address":"ｸﾏﾉ","pref":"愛知県","city":"知多郡武豊町","address":"熊野"},
{"zip_code":"4702357","kana_pref":"ｱｲﾁｹﾝ","kana_city":"ﾁﾀｸﾞﾝﾀｹﾄﾖﾁｮｳ","kana_address":"ｺｳﾖｳ","pref":"愛知県","city":"知多郡武豊町","address":"向陽"},
{"zip_code":"4702341","kana_pref":"ｱｲﾁｹﾝ","kana_city":"ﾁﾀｸﾞﾝﾀｹﾄﾖﾁｮｳ","kana_address":"ｺﾞｺﾞｳﾁ","pref":"愛知県","city":"知多郡武豊町","address":"五号地"},
{"zip_code":"4702343","kana_pref":"ｱｲﾁｹﾝ","kana_city":"ﾁﾀｸﾞﾝﾀｹﾄﾖﾁｮｳ","kana_address":"ｺﾑｶｴ","pref":"愛知県","city":"知多郡武豊町","address":"小迎"},
{"zip_code":"4702359","kana_pref":"ｱｲﾁｹﾝ","kana_city":"ﾁﾀｸﾞﾝﾀｹﾄﾖﾁｮｳ","kana_address":"ｻｸﾗｶﾞｵｶ","pref":"愛知県","city":"知多郡武豊町","address":"桜ケ丘"},
{"zip_code":"4702544","kana_pref":"ｱｲﾁｹﾝ","kana_city":"ﾁﾀｸﾞﾝﾀｹﾄﾖﾁｮｳ","kana_address":"ｻﾄﾅｶ","pref":"愛知県","city":"知多郡武豊町","address":"里中"},
{"zip_code":"4702342","kana_pref":"ｱｲﾁｹﾝ","kana_city":"ﾁﾀｸﾞﾝﾀｹﾄﾖﾁｮｳ","kana_address":"ｻﾜﾀﾞｼﾝﾃﾞﾝ","pref":"愛知県","city":"知多郡武豊町","address":"沢田新田"},
{"zip_code":"4702322","kana_pref":"ｱｲﾁｹﾝ","kana_city":"ﾁﾀｸﾞﾝﾀｹﾄﾖﾁｮｳ","kana_address":"ｼｵﾀ","pref":"愛知県","city":"知多郡武豊町","address":"塩田"},
{"zip_code":"4702339","kana_pref":"ｱｲﾁｹﾝ","kana_city":"ﾁﾀｸﾞﾝﾀｹﾄﾖﾁｮｳ","kana_address":"ｼﾀﾓﾝ","pref":"愛知県","city":"知多郡武豊町","address":"下門"},
{"zip_code":"4702373","kana_pref":"ｱｲﾁｹﾝ","kana_city":"ﾁﾀｸﾞﾝﾀｹﾄﾖﾁｮｳ","kana_address":"ｼﾏﾀﾞ","pref":"愛知県","city":"知多郡武豊町","address":"嶋田"},
{"zip_code":"4702356","kana_pref":"ｱｲﾁｹﾝ","kana_city":"ﾁﾀｸﾞﾝﾀｹﾄﾖﾁｮｳ","kana_address":"ｼﾓｵｺｼ","pref":"愛知県","city":"知多郡武豊町","address":"下起"},
{"zip_code":"4702515","kana_pref":"ｱｲﾁｹﾝ","kana_city":"ﾁﾀｸﾞﾝﾀｹﾄﾖﾁｮｳ","kana_address":"ｼﾓﾀﾞ","pref":"愛知県","city":"知多郡武豊町","address":"下田"},
{"zip_code":"4702371","kana_pref":"ｱｲﾁｹﾝ","kana_city":"ﾁﾀｸﾞﾝﾀｹﾄﾖﾁｮｳ","kana_address":"ｼﾓﾊﾗ","pref":"愛知県","city":"知多郡武豊町","address":"下原"},
{"zip_code":"4702305","kana_pref":"ｱｲﾁｹﾝ","kana_city":"ﾁﾀｸﾞﾝﾀｹﾄﾖﾁｮｳ","kana_address":"ｼﾓﾔﾏﾉﾀ","pref":"愛知県","city":"知多郡武豊町","address":"下山ノ田"},
{"zip_code":"4702317","kana_pref":"ｱｲﾁｹﾝ","kana_city":"ﾁﾀｸﾞﾝﾀｹﾄﾖﾁｮｳ","kana_address":"ｽﾅｶﾞﾜ","pref":"愛知県","city":"知多郡武豊町","address":"砂川"},
{"zip_code":"4702348","kana_pref":"ｱｲﾁｹﾝ","kana_city":"ﾁﾀｸﾞﾝﾀｹﾄﾖﾁｮｳ","kana_address":"ｾｷﾞ","pref":"愛知県","city":"知多郡武豊町","address":"瀬木"},
{"zip_code":"4702555","kana_pref":"ｱｲﾁｹﾝ","kana_city":"ﾁﾀｸﾞﾝﾀｹﾄﾖﾁｮｳ","kana_address":"ﾀﾞｲﾓﾝﾀﾞ","pref":"愛知県","city":"知多郡武豊町","address":"大門田"},
{"zip_code":"4702361","kana_pref":"ｱｲﾁｹﾝ","kana_city":"ﾁﾀｸﾞﾝﾀｹﾄﾖﾁｮｳ","kana_address":"ﾀｶﾞ","pref":"愛知県","city":"知多郡武豊町","address":"多賀"},
{"zip_code":"4702333","kana_pref":"ｱｲﾁｹﾝ","kana_city":"ﾁﾀｸﾞﾝﾀｹﾄﾖﾁｮｳ","kana_address":"ﾀｶﾉﾏｴ","pref":"愛知県","city":"知多郡武豊町","address":"高野前"},
{"zip_code":"4702505","kana_pref":"ｱｲﾁｹﾝ","kana_city":"ﾁﾀｸﾞﾝﾀｹﾄﾖﾁｮｳ","kana_address":"ﾀｻﾞｷ","pref":"愛知県","city":"知多郡武豊町","address":"田崎"},
{"zip_code":"4702335","kana_pref":"ｱｲﾁｹﾝ","kana_city":"ﾁﾀｸﾞﾝﾀｹﾄﾖﾁｮｳ","kana_address":"ﾀﾆｸﾞﾁ","pref":"愛知県","city":"知多郡武豊町","address":"谷口"},
{"zip_code":"4702512","kana_pref":"ｱｲﾁｹﾝ","kana_city":"ﾁﾀｸﾞﾝﾀｹﾄﾖﾁｮｳ","kana_address":"ﾁｭｳｼﾛﾀﾞ","pref":"愛知県","city":"知多郡武豊町","address":"忠白田"},
{"zip_code":"4702319","kana_pref":"ｱｲﾁｹﾝ","kana_city":"ﾁﾀｸﾞﾝﾀｹﾄﾖﾁｮｳ","kana_address":"ﾁｭｳﾚﾝ","pref":"愛知県","city":"知多郡武豊町","address":"中蓮"},
{"zip_code":"4702307","kana_pref":"ｱｲﾁｹﾝ","kana_city":"ﾁﾀｸﾞﾝﾀｹﾄﾖﾁｮｳ","kana_address":"ﾁﾞｬｶﾞﾀﾆ","pref":"愛知県","city":"知多郡武豊町","address":"蛇ケ谷"},
{"zip_code":"4702328","kana_pref":"ｱｲﾁｹﾝ","kana_city":"ﾁﾀｸﾞﾝﾀｹﾄﾖﾁｮｳ","kana_address":"ﾁﾞｬﾌﾞﾁ","pref":"愛知県","city":"知多郡武豊町","address":"蛇渕"},
{"zip_code":"4702372","kana_pref":"ｱｲﾁｹﾝ","kana_city":"ﾁﾀｸﾞﾝﾀｹﾄﾖﾁｮｳ","kana_address":"ﾁﾞﾝﾀﾞ","pref":"愛知県","city":"知多郡武豊町","address":"甚田"},
{"zip_code":"4702542","kana_pref":"ｱｲﾁｹﾝ","kana_city":"ﾁﾀｸﾞﾝﾀｹﾄﾖﾁｮｳ","kana_address":"ﾂﾁｱﾅ","pref":"愛知県","city":"知多郡武豊町","address":"土穴"},
{"zip_code":"4702327","kana_pref":"ｱｲﾁｹﾝ","kana_city":"ﾁﾀｸﾞﾝﾀｹﾄﾖﾁｮｳ","kana_address":"ﾃﾝｼﾞﾝﾏｴ","pref":"愛知県","city":"知多郡武豊町","address":"天神前"},
{"zip_code":"4702347","kana_pref":"ｱｲﾁｹﾝ","kana_city":"ﾁﾀｸﾞﾝﾀｹﾄﾖﾁｮｳ","kana_address":"ﾄﾞｳｻｷ","pref":"愛知県","city":"知多郡武豊町","address":"道崎"},
{"zip_code":"4702353","kana_pref":"ｱｲﾁｹﾝ","kana_city":"ﾁﾀｸﾞﾝﾀｹﾄﾖﾁｮｳ","kana_address":"ﾄﾞｳｻｷﾀﾞ","pref":"愛知県","city":"知多郡武豊町","address":"道崎田"},
{"zip_code":"4702511","kana_pref":"ｱｲﾁｹﾝ","kana_city":"ﾁﾀｸﾞﾝﾀｹﾄﾖﾁｮｳ","kana_address":"ﾄﾞｳｾﾝﾀﾞ","pref":"愛知県","city":"知多郡武豊町","address":"道仙田"},
{"zip_code":"4702334","kana_pref":"ｱｲﾁｹﾝ","kana_city":"ﾁﾀｸﾞﾝﾀｹﾄﾖﾁｮｳ","kana_address":"ﾅｶﾈ","pref":"愛知県","city":"知多郡武豊町","address":"中根"},
{"zip_code":"4702315","kana_pref":"ｱｲﾁｹﾝ","kana_city":"ﾁﾀｸﾞﾝﾀｹﾄﾖﾁｮｳ","kana_address":"ﾅｶﾊﾞｻﾐ","pref":"愛知県","city":"知多郡武豊町","address":"中狭"},
{"zip_code":"4702388","kana_pref":"ｱｲﾁｹﾝ","kana_city":"ﾁﾀｸﾞﾝﾀｹﾄﾖﾁｮｳ","kana_address":"ﾅｶﾔﾏ","pref":"愛知県","city":"知多郡武豊町","address":"中山"},
{"zip_code":"4702346","kana_pref":"ｱｲﾁｹﾝ","kana_city":"ﾁﾀｸﾞﾝﾀｹﾄﾖﾁｮｳ","kana_address":"ﾅｶﾞｵﾔﾏ","pref":"愛知県","city":"知多郡武豊町","address":"長尾山"},
{"zip_code":"4702517","kana_pref":"ｱｲﾁｹﾝ","kana_city":"ﾁﾀｸﾞﾝﾀｹﾄﾖﾁｮｳ","kana_address":"ﾅｶﾞﾐﾈ","pref":"愛知県","city":"知多郡武豊町","address":"長峰"},
{"zip_code":"4702389","kana_pref":"ｱｲﾁｹﾝ","kana_city":"ﾁﾀｸﾞﾝﾀｹﾄﾖﾁｮｳ","kana_address":"ﾅｶﾞﾑﾈ","pref":"愛知県","city":"知多郡武豊町","address":"長宗"},
{"zip_code":"4702309","kana_pref":"ｱｲﾁｹﾝ","kana_city":"ﾁﾀｸﾞﾝﾀｹﾄﾖﾁｮｳ","kana_address":"ﾅｼﾉｷ","pref":"愛知県","city":"知多郡武豊町","address":"梨子ノ木"},
{"zip_code":"4702321","kana_pref":"ｱｲﾁｹﾝ","kana_city":"ﾁﾀｸﾞﾝﾀｹﾄﾖﾁｮｳ","kana_address":"ﾅﾅｺﾞｳﾁ","pref":"愛知県","city":"知多郡武豊町","address":"七号地"},
{"zip_code":"4702316","kana_pref":"ｱｲﾁｹﾝ","kana_city":"ﾁﾀｸﾞﾝﾀｹﾄﾖﾁｮｳ","kana_address":"ﾆｶﾞｻｷ","pref":"愛知県","city":"知多郡武豊町","address":"二ケ崎"},
{"zip_code":"4702349","kana_pref":"ｱｲﾁｹﾝ","kana_city":"ﾁﾀｸﾞﾝﾀｹﾄﾖﾁｮｳ","kana_address":"ﾆｼﾀｻﾞｷ","pref":"愛知県","city":"知多郡武豊町","address":"西田崎"},
{"zip_code":"4702345","kana_pref":"ｱｲﾁｹﾝ","kana_city":"ﾁﾀｸﾞﾝﾀｹﾄﾖﾁｮｳ","kana_address":"ﾆｼﾓﾝ","pref":"愛知県","city":"知多郡武豊町","address":"西門"},
{"zip_code":"4702554","kana_pref":"ｱｲﾁｹﾝ","kana_city":"ﾁﾀｸﾞﾝﾀｹﾄﾖﾁｮｳ","kana_address":"ﾊｸｻﾝ","pref":"愛知県","city":"知多郡武豊町","address":"白山"},
{"zip_code":"4702516","kana_pref":"ｱｲﾁｹﾝ","kana_city":"ﾁﾀｸﾞﾝﾀｹﾄﾖﾁｮｳ","kana_address":"ﾊｻﾞﾏ","pref":"愛知県","city":"知多郡武豊町","address":"廻間"},
{"zip_code":"4702374","kana_pref":"ｱｲﾁｹﾝ","kana_city":"ﾁﾀｸﾞﾝﾀｹﾄﾖﾁｮｳ","kana_address":"ﾊﾗﾀﾞ","pref":"愛知県","city":"知多郡武豊町","address":"原田"},
{"zip_code":"4702375","kana_pref":"ｱｲﾁｹﾝ","kana_city":"ﾁﾀｸﾞﾝﾀｹﾄﾖﾁｮｳ","kana_address":"ﾊﾗﾔｼｷ","pref":"愛知県","city":"知多郡武豊町","address":"原屋敷"},
{"zip_code":"4702521","kana_pref":"ｱｲﾁｹﾝ","kana_city":"ﾁﾀｸﾞﾝﾀｹﾄﾖﾁｮｳ","kana_address":"ﾋｶﾞｼｵｵﾀﾞｶ","pref":"愛知県","city":"知多郡武豊町","address":"東大高"},
{"zip_code":"4702382","kana_pref":"ｱｲﾁｹﾝ","kana_city":"ﾁﾀｸﾞﾝﾀｹﾄﾖﾁｮｳ","kana_address":"ﾋｶﾞｼﾅｶﾞﾑﾈ","pref":"愛知県","city":"知多郡武豊町","address":"東長宗"},
{"zip_code":"4702331","kana_pref":"ｱｲﾁｹﾝ","kana_city":"ﾁﾀｸﾞﾝﾀｹﾄﾖﾁｮｳ","kana_address":"ﾋｼﾞﾘﾀﾞ","pref":"愛知県","city":"知多郡武豊町","address":"ヒジリ田"},
{"zip_code":"4702365","kana_pref":"ｱｲﾁｹﾝ","kana_city":"ﾁﾀｸﾞﾝﾀｹﾄﾖﾁｮｳ","kana_address":"ﾋﾄｾﾏﾁ","pref":"愛知県","city":"知多郡武豊町","address":"壱畝町"},
{"zip_code":"4702380","kana_pref":"ｱｲﾁｹﾝ","kana_city":"ﾁﾀｸﾞﾝﾀｹﾄﾖﾁｮｳ","kana_address":"ﾋﾗｲ","pref":"愛知県","city":"知多郡武豊町","address":"平井"},
{"zip_code":"4702304","kana_pref":"ｱｲﾁｹﾝ","kana_city":"ﾁﾀｸﾞﾝﾀｹﾄﾖﾁｮｳ","kana_address":"ﾋﾗｲﾀﾞ","pref":"愛知県","city":"知多郡武豊町","address":"平井田"},
{"zip_code":"4702326","kana_pref":"ｱｲﾁｹﾝ","kana_city":"ﾁﾀｸﾞﾝﾀｹﾄﾖﾁｮｳ","kana_address":"ﾋﾗｲﾊﾞﾀ","pref":"愛知県","city":"知多郡武豊町","address":"平井畑"},
{"zip_code":"4702531","kana_pref":"ｱｲﾁｹﾝ","kana_city":"ﾁﾀｸﾞﾝﾀｹﾄﾖﾁｮｳ","kana_address":"ﾌｷ","pref":"愛知県","city":"知多郡武豊町","address":"冨貴"},
{"zip_code":"4702308","kana_pref":"ｱｲﾁｹﾝ","kana_city":"ﾁﾀｸﾞﾝﾀｹﾄﾖﾁｮｳ","kana_address":"ﾌﾀﾂﾐﾈ","pref":"愛知県","city":"知多郡武豊町","address":"二ツ峰"},
{"zip_code":"4702507","kana_pref":"ｱｲﾁｹﾝ","kana_city":"ﾁﾀｸﾞﾝﾀｹﾄﾖﾁｮｳ","kana_address":"ﾍｲｶｲﾄﾞｳ","pref":"愛知県","city":"知多郡武豊町","address":"平海道"},
{"zip_code":"4702318","kana_pref":"ｱｲﾁｹﾝ","kana_city":"ﾁﾀｸﾞﾝﾀｹﾄﾖﾁｮｳ","kana_address":"ﾎｳｾｲ","pref":"愛知県","city":"知多郡武豊町","address":"豊成"},
{"zip_code":"4702303","kana_pref":"ｱｲﾁｹﾝ","kana_city":"ﾁﾀｸﾞﾝﾀｹﾄﾖﾁｮｳ","kana_address":"ﾎｺﾗﾐﾈ","pref":"愛知県","city":"知多郡武豊町","address":"祠峯"},
{"zip_code":"4702501","kana_pref":"ｱｲﾁｹﾝ","kana_city":"ﾁﾀｸﾞﾝﾀｹﾄﾖﾁｮｳ","kana_address":"ﾎﾘﾜﾘ","pref":"愛知県","city":"知多郡武豊町","address":"堀割"},
{"zip_code":"4702338","kana_pref":"ｱｲﾁｹﾝ","kana_city":"ﾁﾀｸﾞﾝﾀｹﾄﾖﾁｮｳ","kana_address":"ﾏｴﾀﾞ","pref":"愛知県","city":"知多郡武豊町","address":"前田"},
{"zip_code":"4702545","kana_pref":"ｱｲﾁｹﾝ","kana_city":"ﾁﾀｸﾞﾝﾀｹﾄﾖﾁｮｳ","kana_address":"ﾏｴﾊﾀ","pref":"愛知県","city":"知多郡武豊町","address":"前畑"},
{"zip_code":"4702386","kana_pref":"ｱｲﾁｹﾝ","kana_city":"ﾁﾀｸﾞﾝﾀｹﾄﾖﾁｮｳ","kana_address":"ﾐﾄﾞﾘﾀﾞｲ","pref":"愛知県","city":"知多郡武豊町","address":"緑台"},
{"zip_code":"4702556","kana_pref":"ｱｲﾁｹﾝ","kana_city":"ﾁﾀｸﾞﾝﾀｹﾄﾖﾁｮｳ","kana_address":"ﾐﾅﾐｵｺｼ","pref":"愛知県","city":"知多郡武豊町","address":"南起"},
{"zip_code":"4702378","kana_pref":"ｱｲﾁｹﾝ","kana_city":"ﾁﾀｸﾞﾝﾀｹﾄﾖﾁｮｳ","kana_address":"ﾐﾅﾐｺﾏﾂﾀﾞﾆ","pref":"愛知県","city":"知多郡武豊町","address":"南小松谷"},
{"zip_code":"4702351","kana_pref":"ｱｲﾁｹﾝ","kana_city":"ﾁﾀｸﾞﾝﾀｹﾄﾖﾁｮｳ","kana_address":"ﾐﾅﾐﾅｶﾈ","pref":"愛知県","city":"知多郡武豊町","address":"南中根"},
{"zip_code":"4702502","kana_pref":"ｱｲﾁｹﾝ","kana_city":"ﾁﾀｸﾞﾝﾀｹﾄﾖﾁｮｳ","kana_address":"ﾐｮｳｼﾞﾝﾄﾞ","pref":"愛知県","city":"知多郡武豊町","address":"明神戸"},
{"zip_code":"4702355","kana_pref":"ｱｲﾁｹﾝ","kana_city":"ﾁﾀｸﾞﾝﾀｹﾄﾖﾁｮｳ","kana_address":"ﾑｶｲﾀﾞ","pref":"愛知県","city":"知多郡武豊町","address":"向田"},
{"zip_code":"4702352","kana_pref":"ｱｲﾁｹﾝ","kana_city":"ﾁﾀｸﾞﾝﾀｹﾄﾖﾁｮｳ","kana_address":"ﾑｶｴﾄﾞ","pref":"愛知県","city":"知多郡武豊町","address":"迎戸"},
{"zip_code":"4702541","kana_pref":"ｱｲﾁｹﾝ","kana_city":"ﾁﾀｸﾞﾝﾀｹﾄﾖﾁｮｳ","kana_address":"ﾒﾎﾞﾘ","pref":"愛知県","city":"知多郡武豊町","address":"目堀"},
{"zip_code":"4702546","kana_pref":"ｱｲﾁｹﾝ","kana_city":"ﾁﾀｸﾞﾝﾀｹﾄﾖﾁｮｳ","kana_address":"ﾔﾏｵｺｼ","pref":"愛知県","city":"知多郡武豊町","address":"山起"},
{"zip_code":"4702336","kana_pref":"ｱｲﾁｹﾝ","kana_city":"ﾁﾀｸﾞﾝﾀｹﾄﾖﾁｮｳ","kana_address":"ﾔﾏﾉｶﾐ","pref":"愛知県","city":"知多郡武豊町","address":"山ノ神"},
{"zip_code":"4702553","kana_pref":"ｱｲﾁｹﾝ","kana_city":"ﾁﾀｸﾞﾝﾀｹﾄﾖﾁｮｳ","kana_address":"ﾖｾ","pref":"愛知県","city":"知多郡武豊町","address":"四畝"},
{"zip_code":"4702532","kana_pref":"ｱｲﾁｹﾝ","kana_city":"ﾁﾀｸﾞﾝﾀｹﾄﾖﾁｮｳ","kana_address":"ﾘｭｳｸﾞｳ","pref":"愛知県","city":"知多郡武豊町","address":"竜宮"},
{"zip_code":"4702362","kana_pref":"ｱｲﾁｹﾝ","kana_city":"ﾁﾀｸﾞﾝﾀｹﾄﾖﾁｮｳ","kana_address":"ﾛｯｶﾝﾔﾏ","pref":"愛知県","city":"知多郡武豊町","address":"六貫山"},
{"zip_code":"4702325","kana_pref":"ｱｲﾁｹﾝ","kana_city":"ﾁﾀｸﾞﾝﾀｹﾄﾖﾁｮｳ","kana_address":"ﾜｶﾐﾔ","pref":"愛知県","city":"知多郡武豊町","address":"若宮"}]}