{"zip_code":[
{"zip_code":"4710000","kana_pref":"ｱｲﾁｹﾝ","kana_city":"ﾄﾖﾀｼ","kana_address":"","pref":"愛知県","city":"豊田市","address":""},
{"zip_code":"4710052","kana_pref":"ｱｲﾁｹﾝ","kana_city":"ﾄﾖﾀｼ","kana_address":"ｱｲﾂﾞﾏﾁｮｳ","pref":"愛知県","city":"豊田市","address":"逢妻町"},
{"zip_code":"4710873","kana_pref":"ｱｲﾁｹﾝ","kana_city":"ﾄﾖﾀｼ","kana_address":"ｱｷﾊﾞﾁｮｳ","pref":"愛知県","city":"豊田市","address":"秋葉町"},
{"zip_code":"4710835","kana_pref":"ｱｲﾁｹﾝ","kana_city":"ﾄﾖﾀｼ","kana_address":"ｱｹﾎﾞﾉﾁｮｳ","pref":"愛知県","city":"豊田市","address":"曙町"},
{"zip_code":"4710858","kana_pref":"ｱｲﾁｹﾝ","kana_city":"ﾄﾖﾀｼ","kana_address":"ｱｻﾋｶﾞｵｶ","pref":"愛知県","city":"豊田市","address":"朝日ケ丘"},
{"zip_code":"4710031","kana_pref":"ｱｲﾁｹﾝ","kana_city":"ﾄﾖﾀｼ","kana_address":"ｱｻﾋﾏﾁ","pref":"愛知県","city":"豊田市","address":"朝日町"},
{"zip_code":"4710001","kana_pref":"ｱｲﾁｹﾝ","kana_city":"ﾄﾖﾀｼ","kana_address":"ｲｹﾀﾞﾁｮｳ","pref":"愛知県","city":"豊田市","address":"池田町"},
{"zip_code":"4710803","kana_pref":"ｱｲﾁｹﾝ","kana_city":"ﾄﾖﾀｼ","kana_address":"ｲｽﾞﾐﾁｮｳ","pref":"愛知県","city":"豊田市","address":"泉町"},
{"zip_code":"4710006","kana_pref":"ｱｲﾁｹﾝ","kana_city":"ﾄﾖﾀｼ","kana_address":"ｲﾁｷﾞﾁｮｳ","pref":"愛知県","city":"豊田市","address":"市木町"},
{"zip_code":"4710814","kana_pref":"ｱｲﾁｹﾝ","kana_city":"ﾄﾖﾀｼ","kana_address":"ｲﾂﾂｶﾞｵｶ","pref":"愛知県","city":"豊田市","address":"五ケ丘"},
{"zip_code":"4710823","kana_pref":"ｱｲﾁｹﾝ","kana_city":"ﾄﾖﾀｼ","kana_address":"ｲﾏﾁｮｳ","pref":"愛知県","city":"豊田市","address":"今町"},
{"zip_code":"4710003","kana_pref":"ｱｲﾁｹﾝ","kana_city":"ﾄﾖﾀｼ","kana_address":"ｲﾜﾀｷﾁｮｳ","pref":"愛知県","city":"豊田市","address":"岩滝町"},
{"zip_code":"4710015","kana_pref":"ｱｲﾁｹﾝ","kana_city":"ﾄﾖﾀｼ","kana_address":"ｳｴﾉﾁｮｳ","pref":"愛知県","city":"豊田市","address":"上野町"},
{"zip_code":"4710064","kana_pref":"ｱｲﾁｹﾝ","kana_city":"ﾄﾖﾀｼ","kana_address":"ｳﾒﾂﾎﾞﾁｮｳ","pref":"愛知県","city":"豊田市","address":"梅坪町"},
{"zip_code":"4710866","kana_pref":"ｱｲﾁｹﾝ","kana_city":"ﾄﾖﾀｼ","kana_address":"ｳﾜｺﾞﾛﾓ","pref":"愛知県","city":"豊田市","address":"上挙母"},
{"zip_code":"4710067","kana_pref":"ｱｲﾁｹﾝ","kana_city":"ﾄﾖﾀｼ","kana_address":"ｴｲｾｲﾁｮｳ","pref":"愛知県","city":"豊田市","address":"栄生町"},
{"zip_code":"4710058","kana_pref":"ｱｲﾁｹﾝ","kana_city":"ﾄﾖﾀｼ","kana_address":"ｵｵｲｹﾁｮｳ","pref":"愛知県","city":"豊田市","address":"大池町"},
{"zip_code":"4710815","kana_pref":"ｱｲﾁｹﾝ","kana_city":"ﾄﾖﾀｼ","kana_address":"ｵｵﾐﾁｮｳ","pref":"愛知県","city":"豊田市","address":"大見町"},
{"zip_code":"4710857","kana_pref":"ｱｲﾁｹﾝ","kana_city":"ﾄﾖﾀｼ","kana_address":"ｵｶﾞﾜﾁｮｳ","pref":"愛知県","city":"豊田市","address":"小川町"},
{"zip_code":"4710072","kana_pref":"ｱｲﾁｹﾝ","kana_city":"ﾄﾖﾀｼ","kana_address":"ｵﾁｱｲﾁｮｳ","pref":"愛知県","city":"豊田市","address":"落合町"},
{"zip_code":"4710855","kana_pref":"ｱｲﾁｹﾝ","kana_city":"ﾄﾖﾀｼ","kana_address":"ｶｷﾓﾄﾁｮｳ","pref":"愛知県","city":"豊田市","address":"柿本町"},
{"zip_code":"4710876","kana_pref":"ｱｲﾁｹﾝ","kana_city":"ﾄﾖﾀｼ","kana_address":"ｶﾅﾔﾁｮｳ","pref":"愛知県","city":"豊田市","address":"金谷町"},
{"zip_code":"4710804","kana_pref":"ｱｲﾁｹﾝ","kana_city":"ﾄﾖﾀｼ","kana_address":"ｶﾐｲｹﾁｮｳ","pref":"愛知県","city":"豊田市","address":"神池町"},
{"zip_code":"4710824","kana_pref":"ｱｲﾁｹﾝ","kana_city":"ﾄﾖﾀｼ","kana_address":"ｶﾜｲﾁｮｳ","pref":"愛知県","city":"豊田市","address":"河合町"},
{"zip_code":"4710073","kana_pref":"ｱｲﾁｹﾝ","kana_city":"ﾄﾖﾀｼ","kana_address":"ｶﾜﾀﾞﾁｮｳ","pref":"愛知県","city":"豊田市","address":"川田町"},
{"zip_code":"4710074","kana_pref":"ｱｲﾁｹﾝ","kana_city":"ﾄﾖﾀｼ","kana_address":"ｶﾜﾊﾞﾀﾁｮｳ","pref":"愛知県","city":"豊田市","address":"川端町"},
{"zip_code":"4710868","kana_pref":"ｱｲﾁｹﾝ","kana_city":"ﾄﾖﾀｼ","kana_address":"ｶﾝﾀﾞﾁｮｳ","pref":"愛知県","city":"豊田市","address":"神田町"},
{"zip_code":"4710027","kana_pref":"ｱｲﾁｹﾝ","kana_city":"ﾄﾖﾀｼ","kana_address":"ｷﾀﾏﾁ","pref":"愛知県","city":"豊田市","address":"喜多町"},
{"zip_code":"4710005","kana_pref":"ｱｲﾁｹﾝ","kana_city":"ﾄﾖﾀｼ","kana_address":"ｷｮｳｶﾞﾐﾈ","pref":"愛知県","city":"豊田市","address":"京ケ峰"},
{"zip_code":"4710063","kana_pref":"ｱｲﾁｹﾝ","kana_city":"ﾄﾖﾀｼ","kana_address":"ｷｮｳﾏﾁ","pref":"愛知県","city":"豊田市","address":"京町"},
{"zip_code":"4710076","kana_pref":"ｱｲﾁｹﾝ","kana_city":"ﾄﾖﾀｼ","kana_address":"ｸﾎﾞﾁｮｳ","pref":"愛知県","city":"豊田市","address":"久保町"},
{"zip_code":"4710836","kana_pref":"ｱｲﾁｹﾝ","kana_city":"ﾄﾖﾀｼ","kana_address":"ｺｳﾉｽﾁｮｳ","pref":"愛知県","city":"豊田市","address":"鴻ノ巣町"},
{"zip_code":"4710035","kana_pref":"ｱｲﾁｹﾝ","kana_city":"ﾄﾖﾀｼ","kana_address":"ｺｻﾞｶﾁｮｳ","pref":"愛知県","city":"豊田市","address":"小坂町"},
{"zip_code":"4710034","kana_pref":"ｱｲﾁｹﾝ","kana_city":"ﾄﾖﾀｼ","kana_address":"ｺｻﾞｶﾎﾝﾏﾁ","pref":"愛知県","city":"豊田市","address":"小坂本町"},
{"zip_code":"4710801","kana_pref":"ｱｲﾁｹﾝ","kana_city":"ﾄﾖﾀｼ","kana_address":"ｺｾﾏﾁｮｳ","pref":"愛知県","city":"豊田市","address":"古瀬間町"},
{"zip_code":"4710816","kana_pref":"ｱｲﾁｹﾝ","kana_city":"ﾄﾖﾀｼ","kana_address":"ｺﾄﾋﾗﾁｮｳ","pref":"愛知県","city":"豊田市","address":"琴平町"},
{"zip_code":"4710834","kana_pref":"ｱｲﾁｹﾝ","kana_city":"ﾄﾖﾀｼ","kana_address":"ｺﾄﾌﾞｷﾁｮｳ","pref":"愛知県","city":"豊田市","address":"寿町"},
{"zip_code":"4710856","kana_pref":"ｱｲﾁｹﾝ","kana_city":"ﾄﾖﾀｼ","kana_address":"ｺﾛﾓｶﾞﾊﾗ","pref":"愛知県","city":"豊田市","address":"衣ケ原"},
{"zip_code":"4710023","kana_pref":"ｱｲﾁｹﾝ","kana_city":"ﾄﾖﾀｼ","kana_address":"ｺﾛﾓﾁｮｳ","pref":"愛知県","city":"豊田市","address":"挙母町"},
{"zip_code":"4710066","kana_pref":"ｱｲﾁｹﾝ","kana_city":"ﾄﾖﾀｼ","kana_address":"ｻｶｴﾏﾁ","pref":"愛知県","city":"豊田市","address":"栄町"},
{"zip_code":"4710029","kana_pref":"ｱｲﾁｹﾝ","kana_city":"ﾄﾖﾀｼ","kana_address":"ｻｸﾗﾏﾁ","pref":"愛知県","city":"豊田市","address":"桜町"},
{"zip_code":"4710037","kana_pref":"ｱｲﾁｹﾝ","kana_city":"ﾄﾖﾀｼ","kana_address":"ｻﾝｹﾞﾝﾁｮｳ","pref":"愛知県","city":"豊田市","address":"三軒町"},
{"zip_code":"4710041","kana_pref":"ｱｲﾁｹﾝ","kana_city":"ﾄﾖﾀｼ","kana_address":"ｼｵﾐﾁｮｳ","pref":"愛知県","city":"豊田市","address":"汐見町"},
{"zip_code":"4710802","kana_pref":"ｱｲﾁｹﾝ","kana_city":"ﾄﾖﾀｼ","kana_address":"ｼｶﾞﾁｮｳ","pref":"愛知県","city":"豊田市","address":"志賀町"},
{"zip_code":"4710808","kana_pref":"ｱｲﾁｹﾝ","kana_city":"ﾄﾖﾀｼ","kana_address":"ｼﾌﾞﾔﾁｮｳ","pref":"愛知県","city":"豊田市","address":"渋谷町"},
{"zip_code":"4710843","kana_pref":"ｱｲﾁｹﾝ","kana_city":"ﾄﾖﾀｼ","kana_address":"ｼﾐｽﾞﾁｮｳ","pref":"愛知県","city":"豊田市","address":"清水町"},
{"zip_code":"4710875","kana_pref":"ｱｲﾁｹﾝ","kana_city":"ﾄﾖﾀｼ","kana_address":"ｼﾓｲﾁﾊﾞﾁｮｳ","pref":"愛知県","city":"豊田市","address":"下市場町"},
{"zip_code":"4710878","kana_pref":"ｱｲﾁｹﾝ","kana_city":"ﾄﾖﾀｼ","kana_address":"ｼﾓﾊﾞﾔｼﾁｮｳ","pref":"愛知県","city":"豊田市","address":"下林町"},
{"zip_code":"4710851","kana_pref":"ｱｲﾁｹﾝ","kana_city":"ﾄﾖﾀｼ","kana_address":"ｼﾞｭﾓｸﾁｮｳ","pref":"愛知県","city":"豊田市","address":"樹木町"},
{"zip_code":"4710078","kana_pref":"ｱｲﾁｹﾝ","kana_city":"ﾄﾖﾀｼ","kana_address":"ｼｮｳﾜﾏﾁ","pref":"愛知県","city":"豊田市","address":"昭和町"},
{"zip_code":"4710022","kana_pref":"ｱｲﾁｹﾝ","kana_city":"ﾄﾖﾀｼ","kana_address":"ｼﾗﾊﾏﾁｮｳ","pref":"愛知県","city":"豊田市","address":"白浜町"},
{"zip_code":"4710837","kana_pref":"ｱｲﾁｹﾝ","kana_city":"ﾄﾖﾀｼ","kana_address":"ｼﾝｾｲﾁｮｳ","pref":"愛知県","city":"豊田市","address":"新生町"},
{"zip_code":"4710079","kana_pref":"ｱｲﾁｹﾝ","kana_city":"ﾄﾖﾀｼ","kana_address":"ｼﾞﾝﾅｶﾁｮｳ","pref":"愛知県","city":"豊田市","address":"陣中町"},
{"zip_code":"4710044","kana_pref":"ｱｲﾁｹﾝ","kana_city":"ﾄﾖﾀｼ","kana_address":"ｼﾝﾏﾁ","pref":"愛知県","city":"豊田市","address":"新町"},
{"zip_code":"4710028","kana_pref":"ｱｲﾁｹﾝ","kana_city":"ﾄﾖﾀｼ","kana_address":"ｼﾝﾒｲﾁｮｳ","pref":"愛知県","city":"豊田市","address":"神明町"},
{"zip_code":"4710822","kana_pref":"ｱｲﾁｹﾝ","kana_city":"ﾄﾖﾀｼ","kana_address":"ｽｲｹﾞﾝﾁｮｳ","pref":"愛知県","city":"豊田市","address":"水源町"},
{"zip_code":"4710862","kana_pref":"ｱｲﾁｹﾝ","kana_city":"ﾄﾖﾀｼ","kana_address":"ｽﾅﾁｮｳ","pref":"愛知県","city":"豊田市","address":"砂町"},
{"zip_code":"4710844","kana_pref":"ｱｲﾁｹﾝ","kana_city":"ﾄﾖﾀｼ","kana_address":"ｾｲｼﾝﾁｮｳ","pref":"愛知県","city":"豊田市","address":"聖心町"},
{"zip_code":"4710016","kana_pref":"ｱｲﾁｹﾝ","kana_city":"ﾄﾖﾀｼ","kana_address":"ｾﾝｺﾞｸﾁｮｳ","pref":"愛知県","city":"豊田市","address":"千石町"},
{"zip_code":"4710847","kana_pref":"ｱｲﾁｹﾝ","kana_city":"ﾄﾖﾀｼ","kana_address":"ｾﾝｿﾞｸﾁｮｳ","pref":"愛知県","city":"豊田市","address":"千足町"},
{"zip_code":"4710057","kana_pref":"ｱｲﾁｹﾝ","kana_city":"ﾄﾖﾀｼ","kana_address":"ﾀｲﾍｲﾁｮｳ","pref":"愛知県","city":"豊田市","address":"太平町"},
{"zip_code":"4710013","kana_pref":"ｱｲﾁｹﾝ","kana_city":"ﾄﾖﾀｼ","kana_address":"ﾀｶｶﾞﾐ","pref":"愛知県","city":"豊田市","address":"高上"},
{"zip_code":"4710048","kana_pref":"ｱｲﾁｹﾝ","kana_city":"ﾄﾖﾀｼ","kana_address":"ﾀｶｻｷﾁｮｳ","pref":"愛知県","city":"豊田市","address":"高崎町"},
{"zip_code":"4710019","kana_pref":"ｱｲﾁｹﾝ","kana_city":"ﾄﾖﾀｼ","kana_address":"ﾀｶﾊｼﾁｮｳ","pref":"愛知県","city":"豊田市","address":"高橋町"},
{"zip_code":"4710069","kana_pref":"ｱｲﾁｹﾝ","kana_city":"ﾄﾖﾀｼ","kana_address":"ﾀｶﾊﾗﾁｮｳ","pref":"愛知県","city":"豊田市","address":"高原町"},
{"zip_code":"4710077","kana_pref":"ｱｲﾁｹﾝ","kana_city":"ﾄﾖﾀｼ","kana_address":"ﾀｷｮｳﾁｮｳ","pref":"愛知県","city":"豊田市","address":"竹生町"},
{"zip_code":"4710846","kana_pref":"ｱｲﾁｹﾝ","kana_city":"ﾄﾖﾀｼ","kana_address":"ﾀｼﾛﾁｮｳ","pref":"愛知県","city":"豊田市","address":"田代町"},
{"zip_code":"4710845","kana_pref":"ｱｲﾁｹﾝ","kana_city":"ﾄﾖﾀｼ","kana_address":"ﾀﾅｶﾁｮｳ","pref":"愛知県","city":"豊田市","address":"田中町"},
{"zip_code":"4710049","kana_pref":"ｱｲﾁｹﾝ","kana_city":"ﾄﾖﾀｼ","kana_address":"ﾀﾏﾁ","pref":"愛知県","city":"豊田市","address":"田町"},
{"zip_code":"4710879","kana_pref":"ｱｲﾁｹﾝ","kana_city":"ﾄﾖﾀｼ","kana_address":"ﾁｮｳｺｳｼﾞ","pref":"愛知県","city":"豊田市","address":"長興寺"},
{"zip_code":"4710831","kana_pref":"ｱｲﾁｹﾝ","kana_city":"ﾄﾖﾀｼ","kana_address":"ﾂｶｻﾁｮｳ","pref":"愛知県","city":"豊田市","address":"司町"},
{"zip_code":"4710033","kana_pref":"ｱｲﾁｹﾝ","kana_city":"ﾄﾖﾀｼ","kana_address":"ﾂｷﾐﾁｮｳ","pref":"愛知県","city":"豊田市","address":"月見町"},
{"zip_code":"4710842","kana_pref":"ｱｲﾁｹﾝ","kana_city":"ﾄﾖﾀｼ","kana_address":"ﾂﾁﾊｼﾁｮｳ","pref":"愛知県","city":"豊田市","address":"土橋町"},
{"zip_code":"4710059","kana_pref":"ｱｲﾁｹﾝ","kana_city":"ﾄﾖﾀｼ","kana_address":"ﾃｲﾎｳﾁｮｳ","pref":"愛知県","city":"豊田市","address":"貞宝町"},
{"zip_code":"4710017","kana_pref":"ｱｲﾁｹﾝ","kana_city":"ﾄﾖﾀｼ","kana_address":"ﾃﾗﾍﾞﾁｮｳ","pref":"愛知県","city":"豊田市","address":"寺部町"},
{"zip_code":"4710054","kana_pref":"ｱｲﾁｹﾝ","kana_city":"ﾄﾖﾀｼ","kana_address":"ﾃﾝﾉｳﾁｮｳ","pref":"愛知県","city":"豊田市","address":"天王町"},
{"zip_code":"4710817","kana_pref":"ｱｲﾁｹﾝ","kana_city":"ﾄﾖﾀｼ","kana_address":"ﾄﾞｱｲﾁｮｳ","pref":"愛知県","city":"豊田市","address":"渡合町"},
{"zip_code":"4710045","kana_pref":"ｱｲﾁｹﾝ","kana_city":"ﾄﾖﾀｼ","kana_address":"ﾄｳｼﾝﾁｮｳ","pref":"愛知県","city":"豊田市","address":"東新町"},
{"zip_code":"4710008","kana_pref":"ｱｲﾁｹﾝ","kana_city":"ﾄﾖﾀｼ","kana_address":"ﾄﾞｳﾄﾞﾁｮｳ","pref":"愛知県","city":"豊田市","address":"百々町"},
{"zip_code":"4710867","kana_pref":"ｱｲﾁｹﾝ","kana_city":"ﾄﾖﾀｼ","kana_address":"ﾄｷﾜﾁｮｳ","pref":"愛知県","city":"豊田市","address":"常盤町"},
{"zip_code":"4710869","kana_pref":"ｱｲﾁｹﾝ","kana_city":"ﾄﾖﾀｼ","kana_address":"ﾄﾂﾞｶﾁｮｳ","pref":"愛知県","city":"豊田市","address":"十塚町"},
{"zip_code":"4710826","kana_pref":"ｱｲﾁｹﾝ","kana_city":"ﾄﾖﾀｼ","kana_address":"ﾄﾖﾀﾁｮｳ","pref":"愛知県","city":"豊田市","address":"トヨタ町"},
{"zip_code":"4710021","kana_pref":"ｱｲﾁｹﾝ","kana_city":"ﾄﾖﾀｼ","kana_address":"ﾅｶｼﾞﾏﾁｮｳ","pref":"愛知県","city":"豊田市","address":"中島町"},
{"zip_code":"4710877","kana_pref":"ｱｲﾁｹﾝ","kana_city":"ﾄﾖﾀｼ","kana_address":"ﾆｼｷﾁｮｳ","pref":"愛知県","city":"豊田市","address":"錦町"},
{"zip_code":"4710047","kana_pref":"ｱｲﾁｹﾝ","kana_city":"ﾄﾖﾀｼ","kana_address":"ﾆｼｼﾝﾁｮｳ","pref":"愛知県","city":"豊田市","address":"西新町"},
{"zip_code":"4710025","kana_pref":"ｱｲﾁｹﾝ","kana_city":"ﾄﾖﾀｼ","kana_address":"ﾆｼﾏﾁ","pref":"愛知県","city":"豊田市","address":"西町"},
{"zip_code":"4710062","kana_pref":"ｱｲﾁｹﾝ","kana_city":"ﾄﾖﾀｼ","kana_address":"ﾆｼﾔﾏﾁｮｳ","pref":"愛知県","city":"豊田市","address":"西山町"},
{"zip_code":"4710032","kana_pref":"ｱｲﾁｹﾝ","kana_city":"ﾄﾖﾀｼ","kana_address":"ﾆﾁﾅﾝﾁｮｳ","pref":"愛知県","city":"豊田市","address":"日南町"},
{"zip_code":"4710812","kana_pref":"ｱｲﾁｹﾝ","kana_city":"ﾄﾖﾀｼ","kana_address":"ﾉﾐﾁｮｳ","pref":"愛知県","city":"豊田市","address":"野見町"},
{"zip_code":"4710813","kana_pref":"ｱｲﾁｹﾝ","kana_city":"ﾄﾖﾀｼ","kana_address":"ﾉﾐﾔﾏﾁｮｳ","pref":"愛知県","city":"豊田市","address":"野見山町"},
{"zip_code":"4710056","kana_pref":"ｱｲﾁｹﾝ","kana_city":"ﾄﾖﾀｼ","kana_address":"ﾊｸｻﾝﾁｮｳ","pref":"愛知県","city":"豊田市","address":"白山町"},
{"zip_code":"4710861","kana_pref":"ｱｲﾁｹﾝ","kana_city":"ﾄﾖﾀｼ","kana_address":"ﾊﾁﾏﾝﾁｮｳ","pref":"愛知県","city":"豊田市","address":"八幡町"},
{"zip_code":"4710051","kana_pref":"ｱｲﾁｹﾝ","kana_city":"ﾄﾖﾀｼ","kana_address":"ﾊﾅｵｶﾁｮｳ","pref":"愛知県","city":"豊田市","address":"花丘町"},
{"zip_code":"4710071","kana_pref":"ｱｲﾁｹﾝ","kana_city":"ﾄﾖﾀｼ","kana_address":"ﾋｶﾞｼｳﾒﾂﾎﾞﾁｮｳ","pref":"愛知県","city":"豊田市","address":"東梅坪町"},
{"zip_code":"4710014","kana_pref":"ｱｲﾁｹﾝ","kana_city":"ﾄﾖﾀｼ","kana_address":"ﾋｶﾞｼﾔﾏﾁｮｳ","pref":"愛知県","city":"豊田市","address":"東山町"},
{"zip_code":"4710055","kana_pref":"ｱｲﾁｹﾝ","kana_city":"ﾄﾖﾀｼ","kana_address":"ﾋｻｵｶﾁｮｳ","pref":"愛知県","city":"豊田市","address":"久岡町"},
{"zip_code":"4710075","kana_pref":"ｱｲﾁｹﾝ","kana_city":"ﾄﾖﾀｼ","kana_address":"ﾋﾉﾃﾞﾁｮｳ","pref":"愛知県","city":"豊田市","address":"日之出町"},
{"zip_code":"4710011","kana_pref":"ｱｲﾁｹﾝ","kana_city":"ﾄﾖﾀｼ","kana_address":"ﾋﾗｲﾁｮｳ","pref":"愛知県","city":"豊田市","address":"平井町"},
{"zip_code":"4710065","kana_pref":"ｱｲﾁｹﾝ","kana_city":"ﾄﾖﾀｼ","kana_address":"ﾋﾗｼﾊﾞﾁｮｳ","pref":"愛知県","city":"豊田市","address":"平芝町"},
{"zip_code":"4710827","kana_pref":"ｱｲﾁｹﾝ","kana_city":"ﾄﾖﾀｼ","kana_address":"ﾋﾗﾔﾏﾁｮｳ","pref":"愛知県","city":"豊田市","address":"平山町"},
{"zip_code":"4710807","kana_pref":"ｱｲﾁｹﾝ","kana_city":"ﾄﾖﾀｼ","kana_address":"ﾋﾛｶﾜﾁｮｳ","pref":"愛知県","city":"豊田市","address":"広川町"},
{"zip_code":"4710036","kana_pref":"ｱｲﾁｹﾝ","kana_city":"ﾄﾖﾀｼ","kana_address":"ﾋﾛｸﾃﾁｮｳ","pref":"愛知県","city":"豊田市","address":"広久手町"},
{"zip_code":"4710864","kana_pref":"ｱｲﾁｹﾝ","kana_city":"ﾄﾖﾀｼ","kana_address":"ﾋﾛｼﾞﾁｮｳ","pref":"愛知県","city":"豊田市","address":"広路町"},
{"zip_code":"4710841","kana_pref":"ｱｲﾁｹﾝ","kana_city":"ﾄﾖﾀｼ","kana_address":"ﾌｶﾀﾞﾁｮｳ","pref":"愛知県","city":"豊田市","address":"深田町"},
{"zip_code":"4710009","kana_pref":"ｱｲﾁｹﾝ","kana_city":"ﾄﾖﾀｼ","kana_address":"ﾌｿｳﾁｮｳ","pref":"愛知県","city":"豊田市","address":"扶桑町"},
{"zip_code":"4710004","kana_pref":"ｱｲﾁｹﾝ","kana_city":"ﾄﾖﾀｼ","kana_address":"ﾌﾀﾐﾁｮｳ","pref":"愛知県","city":"豊田市","address":"双美町"},
{"zip_code":"4710821","kana_pref":"ｱｲﾁｹﾝ","kana_city":"ﾄﾖﾀｼ","kana_address":"ﾍｲﾜﾁｮｳ","pref":"愛知県","city":"豊田市","address":"平和町"},
{"zip_code":"4710809","kana_pref":"ｱｲﾁｹﾝ","kana_city":"ﾄﾖﾀｼ","kana_address":"ﾎｳﾗｲﾁｮｳ","pref":"愛知県","city":"豊田市","address":"宝来町"},
{"zip_code":"4710853","kana_pref":"ｱｲﾁｹﾝ","kana_city":"ﾄﾖﾀｼ","kana_address":"ﾎｿﾔﾁｮｳ","pref":"愛知県","city":"豊田市","address":"細谷町"},
{"zip_code":"4710046","kana_pref":"ｱｲﾁｹﾝ","kana_city":"ﾄﾖﾀｼ","kana_address":"ﾎﾝｼﾝﾁｮｳ","pref":"愛知県","city":"豊田市","address":"本新町"},
{"zip_code":"4710848","kana_pref":"ｱｲﾁｹﾝ","kana_city":"ﾄﾖﾀｼ","kana_address":"ﾎﾝｼﾞﾁｮｳ","pref":"愛知県","city":"豊田市","address":"本地町"},
{"zip_code":"4710874","kana_pref":"ｱｲﾁｹﾝ","kana_city":"ﾄﾖﾀｼ","kana_address":"ﾏｴﾀﾞﾁｮｳ","pref":"愛知県","city":"豊田市","address":"前田町"},
{"zip_code":"4710828","kana_pref":"ｱｲﾁｹﾝ","kana_city":"ﾄﾖﾀｼ","kana_address":"ﾏｴﾔﾏﾁｮｳ","pref":"愛知県","city":"豊田市","address":"前山町"},
{"zip_code":"4710865","kana_pref":"ｱｲﾁｹﾝ","kana_city":"ﾄﾖﾀｼ","kana_address":"ﾏﾂｶﾞｴﾁｮｳ","pref":"愛知県","city":"豊田市","address":"松ケ枝町"},
{"zip_code":"4710053","kana_pref":"ｱｲﾁｹﾝ","kana_city":"ﾄﾖﾀｼ","kana_address":"ﾏﾙﾈﾁｮｳ","pref":"愛知県","city":"豊田市","address":"丸根町"},
{"zip_code":"4710832","kana_pref":"ｱｲﾁｹﾝ","kana_city":"ﾄﾖﾀｼ","kana_address":"ﾏﾙﾔﾏﾁｮｳ","pref":"愛知県","city":"豊田市","address":"丸山町"},
{"zip_code":"4710805","kana_pref":"ｱｲﾁｹﾝ","kana_city":"ﾄﾖﾀｼ","kana_address":"ﾐｻﾄ","pref":"愛知県","city":"豊田市","address":"美里"},
{"zip_code":"4710863","kana_pref":"ｱｲﾁｹﾝ","kana_city":"ﾄﾖﾀｼ","kana_address":"ﾐｽﾞﾎﾁｮｳ","pref":"愛知県","city":"豊田市","address":"瑞穂町"},
{"zip_code":"4710012","kana_pref":"ｱｲﾁｹﾝ","kana_city":"ﾄﾖﾀｼ","kana_address":"ﾐｽﾞﾏﾁｮｳ","pref":"愛知県","city":"豊田市","address":"水間町"},
{"zip_code":"4710811","kana_pref":"ｱｲﾁｹﾝ","kana_city":"ﾄﾖﾀｼ","kana_address":"ﾐﾀﾁﾁｮｳ","pref":"愛知県","city":"豊田市","address":"御立町"},
{"zip_code":"4710838","kana_pref":"ｱｲﾁｹﾝ","kana_city":"ﾄﾖﾀｼ","kana_address":"ﾐﾄﾞﾘｶﾞｵｶ","pref":"愛知県","city":"豊田市","address":"緑ケ丘"},
{"zip_code":"4710038","kana_pref":"ｱｲﾁｹﾝ","kana_city":"ﾄﾖﾀｼ","kana_address":"ﾐﾔｶﾞﾐﾁｮｳ","pref":"愛知県","city":"豊田市","address":"宮上町"},
{"zip_code":"4710042","kana_pref":"ｱｲﾁｹﾝ","kana_city":"ﾄﾖﾀｼ","kana_address":"ﾐﾔｸﾞﾁﾁｮｳ","pref":"愛知県","city":"豊田市","address":"宮口町"},
{"zip_code":"4710819","kana_pref":"ｱｲﾁｹﾝ","kana_city":"ﾄﾖﾀｼ","kana_address":"ﾐﾔﾏｴﾁｮｳ","pref":"愛知県","city":"豊田市","address":"宮前町"},
{"zip_code":"4710043","kana_pref":"ｱｲﾁｹﾝ","kana_city":"ﾄﾖﾀｼ","kana_address":"ﾐﾔﾏﾁ","pref":"愛知県","city":"豊田市","address":"宮町"},
{"zip_code":"4710849","kana_pref":"ｱｲﾁｹﾝ","kana_city":"ﾄﾖﾀｼ","kana_address":"ﾐﾔﾏﾁｮｳ","pref":"愛知県","city":"豊田市","address":"美山町"},
{"zip_code":"4710852","kana_pref":"ｱｲﾁｹﾝ","kana_city":"ﾄﾖﾀｼ","kana_address":"ﾐﾕｷﾁｮｳ","pref":"愛知県","city":"豊田市","address":"御幸町"},
{"zip_code":"4710007","kana_pref":"ｱｲﾁｹﾝ","kana_city":"ﾄﾖﾀｼ","kana_address":"ﾐﾜﾁｮｳ","pref":"愛知県","city":"豊田市","address":"美和町"},
{"zip_code":"4710818","kana_pref":"ｱｲﾁｹﾝ","kana_city":"ﾄﾖﾀｼ","kana_address":"ﾑﾛﾏﾁ","pref":"愛知県","city":"豊田市","address":"室町"},
{"zip_code":"4710825","kana_pref":"ｱｲﾁｹﾝ","kana_city":"ﾄﾖﾀｼ","kana_address":"ﾒｲﾜﾁｮｳ","pref":"愛知県","city":"豊田市","address":"明和町"},
{"zip_code":"4710024","kana_pref":"ｱｲﾁｹﾝ","kana_city":"ﾄﾖﾀｼ","kana_address":"ﾓﾄｼﾛﾁｮｳ","pref":"愛知県","city":"豊田市","address":"元城町"},
{"zip_code":"4710854","kana_pref":"ｱｲﾁｹﾝ","kana_city":"ﾄﾖﾀｼ","kana_address":"ﾓﾄﾏﾁ","pref":"愛知県","city":"豊田市","address":"元町"},
{"zip_code":"4710871","kana_pref":"ｱｲﾁｹﾝ","kana_city":"ﾄﾖﾀｼ","kana_address":"ﾓﾄﾐﾔﾁｮｳ","pref":"愛知県","city":"豊田市","address":"元宮町"},
{"zip_code":"4710806","kana_pref":"ｱｲﾁｹﾝ","kana_city":"ﾄﾖﾀｼ","kana_address":"ﾓﾘﾁｮｳ","pref":"愛知県","city":"豊田市","address":"森町"},
{"zip_code":"4710018","kana_pref":"ｱｲﾁｹﾝ","kana_city":"ﾄﾖﾀｼ","kana_address":"ﾔｼﾛﾁｮｳ","pref":"愛知県","city":"豊田市","address":"社町"},
{"zip_code":"4710002","kana_pref":"ｱｲﾁｹﾝ","kana_city":"ﾄﾖﾀｼ","kana_address":"ﾔﾅﾐﾁｮｳ","pref":"愛知県","city":"豊田市","address":"矢並町"},
{"zip_code":"4710833","kana_pref":"ｱｲﾁｹﾝ","kana_city":"ﾄﾖﾀｼ","kana_address":"ﾔﾏﾉﾃ","pref":"愛知県","city":"豊田市","address":"山之手"},
{"zip_code":"4710068","kana_pref":"ｱｲﾁｹﾝ","kana_city":"ﾄﾖﾀｼ","kana_address":"ﾖｺﾔﾏﾁｮｳ","pref":"愛知県","city":"豊田市","address":"横山町"},
{"zip_code":"4710872","kana_pref":"ｱｲﾁｹﾝ","kana_city":"ﾄﾖﾀｼ","kana_address":"ﾘｭｳｸﾞｳﾁｮｳ","pref":"愛知県","city":"豊田市","address":"竜宮町"},
{"zip_code":"4710061","kana_pref":"ｱｲﾁｹﾝ","kana_city":"ﾄﾖﾀｼ","kana_address":"ﾜｶｸｻﾁｮｳ","pref":"愛知県","city":"豊田市","address":"若草町"},
{"zip_code":"4710026","kana_pref":"ｱｲﾁｹﾝ","kana_city":"ﾄﾖﾀｼ","kana_address":"ﾜｶﾐﾔﾁｮｳ","pref":"愛知県","city":"豊田市","address":"若宮町"}]}