{"zip_code":[
{"zip_code":"4720000","kana_pref":"ｱｲﾁｹﾝ","kana_city":"ﾁﾘｭｳｼ","kana_address":"","pref":"愛知県","city":"知立市","address":""},
{"zip_code":"4720021","kana_pref":"ｱｲﾁｹﾝ","kana_city":"ﾁﾘｭｳｼ","kana_address":"ｱｲﾂﾞﾏﾁｮｳ","pref":"愛知県","city":"知立市","address":"逢妻町"},
{"zip_code":"4720025","kana_pref":"ｱｲﾁｹﾝ","kana_city":"ﾁﾘｭｳｼ","kana_address":"ｲｹﾊﾀ","pref":"愛知県","city":"知立市","address":"池端"},
{"zip_code":"4720003","kana_pref":"ｱｲﾁｹﾝ","kana_city":"ﾁﾘｭｳｼ","kana_address":"ｳｼﾀﾞ","pref":"愛知県","city":"知立市","address":"牛田"},
{"zip_code":"4720007","kana_pref":"ｱｲﾁｹﾝ","kana_city":"ﾁﾘｭｳｼ","kana_address":"ｳｼﾀﾁｮｳ","pref":"愛知県","city":"知立市","address":"牛田町"},
{"zip_code":"4720042","kana_pref":"ｱｲﾁｹﾝ","kana_city":"ﾁﾘｭｳｼ","kana_address":"ｳﾁｻｲﾜｲﾁｮｳ","pref":"愛知県","city":"知立市","address":"内幸町"},
{"zip_code":"4720058","kana_pref":"ｱｲﾁｹﾝ","kana_city":"ﾁﾘｭｳｼ","kana_address":"ｶﾐｼｹﾞﾊﾗ","pref":"愛知県","city":"知立市","address":"上重原"},
{"zip_code":"4720026","kana_pref":"ｱｲﾁｹﾝ","kana_city":"ﾁﾘｭｳｼ","kana_address":"ｶﾐｼｹﾞﾊﾗﾁｮｳ","pref":"愛知県","city":"知立市","address":"上重原町"},
{"zip_code":"4720034","kana_pref":"ｱｲﾁｹﾝ","kana_city":"ﾁﾘｭｳｼ","kana_address":"ｺｳｴｲ","pref":"愛知県","city":"知立市","address":"弘栄"},
{"zip_code":"4720052","kana_pref":"ｱｲﾁｹﾝ","kana_city":"ﾁﾘｭｳｼ","kana_address":"ｺｳﾎﾞｳ","pref":"愛知県","city":"知立市","address":"弘法"},
{"zip_code":"4720046","kana_pref":"ｱｲﾁｹﾝ","kana_city":"ﾁﾘｭｳｼ","kana_address":"ｺｳﾎﾞｳﾁｮｳ","pref":"愛知県","city":"知立市","address":"弘法町"},
{"zip_code":"4720037","kana_pref":"ｱｲﾁｹﾝ","kana_city":"ﾁﾘｭｳｼ","kana_address":"ｻｶｴ","pref":"愛知県","city":"知立市","address":"栄"},
{"zip_code":"4720031","kana_pref":"ｱｲﾁｹﾝ","kana_city":"ﾁﾘｭｳｼ","kana_address":"ｻｸﾗｷﾞﾁｮｳ","pref":"愛知県","city":"知立市","address":"桜木町"},
{"zip_code":"4720011","kana_pref":"ｱｲﾁｹﾝ","kana_city":"ﾁﾘｭｳｼ","kana_address":"ｼｮｳﾜ","pref":"愛知県","city":"知立市","address":"昭和"},
{"zip_code":"4720005","kana_pref":"ｱｲﾁｹﾝ","kana_city":"ﾁﾘｭｳｼ","kana_address":"ｼﾝｲｹ","pref":"愛知県","city":"知立市","address":"新池"},
{"zip_code":"4720041","kana_pref":"ｱｲﾁｹﾝ","kana_city":"ﾁﾘｭｳｼ","kana_address":"ｼﾝﾁﾁｮｳ","pref":"愛知県","city":"知立市","address":"新地町"},
{"zip_code":"4720047","kana_pref":"ｱｲﾁｹﾝ","kana_city":"ﾁﾘｭｳｼ","kana_address":"ｼﾝﾄﾐ","pref":"愛知県","city":"知立市","address":"新富"},
{"zip_code":"4720017","kana_pref":"ｱｲﾁｹﾝ","kana_city":"ﾁﾘｭｳｼ","kana_address":"ｼﾝﾊﾞﾔｼﾁｮｳ","pref":"愛知県","city":"知立市","address":"新林町"},
{"zip_code":"4720056","kana_pref":"ｱｲﾁｹﾝ","kana_city":"ﾁﾘｭｳｼ","kana_address":"ﾀｶﾗ","pref":"愛知県","city":"知立市","address":"宝"},
{"zip_code":"4720024","kana_pref":"ｱｲﾁｹﾝ","kana_city":"ﾁﾘｭｳｼ","kana_address":"ﾀｶﾗﾏﾁ","pref":"愛知県","city":"知立市","address":"宝町"},
{"zip_code":"4720043","kana_pref":"ｱｲﾁｹﾝ","kana_city":"ﾁﾘｭｳｼ","kana_address":"ﾄｳｴｲ","pref":"愛知県","city":"知立市","address":"東栄"},
{"zip_code":"4720055","kana_pref":"ｱｲﾁｹﾝ","kana_city":"ﾁﾘｭｳｼ","kana_address":"ﾄﾘｲ","pref":"愛知県","city":"知立市","address":"鳥居"},
{"zip_code":"4720033","kana_pref":"ｱｲﾁｹﾝ","kana_city":"ﾁﾘｭｳｼ","kana_address":"ﾅｶﾏﾁ","pref":"愛知県","city":"知立市","address":"中町"},
{"zip_code":"4720032","kana_pref":"ｱｲﾁｹﾝ","kana_city":"ﾁﾘｭｳｼ","kana_address":"ﾅｶﾔﾏﾏﾁ","pref":"愛知県","city":"知立市","address":"中山町"},
{"zip_code":"4720045","kana_pref":"ｱｲﾁｹﾝ","kana_city":"ﾁﾘｭｳｼ","kana_address":"ﾅｶﾞｼﾉﾁｮｳ","pref":"愛知県","city":"知立市","address":"長篠町"},
{"zip_code":"4720035","kana_pref":"ｱｲﾁｹﾝ","kana_city":"ﾁﾘｭｳｼ","kana_address":"ﾅｶﾞﾀ","pref":"愛知県","city":"知立市","address":"長田"},
{"zip_code":"4720004","kana_pref":"ｱｲﾁｹﾝ","kana_city":"ﾁﾘｭｳｼ","kana_address":"ﾅﾝﾖｳ","pref":"愛知県","city":"知立市","address":"南陽"},
{"zip_code":"4720057","kana_pref":"ｱｲﾁｹﾝ","kana_city":"ﾁﾘｭｳｼ","kana_address":"ﾆｼ","pref":"愛知県","city":"知立市","address":"西"},
{"zip_code":"4720027","kana_pref":"ｱｲﾁｹﾝ","kana_city":"ﾁﾘｭｳｼ","kana_address":"ﾆｼｵｶﾁｮｳ","pref":"愛知県","city":"知立市","address":"西丘町"},
{"zip_code":"4720016","kana_pref":"ｱｲﾁｹﾝ","kana_city":"ﾁﾘｭｳｼ","kana_address":"ﾆｼﾅｶﾁｮｳ","pref":"愛知県","city":"知立市","address":"西中町"},
{"zip_code":"4720023","kana_pref":"ｱｲﾁｹﾝ","kana_city":"ﾁﾘｭｳｼ","kana_address":"ﾆｼﾏﾁ","pref":"愛知県","city":"知立市","address":"西町"},
{"zip_code":"4720054","kana_pref":"ｱｲﾁｹﾝ","kana_city":"ﾁﾘｭｳｼ","kana_address":"ﾋｶﾞｼｶﾐｼｹﾞﾊﾗ","pref":"愛知県","city":"知立市","address":"東上重原"},
{"zip_code":"4720051","kana_pref":"ｱｲﾁｹﾝ","kana_city":"ﾁﾘｭｳｼ","kana_address":"ﾋｶﾞｼﾅｶﾞｼﾉ","pref":"愛知県","city":"知立市","address":"東長篠"},
{"zip_code":"4720044","kana_pref":"ｱｲﾁｹﾝ","kana_city":"ﾁﾘｭｳｼ","kana_address":"ﾋﾛﾐ","pref":"愛知県","city":"知立市","address":"広見"},
{"zip_code":"4720036","kana_pref":"ｱｲﾁｹﾝ","kana_city":"ﾁﾘｭｳｼ","kana_address":"ﾎﾘｷﾘ","pref":"愛知県","city":"知立市","address":"堀切"},
{"zip_code":"4720038","kana_pref":"ｱｲﾁｹﾝ","kana_city":"ﾁﾘｭｳｼ","kana_address":"ﾎﾝﾏﾁ","pref":"愛知県","city":"知立市","address":"本町"},
{"zip_code":"4720053","kana_pref":"ｱｲﾁｹﾝ","kana_city":"ﾁﾘｭｳｼ","kana_address":"ﾐﾅﾐｼﾝﾁ","pref":"愛知県","city":"知立市","address":"南新地"},
{"zip_code":"4720013","kana_pref":"ｱｲﾁｹﾝ","kana_city":"ﾁﾘｭｳｼ","kana_address":"ﾔﾀﾁｮｳ","pref":"愛知県","city":"知立市","address":"谷田町"},
{"zip_code":"4720015","kana_pref":"ｱｲﾁｹﾝ","kana_city":"ﾁﾘｭｳｼ","kana_address":"ﾔﾀﾁｮｳﾎﾝﾊﾞﾔｼ","pref":"愛知県","city":"知立市","address":"谷田町本林"},
{"zip_code":"4720014","kana_pref":"ｱｲﾁｹﾝ","kana_city":"ﾁﾘｭｳｼ","kana_address":"ﾔﾀﾁｮｳﾆｼ","pref":"愛知県","city":"知立市","address":"谷田町西"},
{"zip_code":"4720012","kana_pref":"ｱｲﾁｹﾝ","kana_city":"ﾁﾘｭｳｼ","kana_address":"ﾔﾂﾀﾞﾁｮｳ","pref":"愛知県","city":"知立市","address":"八ツ田町"},
{"zip_code":"4720001","kana_pref":"ｱｲﾁｹﾝ","kana_city":"ﾁﾘｭｳｼ","kana_address":"ﾔﾂﾊｼﾁｮｳ","pref":"愛知県","city":"知立市","address":"八橋町"},
{"zip_code":"4720006","kana_pref":"ｱｲﾁｹﾝ","kana_city":"ﾁﾘｭｳｼ","kana_address":"ﾔﾏﾏﾁ","pref":"愛知県","city":"知立市","address":"山町"},
{"zip_code":"4720022","kana_pref":"ｱｲﾁｹﾝ","kana_city":"ﾁﾘｭｳｼ","kana_address":"ﾔﾏﾔｼｷﾁｮｳ","pref":"愛知県","city":"知立市","address":"山屋敷町"},
{"zip_code":"4720002","kana_pref":"ｱｲﾁｹﾝ","kana_city":"ﾁﾘｭｳｼ","kana_address":"ﾗｲｺｳｼﾞﾁｮｳ","pref":"愛知県","city":"知立市","address":"来迎寺町"}]}