{"zip_code":[
{"zip_code":"4740000","kana_pref":"ｱｲﾁｹﾝ","kana_city":"ｵｵﾌﾞｼ","kana_address":"","pref":"愛知県","city":"大府市","address":""},
{"zip_code":"4740024","kana_pref":"ｱｲﾁｹﾝ","kana_city":"ｵｵﾌﾞｼ","kana_address":"ｱｻﾋﾁｮｳ","pref":"愛知県","city":"大府市","address":"朝日町"},
{"zip_code":"4740045","kana_pref":"ｱｲﾁｹﾝ","kana_city":"ｵｵﾌﾞｼ","kana_address":"ｳﾏｲｹﾁｮｳ","pref":"愛知県","city":"大府市","address":"馬池町"},
{"zip_code":"4740035","kana_pref":"ｱｲﾁｹﾝ","kana_city":"ｵｵﾌﾞｼ","kana_address":"ｴﾊﾞﾀﾁｮｳ","pref":"愛知県","city":"大府市","address":"江端町"},
{"zip_code":"4740027","kana_pref":"ｱｲﾁｹﾝ","kana_city":"ｵｵﾌﾞｼ","kana_address":"ｵｲﾜｹﾁｮｳ","pref":"愛知県","city":"大府市","address":"追分町"},
{"zip_code":"4740051","kana_pref":"ｱｲﾁｹﾝ","kana_city":"ｵｵﾌﾞｼ","kana_address":"ｵｵﾌﾞﾏﾁ","pref":"愛知県","city":"大府市","address":"大府町"},
{"zip_code":"4740071","kana_pref":"ｱｲﾁｹﾝ","kana_city":"ｵｵﾌﾞｼ","kana_address":"ｶｼﾞﾀﾁｮｳ","pref":"愛知県","city":"大府市","address":"梶田町"},
{"zip_code":"4740003","kana_pref":"ｱｲﾁｹﾝ","kana_city":"ｵｵﾌﾞｼ","kana_address":"ｶﾝﾀﾞﾁｮｳ","pref":"愛知県","city":"大府市","address":"神田町"},
{"zip_code":"4740002","kana_pref":"ｱｲﾁｹﾝ","kana_city":"ｵｵﾌﾞｼ","kana_address":"ｷﾀｻｷﾁｮｳ","pref":"愛知県","city":"大府市","address":"北崎町"},
{"zip_code":"4740001","kana_pref":"ｱｲﾁｹﾝ","kana_city":"ｵｵﾌﾞｼ","kana_address":"ｷﾀｻｷﾏﾁ","pref":"愛知県","city":"大府市","address":"北崎町"},
{"zip_code":"4740072","kana_pref":"ｱｲﾁｹﾝ","kana_city":"ｵｵﾌﾞｼ","kana_address":"ｷﾀﾔﾏﾁｮｳ","pref":"愛知県","city":"大府市","address":"北山町"},
{"zip_code":"4740074","kana_pref":"ｱｲﾁｹﾝ","kana_city":"ｵｵﾌﾞｼ","kana_address":"ｷｮｳｴｲﾁｮｳ","pref":"愛知県","city":"大府市","address":"共栄町"},
{"zip_code":"4740062","kana_pref":"ｱｲﾁｹﾝ","kana_city":"ｵｵﾌﾞｼ","kana_address":"ｷｮｳｾｲﾁｮｳ","pref":"愛知県","city":"大府市","address":"共西町"},
{"zip_code":"4740061","kana_pref":"ｱｲﾁｹﾝ","kana_city":"ｵｵﾌﾞｼ","kana_address":"ｷｮｳﾜﾁｮｳ","pref":"愛知県","city":"大府市","address":"共和町"},
{"zip_code":"4740057","kana_pref":"ｱｲﾁｹﾝ","kana_city":"ｵｵﾌﾞｼ","kana_address":"ｷｮｳﾜﾏﾁ","pref":"愛知県","city":"大府市","address":"共和町"},
{"zip_code":"4740043","kana_pref":"ｱｲﾁｹﾝ","kana_city":"ｵｵﾌﾞｼ","kana_address":"ｺﾒﾀﾞﾁｮｳ","pref":"愛知県","city":"大府市","address":"米田町"},
{"zip_code":"4740044","kana_pref":"ｱｲﾁｹﾝ","kana_city":"ｵｵﾌﾞｼ","kana_address":"ｻｸﾗｷﾞﾁｮｳ","pref":"愛知県","city":"大府市","address":"桜木町"},
{"zip_code":"4740023","kana_pref":"ｱｲﾁｹﾝ","kana_city":"ｵｵﾌﾞｼ","kana_address":"ﾀﾞｲﾄｳﾁｮｳ","pref":"愛知県","city":"大府市","address":"大東町"},
{"zip_code":"4740042","kana_pref":"ｱｲﾁｹﾝ","kana_city":"ｵｵﾌﾞｼ","kana_address":"ﾀｶｵｶﾁｮｳ","pref":"愛知県","city":"大府市","address":"高丘町"},
{"zip_code":"4740025","kana_pref":"ｱｲﾁｹﾝ","kana_city":"ｵｵﾌﾞｼ","kana_address":"ﾁｭｳｵｳﾁｮｳ","pref":"愛知県","city":"大府市","address":"中央町"},
{"zip_code":"4740036","kana_pref":"ｱｲﾁｹﾝ","kana_city":"ｵｵﾌﾞｼ","kana_address":"ﾂｷﾐﾁｮｳ","pref":"愛知県","city":"大府市","address":"月見町"},
{"zip_code":"4740073","kana_pref":"ｱｲﾁｹﾝ","kana_city":"ｵｵﾌﾞｼ","kana_address":"ﾄｳｼﾝﾁｮｳ","pref":"愛知県","city":"大府市","address":"東新町"},
{"zip_code":"4740052","kana_pref":"ｱｲﾁｹﾝ","kana_city":"ｵｵﾌﾞｼ","kana_address":"ﾅｶﾞｸｻﾏﾁ","pref":"愛知県","city":"大府市","address":"長草町"},
{"zip_code":"4740021","kana_pref":"ｱｲﾁｹﾝ","kana_city":"ｵｵﾌﾞｼ","kana_address":"ﾅｶﾞﾈﾁｮｳ","pref":"愛知県","city":"大府市","address":"長根町"},
{"zip_code":"4740037","kana_pref":"ｱｲﾁｹﾝ","kana_city":"ｵｵﾌﾞｼ","kana_address":"ﾊﾝﾂｷﾁｮｳ","pref":"愛知県","city":"大府市","address":"半月町"},
{"zip_code":"4740053","kana_pref":"ｱｲﾁｹﾝ","kana_city":"ｵｵﾌﾞｼ","kana_address":"ﾋｲﾗｷﾞﾔﾏﾁｮｳ","pref":"愛知県","city":"大府市","address":"柊山町"},
{"zip_code":"4740055","kana_pref":"ｱｲﾁｹﾝ","kana_city":"ｵｵﾌﾞｼ","kana_address":"ﾋﾄﾂﾔﾁｮｳ","pref":"愛知県","city":"大府市","address":"一屋町"},
{"zip_code":"4740047","kana_pref":"ｱｲﾁｹﾝ","kana_city":"ｵｵﾌﾞｼ","kana_address":"ﾐﾔｳﾁﾁｮｳ","pref":"愛知県","city":"大府市","address":"宮内町"},
{"zip_code":"4740056","kana_pref":"ｱｲﾁｹﾝ","kana_city":"ｵｵﾌﾞｼ","kana_address":"ﾒｲｾｲﾁｮｳ","pref":"愛知県","city":"大府市","address":"明成町"},
{"zip_code":"4740026","kana_pref":"ｱｲﾁｹﾝ","kana_city":"ｵｵﾌﾞｼ","kana_address":"ﾓﾓﾔﾏﾁｮｳ","pref":"愛知県","city":"大府市","address":"桃山町"},
{"zip_code":"4740038","kana_pref":"ｱｲﾁｹﾝ","kana_city":"ｵｵﾌﾞｼ","kana_address":"ﾓﾘｵｶﾁｮｳ","pref":"愛知県","city":"大府市","address":"森岡町"},
{"zip_code":"4740031","kana_pref":"ｱｲﾁｹﾝ","kana_city":"ｵｵﾌﾞｼ","kana_address":"ﾓﾘｵｶﾏﾁ","pref":"愛知県","city":"大府市","address":"森岡町"},
{"zip_code":"4740011","kana_pref":"ｱｲﾁｹﾝ","kana_city":"ｵｵﾌﾞｼ","kana_address":"ﾖｺﾈﾏﾁ","pref":"愛知県","city":"大府市","address":"横根町"},
{"zip_code":"4740046","kana_pref":"ｱｲﾁｹﾝ","kana_city":"ｵｵﾌﾞｼ","kana_address":"ﾖｼｶﾜﾁｮｳ","pref":"愛知県","city":"大府市","address":"吉川町"},
{"zip_code":"4740048","kana_pref":"ｱｲﾁｹﾝ","kana_city":"ｵｵﾌﾞｼ","kana_address":"ﾖｼﾀﾞﾁｮｳ","pref":"愛知県","city":"大府市","address":"吉田町"},
{"zip_code":"4740041","kana_pref":"ｱｲﾁｹﾝ","kana_city":"ｵｵﾌﾞｼ","kana_address":"ﾖｼﾀﾞﾏﾁ","pref":"愛知県","city":"大府市","address":"吉田町"},
{"zip_code":"4740022","kana_pref":"ｱｲﾁｹﾝ","kana_city":"ｵｵﾌﾞｼ","kana_address":"ﾜｶｸｻﾁｮｳ","pref":"愛知県","city":"大府市","address":"若草町"}]}