{"zip_code":[
{"zip_code":"4760000","kana_pref":"ｱｲﾁｹﾝ","kana_city":"ﾄｳｶｲｼ","kana_address":"","pref":"愛知県","city":"東海市","address":""},
{"zip_code":"4760006","kana_pref":"ｱｲﾁｹﾝ","kana_city":"ﾄｳｶｲｼ","kana_address":"ｱｻﾔﾏ","pref":"愛知県","city":"東海市","address":"浅山"},
{"zip_code":"4760003","kana_pref":"ｱｲﾁｹﾝ","kana_city":"ﾄｳｶｲｼ","kana_address":"ｱﾗｵﾏﾁ","pref":"愛知県","city":"東海市","address":"荒尾町"},
{"zip_code":"4760004","kana_pref":"ｱｲﾁｹﾝ","kana_city":"ﾄｳｶｲｼ","kana_address":"ｱﾗｵﾏﾁﾐｽﾞﾌﾞｶ","pref":"愛知県","city":"東海市","address":"荒尾町水深"},
{"zip_code":"4760005","kana_pref":"ｱｲﾁｹﾝ","kana_city":"ﾄｳｶｲｼ","kana_address":"ｼﾝﾎﾟｳﾏﾁ","pref":"愛知県","city":"東海市","address":"新宝町"},
{"zip_code":"4760013","kana_pref":"ｱｲﾁｹﾝ","kana_city":"ﾄｳｶｲｼ","kana_address":"ﾁｭｳｵｳﾏﾁ","pref":"愛知県","city":"東海市","address":"中央町"},
{"zip_code":"4760015","kana_pref":"ｱｲﾁｹﾝ","kana_city":"ﾄｳｶｲｼ","kana_address":"ﾄｳｶｲﾏﾁ","pref":"愛知県","city":"東海市","address":"東海町"},
{"zip_code":"4760002","kana_pref":"ｱｲﾁｹﾝ","kana_city":"ﾄｳｶｲｼ","kana_address":"ﾅﾜﾏﾁ","pref":"愛知県","city":"東海市","address":"名和町"},
{"zip_code":"4760011","kana_pref":"ｱｲﾁｹﾝ","kana_city":"ﾄｳｶｲｼ","kana_address":"ﾌｷｼﾏﾏﾁ","pref":"愛知県","city":"東海市","address":"富木島町"},
{"zip_code":"4760012","kana_pref":"ｱｲﾁｹﾝ","kana_city":"ﾄｳｶｲｼ","kana_address":"ﾌｷｼﾏﾏﾁﾌｼﾐ","pref":"愛知県","city":"東海市","address":"富木島町伏見"},
{"zip_code":"4760014","kana_pref":"ｱｲﾁｹﾝ","kana_city":"ﾄｳｶｲｼ","kana_address":"ﾌｷﾉﾀﾞｲ","pref":"愛知県","city":"東海市","address":"富貴ノ台"},
{"zip_code":"4760001","kana_pref":"ｱｲﾁｹﾝ","kana_city":"ﾄｳｶｲｼ","kana_address":"ﾐﾅﾐｼﾊﾞﾀﾏﾁ","pref":"愛知県","city":"東海市","address":"南柴田町"}]}