{"zip_code":[
{"zip_code":"4780000","kana_pref":"ｱｲﾁｹﾝ","kana_city":"ﾁﾀｼ","kana_address":"","pref":"愛知県","city":"知多市","address":""},
{"zip_code":"4780058","kana_pref":"ｱｲﾁｹﾝ","kana_city":"ﾁﾀｼ","kana_address":"ｱｶﾞﾘﾄﾞ","pref":"愛知県","city":"知多市","address":"上り戸"},
{"zip_code":"4780051","kana_pref":"ｱｲﾁｹﾝ","kana_city":"ﾁﾀｼ","kana_address":"ｱｻｸﾗﾏﾁ","pref":"愛知県","city":"知多市","address":"朝倉町"},
{"zip_code":"4780031","kana_pref":"ｱｲﾁｹﾝ","kana_city":"ﾁﾀｼ","kana_address":"ｱｻﾋ","pref":"愛知県","city":"知多市","address":"旭"},
{"zip_code":"4780005","kana_pref":"ｱｲﾁｹﾝ","kana_city":"ﾁﾀｼ","kana_address":"ｱﾜﾗ","pref":"愛知県","city":"知多市","address":"阿原"},
{"zip_code":"4780004","kana_pref":"ｱｲﾁｹﾝ","kana_city":"ﾁﾀｼ","kana_address":"ｲｶﾞｻｶ","pref":"愛知県","city":"知多市","address":"伊賀坂"},
{"zip_code":"4780016","kana_pref":"ｱｲﾁｹﾝ","kana_city":"ﾁﾀｼ","kana_address":"ｳﾒｶﾞｵｶ","pref":"愛知県","city":"知多市","address":"梅が丘"},
{"zip_code":"4780035","kana_pref":"ｱｲﾁｹﾝ","kana_city":"ﾁﾀｼ","kana_address":"ｵｵｸｻ","pref":"愛知県","city":"知多市","address":"大草"},
{"zip_code":"4780067","kana_pref":"ｱｲﾁｹﾝ","kana_city":"ﾁﾀｼ","kana_address":"ｵｵｿｳ","pref":"愛知県","city":"知多市","address":"大僧"},
{"zip_code":"4780021","kana_pref":"ｱｲﾁｹﾝ","kana_city":"ﾁﾀｼ","kana_address":"ｵｶﾀﾞ","pref":"愛知県","city":"知多市","address":"岡田"},
{"zip_code":"4780062","kana_pref":"ｱｲﾁｹﾝ","kana_city":"ﾁﾀｼ","kana_address":"ｵｶﾀﾞﾐｻﾄﾏﾁ","pref":"愛知県","city":"知多市","address":"岡田美里町"},
{"zip_code":"4780028","kana_pref":"ｱｲﾁｹﾝ","kana_city":"ﾁﾀｼ","kana_address":"ｵｶﾀﾞﾐﾄﾞﾘｶﾞｵｶ","pref":"愛知県","city":"知多市","address":"岡田緑が丘"},
{"zip_code":"4780032","kana_pref":"ｱｲﾁｹﾝ","kana_city":"ﾁﾀｼ","kana_address":"ｶﾅｻﾞﾜ","pref":"愛知県","city":"知多市","address":"金沢"},
{"zip_code":"4780033","kana_pref":"ｱｲﾁｹﾝ","kana_city":"ﾁﾀｼ","kana_address":"ｶﾝﾀﾞ","pref":"愛知県","city":"知多市","address":"神田"},
{"zip_code":"4780046","kana_pref":"ｱｲﾁｹﾝ","kana_city":"ﾁﾀｼ","kana_address":"ｷﾀﾊﾏﾏﾁ","pref":"愛知県","city":"知多市","address":"北浜町"},
{"zip_code":"4780044","kana_pref":"ｱｲﾁｹﾝ","kana_city":"ﾁﾀｼ","kana_address":"ｷｮｸﾄｳﾀﾞｲ","pref":"愛知県","city":"知多市","address":"旭桃台"},
{"zip_code":"4780034","kana_pref":"ｱｲﾁｹﾝ","kana_city":"ﾁﾀｼ","kana_address":"ｷｮｸﾅﾝ","pref":"愛知県","city":"知多市","address":"旭南"},
{"zip_code":"4780006","kana_pref":"ｱｲﾁｹﾝ","kana_city":"ﾁﾀｼ","kana_address":"ｻﾝﾀﾝﾀﾞ","pref":"愛知県","city":"知多市","address":"三反田"},
{"zip_code":"4780053","kana_pref":"ｱｲﾁｹﾝ","kana_city":"ﾁﾀｼ","kana_address":"ｼﾐｽﾞｶﾞｵｶ","pref":"愛知県","city":"知多市","address":"清水が丘"},
{"zip_code":"4780069","kana_pref":"ｱｲﾁｹﾝ","kana_city":"ﾁﾀｼ","kana_address":"ｼﾝｶﾀﾅｲｹ","pref":"愛知県","city":"知多市","address":"新刀池"},
{"zip_code":"4780017","kana_pref":"ｱｲﾁｹﾝ","kana_city":"ﾁﾀｼ","kana_address":"ｼﾝﾁ","pref":"愛知県","city":"知多市","address":"新知"},
{"zip_code":"4780064","kana_pref":"ｱｲﾁｹﾝ","kana_city":"ﾁﾀｼ","kana_address":"ｼﾝﾁﾀﾞｲ","pref":"愛知県","city":"知多市","address":"新知台"},
{"zip_code":"4780066","kana_pref":"ｱｲﾁｹﾝ","kana_city":"ﾁﾀｼ","kana_address":"ｼﾝﾁﾆｼﾏﾁ","pref":"愛知県","city":"知多市","address":"新知西町"},
{"zip_code":"4780065","kana_pref":"ｱｲﾁｹﾝ","kana_city":"ﾁﾀｼ","kana_address":"ｼﾝﾁﾋｶﾞｼﾏﾁ","pref":"愛知県","city":"知多市","address":"新知東町"},
{"zip_code":"4780059","kana_pref":"ｱｲﾁｹﾝ","kana_city":"ﾁﾀｼ","kana_address":"ｼﾝﾅｶﾞﾈ","pref":"愛知県","city":"知多市","address":"新長根"},
{"zip_code":"4780027","kana_pref":"ｱｲﾁｹﾝ","kana_city":"ﾁﾀｼ","kana_address":"ｼﾝﾋﾛﾐ","pref":"愛知県","city":"知多市","address":"新広見"},
{"zip_code":"4780036","kana_pref":"ｱｲﾁｹﾝ","kana_city":"ﾁﾀｼ","kana_address":"ｼﾝﾏｲｺ","pref":"愛知県","city":"知多市","address":"新舞子"},
{"zip_code":"4780037","kana_pref":"ｱｲﾁｹﾝ","kana_city":"ﾁﾀｼ","kana_address":"ｼﾝﾏｲｺﾋｶﾞｼﾏﾁ","pref":"愛知県","city":"知多市","address":"新舞子東町"},
{"zip_code":"4780015","kana_pref":"ｱｲﾁｹﾝ","kana_city":"ﾁﾀｼ","kana_address":"ｿｳﾘ","pref":"愛知県","city":"知多市","address":"佐布里"},
{"zip_code":"4780018","kana_pref":"ｱｲﾁｹﾝ","kana_city":"ﾁﾀｼ","kana_address":"ｿｳﾘﾀﾞｲ","pref":"愛知県","city":"知多市","address":"佐布里台"},
{"zip_code":"4780022","kana_pref":"ｱｲﾁｹﾝ","kana_city":"ﾁﾀｼ","kana_address":"ﾀﾞｲｺｳｼﾞ","pref":"愛知県","city":"知多市","address":"大興寺"},
{"zip_code":"4780012","kana_pref":"ｱｲﾁｹﾝ","kana_city":"ﾁﾀｼ","kana_address":"ﾀﾂﾐｶﾞｵｶ","pref":"愛知県","city":"知多市","address":"巽が丘"},
{"zip_code":"4780054","kana_pref":"ｱｲﾁｹﾝ","kana_city":"ﾁﾀｼ","kana_address":"ﾂﾂｼﾞｶﾞｵｶ","pref":"愛知県","city":"知多市","address":"つつじが丘"},
{"zip_code":"4780063","kana_pref":"ｱｲﾁｹﾝ","kana_city":"ﾁﾀｼ","kana_address":"ﾃﾗﾓﾄｼﾝﾏﾁ","pref":"愛知県","city":"知多市","address":"寺本新町"},
{"zip_code":"4780003","kana_pref":"ｱｲﾁｹﾝ","kana_city":"ﾁﾀｼ","kana_address":"ﾃﾗﾓﾄﾀﾞｲ","pref":"愛知県","city":"知多市","address":"寺本台"},
{"zip_code":"4780042","kana_pref":"ｱｲﾁｹﾝ","kana_city":"ﾁﾀｼ","kana_address":"ﾅｶﾞｳﾗ","pref":"愛知県","city":"知多市","address":"長浦"},
{"zip_code":"4780068","kana_pref":"ｱｲﾁｹﾝ","kana_city":"ﾁﾀｼ","kana_address":"ﾅｶﾊﾗ","pref":"愛知県","city":"知多市","address":"中原"},
{"zip_code":"4780014","kana_pref":"ｱｲﾁｹﾝ","kana_city":"ﾁﾀｼ","kana_address":"ﾆｼﾀﾂﾐｶﾞｵｶ","pref":"愛知県","city":"知多市","address":"西巽が丘"},
{"zip_code":"4780055","kana_pref":"ｱｲﾁｹﾝ","kana_city":"ﾁﾀｼ","kana_address":"ﾆｼﾉﾀﾞｲ","pref":"愛知県","city":"知多市","address":"にしの台"},
{"zip_code":"4780011","kana_pref":"ｱｲﾁｹﾝ","kana_city":"ﾁﾀｼ","kana_address":"ﾊﾗ","pref":"愛知県","city":"知多市","address":"原"},
{"zip_code":"4780061","kana_pref":"ｱｲﾁｹﾝ","kana_city":"ﾁﾀｼ","kana_address":"ﾋｶﾞｼｵｵｿｳ","pref":"愛知県","city":"知多市","address":"東大僧"},
{"zip_code":"4780041","kana_pref":"ｱｲﾁｹﾝ","kana_city":"ﾁﾀｼ","kana_address":"ﾋﾅｶﾞ","pref":"愛知県","city":"知多市","address":"日長"},
{"zip_code":"4780043","kana_pref":"ｱｲﾁｹﾝ","kana_city":"ﾁﾀｼ","kana_address":"ﾋﾅｶﾞﾀﾞｲ","pref":"愛知県","city":"知多市","address":"日長台"},
{"zip_code":"4780002","kana_pref":"ｱｲﾁｹﾝ","kana_city":"ﾁﾀｼ","kana_address":"ﾋﾗﾉ","pref":"愛知県","city":"知多市","address":"平野"},
{"zip_code":"4780057","kana_pref":"ｱｲﾁｹﾝ","kana_city":"ﾁﾀｼ","kana_address":"ﾌｷｺﾐ","pref":"愛知県","city":"知多市","address":"吹込"},
{"zip_code":"4780047","kana_pref":"ｱｲﾁｹﾝ","kana_city":"ﾁﾀｼ","kana_address":"ﾐﾄﾞﾘﾏﾁ","pref":"愛知県","city":"知多市","address":"緑町"},
{"zip_code":"4780024","kana_pref":"ｱｲﾁｹﾝ","kana_city":"ﾁﾀｼ","kana_address":"ﾐﾅﾐｶｽﾔ","pref":"愛知県","city":"知多市","address":"南粕谷"},
{"zip_code":"4780026","kana_pref":"ｱｲﾁｹﾝ","kana_city":"ﾁﾀｼ","kana_address":"ﾐﾅﾐｶｽﾔｼﾝｶｲ","pref":"愛知県","city":"知多市","address":"南粕谷新海"},
{"zip_code":"4780023","kana_pref":"ｱｲﾁｹﾝ","kana_city":"ﾁﾀｼ","kana_address":"ﾐﾅﾐｶｽﾔﾋｶﾞｼｻﾞｶ","pref":"愛知県","city":"知多市","address":"南粕谷東坂"},
{"zip_code":"4780025","kana_pref":"ｱｲﾁｹﾝ","kana_city":"ﾁﾀｼ","kana_address":"ﾐﾅﾐｶｽﾔﾎﾝﾏﾁ","pref":"愛知県","city":"知多市","address":"南粕谷本町"},
{"zip_code":"4780013","kana_pref":"ｱｲﾁｹﾝ","kana_city":"ﾁﾀｼ","kana_address":"ﾐﾅﾐﾀﾂﾐｶﾞｵｶ","pref":"愛知県","city":"知多市","address":"南巽が丘"},
{"zip_code":"4780056","kana_pref":"ｱｲﾁｹﾝ","kana_city":"ﾁﾀｼ","kana_address":"ﾐﾅﾐﾀﾞﾆ","pref":"愛知県","city":"知多市","address":"南谷"},
{"zip_code":"4780045","kana_pref":"ｱｲﾁｹﾝ","kana_city":"ﾁﾀｼ","kana_address":"ﾐﾅﾐﾊﾏﾏﾁ","pref":"愛知県","city":"知多市","address":"南浜町"},
{"zip_code":"4780060","kana_pref":"ｱｲﾁｹﾝ","kana_city":"ﾁﾀｼ","kana_address":"ﾔﾏﾔｼｷ","pref":"愛知県","city":"知多市","address":"山屋敷"},
{"zip_code":"4780001","kana_pref":"ｱｲﾁｹﾝ","kana_city":"ﾁﾀｼ","kana_address":"ﾔﾜﾀ","pref":"愛知県","city":"知多市","address":"八幡"},
{"zip_code":"4780052","kana_pref":"ｱｲﾁｹﾝ","kana_city":"ﾁﾀｼ","kana_address":"ﾔﾜﾀｼﾝﾏﾁ","pref":"愛知県","city":"知多市","address":"八幡新町"}]}