{"zip_code":[
{"zip_code":"4790000","kana_pref":"ｱｲﾁｹﾝ","kana_city":"ﾄｺﾅﾒｼ","kana_address":"","pref":"愛知県","city":"常滑市","address":""},
{"zip_code":"4790868","kana_pref":"ｱｲﾁｹﾝ","kana_city":"ﾄｺﾅﾒｼ","kana_address":"ｱｽｶﾀﾞｲ","pref":"愛知県","city":"常滑市","address":"飛香台"},
{"zip_code":"4790814","kana_pref":"ｱｲﾁｹﾝ","kana_city":"ﾄｺﾅﾒｼ","kana_address":"ｱﾉﾁｮｳ","pref":"愛知県","city":"常滑市","address":"阿野町"},
{"zip_code":"4790074","kana_pref":"ｱｲﾁｹﾝ","kana_city":"ﾄｺﾅﾒｼ","kana_address":"ｲｹﾀﾞｶﾞﾜ","pref":"愛知県","city":"常滑市","address":"池田川"},
{"zip_code":"4790024","kana_pref":"ｱｲﾁｹﾝ","kana_city":"ﾄｺﾅﾒｼ","kana_address":"ｲｹﾀﾞｸﾞﾁ","pref":"愛知県","city":"常滑市","address":"池田口"},
{"zip_code":"4790038","kana_pref":"ｱｲﾁｹﾝ","kana_city":"ﾄｺﾅﾒｼ","kana_address":"ｲｼｶﾞﾏ","pref":"愛知県","city":"常滑市","address":"石窯"},
{"zip_code":"4790811","kana_pref":"ｱｲﾁｹﾝ","kana_city":"ﾄｺﾅﾒｼ","kana_address":"ｲｽﾞﾐﾁｮｳ","pref":"愛知県","city":"常滑市","address":"泉町"},
{"zip_code":"4790014","kana_pref":"ｱｲﾁｹﾝ","kana_city":"ﾄｺﾅﾒｼ","kana_address":"ｲﾁﾉﾜﾘ","pref":"愛知県","city":"常滑市","address":"一ノ割"},
{"zip_code":"4790828","kana_pref":"ｱｲﾁｹﾝ","kana_city":"ﾄｺﾅﾒｼ","kana_address":"ｲﾁﾊﾞﾁｮｳ","pref":"愛知県","city":"常滑市","address":"市場町"},
{"zip_code":"4790812","kana_pref":"ｱｲﾁｹﾝ","kana_city":"ﾄｺﾅﾒｼ","kana_address":"ｲﾄﾞﾀﾁｮｳ","pref":"愛知県","city":"常滑市","address":"井戸田町"},
{"zip_code":"4790072","kana_pref":"ｱｲﾁｹﾝ","kana_city":"ﾄｺﾅﾒｼ","kana_address":"ｳﾊﾞｺ","pref":"愛知県","city":"常滑市","address":"乳母子"},
{"zip_code":"4790062","kana_pref":"ｱｲﾁｹﾝ","kana_city":"ﾄｺﾅﾒｼ","kana_address":"ｳﾝﾅｲ","pref":"愛知県","city":"常滑市","address":"運内"},
{"zip_code":"4790857","kana_pref":"ｱｲﾁｹﾝ","kana_city":"ﾄｺﾅﾒｼ","kana_address":"ｴﾉｷﾄﾞ","pref":"愛知県","city":"常滑市","address":"榎戸"},
{"zip_code":"4790854","kana_pref":"ｱｲﾁｹﾝ","kana_city":"ﾄｺﾅﾒｼ","kana_address":"ｴﾉｷﾄﾞﾁｮｳ","pref":"愛知県","city":"常滑市","address":"榎戸町"},
{"zip_code":"4790015","kana_pref":"ｱｲﾁｹﾝ","kana_city":"ﾄｺﾅﾒｼ","kana_address":"ｵｵｶﾞﾏ","pref":"愛知県","city":"常滑市","address":"大窯"},
{"zip_code":"4790871","kana_pref":"ｱｲﾁｹﾝ","kana_city":"ﾄｺﾅﾒｼ","kana_address":"ｵｵｿ","pref":"愛知県","city":"常滑市","address":"大曽"},
{"zip_code":"4790021","kana_pref":"ｱｲﾁｹﾝ","kana_city":"ﾄｺﾅﾒｼ","kana_address":"ｵｵｿﾁｮｳ","pref":"愛知県","city":"常滑市","address":"大曽町"},
{"zip_code":"4790806","kana_pref":"ｱｲﾁｹﾝ","kana_city":"ﾄｺﾅﾒｼ","kana_address":"ｵｵﾀﾆ","pref":"愛知県","city":"常滑市","address":"大谷"},
{"zip_code":"4790005","kana_pref":"ｱｲﾁｹﾝ","kana_city":"ﾄｺﾅﾒｼ","kana_address":"ｵｵﾂｶﾁｮｳ","pref":"愛知県","city":"常滑市","address":"大塚町"},
{"zip_code":"4790842","kana_pref":"ｱｲﾁｹﾝ","kana_city":"ﾄｺﾅﾒｼ","kana_address":"ｵｵﾄﾞﾘﾁｮｳ","pref":"愛知県","city":"常滑市","address":"大鳥町"},
{"zip_code":"4790866","kana_pref":"ｱｲﾁｹﾝ","kana_city":"ﾄｺﾅﾒｼ","kana_address":"ｵｵﾉﾁｮｳ","pref":"愛知県","city":"常滑市","address":"大野町"},
{"zip_code":"4790027","kana_pref":"ｱｲﾁｹﾝ","kana_city":"ﾄｺﾅﾒｼ","kana_address":"ｵｵﾘｭｳ","pref":"愛知県","city":"常滑市","address":"大流"},
{"zip_code":"4790039","kana_pref":"ｱｲﾁｹﾝ","kana_city":"ﾄｺﾅﾒｼ","kana_address":"ｵｵﾘｭｳﾃﾝｼﾞｸｸﾁ","pref":"愛知県","city":"常滑市","address":"大流天竺口"},
{"zip_code":"4790823","kana_pref":"ｱｲﾁｹﾝ","kana_city":"ﾄｺﾅﾒｼ","kana_address":"ｵｸｴｲﾁｮｳ","pref":"愛知県","city":"常滑市","address":"奥栄町"},
{"zip_code":"4790822","kana_pref":"ｱｲﾁｹﾝ","kana_city":"ﾄｺﾅﾒｼ","kana_address":"ｵｸｼﾞｮｳ","pref":"愛知県","city":"常滑市","address":"奥条"},
{"zip_code":"4790053","kana_pref":"ｱｲﾁｹﾝ","kana_city":"ﾄｺﾅﾒｼ","kana_address":"ｵｸﾅﾁｷ","pref":"愛知県","city":"常滑市","address":"奥夏敷"},
{"zip_code":"4790862","kana_pref":"ｱｲﾁｹﾝ","kana_city":"ﾄｺﾅﾒｼ","kana_address":"ｵｸﾞﾗﾁｮｳ","pref":"愛知県","city":"常滑市","address":"小倉町"},
{"zip_code":"4790044","kana_pref":"ｱｲﾁｹﾝ","kana_city":"ﾄｺﾅﾒｼ","kana_address":"ｵｺﾀﾞ","pref":"愛知県","city":"常滑市","address":"乙田"},
{"zip_code":"4790068","kana_pref":"ｱｲﾁｹﾝ","kana_city":"ﾄｺﾅﾒｼ","kana_address":"ｵｻﾀﾞ","pref":"愛知県","city":"常滑市","address":"長田"},
{"zip_code":"4790069","kana_pref":"ｱｲﾁｹﾝ","kana_city":"ﾄｺﾅﾒｼ","kana_address":"ｵﾘﾄﾞ","pref":"愛知県","city":"常滑市","address":"折戸"},
{"zip_code":"4790873","kana_pref":"ｱｲﾁｹﾝ","kana_city":"ﾄｺﾅﾒｼ","kana_address":"ｶｼﾞﾏﾀﾞｲ","pref":"愛知県","city":"常滑市","address":"かじま台"},
{"zip_code":"4790003","kana_pref":"ｱｲﾁｹﾝ","kana_city":"ﾄｺﾅﾒｼ","kana_address":"ｶﾅﾔﾏ","pref":"愛知県","city":"常滑市","address":"金山"},
{"zip_code":"4790858","kana_pref":"ｱｲﾁｹﾝ","kana_city":"ﾄｺﾅﾒｼ","kana_address":"ｶﾊﾞｲｹ","pref":"愛知県","city":"常滑市","address":"蒲池"},
{"zip_code":"4790856","kana_pref":"ｱｲﾁｹﾝ","kana_city":"ﾄｺﾅﾒｼ","kana_address":"ｶﾊﾞｲｹﾁｮｳ","pref":"愛知県","city":"常滑市","address":"蒲池町"},
{"zip_code":"4790063","kana_pref":"ｱｲﾁｹﾝ","kana_city":"ﾄｺﾅﾒｼ","kana_address":"ｶﾔｶﾘｸﾞﾁ","pref":"愛知県","city":"常滑市","address":"萱苅口"},
{"zip_code":"4790815","kana_pref":"ｱｲﾁｹﾝ","kana_city":"ﾄｺﾅﾒｼ","kana_address":"ｶﾗｻｷﾁｮｳ","pref":"愛知県","city":"常滑市","address":"唐崎町"},
{"zip_code":"4790805","kana_pref":"ｱｲﾁｹﾝ","kana_city":"ﾄｺﾅﾒｼ","kana_address":"ｶﾘﾔ","pref":"愛知県","city":"常滑市","address":"苅屋"},
{"zip_code":"4790819","kana_pref":"ｱｲﾁｹﾝ","kana_city":"ﾄｺﾅﾒｼ","kana_address":"ｶﾘﾔﾁｮｳ","pref":"愛知県","city":"常滑市","address":"苅屋町"},
{"zip_code":"4790046","kana_pref":"ｱｲﾁｹﾝ","kana_city":"ﾄｺﾅﾒｼ","kana_address":"ｷﾀｺﾞﾁﾖ","pref":"愛知県","city":"常滑市","address":"北古千代"},
{"zip_code":"4790867","kana_pref":"ｱｲﾁｹﾝ","kana_city":"ﾄｺﾅﾒｼ","kana_address":"ｷﾀｼｵﾐｻﾞｶ","pref":"愛知県","city":"常滑市","address":"北汐見坂"},
{"zip_code":"4790833","kana_pref":"ｱｲﾁｹﾝ","kana_city":"ﾄｺﾅﾒｼ","kana_address":"ｷﾀｼﾞｮｳ","pref":"愛知県","city":"常滑市","address":"北条"},
{"zip_code":"4790816","kana_pref":"ｱｲﾁｹﾝ","kana_city":"ﾄｺﾅﾒｼ","kana_address":"ｸﾏﾉ","pref":"愛知県","city":"常滑市","address":"熊野"},
{"zip_code":"4790817","kana_pref":"ｱｲﾁｹﾝ","kana_city":"ﾄｺﾅﾒｼ","kana_address":"ｸﾏﾉﾁｮｳ","pref":"愛知県","city":"常滑市","address":"熊野町"},
{"zip_code":"4790002","kana_pref":"ｱｲﾁｹﾝ","kana_city":"ﾄｺﾅﾒｼ","kana_address":"ｸﾒ","pref":"愛知県","city":"常滑市","address":"久米"},
{"zip_code":"4790079","kana_pref":"ｱｲﾁｹﾝ","kana_city":"ﾄｺﾅﾒｼ","kana_address":"ｸﾛﾔﾏ","pref":"愛知県","city":"常滑市","address":"黒山"},
{"zip_code":"4790838","kana_pref":"ｱｲﾁｹﾝ","kana_city":"ﾄｺﾅﾒｼ","kana_address":"ｺｲｴﾎﾝﾏﾁ","pref":"愛知県","city":"常滑市","address":"鯉江本町"},
{"zip_code":"4790807","kana_pref":"ｱｲﾁｹﾝ","kana_city":"ﾄｺﾅﾒｼ","kana_address":"ｺｽｶﾞﾔ","pref":"愛知県","city":"常滑市","address":"小鈴谷"},
{"zip_code":"4790042","kana_pref":"ｱｲﾁｹﾝ","kana_city":"ﾄｺﾅﾒｼ","kana_address":"ｺｿﾍﾞ","pref":"愛知県","city":"常滑市","address":"社辺"},
{"zip_code":"4790058","kana_pref":"ｱｲﾁｹﾝ","kana_city":"ﾄｺﾅﾒｼ","kana_address":"ｺﾁﾖ","pref":"愛知県","city":"常滑市","address":"古千代"},
{"zip_code":"4790804","kana_pref":"ｱｲﾁｹﾝ","kana_city":"ﾄｺﾅﾒｼ","kana_address":"ｺﾊﾞ","pref":"愛知県","city":"常滑市","address":"古場"},
{"zip_code":"4790818","kana_pref":"ｱｲﾁｹﾝ","kana_city":"ﾄｺﾅﾒｼ","kana_address":"ｺﾊﾞﾁｮｳ","pref":"愛知県","city":"常滑市","address":"古場町"},
{"zip_code":"4790865","kana_pref":"ｱｲﾁｹﾝ","kana_city":"ﾄｺﾅﾒｼ","kana_address":"ｺﾊﾞﾔｼﾁｮｳ","pref":"愛知県","city":"常滑市","address":"小林町"},
{"zip_code":"4790067","kana_pref":"ｱｲﾁｹﾝ","kana_city":"ﾄｺﾅﾒｼ","kana_address":"ｺﾓﾘ","pref":"愛知県","city":"常滑市","address":"小森"},
{"zip_code":"4790809","kana_pref":"ｱｲﾁｹﾝ","kana_city":"ﾄｺﾅﾒｼ","kana_address":"ｻｶｲ","pref":"愛知県","city":"常滑市","address":"坂井"},
{"zip_code":"4790836","kana_pref":"ｱｲﾁｹﾝ","kana_city":"ﾄｺﾅﾒｼ","kana_address":"ｻｶｴﾏﾁ","pref":"愛知県","city":"常滑市","address":"栄町"},
{"zip_code":"4790017","kana_pref":"ｱｲﾁｹﾝ","kana_city":"ﾄｺﾅﾒｼ","kana_address":"ｼｲｲｹ","pref":"愛知県","city":"常滑市","address":"椎池"},
{"zip_code":"4790035","kana_pref":"ｱｲﾁｹﾝ","kana_city":"ﾄｺﾅﾒｼ","kana_address":"ｼｲｸｻﾐﾅﾐﾜﾘ","pref":"愛知県","city":"常滑市","address":"椎草南割"},
{"zip_code":"4790056","kana_pref":"ｱｲﾁｹﾝ","kana_city":"ﾄｺﾅﾒｼ","kana_address":"ｼｲﾀﾙｷ","pref":"愛知県","city":"常滑市","address":"椎垂木"},
{"zip_code":"4790034","kana_pref":"ｱｲﾁｹﾝ","kana_city":"ﾄｺﾅﾒｼ","kana_address":"ｼｲﾀﾞｵｸ","pref":"愛知県","city":"常滑市","address":"椎田奥"},
{"zip_code":"4790036","kana_pref":"ｱｲﾁｹﾝ","kana_city":"ﾄｺﾅﾒｼ","kana_address":"ｼｲﾀﾞｸﾞﾁ","pref":"愛知県","city":"常滑市","address":"椎田口"},
{"zip_code":"4790813","kana_pref":"ｱｲﾁｹﾝ","kana_city":"ﾄｺﾅﾒｼ","kana_address":"ｼｵﾀﾁｮｳ","pref":"愛知県","city":"常滑市","address":"塩田町"},
{"zip_code":"4790032","kana_pref":"ｱｲﾁｹﾝ","kana_city":"ﾄｺﾅﾒｼ","kana_address":"ｼﾀｽﾞﾐ","pref":"愛知県","city":"常滑市","address":"下隅"},
{"zip_code":"4790019","kana_pref":"ｱｲﾁｹﾝ","kana_city":"ﾄｺﾅﾒｼ","kana_address":"ｼﾊﾞﾔﾏ","pref":"愛知県","city":"常滑市","address":"柴山"},
{"zip_code":"4790071","kana_pref":"ｱｲﾁｹﾝ","kana_city":"ﾄｺﾅﾒｼ","kana_address":"ｼﾞｬﾊﾞｻﾏ","pref":"愛知県","city":"常滑市","address":"蛇廻間"},
{"zip_code":"4790012","kana_pref":"ｱｲﾁｹﾝ","kana_city":"ﾄｺﾅﾒｼ","kana_address":"ｼﾞｮｳﾉｳ","pref":"愛知県","city":"常滑市","address":"上納"},
{"zip_code":"4790007","kana_pref":"ｱｲﾁｹﾝ","kana_city":"ﾄｺﾅﾒｼ","kana_address":"ｼｮｳﾍﾞｴｼﾝﾃﾞﾝ","pref":"愛知県","city":"常滑市","address":"庄兵衛新田"},
{"zip_code":"4790837","kana_pref":"ｱｲﾁｹﾝ","kana_city":"ﾄｺﾅﾒｼ","kana_address":"ｼﾝｶｲﾁｮｳ","pref":"愛知県","city":"常滑市","address":"新開町"},
{"zip_code":"4790855","kana_pref":"ｱｲﾁｹﾝ","kana_city":"ﾄｺﾅﾒｼ","kana_address":"ｼﾝﾃﾞﾝﾁｮｳ","pref":"愛知県","city":"常滑市","address":"新田町"},
{"zip_code":"4790847","kana_pref":"ｱｲﾁｹﾝ","kana_city":"ﾄｺﾅﾒｼ","kana_address":"ｼﾝﾊﾏﾁｮｳ","pref":"愛知県","city":"常滑市","address":"新浜町"},
{"zip_code":"4790852","kana_pref":"ｱｲﾁｹﾝ","kana_city":"ﾄｺﾅﾒｼ","kana_address":"ｼﾝﾒｲﾁｮｳ","pref":"愛知県","city":"常滑市","address":"神明町"},
{"zip_code":"4790846","kana_pref":"ｱｲﾁｹﾝ","kana_city":"ﾄｺﾅﾒｼ","kana_address":"ｽｴﾋﾛﾁｮｳ","pref":"愛知県","city":"常滑市","address":"末広町"},
{"zip_code":"4790075","kana_pref":"ｱｲﾁｹﾝ","kana_city":"ﾄｺﾅﾒｼ","kana_address":"ｽｶﾞﾊﾞ","pref":"愛知県","city":"常滑市","address":"菅場"},
{"zip_code":"4790864","kana_pref":"ｱｲﾁｹﾝ","kana_city":"ﾄｺﾅﾒｼ","kana_address":"ｽﾐﾖｼﾁｮｳ","pref":"愛知県","city":"常滑市","address":"住吉町"},
{"zip_code":"4790004","kana_pref":"ｱｲﾁｹﾝ","kana_city":"ﾄｺﾅﾒｼ","kana_address":"ｾｲｶｲﾁｮｳ","pref":"愛知県","city":"常滑市","address":"青海町"},
{"zip_code":"4790821","kana_pref":"ｱｲﾁｹﾝ","kana_city":"ﾄｺﾅﾒｼ","kana_address":"ｾｷﾞﾁｮｳ","pref":"愛知県","city":"常滑市","address":"瀬木町"},
{"zip_code":"4790881","kana_pref":"ｱｲﾁｹﾝ","kana_city":"ﾄｺﾅﾒｼ","kana_address":"ｾﾝﾄﾚｱ","pref":"愛知県","city":"常滑市","address":"セントレア"},
{"zip_code":"4790016","kana_pref":"ｱｲﾁｹﾝ","kana_city":"ﾄｺﾅﾒｼ","kana_address":"ﾀｶｻｶ","pref":"愛知県","city":"常滑市","address":"高坂"},
{"zip_code":"4790022","kana_pref":"ｱｲﾁｹﾝ","kana_city":"ﾄｺﾅﾒｼ","kana_address":"ﾀﾞﾀﾎﾞｼ","pref":"愛知県","city":"常滑市","address":"堕星"},
{"zip_code":"4790843","kana_pref":"ｱｲﾁｹﾝ","kana_city":"ﾄｺﾅﾒｼ","kana_address":"ﾀﾔ","pref":"愛知県","city":"常滑市","address":"多屋"},
{"zip_code":"4790839","kana_pref":"ｱｲﾁｹﾝ","kana_city":"ﾄｺﾅﾒｼ","kana_address":"ﾀﾔﾁｮｳ","pref":"愛知県","city":"常滑市","address":"多屋町"},
{"zip_code":"4790801","kana_pref":"ｱｲﾁｹﾝ","kana_city":"ﾄｺﾅﾒｼ","kana_address":"ﾀﾙﾐ","pref":"愛知県","city":"常滑市","address":"樽水"},
{"zip_code":"4790826","kana_pref":"ｱｲﾁｹﾝ","kana_city":"ﾄｺﾅﾒｼ","kana_address":"ﾀﾙﾐﾁｮｳ","pref":"愛知県","city":"常滑市","address":"樽水町"},
{"zip_code":"4790041","kana_pref":"ｱｲﾁｹﾝ","kana_city":"ﾄｺﾅﾒｼ","kana_address":"ﾁﾖ","pref":"愛知県","city":"常滑市","address":"千代"},
{"zip_code":"4790065","kana_pref":"ｱｲﾁｹﾝ","kana_city":"ﾄｺﾅﾒｼ","kana_address":"ﾁｮｳﾏ","pref":"愛知県","city":"常滑市","address":"長間"},
{"zip_code":"4790834","kana_pref":"ｱｲﾁｹﾝ","kana_city":"ﾄｺﾅﾒｼ","kana_address":"ﾁﾖｶﾞｵｶ","pref":"愛知県","city":"常滑市","address":"千代ケ丘"},
{"zip_code":"4790026","kana_pref":"ｱｲﾁｹﾝ","kana_city":"ﾄｺﾅﾒｼ","kana_address":"ﾃﾝｼﾞｸ","pref":"愛知県","city":"常滑市","address":"天竺"},
{"zip_code":"4790057","kana_pref":"ｱｲﾁｹﾝ","kana_city":"ﾄｺﾅﾒｼ","kana_address":"ﾄｲｶﾞｹ","pref":"愛知県","city":"常滑市","address":"樋掛"},
{"zip_code":"4790835","kana_pref":"ｱｲﾁｹﾝ","kana_city":"ﾄｺﾅﾒｼ","kana_address":"ﾄｳｺﾞｳﾁｮｳ","pref":"愛知県","city":"常滑市","address":"陶郷町"},
{"zip_code":"4790008","kana_pref":"ｱｲﾁｹﾝ","kana_city":"ﾄｺﾅﾒｼ","kana_address":"ﾄﾘｼﾝﾃﾞﾝ","pref":"愛知県","city":"常滑市","address":"酉新田"},
{"zip_code":"4790076","kana_pref":"ｱｲﾁｹﾝ","kana_city":"ﾄｺﾅﾒｼ","kana_address":"ﾄﾘﾈ","pref":"愛知県","city":"常滑市","address":"鳥根"},
{"zip_code":"4790073","kana_pref":"ｱｲﾁｹﾝ","kana_city":"ﾄｺﾅﾒｼ","kana_address":"ﾄﾝﾄﾞｶﾞﾜ","pref":"愛知県","city":"常滑市","address":"飛渡川"},
{"zip_code":"4790045","kana_pref":"ｱｲﾁｹﾝ","kana_city":"ﾄｺﾅﾒｼ","kana_address":"ﾅｶｲ","pref":"愛知県","city":"常滑市","address":"仲井"},
{"zip_code":"4790037","kana_pref":"ｱｲﾁｹﾝ","kana_city":"ﾄｺﾅﾒｼ","kana_address":"ﾅｶｵｵﾘｭｳ","pref":"愛知県","city":"常滑市","address":"中大流"},
{"zip_code":"4790033","kana_pref":"ｱｲﾁｹﾝ","kana_city":"ﾄｺﾅﾒｼ","kana_address":"ﾅｶｼｲﾀﾞ","pref":"愛知県","city":"常滑市","address":"中椎田"},
{"zip_code":"4790048","kana_pref":"ｱｲﾁｹﾝ","kana_city":"ﾄｺﾅﾒｼ","kana_address":"ﾅｶﾁﾖ","pref":"愛知県","city":"常滑市","address":"中千代"},
{"zip_code":"4790023","kana_pref":"ｱｲﾁｹﾝ","kana_city":"ﾄｺﾅﾒｼ","kana_address":"ﾅｶﾞﾐﾈ1ﾉｷﾘ","pref":"愛知県","city":"常滑市","address":"長峰一ノ切"},
{"zip_code":"4790028","kana_pref":"ｱｲﾁｹﾝ","kana_city":"ﾄｺﾅﾒｼ","kana_address":"ﾅｶﾞﾐﾈ2ﾉｷﾘ","pref":"愛知県","city":"常滑市","address":"長峰二ノ切"},
{"zip_code":"4790031","kana_pref":"ｱｲﾁｹﾝ","kana_city":"ﾄｺﾅﾒｼ","kana_address":"ﾅｶﾞﾐﾈ3ﾉｷﾘ","pref":"愛知県","city":"常滑市","address":"長峰三ノ切"},
{"zip_code":"4790049","kana_pref":"ｱｲﾁｹﾝ","kana_city":"ﾄｺﾅﾒｼ","kana_address":"ﾅｶﾞﾐﾈ4ﾉｷﾘ","pref":"愛知県","city":"常滑市","address":"長峰四ノ切"},
{"zip_code":"4790025","kana_pref":"ｱｲﾁｹﾝ","kana_city":"ﾄｺﾅﾒｼ","kana_address":"ﾆｲｲｹ","pref":"愛知県","city":"常滑市","address":"新池"},
{"zip_code":"4790802","kana_pref":"ｱｲﾁｹﾝ","kana_city":"ﾄｺﾅﾒｼ","kana_address":"ﾆｼｱﾉ","pref":"愛知県","city":"常滑市","address":"西阿野"},
{"zip_code":"4790831","kana_pref":"ｱｲﾁｹﾝ","kana_city":"ﾄｺﾅﾒｼ","kana_address":"ﾆｼｷﾁｮｳ","pref":"愛知県","city":"常滑市","address":"錦町"},
{"zip_code":"4790054","kana_pref":"ｱｲﾁｹﾝ","kana_city":"ﾄｺﾅﾒｼ","kana_address":"ﾆｼﾅｼｷ","pref":"愛知県","city":"常滑市","address":"西梨木"},
{"zip_code":"4790863","kana_pref":"ｱｲﾁｹﾝ","kana_city":"ﾄｺﾅﾒｼ","kana_address":"ﾆｼﾉｸﾁ","pref":"愛知県","city":"常滑市","address":"西之口"},
{"zip_code":"4790018","kana_pref":"ｱｲﾁｹﾝ","kana_city":"ﾄｺﾅﾒｼ","kana_address":"ﾆﾉﾀ","pref":"愛知県","city":"常滑市","address":"二ノ田"},
{"zip_code":"4790013","kana_pref":"ｱｲﾁｹﾝ","kana_city":"ﾄｺﾅﾒｼ","kana_address":"ﾆﾉﾜﾘ","pref":"愛知県","city":"常滑市","address":"二ノ割"},
{"zip_code":"4790824","kana_pref":"ｱｲﾁｹﾝ","kana_city":"ﾄｺﾅﾒｼ","kana_address":"ﾊｸｻﾝﾁｮｳ","pref":"愛知県","city":"常滑市","address":"白山町"},
{"zip_code":"4790011","kana_pref":"ｱｲﾁｹﾝ","kana_city":"ﾄｺﾅﾒｼ","kana_address":"ﾊﾅﾊﾞｻﾏ","pref":"愛知県","city":"常滑市","address":"花狭間"},
{"zip_code":"4790832","kana_pref":"ｱｲﾁｹﾝ","kana_city":"ﾄｺﾅﾒｼ","kana_address":"ﾊﾗﾏﾂﾁｮｳ","pref":"愛知県","city":"常滑市","address":"原松町"},
{"zip_code":"4790861","kana_pref":"ｱｲﾁｹﾝ","kana_city":"ﾄｺﾅﾒｼ","kana_address":"ﾊﾞﾝﾀﾞｲﾁｮｳ","pref":"愛知県","city":"常滑市","address":"晩台町"},
{"zip_code":"4790803","kana_pref":"ｱｲﾁｹﾝ","kana_city":"ﾄｺﾅﾒｼ","kana_address":"ﾋﾊﾞﾗ","pref":"愛知県","city":"常滑市","address":"桧原"},
{"zip_code":"4790009","kana_pref":"ｱｲﾁｹﾝ","kana_city":"ﾄｺﾅﾒｼ","kana_address":"ﾋﾗｲｹ","pref":"愛知県","city":"常滑市","address":"平池"},
{"zip_code":"4790055","kana_pref":"ｱｲﾁｹﾝ","kana_city":"ﾄｺﾅﾒｼ","kana_address":"ﾋﾛｳﾁ","pref":"愛知県","city":"常滑市","address":"広内"},
{"zip_code":"4790808","kana_pref":"ｱｲﾁｹﾝ","kana_city":"ﾄｺﾅﾒｼ","kana_address":"ﾋﾛﾒ","pref":"愛知県","city":"常滑市","address":"広目"},
{"zip_code":"4790006","kana_pref":"ｱｲﾁｹﾝ","kana_city":"ﾄｺﾅﾒｼ","kana_address":"ﾌﾙﾐﾁ","pref":"愛知県","city":"常滑市","address":"古道"},
{"zip_code":"4790029","kana_pref":"ｱｲﾁｹﾝ","kana_city":"ﾄｺﾅﾒｼ","kana_address":"ﾌﾙﾐﾁﾋｶﾞｼﾜﾘ","pref":"愛知県","city":"常滑市","address":"古道東割"},
{"zip_code":"4790043","kana_pref":"ｱｲﾁｹﾝ","kana_city":"ﾄｺﾅﾒｼ","kana_address":"ﾌﾙﾔｼﾛ","pref":"愛知県","city":"常滑市","address":"古社"},
{"zip_code":"4790827","kana_pref":"ｱｲﾁｹﾝ","kana_city":"ﾄｺﾅﾒｼ","kana_address":"ﾎｳｼﾞﾁｮｳ","pref":"愛知県","city":"常滑市","address":"保示町"},
{"zip_code":"4790853","kana_pref":"ｱｲﾁｹﾝ","kana_city":"ﾄｺﾅﾒｼ","kana_address":"ﾎﾝｺﾞｳﾁｮｳ","pref":"愛知県","city":"常滑市","address":"本郷町"},
{"zip_code":"4790829","kana_pref":"ｱｲﾁｹﾝ","kana_city":"ﾄｺﾅﾒｼ","kana_address":"ﾎﾝﾏﾁ","pref":"愛知県","city":"常滑市","address":"本町"},
{"zip_code":"4790848","kana_pref":"ｱｲﾁｹﾝ","kana_city":"ﾄｺﾅﾒｼ","kana_address":"ﾐﾅﾄﾁｮｳ","pref":"愛知県","city":"常滑市","address":"港町"},
{"zip_code":"4790047","kana_pref":"ｱｲﾁｹﾝ","kana_city":"ﾄｺﾅﾒｼ","kana_address":"ﾐﾅﾐｺﾞﾁﾖ","pref":"愛知県","city":"常滑市","address":"南古千代"},
{"zip_code":"4790059","kana_pref":"ｱｲﾁｹﾝ","kana_city":"ﾄｺﾅﾒｼ","kana_address":"ﾐﾅﾐｼﾞｬﾊﾞｻﾏ","pref":"愛知県","city":"常滑市","address":"南蛇廻間"},
{"zip_code":"4790077","kana_pref":"ｱｲﾁｹﾝ","kana_city":"ﾄｺﾅﾒｼ","kana_address":"ﾐﾅﾐﾄﾝﾄﾞ","pref":"愛知県","city":"常滑市","address":"南飛渡"},
{"zip_code":"4790061","kana_pref":"ｱｲﾁｹﾝ","kana_city":"ﾄｺﾅﾒｼ","kana_address":"ﾐﾐｷﾘ","pref":"愛知県","city":"常滑市","address":"耳切"},
{"zip_code":"4790841","kana_pref":"ｱｲﾁｹﾝ","kana_city":"ﾄｺﾅﾒｼ","kana_address":"ﾒｲﾜﾁｮｳ","pref":"愛知県","city":"常滑市","address":"明和町"},
{"zip_code":"4790845","kana_pref":"ｱｲﾁｹﾝ","kana_city":"ﾄｺﾅﾒｼ","kana_address":"ﾓﾘﾆｼﾁｮｳ","pref":"愛知県","city":"常滑市","address":"森西町"},
{"zip_code":"4790001","kana_pref":"ｱｲﾁｹﾝ","kana_city":"ﾄｺﾅﾒｼ","kana_address":"ﾔﾀ","pref":"愛知県","city":"常滑市","address":"矢田"},
{"zip_code":"4790825","kana_pref":"ｱｲﾁｹﾝ","kana_city":"ﾄｺﾅﾒｼ","kana_address":"ﾔﾏｶﾀﾁｮｳ","pref":"愛知県","city":"常滑市","address":"山方町"},
{"zip_code":"4790844","kana_pref":"ｱｲﾁｹﾝ","kana_city":"ﾄｺﾅﾒｼ","kana_address":"ﾔﾏﾄﾁｮｳ","pref":"愛知県","city":"常滑市","address":"大和町"},
{"zip_code":"4790064","kana_pref":"ｱｲﾁｹﾝ","kana_city":"ﾄｺﾅﾒｼ","kana_address":"ﾖｷｸﾞﾁ","pref":"愛知県","city":"常滑市","address":"斧口"},
{"zip_code":"4790882","kana_pref":"ｱｲﾁｹﾝ","kana_city":"ﾄｺﾅﾒｼ","kana_address":"ﾘﾝｸｳﾁｮｳ","pref":"愛知県","city":"常滑市","address":"りんくう町"},
{"zip_code":"4790851","kana_pref":"ｱｲﾁｹﾝ","kana_city":"ﾄｺﾅﾒｼ","kana_address":"ﾜｶﾏﾂﾁｮｳ","pref":"愛知県","city":"常滑市","address":"若松町"},
{"zip_code":"4790066","kana_pref":"ｱｲﾁｹﾝ","kana_city":"ﾄｺﾅﾒｼ","kana_address":"ﾜｷﾀｸﾞﾁ","pref":"愛知県","city":"常滑市","address":"脇田口"}]}