{"zip_code":[
{"zip_code":"4801217","kana_pref":"ｱｲﾁｹﾝ","kana_city":"ｾﾄｼ","kana_address":"ｲﾔﾏﾁｮｳ","pref":"愛知県","city":"瀬戸市","address":"井山町"},
{"zip_code":"4801215","kana_pref":"ｱｲﾁｹﾝ","kana_city":"ｾﾄｼ","kana_address":"ｲﾜﾔﾁｮｳ","pref":"愛知県","city":"瀬戸市","address":"岩屋町"},
{"zip_code":"4801205","kana_pref":"ｱｲﾁｹﾝ","kana_city":"ｾﾄｼ","kana_address":"ｵﾁｱｲﾁｮｳ","pref":"愛知県","city":"瀬戸市","address":"落合町"},
{"zip_code":"4801212","kana_pref":"ｱｲﾁｹﾝ","kana_city":"ｾﾄｼ","kana_address":"ｶﾀｸｻﾁｮｳ","pref":"愛知県","city":"瀬戸市","address":"片草町"},
{"zip_code":"4801219","kana_pref":"ｱｲﾁｹﾝ","kana_city":"ｾﾄｼ","kana_address":"ｶﾏﾏﾁ","pref":"愛知県","city":"瀬戸市","address":"窯町"},
{"zip_code":"4801214","kana_pref":"ｱｲﾁｹﾝ","kana_city":"ｾﾄｼ","kana_address":"ｶﾐｼﾅﾉﾁｮｳ","pref":"愛知県","city":"瀬戸市","address":"上品野町"},
{"zip_code":"4801211","kana_pref":"ｱｲﾁｹﾝ","kana_city":"ｾﾄｼ","kana_address":"ｶﾐﾊﾀﾞｶﾞﾜﾁｮｳ","pref":"愛知県","city":"瀬戸市","address":"上半田川町"},
{"zip_code":"4801204","kana_pref":"ｱｲﾁｹﾝ","kana_city":"ｾﾄｼ","kana_address":"ｷﾀｵｶﾁｮｳ","pref":"愛知県","city":"瀬戸市","address":"北丘町"},
{"zip_code":"4801207","kana_pref":"ｱｲﾁｹﾝ","kana_city":"ｾﾄｼ","kana_address":"ｼﾅﾉﾁｮｳ","pref":"愛知県","city":"瀬戸市","address":"品野町"},
{"zip_code":"4801202","kana_pref":"ｱｲﾁｹﾝ","kana_city":"ｾﾄｼ","kana_address":"ｼﾓﾊﾀﾞｶﾞﾜﾁｮｳ","pref":"愛知県","city":"瀬戸市","address":"下半田川町"},
{"zip_code":"4801201","kana_pref":"ｱｲﾁｹﾝ","kana_city":"ｾﾄｼ","kana_address":"ｼﾞｮｳｺｳｼﾞﾁｮｳ","pref":"愛知県","city":"瀬戸市","address":"定光寺町"},
{"zip_code":"4801213","kana_pref":"ｱｲﾁｹﾝ","kana_city":"ｾﾄｼ","kana_address":"ｼﾗｲﾜﾁｮｳ","pref":"愛知県","city":"瀬戸市","address":"白岩町"},
{"zip_code":"4801216","kana_pref":"ｱｲﾁｹﾝ","kana_city":"ｾﾄｼ","kana_address":"ﾄﾘﾊﾗﾁｮｳ","pref":"愛知県","city":"瀬戸市","address":"鳥原町"},
{"zip_code":"4801218","kana_pref":"ｱｲﾁｹﾝ","kana_city":"ｾﾄｼ","kana_address":"ﾅｶｼﾅﾉﾁｮｳ","pref":"愛知県","city":"瀬戸市","address":"中品野町"},
{"zip_code":"4801203","kana_pref":"ｱｲﾁｹﾝ","kana_city":"ｾﾄｼ","kana_address":"ﾋﾛﾉﾀﾁｮｳ","pref":"愛知県","city":"瀬戸市","address":"広之田町"},
{"zip_code":"4801206","kana_pref":"ｱｲﾁｹﾝ","kana_city":"ｾﾄｼ","kana_address":"ﾔﾄｺﾁｮｳ","pref":"愛知県","city":"瀬戸市","address":"八床町"},
{"zip_code":"4800303","kana_pref":"ｱｲﾁｹﾝ","kana_city":"ｶｽｶﾞｲｼ","kana_address":"ｱｹﾁﾁｮｳ","pref":"愛知県","city":"春日井市","address":"明知町"},
{"zip_code":"4800306","kana_pref":"ｱｲﾁｹﾝ","kana_city":"ｶｽｶﾞｲｼ","kana_address":"ｳｴﾉﾁｮｳ","pref":"愛知県","city":"春日井市","address":"上野町"},
{"zip_code":"4800301","kana_pref":"ｱｲﾁｹﾝ","kana_city":"ｶｽｶﾞｲｼ","kana_address":"ｳﾂﾂﾁｮｳ","pref":"愛知県","city":"春日井市","address":"内津町"},
{"zip_code":"4800304","kana_pref":"ｱｲﾁｹﾝ","kana_city":"ｶｽｶﾞｲｼ","kana_address":"ｶｷﾞﾔﾁｮｳ","pref":"愛知県","city":"春日井市","address":"神屋町"},
{"zip_code":"4800302","kana_pref":"ｱｲﾁｹﾝ","kana_city":"ｶｽｶﾞｲｼ","kana_address":"ｻｲｵﾁｮｳ","pref":"愛知県","city":"春日井市","address":"西尾町"},
{"zip_code":"4800305","kana_pref":"ｱｲﾁｹﾝ","kana_city":"ｶｽｶﾞｲｼ","kana_address":"ｻｶｼﾀﾁｮｳ","pref":"愛知県","city":"春日井市","address":"坂下町"},
{"zip_code":"4801100","kana_pref":"ｱｲﾁｹﾝ","kana_city":"ﾅｶﾞｸﾃｼ","kana_address":"","pref":"愛知県","city":"長久手市","address":""},
{"zip_code":"4801323","kana_pref":"ｱｲﾁｹﾝ","kana_city":"ﾅｶﾞｸﾃｼ","kana_address":"ｱﾊﾞﾀ","pref":"愛知県","city":"長久手市","address":"阿畑"},
{"zip_code":"4801331","kana_pref":"ｱｲﾁｹﾝ","kana_city":"ﾅｶﾞｸﾃｼ","kana_address":"ｱﾏﾂﾞﾂﾐ","pref":"愛知県","city":"長久手市","address":"雨堤"},
{"zip_code":"4801161","kana_pref":"ｱｲﾁｹﾝ","kana_city":"ﾅｶﾞｸﾃｼ","kana_address":"ｱﾗﾀ","pref":"愛知県","city":"長久手市","address":"荒田"},
{"zip_code":"4801182","kana_pref":"ｱｲﾁｹﾝ","kana_city":"ﾅｶﾞｸﾃｼ","kana_address":"ｲｹﾀﾞ","pref":"愛知県","city":"長久手市","address":"池田"},
{"zip_code":"4801343","kana_pref":"ｱｲﾁｹﾝ","kana_city":"ﾅｶﾞｸﾃｼ","kana_address":"ｲｼﾊﾞ","pref":"愛知県","city":"長久手市","address":"石場"},
{"zip_code":"4801147","kana_pref":"ｱｲﾁｹﾝ","kana_city":"ﾅｶﾞｸﾃｼ","kana_address":"ｲﾁｶﾞﾎﾗ","pref":"愛知県","city":"長久手市","address":"市ケ洞"},
{"zip_code":"4801342","kana_pref":"ｱｲﾁｹﾝ","kana_city":"ﾅｶﾞｸﾃｼ","kana_address":"ｲﾊﾞﾗｶﾞﾊﾞｻﾏ","pref":"愛知県","city":"長久手市","address":"茨ケ廻間"},
{"zip_code":"4801143","kana_pref":"ｱｲﾁｹﾝ","kana_city":"ﾅｶﾞｸﾃｼ","kana_address":"ｲﾎﾞﾘ","pref":"愛知県","city":"長久手市","address":"井堀"},
{"zip_code":"4801116","kana_pref":"ｱｲﾁｹﾝ","kana_city":"ﾅｶﾞｸﾃｼ","kana_address":"ｲﾘｶﾞｲｹ","pref":"愛知県","city":"長久手市","address":"杁ケ池"},
{"zip_code":"4801325","kana_pref":"ｱｲﾁｹﾝ","kana_city":"ﾅｶﾞｸﾃｼ","kana_address":"ｲﾘｶﾞﾈ","pref":"愛知県","city":"長久手市","address":"杁ケ根"},
{"zip_code":"4801302","kana_pref":"ｱｲﾁｹﾝ","kana_city":"ﾅｶﾞｸﾃｼ","kana_address":"ｲﾘﾉﾎﾗ","pref":"愛知県","city":"長久手市","address":"杁ノ洞"},
{"zip_code":"4801308","kana_pref":"ｱｲﾁｹﾝ","kana_city":"ﾅｶﾞｸﾃｼ","kana_address":"ｲﾜﾊﾞｻﾏ","pref":"愛知県","city":"長久手市","address":"岩廻間"},
{"zip_code":"4801125","kana_pref":"ｱｲﾁｹﾝ","kana_city":"ﾅｶﾞｸﾃｼ","kana_address":"ｳｼﾞｶﾞﾐﾏｴ","pref":"愛知県","city":"長久手市","address":"氏神前"},
{"zip_code":"4801152","kana_pref":"ｱｲﾁｹﾝ","kana_city":"ﾅｶﾞｸﾃｼ","kana_address":"ｳﾁｺｼ","pref":"愛知県","city":"長久手市","address":"打越"},
{"zip_code":"4801145","kana_pref":"ｱｲﾁｹﾝ","kana_city":"ﾅｶﾞｸﾃｼ","kana_address":"ｳﾂﾞｶ","pref":"愛知県","city":"長久手市","address":"卯塚"},
{"zip_code":"4801314","kana_pref":"ｱｲﾁｹﾝ","kana_city":"ﾅｶﾞｸﾃｼ","kana_address":"ｳﾏﾂﾞﾂﾐ","pref":"愛知県","city":"長久手市","address":"馬堤"},
{"zip_code":"4801334","kana_pref":"ｱｲﾁｹﾝ","kana_city":"ﾅｶﾞｸﾃｼ","kana_address":"ｴﾉｼﾀ","pref":"愛知県","city":"長久手市","address":"榎ノ下"},
{"zip_code":"4801333","kana_pref":"ｱｲﾁｹﾝ","kana_city":"ﾅｶﾞｸﾃｼ","kana_address":"ｴﾋﾞｽ","pref":"愛知県","city":"長久手市","address":"蛭子"},
{"zip_code":"4801106","kana_pref":"ｱｲﾁｹﾝ","kana_city":"ﾅｶﾞｸﾃｼ","kana_address":"ｵｵｸﾃ","pref":"愛知県","city":"長久手市","address":"大久手"},
{"zip_code":"4801146","kana_pref":"ｱｲﾁｹﾝ","kana_city":"ﾅｶﾞｸﾃｼ","kana_address":"ｶﾀﾋﾗ","pref":"愛知県","city":"長久手市","address":"片平"},
{"zip_code":"4801142","kana_pref":"ｱｲﾁｹﾝ","kana_city":"ﾅｶﾞｸﾃｼ","kana_address":"ｶﾆﾊﾗ","pref":"愛知県","city":"長久手市","address":"蟹原"},
{"zip_code":"4801179","kana_pref":"ｱｲﾁｹﾝ","kana_city":"ﾅｶﾞｸﾃｼ","kana_address":"ｶﾐｲﾎﾞﾘ","pref":"愛知県","city":"長久手市","address":"上井堀"},
{"zip_code":"4801132","kana_pref":"ｱｲﾁｹﾝ","kana_city":"ﾅｶﾞｸﾃｼ","kana_address":"ｶﾐｶﾜﾊﾗ","pref":"愛知県","city":"長久手市","address":"上川原"},
{"zip_code":"4801165","kana_pref":"ｱｲﾁｹﾝ","kana_city":"ﾅｶﾞｸﾃｼ","kana_address":"ｶﾓﾀﾞ","pref":"愛知県","city":"長久手市","address":"鴨田"},
{"zip_code":"4801327","kana_pref":"ｱｲﾁｹﾝ","kana_city":"ﾅｶﾞｸﾃｼ","kana_address":"ｶﾝﾉﾝﾄﾞｳ","pref":"愛知県","city":"長久手市","address":"観音堂"},
{"zip_code":"4801301","kana_pref":"ｱｲﾁｹﾝ","kana_city":"ﾅｶﾞｸﾃｼ","kana_address":"ｷﾀｳﾗ","pref":"愛知県","city":"長久手市","address":"北浦"},
{"zip_code":"4801339","kana_pref":"ｱｲﾁｹﾝ","kana_city":"ﾅｶﾞｸﾃｼ","kana_address":"ｷﾀｸﾞﾏ","pref":"愛知県","city":"長久手市","address":"北熊"},
{"zip_code":"4801117","kana_pref":"ｱｲﾁｹﾝ","kana_city":"ﾅｶﾞｸﾃｼ","kana_address":"ｷﾌﾞﾀｹ","pref":"愛知県","city":"長久手市","address":"喜婦嶽"},
{"zip_code":"4801184","kana_pref":"ｱｲﾁｹﾝ","kana_city":"ﾅｶﾞｸﾃｼ","kana_address":"ｸｻｶｹ","pref":"愛知県","city":"長久手市","address":"草掛"},
{"zip_code":"4801151","kana_pref":"ｱｲﾁｹﾝ","kana_city":"ﾅｶﾞｸﾃｼ","kana_address":"ｸﾎﾞﾔﾏ","pref":"愛知県","city":"長久手市","address":"久保山"},
{"zip_code":"4801144","kana_pref":"ｱｲﾁｹﾝ","kana_city":"ﾅｶﾞｸﾃｼ","kana_address":"ｸﾏﾀﾞ","pref":"愛知県","city":"長久手市","address":"熊田"},
{"zip_code":"4801312","kana_pref":"ｱｲﾁｹﾝ","kana_city":"ﾅｶﾞｸﾃｼ","kana_address":"ｸﾏﾊﾘﾌｶﾀﾞ","pref":"愛知県","city":"長久手市","address":"熊張深田"},
{"zip_code":"4801347","kana_pref":"ｱｲﾁｹﾝ","kana_city":"ﾅｶﾞｸﾃｼ","kana_address":"ｺｲｶﾞﾊﾞｻﾏ","pref":"愛知県","city":"長久手市","address":"鯉ケ廻間"},
{"zip_code":"4801336","kana_pref":"ｱｲﾁｹﾝ","kana_city":"ﾅｶﾞｸﾃｼ","kana_address":"ｺｲﾅﾊﾞ","pref":"愛知県","city":"長久手市","address":"小稲葉"},
{"zip_code":"4801304","kana_pref":"ｱｲﾁｹﾝ","kana_city":"ﾅｶﾞｸﾃｼ","kana_address":"ｺﾞｳﾏｴ","pref":"愛知県","city":"長久手市","address":"郷前"},
{"zip_code":"4801176","kana_pref":"ｱｲﾁｹﾝ","kana_city":"ﾅｶﾞｸﾃｼ","kana_address":"ｺｵｹ","pref":"愛知県","city":"長久手市","address":"香桶"},
{"zip_code":"4801156","kana_pref":"ｱｲﾁｹﾝ","kana_city":"ﾅｶﾞｸﾃｼ","kana_address":"ｺﾞｺﾞｳｲｹ","pref":"愛知県","city":"長久手市","address":"五合池"},
{"zip_code":"4801313","kana_pref":"ｱｲﾁｹﾝ","kana_city":"ﾅｶﾞｸﾃｼ","kana_address":"ｺﾌﾞｹ","pref":"愛知県","city":"長久手市","address":"小深"},
{"zip_code":"4801153","kana_pref":"ｱｲﾁｹﾝ","kana_city":"ﾅｶﾞｸﾃｼ","kana_address":"ｻｸﾀ","pref":"愛知県","city":"長久手市","address":"作田"},
{"zip_code":"4801157","kana_pref":"ｱｲﾁｹﾝ","kana_city":"ﾅｶﾞｸﾃｼ","kana_address":"ｻｸﾗﾂｸﾘ","pref":"愛知県","city":"長久手市","address":"桜作"},
{"zip_code":"4801329","kana_pref":"ｱｲﾁｹﾝ","kana_city":"ﾅｶﾞｸﾃｼ","kana_address":"ｻﾙﾋﾗ","pref":"愛知県","city":"長久手市","address":"申平"},
{"zip_code":"4801322","kana_pref":"ｱｲﾁｹﾝ","kana_city":"ﾅｶﾞｸﾃｼ","kana_address":"ｼｵﾐｻﾞｶ","pref":"愛知県","city":"長久手市","address":"汐見坂"},
{"zip_code":"4801137","kana_pref":"ｱｲﾁｹﾝ","kana_city":"ﾅｶﾞｸﾃｼ","kana_address":"ｼﾓｶﾞﾜﾗ","pref":"愛知県","city":"長久手市","address":"下川原"},
{"zip_code":"4801107","kana_pref":"ｱｲﾁｹﾝ","kana_city":"ﾅｶﾞｸﾃｼ","kana_address":"ｼﾓｺﾞﾝﾀﾞ","pref":"愛知県","city":"長久手市","address":"下権田"},
{"zip_code":"4801338","kana_pref":"ｱｲﾁｹﾝ","kana_city":"ﾅｶﾞｸﾃｼ","kana_address":"ｼﾓﾀﾞ","pref":"愛知県","city":"長久手市","address":"下田"},
{"zip_code":"4801135","kana_pref":"ｱｲﾁｹﾝ","kana_city":"ﾅｶﾞｸﾃｼ","kana_address":"ｼﾓﾔﾏ","pref":"愛知県","city":"長久手市","address":"下山"},
{"zip_code":"4801128","kana_pref":"ｱｲﾁｹﾝ","kana_city":"ﾅｶﾞｸﾃｼ","kana_address":"ｼｮｳﾆｭｳﾂﾞｶ","pref":"愛知県","city":"長久手市","address":"勝入塚"},
{"zip_code":"4801115","kana_pref":"ｱｲﾁｹﾝ","kana_city":"ﾅｶﾞｸﾃｼ","kana_address":"ｼｮｳﾌﾞｲｹ","pref":"愛知県","city":"長久手市","address":"菖蒲池"},
{"zip_code":"4801122","kana_pref":"ｱｲﾁｹﾝ","kana_city":"ﾅｶﾞｸﾃｼ","kana_address":"ｼﾛﾔｼｷ","pref":"愛知県","city":"長久手市","address":"城屋敷"},
{"zip_code":"4801306","kana_pref":"ｱｲﾁｹﾝ","kana_city":"ﾅｶﾞｸﾃｼ","kana_address":"ｼﾝｷﾞｮｳﾀﾞ","pref":"愛知県","city":"長久手市","address":"真行田"},
{"zip_code":"4801321","kana_pref":"ｱｲﾁｹﾝ","kana_city":"ﾅｶﾞｸﾃｼ","kana_address":"ｼﾝﾒｲ","pref":"愛知県","city":"長久手市","address":"神明"},
{"zip_code":"4801332","kana_pref":"ｱｲﾁｹﾝ","kana_city":"ﾅｶﾞｸﾃｼ","kana_address":"ｼﾞﾝﾓﾝﾏｴ","pref":"愛知県","city":"長久手市","address":"神門前"},
{"zip_code":"4801127","kana_pref":"ｱｲﾁｹﾝ","kana_city":"ﾅｶﾞｸﾃｼ","kana_address":"ｽｶﾞｲｹ","pref":"愛知県","city":"長久手市","address":"菅池"},
{"zip_code":"4801326","kana_pref":"ｱｲﾁｹﾝ","kana_city":"ﾅｶﾞｸﾃｼ","kana_address":"ｽｹﾛｸ","pref":"愛知県","city":"長久手市","address":"助六"},
{"zip_code":"4801112","kana_pref":"ｱｲﾁｹﾝ","kana_city":"ﾅｶﾞｸﾃｼ","kana_address":"ｽﾅｺﾞ","pref":"愛知県","city":"長久手市","address":"砂子"},
{"zip_code":"4801175","kana_pref":"ｱｲﾁｹﾝ","kana_city":"ﾅｶﾞｸﾃｼ","kana_address":"ｾﾝﾀﾞﾂ","pref":"愛知県","city":"長久手市","address":"先達"},
{"zip_code":"4801335","kana_pref":"ｱｲﾁｹﾝ","kana_city":"ﾅｶﾞｸﾃｼ","kana_address":"ﾀﾞｲﾆﾁ","pref":"愛知県","city":"長久手市","address":"大日"},
{"zip_code":"4801324","kana_pref":"ｱｲﾁｹﾝ","kana_city":"ﾅｶﾞｸﾃｼ","kana_address":"ﾀﾞﾝﾄﾒ","pref":"愛知県","city":"長久手市","address":"段留"},
{"zip_code":"4801162","kana_pref":"ｱｲﾁｹﾝ","kana_city":"ﾅｶﾞｸﾃｼ","kana_address":"ﾀﾞﾝﾉｳｴ","pref":"愛知県","city":"長久手市","address":"段の上"},
{"zip_code":"4801178","kana_pref":"ｱｲﾁｹﾝ","kana_city":"ﾅｶﾞｸﾃｼ","kana_address":"ﾁｮｳｼﾀﾞ","pref":"愛知県","city":"長久手市","address":"丁子田"},
{"zip_code":"4801114","kana_pref":"ｱｲﾁｹﾝ","kana_city":"ﾅｶﾞｸﾃｼ","kana_address":"ﾁｮｳﾊｲ","pref":"愛知県","city":"長久手市","address":"長配"},
{"zip_code":"4801154","kana_pref":"ｱｲﾁｹﾝ","kana_city":"ﾅｶﾞｸﾃｼ","kana_address":"ﾂｶﾀﾞ","pref":"愛知県","city":"長久手市","address":"塚田"},
{"zip_code":"4801346","kana_pref":"ｱｲﾁｹﾝ","kana_city":"ﾅｶﾞｸﾃｼ","kana_address":"ﾄﾞｳﾜｷ","pref":"愛知県","city":"長久手市","address":"堂脇"},
{"zip_code":"4801124","kana_pref":"ｱｲﾁｹﾝ","kana_city":"ﾅｶﾞｸﾃｼ","kana_address":"ﾄﾀﾞｶﾞｲ","pref":"愛知県","city":"長久手市","address":"戸田谷"},
{"zip_code":"4801305","kana_pref":"ｱｲﾁｹﾝ","kana_city":"ﾅｶﾞｸﾃｼ","kana_address":"ﾅｶｲ","pref":"愛知県","city":"長久手市","address":"中井"},
{"zip_code":"4801108","kana_pref":"ｱｲﾁｹﾝ","kana_city":"ﾅｶﾞｸﾃｼ","kana_address":"ﾅｶｲｹ","pref":"愛知県","city":"長久手市","address":"中池"},
{"zip_code":"4801139","kana_pref":"ｱｲﾁｹﾝ","kana_city":"ﾅｶﾞｸﾃｼ","kana_address":"ﾅｶｶﾞﾜﾗ","pref":"愛知県","city":"長久手市","address":"中川原"},
{"zip_code":"4801167","kana_pref":"ｱｲﾁｹﾝ","kana_city":"ﾅｶﾞｸﾃｼ","kana_address":"ﾅｶﾀ","pref":"愛知県","city":"長久手市","address":"仲田"},
{"zip_code":"4801337","kana_pref":"ｱｲﾁｹﾝ","kana_city":"ﾅｶﾞｸﾃｼ","kana_address":"ﾅｶﾔ","pref":"愛知県","city":"長久手市","address":"中屋"},
{"zip_code":"4801171","kana_pref":"ｱｲﾁｹﾝ","kana_city":"ﾅｶﾞｸﾃｼ","kana_address":"ﾆｼｳﾗ","pref":"愛知県","city":"長久手市","address":"西浦"},
{"zip_code":"4801183","kana_pref":"ｱｲﾁｹﾝ","kana_city":"ﾅｶﾞｸﾃｼ","kana_address":"ﾆｼﾊﾗ","pref":"愛知県","city":"長久手市","address":"西原"},
{"zip_code":"4801138","kana_pref":"ｱｲﾁｹﾝ","kana_city":"ﾅｶﾞｸﾃｼ","kana_address":"ﾆｼﾊﾗﾔﾏ","pref":"愛知県","city":"長久手市","address":"西原山"},
{"zip_code":"4801148","kana_pref":"ｱｲﾁｹﾝ","kana_city":"ﾅｶﾞｸﾃｼ","kana_address":"ﾈﾀｹ","pref":"愛知県","city":"長久手市","address":"根嶽"},
{"zip_code":"4801141","kana_pref":"ｱｲﾁｹﾝ","kana_city":"ﾅｶﾞｸﾃｼ","kana_address":"ﾈﾉｶﾞﾐ","pref":"愛知県","city":"長久手市","address":"根の神"},
{"zip_code":"4801166","kana_pref":"ｱｲﾁｹﾝ","kana_city":"ﾅｶﾞｸﾃｼ","kana_address":"ﾉﾀﾞﾉｳ","pref":"愛知県","city":"長久手市","address":"野田農"},
{"zip_code":"4801163","kana_pref":"ｱｲﾁｹﾝ","kana_city":"ﾅｶﾞｸﾃｼ","kana_address":"ﾊﾗﾔｼｷ","pref":"愛知県","city":"長久手市","address":"原邸"},
{"zip_code":"4801133","kana_pref":"ｱｲﾁｹﾝ","kana_city":"ﾅｶﾞｸﾃｼ","kana_address":"ﾊﾗﾔﾏ","pref":"愛知県","city":"長久手市","address":"原山"},
{"zip_code":"4801174","kana_pref":"ｱｲﾁｹﾝ","kana_city":"ﾅｶﾞｸﾃｼ","kana_address":"ﾋｶﾞｼｳﾗ","pref":"愛知県","city":"長久手市","address":"東浦"},
{"zip_code":"4801303","kana_pref":"ｱｲﾁｹﾝ","kana_city":"ﾅｶﾞｸﾃｼ","kana_address":"ﾋｶﾞｼﾀﾞ","pref":"愛知県","city":"長久手市","address":"東田"},
{"zip_code":"4801123","kana_pref":"ｱｲﾁｹﾝ","kana_city":"ﾅｶﾞｸﾃｼ","kana_address":"ﾋｶﾞｼﾊｻﾞﾏ","pref":"愛知県","city":"長久手市","address":"東狭間"},
{"zip_code":"4801181","kana_pref":"ｱｲﾁｹﾝ","kana_city":"ﾅｶﾞｸﾃｼ","kana_address":"ﾋｶﾞｼﾊﾗ","pref":"愛知県","city":"長久手市","address":"東原"},
{"zip_code":"4801158","kana_pref":"ｱｲﾁｹﾝ","kana_city":"ﾅｶﾞｸﾃｼ","kana_address":"ﾋｶﾞｼﾊﾗﾔﾏ","pref":"愛知県","city":"長久手市","address":"東原山"},
{"zip_code":"4801315","kana_pref":"ｱｲﾁｹﾝ","kana_city":"ﾅｶﾞｸﾃｼ","kana_address":"ﾋｶﾞｼﾋﾗﾁ","pref":"愛知県","city":"長久手市","address":"東平地"},
{"zip_code":"4801318","kana_pref":"ｱｲﾁｹﾝ","kana_city":"ﾅｶﾞｸﾃｼ","kana_address":"ﾋｶﾞｼﾔﾏ","pref":"愛知県","city":"長久手市","address":"東山"},
{"zip_code":"4801155","kana_pref":"ｱｲﾁｹﾝ","kana_city":"ﾅｶﾞｸﾃｼ","kana_address":"ﾋﾗｲｹ","pref":"愛知県","city":"長久手市","address":"平池"},
{"zip_code":"4801316","kana_pref":"ｱｲﾁｹﾝ","kana_city":"ﾅｶﾞｸﾃｼ","kana_address":"ﾋﾗﾁ","pref":"愛知県","city":"長久手市","address":"平地"},
{"zip_code":"4801344","kana_pref":"ｱｲﾁｹﾝ","kana_city":"ﾅｶﾞｸﾃｼ","kana_address":"ﾋﾛﾀ","pref":"愛知県","city":"長久手市","address":"広田"},
{"zip_code":"4801126","kana_pref":"ｱｲﾁｹﾝ","kana_city":"ﾅｶﾞｸﾃｼ","kana_address":"ﾌｶﾀﾞ","pref":"愛知県","city":"長久手市","address":"深田"},
{"zip_code":"4801119","kana_pref":"ｱｲﾁｹﾝ","kana_city":"ﾅｶﾞｸﾃｼ","kana_address":"ﾌｶﾊﾞｻﾏ","pref":"愛知県","city":"長久手市","address":"深廻間"},
{"zip_code":"4801311","kana_pref":"ｱｲﾁｹﾝ","kana_city":"ﾅｶﾞｸﾃｼ","kana_address":"ﾌｸｲ","pref":"愛知県","city":"長久手市","address":"福井"},
{"zip_code":"4801173","kana_pref":"ｱｲﾁｹﾝ","kana_city":"ﾅｶﾞｸﾃｼ","kana_address":"ﾌｼﾞｳﾗ","pref":"愛知県","city":"長久手市","address":"富士浦"},
{"zip_code":"4801168","kana_pref":"ｱｲﾁｹﾝ","kana_city":"ﾅｶﾞｸﾃｼ","kana_address":"ﾎﾞｳﾉｳｼﾛ","pref":"愛知県","city":"長久手市","address":"坊の後"},
{"zip_code":"4801104","kana_pref":"ｱｲﾁｹﾝ","kana_city":"ﾅｶﾞｸﾃｼ","kana_address":"ﾎﾞｳﾌﾘ","pref":"愛知県","city":"長久手市","address":"棒振"},
{"zip_code":"4801177","kana_pref":"ｱｲﾁｹﾝ","kana_city":"ﾅｶﾞｸﾃｼ","kana_address":"ﾎﾄｹｶﾞﾈ","pref":"愛知県","city":"長久手市","address":"仏が根"},
{"zip_code":"4801102","kana_pref":"ｱｲﾁｹﾝ","kana_city":"ﾅｶﾞｸﾃｼ","kana_address":"ﾏｴｸﾞﾏｲﾁﾉｲ","pref":"愛知県","city":"長久手市","address":"前熊一ノ井"},
{"zip_code":"4801102","kana_pref":"ｱｲﾁｹﾝ","kana_city":"ﾅｶﾞｸﾃｼ","kana_address":"ﾏｴｸﾞﾏｼﾐｽﾞ","pref":"愛知県","city":"長久手市","address":"前熊志水"},
{"zip_code":"4801102","kana_pref":"ｱｲﾁｹﾝ","kana_city":"ﾅｶﾞｸﾃｼ","kana_address":"ﾏｴｸﾞﾏｼﾓﾀﾞ","pref":"愛知県","city":"長久手市","address":"前熊下田"},
{"zip_code":"4801102","kana_pref":"ｱｲﾁｹﾝ","kana_city":"ﾅｶﾞｸﾃｼ","kana_address":"ﾏｴｸﾞﾏﾃﾗﾀﾞ","pref":"愛知県","city":"長久手市","address":"前熊寺田"},
{"zip_code":"4801102","kana_pref":"ｱｲﾁｹﾝ","kana_city":"ﾅｶﾞｸﾃｼ","kana_address":"ﾏｴｸﾞﾏﾅｶｲ","pref":"愛知県","city":"長久手市","address":"前熊中井"},
{"zip_code":"4801102","kana_pref":"ｱｲﾁｹﾝ","kana_city":"ﾅｶﾞｸﾃｼ","kana_address":"ﾏｴｸﾞﾏﾆｼﾜｷ","pref":"愛知県","city":"長久手市","address":"前熊西脇"},
{"zip_code":"4801102","kana_pref":"ｱｲﾁｹﾝ","kana_city":"ﾅｶﾞｸﾃｼ","kana_address":"ﾏｴｸﾞﾏﾈﾉｳｴ","pref":"愛知県","city":"長久手市","address":"前熊根ノ上"},
{"zip_code":"4801102","kana_pref":"ｱｲﾁｹﾝ","kana_city":"ﾅｶﾞｸﾃｼ","kana_address":"ﾏｴｸﾞﾏﾈﾉﾊﾗ","pref":"愛知県","city":"長久手市","address":"前熊根ノ原"},
{"zip_code":"4801102","kana_pref":"ｱｲﾁｹﾝ","kana_city":"ﾅｶﾞｸﾃｼ","kana_address":"ﾏｴｸﾞﾏﾊｼﾉﾓﾄ","pref":"愛知県","city":"長久手市","address":"前熊橋ノ本"},
{"zip_code":"4801102","kana_pref":"ｱｲﾁｹﾝ","kana_city":"ﾅｶﾞｸﾃｼ","kana_address":"ﾏｴｸﾞﾏﾊﾗﾔﾏ","pref":"愛知県","city":"長久手市","address":"前熊原山"},
{"zip_code":"4801102","kana_pref":"ｱｲﾁｹﾝ","kana_city":"ﾅｶﾞｸﾃｼ","kana_address":"ﾏｴｸﾞﾏﾋﾛｵﾓﾃ","pref":"愛知県","city":"長久手市","address":"前熊広面"},
{"zip_code":"4801102","kana_pref":"ｱｲﾁｹﾝ","kana_city":"ﾅｶﾞｸﾃｼ","kana_address":"ﾏｴｸﾞﾏﾎﾘｺｼ","pref":"愛知県","city":"長久手市","address":"前熊堀越"},
{"zip_code":"4801102","kana_pref":"ｱｲﾁｹﾝ","kana_city":"ﾅｶﾞｸﾃｼ","kana_address":"ﾏｴｸﾞﾏﾏｴﾔﾏ","pref":"愛知県","city":"長久手市","address":"前熊前山"},
{"zip_code":"4801102","kana_pref":"ｱｲﾁｹﾝ","kana_city":"ﾅｶﾞｸﾃｼ","kana_address":"ﾏｴｸﾞﾏﾐｿﾞｼﾀ","pref":"愛知県","city":"長久手市","address":"前熊溝下"},
{"zip_code":"4801317","kana_pref":"ｱｲﾁｹﾝ","kana_city":"ﾅｶﾞｸﾃｼ","kana_address":"ﾏﾂｲﾘ","pref":"愛知県","city":"長久手市","address":"松杁"},
{"zip_code":"4801105","kana_pref":"ｱｲﾁｹﾝ","kana_city":"ﾅｶﾞｸﾃｼ","kana_address":"ﾏﾙﾈ","pref":"愛知県","city":"長久手市","address":"丸根"},
{"zip_code":"4801345","kana_pref":"ｱｲﾁｹﾝ","kana_city":"ﾅｶﾞｸﾃｼ","kana_address":"ﾏﾙﾔﾏ","pref":"愛知県","city":"長久手市","address":"丸山"},
{"zip_code":"4801309","kana_pref":"ｱｲﾁｹﾝ","kana_city":"ﾅｶﾞｸﾃｼ","kana_address":"ﾐｿﾞﾉｲﾘ","pref":"愛知県","city":"長久手市","address":"溝之杁"},
{"zip_code":"4801134","kana_pref":"ｱｲﾁｹﾝ","kana_city":"ﾅｶﾞｸﾃｼ","kana_address":"ﾐﾅﾐﾊﾗﾔﾏ","pref":"愛知県","city":"長久手市","address":"南原山"},
{"zip_code":"4801172","kana_pref":"ｱｲﾁｹﾝ","kana_city":"ﾅｶﾞｸﾃｼ","kana_address":"ﾐﾔﾜｷ","pref":"愛知県","city":"長久手市","address":"宮脇"},
{"zip_code":"4801121","kana_pref":"ｱｲﾁｹﾝ","kana_city":"ﾅｶﾞｸﾃｼ","kana_address":"ﾑｻｼﾂﾞｶ","pref":"愛知県","city":"長久手市","address":"武蔵塚"},
{"zip_code":"4801103","kana_pref":"ｱｲﾁｹﾝ","kana_city":"ﾅｶﾞｸﾃｼ","kana_address":"ﾔｻﾞｺｲｼﾀﾞ","pref":"愛知県","city":"長久手市","address":"岩作石田"},
{"zip_code":"4801103","kana_pref":"ｱｲﾁｹﾝ","kana_city":"ﾅｶﾞｸﾃｼ","kana_address":"ﾔｻﾞｺｲﾄﾞｶﾞﾈ","pref":"愛知県","city":"長久手市","address":"岩作井戸ケ根"},
{"zip_code":"4801103","kana_pref":"ｱｲﾁｹﾝ","kana_city":"ﾅｶﾞｸﾃｼ","kana_address":"ﾔｻﾞｺｲﾛｶﾞﾈ","pref":"愛知県","city":"長久手市","address":"岩作色金"},
{"zip_code":"4801103","kana_pref":"ｱｲﾁｹﾝ","kana_city":"ﾅｶﾞｸﾃｼ","kana_address":"ﾔｻﾞｺｳｷｴ","pref":"愛知県","city":"長久手市","address":"岩作浮江"},
{"zip_code":"4801103","kana_pref":"ｱｲﾁｹﾝ","kana_city":"ﾅｶﾞｸﾃｼ","kana_address":"ﾔｻﾞｺｳﾁﾏﾝﾊﾞ","pref":"愛知県","city":"長久手市","address":"岩作内万場"},
{"zip_code":"4801103","kana_pref":"ｱｲﾁｹﾝ","kana_city":"ﾅｶﾞｸﾃｼ","kana_address":"ﾔｻﾞｺｵｵﾈ","pref":"愛知県","city":"長久手市","address":"岩作大根"},
{"zip_code":"4801103","kana_pref":"ｱｲﾁｹﾝ","kana_city":"ﾅｶﾞｸﾃｼ","kana_address":"ﾔｻﾞｺｵﾁｱｲ","pref":"愛知県","city":"長久手市","address":"岩作落合"},
{"zip_code":"4801103","kana_pref":"ｱｲﾁｹﾝ","kana_city":"ﾅｶﾞｸﾃｼ","kana_address":"ﾔｻﾞｺｵﾘﾄﾞｶﾞﾋﾗ","pref":"愛知県","city":"長久手市","address":"岩作折戸ケ平"},
{"zip_code":"4801103","kana_pref":"ｱｲﾁｹﾝ","kana_city":"ﾅｶﾞｸﾃｼ","kana_address":"ﾔｻﾞｺｶｹﾊﾅ","pref":"愛知県","city":"長久手市","address":"岩作欠花"},
{"zip_code":"4801103","kana_pref":"ｱｲﾁｹﾝ","kana_city":"ﾅｶﾞｸﾃｼ","kana_address":"ﾔｻﾞｺｶﾍﾞﾉﾓﾄ","pref":"愛知県","city":"長久手市","address":"岩作壁ノ本"},
{"zip_code":"4801103","kana_pref":"ｱｲﾁｹﾝ","kana_city":"ﾅｶﾞｸﾃｼ","kana_address":"ﾔｻﾞｺｶﾘﾏﾀ","pref":"愛知県","city":"長久手市","address":"岩作雁又"},
{"zip_code":"4801103","kana_pref":"ｱｲﾁｹﾝ","kana_city":"ﾅｶﾞｸﾃｼ","kana_address":"ﾔｻﾞｺｷﾀﾔﾏ","pref":"愛知県","city":"長久手市","address":"岩作北山"},
{"zip_code":"4801103","kana_pref":"ｱｲﾁｹﾝ","kana_city":"ﾅｶﾞｸﾃｼ","kana_address":"ﾔｻﾞｺｷﾂﾈﾎﾞﾗ","pref":"愛知県","city":"長久手市","address":"岩作狐洞"},
{"zip_code":"4801103","kana_pref":"ｱｲﾁｹﾝ","kana_city":"ﾅｶﾞｸﾃｼ","kana_address":"ﾔｻﾞｺｺﾞﾀﾝﾀﾞ","pref":"愛知県","city":"長久手市","address":"岩作五反田"},
{"zip_code":"4801103","kana_pref":"ｱｲﾁｹﾝ","kana_city":"ﾅｶﾞｸﾃｼ","kana_address":"ﾔｻﾞｺｺﾞﾝﾀﾞ","pref":"愛知県","city":"長久手市","address":"岩作権田"},
{"zip_code":"4801103","kana_pref":"ｱｲﾁｹﾝ","kana_city":"ﾅｶﾞｸﾃｼ","kana_address":"ﾔｻﾞｺｺﾞﾝﾀﾞｲ","pref":"愛知県","city":"長久手市","address":"岩作権代"},
{"zip_code":"4801103","kana_pref":"ｱｲﾁｹﾝ","kana_city":"ﾅｶﾞｸﾃｼ","kana_address":"ﾔｻﾞｺｻｶﾞﾐﾈ","pref":"愛知県","city":"長久手市","address":"岩作三ケ峯"},
{"zip_code":"4801103","kana_pref":"ｱｲﾁｹﾝ","kana_city":"ﾅｶﾞｸﾃｼ","kana_address":"ﾔｻﾞｺｻﾙﾘｯｶ","pref":"愛知県","city":"長久手市","address":"岩作申立花"},
{"zip_code":"4801103","kana_pref":"ｱｲﾁｹﾝ","kana_city":"ﾅｶﾞｸﾃｼ","kana_address":"ﾔｻﾞｺｼﾓｼﾞﾏ","pref":"愛知県","city":"長久手市","address":"岩作下島"},
{"zip_code":"4801103","kana_pref":"ｱｲﾁｹﾝ","kana_city":"ﾅｶﾞｸﾃｼ","kana_address":"ﾔｻﾞｺｼﾓﾀﾞ","pref":"愛知県","city":"長久手市","address":"岩作下田"},
{"zip_code":"4801103","kana_pref":"ｱｲﾁｹﾝ","kana_city":"ﾅｶﾞｸﾃｼ","kana_address":"ﾔｻﾞｺｼﾓﾎﾘｺｼ","pref":"愛知県","city":"長久手市","address":"岩作下堀越"},
{"zip_code":"4801103","kana_pref":"ｱｲﾁｹﾝ","kana_city":"ﾅｶﾞｸﾃｼ","kana_address":"ﾔｻﾞｺｼﾞｬﾎﾞﾗ","pref":"愛知県","city":"長久手市","address":"岩作蛇洞"},
{"zip_code":"4801103","kana_pref":"ｱｲﾁｹﾝ","kana_city":"ﾅｶﾞｸﾃｼ","kana_address":"ﾔｻﾞｺｼﾗﾊﾞﾘ","pref":"愛知県","city":"長久手市","address":"岩作白針"},
{"zip_code":"4801103","kana_pref":"ｱｲﾁｹﾝ","kana_city":"ﾅｶﾞｸﾃｼ","kana_address":"ﾔｻﾞｺｼﾛﾉｳﾁ","pref":"愛知県","city":"長久手市","address":"岩作城の内"},
{"zip_code":"4801103","kana_pref":"ｱｲﾁｹﾝ","kana_city":"ﾅｶﾞｸﾃｼ","kana_address":"ﾔｻﾞｺｽﾐﾀﾞ","pref":"愛知県","city":"長久手市","address":"岩作隅田"},
{"zip_code":"4801103","kana_pref":"ｱｲﾁｹﾝ","kana_city":"ﾅｶﾞｸﾃｼ","kana_address":"ﾔｻﾞｺﾀｶﾈ","pref":"愛知県","city":"長久手市","address":"岩作高根"},
{"zip_code":"4801103","kana_pref":"ｱｲﾁｹﾝ","kana_city":"ﾅｶﾞｸﾃｼ","kana_address":"ﾔｻﾞｺﾀｶﾈﾏｴ","pref":"愛知県","city":"長久手市","address":"岩作高根前"},
{"zip_code":"4801103","kana_pref":"ｱｲﾁｹﾝ","kana_city":"ﾅｶﾞｸﾃｼ","kana_address":"ﾔｻﾞｺﾀｶﾔﾏ","pref":"愛知県","city":"長久手市","address":"岩作高山"},
{"zip_code":"4801103","kana_pref":"ｱｲﾁｹﾝ","kana_city":"ﾅｶﾞｸﾃｼ","kana_address":"ﾔｻﾞｺﾂｶﾓﾄ","pref":"愛知県","city":"長久手市","address":"岩作塚本"},
{"zip_code":"4801103","kana_pref":"ｱｲﾁｹﾝ","kana_city":"ﾅｶﾞｸﾃｼ","kana_address":"ﾔｻﾞｺﾃﾗﾀﾞ","pref":"愛知県","city":"長久手市","address":"岩作寺田"},
{"zip_code":"4801103","kana_pref":"ｱｲﾁｹﾝ","kana_city":"ﾅｶﾞｸﾃｼ","kana_address":"ﾔｻﾞｺﾃﾗﾔﾏ","pref":"愛知県","city":"長久手市","address":"岩作寺山"},
{"zip_code":"4801103","kana_pref":"ｱｲﾁｹﾝ","kana_city":"ﾅｶﾞｸﾃｼ","kana_address":"ﾔｻﾞｺﾄｺｻﾑ","pref":"愛知県","city":"長久手市","address":"岩作床寒"},
{"zip_code":"4801103","kana_pref":"ｱｲﾁｹﾝ","kana_city":"ﾅｶﾞｸﾃｼ","kana_address":"ﾔｻﾞｺﾄﾁｸﾋﾞ","pref":"愛知県","city":"長久手市","address":"岩作泥亀首"},
{"zip_code":"4801103","kana_pref":"ｱｲﾁｹﾝ","kana_city":"ﾅｶﾞｸﾃｼ","kana_address":"ﾔｻﾞｺﾄﾗﾔﾏ","pref":"愛知県","city":"長久手市","address":"岩作寅山"},
{"zip_code":"4801103","kana_pref":"ｱｲﾁｹﾝ","kana_city":"ﾅｶﾞｸﾃｼ","kana_address":"ﾔｻﾞｺﾄﾘﾘｯｶ","pref":"愛知県","city":"長久手市","address":"岩作酉立花"},
{"zip_code":"4801103","kana_pref":"ｱｲﾁｹﾝ","kana_city":"ﾅｶﾞｸﾃｼ","kana_address":"ﾔｻﾞｺﾅｶﾞｲｹ","pref":"愛知県","city":"長久手市","address":"岩作長池"},
{"zip_code":"4801103","kana_pref":"ｱｲﾁｹﾝ","kana_city":"ﾅｶﾞｸﾃｼ","kana_address":"ﾔｻﾞｺﾅｶﾞｵｻ","pref":"愛知県","city":"長久手市","address":"岩作長筬"},
{"zip_code":"4801103","kana_pref":"ｱｲﾁｹﾝ","kana_city":"ﾅｶﾞｸﾃｼ","kana_address":"ﾔｻﾞｺﾅｶｺﾞﾝﾀﾞｲ","pref":"愛知県","city":"長久手市","address":"岩作中権代"},
{"zip_code":"4801103","kana_pref":"ｱｲﾁｹﾝ","kana_city":"ﾅｶﾞｸﾃｼ","kana_address":"ﾔｻﾞｺﾅｶｼﾞﾏ","pref":"愛知県","city":"長久手市","address":"岩作中島"},
{"zip_code":"4801103","kana_pref":"ｱｲﾁｹﾝ","kana_city":"ﾅｶﾞｸﾃｼ","kana_address":"ﾔｻﾞｺﾅｶﾞﾂﾙ","pref":"愛知県","city":"長久手市","address":"岩作長鶴"},
{"zip_code":"4801103","kana_pref":"ｱｲﾁｹﾝ","kana_city":"ﾅｶﾞｸﾃｼ","kana_address":"ﾔｻﾞｺﾅｶﾅﾜﾃ","pref":"愛知県","city":"長久手市","address":"岩作中縄手"},
{"zip_code":"4801103","kana_pref":"ｱｲﾁｹﾝ","kana_city":"ﾅｶﾞｸﾃｼ","kana_address":"ﾔｻﾞｺﾅｶﾈ","pref":"愛知県","city":"長久手市","address":"岩作中根"},
{"zip_code":"4801103","kana_pref":"ｱｲﾁｹﾝ","kana_city":"ﾅｶﾞｸﾃｼ","kana_address":"ﾔｻﾞｺﾅｶﾈﾊﾞﾗ","pref":"愛知県","city":"長久手市","address":"岩作中根原"},
{"zip_code":"4801103","kana_pref":"ｱｲﾁｹﾝ","kana_city":"ﾅｶﾞｸﾃｼ","kana_address":"ﾔｻﾞｺﾅｶﾘｯｶ","pref":"愛知県","city":"長久手市","address":"岩作中立花"},
{"zip_code":"4801103","kana_pref":"ｱｲﾁｹﾝ","kana_city":"ﾅｶﾞｸﾃｼ","kana_address":"ﾔｻﾞｺﾅｶﾜｷ","pref":"愛知県","city":"長久手市","address":"岩作中脇"},
{"zip_code":"4801103","kana_pref":"ｱｲﾁｹﾝ","kana_city":"ﾅｶﾞｸﾃｼ","kana_address":"ﾔｻﾞｺﾆｼｳﾗ","pref":"愛知県","city":"長久手市","address":"岩作西浦"},
{"zip_code":"4801103","kana_pref":"ｱｲﾁｹﾝ","kana_city":"ﾅｶﾞｸﾃｼ","kana_address":"ﾔｻﾞｺﾆｼｼﾞﾏ","pref":"愛知県","city":"長久手市","address":"岩作西島"},
{"zip_code":"4801103","kana_pref":"ｱｲﾁｹﾝ","kana_city":"ﾅｶﾞｸﾃｼ","kana_address":"ﾔｻﾞｺﾋｶﾞｼｼﾞﾏ","pref":"愛知県","city":"長久手市","address":"岩作東島"},
{"zip_code":"4801103","kana_pref":"ｱｲﾁｹﾝ","kana_city":"ﾅｶﾞｸﾃｼ","kana_address":"ﾔｻﾞｺﾋｶﾞｼﾅｶ","pref":"愛知県","city":"長久手市","address":"岩作東中"},
{"zip_code":"4801103","kana_pref":"ｱｲﾁｹﾝ","kana_city":"ﾅｶﾞｸﾃｼ","kana_address":"ﾔｻﾞｺﾋﾗｺ","pref":"愛知県","city":"長久手市","address":"岩作平子"},
{"zip_code":"4801103","kana_pref":"ｱｲﾁｹﾝ","kana_city":"ﾅｶﾞｸﾃｼ","kana_address":"ﾔｻﾞｺﾋﾗﾁ","pref":"愛知県","city":"長久手市","address":"岩作平地"},
{"zip_code":"4801103","kana_pref":"ｱｲﾁｹﾝ","kana_city":"ﾅｶﾞｸﾃｼ","kana_address":"ﾔｻﾞｺﾋﾞﾜｶﾞｲｹ","pref":"愛知県","city":"長久手市","address":"岩作琵琶ケ池"},
{"zip_code":"4801103","kana_pref":"ｱｲﾁｹﾝ","kana_city":"ﾅｶﾞｸﾃｼ","kana_address":"ﾔｻﾞｺﾌｸｲ","pref":"愛知県","city":"長久手市","address":"岩作福井"},
{"zip_code":"4801103","kana_pref":"ｱｲﾁｹﾝ","kana_city":"ﾅｶﾞｸﾃｼ","kana_address":"ﾔｻﾞｺﾏﾙﾈ","pref":"愛知県","city":"長久手市","address":"岩作丸根"},
{"zip_code":"4801103","kana_pref":"ｱｲﾁｹﾝ","kana_city":"ﾅｶﾞｸﾃｼ","kana_address":"ﾔｻﾞｺﾐｿﾞｿﾞｴ","pref":"愛知県","city":"長久手市","address":"岩作溝添"},
{"zip_code":"4801103","kana_pref":"ｱｲﾁｹﾝ","kana_city":"ﾅｶﾞｸﾃｼ","kana_address":"ﾔｻﾞｺﾐﾅﾐｼﾞﾏ","pref":"愛知県","city":"長久手市","address":"岩作南島"},
{"zip_code":"4801103","kana_pref":"ｱｲﾁｹﾝ","kana_city":"ﾅｶﾞｸﾃｼ","kana_address":"ﾔｻﾞｺﾐﾔｳｼﾛ","pref":"愛知県","city":"長久手市","address":"岩作宮後"},
{"zip_code":"4801103","kana_pref":"ｱｲﾁｹﾝ","kana_city":"ﾅｶﾞｸﾃｼ","kana_address":"ﾔｻﾞｺﾐﾔﾏｴ","pref":"愛知県","city":"長久手市","address":"岩作宮前"},
{"zip_code":"4801103","kana_pref":"ｱｲﾁｹﾝ","kana_city":"ﾅｶﾞｸﾃｼ","kana_address":"ﾔｻﾞｺﾑｶｲﾀﾞ","pref":"愛知県","city":"長久手市","address":"岩作向田"},
{"zip_code":"4801103","kana_pref":"ｱｲﾁｹﾝ","kana_city":"ﾅｶﾞｸﾃｼ","kana_address":"ﾔｻﾞｺﾑｶｴﾊﾞﾀ","pref":"愛知県","city":"長久手市","address":"岩作向畑"},
{"zip_code":"4801103","kana_pref":"ｱｲﾁｹﾝ","kana_city":"ﾅｶﾞｸﾃｼ","kana_address":"ﾔｻﾞｺﾓﾄｶﾄﾞ","pref":"愛知県","city":"長久手市","address":"岩作元門"},
{"zip_code":"4801103","kana_pref":"ｱｲﾁｹﾝ","kana_city":"ﾅｶﾞｸﾃｼ","kana_address":"ﾔｻﾞｺﾓﾓﾉｷﾎﾞﾗ","pref":"愛知県","city":"長久手市","address":"岩作桃ノ木洞"},
{"zip_code":"4801103","kana_pref":"ｱｲﾁｹﾝ","kana_city":"ﾅｶﾞｸﾃｼ","kana_address":"ﾔｻﾞｺﾔｾﾉｷ","pref":"愛知県","city":"長久手市","address":"岩作八瀬ノ木"},
{"zip_code":"4801103","kana_pref":"ｱｲﾁｹﾝ","kana_city":"ﾅｶﾞｸﾃｼ","kana_address":"ﾔｻﾞｺﾔﾌﾞﾀ","pref":"愛知県","city":"長久手市","address":"岩作籔田"},
{"zip_code":"4801103","kana_pref":"ｱｲﾁｹﾝ","kana_city":"ﾅｶﾞｸﾃｼ","kana_address":"ﾔｻﾞｺﾜｾﾀﾞ","pref":"愛知県","city":"長久手市","address":"岩作早稲田"},
{"zip_code":"4801164","kana_pref":"ｱｲﾁｹﾝ","kana_city":"ﾅｶﾞｸﾃｼ","kana_address":"ﾔﾏｵｹ","pref":"愛知県","city":"長久手市","address":"山桶"},
{"zip_code":"4801111","kana_pref":"ｱｲﾁｹﾝ","kana_city":"ﾅｶﾞｸﾃｼ","kana_address":"ﾔﾏｺﾞｴ","pref":"愛知県","city":"長久手市","address":"山越"},
{"zip_code":"4801113","kana_pref":"ｱｲﾁｹﾝ","kana_city":"ﾅｶﾞｸﾃｼ","kana_address":"ﾔﾏﾉﾀ","pref":"愛知県","city":"長久手市","address":"山野田"},
{"zip_code":"4801118","kana_pref":"ｱｲﾁｹﾝ","kana_city":"ﾅｶﾞｸﾃｼ","kana_address":"ﾖｺﾐﾁ","pref":"愛知県","city":"長久手市","address":"横道"},
{"zip_code":"4801129","kana_pref":"ｱｲﾁｹﾝ","kana_city":"ﾅｶﾞｸﾃｼ","kana_address":"ﾖｼｲｹ","pref":"愛知県","city":"長久手市","address":"よし池"},
{"zip_code":"4801341","kana_pref":"ｱｲﾁｹﾝ","kana_city":"ﾅｶﾞｸﾃｼ","kana_address":"ﾖｼｶﾞﾊﾞｻﾏ","pref":"愛知県","city":"長久手市","address":"葭ケ廻間"},
{"zip_code":"4801307","kana_pref":"ｱｲﾁｹﾝ","kana_city":"ﾅｶﾞｸﾃｼ","kana_address":"ﾘｯｶ","pref":"愛知県","city":"長久手市","address":"立花"},
{"zip_code":"4801136","kana_pref":"ｱｲﾁｹﾝ","kana_city":"ﾅｶﾞｸﾃｼ","kana_address":"ﾛｳﾎﾞｸ","pref":"愛知県","city":"長久手市","address":"櫨木"},
{"zip_code":"4801328","kana_pref":"ｱｲﾁｹﾝ","kana_city":"ﾅｶﾞｸﾃｼ","kana_address":"ﾜｾﾀﾞ","pref":"愛知県","city":"長久手市","address":"早稲田"},
{"zip_code":"4800200","kana_pref":"ｱｲﾁｹﾝ","kana_city":"ﾆｼｶｽｶﾞｲｸﾞﾝﾄﾖﾔﾏﾁｮｳ","kana_address":"","pref":"愛知県","city":"西春日井郡豊山町","address":""},
{"zip_code":"4800201","kana_pref":"ｱｲﾁｹﾝ","kana_city":"ﾆｼｶｽｶﾞｲｸﾞﾝﾄﾖﾔﾏﾁｮｳ","kana_address":"ｱｵﾔﾏ","pref":"愛知県","city":"西春日井郡豊山町","address":"青山"},
{"zip_code":"4800202","kana_pref":"ｱｲﾁｹﾝ","kana_city":"ﾆｼｶｽｶﾞｲｸﾞﾝﾄﾖﾔﾏﾁｮｳ","kana_address":"ﾄﾖﾊﾞ","pref":"愛知県","city":"西春日井郡豊山町","address":"豊場"},
{"zip_code":"4800100","kana_pref":"ｱｲﾁｹﾝ","kana_city":"ﾆﾜｸﾞﾝｵｵｸﾞﾁﾁｮｳ","kana_address":"","pref":"愛知県","city":"丹羽郡大口町","address":""},
{"zip_code":"4800132","kana_pref":"ｱｲﾁｹﾝ","kana_city":"ﾆﾜｸﾞﾝｵｵｸﾞﾁﾁｮｳ","kana_address":"ｱｷﾀ","pref":"愛知県","city":"丹羽郡大口町","address":"秋田"},
{"zip_code":"4800137","kana_pref":"ｱｲﾁｹﾝ","kana_city":"ﾆﾜｸﾞﾝｵｵｸﾞﾁﾁｮｳ","kana_address":"ｵｵﾔｼｷ","pref":"愛知県","city":"丹羽郡大口町","address":"大屋敷"},
{"zip_code":"4800148","kana_pref":"ｱｲﾁｹﾝ","kana_city":"ﾆﾜｸﾞﾝｵｵｸﾞﾁﾁｮｳ","kana_address":"ｵｸﾞﾁ","pref":"愛知県","city":"丹羽郡大口町","address":"小口"},
{"zip_code":"4800138","kana_pref":"ｱｲﾁｹﾝ","kana_city":"ﾆﾜｸﾞﾝｵｵｸﾞﾁﾁｮｳ","kana_address":"ｵﾐﾄﾞ","pref":"愛知県","city":"丹羽郡大口町","address":"大御堂"},
{"zip_code":"4800133","kana_pref":"ｱｲﾁｹﾝ","kana_city":"ﾆﾜｸﾞﾝｵｵｸﾞﾁﾁｮｳ","kana_address":"ｶｴﾁ","pref":"愛知県","city":"丹羽郡大口町","address":"替地"},
{"zip_code":"4800149","kana_pref":"ｱｲﾁｹﾝ","kana_city":"ﾆﾜｸﾞﾝｵｵｸﾞﾁﾁｮｳ","kana_address":"ｶｷﾀ","pref":"愛知県","city":"丹羽郡大口町","address":"垣田"},
{"zip_code":"4800141","kana_pref":"ｱｲﾁｹﾝ","kana_city":"ﾆﾜｸﾞﾝｵｵｸﾞﾁﾁｮｳ","kana_address":"ｶﾐｵｸﾞﾁ","pref":"愛知県","city":"丹羽郡大口町","address":"上小口"},
{"zip_code":"4800121","kana_pref":"ｱｲﾁｹﾝ","kana_city":"ﾆﾜｸﾞﾝｵｵｸﾞﾁﾁｮｳ","kana_address":"ｺｷﾞﾀ","pref":"愛知県","city":"丹羽郡大口町","address":"河北"},
{"zip_code":"4800135","kana_pref":"ｱｲﾁｹﾝ","kana_city":"ﾆﾜｸﾞﾝｵｵｸﾞﾁﾁｮｳ","kana_address":"ｺﾞｺﾞｼｮ","pref":"愛知県","city":"丹羽郡大口町","address":"御供所"},
{"zip_code":"4800151","kana_pref":"ｱｲﾁｹﾝ","kana_city":"ﾆﾜｸﾞﾝｵｵｸﾞﾁﾁｮｳ","kana_address":"ｻﾂｷｶﾞｵｶ","pref":"愛知県","city":"丹羽郡大口町","address":"さつきケ丘"},
{"zip_code":"4800144","kana_pref":"ｱｲﾁｹﾝ","kana_city":"ﾆﾜｸﾞﾝｵｵｸﾞﾁﾁｮｳ","kana_address":"ｼﾓｵｸﾞﾁ","pref":"愛知県","city":"丹羽郡大口町","address":"下小口"},
{"zip_code":"4800143","kana_pref":"ｱｲﾁｹﾝ","kana_city":"ﾆﾜｸﾞﾝｵｵｸﾞﾁﾁｮｳ","kana_address":"ｼﾛﾔｼｷ","pref":"愛知県","city":"丹羽郡大口町","address":"城屋敷"},
{"zip_code":"4800127","kana_pref":"ｱｲﾁｹﾝ","kana_city":"ﾆﾜｸﾞﾝｵｵｸﾞﾁﾁｮｳ","kana_address":"ｼﾝﾐﾔ","pref":"愛知県","city":"丹羽郡大口町","address":"新宮"},
{"zip_code":"4800131","kana_pref":"ｱｲﾁｹﾝ","kana_city":"ﾆﾜｸﾞﾝｵｵｸﾞﾁﾁｮｳ","kana_address":"ﾀｶﾊｼ","pref":"愛知県","city":"丹羽郡大口町","address":"高橋"},
{"zip_code":"4800147","kana_pref":"ｱｲﾁｹﾝ","kana_city":"ﾆﾜｸﾞﾝｵｵｸﾞﾁﾁｮｳ","kana_address":"ﾀｹﾀﾞ","pref":"愛知県","city":"丹羽郡大口町","address":"竹田"},
{"zip_code":"4800126","kana_pref":"ｱｲﾁｹﾝ","kana_city":"ﾆﾜｸﾞﾝｵｵｸﾞﾁﾁｮｳ","kana_address":"ﾃﾞﾝﾈ","pref":"愛知県","city":"丹羽郡大口町","address":"伝右"},
{"zip_code":"4800125","kana_pref":"ｱｲﾁｹﾝ","kana_city":"ﾆﾜｸﾞﾝｵｵｸﾞﾁﾁｮｳ","kana_address":"ﾄﾂﾎﾞ","pref":"愛知県","city":"丹羽郡大口町","address":"外坪"},
{"zip_code":"4800134","kana_pref":"ｱｲﾁｹﾝ","kana_city":"ﾆﾜｸﾞﾝｵｵｸﾞﾁﾁｮｳ","kana_address":"ﾄﾖﾀ","pref":"愛知県","city":"丹羽郡大口町","address":"豊田"},
{"zip_code":"4800122","kana_pref":"ｱｲﾁｹﾝ","kana_city":"ﾆﾜｸﾞﾝｵｵｸﾞﾁﾁｮｳ","kana_address":"ﾅｶｵｷ","pref":"愛知県","city":"丹羽郡大口町","address":"仲沖"},
{"zip_code":"4800142","kana_pref":"ｱｲﾁｹﾝ","kana_city":"ﾆﾜｸﾞﾝｵｵｸﾞﾁﾁｮｳ","kana_address":"ﾅｶｵｸﾞﾁ","pref":"愛知県","city":"丹羽郡大口町","address":"中小口"},
{"zip_code":"4800139","kana_pref":"ｱｲﾁｹﾝ","kana_city":"ﾆﾜｸﾞﾝｵｵｸﾞﾁﾁｮｳ","kana_address":"ﾅﾗｼ","pref":"愛知県","city":"丹羽郡大口町","address":"奈良子"},
{"zip_code":"4800124","kana_pref":"ｱｲﾁｹﾝ","kana_city":"ﾆﾜｸﾞﾝｵｵｸﾞﾁﾁｮｳ","kana_address":"ﾊｷﾞｼﾏ","pref":"愛知県","city":"丹羽郡大口町","address":"萩島"},
{"zip_code":"4800123","kana_pref":"ｱｲﾁｹﾝ","kana_city":"ﾆﾜｸﾞﾝｵｵｸﾞﾁﾁｮｳ","kana_address":"ﾌﾀﾂﾔ","pref":"愛知県","city":"丹羽郡大口町","address":"二ツ屋"},
{"zip_code":"4800136","kana_pref":"ｱｲﾁｹﾝ","kana_city":"ﾆﾜｸﾞﾝｵｵｸﾞﾁﾁｮｳ","kana_address":"ﾎﾘｵｾｷ","pref":"愛知県","city":"丹羽郡大口町","address":"堀尾跡"},
{"zip_code":"4800145","kana_pref":"ｱｲﾁｹﾝ","kana_city":"ﾆﾜｸﾞﾝｵｵｸﾞﾁﾁｮｳ","kana_address":"ﾏﾙ","pref":"愛知県","city":"丹羽郡大口町","address":"丸"},
{"zip_code":"4800146","kana_pref":"ｱｲﾁｹﾝ","kana_city":"ﾆﾜｸﾞﾝｵｵｸﾞﾁﾁｮｳ","kana_address":"ﾖﾉ","pref":"愛知県","city":"丹羽郡大口町","address":"余野"},
{"zip_code":"4800100","kana_pref":"ｱｲﾁｹﾝ","kana_city":"ﾆﾜｸﾞﾝﾌｿｳﾁｮｳ","kana_address":"","pref":"愛知県","city":"丹羽郡扶桑町","address":""},
{"zip_code":"4800106","kana_pref":"ｱｲﾁｹﾝ","kana_city":"ﾆﾜｸﾞﾝﾌｿｳﾁｮｳ","kana_address":"ｵﾌﾞﾁ","pref":"愛知県","city":"丹羽郡扶桑町","address":"小淵"},
{"zip_code":"4800103","kana_pref":"ｱｲﾁｹﾝ","kana_city":"ﾆﾜｸﾞﾝﾌｿｳﾁｮｳ","kana_address":"ｶｼﾜﾓﾘ","pref":"愛知県","city":"丹羽郡扶桑町","address":"柏森"},
{"zip_code":"4800104","kana_pref":"ｱｲﾁｹﾝ","kana_city":"ﾆﾜｸﾞﾝﾌｿｳﾁｮｳ","kana_address":"ｻｲﾄ","pref":"愛知県","city":"丹羽郡扶桑町","address":"斉藤"},
{"zip_code":"4800102","kana_pref":"ｱｲﾁｹﾝ","kana_city":"ﾆﾜｸﾞﾝﾌｿｳﾁｮｳ","kana_address":"ﾀｶｵ","pref":"愛知県","city":"丹羽郡扶桑町","address":"高雄"},
{"zip_code":"4800107","kana_pref":"ｱｲﾁｹﾝ","kana_city":"ﾆﾜｸﾞﾝﾌｿｳﾁｮｳ","kana_address":"ﾀｶｷﾞ","pref":"愛知県","city":"丹羽郡扶桑町","address":"高木"},
{"zip_code":"4800105","kana_pref":"ｱｲﾁｹﾝ","kana_city":"ﾆﾜｸﾞﾝﾌｿｳﾁｮｳ","kana_address":"ﾐﾅﾐﾔﾅ","pref":"愛知県","city":"丹羽郡扶桑町","address":"南山名"},
{"zip_code":"4800101","kana_pref":"ｱｲﾁｹﾝ","kana_city":"ﾆﾜｸﾞﾝﾌｿｳﾁｮｳ","kana_address":"ﾔﾏﾅ","pref":"愛知県","city":"丹羽郡扶桑町","address":"山那"}]}