{"zip_code":[
{"zip_code":"4810000","kana_pref":"ｱｲﾁｹﾝ","kana_city":"ｷﾀﾅｺﾞﾔｼ","kana_address":"","pref":"愛知県","city":"北名古屋市","address":""},
{"zip_code":"4810046","kana_pref":"ｱｲﾁｹﾝ","kana_city":"ｷﾀﾅｺﾞﾔｼ","kana_address":"ｲｼﾊﾞｼ","pref":"愛知県","city":"北名古屋市","address":"石橋"},
{"zip_code":"4810014","kana_pref":"ｱｲﾁｹﾝ","kana_city":"ｷﾀﾅｺﾞﾔｼ","kana_address":"ｲｾｷﾞ","pref":"愛知県","city":"北名古屋市","address":"井瀬木"},
{"zip_code":"4810035","kana_pref":"ｱｲﾁｹﾝ","kana_city":"ｷﾀﾅｺﾞﾔｼ","kana_address":"ｳﾌﾞｸｼﾞ","pref":"愛知県","city":"北名古屋市","address":"宇福寺"},
{"zip_code":"4810043","kana_pref":"ｱｲﾁｹﾝ","kana_city":"ｷﾀﾅｺﾞﾔｼ","kana_address":"ｵｷﾑﾗ","pref":"愛知県","city":"北名古屋市","address":"沖村"},
{"zip_code":"4810037","kana_pref":"ｱｲﾁｹﾝ","kana_city":"ｷﾀﾅｺﾞﾔｼ","kana_address":"ｶｼﾞｶﾞｲｼｷ","pref":"愛知県","city":"北名古屋市","address":"鍜治ケ一色"},
{"zip_code":"4810044","kana_pref":"ｱｲﾁｹﾝ","kana_city":"ｷﾀﾅｺﾞﾔｼ","kana_address":"ｶｼﾏｼﾝﾃﾞﾝ","pref":"愛知県","city":"北名古屋市","address":"加島新田"},
{"zip_code":"4810002","kana_pref":"ｱｲﾁｹﾝ","kana_city":"ｷﾀﾅｺﾞﾔｼ","kana_address":"ｶﾀﾊﾞ","pref":"愛知県","city":"北名古屋市","address":"片場"},
{"zip_code":"4810034","kana_pref":"ｱｲﾁｹﾝ","kana_city":"ｷﾀﾅｺﾞﾔｼ","kana_address":"ｷﾀﾉ","pref":"愛知県","city":"北名古屋市","address":"北野"},
{"zip_code":"4810012","kana_pref":"ｱｲﾁｹﾝ","kana_city":"ｷﾀﾅｺﾞﾔｼ","kana_address":"ｸｼﾞﾉ","pref":"愛知県","city":"北名古屋市","address":"久地野"},
{"zip_code":"4810041","kana_pref":"ｱｲﾁｹﾝ","kana_city":"ｷﾀﾅｺﾞﾔｼ","kana_address":"ｸﾉﾂﾎﾞ","pref":"愛知県","city":"北名古屋市","address":"九之坪"},
{"zip_code":"4810006","kana_pref":"ｱｲﾁｹﾝ","kana_city":"ｷﾀﾅｺﾞﾔｼ","kana_address":"ｸﾏﾉｼｮｳ","pref":"愛知県","city":"北名古屋市","address":"熊之庄"},
{"zip_code":"4810004","kana_pref":"ｱｲﾁｹﾝ","kana_city":"ｷﾀﾅｺﾞﾔｼ","kana_address":"ｼｶﾀ","pref":"愛知県","city":"北名古屋市","address":"鹿田"},
{"zip_code":"4810011","kana_pref":"ｱｲﾁｹﾝ","kana_city":"ｷﾀﾅｺﾞﾔｼ","kana_address":"ﾀｶﾀﾞｼﾞ","pref":"愛知県","city":"北名古屋市","address":"高田寺"},
{"zip_code":"4810038","kana_pref":"ｱｲﾁｹﾝ","kana_city":"ｷﾀﾅｺﾞﾔｼ","kana_address":"ﾄｸｼｹﾞ","pref":"愛知県","city":"北名古屋市","address":"徳重"},
{"zip_code":"4810045","kana_pref":"ｱｲﾁｹﾝ","kana_city":"ｷﾀﾅｺﾞﾔｼ","kana_address":"ﾅｶﾉｺﾞｳ","pref":"愛知県","city":"北名古屋市","address":"中之郷"},
{"zip_code":"4810033","kana_pref":"ｱｲﾁｹﾝ","kana_city":"ｷﾀﾅｺﾞﾔｼ","kana_address":"ﾆｼﾉﾎｳ","pref":"愛知県","city":"北名古屋市","address":"西之保"},
{"zip_code":"4810003","kana_pref":"ｱｲﾁｹﾝ","kana_city":"ｷﾀﾅｺﾞﾔｼ","kana_address":"ﾉｳﾀﾞ","pref":"愛知県","city":"北名古屋市","address":"能田"},
{"zip_code":"4810042","kana_pref":"ｱｲﾁｹﾝ","kana_city":"ｷﾀﾅｺﾞﾔｼ","kana_address":"ﾉｻﾞｷ","pref":"愛知県","city":"北名古屋市","address":"野崎"},
{"zip_code":"4810013","kana_pref":"ｱｲﾁｹﾝ","kana_city":"ｷﾀﾅｺﾞﾔｼ","kana_address":"ﾌﾀｺﾞ","pref":"愛知県","city":"北名古屋市","address":"二子"},
{"zip_code":"4810039","kana_pref":"ｱｲﾁｹﾝ","kana_city":"ｷﾀﾅｺﾞﾔｼ","kana_address":"ﾎｳｼﾞｮｳｼﾞ","pref":"愛知県","city":"北名古屋市","address":"法成寺"},
{"zip_code":"4810032","kana_pref":"ｱｲﾁｹﾝ","kana_city":"ｷﾀﾅｺﾞﾔｼ","kana_address":"ﾐﾛｸｼﾞﾆｼ","pref":"愛知県","city":"北名古屋市","address":"弥勒寺西"},
{"zip_code":"4810031","kana_pref":"ｱｲﾁｹﾝ","kana_city":"ｷﾀﾅｺﾞﾔｼ","kana_address":"ﾐﾛｸｼﾞﾋｶﾞｼ","pref":"愛知県","city":"北名古屋市","address":"弥勒寺東"},
{"zip_code":"4810001","kana_pref":"ｱｲﾁｹﾝ","kana_city":"ｷﾀﾅｺﾞﾔｼ","kana_address":"ﾑﾂｼ","pref":"愛知県","city":"北名古屋市","address":"六ツ師"},
{"zip_code":"4810005","kana_pref":"ｱｲﾁｹﾝ","kana_city":"ｷﾀﾅｺﾞﾔｼ","kana_address":"ﾔｸｼｼﾞ","pref":"愛知県","city":"北名古屋市","address":"薬師寺"},
{"zip_code":"4810036","kana_pref":"ｱｲﾁｹﾝ","kana_city":"ｷﾀﾅｺﾞﾔｼ","kana_address":"ﾔﾏﾉｺｼ","pref":"愛知県","city":"北名古屋市","address":"山之腰"}]}