{"zip_code":[
{"zip_code":"4850000","kana_pref":"ｱｲﾁｹﾝ","kana_city":"ｺﾏｷｼ","kana_address":"","pref":"愛知県","city":"小牧市","address":""},
{"zip_code":"4850047","kana_pref":"ｱｲﾁｹﾝ","kana_city":"ｺﾏｷｼ","kana_address":"ｱｹﾎﾞﾉﾁｮｳ","pref":"愛知県","city":"小牧市","address":"曙町"},
{"zip_code":"4850804","kana_pref":"ｱｲﾁｹﾝ","kana_city":"ｺﾏｷｼ","kana_address":"ｲｹﾉｳﾁ","pref":"愛知県","city":"小牧市","address":"池之内"},
{"zip_code":"4850034","kana_pref":"ｱｲﾁｹﾝ","kana_city":"ｺﾏｷｼ","kana_address":"ｲﾁﾉｸﾀ","pref":"愛知県","city":"小牧市","address":"市之久田"},
{"zip_code":"4850084","kana_pref":"ｱｲﾁｹﾝ","kana_city":"ｺﾏｷｼ","kana_address":"ｲﾙｶﾃﾞｼﾝﾃﾞﾝ","pref":"愛知県","city":"小牧市","address":"入鹿出新田"},
{"zip_code":"4850011","kana_pref":"ｱｲﾁｹﾝ","kana_city":"ｺﾏｷｼ","kana_address":"ｲﾜｻﾞｷ","pref":"愛知県","city":"小牧市","address":"岩崎"},
{"zip_code":"4850017","kana_pref":"ｱｲﾁｹﾝ","kana_city":"ｺﾏｷｼ","kana_address":"ｲﾜｻﾞｷﾊﾗ","pref":"愛知県","city":"小牧市","address":"岩崎原"},
{"zip_code":"4850832","kana_pref":"ｱｲﾁｹﾝ","kana_city":"ｺﾏｷｼ","kana_address":"ｵｳｼﾞ","pref":"愛知県","city":"小牧市","address":"応時"},
{"zip_code":"4850802","kana_pref":"ｱｲﾁｹﾝ","kana_city":"ｺﾏｷｼ","kana_address":"ｵｵｸｻ","pref":"愛知県","city":"小牧市","address":"大草"},
{"zip_code":"4850026","kana_pref":"ｱｲﾁｹﾝ","kana_city":"ｺﾏｷｼ","kana_address":"ｵｵﾔﾏ","pref":"愛知県","city":"小牧市","address":"大山"},
{"zip_code":"4850801","kana_pref":"ｱｲﾁｹﾝ","kana_city":"ｺﾏｷｼ","kana_address":"ｵｵﾔﾏ","pref":"愛知県","city":"小牧市","address":"大山"},
{"zip_code":"4850037","kana_pref":"ｱｲﾁｹﾝ","kana_city":"ｺﾏｷｼ","kana_address":"ｵﾊﾞﾘ","pref":"愛知県","city":"小牧市","address":"小針"},
{"zip_code":"4850032","kana_pref":"ｱｲﾁｹﾝ","kana_city":"ｺﾏｷｼ","kana_address":"ｶｹﾜﾘﾁｮｳ","pref":"愛知県","city":"小牧市","address":"掛割町"},
{"zip_code":"4850025","kana_pref":"ｱｲﾁｹﾝ","kana_city":"ｺﾏｷｼ","kana_address":"ｶｽｶﾞﾝｼﾞ","pref":"愛知県","city":"小牧市","address":"春日寺"},
{"zip_code":"4850822","kana_pref":"ｱｲﾁｹﾝ","kana_city":"ｺﾏｷｼ","kana_address":"ｶﾐｽﾞｴ","pref":"愛知県","city":"小牧市","address":"上末"},
{"zip_code":"4850085","kana_pref":"ｱｲﾁｹﾝ","kana_city":"ｺﾏｷｼ","kana_address":"ｶﾜﾁﾔｼﾝﾃﾞﾝ","pref":"愛知県","city":"小牧市","address":"河内屋新田"},
{"zip_code":"4850045","kana_pref":"ｱｲﾁｹﾝ","kana_city":"ｺﾏｷｼ","kana_address":"ｶﾜﾆｼ","pref":"愛知県","city":"小牧市","address":"川西"},
{"zip_code":"4850023","kana_pref":"ｱｲﾁｹﾝ","kana_city":"ｺﾏｷｼ","kana_address":"ｷﾀﾄﾔﾏ","pref":"愛知県","city":"小牧市","address":"北外山"},
{"zip_code":"4850022","kana_pref":"ｱｲﾁｹﾝ","kana_city":"ｺﾏｷｼ","kana_address":"ｷﾀﾄﾔﾏｲﾙｶｼﾝﾃﾞﾝ","pref":"愛知県","city":"小牧市","address":"北外山入鹿新田"},
{"zip_code":"4850003","kana_pref":"ｱｲﾁｹﾝ","kana_city":"ｺﾏｷｼ","kana_address":"ｸﾎﾞｲｼｷ","pref":"愛知県","city":"小牧市","address":"久保一色"},
{"zip_code":"4850001","kana_pref":"ｱｲﾁｹﾝ","kana_city":"ｺﾏｷｼ","kana_address":"ｸﾎﾞｲｼｷﾋｶﾞｼ","pref":"愛知県","city":"小牧市","address":"久保一色東"},
{"zip_code":"4850007","kana_pref":"ｱｲﾁｹﾝ","kana_city":"ｺﾏｷｼ","kana_address":"ｸﾎﾞｲｼｷﾐﾅﾐ","pref":"愛知県","city":"小牧市","address":"久保一色南"},
{"zip_code":"4850006","kana_pref":"ｱｲﾁｹﾝ","kana_city":"ｺﾏｷｼ","kana_address":"ｸﾎﾞｼﾝﾏﾁ","pref":"愛知県","city":"小牧市","address":"久保新町"},
{"zip_code":"4850005","kana_pref":"ｱｲﾁｹﾝ","kana_city":"ｺﾏｷｼ","kana_address":"ｸﾎﾞﾎﾝﾏﾁ","pref":"愛知県","city":"小牧市","address":"久保本町"},
{"zip_code":"4850033","kana_pref":"ｱｲﾁｹﾝ","kana_city":"ｺﾏｷｼ","kana_address":"ｺﾞｳﾅｶ","pref":"愛知県","city":"小牧市","address":"郷中"},
{"zip_code":"4850823","kana_pref":"ｱｲﾁｹﾝ","kana_city":"ｺﾏｷｼ","kana_address":"ｺﾞｳﾆｼﾁｮｳ","pref":"愛知県","city":"小牧市","address":"郷西町"},
{"zip_code":"4850814","kana_pref":"ｱｲﾁｹﾝ","kana_city":"ｺﾏｷｼ","kana_address":"ｺｶﾞ","pref":"愛知県","city":"小牧市","address":"古雅"},
{"zip_code":"4850058","kana_pref":"ｱｲﾁｹﾝ","kana_city":"ｺﾏｷｼ","kana_address":"ｺｷ","pref":"愛知県","city":"小牧市","address":"小木"},
{"zip_code":"4850059","kana_pref":"ｱｲﾁｹﾝ","kana_city":"ｺﾏｷｼ","kana_address":"ｺｷﾋｶﾞｼ","pref":"愛知県","city":"小牧市","address":"小木東"},
{"zip_code":"4850057","kana_pref":"ｱｲﾁｹﾝ","kana_city":"ｺﾏｷｼ","kana_address":"ｺｷﾆｼ","pref":"愛知県","city":"小牧市","address":"小木西"},
{"zip_code":"4850056","kana_pref":"ｱｲﾁｹﾝ","kana_city":"ｺﾏｷｼ","kana_address":"ｺｷﾐﾅﾐ","pref":"愛知県","city":"小牧市","address":"小木南"},
{"zip_code":"4850041","kana_pref":"ｱｲﾁｹﾝ","kana_city":"ｺﾏｷｼ","kana_address":"ｺﾏｷ","pref":"愛知県","city":"小牧市","address":"小牧"},
{"zip_code":"4850829","kana_pref":"ｱｲﾁｹﾝ","kana_city":"ｺﾏｷｼ","kana_address":"ｺﾏｷﾊﾗ","pref":"愛知県","city":"小牧市","address":"小牧原"},
{"zip_code":"4850012","kana_pref":"ｱｲﾁｹﾝ","kana_city":"ｺﾏｷｼ","kana_address":"ｺﾏｷﾊﾗｼﾝﾃﾞﾝ","pref":"愛知県","city":"小牧市","address":"小牧原新田"},
{"zip_code":"4850828","kana_pref":"ｱｲﾁｹﾝ","kana_city":"ｺﾏｷｼ","kana_address":"ｺﾏﾂｼﾞ","pref":"愛知県","city":"小牧市","address":"小松寺"},
{"zip_code":"4850042","kana_pref":"ｱｲﾁｹﾝ","kana_city":"ｺﾏｷｼ","kana_address":"ｻｸﾗｲ","pref":"愛知県","city":"小牧市","address":"桜井"},
{"zip_code":"4850043","kana_pref":"ｱｲﾁｹﾝ","kana_city":"ｺﾏｷｼ","kana_address":"ｻｸﾗｲﾎﾝﾏﾁ","pref":"愛知県","city":"小牧市","address":"桜井本町"},
{"zip_code":"4850815","kana_pref":"ｱｲﾁｹﾝ","kana_city":"ｺﾏｷｼ","kana_address":"ｼﾉｵｶ","pref":"愛知県","city":"小牧市","address":"篠岡"},
{"zip_code":"4850036","kana_pref":"ｱｲﾁｹﾝ","kana_city":"ｺﾏｷｼ","kana_address":"ｼﾓｵﾊﾞﾘﾃﾝｼﾞﾝ","pref":"愛知県","city":"小牧市","address":"下小針天神"},
{"zip_code":"4850051","kana_pref":"ｱｲﾁｹﾝ","kana_city":"ｺﾏｷｼ","kana_address":"ｼﾓｵﾊﾞﾘﾅｶｼﾏ","pref":"愛知県","city":"小牧市","address":"下小針中島"},
{"zip_code":"4850825","kana_pref":"ｱｲﾁｹﾝ","kana_city":"ｺﾏｷｼ","kana_address":"ｼﾓｽﾞｴ","pref":"愛知県","city":"小牧市","address":"下末"},
{"zip_code":"4850044","kana_pref":"ｱｲﾁｹﾝ","kana_city":"ｺﾏｷｼ","kana_address":"ｼﾞｮｳﾌﾞｼ","pref":"愛知県","city":"小牧市","address":"常普請"},
{"zip_code":"4850812","kana_pref":"ｱｲﾁｹﾝ","kana_city":"ｺﾏｷｼ","kana_address":"ｼﾛﾔﾏ","pref":"愛知県","city":"小牧市","address":"城山"},
{"zip_code":"4850074","kana_pref":"ｱｲﾁｹﾝ","kana_city":"ｺﾏｷｼ","kana_address":"ｼﾝｺｷ","pref":"愛知県","city":"小牧市","address":"新小木"},
{"zip_code":"4850013","kana_pref":"ｱｲﾁｹﾝ","kana_city":"ｺﾏｷｼ","kana_address":"ｼﾝﾏﾁ","pref":"愛知県","city":"小牧市","address":"新町"},
{"zip_code":"4850039","kana_pref":"ｱｲﾁｹﾝ","kana_city":"ｺﾏｷｼ","kana_address":"ｿﾄﾎﾞﾘ","pref":"愛知県","city":"小牧市","address":"外堀"},
{"zip_code":"4850803","kana_pref":"ｱｲﾁｹﾝ","kana_city":"ｺﾏｷｼ","kana_address":"ﾀｶﾈ","pref":"愛知県","city":"小牧市","address":"高根"},
{"zip_code":"4850004","kana_pref":"ｱｲﾁｹﾝ","kana_city":"ｺﾏｷｼ","kana_address":"ﾀｶﾞﾀﾁｮｳ","pref":"愛知県","city":"小牧市","address":"田県町"},
{"zip_code":"4850052","kana_pref":"ｱｲﾁｹﾝ","kana_city":"ｺﾏｷｼ","kana_address":"ﾀｷﾅｶﾏﾁ","pref":"愛知県","city":"小牧市","address":"多気中町"},
{"zip_code":"4850035","kana_pref":"ｱｲﾁｹﾝ","kana_city":"ｺﾏｷｼ","kana_address":"ﾀｷﾋｶﾞｼﾏﾁ","pref":"愛知県","city":"小牧市","address":"多気東町"},
{"zip_code":"4850054","kana_pref":"ｱｲﾁｹﾝ","kana_city":"ｺﾏｷｼ","kana_address":"ﾀｷﾆｼﾏﾁ","pref":"愛知県","city":"小牧市","address":"多気西町"},
{"zip_code":"4850053","kana_pref":"ｱｲﾁｹﾝ","kana_city":"ｺﾏｷｼ","kana_address":"ﾀｷﾐﾅﾐﾏﾁ","pref":"愛知県","city":"小牧市","address":"多気南町"},
{"zip_code":"4850055","kana_pref":"ｱｲﾁｹﾝ","kana_city":"ｺﾏｷｼ","kana_address":"ﾀｷｷﾀﾏﾁ","pref":"愛知県","city":"小牧市","address":"多気北町"},
{"zip_code":"4850029","kana_pref":"ｱｲﾁｹﾝ","kana_city":"ｺﾏｷｼ","kana_address":"ﾁｭｳｵｳ","pref":"愛知県","city":"小牧市","address":"中央"},
{"zip_code":"4850008","kana_pref":"ｱｲﾁｹﾝ","kana_city":"ｺﾏｷｼ","kana_address":"ﾃﾗﾆｼ","pref":"愛知県","city":"小牧市","address":"寺西"},
{"zip_code":"4850824","kana_pref":"ｱｲﾁｹﾝ","kana_city":"ｺﾏｷｼ","kana_address":"ﾅｶﾞﾊﾙﾁｮｳ","pref":"愛知県","city":"小牧市","address":"長治町"},
{"zip_code":"4850078","kana_pref":"ｱｲﾁｹﾝ","kana_city":"ｺﾏｷｼ","kana_address":"ﾆｼｼﾞﾏﾁｮｳ","pref":"愛知県","city":"小牧市","address":"西島町"},
{"zip_code":"4850077","kana_pref":"ｱｲﾁｹﾝ","kana_city":"ｺﾏｷｼ","kana_address":"ﾆｼﾉｼﾏ","pref":"愛知県","city":"小牧市","address":"西之島"},
{"zip_code":"4850806","kana_pref":"ｱｲﾁｹﾝ","kana_city":"ｺﾏｷｼ","kana_address":"ﾉｸﾞﾁ","pref":"愛知県","city":"小牧市","address":"野口"},
{"zip_code":"4850805","kana_pref":"ｱｲﾁｹﾝ","kana_city":"ｺﾏｷｼ","kana_address":"ﾊﾔｼ","pref":"愛知県","city":"小牧市","address":"林"},
{"zip_code":"4850811","kana_pref":"ｱｲﾁｹﾝ","kana_city":"ｺﾏｷｼ","kana_address":"ﾋｶﾘｶﾞｵｶ","pref":"愛知県","city":"小牧市","address":"光ケ丘"},
{"zip_code":"4850831","kana_pref":"ｱｲﾁｹﾝ","kana_city":"ｺﾏｷｼ","kana_address":"ﾋｶﾞｼ","pref":"愛知県","city":"小牧市","address":"東"},
{"zip_code":"4850028","kana_pref":"ｱｲﾁｹﾝ","kana_city":"ｺﾏｷｼ","kana_address":"ﾋｶﾞｼｼﾝﾏﾁ","pref":"愛知県","city":"小牧市","address":"東新町"},
{"zip_code":"4850826","kana_pref":"ｱｲﾁｹﾝ","kana_city":"ｺﾏｷｼ","kana_address":"ﾋｶﾞｼﾀﾅｶ","pref":"愛知県","city":"小牧市","address":"東田中"},
{"zip_code":"4850068","kana_pref":"ｱｲﾁｹﾝ","kana_city":"ｺﾏｷｼ","kana_address":"ﾌｼﾞｼﾏ","pref":"愛知県","city":"小牧市","address":"藤島"},
{"zip_code":"4850067","kana_pref":"ｱｲﾁｹﾝ","kana_city":"ｺﾏｷｼ","kana_address":"ﾌｼﾞｼﾏﾁｮｳｲﾔｼｷ","pref":"愛知県","city":"小牧市","address":"藤島町居屋敷"},
{"zip_code":"4850063","kana_pref":"ｱｲﾁｹﾝ","kana_city":"ｺﾏｷｼ","kana_address":"ﾌｼﾞｼﾏﾁｮｳｶｶﾞﾐｲｹ","pref":"愛知県","city":"小牧市","address":"藤島町鏡池"},
{"zip_code":"4850065","kana_pref":"ｱｲﾁｹﾝ","kana_city":"ｺﾏｷｼ","kana_address":"ﾌｼﾞｼﾏﾁｮｳｺﾞｻｲﾃﾞﾝ","pref":"愛知県","city":"小牧市","address":"藤島町五才田"},
{"zip_code":"4850066","kana_pref":"ｱｲﾁｹﾝ","kana_city":"ｺﾏｷｼ","kana_address":"ﾌｼﾞｼﾏﾁｮｳﾃﾞｸﾞﾁ","pref":"愛知県","city":"小牧市","address":"藤島町出口"},
{"zip_code":"4850064","kana_pref":"ｱｲﾁｹﾝ","kana_city":"ｺﾏｷｼ","kana_address":"ﾌｼﾞｼﾏﾁｮｳﾄｸｶﾞﾝｼﾞ","pref":"愛知県","city":"小牧市","address":"藤島町徳願寺"},
{"zip_code":"4850062","kana_pref":"ｱｲﾁｹﾝ","kana_city":"ｺﾏｷｼ","kana_address":"ﾌｼﾞｼﾏﾁｮｳﾅｶｼﾞﾏ","pref":"愛知県","city":"小牧市","address":"藤島町中島"},
{"zip_code":"4850069","kana_pref":"ｱｲﾁｹﾝ","kana_city":"ｺﾏｷｼ","kana_address":"ﾌｼﾞｼﾏﾁｮｳﾎﾞﾝﾃﾝ","pref":"愛知県","city":"小牧市","address":"藤島町梵天"},
{"zip_code":"4850061","kana_pref":"ｱｲﾁｹﾝ","kana_city":"ｺﾏｷｼ","kana_address":"ﾌｼﾞｼﾏﾁｮｳﾑｶｴ","pref":"愛知県","city":"小牧市","address":"藤島町向江"},
{"zip_code":"4850021","kana_pref":"ｱｲﾁｹﾝ","kana_city":"ｺﾏｷｼ","kana_address":"ﾌﾀｴﾎﾞﾘ","pref":"愛知県","city":"小牧市","address":"二重堀"},
{"zip_code":"4850073","kana_pref":"ｱｲﾁｹﾝ","kana_city":"ｺﾏｷｼ","kana_address":"ﾌﾅﾂ","pref":"愛知県","city":"小牧市","address":"舟津"},
{"zip_code":"4850827","kana_pref":"ｱｲﾁｹﾝ","kana_city":"ｺﾏｷｼ","kana_address":"ﾌﾐﾂ","pref":"愛知県","city":"小牧市","address":"文津"},
{"zip_code":"4850046","kana_pref":"ｱｲﾁｹﾝ","kana_city":"ｺﾏｷｼ","kana_address":"ﾎﾘﾉｳﾁ","pref":"愛知県","city":"小牧市","address":"堀の内"},
{"zip_code":"4850821","kana_pref":"ｱｲﾁｹﾝ","kana_city":"ｺﾏｷｼ","kana_address":"ﾎﾝｼﾞｮｳ","pref":"愛知県","city":"小牧市","address":"本庄"},
{"zip_code":"4850015","kana_pref":"ｱｲﾁｹﾝ","kana_city":"ｺﾏｷｼ","kana_address":"ﾏﾏ","pref":"愛知県","city":"小牧市","address":"間々"},
{"zip_code":"4850016","kana_pref":"ｱｲﾁｹﾝ","kana_city":"ｺﾏｷｼ","kana_address":"ﾏﾏﾊﾗｼﾝﾃﾞﾝ","pref":"愛知県","city":"小牧市","address":"間々原新田"},
{"zip_code":"4850048","kana_pref":"ｱｲﾁｹﾝ","kana_city":"ｺﾏｷｼ","kana_address":"ﾏﾏﾎﾝﾏﾁ","pref":"愛知県","city":"小牧市","address":"間々本町"},
{"zip_code":"4850075","kana_pref":"ｱｲﾁｹﾝ","kana_city":"ｺﾏｷｼ","kana_address":"ﾐﾂﾌﾞﾁ","pref":"愛知県","city":"小牧市","address":"三ツ渕"},
{"zip_code":"4850076","kana_pref":"ｱｲﾁｹﾝ","kana_city":"ｺﾏｷｼ","kana_address":"ﾐﾂﾌﾞﾁﾊﾗｼﾝﾃﾞﾝ","pref":"愛知県","city":"小牧市","address":"三ツ渕原新田"},
{"zip_code":"4850027","kana_pref":"ｱｲﾁｹﾝ","kana_city":"ｺﾏｷｼ","kana_address":"ﾐﾄﾞﾘﾏﾁ","pref":"愛知県","city":"小牧市","address":"緑町"},
{"zip_code":"4850024","kana_pref":"ｱｲﾁｹﾝ","kana_city":"ｺﾏｷｼ","kana_address":"ﾐﾅﾐﾄﾔﾏ","pref":"愛知県","city":"小牧市","address":"南外山"},
{"zip_code":"4850082","kana_pref":"ｱｲﾁｹﾝ","kana_city":"ｺﾏｷｼ","kana_address":"ﾑﾗﾅｶ","pref":"愛知県","city":"小牧市","address":"村中"},
{"zip_code":"4850083","kana_pref":"ｱｲﾁｹﾝ","kana_city":"ｺﾏｷｼ","kana_address":"ﾑﾗﾅｶｼﾝﾏﾁ","pref":"愛知県","city":"小牧市","address":"村中新町"},
{"zip_code":"4850072","kana_pref":"ｱｲﾁｹﾝ","kana_city":"ｺﾏｷｼ","kana_address":"ﾓﾄﾏﾁ","pref":"愛知県","city":"小牧市","address":"元町"},
{"zip_code":"4850813","kana_pref":"ｱｲﾁｹﾝ","kana_city":"ｺﾏｷｼ","kana_address":"ﾓﾓｶﾞｵｶ","pref":"愛知県","city":"小牧市","address":"桃ケ丘"},
{"zip_code":"4850014","kana_pref":"ｱｲﾁｹﾝ","kana_city":"ｺﾏｷｼ","kana_address":"ﾔｽﾀﾞﾁｮｳ","pref":"愛知県","city":"小牧市","address":"安田町"},
{"zip_code":"4850049","kana_pref":"ｱｲﾁｹﾝ","kana_city":"ｺﾏｷｼ","kana_address":"ﾔﾏｷﾀﾁｮｳ","pref":"愛知県","city":"小牧市","address":"山北町"},
{"zip_code":"4850071","kana_pref":"ｱｲﾁｹﾝ","kana_city":"ｺﾏｷｼ","kana_address":"ﾔﾖｲﾁｮｳ","pref":"愛知県","city":"小牧市","address":"弥生町"},
{"zip_code":"4850081","kana_pref":"ｱｲﾁｹﾝ","kana_city":"ｺﾏｷｼ","kana_address":"ﾖｺｳﾁ","pref":"愛知県","city":"小牧市","address":"横内"},
{"zip_code":"4850002","kana_pref":"ｱｲﾁｹﾝ","kana_city":"ｺﾏｷｼ","kana_address":"ﾖｼﾊﾗ","pref":"愛知県","city":"小牧市","address":"葭原"},
{"zip_code":"4850031","kana_pref":"ｱｲﾁｹﾝ","kana_city":"ｺﾏｷｼ","kana_address":"ﾜｶｸｻﾁｮｳ","pref":"愛知県","city":"小牧市","address":"若草町"}]}