{"zip_code":[
{"zip_code":"4870006","kana_pref":"ｱｲﾁｹﾝ","kana_city":"ｶｽｶﾞｲｼ","kana_address":"ｲｼｵﾀﾞｲ","pref":"愛知県","city":"春日井市","address":"石尾台"},
{"zip_code":"4870033","kana_pref":"ｱｲﾁｹﾝ","kana_city":"ｶｽｶﾞｲｼ","kana_address":"ｲﾜﾅﾘﾀﾞｲ","pref":"愛知県","city":"春日井市","address":"岩成台"},
{"zip_code":"4870024","kana_pref":"ｱｲﾁｹﾝ","kana_city":"ｶｽｶﾞｲｼ","kana_address":"ｵｵﾄﾞﾒﾁｮｳ","pref":"愛知県","city":"春日井市","address":"大留町"},
{"zip_code":"4870005","kana_pref":"ｱｲﾁｹﾝ","kana_city":"ｶｽｶﾞｲｼ","kana_address":"ｵｼｻﾞﾜﾀﾞｲ","pref":"愛知県","city":"春日井市","address":"押沢台"},
{"zip_code":"4870003","kana_pref":"ｱｲﾁｹﾝ","kana_city":"ｶｽｶﾞｲｼ","kana_address":"ｷﾂﾞｷﾁｮｳ","pref":"愛知県","city":"春日井市","address":"木附町"},
{"zip_code":"4870014","kana_pref":"ｱｲﾁｹﾝ","kana_city":"ｶｽｶﾞｲｼ","kana_address":"ｷﾌﾞｷﾁｮｳ","pref":"愛知県","city":"春日井市","address":"気噴町"},
{"zip_code":"4870015","kana_pref":"ｱｲﾁｹﾝ","kana_city":"ｶｽｶﾞｲｼ","kana_address":"ｷﾌﾞｷﾁｮｳｷﾀ","pref":"愛知県","city":"春日井市","address":"気噴町北"},
{"zip_code":"4870013","kana_pref":"ｱｲﾁｹﾝ","kana_city":"ｶｽｶﾞｲｼ","kana_address":"ｺｳｿﾞｳｼﾞﾁｮｳ","pref":"愛知県","city":"春日井市","address":"高蔵寺町"},
{"zip_code":"4870016","kana_pref":"ｱｲﾁｹﾝ","kana_city":"ｶｽｶﾞｲｼ","kana_address":"ｺｳｿﾞｳｼﾞﾁｮｳｷﾀ","pref":"愛知県","city":"春日井市","address":"高蔵寺町北"},
{"zip_code":"4870022","kana_pref":"ｱｲﾁｹﾝ","kana_city":"ｶｽｶﾞｲｼ","kana_address":"ｼｮｳﾅﾁｮｳ","pref":"愛知県","city":"春日井市","address":"庄名町"},
{"zip_code":"4870034","kana_pref":"ｱｲﾁｹﾝ","kana_city":"ｶｽｶﾞｲｼ","kana_address":"ｼﾗﾔﾏﾁｮｳ","pref":"愛知県","city":"春日井市","address":"白山町"},
{"zip_code":"4870017","kana_pref":"ｱｲﾁｹﾝ","kana_city":"ｶｽｶﾞｲｼ","kana_address":"ﾀｶｸﾗﾀﾞｲ","pref":"愛知県","city":"春日井市","address":"高座台"},
{"zip_code":"4870012","kana_pref":"ｱｲﾁｹﾝ","kana_city":"ｶｽｶﾞｲｼ","kana_address":"ﾀｶｸﾗﾁｮｳ","pref":"愛知県","city":"春日井市","address":"高座町"},
{"zip_code":"4870032","kana_pref":"ｱｲﾁｹﾝ","kana_city":"ｶｽｶﾞｲｼ","kana_address":"ﾀｶﾓﾘﾀﾞｲ","pref":"愛知県","city":"春日井市","address":"高森台"},
{"zip_code":"4870007","kana_pref":"ｱｲﾁｹﾝ","kana_city":"ｶｽｶﾞｲｼ","kana_address":"ﾀﾏﾉﾀﾞｲ","pref":"愛知県","city":"春日井市","address":"玉野台"},
{"zip_code":"4870004","kana_pref":"ｱｲﾁｹﾝ","kana_city":"ｶｽｶﾞｲｼ","kana_address":"ﾀﾏﾉﾁｮｳ","pref":"愛知県","city":"春日井市","address":"玉野町"},
{"zip_code":"4870011","kana_pref":"ｱｲﾁｹﾝ","kana_city":"ｶｽｶﾞｲｼ","kana_address":"ﾁｭｳｵｳﾀﾞｲ","pref":"愛知県","city":"春日井市","address":"中央台"},
{"zip_code":"4870025","kana_pref":"ｱｲﾁｹﾝ","kana_city":"ｶｽｶﾞｲｼ","kana_address":"ﾃｶﾞﾜﾁｮｳ","pref":"愛知県","city":"春日井市","address":"出川町"},
{"zip_code":"4870002","kana_pref":"ｱｲﾁｹﾝ","kana_city":"ｶｽｶﾞｲｼ","kana_address":"ﾄﾉﾊﾗﾁｮｳ","pref":"愛知県","city":"春日井市","address":"外之原町"},
{"zip_code":"4870031","kana_pref":"ｱｲﾁｹﾝ","kana_city":"ｶｽｶﾞｲｼ","kana_address":"ﾊｻﾞﾏﾁｮｳ","pref":"愛知県","city":"春日井市","address":"廻間町"},
{"zip_code":"4870021","kana_pref":"ｱｲﾁｹﾝ","kana_city":"ｶｽｶﾞｲｼ","kana_address":"ﾋｶﾞｼｼﾝﾐｮｳﾁｮｳ","pref":"愛知県","city":"春日井市","address":"東神明町"},
{"zip_code":"4870023","kana_pref":"ｱｲﾁｹﾝ","kana_city":"ｶｽｶﾞｲｼ","kana_address":"ﾌｼﾞｶﾞｵｶ","pref":"愛知県","city":"春日井市","address":"不二ガ丘"},
{"zip_code":"4870026","kana_pref":"ｱｲﾁｹﾝ","kana_city":"ｶｽｶﾞｲｼ","kana_address":"ﾌｼﾞﾁｮｳ","pref":"愛知県","city":"春日井市","address":"不二町"},
{"zip_code":"4870035","kana_pref":"ｱｲﾁｹﾝ","kana_city":"ｶｽｶﾞｲｼ","kana_address":"ﾌｼﾞﾔﾏﾀﾞｲ","pref":"愛知県","city":"春日井市","address":"藤山台"},
{"zip_code":"4870001","kana_pref":"ｱｲﾁｹﾝ","kana_city":"ｶｽｶﾞｲｼ","kana_address":"ﾎｿﾉﾁｮｳ","pref":"愛知県","city":"春日井市","address":"細野町"},
{"zip_code":"4870027","kana_pref":"ｱｲﾁｹﾝ","kana_city":"ｶｽｶﾞｲｼ","kana_address":"ﾏﾂﾓﾄﾁｮｳ","pref":"愛知県","city":"春日井市","address":"松本町"}]}