{"zip_code":[
{"zip_code":"4880000","kana_pref":"ｱｲﾁｹﾝ","kana_city":"ｵﾜﾘｱｻﾋｼ","kana_address":"","pref":"愛知県","city":"尾張旭市","address":""},
{"zip_code":"4880083","kana_pref":"ｱｲﾁｹﾝ","kana_city":"ｵﾜﾘｱｻﾋｼ","kana_address":"ｱｻﾋｶﾞｵｶﾁｮｳｱｻﾋｶﾞｵｶ","pref":"愛知県","city":"尾張旭市","address":"旭ケ丘町旭ケ丘"},
{"zip_code":"4880086","kana_pref":"ｱｲﾁｹﾝ","kana_city":"ｵﾜﾘｱｻﾋｼ","kana_address":"ｱｻﾋｶﾞｵｶﾁｮｳﾅｶﾞﾎﾞﾗ","pref":"愛知県","city":"尾張旭市","address":"旭ケ丘町長洞"},
{"zip_code":"4880085","kana_pref":"ｱｲﾁｹﾝ","kana_city":"ｵﾜﾘｱｻﾋｼ","kana_address":"ｱｻﾋｶﾞｵｶﾁｮｳﾆｺﾞﾘｲｹ","pref":"愛知県","city":"尾張旭市","address":"旭ケ丘町濁池"},
{"zip_code":"4880082","kana_pref":"ｱｲﾁｹﾝ","kana_city":"ｵﾜﾘｱｻﾋｼ","kana_address":"ｱｻﾋｶﾞｵｶﾁｮｳﾓﾘ","pref":"愛知県","city":"尾張旭市","address":"旭ケ丘町森"},
{"zip_code":"4880084","kana_pref":"ｱｲﾁｹﾝ","kana_city":"ｵﾜﾘｱｻﾋｼ","kana_address":"ｱｻﾋｶﾞｵｶﾁｮｳﾔﾏﾉﾃ","pref":"愛知県","city":"尾張旭市","address":"旭ケ丘町山の手"},
{"zip_code":"4880001","kana_pref":"ｱｲﾁｹﾝ","kana_city":"ｵﾜﾘｱｻﾋｼ","kana_address":"ｱｻﾋﾀﾞｲ","pref":"愛知県","city":"尾張旭市","address":"旭台"},
{"zip_code":"4880852","kana_pref":"ｱｲﾁｹﾝ","kana_city":"ｵﾜﾘｱｻﾋｼ","kana_address":"ｱｻﾋﾏｴﾁｮｳｼﾝﾃﾞﾝﾎﾞﾗ","pref":"愛知県","city":"尾張旭市","address":"旭前町新田洞"},
{"zip_code":"4880854","kana_pref":"ｱｲﾁｹﾝ","kana_city":"ｵﾜﾘｱｻﾋｼ","kana_address":"ｱｻﾋﾏｴﾁｮｳﾆｼｼﾝﾃﾞﾝ","pref":"愛知県","city":"尾張旭市","address":"旭前町西新田"},
{"zip_code":"4880853","kana_pref":"ｱｲﾁｹﾝ","kana_city":"ｵﾜﾘｱｻﾋｼ","kana_address":"ｱｻﾋﾏｴﾁｮｳﾋﾛｸﾃ","pref":"愛知県","city":"尾張旭市","address":"旭前町広久手"},
{"zip_code":"4880851","kana_pref":"ｱｲﾁｹﾝ","kana_city":"ｵﾜﾘｱｻﾋｼ","kana_address":"ｱｻﾋﾏｴﾁｮｳｷﾀ","pref":"愛知県","city":"尾張旭市","address":"旭前町北"},
{"zip_code":"4880081","kana_pref":"ｱｲﾁｹﾝ","kana_city":"ｵﾜﾘｱｻﾋｼ","kana_address":"ｱﾗｲ","pref":"愛知県","city":"尾張旭市","address":"新居"},
{"zip_code":"4880079","kana_pref":"ｱｲﾁｹﾝ","kana_city":"ｵﾜﾘｱｻﾋｼ","kana_address":"ｱﾗｲﾁｮｳｲﾏｲｹｼﾀ","pref":"愛知県","city":"尾張旭市","address":"新居町今池下"},
{"zip_code":"4880073","kana_pref":"ｱｲﾁｹﾝ","kana_city":"ｵﾜﾘｱｻﾋｼ","kana_address":"ｱﾗｲﾁｮｳｶﾐﾉﾀ","pref":"愛知県","city":"尾張旭市","address":"新居町上の田"},
{"zip_code":"4880075","kana_pref":"ｱｲﾁｹﾝ","kana_city":"ｵﾜﾘｱｻﾋｼ","kana_address":"ｱﾗｲﾁｮｳｷﾉﾓﾄ","pref":"愛知県","city":"尾張旭市","address":"新居町木の本"},
{"zip_code":"4880070","kana_pref":"ｱｲﾁｹﾝ","kana_city":"ｵﾜﾘｱｻﾋｼ","kana_address":"ｱﾗｲﾁｮｳｺﾞﾀﾝﾀﾞ","pref":"愛知県","city":"尾張旭市","address":"新居町五反田"},
{"zip_code":"4880071","kana_pref":"ｱｲﾁｹﾝ","kana_city":"ｵﾜﾘｱｻﾋｼ","kana_address":"ｱﾗｲﾁｮｳｼﾓｷﾘﾄﾞ","pref":"愛知県","city":"尾張旭市","address":"新居町下切戸"},
{"zip_code":"4880072","kana_pref":"ｱｲﾁｹﾝ","kana_city":"ｵﾜﾘｱｻﾋｼ","kana_address":"ｱﾗｲﾁｮｳｽﾜﾐﾅﾐ","pref":"愛知県","city":"尾張旭市","address":"新居町諏訪南"},
{"zip_code":"4880078","kana_pref":"ｱｲﾁｹﾝ","kana_city":"ｵﾜﾘｱｻﾋｼ","kana_address":"ｱﾗｲﾁｮｳﾃﾗﾀﾞ","pref":"愛知県","city":"尾張旭市","address":"新居町寺田"},
{"zip_code":"4880077","kana_pref":"ｱｲﾁｹﾝ","kana_city":"ｵﾜﾘｱｻﾋｼ","kana_address":"ｱﾗｲﾁｮｳﾆｼｳﾗ","pref":"愛知県","city":"尾張旭市","address":"新居町西浦"},
{"zip_code":"4880074","kana_pref":"ｱｲﾁｹﾝ","kana_city":"ｵﾜﾘｱｻﾋｼ","kana_address":"ｱﾗｲﾁｮｳﾒｲｻｲｷﾞﾘ","pref":"愛知県","city":"尾張旭市","address":"新居町明才切"},
{"zip_code":"4880076","kana_pref":"ｱｲﾁｹﾝ","kana_city":"ｵﾜﾘｱｻﾋｼ","kana_address":"ｱﾗｲﾁｮｳﾔﾏﾉﾀ","pref":"愛知県","city":"尾張旭市","address":"新居町山の田"},
{"zip_code":"4880024","kana_pref":"ｱｲﾁｹﾝ","kana_city":"ｵﾜﾘｱｻﾋｼ","kana_address":"ｲﾀﾞﾁｮｳ","pref":"愛知県","city":"尾張旭市","address":"井田町"},
{"zip_code":"4880054","kana_pref":"ｱｲﾁｹﾝ","kana_city":"ｵﾜﾘｱｻﾋｼ","kana_address":"ｲﾅﾊﾞﾁｮｳ","pref":"愛知県","city":"尾張旭市","address":"稲葉町"},
{"zip_code":"4880840","kana_pref":"ｱｲﾁｹﾝ","kana_city":"ｵﾜﾘｱｻﾋｼ","kana_address":"ｲﾝﾊﾞﾓﾄﾁｮｳ","pref":"愛知県","city":"尾張旭市","address":"印場元町"},
{"zip_code":"4880842","kana_pref":"ｱｲﾁｹﾝ","kana_city":"ｵﾜﾘｱｻﾋｼ","kana_address":"ｲﾝﾊﾞﾓﾄﾁｮｳｷﾀｼﾞﾏ","pref":"愛知県","city":"尾張旭市","address":"印場元町北島"},
{"zip_code":"4880841","kana_pref":"ｱｲﾁｹﾝ","kana_city":"ｵﾜﾘｱｻﾋｼ","kana_address":"ｲﾝﾊﾞﾓﾄﾁｮｳｷﾀﾔﾏ","pref":"愛知県","city":"尾張旭市","address":"印場元町北山"},
{"zip_code":"4880843","kana_pref":"ｱｲﾁｹﾝ","kana_city":"ｵﾜﾘｱｻﾋｼ","kana_address":"ｲﾝﾊﾞﾓﾄﾁｮｳﾎｿﾀﾞ","pref":"愛知県","city":"尾張旭市","address":"印場元町細田"},
{"zip_code":"4880035","kana_pref":"ｱｲﾁｹﾝ","kana_city":"ｵﾜﾘｱｻﾋｼ","kana_address":"ｳｴﾉﾔﾏﾁｮｳﾏｸﾞﾁ","pref":"愛知県","city":"尾張旭市","address":"上の山町間口"},
{"zip_code":"4880034","kana_pref":"ｱｲﾁｹﾝ","kana_city":"ｵﾜﾘｱｻﾋｼ","kana_address":"ｳｴﾉﾔﾏﾁｮｳﾔﾏﾊﾀ","pref":"愛知県","city":"尾張旭市","address":"上の山町山畑"},
{"zip_code":"4880004","kana_pref":"ｱｲﾁｹﾝ","kana_city":"ｵﾜﾘｱｻﾋｼ","kana_address":"ｵｵｸﾃﾁｮｳｲﾁﾉｿｳ","pref":"愛知県","city":"尾張旭市","address":"大久手町一の曾"},
{"zip_code":"4880005","kana_pref":"ｱｲﾁｹﾝ","kana_city":"ｵﾜﾘｱｻﾋｼ","kana_address":"ｵｵｸﾃﾁｮｳｶﾐｷﾘﾄﾞ","pref":"愛知県","city":"尾張旭市","address":"大久手町上切戸"},
{"zip_code":"4880006","kana_pref":"ｱｲﾁｹﾝ","kana_city":"ｵﾜﾘｱｻﾋｼ","kana_address":"ｵｵｸﾃﾁｮｳﾅｶﾏﾂﾊﾞﾗ","pref":"愛知県","city":"尾張旭市","address":"大久手町中松原"},
{"zip_code":"4880826","kana_pref":"ｱｲﾁｹﾝ","kana_city":"ｵﾜﾘｱｻﾋｼ","kana_address":"ｵｵﾂｶﾁｮｳ","pref":"愛知県","city":"尾張旭市","address":"大塚町"},
{"zip_code":"4880008","kana_pref":"ｱｲﾁｹﾝ","kana_city":"ｵﾜﾘｱｻﾋｼ","kana_address":"ｶｼﾜｲﾁｮｳｲﾔｻｶ","pref":"愛知県","city":"尾張旭市","address":"柏井町弥栄"},
{"zip_code":"4880007","kana_pref":"ｱｲﾁｹﾝ","kana_city":"ｵﾜﾘｱｻﾋｼ","kana_address":"ｶｼﾜｲﾁｮｳｺｳｴﾝﾄﾞｵﾘ","pref":"愛知県","city":"尾張旭市","address":"柏井町公園通"},
{"zip_code":"4880846","kana_pref":"ｱｲﾁｹﾝ","kana_city":"ｵﾜﾘｱｻﾋｼ","kana_address":"ｶｽﾐｶﾞｵｶﾁｮｳﾅｶ","pref":"愛知県","city":"尾張旭市","address":"霞ケ丘町中"},
{"zip_code":"4880845","kana_pref":"ｱｲﾁｹﾝ","kana_city":"ｵﾜﾘｱｻﾋｼ","kana_address":"ｶｽﾐｶﾞｵｶﾁｮｳﾐﾅﾐ","pref":"愛知県","city":"尾張旭市","address":"霞ケ丘町南"},
{"zip_code":"4880847","kana_pref":"ｱｲﾁｹﾝ","kana_city":"ｵﾜﾘｱｻﾋｼ","kana_address":"ｶｽﾐｶﾞｵｶﾁｮｳｷﾀ","pref":"愛知県","city":"尾張旭市","address":"霞ケ丘町北"},
{"zip_code":"4880022","kana_pref":"ｱｲﾁｹﾝ","kana_city":"ｵﾜﾘｱｻﾋｼ","kana_address":"ｶﾘｼﾞｭｸｼﾝﾁｮｳ","pref":"愛知県","city":"尾張旭市","address":"狩宿新町"},
{"zip_code":"4880021","kana_pref":"ｱｲﾁｹﾝ","kana_city":"ｵﾜﾘｱｻﾋｼ","kana_address":"ｶﾘｼﾞｭｸﾁｮｳ","pref":"愛知県","city":"尾張旭市","address":"狩宿町"},
{"zip_code":"4880065","kana_pref":"ｱｲﾁｹﾝ","kana_city":"ｵﾜﾘｱｻﾋｼ","kana_address":"ｷﾀﾊﾗﾔﾏﾁｮｳｵｵｸﾎﾞﾐ","pref":"愛知県","city":"尾張旭市","address":"北原山町大久保見"},
{"zip_code":"4880063","kana_pref":"ｱｲﾁｹﾝ","kana_city":"ｵﾜﾘｱｻﾋｼ","kana_address":"ｷﾀﾊﾗﾔﾏﾁｮｳﾀﾞﾏﾔｼｷ","pref":"愛知県","city":"尾張旭市","address":"北原山町陀摩屋敷"},
{"zip_code":"4880064","kana_pref":"ｱｲﾁｹﾝ","kana_city":"ｵﾜﾘｱｻﾋｼ","kana_address":"ｷﾀﾊﾗﾔﾏﾁｮｳﾅﾙｸﾃ","pref":"愛知県","city":"尾張旭市","address":"北原山町鳴湫"},
{"zip_code":"4880062","kana_pref":"ｱｲﾁｹﾝ","kana_city":"ｵﾜﾘｱｻﾋｼ","kana_address":"ｷﾀﾊﾗﾔﾏﾁｮｳﾋﾗｲｹｳﾗ","pref":"愛知県","city":"尾張旭市","address":"北原山町平池浦"},
{"zip_code":"4880061","kana_pref":"ｱｲﾁｹﾝ","kana_city":"ｵﾜﾘｱｻﾋｼ","kana_address":"ｷﾀﾊﾗﾔﾏﾁｮｳﾑﾀｲｹ","pref":"愛知県","city":"尾張旭市","address":"北原山町六田池"},
{"zip_code":"4880043","kana_pref":"ｱｲﾁｹﾝ","kana_city":"ｵﾜﾘｱｻﾋｼ","kana_address":"ｷﾀﾎﾝｼﾞｶﾞﾊﾗﾁｮｳ","pref":"愛知県","city":"尾張旭市","address":"北本地ケ原町"},
{"zip_code":"4880057","kana_pref":"ｱｲﾁｹﾝ","kana_city":"ｵﾜﾘｱｻﾋｼ","kana_address":"ｷﾀﾔﾏﾁｮｳｷﾀｼﾝﾃﾞﾝ","pref":"愛知県","city":"尾張旭市","address":"北山町北新田"},
{"zip_code":"4880056","kana_pref":"ｱｲﾁｹﾝ","kana_city":"ｵﾜﾘｱｻﾋｼ","kana_address":"ｷﾀﾔﾏﾁｮｳｷﾀﾔﾏ","pref":"愛知県","city":"尾張旭市","address":"北山町北山"},
{"zip_code":"4880055","kana_pref":"ｱｲﾁｹﾝ","kana_city":"ｵﾜﾘｱｻﾋｼ","kana_address":"ｷﾀﾔﾏﾁｮｳﾛｸﾀﾝﾀﾞ","pref":"愛知県","city":"尾張旭市","address":"北山町六反田"},
{"zip_code":"4880859","kana_pref":"ｱｲﾁｹﾝ","kana_city":"ｵﾜﾘｱｻﾋｼ","kana_address":"ｻｸﾗｶﾞｵｶﾁｮｳ","pref":"愛知県","city":"尾張旭市","address":"桜ケ丘町"},
{"zip_code":"4880857","kana_pref":"ｱｲﾁｹﾝ","kana_city":"ｵﾜﾘｱｻﾋｼ","kana_address":"ｻｸﾗｶﾞｵｶﾁｮｳﾆｼ","pref":"愛知県","city":"尾張旭市","address":"桜ケ丘町西"},
{"zip_code":"4880015","kana_pref":"ｱｲﾁｹﾝ","kana_city":"ｵﾜﾘｱｻﾋｼ","kana_address":"ｻﾝｺﾞｳﾁｮｳｻｶｴ","pref":"愛知県","city":"尾張旭市","address":"三郷町栄"},
{"zip_code":"4880012","kana_pref":"ｱｲﾁｹﾝ","kana_city":"ｵﾜﾘｱｻﾋｼ","kana_address":"ｻﾝｺﾞｳﾁｮｳﾂﾉﾀﾞ","pref":"愛知県","city":"尾張旭市","address":"三郷町角田"},
{"zip_code":"4880016","kana_pref":"ｱｲﾁｹﾝ","kana_city":"ｵﾜﾘｱｻﾋｼ","kana_address":"ｻﾝｺﾞｳﾁｮｳﾄｳｴｲ","pref":"愛知県","city":"尾張旭市","address":"三郷町陶栄"},
{"zip_code":"4880013","kana_pref":"ｱｲﾁｹﾝ","kana_city":"ｵﾜﾘｱｻﾋｼ","kana_address":"ｻﾝｺﾞｳﾁｮｳﾄﾐｵｶ","pref":"愛知県","city":"尾張旭市","address":"三郷町富丘"},
{"zip_code":"4880014","kana_pref":"ｱｲﾁｹﾝ","kana_city":"ｵﾜﾘｱｻﾋｼ","kana_address":"ｻﾝｺﾞｳﾁｮｳﾅｶｲﾀﾞ","pref":"愛知県","city":"尾張旭市","address":"三郷町中井田"},
{"zip_code":"4880839","kana_pref":"ｱｲﾁｹﾝ","kana_city":"ｵﾜﾘｱｻﾋｼ","kana_address":"ｼﾌﾞｶﾜﾁｮｳ","pref":"愛知県","city":"尾張旭市","address":"渋川町"},
{"zip_code":"4880052","kana_pref":"ｱｲﾁｹﾝ","kana_city":"ｵﾜﾘｱｻﾋｼ","kana_address":"ｼﾓｲﾁｮｳｼﾓｲ","pref":"愛知県","city":"尾張旭市","address":"下井町下井"},
{"zip_code":"4880053","kana_pref":"ｱｲﾁｹﾝ","kana_city":"ｵﾜﾘｱｻﾋｼ","kana_address":"ｼﾓｲﾁｮｳﾊﾈｳﾁ","pref":"愛知県","city":"尾張旭市","address":"下井町刎内"},
{"zip_code":"4880051","kana_pref":"ｱｲﾁｹﾝ","kana_city":"ｵﾜﾘｱｻﾋｼ","kana_address":"ｼﾓｲﾁｮｳﾏｴﾉｶﾐ","pref":"愛知県","city":"尾張旭市","address":"下井町前の上"},
{"zip_code":"4880838","kana_pref":"ｱｲﾁｹﾝ","kana_city":"ｵﾜﾘｱｻﾋｼ","kana_address":"ｼｮｳﾅｶﾁｮｳ","pref":"愛知県","city":"尾張旭市","address":"庄中町"},
{"zip_code":"4880836","kana_pref":"ｱｲﾁｹﾝ","kana_city":"ｵﾜﾘｱｻﾋｼ","kana_address":"ｼｮｳﾅｶﾁｮｳｼﾌﾞｶﾜ","pref":"愛知県","city":"尾張旭市","address":"庄中町渋川"},
{"zip_code":"4880835","kana_pref":"ｱｲﾁｹﾝ","kana_city":"ｵﾜﾘｱｻﾋｼ","kana_address":"ｼｮｳﾅｶﾁｮｳﾐﾅﾐｼﾞﾏ","pref":"愛知県","city":"尾張旭市","address":"庄中町南島"},
{"zip_code":"4880823","kana_pref":"ｱｲﾁｹﾝ","kana_city":"ｵﾜﾘｱｻﾋｼ","kana_address":"ｼｮｳﾅﾝﾁｮｳ","pref":"愛知県","city":"尾張旭市","address":"庄南町"},
{"zip_code":"4880863","kana_pref":"ｱｲﾁｹﾝ","kana_city":"ｵﾜﾘｱｻﾋｼ","kana_address":"ｼﾛﾏｴﾁｮｳｶﾐﾀﾞｲﾄﾞｳ","pref":"愛知県","city":"尾張旭市","address":"城前町上大道"},
{"zip_code":"4880861","kana_pref":"ｱｲﾁｹﾝ","kana_city":"ｵﾜﾘｱｻﾋｼ","kana_address":"ｼﾛﾏｴﾁｮｳｼﾛﾏｴ","pref":"愛知県","city":"尾張旭市","address":"城前町城前"},
{"zip_code":"4880865","kana_pref":"ｱｲﾁｹﾝ","kana_city":"ｵﾜﾘｱｻﾋｼ","kana_address":"ｼﾛﾏｴﾁｮｳｽｶﾞﾜ","pref":"愛知県","city":"尾張旭市","address":"城前町砂川"},
{"zip_code":"4880866","kana_pref":"ｱｲﾁｹﾝ","kana_city":"ｵﾜﾘｱｻﾋｼ","kana_address":"ｼﾛﾏｴﾁｮｳﾁｶﾞｲｹ","pref":"愛知県","city":"尾張旭市","address":"城前町茅池"},
{"zip_code":"4880864","kana_pref":"ｱｲﾁｹﾝ","kana_city":"ｵﾜﾘｱｻﾋｼ","kana_address":"ｼﾛﾏｴﾁｮｳﾔｾﾉｷﾆｼ","pref":"愛知県","city":"尾張旭市","address":"城前町八瀬の木西"},
{"zip_code":"4880884","kana_pref":"ｱｲﾁｹﾝ","kana_city":"ｵﾜﾘｱｻﾋｼ","kana_address":"ｼﾛﾔﾏﾁｮｳｼﾛﾔﾏ","pref":"愛知県","city":"尾張旭市","address":"城山町城山"},
{"zip_code":"4880883","kana_pref":"ｱｲﾁｹﾝ","kana_city":"ｵﾜﾘｱｻﾋｼ","kana_address":"ｼﾛﾔﾏﾁｮｳﾅｶﾞｲｹｼﾓ","pref":"愛知県","city":"尾張旭市","address":"城山町長池下"},
{"zip_code":"4880881","kana_pref":"ｱｲﾁｹﾝ","kana_city":"ｵﾜﾘｱｻﾋｼ","kana_address":"ｼﾛﾔﾏﾁｮｳﾐﾂｲｹ","pref":"愛知県","city":"尾張旭市","address":"城山町三ツ池"},
{"zip_code":"4880882","kana_pref":"ｱｲﾁｹﾝ","kana_city":"ｵﾜﾘｱｻﾋｼ","kana_address":"ｼﾛﾔﾏﾁｮｳﾑｺｳｶﾞｵｶ","pref":"愛知県","city":"尾張旭市","address":"城山町向ケ丘"},
{"zip_code":"4880023","kana_pref":"ｱｲﾁｹﾝ","kana_city":"ｵﾜﾘｱｻﾋｼ","kana_address":"ｾﾄｶﾞﾜﾁｮｳ","pref":"愛知県","city":"尾張旭市","address":"瀬戸川町"},
{"zip_code":"4880011","kana_pref":"ｱｲﾁｹﾝ","kana_city":"ｵﾜﾘｱｻﾋｼ","kana_address":"ﾄｳｴｲﾁｮｳ","pref":"愛知県","city":"尾張旭市","address":"東栄町"},
{"zip_code":"4880844","kana_pref":"ｱｲﾁｹﾝ","kana_city":"ｵﾜﾘｱｻﾋｼ","kana_address":"ﾄｳﾒｲﾆｼﾁｮｳ","pref":"愛知県","city":"尾張旭市","address":"東名西町"},
{"zip_code":"4880821","kana_pref":"ｱｲﾁｹﾝ","kana_city":"ｵﾜﾘｱｻﾋｼ","kana_address":"ﾅｶﾞｻｶﾁｮｳﾐﾅﾐﾔﾏ","pref":"愛知県","city":"尾張旭市","address":"長坂町南山"},
{"zip_code":"4880813","kana_pref":"ｱｲﾁｹﾝ","kana_city":"ｵﾜﾘｱｻﾋｼ","kana_address":"ﾆｼﾀﾞｲﾄﾞｳﾁｮｳｺﾞﾘﾝﾂﾞｶ","pref":"愛知県","city":"尾張旭市","address":"西大道町五輪塚"},
{"zip_code":"4880816","kana_pref":"ｱｲﾁｹﾝ","kana_city":"ｵﾜﾘｱｻﾋｼ","kana_address":"ﾆｼﾀﾞｲﾄﾞｳﾁｮｳｼﾓﾀﾞｲﾄﾞｳ","pref":"愛知県","city":"尾張旭市","address":"西大道町下大道"},
{"zip_code":"4880814","kana_pref":"ｱｲﾁｹﾝ","kana_city":"ｵﾜﾘｱｻﾋｼ","kana_address":"ﾆｼﾀﾞｲﾄﾞｳﾁｮｳﾏｴﾀﾞ","pref":"愛知県","city":"尾張旭市","address":"西大道町前田"},
{"zip_code":"4880817","kana_pref":"ｱｲﾁｹﾝ","kana_city":"ｵﾜﾘｱｻﾋｼ","kana_address":"ﾆｼﾀﾞｲﾄﾞｳﾁｮｳﾔｾﾉｷﾏｴ","pref":"愛知県","city":"尾張旭市","address":"西大道町八瀬の木前"},
{"zip_code":"4880815","kana_pref":"ｱｲﾁｹﾝ","kana_city":"ｵﾜﾘｱｻﾋｼ","kana_address":"ﾆｼﾀﾞｲﾄﾞｳﾁｮｳﾛｸﾍﾞｴﾏｴ","pref":"愛知県","city":"尾張旭市","address":"西大道町六兵衛前"},
{"zip_code":"4880804","kana_pref":"ｱｲﾁｹﾝ","kana_city":"ｵﾜﾘｱｻﾋｼ","kana_address":"ﾆｼﾉﾉﾁｮｳ","pref":"愛知県","city":"尾張旭市","address":"西の野町"},
{"zip_code":"4880805","kana_pref":"ｱｲﾁｹﾝ","kana_city":"ｵﾜﾘｱｻﾋｼ","kana_address":"ﾆｼﾉﾉﾁｮｳﾏﾒﾂﾞｶ","pref":"愛知県","city":"尾張旭市","address":"西の野町豆塚"},
{"zip_code":"4880824","kana_pref":"ｱｲﾁｹﾝ","kana_city":"ｵﾜﾘｱｻﾋｼ","kana_address":"ﾆｼﾔﾏﾁｮｳ","pref":"愛知県","city":"尾張旭市","address":"西山町"},
{"zip_code":"4880002","kana_pref":"ｱｲﾁｹﾝ","kana_city":"ｵﾜﾘｱｻﾋｼ","kana_address":"ﾈﾉﾊﾅﾁｮｳ","pref":"愛知県","city":"尾張旭市","address":"根の鼻町"},
{"zip_code":"4880858","kana_pref":"ｱｲﾁｹﾝ","kana_city":"ｵﾜﾘｱｻﾋｼ","kana_address":"ﾊｸﾎｳﾁｮｳ","pref":"愛知県","city":"尾張旭市","address":"白鳳町"},
{"zip_code":"4880032","kana_pref":"ｱｲﾁｹﾝ","kana_city":"ｵﾜﾘｱｻﾋｼ","kana_address":"ﾊﾙｵｶﾁｮｳｲｹｶﾞﾐ","pref":"愛知県","city":"尾張旭市","address":"晴丘町池上"},
{"zip_code":"4880031","kana_pref":"ｱｲﾁｹﾝ","kana_city":"ｵﾜﾘｱｻﾋｼ","kana_address":"ﾊﾙｵｶﾁｮｳﾋｶﾞｼ","pref":"愛知県","city":"尾張旭市","address":"晴丘町東"},
{"zip_code":"4880830","kana_pref":"ｱｲﾁｹﾝ","kana_city":"ｵﾜﾘｱｻﾋｼ","kana_address":"ﾋｶﾞｼｲﾝﾊﾞﾁｮｳ","pref":"愛知県","city":"尾張旭市","address":"東印場町"},
{"zip_code":"4880832","kana_pref":"ｱｲﾁｹﾝ","kana_city":"ｵﾜﾘｱｻﾋｼ","kana_address":"ﾋｶﾞｼｲﾝﾊﾞﾁｮｳｲﾁﾘﾔﾏ","pref":"愛知県","city":"尾張旭市","address":"東印場町一里山"},
{"zip_code":"4880833","kana_pref":"ｱｲﾁｹﾝ","kana_city":"ｵﾜﾘｱｻﾋｼ","kana_address":"ﾋｶﾞｼｲﾝﾊﾞﾁｮｳﾆﾀﾝﾀﾞ","pref":"愛知県","city":"尾張旭市","address":"東印場町二反田"},
{"zip_code":"4880003","kana_pref":"ｱｲﾁｹﾝ","kana_city":"ｵﾜﾘｱｻﾋｼ","kana_address":"ﾋｶﾞｼｵｵｸﾃﾁｮｳ","pref":"愛知県","city":"尾張旭市","address":"東大久手町"},
{"zip_code":"4880017","kana_pref":"ｱｲﾁｹﾝ","kana_city":"ｵﾜﾘｱｻﾋｼ","kana_address":"ﾋｶﾞｼｻﾝｺﾞｳﾁｮｳ","pref":"愛知県","city":"尾張旭市","address":"東三郷町"},
{"zip_code":"4880802","kana_pref":"ｱｲﾁｹﾝ","kana_city":"ｵﾜﾘｱｻﾋｼ","kana_address":"ﾋｶﾞｼﾀﾞｲﾄﾞｳﾁｮｳｿｶﾞｻﾏ","pref":"愛知県","city":"尾張旭市","address":"東大道町曽我廻間"},
{"zip_code":"4880801","kana_pref":"ｱｲﾁｹﾝ","kana_city":"ｵﾜﾘｱｻﾋｼ","kana_address":"ﾋｶﾞｼﾀﾞｲﾄﾞｳﾁｮｳﾊﾗﾀ","pref":"愛知県","city":"尾張旭市","address":"東大道町原田"},
{"zip_code":"4880803","kana_pref":"ｱｲﾁｹﾝ","kana_city":"ｵﾜﾘｱｻﾋｼ","kana_address":"ﾋｶﾞｼﾀﾞｲﾄﾞｳﾁｮｳﾔﾏﾉｳﾁ","pref":"愛知県","city":"尾張旭市","address":"東大道町山の内"},
{"zip_code":"4880033","kana_pref":"ｱｲﾁｹﾝ","kana_city":"ｵﾜﾘｱｻﾋｼ","kana_address":"ﾋｶﾞｼﾎﾝｼﾞｶﾞﾊﾗﾁｮｳ","pref":"愛知県","city":"尾張旭市","address":"東本地ケ原町"},
{"zip_code":"4880825","kana_pref":"ｱｲﾁｹﾝ","kana_city":"ｵﾜﾘｱｻﾋｼ","kana_address":"ﾋｶﾞｼﾔﾏﾁｮｳ","pref":"愛知県","city":"尾張旭市","address":"東山町"},
{"zip_code":"4880876","kana_pref":"ｱｲﾁｹﾝ","kana_city":"ｵﾜﾘｱｻﾋｼ","kana_address":"ﾋﾗｺｶﾞｵｶﾁｮｳ","pref":"愛知県","city":"尾張旭市","address":"平子ケ丘町"},
{"zip_code":"4880873","kana_pref":"ｱｲﾁｹﾝ","kana_city":"ｵﾜﾘｱｻﾋｼ","kana_address":"ﾋﾗｺﾁｮｳﾅｶﾄﾞｵﾘ","pref":"愛知県","city":"尾張旭市","address":"平子町中通"},
{"zip_code":"4880872","kana_pref":"ｱｲﾁｹﾝ","kana_city":"ｵﾜﾘｱｻﾋｼ","kana_address":"ﾋﾗｺﾁｮｳﾅｶﾞｲｹｶﾐ","pref":"愛知県","city":"尾張旭市","address":"平子町長池上"},
{"zip_code":"4880871","kana_pref":"ｱｲﾁｹﾝ","kana_city":"ｵﾜﾘｱｻﾋｼ","kana_address":"ﾋﾗｺﾁｮｳﾋｶﾞｼ","pref":"愛知県","city":"尾張旭市","address":"平子町東"},
{"zip_code":"4880874","kana_pref":"ｱｲﾁｹﾝ","kana_city":"ｵﾜﾘｱｻﾋｼ","kana_address":"ﾋﾗｺﾁｮｳﾆｼ","pref":"愛知県","city":"尾張旭市","address":"平子町西"},
{"zip_code":"4880875","kana_pref":"ｱｲﾁｹﾝ","kana_city":"ｵﾜﾘｱｻﾋｼ","kana_address":"ﾋﾗｺﾁｮｳｷﾀ","pref":"愛知県","city":"尾張旭市","address":"平子町北"},
{"zip_code":"4880822","kana_pref":"ｱｲﾁｹﾝ","kana_city":"ｵﾜﾘｱｻﾋｼ","kana_address":"ﾐﾄﾞﾘﾁｮｳﾐﾄﾞﾘｶﾞｵｶ","pref":"愛知県","city":"尾張旭市","address":"緑町緑ケ丘"},
{"zip_code":"4880045","kana_pref":"ｱｲﾁｹﾝ","kana_city":"ｵﾜﾘｱｻﾋｼ","kana_address":"ﾐﾅﾐｻｶｴﾁｮｳ","pref":"愛知県","city":"尾張旭市","address":"南栄町"},
{"zip_code":"4880046","kana_pref":"ｱｲﾁｹﾝ","kana_city":"ｵﾜﾘｱｻﾋｼ","kana_address":"ﾐﾅﾐｻｶｴﾁｮｳｱｻﾋｶﾞｵｶ","pref":"愛知県","city":"尾張旭市","address":"南栄町旭ケ丘"},
{"zip_code":"4880047","kana_pref":"ｱｲﾁｹﾝ","kana_city":"ｵﾜﾘｱｻﾋｼ","kana_address":"ﾐﾅﾐｻｶｴﾁｮｳｸﾛｲｼ","pref":"愛知県","city":"尾張旭市","address":"南栄町黒石"},
{"zip_code":"4880041","kana_pref":"ｱｲﾁｹﾝ","kana_city":"ｵﾜﾘｱｻﾋｼ","kana_address":"ﾐﾅﾐｼﾝﾁｮｳﾅｶﾊﾀ","pref":"愛知県","city":"尾張旭市","address":"南新町中畑"},
{"zip_code":"4880042","kana_pref":"ｱｲﾁｹﾝ","kana_city":"ｵﾜﾘｱｻﾋｼ","kana_address":"ﾐﾅﾐｼﾝﾁｮｳﾊｸｻﾝ","pref":"愛知県","city":"尾張旭市","address":"南新町白山"},
{"zip_code":"4880066","kana_pref":"ｱｲﾁｹﾝ","kana_city":"ｵﾜﾘｱｻﾋｼ","kana_address":"ﾐﾅﾐﾊﾗﾔﾏﾁｮｳｱｶﾂﾁ","pref":"愛知県","city":"尾張旭市","address":"南原山町赤土"},
{"zip_code":"4880067","kana_pref":"ｱｲﾁｹﾝ","kana_city":"ｵﾜﾘｱｻﾋｼ","kana_address":"ﾐﾅﾐﾊﾗﾔﾏﾁｮｳｲｼﾊﾗ","pref":"愛知県","city":"尾張旭市","address":"南原山町石原"},
{"zip_code":"4880068","kana_pref":"ｱｲﾁｹﾝ","kana_city":"ｵﾜﾘｱｻﾋｼ","kana_address":"ﾐﾅﾐﾊﾗﾔﾏﾁｮｳﾐﾅﾐﾊﾗﾔﾏ","pref":"愛知県","city":"尾張旭市","address":"南原山町南原山"},
{"zip_code":"4880044","kana_pref":"ｱｲﾁｹﾝ","kana_city":"ｵﾜﾘｱｻﾋｼ","kana_address":"ﾐﾅﾐﾎﾝｼﾞｶﾞﾊﾗﾁｮｳ","pref":"愛知県","city":"尾張旭市","address":"南本地ケ原町"},
{"zip_code":"4880818","kana_pref":"ｱｲﾁｹﾝ","kana_city":"ｵﾜﾘｱｻﾋｼ","kana_address":"ﾑｶｴﾁｮｳ","pref":"愛知県","city":"尾張旭市","address":"向町"},
{"zip_code":"4880827","kana_pref":"ｱｲﾁｹﾝ","kana_city":"ｵﾜﾘｱｻﾋｼ","kana_address":"ﾖｼｵｶﾁｮｳ","pref":"愛知県","city":"尾張旭市","address":"吉岡町"}]}