{"zip_code":[
{"zip_code":"4890000","kana_pref":"ｱｲﾁｹﾝ","kana_city":"ｾﾄｼ","kana_address":"","pref":"愛知県","city":"瀬戸市","address":""},
{"zip_code":"4890878","kana_pref":"ｱｲﾁｹﾝ","kana_city":"ｾﾄｼ","kana_address":"ｱｶｼｹﾞﾁｮｳ","pref":"愛知県","city":"瀬戸市","address":"赤重町"},
{"zip_code":"4890071","kana_pref":"ｱｲﾁｹﾝ","kana_city":"ｾﾄｼ","kana_address":"ｱｶﾂｷﾁｮｳ","pref":"愛知県","city":"瀬戸市","address":"暁町"},
{"zip_code":"4890022","kana_pref":"ｱｲﾁｹﾝ","kana_city":"ｾﾄｼ","kana_address":"ｱｶﾂﾞﾁｮｳ","pref":"愛知県","city":"瀬戸市","address":"赤津町"},
{"zip_code":"4890898","kana_pref":"ｱｲﾁｹﾝ","kana_city":"ｾﾄｼ","kana_address":"ｱｷﾊﾞﾁｮｳ","pref":"愛知県","city":"瀬戸市","address":"秋葉町"},
{"zip_code":"4890043","kana_pref":"ｱｲﾁｹﾝ","kana_city":"ｾﾄｼ","kana_address":"ｱｻﾋﾏﾁ","pref":"愛知県","city":"瀬戸市","address":"朝日町"},
{"zip_code":"4890847","kana_pref":"ｱｲﾁｹﾝ","kana_city":"ｾﾄｼ","kana_address":"ｱｽﾞﾏﾁｮｳ","pref":"愛知県","city":"瀬戸市","address":"東町"},
{"zip_code":"4890801","kana_pref":"ｱｲﾁｹﾝ","kana_city":"ｾﾄｼ","kana_address":"ｱｾﾋﾞﾁｮｳ","pref":"愛知県","city":"瀬戸市","address":"汗干町"},
{"zip_code":"4890003","kana_pref":"ｱｲﾁｹﾝ","kana_city":"ｾﾄｼ","kana_address":"ｱﾅﾀﾞﾁｮｳ","pref":"愛知県","city":"瀬戸市","address":"穴田町"},
{"zip_code":"4890952","kana_pref":"ｱｲﾁｹﾝ","kana_city":"ｾﾄｼ","kana_address":"ｲｹﾀﾞﾁｮｳ","pref":"愛知県","city":"瀬戸市","address":"池田町"},
{"zip_code":"4890951","kana_pref":"ｱｲﾁｹﾝ","kana_city":"ｾﾄｼ","kana_address":"ｲｼﾀﾞﾁｮｳ","pref":"愛知県","city":"瀬戸市","address":"石田町"},
{"zip_code":"4890073","kana_pref":"ｱｲﾁｹﾝ","kana_city":"ｾﾄｼ","kana_address":"ｲｽﾞﾐﾁｮｳ","pref":"愛知県","city":"瀬戸市","address":"泉町"},
{"zip_code":"4890922","kana_pref":"ｱｲﾁｹﾝ","kana_city":"ｾﾄｼ","kana_address":"ｲﾁﾊﾞﾁｮｳ","pref":"愛知県","city":"瀬戸市","address":"市場町"},
{"zip_code":"4890817","kana_pref":"ｱｲﾁｹﾝ","kana_city":"ｾﾄｼ","kana_address":"ｲﾁｮﾉｷﾁｮｳ","pref":"愛知県","city":"瀬戸市","address":"銀杏木町"},
{"zip_code":"4890836","kana_pref":"ｱｲﾁｹﾝ","kana_city":"ｾﾄｼ","kana_address":"ｲﾁﾘﾂﾞｶﾁｮｳ","pref":"愛知県","city":"瀬戸市","address":"一里塚町"},
{"zip_code":"4890976","kana_pref":"ｱｲﾁｹﾝ","kana_city":"ｾﾄｼ","kana_address":"ｲﾄﾞｶﾞﾈﾁｮｳ","pref":"愛知県","city":"瀬戸市","address":"井戸金町"},
{"zip_code":"4890802","kana_pref":"ｱｲﾁｹﾝ","kana_city":"ｾﾄｼ","kana_address":"ｲﾏｲｹﾁｮｳ","pref":"愛知県","city":"瀬戸市","address":"今池町"},
{"zip_code":"4890868","kana_pref":"ｱｲﾁｹﾝ","kana_city":"ｾﾄｼ","kana_address":"ｲﾏﾊﾞﾔｼﾁｮｳ","pref":"愛知県","city":"瀬戸市","address":"今林町"},
{"zip_code":"4890964","kana_pref":"ｱｲﾁｹﾝ","kana_city":"ｾﾄｼ","kana_address":"ｳｴﾉﾔﾏﾁｮｳ","pref":"愛知県","city":"瀬戸市","address":"上之山町"},
{"zip_code":"4890902","kana_pref":"ｱｲﾁｹﾝ","kana_city":"ｾﾄｼ","kana_address":"ｳﾁﾀﾞﾁｮｳ","pref":"愛知県","city":"瀬戸市","address":"内田町"},
{"zip_code":"4890021","kana_pref":"ｱｲﾁｹﾝ","kana_city":"ｾﾄｼ","kana_address":"ｳﾏｶﾞｼﾞｮｳﾁｮｳ","pref":"愛知県","city":"瀬戸市","address":"馬ケ城町"},
{"zip_code":"4890826","kana_pref":"ｱｲﾁｹﾝ","kana_city":"ｾﾄｼ","kana_address":"ｴﾋﾞｽﾁｮｳ","pref":"愛知県","city":"瀬戸市","address":"蛭子町"},
{"zip_code":"4890803","kana_pref":"ｱｲﾁｹﾝ","kana_city":"ｾﾄｼ","kana_address":"ｵｲﾜｹﾁｮｳ","pref":"愛知県","city":"瀬戸市","address":"追分町"},
{"zip_code":"4890832","kana_pref":"ｱｲﾁｹﾝ","kana_city":"ｾﾄｼ","kana_address":"ｵｳｼﾞﾉｻﾜﾁｮｳ","pref":"愛知県","city":"瀬戸市","address":"王子沢町"},
{"zip_code":"4890867","kana_pref":"ｱｲﾁｹﾝ","kana_city":"ｾﾄｼ","kana_address":"ｵｵｻｶﾁｮｳ","pref":"愛知県","city":"瀬戸市","address":"大坂町"},
{"zip_code":"4890962","kana_pref":"ｱｲﾁｹﾝ","kana_city":"ｾﾄｼ","kana_address":"ｵｵﾂﾎﾞﾁｮｳ","pref":"愛知県","city":"瀬戸市","address":"大坪町"},
{"zip_code":"4890064","kana_pref":"ｱｲﾁｹﾝ","kana_city":"ｾﾄｼ","kana_address":"ｵｶﾞﾈﾁｮｳ","pref":"愛知県","city":"瀬戸市","address":"小金町"},
{"zip_code":"4890067","kana_pref":"ｱｲﾁｹﾝ","kana_city":"ｾﾄｼ","kana_address":"ｵﾀﾞﾂﾞﾏﾁｮｳ","pref":"愛知県","city":"瀬戸市","address":"小田妻町"},
{"zip_code":"4890855","kana_pref":"ｱｲﾁｹﾝ","kana_city":"ｾﾄｼ","kana_address":"ｶｲｼｮﾁｮｳ","pref":"愛知県","city":"瀬戸市","address":"海上町"},
{"zip_code":"4890966","kana_pref":"ｱｲﾁｹﾝ","kana_city":"ｾﾄｼ","kana_address":"ｶｹｼﾀﾁｮｳ","pref":"愛知県","city":"瀬戸市","address":"掛下町"},
{"zip_code":"4890845","kana_pref":"ｱｲﾁｹﾝ","kana_city":"ｾﾄｼ","kana_address":"ｶﾈﾊﾞﾁｮｳ","pref":"愛知県","city":"瀬戸市","address":"鐘場町"},
{"zip_code":"4890007","kana_pref":"ｱｲﾁｹﾝ","kana_city":"ｾﾄｼ","kana_address":"ｶﾉﾘﾁｮｳ","pref":"愛知県","city":"瀬戸市","address":"鹿乗町"},
{"zip_code":"4890048","kana_pref":"ｱｲﾁｹﾝ","kana_city":"ｾﾄｼ","kana_address":"ｶﾏｶﾞﾐﾁｮｳ","pref":"愛知県","city":"瀬戸市","address":"窯神町"},
{"zip_code":"4890023","kana_pref":"ｱｲﾁｹﾝ","kana_city":"ｾﾄｼ","kana_address":"ｶﾏﾓﾄﾁｮｳ","pref":"愛知県","city":"瀬戸市","address":"窯元町"},
{"zip_code":"4890933","kana_pref":"ｱｲﾁｹﾝ","kana_city":"ｾﾄｼ","kana_address":"ｶﾐｶﾜﾁｮｳ","pref":"愛知県","city":"瀬戸市","address":"神川町"},
{"zip_code":"4890063","kana_pref":"ｱｲﾁｹﾝ","kana_city":"ｾﾄｼ","kana_address":"ｶﾐｼﾞﾝﾔﾁｮｳ","pref":"愛知県","city":"瀬戸市","address":"上陣屋町"},
{"zip_code":"4890892","kana_pref":"ｱｲﾁｹﾝ","kana_city":"ｾﾄｼ","kana_address":"ｶﾐﾉｷﾘﾁｮｳ","pref":"愛知県","city":"瀬戸市","address":"上ノ切町"},
{"zip_code":"4890061","kana_pref":"ｱｲﾁｹﾝ","kana_city":"ｾﾄｼ","kana_address":"ｶﾐﾎﾝﾏﾁ","pref":"愛知県","city":"瀬戸市","address":"上本町"},
{"zip_code":"4890068","kana_pref":"ｱｲﾁｹﾝ","kana_city":"ｾﾄｼ","kana_address":"ｶﾐﾏﾂﾔﾏﾁｮｳ","pref":"愛知県","city":"瀬戸市","address":"上松山町"},
{"zip_code":"4890062","kana_pref":"ｱｲﾁｹﾝ","kana_city":"ｾﾄｼ","kana_address":"ｶﾐﾐｽﾞﾉﾁｮｳ","pref":"愛知県","city":"瀬戸市","address":"上水野町"},
{"zip_code":"4890853","kana_pref":"ｱｲﾁｹﾝ","kana_city":"ｾﾄｼ","kana_address":"ｶﾐﾔﾏｼﾞﾁｮｳ","pref":"愛知県","city":"瀬戸市","address":"上山路町"},
{"zip_code":"4890894","kana_pref":"ｱｲﾁｹﾝ","kana_city":"ｾﾄｼ","kana_address":"ｶﾜｲﾁｮｳ","pref":"愛知県","city":"瀬戸市","address":"川合町"},
{"zip_code":"4890927","kana_pref":"ｱｲﾁｹﾝ","kana_city":"ｾﾄｼ","kana_address":"ｶﾜｷﾀﾁｮｳ","pref":"愛知県","city":"瀬戸市","address":"川北町"},
{"zip_code":"4890926","kana_pref":"ｱｲﾁｹﾝ","kana_city":"ｾﾄｼ","kana_address":"ｶﾜﾆｼﾁｮｳ","pref":"愛知県","city":"瀬戸市","address":"川西町"},
{"zip_code":"4890919","kana_pref":"ｱｲﾁｹﾝ","kana_city":"ｾﾄｼ","kana_address":"ｶﾜﾊﾞﾀﾁｮｳ","pref":"愛知県","city":"瀬戸市","address":"川端町"},
{"zip_code":"4890001","kana_pref":"ｱｲﾁｹﾝ","kana_city":"ｾﾄｼ","kana_address":"ｶﾜﾋﾗﾁｮｳ","pref":"愛知県","city":"瀬戸市","address":"川平町"},
{"zip_code":"4890908","kana_pref":"ｱｲﾁｹﾝ","kana_city":"ｾﾄｼ","kana_address":"ｷｷｮｳﾀﾞｲ","pref":"愛知県","city":"瀬戸市","address":"ききょう台"},
{"zip_code":"4890915","kana_pref":"ｱｲﾁｹﾝ","kana_city":"ｾﾄｼ","kana_address":"ｷﾀｳﾗﾁｮｳ","pref":"愛知県","city":"瀬戸市","address":"北浦町"},
{"zip_code":"4890014","kana_pref":"ｱｲﾁｹﾝ","kana_city":"ｾﾄｼ","kana_address":"ｷﾀｼﾗｻｶﾁｮｳ","pref":"愛知県","city":"瀬戸市","address":"北白坂町"},
{"zip_code":"4890911","kana_pref":"ｱｲﾁｹﾝ","kana_city":"ｾﾄｼ","kana_address":"ｷﾀﾏﾂﾔﾏﾁｮｳ","pref":"愛知県","city":"瀬戸市","address":"北松山町"},
{"zip_code":"4890910","kana_pref":"ｱｲﾁｹﾝ","kana_city":"ｾﾄｼ","kana_address":"ｷﾀﾐｽﾞﾉｻﾞｶ","pref":"愛知県","city":"瀬戸市","address":"北みずの坂"},
{"zip_code":"4890984","kana_pref":"ｱｲﾁｹﾝ","kana_city":"ｾﾄｼ","kana_address":"ｷﾀﾔﾏﾁｮｳ","pref":"愛知県","city":"瀬戸市","address":"北山町"},
{"zip_code":"4890918","kana_pref":"ｱｲﾁｹﾝ","kana_city":"ｾﾄｼ","kana_address":"ｷﾀﾜｷﾁｮｳ","pref":"愛知県","city":"瀬戸市","address":"北脇町"},
{"zip_code":"4890809","kana_pref":"ｱｲﾁｹﾝ","kana_city":"ｾﾄｼ","kana_address":"ｷｮｳｴｲﾄﾞｵﾘ","pref":"愛知県","city":"瀬戸市","address":"共栄通"},
{"zip_code":"4890804","kana_pref":"ｱｲﾁｹﾝ","kana_city":"ｾﾄｼ","kana_address":"ｷｮｳﾏﾁ","pref":"愛知県","city":"瀬戸市","address":"京町"},
{"zip_code":"4890881","kana_pref":"ｱｲﾁｹﾝ","kana_city":"ｾﾄｼ","kana_address":"ｸﾏﾉﾁｮｳ","pref":"愛知県","city":"瀬戸市","address":"熊野町"},
{"zip_code":"4890813","kana_pref":"ｱｲﾁｹﾝ","kana_city":"ｾﾄｼ","kana_address":"ｸﾗｼｮﾁｮｳ","pref":"愛知県","city":"瀬戸市","address":"蔵所町"},
{"zip_code":"4890031","kana_pref":"ｱｲﾁｹﾝ","kana_city":"ｾﾄｼ","kana_address":"ｺﾞｲﾂﾞｶﾁｮｳ","pref":"愛知県","city":"瀬戸市","address":"五位塚町"},
{"zip_code":"4890917","kana_pref":"ｱｲﾁｹﾝ","kana_city":"ｾﾄｼ","kana_address":"ｺｳﾊﾝﾁｮｳ","pref":"愛知県","city":"瀬戸市","address":"效範町"},
{"zip_code":"4890978","kana_pref":"ｱｲﾁｹﾝ","kana_city":"ｾﾄｼ","kana_address":"ｺｻｶﾁｮｳ","pref":"愛知県","city":"瀬戸市","address":"小坂町"},
{"zip_code":"4890032","kana_pref":"ｱｲﾁｹﾝ","kana_city":"ｾﾄｼ","kana_address":"ｺｾﾄﾁｮｳ","pref":"愛知県","city":"瀬戸市","address":"古瀬戸町"},
{"zip_code":"4890842","kana_pref":"ｱｲﾁｹﾝ","kana_city":"ｾﾄｼ","kana_address":"ｺｿﾗﾁｮｳ","pref":"愛知県","city":"瀬戸市","address":"小空町"},
{"zip_code":"4890879","kana_pref":"ｱｲﾁｹﾝ","kana_city":"ｾﾄｼ","kana_address":"ｺﾌﾞｷﾁｮｳ","pref":"愛知県","city":"瀬戸市","address":"瘤木町"},
{"zip_code":"4890974","kana_pref":"ｱｲﾁｹﾝ","kana_city":"ｾﾄｼ","kana_address":"ｺﾏﾏｴﾁｮｳ","pref":"愛知県","city":"瀬戸市","address":"駒前町"},
{"zip_code":"4890035","kana_pref":"ｱｲﾁｹﾝ","kana_city":"ｾﾄｼ","kana_address":"ｺﾝﾔﾀﾞﾁｮｳ","pref":"愛知県","city":"瀬戸市","address":"紺屋田町"},
{"zip_code":"4890818","kana_pref":"ｱｲﾁｹﾝ","kana_city":"ｾﾄｼ","kana_address":"ｻｲﾜｲﾁｮｳ","pref":"愛知県","city":"瀬戸市","address":"幸町"},
{"zip_code":"4890977","kana_pref":"ｱｲﾁｹﾝ","kana_city":"ｾﾄｼ","kana_address":"ｻｶｳｴﾁｮｳ","pref":"愛知県","city":"瀬戸市","address":"坂上町"},
{"zip_code":"4890044","kana_pref":"ｱｲﾁｹﾝ","kana_city":"ｾﾄｼ","kana_address":"ｻｶｴﾏﾁ","pref":"愛知県","city":"瀬戸市","address":"栄町"},
{"zip_code":"4890982","kana_pref":"ｱｲﾁｹﾝ","kana_city":"ｾﾄｼ","kana_address":"ｻﾂｷﾀﾞｲ","pref":"愛知県","city":"瀬戸市","address":"さつき台"},
{"zip_code":"4890895","kana_pref":"ｱｲﾁｹﾝ","kana_city":"ｾﾄｼ","kana_address":"ｼｵｸｻﾁｮｳ","pref":"愛知県","city":"瀬戸市","address":"塩草町"},
{"zip_code":"4890901","kana_pref":"ｱｲﾁｹﾝ","kana_city":"ｾﾄｼ","kana_address":"ｼﾞｯｹﾝﾁｮｳ","pref":"愛知県","city":"瀬戸市","address":"十軒町"},
{"zip_code":"4890051","kana_pref":"ｱｲﾁｹﾝ","kana_city":"ｾﾄｼ","kana_address":"ｼﾓｼﾞﾝﾔﾁｮｳ","pref":"愛知県","city":"瀬戸市","address":"下陣屋町"},
{"zip_code":"4890017","kana_pref":"ｱｲﾁｹﾝ","kana_city":"ｾﾄｼ","kana_address":"ｼﾗｻｶﾁｮｳ","pref":"愛知県","city":"瀬戸市","address":"白坂町"},
{"zip_code":"4890924","kana_pref":"ｱｲﾁｹﾝ","kana_city":"ｾﾄｼ","kana_address":"ｼﾛｶﾞﾈﾁｮｳ","pref":"愛知県","city":"瀬戸市","address":"城ケ根町"},
{"zip_code":"4890923","kana_pref":"ｱｲﾁｹﾝ","kana_city":"ｾﾄｼ","kana_address":"ｼﾛﾔｼｷﾁｮｳ","pref":"愛知県","city":"瀬戸市","address":"城屋敷町"},
{"zip_code":"4890873","kana_pref":"ｱｲﾁｹﾝ","kana_city":"ｾﾄｼ","kana_address":"ｼﾝｺﾞｳﾁｮｳ","pref":"愛知県","city":"瀬戸市","address":"新郷町"},
{"zip_code":"4890949","kana_pref":"ｱｲﾁｹﾝ","kana_city":"ｾﾄｼ","kana_address":"ｼﾝﾃﾞﾝﾁｮｳ","pref":"愛知県","city":"瀬戸市","address":"新田町"},
{"zip_code":"4890058","kana_pref":"ｱｲﾁｹﾝ","kana_city":"ｾﾄｼ","kana_address":"ｼﾝﾄｳﾁｮｳ","pref":"愛知県","city":"瀬戸市","address":"進陶町"},
{"zip_code":"4890075","kana_pref":"ｱｲﾁｹﾝ","kana_city":"ｾﾄｼ","kana_address":"ｼﾝﾄﾞｳﾁｮｳ","pref":"愛知県","city":"瀬戸市","address":"新道町"},
{"zip_code":"4890849","kana_pref":"ｱｲﾁｹﾝ","kana_city":"ｾﾄｼ","kana_address":"ｼﾝﾒｲﾁｮｳ","pref":"愛知県","city":"瀬戸市","address":"新明町"},
{"zip_code":"4890913","kana_pref":"ｱｲﾁｹﾝ","kana_city":"ｾﾄｼ","kana_address":"ｽｲﾅﾝﾁｮｳ","pref":"愛知県","city":"瀬戸市","address":"水南町"},
{"zip_code":"4890009","kana_pref":"ｱｲﾁｹﾝ","kana_city":"ｾﾄｼ","kana_address":"ｽｲﾎｸﾁｮｳ","pref":"愛知県","city":"瀬戸市","address":"水北町"},
{"zip_code":"4890814","kana_pref":"ｱｲﾁｹﾝ","kana_city":"ｾﾄｼ","kana_address":"ｽｴﾋﾛﾁｮｳ","pref":"愛知県","city":"瀬戸市","address":"末広町"},
{"zip_code":"4890822","kana_pref":"ｱｲﾁｹﾝ","kana_city":"ｾﾄｼ","kana_address":"ｽｷﾞﾂｶﾁｮｳ","pref":"愛知県","city":"瀬戸市","address":"杉塚町"},
{"zip_code":"4890033","kana_pref":"ｱｲﾁｹﾝ","kana_city":"ｾﾄｼ","kana_address":"ｽﾊﾗﾁｮｳ","pref":"愛知県","city":"瀬戸市","address":"須原町"},
{"zip_code":"4890904","kana_pref":"ｱｲﾁｹﾝ","kana_city":"ｾﾄｼ","kana_address":"ｽﾐﾚﾀﾞｲ","pref":"愛知県","city":"瀬戸市","address":"すみれ台"},
{"zip_code":"4890863","kana_pref":"ｱｲﾁｹﾝ","kana_city":"ｾﾄｼ","kana_address":"ｾｲﾚｲﾁｮｳ","pref":"愛知県","city":"瀬戸市","address":"せいれい町"},
{"zip_code":"4890041","kana_pref":"ｱｲﾁｹﾝ","kana_city":"ｾﾄｼ","kana_address":"ｾﾄｶﾞﾜﾁｮｳ","pref":"愛知県","city":"瀬戸市","address":"背戸側町"},
{"zip_code":"4890941","kana_pref":"ｱｲﾁｹﾝ","kana_city":"ｾﾄｼ","kana_address":"ｾﾄｸﾞﾁﾁｮｳ","pref":"愛知県","city":"瀬戸市","address":"瀬戸口町"},
{"zip_code":"4890843","kana_pref":"ｱｲﾁｹﾝ","kana_city":"ｾﾄｼ","kana_address":"ｿｳｻｸﾁｮｳ","pref":"愛知県","city":"瀬戸市","address":"惣作町"},
{"zip_code":"4890008","kana_pref":"ｱｲﾁｹﾝ","kana_city":"ｾﾄｼ","kana_address":"ｿﾉﾁｮｳ","pref":"愛知県","city":"瀬戸市","address":"曽野町"},
{"zip_code":"4890825","kana_pref":"ｱｲﾁｹﾝ","kana_city":"ｾﾄｼ","kana_address":"ｿﾎﾞｶｲﾁｮｳ","pref":"愛知県","city":"瀬戸市","address":"祖母懐町"},
{"zip_code":"4890846","kana_pref":"ｱｲﾁｹﾝ","kana_city":"ｾﾄｼ","kana_address":"ﾀｲｼﾁｮｳ","pref":"愛知県","city":"瀬戸市","address":"太子町"},
{"zip_code":"4890954","kana_pref":"ｱｲﾁｹﾝ","kana_city":"ｾﾄｼ","kana_address":"ﾀﾞｲﾛｸﾁｮｳ","pref":"愛知県","city":"瀬戸市","address":"台六町"},
{"zip_code":"4890931","kana_pref":"ｱｲﾁｹﾝ","kana_city":"ｾﾄｼ","kana_address":"ﾀｶﾈﾁｮｳ","pref":"愛知県","city":"瀬戸市","address":"高根町"},
{"zip_code":"4890896","kana_pref":"ｱｲﾁｹﾝ","kana_city":"ｾﾄｼ","kana_address":"ﾀｶﾗｶﾞｵｶﾁｮｳ","pref":"愛知県","city":"瀬戸市","address":"宝ケ丘町"},
{"zip_code":"4890055","kana_pref":"ｱｲﾁｹﾝ","kana_city":"ｾﾄｼ","kana_address":"ﾀｷﾉﾕﾁｮｳ","pref":"愛知県","city":"瀬戸市","address":"滝之湯町"},
{"zip_code":"4890025","kana_pref":"ｱｲﾁｹﾝ","kana_city":"ｾﾄｼ","kana_address":"ﾀｺﾔﾏﾁｮｳ","pref":"愛知県","city":"瀬戸市","address":"凧山町"},
{"zip_code":"4890961","kana_pref":"ｱｲﾁｹﾝ","kana_city":"ｾﾄｼ","kana_address":"ﾀﾅｶﾁｮｳ","pref":"愛知県","city":"瀬戸市","address":"田中町"},
{"zip_code":"4890921","kana_pref":"ｱｲﾁｹﾝ","kana_city":"ｾﾄｼ","kana_address":"ﾀﾊﾞﾀﾁｮｳ","pref":"愛知県","city":"瀬戸市","address":"田端町"},
{"zip_code":"4890838","kana_pref":"ｱｲﾁｹﾝ","kana_city":"ｾﾄｼ","kana_address":"ﾃﾗﾓﾄﾁｮｳ","pref":"愛知県","city":"瀬戸市","address":"寺本町"},
{"zip_code":"4890891","kana_pref":"ｱｲﾁｹﾝ","kana_city":"ｾﾄｼ","kana_address":"ﾄｳｴｲﾁｮｳ","pref":"愛知県","city":"瀬戸市","address":"陶栄町"},
{"zip_code":"4890805","kana_pref":"ｱｲﾁｹﾝ","kana_city":"ｾﾄｼ","kana_address":"ﾄｳｹﾞﾝﾁｮｳ","pref":"愛知県","city":"瀬戸市","address":"陶原町"},
{"zip_code":"4890823","kana_pref":"ｱｲﾁｹﾝ","kana_city":"ｾﾄｼ","kana_address":"ﾄｳｺﾞｳﾁｮｳ","pref":"愛知県","city":"瀬戸市","address":"東郷町"},
{"zip_code":"4890831","kana_pref":"ｱｲﾁｹﾝ","kana_city":"ｾﾄｼ","kana_address":"ﾄｳｼﾛｳﾁｮｳ","pref":"愛知県","city":"瀬戸市","address":"藤四郎町"},
{"zip_code":"4890827","kana_pref":"ｱｲﾁｹﾝ","kana_city":"ｾﾄｼ","kana_address":"ﾄｳｾｲﾁｮｳ","pref":"愛知県","city":"瀬戸市","address":"陶生町"},
{"zip_code":"4890054","kana_pref":"ｱｲﾁｹﾝ","kana_city":"ｾﾄｼ","kana_address":"ﾄﾞｳｾﾝﾁｮｳ","pref":"愛知県","city":"瀬戸市","address":"道泉町"},
{"zip_code":"4890045","kana_pref":"ｱｲﾁｹﾝ","kana_city":"ｾﾄｼ","kana_address":"ﾄｳﾎﾝﾁｮｳ","pref":"愛知県","city":"瀬戸市","address":"陶本町"},
{"zip_code":"4890026","kana_pref":"ｱｲﾁｹﾝ","kana_city":"ｾﾄｼ","kana_address":"ﾄｳﾒｲﾁｮｳ","pref":"愛知県","city":"瀬戸市","address":"東明町"},
{"zip_code":"4890983","kana_pref":"ｱｲﾁｹﾝ","kana_city":"ｾﾄｼ","kana_address":"ﾅｴﾊﾞﾁｮｳ","pref":"愛知県","city":"瀬戸市","address":"苗場町"},
{"zip_code":"4890042","kana_pref":"ｱｲﾁｹﾝ","kana_city":"ｾﾄｼ","kana_address":"ﾅｶｷﾞﾘﾁｮｳ","pref":"愛知県","city":"瀬戸市","address":"仲切町"},
{"zip_code":"4890824","kana_pref":"ｱｲﾁｹﾝ","kana_city":"ｾﾄｼ","kana_address":"ﾅｶｺﾞｳﾁｮｳ","pref":"愛知県","city":"瀬戸市","address":"仲郷町"},
{"zip_code":"4890013","kana_pref":"ｱｲﾁｹﾝ","kana_city":"ｾﾄｼ","kana_address":"ﾅｶｼﾗｻｶﾁｮｳ","pref":"愛知県","city":"瀬戸市","address":"中白坂町"},
{"zip_code":"4890029","kana_pref":"ｱｲﾁｹﾝ","kana_city":"ｾﾄｼ","kana_address":"ﾅｶﾊﾞﾀﾁｮｳ","pref":"愛知県","city":"瀬戸市","address":"中畑町"},
{"zip_code":"4890833","kana_pref":"ｱｲﾁｹﾝ","kana_city":"ｾﾄｼ","kana_address":"ﾅｶﾎﾞﾗﾁｮｳ","pref":"愛知県","city":"瀬戸市","address":"仲洞町"},
{"zip_code":"4890005","kana_pref":"ｱｲﾁｹﾝ","kana_city":"ｾﾄｼ","kana_address":"ﾅｶﾐｽﾞﾉﾁｮｳ","pref":"愛知県","city":"瀬戸市","address":"中水野町"},
{"zip_code":"4890835","kana_pref":"ｱｲﾁｹﾝ","kana_city":"ｾﾄｼ","kana_address":"ﾅｶﾔﾏﾁｮｳ","pref":"愛知県","city":"瀬戸市","address":"中山町"},
{"zip_code":"4890884","kana_pref":"ｱｲﾁｹﾝ","kana_city":"ｾﾄｼ","kana_address":"ﾆｼｲﾊﾞﾗﾁｮｳ","pref":"愛知県","city":"瀬戸市","address":"西茨町"},
{"zip_code":"4890079","kana_pref":"ｱｲﾁｹﾝ","kana_city":"ｾﾄｼ","kana_address":"ﾆｼｲﾝｿﾞﾁｮｳ","pref":"愛知県","city":"瀬戸市","address":"西印所町"},
{"zip_code":"4890065","kana_pref":"ｱｲﾁｹﾝ","kana_city":"ｾﾄｼ","kana_address":"ﾆｼｵｲﾜｹﾁｮｳ","pref":"愛知県","city":"瀬戸市","address":"西追分町"},
{"zip_code":"4890028","kana_pref":"ｱｲﾁｹﾝ","kana_city":"ｾﾄｼ","kana_address":"ﾆｼｶﾞﾏﾁｮｳ","pref":"愛知県","city":"瀬戸市","address":"西窯町"},
{"zip_code":"4890812","kana_pref":"ｱｲﾁｹﾝ","kana_city":"ｾﾄｼ","kana_address":"ﾆｼｸﾗｼｮﾁｮｳ","pref":"愛知県","city":"瀬戸市","address":"西蔵所町"},
{"zip_code":"4890036","kana_pref":"ｱｲﾁｹﾝ","kana_city":"ｾﾄｼ","kana_address":"ﾆｼｺｾﾄﾁｮｳ","pref":"愛知県","city":"瀬戸市","address":"西古瀬戸町"},
{"zip_code":"4890943","kana_pref":"ｱｲﾁｹﾝ","kana_city":"ｾﾄｼ","kana_address":"ﾆｼｺﾒｲｽﾞﾐﾁｮｳ","pref":"愛知県","city":"瀬戸市","address":"西米泉町"},
{"zip_code":"4890829","kana_pref":"ｱｲﾁｹﾝ","kana_city":"ｾﾄｼ","kana_address":"ﾆｼｺﾞｳﾁｮｳ","pref":"愛知県","city":"瀬戸市","address":"西郷町"},
{"zip_code":"4890882","kana_pref":"ｱｲﾁｹﾝ","kana_city":"ｾﾄｼ","kana_address":"ﾆｼｺﾞﾝｹﾞﾝﾁｮｳ","pref":"愛知県","city":"瀬戸市","address":"西権現町"},
{"zip_code":"4890018","kana_pref":"ｱｲﾁｹﾝ","kana_city":"ｾﾄｼ","kana_address":"ﾆｼｼﾗｻｶﾁｮｳ","pref":"愛知県","city":"瀬戸市","address":"西白坂町"},
{"zip_code":"4890047","kana_pref":"ｱｲﾁｹﾝ","kana_city":"ｾﾄｼ","kana_address":"ﾆｼﾀﾞﾆﾁｮｳ","pref":"愛知県","city":"瀬戸市","address":"西谷町"},
{"zip_code":"4890925","kana_pref":"ｱｲﾁｹﾝ","kana_city":"ｾﾄｼ","kana_address":"ﾆｼﾃﾗﾔﾏﾁｮｳ","pref":"愛知県","city":"瀬戸市","address":"西寺山町"},
{"zip_code":"4890057","kana_pref":"ｱｲﾁｹﾝ","kana_city":"ｾﾄｼ","kana_address":"ﾆｼﾄﾐﾂﾞｶﾁｮｳ","pref":"愛知県","city":"瀬戸市","address":"西十三塚町"},
{"zip_code":"4890929","kana_pref":"ｱｲﾁｹﾝ","kana_city":"ｾﾄｼ","kana_address":"ﾆｼﾅｶﾞﾈﾁｮｳ","pref":"愛知県","city":"瀬戸市","address":"西長根町"},
{"zip_code":"4890848","kana_pref":"ｱｲﾁｹﾝ","kana_city":"ｾﾄｼ","kana_address":"ﾆｼﾊｲﾄﾁｮｳ","pref":"愛知県","city":"瀬戸市","address":"西拝戸町"},
{"zip_code":"4890972","kana_pref":"ｱｲﾁｹﾝ","kana_city":"ｾﾄｼ","kana_address":"ﾆｼﾊﾗﾁｮｳ","pref":"愛知県","city":"瀬戸市","address":"西原町"},
{"zip_code":"4890971","kana_pref":"ｱｲﾁｹﾝ","kana_city":"ｾﾄｼ","kana_address":"ﾆｼﾎﾝｼﾞﾁｮｳ","pref":"愛知県","city":"瀬戸市","address":"西本地町"},
{"zip_code":"4890819","kana_pref":"ｱｲﾁｹﾝ","kana_city":"ｾﾄｼ","kana_address":"ﾆｼﾎﾝﾏﾁ","pref":"愛知県","city":"瀬戸市","address":"西本町"},
{"zip_code":"4890837","kana_pref":"ｱｲﾁｹﾝ","kana_city":"ｾﾄｼ","kana_address":"ﾆｼﾎﾞﾗﾁｮｳ","pref":"愛知県","city":"瀬戸市","address":"西洞町"},
{"zip_code":"4890912","kana_pref":"ｱｲﾁｹﾝ","kana_city":"ｾﾄｼ","kana_address":"ﾆｼﾏﾂﾔﾏﾁｮｳ","pref":"愛知県","city":"瀬戸市","address":"西松山町"},
{"zip_code":"4890851","kana_pref":"ｱｲﾁｹﾝ","kana_city":"ｾﾄｼ","kana_address":"ﾆｼﾔﾏｼﾞﾁｮｳ","pref":"愛知県","city":"瀬戸市","address":"西山路町"},
{"zip_code":"4890987","kana_pref":"ｱｲﾁｹﾝ","kana_city":"ｾﾄｼ","kana_address":"ﾆｼﾔﾏﾁｮｳ","pref":"愛知県","city":"瀬戸市","address":"西山町"},
{"zip_code":"4890807","kana_pref":"ｱｲﾁｹﾝ","kana_city":"ｾﾄｼ","kana_address":"ﾆｼﾖｼﾀﾞﾁｮｳ","pref":"愛知県","city":"瀬戸市","address":"西吉田町"},
{"zip_code":"4890936","kana_pref":"ｱｲﾁｹﾝ","kana_city":"ｾﾄｼ","kana_address":"ﾆｼﾜｷﾁｮｳ","pref":"愛知県","city":"瀬戸市","address":"西脇町"},
{"zip_code":"4890885","kana_pref":"ｱｲﾁｹﾝ","kana_city":"ｾﾄｼ","kana_address":"ﾊｷﾞﾄﾞﾉﾁｮｳ","pref":"愛知県","city":"瀬戸市","address":"萩殿町"},
{"zip_code":"4890905","kana_pref":"ｱｲﾁｹﾝ","kana_city":"ｾﾄｼ","kana_address":"ﾊｷﾞﾉﾀﾞｲ","pref":"愛知県","city":"瀬戸市","address":"はぎの台"},
{"zip_code":"4890886","kana_pref":"ｱｲﾁｹﾝ","kana_city":"ｾﾄｼ","kana_address":"ﾊｷﾞﾔﾏﾀﾞｲ","pref":"愛知県","city":"瀬戸市","address":"萩山台"},
{"zip_code":"4890876","kana_pref":"ｱｲﾁｹﾝ","kana_city":"ｾﾄｼ","kana_address":"ﾊｸｻﾝﾁｮｳ","pref":"愛知県","city":"瀬戸市","address":"白山町"},
{"zip_code":"4890852","kana_pref":"ｱｲﾁｹﾝ","kana_city":"ｾﾄｼ","kana_address":"ﾊｻﾞﾏﾁｮｳ","pref":"愛知県","city":"瀬戸市","address":"巡間町"},
{"zip_code":"4890012","kana_pref":"ｱｲﾁｹﾝ","kana_city":"ｾﾄｼ","kana_address":"ﾊｾｸﾞﾁﾁｮｳ","pref":"愛知県","city":"瀬戸市","address":"長谷口町"},
{"zip_code":"4890946","kana_pref":"ｱｲﾁｹﾝ","kana_city":"ｾﾄｼ","kana_address":"ﾊﾀﾅｶﾁｮｳ","pref":"愛知県","city":"瀬戸市","address":"幡中町"},
{"zip_code":"4890938","kana_pref":"ｱｲﾁｹﾝ","kana_city":"ｾﾄｼ","kana_address":"ﾊﾀﾆｼﾁｮｳ","pref":"愛知県","city":"瀬戸市","address":"幡西町"},
{"zip_code":"4890874","kana_pref":"ｱｲﾁｹﾝ","kana_city":"ｾﾄｼ","kana_address":"ﾊﾀﾉﾁｮｳ","pref":"愛知県","city":"瀬戸市","address":"幡野町"},
{"zip_code":"4890948","kana_pref":"ｱｲﾁｹﾝ","kana_city":"ｾﾄｼ","kana_address":"ﾊﾀﾔﾏﾁｮｳ","pref":"愛知県","city":"瀬戸市","address":"幡山町"},
{"zip_code":"4890024","kana_pref":"ｱｲﾁｹﾝ","kana_city":"ｾﾄｼ","kana_address":"ﾊﾁｵｳｼﾞﾁｮｳ","pref":"愛知県","city":"瀬戸市","address":"八王子町"},
{"zip_code":"4890861","kana_pref":"ｱｲﾁｹﾝ","kana_city":"ｾﾄｼ","kana_address":"ﾊﾁﾏﾝﾀﾞｲ","pref":"愛知県","city":"瀬戸市","address":"八幡台"},
{"zip_code":"4890862","kana_pref":"ｱｲﾁｹﾝ","kana_city":"ｾﾄｼ","kana_address":"ﾊﾁﾏﾝﾁｮｳ","pref":"愛知県","city":"瀬戸市","address":"八幡町"},
{"zip_code":"4890034","kana_pref":"ｱｲﾁｹﾝ","kana_city":"ｾﾄｼ","kana_address":"ﾊﾈﾀﾞﾁｮｳ","pref":"愛知県","city":"瀬戸市","address":"刎田町"},
{"zip_code":"4890947","kana_pref":"ｱｲﾁｹﾝ","kana_city":"ｾﾄｼ","kana_address":"ﾊﾈﾁｮｳ","pref":"愛知県","city":"瀬戸市","address":"羽根町"},
{"zip_code":"4890888","kana_pref":"ｱｲﾁｹﾝ","kana_city":"ｾﾄｼ","kana_address":"ﾊﾗﾔﾏﾀﾞｲ","pref":"愛知県","city":"瀬戸市","address":"原山台"},
{"zip_code":"4890889","kana_pref":"ｱｲﾁｹﾝ","kana_city":"ｾﾄｼ","kana_address":"ﾊﾗﾔﾏﾁｮｳ","pref":"愛知県","city":"瀬戸市","address":"原山町"},
{"zip_code":"4890011","kana_pref":"ｱｲﾁｹﾝ","kana_city":"ｾﾄｼ","kana_address":"ﾊﾘﾊﾗﾁｮｳ","pref":"愛知県","city":"瀬戸市","address":"針原町"},
{"zip_code":"4890893","kana_pref":"ｱｲﾁｹﾝ","kana_city":"ｾﾄｼ","kana_address":"ﾊﾙｻﾒﾁｮｳ","pref":"愛知県","city":"瀬戸市","address":"春雨町"},
{"zip_code":"4890877","kana_pref":"ｱｲﾁｹﾝ","kana_city":"ｾﾄｼ","kana_address":"ﾋｶﾞｼｱｶｼｹﾞﾁｮｳ","pref":"愛知県","city":"瀬戸市","address":"東赤重町"},
{"zip_code":"4890897","kana_pref":"ｱｲﾁｹﾝ","kana_city":"ｾﾄｼ","kana_address":"ﾋｶﾞｼｲﾊﾞﾗﾁｮｳ","pref":"愛知県","city":"瀬戸市","address":"東茨町"},
{"zip_code":"4890072","kana_pref":"ｱｲﾁｹﾝ","kana_city":"ｾﾄｼ","kana_address":"ﾋｶﾞｼｲﾝｿﾞﾁｮｳ","pref":"愛知県","city":"瀬戸市","address":"東印所町"},
{"zip_code":"4890037","kana_pref":"ｱｲﾁｹﾝ","kana_city":"ｾﾄｼ","kana_address":"ﾋｶﾞｼｺｾﾄﾁｮｳ","pref":"愛知県","city":"瀬戸市","address":"東古瀬戸町"},
{"zip_code":"4890944","kana_pref":"ｱｲﾁｹﾝ","kana_city":"ｾﾄｼ","kana_address":"ﾋｶﾞｼｺﾒｲｽﾞﾐﾁｮｳ","pref":"愛知県","city":"瀬戸市","address":"東米泉町"},
{"zip_code":"4890883","kana_pref":"ｱｲﾁｹﾝ","kana_city":"ｾﾄｼ","kana_address":"ﾋｶﾞｼｺﾞﾝｹﾞﾝﾁｮｳ","pref":"愛知県","city":"瀬戸市","address":"東権現町"},
{"zip_code":"4890015","kana_pref":"ｱｲﾁｹﾝ","kana_city":"ｾﾄｼ","kana_address":"ﾋｶﾞｼｼﾗｻｶﾁｮｳ","pref":"愛知県","city":"瀬戸市","address":"東白坂町"},
{"zip_code":"4890928","kana_pref":"ｱｲﾁｹﾝ","kana_city":"ｾﾄｼ","kana_address":"ﾋｶﾞｼﾃﾗﾔﾏﾁｮｳ","pref":"愛知県","city":"瀬戸市","address":"東寺山町"},
{"zip_code":"4890056","kana_pref":"ｱｲﾁｹﾝ","kana_city":"ｾﾄｼ","kana_address":"ﾋｶﾞｼﾄﾐﾂﾞｶﾁｮｳ","pref":"愛知県","city":"瀬戸市","address":"東十三塚町"},
{"zip_code":"4890871","kana_pref":"ｱｲﾁｹﾝ","kana_city":"ｾﾄｼ","kana_address":"ﾋｶﾞｼﾅｶﾞﾈﾁｮｳ","pref":"愛知県","city":"瀬戸市","address":"東長根町"},
{"zip_code":"4890027","kana_pref":"ｱｲﾁｹﾝ","kana_city":"ｾﾄｼ","kana_address":"ﾋｶﾞｼﾊｲﾄﾞﾁｮｳ","pref":"愛知県","city":"瀬戸市","address":"東拝戸町"},
{"zip_code":"4890942","kana_pref":"ｱｲﾁｹﾝ","kana_city":"ｾﾄｼ","kana_address":"ﾋｶﾞｼﾋｼﾉﾁｮｳ","pref":"愛知県","city":"瀬戸市","address":"東菱野町"},
{"zip_code":"4890973","kana_pref":"ｱｲﾁｹﾝ","kana_city":"ｾﾄｼ","kana_address":"ﾋｶﾞｼﾎﾝｼﾞﾁｮｳ","pref":"愛知県","city":"瀬戸市","address":"東本地町"},
{"zip_code":"4890816","kana_pref":"ｱｲﾁｹﾝ","kana_city":"ｾﾄｼ","kana_address":"ﾋｶﾞｼﾎﾝﾏﾁ","pref":"愛知県","city":"瀬戸市","address":"東本町"},
{"zip_code":"4890841","kana_pref":"ｱｲﾁｹﾝ","kana_city":"ｾﾄｼ","kana_address":"ﾋｶﾞｼﾎﾞﾗﾁｮｳ","pref":"愛知県","city":"瀬戸市","address":"東洞町"},
{"zip_code":"4890069","kana_pref":"ｱｲﾁｹﾝ","kana_city":"ｾﾄｼ","kana_address":"ﾋｶﾞｼﾏﾂﾔﾏﾁｮｳ","pref":"愛知県","city":"瀬戸市","address":"東松山町"},
{"zip_code":"4890053","kana_pref":"ｱｲﾁｹﾝ","kana_city":"ｾﾄｼ","kana_address":"ﾋｶﾞｼﾔｽﾄﾞﾁｮｳ","pref":"愛知県","city":"瀬戸市","address":"東安戸町"},
{"zip_code":"4890854","kana_pref":"ｱｲﾁｹﾝ","kana_city":"ｾﾄｼ","kana_address":"ﾋｶﾞｼﾔﾏｼﾞﾁｮｳ","pref":"愛知県","city":"瀬戸市","address":"東山路町"},
{"zip_code":"4890988","kana_pref":"ｱｲﾁｹﾝ","kana_city":"ｾﾄｼ","kana_address":"ﾋｶﾞｼﾔﾏﾁｮｳ","pref":"愛知県","city":"瀬戸市","address":"東山町"},
{"zip_code":"4890066","kana_pref":"ｱｲﾁｹﾝ","kana_city":"ｾﾄｼ","kana_address":"ﾋｶﾞｼﾖｺﾔﾏﾁｮｳ","pref":"愛知県","city":"瀬戸市","address":"東横山町"},
{"zip_code":"4890806","kana_pref":"ｱｲﾁｹﾝ","kana_city":"ｾﾄｼ","kana_address":"ﾋｶﾞｼﾖｼﾀﾞﾁｮｳ","pref":"愛知県","city":"瀬戸市","address":"東吉田町"},
{"zip_code":"4890887","kana_pref":"ｱｲﾁｹﾝ","kana_city":"ｾﾄｼ","kana_address":"ﾋｼﾉﾀﾞｲ","pref":"愛知県","city":"瀬戸市","address":"菱野台"},
{"zip_code":"4890934","kana_pref":"ｱｲﾁｹﾝ","kana_city":"ｾﾄｼ","kana_address":"ﾋｼﾉﾁｮｳ","pref":"愛知県","city":"瀬戸市","address":"菱野町"},
{"zip_code":"4890004","kana_pref":"ｱｲﾁｹﾝ","kana_city":"ｾﾄｼ","kana_address":"ﾋﾉﾃﾞﾁｮｳ","pref":"愛知県","city":"瀬戸市","address":"日の出町"},
{"zip_code":"4890981","kana_pref":"ｱｲﾁｹﾝ","kana_city":"ｾﾄｼ","kana_address":"ﾋﾏﾜﾘﾀﾞｲ","pref":"愛知県","city":"瀬戸市","address":"ひまわり台"},
{"zip_code":"4890916","kana_pref":"ｱｲﾁｹﾝ","kana_city":"ｾﾄｼ","kana_address":"ﾋﾗﾏﾁ","pref":"愛知県","city":"瀬戸市","address":"平町"},
{"zip_code":"4890856","kana_pref":"ｱｲﾁｹﾝ","kana_city":"ｾﾄｼ","kana_address":"ﾋﾛｸﾃﾁｮｳ","pref":"愛知県","city":"瀬戸市","address":"広久手町"},
{"zip_code":"4890076","kana_pref":"ｱｲﾁｹﾝ","kana_city":"ｾﾄｼ","kana_address":"ﾌｶｶﾞﾜﾁｮｳ","pref":"愛知県","city":"瀬戸市","address":"深川町"},
{"zip_code":"4890935","kana_pref":"ｱｲﾁｹﾝ","kana_city":"ｾﾄｼ","kana_address":"ﾌｸﾓﾄﾁｮｳ","pref":"愛知県","city":"瀬戸市","address":"福元町"},
{"zip_code":"4890907","kana_pref":"ｱｲﾁｹﾝ","kana_city":"ｾﾄｼ","kana_address":"ﾌｼﾞﾉﾀﾞｲ","pref":"愛知県","city":"瀬戸市","address":"ふじの台"},
{"zip_code":"4890945","kana_pref":"ｱｲﾁｹﾝ","kana_city":"ｾﾄｼ","kana_address":"ﾍﾞﾝﾃﾝﾁｮｳ","pref":"愛知県","city":"瀬戸市","address":"弁天町"},
{"zip_code":"4890979","kana_pref":"ｱｲﾁｹﾝ","kana_city":"ｾﾄｼ","kana_address":"ﾎﾞｳｶﾞﾈﾁｮｳ","pref":"愛知県","city":"瀬戸市","address":"坊金町"},
{"zip_code":"4890906","kana_pref":"ｱｲﾁｹﾝ","kana_city":"ｾﾄｼ","kana_address":"ﾎﾝｺﾞｳﾁｮｳ","pref":"愛知県","city":"瀬戸市","address":"本郷町"},
{"zip_code":"4890828","kana_pref":"ｱｲﾁｹﾝ","kana_city":"ｾﾄｼ","kana_address":"ﾏｴﾀﾞﾁｮｳ","pref":"愛知県","city":"瀬戸市","address":"前田町"},
{"zip_code":"4890914","kana_pref":"ｱｲﾁｹﾝ","kana_city":"ｾﾄｼ","kana_address":"ﾏｺﾞﾀﾁｮｳ","pref":"愛知県","city":"瀬戸市","address":"孫田町"},
{"zip_code":"4890985","kana_pref":"ｱｲﾁｹﾝ","kana_city":"ｾﾄｼ","kana_address":"ﾏﾂﾊﾞﾗﾁｮｳ","pref":"愛知県","city":"瀬戸市","address":"松原町"},
{"zip_code":"4890006","kana_pref":"ｱｲﾁｹﾝ","kana_city":"ｾﾄｼ","kana_address":"ﾐｻﾜﾁｮｳ","pref":"愛知県","city":"瀬戸市","address":"三沢町"},
{"zip_code":"4890909","kana_pref":"ｱｲﾁｹﾝ","kana_city":"ｾﾄｼ","kana_address":"ﾐｽﾞﾉｻﾞｶ","pref":"愛知県","city":"瀬戸市","address":"みずの坂"},
{"zip_code":"4890808","kana_pref":"ｱｲﾁｹﾝ","kana_city":"ｾﾄｼ","kana_address":"ﾐﾂｹﾁｮｳ","pref":"愛知県","city":"瀬戸市","address":"見付町"},
{"zip_code":"4890875","kana_pref":"ｱｲﾁｹﾝ","kana_city":"ｾﾄｼ","kana_address":"ﾐﾄﾞﾘﾁｮｳ","pref":"愛知県","city":"瀬戸市","address":"緑町"},
{"zip_code":"4890872","kana_pref":"ｱｲﾁｹﾝ","kana_city":"ｾﾄｼ","kana_address":"ﾐﾅｾﾁｮｳ","pref":"愛知県","city":"瀬戸市","address":"水無瀬町"},
{"zip_code":"4890834","kana_pref":"ｱｲﾁｹﾝ","kana_city":"ｾﾄｼ","kana_address":"ﾐﾅﾐｱｽﾞﾏﾁｮｳ","pref":"愛知県","city":"瀬戸市","address":"南東町"},
{"zip_code":"4890955","kana_pref":"ｱｲﾁｹﾝ","kana_city":"ｾﾄｼ","kana_address":"ﾐﾅﾐｶﾞｵｶﾁｮｳ","pref":"愛知県","city":"瀬戸市","address":"南ケ丘町"},
{"zip_code":"4890016","kana_pref":"ｱｲﾁｹﾝ","kana_city":"ｾﾄｼ","kana_address":"ﾐﾅﾐｼﾗｻｶﾁｮｳ","pref":"愛知県","city":"瀬戸市","address":"南白坂町"},
{"zip_code":"4890815","kana_pref":"ｱｲﾁｹﾝ","kana_city":"ｾﾄｼ","kana_address":"ﾐﾅﾐﾅｶﾉｷﾘﾁｮｳ","pref":"愛知県","city":"瀬戸市","address":"南仲之切町"},
{"zip_code":"4890937","kana_pref":"ｱｲﾁｹﾝ","kana_city":"ｾﾄｼ","kana_address":"ﾐﾅﾐﾋｼﾉﾁｮｳ","pref":"愛知県","city":"瀬戸市","address":"南菱野町"},
{"zip_code":"4890965","kana_pref":"ｱｲﾁｹﾝ","kana_city":"ｾﾄｼ","kana_address":"ﾐﾅﾐﾔﾏｸﾞﾁﾁｮｳ","pref":"愛知県","city":"瀬戸市","address":"南山口町"},
{"zip_code":"4890986","kana_pref":"ｱｲﾁｹﾝ","kana_city":"ｾﾄｼ","kana_address":"ﾐﾅﾐﾔﾏﾁｮｳ","pref":"愛知県","city":"瀬戸市","address":"南山町"},
{"zip_code":"4890932","kana_pref":"ｱｲﾁｹﾝ","kana_city":"ｾﾄｼ","kana_address":"ﾐﾉﾉｲｹﾁｮｳ","pref":"愛知県","city":"瀬戸市","address":"美濃池町"},
{"zip_code":"4890077","kana_pref":"ｱｲﾁｹﾝ","kana_city":"ｾﾄｼ","kana_address":"ﾐﾔｻﾞﾄﾁｮｳ","pref":"愛知県","city":"瀬戸市","address":"宮里町"},
{"zip_code":"4890963","kana_pref":"ｱｲﾁｹﾝ","kana_city":"ｾﾄｼ","kana_address":"ﾐﾔｼﾞﾁｮｳ","pref":"愛知県","city":"瀬戸市","address":"宮地町"},
{"zip_code":"4890074","kana_pref":"ｱｲﾁｹﾝ","kana_city":"ｾﾄｼ","kana_address":"ﾐﾔﾜｷﾁｮｳ","pref":"愛知県","city":"瀬戸市","address":"宮脇町"},
{"zip_code":"4890046","kana_pref":"ｱｲﾁｹﾝ","kana_city":"ｾﾄｼ","kana_address":"ﾓﾄﾏﾁ","pref":"愛知県","city":"瀬戸市","address":"元町"},
{"zip_code":"4890844","kana_pref":"ｱｲﾁｹﾝ","kana_city":"ｾﾄｼ","kana_address":"ﾓﾝｾﾞﾝﾁｮｳ","pref":"愛知県","city":"瀬戸市","address":"門前町"},
{"zip_code":"4890866","kana_pref":"ｱｲﾁｹﾝ","kana_city":"ｾﾄｼ","kana_address":"ﾔｶﾀﾁｮｳ","pref":"愛知県","city":"瀬戸市","address":"矢形町"},
{"zip_code":"4890821","kana_pref":"ｱｲﾁｹﾝ","kana_city":"ｾﾄｼ","kana_address":"ﾔｸｼﾏﾁ","pref":"愛知県","city":"瀬戸市","address":"薬師町"},
{"zip_code":"4890052","kana_pref":"ｱｲﾁｹﾝ","kana_city":"ｾﾄｼ","kana_address":"ﾔｽﾄﾞﾁｮｳ","pref":"愛知県","city":"瀬戸市","address":"安戸町"},
{"zip_code":"4890858","kana_pref":"ｱｲﾁｹﾝ","kana_city":"ｾﾄｼ","kana_address":"ﾔﾄﾁｮｳ","pref":"愛知県","city":"瀬戸市","address":"屋戸町"},
{"zip_code":"4890953","kana_pref":"ｱｲﾁｹﾝ","kana_city":"ｾﾄｼ","kana_address":"ﾔﾅｶﾞﾂﾎﾞﾁｮｳ","pref":"愛知県","city":"瀬戸市","address":"柳ケ坪町"},
{"zip_code":"4890865","kana_pref":"ｱｲﾁｹﾝ","kana_city":"ｾﾄｼ","kana_address":"ﾔﾏｸﾞﾁﾁｮｳ","pref":"愛知県","city":"瀬戸市","address":"山口町"},
{"zip_code":"4890859","kana_pref":"ｱｲﾁｹﾝ","kana_city":"ｾﾄｼ","kana_address":"ﾔﾏｼﾞﾁｮｳ","pref":"愛知県","city":"瀬戸市","address":"山路町"},
{"zip_code":"4890980","kana_pref":"ｱｲﾁｹﾝ","kana_city":"ｾﾄｼ","kana_address":"ﾔﾏﾃｻﾞｶ","pref":"愛知県","city":"瀬戸市","address":"やまて坂"},
{"zip_code":"4890989","kana_pref":"ｱｲﾁｹﾝ","kana_city":"ｾﾄｼ","kana_address":"ﾔﾏﾃﾁｮｳ","pref":"愛知県","city":"瀬戸市","address":"山手町"},
{"zip_code":"4890975","kana_pref":"ｱｲﾁｹﾝ","kana_city":"ｾﾄｼ","kana_address":"ﾔﾏﾉﾀﾁｮｳ","pref":"愛知県","city":"瀬戸市","address":"山の田町"},
{"zip_code":"4890811","kana_pref":"ｱｲﾁｹﾝ","kana_city":"ｾﾄｼ","kana_address":"ﾔﾏﾜｷﾁｮｳ","pref":"愛知県","city":"瀬戸市","address":"山脇町"},
{"zip_code":"4890078","kana_pref":"ｱｲﾁｹﾝ","kana_city":"ｾﾄｼ","kana_address":"ﾕﾉﾈﾁｮｳ","pref":"愛知県","city":"瀬戸市","address":"湯之根町"},
{"zip_code":"4890903","kana_pref":"ｱｲﾁｹﾝ","kana_city":"ｾﾄｼ","kana_address":"ﾕﾘﾉﾀﾞｲ","pref":"愛知県","city":"瀬戸市","address":"ゆりの台"},
{"zip_code":"4890857","kana_pref":"ｱｲﾁｹﾝ","kana_city":"ｾﾄｼ","kana_address":"ﾖｼﾉﾁｮｳ","pref":"愛知県","city":"瀬戸市","address":"吉野町"},
{"zip_code":"4890002","kana_pref":"ｱｲﾁｹﾝ","kana_city":"ｾﾄｼ","kana_address":"ﾖﾄﾞｺﾁｮｳ","pref":"愛知県","city":"瀬戸市","address":"余床町"},
{"zip_code":"4890864","kana_pref":"ｱｲﾁｹﾝ","kana_city":"ｾﾄｼ","kana_address":"ﾜｶﾐﾔﾁｮｳ","pref":"愛知県","city":"瀬戸市","address":"若宮町"}]}