{"zip_code":[
{"zip_code":"4910000","kana_pref":"ｱｲﾁｹﾝ","kana_city":"ｲﾁﾉﾐﾔｼ","kana_address":"","pref":"愛知県","city":"一宮市","address":""},
{"zip_code":"4910882","kana_pref":"ｱｲﾁｹﾝ","kana_city":"ｲﾁﾉﾐﾔｼ","kana_address":"ｱｲｵｲ","pref":"愛知県","city":"一宮市","address":"相生"},
{"zip_code":"4910023","kana_pref":"ｱｲﾁｹﾝ","kana_city":"ｲﾁﾉﾐﾔｼ","kana_address":"ｱｶﾐ","pref":"愛知県","city":"一宮市","address":"赤見"},
{"zip_code":"4910871","kana_pref":"ｱｲﾁｹﾝ","kana_city":"ｲﾁﾉﾐﾔｼ","kana_address":"ｱｻﾉ","pref":"愛知県","city":"一宮市","address":"浅野"},
{"zip_code":"4910028","kana_pref":"ｱｲﾁｹﾝ","kana_city":"ｲﾁﾉﾐﾔｼ","kana_address":"ｱｻﾋ","pref":"愛知県","city":"一宮市","address":"朝日"},
{"zip_code":"4910114","kana_pref":"ｱｲﾁｹﾝ","kana_city":"ｲﾁﾉﾐﾔｼ","kana_address":"ｱｻﾞｲﾁｮｳｴﾓﾘ","pref":"愛知県","city":"一宮市","address":"浅井町江森"},
{"zip_code":"4910143","kana_pref":"ｱｲﾁｹﾝ","kana_city":"ｲﾁﾉﾐﾔｼ","kana_address":"ｱｻﾞｲﾁｮｳｵｵﾉ","pref":"愛知県","city":"一宮市","address":"浅井町大野"},
{"zip_code":"4910105","kana_pref":"ｱｲﾁｹﾝ","kana_city":"ｲﾁﾉﾐﾔｼ","kana_address":"ｱｻﾞｲﾁｮｳｵｵﾋﾋﾞﾉ","pref":"愛知県","city":"一宮市","address":"浅井町大日比野"},
{"zip_code":"4910101","kana_pref":"ｱｲﾁｹﾝ","kana_city":"ｲﾁﾉﾐﾔｼ","kana_address":"ｱｻﾞｲﾁｮｳｵｾﾞｷ","pref":"愛知県","city":"一宮市","address":"浅井町尾関"},
{"zip_code":"4910102","kana_pref":"ｱｲﾁｹﾝ","kana_city":"ｲﾁﾉﾐﾔｼ","kana_address":"ｱｻﾞｲﾁｮｳｵｾﾞｷ","pref":"愛知県","city":"一宮市","address":"浅井町尾関"},
{"zip_code":"4910141","kana_pref":"ｱｲﾁｹﾝ","kana_city":"ｲﾁﾉﾐﾔｼ","kana_address":"ｱｻﾞｲﾁｮｳｸﾛｲﾜ","pref":"愛知県","city":"一宮市","address":"浅井町黒岩"},
{"zip_code":"4910142","kana_pref":"ｱｲﾁｹﾝ","kana_city":"ｲﾁﾉﾐﾔｼ","kana_address":"ｱｻﾞｲﾁｮｳｺｳﾀﾞ","pref":"愛知県","city":"一宮市","address":"浅井町河田"},
{"zip_code":"4910111","kana_pref":"ｱｲﾁｹﾝ","kana_city":"ｲﾁﾉﾐﾔｼ","kana_address":"ｱｻﾞｲﾁｮｳｺｳﾊﾞﾀ","pref":"愛知県","city":"一宮市","address":"浅井町河端"},
{"zip_code":"4910104","kana_pref":"ｱｲﾁｹﾝ","kana_city":"ｲﾁﾉﾐﾔｼ","kana_address":"ｱｻﾞｲﾁｮｳｺﾋﾋﾞﾉ","pref":"愛知県","city":"一宮市","address":"浅井町小日比野"},
{"zip_code":"4910144","kana_pref":"ｱｲﾁｹﾝ","kana_city":"ｲﾁﾉﾐﾔｼ","kana_address":"ｱｻﾞｲﾁｮｳｺﾞｸﾗｸｼﾞ","pref":"愛知県","city":"一宮市","address":"浅井町極楽寺"},
{"zip_code":"4910112","kana_pref":"ｱｲﾁｹﾝ","kana_city":"ｲﾁﾉﾐﾔｼ","kana_address":"ｱｻﾞｲﾁｮｳﾋｶﾞｼｱｻﾞｲ","pref":"愛知県","city":"一宮市","address":"浅井町東浅井"},
{"zip_code":"4910113","kana_pref":"ｱｲﾁｹﾝ","kana_city":"ｲﾁﾉﾐﾔｼ","kana_address":"ｱｻﾞｲﾁｮｳﾆｼｱｻﾞｲ","pref":"愛知県","city":"一宮市","address":"浅井町西浅井"},
{"zip_code":"4910115","kana_pref":"ｱｲﾁｹﾝ","kana_city":"ｲﾁﾉﾐﾔｼ","kana_address":"ｱｻﾞｲﾁｮｳﾆｼｶﾞｲﾄﾞ","pref":"愛知県","city":"一宮市","address":"浅井町西海戸"},
{"zip_code":"4910103","kana_pref":"ｱｲﾁｹﾝ","kana_city":"ｲﾁﾉﾐﾔｼ","kana_address":"ｱｻﾞｲﾁｮｳﾏｴﾉ","pref":"愛知県","city":"一宮市","address":"浅井町前野"},
{"zip_code":"4910835","kana_pref":"ｱｲﾁｹﾝ","kana_city":"ｲﾁﾉﾐﾔｼ","kana_address":"ｱｽﾞﾗ","pref":"愛知県","city":"一宮市","address":"あずら"},
{"zip_code":"4910902","kana_pref":"ｱｲﾁｹﾝ","kana_city":"ｲﾁﾉﾐﾔｼ","kana_address":"ｲｼｷﾁｮｳ","pref":"愛知県","city":"一宮市","address":"一色町"},
{"zip_code":"4910855","kana_pref":"ｱｲﾁｹﾝ","kana_city":"ｲﾁﾉﾐﾔｼ","kana_address":"ｲｼﾔﾏﾁｮｳ","pref":"愛知県","city":"一宮市","address":"石山町"},
{"zip_code":"4910861","kana_pref":"ｱｲﾁｹﾝ","kana_city":"ｲﾁﾉﾐﾔｼ","kana_address":"ｲｽﾞﾐ","pref":"愛知県","city":"一宮市","address":"泉"},
{"zip_code":"4910059","kana_pref":"ｱｲﾁｹﾝ","kana_city":"ｲﾁﾉﾐﾔｼ","kana_address":"ｲﾁﾉﾐﾔ","pref":"愛知県","city":"一宮市","address":"一宮"},
{"zip_code":"4910061","kana_pref":"ｱｲﾁｹﾝ","kana_city":"ｲﾁﾉﾐﾔｼ","kana_address":"ｲﾇｲﾁｮｳ","pref":"愛知県","city":"一宮市","address":"乾町"},
{"zip_code":"4910058","kana_pref":"ｱｲﾁｹﾝ","kana_city":"ｲﾁﾉﾐﾔｼ","kana_address":"ｲﾏｲｾﾁｮｳｳﾏﾖｾ","pref":"愛知県","city":"一宮市","address":"今伊勢町馬寄"},
{"zip_code":"4910051","kana_pref":"ｱｲﾁｹﾝ","kana_city":"ｲﾁﾉﾐﾔｼ","kana_address":"ｲﾏｲｾﾁｮｳｳﾏﾖｾ","pref":"愛知県","city":"一宮市","address":"今伊勢町馬寄"},
{"zip_code":"4910052","kana_pref":"ｱｲﾁｹﾝ","kana_city":"ｲﾁﾉﾐﾔｼ","kana_address":"ｲﾏｲｾﾁｮｳｼﾝｶﾝﾍﾞ","pref":"愛知県","city":"一宮市","address":"今伊勢町新神戸"},
{"zip_code":"4910053","kana_pref":"ｱｲﾁｹﾝ","kana_city":"ｲﾁﾉﾐﾔｼ","kana_address":"ｲﾏｲｾﾁｮｳﾎﾝｶﾝﾍﾞ","pref":"愛知県","city":"一宮市","address":"今伊勢町本神戸"},
{"zip_code":"4910057","kana_pref":"ｱｲﾁｹﾝ","kana_city":"ｲﾁﾉﾐﾔｼ","kana_address":"ｲﾏｲｾﾁｮｳﾐﾔｳｼﾛ","pref":"愛知県","city":"一宮市","address":"今伊勢町宮後"},
{"zip_code":"4910865","kana_pref":"ｱｲﾁｹﾝ","kana_city":"ｲﾁﾉﾐﾔｼ","kana_address":"ｲﾝﾃﾞﾝﾄﾞｵﾘ","pref":"愛知県","city":"一宮市","address":"印田通"},
{"zip_code":"4910846","kana_pref":"ｱｲﾁｹﾝ","kana_city":"ｲﾁﾉﾐﾔｼ","kana_address":"ｳｼﾉﾄﾞｵﾘ","pref":"愛知県","city":"一宮市","address":"牛野通"},
{"zip_code":"4910015","kana_pref":"ｱｲﾁｹﾝ","kana_city":"ｲﾁﾉﾐﾔｼ","kana_address":"ｵｵｱｶﾐ","pref":"愛知県","city":"一宮市","address":"大赤見"},
{"zip_code":"4910851","kana_pref":"ｱｲﾁｹﾝ","kana_city":"ｲﾁﾉﾐﾔｼ","kana_address":"ｵｵｴ","pref":"愛知県","city":"一宮市","address":"大江"},
{"zip_code":"4910132","kana_pref":"ｱｲﾁｹﾝ","kana_city":"ｲﾁﾉﾐﾔｼ","kana_address":"ｵｵｹ","pref":"愛知県","city":"一宮市","address":"大毛"},
{"zip_code":"4910035","kana_pref":"ｱｲﾁｹﾝ","kana_city":"ｲﾁﾉﾐﾔｼ","kana_address":"ｵｵﾊﾏ","pref":"愛知県","city":"一宮市","address":"大浜"},
{"zip_code":"4910044","kana_pref":"ｱｲﾁｹﾝ","kana_city":"ｲﾁﾉﾐﾔｼ","kana_address":"ｵｵﾐﾔ","pref":"愛知県","city":"一宮市","address":"大宮"},
{"zip_code":"4910201","kana_pref":"ｱｲﾁｹﾝ","kana_city":"ｲﾁﾉﾐﾔｼ","kana_address":"ｵｸﾁｮｳ","pref":"愛知県","city":"一宮市","address":"奥町"},
{"zip_code":"4910068","kana_pref":"ｱｲﾁｹﾝ","kana_city":"ｲﾁﾉﾐﾔｼ","kana_address":"ｵｸﾞﾘﾁｮｳ","pref":"愛知県","city":"一宮市","address":"小栗町"},
{"zip_code":"4910045","kana_pref":"ｱｲﾁｹﾝ","kana_city":"ｲﾁﾉﾐﾔｼ","kana_address":"ｵﾄﾜ","pref":"愛知県","city":"一宮市","address":"音羽"},
{"zip_code":"4910082","kana_pref":"ｱｲﾁｹﾝ","kana_city":"ｲﾁﾉﾐﾔｼ","kana_address":"ｵﾊﾗﾁｮｳ","pref":"愛知県","city":"一宮市","address":"小原町"},
{"zip_code":"4910904","kana_pref":"ｱｲﾁｹﾝ","kana_city":"ｲﾁﾉﾐﾔｼ","kana_address":"ｶﾐﾔﾏ","pref":"愛知県","city":"一宮市","address":"神山"},
{"zip_code":"4910933","kana_pref":"ｱｲﾁｹﾝ","kana_city":"ｲﾁﾉﾐﾔｼ","kana_address":"ｶﾘﾔｽｶ","pref":"愛知県","city":"一宮市","address":"苅安賀"},
{"zip_code":"4910853","kana_pref":"ｱｲﾁｹﾝ","kana_city":"ｲﾁﾉﾐﾔｼ","kana_address":"ｶﾜﾀﾞﾁｮｳ","pref":"愛知県","city":"一宮市","address":"川田町"},
{"zip_code":"4910916","kana_pref":"ｱｲﾁｹﾝ","kana_city":"ｲﾁﾉﾐﾔｼ","kana_address":"ｶﾝﾉﾝｼﾞ","pref":"愛知県","city":"一宮市","address":"観音寺"},
{"zip_code":"4910031","kana_pref":"ｱｲﾁｹﾝ","kana_city":"ｲﾁﾉﾐﾔｼ","kana_address":"ｶﾝﾉﾝﾁｮｳ","pref":"愛知県","city":"一宮市","address":"観音町"},
{"zip_code":"4910055","kana_pref":"ｱｲﾁｹﾝ","kana_city":"ｲﾁﾉﾐﾔｼ","kana_address":"ｶﾝﾍﾞﾁｮｳ","pref":"愛知県","city":"一宮市","address":"神戸町"},
{"zip_code":"4910901","kana_pref":"ｱｲﾁｹﾝ","kana_city":"ｲﾁﾉﾐﾔｼ","kana_address":"ｷﾀｳﾗﾁｮｳ","pref":"愛知県","city":"一宮市","address":"北浦町"},
{"zip_code":"4910013","kana_pref":"ｱｲﾁｹﾝ","kana_city":"ｲﾁﾉﾐﾔｼ","kana_address":"ｷﾀｵﾌﾞﾁ","pref":"愛知県","city":"一宮市","address":"北小渕"},
{"zip_code":"4910069","kana_pref":"ｱｲﾁｹﾝ","kana_city":"ｲﾁﾉﾐﾔｼ","kana_address":"ｷﾀｼﾝﾒｲﾁｮｳ","pref":"愛知県","city":"一宮市","address":"北神明町"},
{"zip_code":"4910854","kana_pref":"ｱｲﾁｹﾝ","kana_city":"ｲﾁﾉﾐﾔｼ","kana_address":"ｷﾀｿﾞﾉﾄﾞｵﾘ","pref":"愛知県","city":"一宮市","address":"北園通"},
{"zip_code":"4910037","kana_pref":"ｱｲﾁｹﾝ","kana_city":"ｲﾁﾉﾐﾔｼ","kana_address":"ｷﾌﾈ","pref":"愛知県","city":"一宮市","address":"貴船"},
{"zip_code":"4910076","kana_pref":"ｱｲﾁｹﾝ","kana_city":"ｲﾁﾉﾐﾔｼ","kana_address":"ｷﾌﾈﾁｮｳ","pref":"愛知県","city":"一宮市","address":"貴船町"},
{"zip_code":"4910079","kana_pref":"ｱｲﾁｹﾝ","kana_city":"ｲﾁﾉﾐﾔｼ","kana_address":"ｸﾎﾝﾁｮｳ","pref":"愛知県","city":"一宮市","address":"九品町"},
{"zip_code":"4910012","kana_pref":"ｱｲﾁｹﾝ","kana_city":"ｲﾁﾉﾐﾔｼ","kana_address":"ｺｱｶﾐ","pref":"愛知県","city":"一宮市","address":"小赤見"},
{"zip_code":"4910842","kana_pref":"ｱｲﾁｹﾝ","kana_city":"ｲﾁﾉﾐﾔｼ","kana_address":"ｺｳｴﾝﾄﾞｵﾘ","pref":"愛知県","city":"一宮市","address":"公園通"},
{"zip_code":"4910135","kana_pref":"ｱｲﾁｹﾝ","kana_city":"ｲﾁﾉﾐﾔｼ","kana_address":"ｺｳﾐｮｳｼﾞ","pref":"愛知県","city":"一宮市","address":"光明寺"},
{"zip_code":"4910867","kana_pref":"ｱｲﾁｹﾝ","kana_city":"ｲﾁﾉﾐﾔｼ","kana_address":"ｺｶﾞﾈﾏﾁ","pref":"愛知県","city":"一宮市","address":"古金町"},
{"zip_code":"4910084","kana_pref":"ｱｲﾁｹﾝ","kana_city":"ｲﾁﾉﾐﾔｼ","kana_address":"ｺｹﾝﾁｮｳ","pref":"愛知県","city":"一宮市","address":"古見町"},
{"zip_code":"4910858","kana_pref":"ｱｲﾁｹﾝ","kana_city":"ｲﾁﾉﾐﾔｼ","kana_address":"ｻｶｴ","pref":"愛知県","city":"一宮市","address":"栄"},
{"zip_code":"4910036","kana_pref":"ｱｲﾁｹﾝ","kana_city":"ｲﾁﾉﾐﾔｼ","kana_address":"ｻｸﾗ","pref":"愛知県","city":"一宮市","address":"桜"},
{"zip_code":"4910131","kana_pref":"ｱｲﾁｹﾝ","kana_city":"ｲﾁﾉﾐﾔｼ","kana_address":"ｻｻﾉ","pref":"愛知県","city":"一宮市","address":"笹野"},
{"zip_code":"4910124","kana_pref":"ｱｲﾁｹﾝ","kana_city":"ｲﾁﾉﾐﾔｼ","kana_address":"ｻﾁﾊﾗ","pref":"愛知県","city":"一宮市","address":"佐千原"},
{"zip_code":"4910134","kana_pref":"ｱｲﾁｹﾝ","kana_city":"ｲﾁﾉﾐﾔｼ","kana_address":"ｻﾗﾔｼｷ","pref":"愛知県","city":"一宮市","address":"更屋敷"},
{"zip_code":"4910838","kana_pref":"ｱｲﾁｹﾝ","kana_city":"ｲﾁﾉﾐﾔｼ","kana_address":"ｻﾙｶｲﾄﾞｳ","pref":"愛知県","city":"一宮市","address":"猿海道"},
{"zip_code":"4910066","kana_pref":"ｱｲﾁｹﾝ","kana_city":"ｲﾁﾉﾐﾔｼ","kana_address":"ｻﾝﾀﾝﾁｮｳ","pref":"愛知県","city":"一宮市","address":"三丹町"},
{"zip_code":"4910834","kana_pref":"ｱｲﾁｹﾝ","kana_city":"ｲﾁﾉﾐﾔｼ","kana_address":"ｼﾏｻｷ","pref":"愛知県","city":"一宮市","address":"島崎"},
{"zip_code":"4910121","kana_pref":"ｱｲﾁｹﾝ","kana_city":"ｲﾁﾉﾐﾔｼ","kana_address":"ｼﾏﾑﾗ","pref":"愛知県","city":"一宮市","address":"島村"},
{"zip_code":"4910122","kana_pref":"ｱｲﾁｹﾝ","kana_city":"ｲﾁﾉﾐﾔｼ","kana_address":"ｼﾏﾑﾗ","pref":"愛知県","city":"一宮市","address":"島村"},
{"zip_code":"4910845","kana_pref":"ｱｲﾁｹﾝ","kana_city":"ｲﾁﾉﾐﾔｼ","kana_address":"ｼﾓｶﾜﾀﾞﾁｮｳ","pref":"愛知県","city":"一宮市","address":"下川田町"},
{"zip_code":"4910883","kana_pref":"ｱｲﾁｹﾝ","kana_city":"ｲﾁﾉﾐﾔｼ","kana_address":"ｼﾓﾀﾞ","pref":"愛知県","city":"一宮市","address":"下田"},
{"zip_code":"4910032","kana_pref":"ｱｲﾁｹﾝ","kana_city":"ｲﾁﾉﾐﾔｼ","kana_address":"ｼﾓﾇﾏﾁｮｳ","pref":"愛知県","city":"一宮市","address":"下沼町"},
{"zip_code":"4910003","kana_pref":"ｱｲﾁｹﾝ","kana_city":"ｲﾁﾉﾐﾔｼ","kana_address":"ｼｭﾝﾒｲ","pref":"愛知県","city":"一宮市","address":"春明"},
{"zip_code":"4910063","kana_pref":"ｱｲﾁｹﾝ","kana_city":"ｲﾁﾉﾐﾔｼ","kana_address":"ｼﾞｮｳｶﾞﾝﾄﾞｵﾘ","pref":"愛知県","city":"一宮市","address":"常願通"},
{"zip_code":"4910004","kana_pref":"ｱｲﾁｹﾝ","kana_city":"ｲﾁﾉﾐﾔｼ","kana_address":"ｼﾞｮｳｽｲｼﾞ","pref":"愛知県","city":"一宮市","address":"定水寺"},
{"zip_code":"4910917","kana_pref":"ｱｲﾁｹﾝ","kana_city":"ｲﾁﾉﾐﾔｼ","kana_address":"ｼｮｳﾜ","pref":"愛知県","city":"一宮市","address":"昭和"},
{"zip_code":"4910866","kana_pref":"ｱｲﾁｹﾝ","kana_city":"ｲﾁﾉﾐﾔｼ","kana_address":"ｼﾛｻｷﾄﾞｵﾘ","pref":"愛知県","city":"一宮市","address":"城崎通"},
{"zip_code":"4910879","kana_pref":"ｱｲﾁｹﾝ","kana_city":"ｲﾁﾉﾐﾔｼ","kana_address":"ｼﾛﾊﾀﾄﾞｵﾘ","pref":"愛知県","city":"一宮市","address":"白旗通"},
{"zip_code":"4910912","kana_pref":"ｱｲﾁｹﾝ","kana_city":"ｲﾁﾉﾐﾔｼ","kana_address":"ｼﾝｾｲ","pref":"愛知県","city":"一宮市","address":"新生"},
{"zip_code":"4910918","kana_pref":"ｱｲﾁｹﾝ","kana_city":"ｲﾁﾉﾐﾔｼ","kana_address":"ｽｴﾋﾛ","pref":"愛知県","city":"一宮市","address":"末広"},
{"zip_code":"4910136","kana_pref":"ｱｲﾁｹﾝ","kana_city":"ｲﾁﾉﾐﾔｼ","kana_address":"ｽｷﾞﾔﾏ","pref":"愛知県","city":"一宮市","address":"杉山"},
{"zip_code":"4910919","kana_pref":"ｱｲﾁｹﾝ","kana_city":"ｲﾁﾉﾐﾔｼ","kana_address":"ｽﾐﾖｼ","pref":"愛知県","city":"一宮市","address":"住吉"},
{"zip_code":"4910001","kana_pref":"ｱｲﾁｹﾝ","kana_city":"ｲﾁﾉﾐﾔｼ","kana_address":"ｾﾍﾞ","pref":"愛知県","city":"一宮市","address":"瀬部"},
{"zip_code":"4910873","kana_pref":"ｱｲﾁｹﾝ","kana_city":"ｲﾁﾉﾐﾔｼ","kana_address":"ｾﾝｲ","pref":"愛知県","city":"一宮市","address":"せんい"},
{"zip_code":"4910852","kana_pref":"ｱｲﾁｹﾝ","kana_city":"ｲﾁﾉﾐﾔｼ","kana_address":"ﾀﾞｲｼ","pref":"愛知県","city":"一宮市","address":"大志"},
{"zip_code":"4910054","kana_pref":"ｱｲﾁｹﾝ","kana_city":"ｲﾁﾉﾐﾔｼ","kana_address":"ﾀｲｼｮｳﾄﾞｵﾘ","pref":"愛知県","city":"一宮市","address":"大正通"},
{"zip_code":"4910837","kana_pref":"ｱｲﾁｹﾝ","kana_city":"ｲﾁﾉﾐﾔｼ","kana_address":"ﾀｶｷ","pref":"愛知県","city":"一宮市","address":"多加木"},
{"zip_code":"4910125","kana_pref":"ｱｲﾁｹﾝ","kana_city":"ｲﾁﾉﾐﾔｼ","kana_address":"ﾀｶﾀ","pref":"愛知県","city":"一宮市","address":"高田"},
{"zip_code":"4910073","kana_pref":"ｱｲﾁｹﾝ","kana_city":"ｲﾁﾉﾐﾔｼ","kana_address":"ﾀｶﾊﾀﾁｮｳ","pref":"愛知県","city":"一宮市","address":"高畑町"},
{"zip_code":"4910937","kana_pref":"ｱｲﾁｹﾝ","kana_city":"ｲﾁﾉﾐﾔｼ","kana_address":"ﾀｹﾊｼﾁｮｳ","pref":"愛知県","city":"一宮市","address":"竹橋町"},
{"zip_code":"4910086","kana_pref":"ｱｲﾁｹﾝ","kana_city":"ｲﾁﾉﾐﾔｼ","kana_address":"ﾀｼﾞﾏﾁｮｳ","pref":"愛知県","city":"一宮市","address":"田島町"},
{"zip_code":"4910133","kana_pref":"ｱｲﾁｹﾝ","kana_city":"ｲﾁﾉﾐﾔｼ","kana_address":"ﾀﾄﾞｺﾛ","pref":"愛知県","city":"一宮市","address":"田所"},
{"zip_code":"4910823","kana_pref":"ｱｲﾁｹﾝ","kana_city":"ｲﾁﾉﾐﾔｼ","kana_address":"ﾀﾝﾖｳﾁｮｳｲﾂｶｲﾁﾊﾞ","pref":"愛知県","city":"一宮市","address":"丹陽町五日市場"},
{"zip_code":"4910824","kana_pref":"ｱｲﾁｹﾝ","kana_city":"ｲﾁﾉﾐﾔｼ","kana_address":"ﾀﾝﾖｳﾁｮｳｺｺﾉｶｲﾁﾊﾞ","pref":"愛知県","city":"一宮市","address":"丹陽町九日市場"},
{"zip_code":"4910838","kana_pref":"ｱｲﾁｹﾝ","kana_city":"ｲﾁﾉﾐﾔｼ","kana_address":"ﾀﾝﾖｳﾁｮｳｻﾙｶﾞｲﾄﾞｳ","pref":"愛知県","city":"一宮市","address":"丹陽町猿海道"},
{"zip_code":"4910821","kana_pref":"ｱｲﾁｹﾝ","kana_city":"ｲﾁﾉﾐﾔｼ","kana_address":"ﾀﾝﾖｳﾁｮｳｼｹﾞﾖｼ","pref":"愛知県","city":"一宮市","address":"丹陽町重吉"},
{"zip_code":"4910836","kana_pref":"ｱｲﾁｹﾝ","kana_city":"ｲﾁﾉﾐﾔｼ","kana_address":"ﾀﾝﾖｳﾁｮｳﾀｶｷ","pref":"愛知県","city":"一宮市","address":"丹陽町多加木"},
{"zip_code":"4910822","kana_pref":"ｱｲﾁｹﾝ","kana_city":"ｲﾁﾉﾐﾔｼ","kana_address":"ﾀﾝﾖｳﾁｮｳﾃﾞﾝﾎﾟｳｼﾞ","pref":"愛知県","city":"一宮市","address":"丹陽町伝法寺"},
{"zip_code":"4910825","kana_pref":"ｱｲﾁｹﾝ","kana_city":"ｲﾁﾉﾐﾔｼ","kana_address":"ﾀﾝﾖｳﾁｮｳﾄﾞｻｷ","pref":"愛知県","city":"一宮市","address":"丹陽町外崎"},
{"zip_code":"4910826","kana_pref":"ｱｲﾁｹﾝ","kana_city":"ｲﾁﾉﾐﾔｼ","kana_address":"ﾀﾝﾖｳﾁｮｳﾐﾂｲ","pref":"愛知県","city":"一宮市","address":"丹陽町三ツ井"},
{"zip_code":"4910827","kana_pref":"ｱｲﾁｹﾝ","kana_city":"ｲﾁﾉﾐﾔｼ","kana_address":"ﾀﾝﾖｳﾁｮｳﾓﾘﾓﾄ","pref":"愛知県","city":"一宮市","address":"丹陽町森本"},
{"zip_code":"4910816","kana_pref":"ｱｲﾁｹﾝ","kana_city":"ｲﾁﾉﾐﾔｼ","kana_address":"ﾁｱｷﾁｮｳｱｻﾉﾊﾈ","pref":"愛知県","city":"一宮市","address":"千秋町浅野羽根"},
{"zip_code":"4910805","kana_pref":"ｱｲﾁｹﾝ","kana_city":"ｲﾁﾉﾐﾔｼ","kana_address":"ﾁｱｷﾁｮｳｲｼｷ","pref":"愛知県","city":"一宮市","address":"千秋町一色"},
{"zip_code":"4910806","kana_pref":"ｱｲﾁｹﾝ","kana_city":"ｲﾁﾉﾐﾔｼ","kana_address":"ﾁｱｷﾁｮｳｳｷﾉ","pref":"愛知県","city":"一宮市","address":"千秋町浮野"},
{"zip_code":"4910814","kana_pref":"ｱｲﾁｹﾝ","kana_city":"ｲﾁﾉﾐﾔｼ","kana_address":"ﾁｱｷﾁｮｳｵﾔﾏ","pref":"愛知県","city":"一宮市","address":"千秋町小山"},
{"zip_code":"4910802","kana_pref":"ｱｲﾁｹﾝ","kana_city":"ｲﾁﾉﾐﾔｼ","kana_address":"ﾁｱｷﾁｮｳｶﾁｸﾘ","pref":"愛知県","city":"一宮市","address":"千秋町勝栗"},
{"zip_code":"4910811","kana_pref":"ｱｲﾁｹﾝ","kana_city":"ｲﾁﾉﾐﾔｼ","kana_address":"ﾁｱｷﾁｮｳｶﾉｳﾏﾝﾊﾞ","pref":"愛知県","city":"一宮市","address":"千秋町加納馬場"},
{"zip_code":"4910801","kana_pref":"ｱｲﾁｹﾝ","kana_city":"ｲﾁﾉﾐﾔｼ","kana_address":"ﾁｱｷﾁｮｳｶﾓ","pref":"愛知県","city":"一宮市","address":"千秋町加茂"},
{"zip_code":"4910804","kana_pref":"ｱｲﾁｹﾝ","kana_city":"ｲﾁﾉﾐﾔｼ","kana_address":"ﾁｱｷﾁｮｳｻﾉ","pref":"愛知県","city":"一宮市","address":"千秋町佐野"},
{"zip_code":"4910815","kana_pref":"ｱｲﾁｹﾝ","kana_city":"ｲﾁﾉﾐﾔｼ","kana_address":"ﾁｱｷﾁｮｳｼｵｼﾞﾘ","pref":"愛知県","city":"一宮市","address":"千秋町塩尻"},
{"zip_code":"4910812","kana_pref":"ｱｲﾁｹﾝ","kana_city":"ｲﾁﾉﾐﾔｼ","kana_address":"ﾁｱｷﾁｮｳｼﾊﾞﾊﾗ","pref":"愛知県","city":"一宮市","address":"千秋町芝原"},
{"zip_code":"4910817","kana_pref":"ｱｲﾁｹﾝ","kana_city":"ｲﾁﾉﾐﾔｼ","kana_address":"ﾁｱｷﾁｮｳﾃﾝﾏ","pref":"愛知県","city":"一宮市","address":"千秋町天摩"},
{"zip_code":"4910803","kana_pref":"ｱｲﾁｹﾝ","kana_city":"ｲﾁﾉﾐﾔｼ","kana_address":"ﾁｱｷﾁｮｳﾎﾂﾞﾐﾂｶﾓﾄ","pref":"愛知県","city":"一宮市","address":"千秋町穂積塚本"},
{"zip_code":"4910813","kana_pref":"ｱｲﾁｹﾝ","kana_city":"ｲﾁﾉﾐﾔｼ","kana_address":"ﾁｱｷﾁｮｳﾏﾁﾔ","pref":"愛知県","city":"一宮市","address":"千秋町町屋"},
{"zip_code":"4910075","kana_pref":"ｱｲﾁｹﾝ","kana_city":"ｲﾁﾉﾐﾔｼ","kana_address":"ﾃﾗｼﾏﾁｮｳ","pref":"愛知県","city":"一宮市","address":"寺島町"},
{"zip_code":"4910936","kana_pref":"ｱｲﾁｹﾝ","kana_city":"ｲﾁﾉﾐﾔｼ","kana_address":"ﾃﾗﾏｴﾁｮｳ","pref":"愛知県","city":"一宮市","address":"寺前町"},
{"zip_code":"4910046","kana_pref":"ｱｲﾁｹﾝ","kana_city":"ｲﾁﾉﾐﾔｼ","kana_address":"ﾃﾝﾉｳ","pref":"愛知県","city":"一宮市","address":"天王"},
{"zip_code":"4910002","kana_pref":"ｱｲﾁｹﾝ","kana_city":"ｲﾁﾉﾐﾔｼ","kana_address":"ﾄｷﾉｼﾏ","pref":"愛知県","city":"一宮市","address":"時之島"},
{"zip_code":"4910848","kana_pref":"ｱｲﾁｹﾝ","kana_city":"ｲﾁﾉﾐﾔｼ","kana_address":"ﾄﾉﾏﾁ","pref":"愛知県","city":"一宮市","address":"殿町"},
{"zip_code":"4910123","kana_pref":"ｱｲﾁｹﾝ","kana_city":"ｲﾁﾉﾐﾔｼ","kana_address":"ﾄﾐﾂｶ","pref":"愛知県","city":"一宮市","address":"富塚"},
{"zip_code":"4910072","kana_pref":"ｱｲﾁｹﾝ","kana_city":"ｲﾁﾉﾐﾔｼ","kana_address":"ﾅｶｼﾏﾄﾞｵﾘ","pref":"愛知県","city":"一宮市","address":"中島通"},
{"zip_code":"4910913","kana_pref":"ｱｲﾁｹﾝ","kana_city":"ｲﾁﾉﾐﾔｼ","kana_address":"ﾅｶﾏﾁ","pref":"愛知県","city":"一宮市","address":"中町"},
{"zip_code":"4910071","kana_pref":"ｱｲﾁｹﾝ","kana_city":"ｲﾁﾉﾐﾔｼ","kana_address":"ﾅｶﾞｼﾏﾁｮｳ","pref":"愛知県","city":"一宮市","address":"長島町"},
{"zip_code":"4910005","kana_pref":"ｱｲﾁｹﾝ","kana_city":"ｲﾁﾉﾐﾔｼ","kana_address":"ﾆｼｵｵｶﾞｲﾄﾞｳ","pref":"愛知県","city":"一宮市","address":"西大海道"},
{"zip_code":"4910081","kana_pref":"ｱｲﾁｹﾝ","kana_city":"ｲﾁﾉﾐﾔｼ","kana_address":"ﾆｼｵﾊﾗﾁｮｳ","pref":"愛知県","city":"一宮市","address":"西小原町"},
{"zip_code":"4910062","kana_pref":"ｱｲﾁｹﾝ","kana_city":"ｲﾁﾉﾐﾔｼ","kana_address":"ﾆｼｼﾞﾏﾁｮｳ","pref":"愛知県","city":"一宮市","address":"西島町"},
{"zip_code":"4910907","kana_pref":"ｱｲﾁｹﾝ","kana_city":"ｲﾁﾉﾐﾔｼ","kana_address":"ﾆｼﾃﾞﾁｮｳ","pref":"愛知県","city":"一宮市","address":"西出町"},
{"zip_code":"4910938","kana_pref":"ｱｲﾁｹﾝ","kana_city":"ｲﾁﾉﾐﾔｼ","kana_address":"ﾆｯｺｳﾁｮｳ","pref":"愛知県","city":"一宮市","address":"日光町"},
{"zip_code":"4910083","kana_pref":"ｱｲﾁｹﾝ","kana_city":"ｲﾁﾉﾐﾔｼ","kana_address":"ﾆﾜ","pref":"愛知県","city":"一宮市","address":"丹羽"},
{"zip_code":"4910911","kana_pref":"ｱｲﾁｹﾝ","kana_city":"ｲﾁﾉﾐﾔｼ","kana_address":"ﾉｸﾞﾁ","pref":"愛知県","city":"一宮市","address":"野口"},
{"zip_code":"4910354","kana_pref":"ｱｲﾁｹﾝ","kana_city":"ｲﾁﾉﾐﾔｼ","kana_address":"ﾊｷﾞﾜﾗﾁｮｳｱｻﾐﾔ","pref":"愛知県","city":"一宮市","address":"萩原町朝宮"},
{"zip_code":"4910366","kana_pref":"ｱｲﾁｹﾝ","kana_city":"ｲﾁﾉﾐﾔｼ","kana_address":"ﾊｷﾞﾜﾗﾁｮｳｶﾜﾀﾞｶﾞﾀ","pref":"愛知県","city":"一宮市","address":"萩原町河田方"},
{"zip_code":"4910376","kana_pref":"ｱｲﾁｹﾝ","kana_city":"ｲﾁﾉﾐﾔｼ","kana_address":"ﾊｷﾞﾜﾗﾁｮｳｸｼﾂｸﾘ","pref":"愛知県","city":"一宮市","address":"萩原町串作"},
{"zip_code":"4910371","kana_pref":"ｱｲﾁｹﾝ","kana_city":"ｲﾁﾉﾐﾔｼ","kana_address":"ﾊｷﾞﾜﾗﾁｮｳﾀｶｷﾞ","pref":"愛知県","city":"一宮市","address":"萩原町高木"},
{"zip_code":"4910373","kana_pref":"ｱｲﾁｹﾝ","kana_city":"ｲﾁﾉﾐﾔｼ","kana_address":"ﾊｷﾞﾜﾗﾁｮｳﾀｶﾏﾂ","pref":"愛知県","city":"一宮市","address":"萩原町高松"},
{"zip_code":"4910372","kana_pref":"ｱｲﾁｹﾝ","kana_city":"ｲﾁﾉﾐﾔｼ","kana_address":"ﾊｷﾞﾜﾗﾁｮｳﾀｷ","pref":"愛知県","city":"一宮市","address":"萩原町滝"},
{"zip_code":"4910374","kana_pref":"ｱｲﾁｹﾝ","kana_city":"ｲﾁﾉﾐﾔｼ","kana_address":"ﾊｷﾞﾜﾗﾁｮｳﾂｷｺﾐ","pref":"愛知県","city":"一宮市","address":"萩原町築込"},
{"zip_code":"4910375","kana_pref":"ｱｲﾁｹﾝ","kana_city":"ｲﾁﾉﾐﾔｼ","kana_address":"ﾊｷﾞﾜﾗﾁｮｳﾄｶﾞﾘ","pref":"愛知県","city":"一宮市","address":"萩原町戸苅"},
{"zip_code":"4910352","kana_pref":"ｱｲﾁｹﾝ","kana_city":"ｲﾁﾉﾐﾔｼ","kana_address":"ﾊｷﾞﾜﾗﾁｮｳﾄﾐﾀﾞｶﾞﾀ","pref":"愛知県","city":"一宮市","address":"萩原町富田方"},
{"zip_code":"4910364","kana_pref":"ｱｲﾁｹﾝ","kana_city":"ｲﾁﾉﾐﾔｼ","kana_address":"ﾊｷﾞﾜﾗﾁｮｳﾅｶｼﾏ","pref":"愛知県","city":"一宮市","address":"萩原町中島"},
{"zip_code":"4910365","kana_pref":"ｱｲﾁｹﾝ","kana_city":"ｲﾁﾉﾐﾔｼ","kana_address":"ﾊｷﾞﾜﾗﾁｮｳﾆｼﾐﾄﾞｳ","pref":"愛知県","city":"一宮市","address":"萩原町西御堂"},
{"zip_code":"4910363","kana_pref":"ｱｲﾁｹﾝ","kana_city":"ｲﾁﾉﾐﾔｼ","kana_address":"ﾊｷﾞﾜﾗﾁｮｳﾋｶﾞｼﾐﾔｼｹﾞ","pref":"愛知県","city":"一宮市","address":"萩原町東宮重"},
{"zip_code":"4910362","kana_pref":"ｱｲﾁｹﾝ","kana_city":"ｲﾁﾉﾐﾔｼ","kana_address":"ﾊｷﾞﾜﾗﾁｮｳﾆｼﾐﾔｼｹﾞ","pref":"愛知県","city":"一宮市","address":"萩原町西宮重"},
{"zip_code":"4910353","kana_pref":"ｱｲﾁｹﾝ","kana_city":"ｲﾁﾉﾐﾔｼ","kana_address":"ﾊｷﾞﾜﾗﾁｮｳﾊｷﾞﾜﾗ","pref":"愛知県","city":"一宮市","address":"萩原町萩原"},
{"zip_code":"4910351","kana_pref":"ｱｲﾁｹﾝ","kana_city":"ｲﾁﾉﾐﾔｼ","kana_address":"ﾊｷﾞﾜﾗﾁｮｳﾊﾅｲｶﾞﾀ","pref":"愛知県","city":"一宮市","address":"萩原町花井方"},
{"zip_code":"4910361","kana_pref":"ｱｲﾁｹﾝ","kana_city":"ｲﾁﾉﾐﾔｼ","kana_address":"ﾊｷﾞﾜﾗﾁｮｳﾊﾔｼﾉ","pref":"愛知県","city":"一宮市","address":"萩原町林野"},
{"zip_code":"4910025","kana_pref":"ｱｲﾁｹﾝ","kana_city":"ｲﾁﾉﾐﾔｼ","kana_address":"ﾊｺﾞﾛﾓ","pref":"愛知県","city":"一宮市","address":"羽衣"},
{"zip_code":"4910903","kana_pref":"ｱｲﾁｹﾝ","kana_city":"ｲﾁﾉﾐﾔｼ","kana_address":"ﾊﾁﾏﾝ","pref":"愛知県","city":"一宮市","address":"八幡"},
{"zip_code":"4910844","kana_pref":"ｱｲﾁｹﾝ","kana_city":"ｲﾁﾉﾐﾔｼ","kana_address":"ﾊｯﾁｮｳﾄﾞｵﾘ","pref":"愛知県","city":"一宮市","address":"八町通"},
{"zip_code":"4910914","kana_pref":"ｱｲﾁｹﾝ","kana_city":"ｲﾁﾉﾐﾔｼ","kana_address":"ﾊﾅｲｹ","pref":"愛知県","city":"一宮市","address":"花池"},
{"zip_code":"4910034","kana_pref":"ｱｲﾁｹﾝ","kana_city":"ｲﾁﾉﾐﾔｼ","kana_address":"ﾊﾏﾁｮｳ","pref":"愛知県","city":"一宮市","address":"浜町"},
{"zip_code":"4910863","kana_pref":"ｱｲﾁｹﾝ","kana_city":"ｲﾁﾉﾐﾔｼ","kana_address":"ﾋｶﾞｼｲﾝﾃﾞﾝﾁｮｳ","pref":"愛知県","city":"一宮市","address":"東印田町"},
{"zip_code":"4910074","kana_pref":"ｱｲﾁｹﾝ","kana_city":"ｲﾁﾉﾐﾔｼ","kana_address":"ﾋｶﾞｼｼﾏﾁｮｳ","pref":"愛知県","city":"一宮市","address":"東島町"},
{"zip_code":"4910056","kana_pref":"ｱｲﾁｹﾝ","kana_city":"ｲﾁﾉﾐﾔｼ","kana_address":"ﾋｶﾞｼﾃﾞﾁｮｳ","pref":"愛知県","city":"一宮市","address":"東出町"},
{"zip_code":"4910021","kana_pref":"ｱｲﾁｹﾝ","kana_city":"ｲﾁﾉﾐﾔｼ","kana_address":"ﾋｶﾞｼﾘｮｳｺﾞｳﾁｮｳ","pref":"愛知県","city":"一宮市","address":"東両郷町"},
{"zip_code":"4910833","kana_pref":"ｱｲﾁｹﾝ","kana_city":"ｲﾁﾉﾐﾔｼ","kana_address":"ﾋﾗｼﾏ","pref":"愛知県","city":"一宮市","address":"平島"},
{"zip_code":"4910908","kana_pref":"ｱｲﾁｹﾝ","kana_city":"ｲﾁﾉﾐﾔｼ","kana_address":"ﾌｶﾂﾎﾞﾁｮｳ","pref":"愛知県","city":"一宮市","address":"深坪町"},
{"zip_code":"4910024","kana_pref":"ｱｲﾁｹﾝ","kana_city":"ｲﾁﾉﾐﾔｼ","kana_address":"ﾌｼﾞ","pref":"愛知県","city":"一宮市","address":"富士"},
{"zip_code":"4910027","kana_pref":"ｱｲﾁｹﾝ","kana_city":"ｲﾁﾉﾐﾔｼ","kana_address":"ﾌｼﾞﾂｶﾁｮｳ","pref":"愛知県","city":"一宮市","address":"藤塚町"},
{"zip_code":"4910041","kana_pref":"ｱｲﾁｹﾝ","kana_city":"ｲﾁﾉﾐﾔｼ","kana_address":"ﾌﾞﾝｷｮｳ","pref":"愛知県","city":"一宮市","address":"文京"},
{"zip_code":"4910872","kana_pref":"ｱｲﾁｹﾝ","kana_city":"ｲﾁﾉﾐﾔｼ","kana_address":"ﾍｲｱﾝ","pref":"愛知県","city":"一宮市","address":"平安"},
{"zip_code":"4910905","kana_pref":"ｱｲﾁｹﾝ","kana_city":"ｲﾁﾉﾐﾔｼ","kana_address":"ﾍｲﾜ","pref":"愛知県","city":"一宮市","address":"平和"},
{"zip_code":"4910033","kana_pref":"ｱｲﾁｹﾝ","kana_city":"ｲﾁﾉﾐﾔｼ","kana_address":"ﾍﾞﾂﾒｲﾁｮｳ","pref":"愛知県","city":"一宮市","address":"別明町"},
{"zip_code":"4910067","kana_pref":"ｱｲﾁｹﾝ","kana_city":"ｲﾁﾉﾐﾔｼ","kana_address":"ﾎｸﾀﾝﾁｮｳ","pref":"愛知県","city":"一宮市","address":"北丹町"},
{"zip_code":"4910859","kana_pref":"ｱｲﾁｹﾝ","kana_city":"ｲﾁﾉﾐﾔｼ","kana_address":"ﾎﾝﾏﾁ","pref":"愛知県","city":"一宮市","address":"本町"},
{"zip_code":"4910856","kana_pref":"ｱｲﾁｹﾝ","kana_city":"ｲﾁﾉﾐﾔｼ","kana_address":"ﾎﾝﾏﾁﾄﾞｵﾘ","pref":"愛知県","city":"一宮市","address":"本町通"},
{"zip_code":"4910043","kana_pref":"ｱｲﾁｹﾝ","kana_city":"ｲﾁﾉﾐﾔｼ","kana_address":"ﾏｽﾐﾀﾞ","pref":"愛知県","city":"一宮市","address":"真清田"},
{"zip_code":"4910841","kana_pref":"ｱｲﾁｹﾝ","kana_city":"ｲﾁﾉﾐﾔｼ","kana_address":"ﾏﾂｼﾏﾁｮｳ","pref":"愛知県","city":"一宮市","address":"松島町"},
{"zip_code":"4910042","kana_pref":"ｱｲﾁｹﾝ","kana_city":"ｲﾁﾉﾐﾔｼ","kana_address":"ﾏﾂﾌﾘ","pref":"愛知県","city":"一宮市","address":"松降"},
{"zip_code":"4910078","kana_pref":"ｱｲﾁｹﾝ","kana_city":"ｲﾁﾉﾐﾔｼ","kana_address":"ﾏﾂﾌﾘﾄﾞｵﾘ","pref":"愛知県","city":"一宮市","address":"松降通"},
{"zip_code":"4910085","kana_pref":"ｱｲﾁｹﾝ","kana_city":"ｲﾁﾉﾐﾔｼ","kana_address":"ﾏﾂﾔﾏﾁｮｳ","pref":"愛知県","city":"一宮市","address":"松山町"},
{"zip_code":"4910874","kana_pref":"ｱｲﾁｹﾝ","kana_city":"ｲﾁﾉﾐﾔｼ","kana_address":"ﾏﾐﾂﾞｶ","pref":"愛知県","city":"一宮市","address":"馬見塚"},
{"zip_code":"4910065","kana_pref":"ｱｲﾁｹﾝ","kana_city":"ｲﾁﾉﾐﾔｼ","kana_address":"ﾐｽﾞｵﾁﾁｮｳ","pref":"愛知県","city":"一宮市","address":"水落町"},
{"zip_code":"4910878","kana_pref":"ｱｲﾁｹﾝ","kana_city":"ｲﾁﾉﾐﾔｼ","kana_address":"ﾐｽﾞﾂｷﾁｮｳ","pref":"愛知県","city":"一宮市","address":"水附町"},
{"zip_code":"4910827","kana_pref":"ｱｲﾁｹﾝ","kana_city":"ｲﾁﾉﾐﾔｼ","kana_address":"ﾐﾂｲ","pref":"愛知県","city":"一宮市","address":"三ツ井"},
{"zip_code":"4910862","kana_pref":"ｱｲﾁｹﾝ","kana_city":"ｲﾁﾉﾐﾔｼ","kana_address":"ﾐﾄﾞﾘ","pref":"愛知県","city":"一宮市","address":"緑"},
{"zip_code":"4910881","kana_pref":"ｱｲﾁｹﾝ","kana_city":"ｲﾁﾉﾐﾔｼ","kana_address":"ﾐﾅﾐｲﾝﾃﾞﾝ","pref":"愛知県","city":"一宮市","address":"南印田"},
{"zip_code":"4910014","kana_pref":"ｱｲﾁｹﾝ","kana_city":"ｲﾁﾉﾐﾔｼ","kana_address":"ﾐﾅﾐｵﾌﾞﾁ","pref":"愛知県","city":"一宮市","address":"南小渕"},
{"zip_code":"4910906","kana_pref":"ｱｲﾁｹﾝ","kana_city":"ｲﾁﾉﾐﾔｼ","kana_address":"ﾐﾅﾐﾃﾞﾁｮｳ","pref":"愛知県","city":"一宮市","address":"南出町"},
{"zip_code":"4910915","kana_pref":"ｱｲﾁｹﾝ","kana_city":"ｲﾁﾉﾐﾔｼ","kana_address":"ﾐﾔｼﾞ","pref":"愛知県","city":"一宮市","address":"宮地"},
{"zip_code":"4910064","kana_pref":"ｱｲﾁｹﾝ","kana_city":"ｲﾁﾉﾐﾔｼ","kana_address":"ﾐﾔﾆｼﾄﾞｵﾘ","pref":"愛知県","city":"一宮市","address":"宮西通"},
{"zip_code":"4910921","kana_pref":"ｱｲﾁｹﾝ","kana_city":"ｲﾁﾉﾐﾔｼ","kana_address":"ﾐｮｳｺｳｼﾞ","pref":"愛知県","city":"一宮市","address":"妙興寺"},
{"zip_code":"4910869","kana_pref":"ｱｲﾁｹﾝ","kana_city":"ｲﾁﾉﾐﾔｼ","kana_address":"ﾑｶｲﾔﾏﾁｮｳ","pref":"愛知県","city":"一宮市","address":"向山町"},
{"zip_code":"4910868","kana_pref":"ｱｲﾁｹﾝ","kana_city":"ｲﾁﾉﾐﾔｼ","kana_address":"ﾑｶｲﾔﾏﾐﾅﾐ","pref":"愛知県","city":"一宮市","address":"向山南"},
{"zip_code":"4910857","kana_pref":"ｱｲﾁｹﾝ","kana_city":"ｲﾁﾉﾐﾔｼ","kana_address":"ﾒｲｼﾞﾄﾞｵﾘ","pref":"愛知県","city":"一宮市","address":"明治通"},
{"zip_code":"4910831","kana_pref":"ｱｲﾁｹﾝ","kana_city":"ｲﾁﾉﾐﾔｼ","kana_address":"ﾓﾘﾓﾄ","pref":"愛知県","city":"一宮市","address":"森本"},
{"zip_code":"4910843","kana_pref":"ｱｲﾁｹﾝ","kana_city":"ｲﾁﾉﾐﾔｼ","kana_address":"ﾔﾅｷﾞﾄﾞﾁｮｳ","pref":"愛知県","city":"一宮市","address":"柳戸町"},
{"zip_code":"4910923","kana_pref":"ｱｲﾁｹﾝ","kana_city":"ｲﾁﾉﾐﾔｼ","kana_address":"ﾔﾏﾄﾁｮｳｳｼﾞﾅｶﾞ","pref":"愛知県","city":"一宮市","address":"大和町氏永"},
{"zip_code":"4910924","kana_pref":"ｱｲﾁｹﾝ","kana_city":"ｲﾁﾉﾐﾔｼ","kana_address":"ﾔﾏﾄﾁｮｳｵﾎ","pref":"愛知県","city":"一宮市","address":"大和町於保"},
{"zip_code":"4910934","kana_pref":"ｱｲﾁｹﾝ","kana_city":"ｲﾁﾉﾐﾔｼ","kana_address":"ﾔﾏﾄﾁｮｳｶﾘﾔｽｶ","pref":"愛知県","city":"一宮市","address":"大和町苅安賀"},
{"zip_code":"4910927","kana_pref":"ｱｲﾁｹﾝ","kana_city":"ｲﾁﾉﾐﾔｼ","kana_address":"ﾔﾏﾄﾁｮｳﾄﾂｶ","pref":"愛知県","city":"一宮市","address":"大和町戸塚"},
{"zip_code":"4910935","kana_pref":"ｱｲﾁｹﾝ","kana_city":"ｲﾁﾉﾐﾔｼ","kana_address":"ﾔﾏﾄﾁｮｳﾌｸﾓﾘ","pref":"愛知県","city":"一宮市","address":"大和町福森"},
{"zip_code":"4910931","kana_pref":"ｱｲﾁｹﾝ","kana_city":"ｲﾁﾉﾐﾔｼ","kana_address":"ﾔﾏﾄﾁｮｳﾏﾋﾞｷ","pref":"愛知県","city":"一宮市","address":"大和町馬引"},
{"zip_code":"4910925","kana_pref":"ｱｲﾁｹﾝ","kana_city":"ｲﾁﾉﾐﾔｼ","kana_address":"ﾔﾏﾄﾁｮｳﾐﾅﾐﾀｶｲ","pref":"愛知県","city":"一宮市","address":"大和町南高井"},
{"zip_code":"4910926","kana_pref":"ｱｲﾁｹﾝ","kana_city":"ｲﾁﾉﾐﾔｼ","kana_address":"ﾔﾏﾄﾁｮｳｷﾀﾀｶｲ","pref":"愛知県","city":"一宮市","address":"大和町北高井"},
{"zip_code":"4910847","kana_pref":"ｱｲﾁｹﾝ","kana_city":"ｲﾁﾉﾐﾔｼ","kana_address":"ﾔﾏﾄﾁｮｳﾐﾔｼﾞﾊﾅｲｹ","pref":"愛知県","city":"一宮市","address":"大和町宮地花池"},
{"zip_code":"4910922","kana_pref":"ｱｲﾁｹﾝ","kana_city":"ｲﾁﾉﾐﾔｼ","kana_address":"ﾔﾏﾄﾁｮｳﾐｮｳｺｳｼﾞ","pref":"愛知県","city":"一宮市","address":"大和町妙興寺"},
{"zip_code":"4910932","kana_pref":"ｱｲﾁｹﾝ","kana_city":"ｲﾁﾉﾐﾔｼ","kana_address":"ﾔﾏﾄﾁｮｳﾒﾝｼﾞｮ","pref":"愛知県","city":"一宮市","address":"大和町毛受"},
{"zip_code":"4910011","kana_pref":"ｱｲﾁｹﾝ","kana_city":"ｲﾁﾉﾐﾔｼ","kana_address":"ﾕｷﾞｵﾛｼ","pref":"愛知県","city":"一宮市","address":"柚木颪"},
{"zip_code":"4910022","kana_pref":"ｱｲﾁｹﾝ","kana_city":"ｲﾁﾉﾐﾔｼ","kana_address":"ﾘｮｳｺﾞｳﾁｮｳ","pref":"愛知県","city":"一宮市","address":"両郷町"},
{"zip_code":"4910832","kana_pref":"ｱｲﾁｹﾝ","kana_city":"ｲﾁﾉﾐﾔｼ","kana_address":"ﾜｶﾀｹ","pref":"愛知県","city":"一宮市","address":"若竹"},
{"zip_code":"4910077","kana_pref":"ｱｲﾁｹﾝ","kana_city":"ｲﾁﾉﾐﾔｼ","kana_address":"ﾜｸｲﾘﾁｮｳ","pref":"愛知県","city":"一宮市","address":"枠杁町"},
{"zip_code":"4910026","kana_pref":"ｱｲﾁｹﾝ","kana_city":"ｲﾁﾉﾐﾔｼ","kana_address":"ﾜｺｳ","pref":"愛知県","city":"一宮市","address":"和光"}]}