{"zip_code":[
{"zip_code":"4920000","kana_pref":"ｱｲﾁｹﾝ","kana_city":"ｲﾅｻﾞﾜｼ","kana_address":"","pref":"愛知県","city":"稲沢市","address":""},
{"zip_code":"4928008","kana_pref":"ｱｲﾁｹﾝ","kana_city":"ｲﾅｻﾞﾜｼ","kana_address":"ｱｶｲｹﾁｮｳ","pref":"愛知県","city":"稲沢市","address":"赤池町"},
{"zip_code":"4928001","kana_pref":"ｱｲﾁｹﾝ","kana_city":"ｲﾅｻﾞﾜｼ","kana_address":"ｱｶｲｹｲｹﾀﾞﾁｮｳ","pref":"愛知県","city":"稲沢市","address":"赤池池田町"},
{"zip_code":"4928002","kana_pref":"ｱｲﾁｹﾝ","kana_city":"ｲﾅｻﾞﾜｼ","kana_address":"ｱｶｲｹｲﾐﾁﾁｮｳ","pref":"愛知県","city":"稲沢市","address":"赤池居道町"},
{"zip_code":"4928004","kana_pref":"ｱｲﾁｹﾝ","kana_city":"ｲﾅｻﾞﾜｼ","kana_address":"ｱｶｲｹｳﾗﾀﾞﾁｮｳ","pref":"愛知県","city":"稲沢市","address":"赤池裏田町"},
{"zip_code":"4928015","kana_pref":"ｱｲﾁｹﾝ","kana_city":"ｲﾅｻﾞﾜｼ","kana_address":"ｱｶｲｹｷﾀｲｹﾀﾞﾁｮｳ","pref":"愛知県","city":"稲沢市","address":"赤池北池田町"},
{"zip_code":"4928014","kana_pref":"ｱｲﾁｹﾝ","kana_city":"ｲﾅｻﾞﾜｼ","kana_address":"ｱｶｲｹｷﾀﾏﾁ","pref":"愛知県","city":"稲沢市","address":"赤池北町"},
{"zip_code":"4928022","kana_pref":"ｱｲﾁｹﾝ","kana_city":"ｲﾅｻﾞﾜｼ","kana_address":"ｱｶｲｹｻｶﾊﾀﾁｮｳ","pref":"愛知県","city":"稲沢市","address":"赤池坂畑町"},
{"zip_code":"4928005","kana_pref":"ｱｲﾁｹﾝ","kana_city":"ｲﾅｻﾞﾜｼ","kana_address":"ｱｶｲｹｼﾞﾝﾃﾞﾁｮｳ","pref":"愛知県","city":"稲沢市","address":"赤池陣出町"},
{"zip_code":"4928013","kana_pref":"ｱｲﾁｹﾝ","kana_city":"ｲﾅｻﾞﾜｼ","kana_address":"ｱｶｲｹﾃﾗﾋｶﾞｼﾁｮｳ","pref":"愛知県","city":"稲沢市","address":"赤池寺東町"},
{"zip_code":"4928012","kana_pref":"ｱｲﾁｹﾝ","kana_city":"ｲﾅｻﾞﾜｼ","kana_address":"ｱｶｲｹﾃﾝﾉｳﾁｮｳ","pref":"愛知県","city":"稲沢市","address":"赤池天王町"},
{"zip_code":"4928025","kana_pref":"ｱｲﾁｹﾝ","kana_city":"ｲﾅｻﾞﾜｼ","kana_address":"ｱｶｲｹﾅｶﾏﾁ","pref":"愛知県","city":"稲沢市","address":"赤池中町"},
{"zip_code":"4928003","kana_pref":"ｱｲﾁｹﾝ","kana_city":"ｲﾅｻﾞﾜｼ","kana_address":"ｱｶｲｹﾆｼﾃﾞﾁｮｳ","pref":"愛知県","city":"稲沢市","address":"赤池西出町"},
{"zip_code":"4928017","kana_pref":"ｱｲﾁｹﾝ","kana_city":"ｲﾅｻﾞﾜｼ","kana_address":"ｱｶｲｹﾊﾀﾔﾁｮｳ","pref":"愛知県","city":"稲沢市","address":"赤池旗屋町"},
{"zip_code":"4928021","kana_pref":"ｱｲﾁｹﾝ","kana_city":"ｲﾅｻﾞﾜｼ","kana_address":"ｱｶｲｹﾋｶﾞｼﾔﾏﾁｮｳ","pref":"愛知県","city":"稲沢市","address":"赤池東山町"},
{"zip_code":"4928023","kana_pref":"ｱｲﾁｹﾝ","kana_city":"ｲﾅｻﾞﾜｼ","kana_address":"ｱｶｲｹﾋﾛﾊﾀﾁｮｳ","pref":"愛知県","city":"稲沢市","address":"赤池広畑町"},
{"zip_code":"4928011","kana_pref":"ｱｲﾁｹﾝ","kana_city":"ｲﾅｻﾞﾜｼ","kana_address":"ｱｶｲｹﾏｴﾔﾏﾁｮｳ","pref":"愛知県","city":"稲沢市","address":"赤池前山町"},
{"zip_code":"4928006","kana_pref":"ｱｲﾁｹﾝ","kana_city":"ｲﾅｻﾞﾜｼ","kana_address":"ｱｶｲｹﾏﾂｻｷﾁｮｳ","pref":"愛知県","city":"稲沢市","address":"赤池真崎町"},
{"zip_code":"4928024","kana_pref":"ｱｲﾁｹﾝ","kana_city":"ｲﾅｻﾞﾜｼ","kana_address":"ｱｶｲｹﾐﾅﾐﾏﾁ","pref":"愛知県","city":"稲沢市","address":"赤池南町"},
{"zip_code":"4928016","kana_pref":"ｱｲﾁｹﾝ","kana_city":"ｲﾅｻﾞﾜｼ","kana_address":"ｱｶｲｹﾐﾔﾆｼﾁｮｳ","pref":"愛知県","city":"稲沢市","address":"赤池宮西町"},
{"zip_code":"4928007","kana_pref":"ｱｲﾁｹﾝ","kana_city":"ｲﾅｻﾞﾜｼ","kana_address":"ｱｶｲｹﾔﾏﾅｶﾁｮｳ","pref":"愛知県","city":"稲沢市","address":"赤池山中町"},
{"zip_code":"4928318","kana_pref":"ｱｲﾁｹﾝ","kana_city":"ｲﾅｻﾞﾜｼ","kana_address":"ｱｻｲﾁｮｳ","pref":"愛知県","city":"稲沢市","address":"浅井町"},
{"zip_code":"4928268","kana_pref":"ｱｲﾁｹﾝ","kana_city":"ｲﾅｻﾞﾜｼ","kana_address":"ｱｻﾞﾌﾞﾁｮｳ","pref":"愛知県","city":"稲沢市","address":"朝府町"},
{"zip_code":"4928278","kana_pref":"ｱｲﾁｹﾝ","kana_city":"ｲﾅｻﾞﾜｼ","kana_address":"ｱﾏｲｹｶﾅﾔﾏﾁｮｳ","pref":"愛知県","city":"稲沢市","address":"天池金山町"},
{"zip_code":"4928274","kana_pref":"ｱｲﾁｹﾝ","kana_city":"ｲﾅｻﾞﾜｼ","kana_address":"ｱﾏｲｹｺｳﾀﾞﾁｮｳ","pref":"愛知県","city":"稲沢市","address":"天池光田町"},
{"zip_code":"4928275","kana_pref":"ｱｲﾁｹﾝ","kana_city":"ｲﾅｻﾞﾜｼ","kana_address":"ｱﾏｲｹｺﾞﾀﾝﾀﾞﾁｮｳ","pref":"愛知県","city":"稲沢市","address":"天池五反田町"},
{"zip_code":"4928281","kana_pref":"ｱｲﾁｹﾝ","kana_city":"ｲﾅｻﾞﾜｼ","kana_address":"ｱﾏｲｹﾃﾞﾝﾀﾞｲﾁｮｳ","pref":"愛知県","city":"稲沢市","address":"天池伝代町"},
{"zip_code":"4928279","kana_pref":"ｱｲﾁｹﾝ","kana_city":"ｲﾅｻﾞﾜｼ","kana_address":"ｱﾏｲｹﾄｵﾏﾂﾁｮｳ","pref":"愛知県","city":"稲沢市","address":"天池遠松町"},
{"zip_code":"4928283","kana_pref":"ｱｲﾁｹﾝ","kana_city":"ｲﾅｻﾞﾜｼ","kana_address":"ｱﾏｲｹﾅﾐﾖｾﾁｮｳ","pref":"愛知県","city":"稲沢市","address":"天池浪寄町"},
{"zip_code":"4928282","kana_pref":"ｱｲﾁｹﾝ","kana_city":"ｲﾅｻﾞﾜｼ","kana_address":"ｱﾏｲｹﾋｶﾞｼﾏﾁ","pref":"愛知県","city":"稲沢市","address":"天池東町"},
{"zip_code":"4928284","kana_pref":"ｱｲﾁｹﾝ","kana_city":"ｲﾅｻﾞﾜｼ","kana_address":"ｱﾏｲｹﾆｼﾏﾁ","pref":"愛知県","city":"稲沢市","address":"天池西町"},
{"zip_code":"4928277","kana_pref":"ｱｲﾁｹﾝ","kana_city":"ｲﾅｻﾞﾜｼ","kana_address":"ｱﾏｲｹﾏｷﾂｸﾘﾁｮｳ","pref":"愛知県","city":"稲沢市","address":"天池牧作町"},
{"zip_code":"4928276","kana_pref":"ｱｲﾁｹﾝ","kana_city":"ｲﾅｻﾞﾜｼ","kana_address":"ｱﾏｲｹﾁｮｳ","pref":"愛知県","city":"稲沢市","address":"天池町"},
{"zip_code":"4928262","kana_pref":"ｱｲﾁｹﾝ","kana_city":"ｲﾅｻﾞﾜｼ","kana_address":"ｲｹﾍﾞﾁｮｳ","pref":"愛知県","city":"稲沢市","address":"池部町"},
{"zip_code":"4928362","kana_pref":"ｱｲﾁｹﾝ","kana_city":"ｲﾅｻﾞﾜｼ","kana_address":"ｲｼｷｱｵｶｲﾁｮｳ","pref":"愛知県","city":"稲沢市","address":"一色青海町"},
{"zip_code":"4928363","kana_pref":"ｱｲﾁｹﾝ","kana_city":"ｲﾅｻﾞﾜｼ","kana_address":"ｲｼｷｱﾄﾉｸﾁﾁｮｳ","pref":"愛知県","city":"稲沢市","address":"一色跡之口町"},
{"zip_code":"4928356","kana_pref":"ｱｲﾁｹﾝ","kana_city":"ｲﾅｻﾞﾜｼ","kana_address":"ｲｼｷｲﾁﾊﾞﾁｮｳ","pref":"愛知県","city":"稲沢市","address":"一色市場町"},
{"zip_code":"4928371","kana_pref":"ｱｲﾁｹﾝ","kana_city":"ｲﾅｻﾞﾜｼ","kana_address":"ｲｼｷｶﾐｶﾞﾀﾁｮｳ","pref":"愛知県","city":"稲沢市","address":"一色上方町"},
{"zip_code":"4928366","kana_pref":"ｱｲﾁｹﾝ","kana_city":"ｲﾅｻﾞﾜｼ","kana_address":"ｲｼｷｶﾜﾏﾀﾁｮｳ","pref":"愛知県","city":"稲沢市","address":"一色川俣町"},
{"zip_code":"4928354","kana_pref":"ｱｲﾁｹﾝ","kana_city":"ｲﾅｻﾞﾜｼ","kana_address":"ｲｼｷｻﾝﾀﾝﾀﾞﾁｮｳ","pref":"愛知県","city":"稲沢市","address":"一色三反田町"},
{"zip_code":"4928365","kana_pref":"ｱｲﾁｹﾝ","kana_city":"ｲﾅｻﾞﾜｼ","kana_address":"ｲｼｷｼﾓｶﾀﾁｮｳ","pref":"愛知県","city":"稲沢市","address":"一色下方町"},
{"zip_code":"4928375","kana_pref":"ｱｲﾁｹﾝ","kana_city":"ｲﾅｻﾞﾜｼ","kana_address":"ｲｼｷｼﾞｭﾝｹﾝﾁｮｳ","pref":"愛知県","city":"稲沢市","address":"一色巡見町"},
{"zip_code":"4928352","kana_pref":"ｱｲﾁｹﾝ","kana_city":"ｲﾅｻﾞﾜｼ","kana_address":"ｲｼｷｼﾞﾝｸﾞｳﾁｮｳ","pref":"愛知県","city":"稲沢市","address":"一色神宮町"},
{"zip_code":"4928351","kana_pref":"ｱｲﾁｹﾝ","kana_city":"ｲﾅｻﾞﾜｼ","kana_address":"ｲｼｷﾀｹﾊｼﾁｮｳ","pref":"愛知県","city":"稲沢市","address":"一色竹橋町"},
{"zip_code":"4928373","kana_pref":"ｱｲﾁｹﾝ","kana_city":"ｲﾅｻﾞﾜｼ","kana_address":"ｲｼｷﾅｶﾄﾞｵﾘﾁｮｳ","pref":"愛知県","city":"稲沢市","address":"一色中通町"},
{"zip_code":"4928372","kana_pref":"ｱｲﾁｹﾝ","kana_city":"ｲﾅｻﾞﾜｼ","kana_address":"ｲｼｷﾅｶﾔｼｷﾁｮｳ","pref":"愛知県","city":"稲沢市","address":"一色中屋敷町"},
{"zip_code":"4928361","kana_pref":"ｱｲﾁｹﾝ","kana_city":"ｲﾅｻﾞﾜｼ","kana_address":"ｲｼｷﾅｶﾞﾊﾀﾁｮｳ","pref":"愛知県","city":"稲沢市","address":"一色長畑町"},
{"zip_code":"4928374","kana_pref":"ｱｲﾁｹﾝ","kana_city":"ｲﾅｻﾞﾜｼ","kana_address":"ｲｼｷﾆｼﾏﾁ","pref":"愛知県","city":"稲沢市","address":"一色西町"},
{"zip_code":"4928358","kana_pref":"ｱｲﾁｹﾝ","kana_city":"ｲﾅｻﾞﾜｼ","kana_address":"ｲｼｷﾊｸｻﾝﾁｮｳ","pref":"愛知県","city":"稲沢市","address":"一色白山町"},
{"zip_code":"4928353","kana_pref":"ｱｲﾁｹﾝ","kana_city":"ｲﾅｻﾞﾜｼ","kana_address":"ｲｼｷﾌｼﾞﾂｶﾁｮｳ","pref":"愛知県","city":"稲沢市","address":"一色藤塚町"},
{"zip_code":"4928357","kana_pref":"ｱｲﾁｹﾝ","kana_city":"ｲﾅｻﾞﾜｼ","kana_address":"ｲｼｷﾐﾁｶﾐﾁｮｳ","pref":"愛知県","city":"稲沢市","address":"一色道上町"},
{"zip_code":"4928364","kana_pref":"ｱｲﾁｹﾝ","kana_city":"ｲﾅｻﾞﾜｼ","kana_address":"ｲｼｷﾓﾘﾔﾏﾁｮｳ","pref":"愛知県","city":"稲沢市","address":"一色森山町"},
{"zip_code":"4928271","kana_pref":"ｱｲﾁｹﾝ","kana_city":"ｲﾅｻﾞﾜｼ","kana_address":"ｲｼﾊﾞｼ","pref":"愛知県","city":"稲沢市","address":"石橋"},
{"zip_code":"4928451","kana_pref":"ｱｲﾁｹﾝ","kana_city":"ｲﾅｻﾞﾜｼ","kana_address":"ｲﾀﾌﾞｷﾁｮｳ","pref":"愛知県","city":"稲沢市","address":"板葺町"},
{"zip_code":"4928217","kana_pref":"ｱｲﾁｹﾝ","kana_city":"ｲﾅｻﾞﾜｼ","kana_address":"ｲﾅｻﾞﾜﾁｮｳ","pref":"愛知県","city":"稲沢市","address":"稲沢町"},
{"zip_code":"4928211","kana_pref":"ｱｲﾁｹﾝ","kana_city":"ｲﾅｻﾞﾜｼ","kana_address":"ｲﾅｻﾞﾜﾁｮｳｷﾀﾔﾏ","pref":"愛知県","city":"稲沢市","address":"稲沢町北山"},
{"zip_code":"4928229","kana_pref":"ｱｲﾁｹﾝ","kana_city":"ｲﾅｻﾞﾜｼ","kana_address":"ｲﾅｼﾞﾏ","pref":"愛知県","city":"稲沢市","address":"稲島"},
{"zip_code":"4928207","kana_pref":"ｱｲﾁｹﾝ","kana_city":"ｲﾅｻﾞﾜｼ","kana_address":"ｲﾅｼﾞﾏﾁｮｳ","pref":"愛知県","city":"稲沢市","address":"稲島町"},
{"zip_code":"4928230","kana_pref":"ｱｲﾁｹﾝ","kana_city":"ｲﾅｻﾞﾜｼ","kana_address":"ｲﾅｼﾞﾏﾋｶﾞｼ","pref":"愛知県","city":"稲沢市","address":"稲島東"},
{"zip_code":"4928206","kana_pref":"ｱｲﾁｹﾝ","kana_city":"ｲﾅｻﾞﾜｼ","kana_address":"ｲﾅｼﾞﾏﾎｳｼﾞｮｳｼﾞﾁｮｳ","pref":"愛知県","city":"稲沢市","address":"稲島法成寺町"},
{"zip_code":"4928219","kana_pref":"ｱｲﾁｹﾝ","kana_city":"ｲﾅｻﾞﾜｼ","kana_address":"ｲﾅﾊﾞ","pref":"愛知県","city":"稲沢市","address":"稲葉"},
{"zip_code":"4928269","kana_pref":"ｱｲﾁｹﾝ","kana_city":"ｲﾅｻﾞﾜｼ","kana_address":"ｲﾅﾌﾞﾁｮｳ","pref":"愛知県","city":"稲沢市","address":"稲府町"},
{"zip_code":"4928163","kana_pref":"ｱｲﾁｹﾝ","kana_city":"ｲﾅｻﾞﾜｼ","kana_address":"ｲﾉｸﾁｲｼﾂﾞｶﾁｮｳ","pref":"愛知県","city":"稲沢市","address":"井之口石塚町"},
{"zip_code":"4928164","kana_pref":"ｱｲﾁｹﾝ","kana_city":"ｲﾅｻﾞﾜｼ","kana_address":"ｲﾉｸﾁｵｵﾂﾎﾞﾁｮｳ","pref":"愛知県","city":"稲沢市","address":"井之口大坪町"},
{"zip_code":"4928152","kana_pref":"ｱｲﾁｹﾝ","kana_city":"ｲﾅｻﾞﾜｼ","kana_address":"ｲﾉｸﾁｵｵﾐﾔﾁｮｳ","pref":"愛知県","city":"稲沢市","address":"井之口大宮町"},
{"zip_code":"4928166","kana_pref":"ｱｲﾁｹﾝ","kana_city":"ｲﾅｻﾞﾜｼ","kana_address":"ｲﾉｸﾁｵｷﾉﾀﾁｮｳ","pref":"愛知県","city":"稲沢市","address":"井之口沖ノ田町"},
{"zip_code":"4928156","kana_pref":"ｱｲﾁｹﾝ","kana_city":"ｲﾅｻﾞﾜｼ","kana_address":"ｲﾉｸﾁｵﾔﾊﾞﾀﾁｮｳ","pref":"愛知県","city":"稲沢市","address":"井之口親畑町"},
{"zip_code":"4928157","kana_pref":"ｱｲﾁｹﾝ","kana_city":"ｲﾅｻﾞﾜｼ","kana_address":"ｲﾉｸﾁｶｷﾉｷﾁｮｳ","pref":"愛知県","city":"稲沢市","address":"井之口柿ノ木町"},
{"zip_code":"4928151","kana_pref":"ｱｲﾁｹﾝ","kana_city":"ｲﾅｻﾞﾜｼ","kana_address":"ｲﾉｸﾁｷﾀﾊﾞﾀﾁｮｳ","pref":"愛知県","city":"稲沢市","address":"井之口北畑町"},
{"zip_code":"4928162","kana_pref":"ｱｲﾁｹﾝ","kana_city":"ｲﾅｻﾞﾜｼ","kana_address":"ｲﾉｸﾁｺﾊﾞﾝﾄﾞﾁｮｳ","pref":"愛知県","city":"稲沢市","address":"井之口小番戸町"},
{"zip_code":"4928165","kana_pref":"ｱｲﾁｹﾝ","kana_city":"ｲﾅｻﾞﾜｼ","kana_address":"ｲﾉｸﾁﾂﾙﾃﾞﾝﾁｮｳ","pref":"愛知県","city":"稲沢市","address":"井之口鶴田町"},
{"zip_code":"4928158","kana_pref":"ｱｲﾁｹﾝ","kana_city":"ｲﾅｻﾞﾜｼ","kana_address":"ｲﾉｸﾁﾊｸｻﾝﾁｮｳ","pref":"愛知県","city":"稲沢市","address":"井之口白山町"},
{"zip_code":"4928154","kana_pref":"ｱｲﾁｹﾝ","kana_city":"ｲﾅｻﾞﾜｼ","kana_address":"ｲﾉｸﾁﾎﾝﾏﾁ","pref":"愛知県","city":"稲沢市","address":"井之口本町"},
{"zip_code":"4928155","kana_pref":"ｱｲﾁｹﾝ","kana_city":"ｲﾅｻﾞﾜｼ","kana_address":"ｲﾉｸﾁﾖﾂﾔﾁｮｳ","pref":"愛知県","city":"稲沢市","address":"井之口四家町"},
{"zip_code":"4928153","kana_pref":"ｱｲﾁｹﾝ","kana_city":"ｲﾅｻﾞﾜｼ","kana_address":"ｲﾉｸﾁﾁｮｳ","pref":"愛知県","city":"稲沢市","address":"井之口町"},
{"zip_code":"4928465","kana_pref":"ｱｲﾁｹﾝ","kana_city":"ｲﾅｻﾞﾜｼ","kana_address":"ｲﾎﾞﾘｲﾇｼﾛﾁｮｳ","pref":"愛知県","city":"稲沢市","address":"井堀犬城町"},
{"zip_code":"4928466","kana_pref":"ｱｲﾁｹﾝ","kana_city":"ｲﾅｻﾞﾜｼ","kana_address":"ｲﾎﾞﾘｴﾆｼﾁｮｳ","pref":"愛知県","city":"稲沢市","address":"井堀江西町"},
{"zip_code":"4928406","kana_pref":"ｱｲﾁｹﾝ","kana_city":"ｲﾅｻﾞﾜｼ","kana_address":"ｲﾎﾞﾘｵｵﾅﾜﾁｮｳ","pref":"愛知県","city":"稲沢市","address":"井堀大縄町"},
{"zip_code":"4928467","kana_pref":"ｱｲﾁｹﾝ","kana_city":"ｲﾅｻﾞﾜｼ","kana_address":"ｲﾎﾞﾘｶﾞﾏﾛｸﾁｮｳ","pref":"愛知県","city":"稲沢市","address":"井堀蒲六町"},
{"zip_code":"4928408","kana_pref":"ｱｲﾁｹﾝ","kana_city":"ｲﾅｻﾞﾜｼ","kana_address":"ｲﾎﾞﾘｶﾜﾋｶﾞｼﾁｮｳ","pref":"愛知県","city":"稲沢市","address":"井堀川東町"},
{"zip_code":"4928461","kana_pref":"ｱｲﾁｹﾝ","kana_city":"ｲﾅｻﾞﾜｼ","kana_address":"ｲﾎﾞﾘｷﾀﾃﾞﾁｮｳ","pref":"愛知県","city":"稲沢市","address":"井堀北出町"},
{"zip_code":"4928464","kana_pref":"ｱｲﾁｹﾝ","kana_city":"ｲﾅｻﾞﾜｼ","kana_address":"ｲﾎﾞﾘｼﾓｺﾞｳﾁｮｳ","pref":"愛知県","city":"稲沢市","address":"井堀下郷町"},
{"zip_code":"4928407","kana_pref":"ｱｲﾁｹﾝ","kana_city":"ｲﾅｻﾞﾜｼ","kana_address":"ｲﾎﾞﾘｼｭｸﾂﾞｶﾁｮｳ","pref":"愛知県","city":"稲沢市","address":"井堀宿塚町"},
{"zip_code":"4928462","kana_pref":"ｱｲﾁｹﾝ","kana_city":"ｲﾅｻﾞﾜｼ","kana_address":"ｲﾎﾞﾘﾀｶﾐﾁｮｳ","pref":"愛知県","city":"稲沢市","address":"井堀高見町"},
{"zip_code":"4928463","kana_pref":"ｱｲﾁｹﾝ","kana_city":"ｲﾅｻﾞﾜｼ","kana_address":"ｲﾎﾞﾘﾅｶｺﾞｳﾁｮｳ","pref":"愛知県","city":"稲沢市","address":"井堀中郷町"},
{"zip_code":"4928468","kana_pref":"ｱｲﾁｹﾝ","kana_city":"ｲﾅｻﾞﾜｼ","kana_address":"ｲﾎﾞﾘﾉｸﾞﾁﾁｮｳ","pref":"愛知県","city":"稲沢市","address":"井堀野口町"},
{"zip_code":"4928409","kana_pref":"ｱｲﾁｹﾝ","kana_city":"ｲﾅｻﾞﾜｼ","kana_address":"ｲﾎﾞﾘﾊｼｼﾓﾁｮｳ","pref":"愛知県","city":"稲沢市","address":"井堀橋下町"},
{"zip_code":"4928453","kana_pref":"ｱｲﾁｹﾝ","kana_city":"ｲﾅｻﾞﾜｼ","kana_address":"ｲﾏﾑﾗﾁｮｳ","pref":"愛知県","city":"稲沢市","address":"今村町"},
{"zip_code":"4928443","kana_pref":"ｱｲﾁｹﾝ","kana_city":"ｲﾅｻﾞﾜｼ","kana_address":"ｳｼﾌﾞﾐﾁｮｳ","pref":"愛知県","city":"稲沢市","address":"牛踏町"},
{"zip_code":"4928143","kana_pref":"ｱｲﾁｹﾝ","kana_city":"ｲﾅｻﾞﾜｼ","kana_address":"ｴｷﾏｴ","pref":"愛知県","city":"稲沢市","address":"駅前"},
{"zip_code":"4928179","kana_pref":"ｱｲﾁｹﾝ","kana_city":"ｲﾅｻﾞﾜｼ","kana_address":"ｵｵｼﾏ","pref":"愛知県","city":"稲沢市","address":"大嶋"},
{"zip_code":"4928214","kana_pref":"ｱｲﾁｹﾝ","kana_city":"ｲﾅｻﾞﾜｼ","kana_address":"ｵｵﾂｶﾐﾅﾐ","pref":"愛知県","city":"稲沢市","address":"大塚南"},
{"zip_code":"4928215","kana_pref":"ｱｲﾁｹﾝ","kana_city":"ｲﾅｻﾞﾜｼ","kana_address":"ｵｵﾂｶｷﾀ","pref":"愛知県","city":"稲沢市","address":"大塚北"},
{"zip_code":"4928216","kana_pref":"ｱｲﾁｹﾝ","kana_city":"ｲﾅｻﾞﾜｼ","kana_address":"ｵｵﾂｶﾁｮｳ","pref":"愛知県","city":"稲沢市","address":"大塚町"},
{"zip_code":"4928415","kana_pref":"ｱｲﾁｹﾝ","kana_city":"ｲﾅｻﾞﾜｼ","kana_address":"ｵｵﾔｱｵﾔﾏﾁｮｳ","pref":"愛知県","city":"稲沢市","address":"大矢青山町"},
{"zip_code":"4928413","kana_pref":"ｱｲﾁｹﾝ","kana_city":"ｲﾅｻﾞﾜｼ","kana_address":"ｵｵﾔｴﾆｼﾁｮｳ","pref":"愛知県","city":"稲沢市","address":"大矢江西町"},
{"zip_code":"4928418","kana_pref":"ｱｲﾁｹﾝ","kana_city":"ｲﾅｻﾞﾜｼ","kana_address":"ｵｵﾔｺｳﾀﾞﾁｮｳ","pref":"愛知県","city":"稲沢市","address":"大矢高田町"},
{"zip_code":"4928414","kana_pref":"ｱｲﾁｹﾝ","kana_city":"ｲﾅｻﾞﾜｼ","kana_address":"ｵｵﾔｼﾞｮｳﾄﾞｼﾞﾁｮｳ","pref":"愛知県","city":"稲沢市","address":"大矢浄土寺町"},
{"zip_code":"4928416","kana_pref":"ｱｲﾁｹﾝ","kana_city":"ｲﾅｻﾞﾜｼ","kana_address":"ｵｵﾔｼﾛﾔﾏﾁｮｳ","pref":"愛知県","city":"稲沢市","address":"大矢白山町"},
{"zip_code":"4928419","kana_pref":"ｱｲﾁｹﾝ","kana_city":"ｲﾅｻﾞﾜｼ","kana_address":"ｵｵﾔｼﾝｸﾞｳﾁｮｳ","pref":"愛知県","city":"稲沢市","address":"大矢真宮町"},
{"zip_code":"4928417","kana_pref":"ｱｲﾁｹﾝ","kana_city":"ｲﾅｻﾞﾜｼ","kana_address":"ｵｵﾔｾﾝｸﾞﾁﾁｮｳ","pref":"愛知県","city":"稲沢市","address":"大矢仙口町"},
{"zip_code":"4928412","kana_pref":"ｱｲﾁｹﾝ","kana_city":"ｲﾅｻﾞﾜｼ","kana_address":"ｵｵﾔﾁｮｳ","pref":"愛知県","city":"稲沢市","address":"大矢町"},
{"zip_code":"4928223","kana_pref":"ｱｲﾁｹﾝ","kana_city":"ｲﾅｻﾞﾜｼ","kana_address":"ｵｸﾀﾞｲﾉｼﾀﾁｮｳ","pref":"愛知県","city":"稲沢市","address":"奥田井之下町"},
{"zip_code":"4928224","kana_pref":"ｱｲﾁｹﾝ","kana_city":"ｲﾅｻﾞﾜｼ","kana_address":"ｵｸﾀﾞｵｵｻﾜﾁｮｳ","pref":"愛知県","city":"稲沢市","address":"奥田大沢町"},
{"zip_code":"4928253","kana_pref":"ｱｲﾁｹﾝ","kana_city":"ｲﾅｻﾞﾜｼ","kana_address":"ｵｸﾀﾞｶﾐﾉｷﾁｮｳ","pref":"愛知県","city":"稲沢市","address":"奥田神ノ木町"},
{"zip_code":"4928256","kana_pref":"ｱｲﾁｹﾝ","kana_city":"ｲﾅｻﾞﾜｼ","kana_address":"ｵｸﾀﾞｷﾀﾊﾅﾉｷﾁｮｳ","pref":"愛知県","city":"稲沢市","address":"奥田北花ノ木町"},
{"zip_code":"4928243","kana_pref":"ｱｲﾁｹﾝ","kana_city":"ｲﾅｻﾞﾜｼ","kana_address":"ｵｸﾀﾞｷﾂﾞｶﾁｮｳ","pref":"愛知県","city":"稲沢市","address":"奥田木塚町"},
{"zip_code":"4928234","kana_pref":"ｱｲﾁｹﾝ","kana_city":"ｲﾅｻﾞﾜｼ","kana_address":"ｵｸﾀﾞｷﾘﾀﾁｮｳ","pref":"愛知県","city":"稲沢市","address":"奥田切田町"},
{"zip_code":"4928246","kana_pref":"ｱｲﾁｹﾝ","kana_city":"ｲﾅｻﾞﾜｼ","kana_address":"ｵｸﾀﾞｹｲﾖｳﾁｮｳ","pref":"愛知県","city":"稲沢市","address":"奥田計用町"},
{"zip_code":"4928232","kana_pref":"ｱｲﾁｹﾝ","kana_city":"ｲﾅｻﾞﾜｼ","kana_address":"ｵｸﾀﾞｻｶｲﾁｮｳ","pref":"愛知県","city":"稲沢市","address":"奥田酒伊町"},
{"zip_code":"4928257","kana_pref":"ｱｲﾁｹﾝ","kana_city":"ｲﾅｻﾞﾜｼ","kana_address":"ｵｸﾀﾞｼﾏｻﾞｷﾁｮｳ","pref":"愛知県","city":"稲沢市","address":"奥田島崎町"},
{"zip_code":"4928244","kana_pref":"ｱｲﾁｹﾝ","kana_city":"ｲﾅｻﾞﾜｼ","kana_address":"ｵｸﾀﾞｼﾓｶﾜﾁｮｳ","pref":"愛知県","city":"稲沢市","address":"奥田下河町"},
{"zip_code":"4928225","kana_pref":"ｱｲﾁｹﾝ","kana_city":"ｲﾅｻﾞﾜｼ","kana_address":"ｵｸﾀﾞｾﾞﾝﾀﾅﾁｮｳ","pref":"愛知県","city":"稲沢市","address":"奥田膳棚町"},
{"zip_code":"4928226","kana_pref":"ｱｲﾁｹﾝ","kana_city":"ｲﾅｻﾞﾜｼ","kana_address":"ｵｸﾀﾞﾀﾞｲﾓﾝﾁｮｳ","pref":"愛知県","city":"稲沢市","address":"奥田大門町"},
{"zip_code":"4928235","kana_pref":"ｱｲﾁｹﾝ","kana_city":"ｲﾅｻﾞﾜｼ","kana_address":"ｵｸﾀﾞﾀﾃｵｻﾁｮｳ","pref":"愛知県","city":"稲沢市","address":"奥田立長町"},
{"zip_code":"4928241","kana_pref":"ｱｲﾁｹﾝ","kana_city":"ｲﾅｻﾞﾜｼ","kana_address":"ｵｸﾀﾞﾀﾊﾞﾀﾁｮｳ","pref":"愛知県","city":"稲沢市","address":"奥田田畑町"},
{"zip_code":"4928236","kana_pref":"ｱｲﾁｹﾝ","kana_city":"ｲﾅｻﾞﾜｼ","kana_address":"ｵｸﾀﾞﾃﾗｷﾞﾘﾁｮｳ","pref":"愛知県","city":"稲沢市","address":"奥田寺切町"},
{"zip_code":"4928255","kana_pref":"ｱｲﾁｹﾝ","kana_city":"ｲﾅｻﾞﾜｼ","kana_address":"ｵｸﾀﾞﾃﾝｼﾞﾝﾁｮｳ","pref":"愛知県","city":"稲沢市","address":"奥田天神町"},
{"zip_code":"4928222","kana_pref":"ｱｲﾁｹﾝ","kana_city":"ｲﾅｻﾞﾜｼ","kana_address":"ｵｸﾀﾞﾃﾝﾓｸｼﾞﾁｮｳ","pref":"愛知県","city":"稲沢市","address":"奥田天目寺町"},
{"zip_code":"4928239","kana_pref":"ｱｲﾁｹﾝ","kana_city":"ｲﾅｻﾞﾜｼ","kana_address":"ｵｸﾀﾞﾅｶｷﾘﾁｮｳ","pref":"愛知県","city":"稲沢市","address":"奥田中切町"},
{"zip_code":"4928228","kana_pref":"ｱｲﾁｹﾝ","kana_city":"ｲﾅｻﾞﾜｼ","kana_address":"ｵｸﾀﾞﾅｶﾞｽﾐﾁｮｳ","pref":"愛知県","city":"稲沢市","address":"奥田長角町"},
{"zip_code":"4928231","kana_pref":"ｱｲﾁｹﾝ","kana_city":"ｲﾅｻﾞﾜｼ","kana_address":"ｵｸﾀﾞﾅｶﾞﾚﾁｮｳ","pref":"愛知県","city":"稲沢市","address":"奥田流町"},
{"zip_code":"4928227","kana_pref":"ｱｲﾁｹﾝ","kana_city":"ｲﾅｻﾞﾜｼ","kana_address":"ｵｸﾀﾞﾊｸｻﾝﾁｮｳ","pref":"愛知県","city":"稲沢市","address":"奥田白山町"},
{"zip_code":"4928237","kana_pref":"ｱｲﾁｹﾝ","kana_city":"ｲﾅｻﾞﾜｼ","kana_address":"ｵｸﾀﾞﾊﾞﾝﾊﾞﾁｮｳ","pref":"愛知県","city":"稲沢市","address":"奥田馬場町"},
{"zip_code":"4928238","kana_pref":"ｱｲﾁｹﾝ","kana_city":"ｲﾅｻﾞﾜｼ","kana_address":"ｵｸﾀﾞﾎﾘﾊﾞﾀﾁｮｳ","pref":"愛知県","city":"稲沢市","address":"奥田堀畑町"},
{"zip_code":"4928245","kana_pref":"ｱｲﾁｹﾝ","kana_city":"ｲﾅｻﾞﾜｼ","kana_address":"ｵｸﾀﾞﾐﾅﾐﾊﾅﾉｷﾁｮｳ","pref":"愛知県","city":"稲沢市","address":"奥田南花ノ木町"},
{"zip_code":"4928254","kana_pref":"ｱｲﾁｹﾝ","kana_city":"ｲﾅｻﾞﾜｼ","kana_address":"ｵｸﾀﾞﾐﾔﾅｶﾞﾁｮｳ","pref":"愛知県","city":"稲沢市","address":"奥田宮長町"},
{"zip_code":"4928233","kana_pref":"ｱｲﾁｹﾝ","kana_city":"ｲﾅｻﾞﾜｼ","kana_address":"ｵｸﾀﾞﾁｮｳ","pref":"愛知県","city":"稲沢市","address":"奥田町"},
{"zip_code":"4928242","kana_pref":"ｱｲﾁｹﾝ","kana_city":"ｲﾅｻﾞﾜｼ","kana_address":"ｵｸﾀﾞﾁｮｳﾀﾊﾞﾀｷﾘ","pref":"愛知県","city":"稲沢市","address":"奥田町田畑切"},
{"zip_code":"4928242","kana_pref":"ｱｲﾁｹﾝ","kana_city":"ｲﾅｻﾞﾜｼ","kana_address":"ｵｸﾀﾞﾁｮｳﾌﾞﾝﾋﾁﾆｼ","pref":"愛知県","city":"稲沢市","address":"奥田町文七西"},
{"zip_code":"4928081","kana_pref":"ｱｲﾁｹﾝ","kana_city":"ｲﾅｻﾞﾜｼ","kana_address":"ｵﾘﾂﾞｱﾌﾞﾗﾃﾞﾝﾁｮｳ","pref":"愛知県","city":"稲沢市","address":"下津油田町"},
{"zip_code":"4928058","kana_pref":"ｱｲﾁｹﾝ","kana_city":"ｲﾅｻﾞﾜｼ","kana_address":"ｵﾘﾂﾞｳｼｱﾗｲﾁｮｳ","pref":"愛知県","city":"稲沢市","address":"下津牛洗町"},
{"zip_code":"4928054","kana_pref":"ｱｲﾁｹﾝ","kana_city":"ｲﾅｻﾞﾜｼ","kana_address":"ｵﾘﾂﾞｶﾀﾏﾁ","pref":"愛知県","city":"稲沢市","address":"下津片町"},
{"zip_code":"4928072","kana_pref":"ｱｲﾁｹﾝ","kana_city":"ｲﾅｻﾞﾜｼ","kana_address":"ｵﾘﾂﾞｷﾀｼﾝｼｮｳｼﾞﾁｮｳ","pref":"愛知県","city":"稲沢市","address":"下津北信正寺町"},
{"zip_code":"4928094","kana_pref":"ｱｲﾁｹﾝ","kana_city":"ｲﾅｻﾞﾜｼ","kana_address":"ｵﾘﾂﾞｷﾀﾔﾏ","pref":"愛知県","city":"稲沢市","address":"下津北山"},
{"zip_code":"4928067","kana_pref":"ｱｲﾁｹﾝ","kana_city":"ｲﾅｻﾞﾜｼ","kana_address":"ｵﾘﾂﾞｷﾀﾔﾏﾁｮｳ","pref":"愛知県","city":"稲沢市","address":"下津北山町"},
{"zip_code":"4928091","kana_pref":"ｱｲﾁｹﾝ","kana_city":"ｲﾅｻﾞﾜｼ","kana_address":"ｵﾘﾂﾞｸﾗｶｹ","pref":"愛知県","city":"稲沢市","address":"下津鞍掛"},
{"zip_code":"4928056","kana_pref":"ｱｲﾁｹﾝ","kana_city":"ｲﾅｻﾞﾜｼ","kana_address":"ｵﾘﾂﾞｸﾗｶｹﾁｮｳ","pref":"愛知県","city":"稲沢市","address":"下津鞍掛町"},
{"zip_code":"4928093","kana_pref":"ｱｲﾁｹﾝ","kana_city":"ｲﾅｻﾞﾜｼ","kana_address":"ｵﾘﾂﾞｺｲﾄﾞ","pref":"愛知県","city":"稲沢市","address":"下津小井戸"},
{"zip_code":"4928068","kana_pref":"ｱｲﾁｹﾝ","kana_city":"ｲﾅｻﾞﾜｼ","kana_address":"ｵﾘﾂﾞｺｲﾄﾞﾁｮｳ","pref":"愛知県","city":"稲沢市","address":"下津小井戸町"},
{"zip_code":"4928051","kana_pref":"ｱｲﾁｹﾝ","kana_city":"ｲﾅｻﾞﾜｼ","kana_address":"ｵﾘﾂﾞｺｳﾐｮｳｼﾞﾁｮｳ","pref":"愛知県","city":"稲沢市","address":"下津光明寺町"},
{"zip_code":"4928053","kana_pref":"ｱｲﾁｹﾝ","kana_city":"ｲﾅｻﾞﾜｼ","kana_address":"ｵﾘﾂﾞｼﾞｬｲｹﾁｮｳ","pref":"愛知県","city":"稲沢市","address":"下津蛇池町"},
{"zip_code":"4928066","kana_pref":"ｱｲﾁｹﾝ","kana_city":"ｲﾅｻﾞﾜｼ","kana_address":"ｵﾘﾂﾞｼﾝﾏﾁ","pref":"愛知県","city":"稲沢市","address":"下津新町"},
{"zip_code":"4928062","kana_pref":"ｱｲﾁｹﾝ","kana_city":"ｲﾅｻﾞﾜｼ","kana_address":"ｵﾘﾂﾞｽﾐﾖｼﾁｮｳ","pref":"愛知県","city":"稲沢市","address":"下津住吉町"},
{"zip_code":"4928065","kana_pref":"ｱｲﾁｹﾝ","kana_city":"ｲﾅｻﾞﾜｼ","kana_address":"ｵﾘﾂﾞﾀﾞｲﾓﾝﾁｮｳ","pref":"愛知県","city":"稲沢市","address":"下津大門町"},
{"zip_code":"4928061","kana_pref":"ｱｲﾁｹﾝ","kana_city":"ｲﾅｻﾞﾜｼ","kana_address":"ｵﾘﾂﾞﾀｶﾄﾞﾁｮｳ","pref":"愛知県","city":"稲沢市","address":"下津高戸町"},
{"zip_code":"4928085","kana_pref":"ｱｲﾁｹﾝ","kana_city":"ｲﾅｻﾞﾜｼ","kana_address":"ｵﾘﾂﾞﾀﾝｹﾞﾀﾞﾁｮｳ","pref":"愛知県","city":"稲沢市","address":"下津丹下田町"},
{"zip_code":"4928078","kana_pref":"ｱｲﾁｹﾝ","kana_city":"ｲﾅｻﾞﾜｼ","kana_address":"ｵﾘﾂﾞﾃﾗﾏｴﾁｮｳ","pref":"愛知県","city":"稲沢市","address":"下津寺前町"},
{"zip_code":"4928077","kana_pref":"ｱｲﾁｹﾝ","kana_city":"ｲﾅｻﾞﾜｼ","kana_address":"ｵﾘﾂﾞﾄﾞﾔﾏﾁｮｳ","pref":"愛知県","city":"稲沢市","address":"下津土山町"},
{"zip_code":"4928057","kana_pref":"ｱｲﾁｹﾝ","kana_city":"ｲﾅｻﾞﾜｼ","kana_address":"ｵﾘﾂﾞﾅｶﾞﾀﾁｮｳ","pref":"愛知県","city":"稲沢市","address":"下津長田町"},
{"zip_code":"4928064","kana_pref":"ｱｲﾁｹﾝ","kana_city":"ｲﾅｻﾞﾜｼ","kana_address":"ｵﾘﾂﾞﾆﾎﾝｽｷﾞﾁｮｳ","pref":"愛知県","city":"稲沢市","address":"下津二本杉町"},
{"zip_code":"4928052","kana_pref":"ｱｲﾁｹﾝ","kana_city":"ｲﾅｻﾞﾜｼ","kana_address":"ｵﾘﾂﾞﾌｼﾞﾂｶﾁｮｳ","pref":"愛知県","city":"稲沢市","address":"下津ふじ塚町"},
{"zip_code":"4928092","kana_pref":"ｱｲﾁｹﾝ","kana_city":"ｲﾅｻﾞﾜｼ","kana_address":"ｵﾘﾂﾞﾎﾄﾞｺﾛ","pref":"愛知県","city":"稲沢市","address":"下津穂所"},
{"zip_code":"4928055","kana_pref":"ｱｲﾁｹﾝ","kana_city":"ｲﾅｻﾞﾜｼ","kana_address":"ｵﾘﾂﾞﾎﾄﾞｺﾛﾁｮｳ","pref":"愛知県","city":"稲沢市","address":"下津穂所町"},
{"zip_code":"4928071","kana_pref":"ｱｲﾁｹﾝ","kana_city":"ｲﾅｻﾞﾜｼ","kana_address":"ｵﾘﾂﾞﾎﾝｺﾞｳﾁｮｳ","pref":"愛知県","city":"稲沢市","address":"下津本郷町"},
{"zip_code":"4928073","kana_pref":"ｱｲﾁｹﾝ","kana_city":"ｲﾅｻﾞﾜｼ","kana_address":"ｵﾘﾂﾞﾐﾅﾐｼﾝｼｮｳｼﾞﾁｮｳ","pref":"愛知県","city":"稲沢市","address":"下津南信正寺町"},
{"zip_code":"4928095","kana_pref":"ｱｲﾁｹﾝ","kana_city":"ｲﾅｻﾞﾜｼ","kana_address":"ｵﾘﾂﾞﾐﾅﾐﾔﾏ","pref":"愛知県","city":"稲沢市","address":"下津南山"},
{"zip_code":"4928084","kana_pref":"ｱｲﾁｹﾝ","kana_city":"ｲﾅｻﾞﾜｼ","kana_address":"ｵﾘﾂﾞﾐﾅﾐﾔﾏﾁｮｳ","pref":"愛知県","city":"稲沢市","address":"下津南山町"},
{"zip_code":"4928076","kana_pref":"ｱｲﾁｹﾝ","kana_city":"ｲﾅｻﾞﾜｼ","kana_address":"ｵﾘﾂﾞﾐﾔﾆｼﾁｮｳ","pref":"愛知県","city":"稲沢市","address":"下津宮西町"},
{"zip_code":"4928083","kana_pref":"ｱｲﾁｹﾝ","kana_city":"ｲﾅｻﾞﾜｼ","kana_address":"ｵﾘﾂﾞﾓﾘﾏﾁ","pref":"愛知県","city":"稲沢市","address":"下津森町"},
{"zip_code":"4928063","kana_pref":"ｱｲﾁｹﾝ","kana_city":"ｲﾅｻﾞﾜｼ","kana_address":"ｵﾘﾂﾞﾔｸﾞﾁﾁｮｳ","pref":"愛知県","city":"稲沢市","address":"下津矢口町"},
{"zip_code":"4928074","kana_pref":"ｱｲﾁｹﾝ","kana_city":"ｲﾅｻﾞﾜｼ","kana_address":"ｵﾘﾂﾞｼﾓﾏﾁﾋｶﾞｼ","pref":"愛知県","city":"稲沢市","address":"下津下町東"},
{"zip_code":"4928082","kana_pref":"ｱｲﾁｹﾝ","kana_city":"ｲﾅｻﾞﾜｼ","kana_address":"ｵﾘﾂﾞｼﾓﾏﾁﾆｼ","pref":"愛知県","city":"稲沢市","address":"下津下町西"},
{"zip_code":"4928075","kana_pref":"ｱｲﾁｹﾝ","kana_city":"ｲﾅｻﾞﾜｼ","kana_address":"ｵﾘﾂﾞﾁｮｳ","pref":"愛知県","city":"稲沢市","address":"下津町"},
{"zip_code":"4928355","kana_pref":"ｱｲﾁｹﾝ","kana_city":"ｲﾅｻﾞﾜｼ","kana_address":"ｶﾀﾊﾗｲｼｷﾁｮｳ","pref":"愛知県","city":"稲沢市","address":"片原一色町"},
{"zip_code":"4928174","kana_pref":"ｱｲﾁｹﾝ","kana_city":"ｲﾅｻﾞﾜｼ","kana_address":"ｷﾀｲﾁﾊﾞﾆｼﾏﾁ","pref":"愛知県","city":"稲沢市","address":"北市場西町"},
{"zip_code":"4928178","kana_pref":"ｱｲﾁｹﾝ","kana_city":"ｲﾅｻﾞﾜｼ","kana_address":"ｷﾀｲﾁﾊﾞﾎﾝﾏﾁ","pref":"愛知県","city":"稲沢市","address":"北市場本町"},
{"zip_code":"4928175","kana_pref":"ｱｲﾁｹﾝ","kana_city":"ｲﾅｻﾞﾜｼ","kana_address":"ｷﾀｲﾁﾊﾞﾐﾅﾐﾏﾁ","pref":"愛知県","city":"稲沢市","address":"北市場南町"},
{"zip_code":"4928173","kana_pref":"ｱｲﾁｹﾝ","kana_city":"ｲﾅｻﾞﾜｼ","kana_address":"ｷﾀｲﾁﾊﾞﾁｮｳ","pref":"愛知県","city":"稲沢市","address":"北市場町"},
{"zip_code":"4928448","kana_pref":"ｱｲﾁｹﾝ","kana_city":"ｲﾅｻﾞﾜｼ","kana_address":"ｷﾀｵｳﾐﾁｮｳ","pref":"愛知県","city":"稲沢市","address":"北麻績町"},
{"zip_code":"4928410","kana_pref":"ｱｲﾁｹﾝ","kana_city":"ｲﾅｻﾞﾜｼ","kana_address":"ｷﾀｼﾞﾏ","pref":"愛知県","city":"稲沢市","address":"北島"},
{"zip_code":"4928411","kana_pref":"ｱｲﾁｹﾝ","kana_city":"ｲﾅｻﾞﾜｼ","kana_address":"ｷﾀｼﾞﾏﾁｮｳ","pref":"愛知県","city":"稲沢市","address":"北島町"},
{"zip_code":"4928349","kana_pref":"ｱｲﾁｹﾝ","kana_city":"ｲﾅｻﾞﾜｼ","kana_address":"ｷﾞﾁｮｳ","pref":"愛知県","city":"稲沢市","address":"儀長"},
{"zip_code":"4928210","kana_pref":"ｱｲﾁｹﾝ","kana_city":"ｲﾅｻﾞﾜｼ","kana_address":"ｷﾏﾀ","pref":"愛知県","city":"稲沢市","address":"木全"},
{"zip_code":"4928209","kana_pref":"ｱｲﾁｹﾝ","kana_city":"ｲﾅｻﾞﾜｼ","kana_address":"ｷﾏﾀﾁｮｳ","pref":"愛知県","city":"稲沢市","address":"木全町"},
{"zip_code":"4928033","kana_pref":"ｱｲﾁｹﾝ","kana_city":"ｲﾅｻﾞﾜｼ","kana_address":"ｸｶﾞﾀｲﾁﾘﾔﾏﾁｮｳ","pref":"愛知県","city":"稲沢市","address":"陸田一里山町"},
{"zip_code":"4928043","kana_pref":"ｱｲﾁｹﾝ","kana_city":"ｲﾅｻﾞﾜｼ","kana_address":"ｸｶﾞﾀｳﾏﾔﾏﾁｮｳ","pref":"愛知県","city":"稲沢市","address":"陸田馬山町"},
{"zip_code":"4928034","kana_pref":"ｱｲﾁｹﾝ","kana_city":"ｲﾅｻﾞﾜｼ","kana_address":"ｸｶﾞﾀｸﾘﾊﾞﾔｼﾁｮｳ","pref":"愛知県","city":"稲沢市","address":"陸田栗林町"},
{"zip_code":"4928031","kana_pref":"ｱｲﾁｹﾝ","kana_city":"ｲﾅｻﾞﾜｼ","kana_address":"ｸｶﾞﾀﾀｶﾊﾞﾀﾁｮｳ","pref":"愛知県","city":"稲沢市","address":"陸田高畑町"},
{"zip_code":"4928037","kana_pref":"ｱｲﾁｹﾝ","kana_city":"ｲﾅｻﾞﾜｼ","kana_address":"ｸｶﾞﾀﾊｸｻﾝﾁｮｳ","pref":"愛知県","city":"稲沢市","address":"陸田白山町"},
{"zip_code":"4928042","kana_pref":"ｱｲﾁｹﾝ","kana_city":"ｲﾅｻﾞﾜｼ","kana_address":"ｸｶﾞﾀﾊﾅﾂﾞｶﾁｮｳ","pref":"愛知県","city":"稲沢市","address":"陸田花塚町"},
{"zip_code":"4928032","kana_pref":"ｱｲﾁｹﾝ","kana_city":"ｲﾅｻﾞﾜｼ","kana_address":"ｸｶﾞﾀﾋｶﾞｼﾃﾞﾁｮｳ","pref":"愛知県","city":"稲沢市","address":"陸田東出町"},
{"zip_code":"4928036","kana_pref":"ｱｲﾁｹﾝ","kana_city":"ｲﾅｻﾞﾜｼ","kana_address":"ｸｶﾞﾀﾎﾝﾏﾁ","pref":"愛知県","city":"稲沢市","address":"陸田本町"},
{"zip_code":"4928041","kana_pref":"ｱｲﾁｹﾝ","kana_city":"ｲﾅｻﾞﾜｼ","kana_address":"ｸｶﾞﾀﾏﾙﾉｳﾁﾁｮｳ","pref":"愛知県","city":"稲沢市","address":"陸田丸之内町"},
{"zip_code":"4928044","kana_pref":"ｱｲﾁｹﾝ","kana_city":"ｲﾅｻﾞﾜｼ","kana_address":"ｸｶﾞﾀﾐﾔﾏｴ","pref":"愛知県","city":"稲沢市","address":"陸田宮前"},
{"zip_code":"4928035","kana_pref":"ｱｲﾁｹﾝ","kana_city":"ｲﾅｻﾞﾜｼ","kana_address":"ｸｶﾞﾀﾐﾔﾏｴﾁｮｳ","pref":"愛知県","city":"稲沢市","address":"陸田宮前町"},
{"zip_code":"4928038","kana_pref":"ｱｲﾁｹﾝ","kana_city":"ｲﾅｻﾞﾜｼ","kana_address":"ｸｶﾞﾀﾁｮｳ","pref":"愛知県","city":"稲沢市","address":"陸田町"},
{"zip_code":"4928177","kana_pref":"ｱｲﾁｹﾝ","kana_city":"ｲﾅｻﾞﾜｼ","kana_address":"ｸｻｶﾍﾞﾋｶﾞｼﾏﾁ","pref":"愛知県","city":"稲沢市","address":"日下部東町"},
{"zip_code":"4928185","kana_pref":"ｱｲﾁｹﾝ","kana_city":"ｲﾅｻﾞﾜｼ","kana_address":"ｸｻｶﾍﾞﾆｼﾏﾁ","pref":"愛知県","city":"稲沢市","address":"日下部西町"},
{"zip_code":"4928183","kana_pref":"ｱｲﾁｹﾝ","kana_city":"ｲﾅｻﾞﾜｼ","kana_address":"ｸｻｶﾍﾞﾐﾅﾐﾏﾁ","pref":"愛知県","city":"稲沢市","address":"日下部南町"},
{"zip_code":"4928181","kana_pref":"ｱｲﾁｹﾝ","kana_city":"ｲﾅｻﾞﾜｼ","kana_address":"ｸｻｶﾍﾞｷﾀﾏﾁ","pref":"愛知県","city":"稲沢市","address":"日下部北町"},
{"zip_code":"4928182","kana_pref":"ｱｲﾁｹﾝ","kana_city":"ｲﾅｻﾞﾜｼ","kana_address":"ｸｻｶﾍﾞﾅｶﾏﾁ","pref":"愛知県","city":"稲沢市","address":"日下部中町"},
{"zip_code":"4928176","kana_pref":"ｱｲﾁｹﾝ","kana_city":"ｲﾅｻﾞﾜｼ","kana_address":"ｸｻｶﾍﾞﾊﾅﾉｷﾁｮｳ","pref":"愛知県","city":"稲沢市","address":"日下部花ノ木町"},
{"zip_code":"4928184","kana_pref":"ｱｲﾁｹﾝ","kana_city":"ｲﾅｻﾞﾜｼ","kana_address":"ｸｻｶﾍﾞﾏﾂﾉﾁｮｳ","pref":"愛知県","city":"稲沢市","address":"日下部松野町"},
{"zip_code":"4928186","kana_pref":"ｱｲﾁｹﾝ","kana_city":"ｲﾅｻﾞﾜｼ","kana_address":"ｸｻｶﾍﾞﾁｮｳ","pref":"愛知県","city":"稲沢市","address":"日下部町"},
{"zip_code":"4928144","kana_pref":"ｱｲﾁｹﾝ","kana_city":"ｲﾅｻﾞﾜｼ","kana_address":"ｺｲｹ","pref":"愛知県","city":"稲沢市","address":"小池"},
{"zip_code":"4928136","kana_pref":"ｱｲﾁｹﾝ","kana_city":"ｲﾅｻﾞﾜｼ","kana_address":"ｺｲｹｼｮｳﾒｲｼﾞｷﾀｶｲﾄﾞｳ","pref":"愛知県","city":"稲沢市","address":"小池正明寺北街道"},
{"zip_code":"4928147","kana_pref":"ｱｲﾁｹﾝ","kana_city":"ｲﾅｻﾞﾜｼ","kana_address":"ｺｲｹｼｮｳﾒｲｼﾞﾁｮｳ","pref":"愛知県","city":"稲沢市","address":"小池正明寺町"},
{"zip_code":"4928137","kana_pref":"ｱｲﾁｹﾝ","kana_city":"ｲﾅｻﾞﾜｼ","kana_address":"ｺｳﾉﾐﾔ","pref":"愛知県","city":"稲沢市","address":"国府宮"},
{"zip_code":"4928139","kana_pref":"ｱｲﾁｹﾝ","kana_city":"ｲﾅｻﾞﾜｼ","kana_address":"ｺｳﾉﾐﾔｼﾞﾝﾃﾞﾝﾁｮｳ","pref":"愛知県","city":"稲沢市","address":"国府宮神田町"},
{"zip_code":"4928138","kana_pref":"ｱｲﾁｹﾝ","kana_city":"ｲﾅｻﾞﾜｼ","kana_address":"ｺｳﾉﾐﾔﾁｮｳ","pref":"愛知県","city":"稲沢市","address":"国府宮町"},
{"zip_code":"4928101","kana_pref":"ｱｲﾁｹﾝ","kana_city":"ｲﾅｻﾞﾜｼ","kana_address":"ｺｳﾜｲｹﾀﾞﾁｮｳ","pref":"愛知県","city":"稲沢市","address":"子生和池田町"},
{"zip_code":"4928105","kana_pref":"ｱｲﾁｹﾝ","kana_city":"ｲﾅｻﾞﾜｼ","kana_address":"ｺｳﾜｴﾝﾊﾞﾁｮｳ","pref":"愛知県","city":"稲沢市","address":"子生和円場町"},
{"zip_code":"4928111","kana_pref":"ｱｲﾁｹﾝ","kana_city":"ｲﾅｻﾞﾜｼ","kana_address":"ｺｳﾜｺﾊﾗﾁｮｳ","pref":"愛知県","city":"稲沢市","address":"子生和小原町"},
{"zip_code":"4928108","kana_pref":"ｱｲﾁｹﾝ","kana_city":"ｲﾅｻﾞﾜｼ","kana_address":"ｺｳﾜｺﾔｽｶﾞﾁｮｳ","pref":"愛知県","city":"稲沢市","address":"子生和子安賀町"},
{"zip_code":"4928112","kana_pref":"ｱｲﾁｹﾝ","kana_city":"ｲﾅｻﾞﾜｼ","kana_address":"ｺｳﾜｻｶﾀﾁｮｳ","pref":"愛知県","city":"稲沢市","address":"子生和坂田町"},
{"zip_code":"4928109","kana_pref":"ｱｲﾁｹﾝ","kana_city":"ｲﾅｻﾞﾜｼ","kana_address":"ｺｳﾜｻﾝﾉｳﾁｮｳ","pref":"愛知県","city":"稲沢市","address":"子生和山王町"},
{"zip_code":"4928102","kana_pref":"ｱｲﾁｹﾝ","kana_city":"ｲﾅｻﾞﾜｼ","kana_address":"ｺｳﾜｼﾝﾒｲﾁｮｳ","pref":"愛知県","city":"稲沢市","address":"子生和神明町"},
{"zip_code":"4928107","kana_pref":"ｱｲﾁｹﾝ","kana_city":"ｲﾅｻﾞﾜｼ","kana_address":"ｺｳﾜｽﾐﾖｼﾁｮｳ","pref":"愛知県","city":"稲沢市","address":"子生和住吉町"},
{"zip_code":"4928103","kana_pref":"ｱｲﾁｹﾝ","kana_city":"ｲﾅｻﾞﾜｼ","kana_address":"ｺｳﾜﾐｿﾞｼﾁｮｳ","pref":"愛知県","city":"稲沢市","address":"子生和溝師町"},
{"zip_code":"4928104","kana_pref":"ｱｲﾁｹﾝ","kana_city":"ｲﾅｻﾞﾜｼ","kana_address":"ｺｳﾜﾔｼﾏﾁｮｳ","pref":"愛知県","city":"稲沢市","address":"子生和八島町"},
{"zip_code":"4928106","kana_pref":"ｱｲﾁｹﾝ","kana_city":"ｲﾅｻﾞﾜｼ","kana_address":"ｺｳﾜﾁｮｳ","pref":"愛知県","city":"稲沢市","address":"子生和町"},
{"zip_code":"4928146","kana_pref":"ｱｲﾁｹﾝ","kana_city":"ｲﾅｻﾞﾜｼ","kana_address":"ｺﾞｸｼｮﾁｮｳ","pref":"愛知県","city":"稲沢市","address":"御供所町"},
{"zip_code":"4928212","kana_pref":"ｱｲﾁｹﾝ","kana_city":"ｲﾅｻﾞﾜｼ","kana_address":"ｺｻﾞﾜ","pref":"愛知県","city":"稲沢市","address":"小沢"},
{"zip_code":"4928265","kana_pref":"ｱｲﾁｹﾝ","kana_city":"ｲﾅｻﾞﾜｼ","kana_address":"ｺﾃﾞﾗﾁｮｳ","pref":"愛知県","city":"稲沢市","address":"小寺町"},
{"zip_code":"4928444","kana_pref":"ｱｲﾁｹﾝ","kana_city":"ｲﾅｻﾞﾜｼ","kana_address":"ｺﾐﾉﾁｮｳ","pref":"愛知県","city":"稲沢市","address":"込野町"},
{"zip_code":"4928221","kana_pref":"ｱｲﾁｹﾝ","kana_city":"ｲﾅｻﾞﾜｼ","kana_address":"ｻｲﾜｲﾁｮｳ","pref":"愛知県","city":"稲沢市","address":"幸町"},
{"zip_code":"4928454","kana_pref":"ｱｲﾁｹﾝ","kana_city":"ｲﾅｻﾞﾜｼ","kana_address":"ｻｶﾀﾁｮｳ","pref":"愛知県","city":"稲沢市","address":"坂田町"},
{"zip_code":"4928272","kana_pref":"ｱｲﾁｹﾝ","kana_city":"ｲﾅｻﾞﾜｼ","kana_address":"ｻｸﾗｷﾞ","pref":"愛知県","city":"稲沢市","address":"桜木"},
{"zip_code":"4928273","kana_pref":"ｱｲﾁｹﾝ","kana_city":"ｲﾅｻﾞﾜｼ","kana_address":"ｻｸﾗｷﾞﾐﾔﾏｴﾁｮｳ","pref":"愛知県","city":"稲沢市","address":"桜木宮前町"},
{"zip_code":"4928261","kana_pref":"ｱｲﾁｹﾝ","kana_city":"ｲﾅｻﾞﾜｼ","kana_address":"ｼｹﾞﾓﾄ","pref":"愛知県","city":"稲沢市","address":"重本"},
{"zip_code":"4928203","kana_pref":"ｱｲﾁｹﾝ","kana_city":"ｲﾅｻﾞﾜｼ","kana_address":"ｼﾏｺﾊﾗﾁｮｳ","pref":"愛知県","city":"稲沢市","address":"島小原町"},
{"zip_code":"4928201","kana_pref":"ｱｲﾁｹﾝ","kana_city":"ｲﾅｻﾞﾜｼ","kana_address":"ｼﾏｺﾔｽｶﾁｮｳ","pref":"愛知県","city":"稲沢市","address":"島子安賀町"},
{"zip_code":"4928204","kana_pref":"ｱｲﾁｹﾝ","kana_city":"ｲﾅｻﾞﾜｼ","kana_address":"ｼﾏﾀｶｽｶﾁｮｳ","pref":"愛知県","city":"稲沢市","address":"島高須賀町"},
{"zip_code":"4928202","kana_pref":"ｱｲﾁｹﾝ","kana_city":"ｲﾅｻﾞﾜｼ","kana_address":"ｼﾏﾋｶﾞｼﾉｺﾞｳﾁｮｳ","pref":"愛知県","city":"稲沢市","address":"島東之郷町"},
{"zip_code":"4928205","kana_pref":"ｱｲﾁｹﾝ","kana_city":"ｲﾅｻﾞﾜｼ","kana_address":"ｼﾏﾁｮｳ","pref":"愛知県","city":"稲沢市","address":"島町"},
{"zip_code":"4928313","kana_pref":"ｱｲﾁｹﾝ","kana_city":"ｲﾅｻﾞﾜｼ","kana_address":"ｼﾐｽﾞｱﾜﾗﾁｮｳ","pref":"愛知県","city":"稲沢市","address":"清水阿原町"},
{"zip_code":"4928315","kana_pref":"ｱｲﾁｹﾝ","kana_city":"ｲﾅｻﾞﾜｼ","kana_address":"ｼﾐｽﾞｺﾞｳﾆｼﾁｮｳ","pref":"愛知県","city":"稲沢市","address":"清水郷西町"},
{"zip_code":"4928316","kana_pref":"ｱｲﾁｹﾝ","kana_city":"ｲﾅｻﾞﾜｼ","kana_address":"ｼﾐｽﾞﾃﾗﾏｴﾁｮｳ","pref":"愛知県","city":"稲沢市","address":"清水寺前町"},
{"zip_code":"4928311","kana_pref":"ｱｲﾁｹﾝ","kana_city":"ｲﾅｻﾞﾜｼ","kana_address":"ｼﾐｽﾞﾆｼｶﾜﾗﾁｮｳ","pref":"愛知県","city":"稲沢市","address":"清水西川原町"},
{"zip_code":"4928312","kana_pref":"ｱｲﾁｹﾝ","kana_city":"ｲﾅｻﾞﾜｼ","kana_address":"ｼﾐｽﾞﾊﾁｼﾞﾘﾁｮｳ","pref":"愛知県","city":"稲沢市","address":"清水八尻町"},
{"zip_code":"4928317","kana_pref":"ｱｲﾁｹﾝ","kana_city":"ｲﾅｻﾞﾜｼ","kana_address":"ｼﾐｽﾞﾔｶﾞﾐﾁｮｳ","pref":"愛知県","city":"稲沢市","address":"清水八神町"},
{"zip_code":"4928314","kana_pref":"ｱｲﾁｹﾝ","kana_city":"ｲﾅｻﾞﾜｼ","kana_address":"ｼﾐｽﾞﾁｮｳ","pref":"愛知県","city":"稲沢市","address":"清水町"},
{"zip_code":"4928310","kana_pref":"ｱｲﾁｹﾝ","kana_city":"ｲﾅｻﾞﾜｼ","kana_address":"ｼﾓﾔ","pref":"愛知県","city":"稲沢市","address":"下屋"},
{"zip_code":"4928319","kana_pref":"ｱｲﾁｹﾝ","kana_city":"ｲﾅｻﾞﾜｼ","kana_address":"ｼﾓﾔﾁｮｳ","pref":"愛知県","city":"稲沢市","address":"下屋町"},
{"zip_code":"4928145","kana_pref":"ｱｲﾁｹﾝ","kana_city":"ｲﾅｻﾞﾜｼ","kana_address":"ｼｮｳﾒｲｼﾞ","pref":"愛知県","city":"稲沢市","address":"正明寺"},
{"zip_code":"4928135","kana_pref":"ｱｲﾁｹﾝ","kana_city":"ｲﾅｻﾞﾜｼ","kana_address":"ｼﾞﾛﾏﾙｲｼﾂﾞｶﾁｮｳ","pref":"愛知県","city":"稲沢市","address":"治郎丸石塚町"},
{"zip_code":"4928134","kana_pref":"ｱｲﾁｹﾝ","kana_city":"ｲﾅｻﾞﾜｼ","kana_address":"ｼﾞﾛﾏﾙｵｵｽﾐﾁｮｳ","pref":"愛知県","city":"稲沢市","address":"治郎丸大角町"},
{"zip_code":"4928115","kana_pref":"ｱｲﾁｹﾝ","kana_city":"ｲﾅｻﾞﾜｼ","kana_address":"ｼﾞﾛﾏﾙﾋｶﾞｼﾏﾁ","pref":"愛知県","city":"稲沢市","address":"治郎丸東町"},
{"zip_code":"4928116","kana_pref":"ｱｲﾁｹﾝ","kana_city":"ｲﾅｻﾞﾜｼ","kana_address":"ｼﾞﾛﾏﾙﾆｼﾏﾁ","pref":"愛知県","city":"稲沢市","address":"治郎丸西町"},
{"zip_code":"4928127","kana_pref":"ｱｲﾁｹﾝ","kana_city":"ｲﾅｻﾞﾜｼ","kana_address":"ｼﾞﾛﾏﾙﾐﾅﾐﾏﾁ","pref":"愛知県","city":"稲沢市","address":"治郎丸南町"},
{"zip_code":"4928118","kana_pref":"ｱｲﾁｹﾝ","kana_city":"ｲﾅｻﾞﾜｼ","kana_address":"ｼﾞﾛﾏﾙｷﾀﾏﾁ","pref":"愛知県","city":"稲沢市","address":"治郎丸北町"},
{"zip_code":"4928126","kana_pref":"ｱｲﾁｹﾝ","kana_city":"ｲﾅｻﾞﾜｼ","kana_address":"ｼﾞﾛﾏﾙｺﾞｳﾏｴﾁｮｳ","pref":"愛知県","city":"稲沢市","address":"治郎丸郷前町"},
{"zip_code":"4928113","kana_pref":"ｱｲﾁｹﾝ","kana_city":"ｲﾅｻﾞﾜｼ","kana_address":"ｼﾞﾛﾏﾙｼﾝﾎﾞｸﾁｮｳ","pref":"愛知県","city":"稲沢市","address":"治郎丸神木町"},
{"zip_code":"4928125","kana_pref":"ｱｲﾁｹﾝ","kana_city":"ｲﾅｻﾞﾜｼ","kana_address":"ｼﾞﾛﾏﾙｾｲｼｷﾁｮｳ","pref":"愛知県","city":"稲沢市","address":"治郎丸清敷町"},
{"zip_code":"4928119","kana_pref":"ｱｲﾁｹﾝ","kana_city":"ｲﾅｻﾞﾜｼ","kana_address":"ｼﾞﾛﾏﾙﾀﾞｲﾐｮｳﾁｮｳ","pref":"愛知県","city":"稲沢市","address":"治郎丸大明町"},
{"zip_code":"4928117","kana_pref":"ｱｲﾁｹﾝ","kana_city":"ｲﾅｻﾞﾜｼ","kana_address":"ｼﾞﾛﾏﾙﾀｶｽﾁｮｳ","pref":"愛知県","city":"稲沢市","address":"治郎丸高須町"},
{"zip_code":"4928114","kana_pref":"ｱｲﾁｹﾝ","kana_city":"ｲﾅｻﾞﾜｼ","kana_address":"ｼﾞﾛﾏﾙﾂﾊﾞｷﾁｮｳ","pref":"愛知県","city":"稲沢市","address":"治郎丸椿町"},
{"zip_code":"4928132","kana_pref":"ｱｲﾁｹﾝ","kana_city":"ｲﾅｻﾞﾜｼ","kana_address":"ｼﾞﾛﾏﾙﾃﾝｼﾞﾝﾁｮｳ","pref":"愛知県","city":"稲沢市","address":"治郎丸天神町"},
{"zip_code":"4928124","kana_pref":"ｱｲﾁｹﾝ","kana_city":"ｲﾅｻﾞﾜｼ","kana_address":"ｼﾞﾛﾏﾙﾄﾞｲﾏﾁ","pref":"愛知県","city":"稲沢市","address":"治郎丸土井町"},
{"zip_code":"4928128","kana_pref":"ｱｲﾁｹﾝ","kana_city":"ｲﾅｻﾞﾜｼ","kana_address":"ｼﾞﾛﾏﾙﾅｶﾏﾁ","pref":"愛知県","city":"稲沢市","address":"治郎丸中町"},
{"zip_code":"4928123","kana_pref":"ｱｲﾁｹﾝ","kana_city":"ｲﾅｻﾞﾜｼ","kana_address":"ｼﾞﾛﾏﾙﾊｸｻﾝﾁｮｳ","pref":"愛知県","city":"稲沢市","address":"治郎丸白山町"},
{"zip_code":"4928131","kana_pref":"ｱｲﾁｹﾝ","kana_city":"ｲﾅｻﾞﾜｼ","kana_address":"ｼﾞﾛﾏﾙﾌﾙｴﾁｮｳ","pref":"愛知県","city":"稲沢市","address":"治郎丸古江町"},
{"zip_code":"4928133","kana_pref":"ｱｲﾁｹﾝ","kana_city":"ｲﾅｻﾞﾜｼ","kana_address":"ｼﾞﾛﾏﾙﾎｿﾐﾁﾁｮｳ","pref":"愛知県","city":"稲沢市","address":"治郎丸細道町"},
{"zip_code":"4928122","kana_pref":"ｱｲﾁｹﾝ","kana_city":"ｲﾅｻﾞﾜｼ","kana_address":"ｼﾞﾛﾏﾙﾓﾄﾏﾁ","pref":"愛知県","city":"稲沢市","address":"治郎丸元町"},
{"zip_code":"4928121","kana_pref":"ｱｲﾁｹﾝ","kana_city":"ｲﾅｻﾞﾜｼ","kana_address":"ｼﾞﾛﾏﾙﾔﾅｷﾞﾁｮｳ","pref":"愛知県","city":"稲沢市","address":"治郎丸柳町"},
{"zip_code":"4928403","kana_pref":"ｱｲﾁｹﾝ","kana_city":"ｲﾅｻﾞﾜｼ","kana_address":"ｾﾝﾀﾞｲ","pref":"愛知県","city":"稲沢市","address":"千代"},
{"zip_code":"4928404","kana_pref":"ｱｲﾁｹﾝ","kana_city":"ｲﾅｻﾞﾜｼ","kana_address":"ｾﾝﾀﾞｲﾆｼﾏﾁ","pref":"愛知県","city":"稲沢市","address":"千代西町"},
{"zip_code":"4928402","kana_pref":"ｱｲﾁｹﾝ","kana_city":"ｲﾅｻﾞﾜｼ","kana_address":"ｾﾝﾀﾞｲﾁｮｳ","pref":"愛知県","city":"稲沢市","address":"千代町"},
{"zip_code":"4928339","kana_pref":"ｱｲﾁｹﾝ","kana_city":"ｲﾅｻﾞﾜｼ","kana_address":"ﾀｲﾗｴﾑｶｴﾁｮｳ","pref":"愛知県","city":"稲沢市","address":"平江向町"},
{"zip_code":"4928332","kana_pref":"ｱｲﾁｹﾝ","kana_city":"ｲﾅｻﾞﾜｼ","kana_address":"ﾀｲﾗｵｶﾞﾘﾁｮｳ","pref":"愛知県","city":"稲沢市","address":"平尾苅町"},
{"zip_code":"4928338","kana_pref":"ｱｲﾁｹﾝ","kana_city":"ｲﾅｻﾞﾜｼ","kana_address":"ﾀｲﾗｶﾅﾓﾘﾁｮｳ","pref":"愛知県","city":"稲沢市","address":"平金森町"},
{"zip_code":"4928336","kana_pref":"ｱｲﾁｹﾝ","kana_city":"ｲﾅｻﾞﾜｼ","kana_address":"ﾀｲﾗｶﾘﾀﾁｮｳ","pref":"愛知県","city":"稲沢市","address":"平苅田町"},
{"zip_code":"4928337","kana_pref":"ｱｲﾁｹﾝ","kana_city":"ｲﾅｻﾞﾜｼ","kana_address":"ﾀｲﾗｻｲｸｿﾞｳﾁｮｳ","pref":"愛知県","city":"稲沢市","address":"平細工蔵町"},
{"zip_code":"4928334","kana_pref":"ｱｲﾁｹﾝ","kana_city":"ｲﾅｻﾞﾜｼ","kana_address":"ﾀｲﾗﾀｶﾐﾁﾁｮｳ","pref":"愛知県","city":"稲沢市","address":"平高道町"},
{"zip_code":"4928333","kana_pref":"ｱｲﾁｹﾝ","kana_city":"ｲﾅｻﾞﾜｼ","kana_address":"ﾀｲﾗﾊﾁﾉﾂﾎﾞﾁｮｳ","pref":"愛知県","city":"稲沢市","address":"平蜂ノ坪町"},
{"zip_code":"4928331","kana_pref":"ｱｲﾁｹﾝ","kana_city":"ｲﾅｻﾞﾜｼ","kana_address":"ﾀｲﾗﾌﾞｸﾃﾞﾝﾁｮｳ","pref":"愛知県","city":"稲沢市","address":"平佛供田町"},
{"zip_code":"4928423","kana_pref":"ｱｲﾁｹﾝ","kana_city":"ｲﾅｻﾞﾜｼ","kana_address":"ﾀｶｼｹﾞﾅｶﾏﾁ","pref":"愛知県","city":"稲沢市","address":"高重中町"},
{"zip_code":"4928424","kana_pref":"ｱｲﾁｹﾝ","kana_city":"ｲﾅｻﾞﾜｼ","kana_address":"ﾀｶｼｹﾞﾋｶﾞｼﾏﾁ","pref":"愛知県","city":"稲沢市","address":"高重東町"},
{"zip_code":"4928421","kana_pref":"ｱｲﾁｹﾝ","kana_city":"ｲﾅｻﾞﾜｼ","kana_address":"ﾀｶｼｹﾞﾆｼﾏﾁ","pref":"愛知県","city":"稲沢市","address":"高重西町"},
{"zip_code":"4928422","kana_pref":"ｱｲﾁｹﾝ","kana_city":"ｲﾅｻﾞﾜｼ","kana_address":"ﾀｶｼｹﾞﾁｮｳ","pref":"愛知県","city":"稲沢市","address":"高重町"},
{"zip_code":"4928213","kana_pref":"ｱｲﾁｹﾝ","kana_city":"ｲﾅｻﾞﾜｼ","kana_address":"ﾀｶﾐﾄﾞｳ","pref":"愛知県","city":"稲沢市","address":"高御堂"},
{"zip_code":"4928285","kana_pref":"ｱｲﾁｹﾝ","kana_city":"ｲﾅｻﾞﾜｼ","kana_address":"ﾀｹﾉｺｼﾋｶﾞｼﾏﾁ","pref":"愛知県","city":"稲沢市","address":"竹腰東町"},
{"zip_code":"4928287","kana_pref":"ｱｲﾁｹﾝ","kana_city":"ｲﾅｻﾞﾜｼ","kana_address":"ﾀｹﾉｺｼﾆｼﾏﾁ","pref":"愛知県","city":"稲沢市","address":"竹腰西町"},
{"zip_code":"4928288","kana_pref":"ｱｲﾁｹﾝ","kana_city":"ｲﾅｻﾞﾜｼ","kana_address":"ﾀｹﾉｺｼｷﾀﾏﾁ","pref":"愛知県","city":"稲沢市","address":"竹腰北町"},
{"zip_code":"4928286","kana_pref":"ｱｲﾁｹﾝ","kana_city":"ｲﾅｻﾞﾜｼ","kana_address":"ﾀｹﾉｺｼﾅｶﾏﾁ","pref":"愛知県","city":"稲沢市","address":"竹腰中町"},
{"zip_code":"4928289","kana_pref":"ｱｲﾁｹﾝ","kana_city":"ｲﾅｻﾞﾜｼ","kana_address":"ﾀｹﾉｺｼﾎﾝﾏﾁ","pref":"愛知県","city":"稲沢市","address":"竹腰本町"},
{"zip_code":"4928455","kana_pref":"ｱｲﾁｹﾝ","kana_city":"ｲﾅｻﾞﾜｼ","kana_address":"ﾀｼﾛ","pref":"愛知県","city":"稲沢市","address":"田代"},
{"zip_code":"4928442","kana_pref":"ｱｲﾁｹﾝ","kana_city":"ｲﾅｻﾞﾜｼ","kana_address":"ﾂｹｼﾏﾁｮｳ","pref":"愛知県","city":"稲沢市","address":"附島町"},
{"zip_code":"4928391","kana_pref":"ｱｲﾁｹﾝ","kana_city":"ｲﾅｻﾞﾜｼ","kana_address":"ﾅｶﾉｶﾜﾊﾞﾀﾁｮｳ","pref":"愛知県","city":"稲沢市","address":"中野川端町"},
{"zip_code":"4928436","kana_pref":"ｱｲﾁｹﾝ","kana_city":"ｲﾅｻﾞﾜｼ","kana_address":"ﾅｶﾉｼｮｳｶｲﾄﾞｳﾁｮｳ","pref":"愛知県","city":"稲沢市","address":"中之庄海道町"},
{"zip_code":"4928431","kana_pref":"ｱｲﾁｹﾝ","kana_city":"ｲﾅｻﾞﾜｼ","kana_address":"ﾅｶﾉｼｮｳﾀｶﾊﾞﾀﾁｮｳ","pref":"愛知県","city":"稲沢市","address":"中之庄高畑町"},
{"zip_code":"4928434","kana_pref":"ｱｲﾁｹﾝ","kana_city":"ｲﾅｻﾞﾜｼ","kana_address":"ﾅｶﾉｼｮｳﾂﾂﾐｸﾞﾛﾁｮｳ","pref":"愛知県","city":"稲沢市","address":"中之庄堤畔町"},
{"zip_code":"4928437","kana_pref":"ｱｲﾁｹﾝ","kana_city":"ｲﾅｻﾞﾜｼ","kana_address":"ﾅｶﾉｼｮｳﾅｶﾞﾂﾂﾐﾁｮｳ","pref":"愛知県","city":"稲沢市","address":"中之庄長堤町"},
{"zip_code":"4928432","kana_pref":"ｱｲﾁｹﾝ","kana_city":"ｲﾅｻﾞﾜｼ","kana_address":"ﾅｶﾉｼｮｳﾊﾝﾀﾞﾁｮｳ","pref":"愛知県","city":"稲沢市","address":"中之庄半田町"},
{"zip_code":"4928433","kana_pref":"ｱｲﾁｹﾝ","kana_city":"ｲﾅｻﾞﾜｼ","kana_address":"ﾅｶﾉｼｮｳﾓﾄﾔｼｷﾁｮｳ","pref":"愛知県","city":"稲沢市","address":"中之庄元屋敷町"},
{"zip_code":"4928435","kana_pref":"ｱｲﾁｹﾝ","kana_city":"ｲﾅｻﾞﾜｼ","kana_address":"ﾅｶﾉｼｮｳﾁｮｳ","pref":"愛知県","city":"稲沢市","address":"中之庄町"},
{"zip_code":"4928142","kana_pref":"ｱｲﾁｹﾝ","kana_city":"ｲﾅｻﾞﾜｼ","kana_address":"ﾅｶﾞﾉ","pref":"愛知県","city":"稲沢市","address":"長野"},
{"zip_code":"4928141","kana_pref":"ｱｲﾁｹﾝ","kana_city":"ｲﾅｻﾞﾜｼ","kana_address":"ﾅｶﾞﾉﾁｮｳ","pref":"愛知県","city":"稲沢市","address":"長野町"},
{"zip_code":"4928393","kana_pref":"ｱｲﾁｹﾝ","kana_city":"ｲﾅｻﾞﾜｼ","kana_address":"ﾅｶﾉﾐﾔﾏﾁ","pref":"愛知県","city":"稲沢市","address":"中野宮町"},
{"zip_code":"4928392","kana_pref":"ｱｲﾁｹﾝ","kana_city":"ｲﾅｻﾞﾜｼ","kana_address":"ﾅｶﾉﾓﾄﾏﾁ","pref":"愛知県","city":"稲沢市","address":"中野元町"},
{"zip_code":"4928167","kana_pref":"ｱｲﾁｹﾝ","kana_city":"ｲﾅｻﾞﾜｼ","kana_address":"ﾅﾂﾞｶﾁｮｳ","pref":"愛知県","city":"稲沢市","address":"長束町"},
{"zip_code":"4928439","kana_pref":"ｱｲﾁｹﾝ","kana_city":"ｲﾅｻﾞﾜｼ","kana_address":"ﾅﾅﾂﾃﾞﾗﾁｮｳ","pref":"愛知県","city":"稲沢市","address":"七ツ寺町"},
{"zip_code":"4928328","kana_pref":"ｱｲﾁｹﾝ","kana_city":"ｲﾅｻﾞﾜｼ","kana_address":"ﾆｼｼﾞﾏ","pref":"愛知県","city":"稲沢市","address":"西島"},
{"zip_code":"4928323","kana_pref":"ｱｲﾁｹﾝ","kana_city":"ｲﾅｻﾞﾜｼ","kana_address":"ﾆｼｼﾞﾏｼﾝﾏﾁ","pref":"愛知県","city":"稲沢市","address":"西島新町"},
{"zip_code":"4928322","kana_pref":"ｱｲﾁｹﾝ","kana_city":"ｲﾅｻﾞﾜｼ","kana_address":"ﾆｼｼﾞﾏﾃﾞﾏﾁ","pref":"愛知県","city":"稲沢市","address":"西島出町"},
{"zip_code":"4928327","kana_pref":"ｱｲﾁｹﾝ","kana_city":"ｲﾅｻﾞﾜｼ","kana_address":"ﾆｼｼﾞﾏﾅｶﾏﾁ","pref":"愛知県","city":"稲沢市","address":"西島中町"},
{"zip_code":"4928325","kana_pref":"ｱｲﾁｹﾝ","kana_city":"ｲﾅｻﾞﾜｼ","kana_address":"ﾆｼｼﾞﾏﾋｶﾞｼﾏﾁ","pref":"愛知県","city":"稲沢市","address":"西島東町"},
{"zip_code":"4928321","kana_pref":"ｱｲﾁｹﾝ","kana_city":"ｲﾅｻﾞﾜｼ","kana_address":"ﾆｼｼﾞﾏｷﾀﾏﾁ","pref":"愛知県","city":"稲沢市","address":"西島北町"},
{"zip_code":"4928326","kana_pref":"ｱｲﾁｹﾝ","kana_city":"ｲﾅｻﾞﾜｼ","kana_address":"ﾆｼｼﾞﾏﾎﾝﾏﾁ","pref":"愛知県","city":"稲沢市","address":"西島本町"},
{"zip_code":"4928329","kana_pref":"ｱｲﾁｹﾝ","kana_city":"ｲﾅｻﾞﾜｼ","kana_address":"ﾆｼｼﾞﾏﾁｮｳ","pref":"愛知県","city":"稲沢市","address":"西島町"},
{"zip_code":"4928218","kana_pref":"ｱｲﾁｹﾝ","kana_city":"ｲﾅｻﾞﾜｼ","kana_address":"ﾆｼﾏﾁ","pref":"愛知県","city":"稲沢市","address":"西町"},
{"zip_code":"4928452","kana_pref":"ｱｲﾁｹﾝ","kana_city":"ｲﾅｻﾞﾜｼ","kana_address":"ﾆｼﾐｿﾞｸﾞﾁﾁｮｳ","pref":"愛知県","city":"稲沢市","address":"西溝口町"},
{"zip_code":"4928447","kana_pref":"ｱｲﾁｹﾝ","kana_city":"ｲﾅｻﾞﾜｼ","kana_address":"ﾉｻｷﾁｮｳ","pref":"愛知県","city":"稲沢市","address":"野崎町"},
{"zip_code":"4928307","kana_pref":"ｱｲﾁｹﾝ","kana_city":"ｲﾅｻﾞﾜｼ","kana_address":"ﾊｲﾃﾞｶﾐﾔﾏﾁｮｳ","pref":"愛知県","city":"稲沢市","address":"生出上山町"},
{"zip_code":"4928305","kana_pref":"ｱｲﾁｹﾝ","kana_city":"ｲﾅｻﾞﾜｼ","kana_address":"ﾊｲﾃﾞｺﾞｳﾏｴﾁｮｳ","pref":"愛知県","city":"稲沢市","address":"生出郷前町"},
{"zip_code":"4928308","kana_pref":"ｱｲﾁｹﾝ","kana_city":"ｲﾅｻﾞﾜｼ","kana_address":"ﾊｲﾃﾞｺｴﾄﾞﾁｮｳ","pref":"愛知県","city":"稲沢市","address":"生出河戸町"},
{"zip_code":"4928302","kana_pref":"ｱｲﾁｹﾝ","kana_city":"ｲﾅｻﾞﾜｼ","kana_address":"ﾊｲﾃﾞﾆｼﾄﾞｳﾈﾁｮｳ","pref":"愛知県","city":"稲沢市","address":"生出西道根町"},
{"zip_code":"4928303","kana_pref":"ｱｲﾁｹﾝ","kana_city":"ｲﾅｻﾞﾜｼ","kana_address":"ﾊｲﾃﾞﾋｶﾞｼﾄﾞｳﾈﾁｮｳ","pref":"愛知県","city":"稲沢市","address":"生出東道根町"},
{"zip_code":"4928301","kana_pref":"ｱｲﾁｹﾝ","kana_city":"ｲﾅｻﾞﾜｼ","kana_address":"ﾊｲﾃﾞﾎﾝﾏﾁ","pref":"愛知県","city":"稲沢市","address":"生出本町"},
{"zip_code":"4928304","kana_pref":"ｱｲﾁｹﾝ","kana_city":"ｲﾅｻﾞﾜｼ","kana_address":"ﾊｲﾃﾞﾔﾏﾀﾞﾁｮｳ","pref":"愛知県","city":"稲沢市","address":"生出山田町"},
{"zip_code":"4928306","kana_pref":"ｱｲﾁｹﾝ","kana_city":"ｲﾅｻﾞﾜｼ","kana_address":"ﾊｲﾃﾞﾖｺﾆｼﾁｮｳ","pref":"愛知県","city":"稲沢市","address":"生出横西町"},
{"zip_code":"4928348","kana_pref":"ｱｲﾁｹﾝ","kana_city":"ｲﾅｻﾞﾜｼ","kana_address":"ﾊﾞﾝﾊﾞ","pref":"愛知県","city":"稲沢市","address":"馬場"},
{"zip_code":"4928341","kana_pref":"ｱｲﾁｹﾝ","kana_city":"ｲﾅｻﾞﾜｼ","kana_address":"ﾊﾞﾝﾊﾞﾁｮｳ","pref":"愛知県","city":"稲沢市","address":"馬場町"},
{"zip_code":"4928251","kana_pref":"ｱｲﾁｹﾝ","kana_city":"ｲﾅｻﾞﾜｼ","kana_address":"ﾋｶﾞｼﾐﾄﾞﾘﾏﾁ","pref":"愛知県","city":"稲沢市","address":"東緑町"},
{"zip_code":"4928161","kana_pref":"ｱｲﾁｹﾝ","kana_city":"ｲﾅｻﾞﾜｼ","kana_address":"ﾋｼﾏﾁ","pref":"愛知県","city":"稲沢市","address":"菱町"},
{"zip_code":"4928456","kana_pref":"ｱｲﾁｹﾝ","kana_city":"ｲﾅｻﾞﾜｼ","kana_address":"ﾋﾑﾛﾁｮｳ","pref":"愛知県","city":"稲沢市","address":"氷室町"},
{"zip_code":"4928263","kana_pref":"ｱｲﾁｹﾝ","kana_city":"ｲﾅｻﾞﾜｼ","kana_address":"ﾋﾗﾉ","pref":"愛知県","city":"稲沢市","address":"平野"},
{"zip_code":"4928264","kana_pref":"ｱｲﾁｹﾝ","kana_city":"ｲﾅｻﾞﾜｼ","kana_address":"ﾋﾗﾉﾁｮｳ","pref":"愛知県","city":"稲沢市","address":"平野町"},
{"zip_code":"4928441","kana_pref":"ｱｲﾁｹﾝ","kana_city":"ｲﾅｻﾞﾜｼ","kana_address":"ﾌｸｼﾞﾏﾁｮｳ","pref":"愛知県","city":"稲沢市","address":"福島町"},
{"zip_code":"4928267","kana_pref":"ｱｲﾁｹﾝ","kana_city":"ｲﾅｻﾞﾜｼ","kana_address":"ﾌﾅﾊﾞｼﾁｮｳ","pref":"愛知県","city":"稲沢市","address":"船橋町"},
{"zip_code":"4928335","kana_pref":"ｱｲﾁｹﾝ","kana_city":"ｲﾅｻﾞﾜｼ","kana_address":"ﾎｯｹｼﾞﾁｮｳ","pref":"愛知県","city":"稲沢市","address":"法花寺町"},
{"zip_code":"4928438","kana_pref":"ｱｲﾁｹﾝ","kana_city":"ｲﾅｻﾞﾜｼ","kana_address":"ﾎｯﾀﾁｮｳ","pref":"愛知県","city":"稲沢市","address":"堀田町"},
{"zip_code":"4928405","kana_pref":"ｱｲﾁｹﾝ","kana_city":"ｲﾅｻﾞﾜｼ","kana_address":"ﾎﾘﾉｳﾁﾁｮｳ","pref":"愛知県","city":"稲沢市","address":"堀之内町"},
{"zip_code":"4928220","kana_pref":"ｱｲﾁｹﾝ","kana_city":"ｲﾅｻﾞﾜｼ","kana_address":"ﾏｴﾀﾞ","pref":"愛知県","city":"稲沢市","address":"前田"},
{"zip_code":"4928426","kana_pref":"ｱｲﾁｹﾝ","kana_city":"ｲﾅｻﾞﾜｼ","kana_address":"ﾏｼﾀﾋｶﾞｼﾏﾁ","pref":"愛知県","city":"稲沢市","address":"増田東町"},
{"zip_code":"4928429","kana_pref":"ｱｲﾁｹﾝ","kana_city":"ｲﾅｻﾞﾜｼ","kana_address":"ﾏｼﾀﾆｼﾏﾁ","pref":"愛知県","city":"稲沢市","address":"増田西町"},
{"zip_code":"4928427","kana_pref":"ｱｲﾁｹﾝ","kana_city":"ｲﾅｻﾞﾜｼ","kana_address":"ﾏｼﾀﾐﾅﾐﾏﾁ","pref":"愛知県","city":"稲沢市","address":"増田南町"},
{"zip_code":"4928425","kana_pref":"ｱｲﾁｹﾝ","kana_city":"ｲﾅｻﾞﾜｼ","kana_address":"ﾏｼﾀｷﾀﾏﾁ","pref":"愛知県","city":"稲沢市","address":"増田北町"},
{"zip_code":"4928428","kana_pref":"ｱｲﾁｹﾝ","kana_city":"ｲﾅｻﾞﾜｼ","kana_address":"ﾏｼﾀﾁｮｳ","pref":"愛知県","city":"稲沢市","address":"増田町"},
{"zip_code":"4928208","kana_pref":"ｱｲﾁｹﾝ","kana_city":"ｲﾅｻﾞﾜｼ","kana_address":"ﾏﾂｼﾀ","pref":"愛知県","city":"稲沢市","address":"松下"},
{"zip_code":"4928252","kana_pref":"ｱｲﾁｹﾝ","kana_city":"ｲﾅｻﾞﾜｼ","kana_address":"ﾐﾄﾞﾘﾏﾁ","pref":"愛知県","city":"稲沢市","address":"緑町"},
{"zip_code":"4928445","kana_pref":"ｱｲﾁｹﾝ","kana_city":"ｲﾅｻﾞﾜｼ","kana_address":"ﾐﾅﾐｵｳﾐﾁｮｳ","pref":"愛知県","city":"稲沢市","address":"南麻績町"},
{"zip_code":"4928446","kana_pref":"ｱｲﾁｹﾝ","kana_city":"ｲﾅｻﾞﾜｼ","kana_address":"ﾑｸｲﾁｮｳ","pref":"愛知県","city":"稲沢市","address":"目比町"},
{"zip_code":"4928401","kana_pref":"ｱｲﾁｹﾝ","kana_city":"ｲﾅｻﾞﾜｼ","kana_address":"ﾒｽｶﾁｮｳ","pref":"愛知県","city":"稲沢市","address":"梅須賀町"},
{"zip_code":"4928346","kana_pref":"ｱｲﾁｹﾝ","kana_city":"ｲﾅｻﾞﾜｼ","kana_address":"ﾔﾏｸﾞﾁﾎﾝﾏﾁ","pref":"愛知県","city":"稲沢市","address":"山口本町"},
{"zip_code":"4928344","kana_pref":"ｱｲﾁｹﾝ","kana_city":"ｲﾅｻﾞﾜｼ","kana_address":"ﾔﾏｸﾞﾁﾐﾅﾐﾏﾁ","pref":"愛知県","city":"稲沢市","address":"山口南町"},
{"zip_code":"4928345","kana_pref":"ｱｲﾁｹﾝ","kana_city":"ｲﾅｻﾞﾜｼ","kana_address":"ﾔﾏｸﾞﾁﾐﾔﾏｴﾁｮｳ","pref":"愛知県","city":"稲沢市","address":"山口宮前町"},
{"zip_code":"4928347","kana_pref":"ｱｲﾁｹﾝ","kana_city":"ｲﾅｻﾞﾜｼ","kana_address":"ﾔﾏｸﾞﾁﾁｮｳ","pref":"愛知県","city":"稲沢市","address":"山口町"},
{"zip_code":"4928342","kana_pref":"ｱｲﾁｹﾝ","kana_city":"ｲﾅｻﾞﾜｼ","kana_address":"ﾔﾜｾﾁｮｳ","pref":"愛知県","city":"稲沢市","address":"矢合町"},
{"zip_code":"4928266","kana_pref":"ｱｲﾁｹﾝ","kana_city":"ｲﾅｻﾞﾜｼ","kana_address":"ﾖｺﾁ","pref":"愛知県","city":"稲沢市","address":"横地"},
{"zip_code":"4928385","kana_pref":"ｱｲﾁｹﾝ","kana_city":"ｲﾅｻﾞﾜｼ","kana_address":"ﾖｺﾉｶﾜﾗﾁｮｳ","pref":"愛知県","city":"稲沢市","address":"横野河原町"},
{"zip_code":"4928388","kana_pref":"ｱｲﾁｹﾝ","kana_city":"ｲﾅｻﾞﾜｼ","kana_address":"ﾖｺﾉｻｶｲﾂﾞｶﾁｮｳ","pref":"愛知県","city":"稲沢市","address":"横野境塚町"},
{"zip_code":"4928387","kana_pref":"ｱｲﾁｹﾝ","kana_city":"ｲﾅｻﾞﾜｼ","kana_address":"ﾖｺﾉｼﾞﾝﾃﾞﾝﾁｮｳ","pref":"愛知県","city":"稲沢市","address":"横野神田町"},
{"zip_code":"4928382","kana_pref":"ｱｲﾁｹﾝ","kana_city":"ｲﾅｻﾞﾜｼ","kana_address":"ﾖｺﾉﾄﾞｳﾈﾁｮｳ","pref":"愛知県","city":"稲沢市","address":"横野堂根町"},
{"zip_code":"4928381","kana_pref":"ｱｲﾁｹﾝ","kana_city":"ｲﾅｻﾞﾜｼ","kana_address":"ﾖｺﾉﾆｼｺﾞｳﾁｮｳ","pref":"愛知県","city":"稲沢市","address":"横野西郷町"},
{"zip_code":"4928384","kana_pref":"ｱｲﾁｹﾝ","kana_city":"ｲﾅｻﾞﾜｼ","kana_address":"ﾖｺﾉﾋｶﾞｼｺﾞｳﾁｮｳ","pref":"愛知県","city":"稲沢市","address":"横野東郷町"},
{"zip_code":"4928383","kana_pref":"ｱｲﾁｹﾝ","kana_city":"ｲﾅｻﾞﾜｼ","kana_address":"ﾖｺﾉﾋｶﾞｼﾃﾞﾁｮｳ","pref":"愛知県","city":"稲沢市","address":"横野東出町"},
{"zip_code":"4928386","kana_pref":"ｱｲﾁｹﾝ","kana_city":"ｲﾅｻﾞﾜｼ","kana_address":"ﾖｺﾉﾏﾂﾏｴﾁｮｳ","pref":"愛知県","city":"稲沢市","address":"横野松前町"},
{"zip_code":"4928389","kana_pref":"ｱｲﾁｹﾝ","kana_city":"ｲﾅｻﾞﾜｼ","kana_address":"ﾖｺﾉﾁｮｳ","pref":"愛知県","city":"稲沢市","address":"横野町"},
{"zip_code":"4928172","kana_pref":"ｱｲﾁｹﾝ","kana_city":"ｲﾅｻﾞﾜｼ","kana_address":"ﾛｯｶｸﾄﾞｳﾋｶﾞｼﾏﾁ","pref":"愛知県","city":"稲沢市","address":"六角堂東町"},
{"zip_code":"4928171","kana_pref":"ｱｲﾁｹﾝ","kana_city":"ｲﾅｻﾞﾜｼ","kana_address":"ﾛｯｶｸﾄﾞｳﾆｼﾏﾁ","pref":"愛知県","city":"稲沢市","address":"六角堂西町"}]}