{"zip_code":[
{"zip_code":"4930006","kana_pref":"ｱｲﾁｹﾝ","kana_city":"ｲﾁﾉﾐﾔｼ","kana_address":"ｷｿｶﾞﾜﾁｮｳｳﾁﾜﾘﾃﾞﾝ","pref":"愛知県","city":"一宮市","address":"木曽川町内割田"},
{"zip_code":"4930002","kana_pref":"ｱｲﾁｹﾝ","kana_city":"ｲﾁﾉﾐﾔｼ","kana_address":"ｷｿｶﾞﾜﾁｮｳｶﾄﾞﾏ","pref":"愛知県","city":"一宮市","address":"木曽川町門間"},
{"zip_code":"4930001","kana_pref":"ｱｲﾁｹﾝ","kana_city":"ｲﾁﾉﾐﾔｼ","kana_address":"ｷｿｶﾞﾜﾁｮｳｸﾛﾀﾞ","pref":"愛知県","city":"一宮市","address":"木曽川町黒田"},
{"zip_code":"4930005","kana_pref":"ｱｲﾁｹﾝ","kana_city":"ｲﾁﾉﾐﾔｼ","kana_address":"ｷｿｶﾞﾜﾁｮｳｻﾄｺﾏｷ","pref":"愛知県","city":"一宮市","address":"木曽川町里小牧"},
{"zip_code":"4930007","kana_pref":"ｱｲﾁｹﾝ","kana_city":"ｲﾁﾉﾐﾔｼ","kana_address":"ｷｿｶﾞﾜﾁｮｳｿﾄﾜﾘﾃﾞﾝ","pref":"愛知県","city":"一宮市","address":"木曽川町外割田"},
{"zip_code":"4930004","kana_pref":"ｱｲﾁｹﾝ","kana_city":"ｲﾁﾉﾐﾔｼ","kana_address":"ｷｿｶﾞﾜﾁｮｳﾀﾏﾉｲ","pref":"愛知県","city":"一宮市","address":"木曽川町玉ノ井"},
{"zip_code":"4930003","kana_pref":"ｱｲﾁｹﾝ","kana_city":"ｲﾁﾉﾐﾔｼ","kana_address":"ｷｿｶﾞﾜﾁｮｳﾐﾂﾎｳｼﾞ","pref":"愛知県","city":"一宮市","address":"木曽川町三ツ法寺"},
{"zip_code":"4938001","kana_pref":"ｱｲﾁｹﾝ","kana_city":"ｲﾁﾉﾐﾔｼ","kana_address":"ｷﾀｶﾞﾀﾁｮｳｷﾀｶﾞﾀ","pref":"愛知県","city":"一宮市","address":"北方町北方"},
{"zip_code":"4938002","kana_pref":"ｱｲﾁｹﾝ","kana_city":"ｲﾁﾉﾐﾔｼ","kana_address":"ｷﾀｶﾞﾀﾁｮｳｿﾈ","pref":"愛知県","city":"一宮市","address":"北方町曽根"},
{"zip_code":"4938003","kana_pref":"ｱｲﾁｹﾝ","kana_city":"ｲﾁﾉﾐﾔｼ","kana_address":"ｷﾀｶﾞﾀﾁｮｳﾅｶｼﾞﾏ","pref":"愛知県","city":"一宮市","address":"北方町中島"}]}