{"zip_code":[
{"zip_code":"4960000","kana_pref":"ｱｲﾁｹﾝ","kana_city":"ﾂｼﾏｼ","kana_address":"","pref":"愛知県","city":"津島市","address":""},
{"zip_code":"4960001","kana_pref":"ｱｲﾁｹﾝ","kana_city":"ﾂｼﾏｼ","kana_address":"ｱｵﾂｶﾁｮｳ","pref":"愛知県","city":"津島市","address":"青塚町"},
{"zip_code":"4960036","kana_pref":"ｱｲﾁｹﾝ","kana_city":"ﾂｼﾏｼ","kana_address":"ｱﾀｺﾞﾁｮｳ","pref":"愛知県","city":"津島市","address":"愛宕町"},
{"zip_code":"4960842","kana_pref":"ｱｲﾁｹﾝ","kana_city":"ﾂｼﾏｼ","kana_address":"ｲｶﾀﾞﾊﾞﾁｮｳ","pref":"愛知県","city":"津島市","address":"筏場町"},
{"zip_code":"4960828","kana_pref":"ｱｲﾁｹﾝ","kana_city":"ﾂｼﾏｼ","kana_address":"ｲｹｽﾁｮｳ","pref":"愛知県","city":"津島市","address":"池須町"},
{"zip_code":"4960806","kana_pref":"ｱｲﾁｹﾝ","kana_city":"ﾂｼﾏｼ","kana_address":"ｲｹﾌﾁｮｳ","pref":"愛知県","city":"津島市","address":"池麩町"},
{"zip_code":"4960873","kana_pref":"ｱｲﾁｹﾝ","kana_city":"ﾂｼﾏｼ","kana_address":"ｲｯﾎﾟﾝｷﾞﾁｮｳ","pref":"愛知県","city":"津島市","address":"一本木町"},
{"zip_code":"4960803","kana_pref":"ｱｲﾁｹﾝ","kana_city":"ﾂｼﾏｼ","kana_address":"ｲﾏｲﾁﾊﾞﾁｮｳ","pref":"愛知県","city":"津島市","address":"今市場町"},
{"zip_code":"4960033","kana_pref":"ｱｲﾁｹﾝ","kana_city":"ﾂｼﾏｼ","kana_address":"ｲﾘﾏｴﾁｮｳ","pref":"愛知県","city":"津島市","address":"杁前町"},
{"zip_code":"4960018","kana_pref":"ｱｲﾁｹﾝ","kana_city":"ﾂｼﾏｼ","kana_address":"ｳｼﾀﾞﾁｮｳ","pref":"愛知県","city":"津島市","address":"牛田町"},
{"zip_code":"4960008","kana_pref":"ｱｲﾁｹﾝ","kana_city":"ﾂｼﾏｼ","kana_address":"ｳｼﾞﾁｮｳ","pref":"愛知県","city":"津島市","address":"宇治町"},
{"zip_code":"4960031","kana_pref":"ｱｲﾁｹﾝ","kana_city":"ﾂｼﾏｼ","kana_address":"ｳﾒﾀﾞﾁｮｳ","pref":"愛知県","city":"津島市","address":"埋田町"},
{"zip_code":"4960827","kana_pref":"ｱｲﾁｹﾝ","kana_city":"ﾂｼﾏｼ","kana_address":"ｳﾗｶﾀﾁｮｳ","pref":"愛知県","city":"津島市","address":"浦方町"},
{"zip_code":"4960845","kana_pref":"ｱｲﾁｹﾝ","kana_city":"ﾂｼﾏｼ","kana_address":"ｴｲﾗｸﾁｮｳ","pref":"愛知県","city":"津島市","address":"永楽町"},
{"zip_code":"4960867","kana_pref":"ｱｲﾁｹﾝ","kana_city":"ﾂｼﾏｼ","kana_address":"ｴｶﾞﾜﾁｮｳ","pref":"愛知県","city":"津島市","address":"江川町"},
{"zip_code":"4960855","kana_pref":"ｱｲﾁｹﾝ","kana_city":"ﾂｼﾏｼ","kana_address":"ｴﾄｳﾁｮｳ","pref":"愛知県","city":"津島市","address":"江東町"},
{"zip_code":"4960874","kana_pref":"ｱｲﾁｹﾝ","kana_city":"ﾂｼﾏｼ","kana_address":"ｴﾆｼﾁｮｳ","pref":"愛知県","city":"津島市","address":"江西町"},
{"zip_code":"4960854","kana_pref":"ｱｲﾁｹﾝ","kana_city":"ﾂｼﾏｼ","kana_address":"ｵｲﾏﾂﾁｮｳ","pref":"愛知県","city":"津島市","address":"老松町"},
{"zip_code":"4960012","kana_pref":"ｱｲﾁｹﾝ","kana_city":"ﾂｼﾏｼ","kana_address":"ｵｵﾂﾎﾞﾁｮｳ","pref":"愛知県","city":"津島市","address":"大坪町"},
{"zip_code":"4960876","kana_pref":"ｱｲﾁｹﾝ","kana_city":"ﾂｼﾏｼ","kana_address":"ｵｵﾅﾜﾁｮｳ","pref":"愛知県","city":"津島市","address":"大縄町"},
{"zip_code":"4960813","kana_pref":"ｱｲﾁｹﾝ","kana_city":"ﾂｼﾏｼ","kana_address":"ｶﾀｵｶﾁｮｳ","pref":"愛知県","city":"津島市","address":"片岡町"},
{"zip_code":"4960826","kana_pref":"ｱｲﾁｹﾝ","kana_city":"ﾂｼﾏｼ","kana_address":"ｶﾀﾏﾁ","pref":"愛知県","city":"津島市","address":"片町"},
{"zip_code":"4960824","kana_pref":"ｱｲﾁｹﾝ","kana_city":"ﾂｼﾏｼ","kana_address":"ｶﾅﾏﾁ","pref":"愛知県","city":"津島市","address":"金町"},
{"zip_code":"4960014","kana_pref":"ｱｲﾁｹﾝ","kana_city":"ﾂｼﾏｼ","kana_address":"ｶﾅﾔﾅｷﾞﾁｮｳ","pref":"愛知県","city":"津島市","address":"金柳町"},
{"zip_code":"4960812","kana_pref":"ｱｲﾁｹﾝ","kana_city":"ﾂｼﾏｼ","kana_address":"ｶﾈﾋﾗﾁｮｳ","pref":"愛知県","city":"津島市","address":"兼平町"},
{"zip_code":"4960023","kana_pref":"ｱｲﾁｹﾝ","kana_city":"ﾂｼﾏｼ","kana_address":"ｶﾌﾞﾄﾁｮｳ","pref":"愛知県","city":"津島市","address":"鹿伏兎町"},
{"zip_code":"4960823","kana_pref":"ｱｲﾁｹﾝ","kana_city":"ﾂｼﾏｼ","kana_address":"ｶﾐｶﾞﾜﾗﾁｮｳ","pref":"愛知県","city":"津島市","address":"上河原町"},
{"zip_code":"4960871","kana_pref":"ｱｲﾁｹﾝ","kana_city":"ﾂｼﾏｼ","kana_address":"ｶﾐｼﾝﾃﾞﾝﾁｮｳ","pref":"愛知県","city":"津島市","address":"上新田町"},
{"zip_code":"4960863","kana_pref":"ｱｲﾁｹﾝ","kana_city":"ﾂｼﾏｼ","kana_address":"ｶﾐﾉﾏﾁ","pref":"愛知県","city":"津島市","address":"上之町"},
{"zip_code":"4960005","kana_pref":"ｱｲﾁｹﾝ","kana_city":"ﾂｼﾏｼ","kana_address":"ｶﾓﾘﾁｮｳ","pref":"愛知県","city":"津島市","address":"神守町"},
{"zip_code":"4960026","kana_pref":"ｱｲﾁｹﾝ","kana_city":"ﾂｼﾏｼ","kana_address":"ｶﾗｳｽﾁｮｳ","pref":"愛知県","city":"津島市","address":"唐臼町"},
{"zip_code":"4960877","kana_pref":"ｱｲﾁｹﾝ","kana_city":"ﾂｼﾏｼ","kana_address":"ｶﾜﾀﾞﾁｮｳ","pref":"愛知県","city":"津島市","address":"河田町"},
{"zip_code":"4960869","kana_pref":"ｱｲﾁｹﾝ","kana_city":"ﾂｼﾏｼ","kana_address":"ｶﾜﾗﾁｮｳ","pref":"愛知県","city":"津島市","address":"河原町"},
{"zip_code":"4960013","kana_pref":"ｱｲﾁｹﾝ","kana_city":"ﾂｼﾏｼ","kana_address":"ｶﾝﾉﾁｮｳ","pref":"愛知県","city":"津島市","address":"神尾町"},
{"zip_code":"4960861","kana_pref":"ｱｲﾁｹﾝ","kana_city":"ﾂｼﾏｼ","kana_address":"ｶﾝﾉﾝﾁｮｳ","pref":"愛知県","city":"津島市","address":"観音町"},
{"zip_code":"4960817","kana_pref":"ｱｲﾁｹﾝ","kana_city":"ﾂｼﾏｼ","kana_address":"ｷﾀﾏﾁ","pref":"愛知県","city":"津島市","address":"北町"},
{"zip_code":"4960811","kana_pref":"ｱｲﾁｹﾝ","kana_city":"ﾂｼﾏｼ","kana_address":"ｷﾗｸﾁｮｳ","pref":"愛知県","city":"津島市","address":"喜楽町"},
{"zip_code":"4960007","kana_pref":"ｱｲﾁｹﾝ","kana_city":"ﾂｼﾏｼ","kana_address":"ｺｳｼｮｳｼﾞﾁｮｳ","pref":"愛知県","city":"津島市","address":"光正寺町"},
{"zip_code":"4960015","kana_pref":"ｱｲﾁｹﾝ","kana_city":"ﾂｼﾏｼ","kana_address":"ｺｳﾀｲｼﾞﾁｮｳ","pref":"愛知県","city":"津島市","address":"高台寺町"},
{"zip_code":"4960022","kana_pref":"ｱｲﾁｹﾝ","kana_city":"ﾂｼﾏｼ","kana_address":"ｺｼﾂﾞﾁｮｳ","pref":"愛知県","city":"津島市","address":"越津町"},
{"zip_code":"4960829","kana_pref":"ｱｲﾁｹﾝ","kana_city":"ﾂｼﾏｼ","kana_address":"ｺﾄﾌﾞｷﾁｮｳ","pref":"愛知県","city":"津島市","address":"寿町"},
{"zip_code":"4960815","kana_pref":"ｱｲﾁｹﾝ","kana_city":"ﾂｼﾏｼ","kana_address":"ｺﾒﾉｻﾞﾁｮｳ","pref":"愛知県","city":"津島市","address":"米之座町"},
{"zip_code":"4960816","kana_pref":"ｱｲﾁｹﾝ","kana_city":"ﾂｼﾏｼ","kana_address":"ｺﾒﾏﾁ","pref":"愛知県","city":"津島市","address":"米町"},
{"zip_code":"4960868","kana_pref":"ｱｲﾁｹﾝ","kana_city":"ﾂｼﾏｼ","kana_address":"ｻﾙﾂﾞｶﾁｮｳ","pref":"愛知県","city":"津島市","address":"申塚町"},
{"zip_code":"4960029","kana_pref":"ｱｲﾁｹﾝ","kana_city":"ﾂｼﾏｼ","kana_address":"ｼﾓｷﾞﾘﾁｮｳ","pref":"愛知県","city":"津島市","address":"下切町"},
{"zip_code":"4960875","kana_pref":"ｱｲﾁｹﾝ","kana_city":"ﾂｼﾏｼ","kana_address":"ｼﾓｼﾝﾃﾞﾝﾁｮｳ","pref":"愛知県","city":"津島市","address":"下新田町"},
{"zip_code":"4960809","kana_pref":"ｱｲﾁｹﾝ","kana_city":"ﾂｼﾏｼ","kana_address":"ｼｮｳﾜﾁｮｳ","pref":"愛知県","city":"津島市","address":"昭和町"},
{"zip_code":"4960016","kana_pref":"ｱｲﾁｹﾝ","kana_city":"ﾂｼﾏｼ","kana_address":"ｼﾗﾊﾏﾁｮｳ","pref":"愛知県","city":"津島市","address":"白浜町"},
{"zip_code":"4960821","kana_pref":"ｱｲﾁｹﾝ","kana_city":"ﾂｼﾏｼ","kana_address":"ｼﾛﾉｺｼﾁｮｳ","pref":"愛知県","city":"津島市","address":"城之越町"},
{"zip_code":"4960862","kana_pref":"ｱｲﾁｹﾝ","kana_city":"ﾂｼﾏｼ","kana_address":"ｼﾛﾔﾏﾁｮｳ","pref":"愛知県","city":"津島市","address":"城山町"},
{"zip_code":"4960027","kana_pref":"ｱｲﾁｹﾝ","kana_city":"ﾂｼﾏｼ","kana_address":"ｼﾝｶﾞｲ","pref":"愛知県","city":"津島市","address":"新開"},
{"zip_code":"4960071","kana_pref":"ｱｲﾁｹﾝ","kana_city":"ﾂｼﾏｼ","kana_address":"ｼﾝｶﾞｲﾁｮｳ","pref":"愛知県","city":"津島市","address":"新開町"},
{"zip_code":"4960851","kana_pref":"ｱｲﾁｹﾝ","kana_city":"ﾂｼﾏｼ","kana_address":"ｼﾝﾒｲﾁｮｳ","pref":"愛知県","city":"津島市","address":"神明町"},
{"zip_code":"4960006","kana_pref":"ｱｲﾁｹﾝ","kana_city":"ﾂｼﾏｼ","kana_address":"ﾀﾞｲｷﾞﾁｮｳ","pref":"愛知県","city":"津島市","address":"大木町"},
{"zip_code":"4960848","kana_pref":"ｱｲﾁｹﾝ","kana_city":"ﾂｼﾏｼ","kana_address":"ﾀｲｹｲｼﾞﾁｮｳ","pref":"愛知県","city":"津島市","address":"大慶寺町"},
{"zip_code":"4960837","kana_pref":"ｱｲﾁｹﾝ","kana_city":"ﾂｼﾏｼ","kana_address":"ﾀｲｾｲﾁｮｳ","pref":"愛知県","city":"津島市","address":"大政町"},
{"zip_code":"4960041","kana_pref":"ｱｲﾁｹﾝ","kana_city":"ﾂｼﾏｼ","kana_address":"ﾀｶﾊﾀﾁｮｳ","pref":"愛知県","city":"津島市","address":"高畑町"},
{"zip_code":"4960822","kana_pref":"ｱｲﾁｹﾝ","kana_city":"ﾂｼﾏｼ","kana_address":"ﾀｶﾔｼｷﾁｮｳ","pref":"愛知県","city":"津島市","address":"高屋敷町"},
{"zip_code":"4960808","kana_pref":"ｱｲﾁｹﾝ","kana_city":"ﾂｼﾏｼ","kana_address":"ﾀｶﾗﾏﾁ","pref":"愛知県","city":"津島市","address":"宝町"},
{"zip_code":"4960038","kana_pref":"ｱｲﾁｹﾝ","kana_city":"ﾂｼﾏｼ","kana_address":"ﾀﾁﾊﾞﾅﾁｮｳ","pref":"愛知県","city":"津島市","address":"橘町"},
{"zip_code":"4960044","kana_pref":"ｱｲﾁｹﾝ","kana_city":"ﾂｼﾏｼ","kana_address":"ﾀﾃｺﾐﾁｮｳ","pref":"愛知県","city":"津島市","address":"立込町"},
{"zip_code":"4960027","kana_pref":"ｱｲﾁｹﾝ","kana_city":"ﾂｼﾏｼ","kana_address":"ﾂｼﾏ","pref":"愛知県","city":"津島市","address":"津島"},
{"zip_code":"4960021","kana_pref":"ｱｲﾁｹﾝ","kana_city":"ﾂｼﾏｼ","kana_address":"ﾂﾊﾞｲﾁﾁｮｳ","pref":"愛知県","city":"津島市","address":"椿市町"},
{"zip_code":"4960003","kana_pref":"ｱｲﾁｹﾝ","kana_city":"ﾂｼﾏｼ","kana_address":"ﾃﾗﾉﾁｮｳ","pref":"愛知県","city":"津島市","address":"寺野町"},
{"zip_code":"4960042","kana_pref":"ｱｲﾁｹﾝ","kana_city":"ﾂｼﾏｼ","kana_address":"ﾃﾗﾏｴﾁｮｳ","pref":"愛知県","city":"津島市","address":"寺前町"},
{"zip_code":"4960807","kana_pref":"ｱｲﾁｹﾝ","kana_city":"ﾂｼﾏｼ","kana_address":"ﾃﾝﾉｳﾄﾞｵﾘ","pref":"愛知県","city":"津島市","address":"天王通"},
{"zip_code":"4960832","kana_pref":"ｱｲﾁｹﾝ","kana_city":"ﾂｼﾏｼ","kana_address":"ﾄｳﾖｳﾁｮｳ","pref":"愛知県","city":"津島市","address":"東洋町"},
{"zip_code":"4960833","kana_pref":"ｱｲﾁｹﾝ","kana_city":"ﾂｼﾏｼ","kana_address":"ﾄｷﾜﾁｮｳ","pref":"愛知県","city":"津島市","address":"常盤町"},
{"zip_code":"4960025","kana_pref":"ｱｲﾁｹﾝ","kana_city":"ﾂｼﾏｼ","kana_address":"ﾅｶｲｼｷﾁｮｳ","pref":"愛知県","city":"津島市","address":"中一色町"},
{"zip_code":"4960847","kana_pref":"ｱｲﾁｹﾝ","kana_city":"ﾂｼﾏｼ","kana_address":"ﾅｶｼﾞﾁｮｳ","pref":"愛知県","city":"津島市","address":"中地町"},
{"zip_code":"4960836","kana_pref":"ｱｲﾁｹﾝ","kana_city":"ﾂｼﾏｼ","kana_address":"ﾅｶﾉﾁｮｳ","pref":"愛知県","city":"津島市","address":"中野町"},
{"zip_code":"4960864","kana_pref":"ｱｲﾁｹﾝ","kana_city":"ﾂｼﾏｼ","kana_address":"ﾅｶﾉﾏﾁ","pref":"愛知県","city":"津島市","address":"中之町"},
{"zip_code":"4960037","kana_pref":"ｱｲﾁｹﾝ","kana_city":"ﾂｼﾏｼ","kana_address":"ﾆｼｱﾀｺﾞﾁｮｳ","pref":"愛知県","city":"津島市","address":"西愛宕町"},
{"zip_code":"4960802","kana_pref":"ｱｲﾁｹﾝ","kana_city":"ﾂｼﾏｼ","kana_address":"ﾆｼｷﾏﾁ","pref":"愛知県","city":"津島市","address":"錦町"},
{"zip_code":"4960849","kana_pref":"ｱｲﾁｹﾝ","kana_city":"ﾂｼﾏｼ","kana_address":"ﾆｼﾐﾄﾞｳﾁｮｳ","pref":"愛知県","city":"津島市","address":"西御堂町"},
{"zip_code":"4960047","kana_pref":"ｱｲﾁｹﾝ","kana_city":"ﾂｼﾏｼ","kana_address":"ﾆｼﾔﾅｷﾞﾊﾗﾁｮｳ","pref":"愛知県","city":"津島市","address":"西柳原町"},
{"zip_code":"4960028","kana_pref":"ｱｲﾁｹﾝ","kana_city":"ﾂｼﾏｼ","kana_address":"ﾆｯｺｳ","pref":"愛知県","city":"津島市","address":"日光"},
{"zip_code":"4960852","kana_pref":"ｱｲﾁｹﾝ","kana_city":"ﾂｼﾏｼ","kana_address":"ﾈｷﾞﾏﾁ","pref":"愛知県","city":"津島市","address":"祢宜町"},
{"zip_code":"4960009","kana_pref":"ｱｲﾁｹﾝ","kana_city":"ﾂｼﾏｼ","kana_address":"ﾊｶﾘﾁｮｳ","pref":"愛知県","city":"津島市","address":"葉苅町"},
{"zip_code":"4960825","kana_pref":"ｱｲﾁｹﾝ","kana_city":"ﾂｼﾏｼ","kana_address":"ﾊｼﾂﾞﾒﾁｮｳ","pref":"愛知県","city":"津島市","address":"橋詰町"},
{"zip_code":"4960865","kana_pref":"ｱｲﾁｹﾝ","kana_city":"ﾂｼﾏｼ","kana_address":"ﾊﾞﾊﾞﾁｮｳ","pref":"愛知県","city":"津島市","address":"馬場町"},
{"zip_code":"4960024","kana_pref":"ｱｲﾁｹﾝ","kana_city":"ﾂｼﾏｼ","kana_address":"ﾊﾝｶﾞｼﾗﾁｮｳ","pref":"愛知県","city":"津島市","address":"半頭町"},
{"zip_code":"4960011","kana_pref":"ｱｲﾁｹﾝ","kana_city":"ﾂｼﾏｼ","kana_address":"ﾊﾞｲﾊﾞﾗﾁｮｳ","pref":"愛知県","city":"津島市","address":"莪原町"},
{"zip_code":"4960035","kana_pref":"ｱｲﾁｹﾝ","kana_city":"ﾂｼﾏｼ","kana_address":"ﾋｶﾞｼｱﾀﾞｺﾞﾁｮｳ","pref":"愛知県","city":"津島市","address":"東愛宕町"},
{"zip_code":"4960846","kana_pref":"ｱｲﾁｹﾝ","kana_city":"ﾂｼﾏｼ","kana_address":"ﾋｶﾞｼﾅｶｼﾞﾁｮｳ","pref":"愛知県","city":"津島市","address":"東中地町"},
{"zip_code":"4960045","kana_pref":"ｱｲﾁｹﾝ","kana_city":"ﾂｼﾏｼ","kana_address":"ﾋｶﾞｼﾔﾅｷﾞﾊﾗﾁｮｳ","pref":"愛知県","city":"津島市","address":"東柳原町"},
{"zip_code":"4960017","kana_pref":"ｱｲﾁｹﾝ","kana_city":"ﾂｼﾏｼ","kana_address":"ﾋｬｸﾁｮｳ","pref":"愛知県","city":"津島市","address":"百町"},
{"zip_code":"4960004","kana_pref":"ｱｲﾁｹﾝ","kana_city":"ﾂｼﾏｼ","kana_address":"ﾋﾙﾏﾁｮｳ","pref":"愛知県","city":"津島市","address":"蛭間町"},
{"zip_code":"4960032","kana_pref":"ｱｲﾁｹﾝ","kana_city":"ﾂｼﾏｼ","kana_address":"ﾌｶﾂﾎﾞﾁｮｳ","pref":"愛知県","city":"津島市","address":"深坪町"},
{"zip_code":"4960839","kana_pref":"ｱｲﾁｹﾝ","kana_city":"ﾂｼﾏｼ","kana_address":"ﾌｼﾞｶﾜﾁｮｳ","pref":"愛知県","city":"津島市","address":"藤川町"},
{"zip_code":"4960048","kana_pref":"ｱｲﾁｹﾝ","kana_city":"ﾂｼﾏｼ","kana_address":"ﾌｼﾞｻﾄﾁｮｳ","pref":"愛知県","city":"津島市","address":"藤里町"},
{"zip_code":"4960801","kana_pref":"ｱｲﾁｹﾝ","kana_city":"ﾂｼﾏｼ","kana_address":"ﾌｼﾞﾅﾐﾁｮｳ","pref":"愛知県","city":"津島市","address":"藤浪町"},
{"zip_code":"4960843","kana_pref":"ｱｲﾁｹﾝ","kana_city":"ﾂｼﾏｼ","kana_address":"ﾌﾅﾄﾞﾁｮｳ","pref":"愛知県","city":"津島市","address":"舟戸町"},
{"zip_code":"4960043","kana_pref":"ｱｲﾁｹﾝ","kana_city":"ﾂｼﾏｼ","kana_address":"ﾌﾙｶﾜ","pref":"愛知県","city":"津島市","address":"古川"},
{"zip_code":"4960043","kana_pref":"ｱｲﾁｹﾝ","kana_city":"ﾂｼﾏｼ","kana_address":"ﾌﾙｶﾜﾁｮｳ","pref":"愛知県","city":"津島市","address":"古川町"},
{"zip_code":"4960805","kana_pref":"ｱｲﾁｹﾝ","kana_city":"ﾂｼﾏｼ","kana_address":"ﾎﾝﾏﾁ","pref":"愛知県","city":"津島市","address":"本町"},
{"zip_code":"4960002","kana_pref":"ｱｲﾁｹﾝ","kana_city":"ﾂｼﾏｼ","kana_address":"ﾏｷﾉﾁｮｳ","pref":"愛知県","city":"津島市","address":"牧野町"},
{"zip_code":"4960819","kana_pref":"ｱｲﾁｹﾝ","kana_city":"ﾂｼﾏｼ","kana_address":"ﾏﾀｷﾁﾁｮｳ","pref":"愛知県","city":"津島市","address":"又吉町"},
{"zip_code":"4960872","kana_pref":"ｱｲﾁｹﾝ","kana_city":"ﾂｼﾏｼ","kana_address":"ﾏﾂｶﾞｼﾀﾁｮｳ","pref":"愛知県","city":"津島市","address":"松ケ下町"},
{"zip_code":"4960818","kana_pref":"ｱｲﾁｹﾝ","kana_city":"ﾂｼﾏｼ","kana_address":"ﾏﾂﾊﾞﾗﾁｮｳ","pref":"愛知県","city":"津島市","address":"松原町"},
{"zip_code":"4960831","kana_pref":"ｱｲﾁｹﾝ","kana_city":"ﾂｼﾏｼ","kana_address":"ﾐｽﾞﾎﾁｮｳ","pref":"愛知県","city":"津島市","address":"瑞穂町"},
{"zip_code":"4960835","kana_pref":"ｱｲﾁｹﾝ","kana_city":"ﾂｼﾏｼ","kana_address":"ﾐﾅﾄﾁｮｳ","pref":"愛知県","city":"津島市","address":"皆戸町"},
{"zip_code":"4960072","kana_pref":"ｱｲﾁｹﾝ","kana_city":"ﾂｼﾏｼ","kana_address":"ﾐﾅﾐｼﾝｶﾞｲﾁｮｳ","pref":"愛知県","city":"津島市","address":"南新開町"},
{"zip_code":"4960834","kana_pref":"ｱｲﾁｹﾝ","kana_city":"ﾂｼﾏｼ","kana_address":"ﾐﾅﾐﾎﾝﾏﾁ","pref":"愛知県","city":"津島市","address":"南本町"},
{"zip_code":"4960857","kana_pref":"ｱｲﾁｹﾝ","kana_city":"ﾂｼﾏｼ","kana_address":"ﾐﾅﾐﾓﾝｾﾞﾝﾁｮｳ","pref":"愛知県","city":"津島市","address":"南門前町"},
{"zip_code":"4960853","kana_pref":"ｱｲﾁｹﾝ","kana_city":"ﾂｼﾏｼ","kana_address":"ﾐﾔｶﾞﾜﾁｮｳ","pref":"愛知県","city":"津島市","address":"宮川町"},
{"zip_code":"4960838","kana_pref":"ｱｲﾁｹﾝ","kana_city":"ﾂｼﾏｼ","kana_address":"ﾒｲﾃﾝﾁｮｳ","pref":"愛知県","city":"津島市","address":"明天町"},
{"zip_code":"4960034","kana_pref":"ｱｲﾁｹﾝ","kana_city":"ﾂｼﾏｼ","kana_address":"ﾓﾄﾃﾞﾗﾁｮｳ","pref":"愛知県","city":"津島市","address":"元寺町"},
{"zip_code":"4960019","kana_pref":"ｱｲﾁｹﾝ","kana_city":"ﾂｼﾏｼ","kana_address":"ﾓﾓｼﾞﾏﾁｮｳ","pref":"愛知県","city":"津島市","address":"百島町"},
{"zip_code":"4960844","kana_pref":"ｱｲﾁｹﾝ","kana_city":"ﾂｼﾏｼ","kana_address":"ﾔｸｼﾁｮｳ","pref":"愛知県","city":"津島市","address":"薬師町"},
{"zip_code":"4960046","kana_pref":"ｱｲﾁｹﾝ","kana_city":"ﾂｼﾏｼ","kana_address":"ﾔﾅｷﾞﾊﾗﾁｮｳ","pref":"愛知県","city":"津島市","address":"柳原町"},
{"zip_code":"4960866","kana_pref":"ｱｲﾁｹﾝ","kana_city":"ﾂｼﾏｼ","kana_address":"ﾔﾏﾄﾁｮｳ","pref":"愛知県","city":"津島市","address":"大和町"},
{"zip_code":"4960804","kana_pref":"ｱｲﾁｹﾝ","kana_city":"ﾂｼﾏｼ","kana_address":"ﾔﾖｲﾁｮｳ","pref":"愛知県","city":"津島市","address":"弥生町"},
{"zip_code":"4960841","kana_pref":"ｱｲﾁｹﾝ","kana_city":"ﾂｼﾏｼ","kana_address":"ﾖｺﾏﾁ","pref":"愛知県","city":"津島市","address":"横町"},
{"zip_code":"4960814","kana_pref":"ｱｲﾁｹﾝ","kana_city":"ﾂｼﾏｼ","kana_address":"ﾘｮｳｵｳﾁｮｳ","pref":"愛知県","city":"津島市","address":"良王町"},
{"zip_code":"4960856","kana_pref":"ｱｲﾁｹﾝ","kana_city":"ﾂｼﾏｼ","kana_address":"ﾙﾘｺｳｼﾞﾁｮｳ","pref":"愛知県","city":"津島市","address":"瑠璃小路町"},
{"zip_code":"4960000","kana_pref":"ｱｲﾁｹﾝ","kana_city":"ｱｲｻｲｼ","kana_address":"","pref":"愛知県","city":"愛西市","address":""},
{"zip_code":"4968046","kana_pref":"ｱｲﾁｹﾝ","kana_city":"ｱｲｻｲｼ","kana_address":"ｱｶﾒﾁｮｳ","pref":"愛知県","city":"愛西市","address":"赤目町"},
{"zip_code":"4960938","kana_pref":"ｱｲﾁｹﾝ","kana_city":"ｱｲｻｲｼ","kana_address":"ｲｼﾀﾞﾁｮｳ","pref":"愛知県","city":"愛西市","address":"石田町"},
{"zip_code":"4960907","kana_pref":"ｱｲﾁｹﾝ","kana_city":"ｱｲｻｲｼ","kana_address":"ｲﾅﾊﾞﾁｮｳ","pref":"愛知県","city":"愛西市","address":"稲葉町"},
{"zip_code":"4960923","kana_pref":"ｱｲﾁｹﾝ","kana_city":"ｱｲｻｲｼ","kana_address":"ｲﾜｼｴﾁｮｳ","pref":"愛知県","city":"愛西市","address":"鰯江町"},
{"zip_code":"4968033","kana_pref":"ｱｲﾁｹﾝ","kana_city":"ｱｲｻｲｼ","kana_address":"ｳﾀｽﾁｮｳ","pref":"愛知県","city":"愛西市","address":"鵜多須町"},
{"zip_code":"4960903","kana_pref":"ｱｲﾁｹﾝ","kana_city":"ｱｲｻｲｼ","kana_address":"ｳﾁｻﾞﾔﾁｮｳ","pref":"愛知県","city":"愛西市","address":"内佐屋町"},
{"zip_code":"4968044","kana_pref":"ｱｲﾁｹﾝ","kana_city":"ｱｲｻｲｼ","kana_address":"ｴﾆｼﾁｮｳ","pref":"愛知県","city":"愛西市","address":"江西町"},
{"zip_code":"4960921","kana_pref":"ｱｲﾁｹﾝ","kana_city":"ｱｲｻｲｼ","kana_address":"ｵｵｲﾁｮｳ","pref":"愛知県","city":"愛西市","address":"大井町"},
{"zip_code":"4960922","kana_pref":"ｱｲﾁｹﾝ","kana_city":"ｱｲｻｲｼ","kana_address":"ｵｵﾉﾁｮｳ","pref":"愛知県","city":"愛西市","address":"大野町"},
{"zip_code":"4968017","kana_pref":"ｱｲﾁｹﾝ","kana_city":"ｱｲｻｲｼ","kana_address":"ｵｵﾉﾔﾏﾁｮｳ","pref":"愛知県","city":"愛西市","address":"大野山町"},
{"zip_code":"4960909","kana_pref":"ｱｲﾁｹﾝ","kana_city":"ｱｲｻｲｼ","kana_address":"ｵﾁｱｲﾁｮｳ","pref":"愛知県","city":"愛西市","address":"落合町"},
{"zip_code":"4968009","kana_pref":"ｱｲﾁｹﾝ","kana_city":"ｱｲｻｲｼ","kana_address":"ｵﾂﾞﾁｮｳ","pref":"愛知県","city":"愛西市","address":"小津町"},
{"zip_code":"4960932","kana_pref":"ｱｲﾁｹﾝ","kana_city":"ｱｲｻｲｼ","kana_address":"ｶﾂﾗｷﾞﾁｮｳ","pref":"愛知県","city":"愛西市","address":"葛木町"},
{"zip_code":"4960908","kana_pref":"ｱｲﾁｹﾝ","kana_city":"ｱｲｻｲｼ","kana_address":"ｶﾅﾎﾞｳﾁｮｳ","pref":"愛知県","city":"愛西市","address":"金棒町"},
{"zip_code":"4968031","kana_pref":"ｱｲﾁｹﾝ","kana_city":"ｱｲｻｲｼ","kana_address":"ｶﾐﾋｶﾞｼｶﾞﾜﾁｮｳ","pref":"愛知県","city":"愛西市","address":"上東川町"},
{"zip_code":"4960908","kana_pref":"ｱｲﾁｹﾝ","kana_city":"ｱｲｻｲｼ","kana_address":"ｶﾑﾗｲﾁｮｳ","pref":"愛知県","city":"愛西市","address":"甘村井町"},
{"zip_code":"4968039","kana_pref":"ｱｲﾁｹﾝ","kana_city":"ｱｲｻｲｼ","kana_address":"ｶﾜｷﾀﾁｮｳ","pref":"愛知県","city":"愛西市","address":"川北町"},
{"zip_code":"4960905","kana_pref":"ｱｲﾁｹﾝ","kana_city":"ｱｲｻｲｼ","kana_address":"ｷﾀｲｼｷﾁｮｳ","pref":"愛知県","city":"愛西市","address":"北一色町"},
{"zip_code":"4968008","kana_pref":"ｱｲﾁｹﾝ","kana_city":"ｱｲｻｲｼ","kana_address":"ｷﾀｺﾞｳﾀﾁｮｳ","pref":"愛知県","city":"愛西市","address":"北河田町"},
{"zip_code":"4968042","kana_pref":"ｱｲﾁｹﾝ","kana_city":"ｱｲｻｲｼ","kana_address":"ｷｭｳﾌﾞﾁｮｳ","pref":"愛知県","city":"愛西市","address":"給父町"},
{"zip_code":"4968015","kana_pref":"ｱｲﾁｹﾝ","kana_city":"ｱｲｻｲｼ","kana_address":"ｸｻﾋﾗﾁｮｳ","pref":"愛知県","city":"愛西市","address":"草平町"},
{"zip_code":"4968004","kana_pref":"ｱｲﾁｹﾝ","kana_city":"ｱｲｻｲｼ","kana_address":"ｺｾﾁｮｳ","pref":"愛知県","city":"愛西市","address":"古瀬町"},
{"zip_code":"4960944","kana_pref":"ｱｲﾁｹﾝ","kana_city":"ｱｲｻｲｼ","kana_address":"ｺﾓｲﾁｮｳ","pref":"愛知県","city":"愛西市","address":"小茂井町"},
{"zip_code":"4968002","kana_pref":"ｱｲﾁｹﾝ","kana_city":"ｱｲｻｲｼ","kana_address":"ｻｵﾘﾁｮｳ","pref":"愛知県","city":"愛西市","address":"佐折町"},
{"zip_code":"4960901","kana_pref":"ｱｲﾁｹﾝ","kana_city":"ｱｲｻｲｼ","kana_address":"ｻﾔﾁｮｳ","pref":"愛知県","city":"愛西市","address":"佐屋町"},
{"zip_code":"4968049","kana_pref":"ｱｲﾁｹﾝ","kana_city":"ｱｲｻｲｼ","kana_address":"ｼｵﾀﾁｮｳ","pref":"愛知県","city":"愛西市","address":"塩田町"},
{"zip_code":"4960935","kana_pref":"ｱｲﾁｹﾝ","kana_city":"ｱｲｻｲｼ","kana_address":"ｼﾓｲｼｷﾁｮｳ","pref":"愛知県","city":"愛西市","address":"下一色町"},
{"zip_code":"4968048","kana_pref":"ｱｲﾁｹﾝ","kana_city":"ｱｲｻｲｼ","kana_address":"ｼﾓｵｵﾏｷﾁｮｳ","pref":"愛知県","city":"愛西市","address":"下大牧町"},
{"zip_code":"4968032","kana_pref":"ｱｲﾁｹﾝ","kana_city":"ｱｲｻｲｼ","kana_address":"ｼﾓﾋｶﾞｼｶﾞﾜﾁｮｳ","pref":"愛知県","city":"愛西市","address":"下東川町"},
{"zip_code":"4968001","kana_pref":"ｱｲﾁｹﾝ","kana_city":"ｱｲｻｲｼ","kana_address":"ｼｮﾊﾞﾀﾁｮｳ","pref":"愛知県","city":"愛西市","address":"勝幡町"},
{"zip_code":"4960934","kana_pref":"ｱｲﾁｹﾝ","kana_city":"ｱｲｻｲｼ","kana_address":"ｼﾝｳｴﾓﾝｼﾝﾃﾞﾝﾁｮｳ","pref":"愛知県","city":"愛西市","address":"新右エ門新田町"},
{"zip_code":"4960902","kana_pref":"ｱｲﾁｹﾝ","kana_city":"ｱｲｻｲｼ","kana_address":"ｽｴﾁｮｳ","pref":"愛知県","city":"愛西市","address":"須依町"},
{"zip_code":"4960941","kana_pref":"ｱｲﾁｹﾝ","kana_city":"ｱｲｻｲｼ","kana_address":"ｽｽﾞｶﾞﾓﾘﾁｮｳ","pref":"愛知県","city":"愛西市","address":"雀ケ森町"},
{"zip_code":"4968011","kana_pref":"ｱｲﾁｹﾝ","kana_city":"ｱｲｻｲｼ","kana_address":"ｽﾜﾁｮｳ","pref":"愛知県","city":"愛西市","address":"諏訪町"},
{"zip_code":"4960924","kana_pref":"ｱｲﾁｹﾝ","kana_city":"ｱｲｻｲｼ","kana_address":"ｾﾞﾝﾀｼﾝﾃﾞﾝﾁｮｳ","pref":"愛知県","city":"愛西市","address":"善太新田町"},
{"zip_code":"4968003","kana_pref":"ｱｲﾁｹﾝ","kana_city":"ｱｲｻｲｼ","kana_address":"ｾﾝﾋﾞｷﾁｮｳ","pref":"愛知県","city":"愛西市","address":"千引町"},
{"zip_code":"4968043","kana_pref":"ｱｲﾁｹﾝ","kana_city":"ｱｲｻｲｼ","kana_address":"ﾀｶﾊﾞﾀﾁｮｳ","pref":"愛知県","city":"愛西市","address":"高畑町"},
{"zip_code":"4968016","kana_pref":"ｱｲﾁｹﾝ","kana_city":"ｱｲｻｲｼ","kana_address":"ﾀｶﾊﾞﾁｮｳ","pref":"愛知県","city":"愛西市","address":"鷹場町"},
{"zip_code":"4960946","kana_pref":"ｱｲﾁｹﾝ","kana_city":"ｱｲｻｲｼ","kana_address":"ﾀﾂﾀﾞﾁｮｳ","pref":"愛知県","city":"愛西市","address":"立田町"},
{"zip_code":"4968047","kana_pref":"ｱｲﾁｹﾝ","kana_city":"ｱｲｻｲｼ","kana_address":"ﾀﾃｲｼﾁｮｳ","pref":"愛知県","city":"愛西市","address":"立石町"},
{"zip_code":"4960933","kana_pref":"ｱｲﾁｹﾝ","kana_city":"ｱｲｻｲｼ","kana_address":"ﾄｸﾗﾁｮｳ","pref":"愛知県","city":"愛西市","address":"戸倉町"},
{"zip_code":"4968019","kana_pref":"ｱｲﾁｹﾝ","kana_city":"ｱｲｻｲｼ","kana_address":"ﾆｼｶﾜﾊﾞﾀﾁｮｳ","pref":"愛知県","city":"愛西市","address":"西川端町"},
{"zip_code":"4960913","kana_pref":"ｱｲﾁｹﾝ","kana_city":"ｱｲｻｲｼ","kana_address":"ﾆｼｼﾞｮｳﾁｮｳ","pref":"愛知県","city":"愛西市","address":"西條町"},
{"zip_code":"4960911","kana_pref":"ｱｲﾁｹﾝ","kana_city":"ｱｲｻｲｼ","kana_address":"ﾆｼﾎﾁｮｳ","pref":"愛知県","city":"愛西市","address":"西保町"},
{"zip_code":"4968012","kana_pref":"ｱｲﾁｹﾝ","kana_city":"ｱｲｻｲｼ","kana_address":"ﾈﾀﾞｶﾁｮｳ","pref":"愛知県","city":"愛西市","address":"根高町"},
{"zip_code":"4960931","kana_pref":"ｱｲﾁｹﾝ","kana_city":"ｱｲｻｲｼ","kana_address":"ﾊﾔｵﾁｮｳ","pref":"愛知県","city":"愛西市","address":"早尾町"},
{"zip_code":"4960914","kana_pref":"ｱｲﾁｹﾝ","kana_city":"ｱｲｻｲｼ","kana_address":"ﾋｶﾞｼｼﾞｮｳﾁｮｳ","pref":"愛知県","city":"愛西市","address":"東條町"},
{"zip_code":"4960912","kana_pref":"ｱｲﾁｹﾝ","kana_city":"ｱｲｻｲｼ","kana_address":"ﾋｶﾞｼﾎﾁｮｳ","pref":"愛知県","city":"愛西市","address":"東保町"},
{"zip_code":"4960939","kana_pref":"ｱｲﾁｹﾝ","kana_city":"ｱｲｻｲｼ","kana_address":"ﾋﾂｴﾁｮｳ","pref":"愛知県","city":"愛西市","address":"後江町"},
{"zip_code":"4960947","kana_pref":"ｱｲﾁｹﾝ","kana_city":"ｱｲｻｲｼ","kana_address":"ﾌｸﾊﾗｼﾝﾃﾞﾝﾁｮｳ","pref":"愛知県","city":"愛西市","address":"福原新田町"},
{"zip_code":"4968041","kana_pref":"ｱｲﾁｹﾝ","kana_city":"ｱｲｻｲｼ","kana_address":"ﾌｼﾞｶﾞｾﾁｮｳ","pref":"愛知県","city":"愛西市","address":"藤ケ瀬町"},
{"zip_code":"4968035","kana_pref":"ｱｲﾁｹﾝ","kana_city":"ｱｲｻｲｼ","kana_address":"ﾌﾀｺﾞﾁｮｳｶﾐﾏﾙｼﾞﾏ","pref":"愛知県","city":"愛西市","address":"二子町上丸島"},
{"zip_code":"4968034","kana_pref":"ｱｲﾁｹﾝ","kana_city":"ｱｲｻｲｼ","kana_address":"ﾌﾀｺﾞﾁｮｳｺﾊﾞﾝﾔﾏ","pref":"愛知県","city":"愛西市","address":"二子町小判山"},
{"zip_code":"4968038","kana_pref":"ｱｲﾁｹﾝ","kana_city":"ｱｲｻｲｼ","kana_address":"ﾌﾀｺﾞﾁｮｳｼﾞｮｳﾉ","pref":"愛知県","city":"愛西市","address":"二子町定納"},
{"zip_code":"4968037","kana_pref":"ｱｲﾁｹﾝ","kana_city":"ｱｲｻｲｼ","kana_address":"ﾌﾀｺﾞﾁｮｳｼﾝﾃﾞﾝ","pref":"愛知県","city":"愛西市","address":"二子町新田"},
{"zip_code":"4968040","kana_pref":"ｱｲﾁｹﾝ","kana_city":"ｱｲｻｲｼ","kana_address":"ﾌﾀｺﾞﾁｮｳﾏﾂﾊﾞﾗ","pref":"愛知県","city":"愛西市","address":"二子町松原"},
{"zip_code":"4968036","kana_pref":"ｱｲﾁｹﾝ","kana_city":"ｱｲｻｲｼ","kana_address":"ﾌﾀｺﾞﾁｮｳﾏﾙｼﾞﾏ","pref":"愛知県","city":"愛西市","address":"二子町丸島"},
{"zip_code":"4968030","kana_pref":"ｱｲﾁｹﾝ","kana_city":"ｱｲｻｲｼ","kana_address":"ﾌﾀｺﾞﾁｮｳﾔﾅｷﾞﾊﾗ","pref":"愛知県","city":"愛西市","address":"二子町柳原"},
{"zip_code":"4968018","kana_pref":"ｱｲﾁｹﾝ","kana_city":"ｱｲｻｲｼ","kana_address":"ﾌﾁﾀﾞｶﾁｮｳ","pref":"愛知県","city":"愛西市","address":"渕高町"},
{"zip_code":"4968020","kana_pref":"ｱｲﾁｹﾝ","kana_city":"ｱｲｻｲｼ","kana_address":"ﾍｲﾜﾁｮｳ","pref":"愛知県","city":"愛西市","address":"平和町"},
{"zip_code":"4960906","kana_pref":"ｱｲﾁｹﾝ","kana_city":"ｱｲｻｲｼ","kana_address":"ﾍｷﾁｮｳ","pref":"愛知県","city":"愛西市","address":"日置町"},
{"zip_code":"4960915","kana_pref":"ｱｲﾁｹﾝ","kana_city":"ｱｲｻｲｼ","kana_address":"ﾎﾝﾌﾞﾀﾁｮｳ","pref":"愛知県","city":"愛西市","address":"本部田町"},
{"zip_code":"4968014","kana_pref":"ｱｲﾁｹﾝ","kana_city":"ｱｲｻｲｼ","kana_address":"ﾏﾁｶﾀﾁｮｳ","pref":"愛知県","city":"愛西市","address":"町方町"},
{"zip_code":"4968013","kana_pref":"ｱｲﾁｹﾝ","kana_city":"ｱｲｻｲｼ","kana_address":"ﾐｺｼﾁｮｳ","pref":"愛知県","city":"愛西市","address":"見越町"},
{"zip_code":"4960945","kana_pref":"ｱｲﾁｹﾝ","kana_city":"ｱｲｻｲｼ","kana_address":"ﾐﾂﾜﾁｮｳ","pref":"愛知県","city":"愛西市","address":"三和町"},
{"zip_code":"4968007","kana_pref":"ｱｲﾁｹﾝ","kana_city":"ｱｲｻｲｼ","kana_address":"ﾐﾅﾐｺﾞｳﾀﾁｮｳ","pref":"愛知県","city":"愛西市","address":"南河田町"},
{"zip_code":"4960937","kana_pref":"ｱｲﾁｹﾝ","kana_city":"ｱｲｻｲｼ","kana_address":"ﾐﾔｼﾞﾁｮｳ","pref":"愛知県","city":"愛西市","address":"宮地町"},
{"zip_code":"4968006","kana_pref":"ｱｲﾁｹﾝ","kana_city":"ｱｲｻｲｼ","kana_address":"ﾓｯﾁｭｳﾁｮｳ","pref":"愛知県","city":"愛西市","address":"持中町"},
{"zip_code":"4968045","kana_pref":"ｱｲﾁｹﾝ","kana_city":"ｱｲｻｲｼ","kana_address":"ﾓﾄｱｶﾒﾁｮｳ","pref":"愛知県","city":"愛西市","address":"元赤目町"},
{"zip_code":"4960943","kana_pref":"ｱｲﾁｹﾝ","kana_city":"ｱｲｻｲｼ","kana_address":"ﾓﾘｶﾜﾁｮｳ","pref":"愛知県","city":"愛西市","address":"森川町"},
{"zip_code":"4968005","kana_pref":"ｱｲﾁｹﾝ","kana_city":"ｱｲｻｲｼ","kana_address":"ﾓﾛｸﾜﾁｮｳ","pref":"愛知県","city":"愛西市","address":"諸桑町"},
{"zip_code":"4960942","kana_pref":"ｱｲﾁｹﾝ","kana_city":"ｱｲｻｲｼ","kana_address":"ﾔﾏｼﾞﾁｮｳ","pref":"愛知県","city":"愛西市","address":"山路町"},
{"zip_code":"4960904","kana_pref":"ｱｲﾁｹﾝ","kana_city":"ｱｲｻｲｼ","kana_address":"ﾕｷﾞﾁｮｳ","pref":"愛知県","city":"愛西市","address":"柚木町"},
{"zip_code":"4960936","kana_pref":"ｱｲﾁｹﾝ","kana_city":"ｱｲｻｲｼ","kana_address":"ﾖﾂｴﾁｮｳ","pref":"愛知県","city":"愛西市","address":"四会町"},
{"zip_code":"4968010","kana_pref":"ｱｲﾁｹﾝ","kana_city":"ｱｲｻｲｼ","kana_address":"ﾛｸﾜﾁｮｳ","pref":"愛知県","city":"愛西市","address":"六輪町"}]}