{"zip_code":[
{"zip_code":"4970003","kana_pref":"ｱｲﾁｹﾝ","kana_city":"ｱﾏｼ","kana_address":"ｼｯﾎﾟｳﾁｮｳｱｷﾀｹ","pref":"愛知県","city":"あま市","address":"七宝町秋竹"},
{"zip_code":"4970005","kana_pref":"ｱｲﾁｹﾝ","kana_city":"ｱﾏｼ","kana_address":"ｼｯﾎﾟｳﾁｮｳｲﾌｸ","pref":"愛知県","city":"あま市","address":"七宝町伊福"},
{"zip_code":"4970001","kana_pref":"ｱｲﾁｹﾝ","kana_city":"ｱﾏｼ","kana_address":"ｼｯﾎﾟｳﾁｮｳｵｷﾉｼﾏ","pref":"愛知県","city":"あま市","address":"七宝町沖之島"},
{"zip_code":"4970004","kana_pref":"ｱｲﾁｹﾝ","kana_city":"ｱﾏｼ","kana_address":"ｼｯﾎﾟｳﾁｮｳｶﾂﾗ","pref":"愛知県","city":"あま市","address":"七宝町桂"},
{"zip_code":"4970013","kana_pref":"ｱｲﾁｹﾝ","kana_city":"ｱﾏｼ","kana_address":"ｼｯﾎﾟｳﾁｮｳｶﾜﾍﾞ","pref":"愛知県","city":"あま市","address":"七宝町川部"},
{"zip_code":"4970012","kana_pref":"ｱｲﾁｹﾝ","kana_city":"ｱﾏｼ","kana_address":"ｼｯﾎﾟｳﾁｮｳｼﾓﾀﾞ","pref":"愛知県","city":"あま市","address":"七宝町下田"},
{"zip_code":"4970006","kana_pref":"ｱｲﾁｹﾝ","kana_city":"ｱﾏｼ","kana_address":"ｼｯﾎﾟｳﾁｮｳｼﾓﾉﾓﾘ","pref":"愛知県","city":"あま市","address":"七宝町下之森"},
{"zip_code":"4970014","kana_pref":"ｱｲﾁｹﾝ","kana_city":"ｱﾏｼ","kana_address":"ｼｯﾎﾟｳﾁｮｳﾀｶｲ","pref":"愛知県","city":"あま市","address":"七宝町鷹居"},
{"zip_code":"4970002","kana_pref":"ｱｲﾁｹﾝ","kana_city":"ｱﾏｼ","kana_address":"ｼｯﾎﾟｳﾁｮｳﾄｵｼﾏ","pref":"愛知県","city":"あま市","address":"七宝町遠島"},
{"zip_code":"4970016","kana_pref":"ｱｲﾁｹﾝ","kana_city":"ｱﾏｼ","kana_address":"ｼｯﾎﾟｳﾁｮｳﾄｸｻﾞﾈ","pref":"愛知県","city":"あま市","address":"七宝町徳実"},
{"zip_code":"4970015","kana_pref":"ｱｲﾁｹﾝ","kana_city":"ｱﾏｼ","kana_address":"ｼｯﾎﾟｳﾁｮｳﾅﾏｽﾞﾊﾞｼ","pref":"愛知県","city":"あま市","address":"七宝町鯰橋"},
{"zip_code":"4970011","kana_pref":"ｱｲﾁｹﾝ","kana_city":"ｱﾏｼ","kana_address":"ｼｯﾎﾟｳﾁｮｳﾔｽﾏﾂ","pref":"愛知県","city":"あま市","address":"七宝町安松"},
{"zip_code":"4970000","kana_pref":"ｱｲﾁｹﾝ","kana_city":"ｱﾏｸﾞﾝｶﾆｴﾁｮｳ","kana_address":"","pref":"愛知県","city":"海部郡蟹江町","address":""},
{"zip_code":"4970046","kana_pref":"ｱｲﾁｹﾝ","kana_city":"ｱﾏｸﾞﾝｶﾆｴﾁｮｳ","kana_address":"ｱｻﾋ","pref":"愛知県","city":"海部郡蟹江町","address":"旭"},
{"zip_code":"4970047","kana_pref":"ｱｲﾁｹﾝ","kana_city":"ｱﾏｸﾞﾝｶﾆｴﾁｮｳ","kana_address":"ｲｽﾞﾐ","pref":"愛知県","city":"海部郡蟹江町","address":"泉"},
{"zip_code":"4970032","kana_pref":"ｱｲﾁｹﾝ","kana_city":"ｱﾏｸﾞﾝｶﾆｴﾁｮｳ","kana_address":"ｲﾏ","pref":"愛知県","city":"海部郡蟹江町","address":"今"},
{"zip_code":"4970037","kana_pref":"ｱｲﾁｹﾝ","kana_city":"ｱﾏｸﾞﾝｶﾆｴﾁｮｳ","kana_address":"ｲﾏﾆｼ","pref":"愛知県","city":"海部郡蟹江町","address":"今西"},
{"zip_code":"4970050","kana_pref":"ｱｲﾁｹﾝ","kana_city":"ｱﾏｸﾞﾝｶﾆｴﾁｮｳ","kana_address":"ｶﾞｸﾄ","pref":"愛知県","city":"海部郡蟹江町","address":"学戸"},
{"zip_code":"4970044","kana_pref":"ｱｲﾁｹﾝ","kana_city":"ｱﾏｸﾞﾝｶﾆｴﾁｮｳ","kana_address":"ｶﾆｴｼﾝﾃﾞﾝ","pref":"愛知県","city":"海部郡蟹江町","address":"蟹江新田"},
{"zip_code":"4970035","kana_pref":"ｱｲﾁｹﾝ","kana_city":"ｱﾏｸﾞﾝｶﾆｴﾁｮｳ","kana_address":"ｶﾆｴｼﾝﾏﾁ","pref":"愛知県","city":"海部郡蟹江町","address":"蟹江新町"},
{"zip_code":"4970033","kana_pref":"ｱｲﾁｹﾝ","kana_city":"ｱﾏｸﾞﾝｶﾆｴﾁｮｳ","kana_address":"ｶﾆｴﾎﾝﾏﾁ","pref":"愛知県","city":"海部郡蟹江町","address":"蟹江本町"},
{"zip_code":"4970057","kana_pref":"ｱｲﾁｹﾝ","kana_city":"ｱﾏｸﾞﾝｶﾆｴﾁｮｳ","kana_address":"ｶﾐｶﾜﾀ","pref":"愛知県","city":"海部郡蟹江町","address":"上川田"},
{"zip_code":"4970051","kana_pref":"ｱｲﾁｹﾝ","kana_city":"ｱﾏｸﾞﾝｶﾆｴﾁｮｳ","kana_address":"ｷﾀｼﾝﾃﾞﾝ","pref":"愛知県","city":"海部郡蟹江町","address":"北新田"},
{"zip_code":"4970055","kana_pref":"ｱｲﾁｹﾝ","kana_city":"ｱﾏｸﾞﾝｶﾆｴﾁｮｳ","kana_address":"ｹﾞﾝｼﾞ","pref":"愛知県","city":"海部郡蟹江町","address":"源氏"},
{"zip_code":"4970040","kana_pref":"ｱｲﾁｹﾝ","kana_city":"ｱﾏｸﾞﾝｶﾆｴﾁｮｳ","kana_address":"ｼﾛ","pref":"愛知県","city":"海部郡蟹江町","address":"城"},
{"zip_code":"4970043","kana_pref":"ｱｲﾁｹﾝ","kana_city":"ｱﾏｸﾞﾝｶﾆｴﾁｮｳ","kana_address":"ｼﾝﾁｱｷ","pref":"愛知県","city":"海部郡蟹江町","address":"新千秋"},
{"zip_code":"4970031","kana_pref":"ｱｲﾁｹﾝ","kana_city":"ｱﾏｸﾞﾝｶﾆｴﾁｮｳ","kana_address":"ｽﾅﾘ","pref":"愛知県","city":"海部郡蟹江町","address":"須成"},
{"zip_code":"4970036","kana_pref":"ｱｲﾁｹﾝ","kana_city":"ｱﾏｸﾞﾝｶﾆｴﾁｮｳ","kana_address":"ｽﾅﾘﾆｼ","pref":"愛知県","city":"海部郡蟹江町","address":"須成西"},
{"zip_code":"4970030","kana_pref":"ｱｲﾁｹﾝ","kana_city":"ｱﾏｸﾞﾝｶﾆｴﾁｮｳ","kana_address":"ﾀｶﾗ","pref":"愛知県","city":"海部郡蟹江町","address":"宝"},
{"zip_code":"4970058","kana_pref":"ｱｲﾁｹﾝ","kana_city":"ｱﾏｸﾞﾝｶﾆｴﾁｮｳ","kana_address":"ﾄﾐﾖｼ","pref":"愛知県","city":"海部郡蟹江町","address":"富吉"},
{"zip_code":"4970042","kana_pref":"ｱｲﾁｹﾝ","kana_city":"ｱﾏｸﾞﾝｶﾆｴﾁｮｳ","kana_address":"ﾅﾍﾞﾌﾞﾀｼﾝﾃﾞﾝ","pref":"愛知県","city":"海部郡蟹江町","address":"鍋蓋新田"},
{"zip_code":"4970054","kana_pref":"ｱｲﾁｹﾝ","kana_city":"ｱﾏｸﾞﾝｶﾆｴﾁｮｳ","kana_address":"ﾆｼｷ","pref":"愛知県","city":"海部郡蟹江町","address":"錦"},
{"zip_code":"4970052","kana_pref":"ｱｲﾁｹﾝ","kana_city":"ｱﾏｸﾞﾝｶﾆｴﾁｮｳ","kana_address":"ﾆｼﾉﾓﾘ","pref":"愛知県","city":"海部郡蟹江町","address":"西之森"},
{"zip_code":"4970056","kana_pref":"ｱｲﾁｹﾝ","kana_city":"ｱﾏｸﾞﾝｶﾆｴﾁｮｳ","kana_address":"ﾊﾁﾏﾝ","pref":"愛知県","city":"海部郡蟹江町","address":"八幡"},
{"zip_code":"4970048","kana_pref":"ｱｲﾁｹﾝ","kana_city":"ｱﾏｸﾞﾝｶﾆｴﾁｮｳ","kana_address":"ﾌﾅｲﾘ","pref":"愛知県","city":"海部郡蟹江町","address":"舟入"},
{"zip_code":"4970053","kana_pref":"ｱｲﾁｹﾝ","kana_city":"ｱﾏｸﾞﾝｶﾆｴﾁｮｳ","kana_address":"ﾍｲｱﾝ","pref":"愛知県","city":"海部郡蟹江町","address":"平安"},
{"zip_code":"4970034","kana_pref":"ｱｲﾁｹﾝ","kana_city":"ｱﾏｸﾞﾝｶﾆｴﾁｮｳ","kana_address":"ﾎﾝﾏﾁ","pref":"愛知県","city":"海部郡蟹江町","address":"本町"},
{"zip_code":"4970045","kana_pref":"ｱｲﾁｹﾝ","kana_city":"ｱﾏｸﾞﾝｶﾆｴﾁｮｳ","kana_address":"ﾐﾄﾞﾘ","pref":"愛知県","city":"海部郡蟹江町","address":"緑"}]}