{"zip_code":[
{"zip_code":"4980000","kana_pref":"ｱｲﾁｹﾝ","kana_city":"ﾔﾄﾐｼ","kana_address":"","pref":"愛知県","city":"弥富市","address":""},
{"zip_code":"4980053","kana_pref":"ｱｲﾁｹﾝ","kana_city":"ﾔﾄﾐｼ","kana_address":"ｲﾅｺﾁｮｳ","pref":"愛知県","city":"弥富市","address":"稲狐町"},
{"zip_code":"4980045","kana_pref":"ｱｲﾁｹﾝ","kana_city":"ﾔﾄﾐｼ","kana_address":"ｲﾅﾓﾄ","pref":"愛知県","city":"弥富市","address":"稲元"},
{"zip_code":"4980045","kana_pref":"ｱｲﾁｹﾝ","kana_city":"ﾔﾄﾐｼ","kana_address":"ｲﾅﾓﾄﾁｮｳ","pref":"愛知県","city":"弥富市","address":"稲元町"},
{"zip_code":"4980048","kana_pref":"ｱｲﾁｹﾝ","kana_city":"ﾔﾄﾐｼ","kana_address":"ｲﾅﾖｼ","pref":"愛知県","city":"弥富市","address":"稲吉"},
{"zip_code":"4980052","kana_pref":"ｱｲﾁｹﾝ","kana_city":"ﾔﾄﾐｼ","kana_address":"ｲﾅﾘ","pref":"愛知県","city":"弥富市","address":"稲荷"},
{"zip_code":"4980056","kana_pref":"ｱｲﾁｹﾝ","kana_city":"ﾔﾄﾐｼ","kana_address":"ｲﾅﾘｻﾞｷ","pref":"愛知県","city":"弥富市","address":"稲荷崎"},
{"zip_code":"4980056","kana_pref":"ｱｲﾁｹﾝ","kana_city":"ﾔﾄﾐｼ","kana_address":"ｲﾅﾘｻﾞｷﾁｮｳ","pref":"愛知県","city":"弥富市","address":"稲荷崎町"},
{"zip_code":"4980052","kana_pref":"ｱｲﾁｹﾝ","kana_city":"ﾔﾄﾐｼ","kana_address":"ｲﾅﾘﾁｮｳ","pref":"愛知県","city":"弥富市","address":"稲荷町"},
{"zip_code":"4980067","kana_pref":"ｱｲﾁｹﾝ","kana_city":"ﾔﾄﾐｼ","kana_address":"ｳｴﾉﾁｮｳ","pref":"愛知県","city":"弥富市","address":"上野町"},
{"zip_code":"4980023","kana_pref":"ｱｲﾁｹﾝ","kana_city":"ﾔﾄﾐｼ","kana_address":"ｳｸﾞｲｳﾗﾁｮｳ","pref":"愛知県","city":"弥富市","address":"鯏浦町"},
{"zip_code":"4980024","kana_pref":"ｱｲﾁｹﾝ","kana_city":"ﾔﾄﾐｼ","kana_address":"ｳｸﾞｲｳﾗﾁｮｳ","pref":"愛知県","city":"弥富市","address":"鯏浦町"},
{"zip_code":"4980022","kana_pref":"ｱｲﾁｹﾝ","kana_city":"ﾔﾄﾐｼ","kana_address":"ｳｸﾞｲｳﾗﾁｮｳ","pref":"愛知県","city":"弥富市","address":"鯏浦町"},
{"zip_code":"4980028","kana_pref":"ｱｲﾁｹﾝ","kana_city":"ﾔﾄﾐｼ","kana_address":"ｳｸﾞｲｳﾗﾁｮｳ","pref":"愛知県","city":"弥富市","address":"鯏浦町"},
{"zip_code":"4980026","kana_pref":"ｱｲﾁｹﾝ","kana_city":"ﾔﾄﾐｼ","kana_address":"ｳｸﾞｲｳﾗﾁｮｳ","pref":"愛知県","city":"弥富市","address":"鯏浦町"},
{"zip_code":"4980027","kana_pref":"ｱｲﾁｹﾝ","kana_city":"ﾔﾄﾐｼ","kana_address":"ｳｸﾞｲｳﾗﾁｮｳ","pref":"愛知県","city":"弥富市","address":"鯏浦町"},
{"zip_code":"4980021","kana_pref":"ｱｲﾁｹﾝ","kana_city":"ﾔﾄﾐｼ","kana_address":"ｳｸﾞｲｳﾗﾁｮｳ","pref":"愛知県","city":"弥富市","address":"鯏浦町"},
{"zip_code":"4980015","kana_pref":"ｱｲﾁｹﾝ","kana_city":"ﾔﾄﾐｼ","kana_address":"ｴﾋﾞｴ","pref":"愛知県","city":"弥富市","address":"海老江"},
{"zip_code":"4980062","kana_pref":"ｱｲﾁｹﾝ","kana_city":"ﾔﾄﾐｼ","kana_address":"ｵｵﾀﾆ","pref":"愛知県","city":"弥富市","address":"大谷"},
{"zip_code":"4980047","kana_pref":"ｱｲﾁｹﾝ","kana_city":"ﾔﾄﾐｼ","kana_address":"ｶｲﾅ","pref":"愛知県","city":"弥富市","address":"加稲"},
{"zip_code":"4980007","kana_pref":"ｱｲﾁｹﾝ","kana_city":"ﾔﾄﾐｼ","kana_address":"ｶﾏｸﾗﾁｮｳ","pref":"愛知県","city":"弥富市","address":"鎌倉町"},
{"zip_code":"4980035","kana_pref":"ｱｲﾁｹﾝ","kana_city":"ﾔﾄﾐｼ","kana_address":"ｶﾏｼﾞﾏ","pref":"愛知県","city":"弥富市","address":"鎌島"},
{"zip_code":"4980013","kana_pref":"ｱｲﾁｹﾝ","kana_city":"ﾔﾄﾐｼ","kana_address":"ｶﾜﾋﾗ","pref":"愛知県","city":"弥富市","address":"川平"},
{"zip_code":"4980037","kana_pref":"ｱｲﾁｹﾝ","kana_city":"ﾔﾄﾐｼ","kana_address":"ｶﾜﾗｶﾞｹ","pref":"愛知県","city":"弥富市","address":"川原欠"},
{"zip_code":"4980037","kana_pref":"ｱｲﾁｹﾝ","kana_city":"ﾔﾄﾐｼ","kana_address":"ｶﾜﾗｶﾞｹﾁｮｳ","pref":"愛知県","city":"弥富市","address":"川原欠町"},
{"zip_code":"4980043","kana_pref":"ｱｲﾁｹﾝ","kana_city":"ﾔﾄﾐｼ","kana_address":"ｶﾝｴﾝ","pref":"愛知県","city":"弥富市","address":"寛延"},
{"zip_code":"4980044","kana_pref":"ｱｲﾁｹﾝ","kana_city":"ﾔﾄﾐｼ","kana_address":"ｶﾝｻﾞｷ","pref":"愛知県","city":"弥富市","address":"間崎"},
{"zip_code":"4980044","kana_pref":"ｱｲﾁｹﾝ","kana_city":"ﾔﾄﾐｼ","kana_address":"ｶﾝｻﾞｷﾁｮｳ","pref":"愛知県","city":"弥富市","address":"間崎町"},
{"zip_code":"4980051","kana_pref":"ｱｲﾁｹﾝ","kana_city":"ﾔﾄﾐｼ","kana_address":"ｷﾂﾈｼﾞ","pref":"愛知県","city":"弥富市","address":"狐地"},
{"zip_code":"4980051","kana_pref":"ｱｲﾁｹﾝ","kana_city":"ﾔﾄﾐｼ","kana_address":"ｷﾂﾈｼﾞﾁｮｳ","pref":"愛知県","city":"弥富市","address":"狐地町"},
{"zip_code":"4980066","kana_pref":"ｱｲﾁｹﾝ","kana_city":"ﾔﾄﾐｼ","kana_address":"ｸｽﾉｷ","pref":"愛知県","city":"弥富市","address":"楠"},
{"zip_code":"4980061","kana_pref":"ｱｲﾁｹﾝ","kana_city":"ﾔﾄﾐｼ","kana_address":"ｸﾘﾀﾞｼ","pref":"愛知県","city":"弥富市","address":"操出"},
{"zip_code":"4980016","kana_pref":"ｱｲﾁｹﾝ","kana_city":"ﾔﾄﾐｼ","kana_address":"ｺｼﾞﾏﾁｮｳ","pref":"愛知県","city":"弥富市","address":"小島町"},
{"zip_code":"4980018","kana_pref":"ｱｲﾁｹﾝ","kana_city":"ﾔﾄﾐｼ","kana_address":"ｺﾞﾉｻﾝｶﾜﾋﾗ","pref":"愛知県","city":"弥富市","address":"五之三川平"},
{"zip_code":"4980012","kana_pref":"ｱｲﾁｹﾝ","kana_city":"ﾔﾄﾐｼ","kana_address":"ｺﾞﾉｻﾝﾁｮｳ","pref":"愛知県","city":"弥富市","address":"五之三町"},
{"zip_code":"4980065","kana_pref":"ｱｲﾁｹﾝ","kana_city":"ﾔﾄﾐｼ","kana_address":"ｺﾏﾉﾁｮｳ","pref":"愛知県","city":"弥富市","address":"駒野町"},
{"zip_code":"4980014","kana_pref":"ｱｲﾁｹﾝ","kana_city":"ﾔﾄﾐｼ","kana_address":"ｺﾞﾐｮｳ","pref":"愛知県","city":"弥富市","address":"五明"},
{"zip_code":"4980014","kana_pref":"ｱｲﾁｹﾝ","kana_city":"ﾔﾄﾐｼ","kana_address":"ｺﾞﾐｮｳﾁｮｳ","pref":"愛知県","city":"弥富市","address":"五明町"},
{"zip_code":"4980055","kana_pref":"ｱｲﾁｹﾝ","kana_city":"ﾔﾄﾐｼ","kana_address":"ｻｶｲﾁｮｳ","pref":"愛知県","city":"弥富市","address":"境町"},
{"zip_code":"4980006","kana_pref":"ｱｲﾁｹﾝ","kana_city":"ﾔﾄﾐｼ","kana_address":"ｻｺｷﾞ","pref":"愛知県","city":"弥富市","address":"佐古木"},
{"zip_code":"4980054","kana_pref":"ｱｲﾁｹﾝ","kana_city":"ﾔﾄﾐｼ","kana_address":"ｻﾝﾄ","pref":"愛知県","city":"弥富市","address":"三稲"},
{"zip_code":"4980054","kana_pref":"ｱｲﾁｹﾝ","kana_city":"ﾔﾄﾐｼ","kana_address":"ｻﾝﾄﾁｮｳ","pref":"愛知県","city":"弥富市","address":"三稲町"},
{"zip_code":"4980041","kana_pref":"ｱｲﾁｹﾝ","kana_city":"ﾔﾄﾐｼ","kana_address":"ｼﾊﾞｲ","pref":"愛知県","city":"弥富市","address":"芝井"},
{"zip_code":"4980041","kana_pref":"ｱｲﾁｹﾝ","kana_city":"ﾔﾄﾐｼ","kana_address":"ｼﾊﾞｲﾁｮｳ","pref":"愛知県","city":"弥富市","address":"芝井町"},
{"zip_code":"4980058","kana_pref":"ｱｲﾁｹﾝ","kana_city":"ﾔﾄﾐｼ","kana_address":"ﾄﾐｼﾏ","pref":"愛知県","city":"弥富市","address":"富島"},
{"zip_code":"4980058","kana_pref":"ｱｲﾁｹﾝ","kana_city":"ﾔﾄﾐｼ","kana_address":"ﾄﾐｼﾏﾁｮｳ","pref":"愛知県","city":"弥富市","address":"富島町"},
{"zip_code":"4980069","kana_pref":"ｱｲﾁｹﾝ","kana_city":"ﾔﾄﾐｼ","kana_address":"ﾄﾐﾊﾏ","pref":"愛知県","city":"弥富市","address":"富浜"},
{"zip_code":"4980057","kana_pref":"ｱｲﾁｹﾝ","kana_city":"ﾔﾄﾐｼ","kana_address":"ﾅｶﾊﾗ","pref":"愛知県","city":"弥富市","address":"中原"},
{"zip_code":"4980057","kana_pref":"ｱｲﾁｹﾝ","kana_city":"ﾔﾄﾐｼ","kana_address":"ﾅｶﾊﾗﾁｮｳ","pref":"愛知県","city":"弥富市","address":"中原町"},
{"zip_code":"4980038","kana_pref":"ｱｲﾁｹﾝ","kana_city":"ﾔﾄﾐｼ","kana_address":"ﾅｶﾔﾏﾁｮｳ","pref":"愛知県","city":"弥富市","address":"中山町"},
{"zip_code":"4980068","kana_pref":"ｱｲﾁｹﾝ","kana_city":"ﾔﾄﾐｼ","kana_address":"ﾅﾍﾞﾀﾁｮｳ","pref":"愛知県","city":"弥富市","address":"鍋田町"},
{"zip_code":"4980064","kana_pref":"ｱｲﾁｹﾝ","kana_city":"ﾔﾄﾐｼ","kana_address":"ﾆｼｽｴﾋﾛ","pref":"愛知県","city":"弥富市","address":"西末広"},
{"zip_code":"4980001","kana_pref":"ｱｲﾁｹﾝ","kana_city":"ﾔﾄﾐｼ","kana_address":"ﾆｼﾅｶｼﾞﾁｮｳ","pref":"愛知県","city":"弥富市","address":"西中地町"},
{"zip_code":"4980011","kana_pref":"ｱｲﾁｹﾝ","kana_city":"ﾔﾄﾐｼ","kana_address":"ﾆﾉｳｴﾁｮｳ","pref":"愛知県","city":"弥富市","address":"荷之上町"},
{"zip_code":"4980063","kana_pref":"ｱｲﾁｹﾝ","kana_city":"ﾔﾄﾐｼ","kana_address":"ﾋｶﾞｼｽｴﾋﾛ","pref":"愛知県","city":"弥富市","address":"東末広"},
{"zip_code":"4980002","kana_pref":"ｱｲﾁｹﾝ","kana_city":"ﾔﾄﾐｼ","kana_address":"ﾋｶﾞｼﾅｶｼﾞ","pref":"愛知県","city":"弥富市","address":"東中地"},
{"zip_code":"4980025","kana_pref":"ｱｲﾁｹﾝ","kana_city":"ﾔﾄﾐｼ","kana_address":"ﾍｲｼﾞﾏﾁｮｳ","pref":"愛知県","city":"弥富市","address":"平島町"},
{"zip_code":"4980031","kana_pref":"ｱｲﾁｹﾝ","kana_city":"ﾔﾄﾐｼ","kana_address":"ﾍｲｼﾞﾏﾁｮｳ","pref":"愛知県","city":"弥富市","address":"平島町"},
{"zip_code":"4980032","kana_pref":"ｱｲﾁｹﾝ","kana_city":"ﾔﾄﾐｼ","kana_address":"ﾍｲｼﾞﾏﾅｶ","pref":"愛知県","city":"弥富市","address":"平島中"},
{"zip_code":"4980033","kana_pref":"ｱｲﾁｹﾝ","kana_city":"ﾔﾄﾐｼ","kana_address":"ﾍｲｼﾞﾏﾆｼ","pref":"愛知県","city":"弥富市","address":"平島西"},
{"zip_code":"4980034","kana_pref":"ｱｲﾁｹﾝ","kana_city":"ﾔﾄﾐｼ","kana_address":"ﾍｲｼﾞﾏﾋｶﾞｼ","pref":"愛知県","city":"弥富市","address":"平島東"},
{"zip_code":"4980017","kana_pref":"ｱｲﾁｹﾝ","kana_city":"ﾔﾄﾐｼ","kana_address":"ﾏｴｶﾞｽﾁｮｳ","pref":"愛知県","city":"弥富市","address":"前ケ須町"},
{"zip_code":"4980003","kana_pref":"ｱｲﾁｹﾝ","kana_city":"ﾔﾄﾐｼ","kana_address":"ﾏｴｶﾞﾋﾗ","pref":"愛知県","city":"弥富市","address":"前ケ平"},
{"zip_code":"4980004","kana_pref":"ｱｲﾁｹﾝ","kana_city":"ﾔﾄﾐｼ","kana_address":"ﾏﾀﾊﾁ","pref":"愛知県","city":"弥富市","address":"又八"},
{"zip_code":"4980004","kana_pref":"ｱｲﾁｹﾝ","kana_city":"ﾔﾄﾐｼ","kana_address":"ﾏﾀﾊﾁﾁｮｳ","pref":"愛知県","city":"弥富市","address":"又八町"},
{"zip_code":"4980042","kana_pref":"ｱｲﾁｹﾝ","kana_city":"ﾔﾄﾐｼ","kana_address":"ﾏﾂﾅ","pref":"愛知県","city":"弥富市","address":"松名"},
{"zip_code":"4980042","kana_pref":"ｱｲﾁｹﾝ","kana_city":"ﾔﾄﾐｼ","kana_address":"ﾏﾂﾅﾁｮｳ","pref":"愛知県","city":"弥富市","address":"松名町"},
{"zip_code":"4980046","kana_pref":"ｱｲﾁｹﾝ","kana_city":"ﾔﾄﾐｼ","kana_address":"ﾐﾖｼ","pref":"愛知県","city":"弥富市","address":"三好"},
{"zip_code":"4980046","kana_pref":"ｱｲﾁｹﾝ","kana_city":"ﾔﾄﾐｼ","kana_address":"ﾐﾖｼﾁｮｳ","pref":"愛知県","city":"弥富市","address":"三好町"},
{"zip_code":"4980036","kana_pref":"ｱｲﾁｹﾝ","kana_city":"ﾔﾄﾐｼ","kana_address":"ﾓﾘﾂﾞ","pref":"愛知県","city":"弥富市","address":"森津"},
{"zip_code":"4980036","kana_pref":"ｱｲﾁｹﾝ","kana_city":"ﾔﾄﾐｼ","kana_address":"ﾓﾘﾂﾞﾁｮｳ","pref":"愛知県","city":"弥富市","address":"森津町"},
{"zip_code":"4980005","kana_pref":"ｱｲﾁｹﾝ","kana_city":"ﾔﾄﾐｼ","kana_address":"ﾖｼﾋﾗ","pref":"愛知県","city":"弥富市","address":"楽平"},
{"zip_code":"4980000","kana_pref":"ﾐｴｹﾝ","kana_city":"ｸﾜﾅｸﾞﾝｷｿｻｷﾁｮｳ","kana_address":"","pref":"三重県","city":"桑名郡木曽岬町","address":""},
{"zip_code":"4980803","kana_pref":"ﾐｴｹﾝ","kana_city":"ｸﾜﾅｸﾞﾝｷｿｻｷﾁｮｳ","kana_address":"ｲｽﾞﾐ","pref":"三重県","city":"桑名郡木曽岬町","address":"和泉"},
{"zip_code":"4980808","kana_pref":"ﾐｴｹﾝ","kana_city":"ｸﾜﾅｸﾞﾝｷｿｻｷﾁｮｳ","kana_address":"ｵｳﾐｼﾞﾏ","pref":"三重県","city":"桑名郡木曽岬町","address":"近江島"},
{"zip_code":"4980823","kana_pref":"ﾐｴｹﾝ","kana_city":"ｸﾜﾅｸﾞﾝｷｿｻｷﾁｮｳ","kana_address":"ｶｽﾞﾄﾐ","pref":"三重県","city":"桑名郡木曽岬町","address":"和富"},
{"zip_code":"4980801","kana_pref":"ﾐｴｹﾝ","kana_city":"ｸﾜﾅｸﾞﾝｷｿｻｷﾁｮｳ","kana_address":"ｶﾛﾄ","pref":"三重県","city":"桑名郡木曽岬町","address":"加路戸"},
{"zip_code":"4980818","kana_pref":"ﾐｴｹﾝ","kana_city":"ｸﾜﾅｸﾞﾝｷｿｻｷﾁｮｳ","kana_address":"ｶﾞﾝｶﾞｼﾞ","pref":"三重県","city":"桑名郡木曽岬町","address":"雁ケ地"},
{"zip_code":"4980802","kana_pref":"ﾐｴｹﾝ","kana_city":"ｸﾜﾅｸﾞﾝｷｿｻｷﾁｮｳ","kana_address":"ｹﾝﾆｭｳ","pref":"三重県","city":"桑名郡木曽岬町","address":"見入"},
{"zip_code":"4980822","kana_pref":"ﾐｴｹﾝ","kana_city":"ｸﾜﾅｸﾞﾝｷｿｻｷﾁｮｳ","kana_address":"ｹﾝﾆｭｳﾘｭｳｻｸ","pref":"三重県","city":"桑名郡木曽岬町","address":"見入流作"},
{"zip_code":"4980816","kana_pref":"ﾐｴｹﾝ","kana_city":"ｸﾜﾅｸﾞﾝｷｿｻｷﾁｮｳ","kana_address":"ｹﾞﾝﾛｸﾜｼﾞｭｳ","pref":"三重県","city":"桑名郡木曽岬町","address":"源緑輪中"},
{"zip_code":"4980804","kana_pref":"ﾐｴｹﾝ","kana_city":"ｸﾜﾅｸﾞﾝｷｿｻｷﾁｮｳ","kana_address":"ｺｲｽﾞﾐ","pref":"三重県","city":"桑名郡木曽岬町","address":"小和泉"},
{"zip_code":"4980805","kana_pref":"ﾐｴｹﾝ","kana_city":"ｸﾜﾅｸﾞﾝｷｿｻｷﾁｮｳ","kana_address":"ｺﾊﾞﾔｼ","pref":"三重県","city":"桑名郡木曽岬町","address":"小林"},
{"zip_code":"4980811","kana_pref":"ﾐｴｹﾝ","kana_city":"ｸﾜﾅｸﾞﾝｷｿｻｷﾁｮｳ","kana_address":"ｻｶｴ","pref":"三重県","city":"桑名郡木曽岬町","address":"栄"},
{"zip_code":"4980821","kana_pref":"ﾐｴｹﾝ","kana_city":"ｸﾜﾅｸﾞﾝｷｿｻｷﾁｮｳ","kana_address":"ｼﾝｶﾛﾄ","pref":"三重県","city":"桑名郡木曽岬町","address":"新加路戸"},
{"zip_code":"4980806","kana_pref":"ﾐｴｹﾝ","kana_city":"ｸﾜﾅｸﾞﾝｷｿｻｷﾁｮｳ","kana_address":"ｿﾄﾋﾞﾗｷ","pref":"三重県","city":"桑名郡木曽岬町","address":"外平喜"},
{"zip_code":"4980819","kana_pref":"ﾐｴｹﾝ","kana_city":"ｸﾜﾅｸﾞﾝｷｿｻｷﾁｮｳ","kana_address":"ﾀｼﾛ","pref":"三重県","city":"桑名郡木曽岬町","address":"田代"},
{"zip_code":"4980813","kana_pref":"ﾐｴｹﾝ","kana_city":"ｸﾜﾅｸﾞﾝｷｿｻｷﾁｮｳ","kana_address":"ﾄﾐﾀﾈ","pref":"三重県","city":"桑名郡木曽岬町","address":"富田子"},
{"zip_code":"4980812","kana_pref":"ﾐｴｹﾝ","kana_city":"ｸﾜﾅｸﾞﾝｷｿｻｷﾁｮｳ","kana_address":"ﾅｶｲｽﾞﾐ","pref":"三重県","city":"桑名郡木曽岬町","address":"中和泉"},
{"zip_code":"4980807","kana_pref":"ﾐｴｹﾝ","kana_city":"ｸﾜﾅｸﾞﾝｷｿｻｷﾁｮｳ","kana_address":"ﾆｼﾀｲｶﾞﾝｼﾞ","pref":"三重県","city":"桑名郡木曽岬町","address":"西対海地"},
{"zip_code":"4980815","kana_pref":"ﾐｴｹﾝ","kana_city":"ｸﾜﾅｸﾞﾝｷｿｻｷﾁｮｳ","kana_address":"ﾊｸﾛ","pref":"三重県","city":"桑名郡木曽岬町","address":"白鷺"},
{"zip_code":"4980817","kana_pref":"ﾐｴｹﾝ","kana_city":"ｸﾜﾅｸﾞﾝｷｿｻｷﾁｮｳ","kana_address":"ﾏﾂﾅｶﾞ","pref":"三重県","city":"桑名郡木曽岬町","address":"松永"},
{"zip_code":"4980814","kana_pref":"ﾐｴｹﾝ","kana_city":"ｸﾜﾅｸﾞﾝｷｿｻｷﾁｮｳ","kana_address":"ﾐｻｷ","pref":"三重県","city":"桑名郡木曽岬町","address":"三崎"}]}