{"zip_code":[
{"zip_code":"5000000","kana_pref":"ｷﾞﾌｹﾝ","kana_city":"ｷﾞﾌｼ","kana_address":"","pref":"岐阜県","city":"岐阜市","address":""},
{"zip_code":"5008103","kana_pref":"ｷﾞﾌｹﾝ","kana_city":"ｷﾞﾌｼ","kana_address":"ｱｲｶﾜﾁｮｳ","pref":"岐阜県","city":"岐阜市","address":"藍川町"},
{"zip_code":"5008083","kana_pref":"ｷﾞﾌｹﾝ","kana_city":"ｷﾞﾌｼ","kana_address":"ｱｲﾉﾏﾁ","pref":"岐阜県","city":"岐阜市","address":"間之町"},
{"zip_code":"5008881","kana_pref":"ｷﾞﾌｹﾝ","kana_city":"ｷﾞﾌｼ","kana_address":"ｱｵﾔｷﾞﾁｮｳ","pref":"岐阜県","city":"岐阜市","address":"青柳町"},
{"zip_code":"5008282","kana_pref":"ｷﾞﾌｹﾝ","kana_city":"ｷﾞﾌｼ","kana_address":"ｱｶﾅﾍﾞｵｵｶﾜ","pref":"岐阜県","city":"岐阜市","address":"茜部大川"},
{"zip_code":"5008261","kana_pref":"ｷﾞﾌｹﾝ","kana_city":"ｷﾞﾌｼ","kana_address":"ｱｶﾅﾍﾞｵｵﾉ","pref":"岐阜県","city":"岐阜市","address":"茜部大野"},
{"zip_code":"5008263","kana_pref":"ｷﾞﾌｹﾝ","kana_city":"ｷﾞﾌｼ","kana_address":"ｱｶﾅﾍﾞｼﾝｼｮ","pref":"岐阜県","city":"岐阜市","address":"茜部新所"},
{"zip_code":"5008265","kana_pref":"ｷﾞﾌｹﾝ","kana_city":"ｷﾞﾌｼ","kana_address":"ｱｶﾅﾍﾞｼﾝｾｲｼﾞ","pref":"岐阜県","city":"岐阜市","address":"茜部神清寺"},
{"zip_code":"5008264","kana_pref":"ｷﾞﾌｹﾝ","kana_city":"ｷﾞﾌｼ","kana_address":"ｱｶﾅﾍﾞﾀﾂｼﾝ","pref":"岐阜県","city":"岐阜市","address":"茜部辰新"},
{"zip_code":"5008267","kana_pref":"ｷﾞﾌｹﾝ","kana_city":"ｷﾞﾌｼ","kana_address":"ｱｶﾅﾍﾞﾃﾗﾔｼｷ","pref":"岐阜県","city":"岐阜市","address":"茜部寺屋敷"},
{"zip_code":"5008269","kana_pref":"ｷﾞﾌｹﾝ","kana_city":"ｷﾞﾌｼ","kana_address":"ｱｶﾅﾍﾞﾅｶｼﾏ","pref":"岐阜県","city":"岐阜市","address":"茜部中島"},
{"zip_code":"5008283","kana_pref":"ｷﾞﾌｹﾝ","kana_city":"ｷﾞﾌｼ","kana_address":"ｱｶﾅﾍﾞﾉｾ","pref":"岐阜県","city":"岐阜市","address":"茜部野瀬"},
{"zip_code":"5008268","kana_pref":"ｷﾞﾌｹﾝ","kana_city":"ｷﾞﾌｼ","kana_address":"ｱｶﾅﾍﾞﾋｼﾉ","pref":"岐阜県","city":"岐阜市","address":"茜部菱野"},
{"zip_code":"5008262","kana_pref":"ｷﾞﾌｹﾝ","kana_city":"ｷﾞﾌｼ","kana_address":"ｱｶﾅﾍﾞﾎﾝｺﾞｳ","pref":"岐阜県","city":"岐阜市","address":"茜部本郷"},
{"zip_code":"5008284","kana_pref":"ｷﾞﾌｹﾝ","kana_city":"ｷﾞﾌｼ","kana_address":"ｱｶﾈﾁｮｳ","pref":"岐阜県","city":"岐阜市","address":"茜町"},
{"zip_code":"5008176","kana_pref":"ｷﾞﾌｹﾝ","kana_city":"ｷﾞﾌｼ","kana_address":"ｱｶﾞﾀﾏﾁ","pref":"岐阜県","city":"岐阜市","address":"県町"},
{"zip_code":"5008067","kana_pref":"ｷﾞﾌｹﾝ","kana_city":"ｷﾞﾌｼ","kana_address":"ｱｷﾂﾏﾁ","pref":"岐阜県","city":"岐阜市","address":"秋津町"},
{"zip_code":"5008148","kana_pref":"ｷﾞﾌｹﾝ","kana_city":"ｷﾞﾌｼ","kana_address":"ｱｹﾎﾞﾉﾁｮｳ","pref":"岐阜県","city":"岐阜市","address":"曙町"},
{"zip_code":"5008255","kana_pref":"ｷﾞﾌｹﾝ","kana_city":"ｷﾞﾌｼ","kana_address":"ｱｻｷﾞﾘﾁｮｳ","pref":"岐阜県","city":"岐阜市","address":"朝霧町"},
{"zip_code":"5008109","kana_pref":"ｷﾞﾌｹﾝ","kana_city":"ｷﾞﾌｼ","kana_address":"ｱｻﾋﾏﾁ","pref":"岐阜県","city":"岐阜市","address":"朝日町"},
{"zip_code":"5008411","kana_pref":"ｷﾞﾌｹﾝ","kana_city":"ｷﾞﾌｼ","kana_address":"ｱﾀｶﾏﾁ","pref":"岐阜県","city":"岐阜市","address":"安宅町"},
{"zip_code":"5008883","kana_pref":"ｷﾞﾌｹﾝ","kana_city":"ｷﾞﾌｼ","kana_address":"ｱﾂﾞﾏﾁｮｳ","pref":"岐阜県","city":"岐阜市","address":"吾妻町"},
{"zip_code":"5008221","kana_pref":"ｷﾞﾌｹﾝ","kana_city":"ｷﾞﾌｼ","kana_address":"ｱﾏｲｹ","pref":"岐阜県","city":"岐阜市","address":"天池"},
{"zip_code":"5008337","kana_pref":"ｷﾞﾌｹﾝ","kana_city":"ｷﾞﾌｼ","kana_address":"ｱﾏｵﾄﾞﾘﾁｮｳ","pref":"岐阜県","city":"岐阜市","address":"雨踊町"},
{"zip_code":"5008132","kana_pref":"ｷﾞﾌｹﾝ","kana_city":"ｷﾞﾌｼ","kana_address":"ｱﾏｶﾞｻｷﾁｮｳ","pref":"岐阜県","city":"岐阜市","address":"尼ケ崎町"},
{"zip_code":"5008449","kana_pref":"ｷﾞﾌｹﾝ","kana_city":"ｷﾞﾌｼ","kana_address":"ｱﾗｶﾜﾁｮｳ","pref":"岐阜県","city":"岐阜市","address":"荒川町"},
{"zip_code":"5008401","kana_pref":"ｷﾞﾌｹﾝ","kana_city":"ｷﾞﾌｼ","kana_address":"ｱﾗﾀﾏﾁ","pref":"岐阜県","city":"岐阜市","address":"安良田町"},
{"zip_code":"5008139","kana_pref":"ｷﾞﾌｹﾝ","kana_city":"ｷﾞﾌｼ","kana_address":"ｲｵﾘﾏﾁ","pref":"岐阜県","city":"岐阜市","address":"庵町"},
{"zip_code":"5008405","kana_pref":"ｷﾞﾌｹﾝ","kana_city":"ｷﾞﾌｼ","kana_address":"ｲｸﾀﾏﾁ","pref":"岐阜県","city":"岐阜市","address":"生田町"},
{"zip_code":"5008884","kana_pref":"ｷﾞﾌｹﾝ","kana_city":"ｷﾞﾌｼ","kana_address":"ｲｹﾀﾞﾏﾁ","pref":"岐阜県","city":"岐阜市","address":"池田町"},
{"zip_code":"5008437","kana_pref":"ｷﾞﾌｹﾝ","kana_city":"ｷﾞﾌｼ","kana_address":"ｲｼｷﾘﾁｮｳ","pref":"岐阜県","city":"岐阜市","address":"石切町"},
{"zip_code":"5008153","kana_pref":"ｷﾞﾌｹﾝ","kana_city":"ｷﾞﾌｼ","kana_address":"ｲｼﾅｶﾞﾁｮｳ","pref":"岐阜県","city":"岐阜市","address":"石長町"},
{"zip_code":"5008073","kana_pref":"ｷﾞﾌｹﾝ","kana_city":"ｷﾞﾌｼ","kana_address":"ｲｽﾞﾐﾏﾁ","pref":"岐阜県","city":"岐阜市","address":"泉町"},
{"zip_code":"5008155","kana_pref":"ｷﾞﾌｹﾝ","kana_city":"ｷﾞﾌｼ","kana_address":"ｲﾁﾉﾂﾎﾞﾁｮｳ","pref":"岐阜県","city":"岐阜市","address":"市ノ坪町"},
{"zip_code":"5008381","kana_pref":"ｷﾞﾌｹﾝ","kana_city":"ｷﾞﾌｼ","kana_address":"ｲﾁﾊｼ","pref":"岐阜県","city":"岐阜市","address":"市橋"},
{"zip_code":"5008183","kana_pref":"ｷﾞﾌｹﾝ","kana_city":"ｷﾞﾌｼ","kana_address":"ｲﾁﾊﾞﾝﾁｮｳ","pref":"岐阜県","city":"岐阜市","address":"一番町"},
{"zip_code":"5008403","kana_pref":"ｷﾞﾌｹﾝ","kana_city":"ｷﾞﾌｼ","kana_address":"ｲｯｼｮｳﾄﾞｳ","pref":"岐阜県","city":"岐阜市","address":"一松道"},
{"zip_code":"5008043","kana_pref":"ｷﾞﾌｹﾝ","kana_city":"ｷﾞﾌｼ","kana_address":"ｲﾅﾊﾞﾄﾞｵﾘ","pref":"岐阜県","city":"岐阜市","address":"伊奈波通"},
{"zip_code":"5008336","kana_pref":"ｷﾞﾌｹﾝ","kana_city":"ｷﾞﾌｼ","kana_address":"ｲﾅﾘﾁｮｳ","pref":"岐阜県","city":"岐阜市","address":"稲荷町"},
{"zip_code":"5008489","kana_pref":"ｷﾞﾌｹﾝ","kana_city":"ｷﾞﾌｼ","kana_address":"ｲﾅﾘﾔﾏ","pref":"岐阜県","city":"岐阜市","address":"稲荷山"},
{"zip_code":"5008161","kana_pref":"ｷﾞﾌｹﾝ","kana_city":"ｷﾞﾌｼ","kana_address":"ｲﾊﾞﾗｷﾞﾁｮｳ","pref":"岐阜県","city":"岐阜市","address":"茨木町"},
{"zip_code":"5008077","kana_pref":"ｷﾞﾌｹﾝ","kana_city":"ｷﾞﾌｼ","kana_address":"ｲﾌﾞｷﾁｮｳ","pref":"岐阜県","city":"岐阜市","address":"伊吹町"},
{"zip_code":"5008814","kana_pref":"ｷﾞﾌｹﾝ","kana_city":"ｷﾞﾌｼ","kana_address":"ｲﾏｶﾞﾜﾁｮｳ","pref":"岐阜県","city":"岐阜市","address":"今川町"},
{"zip_code":"5008069","kana_pref":"ｷﾞﾌｹﾝ","kana_city":"ｷﾞﾌｼ","kana_address":"ｲﾏｺﾏﾁ","pref":"岐阜県","city":"岐阜市","address":"今小町"},
{"zip_code":"5008822","kana_pref":"ｷﾞﾌｹﾝ","kana_city":"ｷﾞﾌｼ","kana_address":"ｲﾏｻﾞﾜﾁｮｳ","pref":"岐阜県","city":"岐阜市","address":"今沢町"},
{"zip_code":"5008023","kana_pref":"ｷﾞﾌｹﾝ","kana_city":"ｷﾞﾌｼ","kana_address":"ｲﾏﾏﾁ","pref":"岐阜県","city":"岐阜市","address":"今町"},
{"zip_code":"5008388","kana_pref":"ｷﾞﾌｹﾝ","kana_city":"ｷﾞﾌｼ","kana_address":"ｲﾏﾐﾈ","pref":"岐阜県","city":"岐阜市","address":"今嶺"},
{"zip_code":"5008234","kana_pref":"ｷﾞﾌｹﾝ","kana_city":"ｷﾞﾌｼ","kana_address":"ｲﾓｼﾞﾏ","pref":"岐阜県","city":"岐阜市","address":"芋島"},
{"zip_code":"5008152","kana_pref":"ｷﾞﾌｹﾝ","kana_city":"ｷﾞﾌｼ","kana_address":"ｲﾘﾌﾈﾁｮｳ","pref":"岐阜県","city":"岐阜市","address":"入舟町"},
{"zip_code":"5008134","kana_pref":"ｷﾞﾌｹﾝ","kana_city":"ｷﾞﾌｼ","kana_address":"ｲﾜｴｲﾁｮｳ","pref":"岐阜県","city":"岐阜市","address":"岩栄町"},
{"zip_code":"5008225","kana_pref":"ｷﾞﾌｹﾝ","kana_city":"ｷﾞﾌｼ","kana_address":"ｲﾜﾁ","pref":"岐阜県","city":"岐阜市","address":"岩地"},
{"zip_code":"5008033","kana_pref":"ｷﾞﾌｹﾝ","kana_city":"ｷﾞﾌｼ","kana_address":"ｳｵﾔﾁｮｳ","pref":"岐阜県","city":"岐阜市","address":"魚屋町"},
{"zip_code":"5008052","kana_pref":"ｷﾞﾌｹﾝ","kana_city":"ｷﾞﾌｼ","kana_address":"ｳｸﾞｲｽﾀﾞﾆ","pref":"岐阜県","city":"岐阜市","address":"鶯谷"},
{"zip_code":"5008053","kana_pref":"ｷﾞﾌｹﾝ","kana_city":"ｷﾞﾌｼ","kana_address":"ｳｸﾞｲｽﾀﾞﾆﾁｮｳ","pref":"岐阜県","city":"岐阜市","address":"鶯谷町"},
{"zip_code":"5008368","kana_pref":"ｷﾞﾌｹﾝ","kana_city":"ｷﾞﾌｼ","kana_address":"ｳｻ","pref":"岐阜県","city":"岐阜市","address":"宇佐"},
{"zip_code":"5008366","kana_pref":"ｷﾞﾌｹﾝ","kana_city":"ｷﾞﾌｼ","kana_address":"ｳｻﾋｶﾞｼﾏﾁ","pref":"岐阜県","city":"岐阜市","address":"宇佐東町"},
{"zip_code":"5008367","kana_pref":"ｷﾞﾌｹﾝ","kana_city":"ｷﾞﾌｼ","kana_address":"ｳｻﾐﾅﾐ","pref":"岐阜県","city":"岐阜市","address":"宇佐南"},
{"zip_code":"5008041","kana_pref":"ｷﾞﾌｹﾝ","kana_city":"ｷﾞﾌｼ","kana_address":"ｳﾂﾎﾞﾔﾁｮｳ","pref":"岐阜県","city":"岐阜市","address":"靱屋町"},
{"zip_code":"5008818","kana_pref":"ｷﾞﾌｹﾝ","kana_city":"ｷﾞﾌｼ","kana_address":"ｳﾒｶﾞｴﾁｮｳ","pref":"岐阜県","city":"岐阜市","address":"梅ケ枝町"},
{"zip_code":"5008815","kana_pref":"ｷﾞﾌｹﾝ","kana_city":"ｷﾞﾌｼ","kana_address":"ｳﾒｶﾞﾜﾁｮｳ","pref":"岐阜県","city":"岐阜市","address":"梅河町"},
{"zip_code":"5008371","kana_pref":"ｷﾞﾌｹﾝ","kana_city":"ｷﾞﾌｼ","kana_address":"ｳﾒｿﾞﾉﾁｮｳ","pref":"岐阜県","city":"岐阜市","address":"梅園町"},
{"zip_code":"5008123","kana_pref":"ｷﾞﾌｹﾝ","kana_city":"ｷﾞﾌｼ","kana_address":"ｳﾝﾘｭｳﾁｮｳ","pref":"岐阜県","city":"岐阜市","address":"雲竜町"},
{"zip_code":"5008059","kana_pref":"ｷﾞﾌｹﾝ","kana_city":"ｷﾞﾌｼ","kana_address":"ｴｲｾﾝﾁｮｳ","pref":"岐阜県","city":"岐阜市","address":"栄扇町"},
{"zip_code":"5008133","kana_pref":"ｷﾞﾌｹﾝ","kana_city":"ｷﾞﾌｼ","kana_address":"ｴｲﾗｸﾁｮｳ","pref":"岐阜県","city":"岐阜市","address":"永楽町"},
{"zip_code":"5008823","kana_pref":"ｷﾞﾌｹﾝ","kana_city":"ｷﾞﾌｼ","kana_address":"ｴｶﾞﾜﾁｮｳ","pref":"岐阜県","city":"岐阜市","address":"江川町"},
{"zip_code":"5008383","kana_pref":"ｷﾞﾌｹﾝ","kana_city":"ｷﾞﾌｼ","kana_address":"ｴｿﾞｴ","pref":"岐阜県","city":"岐阜市","address":"江添"},
{"zip_code":"5008149","kana_pref":"ｷﾞﾌｹﾝ","kana_city":"ｷﾞﾌｼ","kana_address":"ｴﾋﾞｽﾁｮｳ","pref":"岐阜県","city":"岐阜市","address":"戎町"},
{"zip_code":"5008165","kana_pref":"ｷﾞﾌｹﾝ","kana_city":"ｷﾞﾌｼ","kana_address":"ｵｲﾏﾂﾁｮｳ","pref":"岐阜県","city":"岐阜市","address":"老松町"},
{"zip_code":"5008373","kana_pref":"ｷﾞﾌｹﾝ","kana_city":"ｷﾞﾌｼ","kana_address":"ｵｵｲｹﾁｮｳ","pref":"岐阜県","city":"岐阜市","address":"大池町"},
{"zip_code":"5008447","kana_pref":"ｷﾞﾌｹﾝ","kana_city":"ｷﾞﾌｼ","kana_address":"ｵｵｸﾗﾁｮｳ","pref":"岐阜県","city":"岐阜市","address":"大倉町"},
{"zip_code":"5008873","kana_pref":"ｷﾞﾌｹﾝ","kana_city":"ｷﾞﾌｼ","kana_address":"ｵｵﾄﾐﾁｮｳ","pref":"岐阜県","city":"岐阜市","address":"大富町"},
{"zip_code":"5008889","kana_pref":"ｷﾞﾌｹﾝ","kana_city":"ｷﾞﾌｼ","kana_address":"ｵｵﾅﾜﾊﾞ","pref":"岐阜県","city":"岐阜市","address":"大縄場"},
{"zip_code":"5008003","kana_pref":"ｷﾞﾌｹﾝ","kana_city":"ｷﾞﾌｼ","kana_address":"ｵｵﾐﾔﾁｮｳ","pref":"岐阜県","city":"岐阜市","address":"大宮町"},
{"zip_code":"5008885","kana_pref":"ｷﾞﾌｹﾝ","kana_city":"ｷﾞﾌｼ","kana_address":"ｵｵﾔﾅｷﾞﾁｮｳ","pref":"岐阜県","city":"岐阜市","address":"大柳町"},
{"zip_code":"5008305","kana_pref":"ｷﾞﾌｹﾝ","kana_city":"ｷﾞﾌｼ","kana_address":"ｵｷﾉﾊｼﾁｮｳ","pref":"岐阜県","city":"岐阜市","address":"沖ノ橋町"},
{"zip_code":"5008061","kana_pref":"ｷﾞﾌｹﾝ","kana_city":"ｷﾞﾌｼ","kana_address":"ｵｸﾞﾏﾁｮｳ","pref":"岐阜県","city":"岐阜市","address":"小熊町"},
{"zip_code":"5008079","kana_pref":"ｷﾞﾌｹﾝ","kana_city":"ｷﾞﾌｼ","kana_address":"ｵｽｷﾞﾁｮｳ","pref":"岐阜県","city":"岐阜市","address":"御杉町"},
{"zip_code":"5008135","kana_pref":"ｷﾞﾌｹﾝ","kana_city":"ｷﾞﾌｼ","kana_address":"ｵﾀﾞﾂﾞｶﾁｮｳ","pref":"岐阜県","city":"岐阜市","address":"織田塚町"},
{"zip_code":"5008181","kana_pref":"ｷﾞﾌｹﾝ","kana_city":"ｷﾞﾌｼ","kana_address":"ｵﾅﾐﾁｮｳ","pref":"岐阜県","city":"岐阜市","address":"御浪町"},
{"zip_code":"5008001","kana_pref":"ｷﾞﾌｹﾝ","kana_city":"ｷﾞﾌｼ","kana_address":"ｶｶﾞﾐｲﾜ","pref":"岐阜県","city":"岐阜市","address":"鏡岩"},
{"zip_code":"5008313","kana_pref":"ｷﾞﾌｹﾝ","kana_city":"ｷﾞﾌｼ","kana_address":"ｶｷﾞﾔﾅｶﾏﾁ","pref":"岐阜県","city":"岐阜市","address":"鍵屋中町"},
{"zip_code":"5008306","kana_pref":"ｷﾞﾌｹﾝ","kana_city":"ｷﾞﾌｼ","kana_address":"ｶｷﾞﾔﾋｶﾞｼﾏﾁ","pref":"岐阜県","city":"岐阜市","address":"鍵屋東町"},
{"zip_code":"5008314","kana_pref":"ｷﾞﾌｹﾝ","kana_city":"ｷﾞﾌｼ","kana_address":"ｶｷﾞﾔﾆｼﾏﾁ","pref":"岐阜県","city":"岐阜市","address":"鍵屋西町"},
{"zip_code":"5008443","kana_pref":"ｷﾞﾌｹﾝ","kana_city":"ｷﾞﾌｼ","kana_address":"ｶｸﾞﾗﾁｮｳ","pref":"岐阜県","city":"岐阜市","address":"神楽町"},
{"zip_code":"5008128","kana_pref":"ｷﾞﾌｹﾝ","kana_city":"ｷﾞﾌｼ","kana_address":"ｶｹﾞﾂﾁｮｳ","pref":"岐阜県","city":"岐阜市","address":"花月町"},
{"zip_code":"5008259","kana_pref":"ｷﾞﾌｹﾝ","kana_city":"ｷﾞﾌｼ","kana_address":"ｶｺﾏﾁ","pref":"岐阜県","city":"岐阜市","address":"水主町"},
{"zip_code":"5008323","kana_pref":"ｷﾞﾌｹﾝ","kana_city":"ｷﾞﾌｼ","kana_address":"ｶｼﾏﾁｮｳ","pref":"岐阜県","city":"岐阜市","address":"鹿島町"},
{"zip_code":"5008102","kana_pref":"ｷﾞﾌｹﾝ","kana_city":"ｷﾞﾌｼ","kana_address":"ｶｼﾓﾘﾁｮｳ","pref":"岐阜県","city":"岐阜市","address":"粕森町"},
{"zip_code":"5008017","kana_pref":"ｷﾞﾌｹﾝ","kana_city":"ｷﾞﾌｼ","kana_address":"ｶｼﾞｶﾜﾁｮｳ","pref":"岐阜県","city":"岐阜市","address":"梶川町"},
{"zip_code":"5008303","kana_pref":"ｷﾞﾌｹﾝ","kana_city":"ｷﾞﾌｼ","kana_address":"ｶｽｶﾞﾏﾁ","pref":"岐阜県","city":"岐阜市","address":"春日町"},
{"zip_code":"5008186","kana_pref":"ｷﾞﾌｹﾝ","kana_city":"ｷﾞﾌｼ","kana_address":"ｶｽﾐﾁｮｳ","pref":"岐阜県","city":"岐阜市","address":"霞町"},
{"zip_code":"5008322","kana_pref":"ｷﾞﾌｹﾝ","kana_city":"ｷﾞﾌｼ","kana_address":"ｶﾄﾘﾁｮｳ","pref":"岐阜県","city":"岐阜市","address":"香取町"},
{"zip_code":"5008849","kana_pref":"ｷﾞﾌｹﾝ","kana_city":"ｷﾞﾌｼ","kana_address":"ｶﾅｵｶﾁｮｳ","pref":"岐阜県","city":"岐阜市","address":"金岡町"},
{"zip_code":"5008113","kana_pref":"ｷﾞﾌｹﾝ","kana_city":"ｷﾞﾌｼ","kana_address":"ｶﾅｿﾞﾉﾁｮｳ","pref":"岐阜県","city":"岐阜市","address":"金園町"},
{"zip_code":"5008065","kana_pref":"ｷﾞﾌｹﾝ","kana_city":"ｷﾞﾌｼ","kana_address":"ｶﾅﾔﾁｮｳ","pref":"岐阜県","city":"岐阜市","address":"金屋町"},
{"zip_code":"5008063","kana_pref":"ｷﾞﾌｹﾝ","kana_city":"ｷﾞﾌｼ","kana_address":"ｶﾅﾔﾖｺﾁｮｳ","pref":"岐阜県","city":"岐阜市","address":"金屋横町"},
{"zip_code":"5008457","kana_pref":"ｷﾞﾌｹﾝ","kana_city":"ｷﾞﾌｼ","kana_address":"ｶﾉｳｱｵﾌｼﾞﾁｮｳ","pref":"岐阜県","city":"岐阜市","address":"加納青藤町"},
{"zip_code":"5008452","kana_pref":"ｷﾞﾌｹﾝ","kana_city":"ｷﾞﾌｼ","kana_address":"ｶﾉｳｱｻﾋﾏﾁ","pref":"岐阜県","city":"岐阜市","address":"加納朝日町"},
{"zip_code":"5008476","kana_pref":"ｷﾞﾌｹﾝ","kana_city":"ｷﾞﾌｼ","kana_address":"ｶﾉｳｱﾀｺﾞﾁｮｳ","pref":"岐阜県","city":"岐阜市","address":"加納愛宕町"},
{"zip_code":"5008422","kana_pref":"ｷﾞﾌｹﾝ","kana_city":"ｷﾞﾌｼ","kana_address":"ｶﾉｳｱﾗﾏﾁ","pref":"岐阜県","city":"岐阜市","address":"加納安良町"},
{"zip_code":"5008279","kana_pref":"ｷﾞﾌｹﾝ","kana_city":"ｷﾞﾌｼ","kana_address":"ｶﾉｳｳﾒﾀﾞﾁｮｳ","pref":"岐阜県","city":"岐阜市","address":"加納梅田町"},
{"zip_code":"5008427","kana_pref":"ｷﾞﾌｹﾝ","kana_city":"ｷﾞﾌｼ","kana_address":"ｶﾉｳｵｵｲｼﾁｮｳ","pref":"岐阜県","city":"岐阜市","address":"加納大石町"},
{"zip_code":"5008482","kana_pref":"ｷﾞﾌｹﾝ","kana_city":"ｷﾞﾌｼ","kana_address":"ｶﾉｳｵｵﾃﾏﾁ","pref":"岐阜県","city":"岐阜市","address":"加納大手町"},
{"zip_code":"5008272","kana_pref":"ｷﾞﾌｹﾝ","kana_city":"ｷﾞﾌｼ","kana_address":"ｶﾉｳｵｸﾀﾞｲﾗﾁｮｳ","pref":"岐阜県","city":"岐阜市","address":"加納奥平町"},
{"zip_code":"5008451","kana_pref":"ｷﾞﾌｹﾝ","kana_city":"ｷﾞﾌｼ","kana_address":"ｶﾉｳｶﾐﾎﾝﾏﾁ","pref":"岐阜県","city":"岐阜市","address":"加納上本町"},
{"zip_code":"5008419","kana_pref":"ｷﾞﾌｹﾝ","kana_city":"ｷﾞﾌｼ","kana_address":"ｶﾉｳｷﾀﾋﾛｴﾁｮｳ","pref":"岐阜県","city":"岐阜市","address":"加納北広江町"},
{"zip_code":"5008417","kana_pref":"ｷﾞﾌｹﾝ","kana_city":"ｷﾞﾌｼ","kana_address":"ｶﾉｳｷﾖﾀﾞﾏﾁ","pref":"岐阜県","city":"岐阜市","address":"加納清田町"},
{"zip_code":"5008472","kana_pref":"ｷﾞﾌｹﾝ","kana_city":"ｷﾞﾌｼ","kana_address":"ｶﾉｳｷﾖﾉﾏﾁ","pref":"岐阜県","city":"岐阜市","address":"加納清野町"},
{"zip_code":"5008481","kana_pref":"ｷﾞﾌｹﾝ","kana_city":"ｷﾞﾌｼ","kana_address":"ｶﾉｳｸﾂｲﾁｮｳ","pref":"岐阜県","city":"岐阜市","address":"加納沓井町"},
{"zip_code":"5008461","kana_pref":"ｷﾞﾌｹﾝ","kana_city":"ｷﾞﾌｼ","kana_address":"ｶﾉｳｸﾛｷﾁｮｳ","pref":"岐阜県","city":"岐阜市","address":"加納黒木町"},
{"zip_code":"5008465","kana_pref":"ｷﾞﾌｹﾝ","kana_city":"ｷﾞﾌｼ","kana_address":"ｶﾉｳｺﾄﾌﾞｷﾁｮｳ","pref":"岐阜県","city":"岐阜市","address":"加納寿町"},
{"zip_code":"5008475","kana_pref":"ｷﾞﾌｹﾝ","kana_city":"ｷﾞﾌｼ","kana_address":"ｶﾉｳｻｶｲﾏﾁ","pref":"岐阜県","city":"岐阜市","address":"加納坂井町"},
{"zip_code":"5008455","kana_pref":"ｷﾞﾌｹﾝ","kana_city":"ｷﾞﾌｼ","kana_address":"ｶﾉｳｻｶｴﾏﾁﾄﾞｵﾘ","pref":"岐阜県","city":"岐阜市","address":"加納栄町通"},
{"zip_code":"5008468","kana_pref":"ｷﾞﾌｹﾝ","kana_city":"ｷﾞﾌｼ","kana_address":"ｶﾉｳｻｸﾗﾀﾞﾁｮｳ","pref":"岐阜県","city":"岐阜市","address":"加納桜田町"},
{"zip_code":"5008428","kana_pref":"ｷﾞﾌｹﾝ","kana_city":"ｷﾞﾌｼ","kana_address":"ｶﾉｳｻｸﾗﾐﾁ","pref":"岐阜県","city":"岐阜市","address":"加納桜道"},
{"zip_code":"5008429","kana_pref":"ｷﾞﾌｹﾝ","kana_city":"ｷﾞﾌｼ","kana_address":"ｶﾉｳｼﾐｽﾞﾁｮｳ","pref":"岐阜県","city":"岐阜市","address":"加納清水町"},
{"zip_code":"5008463","kana_pref":"ｷﾞﾌｹﾝ","kana_city":"ｷﾞﾌｼ","kana_address":"ｶﾉｳｼﾝﾎﾝﾏﾁ","pref":"岐阜県","city":"岐阜市","address":"加納新本町"},
{"zip_code":"5008425","kana_pref":"ｷﾞﾌｹﾝ","kana_city":"ｷﾞﾌｼ","kana_address":"ｶﾉｳｼﾝﾏﾁ","pref":"岐阜県","city":"岐阜市","address":"加納新町"},
{"zip_code":"5008462","kana_pref":"ｷﾞﾌｹﾝ","kana_city":"ｷﾞﾌｼ","kana_address":"ｶﾉｳｼﾝﾒｲﾁｮｳ","pref":"岐阜県","city":"岐阜市","address":"加納神明町"},
{"zip_code":"5008421","kana_pref":"ｷﾞﾌｹﾝ","kana_city":"ｷﾞﾌｼ","kana_address":"ｶﾉｳｼﾝﾔﾅｷﾞﾏﾁ","pref":"岐阜県","city":"岐阜市","address":"加納新柳町"},
{"zip_code":"5008486","kana_pref":"ｷﾞﾌｹﾝ","kana_city":"ｷﾞﾌｼ","kana_address":"ｶﾉｳｼﾞｮｳﾅﾝﾄﾞｵﾘ","pref":"岐阜県","city":"岐阜市","address":"加納城南通"},
{"zip_code":"5008274","kana_pref":"ｷﾞﾌｹﾝ","kana_city":"ｷﾞﾌｼ","kana_address":"ｶﾉｳﾀｶｼｮｳﾏﾁ","pref":"岐阜県","city":"岐阜市","address":"加納鷹匠町"},
{"zip_code":"5008459","kana_pref":"ｷﾞﾌｹﾝ","kana_city":"ｷﾞﾌｼ","kana_address":"ｶﾉｳﾀｶﾔﾅｷﾞﾁｮｳ","pref":"岐阜県","city":"岐阜市","address":"加納高柳町"},
{"zip_code":"5008277","kana_pref":"ｷﾞﾌｹﾝ","kana_city":"ｷﾞﾌｼ","kana_address":"ｶﾉｳﾀﾁﾊﾞﾅﾁｮｳ","pref":"岐阜県","city":"岐阜市","address":"加納立花町"},
{"zip_code":"5008456","kana_pref":"ｷﾞﾌｹﾝ","kana_city":"ｷﾞﾌｼ","kana_address":"ｶﾉｳﾀﾞｲｺｸﾁｮｳ","pref":"岐阜県","city":"岐阜市","address":"加納大黒町"},
{"zip_code":"5008453","kana_pref":"ｷﾞﾌｹﾝ","kana_city":"ｷﾞﾌｼ","kana_address":"ｶﾉｳﾃｯﾎﾟｳﾁｮｳ","pref":"岐阜県","city":"岐阜市","address":"加納鉄砲町"},
{"zip_code":"5008473","kana_pref":"ｷﾞﾌｹﾝ","kana_city":"ｷﾞﾌｼ","kana_address":"ｶﾉｳﾃﾝｼﾞﾝﾏﾁ","pref":"岐阜県","city":"岐阜市","address":"加納天神町"},
{"zip_code":"5008413","kana_pref":"ｷﾞﾌｹﾝ","kana_city":"ｷﾞﾌｼ","kana_address":"ｶﾉｳﾄｳﾖｳﾁｮｳ","pref":"岐阜県","city":"岐阜市","address":"加納東陽町"},
{"zip_code":"5008416","kana_pref":"ｷﾞﾌｹﾝ","kana_city":"ｷﾞﾌｼ","kana_address":"ｶﾉｳﾄｸｶﾞﾜﾁｮｳ","pref":"岐阜県","city":"岐阜市","address":"加納徳川町"},
{"zip_code":"5008415","kana_pref":"ｷﾞﾌｹﾝ","kana_city":"ｷﾞﾌｼ","kana_address":"ｶﾉｳﾅｶﾋﾛｴﾁｮｳ","pref":"岐阜県","city":"岐阜市","address":"加納中広江町"},
{"zip_code":"5008454","kana_pref":"ｷﾞﾌｹﾝ","kana_city":"ｷﾞﾌｼ","kana_address":"ｶﾉｳﾅｶﾞｲﾁｮｳ","pref":"岐阜県","city":"岐阜市","address":"加納永井町"},
{"zip_code":"5008487","kana_pref":"ｷﾞﾌｹﾝ","kana_city":"ｷﾞﾌｼ","kana_address":"ｶﾉｳﾅｷﾞﾅﾀﾎﾞﾘ","pref":"岐阜県","city":"岐阜市","address":"加納長刀堀"},
{"zip_code":"5008276","kana_pref":"ｷﾞﾌｹﾝ","kana_city":"ｷﾞﾌｼ","kana_address":"ｶﾉｳﾅﾝﾖｳﾁｮｳ","pref":"岐阜県","city":"岐阜市","address":"加納南陽町"},
{"zip_code":"5008418","kana_pref":"ｷﾞﾌｹﾝ","kana_city":"ｷﾞﾌｼ","kana_address":"ｶﾉｳﾆｼﾋﾛｴﾁｮｳ","pref":"岐阜県","city":"岐阜市","address":"加納西広江町"},
{"zip_code":"5008488","kana_pref":"ｷﾞﾌｹﾝ","kana_city":"ｷﾞﾌｼ","kana_address":"ｶﾉｳﾆｼﾏﾙﾁｮｳ","pref":"岐阜県","city":"岐阜市","address":"加納西丸町"},
{"zip_code":"5008278","kana_pref":"ｷﾞﾌｹﾝ","kana_city":"ｷﾞﾌｼ","kana_address":"ｶﾉｳﾆｼﾔﾏﾁｮｳ","pref":"岐阜県","city":"岐阜市","address":"加納西山町"},
{"zip_code":"5008484","kana_pref":"ｷﾞﾌｹﾝ","kana_city":"ｷﾞﾌｼ","kana_address":"ｶﾉｳﾆﾉﾏﾙ","pref":"岐阜県","city":"岐阜市","address":"加納二之丸"},
{"zip_code":"5008431","kana_pref":"ｷﾞﾌｹﾝ","kana_city":"ｷﾞﾌｼ","kana_address":"ｶﾉｳﾊﾁﾏﾝﾁｮｳ","pref":"岐阜県","city":"岐阜市","address":"加納八幡町"},
{"zip_code":"5008275","kana_pref":"ｷﾞﾌｹﾝ","kana_city":"ｷﾞﾌｼ","kana_address":"ｶﾉｳﾊﾅﾉｷﾁｮｳ","pref":"岐阜県","city":"岐阜市","address":"加納花ノ木町"},
{"zip_code":"5008414","kana_pref":"ｷﾞﾌｹﾝ","kana_city":"ｷﾞﾌｼ","kana_address":"ｶﾉｳﾋｶﾞｼﾋﾛｴﾁｮｳ","pref":"岐阜県","city":"岐阜市","address":"加納東広江町"},
{"zip_code":"5008483","kana_pref":"ｷﾞﾌｹﾝ","kana_city":"ｷﾞﾌｼ","kana_address":"ｶﾉｳﾋｶﾞｼﾏﾙﾁｮｳ","pref":"岐阜県","city":"岐阜市","address":"加納東丸町"},
{"zip_code":"5008479","kana_pref":"ｷﾞﾌｹﾝ","kana_city":"ｷﾞﾌｼ","kana_address":"ｶﾉｳﾋｼﾉﾏﾁ","pref":"岐阜県","city":"岐阜市","address":"加納菱野町"},
{"zip_code":"5008478","kana_pref":"ｷﾞﾌｹﾝ","kana_city":"ｷﾞﾌｼ","kana_address":"ｶﾉｳﾌｼﾐﾁｮｳ","pref":"岐阜県","city":"岐阜市","address":"加納伏見町"},
{"zip_code":"5008471","kana_pref":"ｷﾞﾌｹﾝ","kana_city":"ｷﾞﾌｼ","kana_address":"ｶﾉｳﾌｼﾞﾏﾁ","pref":"岐阜県","city":"岐阜市","address":"加納富士町"},
{"zip_code":"5008252","kana_pref":"ｷﾞﾌｹﾝ","kana_city":"ｷﾞﾌｼ","kana_address":"ｶﾉｳﾌﾅﾀﾞﾁｮｳ","pref":"岐阜県","city":"岐阜市","address":"加納舟田町"},
{"zip_code":"5008271","kana_pref":"ｷﾞﾌｹﾝ","kana_city":"ｷﾞﾌｼ","kana_address":"ｶﾉｳﾎｯﾀﾁｮｳ","pref":"岐阜県","city":"岐阜市","address":"加納堀田町"},
{"zip_code":"5008466","kana_pref":"ｷﾞﾌｹﾝ","kana_city":"ｷﾞﾌｼ","kana_address":"ｶﾉｳﾎﾝｺﾞｸﾁｮｳ","pref":"岐阜県","city":"岐阜市","address":"加納本石町"},
{"zip_code":"5008474","kana_pref":"ｷﾞﾌｹﾝ","kana_city":"ｷﾞﾌｼ","kana_address":"ｶﾉｳﾎﾝﾏﾁ","pref":"岐阜県","city":"岐阜市","address":"加納本町"},
{"zip_code":"5008464","kana_pref":"ｷﾞﾌｹﾝ","kana_city":"ｷﾞﾌｼ","kana_address":"ｶﾉｳﾏｴﾀﾞﾏﾁ","pref":"岐阜県","city":"岐阜市","address":"加納前田町"},
{"zip_code":"5008485","kana_pref":"ｷﾞﾌｹﾝ","kana_city":"ｷﾞﾌｼ","kana_address":"ｶﾉｳﾏﾙﾉｳﾁ","pref":"岐阜県","city":"岐阜市","address":"加納丸之内"},
{"zip_code":"5008467","kana_pref":"ｷﾞﾌｹﾝ","kana_city":"ｷﾞﾌｼ","kana_address":"ｶﾉｳﾐｶｻﾁｮｳ","pref":"岐阜県","city":"岐阜市","address":"加納三笠町"},
{"zip_code":"5008251","kana_pref":"ｷﾞﾌｹﾝ","kana_city":"ｷﾞﾌｼ","kana_address":"ｶﾉｳﾐｸﾙﾏﾁｮｳ","pref":"岐阜県","city":"岐阜市","address":"加納御車町"},
{"zip_code":"5008477","kana_pref":"ｷﾞﾌｹﾝ","kana_city":"ｷﾞﾌｼ","kana_address":"ｶﾉｳﾐｽﾞﾉﾏﾁ","pref":"岐阜県","city":"岐阜市","address":"加納水野町"},
{"zip_code":"5008426","kana_pref":"ｷﾞﾌｹﾝ","kana_city":"ｷﾞﾌｼ","kana_address":"ｶﾉｳﾐﾅﾐﾋﾛｴﾁｮｳ","pref":"岐阜県","city":"岐阜市","address":"加納南広江町"},
{"zip_code":"5008458","kana_pref":"ｷﾞﾌｹﾝ","kana_city":"ｷﾞﾌｼ","kana_address":"ｶﾉｳﾑﾗﾏﾂﾁｮｳ","pref":"岐阜県","city":"岐阜市","address":"加納村松町"},
{"zip_code":"5008424","kana_pref":"ｷﾞﾌｹﾝ","kana_city":"ｷﾞﾌｼ","kana_address":"ｶﾉｳﾔﾅｷﾞﾏﾁ","pref":"岐阜県","city":"岐阜市","address":"加納柳町"},
{"zip_code":"5008273","kana_pref":"ｷﾞﾌｹﾝ","kana_city":"ｷﾞﾌｼ","kana_address":"ｶﾉｳﾔﾊﾞﾁｮｳ","pref":"岐阜県","city":"岐阜市","address":"加納矢場町"},
{"zip_code":"5008469","kana_pref":"ｷﾞﾌｹﾝ","kana_city":"ｷﾞﾌｼ","kana_address":"ｶﾉｳﾘｭｳｺｳﾁｮｳ","pref":"岐阜県","city":"岐阜市","address":"加納竜興町"},
{"zip_code":"5008839","kana_pref":"ｷﾞﾌｹﾝ","kana_city":"ｷﾞﾌｼ","kana_address":"ｶﾌﾞﾗｷﾞﾁｮｳ","pref":"岐阜県","city":"岐阜市","address":"蕪城町"},
{"zip_code":"5008026","kana_pref":"ｷﾞﾌｹﾝ","kana_city":"ｷﾞﾌｼ","kana_address":"ｶﾐｵｵｸﾜﾁｮｳ","pref":"岐阜県","city":"岐阜市","address":"上大久和町"},
{"zip_code":"5008068","kana_pref":"ｷﾞﾌｹﾝ","kana_city":"ｷﾞﾌｼ","kana_address":"ｶﾐｵｵﾀﾏﾁ","pref":"岐阜県","city":"岐阜市","address":"上太田町"},
{"zip_code":"5008121","kana_pref":"ｷﾞﾌｹﾝ","kana_city":"ｷﾞﾌｼ","kana_address":"ｶﾐｶﾉｳﾔﾏ","pref":"岐阜県","city":"岐阜市","address":"上加納山"},
{"zip_code":"5008245","kana_pref":"ｷﾞﾌｹﾝ","kana_city":"ｷﾞﾌｼ","kana_address":"ｶﾐｶﾜﾃ","pref":"岐阜県","city":"岐阜市","address":"上川手"},
{"zip_code":"5008005","kana_pref":"ｷﾞﾌｹﾝ","kana_city":"ｷﾞﾌｼ","kana_address":"ｶﾐｻﾞｲﾓｸﾁｮｳ","pref":"岐阜県","city":"岐阜市","address":"上材木町"},
{"zip_code":"5008024","kana_pref":"ｷﾞﾌｹﾝ","kana_city":"ｷﾞﾌｼ","kana_address":"ｶﾐｼﾝﾏﾁ","pref":"岐阜県","city":"岐阜市","address":"上新町"},
{"zip_code":"5008057","kana_pref":"ｷﾞﾌｹﾝ","kana_city":"ｷﾞﾌｼ","kana_address":"ｶﾐﾀｹﾁｮｳ","pref":"岐阜県","city":"岐阜市","address":"上竹町"},
{"zip_code":"5008049","kana_pref":"ｷﾞﾌｹﾝ","kana_city":"ｷﾞﾌｼ","kana_address":"ｶﾐﾀｹﾔﾁｮｳ","pref":"岐阜県","city":"岐阜市","address":"上竹屋町"},
{"zip_code":"5008021","kana_pref":"ｷﾞﾌｹﾝ","kana_city":"ｷﾞﾌｼ","kana_address":"ｶﾐﾁｬﾔﾏﾁ","pref":"岐阜県","city":"岐阜市","address":"上茶屋町"},
{"zip_code":"5008878","kana_pref":"ｷﾞﾌｹﾝ","kana_city":"ｷﾞﾌｼ","kana_address":"ｶﾑﾛﾁｮｳ","pref":"岐阜県","city":"岐阜市","address":"神室町"},
{"zip_code":"5008404","kana_pref":"ｷﾞﾌｹﾝ","kana_city":"ｷﾞﾌｼ","kana_address":"ｶﾖｳ","pref":"岐阜県","city":"岐阜市","address":"華陽"},
{"zip_code":"5008108","kana_pref":"ｷﾞﾌｹﾝ","kana_city":"ｷﾞﾌｼ","kana_address":"ｶﾜﾊﾞﾀﾁｮｳ","pref":"岐阜県","city":"岐阜市","address":"川端町"},
{"zip_code":"5008833","kana_pref":"ｷﾞﾌｹﾝ","kana_city":"ｷﾞﾌｼ","kana_address":"ｶﾝﾀﾞﾏﾁ","pref":"岐阜県","city":"岐阜市","address":"神田町"},
{"zip_code":"5008321","kana_pref":"ｷﾞﾌｹﾝ","kana_city":"ｷﾞﾌｼ","kana_address":"ｷｸｲﾁｮｳ","pref":"岐阜県","city":"岐阜市","address":"菊井町"},
{"zip_code":"5008345","kana_pref":"ｷﾞﾌｹﾝ","kana_city":"ｷﾞﾌｼ","kana_address":"ｷｸﾁﾁｮｳ","pref":"岐阜県","city":"岐阜市","address":"菊地町"},
{"zip_code":"5008327","kana_pref":"ｷﾞﾌｹﾝ","kana_city":"ｷﾞﾌｼ","kana_address":"ｷｻﾗｷﾞﾁｮｳ","pref":"岐阜県","city":"岐阜市","address":"如月町"},
{"zip_code":"5008227","kana_pref":"ｷﾞﾌｹﾝ","kana_city":"ｷﾞﾌｼ","kana_address":"ｷﾀｲｯｼｷ","pref":"岐阜県","city":"岐阜市","address":"北一色"},
{"zip_code":"5008287","kana_pref":"ｷﾞﾌｹﾝ","kana_city":"ｷﾞﾌｼ","kana_address":"ｷﾀｳｽﾞﾗ","pref":"岐阜県","city":"岐阜市","address":"北鶉"},
{"zip_code":"5008807","kana_pref":"ｷﾞﾌｹﾝ","kana_city":"ｷﾞﾌｼ","kana_address":"ｷﾀﾉﾏﾁ","pref":"岐阜県","city":"岐阜市","address":"北野町"},
{"zip_code":"5008824","kana_pref":"ｷﾞﾌｹﾝ","kana_city":"ｷﾞﾌｼ","kana_address":"ｷﾀﾔﾂﾃﾞﾗﾏﾁ","pref":"岐阜県","city":"岐阜市","address":"北八ツ寺町"},
{"zip_code":"5008086","kana_pref":"ｷﾞﾌｹﾝ","kana_city":"ｷﾞﾌｼ","kana_address":"ｷﾂﾞｸﾘﾁｮｳ","pref":"岐阜県","city":"岐阜市","address":"木造町"},
{"zip_code":"5008156","kana_pref":"ｷﾞﾌｹﾝ","kana_city":"ｷﾞﾌｼ","kana_address":"ｷﾈﾝﾁｮｳ","pref":"岐阜県","city":"岐阜市","address":"祈年町"},
{"zip_code":"5008154","kana_pref":"ｷﾞﾌｹﾝ","kana_city":"ｷﾞﾌｼ","kana_address":"ｷﾉｼﾀﾁｮｳ","pref":"岐阜県","city":"岐阜市","address":"木ノ下町"},
{"zip_code":"5008867","kana_pref":"ｷﾞﾌｹﾝ","kana_city":"ｷﾞﾌｼ","kana_address":"ｷﾉﾓﾄﾁｮｳ","pref":"岐阜県","city":"岐阜市","address":"木ノ本町"},
{"zip_code":"5008804","kana_pref":"ｷﾞﾌｹﾝ","kana_city":"ｷﾞﾌｼ","kana_address":"ｷｮｳﾏﾁ","pref":"岐阜県","city":"岐阜市","address":"京町"},
{"zip_code":"5008846","kana_pref":"ｷﾞﾌｹﾝ","kana_city":"ｷﾞﾌｼ","kana_address":"ｷﾞｮｸｾｲﾁｮｳ","pref":"岐阜県","city":"岐阜市","address":"玉姓町"},
{"zip_code":"5008178","kana_pref":"ｷﾞﾌｹﾝ","kana_city":"ｷﾞﾌｼ","kana_address":"ｷﾖｽﾞﾐﾁｮｳ","pref":"岐阜県","city":"岐阜市","address":"清住町"},
{"zip_code":"5008237","kana_pref":"ｷﾞﾌｹﾝ","kana_city":"ｷﾞﾌｼ","kana_address":"ｷﾘﾄﾞｵｼ","pref":"岐阜県","city":"岐阜市","address":"切通"},
{"zip_code":"5008847","kana_pref":"ｷﾞﾌｹﾝ","kana_city":"ｷﾞﾌｼ","kana_address":"ｷﾝﾎﾟｳﾁｮｳ","pref":"岐阜県","city":"岐阜市","address":"金宝町"},
{"zip_code":"5008114","kana_pref":"ｷﾞﾌｹﾝ","kana_city":"ｷﾞﾌｼ","kana_address":"ｷﾝﾘｭｳﾁｮｳ","pref":"岐阜県","city":"岐阜市","address":"金竜町"},
{"zip_code":"5008349","kana_pref":"ｷﾞﾌｹﾝ","kana_city":"ｷﾞﾌｼ","kana_address":"ｸﾎﾞﾐﾁｮｳ","pref":"岐阜県","city":"岐阜市","address":"久保見町"},
{"zip_code":"5008372","kana_pref":"ｷﾞﾌｹﾝ","kana_city":"ｷﾞﾌｼ","kana_address":"ｸﾏﾉﾁｮｳ","pref":"岐阜県","city":"岐阜市","address":"熊野町"},
{"zip_code":"5008145","kana_pref":"ｷﾞﾌｹﾝ","kana_city":"ｷﾞﾌｼ","kana_address":"ｸﾓｲﾁｮｳ","pref":"岐阜県","city":"岐阜市","address":"雲井町"},
{"zip_code":"5008233","kana_pref":"ｷﾞﾌｹﾝ","kana_city":"ｷﾞﾌｼ","kana_address":"ｸﾗﾉﾏｴ","pref":"岐阜県","city":"岐阜市","address":"蔵前"},
{"zip_code":"5008174","kana_pref":"ｷﾞﾌｹﾝ","kana_city":"ｷﾞﾌｼ","kana_address":"ｸﾘﾔﾀﾞﾁｮｳ","pref":"岐阜県","city":"岐阜市","address":"栗矢田町"},
{"zip_code":"5008081","kana_pref":"ｷﾞﾌｹﾝ","kana_city":"ｷﾞﾌｼ","kana_address":"ｹｲｳﾝﾁｮｳ","pref":"岐阜県","city":"岐阜市","address":"啓運町"},
{"zip_code":"5008107","kana_pref":"ｷﾞﾌｹﾝ","kana_city":"ｷﾞﾌｼ","kana_address":"ｺｳｶﾞﾝﾁｮｳ","pref":"岐阜県","city":"岐阜市","address":"高岩町"},
{"zip_code":"5008254","kana_pref":"ｷﾞﾌｹﾝ","kana_city":"ｷﾞﾌｼ","kana_address":"ｺｳｷﾁｮｳ","pref":"岐阜県","city":"岐阜市","address":"光樹町"},
{"zip_code":"5008409","kana_pref":"ｷﾞﾌｹﾝ","kana_city":"ｷﾞﾌｼ","kana_address":"ｺｳﾉﾏﾁ","pref":"岐阜県","city":"岐阜市","address":"幸ノ町"},
{"zip_code":"5008868","kana_pref":"ｷﾞﾌｹﾝ","kana_city":"ｷﾞﾌｼ","kana_address":"ｺｳﾒｲﾁｮｳ","pref":"岐阜県","city":"岐阜市","address":"光明町"},
{"zip_code":"5008434","kana_pref":"ｷﾞﾌｹﾝ","kana_city":"ｷﾞﾌｼ","kana_address":"ｺｳﾖｳﾁｮｳ","pref":"岐阜県","city":"岐阜市","address":"向陽町"},
{"zip_code":"5008891","kana_pref":"ｷﾞﾌｹﾝ","kana_city":"ｷﾞﾌｼ","kana_address":"ｺｳﾗﾝ","pref":"岐阜県","city":"岐阜市","address":"香蘭"},
{"zip_code":"5008842","kana_pref":"ｷﾞﾌｹﾝ","kana_city":"ｷﾞﾌｼ","kana_address":"ｺｶﾞﾈﾏﾁ","pref":"岐阜県","city":"岐阜市","address":"金町"},
{"zip_code":"5008146","kana_pref":"ｷﾞﾌｹﾝ","kana_city":"ｷﾞﾌｼ","kana_address":"ｺｺﾉｴﾁｮｳ","pref":"岐阜県","city":"岐阜市","address":"九重町"},
{"zip_code":"5008328","kana_pref":"ｷﾞﾌｹﾝ","kana_city":"ｷﾞﾌｼ","kana_address":"ｺﾞﾀﾝﾀﾞﾁｮｳ","pref":"岐阜県","city":"岐阜市","address":"五反田町"},
{"zip_code":"5008157","kana_pref":"ｷﾞﾌｹﾝ","kana_city":"ｷﾞﾌｼ","kana_address":"ｺﾞﾂﾎﾞ","pref":"岐阜県","city":"岐阜市","address":"五坪"},
{"zip_code":"5008157","kana_pref":"ｷﾞﾌｹﾝ","kana_city":"ｷﾞﾌｼ","kana_address":"ｺﾞﾂﾎﾞﾁｮｳ","pref":"岐阜県","city":"岐阜市","address":"五坪町"},
{"zip_code":"5008222","kana_pref":"ｷﾞﾌｹﾝ","kana_city":"ｷﾞﾌｼ","kana_address":"ｺﾄﾂﾞｶ","pref":"岐阜県","city":"岐阜市","address":"琴塚"},
{"zip_code":"5008325","kana_pref":"ｷﾞﾌｹﾝ","kana_city":"ｷﾞﾌｼ","kana_address":"ｺﾄﾌﾞｷﾁｮｳ","pref":"岐阜県","city":"岐阜市","address":"寿町"},
{"zip_code":"5008333","kana_pref":"ｷﾞﾌｹﾝ","kana_city":"ｷﾞﾌｼ","kana_address":"ｺﾉﾊﾅﾁｮｳ","pref":"岐阜県","city":"岐阜市","address":"此花町"},
{"zip_code":"5008011","kana_pref":"ｷﾞﾌｹﾝ","kana_city":"ｷﾞﾌｼ","kana_address":"ｺﾋﾞｷﾁｮｳ","pref":"岐阜県","city":"岐阜市","address":"木挽町"},
{"zip_code":"5008046","kana_pref":"ｷﾞﾌｹﾝ","kana_city":"ｷﾞﾌｼ","kana_address":"ｺﾒﾔﾁｮｳ","pref":"岐阜県","city":"岐阜市","address":"米屋町"},
{"zip_code":"5008832","kana_pref":"ｷﾞﾌｹﾝ","kana_city":"ｷﾞﾌｼ","kana_address":"ｺﾔﾅｷﾞﾁｮｳ","pref":"岐阜県","city":"岐阜市","address":"小柳町"},
{"zip_code":"5008379","kana_pref":"ｷﾞﾌｹﾝ","kana_city":"ｷﾞﾌｼ","kana_address":"ｺﾞﾝｹﾞﾝﾁｮｳ","pref":"岐阜県","city":"岐阜市","address":"権現町"},
{"zip_code":"5008266","kana_pref":"ｷﾞﾌｹﾝ","kana_city":"ｷﾞﾌｼ","kana_address":"ｻｶｲｶﾞﾜ","pref":"岐阜県","city":"岐阜市","address":"境川"},
{"zip_code":"5008857","kana_pref":"ｷﾞﾌｹﾝ","kana_city":"ｷﾞﾌｼ","kana_address":"ｻｶｲﾏﾁ","pref":"岐阜県","city":"岐阜市","address":"坂井町"},
{"zip_code":"5008872","kana_pref":"ｷﾞﾌｹﾝ","kana_city":"ｷﾞﾌｼ","kana_address":"ｻｶｴﾀﾞﾁｮｳ","pref":"岐阜県","city":"岐阜市","address":"栄枝町"},
{"zip_code":"5008803","kana_pref":"ｷﾞﾌｹﾝ","kana_city":"ｷﾞﾌｼ","kana_address":"ｻｸﾏﾁｮｳ","pref":"岐阜県","city":"岐阜市","address":"佐久間町"},
{"zip_code":"5008319","kana_pref":"ｷﾞﾌｹﾝ","kana_city":"ｷﾞﾌｼ","kana_address":"ｻｸﾗｷﾞﾁｮｳ","pref":"岐阜県","city":"岐阜市","address":"桜木町"},
{"zip_code":"5008318","kana_pref":"ｷﾞﾌｹﾝ","kana_city":"ｷﾞﾌｼ","kana_address":"ｻｸﾗﾄﾞｵﾘ","pref":"岐阜県","city":"岐阜市","address":"桜通"},
{"zip_code":"5008055","kana_pref":"ｷﾞﾌｹﾝ","kana_city":"ｷﾞﾌｼ","kana_address":"ｻｻﾄﾞｲﾁｮｳ","pref":"岐阜県","city":"岐阜市","address":"笹土居町"},
{"zip_code":"5008324","kana_pref":"ｷﾞﾌｹﾝ","kana_city":"ｷﾞﾌｼ","kana_address":"ｻﾅｴﾁｮｳ","pref":"岐阜県","city":"岐阜市","address":"早苗町"},
{"zip_code":"5008189","kana_pref":"ｷﾞﾌｹﾝ","kana_city":"ｷﾞﾌｼ","kana_address":"ｻﾝﾊﾞﾝﾁｮｳ","pref":"岐阜県","city":"岐阜市","address":"三番町"},
{"zip_code":"5008127","kana_pref":"ｷﾞﾌｹﾝ","kana_city":"ｷﾞﾌｼ","kana_address":"ｼｵﾏﾁ","pref":"岐阜県","city":"岐阜市","address":"塩町"},
{"zip_code":"5008369","kana_pref":"ｷﾞﾌｹﾝ","kana_city":"ｷﾞﾌｼ","kana_address":"ｼｷｼﾏﾁｮｳ","pref":"岐阜県","city":"岐阜市","address":"敷島町"},
{"zip_code":"5008423","kana_pref":"ｷﾞﾌｹﾝ","kana_city":"ｷﾞﾌｼ","kana_address":"ｼﾌﾞﾔﾁｮｳ","pref":"岐阜県","city":"岐阜市","address":"渋谷町"},
{"zip_code":"5008316","kana_pref":"ｷﾞﾌｹﾝ","kana_city":"ｷﾞﾌｼ","kana_address":"ｼﾏﾀﾞﾅｶﾏﾁ","pref":"岐阜県","city":"岐阜市","address":"島田中町"},
{"zip_code":"5008315","kana_pref":"ｷﾞﾌｹﾝ","kana_city":"ｷﾞﾌｼ","kana_address":"ｼﾏﾀﾞﾋｶﾞｼﾏﾁ","pref":"岐阜県","city":"岐阜市","address":"島田東町"},
{"zip_code":"5008317","kana_pref":"ｷﾞﾌｹﾝ","kana_city":"ｷﾞﾌｼ","kana_address":"ｼﾏﾀﾞﾆｼﾏﾁ","pref":"岐阜県","city":"岐阜市","address":"島田西町"},
{"zip_code":"5008438","kana_pref":"ｷﾞﾌｹﾝ","kana_city":"ｷﾞﾌｼ","kana_address":"ｼﾏﾊﾞﾗﾁｮｳ","pref":"岐阜県","city":"岐阜市","address":"島原町"},
{"zip_code":"5008039","kana_pref":"ｷﾞﾌｹﾝ","kana_city":"ｷﾞﾌｼ","kana_address":"ｼﾓｵｵｸﾜﾁｮｳ","pref":"岐阜県","city":"岐阜市","address":"下大桑町"},
{"zip_code":"5008066","kana_pref":"ｷﾞﾌｹﾝ","kana_city":"ｷﾞﾌｼ","kana_address":"ｼﾓｵｵﾀﾏﾁ","pref":"岐阜県","city":"岐阜市","address":"下太田町"},
{"zip_code":"5008246","kana_pref":"ｷﾞﾌｹﾝ","kana_city":"ｷﾞﾌｼ","kana_address":"ｼﾓｶﾜﾃ","pref":"岐阜県","city":"岐阜市","address":"下川手"},
{"zip_code":"5008037","kana_pref":"ｷﾞﾌｹﾝ","kana_city":"ｷﾞﾌｼ","kana_address":"ｼﾓｼﾝﾏﾁ","pref":"岐阜県","city":"岐阜市","address":"下新町"},
{"zip_code":"5008056","kana_pref":"ｷﾞﾌｹﾝ","kana_city":"ｷﾞﾌｼ","kana_address":"ｼﾓﾀｹﾁｮｳ","pref":"岐阜県","city":"岐阜市","address":"下竹町"},
{"zip_code":"5008022","kana_pref":"ｷﾞﾌｹﾝ","kana_city":"ｷﾞﾌｼ","kana_address":"ｼﾓﾁｬﾔﾏﾁ","pref":"岐阜県","city":"岐阜市","address":"下茶屋町"},
{"zip_code":"5008385","kana_pref":"ｷﾞﾌｹﾝ","kana_city":"ｷﾞﾌｼ","kana_address":"ｼﾓﾅﾗ","pref":"岐阜県","city":"岐阜市","address":"下奈良"},
{"zip_code":"5008412","kana_pref":"ｷﾞﾌｹﾝ","kana_city":"ｷﾞﾌｼ","kana_address":"ｼｮｳｺｳﾁｮｳ","pref":"岐阜県","city":"岐阜市","address":"松鴻町"},
{"zip_code":"5008441","kana_pref":"ｷﾞﾌｹﾝ","kana_city":"ｷﾞﾌｼ","kana_address":"ｼﾞｮｳﾄｳﾄﾞｵﾘ","pref":"岐阜県","city":"岐阜市","address":"城東通"},
{"zip_code":"5008442","kana_pref":"ｷﾞﾌｹﾝ","kana_city":"ｷﾞﾌｼ","kana_address":"ｼｮｳﾎｳｼﾞﾁｮｳ","pref":"岐阜県","city":"岐阜市","address":"正法寺町"},
{"zip_code":"5008125","kana_pref":"ｷﾞﾌｹﾝ","kana_city":"ｷﾞﾌｼ","kana_address":"ｼﾞｮｳﾎﾞｳﾁｮｳ","pref":"岐阜県","city":"岐阜市","address":"城望町"},
{"zip_code":"5008865","kana_pref":"ｷﾞﾌｹﾝ","kana_city":"ｷﾞﾌｼ","kana_address":"ｼｮｳﾜﾏﾁ","pref":"岐阜県","city":"岐阜市","address":"昭和町"},
{"zip_code":"5008085","kana_pref":"ｷﾞﾌｹﾝ","kana_city":"ｷﾞﾌｼ","kana_address":"ｼﾗｷﾁｮｳ","pref":"岐阜県","city":"岐阜市","address":"白木町"},
{"zip_code":"5008874","kana_pref":"ｷﾞﾌｹﾝ","kana_city":"ｷﾞﾌｼ","kana_address":"ｼﾛｶﾞﾈﾏﾁ","pref":"岐阜県","city":"岐阜市","address":"銀町"},
{"zip_code":"5008036","kana_pref":"ｷﾞﾌｹﾝ","kana_city":"ｷﾞﾌｼ","kana_address":"ｼﾞﾝｴｲﾁｮｳ","pref":"岐阜県","city":"岐阜市","address":"甚衛町"},
{"zip_code":"5008375","kana_pref":"ｷﾞﾌｹﾝ","kana_city":"ｷﾞﾌｼ","kana_address":"ｼﾝｺｳﾁｮｳ","pref":"岐阜県","city":"岐阜市","address":"新興町"},
{"zip_code":"5008855","kana_pref":"ｷﾞﾌｹﾝ","kana_city":"ｷﾞﾌｼ","kana_address":"ｼﾝｻｶｴﾏﾁ","pref":"岐阜県","city":"岐阜市","address":"新栄町"},
{"zip_code":"5008045","kana_pref":"ｷﾞﾌｹﾝ","kana_city":"ｷﾞﾌｼ","kana_address":"ｼﾝｻｸﾗﾏﾁ","pref":"岐阜県","city":"岐阜市","address":"新桜町"},
{"zip_code":"5008848","kana_pref":"ｷﾞﾌｹﾝ","kana_city":"ｷﾞﾌｼ","kana_address":"ｼﾝﾒｲﾁｮｳ","pref":"岐阜県","city":"岐阜市","address":"神明町"},
{"zip_code":"5008143","kana_pref":"ｷﾞﾌｹﾝ","kana_city":"ｷﾞﾌｼ","kana_address":"ｽﾞｲｳﾝﾁｮｳ","pref":"岐阜県","city":"岐阜市","address":"瑞雲町"},
{"zip_code":"5008042","kana_pref":"ｷﾞﾌｹﾝ","kana_city":"ｷﾞﾌｼ","kana_address":"ｽｴﾋﾛﾁｮｳ","pref":"岐阜県","city":"岐阜市","address":"末広町"},
{"zip_code":"5008289","kana_pref":"ｷﾞﾌｹﾝ","kana_city":"ｷﾞﾌｼ","kana_address":"ｽｶﾞ","pref":"岐阜県","city":"岐阜市","address":"須賀"},
{"zip_code":"5008816","kana_pref":"ｷﾞﾌｹﾝ","kana_city":"ｷﾞﾌｼ","kana_address":"ｽｶﾞﾊﾗﾁｮｳ","pref":"岐阜県","city":"岐阜市","address":"菅原町"},
{"zip_code":"5008829","kana_pref":"ｷﾞﾌｹﾝ","kana_city":"ｷﾞﾌｼ","kana_address":"ｽｷﾞﾔﾏﾁｮｳ","pref":"岐阜県","city":"岐阜市","address":"杉山町"},
{"zip_code":"5008843","kana_pref":"ｷﾞﾌｹﾝ","kana_city":"ｷﾞﾌｼ","kana_address":"ｽﾐﾀﾞﾏﾁ","pref":"岐阜県","city":"岐阜市","address":"住田町"},
{"zip_code":"5008408","kana_pref":"ｷﾞﾌｹﾝ","kana_city":"ｷﾞﾌｼ","kana_address":"ｽﾐﾉｴﾁｮｳ","pref":"岐阜県","city":"岐阜市","address":"住ノ江町"},
{"zip_code":"5008826","kana_pref":"ｷﾞﾌｹﾝ","kana_city":"ｷﾞﾌｼ","kana_address":"ｽﾐﾖｼﾁｮｳ","pref":"岐阜県","city":"岐阜市","address":"住吉町"},
{"zip_code":"5008051","kana_pref":"ｷﾞﾌｹﾝ","kana_city":"ｷﾞﾌｼ","kana_address":"ｽﾙｶﾞﾔﾏ","pref":"岐阜県","city":"岐阜市","address":"駿河山"},
{"zip_code":"5008346","kana_pref":"ｷﾞﾌｹﾝ","kana_city":"ｷﾞﾌｼ","kana_address":"ｾｲ","pref":"岐阜県","city":"岐阜市","address":"清"},
{"zip_code":"5008351","kana_pref":"ｷﾞﾌｹﾝ","kana_city":"ｷﾞﾌｼ","kana_address":"ｾｲﾎﾝﾏﾁ","pref":"岐阜県","city":"岐阜市","address":"清本町"},
{"zip_code":"5008819","kana_pref":"ｷﾞﾌｹﾝ","kana_city":"ｷﾞﾌｼ","kana_address":"ｾﾝｺﾞｸﾁｮｳ","pref":"岐阜県","city":"岐阜市","address":"千石町"},
{"zip_code":"5008862","kana_pref":"ｷﾞﾌｹﾝ","kana_city":"ｷﾞﾌｼ","kana_address":"ｾﾝｼﾞｭﾄﾞｳﾅｶﾏﾁ","pref":"岐阜県","city":"岐阜市","address":"千手堂中町"},
{"zip_code":"5008863","kana_pref":"ｷﾞﾌｹﾝ","kana_city":"ｷﾞﾌｼ","kana_address":"ｾﾝｼﾞｭﾄﾞｳﾐﾅﾐﾏﾁ","pref":"岐阜県","city":"岐阜市","address":"千手堂南町"},
{"zip_code":"5008861","kana_pref":"ｷﾞﾌｹﾝ","kana_city":"ｷﾞﾌｼ","kana_address":"ｾﾝｼﾞｭﾄﾞｳｷﾀﾏﾁ","pref":"岐阜県","city":"岐阜市","address":"千手堂北町"},
{"zip_code":"5008004","kana_pref":"ｷﾞﾌｹﾝ","kana_city":"ｷﾞﾌｼ","kana_address":"ｾﾝｼﾞｮｳｼﾞｷ","pref":"岐阜県","city":"岐阜市","address":"千畳敷"},
{"zip_code":"5008319","kana_pref":"ｷﾞﾌｹﾝ","kana_city":"ｷﾞﾌｼ","kana_address":"ｿｳﾃﾞﾝ","pref":"岐阜県","city":"岐阜市","address":"早田"},
{"zip_code":"5008038","kana_pref":"ｷﾞﾌｹﾝ","kana_city":"ｷﾞﾌｼ","kana_address":"ﾀﾞｲｸﾁｮｳ","pref":"岐阜県","city":"岐阜市","address":"大工町"},
{"zip_code":"5008151","kana_pref":"ｷﾞﾌｹﾝ","kana_city":"ｷﾞﾌｼ","kana_address":"ﾀﾞｲｺｸﾏﾁ","pref":"岐阜県","city":"岐阜市","address":"大黒町"},
{"zip_code":"5008871","kana_pref":"ｷﾞﾌｹﾝ","kana_city":"ｷﾞﾌｼ","kana_address":"ﾀｲｼｮｳﾏﾁ","pref":"岐阜県","city":"岐阜市","address":"大正町"},
{"zip_code":"5008018","kana_pref":"ｷﾞﾌｹﾝ","kana_city":"ｷﾞﾌｼ","kana_address":"ﾀﾞｲﾌﾞﾂﾁｮｳ","pref":"岐阜県","city":"岐阜市","address":"大仏町"},
{"zip_code":"5008851","kana_pref":"ｷﾞﾌｹﾝ","kana_city":"ｷﾞﾌｼ","kana_address":"ﾀﾞｲﾎｳﾁｮｳ","pref":"岐阜県","city":"岐阜市","address":"大宝町"},
{"zip_code":"5008054","kana_pref":"ｷﾞﾌｹﾝ","kana_city":"ｷﾞﾌｼ","kana_address":"ﾀﾞｲﾓﾝﾁｮｳ","pref":"岐阜県","city":"岐阜市","address":"大門町"},
{"zip_code":"5008162","kana_pref":"ｷﾞﾌｹﾝ","kana_city":"ｷﾞﾌｼ","kana_address":"ﾀｶｵﾁｮｳ","pref":"岐阜県","city":"岐阜市","address":"高尾町"},
{"zip_code":"5008407","kana_pref":"ｷﾞﾌｹﾝ","kana_city":"ｷﾞﾌｼ","kana_address":"ﾀｶｻｺﾞﾁｮｳ","pref":"岐阜県","city":"岐阜市","address":"高砂町"},
{"zip_code":"5008224","kana_pref":"ｷﾞﾌｹﾝ","kana_city":"ｷﾞﾌｼ","kana_address":"ﾀｶﾀ","pref":"岐阜県","city":"岐阜市","address":"高田"},
{"zip_code":"5008841","kana_pref":"ｷﾞﾌｹﾝ","kana_city":"ｷﾞﾌｼ","kana_address":"ﾀｶﾉﾏﾁ","pref":"岐阜県","city":"岐阜市","address":"高野町"},
{"zip_code":"5008821","kana_pref":"ｷﾞﾌｹﾝ","kana_city":"ｷﾞﾌｼ","kana_address":"ﾀｶﾐﾁｮｳ","pref":"岐阜県","city":"岐阜市","address":"鷹見町"},
{"zip_code":"5008171","kana_pref":"ｷﾞﾌｹﾝ","kana_city":"ｷﾞﾌｼ","kana_address":"ﾀｶﾓﾘﾁｮｳ","pref":"岐阜県","city":"岐阜市","address":"高森町"},
{"zip_code":"5008101","kana_pref":"ｷﾞﾌｹﾝ","kana_city":"ｷﾞﾌｼ","kana_address":"ﾀｶﾞﾏﾁ","pref":"岐阜県","city":"岐阜市","address":"多賀町"},
{"zip_code":"5008158","kana_pref":"ｷﾞﾌｹﾝ","kana_city":"ｷﾞﾌｼ","kana_address":"ﾀｶﾞﾐ","pref":"岐阜県","city":"岐阜市","address":"田神"},
{"zip_code":"5008159","kana_pref":"ｷﾞﾌｹﾝ","kana_city":"ｷﾞﾌｼ","kana_address":"ﾀｶﾞﾐﾁｮｳ","pref":"岐阜県","city":"岐阜市","address":"田神町"},
{"zip_code":"5008173","kana_pref":"ｷﾞﾌｹﾝ","kana_city":"ｷﾞﾌｼ","kana_address":"ﾀｼｮｳｺﾞｴﾁｮｳ","pref":"岐阜県","city":"岐阜市","address":"田生越町"},
{"zip_code":"5008402","kana_pref":"ｷﾞﾌｹﾝ","kana_city":"ｷﾞﾌｼ","kana_address":"ﾀﾂﾀﾏﾁ","pref":"岐阜県","city":"岐阜市","address":"竜田町"},
{"zip_code":"5008115","kana_pref":"ｷﾞﾌｹﾝ","kana_city":"ｷﾞﾌｼ","kana_address":"ﾀﾊﾞﾀﾁｮｳ","pref":"岐阜県","city":"岐阜市","address":"田端町"},
{"zip_code":"5008008","kana_pref":"ｷﾞﾌｹﾝ","kana_city":"ｷﾞﾌｼ","kana_address":"ﾀﾏｲﾁｮｳ","pref":"岐阜県","city":"岐阜市","address":"玉井町"},
{"zip_code":"5008835","kana_pref":"ｷﾞﾌｹﾝ","kana_city":"ｷﾞﾌｼ","kana_address":"ﾀﾏﾐﾔﾁｮｳ","pref":"岐阜県","city":"岐阜市","address":"玉宮町"},
{"zip_code":"5008837","kana_pref":"ｷﾞﾌｹﾝ","kana_city":"ｷﾞﾌｼ","kana_address":"ﾀﾏﾓﾘﾁｮｳ","pref":"岐阜県","city":"岐阜市","address":"玉森町"},
{"zip_code":"5008339","kana_pref":"ｷﾞﾌｹﾝ","kana_city":"ｷﾞﾌｼ","kana_address":"ﾁﾄﾞﾘﾁｮｳ","pref":"岐阜県","city":"岐阜市","address":"千鳥町"},
{"zip_code":"5008805","kana_pref":"ｷﾞﾌｹﾝ","kana_city":"ｷﾞﾌｼ","kana_address":"ﾁｭｳｾﾂｻﾝﾁｮｳﾒﾐﾅﾐﾏﾁ","pref":"岐阜県","city":"岐阜市","address":"忠節三丁目南町"},
{"zip_code":"5008801","kana_pref":"ｷﾞﾌｹﾝ","kana_city":"ｷﾞﾌｼ","kana_address":"ﾁｭｳｾﾂﾁｮｳ","pref":"岐阜県","city":"岐阜市","address":"忠節町"},
{"zip_code":"5008311","kana_pref":"ｷﾞﾌｹﾝ","kana_city":"ｷﾞﾌｼ","kana_address":"ﾁｮｳｼﾞｬﾏﾁ","pref":"岐阜県","city":"岐阜市","address":"長者町"},
{"zip_code":"5008076","kana_pref":"ｷﾞﾌｹﾝ","kana_city":"ｷﾞﾌｼ","kana_address":"ﾂｶｻﾏﾁ","pref":"岐阜県","city":"岐阜市","address":"司町"},
{"zip_code":"5008141","kana_pref":"ｷﾞﾌｹﾝ","kana_city":"ｷﾞﾌｼ","kana_address":"ﾂｷｵｶﾁｮｳ","pref":"岐阜県","city":"岐阜市","address":"月丘町"},
{"zip_code":"5008131","kana_pref":"ｷﾞﾌｹﾝ","kana_city":"ｷﾞﾌｼ","kana_address":"ﾂｷﾉｴﾁｮｳ","pref":"岐阜県","city":"岐阜市","address":"月ノ会町"},
{"zip_code":"5008363","kana_pref":"ｷﾞﾌｹﾝ","kana_city":"ｷﾞﾌｼ","kana_address":"ﾂﾒ","pref":"岐阜県","city":"岐阜市","address":"爪"},
{"zip_code":"5008164","kana_pref":"ｷﾞﾌｹﾝ","kana_city":"ｷﾞﾌｼ","kana_address":"ﾂﾙﾀﾏﾁ","pref":"岐阜県","city":"岐阜市","address":"鶴田町"},
{"zip_code":"5008163","kana_pref":"ｷﾞﾌｹﾝ","kana_city":"ｷﾞﾌｼ","kana_address":"ﾂﾙﾏｲﾁｮｳ","pref":"岐阜県","city":"岐阜市","address":"鶴舞町"},
{"zip_code":"5008129","kana_pref":"ｷﾞﾌｹﾝ","kana_city":"ｷﾞﾌｼ","kana_address":"ﾂﾙﾐﾁｮｳ","pref":"岐阜県","city":"岐阜市","address":"鶴見町"},
{"zip_code":"5008006","kana_pref":"ｷﾞﾌｹﾝ","kana_city":"ｷﾞﾌｼ","kana_address":"ﾃｲｶﾞｲ","pref":"岐阜県","city":"岐阜市","address":"堤外"},
{"zip_code":"5008236","kana_pref":"ｷﾞﾌｹﾝ","kana_city":"ｷﾞﾌｼ","kana_address":"ﾃﾁﾞｶﾗﾁｮｳ","pref":"岐阜県","city":"岐阜市","address":"手力町"},
{"zip_code":"5008879","kana_pref":"ｷﾞﾌｹﾝ","kana_city":"ｷﾞﾌｼ","kana_address":"ﾃﾂﾒｲﾄﾞｵﾘ","pref":"岐阜県","city":"岐阜市","address":"徹明通"},
{"zip_code":"5008866","kana_pref":"ｷﾞﾌｹﾝ","kana_city":"ｷﾞﾌｼ","kana_address":"ﾃﾗｼﾞﾏﾁｮｳ","pref":"岐阜県","city":"岐阜市","address":"寺島町"},
{"zip_code":"5008118","kana_pref":"ｷﾞﾌｹﾝ","kana_city":"ｷﾞﾌｼ","kana_address":"ﾃﾗﾏﾁ","pref":"岐阜県","city":"岐阜市","address":"寺町"},
{"zip_code":"5008806","kana_pref":"ｷﾞﾌｹﾝ","kana_city":"ｷﾞﾌｼ","kana_address":"ﾃﾝｼﾞﾝﾏﾁ","pref":"岐阜県","city":"岐阜市","address":"天神町"},
{"zip_code":"5008166","kana_pref":"ｷﾞﾌｹﾝ","kana_city":"ｷﾞﾌｼ","kana_address":"ﾃﾝﾉｳﾁｮｳ","pref":"岐阜県","city":"岐阜市","address":"天王町"},
{"zip_code":"5008845","kana_pref":"ｷﾞﾌｹﾝ","kana_city":"ｷﾞﾌｼ","kana_address":"ﾄｲﾔﾏﾁ","pref":"岐阜県","city":"岐阜市","address":"問屋町"},
{"zip_code":"5008144","kana_pref":"ｷﾞﾌｹﾝ","kana_city":"ｷﾞﾌｼ","kana_address":"ﾄｳｴｲﾁｮｳ","pref":"岐阜県","city":"岐阜市","address":"東栄町"},
{"zip_code":"5008137","kana_pref":"ｷﾞﾌｹﾝ","kana_city":"ｷﾞﾌｼ","kana_address":"ﾄｳｺｳﾁｮｳ","pref":"岐阜県","city":"岐阜市","address":"東興町"},
{"zip_code":"5008058","kana_pref":"ｷﾞﾌｹﾝ","kana_city":"ｷﾞﾌｼ","kana_address":"ﾄｷﾜﾁｮｳ","pref":"岐阜県","city":"岐阜市","address":"常盤町"},
{"zip_code":"5008116","kana_pref":"ｷﾞﾌｹﾝ","kana_city":"ｷﾞﾌｼ","kana_address":"ﾄﾉﾏﾁ","pref":"岐阜県","city":"岐阜市","address":"殿町"},
{"zip_code":"5008376","kana_pref":"ｷﾞﾌｹﾝ","kana_city":"ｷﾞﾌｼ","kana_address":"ﾄﾐｻﾞﾜﾁｮｳ","pref":"岐阜県","city":"岐阜市","address":"富沢町"},
{"zip_code":"5008374","kana_pref":"ｷﾞﾌｹﾝ","kana_city":"ｷﾞﾌｼ","kana_address":"ﾄﾖｵｶﾁｮｳ","pref":"岐阜県","city":"岐阜市","address":"豊岡町"},
{"zip_code":"5008288","kana_pref":"ｷﾞﾌｹﾝ","kana_city":"ｷﾞﾌｼ","kana_address":"ﾅｶｳｽﾞﾗ","pref":"岐阜県","city":"岐阜市","address":"中鶉"},
{"zip_code":"5008027","kana_pref":"ｷﾞﾌｹﾝ","kana_city":"ｷﾞﾌｼ","kana_address":"ﾅｶｵｵｸﾜﾁｮｳ","pref":"岐阜県","city":"岐阜市","address":"中大桑町"},
{"zip_code":"5008032","kana_pref":"ｷﾞﾌｹﾝ","kana_city":"ｷﾞﾌｼ","kana_address":"ﾅｶｼﾝﾏﾁ","pref":"岐阜県","city":"岐阜市","address":"中新町"},
{"zip_code":"5008448","kana_pref":"ｷﾞﾌｹﾝ","kana_city":"ｷﾞﾌｼ","kana_address":"ﾅｶｽﾁｮｳ","pref":"岐阜県","city":"岐阜市","address":"中洲町"},
{"zip_code":"5008047","kana_pref":"ｷﾞﾌｹﾝ","kana_city":"ｷﾞﾌｼ","kana_address":"ﾅｶﾀｹﾔﾁｮｳ","pref":"岐阜県","city":"岐阜市","address":"中竹屋町"},
{"zip_code":"5008138","kana_pref":"ｷﾞﾌｹﾝ","kana_city":"ｷﾞﾌｼ","kana_address":"ﾅｶﾐﾁｷﾀ","pref":"岐阜県","city":"岐阜市","address":"中道北"},
{"zip_code":"5008175","kana_pref":"ｷﾞﾌｹﾝ","kana_city":"ｷﾞﾌｼ","kana_address":"ﾅｶﾞｽﾞﾐﾁｮｳ","pref":"岐阜県","city":"岐阜市","address":"長住町"},
{"zip_code":"5008808","kana_pref":"ｷﾞﾌｹﾝ","kana_city":"ｷﾞﾌｼ","kana_address":"ﾅｶﾞﾀﾏﾁ","pref":"岐阜県","city":"岐阜市","address":"永田町"},
{"zip_code":"5008177","kana_pref":"ｷﾞﾌｹﾝ","kana_city":"ｷﾞﾌｼ","kana_address":"ﾅｶﾞﾊﾀﾁｮｳ","pref":"岐阜県","city":"岐阜市","address":"長旗町"},
{"zip_code":"5008229","kana_pref":"ｷﾞﾌｹﾝ","kana_city":"ｷﾞﾌｼ","kana_address":"ﾅｶﾞﾓﾘｲﾜﾄﾞ","pref":"岐阜県","city":"岐阜市","address":"長森岩戸"},
{"zip_code":"5008247","kana_pref":"ｷﾞﾌｹﾝ","kana_city":"ｷﾞﾌｼ","kana_address":"ﾅｶﾞﾓﾘﾎｿﾊﾞﾀ","pref":"岐阜県","city":"岐阜市","address":"長森細畑"},
{"zip_code":"5008228","kana_pref":"ｷﾞﾌｹﾝ","kana_city":"ｷﾞﾌｼ","kana_address":"ﾅｶﾞﾓﾘﾎﾝﾏﾁ","pref":"岐阜県","city":"岐阜市","address":"長森本町"},
{"zip_code":"5008301","kana_pref":"ｷﾞﾌｹﾝ","kana_city":"ｷﾞﾌｼ","kana_address":"ﾅﾆﾜﾁｮｳ","pref":"岐阜県","city":"岐阜市","address":"浪花町"},
{"zip_code":"5008432","kana_pref":"ｷﾞﾌｹﾝ","kana_city":"ｷﾞﾌｼ","kana_address":"ﾅﾜﾃﾏﾁ","pref":"岐阜県","city":"岐阜市","address":"畷町"},
{"zip_code":"5008444","kana_pref":"ｷﾞﾌｹﾝ","kana_city":"ｷﾞﾌｼ","kana_address":"ﾆｼｱｹﾐﾁｮｳ","pref":"岐阜県","city":"岐阜市","address":"西明見町"},
{"zip_code":"5008286","kana_pref":"ｷﾞﾌｹﾝ","kana_city":"ｷﾞﾌｼ","kana_address":"ﾆｼｳｽﾞﾗ","pref":"岐阜県","city":"岐阜市","address":"西鶉"},
{"zip_code":"5008258","kana_pref":"ｷﾞﾌｹﾝ","kana_city":"ｷﾞﾌｼ","kana_address":"ﾆｼｶﾜﾃ","pref":"岐阜県","city":"岐阜市","address":"西川手"},
{"zip_code":"5008331","kana_pref":"ｷﾞﾌｹﾝ","kana_city":"ｷﾞﾌｼ","kana_address":"ﾆｼｷﾁｮｳ","pref":"岐阜県","city":"岐阜市","address":"錦町"},
{"zip_code":"5008184","kana_pref":"ｷﾞﾌｹﾝ","kana_city":"ｷﾞﾌｼ","kana_address":"ﾆｼｺﾏﾂﾞﾒﾁｮｳ","pref":"岐阜県","city":"岐阜市","address":"西駒爪町"},
{"zip_code":"5008028","kana_pref":"ｷﾞﾌｹﾝ","kana_city":"ｷﾞﾌｼ","kana_address":"ﾆｼｻﾞｲﾓｸﾁｮｳ","pref":"岐阜県","city":"岐阜市","address":"西材木町"},
{"zip_code":"5008105","kana_pref":"ｷﾞﾌｹﾝ","kana_city":"ｷﾞﾌｼ","kana_address":"ﾆｼｿﾞﾉﾁｮｳ","pref":"岐阜県","city":"岐阜市","address":"西園町"},
{"zip_code":"5008836","kana_pref":"ｷﾞﾌｹﾝ","kana_city":"ｷﾞﾌｼ","kana_address":"ﾆｼﾀﾏﾐﾔﾁｮｳ","pref":"岐阜県","city":"岐阜市","address":"西玉宮町"},
{"zip_code":"5008853","kana_pref":"ｷﾞﾌｹﾝ","kana_city":"ｷﾞﾌｼ","kana_address":"ﾆｼﾄｲﾔﾏﾁ","pref":"岐阜県","city":"岐阜市","address":"西問屋町"},
{"zip_code":"5008362","kana_pref":"ｷﾞﾌｹﾝ","kana_city":"ｷﾞﾌｼ","kana_address":"ﾆｼﾉｼｮｳ","pref":"岐阜県","city":"岐阜市","address":"西荘"},
{"zip_code":"5008882","kana_pref":"ｷﾞﾌｹﾝ","kana_city":"ｷﾞﾌｼ","kana_address":"ﾆｼﾉﾏﾁ","pref":"岐阜県","city":"岐阜市","address":"西野町"},
{"zip_code":"5008887","kana_pref":"ｷﾞﾌｹﾝ","kana_city":"ｷﾞﾌｼ","kana_address":"ﾆｼﾉﾏﾁﾛｸﾁｮｳﾒｷﾀﾏﾁ","pref":"岐阜県","city":"岐阜市","address":"西野町六丁目北町"},
{"zip_code":"5008886","kana_pref":"ｷﾞﾌｹﾝ","kana_city":"ｷﾞﾌｼ","kana_address":"ﾆｼﾉﾏﾁﾅﾅﾁｮｳﾒｷﾀﾏﾁ","pref":"岐阜県","city":"岐阜市","address":"西野町七丁目北町"},
{"zip_code":"5008188","kana_pref":"ｷﾞﾌｹﾝ","kana_city":"ｷﾞﾌｼ","kana_address":"ﾆﾊﾞﾝﾁｮｳ","pref":"岐阜県","city":"岐阜市","address":"二番町"},
{"zip_code":"5008035","kana_pref":"ｷﾞﾌｹﾝ","kana_city":"ｷﾞﾌｼ","kana_address":"ﾇﾉﾔﾁｮｳ","pref":"岐阜県","city":"岐阜市","address":"布屋町"},
{"zip_code":"5008226","kana_pref":"ｷﾞﾌｹﾝ","kana_city":"ｷﾞﾌｼ","kana_address":"ﾉｲｯｼｷ","pref":"岐阜県","city":"岐阜市","address":"野一色"},
{"zip_code":"5008111","kana_pref":"ｷﾞﾌｹﾝ","kana_city":"ｷﾞﾌｼ","kana_address":"ﾊﾞｲﾘﾝ","pref":"岐阜県","city":"岐阜市","address":"梅林"},
{"zip_code":"5008119","kana_pref":"ｷﾞﾌｹﾝ","kana_city":"ｷﾞﾌｼ","kana_address":"ﾊﾞｲﾘﾝﾆｼﾏﾁ","pref":"岐阜県","city":"岐阜市","address":"梅林西町"},
{"zip_code":"5008112","kana_pref":"ｷﾞﾌｹﾝ","kana_city":"ｷﾞﾌｼ","kana_address":"ﾊﾞｲﾘﾝﾐﾅﾐﾏﾁ","pref":"岐阜県","city":"岐阜市","address":"梅林南町"},
{"zip_code":"5008172","kana_pref":"ｷﾞﾌｹﾝ","kana_city":"ｷﾞﾌｼ","kana_address":"ﾊｸｻﾝﾁｮｳ","pref":"岐阜県","city":"岐阜市","address":"白山町"},
{"zip_code":"5008332","kana_pref":"ｷﾞﾌｹﾝ","kana_city":"ｷﾞﾌｼ","kana_address":"ﾊｺﾞﾛﾓﾁｮｳ","pref":"岐阜県","city":"岐阜市","address":"羽衣町"},
{"zip_code":"5008811","kana_pref":"ｷﾞﾌｹﾝ","kana_city":"ｷﾞﾌｼ","kana_address":"ﾊｼﾂﾞﾒﾁｮｳ","pref":"岐阜県","city":"岐阜市","address":"端詰町"},
{"zip_code":"5008856","kana_pref":"ｷﾞﾌｹﾝ","kana_city":"ｷﾞﾌｼ","kana_address":"ﾊｼﾓﾄﾁｮｳ","pref":"岐阜県","city":"岐阜市","address":"橋本町"},
{"zip_code":"5008838","kana_pref":"ｷﾞﾌｹﾝ","kana_city":"ｷﾞﾌｼ","kana_address":"ﾊﾁﾏﾝﾁｮｳ","pref":"岐阜県","city":"岐阜市","address":"八幡町"},
{"zip_code":"5008031","kana_pref":"ｷﾞﾌｹﾝ","kana_city":"ｷﾞﾌｼ","kana_address":"ﾊﾁﾔﾁｮｳ","pref":"岐阜県","city":"岐阜市","address":"蜂屋町"},
{"zip_code":"5008062","kana_pref":"ｷﾞﾌｹﾝ","kana_city":"ｷﾞﾌｼ","kana_address":"ﾊﾂﾈﾁｮｳ","pref":"岐阜県","city":"岐阜市","address":"初音町"},
{"zip_code":"5008142","kana_pref":"ｷﾞﾌｹﾝ","kana_city":"ｷﾞﾌｼ","kana_address":"ﾊﾅｻﾞﾜﾁｮｳ","pref":"岐阜県","city":"岐阜市","address":"花沢町"},
{"zip_code":"5008854","kana_pref":"ｷﾞﾌｹﾝ","kana_city":"ｷﾞﾌｼ","kana_address":"ﾊﾅｿﾞﾉﾁｮｳ","pref":"岐阜県","city":"岐阜市","address":"花園町"},
{"zip_code":"5008834","kana_pref":"ｷﾞﾌｹﾝ","kana_city":"ｷﾞﾌｼ","kana_address":"ﾊﾈﾏﾁ","pref":"岐阜県","city":"岐阜市","address":"羽根町"},
{"zip_code":"5008436","kana_pref":"ｷﾞﾌｹﾝ","kana_city":"ｷﾞﾌｼ","kana_address":"ﾋｶﾞｼｱｹﾐﾁｮｳ","pref":"岐阜県","city":"岐阜市","address":"東明見町"},
{"zip_code":"5008281","kana_pref":"ｷﾞﾌｹﾝ","kana_city":"ｷﾞﾌｼ","kana_address":"ﾋｶﾞｼｳｽﾞﾗ","pref":"岐阜県","city":"岐阜市","address":"東鶉"},
{"zip_code":"5008257","kana_pref":"ｷﾞﾌｹﾝ","kana_city":"ｷﾞﾌｼ","kana_address":"ﾋｶﾞｼｶﾜﾃ","pref":"岐阜県","city":"岐阜市","address":"東川手"},
{"zip_code":"5008167","kana_pref":"ｷﾞﾌｹﾝ","kana_city":"ｷﾞﾌｼ","kana_address":"ﾋｶﾞｼｷﾝﾎﾟｳﾁｮｳ","pref":"岐阜県","city":"岐阜市","address":"東金宝町"},
{"zip_code":"5008106","kana_pref":"ｷﾞﾌｹﾝ","kana_city":"ｷﾞﾌｼ","kana_address":"ﾋｶﾞｼｺｳｶﾞﾝﾁｮｳ","pref":"岐阜県","city":"岐阜市","address":"東高岩町"},
{"zip_code":"5008168","kana_pref":"ｷﾞﾌｹﾝ","kana_city":"ｷﾞﾌｼ","kana_address":"ﾋｶﾞｼｺﾏﾂﾞﾒﾁｮｳ","pref":"岐阜県","city":"岐阜市","address":"東駒爪町"},
{"zip_code":"5008029","kana_pref":"ｷﾞﾌｹﾝ","kana_city":"ｷﾞﾌｼ","kana_address":"ﾋｶﾞｼｻﾞｲﾓｸﾁｮｳ","pref":"岐阜県","city":"岐阜市","address":"東材木町"},
{"zip_code":"5008235","kana_pref":"ｷﾞﾌｹﾝ","kana_city":"ｷﾞﾌｼ","kana_address":"ﾋｶﾞｼﾅｶｼﾞﾏ","pref":"岐阜県","city":"岐阜市","address":"東中島"},
{"zip_code":"5008025","kana_pref":"ｷﾞﾌｹﾝ","kana_city":"ｷﾞﾌｼ","kana_address":"ﾋｻﾔﾁｮｳ","pref":"岐阜県","city":"岐阜市","address":"久屋町"},
{"zip_code":"5008074","kana_pref":"ｷﾞﾌｹﾝ","kana_city":"ｷﾞﾌｼ","kana_address":"ﾋﾁｹﾝﾁｮｳ","pref":"岐阜県","city":"岐阜市","address":"七軒町"},
{"zip_code":"5008207","kana_pref":"ｷﾞﾌｹﾝ","kana_city":"ｷﾞﾌｼ","kana_address":"ﾋﾉｷﾀ","pref":"岐阜県","city":"岐阜市","address":"日野北"},
{"zip_code":"5008213","kana_pref":"ｷﾞﾌｹﾝ","kana_city":"ｷﾞﾌｼ","kana_address":"ﾋﾉﾆｼ","pref":"岐阜県","city":"岐阜市","address":"日野西"},
{"zip_code":"5008211","kana_pref":"ｷﾞﾌｹﾝ","kana_city":"ｷﾞﾌｼ","kana_address":"ﾋﾉﾋｶﾞｼ","pref":"岐阜県","city":"岐阜市","address":"日野東"},
{"zip_code":"5008212","kana_pref":"ｷﾞﾌｹﾝ","kana_city":"ｷﾞﾌｼ","kana_address":"ﾋﾉﾐﾅﾐ","pref":"岐阜県","city":"岐阜市","address":"日野南"},
{"zip_code":"5008876","kana_pref":"ｷﾞﾌｹﾝ","kana_city":"ｷﾞﾌｼ","kana_address":"ﾋﾉﾃﾞﾏﾁ","pref":"岐阜県","city":"岐阜市","address":"日ノ出町"},
{"zip_code":"5008852","kana_pref":"ｷﾞﾌｹﾝ","kana_city":"ｷﾞﾌｼ","kana_address":"ﾋﾉﾓﾄﾁｮｳ","pref":"岐阜県","city":"岐阜市","address":"日ノ本町"},
{"zip_code":"5008378","kana_pref":"ｷﾞﾌｹﾝ","kana_city":"ｷﾞﾌｼ","kana_address":"ﾋﾊﾞﾘｶﾞｵｶ","pref":"岐阜県","city":"岐阜市","address":"雲雀ケ丘"},
{"zip_code":"5008877","kana_pref":"ｷﾞﾌｹﾝ","kana_city":"ｷﾞﾌｼ","kana_address":"ﾋﾊﾞﾘﾁｮｳ","pref":"岐阜県","city":"岐阜市","address":"雲雀町"},
{"zip_code":"5008122","kana_pref":"ｷﾞﾌｹﾝ","kana_city":"ｷﾞﾌｼ","kana_address":"ﾋﾐｶﾞｲｹﾁｮｳ","pref":"岐阜県","city":"岐阜市","address":"旭見ケ池町"},
{"zip_code":"5008809","kana_pref":"ｷﾞﾌｹﾝ","kana_city":"ｷﾞﾌｼ","kana_address":"ﾋﾗｶﾜﾁｮｳ","pref":"岐阜県","city":"岐阜市","address":"平河町"},
{"zip_code":"5008326","kana_pref":"ｷﾞﾌｹﾝ","kana_city":"ｷﾞﾌｼ","kana_address":"ﾌｷｱｹﾞﾁｮｳ","pref":"岐阜県","city":"岐阜市","address":"吹上町"},
{"zip_code":"5008858","kana_pref":"ｷﾞﾌｹﾝ","kana_city":"ｷﾞﾌｼ","kana_address":"ﾌｸｽﾞﾐﾁｮｳ","pref":"岐阜県","city":"岐阜市","address":"福住町"},
{"zip_code":"5008802","kana_pref":"ｷﾞﾌｹﾝ","kana_city":"ｷﾞﾌｼ","kana_address":"ﾌﾄﾞｳﾁｮｳ","pref":"岐阜県","city":"岐阜市","address":"不動町"},
{"zip_code":"5008406","kana_pref":"ｷﾞﾌｹﾝ","kana_city":"ｷﾞﾌｼ","kana_address":"ﾍｲｱﾝﾁｮｳ","pref":"岐阜県","city":"岐阜市","address":"平安町"},
{"zip_code":"5008307","kana_pref":"ｷﾞﾌｹﾝ","kana_city":"ｷﾞﾌｼ","kana_address":"ﾍﾞﾝﾃﾝﾁｮｳ","pref":"岐阜県","city":"岐阜市","address":"弁天町"},
{"zip_code":"5008124","kana_pref":"ｷﾞﾌｹﾝ","kana_city":"ｷﾞﾌｼ","kana_address":"ﾎｳﾗｲﾁｮｳ","pref":"岐阜県","city":"岐阜市","address":"宝来町"},
{"zip_code":"5008238","kana_pref":"ｷﾞﾌｹﾝ","kana_city":"ｷﾞﾌｼ","kana_address":"ﾎｿﾊﾞﾀ","pref":"岐阜県","city":"岐阜市","address":"細畑"},
{"zip_code":"5008243","kana_pref":"ｷﾞﾌｹﾝ","kana_city":"ｷﾞﾌｼ","kana_address":"ﾎｿﾊﾞﾀｶﾅﾝ","pref":"岐阜県","city":"岐阜市","address":"細畑華南"},
{"zip_code":"5008244","kana_pref":"ｷﾞﾌｹﾝ","kana_city":"ｷﾞﾌｼ","kana_address":"ﾎｿﾊﾞﾀﾂｶｳﾗ","pref":"岐阜県","city":"岐阜市","address":"細畑塚浦"},
{"zip_code":"5008242","kana_pref":"ｷﾞﾌｹﾝ","kana_city":"ｷﾞﾌｼ","kana_address":"ﾎｿﾊﾞﾀﾉﾖﾘ","pref":"岐阜県","city":"岐阜市","address":"細畑野寄"},
{"zip_code":"5008087","kana_pref":"ｷﾞﾌｹﾝ","kana_city":"ｷﾞﾌｼ","kana_address":"ﾎﾘｴﾁｮｳ","pref":"岐阜県","city":"岐阜市","address":"堀江町"},
{"zip_code":"5008302","kana_pref":"ｷﾞﾌｹﾝ","kana_city":"ｷﾞﾌｼ","kana_address":"ﾎﾝｺﾞｳﾁｮｳ","pref":"岐阜県","city":"岐阜市","address":"本郷町"},
{"zip_code":"5008389","kana_pref":"ｷﾞﾌｹﾝ","kana_city":"ｷﾞﾌｼ","kana_address":"ﾎﾝｼﾞｮｳ","pref":"岐阜県","city":"岐阜市","address":"本荘"},
{"zip_code":"5008364","kana_pref":"ｷﾞﾌｹﾝ","kana_city":"ｷﾞﾌｼ","kana_address":"ﾎﾝｼﾞｮｳﾅｶﾉﾏﾁ","pref":"岐阜県","city":"岐阜市","address":"本荘中ノ町"},
{"zip_code":"5008361","kana_pref":"ｷﾞﾌｹﾝ","kana_city":"ｷﾞﾌｼ","kana_address":"ﾎﾝｼﾞｮｳﾆｼ","pref":"岐阜県","city":"岐阜市","address":"本荘西"},
{"zip_code":"5008329","kana_pref":"ｷﾞﾌｹﾝ","kana_city":"ｷﾞﾌｼ","kana_address":"ﾎﾝｼﾞｮｳﾁｮｳ","pref":"岐阜県","city":"岐阜市","address":"本荘町"},
{"zip_code":"5008034","kana_pref":"ｷﾞﾌｹﾝ","kana_city":"ｷﾞﾌｼ","kana_address":"ﾎﾝﾏﾁ","pref":"岐阜県","city":"岐阜市","address":"本町"},
{"zip_code":"5008232","kana_pref":"ｷﾞﾌｹﾝ","kana_city":"ｷﾞﾌｼ","kana_address":"ﾏｴｲｯｼｷ","pref":"岐阜県","city":"岐阜市","address":"前一色"},
{"zip_code":"5008231","kana_pref":"ｷﾞﾌｹﾝ","kana_city":"ｷﾞﾌｼ","kana_address":"ﾏｴｲｯｼｷﾆｼﾏﾁ","pref":"岐阜県","city":"岐阜市","address":"前一色西町"},
{"zip_code":"5008864","kana_pref":"ｷﾞﾌｹﾝ","kana_city":"ｷﾞﾌｼ","kana_address":"ﾏｻｺﾞﾁｮｳ","pref":"岐阜県","city":"岐阜市","address":"真砂町"},
{"zip_code":"5008019","kana_pref":"ｷﾞﾌｹﾝ","kana_city":"ｷﾞﾌｼ","kana_address":"ﾏｽﾔﾁｮｳ","pref":"岐阜県","city":"岐阜市","address":"益屋町"},
{"zip_code":"5008016","kana_pref":"ｷﾞﾌｹﾝ","kana_city":"ｷﾞﾌｼ","kana_address":"ﾏﾂｶﾞｴﾁｮｳ","pref":"岐阜県","city":"岐阜市","address":"松ケ枝町"},
{"zip_code":"5008013","kana_pref":"ｷﾞﾌｹﾝ","kana_city":"ｷﾞﾌｼ","kana_address":"ﾏﾂｼﾀﾁｮｳ","pref":"岐阜県","city":"岐阜市","address":"松下町"},
{"zip_code":"5008347","kana_pref":"ｷﾞﾌｹﾝ","kana_city":"ｷﾞﾌｼ","kana_address":"ﾏﾂﾊﾞﾗﾁｮｳ","pref":"岐阜県","city":"岐阜市","address":"松原町"},
{"zip_code":"5008084","kana_pref":"ｷﾞﾌｹﾝ","kana_city":"ｷﾞﾌｼ","kana_address":"ﾏﾂﾔﾁｮｳ","pref":"岐阜県","city":"岐阜市","address":"松屋町"},
{"zip_code":"5008015","kana_pref":"ｷﾞﾌｹﾝ","kana_city":"ｷﾞﾌｼ","kana_address":"ﾏﾂﾔﾏﾁｮｳ","pref":"岐阜県","city":"岐阜市","address":"松山町"},
{"zip_code":"5008888","kana_pref":"ｷﾞﾌｹﾝ","kana_city":"ｷﾞﾌｼ","kana_address":"ﾏﾝﾈﾝﾁｮｳ","pref":"岐阜県","city":"岐阜市","address":"万年町"},
{"zip_code":"5008044","kana_pref":"ｷﾞﾌｹﾝ","kana_city":"ｷﾞﾌｼ","kana_address":"ﾏﾝﾘｷﾁｮｳ","pref":"岐阜県","city":"岐阜市","address":"万力町"},
{"zip_code":"5008812","kana_pref":"ｷﾞﾌｹﾝ","kana_city":"ｷﾞﾌｼ","kana_address":"ﾐｴｼﾞﾁｮｳ","pref":"岐阜県","city":"岐阜市","address":"美江寺町"},
{"zip_code":"5008147","kana_pref":"ｷﾞﾌｹﾝ","kana_city":"ｷﾞﾌｼ","kana_address":"ﾐｶｻﾁｮｳ","pref":"岐阜県","city":"岐阜市","address":"三笠町"},
{"zip_code":"5008223","kana_pref":"ｷﾞﾌｹﾝ","kana_city":"ｷﾞﾌｼ","kana_address":"ﾐｽﾞｶｲﾄﾞｳ","pref":"岐阜県","city":"岐阜市","address":"水海道"},
{"zip_code":"5008377","kana_pref":"ｷﾞﾌｹﾝ","kana_city":"ｷﾞﾌｼ","kana_address":"ﾐｽﾞﾎﾁｮｳ","pref":"岐阜県","city":"岐阜市","address":"瑞穂町"},
{"zip_code":"5008104","kana_pref":"ｷﾞﾌｹﾝ","kana_city":"ｷﾞﾌｼ","kana_address":"ﾐｿﾉﾁｮｳ","pref":"岐阜県","city":"岐阜市","address":"美園町"},
{"zip_code":"5008169","kana_pref":"ｷﾞﾌｹﾝ","kana_city":"ｷﾞﾌｼ","kana_address":"ﾐｿﾞﾊﾞﾀﾁｮｳ","pref":"岐阜県","city":"岐阜市","address":"溝旗町"},
{"zip_code":"5008002","kana_pref":"ｷﾞﾌｹﾝ","kana_city":"ｷﾞﾌｼ","kana_address":"ﾐﾀﾗｼ","pref":"岐阜県","city":"岐阜市","address":"御手洗"},
{"zip_code":"5008308","kana_pref":"ｷﾞﾌｹﾝ","kana_city":"ｷﾞﾌｼ","kana_address":"ﾐﾂﾊｼﾁｮｳ","pref":"岐阜県","city":"岐阜市","address":"三橋町"},
{"zip_code":"5008348","kana_pref":"ｷﾞﾌｹﾝ","kana_city":"ｷﾞﾌｼ","kana_address":"ﾐﾂﾏﾀﾁｮｳ","pref":"岐阜県","city":"岐阜市","address":"三ツ又町"},
{"zip_code":"5008335","kana_pref":"ｷﾞﾌｹﾝ","kana_city":"ｷﾞﾌｼ","kana_address":"ﾐﾄｾﾁｮｳ","pref":"岐阜県","city":"岐阜市","address":"三歳町"},
{"zip_code":"5008182","kana_pref":"ｷﾞﾌｹﾝ","kana_city":"ｷﾞﾌｼ","kana_address":"ﾐﾄﾉﾁｮｳ","pref":"岐阜県","city":"岐阜市","address":"美殿町"},
{"zip_code":"5008072","kana_pref":"ｷﾞﾌｹﾝ","kana_city":"ｷﾞﾌｼ","kana_address":"ﾐﾄﾞﾘﾏﾁ","pref":"岐阜県","city":"岐阜市","address":"緑町"},
{"zip_code":"5008009","kana_pref":"ｷﾞﾌｹﾝ","kana_city":"ｷﾞﾌｼ","kana_address":"ﾐﾅﾄﾏﾁ","pref":"岐阜県","city":"岐阜市","address":"湊町"},
{"zip_code":"5008285","kana_pref":"ｷﾞﾌｹﾝ","kana_city":"ｷﾞﾌｼ","kana_address":"ﾐﾅﾐｳｽﾞﾗ","pref":"岐阜県","city":"岐阜市","address":"南鶉"},
{"zip_code":"5008117","kana_pref":"ｷﾞﾌｹﾝ","kana_city":"ｷﾞﾌｼ","kana_address":"ﾐﾅﾐﾄﾉﾏﾁ","pref":"岐阜県","city":"岐阜市","address":"南殿町"},
{"zip_code":"5008344","kana_pref":"ｷﾞﾌｹﾝ","kana_city":"ｷﾞﾌｼ","kana_address":"ﾐﾅﾐﾎﾝｼﾞｮｳ1ｼﾞｮｳﾄﾞｵﾘ","pref":"岐阜県","city":"岐阜市","address":"南本荘一条通"},
{"zip_code":"5008343","kana_pref":"ｷﾞﾌｹﾝ","kana_city":"ｷﾞﾌｼ","kana_address":"ﾐﾅﾐﾎﾝｼﾞｮｳ2ｼﾞｮｳﾄﾞｵﾘ","pref":"岐阜県","city":"岐阜市","address":"南本荘二条通"},
{"zip_code":"5008342","kana_pref":"ｷﾞﾌｹﾝ","kana_city":"ｷﾞﾌｼ","kana_address":"ﾐﾅﾐﾎﾝｼﾞｮｳ3ｼﾞｮｳﾄﾞｵﾘ","pref":"岐阜県","city":"岐阜市","address":"南本荘三条通"},
{"zip_code":"5008341","kana_pref":"ｷﾞﾌｹﾝ","kana_city":"ｷﾞﾌｼ","kana_address":"ﾐﾅﾐﾎﾝｼﾞｮｳ4ｼﾞｮｳﾄﾞｵﾘ","pref":"岐阜県","city":"岐阜市","address":"南本荘四条通"},
{"zip_code":"5008435","kana_pref":"ｷﾞﾌｹﾝ","kana_city":"ｷﾞﾌｼ","kana_address":"ﾐﾔｷﾀﾁｮｳ","pref":"岐阜県","city":"岐阜市","address":"宮北町"},
{"zip_code":"5008309","kana_pref":"ｷﾞﾌｹﾝ","kana_city":"ｷﾞﾌｼ","kana_address":"ﾐﾔｺﾄﾞｵﾘ","pref":"岐阜県","city":"岐阜市","address":"都通"},
{"zip_code":"5008439","kana_pref":"ｷﾞﾌｹﾝ","kana_city":"ｷﾞﾌｼ","kana_address":"ﾑﾗｻﾄﾁｮｳ","pref":"岐阜県","city":"岐阜市","address":"村里町"},
{"zip_code":"5008312","kana_pref":"ｷﾞﾌｹﾝ","kana_city":"ｷﾞﾌｼ","kana_address":"ﾑﾗｻﾒﾁｮｳ","pref":"岐阜県","city":"岐阜市","address":"村雨町"},
{"zip_code":"5008859","kana_pref":"ｷﾞﾌｹﾝ","kana_city":"ｷﾞﾌｼ","kana_address":"ﾑﾛﾂﾏﾁ","pref":"岐阜県","city":"岐阜市","address":"室津町"},
{"zip_code":"5008075","kana_pref":"ｷﾞﾌｹﾝ","kana_city":"ｷﾞﾌｼ","kana_address":"ﾑﾛﾏﾁ","pref":"岐阜県","city":"岐阜市","address":"室町"},
{"zip_code":"5008813","kana_pref":"ｷﾞﾌｹﾝ","kana_city":"ｷﾞﾌｼ","kana_address":"ﾒｲﾄｸﾁｮｳ","pref":"岐阜県","city":"岐阜市","address":"明徳町"},
{"zip_code":"5008179","kana_pref":"ｷﾞﾌｹﾝ","kana_city":"ｷﾞﾌｼ","kana_address":"ﾓﾄｽﾞﾐﾁｮｳ","pref":"岐阜県","city":"岐阜市","address":"元住町"},
{"zip_code":"5008007","kana_pref":"ｷﾞﾌｹﾝ","kana_city":"ｷﾞﾌｼ","kana_address":"ﾓﾄﾊﾏﾁｮｳ","pref":"岐阜県","city":"岐阜市","address":"元浜町"},
{"zip_code":"5008185","kana_pref":"ｷﾞﾌｹﾝ","kana_city":"ｷﾞﾌｼ","kana_address":"ﾓﾄﾏﾁ","pref":"岐阜県","city":"岐阜市","address":"元町"},
{"zip_code":"5008869","kana_pref":"ｷﾞﾌｹﾝ","kana_city":"ｷﾞﾌｼ","kana_address":"ﾓﾄﾐﾔﾁｮｳ","pref":"岐阜県","city":"岐阜市","address":"元宮町"},
{"zip_code":"5008078","kana_pref":"ｷﾞﾌｹﾝ","kana_city":"ｷﾞﾌｼ","kana_address":"ﾔｷﾞｭｳﾁｮｳ","pref":"岐阜県","city":"岐阜市","address":"柳生町"},
{"zip_code":"5008253","kana_pref":"ｷﾞﾌｹﾝ","kana_city":"ｷﾞﾌｼ","kana_address":"ﾔｸｼﾁｮｳ","pref":"岐阜県","city":"岐阜市","address":"薬師町"},
{"zip_code":"5008446","kana_pref":"ｷﾞﾌｹﾝ","kana_city":"ｷﾞﾌｼ","kana_address":"ﾔｸﾗﾁｮｳ","pref":"岐阜県","city":"岐阜市","address":"矢倉町"},
{"zip_code":"5008256","kana_pref":"ｷﾞﾌｹﾝ","kana_city":"ｷﾞﾌｼ","kana_address":"ﾔｻｶﾁｮｳ","pref":"岐阜県","city":"岐阜市","address":"八坂町"},
{"zip_code":"5008445","kana_pref":"ｷﾞﾌｹﾝ","kana_city":"ｷﾞﾌｼ","kana_address":"ﾔｼﾏﾁｮｳ","pref":"岐阜県","city":"岐阜市","address":"八島町"},
{"zip_code":"5008082","kana_pref":"ｷﾞﾌｹﾝ","kana_city":"ｷﾞﾌｼ","kana_address":"ﾔｼﾞﾏﾁｮｳ","pref":"岐阜県","city":"岐阜市","address":"矢島町"},
{"zip_code":"5008817","kana_pref":"ｷﾞﾌｹﾝ","kana_city":"ｷﾞﾌｼ","kana_address":"ﾔﾂｳﾒﾁｮｳ","pref":"岐阜県","city":"岐阜市","address":"八ツ梅町"},
{"zip_code":"5008825","kana_pref":"ｷﾞﾌｹﾝ","kana_city":"ｷﾞﾌｼ","kana_address":"ﾔﾂﾃﾞﾗﾏﾁ","pref":"岐阜県","city":"岐阜市","address":"八ツ寺町"},
{"zip_code":"5008875","kana_pref":"ｷﾞﾌｹﾝ","kana_city":"ｷﾞﾌｼ","kana_address":"ﾔﾅｶﾞｾﾄﾞｵﾘ","pref":"岐阜県","city":"岐阜市","address":"柳ケ瀬通"},
{"zip_code":"5008304","kana_pref":"ｷﾞﾌｹﾝ","kana_city":"ｷﾞﾌｼ","kana_address":"ﾔﾅｶﾞﾜﾁｮｳ","pref":"岐阜県","city":"岐阜市","address":"柳川町"},
{"zip_code":"5008071","kana_pref":"ｷﾞﾌｹﾝ","kana_city":"ｷﾞﾌｼ","kana_address":"ﾔﾅｷﾞﾏﾁ","pref":"岐阜県","city":"岐阜市","address":"柳町"},
{"zip_code":"5008365","kana_pref":"ｷﾞﾌｹﾝ","kana_city":"ｷﾞﾌｼ","kana_address":"ﾔﾅｷﾞﾓﾘﾁｮｳ","pref":"岐阜県","city":"岐阜市","address":"柳森町"},
{"zip_code":"5008064","kana_pref":"ｷﾞﾌｹﾝ","kana_city":"ｷﾞﾌｼ","kana_address":"ﾔﾅｻﾞﾜﾁｮｳ","pref":"岐阜県","city":"岐阜市","address":"柳沢町"},
{"zip_code":"5008827","kana_pref":"ｷﾞﾌｹﾝ","kana_city":"ｷﾞﾌｼ","kana_address":"ﾔﾊﾁﾁｮｳ","pref":"岐阜県","city":"岐阜市","address":"弥八町"},
{"zip_code":"5008387","kana_pref":"ｷﾞﾌｹﾝ","kana_city":"ｷﾞﾌｼ","kana_address":"ﾔﾌﾞﾀﾅｶ","pref":"岐阜県","city":"岐阜市","address":"薮田中"},
{"zip_code":"5008382","kana_pref":"ｷﾞﾌｹﾝ","kana_city":"ｷﾞﾌｼ","kana_address":"ﾔﾌﾞﾀﾋｶﾞｼ","pref":"岐阜県","city":"岐阜市","address":"薮田東"},
{"zip_code":"5008386","kana_pref":"ｷﾞﾌｹﾝ","kana_city":"ｷﾞﾌｼ","kana_address":"ﾔﾌﾞﾀﾆｼ","pref":"岐阜県","city":"岐阜市","address":"薮田西"},
{"zip_code":"5008384","kana_pref":"ｷﾞﾌｹﾝ","kana_city":"ｷﾞﾌｼ","kana_address":"ﾔﾌﾞﾀﾐﾅﾐ","pref":"岐阜県","city":"岐阜市","address":"薮田南"},
{"zip_code":"5008012","kana_pref":"ｷﾞﾌｹﾝ","kana_city":"ｷﾞﾌｼ","kana_address":"ﾔﾏｸﾞﾁﾁｮｳ","pref":"岐阜県","city":"岐阜市","address":"山口町"},
{"zip_code":"5008048","kana_pref":"ｷﾞﾌｹﾝ","kana_city":"ｷﾞﾌｼ","kana_address":"ﾔﾏﾄﾏﾁ","pref":"岐阜県","city":"岐阜市","address":"大和町"},
{"zip_code":"5008831","kana_pref":"ｷﾞﾌｹﾝ","kana_city":"ｷﾞﾌｼ","kana_address":"ﾔﾖｲﾁｮｳ","pref":"岐阜県","city":"岐阜市","address":"弥生町"},
{"zip_code":"5008014","kana_pref":"ｷﾞﾌｹﾝ","kana_city":"ｷﾞﾌｼ","kana_address":"ﾕｳﾋｶﾞｵｶ","pref":"岐阜県","city":"岐阜市","address":"夕陽ケ丘"},
{"zip_code":"5008136","kana_pref":"ｷﾞﾌｹﾝ","kana_city":"ｷﾞﾌｼ","kana_address":"ﾕｷﾐﾁｮｳ","pref":"岐阜県","city":"岐阜市","address":"雪見町"},
{"zip_code":"5008334","kana_pref":"ｷﾞﾌｹﾝ","kana_city":"ｷﾞﾌｼ","kana_address":"ﾖｼﾁｮｳ","pref":"岐阜県","city":"岐阜市","address":"葭町"},
{"zip_code":"5008187","kana_pref":"ｷﾞﾌｹﾝ","kana_city":"ｷﾞﾌｼ","kana_address":"ﾖｼﾂﾞﾏﾁ","pref":"岐阜県","city":"岐阜市","address":"吉津町"},
{"zip_code":"5008844","kana_pref":"ｷﾞﾌｹﾝ","kana_city":"ｷﾞﾌｼ","kana_address":"ﾖｼﾉﾏﾁ","pref":"岐阜県","city":"岐阜市","address":"吉野町"},
{"zip_code":"5008088","kana_pref":"ｷﾞﾌｹﾝ","kana_city":"ｷﾞﾌｼ","kana_address":"ﾖﾂﾔﾁｮｳ","pref":"岐阜県","city":"岐阜市","address":"四屋町"},
{"zip_code":"5008126","kana_pref":"ｷﾞﾌｹﾝ","kana_city":"ｷﾞﾌｼ","kana_address":"ﾘｭｳｼﾞｮｳﾁｮｳ","pref":"岐阜県","city":"岐阜市","address":"隆城町"},
{"zip_code":"5008241","kana_pref":"ｷﾞﾌｹﾝ","kana_city":"ｷﾞﾌｼ","kana_address":"ﾘｮｳｹﾞ","pref":"岐阜県","city":"岐阜市","address":"領下"},
{"zip_code":"5008352","kana_pref":"ｷﾞﾌｹﾝ","kana_city":"ｷﾞﾌｼ","kana_address":"ﾛｸｼﾞｮｳ","pref":"岐阜県","city":"岐阜市","address":"六条"},
{"zip_code":"5008356","kana_pref":"ｷﾞﾌｹﾝ","kana_city":"ｷﾞﾌｼ","kana_address":"ﾛｸｼﾞｮｳｴﾋｶﾞｼ","pref":"岐阜県","city":"岐阜市","address":"六条江東"},
{"zip_code":"5008357","kana_pref":"ｷﾞﾌｹﾝ","kana_city":"ｷﾞﾌｼ","kana_address":"ﾛｸｼﾞｮｳｵｵﾐｿﾞ","pref":"岐阜県","city":"岐阜市","address":"六条大溝"},
{"zip_code":"5008355","kana_pref":"ｷﾞﾌｹﾝ","kana_city":"ｷﾞﾌｼ","kana_address":"ﾛｸｼﾞｮｳｶﾀﾀﾞ","pref":"岐阜県","city":"岐阜市","address":"六条片田"},
{"zip_code":"5008354","kana_pref":"ｷﾞﾌｹﾝ","kana_city":"ｷﾞﾌｼ","kana_address":"ﾛｸｼﾞｮｳﾌｸｼﾞｭﾁｮｳ","pref":"岐阜県","city":"岐阜市","address":"六条福寿町"},
{"zip_code":"5008353","kana_pref":"ｷﾞﾌｹﾝ","kana_city":"ｷﾞﾌｼ","kana_address":"ﾛｸｼﾞｮｳﾋｶﾞｼ","pref":"岐阜県","city":"岐阜市","address":"六条東"},
{"zip_code":"5008358","kana_pref":"ｷﾞﾌｹﾝ","kana_city":"ｷﾞﾌｼ","kana_address":"ﾛｸｼﾞｮｳﾐﾅﾐ","pref":"岐阜県","city":"岐阜市","address":"六条南"},
{"zip_code":"5008359","kana_pref":"ｷﾞﾌｹﾝ","kana_city":"ｷﾞﾌｼ","kana_address":"ﾛｸｼﾞｮｳｷﾀ","pref":"岐阜県","city":"岐阜市","address":"六条北"},
{"zip_code":"5008433","kana_pref":"ｷﾞﾌｹﾝ","kana_city":"ｷﾞﾌｼ","kana_address":"ﾜｶｽｷﾞﾁｮｳ","pref":"岐阜県","city":"岐阜市","address":"若杉町"},
{"zip_code":"5008089","kana_pref":"ｷﾞﾌｹﾝ","kana_city":"ｷﾞﾌｼ","kana_address":"ﾜｶﾏﾂﾁｮｳ","pref":"岐阜県","city":"岐阜市","address":"若松町"},
{"zip_code":"5008828","kana_pref":"ｷﾞﾌｹﾝ","kana_city":"ｷﾞﾌｼ","kana_address":"ﾜｶﾐﾔﾁｮｳ","pref":"岐阜県","city":"岐阜市","address":"若宮町"}]}