{"zip_code":[
{"zip_code":"5020001","kana_pref":"ｷﾞﾌｹﾝ","kana_city":"ｷﾞﾌｼ","kana_address":"ｱﾜﾉ","pref":"岐阜県","city":"岐阜市","address":"粟野"},
{"zip_code":"5020002","kana_pref":"ｷﾞﾌｹﾝ","kana_city":"ｷﾞﾌｼ","kana_address":"ｱﾜﾉﾋｶﾞｼ","pref":"岐阜県","city":"岐阜市","address":"粟野東"},
{"zip_code":"5020006","kana_pref":"ｷﾞﾌｹﾝ","kana_city":"ｷﾞﾌｼ","kana_address":"ｱﾜﾉﾆｼ","pref":"岐阜県","city":"岐阜市","address":"粟野西"},
{"zip_code":"5020007","kana_pref":"ｷﾞﾌｹﾝ","kana_city":"ｷﾞﾌｼ","kana_address":"ｱﾜﾉﾀﾞｲ","pref":"岐阜県","city":"岐阜市","address":"粟野台"},
{"zip_code":"5020906","kana_pref":"ｷﾞﾌｹﾝ","kana_city":"ｷﾞﾌｼ","kana_address":"ｲｹﾉｳｴﾁｮｳ","pref":"岐阜県","city":"岐阜市","address":"池ノ上町"},
{"zip_code":"5020844","kana_pref":"ｷﾞﾌｹﾝ","kana_city":"ｷﾞﾌｼ","kana_address":"ｲﾜｸﾗﾁｮｳ","pref":"岐阜県","city":"岐阜市","address":"岩倉町"},
{"zip_code":"5020005","kana_pref":"ｷﾞﾌｹﾝ","kana_city":"ｷﾞﾌｼ","kana_address":"ｲﾜｻｷ","pref":"岐阜県","city":"岐阜市","address":"岩崎"},
{"zip_code":"5020837","kana_pref":"ｷﾞﾌｹﾝ","kana_city":"ｷﾞﾌｼ","kana_address":"ｳｶﾜﾁｮｳ","pref":"岐阜県","city":"岐阜市","address":"鵜川町"},
{"zip_code":"5020802","kana_pref":"ｷﾞﾌｹﾝ","kana_city":"ｷﾞﾌｼ","kana_address":"ｳﾁｺｼ","pref":"岐阜県","city":"岐阜市","address":"打越"},
{"zip_code":"5020915","kana_pref":"ｷﾞﾌｹﾝ","kana_city":"ｷﾞﾌｼ","kana_address":"ｴｸﾞﾁ","pref":"岐阜県","city":"岐阜市","address":"江口"},
{"zip_code":"5020835","kana_pref":"ｷﾞﾌｹﾝ","kana_city":"ｷﾞﾌｼ","kana_address":"ｵﾀﾞﾏﾁ","pref":"岐阜県","city":"岐阜市","address":"織田町"},
{"zip_code":"5020016","kana_pref":"ｷﾞﾌｹﾝ","kana_city":"ｷﾞﾌｼ","kana_address":"ｵﾌﾞｻｻｸﾗﾏﾁ","pref":"岐阜県","city":"岐阜市","address":"雄総桜町"},
{"zip_code":"5020014","kana_pref":"ｷﾞﾌｹﾝ","kana_city":"ｷﾞﾌｼ","kana_address":"ｵﾌﾞｻﾐﾄﾞﾘﾏﾁ","pref":"岐阜県","city":"岐阜市","address":"雄総緑町"},
{"zip_code":"5020015","kana_pref":"ｷﾞﾌｹﾝ","kana_city":"ｷﾞﾌｼ","kana_address":"ｵﾌﾞｻﾔﾅｷﾞﾏﾁ","pref":"岐阜県","city":"岐阜市","address":"雄総柳町"},
{"zip_code":"5020841","kana_pref":"ｷﾞﾌｹﾝ","kana_city":"ｷﾞﾌｼ","kana_address":"ｶﾞｸｴﾝﾁｮｳ","pref":"岐阜県","city":"岐阜市","address":"学園町"},
{"zip_code":"5020862","kana_pref":"ｷﾞﾌｹﾝ","kana_city":"ｷﾞﾌｼ","kana_address":"ｶﾐｷﾀﾞｲｼﾞﾅｶ","pref":"岐阜県","city":"岐阜市","address":"上城田寺中"},
{"zip_code":"5020863","kana_pref":"ｷﾞﾌｹﾝ","kana_city":"ｷﾞﾌｼ","kana_address":"ｶﾐｷﾀﾞｲｼﾞﾆｼ","pref":"岐阜県","city":"岐阜市","address":"上城田寺西"},
{"zip_code":"5020864","kana_pref":"ｷﾞﾌｹﾝ","kana_city":"ｷﾞﾌｼ","kana_address":"ｶﾐｷﾀﾞｲｼﾞﾋｶﾞｼ","pref":"岐阜県","city":"岐阜市","address":"上城田寺東"},
{"zip_code":"5020861","kana_pref":"ｷﾞﾌｹﾝ","kana_city":"ｷﾞﾌｼ","kana_address":"ｶﾐｷﾀﾞｲｼﾞﾐﾅﾐ","pref":"岐阜県","city":"岐阜市","address":"上城田寺南"},
{"zip_code":"5020803","kana_pref":"ｷﾞﾌｹﾝ","kana_city":"ｷﾞﾌｼ","kana_address":"ｶﾐﾂﾁｲ","pref":"岐阜県","city":"岐阜市","address":"上土居"},
{"zip_code":"5020938","kana_pref":"ｷﾞﾌｹﾝ","kana_city":"ｷﾞﾌｼ","kana_address":"ｶﾔﾊﾞｷﾀﾏﾁ","pref":"岐阜県","city":"岐阜市","address":"萱場北町"},
{"zip_code":"5020935","kana_pref":"ｷﾞﾌｹﾝ","kana_city":"ｷﾞﾌｼ","kana_address":"ｶﾔﾊﾞﾋｶﾞｼﾏﾁ","pref":"岐阜県","city":"岐阜市","address":"萱場東町"},
{"zip_code":"5020936","kana_pref":"ｷﾞﾌｹﾝ","kana_city":"ｷﾞﾌｼ","kana_address":"ｶﾔﾊﾞﾐﾅﾐ","pref":"岐阜県","city":"岐阜市","address":"萱場南"},
{"zip_code":"5020937","kana_pref":"ｷﾞﾌｹﾝ","kana_city":"ｷﾞﾌｼ","kana_address":"ｶﾔﾊﾞﾁｮｳ","pref":"岐阜県","city":"岐阜市","address":"萱場町"},
{"zip_code":"5020831","kana_pref":"ｷﾞﾌｹﾝ","kana_city":"ｷﾞﾌｼ","kana_address":"ｷｸｽｲﾁｮｳ","pref":"岐阜県","city":"岐阜市","address":"菊水町"},
{"zip_code":"5020911","kana_pref":"ｷﾞﾌｹﾝ","kana_city":"ｷﾞﾌｼ","kana_address":"ｷﾀｼﾞﾏ","pref":"岐阜県","city":"岐阜市","address":"北島"},
{"zip_code":"5020859","kana_pref":"ｷﾞﾌｹﾝ","kana_city":"ｷﾞﾌｼ","kana_address":"ｷﾀﾞｲｼﾞ","pref":"岐阜県","city":"岐阜市","address":"城田寺"},
{"zip_code":"5020828","kana_pref":"ｷﾞﾌｹﾝ","kana_city":"ｷﾞﾌｼ","kana_address":"ｷﾝｶﾁｮｳ","pref":"岐阜県","city":"岐阜市","address":"金華町"},
{"zip_code":"5020826","kana_pref":"ｷﾞﾌｹﾝ","kana_city":"ｷﾞﾌｼ","kana_address":"ｸｽﾉｷﾁｮｳ","pref":"岐阜県","city":"岐阜市","address":"楠町"},
{"zip_code":"5020823","kana_pref":"ｷﾞﾌｹﾝ","kana_city":"ｷﾞﾌｼ","kana_address":"ｺｳｴｲﾁｮｳ","pref":"岐阜県","city":"岐阜市","address":"光栄町"},
{"zip_code":"5020908","kana_pref":"ｷﾞﾌｹﾝ","kana_city":"ｷﾞﾌｼ","kana_address":"ｺﾞﾝﾉｼﾏ","pref":"岐阜県","city":"岐阜市","address":"近島"},
{"zip_code":"5020021","kana_pref":"ｷﾞﾌｹﾝ","kana_city":"ｷﾞﾌｼ","kana_address":"ｻｲｺﾞﾁｮｳ","pref":"岐阜県","city":"岐阜市","address":"西後町"},
{"zip_code":"5020849","kana_pref":"ｷﾞﾌｹﾝ","kana_city":"ｷﾞﾌｼ","kana_address":"ｻｶｴｼﾝﾏﾁ","pref":"岐阜県","city":"岐阜市","address":"栄新町"},
{"zip_code":"5020851","kana_pref":"ｷﾞﾌｹﾝ","kana_city":"ｷﾞﾌｼ","kana_address":"ｻｷﾞﾔﾏ","pref":"岐阜県","city":"岐阜市","address":"鷺山"},
{"zip_code":"5020872","kana_pref":"ｷﾞﾌｹﾝ","kana_city":"ｷﾞﾌｼ","kana_address":"ｻｷﾞﾔﾏｷﾀﾏﾁ","pref":"岐阜県","city":"岐阜市","address":"鷺山北町"},
{"zip_code":"5020853","kana_pref":"ｷﾞﾌｹﾝ","kana_city":"ｷﾞﾌｼ","kana_address":"ｻｷﾞﾔﾏｷﾖｽﾁｮｳ","pref":"岐阜県","city":"岐阜市","address":"鷺山清洲町"},
{"zip_code":"5020871","kana_pref":"ｷﾞﾌｹﾝ","kana_city":"ｷﾞﾌｼ","kana_address":"ｻｷﾞﾔﾏｼﾝﾏﾁ","pref":"岐阜県","city":"岐阜市","address":"鷺山新町"},
{"zip_code":"5020855","kana_pref":"ｷﾞﾌｹﾝ","kana_city":"ｷﾞﾌｼ","kana_address":"ｻｷﾞﾔﾏﾐﾄﾞﾘｶﾞｵｶ","pref":"岐阜県","city":"岐阜市","address":"鷺山緑ケ丘"},
{"zip_code":"5020856","kana_pref":"ｷﾞﾌｹﾝ","kana_city":"ｷﾞﾌｼ","kana_address":"ｻｷﾞﾔﾏﾐﾄﾞﾘｶﾞｵｶｼﾝﾏﾁ","pref":"岐阜県","city":"岐阜市","address":"鷺山緑ケ丘新町"},
{"zip_code":"5020854","kana_pref":"ｷﾞﾌｹﾝ","kana_city":"ｷﾞﾌｼ","kana_address":"ｻｷﾞﾔﾏﾑｶｲﾁｮｳ","pref":"岐阜県","city":"岐阜市","address":"鷺山向井町"},
{"zip_code":"5020850","kana_pref":"ｷﾞﾌｹﾝ","kana_city":"ｷﾞﾌｼ","kana_address":"ｻｷﾞﾔﾏﾋｶﾞｼ","pref":"岐阜県","city":"岐阜市","address":"鷺山東"},
{"zip_code":"5020904","kana_pref":"ｷﾞﾌｹﾝ","kana_city":"ｷﾞﾌｼ","kana_address":"ｼﾏｻｶｴﾏﾁ","pref":"岐阜県","city":"岐阜市","address":"島栄町"},
{"zip_code":"5020907","kana_pref":"ｷﾞﾌｹﾝ","kana_city":"ｷﾞﾌｼ","kana_address":"ｼﾏｼﾝﾏﾁ","pref":"岐阜県","city":"岐阜市","address":"島新町"},
{"zip_code":"5020917","kana_pref":"ｷﾞﾌｹﾝ","kana_city":"ｷﾞﾌｼ","kana_address":"ｼﾏﾀﾞ","pref":"岐阜県","city":"岐阜市","address":"島田"},
{"zip_code":"5020858","kana_pref":"ｷﾞﾌｹﾝ","kana_city":"ｷﾞﾌｼ","kana_address":"ｼﾓﾂﾁｲ","pref":"岐阜県","city":"岐阜市","address":"下土居"},
{"zip_code":"5020909","kana_pref":"ｷﾞﾌｹﾝ","kana_city":"ｷﾞﾌｼ","kana_address":"ｼﾗｷﾞｸﾁｮｳ","pref":"岐阜県","city":"岐阜市","address":"白菊町"},
{"zip_code":"5020023","kana_pref":"ｷﾞﾌｹﾝ","kana_city":"ｷﾞﾌｼ","kana_address":"ｼﾛﾏｴﾁｮｳ","pref":"岐阜県","city":"岐阜市","address":"城前町"},
{"zip_code":"5020914","kana_pref":"ｷﾞﾌｹﾝ","kana_city":"ｷﾞﾌｼ","kana_address":"ｽｺﾞｳ","pref":"岐阜県","city":"岐阜市","address":"菅生"},
{"zip_code":"5020842","kana_pref":"ｷﾞﾌｹﾝ","kana_city":"ｷﾞﾌｼ","kana_address":"ｿｳﾃﾞﾝ","pref":"岐阜県","city":"岐阜市","address":"早田"},
{"zip_code":"5020902","kana_pref":"ｷﾞﾌｹﾝ","kana_city":"ｷﾞﾌｼ","kana_address":"ｿｳﾃﾞﾝｵｵﾄﾞｵﾘ","pref":"岐阜県","city":"岐阜市","address":"早田大通"},
{"zip_code":"5020847","kana_pref":"ｷﾞﾌｹﾝ","kana_city":"ｷﾞﾌｼ","kana_address":"ｿｳﾃﾞﾝｻｶｴﾏﾁ","pref":"岐阜県","city":"岐阜市","address":"早田栄町"},
{"zip_code":"5020843","kana_pref":"ｷﾞﾌｹﾝ","kana_city":"ｷﾞﾌｼ","kana_address":"ｿｳﾃﾞﾝﾋｶﾞｼﾏﾁ","pref":"岐阜県","city":"岐阜市","address":"早田東町"},
{"zip_code":"5020848","kana_pref":"ｷﾞﾌｹﾝ","kana_city":"ｷﾞﾌｼ","kana_address":"ｿｳﾃﾞﾝﾎﾝﾏﾁ","pref":"岐阜県","city":"岐阜市","address":"早田本町"},
{"zip_code":"5020845","kana_pref":"ｷﾞﾌｹﾝ","kana_city":"ｷﾞﾌｼ","kana_address":"ｿｳﾃﾞﾝﾁｮｳ","pref":"岐阜県","city":"岐阜市","address":"早田町"},
{"zip_code":"5020934","kana_pref":"ｷﾞﾌｹﾝ","kana_city":"ｷﾞﾌｼ","kana_address":"ﾀﾞｲﾌｸﾁｮｳ","pref":"岐阜県","city":"岐阜市","address":"大福町"},
{"zip_code":"5020821","kana_pref":"ｷﾞﾌｹﾝ","kana_city":"ｷﾞﾌｼ","kana_address":"ﾀｲﾍｲﾁｮｳ","pref":"岐阜県","city":"岐阜市","address":"太平町"},
{"zip_code":"5020926","kana_pref":"ｷﾞﾌｹﾝ","kana_city":"ｷﾞﾌｼ","kana_address":"ﾀﾞﾝﾉｼﾏ","pref":"岐阜県","city":"岐阜市","address":"旦島"},
{"zip_code":"5020928","kana_pref":"ｷﾞﾌｹﾝ","kana_city":"ｷﾞﾌｼ","kana_address":"ﾀﾞﾝﾉｼﾏﾅｶ","pref":"岐阜県","city":"岐阜市","address":"旦島中"},
{"zip_code":"5020925","kana_pref":"ｷﾞﾌｹﾝ","kana_city":"ｷﾞﾌｼ","kana_address":"ﾀﾞﾝﾉｼﾏﾅｶﾏﾁ","pref":"岐阜県","city":"岐阜市","address":"旦島中町"},
{"zip_code":"5020927","kana_pref":"ｷﾞﾌｹﾝ","kana_city":"ｷﾞﾌｼ","kana_address":"ﾀﾞﾝﾉｼﾏﾆｼﾏﾁ","pref":"岐阜県","city":"岐阜市","address":"旦島西町"},
{"zip_code":"5020924","kana_pref":"ｷﾞﾌｹﾝ","kana_city":"ｷﾞﾌｼ","kana_address":"ﾀﾞﾝﾉｼﾏﾐﾔﾏﾁ","pref":"岐阜県","city":"岐阜市","address":"旦島宮町"},
{"zip_code":"5020832","kana_pref":"ｷﾞﾌｹﾝ","kana_city":"ｷﾞﾌｼ","kana_address":"ﾁﾖﾀﾞﾏﾁ","pref":"岐阜県","city":"岐阜市","address":"千代田町"},
{"zip_code":"5020846","kana_pref":"ｷﾞﾌｹﾝ","kana_city":"ｷﾞﾌｼ","kana_address":"ﾂｼﾏﾁｮｳ","pref":"岐阜県","city":"岐阜市","address":"津島町"},
{"zip_code":"5020801","kana_pref":"ｷﾞﾌｹﾝ","kana_city":"ｷﾞﾌｼ","kana_address":"ﾂﾊﾞｷﾎﾞﾗ","pref":"岐阜県","city":"岐阜市","address":"椿洞"},
{"zip_code":"5020816","kana_pref":"ｷﾞﾌｹﾝ","kana_city":"ｷﾞﾌｼ","kana_address":"ﾄﾞｳｻﾝﾁｮｳ","pref":"岐阜県","city":"岐阜市","address":"道三町"},
{"zip_code":"5020013","kana_pref":"ｷﾞﾌｹﾝ","kana_city":"ｷﾞﾌｼ","kana_address":"ﾅｶｶﾞﾜﾗ","pref":"岐阜県","city":"岐阜市","address":"中川原"},
{"zip_code":"5020081","kana_pref":"ｷﾞﾌｹﾝ","kana_city":"ｷﾞﾌｼ","kana_address":"ﾅｶﾞﾗ","pref":"岐阜県","city":"岐阜市","address":"長良"},
{"zip_code":"5020071","kana_pref":"ｷﾞﾌｹﾝ","kana_city":"ｷﾞﾌｼ","kana_address":"ﾅｶﾞﾗ","pref":"岐阜県","city":"岐阜市","address":"長良"},
{"zip_code":"5020047","kana_pref":"ｷﾞﾌｹﾝ","kana_city":"ｷﾞﾌｼ","kana_address":"ﾅｶﾞﾗｱｵｲﾁｮｳ","pref":"岐阜県","city":"岐阜市","address":"長良葵町"},
{"zip_code":"5020034","kana_pref":"ｷﾞﾌｹﾝ","kana_city":"ｷﾞﾌｼ","kana_address":"ﾅｶﾞﾗｱﾘｱｹﾁｮｳ","pref":"岐阜県","city":"岐阜市","address":"長良有明町"},
{"zip_code":"5020054","kana_pref":"ｷﾞﾌｹﾝ","kana_city":"ｷﾞﾌｼ","kana_address":"ﾅｶﾞﾗｲﾀﾞ","pref":"岐阜県","city":"岐阜市","address":"長良井田"},
{"zip_code":"5020063","kana_pref":"ｷﾞﾌｹﾝ","kana_city":"ｷﾞﾌｼ","kana_address":"ﾅｶﾞﾗｲﾁﾗｸ","pref":"岐阜県","city":"岐阜市","address":"長良一楽"},
{"zip_code":"5020031","kana_pref":"ｷﾞﾌｹﾝ","kana_city":"ｷﾞﾌｼ","kana_address":"ﾅｶﾞﾗｵｵｼﾞ","pref":"岐阜県","city":"岐阜市","address":"長良大路"},
{"zip_code":"5020036","kana_pref":"ｷﾞﾌｹﾝ","kana_city":"ｷﾞﾌｼ","kana_address":"ﾅｶﾞﾗｵｵﾏｴﾁｮｳ","pref":"岐阜県","city":"岐阜市","address":"長良大前町"},
{"zip_code":"5020838","kana_pref":"ｷﾞﾌｹﾝ","kana_city":"ｷﾞﾌｼ","kana_address":"ﾅｶﾞﾗｵｶ","pref":"岐阜県","city":"岐阜市","address":"長良丘"},
{"zip_code":"5020077","kana_pref":"ｷﾞﾌｹﾝ","kana_city":"ｷﾞﾌｼ","kana_address":"ﾅｶﾞﾗｵｸｺﾞｳ","pref":"岐阜県","city":"岐阜市","address":"長良奥郷"},
{"zip_code":"5020017","kana_pref":"ｷﾞﾌｹﾝ","kana_city":"ｷﾞﾌｼ","kana_address":"ﾅｶﾞﾗｵﾌﾞｻ","pref":"岐阜県","city":"岐阜市","address":"長良雄総"},
{"zip_code":"5020041","kana_pref":"ｷﾞﾌｹﾝ","kana_city":"ｷﾞﾌｼ","kana_address":"ﾅｶﾞﾗｶｲﾖｳﾁｮｳ","pref":"岐阜県","city":"岐阜市","address":"長良海用町"},
{"zip_code":"5020037","kana_pref":"ｷﾞﾌｹﾝ","kana_city":"ｷﾞﾌｼ","kana_address":"ﾅｶﾞﾗｷﾝﾍﾟｷﾁｮｳ","pref":"岐阜県","city":"岐阜市","address":"長良金碧町"},
{"zip_code":"5020045","kana_pref":"ｷﾞﾌｹﾝ","kana_city":"ｷﾞﾌｼ","kana_address":"ﾅｶﾞﾗｺｳｾﾞﾝﾁｮｳ","pref":"岐阜県","city":"岐阜市","address":"長良校前町"},
{"zip_code":"5020044","kana_pref":"ｷﾞﾌｹﾝ","kana_city":"ｷﾞﾌｼ","kana_address":"ﾅｶﾞﾗｺｳﾌﾞﾝﾁｮｳ","pref":"岐阜県","city":"岐阜市","address":"長良校文町"},
{"zip_code":"5020051","kana_pref":"ｷﾞﾌｹﾝ","kana_city":"ｷﾞﾌｼ","kana_address":"ﾅｶﾞﾗｺｳﾜﾁｮｳ","pref":"岐阜県","city":"岐阜市","address":"長良幸和町"},
{"zip_code":"5020075","kana_pref":"ｷﾞﾌｹﾝ","kana_city":"ｷﾞﾌｼ","kana_address":"ﾅｶﾞﾗｺｼｮｳｶﾞ","pref":"岐阜県","city":"岐阜市","address":"長良子正賀"},
{"zip_code":"5020052","kana_pref":"ｷﾞﾌｹﾝ","kana_city":"ｷﾞﾌｼ","kana_address":"ﾅｶﾞﾗｺﾏﾂﾁｮｳ","pref":"岐阜県","city":"岐阜市","address":"長良小松町"},
{"zip_code":"5020026","kana_pref":"ｷﾞﾌｹﾝ","kana_city":"ｷﾞﾌｼ","kana_address":"ﾅｶﾞﾗｻｸﾗｲﾁｮｳ","pref":"岐阜県","city":"岐阜市","address":"長良桜井町"},
{"zip_code":"5020012","kana_pref":"ｷﾞﾌｹﾝ","kana_city":"ｷﾞﾌｼ","kana_address":"ﾅｶﾞﾗｼﾀﾞﾐ","pref":"岐阜県","city":"岐阜市","address":"長良志段見"},
{"zip_code":"5020028","kana_pref":"ｷﾞﾌｹﾝ","kana_city":"ｷﾞﾌｼ","kana_address":"ﾅｶﾞﾗｼﾗﾀｴﾁｮｳ","pref":"岐阜県","city":"岐阜市","address":"長良白妙町"},
{"zip_code":"5020042","kana_pref":"ｷﾞﾌｹﾝ","kana_city":"ｷﾞﾌｼ","kana_address":"ﾅｶﾞﾗｼﾛﾆｼﾁｮｳ","pref":"岐阜県","city":"岐阜市","address":"長良城西町"},
{"zip_code":"5020056","kana_pref":"ｷﾞﾌｹﾝ","kana_city":"ｷﾞﾌｼ","kana_address":"ﾅｶﾞﾗｼﾝｾｲﾁｮｳ","pref":"岐阜県","city":"岐阜市","address":"長良真生町"},
{"zip_code":"5020046","kana_pref":"ｷﾞﾌｹﾝ","kana_city":"ｷﾞﾌｼ","kana_address":"ﾅｶﾞﾗｽｷﾞﾉﾁｮｳ","pref":"岐阜県","city":"岐阜市","address":"長良杉乃町"},
{"zip_code":"5020066","kana_pref":"ｷﾞﾌｹﾝ","kana_city":"ｷﾞﾌｼ","kana_address":"ﾅｶﾞﾗｾﾝﾀﾞﾏﾁ","pref":"岐阜県","city":"岐阜市","address":"長良仙田町"},
{"zip_code":"5020032","kana_pref":"ｷﾞﾌｹﾝ","kana_city":"ｷﾞﾌｼ","kana_address":"ﾅｶﾞﾗﾀｶﾐﾈﾁｮｳ","pref":"岐阜県","city":"岐阜市","address":"長良高嶺町"},
{"zip_code":"5020073","kana_pref":"ｷﾞﾌｹﾝ","kana_city":"ｷﾞﾌｼ","kana_address":"ﾅｶﾞﾗﾀﾅｶ","pref":"岐阜県","city":"岐阜市","address":"長良田中"},
{"zip_code":"5020064","kana_pref":"ｷﾞﾌｹﾝ","kana_city":"ｷﾞﾌｼ","kana_address":"ﾅｶﾞﾗﾀﾅｶﾏｴ","pref":"岐阜県","city":"岐阜市","address":"長良田中前"},
{"zip_code":"5020022","kana_pref":"ｷﾞﾌｹﾝ","kana_city":"ｷﾞﾌｼ","kana_address":"ﾅｶﾞﾗﾄｳｺﾞｳﾁｮｳ","pref":"岐阜県","city":"岐阜市","address":"長良東郷町"},
{"zip_code":"5020076","kana_pref":"ｷﾞﾌｹﾝ","kana_city":"ｷﾞﾌｼ","kana_address":"ﾅｶﾞﾗﾄﾓｾ","pref":"岐阜県","city":"岐阜市","address":"長良友瀬"},
{"zip_code":"5020035","kana_pref":"ｷﾞﾌｹﾝ","kana_city":"ｷﾞﾌｼ","kana_address":"ﾅｶﾞﾗﾅﾝﾖｳﾁｮｳ","pref":"岐阜県","city":"岐阜市","address":"長良南陽町"},
{"zip_code":"5020067","kana_pref":"ｷﾞﾌｹﾝ","kana_city":"ｷﾞﾌｼ","kana_address":"ﾅｶﾞﾗﾆｼﾉﾏｴ","pref":"岐阜県","city":"岐阜市","address":"長良西野前"},
{"zip_code":"5020074","kana_pref":"ｷﾞﾌｹﾝ","kana_city":"ｷﾞﾌｼ","kana_address":"ﾅｶﾞﾗﾆｼﾔﾏﾏｴ","pref":"岐阜県","city":"岐阜市","address":"長良西山前"},
{"zip_code":"5020062","kana_pref":"ｷﾞﾌｹﾝ","kana_city":"ｷﾞﾌｼ","kana_address":"ﾅｶﾞﾗﾊﾙﾀ","pref":"岐阜県","city":"岐阜市","address":"長良春田"},
{"zip_code":"5020082","kana_pref":"ｷﾞﾌｹﾝ","kana_city":"ｷﾞﾌｼ","kana_address":"ﾅｶﾞﾗﾋｶﾞｼ","pref":"岐阜県","city":"岐阜市","address":"長良東"},
{"zip_code":"5020043","kana_pref":"ｷﾞﾌｹﾝ","kana_city":"ｷﾞﾌｼ","kana_address":"ﾅｶﾞﾗﾋｶﾞｼﾏﾁ","pref":"岐阜県","city":"岐阜市","address":"長良東町"},
{"zip_code":"5020072","kana_pref":"ｷﾞﾌｹﾝ","kana_city":"ｷﾞﾌｼ","kana_address":"ﾅｶﾞﾗﾌｸｲｽﾞﾐ","pref":"岐阜県","city":"岐阜市","address":"長良福泉"},
{"zip_code":"5020055","kana_pref":"ｷﾞﾌｹﾝ","kana_city":"ｷﾞﾌｼ","kana_address":"ﾅｶﾞﾗﾌｸｴﾁｮｳ","pref":"岐阜県","city":"岐阜市","address":"長良福江町"},
{"zip_code":"5020817","kana_pref":"ｷﾞﾌｹﾝ","kana_city":"ｷﾞﾌｼ","kana_address":"ﾅｶﾞﾗﾌｸﾐﾂ","pref":"岐阜県","city":"岐阜市","address":"長良福光"},
{"zip_code":"5020011","kana_pref":"ｷﾞﾌｹﾝ","kana_city":"ｷﾞﾌｼ","kana_address":"ﾅｶﾞﾗﾌﾙﾂ","pref":"岐阜県","city":"岐阜市","address":"長良古津"},
{"zip_code":"5020038","kana_pref":"ｷﾞﾌｹﾝ","kana_city":"ｷﾞﾌｼ","kana_address":"ﾅｶﾞﾗﾎｳｷｭｳｼﾞﾁｮｳ","pref":"岐阜県","city":"岐阜市","address":"長良法久寺町"},
{"zip_code":"5020027","kana_pref":"ｷﾞﾌｹﾝ","kana_city":"ｷﾞﾌｼ","kana_address":"ﾅｶﾞﾗﾐﾔｸﾞﾁﾁｮｳ","pref":"岐阜県","city":"岐阜市","address":"長良宮口町"},
{"zip_code":"5020053","kana_pref":"ｷﾞﾌｹﾝ","kana_city":"ｷﾞﾌｼ","kana_address":"ﾅｶﾞﾗﾐﾔｼﾞﾁｮｳ","pref":"岐阜県","city":"岐阜市","address":"長良宮路町"},
{"zip_code":"5020065","kana_pref":"ｷﾞﾌｹﾝ","kana_city":"ｷﾞﾌｼ","kana_address":"ﾅｶﾞﾗﾓﾘﾏﾁ","pref":"岐阜県","city":"岐阜市","address":"長良森町"},
{"zip_code":"5020033","kana_pref":"ｷﾞﾌｹﾝ","kana_city":"ｷﾞﾌｼ","kana_address":"ﾅｶﾞﾗﾕｳﾗｸﾁｮｳ","pref":"岐阜県","city":"岐阜市","address":"長良有楽町"},
{"zip_code":"5020061","kana_pref":"ｷﾞﾌｹﾝ","kana_city":"ｷﾞﾌｼ","kana_address":"ﾅｶﾞﾗﾘｭｳﾄｳﾁｮｳ","pref":"岐阜県","city":"岐阜市","address":"長良竜東町"},
{"zip_code":"5020029","kana_pref":"ｷﾞﾌｹﾝ","kana_city":"ｷﾞﾌｼ","kana_address":"ﾅｶﾞﾗﾜｶﾊﾞﾁｮｳ","pref":"岐阜県","city":"岐阜市","address":"長良若葉町"},
{"zip_code":"5020912","kana_pref":"ｷﾞﾌｹﾝ","kana_city":"ｷﾞﾌｼ","kana_address":"ﾆｼｼﾞﾏﾁｮｳ","pref":"岐阜県","city":"岐阜市","address":"西島町"},
{"zip_code":"5020916","kana_pref":"ｷﾞﾌｹﾝ","kana_city":"ｷﾞﾌｼ","kana_address":"ﾆｼﾅｶｼﾞﾏ","pref":"岐阜県","city":"岐阜市","address":"西中島"},
{"zip_code":"5020933","kana_pref":"ｷﾞﾌｹﾝ","kana_city":"ｷﾞﾌｼ","kana_address":"ﾆｯｺｳﾁｮｳ","pref":"岐阜県","city":"岐阜市","address":"日光町"},
{"zip_code":"5020931","kana_pref":"ｷﾞﾌｹﾝ","kana_city":"ｷﾞﾌｼ","kana_address":"ﾉﾘﾀｹ","pref":"岐阜県","city":"岐阜市","address":"則武"},
{"zip_code":"5020932","kana_pref":"ｷﾞﾌｹﾝ","kana_city":"ｷﾞﾌｼ","kana_address":"ﾉﾘﾀｹﾅｶ","pref":"岐阜県","city":"岐阜市","address":"則武中"},
{"zip_code":"5020939","kana_pref":"ｷﾞﾌｹﾝ","kana_city":"ｷﾞﾌｼ","kana_address":"ﾉﾘﾀｹﾆｼ","pref":"岐阜県","city":"岐阜市","address":"則武西"},
{"zip_code":"5020825","kana_pref":"ｷﾞﾌｹﾝ","kana_city":"ｷﾞﾌｼ","kana_address":"ﾊﾂﾋﾏﾁ","pref":"岐阜県","city":"岐阜市","address":"初日町"},
{"zip_code":"5020824","kana_pref":"ｷﾞﾌｹﾝ","kana_city":"ｷﾞﾌｼ","kana_address":"ﾊﾅﾉｷﾁｮｳ","pref":"岐阜県","city":"岐阜市","address":"花ノ木町"},
{"zip_code":"5020829","kana_pref":"ｷﾞﾌｹﾝ","kana_city":"ｷﾞﾌｼ","kana_address":"ﾊﾞﾝﾀﾞｲﾁｮｳ","pref":"岐阜県","city":"岐阜市","address":"万代町"},
{"zip_code":"5020901","kana_pref":"ｷﾞﾌｹﾝ","kana_city":"ｷﾞﾌｼ","kana_address":"ﾋｶﾘﾏﾁ","pref":"岐阜県","city":"岐阜市","address":"光町"},
{"zip_code":"5020913","kana_pref":"ｷﾞﾌｹﾝ","kana_city":"ｷﾞﾌｼ","kana_address":"ﾋｶﾞｼｼﾞﾏ","pref":"岐阜県","city":"岐阜市","address":"東島"},
{"zip_code":"5020822","kana_pref":"ｷﾞﾌｹﾝ","kana_city":"ｷﾞﾌｼ","kana_address":"ﾌｸﾀﾏﾁ","pref":"岐阜県","city":"岐阜市","address":"福田町"},
{"zip_code":"5020813","kana_pref":"ｷﾞﾌｹﾝ","kana_city":"ｷﾞﾌｼ","kana_address":"ﾌｸﾐﾂﾋｶﾞｼ","pref":"岐阜県","city":"岐阜市","address":"福光東"},
{"zip_code":"5020814","kana_pref":"ｷﾞﾌｹﾝ","kana_city":"ｷﾞﾌｼ","kana_address":"ﾌｸﾐﾂﾆｼ","pref":"岐阜県","city":"岐阜市","address":"福光西"},
{"zip_code":"5020815","kana_pref":"ｷﾞﾌｹﾝ","kana_city":"ｷﾞﾌｼ","kana_address":"ﾌｸﾐﾂﾐﾅﾐﾏﾁ","pref":"岐阜県","city":"岐阜市","address":"福光南町"},
{"zip_code":"5020827","kana_pref":"ｷﾞﾌｹﾝ","kana_city":"ｷﾞﾌｼ","kana_address":"ﾍｲﾜﾄﾞｵﾘ","pref":"岐阜県","city":"岐阜市","address":"平和通"},
{"zip_code":"5020024","kana_pref":"ｷﾞﾌｹﾝ","kana_city":"ｷﾞﾌｼ","kana_address":"ﾎﾘﾀﾏﾁ","pref":"岐阜県","city":"岐阜市","address":"堀田町"},
{"zip_code":"5020857","kana_pref":"ｷﾞﾌｹﾝ","kana_city":"ｷﾞﾌｼ","kana_address":"ﾏｻｷ","pref":"岐阜県","city":"岐阜市","address":"正木"},
{"zip_code":"5020881","kana_pref":"ｷﾞﾌｹﾝ","kana_city":"ｷﾞﾌｼ","kana_address":"ﾏｻｷｷﾀﾏﾁ","pref":"岐阜県","city":"岐阜市","address":"正木北町"},
{"zip_code":"5020865","kana_pref":"ｷﾞﾌｹﾝ","kana_city":"ｷﾞﾌｼ","kana_address":"ﾏｻｷﾆｼﾏﾁ","pref":"岐阜県","city":"岐阜市","address":"正木西町"},
{"zip_code":"5020882","kana_pref":"ｷﾞﾌｹﾝ","kana_city":"ｷﾞﾌｼ","kana_address":"ﾏｻｷﾅｶ","pref":"岐阜県","city":"岐阜市","address":"正木中"},
{"zip_code":"5020866","kana_pref":"ｷﾞﾌｹﾝ","kana_city":"ｷﾞﾌｼ","kana_address":"ﾏｻｷﾐﾅﾐ","pref":"岐阜県","city":"岐阜市","address":"正木南"},
{"zip_code":"5020833","kana_pref":"ｷﾞﾌｹﾝ","kana_city":"ｷﾞﾌｼ","kana_address":"ﾏﾂｶｾﾞﾁｮｳ","pref":"岐阜県","city":"岐阜市","address":"松風町"},
{"zip_code":"5020903","kana_pref":"ｷﾞﾌｹﾝ","kana_city":"ｷﾞﾌｼ","kana_address":"ﾐｼﾏﾁｮｳ","pref":"岐阜県","city":"岐阜市","address":"美島町"},
{"zip_code":"5020004","kana_pref":"ｷﾞﾌｹﾝ","kana_city":"ｷﾞﾌｼ","kana_address":"ﾐﾀﾎﾗ","pref":"岐阜県","city":"岐阜市","address":"三田洞"},
{"zip_code":"5020003","kana_pref":"ｷﾞﾌｹﾝ","kana_city":"ｷﾞﾌｼ","kana_address":"ﾐﾀﾎﾗﾋｶﾞｼ","pref":"岐阜県","city":"岐阜市","address":"三田洞東"},
{"zip_code":"5020852","kana_pref":"ｷﾞﾌｹﾝ","kana_city":"ｷﾞﾌｼ","kana_address":"ﾐﾅﾐｾﾐ","pref":"岐阜県","city":"岐阜市","address":"南蝉"},
{"zip_code":"5020923","kana_pref":"ｷﾞﾌｹﾝ","kana_city":"ｷﾞﾌｼ","kana_address":"ﾐﾔｳﾗﾁｮｳ","pref":"岐阜県","city":"岐阜市","address":"宮浦町"},
{"zip_code":"5020922","kana_pref":"ｷﾞﾌｹﾝ","kana_city":"ｷﾞﾌｼ","kana_address":"ﾐｮｳｼﾞﾝﾁｮｳ","pref":"岐阜県","city":"岐阜市","address":"明神町"},
{"zip_code":"5020921","kana_pref":"ｷﾞﾌｹﾝ","kana_city":"ｷﾞﾌｼ","kana_address":"ﾓﾘｸﾞﾁﾁｮｳ","pref":"岐阜県","city":"岐阜市","address":"守口町"},
{"zip_code":"5020812","kana_pref":"ｷﾞﾌｹﾝ","kana_city":"ｷﾞﾌｼ","kana_address":"ﾔｼﾛ","pref":"岐阜県","city":"岐阜市","address":"八代"},
{"zip_code":"5020025","kana_pref":"ｷﾞﾌｹﾝ","kana_city":"ｷﾞﾌｼ","kana_address":"ﾔﾏｻｷﾁｮｳ","pref":"岐阜県","city":"岐阜市","address":"山先町"},
{"zip_code":"5020905","kana_pref":"ｷﾞﾌｹﾝ","kana_city":"ｷﾞﾌｼ","kana_address":"ﾔﾏﾌﾞｷﾁｮｳ","pref":"岐阜県","city":"岐阜市","address":"山吹町"},
{"zip_code":"5020834","kana_pref":"ｷﾞﾌｹﾝ","kana_city":"ｷﾞﾌｼ","kana_address":"ﾖｳﾛｳﾁｮｳ","pref":"岐阜県","city":"岐阜市","address":"養老町"},
{"zip_code":"5020836","kana_pref":"ｷﾞﾌｹﾝ","kana_city":"ｷﾞﾌｼ","kana_address":"ﾜｶﾀｹﾁｮｳ","pref":"岐阜県","city":"岐阜市","address":"若竹町"},
{"zip_code":"5020811","kana_pref":"ｷﾞﾌｹﾝ","kana_city":"ｷﾞﾌｼ","kana_address":"ﾜｶﾌｸﾁｮｳ","pref":"岐阜県","city":"岐阜市","address":"若福町"}]}