{"zip_code":[
{"zip_code":"5030000","kana_pref":"ｷﾞﾌｹﾝ","kana_city":"ｵｵｶﾞｷｼ","kana_address":"","pref":"岐阜県","city":"大垣市","address":""},
{"zip_code":"5032202","kana_pref":"ｷﾞﾌｹﾝ","kana_city":"ｵｵｶﾞｷｼ","kana_address":"ｱｵｷﾁｮｳ","pref":"岐阜県","city":"大垣市","address":"青木町"},
{"zip_code":"5032227","kana_pref":"ｷﾞﾌｹﾝ","kana_city":"ｵｵｶﾞｷｼ","kana_address":"ｱｵﾉﾁｮｳ","pref":"岐阜県","city":"大垣市","address":"青野町"},
{"zip_code":"5032221","kana_pref":"ｷﾞﾌｹﾝ","kana_city":"ｵｵｶﾞｷｼ","kana_address":"ｱｵﾊｶﾁｮｳ","pref":"岐阜県","city":"大垣市","address":"青墓町"},
{"zip_code":"5030961","kana_pref":"ｷﾞﾌｹﾝ","kana_city":"ｵｵｶﾞｷｼ","kana_address":"ｱｵﾔﾅｷﾞﾁｮｳ","pref":"岐阜県","city":"大垣市","address":"青柳町"},
{"zip_code":"5032214","kana_pref":"ｷﾞﾌｹﾝ","kana_city":"ｵｵｶﾞｷｼ","kana_address":"ｱｶｻｶｼﾝﾃﾞﾝ","pref":"岐阜県","city":"大垣市","address":"赤坂新田"},
{"zip_code":"5032206","kana_pref":"ｷﾞﾌｹﾝ","kana_city":"ｵｵｶﾞｷｼ","kana_address":"ｱｶｻｶｼﾝﾏﾁ","pref":"岐阜県","city":"大垣市","address":"赤坂新町"},
{"zip_code":"5032215","kana_pref":"ｷﾞﾌｹﾝ","kana_city":"ｵｵｶﾞｷｼ","kana_address":"ｱｶｻｶﾀﾞｲﾓﾝ","pref":"岐阜県","city":"大垣市","address":"赤坂大門"},
{"zip_code":"5032212","kana_pref":"ｷﾞﾌｹﾝ","kana_city":"ｵｵｶﾞｷｼ","kana_address":"ｱｶｻｶﾋｶﾞｼﾏﾁ","pref":"岐阜県","city":"大垣市","address":"赤坂東町"},
{"zip_code":"5032213","kana_pref":"ｷﾞﾌｹﾝ","kana_city":"ｵｵｶﾞｷｼ","kana_address":"ｱｶｻｶﾁｮｳ","pref":"岐阜県","city":"大垣市","address":"赤坂町"},
{"zip_code":"5030013","kana_pref":"ｷﾞﾌｹﾝ","kana_city":"ｵｵｶﾞｷｼ","kana_address":"ｱｶﾊﾞﾅﾁｮｳ","pref":"岐阜県","city":"大垣市","address":"赤花町"},
{"zip_code":"5030947","kana_pref":"ｷﾞﾌｹﾝ","kana_city":"ｵｵｶﾞｷｼ","kana_address":"ｱｻｸｻ","pref":"岐阜県","city":"大垣市","address":"浅草"},
{"zip_code":"5030946","kana_pref":"ｷﾞﾌｹﾝ","kana_city":"ｵｵｶﾞｷｼ","kana_address":"ｱｻﾅｶ","pref":"岐阜県","city":"大垣市","address":"浅中"},
{"zip_code":"5030824","kana_pref":"ｷﾞﾌｹﾝ","kana_city":"ｵｵｶﾞｷｼ","kana_address":"ｱｻﾋﾏﾁ","pref":"岐阜県","city":"大垣市","address":"旭町"},
{"zip_code":"5030945","kana_pref":"ｷﾞﾌｹﾝ","kana_city":"ｵｵｶﾞｷｼ","kana_address":"ｱｻﾆｼ","pref":"岐阜県","city":"大垣市","address":"浅西"},
{"zip_code":"5030802","kana_pref":"ｷﾞﾌｹﾝ","kana_city":"ｵｵｶﾞｷｼ","kana_address":"ｱｽﾞﾏﾁｮｳ","pref":"岐阜県","city":"大垣市","address":"東町"},
{"zip_code":"5030984","kana_pref":"ｷﾞﾌｹﾝ","kana_city":"ｵｵｶﾞｷｼ","kana_address":"ｱﾔﾉ","pref":"岐阜県","city":"大垣市","address":"綾野"},
{"zip_code":"5030994","kana_pref":"ｷﾞﾌｹﾝ","kana_city":"ｵｵｶﾞｷｼ","kana_address":"ｱﾔﾉﾁｮｳ","pref":"岐阜県","city":"大垣市","address":"綾野町"},
{"zip_code":"5030035","kana_pref":"ｷﾞﾌｹﾝ","kana_city":"ｵｵｶﾞｷｼ","kana_address":"ｱﾗｵﾀﾏｲｹ","pref":"岐阜県","city":"大垣市","address":"荒尾玉池"},
{"zip_code":"5030034","kana_pref":"ｷﾞﾌｹﾝ","kana_city":"ｵｵｶﾞｷｼ","kana_address":"ｱﾗｵﾁｮｳ","pref":"岐阜県","city":"大垣市","address":"荒尾町"},
{"zip_code":"5030993","kana_pref":"ｷﾞﾌｹﾝ","kana_city":"ｵｵｶﾞｷｼ","kana_address":"ｱﾗｶﾜﾁｮｳ","pref":"岐阜県","city":"大垣市","address":"荒川町"},
{"zip_code":"5032204","kana_pref":"ｷﾞﾌｹﾝ","kana_city":"ｵｵｶﾞｷｼ","kana_address":"ｲｹｼﾞﾘﾁｮｳ","pref":"岐阜県","city":"大垣市","address":"池尻町"},
{"zip_code":"5032224","kana_pref":"ｷﾞﾌｹﾝ","kana_city":"ｵｵｶﾞｷｼ","kana_address":"ｲﾅﾊﾞﾋｶﾞｼ","pref":"岐阜県","city":"大垣市","address":"稲葉東"},
{"zip_code":"5032225","kana_pref":"ｷﾞﾌｹﾝ","kana_city":"ｵｵｶﾞｷｼ","kana_address":"ｲﾅﾊﾞﾆｼ","pref":"岐阜県","city":"大垣市","address":"稲葉西"},
{"zip_code":"5032226","kana_pref":"ｷﾞﾌｹﾝ","kana_city":"ｵｵｶﾞｷｼ","kana_address":"ｲﾅﾊﾞｷﾀ","pref":"岐阜県","city":"大垣市","address":"稲葉北"},
{"zip_code":"5030834","kana_pref":"ｷﾞﾌｹﾝ","kana_city":"ｵｵｶﾞｷｼ","kana_address":"ｲﾇｶﾞﾌﾞﾁﾁｮｳ","pref":"岐阜県","city":"大垣市","address":"犬ケ渕町"},
{"zip_code":"5030874","kana_pref":"ｷﾞﾌｹﾝ","kana_city":"ｵｵｶﾞｷｼ","kana_address":"ｲﾏｵｶﾁｮｳ","pref":"岐阜県","city":"大垣市","address":"今岡町"},
{"zip_code":"5030807","kana_pref":"ｷﾞﾌｹﾝ","kana_city":"ｵｵｶﾞｷｼ","kana_address":"ｲﾏｼﾞｭｸ","pref":"岐阜県","city":"大垣市","address":"今宿"},
{"zip_code":"5030843","kana_pref":"ｷﾞﾌｹﾝ","kana_city":"ｵｵｶﾞｷｼ","kana_address":"ｲﾏﾌｸﾁｮｳ","pref":"岐阜県","city":"大垣市","address":"今福町"},
{"zip_code":"5030924","kana_pref":"ｷﾞﾌｹﾝ","kana_city":"ｵｵｶﾞｷｼ","kana_address":"ｲﾏﾏﾁ","pref":"岐阜県","city":"大垣市","address":"今町"},
{"zip_code":"5030962","kana_pref":"ｷﾞﾌｹﾝ","kana_city":"ｵｵｶﾞｷｼ","kana_address":"ｲﾘｶﾀ","pref":"岐阜県","city":"大垣市","address":"入方"},
{"zip_code":"5030871","kana_pref":"ｷﾞﾌｹﾝ","kana_city":"ｵｵｶﾞｷｼ","kana_address":"ｳｵﾔﾁｮｳ","pref":"岐阜県","city":"大垣市","address":"魚屋町"},
{"zip_code":"5030936","kana_pref":"ｷﾞﾌｹﾝ","kana_city":"ｵｵｶﾞｷｼ","kana_address":"ｳﾁﾜﾗ","pref":"岐阜県","city":"大垣市","address":"内原"},
{"zip_code":"5030842","kana_pref":"ｷﾞﾌｹﾝ","kana_city":"ｵｵｶﾞｷｼ","kana_address":"ｳﾏﾉｾﾁｮｳ","pref":"岐阜県","city":"大垣市","address":"馬の瀬町"},
{"zip_code":"5030838","kana_pref":"ｷﾞﾌｹﾝ","kana_city":"ｵｵｶﾞｷｼ","kana_address":"ｴｻﾞｷﾁｮｳ","pref":"岐阜県","city":"大垣市","address":"江崎町"},
{"zip_code":"5032207","kana_pref":"ｷﾞﾌｹﾝ","kana_city":"ｵｵｶﾞｷｼ","kana_address":"ｴﾀﾞｺﾞｳ","pref":"岐阜県","city":"大垣市","address":"枝郷"},
{"zip_code":"5030828","kana_pref":"ｷﾞﾌｹﾝ","kana_city":"ｵｵｶﾞｷｼ","kana_address":"ｴﾋﾞｽﾁｮｳ","pref":"岐阜県","city":"大垣市","address":"恵比寿町"},
{"zip_code":"5030827","kana_pref":"ｷﾞﾌｹﾝ","kana_city":"ｵｵｶﾞｷｼ","kana_address":"ｴﾋﾞｽﾁｮｳﾐﾅﾐ","pref":"岐阜県","city":"大垣市","address":"恵比寿町南"},
{"zip_code":"5030826","kana_pref":"ｷﾞﾌｹﾝ","kana_city":"ｵｵｶﾞｷｼ","kana_address":"ｴﾋﾞｽﾁｮｳｷﾀ","pref":"岐阜県","city":"大垣市","address":"恵比寿町北"},
{"zip_code":"5030836","kana_pref":"ｷﾞﾌｹﾝ","kana_city":"ｵｵｶﾞｷｼ","kana_address":"ｵｵｲ","pref":"岐阜県","city":"大垣市","address":"大井"},
{"zip_code":"5030863","kana_pref":"ｷﾞﾌｹﾝ","kana_city":"ｵｵｶﾞｷｼ","kana_address":"ｵｵｲｹﾁｮｳ","pref":"岐阜県","city":"大垣市","address":"大池町"},
{"zip_code":"5030001","kana_pref":"ｷﾞﾌｹﾝ","kana_city":"ｵｵｶﾞｷｼ","kana_address":"ｵｵｼﾏﾁｮｳ","pref":"岐阜県","city":"大垣市","address":"大島町"},
{"zip_code":"5030956","kana_pref":"ｷﾞﾌｹﾝ","kana_city":"ｵｵｶﾞｷｼ","kana_address":"ｵｵﾄﾊﾞ","pref":"岐阜県","city":"大垣市","address":"大外羽"},
{"zip_code":"5030814","kana_pref":"ｷﾞﾌｹﾝ","kana_city":"ｵｵｶﾞｷｼ","kana_address":"ｵｵﾑﾗ","pref":"岐阜県","city":"大垣市","address":"大村"},
{"zip_code":"5030898","kana_pref":"ｷﾞﾌｹﾝ","kana_city":"ｵｵｶﾞｷｼ","kana_address":"ｵｶﾁﾏﾁ","pref":"岐阜県","city":"大垣市","address":"歩行町"},
{"zip_code":"5030007","kana_pref":"ｷﾞﾌｹﾝ","kana_city":"ｵｵｶﾞｷｼ","kana_address":"ｶｲｿﾞﾈﾁｮｳ","pref":"岐阜県","city":"大垣市","address":"貝曽根町"},
{"zip_code":"5030002","kana_pref":"ｷﾞﾌｹﾝ","kana_city":"ｵｵｶﾞｷｼ","kana_address":"ｶｲﾊﾂﾁｮｳ","pref":"岐阜県","city":"大垣市","address":"開発町"},
{"zip_code":"5030006","kana_pref":"ｷﾞﾌｹﾝ","kana_city":"ｵｵｶﾞｷｼ","kana_address":"ｶｶﾞﾉ","pref":"岐阜県","city":"大垣市","address":"加賀野"},
{"zip_code":"5030008","kana_pref":"ｷﾞﾌｹﾝ","kana_city":"ｵｵｶﾞｷｼ","kana_address":"ｶﾞｸﾃﾞﾝﾁｮｳ","pref":"岐阜県","city":"大垣市","address":"楽田町"},
{"zip_code":"5030023","kana_pref":"ｷﾞﾌｹﾝ","kana_city":"ｵｵｶﾞｷｼ","kana_address":"ｶｻｷﾞﾁｮｳ","pref":"岐阜県","city":"大垣市","address":"笠木町"},
{"zip_code":"5030027","kana_pref":"ｷﾞﾌｹﾝ","kana_city":"ｵｵｶﾞｷｼ","kana_address":"ｶｻﾇｲﾁｮｳ","pref":"岐阜県","city":"大垣市","address":"笠縫町"},
{"zip_code":"5030823","kana_pref":"ｷﾞﾌｹﾝ","kana_city":"ｵｵｶﾞｷｼ","kana_address":"ｶｼﾏﾁｮｳ","pref":"岐阜県","city":"大垣市","address":"鹿島町"},
{"zip_code":"5030021","kana_pref":"ｷﾞﾌｹﾝ","kana_city":"ｵｵｶﾞｷｼ","kana_address":"ｶﾞﾏﾁｮｳ","pref":"岐阜県","city":"大垣市","address":"河間町"},
{"zip_code":"5030937","kana_pref":"ｷﾞﾌｹﾝ","kana_city":"ｵｵｶﾞｷｼ","kana_address":"ｶﾏﾌｴ","pref":"岐阜県","city":"大垣市","address":"釜笛"},
{"zip_code":"5031614","kana_pref":"ｷﾞﾌｹﾝ","kana_city":"ｵｵｶﾞｷｼ","kana_address":"ｶﾐｲｼﾂﾞﾁｮｳｲﾁﾉｾ","pref":"岐阜県","city":"大垣市","address":"上石津町一之瀬"},
{"zip_code":"5031633","kana_pref":"ｷﾞﾌｹﾝ","kana_city":"ｵｵｶﾞｷｼ","kana_address":"ｶﾐｲｼﾂﾞﾁｮｳｳﾁｱｹﾞ","pref":"岐阜県","city":"大垣市","address":"上石津町打上"},
{"zip_code":"5031622","kana_pref":"ｷﾞﾌｹﾝ","kana_city":"ｵｵｶﾞｷｼ","kana_address":"ｶﾐｲｼﾂﾞﾁｮｳｳﾜﾊﾗ","pref":"岐阜県","city":"大垣市","address":"上石津町上原"},
{"zip_code":"5031611","kana_pref":"ｷﾞﾌｹﾝ","kana_city":"ｵｵｶﾞｷｼ","kana_address":"ｶﾐｲｼﾂﾞﾁｮｳｵｸ","pref":"岐阜県","city":"大垣市","address":"上石津町奥"},
{"zip_code":"5031601","kana_pref":"ｷﾞﾌｹﾝ","kana_city":"ｵｵｶﾞｷｼ","kana_address":"ｶﾐｲｼﾂﾞﾁｮｳｵﾂｻｶ","pref":"岐阜県","city":"大垣市","address":"上石津町乙坂"},
{"zip_code":"5031638","kana_pref":"ｷﾞﾌｹﾝ","kana_city":"ｵｵｶﾞｷｼ","kana_address":"ｶﾐｲｼﾂﾞﾁｮｳｶﾐ","pref":"岐阜県","city":"大垣市","address":"上石津町上"},
{"zip_code":"5031613","kana_pref":"ｷﾞﾌｹﾝ","kana_city":"ｵｵｶﾞｷｼ","kana_address":"ｶﾐｲｼﾂﾞﾁｮｳｶﾐｶｼﾞﾔ","pref":"岐阜県","city":"大垣市","address":"上石津町上鍛治屋"},
{"zip_code":"5031623","kana_pref":"ｷﾞﾌｹﾝ","kana_city":"ｵｵｶﾞｷｼ","kana_address":"ｶﾐｲｼﾂﾞﾁｮｳｶﾐﾀﾗ","pref":"岐阜県","city":"大垣市","address":"上石津町上多良"},
{"zip_code":"5031621","kana_pref":"ｷﾞﾌｹﾝ","kana_city":"ｵｵｶﾞｷｼ","kana_address":"ｶﾐｲｼﾂﾞﾁｮｳｼﾓﾀﾗ","pref":"岐阜県","city":"大垣市","address":"上石津町下多良"},
{"zip_code":"5031632","kana_pref":"ｷﾞﾌｹﾝ","kana_city":"ｵｵｶﾞｷｼ","kana_address":"ｶﾐｲｼﾂﾞﾁｮｳｼﾓﾔﾏ","pref":"岐阜県","city":"大垣市","address":"上石津町下山"},
{"zip_code":"5031612","kana_pref":"ｷﾞﾌｹﾝ","kana_city":"ｵｵｶﾞｷｼ","kana_address":"ｶﾐｲｼﾂﾞﾁｮｳﾀﾆﾊﾀ","pref":"岐阜県","city":"大垣市","address":"上石津町谷畑"},
{"zip_code":"5031637","kana_pref":"ｷﾞﾌｹﾝ","kana_city":"ｵｵｶﾞｷｼ","kana_address":"ｶﾐｲｼﾂﾞﾁｮｳﾄﾞｳﾉｳｴ","pref":"岐阜県","city":"大垣市","address":"上石津町堂之上"},
{"zip_code":"5031635","kana_pref":"ｷﾞﾌｹﾝ","kana_city":"ｵｵｶﾞｷｼ","kana_address":"ｶﾐｲｼﾂﾞﾁｮｳﾄｷﾔﾏ","pref":"岐阜県","city":"大垣市","address":"上石津町時山"},
{"zip_code":"5031636","kana_pref":"ｷﾞﾌｹﾝ","kana_city":"ｵｵｶﾞｷｼ","kana_address":"ｶﾐｲｼﾂﾞﾁｮｳﾆｼﾔﾏ","pref":"岐阜県","city":"大垣市","address":"上石津町西山"},
{"zip_code":"5031626","kana_pref":"ｷﾞﾌｹﾝ","kana_city":"ｵｵｶﾞｷｼ","kana_address":"ｶﾐｲｼﾂﾞﾁｮｳﾈｷﾞｶﾐ","pref":"岐阜県","city":"大垣市","address":"上石津町祢宜上"},
{"zip_code":"5031634","kana_pref":"ｷﾞﾌｹﾝ","kana_city":"ｵｵｶﾞｷｼ","kana_address":"ｶﾐｲｼﾂﾞﾁｮｳﾎｿﾉ","pref":"岐阜県","city":"大垣市","address":"上石津町細野"},
{"zip_code":"5031631","kana_pref":"ｷﾞﾌｹﾝ","kana_city":"ｵｵｶﾞｷｼ","kana_address":"ｶﾐｲｼﾂﾞﾁｮｳﾏｴｶﾞｾ","pref":"岐阜県","city":"大垣市","address":"上石津町前ケ瀬"},
{"zip_code":"5031602","kana_pref":"ｷﾞﾌｹﾝ","kana_city":"ｵｵｶﾞｷｼ","kana_address":"ｶﾐｲｼﾂﾞﾁｮｳﾏｷﾀﾞ","pref":"岐阜県","city":"大垣市","address":"上石津町牧田"},
{"zip_code":"5031624","kana_pref":"ｷﾞﾌｹﾝ","kana_city":"ｵｵｶﾞｷｼ","kana_address":"ｶﾐｲｼﾂﾞﾁｮｳﾐﾂｻﾄ","pref":"岐阜県","city":"大垣市","address":"上石津町三ツ里"},
{"zip_code":"5031625","kana_pref":"ｷﾞﾌｹﾝ","kana_city":"ｵｵｶﾞｷｼ","kana_address":"ｶﾐｲｼﾂﾞﾁｮｳﾐﾔ","pref":"岐阜県","city":"大垣市","address":"上石津町宮"},
{"zip_code":"5030964","kana_pref":"ｷﾞﾌｹﾝ","kana_city":"ｵｵｶﾞｷｼ","kana_address":"ｶﾐｶﾞｻ","pref":"岐阜県","city":"大垣市","address":"上笠"},
{"zip_code":"5030957","kana_pref":"ｷﾞﾌｹﾝ","kana_city":"ｵｵｶﾞｷｼ","kana_address":"ｶﾐﾔ","pref":"岐阜県","city":"大垣市","address":"上屋"},
{"zip_code":"5030941","kana_pref":"ｷﾞﾌｹﾝ","kana_city":"ｵｵｶﾞｷｼ","kana_address":"ｶﾜｸﾞﾁ","pref":"岐阜県","city":"大垣市","address":"川口"},
{"zip_code":"5030917","kana_pref":"ｷﾞﾌｹﾝ","kana_city":"ｵｵｶﾞｷｼ","kana_address":"ｶﾝﾀﾞﾁｮｳ","pref":"岐阜県","city":"大垣市","address":"神田町"},
{"zip_code":"5030019","kana_pref":"ｷﾞﾌｹﾝ","kana_city":"ｵｵｶﾞｷｼ","kana_address":"ｷﾀｶﾞﾀﾁｮｳ","pref":"岐阜県","city":"大垣市","address":"北方町"},
{"zip_code":"5030915","kana_pref":"ｷﾞﾌｹﾝ","kana_city":"ｵｵｶﾞｷｼ","kana_address":"ｷﾀｷﾘｲｼﾁｮｳ","pref":"岐阜県","city":"大垣市","address":"北切石町"},
{"zip_code":"5030973","kana_pref":"ｷﾞﾌｹﾝ","kana_city":"ｵｵｶﾞｷｼ","kana_address":"ｷﾄﾞﾁｮｳ","pref":"岐阜県","city":"大垣市","address":"木戸町"},
{"zip_code":"5030881","kana_pref":"ｷﾞﾌｹﾝ","kana_city":"ｵｵｶﾞｷｼ","kana_address":"ｷﾞﾌﾏﾁ","pref":"岐阜県","city":"大垣市","address":"岐阜町"},
{"zip_code":"5030982","kana_pref":"ｷﾞﾌｹﾝ","kana_city":"ｵｵｶﾞｷｼ","kana_address":"ｷｭｳﾄｸﾁｮｳ","pref":"岐阜県","city":"大垣市","address":"久徳町"},
{"zip_code":"5030926","kana_pref":"ｷﾞﾌｹﾝ","kana_city":"ｵｵｶﾞｷｼ","kana_address":"ｷﾘｲｼﾁｮｳ","pref":"岐阜県","city":"大垣市","address":"切石町"},
{"zip_code":"5030904","kana_pref":"ｷﾞﾌｹﾝ","kana_city":"ｵｵｶﾞｷｼ","kana_address":"ｷﾘｶﾞｻｷﾁｮｳ","pref":"岐阜県","city":"大垣市","address":"桐ケ崎町"},
{"zip_code":"5030991","kana_pref":"ｷﾞﾌｹﾝ","kana_city":"ｵｵｶﾞｷｼ","kana_address":"ｷﾛﾁｮｳ","pref":"岐阜県","city":"大垣市","address":"木呂町"},
{"zip_code":"5030974","kana_pref":"ｷﾞﾌｹﾝ","kana_city":"ｵｵｶﾞｷｼ","kana_address":"ｸｾﾞｶﾞﾜﾁｮｳ","pref":"岐阜県","city":"大垣市","address":"久瀬川町"},
{"zip_code":"5030032","kana_pref":"ｷﾞﾌｹﾝ","kana_city":"ｵｵｶﾞｷｼ","kana_address":"ｸﾏﾉﾁｮｳ","pref":"岐阜県","city":"大垣市","address":"熊野町"},
{"zip_code":"5030902","kana_pref":"ｷﾞﾌｹﾝ","kana_city":"ｵｵｶﾞｷｼ","kana_address":"ｸﾘﾔﾁｮｳ","pref":"岐阜県","city":"大垣市","address":"栗屋町"},
{"zip_code":"5030887","kana_pref":"ｷﾞﾌｹﾝ","kana_city":"ｵｵｶﾞｷｼ","kana_address":"ｸﾙﾜﾏﾁ","pref":"岐阜県","city":"大垣市","address":"郭町"},
{"zip_code":"5030886","kana_pref":"ｷﾞﾌｹﾝ","kana_city":"ｵｵｶﾞｷｼ","kana_address":"ｸﾙﾜﾏﾁﾋｶﾞｼ","pref":"岐阜県","city":"大垣市","address":"郭町東"},
{"zip_code":"5030816","kana_pref":"ｷﾞﾌｹﾝ","kana_city":"ｵｵｶﾞｷｼ","kana_address":"ｺｲｽﾞﾐﾁｮｳ","pref":"岐阜県","city":"大垣市","address":"小泉町"},
{"zip_code":"5032203","kana_pref":"ｷﾞﾌｹﾝ","kana_city":"ｵｵｶﾞｷｼ","kana_address":"ｺｳﾌｸｼﾞﾁｮｳ","pref":"岐阜県","city":"大垣市","address":"興福地町"},
{"zip_code":"5030036","kana_pref":"ｷﾞﾌｹﾝ","kana_city":"ｵｵｶﾞｷｼ","kana_address":"ｺﾁﾏﾙ","pref":"岐阜県","city":"大垣市","address":"古知丸"},
{"zip_code":"5030877","kana_pref":"ｷﾞﾌｹﾝ","kana_city":"ｵｵｶﾞｷｼ","kana_address":"ｺﾞﾃﾝﾏﾁ","pref":"岐阜県","city":"大垣市","address":"御殿町"},
{"zip_code":"5030832","kana_pref":"ｷﾞﾌｹﾝ","kana_city":"ｵｵｶﾞｷｼ","kana_address":"ｺﾄﾌﾞｷﾁｮｳ","pref":"岐阜県","city":"大垣市","address":"寿町"},
{"zip_code":"5030803","kana_pref":"ｷﾞﾌｹﾝ","kana_city":"ｵｵｶﾞｷｼ","kana_address":"ｺﾉ","pref":"岐阜県","city":"大垣市","address":"小野"},
{"zip_code":"5030847","kana_pref":"ｷﾞﾌｹﾝ","kana_city":"ｵｵｶﾞｷｼ","kana_address":"ｺﾒﾉﾁｮｳ","pref":"岐阜県","city":"大垣市","address":"米野町"},
{"zip_code":"5030009","kana_pref":"ｷﾞﾌｹﾝ","kana_city":"ｵｵｶﾞｷｼ","kana_address":"ｻｶｼﾀﾁｮｳ","pref":"岐阜県","city":"大垣市","address":"坂下町"},
{"zip_code":"5030821","kana_pref":"ｷﾞﾌｹﾝ","kana_city":"ｵｵｶﾞｷｼ","kana_address":"ｻﾅｴﾁｮｳ","pref":"岐阜県","city":"大垣市","address":"早苗町"},
{"zip_code":"5030813","kana_pref":"ｷﾞﾌｹﾝ","kana_city":"ｵｵｶﾞｷｼ","kana_address":"ｻﾝﾎﾞﾝｷﾞ","pref":"岐阜県","city":"大垣市","address":"三本木"},
{"zip_code":"5030983","kana_pref":"ｷﾞﾌｹﾝ","kana_city":"ｵｵｶﾞｷｼ","kana_address":"ｼｽﾞｻﾄﾁｮｳ","pref":"岐阜県","city":"大垣市","address":"静里町"},
{"zip_code":"5030865","kana_pref":"ｷﾞﾌｹﾝ","kana_city":"ｵｵｶﾞｷｼ","kana_address":"ｼﾞﾅｲﾁｮｳ","pref":"岐阜県","city":"大垣市","address":"寺内町"},
{"zip_code":"5030935","kana_pref":"ｷﾞﾌｹﾝ","kana_city":"ｵｵｶﾞｷｼ","kana_address":"ｼﾏｻﾞﾄ","pref":"岐阜県","city":"大垣市","address":"島里"},
{"zip_code":"5030996","kana_pref":"ｷﾞﾌｹﾝ","kana_city":"ｵｵｶﾞｷｼ","kana_address":"ｼﾏﾁｮｳ","pref":"岐阜県","city":"大垣市","address":"島町"},
{"zip_code":"5030883","kana_pref":"ｷﾞﾌｹﾝ","kana_city":"ｵｵｶﾞｷｼ","kana_address":"ｼﾐｽﾞﾁｮｳ","pref":"岐阜県","city":"大垣市","address":"清水町"},
{"zip_code":"5030995","kana_pref":"ｷﾞﾌｹﾝ","kana_city":"ｵｵｶﾞｷｼ","kana_address":"ｼﾞｭｳﾛｸﾁｮｳ","pref":"岐阜県","city":"大垣市","address":"十六町"},
{"zip_code":"5030024","kana_pref":"ｷﾞﾌｹﾝ","kana_city":"ｵｵｶﾞｷｼ","kana_address":"ｼｭｸｼﾞﾁｮｳ","pref":"岐阜県","city":"大垣市","address":"宿地町"},
{"zip_code":"5030817","kana_pref":"ｷﾞﾌｹﾝ","kana_city":"ｵｵｶﾞｷｼ","kana_address":"ｼﾞｮｳﾒﾝ","pref":"岐阜県","city":"大垣市","address":"上面"},
{"zip_code":"5030942","kana_pref":"ｷﾞﾌｹﾝ","kana_city":"ｵｵｶﾞｷｼ","kana_address":"ｼｮｳﾜ","pref":"岐阜県","city":"大垣市","address":"昭和"},
{"zip_code":"5030004","kana_pref":"ｷﾞﾌｹﾝ","kana_city":"ｵｵｶﾞｷｼ","kana_address":"ｼﾝｶｲﾁｮｳ","pref":"岐阜県","city":"大垣市","address":"新開町"},
{"zip_code":"5030894","kana_pref":"ｷﾞﾌｹﾝ","kana_city":"ｵｵｶﾞｷｼ","kana_address":"ｼﾝﾁﾁｮｳ","pref":"岐阜県","city":"大垣市","address":"新地町"},
{"zip_code":"5030856","kana_pref":"ｷﾞﾌｹﾝ","kana_city":"ｵｵｶﾞｷｼ","kana_address":"ｼﾝﾃﾞﾝﾁｮｳ","pref":"岐阜県","city":"大垣市","address":"新田町"},
{"zip_code":"5030831","kana_pref":"ｷﾞﾌｹﾝ","kana_city":"ｵｵｶﾞｷｼ","kana_address":"ｼﾝﾅｶﾞｻﾜﾁｮｳ","pref":"岐阜県","city":"大垣市","address":"新長沢町"},
{"zip_code":"5030992","kana_pref":"ｷﾞﾌｹﾝ","kana_city":"ｵｵｶﾞｷｼ","kana_address":"ｼﾝﾅｶﾞﾏﾂ","pref":"岐阜県","city":"大垣市","address":"新長松"},
{"zip_code":"5030921","kana_pref":"ｷﾞﾌｹﾝ","kana_city":"ｵｵｶﾞｷｼ","kana_address":"ｼﾝﾊﾞﾊﾞﾁｮｳ","pref":"岐阜県","city":"大垣市","address":"新馬場町"},
{"zip_code":"5030872","kana_pref":"ｷﾞﾌｹﾝ","kana_city":"ｵｵｶﾞｷｼ","kana_address":"ｼﾝﾏﾁ","pref":"岐阜県","city":"大垣市","address":"新町"},
{"zip_code":"5032205","kana_pref":"ｷﾞﾌｹﾝ","kana_city":"ｵｵｶﾞｷｼ","kana_address":"ｼﾝﾒｲ","pref":"岐阜県","city":"大垣市","address":"神明"},
{"zip_code":"5032208","kana_pref":"ｷﾞﾌｹﾝ","kana_city":"ｵｵｶﾞｷｼ","kana_address":"ｽｶﾞﾉ","pref":"岐阜県","city":"大垣市","address":"菅野"},
{"zip_code":"5030815","kana_pref":"ｷﾞﾌｹﾝ","kana_city":"ｵｵｶﾞｷｼ","kana_address":"ｽｸﾞｴﾁｮｳ","pref":"岐阜県","city":"大垣市","address":"直江町"},
{"zip_code":"5030103","kana_pref":"ｷﾞﾌｹﾝ","kana_city":"ｵｵｶﾞｷｼ","kana_address":"ｽﾉﾏﾀﾁｮｳｶﾐｼﾞｭｸ","pref":"岐阜県","city":"大垣市","address":"墨俣町上宿"},
{"zip_code":"5030106","kana_pref":"ｷﾞﾌｹﾝ","kana_city":"ｵｵｶﾞｷｼ","kana_address":"ｽﾉﾏﾀﾁｮｳｻｲｶﾜ","pref":"岐阜県","city":"大垣市","address":"墨俣町さい川"},
{"zip_code":"5030104","kana_pref":"ｷﾞﾌｹﾝ","kana_city":"ｵｵｶﾞｷｼ","kana_address":"ｽﾉﾏﾀﾁｮｳｼﾓｼﾞｭｸ","pref":"岐阜県","city":"大垣市","address":"墨俣町下宿"},
{"zip_code":"5030102","kana_pref":"ｷﾞﾌｹﾝ","kana_city":"ｵｵｶﾞｷｼ","kana_address":"ｽﾉﾏﾀﾁｮｳｽﾉﾏﾀ","pref":"岐阜県","city":"大垣市","address":"墨俣町墨俣"},
{"zip_code":"5030101","kana_pref":"ｷﾞﾌｹﾝ","kana_city":"ｵｵｶﾞｷｼ","kana_address":"ｽﾉﾏﾀﾁｮｳｾﾝｲﾘｶﾀ","pref":"岐阜県","city":"大垣市","address":"墨俣町先入方"},
{"zip_code":"5030105","kana_pref":"ｷﾞﾌｹﾝ","kana_city":"ｵｵｶﾞｷｼ","kana_address":"ｽﾉﾏﾀﾁｮｳﾌﾀﾂｷﾞ","pref":"岐阜県","city":"大垣市","address":"墨俣町二ツ木"},
{"zip_code":"5030822","kana_pref":"ｷﾞﾌｹﾝ","kana_city":"ｵｵｶﾞｷｼ","kana_address":"ｽﾐﾖｼﾁｮｳ","pref":"岐阜県","city":"大垣市","address":"住吉町"},
{"zip_code":"5032201","kana_pref":"ｷﾞﾌｹﾝ","kana_city":"ｵｵｶﾞｷｼ","kana_address":"ｿｳﾄﾞｳｼﾞﾏﾁｮｳ","pref":"岐阜県","city":"大垣市","address":"草道島町"},
{"zip_code":"5030933","kana_pref":"ｷﾞﾌｹﾝ","kana_city":"ｵｵｶﾞｷｼ","kana_address":"ｿﾄﾉ","pref":"岐阜県","city":"大垣市","address":"外野"},
{"zip_code":"5030951","kana_pref":"ｷﾞﾌｹﾝ","kana_city":"ｵｵｶﾞｷｼ","kana_address":"ｿﾄﾉﾁｮｳ","pref":"岐阜県","city":"大垣市","address":"外野町"},
{"zip_code":"5030011","kana_pref":"ｷﾞﾌｹﾝ","kana_city":"ｵｵｶﾞｷｼ","kana_address":"ｿﾈﾁｮｳ","pref":"岐阜県","city":"大垣市","address":"曽根町"},
{"zip_code":"5030934","kana_pref":"ｷﾞﾌｹﾝ","kana_city":"ｵｵｶﾞｷｼ","kana_address":"ｿﾌﾞﾂ","pref":"岐阜県","city":"大垣市","address":"外渕"},
{"zip_code":"5030895","kana_pref":"ｷﾞﾌｹﾝ","kana_city":"ｵｵｶﾞｷｼ","kana_address":"ﾀﾞｲｶﾝﾁｮｳ","pref":"岐阜県","city":"大垣市","address":"代官町"},
{"zip_code":"5030889","kana_pref":"ｷﾞﾌｹﾝ","kana_city":"ｵｵｶﾞｷｼ","kana_address":"ﾀｶｻｺﾞﾁｮｳ","pref":"岐阜県","city":"大垣市","address":"高砂町"},
{"zip_code":"5030913","kana_pref":"ｷﾞﾌｹﾝ","kana_city":"ｵｵｶﾞｷｼ","kana_address":"ﾀｶｼﾞｮｳﾁｮｳ","pref":"岐阜県","city":"大垣市","address":"鷹匠町"},
{"zip_code":"5030896","kana_pref":"ｷﾞﾌｹﾝ","kana_city":"ｵｵｶﾞｷｼ","kana_address":"ﾀｶﾊｼﾁｮｳ","pref":"岐阜県","city":"大垣市","address":"高橋町"},
{"zip_code":"5030958","kana_pref":"ｷﾞﾌｹﾝ","kana_city":"ｵｵｶﾞｷｼ","kana_address":"ﾀｶﾌﾞﾁ","pref":"岐阜県","city":"大垣市","address":"高渕"},
{"zip_code":"5030959","kana_pref":"ｷﾞﾌｹﾝ","kana_city":"ｵｵｶﾞｷｼ","kana_address":"ﾀｶﾌﾞﾁﾁｮｳ","pref":"岐阜県","city":"大垣市","address":"高渕町"},
{"zip_code":"5030901","kana_pref":"ｷﾞﾌｹﾝ","kana_city":"ｵｵｶﾞｷｼ","kana_address":"ﾀｶﾔﾁｮｳ","pref":"岐阜県","city":"大垣市","address":"高屋町"},
{"zip_code":"5030965","kana_pref":"ｷﾞﾌｹﾝ","kana_city":"ｵｵｶﾞｷｼ","kana_address":"ﾀｷﾞｼﾏ","pref":"岐阜県","city":"大垣市","address":"多芸島"},
{"zip_code":"5030853","kana_pref":"ｷﾞﾌｹﾝ","kana_city":"ｵｵｶﾞｷｼ","kana_address":"ﾀｸﾞﾁﾁｮｳ","pref":"岐阜県","city":"大垣市","address":"田口町"},
{"zip_code":"5030878","kana_pref":"ｷﾞﾌｹﾝ","kana_city":"ｵｵｶﾞｷｼ","kana_address":"ﾀｹｼﾞﾏﾁｮｳ","pref":"岐阜県","city":"大垣市","address":"竹島町"},
{"zip_code":"5030892","kana_pref":"ｷﾞﾌｹﾝ","kana_city":"ｵｵｶﾞｷｼ","kana_address":"ﾀﾁﾊﾞﾅﾁｮｳ","pref":"岐阜県","city":"大垣市","address":"橘町"},
{"zip_code":"5030875","kana_pref":"ｷﾞﾌｹﾝ","kana_city":"ｵｵｶﾞｷｼ","kana_address":"ﾀﾏﾁ","pref":"岐阜県","city":"大垣市","address":"田町"},
{"zip_code":"5030876","kana_pref":"ｷﾞﾌｹﾝ","kana_city":"ｵｵｶﾞｷｼ","kana_address":"ﾀﾜﾗﾏﾁ","pref":"岐阜県","city":"大垣市","address":"俵町"},
{"zip_code":"5030891","kana_pref":"ｷﾞﾌｹﾝ","kana_city":"ｵｵｶﾞｷｼ","kana_address":"ﾁﾄﾞﾘﾁｮｳ","pref":"岐阜県","city":"大垣市","address":"千鳥町"},
{"zip_code":"5030854","kana_pref":"ｷﾞﾌｹﾝ","kana_city":"ｵｵｶﾞｷｼ","kana_address":"ﾂｷｽﾞﾃﾁｮｳ","pref":"岐阜県","city":"大垣市","address":"築捨町"},
{"zip_code":"5030003","kana_pref":"ｷﾞﾌｹﾝ","kana_city":"ｵｵｶﾞｷｼ","kana_address":"ﾂﾑﾗﾁｮｳ","pref":"岐阜県","city":"大垣市","address":"津村町"},
{"zip_code":"5030805","kana_pref":"ｷﾞﾌｹﾝ","kana_city":"ｵｵｶﾞｷｼ","kana_address":"ﾂﾙﾐﾁｮｳ","pref":"岐阜県","city":"大垣市","address":"鶴見町"},
{"zip_code":"5030897","kana_pref":"ｷﾞﾌｹﾝ","kana_city":"ｵｵｶﾞｷｼ","kana_address":"ﾃﾝﾏﾁｮｳ","pref":"岐阜県","city":"大垣市","address":"伝馬町"},
{"zip_code":"5030855","kana_pref":"ｷﾞﾌｹﾝ","kana_city":"ｵｵｶﾞｷｼ","kana_address":"ﾄｲﾔﾏﾁ","pref":"岐阜県","city":"大垣市","address":"問屋町"},
{"zip_code":"5030954","kana_pref":"ｷﾞﾌｹﾝ","kana_city":"ｵｵｶﾞｷｼ","kana_address":"ﾄﾊﾞﾅ","pref":"岐阜県","city":"大垣市","address":"外花"},
{"zip_code":"5030955","kana_pref":"ｷﾞﾌｹﾝ","kana_city":"ｵｵｶﾞｷｼ","kana_address":"ﾄﾓｴ","pref":"岐阜県","city":"大垣市","address":"友江"},
{"zip_code":"5030839","kana_pref":"ｷﾞﾌｹﾝ","kana_city":"ｵｵｶﾞｷｼ","kana_address":"ﾅｶﾞｲﾁｮｳ","pref":"岐阜県","city":"大垣市","address":"長井町"},
{"zip_code":"5030017","kana_pref":"ｷﾞﾌｹﾝ","kana_city":"ｵｵｶﾞｷｼ","kana_address":"ﾅｶｶﾞﾜﾁｮｳ","pref":"岐阜県","city":"大垣市","address":"中川町"},
{"zip_code":"5030833","kana_pref":"ｷﾞﾌｹﾝ","kana_city":"ｵｵｶﾞｷｼ","kana_address":"ﾅｶﾞｻﾜﾁｮｳ","pref":"岐阜県","city":"大垣市","address":"長沢町"},
{"zip_code":"5030986","kana_pref":"ｷﾞﾌｹﾝ","kana_city":"ｵｵｶﾞｷｼ","kana_address":"ﾅｶｿﾞﾈﾁｮｳ","pref":"岐阜県","city":"大垣市","address":"中曽根町"},
{"zip_code":"5030804","kana_pref":"ｷﾞﾌｹﾝ","kana_city":"ｵｵｶﾞｷｼ","kana_address":"ﾅｶﾉｴ","pref":"岐阜県","city":"大垣市","address":"中ノ江"},
{"zip_code":"5030022","kana_pref":"ｷﾞﾌｹﾝ","kana_city":"ｵｵｶﾞｷｼ","kana_address":"ﾅｶﾉﾁｮｳ","pref":"岐阜県","city":"大垣市","address":"中野町"},
{"zip_code":"5030884","kana_pref":"ｷﾞﾌｹﾝ","kana_city":"ｵｵｶﾞｷｼ","kana_address":"ﾅｶﾏﾁ","pref":"岐阜県","city":"大垣市","address":"中町"},
{"zip_code":"5030997","kana_pref":"ｷﾞﾌｹﾝ","kana_city":"ｵｵｶﾞｷｼ","kana_address":"ﾅｶﾞﾏﾂﾁｮｳ","pref":"岐阜県","city":"大垣市","address":"長松町"},
{"zip_code":"5030844","kana_pref":"ｷﾞﾌｹﾝ","kana_city":"ｵｵｶﾞｷｼ","kana_address":"ﾅﾝﾊﾞﾉﾁｮｳ","pref":"岐阜県","city":"大垣市","address":"難波野町"},
{"zip_code":"5030963","kana_pref":"ｷﾞﾌｹﾝ","kana_city":"ｵｵｶﾞｷｼ","kana_address":"ﾆｼｵｵﾄﾊﾞ","pref":"岐阜県","city":"大垣市","address":"西大外羽"},
{"zip_code":"5030899","kana_pref":"ｷﾞﾌｹﾝ","kana_city":"ｵｵｶﾞｷｼ","kana_address":"ﾆｼｷﾏﾁ","pref":"岐阜県","city":"大垣市","address":"錦町"},
{"zip_code":"5030918","kana_pref":"ｷﾞﾌｹﾝ","kana_city":"ｵｵｶﾞｷｼ","kana_address":"ﾆｼｻﾞｷﾁｮｳ","pref":"岐阜県","city":"大垣市","address":"西崎町"},
{"zip_code":"5030908","kana_pref":"ｷﾞﾌｹﾝ","kana_city":"ｵｵｶﾞｷｼ","kana_address":"ﾆｼﾄｶﾞﾜﾁｮｳ","pref":"岐阜県","city":"大垣市","address":"西外側町"},
{"zip_code":"5030914","kana_pref":"ｷﾞﾌｹﾝ","kana_city":"ｵｵｶﾞｷｼ","kana_address":"ﾆｼﾅｶﾞﾁｮｳ","pref":"岐阜県","city":"大垣市","address":"西長町"},
{"zip_code":"5030018","kana_pref":"ｷﾞﾌｹﾝ","kana_city":"ｵｵｶﾞｷｼ","kana_address":"ﾆｼﾉｶﾜﾁｮｳ","pref":"岐阜県","city":"大垣市","address":"西之川町"},
{"zip_code":"5030851","kana_pref":"ｷﾞﾌｹﾝ","kana_city":"ｵｵｶﾞｷｼ","kana_address":"ﾉｷﾞﾉﾓﾘ","pref":"岐阜県","city":"大垣市","address":"禾森"},
{"zip_code":"5030852","kana_pref":"ｷﾞﾌｹﾝ","kana_city":"ｵｵｶﾞｷｼ","kana_address":"ﾉｷﾞﾉﾓﾘﾁｮｳ","pref":"岐阜県","city":"大垣市","address":"禾森町"},
{"zip_code":"5030985","kana_pref":"ｷﾞﾌｹﾝ","kana_city":"ｵｵｶﾞｷｼ","kana_address":"ﾉｸﾞﾁ","pref":"岐阜県","city":"大垣市","address":"野口"},
{"zip_code":"5030861","kana_pref":"ｷﾞﾌｹﾝ","kana_city":"ｵｵｶﾞｷｼ","kana_address":"ﾊｺﾞﾛﾓﾁｮｳ","pref":"岐阜県","city":"大垣市","address":"羽衣町"},
{"zip_code":"5030811","kana_pref":"ｷﾞﾌｹﾝ","kana_city":"ｵｵｶﾞｷｼ","kana_address":"ﾊｽ","pref":"岐阜県","city":"大垣市","address":"波須"},
{"zip_code":"5030912","kana_pref":"ｷﾞﾌｹﾝ","kana_city":"ｵｵｶﾞｷｼ","kana_address":"ﾊﾄﾍﾞﾔﾁｮｳ","pref":"岐阜県","city":"大垣市","address":"鳩部屋町"},
{"zip_code":"5030825","kana_pref":"ｷﾞﾌｹﾝ","kana_city":"ｵｵｶﾞｷｼ","kana_address":"ﾊﾅｿﾞﾉﾁｮｳ","pref":"岐阜県","city":"大垣市","address":"花園町"},
{"zip_code":"5030922","kana_pref":"ｷﾞﾌｹﾝ","kana_city":"ｵｵｶﾞｷｼ","kana_address":"ﾊﾞﾊﾞﾁｮｳ","pref":"岐阜県","city":"大垣市","address":"馬場町"},
{"zip_code":"5030015","kana_pref":"ｷﾞﾌｹﾝ","kana_city":"ｵｵｶﾞｷｼ","kana_address":"ﾊﾔｼﾏﾁ","pref":"岐阜県","city":"大垣市","address":"林町"},
{"zip_code":"5030907","kana_pref":"ｷﾞﾌｹﾝ","kana_city":"ｵｵｶﾞｷｼ","kana_address":"ﾊﾞﾝｸﾞﾐﾁｮｳ","pref":"岐阜県","city":"大垣市","address":"番組町"},
{"zip_code":"5030903","kana_pref":"ｷﾞﾌｹﾝ","kana_city":"ｵｵｶﾞｷｼ","kana_address":"ﾋｶﾞｼﾄｶﾞﾜﾁｮｳ","pref":"岐阜県","city":"大垣市","address":"東外側町"},
{"zip_code":"5030882","kana_pref":"ｷﾞﾌｹﾝ","kana_city":"ｵｵｶﾞｷｼ","kana_address":"ﾋｶﾞｼﾅｶﾞﾁｮｳ","pref":"岐阜県","city":"大垣市","address":"東長町"},
{"zip_code":"5030835","kana_pref":"ｷﾞﾌｹﾝ","kana_city":"ｵｵｶﾞｷｼ","kana_address":"ﾋｶﾞｼﾏｴ","pref":"岐阜県","city":"大垣市","address":"東前"},
{"zip_code":"5030849","kana_pref":"ｷﾞﾌｹﾝ","kana_city":"ｵｵｶﾞｷｼ","kana_address":"ﾋｶﾞｼﾏｴﾁｮｳ","pref":"岐阜県","city":"大垣市","address":"東前町"},
{"zip_code":"5030981","kana_pref":"ｷﾞﾌｹﾝ","kana_city":"ｵｵｶﾞｷｼ","kana_address":"ﾋﾉｷﾁｮｳ","pref":"岐阜県","city":"大垣市","address":"桧町"},
{"zip_code":"5030916","kana_pref":"ｷﾞﾌｹﾝ","kana_city":"ｵｵｶﾞｷｼ","kana_address":"ﾋﾉﾃﾞﾁｮｳ","pref":"岐阜県","city":"大垣市","address":"日の出町"},
{"zip_code":"5030141","kana_pref":"ｷﾞﾌｹﾝ","kana_city":"ｵｵｶﾞｷｼ","kana_address":"ﾋﾗﾏﾁ","pref":"岐阜県","city":"大垣市","address":"平町"},
{"zip_code":"5030841","kana_pref":"ｷﾞﾌｹﾝ","kana_city":"ｵｵｶﾞｷｼ","kana_address":"ﾋﾗﾏﾁ","pref":"岐阜県","city":"大垣市","address":"平町"},
{"zip_code":"5032216","kana_pref":"ｷﾞﾌｹﾝ","kana_city":"ｵｵｶﾞｷｼ","kana_address":"ﾋﾙｲﾁｮｳ","pref":"岐阜県","city":"大垣市","address":"昼飯町"},
{"zip_code":"5030846","kana_pref":"ｷﾞﾌｹﾝ","kana_city":"ｵｵｶﾞｷｼ","kana_address":"ﾌｶｲｹﾁｮｳ","pref":"岐阜県","city":"大垣市","address":"深池町"},
{"zip_code":"5030033","kana_pref":"ｷﾞﾌｹﾝ","kana_city":"ｵｵｶﾞｷｼ","kana_address":"ﾌｸﾀﾁｮｳ","pref":"岐阜県","city":"大垣市","address":"福田町"},
{"zip_code":"5030893","kana_pref":"ｷﾞﾌｹﾝ","kana_city":"ｵｵｶﾞｷｼ","kana_address":"ﾌｼﾞｴﾁｮｳ","pref":"岐阜県","city":"大垣市","address":"藤江町"},
{"zip_code":"5030862","kana_pref":"ｷﾞﾌｹﾝ","kana_city":"ｵｵｶﾞｷｼ","kana_address":"ﾌﾀﾊﾞﾁｮｳ","pref":"岐阜県","city":"大垣市","address":"二葉町"},
{"zip_code":"5030923","kana_pref":"ｷﾞﾌｹﾝ","kana_city":"ｵｵｶﾞｷｼ","kana_address":"ﾌﾅﾏﾁ","pref":"岐阜県","city":"大垣市","address":"船町"},
{"zip_code":"5030848","kana_pref":"ｷﾞﾌｹﾝ","kana_city":"ｵｵｶﾞｷｼ","kana_address":"ﾌﾙﾐﾔﾁｮｳ","pref":"岐阜県","city":"大垣市","address":"古宮町"},
{"zip_code":"5030972","kana_pref":"ｷﾞﾌｹﾝ","kana_city":"ｵｵｶﾞｷｼ","kana_address":"ﾎｳﾜﾁｮｳ","pref":"岐阜県","city":"大垣市","address":"宝和町"},
{"zip_code":"5030885","kana_pref":"ｷﾞﾌｹﾝ","kana_city":"ｵｵｶﾞｷｼ","kana_address":"ﾎﾝﾏﾁ","pref":"岐阜県","city":"大垣市","address":"本町"},
{"zip_code":"5030845","kana_pref":"ｷﾞﾌｹﾝ","kana_city":"ｵｵｶﾞｷｼ","kana_address":"ﾏｷｼﾝﾃﾞﾝﾁｮｳ","pref":"岐阜県","city":"大垣市","address":"牧新田町"},
{"zip_code":"5030031","kana_pref":"ｷﾞﾌｹﾝ","kana_city":"ｵｵｶﾞｷｼ","kana_address":"ﾏｷﾉﾁｮｳ","pref":"岐阜県","city":"大垣市","address":"牧野町"},
{"zip_code":"5030888","kana_pref":"ｷﾞﾌｹﾝ","kana_city":"ｵｵｶﾞｷｼ","kana_address":"ﾏﾙﾉｳﾁ","pref":"岐阜県","city":"大垣市","address":"丸の内"},
{"zip_code":"5030812","kana_pref":"ｷﾞﾌｹﾝ","kana_city":"ｵｵｶﾞｷｼ","kana_address":"ﾏﾝｺﾞｸ","pref":"岐阜県","city":"大垣市","address":"万石"},
{"zip_code":"5030808","kana_pref":"ｷﾞﾌｹﾝ","kana_city":"ｵｵｶﾞｷｼ","kana_address":"ﾐﾂﾂﾞｶﾁｮｳ","pref":"岐阜県","city":"大垣市","address":"三塚町"},
{"zip_code":"5030012","kana_pref":"ｷﾞﾌｹﾝ","kana_city":"ｵｵｶﾞｷｼ","kana_address":"ﾐﾂﾔﾁｮｳ","pref":"岐阜県","city":"大垣市","address":"三津屋町"},
{"zip_code":"5030806","kana_pref":"ｷﾞﾌｹﾝ","kana_city":"ｵｵｶﾞｷｼ","kana_address":"ﾐﾄﾞﾘｴﾝ","pref":"岐阜県","city":"大垣市","address":"緑園"},
{"zip_code":"5030025","kana_pref":"ｷﾞﾌｹﾝ","kana_city":"ｵｵｶﾞｷｼ","kana_address":"ﾐﾄﾞﾘﾁｮｳ","pref":"岐阜県","city":"大垣市","address":"見取町"},
{"zip_code":"5032211","kana_pref":"ｷﾞﾌｹﾝ","kana_city":"ｵｵｶﾞｷｼ","kana_address":"ﾐﾅﾐｲﾁﾊｼﾁｮｳ","pref":"岐阜県","city":"大垣市","address":"南市橋町"},
{"zip_code":"5030971","kana_pref":"ｷﾞﾌｹﾝ","kana_city":"ｵｵｶﾞｷｼ","kana_address":"ﾐﾅﾐｲｯｼｷﾁｮｳ","pref":"岐阜県","city":"大垣市","address":"南一色町"},
{"zip_code":"5030925","kana_pref":"ｷﾞﾌｹﾝ","kana_city":"ｵｵｶﾞｷｼ","kana_address":"ﾐﾅﾐｷﾘｲｼﾁｮｳ","pref":"岐阜県","city":"大垣市","address":"南切石町"},
{"zip_code":"5030873","kana_pref":"ｷﾞﾌｹﾝ","kana_city":"ｵｵｶﾞｷｼ","kana_address":"ﾐﾅﾐﾀｶﾊｼﾁｮｳ","pref":"岐阜県","city":"大垣市","address":"南高橋町"},
{"zip_code":"5030864","kana_pref":"ｷﾞﾌｹﾝ","kana_city":"ｵｵｶﾞｷｼ","kana_address":"ﾐﾅﾐﾉｶﾜﾁｮｳ","pref":"岐阜県","city":"大垣市","address":"南頬町"},
{"zip_code":"5030977","kana_pref":"ｷﾞﾌｹﾝ","kana_city":"ｵｵｶﾞｷｼ","kana_address":"ﾐﾅﾐﾜｶﾓﾘ","pref":"岐阜県","city":"大垣市","address":"南若森"},
{"zip_code":"5030976","kana_pref":"ｷﾞﾌｹﾝ","kana_city":"ｵｵｶﾞｷｼ","kana_address":"ﾐﾅﾐﾜｶﾓﾘﾁｮｳ","pref":"岐阜県","city":"大垣市","address":"南若森町"},
{"zip_code":"5030905","kana_pref":"ｷﾞﾌｹﾝ","kana_city":"ｵｵｶﾞｷｼ","kana_address":"ﾐﾔﾏﾁ","pref":"岐阜県","city":"大垣市","address":"宮町"},
{"zip_code":"5030857","kana_pref":"ｷﾞﾌｹﾝ","kana_city":"ｵｵｶﾞｷｼ","kana_address":"ﾐﾜﾁｮｳ","pref":"岐阜県","city":"大垣市","address":"美和町"},
{"zip_code":"5030911","kana_pref":"ｷﾞﾌｹﾝ","kana_city":"ｵｵｶﾞｷｼ","kana_address":"ﾑﾛﾎﾝﾏﾁ","pref":"岐阜県","city":"大垣市","address":"室本町"},
{"zip_code":"5030906","kana_pref":"ｷﾞﾌｹﾝ","kana_city":"ｵｵｶﾞｷｼ","kana_address":"ﾑﾛﾏﾁ","pref":"岐阜県","city":"大垣市","address":"室町"},
{"zip_code":"5030026","kana_pref":"ｷﾞﾌｹﾝ","kana_city":"ｵｵｶﾞｷｼ","kana_address":"ﾑﾛﾑﾗﾁｮｳ","pref":"岐阜県","city":"大垣市","address":"室村町"},
{"zip_code":"5030931","kana_pref":"ｷﾞﾌｹﾝ","kana_city":"ｵｵｶﾞｷｼ","kana_address":"ﾓﾄｲﾏ","pref":"岐阜県","city":"大垣市","address":"本今"},
{"zip_code":"5030932","kana_pref":"ｷﾞﾌｹﾝ","kana_city":"ｵｵｶﾞｷｼ","kana_address":"ﾓﾄｲﾏﾁｮｳ","pref":"岐阜県","city":"大垣市","address":"本今町"},
{"zip_code":"5030016","kana_pref":"ｷﾞﾌｹﾝ","kana_city":"ｵｵｶﾞｷｼ","kana_address":"ﾔｼﾏﾁｮｳ","pref":"岐阜県","city":"大垣市","address":"八島町"},
{"zip_code":"5030837","kana_pref":"ｷﾞﾌｹﾝ","kana_city":"ｵｵｶﾞｷｼ","kana_address":"ﾔｽｲﾁｮｳ","pref":"岐阜県","city":"大垣市","address":"安井町"},
{"zip_code":"5032223","kana_pref":"ｷﾞﾌｹﾝ","kana_city":"ｵｵｶﾞｷｼ","kana_address":"ﾔﾐﾁﾁｮｳ","pref":"岐阜県","city":"大垣市","address":"矢道町"},
{"zip_code":"5030944","kana_pref":"ｷﾞﾌｹﾝ","kana_city":"ｵｵｶﾞｷｼ","kana_address":"ﾖｺｿﾞﾈ","pref":"岐阜県","city":"大垣市","address":"横曽根"},
{"zip_code":"5030943","kana_pref":"ｷﾞﾌｹﾝ","kana_city":"ｵｵｶﾞｷｼ","kana_address":"ﾖｺｿﾞﾈﾁｮｳ","pref":"岐阜県","city":"大垣市","address":"横曽根町"},
{"zip_code":"5032222","kana_pref":"ｷﾞﾌｹﾝ","kana_city":"ｵｵｶﾞｷｼ","kana_address":"ﾖﾉｷﾄﾞﾁｮｳ","pref":"岐阜県","city":"大垣市","address":"榎戸町"},
{"zip_code":"5030858","kana_pref":"ｷﾞﾌｹﾝ","kana_city":"ｵｵｶﾞｷｼ","kana_address":"ﾖﾔｽﾁｮｳ","pref":"岐阜県","city":"大垣市","address":"世安町"},
{"zip_code":"5030014","kana_pref":"ｷﾞﾌｹﾝ","kana_city":"ｵｵｶﾞｷｼ","kana_address":"ﾘｮｳｹﾁｮｳ","pref":"岐阜県","city":"大垣市","address":"領家町"},
{"zip_code":"5030975","kana_pref":"ｷﾞﾌｹﾝ","kana_city":"ｵｵｶﾞｷｼ","kana_address":"ﾜｶﾓﾘﾁｮｳ","pref":"岐阜県","city":"大垣市","address":"若森町"},
{"zip_code":"5030801","kana_pref":"ｷﾞﾌｹﾝ","kana_city":"ｵｵｶﾞｷｼ","kana_address":"ﾜｺﾞｳｼﾝﾏﾁ","pref":"岐阜県","city":"大垣市","address":"和合新町"},
{"zip_code":"5030005","kana_pref":"ｷﾞﾌｹﾝ","kana_city":"ｵｵｶﾞｷｼ","kana_address":"ﾜｺﾞｳﾎﾝﾏﾁ","pref":"岐阜県","city":"大垣市","address":"和合本町"},
{"zip_code":"5030953","kana_pref":"ｷﾞﾌｹﾝ","kana_city":"ｵｵｶﾞｷｼ","kana_address":"ﾜﾘﾃﾞﾝ","pref":"岐阜県","city":"大垣市","address":"割田"},
{"zip_code":"5030952","kana_pref":"ｷﾞﾌｹﾝ","kana_city":"ｵｵｶﾞｷｼ","kana_address":"ﾜﾘﾃﾞﾝﾁｮｳ","pref":"岐阜県","city":"大垣市","address":"割田町"},
{"zip_code":"5030600","kana_pref":"ｷﾞﾌｹﾝ","kana_city":"ｶｲﾂﾞｼ","kana_address":"","pref":"岐阜県","city":"海津市","address":""},
{"zip_code":"5030611","kana_pref":"ｷﾞﾌｹﾝ","kana_city":"ｶｲﾂﾞｼ","kana_address":"ｶｲﾂﾞﾁｮｳｱｷｴ","pref":"岐阜県","city":"海津市","address":"海津町秋江"},
{"zip_code":"5030625","kana_pref":"ｷﾞﾌｹﾝ","kana_city":"ｶｲﾂﾞｼ","kana_address":"ｶｲﾂﾞﾁｮｳｱﾌﾞﾗｼﾞﾏ","pref":"岐阜県","city":"海津市","address":"海津町油島"},
{"zip_code":"5030629","kana_pref":"ｷﾞﾌｹﾝ","kana_city":"ｶｲﾂﾞｼ","kana_address":"ｶｲﾂﾞﾁｮｳｲｼｶﾞﾒ","pref":"岐阜県","city":"海津市","address":"海津町石亀"},
{"zip_code":"5030631","kana_pref":"ｷﾞﾌｹﾝ","kana_city":"ｶｲﾂﾞｼ","kana_address":"ｶｲﾂﾞﾁｮｳｲﾅﾔﾏ","pref":"岐阜県","city":"海津市","address":"海津町稲山"},
{"zip_code":"5030635","kana_pref":"ｷﾞﾌｹﾝ","kana_city":"ｶｲﾂﾞｼ","kana_address":"ｶｲﾂﾞﾁｮｳｴﾋｶﾞｼ","pref":"岐阜県","city":"海津市","address":"海津町江東"},
{"zip_code":"5030612","kana_pref":"ｷﾞﾌｹﾝ","kana_city":"ｶｲﾂﾞｼ","kana_address":"ｶｲﾂﾞﾁｮｳｵﾜﾀﾞ","pref":"岐阜県","city":"海津市","address":"海津町大和田"},
{"zip_code":"5030624","kana_pref":"ｷﾞﾌｹﾝ","kana_city":"ｶｲﾂﾞｼ","kana_address":"ｶｲﾂﾞﾁｮｳｶﾅﾏﾜﾘ","pref":"岐阜県","city":"海津市","address":"海津町金廻"},
{"zip_code":"5030608","kana_pref":"ｷﾞﾌｹﾝ","kana_city":"ｶｲﾂﾞｼ","kana_address":"ｶｲﾂﾞﾁｮｳｶﾉ","pref":"岐阜県","city":"海津市","address":"海津町鹿野"},
{"zip_code":"5030603","kana_pref":"ｷﾞﾌｹﾝ","kana_city":"ｶｲﾂﾞｼ","kana_address":"ｶｲﾂﾞﾁｮｳｶﾐｷﾞﾘ","pref":"岐阜県","city":"海津市","address":"海津町神桐"},
{"zip_code":"5030646","kana_pref":"ｷﾞﾌｹﾝ","kana_city":"ｶｲﾂﾞｼ","kana_address":"ｶｲﾂﾞﾁｮｳｶﾔﾉ","pref":"岐阜県","city":"海津市","address":"海津町萱野"},
{"zip_code":"5030618","kana_pref":"ｷﾞﾌｹﾝ","kana_city":"ｶｲﾂﾞｼ","kana_address":"ｶｲﾂﾞﾁｮｳｸｻﾊﾞ","pref":"岐阜県","city":"海津市","address":"海津町草場"},
{"zip_code":"5030645","kana_pref":"ｷﾞﾌｹﾝ","kana_city":"ｶｲﾂﾞｼ","kana_address":"ｶｲﾂﾞﾁｮｳｺﾞﾁｮｳ","pref":"岐阜県","city":"海津市","address":"海津町五町"},
{"zip_code":"5030613","kana_pref":"ｷﾞﾌｹﾝ","kana_city":"ｶｲﾂﾞｼ","kana_address":"ｶｲﾂﾞﾁｮｳｺﾏｶﾞｴ","pref":"岐阜県","city":"海津市","address":"海津町駒ケ江"},
{"zip_code":"5030627","kana_pref":"ｷﾞﾌｹﾝ","kana_city":"ｶｲﾂﾞｼ","kana_address":"ｶｲﾂﾞﾁｮｳｼﾁｳｴﾓﾝｼﾝﾃﾞﾝ","pref":"岐阜県","city":"海津市","address":"海津町七右衛門新田"},
{"zip_code":"5030602","kana_pref":"ｷﾞﾌｹﾝ","kana_city":"ｶｲﾂﾞｼ","kana_address":"ｶｲﾂﾞﾁｮｳｾｺ","pref":"岐阜県","city":"海津市","address":"海津町瀬古"},
{"zip_code":"5030621","kana_pref":"ｷﾞﾌｹﾝ","kana_city":"ｶｲﾂﾞｼ","kana_address":"ｶｲﾂﾞﾁｮｳｿﾄﾊﾏ","pref":"岐阜県","city":"海津市","address":"海津町外浜"},
{"zip_code":"5030654","kana_pref":"ｷﾞﾌｹﾝ","kana_city":"ｶｲﾂﾞｼ","kana_address":"ｶｲﾂﾞﾁｮｳﾀｶｽ","pref":"岐阜県","city":"海津市","address":"海津町高須"},
{"zip_code":"5030653","kana_pref":"ｷﾞﾌｹﾝ","kana_city":"ｶｲﾂﾞｼ","kana_address":"ｶｲﾂﾞﾁｮｳﾀｶｽﾏﾁ","pref":"岐阜県","city":"海津市","address":"海津町高須町"},
{"zip_code":"5030617","kana_pref":"ｷﾞﾌｹﾝ","kana_city":"ｶｲﾂﾞｼ","kana_address":"ｶｲﾂﾞﾁｮｳﾀﾃﾉ","pref":"岐阜県","city":"海津市","address":"海津町立野"},
{"zip_code":"5030606","kana_pref":"ｷﾞﾌｹﾝ","kana_city":"ｶｲﾂﾞｼ","kana_address":"ｶｲﾂﾞﾁｮｳﾀﾅｶ","pref":"岐阜県","city":"海津市","address":"海津町田中"},
{"zip_code":"5030641","kana_pref":"ｷﾞﾌｹﾝ","kana_city":"ｶｲﾂﾞｼ","kana_address":"ｶｲﾂﾞﾁｮｳﾅｲｷ","pref":"岐阜県","city":"海津市","address":"海津町内記"},
{"zip_code":"5030616","kana_pref":"ｷﾞﾌｹﾝ","kana_city":"ｶｲﾂﾞｼ","kana_address":"ｶｲﾂﾞﾁｮｳﾅｶﾞｸﾎﾞ","pref":"岐阜県","city":"海津市","address":"海津町長久保"},
{"zip_code":"5030614","kana_pref":"ｷﾞﾌｹﾝ","kana_city":"ｶｲﾂﾞｼ","kana_address":"ｶｲﾂﾞﾁｮｳﾅｶﾞｾ","pref":"岐阜県","city":"海津市","address":"海津町長瀬"},
{"zip_code":"5030604","kana_pref":"ｷﾞﾌｹﾝ","kana_city":"ｶｲﾂﾞｼ","kana_address":"ｶｲﾂﾞﾁｮｳﾅﾘﾄ","pref":"岐阜県","city":"海津市","address":"海津町成戸"},
{"zip_code":"5030648","kana_pref":"ｷﾞﾌｹﾝ","kana_city":"ｶｲﾂﾞｼ","kana_address":"ｶｲﾂﾞﾁｮｳﾆｼｵｼﾞﾏ","pref":"岐阜県","city":"海津市","address":"海津町西小島"},
{"zip_code":"5030634","kana_pref":"ｷﾞﾌｹﾝ","kana_city":"ｶｲﾂﾞｼ","kana_address":"ｶｲﾂﾞﾁｮｳﾇﾏｼﾝﾃﾞﾝ","pref":"岐阜県","city":"海津市","address":"海津町沼新田"},
{"zip_code":"5030647","kana_pref":"ｷﾞﾌｹﾝ","kana_city":"ｶｲﾂﾞｼ","kana_address":"ｶｲﾂﾞﾁｮｳﾋｶﾞｼｵｼﾞﾏ","pref":"岐阜県","city":"海津市","address":"海津町東小島"},
{"zip_code":"5030651","kana_pref":"ｷﾞﾌｹﾝ","kana_city":"ｶｲﾂﾞｼ","kana_address":"ｶｲﾂﾞﾁｮｳﾋﾗﾊﾗ","pref":"岐阜県","city":"海津市","address":"海津町平原"},
{"zip_code":"5030615","kana_pref":"ｷﾞﾌｹﾝ","kana_city":"ｶｲﾂﾞｼ","kana_address":"ｶｲﾂﾞﾁｮｳﾋﾜﾗ","pref":"岐阜県","city":"海津市","address":"海津町日原"},
{"zip_code":"5030644","kana_pref":"ｷﾞﾌｹﾝ","kana_city":"ｶｲﾂﾞｼ","kana_address":"ｶｲﾂﾞﾁｮｳﾌｶﾊﾏ","pref":"岐阜県","city":"海津市","address":"海津町深浜"},
{"zip_code":"5030605","kana_pref":"ｷﾞﾌｹﾝ","kana_city":"ｶｲﾂﾞｼ","kana_address":"ｶｲﾂﾞﾁｮｳﾌｸｲｼｷ","pref":"岐阜県","city":"海津市","address":"海津町福一色"},
{"zip_code":"5030628","kana_pref":"ｷﾞﾌｹﾝ","kana_city":"ｶｲﾂﾞｼ","kana_address":"ｶｲﾂﾞﾁｮｳﾌｸｴ","pref":"岐阜県","city":"海津市","address":"海津町福江"},
{"zip_code":"5030655","kana_pref":"ｷﾞﾌｹﾝ","kana_city":"ｶｲﾂﾞｼ","kana_address":"ｶｲﾂﾞﾁｮｳﾌｸｵｶ","pref":"岐阜県","city":"海津市","address":"海津町福岡"},
{"zip_code":"5030643","kana_pref":"ｷﾞﾌｹﾝ","kana_city":"ｶｲﾂﾞｼ","kana_address":"ｶｲﾂﾞﾁｮｳﾌﾀﾞﾉ","pref":"岐阜県","city":"海津市","address":"海津町札野"},
{"zip_code":"5030623","kana_pref":"ｷﾞﾌｹﾝ","kana_city":"ｶｲﾂﾞｼ","kana_address":"ｶｲﾂﾞﾁｮｳﾌﾙﾅｶｼﾞﾏ","pref":"岐阜県","city":"海津市","address":"海津町古中島"},
{"zip_code":"5030636","kana_pref":"ｷﾞﾌｹﾝ","kana_city":"ｶｲﾂﾞｼ","kana_address":"ｶｲﾂﾞﾁｮｳﾎﾋﾞｷｼﾝﾃﾞﾝ","pref":"岐阜県","city":"海津市","address":"海津町帆引新田"},
{"zip_code":"5030633","kana_pref":"ｷﾞﾌｹﾝ","kana_city":"ｶｲﾂﾞｼ","kana_address":"ｶｲﾂﾞﾁｮｳﾎﾝﾅﾐｼﾝﾃﾞﾝ","pref":"岐阜県","city":"海津市","address":"海津町本阿弥新田"},
{"zip_code":"5030601","kana_pref":"ｷﾞﾌｹﾝ","kana_city":"ｶｲﾂﾞｼ","kana_address":"ｶｲﾂﾞﾁｮｳﾏﾂﾉｷ","pref":"岐阜県","city":"海津市","address":"海津町松木"},
{"zip_code":"5030652","kana_pref":"ｷﾞﾌｹﾝ","kana_city":"ｶｲﾂﾞｼ","kana_address":"ｶｲﾂﾞﾁｮｳﾏﾉﾒ","pref":"岐阜県","city":"海津市","address":"海津町馬目"},
{"zip_code":"5030626","kana_pref":"ｷﾞﾌｹﾝ","kana_city":"ｶｲﾂﾞｼ","kana_address":"ｶｲﾂﾞﾁｮｳﾏﾝｼﾞｭｼﾝﾃﾞﾝ","pref":"岐阜県","city":"海津市","address":"海津町万寿新田"},
{"zip_code":"5030632","kana_pref":"ｷﾞﾌｹﾝ","kana_city":"ｶｲﾂﾞｼ","kana_address":"ｶｲﾂﾞﾁｮｳﾐﾔｼﾞ","pref":"岐阜県","city":"海津市","address":"海津町宮地"},
{"zip_code":"5030622","kana_pref":"ｷﾞﾌｹﾝ","kana_city":"ｶｲﾂﾞｼ","kana_address":"ｶｲﾂﾞﾁｮｳﾓﾘｼﾀ","pref":"岐阜県","city":"海津市","address":"海津町森下"},
{"zip_code":"5030637","kana_pref":"ｷﾞﾌｹﾝ","kana_city":"ｶｲﾂﾞｼ","kana_address":"ｶｲﾂﾞﾁｮｳﾔｽﾀﾞ","pref":"岐阜県","city":"海津市","address":"海津町安田"},
{"zip_code":"5030638","kana_pref":"ｷﾞﾌｹﾝ","kana_city":"ｶｲﾂﾞｼ","kana_address":"ｶｲﾂﾞﾁｮｳﾔｽﾀﾞｼﾝﾃﾞﾝ","pref":"岐阜県","city":"海津市","address":"海津町安田新田"},
{"zip_code":"5030414","kana_pref":"ｷﾞﾌｹﾝ","kana_city":"ｶｲﾂﾞｼ","kana_address":"ﾅﾝﾉｳﾁｮｳｳｴﾉｺｳｽﾞ","pref":"岐阜県","city":"海津市","address":"南濃町上野河戸"},
{"zip_code":"5030532","kana_pref":"ｷﾞﾌｹﾝ","kana_city":"ｶｲﾂﾞｼ","kana_address":"ﾅﾝﾉｳﾁｮｳｵｵﾀ","pref":"岐阜県","city":"海津市","address":"南濃町太田"},
{"zip_code":"5030412","kana_pref":"ｷﾞﾌｹﾝ","kana_city":"ｶｲﾂﾞｼ","kana_address":"ﾅﾝﾉｳﾁｮｳｵｸｼﾞｮｳ","pref":"岐阜県","city":"海津市","address":"南濃町奥条"},
{"zip_code":"5030411","kana_pref":"ｷﾞﾌｹﾝ","kana_city":"ｶｲﾂﾞｼ","kana_address":"ﾅﾝﾉｳﾁｮｳｺﾏﾉ","pref":"岐阜県","city":"海津市","address":"南濃町駒野"},
{"zip_code":"5030405","kana_pref":"ｷﾞﾌｹﾝ","kana_city":"ｶｲﾂﾞｼ","kana_address":"ﾅﾝﾉｳﾁｮｳｺﾏﾉｼﾝﾃﾞﾝ","pref":"岐阜県","city":"海津市","address":"南濃町駒野新田"},
{"zip_code":"5030534","kana_pref":"ｷﾞﾌｹﾝ","kana_city":"ｶｲﾂﾞｼ","kana_address":"ﾅﾝﾉｳﾁｮｳｻｶｲ","pref":"岐阜県","city":"海津市","address":"南濃町境"},
{"zip_code":"5030403","kana_pref":"ｷﾞﾌｹﾝ","kana_city":"ｶｲﾂﾞｼ","kana_address":"ﾅﾝﾉｳﾁｮｳｼﾂﾞ","pref":"岐阜県","city":"海津市","address":"南濃町志津"},
{"zip_code":"5030402","kana_pref":"ｷﾞﾌｹﾝ","kana_city":"ｶｲﾂﾞｼ","kana_address":"ﾅﾝﾉｳﾁｮｳｼﾂﾞｼﾝﾃﾞﾝ","pref":"岐阜県","city":"海津市","address":"南濃町志津新田"},
{"zip_code":"5030533","kana_pref":"ｷﾞﾌｹﾝ","kana_city":"ｶｲﾂﾞｼ","kana_address":"ﾅﾝﾉｳﾁｮｳﾀﾂﾞﾙ","pref":"岐阜県","city":"海津市","address":"南濃町田鶴"},
{"zip_code":"5030401","kana_pref":"ｷﾞﾌｹﾝ","kana_city":"ｶｲﾂﾞｼ","kana_address":"ﾅﾝﾉｳﾁｮｳﾂﾔ","pref":"岐阜県","city":"海津市","address":"南濃町津屋"},
{"zip_code":"5030407","kana_pref":"ｷﾞﾌｹﾝ","kana_city":"ｶｲﾂﾞｼ","kana_address":"ﾅﾝﾉｳﾁｮｳﾄｸﾀﾞ","pref":"岐阜県","city":"海津市","address":"南濃町徳田"},
{"zip_code":"5030406","kana_pref":"ｷﾞﾌｹﾝ","kana_city":"ｶｲﾂﾞｼ","kana_address":"ﾅﾝﾉｳﾁｮｳﾄﾀﾞ","pref":"岐阜県","city":"海津市","address":"南濃町戸田"},
{"zip_code":"5030408","kana_pref":"ｷﾞﾌｹﾝ","kana_city":"ｶｲﾂﾞｼ","kana_address":"ﾅﾝﾉｳﾁｮｳﾆﾜﾀﾞ","pref":"岐阜県","city":"海津市","address":"南濃町庭田"},
{"zip_code":"5030413","kana_pref":"ｷﾞﾌｹﾝ","kana_city":"ｶｲﾂﾞｼ","kana_address":"ﾅﾝﾉｳﾁｮｳﾊｻﾞﾜ","pref":"岐阜県","city":"海津市","address":"南濃町羽沢"},
{"zip_code":"5030404","kana_pref":"ｷﾞﾌｹﾝ","kana_city":"ｶｲﾂﾞｼ","kana_address":"ﾅﾝﾉｳﾁｮｳﾊﾔｾ","pref":"岐阜県","city":"海津市","address":"南濃町早瀬"},
{"zip_code":"5030535","kana_pref":"ｷﾞﾌｹﾝ","kana_city":"ｶｲﾂﾞｼ","kana_address":"ﾅﾝﾉｳﾁｮｳﾏﾂﾔﾏ","pref":"岐阜県","city":"海津市","address":"南濃町松山"},
{"zip_code":"5030531","kana_pref":"ｷﾞﾌｹﾝ","kana_city":"ｶｲﾂﾞｼ","kana_address":"ﾅﾝﾉｳﾁｮｳﾔｽｴ","pref":"岐阜県","city":"海津市","address":"南濃町安江"},
{"zip_code":"5030415","kana_pref":"ｷﾞﾌｹﾝ","kana_city":"ｶｲﾂﾞｼ","kana_address":"ﾅﾝﾉｳﾁｮｳﾔﾏｻﾞｷ","pref":"岐阜県","city":"海津市","address":"南濃町山崎"},
{"zip_code":"5030536","kana_pref":"ｷﾞﾌｹﾝ","kana_city":"ｶｲﾂﾞｼ","kana_address":"ﾅﾝﾉｳﾁｮｳﾖｼﾀﾞ","pref":"岐阜県","city":"海津市","address":"南濃町吉田"},
{"zip_code":"5030321","kana_pref":"ｷﾞﾌｹﾝ","kana_city":"ｶｲﾂﾞｼ","kana_address":"ﾋﾗﾀﾁｮｳｲﾏｵ","pref":"岐阜県","city":"海津市","address":"平田町今尾"},
{"zip_code":"5030307","kana_pref":"ｷﾞﾌｹﾝ","kana_city":"ｶｲﾂﾞｼ","kana_address":"ﾋﾗﾀﾁｮｳｵｶ","pref":"岐阜県","city":"海津市","address":"平田町岡"},
{"zip_code":"5030302","kana_pref":"ｷﾞﾌｹﾝ","kana_city":"ｶｲﾂﾞｼ","kana_address":"ﾋﾗﾀﾁｮｳｶﾂｶﾞ","pref":"岐阜県","city":"海津市","address":"平田町勝賀"},
{"zip_code":"5030312","kana_pref":"ｷﾞﾌｹﾝ","kana_city":"ｶｲﾂﾞｼ","kana_address":"ﾋﾗﾀﾁｮｳｻﾝｺﾞｳ","pref":"岐阜県","city":"海津市","address":"平田町三郷"},
{"zip_code":"5030306","kana_pref":"ｷﾞﾌｹﾝ","kana_city":"ｶｲﾂﾞｼ","kana_address":"ﾋﾗﾀﾁｮｳｼﾞｬｲｹ","pref":"岐阜県","city":"海津市","address":"平田町蛇池"},
{"zip_code":"5030305","kana_pref":"ｷﾞﾌｹﾝ","kana_city":"ｶｲﾂﾞｼ","kana_address":"ﾋﾗﾀﾁｮｳｼﾞｬｹﾂ","pref":"岐阜県","city":"海津市","address":"平田町者結"},
{"zip_code":"5030301","kana_pref":"ｷﾞﾌｹﾝ","kana_city":"ｶｲﾂﾞｼ","kana_address":"ﾋﾗﾀﾁｮｳｽｶ","pref":"岐阜県","city":"海津市","address":"平田町須賀"},
{"zip_code":"5030313","kana_pref":"ｷﾞﾌｹﾝ","kana_city":"ｶｲﾂﾞｼ","kana_address":"ﾋﾗﾀﾁｮｳﾀｶﾀﾞ","pref":"岐阜県","city":"海津市","address":"平田町高田"},
{"zip_code":"5030322","kana_pref":"ｷﾞﾌｹﾝ","kana_city":"ｶｲﾂﾞｼ","kana_address":"ﾋﾗﾀﾁｮｳﾂﾁｸﾗ","pref":"岐阜県","city":"海津市","address":"平田町土倉"},
{"zip_code":"5030314","kana_pref":"ｷﾞﾌｹﾝ","kana_city":"ｶｲﾂﾞｼ","kana_address":"ﾋﾗﾀﾁｮｳﾆｼｼﾞﾏ","pref":"岐阜県","city":"海津市","address":"平田町西島"},
{"zip_code":"5030303","kana_pref":"ｷﾞﾌｹﾝ","kana_city":"ｶｲﾂﾞｼ","kana_address":"ﾋﾗﾀﾁｮｳﾉﾃﾞﾗ","pref":"岐阜県","city":"海津市","address":"平田町野寺"},
{"zip_code":"5030304","kana_pref":"ｷﾞﾌｹﾝ","kana_city":"ｶｲﾂﾞｼ","kana_address":"ﾋﾗﾀﾁｮｳﾊﾀｵｻ","pref":"岐阜県","city":"海津市","address":"平田町幡長"},
{"zip_code":"5030311","kana_pref":"ｷﾞﾌｹﾝ","kana_city":"ｶｲﾂﾞｼ","kana_address":"ﾋﾗﾀﾁｮｳﾌﾞｼｶﾞﾜ","pref":"岐阜県","city":"海津市","address":"平田町仏師川"},
{"zip_code":"5030323","kana_pref":"ｷﾞﾌｹﾝ","kana_city":"ｶｲﾂﾞｼ","kana_address":"ﾋﾗﾀﾁｮｳﾜｷﾉ","pref":"岐阜県","city":"海津市","address":"平田町脇野"},
{"zip_code":"5031300","kana_pref":"ｷﾞﾌｹﾝ","kana_city":"ﾖｳﾛｳｸﾞﾝﾖｳﾛｳﾁｮｳ","kana_address":"","pref":"岐阜県","city":"養老郡養老町","address":""},
{"zip_code":"5031277","kana_pref":"ｷﾞﾌｹﾝ","kana_city":"ﾖｳﾛｳｸﾞﾝﾖｳﾛｳﾁｮｳ","kana_address":"ｱﾘｵ","pref":"岐阜県","city":"養老郡養老町","address":"有尾"},
{"zip_code":"5031304","kana_pref":"ｷﾞﾌｹﾝ","kana_city":"ﾖｳﾛｳｸﾞﾝﾖｳﾛｳﾁｮｳ","kana_address":"ｲｲﾀﾞ","pref":"岐阜県","city":"養老郡養老町","address":"飯田"},
{"zip_code":"5031336","kana_pref":"ｷﾞﾌｹﾝ","kana_city":"ﾖｳﾛｳｸﾞﾝﾖｳﾛｳﾁｮｳ","kana_address":"ｲｲﾂﾞﾐ","pref":"岐阜県","city":"養老郡養老町","address":"飯積"},
{"zip_code":"5031251","kana_pref":"ｷﾞﾌｹﾝ","kana_city":"ﾖｳﾛｳｸﾞﾝﾖｳﾛｳﾁｮｳ","kana_address":"ｲｼﾊﾞﾀ","pref":"岐阜県","city":"養老郡養老町","address":"石畑"},
{"zip_code":"5031311","kana_pref":"ｷﾞﾌｹﾝ","kana_city":"ﾖｳﾛｳｸﾞﾝﾖｳﾛｳﾁｮｳ","kana_address":"ｲｽﾞﾐﾏﾁ","pref":"岐阜県","city":"養老郡養老町","address":"泉町"},
{"zip_code":"5031243","kana_pref":"ｷﾞﾌｹﾝ","kana_city":"ﾖｳﾛｳｸﾞﾝﾖｳﾛｳﾁｮｳ","kana_address":"ｲﾂｶｲﾁ","pref":"岐阜県","city":"養老郡養老町","address":"五日市"},
{"zip_code":"5031264","kana_pref":"ｷﾞﾌｹﾝ","kana_city":"ﾖｳﾛｳｸﾞﾝﾖｳﾛｳﾁｮｳ","kana_address":"ｲｯｼｷ","pref":"岐阜県","city":"養老郡養老町","address":"一色"},
{"zip_code":"5031333","kana_pref":"ｷﾞﾌｹﾝ","kana_city":"ﾖｳﾛｳｸﾞﾝﾖｳﾛｳﾁｮｳ","kana_address":"ｲﾛﾒ","pref":"岐阜県","city":"養老郡養老町","address":"色目"},
{"zip_code":"5031321","kana_pref":"ｷﾞﾌｹﾝ","kana_city":"ﾖｳﾛｳｸﾞﾝﾖｳﾛｳﾁｮｳ","kana_address":"ｲﾜﾐﾁ","pref":"岐阜県","city":"養老郡養老町","address":"岩道"},
{"zip_code":"5031335","kana_pref":"ｷﾞﾌｹﾝ","kana_city":"ﾖｳﾛｳｸﾞﾝﾖｳﾛｳﾁｮｳ","kana_address":"ｳﾀ","pref":"岐阜県","city":"養老郡養老町","address":"宇田"},
{"zip_code":"5031245","kana_pref":"ｷﾞﾌｹﾝ","kana_city":"ﾖｳﾛｳｸﾞﾝﾖｳﾛｳﾁｮｳ","kana_address":"ｳﾜｶﾞﾀ","pref":"岐阜県","city":"養老郡養老町","address":"上方"},
{"zip_code":"5031306","kana_pref":"ｷﾞﾌｹﾝ","kana_city":"ﾖｳﾛｳｸﾞﾝﾖｳﾛｳﾁｮｳ","kana_address":"ｴﾂｷ","pref":"岐阜県","city":"養老郡養老町","address":"江月"},
{"zip_code":"5031324","kana_pref":"ｷﾞﾌｹﾝ","kana_city":"ﾖｳﾛｳｸﾞﾝﾖｳﾛｳﾁｮｳ","kana_address":"ｵｵｱﾄ","pref":"岐阜県","city":"養老郡養老町","address":"大跡"},
{"zip_code":"5031302","kana_pref":"ｷﾞﾌｹﾝ","kana_city":"ﾖｳﾛｳｸﾞﾝﾖｳﾛｳﾁｮｳ","kana_address":"ｵｵﾂﾎﾞ","pref":"岐阜県","city":"養老郡養老町","address":"大坪"},
{"zip_code":"5031383","kana_pref":"ｷﾞﾌｹﾝ","kana_city":"ﾖｳﾛｳｸﾞﾝﾖｳﾛｳﾁｮｳ","kana_address":"ｵｵﾉ","pref":"岐阜県","city":"養老郡養老町","address":"大野"},
{"zip_code":"5031272","kana_pref":"ｷﾞﾌｹﾝ","kana_city":"ﾖｳﾛｳｸﾞﾝﾖｳﾛｳﾁｮｳ","kana_address":"ｵｵﾊﾞ","pref":"岐阜県","city":"養老郡養老町","address":"大場"},
{"zip_code":"5031275","kana_pref":"ｷﾞﾌｹﾝ","kana_city":"ﾖｳﾛｳｸﾞﾝﾖｳﾛｳﾁｮｳ","kana_address":"ｵｵﾏｷ","pref":"岐阜県","city":"養老郡養老町","address":"大巻"},
{"zip_code":"5031262","kana_pref":"ｷﾞﾌｹﾝ","kana_city":"ﾖｳﾛｳｸﾞﾝﾖｳﾛｳﾁｮｳ","kana_address":"ｵｸﾞﾗ","pref":"岐阜県","city":"養老郡養老町","address":"小倉"},
{"zip_code":"5031316","kana_pref":"ｷﾞﾌｹﾝ","kana_city":"ﾖｳﾛｳｸﾞﾝﾖｳﾛｳﾁｮｳ","kana_address":"ｵｼｺｼ","pref":"岐阜県","city":"養老郡養老町","address":"押越"},
{"zip_code":"5031253","kana_pref":"ｷﾞﾌｹﾝ","kana_city":"ﾖｳﾛｳｸﾞﾝﾖｳﾛｳﾁｮｳ","kana_address":"ｶｼﾜｵ","pref":"岐阜県","city":"養老郡養老町","address":"柏尾"},
{"zip_code":"5031339","kana_pref":"ｷﾞﾌｹﾝ","kana_city":"ﾖｳﾛｳｸﾞﾝﾖｳﾛｳﾁｮｳ","kana_address":"ｶﾅﾔ","pref":"岐阜県","city":"養老郡養老町","address":"金屋"},
{"zip_code":"5031276","kana_pref":"ｷﾞﾌｹﾝ","kana_city":"ﾖｳﾛｳｸﾞﾝﾖｳﾛｳﾁｮｳ","kana_address":"ｶﾏﾀﾞﾝ","pref":"岐阜県","city":"養老郡養老町","address":"釜段"},
{"zip_code":"5031385","kana_pref":"ｷﾞﾌｹﾝ","kana_city":"ﾖｳﾛｳｸﾞﾝﾖｳﾛｳﾁｮｳ","kana_address":"ｶﾐﾉｺﾞｳ","pref":"岐阜県","city":"養老郡養老町","address":"上之郷"},
{"zip_code":"5031315","kana_pref":"ｷﾞﾌｹﾝ","kana_city":"ﾖｳﾛｳｸﾞﾝﾖｳﾛｳﾁｮｳ","kana_address":"ｶﾗｽｴ","pref":"岐阜県","city":"養老郡養老町","address":"烏江"},
{"zip_code":"5031266","kana_pref":"ｷﾞﾌｹﾝ","kana_city":"ﾖｳﾛｳｸﾞﾝﾖｳﾛｳﾁｮｳ","kana_address":"ｷｮｳｶﾞﾜｷ","pref":"岐阜県","city":"養老郡養老町","address":"京ケ脇"},
{"zip_code":"5031323","kana_pref":"ｷﾞﾌｹﾝ","kana_city":"ﾖｳﾛｳｸﾞﾝﾖｳﾛｳﾁｮｳ","kana_address":"ｸﾁｶﾞｼﾏ","pref":"岐阜県","city":"養老郡養老町","address":"口ケ島"},
{"zip_code":"5031381","kana_pref":"ｷﾞﾌｹﾝ","kana_city":"ﾖｳﾛｳｸﾞﾝﾖｳﾛｳﾁｮｳ","kana_address":"ｸﾘｶﾞｻ","pref":"岐阜県","city":"養老郡養老町","address":"栗笠"},
{"zip_code":"5031242","kana_pref":"ｷﾞﾌｹﾝ","kana_city":"ﾖｳﾛｳｸﾞﾝﾖｳﾛｳﾁｮｳ","kana_address":"ｻｸﾗｲ","pref":"岐阜県","city":"養老郡養老町","address":"桜井"},
{"zip_code":"5031241","kana_pref":"ｷﾞﾌｹﾝ","kana_city":"ﾖｳﾛｳｸﾞﾝﾖｳﾛｳﾁｮｳ","kana_address":"ｻﾜﾀﾞ","pref":"岐阜県","city":"養老郡養老町","address":"沢田"},
{"zip_code":"5031384","kana_pref":"ｷﾞﾌｹﾝ","kana_city":"ﾖｳﾛｳｸﾞﾝﾖｳﾛｳﾁｮｳ","kana_address":"ｼﾓｶﾞｻ","pref":"岐阜県","city":"養老郡養老町","address":"下笠"},
{"zip_code":"5031303","kana_pref":"ｷﾞﾌｹﾝ","kana_city":"ﾖｳﾛｳｸﾞﾝﾖｳﾛｳﾁｮｳ","kana_address":"ｼﾞｬﾓﾁ","pref":"岐阜県","city":"養老郡養老町","address":"蛇持"},
{"zip_code":"5031256","kana_pref":"ｷﾞﾌｹﾝ","kana_city":"ﾖｳﾛｳｸﾞﾝﾖｳﾛｳﾁｮｳ","kana_address":"ｾｲｼ","pref":"岐阜県","city":"養老郡養老町","address":"勢至"},
{"zip_code":"5031305","kana_pref":"ｷﾞﾌｹﾝ","kana_city":"ﾖｳﾛｳｸﾞﾝﾖｳﾛｳﾁｮｳ","kana_address":"ｿﾌﾞｴ","pref":"岐阜県","city":"養老郡養老町","address":"祖父江"},
{"zip_code":"5031271","kana_pref":"ｷﾞﾌｹﾝ","kana_city":"ﾖｳﾛｳｸﾞﾝﾖｳﾛｳﾁｮｳ","kana_address":"ﾀ","pref":"岐阜県","city":"養老郡養老町","address":"田"},
{"zip_code":"5031314","kana_pref":"ｷﾞﾌｹﾝ","kana_city":"ﾖｳﾛｳｸﾞﾝﾖｳﾛｳﾁｮｳ","kana_address":"ﾀｶﾀﾞ","pref":"岐阜県","city":"養老郡養老町","address":"高田"},
{"zip_code":"5031313","kana_pref":"ｷﾞﾌｹﾝ","kana_city":"ﾖｳﾛｳｸﾞﾝﾖｳﾛｳﾁｮｳ","kana_address":"ﾀｶﾀﾞﾊﾞﾊﾞﾁｮｳ","pref":"岐阜県","city":"養老郡養老町","address":"高田馬場町"},
{"zip_code":"5031267","kana_pref":"ｷﾞﾌｹﾝ","kana_city":"ﾖｳﾛｳｸﾞﾝﾖｳﾛｳﾁｮｳ","kana_address":"ﾀｶﾊﾞﾔｼ","pref":"岐阜県","city":"養老郡養老町","address":"高林"},
{"zip_code":"5031317","kana_pref":"ｷﾞﾌｹﾝ","kana_city":"ﾖｳﾛｳｸﾞﾝﾖｳﾛｳﾁｮｳ","kana_address":"ﾀｷﾐﾏﾁ","pref":"岐阜県","city":"養老郡養老町","address":"滝見町"},
{"zip_code":"5031334","kana_pref":"ｷﾞﾌｹﾝ","kana_city":"ﾖｳﾛｳｸﾞﾝﾖｳﾛｳﾁｮｳ","kana_address":"ﾄﾖ","pref":"岐阜県","city":"養老郡養老町","address":"豊"},
{"zip_code":"5031337","kana_pref":"ｷﾞﾌｹﾝ","kana_city":"ﾖｳﾛｳｸﾞﾝﾖｳﾛｳﾁｮｳ","kana_address":"ﾅｵｴ","pref":"岐阜県","city":"養老郡養老町","address":"直江"},
{"zip_code":"5031332","kana_pref":"ｷﾞﾌｹﾝ","kana_city":"ﾖｳﾛｳｸﾞﾝﾖｳﾛｳﾁｮｳ","kana_address":"ﾅｶ","pref":"岐阜県","city":"養老郡養老町","address":"中"},
{"zip_code":"5031322","kana_pref":"ｷﾞﾌｹﾝ","kana_city":"ﾖｳﾛｳｸﾞﾝﾖｳﾛｳﾁｮｳ","kana_address":"ﾆｼｲﾜﾐﾁ","pref":"岐阜県","city":"養老郡養老町","address":"西岩道"},
{"zip_code":"5031268","kana_pref":"ｷﾞﾌｹﾝ","kana_city":"ﾖｳﾛｳｸﾞﾝﾖｳﾛｳﾁｮｳ","kana_address":"ﾆｼｵｸﾞﾗ","pref":"岐阜県","city":"養老郡養老町","address":"西小倉"},
{"zip_code":"5031273","kana_pref":"ｷﾞﾌｹﾝ","kana_city":"ﾖｳﾛｳｸﾞﾝﾖｳﾛｳﾁｮｳ","kana_address":"ﾈｺｼﾞ","pref":"岐阜県","city":"養老郡養老町","address":"根古地"},
{"zip_code":"5031331","kana_pref":"ｷﾞﾌｹﾝ","kana_city":"ﾖｳﾛｳｸﾞﾝﾖｳﾛｳﾁｮｳ","kana_address":"ﾊｼﾂﾞﾒ","pref":"岐阜県","city":"養老郡養老町","address":"橋爪"},
{"zip_code":"5031325","kana_pref":"ｷﾞﾌｹﾝ","kana_city":"ﾖｳﾛｳｸﾞﾝﾖｳﾛｳﾁｮｳ","kana_address":"ﾊﾝﾉｷ","pref":"岐阜県","city":"養老郡養老町","address":"飯ノ木"},
{"zip_code":"5031382","kana_pref":"ｷﾞﾌｹﾝ","kana_city":"ﾖｳﾛｳｸﾞﾝﾖｳﾛｳﾁｮｳ","kana_address":"ﾌﾅﾂｹ","pref":"岐阜県","city":"養老郡養老町","address":"船附"},
{"zip_code":"5031263","kana_pref":"ｷﾞﾌｹﾝ","kana_city":"ﾖｳﾛｳｸﾞﾝﾖｳﾛｳﾁｮｳ","kana_address":"ﾌﾅﾐ","pref":"岐阜県","city":"養老郡養老町","address":"船見"},
{"zip_code":"5031312","kana_pref":"ｷﾞﾌｹﾝ","kana_city":"ﾖｳﾛｳｸﾞﾝﾖｳﾛｳﾁｮｳ","kana_address":"ﾐｶﾐﾏﾁ","pref":"岐阜県","city":"養老郡養老町","address":"三神町"},
{"zip_code":"5031274","kana_pref":"ｷﾞﾌｹﾝ","kana_city":"ﾖｳﾛｳｸﾞﾝﾖｳﾛｳﾁｮｳ","kana_address":"ﾐｽﾞﾎ","pref":"岐阜県","city":"養老郡養老町","address":"瑞穂"},
{"zip_code":"5031252","kana_pref":"ｷﾞﾌｹﾝ","kana_city":"ﾖｳﾛｳｸﾞﾝﾖｳﾛｳﾁｮｳ","kana_address":"ﾐｮｳﾄｸ","pref":"岐阜県","city":"養老郡養老町","address":"明徳"},
{"zip_code":"5031301","kana_pref":"ｷﾞﾌｹﾝ","kana_city":"ﾖｳﾛｳｸﾞﾝﾖｳﾛｳﾁｮｳ","kana_address":"ﾑﾛﾊﾗ","pref":"岐阜県","city":"養老郡養老町","address":"室原"},
{"zip_code":"5031338","kana_pref":"ｷﾞﾌｹﾝ","kana_city":"ﾖｳﾛｳｸﾞﾝﾖｳﾛｳﾁｮｳ","kana_address":"ﾔｽﾋｻ","pref":"岐阜県","city":"養老郡養老町","address":"安久"},
{"zip_code":"5031255","kana_pref":"ｷﾞﾌｹﾝ","kana_city":"ﾖｳﾛｳｸﾞﾝﾖｳﾛｳﾁｮｳ","kana_address":"ﾖｳﾛｳ","pref":"岐阜県","city":"養老郡養老町","address":"養老"},
{"zip_code":"5031254","kana_pref":"ｷﾞﾌｹﾝ","kana_city":"ﾖｳﾛｳｸﾞﾝﾖｳﾛｳﾁｮｳ","kana_address":"ﾖｳﾛｳｺｳｴﾝ","pref":"岐阜県","city":"養老郡養老町","address":"養老公園"},
{"zip_code":"5031278","kana_pref":"ｷﾞﾌｹﾝ","kana_city":"ﾖｳﾛｳｸﾞﾝﾖｳﾛｳﾁｮｳ","kana_address":"ﾖｺﾔ","pref":"岐阜県","city":"養老郡養老町","address":"横屋"},
{"zip_code":"5031244","kana_pref":"ｷﾞﾌｹﾝ","kana_city":"ﾖｳﾛｳｸﾞﾝﾖｳﾛｳﾁｮｳ","kana_address":"ﾘｭｳｾﾝｼﾞ","pref":"岐阜県","city":"養老郡養老町","address":"竜泉寺"},
{"zip_code":"5031265","kana_pref":"ｷﾞﾌｹﾝ","kana_city":"ﾖｳﾛｳｸﾞﾝﾖｳﾛｳﾁｮｳ","kana_address":"ﾜｶﾐﾔ","pref":"岐阜県","city":"養老郡養老町","address":"若宮"},
{"zip_code":"5031261","kana_pref":"ｷﾞﾌｹﾝ","kana_city":"ﾖｳﾛｳｸﾞﾝﾖｳﾛｳﾁｮｳ","kana_address":"ﾜｼﾉｽ","pref":"岐阜県","city":"養老郡養老町","address":"鷲巣"},
{"zip_code":"5032100","kana_pref":"ｷﾞﾌｹﾝ","kana_city":"ﾌﾜｸﾞﾝﾀﾙｲﾁｮｳ","kana_address":"","pref":"岐阜県","city":"不破郡垂井町","address":""},
{"zip_code":"5032121","kana_pref":"ｷﾞﾌｹﾝ","kana_city":"ﾌﾜｸﾞﾝﾀﾙｲﾁｮｳ","kana_address":"ﾀﾙｲﾁｮｳﾉﾂｷﾞﾆﾊﾞﾝﾁｶﾞｸﾙﾊﾞｱｲ","pref":"岐阜県","city":"不破郡垂井町","address":"垂井町の次に番地がくる場合"},
{"zip_code":"5032112","kana_pref":"ｷﾞﾌｹﾝ","kana_city":"ﾌﾜｸﾞﾝﾀﾙｲﾁｮｳ","kana_address":"ｱﾔﾄﾞ","pref":"岐阜県","city":"不破郡垂井町","address":"綾戸"},
{"zip_code":"5032105","kana_pref":"ｷﾞﾌｹﾝ","kana_city":"ﾌﾜｸﾞﾝﾀﾙｲﾁｮｳ","kana_address":"ｱﾗｲ","pref":"岐阜県","city":"不破郡垂井町","address":"新井"},
{"zip_code":"5032104","kana_pref":"ｷﾞﾌｹﾝ","kana_city":"ﾌﾜｸﾞﾝﾀﾙｲﾁｮｳ","kana_address":"ｲﾁﾉｵ","pref":"岐阜県","city":"不破郡垂井町","address":"市之尾"},
{"zip_code":"5032106","kana_pref":"ｷﾞﾌｹﾝ","kana_city":"ﾌﾜｸﾞﾝﾀﾙｲﾁｮｳ","kana_address":"ｲﾌﾞｷ","pref":"岐阜県","city":"不破郡垂井町","address":"伊吹"},
{"zip_code":"5032107","kana_pref":"ｷﾞﾌｹﾝ","kana_city":"ﾌﾜｸﾞﾝﾀﾙｲﾁｮｳ","kana_address":"ｲﾜﾃﾞ","pref":"岐阜県","city":"不破郡垂井町","address":"岩手"},
{"zip_code":"5032103","kana_pref":"ｷﾞﾌｹﾝ","kana_city":"ﾌﾜｸﾞﾝﾀﾙｲﾁｮｳ","kana_address":"ｳﾒﾀﾆ","pref":"岐阜県","city":"不破郡垂井町","address":"梅谷"},
{"zip_code":"5032108","kana_pref":"ｷﾞﾌｹﾝ","kana_city":"ﾌﾜｸﾞﾝﾀﾙｲﾁｮｳ","kana_address":"ｵｵｲｼ","pref":"岐阜県","city":"不破郡垂井町","address":"大石"},
{"zip_code":"5032101","kana_pref":"ｷﾞﾌｹﾝ","kana_city":"ﾌﾜｸﾞﾝﾀﾙｲﾁｮｳ","kana_address":"ｵｵﾀｷ","pref":"岐阜県","city":"不破郡垂井町","address":"大滝"},
{"zip_code":"5032122","kana_pref":"ｷﾞﾌｹﾝ","kana_city":"ﾌﾜｸﾞﾝﾀﾙｲﾁｮｳ","kana_address":"ｵｻ","pref":"岐阜県","city":"不破郡垂井町","address":"表佐"},
{"zip_code":"5032123","kana_pref":"ｷﾞﾌｹﾝ","kana_city":"ﾌﾜｸﾞﾝﾀﾙｲﾁｮｳ","kana_address":"ｸﾘﾊﾗ","pref":"岐阜県","city":"不破郡垂井町","address":"栗原"},
{"zip_code":"5032102","kana_pref":"ｷﾞﾌｹﾝ","kana_city":"ﾌﾜｸﾞﾝﾀﾙｲﾁｮｳ","kana_address":"ｼｷﾊﾗ","pref":"岐阜県","city":"不破郡垂井町","address":"敷原"},
{"zip_code":"5032113","kana_pref":"ｷﾞﾌｹﾝ","kana_city":"ﾌﾜｸﾞﾝﾀﾙｲﾁｮｳ","kana_address":"ｼﾐｽﾞ","pref":"岐阜県","city":"不破郡垂井町","address":"清水"},
{"zip_code":"5032125","kana_pref":"ｷﾞﾌｹﾝ","kana_city":"ﾌﾜｸﾞﾝﾀﾙｲﾁｮｳ","kana_address":"ﾋｶﾞｼｶﾝﾀﾞ","pref":"岐阜県","city":"不破郡垂井町","address":"東神田"},
{"zip_code":"5032111","kana_pref":"ｷﾞﾌｹﾝ","kana_city":"ﾌﾜｸﾞﾝﾀﾙｲﾁｮｳ","kana_address":"ﾋﾗｵ","pref":"岐阜県","city":"不破郡垂井町","address":"平尾"},
{"zip_code":"5032114","kana_pref":"ｷﾞﾌｹﾝ","kana_city":"ﾌﾜｸﾞﾝﾀﾙｲﾁｮｳ","kana_address":"ﾌﾁｭｳ","pref":"岐阜県","city":"不破郡垂井町","address":"府中"},
{"zip_code":"5032109","kana_pref":"ｷﾞﾌｹﾝ","kana_city":"ﾌﾜｸﾞﾝﾀﾙｲﾁｮｳ","kana_address":"ﾐﾅﾐｱﾗｲ","pref":"岐阜県","city":"不破郡垂井町","address":"南新井"},
{"zip_code":"5032124","kana_pref":"ｷﾞﾌｹﾝ","kana_city":"ﾌﾜｸﾞﾝﾀﾙｲﾁｮｳ","kana_address":"ﾐﾔｼﾛ","pref":"岐阜県","city":"不破郡垂井町","address":"宮代"},
{"zip_code":"5031500","kana_pref":"ｷﾞﾌｹﾝ","kana_city":"ﾌﾜｸﾞﾝｾｷｶﾞﾊﾗﾁｮｳ","kana_address":"","pref":"岐阜県","city":"不破郡関ケ原町","address":""},
{"zip_code":"5031514","kana_pref":"ｷﾞﾌｹﾝ","kana_city":"ﾌﾜｸﾞﾝｾｷｶﾞﾊﾗﾁｮｳ","kana_address":"ｲﾅﾘ","pref":"岐阜県","city":"不破郡関ケ原町","address":"稲荷"},
{"zip_code":"5031543","kana_pref":"ｷﾞﾌｹﾝ","kana_city":"ﾌﾜｸﾞﾝｾｷｶﾞﾊﾗﾁｮｳ","kana_address":"ｲﾏｽ","pref":"岐阜県","city":"不破郡関ケ原町","address":"今須"},
{"zip_code":"5031531","kana_pref":"ｷﾞﾌｹﾝ","kana_city":"ﾌﾜｸﾞﾝｾｷｶﾞﾊﾗﾁｮｳ","kana_address":"ｵﾀﾞｶ","pref":"岐阜県","city":"不破郡関ケ原町","address":"大高"},
{"zip_code":"5031512","kana_pref":"ｷﾞﾌｹﾝ","kana_city":"ﾌﾜｸﾞﾝｾｷｶﾞﾊﾗﾁｮｳ","kana_address":"ｸﾓﾝ","pref":"岐阜県","city":"不破郡関ケ原町","address":"公門"},
{"zip_code":"5031523","kana_pref":"ｷﾞﾌｹﾝ","kana_city":"ﾌﾜｸﾞﾝｾｷｶﾞﾊﾗﾁｮｳ","kana_address":"ｺｲｹ","pref":"岐阜県","city":"不破郡関ケ原町","address":"小池"},
{"zip_code":"5031524","kana_pref":"ｷﾞﾌｹﾝ","kana_city":"ﾌﾜｸﾞﾝｾｷｶﾞﾊﾗﾁｮｳ","kana_address":"ｺﾞｻｲﾃﾞﾝ","pref":"岐阜県","city":"不破郡関ケ原町","address":"御祭田"},
{"zip_code":"5031523","kana_pref":"ｷﾞﾌｹﾝ","kana_city":"ﾌﾜｸﾞﾝｾｷｶﾞﾊﾗﾁｮｳ","kana_address":"ｺｾﾞｷ","pref":"岐阜県","city":"不破郡関ケ原町","address":"小関"},
{"zip_code":"5031524","kana_pref":"ｷﾞﾌｹﾝ","kana_city":"ﾌﾜｸﾞﾝｾｷｶﾞﾊﾗﾁｮｳ","kana_address":"ｻｻｵ","pref":"岐阜県","city":"不破郡関ケ原町","address":"笹尾"},
{"zip_code":"5031522","kana_pref":"ｷﾞﾌｹﾝ","kana_city":"ﾌﾜｸﾞﾝｾｷｶﾞﾊﾗﾁｮｳ","kana_address":"ｼﾞﾝﾊﾞﾉ","pref":"岐阜県","city":"不破郡関ケ原町","address":"陣場野"},
{"zip_code":"5031501","kana_pref":"ｷﾞﾌｹﾝ","kana_city":"ﾌﾜｸﾞﾝｾｷｶﾞﾊﾗﾁｮｳ","kana_address":"ｾｷｶﾞﾊﾗ","pref":"岐阜県","city":"不破郡関ケ原町","address":"関ケ原"},
{"zip_code":"5031545","kana_pref":"ｷﾞﾌｹﾝ","kana_city":"ﾌﾜｸﾞﾝｾｷｶﾞﾊﾗﾁｮｳ","kana_address":"ﾀﾏ","pref":"岐阜県","city":"不破郡関ケ原町","address":"玉"},
{"zip_code":"5031542","kana_pref":"ｷﾞﾌｹﾝ","kana_city":"ﾌﾜｸﾞﾝｾｷｶﾞﾊﾗﾁｮｳ","kana_address":"ﾄｳｹﾞ","pref":"岐阜県","city":"不破郡関ケ原町","address":"藤下"},
{"zip_code":"5031515","kana_pref":"ｷﾞﾌｹﾝ","kana_city":"ﾌﾜｸﾞﾝｾｷｶﾞﾊﾗﾁｮｳ","kana_address":"ﾅｶﾏﾁ","pref":"岐阜県","city":"不破郡関ケ原町","address":"中町"},
{"zip_code":"5031513","kana_pref":"ｷﾞﾌｹﾝ","kana_city":"ﾌﾜｸﾞﾝｾｷｶﾞﾊﾗﾁｮｳ","kana_address":"ﾅｶﾔﾏ","pref":"岐阜県","city":"不破郡関ケ原町","address":"中山"},
{"zip_code":"5031514","kana_pref":"ｷﾞﾌｹﾝ","kana_city":"ﾌﾜｸﾞﾝｾｷｶﾞﾊﾗﾁｮｳ","kana_address":"ﾆｼﾏﾁ","pref":"岐阜県","city":"不破郡関ケ原町","address":"西町"},
{"zip_code":"5031532","kana_pref":"ｷﾞﾌｹﾝ","kana_city":"ﾌﾜｸﾞﾝｾｷｶﾞﾊﾗﾁｮｳ","kana_address":"ﾉｶﾞﾐ","pref":"岐阜県","city":"不破郡関ケ原町","address":"野上"},
{"zip_code":"5031511","kana_pref":"ｷﾞﾌｹﾝ","kana_city":"ﾌﾜｸﾞﾝｾｷｶﾞﾊﾗﾁｮｳ","kana_address":"ﾋｶﾞｼﾏﾁ","pref":"岐阜県","city":"不破郡関ケ原町","address":"東町"},
{"zip_code":"5031521","kana_pref":"ｷﾞﾌｹﾝ","kana_city":"ﾌﾜｸﾞﾝｾｷｶﾞﾊﾗﾁｮｳ","kana_address":"ﾎｳﾕｳ","pref":"岐阜県","city":"不破郡関ケ原町","address":"宝有"},
{"zip_code":"5031541","kana_pref":"ｷﾞﾌｹﾝ","kana_city":"ﾌﾜｸﾞﾝｾｷｶﾞﾊﾗﾁｮｳ","kana_address":"ﾏﾂｵ","pref":"岐阜県","city":"不破郡関ケ原町","address":"松尾"},
{"zip_code":"5031524","kana_pref":"ｷﾞﾌｹﾝ","kana_city":"ﾌﾜｸﾞﾝｾｷｶﾞﾊﾗﾁｮｳ","kana_address":"ﾐﾄﾞﾘｶﾞｵｶ","pref":"岐阜県","city":"不破郡関ケ原町","address":"緑ケ丘"},
{"zip_code":"5031544","kana_pref":"ｷﾞﾌｹﾝ","kana_city":"ﾌﾜｸﾞﾝｾｷｶﾞﾊﾗﾁｮｳ","kana_address":"ﾔﾏﾅｶ","pref":"岐阜県","city":"不破郡関ケ原町","address":"山中"},
{"zip_code":"5032300","kana_pref":"ｷﾞﾌｹﾝ","kana_city":"ｱﾝﾊﾟﾁｸﾞﾝｺﾞｳﾄﾞﾁｮｳ","kana_address":"","pref":"岐阜県","city":"安八郡神戸町","address":""},
{"zip_code":"5032327","kana_pref":"ｷﾞﾌｹﾝ","kana_city":"ｱﾝﾊﾟﾁｸﾞﾝｺﾞｳﾄﾞﾁｮｳ","kana_address":"ｲｽﾞﾐ","pref":"岐阜県","city":"安八郡神戸町","address":"和泉"},
{"zip_code":"5032314","kana_pref":"ｷﾞﾌｹﾝ","kana_city":"ｱﾝﾊﾟﾁｸﾞﾝｺﾞｳﾄﾞﾁｮｳ","kana_address":"ｵﾁｱｲ","pref":"岐阜県","city":"安八郡神戸町","address":"落合"},
{"zip_code":"5032325","kana_pref":"ｷﾞﾌｹﾝ","kana_city":"ｱﾝﾊﾟﾁｸﾞﾝｺﾞｳﾄﾞﾁｮｳ","kana_address":"ｶﾉｳ","pref":"岐阜県","city":"安八郡神戸町","address":"加納"},
{"zip_code":"5032311","kana_pref":"ｷﾞﾌｹﾝ","kana_city":"ｱﾝﾊﾟﾁｸﾞﾝｺﾞｳﾄﾞﾁｮｳ","kana_address":"ｶﾜﾆｼ","pref":"岐阜県","city":"安八郡神戸町","address":"川西"},
{"zip_code":"5032306","kana_pref":"ｷﾞﾌｹﾝ","kana_city":"ｱﾝﾊﾟﾁｸﾞﾝｺﾞｳﾄﾞﾁｮｳ","kana_address":"ｷﾀｲｼｷ","pref":"岐阜県","city":"安八郡神戸町","address":"北一色"},
{"zip_code":"5032305","kana_pref":"ｷﾞﾌｹﾝ","kana_city":"ｱﾝﾊﾟﾁｸﾞﾝｺﾞｳﾄﾞﾁｮｳ","kana_address":"ｺﾞｳﾄﾞ","pref":"岐阜県","city":"安八郡神戸町","address":"神戸"},
{"zip_code":"5032316","kana_pref":"ｷﾞﾌｹﾝ","kana_city":"ｱﾝﾊﾟﾁｸﾞﾝｺﾞｳﾄﾞﾁｮｳ","kana_address":"ｻｲﾀﾞ","pref":"岐阜県","city":"安八郡神戸町","address":"斉田"},
{"zip_code":"5032322","kana_pref":"ｷﾞﾌｹﾝ","kana_city":"ｱﾝﾊﾟﾁｸﾞﾝｺﾞｳﾄﾞﾁｮｳ","kana_address":"ｻﾗﾔｼｷ","pref":"岐阜県","city":"安八郡神戸町","address":"更屋敷"},
{"zip_code":"5032312","kana_pref":"ｷﾞﾌｹﾝ","kana_city":"ｱﾝﾊﾟﾁｸﾞﾝｺﾞｳﾄﾞﾁｮｳ","kana_address":"ｼﾓﾐﾔ","pref":"岐阜県","city":"安八郡神戸町","address":"下宮"},
{"zip_code":"5032304","kana_pref":"ｷﾞﾌｹﾝ","kana_city":"ｱﾝﾊﾟﾁｸﾞﾝｺﾞｳﾄﾞﾁｮｳ","kana_address":"ｼﾞｮｳﾛｸﾄﾞｳ","pref":"岐阜県","city":"安八郡神戸町","address":"丈六道"},
{"zip_code":"5032313","kana_pref":"ｷﾞﾌｹﾝ","kana_city":"ｱﾝﾊﾟﾁｸﾞﾝｺﾞｳﾄﾞﾁｮｳ","kana_address":"ｼﾝﾔｼｷ","pref":"岐阜県","city":"安八郡神戸町","address":"新屋敷"},
{"zip_code":"5032321","kana_pref":"ｷﾞﾌｹﾝ","kana_city":"ｱﾝﾊﾟﾁｸﾞﾝｺﾞｳﾄﾞﾁｮｳ","kana_address":"ｽｴﾓﾘ","pref":"岐阜県","city":"安八郡神戸町","address":"末守"},
{"zip_code":"5032318","kana_pref":"ｷﾞﾌｹﾝ","kana_city":"ｱﾝﾊﾟﾁｸﾞﾝｺﾞｳﾄﾞﾁｮｳ","kana_address":"ｾｺ","pref":"岐阜県","city":"安八郡神戸町","address":"瀬古"},
{"zip_code":"5032302","kana_pref":"ｷﾞﾌｹﾝ","kana_city":"ｱﾝﾊﾟﾁｸﾞﾝｺﾞｳﾄﾞﾁｮｳ","kana_address":"ﾀ","pref":"岐阜県","city":"安八郡神戸町","address":"田"},
{"zip_code":"5032315","kana_pref":"ｷﾞﾌｹﾝ","kana_city":"ｱﾝﾊﾟﾁｸﾞﾝｺﾞｳﾄﾞﾁｮｳ","kana_address":"ﾂｷﾖﾘ","pref":"岐阜県","city":"安八郡神戸町","address":"付寄"},
{"zip_code":"5032326","kana_pref":"ｷﾞﾌｹﾝ","kana_city":"ｱﾝﾊﾟﾁｸﾞﾝｺﾞｳﾄﾞﾁｮｳ","kana_address":"ﾅｶｻﾞﾜ","pref":"岐阜県","city":"安八郡神戸町","address":"中沢"},
{"zip_code":"5032341","kana_pref":"ｷﾞﾌｹﾝ","kana_city":"ｱﾝﾊﾟﾁｸﾞﾝｺﾞｳﾄﾞﾁｮｳ","kana_address":"ﾆｼｻﾞｸﾗ","pref":"岐阜県","city":"安八郡神戸町","address":"西座倉"},
{"zip_code":"5032323","kana_pref":"ｷﾞﾌｹﾝ","kana_city":"ｱﾝﾊﾟﾁｸﾞﾝｺﾞｳﾄﾞﾁｮｳ","kana_address":"ﾆｼﾉﾎ","pref":"岐阜県","city":"安八郡神戸町","address":"西保"},
{"zip_code":"5032324","kana_pref":"ｷﾞﾌｹﾝ","kana_city":"ｱﾝﾊﾟﾁｸﾞﾝｺﾞｳﾄﾞﾁｮｳ","kana_address":"ﾊﾁｼﾞｮｳ","pref":"岐阜県","city":"安八郡神戸町","address":"八条"},
{"zip_code":"5032319","kana_pref":"ｷﾞﾌｹﾝ","kana_city":"ｱﾝﾊﾟﾁｸﾞﾝｺﾞｳﾄﾞﾁｮｳ","kana_address":"ﾏｴﾀﾞ","pref":"岐阜県","city":"安八郡神戸町","address":"前田"},
{"zip_code":"5032328","kana_pref":"ｷﾞﾌｹﾝ","kana_city":"ｱﾝﾊﾟﾁｸﾞﾝｺﾞｳﾄﾞﾁｮｳ","kana_address":"ﾐﾅﾐｶﾞﾀ","pref":"岐阜県","city":"安八郡神戸町","address":"南方"},
{"zip_code":"5032303","kana_pref":"ｷﾞﾌｹﾝ","kana_city":"ｱﾝﾊﾟﾁｸﾞﾝｺﾞｳﾄﾞﾁｮｳ","kana_address":"ﾔｽﾂｸﾞ","pref":"岐阜県","city":"安八郡神戸町","address":"安次"},
{"zip_code":"5032317","kana_pref":"ｷﾞﾌｹﾝ","kana_city":"ｱﾝﾊﾟﾁｸﾞﾝｺﾞｳﾄﾞﾁｮｳ","kana_address":"ﾔﾅｾﾞ","pref":"岐阜県","city":"安八郡神戸町","address":"柳瀬"},
{"zip_code":"5032301","kana_pref":"ｷﾞﾌｹﾝ","kana_city":"ｱﾝﾊﾟﾁｸﾞﾝｺﾞｳﾄﾞﾁｮｳ","kana_address":"ﾖｺｲ","pref":"岐阜県","city":"安八郡神戸町","address":"横井"},
{"zip_code":"5030200","kana_pref":"ｷﾞﾌｹﾝ","kana_city":"ｱﾝﾊﾟﾁｸﾞﾝﾜﾉｳﾁﾁｮｳ","kana_address":"","pref":"岐阜県","city":"安八郡輪之内町","address":""},
{"zip_code":"5030202","kana_pref":"ｷﾞﾌｹﾝ","kana_city":"ｱﾝﾊﾟﾁｸﾞﾝﾜﾉｳﾁﾁｮｳ","kana_address":"ｵｵﾔﾌﾞ","pref":"岐阜県","city":"安八郡輪之内町","address":"大藪"},
{"zip_code":"5030216","kana_pref":"ｷﾞﾌｹﾝ","kana_city":"ｱﾝﾊﾟﾁｸﾞﾝﾜﾉｳﾁﾁｮｳ","kana_address":"ｵｵﾖｼｼﾝﾃﾞﾝ","pref":"岐阜県","city":"安八郡輪之内町","address":"大吉新田"},
{"zip_code":"5030234","kana_pref":"ｷﾞﾌｹﾝ","kana_city":"ｱﾝﾊﾟﾁｸﾞﾝﾜﾉｳﾁﾁｮｳ","kana_address":"ｻﾄ","pref":"岐阜県","city":"安八郡輪之内町","address":"里"},
{"zip_code":"5030236","kana_pref":"ｷﾞﾌｹﾝ","kana_city":"ｱﾝﾊﾟﾁｸﾞﾝﾜﾉｳﾁﾁｮｳ","kana_address":"ｼｵﾊﾞﾐ","pref":"岐阜県","city":"安八郡輪之内町","address":"塩喰"},
{"zip_code":"5030205","kana_pref":"ｷﾞﾌｹﾝ","kana_city":"ｱﾝﾊﾟﾁｸﾞﾝﾜﾉｳﾁﾁｮｳ","kana_address":"ｼﾓｵｵｸﾞﾚ","pref":"岐阜県","city":"安八郡輪之内町","address":"下大榑"},
{"zip_code":"5030206","kana_pref":"ｷﾞﾌｹﾝ","kana_city":"ｱﾝﾊﾟﾁｸﾞﾝﾜﾉｳﾁﾁｮｳ","kana_address":"ｼﾓｵｵｸﾞﾚｼﾝﾃﾞﾝ","pref":"岐阜県","city":"安八郡輪之内町","address":"下大榑新田"},
{"zip_code":"5030233","kana_pref":"ｷﾞﾌｹﾝ","kana_city":"ｱﾝﾊﾟﾁｸﾞﾝﾜﾉｳﾁﾁｮｳ","kana_address":"ﾅｶｺﾞｳ","pref":"岐阜県","city":"安八郡輪之内町","address":"中郷"},
{"zip_code":"5030212","kana_pref":"ｷﾞﾌｹﾝ","kana_city":"ｱﾝﾊﾟﾁｸﾞﾝﾜﾉｳﾁﾁｮｳ","kana_address":"ﾅｶｺﾞｳｼﾝﾃﾞﾝ","pref":"岐阜県","city":"安八郡輪之内町","address":"中郷新田"},
{"zip_code":"5030231","kana_pref":"ｷﾞﾌｹﾝ","kana_city":"ｱﾝﾊﾟﾁｸﾞﾝﾜﾉｳﾁﾁｮｳ","kana_address":"ﾅﾝﾊﾞ","pref":"岐阜県","city":"安八郡輪之内町","address":"南波"},
{"zip_code":"5030201","kana_pref":"ｷﾞﾌｹﾝ","kana_city":"ｱﾝﾊﾟﾁｸﾞﾝﾜﾉｳﾁﾁｮｳ","kana_address":"ﾆﾚﾏﾀ","pref":"岐阜県","city":"安八郡輪之内町","address":"楡俣"},
{"zip_code":"5030203","kana_pref":"ｷﾞﾌｹﾝ","kana_city":"ｱﾝﾊﾟﾁｸﾞﾝﾜﾉｳﾁﾁｮｳ","kana_address":"ﾆﾚﾏﾀｼﾝﾃﾞﾝ","pref":"岐阜県","city":"安八郡輪之内町","address":"楡俣新田"},
{"zip_code":"5030235","kana_pref":"ｷﾞﾌｹﾝ","kana_city":"ｱﾝﾊﾟﾁｸﾞﾝﾜﾉｳﾁﾁｮｳ","kana_address":"ﾌｸﾂﾞｶ","pref":"岐阜県","city":"安八郡輪之内町","address":"福束"},
{"zip_code":"5030211","kana_pref":"ｷﾞﾌｹﾝ","kana_city":"ｱﾝﾊﾟﾁｸﾞﾝﾜﾉｳﾁﾁｮｳ","kana_address":"ﾌｸﾂﾞｶｼﾝﾃﾞﾝ","pref":"岐阜県","city":"安八郡輪之内町","address":"福束新田"},
{"zip_code":"5030232","kana_pref":"ｷﾞﾌｹﾝ","kana_city":"ｱﾝﾊﾟﾁｸﾞﾝﾜﾉｳﾁﾁｮｳ","kana_address":"ﾎﾝﾄﾞ","pref":"岐阜県","city":"安八郡輪之内町","address":"本戸"},
{"zip_code":"5030215","kana_pref":"ｷﾞﾌｹﾝ","kana_city":"ｱﾝﾊﾟﾁｸﾞﾝﾜﾉｳﾁﾁｮｳ","kana_address":"ﾏﾂｳﾁ","pref":"岐阜県","city":"安八郡輪之内町","address":"松内"},
{"zip_code":"5030214","kana_pref":"ｷﾞﾌｹﾝ","kana_city":"ｱﾝﾊﾟﾁｸﾞﾝﾜﾉｳﾁﾁｮｳ","kana_address":"ﾐﾙｼﾝﾃﾞﾝ","pref":"岐阜県","city":"安八郡輪之内町","address":"海松新田"},
{"zip_code":"5030213","kana_pref":"ｷﾞﾌｹﾝ","kana_city":"ｱﾝﾊﾟﾁｸﾞﾝﾜﾉｳﾁﾁｮｳ","kana_address":"ﾓｲｹｼﾝﾃﾞﾝ","pref":"岐阜県","city":"安八郡輪之内町","address":"藻池新田"},
{"zip_code":"5030204","kana_pref":"ｷﾞﾌｹﾝ","kana_city":"ｱﾝﾊﾟﾁｸﾞﾝﾜﾉｳﾁﾁｮｳ","kana_address":"ﾖｺﾞｳ","pref":"岐阜県","city":"安八郡輪之内町","address":"四郷"},
{"zip_code":"5030100","kana_pref":"ｷﾞﾌｹﾝ","kana_city":"ｱﾝﾊﾟﾁｸﾞﾝｱﾝﾊﾟﾁﾁｮｳ","kana_address":"","pref":"岐阜県","city":"安八郡安八町","address":""},
{"zip_code":"5030128","kana_pref":"ｷﾞﾌｹﾝ","kana_city":"ｱﾝﾊﾟﾁｸﾞﾝｱﾝﾊﾟﾁﾁｮｳ","kana_address":"ｵｵﾉ","pref":"岐阜県","city":"安八郡安八町","address":"大野"},
{"zip_code":"5030116","kana_pref":"ｷﾞﾌｹﾝ","kana_city":"ｱﾝﾊﾟﾁｸﾞﾝｱﾝﾊﾟﾁﾁｮｳ","kana_address":"ｵｵﾓﾘ","pref":"岐阜県","city":"安八郡安八町","address":"大森"},
{"zip_code":"5030113","kana_pref":"ｷﾞﾌｹﾝ","kana_city":"ｱﾝﾊﾟﾁｸﾞﾝｱﾝﾊﾟﾁﾁｮｳ","kana_address":"ｷﾀｲﾏｶﾞﾌﾁ","pref":"岐阜県","city":"安八郡安八町","address":"北今ケ渕"},
{"zip_code":"5030121","kana_pref":"ｷﾞﾌｹﾝ","kana_city":"ｱﾝﾊﾟﾁｸﾞﾝｱﾝﾊﾟﾁﾁｮｳ","kana_address":"ｺｵﾘﾄﾘ","pref":"岐阜県","city":"安八郡安八町","address":"氷取"},
{"zip_code":"5030112","kana_pref":"ｷﾞﾌｹﾝ","kana_city":"ｱﾝﾊﾟﾁｸﾞﾝｱﾝﾊﾟﾁﾁｮｳ","kana_address":"ｼﾊﾞﾊﾗ","pref":"岐阜県","city":"安八郡安八町","address":"芝原"},
{"zip_code":"5030127","kana_pref":"ｷﾞﾌｹﾝ","kana_city":"ｱﾝﾊﾟﾁｸﾞﾝｱﾝﾊﾟﾁﾁｮｳ","kana_address":"ｼﾛ","pref":"岐阜県","city":"安八郡安八町","address":"城"},
{"zip_code":"5030122","kana_pref":"ｷﾞﾌｹﾝ","kana_city":"ｱﾝﾊﾟﾁｸﾞﾝｱﾝﾊﾟﾁﾁｮｳ","kana_address":"ｾﾞﾝｺｳ","pref":"岐阜県","city":"安八郡安八町","address":"善光"},
{"zip_code":"5030129","kana_pref":"ｷﾞﾌｹﾝ","kana_city":"ｱﾝﾊﾟﾁｸﾞﾝｱﾝﾊﾟﾁﾁｮｳ","kana_address":"ｿﾄｾﾞﾝｺｳ","pref":"岐阜県","city":"安八郡安八町","address":"外善光"},
{"zip_code":"5030117","kana_pref":"ｷﾞﾌｹﾝ","kana_city":"ｱﾝﾊﾟﾁｸﾞﾝｱﾝﾊﾟﾁﾁｮｳ","kana_address":"ﾀﾞｲﾐｮｳｼﾞﾝ","pref":"岐阜県","city":"安八郡安八町","address":"大明神"},
{"zip_code":"5030124","kana_pref":"ｷﾞﾌｹﾝ","kana_city":"ｱﾝﾊﾟﾁｸﾞﾝｱﾝﾊﾟﾁﾁｮｳ","kana_address":"ﾅｶ","pref":"岐阜県","city":"安八郡安八町","address":"中"},
{"zip_code":"5030126","kana_pref":"ｷﾞﾌｹﾝ","kana_city":"ｱﾝﾊﾟﾁｸﾞﾝｱﾝﾊﾟﾁﾁｮｳ","kana_address":"ﾅｶｽﾞ","pref":"岐阜県","city":"安八郡安八町","address":"中須"},
{"zip_code":"5030111","kana_pref":"ｷﾞﾌｹﾝ","kana_city":"ｱﾝﾊﾟﾁｸﾞﾝｱﾝﾊﾟﾁﾁｮｳ","kana_address":"ﾆｼﾑｽﾌﾞ","pref":"岐阜県","city":"安八郡安八町","address":"西結"},
{"zip_code":"5030112","kana_pref":"ｷﾞﾌｹﾝ","kana_city":"ｱﾝﾊﾟﾁｸﾞﾝｱﾝﾊﾟﾁﾁｮｳ","kana_address":"ﾋｶﾞｼﾑｽﾌﾞ","pref":"岐阜県","city":"安八郡安八町","address":"東結"},
{"zip_code":"5030118","kana_pref":"ｷﾞﾌｹﾝ","kana_city":"ｱﾝﾊﾟﾁｸﾞﾝｱﾝﾊﾟﾁﾁｮｳ","kana_address":"ﾎｳｴ","pref":"岐阜県","city":"安八郡安八町","address":"宝江"},
{"zip_code":"5030125","kana_pref":"ｷﾞﾌｹﾝ","kana_city":"ｱﾝﾊﾟﾁｸﾞﾝｱﾝﾊﾟﾁﾁｮｳ","kana_address":"ﾏｷ","pref":"岐阜県","city":"安八郡安八町","address":"牧"},
{"zip_code":"5030115","kana_pref":"ｷﾞﾌｹﾝ","kana_city":"ｱﾝﾊﾟﾁｸﾞﾝｱﾝﾊﾟﾁﾁｮｳ","kana_address":"ﾐﾅﾐｲﾏｶﾞﾌﾁ","pref":"岐阜県","city":"安八郡安八町","address":"南今ケ渕"},
{"zip_code":"5030123","kana_pref":"ｷﾞﾌｹﾝ","kana_city":"ｱﾝﾊﾟﾁｸﾞﾝｱﾝﾊﾟﾁﾁｮｳ","kana_address":"ﾐﾅﾐｼﾞｮｳ","pref":"岐阜県","city":"安八郡安八町","address":"南條"},
{"zip_code":"5030114","kana_pref":"ｷﾞﾌｹﾝ","kana_city":"ｱﾝﾊﾟﾁｸﾞﾝｱﾝﾊﾟﾁﾁｮｳ","kana_address":"ﾓﾘﾍﾞ","pref":"岐阜県","city":"安八郡安八町","address":"森部"},
{"zip_code":"5032503","kana_pref":"ｷﾞﾌｹﾝ","kana_city":"ｲﾋﾞｸﾞﾝｲﾋﾞｶﾞﾜﾁｮｳ","kana_address":"ｶｽｶﾞｶﾜｲ","pref":"岐阜県","city":"揖斐郡揖斐川町","address":"春日川合"},
{"zip_code":"5032506","kana_pref":"ｷﾞﾌｹﾝ","kana_city":"ｲﾋﾞｸﾞﾝｲﾋﾞｶﾞﾜﾁｮｳ","kana_address":"ｶｽｶﾞｺｳﾛｸ","pref":"岐阜県","city":"揖斐郡揖斐川町","address":"春日香六"},
{"zip_code":"5032505","kana_pref":"ｷﾞﾌｹﾝ","kana_city":"ｲﾋﾞｸﾞﾝｲﾋﾞｶﾞﾜﾁｮｳ","kana_address":"ｶｽｶﾞｺﾐﾔｶﾐ","pref":"岐阜県","city":"揖斐郡揖斐川町","address":"春日小宮神"},
{"zip_code":"5032504","kana_pref":"ｷﾞﾌｹﾝ","kana_city":"ｲﾋﾞｸﾞﾝｲﾋﾞｶﾞﾜﾁｮｳ","kana_address":"ｶｽｶﾞﾅｶﾔﾏ","pref":"岐阜県","city":"揖斐郡揖斐川町","address":"春日中山"},
{"zip_code":"5032501","kana_pref":"ｷﾞﾌｹﾝ","kana_city":"ｲﾋﾞｸﾞﾝｲﾋﾞｶﾞﾜﾁｮｳ","kana_address":"ｶｽｶﾞﾐﾂｶ","pref":"岐阜県","city":"揖斐郡揖斐川町","address":"春日美束"},
{"zip_code":"5032502","kana_pref":"ｷﾞﾌｹﾝ","kana_city":"ｲﾋﾞｸﾞﾝｲﾋﾞｶﾞﾜﾁｮｳ","kana_address":"ｶｽｶﾞﾛｸｺﾞｳ","pref":"岐阜県","city":"揖斐郡揖斐川町","address":"春日六合"},
{"zip_code":"5032400","kana_pref":"ｷﾞﾌｹﾝ","kana_city":"ｲﾋﾞｸﾞﾝｲｹﾀﾞﾁｮｳ","kana_address":"","pref":"岐阜県","city":"揖斐郡池田町","address":""},
{"zip_code":"5032423","kana_pref":"ｷﾞﾌｹﾝ","kana_city":"ｲﾋﾞｸﾞﾝｲｹﾀﾞﾁｮｳ","kana_address":"ｱｵﾔﾅｷﾞ","pref":"岐阜県","city":"揖斐郡池田町","address":"青柳"},
{"zip_code":"5032424","kana_pref":"ｷﾞﾌｹﾝ","kana_city":"ｲﾋﾞｸﾞﾝｲｹﾀﾞﾁｮｳ","kana_address":"ｲｹﾉ","pref":"岐阜県","city":"揖斐郡池田町","address":"池野"},
{"zip_code":"5032427","kana_pref":"ｷﾞﾌｹﾝ","kana_city":"ｲﾋﾞｸﾞﾝｲｹﾀﾞﾁｮｳ","kana_address":"ｲﾁﾊｼ","pref":"岐阜県","city":"揖斐郡池田町","address":"市橋"},
{"zip_code":"5032415","kana_pref":"ｷﾞﾌｹﾝ","kana_city":"ｲﾋﾞｸﾞﾝｲｹﾀﾞﾁｮｳ","kana_address":"ｳｴﾀﾞ","pref":"岐阜県","city":"揖斐郡池田町","address":"上田"},
{"zip_code":"5032402","kana_pref":"ｷﾞﾌｹﾝ","kana_city":"ｲﾋﾞｸﾞﾝｲｹﾀﾞﾁｮｳ","kana_address":"ｶｽｶﾞﾊﾗ","pref":"岐阜県","city":"揖斐郡池田町","address":"粕ケ原"},
{"zip_code":"5032428","kana_pref":"ｷﾞﾌｹﾝ","kana_city":"ｲﾋﾞｸﾞﾝｲｹﾀﾞﾁｮｳ","kana_address":"ｶﾀﾔﾏ","pref":"岐阜県","city":"揖斐郡池田町","address":"片山"},
{"zip_code":"5032405","kana_pref":"ｷﾞﾌｹﾝ","kana_city":"ｲﾋﾞｸﾞﾝｲｹﾀﾞﾁｮｳ","kana_address":"ｶﾞﾝｼﾞｮｳｼﾞ","pref":"岐阜県","city":"揖斐郡池田町","address":"願成寺"},
{"zip_code":"5032418","kana_pref":"ｷﾞﾌｹﾝ","kana_city":"ｲﾋﾞｸﾞﾝｲｹﾀﾞﾁｮｳ","kana_address":"ｸｻﾌﾞｶ","pref":"岐阜県","city":"揖斐郡池田町","address":"草深"},
{"zip_code":"5032401","kana_pref":"ｷﾞﾌｹﾝ","kana_city":"ｲﾋﾞｸﾞﾝｲｹﾀﾞﾁｮｳ","kana_address":"ｸﾂｲ","pref":"岐阜県","city":"揖斐郡池田町","address":"沓井"},
{"zip_code":"5032404","kana_pref":"ｷﾞﾌｹﾝ","kana_city":"ｲﾋﾞｸﾞﾝｲｹﾀﾞﾁｮｳ","kana_address":"ｺｳｼﾞ","pref":"岐阜県","city":"揖斐郡池田町","address":"小牛"},
{"zip_code":"5032419","kana_pref":"ｷﾞﾌｹﾝ","kana_city":"ｲﾋﾞｸﾞﾝｲｹﾀﾞﾁｮｳ","kana_address":"ｺﾃﾞﾗ","pref":"岐阜県","city":"揖斐郡池田町","address":"小寺"},
{"zip_code":"5032414","kana_pref":"ｷﾞﾌｹﾝ","kana_city":"ｲﾋﾞｸﾞﾝｲｹﾀﾞﾁｮｳ","kana_address":"ｼﾓﾋｶﾞｼﾉ","pref":"岐阜県","city":"揖斐郡池田町","address":"下東野"},
{"zip_code":"5032413","kana_pref":"ｷﾞﾌｹﾝ","kana_city":"ｲﾋﾞｸﾞﾝｲｹﾀﾞﾁｮｳ","kana_address":"ｼﾛﾄﾘ","pref":"岐阜県","city":"揖斐郡池田町","address":"白鳥"},
{"zip_code":"5032411","kana_pref":"ｷﾞﾌｹﾝ","kana_city":"ｲﾋﾞｸﾞﾝｲｹﾀﾞﾁｮｳ","kana_address":"ｽｷﾞﾉ","pref":"岐阜県","city":"揖斐郡池田町","address":"杉野"},
{"zip_code":"5032412","kana_pref":"ｷﾞﾌｹﾝ","kana_city":"ｲﾋﾞｸﾞﾝｲｹﾀﾞﾁｮｳ","kana_address":"ｽﾅﾊﾞﾀ","pref":"岐阜県","city":"揖斐郡池田町","address":"砂畑"},
{"zip_code":"5032403","kana_pref":"ｷﾞﾌｹﾝ","kana_city":"ｲﾋﾞｸﾞﾝｲｹﾀﾞﾁｮｳ","kana_address":"ﾀﾅｶ","pref":"岐阜県","city":"揖斐郡池田町","address":"田中"},
{"zip_code":"5032422","kana_pref":"ｷﾞﾌｹﾝ","kana_city":"ｲﾋﾞｸﾞﾝｲｹﾀﾞﾁｮｳ","kana_address":"ﾀﾊﾞﾀ","pref":"岐阜県","city":"揖斐郡池田町","address":"田畑"},
{"zip_code":"5032408","kana_pref":"ｷﾞﾌｹﾝ","kana_city":"ｲﾋﾞｸﾞﾝｲｹﾀﾞﾁｮｳ","kana_address":"ﾀﾞﾝ","pref":"岐阜県","city":"揖斐郡池田町","address":"段"},
{"zip_code":"5032416","kana_pref":"ｷﾞﾌｹﾝ","kana_city":"ｲﾋﾞｸﾞﾝｲｹﾀﾞﾁｮｳ","kana_address":"ﾊｷﾞﾜﾗ","pref":"岐阜県","city":"揖斐郡池田町","address":"萩原"},
{"zip_code":"5032407","kana_pref":"ｷﾞﾌｹﾝ","kana_city":"ｲﾋﾞｸﾞﾝｲｹﾀﾞﾁｮｳ","kana_address":"ﾊﾝﾆｬﾊﾞﾀ","pref":"岐阜県","city":"揖斐郡池田町","address":"般若畑"},
{"zip_code":"5032429","kana_pref":"ｷﾞﾌｹﾝ","kana_city":"ｲﾋﾞｸﾞﾝｲｹﾀﾞﾁｮｳ","kana_address":"ﾌｼﾞｼﾛ","pref":"岐阜県","city":"揖斐郡池田町","address":"藤代"},
{"zip_code":"5032409","kana_pref":"ｷﾞﾌｹﾝ","kana_city":"ｲﾋﾞｸﾞﾝｲｹﾀﾞﾁｮｳ","kana_address":"ﾌﾅｺﾞ","pref":"岐阜県","city":"揖斐郡池田町","address":"舟子"},
{"zip_code":"5032417","kana_pref":"ｷﾞﾌｹﾝ","kana_city":"ｲﾋﾞｸﾞﾝｲｹﾀﾞﾁｮｳ","kana_address":"ﾎﾝｺﾞｳ","pref":"岐阜県","city":"揖斐郡池田町","address":"本郷"},
{"zip_code":"5032406","kana_pref":"ｷﾞﾌｹﾝ","kana_city":"ｲﾋﾞｸﾞﾝｲｹﾀﾞﾁｮｳ","kana_address":"ﾐﾔｼﾞ","pref":"岐阜県","city":"揖斐郡池田町","address":"宮地"},
{"zip_code":"5032421","kana_pref":"ｷﾞﾌｹﾝ","kana_city":"ｲﾋﾞｸﾞﾝｲｹﾀﾞﾁｮｳ","kana_address":"ﾔﾏﾎﾗ","pref":"岐阜県","city":"揖斐郡池田町","address":"山洞"},
{"zip_code":"5032426","kana_pref":"ｷﾞﾌｹﾝ","kana_city":"ｲﾋﾞｸﾞﾝｲｹﾀﾞﾁｮｳ","kana_address":"ﾔﾜﾀ","pref":"岐阜県","city":"揖斐郡池田町","address":"八幡"},
{"zip_code":"5032425","kana_pref":"ｷﾞﾌｹﾝ","kana_city":"ｲﾋﾞｸﾞﾝｲｹﾀﾞﾁｮｳ","kana_address":"ﾛｸﾉｲ","pref":"岐阜県","city":"揖斐郡池田町","address":"六之井"}]}