{"zip_code":[
{"zip_code":"5040000","kana_pref":"ｷﾞﾌｹﾝ","kana_city":"ｶｶﾐｶﾞﾊﾗｼ","kana_address":"","pref":"岐阜県","city":"各務原市","address":""},
{"zip_code":"5040931","kana_pref":"ｷﾞﾌｹﾝ","kana_city":"ｶｶﾐｶﾞﾊﾗｼ","kana_address":"ｵｵｻﾞﾉﾁｮｳ","pref":"岐阜県","city":"各務原市","address":"大佐野町"},
{"zip_code":"5040934","kana_pref":"ｷﾞﾌｹﾝ","kana_city":"ｶｶﾐｶﾞﾊﾗｼ","kana_address":"ｵｵﾉﾁｮｳ","pref":"岐阜県","city":"各務原市","address":"大野町"},
{"zip_code":"5040004","kana_pref":"ｷﾞﾌｹﾝ","kana_city":"ｶｶﾐｶﾞﾊﾗｼ","kana_address":"ｵｻﾞｷﾆｼﾏﾁ","pref":"岐阜県","city":"各務原市","address":"尾崎西町"},
{"zip_code":"5040003","kana_pref":"ｷﾞﾌｹﾝ","kana_city":"ｶｶﾐｶﾞﾊﾗｼ","kana_address":"ｵｻﾞｷﾐﾅﾐﾏﾁ","pref":"岐阜県","city":"各務原市","address":"尾崎南町"},
{"zip_code":"5040002","kana_pref":"ｷﾞﾌｹﾝ","kana_city":"ｶｶﾐｶﾞﾊﾗｼ","kana_address":"ｵｻﾞｷｷﾀﾏﾁ","pref":"岐阜県","city":"各務原市","address":"尾崎北町"},
{"zip_code":"5040933","kana_pref":"ｷﾞﾌｹﾝ","kana_city":"ｶｶﾐｶﾞﾊﾗｼ","kana_address":"ｶﾐｵｷﾁｮｳ","pref":"岐阜県","city":"各務原市","address":"神置町"},
{"zip_code":"5040926","kana_pref":"ｷﾞﾌｹﾝ","kana_city":"ｶｶﾐｶﾞﾊﾗｼ","kana_address":"ｶﾐﾅｶﾔﾁｮｳ","pref":"岐阜県","city":"各務原市","address":"上中屋町"},
{"zip_code":"5040971","kana_pref":"ｷﾞﾌｹﾝ","kana_city":"ｶｶﾐｶﾞﾊﾗｼ","kana_address":"ｶﾜｻｷﾁｮｳ","pref":"岐阜県","city":"各務原市","address":"川崎町"},
{"zip_code":"5040957","kana_pref":"ｷﾞﾌｹﾝ","kana_city":"ｶｶﾐｶﾞﾊﾗｼ","kana_address":"ｷﾝｿﾞｸﾀﾞﾝﾁ","pref":"岐阜県","city":"各務原市","address":"金属団地"},
{"zip_code":"5040942","kana_pref":"ｷﾞﾌｹﾝ","kana_city":"ｶｶﾐｶﾞﾊﾗｼ","kana_address":"ｺｻﾞﾉﾁｮｳ","pref":"岐阜県","city":"各務原市","address":"小佐野町"},
{"zip_code":"5040924","kana_pref":"ｷﾞﾌｹﾝ","kana_city":"ｶｶﾐｶﾞﾊﾗｼ","kana_address":"ｼﾓｷﾞﾘﾁｮｳ","pref":"岐阜県","city":"各務原市","address":"下切町"},
{"zip_code":"5040932","kana_pref":"ｷﾞﾌｹﾝ","kana_city":"ｶｶﾐｶﾞﾊﾗｼ","kana_address":"ｼﾓﾅｶﾔﾁｮｳ","pref":"岐阜県","city":"各務原市","address":"下中屋町"},
{"zip_code":"5040927","kana_pref":"ｷﾞﾌｹﾝ","kana_city":"ｶｶﾐｶﾞﾊﾗｼ","kana_address":"ｼﾞｮｳｺﾞﾁｮｳ","pref":"岐阜県","city":"各務原市","address":"上戸町"},
{"zip_code":"5040841","kana_pref":"ｷﾞﾌｹﾝ","kana_city":"ｶｶﾐｶﾞﾊﾗｼ","kana_address":"ｿﾊﾗｱｶﾊﾞﾈﾁｮｳ","pref":"岐阜県","city":"各務原市","address":"蘇原赤羽根町"},
{"zip_code":"5040824","kana_pref":"ｷﾞﾌｹﾝ","kana_city":"ｶｶﾐｶﾞﾊﾗｼ","kana_address":"ｿﾊﾗｱｻﾋﾏﾁ","pref":"岐阜県","city":"各務原市","address":"蘇原旭町"},
{"zip_code":"5040808","kana_pref":"ｷﾞﾌｹﾝ","kana_city":"ｶｶﾐｶﾞﾊﾗｼ","kana_address":"ｿﾊﾗｱｽﾞｶﾁｮｳ","pref":"岐阜県","city":"各務原市","address":"蘇原飛鳥町"},
{"zip_code":"5040851","kana_pref":"ｷﾞﾌｹﾝ","kana_city":"ｶｶﾐｶﾞﾊﾗｼ","kana_address":"ｿﾊﾗｲﾌﾞｷﾁｮｳ","pref":"岐阜県","city":"各務原市","address":"蘇原伊吹町"},
{"zip_code":"5040847","kana_pref":"ｷﾞﾌｹﾝ","kana_city":"ｶｶﾐｶﾞﾊﾗｼ","kana_address":"ｿﾊﾗｵｵｼﾏﾁｮｳ","pref":"岐阜県","city":"各務原市","address":"蘇原大島町"},
{"zip_code":"5040825","kana_pref":"ｷﾞﾌｹﾝ","kana_city":"ｶｶﾐｶﾞﾊﾗｼ","kana_address":"ｿﾊﾗｶｷｻﾞﾜﾁｮｳ","pref":"岐阜県","city":"各務原市","address":"蘇原柿沢町"},
{"zip_code":"5040823","kana_pref":"ｷﾞﾌｹﾝ","kana_city":"ｶｶﾐｶﾞﾊﾗｼ","kana_address":"ｿﾊﾗｷｸｿﾞﾉﾁｮｳ","pref":"岐阜県","city":"各務原市","address":"蘇原菊園町"},
{"zip_code":"5040801","kana_pref":"ｷﾞﾌｹﾝ","kana_city":"ｶｶﾐｶﾞﾊﾗｼ","kana_address":"ｿﾊﾗｷﾀﾔﾏﾁｮｳ","pref":"岐阜県","city":"各務原市","address":"蘇原北山町"},
{"zip_code":"5040844","kana_pref":"ｷﾞﾌｹﾝ","kana_city":"ｶｶﾐｶﾞﾊﾗｼ","kana_address":"ｿﾊﾗｷﾁｼﾝﾁｮｳ","pref":"岐阜県","city":"各務原市","address":"蘇原吉新町"},
{"zip_code":"5040829","kana_pref":"ｷﾞﾌｹﾝ","kana_city":"ｶｶﾐｶﾞﾊﾗｼ","kana_address":"ｿﾊﾗｷﾎﾞｳﾁｮｳ","pref":"岐阜県","city":"各務原市","address":"蘇原希望町"},
{"zip_code":"5040807","kana_pref":"ｷﾞﾌｹﾝ","kana_city":"ｶｶﾐｶﾞﾊﾗｼ","kana_address":"ｿﾊﾗｷﾖｽﾞﾐﾁｮｳ","pref":"岐阜県","city":"各務原市","address":"蘇原清住町"},
{"zip_code":"5040853","kana_pref":"ｷﾞﾌｹﾝ","kana_city":"ｶｶﾐｶﾞﾊﾗｼ","kana_address":"ｿﾊﾗｸﾏﾀﾁｮｳ","pref":"岐阜県","city":"各務原市","address":"蘇原熊田町"},
{"zip_code":"5040814","kana_pref":"ｷﾞﾌｹﾝ","kana_city":"ｶｶﾐｶﾞﾊﾗｼ","kana_address":"ｿﾊﾗｺｳｱﾏﾁ","pref":"岐阜県","city":"各務原市","address":"蘇原興亜町"},
{"zip_code":"5040812","kana_pref":"ｷﾞﾌｹﾝ","kana_city":"ｶｶﾐｶﾞﾊﾗｼ","kana_address":"ｿﾊﾗｻｶｲﾁｮｳ","pref":"岐阜県","city":"各務原市","address":"蘇原坂井町"},
{"zip_code":"5040822","kana_pref":"ｷﾞﾌｹﾝ","kana_city":"ｶｶﾐｶﾞﾊﾗｼ","kana_address":"ｿﾊﾗｻｶｴﾏﾁ","pref":"岐阜県","city":"各務原市","address":"蘇原栄町"},
{"zip_code":"5040826","kana_pref":"ｷﾞﾌｹﾝ","kana_city":"ｶｶﾐｶﾞﾊﾗｼ","kana_address":"ｿﾊﾗｻﾅｴﾁｮｳ","pref":"岐阜県","city":"各務原市","address":"蘇原早苗町"},
{"zip_code":"5040845","kana_pref":"ｷﾞﾌｹﾝ","kana_city":"ｶｶﾐｶﾞﾊﾗｼ","kana_address":"ｿﾊﾗｻﾙｺﾁｮｳ","pref":"岐阜県","city":"各務原市","address":"蘇原申子町"},
{"zip_code":"5040827","kana_pref":"ｷﾞﾌｹﾝ","kana_city":"ｶｶﾐｶﾞﾊﾗｼ","kana_address":"ｿﾊﾗｻﾜｶﾞﾐﾁｮｳ","pref":"岐阜県","city":"各務原市","address":"蘇原沢上町"},
{"zip_code":"5040856","kana_pref":"ｷﾞﾌｹﾝ","kana_city":"ｶｶﾐｶﾞﾊﾗｼ","kana_address":"ｿﾊﾗｼﾏｻｷﾁｮｳ","pref":"岐阜県","city":"各務原市","address":"蘇原島崎町"},
{"zip_code":"5040805","kana_pref":"ｷﾞﾌｹﾝ","kana_city":"ｶｶﾐｶﾞﾊﾗｼ","kana_address":"ｿﾊﾗｼｮｳｴｲﾁｮｳ","pref":"岐阜県","city":"各務原市","address":"蘇原昭栄町"},
{"zip_code":"5040855","kana_pref":"ｷﾞﾌｹﾝ","kana_city":"ｶｶﾐｶﾞﾊﾗｼ","kana_address":"ｿﾊﾗｼﾝｻｶｴﾏﾁ","pref":"岐阜県","city":"各務原市","address":"蘇原新栄町"},
{"zip_code":"5040804","kana_pref":"ｷﾞﾌｹﾝ","kana_city":"ｶｶﾐｶﾞﾊﾗｼ","kana_address":"ｿﾊﾗｼﾝｾｲﾁｮｳ","pref":"岐阜県","city":"各務原市","address":"蘇原新生町"},
{"zip_code":"5040821","kana_pref":"ｷﾞﾌｹﾝ","kana_city":"ｶｶﾐｶﾞﾊﾗｼ","kana_address":"ｿﾊﾗｽﾞｲｳﾝﾁｮｳ","pref":"岐阜県","city":"各務原市","address":"蘇原瑞雲町"},
{"zip_code":"5040843","kana_pref":"ｷﾞﾌｹﾝ","kana_city":"ｶｶﾐｶﾞﾊﾗｼ","kana_address":"ｿﾊﾗｾｲｳﾝﾁｮｳ","pref":"岐阜県","city":"各務原市","address":"蘇原青雲町"},
{"zip_code":"5040813","kana_pref":"ｷﾞﾌｹﾝ","kana_city":"ｶｶﾐｶﾞﾊﾗｼ","kana_address":"ｿﾊﾗﾁｭｳｵｳﾁｮｳ","pref":"岐阜県","city":"各務原市","address":"蘇原中央町"},
{"zip_code":"5040903","kana_pref":"ｷﾞﾌｹﾝ","kana_city":"ｶｶﾐｶﾞﾊﾗｼ","kana_address":"ｿﾊﾗﾂｷｵｶﾁｮｳ","pref":"岐阜県","city":"各務原市","address":"蘇原月丘町"},
{"zip_code":"5040842","kana_pref":"ｷﾞﾌｹﾝ","kana_city":"ｶｶﾐｶﾞﾊﾗｼ","kana_address":"ｿﾊﾗﾃﾗｼﾞﾏﾁｮｳ","pref":"岐阜県","city":"各務原市","address":"蘇原寺島町"},
{"zip_code":"5040815","kana_pref":"ｷﾞﾌｹﾝ","kana_city":"ｶｶﾐｶﾞﾊﾗｼ","kana_address":"ｿﾊﾗﾄｳｴｲﾁｮｳ","pref":"岐阜県","city":"各務原市","address":"蘇原東栄町"},
{"zip_code":"5040803","kana_pref":"ｷﾞﾌｹﾝ","kana_city":"ｶｶﾐｶﾞﾊﾗｼ","kana_address":"ｿﾊﾗﾄｳﾓﾝﾁｮｳ","pref":"岐阜県","city":"各務原市","address":"蘇原東門町"},
{"zip_code":"5040806","kana_pref":"ｷﾞﾌｹﾝ","kana_city":"ｶｶﾐｶﾞﾊﾗｼ","kana_address":"ｿﾊﾗﾄﾔﾏﾁｮｳ","pref":"岐阜県","city":"各務原市","address":"蘇原外山町"},
{"zip_code":"5040854","kana_pref":"ｷﾞﾌｹﾝ","kana_city":"ｶｶﾐｶﾞﾊﾗｼ","kana_address":"ｿﾊﾗﾉｸﾞﾁﾁｮｳ","pref":"岐阜県","city":"各務原市","address":"蘇原野口町"},
{"zip_code":"5040832","kana_pref":"ｷﾞﾌｹﾝ","kana_city":"ｶｶﾐｶﾞﾊﾗｼ","kana_address":"ｿﾊﾗﾊﾅｿﾞﾉﾁｮｳ","pref":"岐阜県","city":"各務原市","address":"蘇原花園町"},
{"zip_code":"5040816","kana_pref":"ｷﾞﾌｹﾝ","kana_city":"ｶｶﾐｶﾞﾊﾗｼ","kana_address":"ｿﾊﾗﾋｶﾞｼｼﾞﾏﾁｮｳ","pref":"岐阜県","city":"各務原市","address":"蘇原東島町"},
{"zip_code":"5040852","kana_pref":"ｷﾞﾌｹﾝ","kana_city":"ｶｶﾐｶﾞﾊﾗｼ","kana_address":"ｿﾊﾗﾌﾙｲﾁﾊﾞﾁｮｳ","pref":"岐阜県","city":"各務原市","address":"蘇原古市場町"},
{"zip_code":"5040809","kana_pref":"ｷﾞﾌｹﾝ","kana_city":"ｶｶﾐｶﾞﾊﾗｼ","kana_address":"ｿﾊﾗﾎｸﾖｳﾁｮｳ","pref":"岐阜県","city":"各務原市","address":"蘇原北陽町"},
{"zip_code":"5040904","kana_pref":"ｷﾞﾌｹﾝ","kana_city":"ｶｶﾐｶﾞﾊﾗｼ","kana_address":"ｿﾊﾗﾐｶｷﾉﾁｮｳ","pref":"岐阜県","city":"各務原市","address":"蘇原三柿野町"},
{"zip_code":"5040831","kana_pref":"ｷﾞﾌｹﾝ","kana_city":"ｶｶﾐｶﾞﾊﾗｼ","kana_address":"ｿﾊﾗﾐｽﾞﾎﾁｮｳ","pref":"岐阜県","city":"各務原市","address":"蘇原瑞穂町"},
{"zip_code":"5040902","kana_pref":"ｷﾞﾌｹﾝ","kana_city":"ｶｶﾐｶﾞﾊﾗｼ","kana_address":"ｿﾊﾗﾐﾄﾞﾘﾏﾁ","pref":"岐阜県","city":"各務原市","address":"蘇原緑町"},
{"zip_code":"5040012","kana_pref":"ｷﾞﾌｹﾝ","kana_city":"ｶｶﾐｶﾞﾊﾗｼ","kana_address":"ｿﾊﾗﾐﾔﾀﾞｲﾁｮｳ","pref":"岐阜県","city":"各務原市","address":"蘇原宮代町"},
{"zip_code":"5040013","kana_pref":"ｷﾞﾌｹﾝ","kana_city":"ｶｶﾐｶﾞﾊﾗｼ","kana_address":"ｿﾊﾗﾐﾔﾂﾞｶﾁｮｳ","pref":"岐阜県","city":"各務原市","address":"蘇原宮塚町"},
{"zip_code":"5040828","kana_pref":"ｷﾞﾌｹﾝ","kana_city":"ｶｶﾐｶﾞﾊﾗｼ","kana_address":"ｿﾊﾗﾑﾗｻﾒﾁｮｳ","pref":"岐阜県","city":"各務原市","address":"蘇原村雨町"},
{"zip_code":"5040802","kana_pref":"ｷﾞﾌｹﾝ","kana_city":"ｶｶﾐｶﾞﾊﾗｼ","kana_address":"ｿﾊﾗﾓﾁﾀﾞﾁｮｳ","pref":"岐阜県","city":"各務原市","address":"蘇原持田町"},
{"zip_code":"5040846","kana_pref":"ｷﾞﾌｹﾝ","kana_city":"ｶｶﾐｶﾞﾊﾗｼ","kana_address":"ｿﾊﾗﾖｼﾉﾁｮｳ","pref":"岐阜県","city":"各務原市","address":"蘇原吉野町"},
{"zip_code":"5040905","kana_pref":"ｷﾞﾌｹﾝ","kana_city":"ｶｶﾐｶﾞﾊﾗｼ","kana_address":"ｿﾊﾗﾛｯｹﾝﾁｮｳ","pref":"岐阜県","city":"各務原市","address":"蘇原六軒町"},
{"zip_code":"5040811","kana_pref":"ｷﾞﾌｹﾝ","kana_city":"ｶｶﾐｶﾞﾊﾗｼ","kana_address":"ｿﾊﾗﾜｺﾞｳﾁｮｳ","pref":"岐阜県","city":"各務原市","address":"蘇原和合町"},
{"zip_code":"5040962","kana_pref":"ｷﾞﾌｹﾝ","kana_city":"ｶｶﾐｶﾞﾊﾗｼ","kana_address":"ﾅｶｱﾂﾞﾏﾁｮｳ","pref":"岐阜県","city":"各務原市","address":"那加吾妻町"},
{"zip_code":"5040036","kana_pref":"ｷﾞﾌｹﾝ","kana_city":"ｶｶﾐｶﾞﾊﾗｼ","kana_address":"ﾅｶｱﾗﾀﾁｮｳ","pref":"岐阜県","city":"各務原市","address":"那加荒田町"},
{"zip_code":"5040007","kana_pref":"ｷﾞﾌｹﾝ","kana_city":"ｶｶﾐｶﾞﾊﾗｼ","kana_address":"ﾅｶｱﾜﾗﾁｮｳ","pref":"岐阜県","city":"各務原市","address":"那加芦原町"},
{"zip_code":"5040044","kana_pref":"ｷﾞﾌｹﾝ","kana_city":"ｶｶﾐｶﾞﾊﾗｼ","kana_address":"ﾅｶｲｼﾔﾏﾁｮｳ","pref":"岐阜県","city":"各務原市","address":"那加石山町"},
{"zip_code":"5040047","kana_pref":"ｷﾞﾌｹﾝ","kana_city":"ｶｶﾐｶﾞﾊﾗｼ","kana_address":"ﾅｶｲﾜﾁﾁｮｳ","pref":"岐阜県","city":"各務原市","address":"那加岩地町"},
{"zip_code":"5040837","kana_pref":"ｷﾞﾌｹﾝ","kana_city":"ｶｶﾐｶﾞﾊﾗｼ","kana_address":"ﾅｶｵｲﾀﾞﾁｮｳ","pref":"岐阜県","city":"各務原市","address":"那加甥田町"},
{"zip_code":"5040009","kana_pref":"ｷﾞﾌｹﾝ","kana_city":"ｶｶﾐｶﾞﾊﾗｼ","kana_address":"ﾅｶｵｵｷﾞﾋﾗ","pref":"岐阜県","city":"各務原市","address":"那加扇平"},
{"zip_code":"5040033","kana_pref":"ｷﾞﾌｹﾝ","kana_city":"ｶｶﾐｶﾞﾊﾗｼ","kana_address":"ﾅｶｵｵﾀﾆﾁｮｳ","pref":"岐阜県","city":"各務原市","address":"那加大谷町"},
{"zip_code":"5040001","kana_pref":"ｷﾞﾌｹﾝ","kana_city":"ｶｶﾐｶﾞﾊﾗｼ","kana_address":"ﾅｶｵｵﾎﾞﾗ","pref":"岐阜県","city":"各務原市","address":"那加大洞"},
{"zip_code":"5040908","kana_pref":"ｷﾞﾌｹﾝ","kana_city":"ｶｶﾐｶﾞﾊﾗｼ","kana_address":"ﾅｶｵﾀﾞﾁｮｳ","pref":"岐阜県","city":"各務原市","address":"那加織田町"},
{"zip_code":"5040016","kana_pref":"ｷﾞﾌｹﾝ","kana_city":"ｶｶﾐｶﾞﾊﾗｼ","kana_address":"ﾅｶｵﾔｼｷﾁｮｳ","pref":"岐阜県","city":"各務原市","address":"那加御屋敷町"},
{"zip_code":"5040031","kana_pref":"ｷﾞﾌｹﾝ","kana_city":"ｶｶﾐｶﾞﾊﾗｼ","kana_address":"ﾅｶｶﾈﾊｼﾁｮｳ","pref":"岐阜県","city":"各務原市","address":"那加兼橋町"},
{"zip_code":"5040943","kana_pref":"ｷﾞﾌｹﾝ","kana_city":"ｶｶﾐｶﾞﾊﾗｼ","kana_address":"ﾅｶｶﾔﾊﾞﾁｮｳ","pref":"岐阜県","city":"各務原市","address":"那加萱場町"},
{"zip_code":"5040005","kana_pref":"ｷﾞﾌｹﾝ","kana_city":"ｶｶﾐｶﾞﾊﾗｼ","kana_address":"ﾅｶｶﾗﾔﾏﾁｮｳ","pref":"岐阜県","city":"各務原市","address":"那加柄山町"},
{"zip_code":"5040963","kana_pref":"ｷﾞﾌｹﾝ","kana_city":"ｶｶﾐｶﾞﾊﾗｼ","kana_address":"ﾅｶｷﾀｻｶｴﾏﾁ","pref":"岐阜県","city":"各務原市","address":"那加北栄町"},
{"zip_code":"5040011","kana_pref":"ｷﾞﾌｹﾝ","kana_city":"ｶｶﾐｶﾞﾊﾗｼ","kana_address":"ﾅｶｷﾀﾎﾞﾗﾁｮｳ","pref":"岐阜県","city":"各務原市","address":"那加北洞町"},
{"zip_code":"5040008","kana_pref":"ｷﾞﾌｹﾝ","kana_city":"ｶｶﾐｶﾞﾊﾗｼ","kana_address":"ﾅｶｷﾘﾉﾁｮｳ","pref":"岐阜県","city":"各務原市","address":"那加桐野町"},
{"zip_code":"5040906","kana_pref":"ｷﾞﾌｹﾝ","kana_city":"ｶｶﾐｶﾞﾊﾗｼ","kana_address":"ﾅｶｷﾘﾉﾎｶﾆｶｼｮｵｵｱｻﾞﾆｭｳｶｲﾁ","pref":"岐阜県","city":"各務原市","address":"那加桐野外二ケ所大字入会地"},
{"zip_code":"5040916","kana_pref":"ｷﾞﾌｹﾝ","kana_city":"ｶｶﾐｶﾞﾊﾗｼ","kana_address":"ﾅｶｸｽﾉｷﾁｮｳ","pref":"岐阜県","city":"各務原市","address":"那加楠町"},
{"zip_code":"5040037","kana_pref":"ｷﾞﾌｹﾝ","kana_city":"ｶｶﾐｶﾞﾊﾗｼ","kana_address":"ﾅｶｺﾞﾀﾝﾀﾞﾁｮｳ","pref":"岐阜県","city":"各務原市","address":"那加五反田町"},
{"zip_code":"5040006","kana_pref":"ｷﾞﾌｹﾝ","kana_city":"ｶｶﾐｶﾞﾊﾗｼ","kana_address":"ﾅｶｺﾄｶﾞｵｶﾁｮｳ","pref":"岐阜県","city":"各務原市","address":"那加琴が丘町"},
{"zip_code":"5040024","kana_pref":"ｷﾞﾌｹﾝ","kana_city":"ｶｶﾐｶﾞﾊﾗｼ","kana_address":"ﾅｶｻｲﾜｲﾁｮｳ","pref":"岐阜県","city":"各務原市","address":"那加幸町"},
{"zip_code":"5040954","kana_pref":"ｷﾞﾌｹﾝ","kana_city":"ｶｶﾐｶﾞﾊﾗｼ","kana_address":"ﾅｶｻｶｴﾏﾁ","pref":"岐阜県","city":"各務原市","address":"那加栄町"},
{"zip_code":"5040912","kana_pref":"ｷﾞﾌｹﾝ","kana_city":"ｶｶﾐｶﾞﾊﾗｼ","kana_address":"ﾅｶｻｸﾗﾏﾁ","pref":"岐阜県","city":"各務原市","address":"那加桜町"},
{"zip_code":"5040834","kana_pref":"ｷﾞﾌｹﾝ","kana_city":"ｶｶﾐｶﾞﾊﾗｼ","kana_address":"ﾅｶｼｮｳﾅﾝﾁｮｳ","pref":"岐阜県","city":"各務原市","address":"那加昭南町"},
{"zip_code":"5040958","kana_pref":"ｷﾞﾌｹﾝ","kana_city":"ｶｶﾐｶﾞﾊﾗｼ","kana_address":"ﾅｶｼﾝｶﾉｳﾁｮｳ","pref":"岐阜県","city":"各務原市","address":"那加新加納町"},
{"zip_code":"5040045","kana_pref":"ｷﾞﾌｹﾝ","kana_city":"ｶｶﾐｶﾞﾊﾗｼ","kana_address":"ﾅｶｼﾝﾃﾞﾝﾁｮｳ","pref":"岐阜県","city":"各務原市","address":"那加新田町"},
{"zip_code":"5040961","kana_pref":"ｷﾞﾌｹﾝ","kana_city":"ｶｶﾐｶﾞﾊﾗｼ","kana_address":"ﾅｶｼﾝﾅｶﾁｮｳ","pref":"岐阜県","city":"各務原市","address":"那加新那加町"},
{"zip_code":"5040032","kana_pref":"ｷﾞﾌｹﾝ","kana_city":"ｶｶﾐｶﾞﾊﾗｼ","kana_address":"ﾅｶｼﾞﾝﾃﾞﾝﾁｮｳ","pref":"岐阜県","city":"各務原市","address":"那加神田町"},
{"zip_code":"5040907","kana_pref":"ｷﾞﾌｹﾝ","kana_city":"ｶｶﾐｶﾞﾊﾗｼ","kana_address":"ﾅｶｽﾐﾖｼﾁｮｳ","pref":"岐阜県","city":"各務原市","address":"那加住吉町"},
{"zip_code":"5040023","kana_pref":"ｷﾞﾌｹﾝ","kana_city":"ｶｶﾐｶﾞﾊﾗｼ","kana_address":"ﾅｶﾀｲﾍｲﾁｮｳ","pref":"岐阜県","city":"各務原市","address":"那加太平町"},
{"zip_code":"5040913","kana_pref":"ｷﾞﾌｹﾝ","kana_city":"ｶｶﾐｶﾞﾊﾗｼ","kana_address":"ﾅｶﾀﾞｲﾄｳﾁｮｳ","pref":"岐阜県","city":"各務原市","address":"那加大東町"},
{"zip_code":"5040038","kana_pref":"ｷﾞﾌｹﾝ","kana_city":"ｶｶﾐｶﾞﾊﾗｼ","kana_address":"ﾅｶﾀﾞｲﾓﾝﾁｮｳ","pref":"岐阜県","city":"各務原市","address":"那加大門町"},
{"zip_code":"5040043","kana_pref":"ｷﾞﾌｹﾝ","kana_city":"ｶｶﾐｶﾞﾊﾗｼ","kana_address":"ﾅｶﾃﾁﾞｶﾗﾁｮｳ","pref":"岐阜県","city":"各務原市","address":"那加手力町"},
{"zip_code":"5040022","kana_pref":"ｷﾞﾌｹﾝ","kana_city":"ｶｶﾐｶﾞﾊﾗｼ","kana_address":"ﾅｶﾄｳｱﾁｮｳ","pref":"岐阜県","city":"各務原市","address":"那加東亜町"},
{"zip_code":"5040901","kana_pref":"ｷﾞﾌｹﾝ","kana_city":"ｶｶﾐｶﾞﾊﾗｼ","kana_address":"ﾅｶﾄｳｼﾝﾁｮｳ","pref":"岐阜県","city":"各務原市","address":"那加東新町"},
{"zip_code":"5040041","kana_pref":"ｷﾞﾌｹﾝ","kana_city":"ｶｶﾐｶﾞﾊﾗｼ","kana_address":"ﾅｶﾄﾞﾔﾏﾁｮｳ","pref":"岐阜県","city":"各務原市","address":"那加土山町"},
{"zip_code":"5040046","kana_pref":"ｷﾞﾌｹﾝ","kana_city":"ｶｶﾐｶﾞﾊﾗｼ","kana_address":"ﾅｶﾅｶﾞﾂｶﾁｮｳ","pref":"岐阜県","city":"各務原市","address":"那加長塚町"},
{"zip_code":"5040018","kana_pref":"ｷﾞﾌｹﾝ","kana_city":"ｶｶﾐｶﾞﾊﾗｼ","kana_address":"ﾅｶﾆｼｲﾁﾊﾞﾁｮｳ","pref":"岐阜県","city":"各務原市","address":"那加西市場町"},
{"zip_code":"5040959","kana_pref":"ｷﾞﾌｹﾝ","kana_city":"ｶｶﾐｶﾞﾊﾗｼ","kana_address":"ﾅｶﾆｼｳﾗﾁｮｳ","pref":"岐阜県","city":"各務原市","address":"那加西浦町"},
{"zip_code":"5040952","kana_pref":"ｷﾞﾌｹﾝ","kana_city":"ｶｶﾐｶﾞﾊﾗｼ","kana_address":"ﾅｶﾆｼﾅｶﾁｮｳ","pref":"岐阜県","city":"各務原市","address":"那加西那加町"},
{"zip_code":"5040968","kana_pref":"ｷﾞﾌｹﾝ","kana_city":"ｶｶﾐｶﾞﾊﾗｼ","kana_address":"ﾅｶﾆｼﾉﾏﾁ","pref":"岐阜県","city":"各務原市","address":"那加西野町"},
{"zip_code":"5040945","kana_pref":"ｷﾞﾌｹﾝ","kana_city":"ｶｶﾐｶﾞﾊﾗｼ","kana_address":"ﾅｶﾆｯｼﾝﾁｮｳ","pref":"岐阜県","city":"各務原市","address":"那加日新町"},
{"zip_code":"5040025","kana_pref":"ｷﾞﾌｹﾝ","kana_city":"ｶｶﾐｶﾞﾊﾗｼ","kana_address":"ﾅｶﾉﾊﾞﾀﾁｮｳ","pref":"岐阜県","city":"各務原市","address":"那加野畑町"},
{"zip_code":"5040909","kana_pref":"ｷﾞﾌｹﾝ","kana_city":"ｶｶﾐｶﾞﾊﾗｼ","kana_address":"ﾅｶﾉﾌﾞﾅｶﾞﾁｮｳ","pref":"岐阜県","city":"各務原市","address":"那加信長町"},
{"zip_code":"5040839","kana_pref":"ｷﾞﾌｹﾝ","kana_city":"ｶｶﾐｶﾞﾊﾗｼ","kana_address":"ﾅｶﾊﾊﾞｼﾀﾁｮｳ","pref":"岐阜県","city":"各務原市","address":"那加巾下町"},
{"zip_code":"5040034","kana_pref":"ｷﾞﾌｹﾝ","kana_city":"ｶｶﾐｶﾞﾊﾗｼ","kana_address":"ﾅｶﾊﾏﾐﾁｮｳ","pref":"岐阜県","city":"各務原市","address":"那加浜見町"},
{"zip_code":"5040953","kana_pref":"ｷﾞﾌｹﾝ","kana_city":"ｶｶﾐｶﾞﾊﾗｼ","kana_address":"ﾅｶﾋｶﾞｼﾅｶﾁｮｳ","pref":"岐阜県","city":"各務原市","address":"那加東那加町"},
{"zip_code":"5040015","kana_pref":"ｷﾞﾌｹﾝ","kana_city":"ｶｶﾐｶﾞﾊﾗｼ","kana_address":"ﾅｶﾋｶﾞｼﾉﾁｮｳ","pref":"岐阜県","city":"各務原市","address":"那加東野町"},
{"zip_code":"5040965","kana_pref":"ｷﾞﾌｹﾝ","kana_city":"ｶｶﾐｶﾞﾊﾗｼ","kana_address":"ﾅｶﾋﾉﾃﾞﾁｮｳ","pref":"岐阜県","city":"各務原市","address":"那加日之出町"},
{"zip_code":"5040836","kana_pref":"ｷﾞﾌｹﾝ","kana_city":"ｶｶﾐｶﾞﾊﾗｼ","kana_address":"ﾅｶﾋﾊﾞﾘﾁｮｳ","pref":"岐阜県","city":"各務原市","address":"那加雲雀町"},
{"zip_code":"5040951","kana_pref":"ｷﾞﾌｹﾝ","kana_city":"ｶｶﾐｶﾞﾊﾗｼ","kana_address":"ﾅｶﾋﾖｼﾁｮｳ","pref":"岐阜県","city":"各務原市","address":"那加日吉町"},
{"zip_code":"5040838","kana_pref":"ｷﾞﾌｹﾝ","kana_city":"ｶｶﾐｶﾞﾊﾗｼ","kana_address":"ﾅｶﾌﾄﾞｳｶﾞｵｶ","pref":"岐阜県","city":"各務原市","address":"那加不動丘"},
{"zip_code":"5040966","kana_pref":"ｷﾞﾌｹﾝ","kana_city":"ｶｶﾐｶﾞﾊﾗｼ","kana_address":"ﾅｶﾎﾝﾏﾁ","pref":"岐阜県","city":"各務原市","address":"那加本町"},
{"zip_code":"5040026","kana_pref":"ｷﾞﾌｹﾝ","kana_city":"ｶｶﾐｶﾞﾊﾗｼ","kana_address":"ﾅｶﾏｴﾉﾁｮｳ","pref":"岐阜県","city":"各務原市","address":"那加前野町"},
{"zip_code":"5040021","kana_pref":"ｷﾞﾌｹﾝ","kana_city":"ｶｶﾐｶﾞﾊﾗｼ","kana_address":"ﾅｶﾏｴﾎﾞﾗｼﾝﾏﾁ","pref":"岐阜県","city":"各務原市","address":"那加前洞新町"},
{"zip_code":"5040944","kana_pref":"ｷﾞﾌｹﾝ","kana_city":"ｶｶﾐｶﾞﾊﾗｼ","kana_address":"ﾅｶﾐﾄﾞﾘﾏﾁ","pref":"岐阜県","city":"各務原市","address":"那加緑町"},
{"zip_code":"5040955","kana_pref":"ｷﾞﾌｹﾝ","kana_city":"ｶｶﾐｶﾞﾊﾗｼ","kana_address":"ﾅｶﾐﾅﾐｻｶｴﾏﾁ","pref":"岐阜県","city":"各務原市","address":"那加南栄町"},
{"zip_code":"5040035","kana_pref":"ｷﾞﾌｹﾝ","kana_city":"ｶｶﾐｶﾞﾊﾗｼ","kana_address":"ﾅｶﾐﾔｳﾗﾁｮｳ","pref":"岐阜県","city":"各務原市","address":"那加宮浦町"},
{"zip_code":"5040964","kana_pref":"ｷﾞﾌｹﾝ","kana_city":"ｶｶﾐｶﾞﾊﾗｼ","kana_address":"ﾅｶﾓﾄﾏﾁ","pref":"岐阜県","city":"各務原市","address":"那加元町"},
{"zip_code":"5040911","kana_pref":"ｷﾞﾌｹﾝ","kana_city":"ｶｶﾐｶﾞﾊﾗｼ","kana_address":"ﾅｶﾓﾝｾﾞﾝﾁｮｳ","pref":"岐阜県","city":"各務原市","address":"那加門前町"},
{"zip_code":"5040042","kana_pref":"ｷﾞﾌｹﾝ","kana_city":"ｶｶﾐｶﾞﾊﾗｼ","kana_address":"ﾅｶﾔﾏｳｼﾛﾁｮｳ","pref":"岐阜県","city":"各務原市","address":"那加山後町"},
{"zip_code":"5040014","kana_pref":"ｷﾞﾌｹﾝ","kana_city":"ｶｶﾐｶﾞﾊﾗｼ","kana_address":"ﾅｶﾔﾏｻﾞｷﾁｮｳ","pref":"岐阜県","city":"各務原市","address":"那加山崎町"},
{"zip_code":"5040017","kana_pref":"ｷﾞﾌｹﾝ","kana_city":"ｶｶﾐｶﾞﾊﾗｼ","kana_address":"ﾅｶﾔﾏｼﾀﾁｮｳ","pref":"岐阜県","city":"各務原市","address":"那加山下町"},
{"zip_code":"5040835","kana_pref":"ｷﾞﾌｹﾝ","kana_city":"ｶｶﾐｶﾞﾊﾗｼ","kana_address":"ﾅｶﾕｳﾋｶﾞｵｶﾁｮｳ","pref":"岐阜県","city":"各務原市","address":"那加雄飛ケ丘町"},
{"zip_code":"5040967","kana_pref":"ｷﾞﾌｹﾝ","kana_city":"ｶｶﾐｶﾞﾊﾗｼ","kana_address":"ﾅｶﾗｸﾃﾝﾁﾁｮｳ","pref":"岐阜県","city":"各務原市","address":"那加楽天地町"},
{"zip_code":"5040935","kana_pref":"ｷﾞﾌｹﾝ","kana_city":"ｶｶﾐｶﾞﾊﾗｼ","kana_address":"ﾅﾙｷﾖﾁｮｳ","pref":"岐阜県","city":"各務原市","address":"成清町"},
{"zip_code":"5040833","kana_pref":"ｷﾞﾌｹﾝ","kana_city":"ｶｶﾐｶﾞﾊﾗｼ","kana_address":"ﾆｭｳｶｲﾁｮｳ","pref":"岐阜県","city":"各務原市","address":"入会町"},
{"zip_code":"5040861","kana_pref":"ｷﾞﾌｹﾝ","kana_city":"ｶｶﾐｶﾞﾊﾗｼ","kana_address":"ﾋｶﾞｼﾔﾏ","pref":"岐阜県","city":"各務原市","address":"東山"},
{"zip_code":"5040922","kana_pref":"ｷﾞﾌｹﾝ","kana_city":"ｶｶﾐｶﾞﾊﾗｼ","kana_address":"ﾏｴﾄﾞﾋｶﾞｼﾏﾁ","pref":"岐阜県","city":"各務原市","address":"前渡東町"},
{"zip_code":"5040923","kana_pref":"ｷﾞﾌｹﾝ","kana_city":"ｶｶﾐｶﾞﾊﾗｼ","kana_address":"ﾏｴﾄﾞﾆｼﾏﾁ","pref":"岐阜県","city":"各務原市","address":"前渡西町"},
{"zip_code":"5040921","kana_pref":"ｷﾞﾌｹﾝ","kana_city":"ｶｶﾐｶﾞﾊﾗｼ","kana_address":"ﾏｴﾄﾞｷﾀﾏﾁ","pref":"岐阜県","city":"各務原市","address":"前渡北町"},
{"zip_code":"5040925","kana_pref":"ｷﾞﾌｹﾝ","kana_city":"ｶｶﾐｶﾞﾊﾗｼ","kana_address":"ﾏﾂﾓﾄﾁｮｳ","pref":"岐阜県","city":"各務原市","address":"松本町"},
{"zip_code":"5040956","kana_pref":"ｷﾞﾌｹﾝ","kana_city":"ｶｶﾐｶﾞﾊﾗｼ","kana_address":"ﾐｲｷﾀﾏﾁ","pref":"岐阜県","city":"各務原市","address":"三井北町"},
{"zip_code":"5040941","kana_pref":"ｷﾞﾌｹﾝ","kana_city":"ｶｶﾐｶﾞﾊﾗｼ","kana_address":"ﾐｲﾁｮｳ","pref":"岐阜県","city":"各務原市","address":"三井町"},
{"zip_code":"5040914","kana_pref":"ｷﾞﾌｹﾝ","kana_city":"ｶｶﾐｶﾞﾊﾗｼ","kana_address":"ﾐｲﾋｶﾞｼﾏﾁ","pref":"岐阜県","city":"各務原市","address":"三井東町"},
{"zip_code":"5040915","kana_pref":"ｷﾞﾌｹﾝ","kana_city":"ｶｶﾐｶﾞﾊﾗｼ","kana_address":"ﾐｲﾔﾏﾁｮｳ","pref":"岐阜県","city":"各務原市","address":"三井山町"},
{"zip_code":"5040928","kana_pref":"ｷﾞﾌｹﾝ","kana_city":"ｶｶﾐｶﾞﾊﾗｼ","kana_address":"ﾔﾏﾜｷﾁｮｳ","pref":"岐阜県","city":"各務原市","address":"山脇町"}]}