{"zip_code":[
{"zip_code":"5050000","kana_pref":"ｷﾞﾌｹﾝ","kana_city":"ﾐﾉｶﾓｼ","kana_address":"","pref":"岐阜県","city":"美濃加茂市","address":""},
{"zip_code":"5050008","kana_pref":"ｷﾞﾌｹﾝ","kana_city":"ﾐﾉｶﾓｼ","kana_address":"ｲﾌﾞｶﾁｮｳ","pref":"岐阜県","city":"美濃加茂市","address":"伊深町"},
{"zip_code":"5050041","kana_pref":"ｷﾞﾌｹﾝ","kana_city":"ﾐﾉｶﾓｼ","kana_address":"ｵｵﾀﾁｮｳ","pref":"岐阜県","city":"美濃加茂市","address":"太田町"},
{"zip_code":"5050042","kana_pref":"ｷﾞﾌｹﾝ","kana_city":"ﾐﾉｶﾓｼ","kana_address":"ｵｵﾀﾎﾝﾏﾁ","pref":"岐阜県","city":"美濃加茂市","address":"太田本町"},
{"zip_code":"5050035","kana_pref":"ｷﾞﾌｹﾝ","kana_city":"ﾐﾉｶﾓｼ","kana_address":"ｵｵﾃﾏﾁ","pref":"岐阜県","city":"美濃加茂市","address":"大手町"},
{"zip_code":"5050044","kana_pref":"ｷﾞﾌｹﾝ","kana_city":"ﾐﾉｶﾓｼ","kana_address":"ｶﾓｶﾞﾜﾁｮｳ","pref":"岐阜県","city":"美濃加茂市","address":"加茂川町"},
{"zip_code":"5050056","kana_pref":"ｷﾞﾌｹﾝ","kana_city":"ﾐﾉｶﾓｼ","kana_address":"ｶﾓﾉﾁｮｳｲﾁﾊｼ","pref":"岐阜県","city":"美濃加茂市","address":"加茂野町市橋"},
{"zip_code":"5050055","kana_pref":"ｷﾞﾌｹﾝ","kana_city":"ﾐﾉｶﾓｼ","kana_address":"ｶﾓﾉﾁｮｳｲﾅﾍﾞ","pref":"岐阜県","city":"美濃加茂市","address":"加茂野町稲辺"},
{"zip_code":"5050052","kana_pref":"ｷﾞﾌｹﾝ","kana_city":"ﾐﾉｶﾓｼ","kana_address":"ｶﾓﾉﾁｮｳｲﾏｲｽﾞﾐ","pref":"岐阜県","city":"美濃加茂市","address":"加茂野町今泉"},
{"zip_code":"5050054","kana_pref":"ｷﾞﾌｹﾝ","kana_city":"ﾐﾉｶﾓｼ","kana_address":"ｶﾓﾉﾁｮｳｶﾓﾉ","pref":"岐阜県","city":"美濃加茂市","address":"加茂野町加茂野"},
{"zip_code":"5050053","kana_pref":"ｷﾞﾌｹﾝ","kana_city":"ﾐﾉｶﾓｼ","kana_address":"ｶﾓﾉﾁｮｳｺﾉ","pref":"岐阜県","city":"美濃加茂市","address":"加茂野町木野"},
{"zip_code":"5050051","kana_pref":"ｷﾞﾌｹﾝ","kana_city":"ﾐﾉｶﾓｼ","kana_address":"ｶﾓﾉﾁｮｳﾀｶﾉｽ","pref":"岐阜県","city":"美濃加茂市","address":"加茂野町鷹之巣"},
{"zip_code":"5050022","kana_pref":"ｷﾞﾌｹﾝ","kana_city":"ﾐﾉｶﾓｼ","kana_address":"ｶﾜｲﾁｮｳ","pref":"岐阜県","city":"美濃加茂市","address":"川合町"},
{"zip_code":"5050045","kana_pref":"ｷﾞﾌｹﾝ","kana_city":"ﾐﾉｶﾓｼ","kana_address":"ｸｻﾌﾞｴﾁｮｳ","pref":"岐阜県","city":"美濃加茂市","address":"草笛町"},
{"zip_code":"5050034","kana_pref":"ｷﾞﾌｹﾝ","kana_city":"ﾐﾉｶﾓｼ","kana_address":"ｺﾋﾞﾁｮｳｼﾓｺﾋﾞ","pref":"岐阜県","city":"美濃加茂市","address":"古井町下古井"},
{"zip_code":"5050025","kana_pref":"ｷﾞﾌｹﾝ","kana_city":"ﾐﾉｶﾓｼ","kana_address":"ｼﾏﾁｮｳ","pref":"岐阜県","city":"美濃加茂市","address":"島町"},
{"zip_code":"5050026","kana_pref":"ｷﾞﾌｹﾝ","kana_city":"ﾐﾉｶﾓｼ","kana_address":"ｼﾐｽﾞﾁｮｳ","pref":"岐阜県","city":"美濃加茂市","address":"清水町"},
{"zip_code":"5050015","kana_pref":"ｷﾞﾌｹﾝ","kana_city":"ﾐﾉｶﾓｼ","kana_address":"ｼﾓﾖﾈﾀﾞﾁｮｳｲﾏ","pref":"岐阜県","city":"美濃加茂市","address":"下米田町今"},
{"zip_code":"5050017","kana_pref":"ｷﾞﾌｹﾝ","kana_city":"ﾐﾉｶﾓｼ","kana_address":"ｼﾓﾖﾈﾀﾞﾁｮｳｺﾔﾏ","pref":"岐阜県","city":"美濃加茂市","address":"下米田町小山"},
{"zip_code":"5050019","kana_pref":"ｷﾞﾌｹﾝ","kana_city":"ﾐﾉｶﾓｼ","kana_address":"ｼﾓﾖﾈﾀﾞﾁｮｳﾀﾒｵｶ","pref":"岐阜県","city":"美濃加茂市","address":"下米田町為岡"},
{"zip_code":"5050018","kana_pref":"ｷﾞﾌｹﾝ","kana_city":"ﾐﾉｶﾓｼ","kana_address":"ｼﾓﾖﾈﾀﾞﾁｮｳﾆｼﾜｷ","pref":"岐阜県","city":"美濃加茂市","address":"下米田町西脇"},
{"zip_code":"5050013","kana_pref":"ｷﾞﾌｹﾝ","kana_city":"ﾐﾉｶﾓｼ","kana_address":"ｼﾓﾖﾈﾀﾞﾁｮｳﾉﾌﾞﾄﾓ","pref":"岐阜県","city":"美濃加茂市","address":"下米田町信友"},
{"zip_code":"5050014","kana_pref":"ｷﾞﾌｹﾝ","kana_city":"ﾐﾉｶﾓｼ","kana_address":"ｼﾓﾖﾈﾀﾞﾁｮｳﾉﾘﾐﾂ","pref":"岐阜県","city":"美濃加茂市","address":"下米田町則光"},
{"zip_code":"5050011","kana_pref":"ｷﾞﾌｹﾝ","kana_city":"ﾐﾉｶﾓｼ","kana_address":"ｼﾓﾖﾈﾀﾞﾁｮｳﾋｶﾞｼﾄﾁｲ","pref":"岐阜県","city":"美濃加茂市","address":"下米田町東栃井"},
{"zip_code":"5050012","kana_pref":"ｷﾞﾌｹﾝ","kana_city":"ﾐﾉｶﾓｼ","kana_address":"ｼﾓﾖﾈﾀﾞﾁｮｳﾔﾏﾓﾄ","pref":"岐阜県","city":"美濃加茂市","address":"下米田町山本"},
{"zip_code":"5050031","kana_pref":"ｷﾞﾌｹﾝ","kana_city":"ﾐﾉｶﾓｼ","kana_address":"ｼﾝｲｹﾁｮｳ","pref":"岐阜県","city":"美濃加茂市","address":"新池町"},
{"zip_code":"5050032","kana_pref":"ｷﾞﾌｹﾝ","kana_city":"ﾐﾉｶﾓｼ","kana_address":"ﾀｼﾞﾏﾁｮｳ","pref":"岐阜県","city":"美濃加茂市","address":"田島町"},
{"zip_code":"5050038","kana_pref":"ｷﾞﾌｹﾝ","kana_city":"ﾐﾉｶﾓｼ","kana_address":"ﾁｭｳﾌﾞﾀﾞｲ","pref":"岐阜県","city":"美濃加茂市","address":"中部台"},
{"zip_code":"5050033","kana_pref":"ｷﾞﾌｹﾝ","kana_city":"ﾐﾉｶﾓｼ","kana_address":"ﾅｶﾄﾐﾁｮｳ","pref":"岐阜県","city":"美濃加茂市","address":"中富町"},
{"zip_code":"5050046","kana_pref":"ｷﾞﾌｹﾝ","kana_city":"ﾐﾉｶﾓｼ","kana_address":"ﾆｼﾏﾁ","pref":"岐阜県","city":"美濃加茂市","address":"西町"},
{"zip_code":"5050023","kana_pref":"ｷﾞﾌｹﾝ","kana_city":"ﾐﾉｶﾓｼ","kana_address":"ﾉｻﾞｻﾁｮｳ","pref":"岐阜県","city":"美濃加茂市","address":"野笹町"},
{"zip_code":"5050039","kana_pref":"ｷﾞﾌｹﾝ","kana_city":"ﾐﾉｶﾓｼ","kana_address":"ﾊﾁﾔﾀﾞｲ","pref":"岐阜県","city":"美濃加茂市","address":"蜂屋台"},
{"zip_code":"5050006","kana_pref":"ｷﾞﾌｹﾝ","kana_city":"ﾐﾉｶﾓｼ","kana_address":"ﾊﾁﾔﾁｮｳｲｾﾞ","pref":"岐阜県","city":"美濃加茂市","address":"蜂屋町伊瀬"},
{"zip_code":"5050004","kana_pref":"ｷﾞﾌｹﾝ","kana_city":"ﾐﾉｶﾓｼ","kana_address":"ﾊﾁﾔﾁｮｳｶﾐﾊﾁﾔ","pref":"岐阜県","city":"美濃加茂市","address":"蜂屋町上蜂屋"},
{"zip_code":"5050005","kana_pref":"ｷﾞﾌｹﾝ","kana_city":"ﾐﾉｶﾓｼ","kana_address":"ﾊﾁﾔﾁｮｳﾅｶﾊﾁﾔ","pref":"岐阜県","city":"美濃加茂市","address":"蜂屋町中蜂屋"},
{"zip_code":"5050007","kana_pref":"ｷﾞﾌｹﾝ","kana_city":"ﾐﾉｶﾓｼ","kana_address":"ﾊﾁﾔﾁｮｳｼﾓﾊﾁﾔ","pref":"岐阜県","city":"美濃加茂市","address":"蜂屋町下蜂屋"},
{"zip_code":"5050009","kana_pref":"ｷﾞﾌｹﾝ","kana_city":"ﾐﾉｶﾓｼ","kana_address":"ﾊﾁﾔﾁｮｳﾔﾀ","pref":"岐阜県","city":"美濃加茂市","address":"蜂屋町矢田"},
{"zip_code":"5050043","kana_pref":"ｷﾞﾌｹﾝ","kana_city":"ﾐﾉｶﾓｼ","kana_address":"ﾌｶﾀﾁｮｳ","pref":"岐阜県","city":"美濃加茂市","address":"深田町"},
{"zip_code":"5050027","kana_pref":"ｷﾞﾌｹﾝ","kana_city":"ﾐﾉｶﾓｼ","kana_address":"ﾎﾝｺﾞｳﾁｮｳ","pref":"岐阜県","city":"美濃加茂市","address":"本郷町"},
{"zip_code":"5050037","kana_pref":"ｷﾞﾌｹﾝ","kana_city":"ﾐﾉｶﾓｼ","kana_address":"ﾏｴﾋﾗﾁｮｳ","pref":"岐阜県","city":"美濃加茂市","address":"前平町"},
{"zip_code":"5050016","kana_pref":"ｷﾞﾌｹﾝ","kana_city":"ﾐﾉｶﾓｼ","kana_address":"ﾏｷﾉ","pref":"岐阜県","city":"美濃加茂市","address":"牧野"},
{"zip_code":"5050024","kana_pref":"ｷﾞﾌｹﾝ","kana_city":"ﾐﾉｶﾓｼ","kana_address":"ﾐｶﾄﾞﾁｮｳ","pref":"岐阜県","city":"美濃加茂市","address":"御門町"},
{"zip_code":"5050002","kana_pref":"ｷﾞﾌｹﾝ","kana_city":"ﾐﾉｶﾓｼ","kana_address":"ﾐﾜﾁｮｳｶﾜｳﾗ","pref":"岐阜県","city":"美濃加茂市","address":"三和町川浦"},
{"zip_code":"5050001","kana_pref":"ｷﾞﾌｹﾝ","kana_city":"ﾐﾉｶﾓｼ","kana_address":"ﾐﾜﾁｮｳﾂﾂﾞﾔ","pref":"岐阜県","city":"美濃加茂市","address":"三和町廿屋"},
{"zip_code":"5050021","kana_pref":"ｷﾞﾌｹﾝ","kana_city":"ﾐﾉｶﾓｼ","kana_address":"ﾓﾘﾔﾏﾁｮｳ","pref":"岐阜県","city":"美濃加茂市","address":"森山町"},
{"zip_code":"5050036","kana_pref":"ｷﾞﾌｹﾝ","kana_city":"ﾐﾉｶﾓｼ","kana_address":"ﾔﾏﾃﾁｮｳ","pref":"岐阜県","city":"美濃加茂市","address":"山手町"},
{"zip_code":"5050003","kana_pref":"ｷﾞﾌｹﾝ","kana_city":"ﾐﾉｶﾓｼ","kana_address":"ﾔﾏﾉｳｴﾁｮｳ","pref":"岐阜県","city":"美濃加茂市","address":"山之上町"},
{"zip_code":"5050130","kana_pref":"ｷﾞﾌｹﾝ","kana_city":"ｶﾆｼ","kana_address":"ｶﾈﾔﾏ","pref":"岐阜県","city":"可児市","address":"兼山"},
{"zip_code":"5050000","kana_pref":"ｷﾞﾌｹﾝ","kana_city":"ｶﾓｸﾞﾝｻｶﾎｷﾞﾁｮｳ","kana_address":"","pref":"岐阜県","city":"加茂郡坂祝町","address":""},
{"zip_code":"5050072","kana_pref":"ｷﾞﾌｹﾝ","kana_city":"ｶﾓｸﾞﾝｻｶﾎｷﾞﾁｮｳ","kana_address":"ｵｵﾊﾘ","pref":"岐阜県","city":"加茂郡坂祝町","address":"大針"},
{"zip_code":"5050076","kana_pref":"ｷﾞﾌｹﾝ","kana_city":"ｶﾓｸﾞﾝｻｶﾎｷﾞﾁｮｳ","kana_address":"ｶﾂﾔﾏ","pref":"岐阜県","city":"加茂郡坂祝町","address":"勝山"},
{"zip_code":"5050073","kana_pref":"ｷﾞﾌｹﾝ","kana_city":"ｶﾓｸﾞﾝｻｶﾎｷﾞﾁｮｳ","kana_address":"ｶﾓﾔﾏ","pref":"岐阜県","city":"加茂郡坂祝町","address":"加茂山"},
{"zip_code":"5050071","kana_pref":"ｷﾞﾌｹﾝ","kana_city":"ｶﾓｸﾞﾝｻｶﾎｷﾞﾁｮｳ","kana_address":"ｸﾛｲﾜ","pref":"岐阜県","city":"加茂郡坂祝町","address":"黒岩"},
{"zip_code":"5050074","kana_pref":"ｷﾞﾌｹﾝ","kana_city":"ｶﾓｸﾞﾝｻｶﾎｷﾞﾁｮｳ","kana_address":"ｻｶｸﾗ","pref":"岐阜県","city":"加茂郡坂祝町","address":"酒倉"},
{"zip_code":"5050075","kana_pref":"ｷﾞﾌｹﾝ","kana_city":"ｶﾓｸﾞﾝｻｶﾎｷﾞﾁｮｳ","kana_address":"ﾄﾘｸﾐ","pref":"岐阜県","city":"加茂郡坂祝町","address":"取組"},
{"zip_code":"5050077","kana_pref":"ｷﾞﾌｹﾝ","kana_city":"ｶﾓｸﾞﾝｻｶﾎｷﾞﾁｮｳ","kana_address":"ﾌｶｶﾞﾔ","pref":"岐阜県","city":"加茂郡坂祝町","address":"深萱"},
{"zip_code":"5050300","kana_pref":"ｷﾞﾌｹﾝ","kana_city":"ｶﾓｸﾞﾝﾔｵﾂﾁｮｳ","kana_address":"","pref":"岐阜県","city":"加茂郡八百津町","address":""},
{"zip_code":"5050303","kana_pref":"ｷﾞﾌｹﾝ","kana_city":"ｶﾓｸﾞﾝﾔｵﾂﾁｮｳ","kana_address":"ｲｷﾂｼ","pref":"岐阜県","city":"加茂郡八百津町","address":"伊岐津志"},
{"zip_code":"5050306","kana_pref":"ｷﾞﾌｹﾝ","kana_city":"ｶﾓｸﾞﾝﾔｵﾂﾁｮｳ","kana_address":"ｶﾐｲｲﾀﾞ","pref":"岐阜県","city":"加茂郡八百津町","address":"上飯田"},
{"zip_code":"5050304","kana_pref":"ｷﾞﾌｹﾝ","kana_city":"ｶﾓｸﾞﾝﾔｵﾂﾁｮｳ","kana_address":"ｶﾐﾏｷﾉ","pref":"岐阜県","city":"加茂郡八百津町","address":"上牧野"},
{"zip_code":"5050423","kana_pref":"ｷﾞﾌｹﾝ","kana_city":"ｶﾓｸﾞﾝﾔｵﾂﾁｮｳ","kana_address":"ｶﾐﾖｼﾀﾞ","pref":"岐阜県","city":"加茂郡八百津町","address":"上吉田"},
{"zip_code":"5050422","kana_pref":"ｷﾞﾌｹﾝ","kana_city":"ｶﾓｸﾞﾝﾔｵﾂﾁｮｳ","kana_address":"ｸﾀﾐ","pref":"岐阜県","city":"加茂郡八百津町","address":"久田見"},
{"zip_code":"5050531","kana_pref":"ｷﾞﾌｹﾝ","kana_city":"ｶﾓｸﾞﾝﾔｵﾂﾁｮｳ","kana_address":"ｼｵﾐ","pref":"岐阜県","city":"加茂郡八百津町","address":"潮見"},
{"zip_code":"5050302","kana_pref":"ｷﾞﾌｹﾝ","kana_city":"ｶﾓｸﾞﾝﾔｵﾂﾁｮｳ","kana_address":"ﾆｼｷｵﾘ","pref":"岐阜県","city":"加茂郡八百津町","address":"錦織"},
{"zip_code":"5050307","kana_pref":"ｷﾞﾌｹﾝ","kana_city":"ｶﾓｸﾞﾝﾔｵﾂﾁｮｳ","kana_address":"ﾉｶﾞﾐ","pref":"岐阜県","city":"加茂郡八百津町","address":"野上"},
{"zip_code":"5050421","kana_pref":"ｷﾞﾌｹﾝ","kana_city":"ｶﾓｸﾞﾝﾔｵﾂﾁｮｳ","kana_address":"ﾌｸﾁ","pref":"岐阜県","city":"加茂郡八百津町","address":"福地"},
{"zip_code":"5050532","kana_pref":"ｷﾞﾌｹﾝ","kana_city":"ｶﾓｸﾞﾝﾔｵﾂﾁｮｳ","kana_address":"ﾐﾅﾄ","pref":"岐阜県","city":"加茂郡八百津町","address":"南戸"},
{"zip_code":"5050301","kana_pref":"ｷﾞﾌｹﾝ","kana_city":"ｶﾓｸﾞﾝﾔｵﾂﾁｮｳ","kana_address":"ﾔｵﾂ","pref":"岐阜県","city":"加茂郡八百津町","address":"八百津"},
{"zip_code":"5050305","kana_pref":"ｷﾞﾌｹﾝ","kana_city":"ｶﾓｸﾞﾝﾔｵﾂﾁｮｳ","kana_address":"ﾜﾁ","pref":"岐阜県","city":"加茂郡八百津町","address":"和知"},
{"zip_code":"5050100","kana_pref":"ｷﾞﾌｹﾝ","kana_city":"ｶﾆｸﾞﾝﾐﾀｹﾁｮｳ","kana_address":"","pref":"岐阜県","city":"可児郡御嵩町","address":""},
{"zip_code":"5050115","kana_pref":"ｷﾞﾌｹﾝ","kana_city":"ｶﾆｸﾞﾝﾐﾀｹﾁｮｳ","kana_address":"ｲｼﾞﾘ","pref":"岐阜県","city":"可児郡御嵩町","address":"井尻"},
{"zip_code":"5050104","kana_pref":"ｷﾞﾌｹﾝ","kana_city":"ｶﾆｸﾞﾝﾐﾀｹﾁｮｳ","kana_address":"ｳﾄｳｻﾞｶ","pref":"岐阜県","city":"可児郡御嵩町","address":"謡坂"},
{"zip_code":"5050101","kana_pref":"ｷﾞﾌｹﾝ","kana_city":"ｶﾆｸﾞﾝﾐﾀｹﾁｮｳ","kana_address":"ｵｵｸｺﾞ","pref":"岐阜県","city":"可児郡御嵩町","address":"大久後"},
{"zip_code":"5050106","kana_pref":"ｷﾞﾌｹﾝ","kana_city":"ｶﾆｸﾞﾝﾐﾀｹﾁｮｳ","kana_address":"ｵﾊﾞﾗ","pref":"岐阜県","city":"可児郡御嵩町","address":"小原"},
{"zip_code":"5050126","kana_pref":"ｷﾞﾌｹﾝ","kana_city":"ｶﾆｸﾞﾝﾐﾀｹﾁｮｳ","kana_address":"ｶﾐｴﾄﾞ","pref":"岐阜県","city":"可児郡御嵩町","address":"上恵土"},
{"zip_code":"5050107","kana_pref":"ｷﾞﾌｹﾝ","kana_city":"ｶﾆｸﾞﾝﾐﾀｹﾁｮｳ","kana_address":"ｶﾐﾉｺﾞｳ","pref":"岐阜県","city":"可児郡御嵩町","address":"上之郷"},
{"zip_code":"5050122","kana_pref":"ｷﾞﾌｹﾝ","kana_city":"ｶﾆｸﾞﾝﾐﾀｹﾁｮｳ","kana_address":"ｺﾞｳﾄ","pref":"岐阜県","city":"可児郡御嵩町","address":"顔戸"},
{"zip_code":"5050108","kana_pref":"ｷﾞﾌｹﾝ","kana_city":"ｶﾆｸﾞﾝﾐﾀｹﾁｮｳ","kana_address":"ｺﾜｻﾜ","pref":"岐阜県","city":"可児郡御嵩町","address":"小和沢"},
{"zip_code":"5050105","kana_pref":"ｷﾞﾌｹﾝ","kana_city":"ｶﾆｸﾞﾝﾐﾀｹﾁｮｳ","kana_address":"ｻｲﾄ","pref":"岐阜県","city":"可児郡御嵩町","address":"西洞"},
{"zip_code":"5050111","kana_pref":"ｷﾞﾌｹﾝ","kana_city":"ｶﾆｸﾞﾝﾐﾀｹﾁｮｳ","kana_address":"ｼﾂﾞｷ","pref":"岐阜県","city":"可児郡御嵩町","address":"次月"},
{"zip_code":"5050113","kana_pref":"ｷﾞﾌｹﾝ","kana_city":"ｶﾆｸﾞﾝﾐﾀｹﾁｮｳ","kana_address":"ｼｭｸ","pref":"岐阜県","city":"可児郡御嵩町","address":"宿"},
{"zip_code":"5050103","kana_pref":"ｷﾞﾌｹﾝ","kana_city":"ｶﾆｸﾞﾝﾐﾀｹﾁｮｳ","kana_address":"ﾂﾊﾞｼ","pref":"岐阜県","city":"可児郡御嵩町","address":"津橋"},
{"zip_code":"5050121","kana_pref":"ｷﾞﾌｹﾝ","kana_city":"ｶﾆｸﾞﾝﾐﾀｹﾁｮｳ","kana_address":"ﾅｶ","pref":"岐阜県","city":"可児郡御嵩町","address":"中"},
{"zip_code":"5050114","kana_pref":"ｷﾞﾌｹﾝ","kana_city":"ｶﾆｸﾞﾝﾐﾀｹﾁｮｳ","kana_address":"ﾅｶｷﾞﾘ","pref":"岐阜県","city":"可児郡御嵩町","address":"中切"},
{"zip_code":"5050124","kana_pref":"ｷﾞﾌｹﾝ","kana_city":"ｶﾆｸﾞﾝﾐﾀｹﾁｮｳ","kana_address":"ﾋｴ","pref":"岐阜県","city":"可児郡御嵩町","address":"比衣"},
{"zip_code":"5050125","kana_pref":"ｷﾞﾌｹﾝ","kana_city":"ｶﾆｸﾞﾝﾐﾀｹﾁｮｳ","kana_address":"ﾌｼﾐ","pref":"岐阜県","city":"可児郡御嵩町","address":"伏見"},
{"zip_code":"5050123","kana_pref":"ｷﾞﾌｹﾝ","kana_city":"ｶﾆｸﾞﾝﾐﾀｹﾁｮｳ","kana_address":"ﾌﾙﾔｼｷ","pref":"岐阜県","city":"可児郡御嵩町","address":"古屋敷"},
{"zip_code":"5050102","kana_pref":"ｷﾞﾌｹﾝ","kana_city":"ｶﾆｸﾞﾝﾐﾀｹﾁｮｳ","kana_address":"ﾏｴｻﾞﾜ","pref":"岐阜県","city":"可児郡御嵩町","address":"前沢"},
{"zip_code":"5050112","kana_pref":"ｷﾞﾌｹﾝ","kana_city":"ｶﾆｸﾞﾝﾐﾀｹﾁｮｳ","kana_address":"ﾐｻﾞﾉ","pref":"岐阜県","city":"可児郡御嵩町","address":"美佐野"},
{"zip_code":"5050116","kana_pref":"ｷﾞﾌｹﾝ","kana_city":"ｶﾆｸﾞﾝﾐﾀｹﾁｮｳ","kana_address":"ﾐﾀｹ","pref":"岐阜県","city":"可児郡御嵩町","address":"御嵩"}]}