{"zip_code":[
{"zip_code":"5060000","kana_pref":"ｷﾞﾌｹﾝ","kana_city":"ﾀｶﾔﾏｼ","kana_address":"","pref":"岐阜県","city":"高山市","address":""},
{"zip_code":"5060014","kana_pref":"ｷﾞﾌｹﾝ","kana_city":"ﾀｶﾔﾏｼ","kana_address":"ｱｲｵｲﾏﾁ","pref":"岐阜県","city":"高山市","address":"相生町"},
{"zip_code":"5060045","kana_pref":"ｷﾞﾌｹﾝ","kana_city":"ﾀｶﾔﾏｼ","kana_address":"ｱｶﾎｷﾏﾁ","pref":"岐阜県","city":"高山市","address":"赤保木町"},
{"zip_code":"5060806","kana_pref":"ｷﾞﾌｹﾝ","kana_city":"ﾀｶﾔﾏｼ","kana_address":"ｱｹﾎﾞﾉﾏﾁ","pref":"岐阜県","city":"高山市","address":"曙町"},
{"zip_code":"5060042","kana_pref":"ｷﾞﾌｹﾝ","kana_city":"ﾀｶﾔﾏｼ","kana_address":"ｱｻﾋｶﾞｵｶﾏﾁ","pref":"岐阜県","city":"高山市","address":"旭ケ丘町"},
{"zip_code":"5060017","kana_pref":"ｷﾞﾌｹﾝ","kana_city":"ﾀｶﾔﾏｼ","kana_address":"ｱｻﾋﾏﾁ","pref":"岐阜県","city":"高山市","address":"朝日町"},
{"zip_code":"5060855","kana_pref":"ｷﾞﾌｹﾝ","kana_city":"ﾀｶﾔﾏｼ","kana_address":"ｱﾀｺﾞﾏﾁ","pref":"岐阜県","city":"高山市","address":"愛宕町"},
{"zip_code":"5060825","kana_pref":"ｷﾞﾌｹﾝ","kana_city":"ﾀｶﾔﾏｼ","kana_address":"ｲｼｳﾗﾏﾁ","pref":"岐阜県","city":"高山市","address":"石浦町"},
{"zip_code":"5060815","kana_pref":"ｷﾞﾌｹﾝ","kana_city":"ﾀｶﾔﾏｼ","kana_address":"ｲﾜｲﾏﾁ","pref":"岐阜県","city":"高山市","address":"岩井町"},
{"zip_code":"5060013","kana_pref":"ｷﾞﾌｹﾝ","kana_city":"ﾀｶﾔﾏｼ","kana_address":"ｳﾗﾏﾁ","pref":"岐阜県","city":"高山市","address":"有楽町"},
{"zip_code":"5060812","kana_pref":"ｷﾞﾌｹﾝ","kana_city":"ﾀｶﾔﾏｼ","kana_address":"ｳﾙｼｶﾞｲﾄｳﾏﾁ","pref":"岐阜県","city":"高山市","address":"漆垣内町"},
{"zip_code":"5060801","kana_pref":"ｷﾞﾌｹﾝ","kana_city":"ﾀｶﾔﾏｼ","kana_address":"ｳﾜﾉﾏﾁ","pref":"岐阜県","city":"高山市","address":"上野町"},
{"zip_code":"5060033","kana_pref":"ｷﾞﾌｹﾝ","kana_city":"ﾀｶﾔﾏｼ","kana_address":"ｴﾁｺﾞﾏﾁ","pref":"岐阜県","city":"高山市","address":"越後町"},
{"zip_code":"5060818","kana_pref":"ｷﾞﾌｹﾝ","kana_city":"ﾀｶﾔﾏｼ","kana_address":"ｴﾅｺﾏﾁ","pref":"岐阜県","city":"高山市","address":"江名子町"},
{"zip_code":"5060851","kana_pref":"ｷﾞﾌｹﾝ","kana_city":"ﾀｶﾔﾏｼ","kana_address":"ｵｵｼﾝﾏﾁ","pref":"岐阜県","city":"高山市","address":"大新町"},
{"zip_code":"5060816","kana_pref":"ｷﾞﾌｹﾝ","kana_city":"ﾀｶﾔﾏｼ","kana_address":"ｵｵｼﾞﾏﾏﾁ","pref":"岐阜県","city":"高山市","address":"大島町"},
{"zip_code":"5060811","kana_pref":"ｷﾞﾌｹﾝ","kana_city":"ﾀｶﾔﾏｼ","kana_address":"ｵｵﾎﾞﾗﾏﾁ","pref":"岐阜県","city":"高山市","address":"大洞町"},
{"zip_code":"5060054","kana_pref":"ｷﾞﾌｹﾝ","kana_city":"ﾀｶﾔﾏｼ","kana_address":"ｵｶﾓﾄﾏﾁ","pref":"岐阜県","city":"高山市","address":"岡本町"},
{"zip_code":"5061429","kana_pref":"ｷﾞﾌｹﾝ","kana_city":"ﾀｶﾔﾏｼ","kana_address":"ｵｸﾋﾀﾞｵﾝｾﾝｺﾞｳｱｶｵｹ","pref":"岐阜県","city":"高山市","address":"奥飛騨温泉郷赤桶"},
{"zip_code":"5061425","kana_pref":"ｷﾞﾌｹﾝ","kana_city":"ﾀｶﾔﾏｼ","kana_address":"ｵｸﾋﾀﾞｵﾝｾﾝｺﾞｳｲﾏﾐ","pref":"岐阜県","city":"高山市","address":"奥飛騨温泉郷今見"},
{"zip_code":"5061424","kana_pref":"ｷﾞﾌｹﾝ","kana_city":"ﾀｶﾔﾏｼ","kana_address":"ｵｸﾋﾀﾞｵﾝｾﾝｺﾞｳｶｼｱﾃ","pref":"岐阜県","city":"高山市","address":"奥飛騨温泉郷柏当"},
{"zip_code":"5061421","kana_pref":"ｷﾞﾌｹﾝ","kana_city":"ﾀｶﾔﾏｼ","kana_address":"ｵｸﾋﾀﾞｵﾝｾﾝｺﾞｳｶﾝｻｶ","pref":"岐阜県","city":"高山市","address":"奥飛騨温泉郷神坂"},
{"zip_code":"5061428","kana_pref":"ｷﾞﾌｹﾝ","kana_city":"ﾀｶﾔﾏｼ","kana_address":"ｵｸﾋﾀﾞｵﾝｾﾝｺﾞｳｻｻｼﾞﾏ","pref":"岐阜県","city":"高山市","address":"奥飛騨温泉郷笹嶋"},
{"zip_code":"5061427","kana_pref":"ｷﾞﾌｹﾝ","kana_city":"ﾀｶﾔﾏｼ","kana_address":"ｵｸﾋﾀﾞｵﾝｾﾝｺﾞｳﾀｺﾞﾛｹ","pref":"岐阜県","city":"高山市","address":"奥飛騨温泉郷田頃家"},
{"zip_code":"5061426","kana_pref":"ｷﾞﾌｹﾝ","kana_city":"ﾀｶﾔﾏｼ","kana_address":"ｵｸﾋﾀﾞｵﾝｾﾝｺﾞｳﾀﾃﾉﾏﾀ","pref":"岐阜県","city":"高山市","address":"奥飛騨温泉郷蓼之俣"},
{"zip_code":"5061423","kana_pref":"ｷﾞﾌｹﾝ","kana_city":"ﾀｶﾔﾏｼ","kana_address":"ｵｸﾋﾀﾞｵﾝｾﾝｺﾞｳﾄﾁｵ","pref":"岐阜県","city":"高山市","address":"奥飛騨温泉郷栃尾"},
{"zip_code":"5061422","kana_pref":"ｷﾞﾌｹﾝ","kana_city":"ﾀｶﾔﾏｼ","kana_address":"ｵｸﾋﾀﾞｵﾝｾﾝｺﾞｳﾅｶｵ","pref":"岐阜県","city":"高山市","address":"奥飛騨温泉郷中尾"},
{"zip_code":"5061432","kana_pref":"ｷﾞﾌｹﾝ","kana_city":"ﾀｶﾔﾏｼ","kana_address":"ｵｸﾋﾀﾞｵﾝｾﾝｺﾞｳﾋﾄｴｶﾞﾈ","pref":"岐阜県","city":"高山市","address":"奥飛騨温泉郷一重ケ根"},
{"zip_code":"5061433","kana_pref":"ｷﾞﾌｹﾝ","kana_city":"ﾀｶﾔﾏｼ","kana_address":"ｵｸﾋﾀﾞｵﾝｾﾝｺﾞｳﾋﾗﾕ","pref":"岐阜県","city":"高山市","address":"奥飛騨温泉郷平湯"},
{"zip_code":"5061434","kana_pref":"ｷﾞﾌｹﾝ","kana_city":"ﾀｶﾔﾏｼ","kana_address":"ｵｸﾋﾀﾞｵﾝｾﾝｺﾞｳﾌｸｼﾞ","pref":"岐阜県","city":"高山市","address":"奥飛騨温泉郷福地"},
{"zip_code":"5061431","kana_pref":"ｷﾞﾌｹﾝ","kana_city":"ﾀｶﾔﾏｼ","kana_address":"ｵｸﾋﾀﾞｵﾝｾﾝｺﾞｳﾑﾗｶﾐ","pref":"岐阜県","city":"高山市","address":"奥飛騨温泉郷村上"},
{"zip_code":"5060835","kana_pref":"ｷﾞﾌｹﾝ","kana_city":"ﾀｶﾔﾏｼ","kana_address":"ｶｽｶﾞﾏﾁ","pref":"岐阜県","city":"高山市","address":"春日町"},
{"zip_code":"5060824","kana_pref":"ｷﾞﾌｹﾝ","kana_city":"ﾀｶﾔﾏｼ","kana_address":"ｶﾀﾉﾏﾁ","pref":"岐阜県","city":"高山市","address":"片野町"},
{"zip_code":"5060847","kana_pref":"ｷﾞﾌｹﾝ","kana_city":"ﾀｶﾔﾏｼ","kana_address":"ｶﾀﾊﾗﾏﾁ","pref":"岐阜県","city":"高山市","address":"片原町"},
{"zip_code":"5060844","kana_pref":"ｷﾞﾌｹﾝ","kana_city":"ﾀｶﾔﾏｼ","kana_address":"ｶﾐ1ﾉﾏﾁ","pref":"岐阜県","city":"高山市","address":"上一之町"},
{"zip_code":"5060845","kana_pref":"ｷﾞﾌｹﾝ","kana_city":"ﾀｶﾔﾏｼ","kana_address":"ｶﾐ2ﾉﾏﾁ","pref":"岐阜県","city":"高山市","address":"上二之町"},
{"zip_code":"5060846","kana_pref":"ｷﾞﾌｹﾝ","kana_city":"ﾀｶﾔﾏｼ","kana_address":"ｶﾐ3ﾉﾏﾁ","pref":"岐阜県","city":"高山市","address":"上三之町"},
{"zip_code":"5060055","kana_pref":"ｷﾞﾌｹﾝ","kana_city":"ﾀｶﾔﾏｼ","kana_address":"ｶﾐｵｶﾓﾄﾏﾁ","pref":"岐阜県","city":"高山市","address":"上岡本町"},
{"zip_code":"5060024","kana_pref":"ｷﾞﾌｹﾝ","kana_city":"ﾀｶﾔﾏｼ","kana_address":"ｶﾐｶﾜﾊﾗﾏﾁ","pref":"岐阜県","city":"高山市","address":"上川原町"},
{"zip_code":"5060044","kana_pref":"ｷﾞﾌｹﾝ","kana_city":"ﾀｶﾔﾏｼ","kana_address":"ｶﾐｷﾞﾘﾏﾁ","pref":"岐阜県","city":"高山市","address":"上切町"},
{"zip_code":"5061312","kana_pref":"ｷﾞﾌｹﾝ","kana_city":"ﾀｶﾔﾏｼ","kana_address":"ｶﾐﾀｶﾗﾁｮｳｱﾗﾀ","pref":"岐阜県","city":"高山市","address":"上宝町新田"},
{"zip_code":"5061315","kana_pref":"ｷﾞﾌｹﾝ","kana_city":"ﾀｶﾔﾏｼ","kana_address":"ｶﾐﾀｶﾗﾁｮｳｱﾗﾊﾗ","pref":"岐阜県","city":"高山市","address":"上宝町荒原"},
{"zip_code":"5061303","kana_pref":"ｷﾞﾌｹﾝ","kana_city":"ﾀｶﾔﾏｼ","kana_address":"ｶﾐﾀｶﾗﾁｮｳｲﾜｲﾄﾞ","pref":"岐阜県","city":"高山市","address":"上宝町岩井戸"},
{"zip_code":"5061318","kana_pref":"ｷﾞﾌｹﾝ","kana_city":"ﾀｶﾔﾏｼ","kana_address":"ｶﾐﾀｶﾗﾁｮｳｵｲﾓ","pref":"岐阜県","city":"高山市","address":"上宝町芋生茂"},
{"zip_code":"5061308","kana_pref":"ｷﾞﾌｹﾝ","kana_city":"ﾀｶﾔﾏｼ","kana_address":"ｶﾐﾀｶﾗﾁｮｳｶﾅｷﾄﾞ","pref":"岐阜県","city":"高山市","address":"上宝町金木戸"},
{"zip_code":"5061301","kana_pref":"ｷﾞﾌｹﾝ","kana_city":"ﾀｶﾔﾏｼ","kana_address":"ｶﾐﾀｶﾗﾁｮｳｸｽﾞﾔﾏ","pref":"岐阜県","city":"高山市","address":"上宝町葛山"},
{"zip_code":"5061314","kana_pref":"ｷﾞﾌｹﾝ","kana_city":"ﾀｶﾔﾏｼ","kana_address":"ｶﾐﾀｶﾗﾁｮｳｸﾗﾊﾞｼﾗ","pref":"岐阜県","city":"高山市","address":"上宝町蔵柱"},
{"zip_code":"5061313","kana_pref":"ｷﾞﾌｹﾝ","kana_city":"ﾀｶﾔﾏｼ","kana_address":"ｶﾐﾀｶﾗﾁｮｳｻﾞｲｹ","pref":"岐阜県","city":"高山市","address":"上宝町在家"},
{"zip_code":"5061319","kana_pref":"ｷﾞﾌｹﾝ","kana_city":"ﾀｶﾔﾏｼ","kana_address":"ｶﾐﾀｶﾗﾁｮｳｼﾓｻﾀﾞﾆ","pref":"岐阜県","city":"高山市","address":"上宝町下佐谷"},
{"zip_code":"5061307","kana_pref":"ｷﾞﾌｹﾝ","kana_city":"ﾀｶﾔﾏｼ","kana_address":"ｶﾐﾀｶﾗﾁｮｳｽｺﾞﾛｸ","pref":"岐阜県","city":"高山市","address":"上宝町双六"},
{"zip_code":"5061302","kana_pref":"ｷﾞﾌｹﾝ","kana_city":"ﾀｶﾔﾏｼ","kana_address":"ｶﾐﾀｶﾗﾁｮｳﾅｶﾞｸﾗ","pref":"岐阜県","city":"高山市","address":"上宝町長倉"},
{"zip_code":"5061305","kana_pref":"ｷﾞﾌｹﾝ","kana_city":"ﾀｶﾔﾏｼ","kana_address":"ｶﾐﾀｶﾗﾁｮｳﾅｶﾔﾏ","pref":"岐阜県","city":"高山市","address":"上宝町中山"},
{"zip_code":"5061311","kana_pref":"ｷﾞﾌｹﾝ","kana_city":"ﾀｶﾔﾏｼ","kana_address":"ｶﾐﾀｶﾗﾁｮｳﾈｽﾞﾓﾁ","pref":"岐阜県","city":"高山市","address":"上宝町鼠餅"},
{"zip_code":"5061317","kana_pref":"ｷﾞﾌｹﾝ","kana_city":"ﾀｶﾔﾏｼ","kana_address":"ｶﾐﾀｶﾗﾁｮｳﾎﾝｺﾞｳ","pref":"岐阜県","city":"高山市","address":"上宝町本郷"},
{"zip_code":"5061306","kana_pref":"ｷﾞﾌｹﾝ","kana_city":"ﾀｶﾔﾏｼ","kana_address":"ｶﾐﾀｶﾗﾁｮｳﾐｻﾞ","pref":"岐阜県","city":"高山市","address":"上宝町見座"},
{"zip_code":"5061304","kana_pref":"ｷﾞﾌｹﾝ","kana_city":"ﾀｶﾔﾏｼ","kana_address":"ｶﾐﾀｶﾗﾁｮｳﾐﾔﾊﾗ","pref":"岐阜県","city":"高山市","address":"上宝町宮原"},
{"zip_code":"5061316","kana_pref":"ｷﾞﾌｹﾝ","kana_city":"ﾀｶﾔﾏｼ","kana_address":"ｶﾐﾀｶﾗﾁｮｳﾖｼﾉ","pref":"岐阜県","city":"高山市","address":"上宝町吉野"},
{"zip_code":"5060023","kana_pref":"ｷﾞﾌｹﾝ","kana_city":"ﾀｶﾔﾏｼ","kana_address":"ｶﾜﾊﾗﾏﾁ","pref":"岐阜県","city":"高山市","address":"川原町"},
{"zip_code":"5060006","kana_pref":"ｷﾞﾌｹﾝ","kana_city":"ﾀｶﾔﾏｼ","kana_address":"ｶﾝﾀﾞﾏﾁ","pref":"岐阜県","city":"高山市","address":"神田町"},
{"zip_code":"5060203","kana_pref":"ｷﾞﾌｹﾝ","kana_city":"ﾀｶﾔﾏｼ","kana_address":"ｷﾖﾐﾁｮｳｲｹﾓﾄ","pref":"岐阜県","city":"高山市","address":"清見町池本"},
{"zip_code":"5060201","kana_pref":"ｷﾞﾌｹﾝ","kana_city":"ﾀｶﾔﾏｼ","kana_address":"ｷﾖﾐﾁｮｳｴｸﾞﾛ","pref":"岐阜県","city":"高山市","address":"清見町江黒"},
{"zip_code":"5060202","kana_pref":"ｷﾞﾌｹﾝ","kana_city":"ﾀｶﾔﾏｼ","kana_address":"ｷﾖﾐﾁｮｳｵｵﾀﾆ","pref":"岐阜県","city":"高山市","address":"清見町大谷"},
{"zip_code":"5060206","kana_pref":"ｷﾞﾌｹﾝ","kana_city":"ﾀｶﾔﾏｼ","kana_address":"ｷﾖﾐﾁｮｳｶﾐｵﾄﾞﾘ","pref":"岐阜県","city":"高山市","address":"清見町上小鳥"},
{"zip_code":"5060106","kana_pref":"ｷﾞﾌｹﾝ","kana_city":"ﾀｶﾔﾏｼ","kana_address":"ｷﾖﾐﾁｮｳｻｶｼﾀ","pref":"岐阜県","city":"高山市","address":"清見町坂下"},
{"zip_code":"5060107","kana_pref":"ｷﾞﾌｹﾝ","kana_city":"ﾀｶﾔﾏｼ","kana_address":"ｷﾖﾐﾁｮｳｽﾉﾏﾀ","pref":"岐阜県","city":"高山市","address":"清見町巣野俣"},
{"zip_code":"5060205","kana_pref":"ｷﾞﾌｹﾝ","kana_city":"ﾀｶﾔﾏｼ","kana_address":"ｷﾖﾐﾁｮｳﾅﾂﾏﾔ","pref":"岐阜県","city":"高山市","address":"清見町夏厩"},
{"zip_code":"5060204","kana_pref":"ｷﾞﾌｹﾝ","kana_city":"ﾀｶﾔﾏｼ","kana_address":"ｷﾖﾐﾁｮｳﾆﾎﾝｷﾞ","pref":"岐阜県","city":"高山市","address":"清見町二本木"},
{"zip_code":"5060104","kana_pref":"ｷﾞﾌｹﾝ","kana_city":"ﾀｶﾔﾏｼ","kana_address":"ｷﾖﾐﾁｮｳﾌｸﾖﾘ","pref":"岐阜県","city":"高山市","address":"清見町福寄"},
{"zip_code":"5060103","kana_pref":"ｷﾞﾌｹﾝ","kana_city":"ﾀｶﾔﾏｼ","kana_address":"ｷﾖﾐﾁｮｳﾌｼﾞｾ","pref":"岐阜県","city":"高山市","address":"清見町藤瀬"},
{"zip_code":"5060101","kana_pref":"ｷﾞﾌｹﾝ","kana_city":"ﾀｶﾔﾏｼ","kana_address":"ｷﾖﾐﾁｮｳﾏｷｶﾞﾎﾗ","pref":"岐阜県","city":"高山市","address":"清見町牧ケ洞"},
{"zip_code":"5060102","kana_pref":"ｷﾞﾌｹﾝ","kana_city":"ﾀｶﾔﾏｼ","kana_address":"ｷﾖﾐﾁｮｳﾐｯｶﾏﾁ","pref":"岐阜県","city":"高山市","address":"清見町三日町"},
{"zip_code":"5060105","kana_pref":"ｷﾞﾌｹﾝ","kana_city":"ﾀｶﾔﾏｼ","kana_address":"ｷﾖﾐﾁｮｳﾐﾂﾀﾞﾆ","pref":"岐阜県","city":"高山市","address":"清見町三ツ谷"},
{"zip_code":"5060207","kana_pref":"ｷﾞﾌｹﾝ","kana_city":"ﾀｶﾔﾏｼ","kana_address":"ｷﾖﾐﾁｮｳﾓﾘﾓ","pref":"岐阜県","city":"高山市","address":"清見町森茂"},
{"zip_code":"5060004","kana_pref":"ｷﾞﾌｹﾝ","kana_city":"ﾀｶﾔﾏｼ","kana_address":"ｷﾘｳﾏﾁ","pref":"岐阜県","city":"高山市","address":"桐生町"},
{"zip_code":"5060853","kana_pref":"ｷﾞﾌｹﾝ","kana_city":"ﾀｶﾔﾏｼ","kana_address":"ｻｷｮｳﾏﾁ","pref":"岐阜県","city":"高山市","address":"左京町"},
{"zip_code":"5060858","kana_pref":"ｷﾞﾌｹﾝ","kana_city":"ﾀｶﾔﾏｼ","kana_address":"ｻｸﾗﾏﾁ","pref":"岐阜県","city":"高山市","address":"桜町"},
{"zip_code":"5060807","kana_pref":"ｷﾞﾌｹﾝ","kana_city":"ﾀｶﾔﾏｼ","kana_address":"ｻﾝﾌｸｼﾞﾏﾁ","pref":"岐阜県","city":"高山市","address":"三福寺町"},
{"zip_code":"5060813","kana_pref":"ｷﾞﾌｹﾝ","kana_city":"ﾀｶﾔﾏｼ","kana_address":"ｼｵﾔﾏﾁ","pref":"岐阜県","city":"高山市","address":"塩屋町"},
{"zip_code":"5060836","kana_pref":"ｷﾞﾌｹﾝ","kana_city":"ﾀｶﾔﾏｼ","kana_address":"ｼﾏｶﾜﾊﾗﾏﾁ","pref":"岐阜県","city":"高山市","address":"島川原町"},
{"zip_code":"5060843","kana_pref":"ｷﾞﾌｹﾝ","kana_city":"ﾀｶﾔﾏｼ","kana_address":"ｼﾓ1ﾉﾏﾁ","pref":"岐阜県","city":"高山市","address":"下一之町"},
{"zip_code":"5060842","kana_pref":"ｷﾞﾌｹﾝ","kana_city":"ﾀｶﾔﾏｼ","kana_address":"ｼﾓ2ﾉﾏﾁ","pref":"岐阜県","city":"高山市","address":"下二之町"},
{"zip_code":"5060841","kana_pref":"ｷﾞﾌｹﾝ","kana_city":"ﾀｶﾔﾏｼ","kana_address":"ｼﾓ3ﾉﾏﾁ","pref":"岐阜県","city":"高山市","address":"下三之町"},
{"zip_code":"5060052","kana_pref":"ｷﾞﾌｹﾝ","kana_city":"ﾀｶﾔﾏｼ","kana_address":"ｼﾓｵｶﾓﾄﾏﾁ","pref":"岐阜県","city":"高山市","address":"下岡本町"},
{"zip_code":"5060041","kana_pref":"ｷﾞﾌｹﾝ","kana_city":"ﾀｶﾔﾏｼ","kana_address":"ｼﾓｷﾞﾘﾏﾁ","pref":"岐阜県","city":"高山市","address":"下切町"},
{"zip_code":"5060046","kana_pref":"ｷﾞﾌｹﾝ","kana_city":"ﾀｶﾔﾏｼ","kana_address":"ｼﾓﾉｷﾘﾏﾁ","pref":"岐阜県","city":"高山市","address":"下之切町"},
{"zip_code":"5060059","kana_pref":"ｷﾞﾌｹﾝ","kana_city":"ﾀｶﾔﾏｼ","kana_address":"ｼﾓﾊﾞﾔｼﾏﾁ","pref":"岐阜県","city":"高山市","address":"下林町"},
{"zip_code":"5060053","kana_pref":"ｷﾞﾌｹﾝ","kana_city":"ﾀｶﾔﾏｼ","kana_address":"ｼｮｳﾜﾏﾁ","pref":"岐阜県","city":"高山市","address":"昭和町"},
{"zip_code":"5060822","kana_pref":"ｷﾞﾌｹﾝ","kana_city":"ﾀｶﾔﾏｼ","kana_address":"ｼﾛﾔﾏ","pref":"岐阜県","city":"高山市","address":"城山"},
{"zip_code":"5060035","kana_pref":"ｷﾞﾌｹﾝ","kana_city":"ﾀｶﾔﾏｼ","kana_address":"ｼﾝｸﾞｳﾏﾁ","pref":"岐阜県","city":"高山市","address":"新宮町"},
{"zip_code":"5060821","kana_pref":"ｷﾞﾌｹﾝ","kana_city":"ﾀｶﾔﾏｼ","kana_address":"ｼﾝﾒｲﾏﾁ","pref":"岐阜県","city":"高山市","address":"神明町"},
{"zip_code":"5060016","kana_pref":"ｷﾞﾌｹﾝ","kana_city":"ﾀｶﾔﾏｼ","kana_address":"ｽｴﾋﾛﾏﾁ","pref":"岐阜県","city":"高山市","address":"末広町"},
{"zip_code":"5060834","kana_pref":"ｷﾞﾌｹﾝ","kana_city":"ﾀｶﾔﾏｼ","kana_address":"ｿｳﾕｳｼﾞﾏﾁ","pref":"岐阜県","city":"高山市","address":"宗猷寺町"},
{"zip_code":"5060007","kana_pref":"ｷﾞﾌｹﾝ","kana_city":"ﾀｶﾔﾏｼ","kana_address":"ｿｳﾜﾏﾁ","pref":"岐阜県","city":"高山市","address":"総和町"},
{"zip_code":"5060856","kana_pref":"ｷﾞﾌｹﾝ","kana_city":"ﾀｶﾔﾏｼ","kana_address":"ﾀﾞｲﾓﾝﾏﾁ","pref":"岐阜県","city":"高山市","address":"大門町"},
{"zip_code":"5060814","kana_pref":"ｷﾞﾌｹﾝ","kana_city":"ﾀｶﾔﾏｼ","kana_address":"ﾀｷﾏﾁ","pref":"岐阜県","city":"高山市","address":"滝町"},
{"zip_code":"5060057","kana_pref":"ｷﾞﾌｹﾝ","kana_city":"ﾀｶﾔﾏｼ","kana_address":"ﾀｸﾐｶﾞｵｶﾏﾁ","pref":"岐阜県","city":"高山市","address":"匠ケ丘町"},
{"zip_code":"5060032","kana_pref":"ｷﾞﾌｹﾝ","kana_city":"ﾀｶﾔﾏｼ","kana_address":"ﾁｼﾏﾏﾁ","pref":"岐阜県","city":"高山市","address":"千島町"},
{"zip_code":"5060857","kana_pref":"ｷﾞﾌｹﾝ","kana_city":"ﾀｶﾔﾏｼ","kana_address":"ﾃｯﾎﾟｳﾏﾁ","pref":"岐阜県","city":"高山市","address":"鉄砲町"},
{"zip_code":"5060832","kana_pref":"ｷﾞﾌｹﾝ","kana_city":"ﾀｶﾔﾏｼ","kana_address":"ﾃﾝｼｮｳｼﾞﾏﾁ","pref":"岐阜県","city":"高山市","address":"天性寺町"},
{"zip_code":"5060025","kana_pref":"ｷﾞﾌｹﾝ","kana_city":"ﾀｶﾔﾏｼ","kana_address":"ﾃﾝﾏﾝﾏﾁ","pref":"岐阜県","city":"高山市","address":"天満町"},
{"zip_code":"5060002","kana_pref":"ｷﾞﾌｹﾝ","kana_city":"ﾀｶﾔﾏｼ","kana_address":"ﾄﾝﾔﾏﾁ","pref":"岐阜県","city":"高山市","address":"問屋町"},
{"zip_code":"5060043","kana_pref":"ｷﾞﾌｹﾝ","kana_city":"ﾀｶﾔﾏｼ","kana_address":"ﾅｶｷﾞﾘﾏﾁ","pref":"岐阜県","city":"高山市","address":"中切町"},
{"zip_code":"5060051","kana_pref":"ｷﾞﾌｹﾝ","kana_city":"ﾀｶﾔﾏｼ","kana_address":"ﾅｶﾔﾏﾏﾁ","pref":"岐阜県","city":"高山市","address":"中山町"},
{"zip_code":"5060804","kana_pref":"ｷﾞﾌｹﾝ","kana_city":"ﾀｶﾔﾏｼ","kana_address":"ﾅｶﾞｻｶﾏﾁ","pref":"岐阜県","city":"高山市","address":"長坂町"},
{"zip_code":"5060021","kana_pref":"ｷﾞﾌｹﾝ","kana_city":"ﾀｶﾔﾏｼ","kana_address":"ﾅﾀﾞﾏﾁ","pref":"岐阜県","city":"高山市","address":"名田町"},
{"zip_code":"5060005","kana_pref":"ｷﾞﾌｹﾝ","kana_city":"ﾀｶﾔﾏｼ","kana_address":"ﾅﾇｶﾏﾁ","pref":"岐阜県","city":"高山市","address":"七日町"},
{"zip_code":"5060031","kana_pref":"ｷﾞﾌｹﾝ","kana_city":"ﾀｶﾔﾏｼ","kana_address":"ﾆｼﾉｲｯｼｷﾏﾁ","pref":"岐阜県","city":"高山市","address":"西之一色町"},
{"zip_code":"5060833","kana_pref":"ｷﾞﾌｹﾝ","kana_city":"ﾀｶﾔﾏｼ","kana_address":"ﾆｼﾎﾞﾗﾏﾁ","pref":"岐阜県","city":"高山市","address":"西洞町"},
{"zip_code":"5060022","kana_pref":"ｷﾞﾌｹﾝ","kana_city":"ﾀｶﾔﾏｼ","kana_address":"ﾆｼﾏﾁ","pref":"岐阜県","city":"高山市","address":"西町"},
{"zip_code":"5062113","kana_pref":"ｷﾞﾌｹﾝ","kana_city":"ﾀｶﾔﾏｼ","kana_address":"ﾆｭｳｶﾜﾁｮｳｱｼﾀﾆ","pref":"岐阜県","city":"高山市","address":"丹生川町芦谷"},
{"zip_code":"5062253","kana_pref":"ｷﾞﾌｹﾝ","kana_city":"ﾀｶﾔﾏｼ","kana_address":"ﾆｭｳｶﾜﾁｮｳｲｹﾉﾏﾀ","pref":"岐阜県","city":"高山市","address":"丹生川町池之俣"},
{"zip_code":"5062112","kana_pref":"ｷﾞﾌｹﾝ","kana_city":"ﾀｶﾔﾏｼ","kana_address":"ﾆｭｳｶﾜﾁｮｳｲﾀﾝﾄﾞ","pref":"岐阜県","city":"高山市","address":"丹生川町板殿"},
{"zip_code":"5062254","kana_pref":"ｷﾞﾌｹﾝ","kana_city":"ﾀｶﾔﾏｼ","kana_address":"ﾆｭｳｶﾜﾁｮｳｲﾜｲﾀﾆ","pref":"岐阜県","city":"高山市","address":"丹生川町岩井谷"},
{"zip_code":"5062111","kana_pref":"ｷﾞﾌｹﾝ","kana_city":"ﾀｶﾔﾏｼ","kana_address":"ﾆｭｳｶﾜﾁｮｳｳﾘﾀﾞ","pref":"岐阜県","city":"高山市","address":"丹生川町瓜田"},
{"zip_code":"5062131","kana_pref":"ｷﾞﾌｹﾝ","kana_city":"ﾀｶﾔﾏｼ","kana_address":"ﾆｭｳｶﾜﾁｮｳｵｵｶﾞﾔ","pref":"岐阜県","city":"高山市","address":"丹生川町大萱"},
{"zip_code":"5062116","kana_pref":"ｷﾞﾌｹﾝ","kana_city":"ﾀｶﾔﾏｼ","kana_address":"ﾆｭｳｶﾜﾁｮｳｵｵﾀﾆ","pref":"岐阜県","city":"高山市","address":"丹生川町大谷"},
{"zip_code":"5062104","kana_pref":"ｷﾞﾌｹﾝ","kana_city":"ﾀｶﾔﾏｼ","kana_address":"ﾆｭｳｶﾜﾁｮｳｵｵﾇﾏ","pref":"岐阜県","city":"高山市","address":"丹生川町大沼"},
{"zip_code":"5062103","kana_pref":"ｷﾞﾌｹﾝ","kana_city":"ﾀｶﾔﾏｼ","kana_address":"ﾆｭｳｶﾜﾁｮｳｵｼｷｼﾞ","pref":"岐阜県","city":"高山市","address":"丹生川町折敷地"},
{"zip_code":"5062106","kana_pref":"ｷﾞﾌｹﾝ","kana_city":"ﾀｶﾔﾏｼ","kana_address":"ﾆｭｳｶﾜﾁｮｳｶｼﾊﾗ","pref":"岐阜県","city":"高山市","address":"丹生川町柏原"},
{"zip_code":"5062133","kana_pref":"ｷﾞﾌｹﾝ","kana_city":"ﾀｶﾔﾏｼ","kana_address":"ﾆｭｳｶﾜﾁｮｳｷﾀｶﾀ","pref":"岐阜県","city":"高山市","address":"丹生川町北方"},
{"zip_code":"5062134","kana_pref":"ｷﾞﾌｹﾝ","kana_city":"ﾀｶﾔﾏｼ","kana_address":"ﾆｭｳｶﾜﾁｮｳｷﾘﾔﾏ","pref":"岐阜県","city":"高山市","address":"丹生川町桐山"},
{"zip_code":"5062252","kana_pref":"ｷﾞﾌｹﾝ","kana_city":"ﾀｶﾔﾏｼ","kana_address":"ﾆｭｳｶﾜﾁｮｳｸﾃ","pref":"岐阜県","city":"高山市","address":"丹生川町久手"},
{"zip_code":"5062115","kana_pref":"ｷﾞﾌｹﾝ","kana_city":"ﾀｶﾔﾏｼ","kana_address":"ﾆｭｳｶﾜﾁｮｳｺﾉ","pref":"岐阜県","city":"高山市","address":"丹生川町小野"},
{"zip_code":"5062117","kana_pref":"ｷﾞﾌｹﾝ","kana_city":"ﾀｶﾔﾏｼ","kana_address":"ﾆｭｳｶﾜﾁｮｳｺﾞﾝﾎﾞｳ","pref":"岐阜県","city":"高山市","address":"丹生川町根方"},
{"zip_code":"5062105","kana_pref":"ｷﾞﾌｹﾝ","kana_city":"ﾀｶﾔﾏｼ","kana_address":"ﾆｭｳｶﾜﾁｮｳｻﾝﾉｾ","pref":"岐阜県","city":"高山市","address":"丹生川町三之瀬"},
{"zip_code":"5062258","kana_pref":"ｷﾞﾌｹﾝ","kana_city":"ﾀｶﾔﾏｼ","kana_address":"ﾆｭｳｶﾜﾁｮｳｼｵﾔ","pref":"岐阜県","city":"高山市","address":"丹生川町塩屋"},
{"zip_code":"5062135","kana_pref":"ｷﾞﾌｹﾝ","kana_city":"ﾀｶﾔﾏｼ","kana_address":"ﾆｭｳｶﾜﾁｮｳｼﾓﾎﾞ","pref":"岐阜県","city":"高山市","address":"丹生川町下保"},
{"zip_code":"5062118","kana_pref":"ｷﾞﾌｹﾝ","kana_city":"ﾀｶﾔﾏｼ","kana_address":"ﾆｭｳｶﾜﾁｮｳｼﾛｲ","pref":"岐阜県","city":"高山市","address":"丹生川町白井"},
{"zip_code":"5062257","kana_pref":"ｷﾞﾌｹﾝ","kana_city":"ﾀｶﾔﾏｼ","kana_address":"ﾆｭｳｶﾜﾁｮｳｿﾃﾞ","pref":"岐阜県","city":"高山市","address":"丹生川町曽手"},
{"zip_code":"5062255","kana_pref":"ｷﾞﾌｹﾝ","kana_city":"ﾀｶﾔﾏｼ","kana_address":"ﾆｭｳｶﾜﾁｮｳﾀﾞﾖｼ","pref":"岐阜県","city":"高山市","address":"丹生川町駄吉"},
{"zip_code":"5062124","kana_pref":"ｷﾞﾌｹﾝ","kana_city":"ﾀｶﾔﾏｼ","kana_address":"ﾆｭｳｶﾜﾁｮｳﾆｲﾊﾞﾘ","pref":"岐阜県","city":"高山市","address":"丹生川町新張"},
{"zip_code":"5062251","kana_pref":"ｷﾞﾌｹﾝ","kana_city":"ﾀｶﾔﾏｼ","kana_address":"ﾆｭｳｶﾜﾁｮｳﾊﾀﾎｺ","pref":"岐阜県","city":"高山市","address":"丹生川町旗鉾"},
{"zip_code":"5062114","kana_pref":"ｷﾞﾌｹﾝ","kana_city":"ﾀｶﾔﾏｼ","kana_address":"ﾆｭｳｶﾜﾁｮｳﾋｶｹﾞ","pref":"岐阜県","city":"高山市","address":"丹生川町日影"},
{"zip_code":"5062256","kana_pref":"ｷﾞﾌｹﾝ","kana_city":"ﾀｶﾔﾏｼ","kana_address":"ﾆｭｳｶﾜﾁｮｳﾋﾖﾓ","pref":"岐阜県","city":"高山市","address":"丹生川町日面"},
{"zip_code":"5062121","kana_pref":"ｷﾞﾌｹﾝ","kana_city":"ﾀｶﾔﾏｼ","kana_address":"ﾆｭｳｶﾜﾁｮｳﾎﾞｳｶﾀ","pref":"岐阜県","city":"高山市","address":"丹生川町坊方"},
{"zip_code":"5062132","kana_pref":"ｷﾞﾌｹﾝ","kana_city":"ﾀｶﾔﾏｼ","kana_address":"ﾆｭｳｶﾜﾁｮｳﾎｳﾘｷ","pref":"岐阜県","city":"高山市","address":"丹生川町法力"},
{"zip_code":"5062125","kana_pref":"ｷﾞﾌｹﾝ","kana_city":"ﾀｶﾔﾏｼ","kana_address":"ﾆｭｳｶﾜﾁｮｳﾎｿｺﾞｴ","pref":"岐阜県","city":"高山市","address":"丹生川町細越"},
{"zip_code":"5062123","kana_pref":"ｷﾞﾌｹﾝ","kana_city":"ﾀｶﾔﾏｼ","kana_address":"ﾆｭｳｶﾜﾁｮｳﾏﾁｶﾀ","pref":"岐阜県","city":"高山市","address":"丹生川町町方"},
{"zip_code":"5062101","kana_pref":"ｷﾞﾌｹﾝ","kana_city":"ﾀｶﾔﾏｼ","kana_address":"ﾆｭｳｶﾜﾁｮｳﾓﾘﾌﾞ","pref":"岐阜県","city":"高山市","address":"丹生川町森部"},
{"zip_code":"5062122","kana_pref":"ｷﾞﾌｹﾝ","kana_city":"ﾀｶﾔﾏｼ","kana_address":"ﾆｭｳｶﾜﾁｮｳﾔﾏｸﾁ","pref":"岐阜県","city":"高山市","address":"丹生川町山口"},
{"zip_code":"5060012","kana_pref":"ｷﾞﾌｹﾝ","kana_city":"ﾀｶﾔﾏｼ","kana_address":"ﾊﾁｹﾝﾏﾁ","pref":"岐阜県","city":"高山市","address":"八軒町"},
{"zip_code":"5060852","kana_pref":"ｷﾞﾌｹﾝ","kana_city":"ﾀｶﾔﾏｼ","kana_address":"ﾊﾁﾏﾝﾏﾁ","pref":"岐阜県","city":"高山市","address":"八幡町"},
{"zip_code":"5060008","kana_pref":"ｷﾞﾌｹﾝ","kana_city":"ﾀｶﾔﾏｼ","kana_address":"ﾊﾂﾀﾞﾏﾁ","pref":"岐阜県","city":"高山市","address":"初田町"},
{"zip_code":"5060009","kana_pref":"ｷﾞﾌｹﾝ","kana_city":"ﾀｶﾔﾏｼ","kana_address":"ﾊﾅｵｶﾏﾁ","pref":"岐阜県","city":"高山市","address":"花岡町"},
{"zip_code":"5060015","kana_pref":"ｷﾞﾌｹﾝ","kana_city":"ﾀｶﾔﾏｼ","kana_address":"ﾊﾅｶﾜﾏﾁ","pref":"岐阜県","city":"高山市","address":"花川町"},
{"zip_code":"5060026","kana_pref":"ｷﾞﾌｹﾝ","kana_city":"ﾀｶﾔﾏｼ","kana_address":"ﾊﾅｻﾄﾏﾁ","pref":"岐阜県","city":"高山市","address":"花里町"},
{"zip_code":"5060838","kana_pref":"ｷﾞﾌｹﾝ","kana_city":"ﾀｶﾔﾏｼ","kana_address":"ﾊﾞﾊﾞﾏﾁ","pref":"岐阜県","city":"高山市","address":"馬場町"},
{"zip_code":"5060805","kana_pref":"ｷﾞﾌｹﾝ","kana_city":"ﾀｶﾔﾏｼ","kana_address":"ﾋｶﾞｼﾔﾏﾏﾁ","pref":"岐阜県","city":"高山市","address":"東山町"},
{"zip_code":"5060803","kana_pref":"ｷﾞﾌｹﾝ","kana_city":"ﾀｶﾔﾏｼ","kana_address":"ﾋﾉﾃﾞﾏﾁ","pref":"岐阜県","city":"高山市","address":"日の出町"},
{"zip_code":"5060831","kana_pref":"ｷﾞﾌｹﾝ","kana_city":"ﾀｶﾔﾏｼ","kana_address":"ﾌｷﾔﾏﾁ","pref":"岐阜県","city":"高山市","address":"吹屋町"},
{"zip_code":"5060001","kana_pref":"ｷﾞﾌｹﾝ","kana_city":"ﾀｶﾔﾏｼ","kana_address":"ﾌﾕﾄｳﾏﾁ","pref":"岐阜県","city":"高山市","address":"冬頭町"},
{"zip_code":"5060003","kana_pref":"ｷﾞﾌｹﾝ","kana_city":"ﾀｶﾔﾏｼ","kana_address":"ﾎﾉﾌﾞﾏﾁ","pref":"岐阜県","city":"高山市","address":"本母町"},
{"zip_code":"5060837","kana_pref":"ｷﾞﾌｹﾝ","kana_city":"ﾀｶﾔﾏｼ","kana_address":"ﾎﾘﾊﾞﾀﾏﾁ","pref":"岐阜県","city":"高山市","address":"堀端町"},
{"zip_code":"5060011","kana_pref":"ｷﾞﾌｹﾝ","kana_city":"ﾀｶﾔﾏｼ","kana_address":"ﾎﾝﾏﾁ","pref":"岐阜県","city":"高山市","address":"本町"},
{"zip_code":"5060048","kana_pref":"ｷﾞﾌｹﾝ","kana_city":"ﾀｶﾔﾏｼ","kana_address":"ﾏｴﾊﾗﾏﾁ","pref":"岐阜県","city":"高山市","address":"前原町"},
{"zip_code":"5060034","kana_pref":"ｷﾞﾌｹﾝ","kana_city":"ﾀｶﾔﾏｼ","kana_address":"ﾏﾂｸﾗﾏﾁ","pref":"岐阜県","city":"高山市","address":"松倉町"},
{"zip_code":"5060802","kana_pref":"ｷﾞﾌｹﾝ","kana_city":"ﾀｶﾔﾏｼ","kana_address":"ﾏﾂﾉｷﾏﾁ","pref":"岐阜県","city":"高山市","address":"松之木町"},
{"zip_code":"5060808","kana_pref":"ｷﾞﾌｹﾝ","kana_city":"ﾀｶﾔﾏｼ","kana_address":"ﾏﾂﾓﾄﾏﾁ","pref":"岐阜県","city":"高山市","address":"松本町"},
{"zip_code":"5060056","kana_pref":"ｷﾞﾌｹﾝ","kana_city":"ﾀｶﾔﾏｼ","kana_address":"ﾐﾄﾞﾘｶﾞｵｶﾏﾁ","pref":"岐阜県","city":"高山市","address":"緑ケ丘町"},
{"zip_code":"5060823","kana_pref":"ｷﾞﾌｹﾝ","kana_city":"ﾀｶﾔﾏｼ","kana_address":"ﾓﾘｼﾀﾏﾁ","pref":"岐阜県","city":"高山市","address":"森下町"},
{"zip_code":"5060817","kana_pref":"ｷﾞﾌｹﾝ","kana_city":"ﾀｶﾔﾏｼ","kana_address":"ﾔﾏｸﾞﾁﾏﾁ","pref":"岐阜県","city":"高山市","address":"山口町"},
{"zip_code":"5060058","kana_pref":"ｷﾞﾌｹﾝ","kana_city":"ﾀｶﾔﾏｼ","kana_address":"ﾔﾏﾀﾞﾏﾁ","pref":"岐阜県","city":"高山市","address":"山田町"},
{"zip_code":"5060047","kana_pref":"ｷﾞﾌｹﾝ","kana_city":"ﾀｶﾔﾏｼ","kana_address":"ﾖｳｶﾏﾁ","pref":"岐阜県","city":"高山市","address":"八日町"},
{"zip_code":"5060854","kana_pref":"ｷﾞﾌｹﾝ","kana_city":"ﾀｶﾔﾏｼ","kana_address":"ﾜｶﾀﾂﾏﾁ","pref":"岐阜県","city":"高山市","address":"若達町"},
{"zip_code":"5061100","kana_pref":"ｷﾞﾌｹﾝ","kana_city":"ﾋﾀﾞｼ","kana_address":"","pref":"岐阜県","city":"飛騨市","address":""},
{"zip_code":"5061121","kana_pref":"ｷﾞﾌｹﾝ","kana_city":"ﾋﾀﾞｼ","kana_address":"ｶﾐｵｶﾁｮｳｱｻﾋｶﾞｵｶ","pref":"岐阜県","city":"飛騨市","address":"神岡町旭ケ丘"},
{"zip_code":"5061147","kana_pref":"ｷﾞﾌｹﾝ","kana_city":"ﾋﾀﾞｼ","kana_address":"ｶﾐｵｶﾁｮｳｱｽﾞﾓ","pref":"岐阜県","city":"飛騨市","address":"神岡町東雲"},
{"zip_code":"5061149","kana_pref":"ｷﾞﾌｹﾝ","kana_city":"ﾋﾀﾞｼ","kana_address":"ｶﾐｵｶﾁｮｳｱｿﾎﾞ","pref":"岐阜県","city":"飛騨市","address":"神岡町阿曽保"},
{"zip_code":"5061131","kana_pref":"ｷﾞﾌｹﾝ","kana_city":"ﾋﾀﾞｼ","kana_address":"ｶﾐｵｶﾁｮｳｱｿﾔ","pref":"岐阜県","city":"飛騨市","address":"神岡町麻生野"},
{"zip_code":"5061162","kana_pref":"ｷﾞﾌｹﾝ","kana_city":"ﾋﾀﾞｼ","kana_address":"ｶﾐｵｶﾁｮｳｱｿﾗ","pref":"岐阜県","city":"飛騨市","address":"神岡町朝浦"},
{"zip_code":"5061212","kana_pref":"ｷﾞﾌｹﾝ","kana_city":"ﾋﾀﾞｼ","kana_address":"ｶﾐｵｶﾁｮｳｱﾄﾂｶﾞﾜ","pref":"岐阜県","city":"飛騨市","address":"神岡町跡津川"},
{"zip_code":"5061132","kana_pref":"ｷﾞﾌｹﾝ","kana_city":"ﾋﾀﾞｼ","kana_address":"ｶﾐｵｶﾁｮｳｲｼｶﾞﾐ","pref":"岐阜県","city":"飛騨市","address":"神岡町石神"},
{"zip_code":"5061106","kana_pref":"ｷﾞﾌｹﾝ","kana_city":"ﾋﾀﾞｼ","kana_address":"ｶﾐｵｶﾁｮｳｲﾆｼ","pref":"岐阜県","city":"飛騨市","address":"神岡町伊西"},
{"zip_code":"5061103","kana_pref":"ｷﾞﾌｹﾝ","kana_city":"ﾋﾀﾞｼ","kana_address":"ｶﾐｵｶﾁｮｳｲﾜｲﾀﾞﾆ","pref":"岐阜県","city":"飛騨市","address":"神岡町岩井谷"},
{"zip_code":"5061102","kana_pref":"ｷﾞﾌｹﾝ","kana_city":"ﾋﾀﾞｼ","kana_address":"ｶﾐｵｶﾁｮｳｳﾂﾎﾞ","pref":"岐阜県","city":"飛騨市","address":"神岡町打保"},
{"zip_code":"5061125","kana_pref":"ｷﾞﾌｹﾝ","kana_city":"ﾋﾀﾞｼ","kana_address":"ｶﾐｵｶﾁｮｳｴﾏﾁｮｳ","pref":"岐阜県","city":"飛騨市","address":"神岡町江馬町"},
{"zip_code":"5061158","kana_pref":"ｷﾞﾌｹﾝ","kana_city":"ﾋﾀﾞｼ","kana_address":"ｶﾐｵｶﾁｮｳｶｼﾊﾗ","pref":"岐阜県","city":"飛騨市","address":"神岡町柏原"},
{"zip_code":"5061145","kana_pref":"ｷﾞﾌｹﾝ","kana_city":"ﾋﾀﾞｼ","kana_address":"ｶﾐｵｶﾁｮｳｶﾏｻｷ","pref":"岐阜県","city":"飛騨市","address":"神岡町釜崎"},
{"zip_code":"5061143","kana_pref":"ｷﾞﾌｹﾝ","kana_city":"ﾋﾀﾞｼ","kana_address":"ｶﾐｵｶﾁｮｳｺｶﾔ","pref":"岐阜県","city":"飛騨市","address":"神岡町小萱"},
{"zip_code":"5061122","kana_pref":"ｷﾞﾌｹﾝ","kana_city":"ﾋﾀﾞｼ","kana_address":"ｶﾐｵｶﾁｮｳｻｶﾄﾐﾁｮｳ","pref":"岐阜県","city":"飛騨市","address":"神岡町坂富町"},
{"zip_code":"5061126","kana_pref":"ｷﾞﾌｹﾝ","kana_city":"ﾋﾀﾞｼ","kana_address":"ｶﾐｵｶﾁｮｳｻｸﾗｶﾞｵｶ","pref":"岐阜県","city":"飛騨市","address":"神岡町桜ケ丘"},
{"zip_code":"5061211","kana_pref":"ｷﾞﾌｹﾝ","kana_city":"ﾋﾀﾞｼ","kana_address":"ｶﾐｵｶﾁｮｳｻｺ","pref":"岐阜県","city":"飛騨市","address":"神岡町佐古"},
{"zip_code":"5061114","kana_pref":"ｷﾞﾌｹﾝ","kana_city":"ﾋﾀﾞｼ","kana_address":"ｶﾐｵｶﾁｮｳｼｶﾏ","pref":"岐阜県","city":"飛騨市","address":"神岡町鹿間"},
{"zip_code":"5061107","kana_pref":"ｷﾞﾌｹﾝ","kana_city":"ﾋﾀﾞｼ","kana_address":"ｶﾐｵｶﾁｮｳｼﾓﾉﾓﾄ","pref":"岐阜県","city":"飛騨市","address":"神岡町下之本"},
{"zip_code":"5061123","kana_pref":"ｷﾞﾌｹﾝ","kana_city":"ﾋﾀﾞｼ","kana_address":"ｶﾐｵｶﾁｮｳｼﾛｶﾞｵｶ","pref":"岐阜県","city":"飛騨市","address":"神岡町城ケ丘"},
{"zip_code":"5061204","kana_pref":"ｷﾞﾌｹﾝ","kana_city":"ﾋﾀﾞｼ","kana_address":"ｶﾐｵｶﾁｮｳｽｷﾞﾔﾏ","pref":"岐阜県","city":"飛騨市","address":"神岡町杉山"},
{"zip_code":"5061133","kana_pref":"ｷﾞﾌｹﾝ","kana_city":"ﾋﾀﾞｼ","kana_address":"ｶﾐｵｶﾁｮｳｽｺﾞｳ","pref":"岐阜県","city":"飛騨市","address":"神岡町数河"},
{"zip_code":"5061157","kana_pref":"ｷﾞﾌｹﾝ","kana_city":"ﾋﾀﾞｼ","kana_address":"ｶﾐｵｶﾁｮｳｽﾔﾏ","pref":"岐阜県","city":"飛騨市","address":"神岡町巣山"},
{"zip_code":"5061108","kana_pref":"ｷﾞﾌｹﾝ","kana_city":"ﾋﾀﾞｼ","kana_address":"ｶﾐｵｶﾁｮｳｾﾄ","pref":"岐阜県","city":"飛騨市","address":"神岡町瀬戸"},
{"zip_code":"5061148","kana_pref":"ｷﾞﾌｹﾝ","kana_city":"ﾋﾀﾞｼ","kana_address":"ｶﾐｵｶﾁｮｳﾀﾃﾉﾁｮｳ","pref":"岐阜県","city":"飛騨市","address":"神岡町館野町"},
{"zip_code":"5061201","kana_pref":"ｷﾞﾌｹﾝ","kana_city":"ﾋﾀﾞｼ","kana_address":"ｶﾐｵｶﾁｮｳﾀﾆ","pref":"岐阜県","city":"飛騨市","address":"神岡町谷"},
{"zip_code":"5061152","kana_pref":"ｷﾞﾌｹﾝ","kana_city":"ﾋﾀﾞｼ","kana_address":"ｶﾐｵｶﾁｮｳﾃﾗﾊﾞﾔｼ","pref":"岐阜県","city":"飛騨市","address":"神岡町寺林"},
{"zip_code":"5061213","kana_pref":"ｷﾞﾌｹﾝ","kana_city":"ﾋﾀﾞｼ","kana_address":"ｶﾐｵｶﾁｮｳﾄﾞ","pref":"岐阜県","city":"飛騨市","address":"神岡町土"},
{"zip_code":"5061121","kana_pref":"ｷﾞﾌｹﾝ","kana_city":"ﾋﾀﾞｼ","kana_address":"ｶﾐｵｶﾁｮｳﾄﾉ","pref":"岐阜県","city":"飛騨市","address":"神岡町殿"},
{"zip_code":"5061202","kana_pref":"ｷﾞﾌｹﾝ","kana_city":"ﾋﾀﾞｼ","kana_address":"ｶﾐｵｶﾁｮｳﾅｶﾔﾏ","pref":"岐阜県","city":"飛騨市","address":"神岡町中山"},
{"zip_code":"5061151","kana_pref":"ｷﾞﾌｹﾝ","kana_city":"ﾋﾀﾞｼ","kana_address":"ｶﾐｵｶﾁｮｳﾅｼｶﾞﾈ","pref":"岐阜県","city":"飛騨市","address":"神岡町梨ケ根"},
{"zip_code":"5061155","kana_pref":"ｷﾞﾌｹﾝ","kana_city":"ﾋﾀﾞｼ","kana_address":"ｶﾐｵｶﾁｮｳﾆｼ","pref":"岐阜県","city":"飛騨市","address":"神岡町西"},
{"zip_code":"5061215","kana_pref":"ｷﾞﾌｹﾝ","kana_city":"ﾋﾀﾞｼ","kana_address":"ｶﾐｵｶﾁｮｳﾆｼｳﾙｼﾔﾏ","pref":"岐阜県","city":"飛騨市","address":"神岡町西漆山"},
{"zip_code":"5061206","kana_pref":"ｷﾞﾌｹﾝ","kana_city":"ﾋﾀﾞｼ","kana_address":"ｶﾐｵｶﾁｮｳﾆｼﾓｽﾞﾐ","pref":"岐阜県","city":"飛騨市","address":"神岡町西茂住"},
{"zip_code":"5061141","kana_pref":"ｷﾞﾌｹﾝ","kana_city":"ﾋﾀﾞｼ","kana_address":"ｶﾐｵｶﾁｮｳﾉｸﾋﾞ","pref":"岐阜県","city":"飛騨市","address":"神岡町野首"},
{"zip_code":"5061216","kana_pref":"ｷﾞﾌｹﾝ","kana_city":"ﾋﾀﾞｼ","kana_address":"ｶﾐｵｶﾁｮｳﾋｶﾞｼｳﾙｼﾔﾏ","pref":"岐阜県","city":"飛騨市","address":"神岡町東漆山"},
{"zip_code":"5061111","kana_pref":"ｷﾞﾌｹﾝ","kana_city":"ﾋﾀﾞｼ","kana_address":"ｶﾐｵｶﾁｮｳﾋｶﾞｼﾏﾁ","pref":"岐阜県","city":"飛騨市","address":"神岡町東町"},
{"zip_code":"5061205","kana_pref":"ｷﾞﾌｹﾝ","kana_city":"ﾋﾀﾞｼ","kana_address":"ｶﾐｵｶﾁｮｳﾋｶﾞｼﾓｽﾞﾐ","pref":"岐阜県","city":"飛騨市","address":"神岡町東茂住"},
{"zip_code":"5061154","kana_pref":"ｷﾞﾌｹﾝ","kana_city":"ﾋﾀﾞｼ","kana_address":"ｶﾐｵｶﾁｮｳﾌｾｶﾞﾀ","pref":"岐阜県","city":"飛騨市","address":"神岡町伏方"},
{"zip_code":"5061217","kana_pref":"ｷﾞﾌｹﾝ","kana_city":"ﾋﾀﾞｼ","kana_address":"ｶﾐｵｶﾁｮｳﾌﾀﾂﾔ","pref":"岐阜県","city":"飛騨市","address":"神岡町二ツ屋"},
{"zip_code":"5061161","kana_pref":"ｷﾞﾌｹﾝ","kana_city":"ﾋﾀﾞｼ","kana_address":"ｶﾐｵｶﾁｮｳﾌﾅﾂ","pref":"岐阜県","city":"飛騨市","address":"神岡町船津"},
{"zip_code":"5061153","kana_pref":"ｷﾞﾌｹﾝ","kana_city":"ﾋﾀﾞｼ","kana_address":"ｶﾐｵｶﾁｮｳﾎﾘﾉｳﾁ","pref":"岐阜県","city":"飛騨市","address":"神岡町堀之内"},
{"zip_code":"5061214","kana_pref":"ｷﾞﾌｹﾝ","kana_city":"ﾋﾀﾞｼ","kana_address":"ｶﾐｵｶﾁｮｳﾏｷ","pref":"岐阜県","city":"飛騨市","address":"神岡町牧"},
{"zip_code":"5061161","kana_pref":"ｷﾞﾌｹﾝ","kana_city":"ﾋﾀﾞｼ","kana_address":"ｶﾐｵｶﾁｮｳﾏｷｶﾞﾋﾗ","pref":"岐阜県","city":"飛騨市","address":"神岡町牧ケ平"},
{"zip_code":"5061142","kana_pref":"ｷﾞﾌｹﾝ","kana_city":"ﾋﾀﾞｼ","kana_address":"ｶﾐｵｶﾁｮｳﾏﾙﾔﾏ","pref":"岐阜県","city":"飛騨市","address":"神岡町丸山"},
{"zip_code":"5061146","kana_pref":"ｷﾞﾌｹﾝ","kana_city":"ﾋﾀﾞｼ","kana_address":"ｶﾐｵｶﾁｮｳﾐﾄﾞﾘｶﾞｵｶ","pref":"岐阜県","city":"飛騨市","address":"神岡町緑ケ丘"},
{"zip_code":"5061104","kana_pref":"ｷﾞﾌｹﾝ","kana_city":"ﾋﾀﾞｼ","kana_address":"ｶﾐｵｶﾁｮｳﾓﾘﾓ","pref":"岐阜県","city":"飛騨市","address":"神岡町森茂"},
{"zip_code":"5061156","kana_pref":"ｷﾞﾌｹﾝ","kana_city":"ﾋﾀﾞｼ","kana_address":"ｶﾐｵｶﾁｮｳﾔﾏﾀﾞ","pref":"岐阜県","city":"飛騨市","address":"神岡町山田"},
{"zip_code":"5061124","kana_pref":"ｷﾞﾌｹﾝ","kana_city":"ﾋﾀﾞｼ","kana_address":"ｶﾐｵｶﾁｮｳﾕｳﾋｶﾞｵｶ","pref":"岐阜県","city":"飛騨市","address":"神岡町夕陽ケ丘"},
{"zip_code":"5061203","kana_pref":"ｷﾞﾌｹﾝ","kana_city":"ﾋﾀﾞｼ","kana_address":"ｶﾐｵｶﾁｮｳﾖｺﾔﾏ","pref":"岐阜県","city":"飛騨市","address":"神岡町横山"},
{"zip_code":"5061113","kana_pref":"ｷﾞﾌｹﾝ","kana_city":"ﾋﾀﾞｼ","kana_address":"ｶﾐｵｶﾁｮｳﾖｼｶﾞﾊﾗ","pref":"岐阜県","city":"飛騨市","address":"神岡町吉ケ原"},
{"zip_code":"5061144","kana_pref":"ｷﾞﾌｹﾝ","kana_city":"ﾋﾀﾞｼ","kana_address":"ｶﾐｵｶﾁｮｳﾖｼﾀﾞ","pref":"岐阜県","city":"飛騨市","address":"神岡町吉田"},
{"zip_code":"5061111","kana_pref":"ｷﾞﾌｹﾝ","kana_city":"ﾋﾀﾞｼ","kana_address":"ｶﾐｵｶﾁｮｳﾛｸﾛｳ","pref":"岐阜県","city":"飛騨市","address":"神岡町六郎"},
{"zip_code":"5061101","kana_pref":"ｷﾞﾌｹﾝ","kana_city":"ﾋﾀﾞｼ","kana_address":"ｶﾐｵｶﾁｮｳﾜｻﾌ","pref":"岐阜県","city":"飛騨市","address":"神岡町和佐府"},
{"zip_code":"5061105","kana_pref":"ｷﾞﾌｹﾝ","kana_city":"ﾋﾀﾞｼ","kana_address":"ｶﾐｵｶﾁｮｳﾜｻﾎﾞ","pref":"岐阜県","city":"飛騨市","address":"神岡町和佐保"},
{"zip_code":"5061112","kana_pref":"ｷﾞﾌｹﾝ","kana_city":"ﾋﾀﾞｼ","kana_address":"ｶﾐｵｶﾁｮｳﾜﾘｲｼ","pref":"岐阜県","city":"飛騨市","address":"神岡町割石"},
{"zip_code":"5060271","kana_pref":"ｷﾞﾌｹﾝ","kana_city":"ﾋﾀﾞｼ","kana_address":"ｶﾜｲﾁｮｳﾌﾅﾊﾞﾗ","pref":"岐阜県","city":"飛騨市","address":"河合町舟原"}]}