{"zip_code":[
{"zip_code":"5070000","kana_pref":"ｷﾞﾌｹﾝ","kana_city":"ﾀｼﾞﾐｼ","kana_address":"","pref":"岐阜県","city":"多治見市","address":""},
{"zip_code":"5070837","kana_pref":"ｷﾞﾌｹﾝ","kana_city":"ﾀｼﾞﾐｼ","kana_address":"ｱｵｷﾏﾁ","pref":"岐阜県","city":"多治見市","address":"青木町"},
{"zip_code":"5070057","kana_pref":"ｷﾞﾌｹﾝ","kana_city":"ﾀｼﾞﾐｼ","kana_address":"ｱｶｻｶﾁｮｳ","pref":"岐阜県","city":"多治見市","address":"赤坂町"},
{"zip_code":"5070071","kana_pref":"ｷﾞﾌｹﾝ","kana_city":"ﾀｼﾞﾐｼ","kana_address":"ｱｻﾋｶﾞｵｶ","pref":"岐阜県","city":"多治見市","address":"旭ケ丘"},
{"zip_code":"5070807","kana_pref":"ｷﾞﾌｹﾝ","kana_city":"ﾀｼﾞﾐｼ","kana_address":"ｲｸﾀﾁｮｳ","pref":"岐阜県","city":"多治見市","address":"生田町"},
{"zip_code":"5070048","kana_pref":"ｷﾞﾌｹﾝ","kana_city":"ﾀｼﾞﾐｼ","kana_address":"ｲｹﾀﾞﾁｮｳ","pref":"岐阜県","city":"多治見市","address":"池田町"},
{"zip_code":"5070814","kana_pref":"ｷﾞﾌｹﾝ","kana_city":"ﾀｼﾞﾐｼ","kana_address":"ｲﾁﾉｸﾗﾁｮｳ","pref":"岐阜県","city":"多治見市","address":"市之倉町"},
{"zip_code":"5070027","kana_pref":"ｷﾞﾌｹﾝ","kana_city":"ﾀｼﾞﾐｼ","kana_address":"ｳｴﾉﾁｮｳ","pref":"岐阜県","city":"多治見市","address":"上野町"},
{"zip_code":"5070075","kana_pref":"ｷﾞﾌｹﾝ","kana_city":"ﾀｼﾞﾐｼ","kana_address":"ｵｵｻﾜﾁｮｳ","pref":"岐阜県","city":"多治見市","address":"大沢町"},
{"zip_code":"5070074","kana_pref":"ｷﾞﾌｹﾝ","kana_city":"ﾀｼﾞﾐｼ","kana_address":"ｵｵﾊﾗﾁｮｳ","pref":"岐阜県","city":"多治見市","address":"大原町"},
{"zip_code":"5070062","kana_pref":"ｷﾞﾌｹﾝ","kana_city":"ﾀｼﾞﾐｼ","kana_address":"ｵｵﾊﾘﾁｮｳ","pref":"岐阜県","city":"多治見市","address":"大針町"},
{"zip_code":"5070818","kana_pref":"ｷﾞﾌｹﾝ","kana_city":"ﾀｼﾞﾐｼ","kana_address":"ｵｵﾊﾞﾀﾁｮｳ","pref":"岐阜県","city":"多治見市","address":"大畑町"},
{"zip_code":"5070815","kana_pref":"ｷﾞﾌｹﾝ","kana_city":"ﾀｼﾞﾐｼ","kana_address":"ｵｵﾊﾞﾀﾁｮｳｱｶﾏﾂ","pref":"岐阜県","city":"多治見市","address":"大畑町赤松"},
{"zip_code":"5070817","kana_pref":"ｷﾞﾌｹﾝ","kana_city":"ﾀｼﾞﾐｼ","kana_address":"ｵｵﾊﾞﾀﾁｮｳｵｵﾎﾞﾗ","pref":"岐阜県","city":"多治見市","address":"大畑町大洞"},
{"zip_code":"5070816","kana_pref":"ｷﾞﾌｹﾝ","kana_city":"ﾀｼﾞﾐｼ","kana_address":"ｵｵﾊﾞﾀﾁｮｳﾆｼﾅｶﾈ","pref":"岐阜県","city":"多治見市","address":"大畑町西仲根"},
{"zip_code":"5070068","kana_pref":"ｷﾞﾌｹﾝ","kana_city":"ﾀｼﾞﾐｼ","kana_address":"ｵｵﾔﾌﾞﾁｮｳ","pref":"岐阜県","city":"多治見市","address":"大薮町"},
{"zip_code":"5070822","kana_pref":"ｷﾞﾌｹﾝ","kana_city":"ﾀｼﾞﾐｼ","kana_address":"ｵｸｶﾞﾜﾁｮｳ","pref":"岐阜県","city":"多治見市","address":"奥川町"},
{"zip_code":"5070023","kana_pref":"ｷﾞﾌｹﾝ","kana_city":"ﾀｼﾞﾐｼ","kana_address":"ｵﾀﾞﾏﾁ","pref":"岐阜県","city":"多治見市","address":"小田町"},
{"zip_code":"5070037","kana_pref":"ｷﾞﾌｹﾝ","kana_city":"ﾀｼﾞﾐｼ","kana_address":"ｵﾄﾜﾁｮｳ","pref":"岐阜県","city":"多治見市","address":"音羽町"},
{"zip_code":"5070004","kana_pref":"ｷﾞﾌｹﾝ","kana_city":"ﾀｼﾞﾐｼ","kana_address":"ｵﾅﾀﾞﾁｮｳ","pref":"岐阜県","city":"多治見市","address":"小名田町"},
{"zip_code":"5070005","kana_pref":"ｷﾞﾌｹﾝ","kana_city":"ﾀｼﾞﾐｼ","kana_address":"ｵﾅﾀﾞﾁｮｳｲﾜｶﾞﾈ","pref":"岐阜県","city":"多治見市","address":"小名田町岩ケ根"},
{"zip_code":"5070001","kana_pref":"ｷﾞﾌｹﾝ","kana_city":"ﾀｼﾞﾐｼ","kana_address":"ｵﾅﾀﾞﾁｮｳｺﾀｷ","pref":"岐阜県","city":"多治見市","address":"小名田町小滝"},
{"zip_code":"5070007","kana_pref":"ｷﾞﾌｹﾝ","kana_city":"ﾀｼﾞﾐｼ","kana_address":"ｵﾅﾀﾞﾁｮｳﾆｼｶﾞﾎﾞﾗ","pref":"岐阜県","city":"多治見市","address":"小名田町西ケ洞"},
{"zip_code":"5070006","kana_pref":"ｷﾞﾌｹﾝ","kana_city":"ﾀｼﾞﾐｼ","kana_address":"ｵﾅﾀﾞﾁｮｳﾆｼﾔﾏ","pref":"岐阜県","city":"多治見市","address":"小名田町西山"},
{"zip_code":"5070002","kana_pref":"ｷﾞﾌｹﾝ","kana_city":"ﾀｼﾞﾐｼ","kana_address":"ｵﾅﾀﾞﾁｮｳﾊﾅﾚﾔﾏ","pref":"岐阜県","city":"多治見市","address":"小名田町別山"},
{"zip_code":"5070003","kana_pref":"ｷﾞﾌｹﾝ","kana_city":"ﾀｼﾞﾐｼ","kana_address":"ｵﾅﾀﾞﾁｮｳﾋｶﾞｼﾀﾞﾆ","pref":"岐阜県","city":"多治見市","address":"小名田町東谷"},
{"zip_code":"5070846","kana_pref":"ｷﾞﾌｹﾝ","kana_city":"ﾀｼﾞﾐｼ","kana_address":"ｶｸﾞﾗﾏﾁ","pref":"岐阜県","city":"多治見市","address":"神楽町"},
{"zip_code":"5070901","kana_pref":"ｷﾞﾌｹﾝ","kana_city":"ﾀｼﾞﾐｼ","kana_address":"ｶｻﾊﾗﾁｮｳ","pref":"岐阜県","city":"多治見市","address":"笠原町"},
{"zip_code":"5070016","kana_pref":"ｷﾞﾌｹﾝ","kana_city":"ﾀｼﾞﾐｼ","kana_address":"ｶﾅｵｶﾁｮｳ","pref":"岐阜県","city":"多治見市","address":"金岡町"},
{"zip_code":"5070832","kana_pref":"ｷﾞﾌｹﾝ","kana_city":"ﾀｼﾞﾐｼ","kana_address":"ｶﾅﾔﾏﾁｮｳ","pref":"岐阜県","city":"多治見市","address":"金山町"},
{"zip_code":"5070821","kana_pref":"ｷﾞﾌｹﾝ","kana_city":"ﾀｼﾞﾐｼ","kana_address":"ｶﾏﾏﾁ","pref":"岐阜県","city":"多治見市","address":"窯町"},
{"zip_code":"5070806","kana_pref":"ｷﾞﾌｹﾝ","kana_city":"ﾀｼﾞﾐｼ","kana_address":"ｶﾐﾏﾁ","pref":"岐阜県","city":"多治見市","address":"上町"},
{"zip_code":"5070022","kana_pref":"ｷﾞﾌｹﾝ","kana_city":"ﾀｼﾞﾐｼ","kana_address":"ｶﾐﾔﾏﾁｮｳ","pref":"岐阜県","city":"多治見市","address":"上山町"},
{"zip_code":"5070064","kana_pref":"ｷﾞﾌｹﾝ","kana_city":"ﾀｼﾞﾐｼ","kana_address":"ｷﾀｵｶﾁｮｳ","pref":"岐阜県","city":"多治見市","address":"北丘町"},
{"zip_code":"5070067","kana_pref":"ｷﾞﾌｹﾝ","kana_city":"ﾀｼﾞﾐｼ","kana_address":"ｷﾀｵｷﾞﾁｮｳ","pref":"岐阜県","city":"多治見市","address":"北小木町"},
{"zip_code":"5070055","kana_pref":"ｷﾞﾌｹﾝ","kana_city":"ﾀｼﾞﾐｼ","kana_address":"ｷﾀﾏﾁ","pref":"岐阜県","city":"多治見市","address":"喜多町"},
{"zip_code":"5070008","kana_pref":"ｷﾞﾌｹﾝ","kana_city":"ﾀｼﾞﾐｼ","kana_address":"ｷﾎﾞｳｶﾞｵｶ","pref":"岐阜県","city":"多治見市","address":"希望ケ丘"},
{"zip_code":"5070825","kana_pref":"ｷﾞﾌｹﾝ","kana_city":"ﾀｼﾞﾐｼ","kana_address":"ｷｮｳﾏﾁ","pref":"岐阜県","city":"多治見市","address":"京町"},
{"zip_code":"5070073","kana_pref":"ｷﾞﾌｹﾝ","kana_city":"ﾀｼﾞﾐｼ","kana_address":"ｺｲｽﾞﾐﾁｮｳ","pref":"岐阜県","city":"多治見市","address":"小泉町"},
{"zip_code":"5070014","kana_pref":"ｷﾞﾌｹﾝ","kana_city":"ﾀｼﾞﾐｼ","kana_address":"ｺｹｲｻﾞﾝﾁｮｳ","pref":"岐阜県","city":"多治見市","address":"虎渓山町"},
{"zip_code":"5070026","kana_pref":"ｷﾞﾌｹﾝ","kana_city":"ﾀｼﾞﾐｼ","kana_address":"ｺｹｲﾁｮｳ","pref":"岐阜県","city":"多治見市","address":"虎渓町"},
{"zip_code":"5070077","kana_pref":"ｷﾞﾌｹﾝ","kana_city":"ﾀｼﾞﾐｼ","kana_address":"ｻｲﾜｲﾁｮｳ","pref":"岐阜県","city":"多治見市","address":"幸町"},
{"zip_code":"5070804","kana_pref":"ｷﾞﾌｹﾝ","kana_city":"ﾀｼﾞﾐｼ","kana_address":"ｻｶｳｴﾁｮｳ","pref":"岐阜県","city":"多治見市","address":"坂上町"},
{"zip_code":"5070035","kana_pref":"ｷﾞﾌｹﾝ","kana_city":"ﾀｼﾞﾐｼ","kana_address":"ｻｶｴﾏﾁ","pref":"岐阜県","city":"多治見市","address":"栄町"},
{"zip_code":"5070045","kana_pref":"ｷﾞﾌｹﾝ","kana_city":"ﾀｼﾞﾐｼ","kana_address":"ｻﾝﾉｸﾗﾁｮｳ","pref":"岐阜県","city":"多治見市","address":"三の倉町"},
{"zip_code":"5070812","kana_pref":"ｷﾞﾌｹﾝ","kana_city":"ﾀｼﾞﾐｼ","kana_address":"ｼﾓｻﾞﾜﾁｮｳ","pref":"岐阜県","city":"多治見市","address":"下沢町"},
{"zip_code":"5070039","kana_pref":"ｷﾞﾌｹﾝ","kana_city":"ﾀｼﾞﾐｼ","kana_address":"ｼﾞｭｸﾀﾁｮｳ","pref":"岐阜県","city":"多治見市","address":"十九田町"},
{"zip_code":"5070076","kana_pref":"ｷﾞﾌｹﾝ","kana_city":"ﾀｼﾞﾐｼ","kana_address":"ｼｮｳｴｲﾁｮｳ","pref":"岐阜県","city":"多治見市","address":"昭栄町"},
{"zip_code":"5070847","kana_pref":"ｷﾞﾌｹﾝ","kana_city":"ﾀｼﾞﾐｼ","kana_address":"ｼｮｳｼﾞﾏﾁ","pref":"岐阜県","city":"多治見市","address":"小路町"},
{"zip_code":"5070836","kana_pref":"ｷﾞﾌｹﾝ","kana_city":"ﾀｼﾞﾐｼ","kana_address":"ｼｮｳﾜﾏﾁ","pref":"岐阜県","city":"多治見市","address":"昭和町"},
{"zip_code":"5070805","kana_pref":"ｷﾞﾌｹﾝ","kana_city":"ﾀｼﾞﾐｼ","kana_address":"ｼﾝﾄﾐﾁｮｳ","pref":"岐阜県","city":"多治見市","address":"新富町"},
{"zip_code":"5070831","kana_pref":"ｷﾞﾌｹﾝ","kana_city":"ﾀｼﾞﾐｼ","kana_address":"ｼﾝﾏﾁ","pref":"岐阜県","city":"多治見市","address":"新町"},
{"zip_code":"5070838","kana_pref":"ｷﾞﾌｹﾝ","kana_city":"ﾀｼﾞﾐｼ","kana_address":"ｽｴﾋﾛﾁｮｳ","pref":"岐阜県","city":"多治見市","address":"末広町"},
{"zip_code":"5070015","kana_pref":"ｷﾞﾌｹﾝ","kana_city":"ﾀｼﾞﾐｼ","kana_address":"ｽﾐﾖｼﾁｮｳ","pref":"岐阜県","city":"多治見市","address":"住吉町"},
{"zip_code":"5070044","kana_pref":"ｷﾞﾌｹﾝ","kana_city":"ﾀｼﾞﾐｼ","kana_address":"ｽﾜﾁｮｳ","pref":"岐阜県","city":"多治見市","address":"諏訪町"},
{"zip_code":"5070031","kana_pref":"ｷﾞﾌｹﾝ","kana_city":"ﾀｼﾞﾐｼ","kana_address":"ｾｲｶﾏﾁ","pref":"岐阜県","city":"多治見市","address":"精華町"},
{"zip_code":"5070024","kana_pref":"ｷﾞﾌｹﾝ","kana_city":"ﾀｼﾞﾐｼ","kana_address":"ﾀｲｼｮｳﾏﾁ","pref":"岐阜県","city":"多治見市","address":"大正町"},
{"zip_code":"5070032","kana_pref":"ｷﾞﾌｹﾝ","kana_city":"ﾀｼﾞﾐｼ","kana_address":"ﾀﾞｲﾆﾁﾁｮｳ","pref":"岐阜県","city":"多治見市","address":"大日町"},
{"zip_code":"5070041","kana_pref":"ｷﾞﾌｹﾝ","kana_city":"ﾀｼﾞﾐｼ","kana_address":"ﾀｲﾍｲﾁｮｳ","pref":"岐阜県","city":"多治見市","address":"太平町"},
{"zip_code":"5070018","kana_pref":"ｷﾞﾌｹﾝ","kana_city":"ﾀｼﾞﾐｼ","kana_address":"ﾀｶﾀﾁｮｳ","pref":"岐阜県","city":"多治見市","address":"高田町"},
{"zip_code":"5070011","kana_pref":"ｷﾞﾌｹﾝ","kana_city":"ﾀｼﾞﾐｼ","kana_address":"ﾀｶﾀﾁｮｳｲﾜｿﾞﾈ","pref":"岐阜県","city":"多治見市","address":"高田町岩曽根"},
{"zip_code":"5070012","kana_pref":"ｷﾞﾌｹﾝ","kana_city":"ﾀｼﾞﾐｼ","kana_address":"ﾀｶﾀﾁｮｳｼﾛｺ","pref":"岐阜県","city":"多治見市","address":"高田町白粉"},
{"zip_code":"5070078","kana_pref":"ｷﾞﾌｹﾝ","kana_city":"ﾀｼﾞﾐｼ","kana_address":"ﾀｶﾈﾁｮｳ","pref":"岐阜県","city":"多治見市","address":"高根町"},
{"zip_code":"5070054","kana_pref":"ｷﾞﾌｹﾝ","kana_city":"ﾀｼﾞﾐｼ","kana_address":"ﾀｶﾗﾏﾁ","pref":"岐阜県","city":"多治見市","address":"宝町"},
{"zip_code":"5070813","kana_pref":"ｷﾞﾌｹﾝ","kana_city":"ﾀｼﾞﾐｼ","kana_address":"ﾀｷﾛﾁｮｳ","pref":"岐阜県","city":"多治見市","address":"滝呂町"},
{"zip_code":"5070036","kana_pref":"ｷﾞﾌｹﾝ","kana_city":"ﾀｼﾞﾐｼ","kana_address":"ﾀｼﾛﾁｮｳ","pref":"岐阜県","city":"多治見市","address":"田代町"},
{"zip_code":"5070043","kana_pref":"ｷﾞﾌｹﾝ","kana_city":"ﾀｼﾞﾐｼ","kana_address":"ﾂｷﾐﾁｮｳ","pref":"岐阜県","city":"多治見市","address":"月見町"},
{"zip_code":"5070046","kana_pref":"ｷﾞﾌｹﾝ","kana_city":"ﾀｼﾞﾐｼ","kana_address":"ﾂﾂﾞﾊﾗﾁｮｳ","pref":"岐阜県","city":"多治見市","address":"廿原町"},
{"zip_code":"5070013","kana_pref":"ｷﾞﾌｹﾝ","kana_city":"ﾀｼﾞﾐｼ","kana_address":"ﾄｳｴｲﾁｮｳ","pref":"岐阜県","city":"多治見市","address":"東栄町"},
{"zip_code":"5070844","kana_pref":"ｷﾞﾌｹﾝ","kana_city":"ﾀｼﾞﾐｼ","kana_address":"ﾄｳｹﾞﾝﾁｮｳ","pref":"岐阜県","city":"多治見市","address":"陶元町"},
{"zip_code":"5070843","kana_pref":"ｷﾞﾌｹﾝ","kana_city":"ﾀｼﾞﾐｼ","kana_address":"ﾄｷﾜﾏﾁ","pref":"岐阜県","city":"多治見市","address":"常盤町"},
{"zip_code":"5070034","kana_pref":"ｷﾞﾌｹﾝ","kana_city":"ﾀｼﾞﾐｼ","kana_address":"ﾄﾖｵｶﾁｮｳ","pref":"岐阜県","city":"多治見市","address":"豊岡町"},
{"zip_code":"5070842","kana_pref":"ｷﾞﾌｹﾝ","kana_city":"ﾀｼﾞﾐｼ","kana_address":"ﾅｶﾏﾁ","pref":"岐阜県","city":"多治見市","address":"中町"},
{"zip_code":"5070017","kana_pref":"ｷﾞﾌｹﾝ","kana_city":"ﾀｼﾞﾐｼ","kana_address":"ﾅｶﾞｾﾁｮｳ","pref":"岐阜県","city":"多治見市","address":"長瀬町"},
{"zip_code":"5070835","kana_pref":"ｷﾞﾌｹﾝ","kana_city":"ﾀｼﾞﾐｼ","kana_address":"ﾆｼｷﾏﾁ","pref":"岐阜県","city":"多治見市","address":"錦町"},
{"zip_code":"5070051","kana_pref":"ｷﾞﾌｹﾝ","kana_city":"ﾀｼﾞﾐｼ","kana_address":"ﾆｼｻﾞｶﾁｮｳ","pref":"岐阜県","city":"多治見市","address":"西坂町"},
{"zip_code":"5070066","kana_pref":"ｷﾞﾌｹﾝ","kana_city":"ﾀｼﾞﾐｼ","kana_address":"ﾆｼﾔﾏﾁｮｳ","pref":"岐阜県","city":"多治見市","address":"西山町"},
{"zip_code":"5070065","kana_pref":"ｷﾞﾌｹﾝ","kana_city":"ﾀｼﾞﾐｼ","kana_address":"ﾈﾓﾄﾁｮｳ","pref":"岐阜県","city":"多治見市","address":"根本町"},
{"zip_code":"5070038","kana_pref":"ｷﾞﾌｹﾝ","kana_city":"ﾀｼﾞﾐｼ","kana_address":"ﾊｸｻﾝﾁｮｳ","pref":"岐阜県","city":"多治見市","address":"白山町"},
{"zip_code":"5070052","kana_pref":"ｷﾞﾌｹﾝ","kana_city":"ﾀｼﾞﾐｼ","kana_address":"ﾋｶﾘｶﾞｵｶ","pref":"岐阜県","city":"多治見市","address":"光ケ丘"},
{"zip_code":"5070801","kana_pref":"ｷﾞﾌｹﾝ","kana_city":"ﾀｼﾞﾐｼ","kana_address":"ﾋｶﾞｼﾏﾁ","pref":"岐阜県","city":"多治見市","address":"東町"},
{"zip_code":"5070019","kana_pref":"ｷﾞﾌｹﾝ","kana_city":"ﾀｼﾞﾐｼ","kana_address":"ﾋｶﾞｼﾔﾏ","pref":"岐阜県","city":"多治見市","address":"東山"},
{"zip_code":"5070848","kana_pref":"ｷﾞﾌｹﾝ","kana_city":"ﾀｼﾞﾐｼ","kana_address":"ﾋﾉﾃﾞﾏﾁ","pref":"岐阜県","city":"多治見市","address":"日ノ出町"},
{"zip_code":"5070061","kana_pref":"ｷﾞﾌｹﾝ","kana_city":"ﾀｼﾞﾐｼ","kana_address":"ﾋﾒﾁｮｳ","pref":"岐阜県","city":"多治見市","address":"姫町"},
{"zip_code":"5070058","kana_pref":"ｷﾞﾌｹﾝ","kana_city":"ﾀｼﾞﾐｼ","kana_address":"ﾋﾗｲﾁｮｳ","pref":"岐阜県","city":"多治見市","address":"平井町"},
{"zip_code":"5070823","kana_pref":"ｷﾞﾌｹﾝ","kana_city":"ﾀｼﾞﾐｼ","kana_address":"ﾋﾗﾉﾁｮｳ","pref":"岐阜県","city":"多治見市","address":"平野町"},
{"zip_code":"5070833","kana_pref":"ｷﾞﾌｹﾝ","kana_city":"ﾀｼﾞﾐｼ","kana_address":"ﾋﾛｺｳｼﾞ","pref":"岐阜県","city":"多治見市","address":"広小路"},
{"zip_code":"5070047","kana_pref":"ｷﾞﾌｹﾝ","kana_city":"ﾀｼﾞﾐｼ","kana_address":"ﾌｼﾞﾐﾁｮｳ","pref":"岐阜県","city":"多治見市","address":"富士見町"},
{"zip_code":"5070827","kana_pref":"ｷﾞﾌｹﾝ","kana_city":"ﾀｼﾞﾐｼ","kana_address":"ﾍｲﾜﾏﾁ","pref":"岐阜県","city":"多治見市","address":"平和町"},
{"zip_code":"5070028","kana_pref":"ｷﾞﾌｹﾝ","kana_city":"ﾀｼﾞﾐｼ","kana_address":"ﾍﾞﾝﾃﾝﾁｮｳ","pref":"岐阜県","city":"多治見市","address":"弁天町"},
{"zip_code":"5070811","kana_pref":"ｷﾞﾌｹﾝ","kana_city":"ﾀｼﾞﾐｼ","kana_address":"ﾎｼｶﾞﾀﾞｲ","pref":"岐阜県","city":"多治見市","address":"星ケ台"},
{"zip_code":"5070033","kana_pref":"ｷﾞﾌｹﾝ","kana_city":"ﾀｼﾞﾐｼ","kana_address":"ﾎﾝﾏﾁ","pref":"岐阜県","city":"多治見市","address":"本町"},
{"zip_code":"5070042","kana_pref":"ｷﾞﾌｹﾝ","kana_city":"ﾀｼﾞﾐｼ","kana_address":"ﾏｴﾊﾞﾀﾁｮｳ","pref":"岐阜県","city":"多治見市","address":"前畑町"},
{"zip_code":"5070063","kana_pref":"ｷﾞﾌｹﾝ","kana_city":"ﾀｼﾞﾐｼ","kana_address":"ﾏﾂｻｶﾁｮｳ","pref":"岐阜県","city":"多治見市","address":"松坂町"},
{"zip_code":"5070828","kana_pref":"ｷﾞﾌｹﾝ","kana_city":"ﾀｼﾞﾐｼ","kana_address":"ﾐｶｻﾁｮｳ","pref":"岐阜県","city":"多治見市","address":"三笠町"},
{"zip_code":"5070803","kana_pref":"ｷﾞﾌｹﾝ","kana_city":"ﾀｼﾞﾐｼ","kana_address":"ﾐｻｶﾁｮｳ","pref":"岐阜県","city":"多治見市","address":"美坂町"},
{"zip_code":"5070021","kana_pref":"ｷﾞﾌｹﾝ","kana_city":"ﾀｼﾞﾐｼ","kana_address":"ﾐﾄﾞﾘｶﾞｵｶ","pref":"岐阜県","city":"多治見市","address":"緑ケ丘"},
{"zip_code":"5070025","kana_pref":"ｷﾞﾌｹﾝ","kana_city":"ﾀｼﾞﾐｼ","kana_address":"ﾐﾔﾏｴﾁｮｳ","pref":"岐阜県","city":"多治見市","address":"宮前町"},
{"zip_code":"5070056","kana_pref":"ｷﾞﾌｹﾝ","kana_city":"ﾀｼﾞﾐｼ","kana_address":"ﾐﾔﾏﾁｮｳ","pref":"岐阜県","city":"多治見市","address":"美山町"},
{"zip_code":"5070834","kana_pref":"ｷﾞﾌｹﾝ","kana_city":"ﾀｼﾞﾐｼ","kana_address":"ﾐﾕｷﾏﾁ","pref":"岐阜県","city":"多治見市","address":"御幸町"},
{"zip_code":"5070841","kana_pref":"ｷﾞﾌｹﾝ","kana_city":"ﾀｼﾞﾐｼ","kana_address":"ﾒｲｼﾞﾏﾁ","pref":"岐阜県","city":"多治見市","address":"明治町"},
{"zip_code":"5070072","kana_pref":"ｷﾞﾌｹﾝ","kana_city":"ﾀｼﾞﾐｼ","kana_address":"ﾒｲﾜﾁｮｳ","pref":"岐阜県","city":"多治見市","address":"明和町"},
{"zip_code":"5070824","kana_pref":"ｷﾞﾌｹﾝ","kana_city":"ﾀｼﾞﾐｼ","kana_address":"ﾓﾄﾏﾁ","pref":"岐阜県","city":"多治見市","address":"元町"},
{"zip_code":"5070845","kana_pref":"ｷﾞﾌｹﾝ","kana_city":"ﾀｼﾞﾐｼ","kana_address":"ﾔﾏｼﾀﾁｮｳ","pref":"岐阜県","city":"多治見市","address":"山下町"},
{"zip_code":"5070802","kana_pref":"ｷﾞﾌｹﾝ","kana_city":"ﾀｼﾞﾐｼ","kana_address":"ﾔﾏﾌﾞｷﾁｮｳ","pref":"岐阜県","city":"多治見市","address":"山吹町"},
{"zip_code":"5070053","kana_pref":"ｷﾞﾌｹﾝ","kana_city":"ﾀｼﾞﾐｼ","kana_address":"ﾜｶﾏﾂﾁｮｳ","pref":"岐阜県","city":"多治見市","address":"若松町"},
{"zip_code":"5070826","kana_pref":"ｷﾞﾌｹﾝ","kana_city":"ﾀｼﾞﾐｼ","kana_address":"ﾜｷﾉｼﾏﾁｮｳ","pref":"岐阜県","city":"多治見市","address":"脇之島町"}]}