{"zip_code":[
{"zip_code":"5080000","kana_pref":"ｷﾞﾌｹﾝ","kana_city":"ﾅｶﾂｶﾞﾜｼ","kana_address":"","pref":"岐阜県","city":"中津川市","address":""},
{"zip_code":"5080002","kana_pref":"ｷﾞﾌｹﾝ","kana_city":"ﾅｶﾂｶﾞﾜｼ","kana_address":"ｱｷﾞ","pref":"岐阜県","city":"中津川市","address":"阿木"},
{"zip_code":"5080002","kana_pref":"ｷﾞﾌｹﾝ","kana_city":"ﾅｶﾂｶﾞﾜｼ","kana_address":"ｱｷﾞｶｵﾚ","pref":"岐阜県","city":"中津川市","address":"阿木川上"},
{"zip_code":"5080037","kana_pref":"ｷﾞﾌｹﾝ","kana_city":"ﾅｶﾂｶﾞﾜｼ","kana_address":"ｴﾋﾞｽﾁｮｳ","pref":"岐阜県","city":"中津川市","address":"えびす町"},
{"zip_code":"5080033","kana_pref":"ｷﾞﾌｹﾝ","kana_city":"ﾅｶﾂｶﾞﾜｼ","kana_address":"ｵｵﾀﾏﾁ","pref":"岐阜県","city":"中津川市","address":"太田町"},
{"zip_code":"5080023","kana_pref":"ｷﾞﾌｹﾝ","kana_city":"ﾅｶﾂｶﾞﾜｼ","kana_address":"ｵｶﾞﾜﾁｮｳ","pref":"岐阜県","city":"中津川市","address":"小川町"},
{"zip_code":"5080006","kana_pref":"ｷﾞﾌｹﾝ","kana_city":"ﾅｶﾂｶﾞﾜｼ","kana_address":"ｵﾁｱｲ","pref":"岐阜県","city":"中津川市","address":"落合"},
{"zip_code":"5080421","kana_pref":"ｷﾞﾌｹﾝ","kana_city":"ﾅｶﾂｶﾞﾜｼ","kana_address":"ｶｼﾓ","pref":"岐阜県","city":"中津川市","address":"加子母"},
{"zip_code":"5080045","kana_pref":"ｷﾞﾌｹﾝ","kana_city":"ﾅｶﾂｶﾞﾜｼ","kana_address":"ｶﾔﾉｷﾁｮｳ","pref":"岐阜県","city":"中津川市","address":"かやの木町"},
{"zip_code":"5080022","kana_pref":"ｷﾞﾌｹﾝ","kana_city":"ﾅｶﾂｶﾞﾜｼ","kana_address":"ｷﾀﾉﾁｮｳ","pref":"岐阜県","city":"中津川市","address":"北野町"},
{"zip_code":"5080011","kana_pref":"ｷﾞﾌｹﾝ","kana_city":"ﾅｶﾂｶﾞﾜｼ","kana_address":"ｺﾏﾝﾊﾞ","pref":"岐阜県","city":"中津川市","address":"駒場"},
{"zip_code":"5080014","kana_pref":"ｷﾞﾌｹﾝ","kana_city":"ﾅｶﾂｶﾞﾜｼ","kana_address":"ｺﾏﾝﾊﾞﾁｮｳ","pref":"岐阜県","city":"中津川市","address":"駒場町"},
{"zip_code":"5080032","kana_pref":"ｷﾞﾌｹﾝ","kana_city":"ﾅｶﾂｶﾞﾜｼ","kana_address":"ｻｶｴﾏﾁ","pref":"岐阜県","city":"中津川市","address":"栄町"},
{"zip_code":"5080202","kana_pref":"ｷﾞﾌｹﾝ","kana_city":"ﾅｶﾂｶﾞﾜｼ","kana_address":"ｼﾓﾉ","pref":"岐阜県","city":"中津川市","address":"下野"},
{"zip_code":"5080044","kana_pref":"ｷﾞﾌｹﾝ","kana_city":"ﾅｶﾂｶﾞﾜｼ","kana_address":"ｼｮｳﾜﾏﾁ","pref":"岐阜県","city":"中津川市","address":"昭和町"},
{"zip_code":"5080038","kana_pref":"ｷﾞﾌｹﾝ","kana_city":"ﾅｶﾂｶﾞﾜｼ","kana_address":"ｼﾝﾏﾁ","pref":"岐阜県","city":"中津川市","address":"新町"},
{"zip_code":"5080111","kana_pref":"ｷﾞﾌｹﾝ","kana_city":"ﾅｶﾂｶﾞﾜｼ","kana_address":"ｾﾄ","pref":"岐阜県","city":"中津川市","address":"瀬戸"},
{"zip_code":"5080204","kana_pref":"ｷﾞﾌｹﾝ","kana_city":"ﾅｶﾂｶﾞﾜｼ","kana_address":"ﾀｶﾔﾏ","pref":"岐阜県","city":"中津川市","address":"高山"},
{"zip_code":"5080201","kana_pref":"ｷﾞﾌｹﾝ","kana_city":"ﾅｶﾂｶﾞﾜｼ","kana_address":"ﾀｾ","pref":"岐阜県","city":"中津川市","address":"田瀬"},
{"zip_code":"5080351","kana_pref":"ｷﾞﾌｹﾝ","kana_city":"ﾅｶﾂｶﾞﾜｼ","kana_address":"ﾂｹﾁﾁｮｳ","pref":"岐阜県","city":"中津川市","address":"付知町"},
{"zip_code":"5080012","kana_pref":"ｷﾞﾌｹﾝ","kana_city":"ﾅｶﾂｶﾞﾜｼ","kana_address":"ﾂｼﾏﾁｮｳ","pref":"岐阜県","city":"中津川市","address":"津島町"},
{"zip_code":"5080015","kana_pref":"ｷﾞﾌｹﾝ","kana_city":"ﾅｶﾂｶﾞﾜｼ","kana_address":"ﾃｶﾞﾉ","pref":"岐阜県","city":"中津川市","address":"手賀野"},
{"zip_code":"5080101","kana_pref":"ｷﾞﾌｹﾝ","kana_city":"ﾅｶﾂｶﾞﾜｼ","kana_address":"ﾅｴｷﾞ","pref":"岐阜県","city":"中津川市","address":"苗木"},
{"zip_code":"5080003","kana_pref":"ｷﾞﾌｹﾝ","kana_city":"ﾅｶﾂｶﾞﾜｼ","kana_address":"ﾅｶｲｯｼｷﾁｮｳ","pref":"岐阜県","city":"中津川市","address":"中一色町"},
{"zip_code":"5080021","kana_pref":"ｷﾞﾌｹﾝ","kana_city":"ﾅｶﾂｶﾞﾜｼ","kana_address":"ﾅｶｶﾞﾜﾁｮｳ","pref":"岐阜県","city":"中津川市","address":"中川町"},
{"zip_code":"5080001","kana_pref":"ｷﾞﾌｹﾝ","kana_city":"ﾅｶﾂｶﾞﾜｼ","kana_address":"ﾅｶﾂｶﾞﾜ","pref":"岐阜県","city":"中津川市","address":"中津川"},
{"zip_code":"5080042","kana_pref":"ｷﾞﾌｹﾝ","kana_city":"ﾅｶﾂｶﾞﾜｼ","kana_address":"ﾆｼﾐﾔﾏﾁ","pref":"岐阜県","city":"中津川市","address":"西宮町"},
{"zip_code":"5080043","kana_pref":"ｷﾞﾌｹﾝ","kana_city":"ﾅｶﾂｶﾞﾜｼ","kana_address":"ﾊﾁﾏﾝﾁｮｳ","pref":"岐阜県","city":"中津川市","address":"八幡町"},
{"zip_code":"5080004","kana_pref":"ｷﾞﾌｹﾝ","kana_city":"ﾅｶﾂｶﾞﾜｼ","kana_address":"ﾊﾅﾄﾞﾁｮｳ","pref":"岐阜県","city":"中津川市","address":"花戸町"},
{"zip_code":"5080035","kana_pref":"ｷﾞﾌｹﾝ","kana_city":"ﾅｶﾂｶﾞﾜｼ","kana_address":"ﾋｶﾞｼﾏﾁ","pref":"岐阜県","city":"中津川市","address":"東町"},
{"zip_code":"5080036","kana_pref":"ｷﾞﾌｹﾝ","kana_city":"ﾅｶﾂｶﾞﾜｼ","kana_address":"ﾋｶﾞｼﾐﾔﾏﾁ","pref":"岐阜県","city":"中津川市","address":"東宮町"},
{"zip_code":"5080005","kana_pref":"ｷﾞﾌｹﾝ","kana_city":"ﾅｶﾂｶﾞﾜｼ","kana_address":"ﾋﾉﾃﾞﾁｮｳ","pref":"岐阜県","city":"中津川市","address":"日の出町"},
{"zip_code":"5080203","kana_pref":"ｷﾞﾌｹﾝ","kana_city":"ﾅｶﾂｶﾞﾜｼ","kana_address":"ﾌｸｵｶ","pref":"岐阜県","city":"中津川市","address":"福岡"},
{"zip_code":"5080041","kana_pref":"ｷﾞﾌｹﾝ","kana_city":"ﾅｶﾂｶﾞﾜｼ","kana_address":"ﾎﾝﾏﾁ","pref":"岐阜県","city":"中津川市","address":"本町"},
{"zip_code":"5080502","kana_pref":"ｷﾞﾌｹﾝ","kana_city":"ﾅｶﾂｶﾞﾜｼ","kana_address":"ﾏｺﾞﾒ","pref":"岐阜県","city":"中津川市","address":"馬籠"},
{"zip_code":"5080007","kana_pref":"ｷﾞﾌｹﾝ","kana_city":"ﾅｶﾂｶﾞﾜｼ","kana_address":"ﾐｻｶ","pref":"岐阜県","city":"中津川市","address":"神坂"},
{"zip_code":"5080031","kana_pref":"ｷﾞﾌｹﾝ","kana_city":"ﾅｶﾂｶﾞﾜｼ","kana_address":"ﾐﾔﾏｴﾁｮｳ","pref":"岐阜県","city":"中津川市","address":"宮前町"},
{"zip_code":"5080024","kana_pref":"ｷﾞﾌｹﾝ","kana_city":"ﾅｶﾂｶﾞﾜｼ","kana_address":"ﾓﾓﾔﾏﾁｮｳ","pref":"岐阜県","city":"中津川市","address":"桃山町"},
{"zip_code":"5080013","kana_pref":"ｷﾞﾌｹﾝ","kana_city":"ﾅｶﾂｶﾞﾜｼ","kana_address":"ﾔﾅｷﾞﾏﾁ","pref":"岐阜県","city":"中津川市","address":"柳町"},
{"zip_code":"5080501","kana_pref":"ｷﾞﾌｹﾝ","kana_city":"ﾅｶﾂｶﾞﾜｼ","kana_address":"ﾔﾏｸﾞﾁ","pref":"岐阜県","city":"中津川市","address":"山口"},
{"zip_code":"5080034","kana_pref":"ｷﾞﾌｹﾝ","kana_city":"ﾅｶﾂｶﾞﾜｼ","kana_address":"ﾖﾄﾞｶﾞﾜﾁｮｳ","pref":"岐阜県","city":"中津川市","address":"淀川町"}]}