{"zip_code":[
{"zip_code":"5093301","kana_pref":"ｷﾞﾌｹﾝ","kana_city":"ﾀｶﾔﾏｼ","kana_address":"ｱｻﾋﾁｮｳｱｵﾔ","pref":"岐阜県","city":"高山市","address":"朝日町青屋"},
{"zip_code":"5093324","kana_pref":"ｷﾞﾌｹﾝ","kana_city":"ﾀｶﾔﾏｼ","kana_address":"ｱｻﾋﾁｮｳｱｹﾞﾐ","pref":"岐阜県","city":"高山市","address":"朝日町上ケ見"},
{"zip_code":"5093303","kana_pref":"ｷﾞﾌｹﾝ","kana_city":"ﾀｶﾔﾏｼ","kana_address":"ｱｻﾋﾁｮｳｱｻｲ","pref":"岐阜県","city":"高山市","address":"朝日町浅井"},
{"zip_code":"5093311","kana_pref":"ｷﾞﾌｹﾝ","kana_city":"ﾀｶﾔﾏｼ","kana_address":"ｱｻﾋﾁｮｳｲﾁﾉｼｭｸ","pref":"岐阜県","city":"高山市","address":"朝日町一之宿"},
{"zip_code":"5093322","kana_pref":"ｷﾞﾌｹﾝ","kana_city":"ﾀｶﾔﾏｼ","kana_address":"ｱｻﾋﾁｮｳｵｵﾋﾛ","pref":"岐阜県","city":"高山市","address":"朝日町大廣"},
{"zip_code":"5093326","kana_pref":"ｷﾞﾌｹﾝ","kana_city":"ﾀｶﾔﾏｼ","kana_address":"ｱｻﾋﾁｮｳｶﾌﾞﾄ","pref":"岐阜県","city":"高山市","address":"朝日町甲"},
{"zip_code":"5093316","kana_pref":"ｷﾞﾌｹﾝ","kana_city":"ﾀｶﾔﾏｼ","kana_address":"ｱｻﾋﾁｮｳｷﾋﾞｭｳﾀﾞﾆ","pref":"岐阜県","city":"高山市","address":"朝日町黍生谷"},
{"zip_code":"5093313","kana_pref":"ｷﾞﾌｹﾝ","kana_city":"ﾀｶﾔﾏｼ","kana_address":"ｱｻﾋﾁｮｳｸﾙﾐｼﾏ","pref":"岐阜県","city":"高山市","address":"朝日町胡桃島"},
{"zip_code":"5093321","kana_pref":"ｷﾞﾌｹﾝ","kana_city":"ﾀｶﾔﾏｼ","kana_address":"ｱｻﾋﾁｮｳｸﾛｶﾜ","pref":"岐阜県","city":"高山市","address":"朝日町黒川"},
{"zip_code":"5093312","kana_pref":"ｷﾞﾌｹﾝ","kana_city":"ﾀｶﾔﾏｼ","kana_address":"ｱｻﾋﾁｮｳｸﾜﾉｼﾏ","pref":"岐阜県","city":"高山市","address":"朝日町桑之島"},
{"zip_code":"5093305","kana_pref":"ｷﾞﾌｹﾝ","kana_city":"ﾀｶﾔﾏｼ","kana_address":"ｱｻﾋﾁｮｳｺｾ","pref":"岐阜県","city":"高山市","address":"朝日町小瀬"},
{"zip_code":"5093317","kana_pref":"ｷﾞﾌｹﾝ","kana_city":"ﾀｶﾔﾏｼ","kana_address":"ｱｻﾋﾁｮｳｺｾｶﾞﾎﾗ","pref":"岐阜県","city":"高山市","address":"朝日町小瀬ケ洞"},
{"zip_code":"5093327","kana_pref":"ｷﾞﾌｹﾝ","kana_city":"ﾀｶﾔﾏｼ","kana_address":"ｱｻﾋﾁｮｳｺﾀﾞﾆ","pref":"岐阜県","city":"高山市","address":"朝日町小谷"},
{"zip_code":"5093304","kana_pref":"ｷﾞﾌｹﾝ","kana_city":"ﾀｶﾔﾏｼ","kana_address":"ｱｻﾋﾁｮｳﾀﾃｲﾜ","pref":"岐阜県","city":"高山市","address":"朝日町立岩"},
{"zip_code":"5093323","kana_pref":"ｷﾞﾌｹﾝ","kana_city":"ﾀｶﾔﾏｼ","kana_address":"ｱｻﾋﾁｮｳﾃﾗｻﾞﾜ","pref":"岐阜県","city":"高山市","address":"朝日町寺澤"},
{"zip_code":"5093302","kana_pref":"ｷﾞﾌｹﾝ","kana_city":"ﾀｶﾔﾏｼ","kana_address":"ｱｻﾋﾁｮｳﾃﾗﾂﾞｷ","pref":"岐阜県","city":"高山市","address":"朝日町寺附"},
{"zip_code":"5093314","kana_pref":"ｷﾞﾌｹﾝ","kana_city":"ﾀｶﾔﾏｼ","kana_address":"ｱｻﾋﾁｮｳﾆｼﾎﾞﾗ","pref":"岐阜県","city":"高山市","address":"朝日町西洞"},
{"zip_code":"5093325","kana_pref":"ｷﾞﾌｹﾝ","kana_city":"ﾀｶﾔﾏｼ","kana_address":"ｱｻﾋﾁｮｳﾏﾝｺﾞｸ","pref":"岐阜県","city":"高山市","address":"朝日町万石"},
{"zip_code":"5093306","kana_pref":"ｷﾞﾌｹﾝ","kana_city":"ﾀｶﾔﾏｼ","kana_address":"ｱｻﾋﾁｮｳﾐｻﾞ","pref":"岐阜県","city":"高山市","address":"朝日町見座"},
{"zip_code":"5093315","kana_pref":"ｷﾞﾌｹﾝ","kana_city":"ﾀｶﾔﾏｼ","kana_address":"ｱｻﾋﾁｮｳﾐﾔﾉﾏｴ","pref":"岐阜県","city":"高山市","address":"朝日町宮之前"},
{"zip_code":"5093505","kana_pref":"ｷﾞﾌｹﾝ","kana_city":"ﾀｶﾔﾏｼ","kana_address":"ｲﾁﾉﾐﾔﾏﾁ","pref":"岐阜県","city":"高山市","address":"一之宮町"},
{"zip_code":"5092702","kana_pref":"ｷﾞﾌｹﾝ","kana_city":"ﾀｶﾔﾏｼ","kana_address":"ｷﾖﾐﾁｮｳｵｯﾊﾟﾗ","pref":"岐阜県","city":"高山市","address":"清見町大原"},
{"zip_code":"5092701","kana_pref":"ｷﾞﾌｹﾝ","kana_city":"ﾀｶﾔﾏｼ","kana_address":"ｷﾖﾐﾁｮｳﾅﾗﾀﾞﾆ","pref":"岐阜県","city":"高山市","address":"清見町楢谷"},
{"zip_code":"5093212","kana_pref":"ｷﾞﾌｹﾝ","kana_city":"ﾀｶﾔﾏｼ","kana_address":"ｸｸﾞﾉﾁｮｳｱﾀｶﾞｽ","pref":"岐阜県","city":"高山市","address":"久々野町阿多粕"},
{"zip_code":"5093218","kana_pref":"ｷﾞﾌｹﾝ","kana_city":"ﾀｶﾔﾏｼ","kana_address":"ｸｸﾞﾉﾁｮｳｳﾄｳ","pref":"岐阜県","city":"高山市","address":"久々野町有道"},
{"zip_code":"5093201","kana_pref":"ｷﾞﾌｹﾝ","kana_city":"ﾀｶﾔﾏｼ","kana_address":"ｸｸﾞﾉﾁｮｳｵｵﾆｼ","pref":"岐阜県","city":"高山市","address":"久々野町大西"},
{"zip_code":"5093205","kana_pref":"ｷﾞﾌｹﾝ","kana_city":"ﾀｶﾔﾏｼ","kana_address":"ｸｸﾞﾉﾁｮｳｸｸﾞﾉ","pref":"岐阜県","city":"高山市","address":"久々野町久々野"},
{"zip_code":"5093204","kana_pref":"ｷﾞﾌｹﾝ","kana_city":"ﾀｶﾔﾏｼ","kana_address":"ｸｸﾞﾉﾁｮｳｸｽﾓ","pref":"岐阜県","city":"高山市","address":"久々野町久須母"},
{"zip_code":"5093211","kana_pref":"ｷﾞﾌｹﾝ","kana_city":"ﾀｶﾔﾏｼ","kana_address":"ｸｸﾞﾉﾁｮｳｺﾎﾞｳ","pref":"岐阜県","city":"高山市","address":"久々野町小坊"},
{"zip_code":"5093202","kana_pref":"ｷﾞﾌｹﾝ","kana_city":"ﾀｶﾔﾏｼ","kana_address":"ｸｸﾞﾉﾁｮｳｺﾔﾅ","pref":"岐阜県","city":"高山市","address":"久々野町小屋名"},
{"zip_code":"5093207","kana_pref":"ｷﾞﾌｹﾝ","kana_city":"ﾀｶﾔﾏｼ","kana_address":"ｸｸﾞﾉﾁｮｳﾂｼﾞ","pref":"岐阜県","city":"高山市","address":"久々野町辻"},
{"zip_code":"5093216","kana_pref":"ｷﾞﾌｹﾝ","kana_city":"ﾀｶﾔﾏｼ","kana_address":"ｸｸﾞﾉﾁｮｳﾄｸｻﾎﾞﾗ","pref":"岐阜県","city":"高山市","address":"久々野町木賊洞"},
{"zip_code":"5093217","kana_pref":"ｷﾞﾌｹﾝ","kana_city":"ﾀｶﾔﾏｼ","kana_address":"ｸｸﾞﾉﾁｮｳﾅｶﾞﾄﾛ","pref":"岐阜県","city":"高山市","address":"久々野町長淀"},
{"zip_code":"5093213","kana_pref":"ｷﾞﾌｹﾝ","kana_city":"ﾀｶﾔﾏｼ","kana_address":"ｸｸﾞﾉﾁｮｳﾅｷﾞｻ","pref":"岐阜県","city":"高山市","address":"久々野町渚"},
{"zip_code":"5093215","kana_pref":"ｷﾞﾌｹﾝ","kana_city":"ﾀｶﾔﾏｼ","kana_address":"ｸｸﾞﾉﾁｮｳﾋｷｻｹﾞ","pref":"岐阜県","city":"高山市","address":"久々野町引下"},
{"zip_code":"5093214","kana_pref":"ｷﾞﾌｹﾝ","kana_city":"ﾀｶﾔﾏｼ","kana_address":"ｸｸﾞﾉﾁｮｳﾑｽｺﾞ","pref":"岐阜県","city":"高山市","address":"久々野町無数河"},
{"zip_code":"5093203","kana_pref":"ｷﾞﾌｹﾝ","kana_city":"ﾀｶﾔﾏｼ","kana_address":"ｸｸﾞﾉﾁｮｳﾔﾅｼﾞﾏ","pref":"岐阜県","city":"高山市","address":"久々野町柳島"},
{"zip_code":"5093206","kana_pref":"ｷﾞﾌｹﾝ","kana_city":"ﾀｶﾔﾏｼ","kana_address":"ｸｸﾞﾉﾁｮｳﾔﾏﾅｼ","pref":"岐阜県","city":"高山市","address":"久々野町山梨"},
{"zip_code":"5094104","kana_pref":"ｷﾞﾌｹﾝ","kana_city":"ﾀｶﾔﾏｼ","kana_address":"ｺｸﾌﾁｮｳｲﾏ","pref":"岐阜県","city":"高山市","address":"国府町今"},
{"zip_code":"5094121","kana_pref":"ｷﾞﾌｹﾝ","kana_city":"ﾀｶﾔﾏｼ","kana_address":"ｺｸﾌﾁｮｳｳﾂｴ","pref":"岐阜県","city":"高山市","address":"国府町宇津江"},
{"zip_code":"5094126","kana_pref":"ｷﾞﾌｹﾝ","kana_city":"ﾀｶﾔﾏｼ","kana_address":"ｺｸﾌﾁｮｳｳﾘｽ","pref":"岐阜県","city":"高山市","address":"国府町瓜巣"},
{"zip_code":"5094106","kana_pref":"ｷﾞﾌｹﾝ","kana_city":"ﾀｶﾔﾏｼ","kana_address":"ｺｸﾌﾁｮｳｳﾙｼｶﾞｲﾄ","pref":"岐阜県","city":"高山市","address":"国府町漆垣内"},
{"zip_code":"5094123","kana_pref":"ｷﾞﾌｹﾝ","kana_city":"ﾀｶﾔﾏｼ","kana_address":"ｺｸﾌﾁｮｳｶﾈｵｹ","pref":"岐阜県","city":"高山市","address":"国府町金桶"},
{"zip_code":"5094116","kana_pref":"ｷﾞﾌｹﾝ","kana_city":"ﾀｶﾔﾏｼ","kana_address":"ｺｸﾌﾁｮｳｶﾐﾋﾛｾ","pref":"岐阜県","city":"高山市","address":"国府町上広瀬"},
{"zip_code":"5094113","kana_pref":"ｷﾞﾌｹﾝ","kana_city":"ﾀｶﾔﾏｼ","kana_address":"ｺｸﾌﾁｮｳｷｿｶﾞｲﾄ","pref":"岐阜県","city":"高山市","address":"国府町木曽垣内"},
{"zip_code":"5094101","kana_pref":"ｷﾞﾌｹﾝ","kana_city":"ﾀｶﾔﾏｼ","kana_address":"ｺｸﾌﾁｮｳｷﾘﾀﾞﾆ","pref":"岐阜県","city":"高山市","address":"国府町桐谷"},
{"zip_code":"5094117","kana_pref":"ｷﾞﾌｹﾝ","kana_city":"ﾀｶﾔﾏｼ","kana_address":"ｺｸﾌﾁｮｳｻﾝｶﾞﾜ","pref":"岐阜県","city":"高山市","address":"国府町三川"},
{"zip_code":"5094112","kana_pref":"ｷﾞﾌｹﾝ","kana_city":"ﾀｶﾔﾏｼ","kana_address":"ｺｸﾌﾁｮｳﾂﾙｽ","pref":"岐阜県","city":"高山市","address":"国府町鶴巣"},
{"zip_code":"5094122","kana_pref":"ｷﾞﾌｹﾝ","kana_city":"ﾀｶﾔﾏｼ","kana_address":"ｺｸﾌﾁｮｳﾅﾊﾞﾘ","pref":"岐阜県","city":"高山市","address":"国府町名張"},
{"zip_code":"5094107","kana_pref":"ｷﾞﾌｹﾝ","kana_city":"ﾀｶﾔﾏｼ","kana_address":"ｺｸﾌﾁｮｳﾆｼﾓﾝｾﾞﾝ","pref":"岐阜県","city":"高山市","address":"国府町西門前"},
{"zip_code":"5094125","kana_pref":"ｷﾞﾌｹﾝ","kana_city":"ﾀｶﾔﾏｼ","kana_address":"ｺｸﾌﾁｮｳﾇｶﾂﾞｶ","pref":"岐阜県","city":"高山市","address":"国府町糠塚"},
{"zip_code":"5094114","kana_pref":"ｷﾞﾌｹﾝ","kana_city":"ﾀｶﾔﾏｼ","kana_address":"ｺｸﾌﾁｮｳﾊﾝﾀﾞ","pref":"岐阜県","city":"高山市","address":"国府町半田"},
{"zip_code":"5094108","kana_pref":"ｷﾞﾌｹﾝ","kana_city":"ﾀｶﾔﾏｼ","kana_address":"ｺｸﾌﾁｮｳﾋｶﾞｼﾓﾝｾﾞﾝ","pref":"岐阜県","city":"高山市","address":"国府町東門前"},
{"zip_code":"5094119","kana_pref":"ｷﾞﾌｹﾝ","kana_city":"ﾀｶﾔﾏｼ","kana_address":"ｺｸﾌﾁｮｳﾋﾛｾﾏﾁ","pref":"岐阜県","city":"高山市","address":"国府町広瀬町"},
{"zip_code":"5094115","kana_pref":"ｷﾞﾌｹﾝ","kana_city":"ﾀｶﾔﾏｼ","kana_address":"ｺｸﾌﾁｮｳﾐｯｶﾏﾁ","pref":"岐阜県","city":"高山市","address":"国府町三日町"},
{"zip_code":"5094105","kana_pref":"ｷﾞﾌｹﾝ","kana_city":"ﾀｶﾔﾏｼ","kana_address":"ｺｸﾌﾁｮｳﾐﾉﾜ","pref":"岐阜県","city":"高山市","address":"国府町蓑輪"},
{"zip_code":"5094103","kana_pref":"ｷﾞﾌｹﾝ","kana_city":"ﾀｶﾔﾏｼ","kana_address":"ｺｸﾌﾁｮｳﾐﾔｼﾞ","pref":"岐阜県","city":"高山市","address":"国府町宮地"},
{"zip_code":"5094124","kana_pref":"ｷﾞﾌｹﾝ","kana_city":"ﾀｶﾔﾏｼ","kana_address":"ｺｸﾌﾁｮｳﾑﾗﾔﾏ","pref":"岐阜県","city":"高山市","address":"国府町村山"},
{"zip_code":"5094111","kana_pref":"ｷﾞﾌｹﾝ","kana_city":"ﾀｶﾔﾏｼ","kana_address":"ｺｸﾌﾁｮｳﾔﾏﾓﾄ","pref":"岐阜県","city":"高山市","address":"国府町山本"},
{"zip_code":"5094102","kana_pref":"ｷﾞﾌｹﾝ","kana_city":"ﾀｶﾔﾏｼ","kana_address":"ｺｸﾌﾁｮｳﾖｳｶﾏﾁ","pref":"岐阜県","city":"高山市","address":"国府町八日町"},
{"zip_code":"5093401","kana_pref":"ｷﾞﾌｹﾝ","kana_city":"ﾀｶﾔﾏｼ","kana_address":"ﾀｶﾈﾏﾁｱﾀﾉｺﾞｳ","pref":"岐阜県","city":"高山市","address":"高根町阿多野郷"},
{"zip_code":"5093417","kana_pref":"ｷﾞﾌｹﾝ","kana_city":"ﾀｶﾔﾏｼ","kana_address":"ﾀｶﾈﾏﾁｲｹｶﾞﾎﾗ","pref":"岐阜県","city":"高山市","address":"高根町池ケ洞"},
{"zip_code":"5093415","kana_pref":"ｷﾞﾌｹﾝ","kana_city":"ﾀｶﾔﾏｼ","kana_address":"ﾀｶﾈﾏﾁｲﾉﾊﾅ","pref":"岐阜県","city":"高山市","address":"高根町猪之鼻"},
{"zip_code":"5093412","kana_pref":"ｷﾞﾌｹﾝ","kana_city":"ﾀｶﾔﾏｼ","kana_address":"ﾀｶﾈﾏﾁｵｵﾌﾞﾙｲ","pref":"岐阜県","city":"高山市","address":"高根町大古井"},
{"zip_code":"5093411","kana_pref":"ｷﾞﾌｹﾝ","kana_city":"ﾀｶﾔﾏｼ","kana_address":"ﾀｶﾈﾏﾁｶﾐｶﾞﾎﾗ","pref":"岐阜県","city":"高山市","address":"高根町上ケ洞"},
{"zip_code":"5093418","kana_pref":"ｷﾞﾌｹﾝ","kana_city":"ﾀｶﾔﾏｼ","kana_address":"ﾀｶﾈﾏﾁｷﾋﾞｭｳ","pref":"岐阜県","city":"高山市","address":"高根町黍生"},
{"zip_code":"5093404","kana_pref":"ｷﾞﾌｹﾝ","kana_city":"ﾀｶﾔﾏｼ","kana_address":"ﾀｶﾈﾏﾁｺﾋﾜﾀﾞ","pref":"岐阜県","city":"高山市","address":"高根町小日和田"},
{"zip_code":"5093413","kana_pref":"ｷﾞﾌｹﾝ","kana_city":"ﾀｶﾔﾏｼ","kana_address":"ﾀｶﾈﾏﾁｼﾓﾉﾑｶｲ","pref":"岐阜県","city":"高山市","address":"高根町下之向"},
{"zip_code":"5093405","kana_pref":"ｷﾞﾌｹﾝ","kana_city":"ﾀｶﾔﾏｼ","kana_address":"ﾀｶﾈﾏﾁﾄﾒﾉﾊﾗ","pref":"岐阜県","city":"高山市","address":"高根町留之原"},
{"zip_code":"5093414","kana_pref":"ｷﾞﾌｹﾝ","kana_city":"ﾀｶﾔﾏｼ","kana_address":"ﾀｶﾈﾏﾁﾅｶﾉｼｭｸ","pref":"岐阜県","city":"高山市","address":"高根町中之宿"},
{"zip_code":"5093416","kana_pref":"ｷﾞﾌｹﾝ","kana_city":"ﾀｶﾔﾏｼ","kana_address":"ﾀｶﾈﾏﾁﾅｶﾎﾞﾗ","pref":"岐阜県","city":"高山市","address":"高根町中洞"},
{"zip_code":"5093402","kana_pref":"ｷﾞﾌｹﾝ","kana_city":"ﾀｶﾔﾏｼ","kana_address":"ﾀｶﾈﾏﾁﾉﾑｷﾞ","pref":"岐阜県","city":"高山市","address":"高根町野麦"},
{"zip_code":"5093419","kana_pref":"ｷﾞﾌｹﾝ","kana_city":"ﾀｶﾔﾏｼ","kana_address":"ﾀｶﾈﾏﾁﾋｶｹﾞ","pref":"岐阜県","city":"高山市","address":"高根町日影"},
{"zip_code":"5093403","kana_pref":"ｷﾞﾌｹﾝ","kana_city":"ﾀｶﾔﾏｼ","kana_address":"ﾀｶﾈﾏﾁﾋﾜﾀﾞ","pref":"岐阜県","city":"高山市","address":"高根町日和田"},
{"zip_code":"5097321","kana_pref":"ｷﾞﾌｹﾝ","kana_city":"ﾅｶﾂｶﾞﾜｼ","kana_address":"ｱｷﾞ","pref":"岐阜県","city":"中津川市","address":"阿木"},
{"zip_code":"5097322","kana_pref":"ｷﾞﾌｹﾝ","kana_city":"ﾅｶﾂｶﾞﾜｼ","kana_address":"ｲｲﾇﾏ","pref":"岐阜県","city":"中津川市","address":"飯沼"},
{"zip_code":"5099231","kana_pref":"ｷﾞﾌｹﾝ","kana_city":"ﾅｶﾂｶﾞﾜｼ","kana_address":"ｳｴﾉ","pref":"岐阜県","city":"中津川市","address":"上野"},
{"zip_code":"5099201","kana_pref":"ｷﾞﾌｹﾝ","kana_city":"ﾅｶﾂｶﾞﾜｼ","kana_address":"ｶﾜｳｴ","pref":"岐阜県","city":"中津川市","address":"川上"},
{"zip_code":"5099232","kana_pref":"ｷﾞﾌｹﾝ","kana_city":"ﾅｶﾂｶﾞﾜｼ","kana_address":"ｻｶｼﾀ","pref":"岐阜県","city":"中津川市","address":"坂下"},
{"zip_code":"5099131","kana_pref":"ｷﾞﾌｹﾝ","kana_city":"ﾅｶﾂｶﾞﾜｼ","kana_address":"ｾﾝﾀﾞﾝﾊﾞﾔｼ","pref":"岐阜県","city":"中津川市","address":"千旦林"},
{"zip_code":"5099132","kana_pref":"ｷﾞﾌｹﾝ","kana_city":"ﾅｶﾂｶﾞﾜｼ","kana_address":"ﾅｽﾋﾞｶﾞﾜ","pref":"岐阜県","city":"中津川市","address":"茄子川"},
{"zip_code":"5098301","kana_pref":"ｷﾞﾌｹﾝ","kana_city":"ﾅｶﾂｶﾞﾜｼ","kana_address":"ﾋﾙｶﾜ","pref":"岐阜県","city":"中津川市","address":"蛭川"},
{"zip_code":"5096100","kana_pref":"ｷﾞﾌｹﾝ","kana_city":"ﾐｽﾞﾅﾐｼ","kana_address":"","pref":"岐阜県","city":"瑞浪市","address":""},
{"zip_code":"5096131","kana_pref":"ｷﾞﾌｹﾝ","kana_city":"ﾐｽﾞﾅﾐｼ","kana_address":"ｱｷﾖﾁｮｳﾂｷﾖｼ","pref":"岐阜県","city":"瑞浪市","address":"明世町月吉"},
{"zip_code":"5096133","kana_pref":"ｷﾞﾌｹﾝ","kana_city":"ﾐｽﾞﾅﾐｼ","kana_address":"ｱｷﾖﾁｮｳﾄｶﾞﾘ","pref":"岐阜県","city":"瑞浪市","address":"明世町戸狩"},
{"zip_code":"5096132","kana_pref":"ｷﾞﾌｹﾝ","kana_city":"ﾐｽﾞﾅﾐｼ","kana_address":"ｱｷﾖﾁｮｳﾔﾏﾉｳﾁ","pref":"岐阜県","city":"瑞浪市","address":"明世町山野内"},
{"zip_code":"5096124","kana_pref":"ｷﾞﾌｹﾝ","kana_city":"ﾐｽﾞﾅﾐｼ","kana_address":"ｲｼｷﾁｮｳ","pref":"岐阜県","city":"瑞浪市","address":"一色町"},
{"zip_code":"5096103","kana_pref":"ｷﾞﾌｹﾝ","kana_city":"ﾐｽﾞﾅﾐｼ","kana_address":"ｲﾅﾂﾁｮｳｵﾘ","pref":"岐阜県","city":"瑞浪市","address":"稲津町小里"},
{"zip_code":"5096102","kana_pref":"ｷﾞﾌｹﾝ","kana_city":"ﾐｽﾞﾅﾐｼ","kana_address":"ｲﾅﾂﾁｮｳﾊｷﾞﾜﾗ","pref":"岐阜県","city":"瑞浪市","address":"稲津町萩原"},
{"zip_code":"5096122","kana_pref":"ｷﾞﾌｹﾝ","kana_city":"ﾐｽﾞﾅﾐｼ","kana_address":"ｳｴﾀﾞｲﾗﾁｮｳ","pref":"岐阜県","city":"瑞浪市","address":"上平町"},
{"zip_code":"5096125","kana_pref":"ｷﾞﾌｹﾝ","kana_city":"ﾐｽﾞﾅﾐｼ","kana_address":"ｳｴﾉﾏﾁ","pref":"岐阜県","city":"瑞浪市","address":"上野町"},
{"zip_code":"5096471","kana_pref":"ｷﾞﾌｹﾝ","kana_city":"ﾐｽﾞﾅﾐｼ","kana_address":"ｵｵｸﾃﾁｮｳ","pref":"岐阜県","city":"瑞浪市","address":"大湫町"},
{"zip_code":"5096112","kana_pref":"ｷﾞﾌｹﾝ","kana_city":"ﾐｽﾞﾅﾐｼ","kana_address":"ｵﾀﾞﾁｮｳ","pref":"岐阜県","city":"瑞浪市","address":"小田町"},
{"zip_code":"5096106","kana_pref":"ｷﾞﾌｹﾝ","kana_city":"ﾐｽﾞﾅﾐｼ","kana_address":"ｶﾞｸｴﾝﾀﾞｲ","pref":"岐阜県","city":"瑞浪市","address":"学園台"},
{"zip_code":"5096472","kana_pref":"ｷﾞﾌｹﾝ","kana_city":"ﾐｽﾞﾅﾐｼ","kana_address":"ｶﾏﾄﾞﾁｮｳ","pref":"岐阜県","city":"瑞浪市","address":"釜戸町"},
{"zip_code":"5096115","kana_pref":"ｷﾞﾌｹﾝ","kana_city":"ﾐｽﾞﾅﾐｼ","kana_address":"ｷﾀｵﾀﾞﾁｮｳ","pref":"岐阜県","city":"瑞浪市","address":"北小田町"},
{"zip_code":"5096111","kana_pref":"ｷﾞﾌｹﾝ","kana_city":"ﾐｽﾞﾅﾐｼ","kana_address":"ｼﾀｵｷﾁｮｳ","pref":"岐阜県","city":"瑞浪市","address":"下沖町"},
{"zip_code":"5096363","kana_pref":"ｷﾞﾌｹﾝ","kana_city":"ﾐｽﾞﾅﾐｼ","kana_address":"ｽｴﾁｮｳｵｵｶﾜ","pref":"岐阜県","city":"瑞浪市","address":"陶町大川"},
{"zip_code":"5096361","kana_pref":"ｷﾞﾌｹﾝ","kana_city":"ﾐｽﾞﾅﾐｼ","kana_address":"ｽｴﾁｮｳﾏｼﾂﾞﾒ","pref":"岐阜県","city":"瑞浪市","address":"陶町猿爪"},
{"zip_code":"5096362","kana_pref":"ｷﾞﾌｹﾝ","kana_city":"ﾐｽﾞﾅﾐｼ","kana_address":"ｽｴﾁｮｳﾐｽﾞｶﾐ","pref":"岐阜県","city":"瑞浪市","address":"陶町水上"},
{"zip_code":"5096127","kana_pref":"ｷﾞﾌｹﾝ","kana_city":"ﾐｽﾞﾅﾐｼ","kana_address":"ｽﾉｼﾁｮｳ","pref":"岐阜県","city":"瑞浪市","address":"須野志町"},
{"zip_code":"5096126","kana_pref":"ｷﾞﾌｹﾝ","kana_city":"ﾐｽﾞﾅﾐｼ","kana_address":"ﾀｶﾂｷﾁｮｳ","pref":"岐阜県","city":"瑞浪市","address":"高月町"},
{"zip_code":"5096123","kana_pref":"ｷﾞﾌｹﾝ","kana_city":"ﾐｽﾞﾅﾐｼ","kana_address":"ﾀﾙｳｴﾁｮｳ","pref":"岐阜県","city":"瑞浪市","address":"樽上町"},
{"zip_code":"5096121","kana_pref":"ｷﾞﾌｹﾝ","kana_city":"ﾐｽﾞﾅﾐｼ","kana_address":"ﾃﾗｶﾜﾄﾞﾁｮｳ","pref":"岐阜県","city":"瑞浪市","address":"寺河戸町"},
{"zip_code":"5096101","kana_pref":"ｷﾞﾌｹﾝ","kana_city":"ﾐｽﾞﾅﾐｼ","kana_address":"ﾄｷﾁｮｳ","pref":"岐阜県","city":"瑞浪市","address":"土岐町"},
{"zip_code":"5096114","kana_pref":"ｷﾞﾌｹﾝ","kana_city":"ﾐｽﾞﾅﾐｼ","kana_address":"ﾆｼｵﾀﾞﾁｮｳ","pref":"岐阜県","city":"瑞浪市","address":"西小田町"},
{"zip_code":"5096251","kana_pref":"ｷﾞﾌｹﾝ","kana_city":"ﾐｽﾞﾅﾐｼ","kana_address":"ﾋﾖｼﾁｮｳ","pref":"岐阜県","city":"瑞浪市","address":"日吉町"},
{"zip_code":"5096107","kana_pref":"ｷﾞﾌｹﾝ","kana_city":"ﾐｽﾞﾅﾐｼ","kana_address":"ﾎﾅﾐ","pref":"岐阜県","city":"瑞浪市","address":"穂並"},
{"zip_code":"5096134","kana_pref":"ｷﾞﾌｹﾝ","kana_city":"ﾐｽﾞﾅﾐｼ","kana_address":"ﾏﾂｶﾞｾﾁｮｳ","pref":"岐阜県","city":"瑞浪市","address":"松ケ瀬町"},
{"zip_code":"5096116","kana_pref":"ｷﾞﾌｹﾝ","kana_city":"ﾐｽﾞﾅﾐｼ","kana_address":"ﾐﾅﾐｵﾀﾞﾁｮｳ","pref":"岐阜県","city":"瑞浪市","address":"南小田町"},
{"zip_code":"5096128","kana_pref":"ｷﾞﾌｹﾝ","kana_city":"ﾐｽﾞﾅﾐｼ","kana_address":"ﾐﾔﾏｴﾁｮｳ","pref":"岐阜県","city":"瑞浪市","address":"宮前町"},
{"zip_code":"5096105","kana_pref":"ｷﾞﾌｹﾝ","kana_city":"ﾐｽﾞﾅﾐｼ","kana_address":"ﾐｮｳｶﾞﾀﾞｲ","pref":"岐阜県","city":"瑞浪市","address":"明賀台"},
{"zip_code":"5096135","kana_pref":"ｷﾞﾌｹﾝ","kana_city":"ﾐｽﾞﾅﾐｼ","kana_address":"ﾔｸｼﾁｮｳ","pref":"岐阜県","city":"瑞浪市","address":"薬師町"},
{"zip_code":"5096104","kana_pref":"ｷﾞﾌｹﾝ","kana_city":"ﾐｽﾞﾅﾐｼ","kana_address":"ﾔﾏﾀﾞﾁｮｳ","pref":"岐阜県","city":"瑞浪市","address":"山田町"},
{"zip_code":"5096113","kana_pref":"ｷﾞﾌｹﾝ","kana_city":"ﾐｽﾞﾅﾐｼ","kana_address":"ﾜｺﾞｳﾁｮｳ","pref":"岐阜県","city":"瑞浪市","address":"和合町"},
{"zip_code":"5097200","kana_pref":"ｷﾞﾌｹﾝ","kana_city":"ｴﾅｼ","kana_address":"","pref":"岐阜県","city":"恵那市","address":""},
{"zip_code":"5097731","kana_pref":"ｷﾞﾌｹﾝ","kana_city":"ｴﾅｼ","kana_address":"ｱｹﾁﾁｮｳ","pref":"岐阜県","city":"恵那市","address":"明智町"},
{"zip_code":"5097725","kana_pref":"ｷﾞﾌｹﾝ","kana_city":"ｴﾅｼ","kana_address":"ｱｹﾁﾁｮｳｱﾂﾞﾏ","pref":"岐阜県","city":"恵那市","address":"明智町阿妻"},
{"zip_code":"5097721","kana_pref":"ｷﾞﾌｹﾝ","kana_city":"ｴﾅｼ","kana_address":"ｱｹﾁﾁｮｳｵｵｲｽﾞﾐ","pref":"岐阜県","city":"恵那市","address":"明智町大泉"},
{"zip_code":"5097723","kana_pref":"ｷﾞﾌｹﾝ","kana_city":"ｴﾅｼ","kana_address":"ｱｹﾁﾁｮｳｵｵﾀ","pref":"岐阜県","city":"恵那市","address":"明智町大田"},
{"zip_code":"5097726","kana_pref":"ｷﾞﾌｹﾝ","kana_city":"ｴﾅｼ","kana_address":"ｱｹﾁﾁｮｳｷﾗﾐ","pref":"岐阜県","city":"恵那市","address":"明智町吉良見"},
{"zip_code":"5097702","kana_pref":"ｷﾞﾌｹﾝ","kana_city":"ｴﾅｼ","kana_address":"ｱｹﾁﾁｮｳｽｷﾞﾉ","pref":"岐阜県","city":"恵那市","address":"明智町杉野"},
{"zip_code":"5097701","kana_pref":"ｷﾞﾌｹﾝ","kana_city":"ｴﾅｼ","kana_address":"ｱｹﾁﾁｮｳﾉｼ","pref":"岐阜県","city":"恵那市","address":"明智町野志"},
{"zip_code":"5097711","kana_pref":"ｷﾞﾌｹﾝ","kana_city":"ｴﾅｼ","kana_address":"ｱｹﾁﾁｮｳﾋｶﾞｼｶﾞﾀ","pref":"岐阜県","city":"恵那市","address":"明智町東方"},
{"zip_code":"5097724","kana_pref":"ｷﾞﾌｹﾝ","kana_city":"ｴﾅｼ","kana_address":"ｱｹﾁﾁｮｳﾖｺﾄﾞｵﾘ","pref":"岐阜県","city":"恵那市","address":"明智町横通"},
{"zip_code":"5097708","kana_pref":"ｷﾞﾌｹﾝ","kana_city":"ｴﾅｼ","kana_address":"ｱｹﾁﾁｮｳ","pref":"岐阜県","city":"恵那市","address":"明智町"},
{"zip_code":"5097703","kana_pref":"ｷﾞﾌｹﾝ","kana_city":"ｴﾅｼ","kana_address":"ｱｹﾁﾁｮｳ","pref":"岐阜県","city":"恵那市","address":"明智町"},
{"zip_code":"5097704","kana_pref":"ｷﾞﾌｹﾝ","kana_city":"ｴﾅｼ","kana_address":"ｱｹﾁﾁｮｳ","pref":"岐阜県","city":"恵那市","address":"明智町"},
{"zip_code":"5097713","kana_pref":"ｷﾞﾌｹﾝ","kana_city":"ｴﾅｼ","kana_address":"ｱｹﾁﾁｮｳ","pref":"岐阜県","city":"恵那市","address":"明智町"},
{"zip_code":"5097705","kana_pref":"ｷﾞﾌｹﾝ","kana_city":"ｴﾅｼ","kana_address":"ｱｹﾁﾁｮｳ","pref":"岐阜県","city":"恵那市","address":"明智町"},
{"zip_code":"5097707","kana_pref":"ｷﾞﾌｹﾝ","kana_city":"ｴﾅｼ","kana_address":"ｱｹﾁﾁｮｳ","pref":"岐阜県","city":"恵那市","address":"明智町"},
{"zip_code":"5097714","kana_pref":"ｷﾞﾌｹﾝ","kana_city":"ｴﾅｼ","kana_address":"ｱｹﾁﾁｮｳ","pref":"岐阜県","city":"恵那市","address":"明智町"},
{"zip_code":"5097722","kana_pref":"ｷﾞﾌｹﾝ","kana_city":"ｴﾅｼ","kana_address":"ｱｹﾁﾁｮｳ","pref":"岐阜県","city":"恵那市","address":"明智町"},
{"zip_code":"5097715","kana_pref":"ｷﾞﾌｹﾝ","kana_city":"ｴﾅｼ","kana_address":"ｱｹﾁﾁｮｳ","pref":"岐阜県","city":"恵那市","address":"明智町"},
{"zip_code":"5097718","kana_pref":"ｷﾞﾌｹﾝ","kana_city":"ｴﾅｼ","kana_address":"ｱｹﾁﾁｮｳ","pref":"岐阜県","city":"恵那市","address":"明智町"},
{"zip_code":"5097716","kana_pref":"ｷﾞﾌｹﾝ","kana_city":"ｴﾅｼ","kana_address":"ｱｹﾁﾁｮｳ","pref":"岐阜県","city":"恵那市","address":"明智町"},
{"zip_code":"5097712","kana_pref":"ｷﾞﾌｹﾝ","kana_city":"ｴﾅｼ","kana_address":"ｱｹﾁﾁｮｳ","pref":"岐阜県","city":"恵那市","address":"明智町"},
{"zip_code":"5097717","kana_pref":"ｷﾞﾌｹﾝ","kana_city":"ｴﾅｼ","kana_address":"ｱｹﾁﾁｮｳ","pref":"岐阜県","city":"恵那市","address":"明智町"},
{"zip_code":"5097706","kana_pref":"ｷﾞﾌｹﾝ","kana_city":"ｴﾅｼ","kana_address":"ｱｹﾁﾁｮｳ","pref":"岐阜県","city":"恵那市","address":"明智町"},
{"zip_code":"5098232","kana_pref":"ｷﾞﾌｹﾝ","kana_city":"ｴﾅｼ","kana_address":"ｲｲｼﾞﾁｮｳ","pref":"岐阜県","city":"恵那市","address":"飯地町"},
{"zip_code":"5097403","kana_pref":"ｷﾞﾌｹﾝ","kana_city":"ｴﾅｼ","kana_address":"ｲﾜﾑﾗﾁｮｳ","pref":"岐阜県","city":"恵那市","address":"岩村町"},
{"zip_code":"5097401","kana_pref":"ｷﾞﾌｹﾝ","kana_city":"ｴﾅｼ","kana_address":"ｲﾜﾑﾗﾁｮｳｲｲﾊﾞﾏ","pref":"岐阜県","city":"恵那市","address":"岩村町飯羽間"},
{"zip_code":"5097402","kana_pref":"ｷﾞﾌｹﾝ","kana_city":"ｴﾅｼ","kana_address":"ｲﾜﾑﾗﾁｮｳﾄﾐﾀﾞ","pref":"岐阜県","city":"恵那市","address":"岩村町富田"},
{"zip_code":"5097201","kana_pref":"ｷﾞﾌｹﾝ","kana_city":"ｴﾅｼ","kana_address":"ｵｵｲﾁｮｳ","pref":"岐阜県","city":"恵那市","address":"大井町"},
{"zip_code":"5097206","kana_pref":"ｷﾞﾌｹﾝ","kana_city":"ｴﾅｼ","kana_address":"ｵｻｼﾏﾁｮｳｸｽﾐ","pref":"岐阜県","city":"恵那市","address":"長島町久須見"},
{"zip_code":"5097203","kana_pref":"ｷﾞﾌｹﾝ","kana_city":"ｴﾅｼ","kana_address":"ｵｻｼﾏﾁｮｳｼｮｳｹﾞ","pref":"岐阜県","city":"恵那市","address":"長島町正家"},
{"zip_code":"5097204","kana_pref":"ｷﾞﾌｹﾝ","kana_city":"ｴﾅｼ","kana_address":"ｵｻｼﾏﾁｮｳﾅｶﾞﾀ","pref":"岐阜県","city":"恵那市","address":"長島町永田"},
{"zip_code":"5097205","kana_pref":"ｷﾞﾌｹﾝ","kana_city":"ｴﾅｼ","kana_address":"ｵｻｼﾏﾁｮｳﾅｶﾉ","pref":"岐阜県","city":"恵那市","address":"長島町中野"},
{"zip_code":"5097211","kana_pref":"ｷﾞﾌｹﾝ","kana_city":"ｴﾅｼ","kana_address":"ｵｻｼﾏﾁｮｳﾅﾍﾞﾔﾏ","pref":"岐阜県","city":"恵那市","address":"長島町鍋山"},
{"zip_code":"5097207","kana_pref":"ｷﾞﾌｹﾝ","kana_city":"ｴﾅｼ","kana_address":"ｶｻｷﾞﾁｮｳｶﾜｲ","pref":"岐阜県","city":"恵那市","address":"笠置町河合"},
{"zip_code":"5097209","kana_pref":"ｷﾞﾌｹﾝ","kana_city":"ｴﾅｼ","kana_address":"ｶｻｷﾞﾁｮｳｹﾛｸﾎﾞ","pref":"岐阜県","city":"恵那市","address":"笠置町毛呂窪"},
{"zip_code":"5097208","kana_pref":"ｷﾞﾌｹﾝ","kana_city":"ｴﾅｼ","kana_address":"ｶｻｷﾞﾁｮｳﾋﾒｸﾞﾘ","pref":"岐阜県","city":"恵那市","address":"笠置町姫栗"},
{"zip_code":"5097521","kana_pref":"ｷﾞﾌｹﾝ","kana_city":"ｴﾅｼ","kana_address":"ｶﾐﾔﾊｷﾞﾁｮｳ","pref":"岐阜県","city":"恵那市","address":"上矢作町"},
{"zip_code":"5097511","kana_pref":"ｷﾞﾌｹﾝ","kana_city":"ｴﾅｼ","kana_address":"ｶﾐﾔﾊｷﾞﾁｮｳｳﾙｼﾊﾗ","pref":"岐阜県","city":"恵那市","address":"上矢作町漆原"},
{"zip_code":"5097513","kana_pref":"ｷﾞﾌｹﾝ","kana_city":"ｴﾅｼ","kana_address":"ｶﾐﾔﾊｷﾞﾁｮｳｺﾀﾞｺ","pref":"岐阜県","city":"恵那市","address":"上矢作町小田子"},
{"zip_code":"5097512","kana_pref":"ｷﾞﾌｹﾝ","kana_city":"ｴﾅｼ","kana_address":"ｶﾐﾔﾊｷﾞﾁｮｳｼﾓ","pref":"岐阜県","city":"恵那市","address":"上矢作町下"},
{"zip_code":"5097502","kana_pref":"ｷﾞﾌｹﾝ","kana_city":"ｴﾅｼ","kana_address":"ｶﾐﾔﾊｷﾞﾁｮｳ","pref":"岐阜県","city":"恵那市","address":"上矢作町"},
{"zip_code":"5097501","kana_pref":"ｷﾞﾌｹﾝ","kana_city":"ｴﾅｼ","kana_address":"ｶﾐﾔﾊｷﾞﾁｮｳ","pref":"岐阜県","city":"恵那市","address":"上矢作町"},
{"zip_code":"5097504","kana_pref":"ｷﾞﾌｹﾝ","kana_city":"ｴﾅｼ","kana_address":"ｶﾐﾔﾊｷﾞﾁｮｳ","pref":"岐阜県","city":"恵那市","address":"上矢作町"},
{"zip_code":"5097505","kana_pref":"ｷﾞﾌｹﾝ","kana_city":"ｴﾅｼ","kana_address":"ｶﾐﾔﾊｷﾞﾁｮｳ","pref":"岐阜県","city":"恵那市","address":"上矢作町"},
{"zip_code":"5097503","kana_pref":"ｷﾞﾌｹﾝ","kana_city":"ｴﾅｼ","kana_address":"ｶﾐﾔﾊｷﾞﾁｮｳ","pref":"岐阜県","city":"恵那市","address":"上矢作町"},
{"zip_code":"5097506","kana_pref":"ｷﾞﾌｹﾝ","kana_city":"ｴﾅｼ","kana_address":"ｶﾐﾔﾊｷﾞﾁｮｳ","pref":"岐阜県","city":"恵那市","address":"上矢作町"},
{"zip_code":"5097507","kana_pref":"ｷﾞﾌｹﾝ","kana_city":"ｴﾅｼ","kana_address":"ｶﾐﾔﾊｷﾞﾁｮｳ","pref":"岐阜県","city":"恵那市","address":"上矢作町"},
{"zip_code":"5097831","kana_pref":"ｷﾞﾌｹﾝ","kana_city":"ｴﾅｼ","kana_address":"ｸｼﾊﾗ","pref":"岐阜県","city":"恵那市","address":"串原"},
{"zip_code":"5097814","kana_pref":"ｷﾞﾌｹﾝ","kana_city":"ｴﾅｼ","kana_address":"ｸｼﾊﾗ","pref":"岐阜県","city":"恵那市","address":"串原"},
{"zip_code":"5097816","kana_pref":"ｷﾞﾌｹﾝ","kana_city":"ｴﾅｼ","kana_address":"ｸｼﾊﾗ","pref":"岐阜県","city":"恵那市","address":"串原"},
{"zip_code":"5097821","kana_pref":"ｷﾞﾌｹﾝ","kana_city":"ｴﾅｼ","kana_address":"ｸｼﾊﾗ","pref":"岐阜県","city":"恵那市","address":"串原"},
{"zip_code":"5097813","kana_pref":"ｷﾞﾌｹﾝ","kana_city":"ｴﾅｼ","kana_address":"ｸｼﾊﾗ","pref":"岐阜県","city":"恵那市","address":"串原"},
{"zip_code":"5097815","kana_pref":"ｷﾞﾌｹﾝ","kana_city":"ｴﾅｼ","kana_address":"ｸｼﾊﾗ","pref":"岐阜県","city":"恵那市","address":"串原"},
{"zip_code":"5097824","kana_pref":"ｷﾞﾌｹﾝ","kana_city":"ｴﾅｼ","kana_address":"ｸｼﾊﾗ","pref":"岐阜県","city":"恵那市","address":"串原"},
{"zip_code":"5097822","kana_pref":"ｷﾞﾌｹﾝ","kana_city":"ｴﾅｼ","kana_address":"ｸｼﾊﾗ","pref":"岐阜県","city":"恵那市","address":"串原"},
{"zip_code":"5097825","kana_pref":"ｷﾞﾌｹﾝ","kana_city":"ｴﾅｼ","kana_address":"ｸｼﾊﾗ","pref":"岐阜県","city":"恵那市","address":"串原"},
{"zip_code":"5097826","kana_pref":"ｷﾞﾌｹﾝ","kana_city":"ｴﾅｼ","kana_address":"ｸｼﾊﾗ","pref":"岐阜県","city":"恵那市","address":"串原"},
{"zip_code":"5097823","kana_pref":"ｷﾞﾌｹﾝ","kana_city":"ｴﾅｼ","kana_address":"ｸｼﾊﾗ","pref":"岐阜県","city":"恵那市","address":"串原"},
{"zip_code":"5097802","kana_pref":"ｷﾞﾌｹﾝ","kana_city":"ｴﾅｼ","kana_address":"ｸｼﾊﾗ","pref":"岐阜県","city":"恵那市","address":"串原"},
{"zip_code":"5097804","kana_pref":"ｷﾞﾌｹﾝ","kana_city":"ｴﾅｼ","kana_address":"ｸｼﾊﾗ","pref":"岐阜県","city":"恵那市","address":"串原"},
{"zip_code":"5097801","kana_pref":"ｷﾞﾌｹﾝ","kana_city":"ｴﾅｼ","kana_address":"ｸｼﾊﾗ","pref":"岐阜県","city":"恵那市","address":"串原"},
{"zip_code":"5097811","kana_pref":"ｷﾞﾌｹﾝ","kana_city":"ｴﾅｼ","kana_address":"ｸｼﾊﾗ","pref":"岐阜県","city":"恵那市","address":"串原"},
{"zip_code":"5097806","kana_pref":"ｷﾞﾌｹﾝ","kana_city":"ｴﾅｼ","kana_address":"ｸｼﾊﾗ","pref":"岐阜県","city":"恵那市","address":"串原"},
{"zip_code":"5097803","kana_pref":"ｷﾞﾌｹﾝ","kana_city":"ｴﾅｼ","kana_address":"ｸｼﾊﾗ","pref":"岐阜県","city":"恵那市","address":"串原"},
{"zip_code":"5097805","kana_pref":"ｷﾞﾌｹﾝ","kana_city":"ｴﾅｼ","kana_address":"ｸｼﾊﾗ","pref":"岐阜県","city":"恵那市","address":"串原"},
{"zip_code":"5097812","kana_pref":"ｷﾞﾌｹﾝ","kana_city":"ｴﾅｼ","kana_address":"ｸｼﾊﾗ","pref":"岐阜県","city":"恵那市","address":"串原"},
{"zip_code":"5097126","kana_pref":"ｷﾞﾌｹﾝ","kana_city":"ｴﾅｼ","kana_address":"ﾀｹﾅﾐﾁｮｳｼﾝﾀｹｵﾘ","pref":"岐阜県","city":"恵那市","address":"武並町新竹折"},
{"zip_code":"5097122","kana_pref":"ｷﾞﾌｹﾝ","kana_city":"ｴﾅｼ","kana_address":"ﾀｹﾅﾐﾁｮｳﾀｹｵﾘ","pref":"岐阜県","city":"恵那市","address":"武並町竹折"},
{"zip_code":"5097121","kana_pref":"ｷﾞﾌｹﾝ","kana_city":"ｴﾅｼ","kana_address":"ﾀｹﾅﾐﾁｮｳﾌｼﾞ","pref":"岐阜県","city":"恵那市","address":"武並町藤"},
{"zip_code":"5098231","kana_pref":"ｷﾞﾌｹﾝ","kana_city":"ｴﾅｼ","kana_address":"ﾅｶﾉﾎｳﾁｮｳ","pref":"岐阜県","city":"恵那市","address":"中野方町"},
{"zip_code":"5097202","kana_pref":"ｷﾞﾌｹﾝ","kana_city":"ｴﾅｼ","kana_address":"ﾋｶﾞｼﾉ","pref":"岐阜県","city":"恵那市","address":"東野"},
{"zip_code":"5097124","kana_pref":"ｷﾞﾌｹﾝ","kana_city":"ｴﾅｼ","kana_address":"ﾐｻﾄﾁｮｳｻｻﾞﾗｷﾞ","pref":"岐阜県","city":"恵那市","address":"三郷町佐々良木"},
{"zip_code":"5097123","kana_pref":"ｷﾞﾌｹﾝ","kana_city":"ｴﾅｼ","kana_address":"ﾐｻﾄﾁｮｳﾉｲ","pref":"岐阜県","city":"恵那市","address":"三郷町野井"},
{"zip_code":"5097125","kana_pref":"ｷﾞﾌｹﾝ","kana_city":"ｴﾅｼ","kana_address":"ﾐｻﾄﾁｮｳﾑｸﾉﾐ","pref":"岐阜県","city":"恵那市","address":"三郷町椋実"},
{"zip_code":"5097604","kana_pref":"ｷﾞﾌｹﾝ","kana_city":"ｴﾅｼ","kana_address":"ﾔﾏｵｶﾁｮｳｶﾏﾔ","pref":"岐阜県","city":"恵那市","address":"山岡町釜屋"},
{"zip_code":"5097603","kana_pref":"ｷﾞﾌｹﾝ","kana_city":"ｴﾅｼ","kana_address":"ﾔﾏｵｶﾁｮｳｶﾐﾄｳｹﾞ","pref":"岐阜県","city":"恵那市","address":"山岡町上手向"},
{"zip_code":"5097601","kana_pref":"ｷﾞﾌｹﾝ","kana_city":"ｴﾅｼ","kana_address":"ﾔﾏｵｶﾁｮｳｸﾎﾞﾊﾗ","pref":"岐阜県","city":"恵那市","address":"山岡町久保原"},
{"zip_code":"5097607","kana_pref":"ｷﾞﾌｹﾝ","kana_city":"ｴﾅｼ","kana_address":"ﾔﾏｵｶﾁｮｳｼﾓﾄｳｹﾞ","pref":"岐阜県","city":"恵那市","address":"山岡町下手向"},
{"zip_code":"5097608","kana_pref":"ｷﾞﾌｹﾝ","kana_city":"ｴﾅｼ","kana_address":"ﾔﾏｵｶﾁｮｳﾀｻﾞﾜ","pref":"岐阜県","city":"恵那市","address":"山岡町田沢"},
{"zip_code":"5097606","kana_pref":"ｷﾞﾌｹﾝ","kana_city":"ｴﾅｼ","kana_address":"ﾔﾏｵｶﾁｮｳﾀｼﾛ","pref":"岐阜県","city":"恵那市","address":"山岡町田代"},
{"zip_code":"5097602","kana_pref":"ｷﾞﾌｹﾝ","kana_city":"ｴﾅｼ","kana_address":"ﾔﾏｵｶﾁｮｳﾊﾞﾊﾞﾔﾏﾀﾞ","pref":"岐阜県","city":"恵那市","address":"山岡町馬場山田"},
{"zip_code":"5097605","kana_pref":"ｷﾞﾌｹﾝ","kana_city":"ｴﾅｼ","kana_address":"ﾔﾏｵｶﾁｮｳﾊﾗ","pref":"岐阜県","city":"恵那市","address":"山岡町原"},
{"zip_code":"5095100","kana_pref":"ｷﾞﾌｹﾝ","kana_city":"ﾄｷｼ","kana_address":"","pref":"岐阜県","city":"土岐市","address":""},
{"zip_code":"5095403","kana_pref":"ｷﾞﾌｹﾝ","kana_city":"ﾄｷｼ","kana_address":"ｱｻﾋｶﾞｵｶﾁｮｳ","pref":"岐阜県","city":"土岐市","address":"旭ケ丘町"},
{"zip_code":"5095144","kana_pref":"ｷﾞﾌｹﾝ","kana_city":"ﾄｷｼ","kana_address":"ｲｽﾞﾐｲｹﾉｳｴﾁｮｳ","pref":"岐阜県","city":"土岐市","address":"泉池ノ上町"},
{"zip_code":"5095141","kana_pref":"ｷﾞﾌｹﾝ","kana_city":"ﾄｷｼ","kana_address":"ｲｽﾞﾐｲﾜﾊﾞﾀﾁｮｳ","pref":"岐阜県","city":"土岐市","address":"泉岩畑町"},
{"zip_code":"5095107","kana_pref":"ｷﾞﾌｹﾝ","kana_city":"ﾄｷｼ","kana_address":"ｲｽﾞﾐｳﾒﾉｷﾁｮｳ","pref":"岐阜県","city":"土岐市","address":"泉梅ノ木町"},
{"zip_code":"5095136","kana_pref":"ｷﾞﾌｹﾝ","kana_city":"ﾄｷｼ","kana_address":"ｲｽﾞﾐｵｵｼﾏﾁｮｳ","pref":"岐阜県","city":"土岐市","address":"泉大島町"},
{"zip_code":"5095151","kana_pref":"ｷﾞﾌｹﾝ","kana_city":"ﾄｷｼ","kana_address":"ｲｽﾞﾐｵｵﾂﾎﾞﾁｮｳ","pref":"岐阜県","city":"土岐市","address":"泉大坪町"},
{"zip_code":"5095145","kana_pref":"ｷﾞﾌｹﾝ","kana_city":"ﾄｷｼ","kana_address":"ｲｽﾞﾐｵｵﾇﾏﾁｮｳ","pref":"岐阜県","city":"土岐市","address":"泉大沼町"},
{"zip_code":"5095171","kana_pref":"ｷﾞﾌｹﾝ","kana_city":"ﾄｷｼ","kana_address":"ｲｽﾞﾐｷﾀﾔﾏﾁｮｳ","pref":"岐阜県","city":"土岐市","address":"泉北山町"},
{"zip_code":"5095147","kana_pref":"ｷﾞﾌｹﾝ","kana_city":"ﾄｷｼ","kana_address":"ｲｽﾞﾐｺﾞｳﾏﾁ","pref":"岐阜県","city":"土岐市","address":"泉郷町"},
{"zip_code":"5095134","kana_pref":"ｷﾞﾌｹﾝ","kana_city":"ﾄｷｼ","kana_address":"ｲｽﾞﾐｼﾏﾀﾞﾁｮｳ","pref":"岐阜県","city":"土岐市","address":"泉島田町"},
{"zip_code":"5095133","kana_pref":"ｷﾞﾌｹﾝ","kana_city":"ﾄｷｼ","kana_address":"ｲｽﾞﾐｼﾝｴｲﾁｮｳ","pref":"岐阜県","city":"土岐市","address":"泉神栄町"},
{"zip_code":"5095152","kana_pref":"ｷﾞﾌｹﾝ","kana_city":"ﾄｷｼ","kana_address":"ｲｽﾞﾐﾃﾗｼﾀﾁｮｳ","pref":"岐阜県","city":"土岐市","address":"泉寺下町"},
{"zip_code":"5095131","kana_pref":"ｷﾞﾌｹﾝ","kana_city":"ﾄｷｼ","kana_address":"ｲｽﾞﾐﾃﾗﾀﾞﾁｮｳ","pref":"岐阜県","city":"土岐市","address":"泉寺田町"},
{"zip_code":"5095104","kana_pref":"ｷﾞﾌｹﾝ","kana_city":"ﾄｷｼ","kana_address":"ｲｽﾞﾐﾅｶｶﾞﾏﾁｮｳ","pref":"岐阜県","city":"土岐市","address":"泉中窯町"},
{"zip_code":"5095106","kana_pref":"ｷﾞﾌｹﾝ","kana_city":"ﾄｷｼ","kana_address":"ｲｽﾞﾐﾅｶﾓﾘﾁｮｳ","pref":"岐阜県","city":"土岐市","address":"泉仲森町"},
{"zip_code":"5095105","kana_pref":"ｷﾞﾌｹﾝ","kana_city":"ﾄｷｼ","kana_address":"ｲｽﾞﾐﾆｼｶﾞﾏﾁｮｳ","pref":"岐阜県","city":"土岐市","address":"泉西窯町"},
{"zip_code":"5095153","kana_pref":"ｷﾞﾌｹﾝ","kana_city":"ﾄｷｼ","kana_address":"ｲｽﾞﾐﾆｼﾊﾗﾁｮｳ","pref":"岐阜県","city":"土岐市","address":"泉西原町"},
{"zip_code":"5095154","kana_pref":"ｷﾞﾌｹﾝ","kana_city":"ﾄｷｼ","kana_address":"ｲｽﾞﾐﾆｼﾔﾏﾁｮｳ","pref":"岐阜県","city":"土岐市","address":"泉西山町"},
{"zip_code":"5095103","kana_pref":"ｷﾞﾌｹﾝ","kana_city":"ﾄｷｼ","kana_address":"ｲｽﾞﾐﾋｶﾞｼｶﾞﾏﾁｮｳ","pref":"岐阜県","city":"土岐市","address":"泉東窯町"},
{"zip_code":"5095146","kana_pref":"ｷﾞﾌｹﾝ","kana_city":"ﾄｷｼ","kana_address":"ｲｽﾞﾐﾒｲｼﾞﾏﾁ","pref":"岐阜県","city":"土岐市","address":"泉明治町"},
{"zip_code":"5095135","kana_pref":"ｷﾞﾌｹﾝ","kana_city":"ﾄｷｼ","kana_address":"ｲｽﾞﾐﾓﾘｼﾀﾁｮｳ","pref":"岐阜県","city":"土岐市","address":"泉森下町"},
{"zip_code":"5095161","kana_pref":"ｷﾞﾌｹﾝ","kana_city":"ﾄｷｼ","kana_address":"ｲｽﾞﾐｶﾞｵｶﾁｮｳ","pref":"岐阜県","city":"土岐市","address":"泉が丘町"},
{"zip_code":"5095132","kana_pref":"ｷﾞﾌｹﾝ","kana_city":"ﾄｷｼ","kana_address":"ｲｽﾞﾐﾁｮｳｵｵﾄﾐ","pref":"岐阜県","city":"土岐市","address":"泉町大富"},
{"zip_code":"5095101","kana_pref":"ｷﾞﾌｹﾝ","kana_city":"ﾄｷｼ","kana_address":"ｲｽﾞﾐﾁｮｳｶﾜｲ","pref":"岐阜県","city":"土岐市","address":"泉町河合"},
{"zip_code":"5095142","kana_pref":"ｷﾞﾌｹﾝ","kana_city":"ﾄｷｼ","kana_address":"ｲｽﾞﾐﾁｮｳｸｼﾞﾘ","pref":"岐阜県","city":"土岐市","address":"泉町久尻"},
{"zip_code":"5095102","kana_pref":"ｷﾞﾌｹﾝ","kana_city":"ﾄｷｼ","kana_address":"ｲｽﾞﾐﾁｮｳｼﾞｮｳﾘﾝｼﾞ","pref":"岐阜県","city":"土岐市","address":"泉町定林寺"},
{"zip_code":"5095143","kana_pref":"ｷﾞﾌｹﾝ","kana_city":"ﾄｷｼ","kana_address":"ｲｽﾞﾐﾋﾉﾃﾞﾁｮｳ","pref":"岐阜県","city":"土岐市","address":"泉日の出町"},
{"zip_code":"5095201","kana_pref":"ｷﾞﾌｹﾝ","kana_city":"ﾄｷｼ","kana_address":"ｵﾛｼｱｼｮｳﾁｮｳ","pref":"岐阜県","city":"土岐市","address":"下石阿庄町"},
{"zip_code":"5095203","kana_pref":"ｷﾞﾌｹﾝ","kana_city":"ﾄｷｼ","kana_address":"ｵﾛｼﾄｳｼﾀﾞｲ","pref":"岐阜県","city":"土岐市","address":"下石陶史台"},
{"zip_code":"5095202","kana_pref":"ｷﾞﾌｹﾝ","kana_city":"ﾄｷｼ","kana_address":"ｵﾛｼﾁｮｳ","pref":"岐阜県","city":"土岐市","address":"下石町"},
{"zip_code":"5095402","kana_pref":"ｷﾞﾌｹﾝ","kana_city":"ﾄｷｼ","kana_address":"ｿｷﾞﾁｮｳ","pref":"岐阜県","city":"土岐市","address":"曽木町"},
{"zip_code":"5095401","kana_pref":"ｷﾞﾌｹﾝ","kana_city":"ﾄｷｼ","kana_address":"ﾀﾞﾁﾁｮｳ","pref":"岐阜県","city":"土岐市","address":"駄知町"},
{"zip_code":"5095302","kana_pref":"ｷﾞﾌｹﾝ","kana_city":"ﾄｷｼ","kana_address":"ﾂﾏｷﾞﾍｲｾｲﾁｮｳ","pref":"岐阜県","city":"土岐市","address":"妻木平成町"},
{"zip_code":"5095301","kana_pref":"ｷﾞﾌｹﾝ","kana_city":"ﾄｷｼ","kana_address":"ﾂﾏｷﾞﾁｮｳ","pref":"岐阜県","city":"土岐市","address":"妻木町"},
{"zip_code":"5095312","kana_pref":"ｷﾞﾌｹﾝ","kana_city":"ﾄｷｼ","kana_address":"ﾂﾙｻﾄﾁｮｳｶｷﾉ","pref":"岐阜県","city":"土岐市","address":"鶴里町柿野"},
{"zip_code":"5095311","kana_pref":"ｷﾞﾌｹﾝ","kana_city":"ﾄｷｼ","kana_address":"ﾂﾙｻﾄﾁｮｳﾎｿﾉ","pref":"岐阜県","city":"土岐市","address":"鶴里町細野"},
{"zip_code":"5095127","kana_pref":"ｷﾞﾌｹﾝ","kana_city":"ﾄｷｼ","kana_address":"ﾄｷｶﾞｵｶ","pref":"岐阜県","city":"土岐市","address":"土岐ヶ丘"},
{"zip_code":"5095124","kana_pref":"ｷﾞﾌｹﾝ","kana_city":"ﾄｷｼ","kana_address":"ﾄｷｸﾞﾁﾅｶﾏﾁ","pref":"岐阜県","city":"土岐市","address":"土岐口中町"},
{"zip_code":"5095123","kana_pref":"ｷﾞﾌｹﾝ","kana_city":"ﾄｷｼ","kana_address":"ﾄｷｸﾞﾁﾐﾅﾐﾏﾁ","pref":"岐阜県","city":"土岐市","address":"土岐口南町"},
{"zip_code":"5095126","kana_pref":"ｷﾞﾌｹﾝ","kana_city":"ﾄｷｼ","kana_address":"ﾄｷｸﾞﾁｷﾀﾏﾁ","pref":"岐阜県","city":"土岐市","address":"土岐口北町"},
{"zip_code":"5095121","kana_pref":"ｷﾞﾌｹﾝ","kana_city":"ﾄｷｼ","kana_address":"ﾄｷﾂﾁｮｳﾀｶﾔﾏ","pref":"岐阜県","city":"土岐市","address":"土岐津町高山"},
{"zip_code":"5095122","kana_pref":"ｷﾞﾌｹﾝ","kana_city":"ﾄｷｼ","kana_address":"ﾄｷﾂﾁｮｳﾄｷｸﾞﾁ","pref":"岐阜県","city":"土岐市","address":"土岐津町土岐口"},
{"zip_code":"5095117","kana_pref":"ｷﾞﾌｹﾝ","kana_city":"ﾄｷｼ","kana_address":"ﾋﾀﾞｱｻﾉｱｻﾋﾏﾁ","pref":"岐阜県","city":"土岐市","address":"肥田浅野朝日町"},
{"zip_code":"5095118","kana_pref":"ｷﾞﾌｹﾝ","kana_city":"ﾄｷｼ","kana_address":"ﾋﾀﾞｱｻﾉｳﾒﾉｷﾁｮｳ","pref":"岐阜県","city":"土岐市","address":"肥田浅野梅ノ木町"},
{"zip_code":"5095112","kana_pref":"ｷﾞﾌｹﾝ","kana_city":"ﾄｷｼ","kana_address":"ﾋﾀﾞｱｻﾉｶｻｶﾞﾐﾁｮｳ","pref":"岐阜県","city":"土岐市","address":"肥田浅野笠神町"},
{"zip_code":"5095111","kana_pref":"ｷﾞﾌｹﾝ","kana_city":"ﾄｷｼ","kana_address":"ﾋﾀﾞｱｻﾉﾌﾀﾊﾞﾁｮｳ","pref":"岐阜県","city":"土岐市","address":"肥田浅野双葉町"},
{"zip_code":"5095113","kana_pref":"ｷﾞﾌｹﾝ","kana_city":"ﾄｷｼ","kana_address":"ﾋﾀﾞｱｻﾉﾓﾄﾏﾁ","pref":"岐阜県","city":"土岐市","address":"肥田浅野元町"},
{"zip_code":"5095116","kana_pref":"ｷﾞﾌｹﾝ","kana_city":"ﾄｷｼ","kana_address":"ﾋﾀﾞｱｻﾉﾔｵﾁﾁｮｳ","pref":"岐阜県","city":"土岐市","address":"肥田浅野矢落町"},
{"zip_code":"5095114","kana_pref":"ｷﾞﾌｹﾝ","kana_city":"ﾄｷｼ","kana_address":"ﾋﾀﾞﾁｮｳｱｻﾉ","pref":"岐阜県","city":"土岐市","address":"肥田町浅野"},
{"zip_code":"5095403","kana_pref":"ｷﾞﾌｹﾝ","kana_city":"ﾄｷｼ","kana_address":"ﾋﾀﾞﾁｮｳﾋﾀﾞ","pref":"岐阜県","city":"土岐市","address":"肥田町肥田"},
{"zip_code":"5095115","kana_pref":"ｷﾞﾌｹﾝ","kana_city":"ﾄｷｼ","kana_address":"ﾋﾀﾞﾁｮｳﾋﾀﾞ","pref":"岐阜県","city":"土岐市","address":"肥田町肥田"},
{"zip_code":"5095125","kana_pref":"ｷﾞﾌｹﾝ","kana_city":"ﾄｷｼ","kana_address":"ﾐﾕｷﾁｮｳ","pref":"岐阜県","city":"土岐市","address":"御幸町"},
{"zip_code":"5090111","kana_pref":"ｷﾞﾌｹﾝ","kana_city":"ｶｶﾐｶﾞﾊﾗｼ","kana_address":"ｳﾇﾏ","pref":"岐阜県","city":"各務原市","address":"鵜沼"},
{"zip_code":"5090145","kana_pref":"ｷﾞﾌｹﾝ","kana_city":"ｶｶﾐｶﾞﾊﾗｼ","kana_address":"ｳﾇﾏｱｻﾋﾏﾁ","pref":"岐阜県","city":"各務原市","address":"鵜沼朝日町"},
{"zip_code":"5090144","kana_pref":"ｷﾞﾌｹﾝ","kana_city":"ｶｶﾐｶﾞﾊﾗｼ","kana_address":"ｳﾇﾏｵｵｲｷﾞﾁｮｳ","pref":"岐阜県","city":"各務原市","address":"鵜沼大伊木町"},
{"zip_code":"5090141","kana_pref":"ｷﾞﾌｹﾝ","kana_city":"ｶｶﾐｶﾞﾊﾗｼ","kana_address":"ｳﾇﾏｶｶﾐｶﾞﾊﾗﾁｮｳ","pref":"岐阜県","city":"各務原市","address":"鵜沼各務原町"},
{"zip_code":"5090147","kana_pref":"ｷﾞﾌｹﾝ","kana_city":"ｶｶﾐｶﾞﾊﾗｼ","kana_address":"ｳﾇﾏｶﾜｻｷﾁｮｳ","pref":"岐阜県","city":"各務原市","address":"鵜沼川崎町"},
{"zip_code":"5090143","kana_pref":"ｷﾞﾌｹﾝ","kana_city":"ｶｶﾐｶﾞﾊﾗｼ","kana_address":"ｳﾇﾏｺｲｷﾞﾁｮｳ","pref":"岐阜県","city":"各務原市","address":"鵜沼小伊木町"},
{"zip_code":"5090117","kana_pref":"ｷﾞﾌｹﾝ","kana_city":"ｶｶﾐｶﾞﾊﾗｼ","kana_address":"ｳﾇﾏﾀﾞｲｱﾝｼﾞﾁｮｳ","pref":"岐阜県","city":"各務原市","address":"鵜沼大安寺町"},
{"zip_code":"5090135","kana_pref":"ｷﾞﾌｹﾝ","kana_city":"ｶｶﾐｶﾞﾊﾗｼ","kana_address":"ｳﾇﾏﾊﾊﾞﾁｮｳ","pref":"岐阜県","city":"各務原市","address":"鵜沼羽場町"},
{"zip_code":"5090126","kana_pref":"ｷﾞﾌｹﾝ","kana_city":"ｶｶﾐｶﾞﾊﾗｼ","kana_address":"ｳﾇﾏﾋｶﾞｼﾏﾁ","pref":"岐阜県","city":"各務原市","address":"鵜沼東町"},
{"zip_code":"5090132","kana_pref":"ｷﾞﾌｹﾝ","kana_city":"ｶｶﾐｶﾞﾊﾗｼ","kana_address":"ｳﾇﾏﾆｼﾏﾁ","pref":"岐阜県","city":"各務原市","address":"鵜沼西町"},
{"zip_code":"5090133","kana_pref":"ｷﾞﾌｹﾝ","kana_city":"ｶｶﾐｶﾞﾊﾗｼ","kana_address":"ｳﾇﾏﾌﾙｲﾁﾊﾞﾁｮｳ","pref":"岐阜県","city":"各務原市","address":"鵜沼古市場町"},
{"zip_code":"5090123","kana_pref":"ｷﾞﾌｹﾝ","kana_city":"ｶｶﾐｶﾞﾊﾗｼ","kana_address":"ｳﾇﾏﾎｳｼｬｸｼﾞﾁｮｳ","pref":"岐阜県","city":"各務原市","address":"鵜沼宝積寺町"},
{"zip_code":"5090134","kana_pref":"ｷﾞﾌｹﾝ","kana_city":"ｶｶﾐｶﾞﾊﾗｼ","kana_address":"ｳﾇﾏﾏﾅｺﾞｼﾁｮｳ","pref":"岐阜県","city":"各務原市","address":"鵜沼真名越町"},
{"zip_code":"5090142","kana_pref":"ｷﾞﾌｹﾝ","kana_city":"ｶｶﾐｶﾞﾊﾗｼ","kana_address":"ｳﾇﾏﾏﾙｺﾁｮｳ","pref":"岐阜県","city":"各務原市","address":"鵜沼丸子町"},
{"zip_code":"5090146","kana_pref":"ｷﾞﾌｹﾝ","kana_city":"ｶｶﾐｶﾞﾊﾗｼ","kana_address":"ｳﾇﾏﾐﾂｲｹﾁｮｳ","pref":"岐阜県","city":"各務原市","address":"鵜沼三ツ池町"},
{"zip_code":"5090125","kana_pref":"ｷﾞﾌｹﾝ","kana_city":"ｶｶﾐｶﾞﾊﾗｼ","kana_address":"ｳﾇﾏﾐﾅﾐﾏﾁ","pref":"岐阜県","city":"各務原市","address":"鵜沼南町"},
{"zip_code":"5090124","kana_pref":"ｷﾞﾌｹﾝ","kana_city":"ｶｶﾐｶﾞﾊﾗｼ","kana_address":"ｳﾇﾏﾔﾏｻﾞｷﾁｮｳ","pref":"岐阜県","city":"各務原市","address":"鵜沼山崎町"},
{"zip_code":"5090121","kana_pref":"ｷﾞﾌｹﾝ","kana_city":"ｶｶﾐｶﾞﾊﾗｼ","kana_address":"ｳﾇﾏﾀﾞｲ","pref":"岐阜県","city":"各務原市","address":"鵜沼台"},
{"zip_code":"5090104","kana_pref":"ｷﾞﾌｹﾝ","kana_city":"ｶｶﾐｶﾞﾊﾗｼ","kana_address":"ｶｶﾐｵｶﾞｾﾁｮｳ","pref":"岐阜県","city":"各務原市","address":"各務おがせ町"},
{"zip_code":"5090102","kana_pref":"ｷﾞﾌｹﾝ","kana_city":"ｶｶﾐｶﾞﾊﾗｼ","kana_address":"ｶｶﾐｸﾙﾏﾎﾗ","pref":"岐阜県","city":"各務原市","address":"各務車洞"},
{"zip_code":"5090103","kana_pref":"ｷﾞﾌｹﾝ","kana_city":"ｶｶﾐｶﾞﾊﾗｼ","kana_address":"ｶｶﾐﾋｶﾞｼﾏﾁ","pref":"岐阜県","city":"各務原市","address":"各務東町"},
{"zip_code":"5090106","kana_pref":"ｷﾞﾌｹﾝ","kana_city":"ｶｶﾐｶﾞﾊﾗｼ","kana_address":"ｶｶﾐﾆｼﾏﾁ","pref":"岐阜県","city":"各務原市","address":"各務西町"},
{"zip_code":"5090107","kana_pref":"ｷﾞﾌｹﾝ","kana_city":"ｶｶﾐｶﾞﾊﾗｼ","kana_address":"ｶｶﾐﾌﾅﾔﾏﾁｮｳ","pref":"岐阜県","city":"各務原市","address":"各務船山町"},
{"zip_code":"5090105","kana_pref":"ｷﾞﾌｹﾝ","kana_city":"ｶｶﾐｶﾞﾊﾗｼ","kana_address":"ｶｶﾐﾔﾏﾉﾏｴﾁｮｳ","pref":"岐阜県","city":"各務原市","address":"各務山の前町"},
{"zip_code":"5090122","kana_pref":"ｷﾞﾌｹﾝ","kana_city":"ｶｶﾐｶﾞﾊﾗｼ","kana_address":"ｼﾝｳﾇﾏﾀﾞｲ","pref":"岐阜県","city":"各務原市","address":"新鵜沼台"},
{"zip_code":"5090101","kana_pref":"ｷﾞﾌｹﾝ","kana_city":"ｶｶﾐｶﾞﾊﾗｼ","kana_address":"ｽｴ","pref":"岐阜県","city":"各務原市","address":"須衛"},
{"zip_code":"5090108","kana_pref":"ｷﾞﾌｹﾝ","kana_city":"ｶｶﾐｶﾞﾊﾗｼ","kana_address":"ｽｴﾁｮｳ","pref":"岐阜県","city":"各務原市","address":"須衛町"},
{"zip_code":"5090131","kana_pref":"ｷﾞﾌｹﾝ","kana_city":"ｶｶﾐｶﾞﾊﾗｼ","kana_address":"ﾂﾂｼﾞｶﾞｵｶ","pref":"岐阜県","city":"各務原市","address":"つつじが丘"},
{"zip_code":"5090109","kana_pref":"ｷﾞﾌｹﾝ","kana_city":"ｶｶﾐｶﾞﾊﾗｼ","kana_address":"ﾃｸﾉﾌﾟﾗｻﾞ","pref":"岐阜県","city":"各務原市","address":"テクノプラザ"},
{"zip_code":"5090136","kana_pref":"ｷﾞﾌｹﾝ","kana_city":"ｶｶﾐｶﾞﾊﾗｼ","kana_address":"ﾏﾂｶﾞｵｶ","pref":"岐阜県","city":"各務原市","address":"松が丘"},
{"zip_code":"5090114","kana_pref":"ｷﾞﾌｹﾝ","kana_city":"ｶｶﾐｶﾞﾊﾗｼ","kana_address":"ﾘｮｸｴﾝﾅｶ","pref":"岐阜県","city":"各務原市","address":"緑苑中"},
{"zip_code":"5090113","kana_pref":"ｷﾞﾌｹﾝ","kana_city":"ｶｶﾐｶﾞﾊﾗｼ","kana_address":"ﾘｮｸｴﾝﾋｶﾞｼ","pref":"岐阜県","city":"各務原市","address":"緑苑東"},
{"zip_code":"5090116","kana_pref":"ｷﾞﾌｹﾝ","kana_city":"ｶｶﾐｶﾞﾊﾗｼ","kana_address":"ﾘｮｸｴﾝﾆｼ","pref":"岐阜県","city":"各務原市","address":"緑苑西"},
{"zip_code":"5090115","kana_pref":"ｷﾞﾌｹﾝ","kana_city":"ｶｶﾐｶﾞﾊﾗｼ","kana_address":"ﾘｮｸｴﾝﾐﾅﾐ","pref":"岐阜県","city":"各務原市","address":"緑苑南"},
{"zip_code":"5090112","kana_pref":"ｷﾞﾌｹﾝ","kana_city":"ｶｶﾐｶﾞﾊﾗｼ","kana_address":"ﾘｮｸｴﾝｷﾀ","pref":"岐阜県","city":"各務原市","address":"緑苑北"},
{"zip_code":"5090200","kana_pref":"ｷﾞﾌｹﾝ","kana_city":"ｶﾆｼ","kana_address":"","pref":"岐阜県","city":"可児市","address":""},
{"zip_code":"5090259","kana_pref":"ｷﾞﾌｹﾝ","kana_city":"ｶﾆｼ","kana_address":"ｱｲｷﾞｶﾞｵｶ","pref":"岐阜県","city":"可児市","address":"愛岐ケ丘"},
{"zip_code":"5090215","kana_pref":"ｷﾞﾌｹﾝ","kana_city":"ｶﾆｼ","kana_address":"ｲｼｲ","pref":"岐阜県","city":"可児市","address":"石井"},
{"zip_code":"5090216","kana_pref":"ｷﾞﾌｹﾝ","kana_city":"ｶﾆｼ","kana_address":"ｲｼﾓﾘ","pref":"岐阜県","city":"可児市","address":"石森"},
{"zip_code":"5090246","kana_pref":"ｷﾞﾌｹﾝ","kana_city":"ｶﾆｼ","kana_address":"ｲﾏ","pref":"岐阜県","city":"可児市","address":"今"},
{"zip_code":"5090207","kana_pref":"ｷﾞﾌｹﾝ","kana_city":"ｶﾆｼ","kana_address":"ｲﾏﾜﾀﾘ","pref":"岐阜県","city":"可児市","address":"今渡"},
{"zip_code":"5090238","kana_pref":"ｷﾞﾌｹﾝ","kana_city":"ｶﾆｼ","kana_address":"ｵｵﾓﾘ","pref":"岐阜県","city":"可児市","address":"大森"},
{"zip_code":"5090239","kana_pref":"ｷﾞﾌｹﾝ","kana_city":"ｶﾆｼ","kana_address":"ｵｵﾓﾘﾀﾞｲ","pref":"岐阜県","city":"可児市","address":"大森台"},
{"zip_code":"5090233","kana_pref":"ｷﾞﾌｹﾝ","kana_city":"ｶﾆｼ","kana_address":"ｶｷｼﾀ","pref":"岐阜県","city":"可児市","address":"柿下"},
{"zip_code":"5090212","kana_pref":"ｷﾞﾌｹﾝ","kana_city":"ｶﾆｼ","kana_address":"ｶｷﾀﾞ","pref":"岐阜県","city":"可児市","address":"柿田"},
{"zip_code":"5090266","kana_pref":"ｷﾞﾌｹﾝ","kana_city":"ｶﾆｼ","kana_address":"ｶﾀﾋﾞﾗｼﾝﾏﾁ","pref":"岐阜県","city":"可児市","address":"帷子新町"},
{"zip_code":"5090237","kana_pref":"ｷﾞﾌｹﾝ","kana_city":"ｶﾆｼ","kana_address":"ｶﾂﾗｶﾞｵｶ","pref":"岐阜県","city":"可児市","address":"桂ケ丘"},
{"zip_code":"5090201","kana_pref":"ｷﾞﾌｹﾝ","kana_city":"ｶﾆｼ","kana_address":"ｶﾜｲ","pref":"岐阜県","city":"可児市","address":"川合"},
{"zip_code":"5090208","kana_pref":"ｷﾞﾌｹﾝ","kana_city":"ｶﾆｼ","kana_address":"ｶﾜｲｷﾀ","pref":"岐阜県","city":"可児市","address":"川合北"},
{"zip_code":"5090224","kana_pref":"ｷﾞﾌｹﾝ","kana_city":"ｶﾆｼ","kana_address":"ｸｸﾘ","pref":"岐阜県","city":"可児市","address":"久々利"},
{"zip_code":"5090234","kana_pref":"ｷﾞﾌｹﾝ","kana_city":"ｶﾆｼ","kana_address":"ｸｸﾘｶｷｼﾀﾆｭｳｶｲ","pref":"岐阜県","city":"可児市","address":"久々利柿下入会"},
{"zip_code":"5090255","kana_pref":"ｷﾞﾌｹﾝ","kana_city":"ｶﾆｼ","kana_address":"ｺｳﾖｳﾀﾞｲ","pref":"岐阜県","city":"可児市","address":"光陽台"},
{"zip_code":"5090241","kana_pref":"ｷﾞﾌｹﾝ","kana_city":"ｶﾆｼ","kana_address":"ｻｶﾄﾞ","pref":"岐阜県","city":"可児市","address":"坂戸"},
{"zip_code":"5090235","kana_pref":"ｷﾞﾌｹﾝ","kana_city":"ｶﾆｼ","kana_address":"ｻｸﾗｶﾞｵｶ","pref":"岐阜県","city":"可児市","address":"桜ケ丘"},
{"zip_code":"5090236","kana_pref":"ｷﾞﾌｹﾝ","kana_city":"ｶﾆｼ","kana_address":"ｻﾂｷｶﾞｵｶ","pref":"岐阜県","city":"可児市","address":"皐ケ丘"},
{"zip_code":"5090251","kana_pref":"ｷﾞﾌｹﾝ","kana_city":"ｶﾆｼ","kana_address":"ｼｵ","pref":"岐阜県","city":"可児市","address":"塩"},
{"zip_code":"5090248","kana_pref":"ｷﾞﾌｹﾝ","kana_city":"ｶﾆｼ","kana_address":"ｼﾐｽﾞｶﾞｵｶ","pref":"岐阜県","city":"可児市","address":"清水ケ丘"},
{"zip_code":"5090203","kana_pref":"ｷﾞﾌｹﾝ","kana_city":"ｶﾆｼ","kana_address":"ｼﾓｴﾄﾞ","pref":"岐阜県","city":"可児市","address":"下恵土"},
{"zip_code":"5090245","kana_pref":"ｷﾞﾌｹﾝ","kana_city":"ｶﾆｼ","kana_address":"ｼﾓｷﾞﾘ","pref":"岐阜県","city":"可児市","address":"下切"},
{"zip_code":"5090247","kana_pref":"ｷﾞﾌｹﾝ","kana_city":"ｶﾆｼ","kana_address":"ｼｭｳｶﾞ","pref":"岐阜県","city":"可児市","address":"塩河"},
{"zip_code":"5090262","kana_pref":"ｷﾞﾌｹﾝ","kana_city":"ｶﾆｼ","kana_address":"ｽｹﾞｶﾘ","pref":"岐阜県","city":"可児市","address":"菅刈"},
{"zip_code":"5090213","kana_pref":"ｷﾞﾌｹﾝ","kana_city":"ｶﾆｼ","kana_address":"ｾﾀ","pref":"岐阜県","city":"可児市","address":"瀬田"},
{"zip_code":"5090204","kana_pref":"ｷﾞﾌｹﾝ","kana_city":"ｶﾆｼ","kana_address":"ｾﾞﾝﾀﾞｲｼﾞ","pref":"岐阜県","city":"可児市","address":"禅台寺"},
{"zip_code":"5090205","kana_pref":"ｷﾞﾌｹﾝ","kana_city":"ｶﾆｼ","kana_address":"ﾄｸﾉﾐﾅﾐ","pref":"岐阜県","city":"可児市","address":"徳野南"},
{"zip_code":"5090206","kana_pref":"ｷﾞﾌｹﾝ","kana_city":"ｶﾆｼ","kana_address":"ﾄﾞﾀ","pref":"岐阜県","city":"可児市","address":"土田"},
{"zip_code":"5090202","kana_pref":"ｷﾞﾌｹﾝ","kana_city":"ｶﾆｼ","kana_address":"ﾅｶｴﾄﾞ","pref":"岐阜県","city":"可児市","address":"中恵土"},
{"zip_code":"5090257","kana_pref":"ｷﾞﾌｹﾝ","kana_city":"ｶﾆｼ","kana_address":"ﾅｶﾞｻｶ","pref":"岐阜県","city":"可児市","address":"長坂"},
{"zip_code":"5090254","kana_pref":"ｷﾞﾌｹﾝ","kana_city":"ｶﾆｼ","kana_address":"ﾅｶﾞﾎﾗ","pref":"岐阜県","city":"可児市","address":"長洞"},
{"zip_code":"5090265","kana_pref":"ｷﾞﾌｹﾝ","kana_city":"ｶﾆｼ","kana_address":"ﾆｼｶﾀﾋﾞﾗ","pref":"岐阜県","city":"可児市","address":"西帷子"},
{"zip_code":"5090261","kana_pref":"ｷﾞﾌｹﾝ","kana_city":"ｶﾆｼ","kana_address":"ﾆｼﾞｶﾞｵｶ","pref":"岐阜県","city":"可児市","address":"虹ケ丘"},
{"zip_code":"5090232","kana_pref":"ｷﾞﾌｹﾝ","kana_city":"ｶﾆｼ","kana_address":"ﾆﾉ","pref":"岐阜県","city":"可児市","address":"二野"},
{"zip_code":"5090222","kana_pref":"ｷﾞﾌｹﾝ","kana_city":"ｶﾆｼ","kana_address":"ﾊｻﾞｷ","pref":"岐阜県","city":"可児市","address":"羽崎"},
{"zip_code":"5090264","kana_pref":"ｷﾞﾌｹﾝ","kana_city":"ｶﾆｼ","kana_address":"ﾊﾄﾌｷﾀﾞｲ","pref":"岐阜県","city":"可児市","address":"鳩吹台"},
{"zip_code":"5090223","kana_pref":"ｷﾞﾌｹﾝ","kana_city":"ｶﾆｼ","kana_address":"ﾊﾆｭｳｶﾞｵｶ","pref":"岐阜県","city":"可児市","address":"羽生ケ丘"},
{"zip_code":"5090256","kana_pref":"ｷﾞﾌｹﾝ","kana_city":"ｶﾆｼ","kana_address":"ﾋｶﾞｼｶﾀﾋﾞﾗ","pref":"岐阜県","city":"可児市","address":"東帷子"},
{"zip_code":"5090249","kana_pref":"ｷﾞﾌｹﾝ","kana_city":"ｶﾆｼ","kana_address":"ﾋﾒｶﾞｵｶ","pref":"岐阜県","city":"可児市","address":"姫ケ丘"},
{"zip_code":"5090217","kana_pref":"ｷﾞﾌｹﾝ","kana_city":"ｶﾆｼ","kana_address":"ﾋﾗｶﾞｲﾄ","pref":"岐阜県","city":"可児市","address":"平貝戸"},
{"zip_code":"5090214","kana_pref":"ｷﾞﾌｹﾝ","kana_city":"ｶﾆｼ","kana_address":"ﾋﾛﾐ","pref":"岐阜県","city":"可児市","address":"広見"},
{"zip_code":"5090221","kana_pref":"ｷﾞﾌｹﾝ","kana_city":"ｶﾆｼ","kana_address":"ﾋﾛﾐｶﾞｵｶ","pref":"岐阜県","city":"可児市","address":"広眺ケ丘"},
{"zip_code":"5090211","kana_pref":"ｷﾞﾌｹﾝ","kana_city":"ｶﾆｼ","kana_address":"ﾌﾁﾉｳｴ","pref":"岐阜県","city":"可児市","address":"渕之上"},
{"zip_code":"5090230","kana_pref":"ｷﾞﾌｹﾝ","kana_city":"ｶﾆｼ","kana_address":"ﾎｼﾐﾀﾞｲ","pref":"岐阜県","city":"可児市","address":"星見台"},
{"zip_code":"5090218","kana_pref":"ｷﾞﾌｹﾝ","kana_city":"ｶﾆｼ","kana_address":"ﾏﾂﾌﾞｾ","pref":"岐阜県","city":"可児市","address":"松伏"},
{"zip_code":"5090250","kana_pref":"ｷﾞﾌｹﾝ","kana_city":"ｶﾆｼ","kana_address":"ﾐｻﾄｶﾞｵｶ","pref":"岐阜県","city":"可児市","address":"美里ケ丘"},
{"zip_code":"5090240","kana_pref":"ｷﾞﾌｹﾝ","kana_city":"ｶﾆｼ","kana_address":"ﾐｽﾞｷｶﾞｵｶ","pref":"岐阜県","city":"可児市","address":"みずきケ丘"},
{"zip_code":"5090263","kana_pref":"ｷﾞﾌｹﾝ","kana_city":"ｶﾆｼ","kana_address":"ﾐﾄﾞﾘ","pref":"岐阜県","city":"可児市","address":"緑"},
{"zip_code":"5090231","kana_pref":"ｷﾞﾌｹﾝ","kana_city":"ｶﾆｼ","kana_address":"ﾐﾄﾞﾘｶﾞｵｶ","pref":"岐阜県","city":"可児市","address":"緑ケ丘"},
{"zip_code":"5090253","kana_pref":"ｷﾞﾌｹﾝ","kana_city":"ｶﾆｼ","kana_address":"ﾑﾛﾊﾗ","pref":"岐阜県","city":"可児市","address":"室原"},
{"zip_code":"5090252","kana_pref":"ｷﾞﾌｹﾝ","kana_city":"ｶﾆｼ","kana_address":"ﾔﾄ","pref":"岐阜県","city":"可児市","address":"矢戸"},
{"zip_code":"5090242","kana_pref":"ｷﾞﾌｹﾝ","kana_city":"ｶﾆｼ","kana_address":"ﾔﾊﾞｻﾏ","pref":"岐阜県","city":"可児市","address":"谷迫間"},
{"zip_code":"5090258","kana_pref":"ｷﾞﾌｹﾝ","kana_city":"ｶﾆｼ","kana_address":"ﾜｶﾊﾞﾀﾞｲ","pref":"岐阜県","city":"可児市","address":"若葉台"},
{"zip_code":"5094315","kana_pref":"ｷﾞﾌｹﾝ","kana_city":"ﾋﾀﾞｼ","kana_address":"ｶﾜｲﾁｮｳｱﾓｳ","pref":"岐阜県","city":"飛騨市","address":"河合町天生"},
{"zip_code":"5094312","kana_pref":"ｷﾞﾌｹﾝ","kana_city":"ﾋﾀﾞｼ","kana_address":"ｶﾜｲﾁｮｳｲﾅｺﾞｴ","pref":"岐阜県","city":"飛騨市","address":"河合町稲越"},
{"zip_code":"5094303","kana_pref":"ｷﾞﾌｹﾝ","kana_city":"ﾋﾀﾞｼ","kana_address":"ｶﾜｲﾁｮｳｳｹ","pref":"岐阜県","city":"飛騨市","address":"河合町有家"},
{"zip_code":"5094311","kana_pref":"ｷﾞﾌｹﾝ","kana_city":"ﾋﾀﾞｼ","kana_address":"ｶﾜｲﾁｮｳｵｵﾀﾆ","pref":"岐阜県","city":"飛騨市","address":"河合町大谷"},
{"zip_code":"5094316","kana_pref":"ｷﾞﾌｹﾝ","kana_city":"ﾋﾀﾞｼ","kana_address":"ｶﾜｲﾁｮｳｹﾞﾝﾀﾞ","pref":"岐阜県","city":"飛騨市","address":"河合町元田"},
{"zip_code":"5094302","kana_pref":"ｷﾞﾌｹﾝ","kana_city":"ﾋﾀﾞｼ","kana_address":"ｶﾜｲﾁｮｳｺﾑｶﾘ","pref":"岐阜県","city":"飛騨市","address":"河合町小無雁"},
{"zip_code":"5094317","kana_pref":"ｷﾞﾌｹﾝ","kana_city":"ﾋﾀﾞｼ","kana_address":"ｶﾜｲﾁｮｳｼﾞｮｳｶﾞｼﾏ","pref":"岐阜県","city":"飛騨市","address":"河合町上ケ島"},
{"zip_code":"5094318","kana_pref":"ｷﾞﾌｹﾝ","kana_city":"ﾋﾀﾞｼ","kana_address":"ｶﾜｲﾁｮｳｼﾝﾐｮｳ","pref":"岐阜県","city":"飛騨市","address":"河合町新名"},
{"zip_code":"5094314","kana_pref":"ｷﾞﾌｹﾝ","kana_city":"ﾋﾀﾞｼ","kana_address":"ｶﾜｲﾁｮｳﾂｷｶﾞｾ","pref":"岐阜県","city":"飛騨市","address":"河合町月ケ瀬"},
{"zip_code":"5094301","kana_pref":"ｷﾞﾌｹﾝ","kana_city":"ﾋﾀﾞｼ","kana_address":"ｶﾜｲﾁｮｳﾂﾉｶﾞﾜ","pref":"岐阜県","city":"飛騨市","address":"河合町角川"},
{"zip_code":"5094306","kana_pref":"ｷﾞﾌｹﾝ","kana_city":"ﾋﾀﾞｼ","kana_address":"ｶﾜｲﾁｮｳﾅｶｿﾞｳﾚ","pref":"岐阜県","city":"飛騨市","address":"河合町中沢上"},
{"zip_code":"5094304","kana_pref":"ｷﾞﾌｹﾝ","kana_city":"ﾋﾀﾞｼ","kana_address":"ｶﾜｲﾁｮｳﾊﾈ","pref":"岐阜県","city":"飛騨市","address":"河合町羽根"},
{"zip_code":"5094313","kana_pref":"ｷﾞﾌｹﾝ","kana_city":"ﾋﾀﾞｼ","kana_address":"ｶﾜｲﾁｮｳﾎ","pref":"岐阜県","city":"飛騨市","address":"河合町保"},
{"zip_code":"5094305","kana_pref":"ｷﾞﾌｹﾝ","kana_city":"ﾋﾀﾞｼ","kana_address":"ｶﾜｲﾁｮｳﾎｷﾊﾞﾔｼ","pref":"岐阜県","city":"飛騨市","address":"河合町保木林"},
{"zip_code":"5094252","kana_pref":"ｷﾞﾌｹﾝ","kana_city":"ﾋﾀﾞｼ","kana_address":"ﾌﾙｶﾜﾁｮｳｱｻﾋﾞﾗｷﾏﾁ","pref":"岐阜県","city":"飛騨市","address":"古川町朝開町"},
{"zip_code":"5094234","kana_pref":"ｷﾞﾌｹﾝ","kana_city":"ﾋﾀﾞｼ","kana_address":"ﾌﾙｶﾜﾁｮｳｲﾁﾉﾏﾁ","pref":"岐阜県","city":"飛騨市","address":"古川町壱之町"},
{"zip_code":"5094265","kana_pref":"ｷﾞﾌｹﾝ","kana_city":"ﾋﾀﾞｼ","kana_address":"ﾌﾙｶﾜﾁｮｳｳﾈﾊﾀ","pref":"岐阜県","city":"飛騨市","address":"古川町畦畑"},
{"zip_code":"5094255","kana_pref":"ｷﾞﾌｹﾝ","kana_city":"ﾋﾀﾞｼ","kana_address":"ﾌﾙｶﾜﾁｮｳｵｵﾉﾁｮｳ","pref":"岐阜県","city":"飛騨市","address":"古川町大野町"},
{"zip_code":"5094222","kana_pref":"ｷﾞﾌｹﾝ","kana_city":"ﾋﾀﾞｼ","kana_address":"ﾌﾙｶﾜﾁｮｳｶﾀﾊﾗﾁｮｳ","pref":"岐阜県","city":"飛騨市","address":"古川町片原町"},
{"zip_code":"5094225","kana_pref":"ｷﾞﾌｹﾝ","kana_city":"ﾋﾀﾞｼ","kana_address":"ﾌﾙｶﾜﾁｮｳｶﾅﾓﾘﾁｮｳ","pref":"岐阜県","city":"飛騨市","address":"古川町金森町"},
{"zip_code":"5094212","kana_pref":"ｷﾞﾌｹﾝ","kana_city":"ﾋﾀﾞｼ","kana_address":"ﾌﾙｶﾜﾁｮｳｶﾐｷﾀ","pref":"岐阜県","city":"飛騨市","address":"古川町上気多"},
{"zip_code":"5094263","kana_pref":"ｷﾞﾌｹﾝ","kana_city":"ﾋﾀﾞｼ","kana_address":"ﾌﾙｶﾜﾁｮｳｶﾐﾉ","pref":"岐阜県","city":"飛騨市","address":"古川町上野"},
{"zip_code":"5094254","kana_pref":"ｷﾞﾌｹﾝ","kana_city":"ﾋﾀﾞｼ","kana_address":"ﾌﾙｶﾜﾁｮｳｶﾝﾏﾁ","pref":"岐阜県","city":"飛騨市","address":"古川町上町"},
{"zip_code":"5094243","kana_pref":"ｷﾞﾌｹﾝ","kana_city":"ﾋﾀﾞｼ","kana_address":"ﾌﾙｶﾜﾁｮｳｷﾌﾈﾁｮｳ","pref":"岐阜県","city":"飛騨市","address":"古川町貴船町"},
{"zip_code":"5094275","kana_pref":"ｷﾞﾌｹﾝ","kana_city":"ﾋﾀﾞｼ","kana_address":"ﾌﾙｶﾜﾁｮｳｸﾛｳﾁ","pref":"岐阜県","city":"飛騨市","address":"古川町黒内"},
{"zip_code":"5094203","kana_pref":"ｷﾞﾌｹﾝ","kana_city":"ﾋﾀﾞｼ","kana_address":"ﾌﾙｶﾜﾁｮｳｹｻﾏﾙ","pref":"岐阜県","city":"飛騨市","address":"古川町袈裟丸"},
{"zip_code":"5094245","kana_pref":"ｷﾞﾌｹﾝ","kana_city":"ﾋﾀﾞｼ","kana_address":"ﾌﾙｶﾜﾁｮｳｺｳｴｲﾁｮｳ","pref":"岐阜県","city":"飛騨市","address":"古川町幸栄町"},
{"zip_code":"5094244","kana_pref":"ｷﾞﾌｹﾝ","kana_city":"ﾋﾀﾞｼ","kana_address":"ﾌﾙｶﾜﾁｮｳｺﾚｼｹﾞ","pref":"岐阜県","city":"飛騨市","address":"古川町是重"},
{"zip_code":"5094237","kana_pref":"ｷﾞﾌｹﾝ","kana_city":"ﾋﾀﾞｼ","kana_address":"ﾌﾙｶﾜﾁｮｳｻｶｴ","pref":"岐阜県","city":"飛騨市","address":"古川町栄"},
{"zip_code":"5094274","kana_pref":"ｷﾞﾌｹﾝ","kana_city":"ﾋﾀﾞｼ","kana_address":"ﾌﾙｶﾜﾁｮｳｻｻｶﾞﾎﾗ","pref":"岐阜県","city":"飛騨市","address":"古川町笹ケ洞"},
{"zip_code":"5094236","kana_pref":"ｷﾞﾌｹﾝ","kana_city":"ﾋﾀﾞｼ","kana_address":"ﾌﾙｶﾜﾁｮｳｻﾝﾉﾏﾁ","pref":"岐阜県","city":"飛騨市","address":"古川町三之町"},
{"zip_code":"5094213","kana_pref":"ｷﾞﾌｹﾝ","kana_city":"ﾋﾀﾞｼ","kana_address":"ﾌﾙｶﾜﾁｮｳｼﾓｷﾀ","pref":"岐阜県","city":"飛騨市","address":"古川町下気多"},
{"zip_code":"5094261","kana_pref":"ｷﾞﾌｹﾝ","kana_city":"ﾋﾀﾞｼ","kana_address":"ﾌﾙｶﾜﾁｮｳｼﾓﾉ","pref":"岐阜県","city":"飛騨市","address":"古川町下野"},
{"zip_code":"5094231","kana_pref":"ｷﾞﾌｹﾝ","kana_city":"ﾋﾀﾞｼ","kana_address":"ﾌﾙｶﾜﾁｮｳｼﾝｻｶｴﾏﾁ","pref":"岐阜県","city":"飛騨市","address":"古川町新栄町"},
{"zip_code":"5094205","kana_pref":"ｷﾞﾌｹﾝ","kana_city":"ﾋﾀﾞｼ","kana_address":"ﾌﾙｶﾜﾁｮｳｽｴｻﾞﾈ","pref":"岐阜県","city":"飛騨市","address":"古川町末真"},
{"zip_code":"5094233","kana_pref":"ｷﾞﾌｹﾝ","kana_city":"ﾋﾀﾞｼ","kana_address":"ﾌﾙｶﾜﾁｮｳｽｴﾋﾛﾁｮｳ","pref":"岐阜県","city":"飛騨市","address":"古川町末広町"},
{"zip_code":"5094215","kana_pref":"ｷﾞﾌｹﾝ","kana_city":"ﾋﾀﾞｼ","kana_address":"ﾌﾙｶﾜﾁｮｳｽｷﾞｻｷ","pref":"岐阜県","city":"飛騨市","address":"古川町杉崎"},
{"zip_code":"5094201","kana_pref":"ｷﾞﾌｹﾝ","kana_city":"ﾋﾀﾞｼ","kana_address":"ﾌﾙｶﾜﾁｮｳｽｺﾞｳ","pref":"岐阜県","city":"飛騨市","address":"古川町数河"},
{"zip_code":"5094211","kana_pref":"ｷﾞﾌｹﾝ","kana_city":"ﾋﾀﾞｼ","kana_address":"ﾌﾙｶﾜﾁｮｳﾀｲｴ","pref":"岐阜県","city":"飛騨市","address":"古川町太江"},
{"zip_code":"5094256","kana_pref":"ｷﾞﾌｹﾝ","kana_city":"ﾋﾀﾞｼ","kana_address":"ﾌﾙｶﾜﾁｮｳﾀｶﾉ","pref":"岐阜県","city":"飛騨市","address":"古川町高野"},
{"zip_code":"5094271","kana_pref":"ｷﾞﾌｹﾝ","kana_city":"ﾋﾀﾞｼ","kana_address":"ﾌﾙｶﾜﾁｮｳﾀﾆ","pref":"岐阜県","city":"飛騨市","address":"古川町谷"},
{"zip_code":"5094273","kana_pref":"ｷﾞﾌｹﾝ","kana_city":"ﾋﾀﾞｼ","kana_address":"ﾌﾙｶﾜﾁｮｳﾃﾗｼﾞ","pref":"岐阜県","city":"飛騨市","address":"古川町寺地"},
{"zip_code":"5094202","kana_pref":"ｷﾞﾌｹﾝ","kana_city":"ﾋﾀﾞｼ","kana_address":"ﾌﾙｶﾜﾁｮｳﾄｲﾁ","pref":"岐阜県","city":"飛騨市","address":"古川町戸市"},
{"zip_code":"5094224","kana_pref":"ｷﾞﾌｹﾝ","kana_city":"ﾋﾀﾞｼ","kana_address":"ﾌﾙｶﾜﾁｮｳﾄﾉﾏﾁ","pref":"岐阜県","city":"飛騨市","address":"古川町殿町"},
{"zip_code":"5094262","kana_pref":"ｷﾞﾌｹﾝ","kana_city":"ﾋﾀﾞｼ","kana_address":"ﾌﾙｶﾜﾁｮｳﾅｶﾉ","pref":"岐阜県","city":"飛騨市","address":"古川町中野"},
{"zip_code":"5094253","kana_pref":"ｷﾞﾌｹﾝ","kana_city":"ﾋﾀﾞｼ","kana_address":"ﾌﾙｶﾜﾁｮｳﾅﾝｾｲﾁｮｳ","pref":"岐阜県","city":"飛騨市","address":"古川町南成町"},
{"zip_code":"5094235","kana_pref":"ｷﾞﾌｹﾝ","kana_city":"ﾋﾀﾞｼ","kana_address":"ﾌﾙｶﾜﾁｮｳﾆﾉﾏﾁ","pref":"岐阜県","city":"飛騨市","address":"古川町弐之町"},
{"zip_code":"5094214","kana_pref":"ｷﾞﾌｹﾝ","kana_city":"ﾋﾀﾞｼ","kana_address":"ﾌﾙｶﾜﾁｮｳﾇﾏﾏﾁ","pref":"岐阜県","city":"飛騨市","address":"古川町沼町"},
{"zip_code":"5094204","kana_pref":"ｷﾞﾌｹﾝ","kana_city":"ﾋﾀﾞｼ","kana_address":"ﾌﾙｶﾜﾁｮｳﾉｸﾞﾁ","pref":"岐阜県","city":"飛騨市","address":"古川町野口"},
{"zip_code":"5094272","kana_pref":"ｷﾞﾌｹﾝ","kana_city":"ﾋﾀﾞｼ","kana_address":"ﾌﾙｶﾜﾁｮｳﾉﾌﾞｶ","pref":"岐阜県","city":"飛騨市","address":"古川町信包"},
{"zip_code":"5094223","kana_pref":"ｷﾞﾌｹﾝ","kana_city":"ﾋﾀﾞｼ","kana_address":"ﾌﾙｶﾜﾁｮｳﾋｶﾞｼﾏﾁ","pref":"岐阜県","city":"飛騨市","address":"古川町東町"},
{"zip_code":"5094264","kana_pref":"ｷﾞﾌｹﾝ","kana_city":"ﾋﾀﾞｼ","kana_address":"ﾌﾙｶﾜﾁｮｳﾋﾗｲﾜ","pref":"岐阜県","city":"飛騨市","address":"古川町平岩"},
{"zip_code":"5094232","kana_pref":"ｷﾞﾌｹﾝ","kana_city":"ﾋﾀﾞｼ","kana_address":"ﾌﾙｶﾜﾁｮｳﾎﾝﾏﾁ","pref":"岐阜県","city":"飛騨市","address":"古川町本町"},
{"zip_code":"5094242","kana_pref":"ｷﾞﾌｹﾝ","kana_city":"ﾋﾀﾞｼ","kana_address":"ﾌﾙｶﾜﾁｮｳﾏｽｼﾏﾁｮｳ","pref":"岐阜県","city":"飛騨市","address":"古川町増島町"},
{"zip_code":"5094251","kana_pref":"ｷﾞﾌｹﾝ","kana_city":"ﾋﾀﾞｼ","kana_address":"ﾌﾙｶﾜﾁｮｳﾐﾔｷﾞﾁｮｳ","pref":"岐阜県","city":"飛騨市","address":"古川町宮城町"},
{"zip_code":"5094241","kana_pref":"ｷﾞﾌｹﾝ","kana_city":"ﾋﾀﾞｼ","kana_address":"ﾌﾙｶﾜﾁｮｳﾑｶｲﾏﾁ","pref":"岐阜県","city":"飛騨市","address":"古川町向町"},
{"zip_code":"5094221","kana_pref":"ｷﾞﾌｹﾝ","kana_city":"ﾋﾀﾞｼ","kana_address":"ﾌﾙｶﾜﾁｮｳﾜｶﾐﾔ","pref":"岐阜県","city":"飛騨市","address":"古川町若宮"},
{"zip_code":"5094541","kana_pref":"ｷﾞﾌｹﾝ","kana_city":"ﾋﾀﾞｼ","kana_address":"ﾐﾔｶﾞﾜﾁｮｳｱｽﾞｷｻﾞﾜ","pref":"岐阜県","city":"飛騨市","address":"宮川町小豆沢"},
{"zip_code":"5094531","kana_pref":"ｷﾞﾌｹﾝ","kana_city":"ﾋﾀﾞｼ","kana_address":"ﾐﾔｶﾞﾜﾁｮｳｱﾕﾄﾋﾞ","pref":"岐阜県","city":"飛騨市","address":"宮川町鮎飛"},
{"zip_code":"5094545","kana_pref":"ｷﾞﾌｹﾝ","kana_city":"ﾋﾀﾞｼ","kana_address":"ﾐﾔｶﾞﾜﾁｮｳｳﾂﾎﾞ","pref":"岐阜県","city":"飛騨市","address":"宮川町打保"},
{"zip_code":"5094414","kana_pref":"ｷﾞﾌｹﾝ","kana_city":"ﾋﾀﾞｼ","kana_address":"ﾐﾔｶﾞﾜﾁｮｳｵｵﾑｶﾘ","pref":"岐阜県","city":"飛騨市","address":"宮川町大無雁"},
{"zip_code":"5094415","kana_pref":"ｷﾞﾌｹﾝ","kana_city":"ﾋﾀﾞｼ","kana_address":"ﾐﾔｶﾞﾜﾁｮｳｵﾁｱｲ","pref":"岐阜県","city":"飛騨市","address":"宮川町落合"},
{"zip_code":"5094412","kana_pref":"ｷﾞﾌｹﾝ","kana_city":"ﾋﾀﾞｼ","kana_address":"ﾐﾔｶﾞﾜﾁｮｳｷｼｵｸ","pref":"岐阜県","city":"飛騨市","address":"宮川町岸奥"},
{"zip_code":"5094543","kana_pref":"ｷﾞﾌｹﾝ","kana_city":"ﾋﾀﾞｼ","kana_address":"ﾐﾔｶﾞﾜﾁｮｳｸﾜﾉ","pref":"岐阜県","city":"飛騨市","address":"宮川町桑野"},
{"zip_code":"5094413","kana_pref":"ｷﾞﾌｹﾝ","kana_city":"ﾋﾀﾞｼ","kana_address":"ﾐﾔｶﾞﾜﾁｮｳｺﾀﾞﾆ","pref":"岐阜県","city":"飛騨市","address":"宮川町小谷"},
{"zip_code":"5094403","kana_pref":"ｷﾞﾌｹﾝ","kana_city":"ﾋﾀﾞｼ","kana_address":"ﾐﾔｶﾞﾜﾁｮｳｻﾝｶﾞﾜﾗ","pref":"岐阜県","city":"飛騨市","address":"宮川町三川原"},
{"zip_code":"5094533","kana_pref":"ｷﾞﾌｹﾝ","kana_city":"ﾋﾀﾞｼ","kana_address":"ﾐﾔｶﾞﾜﾁｮｳｼｵﾔ","pref":"岐阜県","city":"飛騨市","address":"宮川町塩屋"},
{"zip_code":"5094401","kana_pref":"ｷﾞﾌｹﾝ","kana_city":"ﾋﾀﾞｼ","kana_address":"ﾐﾔｶﾞﾜﾁｮｳｽｶﾞﾇﾏ","pref":"岐阜県","city":"飛騨市","address":"宮川町菅沼"},
{"zip_code":"5094542","kana_pref":"ｷﾞﾌｹﾝ","kana_city":"ﾋﾀﾞｼ","kana_address":"ﾐﾔｶﾞﾜﾁｮｳｽｷﾞﾊﾗ","pref":"岐阜県","city":"飛騨市","address":"宮川町杉原"},
{"zip_code":"5094404","kana_pref":"ｷﾞﾌｹﾝ","kana_city":"ﾋﾀﾞｼ","kana_address":"ﾐﾔｶﾞﾜﾁｮｳｽﾉｳﾁ","pref":"岐阜県","city":"飛騨市","address":"宮川町巣之内"},
{"zip_code":"5094531","kana_pref":"ｷﾞﾌｹﾝ","kana_city":"ﾋﾀﾞｼ","kana_address":"ﾐﾔｶﾞﾜﾁｮｳｽﾉﾀﾞﾆ","pref":"岐阜県","city":"飛騨市","address":"宮川町巣納谷"},
{"zip_code":"5094421","kana_pref":"ｷﾞﾌｹﾝ","kana_city":"ﾋﾀﾞｼ","kana_address":"ﾐﾔｶﾞﾜﾁｮｳﾀｶﾏｷ","pref":"岐阜県","city":"飛騨市","address":"宮川町高牧"},
{"zip_code":"5094402","kana_pref":"ｷﾞﾌｹﾝ","kana_city":"ﾋﾀﾞｼ","kana_address":"ﾐﾔｶﾞﾜﾁｮｳﾀﾈｸﾗ","pref":"岐阜県","city":"飛騨市","address":"宮川町種蔵"},
{"zip_code":"5094544","kana_pref":"ｷﾞﾌｹﾝ","kana_city":"ﾋﾀﾞｼ","kana_address":"ﾐﾔｶﾞﾜﾁｮｳﾄﾀﾞﾆ","pref":"岐阜県","city":"飛騨市","address":"宮川町戸谷"},
{"zip_code":"5094534","kana_pref":"ｷﾞﾌｹﾝ","kana_city":"ﾋﾀﾞｼ","kana_address":"ﾐﾔｶﾞﾜﾁｮｳﾅｶｿﾞﾚ","pref":"岐阜県","city":"飛騨市","address":"宮川町中沢上"},
{"zip_code":"5094422","kana_pref":"ｷﾞﾌｹﾝ","kana_city":"ﾋﾀﾞｼ","kana_address":"ﾐﾔｶﾞﾜﾁｮｳﾆｼｼﾉﾋﾞ","pref":"岐阜県","city":"飛騨市","address":"宮川町西忍"},
{"zip_code":"5094535","kana_pref":"ｷﾞﾌｹﾝ","kana_city":"ﾋﾀﾞｼ","kana_address":"ﾐﾔｶﾞﾜﾁｮｳﾈｶﾞｿﾚ","pref":"岐阜県","city":"飛騨市","address":"宮川町祢宜ケ沢上"},
{"zip_code":"5094411","kana_pref":"ｷﾞﾌｹﾝ","kana_city":"ﾋﾀﾞｼ","kana_address":"ﾐﾔｶﾞﾜﾁｮｳﾉｸﾋﾞ","pref":"岐阜県","city":"飛騨市","address":"宮川町野首"},
{"zip_code":"5094423","kana_pref":"ｷﾞﾌｹﾝ","kana_city":"ﾋﾀﾞｼ","kana_address":"ﾐﾔｶﾞﾜﾁｮｳﾊﾔｼ","pref":"岐阜県","city":"飛騨市","address":"宮川町林"},
{"zip_code":"5094532","kana_pref":"ｷﾞﾌｹﾝ","kana_city":"ﾋﾀﾞｼ","kana_address":"ﾐﾔｶﾞﾜﾁｮｳﾎﾗ","pref":"岐阜県","city":"飛騨市","address":"宮川町洞"},
{"zip_code":"5094406","kana_pref":"ｷﾞﾌｹﾝ","kana_city":"ﾋﾀﾞｼ","kana_address":"ﾐﾔｶﾞﾜﾁｮｳﾏｷﾄﾞ","pref":"岐阜県","city":"飛騨市","address":"宮川町牧戸"},
{"zip_code":"5094405","kana_pref":"ｷﾞﾌｹﾝ","kana_city":"ﾋﾀﾞｼ","kana_address":"ﾐﾔｶﾞﾜﾁｮｳﾏﾙﾔﾏ","pref":"岐阜県","city":"飛騨市","address":"宮川町丸山"},
{"zip_code":"5094424","kana_pref":"ｷﾞﾌｹﾝ","kana_city":"ﾋﾀﾞｼ","kana_address":"ﾐﾔｶﾞﾜﾁｮｳﾓﾘﾔｽ","pref":"岐阜県","city":"飛騨市","address":"宮川町森安"},
{"zip_code":"5092200","kana_pref":"ｷﾞﾌｹﾝ","kana_city":"ｹﾞﾛｼ","kana_address":"","pref":"岐阜県","city":"下呂市","address":""},
{"zip_code":"5092203","kana_pref":"ｷﾞﾌｹﾝ","kana_city":"ｹﾞﾛｼ","kana_address":"ｵｶﾞﾜ","pref":"岐阜県","city":"下呂市","address":"小川"},
{"zip_code":"5093114","kana_pref":"ｷﾞﾌｹﾝ","kana_city":"ｹﾞﾛｼ","kana_address":"ｵｻｶﾁｮｳｱｶﾝﾀ","pref":"岐阜県","city":"下呂市","address":"小坂町赤沼田"},
{"zip_code":"5093101","kana_pref":"ｷﾞﾌｹﾝ","kana_city":"ｹﾞﾛｼ","kana_address":"ｵｻｶﾁｮｳｲﾜｻｷ","pref":"岐阜県","city":"下呂市","address":"小坂町岩崎"},
{"zip_code":"5093103","kana_pref":"ｷﾞﾌｹﾝ","kana_city":"ｹﾞﾛｼ","kana_address":"ｵｻｶﾁｮｳｵｵｶﾞｲﾄ","pref":"岐阜県","city":"下呂市","address":"小坂町大垣内"},
{"zip_code":"5093106","kana_pref":"ｷﾞﾌｹﾝ","kana_city":"ｹﾞﾛｼ","kana_address":"ｵｻｶﾁｮｳｵｵｼﾏ","pref":"岐阜県","city":"下呂市","address":"小坂町大島"},
{"zip_code":"5093112","kana_pref":"ｷﾞﾌｹﾝ","kana_city":"ｹﾞﾛｼ","kana_address":"ｵｻｶﾁｮｳｵｵﾎﾞﾗ","pref":"岐阜県","city":"下呂市","address":"小坂町大洞"},
{"zip_code":"5093104","kana_pref":"ｷﾞﾌｹﾝ","kana_city":"ｹﾞﾛｼ","kana_address":"ｵｻｶﾁｮｳｵｻｶﾏﾁ","pref":"岐阜県","city":"下呂市","address":"小坂町小坂町"},
{"zip_code":"5093111","kana_pref":"ｷﾞﾌｹﾝ","kana_city":"ｹﾞﾛｼ","kana_address":"ｵｻｶﾁｮｳｵﾁｱｲ","pref":"岐阜県","city":"下呂市","address":"小坂町落合"},
{"zip_code":"5093102","kana_pref":"ｷﾞﾌｹﾝ","kana_city":"ｹﾞﾛｼ","kana_address":"ｵｻｶﾁｮｳｶﾄﾞｻｶ","pref":"岐阜県","city":"下呂市","address":"小坂町門坂"},
{"zip_code":"5093105","kana_pref":"ｷﾞﾌｹﾝ","kana_city":"ｹﾞﾛｼ","kana_address":"ｵｻｶﾁｮｳｻｺﾚ","pref":"岐阜県","city":"下呂市","address":"小坂町坂下"},
{"zip_code":"5093115","kana_pref":"ｷﾞﾌｹﾝ","kana_city":"ｹﾞﾛｼ","kana_address":"ｵｻｶﾁｮｳﾅｶﾞｾ","pref":"岐阜県","city":"下呂市","address":"小坂町長瀬"},
{"zip_code":"5093107","kana_pref":"ｷﾞﾌｹﾝ","kana_city":"ｹﾞﾛｼ","kana_address":"ｵｻｶﾁｮｳﾑｽﾊﾞﾗ","pref":"岐阜県","city":"下呂市","address":"小坂町無数原"},
{"zip_code":"5093113","kana_pref":"ｷﾞﾌｹﾝ","kana_city":"ｹﾞﾛｼ","kana_address":"ｵｻｶﾁｮｳﾕﾔ","pref":"岐阜県","city":"下呂市","address":"小坂町湯屋"},
{"zip_code":"5092138","kana_pref":"ｷﾞﾌｹﾝ","kana_city":"ｹﾞﾛｼ","kana_address":"ｶﾄﾞﾊﾗ","pref":"岐阜県","city":"下呂市","address":"門原"},
{"zip_code":"5092424","kana_pref":"ｷﾞﾌｹﾝ","kana_city":"ｹﾞﾛｼ","kana_address":"ｶﾄﾞﾜｻ","pref":"岐阜県","city":"下呂市","address":"門和佐"},
{"zip_code":"5091603","kana_pref":"ｷﾞﾌｹﾝ","kana_city":"ｹﾞﾛｼ","kana_address":"ｶﾅﾔﾏﾁｮｳｲﾜｾ","pref":"岐阜県","city":"下呂市","address":"金山町岩瀬"},
{"zip_code":"5091602","kana_pref":"ｷﾞﾌｹﾝ","kana_city":"ｹﾞﾛｼ","kana_address":"ｶﾅﾔﾏﾁｮｳｳﾉﾊﾗ","pref":"岐阜県","city":"下呂市","address":"金山町卯野原"},
{"zip_code":"5091614","kana_pref":"ｷﾞﾌｹﾝ","kana_city":"ｹﾞﾛｼ","kana_address":"ｶﾅﾔﾏﾁｮｳｵｵﾌﾅﾄ","pref":"岐阜県","city":"下呂市","address":"金山町大船渡"},
{"zip_code":"5091607","kana_pref":"ｷﾞﾌｹﾝ","kana_city":"ｹﾞﾛｼ","kana_address":"ｶﾅﾔﾏﾁｮｳｵｯﾊﾟﾗ","pref":"岐阜県","city":"下呂市","address":"金山町乙原"},
{"zip_code":"5091622","kana_pref":"ｷﾞﾌｹﾝ","kana_city":"ｹﾞﾛｼ","kana_address":"ｶﾅﾔﾏﾁｮｳｶﾅﾔﾏ","pref":"岐阜県","city":"下呂市","address":"金山町金山"},
{"zip_code":"5091616","kana_pref":"ｷﾞﾌｹﾝ","kana_city":"ｹﾞﾛｼ","kana_address":"ｶﾅﾔﾏﾁｮｳｼﾓﾊﾗﾏﾁ","pref":"岐阜県","city":"下呂市","address":"金山町下原町"},
{"zip_code":"5091623","kana_pref":"ｷﾞﾌｹﾝ","kana_city":"ｹﾞﾛｼ","kana_address":"ｶﾅﾔﾏﾁｮｳｽｶﾞﾀｷﾘﾎﾗ","pref":"岐阜県","city":"下呂市","address":"金山町菅田桐洞"},
{"zip_code":"5091624","kana_pref":"ｷﾞﾌｹﾝ","kana_city":"ｹﾞﾛｼ","kana_address":"ｶﾅﾔﾏﾁｮｳｽｶﾞﾀｻｻﾎﾗ","pref":"岐阜県","city":"下呂市","address":"金山町菅田笹洞"},
{"zip_code":"5091606","kana_pref":"ｷﾞﾌｹﾝ","kana_city":"ｹﾞﾛｼ","kana_address":"ｶﾅﾔﾏﾁｮｳｿｼﾉ","pref":"岐阜県","city":"下呂市","address":"金山町祖師野"},
{"zip_code":"5091615","kana_pref":"ｷﾞﾌｹﾝ","kana_city":"ｹﾞﾛｼ","kana_address":"ｶﾅﾔﾏﾁｮｳﾀｼﾞﾏ","pref":"岐阜県","city":"下呂市","address":"金山町田島"},
{"zip_code":"5091605","kana_pref":"ｷﾞﾌｹﾝ","kana_city":"ｹﾞﾛｼ","kana_address":"ｶﾅﾔﾏﾁｮｳﾄﾍﾞ","pref":"岐阜県","city":"下呂市","address":"金山町戸部"},
{"zip_code":"5091611","kana_pref":"ｷﾞﾌｹﾝ","kana_city":"ｹﾞﾛｼ","kana_address":"ｶﾅﾔﾏﾁｮｳﾅｶｷﾞﾘ","pref":"岐阜県","city":"下呂市","address":"金山町中切"},
{"zip_code":"5091613","kana_pref":"ｷﾞﾌｹﾝ","kana_city":"ｹﾞﾛｼ","kana_address":"ｶﾅﾔﾏﾁｮｳﾅｶﾂﾊﾗ","pref":"岐阜県","city":"下呂市","address":"金山町中津原"},
{"zip_code":"5091604","kana_pref":"ｷﾞﾌｹﾝ","kana_city":"ｹﾞﾛｼ","kana_address":"ｶﾅﾔﾏﾁｮｳﾋｶﾞｼｸﾂﾍﾞ","pref":"岐阜県","city":"下呂市","address":"金山町東沓部"},
{"zip_code":"5091612","kana_pref":"ｷﾞﾌｹﾝ","kana_city":"ｹﾞﾛｼ","kana_address":"ｶﾅﾔﾏﾁｮｳﾌｸﾗｲ","pref":"岐阜県","city":"下呂市","address":"金山町福来"},
{"zip_code":"5091601","kana_pref":"ｷﾞﾌｹﾝ","kana_city":"ｹﾞﾛｼ","kana_address":"ｶﾅﾔﾏﾁｮｳﾕｶﾞｹ","pref":"岐阜県","city":"下呂市","address":"金山町弓掛"},
{"zip_code":"5091621","kana_pref":"ｷﾞﾌｹﾝ","kana_city":"ｹﾞﾛｼ","kana_address":"ｶﾅﾔﾏﾁｮｳﾜﾀﾘ","pref":"岐阜県","city":"下呂市","address":"金山町渡"},
{"zip_code":"5092131","kana_pref":"ｷﾞﾌｹﾝ","kana_city":"ｹﾞﾛｼ","kana_address":"ｸﾉｶﾞﾜ","pref":"岐阜県","city":"下呂市","address":"久野川"},
{"zip_code":"5092206","kana_pref":"ｷﾞﾌｹﾝ","kana_city":"ｹﾞﾛｼ","kana_address":"ｺｳﾃﾞﾝ","pref":"岐阜県","city":"下呂市","address":"幸田"},
{"zip_code":"5092204","kana_pref":"ｷﾞﾌｹﾝ","kana_city":"ｹﾞﾛｼ","kana_address":"ｻﾝﾊﾞﾗ","pref":"岐阜県","city":"下呂市","address":"三原"},
{"zip_code":"5092205","kana_pref":"ｷﾞﾌｹﾝ","kana_city":"ｹﾞﾛｼ","kana_address":"ｼｮｳｶﾞﾉ","pref":"岐阜県","city":"下呂市","address":"少ケ野"},
{"zip_code":"5092136","kana_pref":"ｷﾞﾌｹﾝ","kana_city":"ｹﾞﾛｼ","kana_address":"ｾﾄ","pref":"岐阜県","city":"下呂市","address":"瀬戸"},
{"zip_code":"5092422","kana_pref":"ｷﾞﾌｹﾝ","kana_city":"ｹﾞﾛｼ","kana_address":"ﾀｸﾞﾁ","pref":"岐阜県","city":"下呂市","address":"田口"},
{"zip_code":"5092421","kana_pref":"ｷﾞﾌｹﾝ","kana_city":"ｹﾞﾛｼ","kana_address":"ﾅﾂﾔｹ","pref":"岐阜県","city":"下呂市","address":"夏焼"},
{"zip_code":"5092313","kana_pref":"ｷﾞﾌｹﾝ","kana_city":"ｹﾞﾛｼ","kana_address":"ﾉｼﾞﾘ","pref":"岐阜県","city":"下呂市","address":"野尻"},
{"zip_code":"5092311","kana_pref":"ｷﾞﾌｹﾝ","kana_city":"ｹﾞﾛｼ","kana_address":"ﾉﾘﾏｻ","pref":"岐阜県","city":"下呂市","address":"乗政"},
{"zip_code":"5092504","kana_pref":"ｷﾞﾌｹﾝ","kana_city":"ｹﾞﾛｼ","kana_address":"ﾊｷﾞﾜﾗﾁｮｳｱﾄﾂ","pref":"岐阜県","city":"下呂市","address":"萩原町跡津"},
{"zip_code":"5092516","kana_pref":"ｷﾞﾌｹﾝ","kana_city":"ｹﾞﾛｼ","kana_address":"ﾊｷﾞﾜﾗﾁｮｳｳﾜﾑﾗ","pref":"岐阜県","city":"下呂市","address":"萩原町上村"},
{"zip_code":"5092512","kana_pref":"ｷﾞﾌｹﾝ","kana_city":"ｹﾞﾛｼ","kana_address":"ﾊｷﾞﾜﾗﾁｮｳｵｵｶﾎﾗ","pref":"岐阜県","city":"下呂市","address":"萩原町大ヶ洞"},
{"zip_code":"5092519","kana_pref":"ｷﾞﾌｹﾝ","kana_city":"ｹﾞﾛｼ","kana_address":"ﾊｷﾞﾜﾗﾁｮｳｵｸﾀﾞﾎﾞﾗ","pref":"岐阜県","city":"下呂市","address":"萩原町奥田洞"},
{"zip_code":"5092508","kana_pref":"ｷﾞﾌｹﾝ","kana_city":"ｹﾞﾛｼ","kana_address":"ﾊｷﾞﾜﾗﾁｮｳｵｻｷ","pref":"岐阜県","city":"下呂市","address":"萩原町尾崎"},
{"zip_code":"5092513","kana_pref":"ｷﾞﾌｹﾝ","kana_city":"ｹﾞﾛｼ","kana_address":"ﾊｷﾞﾜﾗﾁｮｳｻｸﾗﾎﾞﾗ","pref":"岐阜県","city":"下呂市","address":"萩原町桜洞"},
{"zip_code":"5092502","kana_pref":"ｷﾞﾌｹﾝ","kana_city":"ｹﾞﾛｼ","kana_address":"ﾊｷﾞﾜﾗﾁｮｳｼﾐ","pref":"岐阜県","city":"下呂市","address":"萩原町四美"},
{"zip_code":"5092518","kana_pref":"ｷﾞﾌｹﾝ","kana_city":"ｹﾞﾛｼ","kana_address":"ﾊｷﾞﾜﾗﾁｮｳｼﾞｮｳﾛ","pref":"岐阜県","city":"下呂市","address":"萩原町上呂"},
{"zip_code":"5092514","kana_pref":"ｷﾞﾌｹﾝ","kana_city":"ｹﾞﾛｼ","kana_address":"ﾊｷﾞﾜﾗﾁｮｳﾁｭｳﾛ","pref":"岐阜県","city":"下呂市","address":"萩原町中呂"},
{"zip_code":"5092503","kana_pref":"ｷﾞﾌｹﾝ","kana_city":"ｹﾞﾛｼ","kana_address":"ﾊｷﾞﾜﾗﾁｮｳﾆｼｳｴﾀﾞ","pref":"岐阜県","city":"下呂市","address":"萩原町西上田"},
{"zip_code":"5092507","kana_pref":"ｷﾞﾌｹﾝ","kana_city":"ｹﾞﾛｼ","kana_address":"ﾊｷﾞﾜﾗﾁｮｳﾉｶﾞﾐ","pref":"岐阜県","city":"下呂市","address":"萩原町野上"},
{"zip_code":"5092517","kana_pref":"ｷﾞﾌｹﾝ","kana_city":"ｹﾞﾛｼ","kana_address":"ﾊｷﾞﾜﾗﾁｮｳﾊｷﾞﾜﾗ","pref":"岐阜県","city":"下呂市","address":"萩原町萩原"},
{"zip_code":"5092515","kana_pref":"ｷﾞﾌｹﾝ","kana_city":"ｹﾞﾛｼ","kana_address":"ﾊｷﾞﾜﾗﾁｮｳﾊﾅｲｹ","pref":"岐阜県","city":"下呂市","address":"萩原町花池"},
{"zip_code":"5092506","kana_pref":"ｷﾞﾌｹﾝ","kana_city":"ｹﾞﾛｼ","kana_address":"ﾊｷﾞﾜﾗﾁｮｳﾊﾈ","pref":"岐阜県","city":"下呂市","address":"萩原町羽根"},
{"zip_code":"5092505","kana_pref":"ｷﾞﾌｹﾝ","kana_city":"ｹﾞﾛｼ","kana_address":"ﾊｷﾞﾜﾗﾁｮｳﾌﾙｾｷ","pref":"岐阜県","city":"下呂市","address":"萩原町古関"},
{"zip_code":"5092511","kana_pref":"ｷﾞﾌｹﾝ","kana_city":"ｹﾞﾛｼ","kana_address":"ﾊｷﾞﾜﾗﾁｮｳﾐﾔﾀﾞ","pref":"岐阜県","city":"下呂市","address":"萩原町宮田"},
{"zip_code":"5092501","kana_pref":"ｷﾞﾌｹﾝ","kana_city":"ｹﾞﾛｼ","kana_address":"ﾊｷﾞﾜﾗﾁｮｳﾔﾏﾉｸﾁ","pref":"岐阜県","city":"下呂市","address":"萩原町山之口"},
{"zip_code":"5092132","kana_pref":"ｷﾞﾌｹﾝ","kana_city":"ｹﾞﾛｼ","kana_address":"ﾋｳﾁ","pref":"岐阜県","city":"下呂市","address":"火打"},
{"zip_code":"5092201","kana_pref":"ｷﾞﾌｹﾝ","kana_city":"ｹﾞﾛｼ","kana_address":"ﾋｶﾞｼｳｴﾀﾞ","pref":"岐阜県","city":"下呂市","address":"東上田"},
{"zip_code":"5092423","kana_pref":"ｷﾞﾌｹﾝ","kana_city":"ｹﾞﾛｼ","kana_address":"ﾍﾋﾞﾉｵ","pref":"岐阜県","city":"下呂市","address":"蛇之尾"},
{"zip_code":"5092137","kana_pref":"ｷﾞﾌｹﾝ","kana_city":"ｹﾞﾛｼ","kana_address":"ﾎｲﾄﾞ","pref":"岐阜県","city":"下呂市","address":"保井戸"},
{"zip_code":"5092613","kana_pref":"ｷﾞﾌｹﾝ","kana_city":"ｹﾞﾛｼ","kana_address":"ﾏｾﾞｲﾀﾞﾆ","pref":"岐阜県","city":"下呂市","address":"馬瀬井谷"},
{"zip_code":"5092601","kana_pref":"ｷﾞﾌｹﾝ","kana_city":"ｹﾞﾛｼ","kana_address":"ﾏｾﾞｶｵﾚ","pref":"岐阜県","city":"下呂市","address":"馬瀬川上"},
{"zip_code":"5092602","kana_pref":"ｷﾞﾌｹﾝ","kana_city":"ｹﾞﾛｼ","kana_address":"ﾏｾﾞｸﾛｲｼ","pref":"岐阜県","city":"下呂市","address":"馬瀬黒石"},
{"zip_code":"5092603","kana_pref":"ｷﾞﾌｹﾝ","kana_city":"ｹﾞﾛｼ","kana_address":"ﾏｾﾞｽｺﾞｳ","pref":"岐阜県","city":"下呂市","address":"馬瀬数河"},
{"zip_code":"5092614","kana_pref":"ｷﾞﾌｹﾝ","kana_city":"ｹﾞﾛｼ","kana_address":"ﾏｾﾞｿｳｼﾞﾏ","pref":"岐阜県","city":"下呂市","address":"馬瀬惣島"},
{"zip_code":"5092604","kana_pref":"ｷﾞﾌｹﾝ","kana_city":"ｹﾞﾛｼ","kana_address":"ﾏｾﾞﾅｶｷﾞﾘ","pref":"岐阜県","city":"下呂市","address":"馬瀬中切"},
{"zip_code":"5092612","kana_pref":"ｷﾞﾌｹﾝ","kana_city":"ｹﾞﾛｼ","kana_address":"ﾏｾﾞﾅﾏﾙ","pref":"岐阜県","city":"下呂市","address":"馬瀬名丸"},
{"zip_code":"5092615","kana_pref":"ｷﾞﾌｹﾝ","kana_city":"ｹﾞﾛｼ","kana_address":"ﾏｾﾞﾆｼﾑﾗ","pref":"岐阜県","city":"下呂市","address":"馬瀬西村"},
{"zip_code":"5092611","kana_pref":"ｷﾞﾌｹﾝ","kana_city":"ｹﾞﾛｼ","kana_address":"ﾏｾﾞﾎﾘﾉｳﾁ","pref":"岐阜県","city":"下呂市","address":"馬瀬堀之内"},
{"zip_code":"5092135","kana_pref":"ｷﾞﾌｹﾝ","kana_city":"ｹﾞﾛｼ","kana_address":"ﾐﾂﾌﾞﾁ","pref":"岐阜県","city":"下呂市","address":"三ツ渕"},
{"zip_code":"5092312","kana_pref":"ｷﾞﾌｹﾝ","kana_city":"ｹﾞﾛｼ","kana_address":"ﾐﾏﾔﾉ","pref":"岐阜県","city":"下呂市","address":"御厩野"},
{"zip_code":"5092314","kana_pref":"ｷﾞﾌｹﾝ","kana_city":"ｹﾞﾛｼ","kana_address":"ﾐﾔｼﾞ","pref":"岐阜県","city":"下呂市","address":"宮地"},
{"zip_code":"5092202","kana_pref":"ｷﾞﾌｹﾝ","kana_city":"ｹﾞﾛｼ","kana_address":"ﾓﾘ","pref":"岐阜県","city":"下呂市","address":"森"},
{"zip_code":"5092134","kana_pref":"ｷﾞﾌｹﾝ","kana_city":"ｹﾞﾛｼ","kana_address":"ﾔｹｲｼ","pref":"岐阜県","city":"下呂市","address":"焼石"},
{"zip_code":"5092207","kana_pref":"ｷﾞﾌｹﾝ","kana_city":"ｹﾞﾛｼ","kana_address":"ﾕﾉｼﾏ","pref":"岐阜県","city":"下呂市","address":"湯之島"},
{"zip_code":"5092133","kana_pref":"ｷﾞﾌｹﾝ","kana_city":"ｹﾞﾛｼ","kana_address":"ﾜｻ","pref":"岐阜県","city":"下呂市","address":"和佐"},
{"zip_code":"5090300","kana_pref":"ｷﾞﾌｹﾝ","kana_city":"ｶﾓｸﾞﾝｶﾜﾍﾞﾁｮｳ","kana_address":"","pref":"岐阜県","city":"加茂郡川辺町","address":""},
{"zip_code":"5090303","kana_pref":"ｷﾞﾌｹﾝ","kana_city":"ｶﾓｸﾞﾝｶﾜﾍﾞﾁｮｳ","kana_address":"ｲｼｶﾞﾐ","pref":"岐阜県","city":"加茂郡川辺町","address":"石神"},
{"zip_code":"5090307","kana_pref":"ｷﾞﾌｹﾝ","kana_city":"ｶﾓｸﾞﾝｶﾜﾍﾞﾁｮｳ","kana_address":"ｶｼｵ","pref":"岐阜県","city":"加茂郡川辺町","address":"鹿塩"},
{"zip_code":"5090302","kana_pref":"ｷﾞﾌｹﾝ","kana_city":"ｶﾓｸﾞﾝｶﾜﾍﾞﾁｮｳ","kana_address":"ｶﾐｶﾜﾍﾞ","pref":"岐阜県","city":"加茂郡川辺町","address":"上川辺"},
{"zip_code":"5090301","kana_pref":"ｷﾞﾌｹﾝ","kana_city":"ｶﾓｸﾞﾝｶﾜﾍﾞﾁｮｳ","kana_address":"ｼﾓｱｿｳ","pref":"岐阜県","city":"加茂郡川辺町","address":"下麻生"},
{"zip_code":"5090313","kana_pref":"ｷﾞﾌｹﾝ","kana_city":"ｶﾓｸﾞﾝｶﾜﾍﾞﾁｮｳ","kana_address":"ｼﾓｲｲﾀﾞ","pref":"岐阜県","city":"加茂郡川辺町","address":"下飯田"},
{"zip_code":"5090306","kana_pref":"ｷﾞﾌｹﾝ","kana_city":"ｶﾓｸﾞﾝｶﾜﾍﾞﾁｮｳ","kana_address":"ｼﾓｶﾜﾍﾞ","pref":"岐阜県","city":"加茂郡川辺町","address":"下川辺"},
{"zip_code":"5090311","kana_pref":"ｷﾞﾌｹﾝ","kana_city":"ｶﾓｸﾞﾝｶﾜﾍﾞﾁｮｳ","kana_address":"ｼﾓﾖｼﾀﾞ","pref":"岐阜県","city":"加茂郡川辺町","address":"下吉田"},
{"zip_code":"5090304","kana_pref":"ｷﾞﾌｹﾝ","kana_city":"ｶﾓｸﾞﾝｶﾜﾍﾞﾁｮｳ","kana_address":"ﾅｶｶﾜﾍﾞ","pref":"岐阜県","city":"加茂郡川辺町","address":"中川辺"},
{"zip_code":"5090312","kana_pref":"ｷﾞﾌｹﾝ","kana_city":"ｶﾓｸﾞﾝｶﾜﾍﾞﾁｮｳ","kana_address":"ﾅｶﾉ","pref":"岐阜県","city":"加茂郡川辺町","address":"中野"},
{"zip_code":"5090305","kana_pref":"ｷﾞﾌｹﾝ","kana_city":"ｶﾓｸﾞﾝｶﾜﾍﾞﾁｮｳ","kana_address":"ﾆｼﾄﾁｲ","pref":"岐阜県","city":"加茂郡川辺町","address":"西栃井"},
{"zip_code":"5090315","kana_pref":"ｷﾞﾌｹﾝ","kana_city":"ｶﾓｸﾞﾝｶﾜﾍﾞﾁｮｳ","kana_address":"ﾋｸﾐ","pref":"岐阜県","city":"加茂郡川辺町","address":"比久見"},
{"zip_code":"5090314","kana_pref":"ｷﾞﾌｹﾝ","kana_city":"ｶﾓｸﾞﾝｶﾜﾍﾞﾁｮｳ","kana_address":"ﾌｸｼﾏ","pref":"岐阜県","city":"加茂郡川辺町","address":"福島"},
{"zip_code":"5090400","kana_pref":"ｷﾞﾌｹﾝ","kana_city":"ｶﾓｸﾞﾝﾋﾁｿｳﾁｮｳ","kana_address":"","pref":"岐阜県","city":"加茂郡七宗町","address":""},
{"zip_code":"5090511","kana_pref":"ｷﾞﾌｹﾝ","kana_city":"ｶﾓｸﾞﾝﾋﾁｿｳﾁｮｳ","kana_address":"ｶﾌﾞﾁ","pref":"岐阜県","city":"加茂郡七宗町","address":"神渕"},
{"zip_code":"5090401","kana_pref":"ｷﾞﾌｹﾝ","kana_city":"ｶﾓｸﾞﾝﾋﾁｿｳﾁｮｳ","kana_address":"ｶﾐｱｿｳ","pref":"岐阜県","city":"加茂郡七宗町","address":"上麻生"},
{"zip_code":"5090402","kana_pref":"ｷﾞﾌｹﾝ","kana_city":"ｶﾓｸﾞﾝﾋﾁｿｳﾁｮｳ","kana_address":"ｶﾜﾅﾐ","pref":"岐阜県","city":"加茂郡七宗町","address":"川並"},
{"zip_code":"5090403","kana_pref":"ｷﾞﾌｹﾝ","kana_city":"ｶﾓｸﾞﾝﾋﾁｿｳﾁｮｳ","kana_address":"ﾅｶｱｿｳ","pref":"岐阜県","city":"加茂郡七宗町","address":"中麻生"},
{"zip_code":"5091100","kana_pref":"ｷﾞﾌｹﾝ","kana_city":"ｶﾓｸﾞﾝｼﾗｶﾜﾁｮｳ","kana_address":"","pref":"岐阜県","city":"加茂郡白川町","address":""},
{"zip_code":"5091112","kana_pref":"ｷﾞﾌｹﾝ","kana_city":"ｶﾓｸﾞﾝｼﾗｶﾜﾁｮｳ","kana_address":"ｱｺｳ","pref":"岐阜県","city":"加茂郡白川町","address":"赤河"},
{"zip_code":"5091104","kana_pref":"ｷﾞﾌｹﾝ","kana_city":"ｶﾓｸﾞﾝｼﾗｶﾜﾁｮｳ","kana_address":"ｲｽﾞﾐ","pref":"岐阜県","city":"加茂郡白川町","address":"和泉"},
{"zip_code":"5091107","kana_pref":"ｷﾞﾌｹﾝ","kana_city":"ｶﾓｸﾞﾝｼﾗｶﾜﾁｮｳ","kana_address":"ｶﾄｳ","pref":"岐阜県","city":"加茂郡白川町","address":"河東"},
{"zip_code":"5091221","kana_pref":"ｷﾞﾌｹﾝ","kana_city":"ｶﾓｸﾞﾝｼﾗｶﾜﾁｮｳ","kana_address":"ｶﾐｻﾐ","pref":"岐阜県","city":"加茂郡白川町","address":"上佐見"},
{"zip_code":"5091105","kana_pref":"ｷﾞﾌｹﾝ","kana_city":"ｶﾓｸﾞﾝｼﾗｶﾜﾁｮｳ","kana_address":"ｶﾜﾏﾀ","pref":"岐阜県","city":"加茂郡白川町","address":"河岐"},
{"zip_code":"5091111","kana_pref":"ｷﾞﾌｹﾝ","kana_city":"ｶﾓｸﾞﾝｼﾗｶﾜﾁｮｳ","kana_address":"ｷﾘｲ","pref":"岐阜県","city":"加茂郡白川町","address":"切井"},
{"zip_code":"5091431","kana_pref":"ｷﾞﾌｹﾝ","kana_city":"ｶﾓｸﾞﾝｼﾗｶﾜﾁｮｳ","kana_address":"ｸﾛｶﾜ","pref":"岐阜県","city":"加茂郡白川町","address":"黒川"},
{"zip_code":"5091106","kana_pref":"ｷﾞﾌｹﾝ","kana_city":"ｶﾓｸﾞﾝｼﾗｶﾜﾁｮｳ","kana_address":"ｻｶﾉﾋｶﾞｼ","pref":"岐阜県","city":"加茂郡白川町","address":"坂ノ東"},
{"zip_code":"5091222","kana_pref":"ｷﾞﾌｹﾝ","kana_city":"ｶﾓｸﾞﾝｼﾗｶﾜﾁｮｳ","kana_address":"ｼﾓｻﾐ","pref":"岐阜県","city":"加茂郡白川町","address":"下佐見"},
{"zip_code":"5091101","kana_pref":"ｷﾞﾌｹﾝ","kana_city":"ｶﾓｸﾞﾝｼﾗｶﾜﾁｮｳ","kana_address":"ｼﾗﾔﾏ","pref":"岐阜県","city":"加茂郡白川町","address":"白山"},
{"zip_code":"5091102","kana_pref":"ｷﾞﾌｹﾝ","kana_city":"ｶﾓｸﾞﾝｼﾗｶﾜﾁｮｳ","kana_address":"ﾅｶｶﾞﾜ","pref":"岐阜県","city":"加茂郡白川町","address":"中川"},
{"zip_code":"5091108","kana_pref":"ｷﾞﾌｹﾝ","kana_city":"ｶﾓｸﾞﾝｼﾗｶﾜﾁｮｳ","kana_address":"ﾋﾛﾉ","pref":"岐阜県","city":"加茂郡白川町","address":"広野"},
{"zip_code":"5091113","kana_pref":"ｷﾞﾌｹﾝ","kana_city":"ｶﾓｸﾞﾝｼﾗｶﾜﾁｮｳ","kana_address":"ﾐｶﾜ","pref":"岐阜県","city":"加茂郡白川町","address":"三川"},
{"zip_code":"5091103","kana_pref":"ｷﾞﾌｹﾝ","kana_city":"ｶﾓｸﾞﾝｼﾗｶﾜﾁｮｳ","kana_address":"ﾐﾄﾞﾉ","pref":"岐阜県","city":"加茂郡白川町","address":"水戸野"},
{"zip_code":"5091300","kana_pref":"ｷﾞﾌｹﾝ","kana_city":"ｶﾓｸﾞﾝﾋｶﾞｼｼﾗｶﾜﾑﾗ","kana_address":"","pref":"岐阜県","city":"加茂郡東白川村","address":""},
{"zip_code":"5091301","kana_pref":"ｷﾞﾌｹﾝ","kana_city":"ｶﾓｸﾞﾝﾋｶﾞｼｼﾗｶﾜﾑﾗ","kana_address":"ｵｯﾊﾟﾗ","pref":"岐阜県","city":"加茂郡東白川村","address":"越原"},
{"zip_code":"5091302","kana_pref":"ｷﾞﾌｹﾝ","kana_city":"ｶﾓｸﾞﾝﾋｶﾞｼｼﾗｶﾜﾑﾗ","kana_address":"ｶﾝﾄﾞ","pref":"岐阜県","city":"加茂郡東白川村","address":"神土"},
{"zip_code":"5091303","kana_pref":"ｷﾞﾌｹﾝ","kana_city":"ｶﾓｸﾞﾝﾋｶﾞｼｼﾗｶﾜﾑﾗ","kana_address":"ｺﾞｶ","pref":"岐阜県","city":"加茂郡東白川村","address":"五加"}]}