{"zip_code":[
{"zip_code":"5100313","kana_pref":"ﾐｴｹﾝ","kana_city":"ﾂｼ","kana_address":"ｶﾜｹﾞﾁｮｳｱｶﾌﾞ","pref":"三重県","city":"津市","address":"河芸町赤部"},
{"zip_code":"5100306","kana_pref":"ﾐｴｹﾝ","kana_city":"ﾂｼ","kana_address":"ｶﾜｹﾞﾁｮｳｲｯｼｷ","pref":"三重県","city":"津市","address":"河芸町一色"},
{"zip_code":"5100304","kana_pref":"ﾐｴｹﾝ","kana_city":"ﾂｼ","kana_address":"ｶﾜｹﾞﾁｮｳｳｴﾉ","pref":"三重県","city":"津市","address":"河芸町上野"},
{"zip_code":"5100307","kana_pref":"ﾐｴｹﾝ","kana_city":"ﾂｼ","kana_address":"ｶﾜｹﾞﾁｮｳｶｹﾞｼｹﾞ","pref":"三重県","city":"津市","address":"河芸町影重"},
{"zip_code":"5100317","kana_pref":"ﾐｴｹﾝ","kana_city":"ﾂｼ","kana_address":"ｶﾜｹﾞﾁｮｳｷﾀｸﾛﾀﾞ","pref":"三重県","city":"津市","address":"河芸町北黒田"},
{"zip_code":"5100312","kana_pref":"ﾐｴｹﾝ","kana_city":"ﾂｼ","kana_address":"ｶﾜｹﾞﾁｮｳｸﾁﾉ","pref":"三重県","city":"津市","address":"河芸町久知野"},
{"zip_code":"5100315","kana_pref":"ﾐｴｹﾝ","kana_city":"ﾂｼ","kana_address":"ｶﾜｹﾞﾁｮｳﾀｶｻ","pref":"三重県","city":"津市","address":"河芸町高佐"},
{"zip_code":"5100302","kana_pref":"ﾐｴｹﾝ","kana_city":"ﾂｼ","kana_address":"ｶﾜｹﾞﾁｮｳﾁｻﾄｶﾞｵｶ","pref":"三重県","city":"津市","address":"河芸町千里ケ丘"},
{"zip_code":"5100308","kana_pref":"ﾐｴｹﾝ","kana_city":"ﾂｼ","kana_address":"ｶﾜｹﾞﾁｮｳﾅｶｾﾞ","pref":"三重県","city":"津市","address":"河芸町中瀬"},
{"zip_code":"5100305","kana_pref":"ﾐｴｹﾝ","kana_city":"ﾂｼ","kana_address":"ｶﾜｹﾞﾁｮｳﾅｶﾍﾞｯﾎﾟ","pref":"三重県","city":"津市","address":"河芸町中別保"},
{"zip_code":"5100301","kana_pref":"ﾐｴｹﾝ","kana_city":"ﾂｼ","kana_address":"ｶﾜｹﾞﾁｮｳﾆｼﾁｻﾄ","pref":"三重県","city":"津市","address":"河芸町西千里"},
{"zip_code":"5100314","kana_pref":"ﾐｴｹﾝ","kana_city":"ﾂｼ","kana_address":"ｶﾜｹﾞﾁｮｳﾊﾏﾀﾞ","pref":"三重県","city":"津市","address":"河芸町浜田"},
{"zip_code":"5100303","kana_pref":"ﾐｴｹﾝ","kana_city":"ﾂｼ","kana_address":"ｶﾜｹﾞﾁｮｳﾋｶﾞｼﾁｻﾄ","pref":"三重県","city":"津市","address":"河芸町東千里"},
{"zip_code":"5100316","kana_pref":"ﾐｴｹﾝ","kana_city":"ﾂｼ","kana_address":"ｶﾜｹﾞﾁｮｳﾐﾅﾐｸﾛﾀﾞ","pref":"三重県","city":"津市","address":"河芸町南黒田"},
{"zip_code":"5100311","kana_pref":"ﾐｴｹﾝ","kana_city":"ﾂｼ","kana_address":"ｶﾜｹﾞﾁｮｳﾐﾕｷ","pref":"三重県","city":"津市","address":"河芸町三行"},
{"zip_code":"5100318","kana_pref":"ﾐｴｹﾝ","kana_city":"ﾂｼ","kana_address":"ｶﾜｹﾞﾁｮｳﾓﾘﾉﾏﾁ","pref":"三重県","city":"津市","address":"河芸町杜の街"},
{"zip_code":"5100000","kana_pref":"ﾐｴｹﾝ","kana_city":"ﾖｯｶｲﾁｼ","kana_address":"","pref":"三重県","city":"四日市市","address":""},
{"zip_code":"5100044","kana_pref":"ﾐｴｹﾝ","kana_city":"ﾖｯｶｲﾁｼ","kana_address":"ｱｲｵｲﾁｮｳ","pref":"三重県","city":"四日市市","address":"相生町"},
{"zip_code":"5100839","kana_pref":"ﾐｴｹﾝ","kana_city":"ﾖｯｶｲﾁｼ","kana_address":"ｱｵﾊﾞﾁｮｳ","pref":"三重県","city":"四日市市","address":"青葉町"},
{"zip_code":"5100826","kana_pref":"ﾐｴｹﾝ","kana_city":"ﾖｯｶｲﾁｼ","kana_address":"ｱｶﾎﾘ","pref":"三重県","city":"四日市市","address":"赤堀"},
{"zip_code":"5100825","kana_pref":"ﾐｴｹﾝ","kana_city":"ﾖｯｶｲﾁｼ","kana_address":"ｱｶﾎﾘｼﾝﾏﾁ","pref":"三重県","city":"四日市市","address":"赤堀新町"},
{"zip_code":"5100827","kana_pref":"ﾐｴｹﾝ","kana_city":"ﾖｯｶｲﾁｼ","kana_address":"ｱｶﾎﾘﾐﾅﾐﾏﾁ","pref":"三重県","city":"四日市市","address":"赤堀南町"},
{"zip_code":"5100810","kana_pref":"ﾐｴｹﾝ","kana_city":"ﾖｯｶｲﾁｼ","kana_address":"ｱｸﾗｶﾞﾜｼﾝﾏﾁ","pref":"三重県","city":"四日市市","address":"阿倉川新町"},
{"zip_code":"5100803","kana_pref":"ﾐｴｹﾝ","kana_city":"ﾖｯｶｲﾁｼ","kana_address":"ｱｸﾗｶﾞﾜﾁｮｳ","pref":"三重県","city":"四日市市","address":"阿倉川町"},
{"zip_code":"5100053","kana_pref":"ﾐｴｹﾝ","kana_city":"ﾖｯｶｲﾁｼ","kana_address":"ｱｹﾎﾞﾉ","pref":"三重県","city":"四日市市","address":"曙"},
{"zip_code":"5100054","kana_pref":"ﾐｴｹﾝ","kana_city":"ﾖｯｶｲﾁｼ","kana_address":"ｱｹﾎﾞﾉﾁｮｳ","pref":"三重県","city":"四日市市","address":"曙町"},
{"zip_code":"5100061","kana_pref":"ﾐｴｹﾝ","kana_city":"ﾖｯｶｲﾁｼ","kana_address":"ｱｻﾋﾏﾁ","pref":"三重県","city":"四日市市","address":"朝日町"},
{"zip_code":"5108001","kana_pref":"ﾐｴｹﾝ","kana_city":"ﾖｯｶｲﾁｼ","kana_address":"ｱﾏｶﾞｽｶ","pref":"三重県","city":"四日市市","address":"天カ須賀"},
{"zip_code":"5108002","kana_pref":"ﾐｴｹﾝ","kana_city":"ﾖｯｶｲﾁｼ","kana_address":"ｱﾏｶﾞｽｶｼﾝﾏﾁ","pref":"三重県","city":"四日市市","address":"天カ須賀新町"},
{"zip_code":"5100832","kana_pref":"ﾐｴｹﾝ","kana_city":"ﾖｯｶｲﾁｼ","kana_address":"ｲｸﾞﾗ","pref":"三重県","city":"四日市市","address":"伊倉"},
{"zip_code":"5100828","kana_pref":"ﾐｴｹﾝ","kana_city":"ﾖｯｶｲﾁｼ","kana_address":"ｲｼﾂﾞｶﾁｮｳ","pref":"三重県","city":"四日市市","address":"石塚町"},
{"zip_code":"5100842","kana_pref":"ﾐｴｹﾝ","kana_city":"ﾖｯｶｲﾁｼ","kana_address":"ｲｼﾊﾗﾁｮｳ","pref":"三重県","city":"四日市市","address":"石原町"},
{"zip_code":"5100863","kana_pref":"ﾐｴｹﾝ","kana_city":"ﾖｯｶｲﾁｼ","kana_address":"ｲｿﾂﾞ","pref":"三重県","city":"四日市市","address":"磯津"},
{"zip_code":"5100041","kana_pref":"ﾐｴｹﾝ","kana_city":"ﾖｯｶｲﾁｼ","kana_address":"ｲﾅﾊﾞﾁｮｳ","pref":"三重県","city":"四日市市","address":"稲葉町"},
{"zip_code":"5100872","kana_pref":"ﾐｴｹﾝ","kana_city":"ﾖｯｶｲﾁｼ","kana_address":"ｳﾂﾎﾞﾘﾁｮｳ","pref":"三重県","city":"四日市市","address":"内堀町"},
{"zip_code":"5100953","kana_pref":"ﾐｴｹﾝ","kana_city":"ﾖｯｶｲﾁｼ","kana_address":"ｳﾈﾒｶﾞｵｶ","pref":"三重県","city":"四日市市","address":"釆女が丘"},
{"zip_code":"5100954","kana_pref":"ﾐｴｹﾝ","kana_city":"ﾖｯｶｲﾁｼ","kana_address":"ｳﾈﾒﾁｮｳ","pref":"三重県","city":"四日市市","address":"釆女町"},
{"zip_code":"5100074","kana_pref":"ﾐｴｹﾝ","kana_city":"ﾖｯｶｲﾁｼ","kana_address":"ｳﾉﾓﾘ","pref":"三重県","city":"四日市市","address":"鵜の森"},
{"zip_code":"5100023","kana_pref":"ﾐｴｹﾝ","kana_city":"ﾖｯｶｲﾁｼ","kana_address":"ｳﾏｵｺｼ","pref":"三重県","city":"四日市市","address":"午起"},
{"zip_code":"5100882","kana_pref":"ﾐｴｹﾝ","kana_city":"ﾖｯｶｲﾁｼ","kana_address":"ｵｲﾜｹ","pref":"三重県","city":"四日市市","address":"追分"},
{"zip_code":"5100866","kana_pref":"ﾐｴｹﾝ","kana_city":"ﾖｯｶｲﾁｼ","kana_address":"ｵｵｲｹﾁｮｳ","pref":"三重県","city":"四日市市","address":"大池町"},
{"zip_code":"5100835","kana_pref":"ﾐｴｹﾝ","kana_city":"ﾖｯｶｲﾁｼ","kana_address":"ｵｵｲﾃﾞ","pref":"三重県","city":"四日市市","address":"大井手"},
{"zip_code":"5100846","kana_pref":"ﾐｴｹﾝ","kana_city":"ﾖｯｶｲﾁｼ","kana_address":"ｵｵｲﾉｶﾜﾁｮｳ","pref":"三重県","city":"四日市市","address":"大井の川町"},
{"zip_code":"5100863","kana_pref":"ﾐｴｹﾝ","kana_city":"ﾖｯｶｲﾁｼ","kana_address":"ｵｵｻﾞﾄﾁｮｳ","pref":"三重県","city":"四日市市","address":"大里町"},
{"zip_code":"5100847","kana_pref":"ﾐｴｹﾝ","kana_city":"ﾖｯｶｲﾁｼ","kana_address":"ｵｵﾊﾏﾁｮｳ","pref":"三重県","city":"四日市市","address":"大浜町"},
{"zip_code":"5100003","kana_pref":"ﾐｴｹﾝ","kana_city":"ﾖｯｶｲﾁｼ","kana_address":"ｵｵﾐﾔﾁｮｳ","pref":"三重県","city":"四日市市","address":"大宮町"},
{"zip_code":"5100004","kana_pref":"ﾐｴｹﾝ","kana_city":"ﾖｯｶｲﾁｼ","kana_address":"ｵｵﾐﾔﾆｼﾏﾁ","pref":"三重県","city":"四日市市","address":"大宮西町"},
{"zip_code":"5108039","kana_pref":"ﾐｴｹﾝ","kana_city":"ﾖｯｶｲﾁｼ","kana_address":"ｵｵﾔﾁｼﾝﾏﾁ","pref":"三重県","city":"四日市市","address":"大矢知新町"},
{"zip_code":"5108034","kana_pref":"ﾐｴｹﾝ","kana_city":"ﾖｯｶｲﾁｼ","kana_address":"ｵｵﾔﾁﾁｮｳ","pref":"三重県","city":"四日市市","address":"大矢知町"},
{"zip_code":"5100083","kana_pref":"ﾐｴｹﾝ","kana_city":"ﾖｯｶｲﾁｼ","kana_address":"ｵｷﾉｼﾏﾁｮｳ","pref":"三重県","city":"四日市市","address":"沖の島町"},
{"zip_code":"5100958","kana_pref":"ﾐｴｹﾝ","kana_city":"ﾖｯｶｲﾁｼ","kana_address":"ｵｺﾞｿ","pref":"三重県","city":"四日市市","address":"小古曽"},
{"zip_code":"5100952","kana_pref":"ﾐｴｹﾝ","kana_city":"ﾖｯｶｲﾁｼ","kana_address":"ｵｺﾞｿﾁｮｳ","pref":"三重県","city":"四日市市","address":"小古曽町"},
{"zip_code":"5100951","kana_pref":"ﾐｴｹﾝ","kana_city":"ﾖｯｶｲﾁｼ","kana_address":"ｵｺﾞｿﾋｶﾞｼ","pref":"三重県","city":"四日市市","address":"小古曽東"},
{"zip_code":"5100059","kana_pref":"ﾐｴｹﾝ","kana_city":"ﾖｯｶｲﾁｼ","kana_address":"ｵﾉｴﾁｮｳ","pref":"三重県","city":"四日市市","address":"尾上町"},
{"zip_code":"5100875","kana_pref":"ﾐｴｹﾝ","kana_city":"ﾖｯｶｲﾁｼ","kana_address":"ｵﾊﾞﾀ","pref":"三重県","city":"四日市市","address":"大治田"},
{"zip_code":"5100956","kana_pref":"ﾐｴｹﾝ","kana_city":"ﾖｯｶｲﾁｼ","kana_address":"ｶｲｹﾞﾁｮｳ","pref":"三重県","city":"四日市市","address":"貝家町"},
{"zip_code":"5100873","kana_pref":"ﾐｴｹﾝ","kana_city":"ﾖｯｶｲﾁｼ","kana_address":"ｶｲﾂﾞｶﾁｮｳ","pref":"三重県","city":"四日市市","address":"貝塚町"},
{"zip_code":"5100011","kana_pref":"ﾐｴｹﾝ","kana_city":"ﾖｯｶｲﾁｼ","kana_address":"ｶｽﾐ","pref":"三重県","city":"四日市市","address":"霞"},
{"zip_code":"5100014","kana_pref":"ﾐｴｹﾝ","kana_city":"ﾖｯｶｲﾁｼ","kana_address":"ｶﾈﾊﾞﾁｮｳ","pref":"三重県","city":"四日市市","address":"金場町"},
{"zip_code":"5100853","kana_pref":"ﾐｴｹﾝ","kana_city":"ﾖｯｶｲﾁｼ","kana_address":"ｶﾜｲﾁｮｳ","pref":"三重県","city":"四日市市","address":"川合町"},
{"zip_code":"5108032","kana_pref":"ﾐｴｹﾝ","kana_city":"ﾖｯｶｲﾁｼ","kana_address":"ｶﾜｷﾀﾁｮｳ","pref":"三重県","city":"四日市市","address":"川北町"},
{"zip_code":"5100871","kana_pref":"ﾐｴｹﾝ","kana_city":"ﾖｯｶｲﾁｼ","kana_address":"ｶﾜｼﾞﾘﾁｮｳ","pref":"三重県","city":"四日市市","address":"川尻町"},
{"zip_code":"5100874","kana_pref":"ﾐｴｹﾝ","kana_city":"ﾖｯｶｲﾁｼ","kana_address":"ｶﾜﾗﾀﾞﾁｮｳ","pref":"三重県","city":"四日市市","address":"河原田町"},
{"zip_code":"5100033","kana_pref":"ﾐｴｹﾝ","kana_city":"ﾖｯｶｲﾁｼ","kana_address":"ｶﾜﾗﾏﾁ","pref":"三重県","city":"四日市市","address":"川原町"},
{"zip_code":"5108031","kana_pref":"ﾐｴｹﾝ","kana_city":"ﾖｯｶｲﾁｼ","kana_address":"ｶﾜｷﾀ","pref":"三重県","city":"四日市市","address":"川北"},
{"zip_code":"5100955","kana_pref":"ﾐｴｹﾝ","kana_city":"ﾖｯｶｲﾁｼ","kana_address":"ｷﾀｺﾏﾂﾁｮｳ","pref":"三重県","city":"四日市市","address":"北小松町"},
{"zip_code":"5100098","kana_pref":"ﾐｴｹﾝ","kana_city":"ﾖｯｶｲﾁｼ","kana_address":"ｷﾀｼﾞｮｳﾏﾁ","pref":"三重県","city":"四日市市","address":"北条町"},
{"zip_code":"5100047","kana_pref":"ﾐｴｹﾝ","kana_city":"ﾖｯｶｲﾁｼ","kana_address":"ｷﾀﾅﾔﾁｮｳ","pref":"三重県","city":"四日市市","address":"北納屋町"},
{"zip_code":"5100062","kana_pref":"ﾐｴｹﾝ","kana_city":"ﾖｯｶｲﾁｼ","kana_address":"ｷﾀﾊﾏﾀﾞﾁｮｳ","pref":"三重県","city":"四日市市","address":"北浜田町"},
{"zip_code":"5100091","kana_pref":"ﾐｴｹﾝ","kana_city":"ﾖｯｶｲﾁｼ","kana_address":"ｷﾀﾊﾏﾁｮｳ","pref":"三重県","city":"四日市市","address":"北浜町"},
{"zip_code":"5100081","kana_pref":"ﾐｴｹﾝ","kana_city":"ﾖｯｶｲﾁｼ","kana_address":"ｷﾀﾏﾁ","pref":"三重県","city":"四日市市","address":"北町"},
{"zip_code":"5100032","kana_pref":"ﾐｴｹﾝ","kana_city":"ﾖｯｶｲﾁｼ","kana_address":"ｷｮｳﾏﾁ","pref":"三重県","city":"四日市市","address":"京町"},
{"zip_code":"5100101","kana_pref":"ﾐｴｹﾝ","kana_city":"ﾖｯｶｲﾁｼ","kana_address":"ｸｽﾁｮｳｵｸﾞﾗ","pref":"三重県","city":"四日市市","address":"楠町小倉"},
{"zip_code":"5100107","kana_pref":"ﾐｴｹﾝ","kana_city":"ﾖｯｶｲﾁｼ","kana_address":"ｸｽﾁｮｳｷﾀｲｯｼｷ","pref":"三重県","city":"四日市市","address":"楠町北一色"},
{"zip_code":"5100103","kana_pref":"ﾐｴｹﾝ","kana_city":"ﾖｯｶｲﾁｼ","kana_address":"ｸｽﾁｮｳｷﾀｺﾞﾐﾂﾞｶ","pref":"三重県","city":"四日市市","address":"楠町北五味塚"},
{"zip_code":"5100106","kana_pref":"ﾐｴｹﾝ","kana_city":"ﾖｯｶｲﾁｼ","kana_address":"ｸｽﾁｮｳﾎﾝｺﾞｳ","pref":"三重県","city":"四日市市","address":"楠町本郷"},
{"zip_code":"5100105","kana_pref":"ﾐｴｹﾝ","kana_city":"ﾖｯｶｲﾁｼ","kana_address":"ｸｽﾁｮｳﾐﾅﾐｶﾞﾜ","pref":"三重県","city":"四日市市","address":"楠町南川"},
{"zip_code":"5100104","kana_pref":"ﾐｴｹﾝ","kana_city":"ﾖｯｶｲﾁｼ","kana_address":"ｸｽﾁｮｳﾐﾅﾐｺﾞﾐﾂﾞｶ","pref":"三重県","city":"四日市市","address":"楠町南五味塚"},
{"zip_code":"5100102","kana_pref":"ﾐｴｹﾝ","kana_city":"ﾖｯｶｲﾁｼ","kana_address":"ｸｽﾁｮｳﾖｼｻﾞｷ","pref":"三重県","city":"四日市市","address":"楠町吉崎"},
{"zip_code":"5100072","kana_pref":"ﾐｴｹﾝ","kana_city":"ﾖｯｶｲﾁｼ","kana_address":"ｸﾉｼﾛﾁｮｳ","pref":"三重県","city":"四日市市","address":"九の城町"},
{"zip_code":"5100821","kana_pref":"ﾐｴｹﾝ","kana_city":"ﾖｯｶｲﾁｼ","kana_address":"ｸﾎﾞﾀ","pref":"三重県","city":"四日市市","address":"久保田"},
{"zip_code":"5100045","kana_pref":"ﾐｴｹﾝ","kana_city":"ﾖｯｶｲﾁｼ","kana_address":"ｸﾗﾏﾁ","pref":"三重県","city":"四日市市","address":"蔵町"},
{"zip_code":"5100055","kana_pref":"ﾐｴｹﾝ","kana_city":"ﾖｯｶｲﾁｼ","kana_address":"ｺﾄﾌﾞｷﾁｮｳ","pref":"三重県","city":"四日市市","address":"寿町"},
{"zip_code":"5100865","kana_pref":"ﾐｴｹﾝ","kana_city":"ﾖｯｶｲﾁｼ","kana_address":"ｺﾊﾏﾁｮｳ","pref":"三重県","city":"四日市市","address":"小浜町"},
{"zip_code":"5100946","kana_pref":"ﾐｴｹﾝ","kana_city":"ﾖｯｶｲﾁｼ","kana_address":"ｺﾊﾞﾔｼﾁｮｳ","pref":"三重県","city":"四日市市","address":"小林町"},
{"zip_code":"5100069","kana_pref":"ﾐｴｹﾝ","kana_city":"ﾖｯｶｲﾁｼ","kana_address":"ｻｲﾜｲﾁｮｳ","pref":"三重県","city":"四日市市","address":"幸町"},
{"zip_code":"5100084","kana_pref":"ﾐｴｹﾝ","kana_city":"ﾖｯｶｲﾁｼ","kana_address":"ｻｶｴﾏﾁ","pref":"三重県","city":"四日市市","address":"栄町"},
{"zip_code":"5100944","kana_pref":"ﾐｴｹﾝ","kana_city":"ﾖｯｶｲﾁｼ","kana_address":"ｻｻｶﾞﾜ","pref":"三重県","city":"四日市市","address":"笹川"},
{"zip_code":"5100021","kana_pref":"ﾐｴｹﾝ","kana_city":"ﾖｯｶｲﾁｼ","kana_address":"ｻﾌﾞﾛｳﾏﾁ","pref":"三重県","city":"四日市市","address":"三郎町"},
{"zip_code":"5100068","kana_pref":"ﾐｴｹﾝ","kana_city":"ﾖｯｶｲﾁｼ","kana_address":"ｻﾝｴｲﾁｮｳ","pref":"三重県","city":"四日市市","address":"三栄町"},
{"zip_code":"5100863","kana_pref":"ﾐｴｹﾝ","kana_city":"ﾖｯｶｲﾁｼ","kana_address":"ｼｵﾊﾏ","pref":"三重県","city":"四日市市","address":"塩浜"},
{"zip_code":"5100863","kana_pref":"ﾐｴｹﾝ","kana_city":"ﾖｯｶｲﾁｼ","kana_address":"ｼｵﾊﾏｻｶｴﾏﾁ","pref":"三重県","city":"四日市市","address":"塩浜栄町"},
{"zip_code":"5100851","kana_pref":"ﾐｴｹﾝ","kana_city":"ﾖｯｶｲﾁｼ","kana_address":"ｼｵﾊﾏﾁｮｳ","pref":"三重県","city":"四日市市","address":"塩浜町"},
{"zip_code":"5100854","kana_pref":"ﾐｴｹﾝ","kana_city":"ﾖｯｶｲﾁｼ","kana_address":"ｼｵﾊﾏﾎﾝﾏﾁ","pref":"三重県","city":"四日市市","address":"塩浜本町"},
{"zip_code":"5100822","kana_pref":"ﾐｴｹﾝ","kana_city":"ﾖｯｶｲﾁｼ","kana_address":"ｼﾊﾞﾀ","pref":"三重県","city":"四日市市","address":"芝田"},
{"zip_code":"5100814","kana_pref":"ﾐｴｹﾝ","kana_city":"ﾖｯｶｲﾁｼ","kana_address":"ｼﾐｽﾞﾁｮｳ","pref":"三重県","city":"四日市市","address":"清水町"},
{"zip_code":"5108033","kana_pref":"ﾐｴｹﾝ","kana_city":"ﾖｯｶｲﾁｼ","kana_address":"ｼﾓｻｻﾞﾗｲﾁｮｳ","pref":"三重県","city":"四日市市","address":"下さざらい町"},
{"zip_code":"5108028","kana_pref":"ﾐｴｹﾝ","kana_city":"ﾖｯｶｲﾁｼ","kana_address":"ｼﾓﾉﾐﾔﾁｮｳ","pref":"三重県","city":"四日市市","address":"下之宮町"},
{"zip_code":"5100057","kana_pref":"ﾐｴｹﾝ","kana_city":"ﾖｯｶｲﾁｼ","kana_address":"ｼｮｳｴｲﾁｮｳ","pref":"三重県","city":"四日市市","address":"昌栄町"},
{"zip_code":"5100867","kana_pref":"ﾐｴｹﾝ","kana_city":"ﾖｯｶｲﾁｼ","kana_address":"ｼｮｳｾﾝﾁｮｳ","pref":"三重県","city":"四日市市","address":"松泉町"},
{"zip_code":"5100018","kana_pref":"ﾐｴｹﾝ","kana_city":"ﾖｯｶｲﾁｼ","kana_address":"ｼﾗｽｶ","pref":"三重県","city":"四日市市","address":"白須賀"},
{"zip_code":"5100823","kana_pref":"ﾐｴｹﾝ","kana_city":"ﾖｯｶｲﾁｼ","kana_address":"ｼﾛｷﾀﾁｮｳ","pref":"三重県","city":"四日市市","address":"城北町"},
{"zip_code":"5100829","kana_pref":"ﾐｴｹﾝ","kana_city":"ﾖｯｶｲﾁｼ","kana_address":"ｼﾛﾆｼﾁｮｳ","pref":"三重県","city":"四日市市","address":"城西町"},
{"zip_code":"5100824","kana_pref":"ﾐｴｹﾝ","kana_city":"ﾖｯｶｲﾁｼ","kana_address":"ｼﾛﾋｶﾞｼﾏﾁ","pref":"三重県","city":"四日市市","address":"城東町"},
{"zip_code":"5100015","kana_pref":"ﾐｴｹﾝ","kana_city":"ﾖｯｶｲﾁｼ","kana_address":"ｼﾛﾔﾏﾁｮｳ","pref":"三重県","city":"四日市市","address":"城山町"},
{"zip_code":"5100064","kana_pref":"ﾐｴｹﾝ","kana_city":"ﾖｯｶｲﾁｼ","kana_address":"ｼﾝｼｮｳ","pref":"三重県","city":"四日市市","address":"新正"},
{"zip_code":"5100094","kana_pref":"ﾐｴｹﾝ","kana_city":"ﾖｯｶｲﾁｼ","kana_address":"ｼﾝｼﾝﾏﾁ","pref":"三重県","city":"四日市市","address":"新々町"},
{"zip_code":"5100092","kana_pref":"ﾐｴｹﾝ","kana_city":"ﾖｯｶｲﾁｼ","kana_address":"ｼﾝﾁｮｳ","pref":"三重県","city":"四日市市","address":"新町"},
{"zip_code":"5100024","kana_pref":"ﾐｴｹﾝ","kana_city":"ﾖｯｶｲﾁｼ","kana_address":"ｼﾝﾊﾏﾁｮｳ","pref":"三重県","city":"四日市市","address":"新浜町"},
{"zip_code":"5100063","kana_pref":"ﾐｴｹﾝ","kana_city":"ﾖｯｶｲﾁｼ","kana_address":"ｼﾞｭｳｼﾁｹﾝﾁｮｳ","pref":"三重県","city":"四日市市","address":"十七軒町"},
{"zip_code":"5108026","kana_pref":"ﾐｴｹﾝ","kana_city":"ﾖｯｶｲﾁｼ","kana_address":"ｼﾞｭｳｼﾁｮｳ","pref":"三重県","city":"四日市市","address":"十志町"},
{"zip_code":"5100813","kana_pref":"ﾐｴｹﾝ","kana_city":"ﾖｯｶｲﾁｼ","kana_address":"ｽｴﾅｶﾞ","pref":"三重県","city":"四日市市","address":"末永"},
{"zip_code":"5100807","kana_pref":"ﾐｴｹﾝ","kana_city":"ﾖｯｶｲﾁｼ","kana_address":"ｽｴﾅｶﾞﾁｮｳ","pref":"三重県","city":"四日市市","address":"末永町"},
{"zip_code":"5100052","kana_pref":"ﾐｴｹﾝ","kana_city":"ﾖｯｶｲﾁｼ","kana_address":"ｽｴﾋﾛﾁｮｳ","pref":"三重県","city":"四日市市","address":"末広町"},
{"zip_code":"5108003","kana_pref":"ﾐｴｹﾝ","kana_city":"ﾖｯｶｲﾁｼ","kana_address":"ｽﾐﾖｼﾁｮｳ","pref":"三重県","city":"四日市市","address":"住吉町"},
{"zip_code":"5100086","kana_pref":"ﾐｴｹﾝ","kana_city":"ﾖｯｶｲﾁｼ","kana_address":"ｽﾜｻｶｴﾏﾁ","pref":"三重県","city":"四日市市","address":"諏訪栄町"},
{"zip_code":"5100085","kana_pref":"ﾐｴｹﾝ","kana_city":"ﾖｯｶｲﾁｼ","kana_address":"ｽﾜﾁｮｳ","pref":"三重県","city":"四日市市","address":"諏訪町"},
{"zip_code":"5100022","kana_pref":"ﾐｴｹﾝ","kana_city":"ﾖｯｶｲﾁｼ","kana_address":"ﾀﾞｲｷｮｳﾁｮｳ","pref":"三重県","city":"四日市市","address":"大協町"},
{"zip_code":"5108017","kana_pref":"ﾐｴｹﾝ","kana_city":"ﾖｯｶｲﾁｼ","kana_address":"ﾀｲﾗﾏﾁ","pref":"三重県","city":"四日市市","address":"平町"},
{"zip_code":"5100857","kana_pref":"ﾐｴｹﾝ","kana_city":"ﾖｯｶｲﾁｼ","kana_address":"ﾀｶｱｻﾋﾁｮｳ","pref":"三重県","city":"四日市市","address":"高旭町"},
{"zip_code":"5100042","kana_pref":"ﾐｴｹﾝ","kana_city":"ﾖｯｶｲﾁｼ","kana_address":"ﾀｶｻｺﾞﾁｮｳ","pref":"三重県","city":"四日市市","address":"高砂町"},
{"zip_code":"5100945","kana_pref":"ﾐｴｹﾝ","kana_city":"ﾖｯｶｲﾁｼ","kana_address":"ﾀｶﾊﾅﾀﾞｲﾗ","pref":"三重県","city":"四日市市","address":"高花平"},
{"zip_code":"5100027","kana_pref":"ﾐｴｹﾝ","kana_city":"ﾖｯｶｲﾁｼ","kana_address":"ﾀｶﾊﾏｼﾝﾏﾁ","pref":"三重県","city":"四日市市","address":"高浜新町"},
{"zip_code":"5100026","kana_pref":"ﾐｴｹﾝ","kana_city":"ﾖｯｶｲﾁｼ","kana_address":"ﾀｶﾊﾏﾁｮｳ","pref":"三重県","city":"四日市市","address":"高浜町"},
{"zip_code":"5100844","kana_pref":"ﾐｴｹﾝ","kana_city":"ﾖｯｶｲﾁｼ","kana_address":"ﾀｶﾗﾏﾁ","pref":"三重県","city":"四日市市","address":"宝町"},
{"zip_code":"5100034","kana_pref":"ﾐｴｹﾝ","kana_city":"ﾖｯｶｲﾁｼ","kana_address":"ﾀｷｶﾞﾜﾁｮｳ","pref":"三重県","city":"四日市市","address":"滝川町"},
{"zip_code":"5108038","kana_pref":"ﾐｴｹﾝ","kana_city":"ﾖｯｶｲﾁｼ","kana_address":"ﾀﾙｻｶｼﾝﾏﾁ","pref":"三重県","city":"四日市市","address":"垂坂新町"},
{"zip_code":"5108037","kana_pref":"ﾐｴｹﾝ","kana_city":"ﾖｯｶｲﾁｼ","kana_address":"ﾀﾙｻｶﾁｮｳ","pref":"三重県","city":"四日市市","address":"垂坂町"},
{"zip_code":"5100051","kana_pref":"ﾐｴｹﾝ","kana_city":"ﾖｯｶｲﾁｼ","kana_address":"ﾁﾄｾﾁｮｳ","pref":"三重県","city":"四日市市","address":"千歳町"},
{"zip_code":"5100082","kana_pref":"ﾐｴｹﾝ","kana_city":"ﾖｯｶｲﾁｼ","kana_address":"ﾁｭｳﾌﾞ","pref":"三重県","city":"四日市市","address":"中部"},
{"zip_code":"5100035","kana_pref":"ﾐｴｹﾝ","kana_city":"ﾖｯｶｲﾁｼ","kana_address":"ﾄｳｴｲﾁｮｳ","pref":"三重県","city":"四日市市","address":"陶栄町"},
{"zip_code":"5100025","kana_pref":"ﾐｴｹﾝ","kana_city":"ﾖｯｶｲﾁｼ","kana_address":"ﾄｳｼﾝﾁｮｳ","pref":"三重県","city":"四日市市","address":"東新町"},
{"zip_code":"5100848","kana_pref":"ﾐｴｹﾝ","kana_city":"ﾖｯｶｲﾁｼ","kana_address":"ﾄｳﾎｳﾁｮｳ","pref":"三重県","city":"四日市市","address":"東邦町"},
{"zip_code":"5100834","kana_pref":"ﾐｴｹﾝ","kana_city":"ﾖｯｶｲﾁｼ","kana_address":"ﾄｷﾜ","pref":"三重県","city":"四日市市","address":"ときわ"},
{"zip_code":"5100883","kana_pref":"ﾐｴｹﾝ","kana_city":"ﾖｯｶｲﾁｼ","kana_address":"ﾄﾏﾘｺﾔﾅｷﾞﾁｮｳ","pref":"三重県","city":"四日市市","address":"泊小柳町"},
{"zip_code":"5100884","kana_pref":"ﾐｴｹﾝ","kana_city":"ﾖｯｶｲﾁｼ","kana_address":"ﾄﾏﾘﾁｮｳ","pref":"三重県","city":"四日市市","address":"泊町"},
{"zip_code":"5100894","kana_pref":"ﾐｴｹﾝ","kana_city":"ﾖｯｶｲﾁｼ","kana_address":"ﾄﾏﾘﾑﾗ","pref":"三重県","city":"四日市市","address":"泊村"},
{"zip_code":"5100892","kana_pref":"ﾐｴｹﾝ","kana_city":"ﾖｯｶｲﾁｼ","kana_address":"ﾄﾏﾘﾔﾏｻﾞｷﾁｮｳ","pref":"三重県","city":"四日市市","address":"泊山崎町"},
{"zip_code":"5108016","kana_pref":"ﾐｴｹﾝ","kana_city":"ﾖｯｶｲﾁｼ","kana_address":"ﾄﾐｽﾊﾗﾁｮｳ","pref":"三重県","city":"四日市市","address":"富州原町"},
{"zip_code":"5108014","kana_pref":"ﾐｴｹﾝ","kana_city":"ﾖｯｶｲﾁｼ","kana_address":"ﾄﾐﾀﾞ","pref":"三重県","city":"四日市市","address":"富田"},
{"zip_code":"5108004","kana_pref":"ﾐｴｹﾝ","kana_city":"ﾖｯｶｲﾁｼ","kana_address":"ﾄﾐﾀﾞｲｯｼｷﾁｮｳ","pref":"三重県","city":"四日市市","address":"富田一色町"},
{"zip_code":"5108025","kana_pref":"ﾐｴｹﾝ","kana_city":"ﾖｯｶｲﾁｼ","kana_address":"ﾄﾐﾀﾞｻｶｴﾏﾁ","pref":"三重県","city":"四日市市","address":"富田栄町"},
{"zip_code":"5108008","kana_pref":"ﾐｴｹﾝ","kana_city":"ﾖｯｶｲﾁｼ","kana_address":"ﾄﾐﾀﾞﾊﾏﾁｮｳ","pref":"三重県","city":"四日市市","address":"富田浜町"},
{"zip_code":"5108007","kana_pref":"ﾐｴｹﾝ","kana_city":"ﾖｯｶｲﾁｼ","kana_address":"ﾄﾐﾀﾞﾊﾏﾓﾄﾁｮｳ","pref":"三重県","city":"四日市市","address":"富田浜元町"},
{"zip_code":"5100833","kana_pref":"ﾐｴｹﾝ","kana_city":"ﾖｯｶｲﾁｼ","kana_address":"ﾅｶｶﾞﾜﾗ","pref":"三重県","city":"四日市市","address":"中川原"},
{"zip_code":"5100864","kana_pref":"ﾐｴｹﾝ","kana_city":"ﾖｯｶｲﾁｼ","kana_address":"ﾅｶｻﾞﾄﾁｮｳ","pref":"三重県","city":"四日市市","address":"中里町"},
{"zip_code":"5100048","kana_pref":"ﾐｴｹﾝ","kana_city":"ﾖｯｶｲﾁｼ","kana_address":"ﾅｶﾅﾔﾁｮｳ","pref":"三重県","city":"四日市市","address":"中納屋町"},
{"zip_code":"5100065","kana_pref":"ﾐｴｹﾝ","kana_city":"ﾖｯｶｲﾁｼ","kana_address":"ﾅｶﾊﾏﾀﾞﾁｮｳ","pref":"三重県","city":"四日市市","address":"中浜田町"},
{"zip_code":"5100096","kana_pref":"ﾐｴｹﾝ","kana_city":"ﾖｯｶｲﾁｼ","kana_address":"ﾅｶﾏﾁ","pref":"三重県","city":"四日市市","address":"中町"},
{"zip_code":"5100856","kana_pref":"ﾐｴｹﾝ","kana_city":"ﾖｯｶｲﾁｼ","kana_address":"ﾅﾅﾂﾔﾁｮｳ","pref":"三重県","city":"四日市市","address":"七つ屋町"},
{"zip_code":"5100812","kana_pref":"ﾐｴｹﾝ","kana_city":"ﾖｯｶｲﾁｼ","kana_address":"ﾆｼｱｸﾗｶﾞﾜ","pref":"三重県","city":"四日市市","address":"西阿倉川"},
{"zip_code":"5100831","kana_pref":"ﾐｴｹﾝ","kana_city":"ﾖｯｶｲﾁｼ","kana_address":"ﾆｼｲｸﾞﾗﾁｮｳ","pref":"三重県","city":"四日市市","address":"西伊倉町"},
{"zip_code":"5100071","kana_pref":"ﾐｴｹﾝ","kana_city":"ﾖｯｶｲﾁｼ","kana_address":"ﾆｼｳﾗ","pref":"三重県","city":"四日市市","address":"西浦"},
{"zip_code":"5100087","kana_pref":"ﾐｴｹﾝ","kana_city":"ﾖｯｶｲﾁｼ","kana_address":"ﾆｼｼﾝﾁ","pref":"三重県","city":"四日市市","address":"西新地"},
{"zip_code":"5100058","kana_pref":"ﾐｴｹﾝ","kana_city":"ﾖｯｶｲﾁｼ","kana_address":"ﾆｼｽｴﾋﾛﾁｮｳ","pref":"三重県","city":"四日市市","address":"西末広町"},
{"zip_code":"5108023","kana_pref":"ﾐｴｹﾝ","kana_city":"ﾖｯｶｲﾁｼ","kana_address":"ﾆｼﾄﾐﾀﾞ","pref":"三重県","city":"四日市市","address":"西富田"},
{"zip_code":"5108024","kana_pref":"ﾐｴｹﾝ","kana_city":"ﾖｯｶｲﾁｼ","kana_address":"ﾆｼﾄﾐﾀﾞﾁｮｳ","pref":"三重県","city":"四日市市","address":"西富田町"},
{"zip_code":"5100073","kana_pref":"ﾐｴｹﾝ","kana_city":"ﾖｯｶｲﾁｼ","kana_address":"ﾆｼﾊﾏﾀﾞﾁｮｳ","pref":"三重県","city":"四日市市","address":"西浜田町"},
{"zip_code":"5100943","kana_pref":"ﾐｴｹﾝ","kana_city":"ﾖｯｶｲﾁｼ","kana_address":"ﾆｼﾋﾉﾁｮｳ","pref":"三重県","city":"四日市市","address":"西日野町"},
{"zip_code":"5100089","kana_pref":"ﾐｴｹﾝ","kana_city":"ﾖｯｶｲﾁｼ","kana_address":"ﾆｼﾏﾁ","pref":"三重県","city":"四日市市","address":"西町"},
{"zip_code":"5100837","kana_pref":"ﾐｴｹﾝ","kana_city":"ﾖｯｶｲﾁｼ","kana_address":"ﾆｼﾏﾂﾓﾄﾁｮｳ","pref":"三重県","city":"四日市市","address":"西松本町"},
{"zip_code":"5100815","kana_pref":"ﾐｴｹﾝ","kana_city":"ﾖｯｶｲﾁｼ","kana_address":"ﾉﾀﾞ","pref":"三重県","city":"四日市市","address":"野田"},
{"zip_code":"5100962","kana_pref":"ﾐｴｹﾝ","kana_city":"ﾖｯｶｲﾁｼ","kana_address":"ﾊｷﾞｶﾞｵｶﾁｮｳ","pref":"三重県","city":"四日市市","address":"波木が丘町"},
{"zip_code":"5100961","kana_pref":"ﾐｴｹﾝ","kana_city":"ﾖｯｶｲﾁｼ","kana_address":"ﾊｷﾞﾁｮｳ","pref":"三重県","city":"四日市市","address":"波木町"},
{"zip_code":"5100963","kana_pref":"ﾐｴｹﾝ","kana_city":"ﾖｯｶｲﾁｼ","kana_address":"ﾊｷﾞﾐﾅﾐﾀﾞｲ","pref":"三重県","city":"四日市市","address":"波木南台"},
{"zip_code":"5100868","kana_pref":"ﾐｴｹﾝ","kana_city":"ﾖｯｶｲﾁｼ","kana_address":"ﾊｾﾀﾞｼ","pref":"三重県","city":"四日市市","address":"馳出"},
{"zip_code":"5100855","kana_pref":"ﾐｴｹﾝ","kana_city":"ﾖｯｶｲﾁｼ","kana_address":"ﾊｾﾀﾞｼﾁｮｳ","pref":"三重県","city":"四日市市","address":"馳出町"},
{"zip_code":"5100947","kana_pref":"ﾐｴｹﾝ","kana_city":"ﾖｯｶｲﾁｼ","kana_address":"ﾊﾁｵｳｼﾞﾁｮｳ","pref":"三重県","city":"四日市市","address":"八王子町"},
{"zip_code":"5100097","kana_pref":"ﾐｴｹﾝ","kana_city":"ﾖｯｶｲﾁｼ","kana_address":"ﾊﾁﾏﾝﾁｮｳ","pref":"三重県","city":"四日市市","address":"八幡町"},
{"zip_code":"5100001","kana_pref":"ﾐｴｹﾝ","kana_city":"ﾖｯｶｲﾁｼ","kana_address":"ﾊｯﾀ","pref":"三重県","city":"四日市市","address":"八田"},
{"zip_code":"5100012","kana_pref":"ﾐｴｹﾝ","kana_city":"ﾖｯｶｲﾁｼ","kana_address":"ﾊﾂﾞ","pref":"三重県","city":"四日市市","address":"羽津"},
{"zip_code":"5100017","kana_pref":"ﾐｴｹﾝ","kana_city":"ﾖｯｶｲﾁｼ","kana_address":"ﾊﾂﾞﾁｮｳ","pref":"三重県","city":"四日市市","address":"羽津町"},
{"zip_code":"5100002","kana_pref":"ﾐｴｹﾝ","kana_city":"ﾖｯｶｲﾁｼ","kana_address":"ﾊﾂﾞﾅｶ","pref":"三重県","city":"四日市市","address":"羽津中"},
{"zip_code":"5100016","kana_pref":"ﾐｴｹﾝ","kana_city":"ﾖｯｶｲﾁｼ","kana_address":"ﾊﾂﾞﾔﾏﾁｮｳ","pref":"三重県","city":"四日市市","address":"羽津山町"},
{"zip_code":"5100852","kana_pref":"ﾐｴｹﾝ","kana_city":"ﾖｯｶｲﾁｼ","kana_address":"ﾊﾏｱｻﾋﾁｮｳ","pref":"三重県","city":"四日市市","address":"浜旭町"},
{"zip_code":"5100031","kana_pref":"ﾐｴｹﾝ","kana_city":"ﾖｯｶｲﾁｼ","kana_address":"ﾊﾏｲｯｼｷﾁｮｳ","pref":"三重県","city":"四日市市","address":"浜一色町"},
{"zip_code":"5108009","kana_pref":"ﾐｴｹﾝ","kana_city":"ﾖｯｶｲﾁｼ","kana_address":"ﾊﾏｿﾞﾉﾁｮｳ","pref":"三重県","city":"四日市市","address":"浜園町"},
{"zip_code":"5100067","kana_pref":"ﾐｴｹﾝ","kana_city":"ﾖｯｶｲﾁｼ","kana_address":"ﾊﾏﾀﾞﾁｮｳ","pref":"三重県","city":"四日市市","address":"浜田町"},
{"zip_code":"5100046","kana_pref":"ﾐｴｹﾝ","kana_city":"ﾖｯｶｲﾁｼ","kana_address":"ﾊﾏﾏﾁ","pref":"三重県","city":"四日市市","address":"浜町"},
{"zip_code":"5100804","kana_pref":"ﾐｴｹﾝ","kana_city":"ﾖｯｶｲﾁｼ","kana_address":"ﾊﾞﾝｺﾁｮｳ","pref":"三重県","city":"四日市市","address":"万古町"},
{"zip_code":"5100805","kana_pref":"ﾐｴｹﾝ","kana_city":"ﾖｯｶｲﾁｼ","kana_address":"ﾋｶﾞｼｱｸﾗｶﾞﾜ","pref":"三重県","city":"四日市市","address":"東阿倉川"},
{"zip_code":"5108035","kana_pref":"ﾐｴｹﾝ","kana_city":"ﾖｯｶｲﾁｼ","kana_address":"ﾋｶﾞｼﾀﾙｻｶﾁｮｳ","pref":"三重県","city":"四日市市","address":"東垂坂町"},
{"zip_code":"5108006","kana_pref":"ﾐｴｹﾝ","kana_city":"ﾖｯｶｲﾁｼ","kana_address":"ﾋｶﾞｼﾄﾐﾀﾞﾁｮｳ","pref":"三重県","city":"四日市市","address":"東富田町"},
{"zip_code":"5100941","kana_pref":"ﾐｴｹﾝ","kana_city":"ﾖｯｶｲﾁｼ","kana_address":"ﾋｶﾞｼﾋﾉ","pref":"三重県","city":"四日市市","address":"東日野"},
{"zip_code":"5100942","kana_pref":"ﾐｴｹﾝ","kana_city":"ﾖｯｶｲﾁｼ","kana_address":"ﾋｶﾞｼﾋﾉﾁｮｳ","pref":"三重県","city":"四日市市","address":"東日野町"},
{"zip_code":"5108011","kana_pref":"ﾐｴｹﾝ","kana_city":"ﾖｯｶｲﾁｼ","kana_address":"ﾋｶﾞｼﾓﾁﾌﾞｸﾁｮｳ","pref":"三重県","city":"四日市市","address":"東茂福町"},
{"zip_code":"5100885","kana_pref":"ﾐｴｹﾝ","kana_city":"ﾖｯｶｲﾁｼ","kana_address":"ﾋﾅｶﾞ","pref":"三重県","city":"四日市市","address":"日永"},
{"zip_code":"5100886","kana_pref":"ﾐｴｹﾝ","kana_city":"ﾖｯｶｲﾁｼ","kana_address":"ﾋﾅｶﾞﾋｶﾞｼ","pref":"三重県","city":"四日市市","address":"日永東"},
{"zip_code":"5100891","kana_pref":"ﾐｴｹﾝ","kana_city":"ﾖｯｶｲﾁｼ","kana_address":"ﾋﾅｶﾞﾆｼ","pref":"三重県","city":"四日市市","address":"日永西"},
{"zip_code":"5100013","kana_pref":"ﾐｴｹﾝ","kana_city":"ﾖｯｶｲﾁｼ","kana_address":"ﾌｼﾞﾁｮｳ","pref":"三重県","city":"四日市市","address":"富士町"},
{"zip_code":"5108005","kana_pref":"ﾐｴｹﾝ","kana_city":"ﾖｯｶｲﾁｼ","kana_address":"ﾌｿｳ","pref":"三重県","city":"四日市市","address":"富双"},
{"zip_code":"5100007","kana_pref":"ﾐｴｹﾝ","kana_city":"ﾖｯｶｲﾁｼ","kana_address":"ﾍﾞﾂﾒｲ","pref":"三重県","city":"四日市市","address":"別名"},
{"zip_code":"5100076","kana_pref":"ﾐｴｹﾝ","kana_city":"ﾖｯｶｲﾁｼ","kana_address":"ﾎﾘｷ","pref":"三重県","city":"四日市市","address":"堀木"},
{"zip_code":"5100806","kana_pref":"ﾐｴｹﾝ","kana_city":"ﾖｯｶｲﾁｼ","kana_address":"ﾎﾝｺﾞｳﾁｮｳ","pref":"三重県","city":"四日市市","address":"本郷町"},
{"zip_code":"5100093","kana_pref":"ﾐｴｹﾝ","kana_city":"ﾖｯｶｲﾁｼ","kana_address":"ﾎﾝﾏﾁ","pref":"三重県","city":"四日市市","address":"本町"},
{"zip_code":"5100893","kana_pref":"ﾐｴｹﾝ","kana_city":"ﾖｯｶｲﾁｼ","kana_address":"ﾏｴﾀﾞﾁｮｳ","pref":"三重県","city":"四日市市","address":"前田町"},
{"zip_code":"5108022","kana_pref":"ﾐｴｹﾝ","kana_city":"ﾖｯｶｲﾁｼ","kana_address":"ﾏｷﾀ","pref":"三重県","city":"四日市市","address":"蒔田"},
{"zip_code":"5108021","kana_pref":"ﾐｴｹﾝ","kana_city":"ﾖｯｶｲﾁｼ","kana_address":"ﾏﾂﾃﾗ","pref":"三重県","city":"四日市市","address":"松寺"},
{"zip_code":"5108015","kana_pref":"ﾐｴｹﾝ","kana_city":"ﾖｯｶｲﾁｼ","kana_address":"ﾏﾂﾊﾞﾗﾁｮｳ","pref":"三重県","city":"四日市市","address":"松原町"},
{"zip_code":"5100836","kana_pref":"ﾐｴｹﾝ","kana_city":"ﾖｯｶｲﾁｼ","kana_address":"ﾏﾂﾓﾄ","pref":"三重県","city":"四日市市","address":"松本"},
{"zip_code":"5100862","kana_pref":"ﾐｴｹﾝ","kana_city":"ﾖｯｶｲﾁｼ","kana_address":"ﾐｿﾉﾁｮｳ","pref":"三重県","city":"四日市市","address":"御薗町"},
{"zip_code":"5100841","kana_pref":"ﾐｴｹﾝ","kana_city":"ﾖｯｶｲﾁｼ","kana_address":"ﾐﾀﾁｮｳ","pref":"三重県","city":"四日市市","address":"三田町"},
{"zip_code":"5100802","kana_pref":"ﾐｴｹﾝ","kana_city":"ﾖｯｶｲﾁｼ","kana_address":"ﾐﾂﾔﾁｮｳ","pref":"三重県","city":"四日市市","address":"三ツ谷町"},
{"zip_code":"5100801","kana_pref":"ﾐｴｹﾝ","kana_city":"ﾖｯｶｲﾁｼ","kana_address":"ﾐﾂﾔﾋｶﾞｼﾏﾁ","pref":"三重県","city":"四日市市","address":"三ツ谷東町"},
{"zip_code":"5100006","kana_pref":"ﾐｴｹﾝ","kana_city":"ﾖｯｶｲﾁｼ","kana_address":"ﾐﾄﾞﾘｶﾞｵｶﾁｮｳ","pref":"三重県","city":"四日市市","address":"緑丘町"},
{"zip_code":"5100008","kana_pref":"ﾐｴｹﾝ","kana_city":"ﾖｯｶｲﾁｼ","kana_address":"ﾐﾅﾐｲｶﾙｶﾞﾁｮｳ","pref":"三重県","city":"四日市市","address":"南いかるが町"},
{"zip_code":"5100056","kana_pref":"ﾐｴｹﾝ","kana_city":"ﾖｯｶｲﾁｼ","kana_address":"ﾐﾅﾐｵｺｼﾁｮｳ","pref":"三重県","city":"四日市市","address":"南起町"},
{"zip_code":"5100971","kana_pref":"ﾐｴｹﾝ","kana_city":"ﾖｯｶｲﾁｼ","kana_address":"ﾐﾅﾐｺﾏﾂﾁｮｳ","pref":"三重県","city":"四日市市","address":"南小松町"},
{"zip_code":"5108036","kana_pref":"ﾐｴｹﾝ","kana_city":"ﾖｯｶｲﾁｼ","kana_address":"ﾐﾅﾐﾀﾙｻｶﾁｮｳ","pref":"三重県","city":"四日市市","address":"南垂坂町"},
{"zip_code":"5108013","kana_pref":"ﾐｴｹﾝ","kana_city":"ﾖｯｶｲﾁｼ","kana_address":"ﾐﾅﾐﾄﾐﾀﾞﾁｮｳ","pref":"三重県","city":"四日市市","address":"南富田町"},
{"zip_code":"5100043","kana_pref":"ﾐｴｹﾝ","kana_city":"ﾖｯｶｲﾁｼ","kana_address":"ﾐﾅﾐﾅﾔﾁｮｳ","pref":"三重県","city":"四日市市","address":"南納屋町"},
{"zip_code":"5100066","kana_pref":"ﾐｴｹﾝ","kana_city":"ﾖｯｶｲﾁｼ","kana_address":"ﾐﾅﾐﾊﾏﾀﾞﾁｮｳ","pref":"三重県","city":"四日市市","address":"南浜田町"},
{"zip_code":"5100838","kana_pref":"ﾐｴｹﾝ","kana_city":"ﾖｯｶｲﾁｼ","kana_address":"ﾐﾅﾐﾏﾂﾓﾄﾁｮｳ","pref":"三重県","city":"四日市市","address":"南松本町"},
{"zip_code":"5100843","kana_pref":"ﾐｴｹﾝ","kana_city":"ﾖｯｶｲﾁｼ","kana_address":"ﾐﾔﾋｶﾞｼﾁｮｳ","pref":"三重県","city":"四日市市","address":"宮東町"},
{"zip_code":"5100845","kana_pref":"ﾐｴｹﾝ","kana_city":"ﾖｯｶｲﾁｼ","kana_address":"ﾐﾔﾏﾄﾞﾁｮｳ","pref":"三重県","city":"四日市市","address":"海山道町"},
{"zip_code":"5100811","kana_pref":"ﾐｴｹﾝ","kana_city":"ﾖｯｶｲﾁｼ","kana_address":"ﾐﾕｷｶﾞｵｶ","pref":"三重県","city":"四日市市","address":"みゆきケ丘"},
{"zip_code":"5100948","kana_pref":"ﾐｴｹﾝ","kana_city":"ﾖｯｶｲﾁｼ","kana_address":"ﾑﾛﾔﾏﾁｮｳ","pref":"三重県","city":"四日市市","address":"室山町"},
{"zip_code":"5108027","kana_pref":"ﾐｴｹﾝ","kana_city":"ﾖｯｶｲﾁｼ","kana_address":"ﾓﾁﾌﾞｸ","pref":"三重県","city":"四日市市","address":"茂福"},
{"zip_code":"5108012","kana_pref":"ﾐｴｹﾝ","kana_city":"ﾖｯｶｲﾁｼ","kana_address":"ﾓﾁﾌﾞｸﾁｮｳ","pref":"三重県","city":"四日市市","address":"茂福町"},
{"zip_code":"5100095","kana_pref":"ﾐｴｹﾝ","kana_city":"ﾖｯｶｲﾁｼ","kana_address":"ﾓﾄｼﾝﾏﾁ","pref":"三重県","city":"四日市市","address":"元新町"},
{"zip_code":"5100088","kana_pref":"ﾐｴｹﾝ","kana_city":"ﾖｯｶｲﾁｼ","kana_address":"ﾓﾄﾏﾁ","pref":"三重県","city":"四日市市","address":"元町"},
{"zip_code":"5100957","kana_pref":"ﾐｴｹﾝ","kana_city":"ﾖｯｶｲﾁｼ","kana_address":"ﾓﾘｶﾞﾔﾏﾁｮｳ","pref":"三重県","city":"四日市市","address":"森カ山町"},
{"zip_code":"5100075","kana_pref":"ﾐｴｹﾝ","kana_city":"ﾖｯｶｲﾁｼ","kana_address":"ﾔｽｼﾞﾏ","pref":"三重県","city":"四日市市","address":"安島"},
{"zip_code":"5100861","kana_pref":"ﾐｴｹﾝ","kana_city":"ﾖｯｶｲﾁｼ","kana_address":"ﾔﾅｷﾞﾏﾁ","pref":"三重県","city":"四日市市","address":"柳町"},
{"zip_code":"5100005","kana_pref":"ﾐｴｹﾝ","kana_city":"ﾖｯｶｲﾁｼ","kana_address":"ﾔﾏﾃﾁｮｳ","pref":"三重県","city":"四日市市","address":"山手町"},
{"zip_code":"5100881","kana_pref":"ﾐｴｹﾝ","kana_city":"ﾖｯｶｲﾁｼ","kana_address":"ﾛｸﾛﾐ","pref":"三重県","city":"四日市市","address":"六呂見"},
{"zip_code":"5100258","kana_pref":"ﾐｴｹﾝ","kana_city":"ｽｽﾞｶｼ","kana_address":"ｱｷﾅｶﾞﾁｮｳ","pref":"三重県","city":"鈴鹿市","address":"秋永町"},
{"zip_code":"5100256","kana_pref":"ﾐｴｹﾝ","kana_city":"ｽｽﾞｶｼ","kana_address":"ｲｿﾔﾏ","pref":"三重県","city":"鈴鹿市","address":"磯山"},
{"zip_code":"5100255","kana_pref":"ﾐｴｹﾝ","kana_city":"ｽｽﾞｶｼ","kana_address":"ｲｿﾔﾏﾁｮｳ","pref":"三重県","city":"鈴鹿市","address":"磯山町"},
{"zip_code":"5100205","kana_pref":"ﾐｴｹﾝ","kana_city":"ｽｽﾞｶｼ","kana_address":"ｲﾉｳ","pref":"三重県","city":"鈴鹿市","address":"稲生"},
{"zip_code":"5100206","kana_pref":"ﾐｴｹﾝ","kana_city":"ｽｽﾞｶｼ","kana_address":"ｲﾉｳｺｶﾞﾈｴﾝ","pref":"三重県","city":"鈴鹿市","address":"稲生こがね園"},
{"zip_code":"5100207","kana_pref":"ﾐｴｹﾝ","kana_city":"ｽｽﾞｶｼ","kana_address":"ｲﾉｳｼｵﾔ","pref":"三重県","city":"鈴鹿市","address":"稲生塩屋"},
{"zip_code":"5100201","kana_pref":"ﾐｴｹﾝ","kana_city":"ｽｽﾞｶｼ","kana_address":"ｲﾉｳﾁｮｳ","pref":"三重県","city":"鈴鹿市","address":"稲生町"},
{"zip_code":"5100204","kana_pref":"ﾐｴｹﾝ","kana_city":"ｽｽﾞｶｼ","kana_address":"ｲﾉｳﾆｼ","pref":"三重県","city":"鈴鹿市","address":"稲生西"},
{"zip_code":"5100252","kana_pref":"ﾐｴｹﾝ","kana_city":"ｽｽﾞｶｼ","kana_address":"ｲﾜｲﾁｮｳ","pref":"三重県","city":"鈴鹿市","address":"五祝町"},
{"zip_code":"5100231","kana_pref":"ﾐｴｹﾝ","kana_city":"ｽｽﾞｶｼ","kana_address":"ｴｼﾞﾏﾀﾞｲ","pref":"三重県","city":"鈴鹿市","address":"江島台"},
{"zip_code":"5100237","kana_pref":"ﾐｴｹﾝ","kana_city":"ｽｽﾞｶｼ","kana_address":"ｴｼﾞﾏﾁｮｳ","pref":"三重県","city":"鈴鹿市","address":"江島町"},
{"zip_code":"5100234","kana_pref":"ﾐｴｹﾝ","kana_city":"ｽｽﾞｶｼ","kana_address":"ｴｼﾞﾏﾎﾝﾏﾁ","pref":"三重県","city":"鈴鹿市","address":"江島本町"},
{"zip_code":"5100262","kana_pref":"ﾐｴｹﾝ","kana_city":"ｽｽﾞｶｼ","kana_address":"ｵｳﾁﾁｮｳ","pref":"三重県","city":"鈴鹿市","address":"越知町"},
{"zip_code":"5100226","kana_pref":"ﾐｴｹﾝ","kana_city":"ｽｽﾞｶｼ","kana_address":"ｷｼｵｶﾁｮｳ","pref":"三重県","city":"鈴鹿市","address":"岸岡町"},
{"zip_code":"5100232","kana_pref":"ﾐｴｹﾝ","kana_city":"ｽｽﾞｶｼ","kana_address":"ｷﾀｴｼﾞﾏﾁｮｳ","pref":"三重県","city":"鈴鹿市","address":"北江島町"},
{"zip_code":"5100221","kana_pref":"ﾐｴｹﾝ","kana_city":"ｽｽﾞｶｼ","kana_address":"ｷﾀﾜｶﾏﾂﾁｮｳ","pref":"三重県","city":"鈴鹿市","address":"北若松町"},
{"zip_code":"5100263","kana_pref":"ﾐｴｹﾝ","kana_city":"ｽｽﾞｶｼ","kana_address":"ｺｵﾘﾔﾏﾁｮｳ","pref":"三重県","city":"鈴鹿市","address":"郡山町"},
{"zip_code":"5100254","kana_pref":"ﾐｴｹﾝ","kana_city":"ｽｽﾞｶｼ","kana_address":"ｼﾞｹ","pref":"三重県","city":"鈴鹿市","address":"寺家"},
{"zip_code":"5100253","kana_pref":"ﾐｴｹﾝ","kana_city":"ｽｽﾞｶｼ","kana_address":"ｼﾞｹﾁｮｳ","pref":"三重県","city":"鈴鹿市","address":"寺家町"},
{"zip_code":"5100243","kana_pref":"ﾐｴｹﾝ","kana_city":"ｽｽﾞｶｼ","kana_address":"ｼﾛｺ","pref":"三重県","city":"鈴鹿市","address":"白子"},
{"zip_code":"5100241","kana_pref":"ﾐｴｹﾝ","kana_city":"ｽｽﾞｶｼ","kana_address":"ｼﾛｺｴｷﾏｴ","pref":"三重県","city":"鈴鹿市","address":"白子駅前"},
{"zip_code":"5100242","kana_pref":"ﾐｴｹﾝ","kana_city":"ｽｽﾞｶｼ","kana_address":"ｼﾛｺﾎﾝﾏﾁ","pref":"三重県","city":"鈴鹿市","address":"白子本町"},
{"zip_code":"5100244","kana_pref":"ﾐｴｹﾝ","kana_city":"ｽｽﾞｶｼ","kana_address":"ｼﾛｺﾁｮｳ","pref":"三重県","city":"鈴鹿市","address":"白子町"},
{"zip_code":"5100208","kana_pref":"ﾐｴｹﾝ","kana_city":"ｽｽﾞｶｼ","kana_address":"ｽｽﾞｶﾊｲﾂ","pref":"三重県","city":"鈴鹿市","address":"鈴鹿ハイツ"},
{"zip_code":"5100266","kana_pref":"ﾐｴｹﾝ","kana_city":"ｽｽﾞｶｼ","kana_address":"ﾁｮｳﾎﾞｳｼﾞﾁｮｳ","pref":"三重県","city":"鈴鹿市","address":"長法寺町"},
{"zip_code":"5100264","kana_pref":"ﾐｴｹﾝ","kana_city":"ｽｽﾞｶｼ","kana_address":"ﾄｸｽｲﾁｮｳ","pref":"三重県","city":"鈴鹿市","address":"徳居町"},
{"zip_code":"5100251","kana_pref":"ﾐｴｹﾝ","kana_city":"ｽｽﾞｶｼ","kana_address":"ﾄｸﾀﾞﾁｮｳ","pref":"三重県","city":"鈴鹿市","address":"徳田町"},
{"zip_code":"5100212","kana_pref":"ﾐｴｹﾝ","kana_city":"ｽｽﾞｶｼ","kana_address":"ﾅｶｱｻﾋｶﾞｵｶ","pref":"三重県","city":"鈴鹿市","address":"中旭が丘"},
{"zip_code":"5100236","kana_pref":"ﾐｴｹﾝ","kana_city":"ｽｽﾞｶｼ","kana_address":"ﾅｶｴｼﾞﾏﾁｮｳ","pref":"三重県","city":"鈴鹿市","address":"中江島町"},
{"zip_code":"5100259","kana_pref":"ﾐｴｹﾝ","kana_city":"ｽｽﾞｶｼ","kana_address":"ﾅｶｾﾞｺﾁｮｳ","pref":"三重県","city":"鈴鹿市","address":"中瀬古町"},
{"zip_code":"5100202","kana_pref":"ﾐｴｹﾝ","kana_city":"ｽｽﾞｶｼ","kana_address":"ﾉﾏﾁ","pref":"三重県","city":"鈴鹿市","address":"野町"},
{"zip_code":"5100216","kana_pref":"ﾐｴｹﾝ","kana_city":"ｽｽﾞｶｼ","kana_address":"ﾉﾏﾁﾅｶ","pref":"三重県","city":"鈴鹿市","address":"野町中"},
{"zip_code":"5100218","kana_pref":"ﾐｴｹﾝ","kana_city":"ｽｽﾞｶｼ","kana_address":"ﾉﾏﾁﾆｼ","pref":"三重県","city":"鈴鹿市","address":"野町西"},
{"zip_code":"5100217","kana_pref":"ﾐｴｹﾝ","kana_city":"ｽｽﾞｶｼ","kana_address":"ﾉﾏﾁﾋｶﾞｼ","pref":"三重県","city":"鈴鹿市","address":"野町東"},
{"zip_code":"5100219","kana_pref":"ﾐｴｹﾝ","kana_city":"ｽｽﾞｶｼ","kana_address":"ﾉﾏﾁﾐﾅﾐ","pref":"三重県","city":"鈴鹿市","address":"野町南"},
{"zip_code":"5100203","kana_pref":"ﾐｴｹﾝ","kana_city":"ｽｽﾞｶｼ","kana_address":"ﾉﾑﾗﾁｮｳ","pref":"三重県","city":"鈴鹿市","address":"野村町"},
{"zip_code":"5100211","kana_pref":"ﾐｴｹﾝ","kana_city":"ｽｽﾞｶｼ","kana_address":"ﾋｶﾞｼｱｻﾋｶﾞｵｶ","pref":"三重県","city":"鈴鹿市","address":"東旭が丘"},
{"zip_code":"5100257","kana_pref":"ﾐｴｹﾝ","kana_city":"ｽｽﾞｶｼ","kana_address":"ﾋｶﾞｼｲｿﾔﾏ","pref":"三重県","city":"鈴鹿市","address":"東磯山"},
{"zip_code":"5100233","kana_pref":"ﾐｴｹﾝ","kana_city":"ｽｽﾞｶｼ","kana_address":"ﾋｶﾞｼｴｼﾞﾏﾁｮｳ","pref":"三重県","city":"鈴鹿市","address":"東江島町"},
{"zip_code":"5100261","kana_pref":"ﾐｴｹﾝ","kana_city":"ｽｽﾞｶｼ","kana_address":"ﾐｿﾉﾁｮｳ","pref":"三重県","city":"鈴鹿市","address":"御薗町"},
{"zip_code":"5100213","kana_pref":"ﾐｴｹﾝ","kana_city":"ｽｽﾞｶｼ","kana_address":"ﾐﾅﾐｱｻﾋｶﾞｵｶ","pref":"三重県","city":"鈴鹿市","address":"南旭が丘"},
{"zip_code":"5100235","kana_pref":"ﾐｴｹﾝ","kana_city":"ｽｽﾞｶｼ","kana_address":"ﾐﾅﾐｴｼﾞﾏﾁｮｳ","pref":"三重県","city":"鈴鹿市","address":"南江島町"},
{"zip_code":"5100227","kana_pref":"ﾐｴｹﾝ","kana_city":"ｽｽﾞｶｼ","kana_address":"ﾐﾅﾐﾜｶﾏﾂﾁｮｳ","pref":"三重県","city":"鈴鹿市","address":"南若松町"},
{"zip_code":"5100265","kana_pref":"ﾐｴｹﾝ","kana_city":"ｽｽﾞｶｼ","kana_address":"ﾐﾔｹﾁｮｳ","pref":"三重県","city":"鈴鹿市","address":"三宅町"},
{"zip_code":"5100224","kana_pref":"ﾐｴｹﾝ","kana_city":"ｽｽﾞｶｼ","kana_address":"ﾜｶﾏﾂﾅｶ","pref":"三重県","city":"鈴鹿市","address":"若松中"},
{"zip_code":"5100225","kana_pref":"ﾐｴｹﾝ","kana_city":"ｽｽﾞｶｼ","kana_address":"ﾜｶﾏﾂﾋｶﾞｼ","pref":"三重県","city":"鈴鹿市","address":"若松東"},
{"zip_code":"5100222","kana_pref":"ﾐｴｹﾝ","kana_city":"ｽｽﾞｶｼ","kana_address":"ﾜｶﾏﾂﾆｼ","pref":"三重県","city":"鈴鹿市","address":"若松西"},
{"zip_code":"5100223","kana_pref":"ﾐｴｹﾝ","kana_city":"ｽｽﾞｶｼ","kana_address":"ﾜｶﾏﾂｷﾀ","pref":"三重県","city":"鈴鹿市","address":"若松北"},
{"zip_code":"5101200","kana_pref":"ﾐｴｹﾝ","kana_city":"ﾐｴｸﾞﾝｺﾓﾉﾁｮｳ","kana_address":"","pref":"三重県","city":"三重郡菰野町","address":""},
{"zip_code":"5101221","kana_pref":"ﾐｴｹﾝ","kana_city":"ﾐｴｸﾞﾝｺﾓﾉﾁｮｳ","kana_address":"ｲｹｿﾞｺ","pref":"三重県","city":"三重郡菰野町","address":"池底"},
{"zip_code":"5101253","kana_pref":"ﾐｴｹﾝ","kana_city":"ﾐｴｸﾞﾝｺﾓﾉﾁｮｳ","kana_address":"ｳﾙﾀﾞ","pref":"三重県","city":"三重郡菰野町","address":"潤田"},
{"zip_code":"5101222","kana_pref":"ﾐｴｹﾝ","kana_city":"ﾐｴｸﾞﾝｺﾓﾉﾁｮｳ","kana_address":"ｵｵｺﾞﾊﾗ","pref":"三重県","city":"三重郡菰野町","address":"大強原"},
{"zip_code":"5101246","kana_pref":"ﾐｴｹﾝ","kana_city":"ﾐｴｸﾞﾝｺﾓﾉﾁｮｳ","kana_address":"ｵｵﾊﾞﾈｴﾝｱｵﾊﾞﾁｮｳ","pref":"三重県","city":"三重郡菰野町","address":"大羽根園青葉町"},
{"zip_code":"5101243","kana_pref":"ﾐｴｹﾝ","kana_city":"ﾐｴｸﾞﾝｺﾓﾉﾁｮｳ","kana_address":"ｵｵﾊﾞﾈｴﾝｸﾚﾀｹﾁｮｳ","pref":"三重県","city":"三重郡菰野町","address":"大羽根園呉竹町"},
{"zip_code":"5101242","kana_pref":"ﾐｴｹﾝ","kana_city":"ﾐｴｸﾞﾝｺﾓﾉﾁｮｳ","kana_address":"ｵｵﾊﾞﾈｴﾝｼﾊﾞｶﾞｷﾁｮｳ","pref":"三重県","city":"三重郡菰野町","address":"大羽根園柴垣町"},
{"zip_code":"5101241","kana_pref":"ﾐｴｹﾝ","kana_city":"ﾐｴｸﾞﾝｺﾓﾉﾁｮｳ","kana_address":"ｵｵﾊﾞﾈｴﾝｼﾝﾊﾞﾔｼﾁｮｳ","pref":"三重県","city":"三重郡菰野町","address":"大羽根園新林町"},
{"zip_code":"5101244","kana_pref":"ﾐｴｹﾝ","kana_city":"ﾐｴｸﾞﾝｺﾓﾉﾁｮｳ","kana_address":"ｵｵﾊﾞﾈｴﾝﾅﾐｷﾄﾞｵﾘ","pref":"三重県","city":"三重郡菰野町","address":"大羽根園並木通"},
{"zip_code":"5101245","kana_pref":"ﾐｴｹﾝ","kana_city":"ﾐｴｸﾞﾝｺﾓﾉﾁｮｳ","kana_address":"ｵｵﾊﾞﾈｴﾝﾏﾂｶﾞｴﾁｮｳ","pref":"三重県","city":"三重郡菰野町","address":"大羽根園松ケ枝町"},
{"zip_code":"5101323","kana_pref":"ﾐｴｹﾝ","kana_city":"ﾐｴｸﾞﾝｺﾓﾉﾁｮｳ","kana_address":"ｵｼﾞﾏ","pref":"三重県","city":"三重郡菰野町","address":"小島"},
{"zip_code":"5101252","kana_pref":"ﾐｴｹﾝ","kana_city":"ﾐｴｸﾞﾝｺﾓﾉﾁｮｳ","kana_address":"ｵﾄﾜ","pref":"三重県","city":"三重郡菰野町","address":"音羽"},
{"zip_code":"5101231","kana_pref":"ﾐｴｹﾝ","kana_city":"ﾐｴｸﾞﾝｺﾓﾉﾁｮｳ","kana_address":"ｶﾓﾘ","pref":"三重県","city":"三重郡菰野町","address":"神森"},
{"zip_code":"5101224","kana_pref":"ﾐｴｹﾝ","kana_city":"ﾐｴｸﾞﾝｺﾓﾉﾁｮｳ","kana_address":"ｶﾜｷﾀ","pref":"三重県","city":"三重郡菰野町","address":"川北"},
{"zip_code":"5101328","kana_pref":"ﾐｴｹﾝ","kana_city":"ﾐｴｸﾞﾝｺﾓﾉﾁｮｳ","kana_address":"ｷﾘﾊﾀ","pref":"三重県","city":"三重郡菰野町","address":"切畑"},
{"zip_code":"5101233","kana_pref":"ﾐｴｹﾝ","kana_city":"ﾐｴｸﾞﾝｺﾓﾉﾁｮｳ","kana_address":"ｺﾓﾉ","pref":"三重県","city":"三重郡菰野町","address":"菰野"},
{"zip_code":"5101325","kana_pref":"ﾐｴｹﾝ","kana_city":"ﾐｴｸﾞﾝｺﾓﾉﾁｮｳ","kana_address":"ｻｶｷ","pref":"三重県","city":"三重郡菰野町","address":"榊"},
{"zip_code":"5101225","kana_pref":"ﾐｴｹﾝ","kana_city":"ﾐｴｸﾞﾝｺﾓﾉﾁｮｳ","kana_address":"ｼﾓﾑﾗ","pref":"三重県","city":"三重郡菰野町","address":"下村"},
{"zip_code":"5101232","kana_pref":"ﾐｴｹﾝ","kana_city":"ﾐｴｸﾞﾝｺﾓﾉﾁｮｳ","kana_address":"ｼｭｸﾉ","pref":"三重県","city":"三重郡菰野町","address":"宿野"},
{"zip_code":"5101326","kana_pref":"ﾐｴｹﾝ","kana_city":"ﾐｴｸﾞﾝｺﾓﾉﾁｮｳ","kana_address":"ｽｷﾞﾀﾆ","pref":"三重県","city":"三重郡菰野町","address":"杉谷"},
{"zip_code":"5101223","kana_pref":"ﾐｴｹﾝ","kana_city":"ﾐｴｸﾞﾝｺﾓﾉﾁｮｳ","kana_address":"ｽﾜ","pref":"三重県","city":"三重郡菰野町","address":"諏訪"},
{"zip_code":"5101321","kana_pref":"ﾐｴｹﾝ","kana_city":"ﾐｴｸﾞﾝｺﾓﾉﾁｮｳ","kana_address":"ﾀｸﾞﾁ","pref":"三重県","city":"三重郡菰野町","address":"田口"},
{"zip_code":"5101322","kana_pref":"ﾐｴｹﾝ","kana_city":"ﾐｴｸﾞﾝｺﾓﾉﾁｮｳ","kana_address":"ﾀｸﾞﾁｼﾝﾃﾞﾝ","pref":"三重県","city":"三重郡菰野町","address":"田口新田"},
{"zip_code":"5101312","kana_pref":"ﾐｴｹﾝ","kana_city":"ﾐｴｸﾞﾝｺﾓﾉﾁｮｳ","kana_address":"ﾀｹﾅﾘ","pref":"三重県","city":"三重郡菰野町","address":"竹成"},
{"zip_code":"5101324","kana_pref":"ﾐｴｹﾝ","kana_city":"ﾐｴｸﾞﾝｺﾓﾉﾁｮｳ","kana_address":"ﾀﾋﾞｶ","pref":"三重県","city":"三重郡菰野町","address":"田光"},
{"zip_code":"5101251","kana_pref":"ﾐｴｹﾝ","kana_city":"ﾐｴｸﾞﾝｺﾓﾉﾁｮｳ","kana_address":"ﾁｸｻ","pref":"三重県","city":"三重郡菰野町","address":"千草"},
{"zip_code":"5101311","kana_pref":"ﾐｴｹﾝ","kana_city":"ﾐｴｸﾞﾝｺﾓﾉﾁｮｳ","kana_address":"ﾅｶﾞｲ","pref":"三重県","city":"三重郡菰野町","address":"永井"},
{"zip_code":"5101327","kana_pref":"ﾐｴｹﾝ","kana_city":"ﾐｴｸﾞﾝｺﾓﾉﾁｮｳ","kana_address":"ﾈﾉﾋﾗ","pref":"三重県","city":"三重郡菰野町","address":"根の平"},
{"zip_code":"5101236","kana_pref":"ﾐｴｹﾝ","kana_city":"ﾐｴｸﾞﾝｺﾓﾉﾁｮｳ","kana_address":"ﾊﾂﾜｶﾉｻﾄ","pref":"三重県","city":"三重郡菰野町","address":"初若の郷"},
{"zip_code":"5101234","kana_pref":"ﾐｴｹﾝ","kana_city":"ﾐｴｸﾞﾝｺﾓﾉﾁｮｳ","kana_address":"ﾌｸﾑﾗ","pref":"三重県","city":"三重郡菰野町","address":"福村"},
{"zip_code":"5101235","kana_pref":"ﾐｴｹﾝ","kana_city":"ﾐｴｸﾞﾝｺﾓﾉﾁｮｳ","kana_address":"ﾎｳｴｲﾀﾞｲ","pref":"三重県","city":"三重郡菰野町","address":"宝永台"},
{"zip_code":"5101226","kana_pref":"ﾐｴｹﾝ","kana_city":"ﾐｴｸﾞﾝｺﾓﾉﾁｮｳ","kana_address":"ﾖｼｻﾞﾜ","pref":"三重県","city":"三重郡菰野町","address":"吉沢"},
{"zip_code":"5100000","kana_pref":"ﾐｴｹﾝ","kana_city":"ﾐｴｸﾞﾝｱｻﾋﾁｮｳ","kana_address":"","pref":"三重県","city":"三重郡朝日町","address":""},
{"zip_code":"5108104","kana_pref":"ﾐｴｹﾝ","kana_city":"ﾐｴｸﾞﾝｱｻﾋﾁｮｳ","kana_address":"ｳｽﾞﾅﾜ","pref":"三重県","city":"三重郡朝日町","address":"埋縄"},
{"zip_code":"5108102","kana_pref":"ﾐｴｹﾝ","kana_city":"ﾐｴｸﾞﾝｱｻﾋﾁｮｳ","kana_address":"ｵﾌﾞｹ","pref":"三重県","city":"三重郡朝日町","address":"小向"},
{"zip_code":"5108103","kana_pref":"ﾐｴｹﾝ","kana_city":"ﾐｴｸﾞﾝｱｻﾋﾁｮｳ","kana_address":"ｶｷ","pref":"三重県","city":"三重郡朝日町","address":"柿"},
{"zip_code":"5108105","kana_pref":"ﾐｴｹﾝ","kana_city":"ﾐｴｸﾞﾝｱｻﾋﾁｮｳ","kana_address":"ｺｳﾖｳﾀﾞｲ","pref":"三重県","city":"三重郡朝日町","address":"向陽台"},
{"zip_code":"5108107","kana_pref":"ﾐｴｹﾝ","kana_city":"ﾐｴｸﾞﾝｱｻﾋﾁｮｳ","kana_address":"ｼﾗｳﾒﾉｵｶﾆｼ","pref":"三重県","city":"三重郡朝日町","address":"白梅の丘西"},
{"zip_code":"5108106","kana_pref":"ﾐｴｹﾝ","kana_city":"ﾐｴｸﾞﾝｱｻﾋﾁｮｳ","kana_address":"ｼﾗｳﾒﾉｵｶﾋｶﾞｼ","pref":"三重県","city":"三重郡朝日町","address":"白梅の丘東"},
{"zip_code":"5108101","kana_pref":"ﾐｴｹﾝ","kana_city":"ﾐｴｸﾞﾝｱｻﾋﾁｮｳ","kana_address":"ﾅｵ","pref":"三重県","city":"三重郡朝日町","address":"縄生"},
{"zip_code":"5100000","kana_pref":"ﾐｴｹﾝ","kana_city":"ﾐｴｸﾞﾝｶﾜｺﾞｴﾁｮｳ","kana_address":"","pref":"三重県","city":"三重郡川越町","address":""},
{"zip_code":"5108113","kana_pref":"ﾐｴｹﾝ","kana_city":"ﾐｴｸﾞﾝｶﾜｺﾞｴﾁｮｳ","kana_address":"ｶﾒｵｼﾝﾃﾞﾝ","pref":"三重県","city":"三重郡川越町","address":"亀尾新田"},
{"zip_code":"5108114","kana_pref":"ﾐｴｹﾝ","kana_city":"ﾐｴｸﾞﾝｶﾜｺﾞｴﾁｮｳ","kana_address":"ｶﾒｻﾞｷｼﾝﾃﾞﾝ","pref":"三重県","city":"三重郡川越町","address":"亀崎新田"},
{"zip_code":"5108112","kana_pref":"ﾐｴｹﾝ","kana_city":"ﾐｴｸﾞﾝｶﾜｺﾞｴﾁｮｳ","kana_address":"ｶﾒｽﾞｼﾝﾃﾞﾝ","pref":"三重県","city":"三重郡川越町","address":"亀須新田"},
{"zip_code":"5108125","kana_pref":"ﾐｴｹﾝ","kana_city":"ﾐｴｸﾞﾝｶﾜｺﾞｴﾁｮｳ","kana_address":"ｷﾀﾌｸｻｷ","pref":"三重県","city":"三重郡川越町","address":"北福崎"},
{"zip_code":"5108121","kana_pref":"ﾐｴｹﾝ","kana_city":"ﾐｴｸﾞﾝｶﾜｺﾞｴﾁｮｳ","kana_address":"ﾀｶﾏﾂ","pref":"三重県","city":"三重郡川越町","address":"高松"},
{"zip_code":"5108111","kana_pref":"ﾐｴｹﾝ","kana_city":"ﾐｴｸﾞﾝｶﾜｺﾞｴﾁｮｳ","kana_address":"ﾄｳｼﾝﾃﾞﾝ","pref":"三重県","city":"三重郡川越町","address":"当新田"},
{"zip_code":"5108122","kana_pref":"ﾐｴｹﾝ","kana_city":"ﾐｴｸﾞﾝｶﾜｺﾞｴﾁｮｳ","kana_address":"ﾄﾖﾀﾞ","pref":"三重県","city":"三重郡川越町","address":"豊田"},
{"zip_code":"5108123","kana_pref":"ﾐｴｹﾝ","kana_city":"ﾐｴｸﾞﾝｶﾜｺﾞｴﾁｮｳ","kana_address":"ﾄﾖﾀﾞｲｯｼｷ","pref":"三重県","city":"三重郡川越町","address":"豊田一色"},
{"zip_code":"5108124","kana_pref":"ﾐｴｹﾝ","kana_city":"ﾐｴｸﾞﾝｶﾜｺﾞｴﾁｮｳ","kana_address":"ﾐﾅﾐﾌｸｻｷ","pref":"三重県","city":"三重郡川越町","address":"南福崎"}]}