{"zip_code":[
{"zip_code":"5130000","kana_pref":"ﾐｴｹﾝ","kana_city":"ｽｽﾞｶｼ","kana_address":"","pref":"三重県","city":"鈴鹿市","address":""},
{"zip_code":"5130828","kana_pref":"ﾐｴｹﾝ","kana_city":"ｽｽﾞｶｼ","kana_address":"ｱｺｿﾁｮｳ","pref":"三重県","city":"鈴鹿市","address":"阿古曽町"},
{"zip_code":"5130802","kana_pref":"ﾐｴｹﾝ","kana_city":"ｽｽﾞｶｼ","kana_address":"ｲｲﾉｼﾞｹﾁｮｳ","pref":"三重県","city":"鈴鹿市","address":"飯野寺家町"},
{"zip_code":"5130032","kana_pref":"ﾐｴｹﾝ","kana_city":"ｽｽﾞｶｼ","kana_address":"ｲｹﾀﾞﾁｮｳ","pref":"三重県","city":"鈴鹿市","address":"池田町"},
{"zip_code":"5130855","kana_pref":"ﾐｴｹﾝ","kana_city":"ｽｽﾞｶｼ","kana_address":"ｲｼｶﾞｷ","pref":"三重県","city":"鈴鹿市","address":"石垣"},
{"zip_code":"5130012","kana_pref":"ﾐｴｹﾝ","kana_city":"ｽｽﾞｶｼ","kana_address":"ｲｼﾔｸｼﾁｮｳ","pref":"三重県","city":"鈴鹿市","address":"石薬師町"},
{"zip_code":"5130006","kana_pref":"ﾐｴｹﾝ","kana_city":"ｽｽﾞｶｼ","kana_address":"ｲｽﾞﾐﾁｮｳ","pref":"三重県","city":"鈴鹿市","address":"和泉町"},
{"zip_code":"5130031","kana_pref":"ﾐｴｹﾝ","kana_city":"ｽｽﾞｶｼ","kana_address":"ｲﾁﾉﾐﾔﾁｮｳ","pref":"三重県","city":"鈴鹿市","address":"一ノ宮町"},
{"zip_code":"5130018","kana_pref":"ﾐｴｹﾝ","kana_city":"ｽｽﾞｶｼ","kana_address":"ｳｴﾀﾞﾁｮｳ","pref":"三重県","city":"鈴鹿市","address":"上田町"},
{"zip_code":"5130017","kana_pref":"ﾐｴｹﾝ","kana_city":"ｽｽﾞｶｼ","kana_address":"ｳｴﾉﾁｮｳ","pref":"三重県","city":"鈴鹿市","address":"上野町"},
{"zip_code":"5130827","kana_pref":"ﾐｴｹﾝ","kana_city":"ｽｽﾞｶｼ","kana_address":"ｵｵｲｹ","pref":"三重県","city":"鈴鹿市","address":"大池"},
{"zip_code":"5130027","kana_pref":"ﾐｴｹﾝ","kana_city":"ｽｽﾞｶｼ","kana_address":"ｵｶﾀﾞ","pref":"三重県","city":"鈴鹿市","address":"岡田"},
{"zip_code":"5130028","kana_pref":"ﾐｴｹﾝ","kana_city":"ｽｽﾞｶｼ","kana_address":"ｵｶﾀﾞﾁｮｳ","pref":"三重県","city":"鈴鹿市","address":"岡田町"},
{"zip_code":"5130007","kana_pref":"ﾐｴｹﾝ","kana_city":"ｽｽﾞｶｼ","kana_address":"ｵﾀﾞﾁｮｳ","pref":"三重県","city":"鈴鹿市","address":"小田町"},
{"zip_code":"5130021","kana_pref":"ﾐｴｹﾝ","kana_city":"ｽｽﾞｶｼ","kana_address":"ｶｲﾁｮｳ","pref":"三重県","city":"鈴鹿市","address":"甲斐町"},
{"zip_code":"5130004","kana_pref":"ﾐｴｹﾝ","kana_city":"ｽｽﾞｶｼ","kana_address":"ｶｻﾄﾞ","pref":"三重県","city":"鈴鹿市","address":"加佐登"},
{"zip_code":"5130003","kana_pref":"ﾐｴｹﾝ","kana_city":"ｽｽﾞｶｼ","kana_address":"ｶｻﾄﾞﾁｮｳ","pref":"三重県","city":"鈴鹿市","address":"加佐登町"},
{"zip_code":"5130056","kana_pref":"ﾐｴｹﾝ","kana_city":"ｽｽﾞｶｼ","kana_address":"ｶﾐﾐﾀﾞ","pref":"三重県","city":"鈴鹿市","address":"上箕田"},
{"zip_code":"5130055","kana_pref":"ﾐｴｹﾝ","kana_city":"ｽｽﾞｶｼ","kana_address":"ｶﾐﾐﾀﾞﾁｮｳ","pref":"三重県","city":"鈴鹿市","address":"上箕田町"},
{"zip_code":"5130801","kana_pref":"ﾐｴｹﾝ","kana_city":"ｽｽﾞｶｼ","kana_address":"ｶﾝﾍﾞ","pref":"三重県","city":"鈴鹿市","address":"神戸"},
{"zip_code":"5130801","kana_pref":"ﾐｴｹﾝ","kana_city":"ｽｽﾞｶｼ","kana_address":"ｶﾝﾍﾞﾎﾝﾀﾞﾏﾁ","pref":"三重県","city":"鈴鹿市","address":"神戸本多町"},
{"zip_code":"5131121","kana_pref":"ﾐｴｹﾝ","kana_city":"ｽｽﾞｶｼ","kana_address":"ｷｼﾀﾁｮｳ","pref":"三重県","city":"鈴鹿市","address":"岸田町"},
{"zip_code":"5130813","kana_pref":"ﾐｴｹﾝ","kana_city":"ｽｽﾞｶｼ","kana_address":"ｷﾀﾀﾏｶﾞｷﾁｮｳ","pref":"三重県","city":"鈴鹿市","address":"北玉垣町"},
{"zip_code":"5130049","kana_pref":"ﾐｴｹﾝ","kana_city":"ｽｽﾞｶｼ","kana_address":"ｷﾀﾅｺﾞﾁｮｳ","pref":"三重県","city":"鈴鹿市","address":"北長太町"},
{"zip_code":"5130045","kana_pref":"ﾐｴｹﾝ","kana_city":"ｽｽﾞｶｼ","kana_address":"ｷﾀﾎﾘｴ","pref":"三重県","city":"鈴鹿市","address":"北堀江"},
{"zip_code":"5130044","kana_pref":"ﾐｴｹﾝ","kana_city":"ｽｽﾞｶｼ","kana_address":"ｷﾀﾎﾘｴﾁｮｳ","pref":"三重県","city":"鈴鹿市","address":"北堀江町"},
{"zip_code":"5130015","kana_pref":"ﾐｴｹﾝ","kana_city":"ｽｽﾞｶｼ","kana_address":"ｷﾀﾞﾁｮｳ","pref":"三重県","city":"鈴鹿市","address":"木田町"},
{"zip_code":"5130005","kana_pref":"ﾐｴｹﾝ","kana_city":"ｽｽﾞｶｼ","kana_address":"ｸﾐｶﾞﾜﾗﾁｮｳ","pref":"三重県","city":"鈴鹿市","address":"汲川原町"},
{"zip_code":"5130023","kana_pref":"ﾐｴｹﾝ","kana_city":"ｽｽﾞｶｼ","kana_address":"ｺｳﾀﾞﾁｮｳ","pref":"三重県","city":"鈴鹿市","address":"河田町"},
{"zip_code":"5130836","kana_pref":"ﾐｴｹﾝ","kana_city":"ｽｽﾞｶｼ","kana_address":"ｺｳﾁｮｳ","pref":"三重県","city":"鈴鹿市","address":"国府町"},
{"zip_code":"5130013","kana_pref":"ﾐｴｹﾝ","kana_city":"ｽｽﾞｶｼ","kana_address":"ｺｸﾌﾞﾁｮｳ","pref":"三重県","city":"鈴鹿市","address":"国分町"},
{"zip_code":"5130817","kana_pref":"ﾐｴｹﾝ","kana_city":"ｽｽﾞｶｼ","kana_address":"ｻｸﾗｼﾞﾏﾁｮｳ","pref":"三重県","city":"鈴鹿市","address":"桜島町"},
{"zip_code":"5130806","kana_pref":"ﾐｴｹﾝ","kana_city":"ｽｽﾞｶｼ","kana_address":"ｻﾝｼﾞｮ","pref":"三重県","city":"鈴鹿市","address":"算所"},
{"zip_code":"5130805","kana_pref":"ﾐｴｹﾝ","kana_city":"ｽｽﾞｶｼ","kana_address":"ｻﾝｼﾞｮﾁｮｳ","pref":"三重県","city":"鈴鹿市","address":"算所町"},
{"zip_code":"5130821","kana_pref":"ﾐｴｹﾝ","kana_city":"ｽｽﾞｶｼ","kana_address":"ｼﾞｼﾏﾁ","pref":"三重県","city":"鈴鹿市","address":"地子町"},
{"zip_code":"5131123","kana_pref":"ﾐｴｹﾝ","kana_city":"ｽｽﾞｶｼ","kana_address":"ｼﾓｵｵｸﾎﾞﾁｮｳ","pref":"三重県","city":"鈴鹿市","address":"下大久保町"},
{"zip_code":"5130052","kana_pref":"ﾐｴｹﾝ","kana_city":"ｽｽﾞｶｼ","kana_address":"ｼﾓﾐﾀﾞ","pref":"三重県","city":"鈴鹿市","address":"下箕田"},
{"zip_code":"5130051","kana_pref":"ﾐｴｹﾝ","kana_city":"ｽｽﾞｶｼ","kana_address":"ｼﾓﾐﾀﾞﾁｮｳ","pref":"三重県","city":"鈴鹿市","address":"下箕田町"},
{"zip_code":"5131124","kana_pref":"ﾐｴｹﾝ","kana_city":"ｽｽﾞｶｼ","kana_address":"ｼﾞﾕｳｶﾞｵｶ","pref":"三重県","city":"鈴鹿市","address":"自由ヶ丘"},
{"zip_code":"5130833","kana_pref":"ﾐｴｹﾝ","kana_city":"ｽｽﾞｶｼ","kana_address":"ｼｮｳﾉｷｮｳｼﾝ","pref":"三重県","city":"鈴鹿市","address":"庄野共進"},
{"zip_code":"5130834","kana_pref":"ﾐｴｹﾝ","kana_city":"ｽｽﾞｶｼ","kana_address":"ｼｮｳﾉﾊﾔﾏ","pref":"三重県","city":"鈴鹿市","address":"庄野羽山"},
{"zip_code":"5130832","kana_pref":"ﾐｴｹﾝ","kana_city":"ｽｽﾞｶｼ","kana_address":"ｼｮｳﾉﾋｶﾞｼ","pref":"三重県","city":"鈴鹿市","address":"庄野東"},
{"zip_code":"5130831","kana_pref":"ﾐｴｹﾝ","kana_city":"ｽｽﾞｶｼ","kana_address":"ｼｮｳﾉﾁｮｳ","pref":"三重県","city":"鈴鹿市","address":"庄野町"},
{"zip_code":"5130854","kana_pref":"ﾐｴｹﾝ","kana_city":"ｽｽﾞｶｼ","kana_address":"ｽｴﾋﾛｷﾀ","pref":"三重県","city":"鈴鹿市","address":"末広北"},
{"zip_code":"5130822","kana_pref":"ﾐｴｹﾝ","kana_city":"ｽｽﾞｶｼ","kana_address":"ｽｴﾋﾛﾁｮｳ","pref":"三重県","city":"鈴鹿市","address":"末広町"},
{"zip_code":"5130852","kana_pref":"ﾐｴｹﾝ","kana_city":"ｽｽﾞｶｼ","kana_address":"ｽｴﾋﾛﾆｼ","pref":"三重県","city":"鈴鹿市","address":"末広西"},
{"zip_code":"5130851","kana_pref":"ﾐｴｹﾝ","kana_city":"ｽｽﾞｶｼ","kana_address":"ｽｴﾋﾛﾋｶﾞｼ","pref":"三重県","city":"鈴鹿市","address":"末広東"},
{"zip_code":"5130853","kana_pref":"ﾐｴｹﾝ","kana_city":"ｽｽﾞｶｼ","kana_address":"ｽｴﾋﾛﾐﾅﾐ","pref":"三重県","city":"鈴鹿市","address":"末広南"},
{"zip_code":"5130034","kana_pref":"ﾐｴｹﾝ","kana_city":"ｽｽﾞｶｼ","kana_address":"ｽｶ","pref":"三重県","city":"鈴鹿市","address":"須賀"},
{"zip_code":"5130033","kana_pref":"ﾐｴｹﾝ","kana_city":"ｽｽﾞｶｼ","kana_address":"ｽｶﾁｮｳ","pref":"三重県","city":"鈴鹿市","address":"須賀町"},
{"zip_code":"5130826","kana_pref":"ﾐｴｹﾝ","kana_city":"ｽｽﾞｶｼ","kana_address":"ｽﾐﾖｼ","pref":"三重県","city":"鈴鹿市","address":"住吉"},
{"zip_code":"5130825","kana_pref":"ﾐｴｹﾝ","kana_city":"ｽｽﾞｶｼ","kana_address":"ｽﾐﾖｼﾁｮｳ","pref":"三重県","city":"鈴鹿市","address":"住吉町"},
{"zip_code":"5130019","kana_pref":"ﾐｴｹﾝ","kana_city":"ｽｽﾞｶｼ","kana_address":"ﾀｶｵｶﾀﾞｲ","pref":"三重県","city":"鈴鹿市","address":"高岡台"},
{"zip_code":"5130014","kana_pref":"ﾐｴｹﾝ","kana_city":"ｽｽﾞｶｼ","kana_address":"ﾀｶｵｶﾁｮｳ","pref":"三重県","city":"鈴鹿市","address":"高岡町"},
{"zip_code":"5130011","kana_pref":"ﾐｴｹﾝ","kana_city":"ｽｽﾞｶｼ","kana_address":"ﾀｶﾂｶﾁｮｳ","pref":"三重県","city":"鈴鹿市","address":"高塚町"},
{"zip_code":"5130025","kana_pref":"ﾐｴｹﾝ","kana_city":"ｽｽﾞｶｼ","kana_address":"ﾀｹﾉ","pref":"三重県","city":"鈴鹿市","address":"竹野"},
{"zip_code":"5130026","kana_pref":"ﾐｴｹﾝ","kana_city":"ｽｽﾞｶｼ","kana_address":"ﾀｹﾉﾁｮｳ","pref":"三重県","city":"鈴鹿市","address":"竹野町"},
{"zip_code":"5130002","kana_pref":"ﾐｴｹﾝ","kana_city":"ｽｽﾞｶｼ","kana_address":"ﾂｶﾞﾁｮｳ","pref":"三重県","city":"鈴鹿市","address":"津賀町"},
{"zip_code":"5130823","kana_pref":"ﾐｴｹﾝ","kana_city":"ｽｽﾞｶｼ","kana_address":"ﾄﾞｳﾊｸ","pref":"三重県","city":"鈴鹿市","address":"道伯"},
{"zip_code":"5130824","kana_pref":"ﾐｴｹﾝ","kana_city":"ｽｽﾞｶｼ","kana_address":"ﾄﾞｳﾊｸﾁｮｳ","pref":"三重県","city":"鈴鹿市","address":"道伯町"},
{"zip_code":"5130037","kana_pref":"ﾐｴｹﾝ","kana_city":"ｽｽﾞｶｼ","kana_address":"ﾄﾐﾔ","pref":"三重県","city":"鈴鹿市","address":"十宮"},
{"zip_code":"5130038","kana_pref":"ﾐｴｹﾝ","kana_city":"ｽｽﾞｶｼ","kana_address":"ﾄﾐﾔﾁｮｳ","pref":"三重県","city":"鈴鹿市","address":"十宮町"},
{"zip_code":"5130009","kana_pref":"ﾐｴｹﾝ","kana_city":"ｽｽﾞｶｼ","kana_address":"ﾅｶﾄﾐﾀﾞﾁｮｳ","pref":"三重県","city":"鈴鹿市","address":"中冨田町"},
{"zip_code":"5130054","kana_pref":"ﾐｴｹﾝ","kana_city":"ｽｽﾞｶｼ","kana_address":"ﾅｶﾐﾀﾞ","pref":"三重県","city":"鈴鹿市","address":"中箕田"},
{"zip_code":"5130053","kana_pref":"ﾐｴｹﾝ","kana_city":"ｽｽﾞｶｼ","kana_address":"ﾅｶﾐﾀﾞﾁｮｳ","pref":"三重県","city":"鈴鹿市","address":"中箕田町"},
{"zip_code":"5130042","kana_pref":"ﾐｴｹﾝ","kana_city":"ｽｽﾞｶｼ","kana_address":"ﾅｺﾞｱｻﾋﾏﾁ","pref":"三重県","city":"鈴鹿市","address":"長太旭町"},
{"zip_code":"5130043","kana_pref":"ﾐｴｹﾝ","kana_city":"ｽｽﾞｶｼ","kana_address":"ﾅｺﾞｻｶｴﾏﾁ","pref":"三重県","city":"鈴鹿市","address":"長太栄町"},
{"zip_code":"5130041","kana_pref":"ﾐｴｹﾝ","kana_city":"ｽｽﾞｶｼ","kana_address":"ﾅｺﾞｼﾝﾏﾁ","pref":"三重県","city":"鈴鹿市","address":"長太新町"},
{"zip_code":"5130809","kana_pref":"ﾐｴｹﾝ","kana_city":"ｽｽﾞｶｼ","kana_address":"ﾆｼｼﾞｮｳ","pref":"三重県","city":"鈴鹿市","address":"西条"},
{"zip_code":"5130808","kana_pref":"ﾐｴｹﾝ","kana_city":"ｽｽﾞｶｼ","kana_address":"ﾆｼｼﾞｮｳﾁｮｳ","pref":"三重県","city":"鈴鹿市","address":"西條町"},
{"zip_code":"5130815","kana_pref":"ﾐｴｹﾝ","kana_city":"ｽｽﾞｶｼ","kana_address":"ﾆｼﾀﾏｶﾞｷﾁｮｳ","pref":"三重県","city":"鈴鹿市","address":"西玉垣町"},
{"zip_code":"5130008","kana_pref":"ﾐｴｹﾝ","kana_city":"ｽｽﾞｶｼ","kana_address":"ﾆｼﾄﾐﾀﾞﾁｮｳ","pref":"三重県","city":"鈴鹿市","address":"西冨田町"},
{"zip_code":"5130024","kana_pref":"ﾐｴｹﾝ","kana_city":"ｽｽﾞｶｼ","kana_address":"ﾉﾝﾍﾞ","pref":"三重県","city":"鈴鹿市","address":"野辺"},
{"zip_code":"5130022","kana_pref":"ﾐｴｹﾝ","kana_city":"ｽｽﾞｶｼ","kana_address":"ﾉﾝﾍﾞﾁｮｳ","pref":"三重県","city":"鈴鹿市","address":"野辺町"},
{"zip_code":"5130812","kana_pref":"ﾐｴｹﾝ","kana_city":"ｽｽﾞｶｼ","kana_address":"ﾊｾﾞﾁｮｳ","pref":"三重県","city":"鈴鹿市","address":"土師町"},
{"zip_code":"5130837","kana_pref":"ﾐｴｹﾝ","kana_city":"ｽｽﾞｶｼ","kana_address":"ﾊﾁﾉﾁｮｳ","pref":"三重県","city":"鈴鹿市","address":"八野町"},
{"zip_code":"5131122","kana_pref":"ﾐｴｹﾝ","kana_city":"ｽｽﾞｶｼ","kana_address":"ﾊﾅｶﾞﾜﾁｮｳ","pref":"三重県","city":"鈴鹿市","address":"花川町"},
{"zip_code":"5130058","kana_pref":"ﾐｴｹﾝ","kana_city":"ｽｽﾞｶｼ","kana_address":"ﾊﾔｻｷ","pref":"三重県","city":"鈴鹿市","address":"林崎"},
{"zip_code":"5130059","kana_pref":"ﾐｴｹﾝ","kana_city":"ｽｽﾞｶｼ","kana_address":"ﾊﾔｻｷﾁｮｳ","pref":"三重県","city":"鈴鹿市","address":"林崎町"},
{"zip_code":"5130814","kana_pref":"ﾐｴｹﾝ","kana_city":"ｽｽﾞｶｼ","kana_address":"ﾋｶﾞｼﾀﾏｶﾞｷﾁｮｳ","pref":"三重県","city":"鈴鹿市","address":"東玉垣町"},
{"zip_code":"5130819","kana_pref":"ﾐｴｹﾝ","kana_city":"ｽｽﾞｶｼ","kana_address":"ﾋﾀﾞﾁｮｳ","pref":"三重県","city":"鈴鹿市","address":"肥田町"},
{"zip_code":"5130844","kana_pref":"ﾐｴｹﾝ","kana_city":"ｽｽﾞｶｼ","kana_address":"ﾋﾗﾀ","pref":"三重県","city":"鈴鹿市","address":"平田"},
{"zip_code":"5130845","kana_pref":"ﾐｴｹﾝ","kana_city":"ｽｽﾞｶｼ","kana_address":"ﾋﾗﾀｼﾝﾏﾁ","pref":"三重県","city":"鈴鹿市","address":"平田新町"},
{"zip_code":"5130847","kana_pref":"ﾐｴｹﾝ","kana_city":"ｽｽﾞｶｼ","kana_address":"ﾋﾗﾀﾁｮｳ","pref":"三重県","city":"鈴鹿市","address":"平田町"},
{"zip_code":"5130846","kana_pref":"ﾐｴｹﾝ","kana_city":"ｽｽﾞｶｼ","kana_address":"ﾋﾗﾀﾅｶﾏﾁ","pref":"三重県","city":"鈴鹿市","address":"平田中町"},
{"zip_code":"5130843","kana_pref":"ﾐｴｹﾝ","kana_city":"ｽｽﾞｶｼ","kana_address":"ﾋﾗﾀﾋｶﾞｼﾏﾁ","pref":"三重県","city":"鈴鹿市","address":"平田東町"},
{"zip_code":"5130848","kana_pref":"ﾐｴｹﾝ","kana_city":"ｽｽﾞｶｼ","kana_address":"ﾋﾗﾀﾎﾝﾏﾁ","pref":"三重県","city":"鈴鹿市","address":"平田本町"},
{"zip_code":"5130835","kana_pref":"ﾐｴｹﾝ","kana_city":"ｽｽﾞｶｼ","kana_address":"ﾋﾗﾉﾁｮｳ","pref":"三重県","city":"鈴鹿市","address":"平野町"},
{"zip_code":"5130001","kana_pref":"ﾐｴｹﾝ","kana_city":"ｽｽﾞｶｼ","kana_address":"ﾋﾛｾﾁｮｳ","pref":"三重県","city":"鈴鹿市","address":"広瀬町"},
{"zip_code":"5130807","kana_pref":"ﾐｴｹﾝ","kana_city":"ｽｽﾞｶｼ","kana_address":"ﾐｯｶｲﾁ","pref":"三重県","city":"鈴鹿市","address":"三日市"},
{"zip_code":"5130803","kana_pref":"ﾐｴｹﾝ","kana_city":"ｽｽﾞｶｼ","kana_address":"ﾐｯｶｲﾁﾁｮｳ","pref":"三重県","city":"鈴鹿市","address":"三日市町"},
{"zip_code":"5130804","kana_pref":"ﾐｴｹﾝ","kana_city":"ｽｽﾞｶｼ","kana_address":"ﾐｯｶｲﾁﾐﾅﾐ","pref":"三重県","city":"鈴鹿市","address":"三日市南"},
{"zip_code":"5130816","kana_pref":"ﾐｴｹﾝ","kana_city":"ｽｽﾞｶｼ","kana_address":"ﾐﾅﾐﾀﾏｶﾞｷﾁｮｳ","pref":"三重県","city":"鈴鹿市","address":"南玉垣町"},
{"zip_code":"5130048","kana_pref":"ﾐｴｹﾝ","kana_city":"ｽｽﾞｶｼ","kana_address":"ﾐﾅﾐﾅｺﾞﾁｮｳ","pref":"三重県","city":"鈴鹿市","address":"南長太町"},
{"zip_code":"5130057","kana_pref":"ﾐｴｹﾝ","kana_city":"ｽｽﾞｶｼ","kana_address":"ﾐﾅﾐﾊﾔｻｷﾁｮｳ","pref":"三重県","city":"鈴鹿市","address":"南林崎町"},
{"zip_code":"5130046","kana_pref":"ﾐｴｹﾝ","kana_city":"ｽｽﾞｶｼ","kana_address":"ﾐﾅﾐﾎﾘｴ","pref":"三重県","city":"鈴鹿市","address":"南堀江"},
{"zip_code":"5130047","kana_pref":"ﾐｴｹﾝ","kana_city":"ｽｽﾞｶｼ","kana_address":"ﾐﾅﾐﾎﾘｴﾁｮｳ","pref":"三重県","city":"鈴鹿市","address":"南堀江町"},
{"zip_code":"5130818","kana_pref":"ﾐｴｹﾝ","kana_city":"ｽｽﾞｶｼ","kana_address":"ﾔｽﾂﾞｶﾁｮｳ","pref":"三重県","city":"鈴鹿市","address":"安塚町"},
{"zip_code":"5130811","kana_pref":"ﾐｴｹﾝ","kana_city":"ｽｽﾞｶｼ","kana_address":"ﾔﾅｷﾞﾁｮｳ","pref":"三重県","city":"鈴鹿市","address":"柳町"},
{"zip_code":"5130036","kana_pref":"ﾐｴｹﾝ","kana_city":"ｽｽﾞｶｼ","kana_address":"ﾔﾊﾞｾ","pref":"三重県","city":"鈴鹿市","address":"矢橋"},
{"zip_code":"5130035","kana_pref":"ﾐｴｹﾝ","kana_city":"ｽｽﾞｶｼ","kana_address":"ﾔﾊﾞｾﾁｮｳ","pref":"三重県","city":"鈴鹿市","address":"矢橋町"},
{"zip_code":"5130016","kana_pref":"ﾐｴｹﾝ","kana_city":"ｽｽﾞｶｼ","kana_address":"ﾔﾏﾍﾞﾁｮｳ","pref":"三重県","city":"鈴鹿市","address":"山辺町"},
{"zip_code":"5130842","kana_pref":"ﾐｴｹﾝ","kana_city":"ｽｽﾞｶｼ","kana_address":"ﾕｹﾞ","pref":"三重県","city":"鈴鹿市","address":"弓削"},
{"zip_code":"5130841","kana_pref":"ﾐｴｹﾝ","kana_city":"ｽｽﾞｶｼ","kana_address":"ﾕｹﾞﾁｮｳ","pref":"三重県","city":"鈴鹿市","address":"弓削町"}]}