{"zip_code":[
{"zip_code":"5152523","kana_pref":"ﾐｴｹﾝ","kana_city":"ﾂｼ","kana_address":"ｲﾁｼﾁｮｳｲｳ","pref":"三重県","city":"津市","address":"一志町井生"},
{"zip_code":"5152525","kana_pref":"ﾐｴｹﾝ","kana_city":"ﾂｼ","kana_address":"ｲﾁｼﾁｮｳｲｼﾊﾞｼ","pref":"三重県","city":"津市","address":"一志町石橋"},
{"zip_code":"5152521","kana_pref":"ﾐｴｹﾝ","kana_city":"ﾂｼ","kana_address":"ｲﾁｼﾁｮｳｲｾｷﾞ","pref":"三重県","city":"津市","address":"一志町井関"},
{"zip_code":"5152524","kana_pref":"ﾐｴｹﾝ","kana_city":"ﾂｼ","kana_address":"ｲﾁｼﾁｮｳｵｵﾉｷ","pref":"三重県","city":"津市","address":"一志町大仰"},
{"zip_code":"5152514","kana_pref":"ﾐｴｹﾝ","kana_city":"ﾂｼ","kana_address":"ｲﾁｼﾁｮｳｵﾔﾏ","pref":"三重県","city":"津市","address":"一志町小山"},
{"zip_code":"5152514","kana_pref":"ﾐｴｹﾝ","kana_city":"ﾂｼ","kana_address":"ｲﾁｼﾁｮｳｵﾔﾏ","pref":"三重県","city":"津市","address":"一志町小山"},
{"zip_code":"5152511","kana_pref":"ﾐｴｹﾝ","kana_city":"ﾂｼ","kana_address":"ｲﾁｼﾁｮｳｶﾀﾉ","pref":"三重県","city":"津市","address":"一志町片野"},
{"zip_code":"5152505","kana_pref":"ﾐｴｹﾝ","kana_city":"ﾂｼ","kana_address":"ｲﾁｼﾁｮｳｺﾍﾞｷ","pref":"三重県","city":"津市","address":"一志町小戸木"},
{"zip_code":"5152501","kana_pref":"ﾐｴｹﾝ","kana_city":"ﾂｼ","kana_address":"ｲﾁｼﾁｮｳｼｮｳﾑﾗ","pref":"三重県","city":"津市","address":"一志町庄村"},
{"zip_code":"5152512","kana_pref":"ﾐｴｹﾝ","kana_city":"ﾂｼ","kana_address":"ｲﾁｼﾁｮｳｼﾝｻﾜﾀﾞ","pref":"三重県","city":"津市","address":"一志町新沢田"},
{"zip_code":"5152526","kana_pref":"ﾐｴｹﾝ","kana_city":"ﾂｼ","kana_address":"ｲﾁｼﾁｮｳｿﾉｸﾗ","pref":"三重県","city":"津市","address":"一志町其倉"},
{"zip_code":"5152502","kana_pref":"ﾐｴｹﾝ","kana_city":"ﾂｼ","kana_address":"ｲﾁｼﾁｮｳｿﾉﾑﾗ","pref":"三重県","city":"津市","address":"一志町其村"},
{"zip_code":"5152504","kana_pref":"ﾐｴｹﾝ","kana_city":"ﾂｼ","kana_address":"ｲﾁｼﾁｮｳﾀｶﾉ","pref":"三重県","city":"津市","address":"一志町高野"},
{"zip_code":"5152504","kana_pref":"ﾐｴｹﾝ","kana_city":"ﾂｼ","kana_address":"ｲﾁｼﾁｮｳﾀｶﾉ","pref":"三重県","city":"津市","address":"一志町高野"},
{"zip_code":"5152504","kana_pref":"ﾐｴｹﾝ","kana_city":"ﾂｼ","kana_address":"ｲﾁｼﾁｮｳﾀｶﾉ","pref":"三重県","city":"津市","address":"一志町高野"},
{"zip_code":"5152516","kana_pref":"ﾐｴｹﾝ","kana_city":"ﾂｼ","kana_address":"ｲﾁｼﾁｮｳﾀｼﾞﾘ","pref":"三重県","city":"津市","address":"一志町田尻"},
{"zip_code":"5152513","kana_pref":"ﾐｴｹﾝ","kana_city":"ﾂｼ","kana_address":"ｲﾁｼﾁｮｳﾆｼﾞｶﾞｵｶ","pref":"三重県","city":"津市","address":"一志町虹が丘"},
{"zip_code":"5152522","kana_pref":"ﾐｴｹﾝ","kana_city":"ﾂｼ","kana_address":"ｲﾁｼﾁｮｳﾊｾﾞ","pref":"三重県","city":"津市","address":"一志町波瀬"},
{"zip_code":"5152515","kana_pref":"ﾐｴｹﾝ","kana_city":"ﾂｼ","kana_address":"ｲﾁｼﾁｮｳﾊﾀ","pref":"三重県","city":"津市","address":"一志町八太"},
{"zip_code":"5152515","kana_pref":"ﾐｴｹﾝ","kana_city":"ﾂｼ","kana_address":"ｲﾁｼﾁｮｳﾊﾀ","pref":"三重県","city":"津市","address":"一志町八太"},
{"zip_code":"5152503","kana_pref":"ﾐｴｹﾝ","kana_city":"ﾂｼ","kana_address":"ｲﾁｼﾁｮｳﾋｵｷ","pref":"三重県","city":"津市","address":"一志町日置"},
{"zip_code":"5152517","kana_pref":"ﾐｴｹﾝ","kana_city":"ﾂｼ","kana_address":"ｲﾁｼﾁｮｳﾐﾉﾘｶﾞｵｶ","pref":"三重県","city":"津市","address":"一志町みのりケ丘"},
{"zip_code":"5152617","kana_pref":"ﾐｴｹﾝ","kana_city":"ﾂｼ","kana_address":"ｸﾞﾘﾝﾀｳﾝｻｶｷﾊﾞﾗ","pref":"三重県","city":"津市","address":"グリンタウン榊原"},
{"zip_code":"5152605","kana_pref":"ﾐｴｹﾝ","kana_city":"ﾂｼ","kana_address":"ﾊｸｻﾝﾀﾞｲ","pref":"三重県","city":"津市","address":"白山台"},
{"zip_code":"5152614","kana_pref":"ﾐｴｹﾝ","kana_city":"ﾂｼ","kana_address":"ﾊｸｻﾝﾁｮｳｲｾﾐ","pref":"三重県","city":"津市","address":"白山町伊勢見"},
{"zip_code":"5152616","kana_pref":"ﾐｴｹﾝ","kana_city":"ﾂｼ","kana_address":"ﾊｸｻﾝﾁｮｳｲﾅｶｹ","pref":"三重県","city":"津市","address":"白山町稲垣"},
{"zip_code":"5153137","kana_pref":"ﾐｴｹﾝ","kana_city":"ﾂｼ","kana_address":"ﾊｸｻﾝﾁｮｳｵｵﾊﾞﾗ","pref":"三重県","city":"津市","address":"白山町大原"},
{"zip_code":"5152604","kana_pref":"ﾐｴｹﾝ","kana_city":"ﾂｼ","kana_address":"ﾊｸｻﾝﾁｮｳｵｶ","pref":"三重県","city":"津市","address":"白山町岡"},
{"zip_code":"5152624","kana_pref":"ﾐｴｹﾝ","kana_city":"ﾂｼ","kana_address":"ﾊｸｻﾝﾁｮｳｶｲﾄ","pref":"三重県","city":"津市","address":"白山町垣内"},
{"zip_code":"5152623","kana_pref":"ﾐｴｹﾝ","kana_city":"ﾂｼ","kana_address":"ﾊｸｻﾝﾁｮｳｶﾐﾉﾑﾗ","pref":"三重県","city":"津市","address":"白山町上ノ村"},
{"zip_code":"5152603","kana_pref":"ﾐｴｹﾝ","kana_city":"ﾂｼ","kana_address":"ﾊｸｻﾝﾁｮｳｶﾜｸﾞﾁ","pref":"三重県","city":"津市","address":"白山町川口"},
{"zip_code":"5153132","kana_pref":"ﾐｴｹﾝ","kana_city":"ﾂｼ","kana_address":"ﾊｸｻﾝﾁｮｳｷﾀｲｴｷ","pref":"三重県","city":"津市","address":"白山町北家城"},
{"zip_code":"5153138","kana_pref":"ﾐｴｹﾝ","kana_city":"ﾂｼ","kana_address":"ﾊｸｻﾝﾁｮｳｺｽｷﾞ","pref":"三重県","city":"津市","address":"白山町小杉"},
{"zip_code":"5152621","kana_pref":"ﾐｴｹﾝ","kana_city":"ﾂｼ","kana_address":"ﾊｸｻﾝﾁｮｳｻﾀﾞ","pref":"三重県","city":"津市","address":"白山町佐田"},
{"zip_code":"5153139","kana_pref":"ﾐｴｹﾝ","kana_city":"ﾂｼ","kana_address":"ﾊｸｻﾝﾁｮｳｼﾞｮｳﾘｭｳ","pref":"三重県","city":"津市","address":"白山町城立"},
{"zip_code":"5152622","kana_pref":"ﾐｴｹﾝ","kana_city":"ﾂｼ","kana_address":"ﾊｸｻﾝﾁｮｳﾅｶﾉﾑﾗ","pref":"三重県","city":"津市","address":"白山町中ノ村"},
{"zip_code":"5152602","kana_pref":"ﾐｴｹﾝ","kana_city":"ﾂｼ","kana_address":"ﾊｸｻﾝﾁｮｳﾆﾎﾝｷﾞ","pref":"三重県","city":"津市","address":"白山町二本木"},
{"zip_code":"5152615","kana_pref":"ﾐｴｹﾝ","kana_city":"ﾂｼ","kana_address":"ﾊｸｻﾝﾁｮｳﾊｯﾀｲﾉ","pref":"三重県","city":"津市","address":"白山町八対野"},
{"zip_code":"5153136","kana_pref":"ﾐｴｹﾝ","kana_city":"ﾂｼ","kana_address":"ﾊｸｻﾝﾁｮｳﾌｸﾀﾔﾏ","pref":"三重県","city":"津市","address":"白山町福田山"},
{"zip_code":"5153131","kana_pref":"ﾐｴｹﾝ","kana_city":"ﾂｼ","kana_address":"ﾊｸｻﾝﾁｮｳﾌｼﾞ","pref":"三重県","city":"津市","address":"白山町藤"},
{"zip_code":"5153135","kana_pref":"ﾐｴｹﾝ","kana_city":"ﾂｼ","kana_address":"ﾊｸｻﾝﾁｮｳﾌﾀﾏﾀ","pref":"三重県","city":"津市","address":"白山町二俣"},
{"zip_code":"5152612","kana_pref":"ﾐｴｹﾝ","kana_city":"ﾂｼ","kana_address":"ﾊｸｻﾝﾁｮｳﾌﾙｲﾁ","pref":"三重県","city":"津市","address":"白山町古市"},
{"zip_code":"5153134","kana_pref":"ﾐｴｹﾝ","kana_city":"ﾂｼ","kana_address":"ﾊｸｻﾝﾁｮｳﾏﾐ","pref":"三重県","city":"津市","address":"白山町真見"},
{"zip_code":"5152601","kana_pref":"ﾐｴｹﾝ","kana_city":"ﾂｼ","kana_address":"ﾊｸｻﾝﾁｮｳﾐﾂｶﾞﾉ","pref":"三重県","city":"津市","address":"白山町三ケ野"},
{"zip_code":"5153133","kana_pref":"ﾐｴｹﾝ","kana_city":"ﾂｼ","kana_address":"ﾊｸｻﾝﾁｮｳﾐﾅﾐｲｴｷ","pref":"三重県","city":"津市","address":"白山町南家城"},
{"zip_code":"5152611","kana_pref":"ﾐｴｹﾝ","kana_city":"ﾂｼ","kana_address":"ﾊｸｻﾝﾁｮｳﾐﾅﾐﾃﾞ","pref":"三重県","city":"津市","address":"白山町南出"},
{"zip_code":"5152613","kana_pref":"ﾐｴｹﾝ","kana_city":"ﾂｼ","kana_address":"ﾊｸｻﾝﾁｮｳﾔﾏﾀﾞﾉ","pref":"三重県","city":"津市","address":"白山町山田野"},
{"zip_code":"5153533","kana_pref":"ﾐｴｹﾝ","kana_city":"ﾂｼ","kana_address":"ﾐｽｷﾞﾁｮｳｲｼﾅﾊﾗ","pref":"三重県","city":"津市","address":"美杉町石名原"},
{"zip_code":"5153531","kana_pref":"ﾐｴｹﾝ","kana_city":"ﾂｼ","kana_address":"ﾐｽｷﾞﾁｮｳｵｷﾂ","pref":"三重県","city":"津市","address":"美杉町奥津"},
{"zip_code":"5153312","kana_pref":"ﾐｴｹﾝ","kana_city":"ﾂｼ","kana_address":"ﾐｽｷﾞﾁｮｳｶﾐﾀｹﾞ","pref":"三重県","city":"津市","address":"美杉町上多気"},
{"zip_code":"5153532","kana_pref":"ﾐｴｹﾝ","kana_city":"ﾂｼ","kana_address":"ﾐｽｷﾞﾁｮｳｶﾜｶﾐ","pref":"三重県","city":"津市","address":"美杉町川上"},
{"zip_code":"5153311","kana_pref":"ﾐｴｹﾝ","kana_city":"ﾂｼ","kana_address":"ﾐｽｷﾞﾁｮｳｼﾓﾀｹﾞ","pref":"三重県","city":"津市","address":"美杉町下多気"},
{"zip_code":"5153203","kana_pref":"ﾐｴｹﾝ","kana_city":"ﾂｼ","kana_address":"ﾐｽｷﾞﾁｮｳｼﾓﾉｶﾞﾜ","pref":"三重県","city":"津市","address":"美杉町下之川"},
{"zip_code":"5153534","kana_pref":"ﾐｴｹﾝ","kana_city":"ﾂｼ","kana_address":"ﾐｽｷﾞﾁｮｳｽｷﾞﾋﾗ","pref":"三重県","city":"津市","address":"美杉町杉平"},
{"zip_code":"5153201","kana_pref":"ﾐｴｹﾝ","kana_city":"ﾂｼ","kana_address":"ﾐｽｷﾞﾁｮｳﾀｹﾊﾗ","pref":"三重県","city":"津市","address":"美杉町竹原"},
{"zip_code":"5153536","kana_pref":"ﾐｴｹﾝ","kana_city":"ﾂｼ","kana_address":"ﾐｽｷﾞﾁｮｳﾀﾛｵ","pref":"三重県","city":"津市","address":"美杉町太郎生"},
{"zip_code":"5153313","kana_pref":"ﾐｴｹﾝ","kana_city":"ﾂｼ","kana_address":"ﾐｽｷﾞﾁｮｳﾆｭｳﾉﾏﾀ","pref":"三重県","city":"津市","address":"美杉町丹生俣"},
{"zip_code":"5153202","kana_pref":"ﾐｴｹﾝ","kana_city":"ﾂｼ","kana_address":"ﾐｽｷﾞﾁｮｳﾊﾃﾏﾀ","pref":"三重県","city":"津市","address":"美杉町八手俣"},
{"zip_code":"5153535","kana_pref":"ﾐｴｹﾝ","kana_city":"ﾂｼ","kana_address":"ﾐｽｷﾞﾁｮｳﾐﾀｹ","pref":"三重県","city":"津市","address":"美杉町三多気"},
{"zip_code":"5153421","kana_pref":"ﾐｴｹﾝ","kana_city":"ﾂｼ","kana_address":"ﾐｽｷﾞﾁｮｳﾔﾁ","pref":"三重県","city":"津市","address":"美杉町八知"},
{"zip_code":"5150501","kana_pref":"ﾐｴｹﾝ","kana_city":"ｲｾｼ","kana_address":"ｱﾘﾀｷﾁｮｳ","pref":"三重県","city":"伊勢市","address":"有滝町"},
{"zip_code":"5150504","kana_pref":"ﾐｴｹﾝ","kana_city":"ｲｾｼ","kana_address":"ｲｿﾁｮｳ","pref":"三重県","city":"伊勢市","address":"磯町"},
{"zip_code":"5150506","kana_pref":"ﾐｴｹﾝ","kana_city":"ｲｾｼ","kana_address":"ｳｴﾔﾏﾁｮｳ","pref":"三重県","city":"伊勢市","address":"植山町"},
{"zip_code":"5150508","kana_pref":"ﾐｴｹﾝ","kana_city":"ｲｾｼ","kana_address":"ｶｼﾜﾁｮｳ","pref":"三重県","city":"伊勢市","address":"柏町"},
{"zip_code":"5150503","kana_pref":"ﾐｴｹﾝ","kana_city":"ｲｾｼ","kana_address":"ｶｼﾜﾗﾁｮｳ","pref":"三重県","city":"伊勢市","address":"樫原町"},
{"zip_code":"5150505","kana_pref":"ﾐｴｹﾝ","kana_city":"ｲｾｼ","kana_address":"ﾆｼﾄﾖﾊﾏﾁｮｳ","pref":"三重県","city":"伊勢市","address":"西豊浜町"},
{"zip_code":"5150511","kana_pref":"ﾐｴｹﾝ","kana_city":"ｲｾｼ","kana_address":"ﾉﾑﾗﾁｮｳ","pref":"三重県","city":"伊勢市","address":"野村町"},
{"zip_code":"5150509","kana_pref":"ﾐｴｹﾝ","kana_city":"ｲｾｼ","kana_address":"ﾋｶﾞｼｵｲｽﾞﾁｮｳ","pref":"三重県","city":"伊勢市","address":"東大淀町"},
{"zip_code":"5150502","kana_pref":"ﾐｴｹﾝ","kana_city":"ｲｾｼ","kana_address":"ﾋｶﾞｼﾄﾖﾊﾏﾁｮｳ","pref":"三重県","city":"伊勢市","address":"東豊浜町"},
{"zip_code":"5150521","kana_pref":"ﾐｴｹﾝ","kana_city":"ｲｾｼ","kana_address":"ﾐｿﾉﾁｮｳｶﾐｼﾞｮｳ","pref":"三重県","city":"伊勢市","address":"御薗町上條"},
{"zip_code":"5150507","kana_pref":"ﾐｴｹﾝ","kana_city":"ｲｾｼ","kana_address":"ﾑﾗﾏﾂﾁｮｳ","pref":"三重県","city":"伊勢市","address":"村松町"},
{"zip_code":"5150000","kana_pref":"ﾐｴｹﾝ","kana_city":"ﾏﾂｻｶｼ","kana_address":"","pref":"三重県","city":"松阪市","address":""},
{"zip_code":"5150823","kana_pref":"ﾐｴｹﾝ","kana_city":"ﾏﾂｻｶｼ","kana_address":"ｱｶﾞﾀﾁｮｳ","pref":"三重県","city":"松阪市","address":"阿形町"},
{"zip_code":"5150027","kana_pref":"ﾐｴｹﾝ","kana_city":"ﾏﾂｻｶｼ","kana_address":"ｱｻﾀﾞﾁｮｳ","pref":"三重県","city":"松阪市","address":"朝田町"},
{"zip_code":"5150004","kana_pref":"ﾐｴｹﾝ","kana_city":"ﾏﾂｻｶｼ","kana_address":"ｱｻﾋﾏﾁ","pref":"三重県","city":"松阪市","address":"朝日町"},
{"zip_code":"5150003","kana_pref":"ﾐｴｹﾝ","kana_city":"ﾏﾂｻｶｼ","kana_address":"ｱｻﾋﾏﾁ1ｸ","pref":"三重県","city":"松阪市","address":"朝日町一区"},
{"zip_code":"5150037","kana_pref":"ﾐｴｹﾝ","kana_city":"ﾏﾂｻｶｼ","kana_address":"ｱﾀｺﾞﾏﾁ","pref":"三重県","city":"松阪市","address":"愛宕町"},
{"zip_code":"5150007","kana_pref":"ﾐｴｹﾝ","kana_city":"ﾏﾂｻｶｼ","kana_address":"ｱﾗｷﾁｮｳ","pref":"三重県","city":"松阪市","address":"荒木町"},
{"zip_code":"5150207","kana_pref":"ﾐｴｹﾝ","kana_city":"ﾏﾂｻｶｼ","kana_address":"ｱﾝﾗｸﾁｮｳ","pref":"三重県","city":"松阪市","address":"安楽町"},
{"zip_code":"5151505","kana_pref":"ﾐｴｹﾝ","kana_city":"ﾏﾂｻｶｼ","kana_address":"ｲｲﾀｶﾁｮｳｱｺｳ","pref":"三重県","city":"松阪市","address":"飯高町赤桶"},
{"zip_code":"5151613","kana_pref":"ﾐｴｹﾝ","kana_city":"ﾏﾂｻｶｼ","kana_address":"ｲｲﾀｶﾁｮｳｱﾜﾉ","pref":"三重県","city":"松阪市","address":"飯高町粟野"},
{"zip_code":"5151617","kana_pref":"ﾐｴｹﾝ","kana_city":"ﾏﾂｻｶｼ","kana_address":"ｲｲﾀｶﾁｮｳｴﾃﾔﾏ","pref":"三重県","city":"松阪市","address":"飯高町猿山"},
{"zip_code":"5151616","kana_pref":"ﾐｴｹﾝ","kana_city":"ﾏﾂｻｶｼ","kana_address":"ｲｲﾀｶﾁｮｳｵｵﾀﾞ","pref":"三重県","city":"松阪市","address":"飯高町青田"},
{"zip_code":"5151732","kana_pref":"ﾐｴｹﾝ","kana_city":"ﾏﾂｻｶｼ","kana_address":"ｲｲﾀｶﾁｮｳｵﾁｶﾀ","pref":"三重県","city":"松阪市","address":"飯高町落方"},
{"zip_code":"5151723","kana_pref":"ﾐｴｹﾝ","kana_city":"ﾏﾂｻｶｼ","kana_address":"ｲｲﾀｶﾁｮｳｵﾄｸﾞﾙｽ","pref":"三重県","city":"松阪市","address":"飯高町乙栗子"},
{"zip_code":"5151722","kana_pref":"ﾐｴｹﾝ","kana_city":"ﾏﾂｻｶｼ","kana_address":"ｲｲﾀｶﾁｮｳｶﾊﾞ","pref":"三重県","city":"松阪市","address":"飯高町加波"},
{"zip_code":"5151734","kana_pref":"ﾐｴｹﾝ","kana_city":"ﾏﾂｻｶｼ","kana_address":"ｲｲﾀｶﾁｮｳｷｶｼﾞ","pref":"三重県","city":"松阪市","address":"飯高町木梶"},
{"zip_code":"5151724","kana_pref":"ﾐｴｹﾝ","kana_city":"ﾏﾂｻｶｼ","kana_address":"ｲｲﾀｶﾁｮｳｸﾜﾊﾞﾗ","pref":"三重県","city":"松阪市","address":"飯高町桑原"},
{"zip_code":"5151504","kana_pref":"ﾐｴｹﾝ","kana_city":"ﾏﾂｻｶｼ","kana_address":"ｲｲﾀｶﾁｮｳｻｸﾀｷ","pref":"三重県","city":"松阪市","address":"飯高町作滝"},
{"zip_code":"5151501","kana_pref":"ﾐｴｹﾝ","kana_city":"ﾏﾂｻｶｼ","kana_address":"ｲｲﾀｶﾁｮｳｼﾓﾀｷﾉ","pref":"三重県","city":"松阪市","address":"飯高町下滝野"},
{"zip_code":"5151727","kana_pref":"ﾐｴｹﾝ","kana_city":"ﾏﾂｻｶｼ","kana_address":"ｲｲﾀｶﾁｮｳｿｳｶﾞﾉ","pref":"三重県","city":"松阪市","address":"飯高町草鹿野"},
{"zip_code":"5151506","kana_pref":"ﾐｴｹﾝ","kana_city":"ﾏﾂｻｶｼ","kana_address":"ｲｲﾀｶﾁｮｳﾀﾋﾞｷ","pref":"三重県","city":"松阪市","address":"飯高町田引"},
{"zip_code":"5151726","kana_pref":"ﾐｴｹﾝ","kana_city":"ﾏﾂｻｶｼ","kana_address":"ｲｲﾀｶﾁｮｳﾀﾗｷ","pref":"三重県","city":"松阪市","address":"飯高町太良木"},
{"zip_code":"5151721","kana_pref":"ﾐｴｹﾝ","kana_city":"ﾏﾂｻｶｼ","kana_address":"ｲｲﾀｶﾁｮｳﾂｷﾃﾞ","pref":"三重県","city":"松阪市","address":"飯高町月出"},
{"zip_code":"5151733","kana_pref":"ﾐｴｹﾝ","kana_city":"ﾏﾂｻｶｼ","kana_address":"ｲｲﾀｶﾁｮｳﾄﾁﾀﾞﾆ","pref":"三重県","city":"松阪市","address":"飯高町栃谷"},
{"zip_code":"5151612","kana_pref":"ﾐｴｹﾝ","kana_city":"ﾏﾂｻｶｼ","kana_address":"ｲｲﾀｶﾁｮｳﾄﾐﾅｶﾞ","pref":"三重県","city":"松阪市","address":"飯高町富永"},
{"zip_code":"5151611","kana_pref":"ﾐｴｹﾝ","kana_city":"ﾏﾂｻｶｼ","kana_address":"ｲｲﾀｶﾁｮｳﾅﾉｶｲﾁ","pref":"三重県","city":"松阪市","address":"飯高町七日市"},
{"zip_code":"5151503","kana_pref":"ﾐｴｹﾝ","kana_city":"ﾏﾂｻｶｼ","kana_address":"ｲｲﾀｶﾁｮｳﾉﾉｸﾞﾁ","pref":"三重県","city":"松阪市","address":"飯高町野々口"},
{"zip_code":"5151725","kana_pref":"ﾐｴｹﾝ","kana_city":"ﾏﾂｻｶｼ","kana_address":"ｲｲﾀｶﾁｮｳﾊｾﾞ","pref":"三重県","city":"松阪市","address":"飯高町波瀬"},
{"zip_code":"5151618","kana_pref":"ﾐｴｹﾝ","kana_city":"ﾏﾂｻｶｼ","kana_address":"ｲｲﾀｶﾁｮｳﾊﾁｽ","pref":"三重県","city":"松阪市","address":"飯高町蓮"},
{"zip_code":"5151731","kana_pref":"ﾐｴｹﾝ","kana_city":"ﾏﾂｻｶｼ","kana_address":"ｲｲﾀｶﾁｮｳﾌﾅﾄ","pref":"三重県","city":"松阪市","address":"飯高町舟戸"},
{"zip_code":"5151502","kana_pref":"ﾐｴｹﾝ","kana_city":"ﾏﾂｻｶｼ","kana_address":"ｲｲﾀｶﾁｮｳﾐﾔﾏｴ","pref":"三重県","city":"松阪市","address":"飯高町宮前"},
{"zip_code":"5151614","kana_pref":"ﾐｴｹﾝ","kana_city":"ﾏﾂｻｶｼ","kana_address":"ｲｲﾀｶﾁｮｳﾐﾔﾓﾄ","pref":"三重県","city":"松阪市","address":"飯高町宮本"},
{"zip_code":"5151615","kana_pref":"ﾐｴｹﾝ","kana_city":"ﾏﾂｻｶｼ","kana_address":"ｲｲﾀｶﾁｮｳﾓﾘ","pref":"三重県","city":"松阪市","address":"飯高町森"},
{"zip_code":"5151413","kana_pref":"ﾐｴｹﾝ","kana_city":"ﾏﾂｻｶｼ","kana_address":"ｲｲﾅﾝﾁｮｳｱﾘﾏﾉ","pref":"三重県","city":"松阪市","address":"飯南町有間野"},
{"zip_code":"5151304","kana_pref":"ﾐｴｹﾝ","kana_city":"ﾏﾂｻｶｼ","kana_address":"ｲｲﾅﾝﾁｮｳｶﾐﾆｶﾞｷ","pref":"三重県","city":"松阪市","address":"飯南町上仁柿"},
{"zip_code":"5151411","kana_pref":"ﾐｴｹﾝ","kana_city":"ﾏﾂｻｶｼ","kana_address":"ｲｲﾅﾝﾁｮｳｶﾕﾐ","pref":"三重県","city":"松阪市","address":"飯南町粥見"},
{"zip_code":"5151303","kana_pref":"ﾐｴｹﾝ","kana_city":"ﾏﾂｻｶｼ","kana_address":"ｲｲﾅﾝﾁｮｳｼﾓﾆｶﾞｷ","pref":"三重県","city":"松阪市","address":"飯南町下仁柿"},
{"zip_code":"5151301","kana_pref":"ﾐｴｹﾝ","kana_city":"ﾏﾂｻｶｼ","kana_address":"ｲｲﾅﾝﾁｮｳﾌｶﾉ","pref":"三重県","city":"松阪市","address":"飯南町深野"},
{"zip_code":"5151412","kana_pref":"ﾐｴｹﾝ","kana_city":"ﾏﾂｻｶｼ","kana_address":"ｲｲﾅﾝﾁｮｳﾑｺｳｶﾕﾐ","pref":"三重県","city":"松阪市","address":"飯南町向粥見"},
{"zip_code":"5151302","kana_pref":"ﾐｴｹﾝ","kana_city":"ﾏﾂｻｶｼ","kana_address":"ｲｲﾅﾝﾁｮｳﾖｺﾉ","pref":"三重県","city":"松阪市","address":"飯南町横野"},
{"zip_code":"5150126","kana_pref":"ﾐｴｹﾝ","kana_city":"ﾏﾂｻｶｼ","kana_address":"ｲｸﾞﾁﾅｶﾁｮｳ","pref":"三重県","city":"松阪市","address":"井口中町"},
{"zip_code":"5150006","kana_pref":"ﾐｴｹﾝ","kana_city":"ﾏﾂｻｶｼ","kana_address":"ｲｼﾂﾞﾁｮｳ","pref":"三重県","city":"松阪市","address":"石津町"},
{"zip_code":"5150086","kana_pref":"ﾐｴｹﾝ","kana_city":"ﾏﾂｻｶｼ","kana_address":"ｲｽｽﾞﾁｮｳ","pref":"三重県","city":"松阪市","address":"五十鈴町"},
{"zip_code":"5150113","kana_pref":"ﾐｴｹﾝ","kana_city":"ﾏﾂｻｶｼ","kana_address":"ｲｽﾞﾏﾁｮｳ","pref":"三重県","city":"松阪市","address":"出間町"},
{"zip_code":"5150066","kana_pref":"ﾐｴｹﾝ","kana_city":"ﾏﾂｻｶｼ","kana_address":"ｲｽﾞﾐﾁｮｳ","pref":"三重県","city":"松阪市","address":"泉町"},
{"zip_code":"5150845","kana_pref":"ﾐｴｹﾝ","kana_city":"ﾏﾂｻｶｼ","kana_address":"ｲｾﾃﾞﾗﾁｮｳ","pref":"三重県","city":"松阪市","address":"伊勢寺町"},
{"zip_code":"5150213","kana_pref":"ﾐｴｹﾝ","kana_city":"ﾏﾂｻｶｼ","kana_address":"ｲｾﾊﾞﾁｮｳ","pref":"三重県","city":"松阪市","address":"伊勢場町"},
{"zip_code":"5152121","kana_pref":"ﾐｴｹﾝ","kana_city":"ﾏﾂｻｶｼ","kana_address":"ｲﾁﾊﾞｼｮｳﾁｮｳ","pref":"三重県","city":"松阪市","address":"市場庄町"},
{"zip_code":"5150212","kana_pref":"ﾐｴｹﾝ","kana_city":"ﾏﾂｻｶｼ","kana_address":"ｲﾅｷﾞﾁｮｳ","pref":"三重県","city":"松阪市","address":"稲木町"},
{"zip_code":"5152412","kana_pref":"ﾐｴｹﾝ","kana_city":"ﾏﾂｻｶｼ","kana_address":"ｲﾌﾀﾁｮｳ","pref":"三重県","city":"松阪市","address":"飯福田町"},
{"zip_code":"5150817","kana_pref":"ﾐｴｹﾝ","kana_city":"ﾏﾂｻｶｼ","kana_address":"ｲﾑﾗﾁｮｳ","pref":"三重県","city":"松阪市","address":"井村町"},
{"zip_code":"5150041","kana_pref":"ﾐｴｹﾝ","kana_city":"ﾏﾂｻｶｼ","kana_address":"ｳｴｶﾞﾜﾁｮｳ","pref":"三重県","city":"松阪市","address":"上川町"},
{"zip_code":"5150082","kana_pref":"ﾐｴｹﾝ","kana_city":"ﾏﾂｻｶｼ","kana_address":"ｳｵﾏﾁ","pref":"三重県","city":"松阪市","address":"魚町"},
{"zip_code":"5150128","kana_pref":"ﾐｴｹﾝ","kana_city":"ﾏﾂｻｶｼ","kana_address":"ｳｵﾐﾁｮｳ","pref":"三重県","city":"松阪市","address":"魚見町"},
{"zip_code":"5150116","kana_pref":"ﾐｴｹﾝ","kana_city":"ﾏﾂｻｶｼ","kana_address":"ｳｼｸｻﾁｮｳ","pref":"三重県","city":"松阪市","address":"牛草町"},
{"zip_code":"5152413","kana_pref":"ﾐｴｹﾝ","kana_city":"ﾏﾂｻｶｼ","kana_address":"ｳｼﾛﾔﾏﾁｮｳ","pref":"三重県","city":"松阪市","address":"後山町"},
{"zip_code":"5150072","kana_pref":"ﾐｴｹﾝ","kana_city":"ﾏﾂｻｶｼ","kana_address":"ｳﾁｺﾞﾏｶﾞﾘﾁｮｳ","pref":"三重県","city":"松阪市","address":"内五曲町"},
{"zip_code":"5152305","kana_pref":"ﾐｴｹﾝ","kana_city":"ﾏﾂｻｶｼ","kana_address":"ｳﾚｼﾉｲﾁｼﾁｮｳ","pref":"三重県","city":"松阪市","address":"嬉野一志町"},
{"zip_code":"5152351","kana_pref":"ﾐｴｹﾝ","kana_city":"ﾏﾂｻｶｼ","kana_address":"ｳﾚｼﾉｲﾉｳｴﾁｮｳ","pref":"三重県","city":"松阪市","address":"嬉野井之上町"},
{"zip_code":"5152403","kana_pref":"ﾐｴｹﾝ","kana_city":"ﾏﾂｻｶｼ","kana_address":"ｳﾚｼﾉｲﾜｸﾗﾁｮｳ","pref":"三重県","city":"松阪市","address":"嬉野岩倉町"},
{"zip_code":"5152356","kana_pref":"ﾐｴｹﾝ","kana_city":"ﾏﾂｻｶｼ","kana_address":"ｳﾚｼﾉｳｴﾉﾁｮｳ","pref":"三重県","city":"松阪市","address":"嬉野上野町"},
{"zip_code":"5152405","kana_pref":"ﾐｴｹﾝ","kana_city":"ﾏﾂｻｶｼ","kana_address":"ｳﾚｼﾉｵﾊﾗﾁｮｳ","pref":"三重県","city":"松阪市","address":"嬉野小原町"},
{"zip_code":"5152404","kana_pref":"ﾐｴｹﾝ","kana_city":"ﾏﾂｻｶｼ","kana_address":"ｳﾚｼﾉｶﾐｵｶﾞﾜﾁｮｳ","pref":"三重県","city":"松阪市","address":"嬉野上小川町"},
{"zip_code":"5152357","kana_pref":"ﾐｴｹﾝ","kana_city":"ﾏﾂｻｶｼ","kana_address":"ｳﾚｼﾉｶﾐﾉｷﾁｮｳ","pref":"三重県","city":"松阪市","address":"嬉野神ノ木町"},
{"zip_code":"5152401","kana_pref":"ﾐｴｹﾝ","kana_city":"ﾏﾂｻｶｼ","kana_address":"ｳﾚｼﾉｶﾓﾀﾞﾁｮｳ","pref":"三重県","city":"松阪市","address":"嬉野釜生田町"},
{"zip_code":"5152316","kana_pref":"ﾐｴｹﾝ","kana_city":"ﾏﾂｻｶｼ","kana_address":"ｳﾚｼﾉｶﾜｷﾞﾀﾁｮｳ","pref":"三重県","city":"松阪市","address":"嬉野川北町"},
{"zip_code":"5152313","kana_pref":"ﾐｴｹﾝ","kana_city":"ﾏﾂｻｶｼ","kana_address":"ｳﾚｼﾉｶﾜﾗｺﾂｸﾘﾁｮｳ","pref":"三重県","city":"松阪市","address":"嬉野川原木造町"},
{"zip_code":"5152311","kana_pref":"ﾐｴｹﾝ","kana_city":"ﾏﾂｻｶｼ","kana_address":"ｳﾚｼﾉｸﾛﾀﾞﾁｮｳ","pref":"三重県","city":"松阪市","address":"嬉野黒田町"},
{"zip_code":"5152334","kana_pref":"ﾐｴｹﾝ","kana_city":"ﾏﾂｻｶｼ","kana_address":"ｳﾚｼﾉｸﾛﾉﾁｮｳ","pref":"三重県","city":"松阪市","address":"嬉野黒野町"},
{"zip_code":"5152406","kana_pref":"ﾐｴｹﾝ","kana_city":"ﾏﾂｻｶｼ","kana_address":"ｳﾚｼﾉｺﾞｶﾞﾉﾁｮｳ","pref":"三重県","city":"松阪市","address":"嬉野合ケ野町"},
{"zip_code":"5152315","kana_pref":"ﾐｴｹﾝ","kana_city":"ﾏﾂｻｶｼ","kana_address":"ｳﾚｼﾉｺﾑﾗﾁｮｳ","pref":"三重県","city":"松阪市","address":"嬉野小村町"},
{"zip_code":"5152323","kana_pref":"ﾐｴｹﾝ","kana_city":"ﾏﾂｻｶｼ","kana_address":"ｳﾚｼﾉｺﾞﾝｹﾞﾝﾏｴﾁｮｳ","pref":"三重県","city":"松阪市","address":"嬉野権現前町"},
{"zip_code":"5152335","kana_pref":"ﾐｴｹﾝ","kana_city":"ﾏﾂｻｶｼ","kana_address":"ｳﾚｼﾉｻﾝｼﾞｮﾁｮｳ","pref":"三重県","city":"松阪市","address":"嬉野算所町"},
{"zip_code":"5152301","kana_pref":"ﾐｴｹﾝ","kana_city":"ﾏﾂｻｶｼ","kana_address":"ｳﾚｼﾉｼﾏﾀﾞﾁｮｳ","pref":"三重県","city":"松阪市","address":"嬉野島田町"},
{"zip_code":"5152354","kana_pref":"ﾐｴｹﾝ","kana_city":"ﾏﾂｻｶｼ","kana_address":"ｳﾚｼﾉｼﾓﾉｼｮｳﾁｮｳ","pref":"三重県","city":"松阪市","address":"嬉野下之庄町"},
{"zip_code":"5152322","kana_pref":"ﾐｴｹﾝ","kana_city":"ﾏﾂｻｶｼ","kana_address":"ｳﾚｼﾉｽｶﾁｮｳ","pref":"三重県","city":"松阪市","address":"嬉野須賀町"},
{"zip_code":"5152331","kana_pref":"ﾐｴｹﾝ","kana_city":"ﾏﾂｻｶｼ","kana_address":"ｳﾚｼﾉｽｶﾘｮｳﾁｮｳ","pref":"三重県","city":"松阪市","address":"嬉野須賀領町"},
{"zip_code":"5152409","kana_pref":"ﾐｴｹﾝ","kana_city":"ﾏﾂｻｶｼ","kana_address":"ｳﾚｼﾉﾀｷﾉｶﾞﾜﾁｮｳ","pref":"三重県","city":"松阪市","address":"嬉野滝之川町"},
{"zip_code":"5152333","kana_pref":"ﾐｴｹﾝ","kana_city":"ﾏﾂｻｶｼ","kana_address":"ｳﾚｼﾉﾀﾑﾗﾁｮｳ","pref":"三重県","city":"松阪市","address":"嬉野田村町"},
{"zip_code":"5152332","kana_pref":"ﾐｴｹﾝ","kana_city":"ﾏﾂｻｶｼ","kana_address":"ｳﾚｼﾉﾂﾔｼﾞｮｳﾁｮｳ","pref":"三重県","city":"松阪市","address":"嬉野津屋城町"},
{"zip_code":"5152302","kana_pref":"ﾐｴｹﾝ","kana_city":"ﾏﾂｻｶｼ","kana_address":"ｳﾚｼﾉﾃﾝｹﾞｴｼﾞﾁｮｳ","pref":"三重県","city":"松阪市","address":"嬉野天花寺町"},
{"zip_code":"5152325","kana_pref":"ﾐｴｹﾝ","kana_city":"ﾏﾂｻｶｼ","kana_address":"ｳﾚｼﾉﾅｶｶﾞﾜｼﾝﾏﾁ","pref":"三重県","city":"松阪市","address":"嬉野中川新町"},
{"zip_code":"5152321","kana_pref":"ﾐｴｹﾝ","kana_city":"ﾏﾂｻｶｼ","kana_address":"ｳﾚｼﾉﾅｶｶﾞﾜﾁｮｳ","pref":"三重県","city":"松阪市","address":"嬉野中川町"},
{"zip_code":"5152314","kana_pref":"ﾐｴｹﾝ","kana_city":"ﾏﾂｻｶｼ","kana_address":"ｳﾚｼﾉﾆﾜﾉｼｮｳﾁｮｳ","pref":"三重県","city":"松阪市","address":"嬉野新屋庄町"},
{"zip_code":"5152317","kana_pref":"ﾐｴｹﾝ","kana_city":"ﾏﾂｻｶｼ","kana_address":"ｳﾚｼﾉﾉﾀﾞﾁｮｳ","pref":"三重県","city":"松阪市","address":"嬉野野田町"},
{"zip_code":"5152352","kana_pref":"ﾐｴｹﾝ","kana_city":"ﾏﾂｻｶｼ","kana_address":"ｳﾚｼﾉﾊｯﾀﾁｮｳ","pref":"三重県","city":"松阪市","address":"嬉野八田町"},
{"zip_code":"5152304","kana_pref":"ﾐｴｹﾝ","kana_city":"ﾏﾂｻｶｼ","kana_address":"ｳﾚｼﾉﾋﾛﾁｮｳ","pref":"三重県","city":"松阪市","address":"嬉野平生町"},
{"zip_code":"5152353","kana_pref":"ﾐｴｹﾝ","kana_city":"ﾏﾂｻｶｼ","kana_address":"ｳﾚｼﾉﾎﾘﾉｳﾁﾁｮｳ","pref":"三重県","city":"松阪市","address":"嬉野堀之内町"},
{"zip_code":"5152312","kana_pref":"ﾐｴｹﾝ","kana_city":"ﾏﾂｻｶｼ","kana_address":"ｳﾚｼﾉﾐﾅｶﾞﾁｮｳ","pref":"三重県","city":"松阪市","address":"嬉野見永町"},
{"zip_code":"5152303","kana_pref":"ﾐｴｹﾝ","kana_city":"ﾏﾂｻｶｼ","kana_address":"ｳﾚｼﾉﾐﾔｺﾁｮｳ","pref":"三重県","city":"松阪市","address":"嬉野宮古町"},
{"zip_code":"5152408","kana_pref":"ﾐｴｹﾝ","kana_city":"ﾏﾂｻｶｼ","kana_address":"ｳﾚｼﾉﾐﾔﾉﾁｮｳ","pref":"三重県","city":"松阪市","address":"嬉野宮野町"},
{"zip_code":"5152402","kana_pref":"ﾐｴｹﾝ","kana_city":"ﾏﾂｻｶｼ","kana_address":"ｳﾚｼﾉﾓﾘﾓﾄﾁｮｳ","pref":"三重県","city":"松阪市","address":"嬉野森本町"},
{"zip_code":"5152407","kana_pref":"ﾐｴｹﾝ","kana_city":"ﾏﾂｻｶｼ","kana_address":"ｳﾚｼﾉﾔｵﾛｼﾁｮｳ","pref":"三重県","city":"松阪市","address":"嬉野矢下町"},
{"zip_code":"5152355","kana_pref":"ﾐｴｹﾝ","kana_city":"ﾏﾂｻｶｼ","kana_address":"ｳﾚｼﾉﾔｸｵｳｼﾞﾁｮｳ","pref":"三重県","city":"松阪市","address":"嬉野薬王寺町"},
{"zip_code":"5152324","kana_pref":"ﾐｴｹﾝ","kana_city":"ﾏﾂｻｶｼ","kana_address":"ｳﾚｼﾉﾁｮｳ","pref":"三重県","city":"松阪市","address":"嬉野町"},
{"zip_code":"5151205","kana_pref":"ﾐｴｹﾝ","kana_city":"ﾏﾂｻｶｼ","kana_address":"ｵｲｼﾁｮｳ","pref":"三重県","city":"松阪市","address":"大石町"},
{"zip_code":"5152342","kana_pref":"ﾐｴｹﾝ","kana_city":"ﾏﾂｻｶｼ","kana_address":"ｵｵｱｻﾞｶﾁｮｳ","pref":"三重県","city":"松阪市","address":"大阿坂町"},
{"zip_code":"5150114","kana_pref":"ﾐｴｹﾝ","kana_city":"ﾏﾂｻｶｼ","kana_address":"ｵｵｶﾞｲﾄﾁｮｳ","pref":"三重県","city":"松阪市","address":"大垣内町"},
{"zip_code":"5150001","kana_pref":"ﾐｴｹﾝ","kana_city":"ﾏﾂｻｶｼ","kana_address":"ｵｵｸﾁﾁｮｳ","pref":"三重県","city":"松阪市","address":"大口町"},
{"zip_code":"5150063","kana_pref":"ﾐｴｹﾝ","kana_city":"ﾏﾂｻｶｼ","kana_address":"ｵｵｸﾛﾀﾞﾁｮｳ","pref":"三重県","city":"松阪市","address":"大黒田町"},
{"zip_code":"5150813","kana_pref":"ﾐｴｹﾝ","kana_city":"ﾏﾂｻｶｼ","kana_address":"ｵｵﾂｶﾁｮｳ","pref":"三重県","city":"松阪市","address":"大塚町"},
{"zip_code":"5150031","kana_pref":"ﾐｴｹﾝ","kana_city":"ﾏﾂｻｶｼ","kana_address":"ｵｵﾂﾁｮｳ","pref":"三重県","city":"松阪市","address":"大津町"},
{"zip_code":"5152341","kana_pref":"ﾐｴｹﾝ","kana_city":"ﾏﾂｻｶｼ","kana_address":"ｵｵﾉﾁｮｳ","pref":"三重県","city":"松阪市","address":"小野町"},
{"zip_code":"5150804","kana_pref":"ﾐｴｹﾝ","kana_city":"ﾏﾂｻｶｼ","kana_address":"ｵｵﾋﾞﾗｵﾁｮｳ","pref":"三重県","city":"松阪市","address":"大平尾町"},
{"zip_code":"5150024","kana_pref":"ﾐｴｹﾝ","kana_city":"ﾏﾂｻｶｼ","kana_address":"ｵｵﾐﾔﾀﾞﾁｮｳ","pref":"三重県","city":"松阪市","address":"大宮田町"},
{"zip_code":"5151204","kana_pref":"ﾐｴｹﾝ","kana_city":"ﾏﾂｻｶｼ","kana_address":"ｵｶﾀﾉﾁｮｳ","pref":"三重県","city":"松阪市","address":"小片野町"},
{"zip_code":"5150831","kana_pref":"ﾐｴｹﾝ","kana_city":"ﾏﾂｻｶｼ","kana_address":"ｵｶﾓﾄﾁｮｳ","pref":"三重県","city":"松阪市","address":"岡本町"},
{"zip_code":"5150834","kana_pref":"ﾐｴｹﾝ","kana_city":"ﾏﾂｻｶｼ","kana_address":"ｵｶﾔﾏﾁｮｳ","pref":"三重県","city":"松阪市","address":"岡山町"},
{"zip_code":"5151105","kana_pref":"ﾐｴｹﾝ","kana_city":"ﾏﾂｻｶｼ","kana_address":"ｵｶﾜﾁﾁｮｳ","pref":"三重県","city":"松阪市","address":"大河内町"},
{"zip_code":"5150076","kana_pref":"ﾐｴｹﾝ","kana_city":"ﾏﾂｻｶｼ","kana_address":"ｵｼﾛｲﾏﾁ","pref":"三重県","city":"松阪市","address":"白粉町"},
{"zip_code":"5152114","kana_pref":"ﾐｴｹﾝ","kana_city":"ﾏﾂｻｶｼ","kana_address":"ｵﾂﾞﾁｮｳ","pref":"三重県","city":"松阪市","address":"小津町"},
{"zip_code":"5150117","kana_pref":"ﾐｴｹﾝ","kana_city":"ﾏﾂｻｶｼ","kana_address":"ｵﾄﾍﾞﾁｮｳ","pref":"三重県","city":"松阪市","address":"乙部町"},
{"zip_code":"5152109","kana_pref":"ﾐｴｹﾝ","kana_city":"ﾏﾂｻｶｼ","kana_address":"ｵﾉｴﾁｮｳ","pref":"三重県","city":"松阪市","address":"小野江町"},
{"zip_code":"5150822","kana_pref":"ﾐｴｹﾝ","kana_city":"ﾏﾂｻｶｼ","kana_address":"ｵﾜｾﾁｮｳ","pref":"三重県","city":"松阪市","address":"大足町"},
{"zip_code":"5150118","kana_pref":"ﾐｴｹﾝ","kana_city":"ﾏﾂｻｶｼ","kana_address":"ｶｲﾄﾀﾞﾁｮｳ","pref":"三重県","city":"松阪市","address":"垣内田町"},
{"zip_code":"5150033","kana_pref":"ﾐｴｹﾝ","kana_city":"ﾏﾂｻｶｼ","kana_address":"ｶｲﾊﾞﾅﾁｮｳ","pref":"三重県","city":"松阪市","address":"垣鼻町"},
{"zip_code":"5150111","kana_pref":"ﾐｴｹﾝ","kana_city":"ﾏﾂｻｶｼ","kana_address":"ｶｷﾉｷﾊﾗﾁｮｳ","pref":"三重県","city":"松阪市","address":"柿木原町"},
{"zip_code":"5152103","kana_pref":"ﾐｴｹﾝ","kana_city":"ﾏﾂｻｶｼ","kana_address":"ｶｻﾏﾂﾁｮｳ","pref":"三重県","city":"松阪市","address":"笠松町"},
{"zip_code":"5150078","kana_pref":"ﾐｴｹﾝ","kana_city":"ﾏﾂｻｶｼ","kana_address":"ｶｽｶﾞﾁｮｳ","pref":"三重県","city":"松阪市","address":"春日町"},
{"zip_code":"5151104","kana_pref":"ﾐｴｹﾝ","kana_city":"ﾏﾂｻｶｼ","kana_address":"ｶﾂﾗｾﾁｮｳ","pref":"三重県","city":"松阪市","address":"桂瀬町"},
{"zip_code":"5150005","kana_pref":"ﾐｴｹﾝ","kana_city":"ﾏﾂｻｶｼ","kana_address":"ｶﾏﾀﾞﾁｮｳ","pref":"三重県","city":"松阪市","address":"鎌田町"},
{"zip_code":"5150201","kana_pref":"ﾐｴｹﾝ","kana_city":"ﾏﾂｻｶｼ","kana_address":"ｶﾐﾅﾅﾐﾁｮｳ","pref":"三重県","city":"松阪市","address":"上七見町"},
{"zip_code":"5152123","kana_pref":"ﾐｴｹﾝ","kana_city":"ﾏﾂｻｶｼ","kana_address":"ｶﾐﾉｼｮｳﾁｮｳ","pref":"三重県","city":"松阪市","address":"上ノ庄町"},
{"zip_code":"5150818","kana_pref":"ﾐｴｹﾝ","kana_city":"ﾏﾂｻｶｼ","kana_address":"ｶﾜｲﾏﾁ","pref":"三重県","city":"松阪市","address":"川井町"},
{"zip_code":"5150122","kana_pref":"ﾐｴｹﾝ","kana_city":"ﾏﾂｻｶｼ","kana_address":"ｶﾜｼﾏﾁｮｳ","pref":"三重県","city":"松阪市","address":"川島町"},
{"zip_code":"5150119","kana_pref":"ﾐｴｹﾝ","kana_city":"ﾏﾂｻｶｼ","kana_address":"ｶﾝﾓﾘﾁｮｳ","pref":"三重県","city":"松阪市","address":"神守町"},
{"zip_code":"5152113","kana_pref":"ﾐｴｹﾝ","kana_city":"ﾏﾂｻｶｼ","kana_address":"ｷﾀﾑﾗｼﾝﾃﾞﾝﾁｮｳ","pref":"三重県","city":"松阪市","address":"喜多村新田町"},
{"zip_code":"5150088","kana_pref":"ﾐｴｹﾝ","kana_city":"ﾏﾂｻｶｼ","kana_address":"ｷﾉｻﾄﾁｮｳ","pref":"三重県","city":"松阪市","address":"木の郷町"},
{"zip_code":"5150017","kana_pref":"ﾐｴｹﾝ","kana_city":"ﾏﾂｻｶｼ","kana_address":"ｷｮｳﾏﾁ","pref":"三重県","city":"松阪市","address":"京町"},
{"zip_code":"5150018","kana_pref":"ﾐｴｹﾝ","kana_city":"ﾏﾂｻｶｼ","kana_address":"ｷｮｳﾏﾁ1ｸ","pref":"三重県","city":"松阪市","address":"京町一区"},
{"zip_code":"5150204","kana_pref":"ﾐｴｹﾝ","kana_city":"ﾏﾂｻｶｼ","kana_address":"ｸｼﾀﾞﾁｮｳ","pref":"三重県","city":"松阪市","address":"櫛田町"},
{"zip_code":"5150814","kana_pref":"ﾐｴｹﾝ","kana_city":"ﾏﾂｻｶｼ","kana_address":"ｸﾎﾞﾀﾁｮｳ","pref":"三重県","city":"松阪市","address":"久保田町"},
{"zip_code":"5150044","kana_pref":"ﾐｴｹﾝ","kana_city":"ﾏﾂｻｶｼ","kana_address":"ｸﾎﾞﾁｮｳ","pref":"三重県","city":"松阪市","address":"久保町"},
{"zip_code":"5152122","kana_pref":"ﾐｴｹﾝ","kana_city":"ﾏﾂｻｶｼ","kana_address":"ｸﾒﾁｮｳ","pref":"三重県","city":"松阪市","address":"久米町"},
{"zip_code":"5150061","kana_pref":"ﾐｴｹﾝ","kana_city":"ﾏﾂｻｶｼ","kana_address":"ｸﾛﾀﾞﾏﾁ","pref":"三重県","city":"松阪市","address":"黒田町"},
{"zip_code":"5152343","kana_pref":"ﾐｴｹﾝ","kana_city":"ﾏﾂｻｶｼ","kana_address":"ｺｱｻﾞｶﾁｮｳ","pref":"三重県","city":"松阪市","address":"小阿坂町"},
{"zip_code":"5150021","kana_pref":"ﾐｴｹﾝ","kana_city":"ﾏﾂｻｶｼ","kana_address":"ｺｲﾁｮｳ","pref":"三重県","city":"松阪市","address":"古井町"},
{"zip_code":"5150013","kana_pref":"ﾐｴｹﾝ","kana_city":"ﾏﾂｻｶｼ","kana_address":"ｺｳｾｲﾁｮｳ","pref":"三重県","city":"松阪市","address":"幸生町"},
{"zip_code":"5150053","kana_pref":"ﾐｴｹﾝ","kana_city":"ﾏﾂｻｶｼ","kana_address":"ｺｳﾖｳﾁｮｳ","pref":"三重県","city":"松阪市","address":"広陽町"},
{"zip_code":"5150062","kana_pref":"ﾐｴｹﾝ","kana_city":"ﾏﾂｻｶｼ","kana_address":"ｺｸﾛﾀﾞﾁｮｳ","pref":"三重県","city":"松阪市","address":"小黒田町"},
{"zip_code":"5150002","kana_pref":"ﾐｴｹﾝ","kana_city":"ﾏﾂｻｶｼ","kana_address":"ｺﾞｳﾂﾞﾁｮｳ","pref":"三重県","city":"松阪市","address":"郷津町"},
{"zip_code":"5150064","kana_pref":"ﾐｴｹﾝ","kana_city":"ﾏﾂｻｶｼ","kana_address":"ｺﾞﾀﾝﾀﾞﾁｮｳ","pref":"三重県","city":"松阪市","address":"五反田町"},
{"zip_code":"5150057","kana_pref":"ﾐｴｹﾝ","kana_city":"ﾏﾂｻｶｼ","kana_address":"ｺﾞﾃﾝﾔﾏﾁｮｳ","pref":"三重県","city":"松阪市","address":"御殿山町"},
{"zip_code":"5152102","kana_pref":"ﾐｴｹﾝ","kana_city":"ﾏﾂｻｶｼ","kana_address":"ｺﾞﾇｼﾁｮｳ","pref":"三重県","city":"松阪市","address":"五主町"},
{"zip_code":"5152104","kana_pref":"ﾐｴｹﾝ","kana_city":"ﾏﾂｻｶｼ","kana_address":"ｺﾌﾞﾅｴﾁｮｳ","pref":"三重県","city":"松阪市","address":"小舟江町"},
{"zip_code":"5151107","kana_pref":"ﾐｴｹﾝ","kana_city":"ﾏﾂｻｶｼ","kana_address":"ｻｶﾅｲﾁｮｳ","pref":"三重県","city":"松阪市","address":"阪内町"},
{"zip_code":"5150028","kana_pref":"ﾐｴｹﾝ","kana_city":"ﾏﾂｻｶｼ","kana_address":"ｻｸﾒﾁｮｳ","pref":"三重県","city":"松阪市","address":"佐久米町"},
{"zip_code":"5150071","kana_pref":"ﾐｴｹﾝ","kana_city":"ﾏﾂｻｶｼ","kana_address":"ｻｸﾗﾁｮｳ","pref":"三重県","city":"松阪市","address":"桜町"},
{"zip_code":"5151103","kana_pref":"ﾐｴｹﾝ","kana_city":"ﾏﾂｻｶｼ","kana_address":"ｻｻｶﾞﾜﾁｮｳ","pref":"三重県","city":"松阪市","address":"笹川町"},
{"zip_code":"5150065","kana_pref":"ﾐｴｹﾝ","kana_city":"ﾏﾂｻｶｼ","kana_address":"ｻﾂｷﾁｮｳ","pref":"三重県","city":"松阪市","address":"五月町"},
{"zip_code":"5150203","kana_pref":"ﾐｴｹﾝ","kana_city":"ﾏﾂｻｶｼ","kana_address":"ｼﾐｽﾞﾁｮｳ","pref":"三重県","city":"松阪市","address":"清水町"},
{"zip_code":"5150023","kana_pref":"ﾐｴｹﾝ","kana_city":"ﾏﾂｻｶｼ","kana_address":"ｼﾓﾅﾅﾐﾁｮｳ","pref":"三重県","city":"松阪市","address":"下七見町"},
{"zip_code":"5150043","kana_pref":"ﾐｴｹﾝ","kana_city":"ﾏﾂｻｶｼ","kana_address":"ｼﾓﾑﾗﾁｮｳ","pref":"三重県","city":"松阪市","address":"下村町"},
{"zip_code":"5150123","kana_pref":"ﾐｴｹﾝ","kana_city":"ﾏﾂｻｶｼ","kana_address":"ｼﾝｶﾞｲﾁｮｳ","pref":"三重県","city":"松阪市","address":"新開町"},
{"zip_code":"5150074","kana_pref":"ﾐｴｹﾝ","kana_city":"ﾏﾂｻｶｼ","kana_address":"ｼﾝｻﾞﾏﾁ","pref":"三重県","city":"松阪市","address":"新座町"},
{"zip_code":"5150075","kana_pref":"ﾐｴｹﾝ","kana_city":"ﾏﾂｻｶｼ","kana_address":"ｼﾝﾏﾁ","pref":"三重県","city":"松阪市","address":"新町"},
{"zip_code":"5150801","kana_pref":"ﾐｴｹﾝ","kana_city":"ﾏﾂｻｶｼ","kana_address":"ｼﾝﾏﾂｶﾞｼﾏﾁｮｳ","pref":"三重県","city":"松阪市","address":"新松ケ島町"},
{"zip_code":"5150022","kana_pref":"ﾐｴｹﾝ","kana_city":"ﾏﾂｻｶｼ","kana_address":"ｼﾝﾔｼｷﾁｮｳ","pref":"三重県","city":"松阪市","address":"新屋敷町"},
{"zip_code":"5150016","kana_pref":"ﾐｴｹﾝ","kana_city":"ﾏﾂｻｶｼ","kana_address":"ｽｴﾋﾛﾁｮｳ","pref":"三重県","city":"松阪市","address":"末広町"},
{"zip_code":"5150202","kana_pref":"ﾐｴｹﾝ","kana_city":"ﾏﾂｻｶｼ","kana_address":"ｽｷﾞｭｳﾁｮｳ","pref":"三重県","city":"松阪市","address":"菅生町"},
{"zip_code":"5150039","kana_pref":"ﾐｴｹﾝ","kana_city":"ﾏﾂｻｶｼ","kana_address":"ｾｲｾｲﾁｮｳ","pref":"三重県","city":"松阪市","address":"清生町"},
{"zip_code":"5151101","kana_pref":"ﾐｴｹﾝ","kana_city":"ﾏﾂｻｶｼ","kana_address":"ｾｲﾂﾞﾁｮｳ","pref":"三重県","city":"松阪市","address":"勢津町"},
{"zip_code":"5150821","kana_pref":"ﾐｴｹﾝ","kana_city":"ﾏﾂｻｶｼ","kana_address":"ｿﾄｺﾞﾏｶﾞﾘﾁｮｳ","pref":"三重県","city":"松阪市","address":"外五曲町"},
{"zip_code":"5152112","kana_pref":"ﾐｴｹﾝ","kana_city":"ﾏﾂｻｶｼ","kana_address":"ｿﾊﾗﾁｮｳ","pref":"三重県","city":"松阪市","address":"曽原町"},
{"zip_code":"5150842","kana_pref":"ﾐｴｹﾝ","kana_city":"ﾏﾂｻｶｼ","kana_address":"ﾀｲﾗﾁｮｳ","pref":"三重県","city":"松阪市","address":"田牧町"},
{"zip_code":"5150211","kana_pref":"ﾐｴｹﾝ","kana_city":"ﾏﾂｻｶｼ","kana_address":"ﾀｶｷﾁｮｳ","pref":"三重県","city":"松阪市","address":"高木町"},
{"zip_code":"5150104","kana_pref":"ﾐｴｹﾝ","kana_city":"ﾏﾂｻｶｼ","kana_address":"ﾀｶｽﾁｮｳ","pref":"三重県","city":"松阪市","address":"高須町"},
{"zip_code":"5150011","kana_pref":"ﾐｴｹﾝ","kana_city":"ﾏﾂｻｶｼ","kana_address":"ﾀｶﾏﾁ","pref":"三重県","city":"松阪市","address":"高町"},
{"zip_code":"5150056","kana_pref":"ﾐｴｹﾝ","kana_city":"ﾏﾂｻｶｼ","kana_address":"ﾀｶﾗﾂﾞｶﾁｮｳ","pref":"三重県","city":"松阪市","address":"宝塚町"},
{"zip_code":"5150054","kana_pref":"ﾐｴｹﾝ","kana_city":"ﾏﾂｻｶｼ","kana_address":"ﾀﾁﾉﾁｮｳ","pref":"三重県","city":"松阪市","address":"立野町"},
{"zip_code":"5150026","kana_pref":"ﾐｴｹﾝ","kana_city":"ﾏﾂｻｶｼ","kana_address":"ﾀﾂﾀﾁｮｳ","pref":"三重県","city":"松阪市","address":"立田町"},
{"zip_code":"5150055","kana_pref":"ﾐｴｹﾝ","kana_city":"ﾏﾂｻｶｼ","kana_address":"ﾀﾑﾗﾁｮｳ","pref":"三重県","city":"松阪市","address":"田村町"},
{"zip_code":"5150032","kana_pref":"ﾐｴｹﾝ","kana_city":"ﾏﾂｻｶｼ","kana_address":"ﾀﾜﾗﾁｮｳ","pref":"三重県","city":"松阪市","address":"田原町"},
{"zip_code":"5151202","kana_pref":"ﾐｴｹﾝ","kana_city":"ﾏﾂｻｶｼ","kana_address":"ﾁﾊﾗﾁｮｳ","pref":"三重県","city":"松阪市","address":"茅原町"},
{"zip_code":"5150077","kana_pref":"ﾐｴｹﾝ","kana_city":"ﾏﾂｻｶｼ","kana_address":"ﾁｬﾖﾏﾁ","pref":"三重県","city":"松阪市","address":"茶与町"},
{"zip_code":"5150019","kana_pref":"ﾐｴｹﾝ","kana_city":"ﾏﾂｻｶｼ","kana_address":"ﾁｭｳｵｳﾁｮｳ","pref":"三重県","city":"松阪市","address":"中央町"},
{"zip_code":"5150035","kana_pref":"ﾐｴｹﾝ","kana_city":"ﾏﾂｻｶｼ","kana_address":"ﾁｮｳｹﾞﾂﾁｮｳ","pref":"三重県","city":"松阪市","address":"長月町"},
{"zip_code":"5150811","kana_pref":"ﾐｴｹﾝ","kana_city":"ﾏﾂｻｶｼ","kana_address":"ﾂｶﾓﾄﾁｮｳ","pref":"三重県","city":"松阪市","address":"塚本町"},
{"zip_code":"5151106","kana_pref":"ﾐｴｹﾝ","kana_city":"ﾏﾂｻｶｼ","kana_address":"ﾂｼﾞﾜﾗﾁｮｳ","pref":"三重県","city":"松阪市","address":"辻原町"},
{"zip_code":"5150112","kana_pref":"ﾐｴｹﾝ","kana_city":"ﾏﾂｻｶｼ","kana_address":"ﾄｺﾛﾁｮｳ","pref":"三重県","city":"松阪市","address":"土古路町"},
{"zip_code":"5150073","kana_pref":"ﾐｴｹﾝ","kana_city":"ﾏﾂｻｶｼ","kana_address":"ﾄﾉﾏﾁ","pref":"三重県","city":"松阪市","address":"殿町"},
{"zip_code":"5150843","kana_pref":"ﾐｴｹﾝ","kana_city":"ﾏﾂｻｶｼ","kana_address":"ﾄﾉﾑﾗﾁｮｳ","pref":"三重県","city":"松阪市","address":"殿村町"},
{"zip_code":"5150205","kana_pref":"ﾐｴｹﾝ","kana_city":"ﾏﾂｻｶｼ","kana_address":"ﾄﾖﾊﾗﾁｮｳ","pref":"三重県","city":"松阪市","address":"豊原町"},
{"zip_code":"5152124","kana_pref":"ﾐｴｹﾝ","kana_city":"ﾏﾂｻｶｼ","kana_address":"ﾅｶﾉｼｮｳﾁｮｳ","pref":"三重県","city":"松阪市","address":"中ノ庄町"},
{"zip_code":"5152111","kana_pref":"ﾐｴｹﾝ","kana_city":"ﾏﾂｻｶｼ","kana_address":"ﾅｶﾊﾞﾔｼﾁｮｳ","pref":"三重県","city":"松阪市","address":"中林町"},
{"zip_code":"5150083","kana_pref":"ﾐｴｹﾝ","kana_city":"ﾏﾂｻｶｼ","kana_address":"ﾅｶﾏﾁ","pref":"三重県","city":"松阪市","address":"中町"},
{"zip_code":"5152115","kana_pref":"ﾐｴｹﾝ","kana_city":"ﾏﾂｻｶｼ","kana_address":"ﾅｶﾐﾁﾁｮｳ","pref":"三重県","city":"松阪市","address":"中道町"},
{"zip_code":"5150103","kana_pref":"ﾐｴｹﾝ","kana_city":"ﾏﾂｻｶｼ","kana_address":"ﾆｼｸﾛﾍﾞﾁｮｳ","pref":"三重県","city":"松阪市","address":"西黒部町"},
{"zip_code":"5150816","kana_pref":"ﾐｴｹﾝ","kana_city":"ﾏﾂｻｶｼ","kana_address":"ﾆｼﾉｼｮｳﾁｮｳ","pref":"三重県","city":"松阪市","address":"西之庄町"},
{"zip_code":"5150833","kana_pref":"ﾐｴｹﾝ","kana_city":"ﾏﾂｻｶｼ","kana_address":"ﾆｼﾉﾁｮｳ","pref":"三重県","city":"松阪市","address":"西野町"},
{"zip_code":"5150029","kana_pref":"ﾐｴｹﾝ","kana_city":"ﾏﾂｻｶｼ","kana_address":"ﾆｼﾉﾉﾁｮｳ","pref":"三重県","city":"松阪市","address":"西野々町"},
{"zip_code":"5152106","kana_pref":"ﾐｴｹﾝ","kana_city":"ﾏﾂｻｶｼ","kana_address":"ﾆｼﾋﾙﾁｮｳ","pref":"三重県","city":"松阪市","address":"西肥留町"},
{"zip_code":"5150815","kana_pref":"ﾐｴｹﾝ","kana_city":"ﾏﾂｻｶｼ","kana_address":"ﾆｼﾏﾁ","pref":"三重県","city":"松阪市","address":"西町"},
{"zip_code":"5150042","kana_pref":"ﾐｴｹﾝ","kana_city":"ﾏﾂｻｶｼ","kana_address":"ﾆｼﾞｶﾞｵｶﾁｮｳ","pref":"三重県","city":"松阪市","address":"虹が丘町"},
{"zip_code":"5150832","kana_pref":"ﾐｴｹﾝ","kana_city":"ﾏﾂｻｶｼ","kana_address":"ﾆｭｳﾃﾞﾗﾁｮｳ","pref":"三重県","city":"松阪市","address":"丹生寺町"},
{"zip_code":"5150848","kana_pref":"ﾐｴｹﾝ","kana_city":"ﾏﾂｻｶｼ","kana_address":"ﾉﾑﾗﾁｮｳ","pref":"三重県","city":"松阪市","address":"野村町"},
{"zip_code":"5152108","kana_pref":"ﾐｴｹﾝ","kana_city":"ﾏﾂｻｶｼ","kana_address":"ﾊﾀﾞﾒﾁｮｳ","pref":"三重県","city":"松阪市","address":"甚目町"},
{"zip_code":"5150217","kana_pref":"ﾐｴｹﾝ","kana_city":"ﾏﾂｻｶｼ","kana_address":"ﾊﾔﾏｾﾞﾁｮｳ","pref":"三重県","city":"松阪市","address":"早馬瀬町"},
{"zip_code":"5150125","kana_pref":"ﾐｴｹﾝ","kana_city":"ﾏﾂｻｶｼ","kana_address":"ﾊﾗﾌﾄﾁｮｳ","pref":"三重県","city":"松阪市","address":"腹太町"},
{"zip_code":"5150835","kana_pref":"ﾐｴｹﾝ","kana_city":"ﾏﾂｻｶｼ","kana_address":"ﾋｵｶﾁｮｳ","pref":"三重県","city":"松阪市","address":"日丘町"},
{"zip_code":"5150051","kana_pref":"ﾐｴｹﾝ","kana_city":"ﾏﾂｻｶｼ","kana_address":"ﾋｶﾘﾁｮｳ","pref":"三重県","city":"松阪市","address":"光町"},
{"zip_code":"5150121","kana_pref":"ﾐｴｹﾝ","kana_city":"ﾏﾂｻｶｼ","kana_address":"ﾋｶﾞｼｸﾎﾞﾁｮｳ","pref":"三重県","city":"松阪市","address":"東久保町"},
{"zip_code":"5150101","kana_pref":"ﾐｴｹﾝ","kana_city":"ﾏﾂｻｶｼ","kana_address":"ﾋｶﾞｼｸﾛﾍﾞﾁｮｳ","pref":"三重県","city":"松阪市","address":"東黒部町"},
{"zip_code":"5150012","kana_pref":"ﾐｴｹﾝ","kana_city":"ﾏﾂｻｶｼ","kana_address":"ﾋｶﾞｼﾏﾁ","pref":"三重県","city":"松阪市","address":"東町"},
{"zip_code":"5150038","kana_pref":"ﾐｴｹﾝ","kana_city":"ﾏﾂｻｶｼ","kana_address":"ﾋｷｷﾞﾏﾁ","pref":"三重県","city":"松阪市","address":"挽木町"},
{"zip_code":"5150084","kana_pref":"ﾐｴｹﾝ","kana_city":"ﾏﾂｻｶｼ","kana_address":"ﾋﾉﾏﾁ","pref":"三重県","city":"松阪市","address":"日野町"},
{"zip_code":"5150036","kana_pref":"ﾐｴｹﾝ","kana_city":"ﾏﾂｻｶｼ","kana_address":"ﾋﾗｵﾏﾁ","pref":"三重県","city":"松阪市","address":"平生町"},
{"zip_code":"5152105","kana_pref":"ﾐｴｹﾝ","kana_city":"ﾏﾂｻｶｼ","kana_address":"ﾋﾙﾁｮｳ","pref":"三重県","city":"松阪市","address":"肥留町"},
{"zip_code":"5151201","kana_pref":"ﾐｴｹﾝ","kana_city":"ﾏﾂｻｶｼ","kana_address":"ﾋﾛｾﾁｮｳ","pref":"三重県","city":"松阪市","address":"広瀬町"},
{"zip_code":"5150846","kana_pref":"ﾐｴｹﾝ","kana_city":"ﾏﾂｻｶｼ","kana_address":"ﾌｺｻﾁｮｳ","pref":"三重県","city":"松阪市","address":"深長町"},
{"zip_code":"5150825","kana_pref":"ﾐｴｹﾝ","kana_city":"ﾏﾂｻｶｼ","kana_address":"ﾌｼﾞﾉｷﾁｮｳ","pref":"三重県","city":"松阪市","address":"藤之木町"},
{"zip_code":"5150812","kana_pref":"ﾐｴｹﾝ","kana_city":"ﾏﾂｻｶｼ","kana_address":"ﾌﾅｴﾁｮｳ","pref":"三重県","city":"松阪市","address":"船江町"},
{"zip_code":"5150824","kana_pref":"ﾐｴｹﾝ","kana_city":"ﾏﾂｻｶｼ","kana_address":"ﾍｲｾｲﾁｮｳ","pref":"三重県","city":"松阪市","address":"平成町"},
{"zip_code":"5150214","kana_pref":"ﾐｴｹﾝ","kana_city":"ﾏﾂｻｶｼ","kana_address":"ﾎｳﾀﾞﾁｮｳ","pref":"三重県","city":"松阪市","address":"法田町"},
{"zip_code":"5150124","kana_pref":"ﾐｴｹﾝ","kana_city":"ﾏﾂｻｶｼ","kana_address":"ﾎｳﾂﾞﾁｮｳ","pref":"三重県","city":"松阪市","address":"保津町"},
{"zip_code":"5152101","kana_pref":"ﾐｴｹﾝ","kana_city":"ﾏﾂｻｶｼ","kana_address":"ﾎｼｱｲﾁｮｳ","pref":"三重県","city":"松阪市","address":"星合町"},
{"zip_code":"5150081","kana_pref":"ﾐｴｹﾝ","kana_city":"ﾏﾂｻｶｼ","kana_address":"ﾎﾝﾏﾁ","pref":"三重県","city":"松阪市","address":"本町"},
{"zip_code":"5152107","kana_pref":"ﾐｴｹﾝ","kana_city":"ﾏﾂｻｶｼ","kana_address":"ﾏｲﾃﾞﾁｮｳ","pref":"三重県","city":"松阪市","address":"舞出町"},
{"zip_code":"5150045","kana_pref":"ﾐｴｹﾝ","kana_city":"ﾏﾂｻｶｼ","kana_address":"ﾏｴﾉﾍﾀﾁｮｳ","pref":"三重県","city":"松阪市","address":"駅部田町"},
{"zip_code":"5150841","kana_pref":"ﾐｴｹﾝ","kana_city":"ﾏﾂｻｶｼ","kana_address":"ﾏｶﾞﾘﾁｮｳ","pref":"三重県","city":"松阪市","address":"曲町"},
{"zip_code":"5150803","kana_pref":"ﾐｴｹﾝ","kana_city":"ﾏﾂｻｶｼ","kana_address":"ﾏﾁﾋﾞﾗｵﾁｮｳ","pref":"三重県","city":"松阪市","address":"町平尾町"},
{"zip_code":"5152133","kana_pref":"ﾐｴｹﾝ","kana_city":"ﾏﾂｻｶｼ","kana_address":"ﾏﾂｶﾞｼﾏﾁｮｳ","pref":"三重県","city":"松阪市","address":"松ケ島町"},
{"zip_code":"5152132","kana_pref":"ﾐｴｹﾝ","kana_city":"ﾏﾂｻｶｼ","kana_address":"ﾏﾂｻｷｳﾗﾁｮｳ","pref":"三重県","city":"松阪市","address":"松崎浦町"},
{"zip_code":"5150102","kana_pref":"ﾐｴｹﾝ","kana_city":"ﾏﾂｻｶｼ","kana_address":"ﾏﾂﾅｾﾁｮｳ","pref":"三重県","city":"松阪市","address":"松名瀬町"},
{"zip_code":"5150085","kana_pref":"ﾐｴｹﾝ","kana_city":"ﾏﾂｻｶｼ","kana_address":"ﾐﾅﾄﾏﾁ","pref":"三重県","city":"松阪市","address":"湊町"},
{"zip_code":"5150046","kana_pref":"ﾐｴｹﾝ","kana_city":"ﾏﾂｻｶｼ","kana_address":"ﾐﾅﾐﾆｼﾞｶﾞｵｶﾁｮｳ","pref":"三重県","city":"松阪市","address":"南虹が丘町"},
{"zip_code":"5150034","kana_pref":"ﾐｴｹﾝ","kana_city":"ﾏﾂｻｶｼ","kana_address":"ﾐﾅﾐﾏﾁ","pref":"三重県","city":"松阪市","address":"南町"},
{"zip_code":"5152344","kana_pref":"ﾐｴｹﾝ","kana_city":"ﾏﾂｻｶｼ","kana_address":"ﾐﾉﾀﾞﾁｮｳ","pref":"三重県","city":"松阪市","address":"美濃田町"},
{"zip_code":"5150015","kana_pref":"ﾐｴｹﾝ","kana_city":"ﾏﾂｻｶｼ","kana_address":"ﾐﾔﾏﾁ","pref":"三重県","city":"松阪市","address":"宮町"},
{"zip_code":"5150216","kana_pref":"ﾐｴｹﾝ","kana_city":"ﾏﾂｻｶｼ","kana_address":"ﾒﾀﾞﾁｮｳ","pref":"三重県","city":"松阪市","address":"目田町"},
{"zip_code":"5150087","kana_pref":"ﾐｴｹﾝ","kana_city":"ﾏﾂｻｶｼ","kana_address":"ﾓｴｷﾞﾁｮｳ","pref":"三重県","city":"松阪市","address":"萌木町"},
{"zip_code":"5150844","kana_pref":"ﾐｴｹﾝ","kana_city":"ﾏﾂｻｶｼ","kana_address":"ﾔｴﾀﾞﾁｮｳ","pref":"三重県","city":"松阪市","address":"八重田町"},
{"zip_code":"5151102","kana_pref":"ﾐｴｹﾝ","kana_city":"ﾏﾂｻｶｼ","kana_address":"ﾔﾂﾞﾁｮｳ","pref":"三重県","city":"松阪市","address":"矢津町"},
{"zip_code":"5150206","kana_pref":"ﾐｴｹﾝ","kana_city":"ﾏﾂｻｶｼ","kana_address":"ﾔﾏｼﾀﾁｮｳ","pref":"三重県","city":"松阪市","address":"山下町"},
{"zip_code":"5150208","kana_pref":"ﾐｴｹﾝ","kana_city":"ﾏﾂｻｶｼ","kana_address":"ﾔﾏｿﾞｴﾁｮｳ","pref":"三重県","city":"松阪市","address":"山添町"},
{"zip_code":"5150052","kana_pref":"ﾐｴｹﾝ","kana_city":"ﾏﾂｻｶｼ","kana_address":"ﾔﾏﾑﾛﾁｮｳ","pref":"三重県","city":"松阪市","address":"山室町"},
{"zip_code":"5152414","kana_pref":"ﾐｴｹﾝ","kana_city":"ﾏﾂｻｶｼ","kana_address":"ﾕﾉﾊﾗﾁｮｳ","pref":"三重県","city":"松阪市","address":"柚原町"},
{"zip_code":"5150847","kana_pref":"ﾐｴｹﾝ","kana_city":"ﾏﾂｻｶｼ","kana_address":"ﾖｳﾁﾁｮｳ","pref":"三重県","city":"松阪市","address":"岩内町"},
{"zip_code":"5150215","kana_pref":"ﾐｴｹﾝ","kana_city":"ﾏﾂｻｶｼ","kana_address":"ﾖｺﾁﾁｮｳ","pref":"三重県","city":"松阪市","address":"横地町"},
{"zip_code":"5152411","kana_pref":"ﾐｴｹﾝ","kana_city":"ﾏﾂｻｶｼ","kana_address":"ﾖﾊﾗﾁｮｳ","pref":"三重県","city":"松阪市","address":"与原町"},
{"zip_code":"5150802","kana_pref":"ﾐｴｹﾝ","kana_city":"ﾏﾂｻｶｼ","kana_address":"ﾘｮｳｼﾁｮｳ","pref":"三重県","city":"松阪市","address":"猟師町"},
{"zip_code":"5150115","kana_pref":"ﾐｴｹﾝ","kana_city":"ﾏﾂｻｶｼ","kana_address":"ﾚﾝｹﾞｼﾞﾁｮｳ","pref":"三重県","city":"松阪市","address":"蓮花寺町"},
{"zip_code":"5151203","kana_pref":"ﾐｴｹﾝ","kana_city":"ﾏﾂｻｶｼ","kana_address":"ﾛｸﾛｷﾞﾁｮｳ","pref":"三重県","city":"松阪市","address":"六呂木町"},
{"zip_code":"5152131","kana_pref":"ﾐｴｹﾝ","kana_city":"ﾏﾂｻｶｼ","kana_address":"ﾛｯｹﾝﾁｮｳ","pref":"三重県","city":"松阪市","address":"六軒町"},
{"zip_code":"5150127","kana_pref":"ﾐｴｹﾝ","kana_city":"ﾏﾂｻｶｼ","kana_address":"ﾛｯｺﾝﾁｮｳ","pref":"三重県","city":"松阪市","address":"六根町"},
{"zip_code":"5150014","kana_pref":"ﾐｴｹﾝ","kana_city":"ﾏﾂｻｶｼ","kana_address":"ﾜｶﾊﾞﾁｮｳ","pref":"三重県","city":"松阪市","address":"若葉町"},
{"zip_code":"5150025","kana_pref":"ﾐｴｹﾝ","kana_city":"ﾏﾂｻｶｼ","kana_address":"ﾜﾔﾁｮｳ","pref":"三重県","city":"松阪市","address":"和屋町"},
{"zip_code":"5150300","kana_pref":"ﾐｴｹﾝ","kana_city":"ﾀｷｸﾞﾝﾒｲﾜﾁｮｳ","kana_address":"","pref":"三重県","city":"多気郡明和町","address":""},
{"zip_code":"5150317","kana_pref":"ﾐｴｹﾝ","kana_city":"ﾀｷｸﾞﾝﾒｲﾜﾁｮｳ","kana_address":"ｲｹﾑﾗ","pref":"三重県","city":"多気郡明和町","address":"池村"},
{"zip_code":"5150312","kana_pref":"ﾐｴｹﾝ","kana_city":"ﾀｷｸﾞﾝﾒｲﾜﾁｮｳ","kana_address":"ｳｴﾉ","pref":"三重県","city":"多気郡明和町","address":"上野"},
{"zip_code":"5150322","kana_pref":"ﾐｴｹﾝ","kana_city":"ﾀｷｸﾞﾝﾒｲﾜﾁｮｳ","kana_address":"ｳｴﾑﾗ","pref":"三重県","city":"多気郡明和町","address":"上村"},
{"zip_code":"5150316","kana_pref":"ﾐｴｹﾝ","kana_city":"ﾀｷｸﾞﾝﾒｲﾜﾁｮｳ","kana_address":"ｳﾆﾅｶ","pref":"三重県","city":"多気郡明和町","address":"有爾中"},
{"zip_code":"5150332","kana_pref":"ﾐｴｹﾝ","kana_city":"ﾀｷｸﾞﾝﾒｲﾜﾁｮｳ","kana_address":"ｳﾏﾉｳｴ","pref":"三重県","city":"多気郡明和町","address":"馬之上"},
{"zip_code":"5150301","kana_pref":"ﾐｴｹﾝ","kana_city":"ﾀｷｸﾞﾝﾒｲﾜﾁｮｳ","kana_address":"ｵｵﾎﾘｶﾜｼﾝﾃﾞﾝ","pref":"三重県","city":"多気郡明和町","address":"大堀川新田"},
{"zip_code":"5150302","kana_pref":"ﾐｴｹﾝ","kana_city":"ﾀｷｸﾞﾝﾒｲﾜﾁｮｳ","kana_address":"ｵｵﾖﾄﾞ","pref":"三重県","city":"多気郡明和町","address":"大淀"},
{"zip_code":"5150349","kana_pref":"ﾐｴｹﾝ","kana_city":"ﾀｷｸﾞﾝﾒｲﾜﾁｮｳ","kana_address":"ｶﾜｼﾘ","pref":"三重県","city":"多気郡明和町","address":"川尻"},
{"zip_code":"5150341","kana_pref":"ﾐｴｹﾝ","kana_city":"ﾀｷｸﾞﾝﾒｲﾜﾁｮｳ","kana_address":"ｷﾀﾌｼﾞﾜﾗ","pref":"三重県","city":"多気郡明和町","address":"北藤原"},
{"zip_code":"5150324","kana_pref":"ﾐｴｹﾝ","kana_city":"ﾀｷｸﾞﾝﾒｲﾜﾁｮｳ","kana_address":"ｺﾝｺﾞｳｻﾞｶ","pref":"三重県","city":"多気郡明和町","address":"金剛坂"},
{"zip_code":"5150321","kana_pref":"ﾐｴｹﾝ","kana_city":"ﾀｷｸﾞﾝﾒｲﾜﾁｮｳ","kana_address":"ｻｲｸｳ","pref":"三重県","city":"多気郡明和町","address":"斎宮"},
{"zip_code":"5150333","kana_pref":"ﾐｴｹﾝ","kana_city":"ﾀｷｸﾞﾝﾒｲﾜﾁｮｳ","kana_address":"ｻｶﾓﾄ","pref":"三重県","city":"多気郡明和町","address":"坂本"},
{"zip_code":"5150331","kana_pref":"ﾐｴｹﾝ","kana_city":"ﾀｷｸﾞﾝﾒｲﾜﾁｮｳ","kana_address":"ｻﾀ","pref":"三重県","city":"多気郡明和町","address":"佐田"},
{"zip_code":"5150347","kana_pref":"ﾐｴｹﾝ","kana_city":"ﾀｷｸﾞﾝﾒｲﾜﾁｮｳ","kana_address":"ｼｷ","pref":"三重県","city":"多気郡明和町","address":"志貴"},
{"zip_code":"5150314","kana_pref":"ﾐｴｹﾝ","kana_city":"ﾀｷｸﾞﾝﾒｲﾜﾁｮｳ","kana_address":"ｼﾝﾁｬﾔ","pref":"三重県","city":"多気郡明和町","address":"新茶屋"},
{"zip_code":"5150325","kana_pref":"ﾐｴｹﾝ","kana_city":"ﾀｷｸﾞﾝﾒｲﾜﾁｮｳ","kana_address":"ﾀｹｶﾞﾜ","pref":"三重県","city":"多気郡明和町","address":"竹川"},
{"zip_code":"5150345","kana_pref":"ﾐｴｹﾝ","kana_city":"ﾀｷｸﾞﾝﾒｲﾜﾁｮｳ","kana_address":"ﾀﾔ","pref":"三重県","city":"多気郡明和町","address":"田屋"},
{"zip_code":"5150343","kana_pref":"ﾐｴｹﾝ","kana_city":"ﾀｷｸﾞﾝﾒｲﾜﾁｮｳ","kana_address":"ﾅｲｻﾞ","pref":"三重県","city":"多気郡明和町","address":"内座"},
{"zip_code":"5150348","kana_pref":"ﾐｴｹﾝ","kana_city":"ﾀｷｸﾞﾝﾒｲﾜﾁｮｳ","kana_address":"ﾅｶﾑﾗ","pref":"三重県","city":"多気郡明和町","address":"中村"},
{"zip_code":"5150334","kana_pref":"ﾐｴｹﾝ","kana_city":"ﾀｷｸﾞﾝﾒｲﾜﾁｮｳ","kana_address":"ﾅｺﾐ","pref":"三重県","city":"多気郡明和町","address":"中海"},
{"zip_code":"5150353","kana_pref":"ﾐｴｹﾝ","kana_city":"ﾀｷｸﾞﾝﾒｲﾜﾁｮｳ","kana_address":"ﾈｸﾞﾗ","pref":"三重県","city":"多気郡明和町","address":"根倉"},
{"zip_code":"5150351","kana_pref":"ﾐｴｹﾝ","kana_city":"ﾀｷｸﾞﾝﾒｲﾜﾁｮｳ","kana_address":"ﾊﾏﾀﾞ","pref":"三重県","city":"多気郡明和町","address":"浜田"},
{"zip_code":"5150311","kana_pref":"ﾐｴｹﾝ","kana_city":"ﾀｷｸﾞﾝﾒｲﾜﾁｮｳ","kana_address":"ﾋﾗｵ","pref":"三重県","city":"多気郡明和町","address":"平尾"},
{"zip_code":"5150346","kana_pref":"ﾐｴｹﾝ","kana_city":"ﾀｷｸﾞﾝﾒｲﾜﾁｮｳ","kana_address":"ﾏｴﾉ","pref":"三重県","city":"多気郡明和町","address":"前野"},
{"zip_code":"5150342","kana_pref":"ﾐｴｹﾝ","kana_city":"ﾀｷｸﾞﾝﾒｲﾜﾁｮｳ","kana_address":"ﾐﾅﾐﾌｼﾞﾜﾗ","pref":"三重県","city":"多気郡明和町","address":"南藤原"},
{"zip_code":"5150315","kana_pref":"ﾐｴｹﾝ","kana_city":"ﾀｷｸﾞﾝﾒｲﾜﾁｮｳ","kana_address":"ﾐﾉﾑﾗ","pref":"三重県","city":"多気郡明和町","address":"蓑村"},
{"zip_code":"5150313","kana_pref":"ﾐｴｹﾝ","kana_city":"ﾀｷｸﾞﾝﾒｲﾜﾁｮｳ","kana_address":"ﾐｮｳｼﾞｮｳ","pref":"三重県","city":"多気郡明和町","address":"明星"},
{"zip_code":"5150352","kana_pref":"ﾐｴｹﾝ","kana_city":"ﾀｷｸﾞﾝﾒｲﾜﾁｮｳ","kana_address":"ﾔｷﾄﾞ","pref":"三重県","city":"多気郡明和町","address":"八木戸"},
{"zip_code":"5150303","kana_pref":"ﾐｴｹﾝ","kana_city":"ﾀｷｸﾞﾝﾒｲﾜﾁｮｳ","kana_address":"ﾔﾏｵｵﾖﾄﾞ","pref":"三重県","city":"多気郡明和町","address":"山大淀"},
{"zip_code":"5150354","kana_pref":"ﾐｴｹﾝ","kana_city":"ﾀｷｸﾞﾝﾒｲﾜﾁｮｳ","kana_address":"ﾕｸﾍﾞ","pref":"三重県","city":"多気郡明和町","address":"行部"},
{"zip_code":"5150344","kana_pref":"ﾐｴｹﾝ","kana_city":"ﾀｷｸﾞﾝﾒｲﾜﾁｮｳ","kana_address":"ﾖｳｶﾜ","pref":"三重県","city":"多気郡明和町","address":"養川"},
{"zip_code":"5150323","kana_pref":"ﾐｴｹﾝ","kana_city":"ﾀｷｸﾞﾝﾒｲﾜﾁｮｳ","kana_address":"ﾖｳﾁ","pref":"三重県","city":"多気郡明和町","address":"岩内"}]}