{"zip_code":[
{"zip_code":"5160000","kana_pref":"ﾐｴｹﾝ","kana_city":"ｲｾｼ","kana_address":"","pref":"三重県","city":"伊勢市","address":""},
{"zip_code":"5160045","kana_pref":"ﾐｴｹﾝ","kana_city":"ｲｾｼ","kana_address":"ｱｻﾋﾁｮｳ","pref":"三重県","city":"伊勢市","address":"旭町"},
{"zip_code":"5160021","kana_pref":"ﾐｴｹﾝ","kana_city":"ｲｾｼ","kana_address":"ｱｻﾏﾁｮｳ","pref":"三重県","city":"伊勢市","address":"朝熊町"},
{"zip_code":"5160054","kana_pref":"ﾐｴｹﾝ","kana_city":"ｲｾｼ","kana_address":"ｱﾜﾉﾁｮｳ","pref":"三重県","city":"伊勢市","address":"粟野町"},
{"zip_code":"5160022","kana_pref":"ﾐｴｹﾝ","kana_city":"ｲｾｼ","kana_address":"ｲﾁｳﾀﾞﾁｮｳ","pref":"三重県","city":"伊勢市","address":"一宇田町"},
{"zip_code":"5160075","kana_pref":"ﾐｴｹﾝ","kana_city":"ｲｾｼ","kana_address":"ｲﾁｼﾁｮｳ","pref":"三重県","city":"伊勢市","address":"一志町"},
{"zip_code":"5160071","kana_pref":"ﾐｴｹﾝ","kana_city":"ｲｾｼ","kana_address":"ｲﾁﾉｷ","pref":"三重県","city":"伊勢市","address":"一之木"},
{"zip_code":"5160011","kana_pref":"ﾐｴｹﾝ","kana_city":"ｲｾｼ","kana_address":"ｲｯｼｷﾁｮｳ","pref":"三重県","city":"伊勢市","address":"一色町"},
{"zip_code":"5160037","kana_pref":"ﾐｴｹﾝ","kana_city":"ｲｾｼ","kana_address":"ｲﾜﾌﾞﾁ","pref":"三重県","city":"伊勢市","address":"岩渕"},
{"zip_code":"5160038","kana_pref":"ﾐｴｹﾝ","kana_city":"ｲｾｼ","kana_address":"ｲﾜﾌﾞﾁﾁｮｳ","pref":"三重県","city":"伊勢市","address":"岩渕町"},
{"zip_code":"5160051","kana_pref":"ﾐｴｹﾝ","kana_city":"ｲｾｼ","kana_address":"ｳｴｼﾞﾁｮｳ","pref":"三重県","city":"伊勢市","address":"上地町"},
{"zip_code":"5161104","kana_pref":"ﾐｴｹﾝ","kana_city":"ｲｾｼ","kana_address":"ｳｴﾉﾁｮｳ","pref":"三重県","city":"伊勢市","address":"上野町"},
{"zip_code":"5160024","kana_pref":"ﾐｴｹﾝ","kana_city":"ｲｾｼ","kana_address":"ｳｼﾞｲﾏｻﾞｲｹﾁｮｳ","pref":"三重県","city":"伊勢市","address":"宇治今在家町"},
{"zip_code":"5160023","kana_pref":"ﾐｴｹﾝ","kana_city":"ｲｾｼ","kana_address":"ｳｼﾞﾀﾁﾁｮｳ","pref":"三重県","city":"伊勢市","address":"宇治館町"},
{"zip_code":"5160025","kana_pref":"ﾐｴｹﾝ","kana_city":"ｲｾｼ","kana_address":"ｳｼﾞﾅｶﾉｷﾘﾁｮｳ","pref":"三重県","city":"伊勢市","address":"宇治中之切町"},
{"zip_code":"5160026","kana_pref":"ﾐｴｹﾝ","kana_city":"ｲｾｼ","kana_address":"ｳｼﾞｳﾗﾀ","pref":"三重県","city":"伊勢市","address":"宇治浦田"},
{"zip_code":"5160062","kana_pref":"ﾐｴｹﾝ","kana_city":"ｲｾｼ","kana_address":"ｳﾗｸﾞﾁ","pref":"三重県","city":"伊勢市","address":"浦口"},
{"zip_code":"5160063","kana_pref":"ﾐｴｹﾝ","kana_city":"ｲｾｼ","kana_address":"ｳﾗｸﾞﾁﾁｮｳ","pref":"三重県","city":"伊勢市","address":"浦口町"},
{"zip_code":"5161108","kana_pref":"ﾐｴｹﾝ","kana_city":"ｲｾｼ","kana_address":"ｴﾝｻﾞﾁｮｳ","pref":"三重県","city":"伊勢市","address":"円座町"},
{"zip_code":"5161101","kana_pref":"ﾐｴｹﾝ","kana_city":"ｲｾｼ","kana_address":"ｵｵｸﾗﾁｮｳ","pref":"三重県","city":"伊勢市","address":"大倉町"},
{"zip_code":"5160079","kana_pref":"ﾐｴｹﾝ","kana_city":"ｲｾｼ","kana_address":"ｵｵｾﾞｺ","pref":"三重県","city":"伊勢市","address":"大世古"},
{"zip_code":"5160001","kana_pref":"ﾐｴｹﾝ","kana_city":"ｲｾｼ","kana_address":"ｵｵﾐﾅﾄﾁｮｳ","pref":"三重県","city":"伊勢市","address":"大湊町"},
{"zip_code":"5160036","kana_pref":"ﾐｴｹﾝ","kana_city":"ｲｾｼ","kana_address":"ｵｶﾓﾄ","pref":"三重県","city":"伊勢市","address":"岡本"},
{"zip_code":"5160031","kana_pref":"ﾐｴｹﾝ","kana_city":"ｲｾｼ","kana_address":"ｵﾉｴﾁｮｳ","pref":"三重県","city":"伊勢市","address":"尾上町"},
{"zip_code":"5160013","kana_pref":"ﾐｴｹﾝ","kana_city":"ｲｾｼ","kana_address":"ｶﾉﾐﾁｮｳ","pref":"三重県","city":"伊勢市","address":"鹿海町"},
{"zip_code":"5161107","kana_pref":"ﾐｴｹﾝ","kana_city":"ｲｾｼ","kana_address":"ｶﾐｿﾉﾁｮｳ","pref":"三重県","city":"伊勢市","address":"神薗町"},
{"zip_code":"5160004","kana_pref":"ﾐｴｹﾝ","kana_city":"ｲｾｼ","kana_address":"ｶﾐﾔｼﾛｺｳ","pref":"三重県","city":"伊勢市","address":"神社港"},
{"zip_code":"5160009","kana_pref":"ﾐｴｹﾝ","kana_city":"ｲｾｼ","kana_address":"ｶﾜｻｷ","pref":"三重県","city":"伊勢市","address":"河崎"},
{"zip_code":"5160052","kana_pref":"ﾐｴｹﾝ","kana_city":"ｲｾｼ","kana_address":"ｶﾜﾊﾞﾀﾁｮｳ","pref":"三重県","city":"伊勢市","address":"川端町"},
{"zip_code":"5160014","kana_pref":"ﾐｴｹﾝ","kana_city":"ｲｾｼ","kana_address":"ｸｽﾍﾞﾁｮｳ","pref":"三重県","city":"伊勢市","address":"楠部町"},
{"zip_code":"5160015","kana_pref":"ﾐｴｹﾝ","kana_city":"ｲｾｼ","kana_address":"ｸｾﾄﾞﾁｮｳ","pref":"三重県","city":"伊勢市","address":"久世戸町"},
{"zip_code":"5160018","kana_pref":"ﾐｴｹﾝ","kana_city":"ｲｾｼ","kana_address":"ｸﾛｾﾁｮｳ","pref":"三重県","city":"伊勢市","address":"黒瀬町"},
{"zip_code":"5160007","kana_pref":"ﾐｴｹﾝ","kana_city":"ｲｾｼ","kana_address":"ｺｳｷﾞﾁｮｳ","pref":"三重県","city":"伊勢市","address":"小木町"},
{"zip_code":"5160016","kana_pref":"ﾐｴｹﾝ","kana_city":"ｲｾｼ","kana_address":"ｺｳﾀﾞｸｼﾓﾄﾁｮｳ","pref":"三重県","city":"伊勢市","address":"神田久志本町"},
{"zip_code":"5160027","kana_pref":"ﾐｴｹﾝ","kana_city":"ｲｾｼ","kana_address":"ｻｸﾗｷﾞﾁｮｳ","pref":"三重県","city":"伊勢市","address":"桜木町"},
{"zip_code":"5160003","kana_pref":"ﾐｴｹﾝ","kana_city":"ｲｾｼ","kana_address":"ｼﾓﾉﾁｮｳ","pref":"三重県","city":"伊勢市","address":"下野町"},
{"zip_code":"5160017","kana_pref":"ﾐｴｹﾝ","kana_city":"ｲｾｼ","kana_address":"ｼﾞﾝｷｭｳ","pref":"三重県","city":"伊勢市","address":"神久"},
{"zip_code":"5160035","kana_pref":"ﾐｴｹﾝ","kana_city":"ｲｾｼ","kana_address":"ｾｲﾀﾁｮｳ","pref":"三重県","city":"伊勢市","address":"勢田町"},
{"zip_code":"5161102","kana_pref":"ﾐｴｹﾝ","kana_city":"ｲｾｼ","kana_address":"ｿｳﾁﾁｮｳ","pref":"三重県","city":"伊勢市","address":"佐八町"},
{"zip_code":"5160078","kana_pref":"ﾐｴｹﾝ","kana_city":"ｲｾｼ","kana_address":"ｿﾈ","pref":"三重県","city":"伊勢市","address":"曽祢"},
{"zip_code":"5160005","kana_pref":"ﾐｴｹﾝ","kana_city":"ｲｾｼ","kana_address":"ﾀｹｶﾞﾊﾅﾁｮｳ","pref":"三重県","city":"伊勢市","address":"竹ケ鼻町"},
{"zip_code":"5160006","kana_pref":"ﾐｴｹﾝ","kana_city":"ｲｾｼ","kana_address":"ﾀｼﾞﾘﾁｮｳ","pref":"三重県","city":"伊勢市","address":"田尻町"},
{"zip_code":"5160066","kana_pref":"ﾐｴｹﾝ","kana_city":"ｲｾｼ","kana_address":"ﾂｼﾞｸﾙ","pref":"三重県","city":"伊勢市","address":"辻久留"},
{"zip_code":"5160046","kana_pref":"ﾐｴｹﾝ","kana_city":"ｲｾｼ","kana_address":"ﾂｼﾞｸﾙﾁｮｳ","pref":"三重県","city":"伊勢市","address":"辻久留町"},
{"zip_code":"5161103","kana_pref":"ﾐｴｹﾝ","kana_city":"ｲｾｼ","kana_address":"ﾂﾑﾗﾁｮｳ","pref":"三重県","city":"伊勢市","address":"津村町"},
{"zip_code":"5160012","kana_pref":"ﾐｴｹﾝ","kana_city":"ｲｾｼ","kana_address":"ﾄｵﾘﾁｮｳ","pref":"三重県","city":"伊勢市","address":"通町"},
{"zip_code":"5160041","kana_pref":"ﾐｴｹﾝ","kana_city":"ｲｾｼ","kana_address":"ﾄｷﾜ","pref":"三重県","city":"伊勢市","address":"常磐"},
{"zip_code":"5160047","kana_pref":"ﾐｴｹﾝ","kana_city":"ｲｾｼ","kana_address":"ﾄｷﾜﾁｮｳ","pref":"三重県","city":"伊勢市","address":"常磐町"},
{"zip_code":"5160042","kana_pref":"ﾐｴｹﾝ","kana_city":"ｲｾｼ","kana_address":"ﾄﾖｶﾜﾁｮｳ","pref":"三重県","city":"伊勢市","address":"豊川町"},
{"zip_code":"5160067","kana_pref":"ﾐｴｹﾝ","kana_city":"ｲｾｼ","kana_address":"ﾅｶｼﾞﾏ","pref":"三重県","city":"伊勢市","address":"中島"},
{"zip_code":"5160053","kana_pref":"ﾐｴｹﾝ","kana_city":"ｲｾｼ","kana_address":"ﾅｶｽﾞﾁｮｳ","pref":"三重県","city":"伊勢市","address":"中須町"},
{"zip_code":"5160034","kana_pref":"ﾐｴｹﾝ","kana_city":"ｲｾｼ","kana_address":"ﾅｶﾉﾁｮｳ","pref":"三重県","city":"伊勢市","address":"中之町"},
{"zip_code":"5160028","kana_pref":"ﾐｴｹﾝ","kana_city":"ｲｾｼ","kana_address":"ﾅｶﾑﾗﾁｮｳ","pref":"三重県","city":"伊勢市","address":"中村町"},
{"zip_code":"5160073","kana_pref":"ﾐｴｹﾝ","kana_city":"ｲｾｼ","kana_address":"ﾌｷｱｹﾞ","pref":"三重県","city":"伊勢市","address":"吹上"},
{"zip_code":"5160043","kana_pref":"ﾐｴｹﾝ","kana_city":"ｲｾｼ","kana_address":"ﾌｼﾞｻﾄﾁｮｳ","pref":"三重県","city":"伊勢市","address":"藤里町"},
{"zip_code":"5160064","kana_pref":"ﾐｴｹﾝ","kana_city":"ｲｾｼ","kana_address":"ﾌﾀﾏﾀ","pref":"三重県","city":"伊勢市","address":"二俣"},
{"zip_code":"5160065","kana_pref":"ﾐｴｹﾝ","kana_city":"ｲｾｼ","kana_address":"ﾌﾀﾏﾀﾁｮｳ","pref":"三重県","city":"伊勢市","address":"二俣町"},
{"zip_code":"5160008","kana_pref":"ﾐｴｹﾝ","kana_city":"ｲｾｼ","kana_address":"ﾌﾅｴ","pref":"三重県","city":"伊勢市","address":"船江"},
{"zip_code":"5160033","kana_pref":"ﾐｴｹﾝ","kana_city":"ｲｾｼ","kana_address":"ﾌﾙｲﾁﾁｮｳ","pref":"三重県","city":"伊勢市","address":"古市町"},
{"zip_code":"5160074","kana_pref":"ﾐｴｹﾝ","kana_city":"ｲｾｼ","kana_address":"ﾎﾝﾏﾁ","pref":"三重県","city":"伊勢市","address":"本町"},
{"zip_code":"5160044","kana_pref":"ﾐｴｹﾝ","kana_city":"ｲｾｼ","kana_address":"ﾏｴﾔﾏﾁｮｳ","pref":"三重県","city":"伊勢市","address":"前山町"},
{"zip_code":"5160002","kana_pref":"ﾐｴｹﾝ","kana_city":"ｲｾｼ","kana_address":"ﾏｾﾞﾁｮｳ","pref":"三重県","city":"伊勢市","address":"馬瀬町"},
{"zip_code":"5160803","kana_pref":"ﾐｴｹﾝ","kana_city":"ｲｾｼ","kana_address":"ﾐｿﾉﾁｮｳｵｳﾅｶｼﾞﾏ","pref":"三重県","city":"伊勢市","address":"御薗町王中島"},
{"zip_code":"5160801","kana_pref":"ﾐｴｹﾝ","kana_city":"ｲｾｼ","kana_address":"ﾐｿﾉﾁｮｳｵﾊﾔｼ","pref":"三重県","city":"伊勢市","address":"御薗町小林"},
{"zip_code":"5160806","kana_pref":"ﾐｴｹﾝ","kana_city":"ｲｾｼ","kana_address":"ﾐｿﾉﾁｮｳｶﾐｼﾞｮｳ","pref":"三重県","city":"伊勢市","address":"御薗町上條"},
{"zip_code":"5160802","kana_pref":"ﾐｴｹﾝ","kana_city":"ｲｾｼ","kana_address":"ﾐｿﾉﾁｮｳｼﾝｶﾞｲ","pref":"三重県","city":"伊勢市","address":"御薗町新開"},
{"zip_code":"5160805","kana_pref":"ﾐｴｹﾝ","kana_city":"ｲｾｼ","kana_address":"ﾐｿﾉﾁｮｳﾀｶﾌﾞｸ","pref":"三重県","city":"伊勢市","address":"御薗町高向"},
{"zip_code":"5160804","kana_pref":"ﾐｴｹﾝ","kana_city":"ｲｾｼ","kana_address":"ﾐｿﾉﾁｮｳﾅｶﾞﾔ","pref":"三重県","city":"伊勢市","address":"御薗町長屋"},
{"zip_code":"5160061","kana_pref":"ﾐｴｹﾝ","kana_city":"ｲｾｼ","kana_address":"ﾐﾔｶﾞﾜ","pref":"三重県","city":"伊勢市","address":"宮川"},
{"zip_code":"5160072","kana_pref":"ﾐｴｹﾝ","kana_city":"ｲｾｼ","kana_address":"ﾐﾔｼﾞﾘ","pref":"三重県","city":"伊勢市","address":"宮後"},
{"zip_code":"5160077","kana_pref":"ﾐｴｹﾝ","kana_city":"ｲｾｼ","kana_address":"ﾐﾔﾏﾁ","pref":"三重県","city":"伊勢市","address":"宮町"},
{"zip_code":"5160032","kana_pref":"ﾐｴｹﾝ","kana_city":"ｲｾｼ","kana_address":"ﾔﾏﾄﾏﾁ","pref":"三重県","city":"伊勢市","address":"倭町"},
{"zip_code":"5161105","kana_pref":"ﾐｴｹﾝ","kana_city":"ｲｾｼ","kana_address":"ﾔﾓﾁﾁｮｳ","pref":"三重県","city":"伊勢市","address":"矢持町"},
{"zip_code":"5160076","kana_pref":"ﾐｴｹﾝ","kana_city":"ｲｾｼ","kana_address":"ﾖｳｶｲﾁﾊﾞﾁｮｳ","pref":"三重県","city":"伊勢市","address":"八日市場町"},
{"zip_code":"5161106","kana_pref":"ﾐｴｹﾝ","kana_city":"ｲｾｼ","kana_address":"ﾖｺﾜﾁｮｳ","pref":"三重県","city":"伊勢市","address":"横輪町"},
{"zip_code":"5162100","kana_pref":"ﾐｴｹﾝ","kana_city":"ﾜﾀﾗｲｸﾞﾝﾜﾀﾗｲﾁｮｳ","kana_address":"","pref":"三重県","city":"度会郡度会町","address":""},
{"zip_code":"5161242","kana_pref":"ﾐｴｹﾝ","kana_city":"ﾜﾀﾗｲｸﾞﾝﾜﾀﾗｲﾁｮｳ","kana_address":"ｲﾁﾊﾞ","pref":"三重県","city":"度会郡度会町","address":"市場"},
{"zip_code":"5162106","kana_pref":"ﾐｴｹﾝ","kana_city":"ﾜﾀﾗｲｸﾞﾝﾜﾀﾗｲﾁｮｳ","kana_address":"ｵｵｸﾎﾞ","pref":"三重県","city":"度会郡度会町","address":"大久保"},
{"zip_code":"5162102","kana_pref":"ﾐｴｹﾝ","kana_city":"ﾜﾀﾗｲｸﾞﾝﾜﾀﾗｲﾁｮｳ","kana_address":"ｵｵﾉｷ","pref":"三重県","city":"度会郡度会町","address":"大野木"},
{"zip_code":"5161236","kana_pref":"ﾐｴｹﾝ","kana_city":"ﾜﾀﾗｲｸﾞﾝﾜﾀﾗｲﾁｮｳ","kana_address":"ｵｶﾞﾜ","pref":"三重県","city":"度会郡度会町","address":"小川"},
{"zip_code":"5162112","kana_pref":"ﾐｴｹﾝ","kana_city":"ﾜﾀﾗｲｸﾞﾝﾜﾀﾗｲﾁｮｳ","kana_address":"ｶﾐｸｸﾞ","pref":"三重県","city":"度会郡度会町","address":"上久具"},
{"zip_code":"5161245","kana_pref":"ﾐｴｹﾝ","kana_city":"ﾜﾀﾗｲｸﾞﾝﾜﾀﾗｲﾁｮｳ","kana_address":"ｶﾜｶﾐ","pref":"三重県","city":"度会郡度会町","address":"川上"},
{"zip_code":"5161231","kana_pref":"ﾐｴｹﾝ","kana_city":"ﾜﾀﾗｲｸﾞﾝﾜﾀﾗｲﾁｮｳ","kana_address":"ｶﾜｸﾞﾁ","pref":"三重県","city":"度会郡度会町","address":"川口"},
{"zip_code":"5162101","kana_pref":"ﾐｴｹﾝ","kana_city":"ﾜﾀﾗｲｸﾞﾝﾜﾀﾗｲﾁｮｳ","kana_address":"ｸｽﾞﾜﾗ","pref":"三重県","city":"度会郡度会町","address":"葛原"},
{"zip_code":"5161232","kana_pref":"ﾐｴｹﾝ","kana_city":"ﾜﾀﾗｲｸﾞﾝﾜﾀﾗｲﾁｮｳ","kana_address":"ｸﾘﾊﾗ","pref":"三重県","city":"度会郡度会町","address":"栗原"},
{"zip_code":"5161237","kana_pref":"ﾐｴｹﾝ","kana_city":"ﾜﾀﾗｲｸﾞﾝﾜﾀﾗｲﾁｮｳ","kana_address":"ｺﾞｶﾉﾁｮｳ","pref":"三重県","city":"度会郡度会町","address":"五ケ町"},
{"zip_code":"5161247","kana_pref":"ﾐｴｹﾝ","kana_city":"ﾜﾀﾗｲｸﾞﾝﾜﾀﾗｲﾁｮｳ","kana_address":"ｺﾊｷﾞ","pref":"三重県","city":"度会郡度会町","address":"小萩"},
{"zip_code":"5161235","kana_pref":"ﾐｴｹﾝ","kana_city":"ﾜﾀﾗｲｸﾞﾝﾜﾀﾗｲﾁｮｳ","kana_address":"ｺﾏｶﾞﾉ","pref":"三重県","city":"度会郡度会町","address":"駒ケ野"},
{"zip_code":"5162116","kana_pref":"ﾐｴｹﾝ","kana_city":"ﾜﾀﾗｲｸﾞﾝﾜﾀﾗｲﾁｮｳ","kana_address":"ｻｶｲ","pref":"三重県","city":"度会郡度会町","address":"坂井"},
{"zip_code":"5162119","kana_pref":"ﾐｴｹﾝ","kana_city":"ﾜﾀﾗｲｸﾞﾝﾜﾀﾗｲﾁｮｳ","kana_address":"ｼﾒｻｽ","pref":"三重県","city":"度会郡度会町","address":"注連指"},
{"zip_code":"5162111","kana_pref":"ﾐｴｹﾝ","kana_city":"ﾜﾀﾗｲｸﾞﾝﾜﾀﾗｲﾁｮｳ","kana_address":"ｼﾓｸｸﾞ","pref":"三重県","city":"度会郡度会町","address":"下久具"},
{"zip_code":"5162118","kana_pref":"ﾐｴｹﾝ","kana_city":"ﾜﾀﾗｲｸﾞﾝﾜﾀﾗｲﾁｮｳ","kana_address":"ﾀｸﾞﾁ","pref":"三重県","city":"度会郡度会町","address":"田口"},
{"zip_code":"5162107","kana_pref":"ﾐｴｹﾝ","kana_city":"ﾜﾀﾗｲｸﾞﾝﾜﾀﾗｲﾁｮｳ","kana_address":"ﾀﾁｵｶ","pref":"三重県","city":"度会郡度会町","address":"立岡"},
{"zip_code":"5162103","kana_pref":"ﾐｴｹﾝ","kana_city":"ﾜﾀﾗｲｸﾞﾝﾜﾀﾗｲﾁｮｳ","kana_address":"ﾀﾅﾊｼ","pref":"三重県","city":"度会郡度会町","address":"棚橋"},
{"zip_code":"5162113","kana_pref":"ﾐｴｹﾝ","kana_city":"ﾜﾀﾗｲｸﾞﾝﾜﾀﾗｲﾁｮｳ","kana_address":"ﾀﾏ","pref":"三重県","city":"度会郡度会町","address":"田間"},
{"zip_code":"5162114","kana_pref":"ﾐｴｹﾝ","kana_city":"ﾜﾀﾗｲｸﾞﾝﾜﾀﾗｲﾁｮｳ","kana_address":"ﾄｳﾂﾞ","pref":"三重県","city":"度会郡度会町","address":"当津"},
{"zip_code":"5161238","kana_pref":"ﾐｴｹﾝ","kana_city":"ﾜﾀﾗｲｸﾞﾝﾜﾀﾗｲﾁｮｳ","kana_address":"ﾅｶﾉｺﾞｳ","pref":"三重県","city":"度会郡度会町","address":"中之郷"},
{"zip_code":"5162115","kana_pref":"ﾐｴｹﾝ","kana_city":"ﾜﾀﾗｲｸﾞﾝﾜﾀﾗｲﾁｮｳ","kana_address":"ﾅｶﾞﾜﾗ","pref":"三重県","city":"度会郡度会町","address":"長原"},
{"zip_code":"5162108","kana_pref":"ﾐｴｹﾝ","kana_city":"ﾜﾀﾗｲｸﾞﾝﾜﾀﾗｲﾁｮｳ","kana_address":"ﾊｲｶﾜ","pref":"三重県","city":"度会郡度会町","address":"鮠川"},
{"zip_code":"5161234","kana_pref":"ﾐｴｹﾝ","kana_city":"ﾜﾀﾗｲｸﾞﾝﾜﾀﾗｲﾁｮｳ","kana_address":"ﾋｳﾁｲｼ","pref":"三重県","city":"度会郡度会町","address":"火打石"},
{"zip_code":"5161233","kana_pref":"ﾐｴｹﾝ","kana_city":"ﾜﾀﾗｲｸﾞﾝﾜﾀﾗｲﾁｮｳ","kana_address":"ﾋﾅﾀ","pref":"三重県","city":"度会郡度会町","address":"日向"},
{"zip_code":"5162105","kana_pref":"ﾐｴｹﾝ","kana_city":"ﾜﾀﾗｲｸﾞﾝﾜﾀﾗｲﾁｮｳ","kana_address":"ﾋﾛｵ","pref":"三重県","city":"度会郡度会町","address":"平生"},
{"zip_code":"5162117","kana_pref":"ﾐｴｹﾝ","kana_city":"ﾜﾀﾗｲｸﾞﾝﾜﾀﾗｲﾁｮｳ","kana_address":"ﾏｶｴ","pref":"三重県","city":"度会郡度会町","address":"麻加江"},
{"zip_code":"5162104","kana_pref":"ﾐｴｹﾝ","kana_city":"ﾜﾀﾗｲｸﾞﾝﾜﾀﾗｲﾁｮｳ","kana_address":"ﾏｷﾄﾞ","pref":"三重県","city":"度会郡度会町","address":"牧戸"},
{"zip_code":"5161244","kana_pref":"ﾐｴｹﾝ","kana_city":"ﾜﾀﾗｲｸﾞﾝﾜﾀﾗｲﾁｮｳ","kana_address":"ﾐﾅﾐﾅｶﾑﾗ","pref":"三重県","city":"度会郡度会町","address":"南中村"},
{"zip_code":"5161241","kana_pref":"ﾐｴｹﾝ","kana_city":"ﾜﾀﾗｲｸﾞﾝﾜﾀﾗｲﾁｮｳ","kana_address":"ﾔﾅｷﾞ","pref":"三重県","city":"度会郡度会町","address":"柳"},
{"zip_code":"5161243","kana_pref":"ﾐｴｹﾝ","kana_city":"ﾜﾀﾗｲｸﾞﾝﾜﾀﾗｲﾁｮｳ","kana_address":"ﾜｲﾉ","pref":"三重県","city":"度会郡度会町","address":"和井野"},
{"zip_code":"5161246","kana_pref":"ﾐｴｹﾝ","kana_city":"ﾜﾀﾗｲｸﾞﾝﾜﾀﾗｲﾁｮｳ","kana_address":"ﾜｷﾃﾞ","pref":"三重県","city":"度会郡度会町","address":"脇出"},
{"zip_code":"5160100","kana_pref":"ﾐｴｹﾝ","kana_city":"ﾜﾀﾗｲｸﾞﾝﾐﾅﾐｲｾﾁｮｳ","kana_address":"","pref":"三重県","city":"度会郡南伊勢町","address":""},
{"zip_code":"5161305","kana_pref":"ﾐｴｹﾝ","kana_city":"ﾜﾀﾗｲｸﾞﾝﾐﾅﾐｲｾﾁｮｳ","kana_address":"ｱｿｳﾗ","pref":"三重県","city":"度会郡南伊勢町","address":"阿曽浦"},
{"zip_code":"5160103","kana_pref":"ﾐｴｹﾝ","kana_city":"ﾜﾀﾗｲｸﾞﾝﾐﾅﾐｲｾﾁｮｳ","kana_address":"ｲｽﾞﾐ","pref":"三重県","city":"度会郡南伊勢町","address":"泉"},
{"zip_code":"5160112","kana_pref":"ﾐｴｹﾝ","kana_city":"ﾜﾀﾗｲｸﾞﾝﾐﾅﾐｲｾﾁｮｳ","kana_address":"ｲｾｼﾞ","pref":"三重県","city":"度会郡南伊勢町","address":"伊勢路"},
{"zip_code":"5160118","kana_pref":"ﾐｴｹﾝ","kana_city":"ﾜﾀﾗｲｸﾞﾝﾐﾅﾐｲｾﾁｮｳ","kana_address":"ｵｳｶｳﾗ","pref":"三重県","city":"度会郡南伊勢町","address":"相賀浦"},
{"zip_code":"5161302","kana_pref":"ﾐｴｹﾝ","kana_city":"ﾜﾀﾗｲｸﾞﾝﾐﾅﾐｲｾﾁｮｳ","kana_address":"ｵｵｴ","pref":"三重県","city":"度会郡南伊勢町","address":"大江"},
{"zip_code":"5161304","kana_pref":"ﾐｴｹﾝ","kana_city":"ﾜﾀﾗｲｸﾞﾝﾐﾅﾐｲｾﾁｮｳ","kana_address":"ｵｵｶﾀｶﾞﾏ","pref":"三重県","city":"度会郡南伊勢町","address":"大方竈"},
{"zip_code":"5161532","kana_pref":"ﾐｴｹﾝ","kana_city":"ﾜﾀﾗｲｸﾞﾝﾐﾅﾐｲｾﾁｮｳ","kana_address":"ｵｶﾞﾀｶﾞﾏ","pref":"三重県","city":"度会郡南伊勢町","address":"小方竈"},
{"zip_code":"5160115","kana_pref":"ﾐｴｹﾝ","kana_city":"ﾜﾀﾗｲｸﾞﾝﾐﾅﾐｲｾﾁｮｳ","kana_address":"ｵｼﾌﾞﾁ","pref":"三重県","city":"度会郡南伊勢町","address":"押渕"},
{"zip_code":"5161422","kana_pref":"ﾐｴｹﾝ","kana_city":"ﾜﾀﾗｲｸﾞﾝﾐﾅﾐｲｾﾁｮｳ","kana_address":"ｶﾐｻｷｳﾗ","pref":"三重県","city":"度会郡南伊勢町","address":"神前浦"},
{"zip_code":"5160106","kana_pref":"ﾐｴｹﾝ","kana_city":"ﾜﾀﾗｲｸﾞﾝﾐﾅﾐｲｾﾁｮｳ","kana_address":"ｷﾀﾞﾆ","pref":"三重県","city":"度会郡南伊勢町","address":"木谷"},
{"zip_code":"5160102","kana_pref":"ﾐｴｹﾝ","kana_city":"ﾜﾀﾗｲｸﾞﾝﾐﾅﾐｲｾﾁｮｳ","kana_address":"ｷﾘﾊﾗ","pref":"三重県","city":"度会郡南伊勢町","address":"切原"},
{"zip_code":"5161421","kana_pref":"ﾐｴｹﾝ","kana_city":"ﾜﾀﾗｲｸﾞﾝﾐﾅﾐｲｾﾁｮｳ","kana_address":"ｺｳﾁ","pref":"三重県","city":"度会郡南伊勢町","address":"河内"},
{"zip_code":"5160101","kana_pref":"ﾐｴｹﾝ","kana_city":"ﾜﾀﾗｲｸﾞﾝﾐﾅﾐｲｾﾁｮｳ","kana_address":"ｺﾞｶｼｮｳﾗ","pref":"三重県","city":"度会郡南伊勢町","address":"五ケ所浦"},
{"zip_code":"5161534","kana_pref":"ﾐｴｹﾝ","kana_city":"ﾜﾀﾗｲｸﾞﾝﾐﾅﾐｲｾﾁｮｳ","kana_address":"ｺﾜｳﾗ","pref":"三重県","city":"度会郡南伊勢町","address":"古和浦"},
{"zip_code":"5160104","kana_pref":"ﾐｴｹﾝ","kana_city":"ﾜﾀﾗｲｸﾞﾝﾐﾅﾐｲｾﾁｮｳ","kana_address":"ｺﾝｻ","pref":"三重県","city":"度会郡南伊勢町","address":"神津佐"},
{"zip_code":"5160113","kana_pref":"ﾐｴｹﾝ","kana_city":"ﾜﾀﾗｲｸﾞﾝﾐﾅﾐｲｾﾁｮｳ","kana_address":"ｻｲﾀ","pref":"三重県","city":"度会郡南伊勢町","address":"斎田"},
{"zip_code":"5160117","kana_pref":"ﾐｴｹﾝ","kana_city":"ﾜﾀﾗｲｸﾞﾝﾐﾅﾐｲｾﾁｮｳ","kana_address":"ｻｻﾞﾗｳﾗ","pref":"三重県","city":"度会郡南伊勢町","address":"礫浦"},
{"zip_code":"5161536","kana_pref":"ﾐｴｹﾝ","kana_city":"ﾜﾀﾗｲｸﾞﾝﾐﾅﾐｲｾﾁｮｳ","kana_address":"ｻﾗｸﾜｶﾞﾏ","pref":"三重県","city":"度会郡南伊勢町","address":"新桑竈"},
{"zip_code":"5160105","kana_pref":"ﾐｴｹﾝ","kana_city":"ﾜﾀﾗｲｸﾞﾝﾐﾅﾐｲｾﾁｮｳ","kana_address":"ｼﾓﾂｳﾗ","pref":"三重県","city":"度会郡南伊勢町","address":"下津浦"},
{"zip_code":"5160221","kana_pref":"ﾐｴｹﾝ","kana_city":"ﾜﾀﾗｲｸﾞﾝﾐﾅﾐｲｾﾁｮｳ","kana_address":"ｼｭｸｳﾗ","pref":"三重県","city":"度会郡南伊勢町","address":"宿浦"},
{"zip_code":"5161306","kana_pref":"ﾐｴｹﾝ","kana_city":"ﾜﾀﾗｲｸﾞﾝﾐﾅﾐｲｾﾁｮｳ","kana_address":"ﾀｼｶﾗｳﾗ","pref":"三重県","city":"度会郡南伊勢町","address":"慥柄浦"},
{"zip_code":"5160222","kana_pref":"ﾐｴｹﾝ","kana_city":"ﾜﾀﾗｲｸﾞﾝﾐﾅﾐｲｾﾁｮｳ","kana_address":"ﾀｿｳﾗ","pref":"三重県","city":"度会郡南伊勢町","address":"田曽浦"},
{"zip_code":"5161535","kana_pref":"ﾐｴｹﾝ","kana_city":"ﾜﾀﾗｲｸﾞﾝﾐﾅﾐｲｾﾁｮｳ","kana_address":"ﾀﾅﾊｼｶﾞﾏ","pref":"三重県","city":"度会郡南伊勢町","address":"棚橋竈"},
{"zip_code":"5161309","kana_pref":"ﾐｴｹﾝ","kana_city":"ﾜﾀﾗｲｸﾞﾝﾐﾅﾐｲｾﾁｮｳ","kana_address":"ﾄｳｸﾞｳ","pref":"三重県","city":"度会郡南伊勢町","address":"東宮"},
{"zip_code":"5161533","kana_pref":"ﾐｴｹﾝ","kana_city":"ﾜﾀﾗｲｸﾞﾝﾐﾅﾐｲｾﾁｮｳ","kana_address":"ﾄﾁﾉｷｶﾞﾏ","pref":"三重県","city":"度会郡南伊勢町","address":"栃木竈"},
{"zip_code":"5160111","kana_pref":"ﾐｴｹﾝ","kana_city":"ﾜﾀﾗｲｸﾞﾝﾐﾅﾐｲｾﾁｮｳ","kana_address":"ﾅｲｾﾞ","pref":"三重県","city":"度会郡南伊勢町","address":"内瀬"},
{"zip_code":"5160108","kana_pref":"ﾐｴｹﾝ","kana_city":"ﾜﾀﾗｲｸﾞﾝﾐﾅﾐｲｾﾁｮｳ","kana_address":"ﾅｶﾂﾊﾏｳﾗ","pref":"三重県","city":"度会郡南伊勢町","address":"中津浜浦"},
{"zip_code":"5161308","kana_pref":"ﾐｴｹﾝ","kana_city":"ﾜﾀﾗｲｸﾞﾝﾐﾅﾐｲｾﾁｮｳ","kana_address":"ﾅﾔｳﾗ","pref":"三重県","city":"度会郡南伊勢町","address":"奈屋浦"},
{"zip_code":"5161307","kana_pref":"ﾐｴｹﾝ","kana_city":"ﾜﾀﾗｲｸﾞﾝﾐﾅﾐｲｾﾁｮｳ","kana_address":"ﾆｴｳﾗ","pref":"三重県","city":"度会郡南伊勢町","address":"贄浦"},
{"zip_code":"5160116","kana_pref":"ﾐｴｹﾝ","kana_city":"ﾜﾀﾗｲｸﾞﾝﾐﾅﾐｲｾﾁｮｳ","kana_address":"ﾊｻﾏｳﾗ","pref":"三重県","city":"度会郡南伊勢町","address":"迫間浦"},
{"zip_code":"5160114","kana_pref":"ﾐｴｹﾝ","kana_city":"ﾜﾀﾗｲｸﾞﾝﾐﾅﾐｲｾﾁｮｳ","kana_address":"ﾊｼﾞｶﾐ","pref":"三重県","city":"度会郡南伊勢町","address":"始神"},
{"zip_code":"5160107","kana_pref":"ﾐｴｹﾝ","kana_city":"ﾜﾀﾗｲｸﾞﾝﾐﾅﾐｲｾﾁｮｳ","kana_address":"ﾊﾝﾏ","pref":"三重県","city":"度会郡南伊勢町","address":"飯満"},
{"zip_code":"5160109","kana_pref":"ﾐｴｹﾝ","kana_city":"ﾜﾀﾗｲｸﾞﾝﾐﾅﾐｲｾﾁｮｳ","kana_address":"ﾌﾅｺｼ","pref":"三重県","city":"度会郡南伊勢町","address":"船越"},
{"zip_code":"5161531","kana_pref":"ﾐｴｹﾝ","kana_city":"ﾜﾀﾗｲｸﾞﾝﾐﾅﾐｲｾﾁｮｳ","kana_address":"ﾎｳｻﾞｳﾗ","pref":"三重県","city":"度会郡南伊勢町","address":"方座浦"},
{"zip_code":"5161301","kana_pref":"ﾐｴｹﾝ","kana_city":"ﾜﾀﾗｲｸﾞﾝﾐﾅﾐｲｾﾁｮｳ","kana_address":"ﾐﾁｶﾀ","pref":"三重県","city":"度会郡南伊勢町","address":"道方"},
{"zip_code":"5161303","kana_pref":"ﾐｴｹﾝ","kana_city":"ﾜﾀﾗｲｸﾞﾝﾐﾅﾐｲｾﾁｮｳ","kana_address":"ﾐﾁﾕｸｶﾞﾏ","pref":"三重県","city":"度会郡南伊勢町","address":"道行竈"},
{"zip_code":"5161423","kana_pref":"ﾐｴｹﾝ","kana_city":"ﾜﾀﾗｲｸﾞﾝﾐﾅﾐｲｾﾁｮｳ","kana_address":"ﾑﾗﾔﾏ","pref":"三重県","city":"度会郡南伊勢町","address":"村山"}]}