{"zip_code":[
{"zip_code":"5180400","kana_pref":"ﾐｴｹﾝ","kana_city":"ﾅﾊﾞﾘｼ","kana_address":"","pref":"三重県","city":"名張市","address":""},
{"zip_code":"5180468","kana_pref":"ﾐｴｹﾝ","kana_city":"ﾅﾊﾞﾘｼ","kana_address":"ｱｶﾒﾁｮｳｲﾁﾉｲ","pref":"三重県","city":"名張市","address":"赤目町一ノ井"},
{"zip_code":"5180464","kana_pref":"ﾐｴｹﾝ","kana_city":"ﾅﾊﾞﾘｼ","kana_address":"ｱｶﾒﾁｮｳｶｼﾜﾗ","pref":"三重県","city":"名張市","address":"赤目町柏原"},
{"zip_code":"5180467","kana_pref":"ﾐｴｹﾝ","kana_city":"ﾅﾊﾞﾘｼ","kana_address":"ｱｶﾒﾁｮｳｻｶﾞﾗ","pref":"三重県","city":"名張市","address":"赤目町相楽"},
{"zip_code":"5180466","kana_pref":"ﾐｴｹﾝ","kana_city":"ﾅﾊﾞﾘｼ","kana_address":"ｱｶﾒﾁｮｳｼﾝｶﾜ","pref":"三重県","city":"名張市","address":"赤目町新川"},
{"zip_code":"5180465","kana_pref":"ﾐｴｹﾝ","kana_city":"ﾅﾊﾞﾘｼ","kana_address":"ｱｶﾒﾁｮｳｼﾞｮｳﾛｸ","pref":"三重県","city":"名張市","address":"赤目町丈六"},
{"zip_code":"5180461","kana_pref":"ﾐｴｹﾝ","kana_city":"ﾅﾊﾞﾘｼ","kana_address":"ｱｶﾒﾁｮｳｽﾐﾚｶﾞｵｶ","pref":"三重県","city":"名張市","address":"赤目町すみれが丘"},
{"zip_code":"5180463","kana_pref":"ﾐｴｹﾝ","kana_city":"ﾅﾊﾞﾘｼ","kana_address":"ｱｶﾒﾁｮｳﾀﾞﾝ","pref":"三重県","city":"名張市","address":"赤目町檀"},
{"zip_code":"5180469","kana_pref":"ﾐｴｹﾝ","kana_city":"ﾅﾊﾞﾘｼ","kana_address":"ｱｶﾒﾁｮｳﾅｶﾞｻｶ","pref":"三重県","city":"名張市","address":"赤目町長坂"},
{"zip_code":"5180462","kana_pref":"ﾐｴｹﾝ","kana_city":"ﾅﾊﾞﾘｼ","kana_address":"ｱｶﾒﾁｮｳﾎｼｶﾜ","pref":"三重県","city":"名張市","address":"赤目町星川"},
{"zip_code":"5180721","kana_pref":"ﾐｴｹﾝ","kana_city":"ﾅﾊﾞﾘｼ","kana_address":"ｱｻﾋﾏﾁ","pref":"三重県","city":"名張市","address":"朝日町"},
{"zip_code":"5180737","kana_pref":"ﾐｴｹﾝ","kana_city":"ﾅﾊﾞﾘｼ","kana_address":"ｱﾍﾞﾀ","pref":"三重県","city":"名張市","address":"安部田"},
{"zip_code":"5180607","kana_pref":"ﾐｴｹﾝ","kana_city":"ﾅﾊﾞﾘｼ","kana_address":"ｲｴﾉ","pref":"三重県","city":"名張市","address":"家野"},
{"zip_code":"5180736","kana_pref":"ﾐｴｹﾝ","kana_city":"ﾅﾊﾞﾘｼ","kana_address":"ｲﾃﾞ","pref":"三重県","city":"名張市","address":"井手"},
{"zip_code":"5180716","kana_pref":"ﾐｴｹﾝ","kana_city":"ﾅﾊﾞﾘｼ","kana_address":"ｳｴﾎﾝﾏﾁ","pref":"三重県","city":"名張市","address":"上本町"},
{"zip_code":"5180746","kana_pref":"ﾐｴｹﾝ","kana_city":"ﾅﾊﾞﾘｼ","kana_address":"ｳﾒｶﾞｵｶｷﾀ1ﾊﾞﾝﾁｮｳ","pref":"三重県","city":"名張市","address":"梅が丘北１番町"},
{"zip_code":"5180747","kana_pref":"ﾐｴｹﾝ","kana_city":"ﾅﾊﾞﾘｼ","kana_address":"ｳﾒｶﾞｵｶｷﾀ2ﾊﾞﾝﾁｮｳ","pref":"三重県","city":"名張市","address":"梅が丘北２番町"},
{"zip_code":"5180748","kana_pref":"ﾐｴｹﾝ","kana_city":"ﾅﾊﾞﾘｼ","kana_address":"ｳﾒｶﾞｵｶｷﾀ3ﾊﾞﾝﾁｮｳ","pref":"三重県","city":"名張市","address":"梅が丘北３番町"},
{"zip_code":"5180749","kana_pref":"ﾐｴｹﾝ","kana_city":"ﾅﾊﾞﾘｼ","kana_address":"ｳﾒｶﾞｵｶｷﾀ4ﾊﾞﾝﾁｮｳ","pref":"三重県","city":"名張市","address":"梅が丘北４番町"},
{"zip_code":"5180740","kana_pref":"ﾐｴｹﾝ","kana_city":"ﾅﾊﾞﾘｼ","kana_address":"ｳﾒｶﾞｵｶｷﾀ5ﾊﾞﾝﾁｮｳ","pref":"三重県","city":"名張市","address":"梅が丘北５番町"},
{"zip_code":"5180741","kana_pref":"ﾐｴｹﾝ","kana_city":"ﾅﾊﾞﾘｼ","kana_address":"ｳﾒｶﾞｵｶﾐﾅﾐ1ﾊﾞﾝﾁｮｳ","pref":"三重県","city":"名張市","address":"梅が丘南１番町"},
{"zip_code":"5180742","kana_pref":"ﾐｴｹﾝ","kana_city":"ﾅﾊﾞﾘｼ","kana_address":"ｳﾒｶﾞｵｶﾐﾅﾐ2ﾊﾞﾝﾁｮｳ","pref":"三重県","city":"名張市","address":"梅が丘南２番町"},
{"zip_code":"5180743","kana_pref":"ﾐｴｹﾝ","kana_city":"ﾅﾊﾞﾘｼ","kana_address":"ｳﾒｶﾞｵｶﾐﾅﾐ3ﾊﾞﾝﾁｮｳ","pref":"三重県","city":"名張市","address":"梅が丘南３番町"},
{"zip_code":"5180744","kana_pref":"ﾐｴｹﾝ","kana_city":"ﾅﾊﾞﾘｼ","kana_address":"ｳﾒｶﾞｵｶﾐﾅﾐ4ﾊﾞﾝﾁｮｳ","pref":"三重県","city":"名張市","address":"梅が丘南４番町"},
{"zip_code":"5180745","kana_pref":"ﾐｴｹﾝ","kana_city":"ﾅﾊﾞﾘｼ","kana_address":"ｳﾒｶﾞｵｶﾐﾅﾐ5ﾊﾞﾝﾁｮｳ","pref":"三重県","city":"名張市","address":"梅が丘南５番町"},
{"zip_code":"5180608","kana_pref":"ﾐｴｹﾝ","kana_city":"ﾅﾊﾞﾘｼ","kana_address":"ｳﾔﾏ","pref":"三重県","city":"名張市","address":"鵜山"},
{"zip_code":"5180733","kana_pref":"ﾐｴｹﾝ","kana_city":"ﾅﾊﾞﾘｼ","kana_address":"ｵﾔﾄﾞ","pref":"三重県","city":"名張市","address":"大屋戸"},
{"zip_code":"5180714","kana_pref":"ﾐｴｹﾝ","kana_city":"ﾅﾊﾞﾘｼ","kana_address":"ｶｼﾞﾏﾁ","pref":"三重県","city":"名張市","address":"鍛冶町"},
{"zip_code":"5180453","kana_pref":"ﾐｴｹﾝ","kana_city":"ﾅﾊﾞﾘｼ","kana_address":"ｶｽｶﾞｵｶ1ﾊﾞﾝﾁｮｳ","pref":"三重県","city":"名張市","address":"春日丘１番町"},
{"zip_code":"5180454","kana_pref":"ﾐｴｹﾝ","kana_city":"ﾅﾊﾞﾘｼ","kana_address":"ｶｽｶﾞｵｶ2ﾊﾞﾝﾁｮｳ","pref":"三重県","city":"名張市","address":"春日丘２番町"},
{"zip_code":"5180455","kana_pref":"ﾐｴｹﾝ","kana_city":"ﾅﾊﾞﾘｼ","kana_address":"ｶｽｶﾞｵｶ3ﾊﾞﾝﾁｮｳ","pref":"三重県","city":"名張市","address":"春日丘３番町"},
{"zip_code":"5180456","kana_pref":"ﾐｴｹﾝ","kana_city":"ﾅﾊﾞﾘｼ","kana_address":"ｶｽｶﾞｵｶ4ﾊﾞﾝﾁｮｳ","pref":"三重県","city":"名張市","address":"春日丘４番町"},
{"zip_code":"5180457","kana_pref":"ﾐｴｹﾝ","kana_city":"ﾅﾊﾞﾘｼ","kana_address":"ｶｽｶﾞｵｶ5ﾊﾞﾝﾁｮｳ","pref":"三重県","city":"名張市","address":"春日丘５番町"},
{"zip_code":"5180458","kana_pref":"ﾐｴｹﾝ","kana_city":"ﾅﾊﾞﾘｼ","kana_address":"ｶｽｶﾞｵｶ6ﾊﾞﾝﾁｮｳ","pref":"三重県","city":"名張市","address":"春日丘６番町"},
{"zip_code":"5180459","kana_pref":"ﾐｴｹﾝ","kana_city":"ﾅﾊﾞﾘｼ","kana_address":"ｶｽｶﾞｵｶ7ﾊﾞﾝﾁｮｳ","pref":"三重県","city":"名張市","address":"春日丘７番町"},
{"zip_code":"5180613","kana_pref":"ﾐｴｹﾝ","kana_city":"ﾅﾊﾞﾘｼ","kana_address":"ｶﾐｵﾊﾞﾀ","pref":"三重県","city":"名張市","address":"上小波田"},
{"zip_code":"5180502","kana_pref":"ﾐｴｹﾝ","kana_city":"ﾅﾊﾞﾘｼ","kana_address":"ｶﾐﾅｶﾞｾ","pref":"三重県","city":"名張市","address":"上長瀬"},
{"zip_code":"5180710","kana_pref":"ﾐｴｹﾝ","kana_city":"ﾅﾊﾞﾘｼ","kana_address":"ｶﾐﾊｯﾁｮｳ","pref":"三重県","city":"名張市","address":"上八町"},
{"zip_code":"5180412","kana_pref":"ﾐｴｹﾝ","kana_city":"ﾅﾊﾞﾘｼ","kana_address":"ｶﾐﾋﾅﾁ","pref":"三重県","city":"名張市","address":"上比奈知"},
{"zip_code":"5180762","kana_pref":"ﾐｴｹﾝ","kana_city":"ﾅﾊﾞﾘｼ","kana_address":"ｶﾐﾐﾀﾆ","pref":"三重県","city":"名張市","address":"上三谷"},
{"zip_code":"5180504","kana_pref":"ﾐｴｹﾝ","kana_city":"ﾅﾊﾞﾘｼ","kana_address":"ｶﾐﾔ","pref":"三重県","city":"名張市","address":"神屋"},
{"zip_code":"5180771","kana_pref":"ﾐｴｹﾝ","kana_city":"ﾅﾊﾞﾘｼ","kana_address":"ｷｵｳﾀﾞｲ1ﾊﾞﾝﾁｮｳ","pref":"三重県","city":"名張市","address":"希央台１番町"},
{"zip_code":"5180772","kana_pref":"ﾐｴｹﾝ","kana_city":"ﾅﾊﾞﾘｼ","kana_address":"ｷｵｳﾀﾞｲ2ﾊﾞﾝﾁｮｳ","pref":"三重県","city":"名張市","address":"希央台２番町"},
{"zip_code":"5180773","kana_pref":"ﾐｴｹﾝ","kana_city":"ﾅﾊﾞﾘｼ","kana_address":"ｷｵｳﾀﾞｲ3ﾊﾞﾝﾁｮｳ","pref":"三重県","city":"名張市","address":"希央台３番町"},
{"zip_code":"5180774","kana_pref":"ﾐｴｹﾝ","kana_city":"ﾅﾊﾞﾘｼ","kana_address":"ｷｵｳﾀﾞｲ4ﾊﾞﾝﾁｮｳ","pref":"三重県","city":"名張市","address":"希央台４番町"},
{"zip_code":"5180775","kana_pref":"ﾐｴｹﾝ","kana_city":"ﾅﾊﾞﾘｼ","kana_address":"ｷｵｳﾀﾞｲ5ﾊﾞﾝﾁｮｳ","pref":"三重県","city":"名張市","address":"希央台５番町"},
{"zip_code":"5180621","kana_pref":"ﾐｴｹﾝ","kana_city":"ﾅﾊﾞﾘｼ","kana_address":"ｷｷｮｳｶﾞｵｶ1ﾊﾞﾝﾁｮｳ","pref":"三重県","city":"名張市","address":"桔梗が丘１番町"},
{"zip_code":"5180622","kana_pref":"ﾐｴｹﾝ","kana_city":"ﾅﾊﾞﾘｼ","kana_address":"ｷｷｮｳｶﾞｵｶ2ﾊﾞﾝﾁｮｳ","pref":"三重県","city":"名張市","address":"桔梗が丘２番町"},
{"zip_code":"5180623","kana_pref":"ﾐｴｹﾝ","kana_city":"ﾅﾊﾞﾘｼ","kana_address":"ｷｷｮｳｶﾞｵｶ3ﾊﾞﾝﾁｮｳ","pref":"三重県","city":"名張市","address":"桔梗が丘３番町"},
{"zip_code":"5180624","kana_pref":"ﾐｴｹﾝ","kana_city":"ﾅﾊﾞﾘｼ","kana_address":"ｷｷｮｳｶﾞｵｶ4ﾊﾞﾝﾁｮｳ","pref":"三重県","city":"名張市","address":"桔梗が丘４番町"},
{"zip_code":"5180625","kana_pref":"ﾐｴｹﾝ","kana_city":"ﾅﾊﾞﾘｼ","kana_address":"ｷｷｮｳｶﾞｵｶ5ﾊﾞﾝﾁｮｳ","pref":"三重県","city":"名張市","address":"桔梗が丘５番町"},
{"zip_code":"5180626","kana_pref":"ﾐｴｹﾝ","kana_city":"ﾅﾊﾞﾘｼ","kana_address":"ｷｷｮｳｶﾞｵｶ6ﾊﾞﾝﾁｮｳ","pref":"三重県","city":"名張市","address":"桔梗が丘６番町"},
{"zip_code":"5180627","kana_pref":"ﾐｴｹﾝ","kana_city":"ﾅﾊﾞﾘｼ","kana_address":"ｷｷｮｳｶﾞｵｶ7ﾊﾞﾝﾁｮｳ","pref":"三重県","city":"名張市","address":"桔梗が丘７番町"},
{"zip_code":"5180628","kana_pref":"ﾐｴｹﾝ","kana_city":"ﾅﾊﾞﾘｼ","kana_address":"ｷｷｮｳｶﾞｵｶ8ﾊﾞﾝﾁｮｳ","pref":"三重県","city":"名張市","address":"桔梗が丘８番町"},
{"zip_code":"5180641","kana_pref":"ﾐｴｹﾝ","kana_city":"ﾅﾊﾞﾘｼ","kana_address":"ｷｷｮｳｶﾞｵｶﾆｼ1ﾊﾞﾝﾁｮｳ","pref":"三重県","city":"名張市","address":"桔梗が丘西１番町"},
{"zip_code":"5180642","kana_pref":"ﾐｴｹﾝ","kana_city":"ﾅﾊﾞﾘｼ","kana_address":"ｷｷｮｳｶﾞｵｶﾆｼ2ﾊﾞﾝﾁｮｳ","pref":"三重県","city":"名張市","address":"桔梗が丘西２番町"},
{"zip_code":"5180643","kana_pref":"ﾐｴｹﾝ","kana_city":"ﾅﾊﾞﾘｼ","kana_address":"ｷｷｮｳｶﾞｵｶﾆｼ3ﾊﾞﾝﾁｮｳ","pref":"三重県","city":"名張市","address":"桔梗が丘西３番町"},
{"zip_code":"5180644","kana_pref":"ﾐｴｹﾝ","kana_city":"ﾅﾊﾞﾘｼ","kana_address":"ｷｷｮｳｶﾞｵｶﾆｼ4ﾊﾞﾝﾁｮｳ","pref":"三重県","city":"名張市","address":"桔梗が丘西４番町"},
{"zip_code":"5180645","kana_pref":"ﾐｴｹﾝ","kana_city":"ﾅﾊﾞﾘｼ","kana_address":"ｷｷｮｳｶﾞｵｶﾆｼ5ﾊﾞﾝﾁｮｳ","pref":"三重県","city":"名張市","address":"桔梗が丘西５番町"},
{"zip_code":"5180646","kana_pref":"ﾐｴｹﾝ","kana_city":"ﾅﾊﾞﾘｼ","kana_address":"ｷｷｮｳｶﾞｵｶﾆｼ6ﾊﾞﾝﾁｮｳ","pref":"三重県","city":"名張市","address":"桔梗が丘西６番町"},
{"zip_code":"5180647","kana_pref":"ﾐｴｹﾝ","kana_city":"ﾅﾊﾞﾘｼ","kana_address":"ｷｷｮｳｶﾞｵｶﾆｼ7ﾊﾞﾝﾁｮｳ","pref":"三重県","city":"名張市","address":"桔梗が丘西７番町"},
{"zip_code":"5180631","kana_pref":"ﾐｴｹﾝ","kana_city":"ﾅﾊﾞﾘｼ","kana_address":"ｷｷｮｳｶﾞｵｶﾐﾅﾐ1ﾊﾞﾝﾁｮｳ","pref":"三重県","city":"名張市","address":"桔梗が丘南１番町"},
{"zip_code":"5180632","kana_pref":"ﾐｴｹﾝ","kana_city":"ﾅﾊﾞﾘｼ","kana_address":"ｷｷｮｳｶﾞｵｶﾐﾅﾐ2ﾊﾞﾝﾁｮｳ","pref":"三重県","city":"名張市","address":"桔梗が丘南２番町"},
{"zip_code":"5180633","kana_pref":"ﾐｴｹﾝ","kana_city":"ﾅﾊﾞﾘｼ","kana_address":"ｷｷｮｳｶﾞｵｶﾐﾅﾐ3ﾊﾞﾝﾁｮｳ","pref":"三重県","city":"名張市","address":"桔梗が丘南３番町"},
{"zip_code":"5180634","kana_pref":"ﾐｴｹﾝ","kana_city":"ﾅﾊﾞﾘｼ","kana_address":"ｷｷｮｳｶﾞｵｶﾐﾅﾐ4ﾊﾞﾝﾁｮｳ","pref":"三重県","city":"名張市","address":"桔梗が丘南４番町"},
{"zip_code":"5180723","kana_pref":"ﾐｴｹﾝ","kana_city":"ﾅﾊﾞﾘｼ","kana_address":"ｷﾔﾏﾁ","pref":"三重県","city":"名張市","address":"木屋町"},
{"zip_code":"5180607","kana_pref":"ﾐｴｹﾝ","kana_city":"ﾅﾊﾞﾘｼ","kana_address":"ｸｽﾞｵ","pref":"三重県","city":"名張市","address":"葛尾"},
{"zip_code":"5180753","kana_pref":"ﾐｴｹﾝ","kana_city":"ﾅﾊﾞﾘｼ","kana_address":"ｸﾗﾓﾁﾁｮｳｻﾄ","pref":"三重県","city":"名張市","address":"蔵持町里"},
{"zip_code":"5180751","kana_pref":"ﾐｴｹﾝ","kana_city":"ﾅﾊﾞﾘｼ","kana_address":"ｸﾗﾓﾁﾁｮｳｼﾊﾞﾃﾞ","pref":"三重県","city":"名張市","address":"蔵持町芝出"},
{"zip_code":"5180752","kana_pref":"ﾐｴｹﾝ","kana_city":"ﾅﾊﾞﾘｼ","kana_address":"ｸﾗﾓﾁﾁｮｳﾊﾗﾃﾞ","pref":"三重県","city":"名張市","address":"蔵持町原出"},
{"zip_code":"5180734","kana_pref":"ﾐｴｹﾝ","kana_city":"ﾅﾊﾞﾘｼ","kana_address":"ｸﾛﾀﾞ","pref":"三重県","city":"名張市","address":"黒田"},
{"zip_code":"5180735","kana_pref":"ﾐｴｹﾝ","kana_city":"ﾅﾊﾞﾘｼ","kana_address":"ｹﾁﾊﾞ","pref":"三重県","city":"名張市","address":"結馬"},
{"zip_code":"5180701","kana_pref":"ﾐｴｹﾝ","kana_city":"ﾅﾊﾞﾘｼ","kana_address":"ｺｳﾉﾀﾞｲ1ﾊﾞﾝﾁｮｳ","pref":"三重県","city":"名張市","address":"鴻之台１番町"},
{"zip_code":"5180702","kana_pref":"ﾐｴｹﾝ","kana_city":"ﾅﾊﾞﾘｼ","kana_address":"ｺｳﾉﾀﾞｲ2ﾊﾞﾝﾁｮｳ","pref":"三重県","city":"名張市","address":"鴻之台２番町"},
{"zip_code":"5180703","kana_pref":"ﾐｴｹﾝ","kana_city":"ﾅﾊﾞﾘｼ","kana_address":"ｺｳﾉﾀﾞｲ3ﾊﾞﾝﾁｮｳ","pref":"三重県","city":"名張市","address":"鴻之台３番町"},
{"zip_code":"5180704","kana_pref":"ﾐｴｹﾝ","kana_city":"ﾅﾊﾞﾘｼ","kana_address":"ｺｳﾉﾀﾞｲ4ﾊﾞﾝﾁｮｳ","pref":"三重県","city":"名張市","address":"鴻之台４番町"},
{"zip_code":"5180705","kana_pref":"ﾐｴｹﾝ","kana_city":"ﾅﾊﾞﾘｼ","kana_address":"ｺｳﾉﾀﾞｲ5ﾊﾞﾝﾁｮｳ","pref":"三重県","city":"名張市","address":"鴻之台５番町"},
{"zip_code":"5180606","kana_pref":"ﾐｴｹﾝ","kana_city":"ﾅﾊﾞﾘｼ","kana_address":"ｺﾓｵ","pref":"三重県","city":"名張市","address":"薦生"},
{"zip_code":"5180719","kana_pref":"ﾐｴｹﾝ","kana_city":"ﾅﾊﾞﾘｼ","kana_address":"ｻｶｴﾏﾁ","pref":"三重県","city":"名張市","address":"栄町"},
{"zip_code":"5180724","kana_pref":"ﾐｴｹﾝ","kana_city":"ﾅﾊﾞﾘｼ","kana_address":"ｻｶｷﾏﾁ","pref":"三重県","city":"名張市","address":"榊町"},
{"zip_code":"5180712","kana_pref":"ﾐｴｹﾝ","kana_city":"ﾅﾊﾞﾘｼ","kana_address":"ｻｸﾗｶﾞｵｶ","pref":"三重県","city":"名張市","address":"桜ケ丘"},
{"zip_code":"5180604","kana_pref":"ﾐｴｹﾝ","kana_city":"ﾅﾊﾞﾘｼ","kana_address":"ｻﾂｷﾀﾞｲ","pref":"三重県","city":"名張市","address":"さつき台"},
{"zip_code":"5180612","kana_pref":"ﾐｴｹﾝ","kana_city":"ﾅﾊﾞﾘｼ","kana_address":"ｼﾓｵﾊﾞﾀ","pref":"三重県","city":"名張市","address":"下小波田"},
{"zip_code":"5180413","kana_pref":"ﾐｴｹﾝ","kana_city":"ﾅﾊﾞﾘｼ","kana_address":"ｼﾓﾋﾅﾁ","pref":"三重県","city":"名張市","address":"下比奈知"},
{"zip_code":"5180739","kana_pref":"ﾐｴｹﾝ","kana_city":"ﾅﾊﾞﾘｼ","kana_address":"ｼﾓﾐﾀﾆ","pref":"三重県","city":"名張市","address":"下三谷"},
{"zip_code":"5180443","kana_pref":"ﾐｴｹﾝ","kana_city":"ﾅﾊﾞﾘｼ","kana_address":"ｼｮｳﾚﾝｼﾞ","pref":"三重県","city":"名張市","address":"青蓮寺"},
{"zip_code":"5180611","kana_pref":"ﾐｴｹﾝ","kana_city":"ﾅﾊﾞﾘｼ","kana_address":"ｼﾝﾃﾞﾝ","pref":"三重県","city":"名張市","address":"新田"},
{"zip_code":"5180727","kana_pref":"ﾐｴｹﾝ","kana_city":"ﾅﾊﾞﾘｼ","kana_address":"ｼﾝﾏﾁ","pref":"三重県","city":"名張市","address":"新町"},
{"zip_code":"5180406","kana_pref":"ﾐｴｹﾝ","kana_city":"ﾅﾊﾞﾘｼ","kana_address":"ｽｽﾞﾗﾝﾀﾞｲﾆｼ1ﾊﾞﾝﾁｮｳ","pref":"三重県","city":"名張市","address":"すずらん台西１番町"},
{"zip_code":"5180407","kana_pref":"ﾐｴｹﾝ","kana_city":"ﾅﾊﾞﾘｼ","kana_address":"ｽｽﾞﾗﾝﾀﾞｲﾆｼ2ﾊﾞﾝﾁｮｳ","pref":"三重県","city":"名張市","address":"すずらん台西２番町"},
{"zip_code":"5180408","kana_pref":"ﾐｴｹﾝ","kana_city":"ﾅﾊﾞﾘｼ","kana_address":"ｽｽﾞﾗﾝﾀﾞｲﾆｼ3ﾊﾞﾝﾁｮｳ","pref":"三重県","city":"名張市","address":"すずらん台西３番町"},
{"zip_code":"5180409","kana_pref":"ﾐｴｹﾝ","kana_city":"ﾅﾊﾞﾘｼ","kana_address":"ｽｽﾞﾗﾝﾀﾞｲﾆｼ4ﾊﾞﾝﾁｮｳ","pref":"三重県","city":"名張市","address":"すずらん台西４番町"},
{"zip_code":"5180401","kana_pref":"ﾐｴｹﾝ","kana_city":"ﾅﾊﾞﾘｼ","kana_address":"ｽｽﾞﾗﾝﾀﾞｲﾋｶﾞｼ1ﾊﾞﾝﾁｮｳ","pref":"三重県","city":"名張市","address":"すずらん台東１番町"},
{"zip_code":"5180402","kana_pref":"ﾐｴｹﾝ","kana_city":"ﾅﾊﾞﾘｼ","kana_address":"ｽｽﾞﾗﾝﾀﾞｲﾋｶﾞｼ2ﾊﾞﾝﾁｮｳ","pref":"三重県","city":"名張市","address":"すずらん台東２番町"},
{"zip_code":"5180403","kana_pref":"ﾐｴｹﾝ","kana_city":"ﾅﾊﾞﾘｼ","kana_address":"ｽｽﾞﾗﾝﾀﾞｲﾋｶﾞｼ3ﾊﾞﾝﾁｮｳ","pref":"三重県","city":"名張市","address":"すずらん台東３番町"},
{"zip_code":"5180404","kana_pref":"ﾐｴｹﾝ","kana_city":"ﾅﾊﾞﾘｼ","kana_address":"ｽｽﾞﾗﾝﾀﾞｲﾋｶﾞｼ4ﾊﾞﾝﾁｮｳ","pref":"三重県","city":"名張市","address":"すずらん台東４番町"},
{"zip_code":"5180405","kana_pref":"ﾐｴｹﾝ","kana_city":"ﾅﾊﾞﾘｼ","kana_address":"ｽｽﾞﾗﾝﾀﾞｲﾋｶﾞｼ5ﾊﾞﾝﾁｮｳ","pref":"三重県","city":"名張市","address":"すずらん台東５番町"},
{"zip_code":"5180445","kana_pref":"ﾐｴｹﾝ","kana_city":"ﾅﾊﾞﾘｼ","kana_address":"ｾｺｸﾞﾁ","pref":"三重県","city":"名張市","address":"瀬古口"},
{"zip_code":"5180411","kana_pref":"ﾐｴｹﾝ","kana_city":"ﾅﾊﾞﾘｼ","kana_address":"ﾀｷﾉﾊﾗ","pref":"三重県","city":"名張市","address":"滝之原"},
{"zip_code":"5180431","kana_pref":"ﾐｴｹﾝ","kana_city":"ﾅﾊﾞﾘｼ","kana_address":"ﾂﾂｼﾞｶﾞｵｶｷﾀ1ﾊﾞﾝﾁｮｳ","pref":"三重県","city":"名張市","address":"つつじが丘北１番町"},
{"zip_code":"5180432","kana_pref":"ﾐｴｹﾝ","kana_city":"ﾅﾊﾞﾘｼ","kana_address":"ﾂﾂｼﾞｶﾞｵｶｷﾀ2ﾊﾞﾝﾁｮｳ","pref":"三重県","city":"名張市","address":"つつじが丘北２番町"},
{"zip_code":"5180433","kana_pref":"ﾐｴｹﾝ","kana_city":"ﾅﾊﾞﾘｼ","kana_address":"ﾂﾂｼﾞｶﾞｵｶｷﾀ3ﾊﾞﾝﾁｮｳ","pref":"三重県","city":"名張市","address":"つつじが丘北３番町"},
{"zip_code":"5180434","kana_pref":"ﾐｴｹﾝ","kana_city":"ﾅﾊﾞﾘｼ","kana_address":"ﾂﾂｼﾞｶﾞｵｶｷﾀ4ﾊﾞﾝﾁｮｳ","pref":"三重県","city":"名張市","address":"つつじが丘北４番町"},
{"zip_code":"5180435","kana_pref":"ﾐｴｹﾝ","kana_city":"ﾅﾊﾞﾘｼ","kana_address":"ﾂﾂｼﾞｶﾞｵｶｷﾀ5ﾊﾞﾝﾁｮｳ","pref":"三重県","city":"名張市","address":"つつじが丘北５番町"},
{"zip_code":"5180436","kana_pref":"ﾐｴｹﾝ","kana_city":"ﾅﾊﾞﾘｼ","kana_address":"ﾂﾂｼﾞｶﾞｵｶｷﾀ6ﾊﾞﾝﾁｮｳ","pref":"三重県","city":"名張市","address":"つつじが丘北６番町"},
{"zip_code":"5180437","kana_pref":"ﾐｴｹﾝ","kana_city":"ﾅﾊﾞﾘｼ","kana_address":"ﾂﾂｼﾞｶﾞｵｶｷﾀ7ﾊﾞﾝﾁｮｳ","pref":"三重県","city":"名張市","address":"つつじが丘北７番町"},
{"zip_code":"5180438","kana_pref":"ﾐｴｹﾝ","kana_city":"ﾅﾊﾞﾘｼ","kana_address":"ﾂﾂｼﾞｶﾞｵｶｷﾀ8ﾊﾞﾝﾁｮｳ","pref":"三重県","city":"名張市","address":"つつじが丘北８番町"},
{"zip_code":"5180439","kana_pref":"ﾐｴｹﾝ","kana_city":"ﾅﾊﾞﾘｼ","kana_address":"ﾂﾂｼﾞｶﾞｵｶｷﾀ9ﾊﾞﾝﾁｮｳ","pref":"三重県","city":"名張市","address":"つつじが丘北９番町"},
{"zip_code":"5180430","kana_pref":"ﾐｴｹﾝ","kana_city":"ﾅﾊﾞﾘｼ","kana_address":"ﾂﾂｼﾞｶﾞｵｶｷﾀ10ﾊﾞﾝﾁｮｳ","pref":"三重県","city":"名張市","address":"つつじが丘北１０番町"},
{"zip_code":"5180421","kana_pref":"ﾐｴｹﾝ","kana_city":"ﾅﾊﾞﾘｼ","kana_address":"ﾂﾂｼﾞｶﾞｵｶﾐﾅﾐ1ﾊﾞﾝﾁｮｳ","pref":"三重県","city":"名張市","address":"つつじが丘南１番町"},
{"zip_code":"5180422","kana_pref":"ﾐｴｹﾝ","kana_city":"ﾅﾊﾞﾘｼ","kana_address":"ﾂﾂｼﾞｶﾞｵｶﾐﾅﾐ2ﾊﾞﾝﾁｮｳ","pref":"三重県","city":"名張市","address":"つつじが丘南２番町"},
{"zip_code":"5180423","kana_pref":"ﾐｴｹﾝ","kana_city":"ﾅﾊﾞﾘｼ","kana_address":"ﾂﾂｼﾞｶﾞｵｶﾐﾅﾐ3ﾊﾞﾝﾁｮｳ","pref":"三重県","city":"名張市","address":"つつじが丘南３番町"},
{"zip_code":"5180424","kana_pref":"ﾐｴｹﾝ","kana_city":"ﾅﾊﾞﾘｼ","kana_address":"ﾂﾂｼﾞｶﾞｵｶﾐﾅﾐ4ﾊﾞﾝﾁｮｳ","pref":"三重県","city":"名張市","address":"つつじが丘南４番町"},
{"zip_code":"5180425","kana_pref":"ﾐｴｹﾝ","kana_city":"ﾅﾊﾞﾘｼ","kana_address":"ﾂﾂｼﾞｶﾞｵｶﾐﾅﾐ5ﾊﾞﾝﾁｮｳ","pref":"三重県","city":"名張市","address":"つつじが丘南５番町"},
{"zip_code":"5180426","kana_pref":"ﾐｴｹﾝ","kana_city":"ﾅﾊﾞﾘｼ","kana_address":"ﾂﾂｼﾞｶﾞｵｶﾐﾅﾐ6ﾊﾞﾝﾁｮｳ","pref":"三重県","city":"名張市","address":"つつじが丘南６番町"},
{"zip_code":"5180427","kana_pref":"ﾐｴｹﾝ","kana_city":"ﾅﾊﾞﾘｼ","kana_address":"ﾂﾂｼﾞｶﾞｵｶﾐﾅﾐ7ﾊﾞﾝﾁｮｳ","pref":"三重県","city":"名張市","address":"つつじが丘南７番町"},
{"zip_code":"5180428","kana_pref":"ﾐｴｹﾝ","kana_city":"ﾅﾊﾞﾘｼ","kana_address":"ﾂﾂｼﾞｶﾞｵｶﾐﾅﾐ8ﾊﾞﾝﾁｮｳ","pref":"三重県","city":"名張市","address":"つつじが丘南８番町"},
{"zip_code":"5180442","kana_pref":"ﾐｴｹﾝ","kana_city":"ﾅﾊﾞﾘｼ","kana_address":"ﾅｶﾁﾔﾏ","pref":"三重県","city":"名張市","address":"中知山"},
{"zip_code":"5180717","kana_pref":"ﾐｴｹﾝ","kana_city":"ﾅﾊﾞﾘｼ","kana_address":"ﾅｶﾏﾁ","pref":"三重県","city":"名張市","address":"中町"},
{"zip_code":"5180505","kana_pref":"ﾐｴｹﾝ","kana_city":"ﾅﾊﾞﾘｼ","kana_address":"ﾅｶﾞｷ","pref":"三重県","city":"名張市","address":"奈垣"},
{"zip_code":"5180501","kana_pref":"ﾐｴｹﾝ","kana_city":"ﾅﾊﾞﾘｼ","kana_address":"ﾅｶﾞｾ","pref":"三重県","city":"名張市","address":"長瀬"},
{"zip_code":"5180731","kana_pref":"ﾐｴｹﾝ","kana_city":"ﾅﾊﾞﾘｼ","kana_address":"ﾅﾂｱｷ","pref":"三重県","city":"名張市","address":"夏秋"},
{"zip_code":"5180441","kana_pref":"ﾐｴｹﾝ","kana_city":"ﾅﾊﾞﾘｼ","kana_address":"ﾅﾂﾐ","pref":"三重県","city":"名張市","address":"夏見"},
{"zip_code":"5180609","kana_pref":"ﾐｴｹﾝ","kana_city":"ﾅﾊﾞﾘｼ","kana_address":"ﾆｼﾀﾜﾗ","pref":"三重県","city":"名張市","address":"西田原"},
{"zip_code":"5180603","kana_pref":"ﾐｴｹﾝ","kana_city":"ﾅﾊﾞﾘｼ","kana_address":"ﾆｼﾜﾗﾁｮｳ","pref":"三重県","city":"名張市","address":"西原町"},
{"zip_code":"5180602","kana_pref":"ﾐｴｹﾝ","kana_city":"ﾅﾊﾞﾘｼ","kana_address":"ﾋｶﾞｼﾀﾜﾗ","pref":"三重県","city":"名張市","address":"東田原"},
{"zip_code":"5180711","kana_pref":"ﾐｴｹﾝ","kana_city":"ﾅﾊﾞﾘｼ","kana_address":"ﾋｶﾞｼﾏﾁ","pref":"三重県","city":"名張市","address":"東町"},
{"zip_code":"5180713","kana_pref":"ﾐｴｹﾝ","kana_city":"ﾅﾊﾞﾘｼ","kana_address":"ﾋﾗｵ","pref":"三重県","city":"名張市","address":"平尾"},
{"zip_code":"5180414","kana_pref":"ﾐｴｹﾝ","kana_city":"ﾅﾊﾞﾘｼ","kana_address":"ﾌｷｶﾞｵｶ1ﾊﾞﾝﾁｮｳ","pref":"三重県","city":"名張市","address":"富貴ケ丘１番町"},
{"zip_code":"5180415","kana_pref":"ﾐｴｹﾝ","kana_city":"ﾅﾊﾞﾘｼ","kana_address":"ﾌｷｶﾞｵｶ2ﾊﾞﾝﾁｮｳ","pref":"三重県","city":"名張市","address":"富貴ケ丘２番町"},
{"zip_code":"5180416","kana_pref":"ﾐｴｹﾝ","kana_city":"ﾅﾊﾞﾘｼ","kana_address":"ﾌｷｶﾞｵｶ3ﾊﾞﾝﾁｮｳ","pref":"三重県","city":"名張市","address":"富貴ケ丘３番町"},
{"zip_code":"5180417","kana_pref":"ﾐｴｹﾝ","kana_city":"ﾅﾊﾞﾘｼ","kana_address":"ﾌｷｶﾞｵｶ4ﾊﾞﾝﾁｮｳ","pref":"三重県","city":"名張市","address":"富貴ケ丘４番町"},
{"zip_code":"5180418","kana_pref":"ﾐｴｹﾝ","kana_city":"ﾅﾊﾞﾘｼ","kana_address":"ﾌｷｶﾞｵｶ5ﾊﾞﾝﾁｮｳ","pref":"三重県","city":"名張市","address":"富貴ケ丘５番町"},
{"zip_code":"5180419","kana_pref":"ﾐｴｹﾝ","kana_city":"ﾅﾊﾞﾘｼ","kana_address":"ﾌｷｶﾞｵｶ6ﾊﾞﾝﾁｮｳ","pref":"三重県","city":"名張市","address":"富貴ケ丘６番町"},
{"zip_code":"5180503","kana_pref":"ﾐｴｹﾝ","kana_city":"ﾅﾊﾞﾘｼ","kana_address":"ﾌﾉｳ","pref":"三重県","city":"名張市","address":"布生"},
{"zip_code":"5180728","kana_pref":"ﾐｴｹﾝ","kana_city":"ﾅﾊﾞﾘｼ","kana_address":"ﾌﾞﾝｺﾞﾏﾁ","pref":"三重県","city":"名張市","address":"豊後町"},
{"zip_code":"5180726","kana_pref":"ﾐｴｹﾝ","kana_city":"ﾅﾊﾞﾘｼ","kana_address":"ﾎﾝﾏﾁ","pref":"三重県","city":"名張市","address":"本町"},
{"zip_code":"5180722","kana_pref":"ﾐｴｹﾝ","kana_city":"ﾅﾊﾞﾘｼ","kana_address":"ﾏﾂｻｷﾏﾁ","pref":"三重県","city":"名張市","address":"松崎町"},
{"zip_code":"5180732","kana_pref":"ﾐｴｹﾝ","kana_city":"ﾅﾊﾞﾘｼ","kana_address":"ﾏﾂﾊﾞﾗﾁｮｳ","pref":"三重県","city":"名張市","address":"松原町"},
{"zip_code":"5180718","kana_pref":"ﾐｴｹﾝ","kana_city":"ﾅﾊﾞﾘｼ","kana_address":"ﾏﾙﾉｳﾁ","pref":"三重県","city":"名張市","address":"丸之内"},
{"zip_code":"5180738","kana_pref":"ﾐｴｹﾝ","kana_city":"ﾅﾊﾞﾘｼ","kana_address":"ﾐｼﾞｶﾉ","pref":"三重県","city":"名張市","address":"短野"},
{"zip_code":"5180755","kana_pref":"ﾐｴｹﾝ","kana_city":"ﾅﾊﾞﾘｼ","kana_address":"ﾐﾄﾞﾘｶﾞｵｶﾅｶ","pref":"三重県","city":"名張市","address":"緑が丘中"},
{"zip_code":"5180756","kana_pref":"ﾐｴｹﾝ","kana_city":"ﾅﾊﾞﾘｼ","kana_address":"ﾐﾄﾞﾘｶﾞｵｶﾋｶﾞｼ","pref":"三重県","city":"名張市","address":"緑が丘東"},
{"zip_code":"5180754","kana_pref":"ﾐｴｹﾝ","kana_city":"ﾅﾊﾞﾘｼ","kana_address":"ﾐﾄﾞﾘｶﾞｵｶﾆｼ","pref":"三重県","city":"名張市","address":"緑が丘西"},
{"zip_code":"5180601","kana_pref":"ﾐｴｹﾝ","kana_city":"ﾅﾊﾞﾘｼ","kana_address":"ﾐﾅﾐﾌﾙﾔﾏ","pref":"三重県","city":"名張市","address":"南古山"},
{"zip_code":"5180729","kana_pref":"ﾐｴｹﾝ","kana_city":"ﾅﾊﾞﾘｼ","kana_address":"ﾐﾅﾐﾏﾁ","pref":"三重県","city":"名張市","address":"南町"},
{"zip_code":"5180446","kana_pref":"ﾐｴｹﾝ","kana_city":"ﾅﾊﾞﾘｼ","kana_address":"ﾐﾅﾐﾕﾘｶﾞｵｶ","pref":"三重県","city":"名張市","address":"南百合が丘"},
{"zip_code":"5180444","kana_pref":"ﾐｴｹﾝ","kana_city":"ﾅﾊﾞﾘｼ","kana_address":"ﾐﾉﾜﾅｶﾑﾗ","pref":"三重県","city":"名張市","address":"箕曲中村"},
{"zip_code":"5180615","kana_pref":"ﾐｴｹﾝ","kana_city":"ﾅﾊﾞﾘｼ","kana_address":"ﾐﾊﾀﾅｶﾑﾗ","pref":"三重県","city":"名張市","address":"美旗中村"},
{"zip_code":"5180614","kana_pref":"ﾐｴｹﾝ","kana_city":"ﾅﾊﾞﾘｼ","kana_address":"ﾐﾊﾀﾁｮｳｲｹﾉﾀﾞｲﾋｶﾞｼ","pref":"三重県","city":"名張市","address":"美旗町池の台東"},
{"zip_code":"5180614","kana_pref":"ﾐｴｹﾝ","kana_city":"ﾅﾊﾞﾘｼ","kana_address":"ﾐﾊﾀﾁｮｳｲｹﾉﾀﾞｲﾆｼ","pref":"三重県","city":"名張市","address":"美旗町池の台西"},
{"zip_code":"5180610","kana_pref":"ﾐｴｹﾝ","kana_city":"ﾅﾊﾞﾘｼ","kana_address":"ﾐﾊﾀﾁｮｳﾌｼﾞｶﾞｵｶ","pref":"三重県","city":"名張市","address":"美旗町藤が丘"},
{"zip_code":"5180616","kana_pref":"ﾐｴｹﾝ","kana_city":"ﾅﾊﾞﾘｼ","kana_address":"ﾐﾊﾀﾁｮｳﾐﾅﾐﾆｼﾊﾗ","pref":"三重県","city":"名張市","address":"美旗町南西原"},
{"zip_code":"5180617","kana_pref":"ﾐｴｹﾝ","kana_city":"ﾅﾊﾞﾘｼ","kana_address":"ﾐﾊﾀﾁｮｳﾅｶ1ﾊﾞﾝ","pref":"三重県","city":"名張市","address":"美旗町中１番"},
{"zip_code":"5180618","kana_pref":"ﾐｴｹﾝ","kana_city":"ﾅﾊﾞﾘｼ","kana_address":"ﾐﾊﾀﾁｮｳﾅｶ2ﾊﾞﾝ","pref":"三重県","city":"名張市","address":"美旗町中２番"},
{"zip_code":"5180619","kana_pref":"ﾐｴｹﾝ","kana_city":"ﾅﾊﾞﾘｼ","kana_address":"ﾐﾊﾀﾁｮｳﾅｶ3ﾊﾞﾝ","pref":"三重県","city":"名張市","address":"美旗町中３番"},
{"zip_code":"5180725","kana_pref":"ﾐｴｹﾝ","kana_city":"ﾅﾊﾞﾘｼ","kana_address":"ﾓﾄﾏﾁ","pref":"三重県","city":"名張市","address":"元町"},
{"zip_code":"5180763","kana_pref":"ﾐｴｹﾝ","kana_city":"ﾅﾊﾞﾘｼ","kana_address":"ﾔｶﾞﾜ","pref":"三重県","city":"名張市","address":"矢川"},
{"zip_code":"5180715","kana_pref":"ﾐｴｹﾝ","kana_city":"ﾅﾊﾞﾘｼ","kana_address":"ﾔﾅｷﾞﾊﾗﾁｮｳ","pref":"三重県","city":"名張市","address":"柳原町"},
{"zip_code":"5180605","kana_pref":"ﾐｴｹﾝ","kana_city":"ﾅﾊﾞﾘｼ","kana_address":"ﾔﾊﾞﾀ","pref":"三重県","city":"名張市","address":"八幡"},
{"zip_code":"5180481","kana_pref":"ﾐｴｹﾝ","kana_city":"ﾅﾊﾞﾘｼ","kana_address":"ﾕﾘｶﾞｵｶﾆｼ1ﾊﾞﾝﾁｮｳ","pref":"三重県","city":"名張市","address":"百合が丘西１番町"},
{"zip_code":"5180482","kana_pref":"ﾐｴｹﾝ","kana_city":"ﾅﾊﾞﾘｼ","kana_address":"ﾕﾘｶﾞｵｶﾆｼ2ﾊﾞﾝﾁｮｳ","pref":"三重県","city":"名張市","address":"百合が丘西２番町"},
{"zip_code":"5180483","kana_pref":"ﾐｴｹﾝ","kana_city":"ﾅﾊﾞﾘｼ","kana_address":"ﾕﾘｶﾞｵｶﾆｼ3ﾊﾞﾝﾁｮｳ","pref":"三重県","city":"名張市","address":"百合が丘西３番町"},
{"zip_code":"5180484","kana_pref":"ﾐｴｹﾝ","kana_city":"ﾅﾊﾞﾘｼ","kana_address":"ﾕﾘｶﾞｵｶﾆｼ4ﾊﾞﾝﾁｮｳ","pref":"三重県","city":"名張市","address":"百合が丘西４番町"},
{"zip_code":"5180485","kana_pref":"ﾐｴｹﾝ","kana_city":"ﾅﾊﾞﾘｼ","kana_address":"ﾕﾘｶﾞｵｶﾆｼ5ﾊﾞﾝﾁｮｳ","pref":"三重県","city":"名張市","address":"百合が丘西５番町"},
{"zip_code":"5180486","kana_pref":"ﾐｴｹﾝ","kana_city":"ﾅﾊﾞﾘｼ","kana_address":"ﾕﾘｶﾞｵｶﾆｼ6ﾊﾞﾝﾁｮｳ","pref":"三重県","city":"名張市","address":"百合が丘西６番町"},
{"zip_code":"5180471","kana_pref":"ﾐｴｹﾝ","kana_city":"ﾅﾊﾞﾘｼ","kana_address":"ﾕﾘｶﾞｵｶﾋｶﾞｼ1ﾊﾞﾝﾁｮｳ","pref":"三重県","city":"名張市","address":"百合が丘東１番町"},
{"zip_code":"5180472","kana_pref":"ﾐｴｹﾝ","kana_city":"ﾅﾊﾞﾘｼ","kana_address":"ﾕﾘｶﾞｵｶﾋｶﾞｼ2ﾊﾞﾝﾁｮｳ","pref":"三重県","city":"名張市","address":"百合が丘東２番町"},
{"zip_code":"5180473","kana_pref":"ﾐｴｹﾝ","kana_city":"ﾅﾊﾞﾘｼ","kana_address":"ﾕﾘｶﾞｵｶﾋｶﾞｼ3ﾊﾞﾝﾁｮｳ","pref":"三重県","city":"名張市","address":"百合が丘東３番町"},
{"zip_code":"5180474","kana_pref":"ﾐｴｹﾝ","kana_city":"ﾅﾊﾞﾘｼ","kana_address":"ﾕﾘｶﾞｵｶﾋｶﾞｼ4ﾊﾞﾝﾁｮｳ","pref":"三重県","city":"名張市","address":"百合が丘東４番町"},
{"zip_code":"5180475","kana_pref":"ﾐｴｹﾝ","kana_city":"ﾅﾊﾞﾘｼ","kana_address":"ﾕﾘｶﾞｵｶﾋｶﾞｼ5ﾊﾞﾝﾁｮｳ","pref":"三重県","city":"名張市","address":"百合が丘東５番町"},
{"zip_code":"5180476","kana_pref":"ﾐｴｹﾝ","kana_city":"ﾅﾊﾞﾘｼ","kana_address":"ﾕﾘｶﾞｵｶﾋｶﾞｼ6ﾊﾞﾝﾁｮｳ","pref":"三重県","city":"名張市","address":"百合が丘東６番町"},
{"zip_code":"5180477","kana_pref":"ﾐｴｹﾝ","kana_city":"ﾅﾊﾞﾘｼ","kana_address":"ﾕﾘｶﾞｵｶﾋｶﾞｼ7ﾊﾞﾝﾁｮｳ","pref":"三重県","city":"名張市","address":"百合が丘東７番町"},
{"zip_code":"5180478","kana_pref":"ﾐｴｹﾝ","kana_city":"ﾅﾊﾞﾘｼ","kana_address":"ﾕﾘｶﾞｵｶﾋｶﾞｼ8ﾊﾞﾝﾁｮｳ","pref":"三重県","city":"名張市","address":"百合が丘東８番町"},
{"zip_code":"5180479","kana_pref":"ﾐｴｹﾝ","kana_city":"ﾅﾊﾞﾘｼ","kana_address":"ﾕﾘｶﾞｵｶﾋｶﾞｼ9ﾊﾞﾝﾁｮｳ","pref":"三重県","city":"名張市","address":"百合が丘東９番町"},
{"zip_code":"5180761","kana_pref":"ﾐｴｹﾝ","kana_city":"ﾅﾊﾞﾘｼ","kana_address":"ﾘｭｳｸﾞﾁ","pref":"三重県","city":"名張市","address":"竜口"},
{"zip_code":"5180000","kana_pref":"ﾐｴｹﾝ","kana_city":"ｲｶﾞｼ","kana_address":"","pref":"三重県","city":"伊賀市","address":""},
{"zip_code":"5180226","kana_pref":"ﾐｴｹﾝ","kana_city":"ｲｶﾞｼ","kana_address":"ｱｵ","pref":"三重県","city":"伊賀市","address":"阿保"},
{"zip_code":"5180227","kana_pref":"ﾐｴｹﾝ","kana_city":"ｲｶﾞｼ","kana_address":"ｱｵﾔﾏﾊﾈ","pref":"三重県","city":"伊賀市","address":"青山羽根"},
{"zip_code":"5180114","kana_pref":"ﾐｴｹﾝ","kana_city":"ｲｶﾞｼ","kana_address":"ｱｻﾋｶﾞｵｶﾁｮｳ","pref":"三重県","city":"伊賀市","address":"朝日ケ丘町"},
{"zip_code":"5181316","kana_pref":"ﾐｴｹﾝ","kana_city":"ｲｶﾞｼ","kana_address":"ｱﾔﾏﾊｲﾂ","pref":"三重県","city":"伊賀市","address":"阿山ハイツ"},
{"zip_code":"5180818","kana_pref":"ﾐｴｹﾝ","kana_city":"ｲｶﾞｼ","kana_address":"ｱﾗｷ","pref":"三重県","city":"伊賀市","address":"荒木"},
{"zip_code":"5181323","kana_pref":"ﾐｴｹﾝ","kana_city":"ｲｶﾞｼ","kana_address":"ｲｼｶﾜ","pref":"三重県","city":"伊賀市","address":"石川"},
{"zip_code":"5180008","kana_pref":"ﾐｴｹﾝ","kana_city":"ｲｶﾞｼ","kana_address":"ｲｼﾞﾛ","pref":"三重県","city":"伊賀市","address":"印代"},
{"zip_code":"5181407","kana_pref":"ﾐｴｹﾝ","kana_city":"ｲｶﾞｼ","kana_address":"ｲｽﾞｺﾞ","pref":"三重県","city":"伊賀市","address":"出後"},
{"zip_code":"5180205","kana_pref":"ﾐｴｹﾝ","kana_city":"ｲｶﾞｼ","kana_address":"ｲｾｼﾞ","pref":"三重県","city":"伊賀市","address":"伊勢路"},
{"zip_code":"5180123","kana_pref":"ﾐｴｹﾝ","kana_city":"ｲｶﾞｼ","kana_address":"ｲﾀﾞ","pref":"三重県","city":"伊賀市","address":"猪田"},
{"zip_code":"5180003","kana_pref":"ﾐｴｹﾝ","kana_city":"ｲｶﾞｼ","kana_address":"ｲﾁﾉﾐﾔ","pref":"三重県","city":"伊賀市","address":"一之宮"},
{"zip_code":"5180102","kana_pref":"ﾐｴｹﾝ","kana_city":"ｲｶﾞｼ","kana_address":"ｲﾁﾍﾞ","pref":"三重県","city":"伊賀市","address":"市部"},
{"zip_code":"5180101","kana_pref":"ﾐｴｹﾝ","kana_city":"ｲｶﾞｼ","kana_address":"ｲﾅｸﾞ","pref":"三重県","city":"伊賀市","address":"依那具"},
{"zip_code":"5180026","kana_pref":"ﾐｴｹﾝ","kana_city":"ｲｶﾞｼ","kana_address":"ｲﾜｸﾗ","pref":"三重県","city":"伊賀市","address":"岩倉"},
{"zip_code":"5180859","kana_pref":"ﾐｴｹﾝ","kana_city":"ｲｶﾞｼ","kana_address":"ｳｴﾉｱｲｵｲﾁｮｳ","pref":"三重県","city":"伊賀市","address":"上野相生町"},
{"zip_code":"5180871","kana_pref":"ﾐｴｹﾝ","kana_city":"ｲｶﾞｼ","kana_address":"ｳｴﾉｱｶｻｶﾁｮｳ","pref":"三重県","city":"伊賀市","address":"上野赤坂町"},
{"zip_code":"5180846","kana_pref":"ﾐｴｹﾝ","kana_city":"ｲｶﾞｼ","kana_address":"ｳｴﾉｱﾀｺﾞﾏﾁ","pref":"三重県","city":"伊賀市","address":"上野愛宕町"},
{"zip_code":"5180853","kana_pref":"ﾐｴｹﾝ","kana_city":"ｲｶﾞｼ","kana_address":"ｳｴﾉｲｹﾏﾁ","pref":"三重県","city":"伊賀市","address":"上野池町"},
{"zip_code":"5180852","kana_pref":"ﾐｴｹﾝ","kana_city":"ｲｶﾞｼ","kana_address":"ｳｴﾉｲﾖﾏﾁ","pref":"三重県","city":"伊賀市","address":"上野伊予町"},
{"zip_code":"5180865","kana_pref":"ﾐｴｹﾝ","kana_city":"ｲｶﾞｼ","kana_address":"ｳｴﾉｳｵﾏﾁ","pref":"三重県","city":"伊賀市","address":"上野魚町"},
{"zip_code":"5180841","kana_pref":"ﾐｴｹﾝ","kana_city":"ｲｶﾞｼ","kana_address":"ｳｴﾉｴﾋﾞｽﾏﾁ","pref":"三重県","city":"伊賀市","address":"上野恵美須町"},
{"zip_code":"5180864","kana_pref":"ﾐｴｹﾝ","kana_city":"ｲｶﾞｼ","kana_address":"ｳｴﾉｶｼﾞﾏﾁ","pref":"三重県","city":"伊賀市","address":"上野鍛冶町"},
{"zip_code":"5180862","kana_pref":"ﾐｴｹﾝ","kana_city":"ｲｶﾞｼ","kana_address":"ｳｴﾉｶﾀﾊﾗﾏﾁ","pref":"三重県","city":"伊賀市","address":"上野片原町"},
{"zip_code":"5180838","kana_pref":"ﾐｴｹﾝ","kana_city":"ｲｶﾞｼ","kana_address":"ｳｴﾉｶﾔﾏﾁ","pref":"三重県","city":"伊賀市","address":"上野茅町"},
{"zip_code":"5180832","kana_pref":"ﾐｴｹﾝ","kana_city":"ｲｶﾞｼ","kana_address":"ｳｴﾉｸﾙﾏｻﾞｶﾁｮｳ","pref":"三重県","city":"伊賀市","address":"上野車坂町"},
{"zip_code":"5180842","kana_pref":"ﾐｴｹﾝ","kana_city":"ｲｶﾞｼ","kana_address":"ｳｴﾉｸﾜﾏﾁ","pref":"三重県","city":"伊賀市","address":"上野桑町"},
{"zip_code":"5180872","kana_pref":"ﾐｴｹﾝ","kana_city":"ｲｶﾞｼ","kana_address":"ｳｴﾉｹﾞﾝﾊﾞﾏﾁ","pref":"三重県","city":"伊賀市","address":"上野玄蕃町"},
{"zip_code":"5180874","kana_pref":"ﾐｴｹﾝ","kana_city":"ｲｶﾞｼ","kana_address":"ｳｴﾉｺｳｻｶﾏﾁ","pref":"三重県","city":"伊賀市","address":"上野幸坂町"},
{"zip_code":"5180866","kana_pref":"ﾐｴｹﾝ","kana_city":"ｲｶﾞｼ","kana_address":"ｳｴﾉｺﾀﾞﾏﾁｮｳ","pref":"三重県","city":"伊賀市","address":"上野小玉町"},
{"zip_code":"5180858","kana_pref":"ﾐｴｹﾝ","kana_city":"ｲｶﾞｼ","kana_address":"ｳｴﾉｺﾝﾔﾏﾁ","pref":"三重県","city":"伊賀市","address":"上野紺屋町"},
{"zip_code":"5180857","kana_pref":"ﾐｴｹﾝ","kana_city":"ｲｶﾞｼ","kana_address":"ｳｴﾉｻﾝﾉﾆｼﾏﾁ","pref":"三重県","city":"伊賀市","address":"上野三之西町"},
{"zip_code":"5180854","kana_pref":"ﾐｴｹﾝ","kana_city":"ｲｶﾞｼ","kana_address":"ｳｴﾉｼﾉﾋﾞﾁｮｳ","pref":"三重県","city":"伊賀市","address":"上野忍町"},
{"zip_code":"5180877","kana_pref":"ﾐｴｹﾝ","kana_city":"ｲｶﾞｼ","kana_address":"ｳｴﾉｼﾓｺｳｻｶﾏﾁ","pref":"三重県","city":"伊賀市","address":"上野下幸坂町"},
{"zip_code":"5180863","kana_pref":"ﾐｴｹﾝ","kana_city":"ｲｶﾞｼ","kana_address":"ｳｴﾉｼﾝﾏﾁ","pref":"三重県","city":"伊賀市","address":"上野新町"},
{"zip_code":"5180839","kana_pref":"ﾐｴｹﾝ","kana_city":"ｲｶﾞｼ","kana_address":"ｳｴﾉﾀﾊﾞﾀﾁｮｳ","pref":"三重県","city":"伊賀市","address":"上野田端町"},
{"zip_code":"5180847","kana_pref":"ﾐｴｹﾝ","kana_city":"ｲｶﾞｼ","kana_address":"ｳｴﾉﾃｯﾎﾟｳﾏﾁ","pref":"三重県","city":"伊賀市","address":"上野鉄砲町"},
{"zip_code":"5180851","kana_pref":"ﾐｴｹﾝ","kana_city":"ｲｶﾞｼ","kana_address":"ｳｴﾉﾃﾗﾏﾁ","pref":"三重県","city":"伊賀市","address":"上野寺町"},
{"zip_code":"5180856","kana_pref":"ﾐｴｹﾝ","kana_city":"ｲｶﾞｼ","kana_address":"ｳｴﾉﾄｸｲﾁｮｳ","pref":"三重県","city":"伊賀市","address":"上野徳居町"},
{"zip_code":"5180869","kana_pref":"ﾐｴｹﾝ","kana_city":"ｲｶﾞｼ","kana_address":"ｳｴﾉﾅｶﾏﾁ","pref":"三重県","city":"伊賀市","address":"上野中町"},
{"zip_code":"5180878","kana_pref":"ﾐｴｹﾝ","kana_city":"ｲｶﾞｼ","kana_address":"ｳｴﾉﾆｼｵｵﾃﾁｮｳ","pref":"三重県","city":"伊賀市","address":"上野西大手町"},
{"zip_code":"5180848","kana_pref":"ﾐｴｹﾝ","kana_city":"ｲｶﾞｼ","kana_address":"ｳｴﾉﾆｼﾋﾅﾀﾏﾁ","pref":"三重県","city":"伊賀市","address":"上野西日南町"},
{"zip_code":"5180868","kana_pref":"ﾐｴｹﾝ","kana_city":"ｲｶﾞｼ","kana_address":"ｳｴﾉﾆｼﾏﾁ","pref":"三重県","city":"伊賀市","address":"上野西町"},
{"zip_code":"5180831","kana_pref":"ﾐｴｹﾝ","kana_city":"ｲｶﾞｼ","kana_address":"ｳｴﾉﾉｳﾆﾝﾏﾁ","pref":"三重県","city":"伊賀市","address":"上野農人町"},
{"zip_code":"5180849","kana_pref":"ﾐｴｹﾝ","kana_city":"ｲｶﾞｼ","kana_address":"ｳｴﾉﾋｶﾞｼﾋﾅﾀﾏﾁ","pref":"三重県","city":"伊賀市","address":"上野東日南町"},
{"zip_code":"5180861","kana_pref":"ﾐｴｹﾝ","kana_city":"ｲｶﾞｼ","kana_address":"ｳｴﾉﾋｶﾞｼﾏﾁ","pref":"三重県","city":"伊賀市","address":"上野東町"},
{"zip_code":"5180867","kana_pref":"ﾐｴｹﾝ","kana_city":"ｲｶﾞｼ","kana_address":"ｳｴﾉﾌｸｲﾁｮｳ","pref":"三重県","city":"伊賀市","address":"上野福居町"},
{"zip_code":"5180873","kana_pref":"ﾐｴｹﾝ","kana_city":"ｲｶﾞｼ","kana_address":"ｳｴﾉﾏﾙﾉｳﾁ","pref":"三重県","city":"伊賀市","address":"上野丸之内"},
{"zip_code":"5180875","kana_pref":"ﾐｴｹﾝ","kana_city":"ｲｶﾞｼ","kana_address":"ｳｴﾉﾑｶｲｼﾞﾏﾁｮｳ","pref":"三重県","city":"伊賀市","address":"上野向島町"},
{"zip_code":"5180855","kana_pref":"ﾐｴｹﾝ","kana_city":"ｲｶﾞｼ","kana_address":"ｳｴﾉﾖﾛｽﾞﾏﾁ","pref":"三重県","city":"伊賀市","address":"上野万町"},
{"zip_code":"5180112","kana_pref":"ﾐｴｹﾝ","kana_city":"ｲｶﾞｼ","kana_address":"ｳｴﾊﾞﾔｼ","pref":"三重県","city":"伊賀市","address":"上林"},
{"zip_code":"5181321","kana_pref":"ﾐｴｹﾝ","kana_city":"ｲｶﾞｼ","kana_address":"ｳﾁﾎ","pref":"三重県","city":"伊賀市","address":"内保"},
{"zip_code":"5181314","kana_pref":"ﾐｴｹﾝ","kana_city":"ｲｶﾞｼ","kana_address":"ｴﾝﾄｸｲﾝ","pref":"三重県","city":"伊賀市","address":"円徳院"},
{"zip_code":"5180219","kana_pref":"ﾐｴｹﾝ","kana_city":"ｲｶﾞｼ","kana_address":"ｵｲｶﾜ","pref":"三重県","city":"伊賀市","address":"老川"},
{"zip_code":"5180034","kana_pref":"ﾐｴｹﾝ","kana_city":"ｲｶﾞｼ","kana_address":"ｵｵｳﾁ","pref":"三重県","city":"伊賀市","address":"大内"},
{"zip_code":"5181317","kana_pref":"ﾐｴｹﾝ","kana_city":"ｲｶﾞｼ","kana_address":"ｵｵｴ","pref":"三重県","city":"伊賀市","address":"大江"},
{"zip_code":"5181154","kana_pref":"ﾐｴｹﾝ","kana_city":"ｲｶﾞｼ","kana_address":"ｵｵﾀｷ","pref":"三重県","city":"伊賀市","address":"大滝"},
{"zip_code":"5180017","kana_pref":"ﾐｴｹﾝ","kana_city":"ｲｶﾞｼ","kana_address":"ｵｵﾀﾆ","pref":"三重県","city":"伊賀市","address":"大谷"},
{"zip_code":"5180033","kana_pref":"ﾐｴｹﾝ","kana_city":"ｲｶﾞｼ","kana_address":"ｵｵﾉｷﾞ","pref":"三重県","city":"伊賀市","address":"大野木"},
{"zip_code":"5180223","kana_pref":"ﾐｴｹﾝ","kana_city":"ｲｶﾞｼ","kana_address":"ｵｶﾀﾞ","pref":"三重県","city":"伊賀市","address":"岡田"},
{"zip_code":"5180106","kana_pref":"ﾐｴｹﾝ","kana_city":"ｲｶﾞｼ","kana_address":"ｵｶﾅﾐ","pref":"三重県","city":"伊賀市","address":"岡波"},
{"zip_code":"5180103","kana_pref":"ﾐｴｹﾝ","kana_city":"ｲｶﾞｼ","kana_address":"ｵｷ","pref":"三重県","city":"伊賀市","address":"沖"},
{"zip_code":"5180211","kana_pref":"ﾐｴｹﾝ","kana_city":"ｲｶﾞｼ","kana_address":"ｵｸｶﾞﾉ","pref":"三重県","city":"伊賀市","address":"奥鹿野"},
{"zip_code":"5181427","kana_pref":"ﾐｴｹﾝ","kana_city":"ｲｶﾞｼ","kana_address":"ｵｸﾊﾞﾉ","pref":"三重県","city":"伊賀市","address":"奥馬野"},
{"zip_code":"5180825","kana_pref":"ﾐｴｹﾝ","kana_city":"ｲｶﾞｼ","kana_address":"ｵﾀﾁｮｳ","pref":"三重県","city":"伊賀市","address":"小田町"},
{"zip_code":"5181324","kana_pref":"ﾐｴｹﾝ","kana_city":"ｲｶﾞｼ","kana_address":"ｵﾄﾜ","pref":"三重県","city":"伊賀市","address":"音羽"},
{"zip_code":"5180815","kana_pref":"ﾐｴｹﾝ","kana_city":"ｲｶﾞｼ","kana_address":"ｶｲｹﾞ","pref":"三重県","city":"伊賀市","address":"界外"},
{"zip_code":"5180122","kana_pref":"ﾐｴｹﾝ","kana_city":"ｲｶﾞｼ","kana_address":"ｶｻﾍﾞ","pref":"三重県","city":"伊賀市","address":"笠部"},
{"zip_code":"5180224","kana_pref":"ﾐｴｹﾝ","kana_city":"ｲｶﾞｼ","kana_address":"ｶｼｵ","pref":"三重県","city":"伊賀市","address":"柏尾"},
{"zip_code":"5181403","kana_pref":"ﾐｴｹﾝ","kana_city":"ｲｶﾞｼ","kana_address":"ｶｼｷﾑﾗ","pref":"三重県","city":"伊賀市","address":"炊村"},
{"zip_code":"5181143","kana_pref":"ﾐｴｹﾝ","kana_city":"ｲｶﾞｼ","kana_address":"ｶｼﾞﾔ","pref":"三重県","city":"伊賀市","address":"鍛冶屋"},
{"zip_code":"5180203","kana_pref":"ﾐｴｹﾝ","kana_city":"ｲｶﾞｼ","kana_address":"ｶﾁｼﾞ","pref":"三重県","city":"伊賀市","address":"勝地"},
{"zip_code":"5181153","kana_pref":"ﾐｴｹﾝ","kana_city":"ｲｶﾞｼ","kana_address":"ｶﾂﾗ","pref":"三重県","city":"伊賀市","address":"桂"},
{"zip_code":"5181412","kana_pref":"ﾐｴｹﾝ","kana_city":"ｲｶﾞｼ","kana_address":"ｶﾐｱﾜ","pref":"三重県","city":"伊賀市","address":"上阿波"},
{"zip_code":"5180116","kana_pref":"ﾐｴｹﾝ","kana_city":"ｲｶﾞｼ","kana_address":"ｶﾐｶﾝﾍﾞ","pref":"三重県","city":"伊賀市","address":"上神戸"},
{"zip_code":"5180125","kana_pref":"ﾐｴｹﾝ","kana_city":"ｲｶﾞｼ","kana_address":"ｶﾐｺﾞｵﾘ","pref":"三重県","city":"伊賀市","address":"上郡"},
{"zip_code":"5181303","kana_pref":"ﾐｴｹﾝ","kana_city":"ｲｶﾞｼ","kana_address":"ｶﾐﾄﾓﾀﾞ","pref":"三重県","city":"伊賀市","address":"上友田"},
{"zip_code":"5180814","kana_pref":"ﾐｴｹﾝ","kana_city":"ｲｶﾞｼ","kana_address":"ｶﾐﾄﾓﾉ","pref":"三重県","city":"伊賀市","address":"上友生"},
{"zip_code":"5180121","kana_pref":"ﾐｴｹﾝ","kana_city":"ｲｶﾞｼ","kana_address":"ｶﾐﾉｼｮｳ","pref":"三重県","city":"伊賀市","address":"上之庄"},
{"zip_code":"5181315","kana_pref":"ﾐｴｹﾝ","kana_city":"ｲｶﾞｼ","kana_address":"ｶﾜｲ","pref":"三重県","city":"伊賀市","address":"川合"},
{"zip_code":"5180218","kana_pref":"ﾐｴｹﾝ","kana_city":"ｲｶﾞｼ","kana_address":"ｶﾜｶﾐ","pref":"三重県","city":"伊賀市","address":"川上"},
{"zip_code":"5181425","kana_pref":"ﾐｴｹﾝ","kana_city":"ｲｶﾞｼ","kana_address":"ｶﾜｷﾀ","pref":"三重県","city":"伊賀市","address":"川北"},
{"zip_code":"5180845","kana_pref":"ﾐｴｹﾝ","kana_city":"ｲｶﾞｼ","kana_address":"ｷｺﾁｮｳ","pref":"三重県","city":"伊賀市","address":"木興町"},
{"zip_code":"5180204","kana_pref":"ﾐｴｹﾝ","kana_city":"ｲｶﾞｼ","kana_address":"ｷﾀﾔﾏ","pref":"三重県","city":"伊賀市","address":"北山"},
{"zip_code":"5180225","kana_pref":"ﾐｴｹﾝ","kana_city":"ｲｶﾞｼ","kana_address":"ｷﾘｶﾞｵｶ","pref":"三重県","city":"伊賀市","address":"桐ケ丘"},
{"zip_code":"5180215","kana_pref":"ﾐｴｹﾝ","kana_city":"ｲｶﾞｼ","kana_address":"ｷﾘｭｳ","pref":"三重県","city":"伊賀市","address":"霧生"},
{"zip_code":"5180843","kana_pref":"ﾐｴｹﾝ","kana_city":"ｲｶﾞｼ","kana_address":"ｸﾒﾁｮｳ","pref":"三重県","city":"伊賀市","address":"久米町"},
{"zip_code":"5181147","kana_pref":"ﾐｴｹﾝ","kana_city":"ｲｶﾞｼ","kana_address":"ｸﾗﾅﾜﾃ","pref":"三重県","city":"伊賀市","address":"蔵縄手"},
{"zip_code":"5181404","kana_pref":"ﾐｴｹﾝ","kana_city":"ｲｶﾞｼ","kana_address":"ｺｳﾉ","pref":"三重県","city":"伊賀市","address":"甲野"},
{"zip_code":"5180214","kana_pref":"ﾐｴｹﾝ","kana_city":"ｲｶﾞｼ","kana_address":"ｺｼﾔﾏ","pref":"三重県","city":"伊賀市","address":"腰山"},
{"zip_code":"5180809","kana_pref":"ﾐｴｹﾝ","kana_city":"ｲｶﾞｼ","kana_address":"ｻｲﾐｮｳｼﾞ","pref":"三重県","city":"伊賀市","address":"西明寺"},
{"zip_code":"5180108","kana_pref":"ﾐｴｹﾝ","kana_city":"ｲｶﾞｼ","kana_address":"ｻﾞｲﾘｮｳ","pref":"三重県","city":"伊賀市","address":"才良"},
{"zip_code":"5181429","kana_pref":"ﾐｴｹﾝ","kana_city":"ｲｶﾞｼ","kana_address":"ｻｶｹﾞ","pref":"三重県","city":"伊賀市","address":"坂下"},
{"zip_code":"5180012","kana_pref":"ﾐｴｹﾝ","kana_city":"ｲｶﾞｼ","kana_address":"ｻｶﾉｼﾀ","pref":"三重県","city":"伊賀市","address":"坂之下"},
{"zip_code":"5180001","kana_pref":"ﾐｴｹﾝ","kana_city":"ｲｶﾞｼ","kana_address":"ｻﾅｸﾞﾁｮｳ","pref":"三重県","city":"伊賀市","address":"佐那具町"},
{"zip_code":"5180823","kana_pref":"ﾐｴｹﾝ","kana_city":"ｲｶﾞｼ","kana_address":"ｼｼﾞｭｸﾁｮｳ","pref":"三重県","city":"伊賀市","address":"四十九町"},
{"zip_code":"5180035","kana_pref":"ﾐｴｹﾝ","kana_city":"ｲｶﾞｼ","kana_address":"ｼﾁﾎﾝｷﾞ","pref":"三重県","city":"伊賀市","address":"七本木"},
{"zip_code":"5181416","kana_pref":"ﾐｴｹﾝ","kana_city":"ｲｶﾞｼ","kana_address":"ｼﾓｱﾜ","pref":"三重県","city":"伊賀市","address":"下阿波"},
{"zip_code":"5180206","kana_pref":"ﾐｴｹﾝ","kana_city":"ｲｶﾞｼ","kana_address":"ｼﾓｶﾞﾜﾗ","pref":"三重県","city":"伊賀市","address":"下川原"},
{"zip_code":"5180111","kana_pref":"ﾐｴｹﾝ","kana_city":"ｲｶﾞｼ","kana_address":"ｼﾓｶﾝﾍﾞ","pref":"三重県","city":"伊賀市","address":"下神戸"},
{"zip_code":"5180124","kana_pref":"ﾐｴｹﾝ","kana_city":"ｲｶﾞｼ","kana_address":"ｼﾓｺﾞｵﾘ","pref":"三重県","city":"伊賀市","address":"下郡"},
{"zip_code":"5181305","kana_pref":"ﾐｴｹﾝ","kana_city":"ｲｶﾞｼ","kana_address":"ｼﾓﾄﾓﾀﾞ","pref":"三重県","city":"伊賀市","address":"下友田"},
{"zip_code":"5180817","kana_pref":"ﾐｴｹﾝ","kana_city":"ｲｶﾞｼ","kana_address":"ｼﾓﾄﾓﾉ","pref":"三重県","city":"伊賀市","address":"下友生"},
{"zip_code":"5181141","kana_pref":"ﾐｴｹﾝ","kana_city":"ｲｶﾞｼ","kana_address":"ｼｮｳﾌﾞｲｹ","pref":"三重県","city":"伊賀市","address":"菖蒲池"},
{"zip_code":"5181151","kana_pref":"ﾐｴｹﾝ","kana_city":"ｲｶﾞｼ","kana_address":"ｼﾗｶｼ","pref":"三重県","city":"伊賀市","address":"白樫"},
{"zip_code":"5180104","kana_pref":"ﾐｴｹﾝ","kana_city":"ｲｶﾞｼ","kana_address":"ｽﾙﾐ","pref":"三重県","city":"伊賀市","address":"摺見"},
{"zip_code":"5180021","kana_pref":"ﾐｴｹﾝ","kana_city":"ｲｶﾞｼ","kana_address":"ｽﾜ","pref":"三重県","city":"伊賀市","address":"諏訪"},
{"zip_code":"5181319","kana_pref":"ﾐｴｹﾝ","kana_city":"ｲｶﾞｼ","kana_address":"ｾｶﾞｲ","pref":"三重県","city":"伊賀市","address":"千貝"},
{"zip_code":"5180002","kana_pref":"ﾐｴｹﾝ","kana_city":"ｲｶﾞｼ","kana_address":"ｾﾝｻﾞｲ","pref":"三重県","city":"伊賀市","address":"千歳"},
{"zip_code":"5181401","kana_pref":"ﾐｴｹﾝ","kana_city":"ｲｶﾞｼ","kana_address":"ｾﾝﾄﾞ","pref":"三重県","city":"伊賀市","address":"千戸"},
{"zip_code":"5180216","kana_pref":"ﾐｴｹﾝ","kana_city":"ｲｶﾞｼ","kana_address":"ﾀｶｵ","pref":"三重県","city":"伊賀市","address":"高尾"},
{"zip_code":"5180005","kana_pref":"ﾐｴｹﾝ","kana_city":"ｲｶﾞｼ","kana_address":"ﾀｶﾊﾀ","pref":"三重県","city":"伊賀市","address":"高畑"},
{"zip_code":"5180812","kana_pref":"ﾐｴｹﾝ","kana_city":"ｲｶﾞｼ","kana_address":"ﾀｶﾔﾏ","pref":"三重県","city":"伊賀市","address":"高山"},
{"zip_code":"5180201","kana_pref":"ﾐｴｹﾝ","kana_city":"ｲｶﾞｼ","kana_address":"ﾀｷ","pref":"三重県","city":"伊賀市","address":"瀧"},
{"zip_code":"5180217","kana_pref":"ﾐｴｹﾝ","kana_city":"ｲｶﾞｼ","kana_address":"ﾀﾅｵ","pref":"三重県","city":"伊賀市","address":"種生"},
{"zip_code":"5181312","kana_pref":"ﾐｴｹﾝ","kana_city":"ｲｶﾞｼ","kana_address":"ﾀﾅｶ","pref":"三重県","city":"伊賀市","address":"田中"},
{"zip_code":"5181322","kana_pref":"ﾐｴｹﾝ","kana_city":"ｲｶﾞｼ","kana_address":"ﾀﾏﾀｷ","pref":"三重県","city":"伊賀市","address":"玉滝"},
{"zip_code":"5180032","kana_pref":"ﾐｴｹﾝ","kana_city":"ｲｶﾞｼ","kana_address":"ﾁｮｳﾔ","pref":"三重県","city":"伊賀市","address":"朝屋"},
{"zip_code":"5180015","kana_pref":"ﾐｴｹﾝ","kana_city":"ｲｶﾞｼ","kana_address":"ﾂﾁﾊｼ","pref":"三重県","city":"伊賀市","address":"土橋"},
{"zip_code":"5180004","kana_pref":"ﾐｴｹﾝ","kana_city":"ｲｶﾞｼ","kana_address":"ﾃﾗﾀﾞ","pref":"三重県","city":"伊賀市","address":"寺田"},
{"zip_code":"5180222","kana_pref":"ﾐｴｹﾝ","kana_city":"ｲｶﾞｼ","kana_address":"ﾃﾗﾜｷ","pref":"三重県","city":"伊賀市","address":"寺脇"},
{"zip_code":"5181424","kana_pref":"ﾐｴｹﾝ","kana_city":"ｲｶﾞｼ","kana_address":"ﾄﾐｵｶ","pref":"三重県","city":"伊賀市","address":"富岡"},
{"zip_code":"5181417","kana_pref":"ﾐｴｹﾝ","kana_city":"ｲｶﾞｼ","kana_address":"ﾄﾐﾅｶﾞ","pref":"三重県","city":"伊賀市","address":"富永"},
{"zip_code":"5180011","kana_pref":"ﾐｴｹﾝ","kana_city":"ｲｶﾞｼ","kana_address":"ﾄﾔﾏ","pref":"三重県","city":"伊賀市","address":"外山"},
{"zip_code":"5180822","kana_pref":"ﾐｴｹﾝ","kana_city":"ｲｶﾞｼ","kana_address":"ﾄﾝﾔﾏﾁ","pref":"三重県","city":"伊賀市","address":"問屋町"},
{"zip_code":"5180031","kana_pref":"ﾐｴｹﾝ","kana_city":"ｲｶﾞｼ","kana_address":"ﾅｶﾞﾀ","pref":"三重県","city":"伊賀市","address":"長田"},
{"zip_code":"5181304","kana_pref":"ﾐｴｹﾝ","kana_city":"ｲｶﾞｼ","kana_address":"ﾅｶﾄﾓﾀﾞ","pref":"三重県","city":"伊賀市","address":"中友田"},
{"zip_code":"5180816","kana_pref":"ﾐｴｹﾝ","kana_city":"ｲｶﾞｼ","kana_address":"ﾅｶﾄﾓﾉ","pref":"三重県","city":"伊賀市","address":"中友生"},
{"zip_code":"5181428","kana_pref":"ﾐｴｹﾝ","kana_city":"ｲｶﾞｼ","kana_address":"ﾅｶﾊﾞﾉ","pref":"三重県","city":"伊賀市","address":"中馬野"},
{"zip_code":"5181406","kana_pref":"ﾐｴｹﾝ","kana_city":"ｲｶﾞｼ","kana_address":"ﾅｶﾑﾗ","pref":"三重県","city":"伊賀市","address":"中村"},
{"zip_code":"5180014","kana_pref":"ﾐｴｹﾝ","kana_city":"ｲｶﾞｼ","kana_address":"ﾆｼｼﾞｮｳ","pref":"三重県","city":"伊賀市","address":"西条"},
{"zip_code":"5180025","kana_pref":"ﾐｴｹﾝ","kana_city":"ｲｶﾞｼ","kana_address":"ﾆｼﾀｶｸﾗ","pref":"三重県","city":"伊賀市","address":"西高倉"},
{"zip_code":"5180027","kana_pref":"ﾐｴｹﾝ","kana_city":"ｲｶﾞｼ","kana_address":"ﾆｼﾔﾏ","pref":"三重県","city":"伊賀市","address":"西山"},
{"zip_code":"5181301","kana_pref":"ﾐｴｹﾝ","kana_city":"ｲｶﾞｼ","kana_address":"ﾆｼﾕﾌﾞﾈ","pref":"三重県","city":"伊賀市","address":"西湯舟"},
{"zip_code":"5180023","kana_pref":"ﾐｴｹﾝ","kana_city":"ｲｶﾞｼ","kana_address":"ﾉﾏ","pref":"三重県","city":"伊賀市","address":"野間"},
{"zip_code":"5181318","kana_pref":"ﾐｴｹﾝ","kana_city":"ｲｶﾞｼ","kana_address":"ﾊｼﾞｷﾉ","pref":"三重県","city":"伊賀市","address":"波敷野"},
{"zip_code":"5180813","kana_pref":"ﾐｴｹﾝ","kana_city":"ｲｶﾞｼ","kana_address":"ﾊｽｲｹ","pref":"三重県","city":"伊賀市","address":"蓮池"},
{"zip_code":"5181311","kana_pref":"ﾐｴｹﾝ","kana_city":"ｲｶﾞｼ","kana_address":"ﾊﾞﾀ","pref":"三重県","city":"伊賀市","address":"馬田"},
{"zip_code":"5181408","kana_pref":"ﾐｴｹﾝ","kana_city":"ｲｶﾞｼ","kana_address":"ﾊﾀﾑﾗ","pref":"三重県","city":"伊賀市","address":"畑村"},
{"zip_code":"5181155","kana_pref":"ﾐｴｹﾝ","kana_city":"ｲｶﾞｼ","kana_address":"ﾊｯﾀ","pref":"三重県","city":"伊賀市","address":"治田"},
{"zip_code":"5180007","kana_pref":"ﾐｴｹﾝ","kana_city":"ｲｶﾞｼ","kana_address":"ﾊｯﾄﾘﾁｮｳ","pref":"三重県","city":"伊賀市","address":"服部町"},
{"zip_code":"5180006","kana_pref":"ﾐｴｹﾝ","kana_city":"ｲｶﾞｼ","kana_address":"ﾊﾈ","pref":"三重県","city":"伊賀市","address":"羽根"},
{"zip_code":"5181313","kana_pref":"ﾐｴｹﾝ","kana_city":"ｲｶﾞｼ","kana_address":"ﾊﾞﾊﾞ","pref":"三重県","city":"伊賀市","address":"馬場"},
{"zip_code":"5180013","kana_pref":"ﾐｴｹﾝ","kana_city":"ｲｶﾞｼ","kana_address":"ﾋｶﾞｼｼﾞｮｳ","pref":"三重県","city":"伊賀市","address":"東条"},
{"zip_code":"5180024","kana_pref":"ﾐｴｹﾝ","kana_city":"ｲｶﾞｼ","kana_address":"ﾋｶﾞｼﾀｶｸﾗ","pref":"三重県","city":"伊賀市","address":"東高倉"},
{"zip_code":"5181144","kana_pref":"ﾐｴｹﾝ","kana_city":"ｲｶﾞｼ","kana_address":"ﾋｶﾞｼﾀﾞﾆ","pref":"三重県","city":"伊賀市","address":"東谷"},
{"zip_code":"5181307","kana_pref":"ﾐｴｹﾝ","kana_city":"ｲｶﾞｼ","kana_address":"ﾋｶﾞｼﾔﾏﾀｳﾝ","pref":"三重県","city":"伊賀市","address":"東山タウン"},
{"zip_code":"5181302","kana_pref":"ﾐｴｹﾝ","kana_city":"ｲｶﾞｼ","kana_address":"ﾋｶﾞｼﾕﾌﾞﾈ","pref":"三重県","city":"伊賀市","address":"東湯舟"},
{"zip_code":"5180105","kana_pref":"ﾐｴｹﾝ","kana_city":"ｲｶﾞｼ","kana_address":"ﾋｼﾞｷ","pref":"三重県","city":"伊賀市","address":"比自岐"},
{"zip_code":"5180107","kana_pref":"ﾐｴｹﾝ","kana_city":"ｲｶﾞｼ","kana_address":"ﾋｼﾞｷｶﾞﾜ","pref":"三重県","city":"伊賀市","address":"枅川"},
{"zip_code":"5180115","kana_pref":"ﾐｴｹﾝ","kana_city":"ｲｶﾞｼ","kana_address":"ﾋﾄﾞ","pref":"三重県","city":"伊賀市","address":"比土"},
{"zip_code":"5181422","kana_pref":"ﾐｴｹﾝ","kana_city":"ｲｶﾞｼ","kana_address":"ﾋﾗﾀ","pref":"三重県","city":"伊賀市","address":"平田"},
{"zip_code":"5180807","kana_pref":"ﾐｴｹﾝ","kana_city":"ｲｶﾞｼ","kana_address":"ﾋﾗﾉｶﾐｶﾞﾜﾗ","pref":"三重県","city":"伊賀市","address":"平野上川原"},
{"zip_code":"5180826","kana_pref":"ﾐｴｹﾝ","kana_city":"ｲｶﾞｼ","kana_address":"ﾋﾗﾉｷﾀﾀﾞﾆ","pref":"三重県","city":"伊賀市","address":"平野北谷"},
{"zip_code":"5180808","kana_pref":"ﾐｴｹﾝ","kana_city":"ｲｶﾞｼ","kana_address":"ﾋﾗﾉｸﾗｶﾞｲﾄ","pref":"三重県","city":"伊賀市","address":"平野蔵垣内"},
{"zip_code":"5180827","kana_pref":"ﾐｴｹﾝ","kana_city":"ｲｶﾞｼ","kana_address":"ﾋﾗﾉｼｮｳｽﾞ","pref":"三重県","city":"伊賀市","address":"平野清水"},
{"zip_code":"5180830","kana_pref":"ﾐｴｹﾝ","kana_city":"ｲｶﾞｼ","kana_address":"ﾋﾗﾉｼﾞｮｳﾎｸﾁｮｳ","pref":"三重県","city":"伊賀市","address":"平野城北町"},
{"zip_code":"5180828","kana_pref":"ﾐｴｹﾝ","kana_city":"ｲｶﾞｼ","kana_address":"ﾋﾗﾉﾅｶｶﾞﾜﾗ","pref":"三重県","city":"伊賀市","address":"平野中川原"},
{"zip_code":"5180820","kana_pref":"ﾐｴｹﾝ","kana_city":"ｲｶﾞｼ","kana_address":"ﾋﾗﾉﾆｼﾏﾁ","pref":"三重県","city":"伊賀市","address":"平野西町"},
{"zip_code":"5180810","kana_pref":"ﾐｴｹﾝ","kana_city":"ｲｶﾞｼ","kana_address":"ﾋﾗﾉﾋｶﾞｼﾏﾁ","pref":"三重県","city":"伊賀市","address":"平野東町"},
{"zip_code":"5180802","kana_pref":"ﾐｴｹﾝ","kana_city":"ｲｶﾞｼ","kana_address":"ﾋﾗﾉﾋﾉｸﾁ","pref":"三重県","city":"伊賀市","address":"平野樋之口"},
{"zip_code":"5180801","kana_pref":"ﾐｴｹﾝ","kana_city":"ｲｶﾞｼ","kana_address":"ﾋﾗﾉﾐﾉｳ","pref":"三重県","city":"伊賀市","address":"平野見能"},
{"zip_code":"5180829","kana_pref":"ﾐｴｹﾝ","kana_city":"ｲｶﾞｼ","kana_address":"ﾋﾗﾉﾔﾏﾉｼﾀ","pref":"三重県","city":"伊賀市","address":"平野山之下"},
{"zip_code":"5180804","kana_pref":"ﾐｴｹﾝ","kana_city":"ｲｶﾞｼ","kana_address":"ﾋﾗﾉﾛｸﾀﾝﾀﾞ","pref":"三重県","city":"伊賀市","address":"平野六反田"},
{"zip_code":"5181426","kana_pref":"ﾐｴｹﾝ","kana_city":"ｲｶﾞｼ","kana_address":"ﾋﾛｾ","pref":"三重県","city":"伊賀市","address":"広瀬"},
{"zip_code":"5180212","kana_pref":"ﾐｴｹﾝ","kana_city":"ｲｶﾞｼ","kana_address":"ﾌｸｶﾞﾜ","pref":"三重県","city":"伊賀市","address":"福川"},
{"zip_code":"5180113","kana_pref":"ﾐｴｹﾝ","kana_city":"ｲｶﾞｼ","kana_address":"ﾌﾙｺｵﾘ","pref":"三重県","city":"伊賀市","address":"古郡"},
{"zip_code":"5180821","kana_pref":"ﾐｴｹﾝ","kana_city":"ｲｶﾞｼ","kana_address":"ﾌﾙｻﾄ","pref":"三重県","city":"伊賀市","address":"生琉里"},
{"zip_code":"5181142","kana_pref":"ﾐｴｹﾝ","kana_city":"ｲｶﾞｼ","kana_address":"ﾌﾙﾔﾏｶｲｹﾞ","pref":"三重県","city":"伊賀市","address":"古山界外"},
{"zip_code":"5180221","kana_pref":"ﾐｴｹﾝ","kana_city":"ｲｶﾞｼ","kana_address":"ﾍﾞﾌ","pref":"三重県","city":"伊賀市","address":"別府"},
{"zip_code":"5181405","kana_pref":"ﾐｴｹﾝ","kana_city":"ｲｶﾞｼ","kana_address":"ﾎﾞｳｼﾞ","pref":"三重県","city":"伊賀市","address":"鳳凰寺"},
{"zip_code":"5180811","kana_pref":"ﾐｴｹﾝ","kana_city":"ｲｶﾞｼ","kana_address":"ﾎｳｼﾞﾛ","pref":"三重県","city":"伊賀市","address":"喰代"},
{"zip_code":"5180036","kana_pref":"ﾐｴｹﾝ","kana_city":"ｲｶﾞｼ","kana_address":"ﾎｯｹ","pref":"三重県","city":"伊賀市","address":"法花"},
{"zip_code":"5181326","kana_pref":"ﾐｴｹﾝ","kana_city":"ｲｶﾞｼ","kana_address":"ﾏｷﾔﾏ","pref":"三重県","city":"伊賀市","address":"槇山"},
{"zip_code":"5181414","kana_pref":"ﾐｴｹﾝ","kana_city":"ｲｶﾞｼ","kana_address":"ﾏｼﾉ","pref":"三重県","city":"伊賀市","address":"猿野"},
{"zip_code":"5181325","kana_pref":"ﾐｴｹﾝ","kana_city":"ｲｶﾞｼ","kana_address":"ﾏﾙﾊﾞｼﾗ","pref":"三重県","city":"伊賀市","address":"丸柱"},
{"zip_code":"5180022","kana_pref":"ﾐｴｹﾝ","kana_city":"ｲｶﾞｼ","kana_address":"ﾐﾀ","pref":"三重県","city":"伊賀市","address":"三田"},
{"zip_code":"5180834","kana_pref":"ﾐｴｹﾝ","kana_city":"ｲｶﾞｼ","kana_address":"ﾐﾄﾞﾘｶﾞｵｶﾅｶﾏﾁ","pref":"三重県","city":"伊賀市","address":"緑ケ丘中町"},
{"zip_code":"5180837","kana_pref":"ﾐｴｹﾝ","kana_city":"ｲｶﾞｼ","kana_address":"ﾐﾄﾞﾘｶﾞｵｶﾆｼﾏﾁ","pref":"三重県","city":"伊賀市","address":"緑ケ丘西町"},
{"zip_code":"5180833","kana_pref":"ﾐｴｹﾝ","kana_city":"ｲｶﾞｼ","kana_address":"ﾐﾄﾞﾘｶﾞｵｶﾋｶﾞｼﾏﾁ","pref":"三重県","city":"伊賀市","address":"緑ケ丘東町"},
{"zip_code":"5180836","kana_pref":"ﾐｴｹﾝ","kana_city":"ｲｶﾞｼ","kana_address":"ﾐﾄﾞﾘｶﾞｵｶﾎﾝﾏﾁ","pref":"三重県","city":"伊賀市","address":"緑ケ丘本町"},
{"zip_code":"5180835","kana_pref":"ﾐｴｹﾝ","kana_city":"ｲｶﾞｼ","kana_address":"ﾐﾄﾞﾘｶﾞｵｶﾐﾅﾐﾏﾁ","pref":"三重県","city":"伊賀市","address":"緑ケ丘南町"},
{"zip_code":"5181421","kana_pref":"ﾐｴｹﾝ","kana_city":"ｲｶﾞｼ","kana_address":"ﾐﾄﾞﾛ","pref":"三重県","city":"伊賀市","address":"真泥"},
{"zip_code":"5180202","kana_pref":"ﾐｴｹﾝ","kana_city":"ｲｶﾞｼ","kana_address":"ﾐｮｳﾗｸｼﾞ","pref":"三重県","city":"伊賀市","address":"妙楽地"},
{"zip_code":"5180824","kana_pref":"ﾐｴｹﾝ","kana_city":"ｲｶﾞｼ","kana_address":"ﾓﾘﾀﾁｮｳ","pref":"三重県","city":"伊賀市","address":"守田町"},
{"zip_code":"5180126","kana_pref":"ﾐｴｹﾝ","kana_city":"ｲｶﾞｼ","kana_address":"ﾓﾘﾃﾞﾗ","pref":"三重県","city":"伊賀市","address":"森寺"},
{"zip_code":"5180213","kana_pref":"ﾐｴｹﾝ","kana_city":"ｲｶﾞｼ","kana_address":"ﾓﾛｷ","pref":"三重県","city":"伊賀市","address":"諸木"},
{"zip_code":"5180016","kana_pref":"ﾐｴｹﾝ","kana_city":"ｲｶﾞｼ","kana_address":"ﾔｶﾞﾐ","pref":"三重県","city":"伊賀市","address":"山神"},
{"zip_code":"5181145","kana_pref":"ﾐｴｹﾝ","kana_city":"ｲｶﾞｼ","kana_address":"ﾔｽﾊﾞ","pref":"三重県","city":"伊賀市","address":"安場"},
{"zip_code":"5180844","kana_pref":"ﾐｴｹﾝ","kana_city":"ｲｶﾞｼ","kana_address":"ﾔﾊﾀﾁｮｳ","pref":"三重県","city":"伊賀市","address":"八幡町"},
{"zip_code":"5180127","kana_pref":"ﾐｴｹﾝ","kana_city":"ｲｶﾞｼ","kana_address":"ﾔﾏﾃﾞ","pref":"三重県","city":"伊賀市","address":"山出"},
{"zip_code":"5181306","kana_pref":"ﾐｴｹﾝ","kana_city":"ｲｶﾞｼ","kana_address":"ﾕﾌﾞﾈ","pref":"三重県","city":"伊賀市","address":"湯舟"},
{"zip_code":"5180131","kana_pref":"ﾐｴｹﾝ","kana_city":"ｲｶﾞｼ","kana_address":"ﾕﾒｶﾞｵｶ","pref":"三重県","city":"伊賀市","address":"ゆめが丘"},
{"zip_code":"5181146","kana_pref":"ﾐｴｹﾝ","kana_city":"ｲｶﾞｼ","kana_address":"ﾕﾔﾀﾞﾆ","pref":"三重県","city":"伊賀市","address":"湯屋谷"},
{"zip_code":"5180840","kana_pref":"ﾐｴｹﾝ","kana_city":"ｲｶﾞｼ","kana_address":"ﾖｳｺｳﾀﾞｲ","pref":"三重県","city":"伊賀市","address":"陽光台"},
{"zip_code":"5181152","kana_pref":"ﾐｴｹﾝ","kana_city":"ｲｶﾞｼ","kana_address":"ﾖﾉ","pref":"三重県","city":"伊賀市","address":"予野"}]}