{"zip_code":[
{"zip_code":"5200000","kana_pref":"ｼｶﾞｹﾝ","kana_city":"ｵｵﾂｼ","kana_address":"","pref":"滋賀県","city":"大津市","address":""},
{"zip_code":"5202101","kana_pref":"ｼｶﾞｹﾝ","kana_city":"ｵｵﾂｼ","kana_address":"ｱｵﾔﾏ","pref":"滋賀県","city":"大津市","address":"青山"},
{"zip_code":"5200864","kana_pref":"ｼｶﾞｹﾝ","kana_city":"ｵｵﾂｼ","kana_address":"ｱｶｵﾁｮｳ","pref":"滋賀県","city":"大津市","address":"赤尾町"},
{"zip_code":"5200003","kana_pref":"ｼｶﾞｹﾝ","kana_city":"ｵｵﾂｼ","kana_address":"ｱｶﾈﾁｮｳ","pref":"滋賀県","city":"大津市","address":"あかね町"},
{"zip_code":"5200822","kana_pref":"ｼｶﾞｹﾝ","kana_city":"ｵｵﾂｼ","kana_address":"ｱｷﾊﾞﾀﾞｲ","pref":"滋賀県","city":"大津市","address":"秋葉台"},
{"zip_code":"5200533","kana_pref":"ｼｶﾞｹﾝ","kana_city":"ｵｵﾂｼ","kana_address":"ｱｻﾋ","pref":"滋賀県","city":"大津市","address":"朝日"},
{"zip_code":"5200052","kana_pref":"ｼｶﾞｹﾝ","kana_city":"ｵｵﾂｼ","kana_address":"ｱｻﾋｶﾞｵｶ","pref":"滋賀県","city":"大津市","address":"朝日が丘"},
{"zip_code":"5200114","kana_pref":"ｼｶﾞｹﾝ","kana_city":"ｵｵﾂｼ","kana_address":"ｱﾉｳ","pref":"滋賀県","city":"大津市","address":"穴太"},
{"zip_code":"5200513","kana_pref":"ｼｶﾞｹﾝ","kana_city":"ｵｵﾂｼ","kana_address":"ｱﾗｶﾜ","pref":"滋賀県","city":"大津市","address":"荒川"},
{"zip_code":"5200832","kana_pref":"ｼｶﾞｹﾝ","kana_city":"ｵｵﾂｼ","kana_address":"ｱﾜﾂﾞﾁｮｳ","pref":"滋賀県","city":"大津市","address":"粟津町"},
{"zip_code":"5200356","kana_pref":"ｼｶﾞｹﾝ","kana_city":"ｵｵﾂｼ","kana_address":"ｲｶﾀﾞﾁｶﾐｻﾞｲｼﾞﾁｮｳ","pref":"滋賀県","city":"大津市","address":"伊香立上在地町"},
{"zip_code":"5200352","kana_pref":"ｼｶﾞｹﾝ","kana_city":"ｵｵﾂｼ","kana_address":"ｲｶﾀﾞﾁｼﾓｻﾞｲｼﾞﾁｮｳ","pref":"滋賀県","city":"大津市","address":"伊香立下在地町"},
{"zip_code":"5200362","kana_pref":"ｼｶﾞｹﾝ","kana_city":"ｵｵﾂｼ","kana_address":"ｲｶﾀﾞﾁｶﾐﾘｭｳｹﾞﾁｮｳ","pref":"滋賀県","city":"大津市","address":"伊香立上龍華町"},
{"zip_code":"5200363","kana_pref":"ｼｶﾞｹﾝ","kana_city":"ｵｵﾂｼ","kana_address":"ｲｶﾀﾞﾁｼﾓﾘｭｳｹﾞﾁｮｳ","pref":"滋賀県","city":"大津市","address":"伊香立下龍華町"},
{"zip_code":"5200351","kana_pref":"ｼｶﾞｹﾝ","kana_city":"ｵｵﾂｼ","kana_address":"ｲｶﾀﾞﾁｷﾀｻﾞｲｼﾞﾁｮｳ","pref":"滋賀県","city":"大津市","address":"伊香立北在地町"},
{"zip_code":"5200361","kana_pref":"ｼｶﾞｹﾝ","kana_city":"ｵｵﾂｼ","kana_address":"ｲｶﾀﾞﾁﾄﾁｭｳﾁｮｳ","pref":"滋賀県","city":"大津市","address":"伊香立途中町"},
{"zip_code":"5200355","kana_pref":"ｼｶﾞｹﾝ","kana_city":"ｵｵﾂｼ","kana_address":"ｲｶﾀﾞﾁﾅﾏﾂﾞﾁｮｳ","pref":"滋賀県","city":"大津市","address":"伊香立生津町"},
{"zip_code":"5200354","kana_pref":"ｼｶﾞｹﾝ","kana_city":"ｵｵﾂｼ","kana_address":"ｲｶﾀﾞﾁﾐﾅﾐｼｮｳﾁｮｳ","pref":"滋賀県","city":"大津市","address":"伊香立南庄町"},
{"zip_code":"5200353","kana_pref":"ｼｶﾞｹﾝ","kana_city":"ｵｵﾂｼ","kana_address":"ｲｶﾀﾞﾁﾑｶｲｻﾞｲｼﾞﾁｮｳ","pref":"滋賀県","city":"大津市","address":"伊香立向在地町"},
{"zip_code":"5200827","kana_pref":"ｼｶﾞｹﾝ","kana_city":"ｵｵﾂｼ","kana_address":"ｲｹﾉｻﾄ","pref":"滋賀県","city":"大津市","address":"池の里"},
{"zip_code":"5202272","kana_pref":"ｼｶﾞｹﾝ","kana_city":"ｵｵﾂｼ","kana_address":"ｲｼｽﾞｴ","pref":"滋賀県","city":"大津市","address":"石居"},
{"zip_code":"5200805","kana_pref":"ｼｶﾞｹﾝ","kana_city":"ｵｵﾂｼ","kana_address":"ｲｼﾊﾞ","pref":"滋賀県","city":"大津市","address":"石場"},
{"zip_code":"5200869","kana_pref":"ｼｶﾞｹﾝ","kana_city":"ｵｵﾂｼ","kana_address":"ｲｼﾔﾏｳﾁﾊﾀﾁｮｳ","pref":"滋賀県","city":"大津市","address":"石山内畑町"},
{"zip_code":"5200860","kana_pref":"ｼｶﾞｹﾝ","kana_city":"ｵｵﾂｼ","kana_address":"ｲｼﾔﾏｾﾝﾁｮｳ","pref":"滋賀県","city":"大津市","address":"石山千町"},
{"zip_code":"5200868","kana_pref":"ｼｶﾞｹﾝ","kana_city":"ｵｵﾂｼ","kana_address":"ｲｼﾔﾏｿﾄﾊﾀﾁｮｳ","pref":"滋賀県","city":"大津市","address":"石山外畑町"},
{"zip_code":"5200861","kana_pref":"ｼｶﾞｹﾝ","kana_city":"ｵｵﾂｼ","kana_address":"ｲｼﾔﾏﾃﾞﾗ","pref":"滋賀県","city":"大津市","address":"石山寺"},
{"zip_code":"5200866","kana_pref":"ｼｶﾞｹﾝ","kana_city":"ｵｵﾂｼ","kana_address":"ｲｼﾔﾏﾃﾗﾍﾞﾁｮｳ","pref":"滋賀県","city":"大津市","address":"石山寺辺町"},
{"zip_code":"5202153","kana_pref":"ｼｶﾞｹﾝ","kana_city":"ｵｵﾂｼ","kana_address":"ｲﾁﾘﾔﾏ","pref":"滋賀県","city":"大津市","address":"一里山"},
{"zip_code":"5202271","kana_pref":"ｼｶﾞｹﾝ","kana_city":"ｵｵﾂｼ","kana_address":"ｲﾅﾂﾞ","pref":"滋賀県","city":"大津市","address":"稲津"},
{"zip_code":"5200065","kana_pref":"ｼｶﾞｹﾝ","kana_city":"ｵｵﾂｼ","kana_address":"ｲﾅﾊﾞﾀﾞｲ","pref":"滋賀県","city":"大津市","address":"稲葉台"},
{"zip_code":"5200241","kana_pref":"ｼｶﾞｹﾝ","kana_city":"ｵｵﾂｼ","kana_address":"ｲﾏｶﾀﾀ","pref":"滋賀県","city":"大津市","address":"今堅田"},
{"zip_code":"5200806","kana_pref":"ｼｶﾞｹﾝ","kana_city":"ｵｵﾂｼ","kana_address":"ｳﾁﾃﾞﾊﾏ","pref":"滋賀県","city":"大津市","address":"打出浜"},
{"zip_code":"5200051","kana_pref":"ｼｶﾞｹﾝ","kana_city":"ｵｵﾂｼ","kana_address":"ｳﾒﾊﾞﾔｼ","pref":"滋賀県","city":"大津市","address":"梅林"},
{"zip_code":"5202275","kana_pref":"ｼｶﾞｹﾝ","kana_city":"ｵｵﾂｼ","kana_address":"ｴﾀﾞ","pref":"滋賀県","city":"大津市","address":"枝"},
{"zip_code":"5200064","kana_pref":"ｼｶﾞｹﾝ","kana_city":"ｵｵﾂｼ","kana_address":"ｵｲﾜｹﾁｮｳ","pref":"滋賀県","city":"大津市","address":"追分町"},
{"zip_code":"5200054","kana_pref":"ｼｶﾞｹﾝ","kana_city":"ｵｵﾂｼ","kana_address":"ｵｳｻｶ","pref":"滋賀県","city":"大津市","address":"逢坂"},
{"zip_code":"5200025","kana_pref":"ｼｶﾞｹﾝ","kana_city":"ｵｵﾂｼ","kana_address":"ｵｳｼﾞｶﾞｵｶ","pref":"滋賀県","city":"大津市","address":"皇子が丘"},
{"zip_code":"5202267","kana_pref":"ｼｶﾞｹﾝ","kana_city":"ｵｵﾂｼ","kana_address":"ｵｵｲｼｵﾀﾞﾜﾗ","pref":"滋賀県","city":"大津市","address":"大石小田原"},
{"zip_code":"5202267","kana_pref":"ｼｶﾞｹﾝ","kana_city":"ｵｵﾂｼ","kana_address":"ｵｵｲｼｵﾀﾞﾜﾗﾁｮｳ","pref":"滋賀県","city":"大津市","address":"大石小田原町"},
{"zip_code":"5202261","kana_pref":"ｼｶﾞｹﾝ","kana_city":"ｵｵﾂｼ","kana_address":"ｵｵｲｼｿﾂｶ","pref":"滋賀県","city":"大津市","address":"大石曾束"},
{"zip_code":"5202261","kana_pref":"ｼｶﾞｹﾝ","kana_city":"ｵｵﾂｼ","kana_address":"ｵｵｲｼｿﾂｶﾁｮｳ","pref":"滋賀県","city":"大津市","address":"大石曾束町"},
{"zip_code":"5202265","kana_pref":"ｼｶﾞｹﾝ","kana_city":"ｵｵﾂｼ","kana_address":"ｵｵｲｼﾄﾐｶﾜ","pref":"滋賀県","city":"大津市","address":"大石富川"},
{"zip_code":"5202265","kana_pref":"ｼｶﾞｹﾝ","kana_city":"ｵｵﾂｼ","kana_address":"ｵｵｲｼﾄﾐｶﾜﾁｮｳ","pref":"滋賀県","city":"大津市","address":"大石富川町"},
{"zip_code":"5202263","kana_pref":"ｼｶﾞｹﾝ","kana_city":"ｵｵﾂｼ","kana_address":"ｵｵｲｼﾅｶ","pref":"滋賀県","city":"大津市","address":"大石中"},
{"zip_code":"5202264","kana_pref":"ｼｶﾞｹﾝ","kana_city":"ｵｵﾂｼ","kana_address":"ｵｵｲｼﾋｶﾞｼ","pref":"滋賀県","city":"大津市","address":"大石東"},
{"zip_code":"5202262","kana_pref":"ｼｶﾞｹﾝ","kana_city":"ｵｵﾂｼ","kana_address":"ｵｵｲｼﾖﾄﾞ","pref":"滋賀県","city":"大津市","address":"大石淀"},
{"zip_code":"5202262","kana_pref":"ｼｶﾞｹﾝ","kana_city":"ｵｵﾂｼ","kana_address":"ｵｵｲｼﾖﾄﾞﾁｮｳ","pref":"滋賀県","city":"大津市","address":"大石淀町"},
{"zip_code":"5202266","kana_pref":"ｼｶﾞｹﾝ","kana_city":"ｵｵﾂｼ","kana_address":"ｵｵｲｼﾘｭｳﾓﾝ","pref":"滋賀県","city":"大津市","address":"大石龍門"},
{"zip_code":"5202141","kana_pref":"ｼｶﾞｹﾝ","kana_city":"ｵｵﾂｼ","kana_address":"ｵｵｴ","pref":"滋賀県","city":"大津市","address":"大江"},
{"zip_code":"5202144","kana_pref":"ｼｶﾞｹﾝ","kana_city":"ｵｵﾂｼ","kana_address":"ｵｵｶﾞﾔ","pref":"滋賀県","city":"大津市","address":"大萱"},
{"zip_code":"5200247","kana_pref":"ｼｶﾞｹﾝ","kana_city":"ｵｵﾂｼ","kana_address":"ｵｵｷﾞ","pref":"滋賀県","city":"大津市","address":"仰木"},
{"zip_code":"5200245","kana_pref":"ｼｶﾞｹﾝ","kana_city":"ｵｵﾂｼ","kana_address":"ｵｵｷﾞﾁｮｳ","pref":"滋賀県","city":"大津市","address":"仰木町"},
{"zip_code":"5200246","kana_pref":"ｼｶﾞｹﾝ","kana_city":"ｵｵﾂｼ","kana_address":"ｵｵｷﾞﾉｻﾄ","pref":"滋賀県","city":"大津市","address":"仰木の里"},
{"zip_code":"5200248","kana_pref":"ｼｶﾞｹﾝ","kana_city":"ｵｵﾂｼ","kana_address":"ｵｵｷﾞﾉｻﾄﾋｶﾞｼ","pref":"滋賀県","city":"大津市","address":"仰木の里東"},
{"zip_code":"5200062","kana_pref":"ｼｶﾞｹﾝ","kana_city":"ｵｵﾂｼ","kana_address":"ｵｵﾀﾆﾁｮｳ","pref":"滋賀県","city":"大津市","address":"大谷町"},
{"zip_code":"5202118","kana_pref":"ｼｶﾞｹﾝ","kana_city":"ｵｵﾂｼ","kana_address":"ｵｵﾄﾞﾘｲ","pref":"滋賀県","city":"大津市","address":"大鳥居"},
{"zip_code":"5200867","kana_pref":"ｼｶﾞｹﾝ","kana_city":"ｵｵﾂｼ","kana_address":"ｵｵﾋﾗ","pref":"滋賀県","city":"大津市","address":"大平"},
{"zip_code":"5200101","kana_pref":"ｼｶﾞｹﾝ","kana_city":"ｵｵﾂｼ","kana_address":"ｵｺﾞﾄ","pref":"滋賀県","city":"大津市","address":"雄琴"},
{"zip_code":"5200107","kana_pref":"ｼｶﾞｹﾝ","kana_city":"ｵｵﾂｼ","kana_address":"ｵｺﾞﾄｷﾀ","pref":"滋賀県","city":"大津市","address":"雄琴北"},
{"zip_code":"5200053","kana_pref":"ｼｶﾞｹﾝ","kana_city":"ｵｵﾂｼ","kana_address":"ｵﾄﾜﾀﾞｲ","pref":"滋賀県","city":"大津市","address":"音羽台"},
{"zip_code":"5200525","kana_pref":"ｼｶﾞｹﾝ","kana_city":"ｵｵﾂｼ","kana_address":"ｵﾉ","pref":"滋賀県","city":"大津市","address":"小野"},
{"zip_code":"5200031","kana_pref":"ｼｶﾞｹﾝ","kana_city":"ｵｵﾂｼ","kana_address":"ｵﾊﾞﾅｶﾞﾜ","pref":"滋賀県","city":"大津市","address":"尾花川"},
{"zip_code":"5200036","kana_pref":"ｼｶﾞｹﾝ","kana_city":"ｵｵﾂｼ","kana_address":"ｵﾝｼﾞｮｳｼﾞﾁｮｳ","pref":"滋賀県","city":"大津市","address":"園城寺町"},
{"zip_code":"5200012","kana_pref":"ｼｶﾞｹﾝ","kana_city":"ｵｵﾂｼ","kana_address":"ｶｶﾞﾐｶﾞﾊﾏ","pref":"滋賀県","city":"大津市","address":"鏡が浜"},
{"zip_code":"5200055","kana_pref":"ｼｶﾞｹﾝ","kana_city":"ｵｵﾂｼ","kana_address":"ｶｽｶﾞﾁｮｳ","pref":"滋賀県","city":"大津市","address":"春日町"},
{"zip_code":"5200243","kana_pref":"ｼｶﾞｹﾝ","kana_city":"ｵｵﾂｼ","kana_address":"ｶﾀﾀ","pref":"滋賀県","city":"大津市","address":"堅田"},
{"zip_code":"5200473","kana_pref":"ｼｶﾞｹﾝ","kana_city":"ｵｵﾂｼ","kana_address":"ｶﾂﾗｶﾞﾜｳﾒﾉｷﾁｮｳ","pref":"滋賀県","city":"大津市","address":"葛川梅ノ木町"},
{"zip_code":"5200477","kana_pref":"ｼｶﾞｹﾝ","kana_city":"ｵｵﾂｼ","kana_address":"ｶﾂﾗｶﾞﾜｷﾄﾞｸﾞﾁﾁｮｳ","pref":"滋賀県","city":"大津市","address":"葛川木戸口町"},
{"zip_code":"5200478","kana_pref":"ｼｶﾞｹﾝ","kana_city":"ｵｵﾂｼ","kana_address":"ｶﾂﾗｶﾞﾜｻｶｼﾀﾁｮｳ","pref":"滋賀県","city":"大津市","address":"葛川坂下町"},
{"zip_code":"5200476","kana_pref":"ｼｶﾞｹﾝ","kana_city":"ｵｵﾂｼ","kana_address":"ｶﾂﾗｶﾞﾜﾅｶﾑﾗﾁｮｳ","pref":"滋賀県","city":"大津市","address":"葛川中村町"},
{"zip_code":"5200472","kana_pref":"ｼｶﾞｹﾝ","kana_city":"ｵｵﾂｼ","kana_address":"ｶﾂﾗｶﾞﾜﾇｸｲﾁｮｳ","pref":"滋賀県","city":"大津市","address":"葛川貫井町"},
{"zip_code":"5200471","kana_pref":"ｼｶﾞｹﾝ","kana_city":"ｵｵﾂｼ","kana_address":"ｶﾂﾗｶﾞﾜﾎｿｶﾜﾁｮｳ","pref":"滋賀県","city":"大津市","address":"葛川細川町"},
{"zip_code":"5200475","kana_pref":"ｼｶﾞｹﾝ","kana_city":"ｵｵﾂｼ","kana_address":"ｶﾂﾗｶﾞﾜﾎﾞｳﾑﾗﾁｮｳ","pref":"滋賀県","city":"大津市","address":"葛川坊村町"},
{"zip_code":"5200474","kana_pref":"ｼｶﾞｹﾝ","kana_city":"ｵｵﾂｼ","kana_address":"ｶﾂﾗｶﾞﾜﾏﾁｲﾁｮｳ","pref":"滋賀県","city":"大津市","address":"葛川町居町"},
{"zip_code":"5202161","kana_pref":"ｼｶﾞｹﾝ","kana_city":"ｵｵﾂｼ","kana_address":"ｶﾐﾀﾅｶﾐｷﾘｭｳﾁｮｳ","pref":"滋賀県","city":"大津市","address":"上田上桐生町"},
{"zip_code":"5202167","kana_pref":"ｼｶﾞｹﾝ","kana_city":"ｵｵﾂｼ","kana_address":"ｶﾐﾀﾅｶﾐｼﾊﾞﾊﾗﾁｮｳ","pref":"滋賀県","city":"大津市","address":"上田上芝原町"},
{"zip_code":"5202165","kana_pref":"ｼｶﾞｹﾝ","kana_city":"ｵｵﾂｼ","kana_address":"ｶﾐﾀﾅｶﾐｼﾝﾒﾁｮｳ","pref":"滋賀県","city":"大津市","address":"上田上新免町"},
{"zip_code":"5202166","kana_pref":"ｼｶﾞｹﾝ","kana_city":"ｵｵﾂｼ","kana_address":"ｶﾐﾀﾅｶﾐﾄﾞｳﾁｮｳ","pref":"滋賀県","city":"大津市","address":"上田上堂町"},
{"zip_code":"5202164","kana_pref":"ｼｶﾞｹﾝ","kana_city":"ｵｵﾂｼ","kana_address":"ｶﾐﾀﾅｶﾐﾅｶﾉﾁｮｳ","pref":"滋賀県","city":"大津市","address":"上田上中野町"},
{"zip_code":"5202163","kana_pref":"ｼｶﾞｹﾝ","kana_city":"ｵｵﾂｼ","kana_address":"ｶﾐﾀﾅｶﾐﾋﾗﾉﾁｮｳ","pref":"滋賀県","city":"大津市","address":"上田上平野町"},
{"zip_code":"5202162","kana_pref":"ｼｶﾞｹﾝ","kana_city":"ｵｵﾂｼ","kana_address":"ｶﾐﾀﾅｶﾐﾏｷﾁｮｳ","pref":"滋賀県","city":"大津市","address":"上田上牧町"},
{"zip_code":"5200061","kana_pref":"ｼｶﾞｹﾝ","kana_city":"ｵｵﾂｼ","kana_address":"ｶﾐﾃﾞﾋﾗｷﾏﾁ","pref":"滋賀県","city":"大津市","address":"神出開町"},
{"zip_code":"5202143","kana_pref":"ｼｶﾞｹﾝ","kana_city":"ｵｵﾂｼ","kana_address":"ｶﾔﾉｳﾗ","pref":"滋賀県","city":"大津市","address":"萱野浦"},
{"zip_code":"5200106","kana_pref":"ｼｶﾞｹﾝ","kana_city":"ｵｵﾂｼ","kana_address":"ｶﾗｻｷ","pref":"滋賀県","city":"大津市","address":"唐崎"},
{"zip_code":"5200851","kana_pref":"ｼｶﾞｹﾝ","kana_city":"ｵｵﾂｼ","kana_address":"ｶﾗﾊｼﾁｮｳ","pref":"滋賀県","city":"大津市","address":"唐橋町"},
{"zip_code":"5200013","kana_pref":"ｼｶﾞｹﾝ","kana_city":"ｵｵﾂｼ","kana_address":"ｶﾝｶﾞｸ","pref":"滋賀県","city":"大津市","address":"勧学"},
{"zip_code":"5200032","kana_pref":"ｼｶﾞｹﾝ","kana_city":"ｵｵﾂｼ","kana_address":"ｶﾝﾉﾝｼﾞ","pref":"滋賀県","city":"大津市","address":"観音寺"},
{"zip_code":"5200843","kana_pref":"ｼｶﾞｹﾝ","kana_city":"ｵｵﾂｼ","kana_address":"ｷﾀｵｵｼﾞ","pref":"滋賀県","city":"大津市","address":"北大路"},
{"zip_code":"5200501","kana_pref":"ｼｶﾞｹﾝ","kana_city":"ｵｵﾂｼ","kana_address":"ｷﾀｺﾏﾂ","pref":"滋賀県","city":"大津市","address":"北小松"},
{"zip_code":"5200503","kana_pref":"ｼｶﾞｹﾝ","kana_city":"ｵｵﾂｼ","kana_address":"ｷﾀﾋﾗ","pref":"滋賀県","city":"大津市","address":"北比良"},
{"zip_code":"5200514","kana_pref":"ｼｶﾞｹﾝ","kana_city":"ｵｵﾂｼ","kana_address":"ｷﾄﾞ","pref":"滋賀県","city":"大津市","address":"木戸"},
{"zip_code":"5200244","kana_pref":"ｼｶﾞｹﾝ","kana_city":"ｵｵﾂｼ","kana_address":"ｷﾇｶﾞﾜ","pref":"滋賀県","city":"大津市","address":"衣川"},
{"zip_code":"5200812","kana_pref":"ｼｶﾞｹﾝ","kana_city":"ｵｵﾂｼ","kana_address":"ｷﾉｼﾀﾁｮｳ","pref":"滋賀県","city":"大津市","address":"木下町"},
{"zip_code":"5200044","kana_pref":"ｼｶﾞｹﾝ","kana_city":"ｵｵﾂｼ","kana_address":"ｷｮｳﾏﾁ","pref":"滋賀県","city":"大津市","address":"京町"},
{"zip_code":"5202111","kana_pref":"ｼｶﾞｹﾝ","kana_city":"ｵｵﾂｼ","kana_address":"ｷﾘｭｳ","pref":"滋賀県","city":"大津市","address":"桐生"},
{"zip_code":"5202151","kana_pref":"ｼｶﾞｹﾝ","kana_city":"ｵｵﾂｼ","kana_address":"ｸﾘﾊﾞﾔｼﾁｮｳ","pref":"滋賀県","city":"大津市","address":"栗林町"},
{"zip_code":"5200527","kana_pref":"ｼｶﾞｹﾝ","kana_city":"ｵｵﾂｼ","kana_address":"ｸﾘﾊﾗ","pref":"滋賀県","city":"大津市","address":"栗原"},
{"zip_code":"5202279","kana_pref":"ｼｶﾞｹﾝ","kana_city":"ｵｵﾂｼ","kana_address":"ｸﾛﾂﾞ","pref":"滋賀県","city":"大津市","address":"黒津"},
{"zip_code":"5200224","kana_pref":"ｼｶﾞｹﾝ","kana_city":"ｵｵﾂｼ","kana_address":"ｺｳﾖｳﾁｮｳ","pref":"滋賀県","city":"大津市","address":"向陽町"},
{"zip_code":"5200844","kana_pref":"ｼｶﾞｹﾝ","kana_city":"ｵｵﾂｼ","kana_address":"ｺｸﾌﾞ","pref":"滋賀県","city":"大津市","address":"国分"},
{"zip_code":"5200821","kana_pref":"ｼｶﾞｹﾝ","kana_city":"ｵｵﾂｼ","kana_address":"ｺｼﾞｮｳｶﾞｵｶ","pref":"滋賀県","city":"大津市","address":"湖城が丘"},
{"zip_code":"5200532","kana_pref":"ｼｶﾞｹﾝ","kana_city":"ｵｵﾂｼ","kana_address":"ｺｾｲ","pref":"滋賀県","city":"大津市","address":"湖青"},
{"zip_code":"5200035","kana_pref":"ｼｶﾞｹﾝ","kana_city":"ｵｵﾂｼ","kana_address":"ｺｾﾞｷﾁｮｳ","pref":"滋賀県","city":"大津市","address":"小関町"},
{"zip_code":"5200834","kana_pref":"ｼｶﾞｹﾝ","kana_city":"ｵｵﾂｼ","kana_address":"ｺﾞﾃﾝﾊﾏ","pref":"滋賀県","city":"大津市","address":"御殿浜"},
{"zip_code":"5200103","kana_pref":"ｼｶﾞｹﾝ","kana_city":"ｵｵﾂｼ","kana_address":"ｺﾉｵｶﾁｮｳ","pref":"滋賀県","city":"大津市","address":"木の岡町"},
{"zip_code":"5200037","kana_pref":"ｼｶﾞｹﾝ","kana_city":"ｵｵﾂｼ","kana_address":"ｺﾞﾘｮｳﾁｮｳ","pref":"滋賀県","city":"大津市","address":"御陵町"},
{"zip_code":"5200002","kana_pref":"ｼｶﾞｹﾝ","kana_city":"ｵｵﾂｼ","kana_address":"ｻｲｶﾞﾜ","pref":"滋賀県","city":"大津市","address":"際川"},
{"zip_code":"5200855","kana_pref":"ｼｶﾞｹﾝ","kana_city":"ｵｵﾂｼ","kana_address":"ｻｶｴﾏﾁ","pref":"滋賀県","city":"大津市","address":"栄町"},
{"zip_code":"5200113","kana_pref":"ｼｶﾞｹﾝ","kana_city":"ｵｵﾂｼ","kana_address":"ｻｶﾓﾄ","pref":"滋賀県","city":"大津市","address":"坂本"},
{"zip_code":"5200116","kana_pref":"ｼｶﾞｹﾝ","kana_city":"ｵｵﾂｼ","kana_address":"ｻｶﾓﾄﾎﾝﾏﾁ","pref":"滋賀県","city":"大津市","address":"坂本本町"},
{"zip_code":"5200816","kana_pref":"ｼｶﾞｹﾝ","kana_city":"ｵｵﾂｼ","kana_address":"ｻｶﾞﾐﾁｮｳ","pref":"滋賀県","city":"大津市","address":"相模町"},
{"zip_code":"5200026","kana_pref":"ｼｶﾞｹﾝ","kana_city":"ｵｵﾂｼ","kana_address":"ｻｸﾗﾉﾁｮｳ","pref":"滋賀県","city":"大津市","address":"桜野町"},
{"zip_code":"5202276","kana_pref":"ｼｶﾞｹﾝ","kana_city":"ｵｵﾂｼ","kana_address":"ｻﾄ","pref":"滋賀県","city":"大津市","address":"里"},
{"zip_code":"5202131","kana_pref":"ｼｶﾞｹﾝ","kana_city":"ｵｵﾂｼ","kana_address":"ｻﾝﾀﾞｲｼﾞ","pref":"滋賀県","city":"大津市","address":"三大寺"},
{"zip_code":"5200006","kana_pref":"ｼｶﾞｹﾝ","kana_city":"ｵｵﾂｼ","kana_address":"ｼｶﾞｻﾄ","pref":"滋賀県","city":"大津市","address":"滋賀里"},
{"zip_code":"5202117","kana_pref":"ｼｶﾞｹﾝ","kana_city":"ｵｵﾂｼ","kana_address":"ｼﾊﾞﾊﾗ","pref":"滋賀県","city":"大津市","address":"芝原"},
{"zip_code":"5200042","kana_pref":"ｼｶﾞｹﾝ","kana_city":"ｵｵﾂｼ","kana_address":"ｼﾏﾉｾｷ","pref":"滋賀県","city":"大津市","address":"島の関"},
{"zip_code":"5200105","kana_pref":"ｼｶﾞｹﾝ","kana_city":"ｵｵﾂｼ","kana_address":"ｼﾓｻｶﾓﾄ","pref":"滋賀県","city":"大津市","address":"下阪本"},
{"zip_code":"5202135","kana_pref":"ｼｶﾞｹﾝ","kana_city":"ｵｵﾂｼ","kana_address":"ｼｮｳﾖｳ","pref":"滋賀県","city":"大津市","address":"松陽"},
{"zip_code":"5200817","kana_pref":"ｼｶﾞｹﾝ","kana_city":"ｵｵﾂｼ","kana_address":"ｼｮｳﾜﾁｮｳ","pref":"滋賀県","city":"大津市","address":"昭和町"},
{"zip_code":"5200015","kana_pref":"ｼｶﾞｹﾝ","kana_city":"ｵｵﾂｼ","kana_address":"ｼﾞﾝｸﾞｳﾁｮｳ","pref":"滋賀県","city":"大津市","address":"神宮町"},
{"zip_code":"5202115","kana_pref":"ｼｶﾞｹﾝ","kana_city":"ｵｵﾂｼ","kana_address":"ｼﾝﾒﾝ","pref":"滋賀県","city":"大津市","address":"新免"},
{"zip_code":"5202132","kana_pref":"ｼｶﾞｹﾝ","kana_city":"ｵｵﾂｼ","kana_address":"ｼﾞﾝﾘｮｳ","pref":"滋賀県","city":"大津市","address":"神領"},
{"zip_code":"5200531","kana_pref":"ｼｶﾞｹﾝ","kana_city":"ｵｵﾂｼ","kana_address":"ｽｲﾒｲ","pref":"滋賀県","city":"大津市","address":"水明"},
{"zip_code":"5200056","kana_pref":"ｼｶﾞｹﾝ","kana_city":"ｵｵﾂｼ","kana_address":"ｽｴﾋﾛﾁｮｳ","pref":"滋賀県","city":"大津市","address":"末広町"},
{"zip_code":"5200836","kana_pref":"ｼｶﾞｹﾝ","kana_city":"ｵｵﾂｼ","kana_address":"ｽｷﾞｳﾗﾁｮｳ","pref":"滋賀県","city":"大津市","address":"杉浦町"},
{"zip_code":"5200225","kana_pref":"ｼｶﾞｹﾝ","kana_city":"ｵｵﾂｼ","kana_address":"ｾｲﾌｳﾁｮｳ","pref":"滋賀県","city":"大津市","address":"清風町"},
{"zip_code":"5200833","kana_pref":"ｼｶﾞｹﾝ","kana_city":"ｵｵﾂｼ","kana_address":"ｾｲﾗﾝ","pref":"滋賀県","city":"大津市","address":"晴嵐"},
{"zip_code":"5200227","kana_pref":"ｼｶﾞｹﾝ","kana_city":"ｵｵﾂｼ","kana_address":"ｾｲﾜﾁｮｳ","pref":"滋賀県","city":"大津市","address":"清和町"},
{"zip_code":"5202277","kana_pref":"ｼｶﾞｹﾝ","kana_city":"ｵｵﾂｼ","kana_address":"ｾｷﾉﾂ","pref":"滋賀県","city":"大津市","address":"関津"},
{"zip_code":"5200815","kana_pref":"ｼｶﾞｹﾝ","kana_city":"ｵｵﾂｼ","kana_address":"ｾﾞｾﾞ","pref":"滋賀県","city":"大津市","address":"膳所"},
{"zip_code":"5200825","kana_pref":"ｼｶﾞｹﾝ","kana_city":"ｵｵﾂｼ","kana_address":"ｾﾞｾﾞｲｹﾉｳﾁﾁｮｳ","pref":"滋賀県","city":"大津市","address":"膳所池ノ内町"},
{"zip_code":"5200823","kana_pref":"ｼｶﾞｹﾝ","kana_city":"ｵｵﾂｼ","kana_address":"ｾﾞｾﾞｶﾐﾍﾞｯﾎﾟﾁｮｳ","pref":"滋賀県","city":"大津市","address":"膳所上別保町"},
{"zip_code":"5200824","kana_pref":"ｼｶﾞｹﾝ","kana_city":"ｵｵﾂｼ","kana_address":"ｾﾞｾﾞﾋﾗｵﾁｮｳ","pref":"滋賀県","city":"大津市","address":"膳所平尾町"},
{"zip_code":"5202134","kana_pref":"ｼｶﾞｹﾝ","kana_city":"ｵｵﾂｼ","kana_address":"ｾﾀ","pref":"滋賀県","city":"大津市","address":"瀬田"},
{"zip_code":"5202123","kana_pref":"ｼｶﾞｹﾝ","kana_city":"ｵｵﾂｼ","kana_address":"ｾﾀｵｵｴﾁｮｳ","pref":"滋賀県","city":"大津市","address":"瀬田大江町"},
{"zip_code":"5202124","kana_pref":"ｼｶﾞｹﾝ","kana_city":"ｵｵﾂｼ","kana_address":"ｾﾀｼﾞﾝﾘｮｳﾁｮｳ","pref":"滋賀県","city":"大津市","address":"瀬田神領町"},
{"zip_code":"5202121","kana_pref":"ｼｶﾞｹﾝ","kana_city":"ｵｵﾂｼ","kana_address":"ｾﾀﾂｷﾉﾜﾁｮｳ","pref":"滋賀県","city":"大津市","address":"瀬田月輪町"},
{"zip_code":"5202125","kana_pref":"ｼｶﾞｹﾝ","kana_city":"ｵｵﾂｼ","kana_address":"ｾﾀﾊｼﾓﾄﾁｮｳ","pref":"滋賀県","city":"大津市","address":"瀬田橋本町"},
{"zip_code":"5202122","kana_pref":"ｼｶﾞｹﾝ","kana_city":"ｵｵﾂｼ","kana_address":"ｾﾀﾐﾅﾐｵｵｶﾞﾔﾁｮｳ","pref":"滋賀県","city":"大津市","address":"瀬田南大萱町"},
{"zip_code":"5200028","kana_pref":"ｼｶﾞｹﾝ","kana_city":"ｵｵﾂｼ","kana_address":"ｾﾝｺﾞｸﾀﾞｲ","pref":"滋賀県","city":"大津市","address":"千石台"},
{"zip_code":"5200863","kana_pref":"ｼｶﾞｹﾝ","kana_city":"ｵｵﾂｼ","kana_address":"ｾﾝﾁｮｳ","pref":"滋賀県","city":"大津市","address":"千町"},
{"zip_code":"5200842","kana_pref":"ｼｶﾞｹﾝ","kana_city":"ｵｵﾂｼ","kana_address":"ｿﾉﾔﾏ","pref":"滋賀県","city":"大津市","address":"園山"},
{"zip_code":"5202278","kana_pref":"ｼｶﾞｹﾝ","kana_city":"ｵｵﾂｼ","kana_address":"ﾀｲｼ","pref":"滋賀県","city":"大津市","address":"太子"},
{"zip_code":"5200512","kana_pref":"ｼｶﾞｹﾝ","kana_city":"ｵｵﾂｼ","kana_address":"ﾀﾞｲﾓﾂ","pref":"滋賀県","city":"大津市","address":"大物"},
{"zip_code":"5200033","kana_pref":"ｼｶﾞｹﾝ","kana_city":"ｵｵﾂｼ","kana_address":"ﾀﾞｲﾓﾝﾄﾞｵﾘ","pref":"滋賀県","city":"大津市","address":"大門通"},
{"zip_code":"5200005","kana_pref":"ｼｶﾞｹﾝ","kana_city":"ｵｵﾂｼ","kana_address":"ﾀｶｻｺﾞﾁｮｳ","pref":"滋賀県","city":"大津市","address":"高砂町"},
{"zip_code":"5200803","kana_pref":"ｼｶﾞｹﾝ","kana_city":"ｵｵﾂｼ","kana_address":"ﾀﾂｶﾞｵｶ","pref":"滋賀県","city":"大津市","address":"竜が丘"},
{"zip_code":"5200852","kana_pref":"ｼｶﾞｹﾝ","kana_city":"ｵｵﾂｼ","kana_address":"ﾀﾅﾍﾞﾁｮｳ","pref":"滋賀県","city":"大津市","address":"田辺町"},
{"zip_code":"5202142","kana_pref":"ｼｶﾞｹﾝ","kana_city":"ｵｵﾂｼ","kana_address":"ﾀﾏﾉｳﾗ","pref":"滋賀県","city":"大津市","address":"玉野浦"},
{"zip_code":"5202145","kana_pref":"ｼｶﾞｹﾝ","kana_city":"ｵｵﾂｼ","kana_address":"ﾀｲｼｮｳｸﾞﾝ","pref":"滋賀県","city":"大津市","address":"大将軍"},
{"zip_code":"5200111","kana_pref":"ｼｶﾞｹﾝ","kana_city":"ｵｵﾂｼ","kana_address":"ﾁﾉ","pref":"滋賀県","city":"大津市","address":"千野"},
{"zip_code":"5200023","kana_pref":"ｼｶﾞｹﾝ","kana_city":"ｵｵﾂｼ","kana_address":"ﾁｬｶﾞｻｷ","pref":"滋賀県","city":"大津市","address":"茶が崎"},
{"zip_code":"5200066","kana_pref":"ｼｶﾞｹﾝ","kana_city":"ｵｵﾂｼ","kana_address":"ﾁｬﾄﾞﾁｮｳ","pref":"滋賀県","city":"大津市","address":"茶戸町"},
{"zip_code":"5200043","kana_pref":"ｼｶﾞｹﾝ","kana_city":"ｵｵﾂｼ","kana_address":"ﾁｭｳｵｳ","pref":"滋賀県","city":"大津市","address":"中央"},
{"zip_code":"5202152","kana_pref":"ｼｶﾞｹﾝ","kana_city":"ｵｵﾂｼ","kana_address":"ﾂｷﾉﾜ","pref":"滋賀県","city":"大津市","address":"月輪"},
{"zip_code":"5200826","kana_pref":"ｼｶﾞｹﾝ","kana_city":"ｵｵﾂｼ","kana_address":"ﾂﾙﾉｻﾄ","pref":"滋賀県","city":"大津市","address":"鶴の里"},
{"zip_code":"5202116","kana_pref":"ｼｶﾞｹﾝ","kana_city":"ｵｵﾂｼ","kana_address":"ﾄﾞｳ","pref":"滋賀県","city":"大津市","address":"堂"},
{"zip_code":"5200854","kana_pref":"ｼｶﾞｹﾝ","kana_city":"ｵｵﾂｼ","kana_address":"ﾄﾘｲｶﾞﾜﾁｮｳ","pref":"滋賀県","city":"大津市","address":"鳥居川町"},
{"zip_code":"5200837","kana_pref":"ｼｶﾞｹﾝ","kana_city":"ｵｵﾂｼ","kana_address":"ﾅｶｼｮｳ","pref":"滋賀県","city":"大津市","address":"中庄"},
{"zip_code":"5202114","kana_pref":"ｼｶﾞｹﾝ","kana_city":"ｵｵﾂｼ","kana_address":"ﾅｶﾉ","pref":"滋賀県","city":"大津市","address":"中野"},
{"zip_code":"5200046","kana_pref":"ｼｶﾞｹﾝ","kana_city":"ｵｵﾂｼ","kana_address":"ﾅｶﾞﾗ","pref":"滋賀県","city":"大津市","address":"長等"},
{"zip_code":"5200865","kana_pref":"ｼｶﾞｹﾝ","kana_city":"ｵｵﾂｼ","kana_address":"ﾅﾝｺﾞｳ","pref":"滋賀県","city":"大津市","address":"南郷"},
{"zip_code":"5200871","kana_pref":"ｼｶﾞｹﾝ","kana_city":"ｵｵﾂｼ","kana_address":"ﾅﾝｺﾞｳｶﾐﾔﾏﾁｮｳ","pref":"滋賀県","city":"大津市","address":"南郷上山町"},
{"zip_code":"5200801","kana_pref":"ｼｶﾞｹﾝ","kana_city":"ｵｵﾂｼ","kana_address":"ﾆｵﾉﾊﾏ","pref":"滋賀県","city":"大津市","address":"におの浜"},
{"zip_code":"5200027","kana_pref":"ｼｶﾞｹﾝ","kana_city":"ｵｵﾂｼ","kana_address":"ﾆｼｺｵﾘ","pref":"滋賀県","city":"大津市","address":"錦織"},
{"zip_code":"5200818","kana_pref":"ｼｶﾞｹﾝ","kana_city":"ｵｵﾂｼ","kana_address":"ﾆｼﾉｼｮｳ","pref":"滋賀県","city":"大津市","address":"西の庄"},
{"zip_code":"5200021","kana_pref":"ｼｶﾞｹﾝ","kana_city":"ｵｵﾂｼ","kana_address":"ﾆﾎﾝﾏﾂ","pref":"滋賀県","city":"大津市","address":"二本松"},
{"zip_code":"5200102","kana_pref":"ｼｶﾞｹﾝ","kana_city":"ｵｵﾂｼ","kana_address":"ﾉｳｶ","pref":"滋賀県","city":"大津市","address":"苗鹿"},
{"zip_code":"5202133","kana_pref":"ｼｶﾞｹﾝ","kana_city":"ｵｵﾂｼ","kana_address":"ﾉｺﾞｳﾊﾗ","pref":"滋賀県","city":"大津市","address":"野郷原"},
{"zip_code":"5202273","kana_pref":"ｼｶﾞｹﾝ","kana_city":"ｵｵﾂｼ","kana_address":"ﾊｸﾞﾘ","pref":"滋賀県","city":"大津市","address":"羽栗"},
{"zip_code":"5200001","kana_pref":"ｼｶﾞｹﾝ","kana_city":"ｵｵﾂｼ","kana_address":"ﾊｽｲｹﾁｮｳ","pref":"滋賀県","city":"大津市","address":"蓮池町"},
{"zip_code":"5200515","kana_pref":"ｼｶﾞｹﾝ","kana_city":"ｵｵﾂｼ","kana_address":"ﾊﾁﾔﾄﾞ","pref":"滋賀県","city":"大津市","address":"八屋戸"},
{"zip_code":"5200222","kana_pref":"ｼｶﾞｹﾝ","kana_city":"ｵｵﾂｼ","kana_address":"ﾊﾅｿﾞﾉﾁｮｳ","pref":"滋賀県","city":"大津市","address":"花園町"},
{"zip_code":"5200047","kana_pref":"ｼｶﾞｹﾝ","kana_city":"ｵｵﾂｼ","kana_address":"ﾊﾏｵｵﾂ","pref":"滋賀県","city":"大津市","address":"浜大津"},
{"zip_code":"5200041","kana_pref":"ｼｶﾞｹﾝ","kana_city":"ｵｵﾂｼ","kana_address":"ﾊﾏﾏﾁ","pref":"滋賀県","city":"大津市","address":"浜町"},
{"zip_code":"5200802","kana_pref":"ｼｶﾞｹﾝ","kana_city":"ｵｵﾂｼ","kana_address":"ﾊﾞﾝﾊﾞ","pref":"滋賀県","city":"大津市","address":"馬場"},
{"zip_code":"5200016","kana_pref":"ｼｶﾞｹﾝ","kana_city":"ｵｵﾂｼ","kana_address":"ﾋｴｲﾀﾞｲﾗ","pref":"滋賀県","city":"大津市","address":"比叡平"},
{"zip_code":"5200104","kana_pref":"ｼｶﾞｹﾝ","kana_city":"ｵｵﾂｼ","kana_address":"ﾋｴｲﾂｼﾞ","pref":"滋賀県","city":"大津市","address":"比叡辻"},
{"zip_code":"5200856","kana_pref":"ｼｶﾞｹﾝ","kana_city":"ｵｵﾂｼ","kana_address":"ﾋｶﾘｶﾞｵｶﾁｮｳ","pref":"滋賀県","city":"大津市","address":"光が丘町"},
{"zip_code":"5200112","kana_pref":"ｼｶﾞｹﾝ","kana_city":"ｵｵﾂｼ","kana_address":"ﾋﾖｼﾀﾞｲ","pref":"滋賀県","city":"大津市","address":"日吉台"},
{"zip_code":"5200862","kana_pref":"ｼｶﾞｹﾝ","kana_city":"ｵｵﾂｼ","kana_address":"ﾋﾗﾂ","pref":"滋賀県","city":"大津市","address":"平津"},
{"zip_code":"5202113","kana_pref":"ｼｶﾞｹﾝ","kana_city":"ｵｵﾂｼ","kana_address":"ﾋﾗﾉ","pref":"滋賀県","city":"大津市","address":"平野"},
{"zip_code":"5200067","kana_pref":"ｼｶﾞｹﾝ","kana_city":"ｵｵﾂｼ","kana_address":"ﾌｼﾞｵｵｸﾏﾁ","pref":"滋賀県","city":"大津市","address":"藤尾奥町"},
{"zip_code":"5200846","kana_pref":"ｼｶﾞｹﾝ","kana_city":"ｵｵﾂｼ","kana_address":"ﾌｼﾞﾐﾀﾞｲ","pref":"滋賀県","city":"大津市","address":"富士見台"},
{"zip_code":"5200045","kana_pref":"ｼｶﾞｹﾝ","kana_city":"ｵｵﾂｼ","kana_address":"ﾌﾀﾞﾉﾂｼﾞ","pref":"滋賀県","city":"大津市","address":"札の辻"},
{"zip_code":"5200835","kana_pref":"ｼｶﾞｹﾝ","kana_city":"ｵｵﾂｼ","kana_address":"ﾍﾞﾂﾎﾟ","pref":"滋賀県","city":"大津市","address":"別保"},
{"zip_code":"5200853","kana_pref":"ｼｶﾞｹﾝ","kana_city":"ｵｵﾂｼ","kana_address":"ﾎﾀﾙﾀﾞﾆ","pref":"滋賀県","city":"大津市","address":"螢谷"},
{"zip_code":"5200242","kana_pref":"ｼｶﾞｹﾝ","kana_city":"ｵｵﾂｼ","kana_address":"ﾎﾝｶﾀﾀ","pref":"滋賀県","city":"大津市","address":"本堅田"},
{"zip_code":"5200814","kana_pref":"ｼｶﾞｹﾝ","kana_city":"ｵｵﾂｼ","kana_address":"ﾎﾝﾏﾙﾁｮｳ","pref":"滋賀県","city":"大津市","address":"本丸町"},
{"zip_code":"5202112","kana_pref":"ｼｶﾞｹﾝ","kana_city":"ｵｵﾂｼ","kana_address":"ﾏｷ","pref":"滋賀県","city":"大津市","address":"牧"},
{"zip_code":"5202102","kana_pref":"ｼｶﾞｹﾝ","kana_city":"ｵｵﾂｼ","kana_address":"ﾏﾂｶﾞｵｶ","pref":"滋賀県","city":"大津市","address":"松が丘"},
{"zip_code":"5200831","kana_pref":"ｼｶﾞｹﾝ","kana_city":"ｵｵﾂｼ","kana_address":"ﾏﾂﾊﾞﾗﾁｮｳ","pref":"滋賀県","city":"大津市","address":"松原町"},
{"zip_code":"5200807","kana_pref":"ｼｶﾞｹﾝ","kana_city":"ｵｵﾂｼ","kana_address":"ﾏﾂﾓﾄ","pref":"滋賀県","city":"大津市","address":"松本"},
{"zip_code":"5200024","kana_pref":"ｼｶﾞｹﾝ","kana_city":"ｵｵﾂｼ","kana_address":"ﾏﾂﾔﾏﾁｮｳ","pref":"滋賀県","city":"大津市","address":"松山町"},
{"zip_code":"5200232","kana_pref":"ｼｶﾞｹﾝ","kana_city":"ｵｵﾂｼ","kana_address":"ﾏﾉ","pref":"滋賀県","city":"大津市","address":"真野"},
{"zip_code":"5200234","kana_pref":"ｼｶﾞｹﾝ","kana_city":"ｵｵﾂｼ","kana_address":"ﾏﾉｲｴﾀﾞﾁｮｳ","pref":"滋賀県","city":"大津市","address":"真野家田町"},
{"zip_code":"5200235","kana_pref":"ｼｶﾞｹﾝ","kana_city":"ｵｵﾂｼ","kana_address":"ﾏﾉｵｵﾉ","pref":"滋賀県","city":"大津市","address":"真野大野"},
{"zip_code":"5200236","kana_pref":"ｼｶﾞｹﾝ","kana_city":"ｵｵﾂｼ","kana_address":"ﾏﾉｻｶﾞﾜﾁｮｳ","pref":"滋賀県","city":"大津市","address":"真野佐川町"},
{"zip_code":"5200233","kana_pref":"ｼｶﾞｹﾝ","kana_city":"ｵｵﾂｼ","kana_address":"ﾏﾉﾀﾆｸﾞﾁﾁｮｳ","pref":"滋賀県","city":"大津市","address":"真野谷口町"},
{"zip_code":"5200231","kana_pref":"ｼｶﾞｹﾝ","kana_city":"ｵｵﾂｼ","kana_address":"ﾏﾉﾌﾓﾝ","pref":"滋賀県","city":"大津市","address":"真野普門"},
{"zip_code":"5200813","kana_pref":"ｼｶﾞｹﾝ","kana_city":"ｵｵﾂｼ","kana_address":"ﾏﾙﾉｳﾁﾁｮｳ","pref":"滋賀県","city":"大津市","address":"丸の内町"},
{"zip_code":"5200034","kana_pref":"ｼｶﾞｹﾝ","kana_city":"ｵｵﾂｼ","kana_address":"ﾐｲﾃﾞﾗﾁｮｳ","pref":"滋賀県","city":"大津市","address":"三井寺町"},
{"zip_code":"5200841","kana_pref":"ｼｶﾞｹﾝ","kana_city":"ｵｵﾂｼ","kana_address":"ﾐｻｷﾁｮｳ","pref":"滋賀県","city":"大津市","address":"美崎町"},
{"zip_code":"5200004","kana_pref":"ｼｶﾞｹﾝ","kana_city":"ｵｵﾂｼ","kana_address":"ﾐｾ","pref":"滋賀県","city":"大津市","address":"見世"},
{"zip_code":"5200223","kana_pref":"ｼｶﾞｹﾝ","kana_city":"ｵｵﾂｼ","kana_address":"ﾐｿﾗﾁｮｳ","pref":"滋賀県","city":"大津市","address":"美空町"},
{"zip_code":"5200221","kana_pref":"ｼｶﾞｹﾝ","kana_city":"ｵｵﾂｼ","kana_address":"ﾐﾄﾞﾘﾁｮｳ","pref":"滋賀県","city":"大津市","address":"緑町"},
{"zip_code":"5200502","kana_pref":"ｼｶﾞｹﾝ","kana_city":"ｵｵﾂｼ","kana_address":"ﾐﾅﾐｺﾏﾂ","pref":"滋賀県","city":"大津市","address":"南小松"},
{"zip_code":"5200011","kana_pref":"ｼｶﾞｹﾝ","kana_city":"ｵｵﾂｼ","kana_address":"ﾐﾅﾐｼｶﾞ","pref":"滋賀県","city":"大津市","address":"南志賀"},
{"zip_code":"5200018","kana_pref":"ｼｶﾞｹﾝ","kana_city":"ｵｵﾂｼ","kana_address":"ﾐﾅﾐｼｶﾞﾁｮｳ","pref":"滋賀県","city":"大津市","address":"南滋賀町"},
{"zip_code":"5200511","kana_pref":"ｼｶﾞｹﾝ","kana_city":"ｵｵﾂｼ","kana_address":"ﾐﾅﾐﾋﾗ","pref":"滋賀県","city":"大津市","address":"南比良"},
{"zip_code":"5200516","kana_pref":"ｼｶﾞｹﾝ","kana_city":"ｵｵﾂｼ","kana_address":"ﾐﾅﾐﾌﾅｼﾞ","pref":"滋賀県","city":"大津市","address":"南船路"},
{"zip_code":"5200057","kana_pref":"ｼｶﾞｹﾝ","kana_city":"ｵｵﾂｼ","kana_address":"ﾐﾕｷﾁｮｳ","pref":"滋賀県","city":"大津市","address":"御幸町"},
{"zip_code":"5200804","kana_pref":"ｼｶﾞｹﾝ","kana_city":"ｵｵﾂｼ","kana_address":"ﾓﾄﾐﾔ","pref":"滋賀県","city":"大津市","address":"本宮"},
{"zip_code":"5202274","kana_pref":"ｼｶﾞｹﾝ","kana_city":"ｵｵﾂｼ","kana_address":"ﾓﾘ","pref":"滋賀県","city":"大津市","address":"森"},
{"zip_code":"5200022","kana_pref":"ｼｶﾞｹﾝ","kana_city":"ｵｵﾂｼ","kana_address":"ﾔﾅｶﾞｻｷ","pref":"滋賀県","city":"大津市","address":"柳が崎"},
{"zip_code":"5200014","kana_pref":"ｼｶﾞｹﾝ","kana_city":"ｵｵﾂｼ","kana_address":"ﾔﾅｶﾞﾜ","pref":"滋賀県","city":"大津市","address":"柳川"},
{"zip_code":"5200038","kana_pref":"ｼｶﾞｹﾝ","kana_city":"ｵｵﾂｼ","kana_address":"ﾔﾏｶﾞﾐﾁｮｳ","pref":"滋賀県","city":"大津市","address":"山上町"},
{"zip_code":"5200017","kana_pref":"ｼｶﾞｹﾝ","kana_city":"ｵｵﾂｼ","kana_address":"ﾔﾏﾅｶﾁｮｳ","pref":"滋賀県","city":"大津市","address":"山中町"},
{"zip_code":"5200357","kana_pref":"ｼｶﾞｹﾝ","kana_city":"ｵｵﾂｼ","kana_address":"ﾔﾏﾕﾘﾉｵｶ","pref":"滋賀県","city":"大津市","address":"山百合の丘"},
{"zip_code":"5200115","kana_pref":"ｼｶﾞｹﾝ","kana_city":"ｵｵﾂｼ","kana_address":"ﾔﾖｲﾁｮｳ","pref":"滋賀県","city":"大津市","address":"弥生町"},
{"zip_code":"5200811","kana_pref":"ｼｶﾞｹﾝ","kana_city":"ｵｵﾂｼ","kana_address":"ﾕﾐﾊﾏ","pref":"滋賀県","city":"大津市","address":"由美浜"},
{"zip_code":"5200226","kana_pref":"ｼｶﾞｹﾝ","kana_city":"ｵｵﾂｼ","kana_address":"ﾖｳﾒｲﾁｮｳ","pref":"滋賀県","city":"大津市","address":"陽明町"},
{"zip_code":"5200063","kana_pref":"ｼｶﾞｹﾝ","kana_city":"ｵｵﾂｼ","kana_address":"ﾖｺｷﾞ","pref":"滋賀県","city":"大津市","address":"横木"},
{"zip_code":"5200845","kana_pref":"ｼｶﾞｹﾝ","kana_city":"ｵｵﾂｼ","kana_address":"ﾜｶﾊﾞﾀﾞｲ","pref":"滋賀県","city":"大津市","address":"若葉台"},
{"zip_code":"5200524","kana_pref":"ｼｶﾞｹﾝ","kana_city":"ｵｵﾂｼ","kana_address":"ﾜﾆｲﾏｼﾞｭｸ","pref":"滋賀県","city":"大津市","address":"和邇今宿"},
{"zip_code":"5200529","kana_pref":"ｼｶﾞｹﾝ","kana_city":"ｵｵﾂｼ","kana_address":"ﾜﾆｶｽｶﾞ","pref":"滋賀県","city":"大津市","address":"和邇春日"},
{"zip_code":"5200521","kana_pref":"ｼｶﾞｹﾝ","kana_city":"ｵｵﾂｼ","kana_address":"ﾜﾆｷﾀﾊﾏ","pref":"滋賀県","city":"大津市","address":"和邇北浜"},
{"zip_code":"5200528","kana_pref":"ｼｶﾞｹﾝ","kana_city":"ｵｵﾂｼ","kana_address":"ﾜﾆﾀｶｼﾛ","pref":"滋賀県","city":"大津市","address":"和邇高城"},
{"zip_code":"5200526","kana_pref":"ｼｶﾞｹﾝ","kana_city":"ｵｵﾂｼ","kana_address":"ﾜﾆﾅｶ","pref":"滋賀県","city":"大津市","address":"和邇中"},
{"zip_code":"5200522","kana_pref":"ｼｶﾞｹﾝ","kana_city":"ｵｵﾂｼ","kana_address":"ﾜﾆﾅｶﾊﾏ","pref":"滋賀県","city":"大津市","address":"和邇中浜"},
{"zip_code":"5200523","kana_pref":"ｼｶﾞｹﾝ","kana_city":"ｵｵﾂｼ","kana_address":"ﾜﾆﾐﾅﾐﾊﾏ","pref":"滋賀県","city":"大津市","address":"和邇南浜"},
{"zip_code":"5203000","kana_pref":"ｼｶﾞｹﾝ","kana_city":"ﾘｯﾄｳｼ","kana_address":"","pref":"滋賀県","city":"栗東市","address":""},
{"zip_code":"5203003","kana_pref":"ｼｶﾞｹﾝ","kana_city":"ﾘｯﾄｳｼ","kana_address":"ｱﾗﾊﾘ","pref":"滋賀県","city":"栗東市","address":"荒張"},
{"zip_code":"5203015","kana_pref":"ｼｶﾞｹﾝ","kana_city":"ﾘｯﾄｳｼ","kana_address":"ｱﾝﾖｳｼﾞ","pref":"滋賀県","city":"栗東市","address":"安養寺"},
{"zip_code":"5203044","kana_pref":"ｼｶﾞｹﾝ","kana_city":"ﾘｯﾄｳｼ","kana_address":"ｲｾｵﾁ","pref":"滋賀県","city":"栗東市","address":"伊勢落"},
{"zip_code":"5203006","kana_pref":"ｼｶﾞｹﾝ","kana_city":"ﾘｯﾄｳｼ","kana_address":"ｲﾉｳｴ","pref":"滋賀県","city":"栗東市","address":"井上"},
{"zip_code":"5203046","kana_pref":"ｼｶﾞｹﾝ","kana_city":"ﾘｯﾄｳｼ","kana_address":"ｵｵﾊｼ","pref":"滋賀県","city":"栗東市","address":"大橋"},
{"zip_code":"5203012","kana_pref":"ｼｶﾞｹﾝ","kana_city":"ﾘｯﾄｳｼ","kana_address":"ｵｶ","pref":"滋賀県","city":"栗東市","address":"岡"},
{"zip_code":"5203024","kana_pref":"ｼｶﾞｹﾝ","kana_city":"ﾘｯﾄｳｼ","kana_address":"ｵｶﾞｷ","pref":"滋賀県","city":"栗東市","address":"小柿"},
{"zip_code":"5203016","kana_pref":"ｼｶﾞｹﾝ","kana_city":"ﾘｯﾄｳｼ","kana_address":"ｵﾉ","pref":"滋賀県","city":"栗東市","address":"小野"},
{"zip_code":"5203033","kana_pref":"ｼｶﾞｹﾝ","kana_city":"ﾘｯﾄｳｼ","kana_address":"ｶｻｶﾞﾜ","pref":"滋賀県","city":"栗東市","address":"笠川"},
{"zip_code":"5203004","kana_pref":"ｼｶﾞｹﾝ","kana_city":"ﾘｯﾄｳｼ","kana_address":"ｶﾐﾄﾔﾏ","pref":"滋賀県","city":"栗東市","address":"上砥山"},
{"zip_code":"5203022","kana_pref":"ｼｶﾞｹﾝ","kana_city":"ﾘｯﾄｳｼ","kana_address":"ｶﾐﾏｶﾞﾘ","pref":"滋賀県","city":"栗東市","address":"上鈎"},
{"zip_code":"5203032","kana_pref":"ｼｶﾞｹﾝ","kana_city":"ﾘｯﾄｳｼ","kana_address":"ｶﾘﾊﾗ","pref":"滋賀県","city":"栗東市","address":"苅原"},
{"zip_code":"5203014","kana_pref":"ｼｶﾞｹﾝ","kana_city":"ﾘｯﾄｳｼ","kana_address":"ｶﾜﾂﾞﾗ","pref":"滋賀県","city":"栗東市","address":"川辺"},
{"zip_code":"5203002","kana_pref":"ｼｶﾞｹﾝ","kana_city":"ﾘｯﾄｳｼ","kana_address":"ｶﾝｵﾝｼﾞ","pref":"滋賀県","city":"栗東市","address":"観音寺"},
{"zip_code":"5203037","kana_pref":"ｼｶﾞｹﾝ","kana_city":"ﾘｯﾄｳｼ","kana_address":"ｷﾀﾅｶｺｳｼﾞ","pref":"滋賀県","city":"栗東市","address":"北中小路"},
{"zip_code":"5203034","kana_pref":"ｼｶﾞｹﾝ","kana_city":"ﾘｯﾄｳｼ","kana_address":"ｺﾋﾞﾗｲ","pref":"滋賀県","city":"栗東市","address":"小平井"},
{"zip_code":"5203011","kana_pref":"ｼｶﾞｹﾝ","kana_city":"ﾘｯﾄｳｼ","kana_address":"ｼﾓﾄﾞﾔﾏ","pref":"滋賀県","city":"栗東市","address":"下戸山"},
{"zip_code":"5203026","kana_pref":"ｼｶﾞｹﾝ","kana_city":"ﾘｯﾄｳｼ","kana_address":"ｼﾓﾏｶﾞﾘ","pref":"滋賀県","city":"栗東市","address":"下鈎"},
{"zip_code":"5203036","kana_pref":"ｼｶﾞｹﾝ","kana_city":"ﾘｯﾄｳｼ","kana_address":"ｼﾞｭｳﾘ","pref":"滋賀県","city":"栗東市","address":"十里"},
{"zip_code":"5203045","kana_pref":"ｼｶﾞｹﾝ","kana_city":"ﾘｯﾄｳｼ","kana_address":"ﾀｶﾉ","pref":"滋賀県","city":"栗東市","address":"高野"},
{"zip_code":"5203042","kana_pref":"ｼｶﾞｹﾝ","kana_city":"ﾘｯﾄｳｼ","kana_address":"ﾂｼﾞ","pref":"滋賀県","city":"栗東市","address":"辻"},
{"zip_code":"5203041","kana_pref":"ｼｶﾞｹﾝ","kana_city":"ﾘｯﾄｳｼ","kana_address":"ﾃﾞﾊﾞ","pref":"滋賀県","city":"栗東市","address":"出庭"},
{"zip_code":"5203047","kana_pref":"ｼｶﾞｹﾝ","kana_city":"ﾘｯﾄｳｼ","kana_address":"ﾃﾊﾗ","pref":"滋賀県","city":"栗東市","address":"手原"},
{"zip_code":"5203025","kana_pref":"ｼｶﾞｹﾝ","kana_city":"ﾘｯﾄｳｼ","kana_address":"ﾅｶｻﾞﾜ","pref":"滋賀県","city":"栗東市","address":"中沢"},
{"zip_code":"5203027","kana_pref":"ｼｶﾞｹﾝ","kana_city":"ﾘｯﾄｳｼ","kana_address":"ﾉｼﾞﾘ","pref":"滋賀県","city":"栗東市","address":"野尻"},
{"zip_code":"5203021","kana_pref":"ｼｶﾞｹﾝ","kana_city":"ﾘｯﾄｳｼ","kana_address":"ﾊﾁﾔ","pref":"滋賀県","city":"栗東市","address":"蜂屋"},
{"zip_code":"5203043","kana_pref":"ｼｶﾞｹﾝ","kana_city":"ﾘｯﾄｳｼ","kana_address":"ﾊﾔｼ","pref":"滋賀県","city":"栗東市","address":"林"},
{"zip_code":"5203001","kana_pref":"ｼｶﾞｹﾝ","kana_city":"ﾘｯﾄｳｼ","kana_address":"ﾋｶﾞｼｻｶ","pref":"滋賀県","city":"栗東市","address":"東坂"},
{"zip_code":"5203031","kana_pref":"ｼｶﾞｹﾝ","kana_city":"ﾘｯﾄｳｼ","kana_address":"ﾍｿ","pref":"滋賀県","city":"栗東市","address":"綣"},
{"zip_code":"5203023","kana_pref":"ｼｶﾞｹﾝ","kana_city":"ﾘｯﾄｳｼ","kana_address":"ﾎﾞｳﾌﾞｸﾛ","pref":"滋賀県","city":"栗東市","address":"坊袋"},
{"zip_code":"5203005","kana_pref":"ｼｶﾞｹﾝ","kana_city":"ﾘｯﾄｳｼ","kana_address":"ﾐｿﾉ","pref":"滋賀県","city":"栗東市","address":"御園"},
{"zip_code":"5203013","kana_pref":"ｼｶﾞｹﾝ","kana_city":"ﾘｯﾄｳｼ","kana_address":"ﾒｶﾞﾜ","pref":"滋賀県","city":"栗東市","address":"目川"},
{"zip_code":"5203035","kana_pref":"ｼｶﾞｹﾝ","kana_city":"ﾘｯﾄｳｼ","kana_address":"ﾘｮｳｾﾝｼﾞ","pref":"滋賀県","city":"栗東市","address":"霊仙寺"},
{"zip_code":"5203017","kana_pref":"ｼｶﾞｹﾝ","kana_city":"ﾘｯﾄｳｼ","kana_address":"ﾛｸｼﾞｿﾞｳ","pref":"滋賀県","city":"栗東市","address":"六地蔵"},
{"zip_code":"5203413","kana_pref":"ｼｶﾞｹﾝ","kana_city":"ｺｳｶｼ","kana_address":"ｺｳｶﾁｮｳｱﾌﾞﾗﾋ","pref":"滋賀県","city":"甲賀市","address":"甲賀町油日"},
{"zip_code":"5203412","kana_pref":"ｼｶﾞｹﾝ","kana_city":"ｺｳｶｼ","kana_address":"ｺｳｶﾁｮｳｲﾁﾉ","pref":"滋賀県","city":"甲賀市","address":"甲賀町櫟野"},
{"zip_code":"5203401","kana_pref":"ｼｶﾞｹﾝ","kana_city":"ｺｳｶｼ","kana_address":"ｺｳｶﾁｮｳｲﾜﾑﾛ","pref":"滋賀県","city":"甲賀市","address":"甲賀町岩室"},
{"zip_code":"5203421","kana_pref":"ｼｶﾞｹﾝ","kana_city":"ｺｳｶｼ","kana_address":"ｺｳｶﾁｮｳｳｴﾉ","pref":"滋賀県","city":"甲賀市","address":"甲賀町上野"},
{"zip_code":"5203414","kana_pref":"ｼｶﾞｹﾝ","kana_city":"ｺｳｶｼ","kana_address":"ｺｳｶﾁｮｳｵｵｸﾎﾞ","pref":"滋賀県","city":"甲賀市","address":"甲賀町大久保"},
{"zip_code":"5203433","kana_pref":"ｼｶﾞｹﾝ","kana_city":"ｺｳｶｼ","kana_address":"ｺｳｶﾁｮｳｵｵﾊﾗｲﾁﾊﾞ","pref":"滋賀県","city":"甲賀市","address":"甲賀町大原市場"},
{"zip_code":"5203415","kana_pref":"ｼｶﾞｹﾝ","kana_city":"ｺｳｶｼ","kana_address":"ｺｳｶﾁｮｳｵｵﾊﾗｳｴﾀﾞ","pref":"滋賀県","city":"甲賀市","address":"甲賀町大原上田"},
{"zip_code":"5203431","kana_pref":"ｼｶﾞｹﾝ","kana_city":"ｺｳｶｼ","kana_address":"ｺｳｶﾁｮｳｵｵﾊﾗﾅｶ","pref":"滋賀県","city":"甲賀市","address":"甲賀町大原中"},
{"zip_code":"5203405","kana_pref":"ｼｶﾞｹﾝ","kana_city":"ｺｳｶｼ","kana_address":"ｺｳｶﾁｮｳｵｷ","pref":"滋賀県","city":"甲賀市","address":"甲賀町隠岐"},
{"zip_code":"5203427","kana_pref":"ｼｶﾞｹﾝ","kana_city":"ｺｳｶｼ","kana_address":"ｺｳｶﾁｮｳｶﾌｶﾀﾞｲ","pref":"滋賀県","city":"甲賀市","address":"甲賀町鹿深台"},
{"zip_code":"5203411","kana_pref":"ｼｶﾞｹﾝ","kana_city":"ｺｳｶｼ","kana_address":"ｺｳｶﾁｮｳｶﾐ","pref":"滋賀県","city":"甲賀市","address":"甲賀町神"},
{"zip_code":"5203402","kana_pref":"ｼｶﾞｹﾝ","kana_city":"ｺｳｶｼ","kana_address":"ｺｳｶﾁｮｳｺｻｼﾞ","pref":"滋賀県","city":"甲賀市","address":"甲賀町小佐治"},
{"zip_code":"5203423","kana_pref":"ｼｶﾞｹﾝ","kana_city":"ｺｳｶｼ","kana_address":"ｺｳｶﾁｮｳｺﾞﾀﾝﾀﾞ","pref":"滋賀県","city":"甲賀市","address":"甲賀町五反田"},
{"zip_code":"5203435","kana_pref":"ｼｶﾞｹﾝ","kana_city":"ｺｳｶｼ","kana_address":"ｺｳｶﾁｮｳｻｶﾞﾐ","pref":"滋賀県","city":"甲賀市","address":"甲賀町相模"},
{"zip_code":"5203404","kana_pref":"ｼｶﾞｹﾝ","kana_city":"ｺｳｶｼ","kana_address":"ｺｳｶﾁｮｳｼﾞﾝﾎﾞ","pref":"滋賀県","city":"甲賀市","address":"甲賀町神保"},
{"zip_code":"5203434","kana_pref":"ｼｶﾞｹﾝ","kana_city":"ｺｳｶｼ","kana_address":"ｺｳｶﾁｮｳﾀｶﾉ","pref":"滋賀県","city":"甲賀市","address":"甲賀町高野"},
{"zip_code":"5203424","kana_pref":"ｼｶﾞｹﾝ","kana_city":"ｺｳｶｼ","kana_address":"ｺｳｶﾁｮｳﾀｶﾐﾈ","pref":"滋賀県","city":"甲賀市","address":"甲賀町高嶺"},
{"zip_code":"5203432","kana_pref":"ｼｶﾞｹﾝ","kana_city":"ｺｳｶｼ","kana_address":"ｺｳｶﾁｮｳﾀｷ","pref":"滋賀県","city":"甲賀市","address":"甲賀町滝"},
{"zip_code":"5203426","kana_pref":"ｼｶﾞｹﾝ","kana_city":"ｺｳｶｼ","kana_address":"ｺｳｶﾁｮｳﾀﾄﾞﾉ","pref":"滋賀県","city":"甲賀市","address":"甲賀町田堵野"},
{"zip_code":"5203403","kana_pref":"ｼｶﾞｹﾝ","kana_city":"ｺｳｶｼ","kana_address":"ｺｳｶﾁｮｳﾄﾘｲﾉ","pref":"滋賀県","city":"甲賀市","address":"甲賀町鳥居野"},
{"zip_code":"5203436","kana_pref":"ｼｶﾞｹﾝ","kana_city":"ｺｳｶｼ","kana_address":"ｺｳｶﾁｮｳﾊｲｻｶ","pref":"滋賀県","city":"甲賀市","address":"甲賀町拝坂"},
{"zip_code":"5203425","kana_pref":"ｼｶﾞｹﾝ","kana_city":"ｺｳｶｼ","kana_address":"ｺｳｶﾁｮｳﾓﾋﾞﾗ","pref":"滋賀県","city":"甲賀市","address":"甲賀町毛枚"},
{"zip_code":"5203422","kana_pref":"ｼｶﾞｹﾝ","kana_city":"ｺｳｶｼ","kana_address":"ｺｳｶﾁｮｳﾜﾀ","pref":"滋賀県","city":"甲賀市","address":"甲賀町和田"},
{"zip_code":"5203302","kana_pref":"ｼｶﾞｹﾝ","kana_city":"ｺｳｶｼ","kana_address":"ｺｳﾅﾝﾁｮｳｲｹﾀﾞ","pref":"滋賀県","city":"甲賀市","address":"甲南町池田"},
{"zip_code":"5203312","kana_pref":"ｼｶﾞｹﾝ","kana_city":"ｺｳｶｼ","kana_address":"ｺｳﾅﾝﾁｮｳｲｿｵ","pref":"滋賀県","city":"甲賀市","address":"甲南町磯尾"},
{"zip_code":"5203316","kana_pref":"ｼｶﾞｹﾝ","kana_city":"ｺｳｶｼ","kana_address":"ｺｳﾅﾝﾁｮｳｲﾁﾊﾗ","pref":"滋賀県","city":"甲賀市","address":"甲南町市原"},
{"zip_code":"5203321","kana_pref":"ｼｶﾞｹﾝ","kana_city":"ｺｳｶｼ","kana_address":"ｺｳﾅﾝﾁｮｳｶﾂﾞﾗｷ","pref":"滋賀県","city":"甲賀市","address":"甲南町葛木"},
{"zip_code":"5203303","kana_pref":"ｼｶﾞｹﾝ","kana_city":"ｺｳｶｼ","kana_address":"ｺｳﾅﾝﾁｮｳｶﾐﾏｽｷﾞ","pref":"滋賀県","city":"甲賀市","address":"甲南町上馬杉"},
{"zip_code":"5203333","kana_pref":"ｼｶﾞｹﾝ","kana_city":"ｺｳｶｼ","kana_address":"ｺｳﾅﾝﾁｮｳｷﾎﾞｳｶﾞｵｶ","pref":"滋賀県","city":"甲賀市","address":"甲南町希望ケ丘"},
{"zip_code":"5203332","kana_pref":"ｼｶﾞｹﾝ","kana_city":"ｺｳｶｼ","kana_address":"ｺｳﾅﾝﾁｮｳｷﾎﾞｳｶﾞｵｶﾎﾝﾏﾁ","pref":"滋賀県","city":"甲賀市","address":"甲南町希望ケ丘本町"},
{"zip_code":"5203326","kana_pref":"ｼｶﾞｹﾝ","kana_city":"ｺｳｶｼ","kana_address":"ｺｳﾅﾝﾁｮｳｺｳｼﾝ","pref":"滋賀県","city":"甲賀市","address":"甲南町耕心"},
{"zip_code":"5203306","kana_pref":"ｼｶﾞｹﾝ","kana_city":"ｺｳｶｼ","kana_address":"ｺｳﾅﾝﾁｮｳｺｵｼﾞ","pref":"滋賀県","city":"甲賀市","address":"甲南町柑子"},
{"zip_code":"5203315","kana_pref":"ｼｶﾞｹﾝ","kana_city":"ｺｳｶｼ","kana_address":"ｺｳﾅﾝﾁｮｳｼｵﾉ","pref":"滋賀県","city":"甲賀市","address":"甲南町塩野"},
{"zip_code":"5203304","kana_pref":"ｼｶﾞｹﾝ","kana_city":"ｺｳｶｼ","kana_address":"ｺｳﾅﾝﾁｮｳｼﾓﾏｽｷﾞ","pref":"滋賀県","city":"甲賀市","address":"甲南町下馬杉"},
{"zip_code":"5203313","kana_pref":"ｼｶﾞｹﾝ","kana_city":"ｺｳｶｼ","kana_address":"ｺｳﾅﾝﾁｮｳｼﾝｼﾞ","pref":"滋賀県","city":"甲賀市","address":"甲南町新治"},
{"zip_code":"5203314","kana_pref":"ｼｶﾞｹﾝ","kana_city":"ｺｳｶｼ","kana_address":"ｺｳﾅﾝﾁｮｳｽｷﾞﾀﾆ","pref":"滋賀県","city":"甲賀市","address":"甲南町杉谷"},
{"zip_code":"5203301","kana_pref":"ｼｶﾞｹﾝ","kana_city":"ｺｳｶｼ","kana_address":"ｺｳﾅﾝﾁｮｳﾃﾗｼｮｳ","pref":"滋賀県","city":"甲賀市","address":"甲南町寺庄"},
{"zip_code":"5203305","kana_pref":"ｼｶﾞｹﾝ","kana_city":"ｺｳｶｼ","kana_address":"ｺｳﾅﾝﾁｮｳﾉｶﾞﾜ","pref":"滋賀県","city":"甲賀市","address":"甲南町野川"},
{"zip_code":"5203307","kana_pref":"ｼｶﾞｹﾝ","kana_city":"ｺｳｶｼ","kana_address":"ｺｳﾅﾝﾁｮｳﾉｼﾞﾘ","pref":"滋賀県","city":"甲賀市","address":"甲南町野尻"},
{"zip_code":"5203308","kana_pref":"ｼｶﾞｹﾝ","kana_city":"ｺｳｶｼ","kana_address":"ｺｳﾅﾝﾁｮｳﾉﾀﾞ","pref":"滋賀県","city":"甲賀市","address":"甲南町野田"},
{"zip_code":"5203331","kana_pref":"ｼｶﾞｹﾝ","kana_city":"ｺｳｶｼ","kana_address":"ｺｳﾅﾝﾁｮｳﾋｴﾀﾞﾆ","pref":"滋賀県","city":"甲賀市","address":"甲南町稗谷"},
{"zip_code":"5203322","kana_pref":"ｼｶﾞｹﾝ","kana_city":"ｺｳｶｼ","kana_address":"ｺｳﾅﾝﾁｮｳﾌｶﾜ","pref":"滋賀県","city":"甲賀市","address":"甲南町深川"},
{"zip_code":"5203323","kana_pref":"ｼｶﾞｹﾝ","kana_city":"ｺｳｶｼ","kana_address":"ｺｳﾅﾝﾁｮｳﾌｶﾜｲﾁﾊﾞ","pref":"滋賀県","city":"甲賀市","address":"甲南町深川市場"},
{"zip_code":"5203325","kana_pref":"ｼｶﾞｹﾝ","kana_city":"ｺｳｶｼ","kana_address":"ｺｳﾅﾝﾁｮｳﾎｳﾉｷ","pref":"滋賀県","city":"甲賀市","address":"甲南町宝木"},
{"zip_code":"5203324","kana_pref":"ｼｶﾞｹﾝ","kana_city":"ｺｳｶｼ","kana_address":"ｺｳﾅﾝﾁｮｳﾓﾘｼﾘ","pref":"滋賀県","city":"甲賀市","address":"甲南町森尻"},
{"zip_code":"5203311","kana_pref":"ｼｶﾞｹﾝ","kana_city":"ｺｳｶｼ","kana_address":"ｺｳﾅﾝﾁｮｳﾘｭｳﾎﾞｳｼ","pref":"滋賀県","city":"甲賀市","address":"甲南町竜法師"},
{"zip_code":"5202300","kana_pref":"ｼｶﾞｹﾝ","kana_city":"ﾔｽｼ","kana_address":"","pref":"滋賀県","city":"野洲市","address":""},
{"zip_code":"5202411","kana_pref":"ｼｶﾞｹﾝ","kana_city":"ﾔｽｼ","kana_address":"ｱﾜｼﾞ","pref":"滋賀県","city":"野洲市","address":"安治"},
{"zip_code":"5202362","kana_pref":"ｼｶﾞｹﾝ","kana_city":"ﾔｽｼ","kana_address":"ｲﾁﾐﾔｹ","pref":"滋賀県","city":"野洲市","address":"市三宅"},
{"zip_code":"5202414","kana_pref":"ｼｶﾞｹﾝ","kana_city":"ﾔｽｼ","kana_address":"ｲﾉｸﾁ","pref":"滋賀県","city":"野洲市","address":"井口"},
{"zip_code":"5202312","kana_pref":"ｼｶﾞｹﾝ","kana_city":"ﾔｽｼ","kana_address":"ｲﾘﾏﾁ","pref":"滋賀県","city":"野洲市","address":"入町"},
{"zip_code":"5202324","kana_pref":"ｼｶﾞｹﾝ","kana_city":"ﾔｽｼ","kana_address":"ｵｳﾐﾌｼﾞ","pref":"滋賀県","city":"野洲市","address":"近江富士"},
{"zip_code":"5202313","kana_pref":"ｼｶﾞｹﾝ","kana_city":"ﾔｽｼ","kana_address":"ｵｵｼﾉﾊﾗ","pref":"滋賀県","city":"野洲市","address":"大篠原"},
{"zip_code":"5202343","kana_pref":"ｼｶﾞｹﾝ","kana_city":"ﾔｽｼ","kana_address":"ｵｵﾊﾀ","pref":"滋賀県","city":"野洲市","address":"大畑"},
{"zip_code":"5202435","kana_pref":"ｼｶﾞｹﾝ","kana_city":"ﾔｽｼ","kana_address":"ｵﾁｸﾎﾞ","pref":"滋賀県","city":"野洲市","address":"乙窪"},
{"zip_code":"5202316","kana_pref":"ｼｶﾞｹﾝ","kana_city":"ﾔｽｼ","kana_address":"ｶﾐﾔ","pref":"滋賀県","city":"野洲市","address":"上屋"},
{"zip_code":"5202305","kana_pref":"ｼｶﾞｹﾝ","kana_city":"ﾔｽｼ","kana_address":"ｷﾀ","pref":"滋賀県","city":"野洲市","address":"北"},
{"zip_code":"5202321","kana_pref":"ｼｶﾞｹﾝ","kana_city":"ﾔｽｼ","kana_address":"ｷﾀｻﾞｸﾗ","pref":"滋賀県","city":"野洲市","address":"北桜"},
{"zip_code":"5202361","kana_pref":"ｼｶﾞｹﾝ","kana_city":"ﾔｽｼ","kana_address":"ｷﾀﾉ","pref":"滋賀県","city":"野洲市","address":"北野"},
{"zip_code":"5202436","kana_pref":"ｼｶﾞｹﾝ","kana_city":"ﾔｽｼ","kana_address":"ｷﾀﾋｴ","pref":"滋賀県","city":"野洲市","address":"北比江"},
{"zip_code":"5202431","kana_pref":"ｼｶﾞｹﾝ","kana_city":"ﾔｽｼ","kana_address":"ｷﾍﾞ","pref":"滋賀県","city":"野洲市","address":"木部"},
{"zip_code":"5202353","kana_pref":"ｼｶﾞｹﾝ","kana_city":"ﾔｽｼ","kana_address":"ｸﾉﾍﾞ","pref":"滋賀県","city":"野洲市","address":"久野部"},
{"zip_code":"5202331","kana_pref":"ｼｶﾞｹﾝ","kana_city":"ﾔｽｼ","kana_address":"ｺｼﾉﾊﾗ","pref":"滋賀県","city":"野洲市","address":"小篠原"},
{"zip_code":"5202424","kana_pref":"ｼｶﾞｹﾝ","kana_city":"ﾔｽｼ","kana_address":"ｺﾞｼﾞｮｳ","pref":"滋賀県","city":"野洲市","address":"五条"},
{"zip_code":"5202314","kana_pref":"ｼｶﾞｹﾝ","kana_city":"ﾔｽｼ","kana_address":"ｺﾂﾞﾂﾐ","pref":"滋賀県","city":"野洲市","address":"小堤"},
{"zip_code":"5202364","kana_pref":"ｼｶﾞｹﾝ","kana_city":"ﾔｽｼ","kana_address":"ｺﾞﾉﾘ","pref":"滋賀県","city":"野洲市","address":"五之里"},
{"zip_code":"5202437","kana_pref":"ｼｶﾞｹﾝ","kana_city":"ﾔｽｼ","kana_address":"ｺﾋﾞｴ","pref":"滋賀県","city":"野洲市","address":"小比江"},
{"zip_code":"5202301","kana_pref":"ｼｶﾞｹﾝ","kana_city":"ﾔｽｼ","kana_address":"ｺﾐﾅﾐ","pref":"滋賀県","city":"野洲市","address":"小南"},
{"zip_code":"5202333","kana_pref":"ｼｶﾞｹﾝ","kana_city":"ﾔｽｼ","kana_address":"ｻｶｴ","pref":"滋賀県","city":"野洲市","address":"栄"},
{"zip_code":"5202417","kana_pref":"ｼｶﾞｹﾝ","kana_city":"ﾔｽｼ","kana_address":"ｼﾓﾂﾞﾂﾐ","pref":"滋賀県","city":"野洲市","address":"下堤"},
{"zip_code":"5202415","kana_pref":"ｼｶﾞｹﾝ","kana_city":"ﾔｽｼ","kana_address":"ｽﾜﾗ","pref":"滋賀県","city":"野洲市","address":"須原"},
{"zip_code":"5202302","kana_pref":"ｼｶﾞｹﾝ","kana_city":"ﾔｽｼ","kana_address":"ﾀｶｷﾞ","pref":"滋賀県","city":"野洲市","address":"高木"},
{"zip_code":"5202363","kana_pref":"ｼｶﾞｹﾝ","kana_city":"ﾔｽｼ","kana_address":"ﾀｹｼﾞｮｳ","pref":"滋賀県","city":"野洲市","address":"竹生"},
{"zip_code":"5202315","kana_pref":"ｼｶﾞｹﾝ","kana_city":"ﾔｽｼ","kana_address":"ﾂｼﾞﾏﾁ","pref":"滋賀県","city":"野洲市","address":"辻町"},
{"zip_code":"5202416","kana_pref":"ｼｶﾞｹﾝ","kana_city":"ﾔｽｼ","kana_address":"ﾂﾂﾐ","pref":"滋賀県","city":"野洲市","address":"堤"},
{"zip_code":"5202351","kana_pref":"ｼｶﾞｹﾝ","kana_city":"ﾔｽｼ","kana_address":"ﾄﾊﾞｺｳ","pref":"滋賀県","city":"野洲市","address":"冨波甲"},
{"zip_code":"5202352","kana_pref":"ｼｶﾞｹﾝ","kana_city":"ﾔｽｼ","kana_address":"ﾄﾊﾞｵﾂ","pref":"滋賀県","city":"野洲市","address":"冨波乙"},
{"zip_code":"5202303","kana_pref":"ｼｶﾞｹﾝ","kana_city":"ﾔｽｼ","kana_address":"ﾅｶｷﾀ","pref":"滋賀県","city":"野洲市","address":"中北"},
{"zip_code":"5202311","kana_pref":"ｼｶﾞｹﾝ","kana_city":"ﾔｽｼ","kana_address":"ﾅｶﾞｼﾏ","pref":"滋賀県","city":"野洲市","address":"長島"},
{"zip_code":"5202304","kana_pref":"ｼｶﾞｹﾝ","kana_city":"ﾔｽｼ","kana_address":"ﾅｶﾞﾊﾗ","pref":"滋賀県","city":"野洲市","address":"永原"},
{"zip_code":"5202423","kana_pref":"ｼｶﾞｹﾝ","kana_city":"ﾔｽｼ","kana_address":"ﾆｼｶﾞﾜﾗ","pref":"滋賀県","city":"野洲市","address":"西河原"},
{"zip_code":"5202421","kana_pref":"ｼｶﾞｹﾝ","kana_city":"ﾔｽｼ","kana_address":"ﾉﾀﾞ","pref":"滋賀県","city":"野洲市","address":"野田"},
{"zip_code":"5202434","kana_pref":"ｼｶﾞｹﾝ","kana_city":"ﾔｽｼ","kana_address":"ﾋｴ","pref":"滋賀県","city":"野洲市","address":"比江"},
{"zip_code":"5202422","kana_pref":"ｼｶﾞｹﾝ","kana_city":"ﾔｽｼ","kana_address":"ﾋﾙﾀ","pref":"滋賀県","city":"野洲市","address":"比留田"},
{"zip_code":"5202323","kana_pref":"ｼｶﾞｹﾝ","kana_city":"ﾔｽｼ","kana_address":"ﾐｶﾐ","pref":"滋賀県","city":"野洲市","address":"三上"},
{"zip_code":"5202322","kana_pref":"ｼｶﾞｹﾝ","kana_city":"ﾔｽｼ","kana_address":"ﾐﾅﾐｻﾞｸﾗ","pref":"滋賀県","city":"野洲市","address":"南桜"},
{"zip_code":"5202332","kana_pref":"ｼｶﾞｹﾝ","kana_city":"ﾔｽｼ","kana_address":"ﾐｮｳｺｳｼﾞ","pref":"滋賀県","city":"野洲市","address":"妙光寺"},
{"zip_code":"5202432","kana_pref":"ｼｶﾞｹﾝ","kana_city":"ﾔｽｼ","kana_address":"ﾑｼｭｳ","pref":"滋賀県","city":"野洲市","address":"虫生"},
{"zip_code":"5202342","kana_pref":"ｼｶﾞｹﾝ","kana_city":"ﾔｽｼ","kana_address":"ﾔｽ","pref":"滋賀県","city":"野洲市","address":"野洲"},
{"zip_code":"5202433","kana_pref":"ｼｶﾞｹﾝ","kana_city":"ﾔｽｼ","kana_address":"ﾔﾌﾞ","pref":"滋賀県","city":"野洲市","address":"八夫"},
{"zip_code":"5202341","kana_pref":"ｼｶﾞｹﾝ","kana_city":"ﾔｽｼ","kana_address":"ﾕｷﾊﾀ","pref":"滋賀県","city":"野洲市","address":"行畑"},
{"zip_code":"5202413","kana_pref":"ｼｶﾞｹﾝ","kana_city":"ﾔｽｼ","kana_address":"ﾖｼｼﾞ","pref":"滋賀県","city":"野洲市","address":"吉地"},
{"zip_code":"5202412","kana_pref":"ｼｶﾞｹﾝ","kana_city":"ﾔｽｼ","kana_address":"ﾛｸｼﾞｮｳ","pref":"滋賀県","city":"野洲市","address":"六条"},
{"zip_code":"5203200","kana_pref":"ｼｶﾞｹﾝ","kana_city":"ｺﾅﾝｼ","kana_address":"","pref":"滋賀県","city":"湖南市","address":""},
{"zip_code":"5203251","kana_pref":"ｼｶﾞｹﾝ","kana_city":"ｺﾅﾝｼ","kana_address":"ｱｻｸﾆ","pref":"滋賀県","city":"湖南市","address":"朝国"},
{"zip_code":"5203116","kana_pref":"ｼｶﾞｹﾝ","kana_city":"ｺﾅﾝｼ","kana_address":"ｱﾒﾔﾏ","pref":"滋賀県","city":"湖南市","address":"雨山"},
{"zip_code":"5203101","kana_pref":"ｼｶﾞｹﾝ","kana_city":"ｺﾅﾝｼ","kana_address":"ｲｼﾍﾞ","pref":"滋賀県","city":"湖南市","address":"石部"},
{"zip_code":"5203109","kana_pref":"ｼｶﾞｹﾝ","kana_city":"ｺﾅﾝｼ","kana_address":"ｲｼﾍﾞｶﾞｵｶ","pref":"滋賀県","city":"湖南市","address":"石部が丘"},
{"zip_code":"5203113","kana_pref":"ｼｶﾞｹﾝ","kana_city":"ｺﾅﾝｼ","kana_address":"ｲｼﾍﾞｷﾀ","pref":"滋賀県","city":"湖南市","address":"石部北"},
{"zip_code":"5203114","kana_pref":"ｼｶﾞｹﾝ","kana_city":"ｺﾅﾝｼ","kana_address":"ｲｼﾍﾞｸﾞﾁ","pref":"滋賀県","city":"湖南市","address":"石部口"},
{"zip_code":"5203106","kana_pref":"ｼｶﾞｹﾝ","kana_city":"ｺﾅﾝｼ","kana_address":"ｲｼﾍﾞﾁｭｳｵｳ","pref":"滋賀県","city":"湖南市","address":"石部中央"},
{"zip_code":"5203105","kana_pref":"ｼｶﾞｹﾝ","kana_city":"ｺﾅﾝｼ","kana_address":"ｲｼﾍﾞﾆｼ","pref":"滋賀県","city":"湖南市","address":"石部西"},
{"zip_code":"5203107","kana_pref":"ｼｶﾞｹﾝ","kana_city":"ｺﾅﾝｼ","kana_address":"ｲｼﾍﾞﾋｶﾞｼ","pref":"滋賀県","city":"湖南市","address":"石部東"},
{"zip_code":"5203115","kana_pref":"ｼｶﾞｹﾝ","kana_city":"ｺﾅﾝｼ","kana_address":"ｲｼﾍﾞﾐﾄﾞﾘﾀﾞｲ","pref":"滋賀県","city":"湖南市","address":"石部緑台"},
{"zip_code":"5203108","kana_pref":"ｼｶﾞｹﾝ","kana_city":"ｺﾅﾝｼ","kana_address":"ｲｼﾍﾞﾐﾅﾐ","pref":"滋賀県","city":"湖南市","address":"石部南"},
{"zip_code":"5203252","kana_pref":"ｼｶﾞｹﾝ","kana_city":"ｺﾅﾝｼ","kana_address":"ｲﾜﾈ","pref":"滋賀県","city":"湖南市","address":"岩根"},
{"zip_code":"5203254","kana_pref":"ｼｶﾞｹﾝ","kana_city":"ｺﾅﾝｼ","kana_address":"ｲﾜﾈﾁｭｳｵｳ","pref":"滋賀県","city":"湖南市","address":"岩根中央"},
{"zip_code":"5203214","kana_pref":"ｼｶﾞｹﾝ","kana_city":"ｺﾅﾝｼ","kana_address":"ｳﾒｶｹﾞﾁｮｳ","pref":"滋賀県","city":"湖南市","address":"梅影町"},
{"zip_code":"5203245","kana_pref":"ｼｶﾞｹﾝ","kana_city":"ｺﾅﾝｼ","kana_address":"ｵｳﾐﾀﾞｲ","pref":"滋賀県","city":"湖南市","address":"近江台"},
{"zip_code":"5203213","kana_pref":"ｼｶﾞｹﾝ","kana_city":"ｺﾅﾝｼ","kana_address":"ｵｵｲｹﾁｮｳ","pref":"滋賀県","city":"湖南市","address":"大池町"},
{"zip_code":"5203104","kana_pref":"ｼｶﾞｹﾝ","kana_city":"ｺﾅﾝｼ","kana_address":"ｵｶﾃﾞ","pref":"滋賀県","city":"湖南市","address":"岡出"},
{"zip_code":"5203241","kana_pref":"ｼｶﾞｹﾝ","kana_city":"ｺﾅﾝｼ","kana_address":"ｷﾀﾔﾏﾀﾞｲ","pref":"滋賀県","city":"湖南市","address":"北山台"},
{"zip_code":"5203233","kana_pref":"ｼｶﾞｹﾝ","kana_city":"ｺﾅﾝｼ","kana_address":"ｺｳｼﾞﾌﾞｸﾛ","pref":"滋賀県","city":"湖南市","address":"柑子袋"},
{"zip_code":"5203212","kana_pref":"ｼｶﾞｹﾝ","kana_city":"ｺﾅﾝｼ","kana_address":"ｺｽﾅﾁｮｳ","pref":"滋賀県","city":"湖南市","address":"小砂町"},
{"zip_code":"5203244","kana_pref":"ｼｶﾞｹﾝ","kana_city":"ｺﾅﾝｼ","kana_address":"ｻｲﾄﾞﾀｳﾝ","pref":"滋賀県","city":"湖南市","address":"サイドタウン"},
{"zip_code":"5203201","kana_pref":"ｼｶﾞｹﾝ","kana_city":"ｺﾅﾝｼ","kana_address":"ｼﾓﾀﾞ","pref":"滋賀県","city":"湖南市","address":"下田"},
{"zip_code":"5203253","kana_pref":"ｼｶﾞｹﾝ","kana_city":"ｺﾅﾝｼ","kana_address":"ｼｮｳﾌｸｼﾞ","pref":"滋賀県","city":"湖南市","address":"正福寺"},
{"zip_code":"5203211","kana_pref":"ｼｶﾞｹﾝ","kana_city":"ｺﾅﾝｼ","kana_address":"ﾀｶﾏﾂﾁｮｳ","pref":"滋賀県","city":"湖南市","address":"高松町"},
{"zip_code":"5203234","kana_pref":"ｼｶﾞｹﾝ","kana_city":"ｺﾅﾝｼ","kana_address":"ﾁｭｳｵｳ","pref":"滋賀県","city":"湖南市","address":"中央"},
{"zip_code":"5203223","kana_pref":"ｼｶﾞｹﾝ","kana_city":"ｺﾅﾝｼ","kana_address":"ﾅﾂﾐ","pref":"滋賀県","city":"湖南市","address":"夏見"},
{"zip_code":"5203121","kana_pref":"ｼｶﾞｹﾝ","kana_city":"ｺﾅﾝｼ","kana_address":"ﾆｼﾃﾗ","pref":"滋賀県","city":"湖南市","address":"西寺"},
{"zip_code":"5203202","kana_pref":"ｼｶﾞｹﾝ","kana_city":"ｺﾅﾝｼ","kana_address":"ﾆｼﾐﾈﾁｮｳ","pref":"滋賀県","city":"湖南市","address":"西峰町"},
{"zip_code":"5203231","kana_pref":"ｼｶﾞｹﾝ","kana_city":"ｺﾅﾝｼ","kana_address":"ﾊﾘ","pref":"滋賀県","city":"湖南市","address":"針"},
{"zip_code":"5203203","kana_pref":"ｼｶﾞｹﾝ","kana_city":"ｺﾅﾝｼ","kana_address":"ﾋｴﾁｮｳ","pref":"滋賀県","city":"湖南市","address":"日枝町"},
{"zip_code":"5203111","kana_pref":"ｼｶﾞｹﾝ","kana_city":"ｺﾅﾝｼ","kana_address":"ﾋｶﾞｼﾃﾗ","pref":"滋賀県","city":"湖南市","address":"東寺"},
{"zip_code":"5203232","kana_pref":"ｼｶﾞｹﾝ","kana_city":"ｺﾅﾝｼ","kana_address":"ﾋﾗﾏﾂ","pref":"滋賀県","city":"湖南市","address":"平松"},
{"zip_code":"5203235","kana_pref":"ｼｶﾞｹﾝ","kana_city":"ｺﾅﾝｼ","kana_address":"ﾋﾗﾏﾂｷﾀ","pref":"滋賀県","city":"湖南市","address":"平松北"},
{"zip_code":"5203103","kana_pref":"ｼｶﾞｹﾝ","kana_city":"ｺﾅﾝｼ","kana_address":"ﾎｳﾗｲｻﾞｶ","pref":"滋賀県","city":"湖南市","address":"宝来坂"},
{"zip_code":"5203242","kana_pref":"ｼｶﾞｹﾝ","kana_city":"ｺﾅﾝｼ","kana_address":"ﾎﾞﾀﾞｲｼﾞ","pref":"滋賀県","city":"湖南市","address":"菩提寺"},
{"zip_code":"5203246","kana_pref":"ｼｶﾞｹﾝ","kana_city":"ｺﾅﾝｼ","kana_address":"ﾎﾞﾀﾞｲｼﾞｷﾀ","pref":"滋賀県","city":"湖南市","address":"菩提寺北"},
{"zip_code":"5203243","kana_pref":"ｼｶﾞｹﾝ","kana_city":"ｺﾅﾝｼ","kana_address":"ﾎﾞﾀﾞｲｼﾞｼﾝﾏﾁ","pref":"滋賀県","city":"湖南市","address":"菩提寺新町"},
{"zip_code":"5203112","kana_pref":"ｼｶﾞｹﾝ","kana_city":"ｺﾅﾝｼ","kana_address":"ﾏﾙﾔﾏ","pref":"滋賀県","city":"湖南市","address":"丸山"},
{"zip_code":"5203221","kana_pref":"ｼｶﾞｹﾝ","kana_city":"ｺﾅﾝｼ","kana_address":"ﾐｸﾓ","pref":"滋賀県","city":"湖南市","address":"三雲"},
{"zip_code":"5203215","kana_pref":"ｼｶﾞｹﾝ","kana_city":"ｺﾅﾝｼ","kana_address":"ﾐﾄﾁｮｳ","pref":"滋賀県","city":"湖南市","address":"水戸町"},
{"zip_code":"5203102","kana_pref":"ｼｶﾞｹﾝ","kana_city":"ｺﾅﾝｼ","kana_address":"ﾐﾔﾉﾓﾘ","pref":"滋賀県","city":"湖南市","address":"宮の森"},
{"zip_code":"5203222","kana_pref":"ｼｶﾞｹﾝ","kana_city":"ｺﾅﾝｼ","kana_address":"ﾖｼﾅｶﾞ","pref":"滋賀県","city":"湖南市","address":"吉永"},
{"zip_code":"5203216","kana_pref":"ｼｶﾞｹﾝ","kana_city":"ｺﾅﾝｼ","kana_address":"ﾜｶﾀｹﾁｮｳ","pref":"滋賀県","city":"湖南市","address":"若竹町"},
{"zip_code":"5201100","kana_pref":"ｼｶﾞｹﾝ","kana_city":"ﾀｶｼﾏｼ","kana_address":"","pref":"滋賀県","city":"高島市","address":""},
{"zip_code":"5201221","kana_pref":"ｼｶﾞｹﾝ","kana_city":"ﾀｶｼﾏｼ","kana_address":"ｱﾄﾞｶﾞﾜﾁｮｳｱｵﾔｷﾞ","pref":"滋賀県","city":"高島市","address":"安曇川町青柳"},
{"zip_code":"5201224","kana_pref":"ｼｶﾞｹﾝ","kana_city":"ﾀｶｼﾏｼ","kana_address":"ｱﾄﾞｶﾞﾜﾁｮｳｶﾐｵｶﾞﾜ","pref":"滋賀県","city":"高島市","address":"安曇川町上小川"},
{"zip_code":"5201201","kana_pref":"ｼｶﾞｹﾝ","kana_city":"ﾀｶｼﾏｼ","kana_address":"ｱﾄﾞｶﾞﾜﾁｮｳｶﾐｺｶﾞ","pref":"滋賀県","city":"高島市","address":"安曇川町上古賀"},
{"zip_code":"5201231","kana_pref":"ｼｶﾞｹﾝ","kana_city":"ﾀｶｼﾏｼ","kana_address":"ｱﾄﾞｶﾞﾜﾁｮｳｶﾜｼﾏ","pref":"滋賀県","city":"高島市","address":"安曇川町川島"},
{"zip_code":"5201232","kana_pref":"ｼｶﾞｹﾝ","kana_city":"ﾀｶｼﾏｼ","kana_address":"ｱﾄﾞｶﾞﾜﾁｮｳｷﾀﾌﾅｷ","pref":"滋賀県","city":"高島市","address":"安曇川町北船木"},
{"zip_code":"5201213","kana_pref":"ｼｶﾞｹﾝ","kana_city":"ﾀｶｼﾏｼ","kana_address":"ｱﾄﾞｶﾞﾜﾁｮｳｺﾞﾊﾞﾝﾘｮｳ","pref":"滋賀県","city":"高島市","address":"安曇川町五番領"},
{"zip_code":"5201223","kana_pref":"ｼｶﾞｹﾝ","kana_city":"ﾀｶｼﾏｼ","kana_address":"ｱﾄﾞｶﾞﾜﾁｮｳｼﾓｵｶﾞﾜ","pref":"滋賀県","city":"高島市","address":"安曇川町下小川"},
{"zip_code":"5201202","kana_pref":"ｼｶﾞｹﾝ","kana_city":"ﾀｶｼﾏｼ","kana_address":"ｱﾄﾞｶﾞﾜﾁｮｳｼﾓｺｶﾞ","pref":"滋賀県","city":"高島市","address":"安曇川町下古賀"},
{"zip_code":"5201214","kana_pref":"ｼｶﾞｹﾝ","kana_city":"ﾀｶｼﾏｼ","kana_address":"ｱﾄﾞｶﾞﾜﾁｮｳｽｴﾋﾛ","pref":"滋賀県","city":"高島市","address":"安曇川町末広"},
{"zip_code":"5201217","kana_pref":"ｼｶﾞｹﾝ","kana_city":"ﾀｶｼﾏｼ","kana_address":"ｱﾄﾞｶﾞﾜﾁｮｳﾀﾅｶ","pref":"滋賀県","city":"高島市","address":"安曇川町田中"},
{"zip_code":"5201216","kana_pref":"ｼｶﾞｹﾝ","kana_city":"ﾀｶｼﾏｼ","kana_address":"ｱﾄﾞｶﾞﾜﾁｮｳﾁｭｳｵｳ","pref":"滋賀県","city":"高島市","address":"安曇川町中央"},
{"zip_code":"5201211","kana_pref":"ｼｶﾞｹﾝ","kana_city":"ﾀｶｼﾏｼ","kana_address":"ｱﾄﾞｶﾞﾜﾁｮｳﾄｷﾜｷﾞ","pref":"滋賀県","city":"高島市","address":"安曇川町常磐木"},
{"zip_code":"5201205","kana_pref":"ｼｶﾞｹﾝ","kana_city":"ﾀｶｼﾏｼ","kana_address":"ｱﾄﾞｶﾞﾜﾁｮｳﾅｶﾞｵ","pref":"滋賀県","city":"高島市","address":"安曇川町長尾"},
{"zip_code":"5201204","kana_pref":"ｼｶﾞｹﾝ","kana_city":"ﾀｶｼﾏｼ","kana_address":"ｱﾄﾞｶﾞﾜﾁｮｳﾅｶﾉ","pref":"滋賀県","city":"高島市","address":"安曇川町中野"},
{"zip_code":"5201212","kana_pref":"ｼｶﾞｹﾝ","kana_city":"ﾀｶｼﾏｼ","kana_address":"ｱﾄﾞｶﾞﾜﾁｮｳﾆｼﾕﾙｷﾞ","pref":"滋賀県","city":"高島市","address":"安曇川町西万木"},
{"zip_code":"5201215","kana_pref":"ｼｶﾞｹﾝ","kana_city":"ﾀｶｼﾏｼ","kana_address":"ｱﾄﾞｶﾞﾜﾁｮｳﾐｵｻﾞﾄ","pref":"滋賀県","city":"高島市","address":"安曇川町三尾里"},
{"zip_code":"5201203","kana_pref":"ｼｶﾞｹﾝ","kana_city":"ﾀｶｼﾏｼ","kana_address":"ｱﾄﾞｶﾞﾜﾁｮｳﾐﾅﾐｺｶﾞ","pref":"滋賀県","city":"高島市","address":"安曇川町南古賀"},
{"zip_code":"5201233","kana_pref":"ｼｶﾞｹﾝ","kana_city":"ﾀｶｼﾏｼ","kana_address":"ｱﾄﾞｶﾞﾜﾁｮｳﾐﾅﾐﾌﾅｷ","pref":"滋賀県","city":"高島市","address":"安曇川町南船木"},
{"zip_code":"5201222","kana_pref":"ｼｶﾞｹﾝ","kana_city":"ﾀｶｼﾏｼ","kana_address":"ｱﾄﾞｶﾞﾜﾁｮｳﾖｺｴ","pref":"滋賀県","city":"高島市","address":"安曇川町横江"},
{"zip_code":"5201235","kana_pref":"ｼｶﾞｹﾝ","kana_city":"ﾀｶｼﾏｼ","kana_address":"ｱﾄﾞｶﾞﾜﾁｮｳﾖｺｴﾊﾏ","pref":"滋賀県","city":"高島市","address":"安曇川町横江浜"},
{"zip_code":"5201234","kana_pref":"ｼｶﾞｹﾝ","kana_city":"ﾀｶｼﾏｼ","kana_address":"ｱﾄﾞｶﾞﾜﾁｮｳﾖﾂｶﾞﾜ","pref":"滋賀県","city":"高島市","address":"安曇川町四津川"},
{"zip_code":"5201647","kana_pref":"ｼｶﾞｹﾝ","kana_city":"ﾀｶｼﾏｼ","kana_address":"ｲﾏﾂﾞﾁｮｳｱﾏｽｶﾞﾜ","pref":"滋賀県","city":"高島市","address":"今津町天増川"},
{"zip_code":"5201621","kana_pref":"ｼｶﾞｹﾝ","kana_city":"ﾀｶｼﾏｼ","kana_address":"ｲﾏﾂﾞﾁｮｳｲﾏﾂﾞ","pref":"滋賀県","city":"高島市","address":"今津町今津"},
{"zip_code":"5201654","kana_pref":"ｼｶﾞｹﾝ","kana_city":"ﾀｶｼﾏｼ","kana_address":"ｲﾏﾂﾞﾁｮｳｳﾒﾊﾗ","pref":"滋賀県","city":"高島市","address":"今津町梅原"},
{"zip_code":"5201635","kana_pref":"ｼｶﾞｹﾝ","kana_city":"ﾀｶｼﾏｼ","kana_address":"ｲﾏﾂﾞﾁｮｳｵｵﾄﾓ","pref":"滋賀県","city":"高島市","address":"今津町大供"},
{"zip_code":"5201634","kana_pref":"ｼｶﾞｹﾝ","kana_city":"ﾀｶｼﾏｼ","kana_address":"ｲﾏﾂﾞﾁｮｳｵｵﾄﾓﾀﾞｲﾓﾝ","pref":"滋賀県","city":"高島市","address":"今津町大供大門"},
{"zip_code":"5201602","kana_pref":"ｼｶﾞｹﾝ","kana_city":"ﾀｶｼﾏｼ","kana_address":"ｲﾏﾂﾞﾁｮｳｶﾂﾗ","pref":"滋賀県","city":"高島市","address":"今津町桂"},
{"zip_code":"5201613","kana_pref":"ｼｶﾞｹﾝ","kana_city":"ﾀｶｼﾏｼ","kana_address":"ｲﾏﾂﾞﾁｮｳｶﾐﾋﾛﾍﾞ","pref":"滋賀県","city":"高島市","address":"今津町上弘部"},
{"zip_code":"5201653","kana_pref":"ｼｶﾞｹﾝ","kana_city":"ﾀｶｼﾏｼ","kana_address":"ｲﾏﾂﾞﾁｮｳｷｼﾜｷ","pref":"滋賀県","city":"高島市","address":"今津町岸脇"},
{"zip_code":"5201642","kana_pref":"ｼｶﾞｹﾝ","kana_city":"ﾀｶｼﾏｼ","kana_address":"ｲﾏﾂﾞﾁｮｳｷﾀｳﾐ","pref":"滋賀県","city":"高島市","address":"今津町北生見"},
{"zip_code":"5201603","kana_pref":"ｼｶﾞｹﾝ","kana_city":"ﾀｶｼﾏｼ","kana_address":"ｲﾏﾂﾞﾁｮｳｷﾄｹﾞ","pref":"滋賀県","city":"高島市","address":"今津町北仰"},
{"zip_code":"5201632","kana_pref":"ｼｶﾞｹﾝ","kana_city":"ﾀｶｼﾏｼ","kana_address":"ｲﾏﾂﾞﾁｮｳｻｸﾗﾏﾁ","pref":"滋賀県","city":"高島市","address":"今津町桜町"},
{"zip_code":"5201651","kana_pref":"ｼｶﾞｹﾝ","kana_city":"ﾀｶｼﾏｼ","kana_address":"ｲﾏﾂﾞﾁｮｳｻﾅﾐ","pref":"滋賀県","city":"高島市","address":"今津町酒波"},
{"zip_code":"5201612","kana_pref":"ｼｶﾞｹﾝ","kana_city":"ﾀｶｼﾏｼ","kana_address":"ｲﾏﾂﾞﾁｮｳｼﾓﾋﾛﾍﾞ","pref":"滋賀県","city":"高島市","address":"今津町下弘部"},
{"zip_code":"5201633","kana_pref":"ｼｶﾞｹﾝ","kana_city":"ﾀｶｼﾏｼ","kana_address":"ｲﾏﾂﾞﾁｮｳｼｮｳﾖｳﾀﾞｲ","pref":"滋賀県","city":"高島市","address":"今津町松陽台"},
{"zip_code":"5201646","kana_pref":"ｼｶﾞｹﾝ","kana_city":"ﾀｶｼﾏｼ","kana_address":"ｲﾏﾂﾞﾁｮｳｽｷﾞﾔﾏ","pref":"滋賀県","city":"高島市","address":"今津町杉山"},
{"zip_code":"5201623","kana_pref":"ｼｶﾞｹﾝ","kana_city":"ﾀｶｼﾏｼ","kana_address":"ｲﾏﾂﾞﾁｮｳｽﾐﾖｼ","pref":"滋賀県","city":"高島市","address":"今津町住吉"},
{"zip_code":"5201648","kana_pref":"ｼｶﾞｹﾝ","kana_city":"ﾀｶｼﾏｼ","kana_address":"ｲﾏﾂﾞﾁｮｳﾂﾉｶﾞﾜ","pref":"滋賀県","city":"高島市","address":"今津町角川"},
{"zip_code":"5201644","kana_pref":"ｼｶﾞｹﾝ","kana_city":"ﾀｶｼﾏｼ","kana_address":"ｲﾏﾂﾞﾁｮｳﾄﾁｭｳﾀﾞﾆ","pref":"滋賀県","city":"高島市","address":"今津町途中谷"},
{"zip_code":"5201622","kana_pref":"ｼｶﾞｹﾝ","kana_city":"ﾀｶｼﾏｼ","kana_address":"ｲﾏﾂﾞﾁｮｳﾅｶﾇﾏ","pref":"滋賀県","city":"高島市","address":"今津町中沼"},
{"zip_code":"5201631","kana_pref":"ｼｶﾞｹﾝ","kana_city":"ﾀｶｼﾏｼ","kana_address":"ｲﾏﾂﾞﾁｮｳﾅｺｼﾞ","pref":"滋賀県","city":"高島市","address":"今津町名小路"},
{"zip_code":"5201604","kana_pref":"ｼｶﾞｹﾝ","kana_city":"ﾀｶｼﾏｼ","kana_address":"ｲﾏﾂﾞﾁｮｳﾊﾏﾌﾞﾝ","pref":"滋賀県","city":"高島市","address":"今津町浜分"},
{"zip_code":"5201655","kana_pref":"ｼｶﾞｹﾝ","kana_city":"ﾀｶｼﾏｼ","kana_address":"ｲﾏﾂﾞﾁｮｳﾋｵｷﾏｴ","pref":"滋賀県","city":"高島市","address":"今津町日置前"},
{"zip_code":"5201611","kana_pref":"ｼｶﾞｹﾝ","kana_city":"ﾀｶｼﾏｼ","kana_address":"ｲﾏﾂﾞﾁｮｳﾋﾛｶﾜ","pref":"滋賀県","city":"高島市","address":"今津町弘川"},
{"zip_code":"5201601","kana_pref":"ｼｶﾞｹﾝ","kana_city":"ﾀｶｼﾏｼ","kana_address":"ｲﾏﾂﾞﾁｮｳﾌｶｼﾐｽﾞ","pref":"滋賀県","city":"高島市","address":"今津町深清水"},
{"zip_code":"5201652","kana_pref":"ｼｶﾞｹﾝ","kana_city":"ﾀｶｼﾏｼ","kana_address":"ｲﾏﾂﾞﾁｮｳﾌｸｵｶ","pref":"滋賀県","city":"高島市","address":"今津町福岡"},
{"zip_code":"5201636","kana_pref":"ｼｶﾞｹﾝ","kana_city":"ﾀｶｼﾏｼ","kana_address":"ｲﾏﾂﾞﾁｮｳﾌﾅﾊﾞｼ","pref":"滋賀県","city":"高島市","address":"今津町舟橋"},
{"zip_code":"5201643","kana_pref":"ｼｶﾞｹﾝ","kana_city":"ﾀｶｼﾏｼ","kana_address":"ｲﾏﾂﾞﾁｮｳﾎｳｻﾞｶ","pref":"滋賀県","city":"高島市","address":"今津町保坂"},
{"zip_code":"5201641","kana_pref":"ｼｶﾞｹﾝ","kana_city":"ﾀｶｼﾏｼ","kana_address":"ｲﾏﾂﾞﾁｮｳﾐﾅﾐｳﾐ","pref":"滋賀県","city":"高島市","address":"今津町南生見"},
{"zip_code":"5201605","kana_pref":"ｼｶﾞｹﾝ","kana_city":"ﾀｶｼﾏｼ","kana_address":"ｲﾏﾂﾞﾁｮｳﾐﾅﾐｼﾝﾎﾞ","pref":"滋賀県","city":"高島市","address":"今津町南新保"},
{"zip_code":"5201645","kana_pref":"ｼｶﾞｹﾝ","kana_city":"ﾀｶｼﾏｼ","kana_address":"ｲﾏﾂﾞﾁｮｳﾑｸｶﾞﾜ","pref":"滋賀県","city":"高島市","address":"今津町椋川"},
{"zip_code":"5201614","kana_pref":"ｼｶﾞｹﾝ","kana_city":"ﾀｶｼﾏｼ","kana_address":"ｲﾏﾂﾞﾁｮｳﾕｳ","pref":"滋賀県","city":"高島市","address":"今津町藺生"},
{"zip_code":"5201122","kana_pref":"ｼｶﾞｹﾝ","kana_city":"ﾀｶｼﾏｼ","kana_address":"ｳｶﾜ","pref":"滋賀県","city":"高島市","address":"鵜川"},
{"zip_code":"5201131","kana_pref":"ｼｶﾞｹﾝ","kana_city":"ﾀｶｼﾏｼ","kana_address":"ｵﾄﾜ","pref":"滋賀県","city":"高島市","address":"音羽"},
{"zip_code":"5201121","kana_pref":"ｼｶﾞｹﾝ","kana_city":"ﾀｶｼﾏｼ","kana_address":"ｶﾂﾉ","pref":"滋賀県","city":"高島市","address":"勝野"},
{"zip_code":"5201111","kana_pref":"ｼｶﾞｹﾝ","kana_city":"ﾀｶｼﾏｼ","kana_address":"ｶﾓ","pref":"滋賀県","city":"高島市","address":"鴨"},
{"zip_code":"5201133","kana_pref":"ｼｶﾞｹﾝ","kana_city":"ﾀｶｼﾏｼ","kana_address":"ｶﾓｶﾞﾜﾀﾞｲﾗ","pref":"滋賀県","city":"高島市","address":"鴨川平"},
{"zip_code":"5201451","kana_pref":"ｼｶﾞｹﾝ","kana_city":"ﾀｶｼﾏｼ","kana_address":"ｸﾂｷｱｿｳ","pref":"滋賀県","city":"高島市","address":"朽木麻生"},
{"zip_code":"5201411","kana_pref":"ｼｶﾞｹﾝ","kana_city":"ﾀｶｼﾏｼ","kana_address":"ｸﾂｷｱﾗｶﾜ","pref":"滋賀県","city":"高島市","address":"朽木荒川"},
{"zip_code":"5201401","kana_pref":"ｼｶﾞｹﾝ","kana_city":"ﾀｶｼﾏｼ","kana_address":"ｸﾂｷｲﾁﾊﾞ","pref":"滋賀県","city":"高島市","address":"朽木市場"},
{"zip_code":"5201421","kana_pref":"ｼｶﾞｹﾝ","kana_city":"ﾀｶｼﾏｼ","kana_address":"ｸﾂｷｲﾜｾ","pref":"滋賀県","city":"高島市","address":"朽木岩瀬"},
{"zip_code":"5201413","kana_pref":"ｼｶﾞｹﾝ","kana_city":"ﾀｶｼﾏｼ","kana_address":"ｸﾂｷｳｴﾉ","pref":"滋賀県","city":"高島市","address":"朽木上野"},
{"zip_code":"5201453","kana_pref":"ｼｶﾞｹﾝ","kana_city":"ﾀｶｼﾏｼ","kana_address":"ｸﾂｷｳﾄｳﾀﾞﾆ","pref":"滋賀県","city":"高島市","address":"朽木雲洞谷"},
{"zip_code":"5201442","kana_pref":"ｼｶﾞｹﾝ","kana_city":"ﾀｶｼﾏｼ","kana_address":"ｸﾂｷｵｲｽｷﾞ","pref":"滋賀県","city":"高島市","address":"朽木生杉"},
{"zip_code":"5201423","kana_pref":"ｼｶﾞｹﾝ","kana_city":"ﾀｶｼﾏｼ","kana_address":"ｸﾂｷｵｵﾉ","pref":"滋賀県","city":"高島市","address":"朽木大野"},
{"zip_code":"5201443","kana_pref":"ｼｶﾞｹﾝ","kana_city":"ﾀｶｼﾏｼ","kana_address":"ｸﾂｷｵﾆｭｳﾀﾞﾆ","pref":"滋賀県","city":"高島市","address":"朽木小入谷"},
{"zip_code":"5201415","kana_pref":"ｼｶﾞｹﾝ","kana_city":"ﾀｶｼﾏｼ","kana_address":"ｸﾂｷｶｾ","pref":"滋賀県","city":"高島市","address":"朽木柏"},
{"zip_code":"5201455","kana_pref":"ｼｶﾞｹﾝ","kana_city":"ﾀｶｼﾏｼ","kana_address":"ｸﾂｷｷｼﾞﾔﾏ","pref":"滋賀県","city":"高島市","address":"朽木木地山"},
{"zip_code":"5201433","kana_pref":"ｼｶﾞｹﾝ","kana_city":"ﾀｶｼﾏｼ","kana_address":"ｸﾂｷｸﾜﾊﾞﾗ","pref":"滋賀県","city":"高島市","address":"朽木桑原"},
{"zip_code":"5201431","kana_pref":"ｼｶﾞｹﾝ","kana_city":"ﾀｶｼﾏｼ","kana_address":"ｸﾂｷｺｶﾞﾜ","pref":"滋賀県","city":"高島市","address":"朽木小川"},
{"zip_code":"5201452","kana_pref":"ｼｶﾞｹﾝ","kana_city":"ﾀｶｼﾏｼ","kana_address":"ｸﾂｷｼﾞｼﾊﾗ","pref":"滋賀県","city":"高島市","address":"朽木地子原"},
{"zip_code":"5201425","kana_pref":"ｼｶﾞｹﾝ","kana_city":"ﾀｶｼﾏｼ","kana_address":"ｸﾂｷﾄﾁｭｳ","pref":"滋賀県","city":"高島市","address":"朽木栃生"},
{"zip_code":"5201444","kana_pref":"ｼｶﾞｹﾝ","kana_city":"ﾀｶｼﾏｼ","kana_address":"ｸﾂｷﾅｶﾏｷ","pref":"滋賀県","city":"高島市","address":"朽木中牧"},
{"zip_code":"5201454","kana_pref":"ｼｶﾞｹﾝ","kana_city":"ﾀｶｼﾏｼ","kana_address":"ｸﾂｷﾉｳｹﾞ","pref":"滋賀県","city":"高島市","address":"朽木能家"},
{"zip_code":"5201412","kana_pref":"ｼｶﾞｹﾝ","kana_city":"ﾀｶｼﾏｼ","kana_address":"ｸﾂｷﾉｼﾞﾘ","pref":"滋賀県","city":"高島市","address":"朽木野尻"},
{"zip_code":"5201422","kana_pref":"ｼｶﾞｹﾝ","kana_city":"ﾀｶｼﾏｼ","kana_address":"ｸﾂｷﾌﾙｶﾜ","pref":"滋賀県","city":"高島市","address":"朽木古川"},
{"zip_code":"5201441","kana_pref":"ｼｶﾞｹﾝ","kana_city":"ﾀｶｼﾏｼ","kana_address":"ｸﾂｷﾌﾙﾔ","pref":"滋賀県","city":"高島市","address":"朽木古屋"},
{"zip_code":"5201432","kana_pref":"ｼｶﾞｹﾝ","kana_city":"ﾀｶｼﾏｼ","kana_address":"ｸﾂｷﾍﾗ","pref":"滋賀県","city":"高島市","address":"朽木平良"},
{"zip_code":"5201414","kana_pref":"ｼｶﾞｹﾝ","kana_city":"ﾀｶｼﾏｼ","kana_address":"ｸﾂｷﾐﾔﾏｴﾎﾞｳ","pref":"滋賀県","city":"高島市","address":"朽木宮前坊"},
{"zip_code":"5201424","kana_pref":"ｼｶﾞｹﾝ","kana_city":"ﾀｶｼﾏｼ","kana_address":"ｸﾂｷﾑﾗｲ","pref":"滋賀県","city":"高島市","address":"朽木村井"},
{"zip_code":"5201143","kana_pref":"ｼｶﾞｹﾝ","kana_city":"ﾀｶｼﾏｼ","kana_address":"ｸﾛﾀﾞﾆ","pref":"滋賀県","city":"高島市","address":"黒谷"},
{"zip_code":"5201142","kana_pref":"ｼｶﾞｹﾝ","kana_city":"ﾀｶｼﾏｼ","kana_address":"ｼｼｶﾞｾ","pref":"滋賀県","city":"高島市","address":"鹿ケ瀬"},
{"zip_code":"5201123","kana_pref":"ｼｶﾞｹﾝ","kana_city":"ﾀｶｼﾏｼ","kana_address":"ｼﾛﾔﾏﾀﾞｲ","pref":"滋賀県","city":"高島市","address":"城山台"},
{"zip_code":"5201531","kana_pref":"ｼｶﾞｹﾝ","kana_city":"ﾀｶｼﾏｼ","kana_address":"ｼﾝｱｻﾋﾁｮｳｱｲﾊﾞ","pref":"滋賀県","city":"高島市","address":"新旭町饗庭"},
{"zip_code":"5201501","kana_pref":"ｼｶﾞｹﾝ","kana_city":"ﾀｶｼﾏｼ","kana_address":"ｼﾝｱｻﾋﾁｮｳｱｻﾋ","pref":"滋賀県","city":"高島市","address":"新旭町旭"},
{"zip_code":"5201512","kana_pref":"ｼｶﾞｹﾝ","kana_city":"ﾀｶｼﾏｼ","kana_address":"ｼﾝｱｻﾋﾁｮｳｵｵﾀ","pref":"滋賀県","city":"高島市","address":"新旭町太田"},
{"zip_code":"5201521","kana_pref":"ｼｶﾞｹﾝ","kana_city":"ﾀｶｼﾏｼ","kana_address":"ｼﾝｱｻﾋﾁｮｳｷﾀﾊﾞﾀ","pref":"滋賀県","city":"高島市","address":"新旭町北畑"},
{"zip_code":"5201532","kana_pref":"ｼｶﾞｹﾝ","kana_city":"ﾀｶｼﾏｼ","kana_address":"ｼﾝｱｻﾋﾁｮｳｸﾏﾉﾓﾄ","pref":"滋賀県","city":"高島市","address":"新旭町熊野本"},
{"zip_code":"5201522","kana_pref":"ｼｶﾞｹﾝ","kana_city":"ﾀｶｼﾏｼ","kana_address":"ｼﾝｱｻﾋﾁｮｳｼﾝｼﾞｮｳ","pref":"滋賀県","city":"高島市","address":"新旭町新庄"},
{"zip_code":"5201502","kana_pref":"ｼｶﾞｹﾝ","kana_city":"ﾀｶｼﾏｼ","kana_address":"ｼﾝｱｻﾋﾁｮｳﾊﾘｴ","pref":"滋賀県","city":"高島市","address":"新旭町針江"},
{"zip_code":"5201503","kana_pref":"ｼｶﾞｹﾝ","kana_city":"ﾀｶｼﾏｼ","kana_address":"ｼﾝｱｻﾋﾁｮｳﾌｶﾐｿﾞ","pref":"滋賀県","city":"高島市","address":"新旭町深溝"},
{"zip_code":"5201533","kana_pref":"ｼｶﾞｹﾝ","kana_city":"ﾀｶｼﾏｼ","kana_address":"ｼﾝｱｻﾋﾁｮｳﾔｽｲｶﾞﾜ","pref":"滋賀県","city":"高島市","address":"新旭町安井川"},
{"zip_code":"5201511","kana_pref":"ｼｶﾞｹﾝ","kana_city":"ﾀｶｼﾏｼ","kana_address":"ｼﾝｱｻﾋﾁｮｳﾜﾗｿﾉ","pref":"滋賀県","city":"高島市","address":"新旭町藁園"},
{"zip_code":"5201141","kana_pref":"ｼｶﾞｹﾝ","kana_city":"ﾀｶｼﾏｼ","kana_address":"ﾀｶｼﾏ","pref":"滋賀県","city":"高島市","address":"高島"},
{"zip_code":"5201112","kana_pref":"ｼｶﾞｹﾝ","kana_city":"ﾀｶｼﾏｼ","kana_address":"ﾅｶﾞﾀ","pref":"滋賀県","city":"高島市","address":"永田"},
{"zip_code":"5201102","kana_pref":"ｼｶﾞｹﾝ","kana_city":"ﾀｶｼﾏｼ","kana_address":"ﾉﾀﾞ","pref":"滋賀県","city":"高島市","address":"野田"},
{"zip_code":"5201132","kana_pref":"ｼｶﾞｹﾝ","kana_city":"ﾀｶｼﾏｼ","kana_address":"ﾊｲﾄﾞ","pref":"滋賀県","city":"高島市","address":"拝戸"},
{"zip_code":"5201144","kana_pref":"ｼｶﾞｹﾝ","kana_city":"ﾀｶｼﾏｼ","kana_address":"ﾊﾀ","pref":"滋賀県","city":"高島市","address":"畑"},
{"zip_code":"5201801","kana_pref":"ｼｶﾞｹﾝ","kana_city":"ﾀｶｼﾏｼ","kana_address":"ﾏｷﾉﾁｮｳｱﾘﾊﾗ","pref":"滋賀県","city":"高島市","address":"マキノ町在原"},
{"zip_code":"5201835","kana_pref":"ｼｶﾞｹﾝ","kana_city":"ﾀｶｼﾏｼ","kana_address":"ﾏｷﾉﾁｮｳｲｼﾊﾞ","pref":"滋賀県","city":"高島市","address":"マキノ町石庭"},
{"zip_code":"5201804","kana_pref":"ｼｶﾞｹﾝ","kana_city":"ﾀｶｼﾏｼ","kana_address":"ﾏｷﾉﾁｮｳｳﾗ","pref":"滋賀県","city":"高島市","address":"マキノ町浦"},
{"zip_code":"5201824","kana_pref":"ｼｶﾞｹﾝ","kana_city":"ﾀｶｼﾏｼ","kana_address":"ﾏｷﾉﾁｮｳｵｵﾇﾏ","pref":"滋賀県","city":"高島市","address":"マキノ町大沼"},
{"zip_code":"5201811","kana_pref":"ｼｶﾞｹﾝ","kana_city":"ﾀｶｼﾏｼ","kana_address":"ﾏｷﾉﾁｮｳｶｲﾂﾞ","pref":"滋賀県","city":"高島市","address":"マキノ町海津"},
{"zip_code":"5201831","kana_pref":"ｼｶﾞｹﾝ","kana_city":"ﾀｶｼﾏｼ","kana_address":"ﾏｷﾉﾁｮｳｶﾐｶｲﾃﾞ","pref":"滋賀県","city":"高島市","address":"マキノ町上開田"},
{"zip_code":"5201803","kana_pref":"ｼｶﾞｹﾝ","kana_city":"ﾀｶｼﾏｼ","kana_address":"ﾏｷﾉﾁｮｳｺｱﾗｼﾞ","pref":"滋賀県","city":"高島市","address":"マキノ町小荒路"},
{"zip_code":"5201821","kana_pref":"ｼｶﾞｹﾝ","kana_city":"ﾀｶｼﾏｼ","kana_address":"ﾏｷﾉﾁｮｳｻﾜ","pref":"滋賀県","city":"高島市","address":"マキノ町沢"},
{"zip_code":"5201805","kana_pref":"ｼｶﾞｹﾝ","kana_city":"ﾀｶｼﾏｼ","kana_address":"ﾏｷﾉﾁｮｳｼﾓ","pref":"滋賀県","city":"高島市","address":"マキノ町下"},
{"zip_code":"5201832","kana_pref":"ｼｶﾞｹﾝ","kana_city":"ﾀｶｼﾏｼ","kana_address":"ﾏｷﾉﾁｮｳｼﾓｶｲﾃﾞ","pref":"滋賀県","city":"高島市","address":"マキノ町下開田"},
{"zip_code":"5201837","kana_pref":"ｼｶﾞｹﾝ","kana_city":"ﾀｶｼﾏｼ","kana_address":"ﾏｷﾉﾁｮｳｼﾗﾀﾆ","pref":"滋賀県","city":"高島市","address":"マキノ町白谷"},
{"zip_code":"5201822","kana_pref":"ｼｶﾞｹﾝ","kana_city":"ﾀｶｼﾏｼ","kana_address":"ﾏｷﾉﾁｮｳｼﾝﾎﾞ","pref":"滋賀県","city":"高島市","address":"マキノ町新保"},
{"zip_code":"5201813","kana_pref":"ｼｶﾞｹﾝ","kana_city":"ﾀｶｼﾏｼ","kana_address":"ﾏｷﾉﾁｮｳﾀｶｷﾞﾊﾏ","pref":"滋賀県","city":"高島市","address":"マキノ町高木浜"},
{"zip_code":"5201814","kana_pref":"ｼｶﾞｹﾝ","kana_city":"ﾀｶｼﾏｼ","kana_address":"ﾏｷﾉﾁｮｳﾁﾅｲ","pref":"滋賀県","city":"高島市","address":"マキノ町知内"},
{"zip_code":"5201826","kana_pref":"ｼｶﾞｹﾝ","kana_city":"ﾀｶｼﾏｼ","kana_address":"ﾏｷﾉﾁｮｳﾂｼﾞ","pref":"滋賀県","city":"高島市","address":"マキノ町辻"},
{"zip_code":"5201834","kana_pref":"ｼｶﾞｹﾝ","kana_city":"ﾀｶｼﾏｼ","kana_address":"ﾏｷﾉﾁｮｳﾃﾗｸﾎﾞ","pref":"滋賀県","city":"高島市","address":"マキノ町寺久保"},
{"zip_code":"5201823","kana_pref":"ｼｶﾞｹﾝ","kana_city":"ﾀｶｼﾏｼ","kana_address":"ﾏｷﾉﾁｮｳﾅｶｼｮｳ","pref":"滋賀県","city":"高島市","address":"マキノ町中庄"},
{"zip_code":"5201812","kana_pref":"ｼｶﾞｹﾝ","kana_city":"ﾀｶｼﾏｼ","kana_address":"ﾏｷﾉﾁｮｳﾆｼﾊﾏ","pref":"滋賀県","city":"高島市","address":"マキノ町西浜"},
{"zip_code":"5201802","kana_pref":"ｼｶﾞｹﾝ","kana_city":"ﾀｶｼﾏｼ","kana_address":"ﾏｷﾉﾁｮｳﾉｸﾞﾁ","pref":"滋賀県","city":"高島市","address":"マキノ町野口"},
{"zip_code":"5201833","kana_pref":"ｼｶﾞｹﾝ","kana_city":"ﾀｶｼﾏｼ","kana_address":"ﾏｷﾉﾁｮｳﾋﾙｸﾞﾁ","pref":"滋賀県","city":"高島市","address":"マキノ町蛭口"},
{"zip_code":"5201836","kana_pref":"ｼｶﾞｹﾝ","kana_city":"ﾀｶｼﾏｼ","kana_address":"ﾏｷﾉﾁｮｳﾏｷﾉ","pref":"滋賀県","city":"高島市","address":"マキノ町牧野"},
{"zip_code":"5201825","kana_pref":"ｼｶﾞｹﾝ","kana_city":"ﾀｶｼﾏｼ","kana_address":"ﾏｷﾉﾁｮｳﾓﾘﾆｼ","pref":"滋賀県","city":"高島市","address":"マキノ町森西"},
{"zip_code":"5201806","kana_pref":"ｼｶﾞｹﾝ","kana_city":"ﾀｶｼﾏｼ","kana_address":"ﾏｷﾉﾁｮｳﾔﾏﾅｶ","pref":"滋賀県","city":"高島市","address":"マキノ町山中"},
{"zip_code":"5201103","kana_pref":"ｼｶﾞｹﾝ","kana_city":"ﾀｶｼﾏｼ","kana_address":"ﾐﾔﾉ","pref":"滋賀県","city":"高島市","address":"宮野"},
{"zip_code":"5201101","kana_pref":"ｼｶﾞｹﾝ","kana_city":"ﾀｶｼﾏｼ","kana_address":"ﾑｿﾖｺﾔﾏ","pref":"滋賀県","city":"高島市","address":"武曽横山"},
{"zip_code":"5202500","kana_pref":"ｼｶﾞｹﾝ","kana_city":"ｶﾞﾓｳｸﾞﾝﾘｭｳｵｳﾁｮｳ","kana_address":"","pref":"滋賀県","city":"蒲生郡竜王町","address":""},
{"zip_code":"5202524","kana_pref":"ｼｶﾞｹﾝ","kana_city":"ｶﾞﾓｳｸﾞﾝﾘｭｳｵｳﾁｮｳ","kana_address":"ｱﾔﾄﾞ","pref":"滋賀県","city":"蒲生郡竜王町","address":"綾戸"},
{"zip_code":"5202522","kana_pref":"ｼｶﾞｹﾝ","kana_city":"ｶﾞﾓｳｸﾞﾝﾘｭｳｵｳﾁｮｳ","kana_address":"ｲﾜｲ","pref":"滋賀県","city":"蒲生郡竜王町","address":"岩井"},
{"zip_code":"5202562","kana_pref":"ｼｶﾞｹﾝ","kana_city":"ｶﾞﾓｳｸﾞﾝﾘｭｳｵｳﾁｮｳ","kana_address":"ｳｶﾜ","pref":"滋賀県","city":"蒲生郡竜王町","address":"鵜川"},
{"zip_code":"5202541","kana_pref":"ｼｶﾞｹﾝ","kana_city":"ｶﾞﾓｳｸﾞﾝﾘｭｳｵｳﾁｮｳ","kana_address":"ｵｶﾔ","pref":"滋賀県","city":"蒲生郡竜王町","address":"岡屋"},
{"zip_code":"5202552","kana_pref":"ｼｶﾞｹﾝ","kana_city":"ｶﾞﾓｳｸﾞﾝﾘｭｳｵｳﾁｮｳ","kana_address":"ｵｸﾞﾁ","pref":"滋賀県","city":"蒲生郡竜王町","address":"小口"},
{"zip_code":"5202573","kana_pref":"ｼｶﾞｹﾝ","kana_city":"ｶﾞﾓｳｸﾞﾝﾘｭｳｵｳﾁｮｳ","kana_address":"ｶｶﾞﾐ","pref":"滋賀県","city":"蒲生郡竜王町","address":"鏡"},
{"zip_code":"5202512","kana_pref":"ｼｶﾞｹﾝ","kana_city":"ｶﾞﾓｳｸﾞﾝﾘｭｳｵｳﾁｮｳ","kana_address":"ｶﾖﾁｮｳ","pref":"滋賀県","city":"蒲生郡竜王町","address":"駕輿丁"},
{"zip_code":"5202504","kana_pref":"ｼｶﾞｹﾝ","kana_city":"ｶﾞﾓｳｸﾞﾝﾘｭｳｵｳﾁｮｳ","kana_address":"ｶﾜｶﾐ","pref":"滋賀県","city":"蒲生郡竜王町","address":"川上"},
{"zip_code":"5202521","kana_pref":"ｼｶﾞｹﾝ","kana_city":"ｶﾞﾓｳｸﾞﾝﾘｭｳｵｳﾁｮｳ","kana_address":"ｶﾜﾓﾘ","pref":"滋賀県","city":"蒲生郡竜王町","address":"川守"},
{"zip_code":"5202551","kana_pref":"ｼｶﾞｹﾝ","kana_city":"ｶﾞﾓｳｸﾞﾝﾘｭｳｵｳﾁｮｳ","kana_address":"ｸｽﾞｼ","pref":"滋賀県","city":"蒲生郡竜王町","address":"薬師"},
{"zip_code":"5202563","kana_pref":"ｼｶﾞｹﾝ","kana_city":"ｶﾞﾓｳｸﾞﾝﾘｭｳｵｳﾁｮｳ","kana_address":"ｼﾁﾘ","pref":"滋賀県","city":"蒲生郡竜王町","address":"七里"},
{"zip_code":"5202503","kana_pref":"ｼｶﾞｹﾝ","kana_city":"ｶﾞﾓｳｸﾞﾝﾘｭｳｵｳﾁｮｳ","kana_address":"ｼﾅﾉ","pref":"滋賀県","city":"蒲生郡竜王町","address":"信濃"},
{"zip_code":"5202513","kana_pref":"ｼｶﾞｹﾝ","kana_city":"ｶﾞﾓｳｸﾞﾝﾘｭｳｵｳﾁｮｳ","kana_address":"ｼﾏ","pref":"滋賀県","city":"蒲生郡竜王町","address":"島"},
{"zip_code":"5202502","kana_pref":"ｼｶﾞｹﾝ","kana_city":"ｶﾞﾓｳｸﾞﾝﾘｭｳｵｳﾁｮｳ","kana_address":"ｼｮｳ","pref":"滋賀県","city":"蒲生郡竜王町","address":"庄"},
{"zip_code":"5202561","kana_pref":"ｼｶﾞｹﾝ","kana_city":"ｶﾞﾓｳｸﾞﾝﾘｭｳｵｳﾁｮｳ","kana_address":"ｽｴ","pref":"滋賀県","city":"蒲生郡竜王町","address":"須恵"},
{"zip_code":"5202523","kana_pref":"ｼｶﾞｹﾝ","kana_city":"ｶﾞﾓｳｸﾞﾝﾘｭｳｵｳﾁｮｳ","kana_address":"ﾀﾅｶ","pref":"滋賀県","city":"蒲生郡竜王町","address":"田中"},
{"zip_code":"5202572","kana_pref":"ｼｶﾞｹﾝ","kana_city":"ｶﾞﾓｳｸﾞﾝﾘｭｳｵｳﾁｮｳ","kana_address":"ﾆｼｶﾞﾜ","pref":"滋賀県","city":"蒲生郡竜王町","address":"西川"},
{"zip_code":"5202571","kana_pref":"ｼｶﾞｹﾝ","kana_city":"ｶﾞﾓｳｸﾞﾝﾘｭｳｵｳﾁｮｳ","kana_address":"ﾆｼﾖｺｾﾞｷ","pref":"滋賀県","city":"蒲生郡竜王町","address":"西横関"},
{"zip_code":"5202514","kana_pref":"ｼｶﾞｹﾝ","kana_city":"ｶﾞﾓｳｸﾞﾝﾘｭｳｵｳﾁｮｳ","kana_address":"ﾊｼﾓﾄ","pref":"滋賀県","city":"蒲生郡竜王町","address":"橋本"},
{"zip_code":"5202511","kana_pref":"ｼｶﾞｹﾝ","kana_city":"ｶﾞﾓｳｸﾞﾝﾘｭｳｵｳﾁｮｳ","kana_address":"ﾊﾔｼ","pref":"滋賀県","city":"蒲生郡竜王町","address":"林"},
{"zip_code":"5202564","kana_pref":"ｼｶﾞｹﾝ","kana_city":"ｶﾞﾓｳｸﾞﾝﾘｭｳｵｳﾁｮｳ","kana_address":"ﾔﾏﾂﾞﾗ","pref":"滋賀県","city":"蒲生郡竜王町","address":"山面"},
{"zip_code":"5202542","kana_pref":"ｼｶﾞｹﾝ","kana_city":"ｶﾞﾓｳｸﾞﾝﾘｭｳｵｳﾁｮｳ","kana_address":"ﾔﾏﾅｶ","pref":"滋賀県","city":"蒲生郡竜王町","address":"山中"},
{"zip_code":"5202531","kana_pref":"ｼｶﾞｹﾝ","kana_city":"ｶﾞﾓｳｸﾞﾝﾘｭｳｵｳﾁｮｳ","kana_address":"ﾔﾏﾉｳｴ","pref":"滋賀県","city":"蒲生郡竜王町","address":"山之上"},
{"zip_code":"5202501","kana_pref":"ｼｶﾞｹﾝ","kana_city":"ｶﾞﾓｳｸﾞﾝﾘｭｳｵｳﾁｮｳ","kana_address":"ﾕｹﾞ","pref":"滋賀県","city":"蒲生郡竜王町","address":"弓削"},
{"zip_code":"5200465","kana_pref":"ｷｮｳﾄﾌ","kana_city":"ｷｮｳﾄｼｻｷｮｳｸ","kana_address":"ｸﾀｶﾐﾉﾁｮｳ","pref":"京都府","city":"京都市左京区","address":"久多上の町"},
{"zip_code":"5200464","kana_pref":"ｷｮｳﾄﾌ","kana_city":"ｷｮｳﾄｼｻｷｮｳｸ","kana_address":"ｸﾀﾅｶﾉﾁｮｳ","pref":"京都府","city":"京都市左京区","address":"久多中の町"},
{"zip_code":"5200462","kana_pref":"ｷｮｳﾄﾌ","kana_city":"ｷｮｳﾄｼｻｷｮｳｸ","kana_address":"ｸﾀｼﾓﾉﾁｮｳ","pref":"京都府","city":"京都市左京区","address":"久多下の町"},
{"zip_code":"5200461","kana_pref":"ｷｮｳﾄﾌ","kana_city":"ｷｮｳﾄｼｻｷｮｳｸ","kana_address":"ｸﾀｶﾜｲﾁｮｳ","pref":"京都府","city":"京都市左京区","address":"久多川合町"},
{"zip_code":"5200463","kana_pref":"ｷｮｳﾄﾌ","kana_city":"ｷｮｳﾄｼｻｷｮｳｸ","kana_address":"ｸﾀﾐﾔﾉﾁｮｳ","pref":"京都府","city":"京都市左京区","address":"久多宮の町"}]}