{"zip_code":[
{"zip_code":"5211101","kana_pref":"ｼｶﾞｹﾝ","kana_city":"ﾋｺﾈｼ","kana_address":"ｲｼﾃﾞﾗﾁｮｳ","pref":"滋賀県","city":"彦根市","address":"石寺町"},
{"zip_code":"5211125","kana_pref":"ｼｶﾞｹﾝ","kana_city":"ﾋｺﾈｼ","kana_address":"ｲﾅｴﾁｮｳ","pref":"滋賀県","city":"彦根市","address":"稲枝町"},
{"zip_code":"5211111","kana_pref":"ｼｶﾞｹﾝ","kana_city":"ﾋｺﾈｼ","kana_address":"ｲﾅｻﾄﾁｮｳ","pref":"滋賀県","city":"彦根市","address":"稲里町"},
{"zip_code":"5211113","kana_pref":"ｼｶﾞｹﾝ","kana_city":"ﾋｺﾈｼ","kana_address":"ｲﾅﾍﾞﾁｮｳ","pref":"滋賀県","city":"彦根市","address":"稲部町"},
{"zip_code":"5211121","kana_pref":"ｼｶﾞｹﾝ","kana_city":"ﾋｺﾈｼ","kana_address":"ｶｲｾﾞﾁｮｳ","pref":"滋賀県","city":"彦根市","address":"海瀬町"},
{"zip_code":"5211112","kana_pref":"ｼｶﾞｹﾝ","kana_city":"ﾋｺﾈｼ","kana_address":"ｶﾅｻﾞﾜﾁｮｳ","pref":"滋賀県","city":"彦根市","address":"金沢町"},
{"zip_code":"5211115","kana_pref":"ｼｶﾞｹﾝ","kana_city":"ﾋｺﾈｼ","kana_address":"ｶﾈﾀﾞﾁｮｳ","pref":"滋賀県","city":"彦根市","address":"金田町"},
{"zip_code":"5211131","kana_pref":"ｼｶﾞｹﾝ","kana_city":"ﾋｺﾈｼ","kana_address":"ｶﾐｲﾅﾊﾞﾁｮｳ","pref":"滋賀県","city":"彦根市","address":"上稲葉町"},
{"zip_code":"5211103","kana_pref":"ｼｶﾞｹﾝ","kana_city":"ﾋｺﾈｼ","kana_address":"ｶﾐｵｶﾍﾞﾁｮｳ","pref":"滋賀県","city":"彦根市","address":"上岡部町"},
{"zip_code":"5211143","kana_pref":"ｼｶﾞｹﾝ","kana_city":"ﾋｺﾈｼ","kana_address":"ｶﾐﾆｼｶﾞﾜﾁｮｳ","pref":"滋賀県","city":"彦根市","address":"上西川町"},
{"zip_code":"5211141","kana_pref":"ｼｶﾞｹﾝ","kana_city":"ﾋｺﾈｼ","kana_address":"ｺｳｻﾞｷﾁｮｳ","pref":"滋賀県","city":"彦根市","address":"甲崎町"},
{"zip_code":"5211147","kana_pref":"ｼｶﾞｹﾝ","kana_city":"ﾋｺﾈｼ","kana_address":"ｻﾂﾏﾁｮｳ","pref":"滋賀県","city":"彦根市","address":"薩摩町"},
{"zip_code":"5211132","kana_pref":"ｼｶﾞｹﾝ","kana_city":"ﾋｺﾈｼ","kana_address":"ｼﾓｲﾅﾊﾞﾁｮｳ","pref":"滋賀県","city":"彦根市","address":"下稲葉町"},
{"zip_code":"5211102","kana_pref":"ｼｶﾞｹﾝ","kana_city":"ﾋｺﾈｼ","kana_address":"ｼﾓｵｶﾍﾞﾁｮｳ","pref":"滋賀県","city":"彦根市","address":"下岡部町"},
{"zip_code":"5211142","kana_pref":"ｼｶﾞｹﾝ","kana_city":"ﾋｺﾈｼ","kana_address":"ｼﾓﾆｼｶﾞﾜﾁｮｳ","pref":"滋賀県","city":"彦根市","address":"下西川町"},
{"zip_code":"5211135","kana_pref":"ｼｶﾞｹﾝ","kana_city":"ﾋｺﾈｼ","kana_address":"ｼﾝｶﾞｲﾁｮｳ","pref":"滋賀県","city":"彦根市","address":"新海町"},
{"zip_code":"5211136","kana_pref":"ｼｶﾞｹﾝ","kana_city":"ﾋｺﾈｼ","kana_address":"ｼﾝｶﾞｲﾊﾏ","pref":"滋賀県","city":"彦根市","address":"新海浜"},
{"zip_code":"5211134","kana_pref":"ｼｶﾞｹﾝ","kana_city":"ﾋｺﾈｼ","kana_address":"ﾀﾂﾞｹﾁｮｳ","pref":"滋賀県","city":"彦根市","address":"田附町"},
{"zip_code":"5211105","kana_pref":"ｼｶﾞｹﾝ","kana_city":"ﾋｺﾈｼ","kana_address":"ﾀﾜﾗﾁｮｳ","pref":"滋賀県","city":"彦根市","address":"田原町"},
{"zip_code":"5211104","kana_pref":"ｼｶﾞｹﾝ","kana_city":"ﾋｺﾈｼ","kana_address":"ﾃﾞｯﾁﾁｮｳ","pref":"滋賀県","city":"彦根市","address":"出路町"},
{"zip_code":"5211124","kana_pref":"ｼｶﾞｹﾝ","kana_city":"ﾋｺﾈｼ","kana_address":"ﾉﾗﾀﾞﾁｮｳ","pref":"滋賀県","city":"彦根市","address":"野良田町"},
{"zip_code":"5211126","kana_pref":"ｼｶﾞｹﾝ","kana_city":"ﾋｺﾈｼ","kana_address":"ﾊﾂﾄﾘﾁｮｳ","pref":"滋賀県","city":"彦根市","address":"服部町"},
{"zip_code":"5211114","kana_pref":"ｼｶﾞｹﾝ","kana_city":"ﾋｺﾈｼ","kana_address":"ﾋｺﾄﾐﾁｮｳ","pref":"滋賀県","city":"彦根市","address":"彦富町"},
{"zip_code":"5211123","kana_pref":"ｼｶﾞｹﾝ","kana_city":"ﾋｺﾈｼ","kana_address":"ﾋﾀﾞﾁｮｳ","pref":"滋賀県","city":"彦根市","address":"肥田町"},
{"zip_code":"5211144","kana_pref":"ｼｶﾞｹﾝ","kana_city":"ﾋｺﾈｼ","kana_address":"ﾌｺｳｼﾞﾁｮｳ","pref":"滋賀県","city":"彦根市","address":"普光寺町"},
{"zip_code":"5211133","kana_pref":"ｼｶﾞｹﾝ","kana_city":"ﾋｺﾈｼ","kana_address":"ﾎﾝｼﾞｮｳﾁｮｳ","pref":"滋賀県","city":"彦根市","address":"本庄町"},
{"zip_code":"5211122","kana_pref":"ｼｶﾞｹﾝ","kana_city":"ﾋｺﾈｼ","kana_address":"ﾐﾂﾁｮｳ","pref":"滋賀県","city":"彦根市","address":"三津町"},
{"zip_code":"5211145","kana_pref":"ｼｶﾞｹﾝ","kana_city":"ﾋｺﾈｼ","kana_address":"ﾐﾅﾐﾐﾂﾔﾁｮｳ","pref":"滋賀県","city":"彦根市","address":"南三ツ谷町"},
{"zip_code":"5211146","kana_pref":"ｼｶﾞｹﾝ","kana_city":"ﾋｺﾈｼ","kana_address":"ﾔﾅｶﾞﾜﾁｮｳ","pref":"滋賀県","city":"彦根市","address":"柳川町"},
{"zip_code":"5211331","kana_pref":"ｼｶﾞｹﾝ","kana_city":"ｵｳﾐﾊﾁﾏﾝｼ","kana_address":"ｱﾂﾞﾁﾁｮｳｲｼﾃﾞﾗ","pref":"滋賀県","city":"近江八幡市","address":"安土町石寺"},
{"zip_code":"5211333","kana_pref":"ｼｶﾞｹﾝ","kana_city":"ｵｳﾐﾊﾁﾏﾝｼ","kana_address":"ｱﾂﾞﾁﾁｮｳｳﾁﾉ","pref":"滋賀県","city":"近江八幡市","address":"安土町内野"},
{"zip_code":"5211342","kana_pref":"ｼｶﾞｹﾝ","kana_city":"ｵｳﾐﾊﾁﾏﾝｼ","kana_address":"ｱﾂﾞﾁﾁｮｳｶﾐﾃﾞ","pref":"滋賀県","city":"近江八幡市","address":"安土町上出"},
{"zip_code":"5211341","kana_pref":"ｼｶﾞｹﾝ","kana_city":"ｵｳﾐﾊﾁﾏﾝｼ","kana_address":"ｱﾂﾞﾁﾁｮｳｶﾐﾄﾖｳﾗ","pref":"滋賀県","city":"近江八幡市","address":"安土町上豊浦"},
{"zip_code":"5211321","kana_pref":"ｼｶﾞｹﾝ","kana_city":"ｵｳﾐﾊﾁﾏﾝｼ","kana_address":"ｱﾂﾞﾁﾁｮｳｸﾜﾉﾐｼﾞ","pref":"滋賀県","city":"近江八幡市","address":"安土町桑実寺"},
{"zip_code":"5211343","kana_pref":"ｼｶﾞｹﾝ","kana_city":"ｵｳﾐﾊﾁﾏﾝｼ","kana_address":"ｱﾂﾞﾁﾁｮｳｺﾅｶ","pref":"滋賀県","city":"近江八幡市","address":"安土町小中"},
{"zip_code":"5211346","kana_pref":"ｼｶﾞｹﾝ","kana_city":"ｵｳﾐﾊﾁﾏﾝｼ","kana_address":"ｱﾂﾞﾁﾁｮｳｺﾉｼｮｳ","pref":"滋賀県","city":"近江八幡市","address":"安土町香庄"},
{"zip_code":"5211345","kana_pref":"ｼｶﾞｹﾝ","kana_city":"ｵｳﾐﾊﾁﾏﾝｼ","kana_address":"ｱﾂﾞﾁﾁｮｳｼﾞｵﾝｼﾞ","pref":"滋賀県","city":"近江八幡市","address":"安土町慈恩寺"},
{"zip_code":"5211311","kana_pref":"ｼｶﾞｹﾝ","kana_city":"ｵｳﾐﾊﾁﾏﾝｼ","kana_address":"ｱﾂﾞﾁﾁｮｳｼﾓﾄｲﾗ","pref":"滋賀県","city":"近江八幡市","address":"安土町下豊浦"},
{"zip_code":"5211351","kana_pref":"ｼｶﾞｹﾝ","kana_city":"ｵｳﾐﾊﾁﾏﾝｼ","kana_address":"ｱﾂﾞﾁﾁｮｳｼﾞｮｳﾗｸｼﾞ","pref":"滋賀県","city":"近江八幡市","address":"安土町常楽寺"},
{"zip_code":"5211301","kana_pref":"ｼｶﾞｹﾝ","kana_city":"ｵｳﾐﾊﾁﾏﾝｼ","kana_address":"ｱﾂﾞﾁﾁｮｳﾀﾞｲﾅｶ","pref":"滋賀県","city":"近江八幡市","address":"安土町大中"},
{"zip_code":"5211344","kana_pref":"ｼｶﾞｹﾝ","kana_city":"ｵｳﾐﾊﾁﾏﾝｼ","kana_address":"ｱﾂﾞﾁﾁｮｳﾅｶﾔ","pref":"滋賀県","city":"近江八幡市","address":"安土町中屋"},
{"zip_code":"5211334","kana_pref":"ｼｶﾞｹﾝ","kana_city":"ｵｳﾐﾊﾁﾏﾝｼ","kana_address":"ｱﾂﾞﾁﾁｮｳﾆｼｵｲｿ","pref":"滋賀県","city":"近江八幡市","address":"安土町西老蘇"},
{"zip_code":"5211332","kana_pref":"ｼｶﾞｹﾝ","kana_city":"ｵｳﾐﾊﾁﾏﾝｼ","kana_address":"ｱﾂﾞﾁﾁｮｳﾋｶﾞｼｵｲｿ","pref":"滋賀県","city":"近江八幡市","address":"安土町東老蘇"},
{"zip_code":"5211322","kana_pref":"ｼｶﾞｹﾝ","kana_city":"ｵｳﾐﾊﾁﾏﾝｼ","kana_address":"ｱﾂﾞﾁﾁｮｳﾐﾔﾂﾞ","pref":"滋賀県","city":"近江八幡市","address":"安土町宮津"},
{"zip_code":"5211202","kana_pref":"ｼｶﾞｹﾝ","kana_city":"ﾋｶﾞｼｵｳﾐｼ","kana_address":"ｱﾐﾀﾞﾄﾞｳﾁｮｳ","pref":"滋賀県","city":"東近江市","address":"阿弥陀堂町"},
{"zip_code":"5211223","kana_pref":"ｼｶﾞｹﾝ","kana_city":"ﾋｶﾞｼｵｳﾐｼ","kana_address":"ｲﾉｺﾁｮｳ","pref":"滋賀県","city":"東近江市","address":"猪子町"},
{"zip_code":"5211235","kana_pref":"ｼｶﾞｹﾝ","kana_city":"ﾋｶﾞｼｵｳﾐｼ","kana_address":"ｲﾊﾞﾁｮｳ","pref":"滋賀県","city":"東近江市","address":"伊庭町"},
{"zip_code":"5211211","kana_pref":"ｼｶﾞｹﾝ","kana_city":"ﾋｶﾞｼｵｳﾐｼ","kana_address":"ｲﾏﾁｮｳ","pref":"滋賀県","city":"東近江市","address":"今町"},
{"zip_code":"5211204","kana_pref":"ｼｶﾞｹﾝ","kana_city":"ﾋｶﾞｼｵｳﾐｼ","kana_address":"ｵｶﾞﾜﾁｮｳ","pref":"滋賀県","city":"東近江市","address":"小川町"},
{"zip_code":"5211241","kana_pref":"ｼｶﾞｹﾝ","kana_city":"ﾋｶﾞｼｵｳﾐｼ","kana_address":"ｵﾄﾒﾊﾏﾁｮｳ","pref":"滋賀県","city":"東近江市","address":"乙女浜町"},
{"zip_code":"5211221","kana_pref":"ｼｶﾞｹﾝ","kana_city":"ﾋｶﾞｼｵｳﾐｼ","kana_address":"ｶｷﾐﾁｮｳ","pref":"滋賀県","city":"東近江市","address":"垣見町"},
{"zip_code":"5211203","kana_pref":"ｼｶﾞｹﾝ","kana_city":"ﾋｶﾞｼｵｳﾐｼ","kana_address":"ｶﾜﾐﾅﾐﾁｮｳ","pref":"滋賀県","city":"東近江市","address":"川南町"},
{"zip_code":"5211232","kana_pref":"ｼｶﾞｹﾝ","kana_city":"ﾋｶﾞｼｵｳﾐｼ","kana_address":"ｷﾀｽﾀﾞﾁｮｳ","pref":"滋賀県","city":"東近江市","address":"北須田町"},
{"zip_code":"5211234","kana_pref":"ｼｶﾞｹﾝ","kana_city":"ﾋｶﾞｼｵｳﾐｼ","kana_address":"ｷﾇｶﾞｻﾁｮｳ","pref":"滋賀県","city":"東近江市","address":"きぬがさ町"},
{"zip_code":"5211243","kana_pref":"ｼｶﾞｹﾝ","kana_city":"ﾋｶﾞｼｵｳﾐｼ","kana_address":"ｸﾘﾐｼﾝﾃﾞﾝﾁｮｳ","pref":"滋賀県","city":"東近江市","address":"栗見新田町"},
{"zip_code":"5211245","kana_pref":"ｼｶﾞｹﾝ","kana_city":"ﾋｶﾞｼｵｳﾐｼ","kana_address":"ｸﾘﾐﾃﾞｻﾞｲｹﾁｮｳ","pref":"滋賀県","city":"東近江市","address":"栗見出在家町"},
{"zip_code":"5211215","kana_pref":"ｼｶﾞｹﾝ","kana_city":"ﾋｶﾞｼｵｳﾐｼ","kana_address":"ｻｿﾁｮｳ","pref":"滋賀県","city":"東近江市","address":"佐生町"},
{"zip_code":"5211222","kana_pref":"ｼｶﾞｹﾝ","kana_city":"ﾋｶﾞｼｵｳﾐｼ","kana_address":"ｻﾉﾁｮｳ","pref":"滋賀県","city":"東近江市","address":"佐野町"},
{"zip_code":"5211201","kana_pref":"ｼｶﾞｹﾝ","kana_city":"ﾋｶﾞｼｵｳﾐｼ","kana_address":"ｼﾝｸﾞｳﾁｮｳ","pref":"滋賀県","city":"東近江市","address":"新宮町"},
{"zip_code":"5211213","kana_pref":"ｼｶﾞｹﾝ","kana_city":"ﾋｶﾞｼｵｳﾐｼ","kana_address":"ｼﾞﾝｺﾞｳﾁｮｳ","pref":"滋賀県","city":"東近江市","address":"神郷町"},
{"zip_code":"5211205","kana_pref":"ｼｶﾞｹﾝ","kana_city":"ﾋｶﾞｼｵｳﾐｼ","kana_address":"ﾀｲｺｳｼﾞﾁｮｳ","pref":"滋賀県","city":"東近江市","address":"躰光寺町"},
{"zip_code":"5211244","kana_pref":"ｼｶﾞｹﾝ","kana_city":"ﾋｶﾞｼｵｳﾐｼ","kana_address":"ﾀﾞｲﾅｶﾁｮｳ","pref":"滋賀県","city":"東近江市","address":"大中町"},
{"zip_code":"5211212","kana_pref":"ｼｶﾞｹﾝ","kana_city":"ﾋｶﾞｼｵｳﾐｼ","kana_address":"ﾀﾈﾁｮｳ","pref":"滋賀県","city":"東近江市","address":"種町"},
{"zip_code":"5211214","kana_pref":"ｼｶﾞｹﾝ","kana_city":"ﾋｶﾞｼｵｳﾐｼ","kana_address":"ﾁｮｳｼｮｳｼﾞﾁｮｳ","pref":"滋賀県","city":"東近江市","address":"長勝寺町"},
{"zip_code":"5211231","kana_pref":"ｼｶﾞｹﾝ","kana_city":"ﾋｶﾞｼｵｳﾐｼ","kana_address":"ﾉﾄｶﾞﾜﾁｮｳ","pref":"滋賀県","city":"東近江市","address":"能登川町"},
{"zip_code":"5211224","kana_pref":"ｼｶﾞｹﾝ","kana_city":"ﾋｶﾞｼｵｳﾐｼ","kana_address":"ﾊﾔｼﾁｮｳ","pref":"滋賀県","city":"東近江市","address":"林町"},
{"zip_code":"5211242","kana_pref":"ｼｶﾞｹﾝ","kana_city":"ﾋｶﾞｼｵｳﾐｼ","kana_address":"ﾌｸﾄﾞｳﾁｮｳ","pref":"滋賀県","city":"東近江市","address":"福堂町"},
{"zip_code":"5211233","kana_pref":"ｼｶﾞｹﾝ","kana_city":"ﾋｶﾞｼｵｳﾐｼ","kana_address":"ﾐﾅﾐｽﾀﾞﾁｮｳ","pref":"滋賀県","city":"東近江市","address":"南須田町"},
{"zip_code":"5211225","kana_pref":"ｼｶﾞｹﾝ","kana_city":"ﾋｶﾞｼｵｳﾐｼ","kana_address":"ﾔﾏｼﾞﾁｮｳ","pref":"滋賀県","city":"東近江市","address":"山路町"},
{"zip_code":"5210000","kana_pref":"ｼｶﾞｹﾝ","kana_city":"ﾏｲﾊﾞﾗｼ","kana_address":"","pref":"滋賀県","city":"米原市","address":""},
{"zip_code":"5210001","kana_pref":"ｼｶﾞｹﾝ","kana_city":"ﾏｲﾊﾞﾗｼ","kana_address":"ｱｻﾂﾞﾏﾁｸﾏ","pref":"滋賀県","city":"米原市","address":"朝妻筑摩"},
{"zip_code":"5210226","kana_pref":"ｼｶﾞｹﾝ","kana_city":"ﾏｲﾊﾞﾗｼ","kana_address":"ｱｻﾋ","pref":"滋賀県","city":"米原市","address":"朝日"},
{"zip_code":"5210211","kana_pref":"ｼｶﾞｹﾝ","kana_city":"ﾏｲﾊﾞﾗｼ","kana_address":"ｱﾝｻｶﾜﾁ","pref":"滋賀県","city":"米原市","address":"梓河内"},
{"zip_code":"5210063","kana_pref":"ｼｶﾞｹﾝ","kana_city":"ﾏｲﾊﾞﾗｼ","kana_address":"ｲ","pref":"滋賀県","city":"米原市","address":"飯"},
{"zip_code":"5210091","kana_pref":"ｼｶﾞｹﾝ","kana_city":"ﾏｲﾊﾞﾗｼ","kana_address":"ｲｵｷﾞ","pref":"滋賀県","city":"米原市","address":"岩脇"},
{"zip_code":"5210221","kana_pref":"ｼｶﾞｹﾝ","kana_city":"ﾏｲﾊﾞﾗｼ","kana_address":"ｲｹｼﾀ","pref":"滋賀県","city":"米原市","address":"池下"},
{"zip_code":"5210004","kana_pref":"ｼｶﾞｹﾝ","kana_city":"ﾏｲﾊﾞﾗｼ","kana_address":"ｲｿ","pref":"滋賀県","city":"米原市","address":"磯"},
{"zip_code":"5210225","kana_pref":"ｼｶﾞｹﾝ","kana_city":"ﾏｲﾊﾞﾗｼ","kana_address":"ｲﾁﾊﾞ","pref":"滋賀県","city":"米原市","address":"市場"},
{"zip_code":"5210031","kana_pref":"ｼｶﾞｹﾝ","kana_city":"ﾏｲﾊﾞﾗｼ","kana_address":"ｲｯｼｷ","pref":"滋賀県","city":"米原市","address":"一色"},
{"zip_code":"5210234","kana_pref":"ｼｶﾞｹﾝ","kana_city":"ﾏｲﾊﾞﾗｼ","kana_address":"ｲﾉｸﾁ","pref":"滋賀県","city":"米原市","address":"井之口"},
{"zip_code":"5210311","kana_pref":"ｼｶﾞｹﾝ","kana_city":"ﾏｲﾊﾞﾗｼ","kana_address":"ｲﾌﾞｷ","pref":"滋賀県","city":"米原市","address":"伊吹"},
{"zip_code":"5210003","kana_pref":"ｼｶﾞｹﾝ","kana_city":"ﾏｲﾊﾞﾗｼ","kana_address":"ｲﾘｴ","pref":"滋賀県","city":"米原市","address":"入江"},
{"zip_code":"5210312","kana_pref":"ｼｶﾞｹﾝ","kana_city":"ﾏｲﾊﾞﾗｼ","kana_address":"ｳｴﾉ","pref":"滋賀県","city":"米原市","address":"上野"},
{"zip_code":"5210062","kana_pref":"ｼｶﾞｹﾝ","kana_city":"ﾏｲﾊﾞﾗｼ","kana_address":"ｳｶﾉ","pref":"滋賀県","city":"米原市","address":"宇賀野"},
{"zip_code":"5210013","kana_pref":"ｼｶﾞｹﾝ","kana_city":"ﾏｲﾊﾞﾗｼ","kana_address":"ｳﾒｶﾞﾊﾗ","pref":"滋賀県","city":"米原市","address":"梅ケ原"},
{"zip_code":"5210014","kana_pref":"ｼｶﾞｹﾝ","kana_city":"ﾏｲﾊﾞﾗｼ","kana_address":"ｳﾒｶﾞﾊﾗｻｶｴ","pref":"滋賀県","city":"米原市","address":"梅ケ原栄"},
{"zip_code":"5210307","kana_pref":"ｼｶﾞｹﾝ","kana_city":"ﾏｲﾊﾞﾗｼ","kana_address":"ｵｵｸﾎﾞ","pref":"滋賀県","city":"米原市","address":"大久保"},
{"zip_code":"5210214","kana_pref":"ｼｶﾞｹﾝ","kana_city":"ﾏｲﾊﾞﾗｼ","kana_address":"ｵｵｼｶ","pref":"滋賀県","city":"米原市","address":"大鹿"},
{"zip_code":"5210324","kana_pref":"ｼｶﾞｹﾝ","kana_city":"ﾏｲﾊﾞﾗｼ","kana_address":"ｵｵｼﾐｽﾞ","pref":"滋賀県","city":"米原市","address":"大清水"},
{"zip_code":"5210244","kana_pref":"ｼｶﾞｹﾝ","kana_city":"ﾏｲﾊﾞﾗｼ","kana_address":"ｵｵﾉｷﾞ","pref":"滋賀県","city":"米原市","address":"大野木"},
{"zip_code":"5210202","kana_pref":"ｼｶﾞｹﾝ","kana_city":"ﾏｲﾊﾞﾗｼ","kana_address":"ｶｼﾜﾊﾞﾗ","pref":"滋賀県","city":"米原市","address":"柏原"},
{"zip_code":"5210219","kana_pref":"ｼｶﾞｹﾝ","kana_city":"ﾏｲﾊﾞﾗｼ","kana_address":"ｶｾﾉ","pref":"滋賀県","city":"米原市","address":"加勢野"},
{"zip_code":"5210305","kana_pref":"ｼｶﾞｹﾝ","kana_city":"ﾏｲﾊﾞﾗｼ","kana_address":"ｶﾐｲﾀﾅﾐ","pref":"滋賀県","city":"米原市","address":"上板並"},
{"zip_code":"5210002","kana_pref":"ｼｶﾞｹﾝ","kana_city":"ﾏｲﾊﾞﾗｼ","kana_address":"ｶﾐﾀﾗ","pref":"滋賀県","city":"米原市","address":"上多良"},
{"zip_code":"5210033","kana_pref":"ｼｶﾞｹﾝ","kana_city":"ﾏｲﾊﾞﾗｼ","kana_address":"ｶﾐﾆｭｳ","pref":"滋賀県","city":"米原市","address":"上丹生"},
{"zip_code":"5210227","kana_pref":"ｼｶﾞｹﾝ","kana_city":"ﾏｲﾊﾞﾗｼ","kana_address":"ｶﾗｽﾜｷ","pref":"滋賀県","city":"米原市","address":"烏脇"},
{"zip_code":"5210021","kana_pref":"ｼｶﾞｹﾝ","kana_city":"ﾏｲﾊﾞﾗｼ","kana_address":"ｶﾜﾅﾐ","pref":"滋賀県","city":"米原市","address":"河南"},
{"zip_code":"5210217","kana_pref":"ｼｶﾞｹﾝ","kana_city":"ﾏｲﾊﾞﾗｼ","kana_address":"ｷﾀｶﾞﾀ","pref":"滋賀県","city":"米原市","address":"北方"},
{"zip_code":"5210203","kana_pref":"ｼｶﾞｹﾝ","kana_city":"ﾏｲﾊﾞﾗｼ","kana_address":"ｷﾖﾀｷ","pref":"滋賀県","city":"米原市","address":"清滝"},
{"zip_code":"5210308","kana_pref":"ｼｶﾞｹﾝ","kana_city":"ﾏｲﾊﾞﾗｼ","kana_address":"ｺｲｽﾞﾐ","pref":"滋賀県","city":"米原市","address":"小泉"},
{"zip_code":"5210303","kana_pref":"ｼｶﾞｹﾝ","kana_city":"ﾏｲﾊﾞﾗｼ","kana_address":"ｺｳｶﾞ","pref":"滋賀県","city":"米原市","address":"甲賀"},
{"zip_code":"5210301","kana_pref":"ｼｶﾞｹﾝ","kana_city":"ﾏｲﾊﾞﾗｼ","kana_address":"ｺｳﾂﾞﾊﾗ","pref":"滋賀県","city":"米原市","address":"甲津原"},
{"zip_code":"5210072","kana_pref":"ｼｶﾞｹﾝ","kana_city":"ﾏｲﾊﾞﾗｼ","kana_address":"ｺﾞｳﾄﾞ","pref":"滋賀県","city":"米原市","address":"顔戸"},
{"zip_code":"5210092","kana_pref":"ｼｶﾞｹﾝ","kana_city":"ﾏｲﾊﾞﾗｼ","kana_address":"ｻｲｴﾝｼﾞ","pref":"滋賀県","city":"米原市","address":"西円寺"},
{"zip_code":"5210232","kana_pref":"ｼｶﾞｹﾝ","kana_city":"ﾏｲﾊﾞﾗｼ","kana_address":"ｻｶｸﾞﾁ","pref":"滋賀県","city":"米原市","address":"坂口"},
{"zip_code":"5210035","kana_pref":"ｼｶﾞｹﾝ","kana_city":"ﾏｲﾊﾞﾗｼ","kana_address":"ｻﾒｶﾞｲ","pref":"滋賀県","city":"米原市","address":"醒井"},
{"zip_code":"5210032","kana_pref":"ｼｶﾞｹﾝ","kana_city":"ﾏｲﾊﾞﾗｼ","kana_address":"ｼｵﾘ","pref":"滋賀県","city":"米原市","address":"枝折"},
{"zip_code":"5210218","kana_pref":"ｼｶﾞｹﾝ","kana_city":"ﾏｲﾊﾞﾗｼ","kana_address":"ｼｶﾞﾔ","pref":"滋賀県","city":"米原市","address":"志賀谷"},
{"zip_code":"5210306","kana_pref":"ｼｶﾞｹﾝ","kana_city":"ﾏｲﾊﾞﾗｼ","kana_address":"ｼﾓｲﾀﾅﾐ","pref":"滋賀県","city":"米原市","address":"下板並"},
{"zip_code":"5210016","kana_pref":"ｼｶﾞｹﾝ","kana_city":"ﾏｲﾊﾞﾗｼ","kana_address":"ｼﾓﾀﾗ","pref":"滋賀県","city":"米原市","address":"下多良"},
{"zip_code":"5210034","kana_pref":"ｼｶﾞｹﾝ","kana_city":"ﾏｲﾊﾞﾗｼ","kana_address":"ｼﾓﾆｭｳ","pref":"滋賀県","city":"米原市","address":"下丹生"},
{"zip_code":"5210327","kana_pref":"ｼｶﾞｹﾝ","kana_city":"ﾏｲﾊﾞﾗｼ","kana_address":"ｼﾞｮｳﾍｲｼﾞ","pref":"滋賀県","city":"米原市","address":"上平寺"},
{"zip_code":"5210083","kana_pref":"ｼｶﾞｹﾝ","kana_city":"ﾏｲﾊﾞﾗｼ","kana_address":"ｼﾝｼﾞｮｳ","pref":"滋賀県","city":"米原市","address":"新庄"},
{"zip_code":"5210314","kana_pref":"ｼｶﾞｹﾝ","kana_city":"ﾏｲﾊﾞﾗｼ","kana_address":"ｽｲｼﾞｮｳ","pref":"滋賀県","city":"米原市","address":"春照"},
{"zip_code":"5210216","kana_pref":"ｼｶﾞｹﾝ","kana_city":"ﾏｲﾊﾞﾗｼ","kana_address":"ｽｴ","pref":"滋賀県","city":"米原市","address":"菅江"},
{"zip_code":"5210245","kana_pref":"ｼｶﾞｹﾝ","kana_city":"ﾏｲﾊﾞﾗｼ","kana_address":"ｽｶﾞﾜ","pref":"滋賀県","city":"米原市","address":"須川"},
{"zip_code":"5210322","kana_pref":"ｼｶﾞｹﾝ","kana_city":"ﾏｲﾊﾞﾗｼ","kana_address":"ｽｷﾞｻﾜ","pref":"滋賀県","city":"米原市","address":"杉沢"},
{"zip_code":"5210321","kana_pref":"ｼｶﾞｹﾝ","kana_city":"ﾏｲﾊﾞﾗｼ","kana_address":"ﾀｶﾊﾞﾝ","pref":"滋賀県","city":"米原市","address":"高番"},
{"zip_code":"5210074","kana_pref":"ｼｶﾞｹﾝ","kana_city":"ﾏｲﾊﾞﾗｼ","kana_address":"ﾀｶﾐｿﾞ","pref":"滋賀県","city":"米原市","address":"高溝"},
{"zip_code":"5210081","kana_pref":"ｼｶﾞｹﾝ","kana_city":"ﾏｲﾊﾞﾗｼ","kana_address":"ﾀﾜﾀﾞ","pref":"滋賀県","city":"米原市","address":"多和田"},
{"zip_code":"5210201","kana_pref":"ｼｶﾞｹﾝ","kana_city":"ﾏｲﾊﾞﾗｼ","kana_address":"ﾁｮｳｷｭｳｼﾞ","pref":"滋賀県","city":"米原市","address":"長久寺"},
{"zip_code":"5210093","kana_pref":"ｼｶﾞｹﾝ","kana_city":"ﾏｲﾊﾞﾗｼ","kana_address":"ﾃﾗｸﾗ","pref":"滋賀県","city":"米原市","address":"寺倉"},
{"zip_code":"5210326","kana_pref":"ｼｶﾞｹﾝ","kana_city":"ﾏｲﾊﾞﾗｼ","kana_address":"ﾃﾗﾊﾞﾔｼ","pref":"滋賀県","city":"米原市","address":"寺林"},
{"zip_code":"5210222","kana_pref":"ｼｶﾞｹﾝ","kana_city":"ﾏｲﾊﾞﾗｼ","kana_address":"ﾃﾝﾏ","pref":"滋賀県","city":"米原市","address":"天満"},
{"zip_code":"5210213","kana_pref":"ｼｶﾞｹﾝ","kana_city":"ﾏｲﾊﾞﾗｼ","kana_address":"ﾄﾞｳﾀﾞﾆ","pref":"滋賀県","city":"米原市","address":"堂谷"},
{"zip_code":"5210242","kana_pref":"ｼｶﾞｹﾝ","kana_city":"ﾏｲﾊﾞﾗｼ","kana_address":"ﾅｶﾞｵｶ","pref":"滋賀県","city":"米原市","address":"長岡"},
{"zip_code":"5210061","kana_pref":"ｼｶﾞｹﾝ","kana_city":"ﾏｲﾊﾞﾗｼ","kana_address":"ﾅｶﾞｻﾜ","pref":"滋賀県","city":"米原市","address":"長沢"},
{"zip_code":"5210011","kana_pref":"ｼｶﾞｹﾝ","kana_city":"ﾏｲﾊﾞﾗｼ","kana_address":"ﾅｶﾀﾗ","pref":"滋賀県","city":"米原市","address":"中多良"},
{"zip_code":"5210024","kana_pref":"ｼｶﾞｹﾝ","kana_city":"ﾏｲﾊﾞﾗｼ","kana_address":"ﾆｼｻｶ","pref":"滋賀県","city":"米原市","address":"西坂"},
{"zip_code":"5210241","kana_pref":"ｼｶﾞｹﾝ","kana_city":"ﾏｲﾊﾞﾗｼ","kana_address":"ﾆｼﾔﾏ","pref":"滋賀県","city":"米原市","address":"西山"},
{"zip_code":"5210084","kana_pref":"ｼｶﾞｹﾝ","kana_city":"ﾏｲﾊﾞﾗｼ","kana_address":"ﾆｯｺｳｼﾞ","pref":"滋賀県","city":"米原市","address":"日光寺"},
{"zip_code":"5210233","kana_pref":"ｼｶﾞｹﾝ","kana_city":"ﾏｲﾊﾞﾗｼ","kana_address":"ﾉｲｼｷ","pref":"滋賀県","city":"米原市","address":"野一色"},
{"zip_code":"5210082","kana_pref":"ｼｶﾞｹﾝ","kana_city":"ﾏｲﾊﾞﾗｼ","kana_address":"ﾉﾄｾ","pref":"滋賀県","city":"米原市","address":"能登瀬"},
{"zip_code":"5210236","kana_pref":"ｼｶﾞｹﾝ","kana_city":"ﾏｲﾊﾞﾗｼ","kana_address":"ﾊｻﾏﾀ","pref":"滋賀県","city":"米原市","address":"間田"},
{"zip_code":"5210025","kana_pref":"ｼｶﾞｹﾝ","kana_city":"ﾏｲﾊﾞﾗｼ","kana_address":"ﾊﾞﾝﾊﾞ","pref":"滋賀県","city":"米原市","address":"番場"},
{"zip_code":"5210022","kana_pref":"ｼｶﾞｹﾝ","kana_city":"ﾏｲﾊﾞﾗｼ","kana_address":"ﾋｸﾞﾁ","pref":"滋賀県","city":"米原市","address":"樋口"},
{"zip_code":"5210325","kana_pref":"ｼｶﾞｹﾝ","kana_city":"ﾏｲﾊﾞﾗｼ","kana_address":"ﾌｼﾞｶﾜ","pref":"滋賀県","city":"米原市","address":"藤川"},
{"zip_code":"5210071","kana_pref":"ｼｶﾞｹﾝ","kana_city":"ﾏｲﾊﾞﾗｼ","kana_address":"ﾌﾅｻｷ","pref":"滋賀県","city":"米原市","address":"舟崎"},
{"zip_code":"5210224","kana_pref":"ｼｶﾞｹﾝ","kana_city":"ﾏｲﾊﾞﾗｼ","kana_address":"ﾌﾞﾏ","pref":"滋賀県","city":"米原市","address":"夫馬"},
{"zip_code":"5210212","kana_pref":"ｼｶﾞｹﾝ","kana_city":"ﾏｲﾊﾞﾗｼ","kana_address":"ﾎﾝｺﾞｳ","pref":"滋賀県","city":"米原市","address":"本郷"},
{"zip_code":"5210012","kana_pref":"ｼｶﾞｹﾝ","kana_city":"ﾏｲﾊﾞﾗｼ","kana_address":"ﾏｲﾊﾗ","pref":"滋賀県","city":"米原市","address":"米原"},
{"zip_code":"5210015","kana_pref":"ｼｶﾞｹﾝ","kana_city":"ﾏｲﾊﾞﾗｼ","kana_address":"ﾏｲﾊﾞﾗﾆｼ","pref":"滋賀県","city":"米原市","address":"米原西"},
{"zip_code":"5210302","kana_pref":"ｼｶﾞｹﾝ","kana_city":"ﾏｲﾊﾞﾗｼ","kana_address":"ﾏｶﾞﾀﾆ","pref":"滋賀県","city":"米原市","address":"曲谷"},
{"zip_code":"5210243","kana_pref":"ｼｶﾞｹﾝ","kana_city":"ﾏｲﾊﾞﾗｼ","kana_address":"ﾏﾝｶﾞﾝｼﾞ","pref":"滋賀県","city":"米原市","address":"万願寺"},
{"zip_code":"5210073","kana_pref":"ｼｶﾞｹﾝ","kana_city":"ﾏｲﾊﾞﾗｼ","kana_address":"ﾐﾉｳﾗ","pref":"滋賀県","city":"米原市","address":"箕浦"},
{"zip_code":"5210023","kana_pref":"ｼｶﾞｹﾝ","kana_city":"ﾏｲﾊﾞﾗｼ","kana_address":"ﾐﾖｼ","pref":"滋賀県","city":"米原市","address":"三吉"},
{"zip_code":"5210231","kana_pref":"ｼｶﾞｹﾝ","kana_city":"ﾏｲﾊﾞﾗｼ","kana_address":"ﾑﾗｲﾀﾞ","pref":"滋賀県","city":"米原市","address":"村居田"},
{"zip_code":"5210323","kana_pref":"ｼｶﾞｹﾝ","kana_city":"ﾏｲﾊﾞﾗｼ","kana_address":"ﾑﾗｷﾞ","pref":"滋賀県","city":"米原市","address":"村木"},
{"zip_code":"5210223","kana_pref":"ｼｶﾞｹﾝ","kana_city":"ﾏｲﾊﾞﾗｼ","kana_address":"ﾓﾄｲﾁﾊﾞ","pref":"滋賀県","city":"米原市","address":"本市場"},
{"zip_code":"5210313","kana_pref":"ｼｶﾞｹﾝ","kana_city":"ﾏｲﾊﾞﾗｼ","kana_address":"ﾔﾀｶ","pref":"滋賀県","city":"米原市","address":"弥高"},
{"zip_code":"5210235","kana_pref":"ｼｶﾞｹﾝ","kana_city":"ﾏｲﾊﾞﾗｼ","kana_address":"ﾔﾅｲﾀﾞ","pref":"滋賀県","city":"米原市","address":"小田"},
{"zip_code":"5210215","kana_pref":"ｼｶﾞｹﾝ","kana_city":"ﾏｲﾊﾞﾗｼ","kana_address":"ﾔﾏﾑﾛ","pref":"滋賀県","city":"米原市","address":"山室"},
{"zip_code":"5210304","kana_pref":"ｼｶﾞｹﾝ","kana_city":"ﾏｲﾊﾞﾗｼ","kana_address":"ﾖｼﾂｷ","pref":"滋賀県","city":"米原市","address":"吉槻"},
{"zip_code":"5210064","kana_pref":"ｼｶﾞｹﾝ","kana_city":"ﾏｲﾊﾞﾗｼ","kana_address":"ﾖﾂｷﾞ","pref":"滋賀県","city":"米原市","address":"世継"}]}