{"zip_code":[
{"zip_code":"5240000","kana_pref":"ｼｶﾞｹﾝ","kana_city":"ﾓﾘﾔﾏｼ","kana_address":"","pref":"滋賀県","city":"守山市","address":""},
{"zip_code":"5240061","kana_pref":"ｼｶﾞｹﾝ","kana_city":"ﾓﾘﾔﾏｼ","kana_address":"ｱｶﾉｲﾁｮｳ","pref":"滋賀県","city":"守山市","address":"赤野井町"},
{"zip_code":"5240035","kana_pref":"ｼｶﾞｹﾝ","kana_city":"ﾓﾘﾔﾏｼ","kana_address":"ｱﾑﾗﾁｮｳ","pref":"滋賀県","city":"守山市","address":"阿村町"},
{"zip_code":"5240016","kana_pref":"ｼｶﾞｹﾝ","kana_city":"ﾓﾘﾔﾏｼ","kana_address":"ｱﾗﾐﾁｮｳ","pref":"滋賀県","city":"守山市","address":"荒見町"},
{"zip_code":"5240014","kana_pref":"ｼｶﾞｹﾝ","kana_city":"ﾓﾘﾔﾏｼ","kana_address":"ｲｼﾀﾞﾁｮｳ","pref":"滋賀県","city":"守山市","address":"石田町"},
{"zip_code":"5240036","kana_pref":"ｼｶﾞｹﾝ","kana_city":"ﾓﾘﾔﾏｼ","kana_address":"ｲｾﾁｮｳ","pref":"滋賀県","city":"守山市","address":"伊勢町"},
{"zip_code":"5240011","kana_pref":"ｼｶﾞｹﾝ","kana_city":"ﾓﾘﾔﾏｼ","kana_address":"ｲﾏｲﾁﾁｮｳ","pref":"滋賀県","city":"守山市","address":"今市町"},
{"zip_code":"5240046","kana_pref":"ｼｶﾞｹﾝ","kana_city":"ﾓﾘﾔﾏｼ","kana_address":"ｲﾏｼﾞｭｸ","pref":"滋賀県","city":"守山市","address":"今宿"},
{"zip_code":"5240046","kana_pref":"ｼｶﾞｹﾝ","kana_city":"ﾓﾘﾔﾏｼ","kana_address":"ｲﾏｼﾞｭｸﾁｮｳ","pref":"滋賀県","city":"守山市","address":"今宿町"},
{"zip_code":"5240101","kana_pref":"ｼｶﾞｹﾝ","kana_city":"ﾓﾘﾔﾏｼ","kana_address":"ｲﾏﾊﾏﾁｮｳ","pref":"滋賀県","city":"守山市","address":"今浜町"},
{"zip_code":"5240037","kana_pref":"ｼｶﾞｹﾝ","kana_city":"ﾓﾘﾔﾏｼ","kana_address":"ｳﾒﾀﾞﾁｮｳ","pref":"滋賀県","city":"守山市","address":"梅田町"},
{"zip_code":"5240042","kana_pref":"ｼｶﾞｹﾝ","kana_city":"ﾓﾘﾔﾏｼ","kana_address":"ｴﾝﾏﾄﾞｳﾁｮｳ","pref":"滋賀県","city":"守山市","address":"焔魔堂町"},
{"zip_code":"5240054","kana_pref":"ｼｶﾞｹﾝ","kana_city":"ﾓﾘﾔﾏｼ","kana_address":"ｵｵﾊﾞﾔｼﾁｮｳ","pref":"滋賀県","city":"守山市","address":"大林町"},
{"zip_code":"5240032","kana_pref":"ｼｶﾞｹﾝ","kana_city":"ﾓﾘﾔﾏｼ","kana_address":"ｵｶﾁｮｳ","pref":"滋賀県","city":"守山市","address":"岡町"},
{"zip_code":"5240004","kana_pref":"ｼｶﾞｹﾝ","kana_city":"ﾓﾘﾔﾏｼ","kana_address":"ｶｻﾊﾗﾁｮｳ","pref":"滋賀県","city":"守山市","address":"笠原町"},
{"zip_code":"5240041","kana_pref":"ｼｶﾞｹﾝ","kana_city":"ﾓﾘﾔﾏｼ","kana_address":"ｶﾂﾍﾞ","pref":"滋賀県","city":"守山市","address":"勝部"},
{"zip_code":"5240041","kana_pref":"ｼｶﾞｹﾝ","kana_city":"ﾓﾘﾔﾏｼ","kana_address":"ｶﾂﾍﾞﾁｮｳ","pref":"滋賀県","city":"守山市","address":"勝部町"},
{"zip_code":"5240045","kana_pref":"ｼｶﾞｹﾝ","kana_city":"ﾓﾘﾔﾏｼ","kana_address":"ｶﾈｶﾞﾓﾘﾁｮｳ","pref":"滋賀県","city":"守山市","address":"金森町"},
{"zip_code":"5240001","kana_pref":"ｼｶﾞｹﾝ","kana_city":"ﾓﾘﾔﾏｼ","kana_address":"ｶﾜﾀﾁｮｳ","pref":"滋賀県","city":"守山市","address":"川田町"},
{"zip_code":"5240002","kana_pref":"ｼｶﾞｹﾝ","kana_city":"ﾓﾘﾔﾏｼ","kana_address":"ｺｼﾞﾏﾁｮｳ","pref":"滋賀県","city":"守山市","address":"小島町"},
{"zip_code":"5240104","kana_pref":"ｼｶﾞｹﾝ","kana_city":"ﾓﾘﾔﾏｼ","kana_address":"ｺﾉﾊﾏﾁｮｳ","pref":"滋賀県","city":"守山市","address":"木浜町"},
{"zip_code":"5240211","kana_pref":"ｼｶﾞｹﾝ","kana_city":"ﾓﾘﾔﾏｼ","kana_address":"ｺﾊﾞﾏﾁｮｳ","pref":"滋賀県","city":"守山市","address":"小浜町"},
{"zip_code":"5240215","kana_pref":"ｼｶﾞｹﾝ","kana_city":"ﾓﾘﾔﾏｼ","kana_address":"ｻﾂﾞｶﾜﾁｮｳ","pref":"滋賀県","city":"守山市","address":"幸津川町"},
{"zip_code":"5240013","kana_pref":"ｼｶﾞｹﾝ","kana_city":"ﾓﾘﾔﾏｼ","kana_address":"ｼﾓﾉｺﾞｳ","pref":"滋賀県","city":"守山市","address":"下之郷"},
{"zip_code":"5240013","kana_pref":"ｼｶﾞｹﾝ","kana_city":"ﾓﾘﾔﾏｼ","kana_address":"ｼﾓﾉｺﾞｳﾁｮｳ","pref":"滋賀県","city":"守山市","address":"下之郷町"},
{"zip_code":"5240055","kana_pref":"ｼｶﾞｹﾝ","kana_city":"ﾓﾘﾔﾏｼ","kana_address":"ｼﾞｭｳﾆﾘﾁｮｳ","pref":"滋賀県","city":"守山市","address":"十二里町"},
{"zip_code":"5240213","kana_pref":"ｼｶﾞｹﾝ","kana_city":"ﾓﾘﾔﾏｼ","kana_address":"ｼﾝｼﾞｮｳﾁｮｳ","pref":"滋賀県","city":"守山市","address":"新庄町"},
{"zip_code":"5240062","kana_pref":"ｼｶﾞｹﾝ","kana_city":"ﾓﾘﾔﾏｼ","kana_address":"ｽｷﾞｴﾁｮｳ","pref":"滋賀県","city":"守山市","address":"杉江町"},
{"zip_code":"5240103","kana_pref":"ｼｶﾞｹﾝ","kana_city":"ﾓﾘﾔﾏｼ","kana_address":"ｽﾓﾄﾁｮｳ","pref":"滋賀県","city":"守山市","address":"洲本町"},
{"zip_code":"5240052","kana_pref":"ｼｶﾞｹﾝ","kana_city":"ﾓﾘﾔﾏｼ","kana_address":"ﾀﾞｲﾓﾝﾁｮｳ","pref":"滋賀県","city":"守山市","address":"大門町"},
{"zip_code":"5240214","kana_pref":"ｼｶﾞｹﾝ","kana_city":"ﾓﾘﾔﾏｼ","kana_address":"ﾀﾂﾀﾁｮｳ","pref":"滋賀県","city":"守山市","address":"立田町"},
{"zip_code":"5240031","kana_pref":"ｼｶﾞｹﾝ","kana_city":"ﾓﾘﾔﾏｼ","kana_address":"ﾀﾃｲﾘﾁｮｳ","pref":"滋賀県","city":"守山市","address":"立入町"},
{"zip_code":"5240034","kana_pref":"ｼｶﾞｹﾝ","kana_city":"ﾓﾘﾔﾏｼ","kana_address":"ﾁｼﾛﾁｮｳ","pref":"滋賀県","city":"守山市","address":"千代町"},
{"zip_code":"5240003","kana_pref":"ｼｶﾞｹﾝ","kana_city":"ﾓﾘﾔﾏｼ","kana_address":"ﾅｶﾁｮｳ","pref":"滋賀県","city":"守山市","address":"中町"},
{"zip_code":"5240212","kana_pref":"ｼｶﾞｹﾝ","kana_city":"ﾓﾘﾔﾏｼ","kana_address":"ﾊｯﾄﾘﾁｮｳ","pref":"滋賀県","city":"守山市","address":"服部町"},
{"zip_code":"5240012","kana_pref":"ｼｶﾞｹﾝ","kana_city":"ﾓﾘﾔﾏｼ","kana_address":"ﾊﾘﾏﾀﾞﾁｮｳ","pref":"滋賀県","city":"守山市","address":"播磨田町"},
{"zip_code":"5240033","kana_pref":"ｼｶﾞｹﾝ","kana_city":"ﾓﾘﾔﾏｼ","kana_address":"ﾌｹﾁｮｳ","pref":"滋賀県","city":"守山市","address":"浮気町"},
{"zip_code":"5240043","kana_pref":"ｼｶﾞｹﾝ","kana_city":"ﾓﾘﾔﾏｼ","kana_address":"ﾌﾀﾏﾁﾁｮｳ","pref":"滋賀県","city":"守山市","address":"二町町"},
{"zip_code":"5240044","kana_pref":"ｼｶﾞｹﾝ","kana_city":"ﾓﾘﾔﾏｼ","kana_address":"ﾌﾙﾀｶﾁｮｳ","pref":"滋賀県","city":"守山市","address":"古高町"},
{"zip_code":"5240063","kana_pref":"ｼｶﾞｹﾝ","kana_city":"ﾓﾘﾔﾏｼ","kana_address":"ﾎｼｶﾁｮｳ","pref":"滋賀県","city":"守山市","address":"欲賀町"},
{"zip_code":"5240102","kana_pref":"ｼｶﾞｹﾝ","kana_city":"ﾓﾘﾔﾏｼ","kana_address":"ﾐｽﾞﾎﾁｮｳ","pref":"滋賀県","city":"守山市","address":"水保町"},
{"zip_code":"5240051","kana_pref":"ｼｶﾞｹﾝ","kana_city":"ﾓﾘﾔﾏｼ","kana_address":"ﾐﾔｹﾁｮｳ","pref":"滋賀県","city":"守山市","address":"三宅町"},
{"zip_code":"5240064","kana_pref":"ｼｶﾞｹﾝ","kana_city":"ﾓﾘﾔﾏｼ","kana_address":"ﾓﾘｶﾜﾗﾁｮｳ","pref":"滋賀県","city":"守山市","address":"森川原町"},
{"zip_code":"5240022","kana_pref":"ｼｶﾞｹﾝ","kana_city":"ﾓﾘﾔﾏｼ","kana_address":"ﾓﾘﾔﾏ","pref":"滋賀県","city":"守山市","address":"守山"},
{"zip_code":"5240022","kana_pref":"ｼｶﾞｹﾝ","kana_city":"ﾓﾘﾔﾏｼ","kana_address":"ﾓﾘﾔﾏﾁｮｳ","pref":"滋賀県","city":"守山市","address":"守山町"},
{"zip_code":"5240015","kana_pref":"ｼｶﾞｹﾝ","kana_city":"ﾓﾘﾔﾏｼ","kana_address":"ﾔｼﾞﾏﾁｮｳ","pref":"滋賀県","city":"守山市","address":"矢島町"},
{"zip_code":"5240065","kana_pref":"ｼｶﾞｹﾝ","kana_city":"ﾓﾘﾔﾏｼ","kana_address":"ﾔﾏｶﾞﾁｮｳ","pref":"滋賀県","city":"守山市","address":"山賀町"},
{"zip_code":"5240053","kana_pref":"ｼｶﾞｹﾝ","kana_city":"ﾓﾘﾔﾏｼ","kana_address":"ﾖｺｴﾁｮｳ","pref":"滋賀県","city":"守山市","address":"横江町"},
{"zip_code":"5240021","kana_pref":"ｼｶﾞｹﾝ","kana_city":"ﾓﾘﾔﾏｼ","kana_address":"ﾖｼﾐ","pref":"滋賀県","city":"守山市","address":"吉身"},
{"zip_code":"5240021","kana_pref":"ｼｶﾞｹﾝ","kana_city":"ﾓﾘﾔﾏｼ","kana_address":"ﾖｼﾐﾁｮｳ","pref":"滋賀県","city":"守山市","address":"吉身町"},
{"zip_code":"5240202","kana_pref":"ｼｶﾞｹﾝ","kana_city":"ﾔｽｼ","kana_address":"ｱﾔﾒ","pref":"滋賀県","city":"野洲市","address":"菖蒲"},
{"zip_code":"5240203","kana_pref":"ｼｶﾞｹﾝ","kana_city":"ﾔｽｼ","kana_address":"ｷｺﾞｳ","pref":"滋賀県","city":"野洲市","address":"喜合"},
{"zip_code":"5240201","kana_pref":"ｼｶﾞｹﾝ","kana_city":"ﾔｽｼ","kana_address":"ﾖｼｶﾜ","pref":"滋賀県","city":"野洲市","address":"吉川"}]}