{"zip_code":[
{"zip_code":"5250000","kana_pref":"ｼｶﾞｹﾝ","kana_city":"ｸｻﾂｼ","kana_address":"","pref":"滋賀県","city":"草津市","address":""},
{"zip_code":"5250041","kana_pref":"ｼｶﾞｹﾝ","kana_city":"ｸｻﾂｼ","kana_address":"ｱｵｼﾞﾁｮｳ","pref":"滋賀県","city":"草津市","address":"青地町"},
{"zip_code":"5250002","kana_pref":"ｼｶﾞｹﾝ","kana_city":"ｸｻﾂｼ","kana_address":"ｱｼｳﾗﾁｮｳ","pref":"滋賀県","city":"草津市","address":"芦浦町"},
{"zip_code":"5250015","kana_pref":"ｼｶﾞｹﾝ","kana_city":"ｸｻﾂｼ","kana_address":"ｱﾂﾏﾘﾁｮｳ","pref":"滋賀県","city":"草津市","address":"集町"},
{"zip_code":"5250012","kana_pref":"ｼｶﾞｹﾝ","kana_city":"ｸｻﾂｼ","kana_address":"ｱﾅﾑﾗﾁｮｳ","pref":"滋賀県","city":"草津市","address":"穴村町"},
{"zip_code":"5250046","kana_pref":"ｼｶﾞｹﾝ","kana_city":"ｸｻﾂｼ","kana_address":"ｵｲﾜｹﾁｮｳ","pref":"滋賀県","city":"草津市","address":"追分町"},
{"zip_code":"5250032","kana_pref":"ｼｶﾞｹﾝ","kana_city":"ｸｻﾂｼ","kana_address":"ｵｵｼﾞ","pref":"滋賀県","city":"草津市","address":"大路"},
{"zip_code":"5250044","kana_pref":"ｼｶﾞｹﾝ","kana_city":"ｸｻﾂｼ","kana_address":"ｵｶﾓﾄﾁｮｳ","pref":"滋賀県","city":"草津市","address":"岡本町"},
{"zip_code":"5250001","kana_pref":"ｼｶﾞｹﾝ","kana_city":"ｸｻﾂｼ","kana_address":"ｵﾛｼﾓﾁｮｳ","pref":"滋賀県","city":"草津市","address":"下物町"},
{"zip_code":"5250072","kana_pref":"ｼｶﾞｹﾝ","kana_city":"ｸｻﾂｼ","kana_address":"ｶｻﾔﾏ","pref":"滋賀県","city":"草津市","address":"笠山"},
{"zip_code":"5250011","kana_pref":"ｼｶﾞｹﾝ","kana_city":"ｸｻﾂｼ","kana_address":"ｶﾀｵｶﾁｮｳ","pref":"滋賀県","city":"草津市","address":"片岡町"},
{"zip_code":"5250028","kana_pref":"ｼｶﾞｹﾝ","kana_city":"ｸｻﾂｼ","kana_address":"ｶﾐｶﾞｻ","pref":"滋賀県","city":"草津市","address":"上笠"},
{"zip_code":"5250004","kana_pref":"ｼｶﾞｹﾝ","kana_city":"ｸｻﾂｼ","kana_address":"ｶﾐﾃﾞﾗﾁｮｳ","pref":"滋賀県","city":"草津市","address":"上寺町"},
{"zip_code":"5250021","kana_pref":"ｼｶﾞｹﾝ","kana_city":"ｸｻﾂｼ","kana_address":"ｶﾜﾗ","pref":"滋賀県","city":"草津市","address":"川原"},
{"zip_code":"5250022","kana_pref":"ｼｶﾞｹﾝ","kana_city":"ｸｻﾂｼ","kana_address":"ｶﾜﾗﾁｮｳ","pref":"滋賀県","city":"草津市","address":"川原町"},
{"zip_code":"5250016","kana_pref":"ｼｶﾞｹﾝ","kana_city":"ｸｻﾂｼ","kana_address":"ｷﾀｵｵｶﾞﾔﾁｮｳ","pref":"滋賀県","city":"草津市","address":"北大萱町"},
{"zip_code":"5250061","kana_pref":"ｼｶﾞｹﾝ","kana_city":"ｸｻﾂｼ","kana_address":"ｷﾀﾔﾏﾀﾞﾁｮｳ","pref":"滋賀県","city":"草津市","address":"北山田町"},
{"zip_code":"5250051","kana_pref":"ｼｶﾞｹﾝ","kana_city":"ｸｻﾂｼ","kana_address":"ｷﾉｶﾜﾁｮｳ","pref":"滋賀県","city":"草津市","address":"木川町"},
{"zip_code":"5250034","kana_pref":"ｼｶﾞｹﾝ","kana_city":"ｸｻﾂｼ","kana_address":"ｸｻﾂ","pref":"滋賀県","city":"草津市","address":"草津"},
{"zip_code":"5250036","kana_pref":"ｼｶﾞｹﾝ","kana_city":"ｸｻﾂｼ","kana_address":"ｸｻﾂﾁｮｳ","pref":"滋賀県","city":"草津市","address":"草津町"},
{"zip_code":"5250014","kana_pref":"ｼｶﾞｹﾝ","kana_city":"ｸｻﾂｼ","kana_address":"ｺﾏｲｻﾞﾜﾁｮｳ","pref":"滋賀県","city":"草津市","address":"駒井沢町"},
{"zip_code":"5250057","kana_pref":"ｼｶﾞｹﾝ","kana_city":"ｸｻﾂｼ","kana_address":"ｻｸﾗｶﾞｵｶ","pref":"滋賀県","city":"草津市","address":"桜ケ丘"},
{"zip_code":"5250005","kana_pref":"ｼｶﾞｹﾝ","kana_city":"ｸｻﾂｼ","kana_address":"ｼﾅﾁｮｳ","pref":"滋賀県","city":"草津市","address":"志那町"},
{"zip_code":"5250006","kana_pref":"ｼｶﾞｹﾝ","kana_city":"ｸｻﾂｼ","kana_address":"ｼﾅﾅｶﾁｮｳ","pref":"滋賀県","city":"草津市","address":"志那中町"},
{"zip_code":"5250026","kana_pref":"ｼｶﾞｹﾝ","kana_city":"ｸｻﾂｼ","kana_address":"ｼﾌﾞｶﾜ","pref":"滋賀県","city":"草津市","address":"渋川"},
{"zip_code":"5250029","kana_pref":"ｼｶﾞｹﾝ","kana_city":"ｸｻﾂｼ","kana_address":"ｼﾓｶﾞｻﾁｮｳ","pref":"滋賀県","city":"草津市","address":"下笠町"},
{"zip_code":"5250007","kana_pref":"ｼｶﾞｹﾝ","kana_city":"ｸｻﾂｼ","kana_address":"ｼﾓﾃﾞﾗﾁｮｳ","pref":"滋賀県","city":"草津市","address":"下寺町"},
{"zip_code":"5250013","kana_pref":"ｼｶﾞｹﾝ","kana_city":"ｸｻﾂｼ","kana_address":"ｼﾝﾄﾞｳﾁｮｳ","pref":"滋賀県","city":"草津市","address":"新堂町"},
{"zip_code":"5250067","kana_pref":"ｼｶﾞｹﾝ","kana_city":"ｸｻﾂｼ","kana_address":"ｼﾝﾊﾏﾁｮｳ","pref":"滋賀県","city":"草津市","address":"新浜町"},
{"zip_code":"5250003","kana_pref":"ｼｶﾞｹﾝ","kana_city":"ｸｻﾂｼ","kana_address":"ﾅﾂｶﾁｮｳ","pref":"滋賀県","city":"草津市","address":"長束町"},
{"zip_code":"5250037","kana_pref":"ｼｶﾞｹﾝ","kana_city":"ｸｻﾂｼ","kana_address":"ﾆｼｵｵｼﾞﾁｮｳ","pref":"滋賀県","city":"草津市","address":"西大路町"},
{"zip_code":"5250035","kana_pref":"ｼｶﾞｹﾝ","kana_city":"ｸｻﾂｼ","kana_address":"ﾆｼｸｻﾂ","pref":"滋賀県","city":"草津市","address":"西草津"},
{"zip_code":"5250025","kana_pref":"ｼｶﾞｹﾝ","kana_city":"ｸｻﾂｼ","kana_address":"ﾆｼｼﾌﾞｶﾜ","pref":"滋賀県","city":"草津市","address":"西渋川"},
{"zip_code":"5250052","kana_pref":"ｼｶﾞｹﾝ","kana_city":"ｸｻﾂｼ","kana_address":"ﾆｼﾔｸﾞﾗ","pref":"滋賀県","city":"草津市","address":"西矢倉"},
{"zip_code":"5250059","kana_pref":"ｼｶﾞｹﾝ","kana_city":"ｸｻﾂｼ","kana_address":"ﾉｼﾞ","pref":"滋賀県","city":"草津市","address":"野路"},
{"zip_code":"5250055","kana_pref":"ｼｶﾞｹﾝ","kana_city":"ｸｻﾂｼ","kana_address":"ﾉｼﾞﾁｮｳ","pref":"滋賀県","city":"草津市","address":"野路町"},
{"zip_code":"5250058","kana_pref":"ｼｶﾞｹﾝ","kana_city":"ｸｻﾂｼ","kana_address":"ﾉｼﾞﾋｶﾞｼ","pref":"滋賀県","city":"草津市","address":"野路東"},
{"zip_code":"5250027","kana_pref":"ｼｶﾞｹﾝ","kana_city":"ｸｻﾂｼ","kana_address":"ﾉﾑﾗ","pref":"滋賀県","city":"草津市","address":"野村"},
{"zip_code":"5250065","kana_pref":"ｼｶﾞｹﾝ","kana_city":"ｸｻﾂｼ","kana_address":"ﾊｼｵｶﾁｮｳ","pref":"滋賀県","city":"草津市","address":"橋岡町"},
{"zip_code":"5250043","kana_pref":"ｼｶﾞｹﾝ","kana_city":"ｸｻﾂｼ","kana_address":"ﾊﾞﾝﾊﾞﾁｮｳ","pref":"滋賀県","city":"草津市","address":"馬場町"},
{"zip_code":"5250033","kana_pref":"ｼｶﾞｹﾝ","kana_city":"ｸｻﾂｼ","kana_address":"ﾋｶﾞｼｸｻﾂ","pref":"滋賀県","city":"草津市","address":"東草津"},
{"zip_code":"5250054","kana_pref":"ｼｶﾞｹﾝ","kana_city":"ｸｻﾂｼ","kana_address":"ﾋｶﾞｼﾔｸﾞﾗ","pref":"滋賀県","city":"草津市","address":"東矢倉"},
{"zip_code":"5250023","kana_pref":"ｼｶﾞｹﾝ","kana_city":"ｸｻﾂｼ","kana_address":"ﾋﾗｲ","pref":"滋賀県","city":"草津市","address":"平井"},
{"zip_code":"5250024","kana_pref":"ｼｶﾞｹﾝ","kana_city":"ｸｻﾂｼ","kana_address":"ﾋﾗｲﾁｮｳ","pref":"滋賀県","city":"草津市","address":"平井町"},
{"zip_code":"5250064","kana_pref":"ｼｶﾞｹﾝ","kana_city":"ｸｻﾂｼ","kana_address":"ﾐｸﾗﾁｮｳ","pref":"滋賀県","city":"草津市","address":"御倉町"},
{"zip_code":"5250056","kana_pref":"ｼｶﾞｹﾝ","kana_city":"ｸｻﾂｼ","kana_address":"ﾐﾅﾐｶﾞｻﾁｮｳ","pref":"滋賀県","city":"草津市","address":"南笠町"},
{"zip_code":"5250071","kana_pref":"ｼｶﾞｹﾝ","kana_city":"ｸｻﾂｼ","kana_address":"ﾐﾅﾐｶﾞｻﾋｶﾞｼ","pref":"滋賀県","city":"草津市","address":"南笠東"},
{"zip_code":"5250050","kana_pref":"ｼｶﾞｹﾝ","kana_city":"ｸｻﾂｼ","kana_address":"ﾐﾅﾐｸｻﾂ","pref":"滋賀県","city":"草津市","address":"南草津"},
{"zip_code":"5250063","kana_pref":"ｼｶﾞｹﾝ","kana_city":"ｸｻﾂｼ","kana_address":"ﾐﾅﾐﾔﾏﾀﾞﾁｮｳ","pref":"滋賀県","city":"草津市","address":"南山田町"},
{"zip_code":"5250053","kana_pref":"ｼｶﾞｹﾝ","kana_city":"ｸｻﾂｼ","kana_address":"ﾔｸﾞﾗ","pref":"滋賀県","city":"草津市","address":"矢倉"},
{"zip_code":"5250066","kana_pref":"ｼｶﾞｹﾝ","kana_city":"ｸｻﾂｼ","kana_address":"ﾔﾊﾞｾﾁｮｳ","pref":"滋賀県","city":"草津市","address":"矢橋町"},
{"zip_code":"5250062","kana_pref":"ｼｶﾞｹﾝ","kana_city":"ｸｻﾂｼ","kana_address":"ﾔﾏﾀﾞﾁｮｳ","pref":"滋賀県","city":"草津市","address":"山田町"},
{"zip_code":"5250042","kana_pref":"ｼｶﾞｹﾝ","kana_city":"ｸｻﾂｼ","kana_address":"ﾔﾏﾃﾞﾗﾁｮｳ","pref":"滋賀県","city":"草津市","address":"山寺町"},
{"zip_code":"5250045","kana_pref":"ｼｶﾞｹﾝ","kana_city":"ｸｻﾂｼ","kana_address":"ﾜｶｸｻ","pref":"滋賀県","city":"草津市","address":"若草"},
{"zip_code":"5250031","kana_pref":"ｼｶﾞｹﾝ","kana_city":"ｸｻﾂｼ","kana_address":"ﾜｶﾀｹﾁｮｳ","pref":"滋賀県","city":"草津市","address":"若竹町"}]}