{"zip_code":[
{"zip_code":"5260000","kana_pref":"ｼｶﾞｹﾝ","kana_city":"ﾅｶﾞﾊﾏｼ","kana_address":"","pref":"滋賀県","city":"長浜市","address":""},
{"zip_code":"5260222","kana_pref":"ｼｶﾞｹﾝ","kana_city":"ﾅｶﾞﾊﾏｼ","kana_address":"ｱｻﾞｲｺｳｹﾞﾝ","pref":"滋賀県","city":"長浜市","address":"浅井高原"},
{"zip_code":"5260056","kana_pref":"ｼｶﾞｹﾝ","kana_city":"ﾅｶﾞﾊﾏｼ","kana_address":"ｱｻﾋﾁｮｳ","pref":"滋賀県","city":"長浜市","address":"朝日町"},
{"zip_code":"5260126","kana_pref":"ｼｶﾞｹﾝ","kana_city":"ﾅｶﾞﾊﾏｼ","kana_address":"ｱﾝﾖｳｼﾞﾁｮｳ","pref":"滋賀県","city":"長浜市","address":"安養寺町"},
{"zip_code":"5260274","kana_pref":"ｼｶﾞｹﾝ","kana_city":"ﾅｶﾞﾊﾏｼ","kana_address":"ｲｹｵｸﾁｮｳ","pref":"滋賀県","city":"長浜市","address":"池奥町"},
{"zip_code":"5260814","kana_pref":"ｼｶﾞｹﾝ","kana_city":"ﾅｶﾞﾊﾏｼ","kana_address":"ｲｼﾀﾞﾁｮｳ","pref":"滋賀県","city":"長浜市","address":"石田町"},
{"zip_code":"5260003","kana_pref":"ｼｶﾞｹﾝ","kana_city":"ﾅｶﾞﾊﾏｼ","kana_address":"ｲｽﾞﾐﾁｮｳ","pref":"滋賀県","city":"長浜市","address":"泉町"},
{"zip_code":"5260051","kana_pref":"ｼｶﾞｹﾝ","kana_city":"ﾅｶﾞﾊﾏｼ","kana_address":"ｲﾁﾉﾐﾔﾁｮｳ","pref":"滋賀県","city":"長浜市","address":"一の宮町"},
{"zip_code":"5260133","kana_pref":"ｼｶﾞｹﾝ","kana_city":"ﾅｶﾞﾊﾏｼ","kana_address":"ｲﾅﾊﾞﾁｮｳ","pref":"滋賀県","city":"長浜市","address":"稲葉町"},
{"zip_code":"5260816","kana_pref":"ｼｶﾞｹﾝ","kana_city":"ﾅｶﾞﾊﾏｼ","kana_address":"ｲﾏｶﾞﾜﾁｮｳ","pref":"滋賀県","city":"長浜市","address":"今川町"},
{"zip_code":"5260233","kana_pref":"ｼｶﾞｹﾝ","kana_city":"ﾅｶﾞﾊﾏｼ","kana_address":"ｲﾏｼﾞｮｳﾁｮｳ","pref":"滋賀県","city":"長浜市","address":"今荘町"},
{"zip_code":"5260806","kana_pref":"ｼｶﾞｹﾝ","kana_city":"ﾅｶﾞﾊﾏｼ","kana_address":"ｲﾏﾁｮｳ","pref":"滋賀県","city":"長浜市","address":"今町"},
{"zip_code":"5260211","kana_pref":"ｼｶﾞｹﾝ","kana_city":"ﾅｶﾞﾊﾏｼ","kana_address":"ｲﾔﾏﾁｮｳ","pref":"滋賀県","city":"長浜市","address":"飯山町"},
{"zip_code":"5260244","kana_pref":"ｼｶﾞｹﾝ","kana_city":"ﾅｶﾞﾊﾏｼ","kana_address":"ｳﾁﾎﾞﾁｮｳ","pref":"滋賀県","city":"長浜市","address":"内保町"},
{"zip_code":"5260275","kana_pref":"ｼｶﾞｹﾝ","kana_city":"ﾅｶﾞﾊﾏｼ","kana_address":"ｳﾘｭｳﾁｮｳ","pref":"滋賀県","city":"長浜市","address":"瓜生町"},
{"zip_code":"5260264","kana_pref":"ｼｶﾞｹﾝ","kana_city":"ﾅｶﾞﾊﾏｼ","kana_address":"ｳﾜﾉﾁｮｳ","pref":"滋賀県","city":"長浜市","address":"上野町"},
{"zip_code":"5260833","kana_pref":"ｼｶﾞｹﾝ","kana_city":"ﾅｶﾞﾊﾏｼ","kana_address":"ｴｲｷｭｳｼﾞﾁｮｳ","pref":"滋賀県","city":"長浜市","address":"永久寺町"},
{"zip_code":"5260805","kana_pref":"ｼｶﾞｹﾝ","kana_city":"ﾅｶﾞﾊﾏｼ","kana_address":"ｴﾉｷﾁｮｳ","pref":"滋賀県","city":"長浜市","address":"榎木町"},
{"zip_code":"5260043","kana_pref":"ｼｶﾞｹﾝ","kana_city":"ﾅｶﾞﾊﾏｼ","kana_address":"ｵｵｲﾇｲﾁｮｳ","pref":"滋賀県","city":"長浜市","address":"大戌亥町"},
{"zip_code":"5260066","kana_pref":"ｼｶﾞｹﾝ","kana_city":"ﾅｶﾞﾊﾏｼ","kana_address":"ｵｵｼﾏﾁｮｳ","pref":"滋賀県","city":"長浜市","address":"大島町"},
{"zip_code":"5260207","kana_pref":"ｼｶﾞｹﾝ","kana_city":"ﾅｶﾞﾊﾏｼ","kana_address":"ｵｵﾀﾁｮｳ","pref":"滋賀県","city":"長浜市","address":"太田町"},
{"zip_code":"5260834","kana_pref":"ｼｶﾞｹﾝ","kana_city":"ﾅｶﾞﾊﾏｼ","kana_address":"ｵｵﾀﾂﾐﾁｮｳ","pref":"滋賀県","city":"長浜市","address":"大辰巳町"},
{"zip_code":"5260115","kana_pref":"ｼｶﾞｹﾝ","kana_city":"ﾅｶﾞﾊﾏｼ","kana_address":"ｵｵﾊﾏﾁｮｳ","pref":"滋賀県","city":"長浜市","address":"大浜町"},
{"zip_code":"5260832","kana_pref":"ｼｶﾞｹﾝ","kana_city":"ﾅｶﾞﾊﾏｼ","kana_address":"ｵｵﾋｶﾞｼﾁｮｳ","pref":"滋賀県","city":"長浜市","address":"大東町"},
{"zip_code":"5260054","kana_pref":"ｼｶﾞｹﾝ","kana_city":"ﾅｶﾞﾊﾏｼ","kana_address":"ｵｵﾐﾔﾁｮｳ","pref":"滋賀県","city":"長浜市","address":"大宮町"},
{"zip_code":"5260251","kana_pref":"ｼｶﾞｹﾝ","kana_city":"ﾅｶﾞﾊﾏｼ","kana_address":"ｵｵﾖﾘﾁｮｳ","pref":"滋賀県","city":"長浜市","address":"大依町"},
{"zip_code":"5260205","kana_pref":"ｼｶﾞｹﾝ","kana_city":"ﾅｶﾞﾊﾏｼ","kana_address":"ｵｶﾀﾞﾆﾁｮｳ","pref":"滋賀県","city":"長浜市","address":"岡谷町"},
{"zip_code":"5260102","kana_pref":"ｼｶﾞｹﾝ","kana_city":"ﾅｶﾞﾊﾏｼ","kana_address":"ｵﾁｱｲﾁｮｳ","pref":"滋賀県","city":"長浜市","address":"落合町"},
{"zip_code":"5260243","kana_pref":"ｼｶﾞｹﾝ","kana_city":"ﾅｶﾞﾊﾏｼ","kana_address":"ｵﾁﾁｮｳ","pref":"滋賀県","city":"長浜市","address":"大路町"},
{"zip_code":"5260221","kana_pref":"ｼｶﾞｹﾝ","kana_city":"ﾅｶﾞﾊﾏｼ","kana_address":"ｵﾉﾃﾞﾗﾁｮｳ","pref":"滋賀県","city":"長浜市","address":"小野寺町"},
{"zip_code":"5260811","kana_pref":"ｼｶﾞｹﾝ","kana_city":"ﾅｶﾞﾊﾏｼ","kana_address":"ｶｲｺﾞﾒﾁｮｳ","pref":"滋賀県","city":"長浜市","address":"垣籠町"},
{"zip_code":"5260204","kana_pref":"ｼｶﾞｹﾝ","kana_city":"ﾅｶﾞﾊﾏｼ","kana_address":"ｶｼﾞﾔﾁｮｳ","pref":"滋賀県","city":"長浜市","address":"鍛冶屋町"},
{"zip_code":"5260827","kana_pref":"ｼｶﾞｹﾝ","kana_city":"ﾅｶﾞﾊﾏｼ","kana_address":"ｶﾀﾞｲﾏﾁｮｳ","pref":"滋賀県","city":"長浜市","address":"加田今町"},
{"zip_code":"5260828","kana_pref":"ｼｶﾞｹﾝ","kana_city":"ﾅｶﾞﾊﾏｼ","kana_address":"ｶﾀﾞﾁｮｳ","pref":"滋賀県","city":"長浜市","address":"加田町"},
{"zip_code":"5260042","kana_pref":"ｼｶﾞｹﾝ","kana_city":"ﾅｶﾞﾊﾏｼ","kana_address":"ｶﾂﾁｮｳ","pref":"滋賀県","city":"長浜市","address":"勝町"},
{"zip_code":"5260068","kana_pref":"ｼｶﾞｹﾝ","kana_city":"ﾅｶﾞﾊﾏｼ","kana_address":"ｶﾈﾎﾞｳﾁｮｳ","pref":"滋賀県","city":"長浜市","address":"鐘紡町"},
{"zip_code":"5260804","kana_pref":"ｼｶﾞｹﾝ","kana_city":"ﾅｶﾞﾊﾏｼ","kana_address":"ｶﾉｳﾁｮｳ","pref":"滋賀県","city":"長浜市","address":"加納町"},
{"zip_code":"5260015","kana_pref":"ｼｶﾞｹﾝ","kana_city":"ﾅｶﾞﾊﾏｼ","kana_address":"ｶﾐﾃﾙﾁｮｳ","pref":"滋賀県","city":"長浜市","address":"神照町"},
{"zip_code":"5260122","kana_pref":"ｼｶﾞｹﾝ","kana_city":"ﾅｶﾞﾊﾏｼ","kana_address":"ｶﾐﾔｷﾞﾁｮｳ","pref":"滋賀県","city":"長浜市","address":"上八木町"},
{"zip_code":"5260846","kana_pref":"ｼｶﾞｹﾝ","kana_city":"ﾅｶﾞﾊﾏｼ","kana_address":"ｶﾜｻｷﾁｮｳ","pref":"滋賀県","city":"長浜市","address":"川崎町"},
{"zip_code":"5260111","kana_pref":"ｼｶﾞｹﾝ","kana_city":"ﾅｶﾞﾊﾏｼ","kana_address":"ｶﾜﾐﾁﾁｮｳ","pref":"滋賀県","city":"長浜市","address":"川道町"},
{"zip_code":"5260265","kana_pref":"ｼｶﾞｹﾝ","kana_city":"ﾅｶﾞﾊﾏｼ","kana_address":"ｷｵﾁｮｳ","pref":"滋賀県","city":"長浜市","address":"木尾町"},
{"zip_code":"5260061","kana_pref":"ｼｶﾞｹﾝ","kana_city":"ﾅｶﾞﾊﾏｼ","kana_address":"ｷﾞｵﾝﾁｮｳ","pref":"滋賀県","city":"長浜市","address":"祇園町"},
{"zip_code":"5260231","kana_pref":"ｼｶﾞｹﾝ","kana_city":"ﾅｶﾞﾊﾏｼ","kana_address":"ｷﾀｲｹﾁｮｳ","pref":"滋賀県","city":"長浜市","address":"北池町"},
{"zip_code":"5260214","kana_pref":"ｼｶﾞｹﾝ","kana_city":"ﾅｶﾞﾊﾏｼ","kana_address":"ｷﾀﾉｺﾞｳﾁｮｳ","pref":"滋賀県","city":"長浜市","address":"北ノ郷町"},
{"zip_code":"5260272","kana_pref":"ｼｶﾞｹﾝ","kana_city":"ﾅｶﾞﾊﾏｼ","kana_address":"ｷﾀﾉﾁｮｳ","pref":"滋賀県","city":"長浜市","address":"北野町"},
{"zip_code":"5260057","kana_pref":"ｼｶﾞｹﾝ","kana_city":"ﾅｶﾞﾊﾏｼ","kana_address":"ｷﾀﾌﾅﾁｮｳ","pref":"滋賀県","city":"長浜市","address":"北船町"},
{"zip_code":"5260202","kana_pref":"ｼｶﾞｹﾝ","kana_city":"ﾅｶﾞﾊﾏｼ","kana_address":"ｸｻﾉﾁｮｳ","pref":"滋賀県","city":"長浜市","address":"草野町"},
{"zip_code":"5260001","kana_pref":"ｼｶﾞｹﾝ","kana_city":"ﾅｶﾞﾊﾏｼ","kana_address":"ｸﾆﾄﾓﾁｮｳ","pref":"滋賀県","city":"長浜市","address":"国友町"},
{"zip_code":"5260014","kana_pref":"ｼｶﾞｹﾝ","kana_city":"ﾅｶﾞﾊﾏｼ","kana_address":"ｸﾓﾃﾞﾁｮｳ","pref":"滋賀県","city":"長浜市","address":"口分田町"},
{"zip_code":"5260262","kana_pref":"ｼｶﾞｹﾝ","kana_city":"ﾅｶﾞﾊﾏｼ","kana_address":"ｸﾛﾍﾞﾁｮｳ","pref":"滋賀県","city":"長浜市","address":"黒部町"},
{"zip_code":"5260826","kana_pref":"ｼｶﾞｹﾝ","kana_city":"ﾅｶﾞﾊﾏｼ","kana_address":"ｺｲﾁｼﾞｮｳﾁｮｳ","pref":"滋賀県","city":"長浜市","address":"小一条町"},
{"zip_code":"5260065","kana_pref":"ｼｶﾞｹﾝ","kana_city":"ﾅｶﾞﾊﾏｼ","kana_address":"ｺｳｴﾝﾁｮｳ","pref":"滋賀県","city":"長浜市","address":"公園町"},
{"zip_code":"5260132","kana_pref":"ｼｶﾞｹﾝ","kana_city":"ﾅｶﾞﾊﾏｼ","kana_address":"ｺｳｹｲｼﾞﾁｮｳ","pref":"滋賀県","city":"長浜市","address":"香花寺町"},
{"zip_code":"5260206","kana_pref":"ｼｶﾞｹﾝ","kana_city":"ﾅｶﾞﾊﾏｼ","kana_address":"ｺﾞｳﾉﾁｮｳ","pref":"滋賀県","city":"長浜市","address":"郷野町"},
{"zip_code":"5260134","kana_pref":"ｼｶﾞｹﾝ","kana_city":"ﾅｶﾞﾊﾏｼ","kana_address":"ｺｶﾝﾉﾝｼﾞﾁｮｳ","pref":"滋賀県","city":"長浜市","address":"小観音寺町"},
{"zip_code":"5260004","kana_pref":"ｼｶﾞｹﾝ","kana_city":"ﾅｶﾞﾊﾏｼ","kana_address":"ｺｻﾞﾜﾁｮｳ","pref":"滋賀県","city":"長浜市","address":"小沢町"},
{"zip_code":"5260845","kana_pref":"ｼｶﾞｹﾝ","kana_city":"ﾅｶﾞﾊﾏｼ","kana_address":"ｺﾎﾞﾘﾁｮｳ","pref":"滋賀県","city":"長浜市","address":"小堀町"},
{"zip_code":"5260263","kana_pref":"ｼｶﾞｹﾝ","kana_city":"ﾅｶﾞﾊﾏｼ","kana_address":"ｺﾑﾛﾁｮｳ","pref":"滋賀県","city":"長浜市","address":"小室町"},
{"zip_code":"5260235","kana_pref":"ｼｶﾞｹﾝ","kana_city":"ﾅｶﾞﾊﾏｼ","kana_address":"ｻﾉﾁｮｳ","pref":"滋賀県","city":"長浜市","address":"佐野町"},
{"zip_code":"5260055","kana_pref":"ｼｶﾞｹﾝ","kana_city":"ﾅｶﾞﾊﾏｼ","kana_address":"ｻﾝﾜﾁｮｳ","pref":"滋賀県","city":"長浜市","address":"三和町"},
{"zip_code":"5260817","kana_pref":"ｼｶﾞｹﾝ","kana_city":"ﾅｶﾞﾊﾏｼ","kana_address":"ｼﾁｼﾞｮｳﾁｮｳ","pref":"滋賀県","city":"長浜市","address":"七条町"},
{"zip_code":"5260036","kana_pref":"ｼｶﾞｹﾝ","kana_city":"ﾅｶﾞﾊﾏｼ","kana_address":"ｼﾞﾌｸｼﾞﾁｮｳ","pref":"滋賀県","city":"長浜市","address":"地福寺町"},
{"zip_code":"5260044","kana_pref":"ｼｶﾞｹﾝ","kana_city":"ﾅｶﾞﾊﾏｼ","kana_address":"ｼﾓｻｶﾅｶﾁｮｳ","pref":"滋賀県","city":"長浜市","address":"下坂中町"},
{"zip_code":"5260047","kana_pref":"ｼｶﾞｹﾝ","kana_city":"ﾅｶﾞﾊﾏｼ","kana_address":"ｼﾓｻｶﾊﾏﾁｮｳ","pref":"滋賀県","city":"長浜市","address":"下坂浜町"},
{"zip_code":"5260005","kana_pref":"ｼｶﾞｹﾝ","kana_city":"ﾅｶﾞﾊﾏｼ","kana_address":"ｼﾓﾉｺﾞｳﾁｮｳ","pref":"滋賀県","city":"長浜市","address":"下之郷町"},
{"zip_code":"5260123","kana_pref":"ｼｶﾞｹﾝ","kana_city":"ﾅｶﾞﾊﾏｼ","kana_address":"ｼﾓﾔｷﾞﾁｮｳ","pref":"滋賀県","city":"長浜市","address":"下八木町"},
{"zip_code":"5260016","kana_pref":"ｼｶﾞｹﾝ","kana_city":"ﾅｶﾞﾊﾏｼ","kana_address":"ｼﾞｭｳﾘﾁｮｳ","pref":"滋賀県","city":"長浜市","address":"十里町"},
{"zip_code":"5260121","kana_pref":"ｼｶﾞｹﾝ","kana_city":"ﾅｶﾞﾊﾏｼ","kana_address":"ｼﾞｭｯｸﾁｮｳ","pref":"滋賀県","city":"長浜市","address":"十九町"},
{"zip_code":"5260823","kana_pref":"ｼｶﾞｹﾝ","kana_city":"ﾅｶﾞﾊﾏｼ","kana_address":"ｼﾞｮｳｷﾞﾁｮｳ","pref":"滋賀県","city":"長浜市","address":"常喜町"},
{"zip_code":"5260013","kana_pref":"ｼｶﾞｹﾝ","kana_city":"ﾅｶﾞﾊﾏｼ","kana_address":"ｼﾝｼﾞｮｳﾃﾗﾁｮｳ","pref":"滋賀県","city":"長浜市","address":"新庄寺町"},
{"zip_code":"5260012","kana_pref":"ｼｶﾞｹﾝ","kana_city":"ﾅｶﾞﾊﾏｼ","kana_address":"ｼﾝｼﾞｮｳﾅｶﾁｮｳ","pref":"滋賀県","city":"長浜市","address":"新庄中町"},
{"zip_code":"5260011","kana_pref":"ｼｶﾞｹﾝ","kana_city":"ﾅｶﾞﾊﾏｼ","kana_address":"ｼﾝｼﾞｮｳﾊﾞﾝﾊﾞﾁｮｳ","pref":"滋賀県","city":"長浜市","address":"新庄馬場町"},
{"zip_code":"5260052","kana_pref":"ｼｶﾞｹﾝ","kana_city":"ﾅｶﾞﾊﾏｼ","kana_address":"ｼﾝｾﾞﾝﾁｮｳ","pref":"滋賀県","city":"長浜市","address":"神前町"},
{"zip_code":"5260241","kana_pref":"ｼｶﾞｹﾝ","kana_city":"ﾅｶﾞﾊﾏｼ","kana_address":"ｼﾝﾐﾀ","pref":"滋賀県","city":"長浜市","address":"新三田"},
{"zip_code":"5260063","kana_pref":"ｼｶﾞｹﾝ","kana_city":"ﾅｶﾞﾊﾏｼ","kana_address":"ｽｴﾋﾛﾁｮｳ","pref":"滋賀県","city":"長浜市","address":"末広町"},
{"zip_code":"5260277","kana_pref":"ｼｶﾞｹﾝ","kana_city":"ﾅｶﾞﾊﾏｼ","kana_address":"ｽｶﾞﾀﾆﾁｮｳ","pref":"滋賀県","city":"長浜市","address":"須賀谷町"},
{"zip_code":"5260017","kana_pref":"ｼｶﾞｹﾝ","kana_city":"ﾅｶﾞﾊﾏｼ","kana_address":"ｽﾏｲﾁｮｳ","pref":"滋賀県","city":"長浜市","address":"相撲町"},
{"zip_code":"5260234","kana_pref":"ｼｶﾞｹﾝ","kana_city":"ﾅｶﾞﾊﾏｼ","kana_address":"ｽﾏｲﾆﾜﾁｮｳ","pref":"滋賀県","city":"長浜市","address":"相撲庭町"},
{"zip_code":"5260103","kana_pref":"ｼｶﾞｹﾝ","kana_city":"ﾅｶﾞﾊﾏｼ","kana_address":"ｿﾈﾁｮｳ","pref":"滋賀県","city":"長浜市","address":"曽根町"},
{"zip_code":"5260256","kana_pref":"ｼｶﾞｹﾝ","kana_city":"ﾅｶﾞﾊﾏｼ","kana_address":"ｿﾝｼｮｳｼﾞﾁｮｳ","pref":"滋賀県","city":"長浜市","address":"尊勝寺町"},
{"zip_code":"5260254","kana_pref":"ｼｶﾞｹﾝ","kana_city":"ﾅｶﾞﾊﾏｼ","kana_address":"ｿﾝﾉﾁｮｳ","pref":"滋賀県","city":"長浜市","address":"尊野町"},
{"zip_code":"5260213","kana_pref":"ｼｶﾞｹﾝ","kana_city":"ﾅｶﾞﾊﾏｼ","kana_address":"ﾀﾞｲｺﾞﾁｮｳ","pref":"滋賀県","city":"長浜市","address":"醍醐町"},
{"zip_code":"5260216","kana_pref":"ｼｶﾞｹﾝ","kana_city":"ﾅｶﾞﾊﾏｼ","kana_address":"ﾀﾞｲﾓﾝﾁｮｳ","pref":"滋賀県","city":"長浜市","address":"大門町"},
{"zip_code":"5260037","kana_pref":"ｼｶﾞｹﾝ","kana_city":"ﾅｶﾞﾊﾏｼ","kana_address":"ﾀｶﾀﾞﾁｮｳ","pref":"滋賀県","city":"長浜市","address":"高田町"},
{"zip_code":"5260046","kana_pref":"ｼｶﾞｹﾝ","kana_city":"ﾅｶﾞﾊﾏｼ","kana_address":"ﾀｶﾊｼﾁｮｳ","pref":"滋賀県","city":"長浜市","address":"高橋町"},
{"zip_code":"5260273","kana_pref":"ｼｶﾞｹﾝ","kana_city":"ﾅｶﾞﾊﾏｼ","kana_address":"ﾀｶﾊﾀﾁｮｳ","pref":"滋賀県","city":"長浜市","address":"高畑町"},
{"zip_code":"5260201","kana_pref":"ｼｶﾞｹﾝ","kana_city":"ﾅｶﾞﾊﾏｼ","kana_address":"ﾀｶﾔﾏﾁｮｳ","pref":"滋賀県","city":"長浜市","address":"高山町"},
{"zip_code":"5260276","kana_pref":"ｼｶﾞｹﾝ","kana_city":"ﾅｶﾞﾊﾏｼ","kana_address":"ﾀｶﾞﾜﾁｮｳ","pref":"滋賀県","city":"長浜市","address":"田川町"},
{"zip_code":"5260271","kana_pref":"ｼｶﾞｹﾝ","kana_city":"ﾅｶﾞﾊﾏｼ","kana_address":"ﾀﾆｸﾞﾁﾁｮｳ","pref":"滋賀県","city":"長浜市","address":"谷口町"},
{"zip_code":"5260829","kana_pref":"ｼｶﾞｹﾝ","kana_city":"ﾅｶﾞﾊﾏｼ","kana_address":"ﾀﾑﾗﾁｮｳ","pref":"滋賀県","city":"長浜市","address":"田村町"},
{"zip_code":"5260801","kana_pref":"ｼｶﾞｹﾝ","kana_city":"ﾅｶﾞﾊﾏｼ","kana_address":"ﾁｸｻﾁｮｳ","pref":"滋賀県","city":"長浜市","address":"千草町"},
{"zip_code":"5260112","kana_pref":"ｼｶﾞｹﾝ","kana_city":"ﾅｶﾞﾊﾏｼ","kana_address":"ﾂﾙｶﾞｼﾏ","pref":"滋賀県","city":"長浜市","address":"鶴が島"},
{"zip_code":"5260209","kana_pref":"ｼｶﾞｹﾝ","kana_city":"ﾅｶﾞﾊﾏｼ","kana_address":"ﾃﾗｼﾁｮｳ","pref":"滋賀県","city":"長浜市","address":"寺師町"},
{"zip_code":"5260045","kana_pref":"ｼｶﾞｹﾝ","kana_city":"ﾅｶﾞﾊﾏｼ","kana_address":"ﾃﾗﾀﾞﾁｮｳ","pref":"滋賀県","city":"長浜市","address":"寺田町"},
{"zip_code":"5260215","kana_pref":"ｼｶﾞｹﾝ","kana_city":"ﾅｶﾞﾊﾏｼ","kana_address":"ﾄｳﾒﾁｮｳ","pref":"滋賀県","city":"長浜市","address":"当目町"},
{"zip_code":"5260212","kana_pref":"ｼｶﾞｹﾝ","kana_city":"ﾅｶﾞﾊﾏｼ","kana_address":"ﾄｸﾔﾏﾁｮｳ","pref":"滋賀県","city":"長浜市","address":"徳山町"},
{"zip_code":"5260064","kana_pref":"ｼｶﾞｹﾝ","kana_city":"ﾅｶﾞﾊﾏｼ","kana_address":"ﾄﾉﾁｮｳ","pref":"滋賀県","city":"長浜市","address":"殿町"},
{"zip_code":"5260822","kana_pref":"ｼｶﾞｹﾝ","kana_city":"ﾅｶﾞﾊﾏｼ","kana_address":"ﾄﾊﾞｶﾐﾁｮｳ","pref":"滋賀県","city":"長浜市","address":"鳥羽上町"},
{"zip_code":"5260131","kana_pref":"ｼｶﾞｹﾝ","kana_city":"ﾅｶﾞﾊﾏｼ","kana_address":"ﾄﾝﾀﾞﾁｮｳ","pref":"滋賀県","city":"長浜市","address":"富田町"},
{"zip_code":"5260114","kana_pref":"ｼｶﾞｹﾝ","kana_city":"ﾅｶﾞﾊﾏｼ","kana_address":"ﾅｶﾊﾏ","pref":"滋賀県","city":"長浜市","address":"中浜"},
{"zip_code":"5260022","kana_pref":"ｼｶﾞｹﾝ","kana_city":"ﾅｶﾞﾊﾏｼ","kana_address":"ﾅｶﾔﾏﾁｮｳ","pref":"滋賀県","city":"長浜市","address":"中山町"},
{"zip_code":"5260824","kana_pref":"ｼｶﾞｹﾝ","kana_city":"ﾅｶﾞﾊﾏｼ","kana_address":"ﾅｺﾞｼﾁｮｳ","pref":"滋賀県","city":"長浜市","address":"名越町"},
{"zip_code":"5260225","kana_pref":"ｼｶﾞｹﾝ","kana_city":"ﾅｶﾞﾊﾏｼ","kana_address":"ﾅﾝｺﾞｳﾁｮｳ","pref":"滋賀県","city":"長浜市","address":"南郷町"},
{"zip_code":"5260108","kana_pref":"ｼｶﾞｹﾝ","kana_city":"ﾅｶﾞﾊﾏｼ","kana_address":"ﾅﾝﾊﾞﾁｮｳ","pref":"滋賀県","city":"長浜市","address":"難波町"},
{"zip_code":"5260841","kana_pref":"ｼｶﾞｹﾝ","kana_city":"ﾅｶﾞﾊﾏｼ","kana_address":"ﾆｲｻｶﾁｮｳ","pref":"滋賀県","city":"長浜市","address":"新栄町"},
{"zip_code":"5260227","kana_pref":"ｼｶﾞｹﾝ","kana_city":"ﾅｶﾞﾊﾏｼ","kana_address":"ﾆｼｶｽﾞｴﾁｮｳ","pref":"滋賀県","city":"長浜市","address":"西主計町"},
{"zip_code":"5260803","kana_pref":"ｼｶﾞｹﾝ","kana_city":"ﾅｶﾞﾊﾏｼ","kana_address":"ﾆｼｺｳｻﾞｶﾁｮｳ","pref":"滋賀県","city":"長浜市","address":"西上坂町"},
{"zip_code":"5260101","kana_pref":"ｼｶﾞｹﾝ","kana_city":"ﾅｶﾞﾊﾏｼ","kana_address":"ﾆｼｺｵﾘﾁｮｳ","pref":"滋賀県","city":"長浜市","address":"錦織町"},
{"zip_code":"5260246","kana_pref":"ｼｶﾞｹﾝ","kana_city":"ﾅｶﾞﾊﾏｼ","kana_address":"ﾆｼｼﾝﾐﾀ","pref":"滋賀県","city":"長浜市","address":"西新三田"},
{"zip_code":"5260255","kana_pref":"ｼｶﾞｹﾝ","kana_city":"ﾅｶﾞﾊﾏｼ","kana_address":"ﾆｼﾉﾁｮｳ","pref":"滋賀県","city":"長浜市","address":"西野町"},
{"zip_code":"5260208","kana_pref":"ｼｶﾞｹﾝ","kana_city":"ﾅｶﾞﾊﾏｼ","kana_address":"ﾆｼﾑﾗﾁｮｳ","pref":"滋賀県","city":"長浜市","address":"西村町"},
{"zip_code":"5260107","kana_pref":"ｼｶﾞｹﾝ","kana_city":"ﾅｶﾞﾊﾏｼ","kana_address":"ﾆﾉｲﾁｮｳ","pref":"滋賀県","city":"長浜市","address":"新居町"},
{"zip_code":"5260217","kana_pref":"ｼｶﾞｹﾝ","kana_city":"ﾅｶﾞﾊﾏｼ","kana_address":"ﾉｾｸﾗﾁｮｳ","pref":"滋賀県","city":"長浜市","address":"乗倉町"},
{"zip_code":"5260203","kana_pref":"ｼｶﾞｹﾝ","kana_city":"ﾅｶﾞﾊﾏｼ","kana_address":"ﾉｾﾁｮｳ","pref":"滋賀県","city":"長浜市","address":"野瀬町"},
{"zip_code":"5260266","kana_pref":"ｼｶﾞｹﾝ","kana_city":"ﾅｶﾞﾊﾏｼ","kana_address":"ﾉﾀﾞﾁｮｳ","pref":"滋賀県","city":"長浜市","address":"野田町"},
{"zip_code":"5260106","kana_pref":"ｼｶﾞｹﾝ","kana_city":"ﾅｶﾞﾊﾏｼ","kana_address":"ﾉﾃﾞﾗﾁｮｳ","pref":"滋賀県","city":"長浜市","address":"野寺町"},
{"zip_code":"5260236","kana_pref":"ｼｶﾞｹﾝ","kana_city":"ﾅｶﾞﾊﾏｼ","kana_address":"ﾉﾑﾗﾁｮｳ","pref":"滋賀県","city":"長浜市","address":"野村町"},
{"zip_code":"5260815","kana_pref":"ｼｶﾞｹﾝ","kana_city":"ﾅｶﾞﾊﾏｼ","kana_address":"ﾊﾁｼﾞｮｳﾁｮｳ","pref":"滋賀県","city":"長浜市","address":"八条町"},
{"zip_code":"5260124","kana_pref":"ｼｶﾞｹﾝ","kana_city":"ﾅｶﾞﾊﾏｼ","kana_address":"ﾊﾔｻﾞｷﾁｮｳ","pref":"滋賀県","city":"長浜市","address":"早崎町"},
{"zip_code":"5260842","kana_pref":"ｼｶﾞｹﾝ","kana_city":"ﾅｶﾞﾊﾏｼ","kana_address":"ﾊﾙﾁｶﾁｮｳ","pref":"滋賀県","city":"長浜市","address":"春近町"},
{"zip_code":"5260226","kana_pref":"ｼｶﾞｹﾝ","kana_city":"ﾅｶﾞﾊﾏｼ","kana_address":"ﾋｶﾞｼｶｽﾞｴﾁｮｳ","pref":"滋賀県","city":"長浜市","address":"東主計町"},
{"zip_code":"5260802","kana_pref":"ｼｶﾞｹﾝ","kana_city":"ﾅｶﾞﾊﾏｼ","kana_address":"ﾋｶﾞｼｺｳｻﾞｶﾁｮｳ","pref":"滋賀県","city":"長浜市","address":"東上坂町"},
{"zip_code":"5260224","kana_pref":"ｼｶﾞｹﾝ","kana_city":"ﾅｶﾞﾊﾏｼ","kana_address":"ﾋｶﾞｼﾉﾁｮｳ","pref":"滋賀県","city":"長浜市","address":"東野町"},
{"zip_code":"5260035","kana_pref":"ｼｶﾞｹﾝ","kana_city":"ﾅｶﾞﾊﾏｼ","kana_address":"ﾋﾗｶﾀﾐﾅﾐﾁｮｳ","pref":"滋賀県","city":"長浜市","address":"平方南町"},
{"zip_code":"5260033","kana_pref":"ｼｶﾞｹﾝ","kana_city":"ﾅｶﾞﾊﾏｼ","kana_address":"ﾋﾗｶﾀﾁｮｳ","pref":"滋賀県","city":"長浜市","address":"平方町"},
{"zip_code":"5260253","kana_pref":"ｼｶﾞｹﾝ","kana_city":"ﾅｶﾞﾊﾏｼ","kana_address":"ﾋﾗﾂｶﾁｮｳ","pref":"滋賀県","city":"長浜市","address":"平塚町"},
{"zip_code":"5260825","kana_pref":"ｼｶﾞｹﾝ","kana_city":"ﾅｶﾞﾊﾏｼ","kana_address":"ﾌｾﾁｮｳ","pref":"滋賀県","city":"長浜市","address":"布勢町"},
{"zip_code":"5260025","kana_pref":"ｼｶﾞｹﾝ","kana_city":"ﾅｶﾞﾊﾏｼ","kana_address":"ﾌﾞﾝｷﾞﾁｮｳ","pref":"滋賀県","city":"長浜市","address":"分木町"},
{"zip_code":"5260002","kana_pref":"ｼｶﾞｹﾝ","kana_city":"ﾅｶﾞﾊﾏｼ","kana_address":"ﾎｳﾃﾞﾁｮｳ","pref":"滋賀県","city":"長浜市","address":"保田町"},
{"zip_code":"5260223","kana_pref":"ｼｶﾞｹﾝ","kana_city":"ﾅｶﾞﾊﾏｼ","kana_address":"ﾎｳﾗｸｼﾞﾁｮｳ","pref":"滋賀県","city":"長浜市","address":"法楽寺町"},
{"zip_code":"5260105","kana_pref":"ｼｶﾞｹﾝ","kana_city":"ﾅｶﾞﾊﾏｼ","kana_address":"ﾎｿｴﾁｮｳ","pref":"滋賀県","city":"長浜市","address":"細江町"},
{"zip_code":"5260812","kana_pref":"ｼｶﾞｹﾝ","kana_city":"ﾅｶﾞﾊﾏｼ","kana_address":"ﾎﾀﾞﾁｮｳ","pref":"滋賀県","city":"長浜市","address":"保多町"},
{"zip_code":"5260813","kana_pref":"ｼｶﾞｹﾝ","kana_city":"ﾅｶﾞﾊﾏｼ","kana_address":"ﾎﾘﾍﾞﾁｮｳ","pref":"滋賀県","city":"長浜市","address":"堀部町"},
{"zip_code":"5260821","kana_pref":"ｼｶﾞｹﾝ","kana_city":"ﾅｶﾞﾊﾏｼ","kana_address":"ﾎﾝｼﾞｮｳﾁｮｳ","pref":"滋賀県","city":"長浜市","address":"本庄町"},
{"zip_code":"5260125","kana_pref":"ｼｶﾞｹﾝ","kana_city":"ﾅｶﾞﾊﾏｼ","kana_address":"ﾏｽﾀﾞﾁｮｳ","pref":"滋賀県","city":"長浜市","address":"益田町"},
{"zip_code":"5260104","kana_pref":"ｼｶﾞｹﾝ","kana_city":"ﾅｶﾞﾊﾏｼ","kana_address":"ﾐﾀﾁ","pref":"滋賀県","city":"長浜市","address":"御館"},
{"zip_code":"5260242","kana_pref":"ｼｶﾞｹﾝ","kana_city":"ﾅｶﾞﾊﾏｼ","kana_address":"ﾐﾀﾁｮｳ","pref":"滋賀県","city":"長浜市","address":"三田町"},
{"zip_code":"5260023","kana_pref":"ｼｶﾞｹﾝ","kana_city":"ﾅｶﾞﾊﾏｼ","kana_address":"ﾐﾂﾔﾁｮｳ","pref":"滋賀県","city":"長浜市","address":"三ツ矢町"},
{"zip_code":"5260024","kana_pref":"ｼｶﾞｹﾝ","kana_city":"ﾅｶﾞﾊﾏｼ","kana_address":"ﾐﾂﾔﾓﾄﾁｮｳ","pref":"滋賀県","city":"長浜市","address":"三ツ矢元町"},
{"zip_code":"5260067","kana_pref":"ｼｶﾞｹﾝ","kana_city":"ﾅｶﾞﾊﾏｼ","kana_address":"ﾐﾅﾄﾁｮｳ","pref":"滋賀県","city":"長浜市","address":"港町"},
{"zip_code":"5260232","kana_pref":"ｼｶﾞｹﾝ","kana_city":"ﾅｶﾞﾊﾏｼ","kana_address":"ﾐﾅﾐｲｹﾁｮｳ","pref":"滋賀県","city":"長浜市","address":"南池町"},
{"zip_code":"5260843","kana_pref":"ｼｶﾞｹﾝ","kana_city":"ﾅｶﾞﾊﾏｼ","kana_address":"ﾐﾅﾐｺｱｼﾁｮｳ","pref":"滋賀県","city":"長浜市","address":"南小足町"},
{"zip_code":"5260058","kana_pref":"ｼｶﾞｹﾝ","kana_city":"ﾅｶﾞﾊﾏｼ","kana_address":"ﾐﾅﾐｺﾞﾌｸﾁｮｳ","pref":"滋賀県","city":"長浜市","address":"南呉服町"},
{"zip_code":"5260032","kana_pref":"ｼｶﾞｹﾝ","kana_city":"ﾅｶﾞﾊﾏｼ","kana_address":"ﾐﾅﾐﾀｶﾀﾞﾁｮｳ","pref":"滋賀県","city":"長浜市","address":"南高田町"},
{"zip_code":"5260844","kana_pref":"ｼｶﾞｹﾝ","kana_city":"ﾅｶﾞﾊﾏｼ","kana_address":"ﾐﾅﾐﾀﾂﾞｹﾁｮｳ","pref":"滋賀県","city":"長浜市","address":"南田附町"},
{"zip_code":"5260113","kana_pref":"ｼｶﾞｹﾝ","kana_city":"ﾅｶﾞﾊﾏｼ","kana_address":"ﾐﾅﾐﾊﾏﾁｮｳ","pref":"滋賀県","city":"長浜市","address":"南浜町"},
{"zip_code":"5260831","kana_pref":"ｼｶﾞｹﾝ","kana_city":"ﾅｶﾞﾊﾏｼ","kana_address":"ﾐﾔｼﾁｮｳ","pref":"滋賀県","city":"長浜市","address":"宮司町"},
{"zip_code":"5260053","kana_pref":"ｼｶﾞｹﾝ","kana_city":"ﾅｶﾞﾊﾏｼ","kana_address":"ﾐﾔﾏｴﾁｮｳ","pref":"滋賀県","city":"長浜市","address":"宮前町"},
{"zip_code":"5260835","kana_pref":"ｼｶﾞｹﾝ","kana_city":"ﾅｶﾞﾊﾏｼ","kana_address":"ﾑﾛﾁｮｳ","pref":"滋賀県","city":"長浜市","address":"室町"},
{"zip_code":"5260059","kana_pref":"ｼｶﾞｹﾝ","kana_city":"ﾅｶﾞﾊﾏｼ","kana_address":"ﾓﾄﾊﾏﾁｮｳ","pref":"滋賀県","city":"長浜市","address":"元浜町"},
{"zip_code":"5260018","kana_pref":"ｼｶﾞｹﾝ","kana_city":"ﾅｶﾞﾊﾏｼ","kana_address":"ﾓﾘﾁｮｳ","pref":"滋賀県","city":"長浜市","address":"森町"},
{"zip_code":"5260116","kana_pref":"ｼｶﾞｹﾝ","kana_city":"ﾅｶﾞﾊﾏｼ","kana_address":"ﾔｷﾞﾊﾏﾁｮｳ","pref":"滋賀県","city":"長浜市","address":"八木浜町"},
{"zip_code":"5260252","kana_pref":"ｼｶﾞｹﾝ","kana_city":"ﾅｶﾞﾊﾏｼ","kana_address":"ﾔｼﾏﾁｮｳ","pref":"滋賀県","city":"長浜市","address":"八島町"},
{"zip_code":"5260034","kana_pref":"ｼｶﾞｹﾝ","kana_city":"ﾅｶﾞﾊﾏｼ","kana_address":"ﾔﾀｶﾁｮｳ","pref":"滋賀県","city":"長浜市","address":"弥高町"},
{"zip_code":"5260847","kana_pref":"ｼｶﾞｹﾝ","kana_city":"ﾅｶﾞﾊﾏｼ","kana_address":"ﾔﾏｼﾅﾁｮｳ","pref":"滋賀県","city":"長浜市","address":"山階町"},
{"zip_code":"5260257","kana_pref":"ｼｶﾞｹﾝ","kana_city":"ﾅｶﾞﾊﾏｼ","kana_address":"ﾔﾏﾉﾏｴﾁｮｳ","pref":"滋賀県","city":"長浜市","address":"山ノ前町"},
{"zip_code":"5260021","kana_pref":"ｼｶﾞｹﾝ","kana_city":"ﾅｶﾞﾊﾏｼ","kana_address":"ﾔﾜﾀﾅｶﾔﾏﾁｮｳ","pref":"滋賀県","city":"長浜市","address":"八幡中山町"},
{"zip_code":"5260031","kana_pref":"ｼｶﾞｹﾝ","kana_city":"ﾅｶﾞﾊﾏｼ","kana_address":"ﾔﾜﾀﾋｶﾞｼﾁｮｳ","pref":"滋賀県","city":"長浜市","address":"八幡東町"},
{"zip_code":"5260135","kana_pref":"ｼｶﾞｹﾝ","kana_city":"ﾅｶﾞﾊﾏｼ","kana_address":"ﾕｳｹﾞﾁｮｳ","pref":"滋賀県","city":"長浜市","address":"弓削町"},
{"zip_code":"5260245","kana_pref":"ｼｶﾞｹﾝ","kana_city":"ﾅｶﾞﾊﾏｼ","kana_address":"ﾕｽｷﾁｮｳ","pref":"滋賀県","city":"長浜市","address":"湯次町"},
{"zip_code":"5260041","kana_pref":"ｼｶﾞｹﾝ","kana_city":"ﾅｶﾞﾊﾏｼ","kana_address":"ﾖﾂﾂﾞｶﾁｮｳ","pref":"滋賀県","city":"長浜市","address":"四ツ塚町"},
{"zip_code":"5260267","kana_pref":"ｼｶﾞｹﾝ","kana_city":"ﾅｶﾞﾊﾏｼ","kana_address":"ﾘｷﾏﾙﾁｮｳ","pref":"滋賀県","city":"長浜市","address":"力丸町"},
{"zip_code":"5260261","kana_pref":"ｼｶﾞｹﾝ","kana_city":"ﾅｶﾞﾊﾏｼ","kana_address":"ﾘｭｳｱﾝｼﾞﾁｮｳ","pref":"滋賀県","city":"長浜市","address":"竜安寺町"},
{"zip_code":"5260062","kana_pref":"ｼｶﾞｹﾝ","kana_city":"ﾅｶﾞﾊﾏｼ","kana_address":"ﾚﾂｹﾁｮｳ","pref":"滋賀県","city":"長浜市","address":"列見町"}]}