{"zip_code":[
{"zip_code":"5270000","kana_pref":"ｼｶﾞｹﾝ","kana_city":"ﾋｶﾞｼｵｳﾐｼ","kana_address":"","pref":"滋賀県","city":"東近江市","address":""},
{"zip_code":"5270166","kana_pref":"ｼｶﾞｹﾝ","kana_city":"ﾋｶﾞｼｵｳﾐｼ","kana_address":"ｱｲﾄｳﾄﾉﾁｮｳ","pref":"滋賀県","city":"東近江市","address":"愛東外町"},
{"zip_code":"5270232","kana_pref":"ｼｶﾞｹﾝ","kana_city":"ﾋｶﾞｼｵｳﾐｼ","kana_address":"ｱｵﾉﾁｮｳ","pref":"滋賀県","city":"東近江市","address":"青野町"},
{"zip_code":"5270039","kana_pref":"ｼｶﾞｹﾝ","kana_city":"ﾋｶﾞｼｵｳﾐｼ","kana_address":"ｱｵﾊﾞﾁｮｳ","pref":"滋賀県","city":"東近江市","address":"青葉町"},
{"zip_code":"5270164","kana_pref":"ｼｶﾞｹﾝ","kana_city":"ﾋｶﾞｼｵｳﾐｼ","kana_address":"ｱｵﾔﾏﾁｮｳ","pref":"滋賀県","city":"東近江市","address":"青山町"},
{"zip_code":"5270113","kana_pref":"ｼｶﾞｹﾝ","kana_city":"ﾋｶﾞｼｵｳﾐｼ","kana_address":"ｲｹｼｮｳﾁｮｳ","pref":"滋賀県","city":"東近江市","address":"池庄町"},
{"zip_code":"5270054","kana_pref":"ｼｶﾞｹﾝ","kana_city":"ﾋｶﾞｼｵｳﾐｼ","kana_address":"ｲｹﾀﾞﾁｮｳ","pref":"滋賀県","city":"東近江市","address":"池田町"},
{"zip_code":"5270171","kana_pref":"ｼｶﾞｹﾝ","kana_city":"ﾋｶﾞｼｵｳﾐｼ","kana_address":"ｲｹﾉｼﾘﾁｮｳ","pref":"滋賀県","city":"東近江市","address":"池之尻町"},
{"zip_code":"5270222","kana_pref":"ｼｶﾞｹﾝ","kana_city":"ﾋｶﾞｼｵｳﾐｼ","kana_address":"ｲｹﾉﾜｷﾁｮｳ","pref":"滋賀県","city":"東近江市","address":"池之脇町"},
{"zip_code":"5270227","kana_pref":"ｼｶﾞｹﾝ","kana_city":"ﾋｶﾞｼｵｳﾐｼ","kana_address":"ｲｼﾀﾞﾆﾁｮｳ","pref":"滋賀県","city":"東近江市","address":"石谷町"},
{"zip_code":"5270151","kana_pref":"ｼｶﾞｹﾝ","kana_city":"ﾋｶﾞｼｵｳﾐｼ","kana_address":"ｲﾁｶﾞﾊﾗﾁｮｳ","pref":"滋賀県","city":"東近江市","address":"市ケ原町"},
{"zip_code":"5270074","kana_pref":"ｼｶﾞｹﾝ","kana_city":"ﾋｶﾞｼｵｳﾐｼ","kana_address":"ｲﾁﾉﾍﾞﾁｮｳ","pref":"滋賀県","city":"東近江市","address":"市辺町"},
{"zip_code":"5270224","kana_pref":"ｼｶﾞｹﾝ","kana_city":"ﾋｶﾞｼｵｳﾐｼ","kana_address":"ｲﾁﾊﾗﾉﾁｮｳ","pref":"滋賀県","city":"東近江市","address":"市原野町"},
{"zip_code":"5270226","kana_pref":"ｼｶﾞｹﾝ","kana_city":"ﾋｶﾞｼｵｳﾐｼ","kana_address":"ｲｯｼｷﾁｮｳ","pref":"滋賀県","city":"東近江市","address":"一式町"},
{"zip_code":"5270216","kana_pref":"ｼｶﾞｹﾝ","kana_city":"ﾋｶﾞｼｵｳﾐｼ","kana_address":"ｲﾊﾞﾗｶﾞﾜﾁｮｳ","pref":"滋賀県","city":"東近江市","address":"茨川町"},
{"zip_code":"5270107","kana_pref":"ｼｶﾞｹﾝ","kana_city":"ﾋｶﾞｼｵｳﾐｼ","kana_address":"ｲﾏｻﾞｲｹﾁｮｳ","pref":"滋賀県","city":"東近江市","address":"今在家町"},
{"zip_code":"5270016","kana_pref":"ｼｶﾞｹﾝ","kana_city":"ﾋｶﾞｼｵｳﾐｼ","kana_address":"ｲﾏｻｷﾁｮｳ","pref":"滋賀県","city":"東近江市","address":"今崎町"},
{"zip_code":"5270053","kana_pref":"ｼｶﾞｹﾝ","kana_city":"ﾋｶﾞｼｵｳﾐｼ","kana_address":"ｲﾏﾀﾞｲﾁｮｳ","pref":"滋賀県","city":"東近江市","address":"今代町"},
{"zip_code":"5270071","kana_pref":"ｼｶﾞｹﾝ","kana_city":"ﾋｶﾞｼｵｳﾐｼ","kana_address":"ｲﾏﾎﾞﾘﾁｮｳ","pref":"滋賀県","city":"東近江市","address":"今堀町"},
{"zip_code":"5270162","kana_pref":"ｼｶﾞｹﾝ","kana_city":"ﾋｶﾞｼｵｳﾐｼ","kana_address":"ｲﾓﾄﾁｮｳ","pref":"滋賀県","city":"東近江市","address":"妹町"},
{"zip_code":"5270156","kana_pref":"ｼｶﾞｹﾝ","kana_city":"ﾋｶﾞｼｵｳﾐｼ","kana_address":"ｳｴﾅｶﾉﾁｮｳ","pref":"滋賀県","city":"東近江市","address":"上中野町"},
{"zip_code":"5270175","kana_pref":"ｼｶﾞｹﾝ","kana_city":"ﾋｶﾞｼｵｳﾐｼ","kana_address":"ｳﾒﾊﾞﾔｼﾁｮｳ","pref":"滋賀県","city":"東近江市","address":"梅林町"},
{"zip_code":"5270055","kana_pref":"ｼｶﾞｹﾝ","kana_city":"ﾋｶﾞｼｵｳﾐｼ","kana_address":"ｳﾘｳﾂﾞﾁｮｳ","pref":"滋賀県","city":"東近江市","address":"瓜生津町"},
{"zip_code":"5270211","kana_pref":"ｼｶﾞｹﾝ","kana_city":"ﾋｶﾞｼｵｳﾐｼ","kana_address":"ｴｲｹﾞﾝｼﾞｱｲﾀﾞﾆﾁｮｳ","pref":"滋賀県","city":"東近江市","address":"永源寺相谷町"},
{"zip_code":"5270212","kana_pref":"ｼｶﾞｹﾝ","kana_city":"ﾋｶﾞｼｵｳﾐｼ","kana_address":"ｴｲｹﾞﾝｼﾞﾀｶﾉﾁｮｳ","pref":"滋賀県","city":"東近江市","address":"永源寺高野町"},
{"zip_code":"5270114","kana_pref":"ｼｶﾞｹﾝ","kana_city":"ﾋｶﾞｼｵｳﾐｼ","kana_address":"ｵｵｻﾞﾜﾁｮｳ","pref":"滋賀県","city":"東近江市","address":"大沢町"},
{"zip_code":"5270126","kana_pref":"ｼｶﾞｹﾝ","kana_city":"ﾋｶﾞｼｵｳﾐｼ","kana_address":"ｵｵｼｭｳｽﾞﾁｮｳ","pref":"滋賀県","city":"東近江市","address":"大清水町"},
{"zip_code":"5270174","kana_pref":"ｼｶﾞｹﾝ","kana_city":"ﾋｶﾞｼｵｳﾐｼ","kana_address":"ｵｵﾊｷﾞﾁｮｳ","pref":"滋賀県","city":"東近江市","address":"大萩町"},
{"zip_code":"5270155","kana_pref":"ｼｶﾞｹﾝ","kana_city":"ﾋｶﾞｼｵｳﾐｼ","kana_address":"ｵｵﾊﾞﾔｼﾁｮｳ","pref":"滋賀県","city":"東近江市","address":"大林町"},
{"zip_code":"5270063","kana_pref":"ｼｶﾞｹﾝ","kana_city":"ﾋｶﾞｼｵｳﾐｼ","kana_address":"ｵｵﾓﾘﾁｮｳ","pref":"滋賀県","city":"東近江市","address":"大森町"},
{"zip_code":"5270057","kana_pref":"ｼｶﾞｹﾝ","kana_city":"ﾋｶﾞｼｵｳﾐｼ","kana_address":"ｵｶﾀﾞﾁｮｳ","pref":"滋賀県","city":"東近江市","address":"岡田町"},
{"zip_code":"5270034","kana_pref":"ｼｶﾞｹﾝ","kana_city":"ﾋｶﾞｼｵｳﾐｼ","kana_address":"ｵｷﾉ","pref":"滋賀県","city":"東近江市","address":"沖野"},
{"zip_code":"5270165","kana_pref":"ｼｶﾞｹﾝ","kana_city":"ﾋｶﾞｼｵｳﾐｼ","kana_address":"ｵｸﾞﾗﾁｮｳ","pref":"滋賀県","city":"東近江市","address":"小倉町"},
{"zip_code":"5270122","kana_pref":"ｼｶﾞｹﾝ","kana_city":"ﾋｶﾞｼｵｳﾐｼ","kana_address":"ｵｻﾁｮｳ","pref":"滋賀県","city":"東近江市","address":"長町"},
{"zip_code":"5270091","kana_pref":"ｼｶﾞｹﾝ","kana_city":"ﾋｶﾞｼｵｳﾐｼ","kana_address":"ｵﾜｷﾁｮｳ","pref":"滋賀県","city":"東近江市","address":"小脇町"},
{"zip_code":"5270083","kana_pref":"ｼｶﾞｹﾝ","kana_city":"ﾋｶﾞｼｵｳﾐｼ","kana_address":"ｶｼﾜｷﾞﾁｮｳ","pref":"滋賀県","city":"東近江市","address":"柏木町"},
{"zip_code":"5270032","kana_pref":"ｼｶﾞｹﾝ","kana_city":"ﾋｶﾞｼｵｳﾐｼ","kana_address":"ｶｽｶﾞﾁｮｳ","pref":"滋賀県","city":"東近江市","address":"春日町"},
{"zip_code":"5270062","kana_pref":"ｼｶﾞｹﾝ","kana_city":"ﾋｶﾞｼｵｳﾐｼ","kana_address":"ｶﾐｵｵﾓﾘﾁｮｳ","pref":"滋賀県","city":"東近江市","address":"上大森町"},
{"zip_code":"5270173","kana_pref":"ｼｶﾞｹﾝ","kana_city":"ﾋｶﾞｼｵｳﾐｼ","kana_address":"ｶﾐｷﾞｼﾓﾄﾁｮｳ","pref":"滋賀県","city":"東近江市","address":"上岸本町"},
{"zip_code":"5270082","kana_pref":"ｼｶﾞｹﾝ","kana_city":"ﾋｶﾞｼｵｳﾐｼ","kana_address":"ｶﾐﾊﾈﾀﾞﾁｮｳ","pref":"滋賀県","city":"東近江市","address":"上羽田町"},
{"zip_code":"5270086","kana_pref":"ｼｶﾞｹﾝ","kana_city":"ﾋｶﾞｼｵｳﾐｼ","kana_address":"ｶﾐﾋﾗｷﾞﾁｮｳ","pref":"滋賀県","city":"東近江市","address":"上平木町"},
{"zip_code":"5270221","kana_pref":"ｼｶﾞｹﾝ","kana_city":"ﾋｶﾞｼｵｳﾐｼ","kana_address":"ｶﾐﾌﾀﾏﾀﾁｮｳ","pref":"滋賀県","city":"東近江市","address":"上二俣町"},
{"zip_code":"5270142","kana_pref":"ｼｶﾞｹﾝ","kana_city":"ﾋｶﾞｼｵｳﾐｼ","kana_address":"ｶﾐﾔﾏﾁｮｳ","pref":"滋賀県","city":"東近江市","address":"上山町"},
{"zip_code":"5270208","kana_pref":"ｼｶﾞｹﾝ","kana_city":"ﾋｶﾞｼｵｳﾐｼ","kana_address":"ｶﾔｵﾁｮｳ","pref":"滋賀県","city":"東近江市","address":"萱尾町"},
{"zip_code":"5270041","kana_pref":"ｼｶﾞｹﾝ","kana_city":"ﾋｶﾞｼｵｳﾐｼ","kana_address":"ｶﾜｲﾃﾞﾗﾁｮｳ","pref":"滋賀県","city":"東近江市","address":"川合寺町"},
{"zip_code":"5270101","kana_pref":"ｼｶﾞｹﾝ","kana_city":"ﾋｶﾞｼｵｳﾐｼ","kana_address":"ｷﾞｵﾝﾁｮｳ","pref":"滋賀県","city":"東近江市","address":"祇園町"},
{"zip_code":"5270145","kana_pref":"ｼｶﾞｹﾝ","kana_city":"ﾋｶﾞｼｵｳﾐｼ","kana_address":"ｷﾀｻｶﾁｮｳ","pref":"滋賀県","city":"東近江市","address":"北坂町"},
{"zip_code":"5270129","kana_pref":"ｼｶﾞｹﾝ","kana_city":"ﾋｶﾞｼｵｳﾐｼ","kana_address":"ｷﾀｼｭｳｽﾞﾁｮｳ","pref":"滋賀県","city":"東近江市","address":"北清水町"},
{"zip_code":"5270111","kana_pref":"ｼｶﾞｹﾝ","kana_city":"ﾋｶﾞｼｵｳﾐｼ","kana_address":"ｷﾀﾊﾅｻﾞﾜﾁｮｳ","pref":"滋賀県","city":"東近江市","address":"北花沢町"},
{"zip_code":"5270138","kana_pref":"ｼｶﾞｹﾝ","kana_city":"ﾋｶﾞｼｵｳﾐｼ","kana_address":"ｷﾀﾎﾞﾀﾞｲｼﾞﾁｮｳ","pref":"滋賀県","city":"東近江市","address":"北菩提寺町"},
{"zip_code":"5270202","kana_pref":"ｼｶﾞｹﾝ","kana_city":"ﾋｶﾞｼｵｳﾐｼ","kana_address":"ｷﾐｶﾞﾊﾀﾁｮｳ","pref":"滋賀県","city":"東近江市","address":"君ケ畑町"},
{"zip_code":"5270205","kana_pref":"ｼｶﾞｹﾝ","kana_city":"ﾋｶﾞｼｵｳﾐｼ","kana_address":"ｷﾜﾀﾞﾁｮｳ","pref":"滋賀県","city":"東近江市","address":"黄和田町"},
{"zip_code":"5270215","kana_pref":"ｼｶﾞｹﾝ","kana_city":"ﾋｶﾞｼｵｳﾐｼ","kana_address":"ｸｲｾﾞﾁｮｳ","pref":"滋賀県","city":"東近江市","address":"九居瀬町"},
{"zip_code":"5270121","kana_pref":"ｼｶﾞｹﾝ","kana_city":"ﾋｶﾞｼｵｳﾐｼ","kana_address":"ｺｲｹﾁｮｳ","pref":"滋賀県","city":"東近江市","address":"小池町"},
{"zip_code":"5270092","kana_pref":"ｼｶﾞｹﾝ","kana_city":"ﾋｶﾞｼｵｳﾐｼ","kana_address":"ｺｲﾏﾁｮｳ","pref":"滋賀県","city":"東近江市","address":"小今町"},
{"zip_code":"5270214","kana_pref":"ｼｶﾞｹﾝ","kana_city":"ﾋｶﾞｼｵｳﾐｼ","kana_address":"ｺｳﾂﾞﾊﾀﾁｮｳ","pref":"滋賀県","city":"東近江市","address":"甲津畑町"},
{"zip_code":"5270125","kana_pref":"ｼｶﾞｹﾝ","kana_city":"ﾋｶﾞｼｵｳﾐｼ","kana_address":"ｺﾀｶﾘﾁｮｳ","pref":"滋賀県","city":"東近江市","address":"小田苅町"},
{"zip_code":"5270044","kana_pref":"ｼｶﾞｹﾝ","kana_city":"ﾋｶﾞｼｵｳﾐｼ","kana_address":"ｺﾞﾁﾁｮｳ","pref":"滋賀県","city":"東近江市","address":"五智町"},
{"zip_code":"5270108","kana_pref":"ｼｶﾞｹﾝ","kana_city":"ﾋｶﾞｼｵｳﾐｼ","kana_address":"ｺﾔｷﾞﾁｮｳ","pref":"滋賀県","city":"東近江市","address":"小八木町"},
{"zip_code":"5270031","kana_pref":"ｼｶﾞｹﾝ","kana_city":"ﾋｶﾞｼｵｳﾐｼ","kana_address":"ｻｲﾜｲﾁｮｳ","pref":"滋賀県","city":"東近江市","address":"幸町"},
{"zip_code":"5270027","kana_pref":"ｼｶﾞｹﾝ","kana_city":"ﾋｶﾞｼｵｳﾐｼ","kana_address":"ｻｶｴﾏﾁ","pref":"滋賀県","city":"東近江市","address":"栄町"},
{"zip_code":"5270209","kana_pref":"ｼｶﾞｹﾝ","kana_city":"ﾋｶﾞｼｵｳﾐｼ","kana_address":"ｻﾒﾁｮｳ","pref":"滋賀県","city":"東近江市","address":"佐目町"},
{"zip_code":"5270064","kana_pref":"ｼｶﾞｹﾝ","kana_city":"ﾋｶﾞｼｵｳﾐｼ","kana_address":"ｼﾅｼﾁｮｳ","pref":"滋賀県","city":"東近江市","address":"尻無町"},
{"zip_code":"5270067","kana_pref":"ｼｶﾞｹﾝ","kana_city":"ﾋｶﾞｼｵｳﾐｼ","kana_address":"ｼﾊﾞﾊﾗﾁｮｳ","pref":"滋賀県","city":"東近江市","address":"芝原町"},
{"zip_code":"5270066","kana_pref":"ｼｶﾞｹﾝ","kana_city":"ﾋｶﾞｼｵｳﾐｼ","kana_address":"ｼﾊﾞﾊﾗﾐﾅﾐﾁｮｳ","pref":"滋賀県","city":"東近江市","address":"柴原南町"},
{"zip_code":"5270132","kana_pref":"ｼｶﾞｹﾝ","kana_city":"ﾋｶﾞｼｵｳﾐｼ","kana_address":"ｼﾓｲｼｷﾁｮｳ","pref":"滋賀県","city":"東近江市","address":"下一色町"},
{"zip_code":"5270124","kana_pref":"ｼｶﾞｹﾝ","kana_city":"ﾋｶﾞｼｵｳﾐｼ","kana_address":"ｼﾓｷﾞｼﾓﾄﾁｮｳ","pref":"滋賀県","city":"東近江市","address":"下岸本町"},
{"zip_code":"5270115","kana_pref":"ｼｶﾞｹﾝ","kana_city":"ﾋｶﾞｼｵｳﾐｼ","kana_address":"ｼﾓｻﾞﾄﾁｮｳ","pref":"滋賀県","city":"東近江市","address":"下里町"},
{"zip_code":"5270157","kana_pref":"ｼｶﾞｹﾝ","kana_city":"ﾋｶﾞｼｵｳﾐｼ","kana_address":"ｼﾓﾅｶﾉﾁｮｳ","pref":"滋賀県","city":"東近江市","address":"下中野町"},
{"zip_code":"5270085","kana_pref":"ｼｶﾞｹﾝ","kana_city":"ﾋｶﾞｼｵｳﾐｼ","kana_address":"ｼﾓﾊﾈﾀﾞﾁｮｳ","pref":"滋賀県","city":"東近江市","address":"下羽田町"},
{"zip_code":"5270065","kana_pref":"ｼｶﾞｹﾝ","kana_city":"ﾋｶﾞｼｵｳﾐｼ","kana_address":"ｼﾓﾌﾀﾏﾀﾁｮｳ","pref":"滋賀県","city":"東近江市","address":"下二俣町"},
{"zip_code":"5270128","kana_pref":"ｼｶﾞｹﾝ","kana_city":"ﾋｶﾞｼｵｳﾐｼ","kana_address":"ｼｭｳｽﾞﾅｶﾁｮｳ","pref":"滋賀県","city":"東近江市","address":"清水中町"},
{"zip_code":"5270131","kana_pref":"ｼｶﾞｹﾝ","kana_city":"ﾋｶﾞｼｵｳﾐｼ","kana_address":"ｼｮｳﾄﾞｳﾁｮｳ","pref":"滋賀県","city":"東近江市","address":"勝堂町"},
{"zip_code":"5270017","kana_pref":"ｼｶﾞｹﾝ","kana_city":"ﾋｶﾞｼｵｳﾐｼ","kana_address":"ｼｮｳﾜﾁｮｳ","pref":"滋賀県","city":"東近江市","address":"昭和町"},
{"zip_code":"5270225","kana_pref":"ｼｶﾞｹﾝ","kana_city":"ﾋｶﾞｼｵｳﾐｼ","kana_address":"ｼﾝﾃﾞﾁｮｳ","pref":"滋賀県","city":"東近江市","address":"新出町"},
{"zip_code":"5270043","kana_pref":"ｼｶﾞｹﾝ","kana_city":"ﾋｶﾞｼｵｳﾐｼ","kana_address":"ｼﾞﾝﾃﾞﾝﾁｮｳ","pref":"滋賀県","city":"東近江市","address":"神田町"},
{"zip_code":"5270038","kana_pref":"ｼｶﾞｹﾝ","kana_city":"ﾋｶﾞｼｵｳﾐｼ","kana_address":"ｾｲﾄｸﾁｮｳ","pref":"滋賀県","city":"東近江市","address":"聖徳町"},
{"zip_code":"5270036","kana_pref":"ｼｶﾞｹﾝ","kana_city":"ﾋｶﾞｼｵｳﾐｼ","kana_address":"ｾｲﾜﾁｮｳ","pref":"滋賀県","city":"東近江市","address":"聖和町"},
{"zip_code":"5270106","kana_pref":"ｼｶﾞｹﾝ","kana_city":"ﾋｶﾞｼｵｳﾐｼ","kana_address":"ｿｳﾎﾞｳﾁｮｳ","pref":"滋賀県","city":"東近江市","address":"僧坊町"},
{"zip_code":"5270163","kana_pref":"ｼｶﾞｹﾝ","kana_city":"ﾋｶﾞｼｵｳﾐｼ","kana_address":"ｿﾈﾁｮｳ","pref":"滋賀県","city":"東近江市","address":"曽根町"},
{"zip_code":"5270154","kana_pref":"ｼｶﾞｹﾝ","kana_city":"ﾋｶﾞｼｵｳﾐｼ","kana_address":"ｿﾉﾁｮｳ","pref":"滋賀県","city":"東近江市","address":"園町"},
{"zip_code":"5270152","kana_pref":"ｼｶﾞｹﾝ","kana_city":"ﾋｶﾞｼｵｳﾐｼ","kana_address":"ﾀﾞｲｶｸｼﾞﾁｮｳ","pref":"滋賀県","city":"東近江市","address":"大覚寺町"},
{"zip_code":"5270223","kana_pref":"ｼｶﾞｹﾝ","kana_city":"ﾋｶﾞｼｵｳﾐｼ","kana_address":"ﾀｶｷﾞﾁｮｳ","pref":"滋賀県","city":"東近江市","address":"高木町"},
{"zip_code":"5270207","kana_pref":"ｼｶﾞｹﾝ","kana_city":"ﾋｶﾞｼｵｳﾐｼ","kana_address":"ﾀﾃﾊﾀﾁｮｳ","pref":"滋賀県","city":"東近江市","address":"蓼畑町"},
{"zip_code":"5270002","kana_pref":"ｼｶﾞｹﾝ","kana_city":"ﾋｶﾞｼｵｳﾐｼ","kana_address":"ﾀﾃﾍﾞｶﾐﾅｶﾁｮｳ","pref":"滋賀県","city":"東近江市","address":"建部上中町"},
{"zip_code":"5270007","kana_pref":"ｼｶﾞｹﾝ","kana_city":"ﾋｶﾞｼｵｳﾐｼ","kana_address":"ﾀﾃﾍﾞｶﾜﾗﾔｼﾞﾁｮｳ","pref":"滋賀県","city":"東近江市","address":"建部瓦屋寺町"},
{"zip_code":"5270003","kana_pref":"ｼｶﾞｹﾝ","kana_city":"ﾋｶﾞｼｵｳﾐｼ","kana_address":"ﾀﾃﾍﾞｷﾀﾁｮｳ","pref":"滋賀県","city":"東近江市","address":"建部北町"},
{"zip_code":"5270004","kana_pref":"ｼｶﾞｹﾝ","kana_city":"ﾋｶﾞｼｵｳﾐｼ","kana_address":"ﾀﾃﾍﾞｻｶｲﾁｮｳ","pref":"滋賀県","city":"東近江市","address":"建部堺町"},
{"zip_code":"5270001","kana_pref":"ｼｶﾞｹﾝ","kana_city":"ﾋｶﾞｼｵｳﾐｼ","kana_address":"ﾀﾃﾍﾞｼﾓﾉﾁｮｳ","pref":"滋賀県","city":"東近江市","address":"建部下野町"},
{"zip_code":"5270006","kana_pref":"ｼｶﾞｹﾝ","kana_city":"ﾋｶﾞｼｵｳﾐｼ","kana_address":"ﾀﾃﾍﾞﾋﾖｼﾁｮｳ","pref":"滋賀県","city":"東近江市","address":"建部日吉町"},
{"zip_code":"5270005","kana_pref":"ｼｶﾞｹﾝ","kana_city":"ﾋｶﾞｼｵｳﾐｼ","kana_address":"ﾀﾃﾍﾞﾐﾅﾐﾁｮｳ","pref":"滋賀県","city":"東近江市","address":"建部南町"},
{"zip_code":"5270052","kana_pref":"ｼｶﾞｹﾝ","kana_city":"ﾋｶﾞｼｵｳﾐｼ","kana_address":"ﾃﾗﾁｮｳ","pref":"滋賀県","city":"東近江市","address":"寺町"},
{"zip_code":"5270061","kana_pref":"ｼｶﾞｹﾝ","kana_city":"ﾋｶﾞｼｵｳﾐｼ","kana_address":"ﾄﾞｷﾁｮｳ","pref":"滋賀県","city":"東近江市","address":"土器町"},
{"zip_code":"5270042","kana_pref":"ｼｶﾞｹﾝ","kana_city":"ﾋｶﾞｼｵｳﾐｼ","kana_address":"ﾄﾉﾁｮｳ","pref":"滋賀県","city":"東近江市","address":"外町"},
{"zip_code":"5270133","kana_pref":"ｼｶﾞｹﾝ","kana_city":"ﾋｶﾞｼｵｳﾐｼ","kana_address":"ﾅｶｲｼｷﾁｮｳ","pref":"滋賀県","city":"東近江市","address":"中一色町"},
{"zip_code":"5270123","kana_pref":"ｼｶﾞｹﾝ","kana_city":"ﾋｶﾞｼｵｳﾐｼ","kana_address":"ﾅｶｷﾞｼﾓﾄﾁｮｳ","pref":"滋賀県","city":"東近江市","address":"中岸本町"},
{"zip_code":"5270105","kana_pref":"ｼｶﾞｹﾝ","kana_city":"ﾋｶﾞｼｵｳﾐｼ","kana_address":"ﾅｶｻﾞﾄﾁｮｳ","pref":"滋賀県","city":"東近江市","address":"中里町"},
{"zip_code":"5270161","kana_pref":"ｼｶﾞｹﾝ","kana_city":"ﾋｶﾞｼｵｳﾐｼ","kana_address":"ﾅｶﾄﾁｮｳ","pref":"滋賀県","city":"東近江市","address":"中戸町"},
{"zip_code":"5270015","kana_pref":"ｼｶﾞｹﾝ","kana_city":"ﾋｶﾞｼｵｳﾐｼ","kana_address":"ﾅｶﾉﾁｮｳ","pref":"滋賀県","city":"東近江市","address":"中野町"},
{"zip_code":"5270084","kana_pref":"ｼｶﾞｹﾝ","kana_city":"ﾋｶﾞｼｵｳﾐｼ","kana_address":"ﾅｶﾊﾈﾀﾞﾁｮｳ","pref":"滋賀県","city":"東近江市","address":"中羽田町"},
{"zip_code":"5270045","kana_pref":"ｼｶﾞｹﾝ","kana_city":"ﾋｶﾞｼｵｳﾐｼ","kana_address":"ﾅｺｵｼﾞﾁｮｳ","pref":"滋賀県","city":"東近江市","address":"中小路町"},
{"zip_code":"5270172","kana_pref":"ｼｶﾞｹﾝ","kana_city":"ﾋｶﾞｼｵｳﾐｼ","kana_address":"ﾅﾏｽﾞｴﾁｮｳ","pref":"滋賀県","city":"東近江市","address":"鯰江町"},
{"zip_code":"5270014","kana_pref":"ｼｶﾞｹﾝ","kana_city":"ﾋｶﾞｼｵｳﾐｼ","kana_address":"ﾆｼﾅｶﾉﾁｮｳ","pref":"滋賀県","city":"東近江市","address":"西中野町"},
{"zip_code":"5270137","kana_pref":"ｼｶﾞｹﾝ","kana_city":"ﾋｶﾞｼｵｳﾐｼ","kana_address":"ﾆｼﾎﾞﾀﾞｲｼﾞﾁｮｳ","pref":"滋賀県","city":"東近江市","address":"西菩提寺町"},
{"zip_code":"5270228","kana_pref":"ｼｶﾞｹﾝ","kana_city":"ﾋｶﾞｼｵｳﾐｼ","kana_address":"ﾆｮﾗｲﾁｮｳ","pref":"滋賀県","city":"東近江市","address":"如来町"},
{"zip_code":"5270093","kana_pref":"ｼｶﾞｹﾝ","kana_city":"ﾋｶﾞｼｵｳﾐｼ","kana_address":"ﾇｶﾂﾞｶﾁｮｳ","pref":"滋賀県","city":"東近江市","address":"糠塚町"},
{"zip_code":"5270072","kana_pref":"ｼｶﾞｹﾝ","kana_city":"ﾋｶﾞｼｵｳﾐｼ","kana_address":"ﾇﾉﾋﾞｷﾀﾞｲ","pref":"滋賀県","city":"東近江市","address":"布引台"},
{"zip_code":"5270076","kana_pref":"ｼｶﾞｹﾝ","kana_city":"ﾋｶﾞｼｵｳﾐｼ","kana_address":"ﾉｸﾞﾁﾁｮｳ","pref":"滋賀県","city":"東近江市","address":"野口町"},
{"zip_code":"5270047","kana_pref":"ｼｶﾞｹﾝ","kana_city":"ﾋｶﾞｼｵｳﾐｼ","kana_address":"ﾉﾑﾗﾁｮｳ","pref":"滋賀県","city":"東近江市","address":"野村町"},
{"zip_code":"5270051","kana_pref":"ｼｶﾞｹﾝ","kana_city":"ﾋｶﾞｼｵｳﾐｼ","kana_address":"ﾊﾔｼﾀﾞﾁｮｳ","pref":"滋賀県","city":"東近江市","address":"林田町"},
{"zip_code":"5270037","kana_pref":"ｼｶﾞｹﾝ","kana_city":"ﾋｶﾞｼｵｳﾐｼ","kana_address":"ﾋｶﾞｼｲﾏｻｷﾁｮｳ","pref":"滋賀県","city":"東近江市","address":"東今崎町"},
{"zip_code":"5270033","kana_pref":"ｼｶﾞｹﾝ","kana_city":"ﾋｶﾞｼｵｳﾐｼ","kana_address":"ﾋｶﾞｼｵｷﾉ","pref":"滋賀県","city":"東近江市","address":"東沖野"},
{"zip_code":"5270013","kana_pref":"ｼｶﾞｹﾝ","kana_city":"ﾋｶﾞｼｵｳﾐｼ","kana_address":"ﾋｶﾞｼﾅｶﾉﾁｮｳ","pref":"滋賀県","city":"東近江市","address":"東中野町"},
{"zip_code":"5270035","kana_pref":"ｼｶﾞｹﾝ","kana_city":"ﾋｶﾞｼｵｳﾐｼ","kana_address":"ﾋﾊﾞﾘｵｶﾁｮｳ","pref":"滋賀県","city":"東近江市","address":"ひばり丘町"},
{"zip_code":"5270141","kana_pref":"ｼｶﾞｹﾝ","kana_city":"ﾋｶﾞｼｵｳﾐｼ","kana_address":"ﾋｬｸｻｲｼﾞｺｳﾁｮｳ","pref":"滋賀県","city":"東近江市","address":"百済寺甲町"},
{"zip_code":"5270144","kana_pref":"ｼｶﾞｹﾝ","kana_city":"ﾋｶﾞｼｵｳﾐｼ","kana_address":"ﾋｬｸｻｲｼﾞﾁｮｳ","pref":"滋賀県","city":"東近江市","address":"百済寺町"},
{"zip_code":"5270143","kana_pref":"ｼｶﾞｹﾝ","kana_city":"ﾋｶﾞｼｵｳﾐｼ","kana_address":"ﾋｬｸｻｲｼﾞﾎﾝﾏﾁ","pref":"滋賀県","city":"東近江市","address":"百済寺本町"},
{"zip_code":"5270153","kana_pref":"ｼｶﾞｹﾝ","kana_city":"ﾋｶﾞｼｵｳﾐｼ","kana_address":"ﾋﾗｵﾁｮｳ","pref":"滋賀県","city":"東近江市","address":"平尾町"},
{"zip_code":"5270087","kana_pref":"ｼｶﾞｹﾝ","kana_city":"ﾋｶﾞｼｵｳﾐｼ","kana_address":"ﾋﾗﾀﾁｮｳ","pref":"滋賀県","city":"東近江市","address":"平田町"},
{"zip_code":"5270134","kana_pref":"ｼｶﾞｹﾝ","kana_city":"ﾋｶﾞｼｵｳﾐｼ","kana_address":"ﾋﾗﾏﾂﾁｮｳ","pref":"滋賀県","city":"東近江市","address":"平松町"},
{"zip_code":"5270102","kana_pref":"ｼｶﾞｹﾝ","kana_city":"ﾋｶﾞｼｵｳﾐｼ","kana_address":"ﾋﾗﾔﾅｷﾞﾁｮｳ","pref":"滋賀県","city":"東近江市","address":"平柳町"},
{"zip_code":"5270201","kana_pref":"ｼｶﾞｹﾝ","kana_city":"ﾋｶﾞｼｵｳﾐｼ","kana_address":"ﾋﾙﾀﾆﾁｮｳ","pref":"滋賀県","city":"東近江市","address":"蛭谷町"},
{"zip_code":"5270081","kana_pref":"ｼｶﾞｹﾝ","kana_city":"ﾋｶﾞｼｵｳﾐｼ","kana_address":"ﾌｾﾁｮｳ","pref":"滋賀県","city":"東近江市","address":"布施町"},
{"zip_code":"5270024","kana_pref":"ｼｶﾞｹﾝ","kana_city":"ﾋｶﾞｼｵｳﾐｼ","kana_address":"ﾌﾀﾞﾉﾂｼﾞ","pref":"滋賀県","city":"東近江市","address":"札の辻"},
{"zip_code":"5270073","kana_pref":"ｼｶﾞｹﾝ","kana_city":"ﾋｶﾞｼｵｳﾐｼ","kana_address":"ﾍﾋﾞﾐｿﾞﾁｮｳ","pref":"滋賀県","city":"東近江市","address":"蛇溝町"},
{"zip_code":"5270204","kana_pref":"ｼｶﾞｹﾝ","kana_city":"ﾋｶﾞｼｵｳﾐｼ","kana_address":"ﾏﾝﾄﾞｺﾛﾁｮｳ","pref":"滋賀県","city":"東近江市","address":"政所町"},
{"zip_code":"5270056","kana_pref":"ｼｶﾞｹﾝ","kana_city":"ﾋｶﾞｼｵｳﾐｼ","kana_address":"ﾐｿﾉﾁｮｳ","pref":"滋賀県","city":"東近江市","address":"御園町"},
{"zip_code":"5270075","kana_pref":"ｼｶﾞｹﾝ","kana_city":"ﾋｶﾞｼｵｳﾐｼ","kana_address":"ﾐﾂﾔﾁｮｳ","pref":"滋賀県","city":"東近江市","address":"三津屋町"},
{"zip_code":"5270127","kana_pref":"ｼｶﾞｹﾝ","kana_city":"ﾋｶﾞｼｵｳﾐｼ","kana_address":"ﾐﾅﾐｼｭｳｽﾞﾁｮｳ","pref":"滋賀県","city":"東近江市","address":"南清水町"},
{"zip_code":"5270112","kana_pref":"ｼｶﾞｹﾝ","kana_city":"ﾋｶﾞｼｵｳﾐｼ","kana_address":"ﾐﾅﾐﾊﾅｻﾞﾜﾁｮｳ","pref":"滋賀県","city":"東近江市","address":"南花沢町"},
{"zip_code":"5270136","kana_pref":"ｼｶﾞｹﾝ","kana_city":"ﾋｶﾞｼｵｳﾐｼ","kana_address":"ﾐﾅﾐﾎﾞﾀﾞｲｼﾞﾁｮｳ","pref":"滋賀県","city":"東近江市","address":"南菩提寺町"},
{"zip_code":"5270203","kana_pref":"ｼｶﾞｹﾝ","kana_city":"ﾋｶﾞｼｵｳﾐｼ","kana_address":"ﾐﾉｶﾞﾜﾁｮｳ","pref":"滋賀県","city":"東近江市","address":"箕川町"},
{"zip_code":"5270046","kana_pref":"ｼｶﾞｹﾝ","kana_city":"ﾋｶﾞｼｵｳﾐｼ","kana_address":"ﾐｮｳﾎｳｼﾞﾁｮｳ","pref":"滋賀県","city":"東近江市","address":"妙法寺町"},
{"zip_code":"5270231","kana_pref":"ｼｶﾞｹﾝ","kana_city":"ﾋｶﾞｼｵｳﾐｼ","kana_address":"ﾔﾏｶﾐﾁｮｳ","pref":"滋賀県","city":"東近江市","address":"山上町"},
{"zip_code":"5270206","kana_pref":"ｼｶﾞｹﾝ","kana_city":"ﾋｶﾞｼｵｳﾐｼ","kana_address":"ﾕｽﾞﾘｵﾁｮｳ","pref":"滋賀県","city":"東近江市","address":"杠葉尾町"},
{"zip_code":"5270103","kana_pref":"ｼｶﾞｹﾝ","kana_city":"ﾋｶﾞｼｵｳﾐｼ","kana_address":"ﾕﾔﾁｮｳ","pref":"滋賀県","city":"東近江市","address":"湯屋町"},
{"zip_code":"5270028","kana_pref":"ｼｶﾞｹﾝ","kana_city":"ﾋｶﾞｼｵｳﾐｼ","kana_address":"ﾖｳｶｲﾁｶﾅﾔ","pref":"滋賀県","city":"東近江市","address":"八日市金屋"},
{"zip_code":"5270022","kana_pref":"ｼｶﾞｹﾝ","kana_city":"ﾋｶﾞｼｵｳﾐｼ","kana_address":"ﾖｳｶｲﾁｶﾐﾉﾁｮｳ","pref":"滋賀県","city":"東近江市","address":"八日市上之町"},
{"zip_code":"5270018","kana_pref":"ｼｶﾞｹﾝ","kana_city":"ﾋｶﾞｼｵｳﾐｼ","kana_address":"ﾖｳｶｲﾁｼﾐｽﾞ","pref":"滋賀県","city":"東近江市","address":"八日市清水"},
{"zip_code":"5270026","kana_pref":"ｼｶﾞｹﾝ","kana_city":"ﾋｶﾞｼｵｳﾐｼ","kana_address":"ﾖｳｶｲﾁﾉﾉﾐﾔﾁｮｳ","pref":"滋賀県","city":"東近江市","address":"八日市野々宮町"},
{"zip_code":"5270011","kana_pref":"ｼｶﾞｹﾝ","kana_city":"ﾋｶﾞｼｵｳﾐｼ","kana_address":"ﾖｳｶｲﾁﾊﾏﾉﾁｮｳ","pref":"滋賀県","city":"東近江市","address":"八日市浜野町"},
{"zip_code":"5270021","kana_pref":"ｼｶﾞｹﾝ","kana_city":"ﾋｶﾞｼｵｳﾐｼ","kana_address":"ﾖｳｶｲﾁﾋｶﾞｼﾊﾏﾁｮｳ","pref":"滋賀県","city":"東近江市","address":"八日市東浜町"},
{"zip_code":"5270025","kana_pref":"ｼｶﾞｹﾝ","kana_city":"ﾋｶﾞｼｵｳﾐｼ","kana_address":"ﾖｳｶｲﾁﾋｶﾞｼﾎﾝﾏﾁ","pref":"滋賀県","city":"東近江市","address":"八日市東本町"},
{"zip_code":"5270012","kana_pref":"ｼｶﾞｹﾝ","kana_city":"ﾋｶﾞｼｵｳﾐｼ","kana_address":"ﾖｳｶｲﾁﾎﾝﾏﾁ","pref":"滋賀県","city":"東近江市","address":"八日市本町"},
{"zip_code":"5270019","kana_pref":"ｼｶﾞｹﾝ","kana_city":"ﾋｶﾞｼｵｳﾐｼ","kana_address":"ﾖｳｶｲﾁﾏﾂｵﾁｮｳ","pref":"滋賀県","city":"東近江市","address":"八日市松尾町"},
{"zip_code":"5270023","kana_pref":"ｼｶﾞｹﾝ","kana_city":"ﾋｶﾞｼｵｳﾐｼ","kana_address":"ﾖｳｶｲﾁﾐﾄﾞﾘﾏﾁ","pref":"滋賀県","city":"東近江市","address":"八日市緑町"},
{"zip_code":"5270029","kana_pref":"ｼｶﾞｹﾝ","kana_city":"ﾋｶﾞｼｵｳﾐｼ","kana_address":"ﾖｳｶｲﾁﾁｮｳ","pref":"滋賀県","city":"東近江市","address":"八日市町"},
{"zip_code":"5270135","kana_pref":"ｼｶﾞｹﾝ","kana_city":"ﾋｶﾞｼｵｳﾐｼ","kana_address":"ﾖｺﾐｿﾞﾁｮｳ","pref":"滋賀県","city":"東近江市","address":"横溝町"},
{"zip_code":"5270104","kana_pref":"ｼｶﾞｹﾝ","kana_city":"ﾋｶﾞｼｵｳﾐｼ","kana_address":"ﾖﾐｱｲﾄﾞｳﾁｮｳ","pref":"滋賀県","city":"東近江市","address":"読合堂町"},
{"zip_code":"5270213","kana_pref":"ｼｶﾞｹﾝ","kana_city":"ﾋｶﾞｼｵｳﾐｼ","kana_address":"ﾜﾅﾐﾁｮｳ","pref":"滋賀県","city":"東近江市","address":"和南町"}]}