{"zip_code":[
{"zip_code":"5280000","kana_pref":"ｼｶﾞｹﾝ","kana_city":"ｺｳｶｼ","kana_address":"","pref":"滋賀県","city":"甲賀市","address":""},
{"zip_code":"5280204","kana_pref":"ｼｶﾞｹﾝ","kana_city":"ｺｳｶｼ","kana_address":"ﾂﾁﾔﾏﾁｮｳｱｹﾋﾞﾊﾗ","pref":"滋賀県","city":"甲賀市","address":"土山町山女原"},
{"zip_code":"5280202","kana_pref":"ｼｶﾞｹﾝ","kana_city":"ｺｳｶｼ","kana_address":"ﾂﾁﾔﾏﾁｮｳｱﾕｶﾜ","pref":"滋賀県","city":"甲賀市","address":"土山町鮎河"},
{"zip_code":"5280233","kana_pref":"ｼｶﾞｹﾝ","kana_city":"ｺｳｶｼ","kana_address":"ﾂﾁﾔﾏﾁｮｳｲﾁﾊﾞ","pref":"滋賀県","city":"甲賀市","address":"土山町市場"},
{"zip_code":"5280207","kana_pref":"ｼｶﾞｹﾝ","kana_city":"ｺｳｶｼ","kana_address":"ﾂﾁﾔﾏﾁｮｳｲﾉﾊﾅ","pref":"滋賀県","city":"甲賀市","address":"土山町猪鼻"},
{"zip_code":"5280201","kana_pref":"ｼｶﾞｹﾝ","kana_city":"ｺｳｶｼ","kana_address":"ﾂﾁﾔﾏﾁｮｳｵｵｶﾜﾗ","pref":"滋賀県","city":"甲賀市","address":"土山町大河原"},
{"zip_code":"5280213","kana_pref":"ｼｶﾞｹﾝ","kana_city":"ｺｳｶｼ","kana_address":"ﾂﾁﾔﾏﾁｮｳｵｵｻﾞﾜ","pref":"滋賀県","city":"甲賀市","address":"土山町大澤"},
{"zip_code":"5280221","kana_pref":"ｼｶﾞｹﾝ","kana_city":"ｺｳｶｼ","kana_address":"ﾂﾁﾔﾏﾁｮｳｵｵﾂﾞﾁ","pref":"滋賀県","city":"甲賀市","address":"土山町青土"},
{"zip_code":"5280235","kana_pref":"ｼｶﾞｹﾝ","kana_city":"ｺｳｶｼ","kana_address":"ﾂﾁﾔﾏﾁｮｳｵｵﾉ","pref":"滋賀県","city":"甲賀市","address":"土山町大野"},
{"zip_code":"5280211","kana_pref":"ｼｶﾞｹﾝ","kana_city":"ｺｳｶｼ","kana_address":"ﾂﾁﾔﾏﾁｮｳｷﾀﾂﾁﾔﾏ","pref":"滋賀県","city":"甲賀市","address":"土山町北土山"},
{"zip_code":"5280208","kana_pref":"ｼｶﾞｹﾝ","kana_city":"ｺｳｶｼ","kana_address":"ﾂﾁﾔﾏﾁｮｳｸﾛｶﾜ","pref":"滋賀県","city":"甲賀市","address":"土山町黒川"},
{"zip_code":"5280203","kana_pref":"ｼｶﾞｹﾝ","kana_city":"ｺｳｶｼ","kana_address":"ﾂﾁﾔﾏﾁｮｳｸﾛﾀｷ","pref":"滋賀県","city":"甲賀市","address":"土山町黒滝"},
{"zip_code":"5280223","kana_pref":"ｼｶﾞｹﾝ","kana_city":"ｺｳｶｼ","kana_address":"ﾂﾁﾔﾏﾁｮｳｾﾉｵﾄ","pref":"滋賀県","city":"甲賀市","address":"土山町瀬ノ音"},
{"zip_code":"5280205","kana_pref":"ｼｶﾞｹﾝ","kana_city":"ｺｳｶｼ","kana_address":"ﾂﾁﾔﾏﾁｮｳｿｿﾛ","pref":"滋賀県","city":"甲賀市","address":"土山町笹路"},
{"zip_code":"5280234","kana_pref":"ｼｶﾞｹﾝ","kana_city":"ｺｳｶｼ","kana_address":"ﾂﾁﾔﾏﾁｮｳﾄｸﾊﾗ","pref":"滋賀県","city":"甲賀市","address":"土山町徳原"},
{"zip_code":"5280231","kana_pref":"ｼｶﾞｹﾝ","kana_city":"ｺｳｶｼ","kana_address":"ﾂﾁﾔﾏﾁｮｳﾄﾝｸﾞｳ","pref":"滋賀県","city":"甲賀市","address":"土山町頓宮"},
{"zip_code":"5280224","kana_pref":"ｼｶﾞｹﾝ","kana_city":"ｺｳｶｼ","kana_address":"ﾂﾁﾔﾏﾁｮｳﾉｶﾞﾐﾉ","pref":"滋賀県","city":"甲賀市","address":"土山町野上野"},
{"zip_code":"5280222","kana_pref":"ｼｶﾞｹﾝ","kana_city":"ｺｳｶｼ","kana_address":"ﾂﾁﾔﾏﾁｮｳﾋﾗｺ","pref":"滋賀県","city":"甲賀市","address":"土山町平子"},
{"zip_code":"5280232","kana_pref":"ｼｶﾞｹﾝ","kana_city":"ｺｳｶｼ","kana_address":"ﾂﾁﾔﾏﾁｮｳﾏｴﾉ","pref":"滋賀県","city":"甲賀市","address":"土山町前野"},
{"zip_code":"5280212","kana_pref":"ｼｶﾞｹﾝ","kana_city":"ｺｳｶｼ","kana_address":"ﾂﾁﾔﾏﾁｮｳﾐﾅﾐﾂﾁﾔﾏ","pref":"滋賀県","city":"甲賀市","address":"土山町南土山"},
{"zip_code":"5280206","kana_pref":"ｼｶﾞｹﾝ","kana_city":"ｺｳｶｼ","kana_address":"ﾂﾁﾔﾏﾁｮｳﾔﾏﾅｶ","pref":"滋賀県","city":"甲賀市","address":"土山町山中"},
{"zip_code":"5280012","kana_pref":"ｼｶﾞｹﾝ","kana_city":"ｺｳｶｼ","kana_address":"ﾐﾅｸﾁﾁｮｳｱｶﾂｷ","pref":"滋賀県","city":"甲賀市","address":"水口町暁"},
{"zip_code":"5280071","kana_pref":"ｼｶﾞｹﾝ","kana_city":"ｺｳｶｼ","kana_address":"ﾐﾅｸﾁﾁｮｳｱｷﾊﾞ","pref":"滋賀県","city":"甲賀市","address":"水口町秋葉"},
{"zip_code":"5280072","kana_pref":"ｼｶﾞｹﾝ","kana_city":"ｺｳｶｼ","kana_address":"ﾐﾅｸﾁﾁｮｳｱｻﾋｶﾞｵｶ","pref":"滋賀県","city":"甲賀市","address":"水口町朝日が丘"},
{"zip_code":"5280033","kana_pref":"ｼｶﾞｹﾝ","kana_city":"ｺｳｶｼ","kana_address":"ﾐﾅｸﾁﾁｮｳｱﾔﾉ","pref":"滋賀県","city":"甲賀市","address":"水口町綾野"},
{"zip_code":"5280056","kana_pref":"ｼｶﾞｹﾝ","kana_city":"ｺｳｶｼ","kana_address":"ﾐﾅｸﾁﾁｮｳｲｽﾞﾐ","pref":"滋賀県","city":"甲賀市","address":"水口町泉"},
{"zip_code":"5280002","kana_pref":"ｼｶﾞｹﾝ","kana_city":"ｺｳｶｼ","kana_address":"ﾐﾅｸﾁﾁｮｳｲﾏｺﾞｳ","pref":"滋賀県","city":"甲賀市","address":"水口町今郷"},
{"zip_code":"5280047","kana_pref":"ｼｶﾞｹﾝ","kana_city":"ｺｳｶｼ","kana_address":"ﾐﾅｸﾁﾁｮｳｲﾜｻｶ","pref":"滋賀県","city":"甲賀市","address":"水口町岩坂"},
{"zip_code":"5280055","kana_pref":"ｼｶﾞｹﾝ","kana_city":"ｺｳｶｼ","kana_address":"ﾐﾅｸﾁﾁｮｳｳｴ","pref":"滋賀県","city":"甲賀市","address":"水口町植"},
{"zip_code":"5280052","kana_pref":"ｼｶﾞｹﾝ","kana_city":"ｺｳｶｼ","kana_address":"ﾐﾅｸﾁﾁｮｳｳｶﾜ","pref":"滋賀県","city":"甲賀市","address":"水口町宇川"},
{"zip_code":"5280045","kana_pref":"ｼｶﾞｹﾝ","kana_city":"ｺｳｶｼ","kana_address":"ﾐﾅｸﾁﾁｮｳｳｼｶｲ","pref":"滋賀県","city":"甲賀市","address":"水口町牛飼"},
{"zip_code":"5280053","kana_pref":"ｼｶﾞｹﾝ","kana_city":"ｺｳｶｼ","kana_address":"ﾐﾅｸﾁﾁｮｳｳﾂﾀ","pref":"滋賀県","city":"甲賀市","address":"水口町宇田"},
{"zip_code":"5280022","kana_pref":"ｼｶﾞｹﾝ","kana_city":"ｺｳｶｼ","kana_address":"ﾐﾅｸﾁﾁｮｳｳﾒｶﾞｵｶ","pref":"滋賀県","city":"甲賀市","address":"水口町梅が丘"},
{"zip_code":"5280065","kana_pref":"ｼｶﾞｹﾝ","kana_city":"ｺｳｶｼ","kana_address":"ﾐﾅｸﾁﾁｮｳｶｽｶﾞ","pref":"滋賀県","city":"甲賀市","address":"水口町春日"},
{"zip_code":"5280004","kana_pref":"ｼｶﾞｹﾝ","kana_city":"ｺｳｶｼ","kana_address":"ﾐﾅｸﾁﾁｮｳｷﾞｶ","pref":"滋賀県","city":"甲賀市","address":"水口町嶬峨"},
{"zip_code":"5280058","kana_pref":"ｼｶﾞｹﾝ","kana_city":"ｺｳｶｼ","kana_address":"ﾐﾅｸﾁﾁｮｳｷﾀｲｽﾞﾐ","pref":"滋賀県","city":"甲賀市","address":"水口町北泉"},
{"zip_code":"5280051","kana_pref":"ｼｶﾞｹﾝ","kana_city":"ｺｳｶｼ","kana_address":"ﾐﾅｸﾁﾁｮｳｷﾀﾅｲｷ","pref":"滋賀県","city":"甲賀市","address":"水口町北内貴"},
{"zip_code":"5280057","kana_pref":"ｼｶﾞｹﾝ","kana_city":"ｺｳｶｼ","kana_address":"ﾐﾅｸﾁﾁｮｳｷﾀﾜｷ","pref":"滋賀県","city":"甲賀市","address":"水口町北脇"},
{"zip_code":"5280049","kana_pref":"ｼｶﾞｹﾝ","kana_city":"ｺｳｶｼ","kana_address":"ﾐﾅｸﾁﾁｮｳｷﾌﾞｶﾜ","pref":"滋賀県","city":"甲賀市","address":"水口町貴生川"},
{"zip_code":"5280017","kana_pref":"ｼｶﾞｹﾝ","kana_city":"ｺｳｶｼ","kana_address":"ﾐﾅｸﾁﾁｮｳｷｮｳﾏﾁ","pref":"滋賀県","city":"甲賀市","address":"水口町京町"},
{"zip_code":"5280073","kana_pref":"ｼｶﾞｹﾝ","kana_city":"ｺｳｶｼ","kana_address":"ﾐﾅｸﾁﾁｮｳｺｼﾞｮｳｶﾞｵｶ","pref":"滋賀県","city":"甲賀市","address":"水口町古城が丘"},
{"zip_code":"5280054","kana_pref":"ｼｶﾞｹﾝ","kana_city":"ｺｳｶｼ","kana_address":"ﾐﾅｸﾁﾁｮｳｻｺｳﾄﾞ","pref":"滋賀県","city":"甲賀市","address":"水口町酒人"},
{"zip_code":"5280061","kana_pref":"ｼｶﾞｹﾝ","kana_city":"ｺｳｶｼ","kana_address":"ﾐﾅｸﾁﾁｮｳｻｻｶﾞｵｶ","pref":"滋賀県","city":"甲賀市","address":"水口町笹が丘"},
{"zip_code":"5280062","kana_pref":"ｼｶﾞｹﾝ","kana_city":"ｺｳｶｼ","kana_address":"ﾐﾅｸﾁﾁｮｳｻﾂｷｶﾞｵｶ","pref":"滋賀県","city":"甲賀市","address":"水口町さつきが丘"},
{"zip_code":"5280046","kana_pref":"ｼｶﾞｹﾝ","kana_city":"ｺｳｶｼ","kana_address":"ﾐﾅｸﾁﾁｮｳｻﾝﾀﾞｲｼﾞ","pref":"滋賀県","city":"甲賀市","address":"水口町三大寺"},
{"zip_code":"5280063","kana_pref":"ｼｶﾞｹﾝ","kana_city":"ｺｳｶｼ","kana_address":"ﾐﾅｸﾁﾁｮｳｼﾓﾔﾏ","pref":"滋賀県","city":"甲賀市","address":"水口町下山"},
{"zip_code":"5280015","kana_pref":"ｼｶﾞｹﾝ","kana_city":"ｺｳｶｼ","kana_address":"ﾐﾅｸﾁﾁｮｳｼｮｳｴｲ","pref":"滋賀県","city":"甲賀市","address":"水口町松栄"},
{"zip_code":"5280028","kana_pref":"ｼｶﾞｹﾝ","kana_city":"ｺｳｶｼ","kana_address":"ﾐﾅｸﾁﾁｮｳｼﾞｮｳﾄｳ","pref":"滋賀県","city":"甲賀市","address":"水口町城東"},
{"zip_code":"5280027","kana_pref":"ｼｶﾞｹﾝ","kana_city":"ｺｳｶｼ","kana_address":"ﾐﾅｸﾁﾁｮｳｼﾞｮｳﾅｲ","pref":"滋賀県","city":"甲賀市","address":"水口町城内"},
{"zip_code":"5280007","kana_pref":"ｼｶﾞｹﾝ","kana_city":"ｺｳｶｼ","kana_address":"ﾐﾅｸﾁﾁｮｳｼﾝｼﾞｮｳ","pref":"滋賀県","city":"甲賀市","address":"水口町新城"},
{"zip_code":"5280038","kana_pref":"ｼｶﾞｹﾝ","kana_city":"ｺｳｶｼ","kana_address":"ﾐﾅｸﾁﾁｮｳｼﾝﾏﾁ","pref":"滋賀県","city":"甲賀市","address":"水口町新町"},
{"zip_code":"5280016","kana_pref":"ｼｶﾞｹﾝ","kana_city":"ｺｳｶｼ","kana_address":"ﾐﾅｸﾁﾁｮｳｼﾝﾒｲ","pref":"滋賀県","city":"甲賀市","address":"水口町神明"},
{"zip_code":"5280043","kana_pref":"ｼｶﾞｹﾝ","kana_city":"ｺｳｶｼ","kana_address":"ﾐﾅｸﾁﾁｮｳｿﾏﾅｶ","pref":"滋賀県","city":"甲賀市","address":"水口町杣中"},
{"zip_code":"5280011","kana_pref":"ｼｶﾞｹﾝ","kana_city":"ｺｳｶｼ","kana_address":"ﾐﾅｸﾁﾁｮｳﾀｶﾂｶ","pref":"滋賀県","city":"甲賀市","address":"水口町高塚"},
{"zip_code":"5280048","kana_pref":"ｼｶﾞｹﾝ","kana_city":"ｺｳｶｼ","kana_address":"ﾐﾅｸﾁﾁｮｳﾀｶﾔﾏ","pref":"滋賀県","city":"甲賀市","address":"水口町高山"},
{"zip_code":"5280001","kana_pref":"ｼｶﾞｹﾝ","kana_city":"ｺｳｶｼ","kana_address":"ﾐﾅｸﾁﾁｮｳﾅｶﾊﾀ","pref":"滋賀県","city":"甲賀市","address":"水口町中畑"},
{"zip_code":"5280024","kana_pref":"ｼｶﾞｹﾝ","kana_city":"ｺｳｶｼ","kana_address":"ﾐﾅｸﾁﾁｮｳﾅｶﾔｼｷ","pref":"滋賀県","city":"甲賀市","address":"水口町中邸"},
{"zip_code":"5280035","kana_pref":"ｼｶﾞｹﾝ","kana_city":"ｺｳｶｼ","kana_address":"ﾐﾅｸﾁﾁｮｳﾅｻｶ","pref":"滋賀県","city":"甲賀市","address":"水口町名坂"},
{"zip_code":"5280025","kana_pref":"ｼｶﾞｹﾝ","kana_city":"ｺｳｶｼ","kana_address":"ﾐﾅｸﾁﾁｮｳﾆｼﾊﾔｼｸﾞﾁ","pref":"滋賀県","city":"甲賀市","address":"水口町西林口"},
{"zip_code":"5280034","kana_pref":"ｼｶﾞｹﾝ","kana_city":"ｺｳｶｼ","kana_address":"ﾐﾅｸﾁﾁｮｳﾆﾁﾃﾞﾝ","pref":"滋賀県","city":"甲賀市","address":"水口町日電"},
{"zip_code":"5280021","kana_pref":"ｼｶﾞｹﾝ","kana_city":"ｺｳｶｼ","kana_address":"ﾐﾅｸﾁﾁｮｳﾊｯｺｳ","pref":"滋賀県","city":"甲賀市","address":"水口町八光"},
{"zip_code":"5280066","kana_pref":"ｼｶﾞｹﾝ","kana_city":"ｺｳｶｼ","kana_address":"ﾐﾅｸﾁﾁｮｳﾊｯﾀ","pref":"滋賀県","city":"甲賀市","address":"水口町八田"},
{"zip_code":"5280064","kana_pref":"ｼｶﾞｹﾝ","kana_city":"ｺｳｶｼ","kana_address":"ﾐﾅｸﾁﾁｮｳﾊﾞﾝﾅｶﾔﾏ","pref":"滋賀県","city":"甲賀市","address":"水口町伴中山"},
{"zip_code":"5280036","kana_pref":"ｼｶﾞｹﾝ","kana_city":"ｺｳｶｼ","kana_address":"ﾐﾅｸﾁﾁｮｳﾋｶﾞｼﾅｻｶ","pref":"滋賀県","city":"甲賀市","address":"水口町東名坂"},
{"zip_code":"5280026","kana_pref":"ｼｶﾞｹﾝ","kana_city":"ｺｳｶｼ","kana_address":"ﾐﾅｸﾁﾁｮｳﾋｶﾞｼﾊﾔｼｸﾞﾁ","pref":"滋賀県","city":"甲賀市","address":"水口町東林口"},
{"zip_code":"5280068","kana_pref":"ｼｶﾞｹﾝ","kana_city":"ｺｳｶｼ","kana_address":"ﾐﾅｸﾁﾁｮｳﾋﾉｷｶﾞｵｶ","pref":"滋賀県","city":"甲賀市","address":"水口町ひのきが丘"},
{"zip_code":"5280031","kana_pref":"ｼｶﾞｹﾝ","kana_city":"ｺｳｶｼ","kana_address":"ﾐﾅｸﾁﾁｮｳﾎﾝﾏﾁ","pref":"滋賀県","city":"甲賀市","address":"水口町本町"},
{"zip_code":"5280023","kana_pref":"ｼｶﾞｹﾝ","kana_city":"ｺｳｶｼ","kana_address":"ﾐﾅｸﾁﾁｮｳﾎﾝﾏﾙ","pref":"滋賀県","city":"甲賀市","address":"水口町本丸"},
{"zip_code":"5280074","kana_pref":"ｼｶﾞｹﾝ","kana_city":"ｺｳｶｼ","kana_address":"ﾐﾅｸﾁﾁｮｳﾏﾂｵ","pref":"滋賀県","city":"甲賀市","address":"水口町松尾"},
{"zip_code":"5280020","kana_pref":"ｼｶﾞｹﾝ","kana_city":"ｺｳｶｼ","kana_address":"ﾐﾅｸﾁﾁｮｳﾏﾄﾊﾞ","pref":"滋賀県","city":"甲賀市","address":"水口町的場"},
{"zip_code":"5280005","kana_pref":"ｼｶﾞｹﾝ","kana_city":"ｺｳｶｼ","kana_address":"ﾐﾅｸﾁﾁｮｳﾐﾅｸﾁ","pref":"滋賀県","city":"甲賀市","address":"水口町水口"},
{"zip_code":"5280029","kana_pref":"ｼｶﾞｹﾝ","kana_city":"ｺｳｶｼ","kana_address":"ﾐﾅｸﾁﾁｮｳﾐﾅﾐﾊﾔｼｸﾞﾁ","pref":"滋賀県","city":"甲賀市","address":"水口町南林口"},
{"zip_code":"5280013","kana_pref":"ｼｶﾞｹﾝ","kana_city":"ｺｳｶｼ","kana_address":"ﾐﾅｸﾁﾁｮｳﾐﾔﾉﾏｴ","pref":"滋賀県","city":"甲賀市","address":"水口町宮の前"},
{"zip_code":"5280041","kana_pref":"ｼｶﾞｹﾝ","kana_city":"ｺｳｶｼ","kana_address":"ﾐﾅｸﾁﾁｮｳﾑｼｮｳﾉ","pref":"滋賀県","city":"甲賀市","address":"水口町虫生野"},
{"zip_code":"5280042","kana_pref":"ｼｶﾞｹﾝ","kana_city":"ｺｳｶｼ","kana_address":"ﾐﾅｸﾁﾁｮｳﾑｼｮｳﾉﾁｭｳｵｳ","pref":"滋賀県","city":"甲賀市","address":"水口町虫生野中央"},
{"zip_code":"5280069","kana_pref":"ｼｶﾞｹﾝ","kana_city":"ｺｳｶｼ","kana_address":"ﾐﾅｸﾁﾁｮｳﾑｼｮｳﾉﾆｼﾞﾉﾏﾁ","pref":"滋賀県","city":"甲賀市","address":"水口町虫生野虹の町"},
{"zip_code":"5280037","kana_pref":"ｼｶﾞｹﾝ","kana_city":"ｺｳｶｼ","kana_address":"ﾐﾅｸﾁﾁｮｳﾓﾄｱﾔﾉ","pref":"滋賀県","city":"甲賀市","address":"水口町本綾野"},
{"zip_code":"5280006","kana_pref":"ｼｶﾞｹﾝ","kana_city":"ｺｳｶｼ","kana_address":"ﾐﾅｸﾁﾁｮｳﾓﾄﾏﾁ","pref":"滋賀県","city":"甲賀市","address":"水口町元町"},
{"zip_code":"5280032","kana_pref":"ｼｶﾞｹﾝ","kana_city":"ｺｳｶｼ","kana_address":"ﾐﾅｸﾁﾁｮｳﾔｻｶ","pref":"滋賀県","city":"甲賀市","address":"水口町八坂"},
{"zip_code":"5280067","kana_pref":"ｼｶﾞｹﾝ","kana_city":"ｺｳｶｼ","kana_address":"ﾐﾅｸﾁﾁｮｳﾔﾏ","pref":"滋賀県","city":"甲賀市","address":"水口町山"},
{"zip_code":"5280044","kana_pref":"ｼｶﾞｹﾝ","kana_city":"ｺｳｶｼ","kana_address":"ﾐﾅｸﾁﾁｮｳﾔﾏｶﾞﾐ","pref":"滋賀県","city":"甲賀市","address":"水口町山上"},
{"zip_code":"5280014","kana_pref":"ｼｶﾞｹﾝ","kana_city":"ｺｳｶｼ","kana_address":"ﾐﾅｸﾁﾁｮｳﾛｸｼﾝ","pref":"滋賀県","city":"甲賀市","address":"水口町鹿深"},
{"zip_code":"5280003","kana_pref":"ｼｶﾞｹﾝ","kana_city":"ｺｳｶｼ","kana_address":"ﾐﾅｸﾁﾁｮｳﾜﾉ","pref":"滋賀県","city":"甲賀市","address":"水口町和野"}]}