{"zip_code":[
{"zip_code":"5291152","kana_pref":"ｼｶﾞｹﾝ","kana_city":"ﾋｺﾈｼ","kana_address":"ｱﾝｼﾞｷﾅｶﾏﾁ","pref":"滋賀県","city":"彦根市","address":"安食中町"},
{"zip_code":"5291155","kana_pref":"ｼｶﾞｹﾝ","kana_city":"ﾋｺﾈｼ","kana_address":"ｶﾀﾔﾏﾁｮｳ","pref":"滋賀県","city":"彦根市","address":"賀田山町"},
{"zip_code":"5291156","kana_pref":"ｼｶﾞｹﾝ","kana_city":"ﾋｺﾈｼ","kana_address":"ｷﾖｻｷﾁｮｳ","pref":"滋賀県","city":"彦根市","address":"清崎町"},
{"zip_code":"5291153","kana_pref":"ｼｶﾞｹﾝ","kana_city":"ﾋｺﾈｼ","kana_address":"ﾀｲﾄﾞｳﾁｮｳ","pref":"滋賀県","city":"彦根市","address":"太堂町"},
{"zip_code":"5291154","kana_pref":"ｼｶﾞｹﾝ","kana_city":"ﾋｺﾈｼ","kana_address":"ﾁﾋﾛﾁｮｳ","pref":"滋賀県","city":"彦根市","address":"千尋町"},
{"zip_code":"5291151","kana_pref":"ｼｶﾞｹﾝ","kana_city":"ﾋｺﾈｼ","kana_address":"ﾆﾚﾁｮｳ","pref":"滋賀県","city":"彦根市","address":"楡町"},
{"zip_code":"5290113","kana_pref":"ｼｶﾞｹﾝ","kana_city":"ﾅｶﾞﾊﾏｼ","kana_address":"ｵｵｲﾁｮｳ","pref":"滋賀県","city":"長浜市","address":"大井町"},
{"zip_code":"5290301","kana_pref":"ｼｶﾞｹﾝ","kana_city":"ﾅｶﾞﾊﾏｼ","kana_address":"ｵﾀﾞﾆｶﾐﾔﾏﾀﾞﾁｮｳ","pref":"滋賀県","city":"長浜市","address":"小谷上山田町"},
{"zip_code":"5290312","kana_pref":"ｼｶﾞｹﾝ","kana_city":"ﾅｶﾞﾊﾏｼ","kana_address":"ｵﾀﾞﾆｸﾞｼﾞｮｳﾁｮｳ","pref":"滋賀県","city":"長浜市","address":"小谷郡上町"},
{"zip_code":"5290311","kana_pref":"ｼｶﾞｹﾝ","kana_city":"ﾅｶﾞﾊﾏｼ","kana_address":"ｵﾀﾞﾆﾐﾉﾔﾏﾁｮｳ","pref":"滋賀県","city":"長浜市","address":"小谷美濃山町"},
{"zip_code":"5290304","kana_pref":"ｼｶﾞｹﾝ","kana_city":"ﾅｶﾞﾊﾏｼ","kana_address":"ｵﾀﾞﾆﾖｳﾉﾁｮｳ","pref":"滋賀県","city":"長浜市","address":"小谷丁野町"},
{"zip_code":"5290131","kana_pref":"ｼｶﾞｹﾝ","kana_city":"ﾅｶﾞﾊﾏｼ","kana_address":"ｶｷﾉｷ","pref":"滋賀県","city":"長浜市","address":"柿ノ木"},
{"zip_code":"5290101","kana_pref":"ｼｶﾞｹﾝ","kana_city":"ﾅｶﾞﾊﾏｼ","kana_address":"ｶﾗｸﾆﾁｮｳ","pref":"滋賀県","city":"長浜市","address":"唐国町"},
{"zip_code":"5290435","kana_pref":"ｼｶﾞｹﾝ","kana_city":"ﾅｶﾞﾊﾏｼ","kana_address":"ｷﾉﾓﾄﾁｮｳｱｶｵ","pref":"滋賀県","city":"長浜市","address":"木之本町赤尾"},
{"zip_code":"5290421","kana_pref":"ｼｶﾞｹﾝ","kana_city":"ﾅｶﾞﾊﾏｼ","kana_address":"ｷﾉﾓﾄﾁｮｳｱｯﾄﾘ","pref":"滋賀県","city":"長浜市","address":"木之本町アットリ"},
{"zip_code":"5290412","kana_pref":"ｼｶﾞｹﾝ","kana_city":"ﾅｶﾞﾊﾏｼ","kana_address":"ｷﾉﾓﾄﾁｮｳｲｼﾐﾁ","pref":"滋賀県","city":"長浜市","address":"木之本町石道"},
{"zip_code":"5290431","kana_pref":"ｼｶﾞｹﾝ","kana_city":"ﾅｶﾞﾊﾏｼ","kana_address":"ｷﾉﾓﾄﾁｮｳｵｵﾄ","pref":"滋賀県","city":"長浜市","address":"木之本町大音"},
{"zip_code":"5290415","kana_pref":"ｼｶﾞｹﾝ","kana_city":"ﾅｶﾞﾊﾏｼ","kana_address":"ｷﾉﾓﾄﾁｮｳｵｵﾐ","pref":"滋賀県","city":"長浜市","address":"木之本町大見"},
{"zip_code":"5290403","kana_pref":"ｼｶﾞｹﾝ","kana_city":"ﾅｶﾞﾊﾏｼ","kana_address":"ｷﾉﾓﾄﾁｮｳｵﾄﾜ","pref":"滋賀県","city":"長浜市","address":"木之本町音羽"},
{"zip_code":"5290401","kana_pref":"ｼｶﾞｹﾝ","kana_city":"ﾅｶﾞﾊﾏｼ","kana_address":"ｷﾉﾓﾄﾁｮｳｶﾈｲﾊﾗ","pref":"滋賀県","city":"長浜市","address":"木之本町金居原"},
{"zip_code":"5290414","kana_pref":"ｼｶﾞｹﾝ","kana_city":"ﾅｶﾞﾊﾏｼ","kana_address":"ｷﾉﾓﾄﾁｮｳｶﾜｲ","pref":"滋賀県","city":"長浜市","address":"木之本町川合"},
{"zip_code":"5290434","kana_pref":"ｼｶﾞｹﾝ","kana_city":"ﾅｶﾞﾊﾏｼ","kana_address":"ｷﾉﾓﾄﾁｮｳｷﾀﾌｾ","pref":"滋賀県","city":"長浜市","address":"木之本町北布施"},
{"zip_code":"5290425","kana_pref":"ｼｶﾞｹﾝ","kana_city":"ﾅｶﾞﾊﾏｼ","kana_address":"ｷﾉﾓﾄﾁｮｳｷﾉﾓﾄ","pref":"滋賀県","city":"長浜市","address":"木之本町木之本"},
{"zip_code":"5290426","kana_pref":"ｼｶﾞｹﾝ","kana_city":"ﾅｶﾞﾊﾏｼ","kana_address":"ｷﾉﾓﾄﾁｮｳｸﾛﾀﾞ","pref":"滋賀県","city":"長浜市","address":"木之本町黒田"},
{"zip_code":"5290413","kana_pref":"ｼｶﾞｹﾝ","kana_city":"ﾅｶﾞﾊﾏｼ","kana_address":"ｷﾉﾓﾄﾁｮｳｺﾔﾏ","pref":"滋賀県","city":"長浜市","address":"木之本町小山"},
{"zip_code":"5290402","kana_pref":"ｼｶﾞｹﾝ","kana_city":"ﾅｶﾞﾊﾏｼ","kana_address":"ｷﾉﾓﾄﾁｮｳｽｷﾞﾉ","pref":"滋賀県","city":"長浜市","address":"木之本町杉野"},
{"zip_code":"5290404","kana_pref":"ｼｶﾞｹﾝ","kana_city":"ﾅｶﾞﾊﾏｼ","kana_address":"ｷﾉﾓﾄﾁｮｳｽｷﾞﾓﾄ","pref":"滋賀県","city":"長浜市","address":"木之本町杉本"},
{"zip_code":"5290423","kana_pref":"ｼｶﾞｹﾝ","kana_city":"ﾅｶﾞﾊﾏｼ","kana_address":"ｷﾉﾓﾄﾁｮｳｾﾝﾀﾞ","pref":"滋賀県","city":"長浜市","address":"木之本町千田"},
{"zip_code":"5290432","kana_pref":"ｼｶﾞｹﾝ","kana_city":"ﾅｶﾞﾊﾏｼ","kana_address":"ｷﾉﾓﾄﾁｮｳﾀｲ","pref":"滋賀県","city":"長浜市","address":"木之本町田居"},
{"zip_code":"5290422","kana_pref":"ｼｶﾞｹﾝ","kana_city":"ﾅｶﾞﾊﾏｼ","kana_address":"ｷﾉﾓﾄﾁｮｳﾀﾍﾞ","pref":"滋賀県","city":"長浜市","address":"木之本町田部"},
{"zip_code":"5290433","kana_pref":"ｼｶﾞｹﾝ","kana_city":"ﾅｶﾞﾊﾏｼ","kana_address":"ｷﾉﾓﾄﾁｮｳﾆｼﾔﾏ","pref":"滋賀県","city":"長浜市","address":"木之本町西山"},
{"zip_code":"5290541","kana_pref":"ｼｶﾞｹﾝ","kana_city":"ﾅｶﾞﾊﾏｼ","kana_address":"ｷﾉﾓﾄﾁｮｳﾊﾝﾉｳﾗ","pref":"滋賀県","city":"長浜市","address":"木之本町飯浦"},
{"zip_code":"5290437","kana_pref":"ｼｶﾞｹﾝ","kana_city":"ﾅｶﾞﾊﾏｼ","kana_address":"ｷﾉﾓﾄﾁｮｳﾊﾝﾉｳﾗ","pref":"滋賀県","city":"長浜市","address":"木之本町飯浦"},
{"zip_code":"5290424","kana_pref":"ｼｶﾞｹﾝ","kana_city":"ﾅｶﾞﾊﾏｼ","kana_address":"ｷﾉﾓﾄﾁｮｳﾋﾛｾ","pref":"滋賀県","city":"長浜市","address":"木之本町廣瀬"},
{"zip_code":"5290411","kana_pref":"ｼｶﾞｹﾝ","kana_city":"ﾅｶﾞﾊﾏｼ","kana_address":"ｷﾉﾓﾄﾁｮｳﾌﾙﾊｼ","pref":"滋賀県","city":"長浜市","address":"木之本町古橋"},
{"zip_code":"5290436","kana_pref":"ｼｶﾞｹﾝ","kana_city":"ﾅｶﾞﾊﾏｼ","kana_address":"ｷﾉﾓﾄﾁｮｳﾔﾏﾅｼ","pref":"滋賀県","city":"長浜市","address":"木之本町山梨子"},
{"zip_code":"5290333","kana_pref":"ｼｶﾞｹﾝ","kana_city":"ﾅｶﾞﾊﾏｼ","kana_address":"ｺﾎｸｲﾏﾁｮｳ","pref":"滋賀県","city":"長浜市","address":"湖北今町"},
{"zip_code":"5290342","kana_pref":"ｼｶﾞｹﾝ","kana_city":"ﾅｶﾞﾊﾏｼ","kana_address":"ｺﾎｸﾀｶﾀﾁｮｳ","pref":"滋賀県","city":"長浜市","address":"湖北高田町"},
{"zip_code":"5290332","kana_pref":"ｼｶﾞｹﾝ","kana_city":"ﾅｶﾞﾊﾏｼ","kana_address":"ｺﾎｸﾁｮｳｱｵﾅ","pref":"滋賀県","city":"長浜市","address":"湖北町青名"},
{"zip_code":"5290361","kana_pref":"ｼｶﾞｹﾝ","kana_city":"ﾅｶﾞﾊﾏｼ","kana_address":"ｺﾎｸﾁｮｳｲｼｶﾜ","pref":"滋賀県","city":"長浜市","address":"湖北町石川"},
{"zip_code":"5290313","kana_pref":"ｼｶﾞｹﾝ","kana_city":"ﾅｶﾞﾊﾏｼ","kana_address":"ｺﾎｸﾁｮｳｲﾍﾞ","pref":"滋賀県","city":"長浜市","address":"湖北町伊部"},
{"zip_code":"5290365","kana_pref":"ｼｶﾞｹﾝ","kana_city":"ﾅｶﾞﾊﾏｼ","kana_address":"ｺﾎｸﾁｮｳｲﾏﾆｼ","pref":"滋賀県","city":"長浜市","address":"湖北町今西"},
{"zip_code":"5290367","kana_pref":"ｼｶﾞｹﾝ","kana_city":"ﾅｶﾞﾊﾏｼ","kana_address":"ｺﾎｸﾁｮｳｴﾋﾞｴ","pref":"滋賀県","city":"長浜市","address":"湖北町海老江"},
{"zip_code":"5290366","kana_pref":"ｼｶﾞｹﾝ","kana_city":"ﾅｶﾞﾊﾏｼ","kana_address":"ｺﾎｸﾁｮｳｴﾝｼｮｳｼﾞ","pref":"滋賀県","city":"長浜市","address":"湖北町延勝寺"},
{"zip_code":"5290343","kana_pref":"ｼｶﾞｹﾝ","kana_city":"ﾅｶﾞﾊﾏｼ","kana_address":"ｺﾎｸﾁｮｳｵｸﾞﾗ","pref":"滋賀県","city":"長浜市","address":"湖北町小倉"},
{"zip_code":"5290364","kana_pref":"ｼｶﾞｹﾝ","kana_city":"ﾅｶﾞﾊﾏｼ","kana_address":"ｺﾎｸﾁｮｳｵﾉｴ","pref":"滋賀県","city":"長浜市","address":"湖北町尾上"},
{"zip_code":"5290321","kana_pref":"ｼｶﾞｹﾝ","kana_city":"ﾅｶﾞﾊﾏｼ","kana_address":"ｺﾎｸﾁｮｳｶ","pref":"滋賀県","city":"長浜市","address":"湖北町賀"},
{"zip_code":"5290316","kana_pref":"ｼｶﾞｹﾝ","kana_city":"ﾅｶﾞﾊﾏｼ","kana_address":"ｺﾎｸﾁｮｳｶﾜｹ","pref":"滋賀県","city":"長浜市","address":"湖北町河毛"},
{"zip_code":"5290322","kana_pref":"ｼｶﾞｹﾝ","kana_city":"ﾅｶﾞﾊﾏｼ","kana_address":"ｺﾎｸﾁｮｳｺｲﾏ","pref":"滋賀県","city":"長浜市","address":"湖北町小今"},
{"zip_code":"5290352","kana_pref":"ｼｶﾞｹﾝ","kana_city":"ﾅｶﾞﾊﾏｼ","kana_address":"ｺﾎｸﾁｮｳｺﾞﾉﾂﾎﾞ","pref":"滋賀県","city":"長浜市","address":"湖北町五坪"},
{"zip_code":"5290334","kana_pref":"ｼｶﾞｹﾝ","kana_city":"ﾅｶﾞﾊﾏｼ","kana_address":"ｺﾎｸﾁｮｳｻﾜ","pref":"滋賀県","city":"長浜市","address":"湖北町沢"},
{"zip_code":"5290345","kana_pref":"ｼｶﾞｹﾝ","kana_city":"ﾅｶﾞﾊﾏｼ","kana_address":"ｺﾎｸﾁｮｳﾀﾞｲｱﾝｼﾞ","pref":"滋賀県","city":"長浜市","address":"湖北町大安寺"},
{"zip_code":"5290353","kana_pref":"ｼｶﾞｹﾝ","kana_city":"ﾅｶﾞﾊﾏｼ","kana_address":"ｺﾎｸﾁｮｳﾀﾅｶ","pref":"滋賀県","city":"長浜市","address":"湖北町田中"},
{"zip_code":"5290362","kana_pref":"ｼｶﾞｹﾝ","kana_city":"ﾅｶﾞﾊﾏｼ","kana_address":"ｺﾎｸﾁｮｳﾂﾉｻﾄ","pref":"滋賀県","city":"長浜市","address":"湖北町津里"},
{"zip_code":"5290314","kana_pref":"ｼｶﾞｹﾝ","kana_city":"ﾅｶﾞﾊﾏｼ","kana_address":"ｺﾎｸﾁｮｳﾄﾄﾞﾒ","pref":"滋賀県","city":"長浜市","address":"湖北町留目"},
{"zip_code":"5290335","kana_pref":"ｼｶﾞｹﾝ","kana_city":"ﾅｶﾞﾊﾏｼ","kana_address":"ｺﾎｸﾁｮｳﾈｺｸﾞﾁ","pref":"滋賀県","city":"長浜市","address":"湖北町猫口"},
{"zip_code":"5290341","kana_pref":"ｼｶﾞｹﾝ","kana_city":"ﾅｶﾞﾊﾏｼ","kana_address":"ｺﾎｸﾁｮｳﾊﾔﾐ","pref":"滋賀県","city":"長浜市","address":"湖北町速水"},
{"zip_code":"5290303","kana_pref":"ｼｶﾞｹﾝ","kana_city":"ﾅｶﾞﾊﾏｼ","kana_address":"ｺﾎｸﾁｮｳﾌﾀﾏﾀ","pref":"滋賀県","city":"長浜市","address":"湖北町二俣"},
{"zip_code":"5290315","kana_pref":"ｼｶﾞｹﾝ","kana_city":"ﾅｶﾞﾊﾏｼ","kana_address":"ｺﾎｸﾁｮｳﾍﾞｯｼﾖ","pref":"滋賀県","city":"長浜市","address":"湖北町別所"},
{"zip_code":"5290346","kana_pref":"ｼｶﾞｹﾝ","kana_city":"ﾅｶﾞﾊﾏｼ","kana_address":"ｺﾎｸﾁｮｳﾐﾅﾐﾊﾔﾐ","pref":"滋賀県","city":"長浜市","address":"湖北町南速水"},
{"zip_code":"5290344","kana_pref":"ｼｶﾞｹﾝ","kana_city":"ﾅｶﾞﾊﾏｼ","kana_address":"ｺﾎｸﾁｮｳﾓｳﾀﾘ","pref":"滋賀県","city":"長浜市","address":"湖北町馬渡"},
{"zip_code":"5290354","kana_pref":"ｼｶﾞｹﾝ","kana_city":"ﾅｶﾞﾊﾏｼ","kana_address":"ｺﾎｸﾁｮｳﾔﾏﾓﾄ","pref":"滋賀県","city":"長浜市","address":"湖北町山本"},
{"zip_code":"5290317","kana_pref":"ｼｶﾞｹﾝ","kana_city":"ﾅｶﾞﾊﾏｼ","kana_address":"ｺﾎｸﾁｮｳﾔﾏﾜｷ","pref":"滋賀県","city":"長浜市","address":"湖北町山脇"},
{"zip_code":"5290331","kana_pref":"ｼｶﾞｹﾝ","kana_city":"ﾅｶﾞﾊﾏｼ","kana_address":"ｺﾎｸﾁｮｳﾖｳｶｲﾁ","pref":"滋賀県","city":"長浜市","address":"湖北町八日市"},
{"zip_code":"5290363","kana_pref":"ｼｶﾞｹﾝ","kana_city":"ﾅｶﾞﾊﾏｼ","kana_address":"ｺﾎｸﾋｶﾞｼｵﾉｴﾁｮｳ","pref":"滋賀県","city":"長浜市","address":"湖北東尾上町"},
{"zip_code":"5290141","kana_pref":"ｼｶﾞｹﾝ","kana_city":"ﾅｶﾞﾊﾏｼ","kana_address":"ｺﾞﾑﾗ","pref":"滋賀県","city":"長浜市","address":"五村"},
{"zip_code":"5290121","kana_pref":"ｼｶﾞｹﾝ","kana_city":"ﾅｶﾞﾊﾏｼ","kana_address":"ｻｸﾗﾁｮｳ","pref":"滋賀県","city":"長浜市","address":"桜町"},
{"zip_code":"5290302","kana_pref":"ｼｶﾞｹﾝ","kana_city":"ﾅｶﾞﾊﾏｼ","kana_address":"ｼﾓﾔﾏﾀﾞ","pref":"滋賀県","city":"長浜市","address":"下山田"},
{"zip_code":"5290133","kana_pref":"ｼｶﾞｹﾝ","kana_city":"ﾅｶﾞﾊﾏｼ","kana_address":"ｼﾝｱｻﾋﾏﾁ","pref":"滋賀県","city":"長浜市","address":"新旭町"},
{"zip_code":"5290122","kana_pref":"ｼｶﾞｹﾝ","kana_city":"ﾅｶﾞﾊﾏｼ","kana_address":"ｽ","pref":"滋賀県","city":"長浜市","address":"酢"},
{"zip_code":"5290351","kana_pref":"ｼｶﾞｹﾝ","kana_city":"ﾅｶﾞﾊﾏｼ","kana_address":"ﾀﾞｲｺｳｼﾞﾁｮｳ","pref":"滋賀県","city":"長浜市","address":"大光寺町"},
{"zip_code":"5290144","kana_pref":"ｼｶﾞｹﾝ","kana_city":"ﾅｶﾞﾊﾏｼ","kana_address":"ﾀﾞｲｼﾞﾁｮｳ","pref":"滋賀県","city":"長浜市","address":"大寺町"},
{"zip_code":"5290222","kana_pref":"ｼｶﾞｹﾝ","kana_city":"ﾅｶﾞﾊﾏｼ","kana_address":"ﾀｶﾂｷﾁｮｳｱﾒﾉﾓﾘ","pref":"滋賀県","city":"長浜市","address":"高月町雨森"},
{"zip_code":"5290203","kana_pref":"ｼｶﾞｹﾝ","kana_city":"ﾅｶﾞﾊﾏｼ","kana_address":"ﾀｶﾂｷﾁｮｳｲｿﾉ","pref":"滋賀県","city":"長浜市","address":"高月町磯野"},
{"zip_code":"5290212","kana_pref":"ｼｶﾞｹﾝ","kana_city":"ﾅｶﾞﾊﾏｼ","kana_address":"ﾀｶﾂｷﾁｮｳｲﾉｸﾁ","pref":"滋賀県","city":"長浜市","address":"高月町井口"},
{"zip_code":"5290251","kana_pref":"ｼｶﾞｹﾝ","kana_city":"ﾅｶﾞﾊﾏｼ","kana_address":"ﾀｶﾂｷﾁｮｳｳﾈ","pref":"滋賀県","city":"長浜市","address":"高月町宇根"},
{"zip_code":"5290232","kana_pref":"ｼｶﾞｹﾝ","kana_city":"ﾅｶﾞﾊﾏｼ","kana_address":"ﾀｶﾂｷﾁｮｳｵﾁｶﾜ","pref":"滋賀県","city":"長浜市","address":"高月町落川"},
{"zip_code":"5290215","kana_pref":"ｼｶﾞｹﾝ","kana_city":"ﾅｶﾞﾊﾏｼ","kana_address":"ﾀｶﾂｷﾁｮｳｵﾔﾏ","pref":"滋賀県","city":"長浜市","address":"高月町尾山"},
{"zip_code":"5290234","kana_pref":"ｼｶﾞｹﾝ","kana_city":"ﾅｶﾞﾊﾏｼ","kana_address":"ﾀｶﾂｷﾁｮｳｶｼﾊﾗ","pref":"滋賀県","city":"長浜市","address":"高月町柏原"},
{"zip_code":"5290272","kana_pref":"ｼｶﾞｹﾝ","kana_city":"ﾅｶﾞﾊﾏｼ","kana_address":"ﾀｶﾂｷﾁｮｳｶﾀﾔﾏ","pref":"滋賀県","city":"長浜市","address":"高月町片山"},
{"zip_code":"5290205","kana_pref":"ｼｶﾞｹﾝ","kana_city":"ﾅｶﾞﾊﾏｼ","kana_address":"ﾀｶﾂｷﾁｮｳｶﾗｶﾜ","pref":"滋賀県","city":"長浜市","address":"高月町唐川"},
{"zip_code":"5290271","kana_pref":"ｼｶﾞｹﾝ","kana_city":"ﾅｶﾞﾊﾏｼ","kana_address":"ﾀｶﾂｷﾁｮｳｸﾏﾉ","pref":"滋賀県","city":"長浜市","address":"高月町熊野"},
{"zip_code":"5290275","kana_pref":"ｼｶﾞｹﾝ","kana_city":"ﾅｶﾞﾊﾏｼ","kana_address":"ﾀｶﾂｷﾁｮｳｼｹﾞﾉﾘ","pref":"滋賀県","city":"長浜市","address":"高月町重則"},
{"zip_code":"5290241","kana_pref":"ｼｶﾞｹﾝ","kana_city":"ﾅｶﾞﾊﾏｼ","kana_address":"ﾀｶﾂｷﾁｮｳﾀｶﾂｷ","pref":"滋賀県","city":"長浜市","address":"高月町高月"},
{"zip_code":"5290221","kana_pref":"ｼｶﾞｹﾝ","kana_city":"ﾅｶﾞﾊﾏｼ","kana_address":"ﾀｶﾂｷﾁｮｳﾀｶﾉ","pref":"滋賀県","city":"長浜市","address":"高月町高野"},
{"zip_code":"5290233","kana_pref":"ｼｶﾞｹﾝ","kana_city":"ﾅｶﾞﾊﾏｼ","kana_address":"ﾀｶﾂｷﾁｮｳﾄﾞｳｶﾞﾝｼﾞ","pref":"滋賀県","city":"長浜市","address":"高月町渡岸寺"},
{"zip_code":"5290253","kana_pref":"ｼｶﾞｹﾝ","kana_city":"ﾅｶﾞﾊﾏｼ","kana_address":"ﾀｶﾂｷﾁｮｳﾆｼｱﾂｼﾞ","pref":"滋賀県","city":"長浜市","address":"高月町西阿閉"},
{"zip_code":"5290273","kana_pref":"ｼｶﾞｹﾝ","kana_city":"ﾅｶﾞﾊﾏｼ","kana_address":"ﾀｶﾂｷﾁｮｳﾆｼﾉ","pref":"滋賀県","city":"長浜市","address":"高月町西野"},
{"zip_code":"5290262","kana_pref":"ｼｶﾞｹﾝ","kana_city":"ﾅｶﾞﾊﾏｼ","kana_address":"ﾀｶﾂｷﾁｮｳﾆｼﾓﾉﾍﾞ","pref":"滋賀県","city":"長浜市","address":"高月町西物部"},
{"zip_code":"5290265","kana_pref":"ｼｶﾞｹﾝ","kana_city":"ﾅｶﾞﾊﾏｼ","kana_address":"ﾀｶﾂｷﾁｮｳﾆｼﾔﾅｷﾞﾉ","pref":"滋賀県","city":"長浜市","address":"高月町西柳野"},
{"zip_code":"5290252","kana_pref":"ｼｶﾞｹﾝ","kana_city":"ﾅｶﾞﾊﾏｼ","kana_address":"ﾀｶﾂｷﾁｮｳﾋｶﾞｼｱﾂｼﾞ","pref":"滋賀県","city":"長浜市","address":"高月町東阿閉"},
{"zip_code":"5290202","kana_pref":"ｼｶﾞｹﾝ","kana_city":"ﾅｶﾞﾊﾏｼ","kana_address":"ﾀｶﾂｷﾁｮｳﾋｶﾞｼﾀｶﾀ","pref":"滋賀県","city":"長浜市","address":"高月町東高田"},
{"zip_code":"5290261","kana_pref":"ｼｶﾞｹﾝ","kana_city":"ﾅｶﾞﾊﾏｼ","kana_address":"ﾀｶﾂｷﾁｮｳﾋｶﾞｼﾓﾉﾍﾞ","pref":"滋賀県","city":"長浜市","address":"高月町東物部"},
{"zip_code":"5290263","kana_pref":"ｼｶﾞｹﾝ","kana_city":"ﾅｶﾞﾊﾏｼ","kana_address":"ﾀｶﾂｷﾁｮｳﾋｶﾞｼﾔﾅｷﾞﾉ","pref":"滋賀県","city":"長浜市","address":"高月町東柳野"},
{"zip_code":"5290204","kana_pref":"ｼｶﾞｹﾝ","kana_city":"ﾅｶﾞﾊﾏｼ","kana_address":"ﾀｶﾂｷﾁｮｳﾌｾ","pref":"滋賀県","city":"長浜市","address":"高月町布施"},
{"zip_code":"5290211","kana_pref":"ｼｶﾞｹﾝ","kana_city":"ﾅｶﾞﾊﾏｼ","kana_address":"ﾀｶﾂｷﾁｮｳﾎｳｴﾝｼﾞ","pref":"滋賀県","city":"長浜市","address":"高月町保延寺"},
{"zip_code":"5290214","kana_pref":"ｼｶﾞｹﾝ","kana_city":"ﾅｶﾞﾊﾏｼ","kana_address":"ﾀｶﾂｷﾁｮｳﾎﾗﾄﾞ","pref":"滋賀県","city":"長浜市","address":"高月町洞戸"},
{"zip_code":"5290223","kana_pref":"ｼｶﾞｹﾝ","kana_city":"ﾅｶﾞﾊﾏｼ","kana_address":"ﾀｶﾂｷﾁｮｳﾏｹ","pref":"滋賀県","city":"長浜市","address":"高月町馬上"},
{"zip_code":"5290274","kana_pref":"ｼｶﾞｹﾝ","kana_city":"ﾅｶﾞﾊﾏｼ","kana_address":"ﾀｶﾂｷﾁｮｳﾏﾂｵ","pref":"滋賀県","city":"長浜市","address":"高月町松尾"},
{"zip_code":"5290213","kana_pref":"ｼｶﾞｹﾝ","kana_city":"ﾅｶﾞﾊﾏｼ","kana_address":"ﾀｶﾂｷﾁｮｳﾓﾁﾃﾞﾗ","pref":"滋賀県","city":"長浜市","address":"高月町持寺"},
{"zip_code":"5290231","kana_pref":"ｼｶﾞｹﾝ","kana_city":"ﾅｶﾞﾊﾏｼ","kana_address":"ﾀｶﾂｷﾁｮｳﾓﾘﾓﾄ","pref":"滋賀県","city":"長浜市","address":"高月町森本"},
{"zip_code":"5290264","kana_pref":"ｼｶﾞｹﾝ","kana_city":"ﾅｶﾞﾊﾏｼ","kana_address":"ﾀｶﾂｷﾁｮｳﾔﾅｷﾞﾉﾅｶ","pref":"滋賀県","city":"長浜市","address":"高月町柳野中"},
{"zip_code":"5290201","kana_pref":"ｼｶﾞｹﾝ","kana_city":"ﾅｶﾞﾊﾏｼ","kana_address":"ﾀｶﾂｷﾁｮｳﾖｺﾔﾏ","pref":"滋賀県","city":"長浜市","address":"高月町横山"},
{"zip_code":"5290142","kana_pref":"ｼｶﾞｹﾝ","kana_city":"ﾅｶﾞﾊﾏｼ","kana_address":"ﾀﾁｮｳ","pref":"滋賀県","city":"長浜市","address":"田町"},
{"zip_code":"5290102","kana_pref":"ｼｶﾞｹﾝ","kana_city":"ﾅｶﾞﾊﾏｼ","kana_address":"ﾂｷｶﾞｾﾁｮｳ","pref":"滋賀県","city":"長浜市","address":"月ヶ瀬町"},
{"zip_code":"5290132","kana_pref":"ｼｶﾞｹﾝ","kana_city":"ﾅｶﾞﾊﾏｼ","kana_address":"ﾅｶﾞﾀﾁｮｳ","pref":"滋賀県","city":"長浜市","address":"長田町"},
{"zip_code":"5290103","kana_pref":"ｼｶﾞｹﾝ","kana_city":"ﾅｶﾞﾊﾏｼ","kana_address":"ﾅｶﾉﾁｮｳ","pref":"滋賀県","city":"長浜市","address":"中野町"},
{"zip_code":"5290721","kana_pref":"ｼｶﾞｹﾝ","kana_city":"ﾅｶﾞﾊﾏｼ","kana_address":"ﾆｼｱｻﾞｲﾁｮｳｵｵｳﾗ","pref":"滋賀県","city":"長浜市","address":"西浅井町大浦"},
{"zip_code":"5290714","kana_pref":"ｼｶﾞｹﾝ","kana_city":"ﾅｶﾞﾊﾏｼ","kana_address":"ﾆｼｱｻﾞｲﾁｮｳｵﾔﾏ","pref":"滋賀県","city":"長浜市","address":"西浅井町小山"},
{"zip_code":"5290708","kana_pref":"ｼｶﾞｹﾝ","kana_city":"ﾅｶﾞﾊﾏｼ","kana_address":"ﾆｼｱｻﾞｲﾁｮｳｸﾂｶｹ","pref":"滋賀県","city":"長浜市","address":"西浅井町沓掛"},
{"zip_code":"5290725","kana_pref":"ｼｶﾞｹﾝ","kana_city":"ﾅｶﾞﾊﾏｼ","kana_address":"ﾆｼｱｻﾞｲﾁｮｳｸﾛﾔﾏ","pref":"滋賀県","city":"長浜市","address":"西浅井町黒山"},
{"zip_code":"5290704","kana_pref":"ｼｶﾞｹﾝ","kana_city":"ﾅｶﾞﾊﾏｼ","kana_address":"ﾆｼｱｻﾞｲﾁｮｳｼｵﾂﾅｶ","pref":"滋賀県","city":"長浜市","address":"西浅井町塩津中"},
{"zip_code":"5290701","kana_pref":"ｼｶﾞｹﾝ","kana_city":"ﾅｶﾞﾊﾏｼ","kana_address":"ﾆｼｱｻﾞｲﾁｮｳｼｵﾂﾊﾏ","pref":"滋賀県","city":"長浜市","address":"西浅井町塩津浜"},
{"zip_code":"5290707","kana_pref":"ｼｶﾞｹﾝ","kana_city":"ﾅｶﾞﾊﾏｼ","kana_address":"ﾆｼｱｻﾞｲﾁｮｳｼｭｳﾌｸｼﾞ","pref":"滋賀県","city":"長浜市","address":"西浅井町集福寺"},
{"zip_code":"5290722","kana_pref":"ｼｶﾞｹﾝ","kana_city":"ﾅｶﾞﾊﾏｼ","kana_address":"ﾆｼｱｻﾞｲﾁｮｳｼｮｳ","pref":"滋賀県","city":"長浜市","address":"西浅井町庄"},
{"zip_code":"5290726","kana_pref":"ｼｶﾞｹﾝ","kana_city":"ﾅｶﾞﾊﾏｼ","kana_address":"ﾆｼｱｻﾞｲﾁｮｳｽｶﾞｳﾗ","pref":"滋賀県","city":"長浜市","address":"西浅井町菅浦"},
{"zip_code":"5290712","kana_pref":"ｼｶﾞｹﾝ","kana_city":"ﾅｶﾞﾊﾏｼ","kana_address":"ﾆｼｱｻﾞｲﾁｮｳﾂｷﾃﾞ","pref":"滋賀県","city":"長浜市","address":"西浅井町月出"},
{"zip_code":"5290723","kana_pref":"ｼｶﾞｹﾝ","kana_city":"ﾅｶﾞﾊﾏｼ","kana_address":"ﾆｼｱｻﾞｲﾁｮｳﾅｶ","pref":"滋賀県","city":"長浜市","address":"西浅井町中"},
{"zip_code":"5290703","kana_pref":"ｼｶﾞｹﾝ","kana_city":"ﾅｶﾞﾊﾏｼ","kana_address":"ﾆｼｱｻﾞｲﾁｮｳﾉｻﾞｶ","pref":"滋賀県","city":"長浜市","address":"西浅井町野坂"},
{"zip_code":"5290713","kana_pref":"ｼｶﾞｹﾝ","kana_city":"ﾅｶﾞﾊﾏｼ","kana_address":"ﾆｼｱｻﾞｲﾁｮｳﾊﾀﾍﾞ","pref":"滋賀県","city":"長浜市","address":"西浅井町八田部"},
{"zip_code":"5290702","kana_pref":"ｼｶﾞｹﾝ","kana_city":"ﾅｶﾞﾊﾏｼ","kana_address":"ﾆｼｱｻﾞｲﾁｮｳﾎﾘﾔﾏ","pref":"滋賀県","city":"長浜市","address":"西浅井町祝山"},
{"zip_code":"5290711","kana_pref":"ｼｶﾞｹﾝ","kana_city":"ﾅｶﾞﾊﾏｼ","kana_address":"ﾆｼｱｻﾞｲﾁｮｳﾔﾉｸﾏ","pref":"滋賀県","city":"長浜市","address":"西浅井町岩熊"},
{"zip_code":"5290724","kana_pref":"ｼｶﾞｹﾝ","kana_city":"ﾅｶﾞﾊﾏｼ","kana_address":"ﾆｼｱｻﾞｲﾁｮｳﾔﾏｶﾄﾞ","pref":"滋賀県","city":"長浜市","address":"西浅井町山門"},
{"zip_code":"5290715","kana_pref":"ｼｶﾞｹﾝ","kana_city":"ﾅｶﾞﾊﾏｼ","kana_address":"ﾆｼｱｻﾞｲﾁｮｳﾔﾏﾀﾞ","pref":"滋賀県","city":"長浜市","address":"西浅井町山田"},
{"zip_code":"5290706","kana_pref":"ｼｶﾞｹﾝ","kana_city":"ﾅｶﾞﾊﾏｼ","kana_address":"ﾆｼｱｻﾞｲﾁｮｳﾖ","pref":"滋賀県","city":"長浜市","address":"西浅井町余"},
{"zip_code":"5290705","kana_pref":"ｼｶﾞｹﾝ","kana_city":"ﾅｶﾞﾊﾏｼ","kana_address":"ﾆｼｱｻﾞｲﾁｮｳﾖｺﾅﾐ","pref":"滋賀県","city":"長浜市","address":"西浅井町横波"},
{"zip_code":"5290123","kana_pref":"ｼｶﾞｹﾝ","kana_city":"ﾅｶﾞﾊﾏｼ","kana_address":"ﾆｼｵｵｲﾁｮｳ","pref":"滋賀県","city":"長浜市","address":"西大井町"},
{"zip_code":"5290143","kana_pref":"ｼｶﾞｹﾝ","kana_city":"ﾅｶﾞﾊﾏｼ","kana_address":"ﾎﾝﾁｮｳ","pref":"滋賀県","city":"長浜市","address":"本町"},
{"zip_code":"5290111","kana_pref":"ｼｶﾞｹﾝ","kana_city":"ﾅｶﾞﾊﾏｼ","kana_address":"ﾐｶﾜﾁｮｳ","pref":"滋賀県","city":"長浜市","address":"三川町"},
{"zip_code":"5290112","kana_pref":"ｼｶﾞｹﾝ","kana_city":"ﾅｶﾞﾊﾏｼ","kana_address":"ﾐﾔﾍﾞﾁｮｳ","pref":"滋賀県","city":"長浜市","address":"宮部町"},
{"zip_code":"5290536","kana_pref":"ｼｶﾞｹﾝ","kana_city":"ﾅｶﾞﾊﾏｼ","kana_address":"ﾖｺﾞﾁｮｳｲｹﾊﾗ","pref":"滋賀県","city":"長浜市","address":"余呉町池原"},
{"zip_code":"5290535","kana_pref":"ｼｶﾞｹﾝ","kana_city":"ﾅｶﾞﾊﾏｼ","kana_address":"ﾖｺﾞﾁｮｳｲﾏｲﾁ","pref":"滋賀県","city":"長浜市","address":"余呉町今市"},
{"zip_code":"5290534","kana_pref":"ｼｶﾞｹﾝ","kana_city":"ﾅｶﾞﾊﾏｼ","kana_address":"ﾖｺﾞﾁｮｳｵｵﾀﾆ","pref":"滋賀県","city":"長浜市","address":"余呉町小谷"},
{"zip_code":"5290503","kana_pref":"ｼｶﾞｹﾝ","kana_city":"ﾅｶﾞﾊﾏｼ","kana_address":"ﾖｺﾞﾁｮｳｵｸｶﾜﾅﾐ","pref":"滋賀県","city":"長浜市","address":"余呉町奥川並"},
{"zip_code":"5290502","kana_pref":"ｼｶﾞｹﾝ","kana_city":"ﾅｶﾞﾊﾏｼ","kana_address":"ﾖｺﾞﾁｮｳｵﾊﾞﾅｼ","pref":"滋賀県","city":"長浜市","address":"余呉町尾羽梨"},
{"zip_code":"5290505","kana_pref":"ｼｶﾞｹﾝ","kana_city":"ﾅｶﾞﾊﾏｼ","kana_address":"ﾖｺﾞﾁｮｳｵﾊﾗ","pref":"滋賀県","city":"長浜市","address":"余呉町小原"},
{"zip_code":"5290512","kana_pref":"ｼｶﾞｹﾝ","kana_city":"ﾅｶﾞﾊﾏｼ","kana_address":"ﾖｺﾞﾁｮｳｶﾐﾆｭｳ","pref":"滋賀県","city":"長浜市","address":"余呉町上丹生"},
{"zip_code":"5290523","kana_pref":"ｼｶﾞｹﾝ","kana_city":"ﾅｶﾞﾊﾏｼ","kana_address":"ﾖｺﾞﾁｮｳｶﾜﾅﾐ","pref":"滋賀県","city":"長浜市","address":"余呉町川並"},
{"zip_code":"5290526","kana_pref":"ｼｶﾞｹﾝ","kana_city":"ﾅｶﾞﾊﾏｼ","kana_address":"ﾖｺﾞﾁｮｳｸﾆﾔｽ","pref":"滋賀県","city":"長浜市","address":"余呉町国安"},
{"zip_code":"5290522","kana_pref":"ｼｶﾞｹﾝ","kana_city":"ﾅｶﾞﾊﾏｼ","kana_address":"ﾖｺﾞﾁｮｳｻｶｸﾞﾁ","pref":"滋賀県","city":"長浜市","address":"余呉町坂口"},
{"zip_code":"5290514","kana_pref":"ｼｶﾞｹﾝ","kana_city":"ﾅｶﾞﾊﾏｼ","kana_address":"ﾖｺﾞﾁｮｳｼﾓﾆｭｳ","pref":"滋賀県","city":"長浜市","address":"余呉町下丹生"},
{"zip_code":"5290521","kana_pref":"ｼｶﾞｹﾝ","kana_city":"ﾅｶﾞﾊﾏｼ","kana_address":"ﾖｺﾞﾁｮｳｼﾓﾖｺﾞ","pref":"滋賀県","city":"長浜市","address":"余呉町下余呉"},
{"zip_code":"5290537","kana_pref":"ｼｶﾞｹﾝ","kana_city":"ﾅｶﾞﾊﾏｼ","kana_address":"ﾖｺﾞﾁｮｳｼﾝﾄﾞｳ","pref":"滋賀県","city":"長浜市","address":"余呉町新堂"},
{"zip_code":"5290511","kana_pref":"ｼｶﾞｹﾝ","kana_city":"ﾅｶﾞﾊﾏｼ","kana_address":"ﾖｺﾞﾁｮｳｽｶﾞﾅﾐ","pref":"滋賀県","city":"長浜市","address":"余呉町菅並"},
{"zip_code":"5290513","kana_pref":"ｼｶﾞｹﾝ","kana_city":"ﾅｶﾞﾊﾏｼ","kana_address":"ﾖｺﾞﾁｮｳｽﾙｽﾐ","pref":"滋賀県","city":"長浜市","address":"余呉町摺墨"},
{"zip_code":"5290504","kana_pref":"ｼｶﾞｹﾝ","kana_city":"ﾅｶﾞﾊﾏｼ","kana_address":"ﾖｺﾞﾁｮｳﾀﾄﾞ","pref":"滋賀県","city":"長浜市","address":"余呉町田戸"},
{"zip_code":"5290532","kana_pref":"ｼｶﾞｹﾝ","kana_city":"ﾅｶﾞﾊﾏｼ","kana_address":"ﾖｺﾞﾁｮｳﾂﾊﾞｷｻﾞｶ","pref":"滋賀県","city":"長浜市","address":"余呉町椿坂"},
{"zip_code":"5290531","kana_pref":"ｼｶﾞｹﾝ","kana_city":"ﾅｶﾞﾊﾏｼ","kana_address":"ﾖｺﾞﾁｮｳﾅｶﾉｶﾜﾁ","pref":"滋賀県","city":"長浜市","address":"余呉町中河内"},
{"zip_code":"5290515","kana_pref":"ｼｶﾞｹﾝ","kana_city":"ﾅｶﾞﾊﾏｼ","kana_address":"ﾖｺﾞﾁｮｳﾅｶﾉｺﾞｳ","pref":"滋賀県","city":"長浜市","address":"余呉町中之郷"},
{"zip_code":"5290501","kana_pref":"ｼｶﾞｹﾝ","kana_city":"ﾅｶﾞﾊﾏｼ","kana_address":"ﾖｺﾞﾁｮｳﾊﾘｶﾜ","pref":"滋賀県","city":"長浜市","address":"余呉町針川"},
{"zip_code":"5290527","kana_pref":"ｼｶﾞｹﾝ","kana_city":"ﾅｶﾞﾊﾏｼ","kana_address":"ﾖｺﾞﾁｮｳﾋｶﾞｼﾉ","pref":"滋賀県","city":"長浜市","address":"余呉町東野"},
{"zip_code":"5290525","kana_pref":"ｼｶﾞｹﾝ","kana_city":"ﾅｶﾞﾊﾏｼ","kana_address":"ﾖｺﾞﾁｮｳﾌﾑﾛ","pref":"滋賀県","city":"長浜市","address":"余呉町文室"},
{"zip_code":"5290524","kana_pref":"ｼｶﾞｹﾝ","kana_city":"ﾅｶﾞﾊﾏｼ","kana_address":"ﾖｺﾞﾁｮｳﾔﾄ","pref":"滋賀県","city":"長浜市","address":"余呉町八戸"},
{"zip_code":"5290533","kana_pref":"ｼｶﾞｹﾝ","kana_city":"ﾅｶﾞﾊﾏｼ","kana_address":"ﾖｺﾞﾁｮｳﾔﾅｶﾞｾ","pref":"滋賀県","city":"長浜市","address":"余呉町柳ケ瀬"},
{"zip_code":"5290506","kana_pref":"ｼｶﾞｹﾝ","kana_city":"ﾅｶﾞﾊﾏｼ","kana_address":"ﾖｺﾞﾁｮｳﾜｼﾐ","pref":"滋賀県","city":"長浜市","address":"余呉町鷲見"},
{"zip_code":"5291811","kana_pref":"ｼｶﾞｹﾝ","kana_city":"ｺｳｶｼ","kana_address":"ｼｶﾞﾗｷﾁｮｳｴﾀﾞ","pref":"滋賀県","city":"甲賀市","address":"信楽町江田"},
{"zip_code":"5291833","kana_pref":"ｼｶﾞｹﾝ","kana_city":"ｺｳｶｼ","kana_address":"ｼｶﾞﾗｷﾁｮｳｵｶﾞﾜ","pref":"滋賀県","city":"甲賀市","address":"信楽町小川"},
{"zip_code":"5291832","kana_pref":"ｼｶﾞｹﾝ","kana_city":"ｺｳｶｼ","kana_address":"ｼｶﾞﾗｷﾁｮｳｵｶﾞﾜﾃﾞ","pref":"滋賀県","city":"甲賀市","address":"信楽町小川出"},
{"zip_code":"5291841","kana_pref":"ｼｶﾞｹﾝ","kana_city":"ｺｳｶｼ","kana_address":"ｼｶﾞﾗｷﾁｮｳｶﾐｱｻﾐﾔ","pref":"滋賀県","city":"甲賀市","address":"信楽町上朝宮"},
{"zip_code":"5291802","kana_pref":"ｼｶﾞｹﾝ","kana_city":"ｺｳｶｼ","kana_address":"ｼｶﾞﾗｷﾁｮｳｷﾉｾ","pref":"滋賀県","city":"甲賀市","address":"信楽町黄瀬"},
{"zip_code":"5291812","kana_pref":"ｼｶﾞｹﾝ","kana_city":"ｺｳｶｼ","kana_address":"ｼｶﾞﾗｷﾁｮｳｺｳﾔﾏ","pref":"滋賀県","city":"甲賀市","address":"信楽町神山"},
{"zip_code":"5291842","kana_pref":"ｼｶﾞｹﾝ","kana_city":"ｺｳｶｼ","kana_address":"ｼｶﾞﾗｷﾁｮｳｼﾓｱｻﾐﾔ","pref":"滋賀県","city":"甲賀市","address":"信楽町下朝宮"},
{"zip_code":"5291834","kana_pref":"ｼｶﾞｹﾝ","kana_city":"ｺｳｶｼ","kana_address":"ｼｶﾞﾗｷﾁｮｳｽｷﾞﾔﾏ","pref":"滋賀県","city":"甲賀市","address":"信楽町杉山"},
{"zip_code":"5291814","kana_pref":"ｼｶﾞｹﾝ","kana_city":"ｺｳｶｼ","kana_address":"ｼｶﾞﾗｷﾁｮｳﾀｼﾛ","pref":"滋賀県","city":"甲賀市","address":"信楽町田代"},
{"zip_code":"5291821","kana_pref":"ｼｶﾞｹﾝ","kana_city":"ｺｳｶｼ","kana_address":"ｼｶﾞﾗｷﾁｮｳﾀﾗｵ","pref":"滋賀県","city":"甲賀市","address":"信楽町多羅尾"},
{"zip_code":"5291804","kana_pref":"ｼｶﾞｹﾝ","kana_city":"ｺｳｶｼ","kana_address":"ｼｶﾞﾗｷﾁｮｳﾁｮｸｼ","pref":"滋賀県","city":"甲賀市","address":"信楽町勅旨"},
{"zip_code":"5291835","kana_pref":"ｼｶﾞｹﾝ","kana_city":"ｺｳｶｼ","kana_address":"ｼｶﾞﾗｷﾁｮｳﾅｶﾉ","pref":"滋賀県","city":"甲賀市","address":"信楽町中野"},
{"zip_code":"5291851","kana_pref":"ｼｶﾞｹﾝ","kana_city":"ｺｳｶｼ","kana_address":"ｼｶﾞﾗｷﾁｮｳﾅｶﾞﾉ","pref":"滋賀県","city":"甲賀市","address":"信楽町長野"},
{"zip_code":"5291831","kana_pref":"ｼｶﾞｹﾝ","kana_city":"ｺｳｶｼ","kana_address":"ｼｶﾞﾗｷﾁｮｳﾆｼ","pref":"滋賀県","city":"甲賀市","address":"信楽町西"},
{"zip_code":"5291813","kana_pref":"ｼｶﾞｹﾝ","kana_city":"ｺｳｶｼ","kana_address":"ｼｶﾞﾗｷﾁｮｳﾊﾀ","pref":"滋賀県","city":"甲賀市","address":"信楽町畑"},
{"zip_code":"5291836","kana_pref":"ｼｶﾞｹﾝ","kana_city":"ｺｳｶｼ","kana_address":"ｼｶﾞﾗｷﾁｮｳﾎｿﾊﾗ","pref":"滋賀県","city":"甲賀市","address":"信楽町柞原"},
{"zip_code":"5291803","kana_pref":"ｼｶﾞｹﾝ","kana_city":"ｺｳｶｼ","kana_address":"ｼｶﾞﾗｷﾁｮｳﾏｷ","pref":"滋賀県","city":"甲賀市","address":"信楽町牧"},
{"zip_code":"5291843","kana_pref":"ｼｶﾞｹﾝ","kana_city":"ｺｳｶｼ","kana_address":"ｼｶﾞﾗｷﾁｮｳﾐﾔｼﾞﾘ","pref":"滋賀県","city":"甲賀市","address":"信楽町宮尻"},
{"zip_code":"5291801","kana_pref":"ｼｶﾞｹﾝ","kana_city":"ｺｳｶｼ","kana_address":"ｼｶﾞﾗｷﾁｮｳﾐﾔﾏﾁ","pref":"滋賀県","city":"甲賀市","address":"信楽町宮町"},
{"zip_code":"5291501","kana_pref":"ｼｶﾞｹﾝ","kana_city":"ﾋｶﾞｼｵｳﾐｼ","kana_address":"ｲｼﾄﾞｳﾁｮｳ","pref":"滋賀県","city":"東近江市","address":"石塔町"},
{"zip_code":"5291533","kana_pref":"ｼｶﾞｹﾝ","kana_city":"ﾋｶﾞｼｵｳﾐｼ","kana_address":"ｲﾁｺｵｷﾁｮｳ","pref":"滋賀県","city":"東近江市","address":"市子沖町"},
{"zip_code":"5291531","kana_pref":"ｼｶﾞｹﾝ","kana_city":"ﾋｶﾞｼｵｳﾐｼ","kana_address":"ｲﾁｺｶﾜﾗﾁｮｳ","pref":"滋賀県","city":"東近江市","address":"市子川原町"},
{"zip_code":"5291537","kana_pref":"ｼｶﾞｹﾝ","kana_city":"ﾋｶﾞｼｵｳﾐｼ","kana_address":"ｲﾁｺﾄﾉﾁｮｳ","pref":"滋賀県","city":"東近江市","address":"市子殿町"},
{"zip_code":"5291532","kana_pref":"ｼｶﾞｹﾝ","kana_city":"ﾋｶﾞｼｵｳﾐｼ","kana_address":"ｲﾁｺﾏﾂｲﾁｮｳ","pref":"滋賀県","city":"東近江市","address":"市子松井町"},
{"zip_code":"5291561","kana_pref":"ｼｶﾞｹﾝ","kana_city":"ﾋｶﾞｼｵｳﾐｼ","kana_address":"ｲﾅﾀﾘﾁｮｳ","pref":"滋賀県","city":"東近江市","address":"稲垂町"},
{"zip_code":"5291522","kana_pref":"ｼｶﾞｹﾝ","kana_city":"ﾋｶﾞｼｵｳﾐｼ","kana_address":"ｲﾓﾉｼﾁｮｳ","pref":"滋賀県","city":"東近江市","address":"鋳物師町"},
{"zip_code":"5291512","kana_pref":"ｼｶﾞｹﾝ","kana_city":"ﾋｶﾞｼｵｳﾐｼ","kana_address":"ｵｵﾂｶﾁｮｳ","pref":"滋賀県","city":"東近江市","address":"大塚町"},
{"zip_code":"5291566","kana_pref":"ｼｶﾞｹﾝ","kana_city":"ﾋｶﾞｼｵｳﾐｼ","kana_address":"ｶｽﾞﾗﾏｷﾁｮｳ","pref":"滋賀県","city":"東近江市","address":"葛巻町"},
{"zip_code":"5291503","kana_pref":"ｼｶﾞｹﾝ","kana_city":"ﾋｶﾞｼｵｳﾐｼ","kana_address":"ｶﾊﾞﾀﾁｮｳ","pref":"滋賀県","city":"東近江市","address":"綺田町"},
{"zip_code":"5291523","kana_pref":"ｼｶﾞｹﾝ","kana_city":"ﾋｶﾞｼｵｳﾐｼ","kana_address":"ｶﾐｱｿｳﾁｮｳ","pref":"滋賀県","city":"東近江市","address":"上麻生町"},
{"zip_code":"5291535","kana_pref":"ｼｶﾞｹﾝ","kana_city":"ﾋｶﾞｼｵｳﾐｼ","kana_address":"ｶﾐﾅﾁｮｳ","pref":"滋賀県","city":"東近江市","address":"上南町"},
{"zip_code":"5291514","kana_pref":"ｼｶﾞｹﾝ","kana_city":"ﾋｶﾞｼｵｳﾐｼ","kana_address":"ｶﾞﾓｳｵｵﾓﾘﾁｮｳ","pref":"滋賀県","city":"東近江市","address":"蒲生大森町"},
{"zip_code":"5291521","kana_pref":"ｼｶﾞｹﾝ","kana_city":"ﾋｶﾞｼｵｳﾐｼ","kana_address":"ｶﾞﾓｳｵｶﾓﾄﾁｮｳ","pref":"滋賀県","city":"東近江市","address":"蒲生岡本町"},
{"zip_code":"5291504","kana_pref":"ｼｶﾞｹﾝ","kana_city":"ﾋｶﾞｼｵｳﾐｼ","kana_address":"ｶﾞﾓｳﾃﾗﾏﾁ","pref":"滋賀県","city":"東近江市","address":"蒲生寺町"},
{"zip_code":"5291541","kana_pref":"ｼｶﾞｹﾝ","kana_city":"ﾋｶﾞｼｵｳﾐｼ","kana_address":"ｶﾓｳﾄﾞｳﾁｮｳ","pref":"滋賀県","city":"東近江市","address":"蒲生堂町"},
{"zip_code":"5291571","kana_pref":"ｼｶﾞｹﾝ","kana_city":"ﾋｶﾞｼｵｳﾐｼ","kana_address":"ｶﾜｲﾁｮｳ","pref":"滋賀県","city":"東近江市","address":"川合町"},
{"zip_code":"5291562","kana_pref":"ｼｶﾞｹﾝ","kana_city":"ﾋｶﾞｼｵｳﾐｼ","kana_address":"ｷﾑﾗﾁｮｳ","pref":"滋賀県","city":"東近江市","address":"木村町"},
{"zip_code":"5291536","kana_pref":"ｼｶﾞｹﾝ","kana_city":"ﾋｶﾞｼｵｳﾐｼ","kana_address":"ｺﾞｳﾄﾞﾁｮｳ","pref":"滋賀県","city":"東近江市","address":"合戸町"},
{"zip_code":"5291425","kana_pref":"ｼｶﾞｹﾝ","kana_city":"ﾋｶﾞｼｵｳﾐｼ","kana_address":"ｺﾞｶｼｮｳｲｼｶﾜﾁｮｳ","pref":"滋賀県","city":"東近江市","address":"五個荘石川町"},
{"zip_code":"5291444","kana_pref":"ｼｶﾞｹﾝ","kana_city":"ﾋｶﾞｼｵｳﾐｼ","kana_address":"ｺﾞｶｼｮｳｲｼﾂﾞｶﾁｮｳ","pref":"滋賀県","city":"東近江市","address":"五個荘石塚町"},
{"zip_code":"5291401","kana_pref":"ｼｶﾞｹﾝ","kana_city":"ﾋｶﾞｼｵｳﾐｼ","kana_address":"ｺﾞｶｼｮｳｲｼﾊﾞｼﾞﾁｮｳ","pref":"滋賀県","city":"東近江市","address":"五個荘石馬寺町"},
{"zip_code":"5291435","kana_pref":"ｼｶﾞｹﾝ","kana_city":"ﾋｶﾞｼｵｳﾐｼ","kana_address":"ｺﾞｶｼｮｳｲﾉﾍﾞﾁｮｳ","pref":"滋賀県","city":"東近江市","address":"五個荘伊野部町"},
{"zip_code":"5291423","kana_pref":"ｼｶﾞｹﾝ","kana_city":"ﾋｶﾞｼｵｳﾐｼ","kana_address":"ｺﾞｶｼｮｳｵｸﾁｮｳ","pref":"滋賀県","city":"東近江市","address":"五個荘奥町"},
{"zip_code":"5291422","kana_pref":"ｼｶﾞｹﾝ","kana_city":"ﾋｶﾞｼｵｳﾐｼ","kana_address":"ｺﾞｶｼｮｳｵﾊﾞﾀﾁｮｳ","pref":"滋賀県","city":"東近江市","address":"五個荘小幡町"},
{"zip_code":"5291411","kana_pref":"ｼｶﾞｹﾝ","kana_city":"ﾋｶﾞｼｵｳﾐｼ","kana_address":"ｺﾞｶｼｮｳｶﾏｶﾞﾘﾁｮｳ","pref":"滋賀県","city":"東近江市","address":"五個荘河曲町"},
{"zip_code":"5291441","kana_pref":"ｼｶﾞｹﾝ","kana_city":"ﾋｶﾞｼｵｳﾐｼ","kana_address":"ｺﾞｶｼｮｳｶﾜﾅﾐﾁｮｳ","pref":"滋賀県","city":"東近江市","address":"五個荘川並町"},
{"zip_code":"5291443","kana_pref":"ｼｶﾞｹﾝ","kana_city":"ﾋｶﾞｼｵｳﾐｼ","kana_address":"ｺﾞｶｼｮｳｷﾀﾏﾁﾔﾁｮｳ","pref":"滋賀県","city":"東近江市","address":"五個荘北町屋町"},
{"zip_code":"5291433","kana_pref":"ｼｶﾞｹﾝ","kana_city":"ﾋｶﾞｼｵｳﾐｼ","kana_address":"ｺﾞｶｼｮｳｷﾅｶﾞｾﾁｮｳ","pref":"滋賀県","city":"東近江市","address":"五個荘木流町"},
{"zip_code":"5291415","kana_pref":"ｼｶﾞｹﾝ","kana_city":"ﾋｶﾞｼｵｳﾐｼ","kana_address":"ｺﾞｶｼｮｳｺﾞｲﾃﾞﾁｮｳ","pref":"滋賀県","city":"東近江市","address":"五個荘五位田町"},
{"zip_code":"5291405","kana_pref":"ｼｶﾞｹﾝ","kana_city":"ﾋｶﾞｼｵｳﾐｼ","kana_address":"ｺﾞｶｼｮｳｺﾝﾄﾞｳﾁｮｳ","pref":"滋賀県","city":"東近江市","address":"五個荘金堂町"},
{"zip_code":"5291402","kana_pref":"ｼｶﾞｹﾝ","kana_city":"ﾋｶﾞｼｵｳﾐｼ","kana_address":"ｺﾞｶｼｮｳｼﾁﾘﾁｮｳ","pref":"滋賀県","city":"東近江市","address":"五個荘七里町"},
{"zip_code":"5291445","kana_pref":"ｼｶﾞｹﾝ","kana_city":"ﾋｶﾞｼｵｳﾐｼ","kana_address":"ｺﾞｶｼｮｳｼﾐｽﾞﾊﾅﾁｮｳ","pref":"滋賀県","city":"東近江市","address":"五個荘清水鼻町"},
{"zip_code":"5291432","kana_pref":"ｼｶﾞｹﾝ","kana_city":"ﾋｶﾞｼｵｳﾐｼ","kana_address":"ｺﾞｶｼｮｳｼﾝﾄﾞｳﾁｮｳ","pref":"滋賀県","city":"東近江市","address":"五個荘新堂町"},
{"zip_code":"5291421","kana_pref":"ｼｶﾞｹﾝ","kana_city":"ﾋｶﾞｼｵｳﾐｼ","kana_address":"ｺﾞｶｼｮｳﾀﾂﾀﾁｮｳ","pref":"滋賀県","city":"東近江市","address":"五個荘竜田町"},
{"zip_code":"5291442","kana_pref":"ｼｶﾞｹﾝ","kana_city":"ﾋｶﾞｼｵｳﾐｼ","kana_address":"ｺﾞｶｼｮｳﾂｶﾓﾄﾁｮｳ","pref":"滋賀県","city":"東近江市","address":"五個荘塚本町"},
{"zip_code":"5291414","kana_pref":"ｼｶﾞｹﾝ","kana_city":"ﾋｶﾞｼｵｳﾐｼ","kana_address":"ｺﾞｶｼｮｳﾅｶﾁｮｳ","pref":"滋賀県","city":"東近江市","address":"五個荘中町"},
{"zip_code":"5291403","kana_pref":"ｼｶﾞｹﾝ","kana_city":"ﾋｶﾞｼｵｳﾐｼ","kana_address":"ｺﾞｶｼｮｳﾋﾖｼﾁｮｳ","pref":"滋賀県","city":"東近江市","address":"五個荘日吉町"},
{"zip_code":"5291434","kana_pref":"ｼｶﾞｹﾝ","kana_city":"ﾋｶﾞｼｵｳﾐｼ","kana_address":"ｺﾞｶｼｮｳﾋﾗｻｶﾁｮｳ","pref":"滋賀県","city":"東近江市","address":"五個荘平阪町"},
{"zip_code":"5291424","kana_pref":"ｼｶﾞｹﾝ","kana_city":"ﾋｶﾞｼｵｳﾐｼ","kana_address":"ｺﾞｶｼｮｳﾐﾂﾏﾀﾁｮｳ","pref":"滋賀県","city":"東近江市","address":"五個荘三俣町"},
{"zip_code":"5291413","kana_pref":"ｼｶﾞｹﾝ","kana_city":"ﾋｶﾞｼｵｳﾐｼ","kana_address":"ｺﾞｶｼｮｳﾔﾅｾﾞﾁｮｳ","pref":"滋賀県","city":"東近江市","address":"五個荘簗瀬町"},
{"zip_code":"5291431","kana_pref":"ｼｶﾞｹﾝ","kana_city":"ﾋｶﾞｼｵｳﾐｼ","kana_address":"ｺﾞｶｼｮｳﾔﾏﾓﾄﾁｮｳ","pref":"滋賀県","city":"東近江市","address":"五個荘山本町"},
{"zip_code":"5291412","kana_pref":"ｼｶﾞｹﾝ","kana_city":"ﾋｶﾞｼｵｳﾐｼ","kana_address":"ｺﾞｶｼｮｳﾜﾀﾞﾁｮｳ","pref":"滋賀県","city":"東近江市","address":"五個荘和田町"},
{"zip_code":"5291572","kana_pref":"ｼｶﾞｹﾝ","kana_city":"ﾋｶﾞｼｵｳﾐｼ","kana_address":"ｻｸﾗｶﾞﾜﾆｼﾁｮｳ","pref":"滋賀県","city":"東近江市","address":"桜川西町"},
{"zip_code":"5291511","kana_pref":"ｼｶﾞｹﾝ","kana_city":"ﾋｶﾞｼｵｳﾐｼ","kana_address":"ｻｸﾗｶﾞﾜﾋｶﾞｼﾁｮｳ","pref":"滋賀県","city":"東近江市","address":"桜川東町"},
{"zip_code":"5291524","kana_pref":"ｼｶﾞｹﾝ","kana_city":"ﾋｶﾞｼｵｳﾐｼ","kana_address":"ｼﾓｱｿｳﾁｮｳ","pref":"滋賀県","city":"東近江市","address":"下麻生町"},
{"zip_code":"5291534","kana_pref":"ｼｶﾞｹﾝ","kana_city":"ﾋｶﾞｼｵｳﾐｼ","kana_address":"ｽｽﾞﾁｮｳ","pref":"滋賀県","city":"東近江市","address":"鈴町"},
{"zip_code":"5291513","kana_pref":"ｼｶﾞｹﾝ","kana_city":"ﾋｶﾞｼｵｳﾐｼ","kana_address":"ﾀｲﾁｮｳ","pref":"滋賀県","city":"東近江市","address":"田井町"},
{"zip_code":"5291565","kana_pref":"ｼｶﾞｹﾝ","kana_city":"ﾋｶﾞｼｵｳﾐｼ","kana_address":"ﾄﾉﾊﾗﾁｮｳ","pref":"滋賀県","city":"東近江市","address":"外原町"},
{"zip_code":"5291502","kana_pref":"ｼｶﾞｹﾝ","kana_city":"ﾋｶﾞｼｵｳﾐｼ","kana_address":"ﾋﾗﾊﾞﾔｼﾁｮｳ","pref":"滋賀県","city":"東近江市","address":"平林町"},
{"zip_code":"5291564","kana_pref":"ｼｶﾞｹﾝ","kana_city":"ﾋｶﾞｼｵｳﾐｼ","kana_address":"ﾐﾔｲﾁｮｳ","pref":"滋賀県","city":"東近江市","address":"宮井町"},
{"zip_code":"5291551","kana_pref":"ｼｶﾞｹﾝ","kana_city":"ﾋｶﾞｼｵｳﾐｼ","kana_address":"ﾐﾔｶﾞﾜﾁｮｳ","pref":"滋賀県","city":"東近江市","address":"宮川町"},
{"zip_code":"5291404","kana_pref":"ｼｶﾞｹﾝ","kana_city":"ﾋｶﾞｼｵｳﾐｼ","kana_address":"ﾐﾔｼｮｳﾁｮｳ","pref":"滋賀県","city":"東近江市","address":"宮荘町"},
{"zip_code":"5291563","kana_pref":"ｼｶﾞｹﾝ","kana_city":"ﾋｶﾞｼｵｳﾐｼ","kana_address":"ﾖｺﾔﾏﾁｮｳ","pref":"滋賀県","city":"東近江市","address":"横山町"},
{"zip_code":"5291600","kana_pref":"ｼｶﾞｹﾝ","kana_city":"ｶﾞﾓｳｸﾞﾝﾋﾉﾁｮｳ","kana_address":"","pref":"滋賀県","city":"蒲生郡日野町","address":""},
{"zip_code":"5291661","kana_pref":"ｼｶﾞｹﾝ","kana_city":"ｶﾞﾓｳｸﾞﾝﾋﾉﾁｮｳ","kana_address":"ｱﾍﾞｲ","pref":"滋賀県","city":"蒲生郡日野町","address":"安部居"},
{"zip_code":"5291655","kana_pref":"ｼｶﾞｹﾝ","kana_city":"ｶﾞﾓｳｸﾞﾝﾋﾉﾁｮｳ","kana_address":"ｲｼﾊﾗ","pref":"滋賀県","city":"蒲生郡日野町","address":"石原"},
{"zip_code":"5291648","kana_pref":"ｼｶﾞｹﾝ","kana_city":"ｶﾞﾓｳｸﾞﾝﾋﾉﾁｮｳ","kana_address":"ｲｾﾉ","pref":"滋賀県","city":"蒲生郡日野町","address":"いせの"},
{"zip_code":"5291644","kana_pref":"ｼｶﾞｹﾝ","kana_city":"ｶﾞﾓｳｸﾞﾝﾋﾉﾁｮｳ","kana_address":"ｳﾁｲｹ","pref":"滋賀県","city":"蒲生郡日野町","address":"内池"},
{"zip_code":"5291605","kana_pref":"ｼｶﾞｹﾝ","kana_city":"ｶﾞﾓｳｸﾞﾝﾋﾉﾁｮｳ","kana_address":"ｵｲｸﾞﾁ","pref":"滋賀県","city":"蒲生郡日野町","address":"小井口"},
{"zip_code":"5291603","kana_pref":"ｼｶﾞｹﾝ","kana_city":"ｶﾞﾓｳｸﾞﾝﾋﾉﾁｮｳ","kana_address":"ｵｵｸﾎﾞ","pref":"滋賀県","city":"蒲生郡日野町","address":"大窪"},
{"zip_code":"5291608","kana_pref":"ｼｶﾞｹﾝ","kana_city":"ｶﾞﾓｳｸﾞﾝﾋﾉﾁｮｳ","kana_address":"ｵｵﾀﾆ","pref":"滋賀県","city":"蒲生郡日野町","address":"大谷"},
{"zip_code":"5291616","kana_pref":"ｼｶﾞｹﾝ","kana_city":"ｶﾞﾓｳｸﾞﾝﾋﾉﾁｮｳ","kana_address":"ｵｸｼ","pref":"滋賀県","city":"蒲生郡日野町","address":"奥師"},
{"zip_code":"5291610","kana_pref":"ｼｶﾞｹﾝ","kana_city":"ｶﾞﾓｳｸﾞﾝﾋﾉﾁｮｳ","kana_address":"ｵｸﾉｲｹ","pref":"滋賀県","city":"蒲生郡日野町","address":"奥之池"},
{"zip_code":"5291626","kana_pref":"ｼｶﾞｹﾝ","kana_city":"ｶﾞﾓｳｸﾞﾝﾋﾉﾁｮｳ","kana_address":"ｵﾄﾜ","pref":"滋賀県","city":"蒲生郡日野町","address":"音羽"},
{"zip_code":"5291631","kana_pref":"ｼｶﾞｹﾝ","kana_city":"ｶﾞﾓｳｸﾞﾝﾋﾉﾁｮｳ","kana_address":"ｶｲｶﾞｹ","pref":"滋賀県","city":"蒲生郡日野町","address":"鎌掛"},
{"zip_code":"5291632","kana_pref":"ｼｶﾞｹﾝ","kana_city":"ｶﾞﾓｳｸﾞﾝﾋﾉﾁｮｳ","kana_address":"ｶﾐｺﾏﾂﾞｷ","pref":"滋賀県","city":"蒲生郡日野町","address":"上駒月"},
{"zip_code":"5291613","kana_pref":"ｼｶﾞｹﾝ","kana_city":"ｶﾞﾓｳｸﾞﾝﾋﾉﾁｮｳ","kana_address":"ｶﾜﾗ","pref":"滋賀県","city":"蒲生郡日野町","address":"川原"},
{"zip_code":"5291602","kana_pref":"ｼｶﾞｹﾝ","kana_city":"ｶﾞﾓｳｸﾞﾝﾋﾉﾁｮｳ","kana_address":"ｶﾜﾗ","pref":"滋賀県","city":"蒲生郡日野町","address":"河原"},
{"zip_code":"5291622","kana_pref":"ｼｶﾞｹﾝ","kana_city":"ｶﾞﾓｳｸﾞﾝﾋﾉﾁｮｳ","kana_address":"ｷﾀﾊﾞﾀ","pref":"滋賀県","city":"蒲生郡日野町","address":"北畑"},
{"zip_code":"5291663","kana_pref":"ｼｶﾞｹﾝ","kana_city":"ｶﾞﾓｳｸﾞﾝﾋﾉﾁｮｳ","kana_address":"ｷﾀﾜｷ","pref":"滋賀県","city":"蒲生郡日野町","address":"北脇"},
{"zip_code":"5291607","kana_pref":"ｼｶﾞｹﾝ","kana_city":"ｶﾞﾓｳｸﾞﾝﾋﾉﾁｮｳ","kana_address":"ｷﾂﾞ","pref":"滋賀県","city":"蒲生郡日野町","address":"木津"},
{"zip_code":"5291636","kana_pref":"ｼｶﾞｹﾝ","kana_city":"ｶﾞﾓｳｸﾞﾝﾋﾉﾁｮｳ","kana_address":"ｷﾖﾀ","pref":"滋賀県","city":"蒲生郡日野町","address":"清田"},
{"zip_code":"5291623","kana_pref":"ｼｶﾞｹﾝ","kana_city":"ｶﾞﾓｳｸﾞﾝﾋﾉﾁｮｳ","kana_address":"ｸﾏﾉ","pref":"滋賀県","city":"蒲生郡日野町","address":"熊野"},
{"zip_code":"5291642","kana_pref":"ｼｶﾞｹﾝ","kana_city":"ｶﾞﾓｳｸﾞﾝﾋﾉﾁｮｳ","kana_address":"ｺｳｽﾞｹﾀﾞ","pref":"滋賀県","city":"蒲生郡日野町","address":"上野田"},
{"zip_code":"5291654","kana_pref":"ｼｶﾞｹﾝ","kana_city":"ｶﾞﾓｳｸﾞﾝﾋﾉﾁｮｳ","kana_address":"ｺﾀﾞﾆ","pref":"滋賀県","city":"蒲生郡日野町","address":"小谷"},
{"zip_code":"5291615","kana_pref":"ｼｶﾞｹﾝ","kana_city":"ｶﾞﾓｳｸﾞﾝﾋﾉﾁｮｳ","kana_address":"ｺﾉ","pref":"滋賀県","city":"蒲生郡日野町","address":"小野"},
{"zip_code":"5291652","kana_pref":"ｼｶﾞｹﾝ","kana_city":"ｶﾞﾓｳｸﾞﾝﾋﾉﾁｮｳ","kana_address":"ｺﾐｶﾄﾞ","pref":"滋賀県","city":"蒲生郡日野町","address":"小御門"},
{"zip_code":"5291621","kana_pref":"ｼｶﾞｹﾝ","kana_city":"ｶﾞﾓｳｸﾞﾝﾋﾉﾁｮｳ","kana_address":"ｻｲﾐｮｳｼﾞ","pref":"滋賀県","city":"蒲生郡日野町","address":"西明寺"},
{"zip_code":"5291625","kana_pref":"ｼｶﾞｹﾝ","kana_city":"ｶﾞﾓｳｸﾞﾝﾋﾉﾁｮｳ","kana_address":"ｻﾞｵｳ","pref":"滋賀県","city":"蒲生郡日野町","address":"蔵王"},
{"zip_code":"5291619","kana_pref":"ｼｶﾞｹﾝ","kana_city":"ｶﾞﾓｳｸﾞﾝﾋﾉﾁｮｳ","kana_address":"ｻｸﾗ","pref":"滋賀県","city":"蒲生郡日野町","address":"佐久良"},
{"zip_code":"5291643","kana_pref":"ｼｶﾞｹﾝ","kana_city":"ｶﾞﾓｳｸﾞﾝﾋﾉﾁｮｳ","kana_address":"ｻﾄｸﾞﾁ","pref":"滋賀県","city":"蒲生郡日野町","address":"里口"},
{"zip_code":"5291633","kana_pref":"ｼｶﾞｹﾝ","kana_city":"ｶﾞﾓｳｸﾞﾝﾋﾉﾁｮｳ","kana_address":"ｼﾓｺﾏﾂﾞｷ","pref":"滋賀県","city":"蒲生郡日野町","address":"下駒月"},
{"zip_code":"5291645","kana_pref":"ｼｶﾞｹﾝ","kana_city":"ｶﾞﾓｳｸﾞﾝﾋﾉﾁｮｳ","kana_address":"ｼﾞｭｳｾﾞﾝｼﾞ","pref":"滋賀県","city":"蒲生郡日野町","address":"十禅師"},
{"zip_code":"5291612","kana_pref":"ｼｶﾞｹﾝ","kana_city":"ｶﾞﾓｳｸﾞﾝﾋﾉﾁｮｳ","kana_address":"ｽｷﾞ","pref":"滋賀県","city":"蒲生郡日野町","address":"杉"},
{"zip_code":"5291611","kana_pref":"ｼｶﾞｹﾝ","kana_city":"ｶﾞﾓｳｸﾞﾝﾋﾉﾁｮｳ","kana_address":"ｿﾏ","pref":"滋賀県","city":"蒲生郡日野町","address":"杣"},
{"zip_code":"5291606","kana_pref":"ｼｶﾞｹﾝ","kana_city":"ｶﾞﾓｳｸﾞﾝﾋﾉﾁｮｳ","kana_address":"ﾃﾗｼﾞﾘ","pref":"滋賀県","city":"蒲生郡日野町","address":"寺尻"},
{"zip_code":"5291657","kana_pref":"ｼｶﾞｹﾝ","kana_city":"ｶﾞﾓｳｸﾞﾝﾋﾉﾁｮｳ","kana_address":"ﾄﾖﾀ","pref":"滋賀県","city":"蒲生郡日野町","address":"豊田"},
{"zip_code":"5291618","kana_pref":"ｼｶﾞｹﾝ","kana_city":"ｶﾞﾓｳｸﾞﾝﾋﾉﾁｮｳ","kana_address":"ﾄﾘｲﾋﾗ","pref":"滋賀県","city":"蒲生郡日野町","address":"鳥居平"},
{"zip_code":"5291662","kana_pref":"ｼｶﾞｹﾝ","kana_city":"ｶﾞﾓｳｸﾞﾝﾋﾉﾁｮｳ","kana_address":"ﾅｶｻﾞｲｼﾞ","pref":"滋賀県","city":"蒲生郡日野町","address":"中在寺"},
{"zip_code":"5291617","kana_pref":"ｼｶﾞｹﾝ","kana_city":"ｶﾞﾓｳｸﾞﾝﾋﾉﾁｮｳ","kana_address":"ﾅｶﾉｺﾞｳ","pref":"滋賀県","city":"蒲生郡日野町","address":"中之郷"},
{"zip_code":"5291609","kana_pref":"ｼｶﾞｹﾝ","kana_city":"ｶﾞﾓｳｸﾞﾝﾋﾉﾁｮｳ","kana_address":"ﾅｶﾐﾁ","pref":"滋賀県","city":"蒲生郡日野町","address":"中道"},
{"zip_code":"5291658","kana_pref":"ｼｶﾞｹﾝ","kana_city":"ｶﾞﾓｳｸﾞﾝﾋﾉﾁｮｳ","kana_address":"ﾅｶﾔﾏ","pref":"滋賀県","city":"蒲生郡日野町","address":"中山"},
{"zip_code":"5291628","kana_pref":"ｼｶﾞｹﾝ","kana_city":"ｶﾞﾓｳｸﾞﾝﾋﾉﾁｮｳ","kana_address":"ﾆｼｵｵｼﾞ","pref":"滋賀県","city":"蒲生郡日野町","address":"西大路"},
{"zip_code":"5291627","kana_pref":"ｼｶﾞｹﾝ","kana_city":"ｶﾞﾓｳｸﾞﾝﾋﾉﾁｮｳ","kana_address":"ﾆﾎﾝｷﾞ","pref":"滋賀県","city":"蒲生郡日野町","address":"仁本木"},
{"zip_code":"5291646","kana_pref":"ｼｶﾞｹﾝ","kana_city":"ｶﾞﾓｳｸﾞﾝﾋﾉﾁｮｳ","kana_address":"ﾈｺﾀﾞ","pref":"滋賀県","city":"蒲生郡日野町","address":"猫田"},
{"zip_code":"5291665","kana_pref":"ｼｶﾞｹﾝ","kana_city":"ｶﾞﾓｳｸﾞﾝﾋﾉﾁｮｳ","kana_address":"ﾉﾃﾞ","pref":"滋賀県","city":"蒲生郡日野町","address":"野出"},
{"zip_code":"5291635","kana_pref":"ｼｶﾞｹﾝ","kana_city":"ｶﾞﾓｳｸﾞﾝﾋﾉﾁｮｳ","kana_address":"ﾊｻﾏ","pref":"滋賀県","city":"蒲生郡日野町","address":"迫"},
{"zip_code":"5291614","kana_pref":"ｼｶﾞｹﾝ","kana_city":"ｶﾞﾓｳｸﾞﾝﾋﾉﾁｮｳ","kana_address":"ﾊﾗ","pref":"滋賀県","city":"蒲生郡日野町","address":"原"},
{"zip_code":"5291641","kana_pref":"ｼｶﾞｹﾝ","kana_city":"ｶﾞﾓｳｸﾞﾝﾋﾉﾁｮｳ","kana_address":"ﾋﾀﾞ","pref":"滋賀県","city":"蒲生郡日野町","address":"日田"},
{"zip_code":"5291624","kana_pref":"ｼｶﾞｹﾝ","kana_city":"ｶﾞﾓｳｸﾞﾝﾋﾉﾁｮｳ","kana_address":"ﾋﾗｺ","pref":"滋賀県","city":"蒲生郡日野町","address":"平子"},
{"zip_code":"5291647","kana_pref":"ｼｶﾞｹﾝ","kana_city":"ｶﾞﾓｳｸﾞﾝﾋﾉﾁｮｳ","kana_address":"ﾍﾞｯｼﾖ","pref":"滋賀県","city":"蒲生郡日野町","address":"別所"},
{"zip_code":"5291656","kana_pref":"ｼｶﾞｹﾝ","kana_city":"ｶﾞﾓｳｸﾞﾝﾋﾉﾁｮｳ","kana_address":"ﾏｼﾀﾞ","pref":"滋賀県","city":"蒲生郡日野町","address":"増田"},
{"zip_code":"5291601","kana_pref":"ｼｶﾞｹﾝ","kana_city":"ｶﾞﾓｳｸﾞﾝﾋﾉﾁｮｳ","kana_address":"ﾏﾂｵ","pref":"滋賀県","city":"蒲生郡日野町","address":"松尾"},
{"zip_code":"5291653","kana_pref":"ｼｶﾞｹﾝ","kana_city":"ｶﾞﾓｳｸﾞﾝﾋﾉﾁｮｳ","kana_address":"ﾐｿﾂ","pref":"滋賀県","city":"蒲生郡日野町","address":"三十坪"},
{"zip_code":"5291634","kana_pref":"ｼｶﾞｹﾝ","kana_city":"ｶﾞﾓｳｸﾞﾝﾋﾉﾁｮｳ","kana_address":"ﾐﾔﾏｸﾞﾁ","pref":"滋賀県","city":"蒲生郡日野町","address":"深山口"},
{"zip_code":"5291604","kana_pref":"ｼｶﾞｹﾝ","kana_city":"ｶﾞﾓｳｸﾞﾝﾋﾉﾁｮｳ","kana_address":"ﾑﾗｲ","pref":"滋賀県","city":"蒲生郡日野町","address":"村井"},
{"zip_code":"5291651","kana_pref":"ｼｶﾞｹﾝ","kana_city":"ｶﾞﾓｳｸﾞﾝﾋﾉﾁｮｳ","kana_address":"ﾔﾏﾓﾄ","pref":"滋賀県","city":"蒲生郡日野町","address":"山本"},
{"zip_code":"5291664","kana_pref":"ｼｶﾞｹﾝ","kana_city":"ｶﾞﾓｳｸﾞﾝﾋﾉﾁｮｳ","kana_address":"ﾚﾝｹﾞｼﾞ","pref":"滋賀県","city":"蒲生郡日野町","address":"蓮花寺"},
{"zip_code":"5291300","kana_pref":"ｼｶﾞｹﾝ","kana_city":"ｴﾁｸﾞﾝｱｲｼｮｳﾁｮｳ","kana_address":"","pref":"滋賀県","city":"愛知郡愛荘町","address":""},
{"zip_code":"5291234","kana_pref":"ｼｶﾞｹﾝ","kana_city":"ｴﾁｸﾞﾝｱｲｼｮｳﾁｮｳ","kana_address":"ｱﾋﾞｺ","pref":"滋賀県","city":"愛知郡愛荘町","address":"安孫子"},
{"zip_code":"5291311","kana_pref":"ｼｶﾞｹﾝ","kana_city":"ｴﾁｸﾞﾝｱｲｼｮｳﾁｮｳ","kana_address":"ｲｼﾊｼ","pref":"滋賀県","city":"愛知郡愛荘町","address":"石橋"},
{"zip_code":"5291313","kana_pref":"ｼｶﾞｹﾝ","kana_city":"ｴﾁｸﾞﾝｱｲｼｮｳﾁｮｳ","kana_address":"ｲﾁ","pref":"滋賀県","city":"愛知郡愛荘町","address":"市"},
{"zip_code":"5291207","kana_pref":"ｼｶﾞｹﾝ","kana_city":"ｴﾁｸﾞﾝｱｲｼｮｳﾁｮｳ","kana_address":"ｲﾜｸﾗ","pref":"滋賀県","city":"愛知郡愛荘町","address":"岩倉"},
{"zip_code":"5291331","kana_pref":"ｼｶﾞｹﾝ","kana_city":"ｴﾁｸﾞﾝｱｲｼｮｳﾁｮｳ","kana_address":"ｴﾁｶﾞﾜ","pref":"滋賀県","city":"愛知郡愛荘町","address":"愛知川"},
{"zip_code":"5291231","kana_pref":"ｼｶﾞｹﾝ","kana_city":"ｴﾁｸﾞﾝｱｲｼｮｳﾁｮｳ","kana_address":"ｴﾝｼﾞｮｳｼﾞ","pref":"滋賀県","city":"愛知郡愛荘町","address":"円城寺"},
{"zip_code":"5291213","kana_pref":"ｼｶﾞｹﾝ","kana_city":"ｴﾁｸﾞﾝｱｲｼｮｳﾁｮｳ","kana_address":"ｵｷ","pref":"滋賀県","city":"愛知郡愛荘町","address":"沖"},
{"zip_code":"5291206","kana_pref":"ｼｶﾞｹﾝ","kana_city":"ｴﾁｸﾞﾝｱｲｼｮｳﾁｮｳ","kana_address":"ｶﾉ","pref":"滋賀県","city":"愛知郡愛荘町","address":"蚊野"},
{"zip_code":"5291204","kana_pref":"ｼｶﾞｹﾝ","kana_city":"ｴﾁｸﾞﾝｱｲｼｮｳﾁｮｳ","kana_address":"ｶﾉﾄﾉ","pref":"滋賀県","city":"愛知郡愛荘町","address":"蚊野外"},
{"zip_code":"5291203","kana_pref":"ｼｶﾞｹﾝ","kana_city":"ｴﾁｸﾞﾝｱｲｼｮｳﾁｮｳ","kana_address":"ｶﾐｶﾞﾉ","pref":"滋賀県","city":"愛知郡愛荘町","address":"上蚊野"},
{"zip_code":"5291324","kana_pref":"ｼｶﾞｹﾝ","kana_city":"ｴﾁｸﾞﾝｱｲｼｮｳﾁｮｳ","kana_address":"ｶﾘﾏ","pref":"滋賀県","city":"愛知郡愛荘町","address":"苅間"},
{"zip_code":"5291205","kana_pref":"ｼｶﾞｹﾝ","kana_city":"ｴﾁｸﾞﾝｱｲｼｮｳﾁｮｳ","kana_address":"ｶﾙﾉ","pref":"滋賀県","city":"愛知郡愛荘町","address":"軽野"},
{"zip_code":"5291312","kana_pref":"ｼｶﾞｹﾝ","kana_city":"ｴﾁｸﾞﾝｱｲｼｮｳﾁｮｳ","kana_address":"ｶﾜｸﾎﾞ","pref":"滋賀県","city":"愛知郡愛荘町","address":"川久保"},
{"zip_code":"5291302","kana_pref":"ｼｶﾞｹﾝ","kana_city":"ｴﾁｸﾞﾝｱｲｼｮｳﾁｮｳ","kana_address":"ｶﾜﾗ","pref":"滋賀県","city":"愛知郡愛荘町","address":"川原"},
{"zip_code":"5291222","kana_pref":"ｼｶﾞｹﾝ","kana_city":"ｴﾁｸﾞﾝｱｲｼｮｳﾁｮｳ","kana_address":"ｷﾀﾔｷﾞ","pref":"滋賀県","city":"愛知郡愛荘町","address":"北八木"},
{"zip_code":"5291315","kana_pref":"ｼｶﾞｹﾝ","kana_city":"ｴﾁｸﾞﾝｱｲｼｮｳﾁｮｳ","kana_address":"ｸﾂｶｹ","pref":"滋賀県","city":"愛知郡愛荘町","address":"沓掛"},
{"zip_code":"5291225","kana_pref":"ｼｶﾞｹﾝ","kana_city":"ｴﾁｸﾞﾝｱｲｼｮｳﾁｮｳ","kana_address":"ｸﾘﾀ","pref":"滋賀県","city":"愛知郡愛荘町","address":"栗田"},
{"zip_code":"5291211","kana_pref":"ｼｶﾞｹﾝ","kana_city":"ｴﾁｸﾞﾝｱｲｼｮｳﾁｮｳ","kana_address":"ｺﾉｼｮｳ","pref":"滋賀県","city":"愛知郡愛荘町","address":"香之庄"},
{"zip_code":"5291223","kana_pref":"ｼｶﾞｹﾝ","kana_city":"ｴﾁｸﾞﾝｱｲｼｮｳﾁｮｳ","kana_address":"ｼﾏｶﾞﾜ","pref":"滋賀県","city":"愛知郡愛荘町","address":"島川"},
{"zip_code":"5291221","kana_pref":"ｼｶﾞｹﾝ","kana_city":"ｴﾁｸﾞﾝｱｲｼｮｳﾁｮｳ","kana_address":"ｼﾓﾔｷﾞ","pref":"滋賀県","city":"愛知郡愛荘町","address":"下八木"},
{"zip_code":"5291232","kana_pref":"ｼｶﾞｹﾝ","kana_city":"ｴﾁｸﾞﾝｱｲｼｮｳﾁｮｳ","kana_address":"ｼﾞｮｳｱﾝｼﾞ","pref":"滋賀県","city":"愛知郡愛荘町","address":"常安寺"},
{"zip_code":"5291208","kana_pref":"ｼｶﾞｹﾝ","kana_city":"ｴﾁｸﾞﾝｱｲｼｮｳﾁｮｳ","kana_address":"ﾀｹﾊﾗ","pref":"滋賀県","city":"愛知郡愛荘町","address":"竹原"},
{"zip_code":"5291325","kana_pref":"ｼｶﾞｹﾝ","kana_city":"ｴﾁｸﾞﾝｱｲｼｮｳﾁｮｳ","kana_address":"ﾄｳｴﾝﾄﾞｳ","pref":"滋賀県","city":"愛知郡愛荘町","address":"東円堂"},
{"zip_code":"5291321","kana_pref":"ｼｶﾞｹﾝ","kana_city":"ｴﾁｸﾞﾝｱｲｼｮｳﾁｮｳ","kana_address":"ﾄﾖﾐﾂ","pref":"滋賀県","city":"愛知郡愛荘町","address":"豊満"},
{"zip_code":"5291314","kana_pref":"ｼｶﾞｹﾝ","kana_city":"ｴﾁｸﾞﾝｱｲｼｮｳﾁｮｳ","kana_address":"ﾅｶｼﾞｭｸ","pref":"滋賀県","city":"愛知郡愛荘町","address":"中宿"},
{"zip_code":"5291224","kana_pref":"ｼｶﾞｹﾝ","kana_city":"ｴﾁｸﾞﾝｱｲｼｮｳﾁｮｳ","kana_address":"ﾅｶﾞﾂｶ","pref":"滋賀県","city":"愛知郡愛荘町","address":"長塚"},
{"zip_code":"5291303","kana_pref":"ｼｶﾞｹﾝ","kana_city":"ｴﾁｸﾞﾝｱｲｼｮｳﾁｮｳ","kana_address":"ﾅｶﾞﾉ","pref":"滋賀県","city":"愛知郡愛荘町","address":"長野"},
{"zip_code":"5291237","kana_pref":"ｼｶﾞｹﾝ","kana_city":"ｴﾁｸﾞﾝｱｲｼｮｳﾁｮｳ","kana_address":"ﾆｼﾃﾞ","pref":"滋賀県","city":"愛知郡愛荘町","address":"西出"},
{"zip_code":"5291227","kana_pref":"ｼｶﾞｹﾝ","kana_city":"ｴﾁｸﾞﾝｱｲｼｮｳﾁｮｳ","kana_address":"ﾉﾉﾒ","pref":"滋賀県","city":"愛知郡愛荘町","address":"野々目"},
{"zip_code":"5291323","kana_pref":"ｼｶﾞｹﾝ","kana_city":"ｴﾁｸﾞﾝｱｲｼｮｳﾁｮｳ","kana_address":"ﾊﾀｹﾀﾞ","pref":"滋賀県","city":"愛知郡愛荘町","address":"畑田"},
{"zip_code":"5291233","kana_pref":"ｼｶﾞｹﾝ","kana_city":"ｴﾁｸﾞﾝｱｲｼｮｳﾁｮｳ","kana_address":"ﾋｶﾞｼﾃﾞ","pref":"滋賀県","city":"愛知郡愛荘町","address":"東出"},
{"zip_code":"5291322","kana_pref":"ｼｶﾞｹﾝ","kana_city":"ｴﾁｸﾞﾝｱｲｼｮｳﾁｮｳ","kana_address":"ﾋﾗｲ","pref":"滋賀県","city":"愛知郡愛荘町","address":"平居"},
{"zip_code":"5291236","kana_pref":"ｼｶﾞｹﾝ","kana_city":"ｴﾁｸﾞﾝｱｲｼｮｳﾁｮｳ","kana_address":"ﾌｺｿ","pref":"滋賀県","city":"愛知郡愛荘町","address":"深草"},
{"zip_code":"5291202","kana_pref":"ｼｶﾞｹﾝ","kana_city":"ｴﾁｸﾞﾝｱｲｼｮｳﾁｮｳ","kana_address":"ﾏﾂｵｼﾞ","pref":"滋賀県","city":"愛知郡愛荘町","address":"松尾寺"},
{"zip_code":"5291226","kana_pref":"ｼｶﾞｹﾝ","kana_city":"ｴﾁｸﾞﾝｱｲｼｮｳﾁｮｳ","kana_address":"ﾐﾅﾐﾉﾉﾒ","pref":"滋賀県","city":"愛知郡愛荘町","address":"南野々目"},
{"zip_code":"5291214","kana_pref":"ｼｶﾞｹﾝ","kana_city":"ｴﾁｸﾞﾝｱｲｼｮｳﾁｮｳ","kana_address":"ﾐﾔｳｼﾛ","pref":"滋賀県","city":"愛知郡愛荘町","address":"宮後"},
{"zip_code":"5291235","kana_pref":"ｼｶﾞｹﾝ","kana_city":"ｴﾁｸﾞﾝｱｲｼｮｳﾁｮｳ","kana_address":"ﾒｶﾀﾞ","pref":"滋賀県","city":"愛知郡愛荘町","address":"目加田"},
{"zip_code":"5291212","kana_pref":"ｼｶﾞｹﾝ","kana_city":"ｴﾁｸﾞﾝｱｲｼｮｳﾁｮｳ","kana_address":"ﾓﾄﾓﾁ","pref":"滋賀県","city":"愛知郡愛荘町","address":"元持"},
{"zip_code":"5291301","kana_pref":"ｼｶﾞｹﾝ","kana_city":"ｴﾁｸﾞﾝｱｲｼｮｳﾁｮｳ","kana_address":"ﾔﾏｶﾞﾜﾗ","pref":"滋賀県","city":"愛知郡愛荘町","address":"山川原"},
{"zip_code":"5291228","kana_pref":"ｼｶﾞｹﾝ","kana_city":"ｴﾁｸﾞﾝｱｲｼｮｳﾁｮｳ","kana_address":"ﾔﾓﾘ","pref":"滋賀県","city":"愛知郡愛荘町","address":"矢守"},
{"zip_code":"5291201","kana_pref":"ｼｶﾞｹﾝ","kana_city":"ｴﾁｸﾞﾝｱｲｼｮｳﾁｮｳ","kana_address":"ﾖｷﾄｷﾞ","pref":"滋賀県","city":"愛知郡愛荘町","address":"斧磨"},
{"zip_code":"5291100","kana_pref":"ｼｶﾞｹﾝ","kana_city":"ｲﾇｶﾐｸﾞﾝﾄﾖｻﾄﾁｮｳ","kana_address":"","pref":"滋賀県","city":"犬上郡豊郷町","address":""},
{"zip_code":"5291163","kana_pref":"ｼｶﾞｹﾝ","kana_city":"ｲﾇｶﾐｸﾞﾝﾄﾖｻﾄﾁｮｳ","kana_address":"ｱﾒﾌﾘﾉ","pref":"滋賀県","city":"犬上郡豊郷町","address":"雨降野"},
{"zip_code":"5291171","kana_pref":"ｼｶﾞｹﾝ","kana_city":"ｲﾇｶﾐｸﾞﾝﾄﾖｻﾄﾁｮｳ","kana_address":"ｱﾝｼﾞｷﾆｼ","pref":"滋賀県","city":"犬上郡豊郷町","address":"安食西"},
{"zip_code":"5291172","kana_pref":"ｼｶﾞｹﾝ","kana_city":"ｲﾇｶﾐｸﾞﾝﾄﾖｻﾄﾁｮｳ","kana_address":"ｱﾝｼﾞｷﾐﾅﾐ","pref":"滋賀県","city":"犬上郡豊郷町","address":"安食南"},
{"zip_code":"5291169","kana_pref":"ｼｶﾞｹﾝ","kana_city":"ｲﾇｶﾐｸﾞﾝﾄﾖｻﾄﾁｮｳ","kana_address":"ｲｼﾊﾞﾀｹ","pref":"滋賀県","city":"犬上郡豊郷町","address":"石畑"},
{"zip_code":"5291176","kana_pref":"ｼｶﾞｹﾝ","kana_city":"ｲﾇｶﾐｸﾞﾝﾄﾖｻﾄﾁｮｳ","kana_address":"ｵｵﾏﾁ","pref":"滋賀県","city":"犬上郡豊郷町","address":"大町"},
{"zip_code":"5291166","kana_pref":"ｼｶﾞｹﾝ","kana_city":"ｲﾇｶﾐｸﾞﾝﾄﾖｻﾄﾁｮｳ","kana_address":"ｶﾐｴﾀﾞ","pref":"滋賀県","city":"犬上郡豊郷町","address":"上枝"},
{"zip_code":"5291175","kana_pref":"ｼｶﾞｹﾝ","kana_city":"ｲﾇｶﾐｸﾞﾝﾄﾖｻﾄﾁｮｳ","kana_address":"ｻﾜ","pref":"滋賀県","city":"犬上郡豊郷町","address":"沢"},
{"zip_code":"5291161","kana_pref":"ｼｶﾞｹﾝ","kana_city":"ｲﾇｶﾐｸﾞﾝﾄﾖｻﾄﾁｮｳ","kana_address":"ｼｼﾞｭｸｲﾝ","pref":"滋賀県","city":"犬上郡豊郷町","address":"四十九院"},
{"zip_code":"5291174","kana_pref":"ｼｶﾞｹﾝ","kana_city":"ｲﾇｶﾐｸﾞﾝﾄﾖｻﾄﾁｮｳ","kana_address":"ｼﾓｴﾀﾞ","pref":"滋賀県","city":"犬上郡豊郷町","address":"下枝"},
{"zip_code":"5291167","kana_pref":"ｼｶﾞｹﾝ","kana_city":"ｲﾇｶﾐｸﾞﾝﾄﾖｻﾄﾁｮｳ","kana_address":"ｽｷﾞ","pref":"滋賀県","city":"犬上郡豊郷町","address":"杉"},
{"zip_code":"5291173","kana_pref":"ｼｶﾞｹﾝ","kana_city":"ｲﾇｶﾐｸﾞﾝﾄﾖｻﾄﾁｮｳ","kana_address":"ﾀｶﾉｾ","pref":"滋賀県","city":"犬上郡豊郷町","address":"高野瀬"},
{"zip_code":"5291168","kana_pref":"ｼｶﾞｹﾝ","kana_city":"ｲﾇｶﾐｸﾞﾝﾄﾖｻﾄﾁｮｳ","kana_address":"ﾊﾁﾒ","pref":"滋賀県","city":"犬上郡豊郷町","address":"八目"},
{"zip_code":"5291162","kana_pref":"ｼｶﾞｹﾝ","kana_city":"ｲﾇｶﾐｸﾞﾝﾄﾖｻﾄﾁｮｳ","kana_address":"ﾊｯﾁｮｳ","pref":"滋賀県","city":"犬上郡豊郷町","address":"八町"},
{"zip_code":"5291164","kana_pref":"ｼｶﾞｹﾝ","kana_city":"ｲﾇｶﾐｸﾞﾝﾄﾖｻﾄﾁｮｳ","kana_address":"ﾋｴ","pref":"滋賀県","city":"犬上郡豊郷町","address":"日栄"},
{"zip_code":"5291177","kana_pref":"ｼｶﾞｹﾝ","kana_city":"ｲﾇｶﾐｸﾞﾝﾄﾖｻﾄﾁｮｳ","kana_address":"ﾐﾂｲｹ","pref":"滋賀県","city":"犬上郡豊郷町","address":"三ツ池"},
{"zip_code":"5291165","kana_pref":"ｼｶﾞｹﾝ","kana_city":"ｲﾇｶﾐｸﾞﾝﾄﾖｻﾄﾁｮｳ","kana_address":"ﾖｼﾀﾞ","pref":"滋賀県","city":"犬上郡豊郷町","address":"吉田"}]}