{"zip_code":[
{"zip_code":"5300000","kana_pref":"ｵｵｻｶﾌ","kana_city":"ｵｵｻｶｼｷﾀｸ","kana_address":"","pref":"大阪府","city":"大阪市北区","address":""},
{"zip_code":"5300033","kana_pref":"ｵｵｻｶﾌ","kana_city":"ｵｵｻｶｼｷﾀｸ","kana_address":"ｲｹﾀﾞﾁｮｳ","pref":"大阪府","city":"大阪市北区","address":"池田町"},
{"zip_code":"5300021","kana_pref":"ｵｵｻｶﾌ","kana_city":"ｵｵｻｶｼｷﾀｸ","kana_address":"ｳｷﾀﾞ","pref":"大阪府","city":"大阪市北区","address":"浮田"},
{"zip_code":"5300001","kana_pref":"ｵｵｻｶﾌ","kana_city":"ｵｵｻｶｼｷﾀｸ","kana_address":"ｳﾒﾀﾞ","pref":"大阪府","city":"大阪市北区","address":"梅田"},
{"zip_code":"5300025","kana_pref":"ｵｵｻｶﾌ","kana_city":"ｵｵｻｶｼｷﾀｸ","kana_address":"ｵｳｷﾞﾏﾁ","pref":"大阪府","city":"大阪市北区","address":"扇町"},
{"zip_code":"5300011","kana_pref":"ｵｵｻｶﾌ","kana_city":"ｵｵｻｶｼｷﾀｸ","kana_address":"ｵｵﾌｶﾁｮｳ","pref":"大阪府","city":"大阪市北区","address":"大深町"},
{"zip_code":"5300017","kana_pref":"ｵｵｻｶﾌ","kana_city":"ｵｵｻｶｼｷﾀｸ","kana_address":"ｶｸﾀﾞﾁｮｳ","pref":"大阪府","city":"大阪市北区","address":"角田町"},
{"zip_code":"5300026","kana_pref":"ｵｵｻｶﾌ","kana_city":"ｵｵｻｶｼｷﾀｸ","kana_address":"ｶﾐﾔﾏﾁｮｳ","pref":"大阪府","city":"大阪市北区","address":"神山町"},
{"zip_code":"5300031","kana_pref":"ｵｵｻｶﾌ","kana_city":"ｵｵｻｶｼｷﾀｸ","kana_address":"ｶﾝｴｲﾁｮｳ","pref":"大阪府","city":"大阪市北区","address":"菅栄町"},
{"zip_code":"5300023","kana_pref":"ｵｵｻｶﾌ","kana_city":"ｵｵｻｶｼｷﾀｸ","kana_address":"ｸﾛｻｷﾁｮｳ","pref":"大阪府","city":"大阪市北区","address":"黒崎町"},
{"zip_code":"5300038","kana_pref":"ｵｵｻｶﾌ","kana_city":"ｵｵｻｶｼｷﾀｸ","kana_address":"ｺｳﾊﾞｲﾁｮｳ","pref":"大阪府","city":"大阪市北区","address":"紅梅町"},
{"zip_code":"5300018","kana_pref":"ｵｵｻｶﾌ","kana_city":"ｵｵｻｶｼｷﾀｸ","kana_address":"ｺﾏﾂﾊﾞﾗﾁｮｳ","pref":"大阪府","city":"大阪市北区","address":"小松原町"},
{"zip_code":"5300012","kana_pref":"ｵｵｻｶﾌ","kana_city":"ｵｵｻｶｼｷﾀｸ","kana_address":"ｼﾊﾞﾀ","pref":"大阪府","city":"大阪市北区","address":"芝田"},
{"zip_code":"5300053","kana_pref":"ｵｵｻｶﾌ","kana_city":"ｵｵｻｶｼｷﾀｸ","kana_address":"ｽｴﾋﾛﾁｮｳ","pref":"大阪府","city":"大阪市北区","address":"末広町"},
{"zip_code":"5300046","kana_pref":"ｵｵｻｶﾌ","kana_city":"ｵｵｻｶｼｷﾀｸ","kana_address":"ｽｶﾞﾊﾗﾁｮｳ","pref":"大阪府","city":"大阪市北区","address":"菅原町"},
{"zip_code":"5300057","kana_pref":"ｵｵｻｶﾌ","kana_city":"ｵｵｻｶｼｷﾀｸ","kana_address":"ｿﾈｻﾞｷ","pref":"大阪府","city":"大阪市北区","address":"曽根崎"},
{"zip_code":"5300002","kana_pref":"ｵｵｻｶﾌ","kana_city":"ｵｵｻｶｼｷﾀｸ","kana_address":"ｿﾈｻﾞｷｼﾝﾁ","pref":"大阪府","city":"大阪市北区","address":"曽根崎新地"},
{"zip_code":"5300051","kana_pref":"ｵｵｻｶﾌ","kana_city":"ｵｵｻｶｼｷﾀｸ","kana_address":"ﾀｲﾕｳｼﾞﾁｮｳ","pref":"大阪府","city":"大阪市北区","address":"太融寺町"},
{"zip_code":"5300013","kana_pref":"ｵｵｻｶﾌ","kana_city":"ｵｵｻｶｼｷﾀｸ","kana_address":"ﾁｬﾔﾏﾁ","pref":"大阪府","city":"大阪市北区","address":"茶屋町"},
{"zip_code":"5300014","kana_pref":"ｵｵｻｶﾌ","kana_city":"ｵｵｻｶｼｷﾀｸ","kana_address":"ﾂﾙﾉﾁｮｳ","pref":"大阪府","city":"大阪市北区","address":"鶴野町"},
{"zip_code":"5300045","kana_pref":"ｵｵｻｶﾌ","kana_city":"ｵｵｻｶｼｷﾀｸ","kana_address":"ﾃﾝｼﾞﾝﾆｼﾏﾁ","pref":"大阪府","city":"大阪市北区","address":"天神西町"},
{"zip_code":"5300041","kana_pref":"ｵｵｻｶﾌ","kana_city":"ｵｵｻｶｼｷﾀｸ","kana_address":"ﾃﾝｼﾞﾝﾊﾞｼ","pref":"大阪府","city":"大阪市北区","address":"天神橋"},
{"zip_code":"5300043","kana_pref":"ｵｵｻｶﾌ","kana_city":"ｵｵｻｶｼｷﾀｸ","kana_address":"ﾃﾝﾏ","pref":"大阪府","city":"大阪市北区","address":"天満"},
{"zip_code":"5300042","kana_pref":"ｵｵｻｶﾌ","kana_city":"ｵｵｻｶｼｷﾀｸ","kana_address":"ﾃﾝﾏﾊﾞｼ","pref":"大阪府","city":"大阪市北区","address":"天満橋"},
{"zip_code":"5306090","kana_pref":"ｵｵｻｶﾌ","kana_city":"ｵｵｻｶｼｷﾀｸ","kana_address":"ﾃﾝﾏﾊﾞｼOAPﾀﾜｰ","pref":"大阪府","city":"大阪市北区","address":"天満橋ＯＡＰタワー"},
{"zip_code":"5306001","kana_pref":"ｵｵｻｶﾌ","kana_city":"ｵｵｻｶｼｷﾀｸ","kana_address":"ﾃﾝﾏﾊﾞｼOAPﾀﾜｰ","pref":"大阪府","city":"大阪市北区","address":"天満橋ＯＡＰタワー"},
{"zip_code":"5306002","kana_pref":"ｵｵｻｶﾌ","kana_city":"ｵｵｻｶｼｷﾀｸ","kana_address":"ﾃﾝﾏﾊﾞｼOAPﾀﾜｰ","pref":"大阪府","city":"大阪市北区","address":"天満橋ＯＡＰタワー"},
{"zip_code":"5306003","kana_pref":"ｵｵｻｶﾌ","kana_city":"ｵｵｻｶｼｷﾀｸ","kana_address":"ﾃﾝﾏﾊﾞｼOAPﾀﾜｰ","pref":"大阪府","city":"大阪市北区","address":"天満橋ＯＡＰタワー"},
{"zip_code":"5306004","kana_pref":"ｵｵｻｶﾌ","kana_city":"ｵｵｻｶｼｷﾀｸ","kana_address":"ﾃﾝﾏﾊﾞｼOAPﾀﾜｰ","pref":"大阪府","city":"大阪市北区","address":"天満橋ＯＡＰタワー"},
{"zip_code":"5306005","kana_pref":"ｵｵｻｶﾌ","kana_city":"ｵｵｻｶｼｷﾀｸ","kana_address":"ﾃﾝﾏﾊﾞｼOAPﾀﾜｰ","pref":"大阪府","city":"大阪市北区","address":"天満橋ＯＡＰタワー"},
{"zip_code":"5306006","kana_pref":"ｵｵｻｶﾌ","kana_city":"ｵｵｻｶｼｷﾀｸ","kana_address":"ﾃﾝﾏﾊﾞｼOAPﾀﾜｰ","pref":"大阪府","city":"大阪市北区","address":"天満橋ＯＡＰタワー"},
{"zip_code":"5306007","kana_pref":"ｵｵｻｶﾌ","kana_city":"ｵｵｻｶｼｷﾀｸ","kana_address":"ﾃﾝﾏﾊﾞｼOAPﾀﾜｰ","pref":"大阪府","city":"大阪市北区","address":"天満橋ＯＡＰタワー"},
{"zip_code":"5306008","kana_pref":"ｵｵｻｶﾌ","kana_city":"ｵｵｻｶｼｷﾀｸ","kana_address":"ﾃﾝﾏﾊﾞｼOAPﾀﾜｰ","pref":"大阪府","city":"大阪市北区","address":"天満橋ＯＡＰタワー"},
{"zip_code":"5306009","kana_pref":"ｵｵｻｶﾌ","kana_city":"ｵｵｻｶｼｷﾀｸ","kana_address":"ﾃﾝﾏﾊﾞｼOAPﾀﾜｰ","pref":"大阪府","city":"大阪市北区","address":"天満橋ＯＡＰタワー"},
{"zip_code":"5306010","kana_pref":"ｵｵｻｶﾌ","kana_city":"ｵｵｻｶｼｷﾀｸ","kana_address":"ﾃﾝﾏﾊﾞｼOAPﾀﾜｰ","pref":"大阪府","city":"大阪市北区","address":"天満橋ＯＡＰタワー"},
{"zip_code":"5306011","kana_pref":"ｵｵｻｶﾌ","kana_city":"ｵｵｻｶｼｷﾀｸ","kana_address":"ﾃﾝﾏﾊﾞｼOAPﾀﾜｰ","pref":"大阪府","city":"大阪市北区","address":"天満橋ＯＡＰタワー"},
{"zip_code":"5306012","kana_pref":"ｵｵｻｶﾌ","kana_city":"ｵｵｻｶｼｷﾀｸ","kana_address":"ﾃﾝﾏﾊﾞｼOAPﾀﾜｰ","pref":"大阪府","city":"大阪市北区","address":"天満橋ＯＡＰタワー"},
{"zip_code":"5306013","kana_pref":"ｵｵｻｶﾌ","kana_city":"ｵｵｻｶｼｷﾀｸ","kana_address":"ﾃﾝﾏﾊﾞｼOAPﾀﾜｰ","pref":"大阪府","city":"大阪市北区","address":"天満橋ＯＡＰタワー"},
{"zip_code":"5306014","kana_pref":"ｵｵｻｶﾌ","kana_city":"ｵｵｻｶｼｷﾀｸ","kana_address":"ﾃﾝﾏﾊﾞｼOAPﾀﾜｰ","pref":"大阪府","city":"大阪市北区","address":"天満橋ＯＡＰタワー"},
{"zip_code":"5306015","kana_pref":"ｵｵｻｶﾌ","kana_city":"ｵｵｻｶｼｷﾀｸ","kana_address":"ﾃﾝﾏﾊﾞｼOAPﾀﾜｰ","pref":"大阪府","city":"大阪市北区","address":"天満橋ＯＡＰタワー"},
{"zip_code":"5306016","kana_pref":"ｵｵｻｶﾌ","kana_city":"ｵｵｻｶｼｷﾀｸ","kana_address":"ﾃﾝﾏﾊﾞｼOAPﾀﾜｰ","pref":"大阪府","city":"大阪市北区","address":"天満橋ＯＡＰタワー"},
{"zip_code":"5306017","kana_pref":"ｵｵｻｶﾌ","kana_city":"ｵｵｻｶｼｷﾀｸ","kana_address":"ﾃﾝﾏﾊﾞｼOAPﾀﾜｰ","pref":"大阪府","city":"大阪市北区","address":"天満橋ＯＡＰタワー"},
{"zip_code":"5306018","kana_pref":"ｵｵｻｶﾌ","kana_city":"ｵｵｻｶｼｷﾀｸ","kana_address":"ﾃﾝﾏﾊﾞｼOAPﾀﾜｰ","pref":"大阪府","city":"大阪市北区","address":"天満橋ＯＡＰタワー"},
{"zip_code":"5306019","kana_pref":"ｵｵｻｶﾌ","kana_city":"ｵｵｻｶｼｷﾀｸ","kana_address":"ﾃﾝﾏﾊﾞｼOAPﾀﾜｰ","pref":"大阪府","city":"大阪市北区","address":"天満橋ＯＡＰタワー"},
{"zip_code":"5306020","kana_pref":"ｵｵｻｶﾌ","kana_city":"ｵｵｻｶｼｷﾀｸ","kana_address":"ﾃﾝﾏﾊﾞｼOAPﾀﾜｰ","pref":"大阪府","city":"大阪市北区","address":"天満橋ＯＡＰタワー"},
{"zip_code":"5306021","kana_pref":"ｵｵｻｶﾌ","kana_city":"ｵｵｻｶｼｷﾀｸ","kana_address":"ﾃﾝﾏﾊﾞｼOAPﾀﾜｰ","pref":"大阪府","city":"大阪市北区","address":"天満橋ＯＡＰタワー"},
{"zip_code":"5306022","kana_pref":"ｵｵｻｶﾌ","kana_city":"ｵｵｻｶｼｷﾀｸ","kana_address":"ﾃﾝﾏﾊﾞｼOAPﾀﾜｰ","pref":"大阪府","city":"大阪市北区","address":"天満橋ＯＡＰタワー"},
{"zip_code":"5306023","kana_pref":"ｵｵｻｶﾌ","kana_city":"ｵｵｻｶｼｷﾀｸ","kana_address":"ﾃﾝﾏﾊﾞｼOAPﾀﾜｰ","pref":"大阪府","city":"大阪市北区","address":"天満橋ＯＡＰタワー"},
{"zip_code":"5306024","kana_pref":"ｵｵｻｶﾌ","kana_city":"ｵｵｻｶｼｷﾀｸ","kana_address":"ﾃﾝﾏﾊﾞｼOAPﾀﾜｰ","pref":"大阪府","city":"大阪市北区","address":"天満橋ＯＡＰタワー"},
{"zip_code":"5306025","kana_pref":"ｵｵｻｶﾌ","kana_city":"ｵｵｻｶｼｷﾀｸ","kana_address":"ﾃﾝﾏﾊﾞｼOAPﾀﾜｰ","pref":"大阪府","city":"大阪市北区","address":"天満橋ＯＡＰタワー"},
{"zip_code":"5306026","kana_pref":"ｵｵｻｶﾌ","kana_city":"ｵｵｻｶｼｷﾀｸ","kana_address":"ﾃﾝﾏﾊﾞｼOAPﾀﾜｰ","pref":"大阪府","city":"大阪市北区","address":"天満橋ＯＡＰタワー"},
{"zip_code":"5306027","kana_pref":"ｵｵｻｶﾌ","kana_city":"ｵｵｻｶｼｷﾀｸ","kana_address":"ﾃﾝﾏﾊﾞｼOAPﾀﾜｰ","pref":"大阪府","city":"大阪市北区","address":"天満橋ＯＡＰタワー"},
{"zip_code":"5306028","kana_pref":"ｵｵｻｶﾌ","kana_city":"ｵｵｻｶｼｷﾀｸ","kana_address":"ﾃﾝﾏﾊﾞｼOAPﾀﾜｰ","pref":"大阪府","city":"大阪市北区","address":"天満橋ＯＡＰタワー"},
{"zip_code":"5306029","kana_pref":"ｵｵｻｶﾌ","kana_city":"ｵｵｻｶｼｷﾀｸ","kana_address":"ﾃﾝﾏﾊﾞｼOAPﾀﾜｰ","pref":"大阪府","city":"大阪市北区","address":"天満橋ＯＡＰタワー"},
{"zip_code":"5306030","kana_pref":"ｵｵｻｶﾌ","kana_city":"ｵｵｻｶｼｷﾀｸ","kana_address":"ﾃﾝﾏﾊﾞｼOAPﾀﾜｰ","pref":"大阪府","city":"大阪市北区","address":"天満橋ＯＡＰタワー"},
{"zip_code":"5306031","kana_pref":"ｵｵｻｶﾌ","kana_city":"ｵｵｻｶｼｷﾀｸ","kana_address":"ﾃﾝﾏﾊﾞｼOAPﾀﾜｰ","pref":"大阪府","city":"大阪市北区","address":"天満橋ＯＡＰタワー"},
{"zip_code":"5306032","kana_pref":"ｵｵｻｶﾌ","kana_city":"ｵｵｻｶｼｷﾀｸ","kana_address":"ﾃﾝﾏﾊﾞｼOAPﾀﾜｰ","pref":"大阪府","city":"大阪市北区","address":"天満橋ＯＡＰタワー"},
{"zip_code":"5306033","kana_pref":"ｵｵｻｶﾌ","kana_city":"ｵｵｻｶｼｷﾀｸ","kana_address":"ﾃﾝﾏﾊﾞｼOAPﾀﾜｰ","pref":"大阪府","city":"大阪市北区","address":"天満橋ＯＡＰタワー"},
{"zip_code":"5306034","kana_pref":"ｵｵｻｶﾌ","kana_city":"ｵｵｻｶｼｷﾀｸ","kana_address":"ﾃﾝﾏﾊﾞｼOAPﾀﾜｰ","pref":"大阪府","city":"大阪市北区","address":"天満橋ＯＡＰタワー"},
{"zip_code":"5306035","kana_pref":"ｵｵｻｶﾌ","kana_city":"ｵｵｻｶｼｷﾀｸ","kana_address":"ﾃﾝﾏﾊﾞｼOAPﾀﾜｰ","pref":"大阪府","city":"大阪市北区","address":"天満橋ＯＡＰタワー"},
{"zip_code":"5306036","kana_pref":"ｵｵｻｶﾌ","kana_city":"ｵｵｻｶｼｷﾀｸ","kana_address":"ﾃﾝﾏﾊﾞｼOAPﾀﾜｰ","pref":"大阪府","city":"大阪市北区","address":"天満橋ＯＡＰタワー"},
{"zip_code":"5306037","kana_pref":"ｵｵｻｶﾌ","kana_city":"ｵｵｻｶｼｷﾀｸ","kana_address":"ﾃﾝﾏﾊﾞｼOAPﾀﾜｰ","pref":"大阪府","city":"大阪市北区","address":"天満橋ＯＡＰタワー"},
{"zip_code":"5306038","kana_pref":"ｵｵｻｶﾌ","kana_city":"ｵｵｻｶｼｷﾀｸ","kana_address":"ﾃﾝﾏﾊﾞｼOAPﾀﾜｰ","pref":"大阪府","city":"大阪市北区","address":"天満橋ＯＡＰタワー"},
{"zip_code":"5306039","kana_pref":"ｵｵｻｶﾌ","kana_city":"ｵｵｻｶｼｷﾀｸ","kana_address":"ﾃﾝﾏﾊﾞｼOAPﾀﾜｰ","pref":"大阪府","city":"大阪市北区","address":"天満橋ＯＡＰタワー"},
{"zip_code":"5300003","kana_pref":"ｵｵｻｶﾌ","kana_city":"ｵｵｻｶｼｷﾀｸ","kana_address":"ﾄﾞｳｼﾞﾏ","pref":"大阪府","city":"大阪市北区","address":"堂島"},
{"zip_code":"5300004","kana_pref":"ｵｵｻｶﾌ","kana_city":"ｵｵｻｶｼｷﾀｸ","kana_address":"ﾄﾞｳｼﾞﾏﾊﾏ","pref":"大阪府","city":"大阪市北区","address":"堂島浜"},
{"zip_code":"5300035","kana_pref":"ｵｵｻｶﾌ","kana_city":"ｵｵｻｶｼｷﾀｸ","kana_address":"ﾄﾞｳｼﾝ","pref":"大阪府","city":"大阪市北区","address":"同心"},
{"zip_code":"5300027","kana_pref":"ｵｵｻｶﾌ","kana_city":"ｵｵｻｶｼｷﾀｸ","kana_address":"ﾄﾞｳﾔﾏﾁｮｳ","pref":"大阪府","city":"大阪市北区","address":"堂山町"},
{"zip_code":"5300056","kana_pref":"ｵｵｻｶﾌ","kana_city":"ｵｵｻｶｼｷﾀｸ","kana_address":"ﾄｶﾞﾉﾁｮｳ","pref":"大阪府","city":"大阪市北区","address":"兎我野町"},
{"zip_code":"5300016","kana_pref":"ｵｵｻｶﾌ","kana_city":"ｵｵｻｶｼｷﾀｸ","kana_address":"ﾅｶｻﾞｷ","pref":"大阪府","city":"大阪市北区","address":"中崎"},
{"zip_code":"5300015","kana_pref":"ｵｵｻｶﾌ","kana_city":"ｵｵｻｶｼｷﾀｸ","kana_address":"ﾅｶｻﾞｷﾆｼ","pref":"大阪府","city":"大阪市北区","address":"中崎西"},
{"zip_code":"5300005","kana_pref":"ｵｵｻｶﾌ","kana_city":"ｵｵｻｶｼｷﾀｸ","kana_address":"ﾅｶﾉｼﾏ","pref":"大阪府","city":"大阪市北区","address":"中之島"},
{"zip_code":"5306190","kana_pref":"ｵｵｻｶﾌ","kana_city":"ｵｵｻｶｼｷﾀｸ","kana_address":"ﾅｶﾉｼﾏﾅｶﾉｼﾏﾀﾞｲﾋﾞﾙ","pref":"大阪府","city":"大阪市北区","address":"中之島中之島ダイビル"},
{"zip_code":"5306101","kana_pref":"ｵｵｻｶﾌ","kana_city":"ｵｵｻｶｼｷﾀｸ","kana_address":"ﾅｶﾉｼﾏﾅｶﾉｼﾏﾀﾞｲﾋﾞﾙ","pref":"大阪府","city":"大阪市北区","address":"中之島中之島ダイビル"},
{"zip_code":"5306102","kana_pref":"ｵｵｻｶﾌ","kana_city":"ｵｵｻｶｼｷﾀｸ","kana_address":"ﾅｶﾉｼﾏﾅｶﾉｼﾏﾀﾞｲﾋﾞﾙ","pref":"大阪府","city":"大阪市北区","address":"中之島中之島ダイビル"},
{"zip_code":"5306103","kana_pref":"ｵｵｻｶﾌ","kana_city":"ｵｵｻｶｼｷﾀｸ","kana_address":"ﾅｶﾉｼﾏﾅｶﾉｼﾏﾀﾞｲﾋﾞﾙ","pref":"大阪府","city":"大阪市北区","address":"中之島中之島ダイビル"},
{"zip_code":"5306104","kana_pref":"ｵｵｻｶﾌ","kana_city":"ｵｵｻｶｼｷﾀｸ","kana_address":"ﾅｶﾉｼﾏﾅｶﾉｼﾏﾀﾞｲﾋﾞﾙ","pref":"大阪府","city":"大阪市北区","address":"中之島中之島ダイビル"},
{"zip_code":"5306105","kana_pref":"ｵｵｻｶﾌ","kana_city":"ｵｵｻｶｼｷﾀｸ","kana_address":"ﾅｶﾉｼﾏﾅｶﾉｼﾏﾀﾞｲﾋﾞﾙ","pref":"大阪府","city":"大阪市北区","address":"中之島中之島ダイビル"},
{"zip_code":"5306106","kana_pref":"ｵｵｻｶﾌ","kana_city":"ｵｵｻｶｼｷﾀｸ","kana_address":"ﾅｶﾉｼﾏﾅｶﾉｼﾏﾀﾞｲﾋﾞﾙ","pref":"大阪府","city":"大阪市北区","address":"中之島中之島ダイビル"},
{"zip_code":"5306107","kana_pref":"ｵｵｻｶﾌ","kana_city":"ｵｵｻｶｼｷﾀｸ","kana_address":"ﾅｶﾉｼﾏﾅｶﾉｼﾏﾀﾞｲﾋﾞﾙ","pref":"大阪府","city":"大阪市北区","address":"中之島中之島ダイビル"},
{"zip_code":"5306108","kana_pref":"ｵｵｻｶﾌ","kana_city":"ｵｵｻｶｼｷﾀｸ","kana_address":"ﾅｶﾉｼﾏﾅｶﾉｼﾏﾀﾞｲﾋﾞﾙ","pref":"大阪府","city":"大阪市北区","address":"中之島中之島ダイビル"},
{"zip_code":"5306109","kana_pref":"ｵｵｻｶﾌ","kana_city":"ｵｵｻｶｼｷﾀｸ","kana_address":"ﾅｶﾉｼﾏﾅｶﾉｼﾏﾀﾞｲﾋﾞﾙ","pref":"大阪府","city":"大阪市北区","address":"中之島中之島ダイビル"},
{"zip_code":"5306110","kana_pref":"ｵｵｻｶﾌ","kana_city":"ｵｵｻｶｼｷﾀｸ","kana_address":"ﾅｶﾉｼﾏﾅｶﾉｼﾏﾀﾞｲﾋﾞﾙ","pref":"大阪府","city":"大阪市北区","address":"中之島中之島ダイビル"},
{"zip_code":"5306111","kana_pref":"ｵｵｻｶﾌ","kana_city":"ｵｵｻｶｼｷﾀｸ","kana_address":"ﾅｶﾉｼﾏﾅｶﾉｼﾏﾀﾞｲﾋﾞﾙ","pref":"大阪府","city":"大阪市北区","address":"中之島中之島ダイビル"},
{"zip_code":"5306112","kana_pref":"ｵｵｻｶﾌ","kana_city":"ｵｵｻｶｼｷﾀｸ","kana_address":"ﾅｶﾉｼﾏﾅｶﾉｼﾏﾀﾞｲﾋﾞﾙ","pref":"大阪府","city":"大阪市北区","address":"中之島中之島ダイビル"},
{"zip_code":"5306113","kana_pref":"ｵｵｻｶﾌ","kana_city":"ｵｵｻｶｼｷﾀｸ","kana_address":"ﾅｶﾉｼﾏﾅｶﾉｼﾏﾀﾞｲﾋﾞﾙ","pref":"大阪府","city":"大阪市北区","address":"中之島中之島ダイビル"},
{"zip_code":"5306114","kana_pref":"ｵｵｻｶﾌ","kana_city":"ｵｵｻｶｼｷﾀｸ","kana_address":"ﾅｶﾉｼﾏﾅｶﾉｼﾏﾀﾞｲﾋﾞﾙ","pref":"大阪府","city":"大阪市北区","address":"中之島中之島ダイビル"},
{"zip_code":"5306115","kana_pref":"ｵｵｻｶﾌ","kana_city":"ｵｵｻｶｼｷﾀｸ","kana_address":"ﾅｶﾉｼﾏﾅｶﾉｼﾏﾀﾞｲﾋﾞﾙ","pref":"大阪府","city":"大阪市北区","address":"中之島中之島ダイビル"},
{"zip_code":"5306116","kana_pref":"ｵｵｻｶﾌ","kana_city":"ｵｵｻｶｼｷﾀｸ","kana_address":"ﾅｶﾉｼﾏﾅｶﾉｼﾏﾀﾞｲﾋﾞﾙ","pref":"大阪府","city":"大阪市北区","address":"中之島中之島ダイビル"},
{"zip_code":"5306117","kana_pref":"ｵｵｻｶﾌ","kana_city":"ｵｵｻｶｼｷﾀｸ","kana_address":"ﾅｶﾉｼﾏﾅｶﾉｼﾏﾀﾞｲﾋﾞﾙ","pref":"大阪府","city":"大阪市北区","address":"中之島中之島ダイビル"},
{"zip_code":"5306118","kana_pref":"ｵｵｻｶﾌ","kana_city":"ｵｵｻｶｼｷﾀｸ","kana_address":"ﾅｶﾉｼﾏﾅｶﾉｼﾏﾀﾞｲﾋﾞﾙ","pref":"大阪府","city":"大阪市北区","address":"中之島中之島ダイビル"},
{"zip_code":"5306119","kana_pref":"ｵｵｻｶﾌ","kana_city":"ｵｵｻｶｼｷﾀｸ","kana_address":"ﾅｶﾉｼﾏﾅｶﾉｼﾏﾀﾞｲﾋﾞﾙ","pref":"大阪府","city":"大阪市北区","address":"中之島中之島ダイビル"},
{"zip_code":"5306120","kana_pref":"ｵｵｻｶﾌ","kana_city":"ｵｵｻｶｼｷﾀｸ","kana_address":"ﾅｶﾉｼﾏﾅｶﾉｼﾏﾀﾞｲﾋﾞﾙ","pref":"大阪府","city":"大阪市北区","address":"中之島中之島ダイビル"},
{"zip_code":"5306121","kana_pref":"ｵｵｻｶﾌ","kana_city":"ｵｵｻｶｼｷﾀｸ","kana_address":"ﾅｶﾉｼﾏﾅｶﾉｼﾏﾀﾞｲﾋﾞﾙ","pref":"大阪府","city":"大阪市北区","address":"中之島中之島ダイビル"},
{"zip_code":"5306122","kana_pref":"ｵｵｻｶﾌ","kana_city":"ｵｵｻｶｼｷﾀｸ","kana_address":"ﾅｶﾉｼﾏﾅｶﾉｼﾏﾀﾞｲﾋﾞﾙ","pref":"大阪府","city":"大阪市北区","address":"中之島中之島ダイビル"},
{"zip_code":"5306123","kana_pref":"ｵｵｻｶﾌ","kana_city":"ｵｵｻｶｼｷﾀｸ","kana_address":"ﾅｶﾉｼﾏﾅｶﾉｼﾏﾀﾞｲﾋﾞﾙ","pref":"大阪府","city":"大阪市北区","address":"中之島中之島ダイビル"},
{"zip_code":"5306124","kana_pref":"ｵｵｻｶﾌ","kana_city":"ｵｵｻｶｼｷﾀｸ","kana_address":"ﾅｶﾉｼﾏﾅｶﾉｼﾏﾀﾞｲﾋﾞﾙ","pref":"大阪府","city":"大阪市北区","address":"中之島中之島ダイビル"},
{"zip_code":"5306125","kana_pref":"ｵｵｻｶﾌ","kana_city":"ｵｵｻｶｼｷﾀｸ","kana_address":"ﾅｶﾉｼﾏﾅｶﾉｼﾏﾀﾞｲﾋﾞﾙ","pref":"大阪府","city":"大阪市北区","address":"中之島中之島ダイビル"},
{"zip_code":"5306126","kana_pref":"ｵｵｻｶﾌ","kana_city":"ｵｵｻｶｼｷﾀｸ","kana_address":"ﾅｶﾉｼﾏﾅｶﾉｼﾏﾀﾞｲﾋﾞﾙ","pref":"大阪府","city":"大阪市北区","address":"中之島中之島ダイビル"},
{"zip_code":"5306127","kana_pref":"ｵｵｻｶﾌ","kana_city":"ｵｵｻｶｼｷﾀｸ","kana_address":"ﾅｶﾉｼﾏﾅｶﾉｼﾏﾀﾞｲﾋﾞﾙ","pref":"大阪府","city":"大阪市北区","address":"中之島中之島ダイビル"},
{"zip_code":"5306128","kana_pref":"ｵｵｻｶﾌ","kana_city":"ｵｵｻｶｼｷﾀｸ","kana_address":"ﾅｶﾉｼﾏﾅｶﾉｼﾏﾀﾞｲﾋﾞﾙ","pref":"大阪府","city":"大阪市北区","address":"中之島中之島ダイビル"},
{"zip_code":"5306129","kana_pref":"ｵｵｻｶﾌ","kana_city":"ｵｵｻｶｼｷﾀｸ","kana_address":"ﾅｶﾉｼﾏﾅｶﾉｼﾏﾀﾞｲﾋﾞﾙ","pref":"大阪府","city":"大阪市北区","address":"中之島中之島ダイビル"},
{"zip_code":"5306130","kana_pref":"ｵｵｻｶﾌ","kana_city":"ｵｵｻｶｼｷﾀｸ","kana_address":"ﾅｶﾉｼﾏﾅｶﾉｼﾏﾀﾞｲﾋﾞﾙ","pref":"大阪府","city":"大阪市北区","address":"中之島中之島ダイビル"},
{"zip_code":"5306131","kana_pref":"ｵｵｻｶﾌ","kana_city":"ｵｵｻｶｼｷﾀｸ","kana_address":"ﾅｶﾉｼﾏﾅｶﾉｼﾏﾀﾞｲﾋﾞﾙ","pref":"大阪府","city":"大阪市北区","address":"中之島中之島ダイビル"},
{"zip_code":"5306132","kana_pref":"ｵｵｻｶﾌ","kana_city":"ｵｵｻｶｼｷﾀｸ","kana_address":"ﾅｶﾉｼﾏﾅｶﾉｼﾏﾀﾞｲﾋﾞﾙ","pref":"大阪府","city":"大阪市北区","address":"中之島中之島ダイビル"},
{"zip_code":"5306133","kana_pref":"ｵｵｻｶﾌ","kana_city":"ｵｵｻｶｼｷﾀｸ","kana_address":"ﾅｶﾉｼﾏﾅｶﾉｼﾏﾀﾞｲﾋﾞﾙ","pref":"大阪府","city":"大阪市北区","address":"中之島中之島ダイビル"},
{"zip_code":"5306134","kana_pref":"ｵｵｻｶﾌ","kana_city":"ｵｵｻｶｼｷﾀｸ","kana_address":"ﾅｶﾉｼﾏﾅｶﾉｼﾏﾀﾞｲﾋﾞﾙ","pref":"大阪府","city":"大阪市北区","address":"中之島中之島ダイビル"},
{"zip_code":"5306135","kana_pref":"ｵｵｻｶﾌ","kana_city":"ｵｵｻｶｼｷﾀｸ","kana_address":"ﾅｶﾉｼﾏﾅｶﾉｼﾏﾀﾞｲﾋﾞﾙ","pref":"大阪府","city":"大阪市北区","address":"中之島中之島ダイビル"},
{"zip_code":"5300022","kana_pref":"ｵｵｻｶﾌ","kana_city":"ｵｵｻｶｼｷﾀｸ","kana_address":"ﾅﾆﾜﾁｮｳ","pref":"大阪府","city":"大阪市北区","address":"浪花町"},
{"zip_code":"5300034","kana_pref":"ｵｵｻｶﾌ","kana_city":"ｵｵｻｶｼｷﾀｸ","kana_address":"ﾆｼｷﾁｮｳ","pref":"大阪府","city":"大阪市北区","address":"錦町"},
{"zip_code":"5300047","kana_pref":"ｵｵｻｶﾌ","kana_city":"ｵｵｻｶｼｷﾀｸ","kana_address":"ﾆｼﾃﾝﾏ","pref":"大阪府","city":"大阪市北区","address":"西天満"},
{"zip_code":"5300055","kana_pref":"ｵｵｻｶﾌ","kana_city":"ｵｵｻｶｼｷﾀｸ","kana_address":"ﾉｻﾞｷﾁｮｳ","pref":"大阪府","city":"大阪市北区","address":"野崎町"},
{"zip_code":"5300028","kana_pref":"ｵｵｻｶﾌ","kana_city":"ｵｵｻｶｼｷﾀｸ","kana_address":"ﾊﾞﾝｻﾞｲﾁｮｳ","pref":"大阪府","city":"大阪市北区","address":"万歳町"},
{"zip_code":"5300044","kana_pref":"ｵｵｻｶﾌ","kana_city":"ｵｵｻｶｼｷﾀｸ","kana_address":"ﾋｶﾞｼﾃﾝﾏ","pref":"大阪府","city":"大阪市北区","address":"東天満"},
{"zip_code":"5300032","kana_pref":"ｵｵｻｶﾌ","kana_city":"ｵｵｻｶｼｷﾀｸ","kana_address":"ﾋﾉｸﾁﾁｮｳ","pref":"大阪府","city":"大阪市北区","address":"樋之口町"},
{"zip_code":"5300037","kana_pref":"ｵｵｻｶﾌ","kana_city":"ｵｵｻｶｼｷﾀｸ","kana_address":"ﾏﾂｶﾞｴﾁｮｳ","pref":"大阪府","city":"大阪市北区","address":"松ケ枝町"},
{"zip_code":"5300052","kana_pref":"ｵｵｻｶﾌ","kana_city":"ｵｵｻｶｼｷﾀｸ","kana_address":"ﾐﾅﾐｵｳｷﾞﾏﾁ","pref":"大阪府","city":"大阪市北区","address":"南扇町"},
{"zip_code":"5300054","kana_pref":"ｵｵｻｶﾌ","kana_city":"ｵｵｻｶｼｷﾀｸ","kana_address":"ﾐﾅﾐﾓﾘﾏﾁ","pref":"大阪府","city":"大阪市北区","address":"南森町"},
{"zip_code":"5300024","kana_pref":"ｵｵｻｶﾌ","kana_city":"ｵｵｻｶｼｷﾀｸ","kana_address":"ﾔﾏｻﾞｷﾁｮｳ","pref":"大阪府","city":"大阪市北区","address":"山崎町"},
{"zip_code":"5300036","kana_pref":"ｵｵｻｶﾌ","kana_city":"ｵｵｻｶｼｷﾀｸ","kana_address":"ﾖﾘｷﾏﾁ","pref":"大阪府","city":"大阪市北区","address":"与力町"}]}