{"zip_code":[
{"zip_code":"5310076","kana_pref":"ｵｵｻｶﾌ","kana_city":"ｵｵｻｶｼｷﾀｸ","kana_address":"ｵｵﾖﾄﾞﾅｶ","pref":"大阪府","city":"大阪市北区","address":"大淀中"},
{"zip_code":"5316090","kana_pref":"ｵｵｻｶﾌ","kana_city":"ｵｵｻｶｼｷﾀｸ","kana_address":"ｵｵﾖﾄﾞﾅｶｳﾒﾀﾞｽｶｲﾋﾞﾙﾀﾜｰｲｰｽﾄ","pref":"大阪府","city":"大阪市北区","address":"大淀中梅田スカイビルタワーイースト"},
{"zip_code":"5316001","kana_pref":"ｵｵｻｶﾌ","kana_city":"ｵｵｻｶｼｷﾀｸ","kana_address":"ｵｵﾖﾄﾞﾅｶｳﾒﾀﾞｽｶｲﾋﾞﾙﾀﾜｰｲｰｽﾄ","pref":"大阪府","city":"大阪市北区","address":"大淀中梅田スカイビルタワーイースト"},
{"zip_code":"5316002","kana_pref":"ｵｵｻｶﾌ","kana_city":"ｵｵｻｶｼｷﾀｸ","kana_address":"ｵｵﾖﾄﾞﾅｶｳﾒﾀﾞｽｶｲﾋﾞﾙﾀﾜｰｲｰｽﾄ","pref":"大阪府","city":"大阪市北区","address":"大淀中梅田スカイビルタワーイースト"},
{"zip_code":"5316003","kana_pref":"ｵｵｻｶﾌ","kana_city":"ｵｵｻｶｼｷﾀｸ","kana_address":"ｵｵﾖﾄﾞﾅｶｳﾒﾀﾞｽｶｲﾋﾞﾙﾀﾜｰｲｰｽﾄ","pref":"大阪府","city":"大阪市北区","address":"大淀中梅田スカイビルタワーイースト"},
{"zip_code":"5316004","kana_pref":"ｵｵｻｶﾌ","kana_city":"ｵｵｻｶｼｷﾀｸ","kana_address":"ｵｵﾖﾄﾞﾅｶｳﾒﾀﾞｽｶｲﾋﾞﾙﾀﾜｰｲｰｽﾄ","pref":"大阪府","city":"大阪市北区","address":"大淀中梅田スカイビルタワーイースト"},
{"zip_code":"5316005","kana_pref":"ｵｵｻｶﾌ","kana_city":"ｵｵｻｶｼｷﾀｸ","kana_address":"ｵｵﾖﾄﾞﾅｶｳﾒﾀﾞｽｶｲﾋﾞﾙﾀﾜｰｲｰｽﾄ","pref":"大阪府","city":"大阪市北区","address":"大淀中梅田スカイビルタワーイースト"},
{"zip_code":"5316006","kana_pref":"ｵｵｻｶﾌ","kana_city":"ｵｵｻｶｼｷﾀｸ","kana_address":"ｵｵﾖﾄﾞﾅｶｳﾒﾀﾞｽｶｲﾋﾞﾙﾀﾜｰｲｰｽﾄ","pref":"大阪府","city":"大阪市北区","address":"大淀中梅田スカイビルタワーイースト"},
{"zip_code":"5316007","kana_pref":"ｵｵｻｶﾌ","kana_city":"ｵｵｻｶｼｷﾀｸ","kana_address":"ｵｵﾖﾄﾞﾅｶｳﾒﾀﾞｽｶｲﾋﾞﾙﾀﾜｰｲｰｽﾄ","pref":"大阪府","city":"大阪市北区","address":"大淀中梅田スカイビルタワーイースト"},
{"zip_code":"5316008","kana_pref":"ｵｵｻｶﾌ","kana_city":"ｵｵｻｶｼｷﾀｸ","kana_address":"ｵｵﾖﾄﾞﾅｶｳﾒﾀﾞｽｶｲﾋﾞﾙﾀﾜｰｲｰｽﾄ","pref":"大阪府","city":"大阪市北区","address":"大淀中梅田スカイビルタワーイースト"},
{"zip_code":"5316009","kana_pref":"ｵｵｻｶﾌ","kana_city":"ｵｵｻｶｼｷﾀｸ","kana_address":"ｵｵﾖﾄﾞﾅｶｳﾒﾀﾞｽｶｲﾋﾞﾙﾀﾜｰｲｰｽﾄ","pref":"大阪府","city":"大阪市北区","address":"大淀中梅田スカイビルタワーイースト"},
{"zip_code":"5316010","kana_pref":"ｵｵｻｶﾌ","kana_city":"ｵｵｻｶｼｷﾀｸ","kana_address":"ｵｵﾖﾄﾞﾅｶｳﾒﾀﾞｽｶｲﾋﾞﾙﾀﾜｰｲｰｽﾄ","pref":"大阪府","city":"大阪市北区","address":"大淀中梅田スカイビルタワーイースト"},
{"zip_code":"5316011","kana_pref":"ｵｵｻｶﾌ","kana_city":"ｵｵｻｶｼｷﾀｸ","kana_address":"ｵｵﾖﾄﾞﾅｶｳﾒﾀﾞｽｶｲﾋﾞﾙﾀﾜｰｲｰｽﾄ","pref":"大阪府","city":"大阪市北区","address":"大淀中梅田スカイビルタワーイースト"},
{"zip_code":"5316012","kana_pref":"ｵｵｻｶﾌ","kana_city":"ｵｵｻｶｼｷﾀｸ","kana_address":"ｵｵﾖﾄﾞﾅｶｳﾒﾀﾞｽｶｲﾋﾞﾙﾀﾜｰｲｰｽﾄ","pref":"大阪府","city":"大阪市北区","address":"大淀中梅田スカイビルタワーイースト"},
{"zip_code":"5316013","kana_pref":"ｵｵｻｶﾌ","kana_city":"ｵｵｻｶｼｷﾀｸ","kana_address":"ｵｵﾖﾄﾞﾅｶｳﾒﾀﾞｽｶｲﾋﾞﾙﾀﾜｰｲｰｽﾄ","pref":"大阪府","city":"大阪市北区","address":"大淀中梅田スカイビルタワーイースト"},
{"zip_code":"5316014","kana_pref":"ｵｵｻｶﾌ","kana_city":"ｵｵｻｶｼｷﾀｸ","kana_address":"ｵｵﾖﾄﾞﾅｶｳﾒﾀﾞｽｶｲﾋﾞﾙﾀﾜｰｲｰｽﾄ","pref":"大阪府","city":"大阪市北区","address":"大淀中梅田スカイビルタワーイースト"},
{"zip_code":"5316015","kana_pref":"ｵｵｻｶﾌ","kana_city":"ｵｵｻｶｼｷﾀｸ","kana_address":"ｵｵﾖﾄﾞﾅｶｳﾒﾀﾞｽｶｲﾋﾞﾙﾀﾜｰｲｰｽﾄ","pref":"大阪府","city":"大阪市北区","address":"大淀中梅田スカイビルタワーイースト"},
{"zip_code":"5316016","kana_pref":"ｵｵｻｶﾌ","kana_city":"ｵｵｻｶｼｷﾀｸ","kana_address":"ｵｵﾖﾄﾞﾅｶｳﾒﾀﾞｽｶｲﾋﾞﾙﾀﾜｰｲｰｽﾄ","pref":"大阪府","city":"大阪市北区","address":"大淀中梅田スカイビルタワーイースト"},
{"zip_code":"5316017","kana_pref":"ｵｵｻｶﾌ","kana_city":"ｵｵｻｶｼｷﾀｸ","kana_address":"ｵｵﾖﾄﾞﾅｶｳﾒﾀﾞｽｶｲﾋﾞﾙﾀﾜｰｲｰｽﾄ","pref":"大阪府","city":"大阪市北区","address":"大淀中梅田スカイビルタワーイースト"},
{"zip_code":"5316018","kana_pref":"ｵｵｻｶﾌ","kana_city":"ｵｵｻｶｼｷﾀｸ","kana_address":"ｵｵﾖﾄﾞﾅｶｳﾒﾀﾞｽｶｲﾋﾞﾙﾀﾜｰｲｰｽﾄ","pref":"大阪府","city":"大阪市北区","address":"大淀中梅田スカイビルタワーイースト"},
{"zip_code":"5316019","kana_pref":"ｵｵｻｶﾌ","kana_city":"ｵｵｻｶｼｷﾀｸ","kana_address":"ｵｵﾖﾄﾞﾅｶｳﾒﾀﾞｽｶｲﾋﾞﾙﾀﾜｰｲｰｽﾄ","pref":"大阪府","city":"大阪市北区","address":"大淀中梅田スカイビルタワーイースト"},
{"zip_code":"5316020","kana_pref":"ｵｵｻｶﾌ","kana_city":"ｵｵｻｶｼｷﾀｸ","kana_address":"ｵｵﾖﾄﾞﾅｶｳﾒﾀﾞｽｶｲﾋﾞﾙﾀﾜｰｲｰｽﾄ","pref":"大阪府","city":"大阪市北区","address":"大淀中梅田スカイビルタワーイースト"},
{"zip_code":"5316021","kana_pref":"ｵｵｻｶﾌ","kana_city":"ｵｵｻｶｼｷﾀｸ","kana_address":"ｵｵﾖﾄﾞﾅｶｳﾒﾀﾞｽｶｲﾋﾞﾙﾀﾜｰｲｰｽﾄ","pref":"大阪府","city":"大阪市北区","address":"大淀中梅田スカイビルタワーイースト"},
{"zip_code":"5316022","kana_pref":"ｵｵｻｶﾌ","kana_city":"ｵｵｻｶｼｷﾀｸ","kana_address":"ｵｵﾖﾄﾞﾅｶｳﾒﾀﾞｽｶｲﾋﾞﾙﾀﾜｰｲｰｽﾄ","pref":"大阪府","city":"大阪市北区","address":"大淀中梅田スカイビルタワーイースト"},
{"zip_code":"5316023","kana_pref":"ｵｵｻｶﾌ","kana_city":"ｵｵｻｶｼｷﾀｸ","kana_address":"ｵｵﾖﾄﾞﾅｶｳﾒﾀﾞｽｶｲﾋﾞﾙﾀﾜｰｲｰｽﾄ","pref":"大阪府","city":"大阪市北区","address":"大淀中梅田スカイビルタワーイースト"},
{"zip_code":"5316024","kana_pref":"ｵｵｻｶﾌ","kana_city":"ｵｵｻｶｼｷﾀｸ","kana_address":"ｵｵﾖﾄﾞﾅｶｳﾒﾀﾞｽｶｲﾋﾞﾙﾀﾜｰｲｰｽﾄ","pref":"大阪府","city":"大阪市北区","address":"大淀中梅田スカイビルタワーイースト"},
{"zip_code":"5316025","kana_pref":"ｵｵｻｶﾌ","kana_city":"ｵｵｻｶｼｷﾀｸ","kana_address":"ｵｵﾖﾄﾞﾅｶｳﾒﾀﾞｽｶｲﾋﾞﾙﾀﾜｰｲｰｽﾄ","pref":"大阪府","city":"大阪市北区","address":"大淀中梅田スカイビルタワーイースト"},
{"zip_code":"5316026","kana_pref":"ｵｵｻｶﾌ","kana_city":"ｵｵｻｶｼｷﾀｸ","kana_address":"ｵｵﾖﾄﾞﾅｶｳﾒﾀﾞｽｶｲﾋﾞﾙﾀﾜｰｲｰｽﾄ","pref":"大阪府","city":"大阪市北区","address":"大淀中梅田スカイビルタワーイースト"},
{"zip_code":"5316027","kana_pref":"ｵｵｻｶﾌ","kana_city":"ｵｵｻｶｼｷﾀｸ","kana_address":"ｵｵﾖﾄﾞﾅｶｳﾒﾀﾞｽｶｲﾋﾞﾙﾀﾜｰｲｰｽﾄ","pref":"大阪府","city":"大阪市北区","address":"大淀中梅田スカイビルタワーイースト"},
{"zip_code":"5316028","kana_pref":"ｵｵｻｶﾌ","kana_city":"ｵｵｻｶｼｷﾀｸ","kana_address":"ｵｵﾖﾄﾞﾅｶｳﾒﾀﾞｽｶｲﾋﾞﾙﾀﾜｰｲｰｽﾄ","pref":"大阪府","city":"大阪市北区","address":"大淀中梅田スカイビルタワーイースト"},
{"zip_code":"5316029","kana_pref":"ｵｵｻｶﾌ","kana_city":"ｵｵｻｶｼｷﾀｸ","kana_address":"ｵｵﾖﾄﾞﾅｶｳﾒﾀﾞｽｶｲﾋﾞﾙﾀﾜｰｲｰｽﾄ","pref":"大阪府","city":"大阪市北区","address":"大淀中梅田スカイビルタワーイースト"},
{"zip_code":"5316030","kana_pref":"ｵｵｻｶﾌ","kana_city":"ｵｵｻｶｼｷﾀｸ","kana_address":"ｵｵﾖﾄﾞﾅｶｳﾒﾀﾞｽｶｲﾋﾞﾙﾀﾜｰｲｰｽﾄ","pref":"大阪府","city":"大阪市北区","address":"大淀中梅田スカイビルタワーイースト"},
{"zip_code":"5316031","kana_pref":"ｵｵｻｶﾌ","kana_city":"ｵｵｻｶｼｷﾀｸ","kana_address":"ｵｵﾖﾄﾞﾅｶｳﾒﾀﾞｽｶｲﾋﾞﾙﾀﾜｰｲｰｽﾄ","pref":"大阪府","city":"大阪市北区","address":"大淀中梅田スカイビルタワーイースト"},
{"zip_code":"5316032","kana_pref":"ｵｵｻｶﾌ","kana_city":"ｵｵｻｶｼｷﾀｸ","kana_address":"ｵｵﾖﾄﾞﾅｶｳﾒﾀﾞｽｶｲﾋﾞﾙﾀﾜｰｲｰｽﾄ","pref":"大阪府","city":"大阪市北区","address":"大淀中梅田スカイビルタワーイースト"},
{"zip_code":"5316033","kana_pref":"ｵｵｻｶﾌ","kana_city":"ｵｵｻｶｼｷﾀｸ","kana_address":"ｵｵﾖﾄﾞﾅｶｳﾒﾀﾞｽｶｲﾋﾞﾙﾀﾜｰｲｰｽﾄ","pref":"大阪府","city":"大阪市北区","address":"大淀中梅田スカイビルタワーイースト"},
{"zip_code":"5316034","kana_pref":"ｵｵｻｶﾌ","kana_city":"ｵｵｻｶｼｷﾀｸ","kana_address":"ｵｵﾖﾄﾞﾅｶｳﾒﾀﾞｽｶｲﾋﾞﾙﾀﾜｰｲｰｽﾄ","pref":"大阪府","city":"大阪市北区","address":"大淀中梅田スカイビルタワーイースト"},
{"zip_code":"5316035","kana_pref":"ｵｵｻｶﾌ","kana_city":"ｵｵｻｶｼｷﾀｸ","kana_address":"ｵｵﾖﾄﾞﾅｶｳﾒﾀﾞｽｶｲﾋﾞﾙﾀﾜｰｲｰｽﾄ","pref":"大阪府","city":"大阪市北区","address":"大淀中梅田スカイビルタワーイースト"},
{"zip_code":"5316036","kana_pref":"ｵｵｻｶﾌ","kana_city":"ｵｵｻｶｼｷﾀｸ","kana_address":"ｵｵﾖﾄﾞﾅｶｳﾒﾀﾞｽｶｲﾋﾞﾙﾀﾜｰｲｰｽﾄ","pref":"大阪府","city":"大阪市北区","address":"大淀中梅田スカイビルタワーイースト"},
{"zip_code":"5316037","kana_pref":"ｵｵｻｶﾌ","kana_city":"ｵｵｻｶｼｷﾀｸ","kana_address":"ｵｵﾖﾄﾞﾅｶｳﾒﾀﾞｽｶｲﾋﾞﾙﾀﾜｰｲｰｽﾄ","pref":"大阪府","city":"大阪市北区","address":"大淀中梅田スカイビルタワーイースト"},
{"zip_code":"5316038","kana_pref":"ｵｵｻｶﾌ","kana_city":"ｵｵｻｶｼｷﾀｸ","kana_address":"ｵｵﾖﾄﾞﾅｶｳﾒﾀﾞｽｶｲﾋﾞﾙﾀﾜｰｲｰｽﾄ","pref":"大阪府","city":"大阪市北区","address":"大淀中梅田スカイビルタワーイースト"},
{"zip_code":"5316039","kana_pref":"ｵｵｻｶﾌ","kana_city":"ｵｵｻｶｼｷﾀｸ","kana_address":"ｵｵﾖﾄﾞﾅｶｳﾒﾀﾞｽｶｲﾋﾞﾙﾀﾜｰｲｰｽﾄ","pref":"大阪府","city":"大阪市北区","address":"大淀中梅田スカイビルタワーイースト"},
{"zip_code":"5316190","kana_pref":"ｵｵｻｶﾌ","kana_city":"ｵｵｻｶｼｷﾀｸ","kana_address":"ｵｵﾖﾄﾞﾅｶｳﾒﾀﾞｽｶｲﾋﾞﾙﾀﾜｰｳｴｽﾄ","pref":"大阪府","city":"大阪市北区","address":"大淀中梅田スカイビルタワーウエスト"},
{"zip_code":"5316101","kana_pref":"ｵｵｻｶﾌ","kana_city":"ｵｵｻｶｼｷﾀｸ","kana_address":"ｵｵﾖﾄﾞﾅｶｳﾒﾀﾞｽｶｲﾋﾞﾙﾀﾜｰｳｴｽﾄ","pref":"大阪府","city":"大阪市北区","address":"大淀中梅田スカイビルタワーウエスト"},
{"zip_code":"5316102","kana_pref":"ｵｵｻｶﾌ","kana_city":"ｵｵｻｶｼｷﾀｸ","kana_address":"ｵｵﾖﾄﾞﾅｶｳﾒﾀﾞｽｶｲﾋﾞﾙﾀﾜｰｳｴｽﾄ","pref":"大阪府","city":"大阪市北区","address":"大淀中梅田スカイビルタワーウエスト"},
{"zip_code":"5316103","kana_pref":"ｵｵｻｶﾌ","kana_city":"ｵｵｻｶｼｷﾀｸ","kana_address":"ｵｵﾖﾄﾞﾅｶｳﾒﾀﾞｽｶｲﾋﾞﾙﾀﾜｰｳｴｽﾄ","pref":"大阪府","city":"大阪市北区","address":"大淀中梅田スカイビルタワーウエスト"},
{"zip_code":"5316104","kana_pref":"ｵｵｻｶﾌ","kana_city":"ｵｵｻｶｼｷﾀｸ","kana_address":"ｵｵﾖﾄﾞﾅｶｳﾒﾀﾞｽｶｲﾋﾞﾙﾀﾜｰｳｴｽﾄ","pref":"大阪府","city":"大阪市北区","address":"大淀中梅田スカイビルタワーウエスト"},
{"zip_code":"5316105","kana_pref":"ｵｵｻｶﾌ","kana_city":"ｵｵｻｶｼｷﾀｸ","kana_address":"ｵｵﾖﾄﾞﾅｶｳﾒﾀﾞｽｶｲﾋﾞﾙﾀﾜｰｳｴｽﾄ","pref":"大阪府","city":"大阪市北区","address":"大淀中梅田スカイビルタワーウエスト"},
{"zip_code":"5316106","kana_pref":"ｵｵｻｶﾌ","kana_city":"ｵｵｻｶｼｷﾀｸ","kana_address":"ｵｵﾖﾄﾞﾅｶｳﾒﾀﾞｽｶｲﾋﾞﾙﾀﾜｰｳｴｽﾄ","pref":"大阪府","city":"大阪市北区","address":"大淀中梅田スカイビルタワーウエスト"},
{"zip_code":"5316107","kana_pref":"ｵｵｻｶﾌ","kana_city":"ｵｵｻｶｼｷﾀｸ","kana_address":"ｵｵﾖﾄﾞﾅｶｳﾒﾀﾞｽｶｲﾋﾞﾙﾀﾜｰｳｴｽﾄ","pref":"大阪府","city":"大阪市北区","address":"大淀中梅田スカイビルタワーウエスト"},
{"zip_code":"5316108","kana_pref":"ｵｵｻｶﾌ","kana_city":"ｵｵｻｶｼｷﾀｸ","kana_address":"ｵｵﾖﾄﾞﾅｶｳﾒﾀﾞｽｶｲﾋﾞﾙﾀﾜｰｳｴｽﾄ","pref":"大阪府","city":"大阪市北区","address":"大淀中梅田スカイビルタワーウエスト"},
{"zip_code":"5316109","kana_pref":"ｵｵｻｶﾌ","kana_city":"ｵｵｻｶｼｷﾀｸ","kana_address":"ｵｵﾖﾄﾞﾅｶｳﾒﾀﾞｽｶｲﾋﾞﾙﾀﾜｰｳｴｽﾄ","pref":"大阪府","city":"大阪市北区","address":"大淀中梅田スカイビルタワーウエスト"},
{"zip_code":"5316110","kana_pref":"ｵｵｻｶﾌ","kana_city":"ｵｵｻｶｼｷﾀｸ","kana_address":"ｵｵﾖﾄﾞﾅｶｳﾒﾀﾞｽｶｲﾋﾞﾙﾀﾜｰｳｴｽﾄ","pref":"大阪府","city":"大阪市北区","address":"大淀中梅田スカイビルタワーウエスト"},
{"zip_code":"5316111","kana_pref":"ｵｵｻｶﾌ","kana_city":"ｵｵｻｶｼｷﾀｸ","kana_address":"ｵｵﾖﾄﾞﾅｶｳﾒﾀﾞｽｶｲﾋﾞﾙﾀﾜｰｳｴｽﾄ","pref":"大阪府","city":"大阪市北区","address":"大淀中梅田スカイビルタワーウエスト"},
{"zip_code":"5316112","kana_pref":"ｵｵｻｶﾌ","kana_city":"ｵｵｻｶｼｷﾀｸ","kana_address":"ｵｵﾖﾄﾞﾅｶｳﾒﾀﾞｽｶｲﾋﾞﾙﾀﾜｰｳｴｽﾄ","pref":"大阪府","city":"大阪市北区","address":"大淀中梅田スカイビルタワーウエスト"},
{"zip_code":"5316113","kana_pref":"ｵｵｻｶﾌ","kana_city":"ｵｵｻｶｼｷﾀｸ","kana_address":"ｵｵﾖﾄﾞﾅｶｳﾒﾀﾞｽｶｲﾋﾞﾙﾀﾜｰｳｴｽﾄ","pref":"大阪府","city":"大阪市北区","address":"大淀中梅田スカイビルタワーウエスト"},
{"zip_code":"5316114","kana_pref":"ｵｵｻｶﾌ","kana_city":"ｵｵｻｶｼｷﾀｸ","kana_address":"ｵｵﾖﾄﾞﾅｶｳﾒﾀﾞｽｶｲﾋﾞﾙﾀﾜｰｳｴｽﾄ","pref":"大阪府","city":"大阪市北区","address":"大淀中梅田スカイビルタワーウエスト"},
{"zip_code":"5316115","kana_pref":"ｵｵｻｶﾌ","kana_city":"ｵｵｻｶｼｷﾀｸ","kana_address":"ｵｵﾖﾄﾞﾅｶｳﾒﾀﾞｽｶｲﾋﾞﾙﾀﾜｰｳｴｽﾄ","pref":"大阪府","city":"大阪市北区","address":"大淀中梅田スカイビルタワーウエスト"},
{"zip_code":"5316116","kana_pref":"ｵｵｻｶﾌ","kana_city":"ｵｵｻｶｼｷﾀｸ","kana_address":"ｵｵﾖﾄﾞﾅｶｳﾒﾀﾞｽｶｲﾋﾞﾙﾀﾜｰｳｴｽﾄ","pref":"大阪府","city":"大阪市北区","address":"大淀中梅田スカイビルタワーウエスト"},
{"zip_code":"5316117","kana_pref":"ｵｵｻｶﾌ","kana_city":"ｵｵｻｶｼｷﾀｸ","kana_address":"ｵｵﾖﾄﾞﾅｶｳﾒﾀﾞｽｶｲﾋﾞﾙﾀﾜｰｳｴｽﾄ","pref":"大阪府","city":"大阪市北区","address":"大淀中梅田スカイビルタワーウエスト"},
{"zip_code":"5316118","kana_pref":"ｵｵｻｶﾌ","kana_city":"ｵｵｻｶｼｷﾀｸ","kana_address":"ｵｵﾖﾄﾞﾅｶｳﾒﾀﾞｽｶｲﾋﾞﾙﾀﾜｰｳｴｽﾄ","pref":"大阪府","city":"大阪市北区","address":"大淀中梅田スカイビルタワーウエスト"},
{"zip_code":"5316119","kana_pref":"ｵｵｻｶﾌ","kana_city":"ｵｵｻｶｼｷﾀｸ","kana_address":"ｵｵﾖﾄﾞﾅｶｳﾒﾀﾞｽｶｲﾋﾞﾙﾀﾜｰｳｴｽﾄ","pref":"大阪府","city":"大阪市北区","address":"大淀中梅田スカイビルタワーウエスト"},
{"zip_code":"5316120","kana_pref":"ｵｵｻｶﾌ","kana_city":"ｵｵｻｶｼｷﾀｸ","kana_address":"ｵｵﾖﾄﾞﾅｶｳﾒﾀﾞｽｶｲﾋﾞﾙﾀﾜｰｳｴｽﾄ","pref":"大阪府","city":"大阪市北区","address":"大淀中梅田スカイビルタワーウエスト"},
{"zip_code":"5316121","kana_pref":"ｵｵｻｶﾌ","kana_city":"ｵｵｻｶｼｷﾀｸ","kana_address":"ｵｵﾖﾄﾞﾅｶｳﾒﾀﾞｽｶｲﾋﾞﾙﾀﾜｰｳｴｽﾄ","pref":"大阪府","city":"大阪市北区","address":"大淀中梅田スカイビルタワーウエスト"},
{"zip_code":"5316122","kana_pref":"ｵｵｻｶﾌ","kana_city":"ｵｵｻｶｼｷﾀｸ","kana_address":"ｵｵﾖﾄﾞﾅｶｳﾒﾀﾞｽｶｲﾋﾞﾙﾀﾜｰｳｴｽﾄ","pref":"大阪府","city":"大阪市北区","address":"大淀中梅田スカイビルタワーウエスト"},
{"zip_code":"5316123","kana_pref":"ｵｵｻｶﾌ","kana_city":"ｵｵｻｶｼｷﾀｸ","kana_address":"ｵｵﾖﾄﾞﾅｶｳﾒﾀﾞｽｶｲﾋﾞﾙﾀﾜｰｳｴｽﾄ","pref":"大阪府","city":"大阪市北区","address":"大淀中梅田スカイビルタワーウエスト"},
{"zip_code":"5316124","kana_pref":"ｵｵｻｶﾌ","kana_city":"ｵｵｻｶｼｷﾀｸ","kana_address":"ｵｵﾖﾄﾞﾅｶｳﾒﾀﾞｽｶｲﾋﾞﾙﾀﾜｰｳｴｽﾄ","pref":"大阪府","city":"大阪市北区","address":"大淀中梅田スカイビルタワーウエスト"},
{"zip_code":"5316125","kana_pref":"ｵｵｻｶﾌ","kana_city":"ｵｵｻｶｼｷﾀｸ","kana_address":"ｵｵﾖﾄﾞﾅｶｳﾒﾀﾞｽｶｲﾋﾞﾙﾀﾜｰｳｴｽﾄ","pref":"大阪府","city":"大阪市北区","address":"大淀中梅田スカイビルタワーウエスト"},
{"zip_code":"5316126","kana_pref":"ｵｵｻｶﾌ","kana_city":"ｵｵｻｶｼｷﾀｸ","kana_address":"ｵｵﾖﾄﾞﾅｶｳﾒﾀﾞｽｶｲﾋﾞﾙﾀﾜｰｳｴｽﾄ","pref":"大阪府","city":"大阪市北区","address":"大淀中梅田スカイビルタワーウエスト"},
{"zip_code":"5316127","kana_pref":"ｵｵｻｶﾌ","kana_city":"ｵｵｻｶｼｷﾀｸ","kana_address":"ｵｵﾖﾄﾞﾅｶｳﾒﾀﾞｽｶｲﾋﾞﾙﾀﾜｰｳｴｽﾄ","pref":"大阪府","city":"大阪市北区","address":"大淀中梅田スカイビルタワーウエスト"},
{"zip_code":"5316128","kana_pref":"ｵｵｻｶﾌ","kana_city":"ｵｵｻｶｼｷﾀｸ","kana_address":"ｵｵﾖﾄﾞﾅｶｳﾒﾀﾞｽｶｲﾋﾞﾙﾀﾜｰｳｴｽﾄ","pref":"大阪府","city":"大阪市北区","address":"大淀中梅田スカイビルタワーウエスト"},
{"zip_code":"5316129","kana_pref":"ｵｵｻｶﾌ","kana_city":"ｵｵｻｶｼｷﾀｸ","kana_address":"ｵｵﾖﾄﾞﾅｶｳﾒﾀﾞｽｶｲﾋﾞﾙﾀﾜｰｳｴｽﾄ","pref":"大阪府","city":"大阪市北区","address":"大淀中梅田スカイビルタワーウエスト"},
{"zip_code":"5316130","kana_pref":"ｵｵｻｶﾌ","kana_city":"ｵｵｻｶｼｷﾀｸ","kana_address":"ｵｵﾖﾄﾞﾅｶｳﾒﾀﾞｽｶｲﾋﾞﾙﾀﾜｰｳｴｽﾄ","pref":"大阪府","city":"大阪市北区","address":"大淀中梅田スカイビルタワーウエスト"},
{"zip_code":"5316131","kana_pref":"ｵｵｻｶﾌ","kana_city":"ｵｵｻｶｼｷﾀｸ","kana_address":"ｵｵﾖﾄﾞﾅｶｳﾒﾀﾞｽｶｲﾋﾞﾙﾀﾜｰｳｴｽﾄ","pref":"大阪府","city":"大阪市北区","address":"大淀中梅田スカイビルタワーウエスト"},
{"zip_code":"5316132","kana_pref":"ｵｵｻｶﾌ","kana_city":"ｵｵｻｶｼｷﾀｸ","kana_address":"ｵｵﾖﾄﾞﾅｶｳﾒﾀﾞｽｶｲﾋﾞﾙﾀﾜｰｳｴｽﾄ","pref":"大阪府","city":"大阪市北区","address":"大淀中梅田スカイビルタワーウエスト"},
{"zip_code":"5316133","kana_pref":"ｵｵｻｶﾌ","kana_city":"ｵｵｻｶｼｷﾀｸ","kana_address":"ｵｵﾖﾄﾞﾅｶｳﾒﾀﾞｽｶｲﾋﾞﾙﾀﾜｰｳｴｽﾄ","pref":"大阪府","city":"大阪市北区","address":"大淀中梅田スカイビルタワーウエスト"},
{"zip_code":"5316134","kana_pref":"ｵｵｻｶﾌ","kana_city":"ｵｵｻｶｼｷﾀｸ","kana_address":"ｵｵﾖﾄﾞﾅｶｳﾒﾀﾞｽｶｲﾋﾞﾙﾀﾜｰｳｴｽﾄ","pref":"大阪府","city":"大阪市北区","address":"大淀中梅田スカイビルタワーウエスト"},
{"zip_code":"5316135","kana_pref":"ｵｵｻｶﾌ","kana_city":"ｵｵｻｶｼｷﾀｸ","kana_address":"ｵｵﾖﾄﾞﾅｶｳﾒﾀﾞｽｶｲﾋﾞﾙﾀﾜｰｳｴｽﾄ","pref":"大阪府","city":"大阪市北区","address":"大淀中梅田スカイビルタワーウエスト"},
{"zip_code":"5316136","kana_pref":"ｵｵｻｶﾌ","kana_city":"ｵｵｻｶｼｷﾀｸ","kana_address":"ｵｵﾖﾄﾞﾅｶｳﾒﾀﾞｽｶｲﾋﾞﾙﾀﾜｰｳｴｽﾄ","pref":"大阪府","city":"大阪市北区","address":"大淀中梅田スカイビルタワーウエスト"},
{"zip_code":"5316137","kana_pref":"ｵｵｻｶﾌ","kana_city":"ｵｵｻｶｼｷﾀｸ","kana_address":"ｵｵﾖﾄﾞﾅｶｳﾒﾀﾞｽｶｲﾋﾞﾙﾀﾜｰｳｴｽﾄ","pref":"大阪府","city":"大阪市北区","address":"大淀中梅田スカイビルタワーウエスト"},
{"zip_code":"5316138","kana_pref":"ｵｵｻｶﾌ","kana_city":"ｵｵｻｶｼｷﾀｸ","kana_address":"ｵｵﾖﾄﾞﾅｶｳﾒﾀﾞｽｶｲﾋﾞﾙﾀﾜｰｳｴｽﾄ","pref":"大阪府","city":"大阪市北区","address":"大淀中梅田スカイビルタワーウエスト"},
{"zip_code":"5316139","kana_pref":"ｵｵｻｶﾌ","kana_city":"ｵｵｻｶｼｷﾀｸ","kana_address":"ｵｵﾖﾄﾞﾅｶｳﾒﾀﾞｽｶｲﾋﾞﾙﾀﾜｰｳｴｽﾄ","pref":"大阪府","city":"大阪市北区","address":"大淀中梅田スカイビルタワーウエスト"},
{"zip_code":"5310075","kana_pref":"ｵｵｻｶﾌ","kana_city":"ｵｵｻｶｼｷﾀｸ","kana_address":"ｵｵﾖﾄﾞﾐﾅﾐ","pref":"大阪府","city":"大阪市北区","address":"大淀南"},
{"zip_code":"5310077","kana_pref":"ｵｵｻｶﾌ","kana_city":"ｵｵｻｶｼｷﾀｸ","kana_address":"ｵｵﾖﾄﾞｷﾀ","pref":"大阪府","city":"大阪市北区","address":"大淀北"},
{"zip_code":"5310064","kana_pref":"ｵｵｻｶﾌ","kana_city":"ｵｵｻｶｼｷﾀｸ","kana_address":"ｺｸﾌﾞﾝｼﾞ","pref":"大阪府","city":"大阪市北区","address":"国分寺"},
{"zip_code":"5310041","kana_pref":"ｵｵｻｶﾌ","kana_city":"ｵｵｻｶｼｷﾀｸ","kana_address":"ﾃﾝｼﾞﾝﾊﾞｼ","pref":"大阪府","city":"大阪市北区","address":"天神橋"},
{"zip_code":"5310072","kana_pref":"ｵｵｻｶﾌ","kana_city":"ｵｵｻｶｼｷﾀｸ","kana_address":"ﾄﾖｻｷ","pref":"大阪府","city":"大阪市北区","address":"豊崎"},
{"zip_code":"5310071","kana_pref":"ｵｵｻｶﾌ","kana_city":"ｵｵｻｶｼｷﾀｸ","kana_address":"ﾅｶﾂ","pref":"大阪府","city":"大阪市北区","address":"中津"},
{"zip_code":"5310062","kana_pref":"ｵｵｻｶﾌ","kana_city":"ｵｵｻｶｼｷﾀｸ","kana_address":"ﾅｶﾞﾗﾅｶ","pref":"大阪府","city":"大阪市北区","address":"長柄中"},
{"zip_code":"5310063","kana_pref":"ｵｵｻｶﾌ","kana_city":"ｵｵｻｶｼｷﾀｸ","kana_address":"ﾅｶﾞﾗﾋｶﾞｼ","pref":"大阪府","city":"大阪市北区","address":"長柄東"},
{"zip_code":"5310061","kana_pref":"ｵｵｻｶﾌ","kana_city":"ｵｵｻｶｼｷﾀｸ","kana_address":"ﾅｶﾞﾗﾆｼ","pref":"大阪府","city":"大阪市北区","address":"長柄西"},
{"zip_code":"5310074","kana_pref":"ｵｵｻｶﾌ","kana_city":"ｵｵｻｶｼｷﾀｸ","kana_address":"ﾎﾝｼﾞｮｳﾋｶﾞｼ","pref":"大阪府","city":"大阪市北区","address":"本庄東"},
{"zip_code":"5310073","kana_pref":"ｵｵｻｶﾌ","kana_city":"ｵｵｻｶｼｷﾀｸ","kana_address":"ﾎﾝｼﾞｮｳﾆｼ","pref":"大阪府","city":"大阪市北区","address":"本庄西"}]}