{"zip_code":[
{"zip_code":"5320000","kana_pref":"ｵｵｻｶﾌ","kana_city":"ｵｵｻｶｼﾖﾄﾞｶﾞﾜｸ","kana_address":"","pref":"大阪府","city":"大阪市淀川区","address":""},
{"zip_code":"5320031","kana_pref":"ｵｵｻｶﾌ","kana_city":"ｵｵｻｶｼﾖﾄﾞｶﾞﾜｸ","kana_address":"ｶｼﾏ","pref":"大阪府","city":"大阪市淀川区","address":"加島"},
{"zip_code":"5320012","kana_pref":"ｵｵｻｶﾌ","kana_city":"ｵｵｻｶｼﾖﾄﾞｶﾞﾜｸ","kana_address":"ｷｶﾜﾋｶﾞｼ","pref":"大阪府","city":"大阪市淀川区","address":"木川東"},
{"zip_code":"5320013","kana_pref":"ｵｵｻｶﾌ","kana_city":"ｵｵｻｶｼﾖﾄﾞｶﾞﾜｸ","kana_address":"ｷｶﾜﾆｼ","pref":"大阪府","city":"大阪市淀川区","address":"木川西"},
{"zip_code":"5320025","kana_pref":"ｵｵｻｶﾌ","kana_city":"ｵｵｻｶｼﾖﾄﾞｶﾞﾜｸ","kana_address":"ｼﾝｷﾀﾉ","pref":"大阪府","city":"大阪市淀川区","address":"新北野"},
{"zip_code":"5320024","kana_pref":"ｵｵｻｶﾌ","kana_city":"ｵｵｻｶｼﾖﾄﾞｶﾞﾜｸ","kana_address":"ｼﾞｭｳｿｳﾎﾝﾏﾁ","pref":"大阪府","city":"大阪市淀川区","address":"十三本町"},
{"zip_code":"5320028","kana_pref":"ｵｵｻｶﾌ","kana_city":"ｵｵｻｶｼﾖﾄﾞｶﾞﾜｸ","kana_address":"ｼﾞｭｳｿｳﾓﾄｲﾏｻﾞﾄ","pref":"大阪府","city":"大阪市淀川区","address":"十三元今里"},
{"zip_code":"5320023","kana_pref":"ｵｵｻｶﾌ","kana_city":"ｵｵｻｶｼﾖﾄﾞｶﾞﾜｸ","kana_address":"ｼﾞｭｳｿｳﾋｶﾞｼ","pref":"大阪府","city":"大阪市淀川区","address":"十三東"},
{"zip_code":"5320001","kana_pref":"ｵｵｻｶﾌ","kana_city":"ｵｵｻｶｼﾖﾄﾞｶﾞﾜｸ","kana_address":"ｼﾞｭｳﾊﾁｼﾞｮｳ","pref":"大阪府","city":"大阪市淀川区","address":"十八条"},
{"zip_code":"5320027","kana_pref":"ｵｵｻｶﾌ","kana_city":"ｵｵｻｶｼﾖﾄﾞｶﾞﾜｸ","kana_address":"ﾀｶﾞﾜ","pref":"大阪府","city":"大阪市淀川区","address":"田川"},
{"zip_code":"5320021","kana_pref":"ｵｵｻｶﾌ","kana_city":"ｵｵｻｶｼﾖﾄﾞｶﾞﾜｸ","kana_address":"ﾀｶﾞﾜｷﾀ","pref":"大阪府","city":"大阪市淀川区","address":"田川北"},
{"zip_code":"5320026","kana_pref":"ｵｵｻｶﾌ","kana_city":"ｵｵｻｶｼﾖﾄﾞｶﾞﾜｸ","kana_address":"ﾂｶﾓﾄ","pref":"大阪府","city":"大阪市淀川区","address":"塚本"},
{"zip_code":"5320033","kana_pref":"ｵｵｻｶﾌ","kana_city":"ｵｵｻｶｼﾖﾄﾞｶﾞﾜｸ","kana_address":"ﾆｲﾀｶ","pref":"大阪府","city":"大阪市淀川区","address":"新高"},
{"zip_code":"5320011","kana_pref":"ｵｵｻｶﾌ","kana_city":"ｵｵｻｶｼﾖﾄﾞｶﾞﾜｸ","kana_address":"ﾆｼﾅｶｼﾞﾏ","pref":"大阪府","city":"大阪市淀川区","address":"西中島"},
{"zip_code":"5320006","kana_pref":"ｵｵｻｶﾌ","kana_city":"ｵｵｻｶｼﾖﾄﾞｶﾞﾜｸ","kana_address":"ﾆｼﾐｸﾆ","pref":"大阪府","city":"大阪市淀川区","address":"西三国"},
{"zip_code":"5320004","kana_pref":"ｵｵｻｶﾌ","kana_city":"ｵｵｻｶｼﾖﾄﾞｶﾞﾜｸ","kana_address":"ﾆｼﾐﾔﾊﾗ","pref":"大阪府","city":"大阪市淀川区","address":"西宮原"},
{"zip_code":"5320022","kana_pref":"ｵｵｻｶﾌ","kana_city":"ｵｵｻｶｼﾖﾄﾞｶﾞﾜｸ","kana_address":"ﾉﾅｶﾐﾅﾐ","pref":"大阪府","city":"大阪市淀川区","address":"野中南"},
{"zip_code":"5320034","kana_pref":"ｵｵｻｶﾌ","kana_city":"ｵｵｻｶｼﾖﾄﾞｶﾞﾜｸ","kana_address":"ﾉﾅｶｷﾀ","pref":"大阪府","city":"大阪市淀川区","address":"野中北"},
{"zip_code":"5320002","kana_pref":"ｵｵｻｶﾌ","kana_city":"ｵｵｻｶｼﾖﾄﾞｶﾞﾜｸ","kana_address":"ﾋｶﾞｼﾐｸﾆ","pref":"大阪府","city":"大阪市淀川区","address":"東三国"},
{"zip_code":"5320005","kana_pref":"ｵｵｻｶﾌ","kana_city":"ｵｵｻｶｼﾖﾄﾞｶﾞﾜｸ","kana_address":"ﾐｸﾆﾎﾝﾏﾁ","pref":"大阪府","city":"大阪市淀川区","address":"三国本町"},
{"zip_code":"5320036","kana_pref":"ｵｵｻｶﾌ","kana_city":"ｵｵｻｶｼﾖﾄﾞｶﾞﾜｸ","kana_address":"ﾐﾂﾔﾅｶ","pref":"大阪府","city":"大阪市淀川区","address":"三津屋中"},
{"zip_code":"5320035","kana_pref":"ｵｵｻｶﾌ","kana_city":"ｵｵｻｶｼﾖﾄﾞｶﾞﾜｸ","kana_address":"ﾐﾂﾔﾐﾅﾐ","pref":"大阪府","city":"大阪市淀川区","address":"三津屋南"},
{"zip_code":"5320032","kana_pref":"ｵｵｻｶﾌ","kana_city":"ｵｵｻｶｼﾖﾄﾞｶﾞﾜｸ","kana_address":"ﾐﾂﾔｷﾀ","pref":"大阪府","city":"大阪市淀川区","address":"三津屋北"},
{"zip_code":"5320003","kana_pref":"ｵｵｻｶﾌ","kana_city":"ｵｵｻｶｼﾖﾄﾞｶﾞﾜｸ","kana_address":"ﾐﾔﾊﾗ","pref":"大阪府","city":"大阪市淀川区","address":"宮原"}]}