{"zip_code":[
{"zip_code":"5340000","kana_pref":"ｵｵｻｶﾌ","kana_city":"ｵｵｻｶｼﾐﾔｺｼﾞﾏｸ","kana_address":"","pref":"大阪府","city":"大阪市都島区","address":""},
{"zip_code":"5340026","kana_pref":"ｵｵｻｶﾌ","kana_city":"ｵｵｻｶｼﾐﾔｺｼﾞﾏｸ","kana_address":"ｱﾐｼﾞﾏﾁｮｳ","pref":"大阪府","city":"大阪市都島区","address":"網島町"},
{"zip_code":"5340013","kana_pref":"ｵｵｻｶﾌ","kana_city":"ｵｵｻｶｼﾐﾔｺｼﾞﾏｸ","kana_address":"ｳﾁﾝﾀﾞｲﾁｮｳ","pref":"大阪府","city":"大阪市都島区","address":"内代町"},
{"zip_code":"5340025","kana_pref":"ｵｵｻｶﾌ","kana_city":"ｵｵｻｶｼﾐﾔｺｼﾞﾏｸ","kana_address":"ｶﾀﾏﾁ","pref":"大阪府","city":"大阪市都島区","address":"片町"},
{"zip_code":"5340001","kana_pref":"ｵｵｻｶﾌ","kana_city":"ｵｵｻｶｼﾐﾔｺｼﾞﾏｸ","kana_address":"ｹﾏﾁｮｳ","pref":"大阪府","city":"大阪市都島区","address":"毛馬町"},
{"zip_code":"5340015","kana_pref":"ｵｵｻｶﾌ","kana_city":"ｵｵｻｶｼﾐﾔｺｼﾞﾏｸ","kana_address":"ｾﾞﾝｹﾞﾝｼﾞﾁｮｳ","pref":"大阪府","city":"大阪市都島区","address":"善源寺町"},
{"zip_code":"5340002","kana_pref":"ｵｵｻｶﾌ","kana_city":"ｵｵｻｶｼﾐﾔｺｼﾞﾏｸ","kana_address":"ﾀﾞｲﾄｳﾁｮｳ","pref":"大阪府","city":"大阪市都島区","address":"大東町"},
{"zip_code":"5340011","kana_pref":"ｵｵｻｶﾌ","kana_city":"ｵｵｻｶｼﾐﾔｺｼﾞﾏｸ","kana_address":"ﾀｶｸﾗﾁｮｳ","pref":"大阪府","city":"大阪市都島区","address":"高倉町"},
{"zip_code":"5340016","kana_pref":"ｵｵｻｶﾌ","kana_city":"ｵｵｻｶｼﾐﾔｺｼﾞﾏｸ","kana_address":"ﾄﾓﾌﾞﾁﾁｮｳ","pref":"大阪府","city":"大阪市都島区","address":"友渕町"},
{"zip_code":"5340027","kana_pref":"ｵｵｻｶﾌ","kana_city":"ｵｵｻｶｼﾐﾔｺｼﾞﾏｸ","kana_address":"ﾅｶﾉﾁｮｳ","pref":"大阪府","city":"大阪市都島区","address":"中野町"},
{"zip_code":"5340024","kana_pref":"ｵｵｻｶﾌ","kana_city":"ｵｵｻｶｼﾐﾔｺｼﾞﾏｸ","kana_address":"ﾋｶﾞｼﾉﾀﾞﾏﾁ","pref":"大阪府","city":"大阪市都島区","address":"東野田町"},
{"zip_code":"5340022","kana_pref":"ｵｵｻｶﾌ","kana_city":"ｵｵｻｶｼﾐﾔｺｼﾞﾏｸ","kana_address":"ﾐﾔｺｼﾞﾏﾅｶﾄﾞｵﾘ","pref":"大阪府","city":"大阪市都島区","address":"都島中通"},
{"zip_code":"5340021","kana_pref":"ｵｵｻｶﾌ","kana_city":"ｵｵｻｶｼﾐﾔｺｼﾞﾏｸ","kana_address":"ﾐﾔｺｼﾞﾏﾎﾝﾄﾞｵﾘ","pref":"大阪府","city":"大阪市都島区","address":"都島本通"},
{"zip_code":"5340023","kana_pref":"ｵｵｻｶﾌ","kana_city":"ｵｵｻｶｼﾐﾔｺｼﾞﾏｸ","kana_address":"ﾐﾔｺｼﾞﾏﾐﾅﾐﾄﾞｵﾘ","pref":"大阪府","city":"大阪市都島区","address":"都島南通"},
{"zip_code":"5340014","kana_pref":"ｵｵｻｶﾌ","kana_city":"ｵｵｻｶｼﾐﾔｺｼﾞﾏｸ","kana_address":"ﾐﾔｺｼﾞﾏｷﾀﾄﾞｵﾘ","pref":"大阪府","city":"大阪市都島区","address":"都島北通"},
{"zip_code":"5340012","kana_pref":"ｵｵｻｶﾌ","kana_city":"ｵｵｻｶｼﾐﾔｺｼﾞﾏｸ","kana_address":"ﾐﾕｷﾁｮｳ","pref":"大阪府","city":"大阪市都島区","address":"御幸町"}]}