{"zip_code":[
{"zip_code":"5360000","kana_pref":"ｵｵｻｶﾌ","kana_city":"ｵｵｻｶｼｼﾞｮｳﾄｳｸ","kana_address":"","pref":"大阪府","city":"大阪市城東区","address":""},
{"zip_code":"5360002","kana_pref":"ｵｵｻｶﾌ","kana_city":"ｵｵｻｶｼｼﾞｮｳﾄｳｸ","kana_address":"ｲﾏﾌｸﾋｶﾞｼ","pref":"大阪府","city":"大阪市城東区","address":"今福東"},
{"zip_code":"5360004","kana_pref":"ｵｵｻｶﾌ","kana_city":"ｵｵｻｶｼｼﾞｮｳﾄｳｸ","kana_address":"ｲﾏﾌｸﾆｼ","pref":"大阪府","city":"大阪市城東区","address":"今福西"},
{"zip_code":"5360003","kana_pref":"ｵｵｻｶﾌ","kana_city":"ｵｵｻｶｼｼﾞｮｳﾄｳｸ","kana_address":"ｲﾏﾌｸﾐﾅﾐ","pref":"大阪府","city":"大阪市城東区","address":"今福南"},
{"zip_code":"5360016","kana_pref":"ｵｵｻｶﾌ","kana_city":"ｵｵｻｶｼｼﾞｮｳﾄｳｸ","kana_address":"ｶﾞﾓｳ","pref":"大阪府","city":"大阪市城東区","address":"蒲生"},
{"zip_code":"5360015","kana_pref":"ｵｵｻｶﾌ","kana_city":"ｵｵｻｶｼｼﾞｮｳﾄｳｸ","kana_address":"ｼｷﾞﾀ","pref":"大阪府","city":"大阪市城東区","address":"新喜多"},
{"zip_code":"5360017","kana_pref":"ｵｵｻｶﾌ","kana_city":"ｵｵｻｶｼｼﾞｮｳﾄｳｸ","kana_address":"ｼｷﾞﾀﾋｶﾞｼ","pref":"大阪府","city":"大阪市城東区","address":"新喜多東"},
{"zip_code":"5360013","kana_pref":"ｵｵｻｶﾌ","kana_city":"ｵｵｻｶｼｼﾞｮｳﾄｳｸ","kana_address":"ｼｷﾞﾉﾋｶﾞｼ","pref":"大阪府","city":"大阪市城東区","address":"鴫野東"},
{"zip_code":"5360014","kana_pref":"ｵｵｻｶﾌ","kana_city":"ｵｵｻｶｼｼﾞｮｳﾄｳｸ","kana_address":"ｼｷﾞﾉﾆｼ","pref":"大阪府","city":"大阪市城東区","address":"鴫野西"},
{"zip_code":"5360021","kana_pref":"ｵｵｻｶﾌ","kana_city":"ｵｵｻｶｼｼﾞｮｳﾄｳｸ","kana_address":"ｽﾜ","pref":"大阪府","city":"大阪市城東区","address":"諏訪"},
{"zip_code":"5360007","kana_pref":"ｵｵｻｶﾌ","kana_city":"ｵｵｻｶｼｼﾞｮｳﾄｳｸ","kana_address":"ｾｲｲｸ","pref":"大阪府","city":"大阪市城東区","address":"成育"},
{"zip_code":"5360008","kana_pref":"ｵｵｻｶﾌ","kana_city":"ｵｵｻｶｼｼﾞｮｳﾄｳｸ","kana_address":"ｾｷﾒ","pref":"大阪府","city":"大阪市城東区","address":"関目"},
{"zip_code":"5360005","kana_pref":"ｵｵｻｶﾌ","kana_city":"ｵｵｻｶｼｼﾞｮｳﾄｳｸ","kana_address":"ﾁｭｳｵｳ","pref":"大阪府","city":"大阪市城東区","address":"中央"},
{"zip_code":"5360012","kana_pref":"ｵｵｻｶﾌ","kana_city":"ｵｵｻｶｼｼﾞｮｳﾄｳｸ","kana_address":"ﾃﾝﾉｳﾃﾞﾝ","pref":"大阪府","city":"大阪市城東区","address":"天王田"},
{"zip_code":"5360024","kana_pref":"ｵｵｻｶﾌ","kana_city":"ｵｵｻｶｼｼﾞｮｳﾄｳｸ","kana_address":"ﾅｶﾊﾏ","pref":"大阪府","city":"大阪市城東区","address":"中浜"},
{"zip_code":"5360022","kana_pref":"ｵｵｻｶﾌ","kana_city":"ｵｵｻｶｼｼﾞｮｳﾄｳｸ","kana_address":"ﾅｶﾞﾀ","pref":"大阪府","city":"大阪市城東区","address":"永田"},
{"zip_code":"5360006","kana_pref":"ｵｵｻｶﾌ","kana_city":"ｵｵｻｶｼｼﾞｮｳﾄｳｸ","kana_address":"ﾉｴ","pref":"大阪府","city":"大阪市城東区","address":"野江"},
{"zip_code":"5360011","kana_pref":"ｵｵｻｶﾌ","kana_city":"ｵｵｻｶｼｼﾞｮｳﾄｳｸ","kana_address":"ﾊﾅﾃﾝﾆｼ","pref":"大阪府","city":"大阪市城東区","address":"放出西"},
{"zip_code":"5360023","kana_pref":"ｵｵｻｶﾌ","kana_city":"ｵｵｻｶｼｼﾞｮｳﾄｳｸ","kana_address":"ﾋｶﾞｼﾅｶﾊﾏ","pref":"大阪府","city":"大阪市城東区","address":"東中浜"},
{"zip_code":"5360001","kana_pref":"ｵｵｻｶﾌ","kana_city":"ｵｵｻｶｼｼﾞｮｳﾄｳｸ","kana_address":"ﾌﾙｲﾁ","pref":"大阪府","city":"大阪市城東区","address":"古市"},
{"zip_code":"5360025","kana_pref":"ｵｵｻｶﾌ","kana_city":"ｵｵｻｶｼｼﾞｮｳﾄｳｸ","kana_address":"ﾓﾘﾉﾐﾔ","pref":"大阪府","city":"大阪市城東区","address":"森之宮"}]}