{"zip_code":[
{"zip_code":"5380000","kana_pref":"ｵｵｻｶﾌ","kana_city":"ｵｵｻｶｼﾂﾙﾐｸ","kana_address":"","pref":"大阪府","city":"大阪市鶴見区","address":""},
{"zip_code":"5380042","kana_pref":"ｵｵｻｶﾌ","kana_city":"ｵｵｻｶｼﾂﾙﾐｸ","kana_address":"ｲﾏﾂﾞﾅｶ","pref":"大阪府","city":"大阪市鶴見区","address":"今津中"},
{"zip_code":"5380043","kana_pref":"ｵｵｻｶﾌ","kana_city":"ｵｵｻｶｼﾂﾙﾐｸ","kana_address":"ｲﾏﾂﾞﾐﾅﾐ","pref":"大阪府","city":"大阪市鶴見区","address":"今津南"},
{"zip_code":"5380041","kana_pref":"ｵｵｻｶﾌ","kana_city":"ｵｵｻｶｼﾂﾙﾐｸ","kana_address":"ｲﾏﾂﾞｷﾀ","pref":"大阪府","city":"大阪市鶴見区","address":"今津北"},
{"zip_code":"5380053","kana_pref":"ｵｵｻｶﾌ","kana_city":"ｵｵｻｶｼﾂﾙﾐｸ","kana_address":"ﾂﾙﾐ","pref":"大阪府","city":"大阪市鶴見区","address":"鶴見"},
{"zip_code":"5380034","kana_pref":"ｵｵｻｶﾌ","kana_city":"ｵｵｻｶｼﾂﾙﾐｸ","kana_address":"ﾄｸｱﾝ","pref":"大阪府","city":"大阪市鶴見区","address":"徳庵"},
{"zip_code":"5380033","kana_pref":"ｵｵｻｶﾌ","kana_city":"ｵｵｻｶｼﾂﾙﾐｸ","kana_address":"ﾅｶﾉﾁｬﾔ","pref":"大阪府","city":"大阪市鶴見区","address":"中茶屋"},
{"zip_code":"5380044","kana_pref":"ｵｵｻｶﾌ","kana_city":"ｵｵｻｶｼﾂﾙﾐｸ","kana_address":"ﾊﾅﾃﾝﾋｶﾞｼ","pref":"大阪府","city":"大阪市鶴見区","address":"放出東"},
{"zip_code":"5380035","kana_pref":"ｵｵｻｶﾌ","kana_city":"ｵｵｻｶｼﾂﾙﾐｸ","kana_address":"ﾊﾏ","pref":"大阪府","city":"大阪市鶴見区","address":"浜"},
{"zip_code":"5380031","kana_pref":"ｵｵｻｶﾌ","kana_city":"ｵｵｻｶｼﾂﾙﾐｸ","kana_address":"ﾏｯﾀｵｵﾐﾔ","pref":"大阪府","city":"大阪市鶴見区","address":"茨田大宮"},
{"zip_code":"5380054","kana_pref":"ｵｵｻｶﾌ","kana_city":"ｵｵｻｶｼﾂﾙﾐｸ","kana_address":"ﾐﾄﾞﾘ","pref":"大阪府","city":"大阪市鶴見区","address":"緑"},
{"zip_code":"5380051","kana_pref":"ｵｵｻｶﾌ","kana_city":"ｵｵｻｶｼﾂﾙﾐｸ","kana_address":"ﾓﾛｸﾁ","pref":"大阪府","city":"大阪市鶴見区","address":"諸口"},
{"zip_code":"5380037","kana_pref":"ｵｵｻｶﾌ","kana_city":"ｵｵｻｶｼﾂﾙﾐｸ","kana_address":"ﾔｹﾉ","pref":"大阪府","city":"大阪市鶴見区","address":"焼野"},
{"zip_code":"5380032","kana_pref":"ｵｵｻｶﾌ","kana_city":"ｵｵｻｶｼﾂﾙﾐｸ","kana_address":"ﾔｽﾀﾞ","pref":"大阪府","city":"大阪市鶴見区","address":"安田"},
{"zip_code":"5380052","kana_pref":"ｵｵｻｶﾌ","kana_city":"ｵｵｻｶｼﾂﾙﾐｸ","kana_address":"ﾖｺﾂﾞﾂﾐ","pref":"大阪府","city":"大阪市鶴見区","address":"横堤"},
{"zip_code":"5380036","kana_pref":"ｵｵｻｶﾌ","kana_city":"ｵｵｻｶｼﾂﾙﾐｸ","kana_address":"ﾘｮｸﾁｺｳｴﾝ","pref":"大阪府","city":"大阪市鶴見区","address":"緑地公園"}]}