{"zip_code":[
{"zip_code":"5400019","kana_pref":"ｵｵｻｶﾌ","kana_city":"ｵｵｻｶｼﾁｭｳｵｳｸ","kana_address":"ｲｽﾞﾐﾏﾁ","pref":"大阪府","city":"大阪市中央区","address":"和泉町"},
{"zip_code":"5400022","kana_pref":"ｵｵｻｶﾌ","kana_city":"ｵｵｻｶｼﾁｭｳｵｳｸ","kana_address":"ｲﾄﾔﾏﾁ","pref":"大阪府","city":"大阪市中央区","address":"糸屋町"},
{"zip_code":"5400005","kana_pref":"ｵｵｻｶﾌ","kana_city":"ｵｵｻｶｼﾁｭｳｵｳｸ","kana_address":"ｳｴﾏﾁ","pref":"大阪府","city":"大阪市中央区","address":"上町"},
{"zip_code":"5400038","kana_pref":"ｵｵｻｶﾌ","kana_city":"ｵｵｻｶｼﾁｭｳｵｳｸ","kana_address":"ｳﾁｱﾜｼﾞﾏﾁ","pref":"大阪府","city":"大阪市中央区","address":"内淡路町"},
{"zip_code":"5400013","kana_pref":"ｵｵｻｶﾌ","kana_city":"ｵｵｻｶｼﾁｭｳｵｳｸ","kana_address":"ｳﾁｷｭｳﾎｳｼﾞﾏﾁ","pref":"大阪府","city":"大阪市中央区","address":"内久宝寺町"},
{"zip_code":"5400037","kana_pref":"ｵｵｻｶﾌ","kana_city":"ｵｵｻｶｼﾁｭｳｵｳｸ","kana_address":"ｳﾁﾋﾗﾉﾏﾁ","pref":"大阪府","city":"大阪市中央区","address":"内平野町"},
{"zip_code":"5400026","kana_pref":"ｵｵｻｶﾌ","kana_city":"ｵｵｻｶｼﾁｭｳｵｳｸ","kana_address":"ｳﾁﾎﾝﾏﾁ","pref":"大阪府","city":"大阪市中央区","address":"内本町"},
{"zip_code":"5400002","kana_pref":"ｵｵｻｶﾌ","kana_city":"ｵｵｻｶｼﾁｭｳｵｳｸ","kana_address":"ｵｵｻｶｼﾞｮｳ","pref":"大阪府","city":"大阪市中央区","address":"大阪城"},
{"zip_code":"5400021","kana_pref":"ｵｵｻｶﾌ","kana_city":"ｵｵｻｶｼﾁｭｳｵｳｸ","kana_address":"ｵｵﾃﾄﾞｵﾘ","pref":"大阪府","city":"大阪市中央区","address":"大手通"},
{"zip_code":"5400008","kana_pref":"ｵｵｻｶﾌ","kana_city":"ｵｵｻｶｼﾁｭｳｵｳｸ","kana_address":"ｵｵﾃﾏｴ","pref":"大阪府","city":"大阪市中央区","address":"大手前"},
{"zip_code":"5400016","kana_pref":"ｵｵｻｶﾌ","kana_city":"ｵｵｻｶｼﾁｭｳｵｳｸ","kana_address":"ｶﾝｻﾞｷﾁｮｳ","pref":"大阪府","city":"大阪市中央区","address":"神崎町"},
{"zip_code":"5400023","kana_pref":"ｵｵｻｶﾌ","kana_city":"ｵｵｻｶｼﾁｭｳｵｳｸ","kana_address":"ｷﾀｼﾝﾏﾁ","pref":"大阪府","city":"大阪市中央区","address":"北新町"},
{"zip_code":"5400031","kana_pref":"ｵｵｻｶﾌ","kana_city":"ｵｵｻｶｼﾁｭｳｵｳｸ","kana_address":"ｷﾀﾊﾏﾋｶﾞｼ","pref":"大阪府","city":"大阪市中央区","address":"北浜東"},
{"zip_code":"5400018","kana_pref":"ｵｵｻｶﾌ","kana_city":"ｵｵｻｶｼﾁｭｳｵｳｸ","kana_address":"ｺｶﾜﾁｮｳ","pref":"大阪府","city":"大阪市中央区","address":"粉川町"},
{"zip_code":"5400033","kana_pref":"ｵｵｻｶﾌ","kana_city":"ｵｵｻｶｼﾁｭｳｵｳｸ","kana_address":"ｺｸﾏﾁ","pref":"大阪府","city":"大阪市中央区","address":"石町"},
{"zip_code":"5400010","kana_pref":"ｵｵｻｶﾌ","kana_city":"ｵｵｻｶｼﾁｭｳｵｳｸ","kana_address":"ｻﾞｲﾓｸﾁｮｳ","pref":"大阪府","city":"大阪市中央区","address":"材木町"},
{"zip_code":"5400034","kana_pref":"ｵｵｻｶﾌ","kana_city":"ｵｵｻｶｼﾁｭｳｵｳｸ","kana_address":"ｼﾏﾏﾁ","pref":"大阪府","city":"大阪市中央区","address":"島町"},
{"zip_code":"5400015","kana_pref":"ｵｵｻｶﾌ","kana_city":"ｵｵｻｶｼﾁｭｳｵｳｸ","kana_address":"ｼﾞｭｳﾆｹﾝﾁｮｳ","pref":"大阪府","city":"大阪市中央区","address":"十二軒町"},
{"zip_code":"5400001","kana_pref":"ｵｵｻｶﾌ","kana_city":"ｵｵｻｶｼﾁｭｳｵｳｸ","kana_address":"ｼﾛﾐ","pref":"大阪府","city":"大阪市中央区","address":"城見"},
{"zip_code":"5406190","kana_pref":"ｵｵｻｶﾌ","kana_city":"ｵｵｻｶｼﾁｭｳｵｳｸ","kana_address":"ｼﾛﾐｴﾑｱｲﾃﾞｨﾀﾜｰ","pref":"大阪府","city":"大阪市中央区","address":"城見ＭＩＤタワー"},
{"zip_code":"5406101","kana_pref":"ｵｵｻｶﾌ","kana_city":"ｵｵｻｶｼﾁｭｳｵｳｸ","kana_address":"ｼﾛﾐｴﾑｱｲﾃﾞｨﾀﾜｰ","pref":"大阪府","city":"大阪市中央区","address":"城見ＭＩＤタワー"},
{"zip_code":"5406102","kana_pref":"ｵｵｻｶﾌ","kana_city":"ｵｵｻｶｼﾁｭｳｵｳｸ","kana_address":"ｼﾛﾐｴﾑｱｲﾃﾞｨﾀﾜｰ","pref":"大阪府","city":"大阪市中央区","address":"城見ＭＩＤタワー"},
{"zip_code":"5406103","kana_pref":"ｵｵｻｶﾌ","kana_city":"ｵｵｻｶｼﾁｭｳｵｳｸ","kana_address":"ｼﾛﾐｴﾑｱｲﾃﾞｨﾀﾜｰ","pref":"大阪府","city":"大阪市中央区","address":"城見ＭＩＤタワー"},
{"zip_code":"5406104","kana_pref":"ｵｵｻｶﾌ","kana_city":"ｵｵｻｶｼﾁｭｳｵｳｸ","kana_address":"ｼﾛﾐｴﾑｱｲﾃﾞｨﾀﾜｰ","pref":"大阪府","city":"大阪市中央区","address":"城見ＭＩＤタワー"},
{"zip_code":"5406105","kana_pref":"ｵｵｻｶﾌ","kana_city":"ｵｵｻｶｼﾁｭｳｵｳｸ","kana_address":"ｼﾛﾐｴﾑｱｲﾃﾞｨﾀﾜｰ","pref":"大阪府","city":"大阪市中央区","address":"城見ＭＩＤタワー"},
{"zip_code":"5406106","kana_pref":"ｵｵｻｶﾌ","kana_city":"ｵｵｻｶｼﾁｭｳｵｳｸ","kana_address":"ｼﾛﾐｴﾑｱｲﾃﾞｨﾀﾜｰ","pref":"大阪府","city":"大阪市中央区","address":"城見ＭＩＤタワー"},
{"zip_code":"5406107","kana_pref":"ｵｵｻｶﾌ","kana_city":"ｵｵｻｶｼﾁｭｳｵｳｸ","kana_address":"ｼﾛﾐｴﾑｱｲﾃﾞｨﾀﾜｰ","pref":"大阪府","city":"大阪市中央区","address":"城見ＭＩＤタワー"},
{"zip_code":"5406108","kana_pref":"ｵｵｻｶﾌ","kana_city":"ｵｵｻｶｼﾁｭｳｵｳｸ","kana_address":"ｼﾛﾐｴﾑｱｲﾃﾞｨﾀﾜｰ","pref":"大阪府","city":"大阪市中央区","address":"城見ＭＩＤタワー"},
{"zip_code":"5406109","kana_pref":"ｵｵｻｶﾌ","kana_city":"ｵｵｻｶｼﾁｭｳｵｳｸ","kana_address":"ｼﾛﾐｴﾑｱｲﾃﾞｨﾀﾜｰ","pref":"大阪府","city":"大阪市中央区","address":"城見ＭＩＤタワー"},
{"zip_code":"5406110","kana_pref":"ｵｵｻｶﾌ","kana_city":"ｵｵｻｶｼﾁｭｳｵｳｸ","kana_address":"ｼﾛﾐｴﾑｱｲﾃﾞｨﾀﾜｰ","pref":"大阪府","city":"大阪市中央区","address":"城見ＭＩＤタワー"},
{"zip_code":"5406111","kana_pref":"ｵｵｻｶﾌ","kana_city":"ｵｵｻｶｼﾁｭｳｵｳｸ","kana_address":"ｼﾛﾐｴﾑｱｲﾃﾞｨﾀﾜｰ","pref":"大阪府","city":"大阪市中央区","address":"城見ＭＩＤタワー"},
{"zip_code":"5406112","kana_pref":"ｵｵｻｶﾌ","kana_city":"ｵｵｻｶｼﾁｭｳｵｳｸ","kana_address":"ｼﾛﾐｴﾑｱｲﾃﾞｨﾀﾜｰ","pref":"大阪府","city":"大阪市中央区","address":"城見ＭＩＤタワー"},
{"zip_code":"5406113","kana_pref":"ｵｵｻｶﾌ","kana_city":"ｵｵｻｶｼﾁｭｳｵｳｸ","kana_address":"ｼﾛﾐｴﾑｱｲﾃﾞｨﾀﾜｰ","pref":"大阪府","city":"大阪市中央区","address":"城見ＭＩＤタワー"},
{"zip_code":"5406114","kana_pref":"ｵｵｻｶﾌ","kana_city":"ｵｵｻｶｼﾁｭｳｵｳｸ","kana_address":"ｼﾛﾐｴﾑｱｲﾃﾞｨﾀﾜｰ","pref":"大阪府","city":"大阪市中央区","address":"城見ＭＩＤタワー"},
{"zip_code":"5406115","kana_pref":"ｵｵｻｶﾌ","kana_city":"ｵｵｻｶｼﾁｭｳｵｳｸ","kana_address":"ｼﾛﾐｴﾑｱｲﾃﾞｨﾀﾜｰ","pref":"大阪府","city":"大阪市中央区","address":"城見ＭＩＤタワー"},
{"zip_code":"5406116","kana_pref":"ｵｵｻｶﾌ","kana_city":"ｵｵｻｶｼﾁｭｳｵｳｸ","kana_address":"ｼﾛﾐｴﾑｱｲﾃﾞｨﾀﾜｰ","pref":"大阪府","city":"大阪市中央区","address":"城見ＭＩＤタワー"},
{"zip_code":"5406117","kana_pref":"ｵｵｻｶﾌ","kana_city":"ｵｵｻｶｼﾁｭｳｵｳｸ","kana_address":"ｼﾛﾐｴﾑｱｲﾃﾞｨﾀﾜｰ","pref":"大阪府","city":"大阪市中央区","address":"城見ＭＩＤタワー"},
{"zip_code":"5406118","kana_pref":"ｵｵｻｶﾌ","kana_city":"ｵｵｻｶｼﾁｭｳｵｳｸ","kana_address":"ｼﾛﾐｴﾑｱｲﾃﾞｨﾀﾜｰ","pref":"大阪府","city":"大阪市中央区","address":"城見ＭＩＤタワー"},
{"zip_code":"5406119","kana_pref":"ｵｵｻｶﾌ","kana_city":"ｵｵｻｶｼﾁｭｳｵｳｸ","kana_address":"ｼﾛﾐｴﾑｱｲﾃﾞｨﾀﾜｰ","pref":"大阪府","city":"大阪市中央区","address":"城見ＭＩＤタワー"},
{"zip_code":"5406120","kana_pref":"ｵｵｻｶﾌ","kana_city":"ｵｵｻｶｼﾁｭｳｵｳｸ","kana_address":"ｼﾛﾐｴﾑｱｲﾃﾞｨﾀﾜｰ","pref":"大阪府","city":"大阪市中央区","address":"城見ＭＩＤタワー"},
{"zip_code":"5406121","kana_pref":"ｵｵｻｶﾌ","kana_city":"ｵｵｻｶｼﾁｭｳｵｳｸ","kana_address":"ｼﾛﾐｴﾑｱｲﾃﾞｨﾀﾜｰ","pref":"大阪府","city":"大阪市中央区","address":"城見ＭＩＤタワー"},
{"zip_code":"5406122","kana_pref":"ｵｵｻｶﾌ","kana_city":"ｵｵｻｶｼﾁｭｳｵｳｸ","kana_address":"ｼﾛﾐｴﾑｱｲﾃﾞｨﾀﾜｰ","pref":"大阪府","city":"大阪市中央区","address":"城見ＭＩＤタワー"},
{"zip_code":"5406123","kana_pref":"ｵｵｻｶﾌ","kana_city":"ｵｵｻｶｼﾁｭｳｵｳｸ","kana_address":"ｼﾛﾐｴﾑｱｲﾃﾞｨﾀﾜｰ","pref":"大阪府","city":"大阪市中央区","address":"城見ＭＩＤタワー"},
{"zip_code":"5406124","kana_pref":"ｵｵｻｶﾌ","kana_city":"ｵｵｻｶｼﾁｭｳｵｳｸ","kana_address":"ｼﾛﾐｴﾑｱｲﾃﾞｨﾀﾜｰ","pref":"大阪府","city":"大阪市中央区","address":"城見ＭＩＤタワー"},
{"zip_code":"5406125","kana_pref":"ｵｵｻｶﾌ","kana_city":"ｵｵｻｶｼﾁｭｳｵｳｸ","kana_address":"ｼﾛﾐｴﾑｱｲﾃﾞｨﾀﾜｰ","pref":"大阪府","city":"大阪市中央区","address":"城見ＭＩＤタワー"},
{"zip_code":"5406126","kana_pref":"ｵｵｻｶﾌ","kana_city":"ｵｵｻｶｼﾁｭｳｵｳｸ","kana_address":"ｼﾛﾐｴﾑｱｲﾃﾞｨﾀﾜｰ","pref":"大阪府","city":"大阪市中央区","address":"城見ＭＩＤタワー"},
{"zip_code":"5406127","kana_pref":"ｵｵｻｶﾌ","kana_city":"ｵｵｻｶｼﾁｭｳｵｳｸ","kana_address":"ｼﾛﾐｴﾑｱｲﾃﾞｨﾀﾜｰ","pref":"大阪府","city":"大阪市中央区","address":"城見ＭＩＤタワー"},
{"zip_code":"5406128","kana_pref":"ｵｵｻｶﾌ","kana_city":"ｵｵｻｶｼﾁｭｳｵｳｸ","kana_address":"ｼﾛﾐｴﾑｱｲﾃﾞｨﾀﾜｰ","pref":"大阪府","city":"大阪市中央区","address":"城見ＭＩＤタワー"},
{"zip_code":"5406129","kana_pref":"ｵｵｻｶﾌ","kana_city":"ｵｵｻｶｼﾁｭｳｵｳｸ","kana_address":"ｼﾛﾐｴﾑｱｲﾃﾞｨﾀﾜｰ","pref":"大阪府","city":"大阪市中央区","address":"城見ＭＩＤタワー"},
{"zip_code":"5406130","kana_pref":"ｵｵｻｶﾌ","kana_city":"ｵｵｻｶｼﾁｭｳｵｳｸ","kana_address":"ｼﾛﾐｴﾑｱｲﾃﾞｨﾀﾜｰ","pref":"大阪府","city":"大阪市中央区","address":"城見ＭＩＤタワー"},
{"zip_code":"5406131","kana_pref":"ｵｵｻｶﾌ","kana_city":"ｵｵｻｶｼﾁｭｳｵｳｸ","kana_address":"ｼﾛﾐｴﾑｱｲﾃﾞｨﾀﾜｰ","pref":"大阪府","city":"大阪市中央区","address":"城見ＭＩＤタワー"},
{"zip_code":"5406132","kana_pref":"ｵｵｻｶﾌ","kana_city":"ｵｵｻｶｼﾁｭｳｵｳｸ","kana_address":"ｼﾛﾐｴﾑｱｲﾃﾞｨﾀﾜｰ","pref":"大阪府","city":"大阪市中央区","address":"城見ＭＩＤタワー"},
{"zip_code":"5406133","kana_pref":"ｵｵｻｶﾌ","kana_city":"ｵｵｻｶｼﾁｭｳｵｳｸ","kana_address":"ｼﾛﾐｴﾑｱｲﾃﾞｨﾀﾜｰ","pref":"大阪府","city":"大阪市中央区","address":"城見ＭＩＤタワー"},
{"zip_code":"5406134","kana_pref":"ｵｵｻｶﾌ","kana_city":"ｵｵｻｶｼﾁｭｳｵｳｸ","kana_address":"ｼﾛﾐｴﾑｱｲﾃﾞｨﾀﾜｰ","pref":"大阪府","city":"大阪市中央区","address":"城見ＭＩＤタワー"},
{"zip_code":"5406135","kana_pref":"ｵｵｻｶﾌ","kana_city":"ｵｵｻｶｼﾁｭｳｵｳｸ","kana_address":"ｼﾛﾐｴﾑｱｲﾃﾞｨﾀﾜｰ","pref":"大阪府","city":"大阪市中央区","address":"城見ＭＩＤタワー"},
{"zip_code":"5406136","kana_pref":"ｵｵｻｶﾌ","kana_city":"ｵｵｻｶｼﾁｭｳｵｳｸ","kana_address":"ｼﾛﾐｴﾑｱｲﾃﾞｨﾀﾜｰ","pref":"大阪府","city":"大阪市中央区","address":"城見ＭＩＤタワー"},
{"zip_code":"5406137","kana_pref":"ｵｵｻｶﾌ","kana_city":"ｵｵｻｶｼﾁｭｳｵｳｸ","kana_address":"ｼﾛﾐｴﾑｱｲﾃﾞｨﾀﾜｰ","pref":"大阪府","city":"大阪市中央区","address":"城見ＭＩＤタワー"},
{"zip_code":"5406138","kana_pref":"ｵｵｻｶﾌ","kana_city":"ｵｵｻｶｼﾁｭｳｵｳｸ","kana_address":"ｼﾛﾐｴﾑｱｲﾃﾞｨﾀﾜｰ","pref":"大阪府","city":"大阪市中央区","address":"城見ＭＩＤタワー"},
{"zip_code":"5406090","kana_pref":"ｵｵｻｶﾌ","kana_city":"ｵｵｻｶｼﾁｭｳｵｳｸ","kana_address":"ｼﾛﾐｸﾘｽﾀﾙﾀﾜｰ","pref":"大阪府","city":"大阪市中央区","address":"城見クリスタルタワー"},
{"zip_code":"5406001","kana_pref":"ｵｵｻｶﾌ","kana_city":"ｵｵｻｶｼﾁｭｳｵｳｸ","kana_address":"ｼﾛﾐｸﾘｽﾀﾙﾀﾜｰ","pref":"大阪府","city":"大阪市中央区","address":"城見クリスタルタワー"},
{"zip_code":"5406002","kana_pref":"ｵｵｻｶﾌ","kana_city":"ｵｵｻｶｼﾁｭｳｵｳｸ","kana_address":"ｼﾛﾐｸﾘｽﾀﾙﾀﾜｰ","pref":"大阪府","city":"大阪市中央区","address":"城見クリスタルタワー"},
{"zip_code":"5406003","kana_pref":"ｵｵｻｶﾌ","kana_city":"ｵｵｻｶｼﾁｭｳｵｳｸ","kana_address":"ｼﾛﾐｸﾘｽﾀﾙﾀﾜｰ","pref":"大阪府","city":"大阪市中央区","address":"城見クリスタルタワー"},
{"zip_code":"5406004","kana_pref":"ｵｵｻｶﾌ","kana_city":"ｵｵｻｶｼﾁｭｳｵｳｸ","kana_address":"ｼﾛﾐｸﾘｽﾀﾙﾀﾜｰ","pref":"大阪府","city":"大阪市中央区","address":"城見クリスタルタワー"},
{"zip_code":"5406005","kana_pref":"ｵｵｻｶﾌ","kana_city":"ｵｵｻｶｼﾁｭｳｵｳｸ","kana_address":"ｼﾛﾐｸﾘｽﾀﾙﾀﾜｰ","pref":"大阪府","city":"大阪市中央区","address":"城見クリスタルタワー"},
{"zip_code":"5406006","kana_pref":"ｵｵｻｶﾌ","kana_city":"ｵｵｻｶｼﾁｭｳｵｳｸ","kana_address":"ｼﾛﾐｸﾘｽﾀﾙﾀﾜｰ","pref":"大阪府","city":"大阪市中央区","address":"城見クリスタルタワー"},
{"zip_code":"5406007","kana_pref":"ｵｵｻｶﾌ","kana_city":"ｵｵｻｶｼﾁｭｳｵｳｸ","kana_address":"ｼﾛﾐｸﾘｽﾀﾙﾀﾜｰ","pref":"大阪府","city":"大阪市中央区","address":"城見クリスタルタワー"},
{"zip_code":"5406008","kana_pref":"ｵｵｻｶﾌ","kana_city":"ｵｵｻｶｼﾁｭｳｵｳｸ","kana_address":"ｼﾛﾐｸﾘｽﾀﾙﾀﾜｰ","pref":"大阪府","city":"大阪市中央区","address":"城見クリスタルタワー"},
{"zip_code":"5406009","kana_pref":"ｵｵｻｶﾌ","kana_city":"ｵｵｻｶｼﾁｭｳｵｳｸ","kana_address":"ｼﾛﾐｸﾘｽﾀﾙﾀﾜｰ","pref":"大阪府","city":"大阪市中央区","address":"城見クリスタルタワー"},
{"zip_code":"5406010","kana_pref":"ｵｵｻｶﾌ","kana_city":"ｵｵｻｶｼﾁｭｳｵｳｸ","kana_address":"ｼﾛﾐｸﾘｽﾀﾙﾀﾜｰ","pref":"大阪府","city":"大阪市中央区","address":"城見クリスタルタワー"},
{"zip_code":"5406011","kana_pref":"ｵｵｻｶﾌ","kana_city":"ｵｵｻｶｼﾁｭｳｵｳｸ","kana_address":"ｼﾛﾐｸﾘｽﾀﾙﾀﾜｰ","pref":"大阪府","city":"大阪市中央区","address":"城見クリスタルタワー"},
{"zip_code":"5406012","kana_pref":"ｵｵｻｶﾌ","kana_city":"ｵｵｻｶｼﾁｭｳｵｳｸ","kana_address":"ｼﾛﾐｸﾘｽﾀﾙﾀﾜｰ","pref":"大阪府","city":"大阪市中央区","address":"城見クリスタルタワー"},
{"zip_code":"5406013","kana_pref":"ｵｵｻｶﾌ","kana_city":"ｵｵｻｶｼﾁｭｳｵｳｸ","kana_address":"ｼﾛﾐｸﾘｽﾀﾙﾀﾜｰ","pref":"大阪府","city":"大阪市中央区","address":"城見クリスタルタワー"},
{"zip_code":"5406014","kana_pref":"ｵｵｻｶﾌ","kana_city":"ｵｵｻｶｼﾁｭｳｵｳｸ","kana_address":"ｼﾛﾐｸﾘｽﾀﾙﾀﾜｰ","pref":"大阪府","city":"大阪市中央区","address":"城見クリスタルタワー"},
{"zip_code":"5406015","kana_pref":"ｵｵｻｶﾌ","kana_city":"ｵｵｻｶｼﾁｭｳｵｳｸ","kana_address":"ｼﾛﾐｸﾘｽﾀﾙﾀﾜｰ","pref":"大阪府","city":"大阪市中央区","address":"城見クリスタルタワー"},
{"zip_code":"5406016","kana_pref":"ｵｵｻｶﾌ","kana_city":"ｵｵｻｶｼﾁｭｳｵｳｸ","kana_address":"ｼﾛﾐｸﾘｽﾀﾙﾀﾜｰ","pref":"大阪府","city":"大阪市中央区","address":"城見クリスタルタワー"},
{"zip_code":"5406017","kana_pref":"ｵｵｻｶﾌ","kana_city":"ｵｵｻｶｼﾁｭｳｵｳｸ","kana_address":"ｼﾛﾐｸﾘｽﾀﾙﾀﾜｰ","pref":"大阪府","city":"大阪市中央区","address":"城見クリスタルタワー"},
{"zip_code":"5406018","kana_pref":"ｵｵｻｶﾌ","kana_city":"ｵｵｻｶｼﾁｭｳｵｳｸ","kana_address":"ｼﾛﾐｸﾘｽﾀﾙﾀﾜｰ","pref":"大阪府","city":"大阪市中央区","address":"城見クリスタルタワー"},
{"zip_code":"5406019","kana_pref":"ｵｵｻｶﾌ","kana_city":"ｵｵｻｶｼﾁｭｳｵｳｸ","kana_address":"ｼﾛﾐｸﾘｽﾀﾙﾀﾜｰ","pref":"大阪府","city":"大阪市中央区","address":"城見クリスタルタワー"},
{"zip_code":"5406020","kana_pref":"ｵｵｻｶﾌ","kana_city":"ｵｵｻｶｼﾁｭｳｵｳｸ","kana_address":"ｼﾛﾐｸﾘｽﾀﾙﾀﾜｰ","pref":"大阪府","city":"大阪市中央区","address":"城見クリスタルタワー"},
{"zip_code":"5406021","kana_pref":"ｵｵｻｶﾌ","kana_city":"ｵｵｻｶｼﾁｭｳｵｳｸ","kana_address":"ｼﾛﾐｸﾘｽﾀﾙﾀﾜｰ","pref":"大阪府","city":"大阪市中央区","address":"城見クリスタルタワー"},
{"zip_code":"5406022","kana_pref":"ｵｵｻｶﾌ","kana_city":"ｵｵｻｶｼﾁｭｳｵｳｸ","kana_address":"ｼﾛﾐｸﾘｽﾀﾙﾀﾜｰ","pref":"大阪府","city":"大阪市中央区","address":"城見クリスタルタワー"},
{"zip_code":"5406023","kana_pref":"ｵｵｻｶﾌ","kana_city":"ｵｵｻｶｼﾁｭｳｵｳｸ","kana_address":"ｼﾛﾐｸﾘｽﾀﾙﾀﾜｰ","pref":"大阪府","city":"大阪市中央区","address":"城見クリスタルタワー"},
{"zip_code":"5406024","kana_pref":"ｵｵｻｶﾌ","kana_city":"ｵｵｻｶｼﾁｭｳｵｳｸ","kana_address":"ｼﾛﾐｸﾘｽﾀﾙﾀﾜｰ","pref":"大阪府","city":"大阪市中央区","address":"城見クリスタルタワー"},
{"zip_code":"5406025","kana_pref":"ｵｵｻｶﾌ","kana_city":"ｵｵｻｶｼﾁｭｳｵｳｸ","kana_address":"ｼﾛﾐｸﾘｽﾀﾙﾀﾜｰ","pref":"大阪府","city":"大阪市中央区","address":"城見クリスタルタワー"},
{"zip_code":"5406026","kana_pref":"ｵｵｻｶﾌ","kana_city":"ｵｵｻｶｼﾁｭｳｵｳｸ","kana_address":"ｼﾛﾐｸﾘｽﾀﾙﾀﾜｰ","pref":"大阪府","city":"大阪市中央区","address":"城見クリスタルタワー"},
{"zip_code":"5406027","kana_pref":"ｵｵｻｶﾌ","kana_city":"ｵｵｻｶｼﾁｭｳｵｳｸ","kana_address":"ｼﾛﾐｸﾘｽﾀﾙﾀﾜｰ","pref":"大阪府","city":"大阪市中央区","address":"城見クリスタルタワー"},
{"zip_code":"5406028","kana_pref":"ｵｵｻｶﾌ","kana_city":"ｵｵｻｶｼﾁｭｳｵｳｸ","kana_address":"ｼﾛﾐｸﾘｽﾀﾙﾀﾜｰ","pref":"大阪府","city":"大阪市中央区","address":"城見クリスタルタワー"},
{"zip_code":"5406029","kana_pref":"ｵｵｻｶﾌ","kana_city":"ｵｵｻｶｼﾁｭｳｵｳｸ","kana_address":"ｼﾛﾐｸﾘｽﾀﾙﾀﾜｰ","pref":"大阪府","city":"大阪市中央区","address":"城見クリスタルタワー"},
{"zip_code":"5406030","kana_pref":"ｵｵｻｶﾌ","kana_city":"ｵｵｻｶｼﾁｭｳｵｳｸ","kana_address":"ｼﾛﾐｸﾘｽﾀﾙﾀﾜｰ","pref":"大阪府","city":"大阪市中央区","address":"城見クリスタルタワー"},
{"zip_code":"5406031","kana_pref":"ｵｵｻｶﾌ","kana_city":"ｵｵｻｶｼﾁｭｳｵｳｸ","kana_address":"ｼﾛﾐｸﾘｽﾀﾙﾀﾜｰ","pref":"大阪府","city":"大阪市中央区","address":"城見クリスタルタワー"},
{"zip_code":"5406032","kana_pref":"ｵｵｻｶﾌ","kana_city":"ｵｵｻｶｼﾁｭｳｵｳｸ","kana_address":"ｼﾛﾐｸﾘｽﾀﾙﾀﾜｰ","pref":"大阪府","city":"大阪市中央区","address":"城見クリスタルタワー"},
{"zip_code":"5406033","kana_pref":"ｵｵｻｶﾌ","kana_city":"ｵｵｻｶｼﾁｭｳｵｳｸ","kana_address":"ｼﾛﾐｸﾘｽﾀﾙﾀﾜｰ","pref":"大阪府","city":"大阪市中央区","address":"城見クリスタルタワー"},
{"zip_code":"5406034","kana_pref":"ｵｵｻｶﾌ","kana_city":"ｵｵｻｶｼﾁｭｳｵｳｸ","kana_address":"ｼﾛﾐｸﾘｽﾀﾙﾀﾜｰ","pref":"大阪府","city":"大阪市中央区","address":"城見クリスタルタワー"},
{"zip_code":"5406035","kana_pref":"ｵｵｻｶﾌ","kana_city":"ｵｵｻｶｼﾁｭｳｵｳｸ","kana_address":"ｼﾛﾐｸﾘｽﾀﾙﾀﾜｰ","pref":"大阪府","city":"大阪市中央区","address":"城見クリスタルタワー"},
{"zip_code":"5406036","kana_pref":"ｵｵｻｶﾌ","kana_city":"ｵｵｻｶｼﾁｭｳｵｳｸ","kana_address":"ｼﾛﾐｸﾘｽﾀﾙﾀﾜｰ","pref":"大阪府","city":"大阪市中央区","address":"城見クリスタルタワー"},
{"zip_code":"5406037","kana_pref":"ｵｵｻｶﾌ","kana_city":"ｵｵｻｶｼﾁｭｳｵｳｸ","kana_address":"ｼﾛﾐｸﾘｽﾀﾙﾀﾜｰ","pref":"大阪府","city":"大阪市中央区","address":"城見クリスタルタワー"},
{"zip_code":"5406290","kana_pref":"ｵｵｻｶﾌ","kana_city":"ｵｵｻｶｼﾁｭｳｵｳｸ","kana_address":"ｼﾛﾐﾊﾟﾅｿﾆｯｸﾀﾜｰ","pref":"大阪府","city":"大阪市中央区","address":"城見パナソニックタワー"},
{"zip_code":"5406201","kana_pref":"ｵｵｻｶﾌ","kana_city":"ｵｵｻｶｼﾁｭｳｵｳｸ","kana_address":"ｼﾛﾐﾊﾟﾅｿﾆｯｸﾀﾜｰ","pref":"大阪府","city":"大阪市中央区","address":"城見パナソニックタワー"},
{"zip_code":"5406202","kana_pref":"ｵｵｻｶﾌ","kana_city":"ｵｵｻｶｼﾁｭｳｵｳｸ","kana_address":"ｼﾛﾐﾊﾟﾅｿﾆｯｸﾀﾜｰ","pref":"大阪府","city":"大阪市中央区","address":"城見パナソニックタワー"},
{"zip_code":"5406203","kana_pref":"ｵｵｻｶﾌ","kana_city":"ｵｵｻｶｼﾁｭｳｵｳｸ","kana_address":"ｼﾛﾐﾊﾟﾅｿﾆｯｸﾀﾜｰ","pref":"大阪府","city":"大阪市中央区","address":"城見パナソニックタワー"},
{"zip_code":"5406204","kana_pref":"ｵｵｻｶﾌ","kana_city":"ｵｵｻｶｼﾁｭｳｵｳｸ","kana_address":"ｼﾛﾐﾊﾟﾅｿﾆｯｸﾀﾜｰ","pref":"大阪府","city":"大阪市中央区","address":"城見パナソニックタワー"},
{"zip_code":"5406205","kana_pref":"ｵｵｻｶﾌ","kana_city":"ｵｵｻｶｼﾁｭｳｵｳｸ","kana_address":"ｼﾛﾐﾊﾟﾅｿﾆｯｸﾀﾜｰ","pref":"大阪府","city":"大阪市中央区","address":"城見パナソニックタワー"},
{"zip_code":"5406206","kana_pref":"ｵｵｻｶﾌ","kana_city":"ｵｵｻｶｼﾁｭｳｵｳｸ","kana_address":"ｼﾛﾐﾊﾟﾅｿﾆｯｸﾀﾜｰ","pref":"大阪府","city":"大阪市中央区","address":"城見パナソニックタワー"},
{"zip_code":"5406207","kana_pref":"ｵｵｻｶﾌ","kana_city":"ｵｵｻｶｼﾁｭｳｵｳｸ","kana_address":"ｼﾛﾐﾊﾟﾅｿﾆｯｸﾀﾜｰ","pref":"大阪府","city":"大阪市中央区","address":"城見パナソニックタワー"},
{"zip_code":"5406208","kana_pref":"ｵｵｻｶﾌ","kana_city":"ｵｵｻｶｼﾁｭｳｵｳｸ","kana_address":"ｼﾛﾐﾊﾟﾅｿﾆｯｸﾀﾜｰ","pref":"大阪府","city":"大阪市中央区","address":"城見パナソニックタワー"},
{"zip_code":"5406209","kana_pref":"ｵｵｻｶﾌ","kana_city":"ｵｵｻｶｼﾁｭｳｵｳｸ","kana_address":"ｼﾛﾐﾊﾟﾅｿﾆｯｸﾀﾜｰ","pref":"大阪府","city":"大阪市中央区","address":"城見パナソニックタワー"},
{"zip_code":"5406210","kana_pref":"ｵｵｻｶﾌ","kana_city":"ｵｵｻｶｼﾁｭｳｵｳｸ","kana_address":"ｼﾛﾐﾊﾟﾅｿﾆｯｸﾀﾜｰ","pref":"大阪府","city":"大阪市中央区","address":"城見パナソニックタワー"},
{"zip_code":"5406211","kana_pref":"ｵｵｻｶﾌ","kana_city":"ｵｵｻｶｼﾁｭｳｵｳｸ","kana_address":"ｼﾛﾐﾊﾟﾅｿﾆｯｸﾀﾜｰ","pref":"大阪府","city":"大阪市中央区","address":"城見パナソニックタワー"},
{"zip_code":"5406212","kana_pref":"ｵｵｻｶﾌ","kana_city":"ｵｵｻｶｼﾁｭｳｵｳｸ","kana_address":"ｼﾛﾐﾊﾟﾅｿﾆｯｸﾀﾜｰ","pref":"大阪府","city":"大阪市中央区","address":"城見パナソニックタワー"},
{"zip_code":"5406213","kana_pref":"ｵｵｻｶﾌ","kana_city":"ｵｵｻｶｼﾁｭｳｵｳｸ","kana_address":"ｼﾛﾐﾊﾟﾅｿﾆｯｸﾀﾜｰ","pref":"大阪府","city":"大阪市中央区","address":"城見パナソニックタワー"},
{"zip_code":"5406214","kana_pref":"ｵｵｻｶﾌ","kana_city":"ｵｵｻｶｼﾁｭｳｵｳｸ","kana_address":"ｼﾛﾐﾊﾟﾅｿﾆｯｸﾀﾜｰ","pref":"大阪府","city":"大阪市中央区","address":"城見パナソニックタワー"},
{"zip_code":"5406215","kana_pref":"ｵｵｻｶﾌ","kana_city":"ｵｵｻｶｼﾁｭｳｵｳｸ","kana_address":"ｼﾛﾐﾊﾟﾅｿﾆｯｸﾀﾜｰ","pref":"大阪府","city":"大阪市中央区","address":"城見パナソニックタワー"},
{"zip_code":"5406216","kana_pref":"ｵｵｻｶﾌ","kana_city":"ｵｵｻｶｼﾁｭｳｵｳｸ","kana_address":"ｼﾛﾐﾊﾟﾅｿﾆｯｸﾀﾜｰ","pref":"大阪府","city":"大阪市中央区","address":"城見パナソニックタワー"},
{"zip_code":"5406217","kana_pref":"ｵｵｻｶﾌ","kana_city":"ｵｵｻｶｼﾁｭｳｵｳｸ","kana_address":"ｼﾛﾐﾊﾟﾅｿﾆｯｸﾀﾜｰ","pref":"大阪府","city":"大阪市中央区","address":"城見パナソニックタワー"},
{"zip_code":"5406218","kana_pref":"ｵｵｻｶﾌ","kana_city":"ｵｵｻｶｼﾁｭｳｵｳｸ","kana_address":"ｼﾛﾐﾊﾟﾅｿﾆｯｸﾀﾜｰ","pref":"大阪府","city":"大阪市中央区","address":"城見パナソニックタワー"},
{"zip_code":"5406219","kana_pref":"ｵｵｻｶﾌ","kana_city":"ｵｵｻｶｼﾁｭｳｵｳｸ","kana_address":"ｼﾛﾐﾊﾟﾅｿﾆｯｸﾀﾜｰ","pref":"大阪府","city":"大阪市中央区","address":"城見パナソニックタワー"},
{"zip_code":"5406220","kana_pref":"ｵｵｻｶﾌ","kana_city":"ｵｵｻｶｼﾁｭｳｵｳｸ","kana_address":"ｼﾛﾐﾊﾟﾅｿﾆｯｸﾀﾜｰ","pref":"大阪府","city":"大阪市中央区","address":"城見パナソニックタワー"},
{"zip_code":"5406221","kana_pref":"ｵｵｻｶﾌ","kana_city":"ｵｵｻｶｼﾁｭｳｵｳｸ","kana_address":"ｼﾛﾐﾊﾟﾅｿﾆｯｸﾀﾜｰ","pref":"大阪府","city":"大阪市中央区","address":"城見パナソニックタワー"},
{"zip_code":"5406222","kana_pref":"ｵｵｻｶﾌ","kana_city":"ｵｵｻｶｼﾁｭｳｵｳｸ","kana_address":"ｼﾛﾐﾊﾟﾅｿﾆｯｸﾀﾜｰ","pref":"大阪府","city":"大阪市中央区","address":"城見パナソニックタワー"},
{"zip_code":"5406223","kana_pref":"ｵｵｻｶﾌ","kana_city":"ｵｵｻｶｼﾁｭｳｵｳｸ","kana_address":"ｼﾛﾐﾊﾟﾅｿﾆｯｸﾀﾜｰ","pref":"大阪府","city":"大阪市中央区","address":"城見パナソニックタワー"},
{"zip_code":"5406224","kana_pref":"ｵｵｻｶﾌ","kana_city":"ｵｵｻｶｼﾁｭｳｵｳｸ","kana_address":"ｼﾛﾐﾊﾟﾅｿﾆｯｸﾀﾜｰ","pref":"大阪府","city":"大阪市中央区","address":"城見パナソニックタワー"},
{"zip_code":"5406225","kana_pref":"ｵｵｻｶﾌ","kana_city":"ｵｵｻｶｼﾁｭｳｵｳｸ","kana_address":"ｼﾛﾐﾊﾟﾅｿﾆｯｸﾀﾜｰ","pref":"大阪府","city":"大阪市中央区","address":"城見パナソニックタワー"},
{"zip_code":"5406226","kana_pref":"ｵｵｻｶﾌ","kana_city":"ｵｵｻｶｼﾁｭｳｵｳｸ","kana_address":"ｼﾛﾐﾊﾟﾅｿﾆｯｸﾀﾜｰ","pref":"大阪府","city":"大阪市中央区","address":"城見パナソニックタワー"},
{"zip_code":"5406227","kana_pref":"ｵｵｻｶﾌ","kana_city":"ｵｵｻｶｼﾁｭｳｵｳｸ","kana_address":"ｼﾛﾐﾊﾟﾅｿﾆｯｸﾀﾜｰ","pref":"大阪府","city":"大阪市中央区","address":"城見パナソニックタワー"},
{"zip_code":"5406228","kana_pref":"ｵｵｻｶﾌ","kana_city":"ｵｵｻｶｼﾁｭｳｵｳｸ","kana_address":"ｼﾛﾐﾊﾟﾅｿﾆｯｸﾀﾜｰ","pref":"大阪府","city":"大阪市中央区","address":"城見パナソニックタワー"},
{"zip_code":"5406229","kana_pref":"ｵｵｻｶﾌ","kana_city":"ｵｵｻｶｼﾁｭｳｵｳｸ","kana_address":"ｼﾛﾐﾊﾟﾅｿﾆｯｸﾀﾜｰ","pref":"大阪府","city":"大阪市中央区","address":"城見パナソニックタワー"},
{"zip_code":"5406230","kana_pref":"ｵｵｻｶﾌ","kana_city":"ｵｵｻｶｼﾁｭｳｵｳｸ","kana_address":"ｼﾛﾐﾊﾟﾅｿﾆｯｸﾀﾜｰ","pref":"大阪府","city":"大阪市中央区","address":"城見パナソニックタワー"},
{"zip_code":"5406231","kana_pref":"ｵｵｻｶﾌ","kana_city":"ｵｵｻｶｼﾁｭｳｵｳｸ","kana_address":"ｼﾛﾐﾊﾟﾅｿﾆｯｸﾀﾜｰ","pref":"大阪府","city":"大阪市中央区","address":"城見パナソニックタワー"},
{"zip_code":"5406232","kana_pref":"ｵｵｻｶﾌ","kana_city":"ｵｵｻｶｼﾁｭｳｵｳｸ","kana_address":"ｼﾛﾐﾊﾟﾅｿﾆｯｸﾀﾜｰ","pref":"大阪府","city":"大阪市中央区","address":"城見パナソニックタワー"},
{"zip_code":"5406233","kana_pref":"ｵｵｻｶﾌ","kana_city":"ｵｵｻｶｼﾁｭｳｵｳｸ","kana_address":"ｼﾛﾐﾊﾟﾅｿﾆｯｸﾀﾜｰ","pref":"大阪府","city":"大阪市中央区","address":"城見パナソニックタワー"},
{"zip_code":"5406234","kana_pref":"ｵｵｻｶﾌ","kana_city":"ｵｵｻｶｼﾁｭｳｵｳｸ","kana_address":"ｼﾛﾐﾊﾟﾅｿﾆｯｸﾀﾜｰ","pref":"大阪府","city":"大阪市中央区","address":"城見パナソニックタワー"},
{"zip_code":"5406235","kana_pref":"ｵｵｻｶﾌ","kana_city":"ｵｵｻｶｼﾁｭｳｵｳｸ","kana_address":"ｼﾛﾐﾊﾟﾅｿﾆｯｸﾀﾜｰ","pref":"大阪府","city":"大阪市中央区","address":"城見パナソニックタワー"},
{"zip_code":"5406236","kana_pref":"ｵｵｻｶﾌ","kana_city":"ｵｵｻｶｼﾁｭｳｵｳｸ","kana_address":"ｼﾛﾐﾊﾟﾅｿﾆｯｸﾀﾜｰ","pref":"大阪府","city":"大阪市中央区","address":"城見パナソニックタワー"},
{"zip_code":"5406237","kana_pref":"ｵｵｻｶﾌ","kana_city":"ｵｵｻｶｼﾁｭｳｵｳｸ","kana_address":"ｼﾛﾐﾊﾟﾅｿﾆｯｸﾀﾜｰ","pref":"大阪府","city":"大阪市中央区","address":"城見パナソニックタワー"},
{"zip_code":"5406238","kana_pref":"ｵｵｻｶﾌ","kana_city":"ｵｵｻｶｼﾁｭｳｵｳｸ","kana_address":"ｼﾛﾐﾊﾟﾅｿﾆｯｸﾀﾜｰ","pref":"大阪府","city":"大阪市中央区","address":"城見パナソニックタワー"},
{"zip_code":"5406390","kana_pref":"ｵｵｻｶﾌ","kana_city":"ｵｵｻｶｼﾁｭｳｵｳｸ","kana_address":"ｼﾛﾐﾏﾂｼﾀｱｲｴﾑﾋﾟｰﾋﾞﾙ","pref":"大阪府","city":"大阪市中央区","address":"城見松下ＩＭＰビル"},
{"zip_code":"5406301","kana_pref":"ｵｵｻｶﾌ","kana_city":"ｵｵｻｶｼﾁｭｳｵｳｸ","kana_address":"ｼﾛﾐﾏﾂｼﾀｱｲｴﾑﾋﾟｰﾋﾞﾙ","pref":"大阪府","city":"大阪市中央区","address":"城見松下ＩＭＰビル"},
{"zip_code":"5406302","kana_pref":"ｵｵｻｶﾌ","kana_city":"ｵｵｻｶｼﾁｭｳｵｳｸ","kana_address":"ｼﾛﾐﾏﾂｼﾀｱｲｴﾑﾋﾟｰﾋﾞﾙ","pref":"大阪府","city":"大阪市中央区","address":"城見松下ＩＭＰビル"},
{"zip_code":"5406303","kana_pref":"ｵｵｻｶﾌ","kana_city":"ｵｵｻｶｼﾁｭｳｵｳｸ","kana_address":"ｼﾛﾐﾏﾂｼﾀｱｲｴﾑﾋﾟｰﾋﾞﾙ","pref":"大阪府","city":"大阪市中央区","address":"城見松下ＩＭＰビル"},
{"zip_code":"5406304","kana_pref":"ｵｵｻｶﾌ","kana_city":"ｵｵｻｶｼﾁｭｳｵｳｸ","kana_address":"ｼﾛﾐﾏﾂｼﾀｱｲｴﾑﾋﾟｰﾋﾞﾙ","pref":"大阪府","city":"大阪市中央区","address":"城見松下ＩＭＰビル"},
{"zip_code":"5406305","kana_pref":"ｵｵｻｶﾌ","kana_city":"ｵｵｻｶｼﾁｭｳｵｳｸ","kana_address":"ｼﾛﾐﾏﾂｼﾀｱｲｴﾑﾋﾟｰﾋﾞﾙ","pref":"大阪府","city":"大阪市中央区","address":"城見松下ＩＭＰビル"},
{"zip_code":"5406306","kana_pref":"ｵｵｻｶﾌ","kana_city":"ｵｵｻｶｼﾁｭｳｵｳｸ","kana_address":"ｼﾛﾐﾏﾂｼﾀｱｲｴﾑﾋﾟｰﾋﾞﾙ","pref":"大阪府","city":"大阪市中央区","address":"城見松下ＩＭＰビル"},
{"zip_code":"5406307","kana_pref":"ｵｵｻｶﾌ","kana_city":"ｵｵｻｶｼﾁｭｳｵｳｸ","kana_address":"ｼﾛﾐﾏﾂｼﾀｱｲｴﾑﾋﾟｰﾋﾞﾙ","pref":"大阪府","city":"大阪市中央区","address":"城見松下ＩＭＰビル"},
{"zip_code":"5406308","kana_pref":"ｵｵｻｶﾌ","kana_city":"ｵｵｻｶｼﾁｭｳｵｳｸ","kana_address":"ｼﾛﾐﾏﾂｼﾀｱｲｴﾑﾋﾟｰﾋﾞﾙ","pref":"大阪府","city":"大阪市中央区","address":"城見松下ＩＭＰビル"},
{"zip_code":"5406309","kana_pref":"ｵｵｻｶﾌ","kana_city":"ｵｵｻｶｼﾁｭｳｵｳｸ","kana_address":"ｼﾛﾐﾏﾂｼﾀｱｲｴﾑﾋﾟｰﾋﾞﾙ","pref":"大阪府","city":"大阪市中央区","address":"城見松下ＩＭＰビル"},
{"zip_code":"5406310","kana_pref":"ｵｵｻｶﾌ","kana_city":"ｵｵｻｶｼﾁｭｳｵｳｸ","kana_address":"ｼﾛﾐﾏﾂｼﾀｱｲｴﾑﾋﾟｰﾋﾞﾙ","pref":"大阪府","city":"大阪市中央区","address":"城見松下ＩＭＰビル"},
{"zip_code":"5406311","kana_pref":"ｵｵｻｶﾌ","kana_city":"ｵｵｻｶｼﾁｭｳｵｳｸ","kana_address":"ｼﾛﾐﾏﾂｼﾀｱｲｴﾑﾋﾟｰﾋﾞﾙ","pref":"大阪府","city":"大阪市中央区","address":"城見松下ＩＭＰビル"},
{"zip_code":"5406312","kana_pref":"ｵｵｻｶﾌ","kana_city":"ｵｵｻｶｼﾁｭｳｵｳｸ","kana_address":"ｼﾛﾐﾏﾂｼﾀｱｲｴﾑﾋﾟｰﾋﾞﾙ","pref":"大阪府","city":"大阪市中央区","address":"城見松下ＩＭＰビル"},
{"zip_code":"5406313","kana_pref":"ｵｵｻｶﾌ","kana_city":"ｵｵｻｶｼﾁｭｳｵｳｸ","kana_address":"ｼﾛﾐﾏﾂｼﾀｱｲｴﾑﾋﾟｰﾋﾞﾙ","pref":"大阪府","city":"大阪市中央区","address":"城見松下ＩＭＰビル"},
{"zip_code":"5406314","kana_pref":"ｵｵｻｶﾌ","kana_city":"ｵｵｻｶｼﾁｭｳｵｳｸ","kana_address":"ｼﾛﾐﾏﾂｼﾀｱｲｴﾑﾋﾟｰﾋﾞﾙ","pref":"大阪府","city":"大阪市中央区","address":"城見松下ＩＭＰビル"},
{"zip_code":"5406315","kana_pref":"ｵｵｻｶﾌ","kana_city":"ｵｵｻｶｼﾁｭｳｵｳｸ","kana_address":"ｼﾛﾐﾏﾂｼﾀｱｲｴﾑﾋﾟｰﾋﾞﾙ","pref":"大阪府","city":"大阪市中央区","address":"城見松下ＩＭＰビル"},
{"zip_code":"5406316","kana_pref":"ｵｵｻｶﾌ","kana_city":"ｵｵｻｶｼﾁｭｳｵｳｸ","kana_address":"ｼﾛﾐﾏﾂｼﾀｱｲｴﾑﾋﾟｰﾋﾞﾙ","pref":"大阪府","city":"大阪市中央区","address":"城見松下ＩＭＰビル"},
{"zip_code":"5406317","kana_pref":"ｵｵｻｶﾌ","kana_city":"ｵｵｻｶｼﾁｭｳｵｳｸ","kana_address":"ｼﾛﾐﾏﾂｼﾀｱｲｴﾑﾋﾟｰﾋﾞﾙ","pref":"大阪府","city":"大阪市中央区","address":"城見松下ＩＭＰビル"},
{"zip_code":"5406318","kana_pref":"ｵｵｻｶﾌ","kana_city":"ｵｵｻｶｼﾁｭｳｵｳｸ","kana_address":"ｼﾛﾐﾏﾂｼﾀｱｲｴﾑﾋﾟｰﾋﾞﾙ","pref":"大阪府","city":"大阪市中央区","address":"城見松下ＩＭＰビル"},
{"zip_code":"5406319","kana_pref":"ｵｵｻｶﾌ","kana_city":"ｵｵｻｶｼﾁｭｳｵｳｸ","kana_address":"ｼﾛﾐﾏﾂｼﾀｱｲｴﾑﾋﾟｰﾋﾞﾙ","pref":"大阪府","city":"大阪市中央区","address":"城見松下ＩＭＰビル"},
{"zip_code":"5406320","kana_pref":"ｵｵｻｶﾌ","kana_city":"ｵｵｻｶｼﾁｭｳｵｳｸ","kana_address":"ｼﾛﾐﾏﾂｼﾀｱｲｴﾑﾋﾟｰﾋﾞﾙ","pref":"大阪府","city":"大阪市中央区","address":"城見松下ＩＭＰビル"},
{"zip_code":"5406321","kana_pref":"ｵｵｻｶﾌ","kana_city":"ｵｵｻｶｼﾁｭｳｵｳｸ","kana_address":"ｼﾛﾐﾏﾂｼﾀｱｲｴﾑﾋﾟｰﾋﾞﾙ","pref":"大阪府","city":"大阪市中央区","address":"城見松下ＩＭＰビル"},
{"zip_code":"5406322","kana_pref":"ｵｵｻｶﾌ","kana_city":"ｵｵｻｶｼﾁｭｳｵｳｸ","kana_address":"ｼﾛﾐﾏﾂｼﾀｱｲｴﾑﾋﾟｰﾋﾞﾙ","pref":"大阪府","city":"大阪市中央区","address":"城見松下ＩＭＰビル"},
{"zip_code":"5406323","kana_pref":"ｵｵｻｶﾌ","kana_city":"ｵｵｻｶｼﾁｭｳｵｳｸ","kana_address":"ｼﾛﾐﾏﾂｼﾀｱｲｴﾑﾋﾟｰﾋﾞﾙ","pref":"大阪府","city":"大阪市中央区","address":"城見松下ＩＭＰビル"},
{"zip_code":"5406324","kana_pref":"ｵｵｻｶﾌ","kana_city":"ｵｵｻｶｼﾁｭｳｵｳｸ","kana_address":"ｼﾛﾐﾏﾂｼﾀｱｲｴﾑﾋﾟｰﾋﾞﾙ","pref":"大阪府","city":"大阪市中央区","address":"城見松下ＩＭＰビル"},
{"zip_code":"5406325","kana_pref":"ｵｵｻｶﾌ","kana_city":"ｵｵｻｶｼﾁｭｳｵｳｸ","kana_address":"ｼﾛﾐﾏﾂｼﾀｱｲｴﾑﾋﾟｰﾋﾞﾙ","pref":"大阪府","city":"大阪市中央区","address":"城見松下ＩＭＰビル"},
{"zip_code":"5406326","kana_pref":"ｵｵｻｶﾌ","kana_city":"ｵｵｻｶｼﾁｭｳｵｳｸ","kana_address":"ｼﾛﾐﾏﾂｼﾀｱｲｴﾑﾋﾟｰﾋﾞﾙ","pref":"大阪府","city":"大阪市中央区","address":"城見松下ＩＭＰビル"},
{"zip_code":"5400012","kana_pref":"ｵｵｻｶﾌ","kana_city":"ｵｵｻｶｼﾁｭｳｵｳｸ","kana_address":"ﾀﾆﾏﾁ","pref":"大阪府","city":"大阪市中央区","address":"谷町"},
{"zip_code":"5400004","kana_pref":"ｵｵｻｶﾌ","kana_city":"ｵｵｻｶｼﾁｭｳｵｳｸ","kana_address":"ﾀﾏﾂｸﾘ","pref":"大阪府","city":"大阪市中央区","address":"玉造"},
{"zip_code":"5400035","kana_pref":"ｵｵｻｶﾌ","kana_city":"ｵｵｻｶｼﾁｭｳｵｳｸ","kana_address":"ﾂﾘｶﾞﾈﾁｮｳ","pref":"大阪府","city":"大阪市中央区","address":"釣鐘町"},
{"zip_code":"5400032","kana_pref":"ｵｵｻｶﾌ","kana_city":"ｵｵｻｶｼﾁｭｳｵｳｸ","kana_address":"ﾃﾝﾏﾊﾞｼｷｮｳﾏﾁ","pref":"大阪府","city":"大阪市中央区","address":"天満橋京町"},
{"zip_code":"5400028","kana_pref":"ｵｵｻｶﾌ","kana_city":"ｵｵｻｶｼﾁｭｳｵｳｸ","kana_address":"ﾄｷﾜﾏﾁ","pref":"大阪府","city":"大阪市中央区","address":"常盤町"},
{"zip_code":"5400025","kana_pref":"ｵｵｻｶﾌ","kana_city":"ｵｵｻｶｼﾁｭｳｵｳｸ","kana_address":"ﾄｸｲﾁｮｳ","pref":"大阪府","city":"大阪市中央区","address":"徳井町"},
{"zip_code":"5400011","kana_pref":"ｵｵｻｶﾌ","kana_city":"ｵｵｻｶｼﾁｭｳｵｳｸ","kana_address":"ﾉｳﾆﾝﾊﾞｼ","pref":"大阪府","city":"大阪市中央区","address":"農人橋"},
{"zip_code":"5400007","kana_pref":"ｵｵｻｶﾌ","kana_city":"ｵｵｻｶｼﾁｭｳｵｳｸ","kana_address":"ﾊﾞﾝﾊﾞﾁｮｳ","pref":"大阪府","city":"大阪市中央区","address":"馬場町"},
{"zip_code":"5400039","kana_pref":"ｵｵｻｶﾌ","kana_city":"ｵｵｻｶｼﾁｭｳｵｳｸ","kana_address":"ﾋｶﾞｼｺｳﾗｲﾊﾞｼ","pref":"大阪府","city":"大阪市中央区","address":"東高麗橋"},
{"zip_code":"5400036","kana_pref":"ｵｵｻｶﾌ","kana_city":"ｵｵｻｶｼﾁｭｳｵｳｸ","kana_address":"ﾌﾅｺｼﾁｮｳ","pref":"大阪府","city":"大阪市中央区","address":"船越町"},
{"zip_code":"5400006","kana_pref":"ｵｵｻｶﾌ","kana_city":"ｵｵｻｶｼﾁｭｳｵｳｸ","kana_address":"ﾎｳｴﾝｻﾞｶ","pref":"大阪府","city":"大阪市中央区","address":"法円坂"},
{"zip_code":"5400029","kana_pref":"ｵｵｻｶﾌ","kana_city":"ｵｵｻｶｼﾁｭｳｵｳｸ","kana_address":"ﾎﾝﾏﾁﾊﾞｼ","pref":"大阪府","city":"大阪市中央区","address":"本町橋"},
{"zip_code":"5400017","kana_pref":"ｵｵｻｶﾌ","kana_city":"ｵｵｻｶｼﾁｭｳｵｳｸ","kana_address":"ﾏﾂﾔﾏﾁｽﾐﾖｼ","pref":"大阪府","city":"大阪市中央区","address":"松屋町住吉"},
{"zip_code":"5400024","kana_pref":"ｵｵｻｶﾌ","kana_city":"ｵｵｻｶｼﾁｭｳｵｳｸ","kana_address":"ﾐﾅﾐｼﾝﾏﾁ","pref":"大阪府","city":"大阪市中央区","address":"南新町"},
{"zip_code":"5400003","kana_pref":"ｵｵｻｶﾌ","kana_city":"ｵｵｻｶｼﾁｭｳｵｳｸ","kana_address":"ﾓﾘﾉﾐﾔﾁｭｳｵｳ","pref":"大阪府","city":"大阪市中央区","address":"森ノ宮中央"},
{"zip_code":"5400027","kana_pref":"ｵｵｻｶﾌ","kana_city":"ｵｵｻｶｼﾁｭｳｵｳｸ","kana_address":"ﾔﾘﾔﾏﾁ","pref":"大阪府","city":"大阪市中央区","address":"鎗屋町"},
{"zip_code":"5400014","kana_pref":"ｵｵｻｶﾌ","kana_city":"ｵｵｻｶｼﾁｭｳｵｳｸ","kana_address":"ﾘｭｳｿﾞｳｼﾞﾁｮｳ","pref":"大阪府","city":"大阪市中央区","address":"龍造寺町"}]}