{"zip_code":[
{"zip_code":"5410052","kana_pref":"ｵｵｻｶﾌ","kana_city":"ｵｵｻｶｼﾁｭｳｵｳｸ","kana_address":"ｱﾂﾞﾁﾏﾁ","pref":"大阪府","city":"大阪市中央区","address":"安土町"},
{"zip_code":"5410047","kana_pref":"ｵｵｻｶﾌ","kana_city":"ｵｵｻｶｼﾁｭｳｵｳｸ","kana_address":"ｱﾜｼﾞﾏﾁ","pref":"大阪府","city":"大阪市中央区","address":"淡路町"},
{"zip_code":"5410042","kana_pref":"ｵｵｻｶﾌ","kana_city":"ｵｵｻｶｼﾁｭｳｵｳｸ","kana_address":"ｲﾏﾊﾞｼ","pref":"大阪府","city":"大阪市中央区","address":"今橋"},
{"zip_code":"5410048","kana_pref":"ｵｵｻｶﾌ","kana_city":"ｵｵｻｶｼﾁｭｳｵｳｸ","kana_address":"ｶﾜﾗﾏﾁ","pref":"大阪府","city":"大阪市中央区","address":"瓦町"},
{"zip_code":"5410057","kana_pref":"ｵｵｻｶﾌ","kana_city":"ｵｵｻｶｼﾁｭｳｵｳｸ","kana_address":"ｷﾀｷｭｳﾎｳｼﾞﾏﾁ","pref":"大阪府","city":"大阪市中央区","address":"北久宝寺町"},
{"zip_code":"5410041","kana_pref":"ｵｵｻｶﾌ","kana_city":"ｵｵｻｶｼﾁｭｳｵｳｸ","kana_address":"ｷﾀﾊﾏ","pref":"大阪府","city":"大阪市中央区","address":"北浜"},
{"zip_code":"5410056","kana_pref":"ｵｵｻｶﾌ","kana_city":"ｵｵｻｶｼﾁｭｳｵｳｸ","kana_address":"ｷｭｳﾀﾛｳﾏﾁ","pref":"大阪府","city":"大阪市中央区","address":"久太郎町"},
{"zip_code":"5410043","kana_pref":"ｵｵｻｶﾌ","kana_city":"ｵｵｻｶｼﾁｭｳｵｳｸ","kana_address":"ｺｳﾗｲﾊﾞｼ","pref":"大阪府","city":"大阪市中央区","address":"高麗橋"},
{"zip_code":"5410055","kana_pref":"ｵｵｻｶﾌ","kana_city":"ｵｵｻｶｼﾁｭｳｵｳｸ","kana_address":"ｾﾝﾊﾞﾁｭｳｵｳ","pref":"大阪府","city":"大阪市中央区","address":"船場中央"},
{"zip_code":"5410045","kana_pref":"ｵｵｻｶﾌ","kana_city":"ｵｵｻｶｼﾁｭｳｵｳｸ","kana_address":"ﾄﾞｼｮｳﾏﾁ","pref":"大阪府","city":"大阪市中央区","address":"道修町"},
{"zip_code":"5410059","kana_pref":"ｵｵｻｶﾌ","kana_city":"ｵｵｻｶｼﾁｭｳｵｳｸ","kana_address":"ﾊﾞｸﾛｳﾏﾁ","pref":"大阪府","city":"大阪市中央区","address":"博労町"},
{"zip_code":"5410046","kana_pref":"ｵｵｻｶﾌ","kana_city":"ｵｵｻｶｼﾁｭｳｵｳｸ","kana_address":"ﾋﾗﾉﾏﾁ","pref":"大阪府","city":"大阪市中央区","address":"平野町"},
{"zip_code":"5410051","kana_pref":"ｵｵｻｶﾌ","kana_city":"ｵｵｻｶｼﾁｭｳｵｳｸ","kana_address":"ﾋﾞﾝｺﾞﾏﾁ","pref":"大阪府","city":"大阪市中央区","address":"備後町"},
{"zip_code":"5410044","kana_pref":"ｵｵｻｶﾌ","kana_city":"ｵｵｻｶｼﾁｭｳｵｳｸ","kana_address":"ﾌｼﾐﾏﾁ","pref":"大阪府","city":"大阪市中央区","address":"伏見町"},
{"zip_code":"5410053","kana_pref":"ｵｵｻｶﾌ","kana_city":"ｵｵｻｶｼﾁｭｳｵｳｸ","kana_address":"ﾎﾝﾏﾁ","pref":"大阪府","city":"大阪市中央区","address":"本町"},
{"zip_code":"5410058","kana_pref":"ｵｵｻｶﾌ","kana_city":"ｵｵｻｶｼﾁｭｳｵｳｸ","kana_address":"ﾐﾅﾐｷｭｳﾎｳｼﾞﾏﾁ","pref":"大阪府","city":"大阪市中央区","address":"南久宝寺町"},
{"zip_code":"5410054","kana_pref":"ｵｵｻｶﾌ","kana_city":"ｵｵｻｶｼﾁｭｳｵｳｸ","kana_address":"ﾐﾅﾐﾎﾝﾏﾁ","pref":"大阪府","city":"大阪市中央区","address":"南本町"}]}