{"zip_code":[
{"zip_code":"5420061","kana_pref":"ｵｵｻｶﾌ","kana_city":"ｵｵｻｶｼﾁｭｳｵｳｸ","kana_address":"ｱﾝﾄﾞｳｼﾞﾏﾁ","pref":"大阪府","city":"大阪市中央区","address":"安堂寺町"},
{"zip_code":"5420064","kana_pref":"ｵｵｻｶﾌ","kana_city":"ｵｵｻｶｼﾁｭｳｵｳｸ","kana_address":"ｳｴｼｵ","pref":"大阪府","city":"大阪市中央区","address":"上汐"},
{"zip_code":"5420062","kana_pref":"ｵｵｻｶﾌ","kana_city":"ｵｵｻｶｼﾁｭｳｵｳｸ","kana_address":"ｳｴﾎﾝﾏﾁﾆｼ","pref":"大阪府","city":"大阪市中央区","address":"上本町西"},
{"zip_code":"5420066","kana_pref":"ｵｵｻｶﾌ","kana_city":"ｵｵｻｶｼﾁｭｳｵｳｸ","kana_address":"ｶﾜﾗﾔﾏﾁ","pref":"大阪府","city":"大阪市中央区","address":"瓦屋町"},
{"zip_code":"5420072","kana_pref":"ｵｵｻｶﾌ","kana_city":"ｵｵｻｶｼﾁｭｳｵｳｸ","kana_address":"ｺｳﾂﾞ","pref":"大阪府","city":"大阪市中央区","address":"高津"},
{"zip_code":"5420082","kana_pref":"ｵｵｻｶﾌ","kana_city":"ｵｵｻｶｼﾁｭｳｵｳｸ","kana_address":"ｼﾏﾉｳﾁ","pref":"大阪府","city":"大阪市中央区","address":"島之内"},
{"zip_code":"5420085","kana_pref":"ｵｵｻｶﾌ","kana_city":"ｵｵｻｶｼﾁｭｳｵｳｸ","kana_address":"ｼﾝｻｲﾊﾞｼｽｼﾞ","pref":"大阪府","city":"大阪市中央区","address":"心斎橋筋"},
{"zip_code":"5420074","kana_pref":"ｵｵｻｶﾌ","kana_city":"ｵｵｻｶｼﾁｭｳｵｳｸ","kana_address":"ｾﾝﾆﾁﾏｴ","pref":"大阪府","city":"大阪市中央区","address":"千日前"},
{"zip_code":"5420084","kana_pref":"ｵｵｻｶﾌ","kana_city":"ｵｵｻｶｼﾁｭｳｵｳｸ","kana_address":"ｿｳｴﾓﾝﾁｮｳ","pref":"大阪府","city":"大阪市中央区","address":"宗右衛門町"},
{"zip_code":"5420012","kana_pref":"ｵｵｻｶﾌ","kana_city":"ｵｵｻｶｼﾁｭｳｵｳｸ","kana_address":"ﾀﾆﾏﾁ","pref":"大阪府","city":"大阪市中央区","address":"谷町"},
{"zip_code":"5420063","kana_pref":"ｵｵｻｶﾌ","kana_city":"ｵｵｻｶｼﾁｭｳｵｳｸ","kana_address":"ﾄｳﾍｲ","pref":"大阪府","city":"大阪市中央区","address":"東平"},
{"zip_code":"5420077","kana_pref":"ｵｵｻｶﾌ","kana_city":"ｵｵｻｶｼﾁｭｳｵｳｸ","kana_address":"ﾄﾞｳﾄﾝﾎﾞﾘ","pref":"大阪府","city":"大阪市中央区","address":"道頓堀"},
{"zip_code":"5420071","kana_pref":"ｵｵｻｶﾌ","kana_city":"ｵｵｻｶｼﾁｭｳｵｳｸ","kana_address":"ﾄﾞｳﾄﾝﾎﾞﾘ","pref":"大阪府","city":"大阪市中央区","address":"道頓堀"},
{"zip_code":"5420065","kana_pref":"ｵｵｻｶﾌ","kana_city":"ｵｵｻｶｼﾁｭｳｵｳｸ","kana_address":"ﾅｶﾃﾞﾗ","pref":"大阪府","city":"大阪市中央区","address":"中寺"},
{"zip_code":"5420076","kana_pref":"ｵｵｻｶﾌ","kana_city":"ｵｵｻｶｼﾁｭｳｵｳｸ","kana_address":"ﾅﾝﾊﾞ","pref":"大阪府","city":"大阪市中央区","address":"難波"},
{"zip_code":"5420075","kana_pref":"ｵｵｻｶﾌ","kana_city":"ｵｵｻｶｼﾁｭｳｵｳｸ","kana_address":"ﾅﾝﾊﾞｾﾝﾆﾁﾏｴ","pref":"大阪府","city":"大阪市中央区","address":"難波千日前"},
{"zip_code":"5420086","kana_pref":"ｵｵｻｶﾌ","kana_city":"ｵｵｻｶｼﾁｭｳｵｳｸ","kana_address":"ﾆｼｼﾝｻｲﾊﾞｼ","pref":"大阪府","city":"大阪市中央区","address":"西心斎橋"},
{"zip_code":"5420073","kana_pref":"ｵｵｻｶﾌ","kana_city":"ｵｵｻｶｼﾁｭｳｵｳｸ","kana_address":"ﾆｯﾎﾟﾝﾊﾞｼ","pref":"大阪府","city":"大阪市中央区","address":"日本橋"},
{"zip_code":"5420083","kana_pref":"ｵｵｻｶﾌ","kana_city":"ｵｵｻｶｼﾁｭｳｵｳｸ","kana_address":"ﾋｶﾞｼｼﾝｻｲﾊﾞｼ","pref":"大阪府","city":"大阪市中央区","address":"東心斎橋"},
{"zip_code":"5420067","kana_pref":"ｵｵｻｶﾌ","kana_city":"ｵｵｻｶｼﾁｭｳｵｳｸ","kana_address":"ﾏﾂﾔﾏﾁ","pref":"大阪府","city":"大阪市中央区","address":"松屋町"},
{"zip_code":"5420081","kana_pref":"ｵｵｻｶﾌ","kana_city":"ｵｵｻｶｼﾁｭｳｵｳｸ","kana_address":"ﾐﾅﾐｾﾝﾊﾞ","pref":"大阪府","city":"大阪市中央区","address":"南船場"}]}