{"zip_code":[
{"zip_code":"5440000","kana_pref":"ｵｵｻｶﾌ","kana_city":"ｵｵｻｶｼｲｸﾉｸ","kana_address":"","pref":"大阪府","city":"大阪市生野区","address":""},
{"zip_code":"5440025","kana_pref":"ｵｵｻｶﾌ","kana_city":"ｵｵｻｶｼｲｸﾉｸ","kana_address":"ｲｸﾉﾋｶﾞｼ","pref":"大阪府","city":"大阪市生野区","address":"生野東"},
{"zip_code":"5440024","kana_pref":"ｵｵｻｶﾌ","kana_city":"ｵｵｻｶｼｲｸﾉｸ","kana_address":"ｲｸﾉﾆｼ","pref":"大阪府","city":"大阪市生野区","address":"生野西"},
{"zip_code":"5440021","kana_pref":"ｵｵｻｶﾌ","kana_city":"ｵｵｻｶｼｲｸﾉｸ","kana_address":"ｶﾂﾔﾏﾐﾅﾐ","pref":"大阪府","city":"大阪市生野区","address":"勝山南"},
{"zip_code":"5440033","kana_pref":"ｵｵｻｶﾌ","kana_city":"ｵｵｻｶｼｲｸﾉｸ","kana_address":"ｶﾂﾔﾏｷﾀ","pref":"大阪府","city":"大阪市生野区","address":"勝山北"},
{"zip_code":"5440022","kana_pref":"ｵｵｻｶﾌ","kana_city":"ｵｵｻｶｼｲｸﾉｸ","kana_address":"ｼｬﾘｼﾞ","pref":"大阪府","city":"大阪市生野区","address":"舎利寺"},
{"zip_code":"5440002","kana_pref":"ｵｵｻｶﾌ","kana_city":"ｵｵｻｶｼｲｸﾉｸ","kana_address":"ｼｮｳｼﾞ","pref":"大阪府","city":"大阪市生野区","address":"小路"},
{"zip_code":"5440003","kana_pref":"ｵｵｻｶﾌ","kana_city":"ｵｵｻｶｼｲｸﾉｸ","kana_address":"ｼｮｳｼﾞﾋｶﾞｼ","pref":"大阪府","city":"大阪市生野区","address":"小路東"},
{"zip_code":"5440001","kana_pref":"ｵｵｻｶﾌ","kana_city":"ｵｵｻｶｼｲｸﾉｸ","kana_address":"ｼﾝｲﾏｻﾞﾄ","pref":"大阪府","city":"大阪市生野区","address":"新今里"},
{"zip_code":"5440011","kana_pref":"ｵｵｻｶﾌ","kana_city":"ｵｵｻｶｼｲｸﾉｸ","kana_address":"ﾀｼﾞﾏ","pref":"大阪府","city":"大阪市生野区","address":"田島"},
{"zip_code":"5440013","kana_pref":"ｵｵｻｶﾌ","kana_city":"ｵｵｻｶｼｲｸﾉｸ","kana_address":"ﾀﾂﾐﾅｶ","pref":"大阪府","city":"大阪市生野区","address":"巽中"},
{"zip_code":"5440014","kana_pref":"ｵｵｻｶﾌ","kana_city":"ｵｵｻｶｼｲｸﾉｸ","kana_address":"ﾀﾂﾐﾋｶﾞｼ","pref":"大阪府","city":"大阪市生野区","address":"巽東"},
{"zip_code":"5440012","kana_pref":"ｵｵｻｶﾌ","kana_city":"ｵｵｻｶｼｲｸﾉｸ","kana_address":"ﾀﾂﾐﾆｼ","pref":"大阪府","city":"大阪市生野区","address":"巽西"},
{"zip_code":"5440015","kana_pref":"ｵｵｻｶﾌ","kana_city":"ｵｵｻｶｼｲｸﾉｸ","kana_address":"ﾀﾂﾐﾐﾅﾐ","pref":"大阪府","city":"大阪市生野区","address":"巽南"},
{"zip_code":"5440004","kana_pref":"ｵｵｻｶﾌ","kana_city":"ｵｵｻｶｼｲｸﾉｸ","kana_address":"ﾀﾂﾐｷﾀ","pref":"大阪府","city":"大阪市生野区","address":"巽北"},
{"zip_code":"5440031","kana_pref":"ｵｵｻｶﾌ","kana_city":"ｵｵｻｶｼｲｸﾉｸ","kana_address":"ﾂﾙﾊｼ","pref":"大阪府","city":"大阪市生野区","address":"鶴橋"},
{"zip_code":"5440005","kana_pref":"ｵｵｻｶﾌ","kana_city":"ｵｵｻｶｼｲｸﾉｸ","kana_address":"ﾅｶｶﾞﾜ","pref":"大阪府","city":"大阪市生野区","address":"中川"},
{"zip_code":"5440006","kana_pref":"ｵｵｻｶﾌ","kana_city":"ｵｵｻｶｼｲｸﾉｸ","kana_address":"ﾅｶｶﾞﾜﾋｶﾞｼ","pref":"大阪府","city":"大阪市生野区","address":"中川東"},
{"zip_code":"5440032","kana_pref":"ｵｵｻｶﾌ","kana_city":"ｵｵｻｶｼｲｸﾉｸ","kana_address":"ﾅｶｶﾞﾜﾆｼ","pref":"大阪府","city":"大阪市生野区","address":"中川西"},
{"zip_code":"5440023","kana_pref":"ｵｵｻｶﾌ","kana_city":"ｵｵｻｶｼｲｸﾉｸ","kana_address":"ﾊﾔｼｼﾞ","pref":"大阪府","city":"大阪市生野区","address":"林寺"},
{"zip_code":"5440034","kana_pref":"ｵｵｻｶﾌ","kana_city":"ｵｵｻｶｼｲｸﾉｸ","kana_address":"ﾓﾓﾀﾞﾆ","pref":"大阪府","city":"大阪市生野区","address":"桃谷"}]}