{"zip_code":[
{"zip_code":"5450000","kana_pref":"ｵｵｻｶﾌ","kana_city":"ｵｵｻｶｼｱﾍﾞﾉｸ","kana_address":"","pref":"大阪府","city":"大阪市阿倍野区","address":""},
{"zip_code":"5450033","kana_pref":"ｵｵｻｶﾌ","kana_city":"ｵｵｻｶｼｱﾍﾞﾉｸ","kana_address":"ｱｲｵｲﾄﾞｵﾘ","pref":"大阪府","city":"大阪市阿倍野区","address":"相生通"},
{"zip_code":"5450051","kana_pref":"ｵｵｻｶﾌ","kana_city":"ｵｵｻｶｼｱﾍﾞﾉｸ","kana_address":"ｱｻﾋﾏﾁ","pref":"大阪府","city":"大阪市阿倍野区","address":"旭町"},
{"zip_code":"5450052","kana_pref":"ｵｵｻｶﾌ","kana_city":"ｵｵｻｶｼｱﾍﾞﾉｸ","kana_address":"ｱﾍﾞﾉｽｼﾞ","pref":"大阪府","city":"大阪市阿倍野区","address":"阿倍野筋"},
{"zip_code":"5450034","kana_pref":"ｵｵｻｶﾌ","kana_city":"ｵｵｻｶｼｱﾍﾞﾉｸ","kana_address":"ｱﾍﾞﾉﾓﾄﾏﾁ","pref":"大阪府","city":"大阪市阿倍野区","address":"阿倍野元町"},
{"zip_code":"5450023","kana_pref":"ｵｵｻｶﾌ","kana_city":"ｵｵｻｶｼｱﾍﾞﾉｸ","kana_address":"ｵｳｼﾞﾁｮｳ","pref":"大阪府","city":"大阪市阿倍野区","address":"王子町"},
{"zip_code":"5450035","kana_pref":"ｵｵｻｶﾌ","kana_city":"ｵｵｻｶｼｱﾍﾞﾉｸ","kana_address":"ｷﾀﾊﾞﾀｹ","pref":"大阪府","city":"大阪市阿倍野区","address":"北畠"},
{"zip_code":"5450041","kana_pref":"ｵｵｻｶﾌ","kana_city":"ｵｵｻｶｼｱﾍﾞﾉｸ","kana_address":"ｷｮｳﾘﾂﾄﾞｵﾘ","pref":"大阪府","city":"大阪市阿倍野区","address":"共立通"},
{"zip_code":"5450005","kana_pref":"ｵｵｻｶﾌ","kana_city":"ｵｵｻｶｼｱﾍﾞﾉｸ","kana_address":"ｻﾝﾒｲﾁｮｳ","pref":"大阪府","city":"大阪市阿倍野区","address":"三明町"},
{"zip_code":"5450011","kana_pref":"ｵｵｻｶﾌ","kana_city":"ｵｵｻｶｼｱﾍﾞﾉｸ","kana_address":"ｼｮｳﾜﾁｮｳ","pref":"大阪府","city":"大阪市阿倍野区","address":"昭和町"},
{"zip_code":"5450032","kana_pref":"ｵｵｻｶﾌ","kana_city":"ｵｵｻｶｼｱﾍﾞﾉｸ","kana_address":"ｾｲﾒｲﾄﾞｵﾘ","pref":"大阪府","city":"大阪市阿倍野区","address":"晴明通"},
{"zip_code":"5450037","kana_pref":"ｵｵｻｶﾌ","kana_city":"ｵｵｻｶｼｱﾍﾞﾉｸ","kana_address":"ﾃﾂﾞｶﾔﾏ","pref":"大阪府","city":"大阪市阿倍野区","address":"帝塚山"},
{"zip_code":"5450002","kana_pref":"ｵｵｻｶﾌ","kana_city":"ｵｵｻｶｼｱﾍﾞﾉｸ","kana_address":"ﾃﾝﾉｳｼﾞﾁｮｳﾐﾅﾐ","pref":"大阪府","city":"大阪市阿倍野区","address":"天王寺町南"},
{"zip_code":"5450001","kana_pref":"ｵｵｻｶﾌ","kana_city":"ｵｵｻｶｼｱﾍﾞﾉｸ","kana_address":"ﾃﾝﾉｳｼﾞﾁｮｳｷﾀ","pref":"大阪府","city":"大阪市阿倍野区","address":"天王寺町北"},
{"zip_code":"5450013","kana_pref":"ｵｵｻｶﾌ","kana_city":"ｵｵｻｶｼｱﾍﾞﾉｸ","kana_address":"ﾅｶﾞｲｹﾁｮｳ","pref":"大阪府","city":"大阪市阿倍野区","address":"長池町"},
{"zip_code":"5450014","kana_pref":"ｵｵｻｶﾌ","kana_city":"ｵｵｻｶｼｱﾍﾞﾉｸ","kana_address":"ﾆｼﾀﾅﾍﾞﾁｮｳ","pref":"大阪府","city":"大阪市阿倍野区","address":"西田辺町"},
{"zip_code":"5450031","kana_pref":"ｵｵｻｶﾌ","kana_city":"ｵｵｻｶｼｱﾍﾞﾉｸ","kana_address":"ﾊｼﾓﾄﾁｮｳ","pref":"大阪府","city":"大阪市阿倍野区","address":"橋本町"},
{"zip_code":"5450022","kana_pref":"ｵｵｻｶﾌ","kana_city":"ｵｵｻｶｼｱﾍﾞﾉｸ","kana_address":"ﾊﾘﾏﾁｮｳ","pref":"大阪府","city":"大阪市阿倍野区","address":"播磨町"},
{"zip_code":"5450021","kana_pref":"ｵｵｻｶﾌ","kana_city":"ｵｵｻｶｼｱﾍﾞﾉｸ","kana_address":"ﾊﾝﾅﾝﾁｮｳ","pref":"大阪府","city":"大阪市阿倍野区","address":"阪南町"},
{"zip_code":"5450036","kana_pref":"ｵｵｻｶﾌ","kana_city":"ｵｵｻｶｼｱﾍﾞﾉｸ","kana_address":"ﾊﾞﾝﾀﾞｲ","pref":"大阪府","city":"大阪市阿倍野区","address":"万代"},
{"zip_code":"5450003","kana_pref":"ｵｵｻｶﾌ","kana_city":"ｵｵｻｶｼｱﾍﾞﾉｸ","kana_address":"ﾋﾞｼｮｳｴﾝ","pref":"大阪府","city":"大阪市阿倍野区","address":"美章園"},
{"zip_code":"5450004","kana_pref":"ｵｵｻｶﾌ","kana_city":"ｵｵｻｶｼｱﾍﾞﾉｸ","kana_address":"ﾌﾐﾉｻﾄ","pref":"大阪府","city":"大阪市阿倍野区","address":"文の里"},
{"zip_code":"5450053","kana_pref":"ｵｵｻｶﾌ","kana_city":"ｵｵｻｶｼｱﾍﾞﾉｸ","kana_address":"ﾏﾂｻﾞｷﾁｮｳ","pref":"大阪府","city":"大阪市阿倍野区","address":"松崎町"},
{"zip_code":"5450043","kana_pref":"ｵｵｻｶﾌ","kana_city":"ｵｵｻｶｼｱﾍﾞﾉｸ","kana_address":"ﾏﾂﾑｼﾄﾞｵﾘ","pref":"大阪府","city":"大阪市阿倍野区","address":"松虫通"},
{"zip_code":"5450042","kana_pref":"ｵｵｻｶﾌ","kana_city":"ｵｵｻｶｼｱﾍﾞﾉｸ","kana_address":"ﾏﾙﾔﾏﾄﾞｵﾘ","pref":"大阪府","city":"大阪市阿倍野区","address":"丸山通"},
{"zip_code":"5450012","kana_pref":"ｵｵｻｶﾌ","kana_city":"ｵｵｻｶｼｱﾍﾞﾉｸ","kana_address":"ﾓﾓｶﾞｲｹﾁｮｳ","pref":"大阪府","city":"大阪市阿倍野区","address":"桃ケ池町"}]}