{"zip_code":[
{"zip_code":"5460000","kana_pref":"ｵｵｻｶﾌ","kana_city":"ｵｵｻｶｼﾋｶﾞｼｽﾐﾖｼｸ","kana_address":"","pref":"大阪府","city":"大阪市東住吉区","address":""},
{"zip_code":"5460003","kana_pref":"ｵｵｻｶﾌ","kana_city":"ｵｵｻｶｼﾋｶﾞｼｽﾐﾖｼｸ","kana_address":"ｲﾏｶﾞﾜ","pref":"大阪府","city":"大阪市東住吉区","address":"今川"},
{"zip_code":"5460001","kana_pref":"ｵｵｻｶﾌ","kana_city":"ｵｵｻｶｼﾋｶﾞｼｽﾐﾖｼｸ","kana_address":"ｲﾏﾊﾞﾔｼ","pref":"大阪府","city":"大阪市東住吉区","address":"今林"},
{"zip_code":"5460044","kana_pref":"ｵｵｻｶﾌ","kana_city":"ｵｵｻｶｼﾋｶﾞｼｽﾐﾖｼｸ","kana_address":"ｷﾀﾀﾅﾍﾞ","pref":"大阪府","city":"大阪市東住吉区","address":"北田辺"},
{"zip_code":"5460002","kana_pref":"ｵｵｻｶﾌ","kana_city":"ｵｵｻｶｼﾋｶﾞｼｽﾐﾖｼｸ","kana_address":"ｸﾏﾀ","pref":"大阪府","city":"大阪市東住吉区","address":"杭全"},
{"zip_code":"5460041","kana_pref":"ｵｵｻｶﾌ","kana_city":"ｵｵｻｶｼﾋｶﾞｼｽﾐﾖｼｸ","kana_address":"ｸﾜﾂﾞ","pref":"大阪府","city":"大阪市東住吉区","address":"桑津"},
{"zip_code":"5460024","kana_pref":"ｵｵｻｶﾌ","kana_city":"ｵｵｻｶｼﾋｶﾞｼｽﾐﾖｼｸ","kana_address":"ｺｳｴﾝﾐﾅﾐﾔﾀ","pref":"大阪府","city":"大阪市東住吉区","address":"公園南矢田"},
{"zip_code":"5460043","kana_pref":"ｵｵｻｶﾌ","kana_city":"ｵｵｻｶｼﾋｶﾞｼｽﾐﾖｼｸ","kana_address":"ｺﾏｶﾞﾜ","pref":"大阪府","city":"大阪市東住吉区","address":"駒川"},
{"zip_code":"5460022","kana_pref":"ｵｵｻｶﾌ","kana_city":"ｵｵｻｶｼﾋｶﾞｼｽﾐﾖｼｸ","kana_address":"ｽﾝｼﾞﾔﾀ","pref":"大阪府","city":"大阪市東住吉区","address":"住道矢田"},
{"zip_code":"5460014","kana_pref":"ｵｵｻｶﾌ","kana_city":"ｵｵｻｶｼﾋｶﾞｼｽﾐﾖｼｸ","kana_address":"ﾀｶｱｲ","pref":"大阪府","city":"大阪市東住吉区","address":"鷹合"},
{"zip_code":"5460031","kana_pref":"ｵｵｻｶﾌ","kana_city":"ｵｵｻｶｼﾋｶﾞｼｽﾐﾖｼｸ","kana_address":"ﾀﾅﾍﾞ","pref":"大阪府","city":"大阪市東住吉区","address":"田辺"},
{"zip_code":"5460021","kana_pref":"ｵｵｻｶﾌ","kana_city":"ｵｵｻｶｼﾋｶﾞｼｽﾐﾖｼｸ","kana_address":"ﾃﾙｶﾞｵｶﾔﾀ","pref":"大阪府","city":"大阪市東住吉区","address":"照ケ丘矢田"},
{"zip_code":"5460012","kana_pref":"ｵｵｻｶﾌ","kana_city":"ｵｵｻｶｼﾋｶﾞｼｽﾐﾖｼｸ","kana_address":"ﾅｶﾉ","pref":"大阪府","city":"大阪市東住吉区","address":"中野"},
{"zip_code":"5460034","kana_pref":"ｵｵｻｶﾌ","kana_city":"ｵｵｻｶｼﾋｶﾞｼｽﾐﾖｼｸ","kana_address":"ﾅｶﾞｲｺｳｴﾝ","pref":"大阪府","city":"大阪市東住吉区","address":"長居公園"},
{"zip_code":"5460042","kana_pref":"ｵｵｻｶﾌ","kana_city":"ｵｵｻｶｼﾋｶﾞｼｽﾐﾖｼｸ","kana_address":"ﾆｼｲﾏｶﾞﾜ","pref":"大阪府","city":"大阪市東住吉区","address":"西今川"},
{"zip_code":"5460011","kana_pref":"ｵｵｻｶﾌ","kana_city":"ｵｵｻｶｼﾋｶﾞｼｽﾐﾖｼｸ","kana_address":"ﾊﾘﾅｶﾉ","pref":"大阪府","city":"大阪市東住吉区","address":"針中野"},
{"zip_code":"5460032","kana_pref":"ｵｵｻｶﾌ","kana_city":"ｵｵｻｶｼﾋｶﾞｼｽﾐﾖｼｸ","kana_address":"ﾋｶﾞｼﾀﾅﾍﾞ","pref":"大阪府","city":"大阪市東住吉区","address":"東田辺"},
{"zip_code":"5460033","kana_pref":"ｵｵｻｶﾌ","kana_city":"ｵｵｻｶｼﾋｶﾞｼｽﾐﾖｼｸ","kana_address":"ﾐﾅﾐﾀﾅﾍﾞ","pref":"大阪府","city":"大阪市東住吉区","address":"南田辺"},
{"zip_code":"5460023","kana_pref":"ｵｵｻｶﾌ","kana_city":"ｵｵｻｶｼﾋｶﾞｼｽﾐﾖｼｸ","kana_address":"ﾔﾀ","pref":"大阪府","city":"大阪市東住吉区","address":"矢田"},
{"zip_code":"5460035","kana_pref":"ｵｵｻｶﾌ","kana_city":"ｵｵｻｶｼﾋｶﾞｼｽﾐﾖｼｸ","kana_address":"ﾔﾏｻｶ","pref":"大阪府","city":"大阪市東住吉区","address":"山坂"},
{"zip_code":"5460013","kana_pref":"ｵｵｻｶﾌ","kana_city":"ｵｵｻｶｼﾋｶﾞｼｽﾐﾖｼｸ","kana_address":"ﾕｻﾞﾄ","pref":"大阪府","city":"大阪市東住吉区","address":"湯里"}]}