{"zip_code":[
{"zip_code":"5470000","kana_pref":"ｵｵｻｶﾌ","kana_city":"ｵｵｻｶｼﾋﾗﾉｸ","kana_address":"","pref":"大阪府","city":"大阪市平野区","address":""},
{"zip_code":"5470024","kana_pref":"ｵｵｻｶﾌ","kana_city":"ｵｵｻｶｼﾋﾗﾉｸ","kana_address":"ｳﾘﾜﾘ","pref":"大阪府","city":"大阪市平野区","address":"瓜破"},
{"zip_code":"5470022","kana_pref":"ｵｵｻｶﾌ","kana_city":"ｵｵｻｶｼﾋﾗﾉｸ","kana_address":"ｳﾘﾜﾘﾋｶﾞｼ","pref":"大阪府","city":"大阪市平野区","address":"瓜破東"},
{"zip_code":"5470025","kana_pref":"ｵｵｻｶﾌ","kana_city":"ｵｵｻｶｼﾋﾗﾉｸ","kana_address":"ｳﾘﾜﾘﾆｼ","pref":"大阪府","city":"大阪市平野区","address":"瓜破西"},
{"zip_code":"5470023","kana_pref":"ｵｵｻｶﾌ","kana_city":"ｵｵｻｶｼﾋﾗﾉｸ","kana_address":"ｳﾘﾜﾘﾐﾅﾐ","pref":"大阪府","city":"大阪市平野区","address":"瓜破南"},
{"zip_code":"5470004","kana_pref":"ｵｵｻｶﾌ","kana_city":"ｵｵｻｶｼﾋﾗﾉｸ","kana_address":"ｶﾐｸﾗﾂｸﾘ","pref":"大阪府","city":"大阪市平野区","address":"加美鞍作"},
{"zip_code":"5470006","kana_pref":"ｵｵｻｶﾌ","kana_city":"ｵｵｻｶｼﾋﾗﾉｸ","kana_address":"ｶﾐｼｮｳｶﾞｸｼﾞ","pref":"大阪府","city":"大阪市平野区","address":"加美正覚寺"},
{"zip_code":"5470002","kana_pref":"ｵｵｻｶﾌ","kana_city":"ｵｵｻｶｼﾋﾗﾉｸ","kana_address":"ｶﾐﾋｶﾞｼ","pref":"大阪府","city":"大阪市平野区","address":"加美東"},
{"zip_code":"5470005","kana_pref":"ｵｵｻｶﾌ","kana_city":"ｵｵｻｶｼﾋﾗﾉｸ","kana_address":"ｶﾐﾆｼ","pref":"大阪府","city":"大阪市平野区","address":"加美西"},
{"zip_code":"5470003","kana_pref":"ｵｵｻｶﾌ","kana_city":"ｵｵｻｶｼﾋﾗﾉｸ","kana_address":"ｶﾐﾐﾅﾐ","pref":"大阪府","city":"大阪市平野区","address":"加美南"},
{"zip_code":"5470001","kana_pref":"ｵｵｻｶﾌ","kana_city":"ｵｵｻｶｼﾋﾗﾉｸ","kana_address":"ｶﾐｷﾀ","pref":"大阪府","city":"大阪市平野区","address":"加美北"},
{"zip_code":"5470027","kana_pref":"ｵｵｻｶﾌ","kana_city":"ｵｵｻｶｼﾋﾗﾉｸ","kana_address":"ｷﾚ","pref":"大阪府","city":"大阪市平野区","address":"喜連"},
{"zip_code":"5470021","kana_pref":"ｵｵｻｶﾌ","kana_city":"ｵｵｻｶｼﾋﾗﾉｸ","kana_address":"ｷﾚﾋｶﾞｼ","pref":"大阪府","city":"大阪市平野区","address":"喜連東"},
{"zip_code":"5470026","kana_pref":"ｵｵｻｶﾌ","kana_city":"ｵｵｻｶｼﾋﾗﾉｸ","kana_address":"ｷﾚﾆｼ","pref":"大阪府","city":"大阪市平野区","address":"喜連西"},
{"zip_code":"5470034","kana_pref":"ｵｵｻｶﾌ","kana_city":"ｵｵｻｶｼﾋﾗﾉｸ","kana_address":"ｾﾄｸﾞﾁ","pref":"大阪府","city":"大阪市平野区","address":"背戸口"},
{"zip_code":"5470014","kana_pref":"ｵｵｻｶﾌ","kana_city":"ｵｵｻｶｼﾋﾗﾉｸ","kana_address":"ﾅｶﾞﾖｼｶﾜﾅﾍﾞ","pref":"大阪府","city":"大阪市平野区","address":"長吉川辺"},
{"zip_code":"5470011","kana_pref":"ｵｵｻｶﾌ","kana_city":"ｵｵｻｶｼﾋﾗﾉｸ","kana_address":"ﾅｶﾞﾖｼﾃﾞﾄ","pref":"大阪府","city":"大阪市平野区","address":"長吉出戸"},
{"zip_code":"5470016","kana_pref":"ｵｵｻｶﾌ","kana_city":"ｵｵｻｶｼﾋﾗﾉｸ","kana_address":"ﾅｶﾞﾖｼﾅｶﾞﾊﾗ","pref":"大阪府","city":"大阪市平野区","address":"長吉長原"},
{"zip_code":"5470013","kana_pref":"ｵｵｻｶﾌ","kana_city":"ｵｵｻｶｼﾋﾗﾉｸ","kana_address":"ﾅｶﾞﾖｼﾅｶﾞﾊﾗﾋｶﾞｼ","pref":"大阪府","city":"大阪市平野区","address":"長吉長原東"},
{"zip_code":"5470015","kana_pref":"ｵｵｻｶﾌ","kana_city":"ｵｵｻｶｼﾋﾗﾉｸ","kana_address":"ﾅｶﾞﾖｼﾅｶﾞﾊﾗﾆｼ","pref":"大阪府","city":"大阪市平野区","address":"長吉長原西"},
{"zip_code":"5470012","kana_pref":"ｵｵｻｶﾌ","kana_city":"ｵｵｻｶｼﾋﾗﾉｸ","kana_address":"ﾅｶﾞﾖｼﾛｸﾀﾝ","pref":"大阪府","city":"大阪市平野区","address":"長吉六反"},
{"zip_code":"5470032","kana_pref":"ｵｵｻｶﾌ","kana_city":"ｵｵｻｶｼﾋﾗﾉｸ","kana_address":"ﾅｶﾞﾚﾏﾁ","pref":"大阪府","city":"大阪市平野区","address":"流町"},
{"zip_code":"5470035","kana_pref":"ｵｵｻｶﾌ","kana_city":"ｵｵｻｶｼﾋﾗﾉｸ","kana_address":"ﾆｼﾜｷ","pref":"大阪府","city":"大阪市平野区","address":"西脇"},
{"zip_code":"5470042","kana_pref":"ｵｵｻｶﾌ","kana_city":"ｵｵｻｶｼﾋﾗﾉｸ","kana_address":"ﾋﾗﾉｲﾁﾏﾁ","pref":"大阪府","city":"大阪市平野区","address":"平野市町"},
{"zip_code":"5470045","kana_pref":"ｵｵｻｶﾌ","kana_city":"ｵｵｻｶｼﾋﾗﾉｸ","kana_address":"ﾋﾗﾉｳｴﾏﾁ","pref":"大阪府","city":"大阪市平野区","address":"平野上町"},
{"zip_code":"5470048","kana_pref":"ｵｵｻｶﾌ","kana_city":"ｵｵｻｶｼﾋﾗﾉｸ","kana_address":"ﾋﾗﾉﾊﾞﾊﾞ","pref":"大阪府","city":"大阪市平野区","address":"平野馬場"},
{"zip_code":"5470044","kana_pref":"ｵｵｻｶﾌ","kana_city":"ｵｵｻｶｼﾋﾗﾉｸ","kana_address":"ﾋﾗﾉﾎﾝﾏﾁ","pref":"大阪府","city":"大阪市平野区","address":"平野本町"},
{"zip_code":"5470046","kana_pref":"ｵｵｻｶﾌ","kana_city":"ｵｵｻｶｼﾋﾗﾉｸ","kana_address":"ﾋﾗﾉﾐﾔﾏﾁ","pref":"大阪府","city":"大阪市平野区","address":"平野宮町"},
{"zip_code":"5470047","kana_pref":"ｵｵｻｶﾌ","kana_city":"ｵｵｻｶｼﾋﾗﾉｸ","kana_address":"ﾋﾗﾉﾓﾄﾏﾁ","pref":"大阪府","city":"大阪市平野区","address":"平野元町"},
{"zip_code":"5470043","kana_pref":"ｵｵｻｶﾌ","kana_city":"ｵｵｻｶｼﾋﾗﾉｸ","kana_address":"ﾋﾗﾉﾋｶﾞｼ","pref":"大阪府","city":"大阪市平野区","address":"平野東"},
{"zip_code":"5470033","kana_pref":"ｵｵｻｶﾌ","kana_city":"ｵｵｻｶｼﾋﾗﾉｸ","kana_address":"ﾋﾗﾉﾆｼ","pref":"大阪府","city":"大阪市平野区","address":"平野西"},
{"zip_code":"5470031","kana_pref":"ｵｵｻｶﾌ","kana_city":"ｵｵｻｶｼﾋﾗﾉｸ","kana_address":"ﾋﾗﾉﾐﾅﾐ","pref":"大阪府","city":"大阪市平野区","address":"平野南"},
{"zip_code":"5470041","kana_pref":"ｵｵｻｶﾌ","kana_city":"ｵｵｻｶｼﾋﾗﾉｸ","kana_address":"ﾋﾗﾉｷﾀ","pref":"大阪府","city":"大阪市平野区","address":"平野北"}]}