{"zip_code":[
{"zip_code":"5530000","kana_pref":"ｵｵｻｶﾌ","kana_city":"ｵｵｻｶｼﾌｸｼﾏｸ","kana_address":"","pref":"大阪府","city":"大阪市福島区","address":""},
{"zip_code":"5530001","kana_pref":"ｵｵｻｶﾌ","kana_city":"ｵｵｻｶｼﾌｸｼﾏｸ","kana_address":"ｴﾋﾞｴ","pref":"大阪府","city":"大阪市福島区","address":"海老江"},
{"zip_code":"5530007","kana_pref":"ｵｵｻｶﾌ","kana_city":"ｵｵｻｶｼﾌｸｼﾏｸ","kana_address":"ｵｵﾋﾗｷ","pref":"大阪府","city":"大阪市福島区","address":"大開"},
{"zip_code":"5530002","kana_pref":"ｵｵｻｶﾌ","kana_city":"ｵｵｻｶｼﾌｸｼﾏｸ","kana_address":"ｻｷﾞｽ","pref":"大阪府","city":"大阪市福島区","address":"鷺洲"},
{"zip_code":"5530004","kana_pref":"ｵｵｻｶﾌ","kana_city":"ｵｵｻｶｼﾌｸｼﾏｸ","kana_address":"ﾀﾏｶﾞﾜ","pref":"大阪府","city":"大阪市福島区","address":"玉川"},
{"zip_code":"5530005","kana_pref":"ｵｵｻｶﾌ","kana_city":"ｵｵｻｶｼﾌｸｼﾏｸ","kana_address":"ﾉﾀﾞ","pref":"大阪府","city":"大阪市福島区","address":"野田"},
{"zip_code":"5530003","kana_pref":"ｵｵｻｶﾌ","kana_city":"ｵｵｻｶｼﾌｸｼﾏｸ","kana_address":"ﾌｸｼﾏ","pref":"大阪府","city":"大阪市福島区","address":"福島"},
{"zip_code":"5530006","kana_pref":"ｵｵｻｶﾌ","kana_city":"ｵｵｻｶｼﾌｸｼﾏｸ","kana_address":"ﾖｼﾉ","pref":"大阪府","city":"大阪市福島区","address":"吉野"}]}