{"zip_code":[
{"zip_code":"5560000","kana_pref":"ｵｵｻｶﾌ","kana_city":"ｵｵｻｶｼﾅﾆﾜｸ","kana_address":"","pref":"大阪府","city":"大阪市浪速区","address":""},
{"zip_code":"5560029","kana_pref":"ｵｵｻｶﾌ","kana_city":"ｵｵｻｶｼﾅﾆﾜｸ","kana_address":"ｱｼﾊﾗ","pref":"大阪府","city":"大阪市浪速区","address":"芦原"},
{"zip_code":"5560023","kana_pref":"ｵｵｻｶﾌ","kana_city":"ｵｵｻｶｼﾅﾆﾜｸ","kana_address":"ｲﾅﾘ","pref":"大阪府","city":"大阪市浪速区","address":"稲荷"},
{"zip_code":"5560013","kana_pref":"ｵｵｻｶﾌ","kana_city":"ｵｵｻｶｼﾅﾆﾜｸ","kana_address":"ｴﾋﾞｽﾎﾝﾏﾁ","pref":"大阪府","city":"大阪市浪速区","address":"戎本町"},
{"zip_code":"5560002","kana_pref":"ｵｵｻｶﾌ","kana_city":"ｵｵｻｶｼﾅﾆﾜｸ","kana_address":"ｴﾋﾞｽﾋｶﾞｼ","pref":"大阪府","city":"大阪市浪速区","address":"恵美須東"},
{"zip_code":"5560003","kana_pref":"ｵｵｻｶﾌ","kana_city":"ｵｵｻｶｼﾅﾆﾜｸ","kana_address":"ｴﾋﾞｽﾆｼ","pref":"大阪府","city":"大阪市浪速区","address":"恵美須西"},
{"zip_code":"5560027","kana_pref":"ｵｵｻｶﾌ","kana_city":"ｵｵｻｶｼﾅﾆﾜｸ","kana_address":"ｷﾂﾞｶﾞﾜ","pref":"大阪府","city":"大阪市浪速区","address":"木津川"},
{"zip_code":"5560028","kana_pref":"ｵｵｻｶﾌ","kana_city":"ｵｵｻｶｼﾅﾆﾜｸ","kana_address":"ｸﾎﾞﾖｼ","pref":"大阪府","city":"大阪市浪速区","address":"久保吉"},
{"zip_code":"5560021","kana_pref":"ｵｵｻｶﾌ","kana_city":"ｵｵｻｶｼﾅﾆﾜｸ","kana_address":"ｻｲﾜｲﾁｮｳ","pref":"大阪府","city":"大阪市浪速区","address":"幸町"},
{"zip_code":"5560022","kana_pref":"ｵｵｻｶﾌ","kana_city":"ｵｵｻｶｼﾅﾆﾜｸ","kana_address":"ｻｸﾗｶﾞﾜ","pref":"大阪府","city":"大阪市浪速区","address":"桜川"},
{"zip_code":"5560024","kana_pref":"ｵｵｻｶﾌ","kana_city":"ｵｵｻｶｼﾅﾆﾜｸ","kana_address":"ｼｵｸｻ","pref":"大阪府","city":"大阪市浪速区","address":"塩草"},
{"zip_code":"5560012","kana_pref":"ｵｵｻｶﾌ","kana_city":"ｵｵｻｶｼﾅﾆﾜｸ","kana_address":"ｼｷﾂﾋｶﾞｼ","pref":"大阪府","city":"大阪市浪速区","address":"敷津東"},
{"zip_code":"5560015","kana_pref":"ｵｵｻｶﾌ","kana_city":"ｵｵｻｶｼﾅﾆﾜｸ","kana_address":"ｼｷﾂﾆｼ","pref":"大阪府","city":"大阪市浪速区","address":"敷津西"},
{"zip_code":"5560001","kana_pref":"ｵｵｻｶﾌ","kana_city":"ｵｵｻｶｼﾅﾆﾜｸ","kana_address":"ｼﾓﾃﾞﾗ","pref":"大阪府","city":"大阪市浪速区","address":"下寺"},
{"zip_code":"5560014","kana_pref":"ｵｵｻｶﾌ","kana_city":"ｵｵｻｶｼﾅﾆﾜｸ","kana_address":"ﾀﾞｲｺｸ","pref":"大阪府","city":"大阪市浪速区","address":"大国"},
{"zip_code":"5560020","kana_pref":"ｵｵｻｶﾌ","kana_city":"ｵｵｻｶｼﾅﾆﾜｸ","kana_address":"ﾀﾃﾊﾞ","pref":"大阪府","city":"大阪市浪速区","address":"立葉"},
{"zip_code":"5560025","kana_pref":"ｵｵｻｶﾌ","kana_city":"ｵｵｻｶｼﾅﾆﾜｸ","kana_address":"ﾅﾆﾜﾋｶﾞｼ","pref":"大阪府","city":"大阪市浪速区","address":"浪速東"},
{"zip_code":"5560026","kana_pref":"ｵｵｻｶﾌ","kana_city":"ｵｵｻｶｼﾅﾆﾜｸ","kana_address":"ﾅﾆﾜﾆｼ","pref":"大阪府","city":"大阪市浪速区","address":"浪速西"},
{"zip_code":"5560011","kana_pref":"ｵｵｻｶﾌ","kana_city":"ｵｵｻｶｼﾅﾆﾜｸ","kana_address":"ﾅﾝﾊﾞﾅｶ","pref":"大阪府","city":"大阪市浪速区","address":"難波中"},
{"zip_code":"5560005","kana_pref":"ｵｵｻｶﾌ","kana_city":"ｵｵｻｶｼﾅﾆﾜｸ","kana_address":"ﾆｯﾎﾟﾝﾊﾞｼ","pref":"大阪府","city":"大阪市浪速区","address":"日本橋"},
{"zip_code":"5560006","kana_pref":"ｵｵｻｶﾌ","kana_city":"ｵｵｻｶｼﾅﾆﾜｸ","kana_address":"ﾆｯﾎﾟﾝﾊﾞｼﾋｶﾞｼ","pref":"大阪府","city":"大阪市浪速区","address":"日本橋東"},
{"zip_code":"5560004","kana_pref":"ｵｵｻｶﾌ","kana_city":"ｵｵｻｶｼﾅﾆﾜｸ","kana_address":"ﾆｯﾎﾟﾝﾊﾞｼﾆｼ","pref":"大阪府","city":"大阪市浪速区","address":"日本橋西"},
{"zip_code":"5560017","kana_pref":"ｵｵｻｶﾌ","kana_city":"ｵｵｻｶｼﾅﾆﾜｸ","kana_address":"ﾐﾅﾄﾏﾁ","pref":"大阪府","city":"大阪市浪速区","address":"湊町"},
{"zip_code":"5560016","kana_pref":"ｵｵｻｶﾌ","kana_city":"ｵｵｻｶｼﾅﾆﾜｸ","kana_address":"ﾓﾄﾏﾁ","pref":"大阪府","city":"大阪市浪速区","address":"元町"}]}