{"zip_code":[
{"zip_code":"5570000","kana_pref":"ｵｵｻｶﾌ","kana_city":"ｵｵｻｶｼﾆｼﾅﾘｸ","kana_address":"","pref":"大阪府","city":"大阪市西成区","address":""},
{"zip_code":"5570032","kana_pref":"ｵｵｻｶﾌ","kana_city":"ｵｵｻｶｼﾆｼﾅﾘｸ","kana_address":"ｱｻﾋ","pref":"大阪府","city":"大阪市西成区","address":"旭"},
{"zip_code":"5570041","kana_pref":"ｵｵｻｶﾌ","kana_city":"ｵｵｻｶｼﾆｼﾅﾘｸ","kana_address":"ｷｼﾉｻﾄ","pref":"大阪府","city":"大阪市西成区","address":"岸里"},
{"zip_code":"5570042","kana_pref":"ｵｵｻｶﾌ","kana_city":"ｵｵｻｶｼﾆｼﾅﾘｸ","kana_address":"ｷｼﾉｻﾄﾋｶﾞｼ","pref":"大阪府","city":"大阪市西成区","address":"岸里東"},
{"zip_code":"5570061","kana_pref":"ｵｵｻｶﾌ","kana_city":"ｵｵｻｶｼﾆｼﾅﾘｸ","kana_address":"ｷﾀﾂﾓﾘ","pref":"大阪府","city":"大阪市西成区","address":"北津守"},
{"zip_code":"5570021","kana_pref":"ｵｵｻｶﾌ","kana_city":"ｵｵｻｶｼﾆｼﾅﾘｸ","kana_address":"ｷﾀﾋﾞﾗｷ","pref":"大阪府","city":"大阪市西成区","address":"北開"},
{"zip_code":"5570001","kana_pref":"ｵｵｻｶﾌ","kana_city":"ｵｵｻｶｼﾆｼﾅﾘｸ","kana_address":"ｻﾝﾉｳ","pref":"大阪府","city":"大阪市西成区","address":"山王"},
{"zip_code":"5570052","kana_pref":"ｵｵｻｶﾌ","kana_city":"ｵｵｻｶｼﾆｼﾅﾘｸ","kana_address":"ｼｵｼﾞ","pref":"大阪府","city":"大阪市西成区","address":"潮路"},
{"zip_code":"5570012","kana_pref":"ｵｵｻｶﾌ","kana_city":"ｵｵｻｶｼﾆｼﾅﾘｸ","kana_address":"ｼｮｳﾃﾝｼﾀ","pref":"大阪府","city":"大阪市西成区","address":"聖天下"},
{"zip_code":"5570054","kana_pref":"ｵｵｻｶﾌ","kana_city":"ｵｵｻｶｼﾆｼﾅﾘｸ","kana_address":"ｾﾝﾎﾞﾝﾅｶ","pref":"大阪府","city":"大阪市西成区","address":"千本中"},
{"zip_code":"5570055","kana_pref":"ｵｵｻｶﾌ","kana_city":"ｵｵｻｶｼﾆｼﾅﾘｸ","kana_address":"ｾﾝﾎﾞﾝﾐﾅﾐ","pref":"大阪府","city":"大阪市西成区","address":"千本南"},
{"zip_code":"5570053","kana_pref":"ｵｵｻｶﾌ","kana_city":"ｵｵｻｶｼﾆｼﾅﾘｸ","kana_address":"ｾﾝﾎﾞﾝｷﾀ","pref":"大阪府","city":"大阪市西成区","address":"千本北"},
{"zip_code":"5570002","kana_pref":"ｵｵｻｶﾌ","kana_city":"ｵｵｻｶｼﾆｼﾅﾘｸ","kana_address":"ﾀｲｼ","pref":"大阪府","city":"大阪市西成区","address":"太子"},
{"zip_code":"5570051","kana_pref":"ｵｵｻｶﾌ","kana_city":"ｵｵｻｶｼﾆｼﾅﾘｸ","kana_address":"ﾀﾁﾊﾞﾅ","pref":"大阪府","city":"大阪市西成区","address":"橘"},
{"zip_code":"5570044","kana_pref":"ｵｵｻｶﾌ","kana_city":"ｵｵｻｶｼﾆｼﾅﾘｸ","kana_address":"ﾀﾏﾃﾞﾅｶ","pref":"大阪府","city":"大阪市西成区","address":"玉出中"},
{"zip_code":"5570043","kana_pref":"ｵｵｻｶﾌ","kana_city":"ｵｵｻｶｼﾆｼﾅﾘｸ","kana_address":"ﾀﾏﾃﾞﾋｶﾞｼ","pref":"大阪府","city":"大阪市西成区","address":"玉出東"},
{"zip_code":"5570045","kana_pref":"ｵｵｻｶﾌ","kana_city":"ｵｵｻｶｼﾆｼﾅﾘｸ","kana_address":"ﾀﾏﾃﾞﾆｼ","pref":"大阪府","city":"大阪市西成区","address":"玉出西"},
{"zip_code":"5570062","kana_pref":"ｵｵｻｶﾌ","kana_city":"ｵｵｻｶｼﾆｼﾅﾘｸ","kana_address":"ﾂﾓﾘ","pref":"大阪府","city":"大阪市西成区","address":"津守"},
{"zip_code":"5570031","kana_pref":"ｵｵｻｶﾌ","kana_city":"ｵｵｻｶｼﾆｼﾅﾘｸ","kana_address":"ﾂﾙﾐﾊﾞｼ","pref":"大阪府","city":"大阪市西成区","address":"鶴見橋"},
{"zip_code":"5570024","kana_pref":"ｵｵｻｶﾌ","kana_city":"ｵｵｻｶｼﾆｼﾅﾘｸ","kana_address":"ﾃﾞｼﾛ","pref":"大阪府","city":"大阪市西成区","address":"出城"},
{"zip_code":"5570014","kana_pref":"ｵｵｻｶﾌ","kana_city":"ｵｵｻｶｼﾆｼﾅﾘｸ","kana_address":"ﾃﾝｶﾞﾁｬﾔ","pref":"大阪府","city":"大阪市西成区","address":"天下茶屋"},
{"zip_code":"5570011","kana_pref":"ｵｵｻｶﾌ","kana_city":"ｵｵｻｶｼﾆｼﾅﾘｸ","kana_address":"ﾃﾝｶﾞﾁｬﾔﾋｶﾞｼ","pref":"大阪府","city":"大阪市西成区","address":"天下茶屋東"},
{"zip_code":"5570003","kana_pref":"ｵｵｻｶﾌ","kana_city":"ｵｵｻｶｼﾆｼﾅﾘｸ","kana_address":"ﾃﾝｶﾞﾁｬﾔｷﾀ","pref":"大阪府","city":"大阪市西成区","address":"天下茶屋北"},
{"zip_code":"5570013","kana_pref":"ｵｵｻｶﾌ","kana_city":"ｵｵｻｶｼﾆｼﾅﾘｸ","kana_address":"ﾃﾝｼﾞﾝﾉﾓﾘ","pref":"大阪府","city":"大阪市西成区","address":"天神ノ森"},
{"zip_code":"5570022","kana_pref":"ｵｵｻｶﾌ","kana_city":"ｵｵｻｶｼﾆｼﾅﾘｸ","kana_address":"ﾅｶﾋﾞﾗｷ","pref":"大阪府","city":"大阪市西成区","address":"中開"},
{"zip_code":"5570025","kana_pref":"ｵｵｻｶﾌ","kana_city":"ｵｵｻｶｼﾆｼﾅﾘｸ","kana_address":"ﾅｶﾞﾊｼ","pref":"大阪府","city":"大阪市西成区","address":"長橋"},
{"zip_code":"5570033","kana_pref":"ｵｵｻｶﾌ","kana_city":"ｵｵｻｶｼﾆｼﾅﾘｸ","kana_address":"ﾊﾞｲﾅﾝ","pref":"大阪府","city":"大阪市西成区","address":"梅南"},
{"zip_code":"5570004","kana_pref":"ｵｵｻｶﾌ","kana_city":"ｵｵｻｶｼﾆｼﾅﾘｸ","kana_address":"ﾊｷﾞﾉﾁｬﾔ","pref":"大阪府","city":"大阪市西成区","address":"萩之茶屋"},
{"zip_code":"5570015","kana_pref":"ｵｵｻｶﾌ","kana_city":"ｵｵｻｶｼﾆｼﾅﾘｸ","kana_address":"ﾊﾅｿﾞﾉﾐﾅﾐ","pref":"大阪府","city":"大阪市西成区","address":"花園南"},
{"zip_code":"5570016","kana_pref":"ｵｵｻｶﾌ","kana_city":"ｵｵｻｶｼﾆｼﾅﾘｸ","kana_address":"ﾊﾅｿﾞﾉｷﾀ","pref":"大阪府","city":"大阪市西成区","address":"花園北"},
{"zip_code":"5570034","kana_pref":"ｵｵｻｶﾌ","kana_city":"ｵｵｻｶｼﾆｼﾅﾘｸ","kana_address":"ﾏﾂ","pref":"大阪府","city":"大阪市西成区","address":"松"},
{"zip_code":"5570063","kana_pref":"ｵｵｻｶﾌ","kana_city":"ｵｵｻｶｼﾆｼﾅﾘｸ","kana_address":"ﾐﾅﾐﾂﾓﾘ","pref":"大阪府","city":"大阪市西成区","address":"南津守"},
{"zip_code":"5570023","kana_pref":"ｵｵｻｶﾌ","kana_city":"ｵｵｻｶｼﾆｼﾅﾘｸ","kana_address":"ﾐﾅﾐﾋﾞﾗｷ","pref":"大阪府","city":"大阪市西成区","address":"南開"}]}