{"zip_code":[
{"zip_code":"5580000","kana_pref":"ｵｵｻｶﾌ","kana_city":"ｵｵｻｶｼｽﾐﾖｼｸ","kana_address":"","pref":"大阪府","city":"大阪市住吉区","address":""},
{"zip_code":"5580021","kana_pref":"ｵｵｻｶﾌ","kana_city":"ｵｵｻｶｼｽﾐﾖｼｸ","kana_address":"ｱｻｶ","pref":"大阪府","city":"大阪市住吉区","address":"浅香"},
{"zip_code":"5580014","kana_pref":"ｵｵｻｶﾌ","kana_city":"ｵｵｻｶｼｽﾐﾖｼｸ","kana_address":"ｱﾋﾞｺ","pref":"大阪府","city":"大阪市住吉区","address":"我孫子"},
{"zip_code":"5580013","kana_pref":"ｵｵｻｶﾌ","kana_city":"ｵｵｻｶｼｽﾐﾖｼｸ","kana_address":"ｱﾋﾞｺﾋｶﾞｼ","pref":"大阪府","city":"大阪市住吉区","address":"我孫子東"},
{"zip_code":"5580015","kana_pref":"ｵｵｻｶﾌ","kana_city":"ｵｵｻｶｼｽﾐﾖｼｸ","kana_address":"ｱﾋﾞｺﾆｼ","pref":"大阪府","city":"大阪市住吉区","address":"我孫子西"},
{"zip_code":"5580046","kana_pref":"ｵｵｻｶﾌ","kana_city":"ｵｵｻｶｼｽﾐﾖｼｸ","kana_address":"ｳｴｽﾐﾖｼ","pref":"大阪府","city":"大阪市住吉区","address":"上住吉"},
{"zip_code":"5580032","kana_pref":"ｵｵｻｶﾌ","kana_city":"ｵｵｻｶｼｽﾐﾖｼｸ","kana_address":"ｵﾘｵﾉ","pref":"大阪府","city":"大阪市住吉区","address":"遠里小野"},
{"zip_code":"5580011","kana_pref":"ｵｵｻｶﾌ","kana_city":"ｵｵｻｶｼｽﾐﾖｼｸ","kana_address":"ｶﾘﾀ","pref":"大阪府","city":"大阪市住吉区","address":"苅田"},
{"zip_code":"5580031","kana_pref":"ｵｵｻｶﾌ","kana_city":"ｵｵｻｶｼｽﾐﾖｼｸ","kana_address":"ｻﾜﾉﾁｮｳ","pref":"大阪府","city":"大阪市住吉区","address":"沢之町"},
{"zip_code":"5580033","kana_pref":"ｵｵｻｶﾌ","kana_city":"ｵｵｻｶｼｽﾐﾖｼｸ","kana_address":"ｼﾐｽﾞｶﾞｵｶ","pref":"大阪府","city":"大阪市住吉区","address":"清水丘"},
{"zip_code":"5580022","kana_pref":"ｵｵｻｶﾌ","kana_city":"ｵｵｻｶｼｽﾐﾖｼｸ","kana_address":"ｽｷﾞﾓﾄ","pref":"大阪府","city":"大阪市住吉区","address":"杉本"},
{"zip_code":"5580043","kana_pref":"ｵｵｻｶﾌ","kana_city":"ｵｵｻｶｼｽﾐﾖｼｸ","kana_address":"ｽﾐｴ","pref":"大阪府","city":"大阪市住吉区","address":"墨江"},
{"zip_code":"5580045","kana_pref":"ｵｵｻｶﾌ","kana_city":"ｵｵｻｶｼｽﾐﾖｼｸ","kana_address":"ｽﾐﾖｼ","pref":"大阪府","city":"大阪市住吉区","address":"住吉"},
{"zip_code":"5580047","kana_pref":"ｵｵｻｶﾌ","kana_city":"ｵｵｻｶｼｽﾐﾖｼｸ","kana_address":"ｾﾝﾀｲ","pref":"大阪府","city":"大阪市住吉区","address":"千躰"},
{"zip_code":"5580001","kana_pref":"ｵｵｻｶﾌ","kana_city":"ｵｵｻｶｼｽﾐﾖｼｸ","kana_address":"ﾀﾞｲﾘｮｳ","pref":"大阪府","city":"大阪市住吉区","address":"大領"},
{"zip_code":"5580053","kana_pref":"ｵｵｻｶﾌ","kana_city":"ｵｵｻｶｼｽﾐﾖｼｸ","kana_address":"ﾃﾂﾞｶﾔﾏﾅｶ","pref":"大阪府","city":"大阪市住吉区","address":"帝塚山中"},
{"zip_code":"5580054","kana_pref":"ｵｵｻｶﾌ","kana_city":"ｵｵｻｶｼｽﾐﾖｼｸ","kana_address":"ﾃﾂﾞｶﾔﾏﾋｶﾞｼ","pref":"大阪府","city":"大阪市住吉区","address":"帝塚山東"},
{"zip_code":"5580052","kana_pref":"ｵｵｻｶﾌ","kana_city":"ｵｵｻｶｼｽﾐﾖｼｸ","kana_address":"ﾃﾂﾞｶﾔﾏﾆｼ","pref":"大阪府","city":"大阪市住吉区","address":"帝塚山西"},
{"zip_code":"5580042","kana_pref":"ｵｵｻｶﾌ","kana_city":"ｵｵｻｶｼｽﾐﾖｼｸ","kana_address":"ﾄﾉﾂｼﾞ","pref":"大阪府","city":"大阪市住吉区","address":"殿辻"},
{"zip_code":"5580003","kana_pref":"ｵｵｻｶﾌ","kana_city":"ｵｵｻｶｼｽﾐﾖｼｸ","kana_address":"ﾅｶﾞｲ","pref":"大阪府","city":"大阪市住吉区","address":"長居"},
{"zip_code":"5580004","kana_pref":"ｵｵｻｶﾌ","kana_city":"ｵｵｻｶｼｽﾐﾖｼｸ","kana_address":"ﾅｶﾞｲﾋｶﾞｼ","pref":"大阪府","city":"大阪市住吉区","address":"長居東"},
{"zip_code":"5580002","kana_pref":"ｵｵｻｶﾌ","kana_city":"ｵｵｻｶｼｽﾐﾖｼｸ","kana_address":"ﾅｶﾞｲﾆｼ","pref":"大阪府","city":"大阪市住吉区","address":"長居西"},
{"zip_code":"5580044","kana_pref":"ｵｵｻｶﾌ","kana_city":"ｵｵｻｶｼｽﾐﾖｼｸ","kana_address":"ﾅｶﾞｵﾁｮｳ","pref":"大阪府","city":"大阪市住吉区","address":"長峡町"},
{"zip_code":"5580012","kana_pref":"ｵｵｻｶﾌ","kana_city":"ｵｵｻｶｼｽﾐﾖｼｸ","kana_address":"ﾆﾜｲ","pref":"大阪府","city":"大阪市住吉区","address":"庭井"},
{"zip_code":"5580055","kana_pref":"ｵｵｻｶﾌ","kana_city":"ｵｵｻｶｼｽﾐﾖｼｸ","kana_address":"ﾊﾞﾝﾀﾞｲ","pref":"大阪府","city":"大阪市住吉区","address":"万代"},
{"zip_code":"5580056","kana_pref":"ｵｵｻｶﾌ","kana_city":"ｵｵｻｶｼｽﾐﾖｼｸ","kana_address":"ﾊﾞﾝﾀﾞｲﾋｶﾞｼ","pref":"大阪府","city":"大阪市住吉区","address":"万代東"},
{"zip_code":"5580051","kana_pref":"ｵｵｻｶﾌ","kana_city":"ｵｵｻｶｼｽﾐﾖｼｸ","kana_address":"ﾋｶﾞｼｺﾊﾏ","pref":"大阪府","city":"大阪市住吉区","address":"東粉浜"},
{"zip_code":"5580041","kana_pref":"ｵｵｻｶﾌ","kana_city":"ｵｵｻｶｼｽﾐﾖｼｸ","kana_address":"ﾐﾅﾐｽﾐﾖｼ","pref":"大阪府","city":"大阪市住吉区","address":"南住吉"},
{"zip_code":"5580023","kana_pref":"ｵｵｻｶﾌ","kana_city":"ｵｵｻｶｼｽﾐﾖｼｸ","kana_address":"ﾔﾏﾉｳﾁ","pref":"大阪府","city":"大阪市住吉区","address":"山之内"},
{"zip_code":"5580024","kana_pref":"ｵｵｻｶﾌ","kana_city":"ｵｵｻｶｼｽﾐﾖｼｸ","kana_address":"ﾔﾏﾉｳﾁﾓﾄﾏﾁ","pref":"大阪府","city":"大阪市住吉区","address":"山之内元町"}]}