{"zip_code":[
{"zip_code":"5590000","kana_pref":"ｵｵｻｶﾌ","kana_city":"ｵｵｻｶｼｽﾐﾉｴｸ","kana_address":"","pref":"大阪府","city":"大阪市住之江区","address":""},
{"zip_code":"5590003","kana_pref":"ｵｵｻｶﾌ","kana_city":"ｵｵｻｶｼｽﾐﾉｴｸ","kana_address":"ｱﾝﾘｭｳ","pref":"大阪府","city":"大阪市住之江区","address":"安立"},
{"zip_code":"5590023","kana_pref":"ｵｵｻｶﾌ","kana_city":"ｵｵｻｶｼｽﾐﾉｴｸ","kana_address":"ｲｽﾞﾐ","pref":"大阪府","city":"大阪市住之江区","address":"泉"},
{"zip_code":"5590011","kana_pref":"ｵｵｻｶﾌ","kana_city":"ｵｵｻｶｼｽﾐﾉｴｸ","kana_address":"ｷﾀｶｶﾞﾔ","pref":"大阪府","city":"大阪市住之江区","address":"北加賀屋"},
{"zip_code":"5590014","kana_pref":"ｵｵｻｶﾌ","kana_city":"ｵｵｻｶｼｽﾐﾉｴｸ","kana_address":"ｷﾀｼﾞﾏ","pref":"大阪府","city":"大阪市住之江区","address":"北島"},
{"zip_code":"5590001","kana_pref":"ｵｵｻｶﾌ","kana_city":"ｵｵｻｶｼｽﾐﾉｴｸ","kana_address":"ｺﾊﾏ","pref":"大阪府","city":"大阪市住之江区","address":"粉浜"},
{"zip_code":"5590007","kana_pref":"ｵｵｻｶﾌ","kana_city":"ｵｵｻｶｼｽﾐﾉｴｸ","kana_address":"ｺﾊﾏﾆｼ","pref":"大阪府","city":"大阪市住之江区","address":"粉浜西"},
{"zip_code":"5590021","kana_pref":"ｵｵｻｶﾌ","kana_city":"ｵｵｻｶｼｽﾐﾉｴｸ","kana_address":"ｼﾊﾞﾀﾆ","pref":"大阪府","city":"大阪市住之江区","address":"柴谷"},
{"zip_code":"5590024","kana_pref":"ｵｵｻｶﾌ","kana_city":"ｵｵｻｶｼｽﾐﾉｴｸ","kana_address":"ｼﾝｷﾀｼﾞﾏ","pref":"大阪府","city":"大阪市住之江区","address":"新北島"},
{"zip_code":"5590004","kana_pref":"ｵｵｻｶﾌ","kana_city":"ｵｵｻｶｼｽﾐﾉｴｸ","kana_address":"ｽﾐﾉｴ","pref":"大阪府","city":"大阪市住之江区","address":"住之江"},
{"zip_code":"5590017","kana_pref":"ｵｵｻｶﾌ","kana_city":"ｵｵｻｶｼｽﾐﾉｴｸ","kana_address":"ﾅｶｶｶﾞﾔ","pref":"大阪府","city":"大阪市住之江区","address":"中加賀屋"},
{"zip_code":"5590033","kana_pref":"ｵｵｻｶﾌ","kana_city":"ｵｵｻｶｼｽﾐﾉｴｸ","kana_address":"ﾅﾝｺｳﾅｶ","pref":"大阪府","city":"大阪市住之江区","address":"南港中"},
{"zip_code":"5590031","kana_pref":"ｵｵｻｶﾌ","kana_city":"ｵｵｻｶｼｽﾐﾉｴｸ","kana_address":"ﾅﾝｺｳﾋｶﾞｼ","pref":"大阪府","city":"大阪市住之江区","address":"南港東"},
{"zip_code":"5590032","kana_pref":"ｵｵｻｶﾌ","kana_city":"ｵｵｻｶｼｽﾐﾉｴｸ","kana_address":"ﾅﾝｺｳﾐﾅﾐ","pref":"大阪府","city":"大阪市住之江区","address":"南港南"},
{"zip_code":"5590034","kana_pref":"ｵｵｻｶﾌ","kana_city":"ｵｵｻｶｼｽﾐﾉｴｸ","kana_address":"ﾅﾝｺｳｷﾀ","pref":"大阪府","city":"大阪市住之江区","address":"南港北"},
{"zip_code":"5590016","kana_pref":"ｵｵｻｶﾌ","kana_city":"ｵｵｻｶｼｽﾐﾉｴｸ","kana_address":"ﾆｼｶｶﾞﾔ","pref":"大阪府","city":"大阪市住之江区","address":"西加賀屋"},
{"zip_code":"5590005","kana_pref":"ｵｵｻｶﾌ","kana_city":"ｵｵｻｶｼｽﾐﾉｴｸ","kana_address":"ﾆｼｽﾐﾉｴ","pref":"大阪府","city":"大阪市住之江区","address":"西住之江"},
{"zip_code":"5590002","kana_pref":"ｵｵｻｶﾌ","kana_city":"ｵｵｻｶｼｽﾐﾉｴｸ","kana_address":"ﾊﾏｸﾞﾁﾋｶﾞｼ","pref":"大阪府","city":"大阪市住之江区","address":"浜口東"},
{"zip_code":"5590006","kana_pref":"ｵｵｻｶﾌ","kana_city":"ｵｵｻｶｼｽﾐﾉｴｸ","kana_address":"ﾊﾏｸﾞﾁﾆｼ","pref":"大阪府","city":"大阪市住之江区","address":"浜口西"},
{"zip_code":"5590012","kana_pref":"ｵｵｻｶﾌ","kana_city":"ｵｵｻｶｼｽﾐﾉｴｸ","kana_address":"ﾋｶﾞｼｶｶﾞﾔ","pref":"大阪府","city":"大阪市住之江区","address":"東加賀屋"},
{"zip_code":"5590025","kana_pref":"ｵｵｻｶﾌ","kana_city":"ｵｵｻｶｼｽﾐﾉｴｸ","kana_address":"ﾋﾗﾊﾞﾔｼﾐﾅﾐ","pref":"大阪府","city":"大阪市住之江区","address":"平林南"},
{"zip_code":"5590026","kana_pref":"ｵｵｻｶﾌ","kana_city":"ｵｵｻｶｼｽﾐﾉｴｸ","kana_address":"ﾋﾗﾊﾞﾔｼｷﾀ","pref":"大阪府","city":"大阪市住之江区","address":"平林北"},
{"zip_code":"5590013","kana_pref":"ｵｵｻｶﾌ","kana_city":"ｵｵｻｶｼｽﾐﾉｴｸ","kana_address":"ﾐｻｷ","pref":"大阪府","city":"大阪市住之江区","address":"御崎"},
{"zip_code":"5590022","kana_pref":"ｵｵｻｶﾌ","kana_city":"ｵｵｻｶｼｽﾐﾉｴｸ","kana_address":"ﾐﾄﾞﾘｷﾞ","pref":"大阪府","city":"大阪市住之江区","address":"緑木"},
{"zip_code":"5590015","kana_pref":"ｵｵｻｶﾌ","kana_city":"ｵｵｻｶｼｽﾐﾉｴｸ","kana_address":"ﾐﾅﾐｶｶﾞﾔ","pref":"大阪府","city":"大阪市住之江区","address":"南加賀屋"}]}