{"zip_code":[
{"zip_code":"5610865","kana_pref":"ｵｵｻｶﾌ","kana_city":"ﾄﾖﾅｶｼ","kana_address":"ｱｻﾋｶﾞｵｶ","pref":"大阪府","city":"豊中市","address":"旭丘"},
{"zip_code":"5610854","kana_pref":"ｵｵｻｶﾌ","kana_city":"ﾄﾖﾅｶｼ","kana_address":"ｲﾅﾂﾞﾁｮｳ","pref":"大阪府","city":"豊中市","address":"稲津町"},
{"zip_code":"5610842","kana_pref":"ｵｵｻｶﾌ","kana_city":"ﾄﾖﾅｶｼ","kana_address":"ｲﾏｻﾞｲｹﾁｮｳ","pref":"大阪府","city":"豊中市","address":"今在家町"},
{"zip_code":"5610824","kana_pref":"ｵｵｻｶﾌ","kana_city":"ﾄﾖﾅｶｼ","kana_address":"ｵｵｼﾏﾁｮｳ","pref":"大阪府","city":"豊中市","address":"大島町"},
{"zip_code":"5610885","kana_pref":"ｵｵｻｶﾌ","kana_city":"ﾄﾖﾅｶｼ","kana_address":"ｵｶﾏﾁ","pref":"大阪府","city":"豊中市","address":"岡町"},
{"zip_code":"5610883","kana_pref":"ｵｵｻｶﾌ","kana_city":"ﾄﾖﾅｶｼ","kana_address":"ｵｶﾏﾁﾐﾅﾐ","pref":"大阪府","city":"豊中市","address":"岡町南"},
{"zip_code":"5610884","kana_pref":"ｵｵｻｶﾌ","kana_city":"ﾄﾖﾅｶｼ","kana_address":"ｵｶﾏﾁｷﾀ","pref":"大阪府","city":"豊中市","address":"岡町北"},
{"zip_code":"5610813","kana_pref":"ｵｵｻｶﾌ","kana_city":"ﾄﾖﾅｶｼ","kana_address":"ｵｿﾞﾈ","pref":"大阪府","city":"豊中市","address":"小曽根"},
{"zip_code":"5610894","kana_pref":"ｵｵｻｶﾌ","kana_city":"ﾄﾖﾅｶｼ","kana_address":"ｶﾂﾍﾞ","pref":"大阪府","city":"豊中市","address":"勝部"},
{"zip_code":"5610823","kana_pref":"ｵｵｻｶﾌ","kana_city":"ﾄﾖﾅｶｼ","kana_address":"ｶﾐｽﾁｮｳ","pref":"大阪府","city":"豊中市","address":"神州町"},
{"zip_code":"5610812","kana_pref":"ｵｵｻｶﾌ","kana_city":"ﾄﾖﾅｶｼ","kana_address":"ｷﾀｼﾞｮｳﾁｮｳ","pref":"大阪府","city":"豊中市","address":"北条町"},
{"zip_code":"5610843","kana_pref":"ｵｵｻｶﾌ","kana_city":"ﾄﾖﾅｶｼ","kana_address":"ｺｳﾂﾞｼﾏ","pref":"大阪府","city":"豊中市","address":"上津島"},
{"zip_code":"5610828","kana_pref":"ｵｵｻｶﾌ","kana_city":"ﾄﾖﾅｶｼ","kana_address":"ｻﾝﾜﾁｮｳ","pref":"大阪府","city":"豊中市","address":"三和町"},
{"zip_code":"5610826","kana_pref":"ｵｵｻｶﾌ","kana_city":"ﾄﾖﾅｶｼ","kana_address":"ｼﾏｴﾁｮｳ","pref":"大阪府","city":"豊中市","address":"島江町"},
{"zip_code":"5610833","kana_pref":"ｵｵｻｶﾌ","kana_city":"ﾄﾖﾅｶｼ","kana_address":"ｼｮｳﾅｲｻｲﾜｲﾏﾁ","pref":"大阪府","city":"豊中市","address":"庄内幸町"},
{"zip_code":"5610834","kana_pref":"ｵｵｻｶﾌ","kana_city":"ﾄﾖﾅｶｼ","kana_address":"ｼｮｳﾅｲｻｶｴﾏﾁ","pref":"大阪府","city":"豊中市","address":"庄内栄町"},
{"zip_code":"5610836","kana_pref":"ｵｵｻｶﾌ","kana_city":"ﾄﾖﾅｶｼ","kana_address":"ｼｮｳﾅｲﾀｶﾗﾏﾁ","pref":"大阪府","city":"豊中市","address":"庄内宝町"},
{"zip_code":"5610831","kana_pref":"ｵｵｻｶﾌ","kana_city":"ﾄﾖﾅｶｼ","kana_address":"ｼｮｳﾅｲﾋｶﾞｼﾏﾁ","pref":"大阪府","city":"豊中市","address":"庄内東町"},
{"zip_code":"5610832","kana_pref":"ｵｵｻｶﾌ","kana_city":"ﾄﾖﾅｶｼ","kana_address":"ｼｮｳﾅｲﾆｼﾏﾁ","pref":"大阪府","city":"豊中市","address":"庄内西町"},
{"zip_code":"5610835","kana_pref":"ｵｵｻｶﾌ","kana_city":"ﾄﾖﾅｶｼ","kana_address":"ｼｮｳﾓﾄﾁｮｳ","pref":"大阪府","city":"豊中市","address":"庄本町"},
{"zip_code":"5610803","kana_pref":"ｵｵｻｶﾌ","kana_city":"ﾄﾖﾅｶｼ","kana_address":"ｼﾛﾔﾏﾁｮｳ","pref":"大阪府","city":"豊中市","address":"城山町"},
{"zip_code":"5610829","kana_pref":"ｵｵｻｶﾌ","kana_city":"ﾄﾖﾅｶｼ","kana_address":"ｾﾝﾅﾘﾁｮｳ","pref":"大阪府","city":"豊中市","address":"千成町"},
{"zip_code":"5610802","kana_pref":"ｵｵｻｶﾌ","kana_city":"ﾄﾖﾅｶｼ","kana_address":"ｿﾈﾋｶﾞｼﾉﾁｮｳ","pref":"大阪府","city":"豊中市","address":"曽根東町"},
{"zip_code":"5610801","kana_pref":"ｵｵｻｶﾌ","kana_city":"ﾄﾖﾅｶｼ","kana_address":"ｿﾈﾆｼﾏﾁ","pref":"大阪府","city":"豊中市","address":"曽根西町"},
{"zip_code":"5610804","kana_pref":"ｵｵｻｶﾌ","kana_city":"ﾄﾖﾅｶｼ","kana_address":"ｿﾈﾐﾅﾐﾏﾁ","pref":"大阪府","city":"豊中市","address":"曽根南町"},
{"zip_code":"5610827","kana_pref":"ｵｵｻｶﾌ","kana_city":"ﾄﾖﾅｶｼ","kana_address":"ﾀﾞｲｺｸﾁｮｳ","pref":"大阪府","city":"豊中市","address":"大黒町"},
{"zip_code":"5610874","kana_pref":"ｵｵｻｶﾌ","kana_city":"ﾄﾖﾅｶｼ","kana_address":"ﾁｮｳｺｳｼﾞﾐﾅﾐ","pref":"大阪府","city":"豊中市","address":"長興寺南"},
{"zip_code":"5610875","kana_pref":"ｵｵｻｶﾌ","kana_city":"ﾄﾖﾅｶｼ","kana_address":"ﾁｮｳｺｳｼﾞｷﾀ","pref":"大阪府","city":"豊中市","address":"長興寺北"},
{"zip_code":"5610872","kana_pref":"ｵｵｻｶﾌ","kana_city":"ﾄﾖﾅｶｼ","kana_address":"ﾃﾗｳﾁ","pref":"大阪府","city":"豊中市","address":"寺内"},
{"zip_code":"5610845","kana_pref":"ｵｵｻｶﾌ","kana_city":"ﾄﾖﾅｶｼ","kana_address":"ﾄｸﾗ","pref":"大阪府","city":"豊中市","address":"利倉"},
{"zip_code":"5610846","kana_pref":"ｵｵｻｶﾌ","kana_city":"ﾄﾖﾅｶｼ","kana_address":"ﾄｸﾗﾋｶﾞｼ","pref":"大阪府","city":"豊中市","address":"利倉東"},
{"zip_code":"5610844","kana_pref":"ｵｵｻｶﾌ","kana_city":"ﾄﾖﾅｶｼ","kana_address":"ﾄｸﾗﾆｼ","pref":"大阪府","city":"豊中市","address":"利倉西"},
{"zip_code":"5610881","kana_pref":"ｵｵｻｶﾌ","kana_city":"ﾄﾖﾅｶｼ","kana_address":"ﾅｶｻｸﾗﾂﾞｶ","pref":"大阪府","city":"豊中市","address":"中桜塚"},
{"zip_code":"5610862","kana_pref":"ｵｵｻｶﾌ","kana_city":"ﾄﾖﾅｶｼ","kana_address":"ﾆｼｲｽﾞﾐｶﾞｵｶ","pref":"大阪府","city":"豊中市","address":"西泉丘"},
{"zip_code":"5610855","kana_pref":"ｵｵｻｶﾌ","kana_city":"ﾄﾖﾅｶｼ","kana_address":"ﾉﾀﾞﾁｮｳ","pref":"大阪府","city":"豊中市","address":"野田町"},
{"zip_code":"5610891","kana_pref":"ｵｵｻｶﾌ","kana_city":"ﾄﾖﾅｶｼ","kana_address":"ﾊｼﾘｲ","pref":"大阪府","city":"豊中市","address":"走井"},
{"zip_code":"5610857","kana_pref":"ｵｵｻｶﾌ","kana_city":"ﾄﾖﾅｶｼ","kana_address":"ﾊｯﾄﾘｺﾄﾌﾞｷﾁｮｳ","pref":"大阪府","city":"豊中市","address":"服部寿町"},
{"zip_code":"5610852","kana_pref":"ｵｵｻｶﾌ","kana_city":"ﾄﾖﾅｶｼ","kana_address":"ﾊｯﾄﾘﾎﾝﾏﾁ","pref":"大阪府","city":"豊中市","address":"服部本町"},
{"zip_code":"5610858","kana_pref":"ｵｵｻｶﾌ","kana_city":"ﾄﾖﾅｶｼ","kana_address":"ﾊｯﾄﾘﾆｼﾏﾁ","pref":"大阪府","city":"豊中市","address":"服部西町"},
{"zip_code":"5610853","kana_pref":"ｵｵｻｶﾌ","kana_city":"ﾄﾖﾅｶｼ","kana_address":"ﾊｯﾄﾘﾐﾅﾐﾏﾁ","pref":"大阪府","city":"豊中市","address":"服部南町"},
{"zip_code":"5610851","kana_pref":"ｵｵｻｶﾌ","kana_city":"ﾄﾖﾅｶｼ","kana_address":"ﾊｯﾄﾘﾓﾄﾏﾁ","pref":"大阪府","city":"豊中市","address":"服部元町"},
{"zip_code":"5610859","kana_pref":"ｵｵｻｶﾌ","kana_city":"ﾄﾖﾅｶｼ","kana_address":"ﾊｯﾄﾘﾕﾀｶﾏﾁ","pref":"大阪府","city":"豊中市","address":"服部豊町"},
{"zip_code":"5610873","kana_pref":"ｵｵｻｶﾌ","kana_city":"ﾄﾖﾅｶｼ","kana_address":"ﾊｯﾄﾘﾘｮｸﾁ","pref":"大阪府","city":"豊中市","address":"服部緑地"},
{"zip_code":"5610817","kana_pref":"ｵｵｻｶﾌ","kana_city":"ﾄﾖﾅｶｼ","kana_address":"ﾊﾏ","pref":"大阪府","city":"豊中市","address":"浜"},
{"zip_code":"5610806","kana_pref":"ｵｵｻｶﾌ","kana_city":"ﾄﾖﾅｶｼ","kana_address":"ﾊﾗﾀﾞﾆｼﾏﾁ","pref":"大阪府","city":"豊中市","address":"原田西町"},
{"zip_code":"5610808","kana_pref":"ｵｵｻｶﾌ","kana_city":"ﾄﾖﾅｶｼ","kana_address":"ﾊﾗﾀﾞﾓﾄﾏﾁ","pref":"大阪府","city":"豊中市","address":"原田元町"},
{"zip_code":"5610805","kana_pref":"ｵｵｻｶﾌ","kana_city":"ﾄﾖﾅｶｼ","kana_address":"ﾊﾗﾀﾞﾐﾅﾐ","pref":"大阪府","city":"豊中市","address":"原田南"},
{"zip_code":"5610807","kana_pref":"ｵｵｻｶﾌ","kana_city":"ﾄﾖﾅｶｼ","kana_address":"ﾊﾗﾀﾞﾅｶ","pref":"大阪府","city":"豊中市","address":"原田中"},
{"zip_code":"5610861","kana_pref":"ｵｵｻｶﾌ","kana_city":"ﾄﾖﾅｶｼ","kana_address":"ﾋｶﾞｼｲｽﾞﾐｶﾞｵｶ","pref":"大阪府","city":"豊中市","address":"東泉丘"},
{"zip_code":"5610871","kana_pref":"ｵｵｻｶﾌ","kana_city":"ﾄﾖﾅｶｼ","kana_address":"ﾋｶﾞｼﾃﾗｳﾁﾁｮｳ","pref":"大阪府","city":"豊中市","address":"東寺内町"},
{"zip_code":"5610821","kana_pref":"ｵｵｻｶﾌ","kana_city":"ﾄﾖﾅｶｼ","kana_address":"ﾋﾉﾃﾞﾁｮｳ","pref":"大阪府","city":"豊中市","address":"日出町"},
{"zip_code":"5610863","kana_pref":"ｵｵｻｶﾌ","kana_city":"ﾄﾖﾅｶｼ","kana_address":"ﾋﾛﾀﾁｮｳ","pref":"大阪府","city":"豊中市","address":"広田町"},
{"zip_code":"5610825","kana_pref":"ｵｵｻｶﾌ","kana_city":"ﾄﾖﾅｶｼ","kana_address":"ﾌﾀﾊﾞﾁｮｳ","pref":"大阪府","city":"豊中市","address":"二葉町"},
{"zip_code":"5610893","kana_pref":"ｵｵｻｶﾌ","kana_city":"ﾄﾖﾅｶｼ","kana_address":"ﾎｳｻﾞﾝﾁｮｳ","pref":"大阪府","city":"豊中市","address":"宝山町"},
{"zip_code":"5610814","kana_pref":"ｵｵｻｶﾌ","kana_city":"ﾄﾖﾅｶｼ","kana_address":"ﾎｳﾅﾝﾁｮｳﾋｶﾞｼ","pref":"大阪府","city":"豊中市","address":"豊南町東"},
{"zip_code":"5610816","kana_pref":"ｵｵｻｶﾌ","kana_city":"ﾄﾖﾅｶｼ","kana_address":"ﾎｳﾅﾝﾁｮｳﾆｼ","pref":"大阪府","city":"豊中市","address":"豊南町西"},
{"zip_code":"5610815","kana_pref":"ｵｵｻｶﾌ","kana_city":"ﾄﾖﾅｶｼ","kana_address":"ﾎｳﾅﾝﾁｮｳﾐﾅﾐ","pref":"大阪府","city":"豊中市","address":"豊南町南"},
{"zip_code":"5610856","kana_pref":"ｵｵｻｶﾌ","kana_city":"ﾄﾖﾅｶｼ","kana_address":"ﾎﾂﾞﾐ","pref":"大阪府","city":"豊中市","address":"穂積"},
{"zip_code":"5610822","kana_pref":"ｵｵｻｶﾌ","kana_city":"ﾄﾖﾅｶｼ","kana_address":"ﾐｸﾆ","pref":"大阪府","city":"豊中市","address":"三国"},
{"zip_code":"5610882","kana_pref":"ｵｵｻｶﾌ","kana_city":"ﾄﾖﾅｶｼ","kana_address":"ﾐﾅﾐｻｸﾗﾂﾞｶ","pref":"大阪府","city":"豊中市","address":"南桜塚"},
{"zip_code":"5610841","kana_pref":"ｵｵｻｶﾌ","kana_city":"ﾄﾖﾅｶｼ","kana_address":"ﾒｲｼﾝｸﾞﾁ","pref":"大阪府","city":"豊中市","address":"名神口"},
{"zip_code":"5610892","kana_pref":"ｵｵｻｶﾌ","kana_city":"ﾄﾖﾅｶｼ","kana_address":"ﾔﾏﾉｳｴﾁｮｳ","pref":"大阪府","city":"豊中市","address":"山ノ上町"},
{"zip_code":"5610864","kana_pref":"ｵｵｻｶﾌ","kana_city":"ﾄﾖﾅｶｼ","kana_address":"ﾕｳﾋｶﾞｵｶ","pref":"大阪府","city":"豊中市","address":"夕日丘"},
{"zip_code":"5610811","kana_pref":"ｵｵｻｶﾌ","kana_city":"ﾄﾖﾅｶｼ","kana_address":"ﾜｶﾀｹﾁｮｳ","pref":"大阪府","city":"豊中市","address":"若竹町"}]}