{"zip_code":[
{"zip_code":"5640000","kana_pref":"ｵｵｻｶﾌ","kana_city":"ｽｲﾀｼ","kana_address":"","pref":"大阪府","city":"吹田市","address":""},
{"zip_code":"5640083","kana_pref":"ｵｵｻｶﾌ","kana_city":"ｽｲﾀｼ","kana_address":"ｱｻﾋｶﾞｵｶﾁｮｳ","pref":"大阪府","city":"吹田市","address":"朝日が丘町"},
{"zip_code":"5640027","kana_pref":"ｵｵｻｶﾌ","kana_city":"ｽｲﾀｼ","kana_address":"ｱｻﾋﾏﾁ","pref":"大阪府","city":"吹田市","address":"朝日町"},
{"zip_code":"5640041","kana_pref":"ｵｵｻｶﾌ","kana_city":"ｽｲﾀｼ","kana_address":"ｲｽﾞﾐﾁｮｳ","pref":"大阪府","city":"吹田市","address":"泉町"},
{"zip_code":"5640032","kana_pref":"ｵｵｻｶﾌ","kana_city":"ｽｲﾀｼ","kana_address":"ｳﾁﾎﾝﾏﾁ","pref":"大阪府","city":"吹田市","address":"内本町"},
{"zip_code":"5640063","kana_pref":"ｵｵｻｶﾌ","kana_city":"ｽｲﾀｼ","kana_address":"ｴｻｶﾁｮｳ","pref":"大阪府","city":"吹田市","address":"江坂町"},
{"zip_code":"5640053","kana_pref":"ｵｵｻｶﾌ","kana_city":"ｽｲﾀｼ","kana_address":"ｴﾉｷﾁｮｳ","pref":"大阪府","city":"吹田市","address":"江の木町"},
{"zip_code":"5640082","kana_pref":"ｵｵｻｶﾌ","kana_city":"ｽｲﾀｼ","kana_address":"ｶﾀﾔﾏﾁｮｳ","pref":"大阪府","city":"吹田市","address":"片山町"},
{"zip_code":"5640045","kana_pref":"ｵｵｻｶﾌ","kana_city":"ｽｲﾀｼ","kana_address":"ｶﾈﾃﾞﾝﾁｮｳ","pref":"大阪府","city":"吹田市","address":"金田町"},
{"zip_code":"5640037","kana_pref":"ｵｵｻｶﾌ","kana_city":"ｽｲﾀｼ","kana_address":"ｶﾜｷﾞｼﾁｮｳ","pref":"大阪府","city":"吹田市","address":"川岸町"},
{"zip_code":"5640013","kana_pref":"ｵｵｻｶﾌ","kana_city":"ｽｲﾀｼ","kana_address":"ｶﾜｿﾞﾉﾁｮｳ","pref":"大阪府","city":"吹田市","address":"川園町"},
{"zip_code":"5640002","kana_pref":"ｵｵｻｶﾌ","kana_city":"ｽｲﾀｼ","kana_address":"ｷｼﾍﾞﾅｶ","pref":"大阪府","city":"吹田市","address":"岸部中"},
{"zip_code":"5640011","kana_pref":"ｵｵｻｶﾌ","kana_city":"ｽｲﾀｼ","kana_address":"ｷｼﾍﾞﾐﾅﾐ","pref":"大阪府","city":"吹田市","address":"岸部南"},
{"zip_code":"5640001","kana_pref":"ｵｵｻｶﾌ","kana_city":"ｽｲﾀｼ","kana_address":"ｷｼﾍﾞｷﾀ","pref":"大阪府","city":"吹田市","address":"岸部北"},
{"zip_code":"5640036","kana_pref":"ｵｵｻｶﾌ","kana_city":"ｽｲﾀｼ","kana_address":"ｺﾄﾌﾞｷﾁｮｳ","pref":"大阪府","city":"吹田市","address":"寿町"},
{"zip_code":"5640015","kana_pref":"ｵｵｻｶﾌ","kana_city":"ｽｲﾀｼ","kana_address":"ｻｲﾜｲﾁｮｳ","pref":"大阪府","city":"吹田市","address":"幸町"},
{"zip_code":"5640017","kana_pref":"ｵｵｻｶﾌ","kana_city":"ｽｲﾀｼ","kana_address":"ｼﾊﾞﾀﾁｮｳ","pref":"大阪府","city":"吹田市","address":"芝田町"},
{"zip_code":"5640028","kana_pref":"ｵｵｻｶﾌ","kana_city":"ｽｲﾀｼ","kana_address":"ｼｮｳﾜﾁｮｳ","pref":"大阪府","city":"吹田市","address":"昭和町"},
{"zip_code":"5640014","kana_pref":"ｵｵｻｶﾌ","kana_city":"ｽｲﾀｼ","kana_address":"ｽｲﾄｳﾁｮｳ","pref":"大阪府","city":"吹田市","address":"吹東町"},
{"zip_code":"5640022","kana_pref":"ｵｵｻｶﾌ","kana_city":"ｽｲﾀｼ","kana_address":"ｽｴﾋﾛﾁｮｳ","pref":"大阪府","city":"吹田市","address":"末広町"},
{"zip_code":"5640039","kana_pref":"ｵｵｻｶﾌ","kana_city":"ｽｲﾀｼ","kana_address":"ｾｲﾜｴﾝﾁｮｳ","pref":"大阪府","city":"吹田市","address":"清和園町"},
{"zip_code":"5640024","kana_pref":"ｵｵｻｶﾌ","kana_city":"ｽｲﾀｼ","kana_address":"ﾀｶｼﾛﾁｮｳ","pref":"大阪府","city":"吹田市","address":"高城町"},
{"zip_code":"5640026","kana_pref":"ｵｵｻｶﾌ","kana_city":"ｽｲﾀｼ","kana_address":"ﾀｶﾊﾏﾁｮｳ","pref":"大阪府","city":"吹田市","address":"高浜町"},
{"zip_code":"5640062","kana_pref":"ｵｵｻｶﾌ","kana_city":"ｽｲﾀｼ","kana_address":"ﾀﾙﾐﾁｮｳ","pref":"大阪府","city":"吹田市","address":"垂水町"},
{"zip_code":"5640072","kana_pref":"ｵｵｻｶﾌ","kana_city":"ｽｲﾀｼ","kana_address":"ﾃﾞｸﾞﾁﾁｮｳ","pref":"大阪府","city":"吹田市","address":"出口町"},
{"zip_code":"5640003","kana_pref":"ｵｵｻｶﾌ","kana_city":"ｽｲﾀｼ","kana_address":"ﾃﾝﾄﾞｳﾁｮｳ","pref":"大阪府","city":"吹田市","address":"天道町"},
{"zip_code":"5640051","kana_pref":"ｵｵｻｶﾌ","kana_city":"ｽｲﾀｼ","kana_address":"ﾄﾖﾂﾁｮｳ","pref":"大阪府","city":"吹田市","address":"豊津町"},
{"zip_code":"5640035","kana_pref":"ｵｵｻｶﾌ","kana_city":"ｽｲﾀｼ","kana_address":"ﾅｶﾉｼﾏﾁｮｳ","pref":"大阪府","city":"吹田市","address":"中の島町"},
{"zip_code":"5640034","kana_pref":"ｵｵｻｶﾌ","kana_city":"ｽｲﾀｼ","kana_address":"ﾆｼｵﾀﾋﾞﾁｮｳ","pref":"大阪府","city":"吹田市","address":"西御旅町"},
{"zip_code":"5640071","kana_pref":"ｵｵｻｶﾌ","kana_city":"ｽｲﾀｼ","kana_address":"ﾆｼﾉｼｮｳﾁｮｳ","pref":"大阪府","city":"吹田市","address":"西の庄町"},
{"zip_code":"5640004","kana_pref":"ｵｵｻｶﾌ","kana_city":"ｽｲﾀｼ","kana_address":"ﾊﾗﾁｮｳ","pref":"大阪府","city":"吹田市","address":"原町"},
{"zip_code":"5640033","kana_pref":"ｵｵｻｶﾌ","kana_city":"ｽｲﾀｼ","kana_address":"ﾋｶﾞｼｵﾀﾋﾞﾁｮｳ","pref":"大阪府","city":"吹田市","address":"東御旅町"},
{"zip_code":"5640023","kana_pref":"ｵｵｻｶﾌ","kana_city":"ｽｲﾀｼ","kana_address":"ﾋﾉﾃﾞﾁｮｳ","pref":"大阪府","city":"吹田市","address":"日の出町"},
{"zip_code":"5640016","kana_pref":"ｵｵｻｶﾌ","kana_city":"ｽｲﾀｼ","kana_address":"ﾋﾗﾏﾂﾁｮｳ","pref":"大阪府","city":"吹田市","address":"平松町"},
{"zip_code":"5640052","kana_pref":"ｵｵｻｶﾌ","kana_city":"ｽｲﾀｼ","kana_address":"ﾋﾛｼﾊﾞﾁｮｳ","pref":"大阪府","city":"吹田市","address":"広芝町"},
{"zip_code":"5640081","kana_pref":"ｵｵｻｶﾌ","kana_city":"ｽｲﾀｼ","kana_address":"ﾌｼﾞｶﾞｵｶﾁｮｳ","pref":"大阪府","city":"吹田市","address":"藤が丘町"},
{"zip_code":"5640042","kana_pref":"ｵｵｻｶﾌ","kana_city":"ｽｲﾀｼ","kana_address":"ﾎﾅﾐﾁｮｳ","pref":"大阪府","city":"吹田市","address":"穂波町"},
{"zip_code":"5640061","kana_pref":"ｵｵｻｶﾌ","kana_city":"ｽｲﾀｼ","kana_address":"ﾏﾙﾔﾏﾁｮｳ","pref":"大阪府","city":"吹田市","address":"円山町"},
{"zip_code":"5640044","kana_pref":"ｵｵｻｶﾌ","kana_city":"ｽｲﾀｼ","kana_address":"ﾐﾅﾐｶﾈﾃﾞﾝ","pref":"大阪府","city":"吹田市","address":"南金田"},
{"zip_code":"5640012","kana_pref":"ｵｵｻｶﾌ","kana_city":"ｽｲﾀｼ","kana_address":"ﾐﾅﾐｼｮｳｼﾞｬｸ","pref":"大阪府","city":"吹田市","address":"南正雀"},
{"zip_code":"5640043","kana_pref":"ｵｵｻｶﾌ","kana_city":"ｽｲﾀｼ","kana_address":"ﾐﾅﾐｽｲﾀ","pref":"大阪府","city":"吹田市","address":"南吹田"},
{"zip_code":"5640038","kana_pref":"ｵｵｻｶﾌ","kana_city":"ｽｲﾀｼ","kana_address":"ﾐﾅﾐｾｲﾜｴﾝﾁｮｳ","pref":"大阪府","city":"吹田市","address":"南清和園町"},
{"zip_code":"5640025","kana_pref":"ｵｵｻｶﾌ","kana_city":"ｽｲﾀｼ","kana_address":"ﾐﾅﾐﾀｶﾊﾏﾁｮｳ","pref":"大阪府","city":"吹田市","address":"南高浜町"},
{"zip_code":"5640021","kana_pref":"ｵｵｻｶﾌ","kana_city":"ｽｲﾀｼ","kana_address":"ﾒﾀﾞﾜﾗﾁｮｳ","pref":"大阪府","city":"吹田市","address":"目俵町"},
{"zip_code":"5640031","kana_pref":"ｵｵｻｶﾌ","kana_city":"ｽｲﾀｼ","kana_address":"ﾓﾄﾏﾁ","pref":"大阪府","city":"吹田市","address":"元町"},
{"zip_code":"5640073","kana_pref":"ｵｵｻｶﾌ","kana_city":"ｽｲﾀｼ","kana_address":"ﾔﾏﾃﾁｮｳ","pref":"大阪府","city":"吹田市","address":"山手町"},
{"zip_code":"5640054","kana_pref":"ｵｵｻｶﾌ","kana_city":"ｽｲﾀｼ","kana_address":"ﾖｼﾉﾁｮｳ","pref":"大阪府","city":"吹田市","address":"芳野町"}]}