{"zip_code":[
{"zip_code":"5650802","kana_pref":"ｵｵｻｶﾌ","kana_city":"ｽｲﾀｼ","kana_address":"ｱｵﾊﾞｵｶﾐﾅﾐ","pref":"大阪府","city":"吹田市","address":"青葉丘南"},
{"zip_code":"5650801","kana_pref":"ｵｵｻｶﾌ","kana_city":"ｽｲﾀｼ","kana_address":"ｱｵﾊﾞｵｶｷﾀ","pref":"大阪府","city":"吹田市","address":"青葉丘北"},
{"zip_code":"5650875","kana_pref":"ｵｵｻｶﾌ","kana_city":"ｽｲﾀｼ","kana_address":"ｱｵﾔﾏﾀﾞｲ","pref":"大阪府","city":"吹田市","address":"青山台"},
{"zip_code":"5650806","kana_pref":"ｵｵｻｶﾌ","kana_city":"ｽｲﾀｼ","kana_address":"ｶｼｷﾘﾔﾏ","pref":"大阪府","city":"吹田市","address":"樫切山"},
{"zip_code":"5650853","kana_pref":"ｵｵｻｶﾌ","kana_city":"ｽｲﾀｼ","kana_address":"ｶｽｶﾞ","pref":"大阪府","city":"吹田市","address":"春日"},
{"zip_code":"5650872","kana_pref":"ｵｵｻｶﾌ","kana_city":"ｽｲﾀｼ","kana_address":"ｶﾐﾔﾏﾀﾞ","pref":"大阪府","city":"吹田市","address":"上山田"},
{"zip_code":"5650841","kana_pref":"ｵｵｻｶﾌ","kana_city":"ｽｲﾀｼ","kana_address":"ｶﾐﾔﾏﾃﾁｮｳ","pref":"大阪府","city":"吹田市","address":"上山手町"},
{"zip_code":"5650836","kana_pref":"ｵｵｻｶﾌ","kana_city":"ｽｲﾀｼ","kana_address":"ｻｲﾃﾞﾗ","pref":"大阪府","city":"吹田市","address":"佐井寺"},
{"zip_code":"5650837","kana_pref":"ｵｵｻｶﾌ","kana_city":"ｽｲﾀｼ","kana_address":"ｻｲﾃﾞﾗﾐﾅﾐｶﾞｵｶ","pref":"大阪府","city":"吹田市","address":"佐井寺南が丘"},
{"zip_code":"5650855","kana_pref":"ｵｵｻｶﾌ","kana_city":"ｽｲﾀｼ","kana_address":"ｻﾀｹﾀﾞｲ","pref":"大阪府","city":"吹田市","address":"佐竹台"},
{"zip_code":"5650831","kana_pref":"ｵｵｻｶﾌ","kana_city":"ｽｲﾀｼ","kana_address":"ｻﾂｷｶﾞｵｶﾋｶﾞｼ","pref":"大阪府","city":"吹田市","address":"五月が丘東"},
{"zip_code":"5650833","kana_pref":"ｵｵｻｶﾌ","kana_city":"ｽｲﾀｼ","kana_address":"ｻﾂｷｶﾞｵｶﾆｼ","pref":"大阪府","city":"吹田市","address":"五月が丘西"},
{"zip_code":"5650832","kana_pref":"ｵｵｻｶﾌ","kana_city":"ｽｲﾀｼ","kana_address":"ｻﾂｷｶﾞｵｶﾐﾅﾐ","pref":"大阪府","city":"吹田市","address":"五月が丘南"},
{"zip_code":"5650834","kana_pref":"ｵｵｻｶﾌ","kana_city":"ｽｲﾀｼ","kana_address":"ｻﾂｷｶﾞｵｶｷﾀ","pref":"大阪府","city":"吹田市","address":"五月が丘北"},
{"zip_code":"5650805","kana_pref":"ｵｵｻｶﾌ","kana_city":"ｽｲﾀｼ","kana_address":"ｼﾐｽﾞ","pref":"大阪府","city":"吹田市","address":"清水"},
{"zip_code":"5650818","kana_pref":"ｵｵｻｶﾌ","kana_city":"ｽｲﾀｼ","kana_address":"ｼｬｸﾀﾆ","pref":"大阪府","city":"吹田市","address":"尺谷"},
{"zip_code":"5650804","kana_pref":"ｵｵｻｶﾌ","kana_city":"ｽｲﾀｼ","kana_address":"ｼﾝｱｼﾔｶﾐ","pref":"大阪府","city":"吹田市","address":"新芦屋上"},
{"zip_code":"5650803","kana_pref":"ｵｵｻｶﾌ","kana_city":"ｽｲﾀｼ","kana_address":"ｼﾝｱｼﾔｼﾓ","pref":"大阪府","city":"吹田市","address":"新芦屋下"},
{"zip_code":"5650826","kana_pref":"ｵｵｻｶﾌ","kana_city":"ｽｲﾀｼ","kana_address":"ｾﾝﾘﾊﾞﾝﾊﾟｸｺｳｴﾝ","pref":"大阪府","city":"吹田市","address":"千里万博公園"},
{"zip_code":"5650811","kana_pref":"ｵｵｻｶﾌ","kana_city":"ｽｲﾀｼ","kana_address":"ｾﾝﾘｵｶｶﾐ","pref":"大阪府","city":"吹田市","address":"千里丘上"},
{"zip_code":"5650812","kana_pref":"ｵｵｻｶﾌ","kana_city":"ｽｲﾀｼ","kana_address":"ｾﾝﾘｵｶﾅｶ","pref":"大阪府","city":"吹田市","address":"千里丘中"},
{"zip_code":"5650813","kana_pref":"ｵｵｻｶﾌ","kana_city":"ｽｲﾀｼ","kana_address":"ｾﾝﾘｵｶｼﾓ","pref":"大阪府","city":"吹田市","address":"千里丘下"},
{"zip_code":"5650814","kana_pref":"ｵｵｻｶﾌ","kana_city":"ｽｲﾀｼ","kana_address":"ｾﾝﾘｵｶﾆｼ","pref":"大阪府","city":"吹田市","address":"千里丘西"},
{"zip_code":"5650815","kana_pref":"ｵｵｻｶﾌ","kana_city":"ｽｲﾀｼ","kana_address":"ｾﾝﾘｵｶｷﾀ","pref":"大阪府","city":"吹田市","address":"千里丘北"},
{"zip_code":"5650844","kana_pref":"ｵｵｻｶﾌ","kana_city":"ｽｲﾀｼ","kana_address":"ｾﾝﾘﾔﾏｷﾘｶﾞｵｶ","pref":"大阪府","city":"吹田市","address":"千里山霧が丘"},
{"zip_code":"5650848","kana_pref":"ｵｵｻｶﾌ","kana_city":"ｽｲﾀｼ","kana_address":"ｾﾝﾘﾔﾏﾀｶﾂｶ","pref":"大阪府","city":"吹田市","address":"千里山高塚"},
{"zip_code":"5650852","kana_pref":"ｵｵｻｶﾌ","kana_city":"ｽｲﾀｼ","kana_address":"ｾﾝﾘﾔﾏﾀｹｿﾞﾉ","pref":"大阪府","city":"吹田市","address":"千里山竹園"},
{"zip_code":"5650847","kana_pref":"ｵｵｻｶﾌ","kana_city":"ｽｲﾀｼ","kana_address":"ｾﾝﾘﾔﾏﾂｷｶﾞｵｶ","pref":"大阪府","city":"吹田市","address":"千里山月が丘"},
{"zip_code":"5650846","kana_pref":"ｵｵｻｶﾌ","kana_city":"ｽｲﾀｼ","kana_address":"ｾﾝﾘﾔﾏﾆｼﾞｶﾞｵｶ","pref":"大阪府","city":"吹田市","address":"千里山虹が丘"},
{"zip_code":"5650845","kana_pref":"ｵｵｻｶﾌ","kana_city":"ｽｲﾀｼ","kana_address":"ｾﾝﾘﾔﾏﾎｼｶﾞｵｶ","pref":"大阪府","city":"吹田市","address":"千里山星が丘"},
{"zip_code":"5650843","kana_pref":"ｵｵｻｶﾌ","kana_city":"ｽｲﾀｼ","kana_address":"ｾﾝﾘﾔﾏﾏﾂｶﾞｵｶ","pref":"大阪府","city":"吹田市","address":"千里山松が丘"},
{"zip_code":"5650842","kana_pref":"ｵｵｻｶﾌ","kana_city":"ｽｲﾀｼ","kana_address":"ｾﾝﾘﾔﾏﾋｶﾞｼ","pref":"大阪府","city":"吹田市","address":"千里山東"},
{"zip_code":"5650851","kana_pref":"ｵｵｻｶﾌ","kana_city":"ｽｲﾀｼ","kana_address":"ｾﾝﾘﾔﾏﾆｼ","pref":"大阪府","city":"吹田市","address":"千里山西"},
{"zip_code":"5650861","kana_pref":"ｵｵｻｶﾌ","kana_city":"ｽｲﾀｼ","kana_address":"ﾀｶﾉﾀﾞｲ","pref":"大阪府","city":"吹田市","address":"高野台"},
{"zip_code":"5650835","kana_pref":"ｵｵｻｶﾌ","kana_city":"ｽｲﾀｼ","kana_address":"ﾀｹﾀﾆﾁｮｳ","pref":"大阪府","city":"吹田市","address":"竹谷町"},
{"zip_code":"5650863","kana_pref":"ｵｵｻｶﾌ","kana_city":"ｽｲﾀｼ","kana_address":"ﾀｹﾐﾀﾞｲ","pref":"大阪府","city":"吹田市","address":"竹見台"},
{"zip_code":"5650862","kana_pref":"ｵｵｻｶﾌ","kana_city":"ｽｲﾀｼ","kana_address":"ﾂｸﾓﾀﾞｲ","pref":"大阪府","city":"吹田市","address":"津雲台"},
{"zip_code":"5650816","kana_pref":"ｵｵｻｶﾌ","kana_city":"ｽｲﾀｼ","kana_address":"ﾅｶﾞﾉﾋｶﾞｼ","pref":"大阪府","city":"吹田市","address":"長野東"},
{"zip_code":"5650817","kana_pref":"ｵｵｻｶﾌ","kana_city":"ｽｲﾀｼ","kana_address":"ﾅｶﾞﾉﾆｼ","pref":"大阪府","city":"吹田市","address":"長野西"},
{"zip_code":"5650873","kana_pref":"ｵｵｻｶﾌ","kana_city":"ｽｲﾀｼ","kana_address":"ﾌｼﾞｼﾛﾀﾞｲ","pref":"大阪府","city":"吹田市","address":"藤白台"},
{"zip_code":"5650874","kana_pref":"ｵｵｻｶﾌ","kana_city":"ｽｲﾀｼ","kana_address":"ﾌﾙｴﾀﾞｲ","pref":"大阪府","city":"吹田市","address":"古江台"},
{"zip_code":"5650854","kana_pref":"ｵｵｻｶﾌ","kana_city":"ｽｲﾀｼ","kana_address":"ﾓﾓﾔﾏﾀﾞｲ","pref":"大阪府","city":"吹田市","address":"桃山台"},
{"zip_code":"5650822","kana_pref":"ｵｵｻｶﾌ","kana_city":"ｽｲﾀｼ","kana_address":"ﾔﾏﾀﾞｲﾁﾊﾞ","pref":"大阪府","city":"吹田市","address":"山田市場"},
{"zip_code":"5650821","kana_pref":"ｵｵｻｶﾌ","kana_city":"ｽｲﾀｼ","kana_address":"ﾔﾏﾀﾞﾋｶﾞｼ","pref":"大阪府","city":"吹田市","address":"山田東"},
{"zip_code":"5650824","kana_pref":"ｵｵｻｶﾌ","kana_city":"ｽｲﾀｼ","kana_address":"ﾔﾏﾀﾞﾆｼ","pref":"大阪府","city":"吹田市","address":"山田西"},
{"zip_code":"5650823","kana_pref":"ｵｵｻｶﾌ","kana_city":"ｽｲﾀｼ","kana_address":"ﾔﾏﾀﾞﾐﾅﾐ","pref":"大阪府","city":"吹田市","address":"山田南"},
{"zip_code":"5650825","kana_pref":"ｵｵｻｶﾌ","kana_city":"ｽｲﾀｼ","kana_address":"ﾔﾏﾀﾞｷﾀ","pref":"大阪府","city":"吹田市","address":"山田北"},
{"zip_code":"5650871","kana_pref":"ｵｵｻｶﾌ","kana_city":"ｽｲﾀｼ","kana_address":"ﾔﾏﾀﾞｵｶ","pref":"大阪府","city":"吹田市","address":"山田丘"}]}