{"zip_code":[
{"zip_code":"5660000","kana_pref":"ｵｵｻｶﾌ","kana_city":"ｾｯﾂｼ","kana_address":"","pref":"大阪府","city":"摂津市","address":""},
{"zip_code":"5660051","kana_pref":"ｵｵｻｶﾌ","kana_city":"ｾｯﾂｼ","kana_address":"ｱｲｶﾞﾜﾐﾅﾐﾏﾁ","pref":"大阪府","city":"摂津市","address":"安威川南町"},
{"zip_code":"5660033","kana_pref":"ｵｵｻｶﾌ","kana_city":"ｾｯﾂｼ","kana_address":"ｶﾞｸｴﾝﾁｮｳ","pref":"大阪府","city":"摂津市","address":"学園町"},
{"zip_code":"5660041","kana_pref":"ｵｵｻｶﾌ","kana_city":"ｾｯﾂｼ","kana_address":"ｷﾀﾍﾞﾌﾁｮｳ","pref":"大阪府","city":"摂津市","address":"北別府町"},
{"zip_code":"5660034","kana_pref":"ｵｵｻｶﾌ","kana_city":"ｾｯﾂｼ","kana_address":"ｺｳﾛｴﾝ","pref":"大阪府","city":"摂津市","address":"香露園"},
{"zip_code":"5660032","kana_pref":"ｵｵｻｶﾌ","kana_city":"ｾｯﾂｼ","kana_address":"ｻｸﾗﾏﾁ","pref":"大阪府","city":"摂津市","address":"桜町"},
{"zip_code":"5660023","kana_pref":"ｵｵｻｶﾌ","kana_city":"ｾｯﾂｼ","kana_address":"ｼｮｳｼﾞｬｸ","pref":"大阪府","city":"摂津市","address":"正雀"},
{"zip_code":"5660024","kana_pref":"ｵｵｻｶﾌ","kana_city":"ｾｯﾂｼ","kana_address":"ｼｮｳｼﾞｬｸﾎﾝﾏﾁ","pref":"大阪府","city":"摂津市","address":"正雀本町"},
{"zip_code":"5660012","kana_pref":"ｵｵｻｶﾌ","kana_city":"ｾｯﾂｼ","kana_address":"ｼｮｳﾔ","pref":"大阪府","city":"摂津市","address":"庄屋"},
{"zip_code":"5660031","kana_pref":"ｵｵｻｶﾌ","kana_city":"ｾｯﾂｼ","kana_address":"ｼｮｳﾜｴﾝ","pref":"大阪府","city":"摂津市","address":"昭和園"},
{"zip_code":"5660055","kana_pref":"ｵｵｻｶﾌ","kana_city":"ｾｯﾂｼ","kana_address":"ｼﾝｻﾞｲｹ","pref":"大阪府","city":"摂津市","address":"新在家"},
{"zip_code":"5660001","kana_pref":"ｵｵｻｶﾌ","kana_city":"ｾｯﾂｼ","kana_address":"ｾﾝﾘｵｶ","pref":"大阪府","city":"摂津市","address":"千里丘"},
{"zip_code":"5660011","kana_pref":"ｵｵｻｶﾌ","kana_city":"ｾｯﾂｼ","kana_address":"ｾﾝﾘｵｶﾋｶﾞｼ","pref":"大阪府","city":"摂津市","address":"千里丘東"},
{"zip_code":"5660035","kana_pref":"ｵｵｻｶﾌ","kana_city":"ｾｯﾂｼ","kana_address":"ﾂﾙﾉ","pref":"大阪府","city":"摂津市","address":"鶴野"},
{"zip_code":"5660062","kana_pref":"ｵｵｻｶﾌ","kana_city":"ｾｯﾂｼ","kana_address":"ﾄﾘｶｲｶﾐ","pref":"大阪府","city":"摂津市","address":"鳥飼上"},
{"zip_code":"5660064","kana_pref":"ｵｵｻｶﾌ","kana_city":"ｾｯﾂｼ","kana_address":"ﾄﾘｶｲﾅｶ","pref":"大阪府","city":"摂津市","address":"鳥飼中"},
{"zip_code":"5660071","kana_pref":"ｵｵｻｶﾌ","kana_city":"ｾｯﾂｼ","kana_address":"ﾄﾘｶｲｼﾓ","pref":"大阪府","city":"摂津市","address":"鳥飼下"},
{"zip_code":"5660065","kana_pref":"ｵｵｻｶﾌ","kana_city":"ｾｯﾂｼ","kana_address":"ﾄﾘｶｲｼﾝﾏﾁ","pref":"大阪府","city":"摂津市","address":"鳥飼新町"},
{"zip_code":"5660053","kana_pref":"ｵｵｻｶﾌ","kana_city":"ｾｯﾂｼ","kana_address":"ﾄﾘｶｲﾉﾉ","pref":"大阪府","city":"摂津市","address":"鳥飼野々"},
{"zip_code":"5660054","kana_pref":"ｵｵｻｶﾌ","kana_city":"ｾｯﾂｼ","kana_address":"ﾄﾘｶｲﾊﾁﾎﾞｳ","pref":"大阪府","city":"摂津市","address":"鳥飼八防"},
{"zip_code":"5660061","kana_pref":"ｵｵｻｶﾌ","kana_city":"ｾｯﾂｼ","kana_address":"ﾄﾘｶｲﾊｯﾁｮｳ","pref":"大阪府","city":"摂津市","address":"鳥飼八町"},
{"zip_code":"5660052","kana_pref":"ｵｵｻｶﾌ","kana_city":"ｾｯﾂｼ","kana_address":"ﾄﾘｶｲﾎﾝﾏﾁ","pref":"大阪府","city":"摂津市","address":"鳥飼本町"},
{"zip_code":"5660063","kana_pref":"ｵｵｻｶﾌ","kana_city":"ｾｯﾂｼ","kana_address":"ﾄﾘｶｲﾒｲﾓｸﾁｮｳ","pref":"大阪府","city":"摂津市","address":"鳥飼銘木町"},
{"zip_code":"5660073","kana_pref":"ｵｵｻｶﾌ","kana_city":"ｾｯﾂｼ","kana_address":"ﾄﾘｶｲﾜﾄﾞｳ","pref":"大阪府","city":"摂津市","address":"鳥飼和道"},
{"zip_code":"5660072","kana_pref":"ｵｵｻｶﾌ","kana_city":"ｾｯﾂｼ","kana_address":"ﾄﾘｶｲﾆｼ","pref":"大阪府","city":"摂津市","address":"鳥飼西"},
{"zip_code":"5660044","kana_pref":"ｵｵｻｶﾌ","kana_city":"ｾｯﾂｼ","kana_address":"ﾆｼﾋﾄﾂﾔ","pref":"大阪府","city":"摂津市","address":"西一津屋"},
{"zip_code":"5660047","kana_pref":"ｵｵｻｶﾌ","kana_city":"ｾｯﾂｼ","kana_address":"ﾊﾏﾁｮｳ","pref":"大阪府","city":"摂津市","address":"浜町"},
{"zip_code":"5660013","kana_pref":"ｵｵｻｶﾌ","kana_city":"ｾｯﾂｼ","kana_address":"ﾊﾝｷｭｳｼｮｳｼﾞｬｸ","pref":"大阪府","city":"摂津市","address":"阪急正雀"},
{"zip_code":"5660025","kana_pref":"ｵｵｻｶﾌ","kana_city":"ｾｯﾂｼ","kana_address":"ﾋｶﾞｼｼｮｳｼﾞｬｸ","pref":"大阪府","city":"摂津市","address":"東正雀"},
{"zip_code":"5660074","kana_pref":"ｵｵｻｶﾌ","kana_city":"ｾｯﾂｼ","kana_address":"ﾋｶﾞｼﾋﾄﾂﾔ","pref":"大阪府","city":"摂津市","address":"東一津屋"},
{"zip_code":"5660042","kana_pref":"ｵｵｻｶﾌ","kana_city":"ｾｯﾂｼ","kana_address":"ﾋｶﾞｼﾍﾞﾌ","pref":"大阪府","city":"摂津市","address":"東別府"},
{"zip_code":"5660043","kana_pref":"ｵｵｻｶﾌ","kana_city":"ｾｯﾂｼ","kana_address":"ﾋﾄﾂﾔ","pref":"大阪府","city":"摂津市","address":"一津屋"},
{"zip_code":"5660046","kana_pref":"ｵｵｻｶﾌ","kana_city":"ｾｯﾂｼ","kana_address":"ﾍﾞﾌ","pref":"大阪府","city":"摂津市","address":"別府"},
{"zip_code":"5660022","kana_pref":"ｵｵｻｶﾌ","kana_city":"ｾｯﾂｼ","kana_address":"ﾐｼﾏ","pref":"大阪府","city":"摂津市","address":"三島"},
{"zip_code":"5660021","kana_pref":"ｵｵｻｶﾌ","kana_city":"ｾｯﾂｼ","kana_address":"ﾐﾅﾐｾﾝﾘｵｶ","pref":"大阪府","city":"摂津市","address":"南千里丘"},
{"zip_code":"5660045","kana_pref":"ｵｵｻｶﾌ","kana_city":"ｾｯﾂｼ","kana_address":"ﾐﾅﾐﾍﾞﾌﾁｮｳ","pref":"大阪府","city":"摂津市","address":"南別府町"}]}