{"zip_code":[
{"zip_code":"5670000","kana_pref":"ｵｵｻｶﾌ","kana_city":"ｲﾊﾞﾗｷｼ","kana_address":"","pref":"大阪府","city":"茨木市","address":""},
{"zip_code":"5670001","kana_pref":"ｵｵｻｶﾌ","kana_city":"ｲﾊﾞﾗｷｼ","kana_address":"ｱｲ","pref":"大阪府","city":"茨木市","address":"安威"},
{"zip_code":"5670831","kana_pref":"ｵｵｻｶﾌ","kana_city":"ｲﾊﾞﾗｷｼ","kana_address":"ｱﾕｶﾜ","pref":"大阪府","city":"茨木市","address":"鮎川"},
{"zip_code":"5670897","kana_pref":"ｵｵｻｶﾌ","kana_city":"ｲﾊﾞﾗｷｼ","kana_address":"ｱﾙｼﾞﾊﾗﾁｮｳ","pref":"大阪府","city":"茨木市","address":"主原町"},
{"zip_code":"5670076","kana_pref":"ｵｵｻｶﾌ","kana_city":"ｲﾊﾞﾗｷｼ","kana_address":"ｲｸﾞﾁﾀﾞｲ","pref":"大阪府","city":"茨木市","address":"井口台"},
{"zip_code":"5670842","kana_pref":"ｵｵｻｶﾌ","kana_city":"ｲﾊﾞﾗｷｼ","kana_address":"ｲｽｽﾞﾁｮｳ","pref":"大阪府","city":"茨木市","address":"五十鈴町"},
{"zip_code":"5670005","kana_pref":"ｵｵｻｶﾌ","kana_city":"ｲﾊﾞﾗｷｼ","kana_address":"ｲﾂｶｲﾁ","pref":"大阪府","city":"茨木市","address":"五日市"},
{"zip_code":"5670029","kana_pref":"ｵｵｻｶﾌ","kana_city":"ｲﾊﾞﾗｷｼ","kana_address":"ｲﾂｶｲﾁﾐﾄﾞﾘﾏﾁ","pref":"大阪府","city":"茨木市","address":"五日市緑町"},
{"zip_code":"5670827","kana_pref":"ｵｵｻｶﾌ","kana_city":"ｲﾊﾞﾗｷｼ","kana_address":"ｲﾅﾊﾞﾁｮｳ","pref":"大阪府","city":"茨木市","address":"稲葉町"},
{"zip_code":"5670871","kana_pref":"ｵｵｻｶﾌ","kana_city":"ｲﾊﾞﾗｷｼ","kana_address":"ｲﾜｸﾗﾁｮｳ","pref":"大阪府","city":"茨木市","address":"岩倉町"},
{"zip_code":"5670064","kana_pref":"ｵｵｻｶﾌ","kana_city":"ｲﾊﾞﾗｷｼ","kana_address":"ｳｴﾉﾁｮｳ","pref":"大阪府","city":"茨木市","address":"上野町"},
{"zip_code":"5670877","kana_pref":"ｵｵｻｶﾌ","kana_city":"ｲﾊﾞﾗｷｼ","kana_address":"ｳｼﾄﾗ","pref":"大阪府","city":"茨木市","address":"丑寅"},
{"zip_code":"5670042","kana_pref":"ｵｵｻｶﾌ","kana_city":"ｲﾊﾞﾗｷｼ","kana_address":"ｳﾉﾍﾞ","pref":"大阪府","city":"茨木市","address":"宇野辺"},
{"zip_code":"5670816","kana_pref":"ｵｵｻｶﾌ","kana_city":"ｲﾊﾞﾗｷｼ","kana_address":"ｴｲﾀﾞｲﾁｮｳ","pref":"大阪府","city":"茨木市","address":"永代町"},
{"zip_code":"5670888","kana_pref":"ｵｵｻｶﾌ","kana_city":"ｲﾊﾞﾗｷｼ","kana_address":"ｴｷﾏｴ","pref":"大阪府","city":"茨木市","address":"駅前"},
{"zip_code":"5670826","kana_pref":"ｵｵｻｶﾌ","kana_city":"ｲﾊﾞﾗｷｼ","kana_address":"ｵｵｲｹ","pref":"大阪府","city":"茨木市","address":"大池"},
{"zip_code":"5670813","kana_pref":"ｵｵｻｶﾌ","kana_city":"ｲﾊﾞﾗｷｼ","kana_address":"ｵｵｽﾐﾁｮｳ","pref":"大阪府","city":"茨木市","address":"大住町"},
{"zip_code":"5670018","kana_pref":"ｵｵｻｶﾌ","kana_city":"ｲﾊﾞﾗｷｼ","kana_address":"ｵｵﾀﾞ","pref":"大阪府","city":"茨木市","address":"太田"},
{"zip_code":"5670013","kana_pref":"ｵｵｻｶﾌ","kana_city":"ｲﾊﾞﾗｷｼ","kana_address":"ｵｵﾀﾞﾄｳｼﾊﾞﾁｮｳ","pref":"大阪府","city":"茨木市","address":"太田東芝町"},
{"zip_code":"5670883","kana_pref":"ｵｵｻｶﾌ","kana_city":"ｲﾊﾞﾗｷｼ","kana_address":"ｵｵﾃﾁｮｳ","pref":"大阪府","city":"茨木市","address":"大手町"},
{"zip_code":"5670873","kana_pref":"ｵｵｻｶﾌ","kana_city":"ｲﾊﾞﾗｷｼ","kana_address":"ｵｶﾞﾜﾁｮｳ","pref":"大阪府","city":"茨木市","address":"小川町"},
{"zip_code":"5670833","kana_pref":"ｵｵｻｶﾌ","kana_city":"ｲﾊﾞﾗｷｼ","kana_address":"ｶﾞｸｴﾝﾁｮｳ","pref":"大阪府","city":"茨木市","address":"学園町"},
{"zip_code":"5670834","kana_pref":"ｵｵｻｶﾌ","kana_city":"ｲﾊﾞﾗｷｼ","kana_address":"ｶﾞｸｴﾝﾐﾅﾐﾏﾁ","pref":"大阪府","city":"茨木市","address":"学園南町"},
{"zip_code":"5670031","kana_pref":"ｵｵｻｶﾌ","kana_city":"ｲﾊﾞﾗｷｼ","kana_address":"ｶｽｶﾞ","pref":"大阪府","city":"茨木市","address":"春日"},
{"zip_code":"5670819","kana_pref":"ｵｵｻｶﾌ","kana_city":"ｲﾊﾞﾗｷｼ","kana_address":"ｶﾀｷﾞﾘﾁｮｳ","pref":"大阪府","city":"茨木市","address":"片桐町"},
{"zip_code":"5670811","kana_pref":"ｵｵｻｶﾌ","kana_city":"ｲﾊﾞﾗｷｼ","kana_address":"ｶﾐｲｽﾞﾐﾁｮｳ","pref":"大阪府","city":"茨木市","address":"上泉町"},
{"zip_code":"5670065","kana_pref":"ｵｵｻｶﾌ","kana_city":"ｲﾊﾞﾗｷｼ","kana_address":"ｶﾐｺﾞｵﾘ","pref":"大阪府","city":"茨木市","address":"上郡"},
{"zip_code":"5670881","kana_pref":"ｵｵｻｶﾌ","kana_city":"ｲﾊﾞﾗｷｼ","kana_address":"ｶﾐﾁｭｳｼﾞｮｳ","pref":"大阪府","city":"茨木市","address":"上中条"},
{"zip_code":"5670036","kana_pref":"ｵｵｻｶﾌ","kana_city":"ｲﾊﾞﾗｷｼ","kana_address":"ｶﾐﾎﾂﾞﾐ","pref":"大阪府","city":"茨木市","address":"上穂積"},
{"zip_code":"5670037","kana_pref":"ｵｵｻｶﾌ","kana_city":"ｲﾊﾞﾗｷｼ","kana_address":"ｶﾐﾎﾋｶﾞｼﾏﾁ","pref":"大阪府","city":"茨木市","address":"上穂東町"},
{"zip_code":"5670048","kana_pref":"ｵｵｻｶﾌ","kana_city":"ｲﾊﾞﾗｷｼ","kana_address":"ｷﾀｶｽｶﾞｵｶ","pref":"大阪府","city":"茨木市","address":"北春日丘"},
{"zip_code":"5670878","kana_pref":"ｵｵｻｶﾌ","kana_city":"ｲﾊﾞﾗｷｼ","kana_address":"ｸﾗｶｷｳﾁ","pref":"大阪府","city":"茨木市","address":"蔵垣内"},
{"zip_code":"5670841","kana_pref":"ｵｵｻｶﾌ","kana_city":"ｲﾊﾞﾗｷｼ","kana_address":"ｸﾜﾀﾁｮｳ","pref":"大阪府","city":"茨木市","address":"桑田町"},
{"zip_code":"5670072","kana_pref":"ｵｵｻｶﾌ","kana_city":"ｲﾊﾞﾗｷｼ","kana_address":"ｺｵﾘ","pref":"大阪府","city":"茨木市","address":"郡"},
{"zip_code":"5670071","kana_pref":"ｵｵｻｶﾌ","kana_city":"ｲﾊﾞﾗｷｼ","kana_address":"ｺｵﾘﾔﾏ","pref":"大阪府","city":"茨木市","address":"郡山"},
{"zip_code":"5670043","kana_pref":"ｵｵｻｶﾌ","kana_city":"ｲﾊﾞﾗｷｼ","kana_address":"ｺﾂﾎﾞｲ","pref":"大阪府","city":"茨木市","address":"小坪井"},
{"zip_code":"5670852","kana_pref":"ｵｵｻｶﾌ","kana_city":"ｲﾊﾞﾗｷｼ","kana_address":"ｺﾔﾅｷﾞﾁｮｳ","pref":"大阪府","city":"茨木市","address":"小柳町"},
{"zip_code":"5670085","kana_pref":"ｵｵｻｶﾌ","kana_city":"ｲﾊﾞﾗｷｼ","kana_address":"ｻｲﾄｱｻｷﾞ","pref":"大阪府","city":"茨木市","address":"彩都あさぎ"},
{"zip_code":"5670086","kana_pref":"ｵｵｻｶﾌ","kana_city":"ｲﾊﾞﾗｷｼ","kana_address":"ｻｲﾄﾔﾏﾌﾞｷ","pref":"大阪府","city":"茨木市","address":"彩都やまぶき"},
{"zip_code":"5670075","kana_pref":"ｵｵｻｶﾌ","kana_city":"ｲﾊﾞﾗｷｼ","kana_address":"ｻｲﾉﾓﾄ","pref":"大阪府","city":"茨木市","address":"道祖本"},
{"zip_code":"5670864","kana_pref":"ｵｵｻｶﾌ","kana_city":"ｲﾊﾞﾗｷｼ","kana_address":"ｻﾜﾗｷﾞﾊﾏ","pref":"大阪府","city":"茨木市","address":"沢良宜浜"},
{"zip_code":"5670863","kana_pref":"ｵｵｻｶﾌ","kana_city":"ｲﾊﾞﾗｷｼ","kana_address":"ｻﾜﾗｷﾞﾋｶﾞｼﾏﾁ","pref":"大阪府","city":"茨木市","address":"沢良宜東町"},
{"zip_code":"5670868","kana_pref":"ｵｵｻｶﾌ","kana_city":"ｲﾊﾞﾗｷｼ","kana_address":"ｻﾜﾗｷﾞﾆｼ","pref":"大阪府","city":"茨木市","address":"沢良宜西"},
{"zip_code":"5670854","kana_pref":"ｵｵｻｶﾌ","kana_city":"ｲﾊﾞﾗｷｼ","kana_address":"ｼﾏ","pref":"大阪府","city":"茨木市","address":"島"},
{"zip_code":"5670059","kana_pref":"ｵｵｻｶﾌ","kana_city":"ｲﾊﾞﾗｷｼ","kana_address":"ｼﾐｽﾞ","pref":"大阪府","city":"茨木市","address":"清水"},
{"zip_code":"5670045","kana_pref":"ｵｵｻｶﾌ","kana_city":"ｲﾊﾞﾗｷｼ","kana_address":"ｼﾒｲｴﾝ","pref":"大阪府","city":"茨木市","address":"紫明園"},
{"zip_code":"5670066","kana_pref":"ｵｵｻｶﾌ","kana_city":"ｲﾊﾞﾗｷｼ","kana_address":"ｼﾓｲﾁｮｳ","pref":"大阪府","city":"茨木市","address":"下井町"},
{"zip_code":"5670886","kana_pref":"ｵｵｻｶﾌ","kana_city":"ｲﾊﾞﾗｷｼ","kana_address":"ｼﾓﾁｭｳｼﾞｮｳﾁｮｳ","pref":"大阪府","city":"茨木市","address":"下中条町"},
{"zip_code":"5670041","kana_pref":"ｵｵｻｶﾌ","kana_city":"ｲﾊﾞﾗｷｼ","kana_address":"ｼﾓﾎﾂﾞﾐ","pref":"大阪府","city":"茨木市","address":"下穂積"},
{"zip_code":"5670055","kana_pref":"ｵｵｻｶﾌ","kana_city":"ｲﾊﾞﾗｷｼ","kana_address":"ｼｭｸｶﾞﾊﾗﾁｮｳ","pref":"大阪府","city":"茨木市","address":"宿川原町"},
{"zip_code":"5670051","kana_pref":"ｵｵｻｶﾌ","kana_city":"ｲﾊﾞﾗｷｼ","kana_address":"ｼｭｸﾉｼｮｳ","pref":"大阪府","city":"茨木市","address":"宿久庄"},
{"zip_code":"5670806","kana_pref":"ｵｵｻｶﾌ","kana_city":"ｲﾊﾞﾗｷｼ","kana_address":"ｼｮｳ","pref":"大阪府","city":"茨木市","address":"庄"},
{"zip_code":"5670832","kana_pref":"ｵｵｻｶﾌ","kana_city":"ｲﾊﾞﾗｷｼ","kana_address":"ｼﾗｶﾜ","pref":"大阪府","city":"茨木市","address":"白川"},
{"zip_code":"5670014","kana_pref":"ｵｵｻｶﾌ","kana_city":"ｲﾊﾞﾗｷｼ","kana_address":"ｼﾛﾉﾏｴﾁｮｳ","pref":"大阪府","city":"茨木市","address":"城の前町"},
{"zip_code":"5670074","kana_pref":"ｵｵｻｶﾌ","kana_city":"ｲﾊﾞﾗｷｼ","kana_address":"ｼﾝｺｵﾘﾔﾏ","pref":"大阪府","city":"茨木市","address":"新郡山"},
{"zip_code":"5670884","kana_pref":"ｵｵｻｶﾌ","kana_city":"ｲﾊﾞﾗｷｼ","kana_address":"ｼﾝｼﾞｮｳﾁｮｳ","pref":"大阪府","city":"茨木市","address":"新庄町"},
{"zip_code":"5670872","kana_pref":"ｵｵｻｶﾌ","kana_city":"ｲﾊﾞﾗｷｼ","kana_address":"ｼﾝﾁｭｳｼﾞｮｳﾁｮｳ","pref":"大阪府","city":"茨木市","address":"新中条町"},
{"zip_code":"5670835","kana_pref":"ｵｵｻｶﾌ","kana_city":"ｲﾊﾞﾗｷｼ","kana_address":"ｼﾝﾄﾞｳ","pref":"大阪府","city":"茨木市","address":"新堂"},
{"zip_code":"5670855","kana_pref":"ｵｵｻｶﾌ","kana_city":"ｲﾊﾞﾗｷｼ","kana_address":"ｼﾝﾜﾁｮｳ","pref":"大阪府","city":"茨木市","address":"新和町"},
{"zip_code":"5670821","kana_pref":"ｵｵｻｶﾌ","kana_city":"ｲﾊﾞﾗｷｼ","kana_address":"ｽｴﾋﾛﾁｮｳ","pref":"大阪府","city":"茨木市","address":"末広町"},
{"zip_code":"5670801","kana_pref":"ｵｵｻｶﾌ","kana_city":"ｲﾊﾞﾗｷｼ","kana_address":"ｿｳｼﾞｼﾞ","pref":"大阪府","city":"茨木市","address":"総持寺"},
{"zip_code":"5670802","kana_pref":"ｵｵｻｶﾌ","kana_city":"ｲﾊﾞﾗｷｼ","kana_address":"ｿｳｼﾞｼﾞｴｷﾏｴﾁｮｳ","pref":"大阪府","city":"茨木市","address":"総持寺駅前町"},
{"zip_code":"5670804","kana_pref":"ｵｵｻｶﾌ","kana_city":"ｲﾊﾞﾗｷｼ","kana_address":"ｿｳｼﾞｼﾞﾀﾞｲ","pref":"大阪府","city":"茨木市","address":"総持寺台"},
{"zip_code":"5670825","kana_pref":"ｵｵｻｶﾌ","kana_city":"ｲﾊﾞﾗｷｼ","kana_address":"ｿﾉﾀﾞﾁｮｳ","pref":"大阪府","city":"茨木市","address":"園田町"},
{"zip_code":"5670867","kana_pref":"ｵｵｻｶﾌ","kana_city":"ｲﾊﾞﾗｷｼ","kana_address":"ﾀｲｼｮｳﾁｮｳ","pref":"大阪府","city":"茨木市","address":"大正町"},
{"zip_code":"5670844","kana_pref":"ｵｵｻｶﾌ","kana_city":"ｲﾊﾞﾗｷｼ","kana_address":"ﾀﾞｲﾄﾞｳﾁｮｳ","pref":"大阪府","city":"茨木市","address":"大同町"},
{"zip_code":"5670011","kana_pref":"ｵｵｻｶﾌ","kana_city":"ｲﾊﾞﾗｷｼ","kana_address":"ﾀｶﾀﾞﾁｮｳ","pref":"大阪府","city":"茨木市","address":"高田町"},
{"zip_code":"5670866","kana_pref":"ｵｵｻｶﾌ","kana_city":"ｲﾊﾞﾗｷｼ","kana_address":"ﾀｶﾊﾏﾁｮｳ","pref":"大阪府","city":"茨木市","address":"高浜町"},
{"zip_code":"5670815","kana_pref":"ｵｵｻｶﾌ","kana_city":"ｲﾊﾞﾗｷｼ","kana_address":"ﾀｹﾊｼﾁｮｳ","pref":"大阪府","city":"茨木市","address":"竹橋町"},
{"zip_code":"5670025","kana_pref":"ｵｵｻｶﾌ","kana_city":"ｲﾊﾞﾗｷｼ","kana_address":"ﾀﾅｶﾁｮｳ","pref":"大阪府","city":"茨木市","address":"田中町"},
{"zip_code":"5670895","kana_pref":"ｵｵｻｶﾌ","kana_city":"ｲﾊﾞﾗｷｼ","kana_address":"ﾀﾏｸｼ","pref":"大阪府","city":"茨木市","address":"玉櫛"},
{"zip_code":"5670846","kana_pref":"ｵｵｻｶﾌ","kana_city":"ｲﾊﾞﾗｷｼ","kana_address":"ﾀﾏｼﾏ","pref":"大阪府","city":"茨木市","address":"玉島"},
{"zip_code":"5670848","kana_pref":"ｵｵｻｶﾌ","kana_city":"ｲﾊﾞﾗｷｼ","kana_address":"ﾀﾏｼﾏﾀﾞｲ","pref":"大阪府","city":"茨木市","address":"玉島台"},
{"zip_code":"5670893","kana_pref":"ｵｵｻｶﾌ","kana_city":"ｲﾊﾞﾗｷｼ","kana_address":"ﾀﾏｾﾁｮｳ","pref":"大阪府","city":"茨木市","address":"玉瀬町"},
{"zip_code":"5670896","kana_pref":"ｵｵｻｶﾌ","kana_city":"ｲﾊﾞﾗｷｼ","kana_address":"ﾀﾏﾐｽﾞﾁｮｳ","pref":"大阪府","city":"茨木市","address":"玉水町"},
{"zip_code":"5670823","kana_pref":"ｵｵｻｶﾌ","kana_city":"ｲﾊﾞﾗｷｼ","kana_address":"ﾃﾗﾀﾞﾁｮｳ","pref":"大阪府","city":"茨木市","address":"寺田町"},
{"zip_code":"5670876","kana_pref":"ｵｵｻｶﾌ","kana_city":"ｲﾊﾞﾗｷｼ","kana_address":"ﾃﾝﾉｳ","pref":"大阪府","city":"茨木市","address":"天王"},
{"zip_code":"5670812","kana_pref":"ｵｵｻｶﾌ","kana_city":"ｲﾊﾞﾗｷｼ","kana_address":"ﾄｳｸﾞｳﾁｮｳ","pref":"大阪府","city":"茨木市","address":"東宮町"},
{"zip_code":"5670016","kana_pref":"ｵｵｻｶﾌ","kana_city":"ｲﾊﾞﾗｷｼ","kana_address":"ﾄｵｶｲﾁﾁｮｳ","pref":"大阪府","city":"茨木市","address":"十日市町"},
{"zip_code":"5670814","kana_pref":"ｵｵｻｶﾌ","kana_city":"ｲﾊﾞﾗｷｼ","kana_address":"ﾄﾌﾞｼﾁｮｳ","pref":"大阪府","city":"茨木市","address":"戸伏町"},
{"zip_code":"5670057","kana_pref":"ｵｵｻｶﾌ","kana_city":"ｲﾊﾞﾗｷｼ","kana_address":"ﾄﾖｶﾜ","pref":"大阪府","city":"茨木市","address":"豊川"},
{"zip_code":"5670053","kana_pref":"ｵｵｻｶﾌ","kana_city":"ｲﾊﾞﾗｷｼ","kana_address":"ﾄﾖﾊﾗﾁｮｳ","pref":"大阪府","city":"茨木市","address":"豊原町"},
{"zip_code":"5670063","kana_pref":"ｵｵｻｶﾌ","kana_city":"ｲﾊﾞﾗｷｼ","kana_address":"ﾅｶｶﾊﾗﾁｮｳ","pref":"大阪府","city":"茨木市","address":"中河原町"},
{"zip_code":"5670803","kana_pref":"ｵｵｻｶﾌ","kana_city":"ｲﾊﾞﾗｷｼ","kana_address":"ﾅｶｿｳｼﾞｼﾞﾁｮｳ","pref":"大阪府","city":"茨木市","address":"中総持寺町"},
{"zip_code":"5670824","kana_pref":"ｵｵｻｶﾌ","kana_city":"ｲﾊﾞﾗｷｼ","kana_address":"ﾅｶﾂﾁｮｳ","pref":"大阪府","city":"茨木市","address":"中津町"},
{"zip_code":"5670034","kana_pref":"ｵｵｻｶﾌ","kana_city":"ｲﾊﾞﾗｷｼ","kana_address":"ﾅｶﾎﾂﾞﾐ","pref":"大阪府","city":"茨木市","address":"中穂積"},
{"zip_code":"5670822","kana_pref":"ｵｵｻｶﾌ","kana_city":"ｲﾊﾞﾗｷｼ","kana_address":"ﾅｶﾑﾗﾁｮｳ","pref":"大阪府","city":"茨木市","address":"中村町"},
{"zip_code":"5670892","kana_pref":"ｵｵｻｶﾌ","kana_city":"ｲﾊﾞﾗｷｼ","kana_address":"ﾅﾐｷﾁｮｳ","pref":"大阪府","city":"茨木市","address":"並木町"},
{"zip_code":"5670874","kana_pref":"ｵｵｻｶﾌ","kana_city":"ｲﾊﾞﾗｷｼ","kana_address":"ﾅﾗﾁｮｳ","pref":"大阪府","city":"茨木市","address":"奈良町"},
{"zip_code":"5670008","kana_pref":"ｵｵｻｶﾌ","kana_city":"ｲﾊﾞﾗｷｼ","kana_address":"ﾆｼｱｲ","pref":"大阪府","city":"茨木市","address":"西安威"},
{"zip_code":"5670032","kana_pref":"ｵｵｻｶﾌ","kana_city":"ｲﾊﾞﾗｷｼ","kana_address":"ﾆｼｴｷﾏｴﾁｮｳ","pref":"大阪府","city":"茨木市","address":"西駅前町"},
{"zip_code":"5670015","kana_pref":"ｵｵｻｶﾌ","kana_city":"ｲﾊﾞﾗｷｼ","kana_address":"ﾆｼｵｵﾀﾞﾁｮｳ","pref":"大阪府","city":"茨木市","address":"西太田町"},
{"zip_code":"5670023","kana_pref":"ｵｵｻｶﾌ","kana_city":"ｲﾊﾞﾗｷｼ","kana_address":"ﾆｼｶﾞﾜﾗ","pref":"大阪府","city":"茨木市","address":"西河原"},
{"zip_code":"5670003","kana_pref":"ｵｵｻｶﾌ","kana_city":"ｲﾊﾞﾗｷｼ","kana_address":"ﾆｼｶﾞﾜﾗｷﾀﾏﾁ","pref":"大阪府","city":"茨木市","address":"西河原北町"},
{"zip_code":"5670027","kana_pref":"ｵｵｻｶﾌ","kana_city":"ｲﾊﾞﾗｷｼ","kana_address":"ﾆｼﾀﾅｶﾁｮｳ","pref":"大阪府","city":"茨木市","address":"西田中町"},
{"zip_code":"5670887","kana_pref":"ｵｵｻｶﾌ","kana_city":"ｲﾊﾞﾗｷｼ","kana_address":"ﾆｼﾁｭｳｼﾞｮｳﾁｮｳ","pref":"大阪府","city":"茨木市","address":"西中条町"},
{"zip_code":"5670058","kana_pref":"ｵｵｻｶﾌ","kana_city":"ｲﾊﾞﾗｷｼ","kana_address":"ﾆｼﾄﾖｶﾜﾁｮｳ","pref":"大阪府","city":"茨木市","address":"西豊川町"},
{"zip_code":"5670067","kana_pref":"ｵｵｻｶﾌ","kana_city":"ｲﾊﾞﾗｷｼ","kana_address":"ﾆｼﾌｸｲ","pref":"大阪府","city":"茨木市","address":"西福井"},
{"zip_code":"5670073","kana_pref":"ｵｵｻｶﾌ","kana_city":"ｲﾊﾞﾗｷｼ","kana_address":"ﾆｼﾎﾂﾞﾐﾁｮｳ","pref":"大阪府","city":"茨木市","address":"西穂積町"},
{"zip_code":"5670847","kana_pref":"ｵｵｻｶﾌ","kana_city":"ｲﾊﾞﾗｷｼ","kana_address":"ﾉﾉﾐﾔ","pref":"大阪府","city":"茨木市","address":"野々宮"},
{"zip_code":"5670805","kana_pref":"ｵｵｻｶﾌ","kana_city":"ｲﾊﾞﾗｷｼ","kana_address":"ﾊｼﾉｳﾁ","pref":"大阪府","city":"茨木市","address":"橋の内"},
{"zip_code":"5670028","kana_pref":"ｵｵｻｶﾌ","kana_city":"ｲﾊﾞﾗｷｼ","kana_address":"ﾊﾀｹﾀﾞﾁｮｳ","pref":"大阪府","city":"茨木市","address":"畑田町"},
{"zip_code":"5670017","kana_pref":"ｵｵｻｶﾌ","kana_city":"ｲﾊﾞﾗｷｼ","kana_address":"ﾊﾅｿﾞﾉ","pref":"大阪府","city":"茨木市","address":"花園"},
{"zip_code":"5670002","kana_pref":"ｵｵｻｶﾌ","kana_city":"ｲﾊﾞﾗｷｼ","kana_address":"ﾋｶﾞｼｱｲ","pref":"大阪府","city":"茨木市","address":"東安威"},
{"zip_code":"5670879","kana_pref":"ｵｵｻｶﾌ","kana_city":"ｲﾊﾞﾗｷｼ","kana_address":"ﾋｶﾞｼｳﾉﾍﾞﾁｮｳ","pref":"大阪府","city":"茨木市","address":"東宇野辺町"},
{"zip_code":"5670012","kana_pref":"ｵｵｻｶﾌ","kana_city":"ｲﾊﾞﾗｷｼ","kana_address":"ﾋｶﾞｼｵｵﾀﾞ","pref":"大阪府","city":"茨木市","address":"東太田"},
{"zip_code":"5670885","kana_pref":"ｵｵｻｶﾌ","kana_city":"ｲﾊﾞﾗｷｼ","kana_address":"ﾋｶﾞｼﾁｭｳｼﾞｮｳﾁｮｳ","pref":"大阪府","city":"茨木市","address":"東中条町"},
{"zip_code":"5670861","kana_pref":"ｵｵｻｶﾌ","kana_city":"ｲﾊﾞﾗｷｼ","kana_address":"ﾋｶﾞｼﾅﾗ","pref":"大阪府","city":"茨木市","address":"東奈良"},
{"zip_code":"5670838","kana_pref":"ｵｵｻｶﾌ","kana_city":"ｲﾊﾞﾗｷｼ","kana_address":"ﾋｶﾞｼﾉﾉﾐﾔﾁｮｳ","pref":"大阪府","city":"茨木市","address":"東野々宮町"},
{"zip_code":"5670062","kana_pref":"ｵｵｻｶﾌ","kana_city":"ｲﾊﾞﾗｷｼ","kana_address":"ﾋｶﾞｼﾌｸｲ","pref":"大阪府","city":"茨木市","address":"東福井"},
{"zip_code":"5670845","kana_pref":"ｵｵｻｶﾌ","kana_city":"ｲﾊﾞﾗｷｼ","kana_address":"ﾋﾗﾀ","pref":"大阪府","city":"茨木市","address":"平田"},
{"zip_code":"5670849","kana_pref":"ｵｵｻｶﾌ","kana_city":"ｲﾊﾞﾗｷｼ","kana_address":"ﾋﾗﾀﾀﾞｲ","pref":"大阪府","city":"茨木市","address":"平田台"},
{"zip_code":"5670061","kana_pref":"ｵｵｻｶﾌ","kana_city":"ｲﾊﾞﾗｷｼ","kana_address":"ﾌｸｲ","pref":"大阪府","city":"茨木市","address":"福井"},
{"zip_code":"5670054","kana_pref":"ｵｵｻｶﾌ","kana_city":"ｲﾊﾞﾗｷｼ","kana_address":"ﾌｼﾞﾉｻﾄ","pref":"大阪府","city":"茨木市","address":"藤の里"},
{"zip_code":"5670829","kana_pref":"ｵｵｻｶﾌ","kana_city":"ｲﾊﾞﾗｷｼ","kana_address":"ﾌﾀﾊﾞﾁｮｳ","pref":"大阪府","city":"茨木市","address":"双葉町"},
{"zip_code":"5670828","kana_pref":"ｵｵｻｶﾌ","kana_city":"ｲﾊﾞﾗｷｼ","kana_address":"ﾌﾅｷﾁｮｳ","pref":"大阪府","city":"茨木市","address":"舟木町"},
{"zip_code":"5670817","kana_pref":"ｵｵｻｶﾌ","kana_city":"ｲﾊﾞﾗｷｼ","kana_address":"ﾍﾞﾂｲﾝﾁｮｳ","pref":"大阪府","city":"茨木市","address":"別院町"},
{"zip_code":"5670843","kana_pref":"ｵｵｻｶﾌ","kana_city":"ｲﾊﾞﾗｷｼ","kana_address":"ﾎｼﾐﾁｮｳ","pref":"大阪府","city":"茨木市","address":"星見町"},
{"zip_code":"5670044","kana_pref":"ｵｵｻｶﾌ","kana_city":"ｲﾊﾞﾗｷｼ","kana_address":"ﾎﾂﾞﾐﾀﾞｲ","pref":"大阪府","city":"茨木市","address":"穂積台"},
{"zip_code":"5670818","kana_pref":"ｵｵｻｶﾌ","kana_city":"ｲﾊﾞﾗｷｼ","kana_address":"ﾎﾝﾏﾁ","pref":"大阪府","city":"茨木市","address":"本町"},
{"zip_code":"5670851","kana_pref":"ｵｵｻｶﾌ","kana_city":"ｲﾊﾞﾗｷｼ","kana_address":"ﾏｻｺﾞ","pref":"大阪府","city":"茨木市","address":"真砂"},
{"zip_code":"5670850","kana_pref":"ｵｵｻｶﾌ","kana_city":"ｲﾊﾞﾗｷｼ","kana_address":"ﾏｻｺﾞﾀﾏｼﾏﾀﾞｲ","pref":"大阪府","city":"茨木市","address":"真砂玉島台"},
{"zip_code":"5670033","kana_pref":"ｵｵｻｶﾌ","kana_city":"ｲﾊﾞﾗｷｼ","kana_address":"ﾏﾂｶﾞﾓﾄﾁｮｳ","pref":"大阪府","city":"茨木市","address":"松ケ本町"},
{"zip_code":"5670026","kana_pref":"ｵｵｻｶﾌ","kana_city":"ｲﾊﾞﾗｷｼ","kana_address":"ﾏﾂｼﾀﾁｮｳ","pref":"大阪府","city":"茨木市","address":"松下町"},
{"zip_code":"5670024","kana_pref":"ｵｵｻｶﾌ","kana_city":"ｲﾊﾞﾗｷｼ","kana_address":"ﾐｻｷﾁｮｳ","pref":"大阪府","city":"茨木市","address":"三咲町"},
{"zip_code":"5670862","kana_pref":"ｵｵｻｶﾌ","kana_city":"ｲﾊﾞﾗｷｼ","kana_address":"ﾐｻﾜﾁｮｳ","pref":"大阪府","city":"茨木市","address":"美沢町"},
{"zip_code":"5670021","kana_pref":"ｵｵｻｶﾌ","kana_city":"ｲﾊﾞﾗｷｼ","kana_address":"ﾐｼﾏｵｶ","pref":"大阪府","city":"茨木市","address":"三島丘"},
{"zip_code":"5670022","kana_pref":"ｵｵｻｶﾌ","kana_city":"ｲﾊﾞﾗｷｼ","kana_address":"ﾐｼﾏﾁｮｳ","pref":"大阪府","city":"茨木市","address":"三島町"},
{"zip_code":"5670891","kana_pref":"ｵｵｻｶﾌ","kana_city":"ｲﾊﾞﾗｷｼ","kana_address":"ﾐｽﾞｵ","pref":"大阪府","city":"茨木市","address":"水尾"},
{"zip_code":"5670035","kana_pref":"ｵｵｻｶﾌ","kana_city":"ｲﾊﾞﾗｷｼ","kana_address":"ﾐﾂｹﾔﾏ","pref":"大阪府","city":"茨木市","address":"見付山"},
{"zip_code":"5670007","kana_pref":"ｵｵｻｶﾌ","kana_city":"ｲﾊﾞﾗｷｼ","kana_address":"ﾐﾅﾐｱｲ","pref":"大阪府","city":"茨木市","address":"南安威"},
{"zip_code":"5670046","kana_pref":"ｵｵｻｶﾌ","kana_city":"ｲﾊﾞﾗｷｼ","kana_address":"ﾐﾅﾐｶｽｶﾞｵｶ","pref":"大阪府","city":"茨木市","address":"南春日丘"},
{"zip_code":"5670056","kana_pref":"ｵｵｻｶﾌ","kana_city":"ｲﾊﾞﾗｷｼ","kana_address":"ﾐﾅﾐｼﾐｽﾞﾁｮｳ","pref":"大阪府","city":"茨木市","address":"南清水町"},
{"zip_code":"5670004","kana_pref":"ｵｵｻｶﾌ","kana_city":"ｲﾊﾞﾗｷｼ","kana_address":"ﾐﾅﾐﾐﾉﾊﾗ","pref":"大阪府","city":"茨木市","address":"南耳原"},
{"zip_code":"5670837","kana_pref":"ｵｵｻｶﾌ","kana_city":"ｲﾊﾞﾗｷｼ","kana_address":"ﾐﾅﾐﾒｶﾞｷ","pref":"大阪府","city":"茨木市","address":"南目垣"},
{"zip_code":"5670006","kana_pref":"ｵｵｻｶﾌ","kana_city":"ｲﾊﾞﾗｷｼ","kana_address":"ﾐﾉﾊﾗ","pref":"大阪府","city":"茨木市","address":"耳原"},
{"zip_code":"5670047","kana_pref":"ｵｵｻｶﾌ","kana_city":"ｲﾊﾞﾗｷｼ","kana_address":"ﾐﾎｶﾞｵｶ","pref":"大阪府","city":"茨木市","address":"美穂ケ丘"},
{"zip_code":"5670853","kana_pref":"ｵｵｻｶﾌ","kana_city":"ｲﾊﾞﾗｷｼ","kana_address":"ﾐﾔｼﾞﾏ","pref":"大阪府","city":"茨木市","address":"宮島"},
{"zip_code":"5670810","kana_pref":"ｵｵｻｶﾌ","kana_city":"ｲﾊﾞﾗｷｼ","kana_address":"ﾐﾔﾓﾄﾁｮｳ","pref":"大阪府","city":"茨木市","address":"宮元町"},
{"zip_code":"5670052","kana_pref":"ｵｵｻｶﾌ","kana_city":"ｲﾊﾞﾗｷｼ","kana_address":"ﾑﾛﾔﾏ","pref":"大阪府","city":"茨木市","address":"室山"},
{"zip_code":"5670836","kana_pref":"ｵｵｻｶﾌ","kana_city":"ｲﾊﾞﾗｷｼ","kana_address":"ﾒｶﾞｷ","pref":"大阪府","city":"茨木市","address":"目垣"},
{"zip_code":"5670882","kana_pref":"ｵｵｻｶﾌ","kana_city":"ｲﾊﾞﾗｷｼ","kana_address":"ﾓﾄﾏﾁ","pref":"大阪府","city":"茨木市","address":"元町"},
{"zip_code":"5670009","kana_pref":"ｵｵｻｶﾌ","kana_city":"ｲﾊﾞﾗｷｼ","kana_address":"ﾔﾏﾃﾀﾞｲ","pref":"大阪府","city":"茨木市","address":"山手台"},
{"zip_code":"5670010","kana_pref":"ｵｵｻｶﾌ","kana_city":"ｲﾊﾞﾗｷｼ","kana_address":"ﾔﾏﾃﾀﾞｲｼﾝﾏﾁ","pref":"大阪府","city":"茨木市","address":"山手台新町"},
{"zip_code":"5670865","kana_pref":"ｵｵｻｶﾌ","kana_city":"ｲﾊﾞﾗｷｼ","kana_address":"ﾖｺｴ","pref":"大阪府","city":"茨木市","address":"横江"},
{"zip_code":"5670875","kana_pref":"ｵｵｻｶﾌ","kana_city":"ｲﾊﾞﾗｷｼ","kana_address":"ﾜｶｸｻﾁｮｳ","pref":"大阪府","city":"茨木市","address":"若草町"},
{"zip_code":"5670894","kana_pref":"ｵｵｻｶﾌ","kana_city":"ｲﾊﾞﾗｷｼ","kana_address":"ﾜｶｿﾉﾁｮｳ","pref":"大阪府","city":"茨木市","address":"若園町"}]}