{"zip_code":[
{"zip_code":"5680096","kana_pref":"ｵｵｻｶﾌ","kana_city":"ｲﾊﾞﾗｷｼ","kana_address":"ｱｵｲﾜｻｶ","pref":"大阪府","city":"茨木市","address":"粟生岩阪"},
{"zip_code":"5680097","kana_pref":"ｵｵｻｶﾌ","kana_city":"ｲﾊﾞﾗｷｼ","kana_address":"ｲｽﾞﾊﾗ","pref":"大阪府","city":"茨木市","address":"泉原"},
{"zip_code":"5680091","kana_pref":"ｵｵｻｶﾌ","kana_city":"ｲﾊﾞﾗｷｼ","kana_address":"ｵｵｲﾜ","pref":"大阪府","city":"茨木市","address":"大岩"},
{"zip_code":"5680086","kana_pref":"ｵｵｻｶﾌ","kana_city":"ｲﾊﾞﾗｷｼ","kana_address":"ｶﾐｵﾄﾜ","pref":"大阪府","city":"茨木市","address":"上音羽"},
{"zip_code":"5680081","kana_pref":"ｵｵｻｶﾌ","kana_city":"ｲﾊﾞﾗｷｼ","kana_address":"ｷﾖｻｶ","pref":"大阪府","city":"茨木市","address":"清阪"},
{"zip_code":"5680083","kana_pref":"ｵｵｻｶﾌ","kana_city":"ｲﾊﾞﾗｷｼ","kana_address":"ｸﾙﾏﾂｸﾘ","pref":"大阪府","city":"茨木市","address":"車作"},
{"zip_code":"5680094","kana_pref":"ｵｵｻｶﾌ","kana_city":"ｲﾊﾞﾗｷｼ","kana_address":"ｸﾜﾉﾊﾗ","pref":"大阪府","city":"茨木市","address":"桑原"},
{"zip_code":"5680095","kana_pref":"ｵｵｻｶﾌ","kana_city":"ｲﾊﾞﾗｷｼ","kana_address":"ｻﾎ","pref":"大阪府","city":"茨木市","address":"佐保"},
{"zip_code":"5680082","kana_pref":"ｵｵｻｶﾌ","kana_city":"ｲﾊﾞﾗｷｼ","kana_address":"ｼﾓｵﾄﾜ","pref":"大阪府","city":"茨木市","address":"下音羽"},
{"zip_code":"5680092","kana_pref":"ｵｵｻｶﾌ","kana_city":"ｲﾊﾞﾗｷｼ","kana_address":"ｼｮｳﾎﾞ","pref":"大阪府","city":"茨木市","address":"生保"},
{"zip_code":"5680087","kana_pref":"ｵｵｻｶﾌ","kana_city":"ｲﾊﾞﾗｷｼ","kana_address":"ｾﾞﾆﾊﾗ","pref":"大阪府","city":"茨木市","address":"銭原"},
{"zip_code":"5680098","kana_pref":"ｵｵｻｶﾌ","kana_city":"ｲﾊﾞﾗｷｼ","kana_address":"ｾﾝﾀﾞｲｼﾞ","pref":"大阪府","city":"茨木市","address":"千提寺"},
{"zip_code":"5680093","kana_pref":"ｵｵｻｶﾌ","kana_city":"ｲﾊﾞﾗｷｼ","kana_address":"ﾀﾞｲﾓﾝｼﾞ","pref":"大阪府","city":"茨木市","address":"大門寺"},
{"zip_code":"5680088","kana_pref":"ｵｵｻｶﾌ","kana_city":"ｲﾊﾞﾗｷｼ","kana_address":"ﾅｶﾞﾀﾆ","pref":"大阪府","city":"茨木市","address":"長谷"},
{"zip_code":"5680085","kana_pref":"ｵｵｻｶﾌ","kana_city":"ｲﾊﾞﾗｷｼ","kana_address":"ﾆﾝﾁｮｳｼﾞ","pref":"大阪府","city":"茨木市","address":"忍頂寺"},
{"zip_code":"5680084","kana_pref":"ｵｵｻｶﾌ","kana_city":"ｲﾊﾞﾗｷｼ","kana_address":"ﾔｽﾓﾄ","pref":"大阪府","city":"茨木市","address":"安元"},
{"zip_code":"5680089","kana_pref":"ｵｵｻｶﾌ","kana_city":"ｲﾊﾞﾗｷｼ","kana_address":"ﾔﾏﾃﾀﾞｲﾋｶﾞｼﾏﾁ","pref":"大阪府","city":"茨木市","address":"山手台東町"}]}