{"zip_code":[
{"zip_code":"5690000","kana_pref":"ｵｵｻｶﾌ","kana_city":"ﾀｶﾂｷｼ","kana_address":"","pref":"大阪府","city":"高槻市","address":""},
{"zip_code":"5691146","kana_pref":"ｵｵｻｶﾌ","kana_city":"ﾀｶﾂｷｼ","kana_address":"ｱｶｵｵｼﾞﾁｮｳ","pref":"大阪府","city":"高槻市","address":"赤大路町"},
{"zip_code":"5691123","kana_pref":"ｵｵｻｶﾌ","kana_city":"ﾀｶﾂｷｼ","kana_address":"ｱｸﾀｶﾞﾜﾁｮｳ","pref":"大阪府","city":"高槻市","address":"芥川町"},
{"zip_code":"5690806","kana_pref":"ｵｵｻｶﾌ","kana_city":"ﾀｶﾂｷｼ","kana_address":"ｱｹﾀﾁｮｳ","pref":"大阪府","city":"高槻市","address":"明田町"},
{"zip_code":"5690082","kana_pref":"ｵｵｻｶﾌ","kana_city":"ﾀｶﾂｷｼ","kana_address":"ｱｹﾉﾁｮｳ","pref":"大阪府","city":"高槻市","address":"明野町"},
{"zip_code":"5691134","kana_pref":"ｵｵｻｶﾌ","kana_city":"ﾀｶﾂｷｼ","kana_address":"ｱｻﾋﾏﾁ","pref":"大阪府","city":"高槻市","address":"朝日町"},
{"zip_code":"5691045","kana_pref":"ｵｵｻｶﾌ","kana_city":"ﾀｶﾂｷｼ","kana_address":"ｱﾌﾞﾉ","pref":"大阪府","city":"高槻市","address":"阿武野"},
{"zip_code":"5691102","kana_pref":"ｵｵｻｶﾌ","kana_city":"ﾀｶﾂｷｼ","kana_address":"ｱﾏｲﾜﾃﾁｮｳ","pref":"大阪府","city":"高槻市","address":"安満磐手町"},
{"zip_code":"5691101","kana_pref":"ｵｵｻｶﾌ","kana_city":"ﾀｶﾂｷｼ","kana_address":"ｱﾏｺﾞｼｮﾉﾁｮｳ","pref":"大阪府","city":"高槻市","address":"安満御所の町"},
{"zip_code":"5691106","kana_pref":"ｵｵｻｶﾌ","kana_city":"ﾀｶﾂｷｼ","kana_address":"ｱﾏｼﾝﾏﾁ","pref":"大阪府","city":"高槻市","address":"安満新町"},
{"zip_code":"5691105","kana_pref":"ｵｵｻｶﾌ","kana_city":"ﾀｶﾂｷｼ","kana_address":"ｱﾏﾅｶﾉﾁｮｳ","pref":"大阪府","city":"高槻市","address":"安満中の町"},
{"zip_code":"5691104","kana_pref":"ｵｵｻｶﾌ","kana_city":"ﾀｶﾂｷｼ","kana_address":"ｱﾏﾋｶﾞｼﾉﾁｮｳ","pref":"大阪府","city":"高槻市","address":"安満東の町"},
{"zip_code":"5691107","kana_pref":"ｵｵｻｶﾌ","kana_city":"ﾀｶﾂｷｼ","kana_address":"ｱﾏﾆｼﾉﾁｮｳ","pref":"大阪府","city":"高槻市","address":"安満西の町"},
{"zip_code":"5691108","kana_pref":"ｵｵｻｶﾌ","kana_city":"ﾀｶﾂｷｼ","kana_address":"ｱﾏｷﾀﾉﾁｮｳ","pref":"大阪府","city":"高槻市","address":"安満北の町"},
{"zip_code":"5690027","kana_pref":"ｵｵｻｶﾌ","kana_city":"ﾀｶﾂｷｼ","kana_address":"ｱﾏｶﾞﾜｼﾝﾏﾁ","pref":"大阪府","city":"高槻市","address":"天川新町"},
{"zip_code":"5690026","kana_pref":"ｵｵｻｶﾌ","kana_city":"ﾀｶﾂｷｼ","kana_address":"ｱﾏｶﾞﾜﾁｮｳ","pref":"大阪府","city":"高槻市","address":"天川町"},
{"zip_code":"5691029","kana_pref":"ｵｵｻｶﾌ","kana_city":"ﾀｶﾂｷｼ","kana_address":"ｱﾝｺｳｼﾞﾁｮｳ","pref":"大阪府","city":"高槻市","address":"安岡寺町"},
{"zip_code":"5690015","kana_pref":"ｵｵｻｶﾌ","kana_city":"ﾀｶﾂｷｼ","kana_address":"ｲｼﾞﾘ","pref":"大阪府","city":"高槻市","address":"井尻"},
{"zip_code":"5691003","kana_pref":"ｵｵｻｶﾌ","kana_city":"ﾀｶﾂｷｼ","kana_address":"ｲｽﾞﾘﾊ","pref":"大阪府","city":"高槻市","address":"出灰"},
{"zip_code":"5691135","kana_pref":"ｵｵｻｶﾌ","kana_city":"ﾀｶﾂｷｼ","kana_address":"ｲﾏｼﾛﾁｮｳ","pref":"大阪府","city":"高槻市","address":"今城町"},
{"zip_code":"5691111","kana_pref":"ｵｵｻｶﾌ","kana_city":"ﾀｶﾂｷｼ","kana_address":"ｳﾂｸｼｶﾞｵｶ","pref":"大阪府","city":"高槻市","address":"美しが丘"},
{"zip_code":"5691027","kana_pref":"ｵｵｻｶﾌ","kana_city":"ﾀｶﾂｷｼ","kana_address":"ｳﾗﾄﾞｳ","pref":"大阪府","city":"高槻市","address":"浦堂"},
{"zip_code":"5691028","kana_pref":"ｵｵｻｶﾌ","kana_city":"ﾀｶﾂｷｼ","kana_address":"ｳﾗﾄﾞｳﾎﾝﾏﾁ","pref":"大阪府","city":"高槻市","address":"浦堂本町"},
{"zip_code":"5690083","kana_pref":"ｵｵｻｶﾌ","kana_city":"ﾀｶﾂｷｼ","kana_address":"ｴｲﾗｸﾁｮｳ","pref":"大阪府","city":"高槻市","address":"永楽町"},
{"zip_code":"5690031","kana_pref":"ｵｵｻｶﾌ","kana_city":"ﾀｶﾂｷｼ","kana_address":"ｵｵｶﾝﾑﾘﾁｮｳ","pref":"大阪府","city":"高槻市","address":"大冠町"},
{"zip_code":"5690034","kana_pref":"ｵｵｻｶﾌ","kana_city":"ﾀｶﾂｷｼ","kana_address":"ｵｵﾂｶﾁｮｳ","pref":"大阪府","city":"高槻市","address":"大塚町"},
{"zip_code":"5690078","kana_pref":"ｵｵｻｶﾌ","kana_city":"ﾀｶﾂｷｼ","kana_address":"ｵｵﾃﾁｮｳ","pref":"大阪府","city":"高槻市","address":"大手町"},
{"zip_code":"5691144","kana_pref":"ｵｵｻｶﾌ","kana_city":"ﾀｶﾂｷｼ","kana_address":"ｵｵﾊﾀﾁｮｳ","pref":"大阪府","city":"高槻市","address":"大畑町"},
{"zip_code":"5691137","kana_pref":"ｵｵｻｶﾌ","kana_city":"ﾀｶﾂｷｼ","kana_address":"ｵｶﾓﾄﾁｮｳ","pref":"大阪府","city":"高槻市","address":"岡本町"},
{"zip_code":"5691118","kana_pref":"ｵｵｻｶﾌ","kana_city":"ﾀｶﾂｷｼ","kana_address":"ｵｸﾃﾝｼﾞﾝﾁｮｳ","pref":"大阪府","city":"高槻市","address":"奥天神町"},
{"zip_code":"5690091","kana_pref":"ｵｵｻｶﾌ","kana_city":"ﾀｶﾂｷｼ","kana_address":"ｶｼﾞﾊﾗ","pref":"大阪府","city":"高槻市","address":"梶原"},
{"zip_code":"5690092","kana_pref":"ｵｵｻｶﾌ","kana_city":"ﾀｶﾂｷｼ","kana_address":"ｶｼﾞﾊﾗﾅｶﾑﾗﾁｮｳ","pref":"大阪府","city":"高槻市","address":"梶原中村町"},
{"zip_code":"5690053","kana_pref":"ｵｵｻｶﾌ","kana_city":"ﾀｶﾂｷｼ","kana_address":"ｶｽｶﾞﾁｮｳ","pref":"大阪府","city":"高槻市","address":"春日町"},
{"zip_code":"5690805","kana_pref":"ｵｵｻｶﾌ","kana_city":"ﾀｶﾂｷｼ","kana_address":"ｶﾐﾀﾅﾍﾞﾁｮｳ","pref":"大阪府","city":"高槻市","address":"上田辺町"},
{"zip_code":"5691044","kana_pref":"ｵｵｻｶﾌ","kana_city":"ﾀｶﾂｷｼ","kana_address":"ｶﾐﾊﾑﾛ","pref":"大阪府","city":"高槻市","address":"上土室"},
{"zip_code":"5690073","kana_pref":"ｵｵｻｶﾌ","kana_city":"ﾀｶﾂｷｼ","kana_address":"ｶﾐﾎﾝﾏﾁ","pref":"大阪府","city":"高槻市","address":"上本町"},
{"zip_code":"5690834","kana_pref":"ｵｵｻｶﾌ","kana_city":"ﾀｶﾂｷｼ","kana_address":"ｶﾗｻｷ","pref":"大阪府","city":"高槻市","address":"唐崎"},
{"zip_code":"5690832","kana_pref":"ｵｵｻｶﾌ","kana_city":"ﾀｶﾂｷｼ","kana_address":"ｶﾗｻｷﾅｶ","pref":"大阪府","city":"高槻市","address":"唐崎中"},
{"zip_code":"5690836","kana_pref":"ｵｵｻｶﾌ","kana_city":"ﾀｶﾂｷｼ","kana_address":"ｶﾗｻｷﾆｼ","pref":"大阪府","city":"高槻市","address":"唐崎西"},
{"zip_code":"5690833","kana_pref":"ｵｵｻｶﾌ","kana_city":"ﾀｶﾂｷｼ","kana_address":"ｶﾗｻｷﾐﾅﾐ","pref":"大阪府","city":"高槻市","address":"唐崎南"},
{"zip_code":"5690831","kana_pref":"ｵｵｻｶﾌ","kana_city":"ﾀｶﾂｷｼ","kana_address":"ｶﾗｻｷｷﾀ","pref":"大阪府","city":"高槻市","address":"唐崎北"},
{"zip_code":"5691018","kana_pref":"ｵｵｻｶﾌ","kana_city":"ﾀｶﾂｷｼ","kana_address":"ｶﾘﾝｴﾝ","pref":"大阪府","city":"高槻市","address":"花林苑"},
{"zip_code":"5691011","kana_pref":"ｵｵｻｶﾌ","kana_city":"ﾀｶﾂｷｼ","kana_address":"ｶﾜｸﾎﾞ","pref":"大阪府","city":"高槻市","address":"川久保"},
{"zip_code":"5690824","kana_pref":"ｵｵｻｶﾌ","kana_city":"ﾀｶﾂｷｼ","kana_address":"ｶﾜｿﾞｴ","pref":"大阪府","city":"高槻市","address":"川添"},
{"zip_code":"5691133","kana_pref":"ｵｵｻｶﾌ","kana_city":"ﾀｶﾂｷｼ","kana_address":"ｶﾜﾆｼﾁｮｳ","pref":"大阪府","city":"高槻市","address":"川西町"},
{"zip_code":"5690004","kana_pref":"ｵｵｻｶﾌ","kana_city":"ﾀｶﾂｷｼ","kana_address":"ｶﾝﾏｷﾐﾅﾐｴｷﾏｴﾁｮｳ","pref":"大阪府","city":"高槻市","address":"上牧南駅前町"},
{"zip_code":"5690005","kana_pref":"ｵｵｻｶﾌ","kana_city":"ﾀｶﾂｷｼ","kana_address":"ｶﾝﾏｷｷﾀｴｷﾏｴﾁｮｳ","pref":"大阪府","city":"高槻市","address":"上牧北駅前町"},
{"zip_code":"5690006","kana_pref":"ｵｵｻｶﾌ","kana_city":"ﾀｶﾂｷｼ","kana_address":"ｶﾝﾏｷﾔﾏﾃﾁｮｳ","pref":"大阪府","city":"高槻市","address":"上牧山手町"},
{"zip_code":"5690003","kana_pref":"ｵｵｻｶﾌ","kana_city":"ﾀｶﾂｷｼ","kana_address":"ｶﾝﾏｷﾁｮｳ","pref":"大阪府","city":"高槻市","address":"上牧町"},
{"zip_code":"5690041","kana_pref":"ｵｵｻｶﾌ","kana_city":"ﾀｶﾂｷｼ","kana_address":"ｷﾀｵｵﾋﾁｮｳ","pref":"大阪府","city":"高槻市","address":"北大樋町"},
{"zip_code":"5690816","kana_pref":"ｵｵｻｶﾌ","kana_city":"ﾀｶﾂｷｼ","kana_address":"ｷﾀｼｮｳﾜﾀﾞｲﾁｮｳ","pref":"大阪府","city":"高槻市","address":"北昭和台町"},
{"zip_code":"5690802","kana_pref":"ｵｵｻｶﾌ","kana_city":"ﾀｶﾂｷｼ","kana_address":"ｷﾀｿﾉﾏﾁ","pref":"大阪府","city":"高槻市","address":"北園町"},
{"zip_code":"5690852","kana_pref":"ｵｵｻｶﾌ","kana_city":"ﾀｶﾂｷｼ","kana_address":"ｷﾀﾔﾅｶﾞﾜﾁｮｳ","pref":"大阪府","city":"高槻市","address":"北柳川町"},
{"zip_code":"5690072","kana_pref":"ｵｵｻｶﾌ","kana_city":"ﾀｶﾂｷｼ","kana_address":"ｷｮｳｸﾞﾁﾏﾁ","pref":"大阪府","city":"高槻市","address":"京口町"},
{"zip_code":"5691136","kana_pref":"ｵｵｻｶﾌ","kana_city":"ﾀｶﾂｷｼ","kana_address":"ｸﾞﾝｹﾞｼﾝﾏﾁ","pref":"大阪府","city":"高槻市","address":"郡家新町"},
{"zip_code":"5691131","kana_pref":"ｵｵｻｶﾌ","kana_city":"ﾀｶﾂｷｼ","kana_address":"ｸﾞﾝｹﾞﾎﾝﾏﾁ","pref":"大阪府","city":"高槻市","address":"郡家本町"},
{"zip_code":"5690061","kana_pref":"ｵｵｻｶﾌ","kana_city":"ﾀｶﾂｷｼ","kana_address":"ｺｳｻｲﾁｮｳ","pref":"大阪府","city":"高槻市","address":"高西町"},
{"zip_code":"5690007","kana_pref":"ｵｵｻｶﾌ","kana_city":"ﾀｶﾂｷｼ","kana_address":"ｺｳﾅｲ","pref":"大阪府","city":"高槻市","address":"神内"},
{"zip_code":"5691038","kana_pref":"ｵｵｻｶﾌ","kana_city":"ﾀｶﾂｷｼ","kana_address":"ｺｶﾞﾈﾉｻﾄ","pref":"大阪府","city":"高槻市","address":"黄金の里"},
{"zip_code":"5691115","kana_pref":"ｵｵｻｶﾌ","kana_city":"ﾀｶﾂｷｼ","kana_address":"ｺｿﾍﾞﾁｮｳ","pref":"大阪府","city":"高槻市","address":"古曽部町"},
{"zip_code":"5690826","kana_pref":"ｵｵｻｶﾌ","kana_city":"ﾀｶﾂｷｼ","kana_address":"ｺﾄﾌﾞｷﾁｮｳ","pref":"大阪府","city":"高槻市","address":"寿町"},
{"zip_code":"5690016","kana_pref":"ｵｵｻｶﾌ","kana_city":"ﾀｶﾂｷｼ","kana_address":"ｺﾞﾘｮｳﾁｮｳ","pref":"大阪府","city":"高槻市","address":"五領町"},
{"zip_code":"5690804","kana_pref":"ｵｵｻｶﾌ","kana_city":"ﾀｶﾂｷｼ","kana_address":"ｺﾝﾔﾏﾁ","pref":"大阪府","city":"高槻市","address":"紺屋町"},
{"zip_code":"5690842","kana_pref":"ｵｵｻｶﾌ","kana_city":"ﾀｶﾂｷｼ","kana_address":"ｻｲﾒﾅｶ","pref":"大阪府","city":"高槻市","address":"西面中"},
{"zip_code":"5690847","kana_pref":"ｵｵｻｶﾌ","kana_city":"ﾀｶﾂｷｼ","kana_address":"ｻｲﾒﾐﾅﾐ","pref":"大阪府","city":"高槻市","address":"西面南"},
{"zip_code":"5690841","kana_pref":"ｵｵｻｶﾌ","kana_city":"ﾀｶﾂｷｼ","kana_address":"ｻｲﾒｷﾀ","pref":"大阪府","city":"高槻市","address":"西面北"},
{"zip_code":"5691143","kana_pref":"ｵｵｻｶﾌ","kana_city":"ﾀｶﾂｷｼ","kana_address":"ｻｲﾜｲﾁｮｳ","pref":"大阪府","city":"高槻市","address":"幸町"},
{"zip_code":"5690825","kana_pref":"ｵｵｻｶﾌ","kana_city":"ﾀｶﾂｷｼ","kana_address":"ｻｶｴﾏﾁ","pref":"大阪府","city":"高槻市","address":"栄町"},
{"zip_code":"5690818","kana_pref":"ｵｵｻｶﾌ","kana_city":"ﾀｶﾂｷｼ","kana_address":"ｻｸﾗｶﾞｵｶﾐﾅﾐﾏﾁ","pref":"大阪府","city":"高槻市","address":"桜ケ丘南町"},
{"zip_code":"5690817","kana_pref":"ｵｵｻｶﾌ","kana_city":"ﾀｶﾂｷｼ","kana_address":"ｻｸﾗｶﾞｵｶｷﾀﾏﾁ","pref":"大阪府","city":"高槻市","address":"桜ケ丘北町"},
{"zip_code":"5690807","kana_pref":"ｵｵｻｶﾌ","kana_city":"ﾀｶﾂｷｼ","kana_address":"ｻｸﾗﾏﾁ","pref":"大阪府","city":"高槻市","address":"桜町"},
{"zip_code":"5690084","kana_pref":"ｵｵｻｶﾌ","kana_city":"ﾀｶﾂｷｼ","kana_address":"ｻﾜﾗｷﾞﾁｮｳ","pref":"大阪府","city":"高槻市","address":"沢良木町"},
{"zip_code":"5690843","kana_pref":"ｵｵｻｶﾌ","kana_city":"ﾀｶﾂｷｼ","kana_address":"ｻﾝｶﾞﾏｷ","pref":"大阪府","city":"高槻市","address":"三箇牧"},
{"zip_code":"5691025","kana_pref":"ｵｵｻｶﾌ","kana_city":"ﾀｶﾂｷｼ","kana_address":"ｼﾊﾞﾀﾆﾁｮｳ","pref":"大阪府","city":"高槻市","address":"芝谷町"},
{"zip_code":"5690823","kana_pref":"ｵｵｻｶﾌ","kana_city":"ﾀｶﾂｷｼ","kana_address":"ｼﾎﾞﾁｮｳ","pref":"大阪府","city":"高槻市","address":"芝生町"},
{"zip_code":"5691039","kana_pref":"ｵｵｻｶﾌ","kana_city":"ﾀｶﾂｷｼ","kana_address":"ｼﾐｽﾞﾀﾞｲ","pref":"大阪府","city":"高槻市","address":"清水台"},
{"zip_code":"5690062","kana_pref":"ｵｵｻｶﾌ","kana_city":"ﾀｶﾂｷｼ","kana_address":"ｼﾓﾀﾅﾍﾞﾁｮｳ","pref":"大阪府","city":"高槻市","address":"下田部町"},
{"zip_code":"5690064","kana_pref":"ｵｵｻｶﾌ","kana_city":"ﾀｶﾂｷｼ","kana_address":"ｼｮｳﾄﾞｺﾛﾁｮｳ","pref":"大阪府","city":"高槻市","address":"庄所町"},
{"zip_code":"5690815","kana_pref":"ｵｵｻｶﾌ","kana_city":"ﾀｶﾂｷｼ","kana_address":"ｼｮｳﾜﾀﾞｲﾁｮｳ","pref":"大阪府","city":"高槻市","address":"昭和台町"},
{"zip_code":"5690052","kana_pref":"ｵｵｻｶﾌ","kana_city":"ﾀｶﾂｷｼ","kana_address":"ｼﾞｮｳﾄｳﾁｮｳ","pref":"大阪府","city":"高槻市","address":"城東町"},
{"zip_code":"5690065","kana_pref":"ｵｵｻｶﾌ","kana_city":"ﾀｶﾂｷｼ","kana_address":"ｼﾞｮｳｻｲﾁｮｳ","pref":"大阪府","city":"高槻市","address":"城西町"},
{"zip_code":"5690056","kana_pref":"ｵｵｻｶﾌ","kana_city":"ﾀｶﾂｷｼ","kana_address":"ｼﾞｮｳﾅﾝﾁｮｳ","pref":"大阪府","city":"高槻市","address":"城南町"},
{"zip_code":"5690071","kana_pref":"ｵｵｻｶﾌ","kana_city":"ﾀｶﾂｷｼ","kana_address":"ｼﾞｮｳﾎｸﾁｮｳ","pref":"大阪府","city":"高槻市","address":"城北町"},
{"zip_code":"5690075","kana_pref":"ｵｵｻｶﾌ","kana_city":"ﾀｶﾂｷｼ","kana_address":"ｼﾞｮｳﾅｲﾁｮｳ","pref":"大阪府","city":"高槻市","address":"城内町"},
{"zip_code":"5690022","kana_pref":"ｵｵｻｶﾌ","kana_city":"ﾀｶﾂｷｼ","kana_address":"ｽｶﾞﾁｮｳ","pref":"大阪府","city":"高槻市","address":"須賀町"},
{"zip_code":"5691005","kana_pref":"ｵｵｻｶﾌ","kana_city":"ﾀｶﾂｷｼ","kana_address":"ｽｷﾞｵ","pref":"大阪府","city":"高槻市","address":"杉生"},
{"zip_code":"5690036","kana_pref":"ｵｵｻｶﾌ","kana_city":"ﾀｶﾂｷｼ","kana_address":"ｽﾞｼ","pref":"大阪府","city":"高槻市","address":"辻子"},
{"zip_code":"5691132","kana_pref":"ｵｵｻｶﾌ","kana_city":"ﾀｶﾂｷｼ","kana_address":"ｾｲﾌｸｼﾞﾁｮｳ","pref":"大阪府","city":"高槻市","address":"清福寺町"},
{"zip_code":"5690097","kana_pref":"ｵｵｻｶﾌ","kana_city":"ﾀｶﾂｷｼ","kana_address":"ﾀｶｶﾞｷﾁｮｳ","pref":"大阪府","city":"高槻市","address":"高垣町"},
{"zip_code":"5690803","kana_pref":"ｵｵｻｶﾌ","kana_city":"ﾀｶﾂｷｼ","kana_address":"ﾀｶﾂｷﾏﾁ","pref":"大阪府","city":"高槻市","address":"高槻町"},
{"zip_code":"5691020","kana_pref":"ｵｵｻｶﾌ","kana_city":"ﾀｶﾂｷｼ","kana_address":"ﾀｶﾐﾀﾞｲ","pref":"大阪府","city":"高槻市","address":"高見台"},
{"zip_code":"5690043","kana_pref":"ｵｵｻｶﾌ","kana_city":"ﾀｶﾂｷｼ","kana_address":"ﾀｹﾉｳﾁﾁｮｳ","pref":"大阪府","city":"高槻市","address":"竹の内町"},
{"zip_code":"5690801","kana_pref":"ｵｵｻｶﾌ","kana_city":"ﾀｶﾂｷｼ","kana_address":"ﾀﾞｲｶﾞｸﾏﾁ","pref":"大阪府","city":"高槻市","address":"大学町"},
{"zip_code":"5691034","kana_pref":"ｵｵｻｶﾌ","kana_city":"ﾀｶﾂｷｼ","kana_address":"ﾀﾞｲｿﾞｳｼﾞ","pref":"大阪府","city":"高槻市","address":"大蔵司"},
{"zip_code":"5691047","kana_pref":"ｵｵｻｶﾌ","kana_city":"ﾀｶﾂｷｼ","kana_address":"ﾀﾞｲﾜ","pref":"大阪府","city":"高槻市","address":"大和"},
{"zip_code":"5691002","kana_pref":"ｵｵｻｶﾌ","kana_city":"ﾀｶﾂｷｼ","kana_address":"ﾀﾉｳ","pref":"大阪府","city":"高槻市","address":"田能"},
{"zip_code":"5690857","kana_pref":"ｵｵｻｶﾌ","kana_city":"ﾀｶﾂｷｼ","kana_address":"ﾀﾏｶﾞﾜ","pref":"大阪府","city":"高槻市","address":"玉川"},
{"zip_code":"5690856","kana_pref":"ｵｵｻｶﾌ","kana_city":"ﾀｶﾂｷｼ","kana_address":"ﾀﾏｶﾞﾜｼﾝﾏﾁ","pref":"大阪府","city":"高槻市","address":"玉川新町"},
{"zip_code":"5690087","kana_pref":"ｵｵｻｶﾌ","kana_city":"ﾀｶﾂｷｼ","kana_address":"ﾁﾖﾀﾞﾁｮｳ","pref":"大阪府","city":"高槻市","address":"千代田町"},
{"zip_code":"5691046","kana_pref":"ｵｵｻｶﾌ","kana_city":"ﾀｶﾂｷｼ","kana_address":"ﾂｶﾊﾗ","pref":"大阪府","city":"高槻市","address":"塚原"},
{"zip_code":"5691036","kana_pref":"ｵｵｻｶﾌ","kana_city":"ﾀｶﾂｷｼ","kana_address":"ﾂｶﾜｷ","pref":"大阪府","city":"高槻市","address":"塚脇"},
{"zip_code":"5691122","kana_pref":"ｵｵｻｶﾌ","kana_city":"ﾀｶﾂｷｼ","kana_address":"ﾂｷﾐﾁｮｳ","pref":"大阪府","city":"高槻市","address":"月見町"},
{"zip_code":"5690047","kana_pref":"ｵｵｻｶﾌ","kana_city":"ﾀｶﾂｷｼ","kana_address":"ﾂﾂﾐﾁｮｳ","pref":"大阪府","city":"高槻市","address":"堤町"},
{"zip_code":"5690821","kana_pref":"ｵｵｻｶﾌ","kana_city":"ﾀｶﾂｷｼ","kana_address":"ﾂﾉｴｷﾀﾏﾁ","pref":"大阪府","city":"高槻市","address":"津之江北町"},
{"zip_code":"5690822","kana_pref":"ｵｵｻｶﾌ","kana_city":"ﾀｶﾂｷｼ","kana_address":"ﾂﾉｴﾁｮｳ","pref":"大阪府","city":"高槻市","address":"津之江町"},
{"zip_code":"5690076","kana_pref":"ｵｵｻｶﾌ","kana_city":"ﾀｶﾂｷｼ","kana_address":"ﾃﾞﾏﾙﾁｮｳ","pref":"大阪府","city":"高槻市","address":"出丸町"},
{"zip_code":"5691024","kana_pref":"ｵｵｻｶﾌ","kana_city":"ﾀｶﾂｷｼ","kana_address":"ﾃﾗﾀﾆﾁｮｳ","pref":"大阪府","city":"高槻市","address":"寺谷町"},
{"zip_code":"5691117","kana_pref":"ｵｵｻｶﾌ","kana_city":"ﾀｶﾂｷｼ","kana_address":"ﾃﾝｼﾞﾝﾏﾁ","pref":"大阪府","city":"高槻市","address":"天神町"},
{"zip_code":"5690088","kana_pref":"ｵｵｻｶﾌ","kana_city":"ﾀｶﾂｷｼ","kana_address":"ﾃﾝﾉｳﾁｮｳ","pref":"大阪府","city":"高槻市","address":"天王町"},
{"zip_code":"5690011","kana_pref":"ｵｵｻｶﾌ","kana_city":"ﾀｶﾂｷｼ","kana_address":"ﾄﾞｳｳﾁｮｳ","pref":"大阪府","city":"高槻市","address":"道鵜町"},
{"zip_code":"5690067","kana_pref":"ｵｵｻｶﾌ","kana_city":"ﾀｶﾂｷｼ","kana_address":"ﾄｳｴﾝﾁｮｳ","pref":"大阪府","city":"高槻市","address":"桃園町"},
{"zip_code":"5690032","kana_pref":"ｵｵｻｶﾌ","kana_city":"ﾀｶﾂｷｼ","kana_address":"ﾄｳﾜﾁｮｳ","pref":"大阪府","city":"高槻市","address":"東和町"},
{"zip_code":"5691126","kana_pref":"ｵｵｻｶﾌ","kana_city":"ﾀｶﾂｷｼ","kana_address":"ﾄﾉﾏﾁ","pref":"大阪府","city":"高槻市","address":"殿町"},
{"zip_code":"5690057","kana_pref":"ｵｵｻｶﾌ","kana_city":"ﾀｶﾂｷｼ","kana_address":"ﾄﾞﾊﾞｼﾁｮｳ","pref":"大阪府","city":"高槻市","address":"土橋町"},
{"zip_code":"5690812","kana_pref":"ｵｵｻｶﾌ","kana_city":"ﾀｶﾂｷｼ","kana_address":"ﾄﾐﾉｻﾄﾁｮｳ","pref":"大阪府","city":"高槻市","address":"登美の里町"},
{"zip_code":"5691145","kana_pref":"ｵｵｻｶﾌ","kana_city":"ﾀｶﾂｷｼ","kana_address":"ﾄﾝﾀﾞｵｶﾏﾁ","pref":"大阪府","city":"高槻市","address":"富田丘町"},
{"zip_code":"5690814","kana_pref":"ｵｵｻｶﾌ","kana_city":"ﾀｶﾂｷｼ","kana_address":"ﾄﾝﾀﾞﾁｮｳ","pref":"大阪府","city":"高槻市","address":"富田町"},
{"zip_code":"5690066","kana_pref":"ｵｵｻｶﾌ","kana_city":"ﾀｶﾂｷｼ","kana_address":"ﾅｶｶﾞﾜﾁｮｳ","pref":"大阪府","city":"高槻市","address":"中川町"},
{"zip_code":"5691001","kana_pref":"ｵｵｻｶﾌ","kana_city":"ﾀｶﾂｷｼ","kana_address":"ﾅｶﾊﾀ","pref":"大阪府","city":"高槻市","address":"中畑"},
{"zip_code":"5691041","kana_pref":"ｵｵｻｶﾌ","kana_city":"ﾀｶﾂｷｼ","kana_address":"ﾅｻﾊﾗ","pref":"大阪府","city":"高槻市","address":"奈佐原"},
{"zip_code":"5691043","kana_pref":"ｵｵｻｶﾌ","kana_city":"ﾀｶﾂｷｼ","kana_address":"ﾅｻﾊﾗﾓﾄﾏﾁ","pref":"大阪府","city":"高槻市","address":"奈佐原元町"},
{"zip_code":"5691012","kana_pref":"ｵｵｻｶﾌ","kana_city":"ﾀｶﾂｷｼ","kana_address":"ﾅﾘｱｲ","pref":"大阪府","city":"高槻市","address":"成合"},
{"zip_code":"5691014","kana_pref":"ｵｵｻｶﾌ","kana_city":"ﾀｶﾂｷｼ","kana_address":"ﾅﾘｱｲﾋｶﾞｼﾉﾁｮｳ","pref":"大阪府","city":"高槻市","address":"成合東の町"},
{"zip_code":"5691016","kana_pref":"ｵｵｻｶﾌ","kana_city":"ﾀｶﾂｷｼ","kana_address":"ﾅﾘｱｲﾆｼﾉﾁｮｳ","pref":"大阪府","city":"高槻市","address":"成合西の町"},
{"zip_code":"5691013","kana_pref":"ｵｵｻｶﾌ","kana_city":"ﾀｶﾂｷｼ","kana_address":"ﾅﾘｱｲﾐﾅﾐﾉﾁｮｳ","pref":"大阪府","city":"高槻市","address":"成合南の町"},
{"zip_code":"5691017","kana_pref":"ｵｵｻｶﾌ","kana_city":"ﾀｶﾂｷｼ","kana_address":"ﾅﾘｱｲｷﾀﾉﾁｮｳ","pref":"大阪府","city":"高槻市","address":"成合北の町"},
{"zip_code":"5691015","kana_pref":"ｵｵｻｶﾌ","kana_city":"ﾀｶﾂｷｼ","kana_address":"ﾅﾘｱｲﾅｶﾉﾁｮｳ","pref":"大阪府","city":"高槻市","address":"成合中の町"},
{"zip_code":"5691042","kana_pref":"ｵｵｻｶﾌ","kana_city":"ﾀｶﾂｷｼ","kana_address":"ﾅﾝﾍﾟｲﾀﾞｲ","pref":"大阪府","city":"高槻市","address":"南平台"},
{"zip_code":"5690045","kana_pref":"ｵｵｻｶﾌ","kana_city":"ﾀｶﾂｷｼ","kana_address":"ﾆｼｵｵﾋﾁｮｳ","pref":"大阪府","city":"高槻市","address":"西大樋町"},
{"zip_code":"5690055","kana_pref":"ｵｵｻｶﾌ","kana_city":"ﾀｶﾂｷｼ","kana_address":"ﾆｼｶﾝﾑﾘ","pref":"大阪府","city":"高槻市","address":"西冠"},
{"zip_code":"5691035","kana_pref":"ｵｵｻｶﾌ","kana_city":"ﾀｶﾂｷｼ","kana_address":"ﾆｼﾉｶﾜﾗ","pref":"大阪府","city":"高槻市","address":"西之川原"},
{"zip_code":"5691127","kana_pref":"ｵｵｻｶﾌ","kana_city":"ﾀｶﾂｷｼ","kana_address":"ﾆｼﾏｶﾐ","pref":"大阪府","city":"高槻市","address":"西真上"},
{"zip_code":"5690854","kana_pref":"ｵｵｻｶﾌ","kana_city":"ﾀｶﾂｷｼ","kana_address":"ﾆｼﾏﾁ","pref":"大阪府","city":"高槻市","address":"西町"},
{"zip_code":"5690813","kana_pref":"ｵｵｻｶﾌ","kana_city":"ﾀｶﾂｷｼ","kana_address":"ﾆｼﾖｽﾐﾁｮｳ","pref":"大阪府","city":"高槻市","address":"西五百住町"},
{"zip_code":"5690827","kana_pref":"ｵｵｻｶﾌ","kana_city":"ﾀｶﾂｷｼ","kana_address":"ﾆｮｾﾞﾁｮｳ","pref":"大阪府","city":"高槻市","address":"如是町"},
{"zip_code":"5691004","kana_pref":"ｵｵｻｶﾌ","kana_city":"ﾀｶﾂｷｼ","kana_address":"ﾆﾘｮｳ","pref":"大阪府","city":"高槻市","address":"二料"},
{"zip_code":"5690013","kana_pref":"ｵｵｻｶﾌ","kana_city":"ﾀｶﾂｷｼ","kana_address":"ﾉﾀﾞ","pref":"大阪府","city":"高槻市","address":"野田"},
{"zip_code":"5690014","kana_pref":"ｵｵｻｶﾌ","kana_city":"ﾀｶﾂｷｼ","kana_address":"ﾉﾀﾞﾋｶﾞｼ","pref":"大阪府","city":"高槻市","address":"野田東"},
{"zip_code":"5690046","kana_pref":"ｵｵｻｶﾌ","kana_city":"ﾀｶﾂｷｼ","kana_address":"ﾉﾎﾞﾘﾏﾁ","pref":"大阪府","city":"高槻市","address":"登町"},
{"zip_code":"5690077","kana_pref":"ｵｵｻｶﾌ","kana_city":"ﾀｶﾂｷｼ","kana_address":"ﾉﾐﾁｮｳ","pref":"大阪府","city":"高槻市","address":"野見町"},
{"zip_code":"5691054","kana_pref":"ｵｵｻｶﾌ","kana_city":"ﾀｶﾂｷｼ","kana_address":"ﾊｷﾞﾀﾆ","pref":"大阪府","city":"高槻市","address":"萩谷"},
{"zip_code":"5691053","kana_pref":"ｵｵｻｶﾌ","kana_city":"ﾀｶﾂｷｼ","kana_address":"ﾊｷﾞﾀﾆﾂｷﾐﾀﾞｲ","pref":"大阪府","city":"高槻市","address":"萩谷月見台"},
{"zip_code":"5690093","kana_pref":"ｵｵｻｶﾌ","kana_city":"ﾀｶﾂｷｼ","kana_address":"ﾊｷﾞﾉｼｮｳ","pref":"大阪府","city":"高槻市","address":"萩之庄"},
{"zip_code":"5691116","kana_pref":"ｵｵｻｶﾌ","kana_city":"ﾀｶﾂｷｼ","kana_address":"ﾊｸﾊﾞｲﾁｮｳ","pref":"大阪府","city":"高槻市","address":"白梅町"},
{"zip_code":"5690844","kana_pref":"ｵｵｻｶﾌ","kana_city":"ﾀｶﾂｷｼ","kana_address":"ﾊｼﾗﾓﾄ","pref":"大阪府","city":"高槻市","address":"柱本"},
{"zip_code":"5690846","kana_pref":"ｵｵｻｶﾌ","kana_city":"ﾀｶﾂｷｼ","kana_address":"ﾊｼﾗﾓﾄｼﾝﾏﾁ","pref":"大阪府","city":"高槻市","address":"柱本新町"},
{"zip_code":"5690845","kana_pref":"ｵｵｻｶﾌ","kana_city":"ﾀｶﾂｷｼ","kana_address":"ﾊｼﾗﾓﾄﾐﾅﾐﾏﾁ","pref":"大阪府","city":"高槻市","address":"柱本南町"},
{"zip_code":"5690096","kana_pref":"ｵｵｻｶﾌ","kana_city":"ﾀｶﾂｷｼ","kana_address":"ﾊｯﾁｮｳﾅﾜﾃﾁｮｳ","pref":"大阪府","city":"高槻市","address":"八丁畷町"},
{"zip_code":"5690095","kana_pref":"ｵｵｻｶﾌ","kana_city":"ﾀｶﾂｷｼ","kana_address":"ﾊｯﾁｮｳﾆｼﾏﾁ","pref":"大阪府","city":"高槻市","address":"八丁西町"},
{"zip_code":"5691147","kana_pref":"ｵｵｻｶﾌ","kana_city":"ﾀｶﾂｷｼ","kana_address":"ﾊﾑﾛﾁｮｳ","pref":"大阪府","city":"高槻市","address":"土室町"},
{"zip_code":"5691051","kana_pref":"ｵｵｻｶﾌ","kana_city":"ﾀｶﾂｷｼ","kana_address":"ﾊﾗ","pref":"大阪府","city":"高槻市","address":"原"},
{"zip_code":"5690044","kana_pref":"ｵｵｻｶﾌ","kana_city":"ﾀｶﾂｷｼ","kana_address":"ﾊﾞﾝﾀﾞ","pref":"大阪府","city":"高槻市","address":"番田"},
{"zip_code":"5690012","kana_pref":"ｵｵｻｶﾌ","kana_city":"ﾀｶﾂｷｼ","kana_address":"ﾋｶﾞｼｱﾏｶﾞﾜ","pref":"大阪府","city":"高槻市","address":"東天川"},
{"zip_code":"5690002","kana_pref":"ｵｵｻｶﾌ","kana_city":"ﾀｶﾂｷｼ","kana_address":"ﾋｶﾞｼｶﾝﾏｷ","pref":"大阪府","city":"高槻市","address":"東上牧"},
{"zip_code":"5691037","kana_pref":"ｵｵｻｶﾌ","kana_city":"ﾀｶﾂｷｼ","kana_address":"ﾋｶﾞｼｼﾛﾔﾏﾁｮｳ","pref":"大阪府","city":"高槻市","address":"東城山町"},
{"zip_code":"5690811","kana_pref":"ｵｵｻｶﾌ","kana_city":"ﾀｶﾂｷｼ","kana_address":"ﾋｶﾞｼﾖｽﾐﾁｮｳ","pref":"大阪府","city":"高槻市","address":"東五百住町"},
{"zip_code":"5691141","kana_pref":"ｵｵｻｶﾌ","kana_city":"ﾀｶﾂｷｼ","kana_address":"ﾋﾑﾛﾁｮｳ","pref":"大阪府","city":"高槻市","address":"氷室町"},
{"zip_code":"5690024","kana_pref":"ｵｵｻｶﾌ","kana_city":"ﾀｶﾂｷｼ","kana_address":"ﾋｭｳｶﾞﾁｮｳ","pref":"大阪府","city":"高槻市","address":"日向町"},
{"zip_code":"5691022","kana_pref":"ｵｵｻｶﾌ","kana_city":"ﾀｶﾂｷｼ","kana_address":"ﾋﾖｼﾀﾞｲ","pref":"大阪府","city":"高槻市","address":"日吉台"},
{"zip_code":"5690035","kana_pref":"ｵｵｻｶﾌ","kana_city":"ﾀｶﾂｷｼ","kana_address":"ﾌｶｻﾞﾜﾁｮｳ","pref":"大阪府","city":"高槻市","address":"深沢町"},
{"zip_code":"5690033","kana_pref":"ｵｵｻｶﾌ","kana_city":"ﾀｶﾂｷｼ","kana_address":"ﾌｶｻﾞﾜﾎﾝﾏﾁ","pref":"大阪府","city":"高槻市","address":"深沢本町"},
{"zip_code":"5690025","kana_pref":"ｵｵｻｶﾌ","kana_city":"ﾀｶﾂｷｼ","kana_address":"ﾌｼﾞﾉｻﾄﾁｮｳ","pref":"大阪府","city":"高槻市","address":"藤の里町"},
{"zip_code":"5691114","kana_pref":"ｵｵｻｶﾌ","kana_city":"ﾀｶﾂｷｼ","kana_address":"ﾍﾞｯｼﾖｼﾝﾏﾁ","pref":"大阪府","city":"高槻市","address":"別所新町"},
{"zip_code":"5691113","kana_pref":"ｵｵｻｶﾌ","kana_city":"ﾀｶﾂｷｼ","kana_address":"ﾍﾞｯｼﾖﾅｶﾉﾁｮｳ","pref":"大阪府","city":"高槻市","address":"別所中の町"},
{"zip_code":"5691112","kana_pref":"ｵｵｻｶﾌ","kana_city":"ﾀｶﾂｷｼ","kana_address":"ﾍﾞｯｼﾖﾎﾝﾏﾁ","pref":"大阪府","city":"高槻市","address":"別所本町"},
{"zip_code":"5691109","kana_pref":"ｵｵｻｶﾌ","kana_city":"ﾀｶﾂｷｼ","kana_address":"ﾍﾞﾆﾀｹﾁｮｳ","pref":"大阪府","city":"高槻市","address":"紅茸町"},
{"zip_code":"5690074","kana_pref":"ｵｵｻｶﾌ","kana_city":"ﾀｶﾂｷｼ","kana_address":"ﾎﾝﾏﾁ","pref":"大阪府","city":"高槻市","address":"本町"},
{"zip_code":"5690021","kana_pref":"ｵｵｻｶﾌ","kana_city":"ﾀｶﾂｷｼ","kana_address":"ﾏｴｼﾏ","pref":"大阪府","city":"高槻市","address":"前島"},
{"zip_code":"5691121","kana_pref":"ｵｵｻｶﾌ","kana_city":"ﾀｶﾂｷｼ","kana_address":"ﾏｶﾐﾁｮｳ","pref":"大阪府","city":"高槻市","address":"真上町"},
{"zip_code":"5690855","kana_pref":"ｵｵｻｶﾌ","kana_city":"ﾀｶﾂｷｼ","kana_address":"ﾏｷﾀﾁｮｳ","pref":"大阪府","city":"高槻市","address":"牧田町"},
{"zip_code":"5690023","kana_pref":"ｵｵｻｶﾌ","kana_city":"ﾀｶﾂｷｼ","kana_address":"ﾏﾂｶﾜﾁｮｳ","pref":"大阪府","city":"高槻市","address":"松川町"},
{"zip_code":"5691031","kana_pref":"ｵｵｻｶﾌ","kana_city":"ﾀｶﾂｷｼ","kana_address":"ﾏﾂｶﾞｵｶ","pref":"大阪府","city":"高槻市","address":"松が丘"},
{"zip_code":"5690086","kana_pref":"ｵｵｻｶﾌ","kana_city":"ﾀｶﾂｷｼ","kana_address":"ﾏﾂﾊﾞﾗﾁｮｳ","pref":"大阪府","city":"高槻市","address":"松原町"},
{"zip_code":"5690835","kana_pref":"ｵｵｻｶﾌ","kana_city":"ﾀｶﾂｷｼ","kana_address":"ﾐｼﾏｴ","pref":"大阪府","city":"高槻市","address":"三島江"},
{"zip_code":"5691026","kana_pref":"ｵｵｻｶﾌ","kana_city":"ﾀｶﾂｷｼ","kana_address":"ﾐﾄﾞﾘｶﾞｵｶ","pref":"大阪府","city":"高槻市","address":"緑が丘"},
{"zip_code":"5690094","kana_pref":"ｵｵｻｶﾌ","kana_city":"ﾀｶﾂｷｼ","kana_address":"ﾐﾄﾞﾘﾁｮｳ","pref":"大阪府","city":"高槻市","address":"緑町"},
{"zip_code":"5691124","kana_pref":"ｵｵｻｶﾌ","kana_city":"ﾀｶﾂｷｼ","kana_address":"ﾐﾅﾐｱｸﾀｶﾞﾜﾁｮｳ","pref":"大阪府","city":"高槻市","address":"南芥川町"},
{"zip_code":"5690042","kana_pref":"ｵｵｻｶﾌ","kana_city":"ﾀｶﾂｷｼ","kana_address":"ﾐﾅﾐｵｵﾋﾁｮｳ","pref":"大阪府","city":"高槻市","address":"南大樋町"},
{"zip_code":"5690063","kana_pref":"ｵｵｻｶﾌ","kana_city":"ﾀｶﾂｷｼ","kana_address":"ﾐﾅﾐｼｮｳﾄﾞｺﾛﾁｮｳ","pref":"大阪府","city":"高槻市","address":"南庄所町"},
{"zip_code":"5690851","kana_pref":"ｵｵｻｶﾌ","kana_city":"ﾀｶﾂｷｼ","kana_address":"ﾐﾅﾐｿｳｼﾞｼﾞﾁｮｳ","pref":"大阪府","city":"高槻市","address":"南総持寺町"},
{"zip_code":"5690085","kana_pref":"ｵｵｻｶﾌ","kana_city":"ﾀｶﾂｷｼ","kana_address":"ﾐﾅﾐﾏﾂﾊﾞﾗﾁｮｳ","pref":"大阪府","city":"高槻市","address":"南松原町"},
{"zip_code":"5691023","kana_pref":"ｵｵｻｶﾌ","kana_city":"ﾀｶﾂｷｼ","kana_address":"ﾐﾔｶﾞﾀﾞﾆﾁｮｳ","pref":"大阪府","city":"高槻市","address":"宮が谷町"},
{"zip_code":"5691142","kana_pref":"ｵｵｻｶﾌ","kana_city":"ﾀｶﾂｷｼ","kana_address":"ﾐﾔﾀﾞﾁｮｳ","pref":"大阪府","city":"高槻市","address":"宮田町"},
{"zip_code":"5691032","kana_pref":"ｵｵｻｶﾌ","kana_city":"ﾀｶﾂｷｼ","kana_address":"ﾐﾔﾉｶﾜﾗ","pref":"大阪府","city":"高槻市","address":"宮之川原"},
{"zip_code":"5691033","kana_pref":"ｵｵｻｶﾌ","kana_city":"ﾀｶﾂｷｼ","kana_address":"ﾐﾔﾉｶﾜﾗﾓﾄﾏﾁ","pref":"大阪府","city":"高槻市","address":"宮之川原元町"},
{"zip_code":"5690081","kana_pref":"ｵｵｻｶﾌ","kana_city":"ﾀｶﾂｷｼ","kana_address":"ﾐﾔﾉﾁｮｳ","pref":"大阪府","city":"高槻市","address":"宮野町"},
{"zip_code":"5691125","kana_pref":"ｵｵｻｶﾌ","kana_city":"ﾀｶﾂｷｼ","kana_address":"ﾑﾗｻｷﾁｮｳ","pref":"大阪府","city":"高槻市","address":"紫町"},
{"zip_code":"5691128","kana_pref":"ｵｵｻｶﾌ","kana_city":"ﾀｶﾂｷｼ","kana_address":"ﾒｲｼﾝﾁｮｳ","pref":"大阪府","city":"高槻市","address":"名神町"},
{"zip_code":"5690853","kana_pref":"ｵｵｻｶﾌ","kana_city":"ﾀｶﾂｷｼ","kana_address":"ﾔﾅｶﾞﾜﾁｮｳ","pref":"大阪府","city":"高槻市","address":"柳川町"},
{"zip_code":"5690051","kana_pref":"ｵｵｻｶﾌ","kana_city":"ﾀｶﾂｷｼ","kana_address":"ﾔﾊﾀﾏﾁ","pref":"大阪府","city":"高槻市","address":"八幡町"},
{"zip_code":"5691103","kana_pref":"ｵｵｻｶﾌ","kana_city":"ﾀｶﾂｷｼ","kana_address":"ﾔﾏﾃﾁｮｳ","pref":"大阪府","city":"高槻市","address":"山手町"},
{"zip_code":"5691021","kana_pref":"ｵｵｻｶﾌ","kana_city":"ﾀｶﾂｷｼ","kana_address":"ﾔﾖｲｶﾞｵｶﾁｮｳ","pref":"大阪府","city":"高槻市","address":"弥生が丘町"},
{"zip_code":"5690001","kana_pref":"ｵｵｻｶﾌ","kana_city":"ﾀｶﾂｷｼ","kana_address":"ﾖﾄﾞﾉﾊﾗﾁｮｳ","pref":"大阪府","city":"高槻市","address":"淀の原町"},
{"zip_code":"5691052","kana_pref":"ｵｵｻｶﾌ","kana_city":"ﾀｶﾂｷｼ","kana_address":"ﾘｮｳｾﾞﾝｼﾞﾁｮｳ","pref":"大阪府","city":"高槻市","address":"霊仙寺町"},
{"zip_code":"5690054","kana_pref":"ｵｵｻｶﾌ","kana_city":"ﾀｶﾂｷｼ","kana_address":"ﾜｶﾏﾂﾁｮｳ","pref":"大阪府","city":"高槻市","address":"若松町"}]}