{"zip_code":[
{"zip_code":"5700000","kana_pref":"ｵｵｻｶﾌ","kana_city":"ﾓﾘｸﾞﾁｼ","kana_address":"","pref":"大阪府","city":"守口市","address":""},
{"zip_code":"5700022","kana_pref":"ｵｵｻｶﾌ","kana_city":"ﾓﾘｸﾞﾁｼ","kana_address":"ｱｶﾂｷﾁｮｳ","pref":"大阪府","city":"守口市","address":"暁町"},
{"zip_code":"5700071","kana_pref":"ｵｵｻｶﾌ","kana_city":"ﾓﾘｸﾞﾁｼ","kana_address":"ｲﾜｲﾏﾁ","pref":"大阪府","city":"守口市","address":"祝町"},
{"zip_code":"5700066","kana_pref":"ｵｵｻｶﾌ","kana_city":"ﾓﾘｸﾞﾁｼ","kana_address":"ｳﾒｿﾞﾉﾁｮｳ","pref":"大阪府","city":"守口市","address":"梅園町"},
{"zip_code":"5700087","kana_pref":"ｵｵｻｶﾌ","kana_city":"ﾓﾘｸﾞﾁｼ","kana_address":"ｳﾒﾏﾁ","pref":"大阪府","city":"守口市","address":"梅町"},
{"zip_code":"5700036","kana_pref":"ｵｵｻｶﾌ","kana_city":"ﾓﾘｸﾞﾁｼ","kana_address":"ｵｵｴﾀﾞﾋｶﾞｼﾏﾁ","pref":"大阪府","city":"守口市","address":"大枝東町"},
{"zip_code":"5700054","kana_pref":"ｵｵｻｶﾌ","kana_city":"ﾓﾘｸﾞﾁｼ","kana_address":"ｵｵｴﾀﾞﾆｼﾏﾁ","pref":"大阪府","city":"守口市","address":"大枝西町"},
{"zip_code":"5700051","kana_pref":"ｵｵｻｶﾌ","kana_city":"ﾓﾘｸﾞﾁｼ","kana_address":"ｵｵｴﾀﾞﾐﾅﾐﾏﾁ","pref":"大阪府","city":"守口市","address":"大枝南町"},
{"zip_code":"5700037","kana_pref":"ｵｵｻｶﾌ","kana_city":"ﾓﾘｸﾞﾁｼ","kana_address":"ｵｵｴﾀﾞｷﾀﾏﾁ","pref":"大阪府","city":"守口市","address":"大枝北町"},
{"zip_code":"5700012","kana_pref":"ｵｵｻｶﾌ","kana_city":"ﾓﾘｸﾞﾁｼ","kana_address":"ｵｵｸﾎﾞﾁｮｳ","pref":"大阪府","city":"守口市","address":"大久保町"},
{"zip_code":"5700009","kana_pref":"ｵｵｻｶﾌ","kana_city":"ﾓﾘｸﾞﾁｼ","kana_address":"ｵｵﾊﾞﾁｮｳ","pref":"大阪府","city":"守口市","address":"大庭町"},
{"zip_code":"5700033","kana_pref":"ｵｵｻｶﾌ","kana_city":"ﾓﾘｸﾞﾁｼ","kana_address":"ｵｵﾐﾔﾄﾞｵﾘ","pref":"大阪府","city":"守口市","address":"大宮通"},
{"zip_code":"5700015","kana_pref":"ｵｵｻｶﾌ","kana_city":"ﾓﾘｸﾞﾁｼ","kana_address":"ｶｼﾞﾏﾁ","pref":"大阪府","city":"守口市","address":"梶町"},
{"zip_code":"5700055","kana_pref":"ｵｵｻｶﾌ","kana_city":"ﾓﾘｸﾞﾁｼ","kana_address":"ｶｽｶﾞﾁｮｳ","pref":"大阪府","city":"守口市","address":"春日町"},
{"zip_code":"5700079","kana_pref":"ｵｵｻｶﾌ","kana_city":"ﾓﾘｸﾞﾁｼ","kana_address":"ｶﾈｼﾀﾁｮｳ","pref":"大阪府","city":"守口市","address":"金下町"},
{"zip_code":"5700024","kana_pref":"ｵｵｻｶﾌ","kana_city":"ﾓﾘｸﾞﾁｼ","kana_address":"ｶﾐｷﾁｮｳ","pref":"大阪府","city":"守口市","address":"神木町"},
{"zip_code":"5700038","kana_pref":"ｵｵｻｶﾌ","kana_city":"ﾓﾘｸﾞﾁｼ","kana_address":"ｶﾜﾊﾗﾁｮｳ","pref":"大阪府","city":"守口市","address":"河原町"},
{"zip_code":"5700032","kana_pref":"ｵｵｻｶﾌ","kana_city":"ﾓﾘｸﾞﾁｼ","kana_address":"ｷｸｽｲﾄﾞｵﾘ","pref":"大阪府","city":"守口市","address":"菊水通"},
{"zip_code":"5700011","kana_pref":"ｵｵｻｶﾌ","kana_city":"ﾓﾘｸﾞﾁｼ","kana_address":"ｷﾝﾀﾞﾁｮｳ","pref":"大阪府","city":"守口市","address":"金田町"},
{"zip_code":"5700094","kana_pref":"ｵｵｻｶﾌ","kana_city":"ﾓﾘｸﾞﾁｼ","kana_address":"ｹｲﾊﾝｷﾀﾎﾝﾄﾞｵﾘ","pref":"大阪府","city":"守口市","address":"京阪北本通"},
{"zip_code":"5700083","kana_pref":"ｵｵｻｶﾌ","kana_city":"ﾓﾘｸﾞﾁｼ","kana_address":"ｹｲﾊﾝﾎﾝﾄﾞｵﾘ","pref":"大阪府","city":"守口市","address":"京阪本通"},
{"zip_code":"5700077","kana_pref":"ｵｵｻｶﾌ","kana_city":"ﾓﾘｸﾞﾁｼ","kana_address":"ｺﾄﾌﾞｷﾁｮｳ","pref":"大阪府","city":"守口市","address":"寿町"},
{"zip_code":"5700061","kana_pref":"ｵｵｻｶﾌ","kana_city":"ﾓﾘｸﾞﾁｼ","kana_address":"ｺﾊﾙﾁｮｳ","pref":"大阪府","city":"守口市","address":"小春町"},
{"zip_code":"5700034","kana_pref":"ｵｵｻｶﾌ","kana_city":"ﾓﾘｸﾞﾁｼ","kana_address":"ｻｲｺﾞｳﾄﾞｵﾘ","pref":"大阪府","city":"守口市","address":"西郷通"},
{"zip_code":"5700027","kana_pref":"ｵｵｻｶﾌ","kana_city":"ﾓﾘｸﾞﾁｼ","kana_address":"ｻｸﾗﾏﾁ","pref":"大阪府","city":"守口市","address":"桜町"},
{"zip_code":"5700002","kana_pref":"ｵｵｻｶﾌ","kana_city":"ﾓﾘｸﾞﾁｼ","kana_address":"ｻﾀﾅｶﾏﾁ","pref":"大阪府","city":"守口市","address":"佐太中町"},
{"zip_code":"5700017","kana_pref":"ｵｵｻｶﾌ","kana_city":"ﾓﾘｸﾞﾁｼ","kana_address":"ｻﾀﾋｶﾞｼﾏﾁ","pref":"大阪府","city":"守口市","address":"佐太東町"},
{"zip_code":"5700001","kana_pref":"ｵｵｻｶﾌ","kana_city":"ﾓﾘｸﾞﾁｼ","kana_address":"ｻﾀﾆｼﾏﾁ","pref":"大阪府","city":"守口市","address":"佐太西町"},
{"zip_code":"5700072","kana_pref":"ｵｵｻｶﾌ","kana_city":"ﾓﾘｸﾞﾁｼ","kana_address":"ｻﾅｴﾁｮｳ","pref":"大阪府","city":"守口市","address":"早苗町"},
{"zip_code":"5700056","kana_pref":"ｵｵｻｶﾌ","kana_city":"ﾓﾘｸﾞﾁｼ","kana_address":"ｼﾞﾅｲﾁｮｳ","pref":"大阪府","city":"守口市","address":"寺内町"},
{"zip_code":"5700007","kana_pref":"ｵｵｻｶﾌ","kana_city":"ﾓﾘｸﾞﾁｼ","kana_address":"ｼﾓｼﾞﾏﾁｮｳ","pref":"大阪府","city":"守口市","address":"下島町"},
{"zip_code":"5700026","kana_pref":"ｵｵｻｶﾌ","kana_city":"ﾓﾘｸﾞﾁｼ","kana_address":"ｼｮｳｹﾞﾂﾁｮｳ","pref":"大阪府","city":"守口市","address":"松月町"},
{"zip_code":"5700098","kana_pref":"ｵｵｻｶﾌ","kana_city":"ﾓﾘｸﾞﾁｼ","kana_address":"ｼﾝﾊｼﾃﾞﾗﾁｮｳ","pref":"大阪府","city":"守口市","address":"新橋寺町"},
{"zip_code":"5700096","kana_pref":"ｵｵｻｶﾌ","kana_city":"ﾓﾘｸﾞﾁｼ","kana_address":"ｿﾄｼﾞﾏﾁｮｳ","pref":"大阪府","city":"守口市","address":"外島町"},
{"zip_code":"5700003","kana_pref":"ｵｵｻｶﾌ","kana_city":"ﾓﾘｸﾞﾁｼ","kana_address":"ﾀﾞｲﾆﾁﾁｮｳ","pref":"大阪府","city":"守口市","address":"大日町"},
{"zip_code":"5700016","kana_pref":"ｵｵｻｶﾌ","kana_city":"ﾓﾘｸﾞﾁｼ","kana_address":"ﾀﾞｲﾆﾁﾋｶﾞｼﾏﾁ","pref":"大阪府","city":"守口市","address":"大日東町"},
{"zip_code":"5700063","kana_pref":"ｵｵｻｶﾌ","kana_city":"ﾓﾘｸﾞﾁｼ","kana_address":"ﾀﾞｲﾓﾝﾁｮｳ","pref":"大阪府","city":"守口市","address":"大門町"},
{"zip_code":"5700043","kana_pref":"ｵｵｻｶﾌ","kana_city":"ﾓﾘｸﾞﾁｼ","kana_address":"ﾀｶｾｷｭｳｵｵｴﾀﾞ","pref":"大阪府","city":"守口市","address":"高瀬旧大枝"},
{"zip_code":"5700043","kana_pref":"ｵｵｻｶﾌ","kana_city":"ﾓﾘｸﾞﾁｼ","kana_address":"ﾀｶｾｷｭｳｾｷﾞ","pref":"大阪府","city":"守口市","address":"高瀬旧世木"},
{"zip_code":"5700043","kana_pref":"ｵｵｻｶﾌ","kana_city":"ﾓﾘｸﾞﾁｼ","kana_address":"ﾀｶｾｷｭｳﾊﾞﾊﾞ","pref":"大阪府","city":"守口市","address":"高瀬旧馬場"},
{"zip_code":"5700053","kana_pref":"ｵｵｻｶﾌ","kana_city":"ﾓﾘｸﾞﾁｼ","kana_address":"ﾀｶｾﾁｮｳ","pref":"大阪府","city":"守口市","address":"高瀬町"},
{"zip_code":"5700076","kana_pref":"ｵｵｻｶﾌ","kana_city":"ﾓﾘｸﾞﾁｼ","kana_address":"ﾀｷｲﾆｼﾏﾁ","pref":"大阪府","city":"守口市","address":"滝井西町"},
{"zip_code":"5700065","kana_pref":"ｵｵｻｶﾌ","kana_city":"ﾓﾘｸﾞﾁｼ","kana_address":"ﾀｷｲﾓﾄﾏﾁ","pref":"大阪府","city":"守口市","address":"滝井元町"},
{"zip_code":"5700086","kana_pref":"ｵｵｻｶﾌ","kana_city":"ﾓﾘｸﾞﾁｼ","kana_address":"ﾀｹﾏﾁ","pref":"大阪府","city":"守口市","address":"竹町"},
{"zip_code":"5700025","kana_pref":"ｵｵｻｶﾌ","kana_city":"ﾓﾘｸﾞﾁｼ","kana_address":"ﾀﾂﾀﾄﾞｵﾘ","pref":"大阪府","city":"守口市","address":"竜田通"},
{"zip_code":"5700042","kana_pref":"ｵｵｻｶﾌ","kana_city":"ﾓﾘｸﾞﾁｼ","kana_address":"ﾃﾗｶﾀﾆｼｷﾄﾞｵﾘ","pref":"大阪府","city":"守口市","address":"寺方錦通"},
{"zip_code":"5700048","kana_pref":"ｵｵｻｶﾌ","kana_city":"ﾓﾘｸﾞﾁｼ","kana_address":"ﾃﾗｶﾀﾎﾝﾄﾞｵﾘ","pref":"大阪府","city":"守口市","address":"寺方本通"},
{"zip_code":"5700047","kana_pref":"ｵｵｻｶﾌ","kana_city":"ﾓﾘｸﾞﾁｼ","kana_address":"ﾃﾗｶﾀﾓﾄﾏﾁ","pref":"大阪府","city":"守口市","address":"寺方元町"},
{"zip_code":"5700073","kana_pref":"ｵｵｻｶﾌ","kana_city":"ﾓﾘｸﾞﾁｼ","kana_address":"ﾄﾞｲﾁｮｳ","pref":"大阪府","city":"守口市","address":"土居町"},
{"zip_code":"5700035","kana_pref":"ｵｵｻｶﾌ","kana_city":"ﾓﾘｸﾞﾁｼ","kana_address":"ﾄｳｺｳﾁｮｳ","pref":"大阪府","city":"守口市","address":"東光町"},
{"zip_code":"5700041","kana_pref":"ｵｵｻｶﾌ","kana_city":"ﾓﾘｸﾞﾁｼ","kana_address":"ﾄｳｺﾞｳﾄﾞｵﾘ","pref":"大阪府","city":"守口市","address":"東郷通"},
{"zip_code":"5700014","kana_pref":"ｵｵｻｶﾌ","kana_city":"ﾓﾘｸﾞﾁｼ","kana_address":"ﾄｳﾀﾞﾁｮｳ","pref":"大阪府","city":"守口市","address":"藤田町"},
{"zip_code":"5700082","kana_pref":"ｵｵｻｶﾌ","kana_city":"ﾓﾘｸﾞﾁｼ","kana_address":"ﾄﾖﾋﾃﾞﾁｮｳ","pref":"大阪府","city":"守口市","address":"豊秀町"},
{"zip_code":"5700064","kana_pref":"ｵｵｻｶﾌ","kana_city":"ﾓﾘｸﾞﾁｼ","kana_address":"ﾅｶﾞｲｹﾁｮｳ","pref":"大阪府","city":"守口市","address":"長池町"},
{"zip_code":"5700092","kana_pref":"ｵｵｻｶﾌ","kana_city":"ﾓﾘｸﾞﾁｼ","kana_address":"ﾆｯｺｳﾁｮｳ","pref":"大阪府","city":"守口市","address":"日光町"},
{"zip_code":"5700031","kana_pref":"ｵｵｻｶﾌ","kana_city":"ﾓﾘｸﾞﾁｼ","kana_address":"ﾊｼﾊﾞﾋｶﾞｼﾉﾁｮｳ","pref":"大阪府","city":"守口市","address":"橋波東之町"},
{"zip_code":"5700039","kana_pref":"ｵｵｻｶﾌ","kana_city":"ﾓﾘｸﾞﾁｼ","kana_address":"ﾊｼﾊﾞﾆｼﾉﾁｮｳ","pref":"大阪府","city":"守口市","address":"橋波西之町"},
{"zip_code":"5700093","kana_pref":"ｵｵｻｶﾌ","kana_city":"ﾓﾘｸﾞﾁｼ","kana_address":"ﾊﾏﾏﾁ","pref":"大阪府","city":"守口市","address":"浜町"},
{"zip_code":"5700062","kana_pref":"ｵｵｻｶﾌ","kana_city":"ﾓﾘｸﾞﾁｼ","kana_address":"ﾊﾞﾊﾞﾁｮｳ","pref":"大阪府","city":"守口市","address":"馬場町"},
{"zip_code":"5700013","kana_pref":"ｵｵｻｶﾌ","kana_city":"ﾓﾘｸﾞﾁｼ","kana_address":"ﾋｶﾞｼﾏﾁ","pref":"大阪府","city":"守口市","address":"東町"},
{"zip_code":"5700023","kana_pref":"ｵｵｻｶﾌ","kana_city":"ﾓﾘｸﾞﾁｼ","kana_address":"ﾋｭｳｶﾞﾁｮｳ","pref":"大阪府","city":"守口市","address":"日向町"},
{"zip_code":"5700081","kana_pref":"ｵｵｻｶﾌ","kana_city":"ﾓﾘｸﾞﾁｼ","kana_address":"ﾋﾖｼﾁｮｳ","pref":"大阪府","city":"守口市","address":"日吉町"},
{"zip_code":"5700078","kana_pref":"ｵｵｻｶﾌ","kana_city":"ﾓﾘｸﾞﾁｼ","kana_address":"ﾋﾗﾀﾞｲﾁｮｳ","pref":"大阪府","city":"守口市","address":"平代町"},
{"zip_code":"5700074","kana_pref":"ｵｵｻｶﾌ","kana_city":"ﾓﾘｸﾞﾁｼ","kana_address":"ﾌﾐｿﾞﾉﾁｮｳ","pref":"大阪府","city":"守口市","address":"文園町"},
{"zip_code":"5700075","kana_pref":"ｵｵｻｶﾌ","kana_city":"ﾓﾘｸﾞﾁｼ","kana_address":"ﾍﾞﾆﾔﾁｮｳ","pref":"大阪府","city":"守口市","address":"紅屋町"},
{"zip_code":"5700091","kana_pref":"ｵｵｻｶﾌ","kana_city":"ﾓﾘｸﾞﾁｼ","kana_address":"ﾎｸﾄﾁｮｳ","pref":"大阪府","city":"守口市","address":"北斗町"},
{"zip_code":"5700028","kana_pref":"ｵｵｻｶﾌ","kana_city":"ﾓﾘｸﾞﾁｼ","kana_address":"ﾎﾝﾏﾁ","pref":"大阪府","city":"守口市","address":"本町"},
{"zip_code":"5700052","kana_pref":"ｵｵｻｶﾌ","kana_city":"ﾓﾘｸﾞﾁｼ","kana_address":"ﾏﾂｼﾀﾁｮｳ","pref":"大阪府","city":"守口市","address":"松下町"},
{"zip_code":"5700085","kana_pref":"ｵｵｻｶﾌ","kana_city":"ﾓﾘｸﾞﾁｼ","kana_address":"ﾏﾂﾏﾁ","pref":"大阪府","city":"守口市","address":"松町"},
{"zip_code":"5700084","kana_pref":"ｵｵｻｶﾌ","kana_city":"ﾓﾘｸﾞﾁｼ","kana_address":"ﾐﾄﾞﾘﾏﾁ","pref":"大阪府","city":"守口市","address":"緑町"},
{"zip_code":"5700045","kana_pref":"ｵｵｻｶﾌ","kana_city":"ﾓﾘｸﾞﾁｼ","kana_address":"ﾐﾅﾐﾃﾗｶﾀﾅｶﾄﾞｵﾘ","pref":"大阪府","city":"守口市","address":"南寺方中通"},
{"zip_code":"5700043","kana_pref":"ｵｵｻｶﾌ","kana_city":"ﾓﾘｸﾞﾁｼ","kana_address":"ﾐﾅﾐﾃﾗｶﾀﾋｶﾞｼﾄﾞｵﾘ","pref":"大阪府","city":"守口市","address":"南寺方東通"},
{"zip_code":"5700044","kana_pref":"ｵｵｻｶﾌ","kana_city":"ﾓﾘｸﾞﾁｼ","kana_address":"ﾐﾅﾐﾃﾗｶﾀﾐﾅﾐﾄﾞｵﾘ","pref":"大阪府","city":"守口市","address":"南寺方南通"},
{"zip_code":"5700046","kana_pref":"ｵｵｻｶﾌ","kana_city":"ﾓﾘｸﾞﾁｼ","kana_address":"ﾐﾅﾐﾃﾗｶﾀｷﾀﾄﾞｵﾘ","pref":"大阪府","city":"守口市","address":"南寺方北通"},
{"zip_code":"5700097","kana_pref":"ｵｵｻｶﾌ","kana_city":"ﾓﾘｸﾞﾁｼ","kana_address":"ﾓﾓﾏﾁ","pref":"大阪府","city":"守口市","address":"桃町"},
{"zip_code":"5700005","kana_pref":"ｵｵｻｶﾌ","kana_city":"ﾓﾘｸﾞﾁｼ","kana_address":"ﾔｸﾞﾓﾅｶﾏﾁ","pref":"大阪府","city":"守口市","address":"八雲中町"},
{"zip_code":"5700021","kana_pref":"ｵｵｻｶﾌ","kana_city":"ﾓﾘｸﾞﾁｼ","kana_address":"ﾔｸﾞﾓﾋｶﾞｼﾏﾁ","pref":"大阪府","city":"守口市","address":"八雲東町"},
{"zip_code":"5700006","kana_pref":"ｵｵｻｶﾌ","kana_city":"ﾓﾘｸﾞﾁｼ","kana_address":"ﾔｸﾞﾓﾆｼﾏﾁ","pref":"大阪府","city":"守口市","address":"八雲西町"},
{"zip_code":"5700008","kana_pref":"ｵｵｻｶﾌ","kana_city":"ﾓﾘｸﾞﾁｼ","kana_address":"ﾔｸﾞﾓｷﾀﾏﾁ","pref":"大阪府","city":"守口市","address":"八雲北町"},
{"zip_code":"5700095","kana_pref":"ｵｵｻｶﾌ","kana_city":"ﾓﾘｸﾞﾁｼ","kana_address":"ﾔｼﾏﾁｮｳ","pref":"大阪府","city":"守口市","address":"八島町"},
{"zip_code":"5700004","kana_pref":"ｵｵｻｶﾌ","kana_city":"ﾓﾘｸﾞﾁｼ","kana_address":"ﾖﾄﾞｴﾁｮｳ","pref":"大阪府","city":"守口市","address":"淀江町"},
{"zip_code":"5700029","kana_pref":"ｵｵｻｶﾌ","kana_city":"ﾓﾘｸﾞﾁｼ","kana_address":"ﾗｲｺｳﾁｮｳ","pref":"大阪府","city":"守口市","address":"来迎町"}]}