{"zip_code":[
{"zip_code":"5710000","kana_pref":"ｵｵｻｶﾌ","kana_city":"ｶﾄﾞﾏｼ","kana_address":"","pref":"大阪府","city":"門真市","address":""},
{"zip_code":"5710061","kana_pref":"ｵｵｻｶﾌ","kana_city":"ｶﾄﾞﾏｼ","kana_address":"ｱｻﾋﾁｮｳ","pref":"大阪府","city":"門真市","address":"朝日町"},
{"zip_code":"5710067","kana_pref":"ｵｵｻｶﾌ","kana_city":"ｶﾄﾞﾏｼ","kana_address":"ｲｼﾊﾗﾁｮｳ","pref":"大阪府","city":"門真市","address":"石原町"},
{"zip_code":"5710053","kana_pref":"ｵｵｻｶﾌ","kana_city":"ｶﾄﾞﾏｼ","kana_address":"ｲｽﾞﾐﾏﾁ","pref":"大阪府","city":"門真市","address":"泉町"},
{"zip_code":"5710033","kana_pref":"ｵｵｻｶﾌ","kana_city":"ｶﾄﾞﾏｼ","kana_address":"ｲﾁﾊﾞﾝﾁｮｳ","pref":"大阪府","city":"門真市","address":"一番町"},
{"zip_code":"5710028","kana_pref":"ｵｵｻｶﾌ","kana_city":"ｶﾄﾞﾏｼ","kana_address":"ｳﾁｺｼ","pref":"大阪府","city":"門真市","address":"打越"},
{"zip_code":"5710029","kana_pref":"ｵｵｻｶﾌ","kana_city":"ｶﾄﾞﾏｼ","kana_address":"ｳﾁｺｼﾁｮｳ","pref":"大阪府","city":"門真市","address":"打越町"},
{"zip_code":"5710012","kana_pref":"ｵｵｻｶﾌ","kana_city":"ｶﾄﾞﾏｼ","kana_address":"ｴﾊﾞﾀﾁｮｳ","pref":"大阪府","city":"門真市","address":"江端町"},
{"zip_code":"5710076","kana_pref":"ｵｵｻｶﾌ","kana_city":"ｶﾄﾞﾏｼ","kana_address":"ｵｵｲｹﾁｮｳ","pref":"大阪府","city":"門真市","address":"大池町"},
{"zip_code":"5710068","kana_pref":"ｵｵｻｶﾌ","kana_city":"ｶﾄﾞﾏｼ","kana_address":"ｵｵｸﾗﾁｮｳ","pref":"大阪府","city":"門真市","address":"大倉町"},
{"zip_code":"5710077","kana_pref":"ｵｵｻｶﾌ","kana_city":"ｶﾄﾞﾏｼ","kana_address":"ｵｵﾊｼﾁｮｳ","pref":"大阪府","city":"門真市","address":"大橋町"},
{"zip_code":"5710022","kana_pref":"ｵｵｻｶﾌ","kana_city":"ｶﾄﾞﾏｼ","kana_address":"ｵｷﾏﾁ","pref":"大阪府","city":"門真市","address":"沖町"},
{"zip_code":"5710065","kana_pref":"ｵｵｻｶﾌ","kana_city":"ｶﾄﾞﾏｼ","kana_address":"ｶｷｳﾁﾁｮｳ","pref":"大阪府","city":"門真市","address":"垣内町"},
{"zip_code":"5710050","kana_pref":"ｵｵｻｶﾌ","kana_city":"ｶﾄﾞﾏｼ","kana_address":"ｶﾄﾞﾏ","pref":"大阪府","city":"門真市","address":"門真"},
{"zip_code":"5710071","kana_pref":"ｵｵｻｶﾌ","kana_city":"ｶﾄﾞﾏｼ","kana_address":"ｶﾐｼﾏﾁｮｳ","pref":"大阪府","city":"門真市","address":"上島町"},
{"zip_code":"5710070","kana_pref":"ｵｵｻｶﾌ","kana_city":"ｶﾄﾞﾏｼ","kana_address":"ｶﾐﾉｸﾞﾁﾁｮｳ","pref":"大阪府","city":"門真市","address":"上野口町"},
{"zip_code":"5710002","kana_pref":"ｵｵｻｶﾌ","kana_city":"ｶﾄﾞﾏｼ","kana_address":"ｷｼﾜﾀﾞ","pref":"大阪府","city":"門真市","address":"岸和田"},
{"zip_code":"5710007","kana_pref":"ｵｵｻｶﾌ","kana_city":"ｶﾄﾞﾏｼ","kana_address":"ｷﾀｷｼﾜﾀﾞ","pref":"大阪府","city":"門真市","address":"北岸和田"},
{"zip_code":"5710025","kana_pref":"ｵｵｻｶﾌ","kana_city":"ｶﾄﾞﾏｼ","kana_address":"ｷﾀｼﾞﾏ","pref":"大阪府","city":"門真市","address":"北島"},
{"zip_code":"5710026","kana_pref":"ｵｵｻｶﾌ","kana_city":"ｶﾄﾞﾏｼ","kana_address":"ｷﾀｼﾞﾏﾁｮｳ","pref":"大阪府","city":"門真市","address":"北島町"},
{"zip_code":"5710073","kana_pref":"ｵｵｻｶﾌ","kana_city":"ｶﾄﾞﾏｼ","kana_address":"ｷﾀｽﾓﾄﾁｮｳ","pref":"大阪府","city":"門真市","address":"北巣本町"},
{"zip_code":"5710035","kana_pref":"ｵｵｻｶﾌ","kana_city":"ｶﾄﾞﾏｼ","kana_address":"ｸﾜｻﾞｲ","pref":"大阪府","city":"門真市","address":"桑才"},
{"zip_code":"5710043","kana_pref":"ｵｵｻｶﾌ","kana_city":"ｶﾄﾞﾏｼ","kana_address":"ｸﾜｻﾞｲｼﾝﾏﾁ","pref":"大阪府","city":"門真市","address":"桑才新町"},
{"zip_code":"5710066","kana_pref":"ｵｵｻｶﾌ","kana_city":"ｶﾄﾞﾏｼ","kana_address":"ｺｳﾌｸﾁｮｳ","pref":"大阪府","city":"門真市","address":"幸福町"},
{"zip_code":"5710032","kana_pref":"ｵｵｻｶﾌ","kana_city":"ｶﾄﾞﾏｼ","kana_address":"ｺﾄﾌﾞｷﾁｮｳ","pref":"大阪府","city":"門真市","address":"寿町"},
{"zip_code":"5710047","kana_pref":"ｵｵｻｶﾌ","kana_city":"ｶﾄﾞﾏｼ","kana_address":"ｻｶｴﾏﾁ","pref":"大阪府","city":"門真市","address":"栄町"},
{"zip_code":"5710027","kana_pref":"ｵｵｻｶﾌ","kana_city":"ｶﾄﾞﾏｼ","kana_address":"ｻﾂｷﾀﾞﾁｮｳ","pref":"大阪府","city":"門真市","address":"五月田町"},
{"zip_code":"5710036","kana_pref":"ｵｵｻｶﾌ","kana_city":"ｶﾄﾞﾏｼ","kana_address":"ｻﾝﾊﾞﾝ","pref":"大阪府","city":"門真市","address":"三番"},
{"zip_code":"5710017","kana_pref":"ｵｵｻｶﾌ","kana_city":"ｶﾄﾞﾏｼ","kana_address":"ｼﾉﾐﾔ","pref":"大阪府","city":"門真市","address":"四宮"},
{"zip_code":"5710016","kana_pref":"ｵｵｻｶﾌ","kana_city":"ｶﾄﾞﾏｼ","kana_address":"ｼﾏｶﾞｼﾗ","pref":"大阪府","city":"門真市","address":"島頭"},
{"zip_code":"5710004","kana_pref":"ｵｵｻｶﾌ","kana_city":"ｶﾄﾞﾏｼ","kana_address":"ｼﾓｼﾏｶﾞｼﾗ","pref":"大阪府","city":"門真市","address":"下島頭"},
{"zip_code":"5710075","kana_pref":"ｵｵｻｶﾌ","kana_city":"ｶﾄﾞﾏｼ","kana_address":"ｼﾓｼﾏﾁｮｳ","pref":"大阪府","city":"門真市","address":"下島町"},
{"zip_code":"5710009","kana_pref":"ｵｵｻｶﾌ","kana_city":"ｶﾄﾞﾏｼ","kana_address":"ｼﾓﾏﾌﾞｼﾁｮｳ","pref":"大阪府","city":"門真市","address":"下馬伏町"},
{"zip_code":"5710058","kana_pref":"ｵｵｻｶﾌ","kana_city":"ｶﾄﾞﾏｼ","kana_address":"ｼｮｳｼﾞﾁｮｳ","pref":"大阪府","city":"門真市","address":"小路町"},
{"zip_code":"5710063","kana_pref":"ｵｵｻｶﾌ","kana_city":"ｶﾄﾞﾏｼ","kana_address":"ｼﾞｮｳｼｮｳｼﾞﾁｮｳ","pref":"大阪府","city":"門真市","address":"常称寺町"},
{"zip_code":"5710072","kana_pref":"ｵｵｻｶﾌ","kana_city":"ｶﾄﾞﾏｼ","kana_address":"ｼﾛｶﾞｷﾁｮｳ","pref":"大阪府","city":"門真市","address":"城垣町"},
{"zip_code":"5710048","kana_pref":"ｵｵｻｶﾌ","kana_city":"ｶﾄﾞﾏｼ","kana_address":"ｼﾝﾊﾞｼﾁｮｳ","pref":"大阪府","city":"門真市","address":"新橋町"},
{"zip_code":"5710030","kana_pref":"ｵｵｻｶﾌ","kana_city":"ｶﾄﾞﾏｼ","kana_address":"ｽｴﾋﾛﾁｮｳ","pref":"大阪府","city":"門真市","address":"末広町"},
{"zip_code":"5710001","kana_pref":"ｵｵｻｶﾌ","kana_city":"ｶﾄﾞﾏｼ","kana_address":"ｽﾓﾄﾁｮｳ","pref":"大阪府","city":"門真市","address":"巣本町"},
{"zip_code":"5710013","kana_pref":"ｵｵｻｶﾌ","kana_city":"ｶﾄﾞﾏｼ","kana_address":"ｾﾝｺﾞｸﾋｶﾞｼﾏﾁ","pref":"大阪府","city":"門真市","address":"千石東町"},
{"zip_code":"5710014","kana_pref":"ｵｵｻｶﾌ","kana_city":"ｶﾄﾞﾏｼ","kana_address":"ｾﾝｺﾞｸﾆｼﾏﾁ","pref":"大阪府","city":"門真市","address":"千石西町"},
{"zip_code":"5710052","kana_pref":"ｵｵｻｶﾌ","kana_city":"ｶﾄﾞﾏｼ","kana_address":"ﾂｷﾃﾞﾁｮｳ","pref":"大阪府","city":"門真市","address":"月出町"},
{"zip_code":"5710059","kana_pref":"ｵｵｻｶﾌ","kana_city":"ｶﾄﾞﾏｼ","kana_address":"ﾄﾞｳﾔﾏﾁｮｳ","pref":"大阪府","city":"門真市","address":"堂山町"},
{"zip_code":"5710078","kana_pref":"ｵｵｻｶﾌ","kana_city":"ｶﾄﾞﾏｼ","kana_address":"ﾄｷﾜﾁｮｳ","pref":"大阪府","city":"門真市","address":"常盤町"},
{"zip_code":"5710045","kana_pref":"ｵｵｻｶﾌ","kana_city":"ｶﾄﾞﾏｼ","kana_address":"ﾄﾉｼﾏﾁｮｳ","pref":"大阪府","city":"門真市","address":"殿島町"},
{"zip_code":"5710055","kana_pref":"ｵｵｻｶﾌ","kana_city":"ｶﾄﾞﾏｼ","kana_address":"ﾅｶﾏﾁ","pref":"大阪府","city":"門真市","address":"中町"},
{"zip_code":"5710024","kana_pref":"ｵｵｻｶﾌ","kana_city":"ｶﾄﾞﾏｼ","kana_address":"ﾉｸﾞﾁ","pref":"大阪府","city":"門真市","address":"野口"},
{"zip_code":"5710079","kana_pref":"ｵｵｻｶﾌ","kana_city":"ｶﾄﾞﾏｼ","kana_address":"ﾉｻﾞﾄﾁｮｳ","pref":"大阪府","city":"門真市","address":"野里町"},
{"zip_code":"5710054","kana_pref":"ｵｵｻｶﾌ","kana_city":"ｶﾄﾞﾏｼ","kana_address":"ﾊﾏﾏﾁ","pref":"大阪府","city":"門真市","address":"浜町"},
{"zip_code":"5710039","kana_pref":"ｵｵｻｶﾌ","kana_city":"ｶﾄﾞﾏｼ","kana_address":"ﾊﾔﾐﾁｮｳ","pref":"大阪府","city":"門真市","address":"速見町"},
{"zip_code":"5710037","kana_pref":"ｵｵｻｶﾌ","kana_city":"ｶﾄﾞﾏｼ","kana_address":"ﾋｴｼﾞﾏ","pref":"大阪府","city":"門真市","address":"ひえ島"},
{"zip_code":"5710008","kana_pref":"ｵｵｻｶﾌ","kana_city":"ｶﾄﾞﾏｼ","kana_address":"ﾋｶﾞｼｴﾊﾞﾀﾁｮｳ","pref":"大阪府","city":"門真市","address":"東江端町"},
{"zip_code":"5710034","kana_pref":"ｵｵｻｶﾌ","kana_city":"ｶﾄﾞﾏｼ","kana_address":"ﾋｶﾞｼﾀﾞﾁｮｳ","pref":"大阪府","city":"門真市","address":"東田町"},
{"zip_code":"5710042","kana_pref":"ｵｵｻｶﾌ","kana_city":"ｶﾄﾞﾏｼ","kana_address":"ﾌｶﾀﾞﾁｮｳ","pref":"大阪府","city":"門真市","address":"深田町"},
{"zip_code":"5710021","kana_pref":"ｵｵｻｶﾌ","kana_city":"ｶﾄﾞﾏｼ","kana_address":"ﾌﾅﾀﾞﾁｮｳ","pref":"大阪府","city":"門真市","address":"舟田町"},
{"zip_code":"5710031","kana_pref":"ｵｵｻｶﾌ","kana_city":"ｶﾄﾞﾏｼ","kana_address":"ﾌﾙｶﾜﾁｮｳ","pref":"大阪府","city":"門真市","address":"古川町"},
{"zip_code":"5710046","kana_pref":"ｵｵｻｶﾌ","kana_city":"ｶﾄﾞﾏｼ","kana_address":"ﾎﾝﾏﾁ","pref":"大阪府","city":"門真市","address":"本町"},
{"zip_code":"5710044","kana_pref":"ｵｵｻｶﾌ","kana_city":"ｶﾄﾞﾏｼ","kana_address":"ﾏﾂｵﾁｮｳ","pref":"大阪府","city":"門真市","address":"松生町"},
{"zip_code":"5710056","kana_pref":"ｵｵｻｶﾌ","kana_city":"ｶﾄﾞﾏｼ","kana_address":"ﾏﾂﾊﾞﾁｮｳ","pref":"大阪府","city":"門真市","address":"松葉町"},
{"zip_code":"5710015","kana_pref":"ｵｵｻｶﾌ","kana_city":"ｶﾄﾞﾏｼ","kana_address":"ﾐﾂｼﾞﾏ","pref":"大阪府","city":"門真市","address":"三ツ島"},
{"zip_code":"5710064","kana_pref":"ｵｵｻｶﾌ","kana_city":"ｶﾄﾞﾏｼ","kana_address":"ﾐﾄﾞｳﾁｮｳ","pref":"大阪府","city":"門真市","address":"御堂町"},
{"zip_code":"5710005","kana_pref":"ｵｵｻｶﾌ","kana_city":"ｶﾄﾞﾏｼ","kana_address":"ﾐﾅﾐﾉｸﾞﾁﾁｮｳ","pref":"大阪府","city":"門真市","address":"南野口町"},
{"zip_code":"5710062","kana_pref":"ｵｵｻｶﾌ","kana_city":"ｶﾄﾞﾏｼ","kana_address":"ﾐﾔﾉﾁｮｳ","pref":"大阪府","city":"門真市","address":"宮野町"},
{"zip_code":"5710074","kana_pref":"ｵｵｻｶﾌ","kana_city":"ｶﾄﾞﾏｼ","kana_address":"ﾐﾔﾏｴﾁｮｳ","pref":"大阪府","city":"門真市","address":"宮前町"},
{"zip_code":"5710051","kana_pref":"ｵｵｻｶﾌ","kana_city":"ｶﾄﾞﾏｼ","kana_address":"ﾑｺｳｼﾞﾏﾁｮｳ","pref":"大阪府","city":"門真市","address":"向島町"},
{"zip_code":"5710057","kana_pref":"ｵｵｻｶﾌ","kana_city":"ｶﾄﾞﾏｼ","kana_address":"ﾓﾄﾏﾁ","pref":"大阪府","city":"門真市","address":"元町"},
{"zip_code":"5710038","kana_pref":"ｵｵｻｶﾌ","kana_city":"ｶﾄﾞﾏｼ","kana_address":"ﾔﾅｷﾞﾀﾞﾁｮｳ","pref":"大阪府","city":"門真市","address":"柳田町"},
{"zip_code":"5710041","kana_pref":"ｵｵｻｶﾌ","kana_city":"ｶﾄﾞﾏｼ","kana_address":"ﾔﾅｷﾞﾏﾁ","pref":"大阪府","city":"門真市","address":"柳町"},
{"zip_code":"5710023","kana_pref":"ｵｵｻｶﾌ","kana_city":"ｶﾄﾞﾏｼ","kana_address":"ﾖｺﾁ","pref":"大阪府","city":"門真市","address":"横地"},
{"zip_code":"5710011","kana_pref":"ｵｵｻｶﾌ","kana_city":"ｶﾄﾞﾏｼ","kana_address":"ﾜｷﾀﾁｮｳ","pref":"大阪府","city":"門真市","address":"脇田町"}]}