{"zip_code":[
{"zip_code":"5720000","kana_pref":"ｵｵｻｶﾌ","kana_city":"ﾈﾔｶﾞﾜｼ","kana_address":"","pref":"大阪府","city":"寝屋川市","address":""},
{"zip_code":"5720039","kana_pref":"ｵｵｻｶﾌ","kana_city":"ﾈﾔｶﾞﾜｼ","kana_address":"ｲｹﾀﾞ","pref":"大阪府","city":"寝屋川市","address":"池田"},
{"zip_code":"5720035","kana_pref":"ｵｵｻｶﾌ","kana_city":"ﾈﾔｶﾞﾜｼ","kana_address":"ｲｹﾀﾞｱｻﾋﾏﾁ","pref":"大阪府","city":"寝屋川市","address":"池田旭町"},
{"zip_code":"5720033","kana_pref":"ｵｵｻｶﾌ","kana_city":"ﾈﾔｶﾞﾜｼ","kana_address":"ｲｹﾀﾞﾋｶﾞｼﾏﾁ","pref":"大阪府","city":"寝屋川市","address":"池田東町"},
{"zip_code":"5720036","kana_pref":"ｵｵｻｶﾌ","kana_city":"ﾈﾔｶﾞﾜｼ","kana_address":"ｲｹﾀﾞﾆｼﾏﾁ","pref":"大阪府","city":"寝屋川市","address":"池田西町"},
{"zip_code":"5720034","kana_pref":"ｵｵｻｶﾌ","kana_city":"ﾈﾔｶﾞﾜｼ","kana_address":"ｲｹﾀﾞﾐﾅﾐﾏﾁ","pref":"大阪府","city":"寝屋川市","address":"池田南町"},
{"zip_code":"5720073","kana_pref":"ｵｵｻｶﾌ","kana_city":"ﾈﾔｶﾞﾜｼ","kana_address":"ｲｹﾀﾞｷﾀﾏﾁ","pref":"大阪府","city":"寝屋川市","address":"池田北町"},
{"zip_code":"5720038","kana_pref":"ｵｵｻｶﾌ","kana_city":"ﾈﾔｶﾞﾜｼ","kana_address":"ｲｹﾀﾞｼﾝﾏﾁ","pref":"大阪府","city":"寝屋川市","address":"池田新町"},
{"zip_code":"5720074","kana_pref":"ｵｵｻｶﾌ","kana_city":"ﾈﾔｶﾞﾜｼ","kana_address":"ｲｹﾀﾞﾅｶﾏﾁ","pref":"大阪府","city":"寝屋川市","address":"池田中町"},
{"zip_code":"5720030","kana_pref":"ｵｵｻｶﾌ","kana_city":"ﾈﾔｶﾞﾜｼ","kana_address":"ｲｹﾀﾞﾎﾝﾏﾁ","pref":"大阪府","city":"寝屋川市","address":"池田本町"},
{"zip_code":"5720012","kana_pref":"ｵｵｻｶﾌ","kana_city":"ﾈﾔｶﾞﾜｼ","kana_address":"ｲｹﾉｾﾁｮｳ","pref":"大阪府","city":"寝屋川市","address":"池の瀬町"},
{"zip_code":"5720026","kana_pref":"ｵｵｻｶﾌ","kana_city":"ﾈﾔｶﾞﾜｼ","kana_address":"ｲｼﾂﾞﾅｶﾏﾁ","pref":"大阪府","city":"寝屋川市","address":"石津中町"},
{"zip_code":"5720027","kana_pref":"ｵｵｻｶﾌ","kana_city":"ﾈﾔｶﾞﾜｼ","kana_address":"ｲｼﾂﾞﾋｶﾞｼﾏﾁ","pref":"大阪府","city":"寝屋川市","address":"石津東町"},
{"zip_code":"5720024","kana_pref":"ｵｵｻｶﾌ","kana_city":"ﾈﾔｶﾞﾜｼ","kana_address":"ｲｼﾂﾞﾐﾅﾐﾏﾁ","pref":"大阪府","city":"寝屋川市","address":"石津南町"},
{"zip_code":"5720025","kana_pref":"ｵｵｻｶﾌ","kana_city":"ﾈﾔｶﾞﾜｼ","kana_address":"ｲｼﾂﾞﾓﾄﾏﾁ","pref":"大阪府","city":"寝屋川市","address":"石津元町"},
{"zip_code":"5720821","kana_pref":"ｵｵｻｶﾌ","kana_city":"ﾈﾔｶﾞﾜｼ","kana_address":"ｲｽﾞﾓﾁｮｳ","pref":"大阪府","city":"寝屋川市","address":"出雲町"},
{"zip_code":"5720840","kana_pref":"ｵｵｻｶﾌ","kana_city":"ﾈﾔｶﾞﾜｼ","kana_address":"ｳｽﾞﾏｻｻｸﾗｶﾞｵｶ","pref":"大阪府","city":"寝屋川市","address":"太秦桜が丘"},
{"zip_code":"5720842","kana_pref":"ｵｵｻｶﾌ","kana_city":"ﾈﾔｶﾞﾜｼ","kana_address":"ｳｽﾞﾏｻﾀｶﾂｶﾁｮｳ","pref":"大阪府","city":"寝屋川市","address":"太秦高塚町"},
{"zip_code":"5720843","kana_pref":"ｵｵｻｶﾌ","kana_city":"ﾈﾔｶﾞﾜｼ","kana_address":"ｳｽﾞﾏｻﾅｶﾏﾁ","pref":"大阪府","city":"寝屋川市","address":"太秦中町"},
{"zip_code":"5720841","kana_pref":"ｵｵｻｶﾌ","kana_city":"ﾈﾔｶﾞﾜｼ","kana_address":"ｳｽﾞﾏｻﾋｶﾞｼｶﾞｵｶ","pref":"大阪府","city":"寝屋川市","address":"太秦東が丘"},
{"zip_code":"5720844","kana_pref":"ｵｵｻｶﾌ","kana_city":"ﾈﾔｶﾞﾜｼ","kana_address":"ｳｽﾞﾏｻﾐﾄﾞﾘｶﾞｵｶ","pref":"大阪府","city":"寝屋川市","address":"太秦緑が丘"},
{"zip_code":"5720849","kana_pref":"ｵｵｻｶﾌ","kana_city":"ﾈﾔｶﾞﾜｼ","kana_address":"ｳｽﾞﾏｻﾓﾄﾏﾁ","pref":"大阪府","city":"寝屋川市","address":"太秦元町"},
{"zip_code":"5720856","kana_pref":"ｵｵｻｶﾌ","kana_city":"ﾈﾔｶﾞﾜｼ","kana_address":"ｳﾀﾆﾁｮｳ","pref":"大阪府","city":"寝屋川市","address":"宇谷町"},
{"zip_code":"5720859","kana_pref":"ｵｵｻｶﾌ","kana_city":"ﾈﾔｶﾞﾜｼ","kana_address":"ｳﾁｱｹﾞｼﾝﾏﾁ","pref":"大阪府","city":"寝屋川市","address":"打上新町"},
{"zip_code":"5720850","kana_pref":"ｵｵｻｶﾌ","kana_city":"ﾈﾔｶﾞﾜｼ","kana_address":"ｳﾁｱｹﾞﾀｶﾂｶﾁｮｳ","pref":"大阪府","city":"寝屋川市","address":"打上高塚町"},
{"zip_code":"5720857","kana_pref":"ｵｵｻｶﾌ","kana_city":"ﾈﾔｶﾞﾜｼ","kana_address":"ｳﾁｱｹﾞﾅｶﾏﾁ","pref":"大阪府","city":"寝屋川市","address":"打上中町"},
{"zip_code":"5720861","kana_pref":"ｵｵｻｶﾌ","kana_city":"ﾈﾔｶﾞﾜｼ","kana_address":"ｳﾁｱｹﾞﾐﾅﾐﾏﾁ","pref":"大阪府","city":"寝屋川市","address":"打上南町"},
{"zip_code":"5720862","kana_pref":"ｵｵｻｶﾌ","kana_city":"ﾈﾔｶﾞﾜｼ","kana_address":"ｳﾁｱｹﾞﾐﾔﾏｴﾁｮｳ","pref":"大阪府","city":"寝屋川市","address":"打上宮前町"},
{"zip_code":"5720858","kana_pref":"ｵｵｻｶﾌ","kana_city":"ﾈﾔｶﾞﾜｼ","kana_address":"ｳﾁｱｹﾞﾓﾄﾏﾁ","pref":"大阪府","city":"寝屋川市","address":"打上元町"},
{"zip_code":"5720803","kana_pref":"ｵｵｻｶﾌ","kana_city":"ﾈﾔｶﾞﾜｼ","kana_address":"ｳﾒｶﾞｵｶ","pref":"大阪府","city":"寝屋川市","address":"梅が丘"},
{"zip_code":"5720853","kana_pref":"ｵｵｻｶﾌ","kana_city":"ﾈﾔｶﾞﾜｼ","kana_address":"ｵｵﾀﾆﾁｮｳ","pref":"大阪府","city":"寝屋川市","address":"大谷町"},
{"zip_code":"5720048","kana_pref":"ｵｵｻｶﾌ","kana_city":"ﾈﾔｶﾞﾜｼ","kana_address":"ｵｵﾄｼﾁｮｳ","pref":"大阪府","city":"寝屋川市","address":"大利町"},
{"zip_code":"5720047","kana_pref":"ｵｵｻｶﾌ","kana_city":"ﾈﾔｶﾞﾜｼ","kana_address":"ｵｵﾄｼﾓﾄﾏﾁ","pref":"大阪府","city":"寝屋川市","address":"大利元町"},
{"zip_code":"5720023","kana_pref":"ｵｵｻｶﾌ","kana_city":"ﾈﾔｶﾞﾜｼ","kana_address":"ｵﾄﾜﾁｮｳ","pref":"大阪府","city":"寝屋川市","address":"音羽町"},
{"zip_code":"5720063","kana_pref":"ｵｵｻｶﾌ","kana_city":"ﾈﾔｶﾞﾜｼ","kana_address":"ｶｽｶﾞﾁｮｳ","pref":"大阪府","city":"寝屋川市","address":"春日町"},
{"zip_code":"5720052","kana_pref":"ｵｵｻｶﾌ","kana_city":"ﾈﾔｶﾞﾜｼ","kana_address":"ｶﾐｶﾐﾀﾞ","pref":"大阪府","city":"寝屋川市","address":"上神田"},
{"zip_code":"5720828","kana_pref":"ｵｵｻｶﾌ","kana_city":"ﾈﾔｶﾞﾜｼ","kana_address":"ｶﾔｼﾏｻｸﾗｴﾝﾁｮｳ","pref":"大阪府","city":"寝屋川市","address":"萱島桜園町"},
{"zip_code":"5720829","kana_pref":"ｵｵｻｶﾌ","kana_city":"ﾈﾔｶﾞﾜｼ","kana_address":"ｶﾔｼﾏｼﾝﾜﾁｮｳ","pref":"大阪府","city":"寝屋川市","address":"萱島信和町"},
{"zip_code":"5720827","kana_pref":"ｵｵｻｶﾌ","kana_city":"ﾈﾔｶﾞﾜｼ","kana_address":"ｶﾔｼﾏﾎﾝﾏﾁ","pref":"大阪府","city":"寝屋川市","address":"萱島本町"},
{"zip_code":"5720825","kana_pref":"ｵｵｻｶﾌ","kana_city":"ﾈﾔｶﾞﾜｼ","kana_address":"ｶﾔｼﾏﾐﾅﾐﾏﾁ","pref":"大阪府","city":"寝屋川市","address":"萱島南町"},
{"zip_code":"5720824","kana_pref":"ｵｵｻｶﾌ","kana_city":"ﾈﾔｶﾞﾜｼ","kana_address":"ｶﾔｼﾏﾋｶﾞｼ","pref":"大阪府","city":"寝屋川市","address":"萱島東"},
{"zip_code":"5720015","kana_pref":"ｵｵｻｶﾌ","kana_city":"ﾈﾔｶﾞﾜｼ","kana_address":"ｶﾜｶﾂﾁｮｳ","pref":"大阪府","city":"寝屋川市","address":"川勝町"},
{"zip_code":"5720816","kana_pref":"ｵｵｻｶﾌ","kana_city":"ﾈﾔｶﾞﾜｼ","kana_address":"ｶﾜｷﾀﾅｶﾏﾁ","pref":"大阪府","city":"寝屋川市","address":"河北中町"},
{"zip_code":"5720815","kana_pref":"ｵｵｻｶﾌ","kana_city":"ﾈﾔｶﾞﾜｼ","kana_address":"ｶﾜｷﾀﾋｶﾞｼﾏﾁ","pref":"大阪府","city":"寝屋川市","address":"河北東町"},
{"zip_code":"5720817","kana_pref":"ｵｵｻｶﾌ","kana_city":"ﾈﾔｶﾞﾜｼ","kana_address":"ｶﾜｷﾀﾆｼﾏﾁ","pref":"大阪府","city":"寝屋川市","address":"河北西町"},
{"zip_code":"5720008","kana_pref":"ｵｵｻｶﾌ","kana_city":"ﾈﾔｶﾞﾜｼ","kana_address":"ｶﾝｿｳﾂﾞｶﾁｮｳ","pref":"大阪府","city":"寝屋川市","address":"菅相塚町"},
{"zip_code":"5720032","kana_pref":"ｵｵｻｶﾌ","kana_city":"ﾈﾔｶﾞﾜｼ","kana_address":"ｷﾀｵｵﾄｼﾁｮｳ","pref":"大阪府","city":"寝屋川市","address":"北大利町"},
{"zip_code":"5720836","kana_pref":"ｵｵｻｶﾌ","kana_city":"ﾈﾔｶﾞﾜｼ","kana_address":"ｷﾀﾞﾁｮｳ","pref":"大阪府","city":"寝屋川市","address":"木田町"},
{"zip_code":"5720822","kana_pref":"ｵｵｻｶﾌ","kana_city":"ﾈﾔｶﾞﾜｼ","kana_address":"ｷﾀﾞﾓﾄﾐﾔ","pref":"大阪府","city":"寝屋川市","address":"木田元宮"},
{"zip_code":"5720811","kana_pref":"ｵｵｻｶﾌ","kana_city":"ﾈﾔｶﾞﾜｼ","kana_address":"ｸｽﾈﾐﾅﾐﾏﾁ","pref":"大阪府","city":"寝屋川市","address":"楠根南町"},
{"zip_code":"5720845","kana_pref":"ｵｵｻｶﾌ","kana_city":"ﾈﾔｶﾞﾜｼ","kana_address":"ｸｽﾈｷﾀﾏﾁ","pref":"大阪府","city":"寝屋川市","address":"楠根北町"},
{"zip_code":"5720075","kana_pref":"ｵｵｻｶﾌ","kana_city":"ﾈﾔｶﾞﾜｼ","kana_address":"ｸｽﾞﾊﾗ","pref":"大阪府","city":"寝屋川市","address":"葛原"},
{"zip_code":"5720037","kana_pref":"ｵｵｻｶﾌ","kana_city":"ﾈﾔｶﾞﾜｼ","kana_address":"ｸｽﾞﾊﾗｼﾝﾏﾁ","pref":"大阪府","city":"寝屋川市","address":"葛原新町"},
{"zip_code":"5720016","kana_pref":"ｵｵｻｶﾌ","kana_city":"ﾈﾔｶﾞﾜｼ","kana_address":"ｸﾆﾏﾂﾁｮｳ","pref":"大阪府","city":"寝屋川市","address":"国松町"},
{"zip_code":"5720057","kana_pref":"ｵｵｻｶﾌ","kana_city":"ﾈﾔｶﾞﾜｼ","kana_address":"ｸﾛﾊﾗｱｻﾋﾏﾁ","pref":"大阪府","city":"寝屋川市","address":"黒原旭町"},
{"zip_code":"5720059","kana_pref":"ｵｵｻｶﾌ","kana_city":"ﾈﾔｶﾞﾜｼ","kana_address":"ｸﾛﾊﾗｼﾝﾏﾁ","pref":"大阪府","city":"寝屋川市","address":"黒原新町"},
{"zip_code":"5720050","kana_pref":"ｵｵｻｶﾌ","kana_city":"ﾈﾔｶﾞﾜｼ","kana_address":"ｸﾛﾊﾗｼﾞｮｳﾅｲﾁｮｳ","pref":"大阪府","city":"寝屋川市","address":"黒原城内町"},
{"zip_code":"5720058","kana_pref":"ｵｵｻｶﾌ","kana_city":"ﾈﾔｶﾞﾜｼ","kana_address":"ｸﾛﾊﾗﾀﾁﾊﾞﾅﾁｮｳ","pref":"大阪府","city":"寝屋川市","address":"黒原橘町"},
{"zip_code":"5720085","kana_pref":"ｵｵｻｶﾌ","kana_city":"ﾈﾔｶﾞﾜｼ","kana_address":"ｺｵﾘｼﾝﾏﾁ","pref":"大阪府","city":"寝屋川市","address":"香里新町"},
{"zip_code":"5720082","kana_pref":"ｵｵｻｶﾌ","kana_city":"ﾈﾔｶﾞﾜｼ","kana_address":"ｺｵﾘﾎﾝﾄﾞｵﾘﾁｮｳ","pref":"大阪府","city":"寝屋川市","address":"香里本通町"},
{"zip_code":"5720089","kana_pref":"ｵｵｻｶﾌ","kana_city":"ﾈﾔｶﾞﾜｼ","kana_address":"ｺｵﾘﾆｼﾉﾁｮｳ","pref":"大阪府","city":"寝屋川市","address":"香里西之町"},
{"zip_code":"5720084","kana_pref":"ｵｵｻｶﾌ","kana_city":"ﾈﾔｶﾞﾜｼ","kana_address":"ｺｵﾘﾐﾅﾐﾉﾁｮｳ","pref":"大阪府","city":"寝屋川市","address":"香里南之町"},
{"zip_code":"5720080","kana_pref":"ｵｵｻｶﾌ","kana_city":"ﾈﾔｶﾞﾜｼ","kana_address":"ｺｵﾘｷﾀﾉﾁｮｳ","pref":"大阪府","city":"寝屋川市","address":"香里北之町"},
{"zip_code":"5720083","kana_pref":"ｵｵｻｶﾌ","kana_city":"ﾈﾔｶﾞﾜｼ","kana_address":"ｺｵﾘﾓﾄﾏﾁ","pref":"大阪府","city":"寝屋川市","address":"郡元町"},
{"zip_code":"5720029","kana_pref":"ｵｵｻｶﾌ","kana_city":"ﾈﾔｶﾞﾜｼ","kana_address":"ｺﾄﾌﾞｷﾁｮｳ","pref":"大阪府","city":"寝屋川市","address":"寿町"},
{"zip_code":"5720087","kana_pref":"ｵｵｻｶﾌ","kana_city":"ﾈﾔｶﾞﾜｼ","kana_address":"ｺﾔﾁｮｳ","pref":"大阪府","city":"寝屋川市","address":"木屋町"},
{"zip_code":"5720088","kana_pref":"ｵｵｻｶﾌ","kana_city":"ﾈﾔｶﾞﾜｼ","kana_address":"ｺﾔﾓﾄﾏﾁ","pref":"大阪府","city":"寝屋川市","address":"木屋元町"},
{"zip_code":"5720017","kana_pref":"ｵｵｻｶﾌ","kana_city":"ﾈﾔｶﾞﾜｼ","kana_address":"ｻｲﾜｲﾁｮｳ","pref":"大阪府","city":"寝屋川市","address":"幸町"},
{"zip_code":"5720018","kana_pref":"ｵｵｻｶﾌ","kana_city":"ﾈﾔｶﾞﾜｼ","kana_address":"ｻｶｲﾊﾞｼﾁｮｳ","pref":"大阪府","city":"寝屋川市","address":"境橋町"},
{"zip_code":"5720041","kana_pref":"ｵｵｻｶﾌ","kana_city":"ﾈﾔｶﾞﾜｼ","kana_address":"ｻｸﾗｷﾞﾁｮｳ","pref":"大阪府","city":"寝屋川市","address":"桜木町"},
{"zip_code":"5720813","kana_pref":"ｵｵｻｶﾌ","kana_city":"ﾈﾔｶﾞﾜｼ","kana_address":"ｻﾝﾗﾋｶﾞｼﾏﾁ","pref":"大阪府","city":"寝屋川市","address":"讃良東町"},
{"zip_code":"5720818","kana_pref":"ｵｵｻｶﾌ","kana_city":"ﾈﾔｶﾞﾜｼ","kana_address":"ｻﾝﾗﾆｼﾏﾁ","pref":"大阪府","city":"寝屋川市","address":"讃良西町"},
{"zip_code":"5720044","kana_pref":"ｵｵｻｶﾌ","kana_city":"ﾈﾔｶﾞﾜｼ","kana_address":"ｼﾐｽﾞﾁｮｳ","pref":"大阪府","city":"寝屋川市","address":"清水町"},
{"zip_code":"5720077","kana_pref":"ｵｵｻｶﾌ","kana_city":"ﾈﾔｶﾞﾜｼ","kana_address":"ｼﾒﾉ","pref":"大阪府","city":"寝屋川市","address":"点野"},
{"zip_code":"5720054","kana_pref":"ｵｵｻｶﾌ","kana_city":"ﾈﾔｶﾞﾜｼ","kana_address":"ｼﾓｶﾐﾀﾞﾁｮｳ","pref":"大阪府","city":"寝屋川市","address":"下神田町"},
{"zip_code":"5720823","kana_pref":"ｵｵｻｶﾌ","kana_city":"ﾈﾔｶﾞﾜｼ","kana_address":"ｼﾓｷﾀﾞﾁｮｳ","pref":"大阪府","city":"寝屋川市","address":"下木田町"},
{"zip_code":"5720834","kana_pref":"ｵｵｻｶﾌ","kana_city":"ﾈﾔｶﾞﾜｼ","kana_address":"ｼｮｳｴｲﾁｮｳ","pref":"大阪府","city":"寝屋川市","address":"昭栄町"},
{"zip_code":"5720865","kana_pref":"ｵｵｻｶﾌ","kana_city":"ﾈﾔｶﾞﾜｼ","kana_address":"ｼｮｳｼﾞｷﾀﾏﾁ","pref":"大阪府","city":"寝屋川市","address":"小路北町"},
{"zip_code":"5720866","kana_pref":"ｵｵｻｶﾌ","kana_city":"ﾈﾔｶﾞﾜｼ","kana_address":"ｼｮｳｼﾞﾐﾅﾐﾏﾁ","pref":"大阪府","city":"寝屋川市","address":"小路南町"},
{"zip_code":"5720812","kana_pref":"ｵｵｻｶﾌ","kana_city":"ﾈﾔｶﾞﾜｼ","kana_address":"ｼﾝｹ","pref":"大阪府","city":"寝屋川市","address":"新家"},
{"zip_code":"5720009","kana_pref":"ｵｵｻｶﾌ","kana_city":"ﾈﾔｶﾞﾜｼ","kana_address":"ｽｴﾋﾛﾁｮｳ","pref":"大阪府","city":"寝屋川市","address":"末広町"},
{"zip_code":"5720046","kana_pref":"ｵｵｻｶﾌ","kana_city":"ﾈﾔｶﾞﾜｼ","kana_address":"ｾｲﾋﾞﾁｮｳ","pref":"大阪府","city":"寝屋川市","address":"成美町"},
{"zip_code":"5720819","kana_pref":"ｵｵｻｶﾌ","kana_city":"ﾈﾔｶﾞﾜｼ","kana_address":"ﾀｲｾｲﾁｮｳ","pref":"大阪府","city":"寝屋川市","address":"大成町"},
{"zip_code":"5720021","kana_pref":"ｵｵｻｶﾌ","kana_city":"ﾈﾔｶﾞﾜｼ","kana_address":"ﾀｲﾁｮｳ","pref":"大阪府","city":"寝屋川市","address":"田井町"},
{"zip_code":"5720020","kana_pref":"ｵｵｻｶﾌ","kana_city":"ﾈﾔｶﾞﾜｼ","kana_address":"ﾀｲﾆｼﾏﾁ","pref":"大阪府","city":"寝屋川市","address":"田井西町"},
{"zip_code":"5720078","kana_pref":"ｵｵｻｶﾌ","kana_city":"ﾈﾔｶﾞﾜｼ","kana_address":"ﾀｲﾏﾁｮｳ","pref":"大阪府","city":"寝屋川市","address":"太間町"},
{"zip_code":"5720072","kana_pref":"ｵｵｻｶﾌ","kana_city":"ﾈﾔｶﾞﾜｼ","kana_address":"ﾀｲﾏﾋｶﾞｼﾏﾁ","pref":"大阪府","city":"寝屋川市","address":"太間東町"},
{"zip_code":"5720864","kana_pref":"ｵｵｻｶﾌ","kana_city":"ﾈﾔｶﾞﾜｼ","kana_address":"ﾀｶｸﾗ","pref":"大阪府","city":"寝屋川市","address":"高倉"},
{"zip_code":"5720806","kana_pref":"ｵｵｻｶﾌ","kana_city":"ﾈﾔｶﾞﾜｼ","kana_address":"ﾀｶﾐﾔ","pref":"大阪府","city":"寝屋川市","address":"高宮"},
{"zip_code":"5720867","kana_pref":"ｵｵｻｶﾌ","kana_city":"ﾈﾔｶﾞﾜｼ","kana_address":"ﾀｶﾐﾔｱｻﾋｵｶ","pref":"大阪府","city":"寝屋川市","address":"高宮あさひ丘"},
{"zip_code":"5720846","kana_pref":"ｵｵｻｶﾌ","kana_city":"ﾈﾔｶﾞﾜｼ","kana_address":"ﾀｶﾐﾔｻｶｴﾏﾁ","pref":"大阪府","city":"寝屋川市","address":"高宮栄町"},
{"zip_code":"5720847","kana_pref":"ｵｵｻｶﾌ","kana_city":"ﾈﾔｶﾞﾜｼ","kana_address":"ﾀｶﾐﾔｼﾝﾏﾁ","pref":"大阪府","city":"寝屋川市","address":"高宮新町"},
{"zip_code":"5720051","kana_pref":"ｵｵｻｶﾌ","kana_city":"ﾈﾔｶﾞﾜｼ","kana_address":"ﾀｶﾔﾅｷﾞ","pref":"大阪府","city":"寝屋川市","address":"高柳"},
{"zip_code":"5720062","kana_pref":"ｵｵｻｶﾌ","kana_city":"ﾈﾔｶﾞﾜｼ","kana_address":"ﾀｶﾔﾅｷﾞｻｶｴﾏﾁ","pref":"大阪府","city":"寝屋川市","address":"高柳栄町"},
{"zip_code":"5720067","kana_pref":"ｵｵｻｶﾌ","kana_city":"ﾈﾔｶﾞﾜｼ","kana_address":"ﾀｶﾗﾏﾁ","pref":"大阪府","city":"寝屋川市","address":"宝町"},
{"zip_code":"5720061","kana_pref":"ｵｵｻｶﾌ","kana_city":"ﾈﾔｶﾞﾜｼ","kana_address":"ﾁｮｳｴｲｼﾞﾁｮｳ","pref":"大阪府","city":"寝屋川市","address":"長栄寺町"},
{"zip_code":"5720064","kana_pref":"ｵｵｻｶﾌ","kana_city":"ﾈﾔｶﾞﾜｼ","kana_address":"ﾂｼﾏｴﾋｶﾞｼﾏﾁ","pref":"大阪府","city":"寝屋川市","address":"対馬江東町"},
{"zip_code":"5720065","kana_pref":"ｵｵｻｶﾌ","kana_city":"ﾈﾔｶﾞﾜｼ","kana_address":"ﾂｼﾏｴﾆｼﾏﾁ","pref":"大阪府","city":"寝屋川市","address":"対馬江西町"},
{"zip_code":"5720071","kana_pref":"ｵｵｻｶﾌ","kana_city":"ﾈﾔｶﾞﾜｼ","kana_address":"ﾄﾖｻﾞﾄﾁｮｳ","pref":"大阪府","city":"寝屋川市","address":"豊里町"},
{"zip_code":"5720831","kana_pref":"ｵｵｻｶﾌ","kana_city":"ﾈﾔｶﾞﾜｼ","kana_address":"ﾄﾖﾉﾁｮｳ","pref":"大阪府","city":"寝屋川市","address":"豊野町"},
{"zip_code":"5720053","kana_pref":"ｵｵｻｶﾌ","kana_city":"ﾈﾔｶﾞﾜｼ","kana_address":"ﾅｶｶﾐﾀﾞﾁｮｳ","pref":"大阪府","city":"寝屋川市","address":"中神田町"},
{"zip_code":"5720820","kana_pref":"ｵｵｻｶﾌ","kana_city":"ﾈﾔｶﾞﾜｼ","kana_address":"ﾅｶｷﾀﾞﾁｮｳ","pref":"大阪府","city":"寝屋川市","address":"中木田町"},
{"zip_code":"5720002","kana_pref":"ｵｵｻｶﾌ","kana_city":"ﾈﾔｶﾞﾜｼ","kana_address":"ﾅﾘﾀﾋｶﾞｼｶﾞｵｶ","pref":"大阪府","city":"寝屋川市","address":"成田東が丘"},
{"zip_code":"5720001","kana_pref":"ｵｵｻｶﾌ","kana_city":"ﾈﾔｶﾞﾜｼ","kana_address":"ﾅﾘﾀﾋｶﾞｼﾏﾁ","pref":"大阪府","city":"寝屋川市","address":"成田東町"},
{"zip_code":"5720005","kana_pref":"ｵｵｻｶﾌ","kana_city":"ﾈﾔｶﾞﾜｼ","kana_address":"ﾅﾘﾀﾆｼﾏﾁ","pref":"大阪府","city":"寝屋川市","address":"成田西町"},
{"zip_code":"5720003","kana_pref":"ｵｵｻｶﾌ","kana_city":"ﾈﾔｶﾞﾜｼ","kana_address":"ﾅﾘﾀﾐﾅﾐﾏﾁ","pref":"大阪府","city":"寝屋川市","address":"成田南町"},
{"zip_code":"5720004","kana_pref":"ｵｵｻｶﾌ","kana_city":"ﾈﾔｶﾞﾜｼ","kana_address":"ﾅﾘﾀﾁｮｳ","pref":"大阪府","city":"寝屋川市","address":"成田町"},
{"zip_code":"5720826","kana_pref":"ｵｵｻｶﾌ","kana_city":"ﾈﾔｶﾞﾜｼ","kana_address":"ﾅﾝｽｲｴﾝﾁｮｳ","pref":"大阪府","city":"寝屋川市","address":"南水苑町"},
{"zip_code":"5720043","kana_pref":"ｵｵｻｶﾌ","kana_city":"ﾈﾔｶﾞﾜｼ","kana_address":"ﾆｼｷﾁｮｳ","pref":"大阪府","city":"寝屋川市","address":"錦町"},
{"zip_code":"5720028","kana_pref":"ｵｵｻｶﾌ","kana_city":"ﾈﾔｶﾞﾜｼ","kana_address":"ﾆｯｼﾝﾁｮｳ","pref":"大阪府","city":"寝屋川市","address":"日新町"},
{"zip_code":"5720066","kana_pref":"ｵｵｻｶﾌ","kana_city":"ﾈﾔｶﾞﾜｼ","kana_address":"ﾆﾜｼﾞﾁｮｳ","pref":"大阪府","city":"寝屋川市","address":"仁和寺町"},
{"zip_code":"5720076","kana_pref":"ｵｵｻｶﾌ","kana_city":"ﾈﾔｶﾞﾜｼ","kana_address":"ﾆﾜｼﾞﾎﾝﾏﾁ","pref":"大阪府","city":"寝屋川市","address":"仁和寺本町"},
{"zip_code":"5720801","kana_pref":"ｵｵｻｶﾌ","kana_city":"ﾈﾔｶﾞﾜｼ","kana_address":"ﾈﾔ","pref":"大阪府","city":"寝屋川市","address":"寝屋"},
{"zip_code":"5720854","kana_pref":"ｵｵｻｶﾌ","kana_city":"ﾈﾔｶﾞﾜｼ","kana_address":"ﾈﾔｶﾞﾜｺｳｴﾝ","pref":"大阪府","city":"寝屋川市","address":"寝屋川公園"},
{"zip_code":"5720851","kana_pref":"ｵｵｻｶﾌ","kana_city":"ﾈﾔｶﾞﾜｼ","kana_address":"ﾈﾔｷﾀﾏﾁ","pref":"大阪府","city":"寝屋川市","address":"寝屋北町"},
{"zip_code":"5720852","kana_pref":"ｵｵｻｶﾌ","kana_city":"ﾈﾔｶﾞﾜｼ","kana_address":"ﾈﾔｼﾝﾏﾁ","pref":"大阪府","city":"寝屋川市","address":"寝屋新町"},
{"zip_code":"5720855","kana_pref":"ｵｵｻｶﾌ","kana_city":"ﾈﾔｶﾞﾜｼ","kana_address":"ﾈﾔﾐﾅﾐ","pref":"大阪府","city":"寝屋川市","address":"寝屋南"},
{"zip_code":"5720848","kana_pref":"ｵｵｻｶﾌ","kana_city":"ﾈﾔｶﾞﾜｼ","kana_address":"ﾊﾀﾞﾁｮｳ","pref":"大阪府","city":"寝屋川市","address":"秦町"},
{"zip_code":"5720014","kana_pref":"ｵｵｻｶﾌ","kana_city":"ﾈﾔｶﾞﾜｼ","kana_address":"ﾊﾁﾏﾝﾀﾞｲ","pref":"大阪府","city":"寝屋川市","address":"八幡台"},
{"zip_code":"5720833","kana_pref":"ｵｵｻｶﾌ","kana_city":"ﾈﾔｶﾞﾜｼ","kana_address":"ﾊｯﾁｮｳ","pref":"大阪府","city":"寝屋川市","address":"初町"},
{"zip_code":"5720837","kana_pref":"ｵｵｻｶﾌ","kana_city":"ﾈﾔｶﾞﾜｼ","kana_address":"ﾊﾔｺﾁｮｳ","pref":"大阪府","city":"寝屋川市","address":"早子町"},
{"zip_code":"5720042","kana_pref":"ｵｵｻｶﾌ","kana_city":"ﾈﾔｶﾞﾜｼ","kana_address":"ﾋｶﾞｼｵｵﾄｼﾁｮｳ","pref":"大阪府","city":"寝屋川市","address":"東大利町"},
{"zip_code":"5720045","kana_pref":"ｵｵｻｶﾌ","kana_city":"ﾈﾔｶﾞﾜｼ","kana_address":"ﾋｶﾞｼｶﾐﾀﾞﾁｮｳ","pref":"大阪府","city":"寝屋川市","address":"東神田町"},
{"zip_code":"5720081","kana_pref":"ｵｵｻｶﾌ","kana_city":"ﾈﾔｶﾞﾜｼ","kana_address":"ﾋｶﾞｼｺｵﾘｴﾝﾁｮｳ","pref":"大阪府","city":"寝屋川市","address":"東香里園町"},
{"zip_code":"5720835","kana_pref":"ｵｵｻｶﾌ","kana_city":"ﾈﾔｶﾞﾜｼ","kana_address":"ﾋﾉﾃﾞﾁｮｳ","pref":"大阪府","city":"寝屋川市","address":"日之出町"},
{"zip_code":"5720839","kana_pref":"ｵｵｻｶﾌ","kana_city":"ﾈﾔｶﾞﾜｼ","kana_address":"ﾋﾗｲｹﾁｮｳ","pref":"大阪府","city":"寝屋川市","address":"平池町"},
{"zip_code":"5720814","kana_pref":"ｵｵｻｶﾌ","kana_city":"ﾈﾔｶﾞﾜｼ","kana_address":"ﾎﾘﾐｿﾞ","pref":"大阪府","city":"寝屋川市","address":"堀溝"},
{"zip_code":"5720810","kana_pref":"ｵｵｻｶﾌ","kana_city":"ﾈﾔｶﾞﾜｼ","kana_address":"ﾎﾘﾐｿﾞｷﾀﾏﾁ","pref":"大阪府","city":"寝屋川市","address":"堀溝北町"},
{"zip_code":"5720832","kana_pref":"ｵｵｻｶﾌ","kana_city":"ﾈﾔｶﾞﾜｼ","kana_address":"ﾎﾝﾏﾁ","pref":"大阪府","city":"寝屋川市","address":"本町"},
{"zip_code":"5720086","kana_pref":"ｵｵｻｶﾌ","kana_city":"ﾈﾔｶﾞﾜｼ","kana_address":"ﾏﾂﾔﾁｮｳ","pref":"大阪府","city":"寝屋川市","address":"松屋町"},
{"zip_code":"5720013","kana_pref":"ｵｵｻｶﾌ","kana_city":"ﾈﾔｶﾞﾜｼ","kana_address":"ﾐｲｶﾞｵｶ","pref":"大阪府","city":"寝屋川市","address":"三井が丘"},
{"zip_code":"5720007","kana_pref":"ｵｵｻｶﾌ","kana_city":"ﾈﾔｶﾞﾜｼ","kana_address":"ﾐｲﾁｮｳ","pref":"大阪府","city":"寝屋川市","address":"美井町"},
{"zip_code":"5720019","kana_pref":"ｵｵｻｶﾌ","kana_city":"ﾈﾔｶﾞﾜｼ","kana_address":"ﾐｲﾐﾅﾐﾏﾁ","pref":"大阪府","city":"寝屋川市","address":"三井南町"},
{"zip_code":"5720006","kana_pref":"ｵｵｻｶﾌ","kana_city":"ﾈﾔｶﾞﾜｼ","kana_address":"ﾐｲﾓﾄﾏﾁ","pref":"大阪府","city":"寝屋川市","address":"美井元町"},
{"zip_code":"5720022","kana_pref":"ｵｵｻｶﾌ","kana_city":"ﾈﾔｶﾞﾜｼ","kana_address":"ﾐﾄﾞﾘﾏﾁ","pref":"大阪府","city":"寝屋川市","address":"緑町"},
{"zip_code":"5720055","kana_pref":"ｵｵｻｶﾌ","kana_city":"ﾈﾔｶﾞﾜｼ","kana_address":"ﾐﾕｷﾋｶﾞｼﾏﾁ","pref":"大阪府","city":"寝屋川市","address":"御幸東町"},
{"zip_code":"5720056","kana_pref":"ｵｵｻｶﾌ","kana_city":"ﾈﾔｶﾞﾜｼ","kana_address":"ﾐﾕｷﾆｼﾏﾁ","pref":"大阪府","city":"寝屋川市","address":"御幸西町"},
{"zip_code":"5720011","kana_pref":"ｵｵｻｶﾌ","kana_city":"ﾈﾔｶﾞﾜｼ","kana_address":"ﾒｲﾄｸ","pref":"大阪府","city":"寝屋川市","address":"明徳"},
{"zip_code":"5720863","kana_pref":"ｵｵｻｶﾌ","kana_city":"ﾈﾔｶﾞﾜｼ","kana_address":"ﾒｲﾜ","pref":"大阪府","city":"寝屋川市","address":"明和"},
{"zip_code":"5720838","kana_pref":"ｵｵｻｶﾌ","kana_city":"ﾈﾔｶﾞﾜｼ","kana_address":"ﾔｻｶﾁｮｳ","pref":"大阪府","city":"寝屋川市","address":"八坂町"},
{"zip_code":"5720031","kana_pref":"ｵｵｻｶﾌ","kana_city":"ﾈﾔｶﾞﾜｼ","kana_address":"ﾜｶﾊﾞﾁｮｳ","pref":"大阪府","city":"寝屋川市","address":"若葉町"}]}