{"zip_code":[
{"zip_code":"5730000","kana_pref":"ｵｵｻｶﾌ","kana_city":"ﾋﾗｶﾀｼ","kana_address":"","pref":"大阪府","city":"枚方市","address":""},
{"zip_code":"5730026","kana_pref":"ｵｵｻｶﾌ","kana_city":"ﾋﾗｶﾀｼ","kana_address":"ｱｻﾋｶﾞｵｶﾁｮｳ","pref":"大阪府","city":"枚方市","address":"朝日丘町"},
{"zip_code":"5731185","kana_pref":"ｵｵｻｶﾌ","kana_city":"ﾋﾗｶﾀｼ","kana_address":"ｱﾏﾉｶﾞﾜﾁｮｳ","pref":"大阪府","city":"枚方市","address":"天之川町"},
{"zip_code":"5730058","kana_pref":"ｵｵｻｶﾌ","kana_city":"ﾋﾗｶﾀｼ","kana_address":"ｲｶｶﾞﾋｶﾞｼﾏﾁ","pref":"大阪府","city":"枚方市","address":"伊加賀東町"},
{"zip_code":"5730066","kana_pref":"ｵｵｻｶﾌ","kana_city":"ﾋﾗｶﾀｼ","kana_address":"ｲｶｶﾞﾆｼﾏﾁ","pref":"大阪府","city":"枚方市","address":"伊加賀西町"},
{"zip_code":"5730053","kana_pref":"ｵｵｻｶﾌ","kana_city":"ﾋﾗｶﾀｼ","kana_address":"ｲｶｶﾞﾐﾅﾐﾏﾁ","pref":"大阪府","city":"枚方市","address":"伊加賀南町"},
{"zip_code":"5730036","kana_pref":"ｵｵｻｶﾌ","kana_city":"ﾋﾗｶﾀｼ","kana_address":"ｲｶｶﾞｷﾀﾏﾁ","pref":"大阪府","city":"枚方市","address":"伊加賀北町"},
{"zip_code":"5730061","kana_pref":"ｵｵｻｶﾌ","kana_city":"ﾋﾗｶﾀｼ","kana_address":"ｲｶｶﾞｺﾄﾌﾞｷﾁｮｳ","pref":"大阪府","city":"枚方市","address":"伊加賀寿町"},
{"zip_code":"5730062","kana_pref":"ｵｵｻｶﾌ","kana_city":"ﾋﾗｶﾀｼ","kana_address":"ｲｶｶﾞｻｶｴﾏﾁ","pref":"大阪府","city":"枚方市","address":"伊加賀栄町"},
{"zip_code":"5730055","kana_pref":"ｵｵｻｶﾌ","kana_city":"ﾋﾗｶﾀｼ","kana_address":"ｲｶｶﾞﾎﾝﾏﾁ","pref":"大阪府","city":"枚方市","address":"伊加賀本町"},
{"zip_code":"5730067","kana_pref":"ｵｵｻｶﾌ","kana_city":"ﾋﾗｶﾀｼ","kana_address":"ｲｶｶﾞﾐﾄﾞﾘﾏﾁ","pref":"大阪府","city":"枚方市","address":"伊加賀緑町"},
{"zip_code":"5730005","kana_pref":"ｵｵｻｶﾌ","kana_city":"ﾋﾗｶﾀｼ","kana_address":"ｲｹﾉﾐﾔ","pref":"大阪府","city":"枚方市","address":"池之宮"},
{"zip_code":"5731184","kana_pref":"ｵｵｻｶﾌ","kana_city":"ﾋﾗｶﾀｼ","kana_address":"ｲｿｼﾏﾁｬﾔﾏﾁ","pref":"大阪府","city":"枚方市","address":"磯島茶屋町"},
{"zip_code":"5731186","kana_pref":"ｵｵｻｶﾌ","kana_city":"ﾋﾗｶﾀｼ","kana_address":"ｲｿｼﾏﾐﾅﾐﾏﾁ","pref":"大阪府","city":"枚方市","address":"磯島南町"},
{"zip_code":"5731188","kana_pref":"ｵｵｻｶﾌ","kana_city":"ﾋﾗｶﾀｼ","kana_address":"ｲｿｼﾏｷﾀﾏﾁ","pref":"大阪府","city":"枚方市","address":"磯島北町"},
{"zip_code":"5731187","kana_pref":"ｵｵｻｶﾌ","kana_city":"ﾋﾗｶﾀｼ","kana_address":"ｲｿｼﾏﾓﾄﾏﾁ","pref":"大阪府","city":"枚方市","address":"磯島元町"},
{"zip_code":"5730017","kana_pref":"ｵｵｻｶﾌ","kana_city":"ﾋﾗｶﾀｼ","kana_address":"ｲﾝﾀﾞﾁｮｳ","pref":"大阪府","city":"枚方市","address":"印田町"},
{"zip_code":"5731175","kana_pref":"ｵｵｻｶﾌ","kana_city":"ﾋﾗｶﾀｼ","kana_address":"ｳｴﾉ","pref":"大阪府","city":"枚方市","address":"上野"},
{"zip_code":"5731143","kana_pref":"ｵｵｻｶﾌ","kana_city":"ﾋﾗｶﾀｼ","kana_address":"ｳﾔﾏﾁｮｳ","pref":"大阪府","city":"枚方市","address":"宇山町"},
{"zip_code":"5731136","kana_pref":"ｵｵｻｶﾌ","kana_city":"ﾋﾗｶﾀｼ","kana_address":"ｳﾔﾏﾋｶﾞｼﾏﾁ","pref":"大阪府","city":"枚方市","address":"宇山東町"},
{"zip_code":"5730027","kana_pref":"ｵｵｻｶﾌ","kana_city":"ﾋﾗｶﾀｼ","kana_address":"ｵｵｶﾞｲﾄﾁｮｳ","pref":"大阪府","city":"枚方市","address":"大垣内町"},
{"zip_code":"5730142","kana_pref":"ｵｵｻｶﾌ","kana_city":"ﾋﾗｶﾀｼ","kana_address":"ｵｵﾐﾈﾋｶﾞｼﾏﾁ","pref":"大阪府","city":"枚方市","address":"大峰東町"},
{"zip_code":"5730145","kana_pref":"ｵｵｻｶﾌ","kana_city":"ﾋﾗｶﾀｼ","kana_address":"ｵｵﾐﾈﾐﾅﾐﾏﾁ","pref":"大阪府","city":"枚方市","address":"大峰南町"},
{"zip_code":"5730141","kana_pref":"ｵｵｻｶﾌ","kana_city":"ﾋﾗｶﾀｼ","kana_address":"ｵｵﾐﾈｷﾀﾏﾁ","pref":"大阪府","city":"枚方市","address":"大峰北町"},
{"zip_code":"5730146","kana_pref":"ｵｵｻｶﾌ","kana_city":"ﾋﾗｶﾀｼ","kana_address":"ｵｵﾐﾈﾓﾄﾏﾁ","pref":"大阪府","city":"枚方市","address":"大峰元町"},
{"zip_code":"5730032","kana_pref":"ｵｵｻｶﾌ","kana_city":"ﾋﾗｶﾀｼ","kana_address":"ｵｶﾋｶﾞｼﾁｮｳ","pref":"大阪府","city":"枚方市","address":"岡東町"},
{"zip_code":"5730031","kana_pref":"ｵｵｻｶﾌ","kana_city":"ﾋﾗｶﾀｼ","kana_address":"ｵｶﾎﾝﾏﾁ","pref":"大阪府","city":"枚方市","address":"岡本町"},
{"zip_code":"5730033","kana_pref":"ｵｵｻｶﾌ","kana_city":"ﾋﾗｶﾀｼ","kana_address":"ｵｶﾐﾅﾐﾁｮｳ","pref":"大阪府","city":"枚方市","address":"岡南町"},
{"zip_code":"5730034","kana_pref":"ｵｵｻｶﾌ","kana_city":"ﾋﾗｶﾀｼ","kana_address":"ｵｶﾔﾏﾃﾁｮｳ","pref":"大阪府","city":"枚方市","address":"岡山手町"},
{"zip_code":"5731173","kana_pref":"ｵｵｻｶﾌ","kana_city":"ﾋﾗｶﾀｼ","kana_address":"ｵｸﾞﾗﾁｮｳ","pref":"大阪府","city":"枚方市","address":"小倉町"},
{"zip_code":"5731174","kana_pref":"ｵｵｻｶﾌ","kana_city":"ﾋﾗｶﾀｼ","kana_address":"ｵｸﾞﾗﾋｶﾞｼﾏﾁ","pref":"大阪府","city":"枚方市","address":"小倉東町"},
{"zip_code":"5731163","kana_pref":"ｵｵｻｶﾌ","kana_city":"ﾋﾗｶﾀｼ","kana_address":"ｶｲﾀﾞｼﾝﾏﾁ","pref":"大阪府","city":"枚方市","address":"甲斐田新町"},
{"zip_code":"5731168","kana_pref":"ｵｵｻｶﾌ","kana_city":"ﾋﾗｶﾀｼ","kana_address":"ｶｲﾀﾞﾋｶﾞｼﾏﾁ","pref":"大阪府","city":"枚方市","address":"甲斐田東町"},
{"zip_code":"5731167","kana_pref":"ｵｵｻｶﾌ","kana_city":"ﾋﾗｶﾀｼ","kana_address":"ｶｲﾀﾞﾁｮｳ","pref":"大阪府","city":"枚方市","address":"甲斐田町"},
{"zip_code":"5730134","kana_pref":"ｵｵｻｶﾌ","kana_city":"ﾋﾗｶﾀｼ","kana_address":"ｶｽｶﾞﾋｶﾞｼﾏﾁ","pref":"大阪府","city":"枚方市","address":"春日東町"},
{"zip_code":"5730136","kana_pref":"ｵｵｻｶﾌ","kana_city":"ﾋﾗｶﾀｼ","kana_address":"ｶｽｶﾞﾆｼﾏﾁ","pref":"大阪府","city":"枚方市","address":"春日西町"},
{"zip_code":"5730137","kana_pref":"ｵｵｻｶﾌ","kana_city":"ﾋﾗｶﾀｼ","kana_address":"ｶｽｶﾞｷﾀﾏﾁ","pref":"大阪府","city":"枚方市","address":"春日北町"},
{"zip_code":"5730135","kana_pref":"ｵｵｻｶﾌ","kana_city":"ﾋﾗｶﾀｼ","kana_address":"ｶｽｶﾞﾓﾄﾏﾁ","pref":"大阪府","city":"枚方市","address":"春日元町"},
{"zip_code":"5730131","kana_pref":"ｵｵｻｶﾌ","kana_city":"ﾋﾗｶﾀｼ","kana_address":"ｶｽｶﾞﾉ","pref":"大阪府","city":"枚方市","address":"春日野"},
{"zip_code":"5731156","kana_pref":"ｵｵｻｶﾌ","kana_city":"ﾋﾗｶﾀｼ","kana_address":"ｶﾀﾎｺﾋｶﾞｼﾏﾁ","pref":"大阪府","city":"枚方市","address":"片鉾東町"},
{"zip_code":"5731157","kana_pref":"ｵｵｻｶﾌ","kana_city":"ﾋﾗｶﾀｼ","kana_address":"ｶﾀﾎｺﾎﾝﾏﾁ","pref":"大阪府","city":"枚方市","address":"片鉾本町"},
{"zip_code":"5731127","kana_pref":"ｵｵｻｶﾌ","kana_city":"ﾋﾗｶﾀｼ","kana_address":"ｶﾐｼﾞﾏﾁｮｳ","pref":"大阪府","city":"枚方市","address":"上島町"},
{"zip_code":"5731126","kana_pref":"ｵｵｻｶﾌ","kana_city":"ﾋﾗｶﾀｼ","kana_address":"ｶﾐｼﾞﾏﾋｶﾞｼﾏﾁ","pref":"大阪府","city":"枚方市","address":"上島東町"},
{"zip_code":"5730028","kana_pref":"ｵｵｻｶﾌ","kana_city":"ﾋﾗｶﾀｼ","kana_address":"ｶﾜﾊﾗﾁｮｳ","pref":"大阪府","city":"枚方市","address":"川原町"},
{"zip_code":"5730091","kana_pref":"ｵｵｻｶﾌ","kana_city":"ﾋﾗｶﾀｼ","kana_address":"ｷｸｶﾞｵｶﾁｮｳ","pref":"大阪府","city":"枚方市","address":"菊丘町"},
{"zip_code":"5730092","kana_pref":"ｵｵｻｶﾌ","kana_city":"ﾋﾗｶﾀｼ","kana_address":"ｷｸｶﾞｵｶﾐﾅﾐﾏﾁ","pref":"大阪府","city":"枚方市","address":"菊丘南町"},
{"zip_code":"5731158","kana_pref":"ｵｵｻｶﾌ","kana_city":"ﾋﾗｶﾀｼ","kana_address":"ｷﾀｶﾀﾎｺﾁｮｳ","pref":"大阪府","city":"枚方市","address":"北片鉾町"},
{"zip_code":"5731102","kana_pref":"ｵｵｻｶﾌ","kana_city":"ﾋﾗｶﾀｼ","kana_address":"ｷﾀｸｽﾞﾊﾁｮｳ","pref":"大阪府","city":"枚方市","address":"北楠葉町"},
{"zip_code":"5730064","kana_pref":"ｵｵｻｶﾌ","kana_city":"ﾋﾗｶﾀｼ","kana_address":"ｷﾀﾅｶﾌﾞﾘ","pref":"大阪府","city":"枚方市","address":"北中振"},
{"zip_code":"5731117","kana_pref":"ｵｵｻｶﾌ","kana_city":"ﾋﾗｶﾀｼ","kana_address":"ｷﾀﾌﾅﾊｼﾁｮｳ","pref":"大阪府","city":"枚方市","address":"北船橋町"},
{"zip_code":"5730171","kana_pref":"ｵｵｻｶﾌ","kana_city":"ﾋﾗｶﾀｼ","kana_address":"ｷﾀﾔﾏ","pref":"大阪府","city":"枚方市","address":"北山"},
{"zip_code":"5731197","kana_pref":"ｵｵｻｶﾌ","kana_city":"ﾋﾗｶﾀｼ","kana_address":"ｷﾝﾔﾎﾝﾏﾁ","pref":"大阪府","city":"枚方市","address":"禁野本町"},
{"zip_code":"5731111","kana_pref":"ｵｵｻｶﾌ","kana_city":"ﾋﾗｶﾀｼ","kana_address":"ｸｽﾞﾊｱｻﾋ","pref":"大阪府","city":"枚方市","address":"楠葉朝日"},
{"zip_code":"5731104","kana_pref":"ｵｵｻｶﾌ","kana_city":"ﾋﾗｶﾀｼ","kana_address":"ｸｽﾞﾊｵｶ","pref":"大阪府","city":"枚方市","address":"楠葉丘"},
{"zip_code":"5731101","kana_pref":"ｵｵｻｶﾌ","kana_city":"ﾋﾗｶﾀｼ","kana_address":"ｸｽﾞﾊﾅｶﾉｼﾊﾞ","pref":"大阪府","city":"枚方市","address":"楠葉中之芝"},
{"zip_code":"5731107","kana_pref":"ｵｵｻｶﾌ","kana_city":"ﾋﾗｶﾀｼ","kana_address":"ｸｽﾞﾊﾅｶﾏﾁ","pref":"大阪府","city":"枚方市","address":"楠葉中町"},
{"zip_code":"5731118","kana_pref":"ｵｵｻｶﾌ","kana_city":"ﾋﾗｶﾀｼ","kana_address":"ｸｽﾞﾊﾅﾐｷ","pref":"大阪府","city":"枚方市","address":"楠葉並木"},
{"zip_code":"5731103","kana_pref":"ｵｵｻｶﾌ","kana_city":"ﾋﾗｶﾀｼ","kana_address":"ｸｽﾞﾊﾉﾀﾞ","pref":"大阪府","city":"枚方市","address":"楠葉野田"},
{"zip_code":"5731121","kana_pref":"ｵｵｻｶﾌ","kana_city":"ﾋﾗｶﾀｼ","kana_address":"ｸｽﾞﾊﾊﾅｿﾞﾉﾁｮｳ","pref":"大阪府","city":"枚方市","address":"楠葉花園町"},
{"zip_code":"5731112","kana_pref":"ｵｵｻｶﾌ","kana_city":"ﾋﾗｶﾀｼ","kana_address":"ｸｽﾞﾊﾐｻｷ","pref":"大阪府","city":"枚方市","address":"楠葉美咲"},
{"zip_code":"5731113","kana_pref":"ｵｵｻｶﾌ","kana_city":"ﾋﾗｶﾀｼ","kana_address":"ｸｽﾞﾊﾒﾝﾄﾞﾘﾁｮｳ","pref":"大阪府","city":"枚方市","address":"楠葉面取町"},
{"zip_code":"5731159","kana_pref":"ｵｵｻｶﾌ","kana_city":"ﾋﾗｶﾀｼ","kana_address":"ｸﾙﾏﾂﾞｶ","pref":"大阪府","city":"枚方市","address":"車塚"},
{"zip_code":"5730073","kana_pref":"ｵｵｻｶﾌ","kana_city":"ﾋﾗｶﾀｼ","kana_address":"ｺｳﾀﾞ","pref":"大阪府","city":"枚方市","address":"高田"},
{"zip_code":"5731161","kana_pref":"ｵｵｻｶﾌ","kana_city":"ﾋﾗｶﾀｼ","kana_address":"ｺｳﾎｸ","pref":"大阪府","city":"枚方市","address":"交北"},
{"zip_code":"5731131","kana_pref":"ｵｵｻｶﾌ","kana_city":"ﾋﾗｶﾀｼ","kana_address":"ｺｳﾔﾐﾁ","pref":"大阪府","city":"枚方市","address":"高野道"},
{"zip_code":"5730088","kana_pref":"ｵｵｻｶﾌ","kana_city":"ﾋﾗｶﾀｼ","kana_address":"ｺｳﾘｴﾝｻｸﾗｷﾞﾁｮｳ","pref":"大阪府","city":"枚方市","address":"香里園桜木町"},
{"zip_code":"5730085","kana_pref":"ｵｵｻｶﾌ","kana_city":"ﾋﾗｶﾀｼ","kana_address":"ｺｳﾘｴﾝﾋｶﾞｼﾉﾁｮｳ","pref":"大阪府","city":"枚方市","address":"香里園東之町"},
{"zip_code":"5730087","kana_pref":"ｵｵｻｶﾌ","kana_city":"ﾋﾗｶﾀｼ","kana_address":"ｺｳﾘｴﾝﾔﾏﾉﾃﾁｮｳ","pref":"大阪府","city":"枚方市","address":"香里園山之手町"},
{"zip_code":"5730086","kana_pref":"ｵｵｻｶﾌ","kana_city":"ﾋﾗｶﾀｼ","kana_address":"ｺｳﾘｴﾝﾁｮｳ","pref":"大阪府","city":"枚方市","address":"香里園町"},
{"zip_code":"5730084","kana_pref":"ｵｵｻｶﾌ","kana_city":"ﾋﾗｶﾀｼ","kana_address":"ｺｳﾘｶﾞｵｶ","pref":"大阪府","city":"枚方市","address":"香里ケ丘"},
{"zip_code":"5731145","kana_pref":"ｵｵｻｶﾌ","kana_city":"ﾋﾗｶﾀｼ","kana_address":"ｺｶﾞﾈﾉ","pref":"大阪府","city":"枚方市","address":"黄金野"},
{"zip_code":"5731182","kana_pref":"ｵｵｻｶﾌ","kana_city":"ﾋﾗｶﾀｼ","kana_address":"ｺﾞﾃﾝﾔﾏﾁｮｳ","pref":"大阪府","city":"枚方市","address":"御殿山町"},
{"zip_code":"5731193","kana_pref":"ｵｵｻｶﾌ","kana_city":"ﾋﾗｶﾀｼ","kana_address":"ｺﾞﾃﾝﾔﾏﾐﾅﾐﾏﾁ","pref":"大阪府","city":"枚方市","address":"御殿山南町"},
{"zip_code":"5730018","kana_pref":"ｵｵｻｶﾌ","kana_city":"ﾋﾗｶﾀｼ","kana_address":"ｻｸﾗｶﾞｵｶﾁｮｳ","pref":"大阪府","city":"枚方市","address":"桜丘町"},
{"zip_code":"5730056","kana_pref":"ｵｵｻｶﾌ","kana_city":"ﾋﾗｶﾀｼ","kana_address":"ｻｸﾗﾏﾁ","pref":"大阪府","city":"枚方市","address":"桜町"},
{"zip_code":"5730081","kana_pref":"ｵｵｻｶﾌ","kana_city":"ﾋﾗｶﾀｼ","kana_address":"ｼｬｸｿﾝｼﾞﾁｮｳ","pref":"大阪府","city":"枚方市","address":"釈尊寺町"},
{"zip_code":"5731153","kana_pref":"ｵｵｻｶﾌ","kana_city":"ﾋﾗｶﾀｼ","kana_address":"ｼｮｳﾀﾞｲｵｵﾀﾆ","pref":"大阪府","city":"枚方市","address":"招提大谷"},
{"zip_code":"5731132","kana_pref":"ｵｵｻｶﾌ","kana_city":"ﾋﾗｶﾀｼ","kana_address":"ｼｮｳﾀﾞｲﾀﾁﾞｶ","pref":"大阪府","city":"枚方市","address":"招提田近"},
{"zip_code":"5731152","kana_pref":"ｵｵｻｶﾌ","kana_city":"ﾋﾗｶﾀｼ","kana_address":"ｼｮｳﾀﾞｲﾅｶﾏﾁ","pref":"大阪府","city":"枚方市","address":"招提中町"},
{"zip_code":"5731135","kana_pref":"ｵｵｻｶﾌ","kana_city":"ﾋﾗｶﾀｼ","kana_address":"ｼｮｳﾀﾞｲﾋﾗﾉﾁｮｳ","pref":"大阪府","city":"枚方市","address":"招提平野町"},
{"zip_code":"5731154","kana_pref":"ｵｵｻｶﾌ","kana_city":"ﾋﾗｶﾀｼ","kana_address":"ｼｮｳﾀﾞｲﾋｶﾞｼﾏﾁ","pref":"大阪府","city":"枚方市","address":"招提東町"},
{"zip_code":"5731155","kana_pref":"ｵｵｻｶﾌ","kana_city":"ﾋﾗｶﾀｼ","kana_address":"ｼｮｳﾀﾞｲﾐﾅﾐﾏﾁ","pref":"大阪府","city":"枚方市","address":"招提南町"},
{"zip_code":"5731138","kana_pref":"ｵｵｻｶﾌ","kana_city":"ﾋﾗｶﾀｼ","kana_address":"ｼｮｳﾀﾞｲｷﾀﾏﾁ","pref":"大阪府","city":"枚方市","address":"招提北町"},
{"zip_code":"5731133","kana_pref":"ｵｵｻｶﾌ","kana_city":"ﾋﾗｶﾀｼ","kana_address":"ｼｮｳﾀﾞｲﾓﾄﾏﾁ","pref":"大阪府","city":"枚方市","address":"招提元町"},
{"zip_code":"5731166","kana_pref":"ｵｵｻｶﾌ","kana_city":"ﾋﾗｶﾀｼ","kana_address":"ｼﾝﾉｴﾁｮｳ","pref":"大阪府","city":"枚方市","address":"新之栄町"},
{"zip_code":"5731191","kana_pref":"ｵｵｻｶﾌ","kana_city":"ﾋﾗｶﾀｼ","kana_address":"ｼﾝﾏﾁ","pref":"大阪府","city":"枚方市","address":"新町"},
{"zip_code":"5730095","kana_pref":"ｵｵｻｶﾌ","kana_city":"ﾋﾗｶﾀｼ","kana_address":"ｽｲｺｳｴﾝﾁｮｳ","pref":"大阪府","city":"枚方市","address":"翠香園町"},
{"zip_code":"5730117","kana_pref":"ｵｵｻｶﾌ","kana_city":"ﾋﾗｶﾀｼ","kana_address":"ｽｷﾞ","pref":"大阪府","city":"枚方市","address":"杉"},
{"zip_code":"5730111","kana_pref":"ｵｵｻｶﾌ","kana_city":"ﾋﾗｶﾀｼ","kana_address":"ｽｷﾞｷﾀﾏﾁ","pref":"大阪府","city":"枚方市","address":"杉北町"},
{"zip_code":"5730116","kana_pref":"ｵｵｻｶﾌ","kana_city":"ﾋﾗｶﾀｼ","kana_address":"ｽｷﾞｾﾒﾀﾞﾆ","pref":"大阪府","city":"枚方市","address":"杉責谷"},
{"zip_code":"5730118","kana_pref":"ｵｵｻｶﾌ","kana_city":"ﾋﾗｶﾀｼ","kana_address":"ｽｷﾞﾔﾏﾃ","pref":"大阪府","city":"枚方市","address":"杉山手"},
{"zip_code":"5731164","kana_pref":"ｵｵｻｶﾌ","kana_city":"ﾋﾗｶﾀｼ","kana_address":"ｽﾔﾏﾁｮｳ","pref":"大阪府","city":"枚方市","address":"須山町"},
{"zip_code":"5730113","kana_pref":"ｵｵｻｶﾌ","kana_city":"ﾋﾗｶﾀｼ","kana_address":"ｿｳﾔ","pref":"大阪府","city":"枚方市","address":"宗谷"},
{"zip_code":"5730112","kana_pref":"ｵｵｻｶﾌ","kana_city":"ﾋﾗｶﾀｼ","kana_address":"ｿﾝｴﾝｼﾞ","pref":"大阪府","city":"枚方市","address":"尊延寺"},
{"zip_code":"5730035","kana_pref":"ｵｵｻｶﾌ","kana_city":"ﾋﾗｶﾀｼ","kana_address":"ﾀｶﾂｶﾁｮｳ","pref":"大阪府","city":"枚方市","address":"高塚町"},
{"zip_code":"5731162","kana_pref":"ｵｵｻｶﾌ","kana_city":"ﾋﾗｶﾀｼ","kana_address":"ﾀｸﾞﾁ","pref":"大阪府","city":"枚方市","address":"田口"},
{"zip_code":"5730001","kana_pref":"ｵｵｻｶﾌ","kana_city":"ﾋﾗｶﾀｼ","kana_address":"ﾀｸﾞﾁﾔﾏ","pref":"大阪府","city":"枚方市","address":"田口山"},
{"zip_code":"5730024","kana_pref":"ｵｵｻｶﾌ","kana_city":"ﾋﾗｶﾀｼ","kana_address":"ﾀﾐﾔﾎﾝﾏﾁ","pref":"大阪府","city":"枚方市","address":"田宮本町"},
{"zip_code":"5730123","kana_pref":"ｵｵｻｶﾌ","kana_city":"ﾋﾗｶﾀｼ","kana_address":"ﾂﾀﾞ","pref":"大阪府","city":"枚方市","address":"津田"},
{"zip_code":"5730125","kana_pref":"ｵｵｻｶﾌ","kana_city":"ﾋﾗｶﾀｼ","kana_address":"ﾂﾀﾞｴｷﾏｴ","pref":"大阪府","city":"枚方市","address":"津田駅前"},
{"zip_code":"5730122","kana_pref":"ｵｵｻｶﾌ","kana_city":"ﾋﾗｶﾀｼ","kana_address":"ﾂﾀﾞﾋｶﾞｼﾏﾁ","pref":"大阪府","city":"枚方市","address":"津田東町"},
{"zip_code":"5730126","kana_pref":"ｵｵｻｶﾌ","kana_city":"ﾋﾗｶﾀｼ","kana_address":"ﾂﾀﾞﾆｼﾏﾁ","pref":"大阪府","city":"枚方市","address":"津田西町"},
{"zip_code":"5730124","kana_pref":"ｵｵｻｶﾌ","kana_city":"ﾋﾗｶﾀｼ","kana_address":"ﾂﾀﾞﾐﾅﾐﾏﾁ","pref":"大阪府","city":"枚方市","address":"津田南町"},
{"zip_code":"5730121","kana_pref":"ｵｵｻｶﾌ","kana_city":"ﾋﾗｶﾀｼ","kana_address":"ﾂﾀﾞｷﾀﾏﾁ","pref":"大阪府","city":"枚方市","address":"津田北町"},
{"zip_code":"5730127","kana_pref":"ｵｵｻｶﾌ","kana_city":"ﾋﾗｶﾀｼ","kana_address":"ﾂﾀﾞﾓﾄﾏﾁ","pref":"大阪府","city":"枚方市","address":"津田元町"},
{"zip_code":"5730128","kana_pref":"ｵｵｻｶﾌ","kana_city":"ﾋﾗｶﾀｼ","kana_address":"ﾂﾀﾞﾔﾏﾃ","pref":"大阪府","city":"枚方市","address":"津田山手"},
{"zip_code":"5730057","kana_pref":"ｵｵｻｶﾌ","kana_city":"ﾋﾗｶﾀｼ","kana_address":"ﾂﾂﾐﾁｮｳ","pref":"大阪府","city":"枚方市","address":"堤町"},
{"zip_code":"5730065","kana_pref":"ｵｵｻｶﾌ","kana_city":"ﾋﾗｶﾀｼ","kana_address":"ﾃﾞｸﾞﾁ","pref":"大阪府","city":"枚方市","address":"出口"},
{"zip_code":"5730003","kana_pref":"ｵｵｻｶﾌ","kana_city":"ﾋﾗｶﾀｼ","kana_address":"ﾃﾞﾔｼｷﾆｼﾏﾁ","pref":"大阪府","city":"枚方市","address":"出屋敷西町"},
{"zip_code":"5730002","kana_pref":"ｵｵｻｶﾌ","kana_city":"ﾋﾗｶﾀｼ","kana_address":"ﾃﾞﾔｼｷﾓﾄﾏﾁ","pref":"大阪府","city":"枚方市","address":"出屋敷元町"},
{"zip_code":"5730045","kana_pref":"ｵｵｻｶﾌ","kana_city":"ﾋﾗｶﾀｼ","kana_address":"ﾄｳﾀﾞﾁｮｳ","pref":"大阪府","city":"枚方市","address":"藤田町"},
{"zip_code":"5730007","kana_pref":"ｵｵｻｶﾌ","kana_city":"ﾋﾗｶﾀｼ","kana_address":"ﾄﾞｳﾔﾏ","pref":"大阪府","city":"枚方市","address":"堂山"},
{"zip_code":"5730006","kana_pref":"ｵｵｻｶﾌ","kana_city":"ﾋﾗｶﾀｼ","kana_address":"ﾄﾞｳﾔﾏﾋｶﾞｼﾏﾁ","pref":"大阪府","city":"枚方市","address":"堂山東町"},
{"zip_code":"5730004","kana_pref":"ｵｵｻｶﾌ","kana_city":"ﾋﾗｶﾀｼ","kana_address":"ﾅｶﾐﾔｵｵｲｹ","pref":"大阪府","city":"枚方市","address":"中宮大池"},
{"zip_code":"5731194","kana_pref":"ｵｵｻｶﾌ","kana_city":"ﾋﾗｶﾀｼ","kana_address":"ﾅｶﾐﾔｷﾀﾏﾁ","pref":"大阪府","city":"枚方市","address":"中宮北町"},
{"zip_code":"5731195","kana_pref":"ｵｵｻｶﾌ","kana_city":"ﾋﾗｶﾀｼ","kana_address":"ﾅｶﾐﾔﾋｶﾞｼﾉﾁｮｳ","pref":"大阪府","city":"枚方市","address":"中宮東之町"},
{"zip_code":"5730021","kana_pref":"ｵｵｻｶﾌ","kana_city":"ﾋﾗｶﾀｼ","kana_address":"ﾅｶﾐﾔﾆｼﾉﾁｮｳ","pref":"大阪府","city":"枚方市","address":"中宮西之町"},
{"zip_code":"5731196","kana_pref":"ｵｵｻｶﾌ","kana_city":"ﾋﾗｶﾀｼ","kana_address":"ﾅｶﾐﾔﾎﾝﾏﾁ","pref":"大阪府","city":"枚方市","address":"中宮本町"},
{"zip_code":"5730011","kana_pref":"ｵｵｻｶﾌ","kana_city":"ﾋﾗｶﾀｼ","kana_address":"ﾅｶﾐﾔﾔﾏﾄﾁｮｳ","pref":"大阪府","city":"枚方市","address":"中宮山戸町"},
{"zip_code":"5730103","kana_pref":"ｵｵｻｶﾌ","kana_city":"ﾋﾗｶﾀｼ","kana_address":"ﾅｶﾞｵｱﾗｻｶ","pref":"大阪府","city":"枚方市","address":"長尾荒阪"},
{"zip_code":"5730102","kana_pref":"ｵｵｻｶﾌ","kana_city":"ﾋﾗｶﾀｼ","kana_address":"ﾅｶﾞｵｶｸﾞﾏﾁ","pref":"大阪府","city":"枚方市","address":"長尾家具町"},
{"zip_code":"5730164","kana_pref":"ｵｵｻｶﾌ","kana_city":"ﾋﾗｶﾀｼ","kana_address":"ﾅｶﾞｵﾀﾆﾏﾁ","pref":"大阪府","city":"枚方市","address":"長尾谷町"},
{"zip_code":"5730101","kana_pref":"ｵｵｻｶﾌ","kana_city":"ﾋﾗｶﾀｼ","kana_address":"ﾅｶﾞｵﾄｳｹﾞﾁｮｳ","pref":"大阪府","city":"枚方市","address":"長尾峠町"},
{"zip_code":"5730104","kana_pref":"ｵｵｻｶﾌ","kana_city":"ﾋﾗｶﾀｼ","kana_address":"ﾅｶﾞｵﾊﾘﾏﾀﾞﾆ","pref":"大阪府","city":"枚方市","address":"長尾播磨谷"},
{"zip_code":"5730105","kana_pref":"ｵｵｻｶﾌ","kana_city":"ﾋﾗｶﾀｼ","kana_address":"ﾅｶﾞｵﾋｶﾞｼﾏﾁ","pref":"大阪府","city":"枚方市","address":"長尾東町"},
{"zip_code":"5730162","kana_pref":"ｵｵｻｶﾌ","kana_city":"ﾋﾗｶﾀｼ","kana_address":"ﾅｶﾞｵﾆｼﾏﾁ","pref":"大阪府","city":"枚方市","address":"長尾西町"},
{"zip_code":"5730161","kana_pref":"ｵｵｻｶﾌ","kana_city":"ﾋﾗｶﾀｼ","kana_address":"ﾅｶﾞｵｷﾀﾏﾁ","pref":"大阪府","city":"枚方市","address":"長尾北町"},
{"zip_code":"5730107","kana_pref":"ｵｵｻｶﾌ","kana_city":"ﾋﾗｶﾀｼ","kana_address":"ﾅｶﾞｵﾐﾔﾏｴ","pref":"大阪府","city":"枚方市","address":"長尾宮前"},
{"zip_code":"5730163","kana_pref":"ｵｵｻｶﾌ","kana_city":"ﾋﾗｶﾀｼ","kana_address":"ﾅｶﾞｵﾓﾄﾏﾁ","pref":"大阪府","city":"枚方市","address":"長尾元町"},
{"zip_code":"5730106","kana_pref":"ｵｵｻｶﾌ","kana_city":"ﾋﾗｶﾀｼ","kana_address":"ﾅｶﾞｵﾀﾞｲ","pref":"大阪府","city":"枚方市","address":"長尾台"},
{"zip_code":"5731147","kana_pref":"ｵｵｻｶﾌ","kana_city":"ﾋﾗｶﾀｼ","kana_address":"ﾅｷﾞｻｳﾁﾉ","pref":"大阪府","city":"枚方市","address":"渚内野"},
{"zip_code":"5731172","kana_pref":"ｵｵｻｶﾌ","kana_city":"ﾋﾗｶﾀｼ","kana_address":"ﾅｷﾞｻｻｶｴﾏﾁ","pref":"大阪府","city":"枚方市","address":"渚栄町"},
{"zip_code":"5731181","kana_pref":"ｵｵｻｶﾌ","kana_city":"ﾋﾗｶﾀｼ","kana_address":"ﾅｷﾞｻﾎﾝﾏﾁ","pref":"大阪府","city":"枚方市","address":"渚本町"},
{"zip_code":"5731176","kana_pref":"ｵｵｻｶﾌ","kana_city":"ﾋﾗｶﾀｼ","kana_address":"ﾅｷﾞｻﾋｶﾞｼﾏﾁ","pref":"大阪府","city":"枚方市","address":"渚東町"},
{"zip_code":"5731183","kana_pref":"ｵｵｻｶﾌ","kana_city":"ﾋﾗｶﾀｼ","kana_address":"ﾅｷﾞｻﾐﾅﾐﾏﾁ","pref":"大阪府","city":"枚方市","address":"渚南町"},
{"zip_code":"5731177","kana_pref":"ｵｵｻｶﾌ","kana_city":"ﾋﾗｶﾀｼ","kana_address":"ﾅｷﾞｻﾓﾄﾏﾁ","pref":"大阪府","city":"枚方市","address":"渚元町"},
{"zip_code":"5731178","kana_pref":"ｵｵｻｶﾌ","kana_city":"ﾋﾗｶﾀｼ","kana_address":"ﾅｷﾞｻﾆｼ","pref":"大阪府","city":"枚方市","address":"渚西"},
{"zip_code":"5730071","kana_pref":"ｵｵｻｶﾌ","kana_city":"ﾋﾗｶﾀｼ","kana_address":"ﾅｽﾂﾞｸﾘ","pref":"大阪府","city":"枚方市","address":"茄子作"},
{"zip_code":"5730082","kana_pref":"ｵｵｻｶﾌ","kana_city":"ﾋﾗｶﾀｼ","kana_address":"ﾅｽﾂﾞｸﾘﾋｶﾞｼﾏﾁ","pref":"大阪府","city":"枚方市","address":"茄子作東町"},
{"zip_code":"5730072","kana_pref":"ｵｵｻｶﾌ","kana_city":"ﾋﾗｶﾀｼ","kana_address":"ﾅｽﾂﾞｸﾘﾐﾅﾐﾏﾁ","pref":"大阪府","city":"枚方市","address":"茄子作南町"},
{"zip_code":"5730083","kana_pref":"ｵｵｻｶﾌ","kana_city":"ﾋﾗｶﾀｼ","kana_address":"ﾅｽﾂﾞｸﾘｷﾀﾏﾁ","pref":"大阪府","city":"枚方市","address":"茄子作北町"},
{"zip_code":"5731192","kana_pref":"ｵｵｻｶﾌ","kana_city":"ﾋﾗｶﾀｼ","kana_address":"ﾆｼｷﾝﾔ","pref":"大阪府","city":"枚方市","address":"西禁野"},
{"zip_code":"5731137","kana_pref":"ｵｵｻｶﾌ","kana_city":"ﾋﾗｶﾀｼ","kana_address":"ﾆｼｼｮｳﾀﾞｲﾁｮｳ","pref":"大阪府","city":"枚方市","address":"西招提町"},
{"zip_code":"5730025","kana_pref":"ｵｵｻｶﾌ","kana_city":"ﾋﾗｶﾀｼ","kana_address":"ﾆｼﾀﾐﾔﾁｮｳ","pref":"大阪府","city":"枚方市","address":"西田宮町"},
{"zip_code":"5731122","kana_pref":"ｵｵｻｶﾌ","kana_city":"ﾋﾗｶﾀｼ","kana_address":"ﾆｼﾌﾅﾊｼ","pref":"大阪府","city":"枚方市","address":"西船橋"},
{"zip_code":"5731148","kana_pref":"ｵｵｻｶﾌ","kana_city":"ﾋﾗｶﾀｼ","kana_address":"ﾆｼﾏｷﾉ","pref":"大阪府","city":"枚方市","address":"西牧野"},
{"zip_code":"5730144","kana_pref":"ｵｵｻｶﾌ","kana_city":"ﾋﾗｶﾀｼ","kana_address":"ﾉﾑﾗﾅｶﾏﾁ","pref":"大阪府","city":"枚方市","address":"野村中町"},
{"zip_code":"5730133","kana_pref":"ｵｵｻｶﾌ","kana_city":"ﾋﾗｶﾀｼ","kana_address":"ﾉﾑﾗﾐﾅﾐﾏﾁ","pref":"大阪府","city":"枚方市","address":"野村南町"},
{"zip_code":"5730143","kana_pref":"ｵｵｻｶﾌ","kana_city":"ﾋﾗｶﾀｼ","kana_address":"ﾉﾑﾗｷﾀﾏﾁ","pref":"大阪府","city":"枚方市","address":"野村北町"},
{"zip_code":"5730132","kana_pref":"ｵｵｻｶﾌ","kana_city":"ﾋﾗｶﾀｼ","kana_address":"ﾉﾑﾗﾓﾄﾏﾁ","pref":"大阪府","city":"枚方市","address":"野村元町"},
{"zip_code":"5730063","kana_pref":"ｵｵｻｶﾌ","kana_city":"ﾋﾗｶﾀｼ","kana_address":"ﾊｼﾘﾀﾞﾆ","pref":"大阪府","city":"枚方市","address":"走谷"},
{"zip_code":"5730075","kana_pref":"ｵｵｻｶﾌ","kana_city":"ﾋﾗｶﾀｼ","kana_address":"ﾋｶﾞｼｺｳﾘ","pref":"大阪府","city":"枚方市","address":"東香里"},
{"zip_code":"5730077","kana_pref":"ｵｵｻｶﾌ","kana_city":"ﾋﾗｶﾀｼ","kana_address":"ﾋｶﾞｼｺｳﾘｼﾝﾏﾁ","pref":"大阪府","city":"枚方市","address":"東香里新町"},
{"zip_code":"5730074","kana_pref":"ｵｵｻｶﾌ","kana_city":"ﾋﾗｶﾀｼ","kana_address":"ﾋｶﾞｼｺｳﾘﾐﾅﾐﾏﾁ","pref":"大阪府","city":"枚方市","address":"東香里南町"},
{"zip_code":"5730076","kana_pref":"ｵｵｻｶﾌ","kana_city":"ﾋﾗｶﾀｼ","kana_address":"ﾋｶﾞｼｺｳﾘﾓﾄﾏﾁ","pref":"大阪府","city":"枚方市","address":"東香里元町"},
{"zip_code":"5730023","kana_pref":"ｵｵｻｶﾌ","kana_city":"ﾋﾗｶﾀｼ","kana_address":"ﾋｶﾞｼﾀﾐﾔ","pref":"大阪府","city":"枚方市","address":"東田宮"},
{"zip_code":"5730044","kana_pref":"ｵｵｻｶﾌ","kana_city":"ﾋﾗｶﾀｼ","kana_address":"ﾋｶﾞｼﾄｳﾀﾞﾁｮｳ","pref":"大阪府","city":"枚方市","address":"東藤田町"},
{"zip_code":"5730093","kana_pref":"ｵｵｻｶﾌ","kana_city":"ﾋﾗｶﾀｼ","kana_address":"ﾋｶﾞｼﾅｶﾌﾞﾘ","pref":"大阪府","city":"枚方市","address":"東中振"},
{"zip_code":"5731115","kana_pref":"ｵｵｻｶﾌ","kana_city":"ﾋﾗｶﾀｼ","kana_address":"ﾋｶﾞｼﾌﾅﾊｼ","pref":"大阪府","city":"枚方市","address":"東船橋"},
{"zip_code":"5731151","kana_pref":"ｵｵｻｶﾌ","kana_city":"ﾋﾗｶﾀｼ","kana_address":"ﾋｶﾞｼﾏｷﾉﾁｮｳ","pref":"大阪府","city":"枚方市","address":"東牧野町"},
{"zip_code":"5731114","kana_pref":"ｵｵｻｶﾌ","kana_city":"ﾋﾗｶﾀｼ","kana_address":"ﾋｶﾞｼﾔﾏ","pref":"大阪府","city":"枚方市","address":"東山"},
{"zip_code":"5731128","kana_pref":"ｵｵｻｶﾌ","kana_city":"ﾋﾗｶﾀｼ","kana_address":"ﾋﾉｳｴﾁｮｳ","pref":"大阪府","city":"枚方市","address":"樋之上町"},
{"zip_code":"5730115","kana_pref":"ｵｵｻｶﾌ","kana_city":"ﾋﾗｶﾀｼ","kana_address":"ﾋﾑﾛﾀﾞｲ","pref":"大阪府","city":"枚方市","address":"氷室台"},
{"zip_code":"5730037","kana_pref":"ｵｵｻｶﾌ","kana_city":"ﾋﾗｶﾀｼ","kana_address":"ﾋﾗｶﾀｶﾐﾉﾁｮｳ","pref":"大阪府","city":"枚方市","address":"枚方上之町"},
{"zip_code":"5730054","kana_pref":"ｵｵｻｶﾌ","kana_city":"ﾋﾗｶﾀｼ","kana_address":"ﾋﾗｶﾀｺｳｴﾝﾁｮｳ","pref":"大阪府","city":"枚方市","address":"枚方公園町"},
{"zip_code":"5730052","kana_pref":"ｵｵｻｶﾌ","kana_city":"ﾋﾗｶﾀｼ","kana_address":"ﾋﾗｶﾀﾓﾄﾏﾁ","pref":"大阪府","city":"枚方市","address":"枚方元町"},
{"zip_code":"5730155","kana_pref":"ｵｵｻｶﾌ","kana_city":"ﾋﾗｶﾀｼ","kana_address":"ﾌｼﾞｻｶﾃﾝｼﾞﾝﾁｮｳ","pref":"大阪府","city":"枚方市","address":"藤阪天神町"},
{"zip_code":"5730152","kana_pref":"ｵｵｻｶﾌ","kana_city":"ﾋﾗｶﾀｼ","kana_address":"ﾌｼﾞｻｶﾅｶﾏﾁ","pref":"大阪府","city":"枚方市","address":"藤阪中町"},
{"zip_code":"5730153","kana_pref":"ｵｵｻｶﾌ","kana_city":"ﾋﾗｶﾀｼ","kana_address":"ﾌｼﾞｻｶﾋｶﾞｼﾏﾁ","pref":"大阪府","city":"枚方市","address":"藤阪東町"},
{"zip_code":"5730158","kana_pref":"ｵｵｻｶﾌ","kana_city":"ﾋﾗｶﾀｼ","kana_address":"ﾌｼﾞｻｶﾆｼﾏﾁ","pref":"大阪府","city":"枚方市","address":"藤阪西町"},
{"zip_code":"5730156","kana_pref":"ｵｵｻｶﾌ","kana_city":"ﾋﾗｶﾀｼ","kana_address":"ﾌｼﾞｻｶﾐﾅﾐﾏﾁ","pref":"大阪府","city":"枚方市","address":"藤阪南町"},
{"zip_code":"5730151","kana_pref":"ｵｵｻｶﾌ","kana_city":"ﾋﾗｶﾀｼ","kana_address":"ﾌｼﾞｻｶｷﾀﾏﾁ","pref":"大阪府","city":"枚方市","address":"藤阪北町"},
{"zip_code":"5730157","kana_pref":"ｵｵｻｶﾌ","kana_city":"ﾋﾗｶﾀｼ","kana_address":"ﾌｼﾞｻｶﾓﾄﾏﾁ","pref":"大阪府","city":"枚方市","address":"藤阪元町"},
{"zip_code":"5731116","kana_pref":"ｵｵｻｶﾌ","kana_city":"ﾋﾗｶﾀｼ","kana_address":"ﾌﾅﾊｼﾎﾝﾏﾁ","pref":"大阪府","city":"枚方市","address":"船橋本町"},
{"zip_code":"5730013","kana_pref":"ｵｵｻｶﾌ","kana_city":"ﾋﾗｶﾀｼ","kana_address":"ﾎｼｶﾞｵｶ","pref":"大阪府","city":"枚方市","address":"星丘"},
{"zip_code":"5730114","kana_pref":"ｵｵｻｶﾌ","kana_city":"ﾋﾗｶﾀｼ","kana_address":"ﾎﾀﾆ","pref":"大阪府","city":"枚方市","address":"穂谷"},
{"zip_code":"5731149","kana_pref":"ｵｵｻｶﾌ","kana_city":"ﾋﾗｶﾀｼ","kana_address":"ﾏｷﾉｷﾀﾏﾁ","pref":"大阪府","city":"枚方市","address":"牧野北町"},
{"zip_code":"5731146","kana_pref":"ｵｵｻｶﾌ","kana_city":"ﾋﾗｶﾀｼ","kana_address":"ﾏｷﾉｻｶ","pref":"大阪府","city":"枚方市","address":"牧野阪"},
{"zip_code":"5731142","kana_pref":"ｵｵｻｶﾌ","kana_city":"ﾋﾗｶﾀｼ","kana_address":"ﾏｷﾉｼﾓｼﾞﾏﾁｮｳ","pref":"大阪府","city":"枚方市","address":"牧野下島町"},
{"zip_code":"5731144","kana_pref":"ｵｵｻｶﾌ","kana_city":"ﾋﾗｶﾀｼ","kana_address":"ﾏｷﾉﾎﾝﾏﾁ","pref":"大阪府","city":"枚方市","address":"牧野本町"},
{"zip_code":"5731106","kana_pref":"ｵｵｻｶﾌ","kana_city":"ﾋﾗｶﾀｼ","kana_address":"ﾏﾁｸｽﾞﾊ","pref":"大阪府","city":"枚方市","address":"町楠葉"},
{"zip_code":"5730012","kana_pref":"ｵｵｻｶﾌ","kana_city":"ﾋﾗｶﾀｼ","kana_address":"ﾏﾂｶﾞｵｶﾁｮｳ","pref":"大阪府","city":"枚方市","address":"松丘町"},
{"zip_code":"5730051","kana_pref":"ｵｵｻｶﾌ","kana_city":"ﾋﾗｶﾀｼ","kana_address":"ﾐﾂﾔﾁｮｳ","pref":"大阪府","city":"枚方市","address":"三矢町"},
{"zip_code":"5731105","kana_pref":"ｵｵｻｶﾌ","kana_city":"ﾋﾗｶﾀｼ","kana_address":"ﾐﾅﾐｸｽﾞﾊ","pref":"大阪府","city":"枚方市","address":"南楠葉"},
{"zip_code":"5730094","kana_pref":"ｵｵｻｶﾌ","kana_city":"ﾋﾗｶﾀｼ","kana_address":"ﾐﾅﾐﾅｶﾌﾞﾘ","pref":"大阪府","city":"枚方市","address":"南中振"},
{"zip_code":"5731123","kana_pref":"ｵｵｻｶﾌ","kana_city":"ﾋﾗｶﾀｼ","kana_address":"ﾐﾅﾐﾌﾅﾊｼ","pref":"大阪府","city":"枚方市","address":"南船橋"},
{"zip_code":"5731165","kana_pref":"ｵｵｻｶﾌ","kana_city":"ﾋﾗｶﾀｼ","kana_address":"ﾐﾔｺｶﾞｵｶﾁｮｳ","pref":"大阪府","city":"枚方市","address":"都丘町"},
{"zip_code":"5730022","kana_pref":"ｵｵｻｶﾌ","kana_city":"ﾋﾗｶﾀｼ","kana_address":"ﾐﾔﾉｻｶ","pref":"大阪府","city":"枚方市","address":"宮之阪"},
{"zip_code":"5730046","kana_pref":"ｵｵｻｶﾌ","kana_city":"ﾋﾗｶﾀｼ","kana_address":"ﾐﾔﾉｼﾀﾁｮｳ","pref":"大阪府","city":"枚方市","address":"宮之下町"},
{"zip_code":"5730014","kana_pref":"ｵｵｻｶﾌ","kana_city":"ﾋﾗｶﾀｼ","kana_address":"ﾑﾗﾉﾀｶﾐﾀﾞｲ","pref":"大阪府","city":"枚方市","address":"村野高見台"},
{"zip_code":"5730015","kana_pref":"ｵｵｻｶﾌ","kana_city":"ﾋﾗｶﾀｼ","kana_address":"ﾑﾗﾉﾋｶﾞｼﾏﾁ","pref":"大阪府","city":"枚方市","address":"村野東町"},
{"zip_code":"5730042","kana_pref":"ｵｵｻｶﾌ","kana_city":"ﾋﾗｶﾀｼ","kana_address":"ﾑﾗﾉﾆｼﾏﾁ","pref":"大阪府","city":"枚方市","address":"村野西町"},
{"zip_code":"5730043","kana_pref":"ｵｵｻｶﾌ","kana_city":"ﾋﾗｶﾀｼ","kana_address":"ﾑﾗﾉﾐﾅﾐﾏﾁ","pref":"大阪府","city":"枚方市","address":"村野南町"},
{"zip_code":"5730016","kana_pref":"ｵｵｻｶﾌ","kana_city":"ﾋﾗｶﾀｼ","kana_address":"ﾑﾗﾉﾎﾝﾏﾁ","pref":"大阪府","city":"枚方市","address":"村野本町"},
{"zip_code":"5731171","kana_pref":"ｵｵｻｶﾌ","kana_city":"ﾋﾗｶﾀｼ","kana_address":"ﾒｸﾞﾘ","pref":"大阪府","city":"枚方市","address":"三栗"},
{"zip_code":"5731124","kana_pref":"ｵｵｻｶﾌ","kana_city":"ﾋﾗｶﾀｼ","kana_address":"ﾔﾌﾞﾋｶﾞｼﾏﾁ","pref":"大阪府","city":"枚方市","address":"養父東町"},
{"zip_code":"5731141","kana_pref":"ｵｵｻｶﾌ","kana_city":"ﾋﾗｶﾀｼ","kana_address":"ﾔﾌﾞﾆｼﾏﾁ","pref":"大阪府","city":"枚方市","address":"養父西町"},
{"zip_code":"5731125","kana_pref":"ｵｵｻｶﾌ","kana_city":"ﾋﾗｶﾀｼ","kana_address":"ﾔﾌﾞﾓﾄﾏﾁ","pref":"大阪府","city":"枚方市","address":"養父元町"},
{"zip_code":"5731134","kana_pref":"ｵｵｻｶﾌ","kana_city":"ﾋﾗｶﾀｼ","kana_address":"ﾔﾌﾞｶﾞｵｶ","pref":"大阪府","city":"枚方市","address":"養父丘"},
{"zip_code":"5730167","kana_pref":"ｵｵｻｶﾌ","kana_city":"ﾋﾗｶﾀｼ","kana_address":"ﾔﾏﾀﾞｲｹｺｳｴﾝ","pref":"大阪府","city":"枚方市","address":"山田池公園"},
{"zip_code":"5730165","kana_pref":"ｵｵｻｶﾌ","kana_city":"ﾋﾗｶﾀｼ","kana_address":"ﾔﾏﾀﾞｲｹﾋｶﾞｼﾏﾁ","pref":"大阪府","city":"枚方市","address":"山田池東町"},
{"zip_code":"5730168","kana_pref":"ｵｵｻｶﾌ","kana_city":"ﾋﾗｶﾀｼ","kana_address":"ﾔﾏﾀﾞｲｹﾐﾅﾐﾏﾁ","pref":"大阪府","city":"枚方市","address":"山田池南町"},
{"zip_code":"5730166","kana_pref":"ｵｵｻｶﾌ","kana_city":"ﾋﾗｶﾀｼ","kana_address":"ﾔﾏﾀﾞｲｹｷﾀﾏﾁ","pref":"大阪府","city":"枚方市","address":"山田池北町"},
{"zip_code":"5730047","kana_pref":"ｵｵｻｶﾌ","kana_city":"ﾋﾗｶﾀｼ","kana_address":"ﾔﾏﾉｳｴ","pref":"大阪府","city":"枚方市","address":"山之上"},
{"zip_code":"5730041","kana_pref":"ｵｵｻｶﾌ","kana_city":"ﾋﾗｶﾀｼ","kana_address":"ﾔﾏﾉｳｴﾋｶﾞｼﾏﾁ","pref":"大阪府","city":"枚方市","address":"山之上東町"},
{"zip_code":"5730048","kana_pref":"ｵｵｻｶﾌ","kana_city":"ﾋﾗｶﾀｼ","kana_address":"ﾔﾏﾉｳｴﾆｼﾏﾁ","pref":"大阪府","city":"枚方市","address":"山之上西町"},
{"zip_code":"5730049","kana_pref":"ｵｵｻｶﾌ","kana_city":"ﾋﾗｶﾀｼ","kana_address":"ﾔﾏﾉｳｴｷﾀﾏﾁ","pref":"大阪府","city":"枚方市","address":"山之上北町"},
{"zip_code":"5730154","kana_pref":"ｵｵｻｶﾌ","kana_city":"ﾋﾗｶﾀｼ","kana_address":"ﾜﾆｺｳｴﾝ","pref":"大阪府","city":"枚方市","address":"王仁公園"}]}