{"zip_code":[
{"zip_code":"5740000","kana_pref":"ｵｵｻｶﾌ","kana_city":"ﾀﾞｲﾄｳｼ","kana_address":"","pref":"大阪府","city":"大東市","address":""},
{"zip_code":"5740046","kana_pref":"ｵｵｻｶﾌ","kana_city":"ﾀﾞｲﾄｳｼ","kana_address":"ｱｶｲ","pref":"大阪府","city":"大東市","address":"赤井"},
{"zip_code":"5740076","kana_pref":"ｵｵｻｶﾌ","kana_city":"ﾀﾞｲﾄｳｼ","kana_address":"ｱｹﾎﾞﾉﾁｮｳ","pref":"大阪府","city":"大東市","address":"曙町"},
{"zip_code":"5740003","kana_pref":"ｵｵｻｶﾌ","kana_city":"ﾀﾞｲﾄｳｼ","kana_address":"ｱｹﾐﾉｻﾄﾁｮｳ","pref":"大阪府","city":"大東市","address":"明美の里町"},
{"zip_code":"5740024","kana_pref":"ｵｵｻｶﾌ","kana_city":"ﾀﾞｲﾄｳｼ","kana_address":"ｲｽﾞﾐﾏﾁ","pref":"大阪府","city":"大東市","address":"泉町"},
{"zip_code":"5740032","kana_pref":"ｵｵｻｶﾌ","kana_city":"ﾀﾞｲﾄｳｼ","kana_address":"ｴｲﾜﾁｮｳ","pref":"大阪府","city":"大東市","address":"栄和町"},
{"zip_code":"5740033","kana_pref":"ｵｵｻｶﾌ","kana_city":"ﾀﾞｲﾄｳｼ","kana_address":"ｵｳｷﾞﾏﾁ","pref":"大阪府","city":"大東市","address":"扇町"},
{"zip_code":"5740042","kana_pref":"ｵｵｻｶﾌ","kana_city":"ﾀﾞｲﾄｳｼ","kana_address":"ｵｵﾉ","pref":"大阪府","city":"大東市","address":"大野"},
{"zip_code":"5740001","kana_pref":"ｵｵｻｶﾌ","kana_city":"ﾀﾞｲﾄｳｼ","kana_address":"ｶﾞｸｴﾝﾁｮｳ","pref":"大阪府","city":"大東市","address":"学園町"},
{"zip_code":"5740031","kana_pref":"ｵｵｻｶﾌ","kana_city":"ﾀﾞｲﾄｳｼ","kana_address":"ｶﾜﾅｶｼﾝﾏﾁ","pref":"大阪府","city":"大東市","address":"川中新町"},
{"zip_code":"5740007","kana_pref":"ｵｵｻｶﾌ","kana_city":"ﾀﾞｲﾄｳｼ","kana_address":"ｷﾀｸｽﾉｻﾄﾁｮｳ","pref":"大阪府","city":"大東市","address":"北楠の里町"},
{"zip_code":"5740008","kana_pref":"ｵｵｻｶﾌ","kana_city":"ﾀﾞｲﾄｳｼ","kana_address":"ｷﾀｼﾝﾏﾁ","pref":"大阪府","city":"大東市","address":"北新町"},
{"zip_code":"5740025","kana_pref":"ｵｵｻｶﾌ","kana_city":"ﾀﾞｲﾄｳｼ","kana_address":"ｺﾞｸﾃﾞﾝ","pref":"大阪府","city":"大東市","address":"御供田"},
{"zip_code":"5740064","kana_pref":"ｵｵｻｶﾌ","kana_city":"ﾀﾞｲﾄｳｼ","kana_address":"ｺﾞﾘｮｳ","pref":"大阪府","city":"大東市","address":"御領"},
{"zip_code":"5740028","kana_pref":"ｵｵｻｶﾌ","kana_city":"ﾀﾞｲﾄｳｼ","kana_address":"ｻｲﾜｲﾁｮｳ","pref":"大阪府","city":"大東市","address":"幸町"},
{"zip_code":"5740077","kana_pref":"ｵｵｻｶﾌ","kana_city":"ﾀﾞｲﾄｳｼ","kana_address":"ｻﾝｶﾞ","pref":"大阪府","city":"大東市","address":"三箇"},
{"zip_code":"5740035","kana_pref":"ｵｵｻｶﾌ","kana_city":"ﾀﾞｲﾄｳｼ","kana_address":"ｻﾝﾖｳﾁｮｳ","pref":"大阪府","city":"大東市","address":"三洋町"},
{"zip_code":"5740053","kana_pref":"ｵｵｻｶﾌ","kana_city":"ﾀﾞｲﾄｳｼ","kana_address":"ｼﾝﾃﾞﾝｱｻﾋﾏﾁ","pref":"大阪府","city":"大東市","address":"新田旭町"},
{"zip_code":"5740051","kana_pref":"ｵｵｻｶﾌ","kana_city":"ﾀﾞｲﾄｳｼ","kana_address":"ｼﾝﾃﾞﾝｻｶｲﾏﾁ","pref":"大阪府","city":"大東市","address":"新田境町"},
{"zip_code":"5740056","kana_pref":"ｵｵｻｶﾌ","kana_city":"ﾀﾞｲﾄｳｼ","kana_address":"ｼﾝﾃﾞﾝﾅｶﾏﾁ","pref":"大阪府","city":"大東市","address":"新田中町"},
{"zip_code":"5740057","kana_pref":"ｵｵｻｶﾌ","kana_city":"ﾀﾞｲﾄｳｼ","kana_address":"ｼﾝﾃﾞﾝﾆｼﾏﾁ","pref":"大阪府","city":"大東市","address":"新田西町"},
{"zip_code":"5740052","kana_pref":"ｵｵｻｶﾌ","kana_city":"ﾀﾞｲﾄｳｼ","kana_address":"ｼﾝﾃﾞﾝｷﾀﾏﾁ","pref":"大阪府","city":"大東市","address":"新田北町"},
{"zip_code":"5740054","kana_pref":"ｵｵｻｶﾌ","kana_city":"ﾀﾞｲﾄｳｼ","kana_address":"ｼﾝﾃﾞﾝﾋｶﾞｼﾎﾝﾏﾁ","pref":"大阪府","city":"大東市","address":"新田東本町"},
{"zip_code":"5740055","kana_pref":"ｵｵｻｶﾌ","kana_city":"ﾀﾞｲﾄｳｼ","kana_address":"ｼﾝﾃﾞﾝﾎﾝﾏﾁ","pref":"大阪府","city":"大東市","address":"新田本町"},
{"zip_code":"5740037","kana_pref":"ｵｵｻｶﾌ","kana_city":"ﾀﾞｲﾄｳｼ","kana_address":"ｼﾝﾏﾁ","pref":"大阪府","city":"大東市","address":"新町"},
{"zip_code":"5740036","kana_pref":"ｵｵｻｶﾌ","kana_city":"ﾀﾞｲﾄｳｼ","kana_address":"ｽｴﾋﾛﾁｮｳ","pref":"大阪府","city":"大東市","address":"末広町"},
{"zip_code":"5740026","kana_pref":"ｵｵｻｶﾌ","kana_city":"ﾀﾞｲﾄｳｼ","kana_address":"ｽﾐﾉﾄﾞｳ","pref":"大阪府","city":"大東市","address":"住道"},
{"zip_code":"5740061","kana_pref":"ｵｵｻｶﾌ","kana_city":"ﾀﾞｲﾄｳｼ","kana_address":"ﾀﾞｲﾄｳﾁｮｳ","pref":"大阪府","city":"大東市","address":"大東町"},
{"zip_code":"5740045","kana_pref":"ｵｵｻｶﾌ","kana_city":"ﾀﾞｲﾄｳｼ","kana_address":"ﾀｼﾃﾞﾝ","pref":"大阪府","city":"大東市","address":"太子田"},
{"zip_code":"5740012","kana_pref":"ｵｵｻｶﾌ","kana_city":"ﾀﾞｲﾄｳｼ","kana_address":"ﾀﾂﾏ","pref":"大阪府","city":"大東市","address":"龍間"},
{"zip_code":"5740074","kana_pref":"ｵｵｻｶﾌ","kana_city":"ﾀﾞｲﾄｳｼ","kana_address":"ﾀﾆｶﾞﾜ","pref":"大阪府","city":"大東市","address":"谷川"},
{"zip_code":"5740017","kana_pref":"ｵｵｻｶﾌ","kana_city":"ﾀﾞｲﾄｳｼ","kana_address":"ﾂﾉﾍﾞﾁｮｳ","pref":"大阪府","city":"大東市","address":"津の辺町"},
{"zip_code":"5740014","kana_pref":"ｵｵｻｶﾌ","kana_city":"ﾀﾞｲﾄｳｼ","kana_address":"ﾃﾗｶﾞﾜ","pref":"大阪府","city":"大東市","address":"寺川"},
{"zip_code":"5740013","kana_pref":"ｵｵｻｶﾌ","kana_city":"ﾀﾞｲﾄｳｼ","kana_address":"ﾅｶｶﾞｲﾄ","pref":"大阪府","city":"大東市","address":"中垣内"},
{"zip_code":"5740006","kana_pref":"ｵｵｻｶﾌ","kana_city":"ﾀﾞｲﾄｳｼ","kana_address":"ﾅｶｸｽﾉｻﾄﾁｮｳ","pref":"大阪府","city":"大東市","address":"中楠の里町"},
{"zip_code":"5740063","kana_pref":"ｵｵｻｶﾌ","kana_city":"ﾀﾞｲﾄｳｼ","kana_address":"ﾅﾝｺﾞｳﾁｮｳ","pref":"大阪府","city":"大東市","address":"南郷町"},
{"zip_code":"5740002","kana_pref":"ｵｵｻｶﾌ","kana_city":"ﾀﾞｲﾄｳｼ","kana_address":"ﾆｼｷﾁｮｳ","pref":"大阪府","city":"大東市","address":"錦町"},
{"zip_code":"5740005","kana_pref":"ｵｵｻｶﾌ","kana_city":"ﾀﾞｲﾄｳｼ","kana_address":"ﾆｼｸｽﾉｻﾄﾁｮｳ","pref":"大阪府","city":"大東市","address":"西楠の里町"},
{"zip_code":"5740015","kana_pref":"ｵｵｻｶﾌ","kana_city":"ﾀﾞｲﾄｳｼ","kana_address":"ﾉｻﾞｷ","pref":"大阪府","city":"大東市","address":"野崎"},
{"zip_code":"5740043","kana_pref":"ｵｵｻｶﾌ","kana_city":"ﾀﾞｲﾄｳｼ","kana_address":"ﾊｲﾂﾞｶ","pref":"大阪府","city":"大東市","address":"灰塚"},
{"zip_code":"5740041","kana_pref":"ｵｵｻｶﾌ","kana_city":"ﾀﾞｲﾄｳｼ","kana_address":"ﾊﾏﾏﾁ","pref":"大阪府","city":"大東市","address":"浜町"},
{"zip_code":"5740062","kana_pref":"ｵｵｻｶﾌ","kana_city":"ﾀﾞｲﾄｳｼ","kana_address":"ﾋﾉ","pref":"大阪府","city":"大東市","address":"氷野"},
{"zip_code":"5740022","kana_pref":"ｵｵｻｶﾌ","kana_city":"ﾀﾞｲﾄｳｼ","kana_address":"ﾋﾗﾉﾔ","pref":"大阪府","city":"大東市","address":"平野屋"},
{"zip_code":"5740021","kana_pref":"ｵｵｻｶﾌ","kana_city":"ﾀﾞｲﾄｳｼ","kana_address":"ﾋﾗﾉﾔｼﾝﾏﾁ","pref":"大阪府","city":"大東市","address":"平野屋新町"},
{"zip_code":"5740072","kana_pref":"ｵｵｻｶﾌ","kana_city":"ﾀﾞｲﾄｳｼ","kana_address":"ﾌｺﾉ","pref":"大阪府","city":"大東市","address":"深野"},
{"zip_code":"5740075","kana_pref":"ｵｵｻｶﾌ","kana_city":"ﾀﾞｲﾄｳｼ","kana_address":"ﾌｺﾉﾐﾅﾐﾁｮｳ","pref":"大阪府","city":"大東市","address":"深野南町"},
{"zip_code":"5740071","kana_pref":"ｵｵｻｶﾌ","kana_city":"ﾀﾞｲﾄｳｼ","kana_address":"ﾌｺﾉｷﾀ","pref":"大阪府","city":"大東市","address":"深野北"},
{"zip_code":"5740011","kana_pref":"ｵｵｻｶﾌ","kana_city":"ﾀﾞｲﾄｳｼ","kana_address":"ﾎｳｼﾞｮｳ","pref":"大阪府","city":"大東市","address":"北条"},
{"zip_code":"5740034","kana_pref":"ｵｵｻｶﾌ","kana_city":"ﾀﾞｲﾄｳｼ","kana_address":"ﾎｳﾗｲ","pref":"大阪府","city":"大東市","address":"朋来"},
{"zip_code":"5740027","kana_pref":"ｵｵｻｶﾌ","kana_city":"ﾀﾞｲﾄｳｼ","kana_address":"ﾐｽﾐﾁｮｳ","pref":"大阪府","city":"大東市","address":"三住町"},
{"zip_code":"5740073","kana_pref":"ｵｵｻｶﾌ","kana_city":"ﾀﾞｲﾄｳｼ","kana_address":"ﾐﾄﾞﾘｶﾞｵｶ","pref":"大阪府","city":"大東市","address":"緑が丘"},
{"zip_code":"5740004","kana_pref":"ｵｵｻｶﾌ","kana_city":"ﾀﾞｲﾄｳｼ","kana_address":"ﾐﾅﾐｸｽﾉｻﾄﾁｮｳ","pref":"大阪府","city":"大東市","address":"南楠の里町"},
{"zip_code":"5740023","kana_pref":"ｵｵｻｶﾌ","kana_city":"ﾀﾞｲﾄｳｼ","kana_address":"ﾐﾅﾐｼﾝﾃﾞﾝ","pref":"大阪府","city":"大東市","address":"南新田"},
{"zip_code":"5740016","kana_pref":"ｵｵｻｶﾌ","kana_city":"ﾀﾞｲﾄｳｼ","kana_address":"ﾐﾅﾐﾂﾉﾍﾞﾁｮｳ","pref":"大阪府","city":"大東市","address":"南津の辺町"},
{"zip_code":"5740044","kana_pref":"ｵｵｻｶﾌ","kana_city":"ﾀﾞｲﾄｳｼ","kana_address":"ﾓﾛﾌｸ","pref":"大阪府","city":"大東市","address":"諸福"}]}