{"zip_code":[
{"zip_code":"5750000","kana_pref":"ｵｵｻｶﾌ","kana_city":"ｼｼﾞｮｳﾅﾜﾃｼ","kana_address":"","pref":"大阪府","city":"四條畷市","address":""},
{"zip_code":"5750034","kana_pref":"ｵｵｻｶﾌ","kana_city":"ｼｼﾞｮｳﾅﾜﾃｼ","kana_address":"ｴｾﾋﾞﾁｮｳ","pref":"大阪府","city":"四條畷市","address":"江瀬美町"},
{"zip_code":"5750011","kana_pref":"ｵｵｻｶﾌ","kana_city":"ｼｼﾞｮｳﾅﾜﾃｼ","kana_address":"ｵｳｻｶ","pref":"大阪府","city":"四條畷市","address":"逢阪"},
{"zip_code":"5750004","kana_pref":"ｵｵｻｶﾌ","kana_city":"ｼｼﾞｮｳﾅﾜﾃｼ","kana_address":"ｵｶﾔﾏ","pref":"大阪府","city":"四條畷市","address":"岡山"},
{"zip_code":"5750002","kana_pref":"ｵｵｻｶﾌ","kana_city":"ｼｼﾞｮｳﾅﾜﾃｼ","kana_address":"ｵｶﾔﾏ","pref":"大阪府","city":"四條畷市","address":"岡山"},
{"zip_code":"5750003","kana_pref":"ｵｵｻｶﾌ","kana_city":"ｼｼﾞｮｳﾅﾜﾃｼ","kana_address":"ｵｶﾔﾏﾋｶﾞｼ","pref":"大阪府","city":"四條畷市","address":"岡山東"},
{"zip_code":"5750014","kana_pref":"ｵｵｻｶﾌ","kana_city":"ｼｼﾞｮｳﾅﾜﾃｼ","kana_address":"ｶﾐﾀﾜﾗ","pref":"大阪府","city":"四條畷市","address":"上田原"},
{"zip_code":"5750045","kana_pref":"ｵｵｻｶﾌ","kana_city":"ｼｼﾞｮｳﾅﾜﾃｼ","kana_address":"ｶﾘﾔﾆｼﾏﾁ","pref":"大阪府","city":"四條畷市","address":"雁屋西町"},
{"zip_code":"5750036","kana_pref":"ｵｵｻｶﾌ","kana_city":"ｼｼﾞｮｳﾅﾜﾃｼ","kana_address":"ｶﾘﾔﾐﾅﾐﾏﾁ","pref":"大阪府","city":"四條畷市","address":"雁屋南町"},
{"zip_code":"5750035","kana_pref":"ｵｵｻｶﾌ","kana_city":"ｼｼﾞｮｳﾅﾜﾃｼ","kana_address":"ｶﾘﾔｷﾀﾏﾁ","pref":"大阪府","city":"四條畷市","address":"雁屋北町"},
{"zip_code":"5750043","kana_pref":"ｵｵｻｶﾌ","kana_city":"ｼｼﾞｮｳﾅﾜﾃｼ","kana_address":"ｷﾀﾃﾞﾁｮｳ","pref":"大阪府","city":"四條畷市","address":"北出町"},
{"zip_code":"5750063","kana_pref":"ｵｵｻｶﾌ","kana_city":"ｼｼﾞｮｳﾅﾜﾃｼ","kana_address":"ｷﾖﾀｷ","pref":"大阪府","city":"四條畷市","address":"清瀧"},
{"zip_code":"5750062","kana_pref":"ｵｵｻｶﾌ","kana_city":"ｼｼﾞｮｳﾅﾜﾃｼ","kana_address":"ｷﾖﾀｷｼﾝﾏﾁ","pref":"大阪府","city":"四條畷市","address":"清滝新町"},
{"zip_code":"5750061","kana_pref":"ｵｵｻｶﾌ","kana_city":"ｼｼﾞｮｳﾅﾜﾃｼ","kana_address":"ｷﾖﾀｷﾅｶﾏﾁ","pref":"大阪府","city":"四條畷市","address":"清滝中町"},
{"zip_code":"5750032","kana_pref":"ｵｵｻｶﾌ","kana_city":"ｼｼﾞｮｳﾅﾜﾃｼ","kana_address":"ｺﾒｻﾞｷﾁｮｳ","pref":"大阪府","city":"四條畷市","address":"米崎町"},
{"zip_code":"5750015","kana_pref":"ｵｵｻｶﾌ","kana_city":"ｼｼﾞｮｳﾅﾜﾃｼ","kana_address":"ｻﾂｷｶﾞｵｶ","pref":"大阪府","city":"四條畷市","address":"さつきケ丘"},
{"zip_code":"5750031","kana_pref":"ｵｵｻｶﾌ","kana_city":"ｼｼﾞｮｳﾅﾜﾃｼ","kana_address":"ｼﾄﾐﾔ","pref":"大阪府","city":"四條畷市","address":"蔀屋"},
{"zip_code":"5750041","kana_pref":"ｵｵｻｶﾌ","kana_city":"ｼｼﾞｮｳﾅﾜﾃｼ","kana_address":"ｼﾄﾐﾔｼﾝﾏﾁ","pref":"大阪府","city":"四條畷市","address":"蔀屋新町"},
{"zip_code":"5750042","kana_pref":"ｵｵｻｶﾌ","kana_city":"ｼｼﾞｮｳﾅﾜﾃｼ","kana_address":"ｼﾄﾐﾔﾎﾝﾏﾁ","pref":"大阪府","city":"四條畷市","address":"蔀屋本町"},
{"zip_code":"5750012","kana_pref":"ｵｵｻｶﾌ","kana_city":"ｼｼﾞｮｳﾅﾜﾃｼ","kana_address":"ｼﾓﾀﾜﾗ","pref":"大阪府","city":"四條畷市","address":"下田原"},
{"zip_code":"5750001","kana_pref":"ｵｵｻｶﾌ","kana_city":"ｼｼﾞｮｳﾅﾜﾃｼ","kana_address":"ｽﾅ","pref":"大阪府","city":"四條畷市","address":"砂"},
{"zip_code":"5750013","kana_pref":"ｵｵｻｶﾌ","kana_city":"ｼｼﾞｮｳﾅﾜﾃｼ","kana_address":"ﾀﾜﾗﾀﾞｲ","pref":"大阪府","city":"四條畷市","address":"田原台"},
{"zip_code":"5750024","kana_pref":"ｵｵｻｶﾌ","kana_city":"ｼｼﾞｮｳﾅﾜﾃｼ","kana_address":"ﾂｶﾜｷﾁｮｳ","pref":"大阪府","city":"四條畷市","address":"塚脇町"},
{"zip_code":"5750053","kana_pref":"ｵｵｻｶﾌ","kana_city":"ｼｼﾞｮｳﾅﾜﾃｼ","kana_address":"ﾅｶﾉ","pref":"大阪府","city":"四條畷市","address":"中野"},
{"zip_code":"5750052","kana_pref":"ｵｵｻｶﾌ","kana_city":"ｼｼﾞｮｳﾅﾜﾃｼ","kana_address":"ﾅｶﾉ","pref":"大阪府","city":"四條畷市","address":"中野"},
{"zip_code":"5750054","kana_pref":"ｵｵｻｶﾌ","kana_city":"ｼｼﾞｮｳﾅﾜﾃｼ","kana_address":"ﾅｶﾉｼﾝﾏﾁ","pref":"大阪府","city":"四條畷市","address":"中野新町"},
{"zip_code":"5750051","kana_pref":"ｵｵｻｶﾌ","kana_city":"ｼｼﾞｮｳﾅﾜﾃｼ","kana_address":"ﾅｶﾉﾎﾝﾏﾁ","pref":"大阪府","city":"四條畷市","address":"中野本町"},
{"zip_code":"5750023","kana_pref":"ｵｵｻｶﾌ","kana_city":"ｼｼﾞｮｳﾅﾜﾃｼ","kana_address":"ﾅﾝｺｳ","pref":"大阪府","city":"四條畷市","address":"楠公"},
{"zip_code":"5750044","kana_pref":"ｵｵｻｶﾌ","kana_city":"ｼｼﾞｮｳﾅﾜﾃｼ","kana_address":"ﾆﾁｮｳﾄﾞｵﾘﾁｮｳ","pref":"大阪府","city":"四條畷市","address":"二丁通町"},
{"zip_code":"5750033","kana_pref":"ｵｵｻｶﾌ","kana_city":"ｼｼﾞｮｳﾅﾜﾃｼ","kana_address":"ﾐﾀﾁｮｳ","pref":"大阪府","city":"四條畷市","address":"美田町"},
{"zip_code":"5750022","kana_pref":"ｵｵｻｶﾌ","kana_city":"ｼｼﾞｮｳﾅﾜﾃｼ","kana_address":"ﾐﾅﾐﾉ","pref":"大阪府","city":"四條畷市","address":"南野"},
{"zip_code":"5750021","kana_pref":"ｵｵｻｶﾌ","kana_city":"ｼｼﾞｮｳﾅﾜﾃｼ","kana_address":"ﾐﾅﾐﾉ","pref":"大阪府","city":"四條畷市","address":"南野"},
{"zip_code":"5750016","kana_pref":"ｵｵｻｶﾌ","kana_city":"ｼｼﾞｮｳﾅﾜﾃｼ","kana_address":"ﾘｮｸﾌｳﾀﾞｲ","pref":"大阪府","city":"四條畷市","address":"緑風台"}]}