{"zip_code":[
{"zip_code":"5760000","kana_pref":"ｵｵｻｶﾌ","kana_city":"ｶﾀﾉｼ","kana_address":"","pref":"大阪府","city":"交野市","address":""},
{"zip_code":"5760066","kana_pref":"ｵｵｻｶﾌ","kana_city":"ｶﾀﾉｼ","kana_address":"ｱｵﾔﾏ","pref":"大阪府","city":"交野市","address":"青山"},
{"zip_code":"5760034","kana_pref":"ｵｵｻｶﾌ","kana_city":"ｶﾀﾉｼ","kana_address":"ｱﾏﾉｶﾞﾊﾗﾁｮｳ","pref":"大阪府","city":"交野市","address":"天野が原町"},
{"zip_code":"5760054","kana_pref":"ｵｵｻｶﾌ","kana_city":"ｶﾀﾉｼ","kana_address":"ｲｸﾉ","pref":"大阪府","city":"交野市","address":"幾野"},
{"zip_code":"5760042","kana_pref":"ｵｵｻｶﾌ","kana_city":"ｶﾀﾉｼ","kana_address":"ｳﾒｶﾞｴ","pref":"大阪府","city":"交野市","address":"梅が枝"},
{"zip_code":"5760033","kana_pref":"ｵｵｻｶﾌ","kana_city":"ｶﾀﾉｼ","kana_address":"ｷｻｲﾁ","pref":"大阪府","city":"交野市","address":"私市"},
{"zip_code":"5760004","kana_pref":"ｵｵｻｶﾌ","kana_city":"ｶﾀﾉｼ","kana_address":"ｷｻｲﾁ","pref":"大阪府","city":"交野市","address":"私市"},
{"zip_code":"5760032","kana_pref":"ｵｵｻｶﾌ","kana_city":"ｶﾀﾉｼ","kana_address":"ｷｻｲﾁﾔﾏﾃ","pref":"大阪府","city":"交野市","address":"私市山手"},
{"zip_code":"5760052","kana_pref":"ｵｵｻｶﾌ","kana_city":"ｶﾀﾉｼ","kana_address":"ｷｻﾍﾞ","pref":"大阪府","city":"交野市","address":"私部"},
{"zip_code":"5760002","kana_pref":"ｵｵｻｶﾌ","kana_city":"ｶﾀﾉｼ","kana_address":"ｷｻﾍﾞ","pref":"大阪府","city":"交野市","address":"私部"},
{"zip_code":"5760041","kana_pref":"ｵｵｻｶﾌ","kana_city":"ｶﾀﾉｼ","kana_address":"ｷｻﾍﾞﾆｼ","pref":"大阪府","city":"交野市","address":"私部西"},
{"zip_code":"5760035","kana_pref":"ｵｵｻｶﾌ","kana_city":"ｶﾀﾉｼ","kana_address":"ｷｻﾍﾞﾐﾅﾐ","pref":"大阪府","city":"交野市","address":"私部南"},
{"zip_code":"5760051","kana_pref":"ｵｵｻｶﾌ","kana_city":"ｶﾀﾉｼ","kana_address":"ｸﾗｼﾞ","pref":"大阪府","city":"交野市","address":"倉治"},
{"zip_code":"5760001","kana_pref":"ｵｵｻｶﾌ","kana_city":"ｶﾀﾉｼ","kana_address":"ｸﾗｼﾞ","pref":"大阪府","city":"交野市","address":"倉治"},
{"zip_code":"5760053","kana_pref":"ｵｵｻｶﾌ","kana_city":"ｶﾀﾉｼ","kana_address":"ｺｳﾂﾞ","pref":"大阪府","city":"交野市","address":"郡津"},
{"zip_code":"5760062","kana_pref":"ｵｵｻｶﾌ","kana_city":"ｶﾀﾉｼ","kana_address":"ｼﾞﾝｸﾞｳｼﾞ","pref":"大阪府","city":"交野市","address":"神宮寺"},
{"zip_code":"5760063","kana_pref":"ｵｵｻｶﾌ","kana_city":"ｶﾀﾉｼ","kana_address":"ﾃﾗ","pref":"大阪府","city":"交野市","address":"寺"},
{"zip_code":"5760006","kana_pref":"ｵｵｻｶﾌ","kana_city":"ｶﾀﾉｼ","kana_address":"ﾃﾗ","pref":"大阪府","city":"交野市","address":"寺"},
{"zip_code":"5760064","kana_pref":"ｵｵｻｶﾌ","kana_city":"ｶﾀﾉｼ","kana_address":"ﾃﾗﾐﾅﾐﾉ","pref":"大阪府","city":"交野市","address":"寺南野"},
{"zip_code":"5760013","kana_pref":"ｵｵｻｶﾌ","kana_city":"ｶﾀﾉｼ","kana_address":"ﾅﾝｾｲﾀﾞｲ","pref":"大阪府","city":"交野市","address":"南星台"},
{"zip_code":"5760061","kana_pref":"ｵｵｻｶﾌ","kana_city":"ｶﾀﾉｼ","kana_address":"ﾋｶﾞｼｸﾗｼﾞ","pref":"大阪府","city":"交野市","address":"東倉治"},
{"zip_code":"5760022","kana_pref":"ｵｵｻｶﾌ","kana_city":"ｶﾀﾉｼ","kana_address":"ﾌｼﾞｶﾞｵ","pref":"大阪府","city":"交野市","address":"藤が尾"},
{"zip_code":"5760003","kana_pref":"ｵｵｻｶﾌ","kana_city":"ｶﾀﾉｼ","kana_address":"ﾎｳｼﾞ","pref":"大阪府","city":"交野市","address":"傍示"},
{"zip_code":"5760016","kana_pref":"ｵｵｻｶﾌ","kana_city":"ｶﾀﾉｼ","kana_address":"ﾎｼﾀﾞ","pref":"大阪府","city":"交野市","address":"星田"},
{"zip_code":"5760011","kana_pref":"ｵｵｻｶﾌ","kana_city":"ｶﾀﾉｼ","kana_address":"ﾎｼﾀﾞ","pref":"大阪府","city":"交野市","address":"星田"},
{"zip_code":"5760014","kana_pref":"ｵｵｻｶﾌ","kana_city":"ｶﾀﾉｼ","kana_address":"ﾎｼﾀﾞﾔﾏﾃ","pref":"大阪府","city":"交野市","address":"星田山手"},
{"zip_code":"5760015","kana_pref":"ｵｵｻｶﾌ","kana_city":"ｶﾀﾉｼ","kana_address":"ﾎｼﾀﾞﾆｼ","pref":"大阪府","city":"交野市","address":"星田西"},
{"zip_code":"5760017","kana_pref":"ｵｵｻｶﾌ","kana_city":"ｶﾀﾉｼ","kana_address":"ﾎｼﾀﾞｷﾀ","pref":"大阪府","city":"交野市","address":"星田北"},
{"zip_code":"5760043","kana_pref":"ｵｵｻｶﾌ","kana_city":"ｶﾀﾉｼ","kana_address":"ﾏﾂﾂﾞｶ","pref":"大阪府","city":"交野市","address":"松塚"},
{"zip_code":"5760021","kana_pref":"ｵｵｻｶﾌ","kana_city":"ｶﾀﾉｼ","kana_address":"ﾐｮｳｹﾝｻﾞｶ","pref":"大阪府","city":"交野市","address":"妙見坂"},
{"zip_code":"5760012","kana_pref":"ｵｵｻｶﾌ","kana_city":"ｶﾀﾉｼ","kana_address":"ﾐｮｳｹﾝﾋｶﾞｼ","pref":"大阪府","city":"交野市","address":"妙見東"},
{"zip_code":"5760065","kana_pref":"ｵｵｻｶﾌ","kana_city":"ｶﾀﾉｼ","kana_address":"ﾑｶｲﾀﾞ","pref":"大阪府","city":"交野市","address":"向井田"},
{"zip_code":"5760005","kana_pref":"ｵｵｻｶﾌ","kana_city":"ｶﾀﾉｼ","kana_address":"ﾓﾘ","pref":"大阪府","city":"交野市","address":"森"},
{"zip_code":"5760031","kana_pref":"ｵｵｻｶﾌ","kana_city":"ｶﾀﾉｼ","kana_address":"ﾓﾘﾐﾅﾐ","pref":"大阪府","city":"交野市","address":"森南"},
{"zip_code":"5760036","kana_pref":"ｵｵｻｶﾌ","kana_city":"ｶﾀﾉｼ","kana_address":"ﾓﾘｷﾀ","pref":"大阪府","city":"交野市","address":"森北"}]}