{"zip_code":[
{"zip_code":"5780925","kana_pref":"ｵｵｻｶﾌ","kana_city":"ﾋｶﾞｼｵｵｻｶｼ","kana_address":"ｲﾅﾊﾞ","pref":"大阪府","city":"東大阪市","address":"稲葉"},
{"zip_code":"5780903","kana_pref":"ｵｵｻｶﾌ","kana_city":"ﾋｶﾞｼｵｵｻｶｼ","kana_address":"ｲﾏｺﾞﾒ","pref":"大阪府","city":"東大阪市","address":"今米"},
{"zip_code":"5780941","kana_pref":"ｵｵｻｶﾌ","kana_city":"ﾋｶﾞｼｵｵｻｶｼ","kana_address":"ｲﾜﾀﾁｮｳ","pref":"大阪府","city":"東大阪市","address":"岩田町"},
{"zip_code":"5780946","kana_pref":"ｵｵｻｶﾌ","kana_city":"ﾋｶﾞｼｵｵｻｶｼ","kana_address":"ｳﾘｭｳﾄﾞｳ","pref":"大阪府","city":"東大阪市","address":"瓜生堂"},
{"zip_code":"5780901","kana_pref":"ｵｵｻｶﾌ","kana_city":"ﾋｶﾞｼｵｵｻｶｼ","kana_address":"ｶﾉｳ","pref":"大阪府","city":"東大阪市","address":"加納"},
{"zip_code":"5780905","kana_pref":"ｵｵｻｶﾌ","kana_city":"ﾋｶﾞｼｵｵｻｶｼ","kana_address":"ｶﾜﾀﾞ","pref":"大阪府","city":"東大阪市","address":"川田"},
{"zip_code":"5780902","kana_pref":"ｵｵｻｶﾌ","kana_city":"ﾋｶﾞｼｵｵｻｶｼ","kana_address":"ｶﾜﾅｶ","pref":"大阪府","city":"東大阪市","address":"川中"},
{"zip_code":"5780978","kana_pref":"ｵｵｻｶﾌ","kana_city":"ﾋｶﾞｼｵｵｻｶｼ","kana_address":"ｷﾀｺｳﾉｲｹﾁｮｳ","pref":"大阪府","city":"東大阪市","address":"北鴻池町"},
{"zip_code":"5780977","kana_pref":"ｵｵｻｶﾌ","kana_city":"ﾋｶﾞｼｵｵｻｶｼ","kana_address":"ｺｳﾉｲｹﾄｸｱﾝﾁｮｳ","pref":"大阪府","city":"東大阪市","address":"鴻池徳庵町"},
{"zip_code":"5780971","kana_pref":"ｵｵｻｶﾌ","kana_city":"ﾋｶﾞｼｵｵｻｶｼ","kana_address":"ｺｳﾉｲｹﾎﾝﾏﾁ","pref":"大阪府","city":"東大阪市","address":"鴻池本町"},
{"zip_code":"5780974","kana_pref":"ｵｵｻｶﾌ","kana_city":"ﾋｶﾞｼｵｵｻｶｼ","kana_address":"ｺｳﾉｲｹﾓﾄﾏﾁ","pref":"大阪府","city":"東大阪市","address":"鴻池元町"},
{"zip_code":"5780972","kana_pref":"ｵｵｻｶﾌ","kana_city":"ﾋｶﾞｼｵｵｻｶｼ","kana_address":"ｺｳﾉｲｹﾁｮｳ","pref":"大阪府","city":"東大阪市","address":"鴻池町"},
{"zip_code":"5780915","kana_pref":"ｵｵｻｶﾌ","kana_city":"ﾋｶﾞｼｵｵｻｶｼ","kana_address":"ｺﾐﾉﾜ","pref":"大阪府","city":"東大阪市","address":"古箕輪"},
{"zip_code":"5780981","kana_pref":"ｵｵｻｶﾌ","kana_city":"ﾋｶﾞｼｵｵｻｶｼ","kana_address":"ｼﾏﾉｳﾁ","pref":"大阪府","city":"東大阪市","address":"島之内"},
{"zip_code":"5780967","kana_pref":"ｵｵｻｶﾌ","kana_city":"ﾋｶﾞｼｵｵｻｶｼ","kana_address":"ｼﾝｺｳﾉｲｹﾁｮｳ","pref":"大阪府","city":"東大阪市","address":"新鴻池町"},
{"zip_code":"5780963","kana_pref":"ｵｵｻｶﾌ","kana_city":"ﾋｶﾞｼｵｵｻｶｼ","kana_address":"ｼﾝｼﾞｮｳ","pref":"大阪府","city":"東大阪市","address":"新庄"},
{"zip_code":"5780951","kana_pref":"ｵｵｻｶﾌ","kana_city":"ﾋｶﾞｼｵｵｻｶｼ","kana_address":"ｼﾝｼﾞｮｳﾋｶﾞｼ","pref":"大阪府","city":"東大阪市","address":"新庄東"},
{"zip_code":"5780964","kana_pref":"ｵｵｻｶﾌ","kana_city":"ﾋｶﾞｼｵｵｻｶｼ","kana_address":"ｼﾝｼﾞｮｳﾆｼ","pref":"大阪府","city":"東大阪市","address":"新庄西"},
{"zip_code":"5780958","kana_pref":"ｵｵｻｶﾌ","kana_city":"ﾋｶﾞｼｵｵｻｶｼ","kana_address":"ｼﾝｼﾞｮｳﾐﾅﾐ","pref":"大阪府","city":"東大阪市","address":"新庄南"},
{"zip_code":"5780912","kana_pref":"ｵｵｻｶﾌ","kana_city":"ﾋｶﾞｼｵｵｻｶｼ","kana_address":"ｽﾐﾀﾞ","pref":"大阪府","city":"東大阪市","address":"角田"},
{"zip_code":"5780932","kana_pref":"ｵｵｻｶﾌ","kana_city":"ﾋｶﾞｼｵｵｻｶｼ","kana_address":"ﾀﾏｸｼﾁｮｳﾋｶﾞｼ","pref":"大阪府","city":"東大阪市","address":"玉串町東"},
{"zip_code":"5780934","kana_pref":"ｵｵｻｶﾌ","kana_city":"ﾋｶﾞｼｵｵｻｶｼ","kana_address":"ﾀﾏｸｼﾁｮｳﾆｼ","pref":"大阪府","city":"東大阪市","address":"玉串町西"},
{"zip_code":"5780933","kana_pref":"ｵｵｻｶﾌ","kana_city":"ﾋｶﾞｼｵｵｻｶｼ","kana_address":"ﾀﾏｸｼﾓﾄﾏﾁ","pref":"大阪府","city":"東大阪市","address":"玉串元町"},
{"zip_code":"5780975","kana_pref":"ｵｵｻｶﾌ","kana_city":"ﾋｶﾞｼｵｵｻｶｼ","kana_address":"ﾅｶｺｳﾉｲｹﾁｮｳ","pref":"大阪府","city":"東大阪市","address":"中鴻池町"},
{"zip_code":"5780911","kana_pref":"ｵｵｻｶﾌ","kana_city":"ﾋｶﾞｼｵｵｻｶｼ","kana_address":"ﾅｶｼﾝｶｲ","pref":"大阪府","city":"東大阪市","address":"中新開"},
{"zip_code":"5780913","kana_pref":"ｵｵｻｶﾌ","kana_city":"ﾋｶﾞｼｵｵｻｶｼ","kana_address":"ﾅｶﾉ","pref":"大阪府","city":"東大阪市","address":"中野"},
{"zip_code":"5780985","kana_pref":"ｵｵｻｶﾌ","kana_city":"ﾋｶﾞｼｵｵｻｶｼ","kana_address":"ﾅｶﾉﾐﾅﾐ","pref":"大阪府","city":"東大阪市","address":"中野南"},
{"zip_code":"5780947","kana_pref":"ｵｵｻｶﾌ","kana_city":"ﾋｶﾞｼｵｵｻｶｼ","kana_address":"ﾆｼｲﾜﾀ","pref":"大阪府","city":"東大阪市","address":"西岩田"},
{"zip_code":"5780976","kana_pref":"ｵｵｻｶﾌ","kana_city":"ﾋｶﾞｼｵｵｻｶｼ","kana_address":"ﾆｼｺｳﾉｲｹﾁｮｳ","pref":"大阪府","city":"東大阪市","address":"西鴻池町"},
{"zip_code":"5780931","kana_pref":"ｵｵｻｶﾌ","kana_city":"ﾋｶﾞｼｵｵｻｶｼ","kana_address":"ﾊﾅｿﾞﾉﾋｶﾞｼﾏﾁ","pref":"大阪府","city":"東大阪市","address":"花園東町"},
{"zip_code":"5780936","kana_pref":"ｵｵｻｶﾌ","kana_city":"ﾋｶﾞｼｵｵｻｶｼ","kana_address":"ﾊﾅｿﾞﾉﾆｼﾏﾁ","pref":"大阪府","city":"東大阪市","address":"花園西町"},
{"zip_code":"5780937","kana_pref":"ｵｵｻｶﾌ","kana_city":"ﾋｶﾞｼｵｵｻｶｼ","kana_address":"ﾊﾅｿﾞﾉﾎﾝﾏﾁ","pref":"大阪府","city":"東大阪市","address":"花園本町"},
{"zip_code":"5780973","kana_pref":"ｵｵｻｶﾌ","kana_city":"ﾋｶﾞｼｵｵｻｶｼ","kana_address":"ﾋｶﾞｼｺｳﾉｲｹﾁｮｳ","pref":"大阪府","city":"東大阪市","address":"東鴻池町"},
{"zip_code":"5780984","kana_pref":"ｵｵｻｶﾌ","kana_city":"ﾋｶﾞｼｵｵｻｶｼ","kana_address":"ﾋｼｴ","pref":"大阪府","city":"東大阪市","address":"菱江"},
{"zip_code":"5780948","kana_pref":"ｵｵｻｶﾌ","kana_city":"ﾋｶﾞｼｵｵｻｶｼ","kana_address":"ﾋｼﾔﾋｶﾞｼ","pref":"大阪府","city":"東大阪市","address":"菱屋東"},
{"zip_code":"5780953","kana_pref":"ｵｵｻｶﾌ","kana_city":"ﾋｶﾞｼｵｵｻｶｼ","kana_address":"ﾎﾝｼﾞｮｳ","pref":"大阪府","city":"東大阪市","address":"本庄"},
{"zip_code":"5780957","kana_pref":"ｵｵｻｶﾌ","kana_city":"ﾋｶﾞｼｵｵｻｶｼ","kana_address":"ﾎﾝｼﾞｮｳﾅｶ","pref":"大阪府","city":"東大阪市","address":"本庄中"},
{"zip_code":"5780952","kana_pref":"ｵｵｻｶﾌ","kana_city":"ﾋｶﾞｼｵｵｻｶｼ","kana_address":"ﾎﾝｼﾞｮｳﾋｶﾞｼ","pref":"大阪府","city":"東大阪市","address":"本庄東"},
{"zip_code":"5780965","kana_pref":"ｵｵｻｶﾌ","kana_city":"ﾋｶﾞｼｵｵｻｶｼ","kana_address":"ﾎﾝｼﾞｮｳﾆｼ","pref":"大阪府","city":"東大阪市","address":"本庄西"},
{"zip_code":"5780922","kana_pref":"ｵｵｻｶﾌ","kana_city":"ﾋｶﾞｼｵｵｻｶｼ","kana_address":"ﾏﾂﾊﾞﾗ","pref":"大阪府","city":"東大阪市","address":"松原"},
{"zip_code":"5780923","kana_pref":"ｵｵｻｶﾌ","kana_city":"ﾋｶﾞｼｵｵｻｶｼ","kana_address":"ﾏﾂﾊﾞﾗﾐﾅﾐ","pref":"大阪府","city":"東大阪市","address":"松原南"},
{"zip_code":"5780966","kana_pref":"ｵｵｻｶﾌ","kana_city":"ﾋｶﾞｼｵｵｻｶｼ","kana_address":"ﾐｼﾏ","pref":"大阪府","city":"東大阪市","address":"三島"},
{"zip_code":"5780921","kana_pref":"ｵｵｻｶﾌ","kana_city":"ﾋｶﾞｼｵｵｻｶｼ","kana_address":"ﾐｽﾞﾊｲ","pref":"大阪府","city":"東大阪市","address":"水走"},
{"zip_code":"5780961","kana_pref":"ｵｵｻｶﾌ","kana_city":"ﾋｶﾞｼｵｵｻｶｼ","kana_address":"ﾐﾅﾐｺｳﾉｲｹﾁｮｳ","pref":"大阪府","city":"東大阪市","address":"南鴻池町"},
{"zip_code":"5780914","kana_pref":"ｵｵｻｶﾌ","kana_city":"ﾋｶﾞｼｵｵｻｶｼ","kana_address":"ﾐﾉﾜ","pref":"大阪府","city":"東大阪市","address":"箕輪"},
{"zip_code":"5780954","kana_pref":"ｵｵｻｶﾌ","kana_city":"ﾋｶﾞｼｵｵｻｶｼ","kana_address":"ﾖｺﾏｸﾗ","pref":"大阪府","city":"東大阪市","address":"横枕"},
{"zip_code":"5780956","kana_pref":"ｵｵｻｶﾌ","kana_city":"ﾋｶﾞｼｵｵｻｶｼ","kana_address":"ﾖｺﾏｸﾗﾆｼ","pref":"大阪府","city":"東大阪市","address":"横枕西"},
{"zip_code":"5780955","kana_pref":"ｵｵｻｶﾌ","kana_city":"ﾋｶﾞｼｵｵｻｶｼ","kana_address":"ﾖｺﾏｸﾗﾐﾅﾐ","pref":"大阪府","city":"東大阪市","address":"横枕南"},
{"zip_code":"5780924","kana_pref":"ｵｵｻｶﾌ","kana_city":"ﾋｶﾞｼｵｵｻｶｼ","kana_address":"ﾖｼﾀ","pref":"大阪府","city":"東大阪市","address":"吉田"},
{"zip_code":"5780983","kana_pref":"ｵｵｻｶﾌ","kana_city":"ﾋｶﾞｼｵｵｻｶｼ","kana_address":"ﾖｼﾀｼﾓｼﾞﾏ","pref":"大阪府","city":"東大阪市","address":"吉田下島"},
{"zip_code":"5780982","kana_pref":"ｵｵｻｶﾌ","kana_city":"ﾋｶﾞｼｵｵｻｶｼ","kana_address":"ﾖｼﾀﾎﾝﾏﾁ","pref":"大阪府","city":"東大阪市","address":"吉田本町"},
{"zip_code":"5780904","kana_pref":"ｵｵｻｶﾌ","kana_city":"ﾋｶﾞｼｵｵｻｶｼ","kana_address":"ﾖｼﾊﾗ","pref":"大阪府","city":"東大阪市","address":"吉原"},
{"zip_code":"5780935","kana_pref":"ｵｵｻｶﾌ","kana_city":"ﾋｶﾞｼｵｵｻｶｼ","kana_address":"ﾜｶｴﾋｶﾞｼﾏﾁ","pref":"大阪府","city":"東大阪市","address":"若江東町"},
{"zip_code":"5780943","kana_pref":"ｵｵｻｶﾌ","kana_city":"ﾋｶﾞｼｵｵｻｶｼ","kana_address":"ﾜｶｴﾐﾅﾐﾏﾁ","pref":"大阪府","city":"東大阪市","address":"若江南町"},
{"zip_code":"5780945","kana_pref":"ｵｵｻｶﾌ","kana_city":"ﾋｶﾞｼｵｵｻｶｼ","kana_address":"ﾜｶｴｷﾀﾏﾁ","pref":"大阪府","city":"東大阪市","address":"若江北町"},
{"zip_code":"5780944","kana_pref":"ｵｵｻｶﾌ","kana_city":"ﾋｶﾞｼｵｵｻｶｼ","kana_address":"ﾜｶｴﾆｼｼﾝﾏﾁ","pref":"大阪府","city":"東大阪市","address":"若江西新町"},
{"zip_code":"5780942","kana_pref":"ｵｵｻｶﾌ","kana_city":"ﾋｶﾞｼｵｵｻｶｼ","kana_address":"ﾜｶｴﾎﾝﾏﾁ","pref":"大阪府","city":"東大阪市","address":"若江本町"}]}