{"zip_code":[
{"zip_code":"5800000","kana_pref":"ｵｵｻｶﾌ","kana_city":"ﾏﾂﾊﾞﾗｼ","kana_address":"","pref":"大阪府","city":"松原市","address":""},
{"zip_code":"5800043","kana_pref":"ｵｵｻｶﾌ","kana_city":"ﾏﾂﾊﾞﾗｼ","kana_address":"ｱｵ","pref":"大阪府","city":"松原市","address":"阿保"},
{"zip_code":"5800032","kana_pref":"ｵｵｻｶﾌ","kana_city":"ﾏﾂﾊﾞﾗｼ","kana_address":"ｱﾏﾐﾋｶﾞｼ","pref":"大阪府","city":"松原市","address":"天美東"},
{"zip_code":"5800034","kana_pref":"ｵｵｻｶﾌ","kana_city":"ﾏﾂﾊﾞﾗｼ","kana_address":"ｱﾏﾐﾆｼ","pref":"大阪府","city":"松原市","address":"天美西"},
{"zip_code":"5800033","kana_pref":"ｵｵｻｶﾌ","kana_city":"ﾏﾂﾊﾞﾗｼ","kana_address":"ｱﾏﾐﾐﾅﾐ","pref":"大阪府","city":"松原市","address":"天美南"},
{"zip_code":"5800031","kana_pref":"ｵｵｻｶﾌ","kana_city":"ﾏﾂﾊﾞﾗｼ","kana_address":"ｱﾏﾐｷﾀ","pref":"大阪府","city":"松原市","address":"天美北"},
{"zip_code":"5800026","kana_pref":"ｵｵｻｶﾌ","kana_city":"ﾏﾂﾊﾞﾗｼ","kana_address":"ｱﾏﾐｶﾞﾄﾞｳ","pref":"大阪府","city":"松原市","address":"天美我堂"},
{"zip_code":"5800016","kana_pref":"ｵｵｻｶﾌ","kana_city":"ﾏﾂﾊﾞﾗｼ","kana_address":"ｳｴﾀﾞ","pref":"大阪府","city":"松原市","address":"上田"},
{"zip_code":"5800006","kana_pref":"ｵｵｻｶﾌ","kana_city":"ﾏﾂﾊﾞﾗｼ","kana_address":"ｵｵﾎﾞﾘ","pref":"大阪府","city":"松原市","address":"大堀"},
{"zip_code":"5800014","kana_pref":"ｵｵｻｶﾌ","kana_city":"ﾏﾂﾊﾞﾗｼ","kana_address":"ｵｶ","pref":"大阪府","city":"松原市","address":"岡"},
{"zip_code":"5800002","kana_pref":"ｵｵｻｶﾌ","kana_city":"ﾏﾂﾊﾞﾗｼ","kana_address":"ｵｶﾞﾜ","pref":"大阪府","city":"松原市","address":"小川"},
{"zip_code":"5800022","kana_pref":"ｵｵｻｶﾌ","kana_city":"ﾏﾂﾊﾞﾗｼ","kana_address":"ｶﾜｲ","pref":"大阪府","city":"松原市","address":"河合"},
{"zip_code":"5800025","kana_pref":"ｵｵｻｶﾌ","kana_city":"ﾏﾂﾊﾞﾗｼ","kana_address":"ｷﾀｼﾝﾏﾁ","pref":"大阪府","city":"松原市","address":"北新町"},
{"zip_code":"5800017","kana_pref":"ｵｵｻｶﾌ","kana_city":"ﾏﾂﾊﾞﾗｼ","kana_address":"ｼﾊﾞｶﾞｷ","pref":"大阪府","city":"松原市","address":"柴垣"},
{"zip_code":"5800015","kana_pref":"ｵｵｻｶﾌ","kana_city":"ﾏﾂﾊﾞﾗｼ","kana_address":"ｼﾝﾄﾞｳ","pref":"大阪府","city":"松原市","address":"新堂"},
{"zip_code":"5800044","kana_pref":"ｵｵｻｶﾌ","kana_city":"ﾏﾂﾊﾞﾗｼ","kana_address":"ﾀｲｼﾞｮｳ","pref":"大阪府","city":"松原市","address":"田井城"},
{"zip_code":"5800021","kana_pref":"ｵｵｻｶﾌ","kana_city":"ﾏﾂﾊﾞﾗｼ","kana_address":"ﾀｶﾐﾉｻﾄ","pref":"大阪府","city":"松原市","address":"高見の里"},
{"zip_code":"5800012","kana_pref":"ｵｵｻｶﾌ","kana_city":"ﾏﾂﾊﾞﾗｼ","kana_address":"ﾀﾂﾍﾞ","pref":"大阪府","city":"松原市","address":"立部"},
{"zip_code":"5800013","kana_pref":"ｵｵｻｶﾌ","kana_city":"ﾏﾂﾊﾞﾗｼ","kana_address":"ﾀﾝﾅﾝ","pref":"大阪府","city":"松原市","address":"丹南"},
{"zip_code":"5800011","kana_pref":"ｵｵｻｶﾌ","kana_city":"ﾏﾂﾊﾞﾗｼ","kana_address":"ﾆｼｵｵﾂｶ","pref":"大阪府","city":"松原市","address":"西大塚"},
{"zip_code":"5800004","kana_pref":"ｵｵｻｶﾌ","kana_city":"ﾏﾂﾊﾞﾗｼ","kana_address":"ﾆｼﾉﾉ","pref":"大阪府","city":"松原市","address":"西野々"},
{"zip_code":"5800024","kana_pref":"ｵｵｻｶﾌ","kana_city":"ﾏﾂﾊﾞﾗｼ","kana_address":"ﾋｶﾞｼｼﾝﾏﾁ","pref":"大阪府","city":"松原市","address":"東新町"},
{"zip_code":"5800003","kana_pref":"ｵｵｻｶﾌ","kana_city":"ﾏﾂﾊﾞﾗｼ","kana_address":"ﾋﾄﾂﾔ","pref":"大阪府","city":"松原市","address":"一津屋"},
{"zip_code":"5800005","kana_pref":"ｵｵｻｶﾌ","kana_city":"ﾏﾂﾊﾞﾗｼ","kana_address":"ﾍﾞｯｼｮ","pref":"大阪府","city":"松原市","address":"別所"},
{"zip_code":"5800042","kana_pref":"ｵｵｻｶﾌ","kana_city":"ﾏﾂﾊﾞﾗｼ","kana_address":"ﾏﾂｶﾞｵｶ","pref":"大阪府","city":"松原市","address":"松ケ丘"},
{"zip_code":"5800023","kana_pref":"ｵｵｻｶﾌ","kana_city":"ﾏﾂﾊﾞﾗｼ","kana_address":"ﾐﾅﾐｼﾝﾏﾁ","pref":"大阪府","city":"松原市","address":"南新町"},
{"zip_code":"5800046","kana_pref":"ｵｵｻｶﾌ","kana_city":"ﾏﾂﾊﾞﾗｼ","kana_address":"ﾐﾔｹﾅｶ","pref":"大阪府","city":"松原市","address":"三宅中"},
{"zip_code":"5800041","kana_pref":"ｵｵｻｶﾌ","kana_city":"ﾏﾂﾊﾞﾗｼ","kana_address":"ﾐﾔｹﾋｶﾞｼ","pref":"大阪府","city":"松原市","address":"三宅東"},
{"zip_code":"5800045","kana_pref":"ｵｵｻｶﾌ","kana_city":"ﾏﾂﾊﾞﾗｼ","kana_address":"ﾐﾔｹﾆｼ","pref":"大阪府","city":"松原市","address":"三宅西"},
{"zip_code":"5800001","kana_pref":"ｵｵｻｶﾌ","kana_city":"ﾏﾂﾊﾞﾗｼ","kana_address":"ﾜｶﾊﾞﾔｼ","pref":"大阪府","city":"松原市","address":"若林"}]}