{"zip_code":[
{"zip_code":"5810000","kana_pref":"ｵｵｻｶﾌ","kana_city":"ﾔｵｼ","kana_address":"","pref":"大阪府","city":"八尾市","address":""},
{"zip_code":"5810082","kana_pref":"ｵｵｻｶﾌ","kana_city":"ﾔｵｼ","kana_address":"ｱｲｵｲﾁｮｳ","pref":"大阪府","city":"八尾市","address":"相生町"},
{"zip_code":"5810018","kana_pref":"ｵｵｻｶﾌ","kana_city":"ﾔｵｼ","kana_address":"ｱｵﾔﾏﾁｮｳ","pref":"大阪府","city":"八尾市","address":"青山町"},
{"zip_code":"5810020","kana_pref":"ｵｵｻｶﾌ","kana_city":"ﾔｵｼ","kana_address":"ｱｹｶﾞﾜﾋｶﾞｼ","pref":"大阪府","city":"八尾市","address":"曙川東"},
{"zip_code":"5810026","kana_pref":"ｵｵｻｶﾌ","kana_city":"ﾔｵｼ","kana_address":"ｱｹﾎﾞﾉﾁｮｳ","pref":"大阪府","city":"八尾市","address":"曙町"},
{"zip_code":"5810087","kana_pref":"ｵｵｻｶﾌ","kana_city":"ﾔｵｼ","kana_address":"ｱｹﾐﾁｮｳ","pref":"大阪府","city":"八尾市","address":"明美町"},
{"zip_code":"5810833","kana_pref":"ｵｵｻｶﾌ","kana_city":"ﾔｵｼ","kana_address":"ｱｻﾋｶﾞｵｶ","pref":"大阪府","city":"八尾市","address":"旭ケ丘"},
{"zip_code":"5810064","kana_pref":"ｵｵｻｶﾌ","kana_city":"ﾔｵｼ","kana_address":"ｱﾄﾍﾞﾎﾝﾏﾁ","pref":"大阪府","city":"八尾市","address":"跡部本町"},
{"zip_code":"5810055","kana_pref":"ｵｵｻｶﾌ","kana_city":"ﾔｵｼ","kana_address":"ｱﾄﾍﾞﾐﾅﾐﾉﾁｮｳ","pref":"大阪府","city":"八尾市","address":"跡部南の町"},
{"zip_code":"5810068","kana_pref":"ｵｵｻｶﾌ","kana_city":"ﾔｵｼ","kana_address":"ｱﾄﾍﾞｷﾀﾉﾁｮｳ","pref":"大阪府","city":"八尾市","address":"跡部北の町"},
{"zip_code":"5810813","kana_pref":"ｵｵｻｶﾌ","kana_city":"ﾔｵｼ","kana_address":"ｲｽﾞﾐﾁｮｳ","pref":"大阪府","city":"八尾市","address":"泉町"},
{"zip_code":"5810084","kana_pref":"ｵｵｻｶﾌ","kana_city":"ﾔｵｼ","kana_address":"ｳｴﾏﾂﾁｮｳ","pref":"大阪府","city":"八尾市","address":"植松町"},
{"zip_code":"5810092","kana_pref":"ｵｵｻｶﾌ","kana_city":"ﾔｵｼ","kana_address":"ｵｲﾊﾗ","pref":"大阪府","city":"八尾市","address":"老原"},
{"zip_code":"5810863","kana_pref":"ｵｵｻｶﾌ","kana_city":"ﾔｵｼ","kana_address":"ｵｵｸﾎﾞ","pref":"大阪府","city":"八尾市","address":"大窪"},
{"zip_code":"5810037","kana_pref":"ｵｵｻｶﾌ","kana_city":"ﾔｵｼ","kana_address":"ｵｵﾀ","pref":"大阪府","city":"八尾市","address":"太田"},
{"zip_code":"5810854","kana_pref":"ｵｵｻｶﾌ","kana_city":"ﾔｵｼ","kana_address":"ｵｵﾀｹ","pref":"大阪府","city":"八尾市","address":"大竹"},
{"zip_code":"5810039","kana_pref":"ｵｵｻｶﾌ","kana_city":"ﾔｵｼ","kana_address":"ｵｵﾀｼﾝﾏﾁ","pref":"大阪府","city":"八尾市","address":"太田新町"},
{"zip_code":"5810015","kana_pref":"ｵｵｻｶﾌ","kana_city":"ﾔｵｼ","kana_address":"ｵｻｶﾍﾞ","pref":"大阪府","city":"八尾市","address":"刑部"},
{"zip_code":"5810883","kana_pref":"ｵｵｻｶﾌ","kana_city":"ﾔｵｼ","kana_address":"ｵﾝﾁﾞﾅｶﾏﾁ","pref":"大阪府","city":"八尾市","address":"恩智中町"},
{"zip_code":"5810884","kana_pref":"ｵｵｻｶﾌ","kana_city":"ﾔｵｼ","kana_address":"ｵﾝﾁﾞﾐﾅﾐﾏﾁ","pref":"大阪府","city":"八尾市","address":"恩智南町"},
{"zip_code":"5810882","kana_pref":"ｵｵｻｶﾌ","kana_city":"ﾔｵｼ","kana_address":"ｵﾝﾁﾞｷﾀﾏﾁ","pref":"大阪府","city":"八尾市","address":"恩智北町"},
{"zip_code":"5810881","kana_pref":"ｵｵｻｶﾌ","kana_city":"ﾔｵｼ","kana_address":"ｶｲﾁ","pref":"大阪府","city":"八尾市","address":"垣内"},
{"zip_code":"5810853","kana_pref":"ｵｵｻｶﾌ","kana_city":"ﾔｵｼ","kana_address":"ｶﾞｸｵﾝｼﾞ","pref":"大阪府","city":"八尾市","address":"楽音寺"},
{"zip_code":"5810022","kana_pref":"ｵｵｻｶﾌ","kana_city":"ﾔｵｼ","kana_address":"ｶｼﾑﾗﾁｮｳ","pref":"大阪府","city":"八尾市","address":"柏村町"},
{"zip_code":"5810061","kana_pref":"ｵｵｻｶﾌ","kana_city":"ﾔｵｼ","kana_address":"ｶｽｶﾞﾁｮｳ","pref":"大阪府","city":"八尾市","address":"春日町"},
{"zip_code":"5810823","kana_pref":"ｵｵｻｶﾌ","kana_city":"ﾔｵｼ","kana_address":"ｶﾂﾗﾁｮｳ","pref":"大阪府","city":"八尾市","address":"桂町"},
{"zip_code":"5810851","kana_pref":"ｵｵｻｶﾌ","kana_city":"ﾔｵｼ","kana_address":"ｶﾐｵﾁｮｳ","pref":"大阪府","city":"八尾市","address":"上尾町"},
{"zip_code":"5810846","kana_pref":"ｵｵｻｶﾌ","kana_city":"ﾔｵｼ","kana_address":"ｶﾐﾉｼﾏﾁｮｳﾐﾅﾐ","pref":"大阪府","city":"八尾市","address":"上之島町南"},
{"zip_code":"5810845","kana_pref":"ｵｵｻｶﾌ","kana_city":"ﾔｵｼ","kana_address":"ｶﾐﾉｼﾏﾁｮｳｷﾀ","pref":"大阪府","city":"八尾市","address":"上之島町北"},
{"zip_code":"5810065","kana_pref":"ｵｵｻｶﾌ","kana_city":"ﾔｵｼ","kana_address":"ｶﾒｲﾁｮｳ","pref":"大阪府","city":"八尾市","address":"亀井町"},
{"zip_code":"5810834","kana_pref":"ｵｵｻｶﾌ","kana_city":"ﾔｵｼ","kana_address":"ｶﾔﾌﾘﾁｮｳ","pref":"大阪府","city":"八尾市","address":"萱振町"},
{"zip_code":"5810066","kana_pref":"ｵｵｻｶﾌ","kana_city":"ﾔｵｼ","kana_address":"ｷﾀｶﾒｲﾁｮｳ","pref":"大阪府","city":"八尾市","address":"北亀井町"},
{"zip_code":"5810041","kana_pref":"ｵｵｻｶﾌ","kana_city":"ﾔｵｼ","kana_address":"ｷﾀｷﾉﾓﾄ","pref":"大阪府","city":"八尾市","address":"北木の本"},
{"zip_code":"5810071","kana_pref":"ｵｵｻｶﾌ","kana_city":"ﾔｵｼ","kana_address":"ｷﾀｷｭｳﾎｳｼﾞ","pref":"大阪府","city":"八尾市","address":"北久宝寺"},
{"zip_code":"5810802","kana_pref":"ｵｵｻｶﾌ","kana_city":"ﾔｵｼ","kana_address":"ｷﾀﾎﾝﾏﾁ","pref":"大阪府","city":"八尾市","address":"北本町"},
{"zip_code":"5810044","kana_pref":"ｵｵｻｶﾌ","kana_city":"ﾔｵｼ","kana_address":"ｷﾉﾓﾄ","pref":"大阪府","city":"八尾市","address":"木の本"},
{"zip_code":"5810817","kana_pref":"ｵｵｻｶﾌ","kana_city":"ﾔｵｼ","kana_address":"ｷｭｳﾎｳｴﾝ","pref":"大阪府","city":"八尾市","address":"久宝園"},
{"zip_code":"5810072","kana_pref":"ｵｵｻｶﾌ","kana_city":"ﾔｵｼ","kana_address":"ｷｭｳﾎｳｼﾞ","pref":"大阪府","city":"八尾市","address":"久宝寺"},
{"zip_code":"5810874","kana_pref":"ｵｵｻｶﾌ","kana_city":"ﾔｵｼ","kana_address":"ｷｮｳｺｳｼﾞ","pref":"大阪府","city":"八尾市","address":"教興寺"},
{"zip_code":"5810043","kana_pref":"ｵｵｻｶﾌ","kana_city":"ﾔｵｼ","kana_address":"ｸｳｺｳ","pref":"大阪府","city":"八尾市","address":"空港"},
{"zip_code":"5810814","kana_pref":"ｵｵｻｶﾌ","kana_city":"ﾔｵｼ","kana_address":"ｸｽﾈﾁｮｳ","pref":"大阪府","city":"八尾市","address":"楠根町"},
{"zip_code":"5810873","kana_pref":"ｵｵｻｶﾌ","kana_city":"ﾔｵｼ","kana_address":"ｸﾛﾀﾞﾆ","pref":"大阪府","city":"八尾市","address":"黒谷"},
{"zip_code":"5810855","kana_pref":"ｵｵｻｶﾌ","kana_city":"ﾔｵｼ","kana_address":"ｺｳﾀﾞﾁ","pref":"大阪府","city":"八尾市","address":"神立"},
{"zip_code":"5810007","kana_pref":"ｵｵｻｶﾌ","kana_city":"ﾔｵｼ","kana_address":"ｺｳﾅﾝﾁｮｳ","pref":"大阪府","city":"八尾市","address":"光南町"},
{"zip_code":"5810872","kana_pref":"ｵｵｻｶﾌ","kana_city":"ﾔｵｼ","kana_address":"ｺｵﾘｶﾞﾜ","pref":"大阪府","city":"八尾市","address":"郡川"},
{"zip_code":"5810012","kana_pref":"ｵｵｻｶﾌ","kana_city":"ﾔｵｼ","kana_address":"ｺｻﾞｶｱｲﾁｮｳ","pref":"大阪府","city":"八尾市","address":"小阪合町"},
{"zip_code":"5810835","kana_pref":"ｵｵｻｶﾌ","kana_city":"ﾔｵｼ","kana_address":"ｺﾊﾀﾁｮｳ","pref":"大阪府","city":"八尾市","address":"小畑町"},
{"zip_code":"5810821","kana_pref":"ｵｵｻｶﾌ","kana_city":"ﾔｵｼ","kana_address":"ｻｲﾜｲﾁｮｳ","pref":"大阪府","city":"八尾市","address":"幸町"},
{"zip_code":"5810074","kana_pref":"ｵｵｻｶﾌ","kana_city":"ﾔｵｼ","kana_address":"ｻｶｴﾏﾁ","pref":"大阪府","city":"八尾市","address":"栄町"},
{"zip_code":"5810869","kana_pref":"ｵｵｻｶﾌ","kana_city":"ﾔｵｼ","kana_address":"ｻｸﾗｶﾞｵｶ","pref":"大阪府","city":"八尾市","address":"桜ケ丘"},
{"zip_code":"5810816","kana_pref":"ｵｵｻｶﾌ","kana_city":"ﾔｵｼ","kana_address":"ｻﾄﾞｳﾁｮｳ","pref":"大阪府","city":"八尾市","address":"佐堂町"},
{"zip_code":"5810031","kana_pref":"ｵｵｻｶﾌ","kana_city":"ﾔｵｼ","kana_address":"ｼｷﾁｮｳ","pref":"大阪府","city":"八尾市","address":"志紀町"},
{"zip_code":"5810094","kana_pref":"ｵｵｻｶﾌ","kana_city":"ﾔｵｼ","kana_address":"ｼｷﾁｮｳﾆｼ","pref":"大阪府","city":"八尾市","address":"志紀町西"},
{"zip_code":"5810033","kana_pref":"ｵｵｻｶﾌ","kana_city":"ﾔｵｼ","kana_address":"ｼｷﾁｮｳﾐﾅﾐ","pref":"大阪府","city":"八尾市","address":"志紀町南"},
{"zip_code":"5810075","kana_pref":"ｵｵｻｶﾌ","kana_city":"ﾔｵｼ","kana_address":"ｼﾌﾞｶﾜﾁｮｳ","pref":"大阪府","city":"八尾市","address":"渋川町"},
{"zip_code":"5810006","kana_pref":"ｵｵｻｶﾌ","kana_city":"ﾔｵｼ","kana_address":"ｼﾐｽﾞﾁｮｳ","pref":"大阪府","city":"八尾市","address":"清水町"},
{"zip_code":"5810811","kana_pref":"ｵｵｻｶﾌ","kana_city":"ﾔｵｼ","kana_address":"ｼﾝｹﾁｮｳ","pref":"大阪府","city":"八尾市","address":"新家町"},
{"zip_code":"5810885","kana_pref":"ｵｵｻｶﾌ","kana_city":"ﾔｵｼ","kana_address":"ｼﾞﾝｸﾞｳｼﾞ","pref":"大阪府","city":"八尾市","address":"神宮寺"},
{"zip_code":"5810067","kana_pref":"ｵｵｻｶﾌ","kana_city":"ﾔｵｼ","kana_address":"ｼﾞﾝﾑﾁｮｳ","pref":"大阪府","city":"八尾市","address":"神武町"},
{"zip_code":"5810001","kana_pref":"ｵｵｻｶﾌ","kana_city":"ﾔｵｼ","kana_address":"ｽｴﾋﾛﾁｮｳ","pref":"大阪府","city":"八尾市","address":"末広町"},
{"zip_code":"5810005","kana_pref":"ｵｵｻｶﾌ","kana_city":"ﾔｵｼ","kana_address":"ｿｳﾅｲﾁｮｳ","pref":"大阪府","city":"八尾市","address":"荘内町"},
{"zip_code":"5810063","kana_pref":"ｵｵｻｶﾌ","kana_city":"ﾔｵｼ","kana_address":"ﾀｲｼﾄﾞｳ","pref":"大阪府","city":"八尾市","address":"太子堂"},
{"zip_code":"5810095","kana_pref":"ｵｵｻｶﾌ","kana_city":"ﾔｵｼ","kana_address":"ﾀｲﾅｶ","pref":"大阪府","city":"八尾市","address":"田井中"},
{"zip_code":"5810822","kana_pref":"ｵｵｻｶﾌ","kana_city":"ﾔｵｼ","kana_address":"ﾀｶｻｺﾞﾁｮｳ","pref":"大阪府","city":"八尾市","address":"高砂町"},
{"zip_code":"5810073","kana_pref":"ｵｵｻｶﾌ","kana_city":"ﾔｵｼ","kana_address":"ﾀｶﾏﾁ","pref":"大阪府","city":"八尾市","address":"高町"},
{"zip_code":"5810017","kana_pref":"ｵｵｻｶﾌ","kana_city":"ﾔｵｼ","kana_address":"ﾀｶﾐﾁｮｳ","pref":"大阪府","city":"八尾市","address":"高美町"},
{"zip_code":"5810875","kana_pref":"ｵｵｻｶﾌ","kana_city":"ﾔｵｼ","kana_address":"ﾀｶﾔｽﾁｮｳﾐﾅﾐ","pref":"大阪府","city":"八尾市","address":"高安町南"},
{"zip_code":"5810871","kana_pref":"ｵｵｻｶﾌ","kana_city":"ﾔｵｼ","kana_address":"ﾀｶﾔｽﾁｮｳｷﾀ","pref":"大阪府","city":"八尾市","address":"高安町北"},
{"zip_code":"5810052","kana_pref":"ｵｵｻｶﾌ","kana_city":"ﾔｵｼ","kana_address":"ﾀｹﾌﾁ","pref":"大阪府","city":"八尾市","address":"竹渕"},
{"zip_code":"5810053","kana_pref":"ｵｵｻｶﾌ","kana_city":"ﾔｵｼ","kana_address":"ﾀｹﾌﾁﾋｶﾞｼ","pref":"大阪府","city":"八尾市","address":"竹渕東"},
{"zip_code":"5810051","kana_pref":"ｵｵｻｶﾌ","kana_city":"ﾔｵｼ","kana_address":"ﾀｹﾌﾁﾆｼ","pref":"大阪府","city":"八尾市","address":"竹渕西"},
{"zip_code":"5810862","kana_pref":"ｵｵｻｶﾌ","kana_city":"ﾔｵｼ","kana_address":"ﾁﾂﾞｶ","pref":"大阪府","city":"八尾市","address":"千塚"},
{"zip_code":"5810832","kana_pref":"ｵｵｻｶﾌ","kana_city":"ﾔｵｼ","kana_address":"ﾂﾂﾐﾁｮｳ","pref":"大阪府","city":"八尾市","address":"堤町"},
{"zip_code":"5810025","kana_pref":"ｵｵｻｶﾌ","kana_city":"ﾔｵｼ","kana_address":"ﾃﾝﾉｳｼﾞﾔ","pref":"大阪府","city":"八尾市","address":"天王寺屋"},
{"zip_code":"5810014","kana_pref":"ｵｵｻｶﾌ","kana_city":"ﾔｵｼ","kana_address":"ﾅｶﾀ","pref":"大阪府","city":"八尾市","address":"中田"},
{"zip_code":"5810836","kana_pref":"ｵｵｻｶﾌ","kana_city":"ﾔｵｼ","kana_address":"ﾅｶﾞｲｹﾁｮｳ","pref":"大阪府","city":"八尾市","address":"長池町"},
{"zip_code":"5810083","kana_pref":"ｵｵｻｶﾌ","kana_city":"ﾔｵｼ","kana_address":"ﾅｶﾞﾊﾀﾁｮｳ","pref":"大阪府","city":"八尾市","address":"永畑町"},
{"zip_code":"5810045","kana_pref":"ｵｵｻｶﾌ","kana_city":"ﾔｵｼ","kana_address":"ﾆｼｷﾉﾓﾄ","pref":"大阪府","city":"八尾市","address":"西木の本"},
{"zip_code":"5810077","kana_pref":"ｵｵｻｶﾌ","kana_city":"ﾔｵｼ","kana_address":"ﾆｼｷｭｳﾎｳｼﾞ","pref":"大阪府","city":"八尾市","address":"西久宝寺"},
{"zip_code":"5810852","kana_pref":"ｵｵｻｶﾌ","kana_city":"ﾔｵｼ","kana_address":"ﾆｼﾀｶﾔｽﾁｮｳ","pref":"大阪府","city":"八尾市","address":"西高安町"},
{"zip_code":"5810868","kana_pref":"ｵｵｻｶﾌ","kana_city":"ﾔｵｼ","kana_address":"ﾆｼﾔﾏﾓﾄﾁｮｳ","pref":"大阪府","city":"八尾市","address":"西山本町"},
{"zip_code":"5810035","kana_pref":"ｵｵｻｶﾌ","kana_city":"ﾔｵｼ","kana_address":"ﾆｼﾕｳｹﾞ","pref":"大阪府","city":"八尾市","address":"西弓削"},
{"zip_code":"5810036","kana_pref":"ｵｵｻｶﾌ","kana_city":"ﾔｵｼ","kana_address":"ﾇﾏ","pref":"大阪府","city":"八尾市","address":"沼"},
{"zip_code":"5810865","kana_pref":"ｵｵｻｶﾌ","kana_city":"ﾔｵｼ","kana_address":"ﾊｯﾄﾘｶﾞﾜ","pref":"大阪府","city":"八尾市","address":"服部川"},
{"zip_code":"5810803","kana_pref":"ｵｵｻｶﾌ","kana_city":"ﾔｵｼ","kana_address":"ﾋｶﾘﾁｮｳ","pref":"大阪府","city":"八尾市","address":"光町"},
{"zip_code":"5810093","kana_pref":"ｵｵｻｶﾌ","kana_city":"ﾔｵｼ","kana_address":"ﾋｶﾞｼｵｲﾊﾗ","pref":"大阪府","city":"八尾市","address":"東老原"},
{"zip_code":"5810002","kana_pref":"ｵｵｻｶﾌ","kana_city":"ﾔｵｼ","kana_address":"ﾋｶﾞｼｷｭｳﾎｳｼﾞ","pref":"大阪府","city":"八尾市","address":"東久宝寺"},
{"zip_code":"5810062","kana_pref":"ｵｵｻｶﾌ","kana_city":"ﾔｵｼ","kana_address":"ﾋｶﾞｼﾀｲｼ","pref":"大阪府","city":"八尾市","address":"東太子"},
{"zip_code":"5810004","kana_pref":"ｵｵｻｶﾌ","kana_city":"ﾔｵｼ","kana_address":"ﾋｶﾞｼﾎﾝﾏﾁ","pref":"大阪府","city":"八尾市","address":"東本町"},
{"zip_code":"5810861","kana_pref":"ｵｵｻｶﾌ","kana_city":"ﾔｵｼ","kana_address":"ﾋｶﾞｼﾏﾁ","pref":"大阪府","city":"八尾市","address":"東町"},
{"zip_code":"5810866","kana_pref":"ｵｵｻｶﾌ","kana_city":"ﾔｵｼ","kana_address":"ﾋｶﾞｼﾔﾏﾓﾄｼﾝﾏﾁ","pref":"大阪府","city":"八尾市","address":"東山本新町"},
{"zip_code":"5810847","kana_pref":"ｵｵｻｶﾌ","kana_city":"ﾔｵｼ","kana_address":"ﾋｶﾞｼﾔﾏﾓﾄﾁｮｳ","pref":"大阪府","city":"八尾市","address":"東山本町"},
{"zip_code":"5810029","kana_pref":"ｵｵｻｶﾌ","kana_city":"ﾔｵｼ","kana_address":"ﾋｶﾞｼﾕｹﾞ","pref":"大阪府","city":"八尾市","address":"東弓削"},
{"zip_code":"5810844","kana_pref":"ｵｵｻｶﾌ","kana_city":"ﾔｵｼ","kana_address":"ﾌｸｴｲﾁｮｳ","pref":"大阪府","city":"八尾市","address":"福栄町"},
{"zip_code":"5810842","kana_pref":"ｵｵｻｶﾌ","kana_city":"ﾔｵｼ","kana_address":"ﾌｸﾏﾝｼﾞﾁｮｳ","pref":"大阪府","city":"八尾市","address":"福万寺町"},
{"zip_code":"5810843","kana_pref":"ｵｵｻｶﾌ","kana_city":"ﾔｵｼ","kana_address":"ﾌｸﾏﾝｼﾞﾁｮｳﾐﾅﾐ","pref":"大阪府","city":"八尾市","address":"福万寺町南"},
{"zip_code":"5810841","kana_pref":"ｵｵｻｶﾌ","kana_city":"ﾔｵｼ","kana_address":"ﾌｸﾏﾝｼﾞﾁｮｳｷﾀ","pref":"大阪府","city":"八尾市","address":"福万寺町北"},
{"zip_code":"5810024","kana_pref":"ｵｵｻｶﾌ","kana_city":"ﾔｵｼ","kana_address":"ﾌﾀﾏﾀ","pref":"大阪府","city":"八尾市","address":"二俣"},
{"zip_code":"5810003","kana_pref":"ｵｵｻｶﾌ","kana_city":"ﾔｵｼ","kana_address":"ﾎﾝﾏﾁ","pref":"大阪府","city":"八尾市","address":"本町"},
{"zip_code":"5810088","kana_pref":"ｵｵｻｶﾌ","kana_city":"ﾔｵｼ","kana_address":"ﾏﾂﾔﾏﾁｮｳ","pref":"大阪府","city":"八尾市","address":"松山町"},
{"zip_code":"5810856","kana_pref":"ｵｵｻｶﾌ","kana_city":"ﾔｵｼ","kana_address":"ﾐｽﾞｺｼ","pref":"大阪府","city":"八尾市","address":"水越"},
{"zip_code":"5810818","kana_pref":"ｵｵｻｶﾌ","kana_city":"ﾔｵｼ","kana_address":"ﾐｿﾉﾁｮｳ","pref":"大阪府","city":"八尾市","address":"美園町"},
{"zip_code":"5810837","kana_pref":"ｵｵｻｶﾌ","kana_city":"ﾔｵｼ","kana_address":"ﾐﾄﾞﾘｶﾞｵｶ","pref":"大阪府","city":"八尾市","address":"緑ケ丘"},
{"zip_code":"5810091","kana_pref":"ｵｵｻｶﾌ","kana_city":"ﾔｵｼ","kana_address":"ﾐﾅﾐｳｴﾏﾂﾁｮｳ","pref":"大阪府","city":"八尾市","address":"南植松町"},
{"zip_code":"5810054","kana_pref":"ｵｵｻｶﾌ","kana_city":"ﾔｵｼ","kana_address":"ﾐﾅﾐｶﾒｲﾁｮｳ","pref":"大阪府","city":"八尾市","address":"南亀井町"},
{"zip_code":"5810042","kana_pref":"ｵｵｻｶﾌ","kana_city":"ﾔｵｼ","kana_address":"ﾐﾅﾐｷﾉﾓﾄ","pref":"大阪府","city":"八尾市","address":"南木の本"},
{"zip_code":"5810076","kana_pref":"ｵｵｻｶﾌ","kana_city":"ﾔｵｼ","kana_address":"ﾐﾅﾐｷｭｳﾎｳｼﾞ","pref":"大阪府","city":"八尾市","address":"南久宝寺"},
{"zip_code":"5810019","kana_pref":"ｵｵｻｶﾌ","kana_city":"ﾔｵｼ","kana_address":"ﾐﾅﾐｺｻﾞｶｱｲﾁｮｳ","pref":"大阪府","city":"八尾市","address":"南小阪合町"},
{"zip_code":"5810056","kana_pref":"ｵｵｻｶﾌ","kana_city":"ﾔｵｼ","kana_address":"ﾐﾅﾐﾀｲｼﾄﾞｳ","pref":"大阪府","city":"八尾市","address":"南太子堂"},
{"zip_code":"5810081","kana_pref":"ｵｵｻｶﾌ","kana_city":"ﾔｵｼ","kana_address":"ﾐﾅﾐﾎﾝﾏﾁ","pref":"大阪府","city":"八尾市","address":"南本町"},
{"zip_code":"5810023","kana_pref":"ｵｵｻｶﾌ","kana_city":"ﾔｵｼ","kana_address":"ﾐﾔｺﾂﾞｶ","pref":"大阪府","city":"八尾市","address":"都塚"},
{"zip_code":"5810815","kana_pref":"ｵｵｻｶﾌ","kana_city":"ﾔｵｼ","kana_address":"ﾐﾔﾏﾁ","pref":"大阪府","city":"八尾市","address":"宮町"},
{"zip_code":"5810027","kana_pref":"ｵｵｻｶﾌ","kana_city":"ﾔｵｼ","kana_address":"ﾔｵｷﾞ","pref":"大阪府","city":"八尾市","address":"八尾木"},
{"zip_code":"5810028","kana_pref":"ｵｵｻｶﾌ","kana_city":"ﾔｵｼ","kana_address":"ﾔｵｷﾞﾋｶﾞｼ","pref":"大阪府","city":"八尾市","address":"八尾木東"},
{"zip_code":"5810016","kana_pref":"ｵｵｻｶﾌ","kana_city":"ﾔｵｼ","kana_address":"ﾔｵｷﾞｷﾀ","pref":"大阪府","city":"八尾市","address":"八尾木北"},
{"zip_code":"5810085","kana_pref":"ｵｵｻｶﾌ","kana_city":"ﾔｵｼ","kana_address":"ﾔｽﾅｶﾁｮｳ","pref":"大阪府","city":"八尾市","address":"安中町"},
{"zip_code":"5810812","kana_pref":"ｵｵｻｶﾌ","kana_city":"ﾔｵｼ","kana_address":"ﾔﾏｶﾞﾁｮｳ","pref":"大阪府","city":"八尾市","address":"山賀町"},
{"zip_code":"5810801","kana_pref":"ｵｵｻｶﾌ","kana_city":"ﾔｵｼ","kana_address":"ﾔﾏｼﾛﾁｮｳ","pref":"大阪府","city":"八尾市","address":"山城町"},
{"zip_code":"5810864","kana_pref":"ｵｵｻｶﾌ","kana_city":"ﾔｵｼ","kana_address":"ﾔﾏﾀｹ","pref":"大阪府","city":"八尾市","address":"山畑"},
{"zip_code":"5810021","kana_pref":"ｵｵｻｶﾌ","kana_city":"ﾔｵｼ","kana_address":"ﾔﾏﾓﾄﾀｶﾔｽﾁｮｳ","pref":"大阪府","city":"八尾市","address":"山本高安町"},
{"zip_code":"5810867","kana_pref":"ｵｵｻｶﾌ","kana_city":"ﾔｵｼ","kana_address":"ﾔﾏﾓﾄﾁｮｳ","pref":"大阪府","city":"八尾市","address":"山本町"},
{"zip_code":"5810013","kana_pref":"ｵｵｻｶﾌ","kana_city":"ﾔｵｼ","kana_address":"ﾔﾏﾓﾄﾁｮｳﾐﾅﾐ","pref":"大阪府","city":"八尾市","address":"山本町南"},
{"zip_code":"5810831","kana_pref":"ｵｵｻｶﾌ","kana_city":"ﾔｵｼ","kana_address":"ﾔﾏﾓﾄﾁｮｳｷﾀ","pref":"大阪府","city":"八尾市","address":"山本町北"},
{"zip_code":"5810032","kana_pref":"ｵｵｻｶﾌ","kana_city":"ﾔｵｼ","kana_address":"ﾕｳｹﾞﾁｮｳ","pref":"大阪府","city":"八尾市","address":"弓削町"},
{"zip_code":"5810034","kana_pref":"ｵｵｻｶﾌ","kana_city":"ﾔｵｼ","kana_address":"ﾕｳｹﾞﾁｮｳﾐﾅﾐ","pref":"大阪府","city":"八尾市","address":"弓削町南"},
{"zip_code":"5810086","kana_pref":"ｵｵｻｶﾌ","kana_city":"ﾔｵｼ","kana_address":"ﾖｳｺｳｴﾝ","pref":"大阪府","city":"八尾市","address":"陽光園"},
{"zip_code":"5810027","kana_pref":"ｵｵｻｶﾌ","kana_city":"ﾔｵｼ","kana_address":"ﾖｵｷﾞ","pref":"大阪府","city":"八尾市","address":"八尾木"},
{"zip_code":"5810069","kana_pref":"ｵｵｻｶﾌ","kana_city":"ﾔｵｼ","kana_address":"ﾘｭｳｹﾞﾁｮｳ","pref":"大阪府","city":"八尾市","address":"龍華町"},
{"zip_code":"5810011","kana_pref":"ｵｵｻｶﾌ","kana_city":"ﾔｵｼ","kana_address":"ﾜｶｸｻﾁｮｳ","pref":"大阪府","city":"八尾市","address":"若草町"},
{"zip_code":"5810038","kana_pref":"ｵｵｻｶﾌ","kana_city":"ﾔｵｼ","kana_address":"ﾜｶﾊﾞﾔｼﾁｮｳ","pref":"大阪府","city":"八尾市","address":"若林町"}]}