{"zip_code":[
{"zip_code":"5820000","kana_pref":"ｵｵｻｶﾌ","kana_city":"ｶｼﾜﾗｼ","kana_address":"","pref":"大阪府","city":"柏原市","address":""},
{"zip_code":"5820014","kana_pref":"ｵｵｻｶﾌ","kana_city":"ｶｼﾜﾗｼ","kana_address":"ｱｵﾀﾆ","pref":"大阪府","city":"柏原市","address":"青谷"},
{"zip_code":"5820026","kana_pref":"ｵｵｻｶﾌ","kana_city":"ｶｼﾜﾗｼ","kana_address":"ｱｻﾋｶﾞｵｶ","pref":"大阪府","city":"柏原市","address":"旭ケ丘"},
{"zip_code":"5820016","kana_pref":"ｵｵｻｶﾌ","kana_city":"ｶｼﾜﾗｼ","kana_address":"ｱﾝﾄﾞｳﾁｮｳ","pref":"大阪府","city":"柏原市","address":"安堂町"},
{"zip_code":"5820029","kana_pref":"ｵｵｻｶﾌ","kana_city":"ｶｼﾜﾗｼ","kana_address":"ｲｼｶﾜﾁｮｳ","pref":"大阪府","city":"柏原市","address":"石川町"},
{"zip_code":"5820002","kana_pref":"ｵｵｻｶﾌ","kana_city":"ｶｼﾜﾗｼ","kana_address":"ｲﾏﾏﾁ","pref":"大阪府","city":"柏原市","address":"今町"},
{"zip_code":"5820027","kana_pref":"ｵｵｻｶﾌ","kana_city":"ｶｼﾜﾗｼ","kana_address":"ｴﾝﾐｮｳﾁｮｳ","pref":"大阪府","city":"柏原市","address":"円明町"},
{"zip_code":"5820018","kana_pref":"ｵｵｻｶﾌ","kana_city":"ｶｼﾜﾗｼ","kana_address":"ｵｵｶﾞﾀ","pref":"大阪府","city":"柏原市","address":"大県"},
{"zip_code":"5820020","kana_pref":"ｵｵｻｶﾌ","kana_city":"ｶｼﾜﾗｼ","kana_address":"ｶﾀﾔﾏﾁｮｳ","pref":"大阪府","city":"柏原市","address":"片山町"},
{"zip_code":"5820007","kana_pref":"ｵｵｻｶﾌ","kana_city":"ｶｼﾜﾗｼ","kana_address":"ｶﾐｲﾁ","pref":"大阪府","city":"柏原市","address":"上市"},
{"zip_code":"5820012","kana_pref":"ｵｵｻｶﾌ","kana_city":"ｶｼﾜﾗｼ","kana_address":"ｶﾘﾝﾄﾞｵﾊﾞﾀ","pref":"大阪府","city":"柏原市","address":"雁多尾畑"},
{"zip_code":"5820004","kana_pref":"ｵｵｻｶﾌ","kana_city":"ｶｼﾜﾗｼ","kana_address":"ｶﾜﾊﾗﾁｮｳ","pref":"大阪府","city":"柏原市","address":"河原町"},
{"zip_code":"5820006","kana_pref":"ｵｵｻｶﾌ","kana_city":"ｶｼﾜﾗｼ","kana_address":"ｷﾖｽ","pref":"大阪府","city":"柏原市","address":"清州"},
{"zip_code":"5820022","kana_pref":"ｵｵｻｶﾌ","kana_city":"ｶｼﾜﾗｼ","kana_address":"ｺｸﾌﾞｲﾁﾊﾞ","pref":"大阪府","city":"柏原市","address":"国分市場"},
{"zip_code":"5820023","kana_pref":"ｵｵｻｶﾌ","kana_city":"ｶｼﾜﾗｼ","kana_address":"ｺｸﾌﾞﾋｶﾞﾝｼﾞｮｳﾁｮｳ","pref":"大阪府","city":"柏原市","address":"国分東条町"},
{"zip_code":"5820021","kana_pref":"ｵｵｻｶﾌ","kana_city":"ｶｼﾜﾗｼ","kana_address":"ｺｸﾌﾞﾎﾝﾏﾁ","pref":"大阪府","city":"柏原市","address":"国分本町"},
{"zip_code":"5820025","kana_pref":"ｵｵｻｶﾌ","kana_city":"ｶｼﾜﾗｼ","kana_address":"ｺｸﾌﾞﾆｼ","pref":"大阪府","city":"柏原市","address":"国分西"},
{"zip_code":"5820009","kana_pref":"ｵｵｻｶﾌ","kana_city":"ｶｼﾜﾗｼ","kana_address":"ﾀｲｼｮｳ","pref":"大阪府","city":"柏原市","address":"大正"},
{"zip_code":"5820017","kana_pref":"ｵｵｻｶﾌ","kana_city":"ｶｼﾜﾗｼ","kana_address":"ﾀｲﾍｲｼﾞ","pref":"大阪府","city":"柏原市","address":"太平寺"},
{"zip_code":"5820015","kana_pref":"ｵｵｻｶﾌ","kana_city":"ｶｼﾜﾗｼ","kana_address":"ﾀｶｲﾀﾞ","pref":"大阪府","city":"柏原市","address":"高井田"},
{"zip_code":"5820024","kana_pref":"ｵｵｻｶﾌ","kana_city":"ｶｼﾜﾗｼ","kana_address":"ﾀﾅﾍﾞ","pref":"大阪府","city":"柏原市","address":"田辺"},
{"zip_code":"5820028","kana_pref":"ｵｵｻｶﾌ","kana_city":"ｶｼﾜﾗｼ","kana_address":"ﾀﾏﾃﾁｮｳ","pref":"大阪府","city":"柏原市","address":"玉手町"},
{"zip_code":"5820013","kana_pref":"ｵｵｻｶﾌ","kana_city":"ｶｼﾜﾗｼ","kana_address":"ﾄｳｹﾞ","pref":"大阪府","city":"柏原市","address":"峠"},
{"zip_code":"5820003","kana_pref":"ｵｵｻｶﾌ","kana_city":"ｶｼﾜﾗｼ","kana_address":"ﾄﾞｳｼﾞﾏﾁｮｳ","pref":"大阪府","city":"柏原市","address":"堂島町"},
{"zip_code":"5820019","kana_pref":"ｵｵｻｶﾌ","kana_city":"ｶｼﾜﾗｼ","kana_address":"ﾋﾗﾉ","pref":"大阪府","city":"柏原市","address":"平野"},
{"zip_code":"5820008","kana_pref":"ｵｵｻｶﾌ","kana_city":"ｶｼﾜﾗｼ","kana_address":"ﾌﾙﾏﾁ","pref":"大阪府","city":"柏原市","address":"古町"},
{"zip_code":"5820005","kana_pref":"ｵｵｻｶﾌ","kana_city":"ｶｼﾜﾗｼ","kana_address":"ﾎｳｾﾞﾝｼﾞ","pref":"大阪府","city":"柏原市","address":"法善寺"},
{"zip_code":"5820001","kana_pref":"ｵｵｻｶﾌ","kana_city":"ｶｼﾜﾗｼ","kana_address":"ﾎﾝｺﾞｳ","pref":"大阪府","city":"柏原市","address":"本郷"},
{"zip_code":"5820011","kana_pref":"ｵｵｻｶﾌ","kana_city":"ｶｼﾜﾗｼ","kana_address":"ﾎﾝﾄﾞｳ","pref":"大阪府","city":"柏原市","address":"本堂"},
{"zip_code":"5820010","kana_pref":"ｵｵｻｶﾌ","kana_city":"ｶｼﾜﾗｼ","kana_address":"ﾔﾏﾉｲﾁｮｳ","pref":"大阪府","city":"柏原市","address":"山ノ井町"}]}