{"zip_code":[
{"zip_code":"5830000","kana_pref":"ｵｵｻｶﾌ","kana_city":"ﾊﾋﾞｷﾉｼ","kana_address":"","pref":"大阪府","city":"羽曳野市","address":""},
{"zip_code":"5830842","kana_pref":"ｵｵｻｶﾌ","kana_city":"ﾊﾋﾞｷﾉｼ","kana_address":"ｱｽｶ","pref":"大阪府","city":"羽曳野市","address":"飛鳥"},
{"zip_code":"5830876","kana_pref":"ｵｵｻｶﾌ","kana_city":"ﾊﾋﾞｷﾉｼ","kana_address":"ｲｶﾞ","pref":"大阪府","city":"羽曳野市","address":"伊賀"},
{"zip_code":"5830851","kana_pref":"ｵｵｻｶﾌ","kana_city":"ﾊﾋﾞｷﾉｼ","kana_address":"ｳｽｲ","pref":"大阪府","city":"羽曳野市","address":"碓井"},
{"zip_code":"5830886","kana_pref":"ｵｵｻｶﾌ","kana_city":"ﾊﾋﾞｷﾉｼ","kana_address":"ｴｶﾞﾉｼｮｳ","pref":"大阪府","city":"羽曳野市","address":"恵我之荘"},
{"zip_code":"5830847","kana_pref":"ｵｵｻｶﾌ","kana_city":"ﾊﾋﾞｷﾉｼ","kana_address":"ｵｸﾞﾛ","pref":"大阪府","city":"羽曳野市","address":"大黒"},
{"zip_code":"5830868","kana_pref":"ｵｵｻｶﾌ","kana_city":"ﾊﾋﾞｷﾉｼ","kana_address":"ｶﾞｸｴﾝﾏｴ","pref":"大阪府","city":"羽曳野市","address":"学園前"},
{"zip_code":"5830875","kana_pref":"ｵｵｻｶﾌ","kana_city":"ﾊﾋﾞｷﾉｼ","kana_address":"ｶｼﾔﾏ","pref":"大阪府","city":"羽曳野市","address":"樫山"},
{"zip_code":"5830854","kana_pref":"ｵｵｻｶﾌ","kana_city":"ﾊﾋﾞｷﾉｼ","kana_address":"ｶﾙｻﾄ","pref":"大阪府","city":"羽曳野市","address":"軽里"},
{"zip_code":"5830867","kana_pref":"ｵｵｻｶﾌ","kana_city":"ﾊﾋﾞｷﾉｼ","kana_address":"ｶﾜﾊﾗｼﾞｮｳ","pref":"大阪府","city":"羽曳野市","address":"河原城"},
{"zip_code":"5830848","kana_pref":"ｵｵｻｶﾌ","kana_city":"ﾊﾋﾞｷﾉｼ","kana_address":"ｶﾜﾑｶｲ","pref":"大阪府","city":"羽曳野市","address":"川向"},
{"zip_code":"5830863","kana_pref":"ｵｵｻｶﾌ","kana_city":"ﾊﾋﾞｷﾉｼ","kana_address":"ｸﾗﾉｳﾁ","pref":"大阪府","city":"羽曳野市","address":"蔵之内"},
{"zip_code":"5830874","kana_pref":"ｵｵｻｶﾌ","kana_city":"ﾊﾋﾞｷﾉｼ","kana_address":"ｺｵｽﾞ","pref":"大阪府","city":"羽曳野市","address":"郡戸"},
{"zip_code":"5830841","kana_pref":"ｵｵｻｶﾌ","kana_city":"ﾊﾋﾞｷﾉｼ","kana_address":"ｺﾏｶﾞﾀﾆ","pref":"大阪府","city":"羽曳野市","address":"駒ケ谷"},
{"zip_code":"5830857","kana_pref":"ｵｵｻｶﾌ","kana_city":"ﾊﾋﾞｷﾉｼ","kana_address":"ｺﾝﾀﾞ","pref":"大阪府","city":"羽曳野市","address":"誉田"},
{"zip_code":"5830853","kana_pref":"ｵｵｻｶﾌ","kana_city":"ﾊﾋﾞｷﾉｼ","kana_address":"ｻｶｴﾏﾁ","pref":"大阪府","city":"羽曳野市","address":"栄町"},
{"zip_code":"5830881","kana_pref":"ｵｵｻｶﾌ","kana_city":"ﾊﾋﾞｷﾉｼ","kana_address":"ｼﾏｲｽﾞﾐ","pref":"大阪府","city":"羽曳野市","address":"島泉"},
{"zip_code":"5830862","kana_pref":"ｵｵｻｶﾌ","kana_city":"ﾊﾋﾞｷﾉｼ","kana_address":"ｼｬｸﾄﾞ","pref":"大阪府","city":"羽曳野市","address":"尺度"},
{"zip_code":"5830855","kana_pref":"ｵｵｻｶﾌ","kana_city":"ﾊﾋﾞｷﾉｼ","kana_address":"ｽｲﾁｮｳｴﾝ","pref":"大阪府","city":"羽曳野市","address":"翠鳥園"},
{"zip_code":"5830882","kana_pref":"ｵｵｻｶﾌ","kana_city":"ﾊﾋﾞｷﾉｼ","kana_address":"ﾀｶﾜｼ","pref":"大阪府","city":"羽曳野市","address":"高鷲"},
{"zip_code":"5830843","kana_pref":"ｵｵｻｶﾌ","kana_city":"ﾊﾋﾞｷﾉｼ","kana_address":"ﾂｳﾎｳｼﾞ","pref":"大阪府","city":"羽曳野市","address":"通法寺"},
{"zip_code":"5830844","kana_pref":"ｵｵｻｶﾌ","kana_city":"ﾊﾋﾞｷﾉｼ","kana_address":"ﾂﾎﾞｲ","pref":"大阪府","city":"羽曳野市","address":"壺井"},
{"zip_code":"5830861","kana_pref":"ｵｵｻｶﾌ","kana_city":"ﾊﾋﾞｷﾉｼ","kana_address":"ﾆｼｳﾗ","pref":"大阪府","city":"羽曳野市","address":"西浦"},
{"zip_code":"5830884","kana_pref":"ｵｵｻｶﾌ","kana_city":"ﾊﾋﾞｷﾉｼ","kana_address":"ﾉ","pref":"大阪府","city":"羽曳野市","address":"野"},
{"zip_code":"5830871","kana_pref":"ｵｵｻｶﾌ","kana_city":"ﾊﾋﾞｷﾉｼ","kana_address":"ﾉﾉｳｴ","pref":"大阪府","city":"羽曳野市","address":"野々上"},
{"zip_code":"5830856","kana_pref":"ｵｵｻｶﾌ","kana_city":"ﾊﾋﾞｷﾉｼ","kana_address":"ﾊｸﾁｮｳ","pref":"大阪府","city":"羽曳野市","address":"白鳥"},
{"zip_code":"5830866","kana_pref":"ｵｵｻｶﾌ","kana_city":"ﾊﾋﾞｷﾉｼ","kana_address":"ﾊﾆｭｳﾉ","pref":"大阪府","city":"羽曳野市","address":"埴生野"},
{"zip_code":"5830864","kana_pref":"ｵｵｻｶﾌ","kana_city":"ﾊﾋﾞｷﾉｼ","kana_address":"ﾊﾋﾞｷｶﾞｵｶ","pref":"大阪府","city":"羽曳野市","address":"羽曳が丘"},
{"zip_code":"5830865","kana_pref":"ｵｵｻｶﾌ","kana_city":"ﾊﾋﾞｷﾉｼ","kana_address":"ﾊﾋﾞｷｶﾞｵｶﾆｼ","pref":"大阪府","city":"羽曳野市","address":"羽曳が丘西"},
{"zip_code":"5830872","kana_pref":"ｵｵｻｶﾌ","kana_city":"ﾊﾋﾞｷﾉｼ","kana_address":"ﾊﾋﾞｷﾉ","pref":"大阪府","city":"羽曳野市","address":"はびきの"},
{"zip_code":"5830846","kana_pref":"ｵｵｻｶﾌ","kana_city":"ﾊﾋﾞｷﾉｼ","kana_address":"ﾋｶﾞｼｻｶﾀ","pref":"大阪府","city":"羽曳野市","address":"東阪田"},
{"zip_code":"5830845","kana_pref":"ｵｵｻｶﾌ","kana_city":"ﾊﾋﾞｷﾉｼ","kana_address":"ﾋﾛｾ","pref":"大阪府","city":"羽曳野市","address":"広瀬"},
{"zip_code":"5830852","kana_pref":"ｵｵｻｶﾌ","kana_city":"ﾊﾋﾞｷﾉｼ","kana_address":"ﾌﾙｲﾁ","pref":"大阪府","city":"羽曳野市","address":"古市"},
{"zip_code":"5830885","kana_pref":"ｵｵｻｶﾌ","kana_city":"ﾊﾋﾞｷﾉｼ","kana_address":"ﾐﾅﾐｴｶﾞﾉｼｮｳ","pref":"大阪府","city":"羽曳野市","address":"南恵我之荘"},
{"zip_code":"5830858","kana_pref":"ｵｵｻｶﾌ","kana_city":"ﾊﾋﾞｷﾉｼ","kana_address":"ﾐﾅﾐﾌﾙｲﾁ","pref":"大阪府","city":"羽曳野市","address":"南古市"},
{"zip_code":"5830883","kana_pref":"ｵｵｻｶﾌ","kana_city":"ﾊﾋﾞｷﾉｼ","kana_address":"ﾑｶｲﾉ","pref":"大阪府","city":"羽曳野市","address":"向野"},
{"zip_code":"5830873","kana_pref":"ｵｵｻｶﾌ","kana_city":"ﾊﾋﾞｷﾉｼ","kana_address":"ﾓﾓﾔﾏﾀﾞｲ","pref":"大阪府","city":"羽曳野市","address":"桃山台"},
{"zip_code":"5830000","kana_pref":"ｵｵｻｶﾌ","kana_city":"ﾌｼﾞｲﾃﾞﾗｼ","kana_address":"","pref":"大阪府","city":"藤井寺市","address":""},
{"zip_code":"5830015","kana_pref":"ｵｵｻｶﾌ","kana_city":"ﾌｼﾞｲﾃﾞﾗｼ","kana_address":"ｱｵﾔﾏ","pref":"大阪府","city":"藤井寺市","address":"青山"},
{"zip_code":"5830004","kana_pref":"ｵｵｻｶﾌ","kana_city":"ﾌｼﾞｲﾃﾞﾗｼ","kana_address":"ｳﾒｶﾞｴﾝﾁｮｳ","pref":"大阪府","city":"藤井寺市","address":"梅が園町"},
{"zip_code":"5830036","kana_pref":"ｵｵｻｶﾌ","kana_city":"ﾌｼﾞｲﾃﾞﾗｼ","kana_address":"ｴﾐｻｶ","pref":"大阪府","city":"藤井寺市","address":"恵美坂"},
{"zip_code":"5830008","kana_pref":"ｵｵｻｶﾌ","kana_city":"ﾌｼﾞｲﾃﾞﾗｼ","kana_address":"ｵｵｲ","pref":"大阪府","city":"藤井寺市","address":"大井"},
{"zip_code":"5830027","kana_pref":"ｵｵｻｶﾌ","kana_city":"ﾌｼﾞｲﾃﾞﾗｼ","kana_address":"ｵｶ","pref":"大阪府","city":"藤井寺市","address":"岡"},
{"zip_code":"5830026","kana_pref":"ｵｵｻｶﾌ","kana_city":"ﾌｼﾞｲﾃﾞﾗｼ","kana_address":"ｶｽｶﾞｵｶ","pref":"大阪府","city":"藤井寺市","address":"春日丘"},
{"zip_code":"5830025","kana_pref":"ｵｵｻｶﾌ","kana_city":"ﾌｼﾞｲﾃﾞﾗｼ","kana_address":"ｶｽｶﾞｵｶｼﾝﾏﾁ","pref":"大阪府","city":"藤井寺市","address":"春日丘新町"},
{"zip_code":"5830001","kana_pref":"ｵｵｻｶﾌ","kana_city":"ﾌｼﾞｲﾃﾞﾗｼ","kana_address":"ｶﾜｷﾀ","pref":"大阪府","city":"藤井寺市","address":"川北"},
{"zip_code":"5830035","kana_pref":"ｵｵｻｶﾌ","kana_city":"ﾌｼﾞｲﾃﾞﾗｼ","kana_address":"ｷﾀｵｶ","pref":"大阪府","city":"藤井寺市","address":"北岡"},
{"zip_code":"5830006","kana_pref":"ｵｵｻｶﾌ","kana_city":"ﾌｼﾞｲﾃﾞﾗｼ","kana_address":"ｺｳ","pref":"大阪府","city":"藤井寺市","address":"国府"},
{"zip_code":"5830013","kana_pref":"ｵｵｻｶﾌ","kana_city":"ﾌｼﾞｲﾃﾞﾗｼ","kana_address":"ｺﾑﾛ","pref":"大阪府","city":"藤井寺市","address":"古室"},
{"zip_code":"5830033","kana_pref":"ｵｵｻｶﾌ","kana_city":"ﾌｼﾞｲﾃﾞﾗｼ","kana_address":"ｺﾔﾏ","pref":"大阪府","city":"藤井寺市","address":"小山"},
{"zip_code":"5830031","kana_pref":"ｵｵｻｶﾌ","kana_city":"ﾌｼﾞｲﾃﾞﾗｼ","kana_address":"ｺﾔﾏｼﾝﾏﾁ","pref":"大阪府","city":"藤井寺市","address":"小山新町"},
{"zip_code":"5830034","kana_pref":"ｵｵｻｶﾌ","kana_city":"ﾌｼﾞｲﾃﾞﾗｼ","kana_address":"ｺﾔﾏﾌｼﾞﾉｻﾄﾁｮｳ","pref":"大阪府","city":"藤井寺市","address":"小山藤の里町"},
{"zip_code":"5830032","kana_pref":"ｵｵｻｶﾌ","kana_city":"ﾌｼﾞｲﾃﾞﾗｼ","kana_address":"ｺﾔﾏﾌｼﾞﾐﾁｮｳ","pref":"大阪府","city":"藤井寺市","address":"小山藤美町"},
{"zip_code":"5830023","kana_pref":"ｵｵｻｶﾌ","kana_city":"ﾌｼﾞｲﾃﾞﾗｼ","kana_address":"ｻｸﾗﾁｮｳ","pref":"大阪府","city":"藤井寺市","address":"さくら町"},
{"zip_code":"5830011","kana_pref":"ｵｵｻｶﾌ","kana_city":"ﾌｼﾞｲﾃﾞﾗｼ","kana_address":"ｻﾜﾀﾞ","pref":"大阪府","city":"藤井寺市","address":"沢田"},
{"zip_code":"5830005","kana_pref":"ｵｵｻｶﾌ","kana_city":"ﾌｼﾞｲﾃﾞﾗｼ","kana_address":"ｿｳｼｬ","pref":"大阪府","city":"藤井寺市","address":"惣社"},
{"zip_code":"5830037","kana_pref":"ｵｵｻｶﾌ","kana_city":"ﾌｼﾞｲﾃﾞﾗｼ","kana_address":"ﾂﾄﾞｳ","pref":"大阪府","city":"藤井寺市","address":"津堂"},
{"zip_code":"5830012","kana_pref":"ｵｵｻｶﾌ","kana_city":"ﾌｼﾞｲﾃﾞﾗｼ","kana_address":"ﾄﾞｳﾐｮｳｼﾞ","pref":"大阪府","city":"藤井寺市","address":"道明寺"},
{"zip_code":"5830009","kana_pref":"ｵｵｻｶﾌ","kana_city":"ﾌｼﾞｲﾃﾞﾗｼ","kana_address":"ﾆｼｵｵｲ","pref":"大阪府","city":"藤井寺市","address":"西大井"},
{"zip_code":"5830018","kana_pref":"ｵｵｻｶﾌ","kana_city":"ﾌｼﾞｲﾃﾞﾗｼ","kana_address":"ﾆｼｺﾑﾛ","pref":"大阪府","city":"藤井寺市","address":"西古室"},
{"zip_code":"5830014","kana_pref":"ｵｵｻｶﾌ","kana_city":"ﾌｼﾞｲﾃﾞﾗｼ","kana_address":"ﾉﾅｶ","pref":"大阪府","city":"藤井寺市","address":"野中"},
{"zip_code":"5830007","kana_pref":"ｵｵｻｶﾌ","kana_city":"ﾌｼﾞｲﾃﾞﾗｼ","kana_address":"ﾊﾔｼ","pref":"大阪府","city":"藤井寺市","address":"林"},
{"zip_code":"5830022","kana_pref":"ｵｵｻｶﾌ","kana_city":"ﾌｼﾞｲﾃﾞﾗｼ","kana_address":"ﾋｶﾞｼﾌｼﾞｲﾃﾞﾗﾁｮｳ","pref":"大阪府","city":"藤井寺市","address":"東藤井寺町"},
{"zip_code":"5830024","kana_pref":"ｵｵｻｶﾌ","kana_city":"ﾌｼﾞｲﾃﾞﾗｼ","kana_address":"ﾌｼﾞｲﾃﾞﾗ","pref":"大阪府","city":"藤井寺市","address":"藤井寺"},
{"zip_code":"5830017","kana_pref":"ｵｵｻｶﾌ","kana_city":"ﾌｼﾞｲﾃﾞﾗｼ","kana_address":"ﾌｼﾞｶﾞｵｶ","pref":"大阪府","city":"藤井寺市","address":"藤ケ丘"},
{"zip_code":"5830003","kana_pref":"ｵｵｻｶﾌ","kana_city":"ﾌｼﾞｲﾃﾞﾗｼ","kana_address":"ﾌﾅﾊｼﾁｮｳ","pref":"大阪府","city":"藤井寺市","address":"船橋町"},
{"zip_code":"5830002","kana_pref":"ｵｵｻｶﾌ","kana_city":"ﾌｼﾞｲﾃﾞﾗｼ","kana_address":"ﾎｳｼﾞｮｳﾁｮｳ","pref":"大阪府","city":"藤井寺市","address":"北條町"},
{"zip_code":"5830021","kana_pref":"ｵｵｻｶﾌ","kana_city":"ﾌｼﾞｲﾃﾞﾗｼ","kana_address":"ﾐﾌﾈﾁｮｳ","pref":"大阪府","city":"藤井寺市","address":"御舟町"},
{"zip_code":"5830016","kana_pref":"ｵｵｻｶﾌ","kana_city":"ﾌｼﾞｲﾃﾞﾗｼ","kana_address":"ﾘｮｳﾅﾝﾁｮｳ","pref":"大阪府","city":"藤井寺市","address":"陵南町"},
{"zip_code":"5830000","kana_pref":"ｵｵｻｶﾌ","kana_city":"ﾐﾅﾐｶﾜﾁｸﾞﾝﾀｲｼﾁｮｳ","kana_address":"","pref":"大阪府","city":"南河内郡太子町","address":""},
{"zip_code":"5830991","kana_pref":"ｵｵｻｶﾌ","kana_city":"ﾐﾅﾐｶﾜﾁｸﾞﾝﾀｲｼﾁｮｳ","kana_address":"ｶｽｶﾞ","pref":"大阪府","city":"南河内郡太子町","address":"春日"},
{"zip_code":"5830996","kana_pref":"ｵｵｻｶﾌ","kana_city":"ﾐﾅﾐｶﾜﾁｸﾞﾝﾀｲｼﾁｮｳ","kana_address":"ｾｲﾜﾀﾞｲ","pref":"大阪府","city":"南河内郡太子町","address":"聖和台"},
{"zip_code":"5830995","kana_pref":"ｵｵｻｶﾌ","kana_city":"ﾐﾅﾐｶﾜﾁｸﾞﾝﾀｲｼﾁｮｳ","kana_address":"ﾀｲｼ","pref":"大阪府","city":"南河内郡太子町","address":"太子"},
{"zip_code":"5830993","kana_pref":"ｵｵｻｶﾌ","kana_city":"ﾐﾅﾐｶﾜﾁｸﾞﾝﾀｲｼﾁｮｳ","kana_address":"ﾊﾀ","pref":"大阪府","city":"南河内郡太子町","address":"畑"},
{"zip_code":"5830994","kana_pref":"ｵｵｻｶﾌ","kana_city":"ﾐﾅﾐｶﾜﾁｸﾞﾝﾀｲｼﾁｮｳ","kana_address":"ﾊﾑﾛ","pref":"大阪府","city":"南河内郡太子町","address":"葉室"},
{"zip_code":"5830992","kana_pref":"ｵｵｻｶﾌ","kana_city":"ﾐﾅﾐｶﾜﾁｸﾞﾝﾀｲｼﾁｮｳ","kana_address":"ﾔﾏﾀﾞ","pref":"大阪府","city":"南河内郡太子町","address":"山田"}]}