{"zip_code":[
{"zip_code":"5840000","kana_pref":"ｵｵｻｶﾌ","kana_city":"ﾄﾝﾀﾞﾊﾞﾔｼｼ","kana_address":"","pref":"大阪府","city":"富田林市","address":""},
{"zip_code":"5840076","kana_pref":"ｵｵｻｶﾌ","kana_city":"ﾄﾝﾀﾞﾊﾞﾔｼｼ","kana_address":"ｱｵﾊﾞｵｶ","pref":"大阪府","city":"富田林市","address":"青葉丘"},
{"zip_code":"5840006","kana_pref":"ｵｵｻｶﾌ","kana_city":"ﾄﾝﾀﾞﾊﾞﾔｼｼ","kana_address":"ｱｻﾋｶﾞｵｶﾁｮｳ","pref":"大阪府","city":"富田林市","address":"旭ケ丘町"},
{"zip_code":"5840012","kana_pref":"ｵｵｻｶﾌ","kana_city":"ﾄﾝﾀﾞﾊﾞﾔｼｼ","kana_address":"ｱﾜｶﾞｲｹﾁｮｳ","pref":"大阪府","city":"富田林市","address":"粟ケ池町"},
{"zip_code":"5840001","kana_pref":"ｵｵｻｶﾌ","kana_city":"ﾄﾝﾀﾞﾊﾞﾔｼｼ","kana_address":"ｳﾒﾉｻﾄ","pref":"大阪府","city":"富田林市","address":"梅の里"},
{"zip_code":"5840056","kana_pref":"ｵｵｻｶﾌ","kana_city":"ﾄﾝﾀﾞﾊﾞﾔｼｼ","kana_address":"ｳﾚｼ","pref":"大阪府","city":"富田林市","address":"嬉"},
{"zip_code":"5840095","kana_pref":"ｵｵｻｶﾌ","kana_city":"ﾄﾝﾀﾞﾊﾞﾔｼｼ","kana_address":"ｴﾋﾞﾀﾆ","pref":"大阪府","city":"富田林市","address":"毛人谷"},
{"zip_code":"5840058","kana_pref":"ｵｵｻｶﾌ","kana_city":"ﾄﾝﾀﾞﾊﾞﾔｼｼ","kana_address":"ｵﾁｶﾀ","pref":"大阪府","city":"富田林市","address":"彼方"},
{"zip_code":"5840040","kana_pref":"ｵｵｻｶﾌ","kana_city":"ﾄﾝﾀﾞﾊﾞﾔｼｼ","kana_address":"ｶｶﾞﾘﾀﾞｲ","pref":"大阪府","city":"富田林市","address":"かがり台"},
{"zip_code":"5840078","kana_pref":"ｵｵｻｶﾌ","kana_city":"ﾄﾝﾀﾞﾊﾞﾔｼｼ","kana_address":"ｶﾀﾞ","pref":"大阪府","city":"富田林市","address":"加太"},
{"zip_code":"5840014","kana_pref":"ｵｵｻｶﾌ","kana_city":"ﾄﾝﾀﾞﾊﾞﾔｼｼ","kana_address":"ｶﾜﾂﾞﾗﾁｮｳ","pref":"大阪府","city":"富田林市","address":"川面町"},
{"zip_code":"5840049","kana_pref":"ｵｵｻｶﾌ","kana_city":"ﾄﾝﾀﾞﾊﾞﾔｼｼ","kana_address":"ｶﾜﾑｶｲﾁｮｳ","pref":"大阪府","city":"富田林市","address":"川向町"},
{"zip_code":"5840054","kana_pref":"ｵｵｻｶﾌ","kana_city":"ﾄﾝﾀﾞﾊﾞﾔｼｼ","kana_address":"ｶﾝﾅﾋﾞ","pref":"大阪府","city":"富田林市","address":"甘南備"},
{"zip_code":"5840008","kana_pref":"ｵｵｻｶﾌ","kana_city":"ﾄﾝﾀﾞﾊﾞﾔｼｼ","kana_address":"ｷｼ","pref":"大阪府","city":"富田林市","address":"喜志"},
{"zip_code":"5840003","kana_pref":"ｵｵｻｶﾌ","kana_city":"ﾄﾝﾀﾞﾊﾞﾔｼｼ","kana_address":"ｷｼｼﾝｹﾁｮｳ","pref":"大阪府","city":"富田林市","address":"喜志新家町"},
{"zip_code":"5840005","kana_pref":"ｵｵｻｶﾌ","kana_city":"ﾄﾝﾀﾞﾊﾞﾔｼｼ","kana_address":"ｷｼﾁｮｳ","pref":"大阪府","city":"富田林市","address":"喜志町"},
{"zip_code":"5840042","kana_pref":"ｵｵｻｶﾌ","kana_city":"ﾄﾝﾀﾞﾊﾞﾔｼｼ","kana_address":"ｷﾀｵｵﾄﾓﾁｮｳ","pref":"大阪府","city":"富田林市","address":"北大伴町"},
{"zip_code":"5840004","kana_pref":"ｵｵｻｶﾌ","kana_city":"ﾄﾝﾀﾞﾊﾞﾔｼｼ","kana_address":"ｷﾄﾞﾔﾏﾁｮｳ","pref":"大阪府","city":"富田林市","address":"木戸山町"},
{"zip_code":"5840041","kana_pref":"ｵｵｻｶﾌ","kana_city":"ﾄﾝﾀﾞﾊﾞﾔｼｼ","kana_address":"ｸｽﾉｷﾁｮｳ","pref":"大阪府","city":"富田林市","address":"楠町"},
{"zip_code":"5840074","kana_pref":"ｵｵｻｶﾌ","kana_city":"ﾄﾝﾀﾞﾊﾞﾔｼｼ","kana_address":"ｸﾉｷﾀﾞｲ","pref":"大阪府","city":"富田林市","address":"久野喜台"},
{"zip_code":"5840036","kana_pref":"ｵｵｻｶﾌ","kana_city":"ﾄﾝﾀﾞﾊﾞﾔｼｼ","kana_address":"ｺｳﾀﾞ","pref":"大阪府","city":"富田林市","address":"甲田"},
{"zip_code":"5840082","kana_pref":"ｵｵｻｶﾌ","kana_city":"ﾄﾝﾀﾞﾊﾞﾔｼｼ","kana_address":"ｺｳﾖｳﾀﾞｲ","pref":"大阪府","city":"富田林市","address":"向陽台"},
{"zip_code":"5840083","kana_pref":"ｵｵｻｶﾌ","kana_city":"ﾄﾝﾀﾞﾊﾞﾔｼｼ","kana_address":"ｺｶﾞﾈﾀﾞｲ","pref":"大阪府","city":"富田林市","address":"小金台"},
{"zip_code":"5840079","kana_pref":"ｵｵｻｶﾌ","kana_city":"ﾄﾝﾀﾞﾊﾞﾔｼｼ","kana_address":"ｺﾞｹﾝﾔ","pref":"大阪府","city":"富田林市","address":"五軒家"},
{"zip_code":"5840031","kana_pref":"ｵｵｻｶﾌ","kana_city":"ﾄﾝﾀﾞﾊﾞﾔｼｼ","kana_address":"ｺﾄﾌﾞｷﾁｮｳ","pref":"大阪府","city":"富田林市","address":"寿町"},
{"zip_code":"5840070","kana_pref":"ｵｵｻｶﾌ","kana_city":"ﾄﾝﾀﾞﾊﾞﾔｼｼ","kana_address":"ｺﾝｺﾞｳﾆｼｷｵﾘﾀﾞｲ","pref":"大阪府","city":"富田林市","address":"金剛錦織台"},
{"zip_code":"5840065","kana_pref":"ｵｵｻｶﾌ","kana_city":"ﾄﾝﾀﾞﾊﾞﾔｼｼ","kana_address":"ｺﾝｺﾞｳﾌｼﾔﾏﾀﾞｲ","pref":"大阪府","city":"富田林市","address":"金剛伏山台"},
{"zip_code":"5840015","kana_pref":"ｵｵｻｶﾌ","kana_city":"ﾄﾝﾀﾞﾊﾞﾔｼｼ","kana_address":"ｻｲｼﾞｮｳﾁｮｳ","pref":"大阪府","city":"富田林市","address":"西条町"},
{"zip_code":"5840013","kana_pref":"ｵｵｻｶﾌ","kana_city":"ﾄﾝﾀﾞﾊﾞﾔｼｼ","kana_address":"ｻｸﾗｲﾁｮｳ","pref":"大阪府","city":"富田林市","address":"桜井町"},
{"zip_code":"5840084","kana_pref":"ｵｵｻｶﾌ","kana_city":"ﾄﾝﾀﾞﾊﾞﾔｼｼ","kana_address":"ｻｸﾗｶﾞｵｶﾁｮｳ","pref":"大阪府","city":"富田林市","address":"桜ケ丘町"},
{"zip_code":"5840052","kana_pref":"ｵｵｻｶﾌ","kana_city":"ﾄﾝﾀﾞﾊﾞﾔｼｼ","kana_address":"ｻﾋﾞ","pref":"大阪府","city":"富田林市","address":"佐備"},
{"zip_code":"5840034","kana_pref":"ｵｵｻｶﾌ","kana_city":"ﾄﾝﾀﾞﾊﾞﾔｼｼ","kana_address":"ｼﾐｽﾞﾁｮｳ","pref":"大阪府","city":"富田林市","address":"清水町"},
{"zip_code":"5840092","kana_pref":"ｵｵｻｶﾌ","kana_city":"ﾄﾝﾀﾞﾊﾞﾔｼｼ","kana_address":"ｼｮｳﾜﾁｮｳ","pref":"大阪府","city":"富田林市","address":"昭和町"},
{"zip_code":"5840077","kana_pref":"ｵｵｻｶﾌ","kana_city":"ﾄﾝﾀﾞﾊﾞﾔｼｼ","kana_address":"ｼﾝｱｵﾊﾞｵｶﾁｮｳ","pref":"大阪府","city":"富田林市","address":"新青葉丘町"},
{"zip_code":"5840085","kana_pref":"ｵｵｻｶﾌ","kana_city":"ﾄﾝﾀﾞﾊﾞﾔｼｼ","kana_address":"ｼﾝｹ","pref":"大阪府","city":"富田林市","address":"新家"},
{"zip_code":"5840091","kana_pref":"ｵｵｻｶﾌ","kana_city":"ﾄﾝﾀﾞﾊﾞﾔｼｼ","kana_address":"ｼﾝﾄﾞｳ","pref":"大阪府","city":"富田林市","address":"新堂"},
{"zip_code":"5840062","kana_pref":"ｵｵｻｶﾌ","kana_city":"ﾄﾝﾀﾞﾊﾞﾔｼｼ","kana_address":"ｽｶﾞ","pref":"大阪府","city":"富田林市","address":"須賀"},
{"zip_code":"5840072","kana_pref":"ｵｵｻｶﾌ","kana_city":"ﾄﾝﾀﾞﾊﾞﾔｼｼ","kana_address":"ﾀｶﾍﾞﾀﾞｲ","pref":"大阪府","city":"富田林市","address":"高辺台"},
{"zip_code":"5840035","kana_pref":"ｵｵｻｶﾌ","kana_city":"ﾄﾝﾀﾞﾊﾞﾔｼｼ","kana_address":"ﾀﾆｶﾞﾜﾁｮｳ","pref":"大阪府","city":"富田林市","address":"谷川町"},
{"zip_code":"5840016","kana_pref":"ｵｵｻｶﾌ","kana_city":"ﾄﾝﾀﾞﾊﾞﾔｼｼ","kana_address":"ﾂｳﾎｳｼﾞﾁｮｳ","pref":"大阪府","city":"富田林市","address":"通法寺町"},
{"zip_code":"5840081","kana_pref":"ｵｵｻｶﾌ","kana_city":"ﾄﾝﾀﾞﾊﾞﾔｼｼ","kana_address":"ﾂﾂﾞﾔﾏ","pref":"大阪府","city":"富田林市","address":"廿山"},
{"zip_code":"5840086","kana_pref":"ｵｵｻｶﾌ","kana_city":"ﾄﾝﾀﾞﾊﾞﾔｼｼ","kana_address":"ﾂﾂﾞﾔﾏﾀﾞｲ","pref":"大阪府","city":"富田林市","address":"津々山台"},
{"zip_code":"5840073","kana_pref":"ｵｵｻｶﾌ","kana_city":"ﾄﾝﾀﾞﾊﾞﾔｼｼ","kana_address":"ﾃﾗｲｹﾀﾞｲ","pref":"大阪府","city":"富田林市","address":"寺池台"},
{"zip_code":"5840032","kana_pref":"ｵｵｻｶﾌ","kana_city":"ﾄﾝﾀﾞﾊﾞﾔｼｼ","kana_address":"ﾄｷﾜﾁｮｳ","pref":"大阪府","city":"富田林市","address":"常盤町"},
{"zip_code":"5840033","kana_pref":"ｵｵｻｶﾌ","kana_city":"ﾄﾝﾀﾞﾊﾞﾔｼｼ","kana_address":"ﾄﾝﾀﾞﾊﾞﾔｼﾁｮｳ","pref":"大阪府","city":"富田林市","address":"富田林町"},
{"zip_code":"5840027","kana_pref":"ｵｵｻｶﾌ","kana_city":"ﾄﾝﾀﾞﾊﾞﾔｼｼ","kana_address":"ﾅｶﾉ","pref":"大阪府","city":"富田林市","address":"中野"},
{"zip_code":"5840021","kana_pref":"ｵｵｻｶﾌ","kana_city":"ﾄﾝﾀﾞﾊﾞﾔｼｼ","kana_address":"ﾅｶﾉﾁｮｳ","pref":"大阪府","city":"富田林市","address":"中野町"},
{"zip_code":"5840022","kana_pref":"ｵｵｻｶﾌ","kana_city":"ﾄﾝﾀﾞﾊﾞﾔｼｼ","kana_address":"ﾅｶﾉﾁｮｳﾋｶﾞｼ","pref":"大阪府","city":"富田林市","address":"中野町東"},
{"zip_code":"5840028","kana_pref":"ｵｵｻｶﾌ","kana_city":"ﾄﾝﾀﾞﾊﾞﾔｼｼ","kana_address":"ﾅｶﾉﾁｮｳﾆｼ","pref":"大阪府","city":"富田林市","address":"中野町西"},
{"zip_code":"5840051","kana_pref":"ｵｵｻｶﾌ","kana_city":"ﾄﾝﾀﾞﾊﾞﾔｼｼ","kana_address":"ﾅﾝﾌﾟｳﾀﾞｲ","pref":"大阪府","city":"富田林市","address":"楠風台"},
{"zip_code":"5840048","kana_pref":"ｵｵｻｶﾌ","kana_city":"ﾄﾝﾀﾞﾊﾞﾔｼｼ","kana_address":"ﾆｼｲﾀﾓﾁﾁｮｳ","pref":"大阪府","city":"富田林市","address":"西板持町"},
{"zip_code":"5840063","kana_pref":"ｵｵｻｶﾌ","kana_city":"ﾄﾝﾀﾞﾊﾞﾔｼｼ","kana_address":"ﾆｼｷｵﾘ","pref":"大阪府","city":"富田林市","address":"錦織"},
{"zip_code":"5840066","kana_pref":"ｵｵｻｶﾌ","kana_city":"ﾄﾝﾀﾞﾊﾞﾔｼｼ","kana_address":"ﾆｼｷｵﾘｷﾀ","pref":"大阪府","city":"富田林市","address":"錦織北"},
{"zip_code":"5840068","kana_pref":"ｵｵｻｶﾌ","kana_city":"ﾄﾝﾀﾞﾊﾞﾔｼｼ","kana_address":"ﾆｼｷｵﾘﾅｶ","pref":"大阪府","city":"富田林市","address":"錦織中"},
{"zip_code":"5840069","kana_pref":"ｵｵｻｶﾌ","kana_city":"ﾄﾝﾀﾞﾊﾞﾔｼｼ","kana_address":"ﾆｼｷｵﾘﾋｶﾞｼ","pref":"大阪府","city":"富田林市","address":"錦織東"},
{"zip_code":"5840067","kana_pref":"ｵｵｻｶﾌ","kana_city":"ﾄﾝﾀﾞﾊﾞﾔｼｼ","kana_address":"ﾆｼｷｵﾘﾐﾅﾐ","pref":"大阪府","city":"富田林市","address":"錦織南"},
{"zip_code":"5840038","kana_pref":"ｵｵｻｶﾌ","kana_city":"ﾄﾝﾀﾞﾊﾞﾔｼｼ","kana_address":"ﾆｼｷｶﾞｵｶﾁｮｳ","pref":"大阪府","city":"富田林市","address":"錦ケ丘町"},
{"zip_code":"5840046","kana_pref":"ｵｵｻｶﾌ","kana_city":"ﾄﾝﾀﾞﾊﾞﾔｼｼ","kana_address":"ﾋｶﾞｼｲﾀﾓﾁﾁｮｳ","pref":"大阪府","city":"富田林市","address":"東板持町"},
{"zip_code":"5840002","kana_pref":"ｵｵｻｶﾌ","kana_city":"ﾄﾝﾀﾞﾊﾞﾔｼｼ","kana_address":"ﾋﾗﾁｮｳ","pref":"大阪府","city":"富田林市","address":"平町"},
{"zip_code":"5840055","kana_pref":"ｵｵｻｶﾌ","kana_city":"ﾄﾝﾀﾞﾊﾞﾔｼｼ","kana_address":"ﾌｼﾐﾄﾞｳ","pref":"大阪府","city":"富田林市","address":"伏見堂"},
{"zip_code":"5840061","kana_pref":"ｵｵｻｶﾌ","kana_city":"ﾄﾝﾀﾞﾊﾞﾔｼｼ","kana_address":"ﾌｼﾔﾏ","pref":"大阪府","city":"富田林市","address":"伏山"},
{"zip_code":"5840071","kana_pref":"ｵｵｻｶﾌ","kana_city":"ﾄﾝﾀﾞﾊﾞﾔｼｼ","kana_address":"ﾌｼﾞｻﾜﾀﾞｲ","pref":"大阪府","city":"富田林市","address":"藤沢台"},
{"zip_code":"5840064","kana_pref":"ｵｵｻｶﾌ","kana_city":"ﾄﾝﾀﾞﾊﾞﾔｼｼ","kana_address":"ﾌﾄﾞｳｶﾞｵｶﾁｮｳ","pref":"大阪府","city":"富田林市","address":"不動ケ丘町"},
{"zip_code":"5840094","kana_pref":"ｵｵｻｶﾌ","kana_city":"ﾄﾝﾀﾞﾊﾞﾔｼｼ","kana_address":"ﾌﾐｶﾞｵｶﾁｮｳ","pref":"大阪府","city":"富田林市","address":"富美ケ丘町"},
{"zip_code":"5840044","kana_pref":"ｵｵｻｶﾌ","kana_city":"ﾄﾝﾀﾞﾊﾞﾔｼｼ","kana_address":"ﾍﾞﾂｲ","pref":"大阪府","city":"富田林市","address":"別井"},
{"zip_code":"5840093","kana_pref":"ｵｵｻｶﾌ","kana_city":"ﾄﾝﾀﾞﾊﾞﾔｼｼ","kana_address":"ﾎﾝﾏﾁ","pref":"大阪府","city":"富田林市","address":"本町"},
{"zip_code":"5840026","kana_pref":"ｵｵｻｶﾌ","kana_city":"ﾄﾝﾀﾞﾊﾞﾔｼｼ","kana_address":"ﾐﾄﾞﾘｶﾞｵｶﾁｮｳ","pref":"大阪府","city":"富田林市","address":"緑ケ丘町"},
{"zip_code":"5840007","kana_pref":"ｵｵｻｶﾌ","kana_city":"ﾄﾝﾀﾞﾊﾞﾔｼｼ","kana_address":"ﾐﾅﾐｱｻﾋｶﾞｵｶﾁｮｳ","pref":"大阪府","city":"富田林市","address":"南旭ケ丘町"},
{"zip_code":"5840043","kana_pref":"ｵｵｻｶﾌ","kana_city":"ﾄﾝﾀﾞﾊﾞﾔｼｼ","kana_address":"ﾐﾅﾐｵｵﾄﾓﾁｮｳ","pref":"大阪府","city":"富田林市","address":"南大伴町"},
{"zip_code":"5840037","kana_pref":"ｵｵｻｶﾌ","kana_city":"ﾄﾝﾀﾞﾊﾞﾔｼｼ","kana_address":"ﾐﾔｺｳﾀﾞﾁｮｳ","pref":"大阪府","city":"富田林市","address":"宮甲田町"},
{"zip_code":"5840011","kana_pref":"ｵｵｻｶﾌ","kana_city":"ﾄﾝﾀﾞﾊﾞﾔｼｼ","kana_address":"ﾐﾔﾁｮｳ","pref":"大阪府","city":"富田林市","address":"宮町"},
{"zip_code":"5840039","kana_pref":"ｵｵｻｶﾌ","kana_city":"ﾄﾝﾀﾞﾊﾞﾔｼｼ","kana_address":"ﾐﾔﾏﾀﾞｲ","pref":"大阪府","city":"富田林市","address":"美山台"},
{"zip_code":"5840045","kana_pref":"ｵｵｻｶﾌ","kana_city":"ﾄﾝﾀﾞﾊﾞﾔｼｼ","kana_address":"ﾔﾏﾁｭｳﾀﾞﾁｮｳ","pref":"大阪府","city":"富田林市","address":"山中田町"},
{"zip_code":"5840047","kana_pref":"ｵｵｻｶﾌ","kana_city":"ﾄﾝﾀﾞﾊﾞﾔｼｼ","kana_address":"ﾔﾏﾃﾁｮｳ","pref":"大阪府","city":"富田林市","address":"山手町"},
{"zip_code":"5840057","kana_pref":"ｵｵｻｶﾌ","kana_city":"ﾄﾝﾀﾞﾊﾞﾔｼｼ","kana_address":"ﾖｺﾔﾏ","pref":"大阪府","city":"富田林市","address":"横山"},
{"zip_code":"5840053","kana_pref":"ｵｵｻｶﾌ","kana_city":"ﾄﾝﾀﾞﾊﾞﾔｼｼ","kana_address":"ﾘｭｳｾﾝ","pref":"大阪府","city":"富田林市","address":"龍泉"},
{"zip_code":"5840024","kana_pref":"ｵｵｻｶﾌ","kana_city":"ﾄﾝﾀﾞﾊﾞﾔｼｼ","kana_address":"ﾜｶﾏﾂﾁｮｳ","pref":"大阪府","city":"富田林市","address":"若松町"},
{"zip_code":"5840023","kana_pref":"ｵｵｻｶﾌ","kana_city":"ﾄﾝﾀﾞﾊﾞﾔｼｼ","kana_address":"ﾜｶﾏﾂﾁｮｳﾋｶﾞｼ","pref":"大阪府","city":"富田林市","address":"若松町東"},
{"zip_code":"5840025","kana_pref":"ｵｵｻｶﾌ","kana_city":"ﾄﾝﾀﾞﾊﾞﾔｼｼ","kana_address":"ﾜｶﾏﾂﾁｮｳﾆｼ","pref":"大阪府","city":"富田林市","address":"若松町西"}]}