{"zip_code":[
{"zip_code":"5850000","kana_pref":"ｵｵｻｶﾌ","kana_city":"ﾐﾅﾐｶﾜﾁｸﾞﾝｶﾅﾝﾁｮｳ","kana_address":"","pref":"大阪府","city":"南河内郡河南町","address":""},
{"zip_code":"5850002","kana_pref":"ｵｵｻｶﾌ","kana_city":"ﾐﾅﾐｶﾜﾁｸﾞﾝｶﾅﾝﾁｮｳ","kana_address":"ｲﾁｽｶ","pref":"大阪府","city":"南河内郡河南町","address":"一須賀"},
{"zip_code":"5850012","kana_pref":"ｵｵｻｶﾌ","kana_city":"ﾐﾅﾐｶﾜﾁｸﾞﾝｶﾅﾝﾁｮｳ","kana_address":"ｶﾉｳ","pref":"大阪府","city":"南河内郡河南町","address":"加納"},
{"zip_code":"5850024","kana_pref":"ｵｵｻｶﾌ","kana_city":"ﾐﾅﾐｶﾜﾁｸﾞﾝｶﾅﾝﾁｮｳ","kana_address":"ｶﾐｶﾜﾁ","pref":"大阪府","city":"南河内郡河南町","address":"上河内"},
{"zip_code":"5850035","kana_pref":"ｵｵｻｶﾌ","kana_city":"ﾐﾅﾐｶﾜﾁｸﾞﾝｶﾅﾝﾁｮｳ","kana_address":"ｶﾝｺｳｼﾞ","pref":"大阪府","city":"南河内郡河南町","address":"寛弘寺"},
{"zip_code":"5850034","kana_pref":"ｵｵｻｶﾌ","kana_city":"ﾐﾅﾐｶﾜﾁｸﾞﾝｶﾅﾝﾁｮｳ","kana_address":"ｺｳﾔﾏ","pref":"大阪府","city":"南河内郡河南町","address":"神山"},
{"zip_code":"5850025","kana_pref":"ｵｵｻｶﾌ","kana_city":"ﾐﾅﾐｶﾜﾁｸﾞﾝｶﾅﾝﾁｮｳ","kana_address":"ｻｸﾗｻﾞｶ","pref":"大阪府","city":"南河内郡河南町","address":"さくら坂"},
{"zip_code":"5850027","kana_pref":"ｵｵｻｶﾌ","kana_city":"ﾐﾅﾐｶﾜﾁｸﾞﾝｶﾅﾝﾁｮｳ","kana_address":"ｻｸﾗｻﾞｶﾐﾅﾐ","pref":"大阪府","city":"南河内郡河南町","address":"さくら坂南"},
{"zip_code":"5850023","kana_pref":"ｵｵｻｶﾌ","kana_city":"ﾐﾅﾐｶﾜﾁｸﾞﾝｶﾅﾝﾁｮｳ","kana_address":"ｼﾓｶﾜﾁ","pref":"大阪府","city":"南河内郡河南町","address":"下河内"},
{"zip_code":"5850014","kana_pref":"ｵｵｻｶﾌ","kana_city":"ﾐﾅﾐｶﾜﾁｸﾞﾝｶﾅﾝﾁｮｳ","kana_address":"ｼﾗｷ","pref":"大阪府","city":"南河内郡河南町","address":"白木"},
{"zip_code":"5850026","kana_pref":"ｵｵｻｶﾌ","kana_city":"ﾐﾅﾐｶﾜﾁｸﾞﾝｶﾅﾝﾁｮｳ","kana_address":"ｽｽﾞﾐﾀﾞｲ","pref":"大阪府","city":"南河内郡河南町","address":"鈴美台"},
{"zip_code":"5850033","kana_pref":"ｵｵｻｶﾌ","kana_city":"ﾐﾅﾐｶﾜﾁｸﾞﾝｶﾅﾝﾁｮｳ","kana_address":"ｾﾘｳﾀﾞﾆ","pref":"大阪府","city":"南河内郡河南町","address":"芹生谷"},
{"zip_code":"5850003","kana_pref":"ｵｵｻｶﾌ","kana_city":"ﾐﾅﾐｶﾜﾁｸﾞﾝｶﾅﾝﾁｮｳ","kana_address":"ﾀﾞｲｶﾞﾂｶ","pref":"大阪府","city":"南河内郡河南町","address":"大ケ塚"},
{"zip_code":"5850005","kana_pref":"ｵｵｻｶﾌ","kana_city":"ﾐﾅﾐｶﾜﾁｸﾞﾝｶﾅﾝﾁｮｳ","kana_address":"ﾀｲﾎｳ","pref":"大阪府","city":"南河内郡河南町","address":"大宝"},
{"zip_code":"5850011","kana_pref":"ｵｵｻｶﾌ","kana_city":"ﾐﾅﾐｶﾜﾁｸﾞﾝｶﾅﾝﾁｮｳ","kana_address":"ﾃﾗﾀﾞ","pref":"大阪府","city":"南河内郡河南町","address":"寺田"},
{"zip_code":"5850031","kana_pref":"ｵｵｻｶﾌ","kana_city":"ﾐﾅﾐｶﾜﾁｸﾞﾝｶﾅﾝﾁｮｳ","kana_address":"ﾅｶ","pref":"大阪府","city":"南河内郡河南町","address":"中"},
{"zip_code":"5850006","kana_pref":"ｵｵｻｶﾌ","kana_city":"ﾐﾅﾐｶﾜﾁｸﾞﾝｶﾅﾝﾁｮｳ","kana_address":"ﾊﾑﾛ","pref":"大阪府","city":"南河内郡河南町","address":"葉室"},
{"zip_code":"5850001","kana_pref":"ｵｵｻｶﾌ","kana_city":"ﾐﾅﾐｶﾜﾁｸﾞﾝｶﾅﾝﾁｮｳ","kana_address":"ﾋｶﾞｼﾔﾏ","pref":"大阪府","city":"南河内郡河南町","address":"東山"},
{"zip_code":"5850013","kana_pref":"ｵｵｻｶﾌ","kana_city":"ﾐﾅﾐｶﾜﾁｸﾞﾝｶﾅﾝﾁｮｳ","kana_address":"ﾋﾗｲｼ","pref":"大阪府","city":"南河内郡河南町","address":"平石"},
{"zip_code":"5850022","kana_pref":"ｵｵｻｶﾌ","kana_city":"ﾐﾅﾐｶﾜﾁｸﾞﾝｶﾅﾝﾁｮｳ","kana_address":"ﾋﾛｶﾜ","pref":"大阪府","city":"南河内郡河南町","address":"弘川"},
{"zip_code":"5850032","kana_pref":"ｵｵｻｶﾌ","kana_city":"ﾐﾅﾐｶﾜﾁｸﾞﾝｶﾅﾝﾁｮｳ","kana_address":"ﾏﾀﾞﾆ","pref":"大阪府","city":"南河内郡河南町","address":"馬谷"},
{"zip_code":"5850021","kana_pref":"ｵｵｻｶﾌ","kana_city":"ﾐﾅﾐｶﾜﾁｸﾞﾝｶﾅﾝﾁｮｳ","kana_address":"ﾓﾁｵ","pref":"大阪府","city":"南河内郡河南町","address":"持尾"},
{"zip_code":"5850004","kana_pref":"ｵｵｻｶﾌ","kana_city":"ﾐﾅﾐｶﾜﾁｸﾞﾝｶﾅﾝﾁｮｳ","kana_address":"ﾔﾏｼﾛ","pref":"大阪府","city":"南河内郡河南町","address":"山城"},
{"zip_code":"5850000","kana_pref":"ｵｵｻｶﾌ","kana_city":"ﾐﾅﾐｶﾜﾁｸﾞﾝﾁﾊﾔｱｶｻｶﾑﾗ","kana_address":"","pref":"大阪府","city":"南河内郡千早赤阪村","address":""},
{"zip_code":"5850055","kana_pref":"ｵｵｻｶﾌ","kana_city":"ﾐﾅﾐｶﾜﾁｸﾞﾝﾁﾊﾔｱｶｻｶﾑﾗ","kana_address":"ｱｽﾞﾏｻﾞｶ","pref":"大阪府","city":"南河内郡千早赤阪村","address":"東阪"},
{"zip_code":"5850045","kana_pref":"ｵｵｻｶﾌ","kana_city":"ﾐﾅﾐｶﾜﾁｸﾞﾝﾁﾊﾔｱｶｻｶﾑﾗ","kana_address":"ｶﾜﾉﾍﾞ","pref":"大阪府","city":"南河内郡千早赤阪村","address":"川野辺"},
{"zip_code":"5850043","kana_pref":"ｵｵｻｶﾌ","kana_city":"ﾐﾅﾐｶﾜﾁｸﾞﾝﾁﾊﾔｱｶｻｶﾑﾗ","kana_address":"ｷﾘﾔﾏ","pref":"大阪府","city":"南河内郡千早赤阪村","address":"桐山"},
{"zip_code":"5850053","kana_pref":"ｵｵｻｶﾌ","kana_city":"ﾐﾅﾐｶﾜﾁｸﾞﾝﾁﾊﾔｱｶｻｶﾑﾗ","kana_address":"ｺﾌﾞｷ","pref":"大阪府","city":"南河内郡千早赤阪村","address":"小吹"},
{"zip_code":"5850041","kana_pref":"ｵｵｻｶﾌ","kana_city":"ﾐﾅﾐｶﾜﾁｸﾞﾝﾁﾊﾔｱｶｻｶﾑﾗ","kana_address":"ｽｲﾌﾞﾝ","pref":"大阪府","city":"南河内郡千早赤阪村","address":"水分"},
{"zip_code":"5850051","kana_pref":"ｵｵｻｶﾌ","kana_city":"ﾐﾅﾐｶﾜﾁｸﾞﾝﾁﾊﾔｱｶｻｶﾑﾗ","kana_address":"ﾁﾊﾔ","pref":"大阪府","city":"南河内郡千早赤阪村","address":"千早"},
{"zip_code":"5850052","kana_pref":"ｵｵｻｶﾌ","kana_city":"ﾐﾅﾐｶﾜﾁｸﾞﾝﾁﾊﾔｱｶｻｶﾑﾗ","kana_address":"ﾅｶﾂﾊﾗ","pref":"大阪府","city":"南河内郡千早赤阪村","address":"中津原"},
{"zip_code":"5850042","kana_pref":"ｵｵｻｶﾌ","kana_city":"ﾐﾅﾐｶﾜﾁｸﾞﾝﾁﾊﾔｱｶｻｶﾑﾗ","kana_address":"ﾆｶﾞﾗﾍﾞ","pref":"大阪府","city":"南河内郡千早赤阪村","address":"二河原辺"},
{"zip_code":"5850044","kana_pref":"ｵｵｻｶﾌ","kana_city":"ﾐﾅﾐｶﾜﾁｸﾞﾝﾁﾊﾔｱｶｻｶﾑﾗ","kana_address":"ﾓﾘﾔ","pref":"大阪府","city":"南河内郡千早赤阪村","address":"森屋"},
{"zip_code":"5850054","kana_pref":"ｵｵｻｶﾌ","kana_city":"ﾐﾅﾐｶﾜﾁｸﾞﾝﾁﾊﾔｱｶｻｶﾑﾗ","kana_address":"ﾖﾄﾞｼ","pref":"大阪府","city":"南河内郡千早赤阪村","address":"吉年"}]}