{"zip_code":[
{"zip_code":"5860000","kana_pref":"ｵｵｻｶﾌ","kana_city":"ｶﾜﾁﾅｶﾞﾉｼ","kana_address":"","pref":"大阪府","city":"河内長野市","address":""},
{"zip_code":"5860095","kana_pref":"ｵｵｻｶﾌ","kana_city":"ｶﾜﾁﾅｶﾞﾉｼ","kana_address":"ｱｶｼｱﾀﾞｲ","pref":"大阪府","city":"河内長野市","address":"あかしあ台"},
{"zip_code":"5860084","kana_pref":"ｵｵｻｶﾌ","kana_city":"ｶﾜﾁﾅｶﾞﾉｼ","kana_address":"ｱｻﾋｶﾞｵｶ","pref":"大阪府","city":"河内長野市","address":"旭ケ丘"},
{"zip_code":"5860086","kana_pref":"ｵｵｻｶﾌ","kana_city":"ｶﾜﾁﾅｶﾞﾉｼ","kana_address":"ｱﾏﾉﾁｮｳ","pref":"大阪府","city":"河内長野市","address":"天野町"},
{"zip_code":"5860062","kana_pref":"ｵｵｻｶﾌ","kana_city":"ｶﾜﾁﾅｶﾞﾉｼ","kana_address":"ｱﾏﾐ","pref":"大阪府","city":"河内長野市","address":"天見"},
{"zip_code":"5860069","kana_pref":"ｵｵｻｶﾌ","kana_city":"ｶﾜﾁﾅｶﾞﾉｼ","kana_address":"ｲｼﾎﾞﾄｹ","pref":"大阪府","city":"河内長野市","address":"石仏"},
{"zip_code":"5860058","kana_pref":"ｵｵｻｶﾌ","kana_city":"ｶﾜﾁﾅｶﾞﾉｼ","kana_address":"ｲｼﾐｶﾞﾜ","pref":"大阪府","city":"河内長野市","address":"石見川"},
{"zip_code":"5860002","kana_pref":"ｵｵｻｶﾌ","kana_city":"ｶﾜﾁﾅｶﾞﾉｼ","kana_address":"ｲﾁﾁｮｳ","pref":"大阪府","city":"河内長野市","address":"市町"},
{"zip_code":"5860061","kana_pref":"ｵｵｻｶﾌ","kana_city":"ｶﾜﾁﾅｶﾞﾉｼ","kana_address":"ｲﾜｾﾞ","pref":"大阪府","city":"河内長野市","address":"岩瀬"},
{"zip_code":"5860034","kana_pref":"ｵｵｻｶﾌ","kana_city":"ｶﾜﾁﾅｶﾞﾉｼ","kana_address":"ｳｴﾀﾞﾁｮｳ","pref":"大阪府","city":"河内長野市","address":"上田町"},
{"zip_code":"5860037","kana_pref":"ｵｵｻｶﾌ","kana_city":"ｶﾜﾁﾅｶﾞﾉｼ","kana_address":"ｳﾜﾊﾗﾁｮｳ","pref":"大阪府","city":"河内長野市","address":"上原町"},
{"zip_code":"5860038","kana_pref":"ｵｵｻｶﾌ","kana_city":"ｶﾜﾁﾅｶﾞﾉｼ","kana_address":"ｳﾜﾊﾗﾆｼﾏﾁ","pref":"大阪府","city":"河内長野市","address":"上原西町"},
{"zip_code":"5860056","kana_pref":"ｵｵｻｶﾌ","kana_city":"ｶﾜﾁﾅｶﾞﾉｼ","kana_address":"ｵｵｲ","pref":"大阪府","city":"河内長野市","address":"太井"},
{"zip_code":"5860075","kana_pref":"ｵｵｻｶﾌ","kana_city":"ｶﾜﾁﾅｶﾞﾉｼ","kana_address":"ｵｵﾔﾌﾞﾈﾅｶﾏﾁ","pref":"大阪府","city":"河内長野市","address":"大矢船中町"},
{"zip_code":"5860073","kana_pref":"ｵｵｻｶﾌ","kana_city":"ｶﾜﾁﾅｶﾞﾉｼ","kana_address":"ｵｵﾔﾌﾞﾈﾆｼﾏﾁ","pref":"大阪府","city":"河内長野市","address":"大矢船西町"},
{"zip_code":"5860074","kana_pref":"ｵｵｻｶﾌ","kana_city":"ｶﾜﾁﾅｶﾞﾉｼ","kana_address":"ｵｵﾔﾌﾞﾈﾐﾅﾐﾏﾁ","pref":"大阪府","city":"河内長野市","address":"大矢船南町"},
{"zip_code":"5860076","kana_pref":"ｵｵｻｶﾌ","kana_city":"ｶﾜﾁﾅｶﾞﾉｼ","kana_address":"ｵｵﾔﾌﾞﾈｷﾀﾏﾁ","pref":"大阪府","city":"河内長野市","address":"大矢船北町"},
{"zip_code":"5860035","kana_pref":"ｵｵｻｶﾌ","kana_city":"ｶﾜﾁﾅｶﾞﾉｼ","kana_address":"ｵｼｵﾁｮｳ","pref":"大阪府","city":"河内長野市","address":"小塩町"},
{"zip_code":"5860094","kana_pref":"ｵｵｻｶﾌ","kana_city":"ｶﾜﾁﾅｶﾞﾉｼ","kana_address":"ｵﾔﾏﾀﾞﾁｮｳ","pref":"大阪府","city":"河内長野市","address":"小山田町"},
{"zip_code":"5860071","kana_pref":"ｵｵｻｶﾌ","kana_city":"ｶﾜﾁﾅｶﾞﾉｼ","kana_address":"ｶｶﾞﾀ","pref":"大阪府","city":"河内長野市","address":"加賀田"},
{"zip_code":"5860054","kana_pref":"ｵｵｻｶﾌ","kana_city":"ｶﾜﾁﾅｶﾞﾉｼ","kana_address":"ｶﾐｶﾞｵｶ","pref":"大阪府","city":"河内長野市","address":"神ガ丘"},
{"zip_code":"5860064","kana_pref":"ｵｵｻｶﾌ","kana_city":"ｶﾜﾁﾅｶﾞﾉｼ","kana_address":"ｶﾗｸﾀﾞﾆ","pref":"大阪府","city":"河内長野市","address":"唐久谷"},
{"zip_code":"5860052","kana_pref":"ｵｵｻｶﾌ","kana_city":"ｶﾜﾁﾅｶﾞﾉｼ","kana_address":"ｶﾜｲﾃﾞﾗ","pref":"大阪府","city":"河内長野市","address":"河合寺"},
{"zip_code":"5860012","kana_pref":"ｵｵｻｶﾌ","kana_city":"ｶﾜﾁﾅｶﾞﾉｼ","kana_address":"ｷｸｽｲﾁｮｳ","pref":"大阪府","city":"河内長野市","address":"菊水町"},
{"zip_code":"5860068","kana_pref":"ｵｵｻｶﾌ","kana_city":"ｶﾜﾁﾅｶﾞﾉｼ","kana_address":"ｷﾀｱｵﾊﾞﾀﾞｲ","pref":"大阪府","city":"河内長野市","address":"北青葉台"},
{"zip_code":"5860091","kana_pref":"ｵｵｻｶﾌ","kana_city":"ｶﾜﾁﾅｶﾞﾉｼ","kana_address":"ｷﾀｷﾎﾞｳｶﾞｵｶ","pref":"大阪府","city":"河内長野市","address":"北貴望ケ丘"},
{"zip_code":"5860033","kana_pref":"ｵｵｻｶﾌ","kana_city":"ｶﾜﾁﾅｶﾞﾉｼ","kana_address":"ｷﾀﾁｮｳ","pref":"大阪府","city":"河内長野市","address":"喜多町"},
{"zip_code":"5860001","kana_pref":"ｵｵｻｶﾌ","kana_city":"ｶﾜﾁﾅｶﾞﾉｼ","kana_address":"ｷﾄﾞ","pref":"大阪府","city":"河内長野市","address":"木戸"},
{"zip_code":"5860009","kana_pref":"ｵｵｻｶﾌ","kana_city":"ｶﾜﾁﾅｶﾞﾉｼ","kana_address":"ｷﾄﾞﾆｼﾏﾁ","pref":"大阪府","city":"河内長野市","address":"木戸西町"},
{"zip_code":"5860008","kana_pref":"ｵｵｻｶﾌ","kana_city":"ｶﾜﾁﾅｶﾞﾉｼ","kana_address":"ｷﾄﾞﾋｶﾞｼﾏﾁ","pref":"大阪府","city":"河内長野市","address":"木戸東町"},
{"zip_code":"5860001","kana_pref":"ｵｵｻｶﾌ","kana_city":"ｶﾜﾁﾅｶﾞﾉｼ","kana_address":"ｷﾄﾞﾁｮｳ","pref":"大阪府","city":"河内長野市","address":"木戸町"},
{"zip_code":"5860043","kana_pref":"ｵｵｻｶﾌ","kana_city":"ｶﾜﾁﾅｶﾞﾉｼ","kana_address":"ｷﾖﾐﾀﾞｲ","pref":"大阪府","city":"河内長野市","address":"清見台"},
{"zip_code":"5860097","kana_pref":"ｵｵｻｶﾌ","kana_city":"ｶﾜﾁﾅｶﾞﾉｼ","kana_address":"ｷﾘｶﾞｵｶ","pref":"大阪府","city":"河内長野市","address":"桐ケ丘"},
{"zip_code":"5860039","kana_pref":"ｵｵｻｶﾌ","kana_city":"ｶﾜﾁﾅｶﾞﾉｼ","kana_address":"ｸｽｶﾞｵｶ","pref":"大阪府","city":"河内長野市","address":"楠ケ丘"},
{"zip_code":"5860003","kana_pref":"ｵｵｻｶﾌ","kana_city":"ｶﾜﾁﾅｶﾞﾉｼ","kana_address":"ｸｽﾉｷﾁｮｳﾋｶﾞｼ","pref":"大阪府","city":"河内長野市","address":"楠町東"},
{"zip_code":"5860004","kana_pref":"ｵｵｻｶﾌ","kana_city":"ｶﾜﾁﾅｶﾞﾉｼ","kana_address":"ｸｽﾉｷﾁｮｳﾆｼ","pref":"大阪府","city":"河内長野市","address":"楠町西"},
{"zip_code":"5860026","kana_pref":"ｵｵｻｶﾌ","kana_city":"ｶﾜﾁﾅｶﾞﾉｼ","kana_address":"ｺﾄﾌﾞｷﾁｮｳ","pref":"大阪府","city":"河内長野市","address":"寿町"},
{"zip_code":"5860057","kana_pref":"ｵｵｻｶﾌ","kana_city":"ｶﾜﾁﾅｶﾞﾉｼ","kana_address":"ｺﾌﾞｶ","pref":"大阪府","city":"河内長野市","address":"小深"},
{"zip_code":"5860032","kana_pref":"ｵｵｻｶﾌ","kana_city":"ｶﾜﾁﾅｶﾞﾉｼ","kana_address":"ｻｶｴﾁｮｳ","pref":"大阪府","city":"河内長野市","address":"栄町"},
{"zip_code":"5860011","kana_pref":"ｵｵｻｶﾌ","kana_city":"ｶﾜﾁﾅｶﾞﾉｼ","kana_address":"ｼｵﾉﾐﾔﾁｮｳ","pref":"大阪府","city":"河内長野市","address":"汐の宮町"},
{"zip_code":"5860066","kana_pref":"ｵｵｻｶﾌ","kana_city":"ｶﾜﾁﾅｶﾞﾉｼ","kana_address":"ｼﾐｽﾞ","pref":"大阪府","city":"河内長野市","address":"清水"},
{"zip_code":"5860087","kana_pref":"ｵｵｻｶﾌ","kana_city":"ｶﾜﾁﾅｶﾞﾉｼ","kana_address":"ｼﾓｻﾞﾄﾁｮｳ","pref":"大阪府","city":"河内長野市","address":"下里町"},
{"zip_code":"5860096","kana_pref":"ｵｵｻｶﾌ","kana_city":"ｶﾜﾁﾅｶﾞﾉｼ","kana_address":"ｼﾞﾕｳｶﾞｵｶ","pref":"大阪府","city":"河内長野市","address":"自由ケ丘"},
{"zip_code":"5860025","kana_pref":"ｵｵｻｶﾌ","kana_city":"ｶﾜﾁﾅｶﾞﾉｼ","kana_address":"ｼｮｳｴｲﾁｮｳ","pref":"大阪府","city":"河内長野市","address":"昭栄町"},
{"zip_code":"5860051","kana_pref":"ｵｵｻｶﾌ","kana_city":"ｶﾜﾁﾅｶﾞﾉｼ","kana_address":"ｽｴﾋﾛﾁｮｳ","pref":"大阪府","city":"河内長野市","address":"末広町"},
{"zip_code":"5860093","kana_pref":"ｵｵｻｶﾌ","kana_city":"ｶﾜﾁﾅｶﾞﾉｼ","kana_address":"ｿｳｴﾝﾁｮｳ","pref":"大阪府","city":"河内長野市","address":"荘園町"},
{"zip_code":"5860041","kana_pref":"ｵｵｻｶﾌ","kana_city":"ｶﾜﾁﾅｶﾞﾉｼ","kana_address":"ﾀﾞｲｼﾁｮｳ","pref":"大阪府","city":"河内長野市","address":"大師町"},
{"zip_code":"5860072","kana_pref":"ｵｵｻｶﾌ","kana_city":"ｶﾜﾁﾅｶﾞﾉｼ","kana_address":"ﾀｷﾊﾀ","pref":"大阪府","city":"河内長野市","address":"滝畑"},
{"zip_code":"5860036","kana_pref":"ｵｵｻｶﾌ","kana_city":"ｶﾜﾁﾅｶﾞﾉｼ","kana_address":"ﾀｺｳ","pref":"大阪府","city":"河内長野市","address":"高向"},
{"zip_code":"5860027","kana_pref":"ｵｵｻｶﾌ","kana_city":"ｶﾜﾁﾅｶﾞﾉｼ","kana_address":"ﾁﾖﾀﾞﾀﾞｲﾁｮｳ","pref":"大阪府","city":"河内長野市","address":"千代田台町"},
{"zip_code":"5860018","kana_pref":"ｵｵｻｶﾌ","kana_city":"ｶﾜﾁﾅｶﾞﾉｼ","kana_address":"ﾁﾖﾀﾞﾐﾅﾐﾁｮｳ","pref":"大阪府","city":"河内長野市","address":"千代田南町"},
{"zip_code":"5860053","kana_pref":"ｵｵｻｶﾌ","kana_city":"ｶﾜﾁﾅｶﾞﾉｼ","kana_address":"ﾃﾗﾓﾄ","pref":"大阪府","city":"河内長野市","address":"寺元"},
{"zip_code":"5860046","kana_pref":"ｵｵｻｶﾌ","kana_city":"ｶﾜﾁﾅｶﾞﾉｼ","kana_address":"ﾅｶｶﾀｿｴﾁｮｳ","pref":"大阪府","city":"河内長野市","address":"中片添町"},
{"zip_code":"5860014","kana_pref":"ｵｵｻｶﾌ","kana_city":"ｶﾜﾁﾅｶﾞﾉｼ","kana_address":"ﾅｶﾞﾉﾁｮｳ","pref":"大阪府","city":"河内長野市","address":"長野町"},
{"zip_code":"5860063","kana_pref":"ｵｵｻｶﾌ","kana_city":"ｶﾜﾁﾅｶﾞﾉｼ","kana_address":"ﾅｶﾞﾚﾀﾞﾆ","pref":"大阪府","city":"河内長野市","address":"流谷"},
{"zip_code":"5860077","kana_pref":"ｵｵｻｶﾌ","kana_city":"ｶﾜﾁﾅｶﾞﾉｼ","kana_address":"ﾅﾝｶﾀﾞｲ","pref":"大阪府","city":"河内長野市","address":"南花台"},
{"zip_code":"5860047","kana_pref":"ｵｵｻｶﾌ","kana_city":"ｶﾜﾁﾅｶﾞﾉｼ","kana_address":"ﾆｼｶﾀｿｴﾁｮｳ","pref":"大阪府","city":"河内長野市","address":"西片添町"},
{"zip_code":"5860031","kana_pref":"ｵｵｻｶﾌ","kana_city":"ｶﾜﾁﾅｶﾞﾉｼ","kana_address":"ﾆｼｷﾁｮｳ","pref":"大阪府","city":"河内長野市","address":"錦町"},
{"zip_code":"5860016","kana_pref":"ｵｵｻｶﾌ","kana_city":"ｶﾜﾁﾅｶﾞﾉｼ","kana_address":"ﾆｼﾀﾞｲﾁｮｳ","pref":"大阪府","city":"河内長野市","address":"西代町"},
{"zip_code":"5860024","kana_pref":"ｵｵｻｶﾌ","kana_city":"ｶﾜﾁﾅｶﾞﾉｼ","kana_address":"ﾆｼﾉﾔﾏﾁｮｳ","pref":"大阪府","city":"河内長野市","address":"西之山町"},
{"zip_code":"5860042","kana_pref":"ｵｵｻｶﾌ","kana_city":"ｶﾜﾁﾅｶﾞﾉｼ","kana_address":"ﾆｯﾄｳﾁｮｳ","pref":"大阪府","city":"河内長野市","address":"日東町"},
{"zip_code":"5860023","kana_pref":"ｵｵｻｶﾌ","kana_city":"ｶﾜﾁﾅｶﾞﾉｼ","kana_address":"ﾉｻｸﾁｮｳ","pref":"大阪府","city":"河内長野市","address":"野作町"},
{"zip_code":"5860055","kana_pref":"ｵｵｻｶﾌ","kana_city":"ｶﾜﾁﾅｶﾞﾉｼ","kana_address":"ﾊﾄﾊﾗ","pref":"大阪府","city":"河内長野市","address":"鳩原"},
{"zip_code":"5860021","kana_pref":"ｵｵｻｶﾌ","kana_city":"ｶﾜﾁﾅｶﾞﾉｼ","kana_address":"ﾊﾗﾁｮｳ","pref":"大阪府","city":"河内長野市","address":"原町"},
{"zip_code":"5860045","kana_pref":"ｵｵｻｶﾌ","kana_city":"ｶﾜﾁﾅｶﾞﾉｼ","kana_address":"ﾋｶﾞｼｶﾀｿｴﾁｮｳ","pref":"大阪府","city":"河内長野市","address":"東片添町"},
{"zip_code":"5860085","kana_pref":"ｵｵｻｶﾌ","kana_city":"ｶﾜﾁﾅｶﾞﾉｼ","kana_address":"ﾋﾉ","pref":"大阪府","city":"河内長野市","address":"日野"},
{"zip_code":"5860017","kana_pref":"ｵｵｻｶﾌ","kana_city":"ｶﾜﾁﾅｶﾞﾉｼ","kana_address":"ﾌﾙﾉﾁｮｳ","pref":"大阪府","city":"河内長野市","address":"古野町"},
{"zip_code":"5860022","kana_pref":"ｵｵｻｶﾌ","kana_city":"ｶﾜﾁﾅｶﾞﾉｼ","kana_address":"ﾎﾝﾀﾞﾁｮｳ","pref":"大阪府","city":"河内長野市","address":"本多町"},
{"zip_code":"5860015","kana_pref":"ｵｵｻｶﾌ","kana_city":"ｶﾜﾁﾅｶﾞﾉｼ","kana_address":"ﾎﾝﾏﾁ","pref":"大阪府","city":"河内長野市","address":"本町"},
{"zip_code":"5860006","kana_pref":"ｵｵｻｶﾌ","kana_city":"ｶﾜﾁﾅｶﾞﾉｼ","kana_address":"ﾏﾂｶﾞｵｶﾅｶﾏﾁ","pref":"大阪府","city":"河内長野市","address":"松ケ丘中町"},
{"zip_code":"5860007","kana_pref":"ｵｵｻｶﾌ","kana_city":"ｶﾜﾁﾅｶﾞﾉｼ","kana_address":"ﾏﾂｶﾞｵｶﾋｶﾞｼﾏﾁ","pref":"大阪府","city":"河内長野市","address":"松ケ丘東町"},
{"zip_code":"5860005","kana_pref":"ｵｵｻｶﾌ","kana_city":"ｶﾜﾁﾅｶﾞﾉｼ","kana_address":"ﾏﾂｶﾞｵｶﾆｼﾏﾁ","pref":"大阪府","city":"河内長野市","address":"松ケ丘西町"},
{"zip_code":"5860044","kana_pref":"ｵｵｻｶﾌ","kana_city":"ｶﾜﾁﾅｶﾞﾉｼ","kana_address":"ﾐｶﾉﾀﾞｲ","pref":"大阪府","city":"河内長野市","address":"美加の台"},
{"zip_code":"5860048","kana_pref":"ｵｵｻｶﾌ","kana_city":"ｶﾜﾁﾅｶﾞﾉｼ","kana_address":"ﾐｯｶｲﾁﾁｮｳ","pref":"大阪府","city":"河内長野市","address":"三日市町"},
{"zip_code":"5860082","kana_pref":"ｵｵｻｶﾌ","kana_city":"ｶﾜﾁﾅｶﾞﾉｼ","kana_address":"ﾐﾄﾞﾘｶﾞｵｶﾅｶﾏﾁ","pref":"大阪府","city":"河内長野市","address":"緑ケ丘中町"},
{"zip_code":"5860083","kana_pref":"ｵｵｻｶﾌ","kana_city":"ｶﾜﾁﾅｶﾞﾉｼ","kana_address":"ﾐﾄﾞﾘｶﾞｵｶﾐﾅﾐﾏﾁ","pref":"大阪府","city":"河内長野市","address":"緑ケ丘南町"},
{"zip_code":"5860081","kana_pref":"ｵｵｻｶﾌ","kana_city":"ｶﾜﾁﾅｶﾞﾉｼ","kana_address":"ﾐﾄﾞﾘｶﾞｵｶｷﾀﾏﾁ","pref":"大阪府","city":"河内長野市","address":"緑ケ丘北町"},
{"zip_code":"5860067","kana_pref":"ｵｵｻｶﾌ","kana_city":"ｶﾜﾁﾅｶﾞﾉｼ","kana_address":"ﾐﾅﾐｱｵﾊﾞﾀﾞｲ","pref":"大阪府","city":"河内長野市","address":"南青葉台"},
{"zip_code":"5860065","kana_pref":"ｵｵｻｶﾌ","kana_city":"ｶﾜﾁﾅｶﾞﾉｼ","kana_address":"ﾐﾅﾐｶﾞｵｶ","pref":"大阪府","city":"河内長野市","address":"南ケ丘"},
{"zip_code":"5860092","kana_pref":"ｵｵｻｶﾌ","kana_city":"ｶﾜﾁﾅｶﾞﾉｼ","kana_address":"ﾐﾅﾐｷﾎﾞｳｶﾞｵｶ","pref":"大阪府","city":"河内長野市","address":"南貴望ケ丘"},
{"zip_code":"5860013","kana_pref":"ｵｵｻｶﾌ","kana_city":"ｶﾜﾁﾅｶﾞﾉｼ","kana_address":"ﾑｶｲﾉﾁｮｳ","pref":"大阪府","city":"河内長野市","address":"向野町"}]}