{"zip_code":[
{"zip_code":"5870000","kana_pref":"ｵｵｻｶﾌ","kana_city":"ｻｶｲｼﾐﾊﾗｸ","kana_address":"","pref":"大阪府","city":"堺市美原区","address":""},
{"zip_code":"5870003","kana_pref":"ｵｵｻｶﾌ","kana_city":"ｻｶｲｼﾐﾊﾗｸ","kana_address":"ｱﾐ","pref":"大阪府","city":"堺市美原区","address":"阿弥"},
{"zip_code":"5870066","kana_pref":"ｵｵｻｶﾌ","kana_city":"ｻｶｲｼﾐﾊﾗｸ","kana_address":"ｲｼﾊﾗ","pref":"大阪府","city":"堺市美原区","address":"石原"},
{"zip_code":"5870061","kana_pref":"ｵｵｻｶﾌ","kana_city":"ｻｶｲｼﾐﾊﾗｸ","kana_address":"ｲﾏｲ","pref":"大阪府","city":"堺市美原区","address":"今井"},
{"zip_code":"5870063","kana_pref":"ｵｵｻｶﾌ","kana_city":"ｻｶｲｼﾐﾊﾗｸ","kana_address":"ｵﾜｲ","pref":"大阪府","city":"堺市美原区","address":"大饗"},
{"zip_code":"5870051","kana_pref":"ｵｵｻｶﾌ","kana_city":"ｻｶｲｼﾐﾊﾗｸ","kana_address":"ｷﾀｱﾏﾍﾞ","pref":"大阪府","city":"堺市美原区","address":"北余部"},
{"zip_code":"5870053","kana_pref":"ｵｵｻｶﾌ","kana_city":"ｻｶｲｼﾐﾊﾗｸ","kana_address":"ｷﾀｱﾏﾍﾞﾆｼ","pref":"大阪府","city":"堺市美原区","address":"北余部西"},
{"zip_code":"5870002","kana_pref":"ｵｵｻｶﾌ","kana_city":"ｻｶｲｼﾐﾊﾗｸ","kana_address":"ｸﾛﾔﾏ","pref":"大阪府","city":"堺市美原区","address":"黒山"},
{"zip_code":"5870065","kana_pref":"ｵｵｻｶﾌ","kana_city":"ｻｶｲｼﾐﾊﾗｸ","kana_address":"ｺﾃﾞﾗ","pref":"大阪府","city":"堺市美原区","address":"小寺"},
{"zip_code":"5870021","kana_pref":"ｵｵｻｶﾌ","kana_city":"ｻｶｲｼﾐﾊﾗｸ","kana_address":"ｺﾋﾞﾗｵ","pref":"大阪府","city":"堺市美原区","address":"小平尾"},
{"zip_code":"5870031","kana_pref":"ｵｵｻｶﾌ","kana_city":"ｻｶｲｼﾐﾊﾗｸ","kana_address":"ｻﾂｷﾉﾆｼ","pref":"大阪府","city":"堺市美原区","address":"さつき野西"},
{"zip_code":"5870032","kana_pref":"ｵｵｻｶﾌ","kana_city":"ｻｶｲｼﾐﾊﾗｸ","kana_address":"ｻﾂｷﾉﾋｶﾞｼ","pref":"大阪府","city":"堺市美原区","address":"さつき野東"},
{"zip_code":"5870013","kana_pref":"ｵｵｻｶﾌ","kana_city":"ｻｶｲｼﾐﾊﾗｸ","kana_address":"ｼﾝﾌﾟｸｼﾞ","pref":"大阪府","city":"堺市美原区","address":"真福寺"},
{"zip_code":"5870041","kana_pref":"ｵｵｻｶﾌ","kana_city":"ｻｶｲｼﾐﾊﾗｸ","kana_address":"ｽｺﾞｳ","pref":"大阪府","city":"堺市美原区","address":"菅生"},
{"zip_code":"5870043","kana_pref":"ｵｵｻｶﾌ","kana_city":"ｻｶｲｼﾐﾊﾗｸ","kana_address":"ｾｲﾅﾝﾀﾞｲ","pref":"大阪府","city":"堺市美原区","address":"青南台"},
{"zip_code":"5870062","kana_pref":"ｵｵｻｶﾌ","kana_city":"ｻｶｲｼﾐﾊﾗｸ","kana_address":"ﾀｲ","pref":"大阪府","city":"堺市美原区","address":"太井"},
{"zip_code":"5870001","kana_pref":"ｵｵｻｶﾌ","kana_city":"ｻｶｲｼﾐﾊﾗｸ","kana_address":"ﾀﾞｲﾎ","pref":"大阪府","city":"堺市美原区","address":"大保"},
{"zip_code":"5870012","kana_pref":"ｵｵｻｶﾌ","kana_city":"ｻｶｲｼﾐﾊﾗｸ","kana_address":"ﾀｼﾞｲ","pref":"大阪府","city":"堺市美原区","address":"多治井"},
{"zip_code":"5870011","kana_pref":"ｵｵｻｶﾌ","kana_city":"ｻｶｲｼﾐﾊﾗｸ","kana_address":"ﾀﾝｼﾞｮｳ","pref":"大阪府","city":"堺市美原区","address":"丹上"},
{"zip_code":"5870014","kana_pref":"ｵｵｻｶﾌ","kana_city":"ｻｶｲｼﾐﾊﾗｸ","kana_address":"ﾀﾝﾅﾝ","pref":"大阪府","city":"堺市美原区","address":"丹南"},
{"zip_code":"5870022","kana_pref":"ｵｵｻｶﾌ","kana_city":"ｻｶｲｼﾐﾊﾗｸ","kana_address":"ﾋﾗｵ","pref":"大阪府","city":"堺市美原区","address":"平尾"},
{"zip_code":"5870064","kana_pref":"ｵｵｻｶﾌ","kana_city":"ｻｶｲｼﾐﾊﾗｸ","kana_address":"ﾎﾞﾀﾞｲ","pref":"大阪府","city":"堺市美原区","address":"菩提"},
{"zip_code":"5870052","kana_pref":"ｵｵｻｶﾌ","kana_city":"ｻｶｲｼﾐﾊﾗｸ","kana_address":"ﾐﾅﾐｱﾏﾍﾞ","pref":"大阪府","city":"堺市美原区","address":"南余部"},
{"zip_code":"5870054","kana_pref":"ｵｵｻｶﾌ","kana_city":"ｻｶｲｼﾐﾊﾗｸ","kana_address":"ﾐﾅﾐｱﾏﾍﾞﾆｼ","pref":"大阪府","city":"堺市美原区","address":"南余部西"},
{"zip_code":"5870042","kana_pref":"ｵｵｻｶﾌ","kana_city":"ｻｶｲｼﾐﾊﾗｸ","kana_address":"ﾓｸｻﾞｲﾄﾞｵﾘ","pref":"大阪府","city":"堺市美原区","address":"木材通"}]}