{"zip_code":[
{"zip_code":"5890000","kana_pref":"ｵｵｻｶﾌ","kana_city":"ｵｵｻｶｻﾔﾏｼ","kana_address":"","pref":"大阪府","city":"大阪狭山市","address":""},
{"zip_code":"5890008","kana_pref":"ｵｵｻｶﾌ","kana_city":"ｵｵｻｶｻﾔﾏｼ","kana_address":"ｲｹｼﾞﾘｼﾞﾕｳｶﾞｵｶ","pref":"大阪府","city":"大阪狭山市","address":"池尻自由丘"},
{"zip_code":"5890007","kana_pref":"ｵｵｻｶﾌ","kana_city":"ｵｵｻｶｻﾔﾏｼ","kana_address":"ｲｹｼﾞﾘﾅｶ","pref":"大阪府","city":"大阪狭山市","address":"池尻中"},
{"zip_code":"5890009","kana_pref":"ｵｵｻｶﾌ","kana_city":"ｵｵｻｶｻﾔﾏｼ","kana_address":"ｲｹｼﾞﾘｷﾀ","pref":"大阪府","city":"大阪狭山市","address":"池尻北"},
{"zip_code":"5890031","kana_pref":"ｵｵｻｶﾌ","kana_city":"ｵｵｻｶｻﾔﾏｼ","kana_address":"ｲｹﾉﾊﾗ","pref":"大阪府","city":"大阪狭山市","address":"池之原"},
{"zip_code":"5890021","kana_pref":"ｵｵｻｶﾌ","kana_city":"ｵｵｻｶｻﾔﾏｼ","kana_address":"ｲﾏｸﾏ","pref":"大阪府","city":"大阪狭山市","address":"今熊"},
{"zip_code":"5890032","kana_pref":"ｵｵｻｶﾌ","kana_city":"ｵｵｻｶｻﾔﾏｼ","kana_address":"ｲﾜﾑﾛ","pref":"大阪府","city":"大阪狭山市","address":"岩室"},
{"zip_code":"5890023","kana_pref":"ｵｵｻｶﾌ","kana_city":"ｵｵｻｶｻﾔﾏｼ","kana_address":"ｵｵﾉﾀﾞｲ","pref":"大阪府","city":"大阪狭山市","address":"大野台"},
{"zip_code":"5890015","kana_pref":"ｵｵｻｶﾌ","kana_city":"ｵｵｻｶｻﾔﾏｼ","kana_address":"ｵｵﾉﾅｶ","pref":"大阪府","city":"大阪狭山市","address":"大野中"},
{"zip_code":"5890014","kana_pref":"ｵｵｻｶﾌ","kana_city":"ｵｵｻｶｻﾔﾏｼ","kana_address":"ｵｵﾉﾋｶﾞｼ","pref":"大阪府","city":"大阪狭山市","address":"大野東"},
{"zip_code":"5890016","kana_pref":"ｵｵｻｶﾌ","kana_city":"ｵｵｻｶｻﾔﾏｼ","kana_address":"ｵｵﾉﾆｼ","pref":"大阪府","city":"大阪狭山市","address":"大野西"},
{"zip_code":"5890013","kana_pref":"ｵｵｻｶﾌ","kana_city":"ｵｵｻｶｻﾔﾏｼ","kana_address":"ｸﾐﾉｷ","pref":"大阪府","city":"大阪狭山市","address":"茱萸木"},
{"zip_code":"5890006","kana_pref":"ｵｵｻｶﾌ","kana_city":"ｵｵｻｶｻﾔﾏｼ","kana_address":"ｺﾝｺﾞｳ","pref":"大阪府","city":"大阪狭山市","address":"金剛"},
{"zip_code":"5890005","kana_pref":"ｵｵｻｶﾌ","kana_city":"ｵｵｻｶｻﾔﾏｼ","kana_address":"ｻﾔﾏ","pref":"大阪府","city":"大阪狭山市","address":"狭山"},
{"zip_code":"5890022","kana_pref":"ｵｵｻｶﾌ","kana_city":"ｵｵｻｶｻﾔﾏｼ","kana_address":"ﾆｼﾔﾏﾀﾞｲ","pref":"大阪府","city":"大阪狭山市","address":"西山台"},
{"zip_code":"5890011","kana_pref":"ｵｵｻｶﾌ","kana_city":"ｵｵｻｶｻﾔﾏｼ","kana_address":"ﾊﾝﾀﾞ","pref":"大阪府","city":"大阪狭山市","address":"半田"},
{"zip_code":"5890004","kana_pref":"ｵｵｻｶﾌ","kana_city":"ｵｵｻｶｻﾔﾏｼ","kana_address":"ﾋｶﾞｼｲｹｼﾞﾘ","pref":"大阪府","city":"大阪狭山市","address":"東池尻"},
{"zip_code":"5890012","kana_pref":"ｵｵｻｶﾌ","kana_city":"ｵｵｻｶｻﾔﾏｼ","kana_address":"ﾋｶﾞｼｸﾐﾉｷ","pref":"大阪府","city":"大阪狭山市","address":"東茱萸木"},
{"zip_code":"5890002","kana_pref":"ｵｵｻｶﾌ","kana_city":"ｵｵｻｶｻﾔﾏｼ","kana_address":"ﾋｶﾞｼﾉﾅｶ","pref":"大阪府","city":"大阪狭山市","address":"東野中"},
{"zip_code":"5890003","kana_pref":"ｵｵｻｶﾌ","kana_city":"ｵｵｻｶｻﾔﾏｼ","kana_address":"ﾋｶﾞｼﾉﾋｶﾞｼ","pref":"大阪府","city":"大阪狭山市","address":"東野東"},
{"zip_code":"5890001","kana_pref":"ｵｵｻｶﾌ","kana_city":"ｵｵｻｶｻﾔﾏｼ","kana_address":"ﾋｶﾞｼﾉﾆｼ","pref":"大阪府","city":"大阪狭山市","address":"東野西"},
{"zip_code":"5890034","kana_pref":"ｵｵｻｶﾌ","kana_city":"ｵｵｻｶｻﾔﾏｼ","kana_address":"ﾔﾏﾓﾄﾅｶ","pref":"大阪府","city":"大阪狭山市","address":"山本中"},
{"zip_code":"5890036","kana_pref":"ｵｵｻｶﾌ","kana_city":"ｵｵｻｶｻﾔﾏｼ","kana_address":"ﾔﾏﾓﾄﾋｶﾞｼ","pref":"大阪府","city":"大阪狭山市","address":"山本東"},
{"zip_code":"5890033","kana_pref":"ｵｵｻｶﾌ","kana_city":"ｵｵｻｶｻﾔﾏｼ","kana_address":"ﾔﾏﾓﾄﾐﾅﾐ","pref":"大阪府","city":"大阪狭山市","address":"山本南"},
{"zip_code":"5890035","kana_pref":"ｵｵｻｶﾌ","kana_city":"ｵｵｻｶｻﾔﾏｼ","kana_address":"ﾔﾏﾓﾄｷﾀ","pref":"大阪府","city":"大阪狭山市","address":"山本北"}]}