{"zip_code":[
{"zip_code":"5928332","kana_pref":"ｵｵｻｶﾌ","kana_city":"ｻｶｲｼﾆｼｸ","kana_address":"ｲｼﾂﾞﾆｼﾏﾁ","pref":"大阪府","city":"堺市西区","address":"石津西町"},
{"zip_code":"5928331","kana_pref":"ｵｵｻｶﾌ","kana_city":"ｻｶｲｼﾆｼｸ","kana_address":"ﾁｯｺｳｼﾝﾏﾁ","pref":"大阪府","city":"堺市西区","address":"築港新町"},
{"zip_code":"5928351","kana_pref":"ｵｵｻｶﾌ","kana_city":"ｻｶｲｼﾆｼｸ","kana_address":"ﾁｯｺｳﾊﾏﾃﾞﾗﾁｮｳ","pref":"大阪府","city":"堺市西区","address":"築港浜寺町"},
{"zip_code":"5928352","kana_pref":"ｵｵｻｶﾌ","kana_city":"ｻｶｲｼﾆｼｸ","kana_address":"ﾁｯｺｳﾊﾏﾃﾞﾗﾆｼﾏﾁ","pref":"大阪府","city":"堺市西区","address":"築港浜寺西町"},
{"zip_code":"5928334","kana_pref":"ｵｵｻｶﾌ","kana_city":"ｻｶｲｼﾆｼｸ","kana_address":"ﾊﾏﾃﾞﾗｲｼﾂﾞﾁｮｳﾅｶ","pref":"大阪府","city":"堺市西区","address":"浜寺石津町中"},
{"zip_code":"5928333","kana_pref":"ｵｵｻｶﾌ","kana_city":"ｻｶｲｼﾆｼｸ","kana_address":"ﾊﾏﾃﾞﾗｲｼﾂﾞﾁｮｳﾆｼ","pref":"大阪府","city":"堺市西区","address":"浜寺石津町西"},
{"zip_code":"5928335","kana_pref":"ｵｵｻｶﾌ","kana_city":"ｻｶｲｼﾆｼｸ","kana_address":"ﾊﾏﾃﾞﾗｲｼﾂﾞﾁｮｳﾋｶﾞｼ","pref":"大阪府","city":"堺市西区","address":"浜寺石津町東"},
{"zip_code":"5928346","kana_pref":"ｵｵｻｶﾌ","kana_city":"ｻｶｲｼﾆｼｸ","kana_address":"ﾊﾏﾃﾞﾗｺｳｴﾝﾁｮｳ","pref":"大阪府","city":"堺市西区","address":"浜寺公園町"},
{"zip_code":"5928345","kana_pref":"ｵｵｻｶﾌ","kana_city":"ｻｶｲｼﾆｼｸ","kana_address":"ﾊﾏﾃﾞﾗｼｮｳﾜﾁｮｳ","pref":"大阪府","city":"堺市西区","address":"浜寺昭和町"},
{"zip_code":"5928348","kana_pref":"ｵｵｻｶﾌ","kana_city":"ｻｶｲｼﾆｼｸ","kana_address":"ﾊﾏﾃﾞﾗｽﾜﾉﾓﾘﾁｮｳﾅｶ","pref":"大阪府","city":"堺市西区","address":"浜寺諏訪森町中"},
{"zip_code":"5928347","kana_pref":"ｵｵｻｶﾌ","kana_city":"ｻｶｲｼﾆｼｸ","kana_address":"ﾊﾏﾃﾞﾗｽﾜﾉﾓﾘﾁｮｳﾆｼ","pref":"大阪府","city":"堺市西区","address":"浜寺諏訪森町西"},
{"zip_code":"5928349","kana_pref":"ｵｵｻｶﾌ","kana_city":"ｻｶｲｼﾆｼｸ","kana_address":"ﾊﾏﾃﾞﾗｽﾜﾉﾓﾘﾁｮｳﾋｶﾞｼ","pref":"大阪府","city":"堺市西区","address":"浜寺諏訪森町東"},
{"zip_code":"5928342","kana_pref":"ｵｵｻｶﾌ","kana_city":"ｻｶｲｼﾆｼｸ","kana_address":"ﾊﾏﾃﾞﾗﾌﾅｵﾁｮｳﾆｼ","pref":"大阪府","city":"堺市西区","address":"浜寺船尾町西"},
{"zip_code":"5928341","kana_pref":"ｵｵｻｶﾌ","kana_city":"ｻｶｲｼﾆｼｸ","kana_address":"ﾊﾏﾃﾞﾗﾌﾅｵﾁｮｳﾋｶﾞｼ","pref":"大阪府","city":"堺市西区","address":"浜寺船尾町東"},
{"zip_code":"5928344","kana_pref":"ｵｵｻｶﾌ","kana_city":"ｻｶｲｼﾆｼｸ","kana_address":"ﾊﾏﾃﾞﾗﾐﾅﾐﾏﾁ","pref":"大阪府","city":"堺市西区","address":"浜寺南町"},
{"zip_code":"5928343","kana_pref":"ｵｵｻｶﾌ","kana_city":"ｻｶｲｼﾆｼｸ","kana_address":"ﾊﾏﾃﾞﾗﾓﾄﾏﾁ","pref":"大阪府","city":"堺市西区","address":"浜寺元町"},
{"zip_code":"5920000","kana_pref":"ｵｵｻｶﾌ","kana_city":"ﾀｶｲｼｼ","kana_address":"","pref":"大阪府","city":"高石市","address":""},
{"zip_code":"5920014","kana_pref":"ｵｵｻｶﾌ","kana_city":"ﾀｶｲｼｼ","kana_address":"ｱﾔｿﾞﾉ","pref":"大阪府","city":"高石市","address":"綾園"},
{"zip_code":"5920011","kana_pref":"ｵｵｻｶﾌ","kana_city":"ﾀｶｲｼｼ","kana_address":"ｶﾓ","pref":"大阪府","city":"高石市","address":"加茂"},
{"zip_code":"5920001","kana_pref":"ｵｵｻｶﾌ","kana_city":"ﾀｶｲｼｼ","kana_address":"ﾀｶｻｺﾞ","pref":"大阪府","city":"高石市","address":"高砂"},
{"zip_code":"5920004","kana_pref":"ｵｵｻｶﾌ","kana_city":"ﾀｶｲｼｼ","kana_address":"ﾀｶｼﾉﾊﾏ","pref":"大阪府","city":"高石市","address":"高師浜"},
{"zip_code":"5920006","kana_pref":"ｵｵｻｶﾌ","kana_city":"ﾀｶｲｼｼ","kana_address":"ﾀｶｼﾉﾊﾏﾁｮｳ","pref":"大阪府","city":"高石市","address":"高師浜丁"},
{"zip_code":"5920005","kana_pref":"ｵｵｻｶﾌ","kana_city":"ﾀｶｲｼｼ","kana_address":"ﾁﾖﾀﾞ","pref":"大阪府","city":"高石市","address":"千代田"},
{"zip_code":"5920013","kana_pref":"ｵｵｻｶﾌ","kana_city":"ﾀｶｲｼｼ","kana_address":"ﾄﾘｲｼ","pref":"大阪府","city":"高石市","address":"取石"},
{"zip_code":"5920012","kana_pref":"ｵｵｻｶﾌ","kana_city":"ﾀｶｲｼｼ","kana_address":"ﾆｼﾄﾘｲｼ","pref":"大阪府","city":"高石市","address":"西取石"},
{"zip_code":"5920002","kana_pref":"ｵｵｻｶﾌ","kana_city":"ﾀｶｲｼｼ","kana_address":"ﾊｺﾞﾛﾓ","pref":"大阪府","city":"高石市","address":"羽衣"},
{"zip_code":"5920002","kana_pref":"ｵｵｻｶﾌ","kana_city":"ﾀｶｲｼｼ","kana_address":"ﾊｺﾞﾛﾓｺｳｴﾝﾁｮｳ","pref":"大阪府","city":"高石市","address":"羽衣公園丁"},
{"zip_code":"5920003","kana_pref":"ｵｵｻｶﾌ","kana_city":"ﾀｶｲｼｼ","kana_address":"ﾋｶﾞｼﾊｺﾞﾛﾓ","pref":"大阪府","city":"高石市","address":"東羽衣"}]}