{"zip_code":[
{"zip_code":"5930000","kana_pref":"ｵｵｻｶﾌ","kana_city":"ｻｶｲｼﾆｼｸ","kana_address":"","pref":"大阪府","city":"堺市西区","address":""},
{"zip_code":"5938301","kana_pref":"ｵｵｻｶﾌ","kana_city":"ｻｶｲｼﾆｼｸ","kana_address":"ｳｴﾉｼﾊﾞﾁｮｳ","pref":"大阪府","city":"堺市西区","address":"上野芝町"},
{"zip_code":"5938303","kana_pref":"ｵｵｻｶﾌ","kana_city":"ｻｶｲｼﾆｼｸ","kana_address":"ｳｴﾉｼﾊﾞﾑｺｳｶﾞｵｶﾁｮｳ","pref":"大阪府","city":"堺市西区","address":"上野芝向ケ丘町"},
{"zip_code":"5938304","kana_pref":"ｵｵｻｶﾌ","kana_city":"ｻｶｲｼﾆｼｸ","kana_address":"ｴﾊﾞﾗｼﾞﾁｮｳ","pref":"大阪府","city":"堺市西区","address":"家原寺町"},
{"zip_code":"5938328","kana_pref":"ｵｵｻｶﾌ","kana_city":"ｻｶｲｼﾆｼｸ","kana_address":"ｵｵﾄﾘｷﾀﾏﾁ","pref":"大阪府","city":"堺市西区","address":"鳳北町"},
{"zip_code":"5938327","kana_pref":"ｵｵｻｶﾌ","kana_city":"ｻｶｲｼﾆｼｸ","kana_address":"ｵｵﾄﾘﾅｶﾏﾁ","pref":"大阪府","city":"堺市西区","address":"鳳中町"},
{"zip_code":"5938326","kana_pref":"ｵｵｻｶﾌ","kana_city":"ｻｶｲｼﾆｼｸ","kana_address":"ｵｵﾄﾘﾆｼﾏﾁ","pref":"大阪府","city":"堺市西区","address":"鳳西町"},
{"zip_code":"5938324","kana_pref":"ｵｵｻｶﾌ","kana_city":"ｻｶｲｼﾆｼｸ","kana_address":"ｵｵﾄﾘﾋｶﾞｼﾏﾁ","pref":"大阪府","city":"堺市西区","address":"鳳東町"},
{"zip_code":"5938325","kana_pref":"ｵｵｻｶﾌ","kana_city":"ｻｶｲｼﾆｼｸ","kana_address":"ｵｵﾄﾘﾐﾅﾐﾏﾁ","pref":"大阪府","city":"堺市西区","address":"鳳南町"},
{"zip_code":"5938311","kana_pref":"ｵｵｻｶﾌ","kana_city":"ｻｶｲｼﾆｼｸ","kana_address":"ｶﾐ","pref":"大阪府","city":"堺市西区","address":"上"},
{"zip_code":"5938312","kana_pref":"ｵｵｻｶﾌ","kana_city":"ｻｶｲｼﾆｼｸ","kana_address":"ｸｻﾍﾞ","pref":"大阪府","city":"堺市西区","address":"草部"},
{"zip_code":"5938308","kana_pref":"ｵｵｻｶﾌ","kana_city":"ｻｶｲｼﾆｼｸ","kana_address":"ｺｳﾉﾁｮｳ","pref":"大阪府","city":"堺市西区","address":"神野町"},
{"zip_code":"5938313","kana_pref":"ｵｵｻｶﾌ","kana_city":"ｻｶｲｼﾆｼｸ","kana_address":"ｺﾀﾞｲ","pref":"大阪府","city":"堺市西区","address":"小代"},
{"zip_code":"5938329","kana_pref":"ｵｵｻｶﾌ","kana_city":"ｻｶｲｼﾆｼｸ","kana_address":"ｼﾓﾀﾞﾁｮｳ","pref":"大阪府","city":"堺市西区","address":"下田町"},
{"zip_code":"5938314","kana_pref":"ｵｵｻｶﾌ","kana_city":"ｻｶｲｼﾆｼｸ","kana_address":"ﾀｲﾍｲｼﾞ","pref":"大阪府","city":"堺市西区","address":"太平寺"},
{"zip_code":"5938322","kana_pref":"ｵｵｻｶﾌ","kana_city":"ｻｶｲｼﾆｼｸ","kana_address":"ﾂｸﾉﾁｮｳ","pref":"大阪府","city":"堺市西区","address":"津久野町"},
{"zip_code":"5938323","kana_pref":"ｵｵｻｶﾌ","kana_city":"ｻｶｲｼﾆｼｸ","kana_address":"ﾂﾙﾀﾁｮｳ","pref":"大阪府","city":"堺市西区","address":"鶴田町"},
{"zip_code":"5938317","kana_pref":"ｵｵｻｶﾌ","kana_city":"ｻｶｲｼﾆｼｸ","kana_address":"ﾊﾗﾀﾞ","pref":"大阪府","city":"堺市西区","address":"原田"},
{"zip_code":"5938306","kana_pref":"ｵｵｻｶﾌ","kana_city":"ｻｶｲｼﾆｼｸ","kana_address":"ﾊﾝﾀﾞｲｼﾞﾁｮｳ","pref":"大阪府","city":"堺市西区","address":"八田寺町"},
{"zip_code":"5938315","kana_pref":"ｵｵｻｶﾌ","kana_city":"ｻｶｲｼﾆｼｸ","kana_address":"ﾋｼｷ","pref":"大阪府","city":"堺市西区","address":"菱木"},
{"zip_code":"5938307","kana_pref":"ｵｵｻｶﾌ","kana_city":"ｻｶｲｼﾆｼｸ","kana_address":"ﾋﾗｵｶﾁｮｳ","pref":"大阪府","city":"堺市西区","address":"平岡町"},
{"zip_code":"5938302","kana_pref":"ｵｵｻｶﾌ","kana_city":"ｻｶｲｼﾆｼｸ","kana_address":"ﾎｳｼﾞｮｳﾁｮｳ","pref":"大阪府","city":"堺市西区","address":"北条町"},
{"zip_code":"5938305","kana_pref":"ｵｵｻｶﾌ","kana_city":"ｻｶｲｼﾆｼｸ","kana_address":"ﾎﾘｱｹﾞﾐﾄﾞﾘﾏﾁ","pref":"大阪府","city":"堺市西区","address":"堀上緑町"},
{"zip_code":"5938321","kana_pref":"ｵｵｻｶﾌ","kana_city":"ｻｶｲｼﾆｼｸ","kana_address":"ﾐﾔｼﾓﾁｮｳ","pref":"大阪府","city":"堺市西区","address":"宮下町"},
{"zip_code":"5938316","kana_pref":"ｵｵｻｶﾌ","kana_city":"ｻｶｲｼﾆｼｸ","kana_address":"ﾔﾏﾀﾞ","pref":"大阪府","city":"堺市西区","address":"山田"}]}