{"zip_code":[
{"zip_code":"5940000","kana_pref":"ｵｵｻｶﾌ","kana_city":"ｲｽﾞﾐｼ","kana_address":"","pref":"大阪府","city":"和泉市","address":""},
{"zip_code":"5941153","kana_pref":"ｵｵｻｶﾌ","kana_city":"ｲｽﾞﾐｼ","kana_address":"ｱｵﾊﾞﾀﾞｲ","pref":"大阪府","city":"和泉市","address":"青葉台"},
{"zip_code":"5940053","kana_pref":"ｵｵｻｶﾌ","kana_city":"ｲｽﾞﾐｼ","kana_address":"ｱｼﾍﾞﾁｮｳ","pref":"大阪府","city":"和泉市","address":"芦部町"},
{"zip_code":"5941157","kana_pref":"ｵｵｻｶﾌ","kana_city":"ｲｽﾞﾐｼ","kana_address":"ｱﾕﾐﾉ","pref":"大阪府","city":"和泉市","address":"あゆみ野"},
{"zip_code":"5940083","kana_pref":"ｵｵｻｶﾌ","kana_city":"ｲｽﾞﾐｼ","kana_address":"ｲｹｶﾞﾐﾁｮｳ","pref":"大阪府","city":"和泉市","address":"池上町"},
{"zip_code":"5940032","kana_pref":"ｵｵｻｶﾌ","kana_city":"ｲｽﾞﾐｼ","kana_address":"ｲｹﾀﾞｼﾓﾁｮｳ","pref":"大阪府","city":"和泉市","address":"池田下町"},
{"zip_code":"5940054","kana_pref":"ｵｵｻｶﾌ","kana_city":"ｲｽﾞﾐｼ","kana_address":"ｲﾁｼﾞｮｳｲﾝﾁｮｳ","pref":"大阪府","city":"和泉市","address":"一条院町"},
{"zip_code":"5940072","kana_pref":"ｵｵｻｶﾌ","kana_city":"ｲｽﾞﾐｼ","kana_address":"ｲﾉｸﾁﾁｮｳ","pref":"大阪府","city":"和泉市","address":"井ノ口町"},
{"zip_code":"5940041","kana_pref":"ｵｵｻｶﾌ","kana_city":"ｲｽﾞﾐｼ","kana_address":"ｲﾌﾞｷﾉ","pref":"大阪府","city":"和泉市","address":"いぶき野"},
{"zip_code":"5940063","kana_pref":"ｵｵｻｶﾌ","kana_city":"ｲｽﾞﾐｼ","kana_address":"ｲﾏﾌｸﾁｮｳ","pref":"大阪府","city":"和泉市","address":"今福町"},
{"zip_code":"5940011","kana_pref":"ｵｵｻｶﾌ","kana_city":"ｲｽﾞﾐｼ","kana_address":"ｳｴﾀﾞｲﾁｮｳ","pref":"大阪府","city":"和泉市","address":"上代町"},
{"zip_code":"5941156","kana_pref":"ｵｵｻｶﾌ","kana_city":"ｲｽﾞﾐｼ","kana_address":"ｳﾁﾀﾞﾁｮｳ","pref":"大阪府","city":"和泉市","address":"内田町"},
{"zip_code":"5941103","kana_pref":"ｵｵｻｶﾌ","kana_city":"ｲｽﾞﾐｼ","kana_address":"ｳﾗﾀﾞﾁｮｳ","pref":"大阪府","city":"和泉市","address":"浦田町"},
{"zip_code":"5940004","kana_pref":"ｵｵｻｶﾌ","kana_city":"ｲｽﾞﾐｼ","kana_address":"ｵｳｼﾞﾁｮｳ","pref":"大阪府","city":"和泉市","address":"王子町"},
{"zip_code":"5941134","kana_pref":"ｵｵｻｶﾌ","kana_city":"ｲｽﾞﾐｼ","kana_address":"ｵｵﾉﾁｮｳ","pref":"大阪府","city":"和泉市","address":"大野町"},
{"zip_code":"5941128","kana_pref":"ｵｵｻｶﾌ","kana_city":"ｲｽﾞﾐｼ","kana_address":"ｵｶﾁｮｳ","pref":"大阪府","city":"和泉市","address":"岡町"},
{"zip_code":"5940074","kana_pref":"ｵｵｻｶﾌ","kana_city":"ｲｽﾞﾐｼ","kana_address":"ｵﾀﾞﾁｮｳ","pref":"大阪府","city":"和泉市","address":"小田町"},
{"zip_code":"5940006","kana_pref":"ｵｵｻｶﾌ","kana_city":"ｲｽﾞﾐｼ","kana_address":"ｵﾉｲﾁｮｳ","pref":"大阪府","city":"和泉市","address":"尾井町"},
{"zip_code":"5941127","kana_pref":"ｵｵｻｶﾌ","kana_city":"ｲｽﾞﾐｼ","kana_address":"ｵﾉﾀﾞﾁｮｳ","pref":"大阪府","city":"和泉市","address":"小野田町"},
{"zip_code":"5940012","kana_pref":"ｵｵｻｶﾌ","kana_city":"ｲｽﾞﾐｼ","kana_address":"ｵﾉﾁｮｳ","pref":"大阪府","city":"和泉市","address":"小野町"},
{"zip_code":"5941117","kana_pref":"ｵｵｻｶﾌ","kana_city":"ｲｽﾞﾐｼ","kana_address":"ｶｼﾞﾔﾁｮｳ","pref":"大阪府","city":"和泉市","address":"鍛治屋町"},
{"zip_code":"5940002","kana_pref":"ｵｵｻｶﾌ","kana_city":"ｲｽﾞﾐｼ","kana_address":"ｶﾐﾁｮｳ","pref":"大阪府","city":"和泉市","address":"上町"},
{"zip_code":"5941151","kana_pref":"ｵｵｻｶﾌ","kana_city":"ｲｽﾞﾐｼ","kana_address":"ｶﾗｸﾆﾁｮｳ","pref":"大阪府","city":"和泉市","address":"唐国町"},
{"zip_code":"5940065","kana_pref":"ｵｵｻｶﾌ","kana_city":"ｲｽﾞﾐｼ","kana_address":"ｶﾝﾉﾝｼﾞﾁｮｳ","pref":"大阪府","city":"和泉市","address":"観音寺町"},
{"zip_code":"5941122","kana_pref":"ｵｵｻｶﾌ","kana_city":"ｲｽﾞﾐｼ","kana_address":"ｷﾀﾀﾞﾅｶﾁｮｳ","pref":"大阪府","city":"和泉市","address":"北田中町"},
{"zip_code":"5941126","kana_pref":"ｵｵｻｶﾌ","kana_city":"ｲｽﾞﾐｼ","kana_address":"ｸｷﾁｮｳ","pref":"大阪府","city":"和泉市","address":"九鬼町"},
{"zip_code":"5940081","kana_pref":"ｵｵｻｶﾌ","kana_city":"ｲｽﾞﾐｼ","kana_address":"ｸｽﾞﾉﾊﾁｮｳ","pref":"大阪府","city":"和泉市","address":"葛の葉町"},
{"zip_code":"5941113","kana_pref":"ｵｵｻｶﾌ","kana_city":"ｲｽﾞﾐｼ","kana_address":"ｸﾛｲｼﾁｮｳ","pref":"大阪府","city":"和泉市","address":"黒石町"},
{"zip_code":"5940022","kana_pref":"ｵｵｻｶﾌ","kana_city":"ｲｽﾞﾐｼ","kana_address":"ｸﾛﾄﾞﾘﾁｮｳ","pref":"大阪府","city":"和泉市","address":"黒鳥町"},
{"zip_code":"5940066","kana_pref":"ｵｵｻｶﾌ","kana_city":"ｲｽﾞﾐｼ","kana_address":"ｸﾜﾊﾞﾗﾁｮｳ","pref":"大阪府","city":"和泉市","address":"桑原町"},
{"zip_code":"5941111","kana_pref":"ｵｵｻｶﾌ","kana_city":"ｲｽﾞﾐｼ","kana_address":"ｺｳﾐｮｳﾀﾞｲ","pref":"大阪府","city":"和泉市","address":"光明台"},
{"zip_code":"5941114","kana_pref":"ｵｵｻｶﾌ","kana_city":"ｲｽﾞﾐｼ","kana_address":"ｺｸﾌﾞﾁｮｳ","pref":"大阪府","city":"和泉市","address":"国分町"},
{"zip_code":"5940005","kana_pref":"ｵｵｻｶﾌ","kana_city":"ｲｽﾞﾐｼ","kana_address":"ｻｲﾜｲ","pref":"大阪府","city":"和泉市","address":"幸"},
{"zip_code":"5940052","kana_pref":"ｵｵｻｶﾌ","kana_city":"ｲｽﾞﾐｼ","kana_address":"ｻｶﾓﾄﾁｮｳ","pref":"大阪府","city":"和泉市","address":"阪本町"},
{"zip_code":"5940021","kana_pref":"ｵｵｻｶﾌ","kana_city":"ｲｽﾞﾐｼ","kana_address":"ｻﾝｿｳﾁｮｳ","pref":"大阪府","city":"和泉市","address":"山荘町"},
{"zip_code":"5941121","kana_pref":"ｵｵｻｶﾌ","kana_city":"ｲｽﾞﾐｼ","kana_address":"ｼﾓﾉﾐﾔﾁｮｳ","pref":"大阪府","city":"和泉市","address":"下宮町"},
{"zip_code":"5941125","kana_pref":"ｵｵｻｶﾌ","kana_city":"ｲｽﾞﾐｼ","kana_address":"ｾﾞﾝｼｮｳﾁｮｳ","pref":"大阪府","city":"和泉市","address":"善正町"},
{"zip_code":"5940003","kana_pref":"ｵｵｻｶﾌ","kana_city":"ｲｽﾞﾐｼ","kana_address":"ﾀｲﾁｮｳ","pref":"大阪府","city":"和泉市","address":"太町"},
{"zip_code":"5941132","kana_pref":"ｵｵｻｶﾌ","kana_city":"ｲｽﾞﾐｼ","kana_address":"ﾁﾁｵﾆﾁｮｳ","pref":"大阪府","city":"和泉市","address":"父鬼町"},
{"zip_code":"5941135","kana_pref":"ｵｵｻｶﾌ","kana_city":"ｲｽﾞﾐｼ","kana_address":"ﾂﾎﾞｲﾁｮｳ","pref":"大阪府","city":"和泉市","address":"坪井町"},
{"zip_code":"5940013","kana_pref":"ｵｵｻｶﾌ","kana_city":"ｲｽﾞﾐｼ","kana_address":"ﾂﾙﾔﾏﾀﾞｲ","pref":"大阪府","city":"和泉市","address":"鶴山台"},
{"zip_code":"5941144","kana_pref":"ｵｵｻｶﾌ","kana_city":"ｲｽﾞﾐｼ","kana_address":"ﾃｸﾉｽﾃｰｼﾞ","pref":"大阪府","city":"和泉市","address":"テクノステージ"},
{"zip_code":"5940064","kana_pref":"ｵｵｻｶﾌ","kana_city":"ｲｽﾞﾐｼ","kana_address":"ﾃﾗｶﾄﾞﾁｮｳ","pref":"大阪府","city":"和泉市","address":"寺門町"},
{"zip_code":"5940062","kana_pref":"ｵｵｻｶﾌ","kana_city":"ｲｽﾞﾐｼ","kana_address":"ﾃﾗﾀﾞﾁｮｳ","pref":"大阪府","city":"和泉市","address":"寺田町"},
{"zip_code":"5940082","kana_pref":"ｵｵｻｶﾌ","kana_city":"ｲｽﾞﾐｼ","kana_address":"ﾄﾐｱｷﾁｮｳ","pref":"大阪府","city":"和泉市","address":"富秋町"},
{"zip_code":"5941124","kana_pref":"ｵｵｻｶﾌ","kana_city":"ｲｽﾞﾐｼ","kana_address":"ﾅﾒﾘﾁｮｳ","pref":"大阪府","city":"和泉市","address":"南面利町"},
{"zip_code":"5941116","kana_pref":"ｵｵｻｶﾌ","kana_city":"ｲｽﾞﾐｼ","kana_address":"ﾉｳｹﾁｮｳ","pref":"大阪府","city":"和泉市","address":"納花町"},
{"zip_code":"5941105","kana_pref":"ｵｵｻｶﾌ","kana_city":"ｲｽﾞﾐｼ","kana_address":"ﾉｿﾞﾐﾉ","pref":"大阪府","city":"和泉市","address":"のぞみ野"},
{"zip_code":"5940023","kana_pref":"ｵｵｻｶﾌ","kana_city":"ｲｽﾞﾐｼ","kana_address":"ﾊｶﾀﾁｮｳ","pref":"大阪府","city":"和泉市","address":"伯太町"},
{"zip_code":"5941106","kana_pref":"ｵｵｻｶﾌ","kana_city":"ｲｽﾞﾐｼ","kana_address":"ﾊﾂｶﾞﾉ","pref":"大阪府","city":"和泉市","address":"はつが野"},
{"zip_code":"5941133","kana_pref":"ｵｵｻｶﾌ","kana_city":"ｲｽﾞﾐｼ","kana_address":"ﾊﾙｷｶﾞﾜﾁｮｳ","pref":"大阪府","city":"和泉市","address":"春木川町"},
{"zip_code":"5941141","kana_pref":"ｵｵｻｶﾌ","kana_city":"ｲｽﾞﾐｼ","kana_address":"ﾊﾙｷﾁｮｳ","pref":"大阪府","city":"和泉市","address":"春木町"},
{"zip_code":"5940075","kana_pref":"ｵｵｻｶﾌ","kana_city":"ｲｽﾞﾐｼ","kana_address":"ﾊﾝﾜﾁｮｳ","pref":"大阪府","city":"和泉市","address":"繁和町"},
{"zip_code":"5940051","kana_pref":"ｵｵｻｶﾌ","kana_city":"ｲｽﾞﾐｼ","kana_address":"ﾋｶﾞｼｻｶﾓﾄﾁｮｳ","pref":"大阪府","city":"和泉市","address":"東阪本町"},
{"zip_code":"5940076","kana_pref":"ｵｵｻｶﾌ","kana_city":"ｲｽﾞﾐｼ","kana_address":"ﾋｺﾁｮｳ","pref":"大阪府","city":"和泉市","address":"肥子町"},
{"zip_code":"5941142","kana_pref":"ｵｵｻｶﾌ","kana_city":"ｲｽﾞﾐｼ","kana_address":"ﾋｻｲﾁｮｳ","pref":"大阪府","city":"和泉市","address":"久井町"},
{"zip_code":"5941115","kana_pref":"ｵｵｻｶﾌ","kana_city":"ｲｽﾞﾐｼ","kana_address":"ﾋﾗｲﾁｮｳ","pref":"大阪府","city":"和泉市","address":"平井町"},
{"zip_code":"5941123","kana_pref":"ｵｵｻｶﾌ","kana_city":"ｲｽﾞﾐｼ","kana_address":"ﾌｸｾﾞﾁｮｳ","pref":"大阪府","city":"和泉市","address":"福瀬町"},
{"zip_code":"5940031","kana_pref":"ｵｵｻｶﾌ","kana_city":"ｲｽﾞﾐｼ","kana_address":"ﾌｾﾔﾁｮｳ","pref":"大阪府","city":"和泉市","address":"伏屋町"},
{"zip_code":"5940071","kana_pref":"ｵｵｻｶﾌ","kana_city":"ｲｽﾞﾐｼ","kana_address":"ﾌﾁｭｳﾁｮｳ","pref":"大阪府","city":"和泉市","address":"府中町"},
{"zip_code":"5941136","kana_pref":"ｵｵｻｶﾌ","kana_city":"ｲｽﾞﾐｼ","kana_address":"ﾌﾞﾂﾅﾐﾁｮｳ","pref":"大阪府","city":"和泉市","address":"仏並町"},
{"zip_code":"5940001","kana_pref":"ｵｵｻｶﾌ","kana_city":"ｲｽﾞﾐｼ","kana_address":"ﾏｲﾁｮｳ","pref":"大阪府","city":"和泉市","address":"舞町"},
{"zip_code":"5941131","kana_pref":"ｵｵｻｶﾌ","kana_city":"ｲｽﾞﾐｼ","kana_address":"ﾏｷｵｻﾝﾁｮｳ","pref":"大阪府","city":"和泉市","address":"槇尾山町"},
{"zip_code":"5941154","kana_pref":"ｵｵｻｶﾌ","kana_city":"ｲｽﾞﾐｼ","kana_address":"ﾏﾂｵｼﾞﾁｮｳ","pref":"大阪府","city":"和泉市","address":"松尾寺町"},
{"zip_code":"5941152","kana_pref":"ｵｵｻｶﾌ","kana_city":"ｲｽﾞﾐｼ","kana_address":"ﾏﾅﾋﾞﾉ","pref":"大阪府","city":"和泉市","address":"まなび野"},
{"zip_code":"5941104","kana_pref":"ｵｵｻｶﾌ","kana_city":"ｲｽﾞﾐｼ","kana_address":"ﾏﾝﾁｮｳ","pref":"大阪府","city":"和泉市","address":"万町"},
{"zip_code":"5940042","kana_pref":"ｵｵｻｶﾌ","kana_city":"ｲｽﾞﾐｼ","kana_address":"ﾐｶﾞﾀﾁｮｳ","pref":"大阪府","city":"和泉市","address":"箕形町"},
{"zip_code":"5941118","kana_pref":"ｵｵｻｶﾌ","kana_city":"ｲｽﾞﾐｼ","kana_address":"ﾐｽﾞｷﾀﾞｲ","pref":"大阪府","city":"和泉市","address":"みずき台"},
{"zip_code":"5941155","kana_pref":"ｵｵｻｶﾌ","kana_city":"ｲｽﾞﾐｼ","kana_address":"ﾐﾄﾞﾘｶﾞｵｶ","pref":"大阪府","city":"和泉市","address":"緑ケ丘"},
{"zip_code":"5941112","kana_pref":"ｵｵｻｶﾌ","kana_city":"ｲｽﾞﾐｼ","kana_address":"ﾐﾊﾞﾔｼﾁｮｳ","pref":"大阪府","city":"和泉市","address":"三林町"},
{"zip_code":"5941101","kana_pref":"ｵｵｻｶﾌ","kana_city":"ｲｽﾞﾐｼ","kana_address":"ﾑﾛﾄﾞｳﾁｮｳ","pref":"大阪府","city":"和泉市","address":"室堂町"},
{"zip_code":"5940061","kana_pref":"ｵｵｻｶﾌ","kana_city":"ｲｽﾞﾐｼ","kana_address":"ﾔﾖｲﾁｮｳ","pref":"大阪府","city":"和泉市","address":"弥生町"},
{"zip_code":"5941143","kana_pref":"ｵｵｻｶﾌ","kana_city":"ｲｽﾞﾐｼ","kana_address":"ﾜｶｶｼﾁｮｳ","pref":"大阪府","city":"和泉市","address":"若樫町"},
{"zip_code":"5940073","kana_pref":"ｵｵｻｶﾌ","kana_city":"ｲｽﾞﾐｼ","kana_address":"ﾜｹﾁｮｳ","pref":"大阪府","city":"和泉市","address":"和気町"},
{"zip_code":"5941102","kana_pref":"ｵｵｻｶﾌ","kana_city":"ｲｽﾞﾐｼ","kana_address":"ﾜﾀﾞﾁｮｳ","pref":"大阪府","city":"和泉市","address":"和田町"}]}