{"zip_code":[
{"zip_code":"5960000","kana_pref":"ｵｵｻｶﾌ","kana_city":"ｷｼﾜﾀﾞｼ","kana_address":"","pref":"大阪府","city":"岸和田市","address":""},
{"zip_code":"5960845","kana_pref":"ｵｵｻｶﾌ","kana_city":"ｷｼﾜﾀﾞｼ","kana_address":"ｱﾏｶﾀﾞｷﾁｮｳ","pref":"大阪府","city":"岸和田市","address":"阿間河滝町"},
{"zip_code":"5960004","kana_pref":"ｵｵｻｶﾌ","kana_city":"ｷｼﾜﾀﾞｼ","kana_address":"ｱﾗｷﾁｮｳ","pref":"大阪府","city":"岸和田市","address":"荒木町"},
{"zip_code":"5960813","kana_pref":"ｵｵｻｶﾌ","kana_city":"ｷｼﾜﾀﾞｼ","kana_address":"ｲｹｼﾞﾘﾁｮｳ","pref":"大阪府","city":"岸和田市","address":"池尻町"},
{"zip_code":"5960001","kana_pref":"ｵｵｻｶﾌ","kana_city":"ｷｼﾜﾀﾞｼ","kana_address":"ｲｿﾉｶﾐﾁｮｳ","pref":"大阪府","city":"岸和田市","address":"磯上町"},
{"zip_code":"5960103","kana_pref":"ｵｵｻｶﾌ","kana_city":"ｷｼﾜﾀﾞｼ","kana_address":"ｲﾅﾊﾞﾁｮｳ","pref":"大阪府","city":"岸和田市","address":"稲葉町"},
{"zip_code":"5960804","kana_pref":"ｵｵｻｶﾌ","kana_city":"ｷｼﾜﾀﾞｼ","kana_address":"ｲﾏｷﾁｮｳ","pref":"大阪府","city":"岸和田市","address":"今木町"},
{"zip_code":"5960077","kana_pref":"ｵｵｻｶﾌ","kana_city":"ｷｼﾜﾀﾞｼ","kana_address":"ｳｴﾏﾁ","pref":"大阪府","city":"岸和田市","address":"上町"},
{"zip_code":"5960071","kana_pref":"ｵｵｻｶﾌ","kana_city":"ｷｼﾜﾀﾞｼ","kana_address":"ｳｵﾔﾏﾁ","pref":"大阪府","city":"岸和田市","address":"魚屋町"},
{"zip_code":"5960105","kana_pref":"ｵｵｻｶﾌ","kana_city":"ｷｼﾜﾀﾞｼ","kana_address":"ｳﾁﾊﾀﾁｮｳ","pref":"大阪府","city":"岸和田市","address":"内畑町"},
{"zip_code":"5960022","kana_pref":"ｵｵｻｶﾌ","kana_city":"ｷｼﾜﾀﾞｼ","kana_address":"ｴﾋﾞｽﾁｮｳ","pref":"大阪府","city":"岸和田市","address":"戎町"},
{"zip_code":"5960061","kana_pref":"ｵｵｻｶﾌ","kana_city":"ｷｼﾜﾀﾞｼ","kana_address":"ｵｵｷﾀﾁｮｳ","pref":"大阪府","city":"岸和田市","address":"大北町"},
{"zip_code":"5960114","kana_pref":"ｵｵｻｶﾌ","kana_city":"ｷｼﾜﾀﾞｼ","kana_address":"ｵｵｻﾜﾁｮｳ","pref":"大阪府","city":"岸和田市","address":"大沢町"},
{"zip_code":"5960063","kana_pref":"ｵｵｻｶﾌ","kana_city":"ｷｼﾜﾀﾞｼ","kana_address":"ｵｵﾃﾁｮｳ","pref":"大阪府","city":"岸和田市","address":"大手町"},
{"zip_code":"5960812","kana_pref":"ｵｵｻｶﾌ","kana_city":"ｷｼﾜﾀﾞｼ","kana_address":"ｵｵﾏﾁ","pref":"大阪府","city":"岸和田市","address":"大町"},
{"zip_code":"5960814","kana_pref":"ｵｵｻｶﾌ","kana_city":"ｷｼﾜﾀﾞｼ","kana_address":"ｵｶﾔﾏﾁｮｳ","pref":"大阪府","city":"岸和田市","address":"岡山町"},
{"zip_code":"5960816","kana_pref":"ｵｵｻｶﾌ","kana_city":"ｷｼﾜﾀﾞｼ","kana_address":"ｵﾌﾞﾁｮｳ","pref":"大阪府","city":"岸和田市","address":"尾生町"},
{"zip_code":"5960113","kana_pref":"ｵｵｻｶﾌ","kana_city":"ｷｼﾜﾀﾞｼ","kana_address":"ｶｱｲﾁｮｳ","pref":"大阪府","city":"岸和田市","address":"河合町"},
{"zip_code":"5960822","kana_pref":"ｵｵｻｶﾌ","kana_city":"ｷｼﾜﾀﾞｼ","kana_address":"ｶﾞｸﾊﾗﾁｮｳ","pref":"大阪府","city":"岸和田市","address":"額原町"},
{"zip_code":"5960824","kana_pref":"ｵｵｻｶﾌ","kana_city":"ｷｼﾜﾀﾞｼ","kana_address":"ｶﾂﾗｷﾞﾁｮｳ","pref":"大阪府","city":"岸和田市","address":"葛城町"},
{"zip_code":"5960101","kana_pref":"ｵｵｻｶﾌ","kana_city":"ｷｼﾜﾀﾞｼ","kana_address":"ｶﾈﾁｶﾁｮｳ","pref":"大阪府","city":"岸和田市","address":"包近町"},
{"zip_code":"5960111","kana_pref":"ｵｵｻｶﾌ","kana_city":"ｷｼﾜﾀﾞｼ","kana_address":"ｶﾐｼﾗﾊﾗﾁｮｳ","pref":"大阪府","city":"岸和田市","address":"上白原町"},
{"zip_code":"5960047","kana_pref":"ｵｵｻｶﾌ","kana_city":"ｷｼﾜﾀﾞｼ","kana_address":"ｶﾐﾉﾁｮｳﾋｶﾞｼ","pref":"大阪府","city":"岸和田市","address":"上野町東"},
{"zip_code":"5960048","kana_pref":"ｵｵｻｶﾌ","kana_city":"ｷｼﾜﾀﾞｼ","kana_address":"ｶﾐﾉﾁｮｳﾆｼ","pref":"大阪府","city":"岸和田市","address":"上野町西"},
{"zip_code":"5960827","kana_pref":"ｵｵｻｶﾌ","kana_city":"ｷｼﾜﾀﾞｼ","kana_address":"ｶﾐﾏﾂﾁｮｳ","pref":"大阪府","city":"岸和田市","address":"上松町"},
{"zip_code":"5960064","kana_pref":"ｵｵｻｶﾌ","kana_city":"ｷｼﾜﾀﾞｼ","kana_address":"ｶﾐﾔﾁｮｳ","pref":"大阪府","city":"岸和田市","address":"紙屋町"},
{"zip_code":"5960042","kana_pref":"ｵｵｻｶﾌ","kana_city":"ｷｼﾜﾀﾞｼ","kana_address":"ｶﾓﾘﾁｮｳ","pref":"大阪府","city":"岸和田市","address":"加守町"},
{"zip_code":"5960073","kana_pref":"ｵｵｻｶﾌ","kana_city":"ｷｼﾜﾀﾞｼ","kana_address":"ｷｼｷﾁｮｳ","pref":"大阪府","city":"岸和田市","address":"岸城町"},
{"zip_code":"5960016","kana_pref":"ｵｵｻｶﾌ","kana_city":"ｷｼﾜﾀﾞｼ","kana_address":"ｷｼﾉｳﾗﾁｮｳ","pref":"大阪府","city":"岸和田市","address":"岸之浦町"},
{"zip_code":"5960051","kana_pref":"ｵｵｻｶﾌ","kana_city":"ｷｼﾜﾀﾞｼ","kana_address":"ｷｼﾉﾁｮｳ","pref":"大阪府","city":"岸和田市","address":"岸野町"},
{"zip_code":"5960843","kana_pref":"ｵｵｻｶﾌ","kana_city":"ｷｼﾜﾀﾞｼ","kana_address":"ｷﾀｻｶﾁｮｳ","pref":"大阪府","city":"岸和田市","address":"北阪町"},
{"zip_code":"5960056","kana_pref":"ｵｵｻｶﾌ","kana_city":"ｷｼﾜﾀﾞｼ","kana_address":"ｷﾀﾏﾁ","pref":"大阪府","city":"岸和田市","address":"北町"},
{"zip_code":"5960833","kana_pref":"ｵｵｻｶﾌ","kana_city":"ｷｼﾜﾀﾞｼ","kana_address":"ｺｳｽﾞﾔﾁｮｳ","pref":"大阪府","city":"岸和田市","address":"神須屋町"},
{"zip_code":"5960112","kana_pref":"ｵｵｻｶﾌ","kana_city":"ｷｼﾜﾀﾞｼ","kana_address":"ｺｳﾉﾁｮｳ","pref":"大阪府","city":"岸和田市","address":"神於町"},
{"zip_code":"5960832","kana_pref":"ｵｵｻｶﾌ","kana_city":"ｷｼﾜﾀﾞｼ","kana_address":"ｺﾞｸﾗｸｼﾞﾁｮｳ","pref":"大阪府","city":"岸和田市","address":"極楽寺町"},
{"zip_code":"5960055","kana_pref":"ｵｵｻｶﾌ","kana_city":"ｷｼﾜﾀﾞｼ","kana_address":"ｺﾞｹﾝﾔﾏﾁ","pref":"大阪府","city":"岸和田市","address":"五軒屋町"},
{"zip_code":"5960821","kana_pref":"ｵｵｻｶﾌ","kana_city":"ｷｼﾜﾀﾞｼ","kana_address":"ｺﾏﾂﾘﾁｮｳ","pref":"大阪府","city":"岸和田市","address":"小松里町"},
{"zip_code":"5960072","kana_pref":"ｵｵｻｶﾌ","kana_city":"ｷｼﾜﾀﾞｼ","kana_address":"ｻｶｲﾏﾁ","pref":"大阪府","city":"岸和田市","address":"堺町"},
{"zip_code":"5960826","kana_pref":"ｵｵｻｶﾌ","kana_city":"ｷｼﾜﾀﾞｼ","kana_address":"ｻﾞｸｻﾞｲﾁｮｳ","pref":"大阪府","city":"岸和田市","address":"作才町"},
{"zip_code":"5960815","kana_pref":"ｵｵｻｶﾌ","kana_city":"ｷｼﾜﾀﾞｼ","kana_address":"ｻﾝｶﾞﾔﾏﾁｮｳ","pref":"大阪府","city":"岸和田市","address":"三ケ山町"},
{"zip_code":"5960015","kana_pref":"ｵｵｻｶﾌ","kana_city":"ｷｼﾜﾀﾞｼ","kana_address":"ｼﾞｿﾞｳﾊﾏﾁｮｳ","pref":"大阪府","city":"岸和田市","address":"地蔵浜町"},
{"zip_code":"5960811","kana_pref":"ｵｵｻｶﾌ","kana_city":"ｷｼﾜﾀﾞｼ","kana_address":"ｼﾓｲｹﾀﾞﾁｮｳ","pref":"大阪府","city":"岸和田市","address":"下池田町"},
{"zip_code":"5960041","kana_pref":"ｵｵｻｶﾌ","kana_city":"ｷｼﾜﾀﾞｼ","kana_address":"ｼﾓﾉﾁｮｳ","pref":"大阪府","city":"岸和田市","address":"下野町"},
{"zip_code":"5960823","kana_pref":"ｵｵｻｶﾌ","kana_city":"ｷｼﾜﾀﾞｼ","kana_address":"ｼﾓﾏﾂﾁｮｳ","pref":"大阪府","city":"岸和田市","address":"下松町"},
{"zip_code":"5960012","kana_pref":"ｵｵｻｶﾌ","kana_city":"ｷｼﾜﾀﾞｼ","kana_address":"ｼﾝﾐﾅﾄﾏﾁ","pref":"大阪府","city":"岸和田市","address":"新港町"},
{"zip_code":"5960057","kana_pref":"ｵｵｻｶﾌ","kana_city":"ｷｼﾜﾀﾞｼ","kana_address":"ｽｼﾞｶｲﾁｮｳ","pref":"大阪府","city":"岸和田市","address":"筋海町"},
{"zip_code":"5960115","kana_pref":"ｵｵｻｶﾌ","kana_city":"ｷｼﾜﾀﾞｼ","kana_address":"ｿｳｶﾞﾜﾁｮｳ","pref":"大阪府","city":"岸和田市","address":"相川町"},
{"zip_code":"5960066","kana_pref":"ｵｵｻｶﾌ","kana_city":"ｷｼﾜﾀﾞｼ","kana_address":"ﾀﾞｲｸﾏﾁ","pref":"大阪府","city":"岸和田市","address":"大工町"},
{"zip_code":"5960805","kana_pref":"ｵｵｻｶﾌ","kana_city":"ｷｼﾜﾀﾞｼ","kana_address":"ﾀｼﾞﾒﾁｮｳ","pref":"大阪府","city":"岸和田市","address":"田治米町"},
{"zip_code":"5960104","kana_pref":"ｵｵｻｶﾌ","kana_city":"ｷｼﾜﾀﾞｼ","kana_address":"ﾂｶﾞﾜﾁｮｳ","pref":"大阪府","city":"岸和田市","address":"積川町"},
{"zip_code":"5960834","kana_pref":"ｵｵｻｶﾌ","kana_city":"ｷｼﾜﾀﾞｼ","kana_address":"ﾃﾝｼﾞﾝﾔﾏﾁｮｳ","pref":"大阪府","city":"岸和田市","address":"天神山町"},
{"zip_code":"5960116","kana_pref":"ｵｵｻｶﾌ","kana_city":"ｷｼﾜﾀﾞｼ","kana_address":"ﾄﾉﾊﾗﾁｮｳ","pref":"大阪府","city":"岸和田市","address":"塔原町"},
{"zip_code":"5960003","kana_pref":"ｵｵｻｶﾌ","kana_city":"ｷｼﾜﾀﾞｼ","kana_address":"ﾅｶｲﾁｮｳ","pref":"大阪府","city":"岸和田市","address":"中井町"},
{"zip_code":"5960062","kana_pref":"ｵｵｻｶﾌ","kana_city":"ｷｼﾜﾀﾞｼ","kana_address":"ﾅｶｷﾀﾁｮｳ","pref":"大阪府","city":"岸和田市","address":"中北町"},
{"zip_code":"5960065","kana_pref":"ｵｵｻｶﾌ","kana_city":"ｷｼﾜﾀﾞｼ","kana_address":"ﾅｶﾉﾊﾏﾁｮｳ","pref":"大阪府","city":"岸和田市","address":"中之浜町"},
{"zip_code":"5960075","kana_pref":"ｵｵｻｶﾌ","kana_city":"ｷｼﾜﾀﾞｼ","kana_address":"ﾅｶﾏﾁ","pref":"大阪府","city":"岸和田市","address":"中町"},
{"zip_code":"5960835","kana_pref":"ｵｵｻｶﾌ","kana_city":"ｷｼﾜﾀﾞｼ","kana_address":"ﾅｶﾞﾚｷﾞﾁｮｳ","pref":"大阪府","city":"岸和田市","address":"流木町"},
{"zip_code":"5960052","kana_pref":"ｵｵｻｶﾌ","kana_city":"ｷｼﾜﾀﾞｼ","kana_address":"ﾅﾝﾏﾂﾁｮｳ","pref":"大阪府","city":"岸和田市","address":"並松町"},
{"zip_code":"5960802","kana_pref":"ｵｵｻｶﾌ","kana_city":"ｷｼﾜﾀﾞｼ","kana_address":"ﾆｼｵｵｼﾞﾁｮｳ","pref":"大阪府","city":"岸和田市","address":"西大路町"},
{"zip_code":"5960044","kana_pref":"ｵｵｻｶﾌ","kana_city":"ｷｼﾜﾀﾞｼ","kana_address":"ﾆｼﾉｳﾁﾁｮｳ","pref":"大阪府","city":"岸和田市","address":"西之内町"},
{"zip_code":"5960053","kana_pref":"ｵｵｻｶﾌ","kana_city":"ｷｼﾜﾀﾞｼ","kana_address":"ﾇﾏﾁｮｳ","pref":"大阪府","city":"岸和田市","address":"沼町"},
{"zip_code":"5960076","kana_pref":"ｵｵｻｶﾌ","kana_city":"ｷｼﾜﾀﾞｼ","kana_address":"ﾉﾀﾞﾁｮｳ","pref":"大阪府","city":"岸和田市","address":"野田町"},
{"zip_code":"5960831","kana_pref":"ｵｵｻｶﾌ","kana_city":"ｷｼﾜﾀﾞｼ","kana_address":"ﾊﾀﾏﾁ","pref":"大阪府","city":"岸和田市","address":"畑町"},
{"zip_code":"5960023","kana_pref":"ｵｵｻｶﾌ","kana_city":"ｷｼﾜﾀﾞｼ","kana_address":"ﾊﾁﾏﾝﾁｮｳ","pref":"大阪府","city":"岸和田市","address":"八幡町"},
{"zip_code":"5960841","kana_pref":"ｵｵｻｶﾌ","kana_city":"ｷｼﾜﾀﾞｼ","kana_address":"ﾊﾂﾀﾁｮｳ","pref":"大阪府","city":"岸和田市","address":"八田町"},
{"zip_code":"5960844","kana_pref":"ｵｵｻｶﾌ","kana_city":"ｷｼﾜﾀﾞｼ","kana_address":"ﾊﾌﾞﾀｷﾁｮｳ","pref":"大阪府","city":"岸和田市","address":"土生滝町"},
{"zip_code":"5960825","kana_pref":"ｵｵｻｶﾌ","kana_city":"ｷｼﾜﾀﾞｼ","kana_address":"ﾊﾌﾞﾁｮｳ","pref":"大阪府","city":"岸和田市","address":"土生町"},
{"zip_code":"5960005","kana_pref":"ｵｵｻｶﾌ","kana_city":"ｷｼﾜﾀﾞｼ","kana_address":"ﾊﾙｷｱｻﾋﾏﾁ","pref":"大阪府","city":"岸和田市","address":"春木旭町"},
{"zip_code":"5960035","kana_pref":"ｵｵｻｶﾌ","kana_city":"ｷｼﾜﾀﾞｼ","kana_address":"ﾊﾙｷｲｽﾞﾐﾁｮｳ","pref":"大阪府","city":"岸和田市","address":"春木泉町"},
{"zip_code":"5960031","kana_pref":"ｵｵｻｶﾌ","kana_city":"ｷｼﾜﾀﾞｼ","kana_address":"ﾊﾙｷｵｵｼｮｳｼﾞﾁｮｳ","pref":"大阪府","city":"岸和田市","address":"春木大小路町"},
{"zip_code":"5960026","kana_pref":"ｵｵｻｶﾌ","kana_city":"ｷｼﾜﾀﾞｼ","kana_address":"ﾊﾙｷﾀﾞｲｺｸﾁｮｳ","pref":"大阪府","city":"岸和田市","address":"春木大国町"},
{"zip_code":"5960033","kana_pref":"ｵｵｻｶﾌ","kana_city":"ｷｼﾜﾀﾞｼ","kana_address":"ﾊﾙｷﾅｶﾏﾁ","pref":"大阪府","city":"岸和田市","address":"春木中町"},
{"zip_code":"5960034","kana_pref":"ｵｵｻｶﾌ","kana_city":"ｷｼﾜﾀﾞｼ","kana_address":"ﾊﾙｷﾎﾝﾏﾁ","pref":"大阪府","city":"岸和田市","address":"春木本町"},
{"zip_code":"5960036","kana_pref":"ｵｵｻｶﾌ","kana_city":"ｷｼﾜﾀﾞｼ","kana_address":"ﾊﾙｷﾐﾅﾐﾊﾏﾁｮｳ","pref":"大阪府","city":"岸和田市","address":"春木南浜町"},
{"zip_code":"5960037","kana_pref":"ｵｵｻｶﾌ","kana_city":"ｷｼﾜﾀﾞｼ","kana_address":"ﾊﾙｷｷﾀﾊﾏﾁｮｳ","pref":"大阪府","city":"岸和田市","address":"春木北浜町"},
{"zip_code":"5960024","kana_pref":"ｵｵｻｶﾌ","kana_city":"ｷｼﾜﾀﾞｼ","kana_address":"ﾊﾙｷﾐﾔｶﾞﾜﾁｮｳ","pref":"大阪府","city":"岸和田市","address":"春木宮川町"},
{"zip_code":"5960025","kana_pref":"ｵｵｻｶﾌ","kana_city":"ｷｼﾜﾀﾞｼ","kana_address":"ﾊﾙｷﾐﾔﾓﾄﾁｮｳ","pref":"大阪府","city":"岸和田市","address":"春木宮本町"},
{"zip_code":"5960032","kana_pref":"ｵｵｻｶﾌ","kana_city":"ｷｼﾜﾀﾞｼ","kana_address":"ﾊﾙｷﾓﾄﾏﾁ","pref":"大阪府","city":"岸和田市","address":"春木元町"},
{"zip_code":"5960006","kana_pref":"ｵｵｻｶﾌ","kana_city":"ｷｼﾜﾀﾞｼ","kana_address":"ﾊﾙｷﾜｶﾏﾂﾁｮｳ","pref":"大阪府","city":"岸和田市","address":"春木若松町"},
{"zip_code":"5960803","kana_pref":"ｵｵｻｶﾌ","kana_city":"ｷｼﾜﾀﾞｼ","kana_address":"ﾋｶﾞｼｵｵｼﾞﾁｮｳ","pref":"大阪府","city":"岸和田市","address":"東大路町"},
{"zip_code":"5960807","kana_pref":"ｵｵｻｶﾌ","kana_city":"ｷｼﾜﾀﾞｼ","kana_address":"ﾋｶﾞｼｶﾞｵｶﾁｮｳ","pref":"大阪府","city":"岸和田市","address":"東ケ丘町"},
{"zip_code":"5960046","kana_pref":"ｵｵｻｶﾌ","kana_city":"ｷｼﾜﾀﾞｼ","kana_address":"ﾌｼﾞｲﾁｮｳ","pref":"大阪府","city":"岸和田市","address":"藤井町"},
{"zip_code":"5960045","kana_pref":"ｵｵｻｶﾌ","kana_city":"ｷｼﾜﾀﾞｼ","kana_address":"ﾍﾞｯｼﾖﾁｮｳ","pref":"大阪府","city":"岸和田市","address":"別所町"},
{"zip_code":"5960074","kana_pref":"ｵｵｻｶﾌ","kana_city":"ｷｼﾜﾀﾞｼ","kana_address":"ﾎﾝﾏﾁ","pref":"大阪府","city":"岸和田市","address":"本町"},
{"zip_code":"5960842","kana_pref":"ｵｵｻｶﾌ","kana_city":"ｷｼﾜﾀﾞｼ","kana_address":"ﾏｶﾞﾐﾁｮｳ","pref":"大阪府","city":"岸和田市","address":"真上町"},
{"zip_code":"5960021","kana_pref":"ｵｵｻｶﾌ","kana_city":"ｷｼﾜﾀﾞｼ","kana_address":"ﾏﾂｶｾﾞﾁｮｳ","pref":"大阪府","city":"岸和田市","address":"松風町"},
{"zip_code":"5960806","kana_pref":"ｵｵｻｶﾌ","kana_city":"ｷｼﾜﾀﾞｼ","kana_address":"ﾏﾕﾁｮｳ","pref":"大阪府","city":"岸和田市","address":"摩湯町"},
{"zip_code":"5960808","kana_pref":"ｵｵｻｶﾌ","kana_city":"ｷｼﾜﾀﾞｼ","kana_address":"ﾐﾀﾁｮｳ","pref":"大阪府","city":"岸和田市","address":"三田町"},
{"zip_code":"5960801","kana_pref":"ｵｵｻｶﾌ","kana_city":"ｷｼﾜﾀﾞｼ","kana_address":"ﾐﾄﾞﾛﾁｮｳ","pref":"大阪府","city":"岸和田市","address":"箕土路町"},
{"zip_code":"5960014","kana_pref":"ｵｵｻｶﾌ","kana_city":"ｷｼﾜﾀﾞｼ","kana_address":"ﾐﾅﾄﾐﾄﾞﾘﾏﾁ","pref":"大阪府","city":"岸和田市","address":"港緑町"},
{"zip_code":"5960078","kana_pref":"ｵｵｻｶﾌ","kana_city":"ｷｼﾜﾀﾞｼ","kana_address":"ﾐﾅﾐｳｴﾏﾁ","pref":"大阪府","city":"岸和田市","address":"南上町"},
{"zip_code":"5960067","kana_pref":"ｵｵｻｶﾌ","kana_city":"ｷｼﾜﾀﾞｼ","kana_address":"ﾐﾅﾐﾏﾁ","pref":"大阪府","city":"岸和田市","address":"南町"},
{"zip_code":"5960043","kana_pref":"ｵｵｻｶﾌ","kana_city":"ｷｼﾜﾀﾞｼ","kana_address":"ﾐﾔﾏｴﾁｮｳ","pref":"大阪府","city":"岸和田市","address":"宮前町"},
{"zip_code":"5960054","kana_pref":"ｵｵｻｶﾌ","kana_city":"ｷｼﾜﾀﾞｼ","kana_address":"ﾐﾔﾓﾄﾁｮｳ","pref":"大阪府","city":"岸和田市","address":"宮本町"},
{"zip_code":"5960011","kana_pref":"ｵｵｻｶﾌ","kana_city":"ｷｼﾜﾀﾞｼ","kana_address":"ﾓｸｻﾞｲﾁｮｳ","pref":"大阪府","city":"岸和田市","address":"木材町"},
{"zip_code":"5960828","kana_pref":"ｵｵｻｶﾌ","kana_city":"ｷｼﾜﾀﾞｼ","kana_address":"ﾓﾝｾﾞﾝﾁｮｳ","pref":"大阪府","city":"岸和田市","address":"門前町"},
{"zip_code":"5960102","kana_pref":"ｵｵｻｶﾌ","kana_city":"ｷｼﾜﾀﾞｼ","kana_address":"ﾔﾏﾀﾞｲﾅｶﾁｮｳ","pref":"大阪府","city":"岸和田市","address":"山直中町"},
{"zip_code":"5960049","kana_pref":"ｵｵｻｶﾌ","kana_city":"ｷｼﾜﾀﾞｼ","kana_address":"ﾔｻｶﾁｮｳ","pref":"大阪府","city":"岸和田市","address":"八阪町"},
{"zip_code":"5960836","kana_pref":"ｵｵｻｶﾌ","kana_city":"ｷｼﾜﾀﾞｼ","kana_address":"ﾕｷｱｲﾁｮｳ","pref":"大阪府","city":"岸和田市","address":"行遇町"},
{"zip_code":"5960002","kana_pref":"ｵｵｻｶﾌ","kana_city":"ｷｼﾜﾀﾞｼ","kana_address":"ﾖｼｲﾁｮｳ","pref":"大阪府","city":"岸和田市","address":"吉井町"},
{"zip_code":"5960013","kana_pref":"ｵｵｻｶﾌ","kana_city":"ｷｼﾜﾀﾞｼ","kana_address":"ﾘﾝｶｲﾁｮｳ","pref":"大阪府","city":"岸和田市","address":"臨海町"},
{"zip_code":"5960901","kana_pref":"ｵｵｻｶﾌ","kana_city":"ｶｲﾂﾞｶｼ","kana_address":"ｾﾁｺﾞｼﾝﾏﾁ","pref":"大阪府","city":"貝塚市","address":"清児新町"}]}