{"zip_code":[
{"zip_code":"5970000","kana_pref":"ｵｵｻｶﾌ","kana_city":"ｶｲﾂﾞｶｼ","kana_address":"","pref":"大阪府","city":"貝塚市","address":""},
{"zip_code":"5970081","kana_pref":"ｵｵｻｶﾌ","kana_city":"ｶｲﾂﾞｶｼ","kana_address":"ｱｿﾅｶ","pref":"大阪府","city":"貝塚市","address":"麻生中"},
{"zip_code":"5970082","kana_pref":"ｵｵｻｶﾌ","kana_city":"ｶｲﾂﾞｶｼ","kana_address":"ｲｼｻﾞｲ","pref":"大阪府","city":"貝塚市","address":"石才"},
{"zip_code":"5970083","kana_pref":"ｵｵｻｶﾌ","kana_city":"ｶｲﾂﾞｶｼ","kana_address":"ｳﾐﾂﾞｶ","pref":"大阪府","city":"貝塚市","address":"海塚"},
{"zip_code":"5970061","kana_pref":"ｵｵｻｶﾌ","kana_city":"ｶｲﾂﾞｶｼ","kana_address":"ｳﾗﾀﾞ","pref":"大阪府","city":"貝塚市","address":"浦田"},
{"zip_code":"5970051","kana_pref":"ｵｵｻｶﾌ","kana_city":"ｶｲﾂﾞｶｼ","kana_address":"ｵｳｼﾞ","pref":"大阪府","city":"貝塚市","address":"王子"},
{"zip_code":"5970112","kana_pref":"ｵｵｻｶﾌ","kana_city":"ｶｲﾂﾞｶｼ","kana_address":"ｵｵｶﾜ","pref":"大阪府","city":"貝塚市","address":"大川"},
{"zip_code":"5970074","kana_pref":"ｵｵｻｶﾌ","kana_city":"ｶｲﾂﾞｶｼ","kana_address":"ｶｼﾞ","pref":"大阪府","city":"貝塚市","address":"加治"},
{"zip_code":"5970071","kana_pref":"ｵｵｻｶﾌ","kana_city":"ｶｲﾂﾞｶｼ","kana_address":"ｶｼﾝ","pref":"大阪府","city":"貝塚市","address":"加神"},
{"zip_code":"5970011","kana_pref":"ｵｵｻｶﾌ","kana_city":"ｶｲﾂﾞｶｼ","kana_address":"ｷﾀﾁｮｳ","pref":"大阪府","city":"貝塚市","address":"北町"},
{"zip_code":"5970113","kana_pref":"ｵｵｻｶﾌ","kana_city":"ｶｲﾂﾞｶｼ","kana_address":"ｷﾋﾞﾀﾆ","pref":"大阪府","city":"貝塚市","address":"秬谷"},
{"zip_code":"5970031","kana_pref":"ｵｵｻｶﾌ","kana_city":"ｶｲﾂﾞｶｼ","kana_address":"ｸﾎﾞ","pref":"大阪府","city":"貝塚市","address":"久保"},
{"zip_code":"5970052","kana_pref":"ｵｵｻｶﾌ","kana_city":"ｶｲﾂﾞｶｼ","kana_address":"ｸﾎﾞﾀ","pref":"大阪府","city":"貝塚市","address":"窪田"},
{"zip_code":"5970075","kana_pref":"ｵｵｻｶﾌ","kana_city":"ｶｲﾂﾞｶｼ","kana_address":"ｺｳｻﾞｷ","pref":"大阪府","city":"貝塚市","address":"神前"},
{"zip_code":"5970001","kana_pref":"ｵｵｻｶﾌ","kana_city":"ｶｲﾂﾞｶｼ","kana_address":"ｺｷﾞ","pref":"大阪府","city":"貝塚市","address":"近木"},
{"zip_code":"5970021","kana_pref":"ｵｵｻｶﾌ","kana_city":"ｶｲﾂﾞｶｼ","kana_address":"ｺｾ","pref":"大阪府","city":"貝塚市","address":"小瀬"},
{"zip_code":"5970102","kana_pref":"ｵｵｻｶﾌ","kana_city":"ｶｲﾂﾞｶｼ","kana_address":"ｺﾂﾐ","pref":"大阪府","city":"貝塚市","address":"木積"},
{"zip_code":"5970062","kana_pref":"ｵｵｻｶﾌ","kana_city":"ｶｲﾂﾞｶｼ","kana_address":"ｻﾜ","pref":"大阪府","city":"貝塚市","address":"澤"},
{"zip_code":"5970107","kana_pref":"ｵｵｻｶﾌ","kana_city":"ｶｲﾂﾞｶｼ","kana_address":"ｼﾞｿﾞｳﾄﾞｳ","pref":"大阪府","city":"貝塚市","address":"地蔵堂"},
{"zip_code":"5970053","kana_pref":"ｵｵｻｶﾌ","kana_city":"ｶｲﾂﾞｶｼ","kana_address":"ｼﾞｿﾞｳﾄﾞｳ","pref":"大阪府","city":"貝塚市","address":"地蔵堂"},
{"zip_code":"5970002","kana_pref":"ｵｵｻｶﾌ","kana_city":"ｶｲﾂﾞｶｼ","kana_address":"ｼﾝﾏﾁ","pref":"大阪府","city":"貝塚市","address":"新町"},
{"zip_code":"5970041","kana_pref":"ｵｵｻｶﾌ","kana_city":"ｶｲﾂﾞｶｼ","kana_address":"ｾﾁｺﾞ","pref":"大阪府","city":"貝塚市","address":"清児"},
{"zip_code":"5970111","kana_pref":"ｵｵｻｶﾌ","kana_city":"ｶｲﾂﾞｶｼ","kana_address":"ｿﾌﾞﾗ","pref":"大阪府","city":"貝塚市","address":"蕎原"},
{"zip_code":"5970012","kana_pref":"ｵｵｻｶﾌ","kana_city":"ｶｲﾂﾞｶｼ","kana_address":"ﾂﾀﾞ","pref":"大阪府","city":"貝塚市","address":"津田"},
{"zip_code":"5970014","kana_pref":"ｵｵｻｶﾌ","kana_city":"ｶｲﾂﾞｶｼ","kana_address":"ﾂﾀﾞﾐﾅﾐﾁｮｳ","pref":"大阪府","city":"貝塚市","address":"津田南町"},
{"zip_code":"5970013","kana_pref":"ｵｵｻｶﾌ","kana_city":"ｶｲﾂﾞｶｼ","kana_address":"ﾂﾀﾞｷﾀﾁｮｳ","pref":"大阪府","city":"貝塚市","address":"津田北町"},
{"zip_code":"5970054","kana_pref":"ｵｵｻｶﾌ","kana_city":"ｶｲﾂﾞｶｼ","kana_address":"ﾂﾂﾐ","pref":"大阪府","city":"貝塚市","address":"堤"},
{"zip_code":"5970084","kana_pref":"ｵｵｻｶﾌ","kana_city":"ｶｲﾂﾞｶｼ","kana_address":"ﾄﾊﾞ","pref":"大阪府","city":"貝塚市","address":"鳥羽"},
{"zip_code":"5970003","kana_pref":"ｵｵｻｶﾌ","kana_city":"ｶｲﾂﾞｶｼ","kana_address":"ﾅｶ","pref":"大阪府","city":"貝塚市","address":"中"},
{"zip_code":"5970032","kana_pref":"ｵｵｻｶﾌ","kana_city":"ｶｲﾂﾞｶｼ","kana_address":"ﾅｶﾞﾖｼ","pref":"大阪府","city":"貝塚市","address":"永吉"},
{"zip_code":"5970042","kana_pref":"ｵｵｻｶﾌ","kana_city":"ｶｲﾂﾞｶｼ","kana_address":"ﾅｺﾞｾ","pref":"大阪府","city":"貝塚市","address":"名越"},
{"zip_code":"5970022","kana_pref":"ｵｵｻｶﾌ","kana_city":"ｶｲﾂﾞｶｼ","kana_address":"ﾆｲ","pref":"大阪府","city":"貝塚市","address":"新井"},
{"zip_code":"5970091","kana_pref":"ｵｵｻｶﾌ","kana_city":"ｶｲﾂﾞｶｼ","kana_address":"ﾆｼｷ","pref":"大阪府","city":"貝塚市","address":"二色"},
{"zip_code":"5970093","kana_pref":"ｵｵｻｶﾌ","kana_city":"ｶｲﾂﾞｶｼ","kana_address":"ﾆｼｷﾅｶﾏﾁ","pref":"大阪府","city":"貝塚市","address":"二色中町"},
{"zip_code":"5970063","kana_pref":"ｵｵｻｶﾌ","kana_city":"ｶｲﾂﾞｶｼ","kana_address":"ﾆｼｷﾐﾅﾄﾏﾁ","pref":"大阪府","city":"貝塚市","address":"二色港町"},
{"zip_code":"5970094","kana_pref":"ｵｵｻｶﾌ","kana_city":"ｶｲﾂﾞｶｼ","kana_address":"ﾆｼｷﾐﾅﾐﾏﾁ","pref":"大阪府","city":"貝塚市","address":"二色南町"},
{"zip_code":"5970092","kana_pref":"ｵｵｻｶﾌ","kana_city":"ｶｲﾂﾞｶｼ","kana_address":"ﾆｼｷｷﾀﾏﾁ","pref":"大阪府","city":"貝塚市","address":"二色北町"},
{"zip_code":"5970004","kana_pref":"ｵｵｻｶﾌ","kana_city":"ｶｲﾂﾞｶｼ","kana_address":"ﾆｼﾁｮｳ","pref":"大阪府","city":"貝塚市","address":"西町"},
{"zip_code":"5970043","kana_pref":"ｵｵｻｶﾌ","kana_city":"ｶｲﾂﾞｶｼ","kana_address":"ﾊｼﾓﾄ","pref":"大阪府","city":"貝塚市","address":"橋本"},
{"zip_code":"5970106","kana_pref":"ｵｵｻｶﾌ","kana_city":"ｶｲﾂﾞｶｼ","kana_address":"ﾊﾀｹﾅｶ","pref":"大阪府","city":"貝塚市","address":"畠中"},
{"zip_code":"5970072","kana_pref":"ｵｵｻｶﾌ","kana_city":"ｶｲﾂﾞｶｼ","kana_address":"ﾊﾀｹﾅｶ","pref":"大阪府","city":"貝塚市","address":"畠中"},
{"zip_code":"5970103","kana_pref":"ｵｵｻｶﾌ","kana_city":"ｶｲﾂﾞｶｼ","kana_address":"ﾊﾞﾊﾞ","pref":"大阪府","city":"貝塚市","address":"馬場"},
{"zip_code":"5970033","kana_pref":"ｵｵｻｶﾌ","kana_city":"ｶｲﾂﾞｶｼ","kana_address":"ﾊﾝﾀﾞ","pref":"大阪府","city":"貝塚市","address":"半田"},
{"zip_code":"5970085","kana_pref":"ｵｵｻｶﾌ","kana_city":"ｶｲﾂﾞｶｼ","kana_address":"ﾋｶﾞｼ","pref":"大阪府","city":"貝塚市","address":"東"},
{"zip_code":"5970046","kana_pref":"ｵｵｻｶﾌ","kana_city":"ｶｲﾂﾞｶｼ","kana_address":"ﾋｶﾞｼﾔﾏ","pref":"大阪府","city":"貝塚市","address":"東山"},
{"zip_code":"5970023","kana_pref":"ｵｵｻｶﾌ","kana_city":"ｶｲﾂﾞｶｼ","kana_address":"ﾌｸﾀﾞ","pref":"大阪府","city":"貝塚市","address":"福田"},
{"zip_code":"5970015","kana_pref":"ｵｵｻｶﾌ","kana_city":"ｶｲﾂﾞｶｼ","kana_address":"ﾎﾘ","pref":"大阪府","city":"貝塚市","address":"堀"},
{"zip_code":"5970101","kana_pref":"ｵｵｻｶﾌ","kana_city":"ｶｲﾂﾞｶｼ","kana_address":"ﾐｹﾔﾏ","pref":"大阪府","city":"貝塚市","address":"三ケ山"},
{"zip_code":"5970104","kana_pref":"ｵｵｻｶﾌ","kana_city":"ｶｲﾂﾞｶｼ","kana_address":"ﾐｽﾞﾏ","pref":"大阪府","city":"貝塚市","address":"水間"},
{"zip_code":"5970045","kana_pref":"ｵｵｻｶﾌ","kana_city":"ｶｲﾂﾞｶｼ","kana_address":"ﾐﾂﾏﾂ(596","pref":"大阪府","city":"貝塚市","address":"三ツ松（５９６"},
{"zip_code":"5970045","kana_pref":"ｵｵｻｶﾌ","kana_city":"ｶｲﾂﾞｶｼ","kana_address":"894-1","pref":"大阪府","city":"貝塚市","address":"８９４−１"},
{"zip_code":"5970045","kana_pref":"ｵｵｻｶﾌ","kana_city":"ｶｲﾂﾞｶｼ","kana_address":"915-4","pref":"大阪府","city":"貝塚市","address":"９１５−４"},
{"zip_code":"5970045","kana_pref":"ｵｵｻｶﾌ","kana_city":"ｶｲﾂﾞｶｼ","kana_address":"925","pref":"大阪府","city":"貝塚市","address":"９２５"},
{"zip_code":"5970045","kana_pref":"ｵｵｻｶﾌ","kana_city":"ｶｲﾂﾞｶｼ","kana_address":"927-2","pref":"大阪府","city":"貝塚市","address":"９２７−２"},
{"zip_code":"5970045","kana_pref":"ｵｵｻｶﾌ","kana_city":"ｶｲﾂﾞｶｼ","kana_address":"932","pref":"大阪府","city":"貝塚市","address":"９３２"},
{"zip_code":"5970045","kana_pref":"ｵｵｻｶﾌ","kana_city":"ｶｲﾂﾞｶｼ","kana_address":"-4ﾊﾞﾝﾁ","pref":"大阪府","city":"貝塚市","address":"−４番地"},
{"zip_code":"5970045","kana_pref":"ｵｵｻｶﾌ","kana_city":"ｶｲﾂﾞｶｼ","kana_address":"934-968ﾊﾞﾝﾁ","pref":"大阪府","city":"貝塚市","address":"９３４〜９６８番地"},
{"zip_code":"5970045","kana_pref":"ｵｵｻｶﾌ","kana_city":"ｶｲﾂﾞｶｼ","kana_address":"1013-1ﾊﾞﾝﾁ","pref":"大阪府","city":"貝塚市","address":"１０１３−１番地"},
{"zip_code":"5970045","kana_pref":"ｵｵｻｶﾌ","kana_city":"ｶｲﾂﾞｶｼ","kana_address":"1464ﾊﾞﾝﾁ)","pref":"大阪府","city":"貝塚市","address":"１４６４番地）"},
{"zip_code":"5970105","kana_pref":"ｵｵｻｶﾌ","kana_city":"ｶｲﾂﾞｶｼ","kana_address":"ﾐﾂﾏﾂ","pref":"大阪府","city":"貝塚市","address":"三ツ松"},
{"zip_code":"5970095","kana_pref":"ｵｵｻｶﾌ","kana_city":"ｶｲﾂﾞｶｼ","kana_address":"ﾐﾅﾄ","pref":"大阪府","city":"貝塚市","address":"港"},
{"zip_code":"5970005","kana_pref":"ｵｵｻｶﾌ","kana_city":"ｶｲﾂﾞｶｼ","kana_address":"ﾐﾅﾐﾁｮｳ","pref":"大阪府","city":"貝塚市","address":"南町"},
{"zip_code":"5970044","kana_pref":"ｵｵｻｶﾌ","kana_city":"ｶｲﾂﾞｶｼ","kana_address":"ﾓﾘ","pref":"大阪府","city":"貝塚市","address":"森"},
{"zip_code":"5970073","kana_pref":"ｵｵｻｶﾌ","kana_city":"ｶｲﾂﾞｶｼ","kana_address":"ﾜｷﾊﾏ","pref":"大阪府","city":"貝塚市","address":"脇浜"}]}