{"zip_code":[
{"zip_code":"5980000","kana_pref":"ｵｵｻｶﾌ","kana_city":"ｲｽﾞﾐｻﾉｼ","kana_address":"","pref":"大阪府","city":"泉佐野市","address":""},
{"zip_code":"5980014","kana_pref":"ｵｵｻｶﾌ","kana_city":"ｲｽﾞﾐｻﾉｼ","kana_address":"ｱｵｲﾁｮｳ","pref":"大阪府","city":"泉佐野市","address":"葵町"},
{"zip_code":"5980052","kana_pref":"ｵｵｻｶﾌ","kana_city":"ｲｽﾞﾐｻﾉｼ","kana_address":"ｱｻﾋﾁｮｳ","pref":"大阪府","city":"泉佐野市","address":"旭町"},
{"zip_code":"5980072","kana_pref":"ｵｵｻｶﾌ","kana_city":"ｲｽﾞﾐｻﾉｼ","kana_address":"ｲｽﾞﾐｶﾞｵｶ","pref":"大阪府","city":"泉佐野市","address":"泉ケ丘"},
{"zip_code":"5980005","kana_pref":"ｵｵｻｶﾌ","kana_city":"ｲｽﾞﾐｻﾉｼ","kana_address":"ｲﾁﾊﾞﾋｶﾞｼ","pref":"大阪府","city":"泉佐野市","address":"市場東"},
{"zip_code":"5980006","kana_pref":"ｵｵｻｶﾌ","kana_city":"ｲｽﾞﾐｻﾉｼ","kana_address":"ｲﾁﾊﾞﾆｼ","pref":"大阪府","city":"泉佐野市","address":"市場西"},
{"zip_code":"5980004","kana_pref":"ｵｵｻｶﾌ","kana_city":"ｲｽﾞﾐｻﾉｼ","kana_address":"ｲﾁﾊﾞﾐﾅﾐ","pref":"大阪府","city":"泉佐野市","address":"市場南"},
{"zip_code":"5980007","kana_pref":"ｵｵｻｶﾌ","kana_city":"ｲｽﾞﾐｻﾉｼ","kana_address":"ｳｴﾏﾁ","pref":"大阪府","city":"泉佐野市","address":"上町"},
{"zip_code":"5980023","kana_pref":"ｵｵｻｶﾌ","kana_city":"ｲｽﾞﾐｻﾉｼ","kana_address":"ｵｵｷﾞ","pref":"大阪府","city":"泉佐野市","address":"大木"},
{"zip_code":"5980053","kana_pref":"ｵｵｻｶﾌ","kana_city":"ｲｽﾞﾐｻﾉｼ","kana_address":"ｵｵﾐﾔﾁｮｳ","pref":"大阪府","city":"泉佐野市","address":"大宮町"},
{"zip_code":"5980043","kana_pref":"ｵｵｻｶﾌ","kana_city":"ｲｽﾞﾐｻﾉｼ","kana_address":"ｵｵﾆｼ","pref":"大阪府","city":"泉佐野市","address":"大西"},
{"zip_code":"5980044","kana_pref":"ｵｵｻｶﾌ","kana_city":"ｲｽﾞﾐｻﾉｼ","kana_address":"ｶｻﾏﾂ","pref":"大阪府","city":"泉佐野市","address":"笠松"},
{"zip_code":"5980058","kana_pref":"ｵｵｻｶﾌ","kana_city":"ｲｽﾞﾐｻﾉｼ","kana_address":"ｶｽｶﾞﾁｮｳ","pref":"大阪府","city":"泉佐野市","address":"春日町"},
{"zip_code":"5980001","kana_pref":"ｵｵｻｶﾌ","kana_city":"ｲｽﾞﾐｻﾉｼ","kana_address":"ｶﾐｶﾜﾗﾔ","pref":"大阪府","city":"泉佐野市","address":"上瓦屋"},
{"zip_code":"5980024","kana_pref":"ｵｵｻｶﾌ","kana_city":"ｲｽﾞﾐｻﾉｼ","kana_address":"ｶﾐﾉｺﾞｳ","pref":"大阪府","city":"泉佐野市","address":"上之郷"},
{"zip_code":"5980054","kana_pref":"ｵｵｻｶﾌ","kana_city":"ｲｽﾞﾐｻﾉｼ","kana_address":"ｻｶｴﾏﾁ","pref":"大阪府","city":"泉佐野市","address":"栄町"},
{"zip_code":"5980075","kana_pref":"ｵｵｻｶﾌ","kana_city":"ｲｽﾞﾐｻﾉｼ","kana_address":"ｻﾉﾀﾞｲ","pref":"大阪府","city":"泉佐野市","address":"佐野台"},
{"zip_code":"5980062","kana_pref":"ｵｵｻｶﾌ","kana_city":"ｲｽﾞﾐｻﾉｼ","kana_address":"ｼﾓｶﾜﾗﾔ","pref":"大阪府","city":"泉佐野市","address":"下瓦屋"},
{"zip_code":"5980008","kana_pref":"ｵｵｻｶﾌ","kana_city":"ｲｽﾞﾐｻﾉｼ","kana_address":"ｼｮｳﾌｳﾀﾞｲ","pref":"大阪府","city":"泉佐野市","address":"松風台"},
{"zip_code":"5980051","kana_pref":"ｵｵｻｶﾌ","kana_city":"ｲｽﾞﾐｻﾉｼ","kana_address":"ｼﾝﾏﾁ","pref":"大阪府","city":"泉佐野市","address":"新町"},
{"zip_code":"5980032","kana_pref":"ｵｵｻｶﾌ","kana_city":"ｲｽﾞﾐｻﾉｼ","kana_address":"ｼﾝﾔｽﾏﾂ","pref":"大阪府","city":"泉佐野市","address":"新安松"},
{"zip_code":"5980061","kana_pref":"ｵｵｻｶﾌ","kana_city":"ｲｽﾞﾐｻﾉｼ","kana_address":"ｽﾐﾖｼﾁｮｳ","pref":"大阪府","city":"泉佐野市","address":"住吉町"},
{"zip_code":"5980012","kana_pref":"ｵｵｻｶﾌ","kana_city":"ｲｽﾞﾐｻﾉｼ","kana_address":"ﾀｶﾏﾂﾋｶﾞｼ","pref":"大阪府","city":"泉佐野市","address":"高松東"},
{"zip_code":"5980016","kana_pref":"ｵｵｻｶﾌ","kana_city":"ｲｽﾞﾐｻﾉｼ","kana_address":"ﾀｶﾏﾂﾆｼ","pref":"大阪府","city":"泉佐野市","address":"高松西"},
{"zip_code":"5980015","kana_pref":"ｵｵｻｶﾌ","kana_city":"ｲｽﾞﾐｻﾉｼ","kana_address":"ﾀｶﾏﾂﾐﾅﾐ","pref":"大阪府","city":"泉佐野市","address":"高松南"},
{"zip_code":"5980011","kana_pref":"ｵｵｻｶﾌ","kana_city":"ｲｽﾞﾐｻﾉｼ","kana_address":"ﾀｶﾏﾂｷﾀ","pref":"大阪府","city":"泉佐野市","address":"高松北"},
{"zip_code":"5980003","kana_pref":"ｵｵｻｶﾌ","kana_city":"ｲｽﾞﾐｻﾉｼ","kana_address":"ﾀﾜﾗﾔ","pref":"大阪府","city":"泉佐野市","address":"俵屋"},
{"zip_code":"5980022","kana_pref":"ｵｵｻｶﾌ","kana_city":"ｲｽﾞﾐｻﾉｼ","kana_address":"ﾂﾁﾏﾙ","pref":"大阪府","city":"泉佐野市","address":"土丸"},
{"zip_code":"5980071","kana_pref":"ｵｵｻｶﾌ","kana_city":"ｲｽﾞﾐｻﾉｼ","kana_address":"ﾂﾙﾊﾗ","pref":"大阪府","city":"泉佐野市","address":"鶴原"},
{"zip_code":"5980002","kana_pref":"ｵｵｻｶﾌ","kana_city":"ｲｽﾞﾐｻﾉｼ","kana_address":"ﾅｶｼｮｳ","pref":"大阪府","city":"泉佐野市","address":"中庄"},
{"zip_code":"5980013","kana_pref":"ｵｵｻｶﾌ","kana_city":"ｲｽﾞﾐｻﾉｼ","kana_address":"ﾅｶﾏﾁ","pref":"大阪府","city":"泉佐野市","address":"中町"},
{"zip_code":"5980034","kana_pref":"ｵｵｻｶﾌ","kana_city":"ｲｽﾞﾐｻﾉｼ","kana_address":"ﾅｶﾞﾀｷ","pref":"大阪府","city":"泉佐野市","address":"長滝"},
{"zip_code":"5980064","kana_pref":"ｵｵｻｶﾌ","kana_city":"ｲｽﾞﾐｻﾉｼ","kana_address":"ﾆｲﾊﾏﾁｮｳ","pref":"大阪府","city":"泉佐野市","address":"新浜町"},
{"zip_code":"5980042","kana_pref":"ｵｵｻｶﾌ","kana_city":"ｲｽﾞﾐｻﾉｼ","kana_address":"ﾆｼﾎﾝﾏﾁ","pref":"大阪府","city":"泉佐野市","address":"西本町"},
{"zip_code":"5980041","kana_pref":"ｵｵｻｶﾌ","kana_city":"ｲｽﾞﾐｻﾉｼ","kana_address":"ﾉﾃﾞﾁｮｳ","pref":"大阪府","city":"泉佐野市","address":"野出町"},
{"zip_code":"5980046","kana_pref":"ｵｵｻｶﾌ","kana_city":"ｲｽﾞﾐｻﾉｼ","kana_address":"ﾊｸﾞﾗｻﾞｷ","pref":"大阪府","city":"泉佐野市","address":"羽倉崎"},
{"zip_code":"5980037","kana_pref":"ｵｵｻｶﾌ","kana_city":"ｲｽﾞﾐｻﾉｼ","kana_address":"ﾊｸﾞﾗｻﾞｷｳｴﾏﾁ","pref":"大阪府","city":"泉佐野市","address":"羽倉崎上町"},
{"zip_code":"5980074","kana_pref":"ｵｵｻｶﾌ","kana_city":"ｲｽﾞﾐｻﾉｼ","kana_address":"ﾋｶﾞｼｻﾉﾀﾞｲ","pref":"大阪府","city":"泉佐野市","address":"東佐野台"},
{"zip_code":"5980031","kana_pref":"ｵｵｻｶﾌ","kana_city":"ｲｽﾞﾐｻﾉｼ","kana_address":"ﾋｶﾞｼﾊｸﾞﾗｻﾞｷﾁｮｳ","pref":"大阪府","city":"泉佐野市","address":"東羽倉崎町"},
{"zip_code":"5980021","kana_pref":"ｵｵｻｶﾌ","kana_city":"ｲｽﾞﾐｻﾉｼ","kana_address":"ﾋﾈﾉ","pref":"大阪府","city":"泉佐野市","address":"日根野"},
{"zip_code":"5980057","kana_pref":"ｵｵｻｶﾌ","kana_city":"ｲｽﾞﾐｻﾉｼ","kana_address":"ﾎﾝﾏﾁ","pref":"大阪府","city":"泉佐野市","address":"本町"},
{"zip_code":"5980045","kana_pref":"ｵｵｻｶﾌ","kana_city":"ｲｽﾞﾐｻﾉｼ","kana_address":"ﾏﾂﾊﾞﾗ","pref":"大阪府","city":"泉佐野市","address":"松原"},
{"zip_code":"5980063","kana_pref":"ｵｵｻｶﾌ","kana_city":"ｲｽﾞﾐｻﾉｼ","kana_address":"ﾐﾅﾄ","pref":"大阪府","city":"泉佐野市","address":"湊"},
{"zip_code":"5980073","kana_pref":"ｵｵｻｶﾌ","kana_city":"ｲｽﾞﾐｻﾉｼ","kana_address":"ﾐﾅﾐｲｽﾞﾐｶﾞｵｶ","pref":"大阪府","city":"泉佐野市","address":"南泉ケ丘"},
{"zip_code":"5980036","kana_pref":"ｵｵｻｶﾌ","kana_city":"ｲｽﾞﾐｻﾉｼ","kana_address":"ﾐﾅﾐﾅｶｵｶﾓﾄ","pref":"大阪府","city":"泉佐野市","address":"南中岡本"},
{"zip_code":"5980035","kana_pref":"ｵｵｻｶﾌ","kana_city":"ｲｽﾞﾐｻﾉｼ","kana_address":"ﾐﾅﾐﾅｶｶｼｲ","pref":"大阪府","city":"泉佐野市","address":"南中樫井"},
{"zip_code":"5980033","kana_pref":"ｵｵｻｶﾌ","kana_city":"ｲｽﾞﾐｻﾉｼ","kana_address":"ﾐﾅﾐﾅｶﾔｽﾏﾂ","pref":"大阪府","city":"泉佐野市","address":"南中安松"},
{"zip_code":"5980056","kana_pref":"ｵｵｻｶﾌ","kana_city":"ｲｽﾞﾐｻﾉｼ","kana_address":"ﾓﾄﾏﾁ","pref":"大阪府","city":"泉佐野市","address":"元町"},
{"zip_code":"5980047","kana_pref":"ｵｵｻｶﾌ","kana_city":"ｲｽﾞﾐｻﾉｼ","kana_address":"ﾘﾝｸｳｵｳﾗｲﾐﾅﾐ","pref":"大阪府","city":"泉佐野市","address":"りんくう往来南"},
{"zip_code":"5980048","kana_pref":"ｵｵｻｶﾌ","kana_city":"ｲｽﾞﾐｻﾉｼ","kana_address":"ﾘﾝｸｳｵｳﾗｲｷﾀ","pref":"大阪府","city":"泉佐野市","address":"りんくう往来北"},
{"zip_code":"5980055","kana_pref":"ｵｵｻｶﾌ","kana_city":"ｲｽﾞﾐｻﾉｼ","kana_address":"ﾜｶﾐﾔﾁｮｳ","pref":"大阪府","city":"泉佐野市","address":"若宮町"},
{"zip_code":"5980000","kana_pref":"ｵｵｻｶﾌ","kana_city":"ｾﾝﾅﾝｸﾞﾝﾀｼﾞﾘﾁｮｳ","kana_address":"","pref":"大阪府","city":"泉南郡田尻町","address":""},
{"zip_code":"5980091","kana_pref":"ｵｵｻｶﾌ","kana_city":"ｾﾝﾅﾝｸﾞﾝﾀｼﾞﾘﾁｮｳ","kana_address":"ｶｼｮｳｼﾞ","pref":"大阪府","city":"泉南郡田尻町","address":"嘉祥寺"},
{"zip_code":"5980092","kana_pref":"ｵｵｻｶﾌ","kana_city":"ｾﾝﾅﾝｸﾞﾝﾀｼﾞﾘﾁｮｳ","kana_address":"ﾖｼﾐ","pref":"大阪府","city":"泉南郡田尻町","address":"吉見"},
{"zip_code":"5980094","kana_pref":"ｵｵｻｶﾌ","kana_city":"ｾﾝﾅﾝｸﾞﾝﾀｼﾞﾘﾁｮｳ","kana_address":"ﾘﾝｸｳﾎﾟｰﾄﾐﾅﾐ","pref":"大阪府","city":"泉南郡田尻町","address":"りんくうポート南"},
{"zip_code":"5980093","kana_pref":"ｵｵｻｶﾌ","kana_city":"ｾﾝﾅﾝｸﾞﾝﾀｼﾞﾘﾁｮｳ","kana_address":"ﾘﾝｸｳﾎﾟｰﾄｷﾀ","pref":"大阪府","city":"泉南郡田尻町","address":"りんくうポート北"}]}