{"zip_code":[
{"zip_code":"6000000","kana_pref":"ｷｮｳﾄﾌ","kana_city":"ｷｮｳﾄｼｼﾓｷﾞｮｳｸ","kana_address":"","pref":"京都府","city":"京都市下京区","address":""},
{"zip_code":"6008071","kana_pref":"ｷｮｳﾄﾌ","kana_city":"ｷｮｳﾄｼｼﾓｷﾞｮｳｸ","kana_address":"ｱｲﾉﾁｮｳ","pref":"京都府","city":"京都市下京区","address":"相之町"},
{"zip_code":"6008410","kana_pref":"ｷｮｳﾄﾌ","kana_city":"ｷｮｳﾄｼｼﾓｷﾞｮｳｸ","kana_address":"ｱｸｵｳｼﾞﾁｮｳ","pref":"京都府","city":"京都市下京区","address":"悪王子町"},
{"zip_code":"6008407","kana_pref":"ｷｮｳﾄﾌ","kana_city":"ｷｮｳﾄｼｼﾓｷﾞｮｳｸ","kana_address":"ｱｻﾂﾞﾏﾁｮｳ","pref":"京都府","city":"京都市下京区","address":"朝妻町"},
{"zip_code":"6008473","kana_pref":"ｷｮｳﾄﾌ","kana_city":"ｷｮｳﾄｼｼﾓｷﾞｮｳｸ","kana_address":"ｱｼｶﾘﾔﾏﾁｮｳ","pref":"京都府","city":"京都市下京区","address":"芦刈山町"},
{"zip_code":"6008308","kana_pref":"ｷｮｳﾄﾌ","kana_city":"ｷｮｳﾄｼｼﾓｷﾞｮｳｸ","kana_address":"ｱﾀﾗｼﾁｮｳ","pref":"京都府","city":"京都市下京区","address":"新シ町"},
{"zip_code":"6008040","kana_pref":"ｷｮｳﾄﾌ","kana_city":"ｷｮｳﾄｼｼﾓｷﾞｮｳｸ","kana_address":"ｱﾂﾞﾁﾁｮｳ","pref":"京都府","city":"京都市下京区","address":"安土町"},
{"zip_code":"6008231","kana_pref":"ｷｮｳﾄﾌ","kana_city":"ｷｮｳﾄｼｼﾓｷﾞｮｳｸ","kana_address":"ｱﾌﾞﾗﾉｺｳｼﾞﾁｮｳ","pref":"京都府","city":"京都市下京区","address":"油小路町"},
{"zip_code":"6008148","kana_pref":"ｷｮｳﾄﾌ","kana_city":"ｷｮｳﾄｼｼﾓｷﾞｮｳｸ","kana_address":"ｱﾒﾔﾁｮｳ","pref":"京都府","city":"京都市下京区","address":"飴屋町"},
{"zip_code":"6008383","kana_pref":"ｷｮｳﾄﾌ","kana_city":"ｷｮｳﾄｼｼﾓｷﾞｮｳｸ","kana_address":"ｱﾔｵｵﾐﾔﾁｮｳ","pref":"京都府","city":"京都市下京区","address":"綾大宮町"},
{"zip_code":"6008072","kana_pref":"ｷｮｳﾄﾌ","kana_city":"ｷｮｳﾄｼｼﾓｷﾞｮｳｸ","kana_address":"ｱﾔｻﾞｲﾓｸﾁｮｳ","pref":"京都府","city":"京都市下京区","address":"綾材木町"},
{"zip_code":"6008474","kana_pref":"ｷｮｳﾄﾌ","kana_city":"ｷｮｳﾄｼｼﾓｷﾞｮｳｸ","kana_address":"ｱﾔﾆｼﾉﾄｳｲﾝﾁｮｳ","pref":"京都府","city":"京都市下京区","address":"綾西洞院町"},
{"zip_code":"6008482","kana_pref":"ｷｮｳﾄﾌ","kana_city":"ｷｮｳﾄｼｼﾓｷﾞｮｳｸ","kana_address":"ｱﾔﾎﾘｶﾜﾁｮｳ","pref":"京都府","city":"京都市下京区","address":"綾堀川町"},
{"zip_code":"6008496","kana_pref":"ｷｮｳﾄﾌ","kana_city":"ｷｮｳﾄｼｼﾓｷﾞｮｳｸ","kana_address":"ｲｼｲﾂﾞﾂﾁｮｳ","pref":"京都府","city":"京都市下京区","address":"石井筒町"},
{"zip_code":"6008047","kana_pref":"ｷｮｳﾄﾌ","kana_city":"ｷｮｳﾄｼｼﾓｷﾞｮｳｸ","kana_address":"ｲｼﾌﾄﾞｳﾉﾁｮｳ","pref":"京都府","city":"京都市下京区","address":"石不動之町"},
{"zip_code":"6008188","kana_pref":"ｷｮｳﾄﾌ","kana_city":"ｷｮｳﾄｼｼﾓｷﾞｮｳｸ","kana_address":"ｲｽﾞﾐﾁｮｳ","pref":"京都府","city":"京都市下京区","address":"和泉町"},
{"zip_code":"6008014","kana_pref":"ｷｮｳﾄﾌ","kana_city":"ｷｮｳﾄｼｼﾓｷﾞｮｳｸ","kana_address":"ｲｽﾞﾐﾔﾁｮｳ","pref":"京都府","city":"京都市下京区","address":"和泉屋町"},
{"zip_code":"6008254","kana_pref":"ｷｮｳﾄﾌ","kana_city":"ｷｮｳﾄｼｼﾓｷﾞｮｳｸ","kana_address":"ｲｾﾏﾂﾁｮｳ","pref":"京都府","city":"京都市下京区","address":"伊勢松町"},
{"zip_code":"6008018","kana_pref":"ｷｮｳﾄﾌ","kana_city":"ｷｮｳﾄｼｼﾓｷﾞｮｳｸ","kana_address":"ｲﾁﾉﾁｮｳ","pref":"京都府","city":"京都市下京区","address":"市之町"},
{"zip_code":"6008318","kana_pref":"ｷｮｳﾄﾌ","kana_city":"ｷｮｳﾄｼｼﾓｷﾞｮｳｸ","kana_address":"ｲﾂﾞﾂﾁｮｳ","pref":"京都府","city":"京都市下京区","address":"井筒町"},
{"zip_code":"6008432","kana_pref":"ｷｮｳﾄﾌ","kana_city":"ｷｮｳﾄｼｼﾓｷﾞｮｳｸ","kana_address":"ｲﾄﾔﾁｮｳ","pref":"京都府","city":"京都市下京区","address":"糸屋町"},
{"zip_code":"6008415","kana_pref":"ｷｮｳﾄﾌ","kana_city":"ｷｮｳﾄｼｼﾓｷﾞｮｳｸ","kana_address":"ｲﾅﾊﾞﾄﾞｳﾁｮｳ","pref":"京都府","city":"京都市下京区","address":"因幡堂町"},
{"zip_code":"6008022","kana_pref":"ｷｮｳﾄﾌ","kana_city":"ｷｮｳﾄｼｼﾓｷﾞｮｳｸ","kana_address":"ｲﾅﾘﾁｮｳ","pref":"京都府","city":"京都市下京区","address":"稲荷町"},
{"zip_code":"6008133","kana_pref":"ｷｮｳﾄﾌ","kana_city":"ｷｮｳﾄｼｼﾓｷﾞｮｳｸ","kana_address":"ｲﾅﾘﾁｮｳ","pref":"京都府","city":"京都市下京区","address":"稲荷町"},
{"zip_code":"6008098","kana_pref":"ｷｮｳﾄﾌ","kana_city":"ｷｮｳﾄｼｼﾓｷﾞｮｳｸ","kana_address":"ｲﾅﾘﾁｮｳ","pref":"京都府","city":"京都市下京区","address":"稲荷町"},
{"zip_code":"6008166","kana_pref":"ｷｮｳﾄﾌ","kana_city":"ｷｮｳﾄｼｼﾓｷﾞｮｳｸ","kana_address":"ｲﾇｲﾁｮｳ","pref":"京都府","city":"京都市下京区","address":"乾町"},
{"zip_code":"6008384","kana_pref":"ｷｮｳﾄﾌ","kana_city":"ｷｮｳﾄｼｼﾓｷﾞｮｳｸ","kana_address":"ｲﾏﾀﾞｲｺｸﾁｮｳ","pref":"京都府","city":"京都市下京区","address":"今大黒町"},
{"zip_code":"6008115","kana_pref":"ｷｮｳﾄﾌ","kana_city":"ｷｮｳﾄｼｼﾓｷﾞｮｳｸ","kana_address":"ｲﾜﾀｷﾁｮｳ","pref":"京都府","city":"京都市下京区","address":"岩滝町"},
{"zip_code":"6008445","kana_pref":"ｷｮｳﾄﾌ","kana_city":"ｷｮｳﾄｼｼﾓｷﾞｮｳｸ","kana_address":"ｲﾜﾄﾔﾏﾁｮｳ","pref":"京都府","city":"京都市下京区","address":"岩戸山町"},
{"zip_code":"6008028","kana_pref":"ｷｮｳﾄﾌ","kana_city":"ｷｮｳﾄｼｼﾓｷﾞｮｳｸ","kana_address":"ｳｴﾏﾂﾁｮｳ","pref":"京都府","city":"京都市下京区","address":"植松町"},
{"zip_code":"6008343","kana_pref":"ｷｮｳﾄﾌ","kana_city":"ｷｮｳﾄｼｼﾓｷﾞｮｳｸ","kana_address":"ｳｴﾏﾂﾁｮｳ","pref":"京都府","city":"京都市下京区","address":"植松町"},
{"zip_code":"6008304","kana_pref":"ｷｮｳﾄﾌ","kana_city":"ｷｮｳﾄｼｼﾓｷﾞｮｳｸ","kana_address":"ｳｼﾄﾗﾁｮｳ","pref":"京都府","city":"京都市下京区","address":"艮町"},
{"zip_code":"6008151","kana_pref":"ｷｮｳﾄﾌ","kana_city":"ｷｮｳﾄｼｼﾓｷﾞｮｳｸ","kana_address":"ｳﾁｺｼﾁｮｳ","pref":"京都府","city":"京都市下京区","address":"打越町"},
{"zip_code":"6008855","kana_pref":"ｷｮｳﾄﾌ","kana_city":"ｷｮｳﾄｼｼﾓｷﾞｮｳｸ","kana_address":"ｳﾒｺｳｼﾞｲｼﾊﾞｼﾁｮｳ","pref":"京都府","city":"京都市下京区","address":"梅小路石橋町"},
{"zip_code":"6008851","kana_pref":"ｷｮｳﾄﾌ","kana_city":"ｷｮｳﾄｼｼﾓｷﾞｮｳｸ","kana_address":"ｳﾒｺｳｼﾞｶｼﾗﾁｮｳ","pref":"京都府","city":"京都市下京区","address":"梅小路頭町"},
{"zip_code":"6008853","kana_pref":"ｷｮｳﾄﾌ","kana_city":"ｷｮｳﾄｼｼﾓｷﾞｮｳｸ","kana_address":"ｳﾒｺｳｼﾞﾀｶﾊﾀﾁｮｳ","pref":"京都府","city":"京都市下京区","address":"梅小路高畑町"},
{"zip_code":"6008854","kana_pref":"ｷｮｳﾄﾌ","kana_city":"ｷｮｳﾄｼｼﾓｷﾞｮｳｸ","kana_address":"ｳﾒｺｳｼﾞﾆｼﾅｶﾏﾁ","pref":"京都府","city":"京都市下京区","address":"梅小路西中町"},
{"zip_code":"6008852","kana_pref":"ｷｮｳﾄﾌ","kana_city":"ｷｮｳﾄｼｼﾓｷﾞｮｳｸ","kana_address":"ｳﾒｺｳｼﾞﾋｶﾞｼﾅｶﾏﾁ","pref":"京都府","city":"京都市下京区","address":"梅小路東中町"},
{"zip_code":"6008857","kana_pref":"ｷｮｳﾄﾌ","kana_city":"ｷｮｳﾄｼｼﾓｷﾞｮｳｸ","kana_address":"ｳﾒｺｳｼﾞﾋｶﾞｼﾏﾁ","pref":"京都府","city":"京都市下京区","address":"梅小路東町"},
{"zip_code":"6008856","kana_pref":"ｷｮｳﾄﾌ","kana_city":"ｷｮｳﾄｼｼﾓｷﾞｮｳｸ","kana_address":"ｳﾒｺｳｼﾞﾎﾝﾏﾁ","pref":"京都府","city":"京都市下京区","address":"梅小路本町"},
{"zip_code":"6008127","kana_pref":"ｷｮｳﾄﾌ","kana_city":"ｷｮｳﾄｼｼﾓｷﾞｮｳｸ","kana_address":"ｳﾒﾐﾅﾄﾁｮｳ","pref":"京都府","city":"京都市下京区","address":"梅湊町"},
{"zip_code":"6008822","kana_pref":"ｷｮｳﾄﾌ","kana_city":"ｷｮｳﾄｼｼﾓｷﾞｮｳｸ","kana_address":"ｳﾗｶﾀﾁｮｳ","pref":"京都府","city":"京都市下京区","address":"裏片町"},
{"zip_code":"6008463","kana_pref":"ｷｮｳﾄﾌ","kana_city":"ｷｮｳﾄｼｼﾓｷﾞｮｳｸ","kana_address":"ｴｲﾖｳｼﾞﾁｮｳ","pref":"京都府","city":"京都市下京区","address":"永養寺町"},
{"zip_code":"6008154","kana_pref":"ｷｮｳﾄﾌ","kana_city":"ｷｮｳﾄｼｼﾓｷﾞｮｳｸ","kana_address":"ｴﾉｷﾁｮｳ","pref":"京都府","city":"京都市下京区","address":"榎木町"},
{"zip_code":"6008302","kana_pref":"ｷｮｳﾄﾌ","kana_city":"ｷｮｳﾄｼｼﾓｷﾞｮｳｸ","kana_address":"ｴﾋﾞｽﾁｮｳ","pref":"京都府","city":"京都市下京区","address":"蛭子町"},
{"zip_code":"6008033","kana_pref":"ｷｮｳﾄﾌ","kana_city":"ｷｮｳﾄｼｼﾓｷﾞｮｳｸ","kana_address":"ｴﾋﾞｽﾉﾁｮｳ","pref":"京都府","city":"京都市下京区","address":"恵美須之町"},
{"zip_code":"6008183","kana_pref":"ｷｮｳﾄﾌ","kana_city":"ｷｮｳﾄｼｼﾓｷﾞｮｳｸ","kana_address":"ｴﾋﾞｽﾉﾁｮｳ","pref":"京都府","city":"京都市下京区","address":"夷之町（間之町通五条下る３丁目"},
{"zip_code":"6008183","kana_pref":"ｷｮｳﾄﾌ","kana_city":"ｷｮｳﾄｼｼﾓｷﾞｮｳｸ","kana_address":"ｴﾋﾞｽﾉﾁｮｳ","pref":"京都府","city":"京都市下京区","address":"間之町通花屋町上る"},
{"zip_code":"6008183","kana_pref":"ｷｮｳﾄﾌ","kana_city":"ｷｮｳﾄｼｼﾓｷﾞｮｳｸ","kana_address":"ｴﾋﾞｽﾉﾁｮｳ","pref":"京都府","city":"京都市下京区","address":"間之町通"},
{"zip_code":"6008183","kana_pref":"ｷｮｳﾄﾌ","kana_city":"ｷｮｳﾄｼｼﾓｷﾞｮｳｸ","kana_address":"ｴﾋﾞｽﾉﾁｮｳ","pref":"京都府","city":"京都市下京区","address":"六条下る"},
{"zip_code":"6008183","kana_pref":"ｷｮｳﾄﾌ","kana_city":"ｷｮｳﾄｼｼﾓｷﾞｮｳｸ","kana_address":"ｴﾋﾞｽﾉﾁｮｳ","pref":"京都府","city":"京都市下京区","address":"花屋町通間之町西入"},
{"zip_code":"6008183","kana_pref":"ｷｮｳﾄﾌ","kana_city":"ｷｮｳﾄｼｼﾓｷﾞｮｳｸ","kana_address":"ｴﾋﾞｽﾉﾁｮｳ","pref":"京都府","city":"京都市下京区","address":"花屋町通間之町東入"},
{"zip_code":"6008183","kana_pref":"ｷｮｳﾄﾌ","kana_city":"ｷｮｳﾄｼｼﾓｷﾞｮｳｸ","kana_address":"ｴﾋﾞｽﾉﾁｮｳ","pref":"京都府","city":"京都市下京区","address":"花屋町通東洞院東入"},
{"zip_code":"6008183","kana_pref":"ｷｮｳﾄﾌ","kana_city":"ｷｮｳﾄｼｼﾓｷﾞｮｳｸ","kana_address":"ｴﾋﾞｽﾉﾁｮｳ","pref":"京都府","city":"京都市下京区","address":""},
{"zip_code":"6008183","kana_pref":"ｷｮｳﾄﾌ","kana_city":"ｷｮｳﾄｼｼﾓｷﾞｮｳｸ","kana_address":"ｴﾋﾞｽﾉﾁｮｳ","pref":"京都府","city":"京都市下京区","address":"六条通間之町西入"},
{"zip_code":"6008183","kana_pref":"ｷｮｳﾄﾌ","kana_city":"ｷｮｳﾄｼｼﾓｷﾞｮｳｸ","kana_address":"ｴﾋﾞｽﾉﾁｮｳ","pref":"京都府","city":"京都市下京区","address":"六条通間之町東入"},
{"zip_code":"6008183","kana_pref":"ｷｮｳﾄﾌ","kana_city":"ｷｮｳﾄｼｼﾓｷﾞｮｳｸ","kana_address":"ｴﾋﾞｽﾉﾁｮｳ","pref":"京都府","city":"京都市下京区","address":"六条通東洞院東入）"},
{"zip_code":"6008310","kana_pref":"ｷｮｳﾄﾌ","kana_city":"ｷｮｳﾄｼｼﾓｷﾞｮｳｸ","kana_address":"ｴﾋﾞｽﾉﾁｮｳ","pref":"京都府","city":"京都市下京区","address":"夷之町"},
{"zip_code":"6008837","kana_pref":"ｷｮｳﾄﾌ","kana_city":"ｷｮｳﾄｼｼﾓｷﾞｮｳｸ","kana_address":"ｴﾋﾞｽﾉﾊﾞﾝﾊﾞﾁｮｳ","pref":"京都府","city":"京都市下京区","address":"夷馬場町"},
{"zip_code":"6008328","kana_pref":"ｷｮｳﾄﾌ","kana_city":"ｷｮｳﾄｼｼﾓｷﾞｮｳｸ","kana_address":"ｴﾋﾞｽﾐｽﾞﾁｮｳ","pref":"京都府","city":"京都市下京区","address":"蛭子水町"},
{"zip_code":"6008062","kana_pref":"ｷｮｳﾄﾌ","kana_city":"ｷｮｳﾄｼｼﾓｷﾞｮｳｸ","kana_address":"ｴﾋﾞｽﾔﾁｮｳ","pref":"京都府","city":"京都市下京区","address":"恵美須屋町"},
{"zip_code":"6008095","kana_pref":"ｷｮｳﾄﾌ","kana_city":"ｷｮｳﾄｼｼﾓｷﾞｮｳｸ","kana_address":"ｵｳｷﾞｻｶﾔﾁｮｳ","pref":"京都府","city":"京都市下京区","address":"扇酒屋町"},
{"zip_code":"6008402","kana_pref":"ｷｮｳﾄﾌ","kana_city":"ｷｮｳﾄｼｼﾓｷﾞｮｳｸ","kana_address":"ｵｵｴﾁｮｳ","pref":"京都府","city":"京都市下京区","address":"大江町"},
{"zip_code":"6008177","kana_pref":"ｷｮｳﾄﾌ","kana_city":"ｷｮｳﾄｼｼﾓｷﾞｮｳｸ","kana_address":"ｵｵｻｶﾁｮｳ","pref":"京都府","city":"京都市下京区","address":"大坂町"},
{"zip_code":"6008181","kana_pref":"ｷｮｳﾄﾌ","kana_city":"ｷｮｳﾄｼｼﾓｷﾞｮｳｸ","kana_address":"ｵｵﾂﾁｮｳ","pref":"京都府","city":"京都市下京区","address":"大津町"},
{"zip_code":"6008419","kana_pref":"ｷｮｳﾄﾌ","kana_city":"ｷｮｳﾄｼｼﾓｷﾞｮｳｸ","kana_address":"ｵｵﾎﾞﾘﾁｮｳ","pref":"京都府","city":"京都市下京区","address":"大堀町"},
{"zip_code":"6008413","kana_pref":"ｷｮｳﾄﾌ","kana_city":"ｷｮｳﾄｼｼﾓｷﾞｮｳｸ","kana_address":"ｵｵﾏﾝﾄﾞｺﾛﾁｮｳ","pref":"京都府","city":"京都市下京区","address":"大政所町"},
{"zip_code":"6008363","kana_pref":"ｷｮｳﾄﾌ","kana_city":"ｷｮｳﾄｼｼﾓｷﾞｮｳｸ","kana_address":"ｵｵﾐﾔ","pref":"京都府","city":"京都市下京区","address":"大宮"},
{"zip_code":"6008138","kana_pref":"ｷｮｳﾄﾌ","kana_city":"ｷｮｳﾄｼｼﾓｷﾞｮｳｸ","kana_address":"ｵｵﾐﾔﾁｮｳ","pref":"京都府","city":"京都市下京区","address":"大宮町"},
{"zip_code":"6008002","kana_pref":"ｷｮｳﾄﾌ","kana_city":"ｷｮｳﾄｼｼﾓｷﾞｮｳｸ","kana_address":"ｵﾀﾋﾞﾁｮｳ","pref":"京都府","city":"京都市下京区","address":"御旅町"},
{"zip_code":"6008003","kana_pref":"ｷｮｳﾄﾌ","kana_city":"ｷｮｳﾄｼｼﾓｷﾞｮｳｸ","kana_address":"ｵﾀﾋﾞﾐﾔﾓﾄﾁｮｳ","pref":"京都府","city":"京都市下京区","address":"御旅宮本町"},
{"zip_code":"6008430","kana_pref":"ｷｮｳﾄﾌ","kana_city":"ｷｮｳﾄｼｼﾓｷﾞｮｳｸ","kana_address":"ｵﾀﾞﾜﾗﾁｮｳ","pref":"京都府","city":"京都市下京区","address":"小田原町"},
{"zip_code":"6008145","kana_pref":"ｷｮｳﾄﾌ","kana_city":"ｷｮｳﾄｼｼﾓｷﾞｮｳｸ","kana_address":"ｶｲｻﾞﾝﾁｮｳ","pref":"京都府","city":"京都市下京区","address":"皆山町"},
{"zip_code":"6008246","kana_pref":"ｷｮｳﾄﾌ","kana_city":"ｷｮｳﾄｼｼﾓｷﾞｮｳｸ","kana_address":"ｶｷｶﾞｳﾁﾁｮｳ","pref":"京都府","city":"京都市下京区","address":"垣ケ内町"},
{"zip_code":"6008357","kana_pref":"ｷｮｳﾄﾌ","kana_city":"ｷｮｳﾄｼｼﾓｷﾞｮｳｸ","kana_address":"ｶｷﾓﾄﾁｮｳ","pref":"京都府","city":"京都市下京区","address":"柿本町"},
{"zip_code":"6008057","kana_pref":"ｷｮｳﾄﾌ","kana_city":"ｷｮｳﾄｼｼﾓｷﾞｮｳｸ","kana_address":"ｶｷﾞﾔﾁｮｳ","pref":"京都府","city":"京都市下京区","address":"鍵屋町"},
{"zip_code":"6008126","kana_pref":"ｷｮｳﾄﾌ","kana_city":"ｷｮｳﾄｼｼﾓｷﾞｮｳｸ","kana_address":"ｶｷﾞﾔﾁｮｳ","pref":"京都府","city":"京都市下京区","address":"鍵屋町"},
{"zip_code":"6008178","kana_pref":"ｷｮｳﾄﾌ","kana_city":"ｷｮｳﾄｼｼﾓｷﾞｮｳｸ","kana_address":"ｶｷﾞﾔﾁｮｳ","pref":"京都府","city":"京都市下京区","address":"鍵屋町"},
{"zip_code":"6008317","kana_pref":"ｷｮｳﾄﾌ","kana_city":"ｷｮｳﾄｼｼﾓｷﾞｮｳｸ","kana_address":"ｶｷﾞﾔﾁｮｳ","pref":"京都府","city":"京都市下京区","address":"鍵屋町"},
{"zip_code":"6008341","kana_pref":"ｷｮｳﾄﾌ","kana_city":"ｷｮｳﾄｼｼﾓｷﾞｮｳｸ","kana_address":"ｶﾞｸﾘﾝﾁｮｳ","pref":"京都府","city":"京都市下京区","address":"学林町"},
{"zip_code":"6008475","kana_pref":"ｷｮｳﾄﾌ","kana_city":"ｷｮｳﾄｼｼﾓｷﾞｮｳｸ","kana_address":"ｶｻﾞﾊﾔﾁｮｳ","pref":"京都府","city":"京都市下京区","address":"風早町"},
{"zip_code":"6008494","kana_pref":"ｷｮｳﾄﾌ","kana_city":"ｷｮｳﾄｼｼﾓｷﾞｮｳｸ","kana_address":"ｶｻﾎﾞｺﾁｮｳ","pref":"京都府","city":"京都市下京区","address":"傘鉾町"},
{"zip_code":"6008079","kana_pref":"ｷｮｳﾄﾌ","kana_city":"ｷｮｳﾄｼｼﾓｷﾞｮｳｸ","kana_address":"ｶｼﾞﾔﾁｮｳ","pref":"京都府","city":"京都市下京区","address":"鍛冶屋町"},
{"zip_code":"6008329","kana_pref":"ｷｮｳﾄﾌ","kana_city":"ｷｮｳﾄｼｼﾓｷﾞｮｳｸ","kana_address":"ｶｼﾞﾔﾁｮｳ","pref":"京都府","city":"京都市下京区","address":"鍛冶屋町"},
{"zip_code":"6008066","kana_pref":"ｷｮｳﾄﾌ","kana_city":"ｷｮｳﾄｼｼﾓｷﾞｮｳｸ","kana_address":"ｶｼﾜﾔﾁｮｳ","pref":"京都府","city":"京都市下京区","address":"柏屋町"},
{"zip_code":"6008498","kana_pref":"ｷｮｳﾄﾌ","kana_city":"ｷｮｳﾄｼｼﾓｷﾞｮｳｸ","kana_address":"ｶｼﾜﾔﾁｮｳ","pref":"京都府","city":"京都市下京区","address":"柏屋町"},
{"zip_code":"6008049","kana_pref":"ｷｮｳﾄﾌ","kana_city":"ｷｮｳﾄｼｼﾓｷﾞｮｳｸ","kana_address":"ｶﾀﾀﾞﾁｮｳ","pref":"京都府","city":"京都市下京区","address":"堅田町"},
{"zip_code":"6008050","kana_pref":"ｷｮｳﾄﾌ","kana_city":"ｷｮｳﾄｼｼﾓｷﾞｮｳｸ","kana_address":"ｶﾀﾀﾞﾁｮｳ","pref":"京都府","city":"京都市下京区","address":"堅田町"},
{"zip_code":"6008067","kana_pref":"ｷｮｳﾄﾌ","kana_city":"ｷｮｳﾄｼｼﾓｷﾞｮｳｸ","kana_address":"ｶﾀﾀﾞﾁｮｳ","pref":"京都府","city":"京都市下京区","address":"堅田町"},
{"zip_code":"6008089","kana_pref":"ｷｮｳﾄﾌ","kana_city":"ｷｮｳﾄｼｼﾓｷﾞｮｳｸ","kana_address":"ｶﾀﾀﾞﾁｮｳ","pref":"京都府","city":"京都市下京区","address":"堅田町"},
{"zip_code":"6008493","kana_pref":"ｷｮｳﾄﾌ","kana_city":"ｷｮｳﾄｼｼﾓｷﾞｮｳｸ","kana_address":"ｶﾂｷｮﾔﾏﾁｮｳ","pref":"京都府","city":"京都市下京区","address":"郭巨山町"},
{"zip_code":"6008323","kana_pref":"ｷｮｳﾄﾌ","kana_city":"ｷｮｳﾄｼｼﾓｷﾞｮｳｸ","kana_address":"ｶﾅﾔﾁｮｳ","pref":"京都府","city":"京都市下京区","address":"金屋町"},
{"zip_code":"6008258","kana_pref":"ｷｮｳﾄﾌ","kana_city":"ｷｮｳﾄｼｼﾓｷﾞｮｳｸ","kana_address":"ｶﾈｶﾞｴﾁｮｳ","pref":"京都府","city":"京都市下京区","address":"金換町"},
{"zip_code":"6008239","kana_pref":"ｷｮｳﾄﾌ","kana_city":"ｷｮｳﾄｼｼﾓｷﾞｮｳｸ","kana_address":"ｶﾏﾔﾁｮｳ","pref":"京都府","city":"京都市下京区","address":"鎌屋町"},
{"zip_code":"6008058","kana_pref":"ｷｮｳﾄﾌ","kana_city":"ｷｮｳﾄｼｼﾓｷﾞｮｳｸ","kana_address":"ｶﾐｳﾛｺｶﾞﾀﾁｮｳ","pref":"京都府","city":"京都市下京区","address":"上鱗形町"},
{"zip_code":"6008242","kana_pref":"ｷｮｳﾄﾌ","kana_city":"ｷｮｳﾄｼｼﾓｷﾞｮｳｸ","kana_address":"ｶﾐｴﾋﾞｽﾁｮｳ","pref":"京都府","city":"京都市下京区","address":"上夷町"},
{"zip_code":"6008457","kana_pref":"ｷｮｳﾄﾌ","kana_city":"ｷｮｳﾄｼｼﾓｷﾞｮｳｸ","kana_address":"ｶﾐｶﾅﾌﾞﾂﾁｮｳ","pref":"京都府","city":"京都市下京区","address":"上金仏町"},
{"zip_code":"6008259","kana_pref":"ｷｮｳﾄﾌ","kana_city":"ｷｮｳﾄｼｼﾓｷﾞｮｳｸ","kana_address":"ｶﾐｺｳｼﾞﾔﾁｮｳ","pref":"京都府","city":"京都市下京区","address":"上糀屋町"},
{"zip_code":"6008377","kana_pref":"ｷｮｳﾄﾌ","kana_city":"ｷｮｳﾄｼｼﾓｷﾞｮｳｸ","kana_address":"ｶﾐｺﾞｼﾞｮｳﾁｮｳ","pref":"京都府","city":"京都市下京区","address":"上五条町"},
{"zip_code":"6008135","kana_pref":"ｷｮｳﾄﾌ","kana_city":"ｷｮｳﾄｼｼﾓｷﾞｮｳｸ","kana_address":"ｶﾐｻﾝﾉﾐﾔﾁｮｳ","pref":"京都府","city":"京都市下京区","address":"上三之宮町"},
{"zip_code":"6008150","kana_pref":"ｷｮｳﾄﾌ","kana_city":"ｷｮｳﾄｼｼﾓｷﾞｮｳｸ","kana_address":"ｶﾐｼﾞｭｽﾞﾔﾁｮｳ","pref":"京都府","city":"京都市下京区","address":"上珠数屋町"},
{"zip_code":"6008312","kana_pref":"ｷｮｳﾄﾌ","kana_city":"ｷｮｳﾄｼｼﾓｷﾞｮｳｸ","kana_address":"ｶﾐｽｽﾞﾔﾁｮｳ","pref":"京都府","city":"京都市下京区","address":"上錫屋町"},
{"zip_code":"6008170","kana_pref":"ｷｮｳﾄﾌ","kana_city":"ｷｮｳﾄｼｼﾓｷﾞｮｳｸ","kana_address":"ｶﾐｽﾜﾝﾁｮｳ","pref":"京都府","city":"京都市下京区","address":"上諏訪町"},
{"zip_code":"6008376","kana_pref":"ｷｮｳﾄﾌ","kana_city":"ｷｮｳﾄｼｼﾓｷﾞｮｳｸ","kana_address":"ｶﾐﾁｮｳﾌｸｼﾞﾁｮｳ","pref":"京都府","city":"京都市下京区","address":"上長福寺町"},
{"zip_code":"6008248","kana_pref":"ｷｮｳﾄﾌ","kana_city":"ｷｮｳﾄｼｼﾓｷﾞｮｳｸ","kana_address":"ｶﾐﾅｶﾉﾁｮｳ","pref":"京都府","city":"京都市下京区","address":"上中之町"},
{"zip_code":"6008131","kana_pref":"ｷｮｳﾄﾌ","kana_city":"ｷｮｳﾄｼｼﾓｷﾞｮｳｸ","kana_address":"ｶﾐﾆﾉﾐﾔﾁｮｳ","pref":"京都府","city":"京都市下京区","address":"上二之宮町"},
{"zip_code":"6008266","kana_pref":"ｷｮｳﾄﾌ","kana_city":"ｷｮｳﾄｼｼﾓｷﾞｮｳｸ","kana_address":"ｶﾐﾉﾁｮｳ","pref":"京都府","city":"京都市下京区","address":"上之町"},
{"zip_code":"6008207","kana_pref":"ｷｮｳﾄﾌ","kana_city":"ｷｮｳﾄｼｼﾓｷﾞｮｳｸ","kana_address":"ｶﾐﾉﾁｮｳ","pref":"京都府","city":"京都市下京区","address":"上之町"},
{"zip_code":"6008171","kana_pref":"ｷｮｳﾄﾌ","kana_city":"ｷｮｳﾄｼｼﾓｷﾞｮｳｸ","kana_address":"ｶﾐﾋﾗﾉﾁｮｳ","pref":"京都府","city":"京都市下京区","address":"上平野町"},
{"zip_code":"6008099","kana_pref":"ｷｮｳﾄﾌ","kana_city":"ｷｮｳﾄｼｼﾓｷﾞｮｳｸ","kana_address":"ｶﾐﾔﾅｷﾞﾁｮｳ","pref":"京都府","city":"京都市下京区","address":"上柳町（仏光寺通烏丸東入"},
{"zip_code":"6008099","kana_pref":"ｷｮｳﾄﾌ","kana_city":"ｷｮｳﾄｼｼﾓｷﾞｮｳｸ","kana_address":"ｶﾐﾔﾅｷﾞﾁｮｳ","pref":"京都府","city":"京都市下京区","address":"仏光寺通烏丸東入上る"},
{"zip_code":"6008099","kana_pref":"ｷｮｳﾄﾌ","kana_city":"ｷｮｳﾄｼｼﾓｷﾞｮｳｸ","kana_address":"ｶﾐﾔﾅｷﾞﾁｮｳ","pref":"京都府","city":"京都市下京区","address":"仏光寺通烏丸東入下る"},
{"zip_code":"6008099","kana_pref":"ｷｮｳﾄﾌ","kana_city":"ｷｮｳﾄｼｼﾓｷﾞｮｳｸ","kana_address":"ｶﾐﾔﾅｷﾞﾁｮｳ","pref":"京都府","city":"京都市下京区","address":""},
{"zip_code":"6008099","kana_pref":"ｷｮｳﾄﾌ","kana_city":"ｷｮｳﾄｼｼﾓｷﾞｮｳｸ","kana_address":"ｶﾐﾔﾅｷﾞﾁｮｳ","pref":"京都府","city":"京都市下京区","address":"仏光寺通東洞院西入）"},
{"zip_code":"6008164","kana_pref":"ｷｮｳﾄﾌ","kana_city":"ｷｮｳﾄｼｼﾓｷﾞｮｳｸ","kana_address":"ｶﾐﾔﾅｷﾞﾁｮｳ","pref":"京都府","city":"京都市下京区","address":"上柳町"},
{"zip_code":"6008301","kana_pref":"ｷｮｳﾄﾌ","kana_city":"ｷｮｳﾄｼｼﾓｷﾞｮｳｸ","kana_address":"ｶﾐﾔﾅｷﾞﾁｮｳ","pref":"京都府","city":"京都市下京区","address":"上柳町"},
{"zip_code":"6008313","kana_pref":"ｷｮｳﾄﾌ","kana_city":"ｷｮｳﾄｼｼﾓｷﾞｮｳｸ","kana_address":"ｶﾐﾜｶﾐﾔﾁｮｳ","pref":"京都府","city":"京都市下京区","address":"上若宮町"},
{"zip_code":"6008159","kana_pref":"ｷｮｳﾄﾌ","kana_city":"ｷｮｳﾄｼｼﾓｷﾞｮｳｸ","kana_address":"ｶﾒﾏﾁ","pref":"京都府","city":"京都市下京区","address":"亀町"},
{"zip_code":"6008406","kana_pref":"ｷｮｳﾄﾌ","kana_city":"ｷｮｳﾄｼｼﾓｷﾞｮｳｸ","kana_address":"ｶﾒﾔﾁｮｳ","pref":"京都府","city":"京都市下京区","address":"亀屋町"},
{"zip_code":"6008451","kana_pref":"ｷｮｳﾄﾌ","kana_city":"ｷｮｳﾄｼｼﾓｷﾞｮｳｸ","kana_address":"ｶﾒﾔﾁｮｳ","pref":"京都府","city":"京都市下京区","address":"亀屋町"},
{"zip_code":"6008175","kana_pref":"ｷｮｳﾄﾌ","kana_city":"ｷｮｳﾄｼｼﾓｷﾞｮｳｸ","kana_address":"ｶﾗｽﾏ","pref":"京都府","city":"京都市下京区","address":"烏丸"},
{"zip_code":"6008499","kana_pref":"ｷｮｳﾄﾌ","kana_city":"ｷｮｳﾄｼｼﾓｷﾞｮｳｸ","kana_address":"ｶﾗﾂﾔﾁｮｳ","pref":"京都府","city":"京都市下京区","address":"唐津屋町"},
{"zip_code":"6008197","kana_pref":"ｷｮｳﾄﾌ","kana_city":"ｷｮｳﾄｼｼﾓｷﾞｮｳｸ","kana_address":"ｶﾗﾓﾉﾁｮｳ","pref":"京都府","city":"京都市下京区","address":"唐物町"},
{"zip_code":"6008056","kana_pref":"ｷｮｳﾄﾌ","kana_city":"ｷｮｳﾄｼｼﾓｷﾞｮｳｸ","kana_address":"ｶﾘｶﾞﾈﾁｮｳ","pref":"京都府","city":"京都市下京区","address":"雁金町"},
{"zip_code":"6008060","kana_pref":"ｷｮｳﾄﾌ","kana_city":"ｷｮｳﾄｼｼﾓｷﾞｮｳｸ","kana_address":"ｶﾘｶﾞﾈﾁｮｳ","pref":"京都府","city":"京都市下京区","address":"雁金町"},
{"zip_code":"6008393","kana_pref":"ｷｮｳﾄﾌ","kana_city":"ｷｮｳﾄｼｼﾓｷﾞｮｳｸ","kana_address":"ｶﾘｶﾞﾈﾁｮｳ","pref":"京都府","city":"京都市下京区","address":"雁金町"},
{"zip_code":"6008252","kana_pref":"ｷｮｳﾄﾌ","kana_city":"ｷｮｳﾄｼｼﾓｷﾞｮｳｸ","kana_address":"ｶﾜﾊﾞﾀﾁｮｳ","pref":"京都府","city":"京都市下京区","address":"川端町"},
{"zip_code":"6008202","kana_pref":"ｷｮｳﾄﾌ","kana_city":"ｷｮｳﾄｼｼﾓｷﾞｮｳｸ","kana_address":"ｶﾜﾊﾞﾀﾁｮｳ","pref":"京都府","city":"京都市下京区","address":"川端町"},
{"zip_code":"6008835","kana_pref":"ｷｮｳﾄﾌ","kana_city":"ｷｮｳﾄｼｼﾓｷﾞｮｳｸ","kana_address":"ｶﾝｷｼﾞﾁｮｳ","pref":"京都府","city":"京都市下京区","address":"観喜寺町"},
{"zip_code":"6008009","kana_pref":"ｷｮｳﾄﾌ","kana_city":"ｷｮｳﾄｼｼﾓｷﾞｮｳｸ","kana_address":"ｶﾝｺﾎﾞｺﾁｮｳ","pref":"京都府","city":"京都市下京区","address":"函谷鉾町"},
{"zip_code":"6008336","kana_pref":"ｷｮｳﾄﾌ","kana_city":"ｷｮｳﾄｼｼﾓｷﾞｮｳｸ","kana_address":"ｶﾞﾝｼﾞﾂﾁｮｳ","pref":"京都府","city":"京都市下京区","address":"元日町"},
{"zip_code":"6008088","kana_pref":"ｷｮｳﾄﾌ","kana_city":"ｷｮｳﾄｼｼﾓｷﾞｮｳｸ","kana_address":"ｶﾝｼｬﾃﾞﾝﾁｮｳ","pref":"京都府","city":"京都市下京区","address":"官社殿町"},
{"zip_code":"6008444","kana_pref":"ｷｮｳﾄﾌ","kana_city":"ｷｮｳﾄｼｼﾓｷﾞｮｳｸ","kana_address":"ｶﾝﾀﾞｲｼﾞﾝﾁｮｳ","pref":"京都府","city":"京都市下京区","address":"菅大臣町"},
{"zip_code":"6008121","kana_pref":"ｷｮｳﾄﾌ","kana_city":"ｷｮｳﾄｼｼﾓｷﾞｮｳｸ","kana_address":"ｷｸﾔﾁｮｳ","pref":"京都府","city":"京都市下京区","address":"菊屋町"},
{"zip_code":"6008464","kana_pref":"ｷｮｳﾄﾌ","kana_city":"ｷｮｳﾄｼｼﾓｷﾞｮｳｸ","kana_address":"ｷｸﾔﾁｮｳ","pref":"京都府","city":"京都市下京区","address":"菊屋町"},
{"zip_code":"6008228","kana_pref":"ｷｮｳﾄﾌ","kana_city":"ｷｮｳﾄｼｼﾓｷﾞｮｳｸ","kana_address":"ｷﾀｺｳｼﾞﾁｮｳ","pref":"京都府","city":"京都市下京区","address":"北小路町"},
{"zip_code":"6008233","kana_pref":"ｷｮｳﾄﾌ","kana_city":"ｷｮｳﾄｼｼﾓｷﾞｮｳｸ","kana_address":"ｷﾀﾌﾄﾞﾝﾄﾞｳﾁｮｳ","pref":"京都府","city":"京都市下京区","address":"北不動堂町"},
{"zip_code":"6008176","kana_pref":"ｷｮｳﾄﾌ","kana_city":"ｷｮｳﾄｼｼﾓｷﾞｮｳｸ","kana_address":"ｷﾀﾏﾁ","pref":"京都府","city":"京都市下京区","address":"北町"},
{"zip_code":"6008356","kana_pref":"ｷｮｳﾄﾌ","kana_city":"ｷｮｳﾄｼｼﾓｷﾞｮｳｸ","kana_address":"ｷﾀﾓﾝｾﾞﾝﾁｮｳ","pref":"京都府","city":"京都市下京区","address":"北門前町"},
{"zip_code":"6008069","kana_pref":"ｷｮｳﾄﾌ","kana_city":"ｷｮｳﾄｼｼﾓｷﾞｮｳｸ","kana_address":"ｷﾁﾓﾝｼﾞﾁｮｳ","pref":"京都府","city":"京都市下京区","address":"吉文字町"},
{"zip_code":"6008352","kana_pref":"ｷｮｳﾄﾌ","kana_city":"ｷｮｳﾄｼｼﾓｷﾞｮｳｸ","kana_address":"ｷﾁﾓﾝｼﾞﾁｮｳ","pref":"京都府","city":"京都市下京区","address":"吉文字町"},
{"zip_code":"6008253","kana_pref":"ｷｮｳﾄﾌ","kana_city":"ｷｮｳﾄｼｼﾓｷﾞｮｳｸ","kana_address":"ｷﾂﾞﾔﾁｮｳ","pref":"京都府","city":"京都市下京区","address":"木津屋町"},
{"zip_code":"6008035","kana_pref":"ｷｮｳﾄﾌ","kana_city":"ｷｮｳﾄｼｼﾓｷﾞｮｳｸ","kana_address":"ｷｮｳｺﾞｸﾁｮｳ","pref":"京都府","city":"京都市下京区","address":"京極町"},
{"zip_code":"6008476","kana_pref":"ｷｮｳﾄﾌ","kana_city":"ｷｮｳﾄｼｼﾓｷﾞｮｳｸ","kana_address":"ｷﾖｼﾁｮｳ","pref":"京都府","city":"京都市下京区","address":"喜吉町"},
{"zip_code":"6008331","kana_pref":"ｷｮｳﾄﾌ","kana_city":"ｷｮｳﾄｼｼﾓｷﾞｮｳｸ","kana_address":"ｷﾝﾄｳﾖｺﾁｮｳ","pref":"京都府","city":"京都市下京区","address":"金東横町"},
{"zip_code":"6008423","kana_pref":"ｷｮｳﾄﾌ","kana_city":"ｷｮｳﾄｼｼﾓｷﾞｮｳｸ","kana_address":"ｸｷﾞｶｸｼﾁｮｳ","pref":"京都府","city":"京都市下京区","address":"釘隠町"},
{"zip_code":"6008081","kana_pref":"ｷｮｳﾄﾌ","kana_city":"ｷｮｳﾄｼｼﾓｷﾞｮｳｸ","kana_address":"ｺｲｼﾁｮｳ","pref":"京都府","city":"京都市下京区","address":"小石町"},
{"zip_code":"6008480","kana_pref":"ｷｮｳﾄﾌ","kana_city":"ｷｮｳﾄｼｼﾓｷﾞｮｳｸ","kana_address":"ｺｲｽﾞﾐﾁｮｳ","pref":"京都府","city":"京都市下京区","address":"小泉町"},
{"zip_code":"6008208","kana_pref":"ｷｮｳﾄﾌ","kana_city":"ｷｮｳﾄｼｼﾓｷﾞｮｳｸ","kana_address":"ｺｲﾅﾘﾁｮｳ","pref":"京都府","city":"京都市下京区","address":"小稲荷町"},
{"zip_code":"6008460","kana_pref":"ｷｮｳﾄﾌ","kana_city":"ｷｮｳﾄｼｼﾓｷﾞｮｳｸ","kana_address":"ｺｳｼﾞﾝﾁｮｳ","pref":"京都府","city":"京都市下京区","address":"荒神町"},
{"zip_code":"6008034","kana_pref":"ｷｮｳﾄﾌ","kana_city":"ｷｮｳﾄｼｼﾓｷﾞｮｳｸ","kana_address":"ｺｳﾀｹﾁｮｳ","pref":"京都府","city":"京都市下京区","address":"幸竹町"},
{"zip_code":"6008209","kana_pref":"ｷｮｳﾄﾌ","kana_city":"ｷｮｳﾄｼｼﾓｷﾞｮｳｸ","kana_address":"ｺﾞｳﾉﾁｮｳ","pref":"京都府","city":"京都市下京区","address":"郷之町"},
{"zip_code":"6008497","kana_pref":"ｷｮｳﾄﾌ","kana_city":"ｷｮｳﾄｼｼﾓｷﾞｮｳｸ","kana_address":"ｺｳﾔﾄﾞｳﾁｮｳ","pref":"京都府","city":"京都市下京区","address":"高野堂町"},
{"zip_code":"6008149","kana_pref":"ｷｮｳﾄﾌ","kana_city":"ｷｮｳﾄｼｼﾓｷﾞｮｳｸ","kana_address":"ｺｶﾞﾜﾁｮｳ","pref":"京都府","city":"京都市下京区","address":"粉川町"},
{"zip_code":"6008267","kana_pref":"ｷｮｳﾄﾌ","kana_city":"ｷｮｳﾄｼｼﾓｷﾞｮｳｸ","kana_address":"ｺﾞｷﾔﾁｮｳ","pref":"京都府","city":"京都市下京区","address":"御器屋町"},
{"zip_code":"6008429","kana_pref":"ｷｮｳﾄﾌ","kana_city":"ｷｮｳﾄｼｼﾓｷﾞｮｳｸ","kana_address":"ｺﾞｸｲｼﾁｮｳ","pref":"京都府","city":"京都市下京区","address":"御供石町"},
{"zip_code":"6008485","kana_pref":"ｷｮｳﾄﾌ","kana_city":"ｷｮｳﾄｼｼﾓｷﾞｮｳｸ","kana_address":"ｺﾞｹﾝﾁｮｳ","pref":"京都府","city":"京都市下京区","address":"五軒町"},
{"zip_code":"6008821","kana_pref":"ｷｮｳﾄﾌ","kana_city":"ｷｮｳﾄｼｼﾓｷﾞｮｳｸ","kana_address":"ｺｻｶﾁｮｳ","pref":"京都府","city":"京都市下京区","address":"小坂町"},
{"zip_code":"6008426","kana_pref":"ｷｮｳﾄﾌ","kana_city":"ｷｮｳﾄｼｼﾓｷﾞｮｳｸ","kana_address":"ｺｼﾞﾏﾁｮｳ","pref":"京都府","city":"京都市下京区","address":"小島町"},
{"zip_code":"6008418","kana_pref":"ｷｮｳﾄﾌ","kana_city":"ｷｮｳﾄｼｼﾓｷﾞｮｳｸ","kana_address":"ｺﾞｼﾞｮｳｶﾗｽﾏﾁｮｳ","pref":"京都府","city":"京都市下京区","address":"五条烏丸町"},
{"zip_code":"6008385","kana_pref":"ｷｮｳﾄﾌ","kana_city":"ｷｮｳﾄｼｼﾓｷﾞｮｳｸ","kana_address":"ｺﾞﾎﾞｳｵｵﾐﾔﾁｮｳ","pref":"京都府","city":"京都市下京区","address":"五坊大宮町"},
{"zip_code":"6008229","kana_pref":"ｷｮｳﾄﾌ","kana_city":"ｷｮｳﾄｼｼﾓｷﾞｮｳｸ","kana_address":"ｺﾒﾔﾁｮｳ","pref":"京都府","city":"京都市下京区","address":"米屋町"},
{"zip_code":"6008322","kana_pref":"ｷｮｳﾄﾌ","kana_city":"ｷｮｳﾄｼｼﾓｷﾞｮｳｸ","kana_address":"ｺﾔﾅｷﾞﾁｮｳ","pref":"京都府","city":"京都市下京区","address":"小柳町"},
{"zip_code":"6008130","kana_pref":"ｷｮｳﾄﾌ","kana_city":"ｷｮｳﾄｼｼﾓｷﾞｮｳｸ","kana_address":"ｺﾝﾔﾁｮｳ","pref":"京都府","city":"京都市下京区","address":"紺屋町"},
{"zip_code":"6008012","kana_pref":"ｷｮｳﾄﾌ","kana_city":"ｷｮｳﾄｼｼﾓｷﾞｮｳｸ","kana_address":"ｻｲﾄｳﾁｮｳ","pref":"京都府","city":"京都市下京区","address":"斎藤町"},
{"zip_code":"6008016","kana_pref":"ｷｮｳﾄﾌ","kana_city":"ｷｮｳﾄｼｼﾓｷﾞｮｳｸ","kana_address":"ｻﾞｲﾓｸﾁｮｳ","pref":"京都府","city":"京都市下京区","address":"材木町"},
{"zip_code":"6008146","kana_pref":"ｷｮｳﾄﾌ","kana_city":"ｷｮｳﾄｼｼﾓｷﾞｮｳｸ","kana_address":"ｻﾞｲﾓｸﾁｮｳ","pref":"京都府","city":"京都市下京区","address":"材木町"},
{"zip_code":"6008440","kana_pref":"ｷｮｳﾄﾌ","kana_city":"ｷｮｳﾄｼｼﾓｷﾞｮｳｸ","kana_address":"ｻﾞｲﾓｸﾁｮｳ","pref":"京都府","city":"京都市下京区","address":"材木町"},
{"zip_code":"6008191","kana_pref":"ｷｮｳﾄﾌ","kana_city":"ｷｮｳﾄｼｼﾓｷﾞｮｳｸ","kana_address":"ｻｶｲﾏﾁ","pref":"京都府","city":"京都市下京区","address":"堺町"},
{"zip_code":"6008162","kana_pref":"ｷｮｳﾄﾌ","kana_city":"ｷｮｳﾄｼｼﾓｷﾞｮｳｸ","kana_address":"ｻｶｲﾁｮｳ","pref":"京都府","city":"京都市下京区","address":"堺町"},
{"zip_code":"6008349","kana_pref":"ｷｮｳﾄﾌ","kana_city":"ｷｮｳﾄｼｼﾓｷﾞｮｳｸ","kana_address":"ｻｶｲﾁｮｳ","pref":"京都府","city":"京都市下京区","address":"堺町"},
{"zip_code":"6008194","kana_pref":"ｷｮｳﾄﾌ","kana_city":"ｷｮｳﾄｼｼﾓｷﾞｮｳｸ","kana_address":"ｻｶｴﾁｮｳ","pref":"京都府","city":"京都市下京区","address":"栄町"},
{"zip_code":"6008381","kana_pref":"ｷｮｳﾄﾌ","kana_city":"ｷｮｳﾄｼｼﾓｷﾞｮｳｸ","kana_address":"ｻｶﾞﾘﾏﾂﾁｮｳ","pref":"京都府","city":"京都市下京区","address":"下り松町"},
{"zip_code":"6008210","kana_pref":"ｷｮｳﾄﾌ","kana_city":"ｷｮｳﾄｼｼﾓｷﾞｮｳｸ","kana_address":"ｻｸﾗｷﾞﾁｮｳ","pref":"京都府","city":"京都市下京区","address":"桜木町"},
{"zip_code":"6008156","kana_pref":"ｷｮｳﾄﾌ","kana_city":"ｷｮｳﾄｼｼﾓｷﾞｮｳｸ","kana_address":"ｻｻﾔﾁｮｳ","pref":"京都府","city":"京都市下京区","address":"笹屋町"},
{"zip_code":"6008488","kana_pref":"ｷｮｳﾄﾌ","kana_city":"ｷｮｳﾄｼｼﾓｷﾞｮｳｸ","kana_address":"ｻｻﾔﾁｮｳ","pref":"京都府","city":"京都市下京区","address":"篠屋町"},
{"zip_code":"6008391","kana_pref":"ｷｮｳﾄﾌ","kana_city":"ｷｮｳﾄｼｼﾓｷﾞｮｳｸ","kana_address":"ｻﾀｹﾁｮｳ","pref":"京都府","city":"京都市下京区","address":"佐竹町"},
{"zip_code":"6008337","kana_pref":"ｷｮｳﾄﾌ","kana_city":"ｷｮｳﾄｼｼﾓｷﾞｮｳｸ","kana_address":"ｻﾒｶﾞｲﾁｮｳ","pref":"京都府","city":"京都市下京区","address":"佐女牛井町"},
{"zip_code":"6008394","kana_pref":"ｷｮｳﾄﾌ","kana_city":"ｷｮｳﾄｼｼﾓｷﾞｮｳｸ","kana_address":"ｻﾗｼﾔﾁｮｳ","pref":"京都府","city":"京都市下京区","address":"晒屋町"},
{"zip_code":"6008257","kana_pref":"ｷｮｳﾄﾌ","kana_city":"ｷｮｳﾄｼｼﾓｷﾞｮｳｸ","kana_address":"ｻﾝｹﾞﾝｶﾞｴﾁﾁｮｳ","pref":"京都府","city":"京都市下京区","address":"三軒替地町"},
{"zip_code":"6008097","kana_pref":"ｷｮｳﾄﾌ","kana_city":"ｷｮｳﾄｼｼﾓｷﾞｮｳｸ","kana_address":"ｻﾝｹﾞﾝﾁｮｳ","pref":"京都府","city":"京都市下京区","address":"三軒町"},
{"zip_code":"6008134","kana_pref":"ｷｮｳﾄﾌ","kana_city":"ｷｮｳﾄｼｼﾓｷﾞｮｳｸ","kana_address":"ｻﾝﾉｳﾁｮｳ","pref":"京都府","city":"京都市下京区","address":"山王町（正面通木屋町西入"},
{"zip_code":"6008134","kana_pref":"ｷｮｳﾄﾌ","kana_city":"ｷｮｳﾄｼｼﾓｷﾞｮｳｸ","kana_address":"ｻﾝﾉｳﾁｮｳ","pref":"京都府","city":"京都市下京区","address":"正面通木屋町東入"},
{"zip_code":"6008134","kana_pref":"ｷｮｳﾄﾌ","kana_city":"ｷｮｳﾄｼｼﾓｷﾞｮｳｸ","kana_address":"ｻﾝﾉｳﾁｮｳ","pref":"京都府","city":"京都市下京区","address":"正面通三ノ宮"},
{"zip_code":"6008134","kana_pref":"ｷｮｳﾄﾌ","kana_city":"ｷｮｳﾄｼｼﾓｷﾞｮｳｸ","kana_address":"ｻﾝﾉｳﾁｮｳ","pref":"京都府","city":"京都市下京区","address":"西入"},
{"zip_code":"6008134","kana_pref":"ｷｮｳﾄﾌ","kana_city":"ｷｮｳﾄｼｼﾓｷﾞｮｳｸ","kana_address":"ｻﾝﾉｳﾁｮｳ","pref":"京都府","city":"京都市下京区","address":"正面通三ノ宮東入"},
{"zip_code":"6008134","kana_pref":"ｷｮｳﾄﾌ","kana_city":"ｷｮｳﾄｼｼﾓｷﾞｮｳｸ","kana_address":"ｻﾝﾉｳﾁｮｳ","pref":"京都府","city":"京都市下京区","address":"正面通二ノ宮西入）"},
{"zip_code":"6008424","kana_pref":"ｷｮｳﾄﾌ","kana_city":"ｷｮｳﾄｼｼﾓｷﾞｮｳｸ","kana_address":"ｻﾝﾉｳﾁｮｳ","pref":"京都府","city":"京都市下京区","address":"山王町"},
{"zip_code":"6008103","kana_pref":"ｷｮｳﾄﾌ","kana_city":"ｷｮｳﾄｼｼﾓｷﾞｮｳｸ","kana_address":"ｼｵｶﾞﾏﾁｮｳ","pref":"京都府","city":"京都市下京区","address":"塩竈町"},
{"zip_code":"6008212","kana_pref":"ｷｮｳﾄﾌ","kana_city":"ｷｮｳﾄｼｼﾓｷﾞｮｳｸ","kana_address":"ｼｵｺｳｼﾞﾁｮｳ","pref":"京都府","city":"京都市下京区","address":"塩小路町"},
{"zip_code":"6008052","kana_pref":"ｷｮｳﾄﾌ","kana_city":"ｷｮｳﾄｼｼﾓｷﾞｮｳｸ","kana_address":"ｼｵﾔﾁｮｳ","pref":"京都府","city":"京都市下京区","address":"塩屋町"},
{"zip_code":"6008144","kana_pref":"ｷｮｳﾄﾌ","kana_city":"ｷｮｳﾄｼｼﾓｷﾞｮｳｸ","kana_address":"ｼｵﾔﾁｮｳ","pref":"京都府","city":"京都市下京区","address":"塩屋町"},
{"zip_code":"6008382","kana_pref":"ｷｮｳﾄﾌ","kana_city":"ｷｮｳﾄｼｼﾓｷﾞｮｳｸ","kana_address":"ｼｵﾔﾁｮｳ","pref":"京都府","city":"京都市下京区","address":"塩屋町"},
{"zip_code":"6008389","kana_pref":"ｷｮｳﾄﾌ","kana_city":"ｷｮｳﾄｼｼﾓｷﾞｮｳｸ","kana_address":"ｼｼﾞｮｳｵｵﾐﾔﾁｮｳ","pref":"京都府","city":"京都市下京区","address":"四条大宮町"},
{"zip_code":"6008481","kana_pref":"ｷｮｳﾄﾌ","kana_city":"ｷｮｳﾄｼｼﾓｷﾞｮｳｸ","kana_address":"ｼｼﾞｮｳﾎﾘｶﾜﾁｮｳ","pref":"京都府","city":"京都市下京区","address":"四条堀川町"},
{"zip_code":"6008441","kana_pref":"ｷｮｳﾄﾌ","kana_city":"ｷｮｳﾄｼｼﾓｷﾞｮｳｸ","kana_address":"ｼｼﾞｮｳﾁｮｳ","pref":"京都府","city":"京都市下京区","address":"四条町"},
{"zip_code":"6008861","kana_pref":"ｷｮｳﾄﾌ","kana_city":"ｷｮｳﾄｼｼﾓｷﾞｮｳｸ","kana_address":"ｼﾁｼﾞｮｳｺﾞｼｮﾉｳﾁｷﾀﾏﾁ","pref":"京都府","city":"京都市下京区","address":"七条御所ノ内北町"},
{"zip_code":"6008862","kana_pref":"ｷｮｳﾄﾌ","kana_city":"ｷｮｳﾄｼｼﾓｷﾞｮｳｸ","kana_address":"ｼﾁｼﾞｮｳｺﾞｼｮﾉｳﾁﾅｶﾏﾁ","pref":"京都府","city":"京都市下京区","address":"七条御所ノ内中町"},
{"zip_code":"6008865","kana_pref":"ｷｮｳﾄﾌ","kana_city":"ｷｮｳﾄｼｼﾓｷﾞｮｳｸ","kana_address":"ｼﾁｼﾞｮｳｺﾞｼｮﾉｳﾁﾆｼﾏﾁ","pref":"京都府","city":"京都市下京区","address":"七条御所ノ内西町"},
{"zip_code":"6008863","kana_pref":"ｷｮｳﾄﾌ","kana_city":"ｷｮｳﾄｼｼﾓｷﾞｮｳｸ","kana_address":"ｼﾁｼﾞｮｳｺﾞｼｮﾉｳﾁﾎﾝﾏﾁ","pref":"京都府","city":"京都市下京区","address":"七条御所ノ内本町"},
{"zip_code":"6008864","kana_pref":"ｷｮｳﾄﾌ","kana_city":"ｷｮｳﾄｼｼﾓｷﾞｮｳｸ","kana_address":"ｼﾁｼﾞｮｳｺﾞｼｮﾉｳﾁﾐﾅﾐﾏﾁ","pref":"京都府","city":"京都市下京区","address":"七条御所ノ内南町"},
{"zip_code":"6008316","kana_pref":"ｷｮｳﾄﾌ","kana_city":"ｷｮｳﾄｼｼﾓｷﾞｮｳｸ","kana_address":"ｼﾎﾝﾏﾂﾁｮｳ","pref":"京都府","city":"京都市下京区","address":"四本松町"},
{"zip_code":"6008025","kana_pref":"ｷｮｳﾄﾌ","kana_city":"ｷｮｳﾄｼｼﾓｷﾞｮｳｸ","kana_address":"ｼﾐｽﾞﾁｮｳ","pref":"京都府","city":"京都市下京区","address":"清水町"},
{"zip_code":"6008255","kana_pref":"ｷｮｳﾄﾌ","kana_city":"ｷｮｳﾄｼｼﾓｷﾞｮｳｸ","kana_address":"ｼﾐｽﾞﾁｮｳ","pref":"京都府","city":"京都市下京区","address":"清水町"},
{"zip_code":"6008241","kana_pref":"ｷｮｳﾄﾌ","kana_city":"ｷｮｳﾄｼｼﾓｷﾞｮｳｸ","kana_address":"ｼﾐｽﾞﾁｮｳ","pref":"京都府","city":"京都市下京区","address":"志水町"},
{"zip_code":"6008263","kana_pref":"ｷｮｳﾄﾌ","kana_city":"ｷｮｳﾄｼｼﾓｷﾞｮｳｸ","kana_address":"ｼﾓｳｵﾉﾀﾅ","pref":"京都府","city":"京都市下京区","address":"下魚棚"},
{"zip_code":"6008059","kana_pref":"ｷｮｳﾄﾌ","kana_city":"ｷｮｳﾄｼｼﾓｷﾞｮｳｸ","kana_address":"ｼﾓｳﾛｺｶﾞﾀﾁｮｳ","pref":"京都府","city":"京都市下京区","address":"下鱗形町"},
{"zip_code":"6008249","kana_pref":"ｷｮｳﾄﾌ","kana_city":"ｷｮｳﾄｼｼﾓｷﾞｮｳｸ","kana_address":"ｼﾓｺｳｼﾞﾔﾁｮｳ","pref":"京都府","city":"京都市下京区","address":"下糀屋町"},
{"zip_code":"6008373","kana_pref":"ｷｮｳﾄﾌ","kana_city":"ｷｮｳﾄｼｼﾓｷﾞｮｳｸ","kana_address":"ｼﾓｺﾞｼﾞｮｳﾁｮｳ","pref":"京都府","city":"京都市下京区","address":"下五条町"},
{"zip_code":"6008017","kana_pref":"ｷｮｳﾄﾌ","kana_city":"ｷｮｳﾄｼｼﾓｷﾞｮｳｸ","kana_address":"ｼﾓｻﾞｲﾓｸﾁｮｳ","pref":"京都府","city":"京都市下京区","address":"下材木町"},
{"zip_code":"6008136","kana_pref":"ｷｮｳﾄﾌ","kana_city":"ｷｮｳﾄｼｼﾓｷﾞｮｳｸ","kana_address":"ｼﾓｻﾝﾉﾐﾔﾁｮｳ","pref":"京都府","city":"京都市下京区","address":"下三之宮町"},
{"zip_code":"6008163","kana_pref":"ｷｮｳﾄﾌ","kana_city":"ｷｮｳﾄｼｼﾓｷﾞｮｳｸ","kana_address":"ｼﾓｽﾜﾝﾁｮｳ","pref":"京都府","city":"京都市下京区","address":"下諏訪町"},
{"zip_code":"6008375","kana_pref":"ｷｮｳﾄﾌ","kana_city":"ｷｮｳﾄｼｼﾓｷﾞｮｳｸ","kana_address":"ｼﾓﾁｮｳﾌｸｼﾞﾁｮｳ","pref":"京都府","city":"京都市下京区","address":"下長福寺町"},
{"zip_code":"6008132","kana_pref":"ｷｮｳﾄﾌ","kana_city":"ｷｮｳﾄｼｼﾓｷﾞｮｳｸ","kana_address":"ｼﾓﾆﾉﾐﾔﾁｮｳ","pref":"京都府","city":"京都市下京区","address":"下二之宮町"},
{"zip_code":"6008206","kana_pref":"ｷｮｳﾄﾌ","kana_city":"ｷｮｳﾄｼｼﾓｷﾞｮｳｸ","kana_address":"ｼﾓﾉﾁｮｳ","pref":"京都府","city":"京都市下京区","address":"下之町"},
{"zip_code":"6008172","kana_pref":"ｷｮｳﾄﾌ","kana_city":"ｷｮｳﾄｼｼﾓｷﾞｮｳｸ","kana_address":"ｼﾓﾋﾗﾉﾁｮｳ","pref":"京都府","city":"京都市下京区","address":"下平野町"},
{"zip_code":"6008180","kana_pref":"ｷｮｳﾄﾌ","kana_city":"ｷｮｳﾄｼｼﾓｷﾞｮｳｸ","kana_address":"ｼﾓﾏﾝｼﾞｭｳｼﾞﾁｮｳ","pref":"京都府","city":"京都市下京区","address":"下万寿寺町"},
{"zip_code":"6008165","kana_pref":"ｷｮｳﾄﾌ","kana_city":"ｷｮｳﾄｼｼﾓｷﾞｮｳｸ","kana_address":"ｼﾓﾔﾅｷﾞﾁｮｳ","pref":"京都府","city":"京都市下京区","address":"下柳町"},
{"zip_code":"6008137","kana_pref":"ｷｮｳﾄﾌ","kana_city":"ｷｮｳﾄｼｼﾓｷﾞｮｳｸ","kana_address":"ｼﾞｭｳｾﾞﾝｼﾞﾁｮｳ","pref":"京都府","city":"京都市下京区","address":"十禅師町"},
{"zip_code":"6008354","kana_pref":"ｷｮｳﾄﾌ","kana_city":"ｷｮｳﾄｼｼﾓｷﾞｮｳｸ","kana_address":"ｼﾞｭｳﾓﾝｼﾞﾁｮｳ","pref":"京都府","city":"京都市下京区","address":"十文字町"},
{"zip_code":"6008348","kana_pref":"ｷｮｳﾄﾌ","kana_city":"ｷｮｳﾄｼｼﾓｷﾞｮｳｸ","kana_address":"ｼﾞｭｽﾞﾔﾁｮｳ","pref":"京都府","city":"京都市下京区","address":"珠数屋町"},
{"zip_code":"6008417","kana_pref":"ｷｮｳﾄﾌ","kana_city":"ｷｮｳﾄｼｼﾓｷﾞｮｳｸ","kana_address":"ｼｭﾝｾﾞｲﾁｮｳ","pref":"京都府","city":"京都市下京区","address":"俊成町"},
{"zip_code":"6008021","kana_pref":"ｷｮｳﾄﾌ","kana_city":"ｷｮｳﾄｼｼﾓｷﾞｮｳｸ","kana_address":"ｼﾞｭﾝﾌﾟｳﾁｮｳ","pref":"京都府","city":"京都市下京区","address":"順風町"},
{"zip_code":"6008116","kana_pref":"ｷｮｳﾄﾌ","kana_city":"ｷｮｳﾄｼｼﾓｷﾞｮｳｸ","kana_address":"ｼｮｳｼﾝｼﾞﾁｮｳ","pref":"京都府","city":"京都市下京区","address":"聖真子町"},
{"zip_code":"6008158","kana_pref":"ｷｮｳﾄﾌ","kana_city":"ｷｮｳﾄｼｼﾓｷﾞｮｳｸ","kana_address":"ｼｮｸﾔﾁｮｳ","pref":"京都府","city":"京都市下京区","address":"卓屋町"},
{"zip_code":"6008084","kana_pref":"ｷｮｳﾄﾌ","kana_city":"ｷｮｳﾄｼｼﾓｷﾞｮｳｸ","kana_address":"ｼﾝｶｲﾁｮｳ","pref":"京都府","city":"京都市下京区","address":"新開町"},
{"zip_code":"6008471","kana_pref":"ｷｮｳﾄﾌ","kana_city":"ｷｮｳﾄｼｼﾓｷﾞｮｳｸ","kana_address":"ｼﾝｶﾏﾝｻﾞﾁｮｳ","pref":"京都府","city":"京都市下京区","address":"新釜座町"},
{"zip_code":"6008001","kana_pref":"ｷｮｳﾄﾌ","kana_city":"ｷｮｳﾄｼｼﾓｷﾞｮｳｸ","kana_address":"ｼﾝﾁｮｳ","pref":"京都府","city":"京都市下京区","address":"真町"},
{"zip_code":"6008141","kana_pref":"ｷｮｳﾄﾌ","kana_city":"ｷｮｳﾄｼｼﾓｷﾞｮｳｸ","kana_address":"ｼﾝﾋﾖｼﾁｮｳ","pref":"京都府","city":"京都市下京区","address":"新日吉町"},
{"zip_code":"6008092","kana_pref":"ｷｮｳﾄﾌ","kana_city":"ｷｮｳﾄｼｼﾓｷﾞｮｳｸ","kana_address":"ｼﾝﾒｲﾁｮｳ","pref":"京都府","city":"京都市下京区","address":"神明町"},
{"zip_code":"6008411","kana_pref":"ｷｮｳﾄﾌ","kana_city":"ｷｮｳﾄｼｼﾓｷﾞｮｳｸ","kana_address":"ｽｲｷﾞﾝﾔﾁｮｳ","pref":"京都府","city":"京都市下京区","address":"水銀屋町"},
{"zip_code":"6008386","kana_pref":"ｷｮｳﾄﾌ","kana_city":"ｷｮｳﾄｼｼﾓｷﾞｮｳｸ","kana_address":"ｽｷﾞｴﾋﾞｽﾁｮｳ","pref":"京都府","city":"京都市下京区","address":"杉蛭子町"},
{"zip_code":"6008078","kana_pref":"ｷｮｳﾄﾌ","kana_city":"ｷｮｳﾄｼｼﾓｷﾞｮｳｸ","kana_address":"ｽｷﾞﾔﾁｮｳ","pref":"京都府","city":"京都市下京区","address":"杉屋町"},
{"zip_code":"6008843","kana_pref":"ｷｮｳﾄﾌ","kana_city":"ｷｮｳﾄｼｼﾓｷﾞｮｳｸ","kana_address":"ｽｼﾞｬｸｳﾁﾊﾀﾁｮｳ","pref":"京都府","city":"京都市下京区","address":"朱雀内畑町"},
{"zip_code":"6008844","kana_pref":"ｷｮｳﾄﾌ","kana_city":"ｷｮｳﾄｼｼﾓｷﾞｮｳｸ","kana_address":"ｽｼﾞｬｸｳﾗﾊﾀﾁｮｳ","pref":"京都府","city":"京都市下京区","address":"朱雀裏畑町"},
{"zip_code":"6008845","kana_pref":"ｷｮｳﾄﾌ","kana_city":"ｷｮｳﾄｼｼﾓｷﾞｮｳｸ","kana_address":"ｽｼﾞｬｸｷﾀﾉｸﾁﾁｮｳ","pref":"京都府","city":"京都市下京区","address":"朱雀北ノ口町"},
{"zip_code":"6008841","kana_pref":"ｷｮｳﾄﾌ","kana_city":"ｷｮｳﾄｼｼﾓｷﾞｮｳｸ","kana_address":"ｽｼﾞｬｸｼｮｳｶｲﾁｮｳ","pref":"京都府","city":"京都市下京区","address":"朱雀正会町"},
{"zip_code":"6008842","kana_pref":"ｷｮｳﾄﾌ","kana_city":"ｷｮｳﾄｼｼﾓｷﾞｮｳｸ","kana_address":"ｽｼﾞｬｸﾄﾞｳﾉｸﾁﾁｮｳ","pref":"京都府","city":"京都市下京区","address":"朱雀堂ノ口町"},
{"zip_code":"6008847","kana_pref":"ｷｮｳﾄﾌ","kana_city":"ｷｮｳﾄｼｼﾓｷﾞｮｳｸ","kana_address":"ｽｼﾞｬｸﾌﾞﾝｷﾁｮｳ","pref":"京都府","city":"京都市下京区","address":"朱雀分木町"},
{"zip_code":"6008846","kana_pref":"ｷｮｳﾄﾌ","kana_city":"ｷｮｳﾄｼｼﾓｷﾞｮｳｸ","kana_address":"ｽｼﾞｬｸﾎｳｿﾞｳﾁｮｳ","pref":"京都府","city":"京都市下京区","address":"朱雀宝蔵町"},
{"zip_code":"6008061","kana_pref":"ｷｮｳﾄﾌ","kana_city":"ｷｮｳﾄｼｼﾓｷﾞｮｳｸ","kana_address":"ｽｼﾞﾔﾁｮｳ","pref":"京都府","city":"京都市下京区","address":"筋屋町"},
{"zip_code":"6008048","kana_pref":"ｷｮｳﾄﾌ","kana_city":"ｷｮｳﾄｼｼﾓｷﾞｮｳｸ","kana_address":"ｽﾊﾞﾏﾁｮｳ","pref":"京都府","city":"京都市下京区","address":"須浜町"},
{"zip_code":"6008143","kana_pref":"ｷｮｳﾄﾌ","kana_city":"ｷｮｳﾄｼｼﾓｷﾞｮｳｸ","kana_address":"ｽﾐﾖｼﾁｮｳ","pref":"京都府","city":"京都市下京区","address":"住吉町"},
{"zip_code":"6008335","kana_pref":"ｷｮｳﾄﾌ","kana_city":"ｷｮｳﾄｼｼﾓｷﾞｮｳｸ","kana_address":"ｽﾐﾖｼﾁｮｳ","pref":"京都府","city":"京都市下京区","address":"住吉町"},
{"zip_code":"6008468","kana_pref":"ｷｮｳﾄﾌ","kana_city":"ｷｮｳﾄｼｼﾓｷﾞｮｳｸ","kana_address":"ｽﾐﾖｼﾁｮｳ","pref":"京都府","city":"京都市下京区","address":"住吉町"},
{"zip_code":"6008832","kana_pref":"ｷｮｳﾄﾌ","kana_city":"ｷｮｳﾄｼｼﾓｷﾞｮｳｸ","kana_address":"ｽﾜﾋﾞﾗｷﾁｮｳ","pref":"京都府","city":"京都市下京区","address":"諏訪開町"},
{"zip_code":"6008398","kana_pref":"ｷｮｳﾄﾌ","kana_city":"ｷｮｳﾄｼｼﾓｷﾞｮｳｸ","kana_address":"ｾﾄﾔﾁｮｳ","pref":"京都府","city":"京都市下京区","address":"瀬戸屋町"},
{"zip_code":"6008303","kana_pref":"ｷｮｳﾄﾌ","kana_city":"ｷｮｳﾄｼｼﾓｷﾞｮｳｸ","kana_address":"ｾﾞﾆﾔﾁｮｳ","pref":"京都府","city":"京都市下京区","address":"銭屋町"},
{"zip_code":"6008076","kana_pref":"ｷｮｳﾄﾌ","kana_city":"ｷｮｳﾄｼｼﾓｷﾞｮｳｸ","kana_address":"ｾﾝｼｮｳｼﾞﾁｮｳ","pref":"京都府","city":"京都市下京区","address":"泉正寺町"},
{"zip_code":"6008338","kana_pref":"ｷｮｳﾄﾌ","kana_city":"ｷｮｳﾄｼｼﾓｷﾞｮｳｸ","kana_address":"ｾﾝｽｲﾁｮｳ","pref":"京都府","city":"京都市下京区","address":"泉水町"},
{"zip_code":"6008431","kana_pref":"ｷｮｳﾄﾌ","kana_city":"ｷｮｳﾄｼｼﾓｷﾞｮｳｸ","kana_address":"ｾﾞﾝﾁｮｳｼﾞﾁｮｳ","pref":"京都府","city":"京都市下京区","address":"善長寺町"},
{"zip_code":"6008019","kana_pref":"ｷｮｳﾄﾌ","kana_city":"ｷｮｳﾄｼｼﾓｷﾞｮｳｸ","kana_address":"ｾﾝﾄﾞｳﾁｮｳ","pref":"京都府","city":"京都市下京区","address":"船頭町"},
{"zip_code":"6008128","kana_pref":"ｷｮｳﾄﾌ","kana_city":"ｷｮｳﾄｼｼﾓｷﾞｮｳｸ","kana_address":"ﾀﾞｲｸﾁｮｳ","pref":"京都府","city":"京都市下京区","address":"大工町（上ノ口通河原町東入"},
{"zip_code":"6008128","kana_pref":"ｷｮｳﾄﾌ","kana_city":"ｷｮｳﾄｼｼﾓｷﾞｮｳｸ","kana_address":"ﾀﾞｲｸﾁｮｳ","pref":"京都府","city":"京都市下京区","address":"上ノ口通土手町西入"},
{"zip_code":"6008128","kana_pref":"ｷｮｳﾄﾌ","kana_city":"ｷｮｳﾄｼｼﾓｷﾞｮｳｸ","kana_address":"ﾀﾞｲｸﾁｮｳ","pref":"京都府","city":"京都市下京区","address":"上ノ口通"},
{"zip_code":"6008128","kana_pref":"ｷｮｳﾄﾌ","kana_city":"ｷｮｳﾄｼｼﾓｷﾞｮｳｸ","kana_address":"ﾀﾞｲｸﾁｮｳ","pref":"京都府","city":"京都市下京区","address":"土手町東入"},
{"zip_code":"6008128","kana_pref":"ｷｮｳﾄﾌ","kana_city":"ｷｮｳﾄｼｼﾓｷﾞｮｳｸ","kana_address":"ﾀﾞｲｸﾁｮｳ","pref":"京都府","city":"京都市下京区","address":"上ノ口通西木屋町西入"},
{"zip_code":"6008128","kana_pref":"ｷｮｳﾄﾌ","kana_city":"ｷｮｳﾄｼｼﾓｷﾞｮｳｸ","kana_address":"ﾀﾞｲｸﾁｮｳ","pref":"京都府","city":"京都市下京区","address":"河原町通上ノ口上る"},
{"zip_code":"6008128","kana_pref":"ｷｮｳﾄﾌ","kana_city":"ｷｮｳﾄｼｼﾓｷﾞｮｳｸ","kana_address":"ﾀﾞｲｸﾁｮｳ","pref":"京都府","city":"京都市下京区","address":"河原町通上ノ口"},
{"zip_code":"6008128","kana_pref":"ｷｮｳﾄﾌ","kana_city":"ｷｮｳﾄｼｼﾓｷﾞｮｳｸ","kana_address":"ﾀﾞｲｸﾁｮｳ","pref":"京都府","city":"京都市下京区","address":"下る"},
{"zip_code":"6008128","kana_pref":"ｷｮｳﾄﾌ","kana_city":"ｷｮｳﾄｼｼﾓｷﾞｮｳｸ","kana_address":"ﾀﾞｲｸﾁｮｳ","pref":"京都府","city":"京都市下京区","address":"河原町通六条下る"},
{"zip_code":"6008128","kana_pref":"ｷｮｳﾄﾌ","kana_city":"ｷｮｳﾄｼｼﾓｷﾞｮｳｸ","kana_address":"ﾀﾞｲｸﾁｮｳ","pref":"京都府","city":"京都市下京区","address":"土手町通上ノ口下る"},
{"zip_code":"6008128","kana_pref":"ｷｮｳﾄﾌ","kana_city":"ｷｮｳﾄｼｼﾓｷﾞｮｳｸ","kana_address":"ﾀﾞｲｸﾁｮｳ","pref":"京都府","city":"京都市下京区","address":"土手町通正面上る"},
{"zip_code":"6008128","kana_pref":"ｷｮｳﾄﾌ","kana_city":"ｷｮｳﾄｼｼﾓｷﾞｮｳｸ","kana_address":"ﾀﾞｲｸﾁｮｳ","pref":"京都府","city":"京都市下京区","address":"上枳殻馬場"},
{"zip_code":"6008128","kana_pref":"ｷｮｳﾄﾌ","kana_city":"ｷｮｳﾄｼｼﾓｷﾞｮｳｸ","kana_address":"ﾀﾞｲｸﾁｮｳ","pref":"京都府","city":"京都市下京区","address":"通河原町東入）"},
{"zip_code":"6008268","kana_pref":"ｷｮｳﾄﾌ","kana_city":"ｷｮｳﾄｼｼﾓｷﾞｮｳｸ","kana_address":"ﾀﾞｲｸﾁｮｳ","pref":"京都府","city":"京都市下京区","address":"大工町"},
{"zip_code":"6008043","kana_pref":"ｷｮｳﾄﾌ","kana_city":"ｷｮｳﾄｼｼﾓｷﾞｮｳｸ","kana_address":"ﾀﾞｲｺｸﾁｮｳ","pref":"京都府","city":"京都市下京区","address":"大黒町（仏光寺通御幸町西入"},
{"zip_code":"6008043","kana_pref":"ｷｮｳﾄﾌ","kana_city":"ｷｮｳﾄｼｼﾓｷﾞｮｳｸ","kana_address":"ﾀﾞｲｺｸﾁｮｳ","pref":"京都府","city":"京都市下京区","address":"仏光寺通御幸町東入"},
{"zip_code":"6008043","kana_pref":"ｷｮｳﾄﾌ","kana_city":"ｷｮｳﾄｼｼﾓｷﾞｮｳｸ","kana_address":"ﾀﾞｲｺｸﾁｮｳ","pref":"京都府","city":"京都市下京区","address":"仏光寺通"},
{"zip_code":"6008043","kana_pref":"ｷｮｳﾄﾌ","kana_city":"ｷｮｳﾄｼｼﾓｷﾞｮｳｸ","kana_address":"ﾀﾞｲｺｸﾁｮｳ","pref":"京都府","city":"京都市下京区","address":"寺町西入"},
{"zip_code":"6008043","kana_pref":"ｷｮｳﾄﾌ","kana_city":"ｷｮｳﾄｼｼﾓｷﾞｮｳｸ","kana_address":"ﾀﾞｲｺｸﾁｮｳ","pref":"京都府","city":"京都市下京区","address":"仏光寺通麩屋町東入）"},
{"zip_code":"6008161","kana_pref":"ｷｮｳﾄﾌ","kana_city":"ｷｮｳﾄｼｼﾓｷﾞｮｳｸ","kana_address":"ﾀﾞｲｺｸﾁｮｳ","pref":"京都府","city":"京都市下京区","address":"大黒町"},
{"zip_code":"6008223","kana_pref":"ｷｮｳﾄﾌ","kana_city":"ｷｮｳﾄｼｼﾓｷﾞｮｳｸ","kana_address":"ﾀﾞｲｺｸﾁｮｳ","pref":"京都府","city":"京都市下京区","address":"大黒町"},
{"zip_code":"6008106","kana_pref":"ｷｮｳﾄﾌ","kana_city":"ｷｮｳﾄｼｼﾓｷﾞｮｳｸ","kana_address":"ﾀﾞｲｺﾞﾁｮｳ","pref":"京都府","city":"京都市下京区","address":"醍醐町"},
{"zip_code":"6008469","kana_pref":"ｷｮｳﾄﾌ","kana_city":"ｷｮｳﾄｼｼﾓｷﾞｮｳｸ","kana_address":"ﾀｲｼﾔﾏﾁｮｳ","pref":"京都府","city":"京都市下京区","address":"太子山町"},
{"zip_code":"6008039","kana_pref":"ｷｮｳﾄﾌ","kana_city":"ｷｮｳﾄｼｼﾓｷﾞｮｳｸ","kana_address":"ﾀﾞｲｽﾞﾁｮｳ","pref":"京都府","city":"京都市下京区","address":"大寿町"},
{"zip_code":"6008237","kana_pref":"ｷｮｳﾄﾌ","kana_city":"ｷｮｳﾄｼｼﾓｷﾞｮｳｸ","kana_address":"ﾀｲﾏﾂﾁｮｳ","pref":"京都府","city":"京都市下京区","address":"松明町"},
{"zip_code":"6008221","kana_pref":"ｷｮｳﾄﾌ","kana_city":"ｷｮｳﾄｼｼﾓｷﾞｮｳｸ","kana_address":"ﾀｶｵﾁｮｳ","pref":"京都府","city":"京都市下京区","address":"高雄町"},
{"zip_code":"6008082","kana_pref":"ｷｮｳﾄﾌ","kana_city":"ｷｮｳﾄｼｼﾓｷﾞｮｳｸ","kana_address":"ﾀｶｻﾞｲﾓｸﾁｮｳ","pref":"京都府","city":"京都市下京区","address":"高材木町"},
{"zip_code":"6008420","kana_pref":"ｷｮｳﾄﾌ","kana_city":"ｷｮｳﾄｼｼﾓｷﾞｮｳｸ","kana_address":"ﾀｶｻｺﾞﾁｮｳ","pref":"京都府","city":"京都市下京区","address":"高砂町"},
{"zip_code":"6008174","kana_pref":"ｷｮｳﾄﾌ","kana_city":"ｷｮｳﾄｼｼﾓｷﾞｮｳｸ","kana_address":"ﾀｶﾂｷﾁｮｳ","pref":"京都府","city":"京都市下京区","address":"高槻町"},
{"zip_code":"6008353","kana_pref":"ｷｮｳﾄﾌ","kana_city":"ｷｮｳﾄｼｼﾓｷﾞｮｳｸ","kana_address":"ﾀｶﾂｼﾞｲﾉｸﾏﾁｮｳ","pref":"京都府","city":"京都市下京区","address":"高辻猪熊町"},
{"zip_code":"6008387","kana_pref":"ｷｮｳﾄﾌ","kana_city":"ｷｮｳﾄｼｼﾓｷﾞｮｳｸ","kana_address":"ﾀｶﾂｼﾞｵｵﾐﾔﾁｮｳ","pref":"京都府","city":"京都市下京区","address":"高辻大宮町"},
{"zip_code":"6008465","kana_pref":"ｷｮｳﾄﾌ","kana_city":"ｷｮｳﾄｼｼﾓｷﾞｮｳｸ","kana_address":"ﾀｶﾂｼﾞﾆｼﾉﾄｳｲﾝﾁｮｳ","pref":"京都府","city":"京都市下京区","address":"高辻西洞院町"},
{"zip_code":"6008486","kana_pref":"ｷｮｳﾄﾌ","kana_city":"ｷｮｳﾄｼｼﾓｷﾞｮｳｸ","kana_address":"ﾀｶﾂｼﾞﾎﾘｶﾜﾁｮｳ","pref":"京都府","city":"京都市下京区","address":"高辻堀川町"},
{"zip_code":"6008434","kana_pref":"ｷｮｳﾄﾌ","kana_city":"ｷｮｳﾄｼｼﾓｷﾞｮｳｸ","kana_address":"ﾀｶﾂｼﾞﾁｮｳ","pref":"京都府","city":"京都市下京区","address":"高辻町"},
{"zip_code":"6008096","kana_pref":"ｷｮｳﾄﾌ","kana_city":"ｷｮｳﾄｼｼﾓｷﾞｮｳｸ","kana_address":"ﾀｶﾊｼﾁｮｳ","pref":"京都府","city":"京都市下京区","address":"高橋町"},
{"zip_code":"6008123","kana_pref":"ｷｮｳﾄﾌ","kana_city":"ｷｮｳﾄｼｼﾓｷﾞｮｳｸ","kana_address":"ﾀｶﾐﾔﾁｮｳ","pref":"京都府","city":"京都市下京区","address":"高宮町"},
{"zip_code":"6008093","kana_pref":"ｷｮｳﾄﾌ","kana_city":"ｷｮｳﾄｼｼﾓｷﾞｮｳｸ","kana_address":"ﾀｹﾔﾁｮｳ","pref":"京都府","city":"京都市下京区","address":"竹屋町（高倉通綾小路下る"},
{"zip_code":"6008093","kana_pref":"ｷｮｳﾄﾌ","kana_city":"ｷｮｳﾄｼｼﾓｷﾞｮｳｸ","kana_address":"ﾀｹﾔﾁｮｳ","pref":"京都府","city":"京都市下京区","address":"高倉通仏光寺上る"},
{"zip_code":"6008093","kana_pref":"ｷｮｳﾄﾌ","kana_city":"ｷｮｳﾄｼｼﾓｷﾞｮｳｸ","kana_address":"ﾀｹﾔﾁｮｳ","pref":"京都府","city":"京都市下京区","address":"堺町通綾小路下"},
{"zip_code":"6008093","kana_pref":"ｷｮｳﾄﾌ","kana_city":"ｷｮｳﾄｼｼﾓｷﾞｮｳｸ","kana_address":"ﾀｹﾔﾁｮｳ","pref":"京都府","city":"京都市下京区","address":"る西入）"},
{"zip_code":"6008319","kana_pref":"ｷｮｳﾄﾌ","kana_city":"ｷｮｳﾄｼｼﾓｷﾞｮｳｸ","kana_address":"ﾀｹﾔﾁｮｳ","pref":"京都府","city":"京都市下京区","address":"竹屋町"},
{"zip_code":"6008090","kana_pref":"ｷｮｳﾄﾌ","kana_city":"ｷｮｳﾄｼｼﾓｷﾞｮｳｸ","kana_address":"ﾀｹﾔﾉﾁｮｳ","pref":"京都府","city":"京都市下京区","address":"竹屋之町"},
{"zip_code":"6008006","kana_pref":"ｷｮｳﾄﾌ","kana_city":"ｷｮｳﾄｼｼﾓｷﾞｮｳｸ","kana_address":"ﾀﾁｳﾘﾅｶﾉﾁｮｳ","pref":"京都府","city":"京都市下京区","address":"立売中之町"},
{"zip_code":"6008007","kana_pref":"ｷｮｳﾄﾌ","kana_city":"ｷｮｳﾄｼｼﾓｷﾞｮｳｸ","kana_address":"ﾀﾁｳﾘﾆｼﾏﾁ","pref":"京都府","city":"京都市下京区","address":"立売西町"},
{"zip_code":"6008005","kana_pref":"ｷｮｳﾄﾌ","kana_city":"ｷｮｳﾄｼｼﾓｷﾞｮｳｸ","kana_address":"ﾀﾁｳﾘﾋｶﾞｼﾁｮｳ","pref":"京都府","city":"京都市下京区","address":"立売東町"},
{"zip_code":"6008044","kana_pref":"ｷｮｳﾄﾌ","kana_city":"ｷｮｳﾄｼｼﾓｷﾞｮｳｸ","kana_address":"ﾀﾁﾊﾞﾅﾁｮｳ","pref":"京都府","city":"京都市下京区","address":"橘町（御幸町通高辻上る"},
{"zip_code":"6008044","kana_pref":"ｷｮｳﾄﾌ","kana_city":"ｷｮｳﾄｼｼﾓｷﾞｮｳｸ","kana_address":"ﾀﾁﾊﾞﾅﾁｮｳ","pref":"京都府","city":"京都市下京区","address":"御幸町通仏光寺下る"},
{"zip_code":"6008044","kana_pref":"ｷｮｳﾄﾌ","kana_city":"ｷｮｳﾄｼｼﾓｷﾞｮｳｸ","kana_address":"ﾀﾁﾊﾞﾅﾁｮｳ","pref":"京都府","city":"京都市下京区","address":"高辻通御幸町"},
{"zip_code":"6008044","kana_pref":"ｷｮｳﾄﾌ","kana_city":"ｷｮｳﾄｼｼﾓｷﾞｮｳｸ","kana_address":"ﾀﾁﾊﾞﾅﾁｮｳ","pref":"京都府","city":"京都市下京区","address":"西入"},
{"zip_code":"6008044","kana_pref":"ｷｮｳﾄﾌ","kana_city":"ｷｮｳﾄｼｼﾓｷﾞｮｳｸ","kana_address":"ﾀﾁﾊﾞﾅﾁｮｳ","pref":"京都府","city":"京都市下京区","address":"高辻通御幸町東入）"},
{"zip_code":"6008157","kana_pref":"ｷｮｳﾄﾌ","kana_city":"ｷｮｳﾄｼｼﾓｷﾞｮｳｸ","kana_address":"ﾀﾁﾊﾞﾅﾁｮｳ","pref":"京都府","city":"京都市下京区","address":"橘町"},
{"zip_code":"6008487","kana_pref":"ｷｮｳﾄﾌ","kana_city":"ｷｮｳﾄｼｼﾓｷﾞｮｳｸ","kana_address":"ﾀﾁﾊﾞﾅﾁｮｳ","pref":"京都府","city":"京都市下京区","address":"橘町"},
{"zip_code":"6008490","kana_pref":"ｷｮｳﾄﾌ","kana_city":"ｷｮｳﾄｼｼﾓｷﾞｮｳｸ","kana_address":"ﾀﾂﾅｶﾁｮｳ","pref":"京都府","city":"京都市下京区","address":"立中町"},
{"zip_code":"6008307","kana_pref":"ｷｮｳﾄﾌ","kana_city":"ｷｮｳﾄｼｼﾓｷﾞｮｳｸ","kana_address":"ﾀﾂﾐﾁｮｳ","pref":"京都府","city":"京都市下京区","address":"辰巳町"},
{"zip_code":"6008038","kana_pref":"ｷｮｳﾄﾌ","kana_city":"ｷｮｳﾄｼｼﾓｷﾞｮｳｸ","kana_address":"ﾀﾋﾞﾔﾁｮｳ","pref":"京都府","city":"京都市下京区","address":"足袋屋町"},
{"zip_code":"6008427","kana_pref":"ｷｮｳﾄﾌ","kana_city":"ｷｮｳﾄｼｼﾓｷﾞｮｳｸ","kana_address":"ﾀﾏﾂｼﾏﾁｮｳ","pref":"京都府","city":"京都市下京区","address":"玉津島町"},
{"zip_code":"6008346","kana_pref":"ｷｮｳﾄﾌ","kana_city":"ｷｮｳﾄｼｼﾓｷﾞｮｳｸ","kana_address":"ﾀﾏﾓﾄﾁｮｳ","pref":"京都府","city":"京都市下京区","address":"玉本町"},
{"zip_code":"6008409","kana_pref":"ｷｮｳﾄﾌ","kana_city":"ｷｮｳﾄｼｼﾓｷﾞｮｳｸ","kana_address":"ﾀﾏﾔﾁｮｳ","pref":"京都府","city":"京都市下京区","address":"玉屋町"},
{"zip_code":"6008129","kana_pref":"ｷｮｳﾄﾌ","kana_city":"ｷｮｳﾄｼｼﾓｷﾞｮｳｸ","kana_address":"ﾀﾒｲｹﾁｮｳ","pref":"京都府","city":"京都市下京区","address":"溜池町"},
{"zip_code":"6008264","kana_pref":"ｷｮｳﾄﾌ","kana_city":"ｷｮｳﾄｼｼﾓｷﾞｮｳｸ","kana_address":"ﾀﾙﾔﾁｮｳ","pref":"京都府","city":"京都市下京区","address":"樽屋町"},
{"zip_code":"6008042","kana_pref":"ｷｮｳﾄﾌ","kana_city":"ｷｮｳﾄｼｼﾓｷﾞｮｳｸ","kana_address":"ﾀﾜﾗﾔﾁｮｳ","pref":"京都府","city":"京都市下京区","address":"俵屋町"},
{"zip_code":"6008070","kana_pref":"ｷｮｳﾄﾌ","kana_city":"ｷｮｳﾄｼｼﾓｷﾞｮｳｸ","kana_address":"ﾀﾜﾗﾔﾁｮｳ","pref":"京都府","city":"京都市下京区","address":"俵屋町"},
{"zip_code":"6008365","kana_pref":"ｷｮｳﾄﾌ","kana_city":"ｷｮｳﾄｼｼﾓｷﾞｮｳｸ","kana_address":"ﾀﾝﾊﾞｶｲﾄﾞｳﾁｮｳ","pref":"京都府","city":"京都市下京区","address":"丹波街道町"},
{"zip_code":"6008036","kana_pref":"ｷｮｳﾄﾌ","kana_city":"ｷｮｳﾄｼｼﾓｷﾞｮｳｸ","kana_address":"ﾁｬﾏﾔﾁｮｳ","pref":"京都府","city":"京都市下京区","address":"茶磨屋町"},
{"zip_code":"6008045","kana_pref":"ｷｮｳﾄﾌ","kana_city":"ｷｮｳﾄｼｼﾓｷﾞｮｳｸ","kana_address":"ﾁｬﾏﾔﾁｮｳ","pref":"京都府","city":"京都市下京区","address":"茶磨屋町"},
{"zip_code":"6008068","kana_pref":"ｷｮｳﾄﾌ","kana_city":"ｷｮｳﾄｼｼﾓｷﾞｮｳｸ","kana_address":"ﾁｭｳｱﾝﾁｮｳ","pref":"京都府","city":"京都市下京区","address":"忠庵町"},
{"zip_code":"6008815","kana_pref":"ｷｮｳﾄﾌ","kana_city":"ｷｮｳﾄｼｼﾓｷﾞｮｳｸ","kana_address":"ﾁｭｳﾄﾞｳｼﾞｱﾜﾀﾁｮｳ","pref":"京都府","city":"京都市下京区","address":"中堂寺粟田町"},
{"zip_code":"6008805","kana_pref":"ｷｮｳﾄﾌ","kana_city":"ｷｮｳﾄｼｼﾓｷﾞｮｳｸ","kana_address":"ﾁｭｳﾄﾞｳｼﾞｶｷﾞﾀﾁｮｳ","pref":"京都府","city":"京都市下京区","address":"中堂寺鍵田町"},
{"zip_code":"6008812","kana_pref":"ｷｮｳﾄﾌ","kana_city":"ｷｮｳﾄｼｼﾓｷﾞｮｳｸ","kana_address":"ﾁｭｳﾄﾞｳｼﾞｷﾀﾏﾁ","pref":"京都府","city":"京都市下京区","address":"中堂寺北町"},
{"zip_code":"6008802","kana_pref":"ｷｮｳﾄﾌ","kana_city":"ｷｮｳﾄｼｼﾓｷﾞｮｳｸ","kana_address":"ﾁｭｳﾄﾞｳｼﾞｸｼｹﾞﾁｮｳ","pref":"京都府","city":"京都市下京区","address":"中堂寺櫛笥町"},
{"zip_code":"6008814","kana_pref":"ｷｮｳﾄﾌ","kana_city":"ｷｮｳﾄｼｼﾓｷﾞｮｳｸ","kana_address":"ﾁｭｳﾄﾞｳｼﾞｼｮｳﾉｳﾁﾁｮｳ","pref":"京都府","city":"京都市下京区","address":"中堂寺庄ノ内町"},
{"zip_code":"6008801","kana_pref":"ｷｮｳﾄﾌ","kana_city":"ｷｮｳﾄｼｼﾓｷﾞｮｳｸ","kana_address":"ﾁｭｳﾄﾞｳｼﾞﾆｼﾃﾞﾗﾁｮｳ","pref":"京都府","city":"京都市下京区","address":"中堂寺西寺町"},
{"zip_code":"6008811","kana_pref":"ｷｮｳﾄﾌ","kana_city":"ｷｮｳﾄｼｼﾓｷﾞｮｳｸ","kana_address":"ﾁｭｳﾄﾞｳｼﾞﾎﾞｳｼﾞｮｳﾁｮｳ","pref":"京都府","city":"京都市下京区","address":"中堂寺坊城町"},
{"zip_code":"6008804","kana_pref":"ｷｮｳﾄﾌ","kana_city":"ｷｮｳﾄｼｼﾓｷﾞｮｳｸ","kana_address":"ﾁｭｳﾄﾞｳｼﾞﾏｴﾀﾞﾁｮｳ","pref":"京都府","city":"京都市下京区","address":"中堂寺前田町"},
{"zip_code":"6008362","kana_pref":"ｷｮｳﾄﾌ","kana_city":"ｷｮｳﾄｼｼﾓｷﾞｮｳｸ","kana_address":"ﾁｭｳﾄﾞｳｼﾞﾏｴﾁｮｳ","pref":"京都府","city":"京都市下京区","address":"中堂寺前町"},
{"zip_code":"6008813","kana_pref":"ｷｮｳﾄﾌ","kana_city":"ｷｮｳﾄｼｼﾓｷﾞｮｳｸ","kana_address":"ﾁｭｳﾄﾞｳｼﾞﾐﾅﾐﾏﾁ","pref":"京都府","city":"京都市下京区","address":"中堂寺南町"},
{"zip_code":"6008806","kana_pref":"ｷｮｳﾄﾌ","kana_city":"ｷｮｳﾄｼｼﾓｷﾞｮｳｸ","kana_address":"ﾁｭｳﾄﾞｳｼﾞﾐﾌﾞｶﾞﾜﾁｮｳ","pref":"京都府","city":"京都市下京区","address":"中堂寺壬生川町"},
{"zip_code":"6008807","kana_pref":"ｷｮｳﾄﾌ","kana_city":"ｷｮｳﾄｼｼﾓｷﾞｮｳｸ","kana_address":"ﾁｭｳﾄﾞｳｼﾞﾐｮｳﾌﾞﾁｮｳ","pref":"京都府","city":"京都市下京区","address":"中堂寺命婦町"},
{"zip_code":"6008803","kana_pref":"ｷｮｳﾄﾌ","kana_city":"ｷｮｳﾄｼｼﾓｷﾞｮｳｸ","kana_address":"ﾁｭｳﾄﾞｳｼﾞﾔﾌﾞﾉｳﾁﾁｮｳ","pref":"京都府","city":"京都市下京区","address":"中堂寺薮ノ内町"},
{"zip_code":"6008364","kana_pref":"ｷｮｳﾄﾌ","kana_city":"ｷｮｳﾄｼｼﾓｷﾞｮｳｸ","kana_address":"ﾂｷﾇｹ","pref":"京都府","city":"京都市下京区","address":"突抜"},
{"zip_code":"6008492","kana_pref":"ｷｮｳﾄﾌ","kana_city":"ｷｮｳﾄｼｼﾓｷﾞｮｳｸ","kana_address":"ﾂｷﾎｺﾁｮｳ","pref":"京都府","city":"京都市下京区","address":"月鉾町"},
{"zip_code":"6008453","kana_pref":"ｷｮｳﾄﾌ","kana_city":"ｷｮｳﾄｼｼﾓｷﾞｮｳｸ","kana_address":"ﾂｷﾐﾁｮｳ","pref":"京都府","city":"京都市下京区","address":"月見町"},
{"zip_code":"6008226","kana_pref":"ｷｮｳﾄﾌ","kana_city":"ｷｮｳﾄｼｼﾓｷﾞｮｳｸ","kana_address":"ﾂﾁﾊｼﾁｮｳ","pref":"京都府","city":"京都市下京区","address":"土橋町"},
{"zip_code":"6008396","kana_pref":"ｷｮｳﾄﾌ","kana_city":"ｷｮｳﾄｼｼﾓｷﾞｮｳｸ","kana_address":"ﾂﾁﾔﾁｮｳ","pref":"京都府","city":"京都市下京区","address":"槌屋町"},
{"zip_code":"6008152","kana_pref":"ｷｮｳﾄﾌ","kana_city":"ｷｮｳﾄｼｼﾓｷﾞｮｳｸ","kana_address":"ﾂﾂｶﾞﾈﾁｮｳ","pref":"京都府","city":"京都市下京区","address":"筒金町"},
{"zip_code":"6008085","kana_pref":"ｷｮｳﾄﾌ","kana_city":"ｷｮｳﾄｼｼﾓｷﾞｮｳｸ","kana_address":"ﾂﾂﾞﾗﾔﾁｮｳ","pref":"京都府","city":"京都市下京区","address":"葛籠屋町"},
{"zip_code":"6008031","kana_pref":"ｷｮｳﾄﾌ","kana_city":"ｷｮｳﾄｼｼﾓｷﾞｮｳｸ","kana_address":"ﾃｲｱﾝﾏｴﾉﾁｮｳ","pref":"京都府","city":"京都市下京区","address":"貞安前之町"},
{"zip_code":"6008265","kana_pref":"ｷｮｳﾄﾌ","kana_city":"ｷｮｳﾄｼｼﾓｷﾞｮｳｸ","kana_address":"ﾃｯﾎﾟｳﾁｮｳ","pref":"京都府","city":"京都市下京区","address":"徹宝町"},
{"zip_code":"6008456","kana_pref":"ｷｮｳﾄﾌ","kana_city":"ｷｮｳﾄｼｼﾓｷﾞｮｳｸ","kana_address":"ﾃﾝｼﾂｷﾇｹ","pref":"京都府","city":"京都市下京区","address":"天使突抜"},
{"zip_code":"6008184","kana_pref":"ｷｮｳﾄﾌ","kana_city":"ｷｮｳﾄｼｼﾓｷﾞｮｳｸ","kana_address":"ﾃﾝｼﾞﾝﾁｮｳ","pref":"京都府","city":"京都市下京区","address":"天神町"},
{"zip_code":"6008459","kana_pref":"ｷｮｳﾄﾌ","kana_city":"ｷｮｳﾄｼｼﾓｷﾞｮｳｸ","kana_address":"ﾃﾝｼﾞﾝﾏｴﾁｮｳ","pref":"京都府","city":"京都市下京区","address":"天神前町"},
{"zip_code":"6008013","kana_pref":"ｷｮｳﾄﾌ","kana_city":"ｷｮｳﾄｼｼﾓｷﾞｮｳｸ","kana_address":"ﾃﾝﾉｳﾁｮｳ","pref":"京都府","city":"京都市下京区","address":"天王町"},
{"zip_code":"6008024","kana_pref":"ｷｮｳﾄﾌ","kana_city":"ｷｮｳﾄｼｼﾓｷﾞｮｳｸ","kana_address":"ﾃﾝﾏﾁｮｳ","pref":"京都府","city":"京都市下京区","address":"天満町"},
{"zip_code":"6008111","kana_pref":"ｷｮｳﾄﾌ","kana_city":"ｷｮｳﾄｼｼﾓｷﾞｮｳｸ","kana_address":"ﾄｲﾁﾁｮｳ","pref":"京都府","city":"京都市下京区","address":"都市町"},
{"zip_code":"6008421","kana_pref":"ｷｮｳﾄﾌ","kana_city":"ｷｮｳﾄｼｼﾓｷﾞｮｳｸ","kana_address":"ﾄﾞｳｼﾞｼｬﾁｮｳ","pref":"京都府","city":"京都市下京区","address":"童侍者町"},
{"zip_code":"6008401","kana_pref":"ｷｮｳﾄﾌ","kana_city":"ｷｮｳﾄｼｼﾓｷﾞｮｳｸ","kana_address":"ﾄｳﾛｳﾁｮｳ","pref":"京都府","city":"京都市下京区","address":"燈籠町"},
{"zip_code":"6008167","kana_pref":"ｷｮｳﾄﾌ","kana_city":"ｷｮｳﾄｼｼﾓｷﾞｮｳｸ","kana_address":"ﾄｷﾜﾁｮｳ","pref":"京都府","city":"京都市下京区","address":"常葉町"},
{"zip_code":"6008461","kana_pref":"ｷｮｳﾄﾌ","kana_city":"ｷｮｳﾄｼｼﾓｷﾞｮｳｸ","kana_address":"ﾄｸｻﾔﾏﾁｮｳ","pref":"京都府","city":"京都市下京区","address":"木賊山町"},
{"zip_code":"6008051","kana_pref":"ｷｮｳﾄﾌ","kana_city":"ｷｮｳﾄｼｼﾓｷﾞｮｳｸ","kana_address":"ﾄｸｼｮｳｼﾞﾁｮｳ","pref":"京都府","city":"京都市下京区","address":"徳正寺町"},
{"zip_code":"6008437","kana_pref":"ｷｮｳﾄﾌ","kana_city":"ｷｮｳﾄｼｼﾓｷﾞｮｳｸ","kana_address":"ﾄｸﾏﾝﾁｮｳ","pref":"京都府","city":"京都市下京区","address":"徳万町"},
{"zip_code":"6008395","kana_pref":"ｷｮｳﾄﾌ","kana_city":"ｷｮｳﾄｼｼﾓｷﾞｮｳｸ","kana_address":"ﾄｸﾔﾁｮｳ","pref":"京都府","city":"京都市下京区","address":"徳屋町"},
{"zip_code":"6008186","kana_pref":"ｷｮｳﾄﾌ","kana_city":"ｷｮｳﾄｼｼﾓｷﾞｮｳｸ","kana_address":"ﾄﾐﾀﾁｮｳ","pref":"京都府","city":"京都市下京区","address":"富田町"},
{"zip_code":"6008023","kana_pref":"ｷｮｳﾄﾌ","kana_city":"ｷｮｳﾄｼｼﾓｷﾞｮｳｸ","kana_address":"ﾄﾐﾅｶﾞﾁｮｳ","pref":"京都府","city":"京都市下京区","address":"富永町（河原町通四条下る２丁目"},
{"zip_code":"6008023","kana_pref":"ｷｮｳﾄﾌ","kana_city":"ｷｮｳﾄｼｼﾓｷﾞｮｳｸ","kana_address":"ﾄﾐﾅｶﾞﾁｮｳ","pref":"京都府","city":"京都市下京区","address":"河原町通高辻上る"},
{"zip_code":"6008023","kana_pref":"ｷｮｳﾄﾌ","kana_city":"ｷｮｳﾄｼｼﾓｷﾞｮｳｸ","kana_address":"ﾄﾐﾅｶﾞﾁｮｳ","pref":"京都府","city":"京都市下京区","address":"河原町通仏"},
{"zip_code":"6008023","kana_pref":"ｷｮｳﾄﾌ","kana_city":"ｷｮｳﾄｼｼﾓｷﾞｮｳｸ","kana_address":"ﾄﾐﾅｶﾞﾁｮｳ","pref":"京都府","city":"京都市下京区","address":"光寺下る"},
{"zip_code":"6008023","kana_pref":"ｷｮｳﾄﾌ","kana_city":"ｷｮｳﾄｼｼﾓｷﾞｮｳｸ","kana_address":"ﾄﾐﾅｶﾞﾁｮｳ","pref":"京都府","city":"京都市下京区","address":"河原町通松原上る"},
{"zip_code":"6008023","kana_pref":"ｷｮｳﾄﾌ","kana_city":"ｷｮｳﾄｼｼﾓｷﾞｮｳｸ","kana_address":"ﾄﾐﾅｶﾞﾁｮｳ","pref":"京都府","city":"京都市下京区","address":"河原町通松原上る２丁目"},
{"zip_code":"6008023","kana_pref":"ｷｮｳﾄﾌ","kana_city":"ｷｮｳﾄｼｼﾓｷﾞｮｳｸ","kana_address":"ﾄﾐﾅｶﾞﾁｮｳ","pref":"京都府","city":"京都市下京区","address":"高辻通河原町西入"},
{"zip_code":"6008023","kana_pref":"ｷｮｳﾄﾌ","kana_city":"ｷｮｳﾄｼｼﾓｷﾞｮｳｸ","kana_address":"ﾄﾐﾅｶﾞﾁｮｳ","pref":"京都府","city":"京都市下京区","address":""},
{"zip_code":"6008023","kana_pref":"ｷｮｳﾄﾌ","kana_city":"ｷｮｳﾄｼｼﾓｷﾞｮｳｸ","kana_address":"ﾄﾐﾅｶﾞﾁｮｳ","pref":"京都府","city":"京都市下京区","address":"仏光寺通河原町西入）"},
{"zip_code":"6008351","kana_pref":"ｷｮｳﾄﾌ","kana_city":"ｷｮｳﾄｼｼﾓｷﾞｮｳｸ","kana_address":"ﾄﾐﾅｶﾞﾁｮｳ","pref":"京都府","city":"京都市下京区","address":"富永町"},
{"zip_code":"6008449","kana_pref":"ｷｮｳﾄﾌ","kana_city":"ｷｮｳﾄｼｼﾓｷﾞｮｳｸ","kana_address":"ﾄﾐﾅｶﾞﾁｮｳ","pref":"京都府","city":"京都市下京区","address":"富永町"},
{"zip_code":"6008125","kana_pref":"ｷｮｳﾄﾌ","kana_city":"ｷｮｳﾄｼｼﾓｷﾞｮｳｸ","kana_address":"ﾄﾐﾊﾏﾁｮｳ","pref":"京都府","city":"京都市下京区","address":"富浜町"},
{"zip_code":"6008124","kana_pref":"ｷｮｳﾄﾌ","kana_city":"ｷｮｳﾄｼｼﾓｷﾞｮｳｸ","kana_address":"ﾄﾐﾏﾂﾁｮｳ","pref":"京都府","city":"京都市下京区","address":"富松町"},
{"zip_code":"6008192","kana_pref":"ｷｮｳﾄﾌ","kana_city":"ｷｮｳﾄｼｼﾓｷﾞｮｳｸ","kana_address":"ﾄﾐﾔﾁｮｳ","pref":"京都府","city":"京都市下京区","address":"富屋町"},
{"zip_code":"6008219","kana_pref":"ｷｮｳﾄﾌ","kana_city":"ｷｮｳﾄｼｼﾓｷﾞｮｳｸ","kana_address":"ﾅｶｲﾁｮｳ","pref":"京都府","city":"京都市下京区","address":"中居町"},
{"zip_code":"6008332","kana_pref":"ｷｮｳﾄﾌ","kana_city":"ｷｮｳﾄｼｼﾓｷﾞｮｳｸ","kana_address":"ﾅｶｶﾅﾌﾞﾂﾁｮｳ","pref":"京都府","city":"京都市下京区","address":"中金仏町"},
{"zip_code":"6008452","kana_pref":"ｷｮｳﾄﾌ","kana_city":"ｷｮｳﾄｼｼﾓｷﾞｮｳｸ","kana_address":"ﾅｶﾞｸﾗﾁｮｳ","pref":"京都府","city":"京都市下京区","address":"永倉町"},
{"zip_code":"6008032","kana_pref":"ｷｮｳﾄﾌ","kana_city":"ｷｮｳﾄｼｼﾓｷﾞｮｳｸ","kana_address":"ﾅｶﾉﾁｮｳ","pref":"京都府","city":"京都市下京区","address":"中之町（寺町通綾小路下る"},
{"zip_code":"6008032","kana_pref":"ｷｮｳﾄﾌ","kana_city":"ｷｮｳﾄｼｼﾓｷﾞｮｳｸ","kana_address":"ﾅｶﾉﾁｮｳ","pref":"京都府","city":"京都市下京区","address":"寺町通仏光寺上る"},
{"zip_code":"6008032","kana_pref":"ｷｮｳﾄﾌ","kana_city":"ｷｮｳﾄｼｼﾓｷﾞｮｳｸ","kana_address":"ﾅｶﾉﾁｮｳ","pref":"京都府","city":"京都市下京区","address":"仏光寺通寺町西"},
{"zip_code":"6008032","kana_pref":"ｷｮｳﾄﾌ","kana_city":"ｷｮｳﾄｼｼﾓｷﾞｮｳｸ","kana_address":"ﾅｶﾉﾁｮｳ","pref":"京都府","city":"京都市下京区","address":"入"},
{"zip_code":"6008032","kana_pref":"ｷｮｳﾄﾌ","kana_city":"ｷｮｳﾄｼｼﾓｷﾞｮｳｸ","kana_address":"ﾅｶﾉﾁｮｳ","pref":"京都府","city":"京都市下京区","address":"仏光寺通寺町東入）"},
{"zip_code":"6008435","kana_pref":"ｷｮｳﾄﾌ","kana_city":"ｷｮｳﾄｼｼﾓｷﾞｮｳｸ","kana_address":"ﾅｶﾉﾉﾁｮｳ","pref":"京都府","city":"京都市下京区","address":"中野之町"},
{"zip_code":"6008073","kana_pref":"ｷｮｳﾄﾌ","kana_city":"ｷｮｳﾄｼｼﾓｷﾞｮｳｸ","kana_address":"ﾅｶﾞﾊﾗﾁｮｳ","pref":"京都府","city":"京都市下京区","address":"永原町"},
{"zip_code":"6008438","kana_pref":"ｷｮｳﾄﾌ","kana_city":"ｷｮｳﾄｼｼﾓｷﾞｮｳｸ","kana_address":"ﾅｷﾞﾅﾀｷﾞﾘﾁｮｳ","pref":"京都府","city":"京都市下京区","address":"長刀切町"},
{"zip_code":"6008008","kana_pref":"ｷｮｳﾄﾌ","kana_city":"ｷｮｳﾄｼｼﾓｷﾞｮｳｸ","kana_address":"ﾅｷﾞﾅﾀﾎﾞｺﾁｮｳ","pref":"京都府","city":"京都市下京区","address":"長刀鉾町"},
{"zip_code":"6008055","kana_pref":"ｷｮｳﾄﾌ","kana_city":"ｷｮｳﾄｼｼﾓｷﾞｮｳｸ","kana_address":"ﾅﾍﾞﾔﾁｮｳ","pref":"京都府","city":"京都市下京区","address":"鍋屋町"},
{"zip_code":"6008142","kana_pref":"ｷｮｳﾄﾌ","kana_city":"ｷｮｳﾄｼｼﾓｷﾞｮｳｸ","kana_address":"ﾅﾔﾁｮｳ","pref":"京都府","city":"京都市下京区","address":"納屋町"},
{"zip_code":"6008004","kana_pref":"ｷｮｳﾄﾌ","kana_city":"ｷｮｳﾄｼｼﾓｷﾞｮｳｸ","kana_address":"ﾅﾗﾓﾉﾁｮｳ","pref":"京都府","city":"京都市下京区","address":"奈良物町"},
{"zip_code":"6008027","kana_pref":"ｷｮｳﾄﾌ","kana_city":"ｷｮｳﾄｼｼﾓｷﾞｮｳｸ","kana_address":"ﾅﾝﾊﾞﾁｮｳ","pref":"京都府","city":"京都市下京区","address":"難波町"},
{"zip_code":"6008414","kana_pref":"ｷｮｳﾄﾌ","kana_city":"ｷｮｳﾄｼｼﾓｷﾞｮｳｸ","kana_address":"ﾆｵｲﾃﾝｼﾞﾝﾁｮｳ","pref":"京都府","city":"京都市下京区","address":"匂天神町"},
{"zip_code":"6008236","kana_pref":"ｷｮｳﾄﾌ","kana_city":"ｷｮｳﾄｼｼﾓｷﾞｮｳｸ","kana_address":"ﾆｼｱﾌﾞﾗﾉｺｳｼﾞﾁｮｳ","pref":"京都府","city":"京都市下京区","address":"西油小路町"},
{"zip_code":"6008478","kana_pref":"ｷｮｳﾄﾌ","kana_city":"ｷｮｳﾄｼｼﾓｷﾞｮｳｸ","kana_address":"ﾆｼｱﾔﾉｺｳｼﾞﾆｼﾊﾝﾁｮｳ","pref":"京都府","city":"京都市下京区","address":"西綾小路西半町"},
{"zip_code":"6008479","kana_pref":"ｷｮｳﾄﾌ","kana_city":"ｷｮｳﾄｼｼﾓｷﾞｮｳｸ","kana_address":"ﾆｼｱﾔﾉｺｳｼﾞﾋｶﾞｼﾊﾝﾁｮｳ","pref":"京都府","city":"京都市下京区","address":"西綾小路東半町"},
{"zip_code":"6008160","kana_pref":"ｷｮｳﾄﾌ","kana_city":"ｷｮｳﾄｼｼﾓｷﾞｮｳｸ","kana_address":"ﾆｼｳｵﾔﾁｮｳ","pref":"京都府","city":"京都市下京区","address":"西魚屋町"},
{"zip_code":"6008108","kana_pref":"ｷｮｳﾄﾌ","kana_city":"ｷｮｳﾄｼｼﾓｷﾞｮｳｸ","kana_address":"ﾆｼｶｻﾞﾘﾔﾁｮｳ","pref":"京都府","city":"京都市下京区","address":"西錺屋町"},
{"zip_code":"6008325","kana_pref":"ｷｮｳﾄﾌ","kana_city":"ｷｮｳﾄｼｼﾓｷﾞｮｳｸ","kana_address":"ﾆｼｶﾞﾜﾁｮｳ","pref":"京都府","city":"京都市下京区","address":"西側町"},
{"zip_code":"6008218","kana_pref":"ｷｮｳﾄﾌ","kana_city":"ｷｮｳﾄｼｼﾓｷﾞｮｳｸ","kana_address":"ﾆｼｻｶｲﾁｮｳ","pref":"京都府","city":"京都市下京区","address":"西境町"},
{"zip_code":"6008899","kana_pref":"ｷｮｳﾄﾌ","kana_city":"ｷｮｳﾄｼｼﾓｷﾞｮｳｸ","kana_address":"ﾆｼｼﾁｼﾞｮｳｱｶﾔｼﾛﾁｮｳ","pref":"京都府","city":"京都市下京区","address":"西七条赤社町"},
{"zip_code":"6008875","kana_pref":"ｷｮｳﾄﾌ","kana_city":"ｷｮｳﾄｼｼﾓｷﾞｮｳｸ","kana_address":"ﾆｼｼﾁｼﾞｮｳｲｼｲﾁｮｳ","pref":"京都府","city":"京都市下京区","address":"西七条石井町"},
{"zip_code":"6008894","kana_pref":"ｷｮｳﾄﾌ","kana_city":"ｷｮｳﾄｼｼﾓｷﾞｮｳｸ","kana_address":"ﾆｼｼﾁｼﾞｮｳｲﾁﾍﾞﾁｮｳ","pref":"京都府","city":"京都市下京区","address":"西七条市部町"},
{"zip_code":"6008897","kana_pref":"ｷｮｳﾄﾌ","kana_city":"ｷｮｳﾄｼｼﾓｷﾞｮｳｸ","kana_address":"ﾆｼｼﾁｼﾞｮｳｵﾝﾏｴﾀﾞﾁｮｳ","pref":"京都府","city":"京都市下京区","address":"西七条御前田町"},
{"zip_code":"6008881","kana_pref":"ｷｮｳﾄﾌ","kana_city":"ｷｮｳﾄｼｼﾓｷﾞｮｳｸ","kana_address":"ﾆｼｼﾁｼﾞｮｳｶｹｺﾞｼﾁｮｳ","pref":"京都府","city":"京都市下京区","address":"西七条掛越町"},
{"zip_code":"6008883","kana_pref":"ｷｮｳﾄﾌ","kana_city":"ｷｮｳﾄｼｼﾓｷﾞｮｳｸ","kana_address":"ﾆｼｼﾁｼﾞｮｳｷﾀｷﾇﾀﾁｮｳ","pref":"京都府","city":"京都市下京区","address":"西七条北衣田町"},
{"zip_code":"6008886","kana_pref":"ｷｮｳﾄﾌ","kana_city":"ｷｮｳﾄｼｼﾓｷﾞｮｳｸ","kana_address":"ﾆｼｼﾁｼﾞｮｳｷﾀﾂｷﾖﾐﾁｮｳ","pref":"京都府","city":"京都市下京区","address":"西七条北月読町"},
{"zip_code":"6008878","kana_pref":"ｷｮｳﾄﾌ","kana_city":"ｷｮｳﾄｼｼﾓｷﾞｮｳｸ","kana_address":"ﾆｼｼﾁｼﾞｮｳｷﾀﾆｼﾉﾁｮｳ","pref":"京都府","city":"京都市下京区","address":"西七条北西野町"},
{"zip_code":"6008871","kana_pref":"ｷｮｳﾄﾌ","kana_city":"ｷｮｳﾄｼｼﾓｷﾞｮｳｸ","kana_address":"ﾆｼｼﾁｼﾞｮｳｷﾀﾋｶﾞｼﾉﾁｮｳ","pref":"京都府","city":"京都市下京区","address":"西七条北東野町"},
{"zip_code":"6008893","kana_pref":"ｷｮｳﾄﾌ","kana_city":"ｷｮｳﾄｼｼﾓｷﾞｮｳｸ","kana_address":"ﾆｼｼﾁｼﾞｮｳｺﾞﾘｮｳﾁｮｳ","pref":"京都府","city":"京都市下京区","address":"西七条御領町"},
{"zip_code":"6008879","kana_pref":"ｷｮｳﾄﾌ","kana_city":"ｷｮｳﾄｼｼﾓｷﾞｮｳｸ","kana_address":"ﾆｼｼﾁｼﾞｮｳﾅｶﾉﾁｮｳ","pref":"京都府","city":"京都市下京区","address":"西七条中野町"},
{"zip_code":"6008887","kana_pref":"ｷｮｳﾄﾌ","kana_city":"ｷｮｳﾄｼｼﾓｷﾞｮｳｸ","kana_address":"ﾆｼｼﾁｼﾞｮｳﾅｸﾗﾁｮｳ","pref":"京都府","city":"京都市下京区","address":"西七条名倉町"},
{"zip_code":"6008896","kana_pref":"ｷｮｳﾄﾌ","kana_city":"ｷｮｳﾄｼｼﾓｷﾞｮｳｸ","kana_address":"ﾆｼｼﾁｼﾞｮｳﾆｼｲｼｶﾞﾂﾎﾞﾁｮｳ","pref":"京都府","city":"京都市下京区","address":"西七条西石ケ坪町"},
{"zip_code":"6008874","kana_pref":"ｷｮｳﾄﾌ","kana_city":"ｷｮｳﾄｼｼﾓｷﾞｮｳｸ","kana_address":"ﾆｼｼﾁｼﾞｮｳﾆｼｸﾎﾞﾁｮｳ","pref":"京都府","city":"京都市下京区","address":"西七条西久保町"},
{"zip_code":"6008892","kana_pref":"ｷｮｳﾄﾌ","kana_city":"ｷｮｳﾄｼｼﾓｷﾞｮｳｸ","kana_address":"ﾆｼｼﾁｼﾞｮｳﾆｼﾊｯﾀﾝﾀﾞﾁｮｳ","pref":"京都府","city":"京都市下京区","address":"西七条西八反田町"},
{"zip_code":"6008895","kana_pref":"ｷｮｳﾄﾌ","kana_city":"ｷｮｳﾄｼｼﾓｷﾞｮｳｸ","kana_address":"ﾆｼｼﾁｼﾞｮｳﾋｶﾞｼｲｼｶﾞﾂﾎﾞﾁｮｳ","pref":"京都府","city":"京都市下京区","address":"西七条東石ケ坪町"},
{"zip_code":"6008898","kana_pref":"ｷｮｳﾄﾌ","kana_city":"ｷｮｳﾄｼｼﾓｷﾞｮｳｸ","kana_address":"ﾆｼｼﾁｼﾞｮｳﾋｶﾞｼｵﾝﾏｴﾀﾞﾁｮｳ","pref":"京都府","city":"京都市下京区","address":"西七条東御前田町"},
{"zip_code":"6008873","kana_pref":"ｷｮｳﾄﾌ","kana_city":"ｷｮｳﾄｼｼﾓｷﾞｮｳｸ","kana_address":"ﾆｼｼﾁｼﾞｮｳﾋｶﾞｼｸﾎﾞﾁｮｳ","pref":"京都府","city":"京都市下京区","address":"西七条東久保町"},
{"zip_code":"6008891","kana_pref":"ｷｮｳﾄﾌ","kana_city":"ｷｮｳﾄｼｼﾓｷﾞｮｳｸ","kana_address":"ﾆｼｼﾁｼﾞｮｳﾋｶﾞｼﾊｯﾀﾝﾀﾞﾁｮｳ","pref":"京都府","city":"京都市下京区","address":"西七条東八反田町"},
{"zip_code":"6008882","kana_pref":"ｷｮｳﾄﾌ","kana_city":"ｷｮｳﾄｼｼﾓｷﾞｮｳｸ","kana_address":"ﾆｼｼﾁｼﾞｮｳﾋﾜﾀﾞﾁｮｳ","pref":"京都府","city":"京都市下京区","address":"西七条比輪田町"},
{"zip_code":"6008884","kana_pref":"ｷｮｳﾄﾌ","kana_city":"ｷｮｳﾄｼｼﾓｷﾞｮｳｸ","kana_address":"ﾆｼｼﾁｼﾞｮｳﾐﾅﾐｷﾇﾀﾁｮｳ","pref":"京都府","city":"京都市下京区","address":"西七条南衣田町"},
{"zip_code":"6008885","kana_pref":"ｷｮｳﾄﾌ","kana_city":"ｷｮｳﾄｼｼﾓｷﾞｮｳｸ","kana_address":"ﾆｼｼﾁｼﾞｮｳﾐﾅﾐﾂｷﾖﾐﾁｮｳ","pref":"京都府","city":"京都市下京区","address":"西七条南月読町"},
{"zip_code":"6008876","kana_pref":"ｷｮｳﾄﾌ","kana_city":"ｷｮｳﾄｼｼﾓｷﾞｮｳｸ","kana_address":"ﾆｼｼﾁｼﾞｮｳﾐﾅﾐﾅｶﾉﾁｮｳ","pref":"京都府","city":"京都市下京区","address":"西七条南中野町"},
{"zip_code":"6008877","kana_pref":"ｷｮｳﾄﾌ","kana_city":"ｷｮｳﾄｼｼﾓｷﾞｮｳｸ","kana_address":"ﾆｼｼﾁｼﾞｮｳﾐﾅﾐﾆｼﾉﾁｮｳ","pref":"京都府","city":"京都市下京区","address":"西七条南西野町"},
{"zip_code":"6008872","kana_pref":"ｷｮｳﾄﾌ","kana_city":"ｷｮｳﾄｼｼﾓｷﾞｮｳｸ","kana_address":"ﾆｼｼﾁｼﾞｮｳﾐﾅﾐﾋｶﾞｼﾉﾁｮｳ","pref":"京都府","city":"京都市下京区","address":"西七条南東野町"},
{"zip_code":"6008888","kana_pref":"ｷｮｳﾄﾌ","kana_city":"ｷｮｳﾄｼｼﾓｷﾞｮｳｸ","kana_address":"ﾆｼｼﾁｼﾞｮｳﾔﾜﾀﾁｮｳ","pref":"京都府","city":"京都市下京区","address":"西七条八幡町"},
{"zip_code":"6008828","kana_pref":"ｷｮｳﾄﾌ","kana_city":"ｷｮｳﾄｼｼﾓｷﾞｮｳｸ","kana_address":"ﾆｼｼﾝﾔｼｷｱｹﾞﾔﾁｮｳ","pref":"京都府","city":"京都市下京区","address":"西新屋敷揚屋町"},
{"zip_code":"6008826","kana_pref":"ｷｮｳﾄﾌ","kana_city":"ｷｮｳﾄｼｼﾓｷﾞｮｳｸ","kana_address":"ﾆｼｼﾝﾔｼｷｶﾐﾉﾁｮｳ","pref":"京都府","city":"京都市下京区","address":"西新屋敷上之町"},
{"zip_code":"6008829","kana_pref":"ｷｮｳﾄﾌ","kana_city":"ｷｮｳﾄｼｼﾓｷﾞｮｳｸ","kana_address":"ﾆｼｼﾝﾔｼｷｼﾓﾉﾁｮｳ","pref":"京都府","city":"京都市下京区","address":"西新屋敷下之町"},
{"zip_code":"6008827","kana_pref":"ｷｮｳﾄﾌ","kana_city":"ｷｮｳﾄｼｼﾓｷﾞｮｳｸ","kana_address":"ﾆｼｼﾝﾔｼｷﾀﾕｳﾁｮｳ","pref":"京都府","city":"京都市下京区","address":"西新屋敷太夫町"},
{"zip_code":"6008816","kana_pref":"ｷｮｳﾄﾌ","kana_city":"ｷｮｳﾄｼｼﾓｷﾞｮｳｸ","kana_address":"ﾆｼｼﾝﾔｼｷﾁｭｳﾄﾞｳｼﾞﾁｮｳ","pref":"京都府","city":"京都市下京区","address":"西新屋敷中堂寺町"},
{"zip_code":"6008825","kana_pref":"ｷｮｳﾄﾌ","kana_city":"ｷｮｳﾄｼｼﾓｷﾞｮｳｸ","kana_address":"ﾆｼｼﾝﾔｼｷﾅｶﾉﾁｮｳ","pref":"京都府","city":"京都市下京区","address":"西新屋敷中之町"},
{"zip_code":"6008833","kana_pref":"ｷｮｳﾄﾌ","kana_city":"ｷｮｳﾄｼｼﾓｷﾞｮｳｸ","kana_address":"ﾆｼｽﾔﾁｮｳ","pref":"京都府","city":"京都市下京区","address":"西酢屋町"},
{"zip_code":"6008484","kana_pref":"ｷｮｳﾄﾌ","kana_city":"ｷｮｳﾄｼｼﾓｷﾞｮｳｸ","kana_address":"ﾆｼﾀｶﾂｼﾞﾁｮｳ","pref":"京都府","city":"京都市下京区","address":"西高辻町"},
{"zip_code":"6008397","kana_pref":"ｷｮｳﾄﾌ","kana_city":"ｷｮｳﾄｼｼﾓｷﾞｮｳｸ","kana_address":"ﾆｼﾀﾞﾁｮｳ","pref":"京都府","city":"京都市下京区","address":"西田町"},
{"zip_code":"6008155","kana_pref":"ｷｮｳﾄﾌ","kana_city":"ｷｮｳﾄｼｼﾓｷﾞｮｳｸ","kana_address":"ﾆｼﾀﾏﾐｽﾞﾁｮｳ","pref":"京都府","city":"京都市下京区","address":"西玉水町"},
{"zip_code":"6008205","kana_pref":"ｷｮｳﾄﾌ","kana_city":"ｷｮｳﾄｼｼﾓｷﾞｮｳｸ","kana_address":"ﾆｼﾉﾁｮｳ","pref":"京都府","city":"京都市下京区","address":"西之町"},
{"zip_code":"6008327","kana_pref":"ｷｮｳﾄﾌ","kana_city":"ｷｮｳﾄｼｼﾓｷﾞｮｳｸ","kana_address":"ﾆｼﾉﾄｳｲﾝﾁｮｳ","pref":"京都府","city":"京都市下京区","address":"西洞院町"},
{"zip_code":"6008029","kana_pref":"ｷｮｳﾄﾌ","kana_city":"ｷｮｳﾄｼｼﾓｷﾞｮｳｸ","kana_address":"ﾆｼﾊｼﾂﾞﾒﾁｮｳ","pref":"京都府","city":"京都市下京区","address":"西橋詰町"},
{"zip_code":"6008083","kana_pref":"ｷｮｳﾄﾌ","kana_city":"ｷｮｳﾄｼｼﾓｷﾞｮｳｸ","kana_address":"ﾆｼﾏｴﾁｮｳ","pref":"京都府","city":"京都市下京区","address":"西前町"},
{"zip_code":"6008326","kana_pref":"ｷｮｳﾄﾌ","kana_city":"ｷｮｳﾄｼｼﾓｷﾞｮｳｸ","kana_address":"ﾆｼﾏﾂﾔﾁｮｳ","pref":"京都府","city":"京都市下京区","address":"西松屋町"},
{"zip_code":"6008371","kana_pref":"ｷｮｳﾄﾌ","kana_city":"ｷｮｳﾄｼｼﾓｷﾞｮｳｸ","kana_address":"ﾆｼﾓﾝｾﾞﾝﾁｮｳ","pref":"京都府","city":"京都市下京区","address":"西門前町"},
{"zip_code":"6008269","kana_pref":"ｷｮｳﾄﾌ","kana_city":"ｷｮｳﾄｼｼﾓｷﾞｮｳｸ","kana_address":"ﾆｼﾔｵﾔﾁｮｳ","pref":"京都府","city":"京都市下京区","address":"西八百屋町"},
{"zip_code":"6008153","kana_pref":"ｷｮｳﾄﾌ","kana_city":"ｷｮｳﾄｼｼﾓｷﾞｮｳｸ","kana_address":"ﾆｼﾞｭｳﾆﾝｺｳﾁｮｳ","pref":"京都府","city":"京都市下京区","address":"廿人講町"},
{"zip_code":"6008412","kana_pref":"ｷｮｳﾄﾌ","kana_city":"ｷｮｳﾄｼｼﾓｷﾞｮｳｸ","kana_address":"ﾆｼﾞｮｳﾊﾝｼﾞｷﾁｮｳ","pref":"京都府","city":"京都市下京区","address":"二帖半敷町"},
{"zip_code":"6008334","kana_pref":"ｷｮｳﾄﾌ","kana_city":"ｷｮｳﾄｼｼﾓｷﾞｮｳｸ","kana_address":"ﾆｼﾜｶﾏﾂﾁｮｳ","pref":"京都府","city":"京都市下京区","address":"西若松町"},
{"zip_code":"6008824","kana_pref":"ｷｮｳﾄﾌ","kana_city":"ｷｮｳﾄｼｼﾓｷﾞｮｳｸ","kana_address":"ﾆﾆﾝﾂｶｻﾁｮｳ","pref":"京都府","city":"京都市下京区","address":"二人司町"},
{"zip_code":"6008491","kana_pref":"ｷｮｳﾄﾌ","kana_city":"ｷｮｳﾄｼｼﾓｷﾞｮｳｸ","kana_address":"ﾆﾜﾄﾘﾎﾞｺﾁｮｳ","pref":"京都府","city":"京都市下京区","address":"鶏鉾町"},
{"zip_code":"6008053","kana_pref":"ｷｮｳﾄﾌ","kana_city":"ｷｮｳﾄｼｼﾓｷﾞｮｳｸ","kana_address":"ﾇｼﾔﾁｮｳ","pref":"京都府","city":"京都市下京区","address":"塗師屋町"},
{"zip_code":"6008182","kana_pref":"ｷｮｳﾄﾌ","kana_city":"ｷｮｳﾄｼｼﾓｷﾞｮｳｸ","kana_address":"ﾇｼﾔﾁｮｳ","pref":"京都府","city":"京都市下京区","address":"塗師屋町（間之町通五条下る"},
{"zip_code":"6008182","kana_pref":"ｷｮｳﾄﾌ","kana_city":"ｷｮｳﾄｼｼﾓｷﾞｮｳｸ","kana_address":"ﾇｼﾔﾁｮｳ","pref":"京都府","city":"京都市下京区","address":"間之町通五条下る２丁目"},
{"zip_code":"6008182","kana_pref":"ｷｮｳﾄﾌ","kana_city":"ｷｮｳﾄｼｼﾓｷﾞｮｳｸ","kana_address":"ﾇｼﾔﾁｮｳ","pref":"京都府","city":"京都市下京区","address":"間之町"},
{"zip_code":"6008182","kana_pref":"ｷｮｳﾄﾌ","kana_city":"ｷｮｳﾄｼｼﾓｷﾞｮｳｸ","kana_address":"ﾇｼﾔﾁｮｳ","pref":"京都府","city":"京都市下京区","address":"六条上る"},
{"zip_code":"6008182","kana_pref":"ｷｮｳﾄﾌ","kana_city":"ｷｮｳﾄｼｼﾓｷﾞｮｳｸ","kana_address":"ﾇｼﾔﾁｮｳ","pref":"京都府","city":"京都市下京区","address":"下坂通間之町西入"},
{"zip_code":"6008182","kana_pref":"ｷｮｳﾄﾌ","kana_city":"ｷｮｳﾄｼｼﾓｷﾞｮｳｸ","kana_address":"ﾇｼﾔﾁｮｳ","pref":"京都府","city":"京都市下京区","address":"下坂通間之町東入"},
{"zip_code":"6008182","kana_pref":"ｷｮｳﾄﾌ","kana_city":"ｷｮｳﾄｼｼﾓｷﾞｮｳｸ","kana_address":"ﾇｼﾔﾁｮｳ","pref":"京都府","city":"京都市下京区","address":"六条通間之町西入"},
{"zip_code":"6008182","kana_pref":"ｷｮｳﾄﾌ","kana_city":"ｷｮｳﾄｼｼﾓｷﾞｮｳｸ","kana_address":"ﾇｼﾔﾁｮｳ","pref":"京都府","city":"京都市下京区","address":"六条"},
{"zip_code":"6008182","kana_pref":"ｷｮｳﾄﾌ","kana_city":"ｷｮｳﾄｼｼﾓｷﾞｮｳｸ","kana_address":"ﾇｼﾔﾁｮｳ","pref":"京都府","city":"京都市下京区","address":"通間之町東入"},
{"zip_code":"6008182","kana_pref":"ｷｮｳﾄﾌ","kana_city":"ｷｮｳﾄｼｼﾓｷﾞｮｳｸ","kana_address":"ﾇｼﾔﾁｮｳ","pref":"京都府","city":"京都市下京区","address":"六条通高倉西入"},
{"zip_code":"6008182","kana_pref":"ｷｮｳﾄﾌ","kana_city":"ｷｮｳﾄｼｼﾓｷﾞｮｳｸ","kana_address":"ﾇｼﾔﾁｮｳ","pref":"京都府","city":"京都市下京区","address":"六条通東洞院東入）"},
{"zip_code":"6008454","kana_pref":"ｷｮｳﾄﾌ","kana_city":"ｷｮｳﾄｼｼﾓｷﾞｮｳｸ","kana_address":"ﾇﾉﾔﾁｮｳ","pref":"京都府","city":"京都市下京区","address":"布屋町"},
{"zip_code":"6008422","kana_pref":"ｷｮｳﾄﾌ","kana_city":"ｷｮｳﾄｼｼﾓｷﾞｮｳｸ","kana_address":"ﾊｸﾗｸﾃﾝﾁｮｳ","pref":"京都府","city":"京都市下京区","address":"白楽天町"},
{"zip_code":"6008489","kana_pref":"ｷｮｳﾄﾌ","kana_city":"ｷｮｳﾄｼｼﾓｷﾞｮｳｸ","kana_address":"ﾊｼﾀﾁﾊﾞﾅﾁｮｳ","pref":"京都府","city":"京都市下京区","address":"橋橘町"},
{"zip_code":"6008187","kana_pref":"ｷｮｳﾄﾌ","kana_city":"ｷｮｳﾄｼｼﾓｷﾞｮｳｸ","kana_address":"ﾊｼﾂﾞﾒﾁｮｳ","pref":"京都府","city":"京都市下京区","address":"橋詰町"},
{"zip_code":"6008113","kana_pref":"ｷｮｳﾄﾌ","kana_city":"ｷｮｳﾄｼｼﾓｷﾞｮｳｸ","kana_address":"ﾊｼﾄﾞﾉﾁｮｳ","pref":"京都府","city":"京都市下京区","address":"波止土濃町"},
{"zip_code":"6008011","kana_pref":"ｷｮｳﾄﾌ","kana_city":"ｷｮｳﾄｼｼﾓｷﾞｮｳｸ","kana_address":"ﾊｼﾓﾄﾁｮｳ","pref":"京都府","city":"京都市下京区","address":"橋本町"},
{"zip_code":"6008139","kana_pref":"ｷｮｳﾄﾌ","kana_city":"ｷｮｳﾄｼｼﾓｷﾞｮｳｸ","kana_address":"ﾊﾁｵｳｼﾞﾁｮｳ","pref":"京都府","city":"京都市下京区","address":"八王子町"},
{"zip_code":"6008196","kana_pref":"ｷｮｳﾄﾌ","kana_city":"ｷｮｳﾄｼｼﾓｷﾞｮｳｸ","kana_address":"ﾊﾁｹﾝﾁｮｳ","pref":"京都府","city":"京都市下京区","address":"八軒町"},
{"zip_code":"6008247","kana_pref":"ｷｮｳﾄﾌ","kana_city":"ｷｮｳﾄｼｼﾓｷﾞｮｳｸ","kana_address":"ﾊﾁｼﾞｮｳﾎﾞｳﾓﾝﾁｮｳ","pref":"京都府","city":"京都市下京区","address":"八条坊門町"},
{"zip_code":"6008836","kana_pref":"ｷｮｳﾄﾌ","kana_city":"ｷｮｳﾄｼｼﾓｷﾞｮｳｸ","kana_address":"ﾊﾁｼﾞｮｳﾎﾞｳﾓﾝﾁｮｳ","pref":"京都府","city":"京都市下京区","address":"八条坊門町"},
{"zip_code":"6008041","kana_pref":"ｷｮｳﾄﾌ","kana_city":"ｷｮｳﾄｼｼﾓｷﾞｮｳｸ","kana_address":"ﾊﾁﾓﾝｼﾞﾁｮｳ","pref":"京都府","city":"京都市下京区","address":"八文字町"},
{"zip_code":"6008261","kana_pref":"ｷｮｳﾄﾌ","kana_city":"ｷｮｳﾄｼｼﾓｷﾞｮｳｸ","kana_address":"ﾊﾅｿﾞﾉﾁｮｳ","pref":"京都府","city":"京都市下京区","address":"花園町"},
{"zip_code":"6008831","kana_pref":"ｷｮｳﾄﾌ","kana_city":"ｷｮｳﾄｼｼﾓｷﾞｮｳｸ","kana_address":"ﾊﾅﾊﾞﾀｹﾁｮｳ","pref":"京都府","city":"京都市下京区","address":"花畑町"},
{"zip_code":"6008185","kana_pref":"ｷｮｳﾄﾌ","kana_city":"ｷｮｳﾄｼｼﾓｷﾞｮｳｸ","kana_address":"ﾊﾅﾔﾁｮｳ","pref":"京都府","city":"京都市下京区","address":"花屋町"},
{"zip_code":"6008340","kana_pref":"ｷｮｳﾄﾌ","kana_city":"ｷｮｳﾄｼｼﾓｷﾞｮｳｸ","kana_address":"ﾊﾅﾔﾁｮｳ","pref":"京都府","city":"京都市下京区","address":"花屋町"},
{"zip_code":"6008114","kana_pref":"ｷｮｳﾄﾌ","kana_city":"ｷｮｳﾄｼｼﾓｷﾞｮｳｸ","kana_address":"ﾊﾔｵﾁｮｳ","pref":"京都府","city":"京都市下京区","address":"早尾町"},
{"zip_code":"6008433","kana_pref":"ｷｮｳﾄﾌ","kana_city":"ｷｮｳﾄｼｼﾓｷﾞｮｳｸ","kana_address":"ﾊﾝｼﾞｮｳﾁｮｳ","pref":"京都府","city":"京都市下京区","address":"繁昌町"},
{"zip_code":"6008439","kana_pref":"ｷｮｳﾄﾌ","kana_city":"ｷｮｳﾄｼｼﾓｷﾞｮｳｸ","kana_address":"ﾊﾞﾝﾄｳﾔﾁｮｳ","pref":"京都府","city":"京都市下京区","address":"坂東屋町"},
{"zip_code":"6008235","kana_pref":"ｷｮｳﾄﾌ","kana_city":"ｷｮｳﾄｼｼﾓｷﾞｮｳｸ","kana_address":"ﾋｶﾞｼｱﾌﾞﾗﾉｺｳｼﾞﾁｮｳ","pref":"京都府","city":"京都市下京区","address":"東油小路町"},
{"zip_code":"6008169","kana_pref":"ｷｮｳﾄﾌ","kana_city":"ｷｮｳﾄｼｼﾓｷﾞｮｳｸ","kana_address":"ﾋｶﾞｼｳｵﾔﾁｮｳ","pref":"京都府","city":"京都市下京区","address":"東魚屋町"},
{"zip_code":"6008107","kana_pref":"ｷｮｳﾄﾌ","kana_city":"ｷｮｳﾄｼｼﾓｷﾞｮｳｸ","kana_address":"ﾋｶﾞｼｶｻﾞﾘﾔﾁｮｳ","pref":"京都府","city":"京都市下京区","address":"東錺屋町"},
{"zip_code":"6008324","kana_pref":"ｷｮｳﾄﾌ","kana_city":"ｷｮｳﾄｼｼﾓｷﾞｮｳｸ","kana_address":"ﾋｶﾞｼｶﾞﾜﾁｮｳ","pref":"京都府","city":"京都市下京区","address":"東側町"},
{"zip_code":"6008217","kana_pref":"ｷｮｳﾄﾌ","kana_city":"ｷｮｳﾄｼｼﾓｷﾞｮｳｸ","kana_address":"ﾋｶﾞｼｻｶｲﾁｮｳ","pref":"京都府","city":"京都市下京区","address":"東境町"},
{"zip_code":"6008215","kana_pref":"ｷｮｳﾄﾌ","kana_city":"ｷｮｳﾄｼｼﾓｷﾞｮｳｸ","kana_address":"ﾋｶﾞｼｼｵｺｳｼﾞｶﾏﾄﾞﾉﾁｮｳ","pref":"京都府","city":"京都市下京区","address":"東塩小路釜殿町"},
{"zip_code":"6008214","kana_pref":"ｷｮｳﾄﾌ","kana_city":"ｷｮｳﾄｼｼﾓｷﾞｮｳｸ","kana_address":"ﾋｶﾞｼｼｵｺｳｼﾞﾀｶｸﾗﾁｮｳ","pref":"京都府","city":"京都市下京区","address":"東塩小路高倉町"},
{"zip_code":"6008213","kana_pref":"ｷｮｳﾄﾌ","kana_city":"ｷｮｳﾄｼｼﾓｷﾞｮｳｸ","kana_address":"ﾋｶﾞｼｼｵｺｳｼﾞﾑｶｲﾊﾀﾁｮｳ","pref":"京都府","city":"京都市下京区","address":"東塩小路向畑町"},
{"zip_code":"6008216","kana_pref":"ｷｮｳﾄﾌ","kana_city":"ｷｮｳﾄｼｼﾓｷﾞｮｳｸ","kana_address":"ﾋｶﾞｼｼｵｺｳｼﾞﾁｮｳ","pref":"京都府","city":"京都市下京区","address":"東塩小路町"},
{"zip_code":"6008225","kana_pref":"ｷｮｳﾄﾌ","kana_city":"ｷｮｳﾄｼｼﾓｷﾞｮｳｸ","kana_address":"ﾋｶﾞｼﾀﾞｲｸﾁｮｳ","pref":"京都府","city":"京都市下京区","address":"東大工町"},
{"zip_code":"6008190","kana_pref":"ｷｮｳﾄﾌ","kana_city":"ｷｮｳﾄｼｼﾓｷﾞｮｳｸ","kana_address":"ﾋｶﾞｼﾀﾏﾐｽﾞﾁｮｳ","pref":"京都府","city":"京都市下京区","address":"東玉水町"},
{"zip_code":"6008224","kana_pref":"ｷｮｳﾄﾌ","kana_city":"ｷｮｳﾄｼｼﾓｷﾞｮｳｸ","kana_address":"ﾋｶﾞｼﾁｮｳ","pref":"京都府","city":"京都市下京区","address":"東町"},
{"zip_code":"6008204","kana_pref":"ｷｮｳﾄﾌ","kana_city":"ｷｮｳﾄｼｼﾓｷﾞｮｳｸ","kana_address":"ﾋｶﾞｼﾉﾁｮｳ","pref":"京都府","city":"京都市下京区","address":"東之町"},
{"zip_code":"6008074","kana_pref":"ｷｮｳﾄﾌ","kana_city":"ｷｮｳﾄｼｼﾓｷﾞｮｳｸ","kana_address":"ﾋｶﾞｼﾏｴﾁｮｳ","pref":"京都府","city":"京都市下京区","address":"東前町"},
{"zip_code":"6008315","kana_pref":"ｷｮｳﾄﾌ","kana_city":"ｷｮｳﾄｼｼﾓｷﾞｮｳｸ","kana_address":"ﾋｶﾞｼﾏﾂﾔﾁｮｳ","pref":"京都府","city":"京都市下京区","address":"東松屋町"},
{"zip_code":"6008305","kana_pref":"ｷｮｳﾄﾌ","kana_city":"ｷｮｳﾄｼｼﾓｷﾞｮｳｸ","kana_address":"ﾋｶﾞｼﾜｶﾏﾂﾁｮｳ","pref":"京都府","city":"京都市下京区","address":"東若松町"},
{"zip_code":"6008458","kana_pref":"ｷｮｳﾄﾌ","kana_city":"ｷｮｳﾄｼｼﾓｷﾞｮｳｸ","kana_address":"ﾋｸﾞﾁﾁｮｳ","pref":"京都府","city":"京都市下京区","address":"樋口町"},
{"zip_code":"6008227","kana_pref":"ｷｮｳﾄﾌ","kana_city":"ｷｮｳﾄｼｼﾓｷﾞｮｳｸ","kana_address":"ﾋｼﾔﾁｮｳ","pref":"京都府","city":"京都市下京区","address":"菱屋町"},
{"zip_code":"6008311","kana_pref":"ｷｮｳﾄﾌ","kana_city":"ｷｮｳﾄｼｼﾓｷﾞｮｳｸ","kana_address":"ﾋﾞｼｬﾓﾝﾁｮｳ","pref":"京都府","city":"京都市下京区","address":"毘沙門町"},
{"zip_code":"6008087","kana_pref":"ｷｮｳﾄﾌ","kana_city":"ｷｮｳﾄｼｼﾓｷﾞｮｳｸ","kana_address":"ﾋﾉｼﾀﾁｮｳ","pref":"京都府","city":"京都市下京区","address":"樋之下町"},
{"zip_code":"6008118","kana_pref":"ｷｮｳﾄﾌ","kana_city":"ｷｮｳﾄｼｼﾓｷﾞｮｳｸ","kana_address":"ﾋﾗｲﾁｮｳ","pref":"京都府","city":"京都市下京区","address":"平居町"},
{"zip_code":"6008122","kana_pref":"ｷｮｳﾄﾌ","kana_city":"ｷｮｳﾄｼｼﾓｷﾞｮｳｸ","kana_address":"ﾋﾗｵｶﾁｮｳ","pref":"京都府","city":"京都市下京区","address":"平岡町"},
{"zip_code":"6008306","kana_pref":"ｷｮｳﾄﾌ","kana_city":"ｷｮｳﾄｼｼﾓｷﾞｮｳｸ","kana_address":"ﾋﾗﾉﾁｮｳ","pref":"京都府","city":"京都市下京区","address":"平野町"},
{"zip_code":"6008109","kana_pref":"ｷｮｳﾄﾌ","kana_city":"ｷｮｳﾄｼｼﾓｷﾞｮｳｸ","kana_address":"ﾋﾗﾔﾁｮｳ","pref":"京都府","city":"京都市下京区","address":"平屋町"},
{"zip_code":"6008408","kana_pref":"ｷｮｳﾄﾌ","kana_city":"ｷｮｳﾄｼｼﾓｷﾞｮｳｸ","kana_address":"ﾌｶｸｻﾁｮｳ","pref":"京都府","city":"京都市下京区","address":"深草町"},
{"zip_code":"6008189","kana_pref":"ｷｮｳﾄﾌ","kana_city":"ｷｮｳﾄｼｼﾓｷﾞｮｳｸ","kana_address":"ﾌｸｼﾏﾁｮｳ","pref":"京都府","city":"京都市下京区","address":"福島町"},
{"zip_code":"6008404","kana_pref":"ｷｮｳﾄﾌ","kana_city":"ｷｮｳﾄｼｼﾓｷﾞｮｳｸ","kana_address":"ﾌｸﾃﾞﾝｼﾞﾁｮｳ","pref":"京都府","city":"京都市下京区","address":"福田寺町"},
{"zip_code":"6008320","kana_pref":"ｷｮｳﾄﾌ","kana_city":"ｷｮｳﾄｼｼﾓｷﾞｮｳｸ","kana_address":"ﾌｸﾓﾄﾁｮｳ","pref":"京都府","city":"京都市下京区","address":"福本町"},
{"zip_code":"6008495","kana_pref":"ｷｮｳﾄﾌ","kana_city":"ｷｮｳﾄｼｼﾓｷﾞｮｳｸ","kana_address":"ﾌｼﾞﾓﾄﾖﾘﾁｮｳ","pref":"京都府","city":"京都市下京区","address":"藤本寄町"},
{"zip_code":"6008173","kana_pref":"ｷｮｳﾄﾌ","kana_city":"ｷｮｳﾄｼｼﾓｷﾞｮｳｸ","kana_address":"ﾌﾞﾂｸﾞﾔﾁｮｳ","pref":"京都府","city":"京都市下京区","address":"仏具屋町（不明門通五条下る２丁目"},
{"zip_code":"6008173","kana_pref":"ｷｮｳﾄﾌ","kana_city":"ｷｮｳﾄｼｼﾓｷﾞｮｳｸ","kana_address":"ﾌﾞﾂｸﾞﾔﾁｮｳ","pref":"京都府","city":"京都市下京区","address":"不明門通花屋町上る"},
{"zip_code":"6008173","kana_pref":"ｷｮｳﾄﾌ","kana_city":"ｷｮｳﾄｼｼﾓｷﾞｮｳｸ","kana_address":"ﾌﾞﾂｸﾞﾔﾁｮｳ","pref":"京都府","city":"京都市下京区","address":"不明門通"},
{"zip_code":"6008173","kana_pref":"ｷｮｳﾄﾌ","kana_city":"ｷｮｳﾄｼｼﾓｷﾞｮｳｸ","kana_address":"ﾌﾞﾂｸﾞﾔﾁｮｳ","pref":"京都府","city":"京都市下京区","address":"六条上る"},
{"zip_code":"6008173","kana_pref":"ｷｮｳﾄﾌ","kana_city":"ｷｮｳﾄｼｼﾓｷﾞｮｳｸ","kana_address":"ﾌﾞﾂｸﾞﾔﾁｮｳ","pref":"京都府","city":"京都市下京区","address":"不明門通六条下る"},
{"zip_code":"6008173","kana_pref":"ｷｮｳﾄﾌ","kana_city":"ｷｮｳﾄｼｼﾓｷﾞｮｳｸ","kana_address":"ﾌﾞﾂｸﾞﾔﾁｮｳ","pref":"京都府","city":"京都市下京区","address":"花屋町通烏丸東入"},
{"zip_code":"6008173","kana_pref":"ｷｮｳﾄﾌ","kana_city":"ｷｮｳﾄｼｼﾓｷﾞｮｳｸ","kana_address":"ﾌﾞﾂｸﾞﾔﾁｮｳ","pref":"京都府","city":"京都市下京区","address":"花屋町通不明門西入"},
{"zip_code":"6008173","kana_pref":"ｷｮｳﾄﾌ","kana_city":"ｷｮｳﾄｼｼﾓｷﾞｮｳｸ","kana_address":"ﾌﾞﾂｸﾞﾔﾁｮｳ","pref":"京都府","city":"京都市下京区","address":"花"},
{"zip_code":"6008173","kana_pref":"ｷｮｳﾄﾌ","kana_city":"ｷｮｳﾄｼｼﾓｷﾞｮｳｸ","kana_address":"ﾌﾞﾂｸﾞﾔﾁｮｳ","pref":"京都府","city":"京都市下京区","address":"屋町通不明門東入"},
{"zip_code":"6008173","kana_pref":"ｷｮｳﾄﾌ","kana_city":"ｷｮｳﾄｼｼﾓｷﾞｮｳｸ","kana_address":"ﾌﾞﾂｸﾞﾔﾁｮｳ","pref":"京都府","city":"京都市下京区","address":"六条通不明門西入"},
{"zip_code":"6008173","kana_pref":"ｷｮｳﾄﾌ","kana_city":"ｷｮｳﾄｼｼﾓｷﾞｮｳｸ","kana_address":"ﾌﾞﾂｸﾞﾔﾁｮｳ","pref":"京都府","city":"京都市下京区","address":"六条通不明門東入"},
{"zip_code":"6008173","kana_pref":"ｷｮｳﾄﾌ","kana_city":"ｷｮｳﾄｼｼﾓｷﾞｮｳｸ","kana_address":"ﾌﾞﾂｸﾞﾔﾁｮｳ","pref":"京都府","city":"京都市下京区","address":"六条通烏丸東"},
{"zip_code":"6008173","kana_pref":"ｷｮｳﾄﾌ","kana_city":"ｷｮｳﾄｼｼﾓｷﾞｮｳｸ","kana_address":"ﾌﾞﾂｸﾞﾔﾁｮｳ","pref":"京都府","city":"京都市下京区","address":"入"},
{"zip_code":"6008173","kana_pref":"ｷｮｳﾄﾌ","kana_city":"ｷｮｳﾄｼｼﾓｷﾞｮｳｸ","kana_address":"ﾌﾞﾂｸﾞﾔﾁｮｳ","pref":"京都府","city":"京都市下京区","address":"六条通東洞院西入）"},
{"zip_code":"6008347","kana_pref":"ｷｮｳﾄﾌ","kana_city":"ｷｮｳﾄｼｼﾓｷﾞｮｳｸ","kana_address":"ﾌﾞﾂｸﾞﾔﾁｮｳ","pref":"京都府","city":"京都市下京区","address":"仏具屋町"},
{"zip_code":"6008094","kana_pref":"ｷｮｳﾄﾌ","kana_city":"ｷｮｳﾄｼｼﾓｷﾞｮｳｸ","kana_address":"ﾌﾞｯｺｳｼﾞﾆｼﾏﾁ","pref":"京都府","city":"京都市下京区","address":"仏光寺西町"},
{"zip_code":"6008054","kana_pref":"ｷｮｳﾄﾌ","kana_city":"ｷｮｳﾄｼｼﾓｷﾞｮｳｸ","kana_address":"ﾌﾞｯｺｳｼﾞﾋｶﾞｼﾏﾁ","pref":"京都府","city":"京都市下京区","address":"仏光寺東町"},
{"zip_code":"6008466","kana_pref":"ｷｮｳﾄﾌ","kana_city":"ｷｮｳﾄｼｼﾓｷﾞｮｳｸ","kana_address":"ﾌﾅﾔﾁｮｳ","pref":"京都府","city":"京都市下京区","address":"舟屋町"},
{"zip_code":"6008443","kana_pref":"ｷｮｳﾄﾌ","kana_city":"ｷｮｳﾄｼｼﾓｷﾞｮｳｸ","kana_address":"ﾌﾈﾎﾞｺﾁｮｳ","pref":"京都府","city":"京都市下京区","address":"船鉾町"},
{"zip_code":"6008467","kana_pref":"ｷｮｳﾄﾌ","kana_city":"ｷｮｳﾄｼｼﾓｷﾞｮｳｸ","kana_address":"ﾌﾓﾄﾁｮｳ","pref":"京都府","city":"京都市下京区","address":"麓町"},
{"zip_code":"6008245","kana_pref":"ｷｮｳﾄﾌ","kana_city":"ｷｮｳﾄｼｼﾓｷﾞｮｳｸ","kana_address":"ﾌﾙｵﾀﾋﾞﾁｮｳ","pref":"京都府","city":"京都市下京区","address":"古御旅町"},
{"zip_code":"6008428","kana_pref":"ｷｮｳﾄﾌ","kana_city":"ｷｮｳﾄｼｼﾓｷﾞｮｳｸ","kana_address":"ﾍﾞﾝｻﾞｲﾃﾝﾁｮｳ","pref":"京都府","city":"京都市下京区","address":"弁財天町"},
{"zip_code":"6008388","kana_pref":"ｷｮｳﾄﾌ","kana_city":"ｷｮｳﾄｼｼﾓｷﾞｮｳｸ","kana_address":"ﾎﾞｳﾓﾝﾁｮｳ","pref":"京都府","city":"京都市下京区","address":"坊門町"},
{"zip_code":"6008244","kana_pref":"ｷｮｳﾄﾌ","kana_city":"ｷｮｳﾄｼｼﾓｷﾞｮｳｸ","kana_address":"ﾎﾞｳﾓﾝﾅｶﾉﾁｮｳ","pref":"京都府","city":"京都市下京区","address":"坊門中之町"},
{"zip_code":"6008333","kana_pref":"ｷｮｳﾄﾌ","kana_city":"ｷｮｳﾄｼｼﾓｷﾞｮｳｸ","kana_address":"ﾎﾞｸﾐｶﾅﾌﾞﾂﾁｮｳ","pref":"京都府","city":"京都市下京区","address":"卜味金仏町"},
{"zip_code":"6008193","kana_pref":"ｷｮｳﾄﾌ","kana_city":"ｷｮｳﾄｼｼﾓｷﾞｮｳｸ","kana_address":"ﾎﾈﾔﾁｮｳ","pref":"京都府","city":"京都市下京区","address":"骨屋町"},
{"zip_code":"6008425","kana_pref":"ｷｮｳﾄﾌ","kana_city":"ｷｮｳﾄｼｼﾓｷﾞｮｳｸ","kana_address":"ﾎﾈﾔﾁｮｳ","pref":"京都府","city":"京都市下京区","address":"骨屋町"},
{"zip_code":"6008147","kana_pref":"ｷｮｳﾄﾌ","kana_city":"ｷｮｳﾄｼｼﾓｷﾞｮｳｸ","kana_address":"ﾎﾘﾂﾞﾒﾁｮｳ","pref":"京都府","city":"京都市下京区","address":"堀詰町"},
{"zip_code":"6008446","kana_pref":"ｷｮｳﾄﾌ","kana_city":"ｷｮｳﾄｼｼﾓｷﾞｮｳｸ","kana_address":"ﾎﾘﾉｳﾁﾁｮｳ","pref":"京都府","city":"京都市下京区","address":"堀之内町"},
{"zip_code":"6008361","kana_pref":"ｷｮｳﾄﾌ","kana_city":"ｷｮｳﾄｼｼﾓｷﾞｮｳｸ","kana_address":"ﾎﾘﾉｶﾞﾐﾁｮｳ","pref":"京都府","city":"京都市下京区","address":"堀之上町"},
{"zip_code":"6008102","kana_pref":"ｷｮｳﾄﾌ","kana_city":"ｷｮｳﾄｼｼﾓｷﾞｮｳｸ","kana_address":"ﾎﾝｶﾞｸｼﾞﾏｴﾁｮｳ","pref":"京都府","city":"京都市下京区","address":"本覚寺前町"},
{"zip_code":"6008086","kana_pref":"ｷｮｳﾄﾌ","kana_city":"ｷｮｳﾄｼｼﾓｷﾞｮｳｸ","kana_address":"ﾎﾝﾄｳﾛｳﾁｮｳ","pref":"京都府","city":"京都市下京区","address":"本燈籠町"},
{"zip_code":"6008462","kana_pref":"ｷｮｳﾄﾌ","kana_city":"ｷｮｳﾄｼｼﾓｷﾞｮｳｸ","kana_address":"ﾎﾝﾘｭｳｽｲﾁｮｳ","pref":"京都府","city":"京都市下京区","address":"本柳水町"},
{"zip_code":"6008211","kana_pref":"ｷｮｳﾄﾌ","kana_city":"ｷｮｳﾄｼｼﾓｷﾞｮｳｸ","kana_address":"ﾏｵﾔﾁｮｳ","pref":"京都府","city":"京都市下京区","address":"真苧屋町"},
{"zip_code":"6008046","kana_pref":"ｷｮｳﾄﾌ","kana_city":"ｷｮｳﾄｼｼﾓｷﾞｮｳｸ","kana_address":"ﾏｽﾔﾁｮｳ","pref":"京都府","city":"京都市下京区","address":"桝屋町"},
{"zip_code":"6008195","kana_pref":"ｷｮｳﾄﾌ","kana_city":"ｷｮｳﾄｼｼﾓｷﾞｮｳｸ","kana_address":"ﾏｽﾔﾁｮｳ","pref":"京都府","city":"京都市下京区","address":"升屋町"},
{"zip_code":"6008026","kana_pref":"ｷｮｳﾄﾌ","kana_city":"ｷｮｳﾄｼｼﾓｷﾞｮｳｸ","kana_address":"ﾏﾂｶﾜﾁｮｳ","pref":"京都府","city":"京都市下京区","address":"松川町"},
{"zip_code":"6008063","kana_pref":"ｷｮｳﾄﾌ","kana_city":"ｷｮｳﾄｼｼﾓｷﾞｮｳｸ","kana_address":"ﾏﾂﾊﾞﾗﾅｶﾉﾁｮｳ","pref":"京都府","city":"京都市下京区","address":"松原中之町"},
{"zip_code":"6008256","kana_pref":"ｷｮｳﾄﾌ","kana_city":"ｷｮｳﾄｼｼﾓｷﾞｮｳｸ","kana_address":"ﾏﾂﾓﾄﾁｮｳ","pref":"京都府","city":"京都市下京区","address":"松本町"},
{"zip_code":"6008390","kana_pref":"ｷｮｳﾄﾌ","kana_city":"ｷｮｳﾄｼｼﾓｷﾞｮｳｸ","kana_address":"ﾏﾂﾓﾄﾁｮｳ","pref":"京都府","city":"京都市下京区","address":"松本町"},
{"zip_code":"6008105","kana_pref":"ｷｮｳﾄﾌ","kana_city":"ｷｮｳﾄｼｼﾓｷﾞｮｳｸ","kana_address":"ﾏﾂﾔﾁｮｳ","pref":"京都府","city":"京都市下京区","address":"松屋町"},
{"zip_code":"6008075","kana_pref":"ｷｮｳﾄﾌ","kana_city":"ｷｮｳﾄｼｼﾓｷﾞｮｳｸ","kana_address":"ﾏﾘｺｳｼﾞﾁｮｳ","pref":"京都府","city":"京都市下京区","address":"万里小路町"},
{"zip_code":"6008037","kana_pref":"ｷｮｳﾄﾌ","kana_city":"ｷｮｳﾄｼｼﾓｷﾞｮｳｸ","kana_address":"ﾏﾙﾔﾁｮｳ","pref":"京都府","city":"京都市下京区","address":"丸屋町"},
{"zip_code":"6008359","kana_pref":"ｷｮｳﾄﾌ","kana_city":"ｷｮｳﾄｼｼﾓｷﾞｮｳｸ","kana_address":"ﾏﾙﾔﾁｮｳ","pref":"京都府","city":"京都市下京区","address":"丸屋町"},
{"zip_code":"6008399","kana_pref":"ｷｮｳﾄﾌ","kana_city":"ｷｮｳﾄｼｼﾓｷﾞｮｳｸ","kana_address":"ﾏﾙﾔﾁｮｳ","pref":"京都府","city":"京都市下京区","address":"丸屋町"},
{"zip_code":"6008104","kana_pref":"ｷｮｳﾄﾌ","kana_city":"ｷｮｳﾄｼｼﾓｷﾞｮｳｸ","kana_address":"ﾏﾝｼﾞｭｳｼﾞﾁｮｳ","pref":"京都府","city":"京都市下京区","address":"万寿寺町"},
{"zip_code":"6008405","kana_pref":"ｷｮｳﾄﾌ","kana_city":"ｷｮｳﾄｼｼﾓｷﾞｮｳｸ","kana_address":"ﾏﾝｼﾞｭｳｼﾞﾅｶﾉﾁｮｳ","pref":"京都府","city":"京都市下京区","address":"万寿寺中之町"},
{"zip_code":"6008101","kana_pref":"ｷｮｳﾄﾌ","kana_city":"ｷｮｳﾄｼｼﾓｷﾞｮｳｸ","kana_address":"ﾐｴｲﾄﾞｳﾁｮｳ","pref":"京都府","city":"京都市下京区","address":"御影堂町"},
{"zip_code":"6008447","kana_pref":"ｷｮｳﾄﾌ","kana_city":"ｷｮｳﾄｼｼﾓｷﾞｮｳｸ","kana_address":"ﾐｶｹﾞﾁｮｳ","pref":"京都府","city":"京都市下京区","address":"御影町"},
{"zip_code":"6008020","kana_pref":"ｷｮｳﾄﾌ","kana_city":"ｷｮｳﾄｼｼﾓｷﾞｮｳｸ","kana_address":"ﾐｶｹﾞﾄﾞｳﾏｴﾁｮｳ","pref":"京都府","city":"京都市下京区","address":"御影堂前町"},
{"zip_code":"6008238","kana_pref":"ｷｮｳﾄﾌ","kana_city":"ｷｮｳﾄｼｼﾓｷﾞｮｳｸ","kana_address":"ﾐｶﾀｺﾝﾔﾁｮｳ","pref":"京都府","city":"京都市下京区","address":"御方紺屋町"},
{"zip_code":"6008243","kana_pref":"ｷｮｳﾄﾌ","kana_city":"ｷｮｳﾄｼｼﾓｷﾞｮｳｸ","kana_address":"ﾐﾅﾐｴﾋﾞｽﾁｮｳ","pref":"京都府","city":"京都市下京区","address":"南夷町"},
{"zip_code":"6008117","kana_pref":"ｷｮｳﾄﾌ","kana_city":"ｷｮｳﾄｼｼﾓｷﾞｮｳｸ","kana_address":"ﾐﾅﾐｷｮｳｺﾞｸﾁｮｳ","pref":"京都府","city":"京都市下京区","address":"南京極町"},
{"zip_code":"6008110","kana_pref":"ｷｮｳﾄﾌ","kana_city":"ｷｮｳﾄｼｼﾓｷﾞｮｳｸ","kana_address":"ﾐﾅﾐﾊｼﾂﾞﾒﾁｮｳ","pref":"京都府","city":"京都市下京区","address":"南橋詰町"},
{"zip_code":"6008234","kana_pref":"ｷｮｳﾄﾌ","kana_city":"ｷｮｳﾄｼｼﾓｷﾞｮｳｸ","kana_address":"ﾐﾅﾐﾌﾄﾞﾝﾄﾞｳﾁｮｳ","pref":"京都府","city":"京都市下京区","address":"南不動堂町"},
{"zip_code":"6008232","kana_pref":"ｷｮｳﾄﾌ","kana_city":"ｷｮｳﾄｼｼﾓｷﾞｮｳｸ","kana_address":"ﾐﾅﾐﾏﾁ","pref":"京都府","city":"京都市下京区","address":"南町"},
{"zip_code":"6008372","kana_pref":"ｷｮｳﾄﾌ","kana_city":"ｷｮｳﾄｼｼﾓｷﾞｮｳｸ","kana_address":"ﾐﾅﾐﾓﾝｾﾞﾝﾁｮｳ","pref":"京都府","city":"京都市下京区","address":"南門前町"},
{"zip_code":"6008251","kana_pref":"ｷｮｳﾄﾌ","kana_city":"ｷｮｳﾄｼｼﾓｷﾞｮｳｸ","kana_address":"ﾐﾅﾐﾔｵﾔﾁｮｳ","pref":"京都府","city":"京都市下京区","address":"南八百屋町"},
{"zip_code":"6008015","kana_pref":"ｷｮｳﾄﾌ","kana_city":"ｷｮｳﾄｼｼﾓｷﾞｮｳｸ","kana_address":"ﾐﾉﾔﾁｮｳ","pref":"京都府","city":"京都市下京区","address":"美濃屋町"},
{"zip_code":"6008472","kana_pref":"ｷｮｳﾄﾌ","kana_city":"ｷｮｳﾄｼｼﾓｷﾞｮｳｸ","kana_address":"ﾐｮｳﾃﾞﾝｼﾞﾁｮｳ","pref":"京都府","city":"京都市下京区","address":"妙伝寺町"},
{"zip_code":"6008392","kana_pref":"ｷｮｳﾄﾌ","kana_city":"ｷｮｳﾄｼｼﾓｷﾞｮｳｸ","kana_address":"ﾐｮｳﾏﾝｼﾞﾁｮｳ","pref":"京都府","city":"京都市下京区","address":"妙満寺町"},
{"zip_code":"6008091","kana_pref":"ｷｮｳﾄﾌ","kana_city":"ｷｮｳﾄｼｼﾓｷﾞｮｳｸ","kana_address":"ﾓﾄｱｸｵｳｼﾞﾁｮｳ","pref":"京都府","city":"京都市下京区","address":"元悪王子町"},
{"zip_code":"6008064","kana_pref":"ｷｮｳﾄﾌ","kana_city":"ｷｮｳﾄｼｼﾓｷﾞｮｳｸ","kana_address":"ﾓﾄｶﾐｼﾝﾒｲﾁｮｳ","pref":"京都府","city":"京都市下京区","address":"本上神明町"},
{"zip_code":"6008119","kana_pref":"ｷｮｳﾄﾌ","kana_city":"ｷｮｳﾄｼｼﾓｷﾞｮｳｸ","kana_address":"ﾓﾄｼｵｶﾞﾏﾁｮｳ","pref":"京都府","city":"京都市下京区","address":"本塩竈町"},
{"zip_code":"6008065","kana_pref":"ｷｮｳﾄﾌ","kana_city":"ｷｮｳﾄｼｼﾓｷﾞｮｳｸ","kana_address":"ﾓﾄｼﾝﾒｲﾁｮｳ","pref":"京都府","city":"京都市下京区","address":"本神明町"},
{"zip_code":"6008436","kana_pref":"ｷｮｳﾄﾌ","kana_city":"ｷｮｳﾄｼｼﾓｷﾞｮｳｸ","kana_address":"ﾓﾄﾘｮｳｶﾞｴﾁｮｳ","pref":"京都府","city":"京都市下京区","address":"元両替町"},
{"zip_code":"6008345","kana_pref":"ｷｮｳﾄﾌ","kana_city":"ｷｮｳﾄｼｼﾓｷﾞｮｳｸ","kana_address":"ﾓﾐｼﾞﾁｮｳ","pref":"京都府","city":"京都市下京区","address":"紅葉町"},
{"zip_code":"6008222","kana_pref":"ｷｮｳﾄﾌ","kana_city":"ｷｮｳﾄｼｼﾓｷﾞｮｳｸ","kana_address":"ﾓﾝｶﾞｸﾁｮｳ","pref":"京都府","city":"京都市下京区","address":"文覚町"},
{"zip_code":"6008358","kana_pref":"ｷｮｳﾄﾌ","kana_city":"ｷｮｳﾄｼｼﾓｷﾞｮｳｸ","kana_address":"ﾓﾝｾﾞﾝﾁｮｳ","pref":"京都府","city":"京都市下京区","address":"門前町"},
{"zip_code":"6008168","kana_pref":"ｷｮｳﾄﾌ","kana_city":"ｷｮｳﾄｼｼﾓｷﾞｮｳｸ","kana_address":"ﾔｵﾔﾁｮｳ","pref":"京都府","city":"京都市下京区","address":"八百屋町"},
{"zip_code":"6008262","kana_pref":"ｷｮｳﾄﾌ","kana_city":"ｷｮｳﾄｼｼﾓｷﾞｮｳｸ","kana_address":"ﾔｵﾔﾁｮｳ","pref":"京都府","city":"京都市下京区","address":"八百屋町"},
{"zip_code":"6008321","kana_pref":"ｷｮｳﾄﾌ","kana_city":"ｷｮｳﾄｼｼﾓｷﾞｮｳｸ","kana_address":"ﾔｵﾔﾁｮｳ","pref":"京都府","city":"京都市下京区","address":"八百屋町"},
{"zip_code":"6008203","kana_pref":"ｷｮｳﾄﾌ","kana_city":"ｷｮｳﾄｼｼﾓｷﾞｮｳｸ","kana_address":"ﾔｶﾀﾁｮｳ","pref":"京都府","city":"京都市下京区","address":"屋形町"},
{"zip_code":"6008823","kana_pref":"ｷｮｳﾄﾌ","kana_city":"ｷｮｳﾄｼｼﾓｷﾞｮｳｸ","kana_address":"ﾔｸｴﾝﾁｮｳ","pref":"京都府","city":"京都市下京区","address":"薬園町"},
{"zip_code":"6008416","kana_pref":"ｷｮｳﾄﾌ","kana_city":"ｷｮｳﾄｼｼﾓｷﾞｮｳｸ","kana_address":"ﾔｸｼﾏｴﾁｮｳ","pref":"京都府","city":"京都市下京区","address":"薬師前町"},
{"zip_code":"6008442","kana_pref":"ｷｮｳﾄﾌ","kana_city":"ｷｮｳﾄｼｼﾓｷﾞｮｳｸ","kana_address":"ﾔﾀﾞﾁｮｳ","pref":"京都府","city":"京都市下京区","address":"矢田町"},
{"zip_code":"6008112","kana_pref":"ｷｮｳﾄﾌ","kana_city":"ｷｮｳﾄｼｼﾓｷﾞｮｳｸ","kana_address":"ﾔﾂﾔﾅｷﾞﾁｮｳ","pref":"京都府","city":"京都市下京区","address":"八ツ柳町"},
{"zip_code":"6008344","kana_pref":"ｷｮｳﾄﾌ","kana_city":"ｷｮｳﾄｼｼﾓｷﾞｮｳｸ","kana_address":"ﾔﾅｷﾞﾁｮｳ","pref":"京都府","city":"京都市下京区","address":"柳町"},
{"zip_code":"6008448","kana_pref":"ｷｮｳﾄﾌ","kana_city":"ｷｮｳﾄｼｼﾓｷﾞｮｳｸ","kana_address":"ﾔﾌﾞｼﾀﾁｮｳ","pref":"京都府","city":"京都市下京区","address":"藪下町"},
{"zip_code":"6008374","kana_pref":"ｷｮｳﾄﾌ","kana_city":"ｷｮｳﾄｼｼﾓｷﾞｮｳｸ","kana_address":"ﾔﾌﾞﾉｳﾁﾁｮｳ","pref":"京都府","city":"京都市下京区","address":"藪之内町"},
{"zip_code":"6008342","kana_pref":"ｷｮｳﾄﾌ","kana_city":"ｷｮｳﾄｼｼﾓｷﾞｮｳｸ","kana_address":"ﾔﾏｶﾜﾁｮｳ","pref":"京都府","city":"京都市下京区","address":"山川町"},
{"zip_code":"6008455","kana_pref":"ｷｮｳﾄﾌ","kana_city":"ｷｮｳﾄｼｼﾓｷﾞｮｳｸ","kana_address":"ﾔﾜﾀﾁｮｳ","pref":"京都府","city":"京都市下京区","address":"八幡町"},
{"zip_code":"6008077","kana_pref":"ｷｮｳﾄﾌ","kana_city":"ｷｮｳﾄｼｼﾓｷﾞｮｳｸ","kana_address":"ﾕｳｶﾞｵﾁｮｳ","pref":"京都府","city":"京都市下京区","address":"夕顔町"},
{"zip_code":"6008477","kana_pref":"ｷｮｳﾄﾌ","kana_city":"ｷｮｳﾄｼｼﾓｷﾞｮｳｸ","kana_address":"ﾖｳﾎｳｼﾞﾁｮｳ","pref":"京都府","city":"京都市下京区","address":"要法寺町"},
{"zip_code":"6008179","kana_pref":"ｷｮｳﾄﾌ","kana_city":"ｷｮｳﾄｼｼﾓｷﾞｮｳｸ","kana_address":"ﾖｺｽﾜﾝﾁｮｳ","pref":"京都府","city":"京都市下京区","address":"横諏訪町"},
{"zip_code":"6008403","kana_pref":"ｷｮｳﾄﾌ","kana_city":"ｷｮｳﾄｼｼﾓｷﾞｮｳｸ","kana_address":"ﾖｼﾐｽﾞﾁｮｳ","pref":"京都府","city":"京都市下京区","address":"吉水町"},
{"zip_code":"6008483","kana_pref":"ｷｮｳﾄﾌ","kana_city":"ｷｮｳﾄｼｼﾓｷﾞｮｳｸ","kana_address":"ﾖｼﾐｽﾞﾁｮｳ","pref":"京都府","city":"京都市下京区","address":"吉水町（西堀川通高辻上る"},
{"zip_code":"6008483","kana_pref":"ｷｮｳﾄﾌ","kana_city":"ｷｮｳﾄｼｼﾓｷﾞｮｳｸ","kana_address":"ﾖｼﾐｽﾞﾁｮｳ","pref":"京都府","city":"京都市下京区","address":"西堀川通仏光寺下る"},
{"zip_code":"6008483","kana_pref":"ｷｮｳﾄﾌ","kana_city":"ｷｮｳﾄｼｼﾓｷﾞｮｳｸ","kana_address":"ﾖｼﾐｽﾞﾁｮｳ","pref":"京都府","city":"京都市下京区","address":"東堀川通高辻"},
{"zip_code":"6008483","kana_pref":"ｷｮｳﾄﾌ","kana_city":"ｷｮｳﾄｼｼﾓｷﾞｮｳｸ","kana_address":"ﾖｼﾐｽﾞﾁｮｳ","pref":"京都府","city":"京都市下京区","address":"上る"},
{"zip_code":"6008483","kana_pref":"ｷｮｳﾄﾌ","kana_city":"ｷｮｳﾄｼｼﾓｷﾞｮｳｸ","kana_address":"ﾖｼﾐｽﾞﾁｮｳ","pref":"京都府","city":"京都市下京区","address":"東堀川通仏光寺下る"},
{"zip_code":"6008483","kana_pref":"ｷｮｳﾄﾌ","kana_city":"ｷｮｳﾄｼｼﾓｷﾞｮｳｸ","kana_address":"ﾖｼﾐｽﾞﾁｮｳ","pref":"京都府","city":"京都市下京区","address":"仏光寺通東堀川東入"},
{"zip_code":"6008483","kana_pref":"ｷｮｳﾄﾌ","kana_city":"ｷｮｳﾄｼｼﾓｷﾞｮｳｸ","kana_address":"ﾖｼﾐｽﾞﾁｮｳ","pref":"京都府","city":"京都市下京区","address":"堀川通仏光寺下る）"},
{"zip_code":"6008199","kana_pref":"ｷｮｳﾄﾌ","kana_city":"ｷｮｳﾄｼｼﾓｷﾞｮｳｸ","kana_address":"ﾖﾛｽﾞﾔﾁｮｳ","pref":"京都府","city":"京都市下京区","address":"万屋町"},
{"zip_code":"6008355","kana_pref":"ｷｮｳﾄﾌ","kana_city":"ｷｮｳﾄｼｼﾓｷﾞｮｳｸ","kana_address":"ﾗｲｺｳﾄﾞｳﾁｮｳ","pref":"京都府","city":"京都市下京区","address":"来迎堂町"},
{"zip_code":"6008198","kana_pref":"ｷｮｳﾄﾌ","kana_city":"ｷｮｳﾄｼｼﾓｷﾞｮｳｸ","kana_address":"ﾜｶﾏﾂﾁｮｳ","pref":"京都府","city":"京都市下京区","address":"若松町"},
{"zip_code":"6008120","kana_pref":"ｷｮｳﾄﾌ","kana_city":"ｷｮｳﾄｼｼﾓｷﾞｮｳｸ","kana_address":"ﾜｶﾐﾔﾁｮｳ","pref":"京都府","city":"京都市下京区","address":"若宮町"},
{"zip_code":"6008201","kana_pref":"ｷｮｳﾄﾌ","kana_city":"ｷｮｳﾄｼｼﾓｷﾞｮｳｸ","kana_address":"ﾜｶﾐﾔﾁｮｳ","pref":"京都府","city":"京都市下京区","address":"若宮町"},
{"zip_code":"6008314","kana_pref":"ｷｮｳﾄﾌ","kana_city":"ｷｮｳﾄｼｼﾓｷﾞｮｳｸ","kana_address":"ﾜｶﾐﾔﾁｮｳ","pref":"京都府","city":"京都市下京区","address":"若宮町"},
{"zip_code":"6008834","kana_pref":"ｷｮｳﾄﾌ","kana_city":"ｷｮｳﾄｼｼﾓｷﾞｮｳｸ","kana_address":"ﾜｷﾁｮｳ","pref":"京都府","city":"京都市下京区","address":"和気町"}]}