{"zip_code":[
{"zip_code":"6010142","kana_pref":"ｷｮｳﾄﾌ","kana_city":"ｷｮｳﾄｼｷﾀｸ","kana_address":"ｵｵﾓﾘｱｼﾄﾞｳﾁｮｳ","pref":"京都府","city":"京都市北区","address":"大森芦堂町"},
{"zip_code":"6010141","kana_pref":"ｷｮｳﾄﾌ","kana_city":"ｷｮｳﾄｼｷﾀｸ","kana_address":"ｵｵﾓﾘｲﾅﾘ","pref":"京都府","city":"京都市北区","address":"大森稲荷"},
{"zip_code":"6010143","kana_pref":"ｷｮｳﾄﾌ","kana_city":"ｷｮｳﾄｼｷﾀｸ","kana_address":"ｵｵﾓﾘﾅｶﾁｮｳ","pref":"京都府","city":"京都市北区","address":"大森中町"},
{"zip_code":"6010144","kana_pref":"ｷｮｳﾄﾌ","kana_city":"ｷｮｳﾄｼｷﾀｸ","kana_address":"ｵｵﾓﾘﾆｼﾁｮｳ","pref":"京都府","city":"京都市北区","address":"大森西町"},
{"zip_code":"6010145","kana_pref":"ｷｮｳﾄﾌ","kana_city":"ｷｮｳﾄｼｷﾀｸ","kana_address":"ｵｵﾓﾘﾋｶﾞｼﾁｮｳ","pref":"京都府","city":"京都市北区","address":"大森東町"},
{"zip_code":"6010134","kana_pref":"ｷｮｳﾄﾌ","kana_city":"ｷｮｳﾄｼｷﾀｸ","kana_address":"ｵﾉｲﾜﾄ","pref":"京都府","city":"京都市北区","address":"小野岩戸"},
{"zip_code":"6010133","kana_pref":"ｷｮｳﾄﾌ","kana_city":"ｷｮｳﾄｼｷﾀｸ","kana_address":"ｵﾉｶﾐﾉﾁｮｳ","pref":"京都府","city":"京都市北区","address":"小野上ノ町"},
{"zip_code":"6010131","kana_pref":"ｷｮｳﾄﾌ","kana_city":"ｷｮｳﾄｼｷﾀｸ","kana_address":"ｵﾉｼﾓﾉﾁｮｳ","pref":"京都府","city":"京都市北区","address":"小野下ノ町"},
{"zip_code":"6010132","kana_pref":"ｷｮｳﾄﾌ","kana_city":"ｷｮｳﾄｼｷﾀｸ","kana_address":"ｵﾉﾅｶﾉﾁｮｳ","pref":"京都府","city":"京都市北区","address":"小野中ノ町"},
{"zip_code":"6010135","kana_pref":"ｷｮｳﾄﾌ","kana_city":"ｷｮｳﾄｼｷﾀｸ","kana_address":"ｵﾉﾐﾔﾉｶﾐﾁｮｳ","pref":"京都府","city":"京都市北区","address":"小野宮ノ上町"},
{"zip_code":"6010111","kana_pref":"ｷｮｳﾄﾌ","kana_city":"ｷｮｳﾄｼｷﾀｸ","kana_address":"ｽｷﾞｻｶｷﾀｵ","pref":"京都府","city":"京都市北区","address":"杉阪北尾"},
{"zip_code":"6010113","kana_pref":"ｷｮｳﾄﾌ","kana_city":"ｷｮｳﾄｼｷﾀｸ","kana_address":"ｽｷﾞｻｶﾄｳﾌｳﾁｮｳ","pref":"京都府","city":"京都市北区","address":"杉阪道風町"},
{"zip_code":"6010112","kana_pref":"ｷｮｳﾄﾌ","kana_city":"ｷｮｳﾄｼｷﾀｸ","kana_address":"ｽｷﾞｻｶﾐﾔｺﾁｮｳ","pref":"京都府","city":"京都市北区","address":"杉阪都町"},
{"zip_code":"6010125","kana_pref":"ｷｮｳﾄﾌ","kana_city":"ｷｮｳﾄｼｷﾀｸ","kana_address":"ﾅｶｶﾞﾜｶﾜﾉﾎﾞﾘ","pref":"京都府","city":"京都市北区","address":"中川川登"},
{"zip_code":"6010122","kana_pref":"ｷｮｳﾄﾌ","kana_city":"ｷｮｳﾄｼｷﾀｸ","kana_address":"ﾅｶｶﾞﾜｷﾀﾔﾏﾁｮｳ","pref":"京都府","city":"京都市北区","address":"中川北山町"},
{"zip_code":"6010124","kana_pref":"ｷｮｳﾄﾌ","kana_city":"ｷｮｳﾄｼｷﾀｸ","kana_address":"ﾅｶｶﾞﾜﾅｶﾔﾏ","pref":"京都府","city":"京都市北区","address":"中川中山"},
{"zip_code":"6010123","kana_pref":"ｷｮｳﾄﾌ","kana_city":"ｷｮｳﾄｼｷﾀｸ","kana_address":"ﾅｶｶﾞﾜﾆｼﾔﾏ","pref":"京都府","city":"京都市北区","address":"中川西山"},
{"zip_code":"6010121","kana_pref":"ｷｮｳﾄﾌ","kana_city":"ｷｮｳﾄｼｷﾀｸ","kana_address":"ﾅｶｶﾞﾜﾋｶﾞｼﾔﾏ","pref":"京都府","city":"京都市北区","address":"中川東山"},
{"zip_code":"6010102","kana_pref":"ｷｮｳﾄﾌ","kana_city":"ｷｮｳﾄｼｷﾀｸ","kana_address":"ﾏﾕﾐｾﾞﾝﾌﾟｸ","pref":"京都府","city":"京都市北区","address":"真弓善福"},
{"zip_code":"6010101","kana_pref":"ｷｮｳﾄﾌ","kana_city":"ｷｮｳﾄｼｷﾀｸ","kana_address":"ﾏﾕﾐﾊﾁﾏﾝﾁｮｳ","pref":"京都府","city":"京都市北区","address":"真弓八幡町"},
{"zip_code":"6011124","kana_pref":"ｷｮｳﾄﾌ","kana_city":"ｷｮｳﾄｼｻｷｮｳｸ","kana_address":"ｲﾜｸﾗｱｸﾞﾗﾁｮｳ","pref":"京都府","city":"京都市左京区","address":"岩倉上蔵町"},
{"zip_code":"6011125","kana_pref":"ｷｮｳﾄﾌ","kana_city":"ｷｮｳﾄｼｻｷｮｳｸ","kana_address":"ｲﾜｸﾗｷﾉﾁｮｳ","pref":"京都府","city":"京都市左京区","address":"岩倉木野町"},
{"zip_code":"6011246","kana_pref":"ｷｮｳﾄﾌ","kana_city":"ｷｮｳﾄｼｻｷｮｳｸ","kana_address":"ｵｵﾊﾗｲﾃﾞﾁｮｳ","pref":"京都府","city":"京都市左京区","address":"大原井出町"},
{"zip_code":"6011244","kana_pref":"ｷｮｳﾄﾌ","kana_city":"ｷｮｳﾄｼｻｷｮｳｸ","kana_address":"ｵｵﾊﾗｳｴﾉﾁｮｳ","pref":"京都府","city":"京都市左京区","address":"大原上野町"},
{"zip_code":"6011243","kana_pref":"ｷｮｳﾄﾌ","kana_city":"ｷｮｳﾄｼｻｷｮｳｸ","kana_address":"ｵｵﾊﾗｵｵﾅｶﾞｾﾁｮｳ","pref":"京都府","city":"京都市左京区","address":"大原大長瀬町"},
{"zip_code":"6011232","kana_pref":"ｷｮｳﾄﾌ","kana_city":"ｷｮｳﾄｼｻｷｮｳｸ","kana_address":"ｵｵﾊﾗｵｵﾐﾁｮｳ","pref":"京都府","city":"京都市左京区","address":"大原大見町"},
{"zip_code":"6011231","kana_pref":"ｷｮｳﾄﾌ","kana_city":"ｷｮｳﾄｼｻｷｮｳｸ","kana_address":"ｵｵﾊﾗｵｺﾞｾﾁｮｳ","pref":"京都府","city":"京都市左京区","address":"大原尾越町"},
{"zip_code":"6011248","kana_pref":"ｷｮｳﾄﾌ","kana_city":"ｷｮｳﾄｼｻｷｮｳｸ","kana_address":"ｵｵﾊﾗｸｻｵﾁｮｳ","pref":"京都府","city":"京都市左京区","address":"大原草生町"},
{"zip_code":"6011235","kana_pref":"ｷｮｳﾄﾌ","kana_city":"ｷｮｳﾄｼｻｷｮｳｸ","kana_address":"ｵｵﾊﾗｺﾁﾋﾗﾁｮｳ","pref":"京都府","city":"京都市左京区","address":"大原古知平町"},
{"zip_code":"6011234","kana_pref":"ｷｮｳﾄﾌ","kana_city":"ｷｮｳﾄｼｻｷｮｳｸ","kana_address":"ｵｵﾊﾗｺﾃﾞｲｼﾁｮｳ","pref":"京都府","city":"京都市左京区","address":"大原小出石町"},
{"zip_code":"6011241","kana_pref":"ｷｮｳﾄﾌ","kana_city":"ｷｮｳﾄｼｻｷｮｳｸ","kana_address":"ｵｵﾊﾗｼｮｳﾘﾝｲﾝﾁｮｳ","pref":"京都府","city":"京都市左京区","address":"大原勝林院町"},
{"zip_code":"6011245","kana_pref":"ｷｮｳﾄﾌ","kana_city":"ｷｮｳﾄｼｻｷｮｳｸ","kana_address":"ｵｵﾊﾗﾄﾃﾞﾗﾁｮｳ","pref":"京都府","city":"京都市左京区","address":"大原戸寺町"},
{"zip_code":"6011247","kana_pref":"ｷｮｳﾄﾌ","kana_city":"ｷｮｳﾄｼｻｷｮｳｸ","kana_address":"ｵｵﾊﾗﾉﾑﾗﾁｮｳ","pref":"京都府","city":"京都市左京区","address":"大原野村町"},
{"zip_code":"6011233","kana_pref":"ｷｮｳﾄﾌ","kana_city":"ｷｮｳﾄｼｻｷｮｳｸ","kana_address":"ｵｵﾊﾗﾓﾓｲﾁｮｳ","pref":"京都府","city":"京都市左京区","address":"大原百井町"},
{"zip_code":"6011242","kana_pref":"ｷｮｳﾄﾌ","kana_city":"ｷｮｳﾄｼｻｷｮｳｸ","kana_address":"ｵｵﾊﾗﾗｲｺｳｲﾝﾁｮｳ","pref":"京都府","city":"京都市左京区","address":"大原来迎院町"},
{"zip_code":"6011255","kana_pref":"ｷｮｳﾄﾌ","kana_city":"ｷｮｳﾄｼｻｷｮｳｸ","kana_address":"ｶﾐﾀｶﾉﾋｶﾞｼﾔﾏ(55","pref":"京都府","city":"京都市左京区","address":"上高野東山（５５"},
{"zip_code":"6011255","kana_pref":"ｷｮｳﾄﾌ","kana_city":"ｷｮｳﾄｼｻｷｮｳｸ","kana_address":"57-6","pref":"京都府","city":"京都市左京区","address":"５７−６"},
{"zip_code":"6011255","kana_pref":"ｷｮｳﾄﾌ","kana_city":"ｷｮｳﾄｼｻｷｮｳｸ","kana_address":"64","pref":"京都府","city":"京都市左京区","address":"６４"},
{"zip_code":"6011255","kana_pref":"ｷｮｳﾄﾌ","kana_city":"ｷｮｳﾄｼｻｷｮｳｸ","kana_address":"65","pref":"京都府","city":"京都市左京区","address":"６５"},
{"zip_code":"6011255","kana_pref":"ｷｮｳﾄﾌ","kana_city":"ｷｮｳﾄｼｻｷｮｳｸ","kana_address":"71-1","pref":"京都府","city":"京都市左京区","address":"７１−１"},
{"zip_code":"6011255","kana_pref":"ｷｮｳﾄﾌ","kana_city":"ｷｮｳﾄｼｻｷｮｳｸ","kana_address":"71-21","pref":"京都府","city":"京都市左京区","address":"７１−２１"},
{"zip_code":"6011255","kana_pref":"ｷｮｳﾄﾌ","kana_city":"ｷｮｳﾄｼｻｷｮｳｸ","kana_address":"","pref":"京都府","city":"京都市左京区","address":""},
{"zip_code":"6011255","kana_pref":"ｷｮｳﾄﾌ","kana_city":"ｷｮｳﾄｼｻｷｮｳｸ","kana_address":"72ﾊﾞﾝﾁ","pref":"京都府","city":"京都市左京区","address":"７２番地"},
{"zip_code":"6011255","kana_pref":"ｷｮｳﾄﾌ","kana_city":"ｷｮｳﾄｼｻｷｮｳｸ","kana_address":"189ﾊﾞﾝﾁ","pref":"京都府","city":"京都市左京区","address":"１８９番地"},
{"zip_code":"6011255","kana_pref":"ｷｮｳﾄﾌ","kana_city":"ｷｮｳﾄｼｻｷｮｳｸ","kana_address":"189-1ﾊﾞﾝﾁ)","pref":"京都府","city":"京都市左京区","address":"１８９−１番地）"},
{"zip_code":"6011112","kana_pref":"ｷｮｳﾄﾌ","kana_city":"ｷｮｳﾄｼｻｷｮｳｸ","kana_address":"ｸﾗﾏｷﾌﾞﾈﾁｮｳ","pref":"京都府","city":"京都市左京区","address":"鞍馬貴船町"},
{"zip_code":"6011113","kana_pref":"ｷｮｳﾄﾌ","kana_city":"ｷｮｳﾄｼｻｷｮｳｸ","kana_address":"ｸﾗﾏﾆﾉｾﾁｮｳ","pref":"京都府","city":"京都市左京区","address":"鞍馬二ノ瀬町"},
{"zip_code":"6011111","kana_pref":"ｷｮｳﾄﾌ","kana_city":"ｷｮｳﾄｼｻｷｮｳｸ","kana_address":"ｸﾗﾏﾎﾝﾏﾁ","pref":"京都府","city":"京都市左京区","address":"鞍馬本町"},
{"zip_code":"6011123","kana_pref":"ｷｮｳﾄﾌ","kana_city":"ｷｮｳﾄｼｻｷｮｳｸ","kana_address":"ｼｽﾞｲﾁｲﾁﾊﾗﾁｮｳ","pref":"京都府","city":"京都市左京区","address":"静市市原町"},
{"zip_code":"6011121","kana_pref":"ｷｮｳﾄﾌ","kana_city":"ｷｮｳﾄｼｻｷｮｳｸ","kana_address":"ｼｽﾞｲﾁｼｽﾞﾊﾗﾁｮｳ","pref":"京都府","city":"京都市左京区","address":"静市静原町"},
{"zip_code":"6011122","kana_pref":"ｷｮｳﾄﾌ","kana_city":"ｷｮｳﾄｼｻｷｮｳｸ","kana_address":"ｼｽﾞｲﾁﾉﾅｶﾁｮｳ","pref":"京都府","city":"京都市左京区","address":"静市野中町"},
{"zip_code":"6011104","kana_pref":"ｷｮｳﾄﾌ","kana_city":"ｷｮｳﾄｼｻｷｮｳｸ","kana_address":"ﾊﾅｾｵｵﾌｾﾁｮｳ","pref":"京都府","city":"京都市左京区","address":"花脊大布施町"},
{"zip_code":"6011102","kana_pref":"ｷｮｳﾄﾌ","kana_city":"ｷｮｳﾄｼｻｷｮｳｸ","kana_address":"ﾊﾅｾﾊﾗﾁﾁｮｳ","pref":"京都府","city":"京都市左京区","address":"花脊原地町"},
{"zip_code":"6011105","kana_pref":"ｷｮｳﾄﾌ","kana_city":"ｷｮｳﾄｼｻｷｮｳｸ","kana_address":"ﾊﾅｾﾍﾞｯｼｮﾁｮｳ","pref":"京都府","city":"京都市左京区","address":"花脊別所町"},
{"zip_code":"6011103","kana_pref":"ｷｮｳﾄﾌ","kana_city":"ｷｮｳﾄｼｻｷｮｳｸ","kana_address":"ﾊﾅｾﾔﾏｽﾁｮｳ","pref":"京都府","city":"京都市左京区","address":"花脊八桝町"},
{"zip_code":"6011101","kana_pref":"ｷｮｳﾄﾌ","kana_city":"ｷｮｳﾄｼｻｷｮｳｸ","kana_address":"ﾋﾛｶﾞﾜﾗ","pref":"京都府","city":"京都市左京区","address":"広河原"},
{"zip_code":"6011252","kana_pref":"ｷｮｳﾄﾌ","kana_city":"ｷｮｳﾄｼｻｷｮｳｸ","kana_address":"ﾔｾｱｷﾓﾄﾁｮｳ","pref":"京都府","city":"京都市左京区","address":"八瀬秋元町"},
{"zip_code":"6011253","kana_pref":"ｷｮｳﾄﾌ","kana_city":"ｷｮｳﾄｼｻｷｮｳｸ","kana_address":"ﾔｾｺﾉｴﾁｮｳ","pref":"京都府","city":"京都市左京区","address":"八瀬近衛町"},
{"zip_code":"6011251","kana_pref":"ｷｮｳﾄﾌ","kana_city":"ｷｮｳﾄｼｻｷｮｳｸ","kana_address":"ﾔｾﾊﾅｼﾞﾘﾁｮｳ","pref":"京都府","city":"京都市左京区","address":"八瀬花尻町"},
{"zip_code":"6011254","kana_pref":"ｷｮｳﾄﾌ","kana_city":"ｷｮｳﾄｼｻｷｮｳｸ","kana_address":"ﾔｾﾉｾﾁｮｳ","pref":"京都府","city":"京都市左京区","address":"八瀬野瀬町"},
{"zip_code":"6010000","kana_pref":"ｷｮｳﾄﾌ","kana_city":"ｷｮｳﾄｼﾐﾅﾐｸ","kana_address":"","pref":"京都府","city":"京都市南区","address":""},
{"zip_code":"6018406","kana_pref":"ｷｮｳﾄﾌ","kana_city":"ｷｮｳﾄｼﾐﾅﾐｸ","kana_address":"ｶｲｺｳｼﾞﾁｮｳ","pref":"京都府","city":"京都市南区","address":"戒光寺町"},
{"zip_code":"6018143","kana_pref":"ｷｮｳﾄﾌ","kana_city":"ｷｮｳﾄｼﾐﾅﾐｸ","kana_address":"ｶﾐﾄﾊﾞｱｻﾉﾓﾄ","pref":"京都府","city":"京都市南区","address":"上鳥羽麻ノ本"},
{"zip_code":"6018135","kana_pref":"ｷｮｳﾄﾌ","kana_city":"ｷｮｳﾄｼﾐﾅﾐｸ","kana_address":"ｶﾐﾄﾊﾞｲｼﾊﾞｼﾁｮｳ","pref":"京都府","city":"京都市南区","address":"上鳥羽石橋町"},
{"zip_code":"6018136","kana_pref":"ｷｮｳﾄﾌ","kana_city":"ｷｮｳﾄｼﾐﾅﾐｸ","kana_address":"ｶﾐﾄﾊﾞｲﾜﾉﾓﾄﾁｮｳ","pref":"京都府","city":"京都市南区","address":"上鳥羽岩ノ本町"},
{"zip_code":"6018141","kana_pref":"ｷｮｳﾄﾌ","kana_city":"ｷｮｳﾄｼﾐﾅﾐｸ","kana_address":"ｶﾐﾄﾊﾞｳﾉﾊﾅ","pref":"京都府","city":"京都市南区","address":"上鳥羽卯ノ花"},
{"zip_code":"6018177","kana_pref":"ｷｮｳﾄﾌ","kana_city":"ｷｮｳﾄｼﾐﾅﾐｸ","kana_address":"ｶﾐﾄﾊﾞｳﾏﾏﾜｼ","pref":"京都府","city":"京都市南区","address":"上鳥羽馬廻"},
{"zip_code":"6018134","kana_pref":"ｷｮｳﾄﾌ","kana_city":"ｷｮｳﾄｼﾐﾅﾐｸ","kana_address":"ｶﾐﾄﾊﾞｵｵﾐｿﾞ","pref":"京都府","city":"京都市南区","address":"上鳥羽大溝"},
{"zip_code":"6018128","kana_pref":"ｷｮｳﾄﾌ","kana_city":"ｷｮｳﾄｼﾐﾅﾐｸ","kana_address":"ｶﾐﾄﾊﾞｵｵﾔﾅｷﾞﾁｮｳ","pref":"京都府","city":"京都市南区","address":"上鳥羽大柳町"},
{"zip_code":"6018178","kana_pref":"ｷｮｳﾄﾌ","kana_city":"ｷｮｳﾄｼﾐﾅﾐｸ","kana_address":"ｶﾐﾄﾊﾞｶｲｺｳ","pref":"京都府","city":"京都市南区","address":"上鳥羽戒光"},
{"zip_code":"6018185","kana_pref":"ｷｮｳﾄﾌ","kana_city":"ｷｮｳﾄｼﾐﾅﾐｸ","kana_address":"ｶﾐﾄﾊﾞｶｲｺｳﾁｮｳ","pref":"京都府","city":"京都市南区","address":"上鳥羽戒光町"},
{"zip_code":"6018175","kana_pref":"ｷｮｳﾄﾌ","kana_city":"ｷｮｳﾄｼﾐﾅﾐｸ","kana_address":"ｶﾐﾄﾊﾞｶﾅﾎﾞﾄｹ","pref":"京都府","city":"京都市南区","address":"上鳥羽金仏"},
{"zip_code":"6018105","kana_pref":"ｷｮｳﾄﾌ","kana_city":"ｷｮｳﾄｼﾐﾅﾐｸ","kana_address":"ｶﾐﾄﾊﾞｶﾐﾁｮｳｼﾁｮｳ","pref":"京都府","city":"京都市南区","address":"上鳥羽上調子町"},
{"zip_code":"6018131","kana_pref":"ｷｮｳﾄﾌ","kana_city":"ｷｮｳﾄｼﾐﾅﾐｸ","kana_address":"ｶﾐﾄﾊﾞｶﾓﾝﾃﾞﾝ","pref":"京都府","city":"京都市南区","address":"上鳥羽鴨田"},
{"zip_code":"6018108","kana_pref":"ｷｮｳﾄﾌ","kana_city":"ｷｮｳﾄｼﾐﾅﾐｸ","kana_address":"ｶﾐﾄﾊﾞｶﾗﾄﾁｮｳ","pref":"京都府","city":"京都市南区","address":"上鳥羽唐戸町"},
{"zip_code":"6018171","kana_pref":"ｷｮｳﾄﾌ","kana_city":"ｷｮｳﾄｼﾐﾅﾐｸ","kana_address":"ｶﾐﾄﾊﾞｶﾜﾊﾞﾀﾁｮｳ","pref":"京都府","city":"京都市南区","address":"上鳥羽川端町"},
{"zip_code":"6018112","kana_pref":"ｷｮｳﾄﾌ","kana_city":"ｷｮｳﾄｼﾐﾅﾐｸ","kana_address":"ｶﾐﾄﾊﾞｶﾝｼﾞﾝﾊﾞｼﾁｮｳ","pref":"京都府","city":"京都市南区","address":"上鳥羽勧進橋町"},
{"zip_code":"6018186","kana_pref":"ｷｮｳﾄﾌ","kana_city":"ｷｮｳﾄｼﾐﾅﾐｸ","kana_address":"ｶﾐﾄﾊﾞｷﾀｶｲｺｳﾁｮｳ","pref":"京都府","city":"京都市南区","address":"上鳥羽北戒光町"},
{"zip_code":"6018182","kana_pref":"ｷｮｳﾄﾌ","kana_city":"ｷｮｳﾄｼﾐﾅﾐｸ","kana_address":"ｶﾐﾄﾊﾞｷﾀｼﾏﾀﾞﾁｮｳ","pref":"京都府","city":"京都市南区","address":"上鳥羽北島田町"},
{"zip_code":"6018122","kana_pref":"ｷｮｳﾄﾌ","kana_city":"ｷｮｳﾄｼﾐﾅﾐｸ","kana_address":"ｶﾐﾄﾊﾞｷﾀﾄｳﾉﾓﾄﾁｮｳ","pref":"京都府","city":"京都市南区","address":"上鳥羽北塔ノ本町"},
{"zip_code":"6018106","kana_pref":"ｷｮｳﾄﾌ","kana_city":"ｷｮｳﾄｼﾐﾅﾐｸ","kana_address":"ｶﾐﾄﾊﾞｷﾀﾅｶﾉﾂﾎﾞﾁｮｳ","pref":"京都府","city":"京都市南区","address":"上鳥羽北中ノ坪町"},
{"zip_code":"6018127","kana_pref":"ｷｮｳﾄﾌ","kana_city":"ｷｮｳﾄｼﾐﾅﾐｸ","kana_address":"ｶﾐﾄﾊﾞｷﾀﾊﾅﾅﾁｮｳ","pref":"京都府","city":"京都市南区","address":"上鳥羽北花名町"},
{"zip_code":"6018187","kana_pref":"ｷｮｳﾄﾌ","kana_city":"ｷｮｳﾄｼﾐﾅﾐｸ","kana_address":"ｶﾐﾄﾊﾞｷﾀﾑﾗﾔﾏﾁｮｳ","pref":"京都府","city":"京都市南区","address":"上鳥羽北村山町"},
{"zip_code":"6018174","kana_pref":"ｷｮｳﾄﾌ","kana_city":"ｷｮｳﾄｼﾐﾅﾐｸ","kana_address":"ｶﾐﾄﾊﾞｷﾖｲﾁｮｳ","pref":"京都府","city":"京都市南区","address":"上鳥羽清井町"},
{"zip_code":"6018115","kana_pref":"ｷｮｳﾄﾌ","kana_city":"ｷｮｳﾄｼﾐﾅﾐｸ","kana_address":"ｶﾐﾄﾊﾞｼﾘｷﾘﾁｮｳ","pref":"京都府","city":"京都市南区","address":"上鳥羽尻切町"},
{"zip_code":"6018137","kana_pref":"ｷｮｳﾄﾌ","kana_city":"ｷｮｳﾄｼﾐﾅﾐｸ","kana_address":"ｶﾐﾄﾊﾞｼﾛｶﾞﾏｴﾁｮｳ","pref":"京都府","city":"京都市南区","address":"上鳥羽城ケ前町"},
{"zip_code":"6018102","kana_pref":"ｷｮｳﾄﾌ","kana_city":"ｷｮｳﾄｼﾐﾅﾐｸ","kana_address":"ｶﾐﾄﾊﾞｽｶﾞﾀﾁｮｳ","pref":"京都府","city":"京都市南区","address":"上鳥羽菅田町"},
{"zip_code":"6018121","kana_pref":"ｷｮｳﾄﾌ","kana_city":"ｷｮｳﾄｼﾐﾅﾐｸ","kana_address":"ｶﾐﾄﾊﾞﾀﾞｲﾓﾂﾁｮｳ","pref":"京都府","city":"京都市南区","address":"上鳥羽大物町"},
{"zip_code":"6018101","kana_pref":"ｷｮｳﾄﾌ","kana_city":"ｷｮｳﾄｼﾐﾅﾐｸ","kana_address":"ｶﾐﾄﾊﾞﾀｶﾊﾀﾁｮｳ","pref":"京都府","city":"京都市南区","address":"上鳥羽高畠町"},
{"zip_code":"6018132","kana_pref":"ｷｮｳﾄﾌ","kana_city":"ｷｮｳﾄｼﾐﾅﾐｸ","kana_address":"ｶﾐﾄﾊﾞﾁｮｳﾀﾞ","pref":"京都府","city":"京都市南区","address":"上鳥羽町田"},
{"zip_code":"6018104","kana_pref":"ｷｮｳﾄﾌ","kana_city":"ｷｮｳﾄｼﾐﾅﾐｸ","kana_address":"ｶﾐﾄﾊﾞﾂﾉﾀﾞﾁｮｳ","pref":"京都府","city":"京都市南区","address":"上鳥羽角田町"},
{"zip_code":"6018124","kana_pref":"ｷｮｳﾄﾌ","kana_city":"ｷｮｳﾄｼﾐﾅﾐｸ","kana_address":"ｶﾐﾄﾊﾞﾄｳﾉﾓﾄ","pref":"京都府","city":"京都市南区","address":"上鳥羽塔ノ本"},
{"zip_code":"6018142","kana_pref":"ｷｮｳﾄﾌ","kana_city":"ｷｮｳﾄｼﾐﾅﾐｸ","kana_address":"ｶﾐﾄﾊﾞﾅｶｶﾞﾜﾗ","pref":"京都府","city":"京都市南区","address":"上鳥羽中河原"},
{"zip_code":"6018146","kana_pref":"ｷｮｳﾄﾌ","kana_city":"ｷｮｳﾄｼﾐﾅﾐｸ","kana_address":"ｶﾐﾄﾊﾞﾅｽﾉﾁｮｳ","pref":"京都府","city":"京都市南区","address":"上鳥羽奈須野町"},
{"zip_code":"6018172","kana_pref":"ｷｮｳﾄﾌ","kana_city":"ｷｮｳﾄｼﾐﾅﾐｸ","kana_address":"ｶﾐﾄﾊﾞﾅﾍﾞｶﾞﾌﾁﾁｮｳ","pref":"京都府","city":"京都市南区","address":"上鳥羽鍋ケ渕町"},
{"zip_code":"6018111","kana_pref":"ｷｮｳﾄﾌ","kana_city":"ｷｮｳﾄｼﾐﾅﾐｸ","kana_address":"ｶﾐﾄﾊﾞﾅﾜｼﾛﾁｮｳ","pref":"京都府","city":"京都市南区","address":"上鳥羽苗代町"},
{"zip_code":"6018145","kana_pref":"ｷｮｳﾄﾌ","kana_city":"ｷｮｳﾄｼﾐﾅﾐｸ","kana_address":"ｶﾐﾄﾊﾞﾆｼｳﾗﾁｮｳ","pref":"京都府","city":"京都市南区","address":"上鳥羽西浦町"},
{"zip_code":"6018173","kana_pref":"ｷｮｳﾄﾌ","kana_city":"ｷｮｳﾄｼﾐﾅﾐｸ","kana_address":"ｶﾐﾄﾊﾞﾊﾁｵｳｼﾞﾝﾁｮｳ","pref":"京都府","city":"京都市南区","address":"上鳥羽八王神町"},
{"zip_code":"6018125","kana_pref":"ｷｮｳﾄﾌ","kana_city":"ｷｮｳﾄｼﾐﾅﾐｸ","kana_address":"ｶﾐﾄﾊﾞﾊﾅﾅ","pref":"京都府","city":"京都市南区","address":"上鳥羽花名"},
{"zip_code":"6018144","kana_pref":"ｷｮｳﾄﾌ","kana_city":"ｷｮｳﾄｼﾐﾅﾐｸ","kana_address":"ｶﾐﾄﾊﾞﾋｳﾁｶﾞﾀﾁｮｳ","pref":"京都府","city":"京都市南区","address":"上鳥羽火打形町"},
{"zip_code":"6018103","kana_pref":"ｷｮｳﾄﾌ","kana_city":"ｷｮｳﾄｼﾐﾅﾐｸ","kana_address":"ｶﾐﾄﾊﾞﾌﾞﾂｹﾞﾝｼﾞﾁｮｳ","pref":"京都府","city":"京都市南区","address":"上鳥羽仏現寺町"},
{"zip_code":"6018116","kana_pref":"ｷｮｳﾄﾌ","kana_city":"ｷｮｳﾄｼﾐﾅﾐｸ","kana_address":"ｶﾐﾄﾊﾞﾎｺﾀﾃﾁｮｳ","pref":"京都府","city":"京都市南区","address":"上鳥羽鉾立町"},
{"zip_code":"6018181","kana_pref":"ｷｮｳﾄﾌ","kana_city":"ｷｮｳﾄｼﾐﾅﾐｸ","kana_address":"ｶﾐﾄﾊﾞﾎﾘｺﾁｮｳ","pref":"京都府","city":"京都市南区","address":"上鳥羽堀子町"},
{"zip_code":"6018107","kana_pref":"ｷｮｳﾄﾌ","kana_city":"ｷｮｳﾄｼﾐﾅﾐｸ","kana_address":"ｶﾐﾄﾊﾞﾐﾅﾐｶﾗﾄﾁｮｳ","pref":"京都府","city":"京都市南区","address":"上鳥羽南唐戸町"},
{"zip_code":"6018183","kana_pref":"ｷｮｳﾄﾌ","kana_city":"ｷｮｳﾄｼﾐﾅﾐｸ","kana_address":"ｶﾐﾄﾊﾞﾐﾅﾐｼﾏﾀﾞﾁｮｳ","pref":"京都府","city":"京都市南区","address":"上鳥羽南島田町"},
{"zip_code":"6018123","kana_pref":"ｷｮｳﾄﾌ","kana_city":"ｷｮｳﾄｼﾐﾅﾐｸ","kana_address":"ｶﾐﾄﾊﾞﾐﾅﾐﾄｳﾉﾓﾄﾁｮｳ","pref":"京都府","city":"京都市南区","address":"上鳥羽南塔ノ本町"},
{"zip_code":"6018188","kana_pref":"ｷｮｳﾄﾌ","kana_city":"ｷｮｳﾄｼﾐﾅﾐｸ","kana_address":"ｶﾐﾄﾊﾞﾐﾅﾐﾅｶﾉﾂﾎﾞﾁｮｳ","pref":"京都府","city":"京都市南区","address":"上鳥羽南中ノ坪町"},
{"zip_code":"6018113","kana_pref":"ｷｮｳﾄﾌ","kana_city":"ｷｮｳﾄｼﾐﾅﾐｸ","kana_address":"ｶﾐﾄﾊﾞﾐﾅﾐﾅﾜｼﾛﾁｮｳ","pref":"京都府","city":"京都市南区","address":"上鳥羽南苗代町"},
{"zip_code":"6018126","kana_pref":"ｷｮｳﾄﾌ","kana_city":"ｷｮｳﾄｼﾐﾅﾐｸ","kana_address":"ｶﾐﾄﾊﾞﾐﾅﾐﾊﾅﾅﾁｮｳ","pref":"京都府","city":"京都市南区","address":"上鳥羽南花名町"},
{"zip_code":"6018114","kana_pref":"ｷｮｳﾄﾌ","kana_city":"ｷｮｳﾄｼﾐﾅﾐｸ","kana_address":"ｶﾐﾄﾊﾞﾐﾅﾐﾎｺﾀﾃﾁｮｳ","pref":"京都府","city":"京都市南区","address":"上鳥羽南鉾立町"},
{"zip_code":"6018184","kana_pref":"ｷｮｳﾄﾌ","kana_city":"ｷｮｳﾄｼﾐﾅﾐｸ","kana_address":"ｶﾐﾄﾊﾞﾐﾅﾐﾑﾗﾔﾏﾁｮｳ","pref":"京都府","city":"京都市南区","address":"上鳥羽南村山町"},
{"zip_code":"6018176","kana_pref":"ｷｮｳﾄﾌ","kana_city":"ｷｮｳﾄｼﾐﾅﾐｸ","kana_address":"ｶﾐﾄﾊﾞﾔﾏﾉﾓﾄﾁｮｳ","pref":"京都府","city":"京都市南区","address":"上鳥羽山ノ本町"},
{"zip_code":"6018133","kana_pref":"ｷｮｳﾄﾌ","kana_city":"ｷｮｳﾄｼﾐﾅﾐｸ","kana_address":"ｶﾐﾄﾊﾞﾜﾗﾝﾃﾞﾝ","pref":"京都府","city":"京都市南区","address":"上鳥羽藁田"},
{"zip_code":"6018161","kana_pref":"ｷｮｳﾄﾌ","kana_city":"ｷｮｳﾄｼﾐﾅﾐｸ","kana_address":"ｶﾐﾄﾊﾞﾄｳﾉﾓﾘｳﾒﾉｷ","pref":"京都府","city":"京都市南区","address":"上鳥羽塔ノ森梅ノ木"},
{"zip_code":"6018163","kana_pref":"ｷｮｳﾄﾌ","kana_city":"ｷｮｳﾄｼﾐﾅﾐｸ","kana_address":"ｶﾐﾄﾊﾞﾄｳﾉﾓﾘｴｶﾞﾜﾁｮｳ","pref":"京都府","city":"京都市南区","address":"上鳥羽塔ノ森江川町"},
{"zip_code":"6018155","kana_pref":"ｷｮｳﾄﾌ","kana_city":"ｷｮｳﾄｼﾐﾅﾐｸ","kana_address":"ｶﾐﾄﾊﾞﾄｳﾉﾓﾘｶﾐｶﾜﾗ","pref":"京都府","city":"京都市南区","address":"上鳥羽塔ノ森上河原"},
{"zip_code":"6018167","kana_pref":"ｷｮｳﾄﾌ","kana_city":"ｷｮｳﾄｼﾐﾅﾐｸ","kana_address":"ｶﾐﾄﾊﾞﾄｳﾉﾓﾘｶﾐﾋﾗｷﾉｳﾁ","pref":"京都府","city":"京都市南区","address":"上鳥羽塔ノ森上開ノ内"},
{"zip_code":"6018162","kana_pref":"ｷｮｳﾄﾌ","kana_city":"ｷｮｳﾄｼﾐﾅﾐｸ","kana_address":"ｶﾐﾄﾊﾞﾄｳﾉﾓﾘｼﾊﾞﾋｶﾞｼﾁｮｳ","pref":"京都府","city":"京都市南区","address":"上鳥羽塔ノ森柴東町"},
{"zip_code":"6018153","kana_pref":"ｷｮｳﾄﾌ","kana_city":"ｷｮｳﾄｼﾐﾅﾐｸ","kana_address":"ｶﾐﾄﾊﾞﾄｳﾉﾓﾘｼﾓｶﾜﾗ","pref":"京都府","city":"京都市南区","address":"上鳥羽塔ノ森下河原"},
{"zip_code":"6018166","kana_pref":"ｷｮｳﾄﾌ","kana_city":"ｷｮｳﾄｼﾐﾅﾐｸ","kana_address":"ｶﾐﾄﾊﾞﾄｳﾉﾓﾘｼﾓﾋﾗｷﾉｳﾁ","pref":"京都府","city":"京都市南区","address":"上鳥羽塔ノ森下開ノ内"},
{"zip_code":"6018152","kana_pref":"ｷｮｳﾄﾌ","kana_city":"ｷｮｳﾄｼﾐﾅﾐｸ","kana_address":"ｶﾐﾄﾊﾞﾄｳﾉﾓﾘｽｻﾞｷﾁｮｳ","pref":"京都府","city":"京都市南区","address":"上鳥羽塔ノ森洲崎町"},
{"zip_code":"6018165","kana_pref":"ｷｮｳﾄﾌ","kana_city":"ｷｮｳﾄｼﾐﾅﾐｸ","kana_address":"ｶﾐﾄﾊﾞﾄｳﾉﾓﾘﾆｼｶﾞﾜﾗﾁｮｳ","pref":"京都府","city":"京都市南区","address":"上鳥羽塔ノ森西河原町"},
{"zip_code":"6018151","kana_pref":"ｷｮｳﾄﾌ","kana_city":"ｷｮｳﾄｼﾐﾅﾐｸ","kana_address":"ｶﾐﾄﾊﾞﾄｳﾉﾓﾘﾋｶﾞｼﾑｺｳﾁｮｳ","pref":"京都府","city":"京都市南区","address":"上鳥羽塔ノ森東向町"},
{"zip_code":"6018154","kana_pref":"ｷｮｳﾄﾌ","kana_city":"ｷｮｳﾄｼﾐﾅﾐｸ","kana_address":"ｶﾐﾄﾊﾞﾄｳﾉﾓﾘﾔﾅｷﾞﾊﾗ","pref":"京都府","city":"京都市南区","address":"上鳥羽塔ノ森柳原"},
{"zip_code":"6018164","kana_pref":"ｷｮｳﾄﾌ","kana_city":"ｷｮｳﾄｼﾐﾅﾐｸ","kana_address":"ｶﾐﾄﾊﾞﾄｳﾉﾓﾘﾖﾂﾔﾁｮｳ","pref":"京都府","city":"京都市南区","address":"上鳥羽塔ノ森四ツ谷町"},
{"zip_code":"6018463","kana_pref":"ｷｮｳﾄﾌ","kana_city":"ｷｮｳﾄｼﾐﾅﾐｸ","kana_address":"ｶﾗﾊｼｱｶｶﾈﾁｮｳ","pref":"京都府","city":"京都市南区","address":"唐橋赤金町"},
{"zip_code":"6018455","kana_pref":"ｷｮｳﾄﾌ","kana_city":"ｷｮｳﾄｼﾐﾅﾐｸ","kana_address":"ｶﾗﾊｼｱｼﾍﾞﾁｮｳ","pref":"京都府","city":"京都市南区","address":"唐橋芦辺町"},
{"zip_code":"6018462","kana_pref":"ｷｮｳﾄﾌ","kana_city":"ｷｮｳﾄｼﾐﾅﾐｸ","kana_address":"ｶﾗﾊｼｲｿﾉﾁｮｳ","pref":"京都府","city":"京都市南区","address":"唐橋井園町"},
{"zip_code":"6018467","kana_pref":"ｷｮｳﾄﾌ","kana_city":"ｷｮｳﾄｼﾐﾅﾐｸ","kana_address":"ｶﾗﾊｼｵｵﾐﾔｼﾞﾘﾁｮｳ","pref":"京都府","city":"京都市南区","address":"唐橋大宮尻町"},
{"zip_code":"6018461","kana_pref":"ｷｮｳﾄﾌ","kana_city":"ｷｮｳﾄｼﾐﾅﾐｸ","kana_address":"ｶﾗﾊｼｶﾄﾞﾜｷﾁｮｳ","pref":"京都府","city":"京都市南区","address":"唐橋門脇町"},
{"zip_code":"6018451","kana_pref":"ｷｮｳﾄﾌ","kana_city":"ｷｮｳﾄｼﾐﾅﾐｸ","kana_address":"ｶﾗﾊｼｶﾜｸﾎﾞﾁｮｳ","pref":"京都府","city":"京都市南区","address":"唐橋川久保町"},
{"zip_code":"6018454","kana_pref":"ｷｮｳﾄﾌ","kana_city":"ｷｮｳﾄｼﾐﾅﾐｸ","kana_address":"ｶﾗﾊｼｹｲﾃﾞﾝﾁｮｳ","pref":"京都府","city":"京都市南区","address":"唐橋経田町"},
{"zip_code":"6018466","kana_pref":"ｷｮｳﾄﾌ","kana_city":"ｷｮｳﾄｼﾐﾅﾐｸ","kana_address":"ｶﾗﾊｼｻｲｼﾞﾁｮｳ","pref":"京都府","city":"京都市南区","address":"唐橋西寺町"},
{"zip_code":"6018464","kana_pref":"ｷｮｳﾄﾌ","kana_city":"ｷｮｳﾄｼﾐﾅﾐｸ","kana_address":"ｶﾗﾊｼﾀｶﾀﾞﾁｮｳ","pref":"京都府","city":"京都市南区","address":"唐橋高田町"},
{"zip_code":"6018452","kana_pref":"ｷｮｳﾄﾌ","kana_city":"ｷｮｳﾄｼﾐﾅﾐｸ","kana_address":"ｶﾗﾊｼﾄﾞｳﾉﾏｴﾁｮｳ","pref":"京都府","city":"京都市南区","address":"唐橋堂ノ前町"},
{"zip_code":"6018468","kana_pref":"ｷｮｳﾄﾌ","kana_city":"ｷｮｳﾄｼﾐﾅﾐｸ","kana_address":"ｶﾗﾊｼﾆｼﾋﾗｶﾞｷﾁｮｳ","pref":"京都府","city":"京都市南区","address":"唐橋西平垣町"},
{"zip_code":"6018465","kana_pref":"ｷｮｳﾄﾌ","kana_city":"ｷｮｳﾄｼﾐﾅﾐｸ","kana_address":"ｶﾗﾊｼﾊﾅｿﾞﾉﾁｮｳ","pref":"京都府","city":"京都市南区","address":"唐橋花園町"},
{"zip_code":"6018469","kana_pref":"ｷｮｳﾄﾌ","kana_city":"ｷｮｳﾄｼﾐﾅﾐｸ","kana_address":"ｶﾗﾊｼﾋﾗｶﾞｷﾁｮｳ","pref":"京都府","city":"京都市南区","address":"唐橋平垣町"},
{"zip_code":"6018457","kana_pref":"ｷｮｳﾄﾌ","kana_city":"ｷｮｳﾄｼﾐﾅﾐｸ","kana_address":"ｶﾗﾊｼﾋﾞﾜﾁｮｳ","pref":"京都府","city":"京都市南区","address":"唐橋琵琶町"},
{"zip_code":"6018456","kana_pref":"ｷｮｳﾄﾌ","kana_city":"ｷｮｳﾄｼﾐﾅﾐｸ","kana_address":"ｶﾗﾊｼﾐﾅﾐﾋﾞﾜﾁｮｳ","pref":"京都府","city":"京都市南区","address":"唐橋南琵琶町"},
{"zip_code":"6018453","kana_pref":"ｷｮｳﾄﾌ","kana_city":"ｷｮｳﾄｼﾐﾅﾐｸ","kana_address":"ｶﾗﾊｼﾗｼﾞｮｳﾓﾝﾁｮｳ","pref":"京都府","city":"京都市南区","address":"唐橋羅城門町"},
{"zip_code":"6018349","kana_pref":"ｷｮｳﾄﾌ","kana_city":"ｷｮｳﾄｼﾐﾅﾐｸ","kana_address":"ｷｯｼｮｳｲﾝｲｹﾀﾞﾁｮｳ","pref":"京都府","city":"京都市南区","address":"吉祥院池田町"},
{"zip_code":"6018346","kana_pref":"ｷｮｳﾄﾌ","kana_city":"ｷｮｳﾄｼﾐﾅﾐｸ","kana_address":"ｷｯｼｮｳｲﾝｲｹﾀﾞﾐﾅﾐﾁｮｳ","pref":"京都府","city":"京都市南区","address":"吉祥院池田南町"},
{"zip_code":"6018316","kana_pref":"ｷｮｳﾄﾌ","kana_city":"ｷｮｳﾄｼﾐﾅﾐｸ","kana_address":"ｷｯｼｮｳｲﾝｲｹﾉｳﾁﾁｮｳ","pref":"京都府","city":"京都市南区","address":"吉祥院池ノ内町"},
{"zip_code":"6018367","kana_pref":"ｷｮｳﾄﾌ","kana_city":"ｷｮｳﾄｼﾐﾅﾐｸ","kana_address":"ｷｯｼｮｳｲﾝｲｼﾊﾗﾁｮｳ","pref":"京都府","city":"京都市南区","address":"吉祥院石原町"},
{"zip_code":"6018343","kana_pref":"ｷｮｳﾄﾌ","kana_city":"ｷｮｳﾄｼﾐﾅﾐｸ","kana_address":"ｷｯｼｮｳｲﾝｲﾅﾊﾞﾁｮｳ","pref":"京都府","city":"京都市南区","address":"吉祥院稲葉町"},
{"zip_code":"6018314","kana_pref":"ｷｮｳﾄﾌ","kana_city":"ｷｮｳﾄｼﾐﾅﾐｸ","kana_address":"ｷｯｼｮｳｲﾝｲﾉｸﾁﾁｮｳ","pref":"京都府","city":"京都市南区","address":"吉祥院井ノ口町"},
{"zip_code":"6018392","kana_pref":"ｷｮｳﾄﾌ","kana_city":"ｷｮｳﾄｼﾐﾅﾐｸ","kana_address":"ｷｯｼｮｳｲﾝｳﾁｶﾞﾜﾗﾁｮｳ","pref":"京都府","city":"京都市南区","address":"吉祥院内河原町"},
{"zip_code":"6018327","kana_pref":"ｷｮｳﾄﾌ","kana_city":"ｷｮｳﾄｼﾐﾅﾐｸ","kana_address":"ｷｯｼｮｳｲﾝｵｲｹﾁｮｳ","pref":"京都府","city":"京都市南区","address":"吉祥院御池町"},
{"zip_code":"6018391","kana_pref":"ｷｮｳﾄﾌ","kana_city":"ｷｮｳﾄｼﾐﾅﾐｸ","kana_address":"ｷｯｼｮｳｲﾝｵｵｶﾞﾜﾗﾁｮｳ","pref":"京都府","city":"京都市南区","address":"吉祥院大河原町"},
{"zip_code":"6018324","kana_pref":"ｷｮｳﾄﾌ","kana_city":"ｷｮｳﾄｼﾐﾅﾐｸ","kana_address":"ｷｯｼｮｳｲﾝｵﾁｱｲﾁｮｳ","pref":"京都府","city":"京都市南区","address":"吉祥院落合町"},
{"zip_code":"6018323","kana_pref":"ｷｮｳﾄﾌ","kana_city":"ｷｮｳﾄｼﾐﾅﾐｸ","kana_address":"ｷｯｼｮｳｲﾝｶｽｶﾞﾁｮｳ","pref":"京都府","city":"京都市南区","address":"吉祥院春日町"},
{"zip_code":"6018348","kana_pref":"ｷｮｳﾄﾌ","kana_city":"ｷｮｳﾄｼﾐﾅﾐｸ","kana_address":"ｷｯｼｮｳｲﾝｶﾝﾉﾝﾄﾞｳﾁｮｳ","pref":"京都府","city":"京都市南区","address":"吉祥院観音堂町"},
{"zip_code":"6018347","kana_pref":"ｷｮｳﾄﾌ","kana_city":"ｷｮｳﾄｼﾐﾅﾐｸ","kana_address":"ｷｯｼｮｳｲﾝｶﾝﾉﾝﾄﾞｳﾐﾅﾐﾁｮｳ","pref":"京都府","city":"京都市南区","address":"吉祥院観音堂南町"},
{"zip_code":"6018328","kana_pref":"ｷｮｳﾄﾌ","kana_city":"ｷｮｳﾄｼﾐﾅﾐｸ","kana_address":"ｷｯｼｮｳｲﾝｸｼﾞｮｳﾁｮｳ","pref":"京都府","city":"京都市南区","address":"吉祥院九条町"},
{"zip_code":"6018315","kana_pref":"ｷｮｳﾄﾌ","kana_city":"ｷｮｳﾄｼﾐﾅﾐｸ","kana_address":"ｷｯｼｮｳｲﾝｸﾙﾏﾐﾁﾁｮｳ","pref":"京都府","city":"京都市南区","address":"吉祥院車道町"},
{"zip_code":"6018322","kana_pref":"ｷｮｳﾄﾌ","kana_city":"ｷｮｳﾄｼﾐﾅﾐｸ","kana_address":"ｷｯｼｮｳｲﾝｻﾀﾞﾅﾘﾁｮｳ","pref":"京都府","city":"京都市南区","address":"吉祥院定成町"},
{"zip_code":"6018339","kana_pref":"ｷｮｳﾄﾌ","kana_city":"ｷｮｳﾄｼﾐﾅﾐｸ","kana_address":"ｷｯｼｮｳｲﾝｻﾄﾉｳﾁﾁｮｳ","pref":"京都府","city":"京都市南区","address":"吉祥院里ノ内町"},
{"zip_code":"6018319","kana_pref":"ｷｮｳﾄﾌ","kana_city":"ｷｮｳﾄｼﾐﾅﾐｸ","kana_address":"ｷｯｼｮｳｲﾝｻﾝﾉﾐﾔﾁｮｳ","pref":"京都府","city":"京都市南区","address":"吉祥院三ノ宮町"},
{"zip_code":"6018318","kana_pref":"ｷｮｳﾄﾌ","kana_city":"ｷｮｳﾄｼﾐﾅﾐｸ","kana_address":"ｷｯｼｮｳｲﾝｻﾝﾉﾐﾔﾆｼﾏﾁ","pref":"京都府","city":"京都市南区","address":"吉祥院三ノ宮西町"},
{"zip_code":"6018329","kana_pref":"ｷｮｳﾄﾌ","kana_city":"ｷｮｳﾄｼﾐﾅﾐｸ","kana_address":"ｷｯｼｮｳｲﾝｼﾐｽﾞﾁｮｳ","pref":"京都府","city":"京都市南区","address":"吉祥院清水町"},
{"zip_code":"6018336","kana_pref":"ｷｮｳﾄﾌ","kana_city":"ｷｮｳﾄｼﾐﾅﾐｸ","kana_address":"ｷｯｼｮｳｲﾝｽｶﾞﾊﾗﾁｮｳ","pref":"京都府","city":"京都市南区","address":"吉祥院菅原町"},
{"zip_code":"6018335","kana_pref":"ｷｮｳﾄﾌ","kana_city":"ｷｮｳﾄｼﾐﾅﾐｸ","kana_address":"ｷｯｼｮｳｲﾝｽﾅﾉﾁｮｳ","pref":"京都府","city":"京都市南区","address":"吉祥院砂ノ町"},
{"zip_code":"6018332","kana_pref":"ｷｮｳﾄﾌ","kana_city":"ｷｮｳﾄｼﾐﾅﾐｸ","kana_address":"ｷｯｼｮｳｲﾝﾀｶﾊﾀﾁｮｳ","pref":"京都府","city":"京都市南区","address":"吉祥院高畑町"},
{"zip_code":"6018399","kana_pref":"ｷｮｳﾄﾌ","kana_city":"ｷｮｳﾄｼﾐﾅﾐｸ","kana_address":"ｷｯｼｮｳｲﾝﾂﾂﾐｿﾄﾁｮｳ","pref":"京都府","city":"京都市南区","address":"吉祥院堤外町"},
{"zip_code":"6018313","kana_pref":"ｷｮｳﾄﾌ","kana_city":"ｷｮｳﾄｼﾐﾅﾐｸ","kana_address":"ｷｯｼｮｳｲﾝﾅｶｼﾞﾏﾁｮｳ","pref":"京都府","city":"京都市南区","address":"吉祥院中島町"},
{"zip_code":"6018362","kana_pref":"ｷｮｳﾄﾌ","kana_city":"ｷｮｳﾄｼﾐﾅﾐｸ","kana_address":"ｷｯｼｮｳｲﾝﾅｶﾞﾀﾁｮｳ","pref":"京都府","city":"京都市南区","address":"吉祥院長田町"},
{"zip_code":"6018354","kana_pref":"ｷｮｳﾄﾌ","kana_city":"ｷｮｳﾄｼﾐﾅﾐｸ","kana_address":"ｷｯｼｮｳｲﾝﾆｷﾉﾓﾘﾁｮｳ","pref":"京都府","city":"京都市南区","address":"吉祥院仁木ノ森町"},
{"zip_code":"6018352","kana_pref":"ｷｮｳﾄﾌ","kana_city":"ｷｮｳﾄｼﾐﾅﾐｸ","kana_address":"ｷｯｼｮｳｲﾝﾆｼｳﾗﾁｮｳ","pref":"京都府","city":"京都市南区","address":"吉祥院西浦町"},
{"zip_code":"6018321","kana_pref":"ｷｮｳﾄﾌ","kana_city":"ｷｮｳﾄｼﾐﾅﾐｸ","kana_address":"ｷｯｼｮｳｲﾝﾆｼｻﾀﾞﾅﾘﾁｮｳ","pref":"京都府","city":"京都市南区","address":"吉祥院西定成町"},
{"zip_code":"6018338","kana_pref":"ｷｮｳﾄﾌ","kana_city":"ｷｮｳﾄｼﾐﾅﾐｸ","kana_address":"ｷｯｼｮｳｲﾝﾆｼﾉｳﾁﾁｮｳ","pref":"京都府","city":"京都市南区","address":"吉祥院西ノ内町"},
{"zip_code":"6018381","kana_pref":"ｷｮｳﾄﾌ","kana_city":"ｷｮｳﾄｼﾐﾅﾐｸ","kana_address":"ｷｯｼｮｳｲﾝﾆｼﾉﾁｬﾔﾁｮｳ","pref":"京都府","city":"京都市南区","address":"吉祥院西ノ茶屋町"},
{"zip_code":"6018353","kana_pref":"ｷｮｳﾄﾌ","kana_city":"ｷｮｳﾄｼﾐﾅﾐｸ","kana_address":"ｷｯｼｮｳｲﾝﾊｲﾉﾎﾞﾘﾅｶﾏﾁ","pref":"京都府","city":"京都市南区","address":"吉祥院這登中町"},
{"zip_code":"6018351","kana_pref":"ｷｮｳﾄﾌ","kana_city":"ｷｮｳﾄｼﾐﾅﾐｸ","kana_address":"ｷｯｼｮｳｲﾝﾊｲﾉﾎﾞﾘﾆｼﾏﾁ","pref":"京都府","city":"京都市南区","address":"吉祥院這登西町"},
{"zip_code":"6018337","kana_pref":"ｷｮｳﾄﾌ","kana_city":"ｷｮｳﾄｼﾐﾅﾐｸ","kana_address":"ｷｯｼｮｳｲﾝﾊｲﾉﾎﾞﾘﾋｶﾞｼﾏﾁ","pref":"京都府","city":"京都市南区","address":"吉祥院這登東町"},
{"zip_code":"6018325","kana_pref":"ｷｮｳﾄﾌ","kana_city":"ｷｮｳﾄｼﾐﾅﾐｸ","kana_address":"ｷｯｼｮｳｲﾝﾊﾂﾀﾝﾀﾞﾁｮｳ","pref":"京都府","city":"京都市南区","address":"吉祥院八反田町"},
{"zip_code":"6018333","kana_pref":"ｷｮｳﾄﾌ","kana_city":"ｷｮｳﾄｼﾐﾅﾐｸ","kana_address":"ｷｯｼｮｳｲﾝﾋｶﾞｼｳﾗﾁｮｳ","pref":"京都府","city":"京都市南区","address":"吉祥院東浦町"},
{"zip_code":"6018334","kana_pref":"ｷｮｳﾄﾌ","kana_city":"ｷｮｳﾄｼﾐﾅﾐｸ","kana_address":"ｷｯｼｮｳｲﾝﾋｶﾞｼｽﾅﾉﾁｮｳ","pref":"京都府","city":"京都市南区","address":"吉祥院東砂ノ町"},
{"zip_code":"6018342","kana_pref":"ｷｮｳﾄﾌ","kana_city":"ｷｮｳﾄｼﾐﾅﾐｸ","kana_address":"ｷｯｼｮｳｲﾝﾋｶﾞｼﾏｴﾀﾞﾁｮｳ","pref":"京都府","city":"京都市南区","address":"吉祥院東前田町"},
{"zip_code":"6018330","kana_pref":"ｷｮｳﾄﾌ","kana_city":"ｷｮｳﾄｼﾐﾅﾐｸ","kana_address":"ｷｯｼｮｳｲﾝﾌﾅﾄﾁｮｳ","pref":"京都府","city":"京都市南区","address":"吉祥院船戸町"},
{"zip_code":"6018304","kana_pref":"ｷｮｳﾄﾌ","kana_city":"ｷｮｳﾄｼﾐﾅﾐｸ","kana_address":"ｷｯｼｮｳｲﾝﾏｴｶﾞﾜﾗﾁｮｳ","pref":"京都府","city":"京都市南区","address":"吉祥院前河原町"},
{"zip_code":"6018341","kana_pref":"ｷｮｳﾄﾌ","kana_city":"ｷｮｳﾄｼﾐﾅﾐｸ","kana_address":"ｷｯｼｮｳｲﾝﾏｴﾀﾞﾁｮｳ","pref":"京都府","city":"京都市南区","address":"吉祥院前田町"},
{"zip_code":"6018344","kana_pref":"ｷｮｳﾄﾌ","kana_city":"ｷｮｳﾄｼﾐﾅﾐｸ","kana_address":"ｷｯｼｮｳｲﾝﾏｷｴﾁｮｳ","pref":"京都府","city":"京都市南区","address":"吉祥院蒔絵町"},
{"zip_code":"6018345","kana_pref":"ｷｮｳﾄﾌ","kana_city":"ｷｮｳﾄｼﾐﾅﾐｸ","kana_address":"ｷｯｼｮｳｲﾝﾏｷｴﾐﾅﾐﾁｮｳ","pref":"京都府","city":"京都市南区","address":"吉祥院蒔絵南町"},
{"zip_code":"6018331","kana_pref":"ｷｮｳﾄﾌ","kana_city":"ｷｮｳﾄｼﾐﾅﾐｸ","kana_address":"ｷｯｼｮｳｲﾝﾏﾝﾄﾞｺﾛﾁｮｳ","pref":"京都府","city":"京都市南区","address":"吉祥院政所町"},
{"zip_code":"6018326","kana_pref":"ｷｮｳﾄﾌ","kana_city":"ｷｮｳﾄｼﾐﾅﾐｸ","kana_address":"ｷｯｼｮｳｲﾝﾐﾅﾐｵﾁｱｲﾁｮｳ","pref":"京都府","city":"京都市南区","address":"吉祥院南落合町"},
{"zip_code":"6018306","kana_pref":"ｷｮｳﾄﾌ","kana_city":"ｷｮｳﾄｼﾐﾅﾐｸ","kana_address":"ｷｯｼｮｳｲﾝﾐﾔﾉﾆｼﾁｮｳ","pref":"京都府","city":"京都市南区","address":"吉祥院宮ノ西町"},
{"zip_code":"6018305","kana_pref":"ｷｮｳﾄﾌ","kana_city":"ｷｮｳﾄｼﾐﾅﾐｸ","kana_address":"ｷｯｼｮｳｲﾝﾐﾔﾉﾋｶﾞｼﾁｮｳ","pref":"京都府","city":"京都市南区","address":"吉祥院宮ノ東町"},
{"zip_code":"6018307","kana_pref":"ｷｮｳﾄﾌ","kana_city":"ｷｮｳﾄｼﾐﾅﾐｸ","kana_address":"ｷｯｼｮｳｲﾝﾑｶｲﾀﾞﾆｼﾁｮｳ","pref":"京都府","city":"京都市南区","address":"吉祥院向田西町"},
{"zip_code":"6018308","kana_pref":"ｷｮｳﾄﾌ","kana_city":"ｷｮｳﾄｼﾐﾅﾐｸ","kana_address":"ｷｯｼｮｳｲﾝﾑｶｲﾀﾞﾋｶﾞｼﾁｮｳ","pref":"京都府","city":"京都市南区","address":"吉祥院向田東町"},
{"zip_code":"6018390","kana_pref":"ｷｮｳﾄﾌ","kana_city":"ｷｮｳﾄｼﾐﾅﾐｸ","kana_address":"ｷｯｼｮｳｲﾝﾘｭｳｻｸﾁｮｳ","pref":"京都府","city":"京都市南区","address":"吉祥院流作町"},
{"zip_code":"6018382","kana_pref":"ｷｮｳﾄﾌ","kana_city":"ｷｮｳﾄｼﾐﾅﾐｸ","kana_address":"ｷｯｼｮｳｲﾝｲｼﾊﾗｶﾐｶﾜﾗﾁｮｳ","pref":"京都府","city":"京都市南区","address":"吉祥院石原上川原町"},
{"zip_code":"6018356","kana_pref":"ｷｮｳﾄﾌ","kana_city":"ｷｮｳﾄｼﾐﾅﾐｸ","kana_address":"ｷｯｼｮｳｲﾝｲｼﾊﾗｷｮｳﾐﾁﾁｮｳ","pref":"京都府","city":"京都市南区","address":"吉祥院石原京道町"},
{"zip_code":"6018355","kana_pref":"ｷｮｳﾄﾌ","kana_city":"ｷｮｳﾄｼﾐﾅﾐｸ","kana_address":"ｷｯｼｮｳｲﾝｲｼﾊﾗﾄﾞｳﾉｳｼﾛﾁｮｳ","pref":"京都府","city":"京都市南区","address":"吉祥院石原堂ノ後町"},
{"zip_code":"6018357","kana_pref":"ｷｮｳﾄﾌ","kana_city":"ｷｮｳﾄｼﾐﾅﾐｸ","kana_address":"ｷｯｼｮｳｲﾝｲｼﾊﾗﾄﾞｳﾉｳｼﾛﾆｼﾏﾁ","pref":"京都府","city":"京都市南区","address":"吉祥院石原堂ノ後西町"},
{"zip_code":"6018383","kana_pref":"ｷｮｳﾄﾌ","kana_city":"ｷｮｳﾄｼﾐﾅﾐｸ","kana_address":"ｷｯｼｮｳｲﾝｲｼﾊﾗﾅｶﾞﾀﾁｮｳ","pref":"京都府","city":"京都市南区","address":"吉祥院石原長田町"},
{"zip_code":"6018366","kana_pref":"ｷｮｳﾄﾌ","kana_city":"ｷｮｳﾄｼﾐﾅﾐｸ","kana_address":"ｷｯｼｮｳｲﾝｲｼﾊﾗﾆｼﾏﾁ","pref":"京都府","city":"京都市南区","address":"吉祥院石原西町"},
{"zip_code":"6018388","kana_pref":"ｷｮｳﾄﾌ","kana_city":"ｷｮｳﾄｼﾐﾅﾐｸ","kana_address":"ｷｯｼｮｳｲﾝｲｼﾊﾗﾆｼﾉﾋﾗｷﾁｮｳ","pref":"京都府","city":"京都市南区","address":"吉祥院石原西ノ開町"},
{"zip_code":"6018384","kana_pref":"ｷｮｳﾄﾌ","kana_city":"ｷｮｳﾄｼﾐﾅﾐｸ","kana_address":"ｷｯｼｮｳｲﾝｲｼﾊﾗﾉｶﾞﾐﾁｮｳ","pref":"京都府","city":"京都市南区","address":"吉祥院石原野上町"},
{"zip_code":"6018387","kana_pref":"ｷｮｳﾄﾌ","kana_city":"ｷｮｳﾄｼﾐﾅﾐｸ","kana_address":"ｷｯｼｮｳｲﾝｲｼﾊﾗﾊｼｳﾗ","pref":"京都府","city":"京都市南区","address":"吉祥院石原橋裏"},
{"zip_code":"6018389","kana_pref":"ｷｮｳﾄﾌ","kana_city":"ｷｮｳﾄｼﾐﾅﾐｸ","kana_address":"ｷｯｼｮｳｲﾝｲｼﾊﾗﾊｼｶﾐ","pref":"京都府","city":"京都市南区","address":"吉祥院石原橋上"},
{"zip_code":"6018361","kana_pref":"ｷｮｳﾄﾌ","kana_city":"ｷｮｳﾄｼﾐﾅﾐｸ","kana_address":"ｷｯｼｮｳｲﾝｲｼﾊﾗﾋｶﾞｼﾉｸﾁ","pref":"京都府","city":"京都市南区","address":"吉祥院石原東之口"},
{"zip_code":"6018365","kana_pref":"ｷｮｳﾄﾌ","kana_city":"ｷｮｳﾄｼﾐﾅﾐｸ","kana_address":"ｷｯｼｮｳｲﾝｲｼﾊﾗﾋﾗｷﾏﾁ","pref":"京都府","city":"京都市南区","address":"吉祥院石原開町"},
{"zip_code":"6018364","kana_pref":"ｷｮｳﾄﾌ","kana_city":"ｷｮｳﾄｼﾐﾅﾐｸ","kana_address":"ｷｯｼｮｳｲﾝｲｼﾊﾗﾐﾅﾐﾁｮｳ","pref":"京都府","city":"京都市南区","address":"吉祥院石原南町"},
{"zip_code":"6018385","kana_pref":"ｷｮｳﾄﾌ","kana_city":"ｷｮｳﾄｼﾐﾅﾐｸ","kana_address":"ｷｯｼｮｳｲﾝｲｼﾊﾗﾖｼﾍﾞﾘ","pref":"京都府","city":"京都市南区","address":"吉祥院石原葭縁"},
{"zip_code":"6018386","kana_pref":"ｷｮｳﾄﾌ","kana_city":"ｷｮｳﾄｼﾐﾅﾐｸ","kana_address":"ｷｯｼｮｳｲﾝｲｼﾊﾗﾜﾘﾊﾀ","pref":"京都府","city":"京都市南区","address":"吉祥院石原割畑"},
{"zip_code":"6018374","kana_pref":"ｷｮｳﾄﾌ","kana_city":"ｷｮｳﾄｼﾐﾅﾐｸ","kana_address":"ｷｯｼｮｳｲﾝｼﾏｶｻｲﾁｮｳ","pref":"京都府","city":"京都市南区","address":"吉祥院嶋笠井町"},
{"zip_code":"6018371","kana_pref":"ｷｮｳﾄﾌ","kana_city":"ｷｮｳﾄｼﾐﾅﾐｸ","kana_address":"ｷｯｼｮｳｲﾝｼﾏｶﾀｷﾞﾔﾏﾁｮｳ","pref":"京都府","city":"京都市南区","address":"吉祥院嶋樫山町"},
{"zip_code":"6018379","kana_pref":"ｷｮｳﾄﾌ","kana_city":"ｷｮｳﾄｼﾐﾅﾐｸ","kana_address":"ｷｯｼｮｳｲﾝｼﾏｶﾜﾗﾀﾞﾁｮｳ","pref":"京都府","city":"京都市南区","address":"吉祥院嶋川原田町"},
{"zip_code":"6018372","kana_pref":"ｷｮｳﾄﾌ","kana_city":"ｷｮｳﾄｼﾐﾅﾐｸ","kana_address":"ｷｯｼｮｳｲﾝｼﾏﾀｶﾏﾁ","pref":"京都府","city":"京都市南区","address":"吉祥院嶋高町"},
{"zip_code":"6018378","kana_pref":"ｷｮｳﾄﾌ","kana_city":"ｷｮｳﾄｼﾐﾅﾐｸ","kana_address":"ｷｯｼｮｳｲﾝｼﾏﾂﾂﾐｿﾄ","pref":"京都府","city":"京都市南区","address":"吉祥院嶋堤外"},
{"zip_code":"6018373","kana_pref":"ｷｮｳﾄﾌ","kana_city":"ｷｮｳﾄｼﾐﾅﾐｸ","kana_address":"ｷｯｼｮｳｲﾝｼﾏﾃﾞｻﾞｲｹﾁｮｳ","pref":"京都府","city":"京都市南区","address":"吉祥院嶋出在家町"},
{"zip_code":"6018377","kana_pref":"ｷｮｳﾄﾌ","kana_city":"ｷｮｳﾄｼﾐﾅﾐｸ","kana_address":"ｷｯｼｮｳｲﾝｼﾏﾄﾞｳﾉｳﾗ","pref":"京都府","city":"京都市南区","address":"吉祥院嶋堂ノ裏"},
{"zip_code":"6018376","kana_pref":"ｷｮｳﾄﾌ","kana_city":"ｷｮｳﾄｼﾐﾅﾐｸ","kana_address":"ｷｯｼｮｳｲﾝｼﾏﾅｶﾉｼﾏ","pref":"京都府","city":"京都市南区","address":"吉祥院嶋中ノ島"},
{"zip_code":"6018375","kana_pref":"ｷｮｳﾄﾌ","kana_city":"ｷｮｳﾄｼﾐﾅﾐｸ","kana_address":"ｷｯｼｮｳｲﾝｼﾏﾆｼｳﾗ","pref":"京都府","city":"京都市南区","address":"吉祥院嶋西浦"},
{"zip_code":"6018363","kana_pref":"ｷｮｳﾄﾌ","kana_city":"ｷｮｳﾄｼﾐﾅﾐｸ","kana_address":"ｷｯｼｮｳｲﾝｼﾏﾉﾏﾂﾞﾒﾁｮｳ","pref":"京都府","city":"京都市南区","address":"吉祥院嶋野間詰町"},
{"zip_code":"6018397","kana_pref":"ｷｮｳﾄﾌ","kana_city":"ｷｮｳﾄｼﾐﾅﾐｸ","kana_address":"ｷｯｼｮｳｲﾝｼﾝﾃﾞﾝｲﾁﾉﾀﾞﾝﾁｮｳ","pref":"京都府","city":"京都市南区","address":"吉祥院新田壱ノ段町"},
{"zip_code":"6018398","kana_pref":"ｷｮｳﾄﾌ","kana_city":"ｷｮｳﾄｼﾐﾅﾐｸ","kana_address":"ｷｯｼｮｳｲﾝｼﾝﾃﾞﾝｻﾝﾉﾀﾞﾝﾁｮｳ","pref":"京都府","city":"京都市南区","address":"吉祥院新田参ノ段町"},
{"zip_code":"6018380","kana_pref":"ｷｮｳﾄﾌ","kana_city":"ｷｮｳﾄｼﾐﾅﾐｸ","kana_address":"ｷｯｼｮｳｲﾝｼﾝﾃﾞﾝｼﾓﾉﾑｶｲﾁｮｳ","pref":"京都府","city":"京都市南区","address":"吉祥院新田下ノ向町"},
{"zip_code":"6018317","kana_pref":"ｷｮｳﾄﾌ","kana_city":"ｷｮｳﾄｼﾐﾅﾐｸ","kana_address":"ｷｯｼｮｳｲﾝｼﾝﾃﾞﾝﾆﾉﾀﾞﾝﾁｮｳ","pref":"京都府","city":"京都市南区","address":"吉祥院新田弐ノ段町"},
{"zip_code":"6018394","kana_pref":"ｷｮｳﾄﾌ","kana_city":"ｷｮｳﾄｼﾐﾅﾐｸ","kana_address":"ｷｯｼｮｳｲﾝﾅｶｶﾞﾜﾗｻﾄｷﾀﾁｮｳ","pref":"京都府","city":"京都市南区","address":"吉祥院中河原里北町"},
{"zip_code":"6018393","kana_pref":"ｷｮｳﾄﾌ","kana_city":"ｷｮｳﾄｼﾐﾅﾐｸ","kana_address":"ｷｯｼｮｳｲﾝﾅｶｶﾞﾜﾗｻﾄﾆｼﾁｮｳ","pref":"京都府","city":"京都市南区","address":"吉祥院中河原里西町"},
{"zip_code":"6018396","kana_pref":"ｷｮｳﾄﾌ","kana_city":"ｷｮｳﾄｼﾐﾅﾐｸ","kana_address":"ｷｯｼｮｳｲﾝﾅｶｶﾞﾜﾗｻﾄﾐﾅﾐﾁｮｳ","pref":"京都府","city":"京都市南区","address":"吉祥院中河原里南町"},
{"zip_code":"6018395","kana_pref":"ｷｮｳﾄﾌ","kana_city":"ｷｮｳﾄｼﾐﾅﾐｸ","kana_address":"ｷｯｼｮｳｲﾝﾅｶｶﾞﾜﾗﾆｼﾔｼｷﾁｮｳ","pref":"京都府","city":"京都市南区","address":"吉祥院中河原西屋敷町"},
{"zip_code":"6018310","kana_pref":"ｷｮｳﾄﾌ","kana_city":"ｷｮｳﾄｼﾐﾅﾐｸ","kana_address":"ｷｯｼｮｳｲﾝﾆｼﾉｼｮｳｲﾉﾊﾞﾊﾞﾁｮｳ","pref":"京都府","city":"京都市南区","address":"吉祥院西ノ庄猪之馬場町"},
{"zip_code":"6018301","kana_pref":"ｷｮｳﾄﾌ","kana_city":"ｷｮｳﾄｼﾐﾅﾐｸ","kana_address":"ｷｯｼｮｳｲﾝﾆｼﾉｼｮｳﾆｼｳﾗﾁｮｳ","pref":"京都府","city":"京都市南区","address":"吉祥院西ノ庄西浦町"},
{"zip_code":"6018303","kana_pref":"ｷｮｳﾄﾌ","kana_city":"ｷｮｳﾄｼﾐﾅﾐｸ","kana_address":"ｷｯｼｮｳｲﾝﾆｼﾉｼｮｳﾆｼﾅｶﾁｮｳ","pref":"京都府","city":"京都市南区","address":"吉祥院西ノ庄西中町"},
{"zip_code":"6018311","kana_pref":"ｷｮｳﾄﾌ","kana_city":"ｷｮｳﾄｼﾐﾅﾐｸ","kana_address":"ｷｯｼｮｳｲﾝﾆｼﾉｼｮｳﾋｶﾞｼﾔｼｷﾁｮｳ","pref":"京都府","city":"京都市南区","address":"吉祥院西ノ庄東屋敷町"},
{"zip_code":"6018302","kana_pref":"ｷｮｳﾄﾌ","kana_city":"ｷｮｳﾄｼﾐﾅﾐｸ","kana_address":"ｷｯｼｮｳｲﾝﾆｼﾉｼｮｳﾌﾁﾉﾆｼﾁｮｳ","pref":"京都府","city":"京都市南区","address":"吉祥院西ノ庄渕ノ西町"},
{"zip_code":"6018309","kana_pref":"ｷｮｳﾄﾌ","kana_city":"ｷｮｳﾄｼﾐﾅﾐｸ","kana_address":"ｷｯｼｮｳｲﾝﾆｼﾉｼｮｳﾑｶｲﾀﾞﾁｮｳ","pref":"京都府","city":"京都市南区","address":"吉祥院西ノ庄向田町"},
{"zip_code":"6018312","kana_pref":"ｷｮｳﾄﾌ","kana_city":"ｷｮｳﾄｼﾐﾅﾐｸ","kana_address":"ｷｯｼｮｳｲﾝﾆｼﾉｼｮｳﾓﾝｸﾞﾁﾁｮｳ","pref":"京都府","city":"京都市南区","address":"吉祥院西ノ庄門口町"},
{"zip_code":"6018473","kana_pref":"ｷｮｳﾄﾌ","kana_city":"ｷｮｳﾄｼﾐﾅﾐｸ","kana_address":"ｸｼﾞｮｳﾁｮｳ","pref":"京都府","city":"京都市南区","address":"九条町"},
{"zip_code":"6018202","kana_pref":"ｷｮｳﾄﾌ","kana_city":"ｷｮｳﾄｼﾐﾅﾐｸ","kana_address":"ｸｾﾞｵｵﾂｷﾁｮｳ","pref":"京都府","city":"京都市南区","address":"久世大築町"},
{"zip_code":"6018206","kana_pref":"ｷｮｳﾄﾌ","kana_city":"ｷｮｳﾄｼﾐﾅﾐｸ","kana_address":"ｸｾﾞｵｵﾔﾌﾞﾁｮｳ","pref":"京都府","city":"京都市南区","address":"久世大薮町"},
{"zip_code":"6018212","kana_pref":"ｷｮｳﾄﾌ","kana_city":"ｷｮｳﾄｼﾐﾅﾐｸ","kana_address":"ｸｾﾞｶﾐｸｾﾞﾁｮｳ","pref":"京都府","city":"京都市南区","address":"久世上久世町"},
{"zip_code":"6018201","kana_pref":"ｷｮｳﾄﾌ","kana_city":"ｷｮｳﾄｼﾐﾅﾐｸ","kana_address":"ｸｾﾞｶﾜﾊﾗﾁｮｳ","pref":"京都府","city":"京都市南区","address":"久世川原町"},
{"zip_code":"6018211","kana_pref":"ｷｮｳﾄﾌ","kana_city":"ｷｮｳﾄｼﾐﾅﾐｸ","kana_address":"ｸｾﾞﾀｶﾀﾞﾁｮｳ","pref":"京都府","city":"京都市南区","address":"久世高田町"},
{"zip_code":"6018203","kana_pref":"ｷｮｳﾄﾌ","kana_city":"ｷｮｳﾄｼﾐﾅﾐｸ","kana_address":"ｸｾﾞﾂｷﾔﾏﾁｮｳ","pref":"京都府","city":"京都市南区","address":"久世築山町"},
{"zip_code":"6018205","kana_pref":"ｷｮｳﾄﾌ","kana_city":"ｷｮｳﾄｼﾐﾅﾐｸ","kana_address":"ｸｾﾞﾄﾉｼﾛﾁｮｳ","pref":"京都府","city":"京都市南区","address":"久世殿城町"},
{"zip_code":"6018213","kana_pref":"ｷｮｳﾄﾌ","kana_city":"ｷｮｳﾄｼﾐﾅﾐｸ","kana_address":"ｸｾﾞﾅｶｸｾﾞﾁｮｳ","pref":"京都府","city":"京都市南区","address":"久世中久世町"},
{"zip_code":"6018207","kana_pref":"ｷｮｳﾄﾌ","kana_city":"ｷｮｳﾄｼﾐﾅﾐｸ","kana_address":"ｸｾﾞﾅｶﾋｻﾁｮｳ","pref":"京都府","city":"京都市南区","address":"久世中久町"},
{"zip_code":"6018204","kana_pref":"ｷｮｳﾄﾌ","kana_city":"ｷｮｳﾄｼﾐﾅﾐｸ","kana_address":"ｸｾﾞﾋｶﾞｼﾂﾁｶﾜﾁｮｳ","pref":"京都府","city":"京都市南区","address":"久世東土川町"},
{"zip_code":"6018401","kana_pref":"ｷｮｳﾄﾌ","kana_city":"ｷｮｳﾄｼﾐﾅﾐｸ","kana_address":"ｼｵﾔﾁｮｳ","pref":"京都府","city":"京都市南区","address":"塩屋町"},
{"zip_code":"6018402","kana_pref":"ｷｮｳﾄﾌ","kana_city":"ｷｮｳﾄｼﾐﾅﾐｸ","kana_address":"ﾀﾞｲｺｸﾁｮｳ","pref":"京都府","city":"京都市南区","address":"大黒町"},
{"zip_code":"6018478","kana_pref":"ｷｮｳﾄﾌ","kana_city":"ｷｮｳﾄｼﾐﾅﾐｸ","kana_address":"ﾄｳｼﾞﾁｮｳ","pref":"京都府","city":"京都市南区","address":"東寺町"},
{"zip_code":"6018428","kana_pref":"ｷｮｳﾄﾌ","kana_city":"ｷｮｳﾄｼﾐﾅﾐｸ","kana_address":"ﾄｳｼﾞﾋｶﾞｼﾓﾝｾﾞﾝﾁｮｳ","pref":"京都府","city":"京都市南区","address":"東寺東門前町"},
{"zip_code":"6018416","kana_pref":"ｷｮｳﾄﾌ","kana_city":"ｷｮｳﾄｼﾐﾅﾐｸ","kana_address":"ﾆｼｸｼﾞｮｳｲｹﾉｳﾁﾁｮｳ","pref":"京都府","city":"京都市南区","address":"西九条池ノ内町"},
{"zip_code":"6018426","kana_pref":"ｷｮｳﾄﾌ","kana_city":"ｷｮｳﾄｼﾐﾅﾐｸ","kana_address":"ﾆｼｸｼﾞｮｳｲﾉｸﾏﾁｮｳ","pref":"京都府","city":"京都市南区","address":"西九条猪熊町"},
{"zip_code":"6018412","kana_pref":"ｷｮｳﾄﾌ","kana_city":"ｷｮｳﾄｼﾐﾅﾐｸ","kana_address":"ﾆｼｸｼﾞｮｳｲﾝﾏﾁ","pref":"京都府","city":"京都市南区","address":"西九条院町"},
{"zip_code":"6018449","kana_pref":"ｷｮｳﾄﾌ","kana_city":"ｷｮｳﾄｼﾐﾅﾐｸ","kana_address":"ﾆｼｸｼﾞｮｳｵｵｸﾆﾁｮｳ","pref":"京都府","city":"京都市南区","address":"西九条大国町"},
{"zip_code":"6018439","kana_pref":"ｷｮｳﾄﾌ","kana_city":"ｷｮｳﾄｼﾐﾅﾐｸ","kana_address":"ﾆｼｸｼﾞｮｳｶｲｶﾞﾁｮｳ","pref":"京都府","city":"京都市南区","address":"西九条開ケ町"},
{"zip_code":"6018405","kana_pref":"ｷｮｳﾄﾌ","kana_city":"ｷｮｳﾄｼﾐﾅﾐｸ","kana_address":"ﾆｼｸｼﾞｮｳｶｲｺｳｼﾞﾁｮｳ","pref":"京都府","city":"京都市南区","address":"西九条戒光寺町"},
{"zip_code":"6018413","kana_pref":"ｷｮｳﾄﾌ","kana_city":"ｷｮｳﾄｼﾐﾅﾐｸ","kana_address":"ﾆｼｸｼﾞｮｳｶｽｶﾞﾁｮｳ","pref":"京都府","city":"京都市南区","address":"西九条春日町"},
{"zip_code":"6018447","kana_pref":"ｷｮｳﾄﾌ","kana_city":"ｷｮｳﾄｼﾐﾅﾐｸ","kana_address":"ﾆｼｸｼﾞｮｳｶﾗﾄﾁｮｳ","pref":"京都府","city":"京都市南区","address":"西九条唐戸町"},
{"zip_code":"6018423","kana_pref":"ｷｮｳﾄﾌ","kana_city":"ｷｮｳﾄｼﾐﾅﾐｸ","kana_address":"ﾆｼｸｼﾞｮｳｶﾗﾊｼﾁｮｳ","pref":"京都府","city":"京都市南区","address":"西九条唐橋町"},
{"zip_code":"6018424","kana_pref":"ｷｮｳﾄﾌ","kana_city":"ｷｮｳﾄｼﾐﾅﾐｸ","kana_address":"ﾆｼｸｼﾞｮｳｶﾜﾗｼﾞｮｳﾁｮｳ","pref":"京都府","city":"京都市南区","address":"西九条川原城町"},
{"zip_code":"6018411","kana_pref":"ｷｮｳﾄﾌ","kana_city":"ｷｮｳﾄｼﾐﾅﾐｸ","kana_address":"ﾆｼｸｼﾞｮｳｷﾀﾉｳﾁﾁｮｳ","pref":"京都府","city":"京都市南区","address":"西九条北ノ内町"},
{"zip_code":"6018442","kana_pref":"ｷｮｳﾄﾌ","kana_city":"ｷｮｳﾄｼﾐﾅﾐｸ","kana_address":"ﾆｼｸｼﾞｮｳｺﾞｺｳﾃﾞﾝﾁｮｳ","pref":"京都府","city":"京都市南区","address":"西九条御幸田町"},
{"zip_code":"6018404","kana_pref":"ｷｮｳﾄﾌ","kana_city":"ｷｮｳﾄｼﾐﾅﾐｸ","kana_address":"ﾆｼｸｼﾞｮｳｺﾃﾞﾗﾁｮｳ","pref":"京都府","city":"京都市南区","address":"西九条小寺町"},
{"zip_code":"6018414","kana_pref":"ｷｮｳﾄﾌ","kana_city":"ｷｮｳﾄｼﾐﾅﾐｸ","kana_address":"ﾆｼｸｼﾞｮｳｻﾞｵｳﾁｮｳ","pref":"京都府","city":"京都市南区","address":"西九条蔵王町"},
{"zip_code":"6018431","kana_pref":"ｷｮｳﾄﾌ","kana_city":"ｷｮｳﾄｼﾐﾅﾐｸ","kana_address":"ﾆｼｸｼﾞｮｳｼﾏﾏﾁ","pref":"京都府","city":"京都市南区","address":"西九条島町"},
{"zip_code":"6018445","kana_pref":"ｷｮｳﾄﾌ","kana_city":"ｷｮｳﾄｼﾐﾅﾐｸ","kana_address":"ﾆｼｸｼﾞｮｳｽｶﾞﾀﾁｮｳ","pref":"京都府","city":"京都市南区","address":"西九条菅田町"},
{"zip_code":"6018446","kana_pref":"ｷｮｳﾄﾌ","kana_city":"ｷｮｳﾄｼﾐﾅﾐｸ","kana_address":"ﾆｼｸｼﾞｮｳﾀｶﾊﾀﾁｮｳ","pref":"京都府","city":"京都市南区","address":"西九条高畠町"},
{"zip_code":"6018407","kana_pref":"ｷｮｳﾄﾌ","kana_city":"ｷｮｳﾄｼﾐﾅﾐｸ","kana_address":"ﾆｼｸｼﾞｮｳﾃﾗﾉﾏｴﾁｮｳ","pref":"京都府","city":"京都市南区","address":"西九条寺ノ前町"},
{"zip_code":"6018448","kana_pref":"ｷｮｳﾄﾌ","kana_city":"ｷｮｳﾄｼﾐﾅﾐｸ","kana_address":"ﾆｼｸｼﾞｮｳﾄﾖﾀﾞﾁｮｳ","pref":"京都府","city":"京都市南区","address":"西九条豊田町"},
{"zip_code":"6018417","kana_pref":"ｷｮｳﾄﾌ","kana_city":"ｷｮｳﾄｼﾐﾅﾐｸ","kana_address":"ﾆｼｸｼﾞｮｳﾄﾘｲｸﾞﾁﾁｮｳ","pref":"京都府","city":"京都市南区","address":"西九条鳥居口町"},
{"zip_code":"6018441","kana_pref":"ｷｮｳﾄﾌ","kana_city":"ｷｮｳﾄｼﾐﾅﾐｸ","kana_address":"ﾆｼｸｼﾞｮｳﾅﾝﾃﾞﾝﾁｮｳ","pref":"京都府","city":"京都市南区","address":"西九条南田町"},
{"zip_code":"6018415","kana_pref":"ｷｮｳﾄﾌ","kana_city":"ｷｮｳﾄｼﾐﾅﾐｸ","kana_address":"ﾆｼｸｼﾞｮｳﾆｼｻﾞｵｳﾁｮｳ","pref":"京都府","city":"京都市南区","address":"西九条西蔵王町"},
{"zip_code":"6018436","kana_pref":"ｷｮｳﾄﾌ","kana_city":"ｷｮｳﾄｼﾐﾅﾐｸ","kana_address":"ﾆｼｸｼﾞｮｳﾆｼﾔﾅｷﾞﾉｳﾁﾁｮｳ","pref":"京都府","city":"京都市南区","address":"西九条西柳ノ内町"},
{"zip_code":"6018422","kana_pref":"ｷｮｳﾄﾌ","kana_city":"ｷｮｳﾄｼﾐﾅﾐｸ","kana_address":"ﾆｼｸｼﾞｮｳﾊﾘｺｳｼﾞﾁｮｳ","pref":"京都府","city":"京都市南区","address":"西九条針小路町"},
{"zip_code":"6018437","kana_pref":"ｷｮｳﾄﾌ","kana_city":"ｷｮｳﾄｼﾐﾅﾐｸ","kana_address":"ﾆｼｸｼﾞｮｳﾋｴｲｼﾞｮｳﾁｮｳ","pref":"京都府","city":"京都市南区","address":"西九条比永城町"},
{"zip_code":"6018443","kana_pref":"ｷｮｳﾄﾌ","kana_city":"ｷｮｳﾄｼﾐﾅﾐｸ","kana_address":"ﾆｼｸｼﾞｮｳﾋｶﾞｼｺﾞｺｳﾃﾞﾝﾁｮｳ","pref":"京都府","city":"京都市南区","address":"西九条東御幸田町"},
{"zip_code":"6018432","kana_pref":"ｷｮｳﾄﾌ","kana_city":"ｷｮｳﾄｼﾐﾅﾐｸ","kana_address":"ﾆｼｸｼﾞｮｳﾋｶﾞｼｼﾏﾏﾁ","pref":"京都府","city":"京都市南区","address":"西九条東島町"},
{"zip_code":"6018438","kana_pref":"ｷｮｳﾄﾌ","kana_city":"ｷｮｳﾄｼﾐﾅﾐｸ","kana_address":"ﾆｼｸｼﾞｮｳﾋｶﾞｼﾋｴｲｼﾞｮｳﾁｮｳ","pref":"京都府","city":"京都市南区","address":"西九条東比永城町"},
{"zip_code":"6018433","kana_pref":"ｷｮｳﾄﾌ","kana_city":"ｷｮｳﾄｼﾐﾅﾐｸ","kana_address":"ﾆｼｸｼﾞｮｳﾋｶﾞｼﾔﾅｷﾞﾉｳﾁﾁｮｳ","pref":"京都府","city":"京都市南区","address":"西九条東柳ノ内町"},
{"zip_code":"6018421","kana_pref":"ｷｮｳﾄﾌ","kana_city":"ｷｮｳﾄｼﾐﾅﾐｸ","kana_address":"ﾆｼｸｼﾞｮｳﾌｼﾞﾉｷﾁｮｳ","pref":"京都府","city":"京都市南区","address":"西九条藤ノ木町"},
{"zip_code":"6018434","kana_pref":"ｷｮｳﾄﾌ","kana_city":"ｷｮｳﾄｼﾐﾅﾐｸ","kana_address":"ﾆｼｸｼﾞｮｳﾌﾞﾂｹﾞﾝｼﾞﾁｮｳ","pref":"京都府","city":"京都市南区","address":"西九条仏現寺町"},
{"zip_code":"6018425","kana_pref":"ｷｮｳﾄﾌ","kana_city":"ｷｮｳﾄｼﾐﾅﾐｸ","kana_address":"ﾆｼｸｼﾞｮｳﾐﾅﾐｺｳｼﾞﾁｮｳ","pref":"京都府","city":"京都市南区","address":"西九条南小路町"},
{"zip_code":"6018444","kana_pref":"ｷｮｳﾄﾌ","kana_city":"ｷｮｳﾄｼﾐﾅﾐｸ","kana_address":"ﾆｼｸｼﾞｮｳﾓﾘﾓﾄﾁｮｳ","pref":"京都府","city":"京都市南区","address":"西九条森本町"},
{"zip_code":"6018435","kana_pref":"ｷｮｳﾄﾌ","kana_city":"ｷｮｳﾄｼﾐﾅﾐｸ","kana_address":"ﾆｼｸｼﾞｮｳﾔﾅｷﾞﾉｳﾁﾁｮｳ","pref":"京都府","city":"京都市南区","address":"西九条柳ノ内町"},
{"zip_code":"6018427","kana_pref":"ｷｮｳﾄﾌ","kana_city":"ｷｮｳﾄｼﾐﾅﾐｸ","kana_address":"ﾆｼｸｼﾞｮｳﾖｺﾏﾁ","pref":"京都府","city":"京都市南区","address":"西九条横町"},
{"zip_code":"6018475","kana_pref":"ｷｮｳﾄﾌ","kana_city":"ｷｮｳﾄｼﾐﾅﾐｸ","kana_address":"ﾊﾁｼﾞｮｳｳﾁﾀﾞﾁｮｳ","pref":"京都府","city":"京都市南区","address":"八条内田町"},
{"zip_code":"6018476","kana_pref":"ｷｮｳﾄﾌ","kana_city":"ｷｮｳﾄｼﾐﾅﾐｸ","kana_address":"ﾊﾁｼﾞｮｳﾃﾗﾉｳﾁﾁｮｳ","pref":"京都府","city":"京都市南区","address":"八条寺内町"},
{"zip_code":"6018472","kana_pref":"ｷｮｳﾄﾌ","kana_city":"ｷｮｳﾄｼﾐﾅﾐｸ","kana_address":"ﾊﾁｼﾞｮｳﾎﾞｳﾓﾝﾁｮｳ","pref":"京都府","city":"京都市南区","address":"八条坊門町"},
{"zip_code":"6018477","kana_pref":"ｷｮｳﾄﾌ","kana_city":"ｷｮｳﾄｼﾐﾅﾐｸ","kana_address":"ﾊﾁｼﾞｮｳﾐﾅﾓﾄﾁｮｳ","pref":"京都府","city":"京都市南区","address":"八条源町"},
{"zip_code":"6018471","kana_pref":"ｷｮｳﾄﾌ","kana_city":"ｷｮｳﾄｼﾐﾅﾐｸ","kana_address":"ﾊﾁｼﾞｮｳﾁｮｳ","pref":"京都府","city":"京都市南区","address":"八条町"},
{"zip_code":"6018044","kana_pref":"ｷｮｳﾄﾌ","kana_city":"ｷｮｳﾄｼﾐﾅﾐｸ","kana_address":"ﾋｶﾞｼｸｼﾞｮｳｱｹﾀﾁｮｳ","pref":"京都府","city":"京都市南区","address":"東九条明田町"},
{"zip_code":"6018032","kana_pref":"ｷｮｳﾄﾌ","kana_city":"ｷｮｳﾄｼﾐﾅﾐｸ","kana_address":"ﾋｶﾞｼｸｼﾞｮｳｲｼﾀﾞﾁｮｳ","pref":"京都府","city":"京都市南区","address":"東九条石田町"},
{"zip_code":"6018021","kana_pref":"ｷｮｳﾄﾌ","kana_city":"ｷｮｳﾄｼﾐﾅﾐｸ","kana_address":"ﾋｶﾞｼｸｼﾞｮｳｳｶﾍﾞﾁｮｳ","pref":"京都府","city":"京都市南区","address":"東九条宇賀辺町"},
{"zip_code":"6018015","kana_pref":"ｷｮｳﾄﾌ","kana_city":"ｷｮｳﾄｼﾐﾅﾐｸ","kana_address":"ﾋｶﾞｼｸｼﾞｮｳｶﾐｺﾞﾘｮｳﾁｮｳ","pref":"京都府","city":"京都市南区","address":"東九条上御霊町"},
{"zip_code":"6018002","kana_pref":"ｷｮｳﾄﾌ","kana_city":"ｷｮｳﾄｼﾐﾅﾐｸ","kana_address":"ﾋｶﾞｼｸｼﾞｮｳｶﾐﾄﾉﾀﾞﾁｮｳ","pref":"京都府","city":"京都市南区","address":"東九条上殿田町"},
{"zip_code":"6018016","kana_pref":"ｷｮｳﾄﾌ","kana_city":"ｷｮｳﾄｼﾐﾅﾐｸ","kana_address":"ﾋｶﾞｼｸｼﾞｮｳｶﾗｽﾏﾁｮｳ","pref":"京都府","city":"京都市南区","address":"東九条烏丸町"},
{"zip_code":"6018014","kana_pref":"ｷｮｳﾄﾌ","kana_city":"ｷｮｳﾄｼﾐﾅﾐｸ","kana_address":"ﾋｶﾞｼｸｼﾞｮｳｶﾜﾆｼﾁｮｳ","pref":"京都府","city":"京都市南区","address":"東九条河西町"},
{"zip_code":"6018031","kana_pref":"ｷｮｳﾄﾌ","kana_city":"ｷｮｳﾄｼﾐﾅﾐｸ","kana_address":"ﾋｶﾞｼｸｼﾞｮｳｶﾜﾍﾞﾁｮｳ","pref":"京都府","city":"京都市南区","address":"東九条河辺町"},
{"zip_code":"6018017","kana_pref":"ｷｮｳﾄﾌ","kana_city":"ｷｮｳﾄｼﾐﾅﾐｸ","kana_address":"ﾋｶﾞｼｸｼﾞｮｳｷﾀｶﾗｽﾏﾁｮｳ","pref":"京都府","city":"京都市南区","address":"東九条北烏丸町"},
{"zip_code":"6018007","kana_pref":"ｷｮｳﾄﾌ","kana_city":"ｷｮｳﾄｼﾐﾅﾐｸ","kana_address":"ﾋｶﾞｼｸｼﾞｮｳｷﾀｶﾜﾗﾏﾁ","pref":"京都府","city":"京都市南区","address":"東九条北河原町"},
{"zip_code":"6018022","kana_pref":"ｷｮｳﾄﾌ","kana_city":"ｷｮｳﾄｼﾐﾅﾐｸ","kana_address":"ﾋｶﾞｼｸｼﾞｮｳｷﾀﾏﾂﾉｷﾁｮｳ","pref":"京都府","city":"京都市南区","address":"東九条北松ノ木町"},
{"zip_code":"6018047","kana_pref":"ｷｮｳﾄﾌ","kana_city":"ｷｮｳﾄｼﾐﾅﾐｸ","kana_address":"ﾋｶﾞｼｸｼﾞｮｳｼﾓﾄﾉﾀﾞﾁｮｳ","pref":"京都府","city":"京都市南区","address":"東九条下殿田町"},
{"zip_code":"6018027","kana_pref":"ｷｮｳﾄﾌ","kana_city":"ｷｮｳﾄｼﾐﾅﾐｸ","kana_address":"ﾋｶﾞｼｸｼﾞｮｳﾅｶｺﾞﾘｮｳﾁｮｳ","pref":"京都府","city":"京都市南区","address":"東九条中御霊町"},
{"zip_code":"6018048","kana_pref":"ｷｮｳﾄﾌ","kana_city":"ｷｮｳﾄｼﾐﾅﾐｸ","kana_address":"ﾋｶﾞｼｸｼﾞｮｳﾅｶﾄﾉﾀﾞﾁｮｳ","pref":"京都府","city":"京都市南区","address":"東九条中殿田町"},
{"zip_code":"6018026","kana_pref":"ｷｮｳﾄﾌ","kana_city":"ｷｮｳﾄｼﾐﾅﾐｸ","kana_address":"ﾋｶﾞｼｸｼﾞｮｳﾅｶﾌﾀﾞﾉﾂｼﾞﾁｮｳ","pref":"京都府","city":"京都市南区","address":"東九条中札辻町"},
{"zip_code":"6018045","kana_pref":"ｷｮｳﾄﾌ","kana_city":"ｷｮｳﾄｼﾐﾅﾐｸ","kana_address":"ﾋｶﾞｼｸｼﾞｮｳﾆｼｱｹﾀﾁｮｳ","pref":"京都府","city":"京都市南区","address":"東九条西明田町"},
{"zip_code":"6018005","kana_pref":"ｷｮｳﾄﾌ","kana_city":"ｷｮｳﾄｼﾐﾅﾐｸ","kana_address":"ﾋｶﾞｼｸｼﾞｮｳﾆｼｲﾜﾓﾄﾁｮｳ","pref":"京都府","city":"京都市南区","address":"東九条西岩本町"},
{"zip_code":"6018037","kana_pref":"ｷｮｳﾄﾌ","kana_city":"ｷｮｳﾄｼﾐﾅﾐｸ","kana_address":"ﾋｶﾞｼｸｼﾞｮｳﾆｼｶﾜﾍﾞﾁｮｳ","pref":"京都府","city":"京都市南区","address":"東九条西河辺町"},
{"zip_code":"6018042","kana_pref":"ｷｮｳﾄﾌ","kana_city":"ｷｮｳﾄｼﾐﾅﾐｸ","kana_address":"ﾋｶﾞｼｸｼﾞｮｳﾆｼｺﾞﾘｮｳﾁｮｳ","pref":"京都府","city":"京都市南区","address":"東九条西御霊町"},
{"zip_code":"6018003","kana_pref":"ｷｮｳﾄﾌ","kana_city":"ｷｮｳﾄｼﾐﾅﾐｸ","kana_address":"ﾋｶﾞｼｸｼﾞｮｳﾆｼｻﾝﾉｳﾁｮｳ","pref":"京都府","city":"京都市南区","address":"東九条西山王町"},
{"zip_code":"6018043","kana_pref":"ｷｮｳﾄﾌ","kana_city":"ｷｮｳﾄｼﾐﾅﾐｸ","kana_address":"ﾋｶﾞｼｸｼﾞｮｳﾆｼﾌﾀﾞﾉﾂｼﾞﾁｮｳ","pref":"京都府","city":"京都市南区","address":"東九条西札辻町"},
{"zip_code":"6018046","kana_pref":"ｷｮｳﾄﾌ","kana_city":"ｷｮｳﾄｼﾐﾅﾐｸ","kana_address":"ﾋｶﾞｼｸｼﾞｮｳﾆｼﾔﾏﾁｮｳ","pref":"京都府","city":"京都市南区","address":"東九条西山町"},
{"zip_code":"6018006","kana_pref":"ｷｮｳﾄﾌ","kana_city":"ｷｮｳﾄｼﾐﾅﾐｸ","kana_address":"ﾋｶﾞｼｸｼﾞｮｳﾋｶﾞｼｲﾜﾓﾄﾁｮｳ","pref":"京都府","city":"京都市南区","address":"東九条東岩本町"},
{"zip_code":"6018028","kana_pref":"ｷｮｳﾄﾌ","kana_city":"ｷｮｳﾄｼﾐﾅﾐｸ","kana_address":"ﾋｶﾞｼｸｼﾞｮｳﾋｶﾞｼｺﾞﾘｮｳﾁｮｳ","pref":"京都府","city":"京都市南区","address":"東九条東御霊町"},
{"zip_code":"6018004","kana_pref":"ｷｮｳﾄﾌ","kana_city":"ｷｮｳﾄｼﾐﾅﾐｸ","kana_address":"ﾋｶﾞｼｸｼﾞｮｳﾋｶﾞｼｻﾝﾉｳﾁｮｳ","pref":"京都府","city":"京都市南区","address":"東九条東山王町"},
{"zip_code":"6018024","kana_pref":"ｷｮｳﾄﾌ","kana_city":"ｷｮｳﾄｼﾐﾅﾐｸ","kana_address":"ﾋｶﾞｼｸｼﾞｮｳﾋｶﾞｼﾌﾀﾞﾉﾂｼﾞﾁｮｳ","pref":"京都府","city":"京都市南区","address":"東九条東札辻町"},
{"zip_code":"6018029","kana_pref":"ｷｮｳﾄﾌ","kana_city":"ｷｮｳﾄｼﾐﾅﾐｸ","kana_address":"ﾋｶﾞｼｸｼﾞｮｳﾋｶﾞｼﾏﾂﾉｷﾁｮｳ","pref":"京都府","city":"京都市南区","address":"東九条東松ノ木町"},
{"zip_code":"6018036","kana_pref":"ｷｮｳﾄﾌ","kana_city":"ｷｮｳﾄｼﾐﾅﾐｸ","kana_address":"ﾋｶﾞｼｸｼﾞｮｳﾏﾂﾀﾞﾁｮｳ","pref":"京都府","city":"京都市南区","address":"東九条松田町"},
{"zip_code":"6018033","kana_pref":"ｷｮｳﾄﾌ","kana_city":"ｷｮｳﾄｼﾐﾅﾐｸ","kana_address":"ﾋｶﾞｼｸｼﾞｮｳﾐﾅﾐｲｼﾀﾞﾁｮｳ","pref":"京都府","city":"京都市南区","address":"東九条南石田町"},
{"zip_code":"6018012","kana_pref":"ｷｮｳﾄﾌ","kana_city":"ｷｮｳﾄｼﾐﾅﾐｸ","kana_address":"ﾋｶﾞｼｸｼﾞｮｳﾐﾅﾐｲﾜﾓﾄﾁｮｳ","pref":"京都府","city":"京都市南区","address":"東九条南岩本町"},
{"zip_code":"6018041","kana_pref":"ｷｮｳﾄﾌ","kana_city":"ｷｮｳﾄｼﾐﾅﾐｸ","kana_address":"ﾋｶﾞｼｸｼﾞｮｳﾐﾅﾐｶﾗｽﾏﾁｮｳ","pref":"京都府","city":"京都市南区","address":"東九条南烏丸町"},
{"zip_code":"6018034","kana_pref":"ｷｮｳﾄﾌ","kana_city":"ｷｮｳﾄｼﾐﾅﾐｸ","kana_address":"ﾋｶﾞｼｸｼﾞｮｳﾐﾅﾐｶﾜﾍﾞﾁｮｳ","pref":"京都府","city":"京都市南区","address":"東九条南河辺町"},
{"zip_code":"6018013","kana_pref":"ｷｮｳﾄﾌ","kana_city":"ｷｮｳﾄｼﾐﾅﾐｸ","kana_address":"ﾋｶﾞｼｸｼﾞｮｳﾐﾅﾐｶﾜﾗﾏﾁ","pref":"京都府","city":"京都市南区","address":"東九条南河原町"},
{"zip_code":"6018011","kana_pref":"ｷｮｳﾄﾌ","kana_city":"ｷｮｳﾄｼﾐﾅﾐｸ","kana_address":"ﾋｶﾞｼｸｼﾞｮｳﾐﾅﾐｻﾝﾉｳﾁｮｳ","pref":"京都府","city":"京都市南区","address":"東九条南山王町"},
{"zip_code":"6018035","kana_pref":"ｷｮｳﾄﾌ","kana_city":"ｷｮｳﾄｼﾐﾅﾐｸ","kana_address":"ﾋｶﾞｼｸｼﾞｮｳﾐﾅﾐﾏﾂﾀﾞﾁｮｳ","pref":"京都府","city":"京都市南区","address":"東九条南松田町"},
{"zip_code":"6018023","kana_pref":"ｷｮｳﾄﾌ","kana_city":"ｷｮｳﾄｼﾐﾅﾐｸ","kana_address":"ﾋｶﾞｼｸｼﾞｮｳﾐﾅﾐﾏﾂﾉｷﾁｮｳ","pref":"京都府","city":"京都市南区","address":"東九条南松ノ木町"},
{"zip_code":"6018001","kana_pref":"ｷｮｳﾄﾌ","kana_city":"ｷｮｳﾄｼﾐﾅﾐｸ","kana_address":"ﾋｶﾞｼｸｼﾞｮｳﾑﾛﾏﾁ","pref":"京都府","city":"京都市南区","address":"東九条室町"},
{"zip_code":"6018025","kana_pref":"ｷｮｳﾄﾌ","kana_city":"ｷｮｳﾄｼﾐﾅﾐｸ","kana_address":"ﾋｶﾞｼｸｼﾞｮｳﾔﾅｷﾞﾉｼﾀﾁｮｳ","pref":"京都府","city":"京都市南区","address":"東九条柳下町"},
{"zip_code":"6018403","kana_pref":"ｷｮｳﾄﾌ","kana_city":"ｷｮｳﾄｼﾐﾅﾐｸ","kana_address":"ﾌﾙｵﾀﾋﾞﾁｮｳ","pref":"京都府","city":"京都市南区","address":"古御旅町"},
{"zip_code":"6018474","kana_pref":"ｷｮｳﾄﾌ","kana_city":"ｷｮｳﾄｼﾐﾅﾐｸ","kana_address":"ﾖﾂﾂﾞｶﾁｮｳ","pref":"京都府","city":"京都市南区","address":"四ツ塚町"},
{"zip_code":"6010541","kana_pref":"ｷｮｳﾄﾌ","kana_city":"ｷｮｳﾄｼｳｷｮｳｸ","kana_address":"ｹｲﾎｸｱｶｲｼﾁｮｳ","pref":"京都府","city":"京都市右京区","address":"京北赤石町"},
{"zip_code":"6010273","kana_pref":"ｷｮｳﾄﾌ","kana_city":"ｷｮｳﾄｼｳｷｮｳｸ","kana_address":"ｹｲﾎｸｱｹｼﾁｮｳ","pref":"京都府","city":"京都市右京区","address":"京北明石町"},
{"zip_code":"6010274","kana_pref":"ｷｮｳﾄﾌ","kana_city":"ｷｮｳﾄｼｳｷｮｳｸ","kana_address":"ｹｲﾎｸｱｻﾞｴﾁｮｳ","pref":"京都府","city":"京都市右京区","address":"京北浅江町"},
{"zip_code":"6010535","kana_pref":"ｷｮｳﾄﾌ","kana_city":"ｷｮｳﾄｼｳｷｮｳｸ","kana_address":"ｹｲﾎｸｲｻﾞｷﾁｮｳ","pref":"京都府","city":"京都市右京区","address":"京北井崎町"},
{"zip_code":"6010313","kana_pref":"ｷｮｳﾄﾌ","kana_city":"ｷｮｳﾄｼｳｷｮｳｸ","kana_address":"ｹｲﾎｸｲﾄﾞﾁｮｳ","pref":"京都府","city":"京都市右京区","address":"京北井戸町"},
{"zip_code":"6010275","kana_pref":"ｷｮｳﾄﾌ","kana_city":"ｷｮｳﾄｼｳｷｮｳｸ","kana_address":"ｹｲﾎｸｳﾉﾁｮｳ","pref":"京都府","city":"京都市右京区","address":"京北宇野町"},
{"zip_code":"6010277","kana_pref":"ｷｮｳﾄﾌ","kana_city":"ｷｮｳﾄｼｳｷｮｳｸ","kana_address":"ｹｲﾎｸｳﾙｼﾀﾆﾁｮｳ","pref":"京都府","city":"京都市右京区","address":"京北漆谷町"},
{"zip_code":"6010314","kana_pref":"ｷｮｳﾄﾌ","kana_city":"ｷｮｳﾄｼｳｷｮｳｸ","kana_address":"ｹｲﾎｸｵｵﾉﾁｮｳ","pref":"京都府","city":"京都市右京区","address":"京北大野町"},
{"zip_code":"6010311","kana_pref":"ｷｮｳﾄﾌ","kana_city":"ｷｮｳﾄｼｳｷｮｳｸ","kana_address":"ｹｲﾎｸｵｼｵﾁｮｳ","pref":"京都府","city":"京都市右京区","address":"京北小塩町"},
{"zip_code":"6010261","kana_pref":"ｷｮｳﾄﾌ","kana_city":"ｷｮｳﾄｼｳｷｮｳｸ","kana_address":"ｹｲﾎｸｶｼﾜﾗﾁｮｳ","pref":"京都府","city":"京都市右京区","address":"京北柏原町"},
{"zip_code":"6010401","kana_pref":"ｷｮｳﾄﾌ","kana_city":"ｷｮｳﾄｼｳｷｮｳｸ","kana_address":"ｹｲﾎｸｶﾀﾅﾐﾁｮｳ","pref":"京都府","city":"京都市右京区","address":"京北片波町"},
{"zip_code":"6010402","kana_pref":"ｷｮｳﾄﾌ","kana_city":"ｷｮｳﾄｼｳｷｮｳｸ","kana_address":"ｹｲﾎｸｶﾐｸﾛﾀﾞﾁｮｳ","pref":"京都府","city":"京都市右京区","address":"京北上黒田町"},
{"zip_code":"6010532","kana_pref":"ｷｮｳﾄﾌ","kana_city":"ｷｮｳﾄｼｳｷｮｳｸ","kana_address":"ｹｲﾎｸｶﾐﾅｶﾁｮｳ","pref":"京都府","city":"京都市右京区","address":"京北上中町"},
{"zip_code":"6010531","kana_pref":"ｷｮｳﾄﾌ","kana_city":"ｷｮｳﾄｼｳｷｮｳｸ","kana_address":"ｹｲﾎｸｶﾐﾕｹﾞﾁｮｳ","pref":"京都府","city":"京都市右京区","address":"京北上弓削町"},
{"zip_code":"6010271","kana_pref":"ｷｮｳﾄﾌ","kana_city":"ｷｮｳﾄｼｳｷｮｳｸ","kana_address":"ｹｲﾎｸｸﾏﾀﾁｮｳ","pref":"京都府","city":"京都市右京区","address":"京北熊田町"},
{"zip_code":"6010252","kana_pref":"ｷｮｳﾄﾌ","kana_city":"ｷｮｳﾄｼｳｷｮｳｸ","kana_address":"ｹｲﾎｸｺﾞﾎﾝﾏﾂﾁｮｳ","pref":"京都府","city":"京都市右京区","address":"京北五本松町"},
{"zip_code":"6010536","kana_pref":"ｷｮｳﾄﾌ","kana_city":"ｷｮｳﾄｼｳｷｮｳｸ","kana_address":"ｹｲﾎｸｼｵﾀﾁｮｳ","pref":"京都府","city":"京都市右京区","address":"京北塩田町"},
{"zip_code":"6010543","kana_pref":"ｷｮｳﾄﾌ","kana_city":"ｷｮｳﾄｼｳｷｮｳｸ","kana_address":"ｹｲﾎｸｼﾂﾀﾝﾁｮｳ","pref":"京都府","city":"京都市右京区","address":"京北室谷町"},
{"zip_code":"6010266","kana_pref":"ｷｮｳﾄﾌ","kana_city":"ｷｮｳﾄｼｳｷｮｳｸ","kana_address":"ｹｲﾎｸｼﾓｳﾂﾁｮｳ","pref":"京都府","city":"京都市右京区","address":"京北下宇津町"},
{"zip_code":"6010272","kana_pref":"ｷｮｳﾄﾌ","kana_city":"ｷｮｳﾄｼｳｷｮｳｸ","kana_address":"ｹｲﾎｸｼﾓｸﾏﾀﾁｮｳ","pref":"京都府","city":"京都市右京区","address":"京北下熊田町"},
{"zip_code":"6010405","kana_pref":"ｷｮｳﾄﾌ","kana_city":"ｷｮｳﾄｼｳｷｮｳｸ","kana_address":"ｹｲﾎｸｼﾓｸﾛﾀﾞﾁｮｳ","pref":"京都府","city":"京都市右京区","address":"京北下黒田町"},
{"zip_code":"6010324","kana_pref":"ｷｮｳﾄﾌ","kana_city":"ｷｮｳﾄｼｳｷｮｳｸ","kana_address":"ｹｲﾎｸｼﾓﾁｮｳ","pref":"京都府","city":"京都市右京区","address":"京北下町"},
{"zip_code":"6010533","kana_pref":"ｷｮｳﾄﾌ","kana_city":"ｷｮｳﾄｼｳｷｮｳｸ","kana_address":"ｹｲﾎｸｼﾓﾅｶﾁｮｳ","pref":"京都府","city":"京都市右京区","address":"京北下中町"},
{"zip_code":"6010534","kana_pref":"ｷｮｳﾄﾌ","kana_city":"ｷｮｳﾄｼｳｷｮｳｸ","kana_address":"ｹｲﾎｸｼﾓﾕｹﾞﾁｮｳ","pref":"京都府","city":"京都市右京区","address":"京北下弓削町"},
{"zip_code":"6010251","kana_pref":"ｷｮｳﾄﾌ","kana_city":"ｷｮｳﾄｼｳｷｮｳｸ","kana_address":"ｹｲﾎｸｼｭｳｻﾞﾝﾁｮｳ","pref":"京都府","city":"京都市右京区","address":"京北周山町"},
{"zip_code":"6010404","kana_pref":"ｷｮｳﾄﾌ","kana_city":"ｷｮｳﾄｼｳｷｮｳｸ","kana_address":"ｹｲﾎｸｾﾘｮｳﾁｮｳ","pref":"京都府","city":"京都市右京区","address":"京北芹生町"},
{"zip_code":"6010542","kana_pref":"ｷｮｳﾄﾌ","kana_city":"ｷｮｳﾄｼｳｷｮｳｸ","kana_address":"ｹｲﾎｸﾀﾇｷﾁｮｳ","pref":"京都府","city":"京都市右京区","address":"京北田貫町"},
{"zip_code":"6010265","kana_pref":"ｷｮｳﾄﾌ","kana_city":"ｷｮｳﾄｼｳｷｮｳｸ","kana_address":"ｹｲﾎｸﾁｭｳｼﾞﾁｮｳ","pref":"京都府","city":"京都市右京区","address":"京北中地町"},
{"zip_code":"6010322","kana_pref":"ｷｮｳﾄﾌ","kana_city":"ｷｮｳﾄｼｳｷｮｳｸ","kana_address":"ｹｲﾎｸﾂｼﾞﾁｮｳ","pref":"京都府","city":"京都市右京区","address":"京北辻町"},
{"zip_code":"6010321","kana_pref":"ｷｮｳﾄﾌ","kana_city":"ｷｮｳﾄｼｳｷｮｳｸ","kana_address":"ｹｲﾎｸﾄｳﾁｮｳ","pref":"京都府","city":"京都市右京区","address":"京北塔町"},
{"zip_code":"6010264","kana_pref":"ｷｮｳﾄﾌ","kana_city":"ｷｮｳﾄｼｳｷｮｳｸ","kana_address":"ｹｲﾎｸﾄﾁﾓﾄﾁｮｳ","pref":"京都府","city":"京都市右京区","address":"京北栃本町"},
{"zip_code":"6010323","kana_pref":"ｷｮｳﾄﾌ","kana_city":"ｷｮｳﾄｼｳｷｮｳｸ","kana_address":"ｹｲﾎｸﾄﾘｲﾁｮｳ","pref":"京都府","city":"京都市右京区","address":"京北鳥居町"},
{"zip_code":"6010315","kana_pref":"ｷｮｳﾄﾌ","kana_city":"ｷｮｳﾄｼｳｷｮｳｸ","kana_address":"ｹｲﾎｸﾅｶｴﾁｮｳ","pref":"京都府","city":"京都市右京区","address":"京北中江町"},
{"zip_code":"6010276","kana_pref":"ｷｮｳﾄﾌ","kana_city":"ｷｮｳﾄｼｳｷｮｳｸ","kana_address":"ｹｲﾎｸﾆｼﾁｮｳ","pref":"京都府","city":"京都市右京区","address":"京北西町"},
{"zip_code":"6010403","kana_pref":"ｷｮｳﾄﾌ","kana_city":"ｷｮｳﾄｼｳｷｮｳｸ","kana_address":"ｹｲﾎｸﾊｲﾔﾁｮｳ","pref":"京都府","city":"京都市右京区","address":"京北灰屋町"},
{"zip_code":"6010312","kana_pref":"ｷｮｳﾄﾌ","kana_city":"ｷｮｳﾄｼｳｷｮｳｸ","kana_address":"ｹｲﾎｸﾊﾂｶﾜﾁｮｳ","pref":"京都府","city":"京都市右京区","address":"京北初川町"},
{"zip_code":"6010316","kana_pref":"ｷｮｳﾄﾌ","kana_city":"ｷｮｳﾄｼｳｷｮｳｸ","kana_address":"ｹｲﾎｸﾋｶﾞｴﾁｮｳ","pref":"京都府","city":"京都市右京区","address":"京北比賀江町"},
{"zip_code":"6010262","kana_pref":"ｷｮｳﾄﾌ","kana_city":"ｷｮｳﾄｼｳｷｮｳｸ","kana_address":"ｹｲﾎｸﾎｿﾉﾁｮｳ","pref":"京都府","city":"京都市右京区","address":"京北細野町"},
{"zip_code":"6010406","kana_pref":"ｷｮｳﾄﾌ","kana_city":"ｷｮｳﾄｼｳｷｮｳｸ","kana_address":"ｹｲﾎｸﾐﾔﾁｮｳ","pref":"京都府","city":"京都市右京区","address":"京北宮町"},
{"zip_code":"6010278","kana_pref":"ｷｮｳﾄﾌ","kana_city":"ｷｮｳﾄｼｳｷｮｳｸ","kana_address":"ｹｲﾎｸﾔｼﾛﾅｶﾁｮｳ","pref":"京都府","city":"京都市右京区","address":"京北矢代中町"},
{"zip_code":"6010263","kana_pref":"ｷｮｳﾄﾌ","kana_city":"ｷｮｳﾄｼｳｷｮｳｸ","kana_address":"ｹｲﾎｸﾕﾂﾞｷﾁｮｳ","pref":"京都府","city":"京都市右京区","address":"京北弓槻町"},
{"zip_code":"6011432","kana_pref":"ｷｮｳﾄﾌ","kana_city":"ｷｮｳﾄｼﾌｼﾐｸ","kana_address":"ｲｼﾀﾞｳﾁｻﾄﾁｮｳ","pref":"京都府","city":"京都市伏見区","address":"石田内里町"},
{"zip_code":"6011431","kana_pref":"ｷｮｳﾄﾌ","kana_city":"ｷｮｳﾄｼﾌｼﾐｸ","kana_address":"ｲｼﾀﾞｵｵｳｹﾁｮｳ","pref":"京都府","city":"京都市伏見区","address":"石田大受町"},
{"zip_code":"6011433","kana_pref":"ｷｮｳﾄﾌ","kana_city":"ｷｮｳﾄｼﾌｼﾐｸ","kana_address":"ｲｼﾀﾞｵｵﾔﾏﾁｮｳ","pref":"京都府","city":"京都市伏見区","address":"石田大山町"},
{"zip_code":"6011438","kana_pref":"ｷｮｳﾄﾌ","kana_city":"ｷｮｳﾄｼﾌｼﾐｸ","kana_address":"ｲｼﾀﾞｶﾜﾑｶｲ","pref":"京都府","city":"京都市伏見区","address":"石田川向"},
{"zip_code":"6011435","kana_pref":"ｷｮｳﾄﾌ","kana_city":"ｷｮｳﾄｼﾌｼﾐｸ","kana_address":"ｲｼﾀﾞｻｸﾗｷﾞ","pref":"京都府","city":"京都市伏見区","address":"石田桜木"},
{"zip_code":"6011436","kana_pref":"ｷｮｳﾄﾌ","kana_city":"ｷｮｳﾄｼﾌｼﾐｸ","kana_address":"ｲｼﾀﾞﾆｼﾉﾂﾎﾞ","pref":"京都府","city":"京都市伏見区","address":"石田西ノ坪"},
{"zip_code":"6011437","kana_pref":"ｷｮｳﾄﾌ","kana_city":"ｷｮｳﾄｼﾌｼﾐｸ","kana_address":"ｲｼﾀﾞﾓﾘﾆｼ","pref":"京都府","city":"京都市伏見区","address":"石田森西"},
{"zip_code":"6011439","kana_pref":"ｷｮｳﾄﾌ","kana_city":"ｷｮｳﾄｼﾌｼﾐｸ","kana_address":"ｲｼﾀﾞﾓﾘﾋｶﾞｼﾁｮｳ","pref":"京都府","city":"京都市伏見区","address":"石田森東町"},
{"zip_code":"6011434","kana_pref":"ｷｮｳﾄﾌ","kana_city":"ｷｮｳﾄｼﾌｼﾐｸ","kana_address":"ｲｼﾀﾞﾓﾘﾐﾅﾐﾁｮｳ","pref":"京都府","city":"京都市伏見区","address":"石田森南町"},
{"zip_code":"6011464","kana_pref":"ｷｮｳﾄﾌ","kana_city":"ｷｮｳﾄｼﾌｼﾐｸ","kana_address":"ｵｸﾞﾘｽｲｼｶﾜﾁｮｳ","pref":"京都府","city":"京都市伏見区","address":"小栗栖石川町"},
{"zip_code":"6011443","kana_pref":"ｷｮｳﾄﾌ","kana_city":"ｷｮｳﾄｼﾌｼﾐｸ","kana_address":"ｵｸﾞﾘｽｲﾜｶﾞﾌﾁﾁｮｳ","pref":"京都府","city":"京都市伏見区","address":"小栗栖岩ケ渕町"},
{"zip_code":"6011444","kana_pref":"ｷｮｳﾄﾌ","kana_city":"ｷｮｳﾄｼﾌｼﾐｸ","kana_address":"ｵｸﾞﾘｽｳｼｶﾞﾌﾁﾁｮｳ","pref":"京都府","city":"京都市伏見区","address":"小栗栖牛ケ渕町"},
{"zip_code":"6011446","kana_pref":"ｷｮｳﾄﾌ","kana_city":"ｷｮｳﾄｼﾌｼﾐｸ","kana_address":"ｵｸﾞﾘｽｷﾀｺﾞﾄｳﾁｮｳ","pref":"京都府","city":"京都市伏見区","address":"小栗栖北後藤町"},
{"zip_code":"6011441","kana_pref":"ｷｮｳﾄﾌ","kana_city":"ｷｮｳﾄｼﾌｼﾐｸ","kana_address":"ｵｸﾞﾘｽｷﾀﾀﾞﾆﾁｮｳ","pref":"京都府","city":"京都市伏見区","address":"小栗栖北谷町"},
{"zip_code":"6011455","kana_pref":"ｷｮｳﾄﾌ","kana_city":"ｷｮｳﾄｼﾌｼﾐｸ","kana_address":"ｵｸﾞﾘｽｺｻｶﾁｮｳ","pref":"京都府","city":"京都市伏見区","address":"小栗栖小阪町"},
{"zip_code":"6011463","kana_pref":"ｷｮｳﾄﾌ","kana_city":"ｷｮｳﾄｼﾌｼﾐｸ","kana_address":"ｵｸﾞﾘｽﾅｶﾔﾏﾀﾞﾁｮｳ","pref":"京都府","city":"京都市伏見区","address":"小栗栖中山田町"},
{"zip_code":"6011453","kana_pref":"ｷｮｳﾄﾌ","kana_city":"ｷｮｳﾄｼﾌｼﾐｸ","kana_address":"ｵｸﾞﾘｽﾆｼﾀﾞﾆﾁｮｳ","pref":"京都府","city":"京都市伏見区","address":"小栗栖西谷町"},
{"zip_code":"6011452","kana_pref":"ｷｮｳﾄﾌ","kana_city":"ｷｮｳﾄｼﾌｼﾐｸ","kana_address":"ｵｸﾞﾘｽﾆｼﾉﾐﾈ","pref":"京都府","city":"京都市伏見区","address":"小栗栖西ノ峯"},
{"zip_code":"6011451","kana_pref":"ｷｮｳﾄﾌ","kana_city":"ｷｮｳﾄｼﾌｼﾐｸ","kana_address":"ｵｸﾞﾘｽﾊﾁﾌｾ","pref":"京都府","city":"京都市伏見区","address":"小栗栖鉢伏"},
{"zip_code":"6011442","kana_pref":"ｷｮｳﾄﾌ","kana_city":"ｷｮｳﾄｼﾌｼﾐｸ","kana_address":"ｵｸﾞﾘｽﾏﾙﾔﾏ","pref":"京都府","city":"京都市伏見区","address":"小栗栖丸山"},
{"zip_code":"6011456","kana_pref":"ｷｮｳﾄﾌ","kana_city":"ｷｮｳﾄｼﾌｼﾐｸ","kana_address":"ｵｸﾞﾘｽﾐﾅﾐｺﾞﾄｳﾁｮｳ","pref":"京都府","city":"京都市伏見区","address":"小栗栖南後藤町"},
{"zip_code":"6011461","kana_pref":"ｷｮｳﾄﾌ","kana_city":"ｷｮｳﾄｼﾌｼﾐｸ","kana_address":"ｵｸﾞﾘｽﾐﾔﾔﾏ","pref":"京都府","city":"京都市伏見区","address":"小栗栖宮山"},
{"zip_code":"6011445","kana_pref":"ｷｮｳﾄﾌ","kana_city":"ｷｮｳﾄｼﾌｼﾐｸ","kana_address":"ｵｸﾞﾘｽﾓﾘｶﾞﾌﾁﾁｮｳ","pref":"京都府","city":"京都市伏見区","address":"小栗栖森ケ渕町"},
{"zip_code":"6011462","kana_pref":"ｷｮｳﾄﾌ","kana_city":"ｷｮｳﾄｼﾌｼﾐｸ","kana_address":"ｵｸﾞﾘｽﾓﾘﾓﾄﾁｮｳ","pref":"京都府","city":"京都市伏見区","address":"小栗栖森本町"},
{"zip_code":"6011454","kana_pref":"ｷｮｳﾄﾌ","kana_city":"ｷｮｳﾄｼﾌｼﾐｸ","kana_address":"ｵｸﾞﾘｽﾔﾏｸﾞﾁﾁｮｳ","pref":"京都府","city":"京都市伏見区","address":"小栗栖山口町"},
{"zip_code":"6011347","kana_pref":"ｷｮｳﾄﾌ","kana_city":"ｷｮｳﾄｼﾌｼﾐｸ","kana_address":"ﾀﾞｲｺﾞｱｲﾊﾞﾁｮｳ","pref":"京都府","city":"京都市伏見区","address":"醍醐合場町"},
{"zip_code":"6011323","kana_pref":"ｷｮｳﾄﾌ","kana_city":"ｷｮｳﾄｼﾌｼﾐｸ","kana_address":"ﾀﾞｲｺﾞｱｶﾏﾐﾅﾐｳﾗﾁｮｳ","pref":"京都府","city":"京都市伏見区","address":"醍醐赤間南裏町"},
{"zip_code":"6011362","kana_pref":"ｷｮｳﾄﾌ","kana_city":"ｷｮｳﾄｼﾌｼﾐｸ","kana_address":"ﾀﾞｲｺﾞｲｹﾀﾞﾁｮｳ","pref":"京都府","city":"京都市伏見区","address":"醍醐池田町"},
{"zip_code":"6011351","kana_pref":"ｷｮｳﾄﾌ","kana_city":"ｷｮｳﾄｼﾌｼﾐｸ","kana_address":"ﾀﾞｲｺﾞｲｽﾞﾐﾁｮｳ","pref":"京都府","city":"京都市伏見区","address":"醍醐和泉町"},
{"zip_code":"6011335","kana_pref":"ｷｮｳﾄﾌ","kana_city":"ｷｮｳﾄｼﾌｼﾐｸ","kana_address":"ﾀﾞｲｺﾞｲﾁｺﾞﾝｼﾞｳﾗﾁｮｳ","pref":"京都府","city":"京都市伏見区","address":"醍醐一言寺裏町"},
{"zip_code":"6011387","kana_pref":"ｷｮｳﾄﾌ","kana_city":"ｷｮｳﾄｼﾌｼﾐｸ","kana_address":"ﾀﾞｲｺﾞｲﾁﾉｷﾘﾁｮｳ","pref":"京都府","city":"京都市伏見区","address":"醍醐一ノ切町"},
{"zip_code":"6011371","kana_pref":"ｷｮｳﾄﾌ","kana_city":"ｷｮｳﾄｼﾌｼﾐｸ","kana_address":"ﾀﾞｲｺﾞｳｴﾉﾔﾏﾁｮｳ","pref":"京都府","city":"京都市伏見区","address":"醍醐上ノ山町"},
{"zip_code":"6011302","kana_pref":"ｷｮｳﾄﾌ","kana_city":"ｷｮｳﾄｼﾌｼﾐｸ","kana_address":"ﾀﾞｲｺﾞｳﾁｶﾞｲﾄﾞ","pref":"京都府","city":"京都市伏見区","address":"醍醐内ケ井戸"},
{"zip_code":"6011364","kana_pref":"ｷｮｳﾄﾌ","kana_city":"ｷｮｳﾄｼﾌｼﾐｸ","kana_address":"ﾀﾞｲｺﾞｴﾅｼﾁｮｳ","pref":"京都府","city":"京都市伏見区","address":"醍醐江奈志町"},
{"zip_code":"6011366","kana_pref":"ｷｮｳﾄﾌ","kana_city":"ｷｮｳﾄｼﾌｼﾐｸ","kana_address":"ﾀﾞｲｺﾞｵｵｶﾏｴﾁｮｳ","pref":"京都府","city":"京都市伏見区","address":"醍醐大構町"},
{"zip_code":"6011311","kana_pref":"ｷｮｳﾄﾌ","kana_city":"ｷｮｳﾄｼﾌｼﾐｸ","kana_address":"ﾀﾞｲｺﾞｵｵﾀｶﾁｮｳ","pref":"京都府","city":"京都市伏見区","address":"醍醐大高町"},
{"zip_code":"6011303","kana_pref":"ｷｮｳﾄﾌ","kana_city":"ｷｮｳﾄｼﾌｼﾐｸ","kana_address":"ﾀﾞｲｺﾞｵｵﾊﾀﾁｮｳ","pref":"京都府","city":"京都市伏見区","address":"醍醐大畑町"},
{"zip_code":"6011338","kana_pref":"ｷｮｳﾄﾌ","kana_city":"ｷｮｳﾄｼﾌｼﾐｸ","kana_address":"ﾀﾞｲｺﾞｵﾁﾎﾞﾁｮｳ","pref":"京都府","city":"京都市伏見区","address":"醍醐落保町"},
{"zip_code":"6011376","kana_pref":"ｷｮｳﾄﾌ","kana_city":"ｷｮｳﾄｼﾌｼﾐｸ","kana_address":"ﾀﾞｲｺﾞｵﾘﾄﾞﾁｮｳ","pref":"京都府","city":"京都市伏見区","address":"醍醐折戸町"},
{"zip_code":"6011363","kana_pref":"ｷｮｳﾄﾌ","kana_city":"ｷｮｳﾄｼﾌｼﾐｸ","kana_address":"ﾀﾞｲｺﾞｶｷﾞｵﾁｮｳ","pref":"京都府","city":"京都市伏見区","address":"醍醐鍵尾町"},
{"zip_code":"6011305","kana_pref":"ｷｮｳﾄﾌ","kana_city":"ｷｮｳﾄｼﾌｼﾐｸ","kana_address":"ﾀﾞｲｺﾞｶｷﾊﾗ","pref":"京都府","city":"京都市伏見区","address":"醍醐柿原"},
{"zip_code":"6011336","kana_pref":"ｷｮｳﾄﾌ","kana_city":"ｷｮｳﾄｼﾌｼﾐｸ","kana_address":"ﾀﾞｲｺﾞｶｼﾜﾓﾘﾁｮｳ","pref":"京都府","city":"京都市伏見区","address":"醍醐柏森町"},
{"zip_code":"6011312","kana_pref":"ｷｮｳﾄﾌ","kana_city":"ｷｮｳﾄｼﾌｼﾐｸ","kana_address":"ﾀﾞｲｺﾞｶﾀﾔﾏﾁｮｳ","pref":"京都府","city":"京都市伏見区","address":"醍醐片山町"},
{"zip_code":"6011354","kana_pref":"ｷｮｳﾄﾌ","kana_city":"ｷｮｳﾄｼﾌｼﾐｸ","kana_address":"ﾀﾞｲｺﾞｶﾏｴｸﾞﾁﾁｮｳ","pref":"京都府","city":"京都市伏見区","address":"醍醐構口町"},
{"zip_code":"6011333","kana_pref":"ｷｮｳﾄﾌ","kana_city":"ｷｮｳﾄｼﾌｼﾐｸ","kana_address":"ﾀﾞｲｺﾞｶﾐﾊﾔﾏﾁｮｳ","pref":"京都府","city":"京都市伏見区","address":"醍醐上端山町"},
{"zip_code":"6011342","kana_pref":"ｷｮｳﾄﾌ","kana_city":"ｷｮｳﾄｼﾌｼﾐｸ","kana_address":"ﾀﾞｲｺﾞｶﾐﾔﾏｸﾞﾁﾁｮｳ","pref":"京都府","city":"京都市伏見区","address":"醍醐上山口町"},
{"zip_code":"6011301","kana_pref":"ｷｮｳﾄﾌ","kana_city":"ｷｮｳﾄｼﾌｼﾐｸ","kana_address":"ﾀﾞｲｺﾞｶﾐﾔﾏﾀﾞ","pref":"京都府","city":"京都市伏見区","address":"醍醐上山田"},
{"zip_code":"6011315","kana_pref":"ｷｮｳﾄﾌ","kana_city":"ｷｮｳﾄｼﾌｼﾐｸ","kana_address":"ﾀﾞｲｺﾞｶﾗｽﾊﾞｼﾁｮｳ","pref":"京都府","city":"京都市伏見区","address":"醍醐烏橋町"},
{"zip_code":"6011324","kana_pref":"ｷｮｳﾄﾌ","kana_city":"ｷｮｳﾄｼﾌｼﾐｸ","kana_address":"ﾀﾞｲｺﾞｶﾞﾗﾝﾁｮｳ","pref":"京都府","city":"京都市伏見区","address":"醍醐伽藍町"},
{"zip_code":"6011378","kana_pref":"ｷｮｳﾄﾌ","kana_city":"ｷｮｳﾄｼﾌｼﾐｸ","kana_address":"ﾀﾞｲｺﾞｶﾜｸﾎﾞﾁｮｳ","pref":"京都府","city":"京都市伏見区","address":"醍醐川久保町"},
{"zip_code":"6011341","kana_pref":"ｷｮｳﾄﾌ","kana_city":"ｷｮｳﾄｼﾌｼﾐｸ","kana_address":"ﾀﾞｲｺﾞｷｼﾉｳｴﾁｮｳ","pref":"京都府","city":"京都市伏見区","address":"醍醐岸ノ上町"},
{"zip_code":"6011322","kana_pref":"ｷｮｳﾄﾌ","kana_city":"ｷｮｳﾄｼﾌｼﾐｸ","kana_address":"ﾀﾞｲｺﾞｷﾀｶﾞﾗﾝﾁｮｳ","pref":"京都府","city":"京都市伏見区","address":"醍醐北伽藍町"},
{"zip_code":"6011381","kana_pref":"ｷｮｳﾄﾌ","kana_city":"ｷｮｳﾄｼﾌｼﾐｸ","kana_address":"ﾀﾞｲｺﾞｷﾀﾀﾞﾆ","pref":"京都府","city":"京都市伏見区","address":"醍醐北谷"},
{"zip_code":"6011377","kana_pref":"ｷｮｳﾄﾌ","kana_city":"ｷｮｳﾄｼﾌｼﾐｸ","kana_address":"ﾀﾞｲｺﾞｷﾀﾆｼｳﾗﾁｮｳ","pref":"京都府","city":"京都市伏見区","address":"醍醐北西裏町"},
{"zip_code":"6011321","kana_pref":"ｷｮｳﾄﾌ","kana_city":"ｷｮｳﾄｼﾌｼﾐｸ","kana_address":"ﾀﾞｲｺﾞｷﾀﾊﾔﾏ","pref":"京都府","city":"京都市伏見区","address":"醍醐北端山"},
{"zip_code":"6011317","kana_pref":"ｷｮｳﾄﾌ","kana_city":"ｷｮｳﾄｼﾌｼﾐｸ","kana_address":"ﾀﾞｲｺﾞｷｮｳﾐﾁﾁｮｳ","pref":"京都府","city":"京都市伏見区","address":"醍醐京道町"},
{"zip_code":"6011327","kana_pref":"ｷｮｳﾄﾌ","kana_city":"ｷｮｳﾄｼﾌｼﾐｸ","kana_address":"ﾀﾞｲｺﾞｷﾚﾄﾞﾁｮｳ","pref":"京都府","city":"京都市伏見区","address":"醍醐切レ戸町"},
{"zip_code":"6011308","kana_pref":"ｷｮｳﾄﾌ","kana_city":"ｷｮｳﾄｼﾌｼﾐｸ","kana_address":"ﾀﾞｲｺﾞｺﾞｼｮﾉｳﾁ","pref":"京都府","city":"京都市伏見区","address":"醍醐御所ノ内"},
{"zip_code":"6011361","kana_pref":"ｷｮｳﾄﾌ","kana_city":"ｷｮｳﾄｼﾌｼﾐｸ","kana_address":"ﾀﾞｲｺﾞｺﾞﾘｮｳｶﾞｼﾀﾁｮｳ","pref":"京都府","city":"京都市伏見区","address":"醍醐御霊ケ下町"},
{"zip_code":"6011314","kana_pref":"ｷｮｳﾄﾌ","kana_city":"ｷｮｳﾄｼﾌｼﾐｸ","kana_address":"ﾀﾞｲｺﾞｺﾞﾘｮｳﾆｼｳﾗﾁｮｳ","pref":"京都府","city":"京都市伏見区","address":"醍醐御陵西裏町"},
{"zip_code":"6011313","kana_pref":"ｷｮｳﾄﾌ","kana_city":"ｷｮｳﾄｼﾌｼﾐｸ","kana_address":"ﾀﾞｲｺﾞｺﾞﾘｮｳﾋｶﾞｼｳﾗﾁｮｳ","pref":"京都府","city":"京都市伏見区","address":"醍醐御陵東裏町"},
{"zip_code":"6011387","kana_pref":"ｷｮｳﾄﾌ","kana_city":"ｷｮｳﾄｼﾌｼﾐｸ","kana_address":"ﾀﾞｲｺﾞｻﾝﾉｷﾘ","pref":"京都府","city":"京都市伏見区","address":"醍醐三ノ切"},
{"zip_code":"6011332","kana_pref":"ｷｮｳﾄﾌ","kana_city":"ｷｮｳﾄｼﾌｼﾐｸ","kana_address":"ﾀﾞｲｺﾞｼﾓﾊﾔﾏﾁｮｳ","pref":"京都府","city":"京都市伏見区","address":"醍醐下端山町"},
{"zip_code":"6011343","kana_pref":"ｷｮｳﾄﾌ","kana_city":"ｷｮｳﾄｼﾌｼﾐｸ","kana_address":"ﾀﾞｲｺﾞｼﾓﾔﾏｸﾞﾁﾁｮｳ","pref":"京都府","city":"京都市伏見区","address":"醍醐下山口町"},
{"zip_code":"6011334","kana_pref":"ｷｮｳﾄﾌ","kana_city":"ｷｮｳﾄｼﾌｼﾐｸ","kana_address":"ﾀﾞｲｺﾞｼｮｳｸﾁﾁｮｳ","pref":"京都府","city":"京都市伏見区","address":"醍醐勝口町"},
{"zip_code":"6011365","kana_pref":"ｷｮｳﾄﾌ","kana_city":"ｷｮｳﾄｼﾌｼﾐｸ","kana_address":"ﾀﾞｲｺﾞｼﾝｶｲ","pref":"京都府","city":"京都市伏見区","address":"醍醐新開"},
{"zip_code":"6011326","kana_pref":"ｷｮｳﾄﾌ","kana_city":"ｷｮｳﾄｼﾌｼﾐｸ","kana_address":"ﾀﾞｲｺﾞｼﾝﾏﾁｳﾗﾏﾁ","pref":"京都府","city":"京都市伏見区","address":"醍醐新町裏町"},
{"zip_code":"6011345","kana_pref":"ｷｮｳﾄﾌ","kana_city":"ｷｮｳﾄｼﾌｼﾐｸ","kana_address":"ﾀﾞｲｺﾞｿﾄﾔﾏｶｲﾄﾞｳﾁｮｳ","pref":"京都府","city":"京都市伏見区","address":"醍醐外山街道町"},
{"zip_code":"6011383","kana_pref":"ｷｮｳﾄﾌ","kana_city":"ｷｮｳﾄｼﾌｼﾐｸ","kana_address":"ﾀﾞｲｺﾞﾀﾞｲｺﾞﾔﾏ","pref":"京都府","city":"京都市伏見区","address":"醍醐醍醐山"},
{"zip_code":"6011384","kana_pref":"ｷｮｳﾄﾌ","kana_city":"ｷｮｳﾄｼﾌｼﾐｸ","kana_address":"ﾀﾞｲｺﾞﾀｶﾀﾞ","pref":"京都府","city":"京都市伏見区","address":"醍醐高田"},
{"zip_code":"6011375","kana_pref":"ｷｮｳﾄﾌ","kana_city":"ｷｮｳﾄｼﾌｼﾐｸ","kana_address":"ﾀﾞｲｺﾞﾀｶﾊﾀﾁｮｳ","pref":"京都府","city":"京都市伏見区","address":"醍醐高畑町"},
{"zip_code":"6011355","kana_pref":"ｷｮｳﾄﾌ","kana_city":"ｷｮｳﾄｼﾌｼﾐｸ","kana_address":"ﾀﾞｲｺﾞﾀｺﾝﾀﾞﾁｮｳ","pref":"京都府","city":"京都市伏見区","address":"醍醐多近田町"},
{"zip_code":"6011344","kana_pref":"ｷｮｳﾄﾌ","kana_city":"ｷｮｳﾄｼﾌｼﾐｸ","kana_address":"ﾀﾞｲｺﾞﾀﾂﾐﾁｮｳ","pref":"京都府","city":"京都市伏見区","address":"醍醐辰巳町"},
{"zip_code":"6011386","kana_pref":"ｷｮｳﾄﾌ","kana_city":"ｷｮｳﾄｼﾌｼﾐｸ","kana_address":"ﾀﾞｲｺﾞﾀﾞﾗﾀﾆ","pref":"京都府","city":"京都市伏見区","address":"醍醐陀羅谷"},
{"zip_code":"6011357","kana_pref":"ｷｮｳﾄﾌ","kana_city":"ｷｮｳﾄｼﾌｼﾐｸ","kana_address":"ﾀﾞｲｺﾞﾄﾞﾄﾞﾝﾎﾞｳﾁｮｳ","pref":"京都府","city":"京都市伏見区","address":"醍醐僧尊坊町"},
{"zip_code":"6011373","kana_pref":"ｷｮｳﾄﾌ","kana_city":"ｷｮｳﾄｼﾌｼﾐｸ","kana_address":"ﾀﾞｲｺﾞﾅｶﾔﾏﾁｮｳ","pref":"京都府","city":"京都市伏見区","address":"醍醐中山町"},
{"zip_code":"6011374","kana_pref":"ｷｮｳﾄﾌ","kana_city":"ｷｮｳﾄｼﾌｼﾐｸ","kana_address":"ﾀﾞｲｺﾞﾆｼｵｵｼﾞﾁｮｳ","pref":"京都府","city":"京都市伏見区","address":"醍醐西大路町"},
{"zip_code":"6011387","kana_pref":"ｷｮｳﾄﾌ","kana_city":"ｷｮｳﾄｼﾌｼﾐｸ","kana_address":"ﾀﾞｲｺﾞﾆﾉｷﾘﾁｮｳ","pref":"京都府","city":"京都市伏見区","address":"醍醐二ノ切町"},
{"zip_code":"6011307","kana_pref":"ｷｮｳﾄﾌ","kana_city":"ｷｮｳﾄｼﾌｼﾐｸ","kana_address":"ﾀﾞｲｺﾞﾊｻﾞﾏ","pref":"京都府","city":"京都市伏見区","address":"醍醐狭間"},
{"zip_code":"6011346","kana_pref":"ｷｮｳﾄﾌ","kana_city":"ｷｮｳﾄｼﾌｼﾐｸ","kana_address":"ﾀﾞｲｺﾞﾋｶﾞｼｱｲﾊﾞﾁｮｳ","pref":"京都府","city":"京都市伏見区","address":"醍醐東合場町"},
{"zip_code":"6011325","kana_pref":"ｷｮｳﾄﾌ","kana_city":"ｷｮｳﾄｼﾌｼﾐｸ","kana_address":"ﾀﾞｲｺﾞﾋｶﾞｼｵｵｼﾞﾁｮｳ","pref":"京都府","city":"京都市伏見区","address":"醍醐東大路町"},
{"zip_code":"6011372","kana_pref":"ｷｮｳﾄﾌ","kana_city":"ｷｮｳﾄｼﾌｼﾐｸ","kana_address":"ﾀﾞｲｺﾞﾋﾗﾏﾂﾁｮｳ","pref":"京都府","city":"京都市伏見区","address":"醍醐平松町"},
{"zip_code":"6011316","kana_pref":"ｷｮｳﾄﾌ","kana_city":"ｷｮｳﾄｼﾌｼﾐｸ","kana_address":"ﾀﾞｲｺﾞﾌﾙﾐﾁﾁｮｳ","pref":"京都府","city":"京都市伏見区","address":"醍醐古道町"},
{"zip_code":"6011337","kana_pref":"ｷｮｳﾄﾌ","kana_city":"ｷｮｳﾄｼﾌｼﾐｸ","kana_address":"ﾀﾞｲｺﾞﾏｷﾉｳﾁﾁｮｳ","pref":"京都府","city":"京都市伏見区","address":"醍醐槇ノ内町"},
{"zip_code":"6011318","kana_pref":"ｷｮｳﾄﾌ","kana_city":"ｷｮｳﾄｼﾌｼﾐｸ","kana_address":"ﾀﾞｲｺﾞﾏﾜﾘﾄﾞﾁｮｳ","pref":"京都府","city":"京都市伏見区","address":"醍醐廻り戸町"},
{"zip_code":"6011353","kana_pref":"ｷｮｳﾄﾌ","kana_city":"ｷｮｳﾄｼﾌｼﾐｸ","kana_address":"ﾀﾞｲｺﾞﾐｿﾉｵﾁｮｳ","pref":"京都府","city":"京都市伏見区","address":"醍醐御園尾町"},
{"zip_code":"6011352","kana_pref":"ｷｮｳﾄﾌ","kana_city":"ｷｮｳﾄｼﾌｼﾐｸ","kana_address":"ﾀﾞｲｺﾞﾐﾅﾐｻﾄﾁｮｳ","pref":"京都府","city":"京都市伏見区","address":"醍醐南里町"},
{"zip_code":"6011382","kana_pref":"ｷｮｳﾄﾌ","kana_city":"ｷｮｳﾄｼﾌｼﾐｸ","kana_address":"ﾀﾞｲｺﾞﾐﾅﾐﾀﾞﾆ","pref":"京都府","city":"京都市伏見区","address":"醍醐南谷"},
{"zip_code":"6011356","kana_pref":"ｷｮｳﾄﾌ","kana_city":"ｷｮｳﾄｼﾌｼﾐｸ","kana_address":"ﾀﾞｲｺﾞﾐﾅﾐﾆｼｳﾗﾁｮｳ","pref":"京都府","city":"京都市伏見区","address":"醍醐南西裏町"},
{"zip_code":"6011331","kana_pref":"ｷｮｳﾄﾌ","kana_city":"ｷｮｳﾄｼﾌｼﾐｸ","kana_address":"ﾀﾞｲｺﾞﾐﾅﾐﾊﾔﾏ","pref":"京都府","city":"京都市伏見区","address":"醍醐南端山"},
{"zip_code":"6011385","kana_pref":"ｷｮｳﾄﾌ","kana_city":"ｷｮｳﾄｼﾌｼﾐｸ","kana_address":"ﾀﾞｲｺﾞﾐﾔﾉｼﾀﾁｮｳ","pref":"京都府","city":"京都市伏見区","address":"醍醐宮ノ下町"},
{"zip_code":"6011304","kana_pref":"ｷｮｳﾄﾌ","kana_city":"ｷｮｳﾄｼﾌｼﾐｸ","kana_address":"ﾀﾞｲｺﾞﾔﾏｶﾞﾊﾅ","pref":"京都府","city":"京都市伏見区","address":"醍醐山ケ鼻"},
{"zip_code":"6011306","kana_pref":"ｷｮｳﾄﾌ","kana_city":"ｷｮｳﾄｼﾌｼﾐｸ","kana_address":"ﾀﾞｲｺﾞﾚﾝｿﾞｳ","pref":"京都府","city":"京都市伏見区","address":"醍醐連蔵"},
{"zip_code":"6011416","kana_pref":"ｷｮｳﾄﾌ","kana_city":"ｷｮｳﾄｼﾌｼﾐｸ","kana_address":"ﾋﾉｵｶﾆｼﾁｮｳ","pref":"京都府","city":"京都市伏見区","address":"日野岡西町"},
{"zip_code":"6011414","kana_pref":"ｷｮｳﾄﾌ","kana_city":"ｷｮｳﾄｼﾌｼﾐｸ","kana_address":"ﾋﾉｵｸﾃﾞ","pref":"京都府","city":"京都市伏見区","address":"日野奥出"},
{"zip_code":"6011404","kana_pref":"ｷｮｳﾄﾌ","kana_city":"ｷｮｳﾄｼﾌｼﾐｸ","kana_address":"ﾋﾉｷﾀｶﾜﾂﾞﾗ","pref":"京都府","city":"京都市伏見区","address":"日野北川頬"},
{"zip_code":"6011401","kana_pref":"ｷｮｳﾄﾌ","kana_city":"ｷｮｳﾄｼﾌｼﾐｸ","kana_address":"ﾋﾉｷﾀﾔﾏ","pref":"京都府","city":"京都市伏見区","address":"日野北山"},
{"zip_code":"6011411","kana_pref":"ｷｮｳﾄﾌ","kana_city":"ｷｮｳﾄｼﾌｼﾐｸ","kana_address":"ﾋﾉｼﾞﾋﾁｮｳ","pref":"京都府","city":"京都市伏見区","address":"日野慈悲町"},
{"zip_code":"6011424","kana_pref":"ｷｮｳﾄﾌ","kana_city":"ｷｮｳﾄｼﾌｼﾐｸ","kana_address":"ﾋﾉﾀﾂﾞﾗﾁｮｳ","pref":"京都府","city":"京都市伏見区","address":"日野田頬町"},
{"zip_code":"6011425","kana_pref":"ｷｮｳﾄﾌ","kana_city":"ｷｮｳﾄｼﾌｼﾐｸ","kana_address":"ﾋﾉﾀﾅｶﾁｮｳ","pref":"京都府","city":"京都市伏見区","address":"日野田中町"},
{"zip_code":"6011413","kana_pref":"ｷｮｳﾄﾌ","kana_city":"ｷｮｳﾄｼﾌｼﾐｸ","kana_address":"ﾋﾉﾀﾆﾀﾞﾁｮｳ","pref":"京都府","city":"京都市伏見区","address":"日野谷田町"},
{"zip_code":"6011406","kana_pref":"ｷｮｳﾄﾌ","kana_city":"ｷｮｳﾄｼﾌｼﾐｸ","kana_address":"ﾋﾉﾀﾆﾃﾞﾗﾁｮｳ","pref":"京都府","city":"京都市伏見区","address":"日野谷寺町"},
{"zip_code":"6011426","kana_pref":"ｷｮｳﾄﾌ","kana_city":"ｷｮｳﾄｼﾌｼﾐｸ","kana_address":"ﾋﾉﾆｼｶﾜﾂﾞﾗ","pref":"京都府","city":"京都市伏見区","address":"日野西川頬"},
{"zip_code":"6011417","kana_pref":"ｷｮｳﾄﾌ","kana_city":"ｷｮｳﾄｼﾌｼﾐｸ","kana_address":"ﾋﾉﾆｼﾀﾞｲﾄﾞｳﾁｮｳ","pref":"京都府","city":"京都市伏見区","address":"日野西大道町"},
{"zip_code":"6011423","kana_pref":"ｷｮｳﾄﾌ","kana_city":"ｷｮｳﾄｼﾌｼﾐｸ","kana_address":"ﾋﾉﾆｼﾌﾛﾁｮｳ","pref":"京都府","city":"京都市伏見区","address":"日野西風呂町"},
{"zip_code":"6011415","kana_pref":"ｷｮｳﾄﾌ","kana_city":"ｷｮｳﾄｼﾌｼﾐｸ","kana_address":"ﾋﾉﾉｲﾛﾁｮｳ","pref":"京都府","city":"京都市伏見区","address":"日野野色町"},
{"zip_code":"6011412","kana_pref":"ｷｮｳﾄﾌ","kana_city":"ｷｮｳﾄｼﾌｼﾐｸ","kana_address":"ﾋﾉﾊﾀﾃﾞﾁｮｳ","pref":"京都府","city":"京都市伏見区","address":"日野畑出町"},
{"zip_code":"6011405","kana_pref":"ｷｮｳﾄﾌ","kana_city":"ｷｮｳﾄｼﾌｼﾐｸ","kana_address":"ﾋﾉﾊﾔｼ","pref":"京都府","city":"京都市伏見区","address":"日野林"},
{"zip_code":"6011421","kana_pref":"ｷｮｳﾄﾌ","kana_city":"ｷｮｳﾄｼﾌｼﾐｸ","kana_address":"ﾋﾉﾊﾞﾝﾊﾞﾃﾁｮｳ","pref":"京都府","city":"京都市伏見区","address":"日野馬場出町"},
{"zip_code":"6011422","kana_pref":"ｷｮｳﾄﾌ","kana_city":"ｷｮｳﾄｼﾌｼﾐｸ","kana_address":"ﾋﾉﾌﾄﾞｳｺｳﾁｮｳ","pref":"京都府","city":"京都市伏見区","address":"日野不動講町"},
{"zip_code":"6011403","kana_pref":"ｷｮｳﾄﾌ","kana_city":"ｷｮｳﾄｼﾌｼﾐｸ","kana_address":"ﾋﾉﾌﾅｵ","pref":"京都府","city":"京都市伏見区","address":"日野船尾"},
{"zip_code":"6011402","kana_pref":"ｷｮｳﾄﾌ","kana_city":"ｷｮｳﾄｼﾌｼﾐｸ","kana_address":"ﾋﾉﾐﾅﾐﾔﾏ","pref":"京都府","city":"京都市伏見区","address":"日野南山"},
{"zip_code":"6011394","kana_pref":"ｷｮｳﾄﾌ","kana_city":"ｳｼﾞｼ","kana_address":"ｲｹﾉｵ","pref":"京都府","city":"宇治市","address":"池尾"},
{"zip_code":"6011395","kana_pref":"ｷｮｳﾄﾌ","kana_city":"ｳｼﾞｼ","kana_address":"ｽﾐﾔﾏ","pref":"京都府","city":"宇治市","address":"炭山"},
{"zip_code":"6011396","kana_pref":"ｷｮｳﾄﾌ","kana_city":"ｳｼﾞｼ","kana_address":"ﾄﾄﾞｳﾋｶﾞｼｶﾞｲﾄ","pref":"京都府","city":"宇治市","address":"莵道東垣内"},
{"zip_code":"6011393","kana_pref":"ｷｮｳﾄﾌ","kana_city":"ｳｼﾞｼ","kana_address":"ﾆｵ","pref":"京都府","city":"宇治市","address":"二尾"},
{"zip_code":"6011392","kana_pref":"ｷｮｳﾄﾌ","kana_city":"ｳｼﾞｼ","kana_address":"ﾆｼｶｻﾄﾘ","pref":"京都府","city":"宇治市","address":"西笠取"},
{"zip_code":"6011391","kana_pref":"ｷｮｳﾄﾌ","kana_city":"ｳｼﾞｼ","kana_address":"ﾋｶﾞｼｶｻﾄﾘ","pref":"京都府","city":"宇治市","address":"東笠取"},
{"zip_code":"6010722","kana_pref":"ｷｮｳﾄﾌ","kana_city":"ﾅﾝﾀﾝｼ","kana_address":"ﾐﾔﾏﾁｮｳｱｶﾞｹ","pref":"京都府","city":"南丹市","address":"美山町安掛"},
{"zip_code":"6010703","kana_pref":"ｷｮｳﾄﾌ","kana_city":"ﾅﾝﾀﾝｼ","kana_address":"ﾐﾔﾏﾁｮｳｱｼｳ","pref":"京都府","city":"南丹市","address":"美山町芦生"},
{"zip_code":"6010723","kana_pref":"ｷｮｳﾄﾌ","kana_city":"ﾅﾝﾀﾝｼ","kana_address":"ﾐﾔﾏﾁｮｳｱﾗｸﾗ","pref":"京都府","city":"南丹市","address":"美山町荒倉"},
{"zip_code":"6010754","kana_pref":"ｷｮｳﾄﾌ","kana_city":"ﾅﾝﾀﾝｼ","kana_address":"ﾐﾔﾏﾁｮｳｲｽﾞﾐ","pref":"京都府","city":"南丹市","address":"美山町和泉"},
{"zip_code":"6010742","kana_pref":"ｷｮｳﾄﾌ","kana_city":"ﾅﾝﾀﾝｼ","kana_address":"ﾐﾔﾏﾁｮｳｲﾀﾊｼ","pref":"京都府","city":"南丹市","address":"美山町板橋"},
{"zip_code":"6010724","kana_pref":"ｷｮｳﾄﾌ","kana_city":"ﾅﾝﾀﾝｼ","kana_address":"ﾐﾔﾏﾁｮｳｳﾁｸﾎﾞ","pref":"京都府","city":"南丹市","address":"美山町内久保"},
{"zip_code":"6010701","kana_pref":"ｷｮｳﾄﾌ","kana_city":"ﾅﾝﾀﾝｼ","kana_address":"ﾐﾔﾏﾁｮｳｴﾜ","pref":"京都府","city":"南丹市","address":"美山町江和"},
{"zip_code":"6010772","kana_pref":"ｷｮｳﾄﾌ","kana_city":"ﾅﾝﾀﾝｼ","kana_address":"ﾐﾔﾏﾁｮｳｵｵﾉ","pref":"京都府","city":"南丹市","address":"美山町大野"},
{"zip_code":"6010778","kana_pref":"ｷｮｳﾄﾌ","kana_city":"ﾅﾝﾀﾝｼ","kana_address":"ﾐﾔﾏﾁｮｳｵﾄﾐ","pref":"京都府","city":"南丹市","address":"美山町音海"},
{"zip_code":"6010775","kana_pref":"ｷｮｳﾄﾌ","kana_city":"ﾅﾝﾀﾝｼ","kana_address":"ﾐﾔﾏﾁｮｳｵﾌﾞﾁ","pref":"京都府","city":"南丹市","address":"美山町小渕"},
{"zip_code":"6010777","kana_pref":"ｷｮｳﾄﾌ","kana_city":"ﾅﾝﾀﾝｼ","kana_address":"ﾐﾔﾏﾁｮｳｶｼﾜﾗ","pref":"京都府","city":"南丹市","address":"美山町樫原"},
{"zip_code":"6010721","kana_pref":"ｷｮｳﾄﾌ","kana_city":"ﾅﾝﾀﾝｼ","kana_address":"ﾐﾔﾏﾁｮｳｶﾐﾋﾗﾔ","pref":"京都府","city":"南丹市","address":"美山町上平屋"},
{"zip_code":"6010771","kana_pref":"ｷｮｳﾄﾌ","kana_city":"ﾅﾝﾀﾝｼ","kana_address":"ﾐﾔﾏﾁｮｳｶﾔﾉ","pref":"京都府","city":"南丹市","address":"美山町萱野"},
{"zip_code":"6010714","kana_pref":"ｷｮｳﾄﾌ","kana_city":"ﾅﾝﾀﾝｼ","kana_address":"ﾐﾔﾏﾁｮｳｶﾜｳﾁﾀﾞﾆ","pref":"京都府","city":"南丹市","address":"美山町河内谷"},
{"zip_code":"6010712","kana_pref":"ｷｮｳﾄﾌ","kana_city":"ﾅﾝﾀﾝｼ","kana_address":"ﾐﾔﾏﾁｮｳｷﾀ","pref":"京都府","city":"南丹市","address":"美山町北"},
{"zip_code":"6010705","kana_pref":"ｷｮｳﾄﾌ","kana_city":"ﾅﾝﾀﾝｼ","kana_address":"ﾐﾔﾏﾁｮｳｻｻﾘ","pref":"京都府","city":"南丹市","address":"美山町佐々里"},
{"zip_code":"6010755","kana_pref":"ｷｮｳﾄﾌ","kana_city":"ﾅﾝﾀﾝｼ","kana_address":"ﾐﾔﾏﾁｮｳｼｽﾞﾊﾗ","pref":"京都府","city":"南丹市","address":"美山町静原"},
{"zip_code":"6010751","kana_pref":"ｷｮｳﾄﾌ","kana_city":"ﾅﾝﾀﾝｼ","kana_address":"ﾐﾔﾏﾁｮｳｼﾏ","pref":"京都府","city":"南丹市","address":"美山町島"},
{"zip_code":"6010715","kana_pref":"ｷｮｳﾄﾌ","kana_city":"ﾅﾝﾀﾝｼ","kana_address":"ﾐﾔﾏﾁｮｳｼﾓ","pref":"京都府","city":"南丹市","address":"美山町下"},
{"zip_code":"6010732","kana_pref":"ｷｮｳﾄﾌ","kana_city":"ﾅﾝﾀﾝｼ","kana_address":"ﾐﾔﾏﾁｮｳｼﾓﾋﾗﾔ","pref":"京都府","city":"南丹市","address":"美山町下平屋"},
{"zip_code":"6010744","kana_pref":"ｷｮｳﾄﾌ","kana_city":"ﾅﾝﾀﾝｼ","kana_address":"ﾐﾔﾏﾁｮｳｼﾓﾖｼﾀﾞ","pref":"京都府","city":"南丹市","address":"美山町下吉田"},
{"zip_code":"6010753","kana_pref":"ｷｮｳﾄﾌ","kana_city":"ﾅﾝﾀﾝｼ","kana_address":"ﾐﾔﾏﾁｮｳｼﾞｮｳｼ","pref":"京都府","city":"南丹市","address":"美山町上司"},
{"zip_code":"6010704","kana_pref":"ｷｮｳﾄﾌ","kana_city":"ﾅﾝﾀﾝｼ","kana_address":"ﾐﾔﾏﾁｮｳｼﾗｲｼ","pref":"京都府","city":"南丹市","address":"美山町白石"},
{"zip_code":"6010702","kana_pref":"ｷｮｳﾄﾌ","kana_city":"ﾅﾝﾀﾝｼ","kana_address":"ﾐﾔﾏﾁｮｳﾀｳﾀ","pref":"京都府","city":"南丹市","address":"美山町田歌"},
{"zip_code":"6010761","kana_pref":"ｷｮｳﾄﾌ","kana_city":"ﾅﾝﾀﾝｼ","kana_address":"ﾐﾔﾏﾁｮｳﾀｶﾉ","pref":"京都府","city":"南丹市","address":"美山町高野"},
{"zip_code":"6010716","kana_pref":"ｷｮｳﾄﾌ","kana_city":"ﾅﾝﾀﾝｼ","kana_address":"ﾐﾔﾏﾁｮｳﾁﾐ","pref":"京都府","city":"南丹市","address":"美山町知見"},
{"zip_code":"6010762","kana_pref":"ｷｮｳﾄﾌ","kana_city":"ﾅﾝﾀﾝｼ","kana_address":"ﾐﾔﾏﾁｮｳﾂﾙｶﾞｵｶ","pref":"京都府","city":"南丹市","address":"美山町鶴ケ岡"},
{"zip_code":"6010763","kana_pref":"ｷｮｳﾄﾌ","kana_city":"ﾅﾝﾀﾝｼ","kana_address":"ﾐﾔﾏﾁｮｳﾄﾖｻﾄ","pref":"京都府","city":"南丹市","address":"美山町豊郷"},
{"zip_code":"6010713","kana_pref":"ｷｮｳﾄﾌ","kana_city":"ﾅﾝﾀﾝｼ","kana_address":"ﾐﾔﾏﾁｮｳﾅｶ","pref":"京都府","city":"南丹市","address":"美山町中"},
{"zip_code":"6010734","kana_pref":"ｷｮｳﾄﾌ","kana_city":"ﾅﾝﾀﾝｼ","kana_address":"ﾐﾔﾏﾁｮｳﾅｶﾞｵ","pref":"京都府","city":"南丹市","address":"美山町長尾"},
{"zip_code":"6010752","kana_pref":"ｷｮｳﾄﾌ","kana_city":"ﾅﾝﾀﾝｼ","kana_address":"ﾐﾔﾏﾁｮｳﾅｶﾞﾀﾆ","pref":"京都府","city":"南丹市","address":"美山町長谷"},
{"zip_code":"6010733","kana_pref":"ｷｮｳﾄﾌ","kana_city":"ﾅﾝﾀﾝｼ","kana_address":"ﾐﾔﾏﾁｮｳﾉｿﾞｴ","pref":"京都府","city":"南丹市","address":"美山町野添"},
{"zip_code":"6010741","kana_pref":"ｷｮｳﾄﾌ","kana_city":"ﾅﾝﾀﾝｼ","kana_address":"ﾐﾔﾏﾁｮｳﾊﾗ","pref":"京都府","city":"南丹市","address":"美山町原"},
{"zip_code":"6010774","kana_pref":"ｷｮｳﾄﾌ","kana_city":"ﾅﾝﾀﾝｼ","kana_address":"ﾐﾔﾏﾁｮｳﾋｼﾞﾀﾆ","pref":"京都府","city":"南丹市","address":"美山町肱谷"},
{"zip_code":"6010735","kana_pref":"ｷｮｳﾄﾌ","kana_city":"ﾅﾝﾀﾝｼ","kana_address":"ﾐﾔﾏﾁｮｳﾌｶﾐ","pref":"京都府","city":"南丹市","address":"美山町深見"},
{"zip_code":"6010765","kana_pref":"ｷｮｳﾄﾌ","kana_city":"ﾅﾝﾀﾝｼ","kana_address":"ﾐﾔﾏﾁｮｳﾌｸｲ","pref":"京都府","city":"南丹市","address":"美山町福居"},
{"zip_code":"6010731","kana_pref":"ｷｮｳﾄﾌ","kana_city":"ﾅﾝﾀﾝｼ","kana_address":"ﾐﾔﾏﾁｮｳﾏﾀﾊﾞﾔｼ","pref":"京都府","city":"南丹市","address":"美山町又林"},
{"zip_code":"6010773","kana_pref":"ｷｮｳﾄﾌ","kana_city":"ﾅﾝﾀﾝｼ","kana_address":"ﾐﾔﾏﾁｮｳﾐﾂﾉ","pref":"京都府","city":"南丹市","address":"美山町三埜"},
{"zip_code":"6010711","kana_pref":"ｷｮｳﾄﾌ","kana_city":"ﾅﾝﾀﾝｼ","kana_address":"ﾐﾔﾏﾁｮｳﾐﾅﾐ","pref":"京都府","city":"南丹市","address":"美山町南"},
{"zip_code":"6010743","kana_pref":"ｷｮｳﾄﾌ","kana_city":"ﾅﾝﾀﾝｼ","kana_address":"ﾐﾔﾏﾁｮｳﾐﾔﾉﾜｷ","pref":"京都府","city":"南丹市","address":"美山町宮脇"},
{"zip_code":"6010776","kana_pref":"ｷｮｳﾄﾌ","kana_city":"ﾅﾝﾀﾝｼ","kana_address":"ﾐﾔﾏﾁｮｳﾑｶｲﾔﾏ","pref":"京都府","city":"南丹市","address":"美山町向山"},
{"zip_code":"6010764","kana_pref":"ｷｮｳﾄﾌ","kana_city":"ﾅﾝﾀﾝｼ","kana_address":"ﾐﾔﾏﾁｮｳﾓﾘｻﾄ","pref":"京都府","city":"南丹市","address":"美山町盛郷"}]}