{"zip_code":[
{"zip_code":"6020000","kana_pref":"ｷｮｳﾄﾌ","kana_city":"ｷｮｳﾄｼｶﾐｷﾞｮｳｸ","kana_address":"","pref":"京都府","city":"京都市上京区","address":""},
{"zip_code":"6020827","kana_pref":"ｷｮｳﾄﾌ","kana_city":"ｷｮｳﾄｼｶﾐｷﾞｮｳｸ","kana_address":"ｱｲｵｲﾁｮｳ","pref":"京都府","city":"京都市上京区","address":"相生町"},
{"zip_code":"6028278","kana_pref":"ｷｮｳﾄﾌ","kana_city":"ｷｮｳﾄｼｶﾐｷﾞｮｳｸ","kana_address":"ｱｲｾﾞﾝｼﾞﾁｮｳ","pref":"京都府","city":"京都市上京区","address":"愛染寺町"},
{"zip_code":"6020054","kana_pref":"ｷｮｳﾄﾌ","kana_city":"ｷｮｳﾄｼｶﾐｷﾞｮｳｸ","kana_address":"ｱｽｶｲﾁｮｳ","pref":"京都府","city":"京都市上京区","address":"飛鳥井町"},
{"zip_code":"6020923","kana_pref":"ｷｮｳﾄﾌ","kana_city":"ｷｮｳﾄｼｶﾐｷﾞｮｳｸ","kana_address":"ｱﾌﾞﾗﾊｼﾂﾞﾒﾁｮｳ","pref":"京都府","city":"京都市上京区","address":"油橋詰町"},
{"zip_code":"6028165","kana_pref":"ｷｮｳﾄﾌ","kana_city":"ｷｮｳﾄｼｶﾐｷﾞｮｳｸ","kana_address":"ｱﾏｶﾞｻｷﾖｺﾁｮｳ","pref":"京都府","city":"京都市上京区","address":"尼ケ崎横町"},
{"zip_code":"6028424","kana_pref":"ｷｮｳﾄﾌ","kana_city":"ｷｮｳﾄｼｶﾐｷﾞｮｳｸ","kana_address":"ｱﾐﾀﾞｼﾞﾁｮｳ","pref":"京都府","city":"京都市上京区","address":"阿弥陀寺町"},
{"zip_code":"6020803","kana_pref":"ｷｮｳﾄﾌ","kana_city":"ｷｮｳﾄｼｶﾐｷﾞｮｳｸ","kana_address":"ｱﾐﾀﾞｼﾞﾏｴﾁｮｳ","pref":"京都府","city":"京都市上京区","address":"阿弥陀寺前町"},
{"zip_code":"6028074","kana_pref":"ｷｮｳﾄﾌ","kana_city":"ｷｮｳﾄｼｶﾐｷﾞｮｳｸ","kana_address":"ｱﾘﾊﾙﾁｮｳ","pref":"京都府","city":"京都市上京区","address":"有春町"},
{"zip_code":"6028472","kana_pref":"ｷｮｳﾄﾌ","kana_city":"ｷｮｳﾄｼｶﾐｷﾞｮｳｸ","kana_address":"ｱﾘﾏﾁｮｳ","pref":"京都府","city":"京都市上京区","address":"有馬町"},
{"zip_code":"6020064","kana_pref":"ｷｮｳﾄﾌ","kana_city":"ｷｮｳﾄｼｶﾐｷﾞｮｳｸ","kana_address":"ｱﾝﾗｸｺｳｼﾞﾁｮｳ","pref":"京都府","city":"京都市上京区","address":"安楽小路町"},
{"zip_code":"6028121","kana_pref":"ｷｮｳﾄﾌ","kana_city":"ｷｮｳﾄｼｶﾐｷﾞｮｳｸ","kana_address":"ｲｴﾅｶﾞﾁｮｳ","pref":"京都府","city":"京都市上京区","address":"家永町"},
{"zip_code":"6028407","kana_pref":"ｷｮｳﾄﾌ","kana_city":"ｷｮｳﾄｼｶﾐｷﾞｮｳｸ","kana_address":"ｲｻﾁｮｳ","pref":"京都府","city":"京都市上京区","address":"伊佐町"},
{"zip_code":"6028226","kana_pref":"ｷｮｳﾄﾌ","kana_city":"ｷｮｳﾄｼｶﾐｷﾞｮｳｸ","kana_address":"ｲｼﾔｸｼﾁｮｳ","pref":"京都府","city":"京都市上京区","address":"石薬師町"},
{"zip_code":"6028297","kana_pref":"ｷｮｳﾄﾌ","kana_city":"ｷｮｳﾄｼｶﾐｷﾞｮｳｸ","kana_address":"ｲｾﾄﾞﾉｶﾏｴﾁｮｳ","pref":"京都府","city":"京都市上京区","address":"伊勢殿構町"},
{"zip_code":"6020873","kana_pref":"ｷｮｳﾄﾌ","kana_city":"ｷｮｳﾄｼｶﾐｷﾞｮｳｸ","kana_address":"ｲｾﾔﾁｮｳ","pref":"京都府","city":"京都市上京区","address":"伊勢屋町"},
{"zip_code":"6028302","kana_pref":"ｷｮｳﾄﾌ","kana_city":"ｷｮｳﾄｼｶﾐｷﾞｮｳｸ","kana_address":"ｲﾀﾞﾁｮｳ","pref":"京都府","city":"京都市上京区","address":"井田町"},
{"zip_code":"6028335","kana_pref":"ｷｮｳﾄﾌ","kana_city":"ｷｮｳﾄｼｶﾐｷﾞｮｳｸ","kana_address":"ｲﾁｶﾝﾉﾝﾁｮｳ","pref":"京都府","city":"京都市上京区","address":"一観音町"},
{"zip_code":"6020934","kana_pref":"ｷｮｳﾄﾌ","kana_city":"ｷｮｳﾄｼｶﾐｷﾞｮｳｸ","kana_address":"ｲﾁｼﾞｮｳﾃﾞﾝﾁｮｳ","pref":"京都府","city":"京都市上京区","address":"一条殿町"},
{"zip_code":"6020944","kana_pref":"ｷｮｳﾄﾌ","kana_city":"ｷｮｳﾄｼｶﾐｷﾞｮｳｸ","kana_address":"ｲﾁｼﾞｮｳﾖｺﾁｮｳ","pref":"京都府","city":"京都市上京区","address":"一条横町"},
{"zip_code":"6028345","kana_pref":"ｷｮｳﾄﾌ","kana_city":"ｷｮｳﾄｼｶﾐｷﾞｮｳｸ","kana_address":"ｲﾁﾊﾞﾝﾁｮｳ","pref":"京都府","city":"京都市上京区","address":"一番町"},
{"zip_code":"6020905","kana_pref":"ｷｮｳﾄﾌ","kana_city":"ｷｮｳﾄｼｶﾐｷﾞｮｳｸ","kana_address":"ｲﾁﾏﾂﾁｮｳ","pref":"京都府","city":"京都市上京区","address":"一松町"},
{"zip_code":"6028471","kana_pref":"ｷｮｳﾄﾌ","kana_city":"ｷｮｳﾄｼｶﾐｷﾞｮｳｸ","kana_address":"ｲｯｼｷﾁｮｳ","pref":"京都府","city":"京都市上京区","address":"一色町"},
{"zip_code":"6020824","kana_pref":"ｷｮｳﾄﾌ","kana_city":"ｷｮｳﾄｼｶﾐｷﾞｮｳｸ","kana_address":"ｲｯｼﾝﾁｮｳ","pref":"京都府","city":"京都市上京区","address":"一真町"},
{"zip_code":"6028064","kana_pref":"ｷｮｳﾄﾌ","kana_city":"ｷｮｳﾄｼｶﾐｷﾞｮｳｸ","kana_address":"ｲｯﾁｮｳﾒ","pref":"京都府","city":"京都市上京区","address":"一町目"},
{"zip_code":"6028134","kana_pref":"ｷｮｳﾄﾌ","kana_city":"ｷｮｳﾄｼｶﾐｷﾞｮｳｸ","kana_address":"ｲｯﾁｮｳﾒ","pref":"京都府","city":"京都市上京区","address":"一町目"},
{"zip_code":"6028103","kana_pref":"ｷｮｳﾄﾌ","kana_city":"ｷｮｳﾄｼｶﾐｷﾞｮｳｸ","kana_address":"ｲｯﾁｮｳﾒ","pref":"京都府","city":"京都市上京区","address":"一町目"},
{"zip_code":"6028446","kana_pref":"ｷｮｳﾄﾌ","kana_city":"ｷｮｳﾄｼｶﾐｷﾞｮｳｸ","kana_address":"ｲﾂﾂｼﾞﾁｮｳ","pref":"京都府","city":"京都市上京区","address":"五辻町"},
{"zip_code":"6028238","kana_pref":"ｷｮｳﾄﾌ","kana_city":"ｷｮｳﾄｼｶﾐｷﾞｮｳｸ","kana_address":"ｲﾄﾔﾁｮｳ","pref":"京都府","city":"京都市上京区","address":"糸屋町"},
{"zip_code":"6028352","kana_pref":"ｷｮｳﾄﾌ","kana_city":"ｷｮｳﾄｼｶﾐｷﾞｮｳｸ","kana_address":"ｲﾅﾊﾞﾁｮｳ","pref":"京都府","city":"京都市上京区","address":"稲葉町"},
{"zip_code":"6028497","kana_pref":"ｷｮｳﾄﾌ","kana_city":"ｷｮｳﾄｼｶﾐｷﾞｮｳｸ","kana_address":"ｲﾇｲﾁｮｳ","pref":"京都府","city":"京都市上京区","address":"戌亥町"},
{"zip_code":"6028245","kana_pref":"ｷｮｳﾄﾌ","kana_city":"ｷｮｳﾄｼｶﾐｷﾞｮｳｸ","kana_address":"ｲﾉｸﾏ","pref":"京都府","city":"京都市上京区","address":"猪熊"},
{"zip_code":"6020066","kana_pref":"ｷｮｳﾄﾌ","kana_city":"ｷｮｳﾄｼｶﾐｷﾞｮｳｸ","kana_address":"ｲﾊﾞﾁｮｳ","pref":"京都府","city":"京都市上京区","address":"射場町"},
{"zip_code":"6028025","kana_pref":"ｷｮｳﾄﾌ","kana_city":"ｷｮｳﾄｼｶﾐｷﾞｮｳｸ","kana_address":"ｲﾏｸｽﾘﾔﾁｮｳ","pref":"京都府","city":"京都市上京区","address":"今薬屋町"},
{"zip_code":"6028292","kana_pref":"ｷｮｳﾄﾌ","kana_city":"ｷｮｳﾄｼｶﾐｷﾞｮｳｸ","kana_address":"ｲﾏｼﾝｻﾞｲｹﾁｮｳ","pref":"京都府","city":"京都市上京区","address":"今新在家町"},
{"zip_code":"6020906","kana_pref":"ｷｮｳﾄﾌ","kana_city":"ｷｮｳﾄｼｶﾐｷﾞｮｳｸ","kana_address":"ｲﾏｽﾞｼﾁｮｳ","pref":"京都府","city":"京都市上京区","address":"今図子町"},
{"zip_code":"6020033","kana_pref":"ｷｮｳﾄﾌ","kana_city":"ｷｮｳﾄｼｶﾐｷﾞｮｳｸ","kana_address":"ｲﾏﾃﾞｶﾞﾜﾁｮｳ","pref":"京都府","city":"京都市上京区","address":"今出川町"},
{"zip_code":"6028454","kana_pref":"ｷｮｳﾄﾌ","kana_city":"ｷｮｳﾄｼｶﾐｷﾞｮｳｸ","kana_address":"ｲﾏﾃﾞｶﾞﾜﾁｮｳ","pref":"京都府","city":"京都市上京区","address":"今出川町"},
{"zip_code":"6028104","kana_pref":"ｷｮｳﾄﾌ","kana_city":"ｷｮｳﾄｼｶﾐｷﾞｮｳｸ","kana_address":"ｳｷﾀﾁｮｳ","pref":"京都府","city":"京都市上京区","address":"浮田町"},
{"zip_code":"6020012","kana_pref":"ｷｮｳﾄﾌ","kana_city":"ｷｮｳﾄｼｶﾐｷﾞｮｳｸ","kana_address":"ｳﾁｶﾞﾏｴﾁｮｳ","pref":"京都府","city":"京都市上京区","address":"内構町"},
{"zip_code":"6020942","kana_pref":"ｷｮｳﾄﾌ","kana_city":"ｷｮｳﾄｼｶﾐｷﾞｮｳｸ","kana_address":"ｳﾂﾎﾞﾔﾁｮｳ","pref":"京都府","city":"京都市上京区","address":"靭屋町"},
{"zip_code":"6028477","kana_pref":"ｷｮｳﾄﾌ","kana_city":"ｷｮｳﾄｼｶﾐｷﾞｮｳｸ","kana_address":"ｳﾊﾞｶﾞｴﾉｷﾁｮｳ","pref":"京都府","city":"京都市上京区","address":"姥ケ榎木町"},
{"zip_code":"6028487","kana_pref":"ｷｮｳﾄﾌ","kana_city":"ｷｮｳﾄｼｶﾐｷﾞｮｳｸ","kana_address":"ｳﾊﾞｶﾞｷﾀﾏﾁ","pref":"京都府","city":"京都市上京区","address":"姥ケ北町"},
{"zip_code":"6028303","kana_pref":"ｷｮｳﾄﾌ","kana_city":"ｷｮｳﾄｼｶﾐｷﾞｮｳｸ","kana_address":"ｳﾊﾞｶﾞﾃﾗﾉﾏｴﾁｮｳ","pref":"京都府","city":"京都市上京区","address":"姥ケ寺之前町"},
{"zip_code":"6028485","kana_pref":"ｷｮｳﾄﾌ","kana_city":"ｷｮｳﾄｼｶﾐｷﾞｮｳｸ","kana_address":"ｳﾊﾞｶﾞﾄｳｻﾞｲﾁｮｳ","pref":"京都府","city":"京都市上京区","address":"姥ケ東西町"},
{"zip_code":"6028486","kana_pref":"ｷｮｳﾄﾌ","kana_city":"ｷｮｳﾄｼｶﾐｷﾞｮｳｸ","kana_address":"ｳﾊﾞｶﾞﾆｼﾁｮｳ","pref":"京都府","city":"京都市上京区","address":"姥ケ西町"},
{"zip_code":"6020902","kana_pref":"ｷｮｳﾄﾌ","kana_city":"ｷｮｳﾄｼｶﾐｷﾞｮｳｸ","kana_address":"ｳﾒﾔﾁｮｳ","pref":"京都府","city":"京都市上京区","address":"梅屋町"},
{"zip_code":"6020031","kana_pref":"ｷｮｳﾄﾌ","kana_city":"ｷｮｳﾄｼｶﾐｷﾞｮｳｸ","kana_address":"ｳﾗﾂｷｼﾞﾁｮｳ","pref":"京都府","city":"京都市上京区","address":"裏築地町"},
{"zip_code":"6020025","kana_pref":"ｷｮｳﾄﾌ","kana_city":"ｷｮｳﾄｼｶﾐｷﾞｮｳｸ","kana_address":"ｳﾗﾌﾛﾁｮｳ","pref":"京都府","city":"京都市上京区","address":"裏風呂町"},
{"zip_code":"6028251","kana_pref":"ｷｮｳﾄﾌ","kana_city":"ｷｮｳﾄｼｶﾐｷﾞｮｳｸ","kana_address":"ｴﾉｷﾁｮｳ","pref":"京都府","city":"京都市上京区","address":"榎町"},
{"zip_code":"6028032","kana_pref":"ｷｮｳﾄﾌ","kana_city":"ｷｮｳﾄｼｶﾐｷﾞｮｳｸ","kana_address":"ｴﾋﾞｽｶﾞﾜﾁｮｳ","pref":"京都府","city":"京都市上京区","address":"夷川町"},
{"zip_code":"6028484","kana_pref":"ｷｮｳﾄﾌ","kana_city":"ｷｮｳﾄｼｶﾐｷﾞｮｳｸ","kana_address":"ｴﾋﾞｽﾁｮｳ","pref":"京都府","city":"京都市上京区","address":"蛭子町"},
{"zip_code":"6028118","kana_pref":"ｷｮｳﾄﾌ","kana_city":"ｷｮｳﾄｼｶﾐｷﾞｮｳｸ","kana_address":"ｴﾋﾞｽﾁｮｳ","pref":"京都府","city":"京都市上京区","address":"蛭子町"},
{"zip_code":"6028307","kana_pref":"ｷｮｳﾄﾌ","kana_city":"ｷｮｳﾄｼｶﾐｷﾞｮｳｸ","kana_address":"ｴﾝﾏﾏｴﾁｮｳ","pref":"京都府","city":"京都市上京区","address":"閻魔前町"},
{"zip_code":"6028318","kana_pref":"ｷｮｳﾄﾌ","kana_city":"ｷｮｳﾄｼｶﾐｷﾞｮｳｸ","kana_address":"ｵｲﾏﾂﾁｮｳ","pref":"京都府","city":"京都市上京区","address":"老松町"},
{"zip_code":"6028011","kana_pref":"ｷｮｳﾄﾌ","kana_city":"ｷｮｳﾄｼｶﾐｷﾞｮｳｸ","kana_address":"ｵｳｶｸｴﾝﾁｮｳ","pref":"京都府","city":"京都市上京区","address":"桜鶴円町"},
{"zip_code":"6020921","kana_pref":"ｷｮｳﾄﾌ","kana_city":"ｷｮｳﾄｼｶﾐｷﾞｮｳｸ","kana_address":"ｵｳｷﾞﾁｮｳ","pref":"京都府","city":"京都市上京区","address":"正親町"},
{"zip_code":"6020848","kana_pref":"ｷｮｳﾄﾌ","kana_city":"ｷｮｳﾄｼｶﾐｷﾞｮｳｸ","kana_address":"ｵｳｷﾞﾁｮｳ","pref":"京都府","city":"京都市上京区","address":"扇町"},
{"zip_code":"6020071","kana_pref":"ｷｮｳﾄﾌ","kana_city":"ｷｮｳﾄｼｶﾐｷﾞｮｳｸ","kana_address":"ｵｳｷﾞﾁｮｳ","pref":"京都府","city":"京都市上京区","address":"扇町"},
{"zip_code":"6028405","kana_pref":"ｷｮｳﾄﾌ","kana_city":"ｷｮｳﾄｼｶﾐｷﾞｮｳｸ","kana_address":"ｵｵｲﾉｸﾏﾁｮｳ","pref":"京都府","city":"京都市上京区","address":"大猪熊町（寺之内通大宮西入"},
{"zip_code":"6028405","kana_pref":"ｷｮｳﾄﾌ","kana_city":"ｷｮｳﾄｼｶﾐｷﾞｮｳｸ","kana_address":"ｵｵｲﾉｸﾏﾁｮｳ","pref":"京都府","city":"京都市上京区","address":"寺之内通智恵光院西入"},
{"zip_code":"6028405","kana_pref":"ｷｮｳﾄﾌ","kana_city":"ｷｮｳﾄｼｶﾐｷﾞｮｳｸ","kana_address":"ｵｵｲﾉｸﾏﾁｮｳ","pref":"京都府","city":"京都市上京区","address":"寺之内通智"},
{"zip_code":"6028405","kana_pref":"ｷｮｳﾄﾌ","kana_city":"ｷｮｳﾄｼｶﾐｷﾞｮｳｸ","kana_address":"ｵｵｲﾉｸﾏﾁｮｳ","pref":"京都府","city":"京都市上京区","address":"恵光院東入"},
{"zip_code":"6028405","kana_pref":"ｷｮｳﾄﾌ","kana_city":"ｷｮｳﾄｼｶﾐｷﾞｮｳｸ","kana_address":"ｵｵｲﾉｸﾏﾁｮｳ","pref":"京都府","city":"京都市上京区","address":"寺之内通大宮東入"},
{"zip_code":"6028405","kana_pref":"ｷｮｳﾄﾌ","kana_city":"ｷｮｳﾄｼｶﾐｷﾞｮｳｸ","kana_address":"ｵｵｲﾉｸﾏﾁｮｳ","pref":"京都府","city":"京都市上京区","address":"智恵光院通寺之内下る）"},
{"zip_code":"6020849","kana_pref":"ｷｮｳﾄﾌ","kana_city":"ｷｮｳﾄｼｶﾐｷﾞｮｳｸ","kana_address":"ｵｵｲﾉｸﾏﾁｮｳ","pref":"京都府","city":"京都市上京区","address":"大猪熊町"},
{"zip_code":"6028375","kana_pref":"ｷｮｳﾄﾌ","kana_city":"ｷｮｳﾄｼｶﾐｷﾞｮｳｸ","kana_address":"ｵｵｶﾐﾉﾁｮｳ","pref":"京都府","city":"京都市上京区","address":"大上之町"},
{"zip_code":"6028413","kana_pref":"ｷｮｳﾄﾌ","kana_city":"ｷｮｳﾄｼｶﾐｷﾞｮｳｸ","kana_address":"ｵｵｷﾀｺｳｼﾞﾋｶﾞｼﾁｮｳ","pref":"京都府","city":"京都市上京区","address":"大北小路東町"},
{"zip_code":"6020832","kana_pref":"ｷｮｳﾄﾌ","kana_city":"ｷｮｳﾄｼｶﾐｷﾞｮｳｸ","kana_address":"ｵｵﾊﾗｸﾞﾁﾁｮｳ","pref":"京都府","city":"京都市上京区","address":"大原口町"},
{"zip_code":"6020834","kana_pref":"ｷｮｳﾄﾌ","kana_city":"ｷｮｳﾄｼｶﾐｷﾞｮｳｸ","kana_address":"ｵｵﾊﾗｸﾞﾁﾂｷﾇｹﾁｮｳ","pref":"京都府","city":"京都市上京区","address":"大原口突抜町"},
{"zip_code":"6028376","kana_pref":"ｷｮｳﾄﾌ","kana_city":"ｷｮｳﾄｼｶﾐｷﾞｮｳｸ","kana_address":"ｵｵﾋｶﾞｼﾁｮｳ","pref":"京都府","city":"京都市上京区","address":"大東町"},
{"zip_code":"6020935","kana_pref":"ｷｮｳﾄﾌ","kana_city":"ｷｮｳﾄｼｶﾐｷﾞｮｳｸ","kana_address":"ｵｵﾐﾈｽﾞｼﾁｮｳ","pref":"京都府","city":"京都市上京区","address":"大峰図子町"},
{"zip_code":"6020847","kana_pref":"ｷｮｳﾄﾌ","kana_city":"ｷｮｳﾄｼｶﾐｷﾞｮｳｸ","kana_address":"ｵｵﾐﾔﾁｮｳ","pref":"京都府","city":"京都市上京区","address":"大宮町"},
{"zip_code":"6028363","kana_pref":"ｷｮｳﾄﾌ","kana_city":"ｷｮｳﾄｼｶﾐｷﾞｮｳｸ","kana_address":"ｵｵﾐﾔﾁｮｳ","pref":"京都府","city":"京都市上京区","address":"大宮町（上の下立売通御前西入"},
{"zip_code":"6028363","kana_pref":"ｷｮｳﾄﾌ","kana_city":"ｷｮｳﾄｼｶﾐｷﾞｮｳｸ","kana_address":"ｵｵﾐﾔﾁｮｳ","pref":"京都府","city":"京都市上京区","address":"上の下立売通御前西入上る"},
{"zip_code":"6028363","kana_pref":"ｷｮｳﾄﾌ","kana_city":"ｷｮｳﾄｼｶﾐｷﾞｮｳｸ","kana_address":"ｵｵﾐﾔﾁｮｳ","pref":"京都府","city":"京都市上京区","address":""},
{"zip_code":"6028363","kana_pref":"ｷｮｳﾄﾌ","kana_city":"ｷｮｳﾄｼｶﾐｷﾞｮｳｸ","kana_address":"ｵｵﾐﾔﾁｮｳ","pref":"京都府","city":"京都市上京区","address":"上の下立売通天神道東入"},
{"zip_code":"6028363","kana_pref":"ｷｮｳﾄﾌ","kana_city":"ｷｮｳﾄｼｶﾐｷﾞｮｳｸ","kana_address":"ｵｵﾐﾔﾁｮｳ","pref":"京都府","city":"京都市上京区","address":"下立売通御前西入"},
{"zip_code":"6028363","kana_pref":"ｷｮｳﾄﾌ","kana_city":"ｷｮｳﾄｼｶﾐｷﾞｮｳｸ","kana_address":"ｵｵﾐﾔﾁｮｳ","pref":"京都府","city":"京都市上京区","address":"下立売通御前西入上る）"},
{"zip_code":"6020032","kana_pref":"ｷｮｳﾄﾌ","kana_city":"ｷｮｳﾄｼｶﾐｷﾞｮｳｸ","kana_address":"ｵｶﾏﾂﾁｮｳ","pref":"京都府","city":"京都市上京区","address":"岡松町"},
{"zip_code":"6020924","kana_pref":"ｷｮｳﾄﾌ","kana_city":"ｷｮｳﾄｼｶﾐｷﾞｮｳｸ","kana_address":"ｵｶﾞﾜﾁｮｳ","pref":"京都府","city":"京都市上京区","address":"小川町"},
{"zip_code":"6020825","kana_pref":"ｷｮｳﾄﾌ","kana_city":"ｷｮｳﾄｼｶﾐｷﾞｮｳｸ","kana_address":"ｵﾓﾃﾁｮｳ","pref":"京都府","city":"京都市上京区","address":"表町"},
{"zip_code":"6020946","kana_pref":"ｷｮｳﾄﾌ","kana_city":"ｷｮｳﾄｼｶﾐｷﾞｮｳｸ","kana_address":"ｶｲｺｳｼﾞﾁｮｳ","pref":"京都府","city":"京都市上京区","address":"戒光寺町"},
{"zip_code":"6028061","kana_pref":"ｷｮｳﾄﾌ","kana_city":"ｷｮｳﾄｼｶﾐｷﾞｮｳｸ","kana_address":"ｶｲﾉｶﾐﾁｮｳ","pref":"京都府","city":"京都市上京区","address":"甲斐守町"},
{"zip_code":"6028203","kana_pref":"ｷｮｳﾄﾌ","kana_city":"ｷｮｳﾄｼｶﾐｷﾞｮｳｸ","kana_address":"ｶｶﾞﾐｲｼﾁｮｳ","pref":"京都府","city":"京都市上京区","address":"鏡石町"},
{"zip_code":"6028281","kana_pref":"ｷｮｳﾄﾌ","kana_city":"ｷｮｳﾄｼｶﾐｷﾞｮｳｸ","kana_address":"ｶｶﾞﾔﾁｮｳ","pref":"京都府","city":"京都市上京区","address":"加賀屋町"},
{"zip_code":"6028014","kana_pref":"ｷｮｳﾄﾌ","kana_city":"ｷｮｳﾄｼｶﾐｷﾞｮｳｸ","kana_address":"ｶｹﾞﾕｺｳｼﾞﾁｮｳ","pref":"京都府","city":"京都市上京区","address":"勘解由小路町"},
{"zip_code":"6020841","kana_pref":"ｷｮｳﾄﾌ","kana_city":"ｷｮｳﾄｼｶﾐｷﾞｮｳｸ","kana_address":"ｶｼﾞｲﾁｮｳ","pref":"京都府","city":"京都市上京区","address":"梶井町"},
{"zip_code":"6020952","kana_pref":"ｷｮｳﾄﾌ","kana_city":"ｷｮｳﾄｼｶﾐｷﾞｮｳｸ","kana_address":"ｶｼﾗﾁｮｳ","pref":"京都府","city":"京都市上京区","address":"頭町"},
{"zip_code":"6028073","kana_pref":"ｷｮｳﾄﾌ","kana_city":"ｷｮｳﾄｼｶﾐｷﾞｮｳｸ","kana_address":"ｶｼﾗﾁｮｳ","pref":"京都府","city":"京都市上京区","address":"頭町"},
{"zip_code":"6028311","kana_pref":"ｷｮｳﾄﾌ","kana_city":"ｷｮｳﾄｼｶﾐｷﾞｮｳｸ","kana_address":"ｶｼﾜｷﾖﾓﾘﾁｮｳ","pref":"京都府","city":"京都市上京区","address":"柏清盛町"},
{"zip_code":"6028023","kana_pref":"ｷｮｳﾄﾌ","kana_city":"ｷｮｳﾄｼｶﾐｷﾞｮｳｸ","kana_address":"ｶｽｶﾞﾁｮｳ","pref":"京都府","city":"京都市上京区","address":"春日町"},
{"zip_code":"6028316","kana_pref":"ｷｮｳﾄﾌ","kana_city":"ｷｮｳﾄｼｶﾐｷﾞｮｳｸ","kana_address":"ｶﾀﾊﾗﾁｮｳ","pref":"京都府","city":"京都市上京区","address":"片原町"},
{"zip_code":"6020855","kana_pref":"ｷｮｳﾄﾌ","kana_city":"ｷｮｳﾄｼｶﾐｷﾞｮｳｸ","kana_address":"ｶﾐｲｹｽﾁｮｳ","pref":"京都府","city":"京都市上京区","address":"上生洲町"},
{"zip_code":"6020052","kana_pref":"ｷｮｳﾄﾌ","kana_city":"ｷｮｳﾄｼｶﾐｷﾞｮｳｸ","kana_address":"ｶﾐｵｶﾞﾜﾁｮｳ","pref":"京都府","city":"京都市上京区","address":"上小川町"},
{"zip_code":"6028033","kana_pref":"ｷｮｳﾄﾌ","kana_city":"ｷｮｳﾄｼｶﾐｷﾞｮｳｸ","kana_address":"ｶﾐｶｼﾞﾁｮｳ","pref":"京都府","city":"京都市上京区","address":"上鍛冶町"},
{"zip_code":"6020804","kana_pref":"ｷｮｳﾄﾌ","kana_city":"ｷｮｳﾄｼｶﾐｷﾞｮｳｸ","kana_address":"ｶﾐｶﾀﾊﾗﾁｮｳ","pref":"京都府","city":"京都市上京区","address":"上片原町"},
{"zip_code":"6020017","kana_pref":"ｷｮｳﾄﾌ","kana_city":"ｷｮｳﾄｼｶﾐｷﾞｮｳｸ","kana_address":"ｶﾐｷﾉｼﾀﾁｮｳ","pref":"京都府","city":"京都市上京区","address":"上木下町"},
{"zip_code":"6020896","kana_pref":"ｷｮｳﾄﾌ","kana_city":"ｷｮｳﾄｼｶﾐｷﾞｮｳｸ","kana_address":"ｶﾐｺﾞﾘｮｳﾀﾃﾏﾁ","pref":"京都府","city":"京都市上京区","address":"上御霊竪町"},
{"zip_code":"6020894","kana_pref":"ｷｮｳﾄﾌ","kana_city":"ｷｮｳﾄｼｶﾐｷﾞｮｳｸ","kana_address":"ｶﾐｺﾞﾘｮｳﾅｶﾏﾁ","pref":"京都府","city":"京都市上京区","address":"上御霊中町"},
{"zip_code":"6020891","kana_pref":"ｷｮｳﾄﾌ","kana_city":"ｷｮｳﾄｼｶﾐｷﾞｮｳｸ","kana_address":"ｶﾐｺﾞﾘｮｳﾊﾞﾊﾞﾁｮｳ","pref":"京都府","city":"京都市上京区","address":"上御霊馬場町"},
{"zip_code":"6020895","kana_pref":"ｷｮｳﾄﾌ","kana_city":"ｷｮｳﾄｼｶﾐｷﾞｮｳｸ","kana_address":"ｶﾐｺﾞﾘｮｳﾏｴﾁｮｳ","pref":"京都府","city":"京都市上京区","address":"上御霊前町"},
{"zip_code":"6020024","kana_pref":"ｷｮｳﾄﾌ","kana_city":"ｷｮｳﾄｼｶﾐｷﾞｮｳｸ","kana_address":"ｶﾐﾀﾞﾁｳﾘﾁｮｳ","pref":"京都府","city":"京都市上京区","address":"上立売町"},
{"zip_code":"6020022","kana_pref":"ｷｮｳﾄﾌ","kana_city":"ｷｮｳﾄｼｶﾐｷﾞｮｳｸ","kana_address":"ｶﾐﾀﾞﾁｳﾘﾋｶﾞｼﾁｮｳ","pref":"京都府","city":"京都市上京区","address":"上立売東町"},
{"zip_code":"6020082","kana_pref":"ｷｮｳﾄﾌ","kana_city":"ｷｮｳﾄｼｶﾐｷﾞｮｳｸ","kana_address":"ｶﾐﾃﾝｼﾞﾝﾁｮｳ","pref":"京都府","city":"京都市上京区","address":"上天神町"},
{"zip_code":"6020815","kana_pref":"ｷｮｳﾄﾌ","kana_city":"ｷｮｳﾄｼｶﾐｷﾞｮｳｸ","kana_address":"ｶﾐﾄｳﾉﾀﾞﾝﾁｮｳ","pref":"京都府","city":"京都市上京区","address":"上塔之段町"},
{"zip_code":"6020863","kana_pref":"ｷｮｳﾄﾌ","kana_city":"ｷｮｳﾄｼｶﾐｷﾞｮｳｸ","kana_address":"ｶﾐﾉﾁｮｳ","pref":"京都府","city":"京都市上京区","address":"上之町"},
{"zip_code":"6028141","kana_pref":"ｷｮｳﾄﾌ","kana_city":"ｷｮｳﾄｼｶﾐｷﾞｮｳｸ","kana_address":"ｶﾐﾎﾘｶﾜﾁｮｳ","pref":"京都府","city":"京都市上京区","address":"上堀川町"},
{"zip_code":"6020813","kana_pref":"ｷｮｳﾄﾌ","kana_city":"ｷｮｳﾄｼｶﾐｷﾞｮｳｸ","kana_address":"ｶﾐﾐｺｼﾁｮｳ","pref":"京都府","city":"京都市上京区","address":"上神輿町"},
{"zip_code":"6028384","kana_pref":"ｷｮｳﾄﾌ","kana_city":"ｷｮｳﾄｼｶﾐｷﾞｮｳｸ","kana_address":"ｶﾐﾔｶﾞﾜﾁｮｳ","pref":"京都府","city":"京都市上京区","address":"紙屋川町"},
{"zip_code":"6020013","kana_pref":"ｷｮｳﾄﾌ","kana_city":"ｷｮｳﾄｼｶﾐｷﾞｮｳｸ","kana_address":"ｶﾐﾔﾅｷﾞﾊﾗﾁｮｳ","pref":"京都府","city":"京都市上京区","address":"上柳原町"},
{"zip_code":"6028272","kana_pref":"ｷｮｳﾄﾌ","kana_city":"ｷｮｳﾄｼｶﾐｷﾞｮｳｸ","kana_address":"ｶﾒｷﾁｮｳ","pref":"京都府","city":"京都市上京区","address":"亀木町"},
{"zip_code":"6028062","kana_pref":"ｷｮｳﾄﾌ","kana_city":"ｷｮｳﾄｼｶﾐｷﾞｮｳｸ","kana_address":"ｶﾒﾔﾁｮｳ","pref":"京都府","city":"京都市上京区","address":"亀屋町"},
{"zip_code":"6020854","kana_pref":"ｷｮｳﾄﾌ","kana_city":"ｷｮｳﾄｼｶﾐｷﾞｮｳｸ","kana_address":"ｶﾒﾔﾁｮｳ","pref":"京都府","city":"京都市上京区","address":"亀屋町"},
{"zip_code":"6028284","kana_pref":"ｷｮｳﾄﾌ","kana_city":"ｷｮｳﾄｼｶﾐｷﾞｮｳｸ","kana_address":"ｶﾒﾔﾁｮｳ","pref":"京都府","city":"京都市上京区","address":"亀屋町"},
{"zip_code":"6028119","kana_pref":"ｷｮｳﾄﾌ","kana_city":"ｷｮｳﾄｼｶﾐｷﾞｮｳｸ","kana_address":"ｶﾒﾔﾁｮｳ","pref":"京都府","city":"京都市上京区","address":"亀屋町"},
{"zip_code":"6028332","kana_pref":"ｷｮｳﾄﾌ","kana_city":"ｷｮｳﾄｼｶﾐｷﾞｮｳｸ","kana_address":"ｶﾗｽﾏﾁｮｳ","pref":"京都府","city":"京都市上京区","address":"烏丸町"},
{"zip_code":"6028369","kana_pref":"ｷｮｳﾄﾌ","kana_city":"ｷｮｳﾄｼｶﾐｷﾞｮｳｸ","kana_address":"ｶﾜｾﾁｮｳ","pref":"京都府","city":"京都市上京区","address":"川瀬町"},
{"zip_code":"6020808","kana_pref":"ｷｮｳﾄﾌ","kana_city":"ｷｮｳﾄｼｶﾐｷﾞｮｳｸ","kana_address":"ｶﾝｷｼﾞﾏｴﾁｮｳ","pref":"京都府","city":"京都市上京区","address":"歓喜寺前町"},
{"zip_code":"6028492","kana_pref":"ｷｮｳﾄﾌ","kana_city":"ｷｮｳﾄｼｶﾐｷﾞｮｳｸ","kana_address":"ｶﾝｷﾁｮｳ","pref":"京都府","city":"京都市上京区","address":"歓喜町"},
{"zip_code":"6020903","kana_pref":"ｷｮｳﾄﾌ","kana_city":"ｷｮｳﾄｼｶﾐｷﾞｮｳｸ","kana_address":"ｶﾝｻﾝﾀﾁﾊﾞﾅﾁｮｳ","pref":"京都府","city":"京都市上京区","address":"観三橘町"},
{"zip_code":"6020008","kana_pref":"ｷｮｳﾄﾌ","kana_city":"ｷｮｳﾄｼｶﾐｷﾞｮｳｸ","kana_address":"ｶﾞﾝｽｲﾝﾁｮｳ","pref":"京都府","city":"京都市上京区","address":"岩栖院町"},
{"zip_code":"6028441","kana_pref":"ｷｮｳﾄﾌ","kana_city":"ｷｮｳﾄｼｶﾐｷﾞｮｳｸ","kana_address":"ｶﾝｾﾞﾁｮｳ","pref":"京都府","city":"京都市上京区","address":"観世町"},
{"zip_code":"6028385","kana_pref":"ｷｮｳﾄﾌ","kana_city":"ｷｮｳﾄｼｶﾐｷﾞｮｳｸ","kana_address":"ｶﾝﾉﾝｼﾞﾓﾝｾﾞﾝﾁｮｳ","pref":"京都府","city":"京都市上京区","address":"観音寺門前町"},
{"zip_code":"6028047","kana_pref":"ｷｮｳﾄﾌ","kana_city":"ｷｮｳﾄｼｶﾐｷﾞｮｳｸ","kana_address":"ｶﾝﾍﾞｴﾁｮｳ","pref":"京都府","city":"京都市上京区","address":"勘兵衛町"},
{"zip_code":"6028076","kana_pref":"ｷｮｳﾄﾌ","kana_city":"ｷｮｳﾄｼｶﾐｷﾞｮｳｸ","kana_address":"ｷｸﾔﾁｮｳ","pref":"京都府","city":"京都市上京区","address":"菊屋町"},
{"zip_code":"6028244","kana_pref":"ｷｮｳﾄﾌ","kana_city":"ｷｮｳﾄｼｶﾐｷﾞｮｳｸ","kana_address":"ｷｸﾔﾁｮｳ","pref":"京都府","city":"京都市上京区","address":"菊屋町"},
{"zip_code":"6028296","kana_pref":"ｷｮｳﾄﾌ","kana_city":"ｷｮｳﾄｼｶﾐｷﾞｮｳｸ","kana_address":"ｷﾀｲｾﾄﾞﾉｶﾏｴﾁｮｳ","pref":"京都府","city":"京都市上京区","address":"北伊勢殿構町"},
{"zip_code":"6028152","kana_pref":"ｷｮｳﾄﾌ","kana_city":"ｷｮｳﾄｼｶﾐｷﾞｮｳｸ","kana_address":"ｷﾀｲｾﾔﾁｮｳ","pref":"京都府","city":"京都市上京区","address":"北伊勢屋町"},
{"zip_code":"6028432","kana_pref":"ｷｮｳﾄﾌ","kana_city":"ｷｮｳﾄｼｶﾐｷﾞｮｳｸ","kana_address":"ｷﾀｲﾉｸﾏﾁｮｳ","pref":"京都府","city":"京都市上京区","address":"北猪熊町"},
{"zip_code":"6028115","kana_pref":"ｷｮｳﾄﾌ","kana_city":"ｷｮｳﾄｼｶﾐｷﾞｮｳｸ","kana_address":"ｷﾀｶﾆﾔﾁｮｳ","pref":"京都府","city":"京都市上京区","address":"北蟹屋町"},
{"zip_code":"6020044","kana_pref":"ｷｮｳﾄﾌ","kana_city":"ｷｮｳﾄｼｶﾐｷﾞｮｳｸ","kana_address":"ｷﾀｶﾈﾔｽﾁｮｳ","pref":"京都府","city":"京都市上京区","address":"北兼康町"},
{"zip_code":"6028308","kana_pref":"ｷｮｳﾄﾌ","kana_city":"ｷｮｳﾄｼｶﾐｷﾞｮｳｸ","kana_address":"ｷﾀｹﾞﾝﾊﾞﾁｮｳ","pref":"京都府","city":"京都市上京区","address":"北玄蕃町"},
{"zip_code":"6028461","kana_pref":"ｷｮｳﾄﾌ","kana_city":"ｷｮｳﾄｼｶﾐｷﾞｮｳｸ","kana_address":"ｷﾀｺｳｼﾞﾅｶﾉﾁｮｳ","pref":"京都府","city":"京都市上京区","address":"北小路中之町"},
{"zip_code":"6020901","kana_pref":"ｷｮｳﾄﾌ","kana_city":"ｷｮｳﾄｼｶﾐｷﾞｮｳｸ","kana_address":"ｷﾀｺｳｼﾞﾑﾛﾏﾁ","pref":"京都府","city":"京都市上京区","address":"北小路室町"},
{"zip_code":"6028252","kana_pref":"ｷｮｳﾄﾌ","kana_city":"ｷｮｳﾄｼｶﾐｷﾞｮｳｸ","kana_address":"ｷﾀｺﾀﾞｲﾓﾝﾁｮｳ","pref":"京都府","city":"京都市上京区","address":"北小大門町"},
{"zip_code":"6028207","kana_pref":"ｷｮｳﾄﾌ","kana_city":"ｷｮｳﾄｼｶﾐｷﾞｮｳｸ","kana_address":"ｷﾀｼﾝｻﾞｲｹﾁｮｳ","pref":"京都府","city":"京都市上京区","address":"北新在家町"},
{"zip_code":"6028247","kana_pref":"ｷｮｳﾄﾌ","kana_city":"ｷｮｳﾄｼｶﾐｷﾞｮｳｸ","kana_address":"ｷﾀﾀﾜﾗﾁｮｳ","pref":"京都府","city":"京都市上京区","address":"北俵町"},
{"zip_code":"6020092","kana_pref":"ｷｮｳﾄﾌ","kana_city":"ｷｮｳﾄｼｶﾐｷﾞｮｳｸ","kana_address":"ｷﾀﾅｶﾉﾁｮｳ","pref":"京都府","city":"京都市上京区","address":"北仲之町"},
{"zip_code":"6028214","kana_pref":"ｷｮｳﾄﾌ","kana_city":"ｷｮｳﾄｼｶﾐｷﾞｮｳｸ","kana_address":"ｷﾀﾉｺﾞﾓﾝﾁｮｳ","pref":"京都府","city":"京都市上京区","address":"北之御門町"},
{"zip_code":"6020852","kana_pref":"ｷｮｳﾄﾌ","kana_city":"ｷｮｳﾄｼｶﾐｷﾞｮｳｸ","kana_address":"ｷﾀﾉﾍﾞﾁｮｳ","pref":"京都府","city":"京都市上京区","address":"北之辺町"},
{"zip_code":"6020056","kana_pref":"ｷｮｳﾄﾌ","kana_city":"ｷｮｳﾄｼｶﾐｷﾞｮｳｸ","kana_address":"ｷﾀﾌﾅﾊｼﾁｮｳ","pref":"京都府","city":"京都市上京区","address":"北舟橋町"},
{"zip_code":"6028368","kana_pref":"ｷｮｳﾄﾌ","kana_city":"ｷｮｳﾄｼｶﾐｷﾞｮｳｸ","kana_address":"ｷﾀﾏﾁ","pref":"京都府","city":"京都市上京区","address":"北町（上の下立売通天神道西入上る"},
{"zip_code":"6028368","kana_pref":"ｷｮｳﾄﾌ","kana_city":"ｷｮｳﾄｼｶﾐｷﾞｮｳｸ","kana_address":"ｷﾀﾏﾁ","pref":"京都府","city":"京都市上京区","address":"上の下立売通御前西入"},
{"zip_code":"6028368","kana_pref":"ｷｮｳﾄﾌ","kana_city":"ｷｮｳﾄｼｶﾐｷﾞｮｳｸ","kana_address":"ｷﾀﾏﾁ","pref":"京都府","city":"京都市上京区","address":"上"},
{"zip_code":"6028368","kana_pref":"ｷｮｳﾄﾌ","kana_city":"ｷｮｳﾄｼｶﾐｷﾞｮｳｸ","kana_address":"ｷﾀﾏﾁ","pref":"京都府","city":"京都市上京区","address":"の下立売通御前西入上る"},
{"zip_code":"6028368","kana_pref":"ｷｮｳﾄﾌ","kana_city":"ｷｮｳﾄｼｶﾐｷﾞｮｳｸ","kana_address":"ｷﾀﾏﾁ","pref":"京都府","city":"京都市上京区","address":"上の下立売通御前西入２丁目"},
{"zip_code":"6028368","kana_pref":"ｷｮｳﾄﾌ","kana_city":"ｷｮｳﾄｼｶﾐｷﾞｮｳｸ","kana_address":"ｷﾀﾏﾁ","pref":"京都府","city":"京都市上京区","address":"上の下立売通御前西入"},
{"zip_code":"6028368","kana_pref":"ｷｮｳﾄﾌ","kana_city":"ｷｮｳﾄｼｶﾐｷﾞｮｳｸ","kana_address":"ｷﾀﾏﾁ","pref":"京都府","city":"京都市上京区","address":"２筋目"},
{"zip_code":"6028368","kana_pref":"ｷｮｳﾄﾌ","kana_city":"ｷｮｳﾄｼｶﾐｷﾞｮｳｸ","kana_address":"ｷﾀﾏﾁ","pref":"京都府","city":"京都市上京区","address":"下長者町通御前西入"},
{"zip_code":"6028368","kana_pref":"ｷｮｳﾄﾌ","kana_city":"ｷｮｳﾄｼｶﾐｷﾞｮｳｸ","kana_address":"ｷﾀﾏﾁ","pref":"京都府","city":"京都市上京区","address":"天神道上の下立売上る"},
{"zip_code":"6028368","kana_pref":"ｷｮｳﾄﾌ","kana_city":"ｷｮｳﾄｼｶﾐｷﾞｮｳｸ","kana_address":"ｷﾀﾏﾁ","pref":"京都府","city":"京都市上京区","address":"天神道仁和寺街道下る"},
{"zip_code":"6028368","kana_pref":"ｷｮｳﾄﾌ","kana_city":"ｷｮｳﾄｼｶﾐｷﾞｮｳｸ","kana_address":"ｷﾀﾏﾁ","pref":"京都府","city":"京都市上京区","address":""},
{"zip_code":"6028368","kana_pref":"ｷｮｳﾄﾌ","kana_city":"ｷｮｳﾄｼｶﾐｷﾞｮｳｸ","kana_address":"ｷﾀﾏﾁ","pref":"京都府","city":"京都市上京区","address":"天神道下立売上る"},
{"zip_code":"6028368","kana_pref":"ｷｮｳﾄﾌ","kana_city":"ｷｮｳﾄｼｶﾐｷﾞｮｳｸ","kana_address":"ｷﾀﾏﾁ","pref":"京都府","city":"京都市上京区","address":"天神道妙心寺道上る"},
{"zip_code":"6028368","kana_pref":"ｷｮｳﾄﾌ","kana_city":"ｷｮｳﾄｼｶﾐｷﾞｮｳｸ","kana_address":"ｷﾀﾏﾁ","pref":"京都府","city":"京都市上京区","address":"天神道妙心寺道上る西入"},
{"zip_code":"6028368","kana_pref":"ｷｮｳﾄﾌ","kana_city":"ｷｮｳﾄｼｶﾐｷﾞｮｳｸ","kana_address":"ｷﾀﾏﾁ","pref":"京都府","city":"京都市上京区","address":"仁和寺街"},
{"zip_code":"6028368","kana_pref":"ｷｮｳﾄﾌ","kana_city":"ｷｮｳﾄｼｶﾐｷﾞｮｳｸ","kana_address":"ｷﾀﾏﾁ","pref":"京都府","city":"京都市上京区","address":"道天神道西入下る"},
{"zip_code":"6028368","kana_pref":"ｷｮｳﾄﾌ","kana_city":"ｷｮｳﾄｼｶﾐｷﾞｮｳｸ","kana_address":"ｷﾀﾏﾁ","pref":"京都府","city":"京都市上京区","address":"仁和寺街道天神道東入下る"},
{"zip_code":"6028368","kana_pref":"ｷｮｳﾄﾌ","kana_city":"ｷｮｳﾄｼｶﾐｷﾞｮｳｸ","kana_address":"ｷﾀﾏﾁ","pref":"京都府","city":"京都市上京区","address":"御前通上の下立売上る"},
{"zip_code":"6028368","kana_pref":"ｷｮｳﾄﾌ","kana_city":"ｷｮｳﾄｼｶﾐｷﾞｮｳｸ","kana_address":"ｷﾀﾏﾁ","pref":"京都府","city":"京都市上京区","address":"御前通"},
{"zip_code":"6028368","kana_pref":"ｷｮｳﾄﾌ","kana_city":"ｷｮｳﾄｼｶﾐｷﾞｮｳｸ","kana_address":"ｷﾀﾏﾁ","pref":"京都府","city":"京都市上京区","address":"上の下立売上る西入"},
{"zip_code":"6028368","kana_pref":"ｷｮｳﾄﾌ","kana_city":"ｷｮｳﾄｼｶﾐｷﾞｮｳｸ","kana_address":"ｷﾀﾏﾁ","pref":"京都府","city":"京都市上京区","address":"御前通下立売上る"},
{"zip_code":"6028368","kana_pref":"ｷｮｳﾄﾌ","kana_city":"ｷｮｳﾄｼｶﾐｷﾞｮｳｸ","kana_address":"ｷﾀﾏﾁ","pref":"京都府","city":"京都市上京区","address":"御前通下長者町上る西入"},
{"zip_code":"6028368","kana_pref":"ｷｮｳﾄﾌ","kana_city":"ｷｮｳﾄｼｶﾐｷﾞｮｳｸ","kana_address":"ｷﾀﾏﾁ","pref":"京都府","city":"京都市上京区","address":"御前通仁"},
{"zip_code":"6028368","kana_pref":"ｷｮｳﾄﾌ","kana_city":"ｷｮｳﾄｼｶﾐｷﾞｮｳｸ","kana_address":"ｷﾀﾏﾁ","pref":"京都府","city":"京都市上京区","address":"和寺街道下る西入"},
{"zip_code":"6028368","kana_pref":"ｷｮｳﾄﾌ","kana_city":"ｷｮｳﾄｼｶﾐｷﾞｮｳｸ","kana_address":"ｷﾀﾏﾁ","pref":"京都府","city":"京都市上京区","address":"御前通妙心寺道上る西入"},
{"zip_code":"6028368","kana_pref":"ｷｮｳﾄﾌ","kana_city":"ｷｮｳﾄｼｶﾐｷﾞｮｳｸ","kana_address":"ｷﾀﾏﾁ","pref":"京都府","city":"京都市上京区","address":"御前通西裏上の下立売上る"},
{"zip_code":"6028368","kana_pref":"ｷｮｳﾄﾌ","kana_city":"ｷｮｳﾄｼｶﾐｷﾞｮｳｸ","kana_address":"ｷﾀﾏﾁ","pref":"京都府","city":"京都市上京区","address":"御前"},
{"zip_code":"6028368","kana_pref":"ｷｮｳﾄﾌ","kana_city":"ｷｮｳﾄｼｶﾐｷﾞｮｳｸ","kana_address":"ｷﾀﾏﾁ","pref":"京都府","city":"京都市上京区","address":"通西裏下立売上る）"},
{"zip_code":"6028392","kana_pref":"ｷｮｳﾄﾌ","kana_city":"ｷｮｳﾄｼｶﾐｷﾞｮｳｸ","kana_address":"ｷﾀﾏﾁ","pref":"京都府","city":"京都市上京区","address":"北町（御前通五辻上る"},
{"zip_code":"6028392","kana_pref":"ｷｮｳﾄﾌ","kana_city":"ｷｮｳﾄｼｶﾐｷﾞｮｳｸ","kana_address":"ｷﾀﾏﾁ","pref":"京都府","city":"京都市上京区","address":"御前通今出川上る"},
{"zip_code":"6028392","kana_pref":"ｷｮｳﾄﾌ","kana_city":"ｷｮｳﾄｼｶﾐｷﾞｮｳｸ","kana_address":"ｷﾀﾏﾁ","pref":"京都府","city":"京都市上京区","address":"御前通今出川上る１"},
{"zip_code":"6028392","kana_pref":"ｷｮｳﾄﾌ","kana_city":"ｷｮｳﾄｼｶﾐｷﾞｮｳｸ","kana_address":"ｷﾀﾏﾁ","pref":"京都府","city":"京都市上京区","address":"丁目"},
{"zip_code":"6028392","kana_pref":"ｷｮｳﾄﾌ","kana_city":"ｷｮｳﾄｼｶﾐｷﾞｮｳｸ","kana_address":"ｷﾀﾏﾁ","pref":"京都府","city":"京都市上京区","address":"御前通今出川上る２丁目"},
{"zip_code":"6028392","kana_pref":"ｷｮｳﾄﾌ","kana_city":"ｷｮｳﾄｼｶﾐｷﾞｮｳｸ","kana_address":"ｷﾀﾏﾁ","pref":"京都府","city":"京都市上京区","address":"御前通今出川上る２丁目西入"},
{"zip_code":"6028392","kana_pref":"ｷｮｳﾄﾌ","kana_city":"ｷｮｳﾄｼｶﾐｷﾞｮｳｸ","kana_address":"ｷﾀﾏﾁ","pref":"京都府","city":"京都市上京区","address":"御前通今出川上"},
{"zip_code":"6028392","kana_pref":"ｷｮｳﾄﾌ","kana_city":"ｷｮｳﾄｼｶﾐｷﾞｮｳｸ","kana_address":"ｷﾀﾏﾁ","pref":"京都府","city":"京都市上京区","address":"る２筋目丁目"},
{"zip_code":"6028392","kana_pref":"ｷｮｳﾄﾌ","kana_city":"ｷｮｳﾄｼｶﾐｷﾞｮｳｸ","kana_address":"ｷﾀﾏﾁ","pref":"京都府","city":"京都市上京区","address":"御前通今出川上る西入丁目"},
{"zip_code":"6028392","kana_pref":"ｷｮｳﾄﾌ","kana_city":"ｷｮｳﾄｼｶﾐｷﾞｮｳｸ","kana_address":"ｷﾀﾏﾁ","pref":"京都府","city":"京都市上京区","address":"御前通今出川上る東入丁目"},
{"zip_code":"6028392","kana_pref":"ｷｮｳﾄﾌ","kana_city":"ｷｮｳﾄｼｶﾐｷﾞｮｳｸ","kana_address":"ｷﾀﾏﾁ","pref":"京都府","city":"京都市上京区","address":"御前通今出川２丁目"},
{"zip_code":"6028392","kana_pref":"ｷｮｳﾄﾌ","kana_city":"ｷｮｳﾄｼｶﾐｷﾞｮｳｸ","kana_address":"ｷﾀﾏﾁ","pref":"京都府","city":"京都市上京区","address":"上る"},
{"zip_code":"6028392","kana_pref":"ｷｮｳﾄﾌ","kana_city":"ｷｮｳﾄｼｶﾐｷﾞｮｳｸ","kana_address":"ｷﾀﾏﾁ","pref":"京都府","city":"京都市上京区","address":"御前通寺之内下る）"},
{"zip_code":"6020818","kana_pref":"ｷｮｳﾄﾌ","kana_city":"ｷｮｳﾄｼｶﾐｷﾞｮｳｸ","kana_address":"ｷﾀﾖｺﾁｮｳ","pref":"京都府","city":"京都市上京区","address":"北横町"},
{"zip_code":"6020027","kana_pref":"ｷｮｳﾄﾌ","kana_city":"ｷｮｳﾄｼｶﾐｷﾞｮｳｸ","kana_address":"ｷﾉｼﾀﾂｷﾇｹﾁｮｳ","pref":"京都府","city":"京都市上京区","address":"木下突抜町"},
{"zip_code":"6028146","kana_pref":"ｷｮｳﾄﾌ","kana_city":"ｷｮｳﾄｼｶﾐｷﾞｮｳｸ","kana_address":"ｷﾔﾉﾁｮｳ","pref":"京都府","city":"京都市上京区","address":"木屋之町"},
{"zip_code":"6020851","kana_pref":"ｷｮｳﾄﾌ","kana_city":"ｷｮｳﾄｼｶﾐｷﾞｮｳｸ","kana_address":"ｷｭｳｹﾝﾁｮｳ","pref":"京都府","city":"京都市上京区","address":"九軒町"},
{"zip_code":"6020881","kana_pref":"ｷｮｳﾄﾌ","kana_city":"ｷｮｳﾄｼｶﾐｷﾞｮｳｸ","kana_address":"ｷｮｳﾄｷﾞｮｴﾝ","pref":"京都府","city":"京都市上京区","address":"京都御苑"},
{"zip_code":"6028116","kana_pref":"ｷｮｳﾄﾌ","kana_city":"ｷｮｳﾄｼｶﾐｷﾞｮｳｸ","kana_address":"ｷﾖﾓﾄﾁｮｳ","pref":"京都府","city":"京都市上京区","address":"清元町"},
{"zip_code":"6028476","kana_pref":"ｷｮｳﾄﾌ","kana_city":"ｷｮｳﾄｼｶﾐｷﾞｮｳｸ","kana_address":"ｷﾘﾉｷﾁｮｳ","pref":"京都府","city":"京都市上京区","address":"桐木町"},
{"zip_code":"6020876","kana_pref":"ｷｮｳﾄﾌ","kana_city":"ｷｮｳﾄｼｶﾐｷﾞｮｳｸ","kana_address":"ｷﾝｼｬﾁｮｳ","pref":"京都府","city":"京都市上京区","address":"錦砂町"},
{"zip_code":"6028173","kana_pref":"ｷｮｳﾄﾌ","kana_city":"ｷｮｳﾄｼｶﾐｷﾞｮｳｸ","kana_address":"ｷﾝﾊﾞﾊﾞﾁｮｳ","pref":"京都府","city":"京都市上京区","address":"金馬場町"},
{"zip_code":"6028127","kana_pref":"ｷｮｳﾄﾌ","kana_city":"ｷｮｳﾄｼｶﾐｷﾞｮｳｸ","kana_address":"ｸｼｹﾞﾁｮｳ","pref":"京都府","city":"京都市上京区","address":"櫛笥町"},
{"zip_code":"6020918","kana_pref":"ｷｮｳﾄﾌ","kana_city":"ｷｮｳﾄｼｶﾐｷﾞｮｳｸ","kana_address":"ｸｽﾘﾔﾁｮｳ","pref":"京都府","city":"京都市上京区","address":"薬屋町"},
{"zip_code":"6028406","kana_pref":"ｷｮｳﾄﾌ","kana_city":"ｷｮｳﾄｼｶﾐｷﾞｮｳｸ","kana_address":"ｹｲｶｲﾝﾁｮｳ","pref":"京都府","city":"京都市上京区","address":"花開院町"},
{"zip_code":"6020002","kana_pref":"ｷｮｳﾄﾌ","kana_city":"ｷｮｳﾄｼｶﾐｷﾞｮｳｸ","kana_address":"ｹｲｺｳｲﾝﾁｮｳ","pref":"京都府","city":"京都市上京区","address":"継孝院町"},
{"zip_code":"6020018","kana_pref":"ｷｮｳﾄﾌ","kana_city":"ｷｮｳﾄｼｶﾐｷﾞｮｳｸ","kana_address":"ｹﾞﾝﾊﾞﾁｮｳ","pref":"京都府","city":"京都市上京区","address":"玄蕃町"},
{"zip_code":"6020893","kana_pref":"ｷｮｳﾄﾌ","kana_city":"ｷｮｳﾄｼｶﾐｷﾞｮｳｸ","kana_address":"ｹﾞﾝﾌﾞﾁｮｳ","pref":"京都府","city":"京都市上京区","address":"玄武町"},
{"zip_code":"6028428","kana_pref":"ｷｮｳﾄﾌ","kana_city":"ｷｮｳﾄｼｶﾐｷﾞｮｳｸ","kana_address":"ｺｳｻﾞｲﾁｮｳ","pref":"京都府","city":"京都市上京区","address":"幸在町"},
{"zip_code":"6028114","kana_pref":"ｷｮｳﾄﾌ","kana_city":"ｷｮｳﾄｼｶﾐｷﾞｮｳｸ","kana_address":"ｺｳｼﾞﾝﾁｮｳ","pref":"京都府","city":"京都市上京区","address":"荒神町"},
{"zip_code":"6020856","kana_pref":"ｷｮｳﾄﾌ","kana_city":"ｷｮｳﾄｼｶﾐｷﾞｮｳｸ","kana_address":"ｺｳｼﾞﾝﾁｮｳ","pref":"京都府","city":"京都市上京区","address":"荒神町"},
{"zip_code":"6028267","kana_pref":"ｷｮｳﾄﾌ","kana_city":"ｷｮｳﾄｼｶﾐｷﾞｮｳｸ","kana_address":"ｺｳﾀﾞｲｲﾝﾀﾃﾏﾁ","pref":"京都府","city":"京都市上京区","address":"高台院竪町"},
{"zip_code":"6028271","kana_pref":"ｷｮｳﾄﾌ","kana_city":"ｷｮｳﾄｼｶﾐｷﾞｮｳｸ","kana_address":"ｺｳﾀﾞｲｲﾝﾁｮｳ","pref":"京都府","city":"京都市上京区","address":"高台院町"},
{"zip_code":"6020835","kana_pref":"ｷｮｳﾄﾌ","kana_city":"ｷｮｳﾄｼｶﾐｷﾞｮｳｸ","kana_address":"ｺｳﾄﾞｳｳﾁﾁｮｳ","pref":"京都府","city":"京都市上京区","address":"革堂内町"},
{"zip_code":"6028132","kana_pref":"ｷｮｳﾄﾌ","kana_city":"ｷｮｳﾄｼｶﾐｷﾞｮｳｸ","kana_address":"ｺｳﾄﾞｳﾁｮｳ","pref":"京都府","city":"京都市上京区","address":"講堂町"},
{"zip_code":"6020943","kana_pref":"ｷｮｳﾄﾌ","kana_city":"ｷｮｳﾄｼｶﾐｷﾞｮｳｸ","kana_address":"ｺｳﾄﾞｳﾁｮｳ","pref":"京都府","city":"京都市上京区","address":"革堂町"},
{"zip_code":"6028463","kana_pref":"ｷｮｳﾄﾌ","kana_city":"ｷｮｳﾄｼｶﾐｷﾞｮｳｸ","kana_address":"ｺｳﾄﾞｳﾁｮｳ","pref":"京都府","city":"京都市上京区","address":"革堂町"},
{"zip_code":"6020945","kana_pref":"ｷｮｳﾄﾌ","kana_city":"ｷｮｳﾄｼｶﾐｷﾞｮｳｸ","kana_address":"ｺｳﾄﾞｳﾅｶﾉﾁｮｳ","pref":"京都府","city":"京都市上京区","address":"革堂仲之町"},
{"zip_code":"6020959","kana_pref":"ｷｮｳﾄﾌ","kana_city":"ｷｮｳﾄｼｶﾐｷﾞｮｳｸ","kana_address":"ｺｳﾄﾞｳﾆｼﾏﾁ","pref":"京都府","city":"京都市上京区","address":"革堂西町"},
{"zip_code":"6028299","kana_pref":"ｷｮｳﾄﾌ","kana_city":"ｷｮｳﾄｼｶﾐｷﾞｮｳｸ","kana_address":"ｺｳﾄﾞｳﾉｳﾁﾁｮｳ","pref":"京都府","city":"京都市上京区","address":"革堂之内町"},
{"zip_code":"6028275","kana_pref":"ｷｮｳﾄﾌ","kana_city":"ｷｮｳﾄｼｶﾐｷﾞｮｳｸ","kana_address":"ｺｳﾄﾞｳﾏｴﾉﾁｮｳ","pref":"京都府","city":"京都市上京区","address":"革堂前之町"},
{"zip_code":"6020801","kana_pref":"ｷｮｳﾄﾌ","kana_city":"ｷｮｳﾄｼｶﾐｷﾞｮｳｸ","kana_address":"ｺｳﾄｸｼﾞﾁｮｳ","pref":"京都府","city":"京都市上京区","address":"高徳寺町"},
{"zip_code":"6020051","kana_pref":"ｷｮｳﾄﾌ","kana_city":"ｷｮｳﾄｼｶﾐｷﾞｮｳｸ","kana_address":"ｺﾞｻﾝｹﾞﾝﾁｮｳ","pref":"京都府","city":"京都市上京区","address":"御三軒町"},
{"zip_code":"6020904","kana_pref":"ｷｮｳﾄﾌ","kana_city":"ｷｮｳﾄｼｶﾐｷﾞｮｳｸ","kana_address":"ｺｼﾞﾏﾁｮｳ","pref":"京都府","city":"京都市上京区","address":"小島町"},
{"zip_code":"6020023","kana_pref":"ｷｮｳﾄﾌ","kana_city":"ｷｮｳﾄｼｶﾐｷﾞｮｳｸ","kana_address":"ｺﾞｼｮﾊﾁﾏﾝﾁｮｳ","pref":"京都府","city":"京都市上京区","address":"御所八幡町"},
{"zip_code":"6028043","kana_pref":"ｷｮｳﾄﾌ","kana_city":"ｷｮｳﾄｼｶﾐｷﾞｮｳｸ","kana_address":"ｺﾞﾁｮｳﾒ","pref":"京都府","city":"京都市上京区","address":"五町目"},
{"zip_code":"6028013","kana_pref":"ｷｮｳﾄﾌ","kana_city":"ｷｮｳﾄｼｶﾐｷﾞｮｳｸ","kana_address":"ｺﾞﾁｮｳﾒﾁｮｳ","pref":"京都府","city":"京都市上京区","address":"五町目町"},
{"zip_code":"6028234","kana_pref":"ｷｮｳﾄﾌ","kana_city":"ｷｮｳﾄｼｶﾐｷﾞｮｳｸ","kana_address":"ｺﾃﾞﾗﾁｮｳ","pref":"京都府","city":"京都市上京区","address":"小寺町"},
{"zip_code":"6028133","kana_pref":"ｷｮｳﾄﾌ","kana_city":"ｷｮｳﾄｼｶﾐｷﾞｮｳｸ","kana_address":"ｺﾃﾞﾝﾏﾁｮｳ","pref":"京都府","city":"京都市上京区","address":"小伝馬町"},
{"zip_code":"6020821","kana_pref":"ｷｮｳﾄﾌ","kana_city":"ｷｮｳﾄｼｶﾐｷﾞｮｳｸ","kana_address":"ｺﾞﾄｳﾁｮｳ","pref":"京都府","city":"京都市上京区","address":"後藤町"},
{"zip_code":"6028046","kana_pref":"ｷｮｳﾄﾌ","kana_city":"ｷｮｳﾄｼｶﾐｷﾞｮｳｸ","kana_address":"ｺﾉｴﾁｮｳ","pref":"京都府","city":"京都市上京区","address":"近衛町"},
{"zip_code":"6028019","kana_pref":"ｷｮｳﾄﾌ","kana_city":"ｷｮｳﾄｼｶﾐｷﾞｮｳｸ","kana_address":"ｺﾉｴﾁｮｳ","pref":"京都府","city":"京都市上京区","address":"近衛町"},
{"zip_code":"6020047","kana_pref":"ｷｮｳﾄﾌ","kana_city":"ｷｮｳﾄｼｶﾐｷﾞｮｳｸ","kana_address":"ｺﾉｴﾃﾞﾝｵﾓﾃﾁｮｳ","pref":"京都府","city":"京都市上京区","address":"近衛殿表町"},
{"zip_code":"6020045","kana_pref":"ｷｮｳﾄﾌ","kana_city":"ｷｮｳﾄｼｶﾐｷﾞｮｳｸ","kana_address":"ｺﾉｴﾃﾞﾝｷﾀｸﾞﾁﾁｮｳ","pref":"京都府","city":"京都市上京区","address":"近衛殿北口町"},
{"zip_code":"6028342","kana_pref":"ｷｮｳﾄﾌ","kana_city":"ｷｮｳﾄｼｶﾐｷﾞｮｳｸ","kana_address":"ｺﾞﾊﾞﾝﾁｮｳ","pref":"京都府","city":"京都市上京区","address":"五番町"},
{"zip_code":"6020872","kana_pref":"ｷｮｳﾄﾌ","kana_city":"ｷｮｳﾄｼｶﾐｷﾞｮｳｸ","kana_address":"ｺﾏﾉﾁｮｳ","pref":"京都府","city":"京都市上京区","address":"駒之町"},
{"zip_code":"6028034","kana_pref":"ｷｮｳﾄﾌ","kana_city":"ｷｮｳﾄｼｶﾐｷﾞｮｳｸ","kana_address":"ｺﾒﾔﾁｮｳ","pref":"京都府","city":"京都市上京区","address":"米屋町"},
{"zip_code":"6020846","kana_pref":"ｷｮｳﾄﾌ","kana_city":"ｷｮｳﾄｼｶﾐｷﾞｮｳｸ","kana_address":"ｺﾒﾔﾁｮｳ","pref":"京都府","city":"京都市上京区","address":"米屋町"},
{"zip_code":"6028157","kana_pref":"ｷｮｳﾄﾌ","kana_city":"ｷｮｳﾄｼｶﾐｷﾞｮｳｸ","kana_address":"ｺﾔﾏﾁｮｳ","pref":"京都府","city":"京都市上京区","address":"小山町"},
{"zip_code":"6028018","kana_pref":"ｷｮｳﾄﾌ","kana_city":"ｷｮｳﾄｼｶﾐｷﾞｮｳｸ","kana_address":"ｺﾞﾘｮｳﾁｮｳ","pref":"京都府","city":"京都市上京区","address":"御霊町"},
{"zip_code":"6028179","kana_pref":"ｷｮｳﾄﾌ","kana_city":"ｷｮｳﾄｼｶﾐｷﾞｮｳｸ","kana_address":"ｺﾝﾀｶﾁｮｳ","pref":"京都府","city":"京都市上京区","address":"坤高町"},
{"zip_code":"6028151","kana_pref":"ｷｮｳﾄﾌ","kana_city":"ｷｮｳﾄｼｶﾐｷﾞｮｳｸ","kana_address":"ｻｲｲﾝﾁｮｳ","pref":"京都府","city":"京都市上京区","address":"西院町"},
{"zip_code":"6028242","kana_pref":"ｷｮｳﾄﾌ","kana_city":"ｷｮｳﾄｼｶﾐｷﾞｮｳｸ","kana_address":"ｻｲｶﾁﾁｮｳ","pref":"京都府","city":"京都市上京区","address":"皀莢町"},
{"zip_code":"6028354","kana_pref":"ｷｮｳﾄﾌ","kana_city":"ｷｮｳﾄｼｶﾐｷﾞｮｳｸ","kana_address":"ｻｲﾄｳﾁｮｳ","pref":"京都府","city":"京都市上京区","address":"西東町"},
{"zip_code":"6020814","kana_pref":"ｷｮｳﾄﾌ","kana_city":"ｷｮｳﾄｼｶﾐｷﾞｮｳｸ","kana_address":"ｻｲﾉｶﾐﾁｮｳ","pref":"京都府","city":"京都市上京区","address":"幸神町"},
{"zip_code":"6020842","kana_pref":"ｷｮｳﾄﾌ","kana_city":"ｷｮｳﾄｼｶﾐｷﾞｮｳｸ","kana_address":"ｻｶｴﾁｮｳ","pref":"京都府","city":"京都市上京区","address":"栄町"},
{"zip_code":"6028202","kana_pref":"ｷｮｳﾄﾌ","kana_city":"ｷｮｳﾄｼｶﾐｷﾞｮｳｸ","kana_address":"ｻｶｴﾁｮｳ","pref":"京都府","city":"京都市上京区","address":"栄町（大宮通一条上る西入"},
{"zip_code":"6028202","kana_pref":"ｷｮｳﾄﾌ","kana_city":"ｷｮｳﾄｼｶﾐｷﾞｮｳｸ","kana_address":"ｻｶｴﾁｮｳ","pref":"京都府","city":"京都市上京区","address":"大宮通中立売下る"},
{"zip_code":"6028202","kana_pref":"ｷｮｳﾄﾌ","kana_city":"ｷｮｳﾄｼｶﾐｷﾞｮｳｸ","kana_address":"ｻｶｴﾁｮｳ","pref":"京都府","city":"京都市上京区","address":"智恵光院通一条"},
{"zip_code":"6028202","kana_pref":"ｷｮｳﾄﾌ","kana_city":"ｷｮｳﾄｼｶﾐｷﾞｮｳｸ","kana_address":"ｻｶｴﾁｮｳ","pref":"京都府","city":"京都市上京区","address":"上る東入）"},
{"zip_code":"6028304","kana_pref":"ｷｮｳﾄﾌ","kana_city":"ｷｮｳﾄｼｶﾐｷﾞｮｳｸ","kana_address":"ｻｸｱﾝﾁｮｳ","pref":"京都府","city":"京都市上京区","address":"作庵町"},
{"zip_code":"6028445","kana_pref":"ｷｮｳﾄﾌ","kana_city":"ｷｮｳﾄｼｶﾐｷﾞｮｳｸ","kana_address":"ｻｸﾗｲﾁｮｳ","pref":"京都府","city":"京都市上京区","address":"桜井町"},
{"zip_code":"6020805","kana_pref":"ｷｮｳﾄﾌ","kana_city":"ｷｮｳﾄｼｶﾐｷﾞｮｳｸ","kana_address":"ｻｸﾗｷﾞﾁｮｳ","pref":"京都府","city":"京都市上京区","address":"桜木町"},
{"zip_code":"6028453","kana_pref":"ｷｮｳﾄﾌ","kana_city":"ｷｮｳﾄｼｶﾐｷﾞｮｳｸ","kana_address":"ｻｻﾔ","pref":"京都府","city":"京都市上京区","address":"笹屋"},
{"zip_code":"6028314","kana_pref":"ｷｮｳﾄﾌ","kana_city":"ｷｮｳﾄｼｶﾐｷﾞｮｳｸ","kana_address":"ｻﾀｹﾁｮｳ","pref":"京都府","city":"京都市上京区","address":"佐竹町"},
{"zip_code":"6028145","kana_pref":"ｷｮｳﾄﾌ","kana_city":"ｷｮｳﾄｼｶﾐｷﾞｮｳｸ","kana_address":"ｻﾏﾏﾂﾁｮｳ","pref":"京都府","city":"京都市上京区","address":"左馬松町"},
{"zip_code":"6020826","kana_pref":"ｷｮｳﾄﾌ","kana_city":"ｷｮｳﾄｼｶﾐｷﾞｮｳｸ","kana_address":"ｻﾝｴｲﾁｮｳ","pref":"京都府","city":"京都市上京区","address":"三栄町"},
{"zip_code":"6028341","kana_pref":"ｷｮｳﾄﾌ","kana_city":"ｷｮｳﾄｼｶﾐｷﾞｮｳｸ","kana_address":"ｻﾝｹﾝﾁｮｳ","pref":"京都府","city":"京都市上京区","address":"三軒町"},
{"zip_code":"6020922","kana_pref":"ｷｮｳﾄﾌ","kana_city":"ｷｮｳﾄｼｶﾐｷﾞｮｳｸ","kana_address":"ｻﾝｼｭｳｼﾞﾁｮｳ","pref":"京都府","city":"京都市上京区","address":"讃州寺町"},
{"zip_code":"6028333","kana_pref":"ｷｮｳﾄﾌ","kana_city":"ｷｮｳﾄｼｶﾐｷﾞｮｳｸ","kana_address":"ｻﾝｼﾞｮｳﾃﾞﾝﾁｮｳ","pref":"京都府","city":"京都市上京区","address":"三条殿町"},
{"zip_code":"6028356","kana_pref":"ｷｮｳﾄﾌ","kana_city":"ｷｮｳﾄｼｶﾐｷﾞｮｳｸ","kana_address":"ｻﾝｽｹﾁｮｳ","pref":"京都府","city":"京都市上京区","address":"三助町"},
{"zip_code":"6028135","kana_pref":"ｷｮｳﾄﾌ","kana_city":"ｷｮｳﾄｼｶﾐｷﾞｮｳｸ","kana_address":"ｻﾝﾁｮｳﾒ","pref":"京都府","city":"京都市上京区","address":"三町目"},
{"zip_code":"6028056","kana_pref":"ｷｮｳﾄﾌ","kana_city":"ｷｮｳﾄｼｶﾐｷﾞｮｳｸ","kana_address":"ｻﾝﾁｮｳﾒ","pref":"京都府","city":"京都市上京区","address":"三町目"},
{"zip_code":"6020915","kana_pref":"ｷｮｳﾄﾌ","kana_city":"ｷｮｳﾄｼｶﾐｷﾞｮｳｸ","kana_address":"ｻﾝﾃｲﾁｮｳ","pref":"京都府","city":"京都市上京区","address":"三丁町"},
{"zip_code":"6028274","kana_pref":"ｷｮｳﾄﾌ","kana_city":"ｷｮｳﾄｼｶﾐｷﾞｮｳｸ","kana_address":"ｻﾝﾉｳﾁｮｳ","pref":"京都府","city":"京都市上京区","address":"山王町"},
{"zip_code":"6028358","kana_pref":"ｷｮｳﾄﾌ","kana_city":"ｷｮｳﾄｼｶﾐｷﾞｮｳｸ","kana_address":"ｻﾝﾊﾞﾝﾁｮｳ","pref":"京都府","city":"京都市上京区","address":"三番町"},
{"zip_code":"6028436","kana_pref":"ｷｮｳﾄﾌ","kana_city":"ｷｮｳﾄｼｶﾐｷﾞｮｳｸ","kana_address":"ｼﾞｹﾞﾝｱﾝﾁｮｳ","pref":"京都府","city":"京都市上京区","address":"慈眼庵町"},
{"zip_code":"6028359","kana_pref":"ｷｮｳﾄﾌ","kana_city":"ｷｮｳﾄｼｶﾐｷﾞｮｳｸ","kana_address":"ｼﾁﾊﾞﾝﾁｮｳ","pref":"京都府","city":"京都市上京区","address":"七番町"},
{"zip_code":"6020059","kana_pref":"ｷｮｳﾄﾌ","kana_city":"ｷｮｳﾄｼｶﾐｷﾞｮｳｸ","kana_address":"ｼﾞｯｿｳｲﾝﾁｮｳ","pref":"京都府","city":"京都市上京区","address":"実相院町"},
{"zip_code":"6028071","kana_pref":"ｷｮｳﾄﾌ","kana_city":"ｷｮｳﾄｼｶﾐｷﾞｮｳｸ","kana_address":"ｼﾃｲﾁｮｳ","pref":"京都府","city":"京都市上京区","address":"仕丁町"},
{"zip_code":"6028277","kana_pref":"ｷｮｳﾄﾌ","kana_city":"ｷｮｳﾄｼｶﾐｷﾞｮｳｸ","kana_address":"ｼﾅﾉﾁｮｳ","pref":"京都府","city":"京都市上京区","address":"信濃町"},
{"zip_code":"6028438","kana_pref":"ｷｮｳﾄﾌ","kana_city":"ｷｮｳﾄｼｶﾐｷﾞｮｳｸ","kana_address":"ｼﾊﾞｵｵﾐﾔﾁｮｳ","pref":"京都府","city":"京都市上京区","address":"芝大宮町"},
{"zip_code":"6028412","kana_pref":"ｷｮｳﾄﾌ","kana_city":"ｷｮｳﾄｼｶﾐｷﾞｮｳｸ","kana_address":"ｼﾊﾞﾉﾁｮｳ","pref":"京都府","city":"京都市上京区","address":"芝之町"},
{"zip_code":"6028421","kana_pref":"ｷｮｳﾄﾌ","kana_city":"ｷｮｳﾄｼｶﾐｷﾞｮｳｸ","kana_address":"ｼﾊﾞﾔｸｼﾁｮｳ","pref":"京都府","city":"京都市上京区","address":"芝薬師町"},
{"zip_code":"6028225","kana_pref":"ｷｮｳﾄﾌ","kana_city":"ｷｮｳﾄｼｶﾐｷﾞｮｳｸ","kana_address":"ｼﾓｲｼﾊﾞｼﾁｮｳ","pref":"京都府","city":"京都市上京区","address":"下石橋町"},
{"zip_code":"6028239","kana_pref":"ｷｮｳﾄﾌ","kana_city":"ｷｮｳﾄｼｶﾐｷﾞｮｳｸ","kana_address":"ｼﾓｲｼﾊﾞｼﾐﾅﾐﾊﾝﾁｮｳ","pref":"京都府","city":"京都市上京区","address":"下石橋南半町"},
{"zip_code":"6028075","kana_pref":"ｷｮｳﾄﾌ","kana_city":"ｷｮｳﾄｼｶﾐｷﾞｮｳｸ","kana_address":"ｼﾓｵｶﾞﾜﾁｮｳ","pref":"京都府","city":"京都市上京区","address":"下小川町"},
{"zip_code":"6028204","kana_pref":"ｷｮｳﾄﾌ","kana_city":"ｷｮｳﾄｼｶﾐｷﾞｮｳｸ","kana_address":"ｼﾓｶｶﾞﾐｲｼﾁｮｳ","pref":"京都府","city":"京都市上京区","address":"下鏡石町"},
{"zip_code":"6020019","kana_pref":"ｷｮｳﾄﾌ","kana_city":"ｷｮｳﾄｼｶﾐｷﾞｮｳｸ","kana_address":"ｼﾓｷﾉｼﾀﾁｮｳ","pref":"京都府","city":"京都市上京区","address":"下木下町"},
{"zip_code":"6020007","kana_pref":"ｷｮｳﾄﾌ","kana_city":"ｷｮｳﾄｼｶﾐｷﾞｮｳｸ","kana_address":"ｼﾓｾｲｿﾞｳｸﾞﾁﾁｮｳ","pref":"京都府","city":"京都市上京区","address":"下清蔵口町"},
{"zip_code":"6028372","kana_pref":"ｷｮｳﾄﾌ","kana_city":"ｷｮｳﾄｼｶﾐｷﾞｮｳｸ","kana_address":"ｼﾓﾀﾃﾁｮｳ","pref":"京都府","city":"京都市上京区","address":"下竪町"},
{"zip_code":"6020074","kana_pref":"ｷｮｳﾄﾌ","kana_city":"ｷｮｳﾄｼｶﾐｷﾞｮｳｸ","kana_address":"ｼﾓﾃﾝｼﾞﾝﾁｮｳ","pref":"京都府","city":"京都市上京区","address":"下天神町"},
{"zip_code":"6020837","kana_pref":"ｷｮｳﾄﾌ","kana_city":"ｷｮｳﾄｼｶﾐｷﾞｮｳｸ","kana_address":"ｼﾓﾄｳﾉﾀﾞﾝﾁｮｳ","pref":"京都府","city":"京都市上京区","address":"下塔之段町"},
{"zip_code":"6028365","kana_pref":"ｷｮｳﾄﾌ","kana_city":"ｷｮｳﾄｼｶﾐｷﾞｮｳｸ","kana_address":"ｼﾓﾉﾁｮｳ","pref":"京都府","city":"京都市上京区","address":"下之町"},
{"zip_code":"6028142","kana_pref":"ｷｮｳﾄﾌ","kana_city":"ｷｮｳﾄｼｶﾐｷﾞｮｳｸ","kana_address":"ｼﾓﾎﾘｶﾜﾁｮｳ","pref":"京都府","city":"京都市上京区","address":"下堀川町"},
{"zip_code":"6028176","kana_pref":"ｷｮｳﾄﾌ","kana_city":"ｷｮｳﾄｼｶﾐｷﾞｮｳｸ","kana_address":"ｼﾓﾏﾙﾔﾁｮｳ","pref":"京都府","city":"京都市上京区","address":"下丸屋町"},
{"zip_code":"6020839","kana_pref":"ｷｮｳﾄﾌ","kana_city":"ｷｮｳﾄｼｶﾐｷﾞｮｳｸ","kana_address":"ｼﾓﾐｺｼﾁｮｳ","pref":"京都府","city":"京都市上京区","address":"下御輿町"},
{"zip_code":"6020014","kana_pref":"ｷｮｳﾄﾌ","kana_city":"ｷｮｳﾄｼｶﾐｷﾞｮｳｸ","kana_address":"ｼﾓﾔﾅｷﾞﾊﾗｷﾀﾊﾝﾁｮｳ","pref":"京都府","city":"京都市上京区","address":"下柳原北半町"},
{"zip_code":"6020015","kana_pref":"ｷｮｳﾄﾌ","kana_city":"ｷｮｳﾄｼｶﾐｷﾞｮｳｸ","kana_address":"ｼﾓﾔﾅｷﾞﾊﾗﾐﾅﾐﾊﾝﾁｮｳ","pref":"京都府","city":"京都市上京区","address":"下柳原南半町"},
{"zip_code":"6028265","kana_pref":"ｷｮｳﾄﾌ","kana_city":"ｷｮｳﾄｼｶﾐｷﾞｮｳｸ","kana_address":"ｼﾓﾔﾏｻﾞﾄﾁｮｳ","pref":"京都府","city":"京都市上京区","address":"下山里町"},
{"zip_code":"6028373","kana_pref":"ｷｮｳﾄﾌ","kana_city":"ｷｮｳﾄｼｶﾐｷﾞｮｳｸ","kana_address":"ｼﾓﾖｺﾁｮｳ","pref":"京都府","city":"京都市上京区","address":"下横町"},
{"zip_code":"6028395","kana_pref":"ｷｮｳﾄﾌ","kana_city":"ｷｮｳﾄｼｶﾐｷﾞｮｳｸ","kana_address":"ｼｬｹﾅｶﾞﾔﾁｮｳ","pref":"京都府","city":"京都市上京区","address":"社家長屋町"},
{"zip_code":"6020811","kana_pref":"ｷｮｳﾄﾌ","kana_city":"ｷｮｳﾄｼｶﾐｷﾞｮｳｸ","kana_address":"ｼﾞｭｳﾈﾝｼﾞﾏｴﾁｮｳ","pref":"京都府","city":"京都市上京区","address":"十念寺前町"},
{"zip_code":"6028164","kana_pref":"ｷｮｳﾄﾌ","kana_city":"ｷｮｳﾄｼｶﾐｷﾞｮｳｸ","kana_address":"ｼﾞｭｳﾖﾝｹﾝﾁｮｳ","pref":"京都府","city":"京都市上京区","address":"十四軒町"},
{"zip_code":"6028067","kana_pref":"ｷｮｳﾄﾌ","kana_city":"ｷｮｳﾄｼｶﾐｷﾞｮｳｸ","kana_address":"ｼｭｹｲﾁｮｳ","pref":"京都府","city":"京都市上京区","address":"主計町"},
{"zip_code":"6028155","kana_pref":"ｷｮｳﾄﾌ","kana_city":"ｷｮｳﾄｼｶﾐｷﾞｮｳｸ","kana_address":"ｼｭｾﾞｲﾁｮｳ","pref":"京都府","city":"京都市上京区","address":"主税町"},
{"zip_code":"6028156","kana_pref":"ｷｮｳﾄﾌ","kana_city":"ｷｮｳﾄｼｶﾐｷﾞｮｳｸ","kana_address":"ｼﾞｭﾗｸﾁｮｳ","pref":"京都府","city":"京都市上京区","address":"聚楽町"},
{"zip_code":"6028015","kana_pref":"ｷｮｳﾄﾌ","kana_city":"ｷｮｳﾄｼｶﾐｷﾞｮｳｸ","kana_address":"ｼﾞｮｳｾﾝｲﾝﾁｮｳ","pref":"京都府","city":"京都市上京区","address":"常泉院町"},
{"zip_code":"6028474","kana_pref":"ｷｮｳﾄﾌ","kana_city":"ｷｮｳﾄｼｶﾐｷﾞｮｳｸ","kana_address":"ｼﾞｮｳｾﾞﾝｼﾞﾁｮｳ","pref":"京都府","city":"京都市上京区","address":"上善寺町"},
{"zip_code":"6028481","kana_pref":"ｷｮｳﾄﾌ","kana_city":"ｷｮｳﾄｼｶﾐｷﾞｮｳｸ","kana_address":"ｼｮｳﾃﾝﾁｮｳ","pref":"京都府","city":"京都市上京区","address":"聖天町"},
{"zip_code":"6028057","kana_pref":"ｷｮｳﾄﾌ","kana_city":"ｷｮｳﾄｼｶﾐｷﾞｮｳｸ","kana_address":"ｼｮｳﾊﾁｮｳ","pref":"京都府","city":"京都市上京区","address":"紹巴町"},
{"zip_code":"6028348","kana_pref":"ｷｮｳﾄﾌ","kana_city":"ｷｮｳﾄｼｶﾐｷﾞｮｳｸ","kana_address":"ｼﾗﾀｹﾁｮｳ","pref":"京都府","city":"京都市上京区","address":"白竹町"},
{"zip_code":"6028178","kana_pref":"ｷｮｳﾄﾌ","kana_city":"ｷｮｳﾄｼｶﾐｷﾞｮｳｸ","kana_address":"ｼﾛｶﾞﾈﾁｮｳ","pref":"京都府","city":"京都市上京区","address":"白銀町"},
{"zip_code":"6028495","kana_pref":"ｷｮｳﾄﾌ","kana_city":"ｷｮｳﾄｼｶﾐｷﾞｮｳｸ","kana_address":"ｼﾝｲﾉｸﾏﾁｮｳ","pref":"京都府","city":"京都市上京区","address":"新猪熊町"},
{"zip_code":"6028494","kana_pref":"ｷｮｳﾄﾌ","kana_city":"ｷｮｳﾄｼｶﾐｷﾞｮｳｸ","kana_address":"ｼﾝｲﾉｸﾏﾋｶﾞｼﾁｮｳ","pref":"京都府","city":"京都市上京区","address":"新猪熊東町"},
{"zip_code":"6020843","kana_pref":"ｷｮｳﾄﾌ","kana_city":"ｷｮｳﾄｼｶﾐｷﾞｮｳｸ","kana_address":"ｼﾝｴﾋﾞｽﾁｮｳ","pref":"京都府","city":"京都市上京区","address":"新夷町"},
{"zip_code":"6020861","kana_pref":"ｷｮｳﾄﾌ","kana_city":"ｷｮｳﾄｼｶﾐｷﾞｮｳｸ","kana_address":"ｼﾝｶﾗｽﾏｶｼﾗﾁｮｳ","pref":"京都府","city":"京都市上京区","address":"新烏丸頭町"},
{"zip_code":"6020892","kana_pref":"ｷｮｳﾄﾌ","kana_city":"ｷｮｳﾄｼｶﾐｷﾞｮｳｸ","kana_address":"ｼﾝｷﾀｺｳｼﾞﾁｮｳ","pref":"京都府","city":"京都市上京区","address":"新北小路町"},
{"zip_code":"6028161","kana_pref":"ｷｮｳﾄﾌ","kana_city":"ｷｮｳﾄｼｶﾐｷﾞｮｳｸ","kana_address":"ｼﾝｺﾞｺｳﾁｮｳ","pref":"京都府","city":"京都市上京区","address":"新御幸町"},
{"zip_code":"6020897","kana_pref":"ｷｮｳﾄﾌ","kana_city":"ｷｮｳﾄｼｶﾐｷﾞｮｳｸ","kana_address":"ｼﾝｺﾞﾘｮｳｸﾞﾁﾁｮｳ","pref":"京都府","city":"京都市上京区","address":"新御霊口町"},
{"zip_code":"6028381","kana_pref":"ｷｮｳﾄﾌ","kana_city":"ｷｮｳﾄｼｶﾐｷﾞｮｳｸ","kana_address":"ｼﾝｾｲﾁｮｳ","pref":"京都府","city":"京都市上京区","address":"真盛町"},
{"zip_code":"6028337","kana_pref":"ｷｮｳﾄﾌ","kana_city":"ｷｮｳﾄｼｶﾐｷﾞｮｳｸ","kana_address":"ｼﾝﾀｹﾁｮｳ","pref":"京都府","city":"京都市上京区","address":"新建町"},
{"zip_code":"6020083","kana_pref":"ｷｮｳﾄﾌ","kana_city":"ｷｮｳﾄｼｶﾐｷﾞｮｳｸ","kana_address":"ｼﾝﾁｮｳ","pref":"京都府","city":"京都市上京区","address":"新ン町"},
{"zip_code":"6020866","kana_pref":"ｷｮｳﾄﾌ","kana_city":"ｷｮｳﾄｼｶﾐｷﾞｮｳｸ","kana_address":"ｼﾝﾁｮｳ","pref":"京都府","city":"京都市上京区","address":"真町"},
{"zip_code":"6020875","kana_pref":"ｷｮｳﾄﾌ","kana_city":"ｷｮｳﾄｼｶﾐｷﾞｮｳｸ","kana_address":"ｼﾝﾄﾐﾁｮｳ","pref":"京都府","city":"京都市上京区","address":"信富町"},
{"zip_code":"6020833","kana_pref":"ｷｮｳﾄﾌ","kana_city":"ｷｮｳﾄｼｶﾐｷﾞｮｳｸ","kana_address":"ｼﾝﾆｮﾄﾞｳﾂｷﾇｹﾁｮｳ","pref":"京都府","city":"京都市上京区","address":"真如堂突抜町"},
{"zip_code":"6020845","kana_pref":"ｷｮｳﾄﾌ","kana_city":"ｷｮｳﾄｼｶﾐｷﾞｮｳｸ","kana_address":"ｼﾝﾆｮﾄﾞｳﾏｴﾁｮｳ","pref":"京都府","city":"京都市上京区","address":"真如堂前町"},
{"zip_code":"6028205","kana_pref":"ｷｮｳﾄﾌ","kana_city":"ｷｮｳﾄｼｶﾐｷﾞｮｳｸ","kana_address":"ｼﾝﾊｸｽｲﾏﾙﾁｮｳ","pref":"京都府","city":"京都市上京区","address":"新白水丸町"},
{"zip_code":"6028293","kana_pref":"ｷｮｳﾄﾌ","kana_city":"ｷｮｳﾄｼｶﾐｷﾞｮｳｸ","kana_address":"ｼﾝﾏｽﾔﾁｮｳ","pref":"京都府","city":"京都市上京区","address":"新桝屋町"},
{"zip_code":"6028409","kana_pref":"ｷｮｳﾄﾌ","kana_city":"ｷｮｳﾄｼｶﾐｷﾞｮｳｸ","kana_address":"ｼﾝﾐﾉﾍﾞﾁｮｳ","pref":"京都府","city":"京都市上京区","address":"新美濃部町"},
{"zip_code":"6028391","kana_pref":"ｷｮｳﾄﾌ","kana_city":"ｷｮｳﾄｼｶﾐｷﾞｮｳｸ","kana_address":"ｼﾝﾒｲﾁｮｳ","pref":"京都府","city":"京都市上京区","address":"神明町（御前通寺之内下る"},
{"zip_code":"6028391","kana_pref":"ｷｮｳﾄﾌ","kana_city":"ｷｮｳﾄｼｶﾐｷﾞｮｳｸ","kana_address":"ｼﾝﾒｲﾁｮｳ","pref":"京都府","city":"京都市上京区","address":"御前通今出川上る"},
{"zip_code":"6028391","kana_pref":"ｷｮｳﾄﾌ","kana_city":"ｷｮｳﾄｼｶﾐｷﾞｮｳｸ","kana_address":"ｼﾝﾒｲﾁｮｳ","pref":"京都府","city":"京都市上京区","address":"御前通今出川上"},
{"zip_code":"6028391","kana_pref":"ｷｮｳﾄﾌ","kana_city":"ｷｮｳﾄｼｶﾐｷﾞｮｳｸ","kana_address":"ｼﾝﾒｲﾁｮｳ","pref":"京都府","city":"京都市上京区","address":"る２丁目"},
{"zip_code":"6028391","kana_pref":"ｷｮｳﾄﾌ","kana_city":"ｷｮｳﾄｼｶﾐｷﾞｮｳｸ","kana_address":"ｼﾝﾒｲﾁｮｳ","pref":"京都府","city":"京都市上京区","address":"御前通今出川上る３丁目"},
{"zip_code":"6028391","kana_pref":"ｷｮｳﾄﾌ","kana_city":"ｷｮｳﾄｼｶﾐｷﾞｮｳｸ","kana_address":"ｼﾝﾒｲﾁｮｳ","pref":"京都府","city":"京都市上京区","address":"寺之内通御前西入）"},
{"zip_code":"6028256","kana_pref":"ｷｮｳﾄﾌ","kana_city":"ｷｮｳﾄｼｶﾐｷﾞｮｳｸ","kana_address":"ｼﾝﾒｲﾁｮｳ","pref":"京都府","city":"京都市上京区","address":"神明町"},
{"zip_code":"6028257","kana_pref":"ｷｮｳﾄﾌ","kana_city":"ｷｮｳﾄｼｶﾐｷﾞｮｳｸ","kana_address":"ｼﾝﾓﾄﾁｮｳ","pref":"京都府","city":"京都市上京区","address":"新元町"},
{"zip_code":"6028279","kana_pref":"ｷｮｳﾄﾌ","kana_city":"ｷｮｳﾄｼｶﾐｷﾞｮｳｸ","kana_address":"ｼﾝﾔﾅｷﾞﾉﾊﾞﾝﾊﾞｶｼﾗﾁｮｳ","pref":"京都府","city":"京都市上京区","address":"新柳馬場頭町"},
{"zip_code":"6020081","kana_pref":"ｷｮｳﾄﾌ","kana_city":"ｷｮｳﾄｼｶﾐｷﾞｮｳｸ","kana_address":"ｽﾞｲｺｳｲﾝﾏｴﾁｮｳ","pref":"京都府","city":"京都市上京区","address":"瑞光院前町"},
{"zip_code":"6028382","kana_pref":"ｷｮｳﾄﾌ","kana_city":"ｷｮｳﾄｼｶﾐｷﾞｮｳｸ","kana_address":"ｽｴﾉｸﾁﾁｮｳ","pref":"京都府","city":"京都市上京区","address":"末之口町"},
{"zip_code":"6028312","kana_pref":"ｷｮｳﾄﾌ","kana_city":"ｷｮｳﾄｼｶﾐｷﾞｮｳｸ","kana_address":"ｽｴﾋﾛﾁｮｳ","pref":"京都府","city":"京都市上京区","address":"末広町"},
{"zip_code":"6028246","kana_pref":"ｷｮｳﾄﾌ","kana_city":"ｷｮｳﾄｼｶﾐｷﾞｮｳｸ","kana_address":"ｽｷﾞﾓﾄﾁｮｳ","pref":"京都府","city":"京都市上京区","address":"杉本町"},
{"zip_code":"6028483","kana_pref":"ｷｮｳﾄﾌ","kana_city":"ｷｮｳﾄｼｶﾐｷﾞｮｳｸ","kana_address":"ｽｷﾞﾜｶﾁｮｳ","pref":"京都府","city":"京都市上京区","address":"杉若町"},
{"zip_code":"6020091","kana_pref":"ｷｮｳﾄﾌ","kana_city":"ｷｮｳﾄｼｶﾐｷﾞｮｳｸ","kana_address":"ｽｼﾞｶｲﾊﾞｼﾁｮｳ","pref":"京都府","city":"京都市上京区","address":"筋違橋町"},
{"zip_code":"6028439","kana_pref":"ｷｮｳﾄﾌ","kana_city":"ｷｮｳﾄｼｶﾐｷﾞｮｳｸ","kana_address":"ｽｽﾞﾘﾔﾁｮｳ","pref":"京都府","city":"京都市上京区","address":"硯屋町"},
{"zip_code":"6028262","kana_pref":"ｷｮｳﾄﾌ","kana_city":"ｷｮｳﾄｼｶﾐｷﾞｮｳｸ","kana_address":"ｽﾊﾏｲｹﾁｮｳ","pref":"京都府","city":"京都市上京区","address":"須浜池町"},
{"zip_code":"6028264","kana_pref":"ｷｮｳﾄﾌ","kana_city":"ｷｮｳﾄｼｶﾐｷﾞｮｳｸ","kana_address":"ｽﾊﾏﾁｮｳ","pref":"京都府","city":"京都市上京区","address":"須浜町"},
{"zip_code":"6028263","kana_pref":"ｷｮｳﾄﾌ","kana_city":"ｷｮｳﾄｼｶﾐｷﾞｮｳｸ","kana_address":"ｽﾊﾏﾋｶﾞｼﾁｮｳ","pref":"京都府","city":"京都市上京区","address":"須浜東町"},
{"zip_code":"6028222","kana_pref":"ｷｮｳﾄﾌ","kana_city":"ｷｮｳﾄｼｶﾐｷﾞｮｳｸ","kana_address":"ｾｲﾒｲﾁｮｳ","pref":"京都府","city":"京都市上京区","address":"晴明町"},
{"zip_code":"6020822","kana_pref":"ｷｮｳﾄﾌ","kana_city":"ｷｮｳﾄｼｶﾐｷﾞｮｳｸ","kana_address":"ｾｲﾘｭｳﾁｮｳ","pref":"京都府","city":"京都市上京区","address":"青龍町"},
{"zip_code":"6028003","kana_pref":"ｷｮｳﾄﾌ","kana_city":"ｷｮｳﾄｼｶﾐｷﾞｮｳｸ","kana_address":"ｾｲﾜｲﾝﾁｮｳ","pref":"京都府","city":"京都市上京区","address":"清和院町"},
{"zip_code":"6020006","kana_pref":"ｷｮｳﾄﾌ","kana_city":"ｷｮｳﾄｼｶﾐｷﾞｮｳｸ","kana_address":"ｾﾞﾝｼｮｳｲﾝﾁｮｳ","pref":"京都府","city":"京都市上京区","address":"禅昌院町"},
{"zip_code":"6020898","kana_pref":"ｷｮｳﾄﾌ","kana_city":"ｷｮｳﾄｼｶﾐｷﾞｮｳｸ","kana_address":"ｿｳｺｸｼﾞﾓﾝｾﾞﾝﾁｮｳ","pref":"京都府","city":"京都市上京区","address":"相国寺門前町"},
{"zip_code":"6020844","kana_pref":"ｷｮｳﾄﾌ","kana_city":"ｷｮｳﾄｼｶﾐｷﾞｮｳｸ","kana_address":"ｿﾒﾄﾞﾉﾁｮｳ","pref":"京都府","city":"京都市上京区","address":"染殿町"},
{"zip_code":"6028482","kana_pref":"ｷｮｳﾄﾌ","kana_city":"ｷｮｳﾄｼｶﾐｷﾞｮｳｸ","kana_address":"ﾀﾞｲｺｸﾁｮｳ","pref":"京都府","city":"京都市上京区","address":"大黒町"},
{"zip_code":"6028137","kana_pref":"ｷｮｳﾄﾌ","kana_city":"ｷｮｳﾄｼｶﾐｷﾞｮｳｸ","kana_address":"ﾀﾞｲｺｸﾁｮｳ","pref":"京都府","city":"京都市上京区","address":"大黒町"},
{"zip_code":"6028055","kana_pref":"ｷｮｳﾄﾌ","kana_city":"ｷｮｳﾄｼｶﾐｷﾞｮｳｸ","kana_address":"ﾀﾞｲｺｸﾔﾁｮｳ","pref":"京都府","city":"京都市上京区","address":"大黒屋町"},
{"zip_code":"6020003","kana_pref":"ｷｮｳﾄﾌ","kana_city":"ｷｮｳﾄｼｶﾐｷﾞｮｳｸ","kana_address":"ﾀﾞｲｼﾝｲﾝﾁｮｳ","pref":"京都府","city":"京都市上京区","address":"大心院町"},
{"zip_code":"6028455","kana_pref":"ｷｮｳﾄﾌ","kana_city":"ｷｮｳﾄｼｶﾐｷﾞｮｳｸ","kana_address":"ﾀｲﾄﾞｳｶﾀﾊﾗﾁｮｳ","pref":"京都府","city":"京都市上京区","address":"泰童片原町"},
{"zip_code":"6028298","kana_pref":"ｷｮｳﾄﾌ","kana_city":"ｷｮｳﾄｼｶﾐｷﾞｮｳｸ","kana_address":"ﾀｲﾄﾞｳﾁｮｳ","pref":"京都府","city":"京都市上京区","address":"泰童町"},
{"zip_code":"6028323","kana_pref":"ｷｮｳﾄﾌ","kana_city":"ｷｮｳﾄｼｶﾐｷﾞｮｳｸ","kana_address":"ﾀﾞｲﾓﾝｼﾞﾁｮｳ","pref":"京都府","city":"京都市上京区","address":"大文字町"},
{"zip_code":"6028024","kana_pref":"ｷｮｳﾄﾌ","kana_city":"ｷｮｳﾄｼｶﾐｷﾞｮｳｸ","kana_address":"ﾀﾞｲﾓﾝﾁｮｳ","pref":"京都府","city":"京都市上京区","address":"大門町"},
{"zip_code":"6020878","kana_pref":"ｷｮｳﾄﾌ","kana_city":"ｷｮｳﾄｼｶﾐｷﾞｮｳｸ","kana_address":"ﾀｶｼﾏﾁｮｳ","pref":"京都府","city":"京都市上京区","address":"高島町"},
{"zip_code":"6028052","kana_pref":"ｷｮｳﾄﾌ","kana_city":"ｷｮｳﾄｼｶﾐｷﾞｮｳｸ","kana_address":"ﾀｶﾂｶｻﾁｮｳ","pref":"京都府","city":"京都市上京区","address":"鷹司町"},
{"zip_code":"6028002","kana_pref":"ｷｮｳﾄﾌ","kana_city":"ｷｮｳﾄｼｶﾐｷﾞｮｳｸ","kana_address":"ﾀｶﾂｶｻﾁｮｳ","pref":"京都府","city":"京都市上京区","address":"鷹司町"},
{"zip_code":"6028336","kana_pref":"ｷｮｳﾄﾌ","kana_city":"ｷｮｳﾄｼｶﾐｷﾞｮｳｸ","kana_address":"ﾀｷｶﾞﾊﾅﾁｮｳ","pref":"京都府","city":"京都市上京区","address":"滝ケ鼻町"},
{"zip_code":"6020001","kana_pref":"ｷｮｳﾄﾌ","kana_city":"ｷｮｳﾄｼｶﾐｷﾞｮｳｸ","kana_address":"ﾀｹｿﾞﾉﾁｮｳ","pref":"京都府","city":"京都市上京区","address":"竹園町"},
{"zip_code":"6020067","kana_pref":"ｷｮｳﾄﾌ","kana_city":"ｷｮｳﾄｼｶﾐｷﾞｮｳｸ","kana_address":"ﾀｹﾔﾁｮｳ","pref":"京都府","city":"京都市上京区","address":"竹屋町"},
{"zip_code":"6028209","kana_pref":"ｷｮｳﾄﾌ","kana_city":"ｷｮｳﾄｼｶﾐｷﾞｮｳｸ","kana_address":"ﾀﾁﾊﾞﾅﾁｮｳ","pref":"京都府","city":"京都市上京区","address":"橘町"},
{"zip_code":"6020912","kana_pref":"ｷｮｳﾄﾌ","kana_city":"ｷｮｳﾄｼｶﾐｷﾞｮｳｸ","kana_address":"ﾀﾂﾏｴﾁｮｳ","pref":"京都府","city":"京都市上京区","address":"龍前町"},
{"zip_code":"6028462","kana_pref":"ｷｮｳﾄﾌ","kana_city":"ｷｮｳﾄｼｶﾐｷﾞｮｳｸ","kana_address":"ﾀﾃｶﾒﾔﾁｮｳ","pref":"京都府","city":"京都市上京区","address":"竪亀屋町"},
{"zip_code":"6028228","kana_pref":"ｷｮｳﾄﾌ","kana_city":"ｷｮｳﾄｼｶﾐｷﾞｮｳｸ","kana_address":"ﾀﾃｼﾝﾒｲﾁｮｳ","pref":"京都府","city":"京都市上京区","address":"竪神明町"},
{"zip_code":"6020955","kana_pref":"ｷｮｳﾄﾌ","kana_city":"ｷｮｳﾄｼｶﾐｷﾞｮｳｸ","kana_address":"ﾀﾃﾄﾐﾀﾞﾁｮｳ","pref":"京都府","city":"京都市上京区","address":"竪富田町"},
{"zip_code":"6028216","kana_pref":"ｷｮｳﾄﾌ","kana_city":"ｷｮｳﾄｼｶﾐｷﾞｮｳｸ","kana_address":"ﾀﾃﾓﾝｾﾞﾝﾁｮｳ","pref":"京都府","city":"京都市上京区","address":"竪門前町"},
{"zip_code":"6020098","kana_pref":"ｷｮｳﾄﾌ","kana_city":"ｷｮｳﾄｼｶﾐｷﾞｮｳｸ","kana_address":"ﾀﾃﾔｼﾛｷﾀﾊﾝﾁｮｳ","pref":"京都府","city":"京都市上京区","address":"竪社北半町"},
{"zip_code":"6020099","kana_pref":"ｷｮｳﾄﾌ","kana_city":"ｷｮｳﾄｼｶﾐｷﾞｮｳｸ","kana_address":"ﾀﾃﾔｼﾛﾐﾅﾐﾊﾝﾁｮｳ","pref":"京都府","city":"京都市上京区","address":"竪社南半町"},
{"zip_code":"6028163","kana_pref":"ｷｮｳﾄﾌ","kana_city":"ｷｮｳﾄｼｶﾐｷﾞｮｳｸ","kana_address":"ﾀﾅｶﾁｮｳ","pref":"京都府","city":"京都市上京区","address":"田中町"},
{"zip_code":"6028402","kana_pref":"ｷｮｳﾄﾌ","kana_city":"ｷｮｳﾄｼｶﾐｷﾞｮｳｸ","kana_address":"ﾀﾊﾞﾀﾁｮｳ","pref":"京都府","city":"京都市上京区","address":"田畑町"},
{"zip_code":"6028286","kana_pref":"ｷｮｳﾄﾌ","kana_city":"ｷｮｳﾄｼｶﾐｷﾞｮｳｸ","kana_address":"ﾀﾏﾔﾁｮｳ","pref":"京都府","city":"京都市上京区","address":"玉屋町"},
{"zip_code":"6028322","kana_pref":"ｷｮｳﾄﾌ","kana_city":"ｷｮｳﾄｼｶﾐｷﾞｮｳｸ","kana_address":"ﾀﾏﾔﾁｮｳ","pref":"京都府","city":"京都市上京区","address":"玉屋町"},
{"zip_code":"6028288","kana_pref":"ｷｮｳﾄﾌ","kana_city":"ｷｮｳﾄｼｶﾐｷﾞｮｳｸ","kana_address":"ﾀﾏﾙﾁｮｳ","pref":"京都府","city":"京都市上京区","address":"田丸町"},
{"zip_code":"6028177","kana_pref":"ｷｮｳﾄﾌ","kana_city":"ｷｮｳﾄｼｶﾐｷﾞｮｳｸ","kana_address":"ﾀﾑﾗﾋﾞｾﾞﾝﾁｮｳ","pref":"京都府","city":"京都市上京区","address":"田村備前町"},
{"zip_code":"6028261","kana_pref":"ｷｮｳﾄﾌ","kana_city":"ｷｮｳﾄｼｶﾐｷﾞｮｳｸ","kana_address":"ﾀﾓﾝﾁｮｳ","pref":"京都府","city":"京都市上京区","address":"多門町"},
{"zip_code":"6020871","kana_pref":"ｷｮｳﾄﾌ","kana_city":"ｷｮｳﾄｼｶﾐｷﾞｮｳｸ","kana_address":"ﾀﾜﾗﾔﾁｮｳ","pref":"京都府","city":"京都市上京区","address":"俵屋町"},
{"zip_code":"6028224","kana_pref":"ｷｮｳﾄﾌ","kana_city":"ｷｮｳﾄｼｶﾐｷﾞｮｳｸ","kana_address":"ﾀﾞﾝｼﾞｮｳﾁｮｳ","pref":"京都府","city":"京都市上京区","address":"弾正町"},
{"zip_code":"6028287","kana_pref":"ｷｮｳﾄﾌ","kana_city":"ｷｮｳﾄｼｶﾐｷﾞｮｳｸ","kana_address":"ﾀﾝﾊﾞﾔﾁｮｳ","pref":"京都府","city":"京都市上京区","address":"丹波屋町"},
{"zip_code":"6028208","kana_pref":"ｷｮｳﾄﾌ","kana_city":"ｷｮｳﾄｼｶﾐｷﾞｮｳｸ","kana_address":"ﾁｴｺｳｲﾝﾏｴﾉﾁｮｳ","pref":"京都府","city":"京都市上京区","address":"智恵光院前之町"},
{"zip_code":"6028053","kana_pref":"ｷｮｳﾄﾌ","kana_city":"ｷｮｳﾄｼｶﾐｷﾞｮｳｸ","kana_address":"ﾁｬﾔﾏﾁ","pref":"京都府","city":"京都市上京区","address":"茶屋町"},
{"zip_code":"6028126","kana_pref":"ｷｮｳﾄﾌ","kana_city":"ｷｮｳﾄｼｶﾐｷﾞｮｳｸ","kana_address":"ﾁｭｳｼｮﾁｮｳ","pref":"京都府","city":"京都市上京区","address":"中書町"},
{"zip_code":"6028054","kana_pref":"ｷｮｳﾄﾌ","kana_city":"ｷｮｳﾄｼｶﾐｷﾞｮｳｸ","kana_address":"ﾁｮｳｼﾞﾌﾞﾛﾁｮｳ","pref":"京都府","city":"京都市上京区","address":"丁子風呂町"},
{"zip_code":"6028315","kana_pref":"ｷｮｳﾄﾌ","kana_city":"ｷｮｳﾄｼｶﾐｷﾞｮｳｸ","kana_address":"ﾂｷﾇｹﾁｮｳ","pref":"京都府","city":"京都市上京区","address":"突抜町"},
{"zip_code":"6028065","kana_pref":"ｷｮｳﾄﾌ","kana_city":"ｷｮｳﾄｼｶﾐｷﾞｮｳｸ","kana_address":"ﾂｷﾇｹﾁｮｳ","pref":"京都府","city":"京都市上京区","address":"突抜町"},
{"zip_code":"6028364","kana_pref":"ｷｮｳﾄﾌ","kana_city":"ｷｮｳﾄｼｶﾐｷﾞｮｳｸ","kana_address":"ﾂｷﾇｹﾁｮｳ(ｼﾓﾀﾞﾁｳﾘﾄﾞｵﾘｵﾝﾏｴﾆｼｲﾙ","pref":"京都府","city":"京都市上京区","address":"突抜町（下立売通御前西入"},
{"zip_code":"6028364","kana_pref":"ｷｮｳﾄﾌ","kana_city":"ｷｮｳﾄｼｶﾐｷﾞｮｳｸ","kana_address":"ｼﾓﾀﾞﾁｳﾘﾄﾞｵﾘｵﾝﾏｴﾆｼｲﾙｻｶﾞﾙ","pref":"京都府","city":"京都市上京区","address":"下立売通御前西入下る"},
{"zip_code":"6028364","kana_pref":"ｷｮｳﾄﾌ","kana_city":"ｷｮｳﾄｼｶﾐｷﾞｮｳｸ","kana_address":"ｼﾓﾀﾞﾁｳﾘﾄﾞｵﾘﾃﾝ","pref":"京都府","city":"京都市上京区","address":"下立売通天"},
{"zip_code":"6028364","kana_pref":"ｷｮｳﾄﾌ","kana_city":"ｷｮｳﾄｼｶﾐｷﾞｮｳｸ","kana_address":"ｼﾞﾝﾐﾁﾋｶﾞｼｲﾙ","pref":"京都府","city":"京都市上京区","address":"神道東入"},
{"zip_code":"6028364","kana_pref":"ｷｮｳﾄﾌ","kana_city":"ｷｮｳﾄｼｶﾐｷﾞｮｳｸ","kana_address":"ｼﾓﾉｼﾓﾀﾞﾁｳﾘﾄﾞｵﾘｵﾝﾏｴﾆｼｲﾙ)","pref":"京都府","city":"京都市上京区","address":"下の下立売通御前西入）"},
{"zip_code":"6020038","kana_pref":"ｷｮｳﾄﾌ","kana_city":"ｷｮｳﾄｼｶﾐｷﾞｮｳｸ","kana_address":"ﾂｷﾔﾏｷﾀﾊﾝﾁｮｳ","pref":"京都府","city":"京都市上京区","address":"築山北半町"},
{"zip_code":"6020034","kana_pref":"ｷｮｳﾄﾌ","kana_city":"ｷｮｳﾄｼｶﾐｷﾞｮｳｸ","kana_address":"ﾂｷﾔﾏﾐﾅﾐﾊﾝﾁｮｳ","pref":"京都府","city":"京都市上京区","address":"築山南半町"},
{"zip_code":"6028427","kana_pref":"ｷｮｳﾄﾌ","kana_city":"ｷｮｳﾄｼｶﾐｷﾞｮｳｸ","kana_address":"ﾂﾁﾀﾞﾁｮｳ","pref":"京都府","city":"京都市上京区","address":"土田町"},
{"zip_code":"6028077","kana_pref":"ｷｮｳﾄﾌ","kana_city":"ｷｮｳﾄｼｶﾐｷﾞｮｳｸ","kana_address":"ﾂﾁﾐｶﾄﾞﾁｮｳ","pref":"京都府","city":"京都市上京区","address":"土御門町"},
{"zip_code":"6020802","kana_pref":"ｷｮｳﾄﾌ","kana_city":"ｷｮｳﾄｼｶﾐｷﾞｮｳｸ","kana_address":"ﾂﾙﾔﾏﾁｮｳ","pref":"京都府","city":"京都市上京区","address":"鶴山町"},
{"zip_code":"6020862","kana_pref":"ｷｮｳﾄﾌ","kana_city":"ｷｮｳﾄｼｶﾐｷﾞｮｳｸ","kana_address":"ﾃﾞﾐｽﾞﾁｮｳ","pref":"京都府","city":"京都市上京区","address":"出水町"},
{"zip_code":"6028215","kana_pref":"ｷｮｳﾄﾌ","kana_city":"ｷｮｳﾄｼｶﾐｷﾞｮｳｸ","kana_address":"ﾃﾗｲﾏﾁｮｳ","pref":"京都府","city":"京都市上京区","address":"寺今町"},
{"zip_code":"6020073","kana_pref":"ｷｮｳﾄﾌ","kana_city":"ｷｮｳﾄｼｶﾐｷﾞｮｳｸ","kana_address":"ﾃﾗﾉｳﾁﾀﾃﾁｮｳ","pref":"京都府","city":"京都市上京区","address":"寺之内竪町"},
{"zip_code":"6020087","kana_pref":"ｷｮｳﾄﾌ","kana_city":"ｷｮｳﾄｼｶﾐｷﾞｮｳｸ","kana_address":"ﾃﾝｼﾞﾝｷﾀﾏﾁ","pref":"京都府","city":"京都市上京区","address":"天神北町"},
{"zip_code":"6028105","kana_pref":"ｷｮｳﾄﾌ","kana_city":"ｷｮｳﾄｼｶﾐｷﾞｮｳｸ","kana_address":"ﾃﾝﾋﾞﾝﾁｮｳ","pref":"京都府","city":"京都市上京区","address":"天秤町"},
{"zip_code":"6028172","kana_pref":"ｷｮｳﾄﾌ","kana_city":"ｷｮｳﾄｼｶﾐｷﾞｮｳｸ","kana_address":"ﾃﾝﾋﾞﾝﾏﾙﾁｮｳ","pref":"京都府","city":"京都市上京区","address":"天秤丸町"},
{"zip_code":"6028355","kana_pref":"ｷｮｳﾄﾌ","kana_city":"ｷｮｳﾄｼｶﾐｷﾞｮｳｸ","kana_address":"ﾃﾝﾏﾔﾁｮｳ","pref":"京都府","city":"京都市上京区","address":"天満屋町"},
{"zip_code":"6028254","kana_pref":"ｷｮｳﾄﾌ","kana_city":"ｷｮｳﾄｼｶﾐｷﾞｮｳｸ","kana_address":"ﾄｳｺﾞﾛｳﾁｮｳ","pref":"京都府","city":"京都市上京区","address":"藤五郎町"},
{"zip_code":"6028294","kana_pref":"ｷｮｳﾄﾌ","kana_city":"ｷｮｳﾄｼｶﾐｷﾞｮｳｸ","kana_address":"ﾄｳｻﾞｲﾀﾜﾗﾔﾁｮｳ","pref":"京都府","city":"京都市上京区","address":"東西俵屋町"},
{"zip_code":"6028411","kana_pref":"ｷｮｳﾄﾌ","kana_city":"ｷｮｳﾄｼｶﾐｷﾞｮｳｸ","kana_address":"ﾄｳｻﾞｲﾁｮｳ","pref":"京都府","city":"京都市上京区","address":"東西町"},
{"zip_code":"6020004","kana_pref":"ｷｮｳﾄﾌ","kana_city":"ｷｮｳﾄｼｶﾐｷﾞｮｳｸ","kana_address":"ﾄﾞｳｼｮｳﾁｮｳ","pref":"京都府","city":"京都市上京区","address":"道正町"},
{"zip_code":"6020937","kana_pref":"ｷｮｳﾄﾌ","kana_city":"ｷｮｳﾄｼｶﾐｷﾞｮｳｸ","kana_address":"ﾄｷﾜｲｽﾞｼﾁｮｳ","pref":"京都府","city":"京都市上京区","address":"常盤井図子町"},
{"zip_code":"6020836","kana_pref":"ｷｮｳﾄﾌ","kana_city":"ｷｮｳﾄｼｶﾐｷﾞｮｳｸ","kana_address":"ﾄｷﾜｲﾄﾞﾉﾁｮｳ","pref":"京都府","city":"京都市上京区","address":"常盤井殿町"},
{"zip_code":"6020932","kana_pref":"ｷｮｳﾄﾌ","kana_city":"ｷｮｳﾄｼｶﾐｷﾞｮｳｸ","kana_address":"ﾄｸﾀﾞｲｼﾞﾃﾞﾝﾁｮｳ","pref":"京都府","city":"京都市上京区","address":"徳大寺殿町"},
{"zip_code":"6028213","kana_pref":"ｷｮｳﾄﾌ","kana_city":"ｷｮｳﾄｼｶﾐｷﾞｮｳｸ","kana_address":"ﾄｸﾔﾁｮｳ","pref":"京都府","city":"京都市上京区","address":"徳屋町"},
{"zip_code":"6020072","kana_pref":"ｷｮｳﾄﾌ","kana_city":"ｷｮｳﾄｼｶﾐｷﾞｮｳｸ","kana_address":"ﾄﾞﾄﾞﾁｮｳ","pref":"京都府","city":"京都市上京区","address":"百々町"},
{"zip_code":"6028218","kana_pref":"ｷｮｳﾄﾌ","kana_city":"ｷｮｳﾄｼｶﾐｷﾞｮｳｸ","kana_address":"ﾄﾐｺｳｼﾞﾁｮｳ","pref":"京都府","city":"京都市上京区","address":"富小路町"},
{"zip_code":"6028393","kana_pref":"ｷｮｳﾄﾌ","kana_city":"ｷｮｳﾄｼｶﾐｷﾞｮｳｸ","kana_address":"ﾄﾘｲﾏｴﾁｮｳ","pref":"京都府","city":"京都市上京区","address":"鳥居前町"},
{"zip_code":"6020063","kana_pref":"ｷｮｳﾄﾌ","kana_city":"ｷｮｳﾄｼｶﾐｷﾞｮｳｸ","kana_address":"ﾅｲﾄｳﾁｮｳ","pref":"京都府","city":"京都市上京区","address":"内藤町"},
{"zip_code":"6028147","kana_pref":"ｷｮｳﾄﾌ","kana_city":"ｷｮｳﾄｼｶﾐｷﾞｮｳｸ","kana_address":"ﾅｵｲｴﾁｮｳ","pref":"京都府","city":"京都市上京区","address":"直家町"},
{"zip_code":"6028493","kana_pref":"ｷｮｳﾄﾌ","kana_city":"ｷｮｳﾄｼｶﾐｷﾞｮｳｸ","kana_address":"ﾅｶｲﾉｸﾏﾁｮｳ","pref":"京都府","city":"京都市上京区","address":"中猪熊町"},
{"zip_code":"6020053","kana_pref":"ｷｮｳﾄﾌ","kana_city":"ｷｮｳﾄｼｶﾐｷﾞｮｳｸ","kana_address":"ﾅｶｵｶﾞﾜﾁｮｳ","pref":"京都府","city":"京都市上京区","address":"中小川町"},
{"zip_code":"6028131","kana_pref":"ｷｮｳﾄﾌ","kana_city":"ｷｮｳﾄｼｶﾐｷﾞｮｳｸ","kana_address":"ﾅｶﾞｵﾁｮｳ","pref":"京都府","city":"京都市上京区","address":"長尾町"},
{"zip_code":"6020041","kana_pref":"ｷｮｳﾄﾌ","kana_city":"ｷｮｳﾄｼｶﾐｷﾞｮｳｸ","kana_address":"ﾅｶｺﾞﾘｮｳｽﾞｼﾁｮｳ","pref":"京都府","city":"京都市上京区","address":"中御霊図子町"},
{"zip_code":"6028283","kana_pref":"ｷｮｳﾄﾌ","kana_city":"ｷｮｳﾄｼｶﾐｷﾞｮｳｸ","kana_address":"ﾅｶｺﾞﾘｮｳﾁｮｳ","pref":"京都府","city":"京都市上京区","address":"仲御霊町"},
{"zip_code":"6020857","kana_pref":"ｷｮｳﾄﾌ","kana_city":"ｷｮｳﾄｼｶﾐｷﾞｮｳｸ","kana_address":"ﾅｶｺﾞﾘｮｳﾁｮｳ","pref":"京都府","city":"京都市上京区","address":"中御霊町"},
{"zip_code":"6028158","kana_pref":"ｷｮｳﾄﾌ","kana_city":"ｷｮｳﾄｼｶﾐｷﾞｮｳｸ","kana_address":"ﾅｶﾂｶｻﾁｮｳ","pref":"京都府","city":"京都市上京区","address":"中務町"},
{"zip_code":"6028012","kana_pref":"ｷｮｳﾄﾌ","kana_city":"ｷｮｳﾄｼｶﾐｷﾞｮｳｸ","kana_address":"ﾅｶﾃﾞﾐｽﾞﾁｮｳ","pref":"京都府","city":"京都市上京区","address":"中出水町"},
{"zip_code":"6028353","kana_pref":"ｷｮｳﾄﾌ","kana_city":"ｷｮｳﾄｼｶﾐｷﾞｮｳｸ","kana_address":"ﾅｶﾞﾄﾁｮｳ","pref":"京都府","city":"京都市上京区","address":"長門町"},
{"zip_code":"6028143","kana_pref":"ｷｮｳﾄﾌ","kana_city":"ｷｮｳﾄｼｶﾐｷﾞｮｳｸ","kana_address":"ﾅｶﾉﾁｮｳ","pref":"京都府","city":"京都市上京区","address":"中之町"},
{"zip_code":"6020864","kana_pref":"ｷｮｳﾄﾌ","kana_city":"ｷｮｳﾄｼｶﾐｷﾞｮｳｸ","kana_address":"ﾅｶﾉﾁｮｳ","pref":"京都府","city":"京都市上京区","address":"中之町"},
{"zip_code":"6020093","kana_pref":"ｷｮｳﾄﾌ","kana_city":"ｷｮｳﾄｼｶﾐｷﾞｮｳｸ","kana_address":"ﾅｶﾉﾁｮｳ","pref":"京都府","city":"京都市上京区","address":"仲之町（大宮通上御霊前上る"},
{"zip_code":"6020093","kana_pref":"ｷｮｳﾄﾌ","kana_city":"ｷｮｳﾄｼｶﾐｷﾞｮｳｸ","kana_address":"ﾅｶﾉﾁｮｳ","pref":"京都府","city":"京都市上京区","address":"大宮通上御霊前下る"},
{"zip_code":"6020093","kana_pref":"ｷｮｳﾄﾌ","kana_city":"ｷｮｳﾄｼｶﾐｷﾞｮｳｸ","kana_address":"ﾅｶﾉﾁｮｳ","pref":"京都府","city":"京都市上京区","address":"大宮通蘆山寺"},
{"zip_code":"6020093","kana_pref":"ｷｮｳﾄﾌ","kana_city":"ｷｮｳﾄｼｶﾐｷﾞｮｳｸ","kana_address":"ﾅｶﾉﾁｮｳ","pref":"京都府","city":"京都市上京区","address":"上る"},
{"zip_code":"6020093","kana_pref":"ｷｮｳﾄﾌ","kana_city":"ｷｮｳﾄｼｶﾐｷﾞｮｳｸ","kana_address":"ﾅｶﾉﾁｮｳ","pref":"京都府","city":"京都市上京区","address":"大宮通寺之内上る"},
{"zip_code":"6020093","kana_pref":"ｷｮｳﾄﾌ","kana_city":"ｷｮｳﾄｼｶﾐｷﾞｮｳｸ","kana_address":"ﾅｶﾉﾁｮｳ","pref":"京都府","city":"京都市上京区","address":"大宮通寺之内上る２丁目"},
{"zip_code":"6020093","kana_pref":"ｷｮｳﾄﾌ","kana_city":"ｷｮｳﾄｼｶﾐｷﾞｮｳｸ","kana_address":"ﾅｶﾉﾁｮｳ","pref":"京都府","city":"京都市上京区","address":"上御霊前通大宮西入"},
{"zip_code":"6020093","kana_pref":"ｷｮｳﾄﾌ","kana_city":"ｷｮｳﾄｼｶﾐｷﾞｮｳｸ","kana_address":"ﾅｶﾉﾁｮｳ","pref":"京都府","city":"京都市上京区","address":"上御"},
{"zip_code":"6020093","kana_pref":"ｷｮｳﾄﾌ","kana_city":"ｷｮｳﾄｼｶﾐｷﾞｮｳｸ","kana_address":"ﾅｶﾉﾁｮｳ","pref":"京都府","city":"京都市上京区","address":"霊前通大宮東入"},
{"zip_code":"6020093","kana_pref":"ｷｮｳﾄﾌ","kana_city":"ｷｮｳﾄｼｶﾐｷﾞｮｳｸ","kana_address":"ﾅｶﾉﾁｮｳ","pref":"京都府","city":"京都市上京区","address":"蘆山寺通大宮西入）"},
{"zip_code":"6028362","kana_pref":"ｷｮｳﾄﾌ","kana_city":"ｷｮｳﾄｼｶﾐｷﾞｮｳｸ","kana_address":"ﾅｶﾉﾁｮｳ","pref":"京都府","city":"京都市上京区","address":"仲之町（御前通上の下立売上る"},
{"zip_code":"6028362","kana_pref":"ｷｮｳﾄﾌ","kana_city":"ｷｮｳﾄｼｶﾐｷﾞｮｳｸ","kana_address":"ﾅｶﾉﾁｮｳ","pref":"京都府","city":"京都市上京区","address":"御前通上の下立売上る東入"},
{"zip_code":"6028362","kana_pref":"ｷｮｳﾄﾌ","kana_city":"ｷｮｳﾄｼｶﾐｷﾞｮｳｸ","kana_address":"ﾅｶﾉﾁｮｳ","pref":"京都府","city":"京都市上京区","address":"御前"},
{"zip_code":"6028362","kana_pref":"ｷｮｳﾄﾌ","kana_city":"ｷｮｳﾄｼｶﾐｷﾞｮｳｸ","kana_address":"ﾅｶﾉﾁｮｳ","pref":"京都府","city":"京都市上京区","address":"通上の下立売上る２丁目"},
{"zip_code":"6028362","kana_pref":"ｷｮｳﾄﾌ","kana_city":"ｷｮｳﾄｼｶﾐｷﾞｮｳｸ","kana_address":"ﾅｶﾉﾁｮｳ","pref":"京都府","city":"京都市上京区","address":"御前通下立売上る"},
{"zip_code":"6028362","kana_pref":"ｷｮｳﾄﾌ","kana_city":"ｷｮｳﾄｼｶﾐｷﾞｮｳｸ","kana_address":"ﾅｶﾉﾁｮｳ","pref":"京都府","city":"京都市上京区","address":"御前通下立売上る２丁目"},
{"zip_code":"6028362","kana_pref":"ｷｮｳﾄﾌ","kana_city":"ｷｮｳﾄｼｶﾐｷﾞｮｳｸ","kana_address":"ﾅｶﾉﾁｮｳ","pref":"京都府","city":"京都市上京区","address":"御前通"},
{"zip_code":"6028362","kana_pref":"ｷｮｳﾄﾌ","kana_city":"ｷｮｳﾄｼｶﾐｷﾞｮｳｸ","kana_address":"ﾅｶﾉﾁｮｳ","pref":"京都府","city":"京都市上京区","address":"下立売上る２丁目西入"},
{"zip_code":"6028362","kana_pref":"ｷｮｳﾄﾌ","kana_city":"ｷｮｳﾄｼｶﾐｷﾞｮｳｸ","kana_address":"ﾅｶﾉﾁｮｳ","pref":"京都府","city":"京都市上京区","address":"御前通下立売上る東入"},
{"zip_code":"6028362","kana_pref":"ｷｮｳﾄﾌ","kana_city":"ｷｮｳﾄｼｶﾐｷﾞｮｳｸ","kana_address":"ﾅｶﾉﾁｮｳ","pref":"京都府","city":"京都市上京区","address":"下ノ森通下立売上る"},
{"zip_code":"6028362","kana_pref":"ｷｮｳﾄﾌ","kana_city":"ｷｮｳﾄｼｶﾐｷﾞｮｳｸ","kana_address":"ﾅｶﾉﾁｮｳ","pref":"京都府","city":"京都市上京区","address":"下ノ森通"},
{"zip_code":"6028362","kana_pref":"ｷｮｳﾄﾌ","kana_city":"ｷｮｳﾄｼｶﾐｷﾞｮｳｸ","kana_address":"ﾅｶﾉﾁｮｳ","pref":"京都府","city":"京都市上京区","address":"下立売上る西入"},
{"zip_code":"6028362","kana_pref":"ｷｮｳﾄﾌ","kana_city":"ｷｮｳﾄｼｶﾐｷﾞｮｳｸ","kana_address":"ﾅｶﾉﾁｮｳ","pref":"京都府","city":"京都市上京区","address":"上の下立売通御前西入上る）"},
{"zip_code":"6028072","kana_pref":"ｷｮｳﾄﾌ","kana_city":"ｷｮｳﾄｼｶﾐｷﾞｮｳｸ","kana_address":"ﾅｶﾉﾁｮｳ","pref":"京都府","city":"京都市上京区","address":"仲之町"},
{"zip_code":"6020958","kana_pref":"ｷｮｳﾄﾌ","kana_city":"ｷｮｳﾄｼｶﾐｷﾞｮｳｸ","kana_address":"ﾅｶﾉﾁｮｳ","pref":"京都府","city":"京都市上京区","address":"仲之町"},
{"zip_code":"6028051","kana_pref":"ｷｮｳﾄﾌ","kana_city":"ｷｮｳﾄｼｶﾐｷﾞｮｳｸ","kana_address":"ﾅｶﾊｼﾂﾞﾒﾁｮｳ","pref":"京都府","city":"京都市上京区","address":"中橋詰町"},
{"zip_code":"6028136","kana_pref":"ｷｮｳﾄﾌ","kana_city":"ｷｮｳﾄｼｶﾐｷﾞｮｳｸ","kana_address":"ﾅｶﾐｶﾄﾞﾖｺﾁｮｳ","pref":"京都府","city":"京都市上京区","address":"中御門横町"},
{"zip_code":"6028469","kana_pref":"ｷｮｳﾄﾌ","kana_city":"ｷｮｳﾄｼｶﾐｷﾞｮｳｸ","kana_address":"ﾅｶﾐﾔﾁｮｳ","pref":"京都府","city":"京都市上京区","address":"中宮町"},
{"zip_code":"6028175","kana_pref":"ｷｮｳﾄﾌ","kana_city":"ｷｮｳﾄｼｶﾐｷﾞｮｳｸ","kana_address":"ﾅｶﾑﾗﾁｮｳ","pref":"京都府","city":"京都市上京区","address":"中村町"},
{"zip_code":"6028403","kana_pref":"ｷｮｳﾄﾌ","kana_city":"ｷｮｳﾄｼｶﾐｷﾞｮｳｸ","kana_address":"ﾅｶﾔｼﾛﾁｮｳ","pref":"京都府","city":"京都市上京区","address":"中社町"},
{"zip_code":"6028237","kana_pref":"ｷｮｳﾄﾌ","kana_city":"ｷｮｳﾄｼｶﾐｷﾞｮｳｸ","kana_address":"ﾅｼﾉｷﾁｮｳ","pref":"京都府","city":"京都市上京区","address":"梨木町"},
{"zip_code":"6020028","kana_pref":"ｷｮｳﾄﾌ","kana_city":"ｷｮｳﾄｼｶﾐｷﾞｮｳｸ","kana_address":"ﾅﾔﾁｮｳ","pref":"京都府","city":"京都市上京区","address":"納屋町"},
{"zip_code":"6028243","kana_pref":"ｷｮｳﾄﾌ","kana_city":"ｷｮｳﾄｼｶﾐｷﾞｮｳｸ","kana_address":"ﾅﾗﾓﾉﾁｮｳ","pref":"京都府","city":"京都市上京区","address":"奈良物町"},
{"zip_code":"6028437","kana_pref":"ｷｮｳﾄﾌ","kana_city":"ｷｮｳﾄｼｶﾐｷﾞｮｳｸ","kana_address":"ﾆｼｲｼﾔﾁｮｳ","pref":"京都府","city":"京都市上京区","address":"西石屋町"},
{"zip_code":"6028306","kana_pref":"ｷｮｳﾄﾌ","kana_city":"ｷｮｳﾄｼｶﾐｷﾞｮｳｸ","kana_address":"ﾆｼｲﾂﾂｼﾞｷﾀﾁｮｳ","pref":"京都府","city":"京都市上京区","address":"西五辻北町"},
{"zip_code":"6028478","kana_pref":"ｷｮｳﾄﾌ","kana_city":"ｷｮｳﾄｼｶﾐｷﾞｮｳｸ","kana_address":"ﾆｼｲﾂﾂｼﾞﾋｶﾞｼﾏﾁ","pref":"京都府","city":"京都市上京区","address":"西五辻東町"},
{"zip_code":"6028383","kana_pref":"ｷｮｳﾄﾌ","kana_city":"ｷｮｳﾄｼｶﾐｷﾞｮｳｸ","kana_address":"ﾆｼｲﾏｺｳｼﾞﾁｮｳ","pref":"京都府","city":"京都市上京区","address":"西今小路町"},
{"zip_code":"6020957","kana_pref":"ｷｮｳﾄﾌ","kana_city":"ｷｮｳﾄｼｶﾐｷﾞｮｳｸ","kana_address":"ﾆｼｲﾏﾁｮｳ","pref":"京都府","city":"京都市上京区","address":"西今町"},
{"zip_code":"6028334","kana_pref":"ｷｮｳﾄﾌ","kana_city":"ｷｮｳﾄｼｶﾐｷﾞｮｳｸ","kana_address":"ﾆｼｲﾏﾃﾞｶﾞﾜﾁｮｳ","pref":"京都府","city":"京都市上京区","address":"西今出川町"},
{"zip_code":"6028042","kana_pref":"ｷｮｳﾄﾌ","kana_city":"ｷｮｳﾄｼｶﾐｷﾞｮｳｸ","kana_address":"ﾆｼｳﾗﾂｼﾞﾁｮｳ","pref":"京都府","city":"京都市上京区","address":"西裏辻町"},
{"zip_code":"6020046","kana_pref":"ｷｮｳﾄﾌ","kana_city":"ｷｮｳﾄｼｶﾐｷﾞｮｳｸ","kana_address":"ﾆｼｵｵｼﾞﾁｮｳ","pref":"京都府","city":"京都市上京区","address":"西大路町"},
{"zip_code":"6028048","kana_pref":"ｷｮｳﾄﾌ","kana_city":"ｷｮｳﾄｼｶﾐｷﾞｮｳｸ","kana_address":"ﾆｼｵｵｼﾞﾁｮｳ","pref":"京都府","city":"京都市上京区","address":"西大路町"},
{"zip_code":"6028361","kana_pref":"ｷｮｳﾄﾌ","kana_city":"ｷｮｳﾄｼｶﾐｷﾞｮｳｸ","kana_address":"ﾆｼｶﾐﾉﾁｮｳ","pref":"京都府","city":"京都市上京区","address":"西上之町"},
{"zip_code":"6028467","kana_pref":"ｷｮｳﾄﾌ","kana_city":"ｷｮｳﾄｼｶﾐｷﾞｮｳｸ","kana_address":"ﾆｼｶﾒﾔﾁｮｳ","pref":"京都府","city":"京都市上京区","address":"西亀屋町"},
{"zip_code":"6020954","kana_pref":"ｷｮｳﾄﾌ","kana_city":"ｷｮｳﾄｼｶﾐｷﾞｮｳｸ","kana_address":"ﾆｼｶﾜﾊﾞﾀﾁｮｳ","pref":"京都府","city":"京都市上京区","address":"西川端町"},
{"zip_code":"6028414","kana_pref":"ｷｮｳﾄﾌ","kana_city":"ｷｮｳﾄｼｶﾐｷﾞｮｳｸ","kana_address":"ﾆｼｷﾀｺｳｼﾞﾁｮｳ","pref":"京都府","city":"京都市上京区","address":"西北小路町"},
{"zip_code":"6028444","kana_pref":"ｷｮｳﾄﾌ","kana_city":"ｷｮｳﾄｼｶﾐｷﾞｮｳｸ","kana_address":"ﾆｼｷﾀｺｳｼﾞﾁｮｳ","pref":"京都府","city":"京都市上京区","address":"西北小路町（今出川通浄福寺東入"},
{"zip_code":"6028444","kana_pref":"ｷｮｳﾄﾌ","kana_city":"ｷｮｳﾄｼｶﾐｷﾞｮｳｸ","kana_address":"ﾆｼｷﾀｺｳｼﾞﾁｮｳ","pref":"京都府","city":"京都市上京区","address":"今出川通智恵光院西入"},
{"zip_code":"6028444","kana_pref":"ｷｮｳﾄﾌ","kana_city":"ｷｮｳﾄｼｶﾐｷﾞｮｳｸ","kana_address":"ﾆｼｷﾀｺｳｼﾞﾁｮｳ","pref":"京都府","city":"京都市上京区","address":"今出川通智"},
{"zip_code":"6028444","kana_pref":"ｷｮｳﾄﾌ","kana_city":"ｷｮｳﾄｼｶﾐｷﾞｮｳｸ","kana_address":"ﾆｼｷﾀｺｳｼﾞﾁｮｳ","pref":"京都府","city":"京都市上京区","address":"恵光院東入"},
{"zip_code":"6028444","kana_pref":"ｷｮｳﾄﾌ","kana_city":"ｷｮｳﾄｼｶﾐｷﾞｮｳｸ","kana_address":"ﾆｼｷﾀｺｳｼﾞﾁｮｳ","pref":"京都府","city":"京都市上京区","address":"智恵光院通今出川上る"},
{"zip_code":"6028444","kana_pref":"ｷｮｳﾄﾌ","kana_city":"ｷｮｳﾄｼｶﾐｷﾞｮｳｸ","kana_address":"ﾆｼｷﾀｺｳｼﾞﾁｮｳ","pref":"京都府","city":"京都市上京区","address":"智恵光院通今出川下る"},
{"zip_code":"6028444","kana_pref":"ｷｮｳﾄﾌ","kana_city":"ｷｮｳﾄｼｶﾐｷﾞｮｳｸ","kana_address":"ﾆｼｷﾀｺｳｼﾞﾁｮｳ","pref":"京都府","city":"京都市上京区","address":"五辻通浄福寺"},
{"zip_code":"6028444","kana_pref":"ｷｮｳﾄﾌ","kana_city":"ｷｮｳﾄｼｶﾐｷﾞｮｳｸ","kana_address":"ﾆｼｷﾀｺｳｼﾞﾁｮｳ","pref":"京都府","city":"京都市上京区","address":"東入）"},
{"zip_code":"6028498","kana_pref":"ｷｮｳﾄﾌ","kana_city":"ｷｮｳﾄｼｶﾐｷﾞｮｳｸ","kana_address":"ﾆｼｸﾏﾁｮｳ","pref":"京都府","city":"京都市上京区","address":"西熊町"},
{"zip_code":"6028326","kana_pref":"ｷｮｳﾄﾌ","kana_city":"ｷｮｳﾄｼｶﾐｷﾞｮｳｸ","kana_address":"ﾆｼｼﾞｮｳｾﾞﾝｼﾞﾁｮｳ","pref":"京都府","city":"京都市上京区","address":"西上善寺町"},
{"zip_code":"6028169","kana_pref":"ｷｮｳﾄﾌ","kana_city":"ｷｮｳﾄｼｶﾐｷﾞｮｳｸ","kana_address":"ﾆｼｼﾝﾒｲﾁｮｳ","pref":"京都府","city":"京都市上京区","address":"西神明町"},
{"zip_code":"6028404","kana_pref":"ｷｮｳﾄﾌ","kana_city":"ｷｮｳﾄｼｶﾐｷﾞｮｳｸ","kana_address":"ﾆｼｾﾝﾎﾞﾝﾁｮｳ","pref":"京都府","city":"京都市上京区","address":"西千本町"},
{"zip_code":"6028004","kana_pref":"ｷｮｳﾄﾌ","kana_city":"ｷｮｳﾄｼｶﾐｷﾞｮｳｸ","kana_address":"ﾆｼﾀｶﾂｶｻﾁｮｳ","pref":"京都府","city":"京都市上京区","address":"西鷹司町"},
{"zip_code":"6028107","kana_pref":"ｷｮｳﾄﾌ","kana_city":"ｷｮｳﾄｼｶﾐｷﾞｮｳｸ","kana_address":"ﾆｼﾀﾂﾐﾁｮｳ","pref":"京都府","city":"京都市上京区","address":"西辰巳町"},
{"zip_code":"6028017","kana_pref":"ｷｮｳﾄﾌ","kana_city":"ｷｮｳﾄｼｶﾐｷﾞｮｳｸ","kana_address":"ﾆｼﾃﾞﾐｽﾞﾁｮｳ","pref":"京都府","city":"京都市上京区","address":"西出水町"},
{"zip_code":"6028109","kana_pref":"ｷｮｳﾄﾌ","kana_city":"ｷｮｳﾄｼｶﾐｷﾞｮｳｸ","kana_address":"ﾆｼﾃﾝﾋﾞﾝﾁｮｳ","pref":"京都府","city":"京都市上京区","address":"西天秤町"},
{"zip_code":"6028282","kana_pref":"ｷｮｳﾄﾌ","kana_city":"ｷｮｳﾄｼｶﾐｷﾞｮｳｸ","kana_address":"ﾆｼﾄﾐﾅｶﾁｮｳ","pref":"京都府","city":"京都市上京区","address":"西富仲町"},
{"zip_code":"6028285","kana_pref":"ｷｮｳﾄﾌ","kana_city":"ｷｮｳﾄｼｶﾐｷﾞｮｳｸ","kana_address":"ﾆｼﾅｶｽｼﾞﾁｮｳ","pref":"京都府","city":"京都市上京区","address":"西中筋町"},
{"zip_code":"6020925","kana_pref":"ｷｮｳﾄﾌ","kana_city":"ｷｮｳﾄｼｶﾐｷﾞｮｳｸ","kana_address":"ﾆｼﾉｸﾁﾁｮｳ","pref":"京都府","city":"京都市上京区","address":"西之口町"},
{"zip_code":"6028138","kana_pref":"ｷｮｳﾄﾌ","kana_city":"ｷｮｳﾄｼｶﾐｷﾞｮｳｸ","kana_address":"ﾆｼﾊｼﾂﾞﾒﾁｮｳ","pref":"京都府","city":"京都市上京区","address":"西橋詰町"},
{"zip_code":"6020916","kana_pref":"ｷｮｳﾄﾌ","kana_city":"ｷｮｳﾄｼｶﾐｷﾞｮｳｸ","kana_address":"ﾆｼﾋﾉﾄﾞﾉﾁｮｳ","pref":"京都府","city":"京都市上京区","address":"西日野殿町"},
{"zip_code":"6028434","kana_pref":"ｷｮｳﾄﾌ","kana_city":"ｷｮｳﾄｼｶﾐｷﾞｮｳｸ","kana_address":"ﾆｼﾌﾅﾊｼﾁｮｳ","pref":"京都府","city":"京都市上京区","address":"西船橋町"},
{"zip_code":"6028371","kana_pref":"ｷｮｳﾄﾌ","kana_city":"ｷｮｳﾄｼｶﾐｷﾞｮｳｸ","kana_address":"ﾆｼﾏﾁ","pref":"京都府","city":"京都市上京区","address":"西町"},
{"zip_code":"6028374","kana_pref":"ｷｮｳﾄﾌ","kana_city":"ｷｮｳﾄｼｶﾐｷﾞｮｳｸ","kana_address":"ﾆｼﾏﾁ","pref":"京都府","city":"京都市上京区","address":"西町（一条通御前西入"},
{"zip_code":"6028374","kana_pref":"ｷｮｳﾄﾌ","kana_city":"ｷｮｳﾄｼｶﾐｷﾞｮｳｸ","kana_address":"ﾆｼﾏﾁ","pref":"京都府","city":"京都市上京区","address":"一条通紙屋川東入"},
{"zip_code":"6028374","kana_pref":"ｷｮｳﾄﾌ","kana_city":"ｷｮｳﾄｼｶﾐｷﾞｮｳｸ","kana_address":"ﾆｼﾏﾁ","pref":"京都府","city":"京都市上京区","address":"一条通天神道西入"},
{"zip_code":"6028374","kana_pref":"ｷｮｳﾄﾌ","kana_city":"ｷｮｳﾄｼｶﾐｷﾞｮｳｸ","kana_address":"ﾆｼﾏﾁ","pref":"京都府","city":"京都市上京区","address":""},
{"zip_code":"6028374","kana_pref":"ｷｮｳﾄﾌ","kana_city":"ｷｮｳﾄｼｶﾐｷﾞｮｳｸ","kana_address":"ﾆｼﾏﾁ","pref":"京都府","city":"京都市上京区","address":"一条通御前３丁目西入"},
{"zip_code":"6028374","kana_pref":"ｷｮｳﾄﾌ","kana_city":"ｷｮｳﾄｼｶﾐｷﾞｮｳｸ","kana_address":"ﾆｼﾏﾁ","pref":"京都府","city":"京都市上京区","address":"一条通御前西入上る"},
{"zip_code":"6028374","kana_pref":"ｷｮｳﾄﾌ","kana_city":"ｷｮｳﾄｼｶﾐｷﾞｮｳｸ","kana_address":"ﾆｼﾏﾁ","pref":"京都府","city":"京都市上京区","address":"一条通御前西入上る西入"},
{"zip_code":"6028374","kana_pref":"ｷｮｳﾄﾌ","kana_city":"ｷｮｳﾄｼｶﾐｷﾞｮｳｸ","kana_address":"ﾆｼﾏﾁ","pref":"京都府","city":"京都市上京区","address":""},
{"zip_code":"6028374","kana_pref":"ｷｮｳﾄﾌ","kana_city":"ｷｮｳﾄｼｶﾐｷﾞｮｳｸ","kana_address":"ﾆｼﾏﾁ","pref":"京都府","city":"京都市上京区","address":"一条通御前西入２丁目丁目"},
{"zip_code":"6028374","kana_pref":"ｷｮｳﾄﾌ","kana_city":"ｷｮｳﾄｼｶﾐｷﾞｮｳｸ","kana_address":"ﾆｼﾏﾁ","pref":"京都府","city":"京都市上京区","address":"一条通御前西入２丁目上る丁目"},
{"zip_code":"6028374","kana_pref":"ｷｮｳﾄﾌ","kana_city":"ｷｮｳﾄｼｶﾐｷﾞｮｳｸ","kana_address":"ﾆｼﾏﾁ","pref":"京都府","city":"京都市上京区","address":"一条通御前西入２丁目"},
{"zip_code":"6028374","kana_pref":"ｷｮｳﾄﾌ","kana_city":"ｷｮｳﾄｼｶﾐｷﾞｮｳｸ","kana_address":"ﾆｼﾏﾁ","pref":"京都府","city":"京都市上京区","address":"下る"},
{"zip_code":"6028374","kana_pref":"ｷｮｳﾄﾌ","kana_city":"ｷｮｳﾄｼｶﾐｷﾞｮｳｸ","kana_address":"ﾆｼﾏﾁ","pref":"京都府","city":"京都市上京区","address":"一条通御前西入２筋目下る"},
{"zip_code":"6028374","kana_pref":"ｷｮｳﾄﾌ","kana_city":"ｷｮｳﾄｼｶﾐｷﾞｮｳｸ","kana_address":"ﾆｼﾏﾁ","pref":"京都府","city":"京都市上京区","address":"一条通御前西入３丁目"},
{"zip_code":"6028374","kana_pref":"ｷｮｳﾄﾌ","kana_city":"ｷｮｳﾄｼｶﾐｷﾞｮｳｸ","kana_address":"ﾆｼﾏﾁ","pref":"京都府","city":"京都市上京区","address":"一条通御前"},
{"zip_code":"6028374","kana_pref":"ｷｮｳﾄﾌ","kana_city":"ｷｮｳﾄｼｶﾐｷﾞｮｳｸ","kana_address":"ﾆｼﾏﾁ","pref":"京都府","city":"京都市上京区","address":"西入３丁目上る"},
{"zip_code":"6028374","kana_pref":"ｷｮｳﾄﾌ","kana_city":"ｷｮｳﾄｼｶﾐｷﾞｮｳｸ","kana_address":"ﾆｼﾏﾁ","pref":"京都府","city":"京都市上京区","address":"一条通御前西入３丁目下る"},
{"zip_code":"6028374","kana_pref":"ｷｮｳﾄﾌ","kana_city":"ｷｮｳﾄｼｶﾐｷﾞｮｳｸ","kana_address":"ﾆｼﾏﾁ","pref":"京都府","city":"京都市上京区","address":"一条通御前西入３筋目"},
{"zip_code":"6028374","kana_pref":"ｷｮｳﾄﾌ","kana_city":"ｷｮｳﾄｼｶﾐｷﾞｮｳｸ","kana_address":"ﾆｼﾏﾁ","pref":"京都府","city":"京都市上京区","address":""},
{"zip_code":"6028374","kana_pref":"ｷｮｳﾄﾌ","kana_city":"ｷｮｳﾄｼｶﾐｷﾞｮｳｸ","kana_address":"ﾆｼﾏﾁ","pref":"京都府","city":"京都市上京区","address":"一条通御前西入下る"},
{"zip_code":"6028374","kana_pref":"ｷｮｳﾄﾌ","kana_city":"ｷｮｳﾄｼｶﾐｷﾞｮｳｸ","kana_address":"ﾆｼﾏﾁ","pref":"京都府","city":"京都市上京区","address":"一条通御前西入下る３丁目"},
{"zip_code":"6028374","kana_pref":"ｷｮｳﾄﾌ","kana_city":"ｷｮｳﾄｼｶﾐｷﾞｮｳｸ","kana_address":"ﾆｼﾏﾁ","pref":"京都府","city":"京都市上京区","address":"一条通紙屋川東入"},
{"zip_code":"6028374","kana_pref":"ｷｮｳﾄﾌ","kana_city":"ｷｮｳﾄｼｶﾐｷﾞｮｳｸ","kana_address":"ﾆｼﾏﾁ","pref":"京都府","city":"京都市上京区","address":"上る"},
{"zip_code":"6028374","kana_pref":"ｷｮｳﾄﾌ","kana_city":"ｷｮｳﾄｼｶﾐｷﾞｮｳｸ","kana_address":"ﾆｼﾏﾁ","pref":"京都府","city":"京都市上京区","address":"一条通紙屋川東入下る"},
{"zip_code":"6028374","kana_pref":"ｷｮｳﾄﾌ","kana_city":"ｷｮｳﾄｼｶﾐｷﾞｮｳｸ","kana_address":"ﾆｼﾏﾁ","pref":"京都府","city":"京都市上京区","address":"天神道一条上る"},
{"zip_code":"6028374","kana_pref":"ｷｮｳﾄﾌ","kana_city":"ｷｮｳﾄｼｶﾐｷﾞｮｳｸ","kana_address":"ﾆｼﾏﾁ","pref":"京都府","city":"京都市上京区","address":"天神道一条下る"},
{"zip_code":"6028374","kana_pref":"ｷｮｳﾄﾌ","kana_city":"ｷｮｳﾄｼｶﾐｷﾞｮｳｸ","kana_address":"ﾆｼﾏﾁ","pref":"京都府","city":"京都市上京区","address":"天神道"},
{"zip_code":"6028374","kana_pref":"ｷｮｳﾄﾌ","kana_city":"ｷｮｳﾄｼｶﾐｷﾞｮｳｸ","kana_address":"ﾆｼﾏﾁ","pref":"京都府","city":"京都市上京区","address":"仁和寺街道上る）"},
{"zip_code":"6020956","kana_pref":"ｷｮｳﾄﾌ","kana_city":"ｷｮｳﾄｼｶﾐｷﾞｮｳｸ","kana_address":"ﾆｼﾏﾁ","pref":"京都府","city":"京都市上京区","address":"西町"},
{"zip_code":"6028148","kana_pref":"ｷｮｳﾄﾌ","kana_city":"ｷｮｳﾄｼｶﾐｷﾞｮｳｸ","kana_address":"ﾆｼﾏﾙﾀﾁｮｳ","pref":"京都府","city":"京都市上京区","address":"西丸太町"},
{"zip_code":"6020936","kana_pref":"ｷｮｳﾄﾌ","kana_city":"ｷｮｳﾄｼｶﾐｷﾞｮｳｸ","kana_address":"ﾆｼﾑｼｬｺｳｼﾞﾁｮｳ","pref":"京都府","city":"京都市上京区","address":"西無車小路町"},
{"zip_code":"6028491","kana_pref":"ｷｮｳﾄﾌ","kana_city":"ｷｮｳﾄｼｶﾐｷﾞｮｳｸ","kana_address":"ﾆｼﾔｼﾛﾁｮｳ","pref":"京都府","city":"京都市上京区","address":"西社町"},
{"zip_code":"6028394","kana_pref":"ｷｮｳﾄﾌ","kana_city":"ｷｮｳﾄｼｶﾐｷﾞｮｳｸ","kana_address":"ﾆｼﾔﾅｷﾞﾁｮｳ","pref":"京都府","city":"京都市上京区","address":"西柳町"},
{"zip_code":"6028036","kana_pref":"ｷｮｳﾄﾌ","kana_city":"ｷｮｳﾄｼｶﾐｷﾞｮｳｸ","kana_address":"ﾆｼﾔﾏｻﾞｷﾁｮｳ","pref":"京都府","city":"京都市上京区","address":"西山崎町"},
{"zip_code":"6028301","kana_pref":"ｷｮｳﾄﾌ","kana_city":"ｷｮｳﾄｼｶﾐｷﾞｮｳｸ","kana_address":"ﾆｼﾛｻﾞﾝｼﾞﾁｮｳ","pref":"京都府","city":"京都市上京区","address":"西芦山寺町"},
{"zip_code":"6020097","kana_pref":"ｷｮｳﾄﾌ","kana_city":"ｷｮｳﾄｼｶﾐｷﾞｮｳｸ","kana_address":"ﾆｼﾜｶﾐﾔｷﾀﾊﾝﾁｮｳ","pref":"京都府","city":"京都市上京区","address":"西若宮北半町"},
{"zip_code":"6020096","kana_pref":"ｷｮｳﾄﾌ","kana_city":"ｷｮｳﾄｼｶﾐｷﾞｮｳｸ","kana_address":"ﾆｼﾜｶﾐﾔﾐﾅﾐﾊﾝﾁｮｳ","pref":"京都府","city":"京都市上京区","address":"西若宮南半町"},
{"zip_code":"6020828","kana_pref":"ｷｮｳﾄﾌ","kana_city":"ｷｮｳﾄｼｶﾐｷﾞｮｳｸ","kana_address":"ﾆｼﾝﾁｮｳ","pref":"京都府","city":"京都市上京区","address":"二神町"},
{"zip_code":"6028128","kana_pref":"ｷｮｳﾄﾌ","kana_city":"ｷｮｳﾄｼｶﾐｷﾞｮｳｸ","kana_address":"ﾆﾁｮｳﾒ","pref":"京都府","city":"京都市上京区","address":"二町目"},
{"zip_code":"6028058","kana_pref":"ｷｮｳﾄﾌ","kana_city":"ｷｮｳﾄｼｶﾐｷﾞｮｳｸ","kana_address":"ﾆﾁｮｳﾒ","pref":"京都府","city":"京都市上京区","address":"二町目"},
{"zip_code":"6028344","kana_pref":"ｷｮｳﾄﾌ","kana_city":"ｷｮｳﾄｼｶﾐｷﾞｮｳｸ","kana_address":"ﾆﾊﾞﾝﾁｮｳ","pref":"京都府","city":"京都市上京区","address":"二番町"},
{"zip_code":"6028167","kana_pref":"ｷｮｳﾄﾌ","kana_city":"ｷｮｳﾄｼｶﾐｷﾞｮｳｸ","kana_address":"ﾆﾎﾝﾏﾂﾁｮｳ","pref":"京都府","city":"京都市上京区","address":"二本松町"},
{"zip_code":"6028231","kana_pref":"ｷｮｳﾄﾌ","kana_city":"ｷｮｳﾄｼｶﾐｷﾞｮｳｸ","kana_address":"ﾆｮｽｲﾁｮｳ","pref":"京都府","city":"京都市上京区","address":"如水町"},
{"zip_code":"6028106","kana_pref":"ｷｮｳﾄﾌ","kana_city":"ｷｮｳﾄｼｶﾐｷﾞｮｳｸ","kana_address":"ﾊｶﾘｸﾞﾁﾁｮｳ","pref":"京都府","city":"京都市上京区","address":"秤口町"},
{"zip_code":"6028386","kana_pref":"ｷｮｳﾄﾌ","kana_city":"ｷｮｳﾄｼｶﾐｷﾞｮｳｸ","kana_address":"ﾊﾞｸﾛﾁｮｳ","pref":"京都府","city":"京都市上京区","address":"馬喰町"},
{"zip_code":"6028212","kana_pref":"ｷｮｳﾄﾌ","kana_city":"ｷｮｳﾄｼｶﾐｷﾞｮｳｸ","kana_address":"ﾊｼﾂﾞﾒﾁｮｳ","pref":"京都府","city":"京都市上京区","address":"橋詰町"},
{"zip_code":"6028123","kana_pref":"ｷｮｳﾄﾌ","kana_city":"ｷｮｳﾄｼｶﾐｷﾞｮｳｸ","kana_address":"ﾊｼﾆｼ2ﾁｮｳﾒ","pref":"京都府","city":"京都市上京区","address":"橋西二町目"},
{"zip_code":"6028433","kana_pref":"ｷｮｳﾄﾌ","kana_city":"ｷｮｳﾄｼｶﾐｷﾞｮｳｸ","kana_address":"ﾊｼﾉｳｴﾁｮｳ","pref":"京都府","city":"京都市上京区","address":"橋之上町"},
{"zip_code":"6028063","kana_pref":"ｷｮｳﾄﾌ","kana_city":"ｷｮｳﾄｼｶﾐｷﾞｮｳｸ","kana_address":"ﾊｼﾓﾄﾁｮｳ","pref":"京都府","city":"京都市上京区","address":"橋本町"},
{"zip_code":"6028273","kana_pref":"ｷｮｳﾄﾌ","kana_city":"ｷｮｳﾄｼｶﾐｷﾞｮｳｸ","kana_address":"ﾊｾﾁｮｳ","pref":"京都府","city":"京都市上京区","address":"長谷町"},
{"zip_code":"6020035","kana_pref":"ｷｮｳﾄﾌ","kana_city":"ｷｮｳﾄｼｶﾐｷﾞｮｳｸ","kana_address":"ﾊﾀｹﾔﾏﾁｮｳ","pref":"京都府","city":"京都市上京区","address":"畠山町"},
{"zip_code":"6020016","kana_pref":"ｷｮｳﾄﾌ","kana_city":"ｷｮｳﾄｼｶﾐｷﾞｮｳｸ","kana_address":"ﾊﾀﾅｶﾁｮｳ","pref":"京都府","city":"京都市上京区","address":"畠中町"},
{"zip_code":"6028037","kana_pref":"ｷｮｳﾄﾌ","kana_city":"ｷｮｳﾄｼｶﾐｷﾞｮｳｸ","kana_address":"ﾊﾁﾏﾝﾁｮｳ","pref":"京都府","city":"京都市上京区","address":"八幡町"},
{"zip_code":"6028305","kana_pref":"ｷｮｳﾄﾌ","kana_city":"ｷｮｳﾄｼｶﾐｷﾞｮｳｸ","kana_address":"ﾊﾅｸﾙﾏﾁｮｳ","pref":"京都府","city":"京都市上京区","address":"花車町"},
{"zip_code":"6020914","kana_pref":"ｷｮｳﾄﾌ","kana_city":"ｷｮｳﾄｼｶﾐｷﾞｮｳｸ","kana_address":"ﾊﾅﾀﾃﾁｮｳ","pref":"京都府","city":"京都市上京区","address":"花立町"},
{"zip_code":"6020948","kana_pref":"ｷｮｳﾄﾌ","kana_city":"ｷｮｳﾄｼｶﾐｷﾞｮｳｸ","kana_address":"ﾊﾘﾔﾁｮｳ","pref":"京都府","city":"京都市上京区","address":"針屋町"},
{"zip_code":"6028026","kana_pref":"ｷｮｳﾄﾌ","kana_city":"ｷｮｳﾄｼｶﾐｷﾞｮｳｸ","kana_address":"ﾊﾙｵﾋﾞﾁｮｳ","pref":"京都府","city":"京都市上京区","address":"春帯町"},
{"zip_code":"6028473","kana_pref":"ｷｮｳﾄﾌ","kana_city":"ｷｮｳﾄｼｶﾐｷﾞｮｳｸ","kana_address":"ﾊﾝｼｭｳｲﾝﾏｴﾁｮｳ","pref":"京都府","city":"京都市上京区","address":"般舟院前町"},
{"zip_code":"6028295","kana_pref":"ｷｮｳﾄﾌ","kana_city":"ｷｮｳﾄｼｶﾐｷﾞｮｳｸ","kana_address":"ﾋｶﾞｼｲｼﾊﾞｼﾁｮｳ","pref":"京都府","city":"京都市上京区","address":"東石橋町"},
{"zip_code":"6028431","kana_pref":"ｷｮｳﾄﾌ","kana_city":"ｷｮｳﾄｼｶﾐｷﾞｮｳｸ","kana_address":"ﾋｶﾞｼｲｼﾔﾁｮｳ","pref":"京都府","city":"京都市上京区","address":"東石屋町"},
{"zip_code":"6028387","kana_pref":"ｷｮｳﾄﾌ","kana_city":"ｷｮｳﾄｼｶﾐｷﾞｮｳｸ","kana_address":"ﾋｶﾞｼｲﾏｺｳｼﾞﾁｮｳ","pref":"京都府","city":"京都市上京区","address":"東今小路町"},
{"zip_code":"6020951","kana_pref":"ｷｮｳﾄﾌ","kana_city":"ｷｮｳﾄｼｶﾐｷﾞｮｳｸ","kana_address":"ﾋｶﾞｼｲﾏﾁｮｳ","pref":"京都府","city":"京都市上京区","address":"東今町"},
{"zip_code":"6028038","kana_pref":"ｷｮｳﾄﾌ","kana_city":"ｷｮｳﾄｼｶﾐｷﾞｮｳｸ","kana_address":"ﾋｶﾞｼｳｵﾔﾁｮｳ","pref":"京都府","city":"京都市上京区","address":"東魚屋町"},
{"zip_code":"6028031","kana_pref":"ｷｮｳﾄﾌ","kana_city":"ｷｮｳﾄｼｶﾐｷﾞｮｳｸ","kana_address":"ﾋｶﾞｼｳﾗﾂｼﾞﾁｮｳ","pref":"京都府","city":"京都市上京区","address":"東裏辻町"},
{"zip_code":"6020858","kana_pref":"ｷｮｳﾄﾌ","kana_city":"ｷｮｳﾄｼｶﾐｷﾞｮｳｸ","kana_address":"ﾋｶﾞｼｻｸﾗﾁｮｳ","pref":"京都府","city":"京都市上京区","address":"東桜町"},
{"zip_code":"6028468","kana_pref":"ｷｮｳﾄﾌ","kana_city":"ｷｮｳﾄｼｶﾐｷﾞｮｳｸ","kana_address":"ﾋｶﾞｼｼﾞｮｳｾﾞﾝｼﾞﾁｮｳ","pref":"京都府","city":"京都市上京区","address":"東上善寺町"},
{"zip_code":"6028162","kana_pref":"ｷｮｳﾄﾌ","kana_city":"ｷｮｳﾄｼｶﾐｷﾞｮｳｸ","kana_address":"ﾋｶﾞｼｼﾝﾒｲﾁｮｳ","pref":"京都府","city":"京都市上京区","address":"東神明町"},
{"zip_code":"6028416","kana_pref":"ｷｮｳﾄﾌ","kana_city":"ｷｮｳﾄｼｶﾐｷﾞｮｳｸ","kana_address":"ﾋｶﾞｼｾﾝﾎﾞﾝﾁｮｳ","pref":"京都府","city":"京都市上京区","address":"東千本町"},
{"zip_code":"6028027","kana_pref":"ｷｮｳﾄﾌ","kana_city":"ｷｮｳﾄｼｶﾐｷﾞｮｳｸ","kana_address":"ﾋｶﾞｼﾀﾁｳﾘﾁｮｳ","pref":"京都府","city":"京都市上京区","address":"東立売町"},
{"zip_code":"6028101","kana_pref":"ｷｮｳﾄﾌ","kana_city":"ｷｮｳﾄｼｶﾐｷﾞｮｳｸ","kana_address":"ﾋｶﾞｼﾀﾂﾐﾁｮｳ","pref":"京都府","city":"京都市上京区","address":"東辰巳町"},
{"zip_code":"6028377","kana_pref":"ｷｮｳﾄﾌ","kana_city":"ｷｮｳﾄｼｶﾐｷﾞｮｳｸ","kana_address":"ﾋｶﾞｼﾀﾃﾁｮｳ","pref":"京都府","city":"京都市上京区","address":"東竪町"},
{"zip_code":"6028007","kana_pref":"ｷｮｳﾄﾌ","kana_city":"ｷｮｳﾄｼｶﾐｷﾞｮｳｸ","kana_address":"ﾋｶﾞｼﾁｮｳｼﾞｬﾁｮｳ","pref":"京都府","city":"京都市上京区","address":"東長者町"},
{"zip_code":"6020874","kana_pref":"ｷｮｳﾄﾌ","kana_city":"ｷｮｳﾄｼｶﾐｷﾞｮｳｸ","kana_address":"ﾋｶﾞｼﾂﾁﾐｶﾄﾞﾁｮｳ","pref":"京都府","city":"京都市上京区","address":"東土御門町"},
{"zip_code":"6028102","kana_pref":"ｷｮｳﾄﾌ","kana_city":"ｷｮｳﾄｼｶﾐｷﾞｮｳｸ","kana_address":"ﾋｶﾞｼﾃﾝﾋﾞﾝﾁｮｳ","pref":"京都府","city":"京都市上京区","address":"東天秤町"},
{"zip_code":"6028044","kana_pref":"ｷｮｳﾄﾌ","kana_city":"ｷｮｳﾄｼｶﾐｷﾞｮｳｸ","kana_address":"ﾋｶﾞｼﾊｼﾂﾞﾒﾁｮｳ","pref":"京都府","city":"京都市上京区","address":"東橋詰町"},
{"zip_code":"6028066","kana_pref":"ｷｮｳﾄﾌ","kana_city":"ｷｮｳﾄｼｶﾐｷﾞｮｳｸ","kana_address":"ﾋｶﾞｼﾊｼﾂﾞﾒﾁｮｳ","pref":"京都府","city":"京都市上京区","address":"東橋詰町"},
{"zip_code":"6020917","kana_pref":"ｷｮｳﾄﾌ","kana_city":"ｷｮｳﾄｼｶﾐｷﾞｮｳｸ","kana_address":"ﾋｶﾞｼﾋﾉﾄﾞﾉﾁｮｳ","pref":"京都府","city":"京都市上京区","address":"東日野殿町"},
{"zip_code":"6028255","kana_pref":"ｷｮｳﾄﾌ","kana_city":"ｷｮｳﾄｼｶﾐｷﾞｮｳｸ","kana_address":"ﾋｶﾞｼﾎﾘﾁｮｳ","pref":"京都府","city":"京都市上京区","address":"東堀町"},
{"zip_code":"6020913","kana_pref":"ｷｮｳﾄﾌ","kana_city":"ｷｮｳﾄｼｶﾐｷﾞｮｳｸ","kana_address":"ﾋｶﾞｼﾏﾁ","pref":"京都府","city":"京都市上京区","address":"東町"},
{"zip_code":"6028346","kana_pref":"ｷｮｳﾄﾌ","kana_city":"ｷｮｳﾄｼｶﾐｷﾞｮｳｸ","kana_address":"ﾋｶﾞｼﾏﾁ","pref":"京都府","city":"京都市上京区","address":"東町"},
{"zip_code":"6020947","kana_pref":"ｷｮｳﾄﾌ","kana_city":"ｷｮｳﾄｼｶﾐｷﾞｮｳｸ","kana_address":"ﾋｶﾞｼﾏﾁ","pref":"京都府","city":"京都市上京区","address":"東町"},
{"zip_code":"6028417","kana_pref":"ｷｮｳﾄﾌ","kana_city":"ｷｮｳﾄｼｶﾐｷﾞｮｳｸ","kana_address":"ﾋｶﾞｼﾔｼﾛﾁｮｳ","pref":"京都府","city":"京都市上京区","address":"東社町"},
{"zip_code":"6028317","kana_pref":"ｷｮｳﾄﾌ","kana_city":"ｷｮｳﾄｼｶﾐｷﾞｮｳｸ","kana_address":"ﾋｶﾞｼﾔﾅｷﾞﾁｮｳ","pref":"京都府","city":"京都市上京区","address":"東柳町"},
{"zip_code":"6020086","kana_pref":"ｷｮｳﾄﾌ","kana_city":"ｷｮｳﾄｼｶﾐｷﾞｮｳｸ","kana_address":"ﾋｶﾞｼﾜｶﾐﾔﾁｮｳ","pref":"京都府","city":"京都市上京区","address":"東若宮町"},
{"zip_code":"6020065","kana_pref":"ｷｮｳﾄﾌ","kana_city":"ｷｮｳﾄｼｶﾐｷﾞｮｳｸ","kana_address":"ﾋｷｷﾞﾁｮｳ","pref":"京都府","city":"京都市上京区","address":"挽木町"},
{"zip_code":"6028236","kana_pref":"ｷｮｳﾄﾌ","kana_city":"ｷｮｳﾄｼｶﾐｷﾞｮｳｸ","kana_address":"ﾋｻｼﾁｮｳ","pref":"京都府","city":"京都市上京区","address":"庇町"},
{"zip_code":"6028266","kana_pref":"ｷｮｳﾄﾌ","kana_city":"ｷｮｳﾄｼｶﾐｷﾞｮｳｸ","kana_address":"ﾋｼﾏﾙﾁｮｳ","pref":"京都府","city":"京都市上京区","address":"菱丸町"},
{"zip_code":"6028125","kana_pref":"ｷｮｳﾄﾌ","kana_city":"ｷｮｳﾄｼｶﾐｷﾞｮｳｸ","kana_address":"ﾋｼﾔﾁｮｳ","pref":"京都府","city":"京都市上京区","address":"菱屋町"},
{"zip_code":"6028451","kana_pref":"ｷｮｳﾄﾌ","kana_city":"ｷｮｳﾄｼｶﾐｷﾞｮｳｸ","kana_address":"ﾋｼﾔﾁｮｳ","pref":"京都府","city":"京都市上京区","address":"菱屋町"},
{"zip_code":"6028227","kana_pref":"ｷｮｳﾄﾌ","kana_city":"ｷｮｳﾄｼｶﾐｷﾞｮｳｸ","kana_address":"ﾋﾞｼｬﾓﾝﾁｮｳ","pref":"京都府","city":"京都市上京区","address":"毘沙門町"},
{"zip_code":"6020816","kana_pref":"ｷｮｳﾄﾌ","kana_city":"ｷｮｳﾄｼｶﾐｷﾞｮｳｸ","kana_address":"ﾋﾞｼｬﾓﾝﾁｮｳ","pref":"京都府","city":"京都市上京区","address":"毘沙門町"},
{"zip_code":"6028325","kana_pref":"ｷｮｳﾄﾌ","kana_city":"ｷｮｳﾄｼｶﾐｷﾞｮｳｸ","kana_address":"ﾋﾞｼｬﾓﾝﾁｮｳ","pref":"京都府","city":"京都市上京区","address":"毘沙門町"},
{"zip_code":"6020817","kana_pref":"ｷｮｳﾄﾌ","kana_city":"ｷｮｳﾄｼｶﾐｷﾞｮｳｸ","kana_address":"ﾋﾞｼｬﾓﾝﾖｺﾁｮｳ","pref":"京都府","city":"京都市上京区","address":"毘沙門横町"},
{"zip_code":"6028259","kana_pref":"ｷｮｳﾄﾌ","kana_city":"ｷｮｳﾄｼｶﾐｷﾞｮｳｸ","kana_address":"ﾋﾀﾁﾁｮｳ","pref":"京都府","city":"京都市上京区","address":"常陸町"},
{"zip_code":"6028235","kana_pref":"ｷｮｳﾄﾌ","kana_city":"ｷｮｳﾄｼｶﾐｷﾞｮｳｸ","kana_address":"ﾋﾀﾞﾄﾞﾉﾁｮｳ","pref":"京都府","city":"京都市上京区","address":"飛弾殿町"},
{"zip_code":"6028425","kana_pref":"ｷｮｳﾄﾌ","kana_city":"ｷｮｳﾄｼｶﾐｷﾞｮｳｸ","kana_address":"ﾋﾉｸﾁﾁｮｳ","pref":"京都府","city":"京都市上京区","address":"樋之口町"},
{"zip_code":"6028276","kana_pref":"ｷｮｳﾄﾌ","kana_city":"ｷｮｳﾄｼｶﾐｷﾞｮｳｸ","kana_address":"ﾋｬｸﾏﾝﾍﾞﾝﾁｮｳ","pref":"京都府","city":"京都市上京区","address":"百万遍町"},
{"zip_code":"6020037","kana_pref":"ｷｮｳﾄﾌ","kana_city":"ｷｮｳﾄｼｶﾐｷﾞｮｳｸ","kana_address":"ﾋｮｳﾀﾝｽﾞｼﾁｮｳ","pref":"京都府","city":"京都市上京区","address":"瓢箪図子町"},
{"zip_code":"6020911","kana_pref":"ｷｮｳﾄﾌ","kana_city":"ｷｮｳﾄｼｶﾐｷﾞｮｳｸ","kana_address":"ﾋﾛﾊｼﾄﾞﾉﾁｮｳ","pref":"京都府","city":"京都市上京区","address":"広橋殿町"},
{"zip_code":"6028029","kana_pref":"ｷｮｳﾄﾌ","kana_city":"ｷｮｳﾄｼｶﾐｷﾞｮｳｸ","kana_address":"ﾌﾞｴｲｼﾞﾝﾁｮｳ","pref":"京都府","city":"京都市上京区","address":"武衛陣町"},
{"zip_code":"6028166","kana_pref":"ｷｮｳﾄﾌ","kana_city":"ｷｮｳﾄｼｶﾐｷﾞｮｳｸ","kana_address":"ﾌｸｼﾏﾁｮｳ","pref":"京都府","city":"京都市上京区","address":"福島町"},
{"zip_code":"6028233","kana_pref":"ｷｮｳﾄﾌ","kana_city":"ｷｮｳﾄｼｶﾐｷﾞｮｳｸ","kana_address":"ﾌｸﾀﾞｲﾐｮｳｼﾞﾝﾁｮｳ","pref":"京都府","city":"京都市上京区","address":"福大明神町"},
{"zip_code":"6020907","kana_pref":"ｷｮｳﾄﾌ","kana_city":"ｷｮｳﾄｼｶﾐｷﾞｮｳｸ","kana_address":"ﾌｸﾅｶﾞﾁｮｳ","pref":"京都府","city":"京都市上京区","address":"福長町"},
{"zip_code":"6028291","kana_pref":"ｷｮｳﾄﾌ","kana_city":"ｷｮｳﾄｼｶﾐｷﾞｮｳｸ","kana_address":"ﾌｸﾓﾄﾁｮｳ","pref":"京都府","city":"京都市上京区","address":"福本町"},
{"zip_code":"6020868","kana_pref":"ｷｮｳﾄﾌ","kana_city":"ｷｮｳﾄｼｶﾐｷﾞｮｳｸ","kana_address":"ﾌｸﾛﾁｮｳ","pref":"京都府","city":"京都市上京区","address":"袋町"},
{"zip_code":"6028423","kana_pref":"ｷｮｳﾄﾌ","kana_city":"ｷｮｳﾄｼｶﾐｷﾞｮｳｸ","kana_address":"ﾌｼﾞﾉｷﾁｮｳ","pref":"京都府","city":"京都市上京区","address":"藤木町"},
{"zip_code":"6020807","kana_pref":"ｷｮｳﾄﾌ","kana_city":"ｷｮｳﾄｼｶﾐｷﾞｮｳｸ","kana_address":"ﾌﾄﾞｳﾏｴﾁｮｳ","pref":"京都府","city":"京都市上京区","address":"不動前町"},
{"zip_code":"6020026","kana_pref":"ｷｮｳﾄﾌ","kana_city":"ｷｮｳﾄｼｶﾐｷﾞｮｳｸ","kana_address":"ﾌﾙｷﾁｮｳ","pref":"京都府","city":"京都市上京区","address":"古木町"},
{"zip_code":"6028408","kana_pref":"ｷｮｳﾄﾌ","kana_city":"ｷｮｳﾄｼｶﾐｷﾞｮｳｸ","kana_address":"ﾌﾙﾐﾉﾍﾞﾁｮｳ","pref":"京都府","city":"京都市上京区","address":"古美濃部町"},
{"zip_code":"6028313","kana_pref":"ｷｮｳﾄﾌ","kana_city":"ｷｮｳﾄｼｶﾐｷﾞｮｳｸ","kana_address":"ﾌﾛﾔﾁｮｳ","pref":"京都府","city":"京都市上京区","address":"風呂屋町"},
{"zip_code":"6028174","kana_pref":"ｷｮｳﾄﾌ","kana_city":"ｷｮｳﾄｼｶﾐｷﾞｮｳｸ","kana_address":"ﾌﾞﾝﾄﾞｳﾁｮｳ","pref":"京都府","city":"京都市上京区","address":"分銅町"},
{"zip_code":"6020939","kana_pref":"ｷｮｳﾄﾌ","kana_city":"ｷｮｳﾄｼｶﾐｷﾞｮｳｸ","kana_address":"ﾍﾞﾝｻﾞｲﾃﾝﾁｮｳ","pref":"京都府","city":"京都市上京区","address":"弁財天町"},
{"zip_code":"6028168","kana_pref":"ｷｮｳﾄﾌ","kana_city":"ｷｮｳﾄｼｶﾐｷﾞｮｳｸ","kana_address":"ﾍﾞﾝﾃﾝﾁｮｳ","pref":"京都府","city":"京都市上京区","address":"弁天町"},
{"zip_code":"6020062","kana_pref":"ｷｮｳﾄﾌ","kana_city":"ｷｮｳﾄｼｶﾐｷﾞｮｳｸ","kana_address":"ﾎｳｷｮｳｲﾝﾋｶﾞｼﾏﾁ","pref":"京都府","city":"京都市上京区","address":"宝鏡院東町"},
{"zip_code":"6028357","kana_pref":"ｷｮｳﾄﾌ","kana_city":"ｷｮｳﾄｼｶﾐｷﾞｮｳｸ","kana_address":"ﾎｳｽﾞｲﾁｮｳ","pref":"京都府","city":"京都市上京区","address":"鳳瑞町"},
{"zip_code":"6028496","kana_pref":"ｷｮｳﾄﾌ","kana_city":"ｷｮｳﾄｼｶﾐｷﾞｮｳｸ","kana_address":"ﾎﾞｹﾊﾗﾁｮｳ","pref":"京都府","city":"京都市上京区","address":"木瓜原町"},
{"zip_code":"6028475","kana_pref":"ｷｮｳﾄﾌ","kana_city":"ｷｮｳﾄｼｶﾐｷﾞｮｳｸ","kana_address":"ﾎﾞﾀﾝﾎﾞｺﾁｮｳ","pref":"京都府","city":"京都市上京区","address":"牡丹鉾町"},
{"zip_code":"6028221","kana_pref":"ｷｮｳﾄﾌ","kana_city":"ｷｮｳﾄｼｶﾐｷﾞｮｳｸ","kana_address":"ﾎﾘｶﾜｶﾐﾉﾁｮｳ","pref":"京都府","city":"京都市上京区","address":"堀川上之町"},
{"zip_code":"6028232","kana_pref":"ｷｮｳﾄﾌ","kana_city":"ｷｮｳﾄｼｶﾐｷﾞｮｳｸ","kana_address":"ﾎﾘｶﾜｼﾓﾉﾁｮｳ","pref":"京都府","city":"京都市上京区","address":"堀川下之町"},
{"zip_code":"6028367","kana_pref":"ｷｮｳﾄﾌ","kana_city":"ｷｮｳﾄｼｶﾐｷﾞｮｳｸ","kana_address":"ﾎﾘｶﾜﾁｮｳ","pref":"京都府","city":"京都市上京区","address":"堀川町"},
{"zip_code":"6020931","kana_pref":"ｷｮｳﾄﾌ","kana_city":"ｷｮｳﾄｼｶﾐｷﾞｮｳｸ","kana_address":"ﾎﾘﾀﾞｼﾁｮｳ","pref":"京都府","city":"京都市上京区","address":"堀出シ町"},
{"zip_code":"6020057","kana_pref":"ｷｮｳﾄﾌ","kana_city":"ｷｮｳﾄｼｶﾐｷﾞｮｳｸ","kana_address":"ﾎﾘﾉｳｴﾁｮｳ","pref":"京都府","city":"京都市上京区","address":"堀之上町"},
{"zip_code":"6028021","kana_pref":"ｷｮｳﾄﾌ","kana_city":"ｷｮｳﾄｼｶﾐｷﾞｮｳｸ","kana_address":"ﾎﾘﾏﾂﾁｮｳ","pref":"京都府","city":"京都市上京区","address":"堀松町"},
{"zip_code":"6020061","kana_pref":"ｷｮｳﾄﾌ","kana_city":"ｷｮｳﾄｼｶﾐｷﾞｮｳｸ","kana_address":"ﾎﾝﾎﾟｳｼﾞﾏｴﾁｮｳ","pref":"京都府","city":"京都市上京区","address":"本法寺前町"},
{"zip_code":"6020812","kana_pref":"ｷｮｳﾄﾌ","kana_city":"ｷｮｳﾄｼｶﾐｷﾞｮｳｸ","kana_address":"ﾎﾝﾏﾝｼﾞﾏｴﾁｮｳ","pref":"京都府","city":"京都市上京区","address":"本満寺前町"},
{"zip_code":"6028415","kana_pref":"ｷｮｳﾄﾌ","kana_city":"ｷｮｳﾄｼｶﾐｷﾞｮｳｸ","kana_address":"ﾏｴﾉﾁｮｳ","pref":"京都府","city":"京都市上京区","address":"前之町"},
{"zip_code":"6020036","kana_pref":"ｷｮｳﾄﾌ","kana_city":"ｷｮｳﾄｼｶﾐｷﾞｮｳｸ","kana_address":"ﾏｷﾄﾘﾔﾁｮｳ","pref":"京都府","city":"京都市上京区","address":"蒔鳥屋町"},
{"zip_code":"6028488","kana_pref":"ｷｮｳﾄﾌ","kana_city":"ｷｮｳﾄｼｶﾐｷﾞｮｳｸ","kana_address":"ﾏｸﾗﾁｮｳ","pref":"京都府","city":"京都市上京区","address":"真倉町"},
{"zip_code":"6020877","kana_pref":"ｷｮｳﾄﾌ","kana_city":"ｷｮｳﾄｼｶﾐｷﾞｮｳｸ","kana_address":"ﾏｽﾔﾁｮｳ","pref":"京都府","city":"京都市上京区","address":"桝屋町"},
{"zip_code":"6028201","kana_pref":"ｷｮｳﾄﾌ","kana_city":"ｷｮｳﾄｼｶﾐｷﾞｮｳｸ","kana_address":"ﾏｽﾔﾁｮｳ","pref":"京都府","city":"京都市上京区","address":"桝屋町"},
{"zip_code":"6028111","kana_pref":"ｷｮｳﾄﾌ","kana_city":"ｷｮｳﾄｼｶﾐｷﾞｮｳｸ","kana_address":"ﾏｽﾔﾁｮｳ","pref":"京都府","city":"京都市上京区","address":"桝屋町"},
{"zip_code":"6020867","kana_pref":"ｷｮｳﾄﾌ","kana_city":"ｷｮｳﾄｼｶﾐｷﾞｮｳｸ","kana_address":"ﾏﾂｶｹﾞﾁｮｳ","pref":"京都府","city":"京都市上京区","address":"松蔭町"},
{"zip_code":"6028338","kana_pref":"ｷｮｳﾄﾌ","kana_city":"ｷｮｳﾄｼｶﾐｷﾞｮｳｸ","kana_address":"ﾏﾂﾅｶﾞﾁｮｳ","pref":"京都府","city":"京都市上京区","address":"松永町"},
{"zip_code":"6020819","kana_pref":"ｷｮｳﾄﾌ","kana_city":"ｷｮｳﾄｼｶﾐｷﾞｮｳｸ","kana_address":"ﾏﾂﾉｷﾁｮｳ","pref":"京都府","city":"京都市上京区","address":"松之木町"},
{"zip_code":"6028068","kana_pref":"ｷｮｳﾄﾌ","kana_city":"ｷｮｳﾄｼｶﾐｷﾞｮｳｸ","kana_address":"ﾏﾂﾉｼﾀﾁｮｳ","pref":"京都府","city":"京都市上京区","address":"松之下町"},
{"zip_code":"6028465","kana_pref":"ｷｮｳﾄﾌ","kana_city":"ｷｮｳﾄｼｶﾐｷﾞｮｳｸ","kana_address":"ﾏﾂﾔﾁｮｳ","pref":"京都府","city":"京都市上京区","address":"松屋町"},
{"zip_code":"6028139","kana_pref":"ｷｮｳﾄﾌ","kana_city":"ｷｮｳﾄｼｶﾐｷﾞｮｳｸ","kana_address":"ﾏﾙﾔﾁｮｳ","pref":"京都府","city":"京都市上京区","address":"丸屋町"},
{"zip_code":"6028426","kana_pref":"ｷｮｳﾄﾌ","kana_city":"ｷｮｳﾄｼｶﾐｷﾞｮｳｸ","kana_address":"ﾏﾝﾀﾞﾗﾁｮｳ","pref":"京都府","city":"京都市上京区","address":"曼陀羅町"},
{"zip_code":"6020058","kana_pref":"ｷｮｳﾄﾌ","kana_city":"ｷｮｳﾄｼｶﾐｷﾞｮｳｸ","kana_address":"ﾐｽﾞｵﾁﾁｮｳ","pref":"京都府","city":"京都市上京区","address":"水落町"},
{"zip_code":"6028319","kana_pref":"ｷｮｳﾄﾌ","kana_city":"ｷｮｳﾄｼｶﾐｷﾞｮｳｸ","kana_address":"ﾐｿﾞﾏｴﾁｮｳ","pref":"京都府","city":"京都市上京区","address":"溝前町"},
{"zip_code":"6028153","kana_pref":"ｷｮｳﾄﾌ","kana_city":"ｷｮｳﾄｼｶﾐｷﾞｮｳｸ","kana_address":"ﾐﾅﾐｲｾﾔﾁｮｳ","pref":"京都府","city":"京都市上京区","address":"南伊勢屋町"},
{"zip_code":"6028122","kana_pref":"ｷｮｳﾄﾌ","kana_city":"ｷｮｳﾄｼｶﾐｷﾞｮｳｸ","kana_address":"ﾐﾅﾐｶﾆﾔﾁｮｳ","pref":"京都府","city":"京都市上京区","address":"南蟹屋町"},
{"zip_code":"6020941","kana_pref":"ｷｮｳﾄﾌ","kana_city":"ｷｮｳﾄｼｶﾐｷﾞｮｳｸ","kana_address":"ﾐﾅﾐｶﾈﾔｽﾁｮｳ","pref":"京都府","city":"京都市上京区","address":"南兼康町"},
{"zip_code":"6028253","kana_pref":"ｷｮｳﾄﾌ","kana_city":"ｷｮｳﾄｼｶﾐｷﾞｮｳｸ","kana_address":"ﾐﾅﾐｺﾀﾞｲﾓﾝﾁｮｳ","pref":"京都府","city":"京都市上京区","address":"南小大門町"},
{"zip_code":"6028327","kana_pref":"ｷｮｳﾄﾌ","kana_city":"ｷｮｳﾄｼｶﾐｷﾞｮｳｸ","kana_address":"ﾐﾅﾐｻﾀｹﾁｮｳ","pref":"京都府","city":"京都市上京区","address":"南佐竹町"},
{"zip_code":"6028108","kana_pref":"ｷｮｳﾄﾌ","kana_city":"ｷｮｳﾄｼｶﾐｷﾞｮｳｸ","kana_address":"ﾐﾅﾐｼﾐｽﾞﾁｮｳ","pref":"京都府","city":"京都市上京区","address":"南清水町"},
{"zip_code":"6028321","kana_pref":"ｷｮｳﾄﾌ","kana_city":"ｷｮｳﾄｼｶﾐｷﾞｮｳｸ","kana_address":"ﾐﾅﾐｼﾞｮｳｾﾞﾝｼﾞﾁｮｳ","pref":"京都府","city":"京都市上京区","address":"南上善寺町"},
{"zip_code":"6028206","kana_pref":"ｷｮｳﾄﾌ","kana_city":"ｷｮｳﾄｼｶﾐｷﾞｮｳｸ","kana_address":"ﾐﾅﾐｼﾝｻﾞｲｹﾁｮｳ","pref":"京都府","city":"京都市上京区","address":"南新在家町"},
{"zip_code":"6028248","kana_pref":"ｷｮｳﾄﾌ","kana_city":"ｷｮｳﾄｼｶﾐｷﾞｮｳｸ","kana_address":"ﾐﾅﾐﾀﾜﾗﾁｮｳ","pref":"京都府","city":"京都市上京区","address":"南俵町"},
{"zip_code":"6020865","kana_pref":"ｷｮｳﾄﾌ","kana_city":"ｷｮｳﾄｼｶﾐｷﾞｮｳｸ","kana_address":"ﾐﾅﾐﾁｮｳ","pref":"京都府","city":"京都市上京区","address":"南町"},
{"zip_code":"6028466","kana_pref":"ｷｮｳﾄﾌ","kana_city":"ｷｮｳﾄｼｶﾐｷﾞｮｳｸ","kana_address":"ﾐﾅﾐﾂｼﾞﾁｮｳ","pref":"京都府","city":"京都市上京区","address":"南辻町"},
{"zip_code":"6020055","kana_pref":"ｷｮｳﾄﾌ","kana_city":"ｷｮｳﾄｼｶﾐｷﾞｮｳｸ","kana_address":"ﾐﾅﾐﾌﾅﾊｼﾁｮｳ","pref":"京都府","city":"京都市上京区","address":"南舟橋町"},
{"zip_code":"6028217","kana_pref":"ｷｮｳﾄﾌ","kana_city":"ｷｮｳﾄｼｶﾐｷﾞｮｳｸ","kana_address":"ﾐﾅﾐﾓﾝｾﾞﾝﾁｮｳ","pref":"京都府","city":"京都市上京区","address":"南門前町"},
{"zip_code":"6020853","kana_pref":"ｷｮｳﾄﾌ","kana_city":"ｷｮｳﾄｼｶﾐｷﾞｮｳｸ","kana_address":"ﾐﾔｶﾞｷﾁｮｳ","pref":"京都府","city":"京都市上京区","address":"宮垣町"},
{"zip_code":"6020005","kana_pref":"ｷｮｳﾄﾌ","kana_city":"ｷｮｳﾄｼｶﾐｷﾞｮｳｸ","kana_address":"ﾐｮｳｹﾝｼﾞﾏｴﾁｮｳ","pref":"京都府","city":"京都市上京区","address":"妙顕寺前町"},
{"zip_code":"6028418","kana_pref":"ｷｮｳﾄﾌ","kana_city":"ｷｮｳﾄｼｶﾐｷﾞｮｳｸ","kana_address":"ﾐｮｳﾚﾝｼﾞﾏｴﾁｮｳ","pref":"京都府","city":"京都市上京区","address":"妙蓮寺前町"},
{"zip_code":"6020823","kana_pref":"ｷｮｳﾄﾌ","kana_city":"ｷｮｳﾄｼｶﾐｷﾞｮｳｸ","kana_address":"ﾐﾖｼﾁｮｳ","pref":"京都府","city":"京都市上京区","address":"三芳町"},
{"zip_code":"6020933","kana_pref":"ｷｮｳﾄﾌ","kana_city":"ｷｮｳﾄｼｶﾐｷﾞｮｳｸ","kana_address":"ﾑｼｬｺｳｼﾞﾁｮｳ","pref":"京都府","city":"京都市上京区","address":"武者小路町"},
{"zip_code":"6028211","kana_pref":"ｷｮｳﾄﾌ","kana_city":"ｷｮｳﾄｼｶﾐｷﾞｮｳｸ","kana_address":"ﾑﾗｸﾓﾁｮｳ","pref":"京都府","city":"京都市上京区","address":"村雲町"},
{"zip_code":"6020029","kana_pref":"ｷｮｳﾄﾌ","kana_city":"ｷｮｳﾄｼｶﾐｷﾞｮｳｸ","kana_address":"ﾑﾛﾏﾁｶｼﾗﾁｮｳ","pref":"京都府","city":"京都市上京区","address":"室町頭町"},
{"zip_code":"6028435","kana_pref":"ｷｮｳﾄﾌ","kana_city":"ｷｮｳﾄｼｶﾐｷﾞｮｳｸ","kana_address":"ﾓﾄｲｻﾁｮｳ","pref":"京都府","city":"京都市上京区","address":"元伊佐町"},
{"zip_code":"6028324","kana_pref":"ｷｮｳﾄﾌ","kana_city":"ｷｮｳﾄｼｶﾐｷﾞｮｳｸ","kana_address":"ﾓﾄｶﾝﾉﾝﾁｮｳ","pref":"京都府","city":"京都市上京区","address":"元観音町"},
{"zip_code":"6028448","kana_pref":"ｷｮｳﾄﾌ","kana_city":"ｷｮｳﾄｼｶﾐｷﾞｮｳｸ","kana_address":"ﾓﾄｷﾀｺｳｼﾞﾁｮｳ","pref":"京都府","city":"京都市上京区","address":"元北小路町"},
{"zip_code":"6028001","kana_pref":"ｷｮｳﾄﾌ","kana_city":"ｷｮｳﾄｼｶﾐｷﾞｮｳｸ","kana_address":"ﾓﾄｼﾞｮｳｶｲﾝﾁｮｳ","pref":"京都府","city":"京都市上京区","address":"元浄花院町"},
{"zip_code":"6020042","kana_pref":"ｷｮｳﾄﾌ","kana_city":"ｷｮｳﾄｼｶﾐｷﾞｮｳｸ","kana_address":"ﾓﾄｼﾝｻﾞｲｹﾁｮｳ","pref":"京都府","city":"京都市上京区","address":"元新在家町"},
{"zip_code":"6020926","kana_pref":"ｷｮｳﾄﾌ","kana_city":"ｷｮｳﾄｼｶﾐｷﾞｮｳｸ","kana_address":"ﾓﾄｼﾝﾆｮﾄﾞｳﾁｮｳ","pref":"京都府","city":"京都市上京区","address":"元真如堂町"},
{"zip_code":"6020938","kana_pref":"ｷｮｳﾄﾌ","kana_city":"ｷｮｳﾄｼｶﾐｷﾞｮｳｸ","kana_address":"ﾓﾄｽﾞｼﾁｮｳ","pref":"京都府","city":"京都市上京区","address":"元図子町"},
{"zip_code":"6028005","kana_pref":"ｷｮｳﾄﾌ","kana_city":"ｷｮｳﾄｼｶﾐｷﾞｮｳｸ","kana_address":"ﾓﾄﾁｮｳﾐｮｳｼﾞﾁｮｳ","pref":"京都府","city":"京都市上京区","address":"元頂妙寺町"},
{"zip_code":"6028006","kana_pref":"ｷｮｳﾄﾌ","kana_city":"ｷｮｳﾄｼｶﾐｷﾞｮｳｸ","kana_address":"ﾓﾄﾂﾁﾐｶﾄﾞﾁｮｳ","pref":"京都府","city":"京都市上京区","address":"元土御門町"},
{"zip_code":"6028452","kana_pref":"ｷｮｳﾄﾌ","kana_city":"ｷｮｳﾄｼｶﾐｷﾞｮｳｸ","kana_address":"ﾓﾄﾅｶﾉﾁｮｳ","pref":"京都府","city":"京都市上京区","address":"元中之町"},
{"zip_code":"6020953","kana_pref":"ｷｮｳﾄﾌ","kana_city":"ｷｮｳﾄｼｶﾐｷﾞｮｳｸ","kana_address":"ﾓﾄﾋｬｸﾏﾝﾍﾞﾝﾁｮｳ","pref":"京都府","city":"京都市上京区","address":"元百万遍町"},
{"zip_code":"6028113","kana_pref":"ｷｮｳﾄﾌ","kana_city":"ｷｮｳﾄｼｶﾐｷﾞｮｳｸ","kana_address":"ﾓﾄﾌｸﾀﾞｲﾐｮｳｼﾞﾝﾁｮｳ","pref":"京都府","city":"京都市上京区","address":"元福大明神町"},
{"zip_code":"6020043","kana_pref":"ｷｮｳﾄﾌ","kana_city":"ｷｮｳﾄｼｶﾐｷﾞｮｳｸ","kana_address":"ﾓﾄﾎﾝﾏﾝｼﾞﾁｮｳ","pref":"京都府","city":"京都市上京区","address":"元本満寺町"},
{"zip_code":"6028443","kana_pref":"ｷｮｳﾄﾌ","kana_city":"ｷｮｳﾄｼｶﾐｷﾞｮｳｸ","kana_address":"ﾓﾄﾐｮｳﾚﾝｼﾞﾁｮｳ","pref":"京都府","city":"京都市上京区","address":"元妙蓮寺町"},
{"zip_code":"6028464","kana_pref":"ｷｮｳﾄﾌ","kana_city":"ｷｮｳﾄｼｶﾐｷﾞｮｳｸ","kana_address":"ﾓﾄﾖﾝﾁｮｳﾒ","pref":"京都府","city":"京都市上京区","address":"元四丁目"},
{"zip_code":"6028124","kana_pref":"ｷｮｳﾄﾌ","kana_city":"ｷｮｳﾄｼｶﾐｷﾞｮｳｸ","kana_address":"ﾓﾘﾅｶﾁｮｳ","pref":"京都府","city":"京都市上京区","address":"森中町"},
{"zip_code":"6020011","kana_pref":"ｷｮｳﾄﾌ","kana_city":"ｷｮｳﾄｼｶﾐｷﾞｮｳｸ","kana_address":"ﾓﾘﾉｷﾁｮｳ","pref":"京都府","city":"京都市上京区","address":"森之木町"},
{"zip_code":"6028028","kana_pref":"ｷｮｳﾄﾌ","kana_city":"ｷｮｳﾄｼｶﾐｷﾞｮｳｸ","kana_address":"ﾓﾝｾﾞｷﾁｮｳ","pref":"京都府","city":"京都市上京区","address":"門跡町"},
{"zip_code":"6028447","kana_pref":"ｷｮｳﾄﾌ","kana_city":"ｷｮｳﾄｼｶﾐｷﾞｮｳｸ","kana_address":"ﾓﾝﾔﾁｮｳ","pref":"京都府","city":"京都市上京区","address":"紋屋町"},
{"zip_code":"6028442","kana_pref":"ｷｮｳﾄﾌ","kana_city":"ｷｮｳﾄｼｶﾐｷﾞｮｳｸ","kana_address":"ﾔｸｼﾁｮｳ","pref":"京都府","city":"京都市上京区","address":"薬師町"},
{"zip_code":"6028401","kana_pref":"ｷｮｳﾄﾌ","kana_city":"ｷｮｳﾄｼｶﾐｷﾞｮｳｸ","kana_address":"ﾔｸｼﾏｴﾁｮｳ","pref":"京都府","city":"京都市上京区","address":"薬師前町"},
{"zip_code":"6028241","kana_pref":"ｷｮｳﾄﾌ","kana_city":"ｷｮｳﾄｼｶﾐｷﾞｮｳｸ","kana_address":"ﾔｸﾆﾝﾁｮｳ","pref":"京都府","city":"京都市上京区","address":"役人町"},
{"zip_code":"6020095","kana_pref":"ｷｮｳﾄﾌ","kana_city":"ｷｮｳﾄｼｶﾐｷﾞｮｳｸ","kana_address":"ﾔｼﾛﾂｷﾇｹﾁｮｳ","pref":"京都府","city":"京都市上京区","address":"社突抜町"},
{"zip_code":"6020094","kana_pref":"ｷｮｳﾄﾌ","kana_city":"ｷｮｳﾄｼｶﾐｷﾞｮｳｸ","kana_address":"ﾔｼﾛﾖｺﾁｮｳ","pref":"京都府","city":"京都市上京区","address":"社横町"},
{"zip_code":"6020021","kana_pref":"ｷｮｳﾄﾌ","kana_city":"ｷｮｳﾄｼｶﾐｷﾞｮｳｸ","kana_address":"ﾔﾅｷﾞﾉｽﾞｼﾁｮｳ","pref":"京都府","city":"京都市上京区","address":"柳図子町"},
{"zip_code":"6020838","kana_pref":"ｷｮｳﾄﾌ","kana_city":"ｷｮｳﾄｼｶﾐｷﾞｮｳｸ","kana_address":"ﾔﾅｷﾞﾌﾛﾁｮｳ","pref":"京都府","city":"京都市上京区","address":"柳風呂町"},
{"zip_code":"6028041","kana_pref":"ｷｮｳﾄﾌ","kana_city":"ｷｮｳﾄｼｶﾐｷﾞｮｳｸ","kana_address":"ﾔﾌﾞﾉｳﾁﾁｮｳ","pref":"京都府","city":"京都市上京区","address":"藪之内町"},
{"zip_code":"6020806","kana_pref":"ｷｮｳﾄﾌ","kana_city":"ｷｮｳﾄｼｶﾐｷﾞｮｳｸ","kana_address":"ﾔﾌﾞﾉｼﾀﾁｮｳ","pref":"京都府","city":"京都市上京区","address":"藪之下町"},
{"zip_code":"6028268","kana_pref":"ｷｮｳﾄﾌ","kana_city":"ｷｮｳﾄｼｶﾐｷﾞｮｳｸ","kana_address":"ﾔﾏｻﾞﾄﾁｮｳ","pref":"京都府","city":"京都市上京区","address":"山里町"},
{"zip_code":"6028422","kana_pref":"ｷｮｳﾄﾌ","kana_city":"ｷｮｳﾄｼｶﾐｷﾞｮｳｸ","kana_address":"ﾔﾏﾅﾁｮｳ","pref":"京都府","city":"京都市上京区","address":"山名町"},
{"zip_code":"6028171","kana_pref":"ｷｮｳﾄﾌ","kana_city":"ｷｮｳﾄｼｶﾐｷﾞｮｳｸ","kana_address":"ﾔﾏﾓﾄﾁｮｳ","pref":"京都府","city":"京都市上京区","address":"山本町"},
{"zip_code":"6028366","kana_pref":"ｷｮｳﾄﾌ","kana_city":"ｷｮｳﾄｼｶﾐｷﾞｮｳｸ","kana_address":"ﾕｸｴﾁｮｳ","pref":"京都府","city":"京都市上京区","address":"行衛町"},
{"zip_code":"6028022","kana_pref":"ｷｮｳﾄﾌ","kana_city":"ｷｮｳﾄｼｶﾐｷﾞｮｳｸ","kana_address":"ﾖｳｱﾝﾁｮｳ","pref":"京都府","city":"京都市上京区","address":"養安町"},
{"zip_code":"6028449","kana_pref":"ｷｮｳﾄﾌ","kana_city":"ｷｮｳﾄｼｶﾐｷﾞｮｳｸ","kana_address":"ﾖｺｵｵﾐﾔﾁｮｳ","pref":"京都府","city":"京都市上京区","address":"横大宮町"},
{"zip_code":"6028223","kana_pref":"ｷｮｳﾄﾌ","kana_city":"ｷｮｳﾄｼｶﾐｷﾞｮｳｸ","kana_address":"ﾖｺｼﾝﾒｲﾁｮｳ","pref":"京都府","city":"京都市上京区","address":"横神明町"},
{"zip_code":"6028117","kana_pref":"ｷｮｳﾄﾌ","kana_city":"ｷｮｳﾄｼｶﾐｷﾞｮｳｸ","kana_address":"ﾖｼﾉﾁｮｳ","pref":"京都府","city":"京都市上京区","address":"吉野町"},
{"zip_code":"6028112","kana_pref":"ｷｮｳﾄﾌ","kana_city":"ｷｮｳﾄｼｶﾐｷﾞｮｳｸ","kana_address":"ﾖﾝﾁｮｳﾒ","pref":"京都府","city":"京都市上京区","address":"四町目"},
{"zip_code":"6028045","kana_pref":"ｷｮｳﾄﾌ","kana_city":"ｷｮｳﾄｼｶﾐｷﾞｮｳｸ","kana_address":"ﾖﾝﾁｮｳﾒ","pref":"京都府","city":"京都市上京区","address":"四町目"},
{"zip_code":"6028154","kana_pref":"ｷｮｳﾄﾌ","kana_city":"ｷｮｳﾄｼｶﾐｷﾞｮｳｸ","kana_address":"ﾖﾝﾁｮｳﾒ","pref":"京都府","city":"京都市上京区","address":"四町目"},
{"zip_code":"6028347","kana_pref":"ｷｮｳﾄﾌ","kana_city":"ｷｮｳﾄｼｶﾐｷﾞｮｳｸ","kana_address":"ﾖﾝﾊﾞﾝﾁｮｳ","pref":"京都府","city":"京都市上京区","address":"四番町"},
{"zip_code":"6028343","kana_pref":"ｷｮｳﾄﾌ","kana_city":"ｷｮｳﾄｼｶﾐｷﾞｮｳｸ","kana_address":"ﾘｾｲﾁｮｳ","pref":"京都府","city":"京都市上京区","address":"利生町"},
{"zip_code":"6020831","kana_pref":"ｷｮｳﾄﾌ","kana_city":"ｷｮｳﾄｼｶﾐｷﾞｮｳｸ","kana_address":"ﾘｭｳﾎﾝｼﾞﾏｴﾁｮｳ","pref":"京都府","city":"京都市上京区","address":"立本寺前町"},
{"zip_code":"6028016","kana_pref":"ｷｮｳﾄﾌ","kana_city":"ｷｮｳﾄｼｶﾐｷﾞｮｳｸ","kana_address":"ﾘｮｳｺﾞﾘｮｳﾁｮｳ","pref":"京都府","city":"京都市上京区","address":"両御霊町"},
{"zip_code":"6028035","kana_pref":"ｷｮｳﾄﾌ","kana_city":"ｷｮｳﾄｼｶﾐｷﾞｮｳｸ","kana_address":"ﾛｸﾁｮｳﾒ","pref":"京都府","city":"京都市上京区","address":"六町目"},
{"zip_code":"6028351","kana_pref":"ｷｮｳﾄﾌ","kana_city":"ｷｮｳﾄｼｶﾐｷﾞｮｳｸ","kana_address":"ﾛｸﾊﾞﾝﾁｮｳ","pref":"京都府","city":"京都市上京区","address":"六番町"},
{"zip_code":"6028331","kana_pref":"ｷｮｳﾄﾌ","kana_city":"ｷｮｳﾄｼｶﾐｷﾞｮｳｸ","kana_address":"ﾜｶﾏﾂﾁｮｳ","pref":"京都府","city":"京都市上京区","address":"若松町"},
{"zip_code":"6020085","kana_pref":"ｷｮｳﾄﾌ","kana_city":"ｷｮｳﾄｼｶﾐｷﾞｮｳｸ","kana_address":"ﾜｶﾐﾔﾀﾃﾁｮｳ","pref":"京都府","city":"京都市上京区","address":"若宮竪町"},
{"zip_code":"6020084","kana_pref":"ｷｮｳﾄﾌ","kana_city":"ｷｮｳﾄｼｶﾐｷﾞｮｳｸ","kana_address":"ﾜｶﾐﾔﾖｺﾁｮｳ","pref":"京都府","city":"京都市上京区","address":"若宮横町"},
{"zip_code":"6028258","kana_pref":"ｷｮｳﾄﾌ","kana_city":"ｷｮｳﾄｼｶﾐｷﾞｮｳｸ","kana_address":"ﾜｽｲﾁｮｳ","pref":"京都府","city":"京都市上京区","address":"和水町"},
{"zip_code":"6028144","kana_pref":"ｷｮｳﾄﾌ","kana_city":"ｷｮｳﾄｼｶﾐｷﾞｮｳｸ","kana_address":"ﾜﾗﾔﾁｮｳ","pref":"京都府","city":"京都市上京区","address":"藁屋町"}]}