{"zip_code":[
{"zip_code":"6030000","kana_pref":"ｷｮｳﾄﾌ","kana_city":"ｷｮｳﾄｼｷﾀｸ","kana_address":"","pref":"京都府","city":"京都市北区","address":""},
{"zip_code":"6038136","kana_pref":"ｷｮｳﾄﾌ","kana_city":"ｷｮｳﾄｼｷﾀｸ","kana_address":"ｲｽﾞﾓｼﾞｶｸﾞﾗﾁｮｳ","pref":"京都府","city":"京都市北区","address":"出雲路神楽町"},
{"zip_code":"6038134","kana_pref":"ｷｮｳﾄﾌ","kana_city":"ｷｮｳﾄｼｷﾀｸ","kana_address":"ｲｽﾞﾓｼﾞﾀﾃﾓﾄﾁｮｳ","pref":"京都府","city":"京都市北区","address":"出雲路立テ本町"},
{"zip_code":"6038135","kana_pref":"ｷｮｳﾄﾌ","kana_city":"ｷｮｳﾄｼｷﾀｸ","kana_address":"ｲｽﾞﾓｼﾞﾀﾜﾗﾁｮｳ","pref":"京都府","city":"京都市北区","address":"出雲路俵町"},
{"zip_code":"6038133","kana_pref":"ｷｮｳﾄﾌ","kana_city":"ｷｮｳﾄｼｷﾀｸ","kana_address":"ｲｽﾞﾓｼﾞﾏﾂﾉｼﾀﾁｮｳ","pref":"京都府","city":"京都市北区","address":"出雲路松ノ下町"},
{"zip_code":"6038481","kana_pref":"ｷｮｳﾄﾌ","kana_city":"ｷｮｳﾄｼｷﾀｸ","kana_address":"ｵｵｷﾀﾔﾏｶｶﾞﾐｲｼﾁｮｳ","pref":"京都府","city":"京都市北区","address":"大北山鏡石町"},
{"zip_code":"6038482","kana_pref":"ｷｮｳﾄﾌ","kana_city":"ｷｮｳﾄｼｷﾀｸ","kana_address":"ｵｵｷﾀﾔﾏﾃﾝｼﾞﾝｵｶﾁｮｳ","pref":"京都府","city":"京都市北区","address":"大北山天神岡町"},
{"zip_code":"6038483","kana_pref":"ｷｮｳﾄﾌ","kana_city":"ｷｮｳﾄｼｷﾀｸ","kana_address":"ｵｵｷﾀﾔﾏﾊｽｶﾞﾀﾞﾆﾁｮｳ","pref":"京都府","city":"京都市北区","address":"大北山蓮ケ谷町"},
{"zip_code":"6038488","kana_pref":"ｷｮｳﾄﾌ","kana_city":"ｷｮｳﾄｼｷﾀｸ","kana_address":"ｵｵｷﾀﾔﾏﾊｾﾁｮｳ","pref":"京都府","city":"京都市北区","address":"大北山長谷町"},
{"zip_code":"6038487","kana_pref":"ｷｮｳﾄﾌ","kana_city":"ｷｮｳﾄｼｷﾀｸ","kana_address":"ｵｵｷﾀﾔﾏﾊﾗﾀﾞﾆｲﾇｲﾁｮｳ","pref":"京都府","city":"京都市北区","address":"大北山原谷乾町"},
{"zip_code":"6038457","kana_pref":"ｷｮｳﾄﾌ","kana_city":"ｷｮｳﾄｼｷﾀｸ","kana_address":"ｵｵｷﾀﾔﾏﾌﾄﾞｳｻﾝﾁｮｳ","pref":"京都府","city":"京都市北区","address":"大北山不動山町"},
{"zip_code":"6038477","kana_pref":"ｷｮｳﾄﾌ","kana_city":"ｷｮｳﾄｼｷﾀｸ","kana_address":"ｵｵﾐﾔｲﾁﾉｲﾁｮｳ","pref":"京都府","city":"京都市北区","address":"大宮一ノ井町"},
{"zip_code":"6038401","kana_pref":"ｷｮｳﾄﾌ","kana_city":"ｷｮｳﾄｼｷﾀｸ","kana_address":"ｵｵﾐﾔｶﾐﾉｷｼﾁｮｳ","pref":"京都府","city":"京都市北区","address":"大宮上ノ岸町"},
{"zip_code":"6038408","kana_pref":"ｷｮｳﾄﾌ","kana_city":"ｷｮｳﾄｼｷﾀｸ","kana_address":"ｵｵﾐﾔｷﾀﾂﾊﾞｷﾊﾗﾁｮｳ","pref":"京都府","city":"京都市北区","address":"大宮北椿原町"},
{"zip_code":"6038831","kana_pref":"ｷｮｳﾄﾌ","kana_city":"ｷｮｳﾄｼｷﾀｸ","kana_address":"ｵｵﾐﾔｷﾀﾉｷｼﾁｮｳ","pref":"京都府","city":"京都市北区","address":"大宮北ノ岸町"},
{"zip_code":"6038475","kana_pref":"ｷｮｳﾄﾌ","kana_city":"ｷｮｳﾄｼｷﾀｸ","kana_address":"ｵｵﾐﾔｷﾀﾊｺﾉｲﾁｮｳ","pref":"京都府","city":"京都市北区","address":"大宮北箱ノ井町"},
{"zip_code":"6038407","kana_pref":"ｷｮｳﾄﾌ","kana_city":"ｷｮｳﾄｼｷﾀｸ","kana_address":"ｵｵﾐﾔｷﾀﾊﾞﾔｼﾁｮｳ","pref":"京都府","city":"京都市北区","address":"大宮北林町"},
{"zip_code":"6038472","kana_pref":"ｷｮｳﾄﾌ","kana_city":"ｷｮｳﾄｼｷﾀｸ","kana_address":"ｵｵﾐﾔｷﾀﾔﾏﾉﾏｴﾁｮｳ","pref":"京都府","city":"京都市北区","address":"大宮北山ノ前町"},
{"zip_code":"6038461","kana_pref":"ｷｮｳﾄﾌ","kana_city":"ｷｮｳﾄｼｷﾀｸ","kana_address":"ｵｵﾐﾔｹﾞﾝﾀｸｷﾀﾋｶﾞｼﾁｮｳ","pref":"京都府","city":"京都市北区","address":"大宮玄琢北東町"},
{"zip_code":"6038462","kana_pref":"ｷｮｳﾄﾌ","kana_city":"ｷｮｳﾄｼｷﾀｸ","kana_address":"ｵｵﾐﾔｹﾞﾝﾀｸｷﾀﾏﾁ","pref":"京都府","city":"京都市北区","address":"大宮玄琢北町"},
{"zip_code":"6038463","kana_pref":"ｷｮｳﾄﾌ","kana_city":"ｷｮｳﾄｼｷﾀｸ","kana_address":"ｵｵﾐﾔｹﾞﾝﾀｸﾐﾅﾐﾏﾁ","pref":"京都府","city":"京都市北区","address":"大宮玄琢南町"},
{"zip_code":"6038478","kana_pref":"ｷｮｳﾄﾌ","kana_city":"ｷｮｳﾄｼｷﾀｸ","kana_address":"ｵｵﾐﾔｼｬｶﾀﾞﾆ","pref":"京都府","city":"京都市北区","address":"大宮釈迦谷"},
{"zip_code":"6038838","kana_pref":"ｷｮｳﾄﾌ","kana_city":"ｷｮｳﾄｼｷﾀｸ","kana_address":"ｵｵﾐﾔﾀｼﾞﾘﾁｮｳ","pref":"京都府","city":"京都市北区","address":"大宮田尻町"},
{"zip_code":"6038441","kana_pref":"ｷｮｳﾄﾌ","kana_city":"ｷｮｳﾄｼｷﾀｸ","kana_address":"ｵｵﾐﾔﾄﾞｲﾁｮｳ","pref":"京都府","city":"京都市北区","address":"大宮土居町"},
{"zip_code":"6038834","kana_pref":"ｷｮｳﾄﾌ","kana_city":"ｷｮｳﾄｼｷﾀｸ","kana_address":"ｵｵﾐﾔﾅｶｿｳﾓﾝｸﾞﾁﾁｮｳ","pref":"京都府","city":"京都市北区","address":"大宮中総門口町"},
{"zip_code":"6038837","kana_pref":"ｷｮｳﾄﾌ","kana_city":"ｷｮｳﾄｼｷﾀｸ","kana_address":"ｵｵﾐﾔﾅｶﾉﾔｼﾛﾁｮｳ","pref":"京都府","city":"京都市北区","address":"大宮中ノ社町"},
{"zip_code":"6038404","kana_pref":"ｷｮｳﾄﾌ","kana_city":"ｷｮｳﾄｼｷﾀｸ","kana_address":"ｵｵﾐﾔﾅｶﾊﾞﾔｼﾁｮｳ","pref":"京都府","city":"京都市北区","address":"大宮中林町"},
{"zip_code":"6038405","kana_pref":"ｷｮｳﾄﾌ","kana_city":"ｷｮｳﾄｼｷﾀｸ","kana_address":"ｵｵﾐﾔﾆｼｵﾉﾎﾞﾘﾁｮｳ","pref":"京都府","city":"京都市北区","address":"大宮西小野堀町"},
{"zip_code":"6038835","kana_pref":"ｷｮｳﾄﾌ","kana_city":"ｷｮｳﾄｼｷﾀｸ","kana_address":"ｵｵﾐﾔﾆｼｿｳﾓﾝｸﾞﾁﾁｮｳ","pref":"京都府","city":"京都市北区","address":"大宮西総門口町"},
{"zip_code":"6038444","kana_pref":"ｷｮｳﾄﾌ","kana_city":"ｷｮｳﾄｼｷﾀｸ","kana_address":"ｵｵﾐﾔﾆｼﾉﾔﾏﾁｮｳ","pref":"京都府","city":"京都市北区","address":"大宮西野山町"},
{"zip_code":"6038471","kana_pref":"ｷｮｳﾄﾌ","kana_city":"ｷｮｳﾄｼｷﾀｸ","kana_address":"ｵｵﾐﾔﾆｼﾔﾏﾉﾏｴﾁｮｳ","pref":"京都府","city":"京都市北区","address":"大宮西山ノ前町"},
{"zip_code":"6038432","kana_pref":"ｷｮｳﾄﾌ","kana_city":"ｷｮｳﾄｼｷﾀｸ","kana_address":"ｵｵﾐﾔﾆｼﾜｷﾀﾞｲﾁｮｳ","pref":"京都府","city":"京都市北区","address":"大宮西脇台町"},
{"zip_code":"6038406","kana_pref":"ｷｮｳﾄﾌ","kana_city":"ｷｮｳﾄｼｷﾀｸ","kana_address":"ｵｵﾐﾔﾋｶﾞｼｵﾉﾎﾞﾘﾁｮｳ","pref":"京都府","city":"京都市北区","address":"大宮東小野堀町"},
{"zip_code":"6038833","kana_pref":"ｷｮｳﾄﾌ","kana_city":"ｷｮｳﾄｼｷﾀｸ","kana_address":"ｵｵﾐﾔﾋｶﾞｼｿｳﾓﾝｸﾞﾁﾁｮｳ","pref":"京都府","city":"京都市北区","address":"大宮東総門口町"},
{"zip_code":"6038431","kana_pref":"ｷｮｳﾄﾌ","kana_city":"ｷｮｳﾄｼｷﾀｸ","kana_address":"ｵｵﾐﾔﾋｶﾞｼﾜｷﾀﾞｲﾁｮｳ","pref":"京都府","city":"京都市北区","address":"大宮東脇台町"},
{"zip_code":"6038437","kana_pref":"ｷｮｳﾄﾌ","kana_city":"ｷｮｳﾄｼｷﾀｸ","kana_address":"ｵｵﾐﾔﾋﾗｷﾁｮｳ","pref":"京都府","city":"京都市北区","address":"大宮開町"},
{"zip_code":"6038832","kana_pref":"ｷｮｳﾄﾌ","kana_city":"ｷｮｳﾄｼｷﾀｸ","kana_address":"ｵｵﾐﾔﾐﾅﾐﾀｼﾞﾘﾁｮｳ","pref":"京都府","city":"京都市北区","address":"大宮南田尻町"},
{"zip_code":"6038402","kana_pref":"ｷｮｳﾄﾌ","kana_city":"ｷｮｳﾄｼｷﾀｸ","kana_address":"ｵｵﾐﾔﾐﾅﾐﾂﾊﾞｷﾊﾗﾁｮｳ","pref":"京都府","city":"京都市北区","address":"大宮南椿原町"},
{"zip_code":"6038476","kana_pref":"ｷｮｳﾄﾌ","kana_city":"ｷｮｳﾄｼｷﾀｸ","kana_address":"ｵｵﾐﾔﾐﾅﾐﾊｺﾉｲﾁｮｳ","pref":"京都府","city":"京都市北区","address":"大宮南箱ノ井町"},
{"zip_code":"6038403","kana_pref":"ｷｮｳﾄﾌ","kana_city":"ｷｮｳﾄｼｷﾀｸ","kana_address":"ｵｵﾐﾔﾐﾅﾐﾊﾞﾔｼﾁｮｳ","pref":"京都府","city":"京都市北区","address":"大宮南林町"},
{"zip_code":"6038473","kana_pref":"ｷｮｳﾄﾌ","kana_city":"ｷｮｳﾄｼｷﾀｸ","kana_address":"ｵｵﾐﾔﾐﾅﾐﾔﾏﾉﾏｴﾁｮｳ","pref":"京都府","city":"京都市北区","address":"大宮南山ノ前町"},
{"zip_code":"6038479","kana_pref":"ｷｮｳﾄﾌ","kana_city":"ｷｮｳﾄｼｷﾀｸ","kana_address":"ｵｵﾐﾔﾔｸｼﾔﾏﾆｼﾁｮｳ","pref":"京都府","city":"京都市北区","address":"大宮薬師山西町"},
{"zip_code":"6038474","kana_pref":"ｷｮｳﾄﾌ","kana_city":"ｷｮｳﾄｼｷﾀｸ","kana_address":"ｵｵﾐﾔﾔｸｼﾔﾏﾋｶﾞｼﾁｮｳ","pref":"京都府","city":"京都市北区","address":"大宮薬師山東町"},
{"zip_code":"6038012","kana_pref":"ｷｮｳﾄﾌ","kana_city":"ｷｮｳﾄｼｷﾀｸ","kana_address":"ｶﾐｶﾞﾓｱｵｲﾃﾞﾝﾁｮｳ","pref":"京都府","city":"京都市北区","address":"上賀茂葵田町"},
{"zip_code":"6038034","kana_pref":"ｷｮｳﾄﾌ","kana_city":"ｷｮｳﾄｼｷﾀｸ","kana_address":"ｶﾐｶﾞﾓｱｵｲﾉﾓﾘﾁｮｳ","pref":"京都府","city":"京都市北区","address":"上賀茂葵之森町"},
{"zip_code":"6038018","kana_pref":"ｷｮｳﾄﾌ","kana_city":"ｷｮｳﾄｼｷﾀｸ","kana_address":"ｶﾐｶﾞﾓｱｶｵﾁｮｳ","pref":"京都府","city":"京都市北区","address":"上賀茂赤尾町"},
{"zip_code":"6038035","kana_pref":"ｷｮｳﾄﾌ","kana_city":"ｷｮｳﾄｼｷﾀｸ","kana_address":"ｶﾐｶﾞﾓｱｻﾂﾕｶﾞﾊﾗﾁｮｳ","pref":"京都府","city":"京都市北区","address":"上賀茂朝露ケ原町"},
{"zip_code":"6038044","kana_pref":"ｷｮｳﾄﾌ","kana_city":"ｷｮｳﾄｼｷﾀｸ","kana_address":"ｶﾐｶﾞﾓｱｾﾞｶﾁﾁｮｳ","pref":"京都府","city":"京都市北区","address":"上賀茂畔勝町"},
{"zip_code":"6038061","kana_pref":"ｷｮｳﾄﾌ","kana_city":"ｷｮｳﾄｼｷﾀｸ","kana_address":"ｶﾐｶﾞﾓｱﾗｸｻﾁｮｳ","pref":"京都府","city":"京都市北区","address":"上賀茂荒草町"},
{"zip_code":"6038066","kana_pref":"ｷｮｳﾄﾌ","kana_city":"ｷｮｳﾄｼｷﾀｸ","kana_address":"ｶﾐｶﾞﾓｲｹﾄﾞﾉﾁｮｳ","pref":"京都府","city":"京都市北区","address":"上賀茂池殿町"},
{"zip_code":"6038043","kana_pref":"ｷｮｳﾄﾌ","kana_city":"ｷｮｳﾄｼｷﾀｸ","kana_address":"ｶﾐｶﾞﾓｲｹﾊﾞﾀﾁｮｳ","pref":"京都府","city":"京都市北区","address":"上賀茂池端町"},
{"zip_code":"6038056","kana_pref":"ｷｮｳﾄﾌ","kana_city":"ｷｮｳﾄｼｷﾀｸ","kana_address":"ｶﾐｶﾞﾓｲｼｶｽﾞﾁｮｳ","pref":"京都府","city":"京都市北区","address":"上賀茂石計町"},
{"zip_code":"6038017","kana_pref":"ｷｮｳﾄﾌ","kana_city":"ｷｮｳﾄｼｷﾀｸ","kana_address":"ｶﾐｶﾞﾓｲｯﾁｮｳｸﾞﾁﾁｮｳ","pref":"京都府","city":"京都市北区","address":"上賀茂壱町口町"},
{"zip_code":"6038063","kana_pref":"ｷｮｳﾄﾌ","kana_city":"ｷｮｳﾄｼｷﾀｸ","kana_address":"ｶﾐｶﾞﾓｲﾏｲｶﾞﾜﾗﾁｮｳ","pref":"京都府","city":"京都市北区","address":"上賀茂今井河原町"},
{"zip_code":"6038053","kana_pref":"ｷｮｳﾄﾌ","kana_city":"ｷｮｳﾄｼｷﾀｸ","kana_address":"ｶﾐｶﾞﾓｲﾜｶﾞｶｷｳﾁﾁｮｳ","pref":"京都府","city":"京都市北区","address":"上賀茂岩ケ垣内町"},
{"zip_code":"6038033","kana_pref":"ｷｮｳﾄﾌ","kana_city":"ｷｮｳﾄｼｷﾀｸ","kana_address":"ｶﾐｶﾞﾓｳﾏﾉﾒﾁｮｳ","pref":"京都府","city":"京都市北区","address":"上賀茂馬ノ目町"},
{"zip_code":"6038087","kana_pref":"ｷｮｳﾄﾌ","kana_city":"ｷｮｳﾄｼｷﾀｸ","kana_address":"ｶﾐｶﾞﾓｳﾒｶﾞﾂｼﾞﾁｮｳ","pref":"京都府","city":"京都市北区","address":"上賀茂梅ケ辻町"},
{"zip_code":"6038073","kana_pref":"ｷｮｳﾄﾌ","kana_city":"ｷｮｳﾄｼｷﾀｸ","kana_address":"ｶﾐｶﾞﾓｴﾎﾞｼｶﾞｶｷｳﾁﾁｮｳ","pref":"京都府","city":"京都市北区","address":"上賀茂烏帽子ケ垣内町"},
{"zip_code":"6038037","kana_pref":"ｷｮｳﾄﾌ","kana_city":"ｷｮｳﾄｼｷﾀｸ","kana_address":"ｶﾐｶﾞﾓｵｵﾔﾅｷﾞﾁｮｳ","pref":"京都府","city":"京都市北区","address":"上賀茂大柳町"},
{"zip_code":"6038082","kana_pref":"ｷｮｳﾄﾌ","kana_city":"ｷｮｳﾄｼｷﾀｸ","kana_address":"ｶﾐｶﾞﾓｵｶﾓﾄｸﾞﾁﾁｮｳ","pref":"京都府","city":"京都市北区","address":"上賀茂岡本口町"},
{"zip_code":"6038081","kana_pref":"ｷｮｳﾄﾌ","kana_city":"ｷｮｳﾄｼｷﾀｸ","kana_address":"ｶﾐｶﾞﾓｵｶﾓﾄﾁｮｳ","pref":"京都府","city":"京都市北区","address":"上賀茂岡本町"},
{"zip_code":"6038038","kana_pref":"ｷｮｳﾄﾌ","kana_city":"ｷｮｳﾄｼｷﾀｸ","kana_address":"ｶﾐｶﾞﾓｵﾄﾎﾞｾﾁｮｳ","pref":"京都府","city":"京都市北区","address":"上賀茂音保瀬町"},
{"zip_code":"6038013","kana_pref":"ｷｮｳﾄﾌ","kana_city":"ｷｮｳﾄｼｷﾀｸ","kana_address":"ｶﾐｶﾞﾓｶﾐｼﾞﾝﾊﾞﾗﾁｮｳ","pref":"京都府","city":"京都市北区","address":"上賀茂上神原町"},
{"zip_code":"6038071","kana_pref":"ｷｮｳﾄﾌ","kana_city":"ｷｮｳﾄｼｷﾀｸ","kana_address":"ｶﾐｶﾞﾓｷﾀｵｵｼﾞﾁｮｳ","pref":"京都府","city":"京都市北区","address":"上賀茂北大路町"},
{"zip_code":"6038006","kana_pref":"ｷｮｳﾄﾌ","kana_city":"ｷｮｳﾄｼｷﾀｸ","kana_address":"ｶﾐｶﾞﾓｷﾀﾉﾊﾗﾁｮｳ","pref":"京都府","city":"京都市北区","address":"上賀茂北ノ原町"},
{"zip_code":"6038007","kana_pref":"ｷｮｳﾄﾌ","kana_city":"ｷｮｳﾄｼｷﾀｸ","kana_address":"ｶﾐｶﾞﾓｹｱﾅｲﾁｮｳ","pref":"京都府","city":"京都市北区","address":"上賀茂毛穴井町"},
{"zip_code":"6038041","kana_pref":"ｷｮｳﾄﾌ","kana_city":"ｷｮｳﾄｼｷﾀｸ","kana_address":"ｶﾐｶﾞﾓｹｼﾔﾏ","pref":"京都府","city":"京都市北区","address":"上賀茂ケシ山"},
{"zip_code":"6038002","kana_pref":"ｷｮｳﾄﾌ","kana_city":"ｷｮｳﾄｼｷﾀｸ","kana_address":"ｶﾐｶﾞﾓｺｳﾔﾏ","pref":"京都府","city":"京都市北区","address":"上賀茂神山"},
{"zip_code":"6038051","kana_pref":"ｷｮｳﾄﾌ","kana_city":"ｷｮｳﾄｼｷﾀｸ","kana_address":"ｶﾐｶﾞﾓｻｶｷﾀﾞﾁｮｳ","pref":"京都府","city":"京都市北区","address":"上賀茂榊田町"},
{"zip_code":"6038016","kana_pref":"ｷｮｳﾄﾌ","kana_city":"ｷｮｳﾄｼｷﾀｸ","kana_address":"ｶﾐｶﾞﾓｻｶｸﾞﾁﾁｮｳ","pref":"京都府","city":"京都市北区","address":"上賀茂坂口町"},
{"zip_code":"6038054","kana_pref":"ｷｮｳﾄﾌ","kana_city":"ｷｮｳﾄｼｷﾀｸ","kana_address":"ｶﾐｶﾞﾓｻｸﾗｲﾁｮｳ","pref":"京都府","city":"京都市北区","address":"上賀茂桜井町"},
{"zip_code":"6038014","kana_pref":"ｷｮｳﾄﾌ","kana_city":"ｷｮｳﾄｼｷﾀｸ","kana_address":"ｶﾐｶﾞﾓｼﾓｼﾞﾝﾊﾞﾗﾁｮｳ","pref":"京都府","city":"京都市北区","address":"上賀茂下神原町"},
{"zip_code":"6038001","kana_pref":"ｷｮｳﾄﾌ","kana_city":"ｷｮｳﾄｼｷﾀｸ","kana_address":"ｶﾐｶﾞﾓｼﾞｭｳｻﾝｺﾞｸﾔﾏ","pref":"京都府","city":"京都市北区","address":"上賀茂十三石山"},
{"zip_code":"6038064","kana_pref":"ｷｮｳﾄﾌ","kana_city":"ｷｮｳﾄｼｷﾀｸ","kana_address":"ｶﾐｶﾞﾓｼｮｳﾌﾞｴﾝﾁｮｳ","pref":"京都府","city":"京都市北区","address":"上賀茂菖蒲園町"},
{"zip_code":"6038085","kana_pref":"ｷｮｳﾄﾌ","kana_city":"ｷｮｳﾄｼｷﾀｸ","kana_address":"ｶﾐｶﾞﾓｾﾐｶﾞｶｷｳﾁﾁｮｳ","pref":"京都府","city":"京都市北区","address":"上賀茂蝉ケ垣内町"},
{"zip_code":"6038055","kana_pref":"ｷｮｳﾄﾌ","kana_city":"ｷｮｳﾄｼｷﾀｸ","kana_address":"ｶﾐｶﾞﾓﾀｶﾅﾜﾃﾁｮｳ","pref":"京都府","city":"京都市北区","address":"上賀茂高縄手町"},
{"zip_code":"6038072","kana_pref":"ｷｮｳﾄﾌ","kana_city":"ｷｮｳﾄｼｷﾀｸ","kana_address":"ｶﾐｶﾞﾓﾀｹｶﾞﾊﾅﾁｮｳ","pref":"京都府","city":"京都市北区","address":"上賀茂竹ケ鼻町"},
{"zip_code":"6038084","kana_pref":"ｷｮｳﾄﾌ","kana_city":"ｷｮｳﾄｼｷﾀｸ","kana_address":"ｶﾐｶﾞﾓﾂﾁｶﾄﾞﾁｮｳ","pref":"京都府","city":"京都市北区","address":"上賀茂土門町"},
{"zip_code":"6038027","kana_pref":"ｷｮｳﾄﾌ","kana_city":"ｷｮｳﾄｼｷﾀｸ","kana_address":"ｶﾐｶﾞﾓﾂﾉｸﾆﾁｮｳ","pref":"京都府","city":"京都市北区","address":"上賀茂津ノ国町"},
{"zip_code":"6038045","kana_pref":"ｷｮｳﾄﾌ","kana_city":"ｷｮｳﾄｼｷﾀｸ","kana_address":"ｶﾐｶﾞﾓﾄﾖﾀﾁｮｳ","pref":"京都府","city":"京都市北区","address":"上賀茂豊田町"},
{"zip_code":"6038075","kana_pref":"ｷｮｳﾄﾌ","kana_city":"ｷｮｳﾄｼｷﾀｸ","kana_address":"ｶﾐｶﾞﾓﾅｶｵｵｼﾞﾁｮｳ","pref":"京都府","city":"京都市北区","address":"上賀茂中大路町"},
{"zip_code":"6038008","kana_pref":"ｷｮｳﾄﾌ","kana_city":"ｷｮｳﾄｼｷﾀｸ","kana_address":"ｶﾐｶﾞﾓﾅｶｼﾞﾏｶﾞﾜﾗﾁｮｳ","pref":"京都府","city":"京都市北区","address":"上賀茂中嶋河原町"},
{"zip_code":"6038032","kana_pref":"ｷｮｳﾄﾌ","kana_city":"ｷｮｳﾄｼｷﾀｸ","kana_address":"ｶﾐｶﾞﾓﾅｶﾉｶﾜﾗﾁｮｳ","pref":"京都府","city":"京都市北区","address":"上賀茂中ノ河原町"},
{"zip_code":"6038024","kana_pref":"ｷｮｳﾄﾌ","kana_city":"ｷｮｳﾄｼｷﾀｸ","kana_address":"ｶﾐｶﾞﾓﾅｶﾉｻｶﾁｮｳ","pref":"京都府","city":"京都市北区","address":"上賀茂中ノ坂町"},
{"zip_code":"6038026","kana_pref":"ｷｮｳﾄﾌ","kana_city":"ｷｮｳﾄｼｷﾀｸ","kana_address":"ｶﾐｶﾞﾓﾅｶﾔﾏﾁｮｳ","pref":"京都府","city":"京都市北区","address":"上賀茂中山町"},
{"zip_code":"6038011","kana_pref":"ｷｮｳﾄﾌ","kana_city":"ｷｮｳﾄｼｷﾀｸ","kana_address":"ｶﾐｶﾞﾓﾆｹﾝﾔﾁｮｳ","pref":"京都府","city":"京都市北区","address":"上賀茂二軒家町"},
{"zip_code":"6038028","kana_pref":"ｷｮｳﾄﾌ","kana_city":"ｷｮｳﾄｼｷﾀｸ","kana_address":"ｶﾐｶﾞﾓﾆｼｳｴﾉﾀﾞﾝﾁｮｳ","pref":"京都府","city":"京都市北区","address":"上賀茂西上之段町"},
{"zip_code":"6038036","kana_pref":"ｷｮｳﾄﾌ","kana_city":"ｷｮｳﾄｼｷﾀｸ","kana_address":"ｶﾐｶﾞﾓﾆｼｶﾞﾜﾗﾁｮｳ","pref":"京都府","city":"京都市北区","address":"上賀茂西河原町"},
{"zip_code":"6038021","kana_pref":"ｷｮｳﾄﾌ","kana_city":"ｷｮｳﾄｼｷﾀｸ","kana_address":"ｶﾐｶﾞﾓﾆｼｺﾞﾄｳﾁｮｳ","pref":"京都府","city":"京都市北区","address":"上賀茂西後藤町"},
{"zip_code":"6038042","kana_pref":"ｷｮｳﾄﾌ","kana_city":"ｷｮｳﾄｼｷﾀｸ","kana_address":"ｶﾐｶﾞﾓﾊｻﾞﾏﾁｮｳ","pref":"京都府","city":"京都市北区","address":"上賀茂狭間町"},
{"zip_code":"6038003","kana_pref":"ｷｮｳﾄﾌ","kana_city":"ｷｮｳﾄｼｷﾀｸ","kana_address":"ｶﾐｶﾞﾓﾋｲﾗｷﾞﾀﾞﾆﾁｮｳ","pref":"京都府","city":"京都市北区","address":"上賀茂柊谷町"},
{"zip_code":"6038023","kana_pref":"ｷｮｳﾄﾌ","kana_city":"ｷｮｳﾄｼｷﾀｸ","kana_address":"ｶﾐｶﾞﾓﾋｶﾞｼｳｴﾉﾀﾞﾝﾁｮｳ","pref":"京都府","city":"京都市北区","address":"上賀茂東上之段町"},
{"zip_code":"6038022","kana_pref":"ｷｮｳﾄﾌ","kana_city":"ｷｮｳﾄｼｷﾀｸ","kana_address":"ｶﾐｶﾞﾓﾋｶﾞｼｺﾞﾄｳﾁｮｳ","pref":"京都府","city":"京都市北区","address":"上賀茂東後藤町"},
{"zip_code":"6038015","kana_pref":"ｷｮｳﾄﾌ","kana_city":"ｷｮｳﾄｼｷﾀｸ","kana_address":"ｶﾐｶﾞﾓﾋﾞﾝｺﾞﾃﾞﾝﾁｮｳ","pref":"京都府","city":"京都市北区","address":"上賀茂備後田町"},
{"zip_code":"6038077","kana_pref":"ｷｮｳﾄﾌ","kana_city":"ｷｮｳﾄｼｷﾀｸ","kana_address":"ｶﾐｶﾞﾓﾌｼﾞﾉｷﾁｮｳ","pref":"京都府","city":"京都市北区","address":"上賀茂藤ノ木町"},
{"zip_code":"6038025","kana_pref":"ｷｮｳﾄﾌ","kana_city":"ｷｮｳﾄｼｷﾀｸ","kana_address":"ｶﾐｶﾞﾓﾌﾅﾂｷﾁｮｳ","pref":"京都府","city":"京都市北区","address":"上賀茂舟着町"},
{"zip_code":"6038005","kana_pref":"ｷｮｳﾄﾌ","kana_city":"ｷｮｳﾄｼｷﾀｸ","kana_address":"ｶﾐｶﾞﾓﾏｴﾀﾞﾁｮｳ","pref":"京都府","city":"京都市北区","address":"上賀茂前田町"},
{"zip_code":"6038052","kana_pref":"ｷｮｳﾄﾌ","kana_city":"ｷｮｳﾄｼｷﾀｸ","kana_address":"ｶﾐｶﾞﾓﾏﾂﾓﾄﾁｮｳ","pref":"京都府","city":"京都市北区","address":"上賀茂松本町"},
{"zip_code":"6038065","kana_pref":"ｷｮｳﾄﾌ","kana_city":"ｷｮｳﾄｼｷﾀｸ","kana_address":"ｶﾐｶﾞﾓﾐｿﾉｸﾞﾁﾁｮｳ","pref":"京都府","city":"京都市北区","address":"上賀茂御薗口町"},
{"zip_code":"6038046","kana_pref":"ｷｮｳﾄﾌ","kana_city":"ｷｮｳﾄｼｷﾀｸ","kana_address":"ｶﾐｶﾞﾓﾐﾄﾞﾛｲｹﾁｮｳ","pref":"京都府","city":"京都市北区","address":"上賀茂深泥池町"},
{"zip_code":"6038074","kana_pref":"ｷｮｳﾄﾌ","kana_city":"ｷｮｳﾄｼｷﾀｸ","kana_address":"ｶﾐｶﾞﾓﾐﾅﾐｵｵｼﾞﾁｮｳ","pref":"京都府","city":"京都市北区","address":"上賀茂南大路町"},
{"zip_code":"6038086","kana_pref":"ｷｮｳﾄﾌ","kana_city":"ｷｮｳﾄｼｷﾀｸ","kana_address":"ｶﾐｶﾞﾓﾑｶｲｳﾒﾁｮｳ","pref":"京都府","city":"京都市北区","address":"上賀茂向梅町"},
{"zip_code":"6038083","kana_pref":"ｷｮｳﾄﾌ","kana_city":"ｷｮｳﾄｼｷﾀｸ","kana_address":"ｶﾐｶﾞﾓﾑｶｲﾅﾜﾃﾁｮｳ","pref":"京都府","city":"京都市北区","address":"上賀茂向縄手町"},
{"zip_code":"6038031","kana_pref":"ｷｮｳﾄﾌ","kana_city":"ｷｮｳﾄｼｷﾀｸ","kana_address":"ｶﾐｶﾞﾓﾒｵﾄｲﾜﾁｮｳ","pref":"京都府","city":"京都市北区","address":"上賀茂女夫岩町"},
{"zip_code":"6038047","kana_pref":"ｷｮｳﾄﾌ","kana_city":"ｷｮｳﾄｼｷﾀｸ","kana_address":"ｶﾐｶﾞﾓﾓﾄﾔﾏ","pref":"京都府","city":"京都市北区","address":"上賀茂本山"},
{"zip_code":"6038062","kana_pref":"ｷｮｳﾄﾌ","kana_city":"ｷｮｳﾄｼｷﾀｸ","kana_address":"ｶﾐｶﾞﾓﾔﾌﾞﾀﾁｮｳ","pref":"京都府","city":"京都市北区","address":"上賀茂薮田町"},
{"zip_code":"6038076","kana_pref":"ｷｮｳﾄﾌ","kana_city":"ｷｮｳﾄｼｷﾀｸ","kana_address":"ｶﾐｶﾞﾓﾔﾏﾓﾄﾁｮｳ","pref":"京都府","city":"京都市北区","address":"上賀茂山本町"},
{"zip_code":"6038004","kana_pref":"ｷｮｳﾄﾌ","kana_city":"ｷｮｳﾄｼｷﾀｸ","kana_address":"ｶﾐｶﾞﾓﾛｸﾀﾞﾝﾀﾞﾁｮｳ","pref":"京都府","city":"京都市北区","address":"上賀茂六段田町"},
{"zip_code":"6038147","kana_pref":"ｷｮｳﾄﾌ","kana_city":"ｷｮｳﾄｼｷﾀｸ","kana_address":"ｶﾐｺﾞﾘｮｳｶﾐｴﾁｮｳ","pref":"京都府","city":"京都市北区","address":"上御霊上江町"},
{"zip_code":"6038155","kana_pref":"ｷｮｳﾄﾌ","kana_city":"ｷｮｳﾄｼｷﾀｸ","kana_address":"ｶﾐｾｲｿﾞｳｸﾞﾁﾁｮｳ","pref":"京都府","city":"京都市北区","address":"上清蔵口町"},
{"zip_code":"6038325","kana_pref":"ｷｮｳﾄﾌ","kana_city":"ｷｮｳﾄｼｷﾀｸ","kana_address":"ｷﾀﾉｶﾐﾊｸﾊﾞｲﾁｮｳ","pref":"京都府","city":"京都市北区","address":"北野上白梅町"},
{"zip_code":"6038324","kana_pref":"ｷｮｳﾄﾌ","kana_city":"ｷｮｳﾄｼｷﾀｸ","kana_address":"ｷﾀﾉｺｳﾊﾞｲﾁｮｳ","pref":"京都府","city":"京都市北区","address":"北野紅梅町"},
{"zip_code":"6038326","kana_pref":"ｷｮｳﾄﾌ","kana_city":"ｷｮｳﾄｼｷﾀｸ","kana_address":"ｷﾀﾉｼﾓﾊｸﾊﾞｲﾁｮｳ","pref":"京都府","city":"京都市北区","address":"北野下白梅町"},
{"zip_code":"6038327","kana_pref":"ｷｮｳﾄﾌ","kana_city":"ｷｮｳﾄｼｷﾀｸ","kana_address":"ｷﾀﾉﾆｼﾊｸﾊﾞｲﾁｮｳ","pref":"京都府","city":"京都市北区","address":"北野西白梅町"},
{"zip_code":"6038323","kana_pref":"ｷｮｳﾄﾌ","kana_city":"ｷｮｳﾄｼｷﾀｸ","kana_address":"ｷﾀﾉﾋｶﾞｼｺｳﾊﾞｲﾁｮｳ","pref":"京都府","city":"京都市北区","address":"北野東紅梅町"},
{"zip_code":"6038486","kana_pref":"ｷｮｳﾄﾌ","kana_city":"ｷｮｳﾄｼｷﾀｸ","kana_address":"ｷﾇｶﾞｻｱｶｻｶﾁｮｳ","pref":"京都府","city":"京都市北区","address":"衣笠赤阪町"},
{"zip_code":"6038315","kana_pref":"ｷｮｳﾄﾌ","kana_city":"ｷｮｳﾄｼｷﾀｸ","kana_address":"ｷﾇｶﾞｻｱﾗﾐﾁｮｳ","pref":"京都府","city":"京都市北区","address":"衣笠荒見町"},
{"zip_code":"6038351","kana_pref":"ｷｮｳﾄﾌ","kana_city":"ｷｮｳﾄｼｷﾀｸ","kana_address":"ｷﾇｶﾞｻｵｵﾊﾗｲﾁｮｳ","pref":"京都府","city":"京都市北区","address":"衣笠大祓町"},
{"zip_code":"6038372","kana_pref":"ｷｮｳﾄﾌ","kana_city":"ｷｮｳﾄｼｷﾀｸ","kana_address":"ｷﾇｶﾞｻｶﾞｲﾄﾞｳﾁｮｳ","pref":"京都府","city":"京都市北区","address":"衣笠街道町"},
{"zip_code":"6038451","kana_pref":"ｷｮｳﾄﾌ","kana_city":"ｷｮｳﾄｼｷﾀｸ","kana_address":"ｷﾇｶﾞｻｶｶﾞﾐｲｼﾁｮｳ","pref":"京都府","city":"京都市北区","address":"衣笠鏡石町"},
{"zip_code":"6038316","kana_pref":"ｷｮｳﾄﾌ","kana_city":"ｷｮｳﾄｼｷﾀｸ","kana_address":"ｷﾇｶﾞｻｷﾀｱﾗﾐﾁｮｳ","pref":"京都府","city":"京都市北区","address":"衣笠北荒見町"},
{"zip_code":"6038373","kana_pref":"ｷｮｳﾄﾌ","kana_city":"ｷｮｳﾄｼｷﾀｸ","kana_address":"ｷﾇｶﾞｻｷﾀﾀｶﾊｼﾁｮｳ","pref":"京都府","city":"京都市北区","address":"衣笠北高橋町"},
{"zip_code":"6038376","kana_pref":"ｷｮｳﾄﾌ","kana_city":"ｷｮｳﾄｼｷﾀｸ","kana_address":"ｷﾇｶﾞｻｷﾀﾃﾝｼﾞﾝﾓﾘﾁｮｳ","pref":"京都府","city":"京都市北区","address":"衣笠北天神森町"},
{"zip_code":"6038485","kana_pref":"ｷｮｳﾄﾌ","kana_city":"ｷｮｳﾄｼｷﾀｸ","kana_address":"ｷﾇｶﾞｻｷﾇｶﾞｻﾔﾏﾁｮｳ","pref":"京都府","city":"京都市北区","address":"衣笠衣笠山町"},
{"zip_code":"6038378","kana_pref":"ｷｮｳﾄﾌ","kana_city":"ｷｮｳﾄｼｷﾀｸ","kana_address":"ｷﾇｶﾞｻｺﾞｼｮﾉｳﾁﾁｮｳ","pref":"京都府","city":"京都市北区","address":"衣笠御所ノ内町"},
{"zip_code":"6038363","kana_pref":"ｷｮｳﾄﾌ","kana_city":"ｷｮｳﾄｼｷﾀｸ","kana_address":"ｷﾇｶﾞｻｿｳﾓﾝﾁｮｳ","pref":"京都府","city":"京都市北区","address":"衣笠総門町"},
{"zip_code":"6038374","kana_pref":"ｷｮｳﾄﾌ","kana_city":"ｷｮｳﾄｼｷﾀｸ","kana_address":"ｷﾇｶﾞｻﾀｶﾊｼﾁｮｳ","pref":"京都府","city":"京都市北区","address":"衣笠高橋町"},
{"zip_code":"6038375","kana_pref":"ｷｮｳﾄﾌ","kana_city":"ｷｮｳﾄｼｷﾀｸ","kana_address":"ｷﾇｶﾞｻﾃﾝｼﾞﾝﾓﾘﾁｮｳ","pref":"京都府","city":"京都市北区","address":"衣笠天神森町"},
{"zip_code":"6038377","kana_pref":"ｷｮｳﾄﾌ","kana_city":"ｷｮｳﾄｼｷﾀｸ","kana_address":"ｷﾇｶﾞｻﾆｼｺﾞｼｮﾉｳﾁﾁｮｳ","pref":"京都府","city":"京都市北区","address":"衣笠西御所ノ内町"},
{"zip_code":"6038456","kana_pref":"ｷｮｳﾄﾌ","kana_city":"ｷｮｳﾄｼｷﾀｸ","kana_address":"ｷﾇｶﾞｻﾆｼｿﾝｼﾞｮｳｲﾝﾁｮｳ","pref":"京都府","city":"京都市北区","address":"衣笠西尊上院町"},
{"zip_code":"6038366","kana_pref":"ｷｮｳﾄﾌ","kana_city":"ｷｮｳﾄｼｷﾀｸ","kana_address":"ｷﾇｶﾞｻﾆｼﾊﾞﾊﾞﾁｮｳ","pref":"京都府","city":"京都市北区","address":"衣笠西馬場町"},
{"zip_code":"6038454","kana_pref":"ｷｮｳﾄﾌ","kana_city":"ｷｮｳﾄｼｷﾀｸ","kana_address":"ｷﾇｶﾞｻﾆｼﾋﾗｷﾁｮｳ","pref":"京都府","city":"京都市北区","address":"衣笠西開キ町"},
{"zip_code":"6038362","kana_pref":"ｷｮｳﾄﾌ","kana_city":"ｷｮｳﾄｼｷﾀｸ","kana_address":"ｷﾇｶﾞｻﾊﾞﾊﾞﾁｮｳ","pref":"京都府","city":"京都市北区","address":"衣笠馬場町"},
{"zip_code":"6038371","kana_pref":"ｷｮｳﾄﾌ","kana_city":"ｷｮｳﾄｼｷﾀｸ","kana_address":"ｷﾇｶﾞｻﾋｶﾞｼｺﾞｼｮﾉｳﾁﾁｮｳ","pref":"京都府","city":"京都市北区","address":"衣笠東御所ノ内町"},
{"zip_code":"6038455","kana_pref":"ｷｮｳﾄﾌ","kana_city":"ｷｮｳﾄｼｷﾀｸ","kana_address":"ｷﾇｶﾞｻﾋｶﾞｼｿﾝｼﾞｮｳｲﾝﾁｮｳ","pref":"京都府","city":"京都市北区","address":"衣笠東尊上院町"},
{"zip_code":"6038453","kana_pref":"ｷｮｳﾄﾌ","kana_city":"ｷｮｳﾄｼｷﾀｸ","kana_address":"ｷﾇｶﾞｻﾋｶﾞｼﾋﾗｷﾁｮｳ","pref":"京都府","city":"京都市北区","address":"衣笠東開キ町"},
{"zip_code":"6038484","kana_pref":"ｷｮｳﾄﾌ","kana_city":"ｷｮｳﾄｼｷﾀｸ","kana_address":"ｷﾇｶﾞｻﾋﾑﾛﾁｮｳ","pref":"京都府","city":"京都市北区","address":"衣笠氷室町"},
{"zip_code":"6038452","kana_pref":"ｷｮｳﾄﾌ","kana_city":"ｷｮｳﾄｼｷﾀｸ","kana_address":"ｷﾇｶﾞｻﾋﾗｷﾁｮｳ","pref":"京都府","city":"京都市北区","address":"衣笠開キ町"},
{"zip_code":"6038361","kana_pref":"ｷｮｳﾄﾌ","kana_city":"ｷｮｳﾄｼｷﾀｸ","kana_address":"ｷﾝｶｸｼﾞﾁｮｳ","pref":"京都府","city":"京都市北区","address":"金閣寺町"},
{"zip_code":"6038861","kana_pref":"ｷｮｳﾄﾌ","kana_city":"ｷｮｳﾄｼｷﾀｸ","kana_address":"ｸﾓｶﾞﾊﾀﾃﾞﾀﾆﾁｮｳ","pref":"京都府","city":"京都市北区","address":"雲ケ畑出谷町"},
{"zip_code":"6038862","kana_pref":"ｷｮｳﾄﾌ","kana_city":"ｷｮｳﾄｼｷﾀｸ","kana_address":"ｸﾓｶﾞﾊﾀﾅｶﾂｶﾞﾜﾁｮｳ","pref":"京都府","city":"京都市北区","address":"雲ケ畑中津川町"},
{"zip_code":"6038863","kana_pref":"ｷｮｳﾄﾌ","kana_city":"ｷｮｳﾄｼｷﾀｸ","kana_address":"ｸﾓｶﾞﾊﾀﾅｶﾊﾀﾁｮｳ","pref":"京都府","city":"京都市北区","address":"雲ケ畑中畑町"},
{"zip_code":"6038137","kana_pref":"ｷｮｳﾄﾌ","kana_city":"ｷｮｳﾄｼｷﾀｸ","kana_address":"ｸﾗﾏｸﾞﾁﾁｮｳ","pref":"京都府","city":"京都市北区","address":"鞍馬口町"},
{"zip_code":"6038341","kana_pref":"ｷｮｳﾄﾌ","kana_city":"ｷｮｳﾄｼｷﾀｸ","kana_address":"ｺﾏﾂﾊﾞﾗｷﾀﾏﾁ","pref":"京都府","city":"京都市北区","address":"小松原北町"},
{"zip_code":"6038342","kana_pref":"ｷｮｳﾄﾌ","kana_city":"ｷｮｳﾄｼｷﾀｸ","kana_address":"ｺﾏﾂﾊﾞﾗﾐﾅﾐﾏﾁ","pref":"京都府","city":"京都市北区","address":"小松原南町"},
{"zip_code":"6038125","kana_pref":"ｷｮｳﾄﾌ","kana_city":"ｷｮｳﾄｼｷﾀｸ","kana_address":"ｺﾔﾏｲﾀｸﾗﾁｮｳ","pref":"京都府","city":"京都市北区","address":"小山板倉町"},
{"zip_code":"6038126","kana_pref":"ｷｮｳﾄﾌ","kana_city":"ｷｮｳﾄｼｷﾀｸ","kana_address":"ｺﾔﾏｶﾐｲﾀｸﾗﾁｮｳ","pref":"京都府","city":"京都市北区","address":"小山上板倉町"},
{"zip_code":"6038131","kana_pref":"ｷｮｳﾄﾌ","kana_city":"ｷｮｳﾄｼｷﾀｸ","kana_address":"ｺﾔﾏｶﾐｳﾁｶﾜﾗﾁｮｳ","pref":"京都府","city":"京都市北区","address":"小山上内河原町"},
{"zip_code":"6038171","kana_pref":"ｷｮｳﾄﾌ","kana_city":"ｷｮｳﾄｼｷﾀｸ","kana_address":"ｺﾔﾏｶﾐﾊﾂﾈﾁｮｳ","pref":"京都府","city":"京都市北区","address":"小山上初音町"},
{"zip_code":"6038121","kana_pref":"ｷｮｳﾄﾌ","kana_city":"ｷｮｳﾄｼｷﾀｸ","kana_address":"ｺﾔﾏｶﾐﾊﾅﾉｷﾁｮｳ","pref":"京都府","city":"京都市北区","address":"小山上花ノ木町"},
{"zip_code":"6038143","kana_pref":"ｷｮｳﾄﾌ","kana_city":"ｷｮｳﾄｼｷﾀｸ","kana_address":"ｺﾔﾏｶﾐﾌｻﾁｮｳ","pref":"京都府","city":"京都市北区","address":"小山上総町"},
{"zip_code":"6038161","kana_pref":"ｷｮｳﾄﾌ","kana_city":"ｷｮｳﾄｼｷﾀｸ","kana_address":"ｺﾔﾏｷﾀｵｵﾉﾁｮｳ","pref":"京都府","city":"京都市北区","address":"小山北大野町"},
{"zip_code":"6038142","kana_pref":"ｷｮｳﾄﾌ","kana_city":"ｷｮｳﾄｼｷﾀｸ","kana_address":"ｺﾔﾏｷﾀｶﾐﾌｻﾁｮｳ","pref":"京都府","city":"京都市北区","address":"小山北上総町"},
{"zip_code":"6038103","kana_pref":"ｷｮｳﾄﾌ","kana_city":"ｷｮｳﾄｼｷﾀｸ","kana_address":"ｺﾔﾏｷﾀｹﾞﾝｲﾁｮｳ","pref":"京都府","city":"京都市北区","address":"小山北玄以町"},
{"zip_code":"6038124","kana_pref":"ｷｮｳﾄﾌ","kana_city":"ｷｮｳﾄｼｷﾀｸ","kana_address":"ｺﾔﾏｼﾓｲﾀｸﾗﾁｮｳ","pref":"京都府","city":"京都市北区","address":"小山下板倉町"},
{"zip_code":"6038132","kana_pref":"ｷｮｳﾄﾌ","kana_city":"ｷｮｳﾄｼｷﾀｸ","kana_address":"ｺﾔﾏｼﾓｳﾁｶﾜﾗﾁｮｳ","pref":"京都府","city":"京都市北区","address":"小山下内河原町"},
{"zip_code":"6038173","kana_pref":"ｷｮｳﾄﾌ","kana_city":"ｷｮｳﾄｼｷﾀｸ","kana_address":"ｺﾔﾏｼﾓﾊﾂﾈﾁｮｳ","pref":"京都府","city":"京都市北区","address":"小山下初音町"},
{"zip_code":"6038123","kana_pref":"ｷｮｳﾄﾌ","kana_city":"ｷｮｳﾄｼｷﾀｸ","kana_address":"ｺﾔﾏｼﾓﾊﾅﾉｷﾁｮｳ","pref":"京都府","city":"京都市北区","address":"小山下花ノ木町"},
{"zip_code":"6038151","kana_pref":"ｷｮｳﾄﾌ","kana_city":"ｷｮｳﾄｼｷﾀｸ","kana_address":"ｺﾔﾏｼﾓﾌｻﾁｮｳ","pref":"京都府","city":"京都市北区","address":"小山下総町"},
{"zip_code":"6038156","kana_pref":"ｷｮｳﾄﾌ","kana_city":"ｷｮｳﾄｼｷﾀｸ","kana_address":"ｺﾔﾏﾅｶﾐｿﾞﾁｮｳ","pref":"京都府","city":"京都市北区","address":"小山中溝町"},
{"zip_code":"6038167","kana_pref":"ｷｮｳﾄﾌ","kana_city":"ｷｮｳﾄｼｷﾀｸ","kana_address":"ｺﾔﾏﾆｼｵｵﾉﾁｮｳ","pref":"京都府","city":"京都市北区","address":"小山西大野町"},
{"zip_code":"6038141","kana_pref":"ｷｮｳﾄﾌ","kana_city":"ｷｮｳﾄｼｷﾀｸ","kana_address":"ｺﾔﾏﾆｼｶﾐﾌｻﾁｮｳ","pref":"京都府","city":"京都市北区","address":"小山西上総町"},
{"zip_code":"6038105","kana_pref":"ｷｮｳﾄﾌ","kana_city":"ｷｮｳﾄｼｷﾀｸ","kana_address":"ｺﾔﾏﾆｼｹﾞﾝｲﾁｮｳ","pref":"京都府","city":"京都市北区","address":"小山西玄以町"},
{"zip_code":"6038148","kana_pref":"ｷｮｳﾄﾌ","kana_city":"ｷｮｳﾄｼｷﾀｸ","kana_address":"ｺﾔﾏﾆｼﾊﾅｲｹﾁｮｳ","pref":"京都府","city":"京都市北区","address":"小山西花池町"},
{"zip_code":"6038113","kana_pref":"ｷｮｳﾄﾌ","kana_city":"ｷｮｳﾄｼｷﾀｸ","kana_address":"ｺﾔﾏﾆｼﾓﾄﾏﾁ","pref":"京都府","city":"京都市北区","address":"小山西元町"},
{"zip_code":"6038172","kana_pref":"ｷｮｳﾄﾌ","kana_city":"ｷｮｳﾄｼｷﾀｸ","kana_address":"ｺﾔﾏﾊﾂﾈﾁｮｳ","pref":"京都府","city":"京都市北区","address":"小山初音町"},
{"zip_code":"6038122","kana_pref":"ｷｮｳﾄﾌ","kana_city":"ｷｮｳﾄｼｷﾀｸ","kana_address":"ｺﾔﾏﾊﾅﾉｷﾁｮｳ","pref":"京都府","city":"京都市北区","address":"小山花ノ木町"},
{"zip_code":"6038162","kana_pref":"ｷｮｳﾄﾌ","kana_city":"ｷｮｳﾄｼｷﾀｸ","kana_address":"ｺﾔﾏﾋｶﾞｼｵｵﾉﾁｮｳ","pref":"京都府","city":"京都市北区","address":"小山東大野町"},
{"zip_code":"6038104","kana_pref":"ｷｮｳﾄﾌ","kana_city":"ｷｮｳﾄｼｷﾀｸ","kana_address":"ｺﾔﾏﾋｶﾞｼｹﾞﾝｲﾁｮｳ","pref":"京都府","city":"京都市北区","address":"小山東玄以町"},
{"zip_code":"6038144","kana_pref":"ｷｮｳﾄﾌ","kana_city":"ｷｮｳﾄｼｷﾀｸ","kana_address":"ｺﾔﾏﾋｶﾞｼﾊﾅｲｹﾁｮｳ","pref":"京都府","city":"京都市北区","address":"小山東花池町"},
{"zip_code":"6038111","kana_pref":"ｷｮｳﾄﾌ","kana_city":"ｷｮｳﾄｼｷﾀｸ","kana_address":"ｺﾔﾏﾋｶﾞｼﾓﾄﾏﾁ","pref":"京都府","city":"京都市北区","address":"小山東元町"},
{"zip_code":"6038145","kana_pref":"ｷｮｳﾄﾌ","kana_city":"ｷｮｳﾄｼｷﾀｸ","kana_address":"ｺﾔﾏﾎﾘｲｹﾁｮｳ","pref":"京都府","city":"京都市北区","address":"小山堀池町"},
{"zip_code":"6038163","kana_pref":"ｷｮｳﾄﾌ","kana_city":"ｷｮｳﾄｼｷﾀｸ","kana_address":"ｺﾔﾏﾐﾅﾐｵｵﾉﾁｮｳ","pref":"京都府","city":"京都市北区","address":"小山南大野町"},
{"zip_code":"6038149","kana_pref":"ｷｮｳﾄﾌ","kana_city":"ｷｮｳﾄｼｷﾀｸ","kana_address":"ｺﾔﾏﾐﾅﾐｶﾐﾌｻﾁｮｳ","pref":"京都府","city":"京都市北区","address":"小山南上総町"},
{"zip_code":"6038112","kana_pref":"ｷｮｳﾄﾌ","kana_city":"ｷｮｳﾄｼｷﾀｸ","kana_address":"ｺﾔﾏﾓﾄﾏﾁ","pref":"京都府","city":"京都市北区","address":"小山元町"},
{"zip_code":"6038152","kana_pref":"ｷｮｳﾄﾌ","kana_city":"ｷｮｳﾄｼｷﾀｸ","kana_address":"ｺﾔﾏﾁｮｳ","pref":"京都府","city":"京都市北区","address":"小山町"},
{"zip_code":"6038207","kana_pref":"ｷｮｳﾄﾌ","kana_city":"ｷｮｳﾄｼｷﾀｸ","kana_address":"ｼﾁｸｳｼﾜｶﾁｮｳ","pref":"京都府","city":"京都市北区","address":"紫竹牛若町"},
{"zip_code":"6038179","kana_pref":"ｷｮｳﾄﾌ","kana_city":"ｷｮｳﾄｼｷﾀｸ","kana_address":"ｼﾁｸｶﾐｳﾒﾉｷﾁｮｳ","pref":"京都府","city":"京都市北区","address":"紫竹上梅ノ木町"},
{"zip_code":"6038117","kana_pref":"ｷｮｳﾄﾌ","kana_city":"ｷｮｳﾄｼｷﾀｸ","kana_address":"ｼﾁｸｶﾐｺｳｻｲﾁｮｳ","pref":"京都府","city":"京都市北区","address":"紫竹上高才町"},
{"zip_code":"6038423","kana_pref":"ｷｮｳﾄﾌ","kana_city":"ｷｮｳﾄｼｷﾀｸ","kana_address":"ｼﾁｸｶﾐｼﾊﾞﾓﾄﾁｮｳ","pref":"京都府","city":"京都市北区","address":"紫竹上芝本町"},
{"zip_code":"6038421","kana_pref":"ｷｮｳﾄﾌ","kana_city":"ｷｮｳﾄｼｷﾀｸ","kana_address":"ｼﾁｸｶﾐｿﾉｳﾁｮｳ","pref":"京都府","city":"京都市北区","address":"紫竹上園生町"},
{"zip_code":"6038411","kana_pref":"ｷｮｳﾄﾌ","kana_city":"ｷｮｳﾄｼｷﾀｸ","kana_address":"ｼﾁｸｶﾐﾀｹﾄﾞﾉﾁｮｳ","pref":"京都府","city":"京都市北区","address":"紫竹上竹殿町"},
{"zip_code":"6038102","kana_pref":"ｷｮｳﾄﾌ","kana_city":"ｷｮｳﾄｼｷﾀｸ","kana_address":"ｼﾁｸｶﾐﾅｶﾞﾒﾁｮｳ","pref":"京都府","city":"京都市北区","address":"紫竹上長目町"},
{"zip_code":"6038108","kana_pref":"ｷｮｳﾄﾌ","kana_city":"ｷｮｳﾄｼｷﾀｸ","kana_address":"ｼﾁｸｶﾐﾉｷｼﾁｮｳ","pref":"京都府","city":"京都市北区","address":"紫竹上ノ岸町"},
{"zip_code":"6038101","kana_pref":"ｷｮｳﾄﾌ","kana_city":"ｷｮｳﾄｼｷﾀｸ","kana_address":"ｼﾁｸｶﾐﾎﾘｶﾜﾁｮｳ","pref":"京都府","city":"京都市北区","address":"紫竹上堀川町"},
{"zip_code":"6038116","kana_pref":"ｷｮｳﾄﾌ","kana_city":"ｷｮｳﾄｼｷﾀｸ","kana_address":"ｼﾁｸｶﾐﾎﾝﾏﾁ","pref":"京都府","city":"京都市北区","address":"紫竹上本町"},
{"zip_code":"6038427","kana_pref":"ｷｮｳﾄﾌ","kana_city":"ｷｮｳﾄｼｷﾀｸ","kana_address":"ｼﾁｸｶﾐﾐﾄﾞﾘﾁｮｳ","pref":"京都府","city":"京都市北区","address":"紫竹上緑町"},
{"zip_code":"6038433","kana_pref":"ｷｮｳﾄﾌ","kana_city":"ｷｮｳﾄｼｷﾀｸ","kana_address":"ｼﾁｸｷﾀｸﾘｽﾁｮｳ","pref":"京都府","city":"京都市北区","address":"紫竹北栗栖町"},
{"zip_code":"6038416","kana_pref":"ｷｮｳﾄﾌ","kana_city":"ｷｮｳﾄｼｷﾀｸ","kana_address":"ｼﾁｸｷﾀﾀﾞｲﾓﾝﾁｮｳ","pref":"京都府","city":"京都市北区","address":"紫竹北大門町"},
{"zip_code":"6038435","kana_pref":"ｷｮｳﾄﾌ","kana_city":"ｷｮｳﾄｼｷﾀｸ","kana_address":"ｼﾁｸｸﾘｽﾁｮｳ","pref":"京都府","city":"京都市北区","address":"紫竹栗栖町"},
{"zip_code":"6038178","kana_pref":"ｷｮｳﾄﾌ","kana_city":"ｷｮｳﾄｼｷﾀｸ","kana_address":"ｼﾁｸｼﾓｳﾒﾉｷﾁｮｳ","pref":"京都府","city":"京都市北区","address":"紫竹下梅ノ木町"},
{"zip_code":"6038114","kana_pref":"ｷｮｳﾄﾌ","kana_city":"ｷｮｳﾄｼｷﾀｸ","kana_address":"ｼﾁｸｼﾓｺｳｻｲﾁｮｳ","pref":"京都府","city":"京都市北区","address":"紫竹下高才町"},
{"zip_code":"6038424","kana_pref":"ｷｮｳﾄﾌ","kana_city":"ｷｮｳﾄｼｷﾀｸ","kana_address":"ｼﾁｸｼﾓｼﾊﾞﾓﾄﾁｮｳ","pref":"京都府","city":"京都市北区","address":"紫竹下芝本町"},
{"zip_code":"6038422","kana_pref":"ｷｮｳﾄﾌ","kana_city":"ｷｮｳﾄｼｷﾀｸ","kana_address":"ｼﾁｸｼﾓｿﾉｳﾁｮｳ","pref":"京都府","city":"京都市北区","address":"紫竹下園生町"},
{"zip_code":"6038412","kana_pref":"ｷｮｳﾄﾌ","kana_city":"ｷｮｳﾄｼｷﾀｸ","kana_address":"ｼﾁｸｼﾓﾀｹﾄﾞﾉﾁｮｳ","pref":"京都府","city":"京都市北区","address":"紫竹下竹殿町"},
{"zip_code":"6038106","kana_pref":"ｷｮｳﾄﾌ","kana_city":"ｷｮｳﾄｼｷﾀｸ","kana_address":"ｼﾁｸｼﾓﾅｶﾞﾒﾁｮｳ","pref":"京都府","city":"京都市北区","address":"紫竹下長目町"},
{"zip_code":"6038107","kana_pref":"ｷｮｳﾄﾌ","kana_city":"ｷｮｳﾄｼｷﾀｸ","kana_address":"ｼﾁｸｼﾓﾉｷｼﾁｮｳ","pref":"京都府","city":"京都市北区","address":"紫竹下ノ岸町"},
{"zip_code":"6038115","kana_pref":"ｷｮｳﾄﾌ","kana_city":"ｷｮｳﾄｼｷﾀｸ","kana_address":"ｼﾁｸｼﾓﾎﾝﾏﾁ","pref":"京都府","city":"京都市北区","address":"紫竹下本町"},
{"zip_code":"6038425","kana_pref":"ｷｮｳﾄﾌ","kana_city":"ｷｮｳﾄｼｷﾀｸ","kana_address":"ｼﾁｸｼﾓﾐﾄﾞﾘﾁｮｳ","pref":"京都府","city":"京都市北区","address":"紫竹下緑町"},
{"zip_code":"6038206","kana_pref":"ｷｮｳﾄﾌ","kana_city":"ｷｮｳﾄｼｷﾀｸ","kana_address":"ｼﾁｸｾｲﾅﾝﾁｮｳ","pref":"京都府","city":"京都市北区","address":"紫竹西南町"},
{"zip_code":"6038426","kana_pref":"ｷｮｳﾄﾌ","kana_city":"ｷｮｳﾄｼｷﾀｸ","kana_address":"ｼﾁｸｾｲﾎｸﾁｮｳ","pref":"京都府","city":"京都市北区","address":"紫竹西北町"},
{"zip_code":"6038414","kana_pref":"ｷｮｳﾄﾌ","kana_city":"ｷｮｳﾄｼｷﾀｸ","kana_address":"ｼﾁｸﾀﾞｲﾓﾝﾁｮｳ","pref":"京都府","city":"京都市北区","address":"紫竹大門町"},
{"zip_code":"6038204","kana_pref":"ｷｮｳﾄﾌ","kana_city":"ｷｮｳﾄｼｷﾀｸ","kana_address":"ｼﾁｸﾀｶﾅﾜﾁｮｳ","pref":"京都府","city":"京都市北区","address":"紫竹高縄町"},
{"zip_code":"6038417","kana_pref":"ｷｮｳﾄﾌ","kana_city":"ｷｮｳﾄｼｷﾀｸ","kana_address":"ｼﾁｸﾀｹﾄﾞﾉﾁｮｳ","pref":"京都府","city":"京都市北区","address":"紫竹竹殿町"},
{"zip_code":"6038436","kana_pref":"ｷｮｳﾄﾌ","kana_city":"ｷｮｳﾄｼｷﾀｸ","kana_address":"ｼﾁｸﾆｼｸﾘｽﾁｮｳ","pref":"京都府","city":"京都市北区","address":"紫竹西栗栖町"},
{"zip_code":"6038415","kana_pref":"ｷｮｳﾄﾌ","kana_city":"ｷｮｳﾄｼｷﾀｸ","kana_address":"ｼﾁｸﾆｼﾀﾞｲﾓﾝﾁｮｳ","pref":"京都府","city":"京都市北区","address":"紫竹西大門町"},
{"zip_code":"6038205","kana_pref":"ｷｮｳﾄﾌ","kana_city":"ｷｮｳﾄｼｷﾀｸ","kana_address":"ｼﾁｸﾆｼﾀｶﾅﾜﾁｮｳ","pref":"京都府","city":"京都市北区","address":"紫竹西高縄町"},
{"zip_code":"6038443","kana_pref":"ｷｮｳﾄﾌ","kana_city":"ｷｮｳﾄｼｷﾀｸ","kana_address":"ｼﾁｸﾆｼﾉﾔﾏﾁｮｳ","pref":"京都府","city":"京都市北区","address":"紫竹西野山町"},
{"zip_code":"6038442","kana_pref":"ｷｮｳﾄﾌ","kana_city":"ｷｮｳﾄｼｷﾀｸ","kana_address":"ｼﾁｸﾆｼﾉﾔﾏﾋｶﾞｼﾏﾁ","pref":"京都府","city":"京都市北区","address":"紫竹西野山東町"},
{"zip_code":"6038208","kana_pref":"ｷｮｳﾄﾌ","kana_city":"ｷｮｳﾄｼｷﾀｸ","kana_address":"ｼﾁｸﾆｼﾓﾓﾉﾓﾄﾁｮｳ","pref":"京都府","city":"京都市北区","address":"紫竹西桃ノ本町"},
{"zip_code":"6038434","kana_pref":"ｷｮｳﾄﾌ","kana_city":"ｷｮｳﾄｼｷﾀｸ","kana_address":"ｼﾁｸﾋｶﾞｼｸﾘｽﾁｮｳ","pref":"京都府","city":"京都市北区","address":"紫竹東栗栖町"},
{"zip_code":"6038413","kana_pref":"ｷｮｳﾄﾌ","kana_city":"ｷｮｳﾄｼｷﾀｸ","kana_address":"ｼﾁｸﾋｶﾞｼﾀﾞｲﾓﾝﾁｮｳ","pref":"京都府","city":"京都市北区","address":"紫竹東大門町"},
{"zip_code":"6038203","kana_pref":"ｷｮｳﾄﾌ","kana_city":"ｷｮｳﾄｼｷﾀｸ","kana_address":"ｼﾁｸﾋｶﾞｼﾀｶﾅﾜﾁｮｳ","pref":"京都府","city":"京都市北区","address":"紫竹東高縄町"},
{"zip_code":"6038202","kana_pref":"ｷｮｳﾄﾌ","kana_city":"ｷｮｳﾄｼｷﾀｸ","kana_address":"ｼﾁｸﾋｶﾞｼﾓﾓﾉﾓﾄﾁｮｳ","pref":"京都府","city":"京都市北区","address":"紫竹東桃ノ本町"},
{"zip_code":"6038201","kana_pref":"ｷｮｳﾄﾌ","kana_city":"ｷｮｳﾄｼｷﾀｸ","kana_address":"ｼﾁｸﾓﾓﾉﾓﾄﾁｮｳ","pref":"京都府","city":"京都市北区","address":"紫竹桃ノ本町"},
{"zip_code":"6038139","kana_pref":"ｷｮｳﾄﾌ","kana_city":"ｷｮｳﾄｼｷﾀｸ","kana_address":"ｼﾞｮｳｾﾞﾝｼﾞﾓﾝｾﾞﾝﾁｮｳ","pref":"京都府","city":"京都市北区","address":"上善寺門前町"},
{"zip_code":"6038146","kana_pref":"ｷｮｳﾄﾌ","kana_city":"ｷｮｳﾄｼｷﾀｸ","kana_address":"ｼﾝｺﾞﾘｮｳｸﾞﾁﾁｮｳ","pref":"京都府","city":"京都市北区","address":"新御霊口町"},
{"zip_code":"6038336","kana_pref":"ｷｮｳﾄﾌ","kana_city":"ｷｮｳﾄｼｷﾀｸ","kana_address":"ﾀｲｼｮｳｸﾞﾝｲﾁｼﾞｮｳﾁｮｳ","pref":"京都府","city":"京都市北区","address":"大将軍一条町"},
{"zip_code":"6038332","kana_pref":"ｷｮｳﾄﾌ","kana_city":"ｷｮｳﾄｼｷﾀｸ","kana_address":"ﾀｲｼｮｳｸﾞﾝｶﾜﾊﾞﾀﾁｮｳ","pref":"京都府","city":"京都市北区","address":"大将軍川端町"},
{"zip_code":"6038335","kana_pref":"ｷｮｳﾄﾌ","kana_city":"ｷｮｳﾄｼｷﾀｸ","kana_address":"ﾀｲｼｮｳｸﾞﾝｻｶﾀﾁｮｳ","pref":"京都府","city":"京都市北区","address":"大将軍坂田町"},
{"zip_code":"6038334","kana_pref":"ｷｮｳﾄﾌ","kana_city":"ｷｮｳﾄｼｷﾀｸ","kana_address":"ﾀｲｼｮｳｸﾞﾝﾆｼﾀｶﾂｶｻﾁｮｳ","pref":"京都府","city":"京都市北区","address":"大将軍西鷹司町"},
{"zip_code":"6038331","kana_pref":"ｷｮｳﾄﾌ","kana_city":"ｷｮｳﾄｼｷﾀｸ","kana_address":"ﾀｲｼｮｳｸﾞﾝﾆｼﾏﾁ","pref":"京都府","city":"京都市北区","address":"大将軍西町"},
{"zip_code":"6038333","kana_pref":"ｷｮｳﾄﾌ","kana_city":"ｷｮｳﾄｼｷﾀｸ","kana_address":"ﾀｲｼｮｳｸﾞﾝﾋｶﾞｼﾀｶﾂｶｻﾁｮｳ","pref":"京都府","city":"京都市北区","address":"大将軍東鷹司町"},
{"zip_code":"6038337","kana_pref":"ｷｮｳﾄﾌ","kana_city":"ｷｮｳﾄｼｷﾀｸ","kana_address":"ﾀｲｼｮｳｸﾞﾝﾐﾅﾐｲﾁｼﾞｮｳﾁｮｳ","pref":"京都府","city":"京都市北区","address":"大将軍南一条町"},
{"zip_code":"6038493","kana_pref":"ｷｮｳﾄﾌ","kana_city":"ｷｮｳﾄｼｷﾀｸ","kana_address":"ﾀｶｶﾞﾐﾈｵｵﾀﾆﾁｮｳ","pref":"京都府","city":"京都市北区","address":"鷹峯大谷町"},
{"zip_code":"6038446","kana_pref":"ｷｮｳﾄﾌ","kana_city":"ｷｮｳﾄｼｷﾀｸ","kana_address":"ﾀｶｶﾞﾐﾈｶﾐﾉﾁｮｳ","pref":"京都府","city":"京都市北区","address":"鷹峯上ノ町"},
{"zip_code":"6038468","kana_pref":"ｷｮｳﾄﾌ","kana_city":"ｷｮｳﾄｼｷﾀｸ","kana_address":"ﾀｶｶﾞﾐﾈｷﾀﾀｶｶﾞﾐﾈﾁｮｳ","pref":"京都府","city":"京都市北区","address":"鷹峯北鷹峯町"},
{"zip_code":"6038447","kana_pref":"ｷｮｳﾄﾌ","kana_city":"ｷｮｳﾄｼｷﾀｸ","kana_address":"ﾀｶｶﾞﾐﾈｷﾉﾊﾀﾁｮｳ","pref":"京都府","city":"京都市北区","address":"鷹峯木ノ畑町"},
{"zip_code":"6038448","kana_pref":"ｷｮｳﾄﾌ","kana_city":"ｷｮｳﾄｼｷﾀｸ","kana_address":"ﾀｶｶﾞﾐﾈｷｭｳﾄﾞｲﾁｮｳ","pref":"京都府","city":"京都市北区","address":"鷹峯旧土居町"},
{"zip_code":"6038464","kana_pref":"ｷｮｳﾄﾌ","kana_city":"ｷｮｳﾄｼｷﾀｸ","kana_address":"ﾀｶｶﾞﾐﾈｸﾛﾓﾝﾁｮｳ","pref":"京都府","city":"京都市北区","address":"鷹峯黒門町"},
{"zip_code":"6038466","kana_pref":"ｷｮｳﾄﾌ","kana_city":"ｷｮｳﾄｼｷﾀｸ","kana_address":"ﾀｶｶﾞﾐﾈｺｳｴﾂﾁｮｳ","pref":"京都府","city":"京都市北区","address":"鷹峯光悦町"},
{"zip_code":"6038469","kana_pref":"ｷｮｳﾄﾌ","kana_city":"ｷｮｳﾄｼｷﾀｸ","kana_address":"ﾀｶｶﾞﾐﾈｾﾝｿﾞｸﾁｮｳ","pref":"京都府","city":"京都市北区","address":"鷹峯千束町"},
{"zip_code":"6038465","kana_pref":"ｷｮｳﾄﾌ","kana_city":"ｷｮｳﾄｼｷﾀｸ","kana_address":"ﾀｶｶﾞﾐﾈﾂﾁﾃﾝｼﾞｮｳﾁｮｳ","pref":"京都府","city":"京都市北区","address":"鷹峯土天井町"},
{"zip_code":"6038492","kana_pref":"ｷｮｳﾄﾌ","kana_city":"ｷｮｳﾄｼｷﾀｸ","kana_address":"ﾀｶｶﾞﾐﾈﾄﾞｳﾉﾆﾜﾁｮｳ","pref":"京都府","city":"京都市北区","address":"鷹峯堂ノ庭町"},
{"zip_code":"6038445","kana_pref":"ｷｮｳﾄﾌ","kana_city":"ｷｮｳﾄｼｷﾀｸ","kana_address":"ﾀｶｶﾞﾐﾈﾌｼﾞﾊﾞﾔｼﾁｮｳ","pref":"京都府","city":"京都市北区","address":"鷹峯藤林町"},
{"zip_code":"6038491","kana_pref":"ｷｮｳﾄﾌ","kana_city":"ｷｮｳﾄｼｷﾀｸ","kana_address":"ﾀｶｶﾞﾐﾈﾎﾄｹﾀﾞﾆ","pref":"京都府","city":"京都市北区","address":"鷹峯仏谷"},
{"zip_code":"6038494","kana_pref":"ｷｮｳﾄﾌ","kana_city":"ｷｮｳﾄｼｷﾀｸ","kana_address":"ﾀｶｶﾞﾐﾈﾎﾘｺｼﾁｮｳ","pref":"京都府","city":"京都市北区","address":"鷹峯堀越町"},
{"zip_code":"6038467","kana_pref":"ｷｮｳﾄﾌ","kana_city":"ｷｮｳﾄｼｷﾀｸ","kana_address":"ﾀｶｶﾞﾐﾈﾐﾅﾐﾀｶｶﾞﾐﾈﾁｮｳ","pref":"京都府","city":"京都市北区","address":"鷹峯南鷹峯町"},
{"zip_code":"6038154","kana_pref":"ｷｮｳﾄﾌ","kana_city":"ｷｮｳﾄｼｷﾀｸ","kana_address":"ﾁｮｳｼﾞｮｳﾆｼﾏﾁ","pref":"京都府","city":"京都市北区","address":"長乗西町"},
{"zip_code":"6038153","kana_pref":"ｷｮｳﾄﾌ","kana_city":"ｷｮｳﾄｼｷﾀｸ","kana_address":"ﾁｮｳｼﾞｮｳﾋｶﾞｼﾏﾁ","pref":"京都府","city":"京都市北区","address":"長乗東町"},
{"zip_code":"6038138","kana_pref":"ｷｮｳﾄﾌ","kana_city":"ｷｮｳﾄｼｷﾀｸ","kana_address":"ﾃﾝﾈｲｼﾞﾓﾝｾﾞﾝﾁｮｳ","pref":"京都府","city":"京都市北区","address":"天寧寺門前町"},
{"zip_code":"6038346","kana_pref":"ｷｮｳﾄﾌ","kana_city":"ｷｮｳﾄｼｷﾀｸ","kana_address":"ﾄｳｼﾞｲﾝｷﾀﾏﾁ","pref":"京都府","city":"京都市北区","address":"等持院北町"},
{"zip_code":"6038347","kana_pref":"ｷｮｳﾄﾌ","kana_city":"ｷｮｳﾄｼｷﾀｸ","kana_address":"ﾄｳｼﾞｲﾝﾅｶﾏﾁ","pref":"京都府","city":"京都市北区","address":"等持院中町"},
{"zip_code":"6038354","kana_pref":"ｷｮｳﾄﾌ","kana_city":"ｷｮｳﾄｼｷﾀｸ","kana_address":"ﾄｳｼﾞｲﾝﾆｼﾏﾁ","pref":"京都府","city":"京都市北区","address":"等持院西町"},
{"zip_code":"6038343","kana_pref":"ｷｮｳﾄﾌ","kana_city":"ｷｮｳﾄｼｷﾀｸ","kana_address":"ﾄｳｼﾞｲﾝﾋｶﾞｼﾏﾁ","pref":"京都府","city":"京都市北区","address":"等持院東町"},
{"zip_code":"6038344","kana_pref":"ｷｮｳﾄﾌ","kana_city":"ｷｮｳﾄｼｷﾀｸ","kana_address":"ﾄｳｼﾞｲﾝﾐﾅﾐﾏﾁ","pref":"京都府","city":"京都市北区","address":"等持院南町"},
{"zip_code":"6038804","kana_pref":"ｷｮｳﾄﾌ","kana_city":"ｷｮｳﾄｼｷﾀｸ","kana_address":"ﾆｼｶﾞﾓｲﾉｸﾁﾁｮｳ","pref":"京都府","city":"京都市北区","address":"西賀茂井ノ口町"},
{"zip_code":"6038842","kana_pref":"ｷｮｳﾄﾌ","kana_city":"ｷｮｳﾄｼｷﾀｸ","kana_address":"ﾆｼｶﾞﾓｲﾏﾊﾗﾁｮｳ","pref":"京都府","city":"京都市北区","address":"西賀茂今原町"},
{"zip_code":"6038828","kana_pref":"ｷｮｳﾄﾌ","kana_city":"ｷｮｳﾄｼｷﾀｸ","kana_address":"ﾆｼｶﾞﾓｵｵｸﾘﾁｮｳ","pref":"京都府","city":"京都市北区","address":"西賀茂大栗町"},
{"zip_code":"6038813","kana_pref":"ｷｮｳﾄﾌ","kana_city":"ｷｮｳﾄｼｷﾀｸ","kana_address":"ﾆｼｶﾞﾓｵｵﾄﾞｸﾞﾁﾁｮｳ","pref":"京都府","city":"京都市北区","address":"西賀茂大道口町"},
{"zip_code":"6038844","kana_pref":"ｷｮｳﾄﾌ","kana_city":"ｷｮｳﾄｼｷﾀｸ","kana_address":"ﾆｼｶﾞﾓｵｵﾌﾞｹﾁｮｳ","pref":"京都府","city":"京都市北区","address":"西賀茂大深町"},
{"zip_code":"6038807","kana_pref":"ｷｮｳﾄﾌ","kana_city":"ｷｮｳﾄｼｷﾀｸ","kana_address":"ﾆｼｶﾞﾓｶｴﾙｶﾞﾀﾆ","pref":"京都府","city":"京都市北区","address":"西賀茂蛙ケ谷"},
{"zip_code":"6038821","kana_pref":"ｷｮｳﾄﾌ","kana_city":"ｷｮｳﾄｼｷﾀｸ","kana_address":"ﾆｼｶﾞﾓｶｷﾉｷﾁｮｳ","pref":"京都府","city":"京都市北区","address":"西賀茂柿ノ木町"},
{"zip_code":"6038852","kana_pref":"ｷｮｳﾄﾌ","kana_city":"ｷｮｳﾄｼｷﾀｸ","kana_address":"ﾆｼｶﾞﾓｶｻﾏﾂ","pref":"京都府","city":"京都市北区","address":"西賀茂笠松"},
{"zip_code":"6038805","kana_pref":"ｷｮｳﾄﾌ","kana_city":"ｷｮｳﾄｼｷﾀｸ","kana_address":"ﾆｼｶﾞﾓｶﾆｶﾞｻｶﾁｮｳ","pref":"京都府","city":"京都市北区","address":"西賀茂蟹ケ坂町"},
{"zip_code":"6038822","kana_pref":"ｷｮｳﾄﾌ","kana_city":"ｷｮｳﾄｼｷﾀｸ","kana_address":"ﾆｼｶﾞﾓｶﾉｼﾀﾁｮｳ","pref":"京都府","city":"京都市北区","address":"西賀茂鹿ノ下町"},
{"zip_code":"6038802","kana_pref":"ｷｮｳﾄﾌ","kana_city":"ｷｮｳﾄｼｷﾀｸ","kana_address":"ﾆｼｶﾞﾓｶﾐｼｮｳﾀﾞﾁｮｳ","pref":"京都府","city":"京都市北区","address":"西賀茂上庄田町"},
{"zip_code":"6038817","kana_pref":"ｷｮｳﾄﾌ","kana_city":"ｷｮｳﾄｼｷﾀｸ","kana_address":"ﾆｼｶﾞﾓｶﾜｶﾐﾁｮｳ","pref":"京都府","city":"京都市北区","address":"西賀茂川上町"},
{"zip_code":"6038841","kana_pref":"ｷｮｳﾄﾌ","kana_city":"ｷｮｳﾄｼｷﾀｸ","kana_address":"ﾆｼｶﾞﾓｷﾀｲﾏﾊﾗﾁｮｳ","pref":"京都府","city":"京都市北区","address":"西賀茂北今原町"},
{"zip_code":"6038816","kana_pref":"ｷｮｳﾄﾌ","kana_city":"ｷｮｳﾄｼｷﾀｸ","kana_address":"ﾆｼｶﾞﾓｷﾀｶﾜｶﾐﾁｮｳ","pref":"京都府","city":"京都市北区","address":"西賀茂北川上町"},
{"zip_code":"6038847","kana_pref":"ｷｮｳﾄﾌ","kana_city":"ｷｮｳﾄｼｷﾀｸ","kana_address":"ﾆｼｶﾞﾓｷﾀﾁﾝｼﾞｭｱﾝﾁｮｳ","pref":"京都府","city":"京都市北区","address":"西賀茂北鎮守菴町"},
{"zip_code":"6038811","kana_pref":"ｷｮｳﾄﾌ","kana_city":"ｷｮｳﾄｼｷﾀｸ","kana_address":"ﾆｼｶﾞﾓｷﾀﾔﾏﾉﾓﾘﾁｮｳ","pref":"京都府","city":"京都市北区","address":"西賀茂北山ノ森町"},
{"zip_code":"6038801","kana_pref":"ｷｮｳﾄﾌ","kana_city":"ｷｮｳﾄｼｷﾀｸ","kana_address":"ﾆｼｶﾞﾓｼﾓｼｮｳﾀﾞﾁｮｳ","pref":"京都府","city":"京都市北区","address":"西賀茂下庄田町"},
{"zip_code":"6038853","kana_pref":"ｷｮｳﾄﾌ","kana_city":"ｷｮｳﾄｼｷﾀｸ","kana_address":"ﾆｼｶﾞﾓｼﾛﾔﾏ","pref":"京都府","city":"京都市北区","address":"西賀茂城山"},
{"zip_code":"6038836","kana_pref":"ｷｮｳﾄﾌ","kana_city":"ｷｮｳﾄｼｷﾀｸ","kana_address":"ﾆｼｶﾞﾓｼﾞﾝｺｳｲﾝﾁｮｳ","pref":"京都府","city":"京都市北区","address":"西賀茂神光院町"},
{"zip_code":"6038845","kana_pref":"ｷｮｳﾄﾌ","kana_city":"ｷｮｳﾄｼｷﾀｸ","kana_address":"ﾆｼｶﾞﾓｽﾐﾔｼﾛﾁｮｳ","pref":"京都府","city":"京都市北区","address":"西賀茂角社町"},
{"zip_code":"6038846","kana_pref":"ｷｮｳﾄﾌ","kana_city":"ｷｮｳﾄｼｷﾀｸ","kana_address":"ﾆｼｶﾞﾓﾁﾝｼﾞｭｱﾝﾁｮｳ","pref":"京都府","city":"京都市北区","address":"西賀茂鎮守菴町"},
{"zip_code":"6038815","kana_pref":"ｷｮｳﾄﾌ","kana_city":"ｷｮｳﾄｼｷﾀｸ","kana_address":"ﾆｼｶﾞﾓﾅｶｶﾜｶﾐﾁｮｳ","pref":"京都府","city":"京都市北区","address":"西賀茂中川上町"},
{"zip_code":"6038854","kana_pref":"ｷｮｳﾄﾌ","kana_city":"ｷｮｳﾄｼｷﾀｸ","kana_address":"ﾆｼｶﾞﾓﾆｼﾋﾑﾛﾁｮｳ","pref":"京都府","city":"京都市北区","address":"西賀茂西氷室町"},
{"zip_code":"6038823","kana_pref":"ｷｮｳﾄﾌ","kana_city":"ｷｮｳﾄｼｷﾀｸ","kana_address":"ﾆｼｶﾞﾓﾊﾘﾉｷﾁｮｳ","pref":"京都府","city":"京都市北区","address":"西賀茂榿ノ木町"},
{"zip_code":"6038803","kana_pref":"ｷｮｳﾄﾌ","kana_city":"ｷｮｳﾄｼｷﾀｸ","kana_address":"ﾆｼｶﾞﾓﾋﾉｸﾁﾁｮｳ","pref":"京都府","city":"京都市北区","address":"西賀茂樋ノ口町"},
{"zip_code":"6038855","kana_pref":"ｷｮｳﾄﾌ","kana_city":"ｷｮｳﾄｼｷﾀｸ","kana_address":"ﾆｼｶﾞﾓﾋﾑﾛﾁｮｳ","pref":"京都府","city":"京都市北区","address":"西賀茂氷室町"},
{"zip_code":"6038848","kana_pref":"ｷｮｳﾄﾌ","kana_city":"ｷｮｳﾄｼｷﾀｸ","kana_address":"ﾆｼｶﾞﾓﾌﾈﾔﾏ","pref":"京都府","city":"京都市北区","address":"西賀茂船山"},
{"zip_code":"6038826","kana_pref":"ｷｮｳﾄﾌ","kana_city":"ｷｮｳﾄｼｷﾀｸ","kana_address":"ﾆｼｶﾞﾓﾎﾞｳﾉｳｼﾛﾁｮｳ","pref":"京都府","city":"京都市北区","address":"西賀茂坊ノ後町"},
{"zip_code":"6038856","kana_pref":"ｷｮｳﾄﾌ","kana_city":"ｷｮｳﾄｼｷﾀｸ","kana_address":"ﾆｼｶﾞﾓﾎｳﾗｲﾀﾞﾆ","pref":"京都府","city":"京都市北区","address":"西賀茂蓬来谷"},
{"zip_code":"6038825","kana_pref":"ｷｮｳﾄﾌ","kana_city":"ｷｮｳﾄｼｷﾀｸ","kana_address":"ﾆｼｶﾞﾓﾏﾙｶﾜﾁｮｳ","pref":"京都府","city":"京都市北区","address":"西賀茂丸川町"},
{"zip_code":"6038806","kana_pref":"ｷｮｳﾄﾌ","kana_city":"ｷｮｳﾄｼｷﾀｸ","kana_address":"ﾆｼｶﾞﾓﾏﾙﾐﾈ","pref":"京都府","city":"京都市北区","address":"西賀茂円峰"},
{"zip_code":"6038827","kana_pref":"ｷｮｳﾄﾌ","kana_city":"ｷｮｳﾄｼｷﾀｸ","kana_address":"ﾆｼｶﾞﾓﾐｽﾞｶﾞｷﾁｮｳ","pref":"京都府","city":"京都市北区","address":"西賀茂水垣町"},
{"zip_code":"6038843","kana_pref":"ｷｮｳﾄﾌ","kana_city":"ｷｮｳﾄｼｷﾀｸ","kana_address":"ﾆｼｶﾞﾓﾐﾅﾐｲﾏﾊﾗﾁｮｳ","pref":"京都府","city":"京都市北区","address":"西賀茂南今原町"},
{"zip_code":"6038824","kana_pref":"ｷｮｳﾄﾌ","kana_city":"ｷｮｳﾄｼｷﾀｸ","kana_address":"ﾆｼｶﾞﾓﾐﾅﾐｵｵｸﾘﾁｮｳ","pref":"京都府","city":"京都市北区","address":"西賀茂南大栗町"},
{"zip_code":"6038814","kana_pref":"ｷｮｳﾄﾌ","kana_city":"ｷｮｳﾄｼｷﾀｸ","kana_address":"ﾆｼｶﾞﾓﾐﾅﾐｶﾜｶﾐﾁｮｳ","pref":"京都府","city":"京都市北区","address":"西賀茂南川上町"},
{"zip_code":"6038812","kana_pref":"ｷｮｳﾄﾌ","kana_city":"ｷｮｳﾄｼｷﾀｸ","kana_address":"ﾆｼｶﾞﾓﾔﾏﾉﾓﾘﾁｮｳ","pref":"京都府","city":"京都市北区","address":"西賀茂山ノ森町"},
{"zip_code":"6038851","kana_pref":"ｷｮｳﾄﾌ","kana_city":"ｷｮｳﾄｼｷﾀｸ","kana_address":"ﾆｼｶﾞﾓﾔﾘﾄｷﾞｲﾜ","pref":"京都府","city":"京都市北区","address":"西賀茂鑓磨岩"},
{"zip_code":"6038353","kana_pref":"ｷｮｳﾄﾌ","kana_city":"ｷｮｳﾄｼｷﾀｸ","kana_address":"ﾋﾗﾉｶﾐﾊｯﾁｮｳﾔﾅｷﾞﾁｮｳ","pref":"京都府","city":"京都市北区","address":"平野上八丁柳町"},
{"zip_code":"6038355","kana_pref":"ｷｮｳﾄﾌ","kana_city":"ｷｮｳﾄｼｷﾀｸ","kana_address":"ﾋﾗﾉｶﾐﾔﾅｷﾞﾁｮｳ","pref":"京都府","city":"京都市北区","address":"平野上柳町"},
{"zip_code":"6038364","kana_pref":"ｷｮｳﾄﾌ","kana_city":"ｷｮｳﾄｼｷﾀｸ","kana_address":"ﾋﾗﾉｻｸﾗｷﾞﾁｮｳ","pref":"京都府","city":"京都市北区","address":"平野桜木町"},
{"zip_code":"6038321","kana_pref":"ｷｮｳﾄﾌ","kana_city":"ｷｮｳﾄｼｷﾀｸ","kana_address":"ﾋﾗﾉﾄﾘｲﾏｴﾁｮｳ","pref":"京都府","city":"京都市北区","address":"平野鳥居前町"},
{"zip_code":"6038345","kana_pref":"ｷｮｳﾄﾌ","kana_city":"ｷｮｳﾄｼｷﾀｸ","kana_address":"ﾋﾗﾉﾊｯﾁｮｳﾔﾅｷﾞﾁｮｳ","pref":"京都府","city":"京都市北区","address":"平野八丁柳町"},
{"zip_code":"6038356","kana_pref":"ｷｮｳﾄﾌ","kana_city":"ｷｮｳﾄｼｷﾀｸ","kana_address":"ﾋﾗﾉﾋｶﾞｼﾔﾅｷﾞﾁｮｳ","pref":"京都府","city":"京都市北区","address":"平野東柳町"},
{"zip_code":"6038352","kana_pref":"ｷｮｳﾄﾌ","kana_city":"ｷｮｳﾄｼｷﾀｸ","kana_address":"ﾋﾗﾉﾐﾔｷﾀﾁｮｳ","pref":"京都府","city":"京都市北区","address":"平野宮北町"},
{"zip_code":"6038365","kana_pref":"ｷｮｳﾄﾌ","kana_city":"ｷｮｳﾄｼｷﾀｸ","kana_address":"ﾋﾗﾉﾐﾔｼﾞｷﾁｮｳ","pref":"京都府","city":"京都市北区","address":"平野宮敷町"},
{"zip_code":"6038357","kana_pref":"ｷｮｳﾄﾌ","kana_city":"ｷｮｳﾄｼｷﾀｸ","kana_address":"ﾋﾗﾉﾐﾔﾆｼﾁｮｳ","pref":"京都府","city":"京都市北区","address":"平野宮西町"},
{"zip_code":"6038322","kana_pref":"ｷｮｳﾄﾌ","kana_city":"ｷｮｳﾄｼｷﾀｸ","kana_address":"ﾋﾗﾉﾐﾔﾓﾄﾁｮｳ","pref":"京都府","city":"京都市北区","address":"平野宮本町"},
{"zip_code":"6038243","kana_pref":"ｷｮｳﾄﾌ","kana_city":"ｷｮｳﾄｼｷﾀｸ","kana_address":"ﾑﾗｻｷﾉｲﾏﾐﾔﾁｮｳ","pref":"京都府","city":"京都市北区","address":"紫野今宮町"},
{"zip_code":"6038242","kana_pref":"ｷｮｳﾄﾌ","kana_city":"ｷｮｳﾄｼｷﾀｸ","kana_address":"ﾑﾗｻｷﾉｳｴﾉﾁｮｳ","pref":"京都府","city":"京都市北区","address":"紫野上野町"},
{"zip_code":"6038214","kana_pref":"ｷｮｳﾄﾌ","kana_city":"ｷｮｳﾄｼｷﾀｸ","kana_address":"ﾑﾗｻｷﾉｳﾝﾘﾝｲﾝﾁｮｳ","pref":"京都府","city":"京都市北区","address":"紫野雲林院町"},
{"zip_code":"6038311","kana_pref":"ｷｮｳﾄﾌ","kana_city":"ｷｮｳﾄｼｷﾀｸ","kana_address":"ﾑﾗｻｷﾉｶﾐｶｼﾜﾉﾁｮｳ","pref":"京都府","city":"京都市北区","address":"紫野上柏野町"},
{"zip_code":"6038166","kana_pref":"ｷｮｳﾄﾌ","kana_city":"ｷｮｳﾄｼｷﾀｸ","kana_address":"ﾑﾗｻｷﾉｶﾐｺﾞｼｮﾃﾞﾝﾁｮｳ","pref":"京都府","city":"京都市北区","address":"紫野上御所田町"},
{"zip_code":"6038211","kana_pref":"ｷｮｳﾄﾌ","kana_city":"ｷｮｳﾄｼｷﾀｸ","kana_address":"ﾑﾗｻｷﾉｶﾐｾｷﾘｭｳﾁｮｳ","pref":"京都府","city":"京都市北区","address":"紫野上石龍町"},
{"zip_code":"6038221","kana_pref":"ｷｮｳﾄﾌ","kana_city":"ｷｮｳﾄｼｷﾀｸ","kana_address":"ﾑﾗｻｷﾉｶﾐﾂｷﾔﾏﾁｮｳ","pref":"京都府","city":"京都市北区","address":"紫野上築山町"},
{"zip_code":"6038176","kana_pref":"ｷｮｳﾄﾌ","kana_city":"ｷｮｳﾄｼｷﾀｸ","kana_address":"ﾑﾗｻｷﾉｶﾐﾄﾘﾀﾞﾁｮｳ","pref":"京都府","city":"京都市北区","address":"紫野上鳥田町"},
{"zip_code":"6038236","kana_pref":"ｷｮｳﾄﾌ","kana_city":"ｷｮｳﾄｼｷﾀｸ","kana_address":"ﾑﾗｻｷﾉｶﾐﾐｺｼﾁｮｳ","pref":"京都府","city":"京都市北区","address":"紫野上御輿町"},
{"zip_code":"6038217","kana_pref":"ｷｮｳﾄﾌ","kana_city":"ｷｮｳﾄｼｷﾀｸ","kana_address":"ﾑﾗｻｷﾉｶﾐﾓﾝｾﾞﾝﾁｮｳ","pref":"京都府","city":"京都市北区","address":"紫野上門前町"},
{"zip_code":"6038177","kana_pref":"ｷｮｳﾄﾌ","kana_city":"ｷｮｳﾄｼｷﾀｸ","kana_address":"ﾑﾗｻｷﾉｶﾐﾔﾅｷﾞﾁｮｳ","pref":"京都府","city":"京都市北区","address":"紫野上柳町"},
{"zip_code":"6038237","kana_pref":"ｷｮｳﾄﾌ","kana_city":"ｷｮｳﾄｼｷﾀｸ","kana_address":"ﾑﾗｻｷﾉｶﾐﾜｶｸｻﾁｮｳ","pref":"京都府","city":"京都市北区","address":"紫野上若草町"},
{"zip_code":"6038301","kana_pref":"ｷｮｳﾄﾌ","kana_city":"ｷｮｳﾄｼｷﾀｸ","kana_address":"ﾑﾗｻｷﾉｷﾀﾊﾅﾉﾎﾞｳﾁｮｳ","pref":"京都府","city":"京都市北区","address":"紫野北花ノ坊町"},
{"zip_code":"6038227","kana_pref":"ｷｮｳﾄﾌ","kana_city":"ｷｮｳﾄｼｷﾀｸ","kana_address":"ﾑﾗｻｷﾉｷﾀﾌﾅｵｶﾁｮｳ","pref":"京都府","city":"京都市北区","address":"紫野北舟岡町"},
{"zip_code":"6038304","kana_pref":"ｷｮｳﾄﾌ","kana_city":"ｷｮｳﾄｼｷﾀｸ","kana_address":"ﾑﾗｻｷﾉｺﾞｳﾉｳｴﾁｮｳ","pref":"京都府","city":"京都市北区","address":"紫野郷ノ上町"},
{"zip_code":"6038313","kana_pref":"ｷｮｳﾄﾌ","kana_city":"ｷｮｳﾄｼｷﾀｸ","kana_address":"ﾑﾗｻｷﾉｼﾓｶｼﾜﾉﾁｮｳ","pref":"京都府","city":"京都市北区","address":"紫野下柏野町"},
{"zip_code":"6038213","kana_pref":"ｷｮｳﾄﾌ","kana_city":"ｷｮｳﾄｼｷﾀｸ","kana_address":"ﾑﾗｻｷﾉｼﾓｾｷﾘｭｳﾁｮｳ","pref":"京都府","city":"京都市北区","address":"紫野下石龍町"},
{"zip_code":"6038222","kana_pref":"ｷｮｳﾄﾌ","kana_city":"ｷｮｳﾄｼｷﾀｸ","kana_address":"ﾑﾗｻｷﾉｼﾓﾂｷﾔﾏﾁｮｳ","pref":"京都府","city":"京都市北区","address":"紫野下築山町"},
{"zip_code":"6038175","kana_pref":"ｷｮｳﾄﾌ","kana_city":"ｷｮｳﾄｼｷﾀｸ","kana_address":"ﾑﾗｻｷﾉｼﾓﾄﾘﾀﾞﾁｮｳ","pref":"京都府","city":"京都市北区","address":"紫野下鳥田町"},
{"zip_code":"6038235","kana_pref":"ｷｮｳﾄﾌ","kana_city":"ｷｮｳﾄｼｷﾀｸ","kana_address":"ﾑﾗｻｷﾉｼﾓﾐｺｼﾁｮｳ","pref":"京都府","city":"京都市北区","address":"紫野下御輿町"},
{"zip_code":"6038215","kana_pref":"ｷｮｳﾄﾌ","kana_city":"ｷｮｳﾄｼｷﾀｸ","kana_address":"ﾑﾗｻｷﾉｼﾓﾓﾝｾﾞﾝﾁｮｳ","pref":"京都府","city":"京都市北区","address":"紫野下門前町"},
{"zip_code":"6038174","kana_pref":"ｷｮｳﾄﾌ","kana_city":"ｷｮｳﾄｼｷﾀｸ","kana_address":"ﾑﾗｻｷﾉｼﾓﾔﾅｷﾞﾁｮｳ","pref":"京都府","city":"京都市北区","address":"紫野下柳町"},
{"zip_code":"6038234","kana_pref":"ｷｮｳﾄﾌ","kana_city":"ｷｮｳﾄｼｷﾀｸ","kana_address":"ﾑﾗｻｷﾉｼﾓﾜｶｸｻﾁｮｳ","pref":"京都府","city":"京都市北区","address":"紫野下若草町"},
{"zip_code":"6038303","kana_pref":"ｷｮｳﾄﾌ","kana_city":"ｷｮｳﾄｼｷﾀｸ","kana_address":"ﾑﾗｻｷﾉｼﾞｭｳﾆﾎﾞｳﾁｮｳ","pref":"京都府","city":"京都市北区","address":"紫野十二坊町"},
{"zip_code":"6038212","kana_pref":"ｷｮｳﾄﾌ","kana_city":"ｷｮｳﾄｼｷﾀｸ","kana_address":"ﾑﾗｻｷﾉｾｷﾘｭｳﾁｮｳ","pref":"京都府","city":"京都市北区","address":"紫野石龍町"},
{"zip_code":"6038247","kana_pref":"ｷｮｳﾄﾌ","kana_city":"ｷｮｳﾄｼｷﾀｸ","kana_address":"ﾑﾗｻｷﾉｾﾝﾄﾞｳﾁｮｳ","pref":"京都府","city":"京都市北区","address":"紫野泉堂町"},
{"zip_code":"6038231","kana_pref":"ｷｮｳﾄﾌ","kana_city":"ｷｮｳﾄｼｷﾀｸ","kana_address":"ﾑﾗｻｷﾉﾀﾞｲﾄｸｼﾞﾁｮｳ","pref":"京都府","city":"京都市北区","address":"紫野大徳寺町"},
{"zip_code":"6038312","kana_pref":"ｷｮｳﾄﾌ","kana_city":"ｷｮｳﾄｼｷﾀｸ","kana_address":"ﾑﾗｻｷﾉﾅｶｶｼﾜﾉﾁｮｳ","pref":"京都府","city":"京都市北区","address":"紫野中柏野町"},
{"zip_code":"6038165","kana_pref":"ｷｮｳﾄﾌ","kana_city":"ｷｮｳﾄｼｷﾀｸ","kana_address":"ﾑﾗｻｷﾉﾆｼｺﾞｼｮﾃﾞﾝﾁｮｳ","pref":"京都府","city":"京都市北区","address":"紫野西御所田町"},
{"zip_code":"6038246","kana_pref":"ｷｮｳﾄﾌ","kana_city":"ｷｮｳﾄｼｷﾀｸ","kana_address":"ﾑﾗｻｷﾉﾆｼｾﾝﾄﾞｳﾁｮｳ","pref":"京都府","city":"京都市北区","address":"紫野西泉堂町"},
{"zip_code":"6038314","kana_pref":"ｷｮｳﾄﾌ","kana_city":"ｷｮｳﾄｼｷﾀｸ","kana_address":"ﾑﾗｻｷﾉﾆｼﾄﾞｲﾁｮｳ","pref":"京都府","city":"京都市北区","address":"紫野西土居町"},
{"zip_code":"6038233","kana_pref":"ｷｮｳﾄﾌ","kana_city":"ｷｮｳﾄｼｷﾀｸ","kana_address":"ﾑﾗｻｷﾉﾆｼﾉﾁｮｳ","pref":"京都府","city":"京都市北区","address":"紫野西野町"},
{"zip_code":"6038224","kana_pref":"ｷｮｳﾄﾌ","kana_city":"ｷｮｳﾄｼｷﾀｸ","kana_address":"ﾑﾗｻｷﾉﾆｼﾌｼﾞﾉﾓﾘﾁｮｳ","pref":"京都府","city":"京都市北区","address":"紫野西藤ノ森町"},
{"zip_code":"6038226","kana_pref":"ｷｮｳﾄﾌ","kana_city":"ｷｮｳﾄｼｷﾀｸ","kana_address":"ﾑﾗｻｷﾉﾆｼﾌﾅｵｶﾁｮｳ","pref":"京都府","city":"京都市北区","address":"紫野西舟岡町"},
{"zip_code":"6038245","kana_pref":"ｷｮｳﾄﾌ","kana_city":"ｷｮｳﾄｼｷﾀｸ","kana_address":"ﾑﾗｻｷﾉﾆｼﾚﾝﾀﾞｲﾉﾁｮｳ","pref":"京都府","city":"京都市北区","address":"紫野西蓮台野町"},
{"zip_code":"6038302","kana_pref":"ｷｮｳﾄﾌ","kana_city":"ｷｮｳﾄｼｷﾀｸ","kana_address":"ﾑﾗｻｷﾉﾊﾅﾉﾎﾞｳﾁｮｳ","pref":"京都府","city":"京都市北区","address":"紫野花ノ坊町"},
{"zip_code":"6038164","kana_pref":"ｷｮｳﾄﾌ","kana_city":"ｷｮｳﾄｼｷﾀｸ","kana_address":"ﾑﾗｻｷﾉﾋｶﾞｼｺﾞｼｮﾃﾞﾝﾁｮｳ","pref":"京都府","city":"京都市北区","address":"紫野東御所田町"},
{"zip_code":"6038241","kana_pref":"ｷｮｳﾄﾌ","kana_city":"ｷｮｳﾄｼｷﾀｸ","kana_address":"ﾑﾗｻｷﾉﾋｶﾞｼｾﾝﾄﾞｳﾁｮｳ","pref":"京都府","city":"京都市北区","address":"紫野東泉堂町"},
{"zip_code":"6038232","kana_pref":"ｷｮｳﾄﾌ","kana_city":"ｷｮｳﾄｼｷﾀｸ","kana_address":"ﾑﾗｻｷﾉﾋｶﾞｼﾉﾁｮｳ","pref":"京都府","city":"京都市北区","address":"紫野東野町"},
{"zip_code":"6038223","kana_pref":"ｷｮｳﾄﾌ","kana_city":"ｷｮｳﾄｼｷﾀｸ","kana_address":"ﾑﾗｻｷﾉﾋｶﾞｼﾌｼﾞﾉﾓﾘﾁｮｳ","pref":"京都府","city":"京都市北区","address":"紫野東藤ノ森町"},
{"zip_code":"6038228","kana_pref":"ｷｮｳﾄﾌ","kana_city":"ｷｮｳﾄｼｷﾀｸ","kana_address":"ﾑﾗｻｷﾉﾋｶﾞｼﾌﾅｵｶﾁｮｳ","pref":"京都府","city":"京都市北区","address":"紫野東舟岡町"},
{"zip_code":"6038244","kana_pref":"ｷｮｳﾄﾌ","kana_city":"ｷｮｳﾄｼｷﾀｸ","kana_address":"ﾑﾗｻｷﾉﾋｶﾞｼﾚﾝﾀﾞｲﾉﾁｮｳ","pref":"京都府","city":"京都市北区","address":"紫野東蓮台野町"},
{"zip_code":"6038305","kana_pref":"ｷｮｳﾄﾌ","kana_city":"ｷｮｳﾄｼｷﾀｸ","kana_address":"ﾑﾗｻｷﾉﾐﾅﾐﾊﾅﾉﾎﾞｳﾁｮｳ","pref":"京都府","city":"京都市北区","address":"紫野南花ノ坊町"},
{"zip_code":"6038225","kana_pref":"ｷｮｳﾄﾌ","kana_city":"ｷｮｳﾄｼｷﾀｸ","kana_address":"ﾑﾗｻｷﾉﾐﾅﾐﾌﾅｵｶﾁｮｳ","pref":"京都府","city":"京都市北区","address":"紫野南舟岡町"},
{"zip_code":"6038158","kana_pref":"ｷｮｳﾄﾌ","kana_city":"ｷｮｳﾄｼｷﾀｸ","kana_address":"ﾑﾗｻｷﾉﾐﾔﾆｼﾁｮｳ","pref":"京都府","city":"京都市北区","address":"紫野宮西町"},
{"zip_code":"6038157","kana_pref":"ｷｮｳﾄﾌ","kana_city":"ｷｮｳﾄｼｷﾀｸ","kana_address":"ﾑﾗｻｷﾉﾐﾔﾋｶﾞｼﾁｮｳ","pref":"京都府","city":"京都市北区","address":"紫野宮東町"},
{"zip_code":"6038216","kana_pref":"ｷｮｳﾄﾌ","kana_city":"ｷｮｳﾄｼｷﾀｸ","kana_address":"ﾑﾗｻｷﾉﾓﾝｾﾞﾝﾁｮｳ","pref":"京都府","city":"京都市北区","address":"紫野門前町"}]}