{"zip_code":[
{"zip_code":"6040000","kana_pref":"ｷｮｳﾄﾌ","kana_city":"ｷｮｳﾄｼﾅｶｷﾞｮｳｸ","kana_address":"","pref":"京都府","city":"京都市中京区","address":""},
{"zip_code":"6040004","kana_pref":"ｷｮｳﾄﾌ","kana_city":"ｷｮｳﾄｼﾅｶｷﾞｮｳｸ","kana_address":"ｱｲｵｲﾁｮｳ","pref":"京都府","city":"京都市中京区","address":"相生町"},
{"zip_code":"6040847","kana_pref":"ｷｮｳﾄﾌ","kana_city":"ｷｮｳﾄｼﾅｶｷﾞｮｳｸ","kana_address":"ｱｷﾉﾉﾁｮｳ","pref":"京都府","city":"京都市中京区","address":"秋野々町"},
{"zip_code":"6048074","kana_pref":"ｷｮｳﾄﾌ","kana_city":"ｷｮｳﾄｼﾅｶｷﾞｮｳｸ","kana_address":"ｱｻｸﾗﾁｮｳ","pref":"京都府","city":"京都市中京区","address":"朝倉町"},
{"zip_code":"6048324","kana_pref":"ｷｮｳﾄﾌ","kana_city":"ｷｮｳﾄｼﾅｶｷﾞｮｳｸ","kana_address":"ｱﾈｲﾉｸﾏﾁｮｳ","pref":"京都府","city":"京都市中京区","address":"姉猪熊町"},
{"zip_code":"6048326","kana_pref":"ｷｮｳﾄﾌ","kana_city":"ｷｮｳﾄｼﾅｶｷﾞｮｳｸ","kana_address":"ｱﾈｵｵﾐﾔﾁｮｳﾋｶﾞｼｶﾞﾜ","pref":"京都府","city":"京都市中京区","address":"姉大宮町東側"},
{"zip_code":"6048327","kana_pref":"ｷｮｳﾄﾌ","kana_city":"ｷｮｳﾄｼﾅｶｷﾞｮｳｸ","kana_address":"ｱﾈｵｵﾐﾔﾁｮｳﾆｼｶﾞﾜ","pref":"京都府","city":"京都市中京区","address":"姉大宮町西側"},
{"zip_code":"6048092","kana_pref":"ｷｮｳﾄﾌ","kana_city":"ｷｮｳﾄｼﾅｶｷﾞｮｳｸ","kana_address":"ｱﾈﾀﾞｲﾄｳﾁｮｳ","pref":"京都府","city":"京都市中京区","address":"姉大東町"},
{"zip_code":"6048372","kana_pref":"ｷｮｳﾄﾌ","kana_city":"ｷｮｳﾄｼﾅｶｷﾞｮｳｸ","kana_address":"ｱﾈﾆｼﾁｮｳ","pref":"京都府","city":"京都市中京区","address":"姉西町"},
{"zip_code":"6048273","kana_pref":"ｷｮｳﾄﾌ","kana_city":"ｷｮｳﾄｼﾅｶｷﾞｮｳｸ","kana_address":"ｱﾈﾆｼﾉﾄｳｲﾝﾁｮｳ","pref":"京都府","city":"京都市中京区","address":"姉西洞院町"},
{"zip_code":"6048264","kana_pref":"ｷｮｳﾄﾌ","kana_city":"ｷｮｳﾄｼﾅｶｷﾞｮｳｸ","kana_address":"ｱﾈﾆｼﾎﾘｶﾜﾁｮｳ","pref":"京都府","city":"京都市中京区","address":"姉西堀川町"},
{"zip_code":"6048263","kana_pref":"ｷｮｳﾄﾌ","kana_city":"ｷｮｳﾄｼﾅｶｷﾞｮｳｸ","kana_address":"ｱﾈﾋｶﾞｼﾎﾘｶﾜﾁｮｳ","pref":"京都府","city":"京都市中京区","address":"姉東堀川町"},
{"zip_code":"6048063","kana_pref":"ｷｮｳﾄﾌ","kana_city":"ｷｮｳﾄｼﾅｶｷﾞｮｳｸ","kana_address":"ｱﾌﾞﾗﾔﾁｮｳ","pref":"京都府","city":"京都市中京区","address":"油屋町"},
{"zip_code":"6048103","kana_pref":"ｷｮｳﾄﾌ","kana_city":"ｷｮｳﾄｼﾅｶｷﾞｮｳｸ","kana_address":"ｱﾌﾞﾗﾔﾁｮｳ","pref":"京都府","city":"京都市中京区","address":"油屋町（柳馬場通姉小路下る"},
{"zip_code":"6048103","kana_pref":"ｷｮｳﾄﾌ","kana_city":"ｷｮｳﾄｼﾅｶｷﾞｮｳｸ","kana_address":"ｱﾌﾞﾗﾔﾁｮｳ","pref":"京都府","city":"京都市中京区","address":"柳馬場通三条上る"},
{"zip_code":"6048103","kana_pref":"ｷｮｳﾄﾌ","kana_city":"ｷｮｳﾄｼﾅｶｷﾞｮｳｸ","kana_address":"ｱﾌﾞﾗﾔﾁｮｳ","pref":"京都府","city":"京都市中京区","address":"姉小路通柳馬場東入"},
{"zip_code":"6048103","kana_pref":"ｷｮｳﾄﾌ","kana_city":"ｷｮｳﾄｼﾅｶｷﾞｮｳｸ","kana_address":"ｱﾌﾞﾗﾔﾁｮｳ","pref":"京都府","city":"京都市中京区","address":"姉小"},
{"zip_code":"6048103","kana_pref":"ｷｮｳﾄﾌ","kana_city":"ｷｮｳﾄｼﾅｶｷﾞｮｳｸ","kana_address":"ｱﾌﾞﾗﾔﾁｮｳ","pref":"京都府","city":"京都市中京区","address":"路通柳馬場西入）"},
{"zip_code":"6048216","kana_pref":"ｷｮｳﾄﾌ","kana_city":"ｷｮｳﾄｼﾅｶｷﾞｮｳｸ","kana_address":"ｲｹｽﾁｮｳ","pref":"京都府","city":"京都市中京区","address":"池須町"},
{"zip_code":"6048302","kana_pref":"ｷｮｳﾄﾌ","kana_city":"ｷｮｳﾄｼﾅｶｷﾞｮｳｸ","kana_address":"ｲｹﾓﾄﾁｮｳ","pref":"京都府","city":"京都市中京区","address":"池元町"},
{"zip_code":"6040043","kana_pref":"ｷｮｳﾄﾌ","kana_city":"ｷｮｳﾄｼﾅｶｷﾞｮｳｸ","kana_address":"ｲｼﾊﾞｼﾁｮｳ","pref":"京都府","city":"京都市中京区","address":"石橋町"},
{"zip_code":"6048036","kana_pref":"ｷｮｳﾄﾌ","kana_city":"ｷｮｳﾄｼﾅｶｷﾞｮｳｸ","kana_address":"ｲｼﾊﾞｼﾁｮｳ","pref":"京都府","city":"京都市中京区","address":"石橋町（三条通河原町西入"},
{"zip_code":"6048036","kana_pref":"ｷｮｳﾄﾌ","kana_city":"ｷｮｳﾄｼﾅｶｷﾞｮｳｸ","kana_address":"ｲｼﾊﾞｼﾁｮｳ","pref":"京都府","city":"京都市中京区","address":"三条通寺町東入"},
{"zip_code":"6048036","kana_pref":"ｷｮｳﾄﾌ","kana_city":"ｷｮｳﾄｼﾅｶｷﾞｮｳｸ","kana_address":"ｲｼﾊﾞｼﾁｮｳ","pref":"京都府","city":"京都市中京区","address":"三条通新京極西入"},
{"zip_code":"6048036","kana_pref":"ｷｮｳﾄﾌ","kana_city":"ｷｮｳﾄｼﾅｶｷﾞｮｳｸ","kana_address":"ｲｼﾊﾞｼﾁｮｳ","pref":"京都府","city":"京都市中京区","address":"三条通新"},
{"zip_code":"6048036","kana_pref":"ｷｮｳﾄﾌ","kana_city":"ｷｮｳﾄｼﾅｶｷﾞｮｳｸ","kana_address":"ｲｼﾊﾞｼﾁｮｳ","pref":"京都府","city":"京都市中京区","address":"京極東入"},
{"zip_code":"6048036","kana_pref":"ｷｮｳﾄﾌ","kana_city":"ｷｮｳﾄｼﾅｶｷﾞｮｳｸ","kana_address":"ｲｼﾊﾞｼﾁｮｳ","pref":"京都府","city":"京都市中京区","address":"寺町通三条下る"},
{"zip_code":"6048036","kana_pref":"ｷｮｳﾄﾌ","kana_city":"ｷｮｳﾄｼﾅｶｷﾞｮｳｸ","kana_address":"ｲｼﾊﾞｼﾁｮｳ","pref":"京都府","city":"京都市中京区","address":"寺町通三条上る）"},
{"zip_code":"6040996","kana_pref":"ｷｮｳﾄﾌ","kana_city":"ｷｮｳﾄｼﾅｶｷﾞｮｳｸ","kana_address":"ｲｼﾔﾁｮｳ","pref":"京都府","city":"京都市中京区","address":"石屋町"},
{"zip_code":"6048002","kana_pref":"ｷｮｳﾄﾌ","kana_city":"ｷｮｳﾄｼﾅｶｷﾞｮｳｸ","kana_address":"ｲｼﾔﾁｮｳ","pref":"京都府","city":"京都市中京区","address":"石屋町"},
{"zip_code":"6040015","kana_pref":"ｷｮｳﾄﾌ","kana_city":"ｷｮｳﾄｼﾅｶｷﾞｮｳｸ","kana_address":"ｲｽﾞﾐﾁｮｳ","pref":"京都府","city":"京都市中京区","address":"泉町"},
{"zip_code":"6048066","kana_pref":"ｷｮｳﾄﾌ","kana_city":"ｷｮｳﾄｼﾅｶｷﾞｮｳｸ","kana_address":"ｲｾﾔﾁｮｳ","pref":"京都府","city":"京都市中京区","address":"伊勢屋町"},
{"zip_code":"6048305","kana_pref":"ｷｮｳﾄﾌ","kana_city":"ｷｮｳﾄｼﾅｶｷﾞｮｳｸ","kana_address":"ｲﾁﾉﾁｮｳ","pref":"京都府","city":"京都市中京区","address":"市之町"},
{"zip_code":"6040924","kana_pref":"ｷｮｳﾄﾌ","kana_city":"ｷｮｳﾄｼﾅｶｷﾞｮｳｸ","kana_address":"ｲﾁﾉﾌﾅｲﾘﾁｮｳ","pref":"京都府","city":"京都市中京区","address":"一之船入町"},
{"zip_code":"6048146","kana_pref":"ｷｮｳﾄﾌ","kana_city":"ｷｮｳﾄｼﾅｶｷﾞｮｳｸ","kana_address":"ｲﾁﾚﾝｼｬﾁｮｳ","pref":"京都府","city":"京都市中京区","address":"一蓮社町"},
{"zip_code":"6048113","kana_pref":"ｷｮｳﾄﾌ","kana_city":"ｷｮｳﾄｼﾅｶｷﾞｮｳｸ","kana_address":"ｲﾂﾞﾂﾔﾁｮｳ","pref":"京都府","city":"京都市中京区","address":"井筒屋町"},
{"zip_code":"6048803","kana_pref":"ｷｮｳﾄﾌ","kana_city":"ｷｮｳﾄｼﾅｶｷﾞｮｳｸ","kana_address":"ｲﾅﾊﾞﾁｮｳ","pref":"京都府","city":"京都市中京区","address":"因幡町"},
{"zip_code":"6048802","kana_pref":"ｷｮｳﾄﾌ","kana_city":"ｷｮｳﾄｼﾅｶｷﾞｮｳｸ","kana_address":"ｲﾏｼﾝｻﾞｲｹﾋｶﾞｼﾁｮｳ","pref":"京都府","city":"京都市中京区","address":"今新在家東町"},
{"zip_code":"6048801","kana_pref":"ｷｮｳﾄﾌ","kana_city":"ｷｮｳﾄｼﾅｶｷﾞｮｳｸ","kana_address":"ｲﾏｼﾝｻﾞｲｹﾆｼﾁｮｳ","pref":"京都府","city":"京都市中京区","address":"今新在家西町"},
{"zip_code":"6048341","kana_pref":"ｷｮｳﾄﾌ","kana_city":"ｷｮｳﾄｼﾅｶｷﾞｮｳｸ","kana_address":"ｲﾜｶﾞﾐﾁｮｳ","pref":"京都府","city":"京都市中京区","address":"岩上町"},
{"zip_code":"6040984","kana_pref":"ｷｮｳﾄﾌ","kana_city":"ｷｮｳﾄｼﾅｶｷﾞｮｳｸ","kana_address":"ｳｵﾔﾁｮｳ","pref":"京都府","city":"京都市中京区","address":"魚屋町"},
{"zip_code":"6048213","kana_pref":"ｷｮｳﾄﾌ","kana_city":"ｷｮｳﾄｼﾅｶｷﾞｮｳｸ","kana_address":"ｳﾊﾞﾔﾅｷﾞﾁｮｳ","pref":"京都府","city":"京都市中京区","address":"姥柳町"},
{"zip_code":"6048136","kana_pref":"ｷｮｳﾄﾌ","kana_city":"ｷｮｳﾄｼﾅｶｷﾞｮｳｸ","kana_address":"ｳﾒﾀﾀﾞﾁｮｳ","pref":"京都府","city":"京都市中京区","address":"梅忠町"},
{"zip_code":"6040905","kana_pref":"ｷｮｳﾄﾌ","kana_city":"ｷｮｳﾄｼﾅｶｷﾞｮｳｸ","kana_address":"ｳﾒﾉｷﾁｮｳ","pref":"京都府","city":"京都市中京区","address":"梅之木町"},
{"zip_code":"6048012","kana_pref":"ｷｮｳﾄﾌ","kana_city":"ｷｮｳﾄｼﾅｶｷﾞｮｳｸ","kana_address":"ｳﾒﾉｷﾁｮｳ","pref":"京都府","city":"京都市中京区","address":"梅之木町（先斗町通三条下る"},
{"zip_code":"6048012","kana_pref":"ｷｮｳﾄﾌ","kana_city":"ｷｮｳﾄｼﾅｶｷﾞｮｳｸ","kana_address":"ｳﾒﾉｷﾁｮｳ","pref":"京都府","city":"京都市中京区","address":"先斗町通蛸薬師上る"},
{"zip_code":"6048012","kana_pref":"ｷｮｳﾄﾌ","kana_city":"ｷｮｳﾄｼﾅｶｷﾞｮｳｸ","kana_address":"ｳﾒﾉｷﾁｮｳ","pref":"京都府","city":"京都市中京区","address":"先斗町通蛸薬師下る"},
{"zip_code":"6048012","kana_pref":"ｷｮｳﾄﾌ","kana_city":"ｷｮｳﾄｼﾅｶｷﾞｮｳｸ","kana_address":"ｳﾒﾉｷﾁｮｳ","pref":"京都府","city":"京都市中京区","address":""},
{"zip_code":"6048012","kana_pref":"ｷｮｳﾄﾌ","kana_city":"ｷｮｳﾄｼﾅｶｷﾞｮｳｸ","kana_address":"ｳﾒﾉｷﾁｮｳ","pref":"京都府","city":"京都市中京区","address":"先斗町通四条上る）"},
{"zip_code":"6040091","kana_pref":"ｷｮｳﾄﾌ","kana_city":"ｷｮｳﾄｼﾅｶｷﾞｮｳｸ","kana_address":"ｳﾒﾔﾁｮｳ","pref":"京都府","city":"京都市中京区","address":"梅屋町"},
{"zip_code":"6048057","kana_pref":"ｷｮｳﾄﾌ","kana_city":"ｷｮｳﾄｼﾅｶｷﾞｮｳｸ","kana_address":"ｳﾒﾔﾁｮｳ","pref":"京都府","city":"京都市中京区","address":"梅屋町"},
{"zip_code":"6048186","kana_pref":"ｷｮｳﾄﾌ","kana_city":"ｷｮｳﾄｼﾅｶｷﾞｮｳｸ","kana_address":"ｳﾒﾔﾁｮｳ","pref":"京都府","city":"京都市中京区","address":"梅屋町"},
{"zip_code":"6048155","kana_pref":"ｷｮｳﾄﾌ","kana_city":"ｷｮｳﾄｼﾅｶｷﾞｮｳｸ","kana_address":"ｳﾗﾃﾞﾔﾏﾁｮｳ","pref":"京都府","city":"京都市中京区","address":"占出山町"},
{"zip_code":"6048041","kana_pref":"ｷｮｳﾄﾌ","kana_city":"ｷｮｳﾄｼﾅｶｷﾞｮｳｸ","kana_address":"ｳﾗﾃﾞﾗﾁｮｳ","pref":"京都府","city":"京都市中京区","address":"裏寺町"},
{"zip_code":"6048071","kana_pref":"ｷｮｳﾄﾌ","kana_city":"ｷｮｳﾄｼﾅｶｷﾞｮｳｸ","kana_address":"ｴｲﾗｸﾁｮｳ","pref":"京都府","city":"京都市中京区","address":"永楽町"},
{"zip_code":"6048256","kana_pref":"ｷｮｳﾄﾌ","kana_city":"ｷｮｳﾄｼﾅｶｷﾞｮｳｸ","kana_address":"ｴﾁｺﾞﾁｮｳ","pref":"京都府","city":"京都市中京区","address":"越後町"},
{"zip_code":"6048252","kana_pref":"ｷｮｳﾄﾌ","kana_city":"ｷｮｳﾄｼﾅｶｷﾞｮｳｸ","kana_address":"ｴﾁｺﾞﾂｷﾇｹﾁｮｳ","pref":"京都府","city":"京都市中京区","address":"越後突抜町"},
{"zip_code":"6040931","kana_pref":"ｷｮｳﾄﾌ","kana_city":"ｷｮｳﾄｼﾅｶｷﾞｮｳｸ","kana_address":"ｴﾉｷﾁｮｳ","pref":"京都府","city":"京都市中京区","address":"榎木町"},
{"zip_code":"6048005","kana_pref":"ｷｮｳﾄﾌ","kana_city":"ｷｮｳﾄｼﾅｶｷﾞｮｳｸ","kana_address":"ｴﾋﾞｽﾁｮｳ","pref":"京都府","city":"京都市中京区","address":"恵比須町"},
{"zip_code":"6040813","kana_pref":"ｷｮｳﾄﾌ","kana_city":"ｷｮｳﾄｼﾅｶｷﾞｮｳｸ","kana_address":"ｴﾋﾞｽﾁｮｳ","pref":"京都府","city":"京都市中京区","address":"夷町"},
{"zip_code":"6048076","kana_pref":"ｷｮｳﾄﾌ","kana_city":"ｷｮｳﾄｼﾅｶｷﾞｮｳｸ","kana_address":"ｴﾋﾞﾔﾁｮｳ","pref":"京都府","city":"京都市中京区","address":"海老屋町"},
{"zip_code":"6048165","kana_pref":"ｷｮｳﾄﾌ","kana_city":"ｷｮｳﾄｼﾅｶｷﾞｮｳｸ","kana_address":"ｴﾎﾞｳｼﾔﾁｮｳ","pref":"京都府","city":"京都市中京区","address":"烏帽子屋町"},
{"zip_code":"6048174","kana_pref":"ｷｮｳﾄﾌ","kana_city":"ｷｮｳﾄｼﾅｶｷﾞｮｳｸ","kana_address":"ｴﾝﾉｷﾞｮｳｼﾞｬﾁｮｳ","pref":"京都府","city":"京都市中京区","address":"役行者町"},
{"zip_code":"6048175","kana_pref":"ｷｮｳﾄﾌ","kana_city":"ｷｮｳﾄｼﾅｶｷﾞｮｳｸ","kana_address":"ｴﾝﾌﾟｸｼﾞﾁｮｳ","pref":"京都府","city":"京都市中京区","address":"円福寺町"},
{"zip_code":"6048045","kana_pref":"ｷｮｳﾄﾌ","kana_city":"ｷｮｳﾄｼﾅｶｷﾞｮｳｸ","kana_address":"ｴﾝﾌﾟｸｼﾞﾏｴﾁｮｳ","pref":"京都府","city":"京都市中京区","address":"円福寺前町"},
{"zip_code":"6040942","kana_pref":"ｷｮｳﾄﾌ","kana_city":"ｷｮｳﾄｼﾅｶｷﾞｮｳｸ","kana_address":"ｵｲｹﾀﾞｲﾄｳﾁｮｳ","pref":"京都府","city":"京都市中京区","address":"御池大東町"},
{"zip_code":"6040022","kana_pref":"ｷｮｳﾄﾌ","kana_city":"ｷｮｳﾄｼﾅｶｷﾞｮｳｸ","kana_address":"ｵｲｹﾉﾁｮｳ","pref":"京都府","city":"京都市中京区","address":"御池之町"},
{"zip_code":"6040824","kana_pref":"ｷｮｳﾄﾌ","kana_city":"ｷｮｳﾄｼﾅｶｷﾞｮｳｸ","kana_address":"ｵｳｷﾞﾔﾁｮｳ","pref":"京都府","city":"京都市中京区","address":"扇屋町"},
{"zip_code":"6040092","kana_pref":"ｷｮｳﾄﾌ","kana_city":"ｷｮｳﾄｼﾅｶｷﾞｮｳｸ","kana_address":"ｵｵｲﾁｮｳ","pref":"京都府","city":"京都市中京区","address":"大炊町"},
{"zip_code":"6040972","kana_pref":"ｷｮｳﾄﾌ","kana_city":"ｷｮｳﾄｼﾅｶｷﾞｮｳｸ","kana_address":"ｵｵｲﾁｮｳ","pref":"京都府","city":"京都市中京区","address":"大炊町"},
{"zip_code":"6040861","kana_pref":"ｷｮｳﾄﾌ","kana_city":"ｷｮｳﾄｼﾅｶｷﾞｮｳｸ","kana_address":"ｵｵｸﾗﾁｮｳ","pref":"京都府","city":"京都市中京区","address":"大倉町"},
{"zip_code":"6048182","kana_pref":"ｷｮｳﾄﾌ","kana_city":"ｷｮｳﾄｼﾅｶｷﾞｮｳｸ","kana_address":"ｵｵｻｶｻﾞｲﾓｸﾁｮｳ","pref":"京都府","city":"京都市中京区","address":"大阪材木町"},
{"zip_code":"6040885","kana_pref":"ｷｮｳﾄﾌ","kana_city":"ｷｮｳﾄｼﾅｶｷﾞｮｳｸ","kana_address":"ｵｵﾂﾁｮｳ","pref":"京都府","city":"京都市中京区","address":"大津町"},
{"zip_code":"6040052","kana_pref":"ｷｮｳﾄﾌ","kana_city":"ｷｮｳﾄｼﾅｶｷﾞｮｳｸ","kana_address":"ｵｼｱﾌﾞﾗﾉｺｳｼﾞﾁｮｳ","pref":"京都府","city":"京都市中京区","address":"押油小路町"},
{"zip_code":"6040042","kana_pref":"ｷｮｳﾄﾌ","kana_city":"ｷｮｳﾄｼﾅｶｷﾞｮｳｸ","kana_address":"ｵｼﾆｼﾉﾄｳｲﾝﾁｮｳ","pref":"京都府","city":"京都市中京区","address":"押西洞院町"},
{"zip_code":"6040054","kana_pref":"ｷｮｳﾄﾌ","kana_city":"ｷｮｳﾄｼﾅｶｷﾞｮｳｸ","kana_address":"ｵｼﾎﾞﾘﾁｮｳ","pref":"京都府","city":"京都市中京区","address":"押堀町"},
{"zip_code":"6048124","kana_pref":"ｷｮｳﾄﾌ","kana_city":"ｷｮｳﾄｼﾅｶｷﾞｮｳｸ","kana_address":"ｵﾋﾞﾔﾁｮｳ","pref":"京都府","city":"京都市中京区","address":"帯屋町"},
{"zip_code":"6048304","kana_pref":"ｷｮｳﾄﾌ","kana_city":"ｷｮｳﾄｼﾅｶｷﾞｮｳｸ","kana_address":"ｵﾘﾓﾉﾔﾁｮｳ","pref":"京都府","city":"京都市中京区","address":"織物屋町"},
{"zip_code":"6040934","kana_pref":"ｷｮｳﾄﾌ","kana_city":"ｷｮｳﾄｼﾅｶｷﾞｮｳｸ","kana_address":"ｵﾜﾘﾁｮｳ","pref":"京都府","city":"京都市中京区","address":"尾張町"},
{"zip_code":"6048331","kana_pref":"ｷｮｳﾄﾌ","kana_city":"ｷｮｳﾄｼﾅｶｷﾞｮｳｸ","kana_address":"ｵﾝﾄﾓﾁｮｳ","pref":"京都府","city":"京都市中京区","address":"御供町"},
{"zip_code":"6048126","kana_pref":"ｷｮｳﾄﾌ","kana_city":"ｷｮｳﾄｼﾅｶｷﾞｮｳｸ","kana_address":"ｶｲﾔﾁｮｳ","pref":"京都府","city":"京都市中京区","address":"貝屋町"},
{"zip_code":"6040002","kana_pref":"ｷｮｳﾄﾌ","kana_city":"ｷｮｳﾄｼﾅｶｷﾞｮｳｸ","kana_address":"ｶｶﾞﾐﾔﾁｮｳ","pref":"京都府","city":"京都市中京区","address":"鏡屋町"},
{"zip_code":"6048173","kana_pref":"ｷｮｳﾄﾌ","kana_city":"ｷｮｳﾄｼﾅｶｷﾞｮｳｸ","kana_address":"ｶｷﾓﾄﾁｮｳ","pref":"京都府","city":"京都市中京区","address":"柿本町"},
{"zip_code":"6040801","kana_pref":"ｷｮｳﾄﾌ","kana_city":"ｷｮｳﾄｼﾅｶｷﾞｮｳｸ","kana_address":"ｶｷﾞﾔﾁｮｳ","pref":"京都府","city":"京都市中京区","address":"鍵屋町"},
{"zip_code":"6040832","kana_pref":"ｷｮｳﾄﾌ","kana_city":"ｷｮｳﾄｼﾅｶｷﾞｮｳｸ","kana_address":"ｶｷﾞﾔﾁｮｳ","pref":"京都府","city":"京都市中京区","address":"鍵屋町"},
{"zip_code":"6048267","kana_pref":"ｷｮｳﾄﾌ","kana_city":"ｷｮｳﾄｼﾅｶｷﾞｮｳｸ","kana_address":"ｶｼﾞﾁｮｳ","pref":"京都府","city":"京都市中京区","address":"鍛冶町"},
{"zip_code":"6040964","kana_pref":"ｷｮｳﾄﾌ","kana_city":"ｷｮｳﾄｼﾅｶｷﾞｮｳｸ","kana_address":"ｶｼﾞﾔﾁｮｳ","pref":"京都府","city":"京都市中京区","address":"鍛冶屋町"},
{"zip_code":"6048052","kana_pref":"ｷｮｳﾄﾌ","kana_city":"ｷｮｳﾄｼﾅｶｷﾞｮｳｸ","kana_address":"ｶｼﾞﾔﾁｮｳ","pref":"京都府","city":"京都市中京区","address":"鍛冶屋町"},
{"zip_code":"6048345","kana_pref":"ｷｮｳﾄﾌ","kana_city":"ｷｮｳﾄｼﾅｶｷﾞｮｳｸ","kana_address":"ｶｼﾞﾔﾁｮｳ","pref":"京都府","city":"京都市中京区","address":"鍛冶屋町"},
{"zip_code":"6040031","kana_pref":"ｷｮｳﾄﾌ","kana_city":"ｷｮｳﾄｼﾅｶｷﾞｮｳｸ","kana_address":"ｶｼﾗﾁｮｳ","pref":"京都府","city":"京都市中京区","address":"頭町"},
{"zip_code":"6048014","kana_pref":"ｷｮｳﾄﾌ","kana_city":"ｷｮｳﾄｼﾅｶｷﾞｮｳｸ","kana_address":"ｶｼﾜﾔﾁｮｳ","pref":"京都府","city":"京都市中京区","address":"柏屋町"},
{"zip_code":"6048352","kana_pref":"ｷｮｳﾄﾌ","kana_city":"ｷｮｳﾄｼﾅｶｷﾞｮｳｸ","kana_address":"ｶﾅﾔﾁｮｳ","pref":"京都府","city":"京都市中京区","address":"金屋町"},
{"zip_code":"6048114","kana_pref":"ｷｮｳﾄﾌ","kana_city":"ｷｮｳﾄｼﾅｶｷﾞｮｳｸ","kana_address":"ｶﾌﾞﾄﾔﾁｮｳ","pref":"京都府","city":"京都市中京区","address":"甲屋町"},
{"zip_code":"6048241","kana_pref":"ｷｮｳﾄﾌ","kana_city":"ｷｮｳﾄｼﾅｶｷﾞｮｳｸ","kana_address":"ｶﾏﾝｻﾞﾁｮｳ","pref":"京都府","city":"京都市中京区","address":"釜座町"},
{"zip_code":"6048325","kana_pref":"ｷｮｳﾄﾌ","kana_city":"ｷｮｳﾄｼﾅｶｷﾞｮｳｸ","kana_address":"ｶﾐｲﾁﾓﾝｼﾞﾁｮｳ","pref":"京都府","city":"京都市中京区","address":"上一文字町"},
{"zip_code":"6048001","kana_pref":"ｷｮｳﾄﾌ","kana_city":"ｷｮｳﾄｼﾅｶｷﾞｮｳｸ","kana_address":"ｶﾐｵｵｻｶﾁｮｳ","pref":"京都府","city":"京都市中京区","address":"上大阪町"},
{"zip_code":"6048374","kana_pref":"ｷｮｳﾄﾌ","kana_city":"ｷｮｳﾄｼﾅｶｷﾞｮｳｸ","kana_address":"ｶﾐｶﾜﾗﾁｮｳ","pref":"京都府","city":"京都市中京区","address":"上瓦町"},
{"zip_code":"6048343","kana_pref":"ｷｮｳﾄﾌ","kana_city":"ｷｮｳﾄｼﾅｶｷﾞｮｳｸ","kana_address":"ｶﾐｸﾛﾓﾝﾁｮｳ","pref":"京都府","city":"京都市中京区","address":"上黒門町"},
{"zip_code":"6040923","kana_pref":"ｷｮｳﾄﾌ","kana_city":"ｷｮｳﾄｼﾅｶｷﾞｮｳｸ","kana_address":"ｶﾐｺﾘｷﾁｮｳ","pref":"京都府","city":"京都市中京区","address":"上樵木町"},
{"zip_code":"6048312","kana_pref":"ｷｮｳﾄﾌ","kana_city":"ｷｮｳﾄｼﾅｶｷﾞｮｳｸ","kana_address":"ｶﾐﾄﾓｴﾁｮｳ","pref":"京都府","city":"京都市中京区","address":"上巴町"},
{"zip_code":"6040943","kana_pref":"ｷｮｳﾄﾌ","kana_city":"ｷｮｳﾄｼﾅｶｷﾞｮｳｸ","kana_address":"ｶﾐﾊｸｻﾝﾁｮｳ","pref":"京都府","city":"京都市中京区","address":"上白山町"},
{"zip_code":"6048323","kana_pref":"ｷｮｳﾄﾌ","kana_city":"ｷｮｳﾄｼﾅｶｷﾞｮｳｸ","kana_address":"ｶﾐﾊﾁﾓﾝｼﾞﾁｮｳ","pref":"京都府","city":"京都市中京区","address":"上八文字町"},
{"zip_code":"6040925","kana_pref":"ｷｮｳﾄﾌ","kana_city":"ｷｮｳﾄｼﾅｶｷﾞｮｳｸ","kana_address":"ｶﾐﾎﾝﾉｳｼﾞﾏｴﾁｮｳ","pref":"京都府","city":"京都市中京区","address":"上本能寺前町"},
{"zip_code":"6040035","kana_pref":"ｷｮｳﾄﾌ","kana_city":"ｷｮｳﾄｼﾅｶｷﾞｮｳｸ","kana_address":"ｶﾐﾏﾂﾔﾁｮｳ","pref":"京都府","city":"京都市中京区","address":"上松屋町"},
{"zip_code":"6040025","kana_pref":"ｷｮｳﾄﾌ","kana_city":"ｷｮｳﾄｼﾅｶｷﾞｮｳｸ","kana_address":"ｶﾐﾐｮｳｶｸｼﾞﾁｮｳ","pref":"京都府","city":"京都市中京区","address":"上妙覚寺町"},
{"zip_code":"6048024","kana_pref":"ｷｮｳﾄﾌ","kana_city":"ｷｮｳﾄｼﾅｶｷﾞｮｳｸ","kana_address":"ｶﾐﾔﾁｮｳ","pref":"京都府","city":"京都市中京区","address":"紙屋町"},
{"zip_code":"6040094","kana_pref":"ｷｮｳﾄﾌ","kana_city":"ｷｮｳﾄｼﾅｶｷﾞｮｳｸ","kana_address":"ｶﾒﾔﾁｮｳ","pref":"京都府","city":"京都市中京区","address":"亀屋町"},
{"zip_code":"6040865","kana_pref":"ｷｮｳﾄﾌ","kana_city":"ｷｮｳﾄｼﾅｶｷﾞｮｳｸ","kana_address":"ｶﾒﾔﾁｮｳ","pref":"京都府","city":"京都市中京区","address":"亀屋町"},
{"zip_code":"6040811","kana_pref":"ｷｮｳﾄﾌ","kana_city":"ｷｮｳﾄｼﾅｶｷﾞｮｳｸ","kana_address":"ｶﾒﾔﾁｮｳ","pref":"京都府","city":"京都市中京区","address":"亀屋町"},
{"zip_code":"6040941","kana_pref":"ｷｮｳﾄﾌ","kana_city":"ｷｮｳﾄｼﾅｶｷﾞｮｳｸ","kana_address":"ｶﾒﾔﾁｮｳ","pref":"京都府","city":"京都市中京区","address":"亀屋町（御幸町通御池上る"},
{"zip_code":"6040941","kana_pref":"ｷｮｳﾄﾌ","kana_city":"ｷｮｳﾄｼﾅｶｷﾞｮｳｸ","kana_address":"ｶﾒﾔﾁｮｳ","pref":"京都府","city":"京都市中京区","address":"御幸町通押小路下る"},
{"zip_code":"6040941","kana_pref":"ｷｮｳﾄﾌ","kana_city":"ｷｮｳﾄｼﾅｶｷﾞｮｳｸ","kana_address":"ｶﾒﾔﾁｮｳ","pref":"京都府","city":"京都市中京区","address":"御幸町通押小路西入"},
{"zip_code":"6040941","kana_pref":"ｷｮｳﾄﾌ","kana_city":"ｷｮｳﾄｼﾅｶｷﾞｮｳｸ","kana_address":"ｶﾒﾔﾁｮｳ","pref":"京都府","city":"京都市中京区","address":"御幸"},
{"zip_code":"6040941","kana_pref":"ｷｮｳﾄﾌ","kana_city":"ｷｮｳﾄｼﾅｶｷﾞｮｳｸ","kana_address":"ｶﾒﾔﾁｮｳ","pref":"京都府","city":"京都市中京区","address":"町通押小路東入"},
{"zip_code":"6040941","kana_pref":"ｷｮｳﾄﾌ","kana_city":"ｷｮｳﾄｼﾅｶｷﾞｮｳｸ","kana_address":"ｶﾒﾔﾁｮｳ","pref":"京都府","city":"京都市中京区","address":"押小路通寺町西入"},
{"zip_code":"6040941","kana_pref":"ｷｮｳﾄﾌ","kana_city":"ｷｮｳﾄｼﾅｶｷﾞｮｳｸ","kana_address":"ｶﾒﾔﾁｮｳ","pref":"京都府","city":"京都市中京区","address":"御池通御幸町西入"},
{"zip_code":"6040941","kana_pref":"ｷｮｳﾄﾌ","kana_city":"ｷｮｳﾄｼﾅｶｷﾞｮｳｸ","kana_address":"ｶﾒﾔﾁｮｳ","pref":"京都府","city":"京都市中京区","address":"御池通御幸町東入）"},
{"zip_code":"6048253","kana_pref":"ｷｮｳﾄﾌ","kana_city":"ｷｮｳﾄｼﾅｶｷﾞｮｳｸ","kana_address":"ｶﾒﾔﾁｮｳ","pref":"京都府","city":"京都市中京区","address":"亀屋町"},
{"zip_code":"6048115","kana_pref":"ｷｮｳﾄﾌ","kana_city":"ｷｮｳﾄｼﾅｶｷﾞｮｳｸ","kana_address":"ｶﾘｶﾞﾈﾁｮｳ","pref":"京都府","city":"京都市中京区","address":"雁金町"},
{"zip_code":"6048373","kana_pref":"ｷｮｳﾄﾌ","kana_city":"ｷｮｳﾄｼﾅｶｷﾞｮｳｸ","kana_address":"ｶﾜﾗｼﾁｮｳ","pref":"京都府","city":"京都市中京区","address":"瓦師町"},
{"zip_code":"6040827","kana_pref":"ｷｮｳﾄﾌ","kana_city":"ｷｮｳﾄｼﾅｶｷﾞｮｳｸ","kana_address":"ｶﾜﾗﾁｮｳ","pref":"京都府","city":"京都市中京区","address":"瓦町"},
{"zip_code":"6040837","kana_pref":"ｷｮｳﾄﾌ","kana_city":"ｷｮｳﾄｼﾅｶｷﾞｮｳｸ","kana_address":"ｶﾜﾗﾉﾁｮｳ","pref":"京都府","city":"京都市中京区","address":"瓦之町"},
{"zip_code":"6040886","kana_pref":"ｷｮｳﾄﾌ","kana_city":"ｷｮｳﾄｼﾅｶｷﾞｮｳｸ","kana_address":"ｶﾝﾄｳﾔﾁｮｳ","pref":"京都府","city":"京都市中京区","address":"関東屋町"},
{"zip_code":"6040821","kana_pref":"ｷｮｳﾄﾌ","kana_city":"ｷｮｳﾄｼﾅｶｷﾞｮｳｸ","kana_address":"ｶﾝﾉﾝﾁｮｳ","pref":"京都府","city":"京都市中京区","address":"観音町"},
{"zip_code":"6048222","kana_pref":"ｷｮｳﾄﾌ","kana_city":"ｷｮｳﾄｼﾅｶｷﾞｮｳｸ","kana_address":"ｶﾝﾉﾝﾄﾞｳﾁｮｳ","pref":"京都府","city":"京都市中京区","address":"観音堂町"},
{"zip_code":"6040994","kana_pref":"ｷｮｳﾄﾌ","kana_city":"ｷｮｳﾄｼﾅｶｷﾞｮｳｸ","kana_address":"ｶﾝﾛﾁｮｳ","pref":"京都府","city":"京都市中京区","address":"甘露町"},
{"zip_code":"6048154","kana_pref":"ｷｮｳﾄﾌ","kana_city":"ｷｮｳﾄｼﾅｶｷﾞｮｳｸ","kana_address":"ｷｸｽｲﾎﾞｺﾁｮｳ","pref":"京都府","city":"京都市中京区","address":"菊水鉾町"},
{"zip_code":"6040975","kana_pref":"ｷｮｳﾄﾌ","kana_city":"ｷｮｳﾄｼﾅｶｷﾞｮｳｸ","kana_address":"ｷｸﾔﾁｮｳ","pref":"京都府","city":"京都市中京区","address":"菊屋町"},
{"zip_code":"6048102","kana_pref":"ｷｮｳﾄﾌ","kana_city":"ｷｮｳﾄｼﾅｶｷﾞｮｳｸ","kana_address":"ｷｸﾔﾁｮｳ","pref":"京都府","city":"京都市中京区","address":"菊屋町"},
{"zip_code":"6048127","kana_pref":"ｷｮｳﾄﾌ","kana_city":"ｷｮｳﾄｼﾅｶｷﾞｮｳｸ","kana_address":"ｷｸﾔﾁｮｳ","pref":"京都府","city":"京都市中京区","address":"菊屋町"},
{"zip_code":"6048021","kana_pref":"ｷｮｳﾄﾌ","kana_city":"ｷｮｳﾄｼﾅｶｷﾞｮｳｸ","kana_address":"ｷﾀｸﾙﾏﾔﾁｮｳ","pref":"京都府","city":"京都市中京区","address":"北車屋町"},
{"zip_code":"6040856","kana_pref":"ｷｮｳﾄﾌ","kana_city":"ｷｮｳﾄｼﾅｶｷﾞｮｳｸ","kana_address":"ｷﾀｺｳｼﾞﾁｮｳ","pref":"京都府","city":"京都市中京区","address":"北小路町"},
{"zip_code":"6048105","kana_pref":"ｷｮｳﾄﾌ","kana_city":"ｷｮｳﾄｼﾅｶｷﾞｮｳｸ","kana_address":"ｷｯｺｳﾔﾁｮｳ","pref":"京都府","city":"京都市中京区","address":"亀甲屋町"},
{"zip_code":"6040804","kana_pref":"ｷｮｳﾄﾌ","kana_city":"ｷｮｳﾄｼﾅｶｷﾞｮｳｸ","kana_address":"ｷﾇﾔﾁｮｳ","pref":"京都府","city":"京都市中京区","address":"絹屋町"},
{"zip_code":"6048104","kana_pref":"ｷｮｳﾄﾌ","kana_city":"ｷｮｳﾄｼﾅｶｷﾞｮｳｸ","kana_address":"ｷﾉｼﾀﾁｮｳ","pref":"京都府","city":"京都市中京区","address":"木之下町"},
{"zip_code":"6040961","kana_pref":"ｷｮｳﾄﾌ","kana_city":"ｷｮｳﾄｼﾅｶｷﾞｮｳｸ","kana_address":"ｷﾔﾁｮｳ","pref":"京都府","city":"京都市中京区","address":"木屋町"},
{"zip_code":"6040065","kana_pref":"ｷｮｳﾄﾌ","kana_city":"ｷｮｳﾄｼﾅｶｷﾞｮｳｸ","kana_address":"ｷｭｳﾁｮｳﾒ","pref":"京都府","city":"京都市中京区","address":"九町目"},
{"zip_code":"6040991","kana_pref":"ｷｮｳﾄﾌ","kana_city":"ｷｮｳﾄｼﾅｶｷﾞｮｳｸ","kana_address":"ｷﾞｮｳｶﾞﾝｼﾞﾓﾝｾﾞﾝﾁｮｳ","pref":"京都府","city":"京都市中京区","address":"行願寺門前町"},
{"zip_code":"6040846","kana_pref":"ｷｮｳﾄﾌ","kana_city":"ｷｮｳﾄｼﾅｶｷﾞｮｳｸ","kana_address":"ｷﾝﾌﾞｷﾁｮｳ","pref":"京都府","city":"京都市中京区","address":"金吹町"},
{"zip_code":"6048232","kana_pref":"ｷｮｳﾄﾌ","kana_city":"ｷｮｳﾄｼﾅｶｷﾞｮｳｸ","kana_address":"ｸｳﾔﾁｮｳ","pref":"京都府","city":"京都市中京区","address":"空也町"},
{"zip_code":"6040993","kana_pref":"ｷｮｳﾄﾌ","kana_city":"ｷｮｳﾄｼﾅｶｷﾞｮｳｸ","kana_address":"ｸｴﾝｲﾝﾏｴﾁｮｳ","pref":"京都府","city":"京都市中京区","address":"久遠院前町"},
{"zip_code":"6040883","kana_pref":"ｷｮｳﾄﾌ","kana_city":"ｷｮｳﾄｼﾅｶｷﾞｮｳｸ","kana_address":"ｸｽﾉｷﾁｮｳ","pref":"京都府","city":"京都市中京区","address":"楠町"},
{"zip_code":"6040066","kana_pref":"ｷｮｳﾄﾌ","kana_city":"ｷｮｳﾄｼﾅｶｷﾞｮｳｸ","kana_address":"ｸｽﾘﾔﾁｮｳ","pref":"京都府","city":"京都市中京区","address":"薬屋町"},
{"zip_code":"6048321","kana_pref":"ｷｮｳﾄﾌ","kana_city":"ｷｮｳﾄｼﾅｶｷﾞｮｳｸ","kana_address":"ｸﾗﾓﾄﾁｮｳ","pref":"京都府","city":"京都市中京区","address":"倉本町"},
{"zip_code":"6048185","kana_pref":"ｷｮｳﾄﾌ","kana_city":"ｷｮｳﾄｼﾅｶｷﾞｮｳｸ","kana_address":"ｸﾙﾏﾔﾁｮｳ","pref":"京都府","city":"京都市中京区","address":"車屋町"},
{"zip_code":"6040976","kana_pref":"ｷｮｳﾄﾌ","kana_city":"ｷｮｳﾄｼﾅｶｷﾞｮｳｸ","kana_address":"ｸﾜﾊﾞﾗﾁｮｳ","pref":"京都府","city":"京都市中京区","address":"桑原町"},
{"zip_code":"6048163","kana_pref":"ｷｮｳﾄﾌ","kana_city":"ｷｮｳﾄｼﾅｶｷﾞｮｳｸ","kana_address":"ｺｲﾔﾏﾁｮｳ","pref":"京都府","city":"京都市中京区","address":"鯉山町"},
{"zip_code":"6040825","kana_pref":"ｷｮｳﾄﾌ","kana_city":"ｷｮｳﾄｼﾅｶｷﾞｮｳｸ","kana_address":"ｺﾞｼｮﾊﾁﾏﾝﾁｮｳ","pref":"京都府","city":"京都市中京区","address":"御所八幡町"},
{"zip_code":"6040973","kana_pref":"ｷｮｳﾄﾌ","kana_city":"ｷｮｳﾄｼﾅｶｷﾞｮｳｸ","kana_address":"ｺﾞﾁｮｳﾒ","pref":"京都府","city":"京都市中京区","address":"五丁目"},
{"zip_code":"6048223","kana_pref":"ｷｮｳﾄﾌ","kana_city":"ｷｮｳﾄｼﾅｶｷﾞｮｳｸ","kana_address":"ｺﾑｽﾋﾞﾀﾞﾅﾁｮｳ","pref":"京都府","city":"京都市中京区","address":"小結棚町"},
{"zip_code":"6048026","kana_pref":"ｷｮｳﾄﾌ","kana_city":"ｷｮｳﾄｼﾅｶｷﾞｮｳｸ","kana_address":"ｺﾒﾔﾁｮｳ","pref":"京都府","city":"京都市中京区","address":"米屋町"},
{"zip_code":"6048203","kana_pref":"ｷｮｳﾄﾌ","kana_city":"ｷｮｳﾄｼﾅｶｷﾞｮｳｸ","kana_address":"ｺﾛﾓﾉﾀﾅﾁｮｳ","pref":"京都府","city":"京都市中京区","address":"衣棚町"},
{"zip_code":"6040986","kana_pref":"ｷｮｳﾄﾌ","kana_city":"ｷｮｳﾄｼﾅｶｷﾞｮｳｸ","kana_address":"ｺﾝﾌﾞﾔﾁｮｳ","pref":"京都府","city":"京都市中京区","address":"昆布屋町"},
{"zip_code":"6040866","kana_pref":"ｷｮｳﾄﾌ","kana_city":"ｷｮｳﾄｼﾅｶｷﾞｮｳｸ","kana_address":"ｻｲﾎｳｼﾞﾁｮｳ","pref":"京都府","city":"京都市中京区","address":"西方寺町"},
{"zip_code":"6048017","kana_pref":"ｷｮｳﾄﾌ","kana_city":"ｷｮｳﾄｼﾅｶｷﾞｮｳｸ","kana_address":"ｻﾞｲﾓｸﾁｮｳ","pref":"京都府","city":"京都市中京区","address":"材木町"},
{"zip_code":"6048065","kana_pref":"ｷｮｳﾄﾌ","kana_city":"ｷｮｳﾄｼﾅｶｷﾞｮｳｸ","kana_address":"ｻｶｲﾁｮｳ","pref":"京都府","city":"京都市中京区","address":"坂井町"},
{"zip_code":"6040881","kana_pref":"ｷｮｳﾄﾌ","kana_city":"ｷｮｳﾄｼﾅｶｷﾞｮｳｸ","kana_address":"ｻｶﾓﾄﾁｮｳ","pref":"京都府","city":"京都市中京区","address":"坂本町"},
{"zip_code":"6040833","kana_pref":"ｷｮｳﾄﾌ","kana_city":"ｷｮｳﾄｼﾅｶｷﾞｮｳｸ","kana_address":"ｻｷｮｳﾁｮｳ","pref":"京都府","city":"京都市中京区","address":"左京町"},
{"zip_code":"6048035","kana_pref":"ｷｮｳﾄﾌ","kana_city":"ｷｮｳﾄｼﾅｶｷﾞｮｳｸ","kana_address":"ｻｸﾗﾉﾁｮｳ","pref":"京都府","city":"京都市中京区","address":"桜之町"},
{"zip_code":"6040983","kana_pref":"ｷｮｳﾄﾌ","kana_city":"ｷｮｳﾄｼﾅｶｷﾞｮｳｸ","kana_address":"ｻｻﾔﾁｮｳ","pref":"京都府","city":"京都市中京区","address":"笹屋町"},
{"zip_code":"6048187","kana_pref":"ｷｮｳﾄﾌ","kana_city":"ｷｮｳﾄｼﾅｶｷﾞｮｳｸ","kana_address":"ｻｻﾔﾁｮｳ","pref":"京都府","city":"京都市中京区","address":"笹屋町"},
{"zip_code":"6040903","kana_pref":"ｷｮｳﾄﾌ","kana_city":"ｷｮｳﾄｼﾅｶｷﾞｮｳｸ","kana_address":"ｻｼﾓﾉﾁｮｳ","pref":"京都府","city":"京都市中京区","address":"指物町"},
{"zip_code":"6040095","kana_pref":"ｷｮｳﾄﾌ","kana_city":"ｷｮｳﾄｼﾅｶｷﾞｮｳｸ","kana_address":"ｻｼﾓﾉﾔﾁｮｳ","pref":"京都府","city":"京都市中京区","address":"指物屋町"},
{"zip_code":"6048251","kana_pref":"ｷｮｳﾄﾌ","kana_city":"ｷｮｳﾄｼﾅｶｷﾞｮｳｸ","kana_address":"ｻﾝｼﾞｮｳｱﾌﾞﾗﾉｺｳｼﾞﾁｮｳ","pref":"京都府","city":"京都市中京区","address":"三条油小路町"},
{"zip_code":"6048334","kana_pref":"ｷｮｳﾄﾌ","kana_city":"ｷｮｳﾄｼﾅｶｷﾞｮｳｸ","kana_address":"ｻﾝｼﾞｮｳｲﾉｸﾏﾁｮｳ","pref":"京都府","city":"京都市中京区","address":"三条猪熊町"},
{"zip_code":"6048336","kana_pref":"ｷｮｳﾄﾌ","kana_city":"ｷｮｳﾄｼﾅｶｷﾞｮｳｸ","kana_address":"ｻﾝｼﾞｮｳｵｵﾐﾔﾁｮｳ","pref":"京都府","city":"京都市中京区","address":"三条大宮町"},
{"zip_code":"6048205","kana_pref":"ｷｮｳﾄﾌ","kana_city":"ｷｮｳﾄｼﾅｶｷﾞｮｳｸ","kana_address":"ｻﾝｼﾞｮｳﾁｮｳ","pref":"京都府","city":"京都市中京区","address":"三条町"},
{"zip_code":"6048316","kana_pref":"ｷｮｳﾄﾌ","kana_city":"ｷｮｳﾄｼﾅｶｷﾞｮｳｸ","kana_address":"ｻﾝﾎﾞｳｵｵﾐﾔﾁｮｳ","pref":"京都府","city":"京都市中京区","address":"三坊大宮町"},
{"zip_code":"6048277","kana_pref":"ｷｮｳﾄﾌ","kana_city":"ｷｮｳﾄｼﾅｶｷﾞｮｳｸ","kana_address":"ｻﾝﾎﾞｳﾆｼﾉﾄｳｲﾝﾁｮｳ","pref":"京都府","city":"京都市中京区","address":"三坊西洞院町"},
{"zip_code":"6048266","kana_pref":"ｷｮｳﾄﾌ","kana_city":"ｷｮｳﾄｼﾅｶｷﾞｮｳｸ","kana_address":"ｻﾝﾎﾞｳﾎﾘｶﾜﾁｮｳ","pref":"京都府","city":"京都市中京区","address":"三坊堀川町"},
{"zip_code":"6048313","kana_pref":"ｷｮｳﾄﾌ","kana_city":"ｷｮｳﾄｼﾅｶｷﾞｮｳｸ","kana_address":"ｻﾝﾎﾞｳｲﾉｸﾏﾁｮｳｷﾀｸﾞﾐ","pref":"京都府","city":"京都市中京区","address":"三坊猪熊町北組"},
{"zip_code":"6048314","kana_pref":"ｷｮｳﾄﾌ","kana_city":"ｷｮｳﾄｼﾅｶｷﾞｮｳｸ","kana_address":"ｻﾝﾎﾞｳｲﾉｸﾏﾁｮｳﾐﾅﾐｸﾞﾐ","pref":"京都府","city":"京都市中京区","address":"三坊猪熊町南組"},
{"zip_code":"6040872","kana_pref":"ｷｮｳﾄﾌ","kana_city":"ｷｮｳﾄｼﾅｶｷﾞｮｳｸ","kana_address":"ｻﾝﾎﾞﾝｷﾞｺﾞﾁｮｳﾒ","pref":"京都府","city":"京都市中京区","address":"三本木五丁目"},
{"zip_code":"6040871","kana_pref":"ｷｮｳﾄﾌ","kana_city":"ｷｮｳﾄｼﾅｶｷﾞｮｳｸ","kana_address":"ｻﾝﾎﾞﾝｷﾞﾁｮｳ","pref":"京都府","city":"京都市中京区","address":"三本木町"},
{"zip_code":"6048135","kana_pref":"ｷｮｳﾄﾌ","kana_city":"ｷｮｳﾄｼﾅｶｷﾞｮｳｸ","kana_address":"ｻﾝﾓﾝｼﾞﾁｮｳ","pref":"京都府","city":"京都市中京区","address":"三文字町（東洞院通三条下る"},
{"zip_code":"6048135","kana_pref":"ｷｮｳﾄﾌ","kana_city":"ｷｮｳﾄｼﾅｶｷﾞｮｳｸ","kana_address":"ｻﾝﾓﾝｼﾞﾁｮｳ","pref":"京都府","city":"京都市中京区","address":"東洞院通六角上る"},
{"zip_code":"6048135","kana_pref":"ｷｮｳﾄﾌ","kana_city":"ｷｮｳﾄｼﾅｶｷﾞｮｳｸ","kana_address":"ｻﾝﾓﾝｼﾞﾁｮｳ","pref":"京都府","city":"京都市中京区","address":"六角通東洞院"},
{"zip_code":"6048135","kana_pref":"ｷｮｳﾄﾌ","kana_city":"ｷｮｳﾄｼﾅｶｷﾞｮｳｸ","kana_address":"ｻﾝﾓﾝｼﾞﾁｮｳ","pref":"京都府","city":"京都市中京区","address":"西入"},
{"zip_code":"6048135","kana_pref":"ｷｮｳﾄﾌ","kana_city":"ｷｮｳﾄｼﾅｶｷﾞｮｳｸ","kana_address":"ｻﾝﾓﾝｼﾞﾁｮｳ","pref":"京都府","city":"京都市中京区","address":"六角通東洞院東入）"},
{"zip_code":"6048236","kana_pref":"ｷｮｳﾄﾌ","kana_city":"ｷｮｳﾄｼﾅｶｷﾞｮｳｸ","kana_address":"ｻﾝﾓﾝｼﾞﾁｮｳ","pref":"京都府","city":"京都市中京区","address":"三文字町"},
{"zip_code":"6048027","kana_pref":"ｷｮｳﾄﾌ","kana_city":"ｷｮｳﾄｼﾅｶｷﾞｮｳｸ","kana_address":"ｼｵﾔﾁｮｳ","pref":"京都府","city":"京都市中京区","address":"塩屋町"},
{"zip_code":"6048247","kana_pref":"ｷｮｳﾄﾌ","kana_city":"ｷｮｳﾄｼﾅｶｷﾞｮｳｸ","kana_address":"ｼｵﾔﾁｮｳ","pref":"京都府","city":"京都市中京区","address":"塩屋町（三条通西洞院西入"},
{"zip_code":"6048247","kana_pref":"ｷｮｳﾄﾌ","kana_city":"ｷｮｳﾄｼﾅｶｷﾞｮｳｸ","kana_address":"ｼｵﾔﾁｮｳ","pref":"京都府","city":"京都市中京区","address":"三条通小川東入"},
{"zip_code":"6048247","kana_pref":"ｷｮｳﾄﾌ","kana_city":"ｷｮｳﾄｼﾅｶｷﾞｮｳｸ","kana_address":"ｼｵﾔﾁｮｳ","pref":"京都府","city":"京都市中京区","address":"三条通小川西入"},
{"zip_code":"6048247","kana_pref":"ｷｮｳﾄﾌ","kana_city":"ｷｮｳﾄｼﾅｶｷﾞｮｳｸ","kana_address":"ｼｵﾔﾁｮｳ","pref":"京都府","city":"京都市中京区","address":"三条通油小路"},
{"zip_code":"6048247","kana_pref":"ｷｮｳﾄﾌ","kana_city":"ｷｮｳﾄｼﾅｶｷﾞｮｳｸ","kana_address":"ｼｵﾔﾁｮｳ","pref":"京都府","city":"京都市中京区","address":"東入）"},
{"zip_code":"6048261","kana_pref":"ｷｮｳﾄﾌ","kana_city":"ｷｮｳﾄｼﾅｶｷﾞｮｳｸ","kana_address":"ｼｷｱﾐﾁｮｳ","pref":"京都府","city":"京都市中京区","address":"式阿弥町"},
{"zip_code":"6048061","kana_pref":"ｷｮｳﾄﾌ","kana_city":"ｷｮｳﾄｼﾅｶｷﾞｮｳｸ","kana_address":"ｼｷﾌﾞﾁｮｳ","pref":"京都府","city":"京都市中京区","address":"式部町"},
{"zip_code":"6048162","kana_pref":"ｷｮｳﾄﾌ","kana_city":"ｷｮｳﾄｼﾅｶｷﾞｮｳｸ","kana_address":"ｼﾁｶﾝﾉﾝﾁｮｳ","pref":"京都府","city":"京都市中京区","address":"七観音町"},
{"zip_code":"6048366","kana_pref":"ｷｮｳﾄﾌ","kana_city":"ｷｮｳﾄｼﾅｶｷﾞｮｳｸ","kana_address":"ｼﾁｹﾝﾁｮｳ","pref":"京都府","city":"京都市中京区","address":"七軒町"},
{"zip_code":"6048356","kana_pref":"ｷｮｳﾄﾌ","kana_city":"ｷｮｳﾄｼﾅｶｷﾞｮｳｸ","kana_address":"ｼﾎﾞｳｵｵﾐﾔﾁｮｳ","pref":"京都府","city":"京都市中京区","address":"四坊大宮町"},
{"zip_code":"6048254","kana_pref":"ｷｮｳﾄﾌ","kana_city":"ｷｮｳﾄｼﾅｶｷﾞｮｳｸ","kana_address":"ｼﾎﾞｳﾎﾘｶﾜﾁｮｳ","pref":"京都府","city":"京都市中京区","address":"四坊堀川町"},
{"zip_code":"6040874","kana_pref":"ｷｮｳﾄﾌ","kana_city":"ｷｮｳﾄｼﾅｶｷﾞｮｳｸ","kana_address":"ｼﾐｽﾞﾁｮｳ","pref":"京都府","city":"京都市中京区","address":"清水町"},
{"zip_code":"6040911","kana_pref":"ｷｮｳﾄﾌ","kana_city":"ｷｮｳﾄｼﾅｶｷﾞｮｳｸ","kana_address":"ｼﾐｽﾞﾁｮｳ","pref":"京都府","city":"京都市中京区","address":"清水町"},
{"zip_code":"6048335","kana_pref":"ｷｮｳﾄﾌ","kana_city":"ｷｮｳﾄｼﾅｶｷﾞｮｳｸ","kana_address":"ｼﾓｲﾁﾓﾝｼﾞﾁｮｳ","pref":"京都府","city":"京都市中京区","address":"下一文字町"},
{"zip_code":"6048025","kana_pref":"ｷｮｳﾄﾌ","kana_city":"ｷｮｳﾄｼﾅｶｷﾞｮｳｸ","kana_address":"ｼﾓｵｵｻｶﾁｮｳ","pref":"京都府","city":"京都市中京区","address":"下大阪町"},
{"zip_code":"6048354","kana_pref":"ｷｮｳﾄﾌ","kana_city":"ｷｮｳﾄｼﾅｶｷﾞｮｳｸ","kana_address":"ｼﾓｶﾜﾗﾁｮｳ","pref":"京都府","city":"京都市中京区","address":"下瓦町"},
{"zip_code":"6048355","kana_pref":"ｷｮｳﾄﾌ","kana_city":"ｷｮｳﾄｼﾅｶｷﾞｮｳｸ","kana_address":"ｼﾓｸﾛﾓﾝﾁｮｳ","pref":"京都府","city":"京都市中京区","address":"下黒門町"},
{"zip_code":"6048016","kana_pref":"ｷｮｳﾄﾌ","kana_city":"ｷｮｳﾄｼﾅｶｷﾞｮｳｸ","kana_address":"ｼﾓｺﾘｷﾁｮｳ","pref":"京都府","city":"京都市中京区","address":"下樵木町"},
{"zip_code":"6040995","kana_pref":"ｷｮｳﾄﾌ","kana_city":"ｷｮｳﾄｼﾅｶｷﾞｮｳｸ","kana_address":"ｼﾓｺﾞﾘｮｳﾏｴﾁｮｳ","pref":"京都府","city":"京都市中京区","address":"下御霊前町"},
{"zip_code":"6048085","kana_pref":"ｷｮｳﾄﾌ","kana_city":"ｷｮｳﾄｼﾅｶｷﾞｮｳｸ","kana_address":"ｼﾓﾊｸｻﾝﾁｮｳ","pref":"京都府","city":"京都市中京区","address":"下白山町"},
{"zip_code":"6048333","kana_pref":"ｷｮｳﾄﾌ","kana_city":"ｷｮｳﾄｼﾅｶｷﾞｮｳｸ","kana_address":"ｼﾓﾊﾁﾓﾝｼﾞﾁｮｳ","pref":"京都府","city":"京都市中京区","address":"下八文字町"},
{"zip_code":"6040044","kana_pref":"ｷｮｳﾄﾌ","kana_city":"ｷｮｳﾄｼﾅｶｷﾞｮｳｸ","kana_address":"ｼﾓﾌﾙｼﾛﾁｮｳ","pref":"京都府","city":"京都市中京区","address":"下古城町"},
{"zip_code":"6048091","kana_pref":"ｷｮｳﾄﾌ","kana_city":"ｷｮｳﾄｼﾅｶｷﾞｮｳｸ","kana_address":"ｼﾓﾎﾝﾉｳｼﾞﾏｴﾁｮｳ","pref":"京都府","city":"京都市中京区","address":"下本能寺前町"},
{"zip_code":"6040034","kana_pref":"ｷｮｳﾄﾌ","kana_city":"ｷｮｳﾄｼﾅｶｷﾞｮｳｸ","kana_address":"ｼﾓﾏﾂﾔﾁｮｳ","pref":"京都府","city":"京都市中京区","address":"下松屋町"},
{"zip_code":"6040084","kana_pref":"ｷｮｳﾄﾌ","kana_city":"ｷｮｳﾄｼﾅｶｷﾞｮｳｸ","kana_address":"ｼﾓﾏﾙﾔﾁｮｳ","pref":"京都府","city":"京都市中京区","address":"下丸屋町"},
{"zip_code":"6048006","kana_pref":"ｷｮｳﾄﾌ","kana_city":"ｷｮｳﾄｼﾅｶｷﾞｮｳｸ","kana_address":"ｼﾓﾏﾙﾔﾁｮｳ","pref":"京都府","city":"京都市中京区","address":"下丸屋町（御池通河原町東入"},
{"zip_code":"6048006","kana_pref":"ｷｮｳﾄﾌ","kana_city":"ｷｮｳﾄｼﾅｶｷﾞｮｳｸ","kana_address":"ｼﾓﾏﾙﾔﾁｮｳ","pref":"京都府","city":"京都市中京区","address":"河原町通御池下る"},
{"zip_code":"6048006","kana_pref":"ｷｮｳﾄﾌ","kana_city":"ｷｮｳﾄｼﾅｶｷﾞｮｳｸ","kana_address":"ｼﾓﾏﾙﾔﾁｮｳ","pref":"京都府","city":"京都市中京区","address":"河原町通姉小路上る"},
{"zip_code":"6048006","kana_pref":"ｷｮｳﾄﾌ","kana_city":"ｷｮｳﾄｼﾅｶｷﾞｮｳｸ","kana_address":"ｼﾓﾏﾙﾔﾁｮｳ","pref":"京都府","city":"京都市中京区","address":""},
{"zip_code":"6048006","kana_pref":"ｷｮｳﾄﾌ","kana_city":"ｷｮｳﾄｼﾅｶｷﾞｮｳｸ","kana_address":"ｼﾓﾏﾙﾔﾁｮｳ","pref":"京都府","city":"京都市中京区","address":"御池通木屋町西入"},
{"zip_code":"6048006","kana_pref":"ｷｮｳﾄﾌ","kana_city":"ｷｮｳﾄｼﾅｶｷﾞｮｳｸ","kana_address":"ｼﾓﾏﾙﾔﾁｮｳ","pref":"京都府","city":"京都市中京区","address":"木屋町通御池下る"},
{"zip_code":"6048006","kana_pref":"ｷｮｳﾄﾌ","kana_city":"ｷｮｳﾄｼﾅｶｷﾞｮｳｸ","kana_address":"ｼﾓﾏﾙﾔﾁｮｳ","pref":"京都府","city":"京都市中京区","address":"木屋町通姉小路上る）"},
{"zip_code":"6040024","kana_pref":"ｷｮｳﾄﾌ","kana_city":"ｷｮｳﾄｼﾅｶｷﾞｮｳｸ","kana_address":"ｼﾓﾐｮｳｶｸｼﾞﾁｮｳ","pref":"京都府","city":"京都市中京区","address":"下妙覚寺町"},
{"zip_code":"6040875","kana_pref":"ｷｮｳﾄﾌ","kana_city":"ｷｮｳﾄｼﾅｶｷﾞｮｳｸ","kana_address":"ｼｬｷﾝﾁｮｳ","pref":"京都府","city":"京都市中京区","address":"砂金町"},
{"zip_code":"6048121","kana_pref":"ｷｮｳﾄﾌ","kana_city":"ｷｮｳﾄｼﾅｶｷﾞｮｳｸ","kana_address":"ｼﾞｭｳﾓﾝｼﾞﾁｮｳ","pref":"京都府","city":"京都市中京区","address":"十文字町"},
{"zip_code":"6048403","kana_pref":"ｷｮｳﾄﾌ","kana_city":"ｷｮｳﾄｼﾅｶｷﾞｮｳｸ","kana_address":"ｼﾞｭﾗｸﾏﾜﾘﾅｶﾏﾁ","pref":"京都府","city":"京都市中京区","address":"聚楽廻中町"},
{"zip_code":"6048404","kana_pref":"ｷｮｳﾄﾌ","kana_city":"ｷｮｳﾄｼﾅｶｷﾞｮｳｸ","kana_address":"ｼﾞｭﾗｸﾏﾜﾘﾋｶﾞｼﾏﾁ","pref":"京都府","city":"京都市中京区","address":"聚楽廻東町"},
{"zip_code":"6048402","kana_pref":"ｷｮｳﾄﾌ","kana_city":"ｷｮｳﾄｼﾅｶｷﾞｮｳｸ","kana_address":"ｼﾞｭﾗｸﾏﾜﾘﾆｼﾏﾁ","pref":"京都府","city":"京都市中京区","address":"聚楽廻西町"},
{"zip_code":"6048411","kana_pref":"ｷｮｳﾄﾌ","kana_city":"ｷｮｳﾄｼﾅｶｷﾞｮｳｸ","kana_address":"ｼﾞｭﾗｸﾏﾜﾘﾐﾅﾐﾏﾁ","pref":"京都府","city":"京都市中京区","address":"聚楽廻南町"},
{"zip_code":"6048401","kana_pref":"ｷｮｳﾄﾌ","kana_city":"ｷｮｳﾄｼﾅｶｷﾞｮｳｸ","kana_address":"ｼﾞｭﾗｸﾏﾜﾘﾏﾂｼﾀﾁｮｳ","pref":"京都府","city":"京都市中京区","address":"聚楽廻松下町"},
{"zip_code":"6040036","kana_pref":"ｷｮｳﾄﾌ","kana_city":"ｷｮｳﾄｼﾅｶｷﾞｮｳｸ","kana_address":"ｼｮｳｷﾞｮｳｼﾞﾁｮｳ","pref":"京都府","city":"京都市中京区","address":"正行寺町"},
{"zip_code":"6040873","kana_pref":"ｷｮｳﾄﾌ","kana_city":"ｷｮｳﾄｼﾅｶｷﾞｮｳｸ","kana_address":"ｼｮｳｼｮｳｲｵﾀﾋﾞﾁｮｳ","pref":"京都府","city":"京都市中京区","address":"少将井御旅町"},
{"zip_code":"6040862","kana_pref":"ｷｮｳﾄﾌ","kana_city":"ｷｮｳﾄｼﾅｶｷﾞｮｳｸ","kana_address":"ｼｮｳｼｮｳｲﾁｮｳ","pref":"京都府","city":"京都市中京区","address":"少将井町"},
{"zip_code":"6048246","kana_pref":"ｷｮｳﾄﾌ","kana_city":"ｷｮｳﾄｼﾅｶｷﾞｮｳｸ","kana_address":"ｼｮｳｼﾞｮｳﾁｮｳ","pref":"京都府","city":"京都市中京区","address":"猩々町"},
{"zip_code":"6040867","kana_pref":"ｷｮｳﾄﾌ","kana_city":"ｷｮｳﾄｼﾅｶｷﾞｮｳｸ","kana_address":"ｼﾞｮｳｼﾝﾖｺﾁｮｳ","pref":"京都府","city":"京都市中京区","address":"常真横町"},
{"zip_code":"6040864","kana_pref":"ｷｮｳﾄﾌ","kana_city":"ｷｮｳﾄｼﾅｶｷﾞｮｳｸ","kana_address":"ｼｮｳﾁｸﾁｮｳ","pref":"京都府","city":"京都市中京区","address":"松竹町"},
{"zip_code":"6048075","kana_pref":"ｷｮｳﾄﾌ","kana_city":"ｷｮｳﾄｼﾅｶｷﾞｮｳｸ","kana_address":"ｼﾗｶﾍﾞﾁｮｳ","pref":"京都府","city":"京都市中京区","address":"白壁町"},
{"zip_code":"6048371","kana_pref":"ｷｮｳﾄﾌ","kana_city":"ｷｮｳﾄｼﾅｶｷﾞｮｳｸ","kana_address":"ｼﾝｾﾝｴﾝﾁｮｳ","pref":"京都府","city":"京都市中京区","address":"神泉苑町"},
{"zip_code":"6040853","kana_pref":"ｷｮｳﾄﾌ","kana_city":"ｷｮｳﾄｼﾅｶｷﾞｮｳｸ","kana_address":"ｼﾝﾆｮﾄﾞｳﾁｮｳ","pref":"京都府","city":"京都市中京区","address":"真如堂町"},
{"zip_code":"6048207","kana_pref":"ｷｮｳﾄﾌ","kana_city":"ｷｮｳﾄｼﾅｶｷﾞｮｳｸ","kana_address":"ｼﾝﾒｲﾁｮｳ","pref":"京都府","city":"京都市中京区","address":"神明町"},
{"zip_code":"6040901","kana_pref":"ｷｮｳﾄﾌ","kana_city":"ｷｮｳﾄｼﾅｶｷﾞｮｳｸ","kana_address":"ｽｴﾏﾙﾁｮｳ","pref":"京都府","city":"京都市中京区","address":"末丸町"},
{"zip_code":"6040822","kana_pref":"ｷｮｳﾄﾌ","kana_city":"ｷｮｳﾄｼﾅｶｷﾞｮｳｸ","kana_address":"ｽｷﾞﾔﾁｮｳ","pref":"京都府","city":"京都市中京区","address":"杉屋町"},
{"zip_code":"6040913","kana_pref":"ｷｮｳﾄﾌ","kana_city":"ｷｮｳﾄｼﾅｶｷﾞｮｳｸ","kana_address":"ｽﾐｸﾗﾁｮｳ","pref":"京都府","city":"京都市中京区","address":"角倉町"},
{"zip_code":"6048224","kana_pref":"ｷｮｳﾄﾌ","kana_city":"ｷｮｳﾄｼﾅｶｷﾞｮｳｸ","kana_address":"ｽﾐﾉｻﾞﾁｮｳ","pref":"京都府","city":"京都市中京区","address":"炭之座町"},
{"zip_code":"6048274","kana_pref":"ｷｮｳﾄﾌ","kana_city":"ｷｮｳﾄｼﾅｶｷﾞｮｳｸ","kana_address":"ｾｲﾄﾞｳﾁｮｳ","pref":"京都府","city":"京都市中京区","address":"西堂町"},
{"zip_code":"6040951","kana_pref":"ｷｮｳﾄﾌ","kana_city":"ｷｮｳﾄｼﾅｶｷﾞｮｳｸ","kana_address":"ｾｲﾒｲﾁｮｳ","pref":"京都府","city":"京都市中京区","address":"晴明町"},
{"zip_code":"6048122","kana_pref":"ｷｮｳﾄﾌ","kana_city":"ｷｮｳﾄｼﾅｶｷﾞｮｳｸ","kana_address":"ｾﾄﾔﾁｮｳ","pref":"京都府","city":"京都市中京区","address":"瀬戸屋町"},
{"zip_code":"6048141","kana_pref":"ｷｮｳﾄﾌ","kana_city":"ｷｮｳﾄｼﾅｶｷﾞｮｳｸ","kana_address":"ｾﾝｼｮｳｼﾞﾁｮｳ","pref":"京都府","city":"京都市中京区","address":"泉正寺町"},
{"zip_code":"6048262","kana_pref":"ｷｮｳﾄﾌ","kana_city":"ｷｮｳﾄｼﾅｶｷﾞｮｳｸ","kana_address":"ｿｳﾘﾝﾁｮｳ","pref":"京都府","city":"京都市中京区","address":"宗林町"},
{"zip_code":"6040026","kana_pref":"ｷｮｳﾄﾌ","kana_city":"ｷｮｳﾄｼﾅｶｷﾞｮｳｸ","kana_address":"ﾀﾞｲｵﾝｼﾞﾁｮｳ","pref":"京都府","city":"京都市中京区","address":"大恩寺町"},
{"zip_code":"6040014","kana_pref":"ｷｮｳﾄﾌ","kana_city":"ｷｮｳﾄｼﾅｶｷﾞｮｳｸ","kana_address":"ﾀﾞｲｺｸﾁｮｳ","pref":"京都府","city":"京都市中京区","address":"大黒町"},
{"zip_code":"6048031","kana_pref":"ｷｮｳﾄﾌ","kana_city":"ｷｮｳﾄｼﾅｶｷﾞｮｳｸ","kana_address":"ﾀﾞｲｺｸﾁｮｳ","pref":"京都府","city":"京都市中京区","address":"大黒町（河原町通三条下る"},
{"zip_code":"6048031","kana_pref":"ｷｮｳﾄﾌ","kana_city":"ｷｮｳﾄｼﾅｶｷﾞｮｳｸ","kana_address":"ﾀﾞｲｺｸﾁｮｳ","pref":"京都府","city":"京都市中京区","address":"三条通河原町東入"},
{"zip_code":"6048031","kana_pref":"ｷｮｳﾄﾌ","kana_city":"ｷｮｳﾄｼﾅｶｷﾞｮｳｸ","kana_address":"ﾀﾞｲｺｸﾁｮｳ","pref":"京都府","city":"京都市中京区","address":"三条通河原町西入"},
{"zip_code":"6048031","kana_pref":"ｷｮｳﾄﾌ","kana_city":"ｷｮｳﾄｼﾅｶｷﾞｮｳｸ","kana_address":"ﾀﾞｲｺｸﾁｮｳ","pref":"京都府","city":"京都市中京区","address":"河原町通"},
{"zip_code":"6048031","kana_pref":"ｷｮｳﾄﾌ","kana_city":"ｷｮｳﾄｼﾅｶｷﾞｮｳｸ","kana_address":"ﾀﾞｲｺｸﾁｮｳ","pref":"京都府","city":"京都市中京区","address":"六角上る"},
{"zip_code":"6048031","kana_pref":"ｷｮｳﾄﾌ","kana_city":"ｷｮｳﾄｼﾅｶｷﾞｮｳｸ","kana_address":"ﾀﾞｲｺｸﾁｮｳ","pref":"京都府","city":"京都市中京区","address":"西木屋町通三条下る"},
{"zip_code":"6048031","kana_pref":"ｷｮｳﾄﾌ","kana_city":"ｷｮｳﾄｼﾅｶｷﾞｮｳｸ","kana_address":"ﾀﾞｲｺｸﾁｮｳ","pref":"京都府","city":"京都市中京区","address":"西木屋町通六角上る）"},
{"zip_code":"6048073","kana_pref":"ｷｮｳﾄﾌ","kana_city":"ｷｮｳﾄｼﾅｶｷﾞｮｳｸ","kana_address":"ﾀﾞｲｺｸﾁｮｳ","pref":"京都府","city":"京都市中京区","address":"大黒町"},
{"zip_code":"6048044","kana_pref":"ｷｮｳﾄﾌ","kana_city":"ｷｮｳﾄｼﾅｶｷﾞｮｳｸ","kana_address":"ﾀﾞｲﾆﾁﾁｮｳ","pref":"京都府","city":"京都市中京区","address":"大日町"},
{"zip_code":"6040071","kana_pref":"ｷｮｳﾄﾌ","kana_city":"ｷｮｳﾄｼﾅｶｷﾞｮｳｸ","kana_address":"ﾀﾞｲﾓﾝｼﾞﾁｮｳ","pref":"京都府","city":"京都市中京区","address":"大文字町"},
{"zip_code":"6040907","kana_pref":"ｷｮｳﾄﾌ","kana_city":"ｷｮｳﾄｼﾅｶｷﾞｮｳｸ","kana_address":"ﾀﾞｲﾓﾝｼﾞﾁｮｳ","pref":"京都府","city":"京都市中京区","address":"大文字町"},
{"zip_code":"6048095","kana_pref":"ｷｮｳﾄﾌ","kana_city":"ｷｮｳﾄｼﾅｶｷﾞｮｳｸ","kana_address":"ﾀﾞｲﾓﾝｼﾞﾁｮｳ","pref":"京都府","city":"京都市中京区","address":"大文字町（御幸町通御池下る"},
{"zip_code":"6048095","kana_pref":"ｷｮｳﾄﾌ","kana_city":"ｷｮｳﾄｼﾅｶｷﾞｮｳｸ","kana_address":"ﾀﾞｲﾓﾝｼﾞﾁｮｳ","pref":"京都府","city":"京都市中京区","address":"御幸町通姉小路上る"},
{"zip_code":"6048095","kana_pref":"ｷｮｳﾄﾌ","kana_city":"ｷｮｳﾄｼﾅｶｷﾞｮｳｸ","kana_address":"ﾀﾞｲﾓﾝｼﾞﾁｮｳ","pref":"京都府","city":"京都市中京区","address":"御池通御幸町西入"},
{"zip_code":"6048095","kana_pref":"ｷｮｳﾄﾌ","kana_city":"ｷｮｳﾄｼﾅｶｷﾞｮｳｸ","kana_address":"ﾀﾞｲﾓﾝｼﾞﾁｮｳ","pref":"京都府","city":"京都市中京区","address":""},
{"zip_code":"6048095","kana_pref":"ｷｮｳﾄﾌ","kana_city":"ｷｮｳﾄｼﾅｶｷﾞｮｳｸ","kana_address":"ﾀﾞｲﾓﾝｼﾞﾁｮｳ","pref":"京都府","city":"京都市中京区","address":"御池通御幸町東入"},
{"zip_code":"6048095","kana_pref":"ｷｮｳﾄﾌ","kana_city":"ｷｮｳﾄｼﾅｶｷﾞｮｳｸ","kana_address":"ﾀﾞｲﾓﾝｼﾞﾁｮｳ","pref":"京都府","city":"京都市中京区","address":"姉小路通御幸町西入"},
{"zip_code":"6048095","kana_pref":"ｷｮｳﾄﾌ","kana_city":"ｷｮｳﾄｼﾅｶｷﾞｮｳｸ","kana_address":"ﾀﾞｲﾓﾝｼﾞﾁｮｳ","pref":"京都府","city":"京都市中京区","address":"姉小路通御幸町東入）"},
{"zip_code":"6048315","kana_pref":"ｷｮｳﾄﾌ","kana_city":"ｷｮｳﾄｼﾅｶｷﾞｮｳｸ","kana_address":"ﾀﾞｲﾓﾝｼﾞﾁｮｳ","pref":"京都府","city":"京都市中京区","address":"大文字町（黒門通御池下る"},
{"zip_code":"6048315","kana_pref":"ｷｮｳﾄﾌ","kana_city":"ｷｮｳﾄｼﾅｶｷﾞｮｳｸ","kana_address":"ﾀﾞｲﾓﾝｼﾞﾁｮｳ","pref":"京都府","city":"京都市中京区","address":"黒門通姉小路上る"},
{"zip_code":"6048315","kana_pref":"ｷｮｳﾄﾌ","kana_city":"ｷｮｳﾄｼﾅｶｷﾞｮｳｸ","kana_address":"ﾀﾞｲﾓﾝｼﾞﾁｮｳ","pref":"京都府","city":"京都市中京区","address":"御池通黒門西入"},
{"zip_code":"6048315","kana_pref":"ｷｮｳﾄﾌ","kana_city":"ｷｮｳﾄｼﾅｶｷﾞｮｳｸ","kana_address":"ﾀﾞｲﾓﾝｼﾞﾁｮｳ","pref":"京都府","city":"京都市中京区","address":"御池通黒門"},
{"zip_code":"6048315","kana_pref":"ｷｮｳﾄﾌ","kana_city":"ｷｮｳﾄｼﾅｶｷﾞｮｳｸ","kana_address":"ﾀﾞｲﾓﾝｼﾞﾁｮｳ","pref":"京都府","city":"京都市中京区","address":"東入"},
{"zip_code":"6048315","kana_pref":"ｷｮｳﾄﾌ","kana_city":"ｷｮｳﾄｼﾅｶｷﾞｮｳｸ","kana_address":"ﾀﾞｲﾓﾝｼﾞﾁｮｳ","pref":"京都府","city":"京都市中京区","address":"御池通猪熊西入）"},
{"zip_code":"6040834","kana_pref":"ｷｮｳﾄﾌ","kana_city":"ｷｮｳﾄｼﾅｶｷﾞｮｳｸ","kana_address":"ﾀｶﾀﾞﾁｮｳ","pref":"京都府","city":"京都市中京区","address":"高田町"},
{"zip_code":"6040835","kana_pref":"ｷｮｳﾄﾌ","kana_city":"ｷｮｳﾄｼﾅｶｷﾞｮｳｸ","kana_address":"ﾀｶﾐﾔﾁｮｳ","pref":"京都府","city":"京都市中京区","address":"高宮町（御池通高倉西入"},
{"zip_code":"6040835","kana_pref":"ｷｮｳﾄﾌ","kana_city":"ｷｮｳﾄｼﾅｶｷﾞｮｳｸ","kana_address":"ﾀｶﾐﾔﾁｮｳ","pref":"京都府","city":"京都市中京区","address":"御池通東洞院東入"},
{"zip_code":"6040835","kana_pref":"ｷｮｳﾄﾌ","kana_city":"ｷｮｳﾄｼﾅｶｷﾞｮｳｸ","kana_address":"ﾀｶﾐﾔﾁｮｳ","pref":"京都府","city":"京都市中京区","address":"御池通間之町東入"},
{"zip_code":"6040835","kana_pref":"ｷｮｳﾄﾌ","kana_city":"ｷｮｳﾄｼﾅｶｷﾞｮｳｸ","kana_address":"ﾀｶﾐﾔﾁｮｳ","pref":"京都府","city":"京都市中京区","address":"御池通間之町"},
{"zip_code":"6040835","kana_pref":"ｷｮｳﾄﾌ","kana_city":"ｷｮｳﾄｼﾅｶｷﾞｮｳｸ","kana_address":"ﾀｶﾐﾔﾁｮｳ","pref":"京都府","city":"京都市中京区","address":"西入）"},
{"zip_code":"6048056","kana_pref":"ｷｮｳﾄﾌ","kana_city":"ｷｮｳﾄｼﾅｶｷﾞｮｳｸ","kana_address":"ﾀｶﾐﾔﾁｮｳ","pref":"京都府","city":"京都市中京区","address":"高宮町"},
{"zip_code":"6048153","kana_pref":"ｷｮｳﾄﾌ","kana_city":"ｷｮｳﾄｼﾅｶｷﾞｮｳｸ","kana_address":"ﾀｶﾝﾅﾁｮｳ","pref":"京都府","city":"京都市中京区","address":"笋町"},
{"zip_code":"6040823","kana_pref":"ｷｮｳﾄﾌ","kana_city":"ｷｮｳﾄｼﾅｶｷﾞｮｳｸ","kana_address":"ﾀｹﾔﾁｮｳ","pref":"京都府","city":"京都市中京区","address":"竹屋町"},
{"zip_code":"6040021","kana_pref":"ｷｮｳﾄﾌ","kana_city":"ｷｮｳﾄｼﾅｶｷﾞｮｳｸ","kana_address":"ﾀｺﾔｸｼﾁｮｳ","pref":"京都府","city":"京都市中京区","address":"蛸薬師町"},
{"zip_code":"6048062","kana_pref":"ｷｮｳﾄﾌ","kana_city":"ｷｮｳﾄｼﾅｶｷﾞｮｳｸ","kana_address":"ﾀｺﾔﾁｮｳ","pref":"京都府","city":"京都市中京区","address":"蛸屋町"},
{"zip_code":"6048351","kana_pref":"ｷｮｳﾄﾌ","kana_city":"ｷｮｳﾄｼﾅｶｷﾞｮｳｸ","kana_address":"ﾀﾀﾐﾔﾁｮｳ","pref":"京都府","city":"京都市中京区","address":"畳屋町"},
{"zip_code":"6040802","kana_pref":"ｷｮｳﾄﾌ","kana_city":"ｷｮｳﾄｼﾅｶｷﾞｮｳｸ","kana_address":"ﾀﾁﾊﾞﾅﾁｮｳ","pref":"京都府","city":"京都市中京区","address":"橘町"},
{"zip_code":"6040944","kana_pref":"ｷｮｳﾄﾌ","kana_city":"ｷｮｳﾄｼﾅｶｷﾞｮｳｸ","kana_address":"ﾀﾁﾊﾞﾅﾁｮｳ","pref":"京都府","city":"京都市中京区","address":"橘町（押小路通御幸町西入"},
{"zip_code":"6040944","kana_pref":"ｷｮｳﾄﾌ","kana_city":"ｷｮｳﾄｼﾅｶｷﾞｮｳｸ","kana_address":"ﾀﾁﾊﾞﾅﾁｮｳ","pref":"京都府","city":"京都市中京区","address":"押小路通麩屋町西入"},
{"zip_code":"6040944","kana_pref":"ｷｮｳﾄﾌ","kana_city":"ｷｮｳﾄｼﾅｶｷﾞｮｳｸ","kana_address":"ﾀﾁﾊﾞﾅﾁｮｳ","pref":"京都府","city":"京都市中京区","address":"押小路通麩屋町東入"},
{"zip_code":"6040944","kana_pref":"ｷｮｳﾄﾌ","kana_city":"ｷｮｳﾄｼﾅｶｷﾞｮｳｸ","kana_address":"ﾀﾁﾊﾞﾅﾁｮｳ","pref":"京都府","city":"京都市中京区","address":""},
{"zip_code":"6040944","kana_pref":"ｷｮｳﾄﾌ","kana_city":"ｷｮｳﾄｼﾅｶｷﾞｮｳｸ","kana_address":"ﾀﾁﾊﾞﾅﾁｮｳ","pref":"京都府","city":"京都市中京区","address":"押小路通富小路西入"},
{"zip_code":"6040944","kana_pref":"ｷｮｳﾄﾌ","kana_city":"ｷｮｳﾄｼﾅｶｷﾞｮｳｸ","kana_address":"ﾀﾁﾊﾞﾅﾁｮｳ","pref":"京都府","city":"京都市中京区","address":"押小路通富小路東入"},
{"zip_code":"6040944","kana_pref":"ｷｮｳﾄﾌ","kana_city":"ｷｮｳﾄｼﾅｶｷﾞｮｳｸ","kana_address":"ﾀﾁﾊﾞﾅﾁｮｳ","pref":"京都府","city":"京都市中京区","address":"押小路通柳馬場東入）"},
{"zip_code":"6040914","kana_pref":"ｷｮｳﾄﾌ","kana_city":"ｷｮｳﾄｼﾅｶｷﾞｮｳｸ","kana_address":"ﾀﾁﾊﾞﾅﾔﾅｷﾞﾁｮｳ","pref":"京都府","city":"京都市中京区","address":"橘柳町"},
{"zip_code":"6048176","kana_pref":"ｷｮｳﾄﾌ","kana_city":"ｷｮｳﾄｼﾅｶｷﾞｮｳｸ","kana_address":"ﾀﾂｲｹﾁｮｳ","pref":"京都府","city":"京都市中京区","address":"龍池町"},
{"zip_code":"6040012","kana_pref":"ｷｮｳﾄﾌ","kana_city":"ｷｮｳﾄｼﾅｶｷﾞｮｳｸ","kana_address":"ﾀﾃﾀﾞｲｵﾝｼﾞﾁｮｳ","pref":"京都府","city":"京都市中京区","address":"竪大恩寺町"},
{"zip_code":"6040081","kana_pref":"ｷｮｳﾄﾌ","kana_city":"ｷｮｳﾄｼﾅｶｷﾞｮｳｸ","kana_address":"ﾀﾅｶﾁｮｳ","pref":"京都府","city":"京都市中京区","address":"田中町"},
{"zip_code":"6040005","kana_pref":"ｷｮｳﾄﾌ","kana_city":"ｷｮｳﾄｼﾅｶｷﾞｮｳｸ","kana_address":"ﾀﾏｳｴﾁｮｳ","pref":"京都府","city":"京都市中京区","address":"玉植町"},
{"zip_code":"6048211","kana_pref":"ｷｮｳﾄﾌ","kana_city":"ｷｮｳﾄｼﾅｶｷﾞｮｳｸ","kana_address":"ﾀﾏｸﾗﾁｮｳ","pref":"京都府","city":"京都市中京区","address":"玉蔵町"},
{"zip_code":"6040962","kana_pref":"ｷｮｳﾄﾌ","kana_city":"ｷｮｳﾄｼﾅｶｷﾞｮｳｸ","kana_address":"ﾀﾞﾙﾏﾁｮｳ","pref":"京都府","city":"京都市中京区","address":"達磨町"},
{"zip_code":"6048322","kana_pref":"ｷｮｳﾄﾌ","kana_city":"ｷｮｳﾄｼﾅｶｷﾞｮｳｸ","kana_address":"ﾀﾙﾔﾁｮｳ","pref":"京都府","city":"京都市中京区","address":"樽屋町"},
{"zip_code":"6040952","kana_pref":"ｷｮｳﾄﾌ","kana_city":"ｷｮｳﾄｼﾅｶｷﾞｮｳｸ","kana_address":"ﾀﾜﾗﾔﾁｮｳ","pref":"京都府","city":"京都市中京区","address":"俵屋町"},
{"zip_code":"6040966","kana_pref":"ｷｮｳﾄﾌ","kana_city":"ｷｮｳﾄｼﾅｶｷﾞｮｳｸ","kana_address":"ﾀﾜﾗﾔﾁｮｳ","pref":"京都府","city":"京都市中京区","address":"俵屋町"},
{"zip_code":"6048311","kana_pref":"ｷｮｳﾄﾌ","kana_city":"ｷｮｳﾄｼﾅｶｷﾞｮｳｸ","kana_address":"ﾀﾜﾗﾔﾁｮｳ","pref":"京都府","city":"京都市中京区","address":"俵屋町"},
{"zip_code":"6048133","kana_pref":"ｷｮｳﾄﾌ","kana_city":"ｷｮｳﾄｼﾅｶｷﾞｮｳｸ","kana_address":"ﾁｷﾞﾘﾔﾁｮｳ","pref":"京都府","city":"京都市中京区","address":"滕屋町"},
{"zip_code":"6040935","kana_pref":"ｷｮｳﾄﾌ","kana_city":"ｷｮｳﾄｼﾅｶｷﾞｮｳｸ","kana_address":"ﾁｮｳｼﾞﾔﾁｮｳ","pref":"京都府","city":"京都市中京区","address":"丁子屋町"},
{"zip_code":"6048271","kana_pref":"ｷｮｳﾄﾌ","kana_city":"ｷｮｳﾄｼﾅｶｷﾞｮｳｸ","kana_address":"ﾂｶﾞﾙﾁｮｳ","pref":"京都府","city":"京都市中京区","address":"津軽町"},
{"zip_code":"6048202","kana_pref":"ｷｮｳﾄﾌ","kana_city":"ｷｮｳﾄｼﾅｶｷﾞｮｳｸ","kana_address":"ﾂｷﾇｹﾁｮｳ","pref":"京都府","city":"京都市中京区","address":"突抜町（衣棚通姉小路下る"},
{"zip_code":"6048202","kana_pref":"ｷｮｳﾄﾌ","kana_city":"ｷｮｳﾄｼﾅｶｷﾞｮｳｸ","kana_address":"ﾂｷﾇｹﾁｮｳ","pref":"京都府","city":"京都市中京区","address":"衣棚通三条上る"},
{"zip_code":"6048202","kana_pref":"ｷｮｳﾄﾌ","kana_city":"ｷｮｳﾄｼﾅｶｷﾞｮｳｸ","kana_address":"ﾂｷﾇｹﾁｮｳ","pref":"京都府","city":"京都市中京区","address":"姉小路通室町西入"},
{"zip_code":"6048202","kana_pref":"ｷｮｳﾄﾌ","kana_city":"ｷｮｳﾄｼﾅｶｷﾞｮｳｸ","kana_address":"ﾂｷﾇｹﾁｮｳ","pref":"京都府","city":"京都市中京区","address":"姉小路通衣"},
{"zip_code":"6048202","kana_pref":"ｷｮｳﾄﾌ","kana_city":"ｷｮｳﾄｼﾅｶｷﾞｮｳｸ","kana_address":"ﾂｷﾇｹﾁｮｳ","pref":"京都府","city":"京都市中京区","address":"棚西入"},
{"zip_code":"6048202","kana_pref":"ｷｮｳﾄﾌ","kana_city":"ｷｮｳﾄｼﾅｶｷﾞｮｳｸ","kana_address":"ﾂｷﾇｹﾁｮｳ","pref":"京都府","city":"京都市中京区","address":"姉小路通衣棚東入"},
{"zip_code":"6048202","kana_pref":"ｷｮｳﾄﾌ","kana_city":"ｷｮｳﾄｼﾅｶｷﾞｮｳｸ","kana_address":"ﾂｷﾇｹﾁｮｳ","pref":"京都府","city":"京都市中京区","address":"姉小路通新町東入）"},
{"zip_code":"6048272","kana_pref":"ｷｮｳﾄﾌ","kana_city":"ｷｮｳﾄｼﾅｶｷﾞｮｳｸ","kana_address":"ﾂｷﾇｹﾁｮｳ","pref":"京都府","city":"京都市中京区","address":"突抜町（釜座通姉小路下る"},
{"zip_code":"6048272","kana_pref":"ｷｮｳﾄﾌ","kana_city":"ｷｮｳﾄｼﾅｶｷﾞｮｳｸ","kana_address":"ﾂｷﾇｹﾁｮｳ","pref":"京都府","city":"京都市中京区","address":"釜座通三条上る"},
{"zip_code":"6048272","kana_pref":"ｷｮｳﾄﾌ","kana_city":"ｷｮｳﾄｼﾅｶｷﾞｮｳｸ","kana_address":"ﾂｷﾇｹﾁｮｳ","pref":"京都府","city":"京都市中京区","address":"姉小路通新町西入"},
{"zip_code":"6048272","kana_pref":"ｷｮｳﾄﾌ","kana_city":"ｷｮｳﾄｼﾅｶｷﾞｮｳｸ","kana_address":"ﾂｷﾇｹﾁｮｳ","pref":"京都府","city":"京都市中京区","address":"姉小路通釜"},
{"zip_code":"6048272","kana_pref":"ｷｮｳﾄﾌ","kana_city":"ｷｮｳﾄｼﾅｶｷﾞｮｳｸ","kana_address":"ﾂｷﾇｹﾁｮｳ","pref":"京都府","city":"京都市中京区","address":"座西入"},
{"zip_code":"6048272","kana_pref":"ｷｮｳﾄﾌ","kana_city":"ｷｮｳﾄｼﾅｶｷﾞｮｳｸ","kana_address":"ﾂｷﾇｹﾁｮｳ","pref":"京都府","city":"京都市中京区","address":"姉小路通釜座東入"},
{"zip_code":"6048272","kana_pref":"ｷｮｳﾄﾌ","kana_city":"ｷｮｳﾄｼﾅｶｷﾞｮｳｸ","kana_address":"ﾂｷﾇｹﾁｮｳ","pref":"京都府","city":"京都市中京区","address":"姉小路通西洞院東入）"},
{"zip_code":"6040055","kana_pref":"ｷｮｳﾄﾌ","kana_city":"ｷｮｳﾄｼﾅｶｷﾞｮｳｸ","kana_address":"ﾂﾁﾊﾞｼﾁｮｳ","pref":"京都府","city":"京都市中京区","address":"土橋町"},
{"zip_code":"6040061","kana_pref":"ｷｮｳﾄﾌ","kana_city":"ｷｮｳﾄｼﾅｶｷﾞｮｳｸ","kana_address":"ﾂﾁﾔﾁｮｳ","pref":"京都府","city":"京都市中京区","address":"槌屋町"},
{"zip_code":"6048112","kana_pref":"ｷｮｳﾄﾌ","kana_city":"ｷｮｳﾄｼﾅｶｷﾞｮｳｸ","kana_address":"ﾂﾁﾔﾁｮｳ","pref":"京都府","city":"京都市中京区","address":"槌屋町（柳馬場通三条下る"},
{"zip_code":"6048112","kana_pref":"ｷｮｳﾄﾌ","kana_city":"ｷｮｳﾄｼﾅｶｷﾞｮｳｸ","kana_address":"ﾂﾁﾔﾁｮｳ","pref":"京都府","city":"京都市中京区","address":"柳馬場通六角上る"},
{"zip_code":"6048112","kana_pref":"ｷｮｳﾄﾌ","kana_city":"ｷｮｳﾄｼﾅｶｷﾞｮｳｸ","kana_address":"ﾂﾁﾔﾁｮｳ","pref":"京都府","city":"京都市中京区","address":"六角通柳馬場西入"},
{"zip_code":"6048112","kana_pref":"ｷｮｳﾄﾌ","kana_city":"ｷｮｳﾄｼﾅｶｷﾞｮｳｸ","kana_address":"ﾂﾁﾔﾁｮｳ","pref":"京都府","city":"京都市中京区","address":"六角通柳"},
{"zip_code":"6048112","kana_pref":"ｷｮｳﾄﾌ","kana_city":"ｷｮｳﾄｼﾅｶｷﾞｮｳｸ","kana_address":"ﾂﾁﾔﾁｮｳ","pref":"京都府","city":"京都市中京区","address":"馬場東入）"},
{"zip_code":"6040814","kana_pref":"ｷｮｳﾄﾌ","kana_city":"ｷｮｳﾄｼﾅｶｷﾞｮｳｸ","kana_address":"ﾂﾎﾞﾔﾁｮｳ","pref":"京都府","city":"京都市中京区","address":"壺屋町"},
{"zip_code":"6048255","kana_pref":"ｷｮｳﾄﾌ","kana_city":"ｷｮｳﾄｼﾅｶｷﾞｮｳｸ","kana_address":"ﾂﾎﾞﾔﾁｮｳ","pref":"京都府","city":"京都市中京区","address":"壺屋町"},
{"zip_code":"6048276","kana_pref":"ｷｮｳﾄﾌ","kana_city":"ｷｮｳﾄｼﾅｶｷﾞｮｳｸ","kana_address":"ﾂﾎﾞﾔﾁｮｳ","pref":"京都府","city":"京都市中京区","address":"壺屋町"},
{"zip_code":"6048152","kana_pref":"ｷｮｳﾄﾌ","kana_city":"ｷｮｳﾄｼﾅｶｷﾞｮｳｸ","kana_address":"ﾃｱﾗｲﾐｽﾞﾁｮｳ","pref":"京都府","city":"京都市中京区","address":"手洗水町"},
{"zip_code":"6040812","kana_pref":"ｷｮｳﾄﾌ","kana_city":"ｷｮｳﾄｼﾅｶｷﾞｮｳｸ","kana_address":"ﾃﾝｼｭﾁｮｳ","pref":"京都府","city":"京都市中京区","address":"天守町"},
{"zip_code":"6048081","kana_pref":"ｷｮｳﾄﾌ","kana_city":"ｷｮｳﾄｼﾅｶｷﾞｮｳｸ","kana_address":"ﾃﾝｼｮｳｼﾞﾏｴﾁｮｳ","pref":"京都府","city":"京都市中京区","address":"天性寺前町"},
{"zip_code":"6048221","kana_pref":"ｷｮｳﾄﾌ","kana_city":"ｷｮｳﾄｼﾅｶｷﾞｮｳｸ","kana_address":"ﾃﾝｼﾞﾝﾔﾏﾁｮｳ","pref":"京都府","city":"京都市中京区","address":"天神山町"},
{"zip_code":"6040956","kana_pref":"ｷｮｳﾄﾌ","kana_city":"ｷｮｳﾄｼﾅｶｷﾞｮｳｸ","kana_address":"ﾄｳｼﾞｼﾞﾁｮｳ","pref":"京都府","city":"京都市中京区","address":"等持寺町"},
{"zip_code":"6040001","kana_pref":"ｷｮｳﾄﾌ","kana_city":"ｷｮｳﾄｼﾅｶｷﾞｮｳｸ","kana_address":"ﾄﾞｳｼﾞｮｳﾁｮｳ","pref":"京都府","city":"京都市中京区","address":"道場町"},
{"zip_code":"6048134","kana_pref":"ｷｮｳﾄﾌ","kana_city":"ｷｮｳﾄｼﾅｶｷﾞｮｳｸ","kana_address":"ﾄﾞｳﾉﾏｴﾁｮｳ","pref":"京都府","city":"京都市中京区","address":"堂之前町"},
{"zip_code":"6048118","kana_pref":"ｷｮｳﾄﾌ","kana_city":"ｷｮｳﾄｼﾅｶｷﾞｮｳｸ","kana_address":"ﾄﾞｳﾕｳﾁｮｳ","pref":"京都府","city":"京都市中京区","address":"道祐町"},
{"zip_code":"6048225","kana_pref":"ｷｮｳﾄﾌ","kana_city":"ｷｮｳﾄｼﾅｶｷﾞｮｳｸ","kana_address":"ﾄｳﾛｳﾔﾏﾁｮｳ","pref":"京都府","city":"京都市中京区","address":"蟷螂山町"},
{"zip_code":"6040915","kana_pref":"ｷｮｳﾄﾌ","kana_city":"ｷｮｳﾄｼﾅｶｷﾞｮｳｸ","kana_address":"ﾄｷﾜｷﾞﾁｮｳ","pref":"京都府","city":"京都市中京区","address":"常盤木町"},
{"zip_code":"6040863","kana_pref":"ｷｮｳﾄﾌ","kana_city":"ｷｮｳﾄｼﾅｶｷﾞｮｳｸ","kana_address":"ﾄﾓｴﾁｮｳ","pref":"京都府","city":"京都市中京区","address":"巴町"},
{"zip_code":"6040955","kana_pref":"ｷｮｳﾄﾌ","kana_city":"ｷｮｳﾄｼﾅｶｷﾞｮｳｸ","kana_address":"ﾄﾗｲｼﾁｮｳ","pref":"京都府","city":"京都市中京区","address":"虎石町"},
{"zip_code":"6048171","kana_pref":"ｷｮｳﾄﾌ","kana_city":"ｷｮｳﾄｼﾅｶｷﾞｮｳｸ","kana_address":"ﾄﾗﾔﾁｮｳ","pref":"京都府","city":"京都市中京区","address":"虎屋町"},
{"zip_code":"6048184","kana_pref":"ｷｮｳﾄﾌ","kana_city":"ｷｮｳﾄｼﾅｶｷﾞｮｳｸ","kana_address":"ﾄﾞﾝｹﾞｲﾝﾏｴﾁｮｳ","pref":"京都府","city":"京都市中京区","address":"曇華院前町"},
{"zip_code":"6048125","kana_pref":"ｷｮｳﾄﾌ","kana_city":"ｷｮｳﾄｼﾅｶｷﾞｮｳｸ","kana_address":"ﾅｶｳｵﾔﾁｮｳ","pref":"京都府","city":"京都市中京区","address":"中魚屋町"},
{"zip_code":"6048004","kana_pref":"ｷｮｳﾄﾌ","kana_city":"ｷｮｳﾄｼﾅｶｷﾞｮｳｸ","kana_address":"ﾅｶｼﾞﾏﾁｮｳ","pref":"京都府","city":"京都市中京区","address":"中島町"},
{"zip_code":"6048047","kana_pref":"ｷｮｳﾄﾌ","kana_city":"ｷｮｳﾄｼﾅｶｷﾞｮｳｸ","kana_address":"ﾅｶｽｼﾞﾁｮｳ","pref":"京都府","city":"京都市中京区","address":"中筋町"},
{"zip_code":"6040032","kana_pref":"ｷｮｳﾄﾌ","kana_city":"ｷｮｳﾄｼﾅｶｷﾞｮｳｸ","kana_address":"ﾅｶﾉﾁｮｳ","pref":"京都府","city":"京都市中京区","address":"中之町"},
{"zip_code":"6040086","kana_pref":"ｷｮｳﾄﾌ","kana_city":"ｷｮｳﾄｼﾅｶｷﾞｮｳｸ","kana_address":"ﾅｶﾉﾁｮｳ","pref":"京都府","city":"京都市中京区","address":"中之町"},
{"zip_code":"6048042","kana_pref":"ｷｮｳﾄﾌ","kana_city":"ｷｮｳﾄｼﾅｶｷﾞｮｳｸ","kana_address":"ﾅｶﾉﾁｮｳ","pref":"京都府","city":"京都市中京区","address":"中之町"},
{"zip_code":"6048083","kana_pref":"ｷｮｳﾄﾌ","kana_city":"ｷｮｳﾄｼﾅｶｷﾞｮｳｸ","kana_address":"ﾅｶﾉﾁｮｳ","pref":"京都府","city":"京都市中京区","address":"中之町（三条通麩屋町西入"},
{"zip_code":"6048083","kana_pref":"ｷｮｳﾄﾌ","kana_city":"ｷｮｳﾄｼﾅｶｷﾞｮｳｸ","kana_address":"ﾅｶﾉﾁｮｳ","pref":"京都府","city":"京都市中京区","address":"三条通富小路西入"},
{"zip_code":"6048083","kana_pref":"ｷｮｳﾄﾌ","kana_city":"ｷｮｳﾄｼﾅｶｷﾞｮｳｸ","kana_address":"ﾅｶﾉﾁｮｳ","pref":"京都府","city":"京都市中京区","address":"三条通富小路東入"},
{"zip_code":"6048083","kana_pref":"ｷｮｳﾄﾌ","kana_city":"ｷｮｳﾄｼﾅｶｷﾞｮｳｸ","kana_address":"ﾅｶﾉﾁｮｳ","pref":"京都府","city":"京都市中京区","address":"三条通柳"},
{"zip_code":"6048083","kana_pref":"ｷｮｳﾄﾌ","kana_city":"ｷｮｳﾄｼﾅｶｷﾞｮｳｸ","kana_address":"ﾅｶﾉﾁｮｳ","pref":"京都府","city":"京都市中京区","address":"馬場東入"},
{"zip_code":"6048083","kana_pref":"ｷｮｳﾄﾌ","kana_city":"ｷｮｳﾄｼﾅｶｷﾞｮｳｸ","kana_address":"ﾅｶﾉﾁｮｳ","pref":"京都府","city":"京都市中京区","address":"富小路通三条下る）"},
{"zip_code":"6048094","kana_pref":"ｷｮｳﾄﾌ","kana_city":"ｷｮｳﾄｼﾅｶｷﾞｮｳｸ","kana_address":"ﾅｶﾊｸｻﾝﾁｮｳ","pref":"京都府","city":"京都市中京区","address":"中白山町"},
{"zip_code":"6048201","kana_pref":"ｷｮｳﾄﾌ","kana_city":"ｷｮｳﾄｼﾅｶｷﾞｮｳｸ","kana_address":"ﾅｶﾞﾊﾏﾁｮｳ","pref":"京都府","city":"京都市中京区","address":"長浜町"},
{"zip_code":"6040844","kana_pref":"ｷｮｳﾄﾌ","kana_city":"ｷｮｳﾄｼﾅｶｷﾞｮｳｸ","kana_address":"ﾅｶﾎﾘﾁｮｳ","pref":"京都府","city":"京都市中京区","address":"仲保利町"},
{"zip_code":"6040076","kana_pref":"ｷｮｳﾄﾌ","kana_city":"ｷｮｳﾄｼﾅｶｷﾞｮｳｸ","kana_address":"ﾅﾅﾁｮｳﾒ","pref":"京都府","city":"京都市中京区","address":"七町目"},
{"zip_code":"6048015","kana_pref":"ｷｮｳﾄﾌ","kana_city":"ｷｮｳﾄｼﾅｶｷﾞｮｳｸ","kana_address":"ﾅﾍﾞﾔﾁｮｳ","pref":"京都府","city":"京都市中京区","address":"鍋屋町"},
{"zip_code":"6048033","kana_pref":"ｷｮｳﾄﾌ","kana_city":"ｷｮｳﾄｼﾅｶｷﾞｮｳｸ","kana_address":"ﾅﾗﾔﾁｮｳ","pref":"京都府","city":"京都市中京区","address":"奈良屋町"},
{"zip_code":"6040854","kana_pref":"ｷｮｳﾄﾌ","kana_city":"ｷｮｳﾄｼﾅｶｷﾞｮｳｸ","kana_address":"ﾆｵｳﾓﾝﾁｮｳ","pref":"京都府","city":"京都市中京区","address":"仁王門町"},
{"zip_code":"6040841","kana_pref":"ｷｮｳﾄﾌ","kana_city":"ｷｮｳﾄｼﾅｶｷﾞｮｳｸ","kana_address":"ﾆｵｳﾓﾝﾂｷﾇｹﾁｮｳ","pref":"京都府","city":"京都市中京区","address":"仁王門突抜町"},
{"zip_code":"6040921","kana_pref":"ｷｮｳﾄﾌ","kana_city":"ｷｮｳﾄｼﾅｶｷﾞｮｳｸ","kana_address":"ﾆｼｲｹｽﾁｮｳ","pref":"京都府","city":"京都市中京区","address":"西生洲町"},
{"zip_code":"6048142","kana_pref":"ｷｮｳﾄﾌ","kana_city":"ｷｮｳﾄｼﾅｶｷﾞｮｳｸ","kana_address":"ﾆｼｳｵﾔﾁｮｳ","pref":"京都府","city":"京都市中京区","address":"西魚屋町"},
{"zip_code":"6040073","kana_pref":"ｷｮｳﾄﾌ","kana_city":"ｷｮｳﾄｼﾅｶｷﾞｮｳｸ","kana_address":"ﾆｼｴﾋﾞｽｶﾞﾜﾁｮｳ","pref":"京都府","city":"京都市中京区","address":"西夷川町"},
{"zip_code":"6040842","kana_pref":"ｷｮｳﾄﾌ","kana_city":"ｷｮｳﾄｼﾅｶｷﾞｮｳｸ","kana_address":"ﾆｼｵｼｺｳｼﾞﾁｮｳ","pref":"京都府","city":"京都市中京区","address":"西押小路町"},
{"zip_code":"6048363","kana_pref":"ｷｮｳﾄﾌ","kana_city":"ｷｮｳﾄｼﾅｶｷﾞｮｳｸ","kana_address":"ﾆｼｷｲﾉｸﾏﾁｮｳ","pref":"京都府","city":"京都市中京区","address":"錦猪熊町"},
{"zip_code":"6048365","kana_pref":"ｷｮｳﾄﾌ","kana_city":"ｷｮｳﾄｼﾅｶｷﾞｮｳｸ","kana_address":"ﾆｼｷｵｵﾐﾔﾁｮｳ","pref":"京都府","city":"京都市中京区","address":"錦大宮町"},
{"zip_code":"6048235","kana_pref":"ｷｮｳﾄﾌ","kana_city":"ｷｮｳﾄｼﾅｶｷﾞｮｳｸ","kana_address":"ﾆｼｷﾎﾘｶﾜﾁｮｳ","pref":"京都府","city":"京都市中京区","address":"錦堀川町"},
{"zip_code":"6040851","kana_pref":"ｷｮｳﾄﾌ","kana_city":"ｷｮｳﾄｼﾅｶｷﾞｮｳｸ","kana_address":"ﾆｼｷｭｳｹﾝﾁｮｳ","pref":"京都府","city":"京都市中京区","address":"西九軒町"},
{"zip_code":"6040904","kana_pref":"ｷｮｳﾄﾌ","kana_city":"ｷｮｳﾄｼﾅｶｷﾞｮｳｸ","kana_address":"ﾆｼｺｳﾄﾞｳﾁｮｳ","pref":"京都府","city":"京都市中京区","address":"西革堂町"},
{"zip_code":"6048265","kana_pref":"ｷｮｳﾄﾌ","kana_city":"ｷｮｳﾄｼﾅｶｷﾞｮｳｸ","kana_address":"ﾆｼｻﾝﾎﾞｳﾎﾘｶﾜﾁｮｳ","pref":"京都府","city":"京都市中京区","address":"西三坊堀川町"},
{"zip_code":"6040063","kana_pref":"ｷｮｳﾄﾌ","kana_city":"ｷｮｳﾄｼﾅｶｷﾞｮｳｸ","kana_address":"ﾆｼﾀﾞｲｺｸﾁｮｳ","pref":"京都府","city":"京都市中京区","address":"西大黒町"},
{"zip_code":"6048054","kana_pref":"ｷｮｳﾄﾌ","kana_city":"ｷｮｳﾄｼﾅｶｷﾞｮｳｸ","kana_address":"ﾆｼﾀﾞｲﾓﾝｼﾞﾁｮｳ","pref":"京都府","city":"京都市中京区","address":"西大文字町"},
{"zip_code":"6040075","kana_pref":"ｷｮｳﾄﾌ","kana_city":"ｷｮｳﾄｼﾅｶｷﾞｮｳｸ","kana_address":"ﾆｼﾀｹﾔﾁｮｳ","pref":"京都府","city":"京都市中京区","address":"西竹屋町"},
{"zip_code":"6048226","kana_pref":"ｷｮｳﾄﾌ","kana_city":"ｷｮｳﾄｼﾅｶｷﾞｮｳｸ","kana_address":"ﾆｼﾆｼｷｺｳｼﾞﾁｮｳ","pref":"京都府","city":"京都市中京区","address":"西錦小路町"},
{"zip_code":"6048375","kana_pref":"ｷｮｳﾄﾌ","kana_city":"ｷｮｳﾄｼﾅｶｷﾞｮｳｸ","kana_address":"ﾆｼﾉｷｮｳｲｹﾉｳﾁﾁｮｳ","pref":"京都府","city":"京都市中京区","address":"西ノ京池ノ内町"},
{"zip_code":"6048417","kana_pref":"ｷｮｳﾄﾌ","kana_city":"ｷｮｳﾄｼﾅｶｷﾞｮｳｸ","kana_address":"ﾆｼﾉｷｮｳｳﾁﾊﾀﾁｮｳ","pref":"京都府","city":"京都市中京区","address":"西ノ京内畑町"},
{"zip_code":"6048492","kana_pref":"ｷｮｳﾄﾌ","kana_city":"ｷｮｳﾄｼﾅｶｷﾞｮｳｸ","kana_address":"ﾆｼﾉｷｮｳｳﾏﾘｮｳﾁｮｳ","pref":"京都府","city":"京都市中京区","address":"西ノ京右馬寮町"},
{"zip_code":"6048463","kana_pref":"ｷｮｳﾄﾌ","kana_city":"ｷｮｳﾄｼﾅｶｷﾞｮｳｸ","kana_address":"ﾆｼﾉｷｮｳｴﾝﾏﾁ","pref":"京都府","city":"京都市中京区","address":"西ノ京円町"},
{"zip_code":"6048467","kana_pref":"ｷｮｳﾄﾌ","kana_city":"ｷｮｳﾄｼﾅｶｷﾞｮｳｸ","kana_address":"ﾆｼﾉｷｮｳｵｵｲｺﾞﾓﾝﾁｮｳ","pref":"京都府","city":"京都市中京区","address":"西ノ京大炊御門町"},
{"zip_code":"6048414","kana_pref":"ｷｮｳﾄﾌ","kana_city":"ｷｮｳﾄｼﾅｶｷﾞｮｳｸ","kana_address":"ﾆｼﾉｷｮｳｵｸﾞﾗﾁｮｳ","pref":"京都府","city":"京都市中京区","address":"西ノ京小倉町"},
{"zip_code":"6048482","kana_pref":"ｷｮｳﾄﾌ","kana_city":"ｷｮｳﾄｼﾅｶｷﾞｮｳｸ","kana_address":"ﾆｼﾉｷｮｳｶｻﾄﾞﾉﾁｮｳ","pref":"京都府","city":"京都市中京区","address":"西ノ京笠殿町"},
{"zip_code":"6048453","kana_pref":"ｷｮｳﾄﾌ","kana_city":"ｷｮｳﾄｼﾅｶｷﾞｮｳｸ","kana_address":"ﾆｼﾉｷｮｳｶｽｶﾞﾁｮｳ","pref":"京都府","city":"京都市中京区","address":"西ノ京春日町"},
{"zip_code":"6048484","kana_pref":"ｷｮｳﾄﾌ","kana_city":"ｷｮｳﾄｼﾅｶｷﾞｮｳｸ","kana_address":"ﾆｼﾉｷｮｳｶﾐｱｲﾁｮｳ","pref":"京都府","city":"京都市中京区","address":"西ノ京上合町"},
{"zip_code":"6048494","kana_pref":"ｷｮｳﾄﾌ","kana_city":"ｷｮｳﾄｼﾅｶｷﾞｮｳｸ","kana_address":"ﾆｼﾉｷｮｳｶﾐﾋﾗﾁｮｳ","pref":"京都府","city":"京都市中京区","address":"西ノ京上平町"},
{"zip_code":"6048413","kana_pref":"ｷｮｳﾄﾌ","kana_city":"ｷｮｳﾄｼﾅｶｷﾞｮｳｸ","kana_address":"ﾆｼﾉｷｮｳｶﾝｶﾞｸｲﾝﾁｮｳ","pref":"京都府","city":"京都市中京区","address":"西ノ京勧学院町"},
{"zip_code":"6048462","kana_pref":"ｷｮｳﾄﾌ","kana_city":"ｷｮｳﾄｼﾅｶｷﾞｮｳｸ","kana_address":"ﾆｼﾉｷｮｳｷﾀｴﾝﾏﾁ","pref":"京都府","city":"京都市中京区","address":"西ノ京北円町"},
{"zip_code":"6048433","kana_pref":"ｷｮｳﾄﾌ","kana_city":"ｷｮｳﾄｼﾅｶｷﾞｮｳｸ","kana_address":"ﾆｼﾉｷｮｳｷﾀｺｳｼﾞﾁｮｳ","pref":"京都府","city":"京都市中京区","address":"西ノ京北小路町"},
{"zip_code":"6048472","kana_pref":"ｷｮｳﾄﾌ","kana_city":"ｷｮｳﾄｼﾅｶｷﾞｮｳｸ","kana_address":"ﾆｼﾉｷｮｳｷﾀﾂﾎﾞｲﾁｮｳ","pref":"京都府","city":"京都市中京区","address":"西ノ京北壺井町"},
{"zip_code":"6048405","kana_pref":"ｷｮｳﾄﾌ","kana_city":"ｷｮｳﾄｼﾅｶｷﾞｮｳｸ","kana_address":"ﾆｼﾉｷｮｳｸﾙﾏｻﾞｶﾁｮｳ","pref":"京都府","city":"京都市中京区","address":"西ノ京車坂町"},
{"zip_code":"6048442","kana_pref":"ｷｮｳﾄﾌ","kana_city":"ｷｮｳﾄｼﾅｶｷﾞｮｳｸ","kana_address":"ﾆｼﾉｷｮｳｸﾜﾊﾞﾗﾁｮｳ","pref":"京都府","city":"京都市中京区","address":"西ノ京桑原町"},
{"zip_code":"6048454","kana_pref":"ｷｮｳﾄﾌ","kana_city":"ｷｮｳﾄｼﾅｶｷﾞｮｳｸ","kana_address":"ﾆｼﾉｷｮｳｺﾎﾞﾘｲｹﾁｮｳ","pref":"京都府","city":"京都市中京区","address":"西ノ京小堀池町"},
{"zip_code":"6048383","kana_pref":"ｷｮｳﾄﾌ","kana_city":"ｷｮｳﾄｼﾅｶｷﾞｮｳｸ","kana_address":"ﾆｼﾉｷｮｳｺﾎﾞﾘﾁｮｳ","pref":"京都府","city":"京都市中京区","address":"西ノ京小堀町"},
{"zip_code":"6048491","kana_pref":"ｷｮｳﾄﾌ","kana_city":"ｷｮｳﾄｼﾅｶｷﾞｮｳｸ","kana_address":"ﾆｼﾉｷｮｳｻﾏﾘｮｳﾁｮｳ","pref":"京都府","city":"京都市中京区","address":"西ノ京左馬寮町"},
{"zip_code":"6048435","kana_pref":"ｷｮｳﾄﾌ","kana_city":"ｷｮｳﾄｼﾅｶｷﾞｮｳｸ","kana_address":"ﾆｼﾉｷｮｳｻﾝｼﾞｮｳﾎﾞｳﾁｮｳ","pref":"京都府","city":"京都市中京区","address":"西ノ京三条坊町"},
{"zip_code":"6048496","kana_pref":"ｷｮｳﾄﾌ","kana_city":"ｷｮｳﾄｼﾅｶｷﾞｮｳｸ","kana_address":"ﾆｼﾉｷｮｳｼｶｶﾞｷﾁｮｳ","pref":"京都府","city":"京都市中京区","address":"西ノ京鹿垣町"},
{"zip_code":"6048384","kana_pref":"ｷｮｳﾄﾌ","kana_city":"ｷｮｳﾄｼﾅｶｷﾞｮｳｸ","kana_address":"ﾆｼﾉｷｮｳｼｷﾌﾞﾁｮｳ","pref":"京都府","city":"京都市中京区","address":"西ノ京式部町"},
{"zip_code":"6048443","kana_pref":"ｷｮｳﾄﾌ","kana_city":"ｷｮｳﾄｼﾅｶｷﾞｮｳｸ","kana_address":"ﾆｼﾉｷｮｳｼﾏﾉｳﾁﾁｮｳ","pref":"京都府","city":"京都市中京区","address":"西ノ京島ノ内町"},
{"zip_code":"6048436","kana_pref":"ｷｮｳﾄﾌ","kana_city":"ｷｮｳﾄｼﾅｶｷﾞｮｳｸ","kana_address":"ﾆｼﾉｷｮｳｼﾓｱｲﾁｮｳ","pref":"京都府","city":"京都市中京区","address":"西ノ京下合町"},
{"zip_code":"6048381","kana_pref":"ｷｮｳﾄﾌ","kana_city":"ｷｮｳﾄｼﾅｶｷﾞｮｳｸ","kana_address":"ﾆｼﾉｷｮｳｼｮｸｼﾁｮｳ","pref":"京都府","city":"京都市中京区","address":"西ノ京職司町"},
{"zip_code":"6048434","kana_pref":"ｷｮｳﾄﾌ","kana_city":"ｷｮｳﾄｼﾅｶｷﾞｮｳｸ","kana_address":"ﾆｼﾉｷｮｳｼﾝﾀﾞﾃﾁｮｳ","pref":"京都府","city":"京都市中京区","address":"西ノ京新建町"},
{"zip_code":"6048474","kana_pref":"ｷｮｳﾄﾌ","kana_city":"ｷｮｳﾄｼﾅｶｷﾞｮｳｸ","kana_address":"ﾆｼﾉｷｮｳﾂｶﾓﾄﾁｮｳ","pref":"京都府","city":"京都市中京区","address":"西ノ京塚本町"},
{"zip_code":"6048444","kana_pref":"ｷｮｳﾄﾌ","kana_city":"ｷｮｳﾄｼﾅｶｷﾞｮｳｸ","kana_address":"ﾆｼﾉｷｮｳﾂｷﾉﾜﾁｮｳ","pref":"京都府","city":"京都市中京区","address":"西ノ京月輪町"},
{"zip_code":"6048456","kana_pref":"ｷｮｳﾄﾌ","kana_city":"ｷｮｳﾄｼﾅｶｷﾞｮｳｸ","kana_address":"ﾆｼﾉｷｮｳﾂﾎﾞﾉｳﾁﾁｮｳ","pref":"京都府","city":"京都市中京区","address":"西ノ京壺ノ内町"},
{"zip_code":"6048425","kana_pref":"ｷｮｳﾄﾌ","kana_city":"ｷｮｳﾄｼﾅｶｷﾞｮｳｸ","kana_address":"ﾆｼﾉｷｮｳﾄﾞｳﾀﾞﾁｮｳ","pref":"京都府","city":"京都市中京区","address":"西ノ京銅駝町"},
{"zip_code":"6048415","kana_pref":"ｷｮｳﾄﾌ","kana_city":"ｷｮｳﾄｼﾅｶｷﾞｮｳｸ","kana_address":"ﾆｼﾉｷｮｳﾄｶﾞﾉｵﾁｮｳ","pref":"京都府","city":"京都市中京区","address":"西ノ京栂尾町"},
{"zip_code":"6048445","kana_pref":"ｷｮｳﾄﾌ","kana_city":"ｷｮｳﾄｼﾅｶｷﾞｮｳｸ","kana_address":"ﾆｼﾉｷｮｳﾄｸﾀﾞｲｼﾞﾁｮｳ","pref":"京都府","city":"京都市中京区","address":"西ノ京徳大寺町"},
{"zip_code":"6048461","kana_pref":"ｷｮｳﾄﾌ","kana_city":"ｷｮｳﾄｼﾅｶｷﾞｮｳｸ","kana_address":"ﾆｼﾉｷｮｳﾅｶﾎﾁｮｳ","pref":"京都府","city":"京都市中京区","address":"西ノ京中保町"},
{"zip_code":"6048475","kana_pref":"ｷｮｳﾄﾌ","kana_city":"ｷｮｳﾄｼﾅｶｷﾞｮｳｸ","kana_address":"ﾆｼﾉｷｮｳﾅｶﾐｶﾄﾞﾆｼﾏﾁ","pref":"京都府","city":"京都市中京区","address":"西ノ京中御門西町"},
{"zip_code":"6048471","kana_pref":"ｷｮｳﾄﾌ","kana_city":"ｷｮｳﾄｼﾅｶｷﾞｮｳｸ","kana_address":"ﾆｼﾉｷｮｳﾅｶﾐｶﾄﾞﾋｶﾞｼﾏﾁ","pref":"京都府","city":"京都市中京区","address":"西ノ京中御門東町"},
{"zip_code":"6048421","kana_pref":"ｷｮｳﾄﾌ","kana_city":"ｷｮｳﾄｼﾅｶｷﾞｮｳｸ","kana_address":"ﾆｼﾉｷｮｳﾅｶﾞﾓﾄﾁｮｳ","pref":"京都府","city":"京都市中京区","address":"西ノ京永本町"},
{"zip_code":"6048412","kana_pref":"ｷｮｳﾄﾌ","kana_city":"ｷｮｳﾄｼﾅｶｷﾞｮｳｸ","kana_address":"ﾆｼﾉｷｮｳﾅﾝｾｲﾁｮｳ","pref":"京都府","city":"京都市中京区","address":"西ノ京南聖町"},
{"zip_code":"6048465","kana_pref":"ｷｮｳﾄﾌ","kana_city":"ｷｮｳﾄｼﾅｶｷﾞｮｳｸ","kana_address":"ﾆｼﾉｷｮｳﾆｼｴﾝﾏﾁ","pref":"京都府","city":"京都市中京区","address":"西ノ京西円町"},
{"zip_code":"6048423","kana_pref":"ｷｮｳﾄﾌ","kana_city":"ｷｮｳﾄｼﾅｶｷﾞｮｳｸ","kana_address":"ﾆｼﾉｷｮｳﾆｼｹﾞﾂｺｳﾁｮｳ","pref":"京都府","city":"京都市中京区","address":"西ノ京西月光町"},
{"zip_code":"6048495","kana_pref":"ｷｮｳﾄﾌ","kana_city":"ｷｮｳﾄｼﾅｶｷﾞｮｳｸ","kana_address":"ﾆｼﾉｷｮｳﾆｼｼｶｶﾞｷﾁｮｳ","pref":"京都府","city":"京都市中京区","address":"西ノ京西鹿垣町"},
{"zip_code":"6048441","kana_pref":"ｷｮｳﾄﾌ","kana_city":"ｷｮｳﾄｼﾅｶｷﾞｮｳｸ","kana_address":"ﾆｼﾉｷｮｳﾆｼﾅｶｱｲﾁｮｳ","pref":"京都府","city":"京都市中京区","address":"西ノ京西中合町"},
{"zip_code":"6048452","kana_pref":"ｷｮｳﾄﾌ","kana_city":"ｷｮｳﾄｼﾅｶｷﾞｮｳｸ","kana_address":"ﾆｼﾉｷｮｳﾊｸﾗｸﾁｮｳ","pref":"京都府","city":"京都市中京区","address":"西ノ京伯楽町"},
{"zip_code":"6048457","kana_pref":"ｷｮｳﾄﾌ","kana_city":"ｷｮｳﾄｼﾅｶｷﾞｮｳｸ","kana_address":"ﾆｼﾉｷｮｳﾊﾞﾀﾞｲﾁｮｳ","pref":"京都府","city":"京都市中京区","address":"西ノ京馬代町"},
{"zip_code":"6048431","kana_pref":"ｷｮｳﾄﾌ","kana_city":"ｷｮｳﾄｼﾅｶｷﾞｮｳｸ","kana_address":"ﾆｼﾉｷｮｳﾊﾗﾏﾁ","pref":"京都府","city":"京都市中京区","address":"西ノ京原町"},
{"zip_code":"6048446","kana_pref":"ｷｮｳﾄﾌ","kana_city":"ｷｮｳﾄｼﾅｶｷﾞｮｳｸ","kana_address":"ﾆｼﾉｷｮｳﾋｵｳｷﾞﾁｮｳ","pref":"京都府","city":"京都市中京区","address":"西ノ京日扇町"},
{"zip_code":"6048422","kana_pref":"ｷｮｳﾄﾌ","kana_city":"ｷｮｳﾄｼﾅｶｷﾞｮｳｸ","kana_address":"ﾆｼﾉｷｮｳﾋｶﾞｼｹﾞｯｺｳﾁｮｳ","pref":"京都府","city":"京都市中京区","address":"西ノ京東月光町"},
{"zip_code":"6048437","kana_pref":"ｷｮｳﾄﾌ","kana_city":"ｷｮｳﾄｼﾅｶｷﾞｮｳｸ","kana_address":"ﾆｼﾉｷｮｳﾋｶﾞｼﾅｶｱｲﾁｮｳ","pref":"京都府","city":"京都市中京区","address":"西ノ京東中合町"},
{"zip_code":"6048424","kana_pref":"ｷｮｳﾄﾌ","kana_city":"ｷｮｳﾄｼﾅｶｷﾞｮｳｸ","kana_address":"ﾆｼﾉｷｮｳﾋﾉｸﾁﾁｮｳ","pref":"京都府","city":"京都市中京区","address":"西ノ京樋ノ口町"},
{"zip_code":"6048485","kana_pref":"ｷｮｳﾄﾌ","kana_city":"ｷｮｳﾄｼﾅｶｷﾞｮｳｸ","kana_address":"ﾆｼﾉｷｮｳﾋﾗﾏﾁ","pref":"京都府","city":"京都市中京区","address":"西ノ京平町"},
{"zip_code":"6048455","kana_pref":"ｷｮｳﾄﾌ","kana_city":"ｷｮｳﾄｼﾅｶｷﾞｮｳｸ","kana_address":"ﾆｼﾉｷｮｳﾌｼﾞﾉｷﾁｮｳ","pref":"京都府","city":"京都市中京区","address":"西ノ京藤ノ木町"},
{"zip_code":"6048426","kana_pref":"ｷｮｳﾄﾌ","kana_city":"ｷｮｳﾄｼﾅｶｷﾞｮｳｸ","kana_address":"ﾆｼﾉｷｮｳﾌﾅﾂﾞｶﾁｮｳ","pref":"京都府","city":"京都市中京区","address":"西ノ京船塚町"},
{"zip_code":"6048382","kana_pref":"ｷｮｳﾄﾌ","kana_city":"ｷｮｳﾄｼﾅｶｷﾞｮｳｸ","kana_address":"ﾆｼﾉｷｮｳﾎｸｾｲﾁｮｳ","pref":"京都府","city":"京都市中京区","address":"西ノ京北聖町"},
{"zip_code":"6048416","kana_pref":"ｷｮｳﾄﾌ","kana_city":"ｷｮｳﾄｼﾅｶｷﾞｮｳｸ","kana_address":"ﾆｼﾉｷｮｳﾎｼｶﾞｲｹﾁｮｳ","pref":"京都府","city":"京都市中京区","address":"西ノ京星池町"},
{"zip_code":"6048451","kana_pref":"ｷｮｳﾄﾌ","kana_city":"ｷｮｳﾄｼﾅｶｷﾞｮｳｸ","kana_address":"ﾆｼﾉｷｮｳﾐｺｼｶﾞｵｶﾁｮｳ","pref":"京都府","city":"京都市中京区","address":"西ノ京御輿岡町"},
{"zip_code":"6048464","kana_pref":"ｷｮｳﾄﾌ","kana_city":"ｷｮｳﾄｼﾅｶｷﾞｮｳｸ","kana_address":"ﾆｼﾉｷｮｳﾐﾅﾐｴﾝﾏﾁ","pref":"京都府","city":"京都市中京区","address":"西ノ京南円町"},
{"zip_code":"6048466","kana_pref":"ｷｮｳﾄﾌ","kana_city":"ｷｮｳﾄｼﾅｶｷﾞｮｳｸ","kana_address":"ﾆｼﾉｷｮｳﾐﾅﾐｵｵｲｺﾞﾓﾝﾁｮｳ","pref":"京都府","city":"京都市中京区","address":"西ノ京南大炊御門町"},
{"zip_code":"6048483","kana_pref":"ｷｮｳﾄﾌ","kana_city":"ｷｮｳﾄｼﾅｶｷﾞｮｳｸ","kana_address":"ﾆｼﾉｷｮｳﾐﾅﾐｶﾐｱｲﾁｮｳ","pref":"京都府","city":"京都市中京区","address":"西ノ京南上合町"},
{"zip_code":"6048473","kana_pref":"ｷｮｳﾄﾌ","kana_city":"ｷｮｳﾄｼﾅｶｷﾞｮｳｸ","kana_address":"ﾆｼﾉｷｮｳﾐﾅﾐﾂﾎﾞｲﾁｮｳ","pref":"京都府","city":"京都市中京区","address":"西ノ京南壺井町"},
{"zip_code":"6048432","kana_pref":"ｷｮｳﾄﾌ","kana_city":"ｷｮｳﾄｼﾅｶｷﾞｮｳｸ","kana_address":"ﾆｼﾉｷｮｳﾐﾅﾐﾊﾗﾏﾁ","pref":"京都府","city":"京都市中京区","address":"西ノ京南原町"},
{"zip_code":"6048493","kana_pref":"ｷｮｳﾄﾌ","kana_city":"ｷｮｳﾄｼﾅｶｷﾞｮｳｸ","kana_address":"ﾆｼﾉｷｮｳﾐﾅﾐﾘｮｳﾏﾁ","pref":"京都府","city":"京都市中京区","address":"西ノ京南両町"},
{"zip_code":"6048497","kana_pref":"ｷｮｳﾄﾌ","kana_city":"ｷｮｳﾄｼﾅｶｷﾞｮｳｸ","kana_address":"ﾆｼﾉｷｮｳﾘｮｳﾏﾁ","pref":"京都府","city":"京都市中京区","address":"西ノ京両町"},
{"zip_code":"6048481","kana_pref":"ｷｮｳﾄﾌ","kana_city":"ｷｮｳﾄｼﾅｶｷﾞｮｳｸ","kana_address":"ﾆｼﾉｷｮｳﾚｲｾﾝﾁｮｳ","pref":"京都府","city":"京都市中京区","address":"西ノ京冷泉町"},
{"zip_code":"6040051","kana_pref":"ｷｮｳﾄﾌ","kana_city":"ｷｮｳﾄｼﾅｶｷﾞｮｳｸ","kana_address":"ﾆｼﾞｮｳｱﾌﾞﾗﾉｺｳｼﾞﾁｮｳ","pref":"京都府","city":"京都市中京区","address":"二条油小路町"},
{"zip_code":"6040013","kana_pref":"ｷｮｳﾄﾌ","kana_city":"ｷｮｳﾄｼﾅｶｷﾞｮｳｸ","kana_address":"ﾆｼﾞｮｳｼﾝﾁｮｳ","pref":"京都府","city":"京都市中京区","address":"二条新町"},
{"zip_code":"6048301","kana_pref":"ｷｮｳﾄﾌ","kana_city":"ｷｮｳﾄｼﾅｶｷﾞｮｳｸ","kana_address":"ﾆｼﾞｮｳｼﾞｮｳﾁｮｳ","pref":"京都府","city":"京都市中京区","address":"二条城町"},
{"zip_code":"6040845","kana_pref":"ｷｮｳﾄﾌ","kana_city":"ｷｮｳﾄｼﾅｶｷﾞｮｳｸ","kana_address":"ﾆｼﾞｮｳﾃﾞﾝﾁｮｳ","pref":"京都府","city":"京都市中京区","address":"二条殿町"},
{"zip_code":"6040041","kana_pref":"ｷｮｳﾄﾌ","kana_city":"ｷｮｳﾄｼﾅｶｷﾞｮｳｸ","kana_address":"ﾆｼﾞｮｳﾆｼﾉﾄｳｲﾝﾁｮｳ","pref":"京都府","city":"京都市中京区","address":"二条西洞院町"},
{"zip_code":"6040023","kana_pref":"ｷｮｳﾄﾌ","kana_city":"ｷｮｳﾄｼﾅｶｷﾞｮｳｸ","kana_address":"ﾆｼﾖｺﾁｮｳ","pref":"京都府","city":"京都市中京区","address":"西横町"},
{"zip_code":"6048217","kana_pref":"ｷｮｳﾄﾌ","kana_city":"ｷｮｳﾄｼﾅｶｷﾞｮｳｸ","kana_address":"ﾆｼﾛｯｶｸﾁｮｳ","pref":"京都府","city":"京都市中京区","address":"西六角町"},
{"zip_code":"6040843","kana_pref":"ｷｮｳﾄﾌ","kana_city":"ｷｮｳﾄｼﾅｶｷﾞｮｳｸ","kana_address":"ﾇｼﾔﾁｮｳ","pref":"京都府","city":"京都市中京区","address":"塗師屋町"},
{"zip_code":"6048257","kana_pref":"ｷｮｳﾄﾌ","kana_city":"ｷｮｳﾄｼﾅｶｷﾞｮｳｸ","kana_address":"ﾊｼｳﾗﾁｮｳ","pref":"京都府","city":"京都市中京区","address":"橋浦町"},
{"zip_code":"6048003","kana_pref":"ｷｮｳﾄﾌ","kana_city":"ｷｮｳﾄｼﾅｶｷﾞｮｳｸ","kana_address":"ﾊｼｼﾀﾁｮｳ","pref":"京都府","city":"京都市中京区","address":"橋下町"},
{"zip_code":"6048332","kana_pref":"ｷｮｳﾄﾌ","kana_city":"ｷｮｳﾄｼﾅｶｷﾞｮｳｸ","kana_address":"ﾊｼﾆｼﾁｮｳ","pref":"京都府","city":"京都市中京区","address":"橋西町"},
{"zip_code":"6040033","kana_pref":"ｷｮｳﾄﾌ","kana_city":"ｷｮｳﾄｼﾅｶｷﾞｮｳｸ","kana_address":"ﾊｼﾉﾁｮｳ","pref":"京都府","city":"京都市中京区","address":"橋之町"},
{"zip_code":"6048258","kana_pref":"ｷｮｳﾄﾌ","kana_city":"ｷｮｳﾄｼﾅｶｷﾞｮｳｸ","kana_address":"ﾊｼﾋｶﾞｼﾂﾞﾒﾁｮｳ","pref":"京都府","city":"京都市中京区","address":"橋東詰町"},
{"zip_code":"6048151","kana_pref":"ｷｮｳﾄﾌ","kana_city":"ｷｮｳﾄｼﾅｶｷﾞｮｳｸ","kana_address":"ﾊｼﾍﾞﾝｹｲﾁｮｳ","pref":"京都府","city":"京都市中京区","address":"橋弁慶町"},
{"zip_code":"6040072","kana_pref":"ｷｮｳﾄﾌ","kana_city":"ｷｮｳﾄｼﾅｶｷﾞｮｳｸ","kana_address":"ﾊｼﾓﾄﾁｮｳ","pref":"京都府","city":"京都市中京区","address":"橋本町"},
{"zip_code":"6040074","kana_pref":"ｷｮｳﾄﾌ","kana_city":"ｷｮｳﾄｼﾅｶｷﾞｮｳｸ","kana_address":"ﾊﾁﾁｮｳﾒ","pref":"京都府","city":"京都市中京区","address":"八町目"},
{"zip_code":"6040003","kana_pref":"ｷｮｳﾄﾌ","kana_city":"ｷｮｳﾄｼﾅｶｷﾞｮｳｸ","kana_address":"ﾊﾅﾀﾃﾁｮｳ","pref":"京都府","city":"京都市中京区","address":"花立町"},
{"zip_code":"6048172","kana_pref":"ｷｮｳﾄﾌ","kana_city":"ｷｮｳﾄｼﾅｶｷﾞｮｳｸ","kana_address":"ﾊﾞﾉﾁｮｳ","pref":"京都府","city":"京都市中京区","address":"場之町"},
{"zip_code":"6048143","kana_pref":"ｷｮｳﾄﾌ","kana_city":"ｷｮｳﾄｼﾅｶｷﾞｮｳｸ","kana_address":"ﾊﾞﾝﾄｳﾔﾁｮｳ","pref":"京都府","city":"京都市中京区","address":"阪東屋町"},
{"zip_code":"6040826","kana_pref":"ｷｮｳﾄﾌ","kana_city":"ｷｮｳﾄｼﾅｶｷﾞｮｳｸ","kana_address":"ﾋｲﾗｷﾞﾁｮｳ","pref":"京都府","city":"京都市中京区","address":"柊町"},
{"zip_code":"6040922","kana_pref":"ｷｮｳﾄﾌ","kana_city":"ｷｮｳﾄｼﾅｶｷﾞｮｳｸ","kana_address":"ﾋｶﾞｼｲｹｽﾁｮｳ","pref":"京都府","city":"京都市中京区","address":"東生洲町"},
{"zip_code":"6048055","kana_pref":"ｷｮｳﾄﾌ","kana_city":"ｷｮｳﾄｼﾅｶｷﾞｮｳｸ","kana_address":"ﾋｶﾞｼｳｵﾔﾁｮｳ","pref":"京都府","city":"京都市中京区","address":"東魚屋町"},
{"zip_code":"6040083","kana_pref":"ｷｮｳﾄﾌ","kana_city":"ｷｮｳﾄｼﾅｶｷﾞｮｳｸ","kana_address":"ﾋｶﾞｼｴﾋﾞｽｶﾞﾜﾁｮｳ","pref":"京都府","city":"京都市中京区","address":"東夷川町"},
{"zip_code":"6048183","kana_pref":"ｷｮｳﾄﾌ","kana_city":"ｷｮｳﾄｼﾅｶｷﾞｮｳｸ","kana_address":"ﾋｶﾞｼｶﾀﾏﾁ","pref":"京都府","city":"京都市中京区","address":"東片町"},
{"zip_code":"6048046","kana_pref":"ｷｮｳﾄﾌ","kana_city":"ｷｮｳﾄｼﾅｶｷﾞｮｳｸ","kana_address":"ﾋｶﾞｼｶﾞﾜﾁｮｳ","pref":"京都府","city":"京都市中京区","address":"東側町"},
{"zip_code":"6040852","kana_pref":"ｷｮｳﾄﾌ","kana_city":"ｷｮｳﾄｼﾅｶｷﾞｮｳｸ","kana_address":"ﾋｶﾞｼｷｭｳｹﾝﾁｮｳ","pref":"京都府","city":"京都市中京区","address":"東九軒町"},
{"zip_code":"6040906","kana_pref":"ｷｮｳﾄﾌ","kana_city":"ｷｮｳﾄｼﾅｶｷﾞｮｳｸ","kana_address":"ﾋｶﾞｼｻﾜﾗｷﾞﾁｮｳ","pref":"京都府","city":"京都市中京区","address":"東椹木町"},
{"zip_code":"6048043","kana_pref":"ｷｮｳﾄﾌ","kana_city":"ｷｮｳﾄｼﾅｶｷﾞｮｳｸ","kana_address":"ﾋｶﾞｼﾀﾞｲﾓﾝｼﾞﾁｮｳ","pref":"京都府","city":"京都市中京区","address":"東大文字町"},
{"zip_code":"6040085","kana_pref":"ｷｮｳﾄﾌ","kana_city":"ｷｮｳﾄｼﾅｶｷﾞｮｳｸ","kana_address":"ﾋｶﾞｼﾀｹﾔﾁｮｳ","pref":"京都府","city":"京都市中京区","address":"東竹屋町"},
{"zip_code":"6040855","kana_pref":"ｷｮｳﾄﾌ","kana_city":"ｷｮｳﾄｼﾅｶｷﾞｮｳｸ","kana_address":"ﾋｶﾞｼﾀﾏﾔﾁｮｳ","pref":"京都府","city":"京都市中京区","address":"東玉屋町"},
{"zip_code":"6040954","kana_pref":"ｷｮｳﾄﾌ","kana_city":"ｷｮｳﾄｼﾅｶｷﾞｮｳｸ","kana_address":"ﾋｶﾞｼﾊﾁﾏﾝﾁｮｳ","pref":"京都府","city":"京都市中京区","address":"東八幡町"},
{"zip_code":"6040876","kana_pref":"ｷｮｳﾄﾌ","kana_city":"ｷｮｳﾄｼﾅｶｷﾞｮｳｸ","kana_address":"ﾋｶﾘﾄﾞｳﾁｮｳ","pref":"京都府","city":"京都市中京区","address":"光リ堂町"},
{"zip_code":"6048131","kana_pref":"ｷｮｳﾄﾌ","kana_city":"ｷｮｳﾄｼﾅｶｷﾞｮｳｸ","kana_address":"ﾋｼﾔﾁｮｳ","pref":"京都府","city":"京都市中京区","address":"菱屋町"},
{"zip_code":"6040082","kana_pref":"ｷｮｳﾄﾌ","kana_city":"ｷｮｳﾄｼﾅｶｷﾞｮｳｸ","kana_address":"ﾋﾞｼｬﾓﾝﾁｮｳ","pref":"京都府","city":"京都市中京区","address":"毘沙門町"},
{"zip_code":"6040981","kana_pref":"ｷｮｳﾄﾌ","kana_city":"ｷｮｳﾄｼﾅｶｷﾞｮｳｸ","kana_address":"ﾋﾞｼｬﾓﾝﾁｮｳ","pref":"京都府","city":"京都市中京区","address":"毘沙門町"},
{"zip_code":"6048023","kana_pref":"ｷｮｳﾄﾌ","kana_city":"ｷｮｳﾄｼﾅｶｷﾞｮｳｸ","kana_address":"ﾋﾞｾﾞﾝｼﾞﾏﾁｮｳ","pref":"京都府","city":"京都市中京区","address":"備前島町"},
{"zip_code":"6040912","kana_pref":"ｷｮｳﾄﾌ","kana_city":"ｷｮｳﾄｼﾅｶｷﾞｮｳｸ","kana_address":"ﾋﾉｸﾁﾁｮｳ","pref":"京都府","city":"京都市中京区","address":"樋之口町"},
{"zip_code":"6048084","kana_pref":"ｷｮｳﾄﾌ","kana_city":"ｷｮｳﾄｼﾅｶｷﾞｮｳｸ","kana_address":"ﾌｸﾅｶﾞﾁｮｳ","pref":"京都府","city":"京都市中京区","address":"福長町"},
{"zip_code":"6040882","kana_pref":"ｷｮｳﾄﾌ","kana_city":"ｷｮｳﾄｼﾅｶｷﾞｮｳｸ","kana_address":"ﾌｸﾔﾁｮｳ","pref":"京都府","city":"京都市中京区","address":"福屋町"},
{"zip_code":"6048364","kana_pref":"ｷｮｳﾄﾌ","kana_city":"ｷｮｳﾄｼﾅｶｷﾞｮｳｸ","kana_address":"ﾌｼﾞｵｶﾁｮｳ","pref":"京都府","city":"京都市中京区","address":"藤岡町"},
{"zip_code":"6040992","kana_pref":"ｷｮｳﾄﾌ","kana_city":"ｷｮｳﾄｼﾅｶｷﾞｮｳｸ","kana_address":"ﾌｼﾞｷﾁｮｳ","pref":"京都府","city":"京都市中京区","address":"藤木町"},
{"zip_code":"6048234","kana_pref":"ｷｮｳﾄﾌ","kana_city":"ｷｮｳﾄｼﾅｶｷﾞｮｳｸ","kana_address":"ﾌｼﾞﾆｼﾁｮｳ","pref":"京都府","city":"京都市中京区","address":"藤西町"},
{"zip_code":"6048233","kana_pref":"ｷｮｳﾄﾌ","kana_city":"ｷｮｳﾄｼﾅｶｷﾞｮｳｸ","kana_address":"ﾌｼﾞﾓﾄﾁｮｳ","pref":"京都府","city":"京都市中京区","address":"藤本町"},
{"zip_code":"6048215","kana_pref":"ｷｮｳﾄﾌ","kana_city":"ｷｮｳﾄｼﾅｶｷﾞｮｳｸ","kana_address":"ﾌﾄﾞｳﾁｮｳ","pref":"京都府","city":"京都市中京区","address":"不動町"},
{"zip_code":"6040985","kana_pref":"ｷｮｳﾄﾌ","kana_city":"ｷｮｳﾄｼﾅｶｷﾞｮｳｸ","kana_address":"ﾌﾅﾔﾁｮｳ","pref":"京都府","city":"京都市中京区","address":"舟屋町"},
{"zip_code":"6040836","kana_pref":"ｷｮｳﾄﾌ","kana_city":"ｷｮｳﾄｼﾅｶｷﾞｮｳｸ","kana_address":"ﾌﾅﾔﾁｮｳ","pref":"京都府","city":"京都市中京区","address":"船屋町（東洞院通押小路下る"},
{"zip_code":"6040836","kana_pref":"ｷｮｳﾄﾌ","kana_city":"ｷｮｳﾄｼﾅｶｷﾞｮｳｸ","kana_address":"ﾌﾅﾔﾁｮｳ","pref":"京都府","city":"京都市中京区","address":"東洞院通御池上る"},
{"zip_code":"6040836","kana_pref":"ｷｮｳﾄﾌ","kana_city":"ｷｮｳﾄｼﾅｶｷﾞｮｳｸ","kana_address":"ﾌﾅﾔﾁｮｳ","pref":"京都府","city":"京都市中京区","address":"押小路通東洞院西入"},
{"zip_code":"6040836","kana_pref":"ｷｮｳﾄﾌ","kana_city":"ｷｮｳﾄｼﾅｶｷﾞｮｳｸ","kana_address":"ﾌﾅﾔﾁｮｳ","pref":"京都府","city":"京都市中京区","address":""},
{"zip_code":"6040836","kana_pref":"ｷｮｳﾄﾌ","kana_city":"ｷｮｳﾄｼﾅｶｷﾞｮｳｸ","kana_address":"ﾌﾅﾔﾁｮｳ","pref":"京都府","city":"京都市中京区","address":"押小路通東洞院東入）"},
{"zip_code":"6048051","kana_pref":"ｷｮｳﾄﾌ","kana_city":"ｷｮｳﾄｼﾅｶｷﾞｮｳｸ","kana_address":"ﾌﾅﾔﾁｮｳ","pref":"京都府","city":"京都市中京区","address":"船屋町"},
{"zip_code":"6040045","kana_pref":"ｷｮｳﾄﾌ","kana_city":"ｷｮｳﾄｼﾅｶｷﾞｮｳｸ","kana_address":"ﾌﾙｼﾛﾁｮｳ","pref":"京都府","city":"京都市中京区","address":"古城町"},
{"zip_code":"6048227","kana_pref":"ｷｮｳﾄﾌ","kana_city":"ｷｮｳﾄｼﾅｶｷﾞｮｳｸ","kana_address":"ﾌﾙﾆｼﾁｮｳ","pref":"京都府","city":"京都市中京区","address":"古西町"},
{"zip_code":"6040884","kana_pref":"ｷｮｳﾄﾌ","kana_city":"ｷｮｳﾄｼﾅｶｷﾞｮｳｸ","kana_address":"ﾍｲﾉｳﾁﾁｮｳ","pref":"京都府","city":"京都市中京区","address":"塀之内町"},
{"zip_code":"6048082","kana_pref":"ｷｮｳﾄﾌ","kana_city":"ｷｮｳﾄｼﾅｶｷﾞｮｳｸ","kana_address":"ﾍﾞﾝｹｲｲｼﾁｮｳ","pref":"京都府","city":"京都市中京区","address":"弁慶石町"},
{"zip_code":"6040093","kana_pref":"ｷｮｳﾄﾌ","kana_city":"ｷｮｳﾄｼﾅｶｷﾞｮｳｸ","kana_address":"ﾍﾞﾝｻﾞｲﾃﾝﾁｮｳ","pref":"京都府","city":"京都市中京区","address":"弁財天町"},
{"zip_code":"6040902","kana_pref":"ｷｮｳﾄﾌ","kana_city":"ｷｮｳﾄｼﾅｶｷﾞｮｳｸ","kana_address":"ﾎｺﾃﾞﾝﾁｮｳ","pref":"京都府","city":"京都市中京区","address":"鉾田町"},
{"zip_code":"6040963","kana_pref":"ｷｮｳﾄﾌ","kana_city":"ｷｮｳﾄｼﾅｶｷﾞｮｳｸ","kana_address":"ﾎﾃｲﾔﾁｮｳ","pref":"京都府","city":"京都市中京区","address":"布袋屋町"},
{"zip_code":"6048164","kana_pref":"ｷｮｳﾄﾌ","kana_city":"ｷｮｳﾄｼﾅｶｷﾞｮｳｸ","kana_address":"ﾎﾈﾔﾁｮｳ","pref":"京都府","city":"京都市中京区","address":"骨屋町"},
{"zip_code":"6048064","kana_pref":"ｷｮｳﾄﾌ","kana_city":"ｷｮｳﾄｼﾅｶｷﾞｮｳｸ","kana_address":"ﾎﾈﾔﾉﾁｮｳ","pref":"京都府","city":"京都市中京区","address":"骨屋之町"},
{"zip_code":"6048117","kana_pref":"ｷｮｳﾄﾌ","kana_city":"ｷｮｳﾄｼﾅｶｷﾞｮｳｸ","kana_address":"ﾎﾘﾉｳｴﾁｮｳ","pref":"京都府","city":"京都市中京区","address":"堀之上町"},
{"zip_code":"6048243","kana_pref":"ｷｮｳﾄﾌ","kana_city":"ｷｮｳﾄｼﾅｶｷﾞｮｳｸ","kana_address":"ﾎﾝﾉｳｼﾞﾁｮｳ","pref":"京都府","city":"京都市中京区","address":"本能寺町"},
{"zip_code":"6040857","kana_pref":"ｷｮｳﾄﾌ","kana_city":"ｷｮｳﾄｼﾅｶｷﾞｮｳｸ","kana_address":"ﾏｷｴﾔﾁｮｳ","pref":"京都府","city":"京都市中京区","address":"蒔絵屋町"},
{"zip_code":"6040096","kana_pref":"ｷｮｳﾄﾌ","kana_city":"ｷｮｳﾄｼﾅｶｷﾞｮｳｸ","kana_address":"ﾏｽﾔﾁｮｳ","pref":"京都府","city":"京都市中京区","address":"桝屋町"},
{"zip_code":"6040971","kana_pref":"ｷｮｳﾄﾌ","kana_city":"ｷｮｳﾄｼﾅｶｷﾞｮｳｸ","kana_address":"ﾏｽﾔﾁｮｳ","pref":"京都府","city":"京都市中京区","address":"桝屋町"},
{"zip_code":"6048053","kana_pref":"ｷｮｳﾄﾌ","kana_city":"ｷｮｳﾄｼﾅｶｷﾞｮｳｸ","kana_address":"ﾏｽﾔﾁｮｳ","pref":"京都府","city":"京都市中京区","address":"桝屋町"},
{"zip_code":"6048111","kana_pref":"ｷｮｳﾄﾌ","kana_city":"ｷｮｳﾄｼﾅｶｷﾞｮｳｸ","kana_address":"ﾏｽﾔﾁｮｳ","pref":"京都府","city":"京都市中京区","address":"桝屋町（柳馬場通三条上る"},
{"zip_code":"6048111","kana_pref":"ｷｮｳﾄﾌ","kana_city":"ｷｮｳﾄｼﾅｶｷﾞｮｳｸ","kana_address":"ﾏｽﾔﾁｮｳ","pref":"京都府","city":"京都市中京区","address":"柳馬場通三条下る"},
{"zip_code":"6048111","kana_pref":"ｷｮｳﾄﾌ","kana_city":"ｷｮｳﾄｼﾅｶｷﾞｮｳｸ","kana_address":"ﾏｽﾔﾁｮｳ","pref":"京都府","city":"京都市中京区","address":"堺町通三条上る"},
{"zip_code":"6048111","kana_pref":"ｷｮｳﾄﾌ","kana_city":"ｷｮｳﾄｼﾅｶｷﾞｮｳｸ","kana_address":"ﾏｽﾔﾁｮｳ","pref":"京都府","city":"京都市中京区","address":"堺町通三条"},
{"zip_code":"6048111","kana_pref":"ｷｮｳﾄﾌ","kana_city":"ｷｮｳﾄｼﾅｶｷﾞｮｳｸ","kana_address":"ﾏｽﾔﾁｮｳ","pref":"京都府","city":"京都市中京区","address":"下る"},
{"zip_code":"6048111","kana_pref":"ｷｮｳﾄﾌ","kana_city":"ｷｮｳﾄｼﾅｶｷﾞｮｳｸ","kana_address":"ﾏｽﾔﾁｮｳ","pref":"京都府","city":"京都市中京区","address":"高倉通三条上る"},
{"zip_code":"6048111","kana_pref":"ｷｮｳﾄﾌ","kana_city":"ｷｮｳﾄｼﾅｶｷﾞｮｳｸ","kana_address":"ﾏｽﾔﾁｮｳ","pref":"京都府","city":"京都市中京区","address":"高倉通三条下る"},
{"zip_code":"6048111","kana_pref":"ｷｮｳﾄﾌ","kana_city":"ｷｮｳﾄｼﾅｶｷﾞｮｳｸ","kana_address":"ﾏｽﾔﾁｮｳ","pref":"京都府","city":"京都市中京区","address":"三条通柳馬場西入"},
{"zip_code":"6048111","kana_pref":"ｷｮｳﾄﾌ","kana_city":"ｷｮｳﾄｼﾅｶｷﾞｮｳｸ","kana_address":"ﾏｽﾔﾁｮｳ","pref":"京都府","city":"京都市中京区","address":"三条通堺町"},
{"zip_code":"6048111","kana_pref":"ｷｮｳﾄﾌ","kana_city":"ｷｮｳﾄｼﾅｶｷﾞｮｳｸ","kana_address":"ﾏｽﾔﾁｮｳ","pref":"京都府","city":"京都市中京区","address":"西入"},
{"zip_code":"6048111","kana_pref":"ｷｮｳﾄﾌ","kana_city":"ｷｮｳﾄｼﾅｶｷﾞｮｳｸ","kana_address":"ﾏｽﾔﾁｮｳ","pref":"京都府","city":"京都市中京区","address":"三条通堺町東入"},
{"zip_code":"6048111","kana_pref":"ｷｮｳﾄﾌ","kana_city":"ｷｮｳﾄｼﾅｶｷﾞｮｳｸ","kana_address":"ﾏｽﾔﾁｮｳ","pref":"京都府","city":"京都市中京区","address":"三条通高倉東入）"},
{"zip_code":"6048206","kana_pref":"ｷｮｳﾄﾌ","kana_city":"ｷｮｳﾄｼﾅｶｷﾞｮｳｸ","kana_address":"ﾏﾁｶﾞｼﾗﾁｮｳ","pref":"京都府","city":"京都市中京区","address":"町頭町"},
{"zip_code":"6048362","kana_pref":"ｷｮｳﾄﾌ","kana_city":"ｷｮｳﾄｼﾅｶｷﾞｮｳｸ","kana_address":"ﾏﾂｳﾗﾁｮｳ","pref":"京都府","city":"京都市中京区","address":"松浦町"},
{"zip_code":"6048034","kana_pref":"ｷｮｳﾄﾌ","kana_city":"ｷｮｳﾄｼﾅｶｷﾞｮｳｸ","kana_address":"ﾏﾂｶﾞｴﾁｮｳ","pref":"京都府","city":"京都市中京区","address":"松ケ枝町"},
{"zip_code":"6048093","kana_pref":"ｷｮｳﾄﾌ","kana_city":"ｷｮｳﾄｼﾅｶｷﾞｮｳｸ","kana_address":"ﾏﾂｼﾀﾁｮｳ","pref":"京都府","city":"京都市中京区","address":"松下町"},
{"zip_code":"6040982","kana_pref":"ｷｮｳﾄﾌ","kana_city":"ｷｮｳﾄｼﾅｶｷﾞｮｳｸ","kana_address":"ﾏﾂﾓﾄﾁｮｳ","pref":"京都府","city":"京都市中京区","address":"松本町"},
{"zip_code":"6048013","kana_pref":"ｷｮｳﾄﾌ","kana_city":"ｷｮｳﾄｼﾅｶｷﾞｮｳｸ","kana_address":"ﾏﾂﾓﾄﾁｮｳ","pref":"京都府","city":"京都市中京区","address":"松本町"},
{"zip_code":"6040831","kana_pref":"ｷｮｳﾄﾌ","kana_city":"ｷｮｳﾄｼﾅｶｷﾞｮｳｸ","kana_address":"ﾏﾂﾔﾁｮｳ","pref":"京都府","city":"京都市中京区","address":"松屋町"},
{"zip_code":"6048106","kana_pref":"ｷｮｳﾄﾌ","kana_city":"ｷｮｳﾄｼﾅｶｷﾞｮｳｸ","kana_address":"ﾏﾙｷｻﾞｲﾓｸﾁｮｳ","pref":"京都府","city":"京都市中京区","address":"丸木材木町"},
{"zip_code":"6040077","kana_pref":"ｷｮｳﾄﾌ","kana_city":"ｷｮｳﾄｼﾅｶｷﾞｮｳｸ","kana_address":"ﾏﾙﾀﾁｮｳ","pref":"京都府","city":"京都市中京区","address":"丸太町"},
{"zip_code":"6040917","kana_pref":"ｷｮｳﾄﾌ","kana_city":"ｷｮｳﾄｼﾅｶｷﾞｮｳｸ","kana_address":"ﾏﾙﾔﾁｮｳ","pref":"京都府","city":"京都市中京区","address":"丸屋町"},
{"zip_code":"6048086","kana_pref":"ｷｮｳﾄﾌ","kana_city":"ｷｮｳﾄｼﾅｶｷﾞｮｳｸ","kana_address":"ﾏﾙﾔﾁｮｳ","pref":"京都府","city":"京都市中京区","address":"丸屋町（御幸町通姉小路下る"},
{"zip_code":"6048086","kana_pref":"ｷｮｳﾄﾌ","kana_city":"ｷｮｳﾄｼﾅｶｷﾞｮｳｸ","kana_address":"ﾏﾙﾔﾁｮｳ","pref":"京都府","city":"京都市中京区","address":"御幸町通三条上る"},
{"zip_code":"6048086","kana_pref":"ｷｮｳﾄﾌ","kana_city":"ｷｮｳﾄｼﾅｶｷﾞｮｳｸ","kana_address":"ﾏﾙﾔﾁｮｳ","pref":"京都府","city":"京都市中京区","address":"姉小路通御幸町西入"},
{"zip_code":"6048086","kana_pref":"ｷｮｳﾄﾌ","kana_city":"ｷｮｳﾄｼﾅｶｷﾞｮｳｸ","kana_address":"ﾏﾙﾔﾁｮｳ","pref":"京都府","city":"京都市中京区","address":""},
{"zip_code":"6048086","kana_pref":"ｷｮｳﾄﾌ","kana_city":"ｷｮｳﾄｼﾅｶｷﾞｮｳｸ","kana_address":"ﾏﾙﾔﾁｮｳ","pref":"京都府","city":"京都市中京区","address":"姉小路通御幸町東入）"},
{"zip_code":"6048132","kana_pref":"ｷｮｳﾄﾌ","kana_city":"ｷｮｳﾄｼﾅｶｷﾞｮｳｸ","kana_address":"ﾏﾙﾔﾁｮｳ","pref":"京都府","city":"京都市中京区","address":"丸屋町"},
{"zip_code":"6048161","kana_pref":"ｷｮｳﾄﾌ","kana_city":"ｷｮｳﾄｼﾅｶｷﾞｮｳｸ","kana_address":"ﾏﾝｼﾞｭｳﾔﾁｮｳ","pref":"京都府","city":"京都市中京区","address":"饅頭屋町"},
{"zip_code":"6048166","kana_pref":"ｷｮｳﾄﾌ","kana_city":"ｷｮｳﾄｼﾅｶｷﾞｮｳｸ","kana_address":"ﾐｸﾗﾁｮｳ","pref":"京都府","city":"京都市中京区","address":"御倉町"},
{"zip_code":"6048147","kana_pref":"ｷｮｳﾄﾌ","kana_city":"ｷｮｳﾄｼﾅｶｷﾞｮｳｸ","kana_address":"ﾐｻﾔﾏﾁｮｳ","pref":"京都府","city":"京都市中京区","address":"御射山町"},
{"zip_code":"6048022","kana_pref":"ｷｮｳﾄﾌ","kana_city":"ｷｮｳﾄｼﾅｶｷﾞｮｳｸ","kana_address":"ﾐﾅﾐｸﾙﾏﾔﾁｮｳ","pref":"京都府","city":"京都市中京区","address":"南車屋町"},
{"zip_code":"6048812","kana_pref":"ｷｮｳﾄﾌ","kana_city":"ｷｮｳﾄｼﾅｶｷﾞｮｳｸ","kana_address":"ﾐﾌﾞｱｲｱｲﾁｮｳ","pref":"京都府","city":"京都市中京区","address":"壬生相合町"},
{"zip_code":"6048874","kana_pref":"ｷｮｳﾄﾌ","kana_city":"ｷｮｳﾄｼﾅｶｷﾞｮｳｸ","kana_address":"ﾐﾌﾞｱﾏｶﾞｲｹﾁｮｳ","pref":"京都府","city":"京都市中京区","address":"壬生天池町"},
{"zip_code":"6048851","kana_pref":"ｷｮｳﾄﾌ","kana_city":"ｷｮｳﾄｼﾅｶｷﾞｮｳｸ","kana_address":"ﾐﾌﾞｶﾐｵｵﾀｹﾁｮｳ","pref":"京都府","city":"京都市中京区","address":"壬生上大竹町"},
{"zip_code":"6048811","kana_pref":"ｷｮｳﾄﾌ","kana_city":"ｷｮｳﾄｼﾅｶｷﾞｮｳｸ","kana_address":"ﾐﾌﾞｶﾖｳｺﾞｼｮﾁｮｳ","pref":"京都府","city":"京都市中京区","address":"壬生賀陽御所町"},
{"zip_code":"6048872","kana_pref":"ｷｮｳﾄﾌ","kana_city":"ｷｮｳﾄｼﾅｶｷﾞｮｳｸ","kana_address":"ﾐﾌﾞｺﾞｼｮﾉｳﾁﾁｮｳ","pref":"京都府","city":"京都市中京区","address":"壬生御所ノ内町"},
{"zip_code":"6048832","kana_pref":"ｷｮｳﾄﾌ","kana_city":"ｷｮｳﾄｼﾅｶｷﾞｮｳｸ","kana_address":"ﾐﾌﾞｼﾓﾐｿﾞﾁｮｳ","pref":"京都府","city":"京都市中京区","address":"壬生下溝町"},
{"zip_code":"6048871","kana_pref":"ｷｮｳﾄﾌ","kana_city":"ｷｮｳﾄｼﾅｶｷﾞｮｳｸ","kana_address":"ﾐﾌﾞｼｭｼﾞｬｸﾁｮｳ","pref":"京都府","city":"京都市中京区","address":"壬生朱雀町"},
{"zip_code":"6048861","kana_pref":"ｷｮｳﾄﾌ","kana_city":"ｷｮｳﾄｼﾅｶｷﾞｮｳｸ","kana_address":"ﾐﾌﾞｼﾝﾒｲﾁｮｳ","pref":"京都府","city":"京都市中京区","address":"壬生神明町"},
{"zip_code":"6048854","kana_pref":"ｷｮｳﾄﾌ","kana_city":"ｷｮｳﾄｼﾅｶｷﾞｮｳｸ","kana_address":"ﾐﾌﾞｾﾝﾈﾝﾁｮｳ","pref":"京都府","city":"京都市中京区","address":"壬生仙念町"},
{"zip_code":"6048824","kana_pref":"ｷｮｳﾄﾌ","kana_city":"ｷｮｳﾄｼﾅｶｷﾞｮｳｸ","kana_address":"ﾐﾌﾞﾀｶﾋﾁｮｳ","pref":"京都府","city":"京都市中京区","address":"壬生高樋町"},
{"zip_code":"6048822","kana_pref":"ｷｮｳﾄﾌ","kana_city":"ｷｮｳﾄｼﾅｶｷﾞｮｳｸ","kana_address":"ﾐﾌﾞﾂｼﾞﾏﾁ","pref":"京都府","city":"京都市中京区","address":"壬生辻町"},
{"zip_code":"6048842","kana_pref":"ｷｮｳﾄﾌ","kana_city":"ｷｮｳﾄｼﾅｶｷﾞｮｳｸ","kana_address":"ﾐﾌﾞﾄﾞｲﾉｳﾁﾁｮｳ","pref":"京都府","city":"京都市中京区","address":"壬生土居ノ内町"},
{"zip_code":"6048863","kana_pref":"ｷｮｳﾄﾌ","kana_city":"ｷｮｳﾄｼﾅｶｷﾞｮｳｸ","kana_address":"ﾐﾌﾞﾅｶｶﾞﾜﾁｮｳ","pref":"京都府","city":"京都市中京区","address":"壬生中川町"},
{"zip_code":"6048821","kana_pref":"ｷｮｳﾄﾌ","kana_city":"ｷｮｳﾄｼﾅｶｷﾞｮｳｸ","kana_address":"ﾐﾌﾞﾅｷﾞﾉﾐﾔﾁｮｳ","pref":"京都府","city":"京都市中京区","address":"壬生梛ノ宮町"},
{"zip_code":"6048856","kana_pref":"ｷｮｳﾄﾌ","kana_city":"ｷｮｳﾄｼﾅｶｷﾞｮｳｸ","kana_address":"ﾐﾌﾞﾆｼｵｵﾀｹﾁｮｳ","pref":"京都府","city":"京都市中京区","address":"壬生西大竹町"},
{"zip_code":"6048847","kana_pref":"ｷｮｳﾄﾌ","kana_city":"ｷｮｳﾄｼﾅｶｷﾞｮｳｸ","kana_address":"ﾐﾌﾞﾆｼﾄﾞｲﾉｳﾁﾁｮｳ","pref":"京都府","city":"京都市中京区","address":"壬生西土居ノ内町"},
{"zip_code":"6048846","kana_pref":"ｷｮｳﾄﾌ","kana_city":"ｷｮｳﾄｼﾅｶｷﾞｮｳｸ","kana_address":"ﾐﾌﾞﾆｼﾋﾉｷﾁｮｳ","pref":"京都府","city":"京都市中京区","address":"壬生西桧町"},
{"zip_code":"6048873","kana_pref":"ｷｮｳﾄﾌ","kana_city":"ｷｮｳﾄｼﾅｶｷﾞｮｳｸ","kana_address":"ﾐﾌﾞﾊﾅｲﾁｮｳ","pref":"京都府","city":"京都市中京区","address":"壬生花井町"},
{"zip_code":"6048805","kana_pref":"ｷｮｳﾄﾌ","kana_city":"ｷｮｳﾄｼﾅｶｷﾞｮｳｸ","kana_address":"ﾐﾌﾞﾊﾞﾝﾊﾞﾁｮｳ","pref":"京都府","city":"京都市中京区","address":"壬生馬場町"},
{"zip_code":"6048852","kana_pref":"ｷｮｳﾄﾌ","kana_city":"ｷｮｳﾄｼﾅｶｷﾞｮｳｸ","kana_address":"ﾐﾌﾞﾋｶﾞｼｵｵﾀｹﾁｮｳ","pref":"京都府","city":"京都市中京区","address":"壬生東大竹町"},
{"zip_code":"6048845","kana_pref":"ｷｮｳﾄﾌ","kana_city":"ｷｮｳﾄｼﾅｶｷﾞｮｳｸ","kana_address":"ﾐﾌﾞﾋｶﾞｼﾀｶﾀﾞﾁｮｳ","pref":"京都府","city":"京都市中京区","address":"壬生東高田町"},
{"zip_code":"6048841","kana_pref":"ｷｮｳﾄﾌ","kana_city":"ｷｮｳﾄｼﾅｶｷﾞｮｳｸ","kana_address":"ﾐﾌﾞﾋｶﾞｼﾄﾞｲﾉｳﾁﾁｮｳ","pref":"京都府","city":"京都市中京区","address":"壬生東土居ノ内町"},
{"zip_code":"6048843","kana_pref":"ｷｮｳﾄﾌ","kana_city":"ｷｮｳﾄｼﾅｶｷﾞｮｳｸ","kana_address":"ﾐﾌﾞﾋｶﾞｼﾋﾉｷﾁｮｳ","pref":"京都府","city":"京都市中京区","address":"壬生東桧町"},
{"zip_code":"6048853","kana_pref":"ｷｮｳﾄﾌ","kana_city":"ｷｮｳﾄｼﾅｶｷﾞｮｳｸ","kana_address":"ﾐﾌﾞﾋｶﾞｼﾌﾁﾀﾞﾁｮｳ","pref":"京都府","city":"京都市中京区","address":"壬生東淵田町"},
{"zip_code":"6048844","kana_pref":"ｷｮｳﾄﾌ","kana_city":"ｷｮｳﾄｼﾅｶｷﾞｮｳｸ","kana_address":"ﾐﾌﾞﾋﾉｷﾁｮｳ","pref":"京都府","city":"京都市中京区","address":"壬生桧町"},
{"zip_code":"6048855","kana_pref":"ｷｮｳﾄﾌ","kana_city":"ｷｮｳﾄｼﾅｶｷﾞｮｳｸ","kana_address":"ﾐﾌﾞﾌﾁﾀﾞﾁｮｳ","pref":"京都府","city":"京都市中京区","address":"壬生淵田町"},
{"zip_code":"6048804","kana_pref":"ｷｮｳﾄﾌ","kana_city":"ｷｮｳﾄｼﾅｶｷﾞｮｳｸ","kana_address":"ﾐﾌﾞﾎﾞｳｼﾞｮｳﾁｮｳ","pref":"京都府","city":"京都市中京区","address":"壬生坊城町"},
{"zip_code":"6048823","kana_pref":"ｷｮｳﾄﾌ","kana_city":"ｷｮｳﾄｼﾅｶｷﾞｮｳｸ","kana_address":"ﾐﾌﾞﾏﾂﾊﾞﾗﾁｮｳ","pref":"京都府","city":"京都市中京区","address":"壬生松原町"},
{"zip_code":"6048831","kana_pref":"ｷｮｳﾄﾌ","kana_city":"ｷｮｳﾄｼﾅｶｷﾞｮｳｸ","kana_address":"ﾐﾌﾞﾓﾘﾏｴﾁｮｳ","pref":"京都府","city":"京都市中京区","address":"壬生森前町"},
{"zip_code":"6048862","kana_pref":"ｷｮｳﾄﾌ","kana_city":"ｷｮｳﾄｼﾅｶｷﾞｮｳｸ","kana_address":"ﾐﾌﾞﾓﾘﾏﾁ","pref":"京都府","city":"京都市中京区","address":"壬生森町"},
{"zip_code":"6048275","kana_pref":"ｷｮｳﾄﾌ","kana_city":"ｷｮｳﾄｼﾅｶｷﾞｮｳｸ","kana_address":"ﾐﾔｷﾞﾁｮｳ","pref":"京都府","city":"京都市中京区","address":"宮木町"},
{"zip_code":"6048353","kana_pref":"ｷｮｳﾄﾌ","kana_city":"ｷｮｳﾄｼﾅｶｷﾞｮｳｸ","kana_address":"ﾐﾔﾓﾄﾁｮｳ","pref":"京都府","city":"京都市中京区","address":"宮本町"},
{"zip_code":"6040932","kana_pref":"ｷｮｳﾄﾌ","kana_city":"ｷｮｳﾄｼﾅｶｷﾞｮｳｸ","kana_address":"ﾐｮｳﾏﾝｼﾞﾏｴﾁｮｳ","pref":"京都府","city":"京都市中京区","address":"妙満寺前町"},
{"zip_code":"6040805","kana_pref":"ｷｮｳﾄﾌ","kana_city":"ｷｮｳﾄｼﾅｶｷﾞｮｳｸ","kana_address":"ﾑｶﾃﾞﾔﾁｮｳ","pref":"京都府","city":"京都市中京区","address":"百足屋町（夷川通柳馬場西入"},
{"zip_code":"6040805","kana_pref":"ｷｮｳﾄﾌ","kana_city":"ｷｮｳﾄｼﾅｶｷﾞｮｳｸ","kana_address":"ﾑｶﾃﾞﾔﾁｮｳ","pref":"京都府","city":"京都市中京区","address":"夷川通堺町東入"},
{"zip_code":"6040805","kana_pref":"ｷｮｳﾄﾌ","kana_city":"ｷｮｳﾄｼﾅｶｷﾞｮｳｸ","kana_address":"ﾑｶﾃﾞﾔﾁｮｳ","pref":"京都府","city":"京都市中京区","address":"夷川通堺町西入"},
{"zip_code":"6040805","kana_pref":"ｷｮｳﾄﾌ","kana_city":"ｷｮｳﾄｼﾅｶｷﾞｮｳｸ","kana_address":"ﾑｶﾃﾞﾔﾁｮｳ","pref":"京都府","city":"京都市中京区","address":"夷川通高倉"},
{"zip_code":"6040805","kana_pref":"ｷｮｳﾄﾌ","kana_city":"ｷｮｳﾄｼﾅｶｷﾞｮｳｸ","kana_address":"ﾑｶﾃﾞﾔﾁｮｳ","pref":"京都府","city":"京都市中京区","address":"東入）"},
{"zip_code":"6048214","kana_pref":"ｷｮｳﾄﾌ","kana_city":"ｷｮｳﾄｼﾅｶｷﾞｮｳｸ","kana_address":"ﾑｶﾃﾞﾔﾁｮｳ","pref":"京都府","city":"京都市中京区","address":"百足屋町"},
{"zip_code":"6048303","kana_pref":"ｷｮｳﾄﾌ","kana_city":"ｷｮｳﾄｼﾅｶｷﾞｮｳｸ","kana_address":"ﾓｶﾞﾐﾁｮｳ","pref":"京都府","city":"京都市中京区","address":"最上町"},
{"zip_code":"6048145","kana_pref":"ｷｮｳﾄﾌ","kana_city":"ｷｮｳﾄｼﾅｶｷﾞｮｳｸ","kana_address":"ﾓﾄﾀｹﾀﾞﾁｮｳ","pref":"京都府","city":"京都市中京区","address":"元竹田町"},
{"zip_code":"6048144","kana_pref":"ｷｮｳﾄﾌ","kana_city":"ｷｮｳﾄｼﾅｶｷﾞｮｳｸ","kana_address":"ﾓﾄﾎｳﾈﾝｼﾞﾁｮｳ","pref":"京都府","city":"京都市中京区","address":"元法然寺町"},
{"zip_code":"6048244","kana_pref":"ｷｮｳﾄﾌ","kana_city":"ｷｮｳﾄｼﾅｶｷﾞｮｳｸ","kana_address":"ﾓﾄﾎﾝﾉｳｼﾞﾁｮｳ","pref":"京都府","city":"京都市中京区","address":"元本能寺町"},
{"zip_code":"6048231","kana_pref":"ｷｮｳﾄﾌ","kana_city":"ｷｮｳﾄｼﾅｶｷﾞｮｳｸ","kana_address":"ﾓﾄﾎﾝﾉｳｼﾞﾐﾅﾐﾁｮｳ","pref":"京都府","city":"京都市中京区","address":"元本能寺南町"},
{"zip_code":"6040053","kana_pref":"ｷｮｳﾄﾌ","kana_city":"ｷｮｳﾄｼﾅｶｷﾞｮｳｸ","kana_address":"ﾓﾘﾉｷﾁｮｳ","pref":"京都府","city":"京都市中京区","address":"森ノ木町"},
{"zip_code":"6040953","kana_pref":"ｷｮｳﾄﾌ","kana_city":"ｷｮｳﾄｼﾅｶｷﾞｮｳｸ","kana_address":"ﾓﾘﾔﾏﾁｮｳ","pref":"京都府","city":"京都市中京区","address":"守山町"},
{"zip_code":"6048306","kana_pref":"ｷｮｳﾄﾌ","kana_city":"ｷｮｳﾄｼﾅｶｷﾞｮｳｸ","kana_address":"ﾓﾝｾﾞﾝﾁｮｳ","pref":"京都府","city":"京都市中京区","address":"門前町"},
{"zip_code":"6048072","kana_pref":"ｷｮｳﾄﾌ","kana_city":"ｷｮｳﾄｼﾅｶｷﾞｮｳｸ","kana_address":"ﾔｵﾔﾁｮｳ","pref":"京都府","city":"京都市中京区","address":"八百屋町"},
{"zip_code":"6048123","kana_pref":"ｷｮｳﾄﾌ","kana_city":"ｷｮｳﾄｼﾅｶｷﾞｮｳｸ","kana_address":"ﾔｵﾔﾁｮｳ","pref":"京都府","city":"京都市中京区","address":"八百屋町"},
{"zip_code":"6040062","kana_pref":"ｷｮｳﾄﾌ","kana_city":"ｷｮｳﾄｼﾅｶｷﾞｮｳｸ","kana_address":"ﾔｸｼﾁｮｳ","pref":"京都府","city":"京都市中京区","address":"薬師町"},
{"zip_code":"6048101","kana_pref":"ｷｮｳﾄﾌ","kana_city":"ｷｮｳﾄｼﾅｶｷﾞｮｳｸ","kana_address":"ﾔﾅｷﾞﾊﾁﾏﾝﾁｮｳ","pref":"京都府","city":"京都市中京区","address":"柳八幡町"},
{"zip_code":"6048032","kana_pref":"ｷｮｳﾄﾌ","kana_city":"ｷｮｳﾄｼﾅｶｷﾞｮｳｸ","kana_address":"ﾔﾏｻﾞｷﾁｮｳ","pref":"京都府","city":"京都市中京区","address":"山崎町"},
{"zip_code":"6048237","kana_pref":"ｷｮｳﾄﾌ","kana_city":"ｷｮｳﾄｼﾅｶｷﾞｮｳｸ","kana_address":"ﾔﾏﾀﾞﾁｮｳ","pref":"京都府","city":"京都市中京区","address":"山田町"},
{"zip_code":"6040815","kana_pref":"ｷｮｳﾄﾌ","kana_city":"ｷｮｳﾄｼﾅｶｷﾞｮｳｸ","kana_address":"ﾔﾏﾅｶﾁｮｳ","pref":"京都府","city":"京都市中京区","address":"山中町"},
{"zip_code":"6048156","kana_pref":"ｷｮｳﾄﾌ","kana_city":"ｷｮｳﾄｼﾅｶｷﾞｮｳｸ","kana_address":"ﾔﾏﾌﾞｼﾔﾏﾁｮｳ","pref":"京都府","city":"京都市中京区","address":"山伏山町"},
{"zip_code":"6040933","kana_pref":"ｷｮｳﾄﾌ","kana_city":"ｷｮｳﾄｼﾅｶｷﾞｮｳｸ","kana_address":"ﾔﾏﾓﾄﾁｮｳ","pref":"京都府","city":"京都市中京区","address":"山本町"},
{"zip_code":"6040064","kana_pref":"ｷｮｳﾄﾌ","kana_city":"ｷｮｳﾄｼﾅｶｷﾞｮｳｸ","kana_address":"ﾔﾜﾀﾁｮｳ","pref":"京都府","city":"京都市中京区","address":"矢幡町"},
{"zip_code":"6040916","kana_pref":"ｷｮｳﾄﾌ","kana_city":"ｷｮｳﾄｼﾅｶｷﾞｮｳｸ","kana_address":"ﾖｳﾎｳｼﾞﾏｴﾁｮｳ","pref":"京都府","city":"京都市中京区","address":"要法寺前町"},
{"zip_code":"6040087","kana_pref":"ｷｮｳﾄﾌ","kana_city":"ｷｮｳﾄｼﾅｶｷﾞｮｳｸ","kana_address":"ﾖｺｶｼﾞﾁｮｳ","pref":"京都府","city":"京都市中京区","address":"横鍛冶町"},
{"zip_code":"6048361","kana_pref":"ｷｮｳﾄﾌ","kana_city":"ｷｮｳﾄｼﾅｶｷﾞｮｳｸ","kana_address":"ﾖｼﾉﾁｮｳ","pref":"京都府","city":"京都市中京区","address":"吉野町"},
{"zip_code":"6040974","kana_pref":"ｷｮｳﾄﾌ","kana_city":"ｷｮｳﾄｼﾅｶｷﾞｮｳｸ","kana_address":"ﾖﾝﾁｮｳﾒ","pref":"京都府","city":"京都市中京区","address":"四丁目"},
{"zip_code":"6048242","kana_pref":"ｷｮｳﾄﾌ","kana_city":"ｷｮｳﾄｼﾅｶｷﾞｮｳｸ","kana_address":"ﾘｭｳｽｲﾁｮｳ","pref":"京都府","city":"京都市中京区","address":"柳水町"},
{"zip_code":"6048204","kana_pref":"ｷｮｳﾄﾌ","kana_city":"ｷｮｳﾄｼﾅｶｷﾞｮｳｸ","kana_address":"ﾘｮｳﾄﾝｽﾞｼﾁｮｳ","pref":"京都府","city":"京都市中京区","address":"了頓図子町"},
{"zip_code":"6040011","kana_pref":"ｷｮｳﾄﾌ","kana_city":"ｷｮｳﾄｼﾅｶｷﾞｮｳｸ","kana_address":"ﾚｲｾﾝﾁｮｳ","pref":"京都府","city":"京都市中京区","address":"冷泉町"},
{"zip_code":"6040965","kana_pref":"ｷｮｳﾄﾌ","kana_city":"ｷｮｳﾄｼﾅｶｷﾞｮｳｸ","kana_address":"ﾛｸﾁｮｳﾒ","pref":"京都府","city":"京都市中京区","address":"六丁目"},
{"zip_code":"6048245","kana_pref":"ｷｮｳﾄﾌ","kana_city":"ｷｮｳﾄｼﾅｶｷﾞｮｳｸ","kana_address":"ﾛｯｶｸｱﾌﾞﾗﾉｺｳｼﾞﾁｮｳ","pref":"京都府","city":"京都市中京区","address":"六角油小路町"},
{"zip_code":"6048342","kana_pref":"ｷｮｳﾄﾌ","kana_city":"ｷｮｳﾄｼﾅｶｷﾞｮｳｸ","kana_address":"ﾛｯｶｸｲﾉｸﾏﾁｮｳ","pref":"京都府","city":"京都市中京区","address":"六角猪熊町"},
{"zip_code":"6048344","kana_pref":"ｷｮｳﾄﾌ","kana_city":"ｷｮｳﾄｼﾅｶｷﾞｮｳｸ","kana_address":"ﾛｯｶｸｵｵﾐﾔﾁｮｳ","pref":"京都府","city":"京都市中京区","address":"六角大宮町"},
{"zip_code":"6048212","kana_pref":"ｷｮｳﾄﾌ","kana_city":"ｷｮｳﾄｼﾅｶｷﾞｮｳｸ","kana_address":"ﾛｯｶｸﾁｮｳ","pref":"京都府","city":"京都市中京区","address":"六角町"},
{"zip_code":"6048011","kana_pref":"ｷｮｳﾄﾌ","kana_city":"ｷｮｳﾄｼﾅｶｷﾞｮｳｸ","kana_address":"ﾜｶﾏﾂﾁｮｳ","pref":"京都府","city":"京都市中京区","address":"若松町"},
{"zip_code":"6040803","kana_pref":"ｷｮｳﾄﾌ","kana_city":"ｷｮｳﾄｼﾅｶｷﾞｮｳｸ","kana_address":"ﾜｸﾔﾁｮｳ","pref":"京都府","city":"京都市中京区","address":"和久屋町"},
{"zip_code":"6048116","kana_pref":"ｷｮｳﾄﾌ","kana_city":"ｷｮｳﾄｼﾅｶｷﾞｮｳｸ","kana_address":"ﾜｸﾔﾁｮｳ","pref":"京都府","city":"京都市中京区","address":"和久屋町"},
{"zip_code":"6048181","kana_pref":"ｷｮｳﾄﾌ","kana_city":"ｷｮｳﾄｼﾅｶｷﾞｮｳｸ","kana_address":"ﾜﾀﾔﾁｮｳ","pref":"京都府","city":"京都市中京区","address":"綿屋町"}]}