{"zip_code":[
{"zip_code":"6050000","kana_pref":"ｷｮｳﾄﾌ","kana_city":"ｷｮｳﾄｼﾋｶﾞｼﾔﾏｸ","kana_address":"","pref":"京都府","city":"京都市東山区","address":""},
{"zip_code":"6050856","kana_pref":"ｷｮｳﾄﾌ","kana_city":"ｷｮｳﾄｼﾋｶﾞｼﾔﾏｸ","kana_address":"ｱﾀﾗｼﾁｮｳ","pref":"京都府","city":"京都市東山区","address":"新シ町"},
{"zip_code":"6050051","kana_pref":"ｷｮｳﾄﾌ","kana_city":"ｷｮｳﾄｼﾋｶﾞｼﾔﾏｸ","kana_address":"ｱﾜﾀﾞｸﾞﾁｶｼﾞﾁｮｳ","pref":"京都府","city":"京都市東山区","address":"粟田口鍛冶町"},
{"zip_code":"6050052","kana_pref":"ｷｮｳﾄﾌ","kana_city":"ｷｮｳﾄｼﾋｶﾞｼﾔﾏｸ","kana_address":"ｱﾜﾀﾞｸﾞﾁｶﾁｮｳﾁｮｳ","pref":"京都府","city":"京都市東山区","address":"粟田口華頂町"},
{"zip_code":"6050035","kana_pref":"ｷｮｳﾄﾌ","kana_city":"ｷｮｳﾄｼﾋｶﾞｼﾔﾏｸ","kana_address":"ｱﾜﾀﾞｸﾞﾁｻﾝｼﾞｮｳﾎﾞｳﾁｮｳ","pref":"京都府","city":"京都市東山区","address":"粟田口三条坊町"},
{"zip_code":"6050848","kana_pref":"ｷｮｳﾄﾌ","kana_city":"ｷｮｳﾄｼﾋｶﾞｼﾔﾏｸ","kana_address":"ｲｹﾄﾞﾉﾁｮｳ","pref":"京都府","city":"京都市東山区","address":"池殿町"},
{"zip_code":"6050913","kana_pref":"ｷｮｳﾄﾌ","kana_city":"ｷｮｳﾄｼﾋｶﾞｼﾔﾏｸ","kana_address":"ｲｼｶﾞｷﾏﾁﾋｶﾞｼｶﾞﾜ","pref":"京都府","city":"京都市東山区","address":"石垣町東側"},
{"zip_code":"6050912","kana_pref":"ｷｮｳﾄﾌ","kana_city":"ｷｮｳﾄｼﾋｶﾞｼﾔﾏｸ","kana_address":"ｲｼｶﾞｷﾏﾁﾆｼｶﾞﾜ","pref":"京都府","city":"京都市東山区","address":"石垣町西側"},
{"zip_code":"6050066","kana_pref":"ｷｮｳﾄﾌ","kana_city":"ｷｮｳﾄｼﾋｶﾞｼﾔﾏｸ","kana_address":"ｲｼﾊﾞｼﾁｮｳ","pref":"京都府","city":"京都市東山区","address":"石橋町"},
{"zip_code":"6050995","kana_pref":"ｷｮｳﾄﾌ","kana_city":"ｷｮｳﾄｼﾋｶﾞｼﾔﾏｸ","kana_address":"ｲﾁﾉﾊｼﾉﾓﾄﾁｮｳ","pref":"京都府","city":"京都市東山区","address":"一橋野本町"},
{"zip_code":"6050994","kana_pref":"ｷｮｳﾄﾌ","kana_city":"ｷｮｳﾄｼﾋｶﾞｼﾔﾏｸ","kana_address":"ｲﾁﾉﾊｼﾐﾔﾉｳﾁﾁｮｳ","pref":"京都府","city":"京都市東山区","address":"一橋宮ノ内町"},
{"zip_code":"6050804","kana_pref":"ｷｮｳﾄﾌ","kana_city":"ｷｮｳﾄｼﾋｶﾞｼﾔﾏｸ","kana_address":"ｲﾃﾞﾁｮｳ","pref":"京都府","city":"京都市東山区","address":"井手町"},
{"zip_code":"6050068","kana_pref":"ｷｮｳﾄﾌ","kana_city":"ｷｮｳﾄｼﾋｶﾞｼﾔﾏｸ","kana_address":"ｲﾅﾘﾁｮｳｷﾀｸﾞﾐ","pref":"京都府","city":"京都市東山区","address":"稲荷町北組"},
{"zip_code":"6050067","kana_pref":"ｷｮｳﾄﾌ","kana_city":"ｷｮｳﾄｼﾋｶﾞｼﾔﾏｸ","kana_address":"ｲﾅﾘﾁｮｳﾐﾅﾐｸﾞﾐ","pref":"京都府","city":"京都市東山区","address":"稲荷町南組"},
{"zip_code":"6050924","kana_pref":"ｷｮｳﾄﾌ","kana_city":"ｷｮｳﾄｼﾋｶﾞｼﾔﾏｸ","kana_address":"ｲﾏｸﾞﾏﾉｱﾐﾀﾞｶﾞﾐﾈﾁｮｳ","pref":"京都府","city":"京都市東山区","address":"今熊野阿弥陀ケ峰町"},
{"zip_code":"6050965","kana_pref":"ｷｮｳﾄﾌ","kana_city":"ｷｮｳﾄｼﾋｶﾞｼﾔﾏｸ","kana_address":"ｲﾏｸﾞﾏﾉｲｹﾀﾞﾁｮｳ","pref":"京都府","city":"京都市東山区","address":"今熊野池田町"},
{"zip_code":"6050956","kana_pref":"ｷｮｳﾄﾌ","kana_city":"ｷｮｳﾄｼﾋｶﾞｼﾔﾏｸ","kana_address":"ｲﾏｸﾞﾏﾉｳﾒｶﾞﾀﾆﾁｮｳ","pref":"京都府","city":"京都市東山区","address":"今熊野梅ケ谷町"},
{"zip_code":"6050926","kana_pref":"ｷｮｳﾄﾌ","kana_city":"ｷｮｳﾄｼﾋｶﾞｼﾔﾏｸ","kana_address":"ｲﾏｸﾞﾏﾉｷﾀﾋﾖｼﾁｮｳ","pref":"京都府","city":"京都市東山区","address":"今熊野北日吉町"},
{"zip_code":"6050954","kana_pref":"ｷｮｳﾄﾌ","kana_city":"ｷｮｳﾄｼﾋｶﾞｼﾔﾏｸ","kana_address":"ｲﾏｸﾞﾏﾉｺﾏﾂﾔﾏﾁｮｳ","pref":"京都府","city":"京都市東山区","address":"今熊野小松山町"},
{"zip_code":"6050957","kana_pref":"ｷｮｳﾄﾌ","kana_city":"ｷｮｳﾄｼﾋｶﾞｼﾔﾏｸ","kana_address":"ｲﾏｸﾞﾏﾉｾﾝｻﾞﾝﾁｮｳ","pref":"京都府","city":"京都市東山区","address":"今熊野泉山町"},
{"zip_code":"6050955","kana_pref":"ｷｮｳﾄﾌ","kana_city":"ｷｮｳﾄｼﾋｶﾞｼﾔﾏｸ","kana_address":"ｲﾏｸﾞﾏﾉｿｳｻﾞﾝﾁｮｳ","pref":"京都府","city":"京都市東山区","address":"今熊野総山町"},
{"zip_code":"6050972","kana_pref":"ｷｮｳﾄﾌ","kana_city":"ｷｮｳﾄｼﾋｶﾞｼﾔﾏｸ","kana_address":"ｲﾏｸﾞﾏﾉﾂﾙｷﾞﾉﾐﾔﾁｮｳ","pref":"京都府","city":"京都市東山区","address":"今熊野剣宮町"},
{"zip_code":"6050971","kana_pref":"ｷｮｳﾄﾌ","kana_city":"ｷｮｳﾄｼﾋｶﾞｼﾔﾏｸ","kana_address":"ｲﾏｸﾞﾏﾉﾅｷﾞﾉﾓﾘﾁｮｳ","pref":"京都府","city":"京都市東山区","address":"今熊野椥ノ森町"},
{"zip_code":"6050925","kana_pref":"ｷｮｳﾄﾌ","kana_city":"ｷｮｳﾄｼﾋｶﾞｼﾔﾏｸ","kana_address":"ｲﾏｸﾞﾏﾉﾋﾖｼﾁｮｳ","pref":"京都府","city":"京都市東山区","address":"今熊野日吉町"},
{"zip_code":"6050952","kana_pref":"ｷｮｳﾄﾌ","kana_city":"ｷｮｳﾄｼﾋｶﾞｼﾔﾏｸ","kana_address":"ｲﾏｸﾞﾏﾉﾎｳｿﾞｳﾁｮｳ","pref":"京都府","city":"京都市東山区","address":"今熊野宝蔵町"},
{"zip_code":"6050978","kana_pref":"ｷｮｳﾄﾌ","kana_city":"ｷｮｳﾄｼﾋｶﾞｼﾔﾏｸ","kana_address":"ｲﾏｸﾞﾏﾉﾎﾝﾀﾞﾔﾏﾁｮｳ","pref":"京都府","city":"京都市東山区","address":"今熊野本多山町"},
{"zip_code":"6050979","kana_pref":"ｷｮｳﾄﾌ","kana_city":"ｷｮｳﾄｼﾋｶﾞｼﾔﾏｸ","kana_address":"ｲﾏｸﾞﾏﾉﾐﾅﾐﾀﾞﾆﾁｮｳ","pref":"京都府","city":"京都市東山区","address":"今熊野南谷町"},
{"zip_code":"6050953","kana_pref":"ｷｮｳﾄﾌ","kana_city":"ｷｮｳﾄｼﾋｶﾞｼﾔﾏｸ","kana_address":"ｲﾏｸﾞﾏﾉﾐﾅﾐﾋﾖｼﾁｮｳ","pref":"京都府","city":"京都市東山区","address":"今熊野南日吉町"},
{"zip_code":"6050023","kana_pref":"ｷｮｳﾄﾌ","kana_city":"ｷｮｳﾄｼﾋｶﾞｼﾔﾏｸ","kana_address":"ｲﾏｺｳｼﾞﾁｮｳ","pref":"京都府","city":"京都市東山区","address":"今小路町"},
{"zip_code":"6050042","kana_pref":"ｷｮｳﾄﾌ","kana_city":"ｷｮｳﾄｼﾋｶﾞｼﾔﾏｸ","kana_address":"ｲﾏﾐﾁﾁｮｳ","pref":"京都府","city":"京都市東山区","address":"今道町"},
{"zip_code":"6050852","kana_pref":"ｷｮｳﾄﾌ","kana_city":"ｷｮｳﾄｼﾋｶﾞｼﾔﾏｸ","kana_address":"ｳｴﾀﾞﾁｮｳ","pref":"京都府","city":"京都市東山区","address":"上田町"},
{"zip_code":"6050061","kana_pref":"ｷｮｳﾄﾌ","kana_city":"ｷｮｳﾄｼﾋｶﾞｼﾔﾏｸ","kana_address":"ｳﾒﾐﾔﾁｮｳ","pref":"京都府","city":"京都市東山区","address":"梅宮町"},
{"zip_code":"6050064","kana_pref":"ｷｮｳﾄﾌ","kana_city":"ｷｮｳﾄｼﾋｶﾞｼﾔﾏｸ","kana_address":"ｳﾒﾓﾄﾁｮｳ","pref":"京都府","city":"京都市東山区","address":"梅本町"},
{"zip_code":"6050033","kana_pref":"ｷｮｳﾄﾌ","kana_city":"ｷｮｳﾄｼﾋｶﾞｼﾔﾏｸ","kana_address":"ｴﾋﾞｽﾁｮｳ","pref":"京都府","city":"京都市東山区","address":"夷町"},
{"zip_code":"6050936","kana_pref":"ｷｮｳﾄﾌ","kana_city":"ｷｮｳﾄｼﾋｶﾞｼﾔﾏｸ","kana_address":"ｴﾋﾞｽﾁｮｳﾐﾅﾐｸﾞﾐ","pref":"京都府","city":"京都市東山区","address":"蛭子町南組"},
{"zip_code":"6050917","kana_pref":"ｷｮｳﾄﾌ","kana_city":"ｷｮｳﾄｼﾋｶﾞｼﾔﾏｸ","kana_address":"ｴﾋﾞｽﾁｮｳｷﾀｸﾞﾐ","pref":"京都府","city":"京都市東山区","address":"蛭子町北組"},
{"zip_code":"6050022","kana_pref":"ｷｮｳﾄﾌ","kana_city":"ｷｮｳﾄｼﾋｶﾞｼﾔﾏｸ","kana_address":"ｵｵｲﾃﾞﾁｮｳ","pref":"京都府","city":"京都市東山区","address":"大井手町"},
{"zip_code":"6050904","kana_pref":"ｷｮｳﾄﾌ","kana_city":"ｷｮｳﾄｼﾋｶﾞｼﾔﾏｸ","kana_address":"ｵｵｻｶﾁｮｳ","pref":"京都府","city":"京都市東山区","address":"大阪町"},
{"zip_code":"6050009","kana_pref":"ｷｮｳﾄﾌ","kana_city":"ｷｮｳﾄｼﾋｶﾞｼﾔﾏｸ","kana_address":"ｵｵﾊｼﾁｮｳ","pref":"京都府","city":"京都市東山区","address":"大橋町"},
{"zip_code":"6050833","kana_pref":"ｷｮｳﾄﾌ","kana_city":"ｷｮｳﾄｼﾋｶﾞｼﾔﾏｸ","kana_address":"ｵﾄﾜﾁｮｳ","pref":"京都府","city":"京都市東山区","address":"音羽町"},
{"zip_code":"6050909","kana_pref":"ｷｮｳﾄﾌ","kana_city":"ｷｮｳﾄｼﾋｶﾞｼﾔﾏｸ","kana_address":"ｶｷﾞﾔﾁｮｳ","pref":"京都府","city":"京都市東山区","address":"鍵屋町"},
{"zip_code":"6050843","kana_pref":"ｷｮｳﾄﾌ","kana_city":"ｷｮｳﾄｼﾋｶﾞｼﾔﾏｸ","kana_address":"ｶﾄﾞﾜｷﾁｮｳ","pref":"京都府","city":"京都市東山区","address":"門脇町"},
{"zip_code":"6050834","kana_pref":"ｷｮｳﾄﾌ","kana_city":"ｷｮｳﾄｼﾋｶﾞｼﾔﾏｸ","kana_address":"ｶﾅﾔﾁｮｳ","pref":"京都府","city":"京都市東山区","address":"金屋町"},
{"zip_code":"6050875","kana_pref":"ｷｮｳﾄﾌ","kana_city":"ｷｮｳﾄｼﾋｶﾞｼﾔﾏｸ","kana_address":"ｶﾈｲﾁｮｳ","pref":"京都府","city":"京都市東山区","address":"鐘鋳町"},
{"zip_code":"6050877","kana_pref":"ｷｮｳﾄﾌ","kana_city":"ｷｮｳﾄｼﾋｶﾞｼﾔﾏｸ","kana_address":"ｶﾐｱﾀﾗｼﾁｮｳ","pref":"京都府","city":"京都市東山区","address":"上新シ町"},
{"zip_code":"6050968","kana_pref":"ｷｮｳﾄﾌ","kana_city":"ｷｮｳﾄｼﾋｶﾞｼﾔﾏｸ","kana_address":"ｶﾐｲｹﾀﾞﾁｮｳ","pref":"京都府","city":"京都市東山区","address":"上池田町"},
{"zip_code":"6050927","kana_pref":"ｷｮｳﾄﾌ","kana_city":"ｷｮｳﾄｼﾋｶﾞｼﾔﾏｸ","kana_address":"ｶﾐｳﾏﾁｮｳ","pref":"京都府","city":"京都市東山区","address":"上馬町"},
{"zip_code":"6050876","kana_pref":"ｷｮｳﾄﾌ","kana_city":"ｷｮｳﾄｼﾋｶﾞｼﾔﾏｸ","kana_address":"ｶﾐｳﾒﾔﾁｮｳ","pref":"京都府","city":"京都市東山区","address":"上梅屋町"},
{"zip_code":"6050916","kana_pref":"ｷｮｳﾄﾌ","kana_city":"ｷｮｳﾄｼﾋｶﾞｼﾔﾏｸ","kana_address":"ｶﾐﾄｳﾘｮｳﾁｮｳ","pref":"京都府","city":"京都市東山区","address":"上棟梁町"},
{"zip_code":"6050822","kana_pref":"ｷｮｳﾄﾌ","kana_city":"ｷｮｳﾄｼﾋｶﾞｼﾔﾏｸ","kana_address":"ｶﾐﾍﾞﾝﾃﾝﾁｮｳ","pref":"京都府","city":"京都市東山区","address":"上弁天町"},
{"zip_code":"6050991","kana_pref":"ｷｮｳﾄﾌ","kana_city":"ｷｮｳﾄｼﾋｶﾞｼﾔﾏｸ","kana_address":"ｶﾐﾎﾘﾂﾒﾁｮｳ","pref":"京都府","city":"京都市東山区","address":"上堀詰町"},
{"zip_code":"6050807","kana_pref":"ｷｮｳﾄﾌ","kana_city":"ｷｮｳﾄｼﾋｶﾞｼﾔﾏｸ","kana_address":"ｶﾐﾔﾅｷﾞﾁｮｳ","pref":"京都府","city":"京都市東山区","address":"上柳町"},
{"zip_code":"6050803","kana_pref":"ｷｮｳﾄﾌ","kana_city":"ｷｮｳﾄｼﾋｶﾞｼﾔﾏｸ","kana_address":"ｶﾒｲﾁｮｳ","pref":"京都府","city":"京都市東山区","address":"亀井町"},
{"zip_code":"6050069","kana_pref":"ｷｮｳﾄﾌ","kana_city":"ｷｮｳﾄｼﾋｶﾞｼﾔﾏｸ","kana_address":"ｶﾗﾄﾊﾅﾁｮｳ","pref":"京都府","city":"京都市東山区","address":"唐戸鼻町"},
{"zip_code":"6050076","kana_pref":"ｷｮｳﾄﾌ","kana_city":"ｷｮｳﾄｼﾋｶﾞｼﾔﾏｸ","kana_address":"ｶﾜﾊﾞﾀﾁｮｳ","pref":"京都府","city":"京都市東山区","address":"川端町"},
{"zip_code":"6050921","kana_pref":"ｷｮｳﾄﾌ","kana_city":"ｷｮｳﾄｼﾋｶﾞｼﾔﾏｸ","kana_address":"ｶﾜﾗﾔｸﾁｮｳ","pref":"京都府","city":"京都市東山区","address":"瓦役町"},
{"zip_code":"6050074","kana_pref":"ｷｮｳﾄﾌ","kana_city":"ｷｮｳﾄｼﾋｶﾞｼﾔﾏｸ","kana_address":"ｷﾞｵﾝﾏﾁﾐﾅﾐｶﾞﾜ","pref":"京都府","city":"京都市東山区","address":"祇園町南側"},
{"zip_code":"6050073","kana_pref":"ｷｮｳﾄﾌ","kana_city":"ｷｮｳﾄｼﾋｶﾞｼﾔﾏｸ","kana_address":"ｷﾞｵﾝﾏﾁｷﾀｶﾞﾜ","pref":"京都府","city":"京都市東山区","address":"祇園町北側"},
{"zip_code":"6050014","kana_pref":"ｷｮｳﾄﾌ","kana_city":"ｷｮｳﾄｼﾋｶﾞｼﾔﾏｸ","kana_address":"ｷﾀｷﾉﾓﾄﾁｮｳ","pref":"京都府","city":"京都市東山区","address":"北木之元町"},
{"zip_code":"6050815","kana_pref":"ｷｮｳﾄﾌ","kana_city":"ｷｮｳﾄｼﾋｶﾞｼﾔﾏｸ","kana_address":"ｷﾀｺﾞﾓﾝﾁｮｳ","pref":"京都府","city":"京都市東山区","address":"北御門町"},
{"zip_code":"6050918","kana_pref":"ｷｮｳﾄﾌ","kana_city":"ｷｮｳﾄｼﾋｶﾞｼﾔﾏｸ","kana_address":"ｷﾀﾄｳﾘｮｳﾁｮｳ","pref":"京都府","city":"京都市東山区","address":"北棟梁町"},
{"zip_code":"6050821","kana_pref":"ｷｮｳﾄﾌ","kana_city":"ｷｮｳﾄｼﾋｶﾞｼﾔﾏｸ","kana_address":"ｷﾖｲﾁｮｳ","pref":"京都府","city":"京都市東山区","address":"清井町"},
{"zip_code":"6050002","kana_pref":"ｷｮｳﾄﾌ","kana_city":"ｷｮｳﾄｼﾋｶﾞｼﾔﾏｸ","kana_address":"ｷｮｳｷﾞｮｳﾁｮｳ","pref":"京都府","city":"京都市東山区","address":"教業町"},
{"zip_code":"6050862","kana_pref":"ｷｮｳﾄﾌ","kana_city":"ｷｮｳﾄｼﾋｶﾞｼﾔﾏｸ","kana_address":"ｷﾖﾐｽﾞ","pref":"京都府","city":"京都市東山区","address":"清水"},
{"zip_code":"6050084","kana_pref":"ｷｮｳﾄﾌ","kana_city":"ｷｮｳﾄｼﾋｶﾞｼﾔﾏｸ","kana_address":"ｷﾖﾓﾄﾁｮｳ","pref":"京都府","city":"京都市東山区","address":"清本町"},
{"zip_code":"6050828","kana_pref":"ｷｮｳﾄﾌ","kana_city":"ｷｮｳﾄｼﾋｶﾞｼﾔﾏｸ","kana_address":"ｷﾝｴﾝﾁｮｳ","pref":"京都府","city":"京都市東山区","address":"金園町"},
{"zip_code":"6050857","kana_pref":"ｷｮｳﾄﾌ","kana_city":"ｷｮｳﾄｼﾋｶﾞｼﾔﾏｸ","kana_address":"ｺｳｾﾞﾝﾁｮｳ","pref":"京都府","city":"京都市東山区","address":"興善町"},
{"zip_code":"6050007","kana_pref":"ｷｮｳﾄﾌ","kana_city":"ｷｮｳﾄｼﾋｶﾞｼﾔﾏｸ","kana_address":"ｺﾞｹﾝﾁｮｳ","pref":"京都府","city":"京都市東山区","address":"五軒町"},
{"zip_code":"6050036","kana_pref":"ｷｮｳﾄﾌ","kana_city":"ｷｮｳﾄｼﾋｶﾞｼﾔﾏｸ","kana_address":"ｺﾞｹﾝﾁｮｳ(ｻﾝｼﾞｮｳﾄﾞｵﾘｼﾗｶﾜﾊﾞｼﾋｶﾞｼｲﾙ","pref":"京都府","city":"京都市東山区","address":"五軒町（三条通白川橋東入"},
{"zip_code":"6050036","kana_pref":"ｷｮｳﾄﾌ","kana_city":"ｷｮｳﾄｼﾋｶﾞｼﾔﾏｸ","kana_address":"ｻﾝｼﾞｮｳﾄﾞｵﾘｼﾗｶﾜﾊﾞｼｻｶﾞﾙﾋｶﾞｼｲﾙ","pref":"京都府","city":"京都市東山区","address":"三条通白川橋下る東入"},
{"zip_code":"6050036","kana_pref":"ｷｮｳﾄﾌ","kana_city":"ｷｮｳﾄｼﾋｶﾞｼﾔﾏｸ","kana_address":"","pref":"京都府","city":"京都市東山区","address":""},
{"zip_code":"6050036","kana_pref":"ｷｮｳﾄﾌ","kana_city":"ｷｮｳﾄｼﾋｶﾞｼﾔﾏｸ","kana_address":"ｼﾗｶﾜｽｼﾞｻﾝｼﾞｮｳｻｶﾞﾙ)","pref":"京都府","city":"京都市東山区","address":"白川筋三条下る）"},
{"zip_code":"6050858","kana_pref":"ｷｮｳﾄﾌ","kana_city":"ｷｮｳﾄｼﾋｶﾞｼﾔﾏｸ","kana_address":"ｺｼﾞﾏﾁｮｳ","pref":"京都府","city":"京都市東山区","address":"小島町"},
{"zip_code":"6050846","kana_pref":"ｷｮｳﾄﾌ","kana_city":"ｷｮｳﾄｼﾋｶﾞｼﾔﾏｸ","kana_address":"ｺﾞｼﾞｮｳﾊｼﾋｶﾞｼ","pref":"京都府","city":"京都市東山区","address":"五条橋東"},
{"zip_code":"6050811","kana_pref":"ｷｮｳﾄﾌ","kana_city":"ｷｮｳﾄｼﾋｶﾞｼﾔﾏｸ","kana_address":"ｺﾏﾂﾁｮｳ","pref":"京都府","city":"京都市東山区","address":"小松町"},
{"zip_code":"6050012","kana_pref":"ｷｮｳﾄﾌ","kana_city":"ｷｮｳﾄｼﾋｶﾞｼﾔﾏｸ","kana_address":"ｻｲｶｲｼﾁｮｳ","pref":"京都府","city":"京都市東山区","address":"西海子町"},
{"zip_code":"6050902","kana_pref":"ｷｮｳﾄﾌ","kana_city":"ｷｮｳﾄｼﾋｶﾞｼﾔﾏｸ","kana_address":"ｻﾔﾏﾁ","pref":"京都府","city":"京都市東山区","address":"鞘町"},
{"zip_code":"6050941","kana_pref":"ｷｮｳﾄﾌ","kana_city":"ｷｮｳﾄｼﾋｶﾞｼﾔﾏｸ","kana_address":"ｻﾝｼﾞｭｳｻﾝｹﾞﾝﾄﾞｳﾏﾜﾘﾁｮｳ","pref":"京都府","city":"京都市東山区","address":"三十三間堂廻り町"},
{"zip_code":"6050005","kana_pref":"ｷｮｳﾄﾌ","kana_city":"ｷｮｳﾄｼﾋｶﾞｼﾔﾏｸ","kana_address":"ｻﾝﾁｮｳﾒ","pref":"京都府","city":"京都市東山区","address":"三町目"},
{"zip_code":"6050011","kana_pref":"ｷｮｳﾄﾌ","kana_city":"ｷｮｳﾄｼﾋｶﾞｼﾔﾏｸ","kana_address":"ｼﾁｹﾝﾁｮｳ","pref":"京都府","city":"京都市東山区","address":"七軒町"},
{"zip_code":"6050943","kana_pref":"ｷｮｳﾄﾌ","kana_city":"ｷｮｳﾄｼﾋｶﾞｼﾔﾏｸ","kana_address":"ｼﾁｹﾝﾁｮｳ","pref":"京都府","city":"京都市東山区","address":"七軒町"},
{"zip_code":"6050871","kana_pref":"ｷｮｳﾄﾌ","kana_city":"ｷｮｳﾄｼﾋｶﾞｼﾔﾏｸ","kana_address":"ｼﾞﾎｳｲﾝｱﾝﾏﾁ","pref":"京都府","city":"京都市東山区","address":"慈法院庵町"},
{"zip_code":"6050914","kana_pref":"ｷｮｳﾄﾌ","kana_city":"ｷｮｳﾄｼﾋｶﾞｼﾔﾏｸ","kana_address":"ｼﾓｱﾀﾗｼﾁｮｳ","pref":"京都府","city":"京都市東山区","address":"下新シ町"},
{"zip_code":"6050966","kana_pref":"ｷｮｳﾄﾌ","kana_city":"ｷｮｳﾄｼﾋｶﾞｼﾔﾏｸ","kana_address":"ｼﾓｲｹﾀﾞﾁｮｳ","pref":"京都府","city":"京都市東山区","address":"下池田町"},
{"zip_code":"6050873","kana_pref":"ｷｮｳﾄﾌ","kana_city":"ｷｮｳﾄｼﾋｶﾞｼﾔﾏｸ","kana_address":"ｼﾓｳﾏﾁｮｳ","pref":"京都府","city":"京都市東山区","address":"下馬町"},
{"zip_code":"6050915","kana_pref":"ｷｮｳﾄﾌ","kana_city":"ｷｮｳﾄｼﾋｶﾞｼﾔﾏｸ","kana_address":"ｼﾓｳﾒﾔﾁｮｳ","pref":"京都府","city":"京都市東山区","address":"下梅屋町"},
{"zip_code":"6050825","kana_pref":"ｷｮｳﾄﾌ","kana_city":"ｷｮｳﾄｼﾋｶﾞｼﾔﾏｸ","kana_address":"ｼﾓｶﾜﾗﾁｮｳ","pref":"京都府","city":"京都市東山区","address":"下河原町"},
{"zip_code":"6050937","kana_pref":"ｷｮｳﾄﾌ","kana_city":"ｷｮｳﾄｼﾋｶﾞｼﾔﾏｸ","kana_address":"ｼﾓﾄｳﾘｮｳﾁｮｳ","pref":"京都府","city":"京都市東山区","address":"下棟梁町"},
{"zip_code":"6050823","kana_pref":"ｷｮｳﾄﾌ","kana_city":"ｷｮｳﾄｼﾋｶﾞｼﾔﾏｸ","kana_address":"ｼﾓﾍﾞﾝﾃﾝﾁｮｳ","pref":"京都府","city":"京都市東山区","address":"下弁天町"},
{"zip_code":"6050992","kana_pref":"ｷｮｳﾄﾌ","kana_city":"ｷｮｳﾄｼﾋｶﾞｼﾔﾏｸ","kana_address":"ｼﾓﾎﾘﾂﾒﾁｮｳ","pref":"京都府","city":"京都市東山区","address":"下堀詰町"},
{"zip_code":"6050808","kana_pref":"ｷｮｳﾄﾌ","kana_city":"ｷｮｳﾄｼﾋｶﾞｼﾔﾏｸ","kana_address":"ｼﾓﾔﾅｷﾞﾁｮｳ","pref":"京都府","city":"京都市東山区","address":"下柳町"},
{"zip_code":"6050903","kana_pref":"ｷｮｳﾄﾌ","kana_city":"ｷｮｳﾄｼﾋｶﾞｼﾔﾏｸ","kana_address":"ｼｮｳﾆﾝﾁｮｳ","pref":"京都府","city":"京都市東山区","address":"上人町"},
{"zip_code":"6050031","kana_pref":"ｷｮｳﾄﾌ","kana_city":"ｷｮｳﾄｼﾋｶﾞｼﾔﾏｸ","kana_address":"ｼﾞｮｳﾎｳｼﾞﾁｮｳ","pref":"京都府","city":"京都市東山区","address":"定法寺町"},
{"zip_code":"6050908","kana_pref":"ｷｮｳﾄﾌ","kana_city":"ｷｮｳﾄｼﾋｶﾞｼﾔﾏｸ","kana_address":"ｼｮｳﾒﾝﾁｮｳ","pref":"京都府","city":"京都市東山区","address":"正面町"},
{"zip_code":"6050865","kana_pref":"ｷｮｳﾄﾌ","kana_city":"ｷｮｳﾄｼﾋｶﾞｼﾔﾏｸ","kana_address":"ｼﾗｲﾄﾁｮｳ","pref":"京都府","city":"京都市東山区","address":"白糸町"},
{"zip_code":"6050962","kana_pref":"ｷｮｳﾄﾌ","kana_city":"ｷｮｳﾄｼﾋｶﾞｼﾔﾏｸ","kana_address":"ｼﾝｶﾜﾗﾁｮｳﾋｶﾞｼｸﾞﾐ","pref":"京都府","city":"京都市東山区","address":"新瓦町東組"},
{"zip_code":"6050961","kana_pref":"ｷｮｳﾄﾌ","kana_city":"ｷｮｳﾄｼﾋｶﾞｼﾔﾏｸ","kana_address":"ｼﾝｶﾜﾗﾁｮｳﾆｼｸﾞﾐ","pref":"京都府","city":"京都市東山区","address":"新瓦町西組"},
{"zip_code":"6050006","kana_pref":"ｷｮｳﾄﾌ","kana_city":"ｷｮｳﾄｼﾋｶﾞｼﾔﾏｸ","kana_address":"ｼﾝｺﾞｹﾝﾁｮｳ","pref":"京都府","city":"京都市東山区","address":"新五軒町"},
{"zip_code":"6050016","kana_pref":"ｷｮｳﾄﾌ","kana_city":"ｷｮｳﾄｼﾋｶﾞｼﾔﾏｸ","kana_address":"ｼﾝﾉﾁｮｳ","pref":"京都府","city":"京都市東山区","address":"進之町"},
{"zip_code":"6050085","kana_pref":"ｷｮｳﾄﾌ","kana_city":"ｷｮｳﾄｼﾋｶﾞｼﾔﾏｸ","kana_address":"ｽｴﾖｼﾁｮｳ","pref":"京都府","city":"京都市東山区","address":"末吉町"},
{"zip_code":"6050901","kana_pref":"ｷｮｳﾄﾌ","kana_city":"ｷｮｳﾄｼﾋｶﾞｼﾔﾏｸ","kana_address":"ｽｼﾞｬｸﾁｮｳ","pref":"京都府","city":"京都市東山区","address":"朱雀町"},
{"zip_code":"6050923","kana_pref":"ｷｮｳﾄﾌ","kana_city":"ｷｮｳﾄｼﾋｶﾞｼﾔﾏｸ","kana_address":"ｾｲｶﾝｼﾞｲｹﾀﾞﾁｮｳ","pref":"京都府","city":"京都市東山区","address":"清閑寺池田町"},
{"zip_code":"6050922","kana_pref":"ｷｮｳﾄﾌ","kana_city":"ｷｮｳﾄｼﾋｶﾞｼﾔﾏｸ","kana_address":"ｾｲｶﾝｼﾞﾔﾏﾉｳﾁﾁｮｳ","pref":"京都府","city":"京都市東山区","address":"清閑寺山ノ内町"},
{"zip_code":"6050861","kana_pref":"ｷｮｳﾄﾌ","kana_city":"ｷｮｳﾄｼﾋｶﾞｼﾔﾏｸ","kana_address":"ｾｲｶﾝｼﾞﾘｮｳｻﾞﾝﾁｮｳ","pref":"京都府","city":"京都市東山区","address":"清閑寺霊山町"},
{"zip_code":"6050021","kana_pref":"ｷｮｳﾄﾌ","kana_city":"ｷｮｳﾄｼﾋｶﾞｼﾔﾏｸ","kana_address":"ｾｷｾﾝｲﾝﾁｮｳ","pref":"京都府","city":"京都市東山区","address":"石泉院町"},
{"zip_code":"6050974","kana_pref":"ｷｮｳﾄﾌ","kana_city":"ｷｮｳﾄｼﾋｶﾞｼﾔﾏｸ","kana_address":"ｾﾝﾆｭｳｼﾞｺﾞﾖｳﾉﾂｼﾞﾁｮｳ","pref":"京都府","city":"京都市東山区","address":"泉涌寺五葉ノ辻町"},
{"zip_code":"6050975","kana_pref":"ｷｮｳﾄﾌ","kana_city":"ｷｮｳﾄｼﾋｶﾞｼﾔﾏｸ","kana_address":"ｾﾝﾆｭｳｼﾞｽｽﾞﾒｶﾞﾓﾘﾁｮｳ","pref":"京都府","city":"京都市東山区","address":"泉涌寺雀ケ森町"},
{"zip_code":"6050976","kana_pref":"ｷｮｳﾄﾌ","kana_city":"ｷｮｳﾄｼﾋｶﾞｼﾔﾏｸ","kana_address":"ｾﾝﾆｭｳｼﾞﾄｳﾘﾝﾁｮｳ","pref":"京都府","city":"京都市東山区","address":"泉涌寺東林町"},
{"zip_code":"6050973","kana_pref":"ｷｮｳﾄﾌ","kana_city":"ｷｮｳﾄｼﾋｶﾞｼﾔﾏｸ","kana_address":"ｾﾝﾆｭｳｼﾞﾓﾝｾﾞﾝﾁｮｳ","pref":"京都府","city":"京都市東山区","address":"泉涌寺門前町"},
{"zip_code":"6050977","kana_pref":"ｷｮｳﾄﾌ","kana_city":"ｷｮｳﾄｼﾋｶﾞｼﾔﾏｸ","kana_address":"ｾﾝﾆｭｳｼﾞﾔﾏﾉｳﾁﾁｮｳ","pref":"京都府","city":"京都市東山区","address":"泉涌寺山内町"},
{"zip_code":"6050008","kana_pref":"ｷｮｳﾄﾌ","kana_city":"ｷｮｳﾄｼﾋｶﾞｼﾔﾏｸ","kana_address":"ﾀﾞｲｺｸﾁｮｳ","pref":"京都府","city":"京都市東山区","address":"大黒町"},
{"zip_code":"6050832","kana_pref":"ｷｮｳﾄﾌ","kana_city":"ｷｮｳﾄｼﾋｶﾞｼﾔﾏｸ","kana_address":"ﾀﾞｲｺｸﾁｮｳ","pref":"京都府","city":"京都市東山区","address":"大黒町（大黒町通柿町下る"},
{"zip_code":"6050832","kana_pref":"ｷｮｳﾄﾌ","kana_city":"ｷｮｳﾄｼﾋｶﾞｼﾔﾏｸ","kana_address":"ﾀﾞｲｺｸﾁｮｳ","pref":"京都府","city":"京都市東山区","address":"大黒町通五条上る"},
{"zip_code":"6050832","kana_pref":"ｷｮｳﾄﾌ","kana_city":"ｷｮｳﾄｼﾋｶﾞｼﾔﾏｸ","kana_address":"ﾀﾞｲｺｸﾁｮｳ","pref":"京都府","city":"京都市東山区","address":"大黒町通五条上る２丁目"},
{"zip_code":"6050832","kana_pref":"ｷｮｳﾄﾌ","kana_city":"ｷｮｳﾄｼﾋｶﾞｼﾔﾏｸ","kana_address":"ﾀﾞｲｺｸﾁｮｳ","pref":"京都府","city":"京都市東山区","address":""},
{"zip_code":"6050832","kana_pref":"ｷｮｳﾄﾌ","kana_city":"ｷｮｳﾄｼﾋｶﾞｼﾔﾏｸ","kana_address":"ﾀﾞｲｺｸﾁｮｳ","pref":"京都府","city":"京都市東山区","address":"大黒町通松原下る３丁目）"},
{"zip_code":"6050017","kana_pref":"ｷｮｳﾄﾌ","kana_city":"ｷｮｳﾄｼﾋｶﾞｼﾔﾏｸ","kana_address":"ﾀｶﾊﾞﾀｹﾁｮｳ","pref":"京都府","city":"京都市東山区","address":"高畑町"},
{"zip_code":"6050845","kana_pref":"ｷｮｳﾄﾌ","kana_city":"ｷｮｳﾄｼﾋｶﾞｼﾔﾏｸ","kana_address":"ﾀｹﾑﾗﾁｮｳ","pref":"京都府","city":"京都市東山区","address":"竹村町"},
{"zip_code":"6050018","kana_pref":"ｷｮｳﾄﾌ","kana_city":"ｷｮｳﾄｼﾋｶﾞｼﾔﾏｸ","kana_address":"ﾀﾂﾐﾁｮｳ","pref":"京都府","city":"京都市東山区","address":"巽町"},
{"zip_code":"6050855","kana_pref":"ｷｮｳﾄﾌ","kana_city":"ｷｮｳﾄｼﾋｶﾞｼﾔﾏｸ","kana_address":"ﾀﾂﾐﾁｮｳ","pref":"京都府","city":"京都市東山区","address":"辰巳町"},
{"zip_code":"6050945","kana_pref":"ｷｮｳﾄﾌ","kana_city":"ｷｮｳﾄｼﾋｶﾞｼﾔﾏｸ","kana_address":"ﾀﾂﾐﾁｮｳ","pref":"京都府","city":"京都市東山区","address":"辰巳町"},
{"zip_code":"6050835","kana_pref":"ｷｮｳﾄﾌ","kana_city":"ｷｮｳﾄｼﾋｶﾞｼﾔﾏｸ","kana_address":"ﾀﾅｶﾁｮｳ","pref":"京都府","city":"京都市東山区","address":"田中町"},
{"zip_code":"6050045","kana_pref":"ｷｮｳﾄﾌ","kana_city":"ｷｮｳﾄｼﾋｶﾞｼﾔﾏｸ","kana_address":"ﾀﾆｶﾞﾜﾁｮｳ","pref":"京都府","city":"京都市東山区","address":"谷川町"},
{"zip_code":"6050851","kana_pref":"ｷｮｳﾄﾌ","kana_city":"ｷｮｳﾄｼﾋｶﾞｼﾔﾏｸ","kana_address":"ﾀﾏﾐｽﾞﾁｮｳ","pref":"京都府","city":"京都市東山区","address":"玉水町"},
{"zip_code":"6050844","kana_pref":"ｷｮｳﾄﾌ","kana_city":"ｷｮｳﾄｼﾋｶﾞｼﾔﾏｸ","kana_address":"ﾀﾓﾝﾁｮｳ","pref":"京都府","city":"京都市東山区","address":"多門町"},
{"zip_code":"6050931","kana_pref":"ｷｮｳﾄﾌ","kana_city":"ｷｮｳﾄｼﾋｶﾞｼﾔﾏｸ","kana_address":"ﾁｬﾔﾁｮｳ","pref":"京都府","city":"京都市東山区","address":"茶屋町"},
{"zip_code":"6050854","kana_pref":"ｷｮｳﾄﾌ","kana_city":"ｷｮｳﾄｼﾋｶﾞｼﾔﾏｸ","kana_address":"ﾂｷﾉﾜﾁｮｳ","pref":"京都府","city":"京都市東山区","address":"月輪町"},
{"zip_code":"6050829","kana_pref":"ｷｮｳﾄﾌ","kana_city":"ｷｮｳﾄｼﾋｶﾞｼﾔﾏｸ","kana_address":"ﾂｷﾐﾁｮｳ","pref":"京都府","city":"京都市東山区","address":"月見町"},
{"zip_code":"6050025","kana_pref":"ｷｮｳﾄﾌ","kana_city":"ｷｮｳﾄｼﾋｶﾞｼﾔﾏｸ","kana_address":"ﾂﾂﾐﾁｮｳ","pref":"京都府","city":"京都市東山区","address":"堤町"},
{"zip_code":"6050024","kana_pref":"ｷｮｳﾄﾌ","kana_city":"ｷｮｳﾄｼﾋｶﾞｼﾔﾏｸ","kana_address":"ﾄﾞｲﾉｳﾁﾁｮｳ","pref":"京都府","city":"京都市東山区","address":"土居之内町"},
{"zip_code":"6050079","kana_pref":"ｷｮｳﾄﾌ","kana_city":"ｷｮｳﾄｼﾋｶﾞｼﾔﾏｸ","kana_address":"ﾄｷﾜﾁｮｳ","pref":"京都府","city":"京都市東山区","address":"常盤町"},
{"zip_code":"6050874","kana_pref":"ｷｮｳﾄﾌ","kana_city":"ｷｮｳﾄｼﾋｶﾞｼﾔﾏｸ","kana_address":"ﾄｷﾜﾁｮｳ","pref":"京都府","city":"京都市東山区","address":"常盤町（東大路通渋谷上る"},
{"zip_code":"6050874","kana_pref":"ｷｮｳﾄﾌ","kana_city":"ｷｮｳﾄｼﾋｶﾞｼﾔﾏｸ","kana_address":"ﾄｷﾜﾁｮｳ","pref":"京都府","city":"京都市東山区","address":"渋谷通東大路東入"},
{"zip_code":"6050874","kana_pref":"ｷｮｳﾄﾌ","kana_city":"ｷｮｳﾄｼﾋｶﾞｼﾔﾏｸ","kana_address":"ﾄｷﾜﾁｮｳ","pref":"京都府","city":"京都市東山区","address":"渋谷通東大路東入２丁目"},
{"zip_code":"6050874","kana_pref":"ｷｮｳﾄﾌ","kana_city":"ｷｮｳﾄｼﾋｶﾞｼﾔﾏｸ","kana_address":"ﾄｷﾜﾁｮｳ","pref":"京都府","city":"京都市東山区","address":""},
{"zip_code":"6050874","kana_pref":"ｷｮｳﾄﾌ","kana_city":"ｷｮｳﾄｼﾋｶﾞｼﾔﾏｸ","kana_address":"ﾄｷﾜﾁｮｳ","pref":"京都府","city":"京都市東山区","address":"東大路五条下る）"},
{"zip_code":"6050078","kana_pref":"ｷｮｳﾄﾌ","kana_city":"ｷｮｳﾄｼﾋｶﾞｼﾔﾏｸ","kana_address":"ﾄﾐﾅｶﾞﾁｮｳ","pref":"京都府","city":"京都市東山区","address":"富永町"},
{"zip_code":"6050905","kana_pref":"ｷｮｳﾄﾌ","kana_city":"ｷｮｳﾄｼﾋｶﾞｼﾔﾏｸ","kana_address":"ﾄﾖｳﾗﾁｮｳ","pref":"京都府","city":"京都市東山区","address":"豊浦町"},
{"zip_code":"6050034","kana_pref":"ｷｮｳﾄﾌ","kana_city":"ｷｮｳﾄｼﾋｶﾞｼﾔﾏｸ","kana_address":"ﾅｶﾉﾁｮｳ","pref":"京都府","city":"京都市東山区","address":"中之町（三条通神宮道東入２丁目"},
{"zip_code":"6050034","kana_pref":"ｷｮｳﾄﾌ","kana_city":"ｷｮｳﾄｼﾋｶﾞｼﾔﾏｸ","kana_address":"ﾅｶﾉﾁｮｳ","pref":"京都府","city":"京都市東山区","address":"三条通白川橋東入４丁目"},
{"zip_code":"6050034","kana_pref":"ｷｮｳﾄﾌ","kana_city":"ｷｮｳﾄｼﾋｶﾞｼﾔﾏｸ","kana_address":"ﾅｶﾉﾁｮｳ","pref":"京都府","city":"京都市東山区","address":"三条通白川橋東"},
{"zip_code":"6050034","kana_pref":"ｷｮｳﾄﾌ","kana_city":"ｷｮｳﾄｼﾋｶﾞｼﾔﾏｸ","kana_address":"ﾅｶﾉﾁｮｳ","pref":"京都府","city":"京都市東山区","address":"４丁目）"},
{"zip_code":"6050075","kana_pref":"ｷｮｳﾄﾌ","kana_city":"ｷｮｳﾄｼﾋｶﾞｼﾔﾏｸ","kana_address":"ﾅｶﾉﾁｮｳ","pref":"京都府","city":"京都市東山区","address":"中之町"},
{"zip_code":"6050082","kana_pref":"ｷｮｳﾄﾌ","kana_city":"ｷｮｳﾄｼﾋｶﾞｼﾔﾏｸ","kana_address":"ﾅｶﾉﾁｮｳ","pref":"京都府","city":"京都市東山区","address":"中之町"},
{"zip_code":"6050019","kana_pref":"ｷｮｳﾄﾌ","kana_city":"ｷｮｳﾄｼﾋｶﾞｼﾔﾏｸ","kana_address":"ﾅｶﾞﾐﾂﾁｮｳ","pref":"京都府","city":"京都市東山区","address":"長光町"},
{"zip_code":"6050838","kana_pref":"ｷｮｳﾄﾌ","kana_city":"ｷｮｳﾄｼﾋｶﾞｼﾔﾏｸ","kana_address":"ﾆｼｶﾜﾗﾁｮｳ","pref":"京都府","city":"京都市東山区","address":"西川原町"},
{"zip_code":"6050043","kana_pref":"ｷｮｳﾄﾌ","kana_city":"ｷｮｳﾄｼﾋｶﾞｼﾔﾏｸ","kana_address":"ﾆｼｺﾓﾉｻﾞﾁｮｳ","pref":"京都府","city":"京都市東山区","address":"西小物座町"},
{"zip_code":"6050816","kana_pref":"ｷｮｳﾄﾌ","kana_city":"ｷｮｳﾄｼﾋｶﾞｼﾔﾏｸ","kana_address":"ﾆｼｺﾞﾓﾝﾁｮｳ","pref":"京都府","city":"京都市東山区","address":"西御門町"},
{"zip_code":"6050907","kana_pref":"ｷｮｳﾄﾌ","kana_city":"ｷｮｳﾄｼﾋｶﾞｼﾔﾏｸ","kana_address":"ﾆｼﾀﾁﾊﾞﾅﾁｮｳ","pref":"京都府","city":"京都市東山区","address":"西橘町"},
{"zip_code":"6050935","kana_pref":"ｷｮｳﾄﾌ","kana_city":"ｷｮｳﾄｼﾋｶﾞｼﾔﾏｸ","kana_address":"ﾆｼﾄｳﾘｮｳﾁｮｳ","pref":"京都府","city":"京都市東山区","address":"西棟梁町"},
{"zip_code":"6050088","kana_pref":"ｷｮｳﾄﾌ","kana_city":"ｷｮｳﾄｼﾋｶﾞｼﾔﾏｸ","kana_address":"ﾆｼﾉﾁｮｳ","pref":"京都府","city":"京都市東山区","address":"西之町"},
{"zip_code":"6050947","kana_pref":"ｷｮｳﾄﾌ","kana_city":"ｷｮｳﾄｼﾋｶﾞｼﾔﾏｸ","kana_address":"ﾆｼﾉﾓﾝﾁｮｳ","pref":"京都府","city":"京都市東山区","address":"西之門町"},
{"zip_code":"6050037","kana_pref":"ｷｮｳﾄﾌ","kana_city":"ｷｮｳﾄｼﾋｶﾞｼﾔﾏｸ","kana_address":"ﾆｼﾏﾁ","pref":"京都府","city":"京都市東山区","address":"西町"},
{"zip_code":"6050077","kana_pref":"ｷｮｳﾄﾌ","kana_city":"ｷｮｳﾄｼﾋｶﾞｼﾔﾏｸ","kana_address":"ﾆｼﾞｭｳｲｯｹﾝﾁｮｳ","pref":"京都府","city":"京都市東山区","address":"廿一軒町"},
{"zip_code":"6050001","kana_pref":"ｷｮｳﾄﾌ","kana_city":"ｷｮｳﾄｼﾋｶﾞｼﾔﾏｸ","kana_address":"ﾆﾁｮｳﾒ","pref":"京都府","city":"京都市東山区","address":"二町目"},
{"zip_code":"6050934","kana_pref":"ｷｮｳﾄﾌ","kana_city":"ｷｮｳﾄｼﾋｶﾞｼﾔﾏｸ","kana_address":"ﾇｼﾔﾁｮｳ","pref":"京都府","city":"京都市東山区","address":"塗師屋町"},
{"zip_code":"6050863","kana_pref":"ｷｮｳﾄﾌ","kana_city":"ｷｮｳﾄｼﾋｶﾞｼﾔﾏｸ","kana_address":"ﾊﾞｲﾘﾝﾁｮｳ","pref":"京都府","city":"京都市東山区","address":"梅林町"},
{"zip_code":"6050805","kana_pref":"ｷｮｳﾄﾌ","kana_city":"ｷｮｳﾄｼﾋｶﾞｼﾔﾏｸ","kana_address":"ﾊｶﾀﾁｮｳ","pref":"京都府","city":"京都市東山区","address":"博多町"},
{"zip_code":"6050083","kana_pref":"ｷｮｳﾄﾌ","kana_city":"ｷｮｳﾄｼﾋｶﾞｼﾔﾏｸ","kana_address":"ﾊｼﾓﾄﾁｮｳ","pref":"京都府","city":"京都市東山区","address":"橋本町"},
{"zip_code":"6050027","kana_pref":"ｷｮｳﾄﾌ","kana_city":"ｷｮｳﾄｼﾋｶﾞｼﾔﾏｸ","kana_address":"ﾊﾁｹﾝﾁｮｳ","pref":"京都府","city":"京都市東山区","address":"八軒町"},
{"zip_code":"6050029","kana_pref":"ｷｮｳﾄﾌ","kana_city":"ｷｮｳﾄｼﾋｶﾞｼﾔﾏｸ","kana_address":"ﾋｶﾞｼｱﾈｺｳｼﾞﾁｮｳ","pref":"京都府","city":"京都市東山区","address":"東姉小路町"},
{"zip_code":"6050872","kana_pref":"ｷｮｳﾄﾌ","kana_city":"ｷｮｳﾄｼﾋｶﾞｼﾔﾏｸ","kana_address":"ﾋｶﾞｼｵﾄﾜﾁｮｳ","pref":"京都府","city":"京都市東山区","address":"東音羽町"},
{"zip_code":"6050839","kana_pref":"ｷｮｳﾄﾌ","kana_city":"ｷｮｳﾄｼﾋｶﾞｼﾔﾏｸ","kana_address":"ﾋｶﾞｼｶﾜﾗﾁｮｳ","pref":"京都府","city":"京都市東山区","address":"東川原町"},
{"zip_code":"6050951","kana_pref":"ｷｮｳﾄﾌ","kana_city":"ｷｮｳﾄｼﾋｶﾞｼﾔﾏｸ","kana_address":"ﾋｶﾞｼｶﾜﾗﾁｮｳ","pref":"京都府","city":"京都市東山区","address":"東瓦町"},
{"zip_code":"6050044","kana_pref":"ｷｮｳﾄﾌ","kana_city":"ｷｮｳﾄｼﾋｶﾞｼﾔﾏｸ","kana_address":"ﾋｶﾞｼｺﾓﾉｻﾞﾁｮｳ","pref":"京都府","city":"京都市東山区","address":"東小物座町"},
{"zip_code":"6050906","kana_pref":"ｷｮｳﾄﾌ","kana_city":"ｷｮｳﾄｼﾋｶﾞｼﾔﾏｸ","kana_address":"ﾋｶﾞｼﾀﾁﾊﾞﾅﾁｮｳ","pref":"京都府","city":"京都市東山区","address":"東橘町"},
{"zip_code":"6050041","kana_pref":"ｷｮｳﾄﾌ","kana_city":"ｷｮｳﾄｼﾋｶﾞｼﾔﾏｸ","kana_address":"ﾋｶﾞｼﾁｮｳ","pref":"京都府","city":"京都市東山区","address":"東町"},
{"zip_code":"6050847","kana_pref":"ｷｮｳﾄﾌ","kana_city":"ｷｮｳﾄｼﾋｶﾞｼﾔﾏｸ","kana_address":"ﾋｶﾞｼﾊｼﾂﾞﾒﾁｮｳ","pref":"京都府","city":"京都市東山区","address":"東橋詰町"},
{"zip_code":"6050046","kana_pref":"ｷｮｳﾄﾌ","kana_city":"ｷｮｳﾄｼﾋｶﾞｼﾔﾏｸ","kana_address":"ﾋｶﾞｼﾌﾞﾝｷﾁｮｳ","pref":"京都府","city":"京都市東山区","address":"東分木町"},
{"zip_code":"6050812","kana_pref":"ｷｮｳﾄﾌ","kana_city":"ｷｮｳﾄｼﾋｶﾞｼﾔﾏｸ","kana_address":"ﾋﾞｼｬﾓﾝﾁｮｳ","pref":"京都府","city":"京都市東山区","address":"毘沙門町"},
{"zip_code":"6050993","kana_pref":"ｷｮｳﾄﾌ","kana_city":"ｷｮｳﾄｼﾋｶﾞｼﾔﾏｸ","kana_address":"ﾋﾖｼﾁｮｳ","pref":"京都府","city":"京都市東山区","address":"日吉町"},
{"zip_code":"6050985","kana_pref":"ｷｮｳﾄﾌ","kana_city":"ｷｮｳﾄｼﾋｶﾞｼﾔﾏｸ","kana_address":"ﾌｸｲﾈｶｷﾓﾄﾁｮｳ","pref":"京都府","city":"京都市東山区","address":"福稲柿本町"},
{"zip_code":"6050983","kana_pref":"ｷｮｳﾄﾌ","kana_city":"ｷｮｳﾄｼﾋｶﾞｼﾔﾏｸ","kana_address":"ﾌｸｲﾈｶﾐﾀｶﾏﾂﾁｮｳ","pref":"京都府","city":"京都市東山区","address":"福稲上高松町"},
{"zip_code":"6050988","kana_pref":"ｷｮｳﾄﾌ","kana_city":"ｷｮｳﾄｼﾋｶﾞｼﾔﾏｸ","kana_address":"ﾌｸｲﾈｶﾜﾗﾁｮｳ","pref":"京都府","city":"京都市東山区","address":"福稲川原町"},
{"zip_code":"6050986","kana_pref":"ｷｮｳﾄﾌ","kana_city":"ｷｮｳﾄｼﾋｶﾞｼﾔﾏｸ","kana_address":"ﾌｸｲﾈｷｼﾉｶﾐﾁｮｳ","pref":"京都府","city":"京都市東山区","address":"福稲岸ノ上町"},
{"zip_code":"6050987","kana_pref":"ｷｮｳﾄﾌ","kana_city":"ｷｮｳﾄｼﾋｶﾞｼﾔﾏｸ","kana_address":"ﾌｸｲﾈｺﾞｼｮﾉｳﾁﾁｮｳ","pref":"京都府","city":"京都市東山区","address":"福稲御所ノ内町"},
{"zip_code":"6050982","kana_pref":"ｷｮｳﾄﾌ","kana_city":"ｷｮｳﾄｼﾋｶﾞｼﾔﾏｸ","kana_address":"ﾌｸｲﾈｼﾓﾀｶﾏﾂﾁｮｳ","pref":"京都府","city":"京都市東山区","address":"福稲下高松町"},
{"zip_code":"6050984","kana_pref":"ｷｮｳﾄﾌ","kana_city":"ｷｮｳﾄｼﾋｶﾞｼﾔﾏｸ","kana_address":"ﾌｸｲﾈﾀｶﾊﾗﾁｮｳ","pref":"京都府","city":"京都市東山区","address":"福稲高原町"},
{"zip_code":"6050911","kana_pref":"ｷｮｳﾄﾌ","kana_city":"ｷｮｳﾄｼﾋｶﾞｼﾔﾏｸ","kana_address":"ﾌｸﾛﾁｮｳ","pref":"京都府","city":"京都市東山区","address":"袋町"},
{"zip_code":"6050026","kana_pref":"ｷｮｳﾄﾌ","kana_city":"ｷｮｳﾄｼﾋｶﾞｼﾔﾏｸ","kana_address":"ﾌﾙｶﾜﾁｮｳ","pref":"京都府","city":"京都市東山区","address":"古川町"},
{"zip_code":"6050065","kana_pref":"ｷｮｳﾄﾌ","kana_city":"ｷｮｳﾄｼﾋｶﾞｼﾔﾏｸ","kana_address":"ﾌﾙﾆｼﾁｮｳ","pref":"京都府","city":"京都市東山区","address":"古西町"},
{"zip_code":"6050028","kana_pref":"ｷｮｳﾄﾌ","kana_city":"ｷｮｳﾄｼﾋｶﾞｼﾔﾏｸ","kana_address":"ﾌﾞﾝｷﾁｮｳ","pref":"京都府","city":"京都市東山区","address":"分木町"},
{"zip_code":"6050086","kana_pref":"ｷｮｳﾄﾌ","kana_city":"ｷｮｳﾄｼﾋｶﾞｼﾔﾏｸ","kana_address":"ﾍﾞﾝｻﾞｲﾃﾝﾁｮｳ","pref":"京都府","city":"京都市東山区","address":"弁財天町"},
{"zip_code":"6050946","kana_pref":"ｷｮｳﾄﾌ","kana_city":"ｷｮｳﾄｼﾋｶﾞｼﾔﾏｸ","kana_address":"ﾎｸﾄﾁｮｳ","pref":"京都府","city":"京都市東山区","address":"北斗町"},
{"zip_code":"6050853","kana_pref":"ｷｮｳﾄﾌ","kana_city":"ｷｮｳﾄｼﾋｶﾞｼﾔﾏｸ","kana_address":"ﾎｼﾉﾁｮｳ","pref":"京都府","city":"京都市東山区","address":"星野町"},
{"zip_code":"6050038","kana_pref":"ｷｮｳﾄﾌ","kana_city":"ｷｮｳﾄｼﾋｶﾞｼﾔﾏｸ","kana_address":"ﾎﾘｲｹﾁｮｳ","pref":"京都府","city":"京都市東山区","address":"堀池町"},
{"zip_code":"6050967","kana_pref":"ｷｮｳﾄﾌ","kana_city":"ｷｮｳﾄｼﾋｶﾞｼﾔﾏｸ","kana_address":"ﾎﾝｲｹﾀﾞﾁｮｳ","pref":"京都府","city":"京都市東山区","address":"本池田町"},
{"zip_code":"6050963","kana_pref":"ｷｮｳﾄﾌ","kana_city":"ｷｮｳﾄｼﾋｶﾞｼﾔﾏｸ","kana_address":"ﾎﾝｶﾜﾗﾁｮｳ","pref":"京都府","city":"京都市東山区","address":"本瓦町"},
{"zip_code":"6050981","kana_pref":"ｷｮｳﾄﾌ","kana_city":"ｷｮｳﾄｼﾋｶﾞｼﾔﾏｸ","kana_address":"ﾎﾝﾏﾁ","pref":"京都府","city":"京都市東山区","address":"本町"},
{"zip_code":"6050989","kana_pref":"ｷｮｳﾄﾌ","kana_city":"ｷｮｳﾄｼﾋｶﾞｼﾔﾏｸ","kana_address":"ﾎﾝﾏﾁｼﾝ","pref":"京都府","city":"京都市東山区","address":"本町新"},
{"zip_code":"6050942","kana_pref":"ｷｮｳﾄﾌ","kana_city":"ｷｮｳﾄｼﾋｶﾞｼﾔﾏｸ","kana_address":"ﾏｷﾀﾁｮｳ","pref":"京都府","city":"京都市東山区","address":"蒔田町"},
{"zip_code":"6050826","kana_pref":"ｷｮｳﾄﾌ","kana_city":"ｷｮｳﾄｼﾋｶﾞｼﾔﾏｸ","kana_address":"ﾏｽﾔﾁｮｳ","pref":"京都府","city":"京都市東山区","address":"桝屋町"},
{"zip_code":"6050063","kana_pref":"ｷｮｳﾄﾌ","kana_city":"ｷｮｳﾄｼﾋｶﾞｼﾔﾏｸ","kana_address":"ﾏﾂﾊﾞﾗﾁｮｳ","pref":"京都府","city":"京都市東山区","address":"松原町"},
{"zip_code":"6050071","kana_pref":"ｷｮｳﾄﾌ","kana_city":"ｷｮｳﾄｼﾋｶﾞｼﾔﾏｸ","kana_address":"ﾏﾙﾔﾏﾁｮｳ","pref":"京都府","city":"京都市東山区","address":"円山町"},
{"zip_code":"6050842","kana_pref":"ｷｮｳﾄﾌ","kana_city":"ｷｮｳﾄｼﾋｶﾞｼﾔﾏｸ","kana_address":"ﾐﾂﾓﾘﾁｮｳ","pref":"京都府","city":"京都市東山区","address":"三盛町"},
{"zip_code":"6050938","kana_pref":"ｷｮｳﾄﾌ","kana_city":"ｷｮｳﾄｼﾋｶﾞｼﾔﾏｸ","kana_address":"ﾐﾅﾐｳﾒﾔﾁｮｳ","pref":"京都府","city":"京都市東山区","address":"南梅屋町"},
{"zip_code":"6050964","kana_pref":"ｷｮｳﾄﾌ","kana_city":"ｷｮｳﾄｼﾋｶﾞｼﾔﾏｸ","kana_address":"ﾐﾅﾐｶﾜﾗﾁｮｳ","pref":"京都府","city":"京都市東山区","address":"南瓦町"},
{"zip_code":"6050015","kana_pref":"ｷｮｳﾄﾌ","kana_city":"ｷｮｳﾄｼﾋｶﾞｼﾔﾏｸ","kana_address":"ﾐﾅﾐｷﾉﾓﾄﾁｮｳ","pref":"京都府","city":"京都市東山区","address":"南木之元町"},
{"zip_code":"6050013","kana_pref":"ｷｮｳﾄﾌ","kana_city":"ｷｮｳﾄｼﾋｶﾞｼﾔﾏｸ","kana_address":"ﾐﾅﾐｻｲｶｲｼﾁｮｳ","pref":"京都府","city":"京都市東山区","address":"南西海子町"},
{"zip_code":"6050944","kana_pref":"ｷｮｳﾄﾌ","kana_city":"ｷｮｳﾄｼﾋｶﾞｼﾔﾏｸ","kana_address":"ﾐﾅﾐﾄｳﾘｮｳﾁｮｳ","pref":"京都府","city":"京都市東山区","address":"南棟梁町"},
{"zip_code":"6050824","kana_pref":"ｷｮｳﾄﾌ","kana_city":"ｷｮｳﾄｼﾋｶﾞｼﾔﾏｸ","kana_address":"ﾐﾅﾐﾏﾁ","pref":"京都府","city":"京都市東山区","address":"南町"},
{"zip_code":"6050801","kana_pref":"ｷｮｳﾄﾌ","kana_city":"ｷｮｳﾄｼﾋｶﾞｼﾔﾏｸ","kana_address":"ﾐﾔｶﾞﾜｽｼﾞ","pref":"京都府","city":"京都市東山区","address":"宮川筋"},
{"zip_code":"6050932","kana_pref":"ｷｮｳﾄﾌ","kana_city":"ｷｮｳﾄｼﾋｶﾞｼﾔﾏｸ","kana_address":"ﾐｮｳﾎｳｲﾝﾏｴｶﾜﾁｮｳ","pref":"京都府","city":"京都市東山区","address":"妙法院前側町"},
{"zip_code":"6050081","kana_pref":"ｷｮｳﾄﾌ","kana_city":"ｷｮｳﾄｼﾋｶﾞｼﾔﾏｸ","kana_address":"ﾐﾖｼﾁｮｳ","pref":"京都府","city":"京都市東山区","address":"三吉町"},
{"zip_code":"6050089","kana_pref":"ｷｮｳﾄﾌ","kana_city":"ｷｮｳﾄｼﾋｶﾞｼﾔﾏｸ","kana_address":"ﾓﾄﾏﾁ","pref":"京都府","city":"京都市東山区","address":"元町"},
{"zip_code":"6050087","kana_pref":"ｷｮｳﾄﾌ","kana_city":"ｷｮｳﾄｼﾋｶﾞｼﾔﾏｸ","kana_address":"ﾓﾄﾖｼﾁｮｳ","pref":"京都府","city":"京都市東山区","address":"元吉町"},
{"zip_code":"6050836","kana_pref":"ｷｮｳﾄﾌ","kana_city":"ｷｮｳﾄｼﾋｶﾞｼﾔﾏｸ","kana_address":"ﾓﾘｼﾀﾁｮｳ","pref":"京都府","city":"京都市東山区","address":"森下町"},
{"zip_code":"6050814","kana_pref":"ｷｮｳﾄﾌ","kana_city":"ｷｮｳﾄｼﾋｶﾞｼﾔﾏｸ","kana_address":"ﾔｸｼﾁｮｳ","pref":"京都府","city":"京都市東山区","address":"薬師町"},
{"zip_code":"6050827","kana_pref":"ｷｮｳﾄﾌ","kana_city":"ｷｮｳﾄｼﾋｶﾞｼﾔﾏｸ","kana_address":"ﾔｻｶｶﾐﾏﾁ","pref":"京都府","city":"京都市東山区","address":"八坂上町"},
{"zip_code":"6050841","kana_pref":"ｷｮｳﾄﾌ","kana_city":"ｷｮｳﾄｼﾋｶﾞｼﾔﾏｸ","kana_address":"ﾔﾏｻﾞｷﾁｮｳ","pref":"京都府","city":"京都市東山区","address":"山崎町"},
{"zip_code":"6050831","kana_pref":"ｷｮｳﾄﾌ","kana_city":"ｷｮｳﾄｼﾋｶﾞｼﾔﾏｸ","kana_address":"ﾔﾏｼﾛﾁｮｳ","pref":"京都府","city":"京都市東山区","address":"山城町"},
{"zip_code":"6050837","kana_pref":"ｷｮｳﾄﾌ","kana_city":"ｷｮｳﾄｼﾋｶﾞｼﾔﾏｸ","kana_address":"ﾔﾏﾀﾞﾁｮｳ","pref":"京都府","city":"京都市東山区","address":"山田町"},
{"zip_code":"6050933","kana_pref":"ｷｮｳﾄﾌ","kana_city":"ｷｮｳﾄｼﾋｶﾞｼﾔﾏｸ","kana_address":"ﾔﾏﾄｵｵｼﾞ","pref":"京都府","city":"京都市東山区","address":"大和大路"},
{"zip_code":"6050802","kana_pref":"ｷｮｳﾄﾌ","kana_city":"ｷｮｳﾄｼﾋｶﾞｼﾔﾏｸ","kana_address":"ﾔﾏﾄﾁｮｳ","pref":"京都府","city":"京都市東山区","address":"大和町"},
{"zip_code":"6050864","kana_pref":"ｷｮｳﾄﾌ","kana_city":"ｷｮｳﾄｼﾋｶﾞｼﾔﾏｸ","kana_address":"ﾕｳｷﾞｮｳﾏｴﾁｮｳ","pref":"京都府","city":"京都市東山区","address":"遊行前町"},
{"zip_code":"6050032","kana_pref":"ｷｮｳﾄﾌ","kana_city":"ｷｮｳﾄｼﾋｶﾞｼﾔﾏｸ","kana_address":"ﾕﾉｷﾁｮｳ","pref":"京都府","city":"京都市東山区","address":"柚之木町"},
{"zip_code":"6050817","kana_pref":"ｷｮｳﾄﾌ","kana_city":"ｷｮｳﾄｼﾋｶﾞｼﾔﾏｸ","kana_address":"ﾕﾐﾔﾁｮｳ","pref":"京都府","city":"京都市東山区","address":"弓矢町"},
{"zip_code":"6050878","kana_pref":"ｷｮｳﾄﾌ","kana_city":"ｷｮｳﾄｼﾋｶﾞｼﾔﾏｸ","kana_address":"ﾖｼﾉﾁｮｳ","pref":"京都府","city":"京都市東山区","address":"芳野町"},
{"zip_code":"6050062","kana_pref":"ｷｮｳﾄﾌ","kana_city":"ｷｮｳﾄｼﾋｶﾞｼﾔﾏｸ","kana_address":"ﾘﾝｶﾁｮｳ","pref":"京都府","city":"京都市東山区","address":"林下町"},
{"zip_code":"6050813","kana_pref":"ｷｮｳﾄﾌ","kana_city":"ｷｮｳﾄｼﾋｶﾞｼﾔﾏｸ","kana_address":"ﾛｸﾛﾁｮｳ","pref":"京都府","city":"京都市東山区","address":"轆轤町"},
{"zip_code":"6050806","kana_pref":"ｷｮｳﾄﾌ","kana_city":"ｷｮｳﾄｼﾋｶﾞｼﾔﾏｸ","kana_address":"ﾛｯｹﾝﾁｮｳ","pref":"京都府","city":"京都市東山区","address":"六軒町"},
{"zip_code":"6050003","kana_pref":"ｷｮｳﾄﾌ","kana_city":"ｷｮｳﾄｼﾋｶﾞｼﾔﾏｸ","kana_address":"ﾜｶﾀｹﾁｮｳ","pref":"京都府","city":"京都市東山区","address":"若竹町"},
{"zip_code":"6050004","kana_pref":"ｷｮｳﾄﾌ","kana_city":"ｷｮｳﾄｼﾋｶﾞｼﾔﾏｸ","kana_address":"ﾜｶﾏﾂﾁｮｳ","pref":"京都府","city":"京都市東山区","address":"若松町"},
{"zip_code":"6050072","kana_pref":"ｷｮｳﾄﾌ","kana_city":"ｷｮｳﾄｼﾋｶﾞｼﾔﾏｸ","kana_address":"ﾜｼｵﾁｮｳ","pref":"京都府","city":"京都市東山区","address":"鷲尾町"}]}