{"zip_code":[
{"zip_code":"6060000","kana_pref":"ｷｮｳﾄﾌ","kana_city":"ｷｮｳﾄｼｻｷｮｳｸ","kana_address":"","pref":"京都府","city":"京都市左京区","address":""},
{"zip_code":"6068371","kana_pref":"ｷｮｳﾄﾌ","kana_city":"ｷｮｳﾄｼｻｷｮｳｸ","kana_address":"ｱｷﾂｷﾁｮｳ","pref":"京都府","city":"京都市左京区","address":"秋築町"},
{"zip_code":"6068436","kana_pref":"ｷｮｳﾄﾌ","kana_city":"ｷｮｳﾄｼｻｷｮｳｸ","kana_address":"ｱﾜﾀｸﾞﾁﾄﾘｲﾁｮｳ","pref":"京都府","city":"京都市左京区","address":"粟田口鳥居町"},
{"zip_code":"6068452","kana_pref":"ｷｮｳﾄﾌ","kana_city":"ｷｮｳﾄｼｻｷｮｳｸ","kana_address":"ｱﾜﾀｸﾞﾁﾆｮｲｶﾞﾀﾞｹﾁｮｳ","pref":"京都府","city":"京都市左京区","address":"粟田口如意ケ嶽町"},
{"zip_code":"6068443","kana_pref":"ｷｮｳﾄﾌ","kana_city":"ｷｮｳﾄｼｻｷｮｳｸ","kana_address":"ｱﾜﾀｸﾞﾁﾔﾏｼﾀﾁｮｳ","pref":"京都府","city":"京都市左京区","address":"粟田口山下町"},
{"zip_code":"6068356","kana_pref":"ｷｮｳﾄﾌ","kana_city":"ｷｮｳﾄｼｻｷｮｳｸ","kana_address":"ｲｼﾜﾗﾁｮｳ","pref":"京都府","city":"京都市左京区","address":"石原町"},
{"zip_code":"6068121","kana_pref":"ｷｮｳﾄﾌ","kana_city":"ｷｮｳﾄｼｻｷｮｳｸ","kana_address":"ｲﾁｼﾞｮｳｼﾞｱｵｼﾞｮｳﾁｮｳ","pref":"京都府","city":"京都市左京区","address":"一乗寺青城町"},
{"zip_code":"6068182","kana_pref":"ｷｮｳﾄﾌ","kana_city":"ｷｮｳﾄｼｻｷｮｳｸ","kana_address":"ｲﾁｼﾞｮｳｼﾞｱｶﾉﾐﾔﾁｮｳ","pref":"京都府","city":"京都市左京区","address":"一乗寺赤ノ宮町"},
{"zip_code":"6068166","kana_pref":"ｷｮｳﾄﾌ","kana_city":"ｷｮｳﾄｼｻｷｮｳｸ","kana_address":"ｲﾁｼﾞｮｳｼﾞｲｵﾘﾉﾁｮｳ","pref":"京都府","city":"京都市左京区","address":"一乗寺庵野町"},
{"zip_code":"6068131","kana_pref":"ｷｮｳﾄﾌ","kana_city":"ｷｮｳﾄｼｻｷｮｳｸ","kana_address":"ｲﾁｼﾞｮｳｼﾞｲﾅﾘﾁｮｳ","pref":"京都府","city":"京都市左京区","address":"一乗寺稲荷町"},
{"zip_code":"6068173","kana_pref":"ｷｮｳﾄﾌ","kana_city":"ｷｮｳﾄｼｻｷｮｳｸ","kana_address":"ｲﾁｼﾞｮｳｼﾞｳﾒﾉｷﾁｮｳ","pref":"京都府","city":"京都市左京区","address":"一乗寺梅ノ木町"},
{"zip_code":"6068158","kana_pref":"ｷｮｳﾄﾌ","kana_city":"ｷｮｳﾄｼｻｷｮｳｸ","kana_address":"ｲﾁｼﾞｮｳｼﾞｵｵﾀﾆ","pref":"京都府","city":"京都市左京区","address":"一乗寺大谷"},
{"zip_code":"6068187","kana_pref":"ｷｮｳﾄﾌ","kana_city":"ｷｮｳﾄｼｻｷｮｳｸ","kana_address":"ｲﾁｼﾞｮｳｼﾞｵｵﾊﾗﾀﾞﾁｮｳ","pref":"京都府","city":"京都市左京区","address":"一乗寺大原田町"},
{"zip_code":"6068133","kana_pref":"ｷｮｳﾄﾌ","kana_city":"ｷｮｳﾄｼｻｷｮｳｸ","kana_address":"ｲﾁｼﾞｮｳｼﾞｶﾞﾂﾘﾝｼﾞﾁｮｳ","pref":"京都府","city":"京都市左京区","address":"一乗寺月輪寺町"},
{"zip_code":"6068172","kana_pref":"ｷｮｳﾄﾌ","kana_city":"ｷｮｳﾄｼｻｷｮｳｸ","kana_address":"ｲﾁｼﾞｮｳｼﾞｶﾜﾊﾗﾀﾞﾁｮｳ","pref":"京都府","city":"京都市左京区","address":"一乗寺河原田町"},
{"zip_code":"6068114","kana_pref":"ｷｮｳﾄﾌ","kana_city":"ｷｮｳﾄｼｻｷｮｳｸ","kana_address":"ｲﾁｼﾞｮｳｼﾞｷﾀｵｵﾏﾙﾁｮｳ","pref":"京都府","city":"京都市左京区","address":"一乗寺北大丸町"},
{"zip_code":"6068161","kana_pref":"ｷｮｳﾄﾌ","kana_city":"ｷｮｳﾄｼｻｷｮｳｸ","kana_address":"ｲﾁｼﾞｮｳｼﾞｷﾉﾓﾄﾁｮｳ","pref":"京都府","city":"京都市左京区","address":"一乗寺木ノ本町"},
{"zip_code":"6068162","kana_pref":"ｷｮｳﾄﾌ","kana_city":"ｷｮｳﾄｼｻｷｮｳｸ","kana_address":"ｲﾁｼﾞｮｳｼﾞｺﾞｻｲﾃﾞﾝﾁｮｳ","pref":"京都府","city":"京都市左京区","address":"一乗寺御祭田町"},
{"zip_code":"6068147","kana_pref":"ｷｮｳﾄﾌ","kana_city":"ｷｮｳﾄｼｻｷｮｳｸ","kana_address":"ｲﾁｼﾞｮｳｼﾞｺﾀﾆﾁｮｳ","pref":"京都府","city":"京都市左京区","address":"一乗寺小谷町"},
{"zip_code":"6068157","kana_pref":"ｷｮｳﾄﾌ","kana_city":"ｷｮｳﾄｼｻｷｮｳｸ","kana_address":"ｲﾁｼﾞｮｳｼﾞｻｲｶﾀﾁｮｳ","pref":"京都府","city":"京都市左京区","address":"一乗寺才形町"},
{"zip_code":"6068152","kana_pref":"ｷｮｳﾄﾌ","kana_city":"ｷｮｳﾄｼｻｷｮｳｸ","kana_address":"ｲﾁｼﾞｮｳｼﾞｻｶﾞﾘﾏﾂﾁｮｳ","pref":"京都府","city":"京都市左京区","address":"一乗寺下リ松町"},
{"zip_code":"6068115","kana_pref":"ｷｮｳﾄﾌ","kana_city":"ｷｮｳﾄｼｻｷｮｳｸ","kana_address":"ｲﾁｼﾞｮｳｼﾞｻﾄﾉﾆｼﾁｮｳ","pref":"京都府","city":"京都市左京区","address":"一乗寺里ノ西町"},
{"zip_code":"6068117","kana_pref":"ｷｮｳﾄﾌ","kana_city":"ｷｮｳﾄｼｻｷｮｳｸ","kana_address":"ｲﾁｼﾞｮｳｼﾞｻﾄﾉﾏｴﾁｮｳ","pref":"京都府","city":"京都市左京区","address":"一乗寺里ノ前町"},
{"zip_code":"6068181","kana_pref":"ｷｮｳﾄﾌ","kana_city":"ｷｮｳﾄｼｻｷｮｳｸ","kana_address":"ｲﾁｼﾞｮｳｼﾞｼﾞｿﾞｳﾓﾄﾁｮｳ","pref":"京都府","city":"京都市左京区","address":"一乗寺地蔵本町"},
{"zip_code":"6068125","kana_pref":"ｷｮｳﾄﾌ","kana_city":"ｷｮｳﾄｼｻｷｮｳｸ","kana_address":"ｲﾁｼﾞｮｳｼﾞｼﾐｽﾞﾁｮｳ","pref":"京都府","city":"京都市左京区","address":"一乗寺清水町"},
{"zip_code":"6068141","kana_pref":"ｷｮｳﾄﾌ","kana_city":"ｷｮｳﾄｼｻｷｮｳｸ","kana_address":"ｲﾁｼﾞｮｳｼﾞｼｬｶﾄﾞｳﾁｮｳ","pref":"京都府","city":"京都市左京区","address":"一乗寺釈迦堂町"},
{"zip_code":"6068174","kana_pref":"ｷｮｳﾄﾌ","kana_city":"ｷｮｳﾄｼｻｷｮｳｸ","kana_address":"ｲﾁｼﾞｮｳｼﾞｿﾒﾄﾞﾉﾁｮｳ","pref":"京都府","city":"京都市左京区","address":"一乗寺染殿町"},
{"zip_code":"6068183","kana_pref":"ｷｮｳﾄﾌ","kana_city":"ｷｮｳﾄｼｻｷｮｳｸ","kana_address":"ｲﾁｼﾞｮｳｼﾞﾀﾞｲｼﾝｶｲﾁｮｳ","pref":"京都府","city":"京都市左京区","address":"一乗寺大新開町"},
{"zip_code":"6068185","kana_pref":"ｷｮｳﾄﾌ","kana_city":"ｷｮｳﾄｼｻｷｮｳｸ","kana_address":"ｲﾁｼﾞｮｳｼﾞﾀｶﾂｷﾁｮｳ","pref":"京都府","city":"京都市左京区","address":"一乗寺高槻町"},
{"zip_code":"6068134","kana_pref":"ｷｮｳﾄﾌ","kana_city":"ｷｮｳﾄｼｻｷｮｳｸ","kana_address":"ｲﾁｼﾞｮｳｼﾞﾀｹﾉｳﾁﾁｮｳ","pref":"京都府","city":"京都市左京区","address":"一乗寺竹ノ内町"},
{"zip_code":"6068153","kana_pref":"ｷｮｳﾄﾌ","kana_city":"ｷｮｳﾄｼｻｷｮｳｸ","kana_address":"ｲﾁｼﾞｮｳｼﾞﾀﾆﾀﾞﾁｮｳ","pref":"京都府","city":"京都市左京区","address":"一乗寺谷田町"},
{"zip_code":"6068176","kana_pref":"ｷｮｳﾄﾌ","kana_city":"ｷｮｳﾄｼｻｷｮｳｸ","kana_address":"ｲﾁｼﾞｮｳｼﾞﾂｶﾓﾄﾁｮｳ","pref":"京都府","city":"京都市左京区","address":"一乗寺塚本町"},
{"zip_code":"6068175","kana_pref":"ｷｮｳﾄﾌ","kana_city":"ｷｮｳﾄｼｻｷｮｳｸ","kana_address":"ｲﾁｼﾞｮｳｼﾞﾂｸﾀﾞﾁｮｳ","pref":"京都府","city":"京都市左京区","address":"一乗寺築田町"},
{"zip_code":"6068164","kana_pref":"ｷｮｳﾄﾌ","kana_city":"ｷｮｳﾄｼｻｷｮｳｸ","kana_address":"ｲﾁｼﾞｮｳｼﾞﾃﾞｸﾞﾁﾁｮｳ","pref":"京都府","city":"京都市左京区","address":"一乗寺出口町"},
{"zip_code":"6068144","kana_pref":"ｷｮｳﾄﾌ","kana_city":"ｷｮｳﾄｼｻｷｮｳｸ","kana_address":"ｲﾁｼﾞｮｳｼﾞﾄﾞｳﾉﾏｴﾁｮｳ","pref":"京都府","city":"京都市左京区","address":"一乗寺堂ノ前町"},
{"zip_code":"6068142","kana_pref":"ｷｮｳﾄﾌ","kana_city":"ｷｮｳﾄｼｻｷｮｳｸ","kana_address":"ｲﾁｼﾞｮｳｼﾞﾄｳﾛｳﾓﾄﾁｮｳ","pref":"京都府","city":"京都市左京区","address":"一乗寺燈籠本町"},
{"zip_code":"6068163","kana_pref":"ｷｮｳﾄﾌ","kana_city":"ｷｮｳﾄｼｻｷｮｳｸ","kana_address":"ｲﾁｼﾞｮｳｼﾞﾅｶﾉﾀﾞﾁｮｳ","pref":"京都府","city":"京都市左京区","address":"一乗寺中ノ田町"},
{"zip_code":"6068127","kana_pref":"ｷｮｳﾄﾌ","kana_city":"ｷｮｳﾄｼｻｷｮｳｸ","kana_address":"ｲﾁｼﾞｮｳｼﾞﾆｼｳﾗﾊﾞﾀﾁｮｳ","pref":"京都府","city":"京都市左京区","address":"一乗寺西浦畑町"},
{"zip_code":"6068112","kana_pref":"ｷｮｳﾄﾌ","kana_city":"ｷｮｳﾄｼｻｷｮｳｸ","kana_address":"ｲﾁｼﾞｮｳｼﾞﾆｼｽｷﾞﾉﾐﾔﾁｮｳ","pref":"京都府","city":"京都市左京区","address":"一乗寺西杉ノ宮町"},
{"zip_code":"6068123","kana_pref":"ｷｮｳﾄﾌ","kana_city":"ｷｮｳﾄｼｻｷｮｳｸ","kana_address":"ｲﾁｼﾞｮｳｼﾞﾆｼﾄｼﾞｶﾜﾗﾁｮｳ","pref":"京都府","city":"京都市左京区","address":"一乗寺西閉川原町"},
{"zip_code":"6068171","kana_pref":"ｷｮｳﾄﾌ","kana_city":"ｷｮｳﾄｼｻｷｮｳｸ","kana_address":"ｲﾁｼﾞｮｳｼﾞﾆｼﾐｽﾞﾎﾞｼﾁｮｳ","pref":"京都府","city":"京都市左京区","address":"一乗寺西水干町"},
{"zip_code":"6068165","kana_pref":"ｷｮｳﾄﾌ","kana_city":"ｷｮｳﾄｼｻｷｮｳｸ","kana_address":"ｲﾁｼﾞｮｳｼﾞﾉﾀﾞﾁｮｳ","pref":"京都府","city":"京都市左京区","address":"一乗寺野田町"},
{"zip_code":"6068151","kana_pref":"ｷｮｳﾄﾌ","kana_city":"ｷｮｳﾄｼｻｷｮｳｸ","kana_address":"ｲﾁｼﾞｮｳｼﾞﾊﾅﾉｷﾁｮｳ","pref":"京都府","city":"京都市左京区","address":"一乗寺花ノ木町"},
{"zip_code":"6068132","kana_pref":"ｷｮｳﾄﾌ","kana_city":"ｷｮｳﾄｼｻｷｮｳｸ","kana_address":"ｲﾁｼﾞｮｳｼﾞﾊﾞﾊﾞﾁｮｳ","pref":"京都府","city":"京都市左京区","address":"一乗寺馬場町"},
{"zip_code":"6068145","kana_pref":"ｷｮｳﾄﾌ","kana_city":"ｷｮｳﾄｼｻｷｮｳｸ","kana_address":"ｲﾁｼﾞｮｳｼﾞﾊﾔﾏﾁｮｳ","pref":"京都府","city":"京都市左京区","address":"一乗寺葉山町"},
{"zip_code":"6068184","kana_pref":"ｷｮｳﾄﾌ","kana_city":"ｷｮｳﾄｼｻｷｮｳｸ","kana_address":"ｲﾁｼﾞｮｳｼﾞﾊﾗｲﾄﾉﾁｮｳ","pref":"京都府","city":"京都市左京区","address":"一乗寺払殿町"},
{"zip_code":"6068136","kana_pref":"ｷｮｳﾄﾌ","kana_city":"ｷｮｳﾄｼｻｷｮｳｸ","kana_address":"ｲﾁｼﾞｮｳｼﾞﾋｶﾞｼｳﾗﾁｮｳ","pref":"京都府","city":"京都市左京区","address":"一乗寺東浦町"},
{"zip_code":"6068113","kana_pref":"ｷｮｳﾄﾌ","kana_city":"ｷｮｳﾄｼｻｷｮｳｸ","kana_address":"ｲﾁｼﾞｮｳｼﾞﾋｶﾞｼｽｷﾞﾉﾐﾔﾁｮｳ","pref":"京都府","city":"京都市左京区","address":"一乗寺東杉ノ宮町"},
{"zip_code":"6068122","kana_pref":"ｷｮｳﾄﾌ","kana_city":"ｷｮｳﾄｼｻｷｮｳｸ","kana_address":"ｲﾁｼﾞｮｳｼﾞﾋｶﾞｼﾄｼﾞｶﾜﾗﾁｮｳ","pref":"京都府","city":"京都市左京区","address":"一乗寺東閉川原町"},
{"zip_code":"6068177","kana_pref":"ｷｮｳﾄﾌ","kana_city":"ｷｮｳﾄｼｻｷｮｳｸ","kana_address":"ｲﾁｼﾞｮｳｼﾞﾋｶﾞｼﾐｽﾞﾎﾞｼﾁｮｳ","pref":"京都府","city":"京都市左京区","address":"一乗寺東水干町"},
{"zip_code":"6068167","kana_pref":"ｷｮｳﾄﾌ","kana_city":"ｷｮｳﾄｼｻｷｮｳｸ","kana_address":"ｲﾁｼﾞｮｳｼﾞﾋﾉｸﾁﾁｮｳ","pref":"京都府","city":"京都市左京区","address":"一乗寺樋ノ口町"},
{"zip_code":"6068143","kana_pref":"ｷｮｳﾄﾌ","kana_city":"ｷｮｳﾄｼｻｷｮｳｸ","kana_address":"ｲﾁｼﾞｮｳｼﾞﾎﾘﾉｳﾁﾁｮｳ","pref":"京都府","city":"京都市左京区","address":"一乗寺堀ノ内町"},
{"zip_code":"6068124","kana_pref":"ｷｮｳﾄﾌ","kana_city":"ｷｮｳﾄｼｻｷｮｳｸ","kana_address":"ｲﾁｼﾞｮｳｼﾞﾏﾂﾀﾞﾁｮｳ","pref":"京都府","city":"京都市左京区","address":"一乗寺松田町"},
{"zip_code":"6068156","kana_pref":"ｷｮｳﾄﾌ","kana_city":"ｷｮｳﾄｼｻｷｮｳｸ","kana_address":"ｲﾁｼﾞｮｳｼﾞﾏﾂﾊﾗﾁｮｳ","pref":"京都府","city":"京都市左京区","address":"一乗寺松原町"},
{"zip_code":"6068135","kana_pref":"ｷｮｳﾄﾌ","kana_city":"ｷｮｳﾄｼｻｷｮｳｸ","kana_address":"ｲﾁｼﾞｮｳｼﾞﾐｽﾞｶﾞｹﾁｮｳ","pref":"京都府","city":"京都市左京区","address":"一乗寺水掛町"},
{"zip_code":"6068186","kana_pref":"ｷｮｳﾄﾌ","kana_city":"ｷｮｳﾄｼｻｷｮｳｸ","kana_address":"ｲﾁｼﾞｮｳｼﾞﾐﾅﾐｵｵﾏﾙﾁｮｳ","pref":"京都府","city":"京都市左京区","address":"一乗寺南大丸町"},
{"zip_code":"6068116","kana_pref":"ｷｮｳﾄﾌ","kana_city":"ｷｮｳﾄｼｻｷｮｳｸ","kana_address":"ｲﾁｼﾞｮｳｼﾞﾐﾔﾉﾋｶﾞｼﾁｮｳ","pref":"京都府","city":"京都市左京区","address":"一乗寺宮ノ東町"},
{"zip_code":"6068126","kana_pref":"ｷｮｳﾄﾌ","kana_city":"ｷｮｳﾄｼｻｷｮｳｸ","kana_address":"ｲﾁｼﾞｮｳｼﾞﾑｶｲﾊﾞﾀﾁｮｳ","pref":"京都府","city":"京都市左京区","address":"一乗寺向畑町"},
{"zip_code":"6068154","kana_pref":"ｷｮｳﾄﾌ","kana_city":"ｷｮｳﾄｼｻｷｮｳｸ","kana_address":"ｲﾁｼﾞｮｳｼﾞﾓﾝｸﾞﾁﾁｮｳ","pref":"京都府","city":"京都市左京区","address":"一乗寺門口町"},
{"zip_code":"6068155","kana_pref":"ｷｮｳﾄﾌ","kana_city":"ｷｮｳﾄｼｻｷｮｳｸ","kana_address":"ｲﾁｼﾞｮｳｼﾞﾔｸｼﾄﾞｳﾁｮｳ","pref":"京都府","city":"京都市左京区","address":"一乗寺薬師堂町"},
{"zip_code":"6068146","kana_pref":"ｷｮｳﾄﾌ","kana_city":"ｷｮｳﾄｼｻｷｮｳｸ","kana_address":"ｲﾁｼﾞｮｳｼﾞﾔﾏｲﾀﾞﾚ","pref":"京都府","city":"京都市左京区","address":"一乗寺病ダレ"},
{"zip_code":"6060017","kana_pref":"ｷｮｳﾄﾌ","kana_city":"ｷｮｳﾄｼｻｷｮｳｸ","kana_address":"ｲﾜｸﾗｱｸﾞﾗﾁｮｳ","pref":"京都府","city":"京都市左京区","address":"岩倉上蔵町"},
{"zip_code":"6060001","kana_pref":"ｷｮｳﾄﾌ","kana_city":"ｷｮｳﾄｼｻｷｮｳｸ","kana_address":"ｲﾜｸﾗｵｵｻｷﾞﾁｮｳ","pref":"京都府","city":"京都市左京区","address":"岩倉大鷺町"},
{"zip_code":"6060004","kana_pref":"ｷｮｳﾄﾌ","kana_city":"ｷｮｳﾄｼｻｷｮｳｸ","kana_address":"ｲﾜｸﾗｷﾀｲｹﾀﾞﾁｮｳ","pref":"京都府","city":"京都市左京区","address":"岩倉北池田町"},
{"zip_code":"6060016","kana_pref":"ｷｮｳﾄﾌ","kana_city":"ｷｮｳﾄｼｻｷｮｳｸ","kana_address":"ｲﾜｸﾗｷﾉﾁｮｳ","pref":"京都府","city":"京都市左京区","address":"岩倉木野町"},
{"zip_code":"6060013","kana_pref":"ｷｮｳﾄﾌ","kana_city":"ｷｮｳﾄｼｻｷｮｳｸ","kana_address":"ｲﾜｸﾗｼﾓｻﾞｲｼﾞﾁｮｳ","pref":"京都府","city":"京都市左京区","address":"岩倉下在地町"},
{"zip_code":"6060021","kana_pref":"ｷｮｳﾄﾌ","kana_city":"ｷｮｳﾄｼｻｷｮｳｸ","kana_address":"ｲﾜｸﾗﾁｭｳｻﾞｲｼﾞﾁｮｳ","pref":"京都府","city":"京都市左京区","address":"岩倉忠在地町"},
{"zip_code":"6060002","kana_pref":"ｷｮｳﾄﾌ","kana_city":"ｷｮｳﾄｼｻｷｮｳｸ","kana_address":"ｲﾜｸﾗﾅｶｵｵｻｷﾞﾁｮｳ","pref":"京都府","city":"京都市左京区","address":"岩倉中大鷺町"},
{"zip_code":"6060027","kana_pref":"ｷｮｳﾄﾌ","kana_city":"ｷｮｳﾄｼｻｷｮｳｸ","kana_address":"ｲﾜｸﾗﾅｶｻﾞｲｼﾞﾁｮｳ","pref":"京都府","city":"京都市左京区","address":"岩倉中在地町"},
{"zip_code":"6060026","kana_pref":"ｷｮｳﾄﾌ","kana_city":"ｷｮｳﾄｼｻｷｮｳｸ","kana_address":"ｲﾜｸﾗﾅｶﾞﾀﾆﾁｮｳ","pref":"京都府","city":"京都市左京区","address":"岩倉長谷町"},
{"zip_code":"6060025","kana_pref":"ｷｮｳﾄﾌ","kana_city":"ｷｮｳﾄｼｻｷｮｳｸ","kana_address":"ｲﾜｸﾗﾅｶﾏﾁ","pref":"京都府","city":"京都市左京区","address":"岩倉中町"},
{"zip_code":"6060014","kana_pref":"ｷｮｳﾄﾌ","kana_city":"ｷｮｳﾄｼｻｷｮｳｸ","kana_address":"ｲﾜｸﾗﾆｼｶﾞﾜﾗﾁｮｳ","pref":"京都府","city":"京都市左京区","address":"岩倉西河原町"},
{"zip_code":"6060006","kana_pref":"ｷｮｳﾄﾌ","kana_city":"ｷｮｳﾄｼｻｷｮｳｸ","kana_address":"ｲﾜｸﾗﾆｼｺﾞﾀﾞﾁｮｳ","pref":"京都府","city":"京都市左京区","address":"岩倉西五田町"},
{"zip_code":"6060011","kana_pref":"ｷｮｳﾄﾌ","kana_city":"ｷｮｳﾄｼｻｷｮｳｸ","kana_address":"ｲﾜｸﾗﾆｼﾐﾔﾀﾁｮｳ","pref":"京都府","city":"京都市左京区","address":"岩倉西宮田町"},
{"zip_code":"6060015","kana_pref":"ｷｮｳﾄﾌ","kana_city":"ｷｮｳﾄｼｻｷｮｳｸ","kana_address":"ｲﾜｸﾗﾊﾀｴﾀﾞﾁｮｳ","pref":"京都府","city":"京都市左京区","address":"岩倉幡枝町"},
{"zip_code":"6060024","kana_pref":"ｷｮｳﾄﾌ","kana_city":"ｷｮｳﾄｼｻｷｮｳｸ","kana_address":"ｲﾜｸﾗﾊﾅｿﾞﾉﾁｮｳ","pref":"京都府","city":"京都市左京区","address":"岩倉花園町"},
{"zip_code":"6060007","kana_pref":"ｷｮｳﾄﾌ","kana_city":"ｷｮｳﾄｼｻｷｮｳｸ","kana_address":"ｲﾜｸﾗﾋｶﾞｼｺﾞﾀﾞﾁｮｳ","pref":"京都府","city":"京都市左京区","address":"岩倉東五田町"},
{"zip_code":"6060012","kana_pref":"ｷｮｳﾄﾌ","kana_city":"ｷｮｳﾄｼｻｷｮｳｸ","kana_address":"ｲﾜｸﾗﾋｶﾞｼﾐﾔﾀﾁｮｳ","pref":"京都府","city":"京都市左京区","address":"岩倉東宮田町"},
{"zip_code":"6060005","kana_pref":"ｷｮｳﾄﾌ","kana_city":"ｷｮｳﾄｼｻｷｮｳｸ","kana_address":"ｲﾜｸﾗﾐﾅﾐｲｹﾀﾞﾁｮｳ","pref":"京都府","city":"京都市左京区","address":"岩倉南池田町"},
{"zip_code":"6060003","kana_pref":"ｷｮｳﾄﾌ","kana_city":"ｷｮｳﾄｼｻｷｮｳｸ","kana_address":"ｲﾜｸﾗﾐﾅﾐｵｵｻｷﾞﾁｮｳ","pref":"京都府","city":"京都市左京区","address":"岩倉南大鷺町"},
{"zip_code":"6060031","kana_pref":"ｷｮｳﾄﾌ","kana_city":"ｷｮｳﾄｼｻｷｮｳｸ","kana_address":"ｲﾜｸﾗﾐﾅﾐｸﾜﾊﾗﾁｮｳ","pref":"京都府","city":"京都市左京区","address":"岩倉南桑原町"},
{"zip_code":"6060032","kana_pref":"ｷｮｳﾄﾌ","kana_city":"ｷｮｳﾄｼｻｷｮｳｸ","kana_address":"ｲﾜｸﾗﾐﾅﾐﾋﾗｵｶﾁｮｳ","pref":"京都府","city":"京都市左京区","address":"岩倉南平岡町"},
{"zip_code":"6060023","kana_pref":"ｷｮｳﾄﾌ","kana_city":"ｷｮｳﾄｼｻｷｮｳｸ","kana_address":"ｲﾜｸﾗﾐﾅﾐﾐﾔｹﾁｮｳ","pref":"京都府","city":"京都市左京区","address":"岩倉南三宅町"},
{"zip_code":"6060033","kana_pref":"ｷｮｳﾄﾌ","kana_city":"ｷｮｳﾄｼｻｷｮｳｸ","kana_address":"ｲﾜｸﾗﾐﾅﾐﾖﾝﾉﾂﾎﾞﾁｮｳ","pref":"京都府","city":"京都市左京区","address":"岩倉南四ノ坪町"},
{"zip_code":"6060022","kana_pref":"ｷｮｳﾄﾌ","kana_city":"ｷｮｳﾄｼｻｷｮｳｸ","kana_address":"ｲﾜｸﾗﾐﾔｹﾁｮｳ","pref":"京都府","city":"京都市左京区","address":"岩倉三宅町"},
{"zip_code":"6060034","kana_pref":"ｷｮｳﾄﾌ","kana_city":"ｷｮｳﾄｼｻｷｮｳｸ","kana_address":"ｲﾜｸﾗﾑﾗﾏﾂﾁｮｳ","pref":"京都府","city":"京都市左京区","address":"岩倉村松町"},
{"zip_code":"6068445","kana_pref":"ｷｮｳﾄﾌ","kana_city":"ｷｮｳﾄｼｻｷｮｳｸ","kana_address":"ｴｲｶﾝﾄﾞｳﾁｮｳ","pref":"京都府","city":"京都市左京区","address":"永観堂町"},
{"zip_code":"6068433","kana_pref":"ｷｮｳﾄﾌ","kana_city":"ｷｮｳﾄｼｻｷｮｳｸ","kana_address":"ｴｲｶﾝﾄﾞｳﾆｼﾏﾁ","pref":"京都府","city":"京都市左京区","address":"永観堂西町"},
{"zip_code":"6068376","kana_pref":"ｷｮｳﾄﾌ","kana_city":"ｷｮｳﾄｼｻｷｮｳｸ","kana_address":"ｵｵｷｸﾁｮｳ","pref":"京都府","city":"京都市左京区","address":"大菊町"},
{"zip_code":"6068322","kana_pref":"ｷｮｳﾄﾌ","kana_city":"ｷｮｳﾄｼｻｷｮｳｸ","kana_address":"ｵｶｻﾞｷｲﾘｴﾁｮｳ","pref":"京都府","city":"京都市左京区","address":"岡崎入江町"},
{"zip_code":"6068344","kana_pref":"ｷｮｳﾄﾌ","kana_city":"ｷｮｳﾄｼｻｷｮｳｸ","kana_address":"ｵｶｻﾞｷｴﾝｼｮｳｼﾞﾁｮｳ","pref":"京都府","city":"京都市左京区","address":"岡崎円勝寺町"},
{"zip_code":"6068336","kana_pref":"ｷｮｳﾄﾌ","kana_city":"ｷｮｳﾄｼｻｷｮｳｸ","kana_address":"ｵｶｻﾞｷｷﾀｺﾞｼｮﾁｮｳ","pref":"京都府","city":"京都市左京区","address":"岡崎北御所町"},
{"zip_code":"6068342","kana_pref":"ｷｮｳﾄﾌ","kana_city":"ｷｮｳﾄｼｻｷｮｳｸ","kana_address":"ｵｶｻﾞｷｻｲｼｮｳｼﾞﾁｮｳ","pref":"京都府","city":"京都市左京区","address":"岡崎最勝寺町"},
{"zip_code":"6068415","kana_pref":"ｷｮｳﾄﾌ","kana_city":"ｷｮｳﾄｼｻｷｮｳｸ","kana_address":"ｵｶｻﾞｷｼﾝﾆｮﾄﾞｳﾏｴﾁｮｳ","pref":"京都府","city":"京都市左京区","address":"岡崎真如堂前町"},
{"zip_code":"6068343","kana_pref":"ｷｮｳﾄﾌ","kana_city":"ｷｮｳﾄｼｻｷｮｳｸ","kana_address":"ｵｶｻﾞｷｾｲｼｮｳｼﾞﾁｮｳ","pref":"京都府","city":"京都市左京区","address":"岡崎成勝寺町"},
{"zip_code":"6068335","kana_pref":"ｷｮｳﾄﾌ","kana_city":"ｷｮｳﾄｼｻｷｮｳｸ","kana_address":"ｵｶｻﾞｷﾃﾝﾉｳﾁｮｳ","pref":"京都府","city":"京都市左京区","address":"岡崎天王町"},
{"zip_code":"6068351","kana_pref":"ｷｮｳﾄﾌ","kana_city":"ｷｮｳﾄｼｻｷｮｳｸ","kana_address":"ｵｶｻﾞｷﾄｸｾｲﾁｮｳ","pref":"京都府","city":"京都市左京区","address":"岡崎徳成町"},
{"zip_code":"6068341","kana_pref":"ｷｮｳﾄﾌ","kana_city":"ｷｮｳﾄｼｻｷｮｳｸ","kana_address":"ｵｶｻﾞｷﾆｼﾃﾝﾉｳﾁｮｳ","pref":"京都府","city":"京都市左京区","address":"岡崎西天王町"},
{"zip_code":"6068326","kana_pref":"ｷｮｳﾄﾌ","kana_city":"ｷｮｳﾄｼｻｷｮｳｸ","kana_address":"ｵｶｻﾞｷﾆｼﾌｸﾉｶﾜﾁｮｳ","pref":"京都府","city":"京都市左京区","address":"岡崎西福ノ川町"},
{"zip_code":"6068332","kana_pref":"ｷｮｳﾄﾌ","kana_city":"ｷｮｳﾄｼｻｷｮｳｸ","kana_address":"ｵｶｻﾞｷﾋｶﾞｼﾃﾝﾉｳﾁｮｳ","pref":"京都府","city":"京都市左京区","address":"岡崎東天王町"},
{"zip_code":"6068321","kana_pref":"ｷｮｳﾄﾌ","kana_city":"ｷｮｳﾄｼｻｷｮｳｸ","kana_address":"ｵｶｻﾞｷﾋｶﾞｼﾌｸﾉｶﾜﾁｮｳ","pref":"京都府","city":"京都市左京区","address":"岡崎東福ノ川町"},
{"zip_code":"6068333","kana_pref":"ｷｮｳﾄﾌ","kana_city":"ｷｮｳﾄｼｻｷｮｳｸ","kana_address":"ｵｶｻﾞｷﾎｳｼｮｳｼﾞﾁｮｳ","pref":"京都府","city":"京都市左京区","address":"岡崎法勝寺町"},
{"zip_code":"6068334","kana_pref":"ｷｮｳﾄﾌ","kana_city":"ｷｮｳﾄｼｻｷｮｳｸ","kana_address":"ｵｶｻﾞｷﾐﾅﾐｺﾞｼｮﾁｮｳ","pref":"京都府","city":"京都市左京区","address":"岡崎南御所町"},
{"zip_code":"6068354","kana_pref":"ｷｮｳﾄﾌ","kana_city":"ｷｮｳﾄｼｻｷｮｳｸ","kana_address":"ｶｼﾗﾁｮｳ","pref":"京都府","city":"京都市左京区","address":"頭町"},
{"zip_code":"6060057","kana_pref":"ｷｮｳﾄﾌ","kana_city":"ｷｮｳﾄｼｻｷｮｳｸ","kana_address":"ｶﾐﾀｶﾉｲｹﾉｳﾁﾁｮｳ","pref":"京都府","city":"京都市左京区","address":"上高野池ノ内町"},
{"zip_code":"6060041","kana_pref":"ｷｮｳﾄﾌ","kana_city":"ｷｮｳﾄｼｻｷｮｳｸ","kana_address":"ｶﾐﾀｶﾉｲｼﾀﾞﾁｮｳ","pref":"京都府","city":"京都市左京区","address":"上高野石田町"},
{"zip_code":"6060056","kana_pref":"ｷｮｳﾄﾌ","kana_city":"ｷｮｳﾄｼｻｷｮｳｸ","kana_address":"ｶﾐﾀｶﾉｲﾁｶﾜﾁｮｳ","pref":"京都府","city":"京都市左京区","address":"上高野市川町"},
{"zip_code":"6060087","kana_pref":"ｷｮｳﾄﾌ","kana_city":"ｷｮｳﾄｼｻｷｮｳｸ","kana_address":"ｶﾐﾀｶﾉｲﾅﾘﾁｮｳ","pref":"京都府","city":"京都市左京区","address":"上高野稲荷町"},
{"zip_code":"6060088","kana_pref":"ｷｮｳﾄﾌ","kana_city":"ｷｮｳﾄｼｻｷｮｳｸ","kana_address":"ｶﾐﾀｶﾉｳｴﾉﾁｮｳ","pref":"京都府","city":"京都市左京区","address":"上高野植ノ町"},
{"zip_code":"6060089","kana_pref":"ｷｮｳﾄﾌ","kana_city":"ｷｮｳﾄｼｻｷｮｳｸ","kana_address":"ｶﾐﾀｶﾉｳｴﾊﾀﾁｮｳ","pref":"京都府","city":"京都市左京区","address":"上高野上畑町"},
{"zip_code":"6060091","kana_pref":"ｷｮｳﾄﾌ","kana_city":"ｷｮｳﾄｼｻｷｮｳｸ","kana_address":"ｶﾐﾀｶﾉｵｵﾂｶﾁｮｳ","pref":"京都府","city":"京都市左京区","address":"上高野大塚町"},
{"zip_code":"6060062","kana_pref":"ｷｮｳﾄﾌ","kana_city":"ｷｮｳﾄｼｻｷｮｳｸ","kana_address":"ｶﾐﾀｶﾉｵｵﾊｼﾁｮｳ","pref":"京都府","city":"京都市左京区","address":"上高野大橋町"},
{"zip_code":"6060048","kana_pref":"ｷｮｳﾄﾌ","kana_city":"ｷｮｳﾄｼｻｷｮｳｸ","kana_address":"ｶﾐﾀｶﾉｵｵﾕﾃﾞﾁｮｳ","pref":"京都府","city":"京都市左京区","address":"上高野大湯手町"},
{"zip_code":"6060077","kana_pref":"ｷｮｳﾄﾌ","kana_city":"ｷｮｳﾄｼｻｷｮｳｸ","kana_address":"ｶﾐﾀｶﾉｵｸｺﾓﾘﾁｮｳ","pref":"京都府","city":"京都市左京区","address":"上高野奥小森町"},
{"zip_code":"6060075","kana_pref":"ｷｮｳﾄﾌ","kana_city":"ｷｮｳﾄｼｻｷｮｳｸ","kana_address":"ｶﾐﾀｶﾉｵｸﾋｶﾞｼﾉﾁｮｳ","pref":"京都府","city":"京都市左京区","address":"上高野奥東野町"},
{"zip_code":"6060058","kana_pref":"ｷｮｳﾄﾌ","kana_city":"ｷｮｳﾄｼｻｷｮｳｸ","kana_address":"ｶﾐﾀｶﾉｵﾉﾁｮｳ","pref":"京都府","city":"京都市左京区","address":"上高野小野町"},
{"zip_code":"6060055","kana_pref":"ｷｮｳﾄﾌ","kana_city":"ｷｮｳﾄｼｻｷｮｳｸ","kana_address":"ｶﾐﾀｶﾉｵﾎﾁﾁｮｳ","pref":"京都府","city":"京都市左京区","address":"上高野尾保地町"},
{"zip_code":"6060084","kana_pref":"ｷｮｳﾄﾌ","kana_city":"ｷｮｳﾄｼｻｷｮｳｸ","kana_address":"ｶﾐﾀｶﾉｶﾈﾂｷﾁｮｳ","pref":"京都府","city":"京都市左京区","address":"上高野鐘突町"},
{"zip_code":"6060073","kana_pref":"ｷｮｳﾄﾌ","kana_city":"ｷｮｳﾄｼｻｷｮｳｸ","kana_address":"ｶﾐﾀｶﾉｶﾏﾂﾁﾁｮｳ","pref":"京都府","city":"京都市左京区","address":"上高野釜土町"},
{"zip_code":"6060093","kana_pref":"ｷｮｳﾄﾌ","kana_city":"ｷｮｳﾄｼｻｷｮｳｸ","kana_address":"ｶﾐﾀｶﾉｶﾐｱﾗﾏｷﾁｮｳ","pref":"京都府","city":"京都市左京区","address":"上高野上荒蒔町"},
{"zip_code":"6060072","kana_pref":"ｷｮｳﾄﾌ","kana_city":"ｷｮｳﾄｼｻｷｮｳｸ","kana_address":"ｶﾐﾀｶﾉｶﾓﾝﾊﾔｼﾁｮｳ","pref":"京都府","city":"京都市左京区","address":"上高野掃部林町"},
{"zip_code":"6060061","kana_pref":"ｷｮｳﾄﾌ","kana_city":"ｷｮｳﾄｼｻｷｮｳｸ","kana_address":"ｶﾐﾀｶﾉｶﾜﾗﾁｮｳ","pref":"京都府","city":"京都市左京区","address":"上高野川原町"},
{"zip_code":"6060059","kana_pref":"ｷｮｳﾄﾌ","kana_city":"ｷｮｳﾄｼｻｷｮｳｸ","kana_address":"ｶﾐﾀｶﾉｷﾀｶﾜﾗﾁｮｳ","pref":"京都府","city":"京都市左京区","address":"上高野北川原町"},
{"zip_code":"6060036","kana_pref":"ｷｮｳﾄﾌ","kana_city":"ｷｮｳﾄｼｻｷｮｳｸ","kana_address":"ｶﾐﾀｶﾉｷﾀﾀﾁｮｳ","pref":"京都府","city":"京都市左京区","address":"上高野北田町"},
{"zip_code":"6060086","kana_pref":"ｷｮｳﾄﾌ","kana_city":"ｷｮｳﾄｼｻｷｮｳｸ","kana_address":"ｶﾐﾀｶﾉｷﾉｼﾀﾁｮｳ","pref":"京都府","city":"京都市左京区","address":"上高野木ノ下町"},
{"zip_code":"6060076","kana_pref":"ｷｮｳﾄﾌ","kana_city":"ｷｮｳﾄｼｻｷｮｳｸ","kana_address":"ｶﾐﾀｶﾉｸﾞﾁｺﾓﾘﾁｮｳ","pref":"京都府","city":"京都市左京区","address":"上高野口小森町"},
{"zip_code":"6060053","kana_pref":"ｷｮｳﾄﾌ","kana_city":"ｷｮｳﾄｼｻｷｮｳｸ","kana_address":"ｶﾐﾀｶﾉｸﾙﾏｼﾞﾁｮｳ","pref":"京都府","city":"京都市左京区","address":"上高野車地町"},
{"zip_code":"6060064","kana_pref":"ｷｮｳﾄﾌ","kana_city":"ｷｮｳﾄｼｻｷｮｳｸ","kana_address":"ｶﾐﾀｶﾉｻｲﾐｮｳｼﾞﾔﾏ","pref":"京都府","city":"京都市左京区","address":"上高野西明寺山"},
{"zip_code":"6060042","kana_pref":"ｷｮｳﾄﾌ","kana_city":"ｷｮｳﾄｼｻｷｮｳｸ","kana_address":"ｶﾐﾀｶﾉｻｷﾞﾏﾁ","pref":"京都府","city":"京都市左京区","address":"上高野鷺町"},
{"zip_code":"6060047","kana_pref":"ｷｮｳﾄﾌ","kana_city":"ｷｮｳﾄｼｻｷｮｳｸ","kana_address":"ｶﾐﾀｶﾉｻﾂﾀﾁｮｳ","pref":"京都府","city":"京都市左京区","address":"上高野薩田町"},
{"zip_code":"6060098","kana_pref":"ｷｮｳﾄﾌ","kana_city":"ｷｮｳﾄｼｻｷｮｳｸ","kana_address":"ｶﾐﾀｶﾉｻﾜﾌﾞﾁﾁｮｳ","pref":"京都府","city":"京都市左京区","address":"上高野沢渕町"},
{"zip_code":"6060054","kana_pref":"ｷｮｳﾄﾌ","kana_city":"ｷｮｳﾄｼｻｷｮｳｸ","kana_address":"ｶﾐﾀｶﾉｻﾝﾀﾝﾀﾞﾁｮｳ","pref":"京都府","city":"京都市左京区","address":"上高野三反田町"},
{"zip_code":"6060092","kana_pref":"ｷｮｳﾄﾌ","kana_city":"ｷｮｳﾄｼｻｷｮｳｸ","kana_address":"ｶﾐﾀｶﾉｼﾓｱﾗﾏｷﾁｮｳ","pref":"京都府","city":"京都市左京区","address":"上高野下荒蒔町"},
{"zip_code":"6060074","kana_pref":"ｷｮｳﾄﾌ","kana_city":"ｷｮｳﾄｼｻｷｮｳｸ","kana_address":"ｶﾐﾀｶﾉｼﾓﾋｶﾞｼﾉﾁｮｳ","pref":"京都府","city":"京都市左京区","address":"上高野下東野町"},
{"zip_code":"6060066","kana_pref":"ｷｮｳﾄﾌ","kana_city":"ｷｮｳﾄｼｻｷｮｳｸ","kana_address":"ｶﾐﾀｶﾉｽｲｼｬﾁｮｳ","pref":"京都府","city":"京都市左京区","address":"上高野水車町"},
{"zip_code":"6060063","kana_pref":"ｷｮｳﾄﾌ","kana_city":"ｷｮｳﾄｼｻｷｮｳｸ","kana_address":"ｶﾐﾀｶﾉﾀﾞｲﾐｮｳｼﾞﾝﾁｮｳ","pref":"京都府","city":"京都市左京区","address":"上高野大明神町"},
{"zip_code":"6060052","kana_pref":"ｷｮｳﾄﾌ","kana_city":"ｷｮｳﾄｼｻｷｮｳｸ","kana_address":"ｶﾐﾀｶﾉﾄﾘﾜｷﾁｮｳ","pref":"京都府","city":"京都市左京区","address":"上高野鳥脇町"},
{"zip_code":"6060044","kana_pref":"ｷｮｳﾄﾌ","kana_city":"ｷｮｳﾄｼｻｷｮｳｸ","kana_address":"ｶﾐﾀｶﾉﾅｶﾏﾁ","pref":"京都府","city":"京都市左京区","address":"上高野仲町"},
{"zip_code":"6060037","kana_pref":"ｷｮｳﾄﾌ","kana_city":"ｷｮｳﾄｼｻｷｮｳｸ","kana_address":"ｶﾐﾀｶﾉﾅｶﾞﾚﾀﾞﾁｮｳ","pref":"京都府","city":"京都市左京区","address":"上高野流田町"},
{"zip_code":"6060095","kana_pref":"ｷｮｳﾄﾌ","kana_city":"ｷｮｳﾄｼｻｷｮｳｸ","kana_address":"ｶﾐﾀｶﾉﾆｼﾋﾑﾛﾁｮｳ","pref":"京都府","city":"京都市左京区","address":"上高野西氷室町"},
{"zip_code":"6060051","kana_pref":"ｷｮｳﾄﾌ","kana_city":"ｷｮｳﾄｼｻｷｮｳｸ","kana_address":"ｶﾐﾀｶﾉﾉｶﾐﾁｮｳ","pref":"京都府","city":"京都市左京区","address":"上高野野上町"},
{"zip_code":"6060082","kana_pref":"ｷｮｳﾄﾌ","kana_city":"ｷｮｳﾄｼｻｷｮｳｸ","kana_address":"ｶﾐﾀｶﾉﾊﾀｶﾞﾀﾞﾁｮｳ","pref":"京都府","city":"京都市左京区","address":"上高野畑ケ田町"},
{"zip_code":"6060081","kana_pref":"ｷｮｳﾄﾌ","kana_city":"ｷｮｳﾄｼｻｷｮｳｸ","kana_address":"ｶﾐﾀｶﾉﾊﾀﾏﾁ","pref":"京都府","city":"京都市左京区","address":"上高野畑町"},
{"zip_code":"6060065","kana_pref":"ｷｮｳﾄﾌ","kana_city":"ｷｮｳﾄｼｻｷｮｳｸ","kana_address":"ｶﾐﾀｶﾉﾊﾁﾏﾝﾁｮｳ","pref":"京都府","city":"京都市左京区","address":"上高野八幡町"},
{"zip_code":"6060078","kana_pref":"ｷｮｳﾄﾌ","kana_city":"ｷｮｳﾄｼｻｷｮｳｸ","kana_address":"ｶﾐﾀｶﾉﾋｶﾞｼﾀﾞﾁｮｳ","pref":"京都府","city":"京都市左京区","address":"上高野東田町"},
{"zip_code":"6060094","kana_pref":"ｷｮｳﾄﾌ","kana_city":"ｷｮｳﾄｼｻｷｮｳｸ","kana_address":"ｶﾐﾀｶﾉﾋｶﾞｼﾋﾑﾛﾁｮｳ","pref":"京都府","city":"京都市左京区","address":"上高野東氷室町"},
{"zip_code":"6060045","kana_pref":"ｷｮｳﾄﾌ","kana_city":"ｷｮｳﾄｼｻｷｮｳｸ","kana_address":"ｶﾐﾀｶﾉﾌｶﾀﾞﾁｮｳ","pref":"京都府","city":"京都市左京区","address":"上高野深田町"},
{"zip_code":"6060043","kana_pref":"ｷｮｳﾄﾌ","kana_city":"ｷｮｳﾄｼｻｷｮｳｸ","kana_address":"ｶﾐﾀｶﾉﾌﾙｶﾜﾁｮｳ","pref":"京都府","city":"京都市左京区","address":"上高野古川町"},
{"zip_code":"6060071","kana_pref":"ｷｮｳﾄﾌ","kana_city":"ｷｮｳﾄｼｻｷｮｳｸ","kana_address":"ｶﾐﾀｶﾉﾎﾞｳﾔﾏ","pref":"京都府","city":"京都市左京区","address":"上高野防山"},
{"zip_code":"6060097","kana_pref":"ｷｮｳﾄﾌ","kana_city":"ｷｮｳﾄｼｻｷｮｳｸ","kana_address":"ｶﾐﾀｶﾉﾏｴﾀﾞﾁｮｳ","pref":"京都府","city":"京都市左京区","address":"上高野前田町"},
{"zip_code":"6060083","kana_pref":"ｷｮｳﾄﾌ","kana_city":"ｷｮｳﾄｼｻｷｮｳｸ","kana_address":"ｶﾐﾀｶﾉﾏﾂﾀﾞﾁｮｳ","pref":"京都府","city":"京都市左京区","address":"上高野松田町"},
{"zip_code":"6060035","kana_pref":"ｷｮｳﾄﾌ","kana_city":"ｷｮｳﾄｼｻｷｮｳｸ","kana_address":"ｶﾐﾀｶﾉﾐﾔｹﾁｮｳ","pref":"京都府","city":"京都市左京区","address":"上高野三宅町"},
{"zip_code":"6060046","kana_pref":"ｷｮｳﾄﾌ","kana_city":"ｷｮｳﾄｼｻｷｮｳｸ","kana_address":"ｶﾐﾀｶﾉﾓﾛｷﾁｮｳ","pref":"京都府","city":"京都市左京区","address":"上高野諸木町"},
{"zip_code":"6060096","kana_pref":"ｷｮｳﾄﾌ","kana_city":"ｷｮｳﾄｼｻｷｮｳｸ","kana_address":"ｶﾐﾀｶﾉﾔﾏﾉﾊｼﾁｮｳ","pref":"京都府","city":"京都市左京区","address":"上高野山ノ橋町"},
{"zip_code":"6060085","kana_pref":"ｷｮｳﾄﾌ","kana_city":"ｷｮｳﾄｼｻｷｮｳｸ","kana_address":"ｶﾐﾀｶﾉﾘﾝｺｳﾁｮｳ","pref":"京都府","city":"京都市左京区","address":"上高野隣好町"},
{"zip_code":"6060067","kana_pref":"ｷｮｳﾄﾌ","kana_city":"ｷｮｳﾄｼｻｷｮｳｸ","kana_address":"ｶﾐﾀｶﾉﾋｶﾞｼﾔﾏ","pref":"京都府","city":"京都市左京区","address":"上高野東山"},
{"zip_code":"6060821","kana_pref":"ｷｮｳﾄﾌ","kana_city":"ｷｮｳﾄｼｻｷｮｳｸ","kana_address":"ｶﾓｲﾏｲﾁｮｳ","pref":"京都府","city":"京都市左京区","address":"賀茂今井町"},
{"zip_code":"6060822","kana_pref":"ｷｮｳﾄﾌ","kana_city":"ｷｮｳﾄｼｻｷｮｳｸ","kana_address":"ｶﾓﾊﾝｷﾞﾁｮｳ","pref":"京都府","city":"京都市左京区","address":"賀茂半木町"},
{"zip_code":"6068364","kana_pref":"ｷｮｳﾄﾌ","kana_city":"ｷｮｳﾄｼｻｷｮｳｸ","kana_address":"ｷｸﾎｺﾁｮｳ","pref":"京都府","city":"京都市左京区","address":"菊鉾町"},
{"zip_code":"6068256","kana_pref":"ｷｮｳﾄﾌ","kana_city":"ｷｮｳﾄｼｻｷｮｳｸ","kana_address":"ｷﾀｼﾗｶﾜｲｵﾘﾁｮｳ","pref":"京都府","city":"京都市左京区","address":"北白川伊織町"},
{"zip_code":"6068291","kana_pref":"ｷｮｳﾄﾌ","kana_city":"ｷｮｳﾄｼｻｷｮｳｸ","kana_address":"ｷﾀｼﾗｶﾜｲﾜｻｶﾁｮｳ","pref":"京都府","city":"京都市左京区","address":"北白川岩坂町"},
{"zip_code":"6068271","kana_pref":"ｷｮｳﾄﾌ","kana_city":"ｷｮｳﾄｼｻｷｮｳｸ","kana_address":"ｷﾀｼﾗｶﾜｳﾘｭｳｻﾞﾝﾁｮｳ","pref":"京都府","city":"京都市左京区","address":"北白川瓜生山町"},
{"zip_code":"6068224","kana_pref":"ｷｮｳﾄﾌ","kana_city":"ｷｮｳﾄｼｻｷｮｳｸ","kana_address":"ｷﾀｼﾗｶﾜｵｲﾜｹﾁｮｳ","pref":"京都府","city":"京都市左京区","address":"北白川追分町"},
{"zip_code":"6068264","kana_pref":"ｷｮｳﾄﾌ","kana_city":"ｷｮｳﾄｼｻｷｮｳｸ","kana_address":"ｷﾀｼﾗｶﾜｵｸﾞﾗﾁｮｳ","pref":"京都府","city":"京都市左京区","address":"北白川小倉町"},
{"zip_code":"6068292","kana_pref":"ｷｮｳﾄﾌ","kana_city":"ｷｮｳﾄｼｻｷｮｳｸ","kana_address":"ｷﾀｼﾗｶﾜｶｻﾈｲｼﾁｮｳ","pref":"京都府","city":"京都市左京区","address":"北白川重石町"},
{"zip_code":"6068287","kana_pref":"ｷｮｳﾄﾌ","kana_city":"ｷｮｳﾄｼｻｷｮｳｸ","kana_address":"ｷﾀｼﾗｶﾜｶﾐｲｹﾀﾞﾁｮｳ","pref":"京都府","city":"京都市左京区","address":"北白川上池田町"},
{"zip_code":"6068252","kana_pref":"ｷｮｳﾄﾌ","kana_city":"ｷｮｳﾄｼｻｷｮｳｸ","kana_address":"ｷﾀｼﾗｶﾜｶﾐﾊﾃﾁｮｳ","pref":"京都府","city":"京都市左京区","address":"北白川上終町"},
{"zip_code":"6068275","kana_pref":"ｷｮｳﾄﾌ","kana_city":"ｷｮｳﾄｼｻｷｮｳｸ","kana_address":"ｷﾀｼﾗｶﾜｶﾐﾍﾞｯﾄｳﾁｮｳ","pref":"京都府","city":"京都市左京区","address":"北白川上別当町"},
{"zip_code":"6068295","kana_pref":"ｷｮｳﾄﾌ","kana_city":"ｷｮｳﾄｼｻｷｮｳｸ","kana_address":"ｷﾀｼﾗｶﾜｷﾖｻﾞﾜｸﾞﾁﾁｮｳ","pref":"京都府","city":"京都市左京区","address":"北白川清沢口町"},
{"zip_code":"6068266","kana_pref":"ｷｮｳﾄﾌ","kana_city":"ｷｮｳﾄｼｻｷｮｳｸ","kana_address":"ｷﾀｼﾗｶﾜｸﾎﾞﾀﾁｮｳ","pref":"京都府","city":"京都市左京区","address":"北白川久保田町"},
{"zip_code":"6068455","kana_pref":"ｷｮｳﾄﾌ","kana_city":"ｷｮｳﾄｼｻｷｮｳｸ","kana_address":"ｷﾀｼﾗｶﾜｺｶﾞﾒﾀﾞﾆﾁｮｳ","pref":"京都府","city":"京都市左京区","address":"北白川小亀谷町"},
{"zip_code":"6068294","kana_pref":"ｷｮｳﾄﾌ","kana_city":"ｷｮｳﾄｼｻｷｮｳｸ","kana_address":"ｷﾀｼﾗｶﾜｼﾞｿﾞｳﾀﾞﾆﾁｮｳ","pref":"京都府","city":"京都市左京区","address":"北白川地蔵谷町"},
{"zip_code":"6068283","kana_pref":"ｷｮｳﾄﾌ","kana_city":"ｷｮｳﾄｼｻｷｮｳｸ","kana_address":"ｷﾀｼﾗｶﾜｼﾌﾞｾﾁｮｳ","pref":"京都府","city":"京都市左京区","address":"北白川仕伏町"},
{"zip_code":"6068284","kana_pref":"ｷｮｳﾄﾌ","kana_city":"ｷｮｳﾄｼｻｷｮｳｸ","kana_address":"ｷﾀｼﾗｶﾜｼﾓｲｹﾀﾞﾁｮｳ","pref":"京都府","city":"京都市左京区","address":"北白川下池田町"},
{"zip_code":"6068286","kana_pref":"ｷｮｳﾄﾌ","kana_city":"ｷｮｳﾄｼｻｷｮｳｸ","kana_address":"ｷﾀｼﾗｶﾜｼﾓﾍﾞｯﾄｳﾁｮｳ","pref":"京都府","city":"京都市左京区","address":"北白川下別当町"},
{"zip_code":"6068253","kana_pref":"ｷｮｳﾄﾌ","kana_city":"ｷｮｳﾄｼｻｷｮｳｸ","kana_address":"ｷﾀｼﾗｶﾜｾﾉｳﾁﾁｮｳ","pref":"京都府","city":"京都市左京区","address":"北白川瀬ノ内町"},
{"zip_code":"6068274","kana_pref":"ｷｮｳﾄﾌ","kana_city":"ｷｮｳﾄｼｻｷｮｳｸ","kana_address":"ｷﾀｼﾗｶﾜﾀﾞｲﾄﾞｳﾁｮｳ","pref":"京都府","city":"京都市左京区","address":"北白川大堂町"},
{"zip_code":"6068262","kana_pref":"ｷｮｳﾄﾌ","kana_city":"ｷｮｳﾄｼｻｷｮｳｸ","kana_address":"ｷﾀｼﾗｶﾜﾂﾀﾁｮｳ","pref":"京都府","city":"京都市左京区","address":"北白川蔦町"},
{"zip_code":"6068277","kana_pref":"ｷｮｳﾄﾌ","kana_city":"ｷｮｳﾄｼｻｷｮｳｸ","kana_address":"ｷﾀｼﾗｶﾜﾄﾞｳﾉﾏｴﾁｮｳ","pref":"京都府","city":"京都市左京区","address":"北白川堂ノ前町"},
{"zip_code":"6068282","kana_pref":"ｷｮｳﾄﾌ","kana_city":"ｷｮｳﾄｼｻｷｮｳｸ","kana_address":"ｷﾀｼﾗｶﾜﾄﾔﾏﾁｮｳ","pref":"京都府","city":"京都市左京区","address":"北白川外山町"},
{"zip_code":"6068451","kana_pref":"ｷｮｳﾄﾌ","kana_city":"ｷｮｳﾄｼｻｷｮｳｸ","kana_address":"ｷﾀｼﾗｶﾜﾅｶﾔﾏﾁｮｳ","pref":"京都府","city":"京都市左京区","address":"北白川中山町"},
{"zip_code":"6068257","kana_pref":"ｷｮｳﾄﾌ","kana_city":"ｷｮｳﾄｼｻｷｮｳｸ","kana_address":"ｷﾀｼﾗｶﾜﾆｼｲｵﾘﾁｮｳ","pref":"京都府","city":"京都市左京区","address":"北白川西伊織町"},
{"zip_code":"6068255","kana_pref":"ｷｮｳﾄﾌ","kana_city":"ｷｮｳﾄｼｻｷｮｳｸ","kana_address":"ｷﾀｼﾗｶﾜﾆｼｾﾉｳﾁﾁｮｳ","pref":"京都府","city":"京都市左京区","address":"北白川西瀬ノ内町"},
{"zip_code":"6068261","kana_pref":"ｷｮｳﾄﾌ","kana_city":"ｷｮｳﾄｼｻｷｮｳｸ","kana_address":"ｷﾀｼﾗｶﾜﾆｼﾂﾀﾁｮｳ","pref":"京都府","city":"京都市左京区","address":"北白川西蔦町"},
{"zip_code":"6068246","kana_pref":"ｷｮｳﾄﾌ","kana_city":"ｷｮｳﾄｼｻｷｮｳｸ","kana_address":"ｷﾀｼﾗｶﾜﾆｼﾋﾗｲﾁｮｳ","pref":"京都府","city":"京都市左京区","address":"北白川西平井町"},
{"zip_code":"6068267","kana_pref":"ｷｮｳﾄﾌ","kana_city":"ｷｮｳﾄｼｻｷｮｳｸ","kana_address":"ｷﾀｼﾗｶﾜﾆｼﾏﾁ","pref":"京都府","city":"京都市左京区","address":"北白川西町"},
{"zip_code":"6068251","kana_pref":"ｷｮｳﾄﾌ","kana_city":"ｷｮｳﾄｼｻｷｮｳｸ","kana_address":"ｷﾀｼﾗｶﾜﾋｶﾞｼｲｵﾘﾁｮｳ","pref":"京都府","city":"京都市左京区","address":"北白川東伊織町"},
{"zip_code":"6068265","kana_pref":"ｷｮｳﾄﾌ","kana_city":"ｷｮｳﾄｼｻｷｮｳｸ","kana_address":"ｷﾀｼﾗｶﾜﾋｶﾞｼｵｸﾞﾗﾁｮｳ","pref":"京都府","city":"京都市左京区","address":"北白川東小倉町"},
{"zip_code":"6068285","kana_pref":"ｷｮｳﾄﾌ","kana_city":"ｷｮｳﾄｼｻｷｮｳｸ","kana_address":"ｷﾀｼﾗｶﾜﾋｶﾞｼｸﾎﾞﾀﾁｮｳ","pref":"京都府","city":"京都市左京区","address":"北白川東久保田町"},
{"zip_code":"6068254","kana_pref":"ｷｮｳﾄﾌ","kana_city":"ｷｮｳﾄｼｻｷｮｳｸ","kana_address":"ｷﾀｼﾗｶﾜﾋｶﾞｼｾﾉｳﾁﾁｮｳ","pref":"京都府","city":"京都市左京区","address":"北白川東瀬ノ内町"},
{"zip_code":"6068263","kana_pref":"ｷｮｳﾄﾌ","kana_city":"ｷｮｳﾄｼｻｷｮｳｸ","kana_address":"ｷﾀｼﾗｶﾜﾋｶﾞｼﾂﾀﾁｮｳ","pref":"京都府","city":"京都市左京区","address":"北白川東蔦町"},
{"zip_code":"6068244","kana_pref":"ｷｮｳﾄﾌ","kana_city":"ｷｮｳﾄｼｻｷｮｳｸ","kana_address":"ｷﾀｼﾗｶﾜﾋｶﾞｼﾋﾗｲﾁｮｳ","pref":"京都府","city":"京都市左京区","address":"北白川東平井町"},
{"zip_code":"6068245","kana_pref":"ｷｮｳﾄﾌ","kana_city":"ｷｮｳﾄｼｻｷｮｳｸ","kana_address":"ｷﾀｼﾗｶﾜﾋﾗｲﾁｮｳ","pref":"京都府","city":"京都市左京区","address":"北白川平井町"},
{"zip_code":"6068293","kana_pref":"ｷｮｳﾄﾌ","kana_city":"ｷｮｳﾄｼｻｷｮｳｸ","kana_address":"ｷﾀｼﾗｶﾜﾋﾞﾜﾁｮｳ","pref":"京都府","city":"京都市左京区","address":"北白川琵琶町"},
{"zip_code":"6068276","kana_pref":"ｷｮｳﾄﾌ","kana_city":"ｷｮｳﾄｼｻｷｮｳｸ","kana_address":"ｷﾀｼﾗｶﾜﾍﾞｯﾄｳﾁｮｳ","pref":"京都府","city":"京都市左京区","address":"北白川別当町"},
{"zip_code":"6068281","kana_pref":"ｷｮｳﾄﾌ","kana_city":"ｷｮｳﾄｼｻｷｮｳｸ","kana_address":"ｷﾀｼﾗｶﾜﾏﾙﾔﾏﾁｮｳ","pref":"京都府","city":"京都市左京区","address":"北白川丸山町"},
{"zip_code":"6068453","kana_pref":"ｷｮｳﾄﾌ","kana_city":"ｷｮｳﾄｼｻｷｮｳｸ","kana_address":"ｷﾀｼﾗｶﾜﾐﾅﾐｶﾞﾊﾗﾁｮｳ","pref":"京都府","city":"京都市左京区","address":"北白川南ケ原町"},
{"zip_code":"6068454","kana_pref":"ｷｮｳﾄﾌ","kana_city":"ｷｮｳﾄｼｻｷｮｳｸ","kana_address":"ｷﾀｼﾗｶﾜﾑｺｳｶﾞﾀﾞﾆﾁｮｳ","pref":"京都府","city":"京都市左京区","address":"北白川向ケ谷町"},
{"zip_code":"6068272","kana_pref":"ｷｮｳﾄﾌ","kana_city":"ｷｮｳﾄｼｻｷｮｳｸ","kana_address":"ｷﾀｼﾗｶﾜﾔﾏﾀﾞﾁｮｳ","pref":"京都府","city":"京都市左京区","address":"北白川山田町"},
{"zip_code":"6068273","kana_pref":"ｷｮｳﾄﾌ","kana_city":"ｷｮｳﾄｼｻｷｮｳｸ","kana_address":"ｷﾀｼﾗｶﾜﾔﾏﾉﾓﾄﾁｮｳ","pref":"京都府","city":"京都市左京区","address":"北白川山ノ元町"},
{"zip_code":"6068352","kana_pref":"ｷｮｳﾄﾌ","kana_city":"ｷｮｳﾄｼｻｷｮｳｸ","kana_address":"ｷﾀﾓﾝｾﾞﾝﾁｮｳ","pref":"京都府","city":"京都市左京区","address":"北門前町"},
{"zip_code":"6068402","kana_pref":"ｷｮｳﾄﾌ","kana_city":"ｷｮｳﾄｼｻｷｮｳｸ","kana_address":"ｷﾞﾝｶｸｼﾞﾁｮｳ","pref":"京都府","city":"京都市左京区","address":"銀閣寺町"},
{"zip_code":"6068407","kana_pref":"ｷｮｳﾄﾌ","kana_city":"ｷｮｳﾄｼｻｷｮｳｸ","kana_address":"ｷﾞﾝｶｸｼﾞﾏｴﾁｮｳ","pref":"京都府","city":"京都市左京区","address":"銀閣寺前町"},
{"zip_code":"6068331","kana_pref":"ｷｮｳﾄﾌ","kana_city":"ｷｮｳﾄｼｻｷｮｳｸ","kana_address":"ｸﾛﾀﾞﾆﾁｮｳ","pref":"京都府","city":"京都市左京区","address":"黒谷町"},
{"zip_code":"6068365","kana_pref":"ｷｮｳﾄﾌ","kana_city":"ｷｮｳﾄｼｻｷｮｳｸ","kana_address":"ｻﾝｼｭｳｼﾞﾁｮｳ","pref":"京都府","city":"京都市左京区","address":"讃州寺町"},
{"zip_code":"6068447","kana_pref":"ｷｮｳﾄﾌ","kana_city":"ｷｮｳﾄｼｻｷｮｳｸ","kana_address":"ｼｼｶﾞﾀﾆｶﾐﾐﾔﾉﾏｴﾁｮｳ","pref":"京都府","city":"京都市左京区","address":"鹿ケ谷上宮ノ前町"},
{"zip_code":"6068428","kana_pref":"ｷｮｳﾄﾌ","kana_city":"ｷｮｳﾄｼｻｷｮｳｸ","kana_address":"ｼｼｶﾞﾀﾆｸﾘｷﾀﾆﾁｮｳ","pref":"京都府","city":"京都市左京区","address":"鹿ケ谷栗木谷町"},
{"zip_code":"6068422","kana_pref":"ｷｮｳﾄﾌ","kana_city":"ｷｮｳﾄｼｻｷｮｳｸ","kana_address":"ｼｼｶﾞﾀﾆｺﾞｼｮﾉﾀﾞﾝﾁｮｳ","pref":"京都府","city":"京都市左京区","address":"鹿ケ谷御所ノ段町"},
{"zip_code":"6068423","kana_pref":"ｷｮｳﾄﾌ","kana_city":"ｷｮｳﾄｼｻｷｮｳｸ","kana_address":"ｼｼｶﾞﾀﾆｻｸﾗﾀﾞﾆﾁｮｳ","pref":"京都府","city":"京都市左京区","address":"鹿ケ谷桜谷町"},
{"zip_code":"6068431","kana_pref":"ｷｮｳﾄﾌ","kana_city":"ｷｮｳﾄｼｻｷｮｳｸ","kana_address":"ｼｼｶﾞﾀﾆｼﾓﾐﾔﾉﾏｴﾁｮｳ","pref":"京都府","city":"京都市左京区","address":"鹿ケ谷下宮ノ前町"},
{"zip_code":"6068442","kana_pref":"ｷｮｳﾄﾌ","kana_city":"ｷｮｳﾄｼｻｷｮｳｸ","kana_address":"ｼｼｶﾞﾀﾆﾀﾞｲｺｸﾀﾞﾆﾁｮｳ","pref":"京都府","city":"京都市左京区","address":"鹿ケ谷大黒谷町"},
{"zip_code":"6068432","kana_pref":"ｷｮｳﾄﾌ","kana_city":"ｷｮｳﾄｼｻｷｮｳｸ","kana_address":"ｼｼｶﾞﾀﾆﾀｶｷﾞｼﾁｮｳ","pref":"京都府","city":"京都市左京区","address":"鹿ケ谷高岸町"},
{"zip_code":"6068426","kana_pref":"ｷｮｳﾄﾌ","kana_city":"ｷｮｳﾄｼｻｷｮｳｸ","kana_address":"ｼｼｶﾞﾀﾆﾃﾗﾉﾏｴﾁｮｳ","pref":"京都府","city":"京都市左京区","address":"鹿ケ谷寺ノ前町"},
{"zip_code":"6068441","kana_pref":"ｷｮｳﾄﾌ","kana_city":"ｷｮｳﾄｼｻｷｮｳｸ","kana_address":"ｼｼｶﾞﾀﾆﾄｸｾﾞﾝﾀﾞﾆﾁｮｳ","pref":"京都府","city":"京都市左京区","address":"鹿ケ谷徳善谷町"},
{"zip_code":"6068425","kana_pref":"ｷｮｳﾄﾌ","kana_city":"ｷｮｳﾄｼｻｷｮｳｸ","kana_address":"ｼｼｶﾞﾀﾆﾆｼﾃﾗﾉﾏｴﾁｮｳ","pref":"京都府","city":"京都市左京区","address":"鹿ケ谷西寺ノ前町"},
{"zip_code":"6068421","kana_pref":"ｷｮｳﾄﾌ","kana_city":"ｷｮｳﾄｼｻｷｮｳｸ","kana_address":"ｼｼｶﾞﾀﾆﾎｳﾈﾝｲﾝﾁｮｳ","pref":"京都府","city":"京都市左京区","address":"鹿ケ谷法然院町"},
{"zip_code":"6068427","kana_pref":"ｷｮｳﾄﾌ","kana_city":"ｷｮｳﾄｼｻｷｮｳｸ","kana_address":"ｼｼｶﾞﾀﾆﾎｳﾈﾝｲﾝﾆｼﾏﾁ","pref":"京都府","city":"京都市左京区","address":"鹿ケ谷法然院西町"},
{"zip_code":"6068424","kana_pref":"ｷｮｳﾄﾌ","kana_city":"ｷｮｳﾄｼｻｷｮｳｸ","kana_address":"ｼｼｶﾞﾀﾆﾐﾔﾉﾏｴﾁｮｳ","pref":"京都府","city":"京都市左京区","address":"鹿ケ谷宮ノ前町"},
{"zip_code":"6060807","kana_pref":"ｷｮｳﾄﾌ","kana_city":"ｷｮｳﾄｼｻｷｮｳｸ","kana_address":"ｼﾓｶﾞﾓｲｽﾞﾐｶﾞﾜﾁｮｳ","pref":"京都府","city":"京都市左京区","address":"下鴨泉川町"},
{"zip_code":"6060834","kana_pref":"ｷｮｳﾄﾌ","kana_city":"ｷｮｳﾄｼｻｷｮｳｸ","kana_address":"ｼﾓｶﾞﾓｲﾉｺﾀﾞﾁｮｳ","pref":"京都府","city":"京都市左京区","address":"下鴨狗子田町"},
{"zip_code":"6060851","kana_pref":"ｷｮｳﾄﾌ","kana_city":"ｷｮｳﾄｼｻｷｮｳｸ","kana_address":"ｼﾓｶﾞﾓｳﾒﾉｷﾁｮｳ","pref":"京都府","city":"京都市左京区","address":"下鴨梅ノ木町"},
{"zip_code":"6060815","kana_pref":"ｷｮｳﾄﾌ","kana_city":"ｷｮｳﾄｼｻｷｮｳｸ","kana_address":"ｼﾓｶﾞﾓｶｼﾜﾍﾞﾁｮｳ","pref":"京都府","city":"京都市左京区","address":"下鴨膳部町"},
{"zip_code":"6060812","kana_pref":"ｷｮｳﾄﾌ","kana_city":"ｷｮｳﾄｼｻｷｮｳｸ","kana_address":"ｼﾓｶﾞﾓｶﾐｶﾞﾜﾗﾁｮｳ","pref":"京都府","city":"京都市左京区","address":"下鴨上川原町"},
{"zip_code":"6060853","kana_pref":"ｷｮｳﾄﾌ","kana_city":"ｷｮｳﾄｼｻｷｮｳｸ","kana_address":"ｼﾓｶﾞﾓｷｼﾓﾄﾁｮｳ","pref":"京都府","city":"京都市左京区","address":"下鴨岸本町"},
{"zip_code":"6060842","kana_pref":"ｷｮｳﾄﾌ","kana_city":"ｷｮｳﾄｼｻｷｮｳｸ","kana_address":"ｼﾓｶﾞﾓｷﾀｼﾊﾞﾁｮｳ","pref":"京都府","city":"京都市左京区","address":"下鴨北芝町"},
{"zip_code":"6060831","kana_pref":"ｷｮｳﾄﾌ","kana_city":"ｷｮｳﾄｼｻｷｮｳｸ","kana_address":"ｼﾓｶﾞﾓｷﾀｿﾞﾉﾁｮｳ","pref":"京都府","city":"京都市左京区","address":"下鴨北園町"},
{"zip_code":"6060844","kana_pref":"ｷｮｳﾄﾌ","kana_city":"ｷｮｳﾄｼｻｷｮｳｸ","kana_address":"ｼﾓｶﾞﾓｷﾀﾁｬﾉｷﾁｮｳ","pref":"京都府","city":"京都市左京区","address":"下鴨北茶ノ木町"},
{"zip_code":"6060846","kana_pref":"ｷｮｳﾄﾌ","kana_city":"ｷｮｳﾄｼｻｷｮｳｸ","kana_address":"ｼﾓｶﾞﾓｷﾀﾉﾉｶﾞﾐﾁｮｳ","pref":"京都府","city":"京都市左京区","address":"下鴨北野々神町"},
{"zip_code":"6060813","kana_pref":"ｷｮｳﾄﾌ","kana_city":"ｷｮｳﾄｼｻｷｮｳｸ","kana_address":"ｼﾓｶﾞﾓｷﾌﾞﾈﾁｮｳ","pref":"京都府","city":"京都市左京区","address":"下鴨貴船町"},
{"zip_code":"6060835","kana_pref":"ｷｮｳﾄﾌ","kana_city":"ｷｮｳﾄｼｻｷｮｳｸ","kana_address":"ｼﾓｶﾞﾓｺｳﾄﾞﾉﾁｮｳ","pref":"京都府","city":"京都市左京区","address":"下鴨神殿町"},
{"zip_code":"6060814","kana_pref":"ｷｮｳﾄﾌ","kana_city":"ｷｮｳﾄｼｻｷｮｳｸ","kana_address":"ｼﾓｶﾞﾓｼﾊﾞﾓﾄﾁｮｳ","pref":"京都府","city":"京都市左京区","address":"下鴨芝本町"},
{"zip_code":"6060803","kana_pref":"ｷｮｳﾄﾌ","kana_city":"ｷｮｳﾄｼｻｷｮｳｸ","kana_address":"ｼﾓｶﾞﾓｼﾓｶﾞﾜﾗﾁｮｳ","pref":"京都府","city":"京都市左京区","address":"下鴨下川原町"},
{"zip_code":"6060864","kana_pref":"ｷｮｳﾄﾌ","kana_city":"ｷｮｳﾄｼｻｷｮｳｸ","kana_address":"ｼﾓｶﾞﾓﾀｶｷﾞﾁｮｳ","pref":"京都府","city":"京都市左京区","address":"下鴨高木町"},
{"zip_code":"6060806","kana_pref":"ｷｮｳﾄﾌ","kana_city":"ｷｮｳﾄｼｻｷｮｳｸ","kana_address":"ｼﾓｶﾞﾓﾀﾃﾞｸﾗﾁｮｳ","pref":"京都府","city":"京都市左京区","address":"下鴨蓼倉町"},
{"zip_code":"6060856","kana_pref":"ｷｮｳﾄﾌ","kana_city":"ｷｮｳﾄｼｻｷｮｳｸ","kana_address":"ｼﾓｶﾞﾓﾂｶﾓﾄﾁｮｳ","pref":"京都府","city":"京都市左京区","address":"下鴨塚本町"},
{"zip_code":"6060811","kana_pref":"ｷｮｳﾄﾌ","kana_city":"ｷｮｳﾄｼｻｷｮｳｸ","kana_address":"ｼﾓｶﾞﾓﾅｶｶﾞﾜﾗﾁｮｳ","pref":"京都府","city":"京都市左京区","address":"下鴨中川原町"},
{"zip_code":"6060825","kana_pref":"ｷｮｳﾄﾌ","kana_city":"ｷｮｳﾄｼｻｷｮｳｸ","kana_address":"ｼﾓｶﾞﾓﾆｼｳﾒﾉｷﾁｮｳ","pref":"京都府","city":"京都市左京区","address":"下鴨西梅ノ木町"},
{"zip_code":"6060861","kana_pref":"ｷｮｳﾄﾌ","kana_city":"ｷｮｳﾄｼｻｷｮｳｸ","kana_address":"ｼﾓｶﾞﾓﾆｼﾀｶｷﾞﾁｮｳ","pref":"京都府","city":"京都市左京区","address":"下鴨西高木町"},
{"zip_code":"6060817","kana_pref":"ｷｮｳﾄﾌ","kana_city":"ｷｮｳﾄｼｻｷｮｳｸ","kana_address":"ｼﾓｶﾞﾓﾆｼﾊﾞﾔｼﾁｮｳ","pref":"京都府","city":"京都市左京区","address":"下鴨西林町"},
{"zip_code":"6060827","kana_pref":"ｷｮｳﾄﾌ","kana_city":"ｷｮｳﾄｼｻｷｮｳｸ","kana_address":"ｼﾓｶﾞﾓﾆｼﾊﾝｷﾞﾁｮｳ","pref":"京都府","city":"京都市左京区","address":"下鴨西半木町"},
{"zip_code":"6060826","kana_pref":"ｷｮｳﾄﾌ","kana_city":"ｷｮｳﾄｼｻｷｮｳｸ","kana_address":"ｼﾓｶﾞﾓﾆｼﾎﾝﾏﾁ","pref":"京都府","city":"京都市左京区","address":"下鴨西本町"},
{"zip_code":"6060832","kana_pref":"ｷｮｳﾄﾌ","kana_city":"ｷｮｳﾄｼｻｷｮｳｸ","kana_address":"ｼﾓｶﾞﾓﾊｷﾞｶﾞｶｷｳﾁﾁｮｳ","pref":"京都府","city":"京都市左京区","address":"下鴨萩ケ垣内町"},
{"zip_code":"6060823","kana_pref":"ｷｮｳﾄﾌ","kana_city":"ｷｮｳﾄｼｻｷｮｳｸ","kana_address":"ｼﾓｶﾞﾓﾊﾝｷﾞﾁｮｳ","pref":"京都府","city":"京都市左京区","address":"下鴨半木町"},
{"zip_code":"6060852","kana_pref":"ｷｮｳﾄﾌ","kana_city":"ｷｮｳﾄｼｻｷｮｳｸ","kana_address":"ｼﾓｶﾞﾓﾋｶﾞｼｳﾒﾉｷﾁｮｳ","pref":"京都府","city":"京都市左京区","address":"下鴨東梅ノ木町"},
{"zip_code":"6060854","kana_pref":"ｷｮｳﾄﾌ","kana_city":"ｷｮｳﾄｼｻｷｮｳｸ","kana_address":"ｼﾓｶﾞﾓﾋｶﾞｼｷｼﾓﾄﾁｮｳ","pref":"京都府","city":"京都市左京区","address":"下鴨東岸本町"},
{"zip_code":"6060865","kana_pref":"ｷｮｳﾄﾌ","kana_city":"ｷｮｳﾄｼｻｷｮｳｸ","kana_address":"ｼﾓｶﾞﾓﾋｶﾞｼﾀｶｷﾞﾁｮｳ","pref":"京都府","city":"京都市左京区","address":"下鴨東高木町"},
{"zip_code":"6060855","kana_pref":"ｷｮｳﾄﾌ","kana_city":"ｷｮｳﾄｼｻｷｮｳｸ","kana_address":"ｼﾓｶﾞﾓﾋｶﾞｼﾂｶﾓﾄﾁｮｳ","pref":"京都府","city":"京都市左京区","address":"下鴨東塚本町"},
{"zip_code":"6060824","kana_pref":"ｷｮｳﾄﾌ","kana_city":"ｷｮｳﾄｼｻｷｮｳｸ","kana_address":"ｼﾓｶﾞﾓﾋｶﾞｼﾊﾝｷﾞﾁｮｳ","pref":"京都府","city":"京都市左京区","address":"下鴨東半木町"},
{"zip_code":"6060863","kana_pref":"ｷｮｳﾄﾌ","kana_city":"ｷｮｳﾄｼｻｷｮｳｸ","kana_address":"ｼﾓｶﾞﾓﾋｶﾞｼﾎﾝﾏﾁ","pref":"京都府","city":"京都市左京区","address":"下鴨東本町"},
{"zip_code":"6060866","kana_pref":"ｷｮｳﾄﾌ","kana_city":"ｷｮｳﾄｼｻｷｮｳｸ","kana_address":"ｼﾓｶﾞﾓﾋｶﾞｼﾓﾘｶﾞﾏｴﾁｮｳ","pref":"京都府","city":"京都市左京区","address":"下鴨東森ケ前町"},
{"zip_code":"6060862","kana_pref":"ｷｮｳﾄﾌ","kana_city":"ｷｮｳﾄｼｻｷｮｳｸ","kana_address":"ｼﾓｶﾞﾓﾎﾝﾏﾁ","pref":"京都府","city":"京都市左京区","address":"下鴨本町"},
{"zip_code":"6060833","kana_pref":"ｷｮｳﾄﾌ","kana_city":"ｷｮｳﾄｼｻｷｮｳｸ","kana_address":"ｼﾓｶﾞﾓﾏｴﾊｷﾞﾁｮｳ","pref":"京都府","city":"京都市左京区","address":"下鴨前萩町"},
{"zip_code":"6060816","kana_pref":"ｷｮｳﾄﾌ","kana_city":"ｷｮｳﾄｼｻｷｮｳｸ","kana_address":"ｼﾓｶﾞﾓﾏﾂﾉｷﾁｮｳ","pref":"京都府","city":"京都市左京区","address":"下鴨松ノ木町"},
{"zip_code":"6060804","kana_pref":"ｷｮｳﾄﾌ","kana_city":"ｷｮｳﾄｼｻｷｮｳｸ","kana_address":"ｼﾓｶﾞﾓﾏﾂﾊﾞﾗﾁｮｳ","pref":"京都府","city":"京都市左京区","address":"下鴨松原町"},
{"zip_code":"6060843","kana_pref":"ｷｮｳﾄﾌ","kana_city":"ｷｮｳﾄｼｻｷｮｳｸ","kana_address":"ｼﾓｶﾞﾓﾐﾅｸﾁﾁｮｳ","pref":"京都府","city":"京都市左京区","address":"下鴨水口町"},
{"zip_code":"6060841","kana_pref":"ｷｮｳﾄﾌ","kana_city":"ｷｮｳﾄｼｻｷｮｳｸ","kana_address":"ｼﾓｶﾞﾓﾐﾅﾐｼﾊﾞﾁｮｳ","pref":"京都府","city":"京都市左京区","address":"下鴨南芝町"},
{"zip_code":"6060845","kana_pref":"ｷｮｳﾄﾌ","kana_city":"ｷｮｳﾄｼｻｷｮｳｸ","kana_address":"ｼﾓｶﾞﾓﾐﾅﾐﾁｬﾉｷﾁｮｳ","pref":"京都府","city":"京都市左京区","address":"下鴨南茶ノ木町"},
{"zip_code":"6060847","kana_pref":"ｷｮｳﾄﾌ","kana_city":"ｷｮｳﾄｼｻｷｮｳｸ","kana_address":"ｼﾓｶﾞﾓﾐﾅﾐﾉﾉｶﾞﾐﾁｮｳ","pref":"京都府","city":"京都市左京区","address":"下鴨南野々神町"},
{"zip_code":"6060801","kana_pref":"ｷｮｳﾄﾌ","kana_city":"ｷｮｳﾄｼｻｷｮｳｸ","kana_address":"ｼﾓｶﾞﾓﾐﾔｶﾜﾁｮｳ","pref":"京都府","city":"京都市左京区","address":"下鴨宮河町"},
{"zip_code":"6060802","kana_pref":"ｷｮｳﾄﾌ","kana_city":"ｷｮｳﾄｼｻｷｮｳｸ","kana_address":"ｼﾓｶﾞﾓﾐﾔｻﾞｷﾁｮｳ","pref":"京都府","city":"京都市左京区","address":"下鴨宮崎町"},
{"zip_code":"6060867","kana_pref":"ｷｮｳﾄﾌ","kana_city":"ｷｮｳﾄｼｻｷｮｳｸ","kana_address":"ｼﾓｶﾞﾓﾓﾘｶﾞﾏｴﾁｮｳ","pref":"京都府","city":"京都市左京区","address":"下鴨森ケ前町"},
{"zip_code":"6060805","kana_pref":"ｷｮｳﾄﾌ","kana_city":"ｷｮｳﾄｼｻｷｮｳｸ","kana_address":"ｼﾓｶﾞﾓﾓﾘﾓﾄﾁｮｳ","pref":"京都府","city":"京都市左京区","address":"下鴨森本町"},
{"zip_code":"6060837","kana_pref":"ｷｮｳﾄﾌ","kana_city":"ｷｮｳﾄｼｻｷｮｳｸ","kana_address":"ｼﾓｶﾞﾓﾔｺｳﾁｮｳ","pref":"京都府","city":"京都市左京区","address":"下鴨夜光町"},
{"zip_code":"6060836","kana_pref":"ｷｮｳﾄﾌ","kana_city":"ｷｮｳﾄｼｻｷｮｳｸ","kana_address":"ｼﾓｶﾞﾓﾔﾅﾀﾞﾁｮｳ","pref":"京都府","city":"京都市左京区","address":"下鴨梁田町"},
{"zip_code":"6068396","kana_pref":"ｷｮｳﾄﾌ","kana_city":"ｷｮｳﾄｼｻｷｮｳｸ","kana_address":"ｼﾓﾂﾂﾐﾁｮｳ","pref":"京都府","city":"京都市左京区","address":"下堤町"},
{"zip_code":"6068045","kana_pref":"ｷｮｳﾄﾌ","kana_city":"ｷｮｳﾄｼｻｷｮｳｸ","kana_address":"ｼｭｳｶﾞｸｲﾝｱﾝﾖｳﾎﾞｳ","pref":"京都府","city":"京都市左京区","address":"修学院安養坊"},
{"zip_code":"6068074","kana_pref":"ｷｮｳﾄﾌ","kana_city":"ｷｮｳﾄｼｻｷｮｳｸ","kana_address":"ｼｭｳｶﾞｸｲﾝｲｼｶｹﾁｮｳ","pref":"京都府","city":"京都市左京区","address":"修学院石掛町"},
{"zip_code":"6068042","kana_pref":"ｷｮｳﾄﾌ","kana_city":"ｷｮｳﾄｼｻｷｮｳｸ","kana_address":"ｼｭｳｶﾞｸｲﾝｲｽﾞﾐﾄﾞﾉﾁｮｳ","pref":"京都府","city":"京都市左京区","address":"修学院泉殿町"},
{"zip_code":"6068083","kana_pref":"ｷｮｳﾄﾌ","kana_city":"ｷｮｳﾄｼｻｷｮｳｸ","kana_address":"ｼｭｳｶﾞｸｲﾝｲﾇﾂﾞｶﾁｮｳ","pref":"京都府","city":"京都市左京区","address":"修学院犬塚町"},
{"zip_code":"6068081","kana_pref":"ｷｮｳﾄﾌ","kana_city":"ｷｮｳﾄｼｻｷｮｳｸ","kana_address":"ｼｭｳｶﾞｸｲﾝｵｵﾊﾞﾔｼﾁｮｳ","pref":"京都府","city":"京都市左京区","address":"修学院大林町"},
{"zip_code":"6068021","kana_pref":"ｷｮｳﾄﾌ","kana_city":"ｷｮｳﾄｼｻｷｮｳｸ","kana_address":"ｼｭｳｶﾞｸｲﾝｵｷﾄﾞﾉﾁｮｳ","pref":"京都府","city":"京都市左京区","address":"修学院沖殿町"},
{"zip_code":"6068036","kana_pref":"ｷｮｳﾄﾌ","kana_city":"ｷｮｳﾄｼｻｷｮｳｸ","kana_address":"ｼｭｳｶﾞｸｲﾝｶｲｺﾝﾎﾞｳﾁｮｳ","pref":"京都府","city":"京都市左京区","address":"修学院開根坊町"},
{"zip_code":"6068043","kana_pref":"ｷｮｳﾄﾌ","kana_city":"ｷｮｳﾄｼｻｷｮｳｸ","kana_address":"ｼｭｳｶﾞｸｲﾝｶｲﾊﾞﾗﾁｮｳ","pref":"京都府","city":"京都市左京区","address":"修学院貝原町"},
{"zip_code":"6068065","kana_pref":"ｷｮｳﾄﾌ","kana_city":"ｷｮｳﾄｼｻｷｮｳｸ","kana_address":"ｼｭｳｶﾞｸｲﾝｶﾞﾂﾘﾝｼﾞﾁｮｳ","pref":"京都府","city":"京都市左京区","address":"修学院月輪寺町"},
{"zip_code":"6068082","kana_pref":"ｷｮｳﾄﾌ","kana_city":"ｷｮｳﾄｼｻｷｮｳｸ","kana_address":"ｼｭｳｶﾞｸｲﾝｶﾉｼﾀﾁｮｳ","pref":"京都府","city":"京都市左京区","address":"修学院鹿ノ下町"},
{"zip_code":"6068047","kana_pref":"ｷｮｳﾄﾌ","kana_city":"ｷｮｳﾄｼｻｷｮｳｸ","kana_address":"ｼｭｳｶﾞｸｲﾝｶﾗｽﾏﾙﾁｮｳ","pref":"京都府","city":"京都市左京区","address":"修学院烏丸町"},
{"zip_code":"6068026","kana_pref":"ｷｮｳﾄﾌ","kana_city":"ｷｮｳﾄｼｻｷｮｳｸ","kana_address":"ｼｭｳｶﾞｸｲﾝｶﾜｼﾞﾘﾁｮｳ","pref":"京都府","city":"京都市左京区","address":"修学院川尻町"},
{"zip_code":"6068032","kana_pref":"ｷｮｳﾄﾌ","kana_city":"ｷｮｳﾄｼｻｷｮｳｸ","kana_address":"ｼｭｳｶﾞｸｲﾝｷﾀﾌｹﾁｮｳ","pref":"京都府","city":"京都市左京区","address":"修学院北沮沢町"},
{"zip_code":"6068063","kana_pref":"ｷｮｳﾄﾌ","kana_city":"ｷｮｳﾄｼｻｷｮｳｸ","kana_address":"ｼｭｳｶﾞｸｲﾝｺﾞｱﾝﾄﾞｳ","pref":"京都府","city":"京都市左京区","address":"修学院後安堂"},
{"zip_code":"6068086","kana_pref":"ｷｮｳﾄﾌ","kana_city":"ｷｮｳﾄｼｻｷｮｳｸ","kana_address":"ｼｭｳｶﾞｸｲﾝｼﾞｭｳｺﾞﾝｼﾞﾁｮｳ","pref":"京都府","city":"京都市左京区","address":"修学院十権寺町"},
{"zip_code":"6068035","kana_pref":"ｷｮｳﾄﾌ","kana_city":"ｷｮｳﾄｼｻｷｮｳｸ","kana_address":"ｼｭｳｶﾞｸｲﾝｼｭｾﾞﾝｱﾝ","pref":"京都府","city":"京都市左京区","address":"修学院守禅庵"},
{"zip_code":"6068023","kana_pref":"ｷｮｳﾄﾌ","kana_city":"ｷｮｳﾄｼｻｷｮｳｸ","kana_address":"ｼｭｳｶﾞｸｲﾝｽｲｼﾞｮｳﾃﾞﾝﾁｮｳ","pref":"京都府","city":"京都市左京区","address":"修学院水上田町"},
{"zip_code":"6068024","kana_pref":"ｷｮｳﾄﾌ","kana_city":"ｷｮｳﾄｼｻｷｮｳｸ","kana_address":"ｼｭｳｶﾞｸｲﾝｾﾝﾏﾝﾀﾞﾁｮｳ","pref":"京都府","city":"京都市左京区","address":"修学院千万田町"},
{"zip_code":"6068037","kana_pref":"ｷｮｳﾄﾌ","kana_city":"ｷｮｳﾄｼｻｷｮｳｸ","kana_address":"ｼｭｳｶﾞｸｲﾝﾀﾞｲﾄﾞｳﾁｮｳ","pref":"京都府","city":"京都市左京区","address":"修学院大道町"},
{"zip_code":"6068055","kana_pref":"ｷｮｳﾄﾌ","kana_city":"ｷｮｳﾄｼｻｷｮｳｸ","kana_address":"ｼｭｳｶﾞｸｲﾝﾀｶｷﾞｼﾁｮｳ","pref":"京都府","city":"京都市左京区","address":"修学院高岸町"},
{"zip_code":"6068022","kana_pref":"ｷｮｳﾄﾌ","kana_city":"ｷｮｳﾄｼｻｷｮｳｸ","kana_address":"ｼｭｳｶﾞｸｲﾝﾀｶﾍﾞﾁｮｳ","pref":"京都府","city":"京都市左京区","address":"修学院高部町"},
{"zip_code":"6068073","kana_pref":"ｷｮｳﾄﾌ","kana_city":"ｷｮｳﾄｼｻｷｮｳｸ","kana_address":"ｼｭｳｶﾞｸｲﾝﾁｬﾔﾉﾏｴﾁｮｳ","pref":"京都府","city":"京都市左京区","address":"修学院茶屋ノ前町"},
{"zip_code":"6068064","kana_pref":"ｷｮｳﾄﾌ","kana_city":"ｷｮｳﾄｼｻｷｮｳｸ","kana_address":"ｼｭｳｶﾞｸｲﾝﾂｼﾞﾉﾀﾞﾁｮｳ","pref":"京都府","city":"京都市左京区","address":"修学院辻ノ田町"},
{"zip_code":"6068075","kana_pref":"ｷｮｳﾄﾌ","kana_city":"ｷｮｳﾄｼｻｷｮｳｸ","kana_address":"ｼｭｳｶﾞｸｲﾝﾂﾎﾞｴﾁｮｳ","pref":"京都府","city":"京都市左京区","address":"修学院坪江町"},
{"zip_code":"6068051","kana_pref":"ｷｮｳﾄﾌ","kana_city":"ｷｮｳﾄｼｻｷｮｳｸ","kana_address":"ｼｭｳｶﾞｸｲﾝﾅｶｼﾝｶｲ","pref":"京都府","city":"京都市左京区","address":"修学院中新開"},
{"zip_code":"6068085","kana_pref":"ｷｮｳﾄﾌ","kana_city":"ｷｮｳﾄｼｻｷｮｳｸ","kana_address":"ｼｭｳｶﾞｸｲﾝﾅｶﾊﾞﾔｼﾁｮｳ","pref":"京都府","city":"京都市左京区","address":"修学院中林町"},
{"zip_code":"6068031","kana_pref":"ｷｮｳﾄﾌ","kana_city":"ｷｮｳﾄｼｻｷｮｳｸ","kana_address":"ｼｭｳｶﾞｸｲﾝﾆｼﾌｹﾁｮｳ","pref":"京都府","city":"京都市左京区","address":"修学院西沮沢町"},
{"zip_code":"6068072","kana_pref":"ｷｮｳﾄﾌ","kana_city":"ｷｮｳﾄｼｻｷｮｳｸ","kana_address":"ｼｭｳｶﾞｸｲﾝﾉﾎﾞﾘｳﾁﾁｮｳ","pref":"京都府","city":"京都市左京区","address":"修学院登リ内町"},
{"zip_code":"6068071","kana_pref":"ｷｮｳﾄﾌ","kana_city":"ｷｮｳﾄｼｻｷｮｳｸ","kana_address":"ｼｭｳｶﾞｸｲﾝﾊｻﾞﾏﾁｮｳ","pref":"京都府","city":"京都市左京区","address":"修学院狭間町"},
{"zip_code":"6068044","kana_pref":"ｷｮｳﾄﾌ","kana_city":"ｷｮｳﾄｼｻｷｮｳｸ","kana_address":"ｼｭｳｶﾞｸｲﾝﾊﾞﾊﾞﾜｷﾁｮｳ","pref":"京都府","city":"京都市左京区","address":"修学院馬場脇町"},
{"zip_code":"6068057","kana_pref":"ｷｮｳﾄﾌ","kana_city":"ｷｮｳﾄｼｻｷｮｳｸ","kana_address":"ｼｭｳｶﾞｸｲﾝﾊﾔｼﾉﾜｷ","pref":"京都府","city":"京都市左京区","address":"修学院林ノ脇"},
{"zip_code":"6068034","kana_pref":"ｷｮｳﾄﾌ","kana_city":"ｷｮｳﾄｼｻｷｮｳｸ","kana_address":"ｼｭｳｶﾞｸｲﾝﾋﾉｷﾄｳｹﾞﾁｮｳ","pref":"京都府","city":"京都市左京区","address":"修学院桧峠町"},
{"zip_code":"6068041","kana_pref":"ｷｮｳﾄﾌ","kana_city":"ｷｮｳﾄｼｻｷｮｳｸ","kana_address":"ｼｭｳｶﾞｸｲﾝﾌﾞｯｼｬﾁｮｳ","pref":"京都府","city":"京都市左京区","address":"修学院仏者町"},
{"zip_code":"6068056","kana_pref":"ｷｮｳﾄﾌ","kana_city":"ｷｮｳﾄｼｻｷｮｳｸ","kana_address":"ｼｭｳｶﾞｸｲﾝﾏﾂﾓﾄﾁｮｳ","pref":"京都府","city":"京都市左京区","address":"修学院松本町"},
{"zip_code":"6068027","kana_pref":"ｷｮｳﾄﾌ","kana_city":"ｷｮｳﾄｼｻｷｮｳｸ","kana_address":"ｼｭｳｶﾞｸｲﾝﾐｽﾞｶﾜﾗﾁｮｳ","pref":"京都府","city":"京都市左京区","address":"修学院水川原町"},
{"zip_code":"6068062","kana_pref":"ｷｮｳﾄﾌ","kana_city":"ｷｮｳﾄｼｻｷｮｳｸ","kana_address":"ｼｭｳｶﾞｸｲﾝﾐﾅﾐｼﾛ","pref":"京都府","city":"京都市左京区","address":"修学院南代"},
{"zip_code":"6068053","kana_pref":"ｷｮｳﾄﾌ","kana_city":"ｷｮｳﾄｼｻｷｮｳｸ","kana_address":"ｼｭｳｶﾞｸｲﾝﾐﾔﾉﾏｴ","pref":"京都府","city":"京都市左京区","address":"修学院宮ノ前"},
{"zip_code":"6068061","kana_pref":"ｷｮｳﾄﾌ","kana_city":"ｷｮｳﾄｼｻｷｮｳｸ","kana_address":"ｼｭｳｶﾞｸｲﾝﾐﾔﾉﾜｷﾁｮｳ","pref":"京都府","city":"京都市左京区","address":"修学院宮ノ脇町"},
{"zip_code":"6068046","kana_pref":"ｷｮｳﾄﾌ","kana_city":"ｷｮｳﾄｼｻｷｮｳｸ","kana_address":"ｼｭｳｶﾞｸｲﾝﾑﾛﾏﾁ","pref":"京都府","city":"京都市左京区","address":"修学院室町"},
{"zip_code":"6068084","kana_pref":"ｷｮｳﾄﾌ","kana_city":"ｷｮｳﾄｼｻｷｮｳｸ","kana_address":"ｼｭｳｶﾞｸｲﾝﾔｸｼﾄﾞｳﾁｮｳ","pref":"京都府","city":"京都市左京区","address":"修学院薬師堂町"},
{"zip_code":"6068052","kana_pref":"ｷｮｳﾄﾌ","kana_city":"ｷｮｳﾄｼｻｷｮｳｸ","kana_address":"ｼｭｳｶﾞｸｲﾝﾔﾌﾞｿｴ","pref":"京都府","city":"京都市左京区","address":"修学院薮添"},
{"zip_code":"6068054","kana_pref":"ｷｮｳﾄﾌ","kana_city":"ｷｮｳﾄｼｻｷｮｳｸ","kana_address":"ｼｭｳｶﾞｸｲﾝﾔﾏｶﾐﾁｮｳ","pref":"京都府","city":"京都市左京区","address":"修学院山神町"},
{"zip_code":"6068033","kana_pref":"ｷｮｳﾄﾌ","kana_city":"ｷｮｳﾄｼｻｷｮｳｸ","kana_address":"ｼｭｳｶﾞｸｲﾝﾔﾏｿﾞｴﾁｮｳ","pref":"京都府","city":"京都市左京区","address":"修学院山添町"},
{"zip_code":"6068025","kana_pref":"ｷｮｳﾄﾌ","kana_city":"ｷｮｳﾄｼｻｷｮｳｸ","kana_address":"ｼｭｳｶﾞｸｲﾝﾔﾏﾉﾊﾅﾁｮｳ","pref":"京都府","city":"京都市左京区","address":"修学院山ノ鼻町"},
{"zip_code":"6068353","kana_pref":"ｷｮｳﾄﾌ","kana_city":"ｷｮｳﾄｼｻｷｮｳｸ","kana_address":"ｼｮｳｵｳｼﾞﾁｮｳ","pref":"京都府","city":"京都市左京区","address":"正往寺町"},
{"zip_code":"6068323","kana_pref":"ｷｮｳﾄﾌ","kana_city":"ｷｮｳﾄｼｻｷｮｳｸ","kana_address":"ｼｮｳｺﾞｲﾝｴﾝﾄﾐﾁｮｳ","pref":"京都府","city":"京都市左京区","address":"聖護院円頓美町"},
{"zip_code":"6068397","kana_pref":"ｷｮｳﾄﾌ","kana_city":"ｷｮｳﾄｼｻｷｮｳｸ","kana_address":"ｼｮｳｺﾞｲﾝｶﾜﾊﾗﾁｮｳ","pref":"京都府","city":"京都市左京区","address":"聖護院川原町"},
{"zip_code":"6068392","kana_pref":"ｷｮｳﾄﾌ","kana_city":"ｷｮｳﾄｼｻｷｮｳｸ","kana_address":"ｼｮｳｺﾞｲﾝｻﾝﾉｳﾁｮｳ","pref":"京都府","city":"京都市左京区","address":"聖護院山王町"},
{"zip_code":"6068324","kana_pref":"ｷｮｳﾄﾌ","kana_city":"ｷｮｳﾄｼｻｷｮｳｸ","kana_address":"ｼｮｳｺﾞｲﾝﾅｶﾏﾁ","pref":"京都府","city":"京都市左京区","address":"聖護院中町"},
{"zip_code":"6068391","kana_pref":"ｷｮｳﾄﾌ","kana_city":"ｷｮｳﾄｼｻｷｮｳｸ","kana_address":"ｼｮｳｺﾞｲﾝﾆｼﾏﾁ","pref":"京都府","city":"京都市左京区","address":"聖護院西町"},
{"zip_code":"6068394","kana_pref":"ｷｮｳﾄﾌ","kana_city":"ｷｮｳﾄｼｻｷｮｳｸ","kana_address":"ｼｮｳｺﾞｲﾝﾋｶﾞｼｼﾞﾘｮｳﾁｮｳ","pref":"京都府","city":"京都市左京区","address":"聖護院東寺領町"},
{"zip_code":"6068325","kana_pref":"ｷｮｳﾄﾌ","kana_city":"ｷｮｳﾄｼｻｷｮｳｸ","kana_address":"ｼｮｳｺﾞｲﾝﾋｶﾞｼﾏﾁ","pref":"京都府","city":"京都市左京区","address":"聖護院東町"},
{"zip_code":"6068357","kana_pref":"ｷｮｳﾄﾌ","kana_city":"ｷｮｳﾄｼｻｷｮｳｸ","kana_address":"ｼｮｳｺﾞｲﾝﾚﾝｹﾞｿﾞｳﾁｮｳ","pref":"京都府","city":"京都市左京区","address":"聖護院蓮華蔵町"},
{"zip_code":"6068406","kana_pref":"ｷｮｳﾄﾌ","kana_city":"ｷｮｳﾄｼｻｷｮｳｸ","kana_address":"ｼﾞｮｳﾄﾞｼﾞｲｼﾊﾞｼﾁｮｳ","pref":"京都府","city":"京都市左京区","address":"浄土寺石橋町"},
{"zip_code":"6068416","kana_pref":"ｷｮｳﾄﾌ","kana_city":"ｷｮｳﾄｼｻｷｮｳｸ","kana_address":"ｼﾞｮｳﾄﾞｼﾞｶﾐﾊﾞﾝﾊﾞﾁｮｳ","pref":"京都府","city":"京都市左京区","address":"浄土寺上馬場町"},
{"zip_code":"6068405","kana_pref":"ｷｮｳﾄﾌ","kana_city":"ｷｮｳﾄｼｻｷｮｳｸ","kana_address":"ｼﾞｮｳﾄﾞｼﾞｶﾐﾐﾅﾐﾀﾞﾁｮｳ","pref":"京都府","city":"京都市左京区","address":"浄土寺上南田町"},
{"zip_code":"6068401","kana_pref":"ｷｮｳﾄﾌ","kana_city":"ｷｮｳﾄｼｻｷｮｳｸ","kana_address":"ｼﾞｮｳﾄﾞｼﾞｺﾔﾏﾁｮｳ","pref":"京都府","city":"京都市左京区","address":"浄土寺小山町"},
{"zip_code":"6068413","kana_pref":"ｷｮｳﾄﾌ","kana_city":"ｷｮｳﾄｼｻｷｮｳｸ","kana_address":"ｼﾞｮｳﾄﾞｼﾞｼﾓﾊﾞﾝﾊﾞﾁｮｳ","pref":"京都府","city":"京都市左京区","address":"浄土寺下馬場町"},
{"zip_code":"6068404","kana_pref":"ｷｮｳﾄﾌ","kana_city":"ｷｮｳﾄｼｻｷｮｳｸ","kana_address":"ｼﾞｮｳﾄﾞｼﾞｼﾓﾐﾅﾐﾀﾞﾁｮｳ","pref":"京都府","city":"京都市左京区","address":"浄土寺下南田町"},
{"zip_code":"6068414","kana_pref":"ｷｮｳﾄﾌ","kana_city":"ｷｮｳﾄｼｻｷｮｳｸ","kana_address":"ｼﾞｮｳﾄﾞｼﾞｼﾝﾆｮﾁｮｳ","pref":"京都府","city":"京都市左京区","address":"浄土寺真如町"},
{"zip_code":"6068417","kana_pref":"ｷｮｳﾄﾌ","kana_city":"ｷｮｳﾄｼｻｷｮｳｸ","kana_address":"ｼﾞｮｳﾄﾞｼﾞﾆｼﾀﾞﾁｮｳ","pref":"京都府","city":"京都市左京区","address":"浄土寺西田町"},
{"zip_code":"6068412","kana_pref":"ｷｮｳﾄﾌ","kana_city":"ｷｮｳﾄｼｻｷｮｳｸ","kana_address":"ｼﾞｮｳﾄﾞｼﾞﾊﾞﾝﾊﾞﾁｮｳ","pref":"京都府","city":"京都市左京区","address":"浄土寺馬場町"},
{"zip_code":"6068411","kana_pref":"ｷｮｳﾄﾌ","kana_city":"ｷｮｳﾄｼｻｷｮｳｸ","kana_address":"ｼﾞｮｳﾄﾞｼﾞﾋｶﾞｼﾀﾞﾁｮｳ","pref":"京都府","city":"京都市左京区","address":"浄土寺東田町"},
{"zip_code":"6068403","kana_pref":"ｷｮｳﾄﾌ","kana_city":"ｷｮｳﾄｼｻｷｮｳｸ","kana_address":"ｼﾞｮｳﾄﾞｼﾞﾐﾅﾐﾀﾞﾁｮｳ","pref":"京都府","city":"京都市左京区","address":"浄土寺南田町"},
{"zip_code":"6068384","kana_pref":"ｷｮｳﾄﾌ","kana_city":"ｷｮｳﾄｼｻｷｮｳｸ","kana_address":"ｼﾝｲｹｽﾁｮｳ","pref":"京都府","city":"京都市左京区","address":"新生洲町"},
{"zip_code":"6068375","kana_pref":"ｷｮｳﾄﾌ","kana_city":"ｷｮｳﾄｼｻｷｮｳｸ","kana_address":"ｼﾝｸﾙﾏﾔﾁｮｳ","pref":"京都府","city":"京都市左京区","address":"新車屋町"},
{"zip_code":"6068355","kana_pref":"ｷｮｳﾄﾌ","kana_city":"ｷｮｳﾄｼｻｷｮｳｸ","kana_address":"ｼﾝﾋｶﾞｼﾄﾞｳｲﾝﾁｮｳ","pref":"京都府","city":"京都市左京区","address":"新東洞院町"},
{"zip_code":"6068383","kana_pref":"ｷｮｳﾄﾌ","kana_city":"ｷｮｳﾄｼｻｷｮｳｸ","kana_address":"ｼﾝﾎﾟﾝﾄﾁｮｳ","pref":"京都府","city":"京都市左京区","address":"新先斗町"},
{"zip_code":"6068386","kana_pref":"ｷｮｳﾄﾌ","kana_city":"ｷｮｳﾄｼｻｷｮｳｸ","kana_address":"ｼﾝﾏﾙﾀﾁｮｳ","pref":"京都府","city":"京都市左京区","address":"新丸太町"},
{"zip_code":"6068373","kana_pref":"ｷｮｳﾄﾌ","kana_city":"ｷｮｳﾄｼｻｷｮｳｸ","kana_address":"ｽｷﾞﾓﾄﾁｮｳ","pref":"京都府","city":"京都市左京区","address":"杉本町"},
{"zip_code":"6068382","kana_pref":"ｷｮｳﾄﾌ","kana_city":"ｷｮｳﾄｼｻｷｮｳｸ","kana_address":"ﾀﾞｲﾓﾝｼﾞﾁｮｳ","pref":"京都府","city":"京都市左京区","address":"大文字町"},
{"zip_code":"6068111","kana_pref":"ｷｮｳﾄﾌ","kana_city":"ｷｮｳﾄｼｻｷｮｳｸ","kana_address":"ﾀｶﾉｲｽﾞﾐﾁｮｳ","pref":"京都府","city":"京都市左京区","address":"高野泉町"},
{"zip_code":"6068105","kana_pref":"ｷｮｳﾄﾌ","kana_city":"ｷｮｳﾄｼｻｷｮｳｸ","kana_address":"ﾀｶﾉｶﾐﾀｹﾔﾁｮｳ","pref":"京都府","city":"京都市左京区","address":"高野上竹屋町"},
{"zip_code":"6068102","kana_pref":"ｷｮｳﾄﾌ","kana_city":"ｷｮｳﾄｼｻｷｮｳｸ","kana_address":"ﾀｶﾉｼﾐｽﾞﾁｮｳ","pref":"京都府","city":"京都市左京区","address":"高野清水町"},
{"zip_code":"6068104","kana_pref":"ｷｮｳﾄﾌ","kana_city":"ｷｮｳﾄｼｻｷｮｳｸ","kana_address":"ﾀｶﾉﾀｹﾔﾁｮｳ","pref":"京都府","city":"京都市左京区","address":"高野竹屋町"},
{"zip_code":"6068101","kana_pref":"ｷｮｳﾄﾌ","kana_city":"ｷｮｳﾄｼｻｷｮｳｸ","kana_address":"ﾀｶﾉﾀﾃﾞﾊﾗﾁｮｳ","pref":"京都府","city":"京都市左京区","address":"高野蓼原町"},
{"zip_code":"6068106","kana_pref":"ｷｮｳﾄﾌ","kana_city":"ｷｮｳﾄｼｻｷｮｳｸ","kana_address":"ﾀｶﾉﾀﾏｵｶﾁｮｳ","pref":"京都府","city":"京都市左京区","address":"高野玉岡町"},
{"zip_code":"6068103","kana_pref":"ｷｮｳﾄﾌ","kana_city":"ｷｮｳﾄｼｻｷｮｳｸ","kana_address":"ﾀｶﾉﾆｼﾋﾞﾗｷﾁｮｳ","pref":"京都府","city":"京都市左京区","address":"高野西開町"},
{"zip_code":"6068107","kana_pref":"ｷｮｳﾄﾌ","kana_city":"ｷｮｳﾄｼｻｷｮｳｸ","kana_address":"ﾀｶﾉﾋｶﾞｼﾋﾗｷﾁｮｳ","pref":"京都府","city":"京都市左京区","address":"高野東開町"},
{"zip_code":"6068226","kana_pref":"ｷｮｳﾄﾌ","kana_city":"ｷｮｳﾄｼｻｷｮｳｸ","kana_address":"ﾀﾅｶｱｽｶｲﾁｮｳ","pref":"京都府","city":"京都市左京区","address":"田中飛鳥井町"},
{"zip_code":"6068202","kana_pref":"ｷｮｳﾄﾌ","kana_city":"ｷｮｳﾄｼｻｷｮｳｸ","kana_address":"ﾀﾅｶｵｵｲﾁｮｳ","pref":"京都府","city":"京都市左京区","address":"田中大堰町"},
{"zip_code":"6068236","kana_pref":"ｷｮｳﾄﾌ","kana_city":"ｷｮｳﾄｼｻｷｮｳｸ","kana_address":"ﾀﾅｶｵｵｸﾎﾞﾁｮｳ","pref":"京都府","city":"京都市左京区","address":"田中大久保町"},
{"zip_code":"6068237","kana_pref":"ｷｮｳﾄﾌ","kana_city":"ｷｮｳﾄｼｻｷｮｳｸ","kana_address":"ﾀﾅｶｶﾐｵｵｸﾎﾞﾁｮｳ","pref":"京都府","city":"京都市左京区","address":"田中上大久保町"},
{"zip_code":"6068215","kana_pref":"ｷｮｳﾄﾌ","kana_city":"ｷｮｳﾄｼｻｷｮｳｸ","kana_address":"ﾀﾅｶｶﾐｹﾞﾝｷｮｳﾁｮｳ","pref":"京都府","city":"京都市左京区","address":"田中上玄京町"},
{"zip_code":"6068231","kana_pref":"ｷｮｳﾄﾌ","kana_city":"ｷｮｳﾄｼｻｷｮｳｸ","kana_address":"ﾀﾅｶｶﾐﾌﾙｶﾜﾁｮｳ","pref":"京都府","city":"京都市左京区","address":"田中上古川町"},
{"zip_code":"6068205","kana_pref":"ｷｮｳﾄﾌ","kana_city":"ｷｮｳﾄｼｻｷｮｳｸ","kana_address":"ﾀﾅｶｶﾐﾔﾅｷﾞﾁｮｳ","pref":"京都府","city":"京都市左京区","address":"田中上柳町"},
{"zip_code":"6068233","kana_pref":"ｷｮｳﾄﾌ","kana_city":"ｷｮｳﾄｼｻｷｮｳｸ","kana_address":"ﾀﾅｶｷﾀﾊﾙﾅﾁｮｳ","pref":"京都府","city":"京都市左京区","address":"田中北春菜町"},
{"zip_code":"6068201","kana_pref":"ｷｮｳﾄﾌ","kana_city":"ｷｮｳﾄｼｻｷｮｳｸ","kana_address":"ﾀﾅｶｹﾞﾝｷｮｳﾁｮｳ","pref":"京都府","city":"京都市左京区","address":"田中玄京町"},
{"zip_code":"6068212","kana_pref":"ｷｮｳﾄﾌ","kana_city":"ｷｮｳﾄｼｻｷｮｳｸ","kana_address":"ﾀﾅｶｻﾄﾉｳﾁﾁｮｳ","pref":"京都府","city":"京都市左京区","address":"田中里ノ内町"},
{"zip_code":"6068227","kana_pref":"ｷｮｳﾄﾌ","kana_city":"ｷｮｳﾄｼｻｷｮｳｸ","kana_address":"ﾀﾅｶｻﾄﾉﾏｴﾁｮｳ","pref":"京都府","city":"京都市左京区","address":"田中里ノ前町"},
{"zip_code":"6068204","kana_pref":"ｷｮｳﾄﾌ","kana_city":"ｷｮｳﾄｼｻｷｮｳｸ","kana_address":"ﾀﾅｶｼﾓﾔﾅｷﾞﾁｮｳ","pref":"京都府","city":"京都市左京区","address":"田中下柳町"},
{"zip_code":"6068203","kana_pref":"ｷｮｳﾄﾌ","kana_city":"ｷｮｳﾄｼｻｷｮｳｸ","kana_address":"ﾀﾅｶｾｷﾃﾞﾝﾁｮｳ","pref":"京都府","city":"京都市左京区","address":"田中関田町"},
{"zip_code":"6068242","kana_pref":"ｷｮｳﾄﾌ","kana_city":"ｷｮｳﾄｼｻｷｮｳｸ","kana_address":"ﾀﾅｶﾀｶﾊﾗﾁｮｳ","pref":"京都府","city":"京都市左京区","address":"田中高原町"},
{"zip_code":"6068217","kana_pref":"ｷｮｳﾄﾌ","kana_city":"ｷｮｳﾄｼｻｷｮｳｸ","kana_address":"ﾀﾅｶﾆｼｳﾗﾁｮｳ","pref":"京都府","city":"京都市左京区","address":"田中西浦町"},
{"zip_code":"6068211","kana_pref":"ｷｮｳﾄﾌ","kana_city":"ｷｮｳﾄｼｻｷｮｳｸ","kana_address":"ﾀﾅｶﾆｼｵｵｸﾎﾞﾁｮｳ","pref":"京都府","city":"京都市左京区","address":"田中西大久保町"},
{"zip_code":"6068241","kana_pref":"ｷｮｳﾄﾌ","kana_city":"ｷｮｳﾄｼｻｷｮｳｸ","kana_address":"ﾀﾅｶﾆｼﾀｶﾊﾗﾁｮｳ","pref":"京都府","city":"京都市左京区","address":"田中西高原町"},
{"zip_code":"6068235","kana_pref":"ｷｮｳﾄﾌ","kana_city":"ｷｮｳﾄｼｻｷｮｳｸ","kana_address":"ﾀﾅｶﾆｼﾊﾙﾅﾁｮｳ","pref":"京都府","city":"京都市左京区","address":"田中西春菜町"},
{"zip_code":"6068221","kana_pref":"ｷｮｳﾄﾌ","kana_city":"ｷｮｳﾄｼｻｷｮｳｸ","kana_address":"ﾀﾅｶﾆｼﾋﾉｸﾁﾁｮｳ","pref":"京都府","city":"京都市左京区","address":"田中西樋ノ口町"},
{"zip_code":"6068213","kana_pref":"ｷｮｳﾄﾌ","kana_city":"ｷｮｳﾄｼｻｷｮｳｸ","kana_address":"ﾀﾅｶﾉｶﾞﾐﾁｮｳ","pref":"京都府","city":"京都市左京区","address":"田中野神町"},
{"zip_code":"6068206","kana_pref":"ｷｮｳﾄﾌ","kana_city":"ｷｮｳﾄｼｻｷｮｳｸ","kana_address":"ﾀﾅｶﾊﾞﾊﾞﾁｮｳ","pref":"京都府","city":"京都市左京区","address":"田中馬場町"},
{"zip_code":"6068234","kana_pref":"ｷｮｳﾄﾌ","kana_city":"ｷｮｳﾄｼｻｷｮｳｸ","kana_address":"ﾀﾅｶﾊﾙﾅﾁｮｳ","pref":"京都府","city":"京都市左京区","address":"田中春菜町"},
{"zip_code":"6068243","kana_pref":"ｷｮｳﾄﾌ","kana_city":"ｷｮｳﾄｼｻｷｮｳｸ","kana_address":"ﾀﾅｶﾋｶﾞｼﾀｶﾊﾗﾁｮｳ","pref":"京都府","city":"京都市左京区","address":"田中東高原町"},
{"zip_code":"6068247","kana_pref":"ｷｮｳﾄﾌ","kana_city":"ｷｮｳﾄｼｻｷｮｳｸ","kana_address":"ﾀﾅｶﾋｶﾞｼﾊﾙﾅﾁｮｳ","pref":"京都府","city":"京都市左京区","address":"田中東春菜町"},
{"zip_code":"6068223","kana_pref":"ｷｮｳﾄﾌ","kana_city":"ｷｮｳﾄｼｻｷｮｳｸ","kana_address":"ﾀﾅｶﾋｶﾞｼﾋﾉｸﾁﾁｮｳ","pref":"京都府","city":"京都市左京区","address":"田中東樋ノ口町"},
{"zip_code":"6068222","kana_pref":"ｷｮｳﾄﾌ","kana_city":"ｷｮｳﾄｼｻｷｮｳｸ","kana_address":"ﾀﾅｶﾋﾉｸﾁﾁｮｳ","pref":"京都府","city":"京都市左京区","address":"田中樋ノ口町"},
{"zip_code":"6068232","kana_pref":"ｷｮｳﾄﾌ","kana_city":"ｷｮｳﾄｼｻｷｮｳｸ","kana_address":"ﾀﾅｶﾌﾙｶﾜﾁｮｳ","pref":"京都府","city":"京都市左京区","address":"田中古川町"},
{"zip_code":"6068214","kana_pref":"ｷｮｳﾄﾌ","kana_city":"ｷｮｳﾄｼｻｷｮｳｸ","kana_address":"ﾀﾅｶﾐﾅﾐｵｵｸﾎﾞﾁｮｳ","pref":"京都府","city":"京都市左京区","address":"田中南大久保町"},
{"zip_code":"6068216","kana_pref":"ｷｮｳﾄﾌ","kana_city":"ｷｮｳﾄｼｻｷｮｳｸ","kana_address":"ﾀﾅｶﾐﾅﾐﾆｼｳﾗﾁｮｳ","pref":"京都府","city":"京都市左京区","address":"田中南西浦町"},
{"zip_code":"6068225","kana_pref":"ｷｮｳﾄﾌ","kana_city":"ｷｮｳﾄｼｻｷｮｳｸ","kana_address":"ﾀﾅｶﾓﾝｾﾞﾝﾁｮｳ","pref":"京都府","city":"京都市左京区","address":"田中門前町"},
{"zip_code":"6068366","kana_pref":"ｷｮｳﾄﾌ","kana_city":"ｷｮｳﾄｼｻｷｮｳｸ","kana_address":"ﾁｮｳｼｮｳｼﾞﾓﾝｾﾞﾝﾁｮｳ","pref":"京都府","city":"京都市左京区","address":"超勝寺門前町"},
{"zip_code":"6068381","kana_pref":"ｷｮｳﾄﾌ","kana_city":"ｷｮｳﾄｼｻｷｮｳｸ","kana_address":"ﾅｶｶﾞﾜﾁｮｳ","pref":"京都府","city":"京都市左京区","address":"中川町"},
{"zip_code":"6068446","kana_pref":"ｷｮｳﾄﾌ","kana_city":"ｷｮｳﾄｼｻｷｮｳｸ","kana_address":"ﾅﾝｾﾞﾝｼﾞｷﾀﾉﾎﾞｳﾁｮｳ","pref":"京都府","city":"京都市左京区","address":"南禅寺北ノ坊町"},
{"zip_code":"6068437","kana_pref":"ｷｮｳﾄﾌ","kana_city":"ｷｮｳﾄｼｻｷｮｳｸ","kana_address":"ﾅﾝｾﾞﾝｼﾞｸｻｶﾞﾜﾁｮｳ","pref":"京都府","city":"京都市左京区","address":"南禅寺草川町"},
{"zip_code":"6068434","kana_pref":"ｷｮｳﾄﾌ","kana_city":"ｷｮｳﾄｼｻｷｮｳｸ","kana_address":"ﾅﾝｾﾞﾝｼﾞｼﾓｶﾜﾗﾁｮｳ","pref":"京都府","city":"京都市左京区","address":"南禅寺下河原町"},
{"zip_code":"6068435","kana_pref":"ｷｮｳﾄﾌ","kana_city":"ｷｮｳﾄｼｻｷｮｳｸ","kana_address":"ﾅﾝｾﾞﾝｼﾞﾌｸﾁﾁｮｳ","pref":"京都府","city":"京都市左京区","address":"南禅寺福地町"},
{"zip_code":"6068374","kana_pref":"ｷｮｳﾄﾌ","kana_city":"ｷｮｳﾄｼｻｷｮｳｸ","kana_address":"ﾅﾝﾊﾞﾁｮｳ","pref":"京都府","city":"京都市左京区","address":"難波町"},
{"zip_code":"6068444","kana_pref":"ｷｮｳﾄﾌ","kana_city":"ｷｮｳﾄｼｻｷｮｳｸ","kana_address":"ﾆｬｸｵｳｼﾞﾁｮｳ","pref":"京都府","city":"京都市左京区","address":"若王子町"},
{"zip_code":"6068393","kana_pref":"ｷｮｳﾄﾌ","kana_city":"ｷｮｳﾄｼｻｷｮｳｸ","kana_address":"ﾋｶﾞｼﾀｹﾔﾁｮｳ","pref":"京都府","city":"京都市左京区","address":"東竹屋町"},
{"zip_code":"6068395","kana_pref":"ｷｮｳﾄﾌ","kana_city":"ｷｮｳﾄｼｻｷｮｳｸ","kana_address":"ﾋｶﾞｼﾏﾙﾀﾁｮｳ","pref":"京都府","city":"京都市左京区","address":"東丸太町"},
{"zip_code":"6068345","kana_pref":"ｷｮｳﾄﾌ","kana_city":"ｷｮｳﾄｼｻｷｮｳｸ","kana_address":"ﾋｶﾞｼﾓﾝｾﾞﾝﾁｮｳ","pref":"京都府","city":"京都市左京区","address":"東門前町"},
{"zip_code":"6068361","kana_pref":"ｷｮｳﾄﾌ","kana_city":"ｷｮｳﾄｼｻｷｮｳｸ","kana_address":"ﾌｸﾓﾄﾁｮｳ","pref":"京都府","city":"京都市左京区","address":"福本町"},
{"zip_code":"6068362","kana_pref":"ｷｮｳﾄﾌ","kana_city":"ｷｮｳﾄｼｻｷｮｳｸ","kana_address":"ﾎｳｵｳｼﾞﾁｮｳ","pref":"京都府","city":"京都市左京区","address":"法皇寺町"},
{"zip_code":"6068387","kana_pref":"ｷｮｳﾄﾌ","kana_city":"ｷｮｳﾄｼｻｷｮｳｸ","kana_address":"ﾎｳﾘﾝｼﾞﾓﾝｾﾞﾝﾁｮｳ","pref":"京都府","city":"京都市左京区","address":"法林寺門前町"},
{"zip_code":"6068385","kana_pref":"ｷｮｳﾄﾌ","kana_city":"ｷｮｳﾄｼｻｷｮｳｸ","kana_address":"ﾏｺﾞﾊｼﾁｮｳ","pref":"京都府","city":"京都市左京区","address":"孫橋町"},
{"zip_code":"6060911","kana_pref":"ｷｮｳﾄﾌ","kana_city":"ｷｮｳﾄｼｻｷｮｳｸ","kana_address":"ﾏﾂｶﾞｻｷｲｽﾞﾐｶﾞﾜﾁｮｳ","pref":"京都府","city":"京都市左京区","address":"松ケ崎泉川町"},
{"zip_code":"6060954","kana_pref":"ｷｮｳﾄﾌ","kana_city":"ｷｮｳﾄｼｻｷｮｳｸ","kana_address":"ﾏﾂｶﾞｻｷｲｯﾁｮｳﾀﾞﾁｮｳ","pref":"京都府","city":"京都市左京区","address":"松ケ崎壱町田町"},
{"zip_code":"6060931","kana_pref":"ｷｮｳﾄﾌ","kana_city":"ｷｮｳﾄｼｻｷｮｳｸ","kana_address":"ﾏﾂｶﾞｻｷｲﾃﾞｶﾞｶｲﾄﾞｳﾁｮｳ","pref":"京都府","city":"京都市左京区","address":"松ケ崎井出ケ海道町"},
{"zip_code":"6060947","kana_pref":"ｷｮｳﾄﾌ","kana_city":"ｷｮｳﾄｼｻｷｮｳｸ","kana_address":"ﾏﾂｶﾞｻｷｲﾃﾞｶﾞﾊﾅﾁｮｳ","pref":"京都府","city":"京都市左京区","address":"松ケ崎井出ケ鼻町"},
{"zip_code":"6060914","kana_pref":"ｷｮｳﾄﾌ","kana_city":"ｷｮｳﾄｼｻｷｮｳｸ","kana_address":"ﾏﾂｶﾞｻｷｲﾏｶｲﾄﾞｳﾁｮｳ","pref":"京都府","city":"京都市左京区","address":"松ケ崎今海道町"},
{"zip_code":"6060936","kana_pref":"ｷｮｳﾄﾌ","kana_city":"ｷｮｳﾄｼｻｷｮｳｸ","kana_address":"ﾏﾂｶﾞｻｷｴﾉﾐｶﾞｼﾊﾞ","pref":"京都府","city":"京都市左京区","address":"松ケ崎榎実ケ芝"},
{"zip_code":"6060953","kana_pref":"ｷｮｳﾄﾌ","kana_city":"ｷｮｳﾄｼｻｷｮｳｸ","kana_address":"ﾏﾂｶﾞｻｷｶｲｼﾞﾘﾁｮｳ","pref":"京都府","city":"京都市左京区","address":"松ケ崎海尻町"},
{"zip_code":"6060941","kana_pref":"ｷｮｳﾄﾌ","kana_city":"ｷｮｳﾄｼｻｷｮｳｸ","kana_address":"ﾏﾂｶﾞｻｷｶﾜﾗﾀﾞﾁｮｳ","pref":"京都府","city":"京都市左京区","address":"松ケ崎河原田町"},
{"zip_code":"6060937","kana_pref":"ｷｮｳﾄﾌ","kana_city":"ｷｮｳﾄｼｻｷｮｳｸ","kana_address":"ﾏﾂｶﾞｻｷｷﾀｳﾗﾁｮｳ","pref":"京都府","city":"京都市左京区","address":"松ケ崎北裏町"},
{"zip_code":"6060934","kana_pref":"ｷｮｳﾄﾌ","kana_city":"ｷｮｳﾄｼｻｷｮｳｸ","kana_address":"ﾏﾂｶﾞｻｷｷﾂﾈｻｶ","pref":"京都府","city":"京都市左京区","address":"松ケ崎狐坂"},
{"zip_code":"6060938","kana_pref":"ｷｮｳﾄﾌ","kana_city":"ｷｮｳﾄｼｻｷｮｳｸ","kana_address":"ﾏﾂｶﾞｻｷｷﾄｳﾛｳﾁｮｳ","pref":"京都府","city":"京都市左京区","address":"松ケ崎木燈籠町"},
{"zip_code":"6060952","kana_pref":"ｷｮｳﾄﾌ","kana_city":"ｷｮｳﾄｼｻｷｮｳｸ","kana_address":"ﾏﾂｶﾞｻｷｷﾉﾓﾄﾁｮｳ","pref":"京都府","city":"京都市左京区","address":"松ケ崎木ノ本町"},
{"zip_code":"6060961","kana_pref":"ｷｮｳﾄﾌ","kana_city":"ｷｮｳﾄｼｻｷｮｳｸ","kana_address":"ﾏﾂｶﾞｻｷｸﾄﾞﾁｮｳ","pref":"京都府","city":"京都市左京区","address":"松ケ崎久土町"},
{"zip_code":"6060955","kana_pref":"ｷｮｳﾄﾌ","kana_city":"ｷｮｳﾄｼｻｷｮｳｸ","kana_address":"ﾏﾂｶﾞｻｷｸﾓｼﾞﾁｮｳ","pref":"京都府","city":"京都市左京区","address":"松ケ崎雲路町"},
{"zip_code":"6060956","kana_pref":"ｷｮｳﾄﾌ","kana_city":"ｷｮｳﾄｼｻｷｮｳｸ","kana_address":"ﾏﾂｶﾞｻｷｸﾗﾏﾀﾞﾁｮｳ","pref":"京都府","city":"京都市左京区","address":"松ケ崎鞍馬田町"},
{"zip_code":"6060962","kana_pref":"ｷｮｳﾄﾌ","kana_city":"ｷｮｳﾄｼｻｷｮｳｸ","kana_address":"ﾏﾂｶﾞｻｷｺﾞｼｮｶｲﾄﾞｳﾁｮｳ","pref":"京都府","city":"京都市左京区","address":"松ケ崎御所海道町"},
{"zip_code":"6060944","kana_pref":"ｷｮｳﾄﾌ","kana_city":"ｷｮｳﾄｼｻｷｮｳｸ","kana_address":"ﾏﾂｶﾞｻｷｺﾞｼｮﾉｳﾁﾁｮｳ","pref":"京都府","city":"京都市左京区","address":"松ケ崎御所ノ内町"},
{"zip_code":"6060967","kana_pref":"ｷｮｳﾄﾌ","kana_city":"ｷｮｳﾄｼｻｷｮｳｸ","kana_address":"ﾏﾂｶﾞｻｷｺﾀｹﾔﾌﾞﾁｮｳ","pref":"京都府","city":"京都市左京区","address":"松ケ崎小竹薮町"},
{"zip_code":"6060957","kana_pref":"ｷｮｳﾄﾌ","kana_city":"ｷｮｳﾄｼｻｷｮｳｸ","kana_address":"ﾏﾂｶﾞｻｷｺﾜｷﾁｮｳ","pref":"京都府","city":"京都市左京区","address":"松ケ崎小脇町"},
{"zip_code":"6060902","kana_pref":"ｷｮｳﾄﾌ","kana_city":"ｷｮｳﾄｼｻｷｮｳｸ","kana_address":"ﾏﾂｶﾞｻｷｻｸﾗｷﾞﾁｮｳ","pref":"京都府","city":"京都市左京区","address":"松ケ崎桜木町"},
{"zip_code":"6060916","kana_pref":"ｷｮｳﾄﾌ","kana_city":"ｷｮｳﾄｼｻｷｮｳｸ","kana_address":"ﾏﾂｶﾞｻｷｻﾝﾀﾞﾝｵｻﾁｮｳ","pref":"京都府","city":"京都市左京区","address":"松ケ崎三反長町"},
{"zip_code":"6060913","kana_pref":"ｷｮｳﾄﾌ","kana_city":"ｷｮｳﾄｼｻｷｮｳｸ","kana_address":"ﾏﾂｶﾞｻｷｼﾊﾞﾓﾄﾁｮｳ","pref":"京都府","city":"京都市左京区","address":"松ケ崎芝本町"},
{"zip_code":"6060964","kana_pref":"ｷｮｳﾄﾌ","kana_city":"ｷｮｳﾄｼｻｷｮｳｸ","kana_address":"ﾏﾂｶﾞｻｷｼｭｳﾘｼｷﾁｮｳ","pref":"京都府","city":"京都市左京区","address":"松ケ崎修理式町"},
{"zip_code":"6060966","kana_pref":"ｷｮｳﾄﾌ","kana_city":"ｷｮｳﾄｼｻｷｮｳｸ","kana_address":"ﾏﾂｶﾞｻｷｼｮｳﾃﾞﾝﾁｮｳ","pref":"京都府","city":"京都市左京区","address":"松ケ崎正田町"},
{"zip_code":"6060905","kana_pref":"ｷｮｳﾄﾌ","kana_city":"ｷｮｳﾄｼｻｷｮｳｸ","kana_address":"ﾏﾂｶﾞｻｷｽｷﾞｶﾞｶｲﾄﾞｳﾁｮｳ","pref":"京都府","city":"京都市左京区","address":"松ケ崎杉ケ海道町"},
{"zip_code":"6060923","kana_pref":"ｷｮｳﾄﾌ","kana_city":"ｷｮｳﾄｼｻｷｮｳｸ","kana_address":"ﾏﾂｶﾞｻｷｿｳｻｸﾁｮｳ","pref":"京都府","city":"京都市左京区","address":"松ケ崎総作町"},
{"zip_code":"6060935","kana_pref":"ｷｮｳﾄﾌ","kana_city":"ｷｮｳﾄｼｻｷｮｳｸ","kana_address":"ﾏﾂｶﾞｻｷﾀｶﾔﾏ","pref":"京都府","city":"京都市左京区","address":"松ケ崎高山"},
{"zip_code":"6060963","kana_pref":"ｷｮｳﾄﾌ","kana_city":"ｷｮｳﾄｼｻｷｮｳｸ","kana_address":"ﾏﾂｶﾞｻｷﾀﾀﾞｽﾃﾞﾝﾁｮｳ","pref":"京都府","city":"京都市左京区","address":"松ケ崎糺田町"},
{"zip_code":"6060917","kana_pref":"ｷｮｳﾄﾌ","kana_city":"ｷｮｳﾄｼｻｷｮｳｸ","kana_address":"ﾏﾂｶﾞｻｷﾄﾞｳﾉｳｴﾁｮｳ","pref":"京都府","city":"京都市左京区","address":"松ケ崎堂ノ上町"},
{"zip_code":"6060906","kana_pref":"ｷｮｳﾄﾌ","kana_city":"ｷｮｳﾄｼｻｷｮｳｸ","kana_address":"ﾏﾂｶﾞｻｷﾅｶｶｲﾄﾞｳﾁｮｳ","pref":"京都府","city":"京都市左京区","address":"松ケ崎中海道町"},
{"zip_code":"6060926","kana_pref":"ｷｮｳﾄﾌ","kana_city":"ｷｮｳﾄｼｻｷｮｳｸ","kana_address":"ﾏﾂｶﾞｻｷﾅｶﾏﾁ","pref":"京都府","city":"京都市左京区","address":"松ケ崎中町"},
{"zip_code":"6060932","kana_pref":"ｷｮｳﾄﾌ","kana_city":"ｷｮｳﾄｼｻｷｮｳｸ","kana_address":"ﾏﾂｶﾞｻｷﾆｼｲｹﾉｳﾁﾁｮｳ","pref":"京都府","city":"京都市左京区","address":"松ケ崎西池ノ内町"},
{"zip_code":"6060903","kana_pref":"ｷｮｳﾄﾌ","kana_city":"ｷｮｳﾄｼｻｷｮｳｸ","kana_address":"ﾏﾂｶﾞｻｷﾆｼｻｸﾗｷﾞﾁｮｳ","pref":"京都府","city":"京都市左京区","address":"松ケ崎西桜木町"},
{"zip_code":"6060927","kana_pref":"ｷｮｳﾄﾌ","kana_city":"ｷｮｳﾄｼｻｷｮｳｸ","kana_address":"ﾏﾂｶﾞｻｷﾆｼﾏﾁ","pref":"京都府","city":"京都市左京区","address":"松ケ崎西町"},
{"zip_code":"6060933","kana_pref":"ｷｮｳﾄﾌ","kana_city":"ｷｮｳﾄｼｻｷｮｳｸ","kana_address":"ﾏﾂｶﾞｻｷﾆｼﾔﾏ","pref":"京都府","city":"京都市左京区","address":"松ケ崎西山"},
{"zip_code":"6060951","kana_pref":"ｷｮｳﾄﾌ","kana_city":"ｷｮｳﾄｼｻｷｮｳｸ","kana_address":"ﾏﾂｶﾞｻｷﾊｼｶﾐﾁｮｳ","pref":"京都府","city":"京都市左京区","address":"松ケ崎橋上町"},
{"zip_code":"6060925","kana_pref":"ｷｮｳﾄﾌ","kana_city":"ｷｮｳﾄｼｻｷｮｳｸ","kana_address":"ﾏﾂｶﾞｻｷﾊﾔｼﾔﾏ","pref":"京都府","city":"京都市左京区","address":"松ケ崎林山"},
{"zip_code":"6060924","kana_pref":"ｷｮｳﾄﾌ","kana_city":"ｷｮｳﾄｼｻｷｮｳｸ","kana_address":"ﾏﾂｶﾞｻｷﾋｶﾞｼｲｹﾉｳﾁﾁｮｳ","pref":"京都府","city":"京都市左京区","address":"松ケ崎東池ノ内町"},
{"zip_code":"6060901","kana_pref":"ｷｮｳﾄﾌ","kana_city":"ｷｮｳﾄｼｻｷｮｳｸ","kana_address":"ﾏﾂｶﾞｻｷﾋｶﾞｼｻｸﾗｷﾞﾁｮｳ","pref":"京都府","city":"京都市左京区","address":"松ケ崎東桜木町"},
{"zip_code":"6060943","kana_pref":"ｷｮｳﾄﾌ","kana_city":"ｷｮｳﾄｼｻｷｮｳｸ","kana_address":"ﾏﾂｶﾞｻｷﾋｶﾞｼﾏﾁ","pref":"京都府","city":"京都市左京区","address":"松ケ崎東町"},
{"zip_code":"6060946","kana_pref":"ｷｮｳﾄﾌ","kana_city":"ｷｮｳﾄｼｻｷｮｳｸ","kana_address":"ﾏﾂｶﾞｻｷﾋｶﾞｼﾔﾏ","pref":"京都府","city":"京都市左京区","address":"松ケ崎東山"},
{"zip_code":"6060942","kana_pref":"ｷｮｳﾄﾌ","kana_city":"ｷｮｳﾄｼｻｷｮｳｸ","kana_address":"ﾏﾂｶﾞｻｷﾋﾉｴﾁｮｳ","pref":"京都府","city":"京都市左京区","address":"松ケ崎樋ノ上町"},
{"zip_code":"6060921","kana_pref":"ｷｮｳﾄﾌ","kana_city":"ｷｮｳﾄｼｻｷｮｳｸ","kana_address":"ﾏﾂｶﾞｻｷﾋﾗﾀﾁｮｳ","pref":"京都府","city":"京都市左京区","address":"松ケ崎平田町"},
{"zip_code":"6060945","kana_pref":"ｷｮｳﾄﾌ","kana_city":"ｷｮｳﾄｼｻｷｮｳｸ","kana_address":"ﾏﾂｶﾞｻｷﾎﾘﾏﾁ","pref":"京都府","city":"京都市左京区","address":"松ケ崎堀町"},
{"zip_code":"6060922","kana_pref":"ｷｮｳﾄﾌ","kana_city":"ｷｮｳﾄｼｻｷｮｳｸ","kana_address":"ﾏﾂｶﾞｻｷﾐﾅﾐｲｹﾉｳﾁﾁｮｳ","pref":"京都府","city":"京都市左京区","address":"松ケ崎南池ノ内町"},
{"zip_code":"6060907","kana_pref":"ｷｮｳﾄﾌ","kana_city":"ｷｮｳﾄｼｻｷｮｳｸ","kana_address":"ﾏﾂｶﾞｻｷﾑﾗｶﾞｳﾁﾁｮｳ","pref":"京都府","city":"京都市左京区","address":"松ケ崎村ケ内町"},
{"zip_code":"6060904","kana_pref":"ｷｮｳﾄﾌ","kana_city":"ｷｮｳﾄｼｻｷｮｳｸ","kana_address":"ﾏﾂｶﾞｻｷﾔﾅｲﾀﾞﾁｮｳ","pref":"京都府","city":"京都市左京区","address":"松ケ崎柳井田町"},
{"zip_code":"6060965","kana_pref":"ｷｮｳﾄﾌ","kana_city":"ｷｮｳﾄｼｻｷｮｳｸ","kana_address":"ﾏﾂｶﾞｻｷﾖｺﾅﾜﾃﾁｮｳ","pref":"京都府","city":"京都市左京区","address":"松ケ崎横縄手町"},
{"zip_code":"6060912","kana_pref":"ｷｮｳﾄﾌ","kana_city":"ｷｮｳﾄｼｻｷｮｳｸ","kana_address":"ﾏﾂｶﾞｻｷﾖﾋﾞｶｴﾘﾁｮｳ","pref":"京都府","city":"京都市左京区","address":"松ケ崎呼返町"},
{"zip_code":"6060915","kana_pref":"ｷｮｳﾄﾌ","kana_city":"ｷｮｳﾄｼｻｷｮｳｸ","kana_address":"ﾏﾂｶﾞｻｷﾛｸﾉﾂﾎﾞﾁｮｳ","pref":"京都府","city":"京都市左京区","address":"松ケ崎六ノ坪町"},
{"zip_code":"6068346","kana_pref":"ｷｮｳﾄﾌ","kana_city":"ｷｮｳﾄｼｻｷｮｳｸ","kana_address":"ﾐﾅﾐﾓﾝｾﾞﾝﾁｮｳ","pref":"京都府","city":"京都市左京区","address":"南門前町"},
{"zip_code":"6060068","kana_pref":"ｷｮｳﾄﾌ","kana_city":"ｷｮｳﾄｼｻｷｮｳｸ","kana_address":"ﾔｾﾉｾﾁｮｳ(277ﾉ2","pref":"京都府","city":"京都市左京区","address":"八瀬野瀬町（２７７の２"},
{"zip_code":"6060068","kana_pref":"ｷｮｳﾄﾌ","kana_city":"ｷｮｳﾄｼｻｷｮｳｸ","kana_address":"279ﾉ1","pref":"京都府","city":"京都市左京区","address":"２７９の１"},
{"zip_code":"6060068","kana_pref":"ｷｮｳﾄﾌ","kana_city":"ｷｮｳﾄｼｻｷｮｳｸ","kana_address":"3-5","pref":"京都府","city":"京都市左京区","address":"３〜５"},
{"zip_code":"6060068","kana_pref":"ｷｮｳﾄﾌ","kana_city":"ｷｮｳﾄｼｻｷｮｳｸ","kana_address":"281ﾉ2-9","pref":"京都府","city":"京都市左京区","address":"２８１の２〜９"},
{"zip_code":"6060068","kana_pref":"ｷｮｳﾄﾌ","kana_city":"ｷｮｳﾄｼｻｷｮｳｸ","kana_address":"11","pref":"京都府","city":"京都市左京区","address":"１１"},
{"zip_code":"6060068","kana_pref":"ｷｮｳﾄﾌ","kana_city":"ｷｮｳﾄｼｻｷｮｳｸ","kana_address":"-18ﾊﾞﾝﾁ","pref":"京都府","city":"京都市左京区","address":"〜１８番地"},
{"zip_code":"6060068","kana_pref":"ｷｮｳﾄﾌ","kana_city":"ｷｮｳﾄｼｻｷｮｳｸ","kana_address":"20ﾊﾞﾝﾁ","pref":"京都府","city":"京都市左京区","address":"２０番地"},
{"zip_code":"6060068","kana_pref":"ｷｮｳﾄﾌ","kana_city":"ｷｮｳﾄｼｻｷｮｳｸ","kana_address":"22ﾊﾞﾝﾁ","pref":"京都府","city":"京都市左京区","address":"２２番地"},
{"zip_code":"6060068","kana_pref":"ｷｮｳﾄﾌ","kana_city":"ｷｮｳﾄｼｻｷｮｳｸ","kana_address":"24-26ﾊﾞﾝﾁ","pref":"京都府","city":"京都市左京区","address":"２４〜２６番地"},
{"zip_code":"6060068","kana_pref":"ｷｮｳﾄﾌ","kana_city":"ｷｮｳﾄｼｻｷｮｳｸ","kana_address":"32ﾊﾞﾝﾁ","pref":"京都府","city":"京都市左京区","address":"３２番地"},
{"zip_code":"6060068","kana_pref":"ｷｮｳﾄﾌ","kana_city":"ｷｮｳﾄｼｻｷｮｳｸ","kana_address":"287ﾊﾞﾝﾁ","pref":"京都府","city":"京都市左京区","address":"２８７番地"},
{"zip_code":"6060068","kana_pref":"ｷｮｳﾄﾌ","kana_city":"ｷｮｳﾄｼｻｷｮｳｸ","kana_address":"300ﾊﾞﾝﾁ)","pref":"京都府","city":"京都市左京区","address":"３００番地）"},
{"zip_code":"6068007","kana_pref":"ｷｮｳﾄﾌ","kana_city":"ｷｮｳﾄｼｻｷｮｳｸ","kana_address":"ﾔﾏﾊﾞﾅｲｯﾁｮｳﾀﾞﾁｮｳ","pref":"京都府","city":"京都市左京区","address":"山端壱町田町"},
{"zip_code":"6068013","kana_pref":"ｷｮｳﾄﾌ","kana_city":"ｷｮｳﾄｼｻｷｮｳｸ","kana_address":"ﾔﾏﾊﾞﾅｵｵｷﾐﾁｮｳ","pref":"京都府","city":"京都市左京区","address":"山端大君町"},
{"zip_code":"6068014","kana_pref":"ｷｮｳﾄﾌ","kana_city":"ｷｮｳﾄｼｻｷｮｳｸ","kana_address":"ﾔﾏﾊﾞﾅｵｵﾂｶﾁｮｳ","pref":"京都府","city":"京都市左京区","address":"山端大塚町"},
{"zip_code":"6068005","kana_pref":"ｷｮｳﾄﾌ","kana_city":"ｷｮｳﾄｼｻｷｮｳｸ","kana_address":"ﾔﾏﾊﾞﾅｶﾜｷﾞｼﾁｮｳ","pref":"京都府","city":"京都市左京区","address":"山端川岸町"},
{"zip_code":"6068004","kana_pref":"ｷｮｳﾄﾌ","kana_city":"ｷｮｳﾄｼｻｷｮｳｸ","kana_address":"ﾔﾏﾊﾞﾅｶﾜﾊﾞﾀﾁｮｳ","pref":"京都府","city":"京都市左京区","address":"山端川端町"},
{"zip_code":"6068003","kana_pref":"ｷｮｳﾄﾌ","kana_city":"ｷｮｳﾄｼｻｷｮｳｸ","kana_address":"ﾔﾏﾊﾞﾅｶﾜﾊﾗﾁｮｳ","pref":"京都府","city":"京都市左京区","address":"山端川原町"},
{"zip_code":"6068002","kana_pref":"ｷｮｳﾄﾌ","kana_city":"ｷｮｳﾄｼｻｷｮｳｸ","kana_address":"ﾔﾏﾊﾞﾅﾀﾞｲｼﾞｮｳﾃﾞﾝﾁｮｳ","pref":"京都府","city":"京都市左京区","address":"山端大城田町"},
{"zip_code":"6068012","kana_pref":"ｷｮｳﾄﾌ","kana_city":"ｷｮｳﾄｼｻｷｮｳｸ","kana_address":"ﾔﾏﾊﾞﾅﾀｷｶﾞﾊﾅﾁｮｳ","pref":"京都府","city":"京都市左京区","address":"山端滝ケ鼻町"},
{"zip_code":"6068006","kana_pref":"ｷｮｳﾄﾌ","kana_city":"ｷｮｳﾄｼｻｷｮｳｸ","kana_address":"ﾔﾏﾊﾞﾅﾊｼﾉﾓﾄﾁｮｳ","pref":"京都府","city":"京都市左京区","address":"山端橋ノ本町"},
{"zip_code":"6068011","kana_pref":"ｷｮｳﾄﾌ","kana_city":"ｷｮｳﾄｼｻｷｮｳｸ","kana_address":"ﾔﾏﾊﾞﾅﾓﾘﾓﾄﾁｮｳ","pref":"京都府","city":"京都市左京区","address":"山端森本町"},
{"zip_code":"6068001","kana_pref":"ｷｮｳﾄﾌ","kana_city":"ｷｮｳﾄｼｻｷｮｳｸ","kana_address":"ﾔﾏﾊﾞﾅﾔﾅｶﾞﾂﾎﾞﾁｮｳ","pref":"京都府","city":"京都市左京区","address":"山端柳ケ坪町"},
{"zip_code":"6068301","kana_pref":"ｷｮｳﾄﾌ","kana_city":"ｷｮｳﾄｼｻｷｮｳｸ","kana_address":"ﾖｼﾀﾞｲｽﾞﾐﾃﾞﾝﾁｮｳ","pref":"京都府","city":"京都市左京区","address":"吉田泉殿町"},
{"zip_code":"6068302","kana_pref":"ｷｮｳﾄﾌ","kana_city":"ｷｮｳﾄｼｻｷｮｳｸ","kana_address":"ﾖｼﾀﾞｳｼﾉﾐﾔﾁｮｳ","pref":"京都府","city":"京都市左京区","address":"吉田牛ノ宮町"},
{"zip_code":"6068311","kana_pref":"ｷｮｳﾄﾌ","kana_city":"ｷｮｳﾄｼｻｷｮｳｸ","kana_address":"ﾖｼﾀﾞｶｸﾞﾗｵｶﾁｮｳ","pref":"京都府","city":"京都市左京区","address":"吉田神楽岡町"},
{"zip_code":"6068307","kana_pref":"ｷｮｳﾄﾌ","kana_city":"ｷｮｳﾄｼｻｷｮｳｸ","kana_address":"ﾖｼﾀﾞｶﾐｱﾀﾞﾁﾁｮｳ","pref":"京都府","city":"京都市左京区","address":"吉田上阿達町"},
{"zip_code":"6068312","kana_pref":"ｷｮｳﾄﾌ","kana_city":"ｷｮｳﾄｼｻｷｮｳｸ","kana_address":"ﾖｼﾀﾞｶﾐｵｵｼﾞﾁｮｳ","pref":"京都府","city":"京都市左京区","address":"吉田上大路町"},
{"zip_code":"6068305","kana_pref":"ｷｮｳﾄﾌ","kana_city":"ｷｮｳﾄｼｻｷｮｳｸ","kana_address":"ﾖｼﾀﾞｶﾜﾗﾁｮｳ","pref":"京都府","city":"京都市左京区","address":"吉田河原町"},
{"zip_code":"6068315","kana_pref":"ｷｮｳﾄﾌ","kana_city":"ｷｮｳﾄｼｻｷｮｳｸ","kana_address":"ﾖｼﾀﾞｺﾉｴﾁｮｳ","pref":"京都府","city":"京都市左京区","address":"吉田近衛町"},
{"zip_code":"6068304","kana_pref":"ｷｮｳﾄﾌ","kana_city":"ｷｮｳﾄｼｻｷｮｳｸ","kana_address":"ﾖｼﾀﾞｼﾓｱﾀﾞﾁﾁｮｳ","pref":"京都府","city":"京都市左京区","address":"吉田下阿達町"},
{"zip_code":"6068314","kana_pref":"ｷｮｳﾄﾌ","kana_city":"ｷｮｳﾄｼｻｷｮｳｸ","kana_address":"ﾖｼﾀﾞｼﾓｵｵｼﾞﾁｮｳ","pref":"京都府","city":"京都市左京区","address":"吉田下大路町"},
{"zip_code":"6068303","kana_pref":"ｷｮｳﾄﾌ","kana_city":"ｷｮｳﾄｼｻｷｮｳｸ","kana_address":"ﾖｼﾀﾞﾀﾁﾊﾞﾅﾁｮｳ","pref":"京都府","city":"京都市左京区","address":"吉田橘町"},
{"zip_code":"6068306","kana_pref":"ｷｮｳﾄﾌ","kana_city":"ｷｮｳﾄｼｻｷｮｳｸ","kana_address":"ﾖｼﾀﾞﾅｶｱﾀﾞﾁﾁｮｳ","pref":"京都府","city":"京都市左京区","address":"吉田中阿達町"},
{"zip_code":"6068313","kana_pref":"ｷｮｳﾄﾌ","kana_city":"ｷｮｳﾄｼｻｷｮｳｸ","kana_address":"ﾖｼﾀﾞﾅｶｵｵｼﾞﾁｮｳ","pref":"京都府","city":"京都市左京区","address":"吉田中大路町"},
{"zip_code":"6068316","kana_pref":"ｷｮｳﾄﾌ","kana_city":"ｷｮｳﾄｼｻｷｮｳｸ","kana_address":"ﾖｼﾀﾞﾆﾎﾝﾏﾂﾁｮｳ","pref":"京都府","city":"京都市左京区","address":"吉田二本松町"},
{"zip_code":"6068317","kana_pref":"ｷｮｳﾄﾌ","kana_city":"ｷｮｳﾄｼｻｷｮｳｸ","kana_address":"ﾖｼﾀﾞﾎﾝﾏﾁ","pref":"京都府","city":"京都市左京区","address":"吉田本町"},
{"zip_code":"6068372","kana_pref":"ｷｮｳﾄﾌ","kana_city":"ｷｮｳﾄｼｻｷｮｳｸ","kana_address":"ﾖｼﾅｶﾞﾁｮｳ","pref":"京都府","city":"京都市左京区","address":"吉永町"},
{"zip_code":"6068363","kana_pref":"ｷｮｳﾄﾌ","kana_city":"ｷｮｳﾄｼｻｷｮｳｸ","kana_address":"ﾜｺｸﾁｮｳ","pref":"京都府","city":"京都市左京区","address":"和国町"}]}