{"zip_code":[
{"zip_code":"6070000","kana_pref":"ｷｮｳﾄﾌ","kana_city":"ｷｮｳﾄｼﾔﾏｼﾅｸ","kana_address":"","pref":"京都府","city":"京都市山科区","address":""},
{"zip_code":"6078003","kana_pref":"ｷｮｳﾄﾌ","kana_city":"ｷｮｳﾄｼﾔﾏｼﾅｸ","kana_address":"ｱﾝｼｭｲﾅﾘﾔﾏﾁｮｳ","pref":"京都府","city":"京都市山科区","address":"安朱稲荷山町"},
{"zip_code":"6078018","kana_pref":"ｷｮｳﾄﾌ","kana_city":"ｷｮｳﾄｼﾔﾏｼﾅｸ","kana_address":"ｱﾝｼｭｵｸﾉﾀﾞ","pref":"京都府","city":"京都市山科区","address":"安朱奥ノ田"},
{"zip_code":"6078017","kana_pref":"ｷｮｳﾄﾌ","kana_city":"ｷｮｳﾄｼﾔﾏｼﾅｸ","kana_address":"ｱﾝｼｭｶﾜﾑｶｲﾁｮｳ","pref":"京都府","city":"京都市山科区","address":"安朱川向町"},
{"zip_code":"6078009","kana_pref":"ｷｮｳﾄﾌ","kana_city":"ｷｮｳﾄｼﾔﾏｼﾅｸ","kana_address":"ｱﾝｼｭｷﾀﾔｼｷﾁｮｳ","pref":"京都府","city":"京都市山科区","address":"安朱北屋敷町"},
{"zip_code":"6078012","kana_pref":"ｷｮｳﾄﾌ","kana_city":"ｷｮｳﾄｼﾔﾏｼﾅｸ","kana_address":"ｱﾝｼｭｻｼﾞｷﾁｮｳ","pref":"京都府","city":"京都市山科区","address":"安朱桟敷町"},
{"zip_code":"6078005","kana_pref":"ｷｮｳﾄﾌ","kana_city":"ｷｮｳﾄｼﾔﾏｼﾅｸ","kana_address":"ｱﾝｼｭﾄﾞｳﾉｳｼﾛﾁｮｳ","pref":"京都府","city":"京都市山科区","address":"安朱堂ノ後町"},
{"zip_code":"6078013","kana_pref":"ｷｮｳﾄﾌ","kana_city":"ｷｮｳﾄｼﾔﾏｼﾅｸ","kana_address":"ｱﾝｼｭﾅｶｺｳｼﾞﾁｮｳ","pref":"京都府","city":"京都市山科区","address":"安朱中小路町"},
{"zip_code":"6078016","kana_pref":"ｷｮｳﾄﾌ","kana_city":"ｷｮｳﾄｼﾔﾏｼﾅｸ","kana_address":"ｱﾝｼｭﾅｶﾐｿﾞﾁｮｳ","pref":"京都府","city":"京都市山科区","address":"安朱中溝町"},
{"zip_code":"6078007","kana_pref":"ｷｮｳﾄﾌ","kana_city":"ｷｮｳﾄｼﾔﾏｼﾅｸ","kana_address":"ｱﾝｼｭﾊﾞﾊﾞﾉﾆｼﾁｮｳ","pref":"京都府","city":"京都市山科区","address":"安朱馬場ノ西町"},
{"zip_code":"6078006","kana_pref":"ｷｮｳﾄﾌ","kana_city":"ｷｮｳﾄｼﾔﾏｼﾅｸ","kana_address":"ｱﾝｼｭﾊﾞﾊﾞﾉﾋｶﾞｼﾁｮｳ","pref":"京都府","city":"京都市山科区","address":"安朱馬場ノ東町"},
{"zip_code":"6078008","kana_pref":"ｷｮｳﾄﾌ","kana_city":"ｷｮｳﾄｼﾔﾏｼﾅｸ","kana_address":"ｱﾝｼｭﾋｶﾞｼｶｲﾄﾞｳﾁｮｳ","pref":"京都府","city":"京都市山科区","address":"安朱東海道町"},
{"zip_code":"6078002","kana_pref":"ｷｮｳﾄﾌ","kana_city":"ｷｮｳﾄｼﾔﾏｼﾅｸ","kana_address":"ｱﾝｼｭﾋｶﾞｼﾀﾞﾆ","pref":"京都府","city":"京都市山科区","address":"安朱東谷"},
{"zip_code":"6078001","kana_pref":"ｷｮｳﾄﾌ","kana_city":"ｷｮｳﾄｼﾔﾏｼﾅｸ","kana_address":"ｱﾝｼｭﾋﾞｼｬﾓﾝﾄﾞｳﾁｮｳ","pref":"京都府","city":"京都市山科区","address":"安朱毘沙門堂町"},
{"zip_code":"6078011","kana_pref":"ｷｮｳﾄﾌ","kana_city":"ｷｮｳﾄｼﾔﾏｼﾅｸ","kana_address":"ｱﾝｼｭﾐﾅﾐﾔｼｷﾁｮｳ","pref":"京都府","city":"京都市山科区","address":"安朱南屋敷町"},
{"zip_code":"6078004","kana_pref":"ｷｮｳﾄﾌ","kana_city":"ｷｮｳﾄｼﾔﾏｼﾅｸ","kana_address":"ｱﾝｼｭﾔｼｷﾁｮｳ","pref":"京都府","city":"京都市山科区","address":"安朱屋敷町"},
{"zip_code":"6078015","kana_pref":"ｷｮｳﾄﾌ","kana_city":"ｷｮｳﾄｼﾔﾏｼﾅｸ","kana_address":"ｱﾝｼｭﾔﾏｶﾜﾁｮｳ","pref":"京都府","city":"京都市山科区","address":"安朱山川町"},
{"zip_code":"6078014","kana_pref":"ｷｮｳﾄﾌ","kana_city":"ｷｮｳﾄｼﾔﾏｼﾅｸ","kana_address":"ｱﾝｼｭﾔﾏﾀﾞ","pref":"京都府","city":"京都市山科区","address":"安朱山田"},
{"zip_code":"6078441","kana_pref":"ｷｮｳﾄﾌ","kana_city":"ｷｮｳﾄｼﾔﾏｼﾅｸ","kana_address":"ｳｴﾉｺﾞｼｮﾉｳﾁﾁｮｳ","pref":"京都府","city":"京都市山科区","address":"上野御所ノ内町"},
{"zip_code":"6078443","kana_pref":"ｷｮｳﾄﾌ","kana_city":"ｷｮｳﾄｼﾔﾏｼﾅｸ","kana_address":"ｳｴﾉﾃﾗｲﾁｮｳ","pref":"京都府","city":"京都市山科区","address":"上野寺井町"},
{"zip_code":"6078442","kana_pref":"ｷｮｳﾄﾌ","kana_city":"ｷｮｳﾄｼﾔﾏｼﾅｸ","kana_address":"ｳｴﾉﾔﾏﾀﾞ","pref":"京都府","city":"京都市山科区","address":"上野山田"},
{"zip_code":"6078123","kana_pref":"ｷｮｳﾄﾌ","kana_city":"ｷｮｳﾄｼﾔﾏｼﾅｸ","kana_address":"ｵｵﾂｶｵｵｲﾜ","pref":"京都府","city":"京都市山科区","address":"大塚大岩"},
{"zip_code":"6078134","kana_pref":"ｷｮｳﾄﾌ","kana_city":"ｷｮｳﾄｼﾔﾏｼﾅｸ","kana_address":"ｵｵﾂｶｷﾀﾐｿﾞﾁｮｳ","pref":"京都府","city":"京都市山科区","address":"大塚北溝町"},
{"zip_code":"6078122","kana_pref":"ｷｮｳﾄﾌ","kana_city":"ｷｮｳﾄｼﾔﾏｼﾅｸ","kana_address":"ｵｵﾂｶﾀｶｲﾜ","pref":"京都府","city":"京都市山科区","address":"大塚高岩"},
{"zip_code":"6078136","kana_pref":"ｷｮｳﾄﾌ","kana_city":"ｷｮｳﾄｼﾔﾏｼﾅｸ","kana_address":"ｵｵﾂｶﾀﾝﾀﾞ","pref":"京都府","city":"京都市山科区","address":"大塚丹田"},
{"zip_code":"6078124","kana_pref":"ｷｮｳﾄﾌ","kana_city":"ｷｮｳﾄｼﾔﾏｼﾅｸ","kana_address":"ｵｵﾂｶﾀﾞﾝﾉｳﾗ","pref":"京都府","city":"京都市山科区","address":"大塚檀ノ浦"},
{"zip_code":"6078133","kana_pref":"ｷｮｳﾄﾌ","kana_city":"ｷｮｳﾄｼﾔﾏｼﾅｸ","kana_address":"ｵｵﾂｶﾅｶﾐｿﾞ","pref":"京都府","city":"京都市山科区","address":"大塚中溝"},
{"zip_code":"6078125","kana_pref":"ｷｮｳﾄﾌ","kana_city":"ｷｮｳﾄｼﾔﾏｼﾅｸ","kana_address":"ｵｵﾂｶﾆｼｳﾗﾁｮｳ","pref":"京都府","city":"京都市山科区","address":"大塚西浦町"},
{"zip_code":"6078135","kana_pref":"ｷｮｳﾄﾌ","kana_city":"ｷｮｳﾄｼﾔﾏｼﾅｸ","kana_address":"ｵｵﾂｶﾉﾐｿﾞﾁｮｳ","pref":"京都府","city":"京都市山科区","address":"大塚野溝町"},
{"zip_code":"6078131","kana_pref":"ｷｮｳﾄﾌ","kana_city":"ｷｮｳﾄｼﾔﾏｼﾅｸ","kana_address":"ｵｵﾂｶﾐﾅﾐﾐｿﾞﾁｮｳ","pref":"京都府","city":"京都市山科区","address":"大塚南溝町"},
{"zip_code":"6078121","kana_pref":"ｷｮｳﾄﾌ","kana_city":"ｷｮｳﾄｼﾔﾏｼﾅｸ","kana_address":"ｵｵﾂｶﾑｶｲﾊﾞﾀﾁｮｳ","pref":"京都府","city":"京都市山科区","address":"大塚向畑町"},
{"zip_code":"6078126","kana_pref":"ｷｮｳﾄﾌ","kana_city":"ｷｮｳﾄｼﾔﾏｼﾅｸ","kana_address":"ｵｵﾂｶﾓﾄﾔｼｷﾁｮｳ","pref":"京都府","city":"京都市山科区","address":"大塚元屋敷町"},
{"zip_code":"6078132","kana_pref":"ｷｮｳﾄﾌ","kana_city":"ｷｮｳﾄｼﾔﾏｼﾅｸ","kana_address":"ｵｵﾂｶﾓﾘﾁｮｳ","pref":"京都府","city":"京都市山科区","address":"大塚森町"},
{"zip_code":"6078187","kana_pref":"ｷｮｳﾄﾌ","kana_city":"ｷｮｳﾄｼﾔﾏｼﾅｸ","kana_address":"ｵｵﾔｹｲｼｺﾞｵﾘﾁｮｳ","pref":"京都府","city":"京都市山科区","address":"大宅石郡町"},
{"zip_code":"6078172","kana_pref":"ｷｮｳﾄﾌ","kana_city":"ｷｮｳﾄｼﾔﾏｼﾅｸ","kana_address":"ｵｵﾔｹｲﾜﾔﾃﾞﾝ","pref":"京都府","city":"京都市山科区","address":"大宅岩屋殿"},
{"zip_code":"6078181","kana_pref":"ｷｮｳﾄﾌ","kana_city":"ｷｮｳﾄｼﾔﾏｼﾅｸ","kana_address":"ｵｵﾔｹｳﾁｱｹﾁｮｳ","pref":"京都府","city":"京都市山科区","address":"大宅打明町"},
{"zip_code":"6078173","kana_pref":"ｷｮｳﾄﾌ","kana_city":"ｷｮｳﾄｼﾔﾏｼﾅｸ","kana_address":"ｵｵﾔｹｵｸﾔﾏﾀﾞ","pref":"京都府","city":"京都市山科区","address":"大宅奥山田"},
{"zip_code":"6078191","kana_pref":"ｷｮｳﾄﾌ","kana_city":"ｷｮｳﾄｼﾔﾏｼﾅｸ","kana_address":"ｵｵﾔｹｶﾗｽﾀﾞﾁｮｳ","pref":"京都府","city":"京都市山科区","address":"大宅烏田町"},
{"zip_code":"6078185","kana_pref":"ｷｮｳﾄﾌ","kana_city":"ｷｮｳﾄｼﾔﾏｼﾅｸ","kana_address":"ｵｵﾔｹｶﾝﾉｳﾁｮｳ","pref":"京都府","city":"京都市山科区","address":"大宅神納町"},
{"zip_code":"6078184","kana_pref":"ｷｮｳﾄﾌ","kana_city":"ｷｮｳﾄｼﾔﾏｼﾅｸ","kana_address":"ｵｵﾔｹｺｳﾉﾂｼﾞﾁｮｳ","pref":"京都府","city":"京都市山科区","address":"大宅甲ノ辻町"},
{"zip_code":"6078192","kana_pref":"ｷｮｳﾄﾌ","kana_city":"ｷｮｳﾄｼﾔﾏｼﾅｸ","kana_address":"ｵｵﾔｹｺﾞｸﾃﾞﾝﾁｮｳ","pref":"京都府","city":"京都市山科区","address":"大宅御供田町"},
{"zip_code":"6078179","kana_pref":"ｷｮｳﾄﾌ","kana_city":"ｷｮｳﾄｼﾔﾏｼﾅｸ","kana_address":"ｵｵﾔｹｺﾞｼｮﾃﾞﾝﾁｮｳ","pref":"京都府","city":"京都市山科区","address":"大宅御所田町"},
{"zip_code":"6078171","kana_pref":"ｷｮｳﾄﾌ","kana_city":"ｷｮｳﾄｼﾔﾏｼﾅｸ","kana_address":"ｵｵﾔｹｺﾞｼｮﾔﾏ","pref":"京都府","city":"京都市山科区","address":"大宅御所山"},
{"zip_code":"6078178","kana_pref":"ｷｮｳﾄﾌ","kana_city":"ｷｮｳﾄｼﾔﾏｼﾅｸ","kana_address":"ｵｵﾔｹｺﾞﾀﾝﾊﾞﾀﾁｮｳ","pref":"京都府","city":"京都市山科区","address":"大宅五反畑町"},
{"zip_code":"6078182","kana_pref":"ｷｮｳﾄﾌ","kana_city":"ｷｮｳﾄｼﾔﾏｼﾅｸ","kana_address":"ｵｵﾔｹｻｶﾉﾂｼﾞﾁｮｳ","pref":"京都府","city":"京都市山科区","address":"大宅坂ノ辻町"},
{"zip_code":"6078194","kana_pref":"ｷｮｳﾄﾌ","kana_city":"ｷｮｳﾄｼﾔﾏｼﾅｸ","kana_address":"ｵｵﾔｹｻｼﾞｷ","pref":"京都府","city":"京都市山科区","address":"大宅桟敷"},
{"zip_code":"6078193","kana_pref":"ｷｮｳﾄﾌ","kana_city":"ｷｮｳﾄｼﾔﾏｼﾅｸ","kana_address":"ｵｵﾔｹｻﾜﾁｮｳ","pref":"京都府","city":"京都市山科区","address":"大宅沢町"},
{"zip_code":"6078188","kana_pref":"ｷｮｳﾄﾌ","kana_city":"ｷｮｳﾄｼﾔﾏｼﾅｸ","kana_address":"ｵｵﾔｹｾｷｼｮｳﾁｮｳ","pref":"京都府","city":"京都市山科区","address":"大宅関生町"},
{"zip_code":"6078183","kana_pref":"ｷｮｳﾄﾌ","kana_city":"ｷｮｳﾄｼﾔﾏｼﾅｸ","kana_address":"ｵｵﾔｹﾂｼﾞﾜｷﾁｮｳ","pref":"京都府","city":"京都市山科区","address":"大宅辻脇町"},
{"zip_code":"6078174","kana_pref":"ｷｮｳﾄﾌ","kana_city":"ｷｮｳﾄｼﾔﾏｼﾅｸ","kana_address":"ｵｵﾔｹﾄﾘｲﾜｷﾁｮｳ","pref":"京都府","city":"京都市山科区","address":"大宅鳥井脇町"},
{"zip_code":"6078176","kana_pref":"ｷｮｳﾄﾌ","kana_city":"ｷｮｳﾄｼﾔﾏｼﾅｸ","kana_address":"ｵｵﾔｹﾅｶｺｳｼﾞﾁｮｳ","pref":"京都府","city":"京都市山科区","address":"大宅中小路町"},
{"zip_code":"6078177","kana_pref":"ｷｮｳﾄﾌ","kana_city":"ｷｮｳﾄｼﾔﾏｼﾅｸ","kana_address":"ｵｵﾔｹﾌﾙｶｲﾄﾞｳﾁｮｳ","pref":"京都府","city":"京都市山科区","address":"大宅古海道町"},
{"zip_code":"6078189","kana_pref":"ｷｮｳﾄﾌ","kana_city":"ｷｮｳﾄｼﾔﾏｼﾅｸ","kana_address":"ｵｵﾔｹﾎｿﾀﾞﾁｮｳ","pref":"京都府","city":"京都市山科区","address":"大宅細田町"},
{"zip_code":"6078170","kana_pref":"ｷｮｳﾄﾌ","kana_city":"ｷｮｳﾄｼﾔﾏｼﾅｸ","kana_address":"ｵｵﾔｹﾑｶｲﾔﾏ","pref":"京都府","city":"京都市山科区","address":"大宅向山"},
{"zip_code":"6078175","kana_pref":"ｷｮｳﾄﾌ","kana_city":"ｷｮｳﾄｼﾔﾏｼﾅｸ","kana_address":"ｵｵﾔｹﾔﾏﾀﾞ","pref":"京都府","city":"京都市山科区","address":"大宅山田"},
{"zip_code":"6078186","kana_pref":"ｷｮｳﾄﾌ","kana_city":"ｷｮｳﾄｼﾔﾏｼﾅｸ","kana_address":"ｵｵﾔｹﾜｾﾉｳﾁﾁｮｳ","pref":"京都府","city":"京都市山科区","address":"大宅早稲ノ内町"},
{"zip_code":"6078072","kana_pref":"ｷｮｳﾄﾌ","kana_city":"ｷｮｳﾄｼﾔﾏｼﾅｸ","kana_address":"ｵﾄﾜｲｾｼﾞｭｸﾁｮｳ","pref":"京都府","city":"京都市山科区","address":"音羽伊勢宿町"},
{"zip_code":"6078068","kana_pref":"ｷｮｳﾄﾌ","kana_city":"ｷｮｳﾄｼﾔﾏｼﾅｸ","kana_address":"ｵﾄﾜｲﾅｼﾊﾞ","pref":"京都府","city":"京都市山科区","address":"音羽稲芝"},
{"zip_code":"6078074","kana_pref":"ｷｮｳﾄﾌ","kana_city":"ｷｮｳﾄｼﾔﾏｼﾅｸ","kana_address":"ｵﾄﾜｵﾂﾃﾞﾁｮｳ","pref":"京都府","city":"京都市山科区","address":"音羽乙出町"},
{"zip_code":"6078061","kana_pref":"ｷｮｳﾄﾌ","kana_city":"ｷｮｳﾄｼﾔﾏｼﾅｸ","kana_address":"ｵﾄﾜｸｻﾀﾞﾁｮｳ","pref":"京都府","city":"京都市山科区","address":"音羽草田町"},
{"zip_code":"6078077","kana_pref":"ｷｮｳﾄﾌ","kana_city":"ｷｮｳﾄｼﾔﾏｼﾅｸ","kana_address":"ｵﾄﾜｻﾜﾁｮｳ","pref":"京都府","city":"京都市山科区","address":"音羽沢町"},
{"zip_code":"6078065","kana_pref":"ｷｮｳﾄﾌ","kana_city":"ｷｮｳﾄｼﾔﾏｼﾅｸ","kana_address":"ｵﾄﾜｻﾝﾄｳｼﾞ","pref":"京都府","city":"京都市山科区","address":"音羽山等地"},
{"zip_code":"6078071","kana_pref":"ｷｮｳﾄﾌ","kana_city":"ｷｮｳﾄｼﾔﾏｼﾅｸ","kana_address":"ｵﾄﾜｾﾝﾎﾞﾝﾁｮｳ","pref":"京都府","city":"京都市山科区","address":"音羽千本町"},
{"zip_code":"6078062","kana_pref":"ｷｮｳﾄﾌ","kana_city":"ｷｮｳﾄｼﾔﾏｼﾅｸ","kana_address":"ｵﾄﾜﾁﾝｼﾞﾁｮｳ","pref":"京都府","city":"京都市山科区","address":"音羽珍事町"},
{"zip_code":"6078069","kana_pref":"ｷｮｳﾄﾌ","kana_city":"ｷｮｳﾄｼﾔﾏｼﾅｸ","kana_address":"ｵﾄﾜﾅｶｼﾊﾞﾁｮｳ","pref":"京都府","city":"京都市山科区","address":"音羽中芝町"},
{"zip_code":"6078073","kana_pref":"ｷｮｳﾄﾌ","kana_city":"ｷｮｳﾄｼﾔﾏｼﾅｸ","kana_address":"ｵﾄﾜﾆｼﾊﾞﾔｼ","pref":"京都府","city":"京都市山科区","address":"音羽西林"},
{"zip_code":"6078075","kana_pref":"ｷｮｳﾄﾌ","kana_city":"ｷｮｳﾄｼﾔﾏｼﾅｸ","kana_address":"ｵﾄﾜﾉﾀﾞﾁｮｳ","pref":"京都府","city":"京都市山科区","address":"音羽野田町"},
{"zip_code":"6078064","kana_pref":"ｷｮｳﾄﾌ","kana_city":"ｷｮｳﾄｼﾔﾏｼﾅｸ","kana_address":"ｵﾄﾜﾊﾁﾉﾂﾎﾞ","pref":"京都府","city":"京都市山科区","address":"音羽八ノ坪"},
{"zip_code":"6078078","kana_pref":"ｷｮｳﾄﾌ","kana_city":"ｷｮｳﾄｼﾔﾏｼﾅｸ","kana_address":"ｵﾄﾜﾊﾂﾀﾞﾁｮｳ","pref":"京都府","city":"京都市山科区","address":"音羽初田町"},
{"zip_code":"6078063","kana_pref":"ｷｮｳﾄﾌ","kana_city":"ｷｮｳﾄｼﾔﾏｼﾅｸ","kana_address":"ｵﾄﾜﾋﾗﾊﾞﾔｼﾁｮｳ","pref":"京都府","city":"京都市山科区","address":"音羽平林町"},
{"zip_code":"6078067","kana_pref":"ｷｮｳﾄﾌ","kana_city":"ｷｮｳﾄｼﾔﾏｼﾅｸ","kana_address":"ｵﾄﾜﾏｴﾀﾞﾁｮｳ","pref":"京都府","city":"京都市山科区","address":"音羽前田町"},
{"zip_code":"6078079","kana_pref":"ｷｮｳﾄﾌ","kana_city":"ｷｮｳﾄｼﾔﾏｼﾅｸ","kana_address":"ｵﾄﾜﾏｴﾃﾞﾁｮｳ","pref":"京都府","city":"京都市山科区","address":"音羽前出町"},
{"zip_code":"6078066","kana_pref":"ｷｮｳﾄﾌ","kana_city":"ｷｮｳﾄｼﾔﾏｼﾅｸ","kana_address":"ｵﾄﾜﾓﾘﾏﾜﾘﾁｮｳ","pref":"京都府","city":"京都市山科区","address":"音羽森廻り町"},
{"zip_code":"6078076","kana_pref":"ｷｮｳﾄﾌ","kana_city":"ｷｮｳﾄｼﾔﾏｼﾅｸ","kana_address":"ｵﾄﾜﾔｸﾃﾞﾁｮｳ","pref":"京都府","city":"京都市山科区","address":"音羽役出町"},
{"zip_code":"6078251","kana_pref":"ｷｮｳﾄﾌ","kana_city":"ｷｮｳﾄｼﾔﾏｼﾅｸ","kana_address":"ｵﾉｶｶﾞｾ","pref":"京都府","city":"京都市山科区","address":"小野蚊ケ瀬"},
{"zip_code":"6078261","kana_pref":"ｷｮｳﾄﾌ","kana_city":"ｷｮｳﾄｼﾔﾏｼﾅｸ","kana_address":"ｵﾉｶﾈﾂｷﾃﾞﾝﾁｮｳ","pref":"京都府","city":"京都市山科区","address":"小野鐘付田町"},
{"zip_code":"6078252","kana_pref":"ｷｮｳﾄﾌ","kana_city":"ｷｮｳﾄｼﾔﾏｼﾅｸ","kana_address":"ｵﾉｶﾜﾗﾁｮｳ","pref":"京都府","city":"京都市山科区","address":"小野河原町"},
{"zip_code":"6078255","kana_pref":"ｷｮｳﾄﾌ","kana_city":"ｷｮｳﾄｼﾔﾏｼﾅｸ","kana_address":"ｵﾉｺﾞｼｮﾉｳﾁﾁｮｳ","pref":"京都府","city":"京都市山科区","address":"小野御所ノ内町"},
{"zip_code":"6078257","kana_pref":"ｷｮｳﾄﾌ","kana_city":"ｷｮｳﾄｼﾔﾏｼﾅｸ","kana_address":"ｵﾉｺﾞﾘｮｳﾁｮｳ","pref":"京都府","city":"京都市山科区","address":"小野御霊町"},
{"zip_code":"6078256","kana_pref":"ｷｮｳﾄﾌ","kana_city":"ｷｮｳﾄｼﾔﾏｼﾅｸ","kana_address":"ｵﾉｼｮｳｼﾞﾁｮｳ","pref":"京都府","city":"京都市山科区","address":"小野荘司町"},
{"zip_code":"6078254","kana_pref":"ｷｮｳﾄﾌ","kana_city":"ｷｮｳﾄｼﾔﾏｼﾅｸ","kana_address":"ｵﾉﾀｶｼﾊﾞﾁｮｳ","pref":"京都府","city":"京都市山科区","address":"小野高芝町"},
{"zip_code":"6078259","kana_pref":"ｷｮｳﾄﾌ","kana_city":"ｷｮｳﾄｼﾔﾏｼﾅｸ","kana_address":"ｵﾉﾂﾂﾞﾗｼﾞﾘﾁｮｳ","pref":"京都府","city":"京都市山科区","address":"小野葛篭尻町"},
{"zip_code":"6078258","kana_pref":"ｷｮｳﾄﾌ","kana_city":"ｷｮｳﾄｼﾔﾏｼﾅｸ","kana_address":"ｵﾉﾆｼｳﾗ","pref":"京都府","city":"京都市山科区","address":"小野西浦"},
{"zip_code":"6078253","kana_pref":"ｷｮｳﾄﾌ","kana_city":"ｷｮｳﾄｼﾔﾏｼﾅｸ","kana_address":"ｵﾉﾕﾐﾃﾞﾝﾁｮｳ","pref":"京都府","city":"京都市山科区","address":"小野弓田町"},
{"zip_code":"6078461","kana_pref":"ｷｮｳﾄﾌ","kana_city":"ｷｮｳﾄｼﾔﾏｼﾅｸ","kana_address":"ｶﾐｶｻﾞﾝｱｻﾋﾔﾏﾁｮｳ","pref":"京都府","city":"京都市山科区","address":"上花山旭山町"},
{"zip_code":"6078464","kana_pref":"ｷｮｳﾄﾌ","kana_city":"ｷｮｳﾄｼﾔﾏｼﾅｸ","kana_address":"ｶﾐｶｻﾞﾝｸﾎﾞﾁｮｳ","pref":"京都府","city":"京都市山科区","address":"上花山久保町"},
{"zip_code":"6078463","kana_pref":"ｷｮｳﾄﾌ","kana_city":"ｷｮｳﾄｼﾔﾏｼﾅｸ","kana_address":"ｶﾐｶｻﾞﾝｺｳﾀﾞﾁｮｳ","pref":"京都府","city":"京都市山科区","address":"上花山講田町"},
{"zip_code":"6078465","kana_pref":"ｷｮｳﾄﾌ","kana_city":"ｷｮｳﾄｼﾔﾏｼﾅｸ","kana_address":"ｶﾐｶｻﾞﾝｻｶｼﾞﾘ","pref":"京都府","city":"京都市山科区","address":"上花山坂尻"},
{"zip_code":"6078466","kana_pref":"ｷｮｳﾄﾌ","kana_city":"ｷｮｳﾄｼﾔﾏｼﾅｸ","kana_address":"ｶﾐｶｻﾞﾝｻｸﾗﾀﾞﾆ","pref":"京都府","city":"京都市山科区","address":"上花山桜谷"},
{"zip_code":"6078462","kana_pref":"ｷｮｳﾄﾌ","kana_city":"ｷｮｳﾄｼﾔﾏｼﾅｸ","kana_address":"ｶﾐｶｻﾞﾝﾊﾅﾉｵｶﾁｮｳ","pref":"京都府","city":"京都市山科区","address":"上花山花ノ岡町"},
{"zip_code":"6078321","kana_pref":"ｷｮｳﾄﾌ","kana_city":"ｷｮｳﾄｼﾔﾏｼﾅｸ","kana_address":"ｶﾜﾀｲﾜｶﾞﾀﾆ","pref":"京都府","city":"京都市山科区","address":"川田岩ケ谷"},
{"zip_code":"6078329","kana_pref":"ｷｮｳﾄﾌ","kana_city":"ｷｮｳﾄｼﾔﾏｼﾅｸ","kana_address":"ｶﾜﾀｳﾒｶﾞﾀﾆﾁｮｳ","pref":"京都府","city":"京都市山科区","address":"川田梅ケ谷町"},
{"zip_code":"6078326","kana_pref":"ｷｮｳﾄﾌ","kana_city":"ｷｮｳﾄｼﾔﾏｼﾅｸ","kana_address":"ｶﾜﾀｵｲﾃﾞﾁｮｳ","pref":"京都府","city":"京都市山科区","address":"川田御出町"},
{"zip_code":"6078323","kana_pref":"ｷｮｳﾄﾌ","kana_city":"ｷｮｳﾄｼﾔﾏｼﾅｸ","kana_address":"ｶﾜﾀｵｶﾉﾆｼ","pref":"京都府","city":"京都市山科区","address":"川田岡ノ西"},
{"zip_code":"6078334","kana_pref":"ｷｮｳﾄﾌ","kana_city":"ｷｮｳﾄｼﾔﾏｼﾅｸ","kana_address":"ｶﾜﾀｶｹﾉｳｴ","pref":"京都府","city":"京都市山科区","address":"川田欠ノ上"},
{"zip_code":"6078322","kana_pref":"ｷｮｳﾄﾌ","kana_city":"ｷｮｳﾄｼﾔﾏｼﾅｸ","kana_address":"ｶﾜﾀｷﾖﾐｽﾞﾔｷﾀﾞﾝﾁﾁｮｳ","pref":"京都府","city":"京都市山科区","address":"川田清水焼団地町"},
{"zip_code":"6078325","kana_pref":"ｷｮｳﾄﾌ","kana_city":"ｷｮｳﾄｼﾔﾏｼﾅｸ","kana_address":"ｶﾜﾀﾂﾁﾎﾞﾄｹ","pref":"京都府","city":"京都市山科区","address":"川田土仏"},
{"zip_code":"6078324","kana_pref":"ｷｮｳﾄﾌ","kana_city":"ｷｮｳﾄｼﾔﾏｼﾅｸ","kana_address":"ｶﾜﾀﾄﾞﾄﾞ","pref":"京都府","city":"京都市山科区","address":"川田百々"},
{"zip_code":"6078336","kana_pref":"ｷｮｳﾄﾌ","kana_city":"ｷｮｳﾄｼﾔﾏｼﾅｸ","kana_address":"ｶﾜﾀﾅｶﾊﾞﾀﾁｮｳ","pref":"京都府","city":"京都市山科区","address":"川田中畑町"},
{"zip_code":"6078332","kana_pref":"ｷｮｳﾄﾌ","kana_city":"ｷｮｳﾄｼﾔﾏｼﾅｸ","kana_address":"ｶﾜﾀﾆｼｳﾗﾁｮｳ","pref":"京都府","city":"京都市山科区","address":"川田西浦町"},
{"zip_code":"6078337","kana_pref":"ｷｮｳﾄﾌ","kana_city":"ｷｮｳﾄｼﾔﾏｼﾅｸ","kana_address":"ｶﾜﾀﾋｼｵﾀﾞ","pref":"京都府","city":"京都市山科区","address":"川田菱尾田"},
{"zip_code":"6078333","kana_pref":"ｷｮｳﾄﾌ","kana_city":"ｷｮｳﾄｼﾔﾏｼﾅｸ","kana_address":"ｶﾜﾀﾏｴﾊﾀﾁｮｳ","pref":"京都府","city":"京都市山科区","address":"川田前畑町"},
{"zip_code":"6078331","kana_pref":"ｷｮｳﾄﾌ","kana_city":"ｷｮｳﾄｼﾔﾏｼﾅｸ","kana_address":"ｶﾜﾀﾐｺｼﾂﾞｶﾁｮｳ","pref":"京都府","city":"京都市山科区","address":"川田御輿塚町"},
{"zip_code":"6078335","kana_pref":"ｷｮｳﾄﾌ","kana_city":"ｷｮｳﾄｼﾔﾏｼﾅｸ","kana_address":"ｶﾜﾀﾐﾅﾐﾊﾞﾀﾁｮｳ","pref":"京都府","city":"京都市山科区","address":"川田南畑町"},
{"zip_code":"6078328","kana_pref":"ｷｮｳﾄﾌ","kana_city":"ｷｮｳﾄｼﾔﾏｼﾅｸ","kana_address":"ｶﾜﾀﾐﾅﾐﾔﾏ","pref":"京都府","city":"京都市山科区","address":"川田南山"},
{"zip_code":"6078327","kana_pref":"ｷｮｳﾄﾌ","kana_city":"ｷｮｳﾄｼﾔﾏｼﾅｸ","kana_address":"ｶﾜﾀﾔﾏﾀﾞ","pref":"京都府","city":"京都市山科区","address":"川田山田"},
{"zip_code":"6078217","kana_pref":"ｷｮｳﾄﾌ","kana_city":"ｷｮｳﾄｼﾔﾏｼﾅｸ","kana_address":"ｶﾝｼｭｳｼﾞｶﾝﾘﾝｼﾞ","pref":"京都府","city":"京都市山科区","address":"勧修寺閑林寺"},
{"zip_code":"6078238","kana_pref":"ｷｮｳﾄﾌ","kana_city":"ｷｮｳﾄｼﾔﾏｼﾅｸ","kana_address":"ｶﾝｼｭｳｼﾞｷﾀﾀﾞｲﾆﾁ","pref":"京都府","city":"京都市山科区","address":"勧修寺北大日"},
{"zip_code":"6078237","kana_pref":"ｷｮｳﾄﾌ","kana_city":"ｷｮｳﾄｼﾔﾏｼﾅｸ","kana_address":"ｶﾝｼｭｳｼﾞｷﾀﾀﾞｲﾆﾁﾁｮｳ","pref":"京都府","city":"京都市山科区","address":"勧修寺北大日町"},
{"zip_code":"6078218","kana_pref":"ｷｮｳﾄﾌ","kana_city":"ｷｮｳﾄｼﾔﾏｼﾅｸ","kana_address":"ｶﾝｼｭｳｼﾞｺﾞｼｮｳﾁﾁｮｳ","pref":"京都府","city":"京都市山科区","address":"勧修寺御所内町"},
{"zip_code":"6078236","kana_pref":"ｷｮｳﾄﾌ","kana_city":"ｷｮｳﾄｼﾔﾏｼﾅｸ","kana_address":"ｶﾝｼｭｳｼﾞｺﾏﾂﾊﾞﾗﾁｮｳ","pref":"京都府","city":"京都市山科区","address":"勧修寺小松原町"},
{"zip_code":"6078242","kana_pref":"ｷｮｳﾄﾌ","kana_city":"ｷｮｳﾄｼﾔﾏｼﾅｸ","kana_address":"ｶﾝｼｭｳｼﾞｼﾊﾞﾔﾏ","pref":"京都府","city":"京都市山科区","address":"勧修寺柴山"},
{"zip_code":"6078227","kana_pref":"ｷｮｳﾄﾌ","kana_city":"ｷｮｳﾄｼﾔﾏｼﾅｸ","kana_address":"ｶﾝｼｭｳｼﾞｼﾓﾉﾁｬﾔﾁｮｳ","pref":"京都府","city":"京都市山科区","address":"勧修寺下ノ茶屋町"},
{"zip_code":"6078223","kana_pref":"ｷｮｳﾄﾌ","kana_city":"ｷｮｳﾄｼﾔﾏｼﾅｸ","kana_address":"ｶﾝｼｭｳｼﾞｾﾄｶﾞﾜﾗ","pref":"京都府","city":"京都市山科区","address":"勧修寺瀬戸河原"},
{"zip_code":"6078229","kana_pref":"ｷｮｳﾄﾌ","kana_city":"ｷｮｳﾄｼﾔﾏｼﾅｸ","kana_address":"ｶﾝｼｭｳｼﾞｾﾝｷﾞｮｸ","pref":"京都府","city":"京都市山科区","address":"勧修寺泉玉"},
{"zip_code":"6078231","kana_pref":"ｷｮｳﾄﾌ","kana_city":"ｷｮｳﾄｼﾔﾏｼﾅｸ","kana_address":"ｶﾝｼｭｳｼﾞﾄﾞｳﾃﾞﾝ","pref":"京都府","city":"京都市山科区","address":"勧修寺堂田"},
{"zip_code":"6078215","kana_pref":"ｷｮｳﾄﾌ","kana_city":"ｷｮｳﾄｼﾔﾏｼﾅｸ","kana_address":"ｶﾝｼｭｳｼﾞﾅﾜﾃﾁｮｳ","pref":"京都府","city":"京都市山科区","address":"勧修寺縄手町"},
{"zip_code":"6078226","kana_pref":"ｷｮｳﾄﾌ","kana_city":"ｷｮｳﾄｼﾔﾏｼﾅｸ","kana_address":"ｶﾝｼｭｳｼﾞﾆｵｳﾄﾞｳﾁｮｳ","pref":"京都府","city":"京都市山科区","address":"勧修寺仁王堂町"},
{"zip_code":"6078221","kana_pref":"ｷｮｳﾄﾌ","kana_city":"ｷｮｳﾄｼﾔﾏｼﾅｸ","kana_address":"ｶﾝｼｭｳｼﾞﾆｼｶﾅｶﾞｻｷ","pref":"京都府","city":"京都市山科区","address":"勧修寺西金ケ崎"},
{"zip_code":"6078225","kana_pref":"ｷｮｳﾄﾌ","kana_city":"ｷｮｳﾄｼﾔﾏｼﾅｸ","kana_address":"ｶﾝｼｭｳｼﾞﾆｼｷﾀﾃﾞﾁｮｳ","pref":"京都府","city":"京都市山科区","address":"勧修寺西北出町"},
{"zip_code":"6078212","kana_pref":"ｷｮｳﾄﾌ","kana_city":"ｷｮｳﾄｼﾔﾏｼﾅｸ","kana_address":"ｶﾝｼｭｳｼﾞﾆｼｸﾘｽﾉﾁｮｳ","pref":"京都府","city":"京都市山科区","address":"勧修寺西栗栖野町"},
{"zip_code":"6078241","kana_pref":"ｷｮｳﾄﾌ","kana_city":"ｷｮｳﾄｼﾔﾏｼﾅｸ","kana_address":"ｶﾝｼｭｳｼﾞﾋｴｼﾞﾘ","pref":"京都府","city":"京都市山科区","address":"勧修寺冷尻"},
{"zip_code":"6078213","kana_pref":"ｷｮｳﾄﾌ","kana_city":"ｷｮｳﾄｼﾔﾏｼﾅｸ","kana_address":"ｶﾝｼｭｳｼﾞﾋｶﾞｼｶﾅｶﾞｻｷ","pref":"京都府","city":"京都市山科区","address":"勧修寺東金ケ崎"},
{"zip_code":"6078224","kana_pref":"ｷｮｳﾄﾌ","kana_city":"ｷｮｳﾄｼﾔﾏｼﾅｸ","kana_address":"ｶﾝｼｭｳｼﾞﾋｶﾞｼｷﾀﾃﾞﾁｮｳ","pref":"京都府","city":"京都市山科区","address":"勧修寺東北出町"},
{"zip_code":"6078211","kana_pref":"ｷｮｳﾄﾌ","kana_city":"ｷｮｳﾄｼﾔﾏｼﾅｸ","kana_address":"ｶﾝｼｭｳｼﾞﾋｶﾞｼｸﾘｽﾉﾁｮｳ","pref":"京都府","city":"京都市山科区","address":"勧修寺東栗栖野町"},
{"zip_code":"6078216","kana_pref":"ｷｮｳﾄﾌ","kana_city":"ｷｮｳﾄｼﾔﾏｼﾅｸ","kana_address":"ｶﾝｼｭｳｼﾞﾋｶﾞｼﾃﾞﾁｮｳ","pref":"京都府","city":"京都市山科区","address":"勧修寺東出町"},
{"zip_code":"6078222","kana_pref":"ｷｮｳﾄﾌ","kana_city":"ｷｮｳﾄｼﾔﾏｼﾅｸ","kana_address":"ｶﾝｼｭｳｼﾞﾋｶﾞｼﾄﾞｳﾃﾞﾝﾁｮｳ","pref":"京都府","city":"京都市山科区","address":"勧修寺東堂田町"},
{"zip_code":"6078214","kana_pref":"ｷｮｳﾄﾌ","kana_city":"ｷｮｳﾄｼﾔﾏｼﾅｸ","kana_address":"ｶﾝｼｭｳｼﾞﾋﾗﾀ","pref":"京都府","city":"京都市山科区","address":"勧修寺平田"},
{"zip_code":"6078232","kana_pref":"ｷｮｳﾄﾌ","kana_city":"ｷｮｳﾄｼﾔﾏｼﾅｸ","kana_address":"ｶﾝｼｭｳｼﾞﾌｸｵｶﾁｮｳ","pref":"京都府","city":"京都市山科区","address":"勧修寺福岡町"},
{"zip_code":"6078219","kana_pref":"ｷｮｳﾄﾌ","kana_city":"ｷｮｳﾄｼﾔﾏｼﾅｸ","kana_address":"ｶﾝｼｭｳｼﾞﾌﾛｼﾞﾘﾁｮｳ","pref":"京都府","city":"京都市山科区","address":"勧修寺風呂尻町"},
{"zip_code":"6078228","kana_pref":"ｷｮｳﾄﾌ","kana_city":"ｷｮｳﾄｼﾔﾏｼﾅｸ","kana_address":"ｶﾝｼｭｳｼﾞﾎﾝﾄﾞｳﾔﾏﾁｮｳ","pref":"京都府","city":"京都市山科区","address":"勧修寺本堂山町"},
{"zip_code":"6078239","kana_pref":"ｷｮｳﾄﾌ","kana_city":"ｷｮｳﾄｼﾔﾏｼﾅｸ","kana_address":"ｶﾝｼｭｳｼﾞﾏﾙﾔﾏﾁｮｳ","pref":"京都府","city":"京都市山科区","address":"勧修寺丸山町"},
{"zip_code":"6078235","kana_pref":"ｷｮｳﾄﾌ","kana_city":"ｷｮｳﾄｼﾔﾏｼﾅｸ","kana_address":"ｶﾝｼｭｳｼﾞﾐﾅﾐﾀﾞｲﾆﾁ","pref":"京都府","city":"京都市山科区","address":"勧修寺南大日"},
{"zip_code":"6078234","kana_pref":"ｷｮｳﾄﾌ","kana_city":"ｷｮｳﾄｼﾔﾏｼﾅｸ","kana_address":"ｶﾝｼｭｳｼﾞﾐﾅﾐﾀﾞｲﾆﾁﾁｮｳ","pref":"京都府","city":"京都市山科区","address":"勧修寺南大日町"},
{"zip_code":"6078233","kana_pref":"ｷｮｳﾄﾌ","kana_city":"ｷｮｳﾄｼﾔﾏｼﾅｸ","kana_address":"ｶﾝｼｭｳｼﾞﾐﾅﾐﾀﾞﾆﾁｮｳ","pref":"京都府","city":"京都市山科区","address":"勧修寺南谷町"},
{"zip_code":"6078483","kana_pref":"ｷｮｳﾄﾌ","kana_city":"ｷｮｳﾄｼﾔﾏｼﾅｸ","kana_address":"ｷﾀｶｻﾞﾝｲﾁﾀﾞﾁｮｳ","pref":"京都府","city":"京都市山科区","address":"北花山市田町"},
{"zip_code":"6078482","kana_pref":"ｷｮｳﾄﾌ","kana_city":"ｷｮｳﾄｼﾔﾏｼﾅｸ","kana_address":"ｷﾀｶｻﾞﾝｵｵﾊﾔｼﾁｮｳ","pref":"京都府","city":"京都市山科区","address":"北花山大林町"},
{"zip_code":"6078471","kana_pref":"ｷｮｳﾄﾌ","kana_city":"ｷｮｳﾄｼﾔﾏｼﾅｸ","kana_address":"ｷﾀｶｻﾞﾝｵｵﾐﾈﾁｮｳ","pref":"京都府","city":"京都市山科区","address":"北花山大峰町"},
{"zip_code":"6078485","kana_pref":"ｷｮｳﾄﾌ","kana_city":"ｷｮｳﾄｼﾔﾏｼﾅｸ","kana_address":"ｷﾀｶｻﾞﾝｶﾐﾁｺﾞｶﾞｲｹ","pref":"京都府","city":"京都市山科区","address":"北花山上稚児ケ池"},
{"zip_code":"6078476","kana_pref":"ｷｮｳﾄﾌ","kana_city":"ｷｮｳﾄｼﾔﾏｼﾅｸ","kana_address":"ｷﾀｶｻﾞﾝｶﾜﾗﾁｮｳ","pref":"京都府","city":"京都市山科区","address":"北花山河原町"},
{"zip_code":"6078474","kana_pref":"ｷｮｳﾄﾌ","kana_city":"ｷｮｳﾄｼﾔﾏｼﾅｸ","kana_address":"ｷﾀｶｻﾞﾝﾃﾗｳﾁﾁｮｳ","pref":"京都府","city":"京都市山科区","address":"北花山寺内町"},
{"zip_code":"6078481","kana_pref":"ｷｮｳﾄﾌ","kana_city":"ｷｮｳﾄｼﾔﾏｼﾅｸ","kana_address":"ｷﾀｶｻﾞﾝﾅｶﾐﾁﾁｮｳ","pref":"京都府","city":"京都市山科区","address":"北花山中道町"},
{"zip_code":"6078484","kana_pref":"ｷｮｳﾄﾌ","kana_city":"ｷｮｳﾄｼﾔﾏｼﾅｸ","kana_address":"ｷﾀｶｻﾞﾝﾆｼﾉﾉﾁｮｳ","pref":"京都府","city":"京都市山科区","address":"北花山西ノ野町"},
{"zip_code":"6078472","kana_pref":"ｷｮｳﾄﾌ","kana_city":"ｷｮｳﾄｼﾔﾏｼﾅｸ","kana_address":"ｷﾀｶｻﾞﾝﾔﾏﾀﾞﾁｮｳ","pref":"京都府","city":"京都市山科区","address":"北花山山田町"},
{"zip_code":"6078475","kana_pref":"ｷｮｳﾄﾌ","kana_city":"ｷｮｳﾄｼﾔﾏｼﾅｸ","kana_address":"ｷﾀｶｻﾞﾝﾖｺﾀﾁｮｳ","pref":"京都府","city":"京都市山科区","address":"北花山横田町"},
{"zip_code":"6078473","kana_pref":"ｷｮｳﾄﾌ","kana_city":"ｷｮｳﾄｼﾔﾏｼﾅｸ","kana_address":"ｷﾀｶｻﾞﾝﾛｸﾀﾝﾀﾞﾁｮｳ","pref":"京都府","city":"京都市山科区","address":"北花山六反田町"},
{"zip_code":"6078203","kana_pref":"ｷｮｳﾄﾌ","kana_city":"ｷｮｳﾄｼﾔﾏｼﾅｸ","kana_address":"ｸﾘｽﾉｳﾁｺｼﾁｮｳ","pref":"京都府","city":"京都市山科区","address":"栗栖野打越町"},
{"zip_code":"6078201","kana_pref":"ｷｮｳﾄﾌ","kana_city":"ｷｮｳﾄｼﾔﾏｼﾅｸ","kana_address":"ｸﾘｽﾉｷﾂﾈﾂﾞｶ","pref":"京都府","city":"京都市山科区","address":"栗栖野狐塚"},
{"zip_code":"6078202","kana_pref":"ｷｮｳﾄﾌ","kana_city":"ｷｮｳﾄｼﾔﾏｼﾅｸ","kana_address":"ｸﾘｽﾉﾅｶﾄﾐﾁｮｳ","pref":"京都府","city":"京都市山科区","address":"栗栖野中臣町"},
{"zip_code":"6078204","kana_pref":"ｷｮｳﾄﾌ","kana_city":"ｷｮｳﾄｼﾔﾏｼﾅｸ","kana_address":"ｸﾘｽﾉﾊﾅﾉｷﾁｮｳ","pref":"京都府","city":"京都市山科区","address":"栗栖野華ノ木町"},
{"zip_code":"6078103","kana_pref":"ｷｮｳﾄﾌ","kana_city":"ｷｮｳﾄｼﾔﾏｼﾅｸ","kana_address":"ｺﾔﾏｲｯｺｸﾊﾞﾀ","pref":"京都府","city":"京都市山科区","address":"小山一石畑"},
{"zip_code":"6078107","kana_pref":"ｷｮｳﾄﾌ","kana_city":"ｷｮｳﾄｼﾔﾏｼﾅｸ","kana_address":"ｺﾔﾏｵｶﾞﾜﾁｮｳ","pref":"京都府","city":"京都市山科区","address":"小山小川町"},
{"zip_code":"6078101","kana_pref":"ｷｮｳﾄﾌ","kana_city":"ｷｮｳﾄｼﾔﾏｼﾅｸ","kana_address":"ｺﾔﾏｶﾐﾅｼﾓﾘﾁｮｳ","pref":"京都府","city":"京都市山科区","address":"小山神無森町"},
{"zip_code":"6078115","kana_pref":"ｷｮｳﾄﾌ","kana_city":"ｷｮｳﾄｼﾔﾏｼﾅｸ","kana_address":"ｺﾔﾏｷﾀﾊﾞﾔｼﾁｮｳ","pref":"京都府","city":"京都市山科区","address":"小山北林町"},
{"zip_code":"6078113","kana_pref":"ｷｮｳﾄﾌ","kana_city":"ｷｮｳﾄｼﾔﾏｼﾅｸ","kana_address":"ｺﾔﾏｷﾀﾐｿﾞﾁｮｳ","pref":"京都府","city":"京都市山科区","address":"小山北溝町"},
{"zip_code":"6078106","kana_pref":"ｷｮｳﾄﾌ","kana_city":"ｷｮｳﾄｼﾔﾏｼﾅｸ","kana_address":"ｺﾔﾏｺﾞﾎﾞｳﾉｳﾁﾁｮｳ","pref":"京都府","city":"京都市山科区","address":"小山御坊ノ内町"},
{"zip_code":"6078102","kana_pref":"ｷｮｳﾄﾌ","kana_city":"ｷｮｳﾄｼﾔﾏｼﾅｸ","kana_address":"ｺﾔﾏｼﾓﾉｲｹ","pref":"京都府","city":"京都市山科区","address":"小山下ノ池"},
{"zip_code":"6078104","kana_pref":"ｷｮｳﾄﾌ","kana_city":"ｷｮｳﾄｼﾔﾏｼﾅｸ","kana_address":"ｺﾔﾏﾀﾆﾀﾞﾁｮｳ","pref":"京都府","city":"京都市山科区","address":"小山谷田町"},
{"zip_code":"6078116","kana_pref":"ｷｮｳﾄﾌ","kana_city":"ｷｮｳﾄｼﾔﾏｼﾅｸ","kana_address":"ｺﾔﾏﾁﾝｼﾞｭﾁｮｳ","pref":"京都府","city":"京都市山科区","address":"小山鎮守町"},
{"zip_code":"6078108","kana_pref":"ｷｮｳﾄﾌ","kana_city":"ｷｮｳﾄｼﾔﾏｼﾅｸ","kana_address":"ｺﾔﾏﾅｶｼﾞﾏﾁｮｳ","pref":"京都府","city":"京都市山科区","address":"小山中島町"},
{"zip_code":"6078112","kana_pref":"ｷｮｳﾄﾌ","kana_city":"ｷｮｳﾄｼﾔﾏｼﾅｸ","kana_address":"ｺﾔﾏﾅｶﾉｶﾜﾁｮｳ","pref":"京都府","city":"京都市山科区","address":"小山中ノ川町"},
{"zip_code":"6078109","kana_pref":"ｷｮｳﾄﾌ","kana_city":"ｷｮｳﾄｼﾔﾏｼﾅｸ","kana_address":"ｺﾔﾏﾆｼｺﾞｼｮﾁｮｳ","pref":"京都府","city":"京都市山科区","address":"小山西御所町"},
{"zip_code":"6078114","kana_pref":"ｷｮｳﾄﾌ","kana_city":"ｷｮｳﾄｼﾔﾏｼﾅｸ","kana_address":"ｺﾔﾏﾋﾒｺﾁｮｳ","pref":"京都府","city":"京都市山科区","address":"小山姫子町"},
{"zip_code":"6078105","kana_pref":"ｷｮｳﾄﾌ","kana_city":"ｷｮｳﾄｼﾔﾏｼﾅｸ","kana_address":"ｺﾔﾏﾏﾂﾊﾗﾊﾞﾀﾁｮｳ","pref":"京都府","city":"京都市山科区","address":"小山松原畑町"},
{"zip_code":"6078111","kana_pref":"ｷｮｳﾄﾌ","kana_city":"ｷｮｳﾄｼﾔﾏｼﾅｸ","kana_address":"ｺﾔﾏﾐﾅﾐﾐｿﾞﾁｮｳ","pref":"京都府","city":"京都市山科区","address":"小山南溝町"},
{"zip_code":"6078028","kana_pref":"ｷｮｳﾄﾌ","kana_city":"ｷｮｳﾄｼﾔﾏｼﾅｸ","kana_address":"ｼﾉﾐﾔｲﾜｸﾎﾞﾁｮｳ","pref":"京都府","city":"京都市山科区","address":"四ノ宮岩久保町"},
{"zip_code":"6078041","kana_pref":"ｷｮｳﾄﾌ","kana_city":"ｷｮｳﾄｼﾔﾏｼﾅｸ","kana_address":"ｼﾉﾐﾔｶｷﾉｳﾁﾁｮｳ","pref":"京都府","city":"京都市山科区","address":"四ノ宮垣ノ内町"},
{"zip_code":"6078031","kana_pref":"ｷｮｳﾄﾌ","kana_city":"ｷｮｳﾄｼﾔﾏｼﾅｸ","kana_address":"ｼﾉﾐﾔｶﾏﾃﾁｮｳ","pref":"京都府","city":"京都市山科区","address":"四ノ宮鎌手町"},
{"zip_code":"6078027","kana_pref":"ｷｮｳﾄﾌ","kana_city":"ｷｮｳﾄｼﾔﾏｼﾅｸ","kana_address":"ｼﾉﾐﾔｶﾜﾗﾁｮｳ","pref":"京都府","city":"京都市山科区","address":"四ノ宮川原町"},
{"zip_code":"6078035","kana_pref":"ｷｮｳﾄﾌ","kana_city":"ｷｮｳﾄｼﾔﾏｼﾅｸ","kana_address":"ｼﾉﾐﾔｶﾝﾀﾞﾁｮｳ","pref":"京都府","city":"京都市山科区","address":"四ノ宮神田町"},
{"zip_code":"6078021","kana_pref":"ｷｮｳﾄﾌ","kana_city":"ｷｮｳﾄｼﾔﾏｼﾅｸ","kana_address":"ｼﾉﾐﾔｷﾞｮｳｼﾞｬﾀﾞﾆ","pref":"京都府","city":"京都市山科区","address":"四ノ宮行者谷"},
{"zip_code":"6078024","kana_pref":"ｷｮｳﾄﾌ","kana_city":"ｷｮｳﾄｼﾔﾏｼﾅｸ","kana_address":"ｼﾉﾐﾔｸﾏｶﾞﾀﾞﾆ","pref":"京都府","city":"京都市山科区","address":"四ノ宮熊ケ谷"},
{"zip_code":"6078022","kana_pref":"ｷｮｳﾄﾌ","kana_city":"ｷｮｳﾄｼﾔﾏｼﾅｸ","kana_address":"ｼﾉﾐﾔｺｶﾞﾈﾂﾞｶ","pref":"京都府","city":"京都市山科区","address":"四ノ宮小金塚"},
{"zip_code":"6078033","kana_pref":"ｷｮｳﾄﾌ","kana_city":"ｷｮｳﾄｼﾔﾏｼﾅｸ","kana_address":"ｼﾉﾐﾔｼﾊﾞﾊﾀﾁｮｳ","pref":"京都府","city":"京都市山科区","address":"四ノ宮芝畑町"},
{"zip_code":"6078023","kana_pref":"ｷｮｳﾄﾌ","kana_city":"ｷｮｳﾄｼﾔﾏｼﾅｸ","kana_address":"ｼﾉﾐﾔｼﾝｶｲﾊﾞﾀ","pref":"京都府","city":"京都市山科区","address":"四ノ宮新開畑"},
{"zip_code":"6078044","kana_pref":"ｷｮｳﾄﾌ","kana_city":"ｷｮｳﾄｼﾔﾏｼﾅｸ","kana_address":"ｼﾉﾐﾔｾﾝｽｲﾁｮｳ","pref":"京都府","city":"京都市山科区","address":"四ノ宮泉水町"},
{"zip_code":"6078029","kana_pref":"ｷｮｳﾄﾌ","kana_city":"ｷｮｳﾄｼﾔﾏｼﾅｸ","kana_address":"ｼﾉﾐﾔﾀｲｼｮｳｸﾞﾝﾁｮｳ","pref":"京都府","city":"京都市山科区","address":"四ノ宮大将軍町"},
{"zip_code":"6078043","kana_pref":"ｷｮｳﾄﾌ","kana_city":"ｷｮｳﾄｼﾔﾏｼﾅｸ","kana_address":"ｼﾉﾐﾔﾁｭｳｻﾞｲｼﾞﾁｮｳ","pref":"京都府","city":"京都市山科区","address":"四ノ宮中在寺町"},
{"zip_code":"6078045","kana_pref":"ｷｮｳﾄﾌ","kana_city":"ｷｮｳﾄｼﾔﾏｼﾅｸ","kana_address":"ｼﾉﾐﾔﾄﾞｳﾉｺﾞﾁｮｳ","pref":"京都府","city":"京都市山科区","address":"四ノ宮堂ノ後町"},
{"zip_code":"6078032","kana_pref":"ｷｮｳﾄﾌ","kana_city":"ｷｮｳﾄｼﾔﾏｼﾅｸ","kana_address":"ｼﾉﾐﾔﾅﾗﾉﾁｮｳ","pref":"京都府","city":"京都市山科区","address":"四ノ宮奈良野町"},
{"zip_code":"6078034","kana_pref":"ｷｮｳﾄﾌ","kana_city":"ｷｮｳﾄｼﾔﾏｼﾅｸ","kana_address":"ｼﾉﾐﾔﾌｹ","pref":"京都府","city":"京都市山科区","address":"四ノ宮泓"},
{"zip_code":"6078042","kana_pref":"ｷｮｳﾄﾌ","kana_city":"ｷｮｳﾄｼﾔﾏｼﾅｸ","kana_address":"ｼﾉﾐﾔﾐﾅﾐｶﾞﾜﾗﾁｮｳ","pref":"京都府","city":"京都市山科区","address":"四ノ宮南河原町"},
{"zip_code":"6078025","kana_pref":"ｷｮｳﾄﾌ","kana_city":"ｷｮｳﾄｼﾔﾏｼﾅｸ","kana_address":"ｼﾉﾐﾔﾔﾅｷﾞﾔﾏﾁｮｳ","pref":"京都府","city":"京都市山科区","address":"四ノ宮柳山町"},
{"zip_code":"6078026","kana_pref":"ｷｮｳﾄﾌ","kana_city":"ｷｮｳﾄｼﾔﾏｼﾅｸ","kana_address":"ｼﾉﾐﾔﾔﾏﾀﾞﾁｮｳ","pref":"京都府","city":"京都市山科区","address":"四ノ宮山田町"},
{"zip_code":"6078453","kana_pref":"ｷｮｳﾄﾌ","kana_city":"ｷｮｳﾄｼﾔﾏｼﾅｸ","kana_address":"ｽﾞｼｵｸｵﾉｴﾁｮｳ","pref":"京都府","city":"京都市山科区","address":"厨子奥尾上町"},
{"zip_code":"6078456","kana_pref":"ｷｮｳﾄﾌ","kana_city":"ｷｮｳﾄｼﾔﾏｼﾅｸ","kana_address":"ｽﾞｼｵｸｶﾁｮｳﾁｮｳ","pref":"京都府","city":"京都市山科区","address":"厨子奥花鳥町"},
{"zip_code":"6078455","kana_pref":"ｷｮｳﾄﾌ","kana_city":"ｷｮｳﾄｼﾔﾏｼﾅｸ","kana_address":"ｽﾞｼｵｸﾅｶﾞﾐﾁ","pref":"京都府","city":"京都市山科区","address":"厨子奥長通"},
{"zip_code":"6078454","kana_pref":"ｷｮｳﾄﾌ","kana_city":"ｷｮｳﾄｼﾔﾏｼﾅｸ","kana_address":"ｽﾞｼｵｸﾅﾜｼﾛﾓﾄﾁｮｳ","pref":"京都府","city":"京都市山科区","address":"厨子奥苗代元町"},
{"zip_code":"6078452","kana_pref":"ｷｮｳﾄﾌ","kana_city":"ｷｮｳﾄｼﾔﾏｼﾅｸ","kana_address":"ｽﾞｼｵｸﾔｸﾗﾁｮｳ","pref":"京都府","city":"京都市山科区","address":"厨子奥矢倉町"},
{"zip_code":"6078451","kana_pref":"ｷｮｳﾄﾌ","kana_city":"ｷｮｳﾄｼﾔﾏｼﾅｸ","kana_address":"ｽﾞｼｵｸﾜｶﾊﾞﾔｼﾁｮｳ","pref":"京都府","city":"京都市山科区","address":"厨子奥若林町"},
{"zip_code":"6078082","kana_pref":"ｷｮｳﾄﾌ","kana_city":"ｷｮｳﾄｼﾔﾏｼﾅｸ","kana_address":"ﾀｹﾊﾅｵｳｷﾞﾁｮｳ","pref":"京都府","city":"京都市山科区","address":"竹鼻扇町"},
{"zip_code":"6078083","kana_pref":"ｷｮｳﾄﾌ","kana_city":"ｷｮｳﾄｼﾔﾏｼﾅｸ","kana_address":"ﾀｹﾊﾅｷﾉﾓﾄﾁｮｳ","pref":"京都府","city":"京都市山科区","address":"竹鼻木ノ本町"},
{"zip_code":"6078087","kana_pref":"ｷｮｳﾄﾌ","kana_city":"ｷｮｳﾄｼﾔﾏｼﾅｸ","kana_address":"ﾀｹﾊﾅｻｲｶｼﾁｮｳ","pref":"京都府","city":"京都市山科区","address":"竹鼻サイカシ町"},
{"zip_code":"6078088","kana_pref":"ｷｮｳﾄﾌ","kana_city":"ｷｮｳﾄｼﾔﾏｼﾅｸ","kana_address":"ﾀｹﾊﾅｼﾞｿﾞｳｼﾞﾐﾅﾐﾁｮｳ","pref":"京都府","city":"京都市山科区","address":"竹鼻地蔵寺南町"},
{"zip_code":"6078086","kana_pref":"ｷｮｳﾄﾌ","kana_city":"ｷｮｳﾄｼﾔﾏｼﾅｸ","kana_address":"ﾀｹﾊﾅｼﾁｮｳﾉﾁｮｳ","pref":"京都府","city":"京都市山科区","address":"竹鼻四丁野町"},
{"zip_code":"6078081","kana_pref":"ｷｮｳﾄﾌ","kana_city":"ｷｮｳﾄｼﾔﾏｼﾅｸ","kana_address":"ﾀｹﾊﾅｿﾄﾀﾞﾁｮｳ","pref":"京都府","city":"京都市山科区","address":"竹鼻外田町"},
{"zip_code":"6078080","kana_pref":"ｷｮｳﾄﾌ","kana_city":"ｷｮｳﾄｼﾔﾏｼﾅｸ","kana_address":"ﾀｹﾊﾅﾀｹﾉｶｲﾄﾞｳﾁｮｳ","pref":"京都府","city":"京都市山科区","address":"竹鼻竹ノ街道町"},
{"zip_code":"6078084","kana_pref":"ｷｮｳﾄﾌ","kana_city":"ｷｮｳﾄｼﾔﾏｼﾅｸ","kana_address":"ﾀｹﾊﾅﾀﾃﾊﾗﾁｮｳ","pref":"京都府","city":"京都市山科区","address":"竹鼻立原町"},
{"zip_code":"6078085","kana_pref":"ｷｮｳﾄﾌ","kana_city":"ｷｮｳﾄｼﾔﾏｼﾅｸ","kana_address":"ﾀｹﾊﾅﾄﾞｳﾉﾏｴﾁｮｳ","pref":"京都府","city":"京都市山科区","address":"竹鼻堂ノ前町"},
{"zip_code":"6078089","kana_pref":"ｷｮｳﾄﾌ","kana_city":"ｷｮｳﾄｼﾔﾏｼﾅｸ","kana_address":"ﾀｹﾊﾅﾆｼﾉｸﾞﾁﾁｮｳ","pref":"京都府","city":"京都市山科区","address":"竹鼻西ノ口町"},
{"zip_code":"6078168","kana_pref":"ｷｮｳﾄﾌ","kana_city":"ｷｮｳﾄｼﾔﾏｼﾅｸ","kana_address":"ﾅｷﾞﾂｼﾞｲｹｼﾞﾘﾁｮｳ","pref":"京都府","city":"京都市山科区","address":"椥辻池尻町"},
{"zip_code":"6078162","kana_pref":"ｷｮｳﾄﾌ","kana_city":"ｷｮｳﾄｼﾔﾏｼﾅｸ","kana_address":"ﾅｷﾞﾂｼﾞｸｻｶｲﾄﾞｳﾁｮｳ","pref":"京都府","city":"京都市山科区","address":"椥辻草海道町"},
{"zip_code":"6078161","kana_pref":"ｷｮｳﾄﾌ","kana_city":"ｷｮｳﾄｼﾔﾏｼﾅｸ","kana_address":"ﾅｷﾞﾂｼﾞﾁｭｳｻﾞｲｹﾁｮｳ","pref":"京都府","city":"京都市山科区","address":"椥辻中在家町"},
{"zip_code":"6078169","kana_pref":"ｷｮｳﾄﾌ","kana_city":"ｷｮｳﾄｼﾔﾏｼﾅｸ","kana_address":"ﾅｷﾞﾂｼﾞﾆｼｳﾗﾁｮｳ","pref":"京都府","city":"京都市山科区","address":"椥辻西浦町"},
{"zip_code":"6078164","kana_pref":"ｷｮｳﾄﾌ","kana_city":"ｷｮｳﾄｼﾔﾏｼﾅｸ","kana_address":"ﾅｷﾞﾂｼﾞﾆｼﾂﾌﾞｼ","pref":"京都府","city":"京都市山科区","address":"椥辻西潰"},
{"zip_code":"6078166","kana_pref":"ｷｮｳﾄﾌ","kana_city":"ｷｮｳﾄｼﾔﾏｼﾅｸ","kana_address":"ﾅｷﾞﾂｼﾞﾊﾞﾝｼｮｳｶﾞｸﾞﾁﾁｮｳ","pref":"京都府","city":"京都市山科区","address":"椥辻番所ケ口町"},
{"zip_code":"6078160","kana_pref":"ｷｮｳﾄﾌ","kana_city":"ｷｮｳﾄｼﾔﾏｼﾅｸ","kana_address":"ﾅｷﾞﾂｼﾞﾋｶﾞｼｳﾗﾁｮｳ","pref":"京都府","city":"京都市山科区","address":"椥辻東浦町"},
{"zip_code":"6078163","kana_pref":"ｷｮｳﾄﾌ","kana_city":"ｷｮｳﾄｼﾔﾏｼﾅｸ","kana_address":"ﾅｷﾞﾂｼﾞﾋｶﾞｼﾂﾌﾞｼ","pref":"京都府","city":"京都市山科区","address":"椥辻東潰"},
{"zip_code":"6078165","kana_pref":"ｷｮｳﾄﾌ","kana_city":"ｷｮｳﾄｼﾔﾏｼﾅｸ","kana_address":"ﾅｷﾞﾂｼﾞﾋﾗﾀﾁｮｳ","pref":"京都府","city":"京都市山科区","address":"椥辻平田町"},
{"zip_code":"6078167","kana_pref":"ｷｮｳﾄﾌ","kana_city":"ｷｮｳﾄｼﾔﾏｼﾅｸ","kana_address":"ﾅｷﾞﾂｼﾞﾌｳｼｶﾞﾜﾁｮｳ","pref":"京都府","city":"京都市山科区","address":"椥辻封シ川町"},
{"zip_code":"6078343","kana_pref":"ｷｮｳﾄﾌ","kana_city":"ｷｮｳﾄｼﾔﾏｼﾅｸ","kana_address":"ﾆｼﾉｱｹﾞｻﾞﾜﾁｮｳ","pref":"京都府","city":"京都市山科区","address":"西野阿芸沢町"},
{"zip_code":"6078341","kana_pref":"ｷｮｳﾄﾌ","kana_city":"ｷｮｳﾄｼﾔﾏｼﾅｸ","kana_address":"ﾆｼﾉｲﾏﾔｼｷﾁｮｳ","pref":"京都府","city":"京都市山科区","address":"西野今屋敷町"},
{"zip_code":"6078344","kana_pref":"ｷｮｳﾄﾌ","kana_city":"ｷｮｳﾄｼﾔﾏｼﾅｸ","kana_address":"ﾆｼﾉｵｵﾃｻｷﾁｮｳ","pref":"京都府","city":"京都市山科区","address":"西野大手先町"},
{"zip_code":"6078355","kana_pref":"ｷｮｳﾄﾌ","kana_city":"ｷｮｳﾄｼﾔﾏｼﾅｸ","kana_address":"ﾆｼﾉｵｵﾄﾘｲﾁｮｳ","pref":"京都府","city":"京都市山科区","address":"西野大鳥井町"},
{"zip_code":"6078352","kana_pref":"ｷｮｳﾄﾌ","kana_city":"ｷｮｳﾄｼﾔﾏｼﾅｸ","kana_address":"ﾆｼﾉｷｼﾉｼﾀﾁｮｳ","pref":"京都府","city":"京都市山科区","address":"西野岸ノ下町"},
{"zip_code":"6078356","kana_pref":"ｷｮｳﾄﾌ","kana_city":"ｷｮｳﾄｼﾔﾏｼﾅｸ","kana_address":"ﾆｼﾉｺﾞﾄｳ","pref":"京都府","city":"京都市山科区","address":"西野後藤"},
{"zip_code":"6078354","kana_pref":"ｷｮｳﾄﾌ","kana_city":"ｷｮｳﾄｼﾔﾏｼﾅｸ","kana_address":"ﾆｼﾉｺﾔﾅｷﾞﾁｮｳ","pref":"京都府","city":"京都市山科区","address":"西野小柳町"},
{"zip_code":"6078347","kana_pref":"ｷｮｳﾄﾌ","kana_city":"ｷｮｳﾄｼﾔﾏｼﾅｸ","kana_address":"ﾆｼﾉｻｷﾞﾁｮｳﾁｮｳ","pref":"京都府","city":"京都市山科区","address":"西野左義長町"},
{"zip_code":"6078346","kana_pref":"ｷｮｳﾄﾌ","kana_city":"ｷｮｳﾄｼﾔﾏｼﾅｸ","kana_address":"ﾆｼﾉｻﾝｶｲﾁｮｳ","pref":"京都府","city":"京都市山科区","address":"西野山階町"},
{"zip_code":"6078353","kana_pref":"ｷｮｳﾄﾌ","kana_city":"ｷｮｳﾄｼﾔﾏｼﾅｸ","kana_address":"ﾆｼﾉﾉｲﾛﾁｮｳ","pref":"京都府","city":"京都市山科区","address":"西野野色町"},
{"zip_code":"6078351","kana_pref":"ｷｮｳﾄﾌ","kana_city":"ｷｮｳﾄｼﾔﾏｼﾅｸ","kana_address":"ﾆｼﾉﾊﾁﾏﾝﾃﾞﾝﾁｮｳ","pref":"京都府","city":"京都市山科区","address":"西野八幡田町"},
{"zip_code":"6078357","kana_pref":"ｷｮｳﾄﾌ","kana_city":"ｷｮｳﾄｼﾔﾏｼﾅｸ","kana_address":"ﾆｼﾉﾋﾂｶﾞﾜﾁｮｳ","pref":"京都府","city":"京都市山科区","address":"西野櫃川町"},
{"zip_code":"6078348","kana_pref":"ｷｮｳﾄﾌ","kana_city":"ｷｮｳﾄｼﾔﾏｼﾅｸ","kana_address":"ﾆｼﾉﾋﾛﾐﾁｮｳ","pref":"京都府","city":"京都市山科区","address":"西野広見町"},
{"zip_code":"6078358","kana_pref":"ｷｮｳﾄﾌ","kana_city":"ｷｮｳﾄｼﾔﾏｼﾅｸ","kana_address":"ﾆｼﾉﾑﾒﾓﾄﾁｮｳ","pref":"京都府","city":"京都市山科区","address":"西野楳本町"},
{"zip_code":"6078342","kana_pref":"ｷｮｳﾄﾌ","kana_city":"ｷｮｳﾄｼﾔﾏｼﾅｸ","kana_address":"ﾆｼﾉﾖｳｽﾐﾁｮｳ","pref":"京都府","city":"京都市山科区","address":"西野様子見町"},
{"zip_code":"6078345","kana_pref":"ｷｮｳﾄﾌ","kana_city":"ｷｮｳﾄｼﾔﾏｼﾅｸ","kana_address":"ﾆｼﾉﾘｷｭｳﾁｮｳ","pref":"京都府","city":"京都市山科区","address":"西野離宮町"},
{"zip_code":"6078307","kana_pref":"ｷｮｳﾄﾌ","kana_city":"ｷｮｳﾄｼﾔﾏｼﾅｸ","kana_address":"ﾆｼﾉﾔﾏｲﾊﾞﾉｳｴﾁｮｳ","pref":"京都府","city":"京都市山科区","address":"西野山射庭ノ上町"},
{"zip_code":"6078309","kana_pref":"ｷｮｳﾄﾌ","kana_city":"ｷｮｳﾄｼﾔﾏｼﾅｸ","kana_address":"ﾆｼﾉﾔﾏｲﾜｶﾞﾀﾆﾁｮｳ","pref":"京都府","city":"京都市山科区","address":"西野山岩ケ谷町"},
{"zip_code":"6078302","kana_pref":"ｷｮｳﾄﾌ","kana_city":"ｷｮｳﾄｼﾔﾏｼﾅｸ","kana_address":"ﾆｼﾉﾔﾏｶｹﾉｳｴﾁｮｳ","pref":"京都府","city":"京都市山科区","address":"西野山欠ノ上町"},
{"zip_code":"6078308","kana_pref":"ｷｮｳﾄﾌ","kana_city":"ｷｮｳﾄｼﾔﾏｼﾅｸ","kana_address":"ﾆｼﾉﾔﾏｻｸﾗﾉﾊﾞﾊﾞﾁｮｳ","pref":"京都府","city":"京都市山科区","address":"西野山桜ノ馬場町"},
{"zip_code":"6078301","kana_pref":"ｷｮｳﾄﾌ","kana_city":"ｷｮｳﾄｼﾔﾏｼﾅｸ","kana_address":"ﾆｼﾉﾔﾏﾄﾞﾄﾞﾁｮｳ","pref":"京都府","city":"京都市山科区","address":"西野山百々町"},
{"zip_code":"6078305","kana_pref":"ｷｮｳﾄﾌ","kana_city":"ｷｮｳﾄｼﾔﾏｼﾅｸ","kana_address":"ﾆｼﾉﾔﾏﾅｶﾄﾐﾁｮｳ","pref":"京都府","city":"京都市山科区","address":"西野山中臣町"},
{"zip_code":"6078306","kana_pref":"ｷｮｳﾄﾌ","kana_city":"ｷｮｳﾄｼﾔﾏｼﾅｸ","kana_address":"ﾆｼﾉﾔﾏﾅｶﾄﾘｲﾁｮｳ","pref":"京都府","city":"京都市山科区","address":"西野山中鳥井町"},
{"zip_code":"6078303","kana_pref":"ｷｮｳﾄﾌ","kana_city":"ｷｮｳﾄｼﾔﾏｼﾅｸ","kana_address":"ﾆｼﾉﾔﾏﾅｶﾊﾀﾁｮｳ","pref":"京都府","city":"京都市山科区","address":"西野山中畑町"},
{"zip_code":"6078304","kana_pref":"ｷｮｳﾄﾌ","kana_city":"ｷｮｳﾄｼﾔﾏｼﾅｸ","kana_address":"ﾆｼﾉﾔﾏﾐﾅﾐﾊﾀﾁｮｳ","pref":"京都府","city":"京都市山科区","address":"西野山南畑町"},
{"zip_code":"6078311","kana_pref":"ｷｮｳﾄﾌ","kana_city":"ｷｮｳﾄｼﾔﾏｼﾅｸ","kana_address":"ﾆｼﾉﾔﾏﾔﾏﾀﾞ","pref":"京都府","city":"京都市山科区","address":"西野山山田"},
{"zip_code":"6078091","kana_pref":"ｷｮｳﾄﾌ","kana_city":"ｷｮｳﾄｼﾔﾏｼﾅｸ","kana_address":"ﾊﾁｹﾝﾔｼｷﾁｮｳ","pref":"京都府","city":"京都市山科区","address":"八軒屋敷町"},
{"zip_code":"6078144","kana_pref":"ｷｮｳﾄﾌ","kana_city":"ｷｮｳﾄｼﾔﾏｼﾅｸ","kana_address":"ﾋｶﾞｼﾉｲﾉｳｴﾁｮｳ","pref":"京都府","city":"京都市山科区","address":"東野井ノ上町"},
{"zip_code":"6078156","kana_pref":"ｷｮｳﾄﾌ","kana_city":"ｷｮｳﾄｼﾔﾏｼﾅｸ","kana_address":"ﾋｶﾞｼﾉｶﾀｻｶﾞﾘﾁｮｳ","pref":"京都府","city":"京都市山科区","address":"東野片下リ町"},
{"zip_code":"6078141","kana_pref":"ｷｮｳﾄﾌ","kana_city":"ｷｮｳﾄｼﾔﾏｼﾅｸ","kana_address":"ﾋｶﾞｼﾉｷﾀｲﾉｳｴﾁｮｳ","pref":"京都府","city":"京都市山科区","address":"東野北井ノ上町"},
{"zip_code":"6078155","kana_pref":"ｷｮｳﾄﾌ","kana_city":"ｷｮｳﾄｼﾔﾏｼﾅｸ","kana_address":"ﾋｶﾞｼﾉｷﾂﾈﾔﾌﾞﾁｮｳ","pref":"京都府","city":"京都市山科区","address":"東野狐藪町"},
{"zip_code":"6078151","kana_pref":"ｷｮｳﾄﾌ","kana_city":"ｷｮｳﾄｼﾔﾏｼﾅｸ","kana_address":"ﾋｶﾞｼﾉﾀｹﾀﾞ","pref":"京都府","city":"京都市山科区","address":"東野竹田"},
{"zip_code":"6078142","kana_pref":"ｷｮｳﾄﾌ","kana_city":"ｷｮｳﾄｼﾔﾏｼﾅｸ","kana_address":"ﾋｶﾞｼﾉﾅｶｲﾉｳｴﾁｮｳ","pref":"京都府","city":"京都市山科区","address":"東野中井ノ上町"},
{"zip_code":"6078145","kana_pref":"ｷｮｳﾄﾌ","kana_city":"ｷｮｳﾄｼﾔﾏｼﾅｸ","kana_address":"ﾋｶﾞｼﾉﾊｯﾀﾝﾊﾞﾀﾁｮｳ","pref":"京都府","city":"京都市山科区","address":"東野八反畑町"},
{"zip_code":"6078153","kana_pref":"ｷｮｳﾄﾌ","kana_city":"ｷｮｳﾄｼﾔﾏｼﾅｸ","kana_address":"ﾋｶﾞｼﾉﾋｬｸﾋﾞｮｳｼﾁｮｳ","pref":"京都府","city":"京都市山科区","address":"東野百拍子町"},
{"zip_code":"6078146","kana_pref":"ｷｮｳﾄﾌ","kana_city":"ｷｮｳﾄｼﾔﾏｼﾅｸ","kana_address":"ﾋｶﾞｼﾉﾌﾞﾀｲﾁｮｳ","pref":"京都府","city":"京都市山科区","address":"東野舞台町"},
{"zip_code":"6078143","kana_pref":"ｷｮｳﾄﾌ","kana_city":"ｷｮｳﾄｼﾔﾏｼﾅｸ","kana_address":"ﾋｶﾞｼﾉﾐﾅﾐｲﾉｳｴﾁｮｳ","pref":"京都府","city":"京都市山科区","address":"東野南井ノ上町"},
{"zip_code":"6078147","kana_pref":"ｷｮｳﾄﾌ","kana_city":"ｷｮｳﾄｼﾔﾏｼﾅｸ","kana_address":"ﾋｶﾞｼﾉﾓﾘﾉﾁｮｳ","pref":"京都府","city":"京都市山科区","address":"東野森野町"},
{"zip_code":"6078154","kana_pref":"ｷｮｳﾄﾌ","kana_city":"ｷｮｳﾄｼﾔﾏｼﾅｸ","kana_address":"ﾋｶﾞｼﾉﾓﾝｸﾞﾁﾁｮｳ","pref":"京都府","city":"京都市山科区","address":"東野門口町"},
{"zip_code":"6078152","kana_pref":"ｷｮｳﾄﾌ","kana_city":"ｷｮｳﾄｼﾔﾏｼﾅｸ","kana_address":"ﾋｶﾞｼﾉﾔｼﾛ","pref":"京都府","city":"京都市山科区","address":"東野八代"},
{"zip_code":"6078051","kana_pref":"ｷｮｳﾄﾌ","kana_city":"ｷｮｳﾄｼﾔﾏｼﾅｸ","kana_address":"ﾋｹﾞﾁｬﾔﾁｮｳﾁﾝﾁｮｳ","pref":"京都府","city":"京都市山科区","address":"髭茶屋桃燈町"},
{"zip_code":"6078052","kana_pref":"ｷｮｳﾄﾌ","kana_city":"ｷｮｳﾄｼﾔﾏｼﾅｸ","kana_address":"ﾋｹﾞﾁｬﾔﾔｼｷﾁｮｳ","pref":"京都府","city":"京都市山科区","address":"髭茶屋屋敷町"},
{"zip_code":"6078493","kana_pref":"ｷｮｳﾄﾌ","kana_city":"ｷｮｳﾄｼﾔﾏｼﾅｸ","kana_address":"ﾋﾉｵｶｱｻﾀﾞﾁｮｳ","pref":"京都府","city":"京都市山科区","address":"日ノ岡朝田町"},
{"zip_code":"6078498","kana_pref":"ｷｮｳﾄﾌ","kana_city":"ｷｮｳﾄｼﾔﾏｼﾅｸ","kana_address":"ﾋﾉｵｶｲｼﾂﾞｶﾁｮｳ","pref":"京都府","city":"京都市山科区","address":"日ノ岡石塚町"},
{"zip_code":"6078491","kana_pref":"ｷｮｳﾄﾌ","kana_city":"ｷｮｳﾄｼﾔﾏｼﾅｸ","kana_address":"ﾋﾉｵｶｲｯｻｲｷｮｳﾀﾞﾆﾁｮｳ","pref":"京都府","city":"京都市山科区","address":"日ノ岡一切経谷町"},
{"zip_code":"6078492","kana_pref":"ｷｮｳﾄﾌ","kana_city":"ｷｮｳﾄｼﾔﾏｼﾅｸ","kana_address":"ﾋﾉｵｶｴﾋﾞｽﾀﾞﾆﾁｮｳ","pref":"京都府","city":"京都市山科区","address":"日ノ岡夷谷町"},
{"zip_code":"6078495","kana_pref":"ｷｮｳﾄﾌ","kana_city":"ｷｮｳﾄｼﾔﾏｼﾅｸ","kana_address":"ﾋﾉｵｶｶﾓﾄﾞﾁｮｳ","pref":"京都府","city":"京都市山科区","address":"日ノ岡鴨土町"},
{"zip_code":"6078496","kana_pref":"ｷｮｳﾄﾌ","kana_city":"ｷｮｳﾄｼﾔﾏｼﾅｸ","kana_address":"ﾋﾉｵｶｻｶﾜｷﾁｮｳ","pref":"京都府","city":"京都市山科区","address":"日ノ岡坂脇町"},
{"zip_code":"6078494","kana_pref":"ｷｮｳﾄﾌ","kana_city":"ｷｮｳﾄｼﾔﾏｼﾅｸ","kana_address":"ﾋﾉｵｶﾂﾂﾐﾀﾞﾆﾁｮｳ","pref":"京都府","city":"京都市山科区","address":"日ノ岡堤谷町"},
{"zip_code":"6078497","kana_pref":"ｷｮｳﾄﾌ","kana_city":"ｷｮｳﾄｼﾔﾏｼﾅｸ","kana_address":"ﾋﾉｵｶﾎｯﾊﾟﾗﾁｮｳ","pref":"京都府","city":"京都市山科区","address":"日ノ岡ホッパラ町"},
{"zip_code":"6078429","kana_pref":"ｷｮｳﾄﾌ","kana_city":"ｷｮｳﾄｼﾔﾏｼﾅｸ","kana_address":"ﾐｻｻｷﾞｱﾗﾏｷﾁｮｳ","pref":"京都府","city":"京都市山科区","address":"御陵荒巻町"},
{"zip_code":"6078407","kana_pref":"ｷｮｳﾄﾌ","kana_city":"ｷｮｳﾄｼﾔﾏｼﾅｸ","kana_address":"ﾐｻｻｷﾞｱﾝｼｮｳｼﾞﾁｮｳ","pref":"京都府","city":"京都市山科区","address":"御陵安祥寺町"},
{"zip_code":"6078433","kana_pref":"ｷｮｳﾄﾌ","kana_city":"ｷｮｳﾄｼﾔﾏｼﾅｸ","kana_address":"ﾐｻｻｷﾞｲｹﾂﾂﾐﾁｮｳ","pref":"京都府","city":"京都市山科区","address":"御陵池堤町"},
{"zip_code":"6078418","kana_pref":"ｷｮｳﾄﾌ","kana_city":"ｷｮｳﾄｼﾔﾏｼﾅｸ","kana_address":"ﾐｻｻｷﾞｳｼｵﾁｮｳ","pref":"京都府","city":"京都市山科区","address":"御陵牛尾町"},
{"zip_code":"6078403","kana_pref":"ｷｮｳﾄﾌ","kana_city":"ｷｮｳﾄｼﾔﾏｼﾅｸ","kana_address":"ﾐｻｻｷﾞｵｵｲﾜ","pref":"京都府","city":"京都市山科区","address":"御陵大岩"},
{"zip_code":"6078404","kana_pref":"ｷｮｳﾄﾌ","kana_city":"ｷｮｳﾄｼﾔﾏｼﾅｸ","kana_address":"ﾐｻｻｷﾞｵｵﾀﾆﾁｮｳ","pref":"京都府","city":"京都市山科区","address":"御陵大谷町"},
{"zip_code":"6078411","kana_pref":"ｷｮｳﾄﾌ","kana_city":"ｷｮｳﾄｼﾔﾏｼﾅｸ","kana_address":"ﾐｻｻｷﾞｵｵﾂﾊﾞﾀﾁｮｳ","pref":"京都府","city":"京都市山科区","address":"御陵大津畑町"},
{"zip_code":"6078431","kana_pref":"ｷｮｳﾄﾌ","kana_city":"ｷｮｳﾄｼﾔﾏｼﾅｸ","kana_address":"ﾐｻｻｷﾞｵｶﾁｮｳ","pref":"京都府","city":"京都市山科区","address":"御陵岡町"},
{"zip_code":"6078421","kana_pref":"ｷｮｳﾄﾌ","kana_city":"ｷｮｳﾄｼﾔﾏｼﾅｸ","kana_address":"ﾐｻｻｷﾞｵｶﾉﾆｼﾁｮｳ","pref":"京都府","city":"京都市山科区","address":"御陵岡ノ西町"},
{"zip_code":"6078425","kana_pref":"ｷｮｳﾄﾌ","kana_city":"ｷｮｳﾄｼﾔﾏｼﾅｸ","kana_address":"ﾐｻｻｷﾞｶﾐｺﾞﾋﾞｮｳﾉﾁｮｳ","pref":"京都府","city":"京都市山科区","address":"御陵上御廟野町"},
{"zip_code":"6078432","kana_pref":"ｷｮｳﾄﾌ","kana_city":"ｷｮｳﾄｼﾔﾏｼﾅｸ","kana_address":"ﾐｻｻｷﾞｶﾓﾄﾁｮｳ","pref":"京都府","city":"京都市山科区","address":"御陵鴨戸町"},
{"zip_code":"6078427","kana_pref":"ｷｮｳﾄﾌ","kana_city":"ｷｮｳﾄｼﾔﾏｼﾅｸ","kana_address":"ﾐｻｻｷﾞｸﾎﾞﾁｮｳ","pref":"京都府","city":"京都市山科区","address":"御陵久保町"},
{"zip_code":"6078402","kana_pref":"ｷｮｳﾄﾌ","kana_city":"ｷｮｳﾄｼﾔﾏｼﾅｸ","kana_address":"ﾐｻｻｷﾞｸﾛｲﾜ","pref":"京都府","city":"京都市山科区","address":"御陵黒岩"},
{"zip_code":"6078401","kana_pref":"ｷｮｳﾄﾌ","kana_city":"ｷｮｳﾄｼﾔﾏｼﾅｸ","kana_address":"ﾐｻｻｷﾞｻﾜﾉｶﾜﾁｮｳ","pref":"京都府","city":"京都市山科区","address":"御陵沢ノ川町"},
{"zip_code":"6078413","kana_pref":"ｷｮｳﾄﾌ","kana_city":"ｷｮｳﾄｼﾔﾏｼﾅｸ","kana_address":"ﾐｻｻｷﾞｻﾝｿﾞｳﾁｮｳ","pref":"京都府","city":"京都市山科区","address":"御陵三蔵町"},
{"zip_code":"6078412","kana_pref":"ｷｮｳﾄﾌ","kana_city":"ｷｮｳﾄｼﾔﾏｼﾅｸ","kana_address":"ﾐｻｻｷﾞｼﾁｮｳﾉﾁｮｳ","pref":"京都府","city":"京都市山科区","address":"御陵四丁野町"},
{"zip_code":"6078426","kana_pref":"ｷｮｳﾄﾌ","kana_city":"ｷｮｳﾄｼﾔﾏｼﾅｸ","kana_address":"ﾐｻｻｷﾞｼﾓｺﾞﾋﾞｮｳﾉﾁｮｳ","pref":"京都府","city":"京都市山科区","address":"御陵下御廟野町"},
{"zip_code":"6078416","kana_pref":"ｷｮｳﾄﾌ","kana_city":"ｷｮｳﾄｼﾔﾏｼﾅｸ","kana_address":"ﾐｻｻｷﾞｼﾝﾄﾞｳﾁｮｳ","pref":"京都府","city":"京都市山科区","address":"御陵進藤町"},
{"zip_code":"6078405","kana_pref":"ｷｮｳﾄﾌ","kana_city":"ｷｮｳﾄｼﾔﾏｼﾅｸ","kana_address":"ﾐｻｻｷﾞﾀﾔﾏﾁｮｳ","pref":"京都府","city":"京都市山科区","address":"御陵田山町"},
{"zip_code":"6078419","kana_pref":"ｷｮｳﾄﾌ","kana_city":"ｷｮｳﾄｼﾔﾏｼﾅｸ","kana_address":"ﾐｻｻｷﾞﾀﾞﾝﾉｳｼﾛ","pref":"京都府","city":"京都市山科区","address":"御陵檀ノ後"},
{"zip_code":"6078428","kana_pref":"ｷｮｳﾄﾌ","kana_city":"ｷｮｳﾄｼﾔﾏｼﾅｸ","kana_address":"ﾐｻｻｷﾞﾁｱﾗｲﾁｮｳ","pref":"京都府","city":"京都市山科区","address":"御陵血洗町"},
{"zip_code":"6078409","kana_pref":"ｷｮｳﾄﾌ","kana_city":"ｷｮｳﾄｼﾔﾏｼﾅｸ","kana_address":"ﾐｻｻｷﾞﾃﾝﾄｸﾁｮｳ","pref":"京都府","city":"京都市山科区","address":"御陵天徳町"},
{"zip_code":"6078408","kana_pref":"ｷｮｳﾄﾌ","kana_city":"ｷｮｳﾄｼﾔﾏｼﾅｸ","kana_address":"ﾐｻｻｷﾞﾄﾘﾉﾑｶｲﾁｮｳ","pref":"京都府","city":"京都市山科区","address":"御陵鳥ノ向町"},
{"zip_code":"6078414","kana_pref":"ｷｮｳﾄﾌ","kana_city":"ｷｮｳﾄｼﾔﾏｼﾅｸ","kana_address":"ﾐｻｻｷﾞﾅｶｳﾁﾁｮｳ","pref":"京都府","city":"京都市山科区","address":"御陵中内町"},
{"zip_code":"6078415","kana_pref":"ｷｮｳﾄﾌ","kana_city":"ｷｮｳﾄｼﾔﾏｼﾅｸ","kana_address":"ﾐｻｻｷﾞﾅｶｽｼﾞﾁｮｳ","pref":"京都府","city":"京都市山科区","address":"御陵中筋町"},
{"zip_code":"6078424","kana_pref":"ｷｮｳﾄﾌ","kana_city":"ｷｮｳﾄｼﾔﾏｼﾅｸ","kana_address":"ﾐｻｻｷﾞﾊﾗﾆｼﾁｮｳ","pref":"京都府","city":"京都市山科区","address":"御陵原西町"},
{"zip_code":"6078406","kana_pref":"ｷｮｳﾄﾌ","kana_city":"ｷｮｳﾄｼﾔﾏｼﾅｸ","kana_address":"ﾐｻｻｷﾞﾋﾗﾊﾞﾔｼﾁｮｳ","pref":"京都府","city":"京都市山科区","address":"御陵平林町"},
{"zip_code":"6078422","kana_pref":"ｷｮｳﾄﾌ","kana_city":"ｷｮｳﾄｼﾔﾏｼﾅｸ","kana_address":"ﾐｻｻｷﾞﾌｳｼﾞﾔﾏﾁｮｳ","pref":"京都府","city":"京都市山科区","address":"御陵封ジ山町"},
{"zip_code":"6078417","kana_pref":"ｷｮｳﾄﾌ","kana_city":"ｷｮｳﾄｼﾔﾏｼﾅｸ","kana_address":"ﾐｻｻｷﾞﾍﾞｯｼﾖﾁｮｳ","pref":"京都府","city":"京都市山科区","address":"御陵別所町"},
{"zip_code":"6078423","kana_pref":"ｷｮｳﾄﾌ","kana_city":"ｷｮｳﾄｼﾔﾏｼﾅｸ","kana_address":"ﾐｻｻｷﾞﾔﾏﾉﾀﾆ","pref":"京都府","city":"京都市山科区","address":"御陵山ノ谷"}]}