{"zip_code":[
{"zip_code":"6100000","kana_pref":"ｷｮｳﾄﾌ","kana_city":"ｷｮｳﾄｼﾆｼｷｮｳｸ","kana_address":"","pref":"京都府","city":"京都市西京区","address":""},
{"zip_code":"6101101","kana_pref":"ｷｮｳﾄﾌ","kana_city":"ｷｮｳﾄｼﾆｼｷｮｳｸ","kana_address":"ｵｵｴｷﾀｸﾂｶｹﾁｮｳ","pref":"京都府","city":"京都市西京区","address":"大枝北沓掛町"},
{"zip_code":"6101112","kana_pref":"ｷｮｳﾄﾌ","kana_city":"ｷｮｳﾄｼﾆｼｷｮｳｸ","kana_address":"ｵｵｴｷﾀﾌｸﾆｼﾁｮｳ","pref":"京都府","city":"京都市西京区","address":"大枝北福西町"},
{"zip_code":"6101106","kana_pref":"ｷｮｳﾄﾌ","kana_city":"ｷｮｳﾄｼﾆｼｷｮｳｸ","kana_address":"ｵｵｴｸﾂｶｹﾁｮｳ","pref":"京都府","city":"京都市西京区","address":"大枝沓掛町"},
{"zip_code":"6101105","kana_pref":"ｷｮｳﾄﾌ","kana_city":"ｷｮｳﾄｼﾆｼｷｮｳｸ","kana_address":"ｵｵｴﾂｶﾊﾗﾁｮｳ","pref":"京都府","city":"京都市西京区","address":"大枝塚原町"},
{"zip_code":"6101104","kana_pref":"ｷｮｳﾄﾌ","kana_city":"ｷｮｳﾄｼﾆｼｷｮｳｸ","kana_address":"ｵｵｴﾅｶﾔﾏﾁｮｳ","pref":"京都府","city":"京都市西京区","address":"大枝中山町"},
{"zip_code":"6101141","kana_pref":"ｷｮｳﾄﾌ","kana_city":"ｷｮｳﾄｼﾆｼｷｮｳｸ","kana_address":"ｵｵｴﾆｼｼﾝﾊﾞﾔｼﾁｮｳ","pref":"京都府","city":"京都市西京区","address":"大枝西新林町"},
{"zip_code":"6101151","kana_pref":"ｷｮｳﾄﾌ","kana_city":"ｷｮｳﾄｼﾆｼｷｮｳｸ","kana_address":"ｵｵｴﾆｼﾅｶﾞﾁｮｳ","pref":"京都府","city":"京都市西京区","address":"大枝西長町"},
{"zip_code":"6101142","kana_pref":"ｷｮｳﾄﾌ","kana_city":"ｷｮｳﾄｼﾆｼｷｮｳｸ","kana_address":"ｵｵｴﾋｶﾞｼｼﾝﾊﾞﾔｼﾁｮｳ","pref":"京都府","city":"京都市西京区","address":"大枝東新林町"},
{"zip_code":"6101111","kana_pref":"ｷｮｳﾄﾌ","kana_city":"ｷｮｳﾄｼﾆｼｷｮｳｸ","kana_address":"ｵｵｴﾋｶﾞｼﾅｶﾞﾁｮｳ","pref":"京都府","city":"京都市西京区","address":"大枝東長町"},
{"zip_code":"6101113","kana_pref":"ｷｮｳﾄﾌ","kana_city":"ｷｮｳﾄｼﾆｼｷｮｳｸ","kana_address":"ｵｵｴﾐﾅﾐﾌｸﾆｼﾁｮｳ","pref":"京都府","city":"京都市西京区","address":"大枝南福西町"},
{"zip_code":"6101134","kana_pref":"ｷｮｳﾄﾌ","kana_city":"ｷｮｳﾄｼﾆｼｷｮｳｸ","kana_address":"ｵｵﾊﾗﾉｲｼﾂﾞｸﾘﾁｮｳ","pref":"京都府","city":"京都市西京区","address":"大原野石作町"},
{"zip_code":"6101135","kana_pref":"ｷｮｳﾄﾌ","kana_city":"ｷｮｳﾄｼﾆｼｷｮｳｸ","kana_address":"ｵｵﾊﾗﾉｲｽﾞﾘﾊﾁｮｳ","pref":"京都府","city":"京都市西京区","address":"大原野出灰町"},
{"zip_code":"6101128","kana_pref":"ｷｮｳﾄﾌ","kana_city":"ｷｮｳﾄｼﾆｼｷｮｳｸ","kana_address":"ｵｵﾊﾗﾉｲﾜﾐﾁｮｳ","pref":"京都府","city":"京都市西京区","address":"大原野石見町"},
{"zip_code":"6101131","kana_pref":"ｷｮｳﾄﾌ","kana_city":"ｷｮｳﾄｼﾆｼｷｮｳｸ","kana_address":"ｵｵﾊﾗﾉｳｴﾊﾞﾁｮｳ","pref":"京都府","city":"京都市西京区","address":"大原野上羽町"},
{"zip_code":"6101133","kana_pref":"ｷｮｳﾄﾌ","kana_city":"ｷｮｳﾄｼﾆｼｷｮｳｸ","kana_address":"ｵｵﾊﾗﾉｵｼｵﾁｮｳ","pref":"京都府","city":"京都市西京区","address":"大原野小塩町"},
{"zip_code":"6101126","kana_pref":"ｷｮｳﾄﾌ","kana_city":"ｷｮｳﾄｼﾆｼｷｮｳｸ","kana_address":"ｵｵﾊﾗﾉｶﾐｻﾞﾄｵｼﾞｶﾁｮｳ","pref":"京都府","city":"京都市西京区","address":"大原野上里男鹿町"},
{"zip_code":"6101125","kana_pref":"ｷｮｳﾄﾌ","kana_city":"ｷｮｳﾄｼﾆｼｷｮｳｸ","kana_address":"ｵｵﾊﾗﾉｶﾐｻﾞﾄｶﾂﾔﾏﾁｮｳ","pref":"京都府","city":"京都市西京区","address":"大原野上里勝山町"},
{"zip_code":"6101121","kana_pref":"ｷｮｳﾄﾌ","kana_city":"ｷｮｳﾄｼﾆｼｷｮｳｸ","kana_address":"ｵｵﾊﾗﾉｶﾐｻﾞﾄｷﾀﾉﾁｮｳ","pref":"京都府","city":"京都市西京区","address":"大原野上里北ノ町"},
{"zip_code":"6101127","kana_pref":"ｷｮｳﾄﾌ","kana_city":"ｷｮｳﾄｼﾆｼｷｮｳｸ","kana_address":"ｵｵﾊﾗﾉｶﾐｻﾞﾄﾄﾘﾐﾁｮｳ","pref":"京都府","city":"京都市西京区","address":"大原野上里鳥見町"},
{"zip_code":"6101123","kana_pref":"ｷｮｳﾄﾌ","kana_city":"ｷｮｳﾄｼﾆｼｷｮｳｸ","kana_address":"ｵｵﾊﾗﾉｶﾐｻﾞﾄﾐﾅﾐﾉﾁｮｳ","pref":"京都府","city":"京都市西京区","address":"大原野上里南ノ町"},
{"zip_code":"6101124","kana_pref":"ｷｮｳﾄﾌ","kana_city":"ｷｮｳﾄｼﾆｼｷｮｳｸ","kana_address":"ｵｵﾊﾗﾉｶﾐｻﾞﾄﾓﾐｼﾞﾁｮｳ","pref":"京都府","city":"京都市西京区","address":"大原野上里紅葉町"},
{"zip_code":"6101152","kana_pref":"ｷｮｳﾄﾌ","kana_city":"ｷｮｳﾄｼﾆｼｷｮｳｸ","kana_address":"ｵｵﾊﾗﾉｷﾀｶｽｶﾞﾁｮｳ","pref":"京都府","city":"京都市西京区","address":"大原野北春日町"},
{"zip_code":"6101136","kana_pref":"ｷｮｳﾄﾌ","kana_city":"ｷｮｳﾄｼﾆｼｷｮｳｸ","kana_address":"ｵｵﾊﾗﾉﾄﾉﾊﾀﾁｮｳ","pref":"京都府","city":"京都市西京区","address":"大原野外畑町"},
{"zip_code":"6101146","kana_pref":"ｷｮｳﾄﾌ","kana_city":"ｷｮｳﾄｼﾆｼｷｮｳｸ","kana_address":"ｵｵﾊﾗﾉﾆｼｻｶｲﾀﾞﾆﾁｮｳ","pref":"京都府","city":"京都市西京区","address":"大原野西境谷町"},
{"zip_code":"6101145","kana_pref":"ｷｮｳﾄﾌ","kana_city":"ｷｮｳﾄｼﾆｼｷｮｳｸ","kana_address":"ｵｵﾊﾗﾉﾆｼﾀｹﾉｻﾄﾁｮｳ","pref":"京都府","city":"京都市西京区","address":"大原野西竹の里町"},
{"zip_code":"6101132","kana_pref":"ｷｮｳﾄﾌ","kana_city":"ｷｮｳﾄｼﾆｼｷｮｳｸ","kana_address":"ｵｵﾊﾗﾉﾊｲｶﾞﾀﾁｮｳ","pref":"京都府","city":"京都市西京区","address":"大原野灰方町"},
{"zip_code":"6101143","kana_pref":"ｷｮｳﾄﾌ","kana_city":"ｷｮｳﾄｼﾆｼｷｮｳｸ","kana_address":"ｵｵﾊﾗﾉﾋｶﾞｼｻｶｲﾀﾞﾆﾁｮｳ","pref":"京都府","city":"京都市西京区","address":"大原野東境谷町"},
{"zip_code":"6101144","kana_pref":"ｷｮｳﾄﾌ","kana_city":"ｷｮｳﾄｼﾆｼｷｮｳｸ","kana_address":"ｵｵﾊﾗﾉﾋｶﾞｼﾀｹﾉｻﾄﾁｮｳ","pref":"京都府","city":"京都市西京区","address":"大原野東竹の里町"},
{"zip_code":"6101122","kana_pref":"ｷｮｳﾄﾌ","kana_city":"ｷｮｳﾄｼﾆｼｷｮｳｸ","kana_address":"ｵｵﾊﾗﾉﾋｶﾞｼﾉﾁｮｳ","pref":"京都府","city":"京都市西京区","address":"大原野東野町"},
{"zip_code":"6101153","kana_pref":"ｷｮｳﾄﾌ","kana_city":"ｷｮｳﾄｼﾆｼｷｮｳｸ","kana_address":"ｵｵﾊﾗﾉﾐﾅﾐｶｽｶﾞﾁｮｳ","pref":"京都府","city":"京都市西京区","address":"大原野南春日町"},
{"zip_code":"6101102","kana_pref":"ｷｮｳﾄﾌ","kana_city":"ｷｮｳﾄｼﾆｼｷｮｳｸ","kana_address":"ｺﾞﾘｮｳｵｵｴﾔﾏﾁｮｳ","pref":"京都府","city":"京都市西京区","address":"御陵大枝山町"},
{"zip_code":"6101103","kana_pref":"ｷｮｳﾄﾌ","kana_city":"ｷｮｳﾄｼﾆｼｷｮｳｸ","kana_address":"ｺﾞﾘｮｳﾐﾈｶﾞﾄﾞｳﾁｮｳ","pref":"京都府","city":"京都市西京区","address":"御陵峰ケ堂町"},
{"zip_code":"6100100","kana_pref":"ｷｮｳﾄﾌ","kana_city":"ｼﾞｮｳﾖｳｼ","kana_address":"","pref":"京都府","city":"城陽市","address":""},
{"zip_code":"6100114","kana_pref":"ｷｮｳﾄﾌ","kana_city":"ｼﾞｮｳﾖｳｼ","kana_address":"ｲﾁﾉﾍﾞ","pref":"京都府","city":"城陽市","address":"市辺"},
{"zip_code":"6100115","kana_pref":"ｷｮｳﾄﾌ","kana_city":"ｼﾞｮｳﾖｳｼ","kana_address":"ｶﾝﾉﾝﾄﾞｳ","pref":"京都府","city":"城陽市","address":"観音堂"},
{"zip_code":"6100102","kana_pref":"ｷｮｳﾄﾌ","kana_city":"ｼﾞｮｳﾖｳｼ","kana_address":"ｸｾ","pref":"京都府","city":"城陽市","address":"久世"},
{"zip_code":"6100103","kana_pref":"ｷｮｳﾄﾌ","kana_city":"ｼﾞｮｳﾖｳｼ","kana_address":"ｺｳﾂﾞﾔ","pref":"京都府","city":"城陽市","address":"上津屋"},
{"zip_code":"6100121","kana_pref":"ｷｮｳﾄﾌ","kana_city":"ｼﾞｮｳﾖｳｼ","kana_address":"ﾃﾗﾀﾞ","pref":"京都府","city":"城陽市","address":"寺田"},
{"zip_code":"6100111","kana_pref":"ｷｮｳﾄﾌ","kana_city":"ｼﾞｮｳﾖｳｼ","kana_address":"ﾄﾉ","pref":"京都府","city":"城陽市","address":"富野"},
{"zip_code":"6100113","kana_pref":"ｷｮｳﾄﾌ","kana_city":"ｼﾞｮｳﾖｳｼ","kana_address":"ﾅｶ","pref":"京都府","city":"城陽市","address":"中"},
{"zip_code":"6100112","kana_pref":"ｷｮｳﾄﾌ","kana_city":"ｼﾞｮｳﾖｳｼ","kana_address":"ﾅｶﾞｲｹ","pref":"京都府","city":"城陽市","address":"長池"},
{"zip_code":"6100116","kana_pref":"ｷｮｳﾄﾌ","kana_city":"ｼﾞｮｳﾖｳｼ","kana_address":"ﾅｼﾏ","pref":"京都府","city":"城陽市","address":"奈島"},
{"zip_code":"6100101","kana_pref":"ｷｮｳﾄﾌ","kana_city":"ｼﾞｮｳﾖｳｼ","kana_address":"ﾋﾗｶﾜ","pref":"京都府","city":"城陽市","address":"平川"},
{"zip_code":"6100117","kana_pref":"ｷｮｳﾄﾌ","kana_city":"ｼﾞｮｳﾖｳｼ","kana_address":"ﾋﾞﾜﾉｼｮｳ","pref":"京都府","city":"城陽市","address":"枇杷庄"},
{"zip_code":"6100118","kana_pref":"ｷｮｳﾄﾌ","kana_city":"ｼﾞｮｳﾖｳｼ","kana_address":"ﾐｽﾞｼ","pref":"京都府","city":"城陽市","address":"水主"},
{"zip_code":"6100300","kana_pref":"ｷｮｳﾄﾌ","kana_city":"ｷｮｳﾀﾅﾍﾞｼ","kana_address":"","pref":"京都府","city":"京田辺市","address":""},
{"zip_code":"6100312","kana_pref":"ｷｮｳﾄﾌ","kana_city":"ｷｮｳﾀﾅﾍﾞｼ","kana_address":"ｲﾉｵｶ","pref":"京都府","city":"京田辺市","address":"飯岡"},
{"zip_code":"6100324","kana_pref":"ｷｮｳﾄﾌ","kana_city":"ｷｮｳﾀﾅﾍﾞｼ","kana_address":"ｳﾂﾀ","pref":"京都府","city":"京田辺市","address":"打田"},
{"zip_code":"6100343","kana_pref":"ｷｮｳﾄﾌ","kana_city":"ｷｮｳﾀﾅﾍﾞｼ","kana_address":"ｵｵｽﾐ","pref":"京都府","city":"京田辺市","address":"大住"},
{"zip_code":"6100351","kana_pref":"ｷｮｳﾄﾌ","kana_city":"ｷｮｳﾀﾅﾍﾞｼ","kana_address":"ｵｵｽﾐｶﾞｵｶ","pref":"京都府","city":"京田辺市","address":"大住ケ丘"},
{"zip_code":"6100352","kana_pref":"ｷｮｳﾄﾌ","kana_city":"ｷｮｳﾀﾅﾍﾞｼ","kana_address":"ｶｽﾐｻﾞｶ","pref":"京都府","city":"京田辺市","address":"花住坂"},
{"zip_code":"6100361","kana_pref":"ｷｮｳﾄﾌ","kana_city":"ｷｮｳﾀﾅﾍﾞｼ","kana_address":"ｶﾜﾗ","pref":"京都府","city":"京田辺市","address":"河原"},
{"zip_code":"6100333","kana_pref":"ｷｮｳﾄﾌ","kana_city":"ｷｮｳﾀﾅﾍﾞｼ","kana_address":"ｶﾝﾅﾋﾞﾀﾞｲ","pref":"京都府","city":"京田辺市","address":"甘南備台"},
{"zip_code":"6100311","kana_pref":"ｷｮｳﾄﾌ","kana_city":"ｷｮｳﾀﾅﾍﾞｼ","kana_address":"ｸｻｳﾁ","pref":"京都府","city":"京田辺市","address":"草内"},
{"zip_code":"6100332","kana_pref":"ｷｮｳﾄﾌ","kana_city":"ｷｮｳﾀﾅﾍﾞｼ","kana_address":"ｺｳﾄﾞ","pref":"京都府","city":"京田辺市","address":"興戸"},
{"zip_code":"6100325","kana_pref":"ｷｮｳﾄﾌ","kana_city":"ｷｮｳﾀﾅﾍﾞｼ","kana_address":"ﾀｶﾌﾈ","pref":"京都府","city":"京田辺市","address":"高船"},
{"zip_code":"6100341","kana_pref":"ｷｮｳﾄﾌ","kana_city":"ｷｮｳﾀﾅﾍﾞｼ","kana_address":"ﾀｷｷﾞ","pref":"京都府","city":"京田辺市","address":"薪"},
{"zip_code":"6100321","kana_pref":"ｷｮｳﾄﾌ","kana_city":"ｷｮｳﾀﾅﾍﾞｼ","kana_address":"ﾀﾀﾗ","pref":"京都府","city":"京田辺市","address":"多々羅"},
{"zip_code":"6100331","kana_pref":"ｷｮｳﾄﾌ","kana_city":"ｷｮｳﾀﾅﾍﾞｼ","kana_address":"ﾀﾅﾍﾞ","pref":"京都府","city":"京田辺市","address":"田辺"},
{"zip_code":"6100334","kana_pref":"ｷｮｳﾄﾌ","kana_city":"ｷｮｳﾀﾅﾍﾞｼ","kana_address":"ﾀﾅﾍﾞﾁｭｳｵｳ","pref":"京都府","city":"京田辺市","address":"田辺中央"},
{"zip_code":"6100326","kana_pref":"ｷｮｳﾄﾌ","kana_city":"ｷｮｳﾀﾅﾍﾞｼ","kana_address":"ﾃﾝﾉｳ","pref":"京都府","city":"京田辺市","address":"天王"},
{"zip_code":"6100315","kana_pref":"ｷｮｳﾄﾌ","kana_city":"ｷｮｳﾀﾅﾍﾞｼ","kana_address":"ﾄﾞｳｼｼｬﾔﾏﾃ","pref":"京都府","city":"京田辺市","address":"同志社山手"},
{"zip_code":"6100362","kana_pref":"ｷｮｳﾄﾌ","kana_city":"ｷｮｳﾀﾅﾍﾞｼ","kana_address":"ﾋｶﾞｼ","pref":"京都府","city":"京田辺市","address":"東"},
{"zip_code":"6100322","kana_pref":"ｷｮｳﾄﾌ","kana_city":"ｷｮｳﾀﾅﾍﾞｼ","kana_address":"ﾌｹﾞﾝｼﾞ","pref":"京都府","city":"京田辺市","address":"普賢寺"},
{"zip_code":"6100342","kana_pref":"ｷｮｳﾄﾌ","kana_city":"ｷｮｳﾀﾅﾍﾞｼ","kana_address":"ﾏﾂｲ","pref":"京都府","city":"京田辺市","address":"松井"},
{"zip_code":"6100353","kana_pref":"ｷｮｳﾄﾌ","kana_city":"ｷｮｳﾀﾅﾍﾞｼ","kana_address":"ﾏﾂｲｶﾞｵｶ","pref":"京都府","city":"京田辺市","address":"松井ケ丘"},
{"zip_code":"6100323","kana_pref":"ｷｮｳﾄﾌ","kana_city":"ｷｮｳﾀﾅﾍﾞｼ","kana_address":"ﾐｽﾞﾄﾘ","pref":"京都府","city":"京田辺市","address":"水取"},
{"zip_code":"6100314","kana_pref":"ｷｮｳﾄﾌ","kana_city":"ｷｮｳﾀﾅﾍﾞｼ","kana_address":"ﾐﾔﾂﾞ","pref":"京都府","city":"京田辺市","address":"宮津"},
{"zip_code":"6100313","kana_pref":"ｷｮｳﾄﾌ","kana_city":"ｷｮｳﾀﾅﾍﾞｼ","kana_address":"ﾐﾔﾏｷ","pref":"京都府","city":"京田辺市","address":"三山木"},
{"zip_code":"6100356","kana_pref":"ｷｮｳﾄﾌ","kana_city":"ｷｮｳﾀﾅﾍﾞｼ","kana_address":"ﾔﾏﾃﾁｭｳｵｳ","pref":"京都府","city":"京田辺市","address":"山手中央"},
{"zip_code":"6100357","kana_pref":"ｷｮｳﾄﾌ","kana_city":"ｷｮｳﾀﾅﾍﾞｼ","kana_address":"ﾔﾏﾃﾋｶﾞｼ","pref":"京都府","city":"京田辺市","address":"山手東"},
{"zip_code":"6100355","kana_pref":"ｷｮｳﾄﾌ","kana_city":"ｷｮｳﾀﾅﾍﾞｼ","kana_address":"ﾔﾏﾃﾆｼ","pref":"京都府","city":"京田辺市","address":"山手西"},
{"zip_code":"6100354","kana_pref":"ｷｮｳﾄﾌ","kana_city":"ｷｮｳﾀﾅﾍﾞｼ","kana_address":"ﾔﾏﾃﾐﾅﾐ","pref":"京都府","city":"京田辺市","address":"山手南"},
{"zip_code":"6100300","kana_pref":"ｷｮｳﾄﾌ","kana_city":"ﾂﾂﾞｷｸﾞﾝｲﾃﾞﾁｮｳ","kana_address":"","pref":"京都府","city":"綴喜郡井手町","address":""},
{"zip_code":"6100302","kana_pref":"ｷｮｳﾄﾌ","kana_city":"ﾂﾂﾞｷｸﾞﾝｲﾃﾞﾁｮｳ","kana_address":"ｲﾃﾞ","pref":"京都府","city":"綴喜郡井手町","address":"井手"},
{"zip_code":"6100301","kana_pref":"ｷｮｳﾄﾌ","kana_city":"ﾂﾂﾞｷｸﾞﾝｲﾃﾞﾁｮｳ","kana_address":"ﾀｶﾞ","pref":"京都府","city":"綴喜郡井手町","address":"多賀"},
{"zip_code":"6100303","kana_pref":"ｷｮｳﾄﾌ","kana_city":"ﾂﾂﾞｷｸﾞﾝｲﾃﾞﾁｮｳ","kana_address":"ﾀﾑﾗｼﾝﾃﾞﾝ","pref":"京都府","city":"綴喜郡井手町","address":"田村新田"},
{"zip_code":"6100200","kana_pref":"ｷｮｳﾄﾌ","kana_city":"ﾂﾂﾞｷｸﾞﾝｳｼﾞﾀﾜﾗﾁｮｳ","kana_address":"","pref":"京都府","city":"綴喜郡宇治田原町","address":""},
{"zip_code":"6100252","kana_pref":"ｷｮｳﾄﾌ","kana_city":"ﾂﾂﾞｷｸﾞﾝｳｼﾞﾀﾜﾗﾁｮｳ","kana_address":"ｱﾗｷ","pref":"京都府","city":"綴喜郡宇治田原町","address":"荒木"},
{"zip_code":"6100261","kana_pref":"ｷｮｳﾄﾌ","kana_city":"ﾂﾂﾞｷｸﾞﾝｳｼﾞﾀﾜﾗﾁｮｳ","kana_address":"ｲﾜﾔﾏ","pref":"京都府","city":"綴喜郡宇治田原町","address":"岩山"},
{"zip_code":"6100211","kana_pref":"ｷｮｳﾄﾌ","kana_city":"ﾂﾂﾞｷｸﾞﾝｳｼﾞﾀﾜﾗﾁｮｳ","kana_address":"ｵｸﾔﾏﾀﾞ","pref":"京都府","city":"綴喜郡宇治田原町","address":"奥山田"},
{"zip_code":"6100251","kana_pref":"ｷｮｳﾄﾌ","kana_city":"ﾂﾂﾞｷｸﾞﾝｳｼﾞﾀﾜﾗﾁｮｳ","kana_address":"ｺｳﾉ","pref":"京都府","city":"綴喜郡宇治田原町","address":"高尾"},
{"zip_code":"6100255","kana_pref":"ｷｮｳﾄﾌ","kana_city":"ﾂﾂﾞｷｸﾞﾝｳｼﾞﾀﾜﾗﾁｮｳ","kana_address":"ｺﾞｳﾉｸﾁ","pref":"京都府","city":"綴喜郡宇治田原町","address":"郷之口"},
{"zip_code":"6100201","kana_pref":"ｷｮｳﾄﾌ","kana_city":"ﾂﾂﾞｷｸﾞﾝｳｼﾞﾀﾜﾗﾁｮｳ","kana_address":"ｾﾞﾝｼﾞｮｳｼﾞ","pref":"京都府","city":"綴喜郡宇治田原町","address":"禅定寺"},
{"zip_code":"6100231","kana_pref":"ｷｮｳﾄﾌ","kana_city":"ﾂﾂﾞｷｸﾞﾝｳｼﾞﾀﾜﾗﾁｮｳ","kana_address":"ﾀﾁｶﾜ","pref":"京都府","city":"綴喜郡宇治田原町","address":"立川"},
{"zip_code":"6100253","kana_pref":"ｷｮｳﾄﾌ","kana_city":"ﾂﾂﾞｷｸﾞﾝｳｼﾞﾀﾜﾗﾁｮｳ","kana_address":"ﾈﾀﾞ","pref":"京都府","city":"綴喜郡宇治田原町","address":"贄田"},
{"zip_code":"6100241","kana_pref":"ｷｮｳﾄﾌ","kana_city":"ﾂﾂﾞｷｸﾞﾝｳｼﾞﾀﾜﾗﾁｮｳ","kana_address":"ﾐﾅﾐ","pref":"京都府","city":"綴喜郡宇治田原町","address":"南"},
{"zip_code":"6100254","kana_pref":"ｷｮｳﾄﾌ","kana_city":"ﾂﾂﾞｷｸﾞﾝｳｼﾞﾀﾜﾗﾁｮｳ","kana_address":"ﾒｲｼﾞｮｳﾀﾞｲ","pref":"京都府","city":"綴喜郡宇治田原町","address":"銘城台"},
{"zip_code":"6100221","kana_pref":"ｷｮｳﾄﾌ","kana_city":"ﾂﾂﾞｷｸﾞﾝｳｼﾞﾀﾜﾗﾁｮｳ","kana_address":"ﾕﾔﾀﾞﾆ","pref":"京都府","city":"綴喜郡宇治田原町","address":"湯屋谷"},
{"zip_code":"6100202","kana_pref":"ｷｮｳﾄﾌ","kana_city":"ﾂﾂﾞｷｸﾞﾝｳｼﾞﾀﾜﾗﾁｮｳ","kana_address":"ﾘｮｸｴﾝｻﾞｶ","pref":"京都府","city":"綴喜郡宇治田原町","address":"緑苑坂"}]}