{"zip_code":[
{"zip_code":"6110000","kana_pref":"ｷｮｳﾄﾌ","kana_city":"ｳｼﾞｼ","kana_address":"","pref":"京都府","city":"宇治市","address":""},
{"zip_code":"6110043","kana_pref":"ｷｮｳﾄﾌ","kana_city":"ｳｼﾞｼ","kana_address":"ｲｾﾀﾞﾁｮｳ","pref":"京都府","city":"宇治市","address":"伊勢田町"},
{"zip_code":"6110044","kana_pref":"ｷｮｳﾄﾌ","kana_city":"ｳｼﾞｼ","kana_address":"ｲｾﾀﾞﾁｮｳﾅｷﾞ","pref":"京都府","city":"宇治市","address":"伊勢田町名木"},
{"zip_code":"6110021","kana_pref":"ｷｮｳﾄﾌ","kana_city":"ｳｼﾞｼ","kana_address":"ｳｼﾞ","pref":"京都府","city":"宇治市","address":"宇治"},
{"zip_code":"6110033","kana_pref":"ｷｮｳﾄﾌ","kana_city":"ｳｼﾞｼ","kana_address":"ｵｵｸﾎﾞﾁｮｳ","pref":"京都府","city":"宇治市","address":"大久保町"},
{"zip_code":"6110042","kana_pref":"ｷｮｳﾄﾌ","kana_city":"ｳｼﾞｼ","kana_address":"ｵｸﾞﾗﾁｮｳ","pref":"京都府","city":"宇治市","address":"小倉町"},
{"zip_code":"6110023","kana_pref":"ｷｮｳﾄﾌ","kana_city":"ｳｼﾞｼ","kana_address":"ｵﾘｲﾀﾞｲ","pref":"京都府","city":"宇治市","address":"折居台"},
{"zip_code":"6110011","kana_pref":"ｷｮｳﾄﾌ","kana_city":"ｳｼﾞｼ","kana_address":"ｺﾞｶｼｮｳ","pref":"京都府","city":"宇治市","address":"五ケ庄"},
{"zip_code":"6110002","kana_pref":"ｷｮｳﾄﾌ","kana_city":"ｳｼﾞｼ","kana_address":"ｺﾊﾀ","pref":"京都府","city":"宇治市","address":"木幡"},
{"zip_code":"6110015","kana_pref":"ｷｮｳﾄﾌ","kana_city":"ｳｼﾞｼ","kana_address":"ｼﾂｶﾜ","pref":"京都府","city":"宇治市","address":"志津川"},
{"zip_code":"6110022","kana_pref":"ｷｮｳﾄﾌ","kana_city":"ｳｼﾞｼ","kana_address":"ｼﾗｶﾜ","pref":"京都府","city":"宇治市","address":"白川"},
{"zip_code":"6110025","kana_pref":"ｷｮｳﾄﾌ","kana_city":"ｳｼﾞｼ","kana_address":"ｼﾝﾒｲ","pref":"京都府","city":"宇治市","address":"神明"},
{"zip_code":"6110032","kana_pref":"ｷｮｳﾄﾌ","kana_city":"ｳｼﾞｼ","kana_address":"ﾃﾗﾔﾏﾀﾞｲ","pref":"京都府","city":"宇治市","address":"寺山台"},
{"zip_code":"6110029","kana_pref":"ｷｮｳﾄﾌ","kana_city":"ｳｼﾞｼ","kana_address":"ﾃﾝｼﾞﾝﾀﾞｲ","pref":"京都府","city":"宇治市","address":"天神台"},
{"zip_code":"6110013","kana_pref":"ｷｮｳﾄﾌ","kana_city":"ｳｼﾞｼ","kana_address":"ﾄﾄﾞｳ","pref":"京都府","city":"宇治市","address":"莵道"},
{"zip_code":"6110028","kana_pref":"ｷｮｳﾄﾌ","kana_city":"ｳｼﾞｼ","kana_address":"ﾅﾝﾘｮｳﾁｮｳ","pref":"京都府","city":"宇治市","address":"南陵町"},
{"zip_code":"6110012","kana_pref":"ｷｮｳﾄﾌ","kana_city":"ｳｼﾞｼ","kana_address":"ﾊﾄﾞﾔﾏ","pref":"京都府","city":"宇治市","address":"羽戸山"},
{"zip_code":"6110027","kana_pref":"ｷｮｳﾄﾌ","kana_city":"ｳｼﾞｼ","kana_address":"ﾊﾋﾞｮｳｼﾁｮｳ","pref":"京都府","city":"宇治市","address":"羽拍子町"},
{"zip_code":"6110003","kana_pref":"ｷｮｳﾄﾌ","kana_city":"ｳｼﾞｼ","kana_address":"ﾋﾗｵﾀﾞｲ","pref":"京都府","city":"宇治市","address":"平尾台"},
{"zip_code":"6110026","kana_pref":"ｷｮｳﾄﾌ","kana_city":"ｳｼﾞｼ","kana_address":"ﾋﾗｷﾁｮｳ","pref":"京都府","city":"宇治市","address":"開町"},
{"zip_code":"6110031","kana_pref":"ｷｮｳﾄﾌ","kana_city":"ｳｼﾞｼ","kana_address":"ﾋﾛﾉﾁｮｳ","pref":"京都府","city":"宇治市","address":"広野町"},
{"zip_code":"6110024","kana_pref":"ｷｮｳﾄﾌ","kana_city":"ｳｼﾞｼ","kana_address":"ﾋﾞﾜﾀﾞｲ","pref":"京都府","city":"宇治市","address":"琵琶台"},
{"zip_code":"6110041","kana_pref":"ｷｮｳﾄﾌ","kana_city":"ｳｼﾞｼ","kana_address":"ﾏｷｼﾏﾁｮｳ","pref":"京都府","city":"宇治市","address":"槇島町"},
{"zip_code":"6110014","kana_pref":"ｷｮｳﾄﾌ","kana_city":"ｳｼﾞｼ","kana_address":"ﾐｮｳｼﾞｮｳﾁｮｳ","pref":"京都府","city":"宇治市","address":"明星町"},
{"zip_code":"6110045","kana_pref":"ｷｮｳﾄﾌ","kana_city":"ｳｼﾞｼ","kana_address":"ﾔｽﾀﾞﾁｮｳ","pref":"京都府","city":"宇治市","address":"安田町"},
{"zip_code":"6110001","kana_pref":"ｷｮｳﾄﾌ","kana_city":"ｳｼﾞｼ","kana_address":"ﾛｸｼﾞｿﾞｳ","pref":"京都府","city":"宇治市","address":"六地蔵"}]}