{"zip_code":[
{"zip_code":"6120000","kana_pref":"ｷｮｳﾄﾌ","kana_city":"ｷｮｳﾄｼﾌｼﾐｸ","kana_address":"","pref":"京都府","city":"京都市伏見区","address":""},
{"zip_code":"6128324","kana_pref":"ｷｮｳﾄﾌ","kana_city":"ｷｮｳﾄｼﾌｼﾐｸ","kana_address":"ｱｽﾞｷﾔﾁｮｳ","pref":"京都府","city":"京都市伏見区","address":"小豆屋町"},
{"zip_code":"6128203","kana_pref":"ｷｮｳﾄﾌ","kana_city":"ｷｮｳﾄｼﾌｼﾐｸ","kana_address":"ｱﾜﾊﾞｼﾁｮｳ","pref":"京都府","city":"京都市伏見区","address":"阿波橋町"},
{"zip_code":"6128319","kana_pref":"ｷｮｳﾄﾌ","kana_city":"ｷｮｳﾄｼﾌｼﾐｸ","kana_address":"ｲｼﾔﾁｮｳ","pref":"京都府","city":"京都市伏見区","address":"石屋町"},
{"zip_code":"6120804","kana_pref":"ｷｮｳﾄﾌ","kana_city":"ｷｮｳﾄｼﾌｼﾐｸ","kana_address":"ｲﾅﾘﾔﾏｶﾝﾕｳﾁ","pref":"京都府","city":"京都市伏見区","address":"稲荷山官有地"},
{"zip_code":"6128051","kana_pref":"ｷｮｳﾄﾌ","kana_city":"ｷｮｳﾄｼﾌｼﾐｸ","kana_address":"ｲﾏﾏﾁ","pref":"京都府","city":"京都市伏見区","address":"今町"},
{"zip_code":"6128041","kana_pref":"ｷｮｳﾄﾌ","kana_city":"ｷｮｳﾄｼﾌｼﾐｸ","kana_address":"ｳｵﾔﾁｮｳ","pref":"京都府","city":"京都市伏見区","address":"魚屋町"},
{"zip_code":"6128321","kana_pref":"ｷｮｳﾄﾌ","kana_city":"ｷｮｳﾄｼﾌｼﾐｸ","kana_address":"ｴﾁｾﾞﾝﾁｮｳ","pref":"京都府","city":"京都市伏見区","address":"越前町"},
{"zip_code":"6128304","kana_pref":"ｷｮｳﾄﾌ","kana_city":"ｷｮｳﾄｼﾌｼﾐｸ","kana_address":"ｴﾉｷﾁｮｳ","pref":"京都府","city":"京都市伏見区","address":"榎町"},
{"zip_code":"6128201","kana_pref":"ｷｮｳﾄﾌ","kana_city":"ｷｮｳﾄｼﾌｼﾐｸ","kana_address":"ｴﾋﾞｽﾁｮｳ","pref":"京都府","city":"京都市伏見区","address":"恵美酒町"},
{"zip_code":"6128335","kana_pref":"ｷｮｳﾄﾌ","kana_city":"ｷｮｳﾄｼﾌｼﾐｸ","kana_address":"ｴﾋﾞﾔﾁｮｳ","pref":"京都府","city":"京都市伏見区","address":"海老屋町"},
{"zip_code":"6128048","kana_pref":"ｷｮｳﾄﾌ","kana_city":"ｷｮｳﾄｼﾌｼﾐｸ","kana_address":"ｵｵｻｶﾏﾁ","pref":"京都府","city":"京都市伏見区","address":"大阪町"},
{"zip_code":"6128344","kana_pref":"ｷｮｳﾄﾌ","kana_city":"ｷｮｳﾄｼﾌｼﾐｸ","kana_address":"ｵｵﾂﾏﾁ","pref":"京都府","city":"京都市伏見区","address":"大津町"},
{"zip_code":"6128078","kana_pref":"ｷｮｳﾄﾌ","kana_city":"ｷｮｳﾄｼﾌｼﾐｸ","kana_address":"ｵｵﾐﾔﾁｮｳ","pref":"京都府","city":"京都市伏見区","address":"大宮町"},
{"zip_code":"6128065","kana_pref":"ｷｮｳﾄﾌ","kana_city":"ｷｮｳﾄｼﾌｼﾐｸ","kana_address":"ｵｶｺﾞﾁｮｳ","pref":"京都府","city":"京都市伏見区","address":"御駕篭町"},
{"zip_code":"6128357","kana_pref":"ｷｮｳﾄﾌ","kana_city":"ｷｮｳﾄｼﾌｼﾐｸ","kana_address":"ｵﾋﾞﾔﾁｮｳ","pref":"京都府","city":"京都市伏見区","address":"帯屋町"},
{"zip_code":"6128219","kana_pref":"ｷｮｳﾄﾌ","kana_city":"ｷｮｳﾄｼﾌｼﾐｸ","kana_address":"ｵﾓﾃﾏﾁ","pref":"京都府","city":"京都市伏見区","address":"表町"},
{"zip_code":"6128301","kana_pref":"ｷｮｳﾄﾌ","kana_city":"ｷｮｳﾄｼﾌｼﾐｸ","kana_address":"ｶｶﾞﾔﾁｮｳ","pref":"京都府","city":"京都市伏見区","address":"加賀屋町"},
{"zip_code":"6128042","kana_pref":"ｷｮｳﾄﾌ","kana_city":"ｷｮｳﾄｼﾌｼﾐｸ","kana_address":"ｶｷﾉｷﾊﾏﾁｮｳ","pref":"京都府","city":"京都市伏見区","address":"柿木浜町"},
{"zip_code":"6128307","kana_pref":"ｷｮｳﾄﾌ","kana_city":"ｷｮｳﾄｼﾌｼﾐｸ","kana_address":"ｶｹﾞｶﾂﾁｮｳ","pref":"京都府","city":"京都市伏見区","address":"景勝町"},
{"zip_code":"6128071","kana_pref":"ｷｮｳﾄﾌ","kana_city":"ｷｮｳﾄｼﾌｼﾐｸ","kana_address":"ｶｼﾞﾔﾏﾁ","pref":"京都府","city":"京都市伏見区","address":"鍛冶屋町"},
{"zip_code":"6128202","kana_pref":"ｷｮｳﾄﾌ","kana_city":"ｷｮｳﾄｼﾌｼﾐｸ","kana_address":"ｶｼｮﾏﾁ","pref":"京都府","city":"京都市伏見区","address":"過書町"},
{"zip_code":"6128103","kana_pref":"ｷｮｳﾄﾌ","kana_city":"ｷｮｳﾄｼﾌｼﾐｸ","kana_address":"ｶﾀｷﾞﾘﾁｮｳ","pref":"京都府","city":"京都市伏見区","address":"片桐町"},
{"zip_code":"6128361","kana_pref":"ｷｮｳﾄﾌ","kana_city":"ｷｮｳﾄｼﾌｼﾐｸ","kana_address":"ｶﾀﾊﾗﾁｮｳ","pref":"京都府","city":"京都市伏見区","address":"片原町"},
{"zip_code":"6128047","kana_pref":"ｷｮｳﾄﾌ","kana_city":"ｷｮｳﾄｼﾌｼﾐｸ","kana_address":"ｶﾐｱﾌﾞﾗｶｹﾁｮｳ","pref":"京都府","city":"京都市伏見区","address":"上油掛町"},
{"zip_code":"6128316","kana_pref":"ｷｮｳﾄﾌ","kana_city":"ｷｮｳﾄｼﾌｼﾐｸ","kana_address":"ｶﾐｲﾀﾊﾞｼﾁｮｳ","pref":"京都府","city":"京都市伏見区","address":"上板橋町"},
{"zip_code":"6128318","kana_pref":"ｷｮｳﾄﾌ","kana_city":"ｷｮｳﾄｼﾌｼﾐｸ","kana_address":"ｶﾐｺﾔﾁｮｳ","pref":"京都府","city":"京都市伏見区","address":"紙子屋町"},
{"zip_code":"6128305","kana_pref":"ｷｮｳﾄﾌ","kana_city":"ｷｮｳﾄｼﾌｼﾐｸ","kana_address":"ｶﾐｼﾝｾﾝｴﾝﾁｮｳ","pref":"京都府","city":"京都市伏見区","address":"上神泉苑町"},
{"zip_code":"6128217","kana_pref":"ｷｮｳﾄﾌ","kana_city":"ｷｮｳﾄｼﾌｼﾐｸ","kana_address":"ｶﾐﾅｶﾁｮｳ","pref":"京都府","city":"京都市伏見区","address":"上中町"},
{"zip_code":"6128302","kana_pref":"ｷｮｳﾄﾌ","kana_city":"ｷｮｳﾄｼﾌｼﾐｸ","kana_address":"ｶﾘｶﾞﾈﾁｮｳ","pref":"京都府","city":"京都市伏見区","address":"雁金町"},
{"zip_code":"6128375","kana_pref":"ｷｮｳﾄﾌ","kana_city":"ｷｮｳﾄｼﾌｼﾐｸ","kana_address":"ｶﾜﾋｶﾞｼﾁｮｳ","pref":"京都府","city":"京都市伏見区","address":"川東町"},
{"zip_code":"6128356","kana_pref":"ｷｮｳﾄﾌ","kana_city":"ｷｮｳﾄｼﾌｼﾐｸ","kana_address":"ｶﾜﾔﾁｮｳ","pref":"京都府","city":"京都市伏見区","address":"革屋町"},
{"zip_code":"6128101","kana_pref":"ｷｮｳﾄﾌ","kana_city":"ｷｮｳﾄｼﾌｼﾐｸ","kana_address":"ｶﾝﾉﾝｼﾞﾁｮｳ","pref":"京都府","city":"京都市伏見区","address":"観音寺町"},
{"zip_code":"6128331","kana_pref":"ｷｮｳﾄﾌ","kana_city":"ｷｮｳﾄｼﾌｼﾐｸ","kana_address":"ｷｸﾔﾁｮｳ","pref":"京都府","city":"京都市伏見区","address":"菊屋町"},
{"zip_code":"6128077","kana_pref":"ｷｮｳﾄﾌ","kana_city":"ｷｮｳﾄｼﾌｼﾐｸ","kana_address":"ｷﾀｱﾏｶﾞｻｷﾁｮｳ","pref":"京都府","city":"京都市伏見区","address":"北尼崎町"},
{"zip_code":"6128388","kana_pref":"ｷｮｳﾄﾌ","kana_city":"ｷｮｳﾄｼﾌｼﾐｸ","kana_address":"ｷﾀﾈｺﾔﾁｮｳ","pref":"京都府","city":"京都市伏見区","address":"北寝小屋町"},
{"zip_code":"6128372","kana_pref":"ｷｮｳﾄﾌ","kana_city":"ｷｮｳﾄｼﾌｼﾐｸ","kana_address":"ｷﾀﾊﾀﾁｮｳ","pref":"京都府","city":"京都市伏見区","address":"北端町"},
{"zip_code":"6128218","kana_pref":"ｷｮｳﾄﾌ","kana_city":"ｷｮｳﾄｼﾌｼﾐｸ","kana_address":"ｷﾀﾊﾏﾁｮｳ","pref":"京都府","city":"京都市伏見区","address":"北浜町"},
{"zip_code":"6128366","kana_pref":"ｷｮｳﾄﾌ","kana_city":"ｷｮｳﾄｼﾌｼﾐｸ","kana_address":"ｷｮｳﾊﾞｼﾁｮｳ","pref":"京都府","city":"京都市伏見区","address":"京橋町"},
{"zip_code":"6128083","kana_pref":"ｷｮｳﾄﾌ","kana_city":"ｷｮｳﾄｼﾌｼﾐｸ","kana_address":"ｷｮｳﾏﾁ","pref":"京都府","city":"京都市伏見区","address":"京町"},
{"zip_code":"6128087","kana_pref":"ｷｮｳﾄﾌ","kana_city":"ｷｮｳﾄｼﾌｼﾐｸ","kana_address":"ｷｮｳﾏﾁﾀﾞｲｺｸﾁｮｳ","pref":"京都府","city":"京都市伏見区","address":"京町大黒町"},
{"zip_code":"6128084","kana_pref":"ｷｮｳﾄﾌ","kana_city":"ｷｮｳﾄｼﾌｼﾐｸ","kana_address":"ｷｮｳﾏﾁﾊｯﾁｮｳﾒﾖｺﾏﾁ","pref":"京都府","city":"京都市伏見区","address":"京町８丁目横町"},
{"zip_code":"6128085","kana_pref":"ｷｮｳﾄﾌ","kana_city":"ｷｮｳﾄｼﾌｼﾐｸ","kana_address":"ｷｮｳﾏﾁﾐﾅﾐ","pref":"京都府","city":"京都市伏見区","address":"京町南"},
{"zip_code":"6128086","kana_pref":"ｷｮｳﾄﾌ","kana_city":"ｷｮｳﾄｼﾌｼﾐｸ","kana_address":"ｷｮｳﾏﾁｷﾀ","pref":"京都府","city":"京都市伏見区","address":"京町北"},
{"zip_code":"6128089","kana_pref":"ｷｮｳﾄﾌ","kana_city":"ｷｮｳﾄｼﾌｼﾐｸ","kana_address":"ｷﾞﾝｻﾞﾁｮｳ","pref":"京都府","city":"京都市伏見区","address":"銀座町"},
{"zip_code":"6128342","kana_pref":"ｷｮｳﾄﾌ","kana_city":"ｷｮｳﾄｼﾌｼﾐｸ","kana_address":"ｸﾒﾁｮｳ","pref":"京都府","city":"京都市伏見区","address":"久米町"},
{"zip_code":"6128365","kana_pref":"ｷｮｳﾄﾌ","kana_city":"ｷｮｳﾄｼﾌｼﾐｸ","kana_address":"ｸﾙﾏﾏﾁ","pref":"京都府","city":"京都市伏見区","address":"車町"},
{"zip_code":"6128329","kana_pref":"ｷｮｳﾄﾌ","kana_city":"ｷｮｳﾄｼﾌｼﾐｸ","kana_address":"ｸﾛﾁｬﾔﾁｮｳ","pref":"京都府","city":"京都市伏見区","address":"黒茶屋町"},
{"zip_code":"6128494","kana_pref":"ｷｮｳﾄﾌ","kana_city":"ｷｮｳﾄｼﾌｼﾐｸ","kana_address":"ｺｶﾞｱｽﾞﾏﾁｮｳ","pref":"京都府","city":"京都市伏見区","address":"久我東町"},
{"zip_code":"6128491","kana_pref":"ｷｮｳﾄﾌ","kana_city":"ｷｮｳﾄｼﾌｼﾐｸ","kana_address":"ｺｶﾞｲｼﾊﾗﾁｮｳ","pref":"京都府","city":"京都市伏見区","address":"久我石原町"},
{"zip_code":"6128493","kana_pref":"ｷｮｳﾄﾌ","kana_city":"ｷｮｳﾄｼﾌｼﾐｸ","kana_address":"ｺｶﾞｵﾀﾋﾞﾁｮｳ","pref":"京都府","city":"京都市伏見区","address":"久我御旅町"},
{"zip_code":"6128496","kana_pref":"ｷｮｳﾄﾌ","kana_city":"ｷｮｳﾄｼﾌｼﾐｸ","kana_address":"ｺｶﾞﾆｼﾃﾞﾁｮｳ","pref":"京都府","city":"京都市伏見区","address":"久我西出町"},
{"zip_code":"6128492","kana_pref":"ｷｮｳﾄﾌ","kana_city":"ｷｮｳﾄｼﾌｼﾐｸ","kana_address":"ｺｶﾞﾎﾝﾏﾁ","pref":"京都府","city":"京都市伏見区","address":"久我本町"},
{"zip_code":"6128495","kana_pref":"ｷｮｳﾄﾌ","kana_city":"ｷｮｳﾄｼﾌｼﾐｸ","kana_address":"ｺｶﾞﾓﾘﾉﾐﾔﾁｮｳ","pref":"京都府","city":"京都市伏見区","address":"久我森の宮町"},
{"zip_code":"6128039","kana_pref":"ｷｮｳﾄﾌ","kana_city":"ｷｮｳﾄｼﾌｼﾐｸ","kana_address":"ｺﾞｺｳｸﾞｳﾓﾝｾﾞﾝﾁｮｳ","pref":"京都府","city":"京都市伏見区","address":"御香宮門前町"},
{"zip_code":"6128064","kana_pref":"ｷｮｳﾄﾌ","kana_city":"ｷｮｳﾄｼﾌｼﾐｸ","kana_address":"ｺﾝﾔﾏﾁ","pref":"京都府","city":"京都市伏見区","address":"紺屋町"},
{"zip_code":"6128074","kana_pref":"ｷｮｳﾄﾌ","kana_city":"ｷｮｳﾄｼﾌｼﾐｸ","kana_address":"ｻｼﾓﾉﾁｮｳ","pref":"京都府","city":"京都市伏見区","address":"指物町"},
{"zip_code":"6128109","kana_pref":"ｷｮｳﾄﾌ","kana_city":"ｷｮｳﾄｼﾌｼﾐｸ","kana_address":"ｻﾇｷﾁｮｳ","pref":"京都府","city":"京都市伏見区","address":"讃岐町"},
{"zip_code":"6128046","kana_pref":"ｷｮｳﾄﾌ","kana_city":"ｷｮｳﾄｼﾌｼﾐｸ","kana_address":"ｼｵﾔﾏﾁ","pref":"京都府","city":"京都市伏見区","address":"塩屋町"},
{"zip_code":"6128374","kana_pref":"ｷｮｳﾄﾌ","kana_city":"ｷｮｳﾄｼﾌｼﾐｸ","kana_address":"ｼﾞﾌﾞﾁｮｳ","pref":"京都府","city":"京都市伏見区","address":"治部町"},
{"zip_code":"6128377","kana_pref":"ｷｮｳﾄﾌ","kana_city":"ｷｮｳﾄｼﾌｼﾐｸ","kana_address":"ｼﾏﾂﾞﾁｮｳ","pref":"京都府","city":"京都市伏見区","address":"島津町"},
{"zip_code":"6128325","kana_pref":"ｷｮｳﾄﾌ","kana_city":"ｷｮｳﾄｼﾌｼﾐｸ","kana_address":"ｼﾐｽﾞﾁｮｳ","pref":"京都府","city":"京都市伏見区","address":"清水町"},
{"zip_code":"6128364","kana_pref":"ｷｮｳﾄﾌ","kana_city":"ｷｮｳﾄｼﾌｼﾐｸ","kana_address":"ｼﾓｱﾌﾞﾗｶｹﾁｮｳ","pref":"京都府","city":"京都市伏見区","address":"下油掛町"},
{"zip_code":"6128073","kana_pref":"ｷｮｳﾄﾌ","kana_city":"ｷｮｳﾄｼﾌｼﾐｸ","kana_address":"ｼﾓｲﾀﾊﾞｼﾁｮｳ","pref":"京都府","city":"京都市伏見区","address":"下板橋町"},
{"zip_code":"6128306","kana_pref":"ｷｮｳﾄﾌ","kana_city":"ｷｮｳﾄｼﾌｼﾐｸ","kana_address":"ｼﾓｼﾝｾﾝｴﾝﾁｮｳ","pref":"京都府","city":"京都市伏見区","address":"下神泉苑町"},
{"zip_code":"6128471","kana_pref":"ｷｮｳﾄﾌ","kana_city":"ｷｮｳﾄｼﾌｼﾐｸ","kana_address":"ｼﾓﾄﾊﾞｵｻﾀﾞﾁｮｳ","pref":"京都府","city":"京都市伏見区","address":"下鳥羽長田町"},
{"zip_code":"6128248","kana_pref":"ｷｮｳﾄﾌ","kana_city":"ｷｮｳﾄｼﾌｼﾐｸ","kana_address":"ｼﾓﾄﾊﾞｶﾐﾐｽﾁｮｳ","pref":"京都府","city":"京都市伏見区","address":"下鳥羽上三栖町"},
{"zip_code":"6128468","kana_pref":"ｷｮｳﾄﾌ","kana_city":"ｷｮｳﾄｼﾌｼﾐｸ","kana_address":"ｼﾓﾄﾊﾞｶﾐﾑｶｲｼﾞﾏﾁｮｳ","pref":"京都府","city":"京都市伏見区","address":"下鳥羽上向島町"},
{"zip_code":"6128497","kana_pref":"ｷｮｳﾄﾌ","kana_city":"ｷｮｳﾄｼﾌｼﾐｸ","kana_address":"ｼﾓﾄﾊﾞｷﾀｴﾝﾒﾝﾃﾞﾝﾁｮｳ","pref":"京都府","city":"京都市伏見区","address":"下鳥羽北円面田町"},
{"zip_code":"6128476","kana_pref":"ｷｮｳﾄﾌ","kana_city":"ｷｮｳﾄｼﾌｼﾐｸ","kana_address":"ｼﾓﾄﾊﾞｷﾀｻﾝﾁｮｳ","pref":"京都府","city":"京都市伏見区","address":"下鳥羽北三町"},
{"zip_code":"6128392","kana_pref":"ｷｮｳﾄﾌ","kana_city":"ｷｮｳﾄｼﾌｼﾐｸ","kana_address":"ｼﾓﾄﾊﾞｷﾀﾉｸﾁﾁｮｳ","pref":"京都府","city":"京都市伏見区","address":"下鳥羽北ノ口町"},
{"zip_code":"6128385","kana_pref":"ｷｮｳﾄﾌ","kana_city":"ｷｮｳﾄｼﾌｼﾐｸ","kana_address":"ｼﾓﾄﾊﾞｺﾔﾅｷﾞﾁｮｳ","pref":"京都府","city":"京都市伏見区","address":"下鳥羽小柳町"},
{"zip_code":"6128384","kana_pref":"ｷｮｳﾄﾌ","kana_city":"ｷｮｳﾄｼﾌｼﾐｸ","kana_address":"ｼﾓﾄﾊﾞｼﾞｮｳｼｭﾝｶﾞﾏｴﾁｮｳ","pref":"京都府","city":"京都市伏見区","address":"下鳥羽浄春ケ前町"},
{"zip_code":"6128466","kana_pref":"ｷｮｳﾄﾌ","kana_city":"ｷｮｳﾄｼﾌｼﾐｸ","kana_address":"ｼﾓﾄﾊﾞｼﾛﾉｺｼﾁｮｳ","pref":"京都府","city":"京都市伏見区","address":"下鳥羽城ノ越町"},
{"zip_code":"6128391","kana_pref":"ｷｮｳﾄﾌ","kana_city":"ｷｮｳﾄｼﾌｼﾐｸ","kana_address":"ｼﾓﾄﾊﾞｾﾘｶﾜﾁｮｳ","pref":"京都府","city":"京都市伏見区","address":"下鳥羽芹川町"},
{"zip_code":"6128208","kana_pref":"ｷｮｳﾄﾌ","kana_city":"ｷｮｳﾄｼﾌｼﾐｸ","kana_address":"ｼﾓﾄﾊﾞﾀｼﾞﾏﾁｮｳ","pref":"京都府","city":"京都市伏見区","address":"下鳥羽但馬町"},
{"zip_code":"6128498","kana_pref":"ｷｮｳﾄﾌ","kana_city":"ｷｮｳﾄｼﾌｼﾐｸ","kana_address":"ｼﾓﾄﾊﾞﾅｶｴﾝﾒﾝﾃﾞﾝﾁｮｳ","pref":"京都府","city":"京都市伏見区","address":"下鳥羽中円面田町"},
{"zip_code":"6128477","kana_pref":"ｷｮｳﾄﾌ","kana_city":"ｷｮｳﾄｼﾌｼﾐｸ","kana_address":"ｼﾓﾄﾊﾞﾅｶｻﾝﾁｮｳ","pref":"京都府","city":"京都市伏見区","address":"下鳥羽中三町"},
{"zip_code":"6128394","kana_pref":"ｷｮｳﾄﾌ","kana_city":"ｷｮｳﾄｼﾌｼﾐｸ","kana_address":"ｼﾓﾄﾊﾞﾆｼｾﾘｶﾜﾁｮｳ","pref":"京都府","city":"京都市伏見区","address":"下鳥羽西芹川町"},
{"zip_code":"6128489","kana_pref":"ｷｮｳﾄﾌ","kana_city":"ｷｮｳﾄｼﾌｼﾐｸ","kana_address":"ｼﾓﾄﾊﾞﾆｼﾔﾅｷﾞｵｻﾁｮｳ","pref":"京都府","city":"京都市伏見区","address":"下鳥羽西柳長町"},
{"zip_code":"6128395","kana_pref":"ｷｮｳﾄﾌ","kana_city":"ｷｮｳﾄｼﾌｼﾐｸ","kana_address":"ｼﾓﾄﾊﾞﾋｶﾞｼｾﾘｶﾜﾁｮｳ","pref":"京都府","city":"京都市伏見区","address":"下鳥羽東芹川町"},
{"zip_code":"6128488","kana_pref":"ｷｮｳﾄﾌ","kana_city":"ｷｮｳﾄｼﾌｼﾐｸ","kana_address":"ｼﾓﾄﾊﾞﾋｶﾞｼﾔﾅｷﾞｵｻﾁｮｳ","pref":"京都府","city":"京都市伏見区","address":"下鳥羽東柳長町"},
{"zip_code":"6128387","kana_pref":"ｷｮｳﾄﾌ","kana_city":"ｷｮｳﾄｼﾌｼﾐｸ","kana_address":"ｼﾓﾄﾊﾞﾋﾗﾂｶﾁｮｳ","pref":"京都府","city":"京都市伏見区","address":"下鳥羽平塚町"},
{"zip_code":"6128473","kana_pref":"ｷｮｳﾄﾌ","kana_city":"ｷｮｳﾄｼﾌｼﾐｸ","kana_address":"ｼﾓﾄﾊﾞﾋﾛｵｻﾁｮｳ","pref":"京都府","city":"京都市伏見区","address":"下鳥羽広長町"},
{"zip_code":"6128467","kana_pref":"ｷｮｳﾄﾌ","kana_city":"ｷｮｳﾄｼﾌｼﾐｸ","kana_address":"ｼﾓﾄﾊﾞﾏｴﾀﾞﾁｮｳ","pref":"京都府","city":"京都市伏見区","address":"下鳥羽前田町"},
{"zip_code":"6128499","kana_pref":"ｷｮｳﾄﾌ","kana_city":"ｷｮｳﾄｼﾌｼﾐｸ","kana_address":"ｼﾓﾄﾊﾞﾐﾅﾐｴﾝﾒﾝﾃﾞﾝﾁｮｳ","pref":"京都府","city":"京都市伏見区","address":"下鳥羽南円面田町"},
{"zip_code":"6128478","kana_pref":"ｷｮｳﾄﾌ","kana_city":"ｷｮｳﾄｼﾌｼﾐｸ","kana_address":"ｼﾓﾄﾊﾞﾐﾅﾐｻﾝﾁｮｳ","pref":"京都府","city":"京都市伏見区","address":"下鳥羽南三町"},
{"zip_code":"6128490","kana_pref":"ｷｮｳﾄﾌ","kana_city":"ｷｮｳﾄｼﾌｼﾐｸ","kana_address":"ｼﾓﾄﾊﾞﾐﾅﾐﾔﾅｷﾞｵｻﾁｮｳ","pref":"京都府","city":"京都市伏見区","address":"下鳥羽南柳長町"},
{"zip_code":"6128209","kana_pref":"ｷｮｳﾄﾌ","kana_city":"ｷｮｳﾄｼﾌｼﾐｸ","kana_address":"ｼﾓﾄﾊﾞﾐﾅﾐﾛｸﾀﾝﾅｶﾞﾁｮｳ","pref":"京都府","city":"京都市伏見区","address":"下鳥羽南六反長町"},
{"zip_code":"6128381","kana_pref":"ｷｮｳﾄﾌ","kana_city":"ｷｮｳﾄｼﾌｼﾐｸ","kana_address":"ｼﾓﾄﾊﾞﾖｼﾃﾞﾝﾁｮｳ","pref":"京都府","city":"京都市伏見区","address":"下鳥羽葭田町"},
{"zip_code":"6128386","kana_pref":"ｷｮｳﾄﾌ","kana_city":"ｷｮｳﾄｼﾌｼﾐｸ","kana_address":"ｼﾓﾄﾊﾞﾖﾄﾞﾒﾁｮｳ","pref":"京都府","city":"京都市伏見区","address":"下鳥羽澱女町"},
{"zip_code":"6128206","kana_pref":"ｷｮｳﾄﾌ","kana_city":"ｷｮｳﾄｼﾌｼﾐｸ","kana_address":"ｼﾓﾄﾊﾞﾛｸﾀﾝﾅｶﾞﾁｮｳ","pref":"京都府","city":"京都市伏見区","address":"下鳥羽六反長町"},
{"zip_code":"6128393","kana_pref":"ｷｮｳﾄﾌ","kana_city":"ｷｮｳﾄｼﾌｼﾐｸ","kana_address":"ｼﾓﾄﾊﾞﾜﾀﾘｾﾁｮｳ","pref":"京都府","city":"京都市伏見区","address":"下鳥羽渡瀬町"},
{"zip_code":"6128216","kana_pref":"ｷｮｳﾄﾌ","kana_city":"ｷｮｳﾄｼﾌｼﾐｸ","kana_address":"ｼﾓﾅｶﾁｮｳ","pref":"京都府","city":"京都市伏見区","address":"下中町"},
{"zip_code":"6120085","kana_pref":"ｷｮｳﾄﾌ","kana_city":"ｷｮｳﾄｼﾌｼﾐｸ","kana_address":"ｼｭﾓｸﾏﾁ","pref":"京都府","city":"京都市伏見区","address":"撞木町"},
{"zip_code":"6128341","kana_pref":"ｷｮｳﾄﾌ","kana_city":"ｷｮｳﾄｼﾌｼﾐｸ","kana_address":"ｼﾞｭﾗｸﾏﾁ","pref":"京都府","city":"京都市伏見区","address":"聚楽町"},
{"zip_code":"6128343","kana_pref":"ｷｮｳﾄﾌ","kana_city":"ｷｮｳﾄｼﾌｼﾐｸ","kana_address":"ｼﾞｭﾗｸﾏﾁ","pref":"京都府","city":"京都市伏見区","address":"聚楽町"},
{"zip_code":"6128067","kana_pref":"ｷｮｳﾄﾌ","kana_city":"ｷｮｳﾄｼﾌｼﾐｸ","kana_address":"ｼﾞｮｳﾄﾞｵﾘﾁｮｳ","pref":"京都府","city":"京都市伏見区","address":"城通町"},
{"zip_code":"6128333","kana_pref":"ｷｮｳﾄﾌ","kana_city":"ｷｮｳﾄｼﾌｼﾐｸ","kana_address":"ｼﾛｶﾞﾈﾁｮｳ","pref":"京都府","city":"京都市伏見区","address":"白銀町"},
{"zip_code":"6128215","kana_pref":"ｷｮｳﾄﾌ","kana_city":"ｷｮｳﾄｼﾌｼﾐｸ","kana_address":"ｼﾝﾅｶﾁｮｳ","pref":"京都府","city":"京都市伏見区","address":"新中町"},
{"zip_code":"6128081","kana_pref":"ｷｮｳﾄﾌ","kana_city":"ｷｮｳﾄｼﾌｼﾐｸ","kana_address":"ｼﾝﾏﾁ","pref":"京都府","city":"京都市伏見区","address":"新町"},
{"zip_code":"6128368","kana_pref":"ｷｮｳﾄﾌ","kana_city":"ｷｮｳﾄｼﾌｼﾐｸ","kana_address":"ｽｵｳﾁｮｳ","pref":"京都府","city":"京都市伏見区","address":"周防町"},
{"zip_code":"6128231","kana_pref":"ｷｮｳﾄﾌ","kana_city":"ｷｮｳﾄｼﾌｼﾐｸ","kana_address":"ｽｷﾞﾓﾄﾁｮｳ","pref":"京都府","city":"京都市伏見区","address":"杉本町"},
{"zip_code":"6120051","kana_pref":"ｷｮｳﾄﾌ","kana_city":"ｷｮｳﾄｼﾌｼﾐｸ","kana_address":"ｽﾐｿﾞﾒﾁｮｳ","pref":"京都府","city":"京都市伏見区","address":"墨染町"},
{"zip_code":"6128314","kana_pref":"ｷｮｳﾄﾌ","kana_city":"ｷｮｳﾄｼﾌｼﾐｸ","kana_address":"ｽﾐﾖｼﾁｮｳ","pref":"京都府","city":"京都市伏見区","address":"住吉町"},
{"zip_code":"6128052","kana_pref":"ｷｮｳﾄﾌ","kana_city":"ｷｮｳﾄｼﾌｼﾐｸ","kana_address":"ｾﾄﾓﾉﾁｮｳ","pref":"京都府","city":"京都市伏見区","address":"瀬戸物町"},
{"zip_code":"6128062","kana_pref":"ｷｮｳﾄﾌ","kana_city":"ｷｮｳﾄｼﾌｼﾐｸ","kana_address":"ﾀｶｼﾞｮｳﾁｮｳ","pref":"京都府","city":"京都市伏見区","address":"鷹匠町"},
{"zip_code":"6128426","kana_pref":"ｷｮｳﾄﾌ","kana_city":"ｷｮｳﾄｼﾌｼﾐｸ","kana_address":"ﾀｹﾀﾞｱｵｲｹﾁｮｳ","pref":"京都府","city":"京都市伏見区","address":"竹田青池町"},
{"zip_code":"6128423","kana_pref":"ｷｮｳﾄﾌ","kana_city":"ｷｮｳﾄｼﾌｼﾐｸ","kana_address":"ﾀｹﾀﾞｳﾁﾊﾀﾁｮｳ","pref":"京都府","city":"京都市伏見区","address":"竹田内畑町"},
{"zip_code":"6128421","kana_pref":"ｷｮｳﾄﾌ","kana_city":"ｷｮｳﾄｼﾌｼﾐｸ","kana_address":"ﾀｹﾀﾞｵｹﾉｲﾁｮｳ","pref":"京都府","city":"京都市伏見区","address":"竹田桶ノ井町"},
{"zip_code":"6128442","kana_pref":"ｷｮｳﾄﾌ","kana_city":"ｷｮｳﾄｼﾌｼﾐｸ","kana_address":"ﾀｹﾀﾞｶﾙｶﾞﾁｮｳ","pref":"京都府","city":"京都市伏見区","address":"竹田狩賀町"},
{"zip_code":"6128419","kana_pref":"ｷｮｳﾄﾌ","kana_city":"ｷｮｳﾄｼﾌｼﾐｸ","kana_address":"ﾀｹﾀﾞｷﾀﾐﾂｸﾞｲﾁｮｳ","pref":"京都府","city":"京都市伏見区","address":"竹田北三ツ杭町"},
{"zip_code":"6128411","kana_pref":"ｷｮｳﾄﾌ","kana_city":"ｷｮｳﾄｼﾌｼﾐｸ","kana_address":"ﾀｹﾀﾞｸﾎﾞﾁｮｳ","pref":"京都府","city":"京都市伏見区","address":"竹田久保町"},
{"zip_code":"6128445","kana_pref":"ｷｮｳﾄﾌ","kana_city":"ｷｮｳﾄｼﾌｼﾐｸ","kana_address":"ﾀｹﾀﾞｼﾞｮｳﾎﾞﾀﾞｲｲﾝﾁｮｳ","pref":"京都府","city":"京都市伏見区","address":"竹田浄菩提院町"},
{"zip_code":"6128441","kana_pref":"ｷｮｳﾄﾌ","kana_city":"ｷｮｳﾄｼﾌｼﾐｸ","kana_address":"ﾀｹﾀﾞﾀﾞｲｺﾞﾃﾞﾝﾁｮｳ","pref":"京都府","city":"京都市伏見区","address":"竹田醍醐田町"},
{"zip_code":"6128425","kana_pref":"ｷｮｳﾄﾌ","kana_city":"ｷｮｳﾄｼﾌｼﾐｸ","kana_address":"ﾀｹﾀﾞﾀﾅｶﾃﾞﾝﾁｮｳ","pref":"京都府","city":"京都市伏見区","address":"竹田田中殿町"},
{"zip_code":"6128444","kana_pref":"ｷｮｳﾄﾌ","kana_city":"ｷｮｳﾄｼﾌｼﾐｸ","kana_address":"ﾀｹﾀﾞﾀﾅｶﾐﾔﾁｮｳ","pref":"京都府","city":"京都市伏見区","address":"竹田田中宮町"},
{"zip_code":"6128414","kana_pref":"ｷｮｳﾄﾌ","kana_city":"ｷｮｳﾄｼﾌｼﾐｸ","kana_address":"ﾀｹﾀﾞﾀﾞﾝｶﾞﾜﾗﾁｮｳ","pref":"京都府","city":"京都市伏見区","address":"竹田段川原町"},
{"zip_code":"6128450","kana_pref":"ｷｮｳﾄﾌ","kana_city":"ｷｮｳﾄｼﾌｼﾐｸ","kana_address":"ﾀｹﾀﾞﾄﾊﾞﾄﾞﾉﾁｮｳ","pref":"京都府","city":"京都市伏見区","address":"竹田鳥羽殿町"},
{"zip_code":"6128446","kana_pref":"ｷｮｳﾄﾌ","kana_city":"ｷｮｳﾄｼﾌｼﾐｸ","kana_address":"ﾀｹﾀﾞﾅｶｳﾁﾊﾀﾁｮｳ","pref":"京都府","city":"京都市伏見区","address":"竹田中内畑町"},
{"zip_code":"6128412","kana_pref":"ｷｮｳﾄﾌ","kana_city":"ｷｮｳﾄｼﾌｼﾐｸ","kana_address":"ﾀｹﾀﾞﾅｶｶﾞﾜﾗﾁｮｳ","pref":"京都府","city":"京都市伏見区","address":"竹田中川原町"},
{"zip_code":"6128415","kana_pref":"ｷｮｳﾄﾌ","kana_city":"ｷｮｳﾄｼﾌｼﾐｸ","kana_address":"ﾀｹﾀﾞﾅｶｼﾞﾏﾁｮｳ","pref":"京都府","city":"京都市伏見区","address":"竹田中島町"},
{"zip_code":"6128422","kana_pref":"ｷｮｳﾄﾌ","kana_city":"ｷｮｳﾄｼﾌｼﾐｸ","kana_address":"ﾀｹﾀﾞﾅﾅｾｶﾞﾜﾁｮｳ","pref":"京都府","city":"京都市伏見区","address":"竹田七瀬川町"},
{"zip_code":"6128447","kana_pref":"ｷｮｳﾄﾌ","kana_city":"ｷｮｳﾄｼﾌｼﾐｸ","kana_address":"ﾀｹﾀﾞﾆｼｳﾁﾊﾀﾁｮｳ","pref":"京都府","city":"京都市伏見区","address":"竹田西内畑町"},
{"zip_code":"6128428","kana_pref":"ｷｮｳﾄﾌ","kana_city":"ｷｮｳﾄｼﾌｼﾐｸ","kana_address":"ﾀｹﾀﾞﾆｼｵｹﾉｲﾁｮｳ","pref":"京都府","city":"京都市伏見区","address":"竹田西桶ノ井町"},
{"zip_code":"6128449","kana_pref":"ｷｮｳﾄﾌ","kana_city":"ｷｮｳﾄｼﾌｼﾐｸ","kana_address":"ﾀｹﾀﾞﾆｼｺﾔﾉｳﾁﾁｮｳ","pref":"京都府","city":"京都市伏見区","address":"竹田西小屋ノ内町"},
{"zip_code":"6128429","kana_pref":"ｷｮｳﾄﾌ","kana_city":"ｷｮｳﾄｼﾌｼﾐｸ","kana_address":"ﾀｹﾀﾞﾆｼﾀﾞﾝｶﾞﾜﾗﾁｮｳ","pref":"京都府","city":"京都市伏見区","address":"竹田西段川原町"},
{"zip_code":"6128448","kana_pref":"ｷｮｳﾄﾌ","kana_city":"ｷｮｳﾄｼﾌｼﾐｸ","kana_address":"ﾀｹﾀﾞﾋｶﾞｼｺﾔﾉｳﾁﾁｮｳ","pref":"京都府","city":"京都市伏見区","address":"竹田東小屋ノ内町"},
{"zip_code":"6128454","kana_pref":"ｷｮｳﾄﾌ","kana_city":"ｷｮｳﾄｼﾌｼﾐｸ","kana_address":"ﾀｹﾀﾞﾌｹﾉｶﾞﾜﾁｮｳ","pref":"京都府","city":"京都市伏見区","address":"竹田泓ノ川町"},
{"zip_code":"6128371","kana_pref":"ｷｮｳﾄﾌ","kana_city":"ｷｮｳﾄｼﾌｼﾐｸ","kana_address":"ﾀｹﾀﾞﾏﾂﾊﾞﾔｼﾁｮｳ","pref":"京都府","city":"京都市伏見区","address":"竹田松林町"},
{"zip_code":"6128427","kana_pref":"ｷｮｳﾄﾌ","kana_city":"ｷｮｳﾄｼﾌｼﾐｸ","kana_address":"ﾀｹﾀﾞﾏﾊﾀｷﾞﾁｮｳ","pref":"京都府","city":"京都市伏見区","address":"竹田真幡木町"},
{"zip_code":"6128413","kana_pref":"ｷｮｳﾄﾌ","kana_city":"ｷｮｳﾄｼﾌｼﾐｸ","kana_address":"ﾀｹﾀﾞﾐﾂｸﾞｲﾁｮｳ","pref":"京都府","city":"京都市伏見区","address":"竹田三ツ杭町"},
{"zip_code":"6128418","kana_pref":"ｷｮｳﾄﾌ","kana_city":"ｷｮｳﾄｼﾌｼﾐｸ","kana_address":"ﾀｹﾀﾞﾑｶｲﾀﾞｲﾁｮｳ","pref":"京都府","city":"京都市伏見区","address":"竹田向代町"},
{"zip_code":"6128417","kana_pref":"ｷｮｳﾄﾌ","kana_city":"ｷｮｳﾄｼﾌｼﾐｸ","kana_address":"ﾀｹﾀﾞﾑｶｲﾀﾞｲﾏﾁｶﾜﾁｮｳ","pref":"京都府","city":"京都市伏見区","address":"竹田向代町川町"},
{"zip_code":"6128416","kana_pref":"ｷｮｳﾄﾌ","kana_city":"ｷｮｳﾄｼﾌｼﾐｸ","kana_address":"ﾀｹﾀﾞﾘｭｳﾁﾁｮｳ","pref":"京都府","city":"京都市伏見区","address":"竹田流池町"},
{"zip_code":"6128443","kana_pref":"ｷｮｳﾄﾌ","kana_city":"ｷｮｳﾄｼﾌｼﾐｸ","kana_address":"ﾀｹﾀﾞﾜﾗﾔﾁｮｳ","pref":"京都府","city":"京都市伏見区","address":"竹田藁屋町"},
{"zip_code":"6128061","kana_pref":"ｷｮｳﾄﾌ","kana_city":"ｷｮｳﾄｼﾌｼﾐｸ","kana_address":"ﾀｹﾅｶﾁｮｳ","pref":"京都府","city":"京都市伏見区","address":"竹中町"},
{"zip_code":"6128332","kana_pref":"ｷｮｳﾄﾌ","kana_city":"ｷｮｳﾄｼﾌｼﾐｸ","kana_address":"ﾀﾙﾔﾁｮｳ","pref":"京都府","city":"京都市伏見区","address":"樽屋町"},
{"zip_code":"6128044","kana_pref":"ｷｮｳﾄﾌ","kana_city":"ｷｮｳﾄｼﾌｼﾐｸ","kana_address":"ﾀﾝｺﾞﾁｮｳ","pref":"京都府","city":"京都市伏見区","address":"丹後町"},
{"zip_code":"6128221","kana_pref":"ｷｮｳﾄﾌ","kana_city":"ｷｮｳﾄｼﾌｼﾐｸ","kana_address":"ﾀﾞﾝｼﾞｮｳﾁｮｳ","pref":"京都府","city":"京都市伏見区","address":"弾正町"},
{"zip_code":"6128072","kana_pref":"ｷｮｳﾄﾌ","kana_city":"ｷｮｳﾄｼﾌｼﾐｸ","kana_address":"ﾀﾝﾊﾞﾊﾞｼﾁｮｳ","pref":"京都府","city":"京都市伏見区","address":"丹波橋町"},
{"zip_code":"6128312","kana_pref":"ｷｮｳﾄﾌ","kana_city":"ｷｮｳﾄｼﾌｼﾐｸ","kana_address":"ﾂﾁﾊﾞｼﾁｮｳ","pref":"京都府","city":"京都市伏見区","address":"津知橋町"},
{"zip_code":"6128359","kana_pref":"ｷｮｳﾄﾌ","kana_city":"ｷｮｳﾄｼﾌｼﾐｸ","kana_address":"ﾄｲﾔﾏﾁ","pref":"京都府","city":"京都市伏見区","address":"問屋町"},
{"zip_code":"6128102","kana_pref":"ｷｮｳﾄﾌ","kana_city":"ｷｮｳﾄｼﾌｼﾐｸ","kana_address":"ﾄﾞｳｱﾐﾁｮｳ","pref":"京都府","city":"京都市伏見区","address":"道阿弥町"},
{"zip_code":"6128328","kana_pref":"ｷｮｳﾄﾌ","kana_city":"ｷｮｳﾄｼﾌｼﾐｸ","kana_address":"ﾄｳｱﾝﾁｮｳ","pref":"京都府","city":"京都市伏見区","address":"等安町"},
{"zip_code":"6128107","kana_pref":"ｷｮｳﾄﾌ","kana_city":"ｷｮｳﾄｼﾌｼﾐｸ","kana_address":"ﾄｳﾘｮｳﾁｮｳ","pref":"京都府","city":"京都市伏見区","address":"桃陵町"},
{"zip_code":"6128351","kana_pref":"ｷｮｳﾄﾌ","kana_city":"ｷｮｳﾄｼﾌｼﾐｸ","kana_address":"ﾄﾞﾊﾞｼﾁｮｳ","pref":"京都府","city":"京都市伏見区","address":"土橋町"},
{"zip_code":"6128308","kana_pref":"ｷｮｳﾄﾌ","kana_city":"ｷｮｳﾄｼﾌｼﾐｸ","kana_address":"ﾄﾊﾞﾏﾁ","pref":"京都府","city":"京都市伏見区","address":"鳥羽町"},
{"zip_code":"6128056","kana_pref":"ｷｮｳﾄﾌ","kana_city":"ｷｮｳﾄｼﾌｼﾐｸ","kana_address":"ﾅｶｱﾌﾞﾗｶｹﾁｮｳ","pref":"京都府","city":"京都市伏見区","address":"中油掛町"},
{"zip_code":"6128462","kana_pref":"ｷｮｳﾄﾌ","kana_city":"ｷｮｳﾄｼﾌｼﾐｸ","kana_address":"ﾅｶｼﾞﾏｱｷﾉﾔﾏﾁｮｳ","pref":"京都府","city":"京都市伏見区","address":"中島秋ノ山町"},
{"zip_code":"6128469","kana_pref":"ｷｮｳﾄﾌ","kana_city":"ｷｮｳﾄｼﾌｼﾐｸ","kana_address":"ﾅｶｼﾞﾏｶﾜﾗﾃﾞﾝﾁｮｳ","pref":"京都府","city":"京都市伏見区","address":"中島河原田町"},
{"zip_code":"6128451","kana_pref":"ｷｮｳﾄﾌ","kana_city":"ｷｮｳﾄｼﾌｼﾐｸ","kana_address":"ﾅｶｼﾞﾏｷﾀﾉｸﾁﾁｮｳ","pref":"京都府","city":"京都市伏見区","address":"中島北ノ口町"},
{"zip_code":"6128463","kana_pref":"ｷｮｳﾄﾌ","kana_city":"ｷｮｳﾄｼﾌｼﾐｸ","kana_address":"ﾅｶｼﾞﾏｺﾞｼｮﾉｳﾁﾁｮｳ","pref":"京都府","city":"京都市伏見区","address":"中島御所ノ内町"},
{"zip_code":"6128455","kana_pref":"ｷｮｳﾄﾌ","kana_city":"ｷｮｳﾄｼﾌｼﾐｸ","kana_address":"ﾅｶｼﾞﾏｿﾄﾔﾏﾁｮｳ","pref":"京都府","city":"京都市伏見区","address":"中島外山町"},
{"zip_code":"6128459","kana_pref":"ｷｮｳﾄﾌ","kana_city":"ｷｮｳﾄｼﾌｼﾐｸ","kana_address":"ﾅｶｼﾞﾏﾄﾊﾞﾘｷｭｳﾁｮｳ","pref":"京都府","city":"京都市伏見区","address":"中島鳥羽離宮町"},
{"zip_code":"6128456","kana_pref":"ｷｮｳﾄﾌ","kana_city":"ｷｮｳﾄｼﾌｼﾐｸ","kana_address":"ﾅｶｼﾞﾏﾅｶﾐﾁﾁｮｳ","pref":"京都府","city":"京都市伏見区","address":"中島中道町"},
{"zip_code":"6128465","kana_pref":"ｷｮｳﾄﾌ","kana_city":"ｷｮｳﾄｼﾌｼﾐｸ","kana_address":"ﾅｶｼﾞﾏﾋﾉｶﾐﾁｮｳ","pref":"京都府","city":"京都市伏見区","address":"中島樋ノ上町"},
{"zip_code":"6128452","kana_pref":"ｷｮｳﾄﾌ","kana_city":"ｷｮｳﾄｼﾌｼﾐｸ","kana_address":"ﾅｶｼﾞﾏﾎﾘﾊﾞﾀﾁｮｳ","pref":"京都府","city":"京都市伏見区","address":"中島堀端町"},
{"zip_code":"6128464","kana_pref":"ｷｮｳﾄﾌ","kana_city":"ｷｮｳﾄｼﾌｼﾐｸ","kana_address":"ﾅｶｼﾞﾏﾏｴﾔﾏﾁｮｳ","pref":"京都府","city":"京都市伏見区","address":"中島前山町"},
{"zip_code":"6128457","kana_pref":"ｷｮｳﾄﾌ","kana_city":"ｷｮｳﾄｼﾌｼﾐｸ","kana_address":"ﾅｶｼﾞﾏﾐﾔﾉﾏｴﾁｮｳ","pref":"京都府","city":"京都市伏見区","address":"中島宮ノ前町"},
{"zip_code":"6128461","kana_pref":"ｷｮｳﾄﾌ","kana_city":"ｷｮｳﾄｼﾌｼﾐｸ","kana_address":"ﾅｶｼﾞﾏﾘｭｳｻｸﾁｮｳ","pref":"京都府","city":"京都市伏見区","address":"中島流作町"},
{"zip_code":"6128315","kana_pref":"ｷｮｳﾄﾌ","kana_city":"ｷｮｳﾄｼﾌｼﾐｸ","kana_address":"ﾅｶﾉﾁｮｳ","pref":"京都府","city":"京都市伏見区","address":"中之町"},
{"zip_code":"6128038","kana_pref":"ｷｮｳﾄﾌ","kana_city":"ｷｮｳﾄｼﾌｼﾐｸ","kana_address":"ﾅﾍﾞｼﾏﾁｮｳ","pref":"京都府","city":"京都市伏見区","address":"鍋島町"},
{"zip_code":"6128363","kana_pref":"ｷｮｳﾄﾌ","kana_city":"ｷｮｳﾄｼﾌｼﾐｸ","kana_address":"ﾅﾔﾏﾁ","pref":"京都府","city":"京都市伏見区","address":"納屋町"},
{"zip_code":"6128311","kana_pref":"ｷｮｳﾄﾌ","kana_city":"ｷｮｳﾄｼﾌｼﾐｸ","kana_address":"ﾅﾗﾔﾁｮｳ","pref":"京都府","city":"京都市伏見区","address":"奈良屋町"},
{"zip_code":"6128347","kana_pref":"ｷｮｳﾄﾌ","kana_city":"ｷｮｳﾄｼﾌｼﾐｸ","kana_address":"ﾅﾙﾏﾁ","pref":"京都府","city":"京都市伏見区","address":"成町"},
{"zip_code":"6128059","kana_pref":"ｷｮｳﾄﾌ","kana_city":"ｷｮｳﾄｼﾌｼﾐｸ","kana_address":"ﾅﾝﾌﾞﾏﾁ","pref":"京都府","city":"京都市伏見区","address":"南部町"},
{"zip_code":"6128358","kana_pref":"ｷｮｳﾄﾌ","kana_city":"ｷｮｳﾄｼﾌｼﾐｸ","kana_address":"ﾆｼｱﾏｶﾞｻｷﾁｮｳ","pref":"京都府","city":"京都市伏見区","address":"西尼崎町"},
{"zip_code":"6128362","kana_pref":"ｷｮｳﾄﾌ","kana_city":"ｷｮｳﾄｼﾌｼﾐｸ","kana_address":"ﾆｼｵｵﾃﾁｮｳ","pref":"京都府","city":"京都市伏見区","address":"西大手町"},
{"zip_code":"6128313","kana_pref":"ｷｮｳﾄﾌ","kana_city":"ｷｮｳﾄｼﾌｼﾐｸ","kana_address":"ﾆｼｶｷﾞﾔﾁｮｳ","pref":"京都府","city":"京都市伏見区","address":"西鍵屋町"},
{"zip_code":"6128345","kana_pref":"ｷｮｳﾄﾌ","kana_city":"ｷｮｳﾄｼﾌｼﾐｸ","kana_address":"ﾆｼｻｶｲﾏﾁ","pref":"京都府","city":"京都市伏見区","address":"西堺町"},
{"zip_code":"6128327","kana_pref":"ｷｮｳﾄﾌ","kana_city":"ｷｮｳﾄｼﾌｼﾐｸ","kana_address":"ﾆｼｼｭｼﾞｬｸﾁｮｳ","pref":"京都府","city":"京都市伏見区","address":"西朱雀町"},
{"zip_code":"6128337","kana_pref":"ｷｮｳﾄﾌ","kana_city":"ｷｮｳﾄｼﾌｼﾐｸ","kana_address":"ﾆｼﾀﾞｲｺｸﾁｮｳ","pref":"京都府","city":"京都市伏見区","address":"西大黒町"},
{"zip_code":"6128376","kana_pref":"ｷｮｳﾄﾌ","kana_city":"ｷｮｳﾄｼﾌｼﾐｸ","kana_address":"ﾆｼﾀﾞｲﾓﾝｼﾞﾁｮｳ","pref":"京都府","city":"京都市伏見区","address":"西大文字町"},
{"zip_code":"6128214","kana_pref":"ｷｮｳﾄﾌ","kana_city":"ｷｮｳﾄｼﾌｼﾐｸ","kana_address":"ﾆｼﾊﾏﾁｮｳ","pref":"京都府","city":"京都市伏見区","address":"西浜町"},
{"zip_code":"6128104","kana_pref":"ｷｮｳﾄﾌ","kana_city":"ｷｮｳﾄｼﾌｼﾐｸ","kana_address":"ﾆｼﾌﾞｷﾞｮｳﾁｮｳ","pref":"京都府","city":"京都市伏見区","address":"西奉行町"},
{"zip_code":"6120083","kana_pref":"ｷｮｳﾄﾌ","kana_city":"ｷｮｳﾄｼﾌｼﾐｸ","kana_address":"ﾆｼﾏｽﾔﾁｮｳ","pref":"京都府","city":"京都市伏見区","address":"西桝屋町"},
{"zip_code":"6128354","kana_pref":"ｷｮｳﾄﾌ","kana_city":"ｷｮｳﾄｼﾌｼﾐｸ","kana_address":"ﾆｼﾏﾁ","pref":"京都府","city":"京都市伏見区","address":"西町"},
{"zip_code":"6128212","kana_pref":"ｷｮｳﾄﾌ","kana_city":"ｷｮｳﾄｼﾌｼﾐｸ","kana_address":"ﾆｼﾔﾅｷﾞﾁｮｳ","pref":"京都府","city":"京都市伏見区","address":"西柳町"},
{"zip_code":"6128273","kana_pref":"ｷｮｳﾄﾌ","kana_city":"ｷｮｳﾄｼﾌｼﾐｸ","kana_address":"ﾉｳｿｲｽﾞﾐﾔ","pref":"京都府","city":"京都市伏見区","address":"納所和泉屋"},
{"zip_code":"6128268","kana_pref":"ｷｮｳﾄﾌ","kana_city":"ｷｮｳﾄｼﾌｼﾐｸ","kana_address":"ﾉｳｿｵｵﾉ","pref":"京都府","city":"京都市伏見区","address":"納所大野"},
{"zip_code":"6128271","kana_pref":"ｷｮｳﾄﾌ","kana_city":"ｷｮｳﾄｼﾌｼﾐｸ","kana_address":"ﾉｳｿｷｼﾉｼﾀ","pref":"京都府","city":"京都市伏見区","address":"納所岸ノ下"},
{"zip_code":"6128279","kana_pref":"ｷｮｳﾄﾌ","kana_city":"ｷｮｳﾄｼﾌｼﾐｸ","kana_address":"ﾉｳｿｷﾀｼﾛﾎﾞﾘ","pref":"京都府","city":"京都市伏見区","address":"納所北城堀"},
{"zip_code":"6128267","kana_pref":"ｷｮｳﾄﾌ","kana_city":"ｷｮｳﾄｼﾌｼﾐｸ","kana_address":"ﾉｳｿｼﾓﾉ","pref":"京都府","city":"京都市伏見区","address":"納所下野"},
{"zip_code":"6128272","kana_pref":"ｷｮｳﾄﾌ","kana_city":"ｷｮｳﾄｼﾌｼﾐｸ","kana_address":"ﾉｳｿﾅｶｶﾞﾜﾗ","pref":"京都府","city":"京都市伏見区","address":"納所中河原"},
{"zip_code":"6128274","kana_pref":"ｷｮｳﾄﾌ","kana_city":"ｷｮｳﾄｼﾌｼﾐｸ","kana_address":"ﾉｳｿﾎｼﾔﾅｷﾞ","pref":"京都府","city":"京都市伏見区","address":"納所星柳"},
{"zip_code":"6128278","kana_pref":"ｷｮｳﾄﾌ","kana_city":"ｷｮｳﾄｼﾌｼﾐｸ","kana_address":"ﾉｳｿﾐﾅﾐｼﾛﾎﾞﾘ","pref":"京都府","city":"京都市伏見区","address":"納所南城堀"},
{"zip_code":"6128277","kana_pref":"ｷｮｳﾄﾌ","kana_city":"ｷｮｳﾄｼﾌｼﾐｸ","kana_address":"ﾉｳｿﾐｮｳﾄｸｼﾞ","pref":"京都府","city":"京都市伏見区","address":"納所妙徳寺"},
{"zip_code":"6128276","kana_pref":"ｷｮｳﾄﾌ","kana_city":"ｷｮｳﾄｼﾌｼﾐｸ","kana_address":"ﾉｳｿﾔｸｼﾄﾞｳ","pref":"京都府","city":"京都市伏見区","address":"納所薬師堂"},
{"zip_code":"6128275","kana_pref":"ｷｮｳﾄﾌ","kana_city":"ｷｮｳﾄｼﾌｼﾐｸ","kana_address":"ﾉｳｿﾁｮｳ","pref":"京都府","city":"京都市伏見区","address":"納所町"},
{"zip_code":"6128484","kana_pref":"ｷｮｳﾄﾌ","kana_city":"ｷｮｳﾄｼﾌｼﾐｸ","kana_address":"ﾊﾂﾞｶｼｶﾓｶﾞﾜﾁｮｳ","pref":"京都府","city":"京都市伏見区","address":"羽束師鴨川町"},
{"zip_code":"6128485","kana_pref":"ｷｮｳﾄﾌ","kana_city":"ｷｮｳﾄｼﾌｼﾐｸ","kana_address":"ﾊﾂﾞｶｼｼﾐｽﾞﾁｮｳ","pref":"京都府","city":"京都市伏見区","address":"羽束師志水町"},
{"zip_code":"6128487","kana_pref":"ｷｮｳﾄﾌ","kana_city":"ｷｮｳﾄｼﾌｼﾐｸ","kana_address":"ﾊﾂﾞｶｼﾋｼｶﾜﾁｮｳ","pref":"京都府","city":"京都市伏見区","address":"羽束師菱川町"},
{"zip_code":"6128486","kana_pref":"ｷｮｳﾄﾌ","kana_city":"ｷｮｳﾄｼﾌｼﾐｸ","kana_address":"ﾊﾂﾞｶｼﾌﾙｶﾜﾁｮｳ","pref":"京都府","city":"京都市伏見区","address":"羽束師古川町"},
{"zip_code":"6128053","kana_pref":"ｷｮｳﾄﾌ","kana_city":"ｷｮｳﾄｼﾌｼﾐｸ","kana_address":"ﾋｶﾞｼｵｵﾃﾁｮｳ","pref":"京都府","city":"京都市伏見区","address":"東大手町"},
{"zip_code":"6128063","kana_pref":"ｷｮｳﾄﾌ","kana_city":"ｷｮｳﾄｼﾌｼﾐｸ","kana_address":"ﾋｶﾞｼｸﾐﾁｮｳ","pref":"京都府","city":"京都市伏見区","address":"東組町"},
{"zip_code":"6128066","kana_pref":"ｷｮｳﾄﾌ","kana_city":"ｷｮｳﾄｼﾌｼﾐｸ","kana_address":"ﾋｶﾞｼｻｶｲﾏﾁ","pref":"京都府","city":"京都市伏見区","address":"東堺町"},
{"zip_code":"6128326","kana_pref":"ｷｮｳﾄﾌ","kana_city":"ｷｮｳﾄｼﾌｼﾐｸ","kana_address":"ﾋｶﾞｼｼｭｼﾞｬｸﾁｮｳ","pref":"京都府","city":"京都市伏見区","address":"東朱雀町"},
{"zip_code":"6128336","kana_pref":"ｷｮｳﾄﾌ","kana_city":"ｷｮｳﾄｼﾌｼﾐｸ","kana_address":"ﾋｶﾞｼﾀﾞｲｺｸﾁｮｳ","pref":"京都府","city":"京都市伏見区","address":"東大黒町"},
{"zip_code":"6128334","kana_pref":"ｷｮｳﾄﾌ","kana_city":"ｷｮｳﾄｼﾌｼﾐｸ","kana_address":"ﾋｶﾞｼﾀﾞｲﾓﾝｼﾞﾁｮｳ","pref":"京都府","city":"京都市伏見区","address":"東大文字町"},
{"zip_code":"6128213","kana_pref":"ｷｮｳﾄﾌ","kana_city":"ｷｮｳﾄｼﾌｼﾐｸ","kana_address":"ﾋｶﾞｼﾊﾏﾐﾅﾐﾁｮｳ","pref":"京都府","city":"京都市伏見区","address":"東浜南町"},
{"zip_code":"6128355","kana_pref":"ｷｮｳﾄﾌ","kana_city":"ｷｮｳﾄｼﾌｼﾐｸ","kana_address":"ﾋｶﾞｼﾋｼﾔﾁｮｳ","pref":"京都府","city":"京都市伏見区","address":"東菱屋町"},
{"zip_code":"6128105","kana_pref":"ｷｮｳﾄﾌ","kana_city":"ｷｮｳﾄｼﾌｼﾐｸ","kana_address":"ﾋｶﾞｼﾌﾞｷﾞｮｳﾁｮｳ","pref":"京都府","city":"京都市伏見区","address":"東奉行町"},
{"zip_code":"6128353","kana_pref":"ｷｮｳﾄﾌ","kana_city":"ｷｮｳﾄｼﾌｼﾐｸ","kana_address":"ﾋｶﾞｼﾏﾁ","pref":"京都府","city":"京都市伏見区","address":"東町"},
{"zip_code":"6128211","kana_pref":"ｷｮｳﾄﾌ","kana_city":"ｷｮｳﾄｼﾌｼﾐｸ","kana_address":"ﾋｶﾞｼﾔﾅｷﾞﾁｮｳ","pref":"京都府","city":"京都市伏見区","address":"東柳町"},
{"zip_code":"6128352","kana_pref":"ｷｮｳﾄﾌ","kana_city":"ｷｮｳﾄｼﾌｼﾐｸ","kana_address":"ﾋｺﾞﾏﾁ","pref":"京都府","city":"京都市伏見区","address":"肥後町"},
{"zip_code":"6128303","kana_pref":"ｷｮｳﾄﾌ","kana_city":"ｷｮｳﾄｼﾌｼﾐｸ","kana_address":"ﾋｼﾔﾁｮｳ","pref":"京都府","city":"京都市伏見区","address":"菱屋町"},
{"zip_code":"6128222","kana_pref":"ｷｮｳﾄﾌ","kana_city":"ｷｮｳﾄｼﾌｼﾐｸ","kana_address":"ﾋﾗﾄﾞﾁｮｳ","pref":"京都府","city":"京都市伏見区","address":"平戸町"},
{"zip_code":"6128057","kana_pref":"ｷｮｳﾄﾌ","kana_city":"ｷｮｳﾄｼﾌｼﾐｸ","kana_address":"ﾋﾗﾉﾁｮｳ","pref":"京都府","city":"京都市伏見区","address":"平野町"},
{"zip_code":"6120004","kana_pref":"ｷｮｳﾄﾌ","kana_city":"ｷｮｳﾄｼﾌｼﾐｸ","kana_address":"ﾌｶｸｻｱｲﾌｶﾁｮｳ","pref":"京都府","city":"京都市伏見区","address":"深草相深町"},
{"zip_code":"6120825","kana_pref":"ｷｮｳﾄﾌ","kana_city":"ｷｮｳﾄｼﾌｼﾐｸ","kana_address":"ﾌｶｸｻｱﾌﾞﾐｶﾞﾀﾆﾁｮｳ","pref":"京都府","city":"京都市伏見区","address":"深草鐙ケ谷町"},
{"zip_code":"6120031","kana_pref":"ｷｮｳﾄﾌ","kana_city":"ｷｮｳﾄｼﾌｼﾐｸ","kana_address":"ﾌｶｸｻｲｹﾉｳﾁﾁｮｳ","pref":"京都府","city":"京都市伏見区","address":"深草池ノ内町"},
{"zip_code":"6120028","kana_pref":"ｷｮｳﾄﾌ","kana_city":"ｷｮｳﾄｼﾌｼﾐｸ","kana_address":"ﾌｶｸｻｲｼﾞｷﾁｮｳ","pref":"京都府","city":"京都市伏見区","address":"深草飯食町"},
{"zip_code":"6120815","kana_pref":"ｷｮｳﾄﾌ","kana_city":"ｷｮｳﾄｼﾌｼﾐｸ","kana_address":"ﾌｶｸｻｲｼﾞｷﾔﾏﾁｮｳ","pref":"京都府","city":"京都市伏見区","address":"深草飯食山町"},
{"zip_code":"6120045","kana_pref":"ｷｮｳﾄﾌ","kana_city":"ｷｮｳﾄｼﾌｼﾐｸ","kana_address":"ﾌｶｸｻｲｼﾊﾞｼﾁｮｳ","pref":"京都府","city":"京都市伏見区","address":"深草石橋町"},
{"zip_code":"6120012","kana_pref":"ｷｮｳﾄﾌ","kana_city":"ｷｮｳﾄｼﾌｼﾐｸ","kana_address":"ﾌｶｸｻｲﾁﾉﾂﾎﾞﾁｮｳ","pref":"京都府","city":"京都市伏見区","address":"深草一ノ坪町"},
{"zip_code":"6120808","kana_pref":"ｷｮｳﾄﾌ","kana_city":"ｷｮｳﾄｼﾌｼﾐｸ","kana_address":"ﾌｶｸｻｲﾅﾘｴﾉｷﾊﾞｼﾁｮｳ","pref":"京都府","city":"京都市伏見区","address":"深草稲荷榎木橋町"},
{"zip_code":"6120881","kana_pref":"ｷｮｳﾄﾌ","kana_city":"ｷｮｳﾄｼﾌｼﾐｸ","kana_address":"ﾌｶｸｻｲﾅﾘｵﾝﾏｴﾁｮｳ","pref":"京都府","city":"京都市伏見区","address":"深草稲荷御前町"},
{"zip_code":"6120014","kana_pref":"ｷｮｳﾄﾌ","kana_city":"ｷｮｳﾄｼﾌｼﾐｸ","kana_address":"ﾌｶｸｻｲﾅﾘﾄﾘｲﾏｴﾁｮｳ","pref":"京都府","city":"京都市伏見区","address":"深草稲荷鳥居前町"},
{"zip_code":"6120807","kana_pref":"ｷｮｳﾄﾌ","kana_city":"ｷｮｳﾄｼﾌｼﾐｸ","kana_address":"ﾌｶｸｻｲﾅﾘﾅｶﾉﾁｮｳ","pref":"京都府","city":"京都市伏見区","address":"深草稲荷中之町"},
{"zip_code":"6120837","kana_pref":"ｷｮｳﾄﾌ","kana_city":"ｷｮｳﾄｼﾌｼﾐｸ","kana_address":"ﾌｶｸｻｲﾅﾘﾔﾏﾁｮｳ","pref":"京都府","city":"京都市伏見区","address":"深草稲荷山町"},
{"zip_code":"6120017","kana_pref":"ｷｮｳﾄﾌ","kana_city":"ｷｮｳﾄｼﾌｼﾐｸ","kana_address":"ﾌｶｸｻｲﾏｻﾞｲｹﾁｮｳ","pref":"京都府","city":"京都市伏見区","address":"深草今在家町"},
{"zip_code":"6120816","kana_pref":"ｷｮｳﾄﾌ","kana_city":"ｷｮｳﾄｼﾌｼﾐｸ","kana_address":"ﾌｶｸｻｳﾏﾀﾆﾁｮｳ","pref":"京都府","city":"京都市伏見区","address":"深草馬谷町"},
{"zip_code":"6128431","kana_pref":"ｷｮｳﾄﾌ","kana_city":"ｷｮｳﾄｼﾌｼﾐｸ","kana_address":"ﾌｶｸｻｴﾁｺﾞﾔｼｷﾁｮｳ","pref":"京都府","city":"京都市伏見区","address":"深草越後屋敷町"},
{"zip_code":"6120081","kana_pref":"ｷｮｳﾄﾌ","kana_city":"ｷｮｳﾄｼﾌｼﾐｸ","kana_address":"ﾌｶｸｻｵｵｼﾏﾔｼｷﾁｮｳ","pref":"京都府","city":"京都市伏見区","address":"深草大島屋敷町"},
{"zip_code":"6128403","kana_pref":"ｷｮｳﾄﾌ","kana_city":"ｷｮｳﾄｼﾌｼﾐｸ","kana_address":"ﾌｶｸｻｵｶﾔﾁｮｳ","pref":"京都府","city":"京都市伏見区","address":"深草ヲカヤ町"},
{"zip_code":"6120805","kana_pref":"ｷｮｳﾄﾌ","kana_city":"ｷｮｳﾄｼﾌｼﾐｸ","kana_address":"ﾌｶｸｻｶｲﾄﾞｸﾞﾁﾁｮｳ","pref":"京都府","city":"京都市伏見区","address":"深草開土口町"},
{"zip_code":"6120806","kana_pref":"ｷｮｳﾄﾌ","kana_city":"ｷｮｳﾄｼﾌｼﾐｸ","kana_address":"ﾌｶｸｻｶｲﾄﾞﾁｮｳ","pref":"京都府","city":"京都市伏見区","address":"深草開土町"},
{"zip_code":"6128434","kana_pref":"ｷｮｳﾄﾌ","kana_city":"ｷｮｳﾄｼﾌｼﾐｸ","kana_address":"ﾌｶｸｻｶｶﾞﾔｼｷﾁｮｳ","pref":"京都府","city":"京都市伏見区","address":"深草加賀屋敷町"},
{"zip_code":"6120826","kana_pref":"ｷｮｳﾄﾌ","kana_city":"ｷｮｳﾄｼﾌｼﾐｸ","kana_address":"ﾌｶｸｻｶﾌﾞﾄﾔﾏﾁｮｳ","pref":"京都府","city":"京都市伏見区","address":"深草兜山町"},
{"zip_code":"6120006","kana_pref":"ｷｮｳﾄﾌ","kana_city":"ｷｮｳﾄｼﾌｼﾐｸ","kana_address":"ﾌｶｸｻｶﾐﾖｺﾅﾜﾁｮｳ","pref":"京都府","city":"京都市伏見区","address":"深草上横縄町"},
{"zip_code":"6120875","kana_pref":"ｷｮｳﾄﾌ","kana_city":"ｷｮｳﾄｼﾌｼﾐｸ","kana_address":"ﾌｶｸｻｶﾚｷﾁｮｳ","pref":"京都府","city":"京都市伏見区","address":"深草枯木町"},
{"zip_code":"6128402","kana_pref":"ｷｮｳﾄﾌ","kana_city":"ｷｮｳﾄｼﾌｼﾐｸ","kana_address":"ﾌｶｸｻｶﾜｸﾎﾞﾁｮｳ","pref":"京都府","city":"京都市伏見区","address":"深草川久保町"},
{"zip_code":"6120873","kana_pref":"ｷｮｳﾄﾌ","kana_city":"ｷｮｳﾄｼﾌｼﾐｸ","kana_address":"ﾌｶｸｻｶﾜﾗﾏﾁ","pref":"京都府","city":"京都市伏見区","address":"深草瓦町"},
{"zip_code":"6120809","kana_pref":"ｷｮｳﾄﾌ","kana_city":"ｷｮｳﾄｼﾌｼﾐｸ","kana_address":"ﾌｶｸｻｶﾞﾝｼｮｳﾁｮｳ","pref":"京都府","city":"京都市伏見区","address":"深草願成町"},
{"zip_code":"6128405","kana_pref":"ｷｮｳﾄﾌ","kana_city":"ｷｮｳﾄｼﾌｼﾐｸ","kana_address":"ﾌｶｸｻｶﾝｼﾞﾝﾊﾞｼﾁｮｳ","pref":"京都府","city":"京都市伏見区","address":"深草勧進橋町"},
{"zip_code":"6120041","kana_pref":"ｷｮｳﾄﾌ","kana_city":"ｷｮｳﾄｼﾌｼﾐｸ","kana_address":"ﾌｶｸｻｷﾀｶｷﾞﾔﾁｮｳ","pref":"京都府","city":"京都市伏見区","address":"深草北鍵屋町"},
{"zip_code":"6120044","kana_pref":"ｷｮｳﾄﾌ","kana_city":"ｷｮｳﾄｼﾌｼﾐｸ","kana_address":"ﾌｶｸｻｷﾀｼﾝﾏﾁ","pref":"京都府","city":"京都市伏見区","address":"深草北新町"},
{"zip_code":"6120035","kana_pref":"ｷｮｳﾄﾌ","kana_city":"ｷｮｳﾄｼﾌｼﾐｸ","kana_address":"ﾌｶｸｻｷﾀﾊｽｲｹﾁｮｳ","pref":"京都府","city":"京都市伏見区","address":"深草北蓮池町"},
{"zip_code":"6120025","kana_pref":"ｷｮｳﾄﾌ","kana_city":"ｷｮｳﾄｼﾌｼﾐｸ","kana_address":"ﾌｶｸｻｷﾄﾛﾁｮｳ","pref":"京都府","city":"京都市伏見区","address":"深草キトロ町"},
{"zip_code":"6120824","kana_pref":"ｷｮｳﾄﾌ","kana_city":"ｷｮｳﾄｼﾌｼﾐｸ","kana_address":"ﾌｶｸｻｷﾘｶﾞﾀﾆﾁｮｳ","pref":"京都府","city":"京都市伏見区","address":"深草霧ケ谷町"},
{"zip_code":"6120822","kana_pref":"ｷｮｳﾄﾌ","kana_city":"ｷｮｳﾄｼﾌｼﾐｸ","kana_address":"ﾌｶｸｻｸﾗｶﾞﾀﾆ","pref":"京都府","city":"京都市伏見区","address":"深草鞍ケ谷"},
{"zip_code":"6120803","kana_pref":"ｷｮｳﾄﾌ","kana_city":"ｷｮｳﾄｼﾌｼﾐｸ","kana_address":"ﾌｶｸｻｸﾙﾏｻﾞｶﾁｮｳ","pref":"京都府","city":"京都市伏見区","address":"深草車阪町"},
{"zip_code":"6120016","kana_pref":"ｷｮｳﾄﾌ","kana_city":"ｷｮｳﾄｼﾌｼﾐｸ","kana_address":"ﾌｶｸｻｹﾅｻﾁｮｳ","pref":"京都府","city":"京都市伏見区","address":"深草ケナサ町"},
{"zip_code":"6128437","kana_pref":"ｷｮｳﾄﾌ","kana_city":"ｷｮｳﾄｼﾌｼﾐｸ","kana_address":"ﾌｶｸｻｺｸﾎﾞﾁｮｳ","pref":"京都府","city":"京都市伏見区","address":"深草小久保町"},
{"zip_code":"6120886","kana_pref":"ｷｮｳﾄﾌ","kana_city":"ｷｮｳﾄｼﾌｼﾐｸ","kana_address":"ﾌｶｸｻｺﾞｸﾗｸｼﾞﾁｮｳ","pref":"京都府","city":"京都市伏見区","address":"深草極楽寺町"},
{"zip_code":"6120813","kana_pref":"ｷｮｳﾄﾌ","kana_city":"ｷｮｳﾄｼﾌｼﾐｸ","kana_address":"ﾌｶｸｻｺﾞｸﾗｸｼﾞﾔﾏﾁｮｳ","pref":"京都府","city":"京都市伏見区","address":"深草極楽寺山町"},
{"zip_code":"6120027","kana_pref":"ｷｮｳﾄﾌ","kana_city":"ｷｮｳﾄｼﾌｼﾐｸ","kana_address":"ﾌｶｸｻｺﾞｸﾗｸﾁｮｳ","pref":"京都府","city":"京都市伏見区","address":"深草極楽町"},
{"zip_code":"6128439","kana_pref":"ｷｮｳﾄﾌ","kana_city":"ｷｮｳﾄｼﾌｼﾐｸ","kana_address":"ﾌｶｸｻｺﾞﾀﾝﾀﾞﾁｮｳ","pref":"京都府","city":"京都市伏見区","address":"深草五反田町"},
{"zip_code":"6120087","kana_pref":"ｷｮｳﾄﾌ","kana_city":"ｷｮｳﾄｼﾌｼﾐｸ","kana_address":"ﾌｶｸｻｺﾝﾔﾁｮｳ","pref":"京都府","city":"京都市伏見区","address":"深草紺屋町"},
{"zip_code":"6120811","kana_pref":"ｷｮｳﾄﾌ","kana_city":"ｷｮｳﾄｼﾌｼﾐｸ","kana_address":"ﾌｶｸｻｻｻﾔﾏﾁｮｳ","pref":"京都府","city":"京都市伏見区","address":"深草笹山町"},
{"zip_code":"6120089","kana_pref":"ｷｮｳﾄﾌ","kana_city":"ｷｮｳﾄｼﾌｼﾐｸ","kana_address":"ﾌｶｸｻｻﾉﾔｼｷﾁｮｳ","pref":"京都府","city":"京都市伏見区","address":"深草佐野屋敷町"},
{"zip_code":"6128432","kana_pref":"ｷｮｳﾄﾌ","kana_city":"ｷｮｳﾄｼﾌｼﾐｸ","kana_address":"ﾌｶｸｻｼﾊﾞﾀﾔｼｷﾁｮｳ","pref":"京都府","city":"京都市伏見区","address":"深草柴田屋敷町"},
{"zip_code":"6128401","kana_pref":"ｷｮｳﾄﾌ","kana_city":"ｷｮｳﾄｼﾌｼﾐｸ","kana_address":"ﾌｶｸｻｼﾓｶﾞﾜﾗﾁｮｳ","pref":"京都府","city":"京都市伏見区","address":"深草下川原町"},
{"zip_code":"6120001","kana_pref":"ｷｮｳﾄﾌ","kana_city":"ｷｮｳﾄｼﾌｼﾐｸ","kana_address":"ﾌｶｸｻｼﾓﾀｶﾏﾂﾁｮｳ","pref":"京都府","city":"京都市伏見区","address":"深草下高松町"},
{"zip_code":"6120007","kana_pref":"ｷｮｳﾄﾌ","kana_city":"ｷｮｳﾄｼﾌｼﾐｸ","kana_address":"ﾌｶｸｻｼﾓﾖｺﾅﾜﾁｮｳ","pref":"京都府","city":"京都市伏見区","address":"深草下横縄町"},
{"zip_code":"6120866","kana_pref":"ｷｮｳﾄﾌ","kana_city":"ｷｮｳﾄｼﾌｼﾐｸ","kana_address":"ﾌｶｸｻｼﾞｭｳｷｭｳｹﾝﾁｮｳ","pref":"京都府","city":"京都市伏見区","address":"深草十九軒町"},
{"zip_code":"6120801","kana_pref":"ｷｮｳﾄﾌ","kana_city":"ｷｮｳﾄｼﾌｼﾐｸ","kana_address":"ﾌｶｸｻｼｮｳｶｸﾁｮｳ","pref":"京都府","city":"京都市伏見区","address":"深草正覚町"},
{"zip_code":"6120872","kana_pref":"ｷｮｳﾄﾌ","kana_city":"ｷｮｳﾄｼﾌｼﾐｸ","kana_address":"ﾌｶｸｻｼﾝｼﾞｭｳｲﾝﾔﾏﾁｮｳ","pref":"京都府","city":"京都市伏見区","address":"深草真宗院山町"},
{"zip_code":"6120838","kana_pref":"ｷｮｳﾄﾌ","kana_city":"ｷｮｳﾄｼﾌｼﾐｸ","kana_address":"ﾌｶｸｻｼﾝﾒｲｺｳﾀﾞﾆﾁｮｳ","pref":"京都府","city":"京都市伏見区","address":"深草神明講谷町"},
{"zip_code":"6128436","kana_pref":"ｷｮｳﾄﾌ","kana_city":"ｷｮｳﾄｼﾌｼﾐｸ","kana_address":"ﾌｶｸｻｼﾝﾓﾝｼﾞｮｳﾁｮｳ","pref":"京都府","city":"京都市伏見区","address":"深草新門丈町"},
{"zip_code":"6120011","kana_pref":"ｷｮｳﾄﾌ","kana_city":"ｷｮｳﾄｼﾌｼﾐｸ","kana_address":"ﾌｶｸｻｽｽﾞﾂｶﾁｮｳ","pref":"京都府","city":"京都市伏見区","address":"深草鈴塚町"},
{"zip_code":"6120015","kana_pref":"ｷｮｳﾄﾌ","kana_city":"ｷｮｳﾄｼﾌｼﾐｸ","kana_address":"ﾌｶｸｻｽｽﾊｷﾁｮｳ","pref":"京都府","city":"京都市伏見区","address":"深草ススハキ町"},
{"zip_code":"6120828","kana_pref":"ｷｮｳﾄﾌ","kana_city":"ｷｮｳﾄｼﾌｼﾐｸ","kana_address":"ﾌｶｸｻｽﾅｺﾀﾞﾆﾁｮｳ","pref":"京都府","city":"京都市伏見区","address":"深草砂子谷町"},
{"zip_code":"6120052","kana_pref":"ｷｮｳﾄﾌ","kana_city":"ｷｮｳﾄｼﾌｼﾐｸ","kana_address":"ﾌｶｸｻｽﾐｿﾞﾒﾁｮｳ","pref":"京都府","city":"京都市伏見区","address":"深草墨染町"},
{"zip_code":"6120883","kana_pref":"ｷｮｳﾄﾌ","kana_city":"ｷｮｳﾄｼﾌｼﾐｸ","kana_address":"ﾌｶｸｻｾｷﾎｳｼﾞﾔﾏﾁｮｳ","pref":"京都府","city":"京都市伏見区","address":"深草石峰寺山町"},
{"zip_code":"6120037","kana_pref":"ｷｮｳﾄﾌ","kana_city":"ｷｮｳﾄｼﾌｼﾐｸ","kana_address":"ﾌｶｸｻｾｷﾔｼｷﾁｮｳ","pref":"京都府","city":"京都市伏見区","address":"深草関屋敷町"},
{"zip_code":"6120038","kana_pref":"ｷｮｳﾄﾌ","kana_city":"ｷｮｳﾄｼﾌｼﾐｸ","kana_address":"ﾌｶｸｻｾﾝｺﾞｸﾔｼｷﾁｮｳ","pref":"京都府","city":"京都市伏見区","address":"深草仙石屋敷町"},
{"zip_code":"6128433","kana_pref":"ｷｮｳﾄﾌ","kana_city":"ｷｮｳﾄｼﾌｼﾐｸ","kana_address":"ﾌｶｸｻｾﾞﾝﾄﾞｳｼﾞﾁｮｳ","pref":"京都府","city":"京都市伏見区","address":"深草善導寺町"},
{"zip_code":"6120877","kana_pref":"ｷｮｳﾄﾌ","kana_city":"ｷｮｳﾄｼﾌｼﾐｸ","kana_address":"ﾌｶｸｻｿｳﾎﾞｳﾁｮｳ","pref":"京都府","city":"京都市伏見区","address":"深草僧坊町"},
{"zip_code":"6120819","kana_pref":"ｷｮｳﾄﾌ","kana_city":"ｷｮｳﾄｼﾌｼﾐｸ","kana_address":"ﾌｶｸｻｿｳﾎﾞｳﾔﾏﾁｮｳ","pref":"京都府","city":"京都市伏見区","address":"深草僧坊山町"},
{"zip_code":"6120888","kana_pref":"ｷｮｳﾄﾌ","kana_city":"ｷｮｳﾄｼﾌｼﾐｸ","kana_address":"ﾌｶｸｻﾀﾞｲﾓﾝﾁｮｳ","pref":"京都府","city":"京都市伏見区","address":"深草大門町"},
{"zip_code":"6120829","kana_pref":"ｷｮｳﾄﾌ","kana_city":"ｷｮｳﾄｼﾌｼﾐｸ","kana_address":"ﾌｶｸｻﾀﾆｸﾞﾁﾁｮｳ","pref":"京都府","city":"京都市伏見区","address":"深草谷口町"},
{"zip_code":"6120878","kana_pref":"ｷｮｳﾄﾌ","kana_city":"ｷｮｳﾄｼﾌｼﾐｸ","kana_address":"ﾌｶｸｻﾀﾔﾁｮｳ","pref":"京都府","city":"京都市伏見区","address":"深草田谷町"},
{"zip_code":"6120023","kana_pref":"ｷｮｳﾄﾌ","kana_city":"ｷｮｳﾄｼﾌｼﾐｸ","kana_address":"ﾌｶｸｻﾁｮｳﾄﾞｵﾘﾁｮｳ","pref":"京都府","city":"京都市伏見区","address":"深草町通町"},
{"zip_code":"6120021","kana_pref":"ｷｮｳﾄﾌ","kana_city":"ｷｮｳﾄｼﾌｼﾐｸ","kana_address":"ﾌｶｸｻﾂｶﾓﾄﾁｮｳ","pref":"京都府","city":"京都市伏見区","address":"深草塚本町"},
{"zip_code":"6120033","kana_pref":"ｷｮｳﾄﾌ","kana_city":"ｷｮｳﾄｼﾌｼﾐｸ","kana_address":"ﾌｶｸｻﾃﾗｳﾁﾁｮｳ","pref":"京都府","city":"京都市伏見区","address":"深草寺内町"},
{"zip_code":"6120088","kana_pref":"ｷｮｳﾄﾌ","kana_city":"ｷｮｳﾄｼﾌｼﾐｸ","kana_address":"ﾌｶｸｻﾃﾞﾜﾔｼｷﾁｮｳ","pref":"京都府","city":"京都市伏見区","address":"深草出羽屋敷町"},
{"zip_code":"6120823","kana_pref":"ｷｮｳﾄﾌ","kana_city":"ｷｮｳﾄｼﾌｼﾐｸ","kana_address":"ﾌｶｸｻﾄｳｼﾞｸﾁｮｳ","pref":"京都府","city":"京都市伏見区","address":"深草東軸町"},
{"zip_code":"6120814","kana_pref":"ｷｮｳﾄﾌ","kana_city":"ｷｮｳﾄｼﾌｼﾐｸ","kana_address":"ﾌｶｸｻﾄﾉｺﾔﾏﾁｮｳ","pref":"京都府","city":"京都市伏見区","address":"深草砥粉山町"},
{"zip_code":"6120864","kana_pref":"ｷｮｳﾄﾌ","kana_city":"ｷｮｳﾄｼﾌｼﾐｸ","kana_address":"ﾌｶｸｻﾄﾘｲｻﾞｷﾁｮｳ","pref":"京都府","city":"京都市伏見区","address":"深草鳥居崎町"},
{"zip_code":"6120002","kana_pref":"ｷｮｳﾄﾌ","kana_city":"ｷｮｳﾄｼﾌｼﾐｸ","kana_address":"ﾌｶｸｻﾅｶｶﾞﾜﾗﾁｮｳ","pref":"京都府","city":"京都市伏見区","address":"深草中川原町"},
{"zip_code":"6120818","kana_pref":"ｷｮｳﾄﾌ","kana_city":"ｷｮｳﾄｼﾌｼﾐｸ","kana_address":"ﾌｶｸｻﾅｶﾉｺﾞｳﾔﾏﾁｮｳ","pref":"京都府","city":"京都市伏見区","address":"深草中ノ郷山町"},
{"zip_code":"6120049","kana_pref":"ｷｮｳﾄﾌ","kana_city":"ｷｮｳﾄｼﾌｼﾐｸ","kana_address":"ﾌｶｸｻﾅｶﾉｼﾏﾁｮｳ","pref":"京都府","city":"京都市伏見区","address":"深草中ノ島町"},
{"zip_code":"6120034","kana_pref":"ｷｮｳﾄﾌ","kana_city":"ｷｮｳﾄｼﾌｼﾐｸ","kana_address":"ﾌｶｸｻﾅﾅｾｶﾞﾜﾁｮｳ","pref":"京都府","city":"京都市伏見区","address":"深草七瀬川町"},
{"zip_code":"6120802","kana_pref":"ｷｮｳﾄﾌ","kana_city":"ｷｮｳﾄｼﾌｼﾐｸ","kana_address":"ﾌｶｸｻﾅﾝﾒｲﾁｮｳ","pref":"京都府","city":"京都市伏見区","address":"深草南明町"},
{"zip_code":"6120032","kana_pref":"ｷｮｳﾄﾌ","kana_city":"ｷｮｳﾄｼﾌｼﾐｸ","kana_address":"ﾌｶｸｻﾆｼｲｼﾞｷﾁｮｳ","pref":"京都府","city":"京都市伏見区","address":"深草西飯食町"},
{"zip_code":"6120029","kana_pref":"ｷｮｳﾄﾌ","kana_city":"ｷｮｳﾄｼﾌｼﾐｸ","kana_address":"ﾌｶｸｻﾆｼｳﾗﾁｮｳ","pref":"京都府","city":"京都市伏見区","address":"深草西浦町"},
{"zip_code":"6120009","kana_pref":"ｷｮｳﾄﾌ","kana_city":"ｷｮｳﾄｼﾌｼﾐｸ","kana_address":"ﾌｶｸｻﾆｼｶﾞﾜﾗﾁｮｳ","pref":"京都府","city":"京都市伏見区","address":"深草西川原町"},
{"zip_code":"6120876","kana_pref":"ｷｮｳﾄﾌ","kana_city":"ｷｮｳﾄｼﾌｼﾐｸ","kana_address":"ﾌｶｸｻﾆｼﾀﾞﾃﾁｮｳ","pref":"京都府","city":"京都市伏見区","address":"深草西伊達町"},
{"zip_code":"6120879","kana_pref":"ｷｮｳﾄﾌ","kana_city":"ｷｮｳﾄｼﾌｼﾐｸ","kana_address":"ﾌｶｸｻﾆｼﾃﾞﾁｮｳ","pref":"京都府","city":"京都市伏見区","address":"深草西出町"},
{"zip_code":"6120884","kana_pref":"ｷｮｳﾄﾌ","kana_city":"ｷｮｳﾄｼﾌｼﾐｸ","kana_address":"ﾌｶｸｻﾆｼﾃﾞﾔﾏﾁｮｳ","pref":"京都府","city":"京都市伏見区","address":"深草西出山町"},
{"zip_code":"6120024","kana_pref":"ｷｮｳﾄﾌ","kana_city":"ｷｮｳﾄｼﾌｼﾐｸ","kana_address":"ﾌｶｸｻﾉﾀﾞﾁｮｳ","pref":"京都府","city":"京都市伏見区","address":"深草野田町"},
{"zip_code":"6120887","kana_pref":"ｷｮｳﾄﾌ","kana_city":"ｷｮｳﾄｼﾌｼﾐｸ","kana_address":"ﾌｶｸｻﾉﾃﾞﾁｮｳ","pref":"京都府","city":"京都市伏見区","address":"深草野手町"},
{"zip_code":"6120013","kana_pref":"ｷｮｳﾄﾌ","kana_city":"ｷｮｳﾄｼﾌｼﾐｸ","kana_address":"ﾌｶｸｻﾊﾗｲｶﾞﾜﾁｮｳ","pref":"京都府","city":"京都市伏見区","address":"深草祓川町"},
{"zip_code":"6120821","kana_pref":"ｷｮｳﾄﾌ","kana_city":"ｷｮｳﾄｼﾌｼﾐｸ","kana_address":"ﾌｶｸｻﾋｶﾞｼｶﾞﾜﾗﾏﾁ","pref":"京都府","city":"京都市伏見区","address":"深草東瓦町"},
{"zip_code":"6120874","kana_pref":"ｷｮｳﾄﾌ","kana_city":"ｷｮｳﾄｼﾌｼﾐｸ","kana_address":"ﾌｶｸｻﾋｶﾞｼﾀﾞﾃﾁｮｳ","pref":"京都府","city":"京都市伏見区","address":"深草東伊達町"},
{"zip_code":"6120019","kana_pref":"ｷｮｳﾄﾌ","kana_city":"ｷｮｳﾄｼﾌｼﾐｸ","kana_address":"ﾌｶｸｻﾋﾗﾀﾁｮｳ","pref":"京都府","city":"京都市伏見区","address":"深草平田町"},
{"zip_code":"6120018","kana_pref":"ｷｮｳﾄﾌ","kana_city":"ｷｮｳﾄｼﾌｼﾐｸ","kana_address":"ﾌｶｸｻﾌｹﾉｳﾁﾁｮｳ","pref":"京都府","city":"京都市伏見区","address":"深草フケノ内町"},
{"zip_code":"6128435","kana_pref":"ｷｮｳﾄﾌ","kana_city":"ｷｮｳﾄｼﾌｼﾐｸ","kana_address":"ﾌｶｸｻﾌｹﾉﾂﾎﾞﾁｮｳ","pref":"京都府","city":"京都市伏見区","address":"深草泓ノ壺町"},
{"zip_code":"6120003","kana_pref":"ｷｮｳﾄﾌ","kana_city":"ｷｮｳﾄｼﾌｼﾐｸ","kana_address":"ﾌｶｸｻﾌｼﾞﾀﾉﾂﾎﾞﾁｮｳ","pref":"京都府","city":"京都市伏見区","address":"深草藤田坪町"},
{"zip_code":"6120865","kana_pref":"ｷｮｳﾄﾌ","kana_city":"ｷｮｳﾄｼﾌｼﾐｸ","kana_address":"ﾌｶｸｻﾌｼﾞﾉﾓﾘｹﾞﾝﾊﾞﾁｮｳ","pref":"京都府","city":"京都市伏見区","address":"深草藤森玄蕃町"},
{"zip_code":"6120863","kana_pref":"ｷｮｳﾄﾌ","kana_city":"ｷｮｳﾄｼﾌｼﾐｸ","kana_address":"ﾌｶｸｻﾌｼﾞﾉﾓﾘﾁｮｳ","pref":"京都府","city":"京都市伏見区","address":"深草藤森町"},
{"zip_code":"6128438","kana_pref":"ｷｮｳﾄﾌ","kana_city":"ｷｮｳﾄｼﾌｼﾐｸ","kana_address":"ﾌｶｸｻﾌﾁﾁｮｳ","pref":"京都府","city":"京都市伏見区","address":"深草フチ町"},
{"zip_code":"6120871","kana_pref":"ｷｮｳﾄﾌ","kana_city":"ｷｮｳﾄｼﾌｼﾐｸ","kana_address":"ﾌｶｸｻﾎﾞｳﾁｮｳ","pref":"京都府","city":"京都市伏見区","address":"深草坊町"},
{"zip_code":"6120885","kana_pref":"ｷｮｳﾄﾌ","kana_city":"ｷｮｳﾄｼﾌｼﾐｸ","kana_address":"ﾌｶｸｻﾎｳﾄｳｼﾞﾔﾏﾁｮｳ","pref":"京都府","city":"京都市伏見区","address":"深草宝塔寺山町"},
{"zip_code":"6120812","kana_pref":"ｷｮｳﾄﾌ","kana_city":"ｷｮｳﾄｼﾌｼﾐｸ","kana_address":"ﾌｶｸｻﾎﾞｳﾔﾏﾁｮｳ","pref":"京都府","city":"京都市伏見区","address":"深草坊山町"},
{"zip_code":"6120026","kana_pref":"ｷｮｳﾄﾌ","kana_city":"ｷｮｳﾄｼﾌｼﾐｸ","kana_address":"ﾌｶｸｻﾎﾂﾀﾁｮｳ","pref":"京都府","city":"京都市伏見区","address":"深草堀田町"},
{"zip_code":"6120839","kana_pref":"ｷｮｳﾄﾌ","kana_city":"ｷｮｳﾄｼﾌｼﾐｸ","kana_address":"ﾌｶｸｻﾎﾝｼﾞﾔﾏﾁｮｳ","pref":"京都府","city":"京都市伏見区","address":"深草本寺山町"},
{"zip_code":"6120036","kana_pref":"ｷｮｳﾄﾌ","kana_city":"ｷｮｳﾄｼﾌｼﾐｸ","kana_address":"ﾌｶｸｻﾐﾅﾐﾊｽｲｹﾁｮｳ","pref":"京都府","city":"京都市伏見区","address":"深草南蓮池町"},
{"zip_code":"6120827","kana_pref":"ｷｮｳﾄﾌ","kana_city":"ｷｮｳﾄｼﾌｼﾐｸ","kana_address":"ﾌｶｸｻﾐﾔﾀﾆﾁｮｳ","pref":"京都府","city":"京都市伏見区","address":"深草宮谷町"},
{"zip_code":"6120817","kana_pref":"ｷｮｳﾄﾌ","kana_city":"ｷｮｳﾄｼﾌｼﾐｸ","kana_address":"ﾌｶｸｻﾑｶｲｶﾞﾊﾗﾁｮｳ","pref":"京都府","city":"京都市伏見区","address":"深草向ケ原町"},
{"zip_code":"6128404","kana_pref":"ｷｮｳﾄﾌ","kana_city":"ｷｮｳﾄｼﾌｼﾐｸ","kana_address":"ﾌｶｸｻﾑｶｲｶﾞﾜﾗﾁｮｳ","pref":"京都府","city":"京都市伏見区","address":"深草向川原町"},
{"zip_code":"6120861","kana_pref":"ｷｮｳﾄﾌ","kana_city":"ｷｮｳﾄｼﾌｼﾐｸ","kana_address":"ﾌｶｸｻﾑｶｲﾊﾀﾁｮｳ","pref":"京都府","city":"京都市伏見区","address":"深草向畑町"},
{"zip_code":"6120005","kana_pref":"ｷｮｳﾄﾌ","kana_city":"ｷｮｳﾄｼﾌｼﾐｸ","kana_address":"ﾌｶｸｻﾓﾘﾖｼﾁｮｳ","pref":"京都府","city":"京都市伏見区","address":"深草森吉町"},
{"zip_code":"6120882","kana_pref":"ｷｮｳﾄﾌ","kana_city":"ｷｮｳﾄｼﾌｼﾐｸ","kana_address":"ﾌｶｸｻﾔﾌﾞﾉｳﾁﾁｮｳ","pref":"京都府","city":"京都市伏見区","address":"深草薮之内町"},
{"zip_code":"6120082","kana_pref":"ｷｮｳﾄﾌ","kana_city":"ｷｮｳﾄｼﾌｼﾐｸ","kana_address":"ﾌｶｸｻﾔﾏﾑﾗﾁｮｳ","pref":"京都府","city":"京都市伏見区","address":"深草山村町"},
{"zip_code":"6120042","kana_pref":"ｷｮｳﾄﾌ","kana_city":"ｷｮｳﾄｼﾌｼﾐｸ","kana_address":"ﾌｶｸｻﾖｼﾅｶﾞﾁｮｳ","pref":"京都府","city":"京都市伏見区","address":"深草芳永町"},
{"zip_code":"6120043","kana_pref":"ｷｮｳﾄﾌ","kana_city":"ｷｮｳﾄｼﾌｼﾐｸ","kana_address":"ﾌｶｸｻﾖｼﾓﾄﾁｮｳ","pref":"京都府","city":"京都市伏見区","address":"深草芳本町"},
{"zip_code":"6120008","kana_pref":"ｷｮｳﾄﾌ","kana_city":"ｷｮｳﾄｼﾌｼﾐｸ","kana_address":"ﾌｶｸｻﾛｸﾀﾝﾀﾞﾁｮｳ","pref":"京都府","city":"京都市伏見区","address":"深草六反田町"},
{"zip_code":"6120022","kana_pref":"ｷｮｳﾄﾌ","kana_city":"ｷｮｳﾄｼﾌｼﾐｸ","kana_address":"ﾌｶｸｻﾜﾀﾓﾘﾁｮｳ","pref":"京都府","city":"京都市伏見区","address":"深草綿森町"},
{"zip_code":"6120836","kana_pref":"ｷｮｳﾄﾌ","kana_city":"ｷｮｳﾄｼﾌｼﾐｸ","kana_address":"ﾌｶｸｻｵｵｶﾒﾀﾞﾆｱﾝｼﾝﾁｮｳ","pref":"京都府","city":"京都市伏見区","address":"深草大亀谷安信町"},
{"zip_code":"6120833","kana_pref":"ｷｮｳﾄﾌ","kana_city":"ｷｮｳﾄｼﾌｼﾐｸ","kana_address":"ﾌｶｸｻｵｵｶﾒﾀﾞﾆｲﾜﾔﾏﾁｮｳ","pref":"京都府","city":"京都市伏見区","address":"深草大亀谷岩山町"},
{"zip_code":"6120842","kana_pref":"ｷｮｳﾄﾌ","kana_city":"ｷｮｳﾄｼﾌｼﾐｸ","kana_address":"ﾌｶｸｻｵｵｶﾒﾀﾞﾆｵｵﾀﾆﾁｮｳ","pref":"京都府","city":"京都市伏見区","address":"深草大亀谷大谷町"},
{"zip_code":"6120847","kana_pref":"ｷｮｳﾄﾌ","kana_city":"ｷｮｳﾄｼﾌｼﾐｸ","kana_address":"ﾌｶｸｻｵｵｶﾒﾀﾞﾆｵｵﾔﾏﾁｮｳ","pref":"京都府","city":"京都市伏見区","address":"深草大亀谷大山町"},
{"zip_code":"6120048","kana_pref":"ｷｮｳﾄﾌ","kana_city":"ｷｮｳﾄｼﾌｼﾐｸ","kana_address":"ﾌｶｸｻｵｵｶﾒﾀﾞﾆｶﾅﾓﾘｲｽﾞﾓﾁｮｳ","pref":"京都府","city":"京都市伏見区","address":"深草大亀谷金森出雲町"},
{"zip_code":"6120852","kana_pref":"ｷｮｳﾄﾌ","kana_city":"ｷｮｳﾄｼﾌｼﾐｸ","kana_address":"ﾌｶｸｻｵｵｶﾒﾀﾞﾆｺﾞﾛｳﾀﾁｮｳ","pref":"京都府","city":"京都市伏見区","address":"深草大亀谷五郎太町"},
{"zip_code":"6120845","kana_pref":"ｷｮｳﾄﾌ","kana_city":"ｷｮｳﾄｼﾌｼﾐｸ","kana_address":"ﾌｶｸｻｵｵｶﾒﾀﾞﾆﾂﾙｶﾞﾁｮｳ","pref":"京都府","city":"京都市伏見区","address":"深草大亀谷敦賀町"},
{"zip_code":"6120047","kana_pref":"ｷｮｳﾄﾌ","kana_city":"ｷｮｳﾄｼﾌｼﾐｸ","kana_address":"ﾌｶｸｻｵｵｶﾒﾀﾞﾆﾅｲｾﾞﾝﾁｮｳ","pref":"京都府","city":"京都市伏見区","address":"深草大亀谷内膳町"},
{"zip_code":"6120862","kana_pref":"ｷｮｳﾄﾌ","kana_city":"ｷｮｳﾄｼﾌｼﾐｸ","kana_address":"ﾌｶｸｻｵｵｶﾒﾀﾞﾆﾆｼｷｭｳﾎｳｼﾞﾁｮｳ","pref":"京都府","city":"京都市伏見区","address":"深草大亀谷西久宝寺町"},
{"zip_code":"6120849","kana_pref":"ｷｮｳﾄﾌ","kana_city":"ｷｮｳﾄｼﾌｼﾐｸ","kana_address":"ﾌｶｸｻｵｵｶﾒﾀﾞﾆﾆｼﾃﾞﾗﾁｮｳ","pref":"京都府","city":"京都市伏見区","address":"深草大亀谷西寺町"},
{"zip_code":"6120832","kana_pref":"ｷｮｳﾄﾌ","kana_city":"ｷｮｳﾄｼﾌｼﾐｸ","kana_address":"ﾌｶｸｻｵｵｶﾒﾀﾞﾆﾋｶﾞｼｱﾝｼﾝﾁｮｳ","pref":"京都府","city":"京都市伏見区","address":"深草大亀谷東安信町"},
{"zip_code":"6120841","kana_pref":"ｷｮｳﾄﾌ","kana_city":"ｷｮｳﾄｼﾌｼﾐｸ","kana_address":"ﾌｶｸｻｵｵｶﾒﾀﾞﾆﾋｶﾞｼｷｭｳﾎｳｼﾞﾁｮｳ","pref":"京都府","city":"京都市伏見区","address":"深草大亀谷東久宝寺町"},
{"zip_code":"6120848","kana_pref":"ｷｮｳﾄﾌ","kana_city":"ｷｮｳﾄｼﾌｼﾐｸ","kana_address":"ﾌｶｸｻｵｵｶﾒﾀﾞﾆﾋｶﾞｼﾃﾞﾗﾁｮｳ","pref":"京都府","city":"京都市伏見区","address":"深草大亀谷東寺町"},
{"zip_code":"6120844","kana_pref":"ｷｮｳﾄﾌ","kana_city":"ｷｮｳﾄｼﾌｼﾐｸ","kana_address":"ﾌｶｸｻｵｵｶﾒﾀﾞﾆﾋｶﾞｼﾌﾙｺﾞｺｳﾁｮｳ","pref":"京都府","city":"京都市伏見区","address":"深草大亀谷東古御香町"},
{"zip_code":"6120843","kana_pref":"ｷｮｳﾄﾌ","kana_city":"ｷｮｳﾄｼﾌｼﾐｸ","kana_address":"ﾌｶｸｻｵｵｶﾒﾀﾞﾆﾌﾙｺﾞｺｳﾁｮｳ","pref":"京都府","city":"京都市伏見区","address":"深草大亀谷古御香町"},
{"zip_code":"6120846","kana_pref":"ｷｮｳﾄﾌ","kana_city":"ｷｮｳﾄｼﾌｼﾐｸ","kana_address":"ﾌｶｸｻｵｵｶﾒﾀﾞﾆﾏﾝｼﾞｮｳｼﾞｷﾁｮｳ","pref":"京都府","city":"京都市伏見区","address":"深草大亀谷万帖敷町"},
{"zip_code":"6120046","kana_pref":"ｷｮｳﾄﾌ","kana_city":"ｷｮｳﾄｼﾌｼﾐｸ","kana_address":"ﾌｶｸｻｵｵｶﾒﾀﾞﾆﾔｼﾏﾁｮｳ","pref":"京都府","city":"京都市伏見区","address":"深草大亀谷八島町"},
{"zip_code":"6120851","kana_pref":"ｷｮｳﾄﾌ","kana_city":"ｷｮｳﾄｼﾌｼﾐｸ","kana_address":"ﾌｶｸｻｵｵｶﾒﾀﾞﾆﾛｸﾀｲﾁｮｳ","pref":"京都府","city":"京都市伏見区","address":"深草大亀谷六躰町"},
{"zip_code":"6120889","kana_pref":"ｷｮｳﾄﾌ","kana_city":"ｷｮｳﾄｼﾌｼﾐｸ","kana_address":"ﾌｶｸｻｽｼﾞｶｲﾊﾞｼ","pref":"京都府","city":"京都市伏見区","address":"深草直違橋"},
{"zip_code":"6120867","kana_pref":"ｷｮｳﾄﾌ","kana_city":"ｷｮｳﾄｼﾌｼﾐｸ","kana_address":"ﾌｶｸｻｽｼﾞｶｲﾊﾞｼｶﾀﾏﾁ","pref":"京都府","city":"京都市伏見区","address":"深草直違橋片町"},
{"zip_code":"6120868","kana_pref":"ｷｮｳﾄﾌ","kana_city":"ｷｮｳﾄｼﾌｼﾐｸ","kana_address":"ﾌｶｸｻｽｼﾞｶｲﾊﾞｼﾐﾅﾐ","pref":"京都府","city":"京都市伏見区","address":"深草直違橋南"},
{"zip_code":"6120869","kana_pref":"ｷｮｳﾄﾌ","kana_city":"ｷｮｳﾄｼﾌｼﾐｸ","kana_address":"ﾌｶｸｻｽｼﾞｶｲﾊﾞｼｷﾀ","pref":"京都府","city":"京都市伏見区","address":"深草直違橋北"},
{"zip_code":"6128108","kana_pref":"ｷｮｳﾄﾌ","kana_city":"ｷｮｳﾄｼﾌｼﾐｸ","kana_address":"ﾌﾞｷﾞｮｳﾏｴﾁｮｳ","pref":"京都府","city":"京都市伏見区","address":"奉行前町"},
{"zip_code":"6128338","kana_pref":"ｷｮｳﾄﾌ","kana_city":"ｷｮｳﾄｼﾌｼﾐｸ","kana_address":"ﾌﾞﾀｲﾁｮｳ","pref":"京都府","city":"京都市伏見区","address":"舞台町"},
{"zip_code":"6128058","kana_pref":"ｷｮｳﾄﾌ","kana_city":"ｷｮｳﾄｼﾌｼﾐｸ","kana_address":"ﾌﾛﾔﾏﾁ","pref":"京都府","city":"京都市伏見区","address":"風呂屋町"},
{"zip_code":"6128106","kana_pref":"ｷｮｳﾄﾌ","kana_city":"ｷｮｳﾄｼﾌｼﾐｸ","kana_address":"ﾌﾞﾝｺﾞﾊﾞｼﾁｮｳ","pref":"京都府","city":"京都市伏見区","address":"豊後橋町"},
{"zip_code":"6128055","kana_pref":"ｷｮｳﾄﾌ","kana_city":"ｷｮｳﾄｼﾌｼﾐｸ","kana_address":"ﾎｳｷﾁｮｳ","pref":"京都府","city":"京都市伏見区","address":"伯耆町"},
{"zip_code":"6128317","kana_pref":"ｷｮｳﾄﾌ","kana_city":"ｷｮｳﾄｼﾌｼﾐｸ","kana_address":"ﾎﾘﾂﾞﾒﾁｮｳ","pref":"京都府","city":"京都市伏見区","address":"堀詰町"},
{"zip_code":"6128075","kana_pref":"ｷｮｳﾄﾌ","kana_city":"ｷｮｳﾄｼﾌｼﾐｸ","kana_address":"ﾏｽｶﾞﾀﾁｮｳ","pref":"京都府","city":"京都市伏見区","address":"桝形町"},
{"zip_code":"6128322","kana_pref":"ｷｮｳﾄﾌ","kana_city":"ｷｮｳﾄｼﾌｼﾐｸ","kana_address":"ﾏｽﾔﾁｮｳ","pref":"京都府","city":"京都市伏見区","address":"桝屋町"},
{"zip_code":"6128346","kana_pref":"ｷｮｳﾄﾌ","kana_city":"ｷｮｳﾄｼﾌｼﾐｸ","kana_address":"ﾏﾂﾔﾁｮｳ","pref":"京都府","city":"京都市伏見区","address":"松屋町"},
{"zip_code":"6128233","kana_pref":"ｷｮｳﾄﾌ","kana_city":"ｷｮｳﾄｼﾌｼﾐｸ","kana_address":"ﾐｽﾁｮｳ","pref":"京都府","city":"京都市伏見区","address":"三栖町"},
{"zip_code":"6128232","kana_pref":"ｷｮｳﾄﾌ","kana_city":"ｷｮｳﾄｼﾌｼﾐｸ","kana_address":"ﾐｽﾊﾝﾁｮｳ","pref":"京都府","city":"京都市伏見区","address":"三栖半町"},
{"zip_code":"6128227","kana_pref":"ｷｮｳﾄﾌ","kana_city":"ｷｮｳﾄｼﾌｼﾐｸ","kana_address":"ﾐｽﾑｺｳﾁｮｳ","pref":"京都府","city":"京都市伏見区","address":"三栖向町"},
{"zip_code":"6128054","kana_pref":"ｷｮｳﾄﾌ","kana_city":"ｷｮｳﾄｼﾌｼﾐｸ","kana_address":"ﾐﾄﾞｳﾏｴﾁｮｳ","pref":"京都府","city":"京都市伏見区","address":"御堂前町"},
{"zip_code":"6128076","kana_pref":"ｷｮｳﾄﾌ","kana_city":"ｷｮｳﾄｼﾌｼﾐｸ","kana_address":"ﾐﾅﾐｱﾏｶﾞｻｷﾁｮｳ","pref":"京都府","city":"京都市伏見区","address":"南尼崎町"},
{"zip_code":"6128228","kana_pref":"ｷｮｳﾄﾌ","kana_city":"ｷｮｳﾄｼﾌｼﾐｸ","kana_address":"ﾐﾅﾐｼﾝﾁ","pref":"京都府","city":"京都市伏見区","address":"南新地"},
{"zip_code":"6128379","kana_pref":"ｷｮｳﾄﾌ","kana_city":"ｷｮｳﾄｼﾌｼﾐｸ","kana_address":"ﾐﾅﾐﾈｺﾔﾁｮｳ","pref":"京都府","city":"京都市伏見区","address":"南寝小屋町"},
{"zip_code":"6128045","kana_pref":"ｷｮｳﾄﾌ","kana_city":"ｷｮｳﾄｼﾌｼﾐｸ","kana_address":"ﾐﾅﾐﾊﾏﾁｮｳ","pref":"京都府","city":"京都市伏見区","address":"南浜町"},
{"zip_code":"6128158","kana_pref":"ｷｮｳﾄﾌ","kana_city":"ｷｮｳﾄｼﾌｼﾐｸ","kana_address":"ﾑｶｲｼﾞﾏｶﾐｺﾞﾀﾝﾀﾞ","pref":"京都府","city":"京都市伏見区","address":"向島上五反田"},
{"zip_code":"6128151","kana_pref":"ｷｮｳﾄﾌ","kana_city":"ｷｮｳﾄｼﾌｼﾐｸ","kana_address":"ﾑｶｲｼﾞﾏｶﾝﾊﾞﾔｼﾁｮｳ","pref":"京都府","city":"京都市伏見区","address":"向島上林町"},
{"zip_code":"6128122","kana_pref":"ｷｮｳﾄﾌ","kana_city":"ｷｮｳﾄｼﾌｼﾐｸ","kana_address":"ﾑｶｲｼﾞﾏｺｳｼﾝﾁｮｳ","pref":"京都府","city":"京都市伏見区","address":"向島庚申町"},
{"zip_code":"6128134","kana_pref":"ｷｮｳﾄﾌ","kana_city":"ｷｮｳﾄｼﾌｼﾐｸ","kana_address":"ﾑｶｲｼﾞﾏｼﾐｽﾞﾁｮｳ","pref":"京都府","city":"京都市伏見区","address":"向島清水町"},
{"zip_code":"6128114","kana_pref":"ｷｮｳﾄﾌ","kana_city":"ｷｮｳﾄｼﾌｼﾐｸ","kana_address":"ﾑｶｲｼﾞﾏｼﾓﾉﾁｮｳ","pref":"京都府","city":"京都市伏見区","address":"向島下之町"},
{"zip_code":"6128152","kana_pref":"ｷｮｳﾄﾌ","kana_city":"ｷｮｳﾄｼﾌｼﾐｸ","kana_address":"ﾑｶｲｼﾞﾏｼﾝｶﾝﾊﾞﾔｼ","pref":"京都府","city":"京都市伏見区","address":"向島新上林"},
{"zip_code":"6128124","kana_pref":"ｷｮｳﾄﾌ","kana_city":"ｷｮｳﾄｼﾌｼﾐｸ","kana_address":"ﾑｶｲｼﾞﾏｽｲﾀｶﾞﾜﾗﾁｮｳ","pref":"京都府","city":"京都市伏見区","address":"向島吹田河原町"},
{"zip_code":"6128121","kana_pref":"ｷｮｳﾄﾌ","kana_city":"ｷｮｳﾄｼﾌｼﾐｸ","kana_address":"ﾑｶｲｼﾞﾏｾﾞﾝｱﾐﾁｮｳ","pref":"京都府","city":"京都市伏見区","address":"向島善阿弥町"},
{"zip_code":"6128157","kana_pref":"ｷｮｳﾄﾌ","kana_city":"ｷｮｳﾄｼﾌｼﾐｸ","kana_address":"ﾑｶｲｼﾞﾏﾀﾞｲｺｸ","pref":"京都府","city":"京都市伏見区","address":"向島大黒"},
{"zip_code":"6128133","kana_pref":"ｷｮｳﾄﾌ","kana_city":"ｷｮｳﾄｼﾌｼﾐｸ","kana_address":"ﾑｶｲｼﾞﾏﾀｶﾊﾞﾁｮｳ","pref":"京都府","city":"京都市伏見区","address":"向島鷹場町"},
{"zip_code":"6128123","kana_pref":"ｷｮｳﾄﾌ","kana_city":"ｷｮｳﾄｼﾌｼﾐｸ","kana_address":"ﾑｶｲｼﾞﾏﾀﾃｶﾞﾜﾗﾁｮｳ","pref":"京都府","city":"京都市伏見区","address":"向島立河原町"},
{"zip_code":"6128154","kana_pref":"ｷｮｳﾄﾌ","kana_city":"ｷｮｳﾄｼﾌｼﾐｸ","kana_address":"ﾑｶｲｼﾞﾏﾂﾀﾞﾁｮｳ","pref":"京都府","city":"京都市伏見区","address":"向島津田町"},
{"zip_code":"6128125","kana_pref":"ｷｮｳﾄﾌ","kana_city":"ｷｮｳﾄｼﾌｼﾐｸ","kana_address":"ﾑｶｲｼﾞﾏﾄｳｾﾝｼﾞﾁｮｳ","pref":"京都府","city":"京都市伏見区","address":"向島東泉寺町"},
{"zip_code":"6128113","kana_pref":"ｷｮｳﾄﾌ","kana_city":"ｷｮｳﾄｼﾌｼﾐｸ","kana_address":"ﾑｶｲｼﾞﾏﾅｶｼﾞﾏﾁｮｳ","pref":"京都府","city":"京都市伏見区","address":"向島中島町"},
{"zip_code":"6128115","kana_pref":"ｷｮｳﾄﾌ","kana_city":"ｷｮｳﾄｼﾌｼﾐｸ","kana_address":"ﾑｶｲｼﾞﾏﾅｶﾉﾁｮｳ","pref":"京都府","city":"京都市伏見区","address":"向島中之町"},
{"zip_code":"6128156","kana_pref":"ｷｮｳﾄﾌ","kana_city":"ｷｮｳﾄｼﾌｼﾐｸ","kana_address":"ﾑｶｲｼﾞﾏﾆｼｼﾞｮｳｳｹ","pref":"京都府","city":"京都市伏見区","address":"向島西定請"},
{"zip_code":"6128116","kana_pref":"ｷｮｳﾄﾌ","kana_city":"ｷｮｳﾄｼﾌｼﾐｸ","kana_address":"ﾑｶｲｼﾞﾏﾆｼﾂﾂﾐﾁｮｳ","pref":"京都府","city":"京都市伏見区","address":"向島西堤町"},
{"zip_code":"6128141","kana_pref":"ｷｮｳﾄﾌ","kana_city":"ｷｮｳﾄｼﾌｼﾐｸ","kana_address":"ﾑｶｲｼﾞﾏﾆﾉﾏﾙﾁｮｳ","pref":"京都府","city":"京都市伏見区","address":"向島二ノ丸町"},
{"zip_code":"6128153","kana_pref":"ｷｮｳﾄﾌ","kana_city":"ｷｮｳﾄｼﾌｼﾐｸ","kana_address":"ﾑｶｲｼﾞﾏﾆﾎﾝﾔﾅｷﾞ","pref":"京都府","city":"京都市伏見区","address":"向島二本柳"},
{"zip_code":"6128111","kana_pref":"ｷｮｳﾄﾌ","kana_city":"ｷｮｳﾄｼﾌｼﾐｸ","kana_address":"ﾑｶｲｼﾞﾏﾊｼﾂﾞﾒﾁｮｳ","pref":"京都府","city":"京都市伏見区","address":"向島橋詰町"},
{"zip_code":"6128155","kana_pref":"ｷｮｳﾄﾌ","kana_city":"ｷｮｳﾄｼﾌｼﾐｸ","kana_address":"ﾑｶｲｼﾞﾏﾋｶﾞｼｼﾞｮｳｳｹ","pref":"京都府","city":"京都市伏見区","address":"向島東定請"},
{"zip_code":"6128132","kana_pref":"ｷｮｳﾄﾌ","kana_city":"ｷｮｳﾄｼﾌｼﾐｸ","kana_address":"ﾑｶｲｼﾞﾏﾌｼﾞﾉｷﾁｮｳ","pref":"京都府","city":"京都市伏見区","address":"向島藤ノ木町"},
{"zip_code":"6128112","kana_pref":"ｷｮｳﾄﾌ","kana_city":"ｷｮｳﾄｼﾌｼﾐｸ","kana_address":"ﾑｶｲｼﾞﾏﾎﾝﾏﾙﾁｮｳ","pref":"京都府","city":"京都市伏見区","address":"向島本丸町"},
{"zip_code":"6128266","kana_pref":"ｷｮｳﾄﾌ","kana_city":"ｷｮｳﾄｼﾌｼﾐｸ","kana_address":"ﾑｶｲｼﾞﾏﾏﾀﾍﾞｴ","pref":"京都府","city":"京都市伏見区","address":"向島又兵衛"},
{"zip_code":"6128131","kana_pref":"ｷｮｳﾄﾌ","kana_city":"ｷｮｳﾄｼﾌｼﾐｸ","kana_address":"ﾑｶｲｼﾞﾏﾏﾙﾏﾁ","pref":"京都府","city":"京都市伏見区","address":"向島丸町"},
{"zip_code":"6128136","kana_pref":"ｷｮｳﾄﾌ","kana_city":"ｷｮｳﾄｼﾌｼﾐｸ","kana_address":"ﾑｶｲｼﾞﾏﾖﾂﾔｲｹ","pref":"京都府","city":"京都市伏見区","address":"向島四ツ谷池"},
{"zip_code":"6128135","kana_pref":"ｷｮｳﾄﾌ","kana_city":"ｷｮｳﾄｼﾌｼﾐｸ","kana_address":"ﾑｶｲｼﾞﾏﾜﾀｼﾊﾞﾁｮｳ","pref":"京都府","city":"京都市伏見区","address":"向島渡シ場町"},
{"zip_code":"6128369","kana_pref":"ｷｮｳﾄﾌ","kana_city":"ｷｮｳﾄｼﾌｼﾐｸ","kana_address":"ﾑﾗｶﾐﾁｮｳ","pref":"京都府","city":"京都市伏見区","address":"村上町"},
{"zip_code":"6128373","kana_pref":"ｷｮｳﾄﾌ","kana_city":"ｷｮｳﾄｼﾌｼﾐｸ","kana_address":"ﾓｳﾘﾁｮｳ","pref":"京都府","city":"京都市伏見区","address":"毛利町"},
{"zip_code":"6128043","kana_pref":"ｷｮｳﾄﾌ","kana_city":"ｷｮｳﾄｼﾌｼﾐｸ","kana_address":"ﾓﾄｻﾞｲﾓｸﾁｮｳ","pref":"京都府","city":"京都市伏見区","address":"本材木町"},
{"zip_code":"6120071","kana_pref":"ｷｮｳﾄﾌ","kana_city":"ｷｮｳﾄｼﾌｼﾐｸ","kana_address":"ﾓﾓﾔﾏｲｲｶﾓﾝﾋｶﾞｼﾏﾁ","pref":"京都府","city":"京都市伏見区","address":"桃山井伊掃部東町"},
{"zip_code":"6120074","kana_pref":"ｷｮｳﾄﾌ","kana_city":"ｷｮｳﾄｼﾌｼﾐｸ","kana_address":"ﾓﾓﾔﾏｲｲｶﾓﾝﾆｼﾏﾁ","pref":"京都府","city":"京都市伏見区","address":"桃山井伊掃部西町"},
{"zip_code":"6120835","kana_pref":"ｷｮｳﾄﾌ","kana_city":"ｷｮｳﾄｼﾌｼﾐｸ","kana_address":"ﾓﾓﾔﾏｺｳｾﾂﾁｮｳ","pref":"京都府","city":"京都市伏見区","address":"桃山紅雪町"},
{"zip_code":"6128032","kana_pref":"ｷｮｳﾄﾌ","kana_city":"ｷｮｳﾄｼﾌｼﾐｸ","kana_address":"ﾓﾓﾔﾏﾁｸｾﾞﾝﾀﾞｲﾏﾁ","pref":"京都府","city":"京都市伏見区","address":"桃山筑前台町"},
{"zip_code":"6120072","kana_pref":"ｷｮｳﾄﾌ","kana_city":"ｷｮｳﾄｼﾌｼﾐｸ","kana_address":"ﾓﾓﾔﾏﾂﾂｲｲｶﾞﾋｶﾞｼﾏﾁ","pref":"京都府","city":"京都市伏見区","address":"桃山筒井伊賀東町"},
{"zip_code":"6120073","kana_pref":"ｷｮｳﾄﾌ","kana_city":"ｷｮｳﾄｼﾌｼﾐｸ","kana_address":"ﾓﾓﾔﾏﾂﾂｲｲｶﾞﾆｼﾏﾁ","pref":"京都府","city":"京都市伏見区","address":"桃山筒井伊賀西町"},
{"zip_code":"6120057","kana_pref":"ｷｮｳﾄﾌ","kana_city":"ｷｮｳﾄｼﾌｼﾐｸ","kana_address":"ﾓﾓﾔﾏﾅｶﾞｵｶｴｯﾁｭｳﾋｶﾞｼﾏﾁ","pref":"京都府","city":"京都市伏見区","address":"桃山長岡越中東町"},
{"zip_code":"6120058","kana_pref":"ｷｮｳﾄﾌ","kana_city":"ｷｮｳﾄｼﾌｼﾐｸ","kana_address":"ﾓﾓﾔﾏﾅｶﾞｵｶｴｯﾁｭｳﾐﾅﾐﾏﾁ","pref":"京都府","city":"京都市伏見区","address":"桃山長岡越中南町"},
{"zip_code":"6120056","kana_pref":"ｷｮｳﾄﾌ","kana_city":"ｷｮｳﾄｼﾌｼﾐｸ","kana_address":"ﾓﾓﾔﾏﾅｶﾞｵｶｴｯﾁｭｳｷﾀﾏﾁ","pref":"京都府","city":"京都市伏見区","address":"桃山長岡越中北町"},
{"zip_code":"6120066","kana_pref":"ｷｮｳﾄﾌ","kana_city":"ｷｮｳﾄｼﾌｼﾐｸ","kana_address":"ﾓﾓﾔﾏﾊｼﾊﾞﾁｮｳｷﾁﾅｶﾏﾁ","pref":"京都府","city":"京都市伏見区","address":"桃山羽柴長吉中町"},
{"zip_code":"6120065","kana_pref":"ｷｮｳﾄﾌ","kana_city":"ｷｮｳﾄｼﾌｼﾐｸ","kana_address":"ﾓﾓﾔﾏﾊｼﾊﾞﾁｮｳｷﾁﾋｶﾞｼﾏﾁ","pref":"京都府","city":"京都市伏見区","address":"桃山羽柴長吉東町"},
{"zip_code":"6120067","kana_pref":"ｷｮｳﾄﾌ","kana_city":"ｷｮｳﾄｼﾌｼﾐｸ","kana_address":"ﾓﾓﾔﾏﾊｼﾊﾞﾁｮｳｷﾁﾆｼﾏﾁ","pref":"京都府","city":"京都市伏見区","address":"桃山羽柴長吉西町"},
{"zip_code":"6120068","kana_pref":"ｷｮｳﾄﾌ","kana_city":"ｷｮｳﾄｼﾌｼﾐｸ","kana_address":"ﾓﾓﾔﾏﾌｸｼﾏﾀﾞﾕｳﾆｼﾏﾁ","pref":"京都府","city":"京都市伏見区","address":"桃山福島太夫西町"},
{"zip_code":"6120062","kana_pref":"ｷｮｳﾄﾌ","kana_city":"ｷｮｳﾄｼﾌｼﾐｸ","kana_address":"ﾓﾓﾔﾏﾌｸｼﾏﾀﾞﾕｳﾐﾅﾐﾏﾁ","pref":"京都府","city":"京都市伏見区","address":"桃山福島太夫南町"},
{"zip_code":"6120061","kana_pref":"ｷｮｳﾄﾌ","kana_city":"ｷｮｳﾄｼﾌｼﾐｸ","kana_address":"ﾓﾓﾔﾏﾌｸｼﾏﾀﾞﾕｳｷﾀﾏﾁ","pref":"京都府","city":"京都市伏見区","address":"桃山福島太夫北町"},
{"zip_code":"6120055","kana_pref":"ｷｮｳﾄﾌ","kana_city":"ｷｮｳﾄｼﾌｼﾐｸ","kana_address":"ﾓﾓﾔﾏﾐｽﾞﾉｻｺﾝﾋｶﾞｼﾏﾁ","pref":"京都府","city":"京都市伏見区","address":"桃山水野左近東町"},
{"zip_code":"6120059","kana_pref":"ｷｮｳﾄﾌ","kana_city":"ｷｮｳﾄｼﾌｼﾐｸ","kana_address":"ﾓﾓﾔﾏﾐｽﾞﾉｻｺﾝﾆｼﾏﾁ","pref":"京都府","city":"京都市伏見区","address":"桃山水野左近西町"},
{"zip_code":"6128017","kana_pref":"ｷｮｳﾄﾌ","kana_city":"ｷｮｳﾄｼﾌｼﾐｸ","kana_address":"ﾓﾓﾔﾏﾐﾅﾐｵｵｼﾏﾁｮｳ","pref":"京都府","city":"京都市伏見区","address":"桃山南大島町"},
{"zip_code":"6120063","kana_pref":"ｷｮｳﾄﾌ","kana_city":"ｷｮｳﾄｼﾌｼﾐｸ","kana_address":"ﾓﾓﾔﾏﾓｳﾘﾅｶﾞﾄﾋｶﾞｼﾏﾁ","pref":"京都府","city":"京都市伏見区","address":"桃山毛利長門東町"},
{"zip_code":"6120064","kana_pref":"ｷｮｳﾄﾌ","kana_city":"ｷｮｳﾄｼﾌｼﾐｸ","kana_address":"ﾓﾓﾔﾏﾓｳﾘﾅｶﾞﾄﾆｼﾏﾁ","pref":"京都府","city":"京都市伏見区","address":"桃山毛利長門西町"},
{"zip_code":"6120054","kana_pref":"ｷｮｳﾄﾌ","kana_city":"ｷｮｳﾄｼﾌｼﾐｸ","kana_address":"ﾓﾓﾔﾏﾓｶﾞﾐﾁｮｳ","pref":"京都府","city":"京都市伏見区","address":"桃山最上町"},
{"zip_code":"6128025","kana_pref":"ｷｮｳﾄﾌ","kana_city":"ｷｮｳﾄｼﾌｼﾐｸ","kana_address":"ﾓﾓﾔﾏﾖｺﾞﾛｳﾁｮｳ","pref":"京都府","city":"京都市伏見区","address":"桃山与五郎町"},
{"zip_code":"6120834","kana_pref":"ｷｮｳﾄﾌ","kana_city":"ｷｮｳﾄｼﾌｼﾐｸ","kana_address":"ﾓﾓﾔﾏﾁｮｳｱｷﾔﾏ","pref":"京都府","city":"京都市伏見区","address":"桃山町安芸山"},
{"zip_code":"6128026","kana_pref":"ｷｮｳﾄﾌ","kana_city":"ｷｮｳﾄｼﾌｼﾐｸ","kana_address":"ﾓﾓﾔﾏﾁｮｳｲｶﾞ","pref":"京都府","city":"京都市伏見区","address":"桃山町伊賀"},
{"zip_code":"6128015","kana_pref":"ｷｮｳﾄﾌ","kana_city":"ｷｮｳﾄｼﾌｼﾐｸ","kana_address":"ﾓﾓﾔﾏﾁｮｳｲｽﾞﾐ","pref":"京都府","city":"京都市伏見区","address":"桃山町和泉"},
{"zip_code":"6128028","kana_pref":"ｷｮｳﾄﾌ","kana_city":"ｷｮｳﾄｼﾌｼﾐｸ","kana_address":"ﾓﾓﾔﾏﾁｮｳｲﾀｸﾗｽｵｳ","pref":"京都府","city":"京都市伏見区","address":"桃山町板倉周防"},
{"zip_code":"6128007","kana_pref":"ｷｮｳﾄﾌ","kana_city":"ｷｮｳﾄｼﾌｼﾐｸ","kana_address":"ﾓﾓﾔﾏﾁｮｳｲﾅﾊﾞ","pref":"京都府","city":"京都市伏見区","address":"桃山町因幡"},
{"zip_code":"6128011","kana_pref":"ｷｮｳﾄﾌ","kana_city":"ｷｮｳﾄｼﾌｼﾐｸ","kana_address":"ﾓﾓﾔﾏﾁｮｳｲﾊﾞ","pref":"京都府","city":"京都市伏見区","address":"桃山町伊庭"},
{"zip_code":"6120853","kana_pref":"ｷｮｳﾄﾌ","kana_city":"ｷｮｳﾄｼﾌｼﾐｸ","kana_address":"ﾓﾓﾔﾏﾁｮｳｵｵｸﾗ","pref":"京都府","city":"京都市伏見区","address":"桃山町大蔵"},
{"zip_code":"6128006","kana_pref":"ｷｮｳﾄﾌ","kana_city":"ｷｮｳﾄｼﾌｼﾐｸ","kana_address":"ﾓﾓﾔﾏﾁｮｳｵｵｼﾏ","pref":"京都府","city":"京都市伏見区","address":"桃山町大島"},
{"zip_code":"6128014","kana_pref":"ｷｮｳﾄﾌ","kana_city":"ｷｮｳﾄｼﾌｼﾐｸ","kana_address":"ﾓﾓﾔﾏﾁｮｳｵｵﾂﾏﾁ","pref":"京都府","city":"京都市伏見区","address":"桃山町大津町"},
{"zip_code":"6128226","kana_pref":"ｷｮｳﾄﾌ","kana_city":"ｷｮｳﾄｼﾌｼﾐｸ","kana_address":"ﾓﾓﾔﾏﾁｮｳｶﾅｲﾄﾞｼﾞﾏ","pref":"京都府","city":"京都市伏見区","address":"桃山町金井戸島"},
{"zip_code":"6128088","kana_pref":"ｷｮｳﾄﾌ","kana_city":"ｷｮｳﾄｼﾌｼﾐｸ","kana_address":"ﾓﾓﾔﾏﾁｮｳｶﾅﾓﾘｲｽﾞﾓ","pref":"京都府","city":"京都市伏見区","address":"桃山町金森出雲"},
{"zip_code":"6120831","kana_pref":"ｷｮｳﾄﾌ","kana_city":"ｷｮｳﾄｼﾌｼﾐｸ","kana_address":"ﾓﾓﾔﾏﾁｮｳｺｼﾞｮｳｻﾞﾝ","pref":"京都府","city":"京都市伏見区","address":"桃山町古城山"},
{"zip_code":"6120854","kana_pref":"ｷｮｳﾄﾌ","kana_city":"ｷｮｳﾄｼﾌｼﾐｸ","kana_address":"ﾓﾓﾔﾏﾁｮｳｼﾏﾂﾞ","pref":"京都府","city":"京都市伏見区","address":"桃山町島津"},
{"zip_code":"6128021","kana_pref":"ｷｮｳﾄﾌ","kana_city":"ｷｮｳﾄｼﾌｼﾐｸ","kana_address":"ﾓﾓﾔﾏﾁｮｳｼﾓｽﾞｹ","pref":"京都府","city":"京都市伏見区","address":"桃山町下野"},
{"zip_code":"6120086","kana_pref":"ｷｮｳﾄﾌ","kana_city":"ｷｮｳﾄｼﾌｼﾐｸ","kana_address":"ﾓﾓﾔﾏﾁｮｳｼﾝｻｲ","pref":"京都府","city":"京都市伏見区","address":"桃山町真斉"},
{"zip_code":"6128019","kana_pref":"ｷｮｳﾄﾌ","kana_city":"ｷｮｳﾄｼﾌｼﾐｸ","kana_address":"ﾓﾓﾔﾏﾁｮｳｼﾝﾏﾁ","pref":"京都府","city":"京都市伏見区","address":"桃山町新町"},
{"zip_code":"6128022","kana_pref":"ｷｮｳﾄﾌ","kana_city":"ｷｮｳﾄｼﾌｼﾐｸ","kana_address":"ﾓﾓﾔﾏﾁｮｳｽﾙｶﾞ","pref":"京都府","city":"京都市伏見区","address":"桃山町駿河"},
{"zip_code":"6128034","kana_pref":"ｷｮｳﾄﾌ","kana_city":"ｷｮｳﾄｼﾌｼﾐｸ","kana_address":"ﾓﾓﾔﾏﾁｮｳﾀｲﾁｮｳﾛｳ","pref":"京都府","city":"京都市伏見区","address":"桃山町泰長老"},
{"zip_code":"6128036","kana_pref":"ｷｮｳﾄﾌ","kana_city":"ｷｮｳﾄｼﾌｼﾐｸ","kana_address":"ﾓﾓﾔﾏﾁｮｳﾀﾁｳﾘ","pref":"京都府","city":"京都市伏見区","address":"桃山町立売"},
{"zip_code":"6120053","kana_pref":"ｷｮｳﾄﾌ","kana_city":"ｷｮｳﾄｼﾌｼﾐｸ","kana_address":"ﾓﾓﾔﾏﾁｮｳﾀﾝｹﾞ","pref":"京都府","city":"京都市伏見区","address":"桃山町丹下"},
{"zip_code":"6128018","kana_pref":"ｷｮｳﾄﾌ","kana_city":"ｷｮｳﾄｼﾌｼﾐｸ","kana_address":"ﾓﾓﾔﾏﾁｮｳﾀﾝｺﾞ","pref":"京都府","city":"京都市伏見区","address":"桃山町丹後"},
{"zip_code":"6128223","kana_pref":"ｷｮｳﾄﾌ","kana_city":"ｷｮｳﾄｼﾌｼﾐｸ","kana_address":"ﾓﾓﾔﾏﾁｮｳﾀﾞﾝｼﾞｮｳｼﾞﾏ","pref":"京都府","city":"京都市伏見区","address":"桃山町弾正島"},
{"zip_code":"6128012","kana_pref":"ｷｮｳﾄﾌ","kana_city":"ｷｮｳﾄｼﾌｼﾐｸ","kana_address":"ﾓﾓﾔﾏﾁｮｳﾄｵﾔﾏ","pref":"京都府","city":"京都市伏見区","address":"桃山町遠山"},
{"zip_code":"6120855","kana_pref":"ｷｮｳﾄﾌ","kana_city":"ｷｮｳﾄｼﾌｼﾐｸ","kana_address":"ﾓﾓﾔﾏﾁｮｳﾅｶﾞｲｷｭｳﾀﾛｳ","pref":"京都府","city":"京都市伏見区","address":"桃山町永井久太郎"},
{"zip_code":"6128005","kana_pref":"ｷｮｳﾄﾌ","kana_city":"ｷｮｳﾄｼﾌｼﾐｸ","kana_address":"ﾓﾓﾔﾏﾁｮｳﾅｶｼﾞﾏﾁｮｳ","pref":"京都府","city":"京都市伏見区","address":"桃山町中島町"},
{"zip_code":"6128037","kana_pref":"ｷｮｳﾄﾌ","kana_city":"ｷｮｳﾄｼﾌｼﾐｸ","kana_address":"ﾓﾓﾔﾏﾁｮｳﾅﾍﾞｼﾏ","pref":"京都府","city":"京都市伏見区","address":"桃山町鍋島"},
{"zip_code":"6128003","kana_pref":"ｷｮｳﾄﾌ","kana_city":"ｷｮｳﾄｼﾌｼﾐｸ","kana_address":"ﾓﾓﾔﾏﾁｮｳﾆｼｵ","pref":"京都府","city":"京都市伏見区","address":"桃山町西尾"},
{"zip_code":"6128013","kana_pref":"ｷｮｳﾄﾌ","kana_city":"ｷｮｳﾄｼﾌｼﾐｸ","kana_address":"ﾓﾓﾔﾏﾁｮｳﾆｼﾏﾁ","pref":"京都府","city":"京都市伏見区","address":"桃山町西町"},
{"zip_code":"6128024","kana_pref":"ｷｮｳﾄﾌ","kana_city":"ｷｮｳﾄｼﾌｼﾐｸ","kana_address":"ﾓﾓﾔﾏﾁｮｳﾈｺﾞﾛ","pref":"京都府","city":"京都市伏見区","address":"桃山町根来"},
{"zip_code":"6128008","kana_pref":"ｷｮｳﾄﾌ","kana_city":"ｷｮｳﾄｼﾌｼﾐｸ","kana_address":"ﾓﾓﾔﾏﾁｮｳﾋｶﾞｼﾏﾁ","pref":"京都府","city":"京都市伏見区","address":"桃山町東町"},
{"zip_code":"6128001","kana_pref":"ｷｮｳﾄﾌ","kana_city":"ｷｮｳﾄｼﾌｼﾐｸ","kana_address":"ﾓﾓﾔﾏﾁｮｳﾋｭｳｶﾞ","pref":"京都府","city":"京都市伏見区","address":"桃山町日向"},
{"zip_code":"6128027","kana_pref":"ｷｮｳﾄﾌ","kana_city":"ｷｮｳﾄｼﾌｼﾐｸ","kana_address":"ﾓﾓﾔﾏﾁｮｳﾎﾝﾀﾞｺｳｽﾞｹ","pref":"京都府","city":"京都市伏見区","address":"桃山町本多上野"},
{"zip_code":"6120856","kana_pref":"ｷｮｳﾄﾌ","kana_city":"ｷｮｳﾄｼﾌｼﾐｸ","kana_address":"ﾓﾓﾔﾏﾁｮｳﾏｻﾑﾈ","pref":"京都府","city":"京都市伏見区","address":"桃山町正宗"},
{"zip_code":"6128004","kana_pref":"ｷｮｳﾄﾌ","kana_city":"ｷｮｳﾄｼﾌｼﾐｸ","kana_address":"ﾓﾓﾔﾏﾁｮｳﾏﾁﾅﾐ","pref":"京都府","city":"京都市伏見区","address":"桃山町町並"},
{"zip_code":"6128031","kana_pref":"ｷｮｳﾄﾌ","kana_city":"ｷｮｳﾄｼﾌｼﾐｸ","kana_address":"ﾓﾓﾔﾏﾁｮｳﾏﾂﾀﾞｲﾗﾁｸｾﾞﾝ","pref":"京都府","city":"京都市伏見区","address":"桃山町松平筑前"},
{"zip_code":"6128033","kana_pref":"ｷｮｳﾄﾌ","kana_city":"ｷｮｳﾄｼﾌｼﾐｸ","kana_address":"ﾓﾓﾔﾏﾁｮｳﾏﾂﾀﾞｲﾗﾑｻｼ","pref":"京都府","city":"京都市伏見区","address":"桃山町松平武蔵"},
{"zip_code":"6128029","kana_pref":"ｷｮｳﾄﾌ","kana_city":"ｷｮｳﾄｼﾌｼﾐｸ","kana_address":"ﾓﾓﾔﾏﾁｮｳﾐｶﾜ","pref":"京都府","city":"京都市伏見区","address":"桃山町三河"},
{"zip_code":"6128009","kana_pref":"ｷｮｳﾄﾌ","kana_city":"ｷｮｳﾄｼﾌｼﾐｸ","kana_address":"ﾓﾓﾔﾏﾁｮｳﾐﾂｹﾁｮｳ","pref":"京都府","city":"京都市伏見区","address":"桃山町見附町"},
{"zip_code":"6128023","kana_pref":"ｷｮｳﾄﾌ","kana_city":"ｷｮｳﾄｼﾌｼﾐｸ","kana_address":"ﾓﾓﾔﾏﾁｮｳﾐﾉ","pref":"京都府","city":"京都市伏見区","address":"桃山町美濃"},
{"zip_code":"6128002","kana_pref":"ｷｮｳﾄﾌ","kana_city":"ｷｮｳﾄｼﾌｼﾐｸ","kana_address":"ﾓﾓﾔﾏﾁｮｳﾔﾏﾉｼﾀ","pref":"京都府","city":"京都市伏見区","address":"桃山町山ノ下"},
{"zip_code":"6128016","kana_pref":"ｷｮｳﾄﾌ","kana_city":"ｷｮｳﾄｼﾌｼﾐｸ","kana_address":"ﾓﾓﾔﾏﾁｮｳﾖｳｻｲ","pref":"京都府","city":"京都市伏見区","address":"桃山町養斉"},
{"zip_code":"6128367","kana_pref":"ｷｮｳﾄﾌ","kana_city":"ｷｮｳﾄｼﾌｼﾐｸ","kana_address":"ﾔﾏｻﾞｷﾁｮｳ","pref":"京都府","city":"京都市伏見区","address":"山崎町"},
{"zip_code":"6128323","kana_pref":"ｷｮｳﾄﾌ","kana_city":"ｷｮｳﾄｼﾌｼﾐｸ","kana_address":"ﾔﾏﾄﾁｮｳ","pref":"京都府","city":"京都市伏見区","address":"大和町"},
{"zip_code":"6120084","kana_pref":"ｷｮｳﾄﾌ","kana_city":"ｷｮｳﾄｼﾌｼﾐｸ","kana_address":"ﾔﾘﾔﾏﾁ","pref":"京都府","city":"京都市伏見区","address":"鑓屋町"},
{"zip_code":"6128204","kana_pref":"ｷｮｳﾄﾌ","kana_city":"ｷｮｳﾄｼﾌｼﾐｸ","kana_address":"ﾔﾜﾀﾁｮｳ","pref":"京都府","city":"京都市伏見区","address":"八幡町"},
{"zip_code":"6128252","kana_pref":"ｷｮｳﾄﾌ","kana_city":"ｷｮｳﾄｼﾌｼﾐｸ","kana_address":"ﾖｺｵｵｼﾞｲｯﾎﾟﾝｷﾞ","pref":"京都府","city":"京都市伏見区","address":"横大路一本木"},
{"zip_code":"6128296","kana_pref":"ｷｮｳﾄﾌ","kana_city":"ｷｮｳﾄｼﾌｼﾐｸ","kana_address":"ﾖｺｵｵｼﾞｶｷﾉﾓﾄﾁｮｳ","pref":"京都府","city":"京都市伏見区","address":"横大路柿ノ本町"},
{"zip_code":"6128281","kana_pref":"ｷｮｳﾄﾌ","kana_city":"ｷｮｳﾄｼﾌｼﾐｸ","kana_address":"ﾖｺｵｵｼﾞｶﾐﾉﾊﾏﾁｮｳ","pref":"京都府","city":"京都市伏見区","address":"横大路上ノ浜町"},
{"zip_code":"6128254","kana_pref":"ｷｮｳﾄﾌ","kana_city":"ｷｮｳﾄｼﾌｼﾐｸ","kana_address":"ﾖｺｵｵｼﾞｷﾀﾉｸﾁﾁｮｳ","pref":"京都府","city":"京都市伏見区","address":"横大路北ノ口町"},
{"zip_code":"6128297","kana_pref":"ｷｮｳﾄﾌ","kana_city":"ｷｮｳﾄｼﾌｼﾐｸ","kana_address":"ﾖｺｵｵｼﾞｷﾌﾈ","pref":"京都府","city":"京都市伏見区","address":"横大路貴船"},
{"zip_code":"6128483","kana_pref":"ｷｮｳﾄﾌ","kana_city":"ｷｮｳﾄｼﾌｼﾐｸ","kana_address":"ﾖｺｵｵｼﾞｸｻﾂﾁｮｳ","pref":"京都府","city":"京都市伏見区","address":"横大路草津町"},
{"zip_code":"6128284","kana_pref":"ｷｮｳﾄﾌ","kana_city":"ｷｮｳﾄｼﾌｼﾐｸ","kana_address":"ﾖｺｵｵｼﾞｸﾛﾉｳﾁ","pref":"京都府","city":"京都市伏見区","address":"横大路畔ノ内"},
{"zip_code":"6128295","kana_pref":"ｷｮｳﾄﾌ","kana_city":"ｷｮｳﾄｼﾌｼﾐｸ","kana_address":"ﾖｺｵｵｼﾞｸﾜﾉﾓﾄ","pref":"京都府","city":"京都市伏見区","address":"横大路鍬ノ本"},
{"zip_code":"6128261","kana_pref":"ｷｮｳﾄﾌ","kana_city":"ｷｮｳﾄｼﾌｼﾐｸ","kana_address":"ﾖｺｵｵｼﾞｻｲｶｲﾄﾞｳ","pref":"京都府","city":"京都市伏見区","address":"横大路西海道"},
{"zip_code":"6128246","kana_pref":"ｷｮｳﾄﾌ","kana_city":"ｷｮｳﾄｼﾌｼﾐｸ","kana_address":"ﾖｺｵｵｼﾞｼﾊﾞﾌ","pref":"京都府","city":"京都市伏見区","address":"横大路芝生"},
{"zip_code":"6128263","kana_pref":"ｷｮｳﾄﾌ","kana_city":"ｷｮｳﾄｼﾌｼﾐｸ","kana_address":"ﾖｺｵｵｼﾞｼﾓﾉﾂﾎﾞ","pref":"京都府","city":"京都市伏見区","address":"横大路下ノ坪"},
{"zip_code":"6128292","kana_pref":"ｷｮｳﾄﾌ","kana_city":"ｷｮｳﾄｼﾌｼﾐｸ","kana_address":"ﾖｺｵｵｼﾞｼｭｼﾞｬｸ","pref":"京都府","city":"京都市伏見区","address":"横大路朱雀"},
{"zip_code":"6128262","kana_pref":"ｷｮｳﾄﾌ","kana_city":"ｷｮｳﾄｼﾌｼﾐｸ","kana_address":"ﾖｺｵｵｼﾞｼﾞﾝｸﾞｳｼﾞ","pref":"京都府","city":"京都市伏見区","address":"横大路神宮寺"},
{"zip_code":"6128251","kana_pref":"ｷｮｳﾄﾌ","kana_city":"ｷｮｳﾄｼﾌｼﾐｸ","kana_address":"ﾖｺｵｵｼﾞｽｶﾞﾓﾄ","pref":"京都府","city":"京都市伏見区","address":"横大路菅本"},
{"zip_code":"6128244","kana_pref":"ｷｮｳﾄﾌ","kana_city":"ｷｮｳﾄｼﾌｼﾐｸ","kana_address":"ﾖｺｵｵｼﾞｾﾝﾘｮｳﾏﾂﾁｮｳ","pref":"京都府","city":"京都市伏見区","address":"横大路千両松町"},
{"zip_code":"6128285","kana_pref":"ｷｮｳﾄﾌ","kana_city":"ｷｮｳﾄｼﾌｼﾐｸ","kana_address":"ﾖｺｵｵｼﾞﾀﾂｶﾞｲｹ","pref":"京都府","city":"京都市伏見区","address":"横大路龍ケ池"},
{"zip_code":"6128291","kana_pref":"ｷｮｳﾄﾌ","kana_city":"ｷｮｳﾄｼﾌｼﾐｸ","kana_address":"ﾖｺｵｵｼﾞﾃﾝﾉｳｺﾞｳ","pref":"京都府","city":"京都市伏見区","address":"横大路天王後"},
{"zip_code":"6128294","kana_pref":"ｷｮｳﾄﾌ","kana_city":"ｷｮｳﾄｼﾌｼﾐｸ","kana_address":"ﾖｺｵｵｼﾞﾃﾝﾉｳﾏｴ","pref":"京都府","city":"京都市伏見区","address":"横大路天王前"},
{"zip_code":"6128257","kana_pref":"ｷｮｳﾄﾌ","kana_city":"ｷｮｳﾄｼﾌｼﾐｸ","kana_address":"ﾖｺｵｵｼﾞﾄﾐﾉﾓﾘﾁｮｳ","pref":"京都府","city":"京都市伏見区","address":"横大路富ノ森町"},
{"zip_code":"6128287","kana_pref":"ｷｮｳﾄﾌ","kana_city":"ｷｮｳﾄｼﾌｼﾐｸ","kana_address":"ﾖｺｵｵｼﾞﾅｶﾉｼﾏﾁｮｳ","pref":"京都府","city":"京都市伏見区","address":"横大路中ノ島町"},
{"zip_code":"6128482","kana_pref":"ｷｮｳﾄﾌ","kana_city":"ｷｮｳﾄｼﾌｼﾐｸ","kana_address":"ﾖｺｵｵｼﾞﾅｶﾉｼｮｳﾁｮｳ","pref":"京都府","city":"京都市伏見区","address":"横大路中ノ庄町"},
{"zip_code":"6128286","kana_pref":"ｷｮｳﾄﾌ","kana_city":"ｷｮｳﾄｼﾌｼﾐｸ","kana_address":"ﾖｺｵｵｼﾞﾅｶﾞﾊﾀﾁｮｳ","pref":"京都府","city":"京都市伏見区","address":"横大路長畑町"},
{"zip_code":"6128249","kana_pref":"ｷｮｳﾄﾌ","kana_city":"ｷｮｳﾄｼﾌｼﾐｸ","kana_address":"ﾖｺｵｵｼﾞﾇﾏ","pref":"京都府","city":"京都市伏見区","address":"横大路沼"},
{"zip_code":"6128293","kana_pref":"ｷｮｳﾄﾌ","kana_city":"ｷｮｳﾄｼﾌｼﾐｸ","kana_address":"ﾖｺｵｵｼﾞﾊｼﾓﾄ","pref":"京都府","city":"京都市伏見区","address":"横大路橋本"},
{"zip_code":"6128282","kana_pref":"ｷｮｳﾄﾌ","kana_city":"ｷｮｳﾄｼﾌｼﾐｸ","kana_address":"ﾖｺｵｵｼﾞﾊﾀﾅｶﾁｮｳ","pref":"京都府","city":"京都市伏見区","address":"横大路畑中町"},
{"zip_code":"6128253","kana_pref":"ｷｮｳﾄﾌ","kana_city":"ｷｮｳﾄｼﾌｼﾐｸ","kana_address":"ﾖｺｵｵｼﾞﾊｯﾀﾝﾀﾞ","pref":"京都府","city":"京都市伏見区","address":"横大路八反田"},
{"zip_code":"6128481","kana_pref":"ｷｮｳﾄﾌ","kana_city":"ｷｮｳﾄｼﾌｼﾐｸ","kana_address":"ﾖｺｵｵｼﾞﾋｶﾞｼｳﾗﾁｮｳ","pref":"京都府","city":"京都市伏見区","address":"横大路東裏町"},
{"zip_code":"6128256","kana_pref":"ｷｮｳﾄﾌ","kana_city":"ｷｮｳﾄｼﾌｼﾐｸ","kana_address":"ﾖｺｵｵｼﾞﾏｴｶﾞﾜﾁｮｳ","pref":"京都府","city":"京都市伏見区","address":"横大路前川町"},
{"zip_code":"6128264","kana_pref":"ｷｮｳﾄﾌ","kana_city":"ｷｮｳﾄｼﾌｼﾐｸ","kana_address":"ﾖｺｵｵｼﾞﾏﾂﾊﾞﾔｼ","pref":"京都府","city":"京都市伏見区","address":"横大路松林"},
{"zip_code":"6128283","kana_pref":"ｷｮｳﾄﾌ","kana_city":"ｷｮｳﾄｼﾌｼﾐｸ","kana_address":"ﾖｺｵｵｼﾞﾑｶｲ","pref":"京都府","city":"京都市伏見区","address":"横大路向ヒ"},
{"zip_code":"6128255","kana_pref":"ｷｮｳﾄﾌ","kana_city":"ｷｮｳﾄｼﾌｼﾐｸ","kana_address":"ﾖｺｵｵｼﾞﾛｸﾀﾝﾊﾀ","pref":"京都府","city":"京都市伏見区","address":"横大路六反畑"},
{"zip_code":"6128242","kana_pref":"ｷｮｳﾄﾌ","kana_city":"ｷｮｳﾄｼﾌｼﾐｸ","kana_address":"ﾖｺｵｵｼﾞｼﾓﾐｽｶｼﾞﾜﾗﾁｮｳ","pref":"京都府","city":"京都市伏見区","address":"横大路下三栖梶原町"},
{"zip_code":"6128236","kana_pref":"ｷｮｳﾄﾌ","kana_city":"ｷｮｳﾄｼﾌｼﾐｸ","kana_address":"ﾖｺｵｵｼﾞｼﾓﾐｽｻﾄﾉｳﾁ","pref":"京都府","city":"京都市伏見区","address":"横大路下三栖里ノ内"},
{"zip_code":"6128243","kana_pref":"ｷｮｳﾄﾌ","kana_city":"ｷｮｳﾄｼﾌｼﾐｸ","kana_address":"ﾖｺｵｵｼﾞｼﾓﾐｽｼﾞｮｳﾉﾏｴﾁｮｳ","pref":"京都府","city":"京都市伏見区","address":"横大路下三栖城ノ前町"},
{"zip_code":"6128241","kana_pref":"ｷｮｳﾄﾌ","kana_city":"ｷｮｳﾄｼﾌｼﾐｸ","kana_address":"ﾖｺｵｵｼﾞｼﾓﾐｽﾂｼﾞﾄﾞｳﾁｮｳ","pref":"京都府","city":"京都市伏見区","address":"横大路下三栖辻堂町"},
{"zip_code":"6128247","kana_pref":"ｷｮｳﾄﾌ","kana_city":"ｷｮｳﾄｼﾌｼﾐｸ","kana_address":"ﾖｺｵｵｼﾞｼﾓﾐｽﾅﾝｺﾞｳ","pref":"京都府","city":"京都市伏見区","address":"横大路下三栖南郷"},
{"zip_code":"6128235","kana_pref":"ｷｮｳﾄﾌ","kana_city":"ｷｮｳﾄｼﾌｼﾐｸ","kana_address":"ﾖｺｵｵｼﾞｼﾓﾐｽﾋｶﾞｼﾉｸﾁ","pref":"京都府","city":"京都市伏見区","address":"横大路下三栖東ノ口"},
{"zip_code":"6128245","kana_pref":"ｷｮｳﾄﾌ","kana_city":"ｷｮｳﾄｼﾌｼﾐｸ","kana_address":"ﾖｺｵｵｼﾞｼﾓﾐｽﾐﾔﾉｺﾞｳ","pref":"京都府","city":"京都市伏見区","address":"横大路下三栖宮ノ後"},
{"zip_code":"6128238","kana_pref":"ｷｮｳﾄﾌ","kana_city":"ｷｮｳﾄｼﾌｼﾐｸ","kana_address":"ﾖｺｵｵｼﾞｼﾓﾐｽﾔﾏﾃﾞﾝ","pref":"京都府","city":"京都市伏見区","address":"横大路下三栖山殿"},
{"zip_code":"6128237","kana_pref":"ｷｮｳﾄﾌ","kana_city":"ｷｮｳﾄｼﾌｼﾐｸ","kana_address":"ﾖｺｵｵｼﾞﾐｽｲｹﾀﾞﾔｼｷﾁｮｳ","pref":"京都府","city":"京都市伏見区","address":"横大路三栖池田屋敷町"},
{"zip_code":"6128234","kana_pref":"ｷｮｳﾄﾌ","kana_city":"ｷｮｳﾄｼﾌｼﾐｸ","kana_address":"ﾖｺｵｵｼﾞﾐｽｷﾉｼﾀﾔｼｷﾁｮｳ","pref":"京都府","city":"京都市伏見区","address":"横大路三栖木下屋敷町"},
{"zip_code":"6128205","kana_pref":"ｷｮｳﾄﾌ","kana_city":"ｷｮｳﾄｼﾌｼﾐｸ","kana_address":"ﾖｺｵｵｼﾞﾐｽﾀﾞｲｺｸﾁｮｳ","pref":"京都府","city":"京都市伏見区","address":"横大路三栖大黒町"},
{"zip_code":"6128239","kana_pref":"ｷｮｳﾄﾌ","kana_city":"ｷｮｳﾄｼﾌｼﾐｸ","kana_address":"ﾖｺｵｵｼﾞﾐｽﾄﾞﾛﾏﾁｱﾄﾁｮｳ","pref":"京都府","city":"京都市伏見区","address":"横大路三栖泥町跡町"},
{"zip_code":"6128207","kana_pref":"ｷｮｳﾄﾌ","kana_city":"ｷｮｳﾄｼﾌｼﾐｸ","kana_address":"ﾖｺｵｵｼﾞﾐｽﾔﾏｼﾛﾔｼｷﾁｮｳ","pref":"京都府","city":"京都市伏見区","address":"横大路三栖山城屋敷町"},
{"zip_code":"6128225","kana_pref":"ｷｮｳﾄﾌ","kana_city":"ｷｮｳﾄｼﾌｼﾐｸ","kana_address":"ﾖｼｼﾞﾏｶﾅｲﾄﾞﾁｮｳ","pref":"京都府","city":"京都市伏見区","address":"葭島金井戸町"},
{"zip_code":"6128224","kana_pref":"ｷｮｳﾄﾌ","kana_city":"ｷｮｳﾄｼﾌｼﾐｸ","kana_address":"ﾖｼｼﾞﾏﾔｸﾞﾗﾁｮｳ","pref":"京都府","city":"京都市伏見区","address":"葭島矢倉町"},
{"zip_code":"6128265","kana_pref":"ｷｮｳﾄﾌ","kana_city":"ｷｮｳﾄｼﾌｼﾐｸ","kana_address":"ﾖｼｼﾞﾏﾜﾀｼﾊﾞｼﾞﾏﾁｮｳ","pref":"京都府","city":"京都市伏見区","address":"葭島渡場島町"},
{"zip_code":"6128082","kana_pref":"ｷｮｳﾄﾌ","kana_city":"ｷｮｳﾄｼﾌｼﾐｸ","kana_address":"ﾘｮｳｶﾞｴﾏﾁ","pref":"京都府","city":"京都市伏見区","address":"両替町"}]}