{"zip_code":[
{"zip_code":"6130913","kana_pref":"ｷｮｳﾄﾌ","kana_city":"ｷｮｳﾄｼﾌｼﾐｸ","kana_address":"ﾑｶｲｼﾞﾏｼﾓｺﾞﾀﾝﾀﾞ","pref":"京都府","city":"京都市伏見区","address":"向島下五反田"},
{"zip_code":"6130904","kana_pref":"ｷｮｳﾄﾌ","kana_city":"ｷｮｳﾄｼﾌｼﾐｸ","kana_address":"ﾖﾄﾞｲｹｶﾞﾐﾁｮｳ","pref":"京都府","city":"京都市伏見区","address":"淀池上町"},
{"zip_code":"6130907","kana_pref":"ｷｮｳﾄﾌ","kana_city":"ｷｮｳﾄｼﾌｼﾐｸ","kana_address":"ﾖﾄﾞｵｵｼﾓﾂﾞﾁｮｳ","pref":"京都府","city":"京都市伏見区","address":"淀大下津町"},
{"zip_code":"6130912","kana_pref":"ｷｮｳﾄﾌ","kana_city":"ｷｮｳﾄｼﾌｼﾐｸ","kana_address":"ﾖﾄﾞｶﾜﾂﾞﾗﾁｮｳ","pref":"京都府","city":"京都市伏見区","address":"淀川顔町"},
{"zip_code":"6130911","kana_pref":"ｷｮｳﾄﾌ","kana_city":"ｷｮｳﾄｼﾌｼﾐｸ","kana_address":"ﾖﾄﾞｷﾂﾞﾁｮｳ","pref":"京都府","city":"京都市伏見区","address":"淀木津町"},
{"zip_code":"6130915","kana_pref":"ｷｮｳﾄﾌ","kana_city":"ｷｮｳﾄｼﾌｼﾐｸ","kana_address":"ﾖﾄﾞｻｲﾒﾁｮｳ","pref":"京都府","city":"京都市伏見区","address":"淀際目町"},
{"zip_code":"6130905","kana_pref":"ｷｮｳﾄﾌ","kana_city":"ｷｮｳﾄｼﾌｼﾐｸ","kana_address":"ﾖﾄﾞｼﾓﾂﾞﾁｮｳ","pref":"京都府","city":"京都市伏見区","address":"淀下津町"},
{"zip_code":"6130906","kana_pref":"ｷｮｳﾄﾌ","kana_city":"ｷｮｳﾄｼﾌｼﾐｸ","kana_address":"ﾖﾄﾞｼﾝﾏﾁ","pref":"京都府","city":"京都市伏見区","address":"淀新町"},
{"zip_code":"6130914","kana_pref":"ｷｮｳﾄﾌ","kana_city":"ｷｮｳﾄｼﾌｼﾐｸ","kana_address":"ﾖﾄﾞﾅﾏﾂﾞﾁｮｳ","pref":"京都府","city":"京都市伏見区","address":"淀生津町"},
{"zip_code":"6130901","kana_pref":"ｷｮｳﾄﾌ","kana_city":"ｷｮｳﾄｼﾌｼﾐｸ","kana_address":"ﾖﾄﾞﾋﾂﾞﾒﾁｮｳ","pref":"京都府","city":"京都市伏見区","address":"淀樋爪町"},
{"zip_code":"6130903","kana_pref":"ｷｮｳﾄﾌ","kana_city":"ｷｮｳﾄｼﾌｼﾐｸ","kana_address":"ﾖﾄﾞﾎﾝﾏﾁ","pref":"京都府","city":"京都市伏見区","address":"淀本町"},
{"zip_code":"6130902","kana_pref":"ｷｮｳﾄﾌ","kana_city":"ｷｮｳﾄｼﾌｼﾐｸ","kana_address":"ﾖﾄﾞﾐｽﾞﾀﾚﾁｮｳ","pref":"京都府","city":"京都市伏見区","address":"淀水垂町"},
{"zip_code":"6130916","kana_pref":"ｷｮｳﾄﾌ","kana_city":"ｷｮｳﾄｼﾌｼﾐｸ","kana_address":"ﾖﾄﾞﾐﾂﾞﾁｮｳ","pref":"京都府","city":"京都市伏見区","address":"淀美豆町"},
{"zip_code":"6130851","kana_pref":"ｷｮｳﾄﾌ","kana_city":"ﾔﾜﾀｼ","kana_address":"ｶﾜｸﾞﾁﾀｶﾊﾗ","pref":"京都府","city":"八幡市","address":"川口高原"},
{"zip_code":"6130853","kana_pref":"ｷｮｳﾄﾌ","kana_city":"ﾔﾜﾀｼ","kana_address":"ﾔﾜﾀﾅｶﾞﾏﾁ","pref":"京都府","city":"八幡市","address":"八幡長町"},
{"zip_code":"6130852","kana_pref":"ｷｮｳﾄﾌ","kana_city":"ﾔﾜﾀｼ","kana_address":"ﾔﾜﾀﾋﾉｸﾁ","pref":"京都府","city":"八幡市","address":"八幡樋ノ口"},
{"zip_code":"6130000","kana_pref":"ｷｮｳﾄﾌ","kana_city":"ｸｾｸﾞﾝｸﾐﾔﾏﾁｮｳ","kana_address":"","pref":"京都府","city":"久世郡久御山町","address":""},
{"zip_code":"6130022","kana_pref":"ｷｮｳﾄﾌ","kana_city":"ｸｾｸﾞﾝｸﾐﾔﾏﾁｮｳ","kana_address":"ｲﾁﾀﾞ","pref":"京都府","city":"久世郡久御山町","address":"市田"},
{"zip_code":"6130046","kana_pref":"ｷｮｳﾄﾌ","kana_city":"ｸｾｸﾞﾝｸﾐﾔﾏﾁｮｳ","kana_address":"ｵｵﾊｼﾍﾞﾘ","pref":"京都府","city":"久世郡久御山町","address":"大橋辺"},
{"zip_code":"6130025","kana_pref":"ｷｮｳﾄﾌ","kana_city":"ｸｾｸﾞﾝｸﾐﾔﾏﾁｮｳ","kana_address":"ｵｼﾞﾏ","pref":"京都府","city":"久世郡久御山町","address":"相島"},
{"zip_code":"6130045","kana_pref":"ｷｮｳﾄﾌ","kana_city":"ｸｾｸﾞﾝｸﾐﾔﾏﾁｮｳ","kana_address":"ｷﾀｶﾜﾂﾞﾗ","pref":"京都府","city":"久世郡久御山町","address":"北川顔"},
{"zip_code":"6130032","kana_pref":"ｷｮｳﾄﾌ","kana_city":"ｸｾｸﾞﾝｸﾐﾔﾏﾁｮｳ","kana_address":"ｻｶｴ","pref":"京都府","city":"久世郡久御山町","address":"栄"},
{"zip_code":"6130031","kana_pref":"ｷｮｳﾄﾌ","kana_city":"ｸｾｸﾞﾝｸﾐﾔﾏﾁｮｳ","kana_address":"ｻｺ","pref":"京都府","city":"久世郡久御山町","address":"佐古"},
{"zip_code":"6130034","kana_pref":"ｷｮｳﾄﾌ","kana_city":"ｸｾｸﾞﾝｸﾐﾔﾏﾁｮｳ","kana_address":"ｻﾔﾏ","pref":"京都府","city":"久世郡久御山町","address":"佐山"},
{"zip_code":"6130043","kana_pref":"ｷｮｳﾄﾌ","kana_city":"ｸｾｸﾞﾝｸﾐﾔﾏﾁｮｳ","kana_address":"ｼﾏﾀ","pref":"京都府","city":"久世郡久御山町","address":"島田"},
{"zip_code":"6130035","kana_pref":"ｷｮｳﾄﾌ","kana_city":"ｸｾｸﾞﾝｸﾐﾔﾏﾁｮｳ","kana_address":"ｼﾓﾂﾔ","pref":"京都府","city":"久世郡久御山町","address":"下津屋"},
{"zip_code":"6130036","kana_pref":"ｷｮｳﾄﾌ","kana_city":"ｸｾｸﾞﾝｸﾐﾔﾏﾁｮｳ","kana_address":"ﾀｲ","pref":"京都府","city":"久世郡久御山町","address":"田井"},
{"zip_code":"6130041","kana_pref":"ｷｮｳﾄﾌ","kana_city":"ｸｾｸﾞﾝｸﾐﾔﾏﾁｮｳ","kana_address":"ﾅｶｼﾞﾏ","pref":"京都府","city":"久世郡久御山町","address":"中島"},
{"zip_code":"6130026","kana_pref":"ｷｮｳﾄﾌ","kana_city":"ｸｾｸﾞﾝｸﾐﾔﾏﾁｮｳ","kana_address":"ﾆｼｲﾓｱﾗｲ","pref":"京都府","city":"久世郡久御山町","address":"西一口"},
{"zip_code":"6130023","kana_pref":"ｷｮｳﾄﾌ","kana_city":"ｸｾｸﾞﾝｸﾐﾔﾏﾁｮｳ","kana_address":"ﾉﾑﾗ","pref":"京都府","city":"久世郡久御山町","address":"野村"},
{"zip_code":"6130033","kana_pref":"ｷｮｳﾄﾌ","kana_city":"ｸｾｸﾞﾝｸﾐﾔﾏﾁｮｳ","kana_address":"ﾊﾔｼ","pref":"京都府","city":"久世郡久御山町","address":"林"},
{"zip_code":"6130021","kana_pref":"ｷｮｳﾄﾌ","kana_city":"ｸｾｸﾞﾝｸﾐﾔﾏﾁｮｳ","kana_address":"ﾋｶﾞｼｲﾓｱﾗｲ","pref":"京都府","city":"久世郡久御山町","address":"東一口"},
{"zip_code":"6130044","kana_pref":"ｷｮｳﾄﾌ","kana_city":"ｸｾｸﾞﾝｸﾐﾔﾏﾁｮｳ","kana_address":"ﾌｼﾞﾜﾀﾞ","pref":"京都府","city":"久世郡久御山町","address":"藤和田"},
{"zip_code":"6130042","kana_pref":"ｷｮｳﾄﾌ","kana_city":"ｸｾｸﾞﾝｸﾐﾔﾏﾁｮｳ","kana_address":"ﾎﾞｳﾉｲｹ","pref":"京都府","city":"久世郡久御山町","address":"坊之池"},
{"zip_code":"6130024","kana_pref":"ｷｮｳﾄﾌ","kana_city":"ｸｾｸﾞﾝｸﾐﾔﾏﾁｮｳ","kana_address":"ﾓﾘ","pref":"京都府","city":"久世郡久御山町","address":"森"}]}