{"zip_code":[
{"zip_code":"6140000","kana_pref":"ｷｮｳﾄﾌ","kana_city":"ﾔﾜﾀｼ","kana_address":"","pref":"京都府","city":"八幡市","address":""},
{"zip_code":"6148256","kana_pref":"ｷｮｳﾄﾌ","kana_city":"ﾔﾜﾀｼ","kana_address":"ｲﾜﾀｲﾜﾉﾏｴ","pref":"京都府","city":"八幡市","address":"岩田岩ノ前"},
{"zip_code":"6148258","kana_pref":"ｷｮｳﾄﾌ","kana_city":"ﾔﾜﾀｼ","kana_address":"ｲﾜﾀｶｶﾞﾉﾂｼﾞ","pref":"京都府","city":"八幡市","address":"岩田加賀ノ辻"},
{"zip_code":"6148267","kana_pref":"ｷｮｳﾄﾌ","kana_city":"ﾔﾜﾀｼ","kana_address":"ｲﾜﾀｷﾀｱｻｼﾞ","pref":"京都府","city":"八幡市","address":"岩田北浅地"},
{"zip_code":"6148254","kana_pref":"ｷｮｳﾄﾌ","kana_city":"ﾔﾜﾀｼ","kana_address":"ｲﾜﾀｷﾀﾉｸﾁ","pref":"京都府","city":"八幡市","address":"岩田北ノ口"},
{"zip_code":"6148252","kana_pref":"ｷｮｳﾄﾌ","kana_city":"ﾔﾜﾀｼ","kana_address":"ｲﾜﾀﾀﾞｲｼｮｳｸﾞﾝ","pref":"京都府","city":"八幡市","address":"岩田大将軍"},
{"zip_code":"6148268","kana_pref":"ｷｮｳﾄﾌ","kana_city":"ﾔﾜﾀｼ","kana_address":"ｲﾜﾀﾀｶｷﾞ","pref":"京都府","city":"八幡市","address":"岩田高木"},
{"zip_code":"6148255","kana_pref":"ｷｮｳﾄﾌ","kana_city":"ﾔﾜﾀｼ","kana_address":"ｲﾜﾀﾀｹﾂﾞﾅ","pref":"京都府","city":"八幡市","address":"岩田竹綱"},
{"zip_code":"6148251","kana_pref":"ｷｮｳﾄﾌ","kana_city":"ﾔﾜﾀｼ","kana_address":"ｲﾜﾀﾁｬﾔﾉﾏｴ","pref":"京都府","city":"八幡市","address":"岩田茶屋ノ前"},
{"zip_code":"6148261","kana_pref":"ｷｮｳﾄﾌ","kana_city":"ﾔﾜﾀｼ","kana_address":"ｲﾜﾀﾂｼﾞｶﾞｲﾄ","pref":"京都府","city":"八幡市","address":"岩田辻垣内"},
{"zip_code":"6148253","kana_pref":"ｷｮｳﾄﾌ","kana_city":"ﾔﾜﾀｼ","kana_address":"ｲﾜﾀﾆｼﾀﾏﾂｸﾘ","pref":"京都府","city":"八幡市","address":"岩田西玉造"},
{"zip_code":"6148257","kana_pref":"ｷｮｳﾄﾌ","kana_city":"ﾔﾜﾀｼ","kana_address":"ｲﾜﾀﾊｼﾐｿﾞ","pref":"京都府","city":"八幡市","address":"岩田橋溝"},
{"zip_code":"6148266","kana_pref":"ｷｮｳﾄﾌ","kana_city":"ﾔﾜﾀｼ","kana_address":"ｲﾜﾀﾊｯﾁｮｳ","pref":"京都府","city":"八幡市","address":"岩田八丁"},
{"zip_code":"6148262","kana_pref":"ｷｮｳﾄﾌ","kana_city":"ﾔﾜﾀｼ","kana_address":"ｲﾜﾀﾏﾂﾊﾞﾗ","pref":"京都府","city":"八幡市","address":"岩田松原"},
{"zip_code":"6148265","kana_pref":"ｷｮｳﾄﾌ","kana_city":"ﾔﾜﾀｼ","kana_address":"ｲﾜﾀﾐﾅﾐｱｻｼﾞ","pref":"京都府","city":"八幡市","address":"岩田南浅地"},
{"zip_code":"6148264","kana_pref":"ｷｮｳﾄﾌ","kana_city":"ﾔﾜﾀｼ","kana_address":"ｲﾜﾀﾐﾅﾐﾉ","pref":"京都府","city":"八幡市","address":"岩田南野"},
{"zip_code":"6148263","kana_pref":"ｷｮｳﾄﾌ","kana_city":"ﾔﾜﾀｼ","kana_address":"ｲﾜﾀﾛｸﾉﾂﾎﾞ","pref":"京都府","city":"八幡市","address":"岩田六ノ坪"},
{"zip_code":"6148235","kana_pref":"ｷｮｳﾄﾌ","kana_city":"ﾔﾜﾀｼ","kana_address":"ｳﾁｻﾞﾄｱﾅｶﾞﾀﾞﾆ","pref":"京都府","city":"八幡市","address":"内里穴ケ谷"},
{"zip_code":"6148232","kana_pref":"ｷｮｳﾄﾌ","kana_city":"ﾔﾜﾀｼ","kana_address":"ｳﾁｻﾞﾄｱﾚﾊﾞ","pref":"京都府","city":"八幡市","address":"内里荒場"},
{"zip_code":"6148231","kana_pref":"ｷｮｳﾄﾌ","kana_city":"ﾔﾜﾀｼ","kana_address":"ｳﾁｻﾞﾄｱﾝｺﾞｼﾊﾞ","pref":"京都府","city":"八幡市","address":"内里安居芝"},
{"zip_code":"6148227","kana_pref":"ｷｮｳﾄﾌ","kana_city":"ﾔﾜﾀｼ","kana_address":"ｳﾁｻﾞﾄｳﾁ","pref":"京都府","city":"八幡市","address":"内里内"},
{"zip_code":"6148239","kana_pref":"ｷｮｳﾄﾌ","kana_city":"ﾔﾜﾀｼ","kana_address":"ｳﾁｻﾞﾄｵｵﾀﾆ","pref":"京都府","city":"八幡市","address":"内里大谷"},
{"zip_code":"6148234","kana_pref":"ｷｮｳﾄﾌ","kana_city":"ﾔﾜﾀｼ","kana_address":"ｳﾁｻﾞﾄｵﾝﾅﾀﾞﾆ","pref":"京都府","city":"八幡市","address":"内里女谷"},
{"zip_code":"6148236","kana_pref":"ｷｮｳﾄﾌ","kana_city":"ﾔﾜﾀｼ","kana_address":"ｳﾁｻﾞﾄｶｷﾀﾞﾆ","pref":"京都府","city":"八幡市","address":"内里柿谷"},
{"zip_code":"6148233","kana_pref":"ｷｮｳﾄﾌ","kana_city":"ﾔﾜﾀｼ","kana_address":"ｳﾁｻﾞﾄｶﾜﾗ","pref":"京都府","city":"八幡市","address":"内里河原"},
{"zip_code":"6148229","kana_pref":"ｷｮｳﾄﾌ","kana_city":"ﾔﾜﾀｼ","kana_address":"ｳﾁｻﾞﾄｷﾀﾉｸﾁ","pref":"京都府","city":"八幡市","address":"内里北ノ口"},
{"zip_code":"6148223","kana_pref":"ｷｮｳﾄﾌ","kana_city":"ﾔﾜﾀｼ","kana_address":"ｳﾁｻﾞﾄｷﾀﾉﾔﾏ","pref":"京都府","city":"八幡市","address":"内里北ノ山"},
{"zip_code":"6148222","kana_pref":"ｷｮｳﾄﾌ","kana_city":"ﾔﾜﾀｼ","kana_address":"ｳﾁｻﾞﾄｺﾞｸﾗｸﾊﾞｼ","pref":"京都府","city":"八幡市","address":"内里極楽橋"},
{"zip_code":"6148228","kana_pref":"ｷｮｳﾄﾌ","kana_city":"ﾔﾜﾀｼ","kana_address":"ｳﾁｻﾞﾄｽｶﾞｲ","pref":"京都府","city":"八幡市","address":"内里菅井"},
{"zip_code":"6148225","kana_pref":"ｷｮｳﾄﾌ","kana_city":"ﾔﾜﾀｼ","kana_address":"ｳﾁｻﾞﾄｽﾅﾀﾞ","pref":"京都府","city":"八幡市","address":"内里砂田"},
{"zip_code":"6148238","kana_pref":"ｷｮｳﾄﾌ","kana_city":"ﾔﾜﾀｼ","kana_address":"ｳﾁｻﾞﾄｽﾅﾊﾀ","pref":"京都府","city":"八幡市","address":"内里砂畠"},
{"zip_code":"6148242","kana_pref":"ｷｮｳﾄﾌ","kana_city":"ﾔﾜﾀｼ","kana_address":"ｳﾁｻﾞﾄﾀﾂﾐﾉｸﾁ","pref":"京都府","city":"八幡市","address":"内里巽ノ口"},
{"zip_code":"6148221","kana_pref":"ｷｮｳﾄﾌ","kana_city":"ﾔﾜﾀｼ","kana_address":"ｳﾁｻﾞﾄﾄﾝﾎﾞｼﾞﾘ","pref":"京都府","city":"八幡市","address":"内里蜻蛉尻"},
{"zip_code":"6148248","kana_pref":"ｷｮｳﾄﾌ","kana_city":"ﾔﾜﾀｼ","kana_address":"ｳﾁｻﾞﾄﾅｶｼﾞﾏ","pref":"京都府","city":"八幡市","address":"内里中島"},
{"zip_code":"6148237","kana_pref":"ｷｮｳﾄﾌ","kana_city":"ﾔﾜﾀｼ","kana_address":"ｳﾁｻﾞﾄﾆｼﾔﾏｶﾜ","pref":"京都府","city":"八幡市","address":"内里西山川"},
{"zip_code":"6148226","kana_pref":"ｷｮｳﾄﾌ","kana_city":"ﾔﾜﾀｼ","kana_address":"ｳﾁｻﾞﾄﾋｶﾞｼﾉｸﾁ","pref":"京都府","city":"八幡市","address":"内里東ノ口"},
{"zip_code":"6148244","kana_pref":"ｷｮｳﾄﾌ","kana_city":"ﾔﾜﾀｼ","kana_address":"ｳﾁｻﾞﾄﾋｶﾞｼﾔﾏｶﾜ","pref":"京都府","city":"八幡市","address":"内里東山川"},
{"zip_code":"6148247","kana_pref":"ｷｮｳﾄﾌ","kana_city":"ﾔﾜﾀｼ","kana_address":"ｳﾁｻﾞﾄﾋｭｳｶﾞﾄﾞｳ","pref":"京都府","city":"八幡市","address":"内里日向堂"},
{"zip_code":"6148230","kana_pref":"ｷｮｳﾄﾌ","kana_city":"ﾔﾜﾀｼ","kana_address":"ｳﾁｻﾞﾄﾋﾗｵ","pref":"京都府","city":"八幡市","address":"内里平尾"},
{"zip_code":"6148245","kana_pref":"ｷｮｳﾄﾌ","kana_city":"ﾔﾜﾀｼ","kana_address":"ｳﾁｻﾞﾄﾌﾙﾀﾒｲｹ","pref":"京都府","city":"八幡市","address":"内里古溜池"},
{"zip_code":"6148224","kana_pref":"ｷｮｳﾄﾌ","kana_city":"ﾔﾜﾀｼ","kana_address":"ｳﾁｻﾞﾄﾍﾞｯｼﾖ","pref":"京都府","city":"八幡市","address":"内里別所"},
{"zip_code":"6148243","kana_pref":"ｷｮｳﾄﾌ","kana_city":"ﾔﾜﾀｼ","kana_address":"ｳﾁｻﾞﾄﾏﾂｶﾞｿﾄ","pref":"京都府","city":"八幡市","address":"内里松ケ外"},
{"zip_code":"6148246","kana_pref":"ｷｮｳﾄﾌ","kana_city":"ﾔﾜﾀｼ","kana_address":"ｳﾁｻﾞﾄﾐﾅﾐﾉｸﾁ","pref":"京都府","city":"八幡市","address":"内里南ノ口"},
{"zip_code":"6148241","kana_pref":"ｷｮｳﾄﾌ","kana_city":"ﾔﾜﾀｼ","kana_address":"ｳﾁｻﾞﾄﾐﾔﾉﾏｴ","pref":"京都府","city":"八幡市","address":"内里宮ノ前"},
{"zip_code":"6148374","kana_pref":"ｷｮｳﾄﾌ","kana_city":"ﾔﾜﾀｼ","kana_address":"ｵﾄｺﾔﾏｲｼｼﾛ","pref":"京都府","city":"八幡市","address":"男山石城"},
{"zip_code":"6148366","kana_pref":"ｷｮｳﾄﾌ","kana_city":"ﾔﾜﾀｼ","kana_address":"ｵﾄｺﾔﾏｲｽﾞﾐ","pref":"京都府","city":"八幡市","address":"男山泉"},
{"zip_code":"6148365","kana_pref":"ｷｮｳﾄﾌ","kana_city":"ﾔﾜﾀｼ","kana_address":"ｵﾄｺﾔﾏｶﾅﾌﾞﾘ","pref":"京都府","city":"八幡市","address":"男山金振"},
{"zip_code":"6148377","kana_pref":"ｷｮｳﾄﾌ","kana_city":"ﾔﾜﾀｼ","kana_address":"ｵﾄｺﾔﾏｺｳﾛ","pref":"京都府","city":"八幡市","address":"男山香呂"},
{"zip_code":"6148372","kana_pref":"ｷｮｳﾄﾌ","kana_city":"ﾔﾜﾀｼ","kana_address":"ｵﾄｺﾔﾏｻｻﾀﾆ","pref":"京都府","city":"八幡市","address":"男山笹谷"},
{"zip_code":"6148361","kana_pref":"ｷｮｳﾄﾌ","kana_city":"ﾔﾜﾀｼ","kana_address":"ｵﾄｺﾔﾏｼｹﾞﾂ","pref":"京都府","city":"八幡市","address":"男山指月"},
{"zip_code":"6148376","kana_pref":"ｷｮｳﾄﾌ","kana_city":"ﾔﾜﾀｼ","kana_address":"ｵﾄｺﾔﾏﾀｹｿﾞﾉ","pref":"京都府","city":"八幡市","address":"男山竹園"},
{"zip_code":"6148367","kana_pref":"ｷｮｳﾄﾌ","kana_city":"ﾔﾜﾀｼ","kana_address":"ｵﾄｺﾔﾏﾅｶﾞｻﾜ","pref":"京都府","city":"八幡市","address":"男山長沢"},
{"zip_code":"6148373","kana_pref":"ｷｮｳﾄﾌ","kana_city":"ﾔﾜﾀｼ","kana_address":"ｵﾄｺﾔﾏﾊﾁﾎﾞｳ","pref":"京都府","city":"八幡市","address":"男山八望"},
{"zip_code":"6148364","kana_pref":"ｷｮｳﾄﾌ","kana_city":"ﾔﾜﾀｼ","kana_address":"ｵﾄｺﾔﾏﾏﾂｻﾄ","pref":"京都府","city":"八幡市","address":"男山松里"},
{"zip_code":"6148362","kana_pref":"ｷｮｳﾄﾌ","kana_city":"ﾔﾜﾀｼ","kana_address":"ｵﾄｺﾔﾏﾐｻﾞｸﾗ","pref":"京都府","city":"八幡市","address":"男山美桜"},
{"zip_code":"6148371","kana_pref":"ｷｮｳﾄﾌ","kana_city":"ﾔﾜﾀｼ","kana_address":"ｵﾄｺﾔﾏﾕｳﾄｸ","pref":"京都府","city":"八幡市","address":"男山雄徳"},
{"zip_code":"6148375","kana_pref":"ｷｮｳﾄﾌ","kana_city":"ﾔﾜﾀｼ","kana_address":"ｵﾄｺﾔﾏﾕﾐｵｶ","pref":"京都府","city":"八幡市","address":"男山弓岡"},
{"zip_code":"6148363","kana_pref":"ｷｮｳﾄﾌ","kana_city":"ﾔﾜﾀｼ","kana_address":"ｵﾄｺﾔﾏﾖｼｲ","pref":"京都府","city":"八幡市","address":"男山吉井"},
{"zip_code":"6148165","kana_pref":"ｷｮｳﾄﾌ","kana_city":"ﾔﾜﾀｼ","kana_address":"ｶﾐﾅﾗｲｹﾉﾑｺｳ","pref":"京都府","city":"八幡市","address":"上奈良池ノ向"},
{"zip_code":"6148151","kana_pref":"ｷｮｳﾄﾌ","kana_city":"ﾔﾜﾀｼ","kana_address":"ｶﾐﾅﾗｵﾊﾞﾀ","pref":"京都府","city":"八幡市","address":"上奈良小端"},
{"zip_code":"6148158","kana_pref":"ｷｮｳﾄﾌ","kana_city":"ﾔﾜﾀｼ","kana_address":"ｶﾐﾅﾗｷﾀﾉｸﾁ","pref":"京都府","city":"八幡市","address":"上奈良北ノ口"},
{"zip_code":"6148153","kana_pref":"ｷｮｳﾄﾌ","kana_city":"ﾔﾜﾀｼ","kana_address":"ｶﾐﾅﾗｻｸﾞﾘﾏｴ","pref":"京都府","city":"八幡市","address":"上奈良サグリ前"},
{"zip_code":"6148155","kana_pref":"ｷｮｳﾄﾌ","kana_city":"ﾔﾜﾀｼ","kana_address":"ｶﾐﾅﾗｼﾛｶﾞｲﾄ","pref":"京都府","city":"八幡市","address":"上奈良城垣内"},
{"zip_code":"6148159","kana_pref":"ｷｮｳﾄﾌ","kana_city":"ﾔﾜﾀｼ","kana_address":"ｶﾐﾅﾗﾀﾞｲﾓﾝ","pref":"京都府","city":"八幡市","address":"上奈良大門"},
{"zip_code":"6148166","kana_pref":"ｷｮｳﾄﾌ","kana_city":"ﾔﾜﾀｼ","kana_address":"ｶﾐﾅﾗﾄﾞｳｼﾞﾏ","pref":"京都府","city":"八幡市","address":"上奈良堂島"},
{"zip_code":"6148163","kana_pref":"ｷｮｳﾄﾌ","kana_city":"ﾔﾜﾀｼ","kana_address":"ｶﾐﾅﾗﾅｶﾞｲｹ","pref":"京都府","city":"八幡市","address":"上奈良長池"},
{"zip_code":"6148156","kana_pref":"ｷｮｳﾄﾌ","kana_city":"ﾔﾜﾀｼ","kana_address":"ｶﾐﾅﾗﾅﾗｻﾞﾄ","pref":"京都府","city":"八幡市","address":"上奈良奈良里"},
{"zip_code":"6148157","kana_pref":"ｷｮｳﾄﾌ","kana_city":"ﾔﾜﾀｼ","kana_address":"ｶﾐﾅﾗﾋｶﾞｼﾉｸﾁ","pref":"京都府","city":"八幡市","address":"上奈良東ノ口"},
{"zip_code":"6148162","kana_pref":"ｷｮｳﾄﾌ","kana_city":"ﾔﾜﾀｼ","kana_address":"ｶﾐﾅﾗﾋﾉｵ","pref":"京都府","city":"八幡市","address":"上奈良日ノ尾"},
{"zip_code":"6148152","kana_pref":"ｷｮｳﾄﾌ","kana_city":"ﾔﾜﾀｼ","kana_address":"ｶﾐﾅﾗﾐｿﾉ","pref":"京都府","city":"八幡市","address":"上奈良御園"},
{"zip_code":"6148164","kana_pref":"ｷｮｳﾄﾌ","kana_city":"ﾔﾜﾀｼ","kana_address":"ｶﾐﾅﾗﾐﾅﾐﾉｸﾁ","pref":"京都府","city":"八幡市","address":"上奈良南ノ口"},
{"zip_code":"6148161","kana_pref":"ｷｮｳﾄﾌ","kana_city":"ﾔﾜﾀｼ","kana_address":"ｶﾐﾅﾗﾐﾔﾉﾋｶﾞｼ","pref":"京都府","city":"八幡市","address":"上奈良宮ノ東"},
{"zip_code":"6148154","kana_pref":"ｷｮｳﾄﾌ","kana_city":"ﾔﾜﾀｼ","kana_address":"ｶﾐﾅﾗﾐﾔﾉﾆｼ","pref":"京都府","city":"八幡市","address":"上奈良宮ノ西"},
{"zip_code":"6148112","kana_pref":"ｷｮｳﾄﾌ","kana_city":"ﾔﾜﾀｼ","kana_address":"ｶﾜｸﾞﾁｳﾏﾔｼﾞﾘ","pref":"京都府","city":"八幡市","address":"川口馬屋尻"},
{"zip_code":"6148115","kana_pref":"ｷｮｳﾄﾌ","kana_city":"ﾔﾜﾀｼ","kana_address":"ｶﾜｸﾞﾁｵｳｷﾞﾉｼﾊﾞ","pref":"京都府","city":"八幡市","address":"川口扇ノ芝"},
{"zip_code":"6148102","kana_pref":"ｷｮｳﾄﾌ","kana_city":"ﾔﾜﾀｼ","kana_address":"ｶﾜｸﾞﾁｷﾀｳﾗ","pref":"京都府","city":"八幡市","address":"川口北浦"},
{"zip_code":"6148105","kana_pref":"ｷｮｳﾄﾌ","kana_city":"ﾔﾜﾀｼ","kana_address":"ｶﾜｸﾞﾁｷﾞﾎﾞｼｭ","pref":"京都府","city":"八幡市","address":"川口擬宝珠"},
{"zip_code":"6148111","kana_pref":"ｷｮｳﾄﾌ","kana_city":"ﾔﾜﾀｼ","kana_address":"ｶﾜｸﾞﾁｺﾆｼ","pref":"京都府","city":"八幡市","address":"川口小西"},
{"zip_code":"6148106","kana_pref":"ｷｮｳﾄﾌ","kana_city":"ﾔﾜﾀｼ","kana_address":"ｶﾜｸﾞﾁﾃﾝｼﾞﾝｻﾞｷ","pref":"京都府","city":"八幡市","address":"川口天神崎"},
{"zip_code":"6148117","kana_pref":"ｷｮｳﾄﾌ","kana_city":"ﾔﾜﾀｼ","kana_address":"ｶﾜｸﾞﾁﾆｼｵｳｷﾞ","pref":"京都府","city":"八幡市","address":"川口西扇"},
{"zip_code":"6148113","kana_pref":"ｷｮｳﾄﾌ","kana_city":"ﾔﾜﾀｼ","kana_address":"ｶﾜｸﾞﾁﾊｷﾞﾊﾗ","pref":"京都府","city":"八幡市","address":"川口萩原"},
{"zip_code":"6148101","kana_pref":"ｷｮｳﾄﾌ","kana_city":"ﾔﾜﾀｼ","kana_address":"ｶﾜｸﾞﾁﾊﾏ","pref":"京都府","city":"八幡市","address":"川口浜"},
{"zip_code":"6148116","kana_pref":"ｷｮｳﾄﾌ","kana_city":"ﾔﾜﾀｼ","kana_address":"ｶﾜｸﾞﾁﾋｶﾞｼｵｳｷﾞ","pref":"京都府","city":"八幡市","address":"川口東扇"},
{"zip_code":"6148104","kana_pref":"ｷｮｳﾄﾌ","kana_city":"ﾔﾜﾀｼ","kana_address":"ｶﾜｸﾞﾁﾋｶﾞｼｶﾞｼﾗ","pref":"京都府","city":"八幡市","address":"川口東頭"},
{"zip_code":"6148114","kana_pref":"ｷｮｳﾄﾌ","kana_city":"ﾔﾜﾀｼ","kana_address":"ｶﾜｸﾞﾁﾍﾞｯｼﾖ","pref":"京都府","city":"八幡市","address":"川口別所"},
{"zip_code":"6148103","kana_pref":"ｷｮｳﾄﾌ","kana_city":"ﾔﾜﾀｼ","kana_address":"ｶﾜｸﾞﾁﾎﾘﾉｳﾁ","pref":"京都府","city":"八幡市","address":"川口堀ノ内"},
{"zip_code":"6148294","kana_pref":"ｷｮｳﾄﾌ","kana_city":"ﾔﾜﾀｼ","kana_address":"ｷﾝﾒｲﾀﾞｲｷﾀ","pref":"京都府","city":"八幡市","address":"欽明台北"},
{"zip_code":"6148295","kana_pref":"ｷｮｳﾄﾌ","kana_city":"ﾔﾜﾀｼ","kana_address":"ｷﾝﾒｲﾀﾞｲﾁｭｳｵｳ","pref":"京都府","city":"八幡市","address":"欽明台中央"},
{"zip_code":"6148297","kana_pref":"ｷｮｳﾄﾌ","kana_city":"ﾔﾜﾀｼ","kana_address":"ｷﾝﾒｲﾀﾞｲﾆｼ","pref":"京都府","city":"八幡市","address":"欽明台西"},
{"zip_code":"6148296","kana_pref":"ｷｮｳﾄﾌ","kana_city":"ﾔﾜﾀｼ","kana_address":"ｷﾝﾒｲﾀﾞｲﾋｶﾞｼ","pref":"京都府","city":"八幡市","address":"欽明台東"},
{"zip_code":"6148171","kana_pref":"ｷｮｳﾄﾌ","kana_city":"ﾔﾜﾀｼ","kana_address":"ｺｳﾂﾞﾔｱﾏｶﾞｲｹ","pref":"京都府","city":"八幡市","address":"上津屋尼ケ池"},
{"zip_code":"6148175","kana_pref":"ｷｮｳﾄﾌ","kana_city":"ﾔﾜﾀｼ","kana_address":"ｺｳﾂﾞﾔｲｼﾉﾄｳ","pref":"京都府","city":"八幡市","address":"上津屋石ノ塔"},
{"zip_code":"6148173","kana_pref":"ｷｮｳﾄﾌ","kana_city":"ﾔﾜﾀｼ","kana_address":"ｺｳﾂﾞﾔｻﾄｶﾞｲﾄ","pref":"京都府","city":"八幡市","address":"上津屋里垣内"},
{"zip_code":"6148176","kana_pref":"ｷｮｳﾄﾌ","kana_city":"ﾔﾜﾀｼ","kana_address":"ｺｳﾂﾞﾔﾅｶﾂﾞﾂﾐ","pref":"京都府","city":"八幡市","address":"上津屋中堤"},
{"zip_code":"6148183","kana_pref":"ｷｮｳﾄﾌ","kana_city":"ﾔﾜﾀｼ","kana_address":"ｺｳﾂﾞﾔﾆｼｸﾎﾞ","pref":"京都府","city":"八幡市","address":"上津屋西久保"},
{"zip_code":"6148174","kana_pref":"ｷｮｳﾄﾌ","kana_city":"ﾔﾜﾀｼ","kana_address":"ｺｳﾂﾞﾔﾊﾁｵｳｼﾞ","pref":"京都府","city":"八幡市","address":"上津屋八王子"},
{"zip_code":"6148184","kana_pref":"ｷｮｳﾄﾌ","kana_city":"ﾔﾜﾀｼ","kana_address":"ｺｳﾂﾞﾔﾊｯﾁｮｳ","pref":"京都府","city":"八幡市","address":"上津屋八丁"},
{"zip_code":"6148181","kana_pref":"ｷｮｳﾄﾌ","kana_city":"ﾔﾜﾀｼ","kana_address":"ｺｳﾂﾞﾔﾊﾏｶﾞｲﾄ","pref":"京都府","city":"八幡市","address":"上津屋浜垣内"},
{"zip_code":"6148172","kana_pref":"ｷｮｳﾄﾌ","kana_city":"ﾔﾜﾀｼ","kana_address":"ｺｳﾂﾞﾔﾊﾔｼ","pref":"京都府","city":"八幡市","address":"上津屋林"},
{"zip_code":"6148182","kana_pref":"ｷｮｳﾄﾌ","kana_city":"ﾔﾜﾀｼ","kana_address":"ｺｳﾂﾞﾔﾐﾅﾐﾑﾗ","pref":"京都府","city":"八幡市","address":"上津屋南村"},
{"zip_code":"6148148","kana_pref":"ｷｮｳﾄﾌ","kana_city":"ﾔﾜﾀｼ","kana_address":"ｼﾓﾅﾗｲｾﾞｷ","pref":"京都府","city":"八幡市","address":"下奈良井関"},
{"zip_code":"6148143","kana_pref":"ｷｮｳﾄﾌ","kana_city":"ﾔﾜﾀｼ","kana_address":"ｼﾓﾅﾗｲｯﾁｮｳﾁ","pref":"京都府","city":"八幡市","address":"下奈良一丁地"},
{"zip_code":"6148122","kana_pref":"ｷｮｳﾄﾌ","kana_city":"ﾔﾜﾀｼ","kana_address":"ｼﾓﾅﾗｲｯﾁｮｳﾂﾞﾂﾐ","pref":"京都府","city":"八幡市","address":"下奈良一丁堤"},
{"zip_code":"6148147","kana_pref":"ｷｮｳﾄﾌ","kana_city":"ﾔﾜﾀｼ","kana_address":"ｼﾓﾅﾗｲﾏｻﾞﾄ","pref":"京都府","city":"八幡市","address":"下奈良今里"},
{"zip_code":"6148124","kana_pref":"ｷｮｳﾄﾌ","kana_city":"ﾔﾜﾀｼ","kana_address":"ｼﾓﾅﾗｵｸｶﾞｲﾄ","pref":"京都府","city":"八幡市","address":"下奈良奥垣内"},
{"zip_code":"6148141","kana_pref":"ｷｮｳﾄﾌ","kana_city":"ﾔﾜﾀｼ","kana_address":"ｼﾓﾅﾗｶﾐｻﾝﾄﾞｺ","pref":"京都府","city":"八幡市","address":"下奈良上三床"},
{"zip_code":"6148146","kana_pref":"ｷｮｳﾄﾌ","kana_city":"ﾔﾜﾀｼ","kana_address":"ｼﾓﾅﾗｶﾐﾉﾀﾞﾝ","pref":"京都府","city":"八幡市","address":"下奈良上ノ段"},
{"zip_code":"6148121","kana_pref":"ｷｮｳﾄﾌ","kana_city":"ﾔﾜﾀｼ","kana_address":"ｼﾓﾅﾗｺﾐﾔ","pref":"京都府","city":"八幡市","address":"下奈良小宮"},
{"zip_code":"6148132","kana_pref":"ｷｮｳﾄﾌ","kana_city":"ﾔﾜﾀｼ","kana_address":"ｼﾓﾅﾗｻｶｷ","pref":"京都府","city":"八幡市","address":"下奈良榊"},
{"zip_code":"6148126","kana_pref":"ｷｮｳﾄﾌ","kana_city":"ﾔﾜﾀｼ","kana_address":"ｼﾓﾅﾗｼﾓｻﾝﾄﾞｺ","pref":"京都府","city":"八幡市","address":"下奈良下三床"},
{"zip_code":"6148133","kana_pref":"ｷｮｳﾄﾌ","kana_city":"ﾔﾜﾀｼ","kana_address":"ｼﾓﾅﾗｼﾝｹﾞ","pref":"京都府","city":"八幡市","address":"下奈良新下"},
{"zip_code":"6148127","kana_pref":"ｷｮｳﾄﾌ","kana_city":"ﾔﾜﾀｼ","kana_address":"ｼﾓﾅﾗｽﾐﾀﾞ","pref":"京都府","city":"八幡市","address":"下奈良隅田"},
{"zip_code":"6148149","kana_pref":"ｷｮｳﾄﾌ","kana_city":"ﾔﾜﾀｼ","kana_address":"ｼﾓﾅﾗﾀｹｶﾞｲﾄ","pref":"京都府","city":"八幡市","address":"下奈良竹垣内"},
{"zip_code":"6148125","kana_pref":"ｷｮｳﾄﾌ","kana_city":"ﾔﾜﾀｼ","kana_address":"ｼﾓﾅﾗﾃﾞｶﾞｲﾄ","pref":"京都府","city":"八幡市","address":"下奈良出垣内"},
{"zip_code":"6148136","kana_pref":"ｷｮｳﾄﾌ","kana_city":"ﾔﾜﾀｼ","kana_address":"ｼﾓﾅﾗﾄﾝﾎﾞｼﾞﾘ","pref":"京都府","city":"八幡市","address":"下奈良蜻蛉尻"},
{"zip_code":"6148135","kana_pref":"ｷｮｳﾄﾌ","kana_city":"ﾔﾜﾀｼ","kana_address":"ｼﾓﾅﾗﾄﾝﾎﾞｼﾞﾘｽｼﾞ","pref":"京都府","city":"八幡市","address":"下奈良蜻蛉尻筋"},
{"zip_code":"6148134","kana_pref":"ｷｮｳﾄﾌ","kana_city":"ﾔﾜﾀｼ","kana_address":"ｼﾓﾅﾗﾅｶﾉﾂﾎﾞ","pref":"京都府","city":"八幡市","address":"下奈良中ノ坪"},
{"zip_code":"6148123","kana_pref":"ｷｮｳﾄﾌ","kana_city":"ﾔﾜﾀｼ","kana_address":"ｼﾓﾅﾗﾅｺﾞｼ","pref":"京都府","city":"八幡市","address":"下奈良名越"},
{"zip_code":"6148144","kana_pref":"ｷｮｳﾄﾌ","kana_city":"ﾔﾜﾀｼ","kana_address":"ｼﾓﾅﾗﾅﾗﾓﾄ","pref":"京都府","city":"八幡市","address":"下奈良奈良元"},
{"zip_code":"6148145","kana_pref":"ｷｮｳﾄﾌ","kana_city":"ﾔﾜﾀｼ","kana_address":"ｼﾓﾅﾗﾆｶｲﾄﾞｳ","pref":"京都府","city":"八幡市","address":"下奈良二階堂"},
{"zip_code":"6148128","kana_pref":"ｷｮｳﾄﾌ","kana_city":"ﾔﾜﾀｼ","kana_address":"ｼﾓﾅﾗﾉｶﾞﾐ","pref":"京都府","city":"八幡市","address":"下奈良野神"},
{"zip_code":"6148142","kana_pref":"ｷｮｳﾄﾌ","kana_city":"ﾔﾜﾀｼ","kana_address":"ｼﾓﾅﾗﾐﾅﾐｶﾞｼﾗ","pref":"京都府","city":"八幡市","address":"下奈良南頭"},
{"zip_code":"6148131","kana_pref":"ｷｮｳﾄﾌ","kana_city":"ﾔﾜﾀｼ","kana_address":"ｼﾓﾅﾗﾐﾔﾉﾐﾁ","pref":"京都府","city":"八幡市","address":"下奈良宮ノ道"},
{"zip_code":"6148208","kana_pref":"ｷｮｳﾄﾌ","kana_city":"ﾔﾜﾀｼ","kana_address":"ﾄｳﾂﾞｱﾗﾎﾘ","pref":"京都府","city":"八幡市","address":"戸津荒堀"},
{"zip_code":"6148280","kana_pref":"ｷｮｳﾄﾌ","kana_city":"ﾔﾜﾀｼ","kana_address":"ﾄｳﾂﾞｵｸﾀﾆ","pref":"京都府","city":"八幡市","address":"戸津奥谷"},
{"zip_code":"6148207","kana_pref":"ｷｮｳﾄﾌ","kana_city":"ﾔﾜﾀｼ","kana_address":"ﾄｳﾂﾞｷﾀｼｮｳｼﾞ","pref":"京都府","city":"八幡市","address":"戸津北小路"},
{"zip_code":"6148211","kana_pref":"ｷｮｳﾄﾌ","kana_city":"ﾔﾜﾀｼ","kana_address":"ﾄｳﾂﾞｺﾅｶﾀﾞｲ","pref":"京都府","city":"八幡市","address":"戸津小中代"},
{"zip_code":"6148206","kana_pref":"ｷｮｳﾄﾌ","kana_city":"ﾔﾜﾀｼ","kana_address":"ﾄｳﾂﾞｼｮｳﾉﾀｹ","pref":"京都府","city":"八幡市","address":"戸津正ノ竹"},
{"zip_code":"6148216","kana_pref":"ｷｮｳﾄﾌ","kana_city":"ﾔﾜﾀｼ","kana_address":"ﾄｳﾂﾞﾀﾆﾉｸﾁ","pref":"京都府","city":"八幡市","address":"戸津谷ノ口"},
{"zip_code":"6148215","kana_pref":"ｷｮｳﾄﾌ","kana_city":"ﾔﾜﾀｼ","kana_address":"ﾄｳﾂﾞﾄﾞｳﾃﾞﾝ","pref":"京都府","city":"八幡市","address":"戸津堂田"},
{"zip_code":"6148204","kana_pref":"ｷｮｳﾄﾌ","kana_city":"ﾔﾜﾀｼ","kana_address":"ﾄｳﾂﾞﾄﾝﾎﾞｼﾞﾘ","pref":"京都府","city":"八幡市","address":"戸津蜻蛉尻"},
{"zip_code":"6148203","kana_pref":"ｷｮｳﾄﾌ","kana_city":"ﾔﾜﾀｼ","kana_address":"ﾄｳﾂﾞﾅｶｶﾞｲﾄ","pref":"京都府","city":"八幡市","address":"戸津中垣内"},
{"zip_code":"6148212","kana_pref":"ｷｮｳﾄﾌ","kana_city":"ﾔﾜﾀｼ","kana_address":"ﾄｳﾂﾞﾅｶﾀﾞｲ","pref":"京都府","city":"八幡市","address":"戸津中代"},
{"zip_code":"6148205","kana_pref":"ｷｮｳﾄﾌ","kana_city":"ﾔﾜﾀｼ","kana_address":"ﾄｳﾂﾞﾋｶﾞｼﾀﾞｲ","pref":"京都府","city":"八幡市","address":"戸津東代"},
{"zip_code":"6148202","kana_pref":"ｷｮｳﾄﾌ","kana_city":"ﾔﾜﾀｼ","kana_address":"ﾄｳﾂﾞﾋｶﾞｼﾉｸﾁ","pref":"京都府","city":"八幡市","address":"戸津東ノ口"},
{"zip_code":"6148214","kana_pref":"ｷｮｳﾄﾌ","kana_city":"ﾔﾜﾀｼ","kana_address":"ﾄｳﾂﾞﾐﾄｼﾛ","pref":"京都府","city":"八幡市","address":"戸津水戸城"},
{"zip_code":"6148201","kana_pref":"ｷｮｳﾄﾌ","kana_city":"ﾔﾜﾀｼ","kana_address":"ﾄｳﾂﾞﾐﾅﾐｼｮｳｼﾞ","pref":"京都府","city":"八幡市","address":"戸津南小路"},
{"zip_code":"6148213","kana_pref":"ｷｮｳﾄﾌ","kana_city":"ﾔﾜﾀｼ","kana_address":"ﾄｳﾂﾞﾐﾅﾐﾀﾞｲ","pref":"京都府","city":"八幡市","address":"戸津南代"},
{"zip_code":"6148351","kana_pref":"ｷｮｳﾄﾌ","kana_city":"ﾔﾜﾀｼ","kana_address":"ﾆｼﾔﾏｱﾀﾞﾁ","pref":"京都府","city":"八幡市","address":"西山足立"},
{"zip_code":"6148353","kana_pref":"ｷｮｳﾄﾌ","kana_city":"ﾔﾜﾀｼ","kana_address":"ﾆｼﾔﾏﾏﾙｵ","pref":"京都府","city":"八幡市","address":"西山丸尾"},
{"zip_code":"6148352","kana_pref":"ｷｮｳﾄﾌ","kana_city":"ﾔﾜﾀｼ","kana_address":"ﾆｼﾔﾏﾜｷ","pref":"京都府","city":"八幡市","address":"西山和気"},
{"zip_code":"6148193","kana_pref":"ｷｮｳﾄﾌ","kana_city":"ﾔﾜﾀｼ","kana_address":"ﾉｼﾞﾘｲﾁｱﾝ","pref":"京都府","city":"八幡市","address":"野尻一庵"},
{"zip_code":"6148194","kana_pref":"ｷｮｳﾄﾌ","kana_city":"ﾔﾜﾀｼ","kana_address":"ﾉｼﾞﾘｴﾝﾉﾓﾄ","pref":"京都府","city":"八幡市","address":"野尻円ノ元"},
{"zip_code":"6148191","kana_pref":"ｷｮｳﾄﾌ","kana_city":"ﾔﾜﾀｼ","kana_address":"ﾉｼﾞﾘｷﾀﾉｸﾁ","pref":"京都府","city":"八幡市","address":"野尻北ノ口"},
{"zip_code":"6148197","kana_pref":"ｷｮｳﾄﾌ","kana_city":"ﾔﾜﾀｼ","kana_address":"ﾉｼﾞﾘｸﾗｶｹ","pref":"京都府","city":"八幡市","address":"野尻倉掛"},
{"zip_code":"6148195","kana_pref":"ｷｮｳﾄﾌ","kana_city":"ﾔﾜﾀｼ","kana_address":"ﾉｼﾞﾘｼﾞｮｳｷﾞﾜ","pref":"京都府","city":"八幡市","address":"野尻城究"},
{"zip_code":"6148196","kana_pref":"ｷｮｳﾄﾌ","kana_city":"ﾔﾜﾀｼ","kana_address":"ﾉｼﾞﾘｼｮｳﾊﾀ","pref":"京都府","city":"八幡市","address":"野尻正畑"},
{"zip_code":"6148192","kana_pref":"ｷｮｳﾄﾌ","kana_city":"ﾔﾜﾀｼ","kana_address":"ﾉｼﾞﾘﾄﾞｲﾉｳﾁ","pref":"京都府","city":"八幡市","address":"野尻土井ノ内"},
{"zip_code":"6148345","kana_pref":"ｷｮｳﾄﾌ","kana_city":"ﾔﾜﾀｼ","kana_address":"ﾊｼﾓﾄｱﾀｺﾞﾔﾏ","pref":"京都府","city":"八幡市","address":"橋本愛宕山"},
{"zip_code":"6148326","kana_pref":"ｷｮｳﾄﾌ","kana_city":"ﾔﾜﾀｼ","kana_address":"ﾊｼﾓﾄｲｼｶﾞﾀﾞﾆ","pref":"京都府","city":"八幡市","address":"橋本石ケ谷"},
{"zip_code":"6148331","kana_pref":"ｷｮｳﾄﾌ","kana_city":"ﾔﾜﾀｼ","kana_address":"ﾊｼﾓﾄｲｿｸ","pref":"京都府","city":"八幡市","address":"橋本意足"},
{"zip_code":"6148349","kana_pref":"ｷｮｳﾄﾌ","kana_city":"ﾔﾜﾀｼ","kana_address":"ﾊｼﾓﾄｲﾄｶﾞｳｴ","pref":"京都府","city":"八幡市","address":"橋本糸ケ上"},
{"zip_code":"6148311","kana_pref":"ｷｮｳﾄﾌ","kana_city":"ﾔﾜﾀｼ","kana_address":"ﾊｼﾓﾄｵｸﾉﾁｮｳ","pref":"京都府","city":"八幡市","address":"橋本奥ノ町"},
{"zip_code":"6148325","kana_pref":"ｷｮｳﾄﾌ","kana_city":"ﾔﾜﾀｼ","kana_address":"ﾊｼﾓﾄｷﾀｼﾞｮｳﾄﾞｶﾞﾊﾗ","pref":"京都府","city":"八幡市","address":"橋本北浄土ケ原"},
{"zip_code":"6148315","kana_pref":"ｷｮｳﾄﾌ","kana_city":"ﾔﾜﾀｼ","kana_address":"ﾊｼﾓﾄｷﾀﾉﾁｮｳ","pref":"京都府","city":"八幡市","address":"橋本北ノ町"},
{"zip_code":"6148327","kana_pref":"ｷｮｳﾄﾌ","kana_city":"ﾔﾜﾀｼ","kana_address":"ﾊｼﾓﾄｸﾘｶﾞﾀﾞﾆ","pref":"京都府","city":"八幡市","address":"橋本栗ケ谷"},
{"zip_code":"6148323","kana_pref":"ｷｮｳﾄﾌ","kana_city":"ﾔﾜﾀｼ","kana_address":"ﾊｼﾓﾄｺｳｼｮｳ","pref":"京都府","city":"八幡市","address":"橋本興正"},
{"zip_code":"6148342","kana_pref":"ｷｮｳﾄﾌ","kana_city":"ﾔﾜﾀｼ","kana_address":"ﾊｼﾓﾄｺｶﾞﾈｶﾞﾜ","pref":"京都府","city":"八幡市","address":"橋本小金川"},
{"zip_code":"6148321","kana_pref":"ｷｮｳﾄﾌ","kana_city":"ﾔﾜﾀｼ","kana_address":"ﾊｼﾓﾄｺﾒﾉｵ","pref":"京都府","city":"八幡市","address":"橋本米ノ尾"},
{"zip_code":"6148346","kana_pref":"ｷｮｳﾄﾌ","kana_city":"ﾔﾜﾀｼ","kana_address":"ﾊｼﾓﾄｼｵｶﾞﾏ","pref":"京都府","city":"八幡市","address":"橋本塩釜"},
{"zip_code":"6148312","kana_pref":"ｷｮｳﾄﾌ","kana_city":"ﾔﾜﾀｼ","kana_address":"ﾊｼﾓﾄｼﾘｴ","pref":"京都府","city":"八幡市","address":"橋本尻江"},
{"zip_code":"6148332","kana_pref":"ｷｮｳﾄﾌ","kana_city":"ﾔﾜﾀｼ","kana_address":"ﾊｼﾓﾄｼﾝｾｷ","pref":"京都府","city":"八幡市","address":"橋本新石"},
{"zip_code":"6148344","kana_pref":"ｷｮｳﾄﾌ","kana_city":"ﾔﾜﾀｼ","kana_address":"ﾊｼﾓﾄﾄﾞｳｶﾞﾊﾗ","pref":"京都府","city":"八幡市","address":"橋本堂ケ原"},
{"zip_code":"6148322","kana_pref":"ｷｮｳﾄﾌ","kana_city":"ﾔﾜﾀｼ","kana_address":"ﾊｼﾓﾄﾄｶﾞﾉｵ","pref":"京都府","city":"八幡市","address":"橋本狩尾"},
{"zip_code":"6148335","kana_pref":"ｷｮｳﾄﾌ","kana_city":"ﾔﾜﾀｼ","kana_address":"ﾊｼﾓﾄﾅｶﾉｲｹｼﾞﾘ","pref":"京都府","city":"八幡市","address":"橋本中ノ池尻"},
{"zip_code":"6148341","kana_pref":"ｷｮｳﾄﾌ","kana_city":"ﾔﾜﾀｼ","kana_address":"ﾊｼﾓﾄﾅｶﾉﾁｮｳ","pref":"京都府","city":"八幡市","address":"橋本中ノ町"},
{"zip_code":"6148334","kana_pref":"ｷｮｳﾄﾌ","kana_city":"ﾔﾜﾀｼ","kana_address":"ﾊｼﾓﾄﾆｼｶﾘﾏﾀ","pref":"京都府","city":"八幡市","address":"橋本西刈又"},
{"zip_code":"6148314","kana_pref":"ｷｮｳﾄﾌ","kana_city":"ﾔﾜﾀｼ","kana_address":"ﾊｼﾓﾄﾆｼﾔﾏﾓﾄ","pref":"京都府","city":"八幡市","address":"橋本西山本"},
{"zip_code":"6148333","kana_pref":"ｷｮｳﾄﾌ","kana_city":"ﾔﾜﾀｼ","kana_address":"ﾊｼﾓﾄﾋｶﾞｼｶﾘﾏﾀ","pref":"京都府","city":"八幡市","address":"橋本東刈又"},
{"zip_code":"6148324","kana_pref":"ｷｮｳﾄﾌ","kana_city":"ﾔﾜﾀｼ","kana_address":"ﾊｼﾓﾄﾋｶﾞｼｼﾞｮｳﾄﾞｶﾞﾊﾗ","pref":"京都府","city":"八幡市","address":"橋本東浄土ケ原"},
{"zip_code":"6148348","kana_pref":"ｷｮｳﾄﾌ","kana_city":"ﾔﾜﾀｼ","kana_address":"ﾊｼﾓﾄﾋｶﾞｼﾊﾗ","pref":"京都府","city":"八幡市","address":"橋本東原"},
{"zip_code":"6148313","kana_pref":"ｷｮｳﾄﾌ","kana_city":"ﾔﾜﾀｼ","kana_address":"ﾊｼﾓﾄﾋｶﾞｼﾔﾏﾓﾄ","pref":"京都府","city":"八幡市","address":"橋本東山本"},
{"zip_code":"6148347","kana_pref":"ｷｮｳﾄﾌ","kana_city":"ﾔﾜﾀｼ","kana_address":"ﾊｼﾓﾄﾋﾗﾉﾔﾏ","pref":"京都府","city":"八幡市","address":"橋本平野山"},
{"zip_code":"6148336","kana_pref":"ｷｮｳﾄﾌ","kana_city":"ﾔﾜﾀｼ","kana_address":"ﾊｼﾓﾄﾑｶｲﾔﾏ","pref":"京都府","city":"八幡市","address":"橋本向山"},
{"zip_code":"6148343","kana_pref":"ｷｮｳﾄﾌ","kana_city":"ﾔﾜﾀｼ","kana_address":"ﾊｼﾓﾄﾔｹﾉ","pref":"京都府","city":"八幡市","address":"橋本焼野"},
{"zip_code":"6148292","kana_pref":"ｷｮｳﾄﾌ","kana_city":"ﾔﾜﾀｼ","kana_address":"ﾏﾂｲｶﾀﾉｶﾞﾊﾗ","pref":"京都府","city":"八幡市","address":"松井交野ケ原"},
{"zip_code":"6148293","kana_pref":"ｷｮｳﾄﾌ","kana_city":"ﾔﾜﾀｼ","kana_address":"ﾏﾂｲﾃﾐｽﾞｶﾞﾀﾞﾆ","pref":"京都府","city":"八幡市","address":"松井手水ケ谷"},
{"zip_code":"6148291","kana_pref":"ｷｮｳﾄﾌ","kana_city":"ﾔﾜﾀｼ","kana_address":"ﾏﾂｲﾄｶﾞﾀﾞﾆ","pref":"京都府","city":"八幡市","address":"松井栂谷"},
{"zip_code":"6148289","kana_pref":"ｷｮｳﾄﾌ","kana_city":"ﾔﾜﾀｼ","kana_address":"ﾐﾉﾔﾏｲﾁﾉﾀﾆ","pref":"京都府","city":"八幡市","address":"美濃山一ノ谷"},
{"zip_code":"6148273","kana_pref":"ｷｮｳﾄﾌ","kana_city":"ﾔﾜﾀｼ","kana_address":"ﾐﾉﾔﾏｲﾉﾓﾄ","pref":"京都府","city":"八幡市","address":"美濃山井ノ元"},
{"zip_code":"6148284","kana_pref":"ｷｮｳﾄﾌ","kana_city":"ﾔﾜﾀｼ","kana_address":"ﾐﾉﾔﾏｳﾏｶﾞｾ","pref":"京都府","city":"八幡市","address":"美濃山馬ケ背"},
{"zip_code":"6148282","kana_pref":"ｷｮｳﾄﾌ","kana_city":"ﾔﾜﾀｼ","kana_address":"ﾐﾉﾔﾏｵｵﾂｶ","pref":"京都府","city":"八幡市","address":"美濃山大塚"},
{"zip_code":"6148281","kana_pref":"ｷｮｳﾄﾌ","kana_city":"ﾔﾜﾀｼ","kana_address":"ﾐﾉﾔﾏｷﾂﾈﾀﾞﾆ","pref":"京都府","city":"八幡市","address":"美濃山狐谷"},
{"zip_code":"6148279","kana_pref":"ｷｮｳﾄﾌ","kana_city":"ﾔﾜﾀｼ","kana_address":"ﾐﾉﾔﾏｺｳｽｲ","pref":"京都府","city":"八幡市","address":"美濃山幸水"},
{"zip_code":"6148286","kana_pref":"ｷｮｳﾄﾌ","kana_city":"ﾔﾜﾀｼ","kana_address":"ﾐﾉﾔﾏﾁﾊﾗﾀﾞﾆ","pref":"京都府","city":"八幡市","address":"美濃山千原谷"},
{"zip_code":"6148287","kana_pref":"ｷｮｳﾄﾌ","kana_city":"ﾔﾜﾀｼ","kana_address":"ﾐﾉﾔﾏﾃﾞｸﾞﾁ","pref":"京都府","city":"八幡市","address":"美濃山出口"},
{"zip_code":"6148288","kana_pref":"ｷｮｳﾄﾌ","kana_city":"ﾔﾜﾀｼ","kana_address":"ﾐﾉﾔﾏﾃﾞｼﾞﾏ","pref":"京都府","city":"八幡市","address":"美濃山出島"},
{"zip_code":"6148275","kana_pref":"ｷｮｳﾄﾌ","kana_city":"ﾔﾜﾀｼ","kana_address":"ﾐﾉﾔﾏﾅｶｵ","pref":"京都府","city":"八幡市","address":"美濃山中尾"},
{"zip_code":"6148278","kana_pref":"ｷｮｳﾄﾌ","kana_city":"ﾔﾜﾀｼ","kana_address":"ﾐﾉﾔﾏﾆｼﾉｸﾁ","pref":"京都府","city":"八幡市","address":"美濃山西ノ口"},
{"zip_code":"6148274","kana_pref":"ｷｮｳﾄﾌ","kana_city":"ﾔﾜﾀｼ","kana_address":"ﾐﾉﾔﾏﾉｶﾞﾐ","pref":"京都府","city":"八幡市","address":"美濃山野神"},
{"zip_code":"6148271","kana_pref":"ｷｮｳﾄﾌ","kana_city":"ﾔﾜﾀｼ","kana_address":"ﾐﾉﾔﾏﾋﾙﾂﾞｶ","pref":"京都府","city":"八幡市","address":"美濃山ヒル塚"},
{"zip_code":"6148283","kana_pref":"ｷｮｳﾄﾌ","kana_city":"ﾔﾜﾀｼ","kana_address":"ﾐﾉﾔﾏﾎｿﾀﾞﾆ","pref":"京都府","city":"八幡市","address":"美濃山細谷"},
{"zip_code":"6148277","kana_pref":"ｷｮｳﾄﾌ","kana_city":"ﾔﾜﾀｼ","kana_address":"ﾐﾉﾔﾏﾐﾔﾉｾ","pref":"京都府","city":"八幡市","address":"美濃山宮ノ背"},
{"zip_code":"6148276","kana_pref":"ｷｮｳﾄﾌ","kana_city":"ﾔﾜﾀｼ","kana_address":"ﾐﾉﾔﾏﾐﾔﾐﾁ","pref":"京都府","city":"八幡市","address":"美濃山宮道"},
{"zip_code":"6148272","kana_pref":"ｷｮｳﾄﾌ","kana_city":"ﾔﾜﾀｼ","kana_address":"ﾐﾉﾔﾏﾐﾕｷ","pref":"京都府","city":"八幡市","address":"美濃山御幸"},
{"zip_code":"6148285","kana_pref":"ｷｮｳﾄﾌ","kana_city":"ﾔﾜﾀｼ","kana_address":"ﾐﾉﾔﾏﾐﾕｷﾀﾞﾆ","pref":"京都府","city":"八幡市","address":"美濃山御幸谷"},
{"zip_code":"6148057","kana_pref":"ｷｮｳﾄﾌ","kana_city":"ﾔﾜﾀｼ","kana_address":"ﾔﾜﾀｱﾝｺﾞﾂﾞｶ","pref":"京都府","city":"八幡市","address":"八幡安居塚"},
{"zip_code":"6148301","kana_pref":"ｷｮｳﾄﾌ","kana_city":"ﾔﾜﾀｼ","kana_address":"ﾔﾜﾀｲｹﾉｸﾋﾞ","pref":"京都府","city":"八幡市","address":"八幡池ノ首"},
{"zip_code":"6148088","kana_pref":"ｷｮｳﾄﾌ","kana_city":"ﾔﾜﾀｼ","kana_address":"ﾔﾜﾀｲｼﾌﾄﾞｳ","pref":"京都府","city":"八幡市","address":"八幡石不動"},
{"zip_code":"6148043","kana_pref":"ｷｮｳﾄﾌ","kana_city":"ﾔﾜﾀｼ","kana_address":"ﾔﾜﾀｲﾁﾉﾂﾎﾞ","pref":"京都府","city":"八幡市","address":"八幡一ノ坪"},
{"zip_code":"6148084","kana_pref":"ｷｮｳﾄﾌ","kana_city":"ﾔﾜﾀｼ","kana_address":"ﾔﾜﾀｲﾏﾀﾞ","pref":"京都府","city":"八幡市","address":"八幡今田"},
{"zip_code":"6148076","kana_pref":"ｷｮｳﾄﾌ","kana_city":"ﾔﾜﾀｼ","kana_address":"ﾔﾜﾀｳｴﾏﾂ","pref":"京都府","city":"八幡市","address":"八幡植松"},
{"zip_code":"6148066","kana_pref":"ｷｮｳﾄﾌ","kana_city":"ﾔﾜﾀｼ","kana_address":"ﾔﾜﾀｵｵｼﾊﾞ","pref":"京都府","city":"八幡市","address":"八幡大芝"},
{"zip_code":"6148006","kana_pref":"ｷｮｳﾄﾌ","kana_city":"ﾔﾜﾀｼ","kana_address":"ﾔﾜﾀｵｵﾀﾆ","pref":"京都府","city":"八幡市","address":"八幡大谷"},
{"zip_code":"6148072","kana_pref":"ｷｮｳﾄﾌ","kana_city":"ﾔﾜﾀｼ","kana_address":"ﾔﾜﾀｵｻﾀﾞ","pref":"京都府","city":"八幡市","address":"八幡長田"},
{"zip_code":"6148077","kana_pref":"ｷｮｳﾄﾌ","kana_city":"ﾔﾜﾀｼ","kana_address":"ﾔﾜﾀｵﾐﾅｴｼ","pref":"京都府","city":"八幡市","address":"八幡女郎花"},
{"zip_code":"6148011","kana_pref":"ｷｮｳﾄﾌ","kana_city":"ﾔﾜﾀｼ","kana_address":"ﾔﾜﾀｶｲﾄﾔﾏ","pref":"京都府","city":"八幡市","address":"八幡垣内山"},
{"zip_code":"6148302","kana_pref":"ｷｮｳﾄﾌ","kana_city":"ﾔﾜﾀｼ","kana_address":"ﾔﾜﾀｶｲﾄﾘ","pref":"京都府","city":"八幡市","address":"八幡カイトリ"},
{"zip_code":"6148055","kana_pref":"ｷｮｳﾄﾌ","kana_city":"ﾔﾜﾀｼ","kana_address":"ﾔﾜﾀｶｷｶﾞﾀﾞﾆ","pref":"京都府","city":"八幡市","address":"八幡柿ケ谷"},
{"zip_code":"6148036","kana_pref":"ｷｮｳﾄﾌ","kana_city":"ﾔﾜﾀｼ","kana_address":"ﾔﾜﾀｶｷﾉｷｶﾞｲﾄ","pref":"京都府","city":"八幡市","address":"八幡柿木垣内"},
{"zip_code":"6148087","kana_pref":"ｷｮｳﾄﾌ","kana_city":"ﾔﾜﾀｼ","kana_address":"ﾔﾜﾀｶﾐﾊﾗ","pref":"京都府","city":"八幡市","address":"八幡神原"},
{"zip_code":"6148086","kana_pref":"ｷｮｳﾄﾌ","kana_city":"ﾔﾜﾀｼ","kana_address":"ﾔﾜﾀｶﾜﾗｻﾞｷ","pref":"京都府","city":"八幡市","address":"八幡河原崎"},
{"zip_code":"6148063","kana_pref":"ｷｮｳﾄﾌ","kana_city":"ﾔﾜﾀｼ","kana_address":"ﾔﾜﾀｷｼﾓﾄ","pref":"京都府","city":"八幡市","address":"八幡岸本"},
{"zip_code":"6148014","kana_pref":"ｷｮｳﾄﾌ","kana_city":"ﾔﾜﾀｼ","kana_address":"ﾔﾜﾀｷﾀｳﾗ","pref":"京都府","city":"八幡市","address":"八幡北浦"},
{"zip_code":"6148095","kana_pref":"ｷｮｳﾄﾌ","kana_city":"ﾔﾜﾀｼ","kana_address":"ﾔﾜﾀｸﾂﾃﾞﾝ","pref":"京都府","city":"八幡市","address":"八幡沓田"},
{"zip_code":"6148045","kana_pref":"ｷｮｳﾄﾌ","kana_city":"ﾔﾜﾀｼ","kana_address":"ﾔﾜﾀｸﾎﾞﾀ","pref":"京都府","city":"八幡市","address":"八幡久保田"},
{"zip_code":"6148025","kana_pref":"ｷｮｳﾄﾌ","kana_city":"ﾔﾜﾀｼ","kana_address":"ﾔﾜﾀｹﾞﾝｼﾞｶﾞｲﾄ","pref":"京都府","city":"八幡市","address":"八幡源氏垣外"},
{"zip_code":"6148304","kana_pref":"ｷｮｳﾄﾌ","kana_city":"ﾔﾜﾀｼ","kana_address":"ﾔﾜﾀｹﾞﾝﾉ","pref":"京都府","city":"八幡市","address":"八幡源野"},
{"zip_code":"6148044","kana_pref":"ｷｮｳﾄﾌ","kana_city":"ﾔﾜﾀｼ","kana_address":"ﾔﾜﾀｺﾞｺｳﾀﾞﾆ","pref":"京都府","city":"八幡市","address":"八幡御幸谷"},
{"zip_code":"6148071","kana_pref":"ｷｮｳﾄﾌ","kana_city":"ﾔﾜﾀｼ","kana_address":"ﾔﾜﾀｺﾞﾀﾝﾀﾞ","pref":"京都府","city":"八幡市","address":"八幡五反田"},
{"zip_code":"6148031","kana_pref":"ｷｮｳﾄﾌ","kana_city":"ﾔﾜﾀｼ","kana_address":"ﾔﾜﾀｺﾆｼ","pref":"京都府","city":"八幡市","address":"八幡小西"},
{"zip_code":"6148081","kana_pref":"ｷｮｳﾄﾌ","kana_city":"ﾔﾜﾀｼ","kana_address":"ﾔﾜﾀｺﾞﾊﾞｼｮ","pref":"京都府","city":"八幡市","address":"八幡御馬所"},
{"zip_code":"6148035","kana_pref":"ｷｮｳﾄﾌ","kana_city":"ﾔﾜﾀｼ","kana_address":"ﾔﾜﾀｺﾏﾂ","pref":"京都府","city":"八幡市","address":"八幡小松"},
{"zip_code":"6148303","kana_pref":"ｷｮｳﾄﾌ","kana_city":"ﾔﾜﾀｼ","kana_address":"ﾔﾜﾀｺﾓｲｹ","pref":"京都府","city":"八幡市","address":"八幡菰池"},
{"zip_code":"6148307","kana_pref":"ｷｮｳﾄﾌ","kana_city":"ﾔﾜﾀｼ","kana_address":"ﾔﾜﾀｻﾞｲｵｳｼﾞ","pref":"京都府","city":"八幡市","address":"八幡在応寺"},
{"zip_code":"6148042","kana_pref":"ｷｮｳﾄﾌ","kana_city":"ﾔﾜﾀｼ","kana_address":"ﾔﾜﾀｻｶﾝﾄﾞ","pref":"京都府","city":"八幡市","address":"八幡盛戸"},
{"zip_code":"6148046","kana_pref":"ｷｮｳﾄﾌ","kana_city":"ﾔﾜﾀｼ","kana_address":"ﾔﾜﾀｻﾃﾞﾝ","pref":"京都府","city":"八幡市","address":"八幡砂田"},
{"zip_code":"6148306","kana_pref":"ｷｮｳﾄﾌ","kana_city":"ﾔﾜﾀｼ","kana_address":"ﾔﾜﾀｻﾜ","pref":"京都府","city":"八幡市","address":"八幡沢"},
{"zip_code":"6148075","kana_pref":"ｷｮｳﾄﾌ","kana_city":"ﾔﾜﾀｼ","kana_address":"ﾔﾜﾀｻﾝﾀﾞｵｻ","pref":"京都府","city":"八幡市","address":"八幡三反長"},
{"zip_code":"6148096","kana_pref":"ｷｮｳﾄﾌ","kana_city":"ﾔﾜﾀｼ","kana_address":"ﾔﾜﾀｻﾝﾉｺｳ","pref":"京都府","city":"八幡市","address":"八幡三ノ甲"},
{"zip_code":"6148093","kana_pref":"ｷｮｳﾄﾌ","kana_city":"ﾔﾜﾀｼ","kana_address":"ﾔﾜﾀｻﾝﾎﾞﾝﾊﾞｼ","pref":"京都府","city":"八幡市","address":"八幡三本橋"},
{"zip_code":"6148061","kana_pref":"ｷｮｳﾄﾌ","kana_city":"ﾔﾜﾀｼ","kana_address":"ﾔﾜﾀｼｷﾌﾞﾀﾞﾆ","pref":"京都府","city":"八幡市","address":"八幡式部谷"},
{"zip_code":"6148073","kana_pref":"ｷｮｳﾄﾌ","kana_city":"ﾔﾜﾀｼ","kana_address":"ﾔﾜﾀｼﾞｸ","pref":"京都府","city":"八幡市","address":"八幡軸"},
{"zip_code":"6148001","kana_pref":"ｷｮｳﾄﾌ","kana_city":"ﾔﾜﾀｼ","kana_address":"ﾔﾜﾀｼﾅﾃﾞ","pref":"京都府","city":"八幡市","address":"八幡科手"},
{"zip_code":"6148017","kana_pref":"ｷｮｳﾄﾌ","kana_city":"ﾔﾜﾀｼ","kana_address":"ﾔﾜﾀｼﾊﾞｻﾞ","pref":"京都府","city":"八幡市","address":"八幡柴座"},
{"zip_code":"6148062","kana_pref":"ｷｮｳﾄﾌ","kana_city":"ﾔﾜﾀｼ","kana_address":"ﾔﾜﾀｼﾐｽﾞｲ","pref":"京都府","city":"八幡市","address":"八幡清水井"},
{"zip_code":"6148092","kana_pref":"ｷｮｳﾄﾌ","kana_city":"ﾔﾜﾀｼ","kana_address":"ﾔﾜﾀｼﾞｮｳﾉｳﾁ","pref":"京都府","city":"八幡市","address":"八幡城ノ内"},
{"zip_code":"6148082","kana_pref":"ｷｮｳﾄﾌ","kana_city":"ﾔﾜﾀｼ","kana_address":"ﾔﾜﾀｼｮｳﾌﾞｲｹ","pref":"京都府","city":"八幡市","address":"八幡菖蒲池"},
{"zip_code":"6148053","kana_pref":"ｷｮｳﾄﾌ","kana_city":"ﾔﾜﾀｼ","kana_address":"ﾔﾜﾀｽｲﾊｸ","pref":"京都府","city":"八幡市","address":"八幡水珀"},
{"zip_code":"6148068","kana_pref":"ｷｮｳﾄﾌ","kana_city":"ﾔﾜﾀｼ","kana_address":"ﾔﾜﾀｽﾐﾀﾞｸﾞﾁ","pref":"京都府","city":"八幡市","address":"八幡隅田口"},
{"zip_code":"6148003","kana_pref":"ｷｮｳﾄﾌ","kana_city":"ﾔﾜﾀｼ","kana_address":"ﾔﾜﾀｾﾝｿﾞｸ","pref":"京都府","city":"八幡市","address":"八幡千束"},
{"zip_code":"6148024","kana_pref":"ｷｮｳﾄﾌ","kana_city":"ﾔﾜﾀｼ","kana_address":"ﾔﾜﾀｿｸﾞﾘ","pref":"京都府","city":"八幡市","address":"八幡双栗"},
{"zip_code":"6148038","kana_pref":"ｷｮｳﾄﾌ","kana_city":"ﾔﾜﾀｼ","kana_address":"ﾔﾜﾀｿﾉｳﾁ","pref":"京都府","city":"八幡市","address":"八幡園内"},
{"zip_code":"6148037","kana_pref":"ｷｮｳﾄﾌ","kana_city":"ﾔﾜﾀｼ","kana_address":"ﾔﾜﾀﾀｶﾊﾞﾀｹ","pref":"京都府","city":"八幡市","address":"八幡高畑"},
{"zip_code":"6148005","kana_pref":"ｷｮｳﾄﾌ","kana_city":"ﾔﾜﾀｼ","kana_address":"ﾔﾜﾀﾀｶﾎﾞｳ","pref":"京都府","city":"八幡市","address":"八幡高坊"},
{"zip_code":"6148015","kana_pref":"ｷｮｳﾄﾌ","kana_city":"ﾔﾜﾀｼ","kana_address":"ﾔﾜﾀﾀﾞﾝｼﾞｮ","pref":"京都府","city":"八幡市","address":"八幡旦所"},
{"zip_code":"6148047","kana_pref":"ｷｮｳﾄﾌ","kana_city":"ﾔﾜﾀｼ","kana_address":"ﾔﾜﾀﾂｷﾖﾀﾞ","pref":"京都府","city":"八幡市","address":"八幡月夜田"},
{"zip_code":"6148002","kana_pref":"ｷｮｳﾄﾌ","kana_city":"ﾔﾜﾀｼ","kana_address":"ﾔﾜﾀﾄﾞｲ","pref":"京都府","city":"八幡市","address":"八幡土井"},
{"zip_code":"6148079","kana_pref":"ｷｮｳﾄﾌ","kana_city":"ﾔﾜﾀｼ","kana_address":"ﾔﾜﾀﾄｳﾘﾝ","pref":"京都府","city":"八幡市","address":"八幡東林"},
{"zip_code":"6148039","kana_pref":"ｷｮｳﾄﾌ","kana_city":"ﾔﾜﾀｼ","kana_address":"ﾔﾜﾀﾅｴﾀﾞ","pref":"京都府","city":"八幡市","address":"八幡苗田"},
{"zip_code":"6148058","kana_pref":"ｷｮｳﾄﾌ","kana_city":"ﾔﾜﾀｼ","kana_address":"ﾔﾜﾀﾅｶﾞﾀﾆ","pref":"京都府","city":"八幡市","address":"八幡長谷"},
{"zip_code":"6148067","kana_pref":"ｷｮｳﾄﾌ","kana_city":"ﾔﾜﾀｼ","kana_address":"ﾔﾜﾀﾅｶﾉﾔﾏ","pref":"京都府","city":"八幡市","address":"八幡中ノ山"},
{"zip_code":"6148023","kana_pref":"ｷｮｳﾄﾌ","kana_city":"ﾔﾜﾀｼ","kana_address":"ﾔﾜﾀﾅｺﾞﾘ","pref":"京都府","city":"八幡市","address":"八幡名残"},
{"zip_code":"6148033","kana_pref":"ｷｮｳﾄﾌ","kana_city":"ﾔﾜﾀｼ","kana_address":"ﾔﾜﾀﾆｼｼﾞﾏ","pref":"京都府","city":"八幡市","address":"八幡西島"},
{"zip_code":"6148007","kana_pref":"ｷｮｳﾄﾌ","kana_city":"ﾔﾜﾀｼ","kana_address":"ﾔﾜﾀﾆｼﾀｶﾎﾞｳ","pref":"京都府","city":"八幡市","address":"八幡西高坊"},
{"zip_code":"6148085","kana_pref":"ｷｮｳﾄﾌ","kana_city":"ﾔﾜﾀｼ","kana_address":"ﾔﾜﾀﾊﾞﾊﾞ","pref":"京都府","city":"八幡市","address":"八幡馬場"},
{"zip_code":"6148032","kana_pref":"ｷｮｳﾄﾌ","kana_city":"ﾔﾜﾀｼ","kana_address":"ﾔﾜﾀﾊﾞﾝｶﾞ","pref":"京都府","city":"八幡市","address":"八幡番賀"},
{"zip_code":"6148022","kana_pref":"ｷｮｳﾄﾌ","kana_city":"ﾔﾜﾀｼ","kana_address":"ﾔﾜﾀﾋｶﾞｼｳﾗ","pref":"京都府","city":"八幡市","address":"八幡東浦"},
{"zip_code":"6148030","kana_pref":"ｷｮｳﾄﾌ","kana_city":"ﾔﾜﾀｼ","kana_address":"ﾔﾜﾀﾋｶﾞｼｼﾞﾏ","pref":"京都府","city":"八幡市","address":"八幡東島"},
{"zip_code":"6148048","kana_pref":"ｷｮｳﾄﾌ","kana_city":"ﾔﾜﾀｼ","kana_address":"ﾔﾜﾀﾋﾞｾﾞﾝ","pref":"京都府","city":"八幡市","address":"八幡備前"},
{"zip_code":"6148091","kana_pref":"ｷｮｳﾄﾌ","kana_city":"ﾔﾜﾀｼ","kana_address":"ﾔﾜﾀﾋﾞｮｳﾀﾞﾆ","pref":"京都府","city":"八幡市","address":"八幡平谷"},
{"zip_code":"6148094","kana_pref":"ｷｮｳﾄﾌ","kana_city":"ﾔﾜﾀｼ","kana_address":"ﾔﾜﾀﾋﾗﾀ","pref":"京都府","city":"八幡市","address":"八幡平田"},
{"zip_code":"6148008","kana_pref":"ｷｮｳﾄﾌ","kana_city":"ﾔﾜﾀｼ","kana_address":"ﾔﾜﾀﾋﾗﾉﾔﾏ","pref":"京都府","city":"八幡市","address":"八幡平ノ山"},
{"zip_code":"6148078","kana_pref":"ｷｮｳﾄﾌ","kana_city":"ﾔﾜﾀｼ","kana_address":"ﾔﾜﾀﾋﾛｶﾄﾞ","pref":"京都府","city":"八幡市","address":"八幡広門"},
{"zip_code":"6148056","kana_pref":"ｷｮｳﾄﾌ","kana_city":"ﾔﾜﾀｼ","kana_address":"ﾔﾜﾀﾌｸﾛｸﾀﾞﾆ","pref":"京都府","city":"八幡市","address":"八幡福禄谷"},
{"zip_code":"6148034","kana_pref":"ｷｮｳﾄﾌ","kana_city":"ﾔﾜﾀｼ","kana_address":"ﾔﾜﾀﾌﾞﾀｲ","pref":"京都府","city":"八幡市","address":"八幡舞台"},
{"zip_code":"6148064","kana_pref":"ｷｮｳﾄﾌ","kana_city":"ﾔﾜﾀｼ","kana_address":"ﾔﾜﾀﾏﾂﾊﾞﾗ","pref":"京都府","city":"八幡市","address":"八幡松原"},
{"zip_code":"6148054","kana_pref":"ｷｮｳﾄﾌ","kana_city":"ﾔﾜﾀｼ","kana_address":"ﾔﾜﾀﾐﾅﾐﾔﾏ","pref":"京都府","city":"八幡市","address":"八幡南山"},
{"zip_code":"6148052","kana_pref":"ｷｮｳﾄﾌ","kana_city":"ﾔﾜﾀｼ","kana_address":"ﾔﾜﾀﾑｻｼｼﾊﾞ","pref":"京都府","city":"八幡市","address":"八幡武蔵芝"},
{"zip_code":"6148026","kana_pref":"ｷｮｳﾄﾌ","kana_city":"ﾔﾜﾀｼ","kana_address":"ﾔﾜﾀﾓﾘ","pref":"京都府","city":"八幡市","address":"八幡森"},
{"zip_code":"6148021","kana_pref":"ｷｮｳﾄﾌ","kana_city":"ﾔﾜﾀｼ","kana_address":"ﾔﾜﾀﾓﾘｶﾞｲﾄ","pref":"京都府","city":"八幡市","address":"八幡森垣内"},
{"zip_code":"6148305","kana_pref":"ｷｮｳﾄﾌ","kana_city":"ﾔﾜﾀｼ","kana_address":"ﾔﾜﾀﾔｹｷﾞ","pref":"京都府","city":"八幡市","address":"八幡焼木"},
{"zip_code":"6148308","kana_pref":"ｷｮｳﾄﾌ","kana_city":"ﾔﾜﾀｼ","kana_address":"ﾔﾜﾀﾔﾊｷﾞ","pref":"京都府","city":"八幡市","address":"八幡八萩"},
{"zip_code":"6148016","kana_pref":"ｷｮｳﾄﾌ","kana_city":"ﾔﾜﾀｼ","kana_address":"ﾔﾜﾀﾔﾏｼﾞ","pref":"京都府","city":"八幡市","address":"八幡山路"},
{"zip_code":"6148065","kana_pref":"ｷｮｳﾄﾌ","kana_city":"ﾔﾜﾀｼ","kana_address":"ﾔﾜﾀﾔﾏｼﾀ","pref":"京都府","city":"八幡市","address":"八幡山下"},
{"zip_code":"6148004","kana_pref":"ｷｮｳﾄﾌ","kana_city":"ﾔﾜﾀｼ","kana_address":"ﾔﾜﾀﾔﾏｼﾊﾞ","pref":"京都府","city":"八幡市","address":"八幡山柴"},
{"zip_code":"6148051","kana_pref":"ｷｮｳﾄﾌ","kana_city":"ﾔﾜﾀｼ","kana_address":"ﾔﾜﾀﾔﾏﾀﾞ","pref":"京都府","city":"八幡市","address":"八幡山田"},
{"zip_code":"6148083","kana_pref":"ｷｮｳﾄﾌ","kana_city":"ﾔﾜﾀｼ","kana_address":"ﾔﾜﾀﾔﾏﾓﾄ","pref":"京都府","city":"八幡市","address":"八幡山本"},
{"zip_code":"6148012","kana_pref":"ｷｮｳﾄﾌ","kana_city":"ﾔﾜﾀｼ","kana_address":"ﾔﾜﾀﾖｼﾉ","pref":"京都府","city":"八幡市","address":"八幡吉野"},
{"zip_code":"6148013","kana_pref":"ｷｮｳﾄﾌ","kana_city":"ﾔﾜﾀｼ","kana_address":"ﾔﾜﾀﾖｼﾉｶﾞｲﾄ","pref":"京都府","city":"八幡市","address":"八幡吉野垣内"},
{"zip_code":"6148041","kana_pref":"ｷｮｳﾄﾌ","kana_city":"ﾔﾜﾀｼ","kana_address":"ﾔﾜﾀﾖｼﾊﾗ","pref":"京都府","city":"八幡市","address":"八幡吉原"},
{"zip_code":"6148074","kana_pref":"ｷｮｳﾄﾌ","kana_city":"ﾔﾜﾀｼ","kana_address":"ﾔﾜﾀﾜﾀﾙｾ","pref":"京都府","city":"八幡市","address":"八幡渡ル瀬"}]}