{"zip_code":[
{"zip_code":"6150905","kana_pref":"ｷｮｳﾄﾌ","kana_city":"ｷｮｳﾄｼｳｷｮｳｸ","kana_address":"ｳﾒﾂﾞｲｼﾅﾀﾞﾁｮｳ","pref":"京都府","city":"京都市右京区","address":"梅津石灘町"},
{"zip_code":"6150932","kana_pref":"ｷｮｳﾄﾌ","kana_city":"ｷｮｳﾄｼｳｷｮｳｸ","kana_address":"ｳﾒﾂﾞｳｴﾀﾞﾁｮｳ","pref":"京都府","city":"京都市右京区","address":"梅津上田町"},
{"zip_code":"6150925","kana_pref":"ｷｮｳﾄﾌ","kana_city":"ｷｮｳﾄｼｳｷｮｳｸ","kana_address":"ｳﾒﾂﾞｵｵﾅﾜﾊﾞﾁｮｳ","pref":"京都府","city":"京都市右京区","address":"梅津大縄場町"},
{"zip_code":"6150912","kana_pref":"ｷｮｳﾄﾌ","kana_city":"ｷｮｳﾄｼｳｷｮｳｸ","kana_address":"ｳﾒﾂﾞｶﾏｴｸﾞﾁﾁｮｳ","pref":"京都府","city":"京都市右京区","address":"梅津構口町"},
{"zip_code":"6150902","kana_pref":"ｷｮｳﾄﾌ","kana_city":"ｷｮｳﾄｼｳｷｮｳｸ","kana_address":"ｳﾒﾂﾞｶﾝﾀﾞﾁｮｳ","pref":"京都府","city":"京都市右京区","address":"梅津神田町"},
{"zip_code":"6150934","kana_pref":"ｷｮｳﾄﾌ","kana_city":"ｷｮｳﾄｼｳｷｮｳｸ","kana_address":"ｳﾒﾂﾞｷﾀｳﾗﾁｮｳ","pref":"京都府","city":"京都市右京区","address":"梅津北浦町"},
{"zip_code":"6150937","kana_pref":"ｷｮｳﾄﾌ","kana_city":"ｷｮｳﾄｼｳｷｮｳｸ","kana_address":"ｳﾒﾂﾞｷﾀｶﾞﾜﾁｮｳ","pref":"京都府","city":"京都市右京区","address":"梅津北川町"},
{"zip_code":"6150911","kana_pref":"ｷｮｳﾄﾌ","kana_city":"ｷｮｳﾄｼｳｷｮｳｸ","kana_address":"ｳﾒﾂﾞｷﾀﾏﾁ","pref":"京都府","city":"京都市右京区","address":"梅津北町"},
{"zip_code":"6150933","kana_pref":"ｷｮｳﾄﾌ","kana_city":"ｷｮｳﾄｼｳｷｮｳｸ","kana_address":"ｳﾒﾂﾞｺﾞﾄｳﾁｮｳ","pref":"京都府","city":"京都市右京区","address":"梅津後藤町"},
{"zip_code":"6150938","kana_pref":"ｷｮｳﾄﾌ","kana_city":"ｷｮｳﾄｼｳｷｮｳｸ","kana_address":"ｳﾒﾂﾞｻｶﾓﾄﾁｮｳ","pref":"京都府","city":"京都市右京区","address":"梅津坂本町"},
{"zip_code":"6150924","kana_pref":"ｷｮｳﾄﾌ","kana_city":"ｷｮｳﾄｼｳｷｮｳｸ","kana_address":"ｳﾒﾂﾞｼﾘﾐｿﾞﾁｮｳ","pref":"京都府","city":"京都市右京区","address":"梅津尻溝町"},
{"zip_code":"6150906","kana_pref":"ｷｮｳﾄﾌ","kana_city":"ｷｮｳﾄｼｳｷｮｳｸ","kana_address":"ｳﾒﾂﾞﾀｶｾﾞﾁｮｳ","pref":"京都府","city":"京都市右京区","address":"梅津高畝町"},
{"zip_code":"6150907","kana_pref":"ｷｮｳﾄﾌ","kana_city":"ｷｮｳﾄｼｳｷｮｳｸ","kana_address":"ｳﾒﾂﾞﾀﾞﾝﾏﾁ","pref":"京都府","city":"京都市右京区","address":"梅津段町"},
{"zip_code":"6150904","kana_pref":"ｷｮｳﾄﾌ","kana_city":"ｷｮｳﾄｼｳｷｮｳｸ","kana_address":"ｳﾒﾂﾞﾂﾂﾐｶﾐﾁｮｳ","pref":"京都府","city":"京都市右京区","address":"梅津堤上町"},
{"zip_code":"6150903","kana_pref":"ｷｮｳﾄﾌ","kana_city":"ｷｮｳﾄｼｳｷｮｳｸ","kana_address":"ｳﾒﾂﾞﾂﾂﾐｼﾀﾁｮｳ","pref":"京都府","city":"京都市右京区","address":"梅津堤下町"},
{"zip_code":"6150935","kana_pref":"ｷｮｳﾄﾌ","kana_city":"ｷｮｳﾄｼｳｷｮｳｸ","kana_address":"ｳﾒﾂﾞﾄｸﾏﾙﾁｮｳ","pref":"京都府","city":"京都市右京区","address":"梅津徳丸町"},
{"zip_code":"6150923","kana_pref":"ｷｮｳﾄﾌ","kana_city":"ｷｮｳﾄｼｳｷｮｳｸ","kana_address":"ｳﾒﾂﾞﾅｶｸﾗﾁｮｳ","pref":"京都府","city":"京都市右京区","address":"梅津中倉町"},
{"zip_code":"6150916","kana_pref":"ｷｮｳﾄﾌ","kana_city":"ｷｮｳﾄｼｳｷｮｳｸ","kana_address":"ｳﾒﾂﾞﾅｶﾑﾗﾁｮｳ","pref":"京都府","city":"京都市右京区","address":"梅津中村町"},
{"zip_code":"6150917","kana_pref":"ｷｮｳﾄﾌ","kana_city":"ｷｮｳﾄｼｳｷｮｳｸ","kana_address":"ｳﾒﾂﾞﾆｼｳﾗﾁｮｳ","pref":"京都府","city":"京都市右京区","address":"梅津西浦町"},
{"zip_code":"6150936","kana_pref":"ｷｮｳﾄﾌ","kana_city":"ｷｮｳﾄｼｳｷｮｳｸ","kana_address":"ｳﾒﾂﾞﾊﾔｼｸﾁﾁｮｳ","pref":"京都府","city":"京都市右京区","address":"梅津林口町"},
{"zip_code":"6150914","kana_pref":"ｷｮｳﾄﾌ","kana_city":"ｷｮｳﾄｼｳｷｮｳｸ","kana_address":"ｳﾒﾂﾞﾋｶﾞｼｶﾏｴｸﾞﾁﾁｮｳ","pref":"京都府","city":"京都市右京区","address":"梅津東構口町"},
{"zip_code":"6150931","kana_pref":"ｷｮｳﾄﾌ","kana_city":"ｷｮｳﾄｼｳｷｮｳｸ","kana_address":"ｳﾒﾂﾞﾋﾗｷﾁｮｳ","pref":"京都府","city":"京都市右京区","address":"梅津開キ町"},
{"zip_code":"6150921","kana_pref":"ｷｮｳﾄﾌ","kana_city":"ｷｮｳﾄｼｳｷｮｳｸ","kana_address":"ｳﾒﾂﾞﾌｹﾉｶﾜﾁｮｳ","pref":"京都府","city":"京都市右京区","address":"梅津フケノ川町"},
{"zip_code":"6150926","kana_pref":"ｷｮｳﾄﾌ","kana_city":"ｷｮｳﾄｼｳｷｮｳｸ","kana_address":"ｳﾒﾂﾞﾌｼﾊﾗﾁｮｳ","pref":"京都府","city":"京都市右京区","address":"梅津罧原町"},
{"zip_code":"6150922","kana_pref":"ｷｮｳﾄﾌ","kana_city":"ｷｮｳﾄｼｳｷｮｳｸ","kana_address":"ｳﾒﾂﾞﾏｴﾀﾞﾁｮｳ","pref":"京都府","city":"京都市右京区","address":"梅津前田町"},
{"zip_code":"6150913","kana_pref":"ｷｮｳﾄﾌ","kana_city":"ｷｮｳﾄｼｳｷｮｳｸ","kana_address":"ｳﾒﾂﾞﾐﾅﾐｳｴﾀﾞﾁｮｳ","pref":"京都府","city":"京都市右京区","address":"梅津南上田町"},
{"zip_code":"6150901","kana_pref":"ｷｮｳﾄﾌ","kana_city":"ｷｮｳﾄｼｳｷｮｳｸ","kana_address":"ｳﾒﾂﾞﾐﾅﾐﾋﾛﾁｮｳ","pref":"京都府","city":"京都市右京区","address":"梅津南広町"},
{"zip_code":"6150915","kana_pref":"ｷｮｳﾄﾌ","kana_city":"ｷｮｳﾄｼｳｷｮｳｸ","kana_address":"ｳﾒﾂﾞﾐﾅﾐﾏﾁ","pref":"京都府","city":"京都市右京区","address":"梅津南町"},
{"zip_code":"6150061","kana_pref":"ｷｮｳﾄﾌ","kana_city":"ｷｮｳﾄｼｳｷｮｳｸ","kana_address":"ｻｲｲﾝｲﾇｲﾁｮｳ","pref":"京都府","city":"京都市右京区","address":"西院乾町"},
{"zip_code":"6150035","kana_pref":"ｷｮｳﾄﾌ","kana_city":"ｷｮｳﾄｼｳｷｮｳｸ","kana_address":"ｻｲｲﾝｵｲﾜｹﾁｮｳ","pref":"京都府","city":"京都市右京区","address":"西院追分町"},
{"zip_code":"6150036","kana_pref":"ｷｮｳﾄﾌ","kana_city":"ｷｮｳﾄｼｳｷｮｳｸ","kana_address":"ｻｲｲﾝｵｵﾀﾁｮｳ","pref":"京都府","city":"京都市右京区","address":"西院太田町"},
{"zip_code":"6150058","kana_pref":"ｷｮｳﾄﾌ","kana_city":"ｷｮｳﾄｼｳｷｮｳｸ","kana_address":"ｻｲｲﾝｶｻﾒﾁｮｳ","pref":"京都府","city":"京都市右京区","address":"西院笠目町"},
{"zip_code":"6150015","kana_pref":"ｷｮｳﾄﾌ","kana_city":"ｷｮｳﾄｼｳｷｮｳｸ","kana_address":"ｻｲｲﾝｶｽｶﾞﾁｮｳ","pref":"京都府","city":"京都市右京区","address":"西院春日町"},
{"zip_code":"6150006","kana_pref":"ｷｮｳﾄﾌ","kana_city":"ｷｮｳﾄｼｳｷｮｳｸ","kana_address":"ｻｲｲﾝｶﾅﾂﾞﾁﾁｮｳ","pref":"京都府","city":"京都市右京区","address":"西院金槌町"},
{"zip_code":"6150001","kana_pref":"ｷｮｳﾄﾌ","kana_city":"ｷｮｳﾄｼｳｷｮｳｸ","kana_address":"ｻｲｲﾝｶﾐｲﾏﾀﾞﾁｮｳ","pref":"京都府","city":"京都市右京区","address":"西院上今田町"},
{"zip_code":"6150007","kana_pref":"ｷｮｳﾄﾌ","kana_city":"ｷｮｳﾄｼｳｷｮｳｸ","kana_address":"ｻｲｲﾝｶﾐﾊﾅﾀﾞﾁｮｳ","pref":"京都府","city":"京都市右京区","address":"西院上花田町"},
{"zip_code":"6150063","kana_pref":"ｷｮｳﾄﾌ","kana_city":"ｷｮｳﾄｼｳｷｮｳｸ","kana_address":"ｻｲｲﾝｷﾀｲｺﾞﾘｮｳﾁｮｳ","pref":"京都府","city":"京都市右京区","address":"西院北井御料町"},
{"zip_code":"6150026","kana_pref":"ｷｮｳﾄﾌ","kana_city":"ｷｮｳﾄｼｳｷｮｳｸ","kana_address":"ｻｲｲﾝｷﾀﾔｶｹﾁｮｳ","pref":"京都府","city":"京都市右京区","address":"西院北矢掛町"},
{"zip_code":"6150064","kana_pref":"ｷｮｳﾄﾌ","kana_city":"ｷｮｳﾄｼｳｷｮｳｸ","kana_address":"ｻｲｲﾝｸﾃﾞﾝﾁｮｳ","pref":"京都府","city":"京都市右京区","address":"西院久田町"},
{"zip_code":"6150053","kana_pref":"ｷｮｳﾄﾌ","kana_city":"ｷｮｳﾄｼｳｷｮｳｸ","kana_address":"ｻｲｲﾝｸﾎﾞﾀﾁｮｳ","pref":"京都府","city":"京都市右京区","address":"西院久保田町"},
{"zip_code":"6150012","kana_pref":"ｷｮｳﾄﾌ","kana_city":"ｷｮｳﾄｼｳｷｮｳｸ","kana_address":"ｻｲｲﾝｺｳｻﾞﾝｼﾞﾁｮｳ","pref":"京都府","city":"京都市右京区","address":"西院高山寺町"},
{"zip_code":"6150067","kana_pref":"ｷｮｳﾄﾌ","kana_city":"ｷｮｳﾄｼｳｷｮｳｸ","kana_address":"ｻｲｲﾝｺｺﾞﾒﾁｮｳ","pref":"京都府","city":"京都市右京区","address":"西院小米町"},
{"zip_code":"6150033","kana_pref":"ｷｮｳﾄﾌ","kana_city":"ｷｮｳﾄｼｳｷｮｳｸ","kana_address":"ｻｲｲﾝｺﾄﾌﾞｷﾁｮｳ","pref":"京都府","city":"京都市右京区","address":"西院寿町"},
{"zip_code":"6150021","kana_pref":"ｷｮｳﾄﾌ","kana_city":"ｷｮｳﾄｼｳｷｮｳｸ","kana_address":"ｻｲｲﾝｻﾝｿﾞｳﾁｮｳ","pref":"京都府","city":"京都市右京区","address":"西院三蔵町"},
{"zip_code":"6150066","kana_pref":"ｷｮｳﾄﾌ","kana_city":"ｷｮｳﾄｼｳｷｮｳｸ","kana_address":"ｻｲｲﾝｼｼﾞｮｳﾊﾞﾀﾁｮｳ","pref":"京都府","city":"京都市右京区","address":"西院四条畑町"},
{"zip_code":"6150052","kana_pref":"ｷｮｳﾄﾌ","kana_city":"ｷｮｳﾄｼｳｷｮｳｸ","kana_address":"ｻｲｲﾝｼﾐｽﾞﾁｮｳ","pref":"京都府","city":"京都市右京区","address":"西院清水町"},
{"zip_code":"6150004","kana_pref":"ｷｮｳﾄﾌ","kana_city":"ｷｮｳﾄｼｳｷｮｳｸ","kana_address":"ｻｲｲﾝｼﾓﾊﾅﾀﾞﾁｮｳ","pref":"京都府","city":"京都市右京区","address":"西院下花田町"},
{"zip_code":"6150005","kana_pref":"ｷｮｳﾄﾌ","kana_city":"ｷｮｳﾄｼｳｷｮｳｸ","kana_address":"ｻｲｲﾝｼｭﾝｴｲﾁｮｳ","pref":"京都府","city":"京都市右京区","address":"西院春栄町"},
{"zip_code":"6150031","kana_pref":"ｷｮｳﾄﾌ","kana_city":"ｷｮｳﾄｼｳｷｮｳｸ","kana_address":"ｻｲｲﾝﾀｶﾀﾞﾁｮｳ","pref":"京都府","city":"京都市右京区","address":"西院高田町"},
{"zip_code":"6150014","kana_pref":"ｷｮｳﾄﾌ","kana_city":"ｷｮｳﾄｼｳｷｮｳｸ","kana_address":"ｻｲｲﾝﾀﾂﾐﾁｮｳ","pref":"京都府","city":"京都市右京区","address":"西院巽町"},
{"zip_code":"6150054","kana_pref":"ｷｮｳﾄﾌ","kana_city":"ｷｮｳﾄｼｳｷｮｳｸ","kana_address":"ｻｲｲﾝﾂｷｿｳﾁｮｳ","pref":"京都府","city":"京都市右京区","address":"西院月双町"},
{"zip_code":"6150043","kana_pref":"ｷｮｳﾄﾌ","kana_city":"ｷｮｳﾄｼｳｷｮｳｸ","kana_address":"ｻｲｲﾝﾅｶﾐｽﾞﾁｮｳ","pref":"京都府","city":"京都市右京区","address":"西院中水町"},
{"zip_code":"6150003","kana_pref":"ｷｮｳﾄﾌ","kana_city":"ｷｮｳﾄｼｳｷｮｳｸ","kana_address":"ｻｲｲﾝﾆｼｲﾏﾀﾞﾁｮｳ","pref":"京都府","city":"京都市右京区","address":"西院西今田町"},
{"zip_code":"6150056","kana_pref":"ｷｮｳﾄﾌ","kana_city":"ｷｮｳﾄｼｳｷｮｳｸ","kana_address":"ｻｲｲﾝﾆｼｶｲｶﾞﾜﾁｮｳ","pref":"京都府","city":"京都市右京区","address":"西院西貝川町"},
{"zip_code":"6150034","kana_pref":"ｷｮｳﾄﾌ","kana_city":"ｷｮｳﾄｼｳｷｮｳｸ","kana_address":"ｻｲｲﾝﾆｼｺﾄﾌﾞｷﾁｮｳ","pref":"京都府","city":"京都市右京区","address":"西院西寿町"},
{"zip_code":"6150027","kana_pref":"ｷｮｳﾄﾌ","kana_city":"ｷｮｳﾄｼｳｷｮｳｸ","kana_address":"ｻｲｲﾝﾆｼｻﾝｿﾞｳﾁｮｳ","pref":"京都府","city":"京都市右京区","address":"西院西三蔵町"},
{"zip_code":"6150016","kana_pref":"ｷｮｳﾄﾌ","kana_city":"ｷｮｳﾄｼｳｷｮｳｸ","kana_address":"ｻｲｲﾝﾆｼｼﾞｭﾝﾅｲﾝﾁｮｳ","pref":"京都府","city":"京都市右京区","address":"西院西淳和院町"},
{"zip_code":"6150032","kana_pref":"ｷｮｳﾄﾌ","kana_city":"ｷｮｳﾄｼｳｷｮｳｸ","kana_address":"ｻｲｲﾝﾆｼﾀｶﾀﾞﾁｮｳ","pref":"京都府","city":"京都市右京区","address":"西院西高田町"},
{"zip_code":"6150055","kana_pref":"ｷｮｳﾄﾌ","kana_city":"ｷｮｳﾄｼｳｷｮｳｸ","kana_address":"ｻｲｲﾝﾆｼﾀﾞﾁｮｳ","pref":"京都府","city":"京都市右京区","address":"西院西田町"},
{"zip_code":"6150044","kana_pref":"ｷｮｳﾄﾌ","kana_city":"ｷｮｳﾄｼｳｷｮｳｸ","kana_address":"ｻｲｲﾝﾆｼﾅｶﾐｽﾞﾁｮｳ","pref":"京都府","city":"京都市右京区","address":"西院西中水町"},
{"zip_code":"6150023","kana_pref":"ｷｮｳﾄﾌ","kana_city":"ｷｮｳﾄｼｳｷｮｳｸ","kana_address":"ｻｲｲﾝﾆｼﾋﾗﾏﾁ","pref":"京都府","city":"京都市右京区","address":"西院西平町"},
{"zip_code":"6150046","kana_pref":"ｷｮｳﾄﾌ","kana_city":"ｷｮｳﾄｼｳｷｮｳｸ","kana_address":"ｻｲｲﾝﾆｼﾐｿﾞｻｷﾁｮｳ","pref":"京都府","city":"京都市右京区","address":"西院西溝崎町"},
{"zip_code":"6150025","kana_pref":"ｷｮｳﾄﾌ","kana_city":"ｷｮｳﾄｼｳｷｮｳｸ","kana_address":"ｻｲｲﾝﾆｼﾔｶｹﾁｮｳ","pref":"京都府","city":"京都市右京区","address":"西院西矢掛町"},
{"zip_code":"6150002","kana_pref":"ｷｮｳﾄﾌ","kana_city":"ｷｮｳﾄｼｳｷｮｳｸ","kana_address":"ｻｲｲﾝﾋｶﾞｼｲﾏﾀﾞﾁｮｳ","pref":"京都府","city":"京都市右京区","address":"西院東今田町"},
{"zip_code":"6150057","kana_pref":"ｷｮｳﾄﾌ","kana_city":"ｷｮｳﾄｼｳｷｮｳｸ","kana_address":"ｻｲｲﾝﾋｶﾞｼｶｲｶﾞﾜﾁｮｳ","pref":"京都府","city":"京都市右京区","address":"西院東貝川町"},
{"zip_code":"6150011","kana_pref":"ｷｮｳﾄﾌ","kana_city":"ｷｮｳﾄｼｳｷｮｳｸ","kana_address":"ｻｲｲﾝﾋｶﾞｼｼﾞｭﾝﾅｲﾝﾁｮｳ","pref":"京都府","city":"京都市右京区","address":"西院東淳和院町"},
{"zip_code":"6150042","kana_pref":"ｷｮｳﾄﾌ","kana_city":"ｷｮｳﾄｼｳｷｮｳｸ","kana_address":"ｻｲｲﾝﾋｶﾞｼﾅｶﾐｽﾞﾁｮｳ","pref":"京都府","city":"京都市右京区","address":"西院東中水町"},
{"zip_code":"6150062","kana_pref":"ｷｮｳﾄﾌ","kana_city":"ｷｮｳﾄｼｳｷｮｳｸ","kana_address":"ｻｲｲﾝﾋﾂｼﾞｻﾙﾁｮｳ","pref":"京都府","city":"京都市右京区","address":"西院坤町"},
{"zip_code":"6150065","kana_pref":"ｷｮｳﾄﾌ","kana_city":"ｷｮｳﾄｼｳｷｮｳｸ","kana_address":"ｻｲｲﾝﾋﾃﾞﾘﾁｮｳ","pref":"京都府","city":"京都市右京区","address":"西院日照町"},
{"zip_code":"6150022","kana_pref":"ｷｮｳﾄﾌ","kana_city":"ｷｮｳﾄｼｳｷｮｳｸ","kana_address":"ｻｲｲﾝﾋﾗﾏﾁ","pref":"京都府","city":"京都市右京区","address":"西院平町"},
{"zip_code":"6150013","kana_pref":"ｷｮｳﾄﾌ","kana_city":"ｷｮｳﾄｼｳｷｮｳｸ","kana_address":"ｻｲｲﾝﾏﾂｲﾁｮｳ","pref":"京都府","city":"京都市右京区","address":"西院松井町"},
{"zip_code":"6150045","kana_pref":"ｷｮｳﾄﾌ","kana_city":"ｷｮｳﾄｼｳｷｮｳｸ","kana_address":"ｻｲｲﾝﾐｿﾞｻｷﾁｮｳ","pref":"京都府","city":"京都市右京区","address":"西院溝崎町"},
{"zip_code":"6150037","kana_pref":"ｷｮｳﾄﾌ","kana_city":"ｷｮｳﾄｼｳｷｮｳｸ","kana_address":"ｻｲｲﾝﾐﾅﾐｲｺﾞﾘｮｳﾁｮｳ","pref":"京都府","city":"京都市右京区","address":"西院南井御料町"},
{"zip_code":"6150048","kana_pref":"ｷｮｳﾄﾌ","kana_city":"ｷｮｳﾄｼｳｷｮｳｸ","kana_address":"ｻｲｲﾝﾐﾅﾐｺﾄﾌﾞｷﾁｮｳ","pref":"京都府","city":"京都市右京区","address":"西院南寿町"},
{"zip_code":"6150041","kana_pref":"ｷｮｳﾄﾌ","kana_city":"ｷｮｳﾄｼｳｷｮｳｸ","kana_address":"ｻｲｲﾝﾐﾅﾐﾀｶﾀﾞﾁｮｳ","pref":"京都府","city":"京都市右京区","address":"西院南高田町"},
{"zip_code":"6150024","kana_pref":"ｷｮｳﾄﾌ","kana_city":"ｷｮｳﾄｼｳｷｮｳｸ","kana_address":"ｻｲｲﾝﾔｶｹﾁｮｳ","pref":"京都府","city":"京都市右京区","address":"西院矢掛町"},
{"zip_code":"6150051","kana_pref":"ｷｮｳﾄﾌ","kana_city":"ｷｮｳﾄｼｳｷｮｳｸ","kana_address":"ｻｲｲﾝﾔｽﾂﾞｶﾁｮｳ","pref":"京都府","city":"京都市右京区","address":"西院安塚町"},
{"zip_code":"6150047","kana_pref":"ｷｮｳﾄﾌ","kana_city":"ｷｮｳﾄｼｳｷｮｳｸ","kana_address":"ｻｲｲﾝﾛｸﾀﾝﾀﾞﾁｮｳ","pref":"京都府","city":"京都市右京区","address":"西院六反田町"},
{"zip_code":"6150806","kana_pref":"ｷｮｳﾄﾌ","kana_city":"ｷｮｳﾄｼｳｷｮｳｸ","kana_address":"ﾆｼｷｮｳｺﾞｸｱｾﾞｶﾂﾁｮｳ","pref":"京都府","city":"京都市右京区","address":"西京極畔勝町"},
{"zip_code":"6150885","kana_pref":"ｷｮｳﾄﾌ","kana_city":"ｷｮｳﾄｼｳｷｮｳｸ","kana_address":"ﾆｼｷｮｳｺﾞｸｳﾏﾂﾞｶﾁｮｳ","pref":"京都府","city":"京都市右京区","address":"西京極午塚町"},
{"zip_code":"6150882","kana_pref":"ｷｮｳﾄﾌ","kana_city":"ｷｮｳﾄｼｳｷｮｳｸ","kana_address":"ﾆｼｷｮｳｺﾞｸｶﾄﾞﾉﾁｮｳ","pref":"京都府","city":"京都市右京区","address":"西京極葛野町"},
{"zip_code":"6150843","kana_pref":"ｷｮｳﾄﾌ","kana_city":"ｷｮｳﾄｼｳｷｮｳｸ","kana_address":"ﾆｼｷｮｳｺﾞｸｶﾜﾗﾁｮｳ","pref":"京都府","city":"京都市右京区","address":"西京極河原町"},
{"zip_code":"6150836","kana_pref":"ｷｮｳﾄﾌ","kana_city":"ｷｮｳﾄｼｳｷｮｳｸ","kana_address":"ﾆｼｷｮｳｺﾞｸｶﾜﾗﾁｮｳｳﾗﾏﾁ","pref":"京都府","city":"京都市右京区","address":"西京極河原町裏町"},
{"zip_code":"6150821","kana_pref":"ｷｮｳﾄﾌ","kana_city":"ｷｮｳﾄｼｳｷｮｳｸ","kana_address":"ﾆｼｷｮｳｺﾞｸｷﾀｳﾗﾁｮｳ","pref":"京都府","city":"京都市右京区","address":"西京極北裏町"},
{"zip_code":"6150881","kana_pref":"ｷｮｳﾄﾌ","kana_city":"ｷｮｳﾄｼｳｷｮｳｸ","kana_address":"ﾆｼｷｮｳｺﾞｸｷﾀｵｵｲﾘﾁｮｳ","pref":"京都府","city":"京都市右京区","address":"西京極北大入町"},
{"zip_code":"6150878","kana_pref":"ｷｮｳﾄﾌ","kana_city":"ｷｮｳﾄｼｳｷｮｳｸ","kana_address":"ﾆｼｷｮｳｺﾞｸｷﾀｺﾛﾓﾃﾞﾁｮｳ","pref":"京都府","city":"京都市右京区","address":"西京極北衣手町"},
{"zip_code":"6150802","kana_pref":"ｷｮｳﾄﾌ","kana_city":"ｷｮｳﾄｼｳｷｮｳｸ","kana_address":"ﾆｼｷｮｳｺﾞｸｷﾀｼｮｳｻﾞｶｲﾁｮｳ","pref":"京都府","city":"京都市右京区","address":"西京極北庄境町"},
{"zip_code":"6150818","kana_pref":"ｷｮｳﾄﾌ","kana_city":"ｷｮｳﾄｼｳｷｮｳｸ","kana_address":"ﾆｼｷｮｳｺﾞｸｻﾝﾀﾝﾀﾞﾁｮｳ","pref":"京都府","city":"京都市右京区","address":"西京極三反田町"},
{"zip_code":"6150826","kana_pref":"ｷｮｳﾄﾌ","kana_city":"ｷｮｳﾄｼｳｷｮｳｸ","kana_address":"ﾆｼｷｮｳｺﾞｸｼﾊﾞﾉｼﾀﾁｮｳ","pref":"京都府","city":"京都市右京区","address":"西京極芝ノ下町"},
{"zip_code":"6150814","kana_pref":"ｷｮｳﾄﾌ","kana_city":"ｷｮｳﾄｼｳｷｮｳｸ","kana_address":"ﾆｼｷｮｳｺﾞｸｼﾓｻﾞﾜﾁｮｳ","pref":"京都府","city":"京都市右京区","address":"西京極下沢町"},
{"zip_code":"6150874","kana_pref":"ｷｮｳﾄﾌ","kana_city":"ｷｮｳﾄｼｳｷｮｳｸ","kana_address":"ﾆｼｷｮｳｺﾞｸｼﾝﾃﾞﾝﾁｮｳ","pref":"京都府","city":"京都市右京区","address":"西京極新田町"},
{"zip_code":"6150864","kana_pref":"ｷｮｳﾄﾌ","kana_city":"ｷｮｳﾄｼｳｷｮｳｸ","kana_address":"ﾆｼｷｮｳｺﾞｸｼﾝﾒｲﾁｮｳ","pref":"京都府","city":"京都市右京区","address":"西京極新明町"},
{"zip_code":"6150845","kana_pref":"ｷｮｳﾄﾌ","kana_city":"ｷｮｳﾄｼｳｷｮｳｸ","kana_address":"ﾆｼｷｮｳｺﾞｸｽｴﾋﾛﾁｮｳ","pref":"京都府","city":"京都市右京区","address":"西京極末広町"},
{"zip_code":"6150812","kana_pref":"ｷｮｳﾄﾌ","kana_city":"ｷｮｳﾄｼｳｷｮｳｸ","kana_address":"ﾆｼｷｮｳｺﾞｸﾀﾞｲﾓﾝﾁｮｳ","pref":"京都府","city":"京都市右京区","address":"西京極大門町"},
{"zip_code":"6150804","kana_pref":"ｷｮｳﾄﾌ","kana_city":"ｷｮｳﾄｼｳｷｮｳｸ","kana_address":"ﾆｼｷｮｳｺﾞｸﾁｮｳﾉﾂﾎﾞﾁｮｳ","pref":"京都府","city":"京都市右京区","address":"西京極町ノ坪町"},
{"zip_code":"6150813","kana_pref":"ｷｮｳﾄﾌ","kana_city":"ｷｮｳﾄｼｳｷｮｳｸ","kana_address":"ﾆｼｷｮｳｺﾞｸﾂｸﾀﾞﾁｮｳ","pref":"京都府","city":"京都市右京区","address":"西京極佃田町"},
{"zip_code":"6150835","kana_pref":"ｷｮｳﾄﾌ","kana_city":"ｷｮｳﾄｼｳｷｮｳｸ","kana_address":"ﾆｼｷｮｳｺﾞｸﾂﾂﾐｼﾀﾁｮｳ","pref":"京都府","city":"京都市右京区","address":"西京極堤下町"},
{"zip_code":"6150854","kana_pref":"ｷｮｳﾄﾌ","kana_city":"ｷｮｳﾄｼｳｷｮｳｸ","kana_address":"ﾆｼｷｮｳｺﾞｸﾂﾂﾐｿﾄﾁｮｳ","pref":"京都府","city":"京都市右京区","address":"西京極堤外町"},
{"zip_code":"6150863","kana_pref":"ｷｮｳﾄﾌ","kana_city":"ｷｮｳﾄｼｳｷｮｳｸ","kana_address":"ﾆｼｷｮｳｺﾞｸﾂﾂﾐﾁｮｳ","pref":"京都府","city":"京都市右京区","address":"西京極堤町"},
{"zip_code":"6150846","kana_pref":"ｷｮｳﾄﾌ","kana_city":"ｷｮｳﾄｼｳｷｮｳｸ","kana_address":"ﾆｼｷｮｳｺﾞｸﾄｸﾀﾞｲｼﾞﾀﾞﾝｺﾞﾃﾞﾝﾁｮｳ","pref":"京都府","city":"京都市右京区","address":"西京極徳大寺団子田町"},
{"zip_code":"6150875","kana_pref":"ｷｮｳﾄﾌ","kana_city":"ｷｮｳﾄｼｳｷｮｳｸ","kana_address":"ﾆｼｷｮｳｺﾞｸﾄｸﾀﾞｲｼﾞﾆｼﾀﾞﾝｺﾞﾃﾞﾝﾁｮｳ","pref":"京都府","city":"京都市右京区","address":"西京極徳大寺西団子田町"},
{"zip_code":"6150834","kana_pref":"ｷｮｳﾄﾌ","kana_city":"ｷｮｳﾄｼｳｷｮｳｸ","kana_address":"ﾆｼｷｮｳｺﾞｸﾄﾉﾀﾞﾁｮｳ","pref":"京都府","city":"京都市右京区","address":"西京極殿田町"},
{"zip_code":"6150815","kana_pref":"ｷｮｳﾄﾌ","kana_city":"ｷｮｳﾄｼｳｷｮｳｸ","kana_address":"ﾆｼｷｮｳｺﾞｸﾅｶｻﾞﾜﾁｮｳ","pref":"京都府","city":"京都市右京区","address":"西京極中沢町"},
{"zip_code":"6150822","kana_pref":"ｷｮｳﾄﾌ","kana_city":"ｷｮｳﾄｼｳｷｮｳｸ","kana_address":"ﾆｼｷｮｳｺﾞｸﾅｶﾏﾁ","pref":"京都府","city":"京都市右京区","address":"西京極中町"},
{"zip_code":"6150831","kana_pref":"ｷｮｳﾄﾌ","kana_city":"ｷｮｳﾄｼｳｷｮｳｸ","kana_address":"ﾆｼｷｮｳｺﾞｸﾅｶﾞﾏﾁ","pref":"京都府","city":"京都市右京区","address":"西京極長町"},
{"zip_code":"6150811","kana_pref":"ｷｮｳﾄﾌ","kana_city":"ｷｮｳﾄｼｳｷｮｳｸ","kana_address":"ﾆｼｷｮｳｺﾞｸﾅｶﾐｿﾞﾁｮｳ","pref":"京都府","city":"京都市右京区","address":"西京極中溝町"},
{"zip_code":"6150827","kana_pref":"ｷｮｳﾄﾌ","kana_city":"ｷｮｳﾄｼｳｷｮｳｸ","kana_address":"ﾆｼｷｮｳｺﾞｸﾅﾝﾎﾟｳﾁｮｳ","pref":"京都府","city":"京都市右京区","address":"西京極南方町"},
{"zip_code":"6150851","kana_pref":"ｷｮｳﾄﾌ","kana_city":"ｷｮｳﾄｼｳｷｮｳｸ","kana_address":"ﾆｼｷｮｳｺﾞｸﾆｼｲｹﾀﾞﾁｮｳ","pref":"京都府","city":"京都市右京区","address":"西京極西池田町"},
{"zip_code":"6150862","kana_pref":"ｷｮｳﾄﾌ","kana_city":"ｷｮｳﾄｼｳｷｮｳｸ","kana_address":"ﾆｼｷｮｳｺﾞｸﾆｼｵｵﾏﾙﾁｮｳ","pref":"京都府","city":"京都市右京区","address":"西京極西大丸町"},
{"zip_code":"6150852","kana_pref":"ｷｮｳﾄﾌ","kana_city":"ｷｮｳﾄｼｳｷｮｳｸ","kana_address":"ﾆｼｷｮｳｺﾞｸﾆｼｶﾜﾁｮｳ","pref":"京都府","city":"京都市右京区","address":"西京極西川町"},
{"zip_code":"6150877","kana_pref":"ｷｮｳﾄﾌ","kana_city":"ｷｮｳﾄｼｳｷｮｳｸ","kana_address":"ﾆｼｷｮｳｺﾞｸﾆｼｺﾛﾓﾃﾞﾁｮｳ","pref":"京都府","city":"京都市右京区","address":"西京極西衣手町"},
{"zip_code":"6150855","kana_pref":"ｷｮｳﾄﾌ","kana_city":"ｷｮｳﾄｼｳｷｮｳｸ","kana_address":"ﾆｼｷｮｳｺﾞｸﾆｼﾀﾞﾝｺﾞﾃﾞﾝﾁｮｳ","pref":"京都府","city":"京都市右京区","address":"西京極西団子田町"},
{"zip_code":"6150837","kana_pref":"ｷｮｳﾄﾌ","kana_city":"ｷｮｳﾄｼｳｷｮｳｸ","kana_address":"ﾆｼｷｮｳｺﾞｸﾆｼﾑｺｳｶﾞﾜﾗﾁｮｳ","pref":"京都府","city":"京都市右京区","address":"西京極西向河原町"},
{"zip_code":"6150861","kana_pref":"ｷｮｳﾄﾌ","kana_city":"ｷｮｳﾄｼｳｷｮｳｸ","kana_address":"ﾆｼｷｮｳｺﾞｸﾉﾀﾞﾁｮｳ","pref":"京都府","city":"京都市右京区","address":"西京極野田町"},
{"zip_code":"6150832","kana_pref":"ｷｮｳﾄﾌ","kana_city":"ｷｮｳﾄｼｳｷｮｳｸ","kana_address":"ﾆｼｷｮｳｺﾞｸﾊｼｱｶﾞﾘﾁｮｳ","pref":"京都府","city":"京都市右京区","address":"西京極走上リ町"},
{"zip_code":"6150833","kana_pref":"ｷｮｳﾄﾌ","kana_city":"ｷｮｳﾄｼｳｷｮｳｸ","kana_address":"ﾆｼｷｮｳｺﾞｸﾊｼﾂﾞﾒﾁｮｳ","pref":"京都府","city":"京都市右京区","address":"西京極橋詰町"},
{"zip_code":"6150824","kana_pref":"ｷｮｳﾄﾌ","kana_city":"ｷｮｳﾄｼｳｷｮｳｸ","kana_address":"ﾆｼｷｮｳｺﾞｸﾊﾀﾀﾞﾁｮｳ","pref":"京都府","city":"京都市右京区","address":"西京極畑田町"},
{"zip_code":"6150873","kana_pref":"ｷｮｳﾄﾌ","kana_city":"ｷｮｳﾄｼｳｷｮｳｸ","kana_address":"ﾆｼｷｮｳｺﾞｸﾊﾏﾉﾓﾄﾁｮｳ","pref":"京都府","city":"京都市右京区","address":"西京極浜ノ本町"},
{"zip_code":"6150841","kana_pref":"ｷｮｳﾄﾌ","kana_city":"ｷｮｳﾄｼｳｷｮｳｸ","kana_address":"ﾆｼｷｮｳｺﾞｸﾋｳﾁﾊﾞﾀﾁｮｳ","pref":"京都府","city":"京都市右京区","address":"西京極火打畑町"},
{"zip_code":"6150805","kana_pref":"ｷｮｳﾄﾌ","kana_city":"ｷｮｳﾄｼｳｷｮｳｸ","kana_address":"ﾆｼｷｮｳｺﾞｸﾋｶﾞｼｲｹﾀﾞﾁｮｳ","pref":"京都府","city":"京都市右京区","address":"西京極東池田町"},
{"zip_code":"6150807","kana_pref":"ｷｮｳﾄﾌ","kana_city":"ｷｮｳﾄｼｳｷｮｳｸ","kana_address":"ﾆｼｷｮｳｺﾞｸﾋｶﾞｼｵｵﾏﾙﾁｮｳ","pref":"京都府","city":"京都市右京区","address":"西京極東大丸町"},
{"zip_code":"6150844","kana_pref":"ｷｮｳﾄﾌ","kana_city":"ｷｮｳﾄｼｳｷｮｳｸ","kana_address":"ﾆｼｷｮｳｺﾞｸﾋｶﾞｼｶﾞﾜﾁｮｳ","pref":"京都府","city":"京都市右京区","address":"西京極東側町"},
{"zip_code":"6150871","kana_pref":"ｷｮｳﾄﾌ","kana_city":"ｷｮｳﾄｼｳｷｮｳｸ","kana_address":"ﾆｼｷｮｳｺﾞｸﾋｶﾞｼｺﾛﾓﾃﾞﾁｮｳ","pref":"京都府","city":"京都市右京区","address":"西京極東衣手町"},
{"zip_code":"6150816","kana_pref":"ｷｮｳﾄﾌ","kana_city":"ｷｮｳﾄｼｳｷｮｳｸ","kana_address":"ﾆｼｷｮｳｺﾞｸﾋｶﾞｼﾁｮｳ","pref":"京都府","city":"京都市右京区","address":"西京極東町"},
{"zip_code":"6150825","kana_pref":"ｷｮｳﾄﾌ","kana_city":"ｷｮｳﾄｼｳｷｮｳｸ","kana_address":"ﾆｼｷｮｳｺﾞｸﾋｶﾞｼﾑｺｳｶﾞﾜﾗﾁｮｳ","pref":"京都府","city":"京都市右京区","address":"西京極東向河原町"},
{"zip_code":"6150856","kana_pref":"ｷｮｳﾄﾌ","kana_city":"ｷｮｳﾄｼｳｷｮｳｸ","kana_address":"ﾆｼｷｮｳｺﾞｸﾌﾙﾊﾏﾁｮｳ","pref":"京都府","city":"京都市右京区","address":"西京極古浜町"},
{"zip_code":"6150823","kana_pref":"ｷｮｳﾄﾌ","kana_city":"ｷｮｳﾄｼｳｷｮｳｸ","kana_address":"ﾆｼｷｮｳｺﾞｸﾏｴﾀﾞﾁｮｳ","pref":"京都府","city":"京都市右京区","address":"西京極前田町"},
{"zip_code":"6150801","kana_pref":"ｷｮｳﾄﾌ","kana_city":"ｷｮｳﾄｼｳｷｮｳｸ","kana_address":"ﾆｼｷｮｳｺﾞｸﾏﾒﾀﾞﾁｮｳ","pref":"京都府","city":"京都市右京区","address":"西京極豆田町"},
{"zip_code":"6150883","kana_pref":"ｷｮｳﾄﾌ","kana_city":"ｷｮｳﾄｼｳｷｮｳｸ","kana_address":"ﾆｼｷｮｳｺﾞｸﾐﾅﾐｵｵｲﾘﾁｮｳ","pref":"京都府","city":"京都市右京区","address":"西京極南大入町"},
{"zip_code":"6150872","kana_pref":"ｷｮｳﾄﾌ","kana_city":"ｷｮｳﾄｼｳｷｮｳｸ","kana_address":"ﾆｼｷｮｳｺﾞｸﾐﾅﾐｺﾛﾓﾃﾞﾁｮｳ","pref":"京都府","city":"京都市右京区","address":"西京極南衣手町"},
{"zip_code":"6150803","kana_pref":"ｷｮｳﾄﾌ","kana_city":"ｷｮｳﾄｼｳｷｮｳｸ","kana_address":"ﾆｼｷｮｳｺﾞｸﾐﾅﾐｼｮｳｻﾞｶｲﾁｮｳ","pref":"京都府","city":"京都市右京区","address":"西京極南庄境町"},
{"zip_code":"6150817","kana_pref":"ｷｮｳﾄﾌ","kana_city":"ｷｮｳﾄｼｳｷｮｳｸ","kana_address":"ﾆｼｷｮｳｺﾞｸﾐﾔﾉﾋｶﾞｼﾁｮｳ","pref":"京都府","city":"京都市右京区","address":"西京極宮ノ東町"},
{"zip_code":"6150838","kana_pref":"ｷｮｳﾄﾌ","kana_city":"ｷｮｳﾄｼｳｷｮｳｸ","kana_address":"ﾆｼｷｮｳｺﾞｸﾔﾌﾞﾉｼﾀﾁｮｳ","pref":"京都府","city":"京都市右京区","address":"西京極薮ノ下町"},
{"zip_code":"6150842","kana_pref":"ｷｮｳﾄﾌ","kana_city":"ｷｮｳﾄｼｳｷｮｳｸ","kana_address":"ﾆｼｷｮｳｺﾞｸﾔﾌﾞﾋﾞﾗｷﾁｮｳ","pref":"京都府","city":"京都市右京区","address":"西京極薮開町"},
{"zip_code":"6150857","kana_pref":"ｷｮｳﾄﾌ","kana_city":"ｷｮｳﾄｼｳｷｮｳｸ","kana_address":"ﾆｼｷｮｳｺﾞｸｺﾞｵﾘｲﾉﾊﾞﾊﾞﾁｮｳ","pref":"京都府","city":"京都市右京区","address":"西京極郡猪馬場町"},
{"zip_code":"6150858","kana_pref":"ｷｮｳﾄﾌ","kana_city":"ｷｮｳﾄｼｳｷｮｳｸ","kana_address":"ﾆｼｷｮｳｺﾞｸｺﾞｵﾘｻﾜﾁｮｳ","pref":"京都府","city":"京都市右京区","address":"西京極郡沢町"},
{"zip_code":"6150853","kana_pref":"ｷｮｳﾄﾌ","kana_city":"ｷｮｳﾄｼｳｷｮｳｸ","kana_address":"ﾆｼｷｮｳｺﾞｸｺﾞｵﾘﾀﾞｲｺﾞﾃﾞﾝﾁｮｳ","pref":"京都府","city":"京都市右京区","address":"西京極郡醍醐田町"},
{"zip_code":"6150876","kana_pref":"ｷｮｳﾄﾌ","kana_city":"ｷｮｳﾄｼｳｷｮｳｸ","kana_address":"ﾆｼｷｮｳｺﾞｸｺﾞｵﾘﾌｽﾞﾁｮｳ","pref":"京都府","city":"京都市右京区","address":"西京極郡附洲町"},
{"zip_code":"6150884","kana_pref":"ｷｮｳﾄﾌ","kana_city":"ｷｮｳﾄｼｳｷｮｳｸ","kana_address":"ﾆｼｷｮｳｺﾞｸｺﾞｵﾘﾁｮｳ","pref":"京都府","city":"京都市右京区","address":"西京極郡町"},
{"zip_code":"6150073","kana_pref":"ｷｮｳﾄﾌ","kana_city":"ｷｮｳﾄｼｳｷｮｳｸ","kana_address":"ﾔﾏﾉｳﾁｱﾗｷﾁｮｳ","pref":"京都府","city":"京都市右京区","address":"山ノ内荒木町"},
{"zip_code":"6150072","kana_pref":"ｷｮｳﾄﾌ","kana_city":"ｷｮｳﾄｼｳｷｮｳｸ","kana_address":"ﾔﾏﾉｳﾁｲｹｼﾞﾘﾁｮｳ","pref":"京都府","city":"京都市右京区","address":"山ノ内池尻町"},
{"zip_code":"6150097","kana_pref":"ｷｮｳﾄﾌ","kana_city":"ｷｮｳﾄｼｳｷｮｳｸ","kana_address":"ﾔﾏﾉｳﾁｵｵﾏﾁ","pref":"京都府","city":"京都市右京区","address":"山ノ内大町"},
{"zip_code":"6150094","kana_pref":"ｷｮｳﾄﾌ","kana_city":"ｷｮｳﾄｼｳｷｮｳｸ","kana_address":"ﾔﾏﾉｳﾁｷﾀﾉｸﾁﾁｮｳ","pref":"京都府","city":"京都市右京区","address":"山ノ内北ノ口町"},
{"zip_code":"6150096","kana_pref":"ｷｮｳﾄﾌ","kana_city":"ｷｮｳﾄｼｳｷｮｳｸ","kana_address":"ﾔﾏﾉｳﾁｺﾞﾀﾝﾀﾞﾁｮｳ","pref":"京都府","city":"京都市右京区","address":"山ノ内五反田町"},
{"zip_code":"6150082","kana_pref":"ｷｮｳﾄﾌ","kana_city":"ｷｮｳﾄｼｳｷｮｳｸ","kana_address":"ﾔﾏﾉｳﾁｾｷｻﾝﾁｮｳ","pref":"京都府","city":"京都市右京区","address":"山ノ内赤山町"},
{"zip_code":"6150083","kana_pref":"ｷｮｳﾄﾌ","kana_city":"ｷｮｳﾄｼｳｷｮｳｸ","kana_address":"ﾔﾏﾉｳﾁｾﾄﾊﾀﾁｮｳ","pref":"京都府","city":"京都市右京区","address":"山ノ内瀬戸畑町"},
{"zip_code":"6150074","kana_pref":"ｷｮｳﾄﾌ","kana_city":"ｷｮｳﾄｼｳｷｮｳｸ","kana_address":"ﾔﾏﾉｳﾁﾅｴﾏﾁ","pref":"京都府","city":"京都市右京区","address":"山ノ内苗町"},
{"zip_code":"6150085","kana_pref":"ｷｮｳﾄﾌ","kana_city":"ｷｮｳﾄｼｳｷｮｳｸ","kana_address":"ﾔﾏﾉｳﾁﾅｶﾊﾀﾁｮｳ","pref":"京都府","city":"京都市右京区","address":"山ノ内中畑町"},
{"zip_code":"6150071","kana_pref":"ｷｮｳﾄﾌ","kana_city":"ｷｮｳﾄｼｳｷｮｳｸ","kana_address":"ﾔﾏﾉｳﾁﾆｼｳﾗﾁｮｳ","pref":"京都府","city":"京都市右京区","address":"山ノ内西裏町"},
{"zip_code":"6150095","kana_pref":"ｷｮｳﾄﾌ","kana_city":"ｷｮｳﾄｼｳｷｮｳｸ","kana_address":"ﾔﾏﾉｳﾁﾆｼﾊｯﾀﾝﾀﾞﾁｮｳ","pref":"京都府","city":"京都市右京区","address":"山ノ内西八反田町"},
{"zip_code":"6150091","kana_pref":"ｷｮｳﾄﾌ","kana_city":"ｷｮｳﾄｼｳｷｮｳｸ","kana_address":"ﾔﾏﾉｳﾁﾐﾄﾞｳﾃﾞﾝﾁｮｳ","pref":"京都府","city":"京都市右京区","address":"山ノ内御堂殿町"},
{"zip_code":"6150093","kana_pref":"ｷｮｳﾄﾌ","kana_city":"ｷｮｳﾄｼｳｷｮｳｸ","kana_address":"ﾔﾏﾉｳﾁﾐﾔﾏｴﾁｮｳ","pref":"京都府","city":"京都市右京区","address":"山ノ内宮前町"},
{"zip_code":"6150092","kana_pref":"ｷｮｳﾄﾌ","kana_city":"ｷｮｳﾄｼｳｷｮｳｸ","kana_address":"ﾔﾏﾉｳﾁﾐﾔﾜｷﾁｮｳ","pref":"京都府","city":"京都市右京区","address":"山ノ内宮脇町"},
{"zip_code":"6150084","kana_pref":"ｷｮｳﾄﾌ","kana_city":"ｷｮｳﾄｼｳｷｮｳｸ","kana_address":"ﾔﾏﾉｳﾁﾔﾏﾉｼﾀﾁｮｳ","pref":"京都府","city":"京都市右京区","address":"山ノ内山ノ下町"},
{"zip_code":"6150081","kana_pref":"ｷｮｳﾄﾌ","kana_city":"ｷｮｳﾄｼｳｷｮｳｸ","kana_address":"ﾔﾏﾉｳﾁﾖｳﾛｳﾁｮｳ","pref":"京都府","city":"京都市右京区","address":"山ノ内養老町"},
{"zip_code":"6158041","kana_pref":"ｷｮｳﾄﾌ","kana_city":"ｷｮｳﾄｼﾆｼｷｮｳｸ","kana_address":"ｳｼｶﾞｾｱｵﾔｷﾞﾁｮｳ","pref":"京都府","city":"京都市西京区","address":"牛ケ瀬青柳町"},
{"zip_code":"6158032","kana_pref":"ｷｮｳﾄﾌ","kana_city":"ｷｮｳﾄｼﾆｼｷｮｳｸ","kana_address":"ｳｼｶﾞｾｵｸﾉﾎﾞｳﾁｮｳ","pref":"京都府","city":"京都市西京区","address":"牛ケ瀬奥ノ防町"},
{"zip_code":"6158042","kana_pref":"ｷｮｳﾄﾌ","kana_city":"ｷｮｳﾄｼﾆｼｷｮｳｸ","kana_address":"ｳｼｶﾞｾｶﾊﾗｸﾞﾁﾁｮｳ","pref":"京都府","city":"京都市西京区","address":"牛ケ瀬川原口町"},
{"zip_code":"6158043","kana_pref":"ｷｮｳﾄﾌ","kana_city":"ｷｮｳﾄｼﾆｼｷｮｳｸ","kana_address":"ｳｼｶﾞｾｼﾝﾃﾞﾝﾌﾞｹﾁｮｳ","pref":"京都府","city":"京都市西京区","address":"牛ケ瀬新田泓町"},
{"zip_code":"6158052","kana_pref":"ｷｮｳﾄﾌ","kana_city":"ｷｮｳﾄｼﾆｼｷｮｳｸ","kana_address":"ｳｼｶﾞｾﾄﾞｳﾃﾞﾝﾁｮｳ","pref":"京都府","city":"京都市西京区","address":"牛ケ瀬堂田町"},
{"zip_code":"6158051","kana_pref":"ｷｮｳﾄﾌ","kana_city":"ｷｮｳﾄｼﾆｼｷｮｳｸ","kana_address":"ｳｼｶﾞｾﾆｼｶﾞｷﾁｮｳ","pref":"京都府","city":"京都市西京区","address":"牛ケ瀬西柿町"},
{"zip_code":"6158031","kana_pref":"ｷｮｳﾄﾌ","kana_city":"ｷｮｳﾄｼﾆｼｷｮｳｸ","kana_address":"ｳｼｶﾞｾﾊﾔｼﾉﾓﾄﾁｮｳ","pref":"京都府","city":"京都市西京区","address":"牛ケ瀬林ノ本町"},
{"zip_code":"6158045","kana_pref":"ｷｮｳﾄﾌ","kana_city":"ｷｮｳﾄｼﾆｼｷｮｳｸ","kana_address":"ｳｼｶﾞｾﾐﾅﾐﾉｸﾁﾁｮｳ","pref":"京都府","city":"京都市西京区","address":"牛ケ瀬南ノ口町"},
{"zip_code":"6158044","kana_pref":"ｷｮｳﾄﾌ","kana_city":"ｷｮｳﾄｼﾆｼｷｮｳｸ","kana_address":"ｳｼｶﾞｾﾔﾏｶﾞｷﾁｮｳ","pref":"京都府","city":"京都市西京区","address":"牛ケ瀬山柿町"},
{"zip_code":"6158046","kana_pref":"ｷｮｳﾄﾌ","kana_city":"ｷｮｳﾄｼﾆｼｷｮｳｸ","kana_address":"ｳｼｶﾞｾﾔﾖｲﾁｮｳ","pref":"京都府","city":"京都市西京区","address":"牛ケ瀬弥生町"},
{"zip_code":"6158142","kana_pref":"ｷｮｳﾄﾌ","kana_city":"ｷｮｳﾄｼﾆｼｷｮｳｸ","kana_address":"ｶﾀｷﾞﾊﾗｱｾﾞﾉｶｲﾄﾞｳ","pref":"京都府","city":"京都市西京区","address":"樫原畔ノ海道"},
{"zip_code":"6158178","kana_pref":"ｷｮｳﾄﾌ","kana_city":"ｷｮｳﾄｼﾆｼｷｮｳｸ","kana_address":"ｶﾀｷﾞﾊﾗｲｹﾉｳｴﾁｮｳ","pref":"京都府","city":"京都市西京区","address":"樫原池ノ上町"},
{"zip_code":"6158181","kana_pref":"ｷｮｳﾄﾌ","kana_city":"ｷｮｳﾄｼﾆｼｷｮｳｸ","kana_address":"ｶﾀｷﾞﾊﾗｲｼﾊﾞﾀﾁｮｳ","pref":"京都府","city":"京都市西京区","address":"樫原石畑町"},
{"zip_code":"6158133","kana_pref":"ｷｮｳﾄﾌ","kana_city":"ｷｮｳﾄｼﾆｼｷｮｳｸ","kana_address":"ｶﾀｷﾞﾊﾗｲﾄﾞ","pref":"京都府","city":"京都市西京区","address":"樫原井戸"},
{"zip_code":"6158157","kana_pref":"ｷｮｳﾄﾌ","kana_city":"ｷｮｳﾄｼﾆｼｷｮｳｸ","kana_address":"ｶﾀｷﾞﾊﾗｲﾓﾄｳｹﾞ","pref":"京都府","city":"京都市西京区","address":"樫原芋峠"},
{"zip_code":"6158185","kana_pref":"ｷｮｳﾄﾌ","kana_city":"ｷｮｳﾄｼﾆｼｷｮｳｸ","kana_address":"ｶﾀｷﾞﾊﾗｳｼﾞｲﾁｮｳ","pref":"京都府","city":"京都市西京区","address":"樫原宇治井町"},
{"zip_code":"6158172","kana_pref":"ｷｮｳﾄﾌ","kana_city":"ｷｮｳﾄｼﾆｼｷｮｳｸ","kana_address":"ｶﾀｷﾞﾊﾗｳｼﾞｲﾆｼﾁｮｳ","pref":"京都府","city":"京都市西京区","address":"樫原宇治井西町"},
{"zip_code":"6158152","kana_pref":"ｷｮｳﾄﾌ","kana_city":"ｷｮｳﾄｼﾆｼｷｮｳｸ","kana_address":"ｶﾀｷﾞﾊﾗｳﾁｶｲﾄﾁｮｳ","pref":"京都府","city":"京都市西京区","address":"樫原内垣外町"},
{"zip_code":"6158135","kana_pref":"ｷｮｳﾄﾌ","kana_city":"ｷｮｳﾄｼﾆｼｷｮｳｸ","kana_address":"ｶﾀｷﾞﾊﾗｴﾉﾓﾄﾁｮｳ","pref":"京都府","city":"京都市西京区","address":"樫原江ノ本町"},
{"zip_code":"6158155","kana_pref":"ｷｮｳﾄﾌ","kana_city":"ｷｮｳﾄｼﾆｼｷｮｳｸ","kana_address":"ｶﾀｷﾞﾊﾗｵｵｶﾒﾀﾞﾆ","pref":"京都府","city":"京都市西京区","address":"樫原大亀谷"},
{"zip_code":"6158154","kana_pref":"ｷｮｳﾄﾌ","kana_city":"ｷｮｳﾄｼﾆｼｷｮｳｸ","kana_address":"ｶﾀｷﾞﾊﾗｵｶﾐﾅﾐﾉｼｮｳ","pref":"京都府","city":"京都市西京区","address":"樫原岡南ノ庄"},
{"zip_code":"6158176","kana_pref":"ｷｮｳﾄﾌ","kana_city":"ｷｮｳﾄｼﾆｼｷｮｳｸ","kana_address":"ｶﾀｷﾞﾊﾗｶﾐｲｹﾀﾞﾁｮｳ","pref":"京都府","city":"京都市西京区","address":"樫原上池田町"},
{"zip_code":"6158162","kana_pref":"ｷｮｳﾄﾌ","kana_city":"ｷｮｳﾄｼﾆｼｷｮｳｸ","kana_address":"ｶﾀｷﾞﾊﾗｶﾐﾉﾁｮｳ","pref":"京都府","city":"京都市西京区","address":"樫原上ノ町"},
{"zip_code":"6158144","kana_pref":"ｷｮｳﾄﾌ","kana_city":"ｷｮｳﾄｼﾆｼｷｮｳｸ","kana_address":"ｶﾀｷﾞﾊﾗｸｷﾞﾇｷ","pref":"京都府","city":"京都市西京区","address":"樫原釘貫"},
{"zip_code":"6158136","kana_pref":"ｷｮｳﾄﾌ","kana_city":"ｷｮｳﾄｼﾆｼｷｮｳｸ","kana_address":"ｶﾀｷﾞﾊﾗｸﾁﾄﾞ","pref":"京都府","city":"京都市西京区","address":"樫原口戸"},
{"zip_code":"6158171","kana_pref":"ｷｮｳﾄﾌ","kana_city":"ｷｮｳﾄｼﾆｼｷｮｳｸ","kana_address":"ｶﾀｷﾞﾊﾗｸﾎﾞﾁｮｳ","pref":"京都府","city":"京都市西京区","address":"樫原久保町"},
{"zip_code":"6158116","kana_pref":"ｷｮｳﾄﾌ","kana_city":"ｷｮｳﾄｼﾆｼｷｮｳｸ","kana_address":"ｶﾀｷﾞﾊﾗｺｳｽｲ","pref":"京都府","city":"京都市西京区","address":"樫原甲水"},
{"zip_code":"6158131","kana_pref":"ｷｮｳﾄﾌ","kana_city":"ｷｮｳﾄｼﾆｼｷｮｳｸ","kana_address":"ｶﾀｷﾞﾊﾗｺﾞﾀﾝﾀﾞ","pref":"京都府","city":"京都市西京区","address":"樫原五反田"},
{"zip_code":"6158143","kana_pref":"ｷｮｳﾄﾌ","kana_city":"ｷｮｳﾄｼﾆｼｷｮｳｸ","kana_address":"ｶﾀｷﾞﾊﾗｻﾄﾉｶｲﾄﾁｮｳ","pref":"京都府","city":"京都市西京区","address":"樫原里ノ垣外町"},
{"zip_code":"6158164","kana_pref":"ｷｮｳﾄﾌ","kana_city":"ｷｮｳﾄｼﾆｼｷｮｳｸ","kana_address":"ｶﾀｷﾞﾊﾗｼｷﾞﾀﾆ","pref":"京都府","city":"京都市西京区","address":"樫原鴫谷"},
{"zip_code":"6158173","kana_pref":"ｷｮｳﾄﾌ","kana_city":"ｷｮｳﾄｼﾆｼｷｮｳｸ","kana_address":"ｶﾀｷﾞﾊﾗｼﾓｲｹﾀﾞﾁｮｳ","pref":"京都府","city":"京都市西京区","address":"樫原下池田町"},
{"zip_code":"6158177","kana_pref":"ｷｮｳﾄﾌ","kana_city":"ｷｮｳﾄｼﾆｼｷｮｳｸ","kana_address":"ｶﾀｷﾞﾊﾗｼﾓﾉﾁｮｳ","pref":"京都府","city":"京都市西京区","address":"樫原下ノ町"},
{"zip_code":"6158151","kana_pref":"ｷｮｳﾄﾌ","kana_city":"ｷｮｳﾄｼﾆｼｷｮｳｸ","kana_address":"ｶﾀｷﾞﾊﾗｽｷﾞﾊﾗﾁｮｳ","pref":"京都府","city":"京都市西京区","address":"樫原杉原町"},
{"zip_code":"6158145","kana_pref":"ｷｮｳﾄﾌ","kana_city":"ｷｮｳﾄｼﾆｼｷｮｳｸ","kana_address":"ｶﾀｷﾞﾊﾗｽﾐﾀﾁｮｳ","pref":"京都府","city":"京都市西京区","address":"樫原角田町"},
{"zip_code":"6158161","kana_pref":"ｷｮｳﾄﾌ","kana_city":"ｷｮｳﾄｼﾆｼｷｮｳｸ","kana_address":"ｶﾀｷﾞﾊﾗﾀｺﾃﾞﾝﾁｮｳ","pref":"京都府","city":"京都市西京区","address":"樫原蛸田町"},
{"zip_code":"6158146","kana_pref":"ｷｮｳﾄﾌ","kana_city":"ｷｮｳﾄｼﾆｼｷｮｳｸ","kana_address":"ｶﾀｷﾞﾊﾗﾀﾅｶﾁｮｳ","pref":"京都府","city":"京都市西京区","address":"樫原田中町"},
{"zip_code":"6158182","kana_pref":"ｷｮｳﾄﾌ","kana_city":"ｷｮｳﾄｼﾆｼｷｮｳｸ","kana_address":"ｶﾀｷﾞﾊﾗﾁｬﾉｷﾓﾄﾁｮｳ","pref":"京都府","city":"京都市西京区","address":"樫原茶ノ木本町"},
{"zip_code":"6158147","kana_pref":"ｷｮｳﾄﾌ","kana_city":"ｷｮｳﾄｼﾆｼｷｮｳｸ","kana_address":"ｶﾀｷﾞﾊﾗﾂｶﾉﾓﾄﾁｮｳ","pref":"京都府","city":"京都市西京区","address":"樫原塚ノ本町"},
{"zip_code":"6158186","kana_pref":"ｷｮｳﾄﾌ","kana_city":"ｷｮｳﾄｼﾆｼｷｮｳｸ","kana_address":"ｶﾀｷﾞﾊﾗﾂｸﾀﾞ","pref":"京都府","city":"京都市西京区","address":"樫原佃"},
{"zip_code":"6158156","kana_pref":"ｷｮｳﾄﾌ","kana_city":"ｷｮｳﾄｼﾆｼｷｮｳｸ","kana_address":"ｶﾀｷﾞﾊﾗﾄﾞﾄﾞｶﾞｲｹ","pref":"京都府","city":"京都市西京区","address":"樫原百々ケ池"},
{"zip_code":"6158174","kana_pref":"ｷｮｳﾄﾌ","kana_city":"ｷｮｳﾄｼﾆｼｷｮｳｸ","kana_address":"ｶﾀｷﾞﾊﾗﾅｶｶｲﾄ","pref":"京都府","city":"京都市西京区","address":"樫原中垣外"},
{"zip_code":"6158132","kana_pref":"ｷｮｳﾄﾌ","kana_city":"ｷｮｳﾄｼﾆｼｷｮｳｸ","kana_address":"ｶﾀｷﾞﾊﾗﾆﾜｲ","pref":"京都府","city":"京都市西京区","address":"樫原庭井"},
{"zip_code":"6158175","kana_pref":"ｷｮｳﾄﾌ","kana_city":"ｷｮｳﾄｼﾆｼｷｮｳｸ","kana_address":"ｶﾀｷﾞﾊﾗﾊｶﾞﾏﾁｮｳ","pref":"京都府","city":"京都市西京区","address":"樫原硲町"},
{"zip_code":"6158158","kana_pref":"ｷｮｳﾄﾌ","kana_city":"ｷｮｳﾄｼﾆｼｷｮｳｸ","kana_address":"ｶﾀｷﾞﾊﾗﾊｶﾘﾀﾞﾆﾁｮｳ","pref":"京都府","city":"京都市西京区","address":"樫原秤谷町"},
{"zip_code":"6158122","kana_pref":"ｷｮｳﾄﾌ","kana_city":"ｷｮｳﾄｼﾆｼｷｮｳｸ","kana_address":"ｶﾀｷﾞﾊﾗﾊｯﾀﾝﾀﾞ","pref":"京都府","city":"京都市西京区","address":"樫原八反田"},
{"zip_code":"6158134","kana_pref":"ｷｮｳﾄﾌ","kana_city":"ｷｮｳﾄｼﾆｼｷｮｳｸ","kana_address":"ｶﾀｷﾞﾊﾗﾋｴﾀﾞﾁｮｳ","pref":"京都府","city":"京都市西京区","address":"樫原比恵田町"},
{"zip_code":"6158141","kana_pref":"ｷｮｳﾄﾌ","kana_city":"ｷｮｳﾄｼﾆｼｷｮｳｸ","kana_address":"ｶﾀｷﾞﾊﾗﾋﾗﾀﾁｮｳ","pref":"京都府","city":"京都市西京区","address":"樫原平田町"},
{"zip_code":"6158165","kana_pref":"ｷｮｳﾄﾌ","kana_city":"ｷｮｳﾄｼﾆｼｷｮｳｸ","kana_address":"ｶﾀｷﾞﾊﾗﾎﾞﾝﾔﾏ","pref":"京都府","city":"京都市西京区","address":"樫原盆山"},
{"zip_code":"6158153","kana_pref":"ｷｮｳﾄﾌ","kana_city":"ｷｮｳﾄｼﾆｼｷｮｳｸ","kana_address":"ｶﾀｷﾞﾊﾗﾏｴﾀﾞﾁｮｳ","pref":"京都府","city":"京都市西京区","address":"樫原前田町"},
{"zip_code":"6158184","kana_pref":"ｷｮｳﾄﾌ","kana_city":"ｷｮｳﾄｼﾆｼｷｮｳｸ","kana_address":"ｶﾀｷﾞﾊﾗﾐｽﾞﾂｷﾁｮｳ","pref":"京都府","city":"京都市西京区","address":"樫原水築町"},
{"zip_code":"6158124","kana_pref":"ｷｮｳﾄﾌ","kana_city":"ｷｮｳﾄｼﾆｼｷｮｳｸ","kana_address":"ｶﾀｷﾞﾊﾗﾐﾔｹﾁｮｳ","pref":"京都府","city":"京都市西京区","address":"樫原三宅町"},
{"zip_code":"6158123","kana_pref":"ｷｮｳﾄﾌ","kana_city":"ｷｮｳﾄｼﾆｼｷｮｳｸ","kana_address":"ｶﾀｷﾞﾊﾗﾔﾏｼﾞ","pref":"京都府","city":"京都市西京区","address":"樫原山路"},
{"zip_code":"6158163","kana_pref":"ｷｮｳﾄﾌ","kana_city":"ｷｮｳﾄｼﾆｼｷｮｳｸ","kana_address":"ｶﾀｷﾞﾊﾗﾔﾏﾉｳｴﾁｮｳ","pref":"京都府","city":"京都市西京区","address":"樫原山ノ上町"},
{"zip_code":"6158117","kana_pref":"ｷｮｳﾄﾌ","kana_city":"ｷｮｳﾄｼﾆｼｷｮｳｸ","kana_address":"ｶﾀｷﾞﾊﾗﾛｸﾀﾝﾀﾞ","pref":"京都府","city":"京都市西京区","address":"樫原六反田"},
{"zip_code":"6158183","kana_pref":"ｷｮｳﾄﾌ","kana_city":"ｷｮｳﾄｼﾆｼｷｮｳｸ","kana_address":"ｶﾀｷﾞﾊﾗﾜｹﾀﾞ","pref":"京都府","city":"京都市西京区","address":"樫原分田"},
{"zip_code":"6158021","kana_pref":"ｷｮｳﾄﾌ","kana_city":"ｷｮｳﾄｼﾆｼｷｮｳｸ","kana_address":"ｶﾂﾗｱｻﾊﾗﾁｮｳ","pref":"京都府","city":"京都市西京区","address":"桂浅原町"},
{"zip_code":"6158027","kana_pref":"ｷｮｳﾄﾌ","kana_city":"ｷｮｳﾄｼﾆｼｷｮｳｸ","kana_address":"ｶﾂﾗｱｻﾋﾁｮｳ","pref":"京都府","city":"京都市西京区","address":"桂朝日町"},
{"zip_code":"6158081","kana_pref":"ｷｮｳﾄﾌ","kana_city":"ｷｮｳﾄｼﾆｼｷｮｳｸ","kana_address":"ｶﾂﾗｲｹｼﾞﾘﾁｮｳ","pref":"京都府","city":"京都市西京区","address":"桂池尻町"},
{"zip_code":"6158026","kana_pref":"ｷｮｳﾄﾌ","kana_city":"ｷｮｳﾄｼﾆｼｷｮｳｸ","kana_address":"ｶﾂﾗｲﾁﾉﾏｴﾁｮｳ","pref":"京都府","city":"京都市西京区","address":"桂市ノ前町"},
{"zip_code":"6158025","kana_pref":"ｷｮｳﾄﾌ","kana_city":"ｷｮｳﾄｼﾆｼｷｮｳｸ","kana_address":"ｶﾂﾗｲﾅﾘﾔﾏﾁｮｳ","pref":"京都府","city":"京都市西京区","address":"桂稲荷山町"},
{"zip_code":"6158086","kana_pref":"ｷｮｳﾄﾌ","kana_city":"ｷｮｳﾄｼﾆｼｷｮｳｸ","kana_address":"ｶﾂﾗｲﾇｲﾁｮｳ","pref":"京都府","city":"京都市西京区","address":"桂乾町"},
{"zip_code":"6158083","kana_pref":"ｷｮｳﾄﾌ","kana_city":"ｷｮｳﾄｼﾆｼｷｮｳｸ","kana_address":"ｶﾂﾗｳｼﾄﾗﾁｮｳ","pref":"京都府","city":"京都市西京区","address":"桂艮町"},
{"zip_code":"6158011","kana_pref":"ｷｮｳﾄﾌ","kana_city":"ｷｮｳﾄｼﾆｼｷｮｳｸ","kana_address":"ｶﾂﾗｵｵﾅﾜﾁｮｳ","pref":"京都府","city":"京都市西京区","address":"桂大縄町"},
{"zip_code":"6158071","kana_pref":"ｷｮｳﾄﾌ","kana_city":"ｷｮｳﾄｼﾆｼｷｮｳｸ","kana_address":"ｶﾂﾗｶｽｶﾞﾁｮｳ","pref":"京都府","city":"京都市西京区","address":"桂春日町"},
{"zip_code":"6158082","kana_pref":"ｷｮｳﾄﾌ","kana_city":"ｷｮｳﾄｼﾆｼｷｮｳｸ","kana_address":"ｶﾂﾗｶﾐﾏﾒﾀﾞﾁｮｳ","pref":"京都府","city":"京都市西京区","address":"桂上豆田町"},
{"zip_code":"6158017","kana_pref":"ｷｮｳﾄﾌ","kana_city":"ｷｮｳﾄｼﾆｼｷｮｳｸ","kana_address":"ｶﾂﾗｶﾜﾀﾞﾁｮｳ","pref":"京都府","city":"京都市西京区","address":"桂河田町"},
{"zip_code":"6158022","kana_pref":"ｷｮｳﾄﾌ","kana_city":"ｷｮｳﾄｼﾆｼｷｮｳｸ","kana_address":"ｶﾂﾗｷﾀﾀｷｶﾞﾜﾁｮｳ","pref":"京都府","city":"京都市西京区","address":"桂北滝川町"},
{"zip_code":"6158072","kana_pref":"ｷｮｳﾄﾌ","kana_city":"ｷｮｳﾄｼﾆｼｷｮｳｸ","kana_address":"ｶﾂﾗｷﾉｼﾀﾁｮｳ","pref":"京都府","city":"京都市西京区","address":"桂木ノ下町"},
{"zip_code":"6158012","kana_pref":"ｷｮｳﾄﾌ","kana_city":"ｷｮｳﾄｼﾆｼｷｮｳｸ","kana_address":"ｶﾂﾗｺｳｽﾞﾁｮｳ","pref":"京都府","city":"京都市西京区","address":"桂後水町"},
{"zip_code":"6158087","kana_pref":"ｷｮｳﾄﾌ","kana_city":"ｷｮｳﾄｼﾆｼｷｮｳｸ","kana_address":"ｶﾂﾗｺﾞｼｮﾁｮｳ","pref":"京都府","city":"京都市西京区","address":"桂御所町"},
{"zip_code":"6158077","kana_pref":"ｷｮｳﾄﾌ","kana_city":"ｷｮｳﾄｼﾆｼｷｮｳｸ","kana_address":"ｶﾂﾗｼﾊﾞﾉｼﾀﾁｮｳ","pref":"京都府","city":"京都市西京区","address":"桂芝ノ下町"},
{"zip_code":"6158013","kana_pref":"ｷｮｳﾄﾌ","kana_city":"ｷｮｳﾄｼﾆｼｷｮｳｸ","kana_address":"ｶﾂﾗｼﾐｽﾞﾁｮｳ","pref":"京都府","city":"京都市西京区","address":"桂清水町"},
{"zip_code":"6158076","kana_pref":"ｷｮｳﾄﾌ","kana_city":"ｷｮｳﾄｼﾆｼｷｮｳｸ","kana_address":"ｶﾂﾗｼﾓﾏﾒﾀﾞﾁｮｳ","pref":"京都府","city":"京都市西京区","address":"桂下豆田町"},
{"zip_code":"6158075","kana_pref":"ｷｮｳﾄﾌ","kana_city":"ｷｮｳﾄｼﾆｼｷｮｳｸ","kana_address":"ｶﾂﾗﾀﾂﾐﾁｮｳ","pref":"京都府","city":"京都市西京区","address":"桂巽町"},
{"zip_code":"6158085","kana_pref":"ｷｮｳﾄﾌ","kana_city":"ｷｮｳﾄｼﾆｼｷｮｳｸ","kana_address":"ｶﾂﾗﾁﾖﾊﾗﾁｮｳ","pref":"京都府","city":"京都市西京区","address":"桂千代原町"},
{"zip_code":"6158301","kana_pref":"ｷｮｳﾄﾌ","kana_city":"ｷｮｳﾄｼﾆｼｷｮｳｸ","kana_address":"ｶﾂﾗﾄｸﾀﾞｲｼﾞｷﾀﾁｮｳ","pref":"京都府","city":"京都市西京区","address":"桂徳大寺北町"},
{"zip_code":"6158018","kana_pref":"ｷｮｳﾄﾌ","kana_city":"ｷｮｳﾄｼﾆｼｷｮｳｸ","kana_address":"ｶﾂﾗﾄｸﾀﾞｲｼﾞﾁｮｳ","pref":"京都府","city":"京都市西京区","address":"桂徳大寺町"},
{"zip_code":"6158303","kana_pref":"ｷｮｳﾄﾌ","kana_city":"ｷｮｳﾄｼﾆｼｷｮｳｸ","kana_address":"ｶﾂﾗﾄｸﾀﾞｲｼﾞﾋｶﾞｼﾁｮｳ","pref":"京都府","city":"京都市西京区","address":"桂徳大寺東町"},
{"zip_code":"6158302","kana_pref":"ｷｮｳﾄﾌ","kana_city":"ｷｮｳﾄｼﾆｼｷｮｳｸ","kana_address":"ｶﾂﾗﾄｸﾀﾞｲｼﾞﾐﾅﾐﾁｮｳ","pref":"京都府","city":"京都市西京区","address":"桂徳大寺南町"},
{"zip_code":"6158024","kana_pref":"ｷｮｳﾄﾌ","kana_city":"ｷｮｳﾄｼﾆｼｷｮｳｸ","kana_address":"ｶﾂﾗﾆｼﾀｷｶﾞﾜﾁｮｳ","pref":"京都府","city":"京都市西京区","address":"桂西滝川町"},
{"zip_code":"6158073","kana_pref":"ｷｮｳﾄﾌ","kana_city":"ｷｮｳﾄｼﾆｼｷｮｳｸ","kana_address":"ｶﾂﾗﾉｻﾞﾄﾁｮｳ","pref":"京都府","city":"京都市西京区","address":"桂野里町"},
{"zip_code":"6158004","kana_pref":"ｷｮｳﾄﾌ","kana_city":"ｷｮｳﾄｼﾆｼｷｮｳｸ","kana_address":"ｶﾂﾗﾊﾀｹﾀﾞﾁｮｳ","pref":"京都府","city":"京都市西京区","address":"桂畑ケ田町"},
{"zip_code":"6158016","kana_pref":"ｷｮｳﾄﾌ","kana_city":"ｷｮｳﾄｼﾆｼｷｮｳｸ","kana_address":"ｶﾂﾗﾋｻｶﾀﾁｮｳ","pref":"京都府","city":"京都市西京区","address":"桂久方町"},
{"zip_code":"6158084","kana_pref":"ｷｮｳﾄﾌ","kana_city":"ｷｮｳﾄｼﾆｼｷｮｳｸ","kana_address":"ｶﾂﾗﾋﾂｼﾞｻﾙﾁｮｳ","pref":"京都府","city":"京都市西京区","address":"桂坤町"},
{"zip_code":"6158014","kana_pref":"ｷｮｳﾄﾌ","kana_city":"ｷｮｳﾄｼﾆｼｷｮｳｸ","kana_address":"ｶﾂﾗﾐｿﾉ","pref":"京都府","city":"京都市西京区","address":"桂御園"},
{"zip_code":"6158023","kana_pref":"ｷｮｳﾄﾌ","kana_city":"ｷｮｳﾄｼﾆｼｷｮｳｸ","kana_address":"ｶﾂﾗﾐﾅﾐﾀｷｶﾞﾜﾁｮｳ","pref":"京都府","city":"京都市西京区","address":"桂南滝川町"},
{"zip_code":"6158074","kana_pref":"ｷｮｳﾄﾌ","kana_city":"ｷｮｳﾄｼﾆｼｷｮｳｸ","kana_address":"ｶﾂﾗﾐﾅﾐﾀﾂﾐﾁｮｳ","pref":"京都府","city":"京都市西京区","address":"桂南巽町"},
{"zip_code":"6158007","kana_pref":"ｷｮｳﾄﾌ","kana_city":"ｷｮｳﾄｼﾆｼｷｮｳｸ","kana_address":"ｶﾂﾗｶﾐﾉｲﾏｲﾁｮｳ","pref":"京都府","city":"京都市西京区","address":"桂上野今井町"},
{"zip_code":"6158008","kana_pref":"ｷｮｳﾄﾌ","kana_city":"ｷｮｳﾄｼﾆｼｷｮｳｸ","kana_address":"ｶﾂﾗｶﾐﾉｶﾜﾗﾁｮｳ","pref":"京都府","city":"京都市西京区","address":"桂上野川原町"},
{"zip_code":"6158002","kana_pref":"ｷｮｳﾄﾌ","kana_city":"ｷｮｳﾄｼﾆｼｷｮｳｸ","kana_address":"ｶﾂﾗｶﾐﾉﾅｶﾁｮｳ","pref":"京都府","city":"京都市西京区","address":"桂上野中町"},
{"zip_code":"6158003","kana_pref":"ｷｮｳﾄﾌ","kana_city":"ｷｮｳﾄｼﾆｼｷｮｳｸ","kana_address":"ｶﾂﾗｶﾐﾉﾋｶﾞｼﾁｮｳ","pref":"京都府","city":"京都市西京区","address":"桂上野東町"},
{"zip_code":"6158006","kana_pref":"ｷｮｳﾄﾌ","kana_city":"ｷｮｳﾄｼﾆｼｷｮｳｸ","kana_address":"ｶﾂﾗｶﾐﾉﾆｼﾁｮｳ","pref":"京都府","city":"京都市西京区","address":"桂上野西町"},
{"zip_code":"6158005","kana_pref":"ｷｮｳﾄﾌ","kana_city":"ｷｮｳﾄｼﾆｼｷｮｳｸ","kana_address":"ｶﾂﾗｶﾐﾉﾐﾅﾐﾁｮｳ","pref":"京都府","city":"京都市西京区","address":"桂上野南町"},
{"zip_code":"6158001","kana_pref":"ｷｮｳﾄﾌ","kana_city":"ｷｮｳﾄｼﾆｼｷｮｳｸ","kana_address":"ｶﾂﾗｶﾐﾉｷﾀﾁｮｳ","pref":"京都府","city":"京都市西京区","address":"桂上野北町"},
{"zip_code":"6158201","kana_pref":"ｷｮｳﾄﾌ","kana_city":"ｷｮｳﾄｼﾆｼｷｮｳｸ","kana_address":"ｶﾐｶﾂﾗｲﾏｲﾁｮｳ","pref":"京都府","city":"京都市西京区","address":"上桂今井町"},
{"zip_code":"6158215","kana_pref":"ｷｮｳﾄﾌ","kana_city":"ｷｮｳﾄｼﾆｼｷｮｳｸ","kana_address":"ｶﾐｶﾂﾗｵｵﾉﾁｮｳ","pref":"京都府","city":"京都市西京区","address":"上桂大野町"},
{"zip_code":"6158212","kana_pref":"ｷｮｳﾄﾌ","kana_city":"ｷｮｳﾄｼﾆｼｷｮｳｸ","kana_address":"ｶﾐｶﾂﾗｷﾀﾉｸﾁﾁｮｳ","pref":"京都府","city":"京都市西京区","address":"上桂北ノ口町"},
{"zip_code":"6158213","kana_pref":"ｷｮｳﾄﾌ","kana_city":"ｷｮｳﾄｼﾆｼｷｮｳｸ","kana_address":"ｶﾐｶﾂﾗｷﾀﾑﾗﾁｮｳ","pref":"京都府","city":"京都市西京区","address":"上桂北村町"},
{"zip_code":"6158224","kana_pref":"ｷｮｳﾄﾌ","kana_city":"ｷｮｳﾄｼﾆｼｷｮｳｸ","kana_address":"ｶﾐｶﾂﾗｻﾝﾉﾐﾔﾁｮｳ","pref":"京都府","city":"京都市西京区","address":"上桂三ノ宮町"},
{"zip_code":"6158228","kana_pref":"ｷｮｳﾄﾌ","kana_city":"ｷｮｳﾄｼﾆｼｷｮｳｸ","kana_address":"ｶﾐｶﾂﾗﾆｼｲﾁｮｳ","pref":"京都府","city":"京都市西京区","address":"上桂西居町"},
{"zip_code":"6158214","kana_pref":"ｷｮｳﾄﾌ","kana_city":"ｷｮｳﾄｼﾆｼｷｮｳｸ","kana_address":"ｶﾐｶﾂﾗﾋｶﾞｼｲﾁｮｳ","pref":"京都府","city":"京都市西京区","address":"上桂東居町"},
{"zip_code":"6158221","kana_pref":"ｷｮｳﾄﾌ","kana_city":"ｷｮｳﾄｼﾆｼｷｮｳｸ","kana_address":"ｶﾐｶﾂﾗﾋｶﾞｼﾉｸﾁﾁｮｳ","pref":"京都府","city":"京都市西京区","address":"上桂東ノ口町"},
{"zip_code":"6158208","kana_pref":"ｷｮｳﾄﾌ","kana_city":"ｷｮｳﾄｼﾆｼｷｮｳｸ","kana_address":"ｶﾐｶﾂﾗﾋﾉｸﾁﾁｮｳ","pref":"京都府","city":"京都市西京区","address":"上桂樋ノ口町"},
{"zip_code":"6158211","kana_pref":"ｷｮｳﾄﾌ","kana_city":"ｷｮｳﾄｼﾆｼｷｮｳｸ","kana_address":"ｶﾐｶﾂﾗﾏｴｶﾞﾜﾁｮｳ","pref":"京都府","city":"京都市西京区","address":"上桂前川町"},
{"zip_code":"6158223","kana_pref":"ｷｮｳﾄﾌ","kana_city":"ｷｮｳﾄｼﾆｼｷｮｳｸ","kana_address":"ｶﾐｶﾂﾗﾏｴﾀﾞﾁｮｳ","pref":"京都府","city":"京都市西京区","address":"上桂前田町"},
{"zip_code":"6158222","kana_pref":"ｷｮｳﾄﾌ","kana_city":"ｷｮｳﾄｼﾆｼｷｮｳｸ","kana_address":"ｶﾐｶﾂﾗﾐｼｮｳﾁｮｳ","pref":"京都府","city":"京都市西京区","address":"上桂御正町"},
{"zip_code":"6158227","kana_pref":"ｷｮｳﾄﾌ","kana_city":"ｷｮｳﾄｼﾆｼｷｮｳｸ","kana_address":"ｶﾐｶﾂﾗﾐﾔﾉｺﾞﾁｮｳ","pref":"京都府","city":"京都市西京区","address":"上桂宮ノ後町"},
{"zip_code":"6158226","kana_pref":"ｷｮｳﾄﾌ","kana_city":"ｷｮｳﾄｼﾆｼｷｮｳｸ","kana_address":"ｶﾐｶﾂﾗﾓﾘｶﾐﾁｮｳ","pref":"京都府","city":"京都市西京区","address":"上桂森上町"},
{"zip_code":"6158225","kana_pref":"ｷｮｳﾄﾌ","kana_city":"ｷｮｳﾄｼﾆｼｷｮｳｸ","kana_address":"ｶﾐｶﾂﾗﾓﾘｼﾀﾁｮｳ","pref":"京都府","city":"京都市西京区","address":"上桂森下町"},
{"zip_code":"6158191","kana_pref":"ｷｮｳﾄﾌ","kana_city":"ｷｮｳﾄｼﾆｼｷｮｳｸ","kana_address":"ｶﾜｼﾏｱﾘｽｶﾞﾜﾁｮｳ","pref":"京都府","city":"京都市西京区","address":"川島有栖川町"},
{"zip_code":"6158194","kana_pref":"ｷｮｳﾄﾌ","kana_city":"ｷｮｳﾄｼﾆｼｷｮｳｸ","kana_address":"ｶﾜｼﾏｱﾜﾀﾁｮｳ","pref":"京都府","city":"京都市西京区","address":"川島粟田町"},
{"zip_code":"6158113","kana_pref":"ｷｮｳﾄﾌ","kana_city":"ｷｮｳﾄｼﾆｼｷｮｳｸ","kana_address":"ｶﾜｼﾏｳﾒｿﾞﾉﾁｮｳ","pref":"京都府","city":"京都市西京区","address":"川島梅園町"},
{"zip_code":"6158107","kana_pref":"ｷｮｳﾄﾌ","kana_city":"ｷｮｳﾄｼﾆｼｷｮｳｸ","kana_address":"ｶﾜｼﾏｷﾀｳﾗﾁｮｳ","pref":"京都府","city":"京都市西京区","address":"川島北裏町"},
{"zip_code":"6158104","kana_pref":"ｷｮｳﾄﾌ","kana_city":"ｷｮｳﾄｼﾆｼｷｮｳｸ","kana_address":"ｶﾜｼﾏｺﾞﾀﾝｵｻﾁｮｳ","pref":"京都府","city":"京都市西京区","address":"川島五反長町"},
{"zip_code":"6158195","kana_pref":"ｷｮｳﾄﾌ","kana_city":"ｷｮｳﾄｼﾆｼｷｮｳｸ","kana_address":"ｶﾜｼﾏｺﾞﾝﾃﾞﾝﾁｮｳ","pref":"京都府","city":"京都市西京区","address":"川島権田町"},
{"zip_code":"6158114","kana_pref":"ｷｮｳﾄﾌ","kana_city":"ｷｮｳﾄｼﾆｼｷｮｳｸ","kana_address":"ｶﾜｼﾏｻｸﾗｿﾞﾉﾁｮｳ","pref":"京都府","city":"京都市西京区","address":"川島桜園町"},
{"zip_code":"6158118","kana_pref":"ｷｮｳﾄﾌ","kana_city":"ｷｮｳﾄｼﾆｼｷｮｳｸ","kana_address":"ｶﾜｼﾏｻﾝｼﾞｭｳﾁｮｳ","pref":"京都府","city":"京都市西京区","address":"川島三重町"},
{"zip_code":"6158196","kana_pref":"ｷｮｳﾄﾌ","kana_city":"ｷｮｳﾄｼﾆｼｷｮｳｸ","kana_address":"ｶﾜｼﾏｼﾘﾎﾞﾘﾁｮｳ","pref":"京都府","city":"京都市西京区","address":"川島尻堀町"},
{"zip_code":"6158112","kana_pref":"ｷｮｳﾄﾌ","kana_city":"ｷｮｳﾄｼﾆｼｷｮｳｸ","kana_address":"ｶﾜｼﾏﾀｹｿﾞﾉﾁｮｳ","pref":"京都府","city":"京都市西京区","address":"川島竹園町"},
{"zip_code":"6158193","kana_pref":"ｷｮｳﾄﾌ","kana_city":"ｷｮｳﾄｼﾆｼｷｮｳｸ","kana_address":"ｶﾜｼﾏﾀﾏｶﾞｼﾗﾁｮｳ","pref":"京都府","city":"京都市西京区","address":"川島玉頭町"},
{"zip_code":"6158125","kana_pref":"ｷｮｳﾄﾌ","kana_city":"ｷｮｳﾄｼﾆｼｷｮｳｸ","kana_address":"ｶﾜｼﾏﾁｮｳｼﾁｮｳ","pref":"京都府","city":"京都市西京区","address":"川島調子町"},
{"zip_code":"6158192","kana_pref":"ｷｮｳﾄﾌ","kana_city":"ｷｮｳﾄｼﾆｼｷｮｳｸ","kana_address":"ｶﾜｼﾏﾃﾗﾃﾞﾝﾁｮｳ","pref":"京都府","city":"京都市西京区","address":"川島寺田町"},
{"zip_code":"6158115","kana_pref":"ｷｮｳﾄﾌ","kana_city":"ｷｮｳﾄｼﾆｼｷｮｳｸ","kana_address":"ｶﾜｼﾏﾅｶﾞﾚﾀﾞﾁｮｳ","pref":"京都府","city":"京都市西京区","address":"川島流田町"},
{"zip_code":"6158106","kana_pref":"ｷｮｳﾄﾌ","kana_city":"ｷｮｳﾄｼﾆｼｷｮｳｸ","kana_address":"ｶﾜｼﾏﾅﾒﾗﾋﾁｮｳ","pref":"京都府","city":"京都市西京区","address":"川島滑樋町"},
{"zip_code":"6158121","kana_pref":"ｷｮｳﾄﾌ","kana_city":"ｷｮｳﾄｼﾆｼｷｮｳｸ","kana_address":"ｶﾜｼﾏﾉﾀﾞﾁｮｳ","pref":"京都府","city":"京都市西京区","address":"川島野田町"},
{"zip_code":"6158101","kana_pref":"ｷｮｳﾄﾌ","kana_city":"ｷｮｳﾄｼﾆｼｷｮｳｸ","kana_address":"ｶﾜｼﾏﾋｶﾞｼﾀﾞｲﾁｮｳ","pref":"京都府","city":"京都市西京区","address":"川島東代町"},
{"zip_code":"6158111","kana_pref":"ｷｮｳﾄﾌ","kana_city":"ｷｮｳﾄｼﾆｼｷｮｳｸ","kana_address":"ｶﾜｼﾏﾏﾂｿﾞﾉﾁｮｳ","pref":"京都府","city":"京都市西京区","address":"川島松園町"},
{"zip_code":"6158102","kana_pref":"ｷｮｳﾄﾌ","kana_city":"ｷｮｳﾄｼﾆｼｷｮｳｸ","kana_address":"ｶﾜｼﾏﾏﾂﾉｷﾓﾄﾁｮｳ","pref":"京都府","city":"京都市西京区","address":"川島松ノ木本町"},
{"zip_code":"6158105","kana_pref":"ｷｮｳﾄﾌ","kana_city":"ｷｮｳﾄｼﾆｼｷｮｳｸ","kana_address":"ｶﾜｼﾏﾑｼﾛﾃﾞﾝﾁｮｳ","pref":"京都府","city":"京都市西京区","address":"川島莚田町"},
{"zip_code":"6158103","kana_pref":"ｷｮｳﾄﾌ","kana_city":"ｷｮｳﾄｼﾆｼｷｮｳｸ","kana_address":"ｶﾜｼﾏﾛｸﾉﾂﾎﾞﾁｮｳ","pref":"京都府","city":"京都市西京区","address":"川島六ノ坪町"},
{"zip_code":"6158246","kana_pref":"ｷｮｳﾄﾌ","kana_city":"ｷｮｳﾄｼﾆｼｷｮｳｸ","kana_address":"ｷｮｳﾄﾀﾞｲｶﾞｸｶﾂﾗ","pref":"京都府","city":"京都市西京区","address":"京都大学桂"},
{"zip_code":"6158233","kana_pref":"ｷｮｳﾄﾌ","kana_city":"ｷｮｳﾄｼﾆｼｷｮｳｸ","kana_address":"ｺﾞﾘｮｳｱﾗｷﾁｮｳ","pref":"京都府","city":"京都市西京区","address":"御陵荒木町"},
{"zip_code":"6158244","kana_pref":"ｷｮｳﾄﾌ","kana_city":"ｷｮｳﾄｼﾆｼｷｮｳｸ","kana_address":"ｺﾞﾘｮｳｲｹﾉﾀﾆ","pref":"京都府","city":"京都市西京区","address":"御陵池ノ谷"},
{"zip_code":"6158235","kana_pref":"ｷｮｳﾄﾌ","kana_city":"ｷｮｳﾄｼﾆｼｷｮｳｸ","kana_address":"ｺﾞﾘｮｳｳﾁﾏﾁ","pref":"京都府","city":"京都市西京区","address":"御陵内町"},
{"zip_code":"6158245","kana_pref":"ｷｮｳﾄﾌ","kana_city":"ｷｮｳﾄｼﾆｼｷｮｳｸ","kana_address":"ｺﾞﾘｮｳｵｵﾊﾗ","pref":"京都府","city":"京都市西京区","address":"御陵大原"},
{"zip_code":"6158243","kana_pref":"ｷｮｳﾄﾌ","kana_city":"ｷｮｳﾄｼﾆｼｷｮｳｸ","kana_address":"ｺﾞﾘｮｳｵﾁｬﾔﾔﾏ","pref":"京都府","city":"京都市西京区","address":"御陵御茶屋山"},
{"zip_code":"6158252","kana_pref":"ｷｮｳﾄﾌ","kana_city":"ｷｮｳﾄｼﾆｼｷｮｳｸ","kana_address":"ｺﾞﾘｮｳｷﾀﾔﾏｼﾀﾁｮｳ","pref":"京都府","city":"京都市西京区","address":"御陵北山下町"},
{"zip_code":"6158253","kana_pref":"ｷｮｳﾄﾌ","kana_city":"ｷｮｳﾄｼﾆｼｷｮｳｸ","kana_address":"ｺﾞﾘｮｳｷﾀﾔﾏﾁｮｳ","pref":"京都府","city":"京都市西京区","address":"御陵北山町"},
{"zip_code":"6158242","kana_pref":"ｷｮｳﾄﾌ","kana_city":"ｷｮｳﾄｼﾆｼｷｮｳｸ","kana_address":"ｺﾞﾘｮｳｼｷﾞﾀﾆ","pref":"京都府","city":"京都市西京区","address":"御陵鴫谷"},
{"zip_code":"6158241","kana_pref":"ｷｮｳﾄﾌ","kana_city":"ｷｮｳﾄｼﾆｼｷｮｳｸ","kana_address":"ｺﾞﾘｮｳﾀﾆﾏﾁ","pref":"京都府","city":"京都市西京区","address":"御陵谷町"},
{"zip_code":"6158234","kana_pref":"ｷｮｳﾄﾌ","kana_city":"ｷｮｳﾄｼﾆｼｷｮｳｸ","kana_address":"ｺﾞﾘｮｳﾂｶﾉｺｼﾁｮｳ","pref":"京都府","city":"京都市西京区","address":"御陵塚ノ越町"},
{"zip_code":"6158254","kana_pref":"ｷｮｳﾄﾌ","kana_city":"ｷｮｳﾄｼﾆｼｷｮｳｸ","kana_address":"ｺﾞﾘｮｳﾎｿﾀﾆ","pref":"京都府","city":"京都市西京区","address":"御陵細谷"},
{"zip_code":"6158231","kana_pref":"ｷｮｳﾄﾌ","kana_city":"ｷｮｳﾄｼﾆｼｷｮｳｸ","kana_address":"ｺﾞﾘｮｳﾐｿﾞｳﾗﾁｮｳ","pref":"京都府","city":"京都市西京区","address":"御陵溝浦町"},
{"zip_code":"6158232","kana_pref":"ｷｮｳﾄﾌ","kana_city":"ｷｮｳﾄｼﾆｼｷｮｳｸ","kana_address":"ｺﾞﾘｮｳﾐﾅﾐｱﾗｷﾁｮｳ","pref":"京都府","city":"京都市西京区","address":"御陵南荒木町"},
{"zip_code":"6158061","kana_pref":"ｷｮｳﾄﾌ","kana_city":"ｷｮｳﾄｼﾆｼｷｮｳｸ","kana_address":"ｼﾓﾂﾊﾞﾔｼｷﾀｳﾗﾁｮｳ","pref":"京都府","city":"京都市西京区","address":"下津林北浦町"},
{"zip_code":"6158065","kana_pref":"ｷｮｳﾄﾌ","kana_city":"ｷｮｳﾄｼﾆｼｷｮｳｸ","kana_address":"ｼﾓﾂﾊﾞﾔｼｸｽﾉｷﾁｮｳ","pref":"京都府","city":"京都市西京区","address":"下津林楠町"},
{"zip_code":"6158035","kana_pref":"ｷｮｳﾄﾌ","kana_city":"ｷｮｳﾄｼﾆｼｷｮｳｸ","kana_address":"ｼﾓﾂﾊﾞﾔｼｼﾊﾞﾉﾐﾔﾁｮｳ","pref":"京都府","city":"京都市西京区","address":"下津林芝ノ宮町"},
{"zip_code":"6158037","kana_pref":"ｷｮｳﾄﾌ","kana_city":"ｷｮｳﾄｼﾆｼｷｮｳｸ","kana_address":"ｼﾓﾂﾊﾞﾔｼﾀﾞｲﾊﾝﾆｬﾁｮｳ","pref":"京都府","city":"京都市西京区","address":"下津林大般若町"},
{"zip_code":"6158055","kana_pref":"ｷｮｳﾄﾌ","kana_city":"ｷｮｳﾄｼﾆｼｷｮｳｸ","kana_address":"ｼﾓﾂﾊﾞﾔｼﾂｸﾀﾞ","pref":"京都府","city":"京都市西京区","address":"下津林佃"},
{"zip_code":"6158053","kana_pref":"ｷｮｳﾄﾌ","kana_city":"ｷｮｳﾄｼﾆｼｷｮｳｸ","kana_address":"ｼﾓﾂﾊﾞﾔｼﾅｶｼﾞﾏﾁｮｳ","pref":"京都府","city":"京都市西京区","address":"下津林中島町"},
{"zip_code":"6158056","kana_pref":"ｷｮｳﾄﾌ","kana_city":"ｷｮｳﾄｼﾆｼｷｮｳｸ","kana_address":"ｼﾓﾂﾊﾞﾔｼﾊﾞﾝｼﾞｮｳ","pref":"京都府","city":"京都市西京区","address":"下津林番条"},
{"zip_code":"6158057","kana_pref":"ｷｮｳﾄﾌ","kana_city":"ｷｮｳﾄｼﾆｼｷｮｳｸ","kana_address":"ｼﾓﾂﾊﾞﾔｼﾊﾞﾝｼﾞｮｳﾁｮｳ","pref":"京都府","city":"京都市西京区","address":"下津林番条町"},
{"zip_code":"6158034","kana_pref":"ｷｮｳﾄﾌ","kana_city":"ｷｮｳﾄｼﾆｼｷｮｳｸ","kana_address":"ｼﾓﾂﾊﾞﾔｼﾋｶﾞｼｼﾊﾞﾉﾐﾔﾁｮｳ","pref":"京都府","city":"京都市西京区","address":"下津林東芝ノ宮町"},
{"zip_code":"6158033","kana_pref":"ｷｮｳﾄﾌ","kana_city":"ｷｮｳﾄｼﾆｼｷｮｳｸ","kana_address":"ｼﾓﾂﾊﾞﾔｼﾋｶﾞｼﾀﾞｲﾊﾝﾆｬﾁｮｳ","pref":"京都府","city":"京都市西京区","address":"下津林東大般若町"},
{"zip_code":"6158062","kana_pref":"ｷｮｳﾄﾌ","kana_city":"ｷｮｳﾄｼﾆｼｷｮｳｸ","kana_address":"ｼﾓﾂﾊﾞﾔｼﾏｴﾌﾞｹﾁｮｳ","pref":"京都府","city":"京都市西京区","address":"下津林前泓町"},
{"zip_code":"6158064","kana_pref":"ｷｮｳﾄﾌ","kana_city":"ｷｮｳﾄｼﾆｼｷｮｳｸ","kana_address":"ｼﾓﾂﾊﾞﾔｼﾐｽﾞｶｹﾁｮｳ","pref":"京都府","city":"京都市西京区","address":"下津林水掛町"},
{"zip_code":"6158036","kana_pref":"ｷｮｳﾄﾌ","kana_city":"ｷｮｳﾄｼﾆｼｷｮｳｸ","kana_address":"ｼﾓﾂﾊﾞﾔｼﾐﾅﾐﾀﾞｲﾊﾝﾆｬﾁｮｳ","pref":"京都府","city":"京都市西京区","address":"下津林南大般若町"},
{"zip_code":"6158054","kana_pref":"ｷｮｳﾄﾌ","kana_city":"ｷｮｳﾄｼﾆｼｷｮｳｸ","kana_address":"ｼﾓﾂﾊﾞﾔｼﾐﾅﾐﾅｶｼﾞﾏﾁｮｳ","pref":"京都府","city":"京都市西京区","address":"下津林南中島町"},
{"zip_code":"6158063","kana_pref":"ｷｮｳﾄﾌ","kana_city":"ｷｮｳﾄｼﾆｼｷｮｳｸ","kana_address":"ｼﾓﾂﾊﾞﾔｼﾛｸﾀﾝﾀﾞ","pref":"京都府","city":"京都市西京区","address":"下津林六反田"},
{"zip_code":"6158015","kana_pref":"ｷｮｳﾄﾌ","kana_city":"ｷｮｳﾄｼﾆｼｷｮｳｸ","kana_address":"ﾄｸﾀﾞｲｼﾞｼﾐｽﾞﾁｮｳ","pref":"京都府","city":"京都市西京区","address":"徳大寺清水町"},
{"zip_code":"6158283","kana_pref":"ｷｮｳﾄﾌ","kana_city":"ｷｮｳﾄｼﾆｼｷｮｳｸ","kana_address":"ﾏﾂｵｲﾄﾞﾁｮｳ","pref":"京都府","city":"京都市西京区","address":"松尾井戸町"},
{"zip_code":"6158284","kana_pref":"ｷｮｳﾄﾌ","kana_city":"ｷｮｳﾄｼﾆｼｷｮｳｸ","kana_address":"ﾏﾂｵｳｴﾉﾔﾏﾁｮｳ","pref":"京都府","city":"京都市西京区","address":"松尾上ノ山町"},
{"zip_code":"6158281","kana_pref":"ｷｮｳﾄﾌ","kana_city":"ｷｮｳﾄｼﾆｼｷｮｳｸ","kana_address":"ﾏﾂｵｷﾉｿﾁｮｳ","pref":"京都府","city":"京都市西京区","address":"松尾木ノ曽町"},
{"zip_code":"6158286","kana_pref":"ｷｮｳﾄﾌ","kana_city":"ｷｮｳﾄｼﾆｼｷｮｳｸ","kana_address":"ﾏﾂｵｼﾞﾝｶﾞﾀﾆﾁｮｳ","pref":"京都府","city":"京都市西京区","address":"松尾神ケ谷町"},
{"zip_code":"6158216","kana_pref":"ｷｮｳﾄﾌ","kana_city":"ｷｮｳﾄｼﾆｼｷｮｳｸ","kana_address":"ﾏﾂｵｽｽﾞｶﾜﾁｮｳ","pref":"京都府","city":"京都市西京区","address":"松尾鈴川町"},
{"zip_code":"6158282","kana_pref":"ｷｮｳﾄﾌ","kana_city":"ｷｮｳﾄｼﾆｼｷｮｳｸ","kana_address":"ﾏﾂｵﾀﾞｲﾘﾁｮｳ","pref":"京都府","city":"京都市西京区","address":"松尾大利町"},
{"zip_code":"6158217","kana_pref":"ｷｮｳﾄﾌ","kana_city":"ｷｮｳﾄｼﾆｼｷｮｳｸ","kana_address":"ﾏﾂｵﾋｶﾞｼﾉｸﾁﾁｮｳ","pref":"京都府","city":"京都市西京区","address":"松尾東ノ口町"},
{"zip_code":"6158287","kana_pref":"ｷｮｳﾄﾌ","kana_city":"ｷｮｳﾄｼﾆｼｷｮｳｸ","kana_address":"ﾏﾂｵﾏﾝｺﾞｸﾁｮｳ","pref":"京都府","city":"京都市西京区","address":"松尾万石町"},
{"zip_code":"6158202","kana_pref":"ｷｮｳﾄﾌ","kana_city":"ｷｮｳﾄｼﾆｼｷｮｳｸ","kana_address":"ﾏﾂﾑﾛｱﾀｶﾞﾐﾁｮｳ","pref":"京都府","city":"京都市西京区","address":"松室吾田神町"},
{"zip_code":"6158203","kana_pref":"ｷｮｳﾄﾌ","kana_city":"ｷｮｳﾄｼﾆｼｷｮｳｸ","kana_address":"ﾏﾂﾑﾛｱﾗﾎﾞﾘﾁｮｳ","pref":"京都府","city":"京都市西京区","address":"松室荒堀町"},
{"zip_code":"6158206","kana_pref":"ｷｮｳﾄﾌ","kana_city":"ｷｮｳﾄｼﾆｼｷｮｳｸ","kana_address":"ﾏﾂﾑﾛｵｲｱｹﾞﾁｮｳ","pref":"京都府","city":"京都市西京区","address":"松室追上ゲ町"},
{"zip_code":"6158291","kana_pref":"ｷｮｳﾄﾌ","kana_city":"ｷｮｳﾄｼﾆｼｷｮｳｸ","kana_address":"ﾏﾂﾑﾛｵｳｷﾞﾀﾞﾁｮｳ","pref":"京都府","city":"京都市西京区","address":"松室扇田町"},
{"zip_code":"6158207","kana_pref":"ｷｮｳﾄﾌ","kana_city":"ｷｮｳﾄｼﾆｼｷｮｳｸ","kana_address":"ﾏﾂﾑﾛｶﾜﾗﾁｮｳ","pref":"京都府","city":"京都市西京区","address":"松室河原町"},
{"zip_code":"6158204","kana_pref":"ｷｮｳﾄﾌ","kana_city":"ｷｮｳﾄｼﾆｼｷｮｳｸ","kana_address":"ﾏﾂﾑﾛｷﾀｶﾜﾗﾁｮｳ","pref":"京都府","city":"京都市西京区","address":"松室北河原町"},
{"zip_code":"6158294","kana_pref":"ｷｮｳﾄﾌ","kana_city":"ｷｮｳﾄｼﾆｼｷｮｳｸ","kana_address":"ﾏﾂﾑﾛｼﾞｹﾁｮｳ","pref":"京都府","city":"京都市西京区","address":"松室地家町"},
{"zip_code":"6158295","kana_pref":"ｷｮｳﾄﾌ","kana_city":"ｷｮｳﾄｼﾆｼｷｮｳｸ","kana_address":"ﾏﾂﾑﾛｼﾞｹﾔﾏ","pref":"京都府","city":"京都市西京区","address":"松室地家山"},
{"zip_code":"6158293","kana_pref":"ｷｮｳﾄﾌ","kana_city":"ｷｮｳﾄｼﾆｼｷｮｳｸ","kana_address":"ﾏﾂﾑﾛｼｮｳﾀﾞﾁｮｳ","pref":"京都府","city":"京都市西京区","address":"松室庄田町"},
{"zip_code":"6158292","kana_pref":"ｷｮｳﾄﾌ","kana_city":"ｷｮｳﾄｼﾆｼｷｮｳｸ","kana_address":"ﾏﾂﾑﾛﾀﾅｶﾁｮｳ","pref":"京都府","city":"京都市西京区","address":"松室田中町"},
{"zip_code":"6158205","kana_pref":"ｷｮｳﾄﾌ","kana_city":"ｷｮｳﾄｼﾆｼｷｮｳｸ","kana_address":"ﾏﾂﾑﾛﾅｶﾐｿﾞﾁｮｳ","pref":"京都府","city":"京都市西京区","address":"松室中溝町"},
{"zip_code":"6158296","kana_pref":"ｷｮｳﾄﾌ","kana_city":"ｷｮｳﾄｼﾆｼｷｮｳｸ","kana_address":"ﾏﾂﾑﾛﾔﾏｿﾞｴﾁｮｳ","pref":"京都府","city":"京都市西京区","address":"松室山添町"},
{"zip_code":"6158274","kana_pref":"ｷｮｳﾄﾌ","kana_city":"ｷｮｳﾄｼﾆｼｷｮｳｸ","kana_address":"ﾔﾏﾀﾞｳｴﾉﾁｮｳ","pref":"京都府","city":"京都市西京区","address":"山田上ノ町"},
{"zip_code":"6158236","kana_pref":"ｷｮｳﾄﾌ","kana_city":"ｷｮｳﾄｼﾆｼｷｮｳｸ","kana_address":"ﾔﾏﾀﾞｵｵﾖｼﾐﾁｮｳ","pref":"京都府","city":"京都市西京区","address":"山田大吉見町"},
{"zip_code":"6158265","kana_pref":"ｷｮｳﾄﾌ","kana_city":"ｷｮｳﾄｼﾆｼｷｮｳｸ","kana_address":"ﾔﾏﾀﾞｵﾄﾞﾛﾁｮｳ","pref":"京都府","city":"京都市西京区","address":"山田御道路町"},
{"zip_code":"6158285","kana_pref":"ｷｮｳﾄﾌ","kana_city":"ｷｮｳﾄｼﾆｼｷｮｳｸ","kana_address":"ﾔﾏﾀﾞｷﾀﾉﾁｮｳ","pref":"京都府","city":"京都市西京区","address":"山田北ノ町"},
{"zip_code":"6158267","kana_pref":"ｷｮｳﾄﾌ","kana_city":"ｷｮｳﾄｼﾆｼｷｮｳｸ","kana_address":"ﾔﾏﾀﾞｷﾀﾔﾏﾀﾞﾁｮｳ","pref":"京都府","city":"京都市西京区","address":"山田北山田町"},
{"zip_code":"6158238","kana_pref":"ｷｮｳﾄﾌ","kana_city":"ｷｮｳﾄｼﾆｼｷｮｳｸ","kana_address":"ﾔﾏﾀﾞｸﾙﾏﾂｶﾁｮｳ","pref":"京都府","city":"京都市西京区","address":"山田車塚町"},
{"zip_code":"6158262","kana_pref":"ｷｮｳﾄﾌ","kana_city":"ｷｮｳﾄｼﾆｼｷｮｳｸ","kana_address":"ﾔﾏﾀﾞｼﾉﾂﾎﾞﾁｮｳ","pref":"京都府","city":"京都市西京区","address":"山田四ノ坪町"},
{"zip_code":"6158261","kana_pref":"ｷｮｳﾄﾌ","kana_city":"ｷｮｳﾄｼﾆｼｷｮｳｸ","kana_address":"ﾔﾏﾀﾞｼｮｳﾀﾞﾁｮｳ","pref":"京都府","city":"京都市西京区","address":"山田庄田町"},
{"zip_code":"6158271","kana_pref":"ｷｮｳﾄﾌ","kana_city":"ｷｮｳﾄｼﾆｼｷｮｳｸ","kana_address":"ﾔﾏﾀﾞﾂﾙﾊｾﾞﾁｮｳ","pref":"京都府","city":"京都市西京区","address":"山田弦馳町"},
{"zip_code":"6158273","kana_pref":"ｷｮｳﾄﾌ","kana_city":"ｷｮｳﾄｼﾆｼｷｮｳｸ","kana_address":"ﾔﾏﾀﾞﾃﾞｸﾞﾁﾁｮｳ","pref":"京都府","city":"京都市西京区","address":"山田出口町"},
{"zip_code":"6158237","kana_pref":"ｷｮｳﾄﾌ","kana_city":"ｷｮｳﾄｼﾆｼｷｮｳｸ","kana_address":"ﾔﾏﾀﾞﾅｶﾖｼﾐﾁｮｳ","pref":"京都府","city":"京都市西京区","address":"山田中吉見町"},
{"zip_code":"6158251","kana_pref":"ｷｮｳﾄﾌ","kana_city":"ｷｮｳﾄｼﾆｼｷｮｳｸ","kana_address":"ﾔﾏﾀﾞﾈｺﾂｶﾁｮｳ","pref":"京都府","city":"京都市西京区","address":"山田猫塚町"},
{"zip_code":"6158255","kana_pref":"ｷｮｳﾄﾌ","kana_city":"ｷｮｳﾄｼﾆｼｷｮｳｸ","kana_address":"ﾔﾏﾀﾞﾊｺﾂﾞｶﾁｮｳ","pref":"京都府","city":"京都市西京区","address":"山田箱塚町"},
{"zip_code":"6158272","kana_pref":"ｷｮｳﾄﾌ","kana_city":"ｷｮｳﾄｼﾆｼｷｮｳｸ","kana_address":"ﾔﾏﾀﾞﾊﾀｹﾀﾞﾁｮｳ","pref":"京都府","city":"京都市西京区","address":"山田畑田町"},
{"zip_code":"6158277","kana_pref":"ｷｮｳﾄﾌ","kana_city":"ｷｮｳﾄｼﾆｼｷｮｳｸ","kana_address":"ﾔﾏﾀﾞﾊﾑﾛﾁｮｳ","pref":"京都府","city":"京都市西京区","address":"山田葉室町"},
{"zip_code":"6158263","kana_pref":"ｷｮｳﾄﾌ","kana_city":"ｷｮｳﾄｼﾆｼｷｮｳｸ","kana_address":"ﾔﾏﾀﾞﾋｻﾀﾞﾁｮｳ","pref":"京都府","city":"京都市西京区","address":"山田久田町"},
{"zip_code":"6158256","kana_pref":"ｷｮｳﾄﾌ","kana_city":"ｷｮｳﾄｼﾆｼｷｮｳｸ","kana_address":"ﾔﾏﾀﾞﾋﾗｵﾁｮｳ","pref":"京都府","city":"京都市西京区","address":"山田平尾町"},
{"zip_code":"6158276","kana_pref":"ｷｮｳﾄﾌ","kana_city":"ｷｮｳﾄｼﾆｼｷｮｳｸ","kana_address":"ﾔﾏﾀﾞﾋﾗｷﾁｮｳ","pref":"京都府","city":"京都市西京区","address":"山田開キ町"},
{"zip_code":"6158275","kana_pref":"ｷｮｳﾄﾌ","kana_city":"ｷｮｳﾄｼﾆｼｷｮｳｸ","kana_address":"ﾔﾏﾀﾞﾐﾅﾐﾁｮｳ","pref":"京都府","city":"京都市西京区","address":"山田南町"},
{"zip_code":"6158266","kana_pref":"ｷｮｳﾄﾌ","kana_city":"ｷｮｳﾄｼﾆｼｷｮｳｸ","kana_address":"ﾔﾏﾀﾞﾐﾅﾐﾔﾏﾀﾞﾁｮｳ","pref":"京都府","city":"京都市西京区","address":"山田南山田町"},
{"zip_code":"6158264","kana_pref":"ｷｮｳﾄﾌ","kana_city":"ｷｮｳﾄｼﾆｼｷｮｳｸ","kana_address":"ﾔﾏﾀﾞﾛｸﾉﾂﾎﾞﾁｮｳ","pref":"京都府","city":"京都市西京区","address":"山田六ノ坪町"}]}