{"zip_code":[
{"zip_code":"6160000","kana_pref":"ｷｮｳﾄﾌ","kana_city":"ｷｮｳﾄｼｳｷｮｳｸ","kana_address":"","pref":"京都府","city":"京都市右京区","address":""},
{"zip_code":"6168171","kana_pref":"ｷｮｳﾄﾌ","kana_city":"ｷｮｳﾄｼｳｷｮｳｸ","kana_address":"ｳｽﾞﾏｻｱｵｷｶﾞﾊﾗﾁｮｳ","pref":"京都府","city":"京都市右京区","address":"太秦青木ケ原町"},
{"zip_code":"6168172","kana_pref":"ｷｮｳﾄﾌ","kana_city":"ｷｮｳﾄｼｳｷｮｳｸ","kana_address":"ｳｽﾞﾏｻｱｵｷﾓﾄﾁｮｳ","pref":"京都府","city":"京都市右京区","address":"太秦青木元町"},
{"zip_code":"6168136","kana_pref":"ｷｮｳﾄﾌ","kana_city":"ｷｮｳﾄｼｳｷｮｳｸ","kana_address":"ｳｽﾞﾏｻｱﾗｷﾁｮｳ","pref":"京都府","city":"京都市右京区","address":"太秦荒木町"},
{"zip_code":"6168166","kana_pref":"ｷｮｳﾄﾌ","kana_city":"ｷｮｳﾄｼｳｷｮｳｸ","kana_address":"ｳｽﾞﾏｻｲｼｶﾞｷﾁｮｳ","pref":"京都府","city":"京都市右京区","address":"太秦石垣町"},
{"zip_code":"6168101","kana_pref":"ｷｮｳﾄﾌ","kana_city":"ｷｮｳﾄｼｳｷｮｳｸ","kana_address":"ｳｽﾞﾏｻｲｽﾞﾐｼｷﾌﾞﾁｮｳ","pref":"京都府","city":"京都市右京区","address":"太秦和泉式部町"},
{"zip_code":"6168107","kana_pref":"ｷｮｳﾄﾌ","kana_city":"ｷｮｳﾄｼｳｷｮｳｸ","kana_address":"ｳｽﾞﾏｻｲﾁﾉｲﾁｮｳ","pref":"京都府","city":"京都市右京区","address":"太秦一ノ井町"},
{"zip_code":"6168175","kana_pref":"ｷｮｳﾄﾌ","kana_city":"ｷｮｳﾄｼｳｷｮｳｸ","kana_address":"ｳｽﾞﾏｻｲｯﾁｮｳｼﾊﾞﾁｮｳ","pref":"京都府","city":"京都市右京区","address":"太秦一町芝町"},
{"zip_code":"6168122","kana_pref":"ｷｮｳﾄﾌ","kana_city":"ｷｮｳﾄｼｳｷｮｳｸ","kana_address":"ｳｽﾞﾏｻｲﾄﾞｶﾞｼﾞﾘﾁｮｳ","pref":"京都府","city":"京都市右京区","address":"太秦井戸ケ尻町"},
{"zip_code":"6168176","kana_pref":"ｷｮｳﾄﾌ","kana_city":"ｷｮｳﾄｼｳｷｮｳｸ","kana_address":"ｳｽﾞﾏｻｲﾇｲﾁｮｳ","pref":"京都府","city":"京都市右京区","address":"太秦乾町"},
{"zip_code":"6168177","kana_pref":"ｷｮｳﾄﾌ","kana_city":"ｷｮｳﾄｼｳｷｮｳｸ","kana_address":"ｳｽﾞﾏｻｳﾏﾂﾞｶﾁｮｳ","pref":"京都府","city":"京都市右京区","address":"太秦馬塚町"},
{"zip_code":"6168127","kana_pref":"ｷｮｳﾄﾌ","kana_city":"ｷｮｳﾄｼｳｷｮｳｸ","kana_address":"ｳｽﾞﾏｻｵｸﾄﾞﾉﾁｮｳ","pref":"京都府","city":"京都市右京区","address":"太秦奥殿町"},
{"zip_code":"6168153","kana_pref":"ｷｮｳﾄﾌ","kana_city":"ｷｮｳﾄｼｳｷｮｳｸ","kana_address":"ｳｽﾞﾏｻｵﾓｶｹﾞﾁｮｳ","pref":"京都府","city":"京都市右京区","address":"太秦面影町"},
{"zip_code":"6168123","kana_pref":"ｷｮｳﾄﾌ","kana_city":"ｷｮｳﾄｼｳｷｮｳｸ","kana_address":"ｳｽﾞﾏｻｶｲｼｮｳｼﾞﾁｮｳ","pref":"京都府","city":"京都市右京区","address":"太秦海正寺町"},
{"zip_code":"6168185","kana_pref":"ｷｮｳﾄﾌ","kana_city":"ｷｮｳﾄｼｳｷｮｳｸ","kana_address":"ｳｽﾞﾏｻｶｲﾆﾁﾁｮｳ","pref":"京都府","city":"京都市右京区","address":"太秦開日町"},
{"zip_code":"6168121","kana_pref":"ｷｮｳﾄﾌ","kana_city":"ｷｮｳﾄｼｳｷｮｳｸ","kana_address":"ｳｽﾞﾏｻｶｷｳﾁﾁｮｳ","pref":"京都府","city":"京都市右京区","address":"太秦垣内町"},
{"zip_code":"6168151","kana_pref":"ｷｮｳﾄﾌ","kana_city":"ｷｮｳﾄｼｳｷｮｳｸ","kana_address":"ｳｽﾞﾏｻｶﾀﾋﾞﾗﾉﾂｼﾞﾁｮｳ","pref":"京都府","city":"京都市右京区","address":"太秦帷子ケ辻町"},
{"zip_code":"6168165","kana_pref":"ｷｮｳﾄﾌ","kana_city":"ｷｮｳﾄｼｳｷｮｳｸ","kana_address":"ｳｽﾞﾏｻｶﾂﾗｶﾞﾊﾗﾁｮｳ","pref":"京都府","city":"京都市右京区","address":"太秦桂ケ原町"},
{"zip_code":"6168164","kana_pref":"ｷｮｳﾄﾌ","kana_city":"ｷｮｳﾄｼｳｷｮｳｸ","kana_address":"ｳｽﾞﾏｻｶﾂﾗｷﾞﾁｮｳ","pref":"京都府","city":"京都市右京区","address":"太秦桂木町"},
{"zip_code":"6168103","kana_pref":"ｷｮｳﾄﾌ","kana_city":"ｷｮｳﾄｼｳｷｮｳｸ","kana_address":"ｳｽﾞﾏｻｶﾐｹｲﾌﾞﾁｮｳ","pref":"京都府","city":"京都市右京区","address":"太秦上刑部町"},
{"zip_code":"6168173","kana_pref":"ｷｮｳﾄﾌ","kana_city":"ｷｮｳﾄｼｳｷｮｳｸ","kana_address":"ｳｽﾞﾏｻｶﾐﾉﾀﾞﾝﾁｮｳ","pref":"京都府","city":"京都市右京区","address":"太秦上ノ段町"},
{"zip_code":"6168134","kana_pref":"ｷｮｳﾄﾌ","kana_city":"ｷｮｳﾄｼｳｷｮｳｸ","kana_address":"ｳｽﾞﾏｻｶﾗﾄﾁｮｳ","pref":"京都府","city":"京都市右京区","address":"太秦唐渡町"},
{"zip_code":"6168143","kana_pref":"ｷｮｳﾄﾌ","kana_city":"ｷｮｳﾄｼｳｷｮｳｸ","kana_address":"ｳｽﾞﾏｻｶﾜﾄﾞｺﾛﾁｮｳ","pref":"京都府","city":"京都市右京区","address":"太秦川所町"},
{"zip_code":"6168182","kana_pref":"ｷｮｳﾄﾌ","kana_city":"ｷｮｳﾄｼｳｷｮｳｸ","kana_address":"ｳｽﾞﾏｻｷﾀﾛﾁｮｳ","pref":"京都府","city":"京都市右京区","address":"太秦北路町"},
{"zip_code":"6168112","kana_pref":"ｷｮｳﾄﾌ","kana_city":"ｷｮｳﾄｼｳｷｮｳｸ","kana_address":"ｳｽﾞﾏｻｷﾉｼﾀﾁｮｳ","pref":"京都府","city":"京都市右京区","address":"太秦木ノ下町"},
{"zip_code":"6168181","kana_pref":"ｷｮｳﾄﾌ","kana_city":"ｷｮｳﾄｼｳｷｮｳｸ","kana_address":"ｳｽﾞﾏｻｷｮｳﾉﾐﾁﾁｮｳ","pref":"京都府","city":"京都市右京区","address":"太秦京ノ道町"},
{"zip_code":"6168125","kana_pref":"ｷｮｳﾄﾌ","kana_city":"ｷｮｳﾄｼｳｷｮｳｸ","kana_address":"ｳｽﾞﾏｻｸﾐｲｼﾁｮｳ","pref":"京都府","city":"京都市右京区","address":"太秦組石町"},
{"zip_code":"6168157","kana_pref":"ｷｮｳﾄﾌ","kana_city":"ｷｮｳﾄｼｳｷｮｳｸ","kana_address":"ｳｽﾞﾏｻｺﾞｼｮﾉｳﾁﾁｮｳ","pref":"京都府","city":"京都市右京区","address":"太秦御所ノ内町"},
{"zip_code":"6168135","kana_pref":"ｷｮｳﾄﾌ","kana_city":"ｷｮｳﾄｼｳｷｮｳｸ","kana_address":"ｳｽﾞﾏｻｺﾃｽﾐﾁｮｳ","pref":"京都府","city":"京都市右京区","address":"太秦小手角町"},
{"zip_code":"6168187","kana_pref":"ｷｮｳﾄﾌ","kana_city":"ｷｮｳﾄｼｳｷｮｳｸ","kana_address":"ｳｽﾞﾏｻｺﾞﾘｮｳﾃﾞﾝﾁｮｳ","pref":"京都府","city":"京都市右京区","address":"太秦御領田町"},
{"zip_code":"6168192","kana_pref":"ｷｮｳﾄﾌ","kana_city":"ｷｮｳﾄｼｳｷｮｳｸ","kana_address":"ｳｽﾞﾏｻｻﾝﾋﾞﾁｮｳ","pref":"京都府","city":"京都市右京区","address":"太秦三尾町"},
{"zip_code":"6168111","kana_pref":"ｷｮｳﾄﾌ","kana_city":"ｷｮｳﾄｼｳｷｮｳｸ","kana_address":"ｳｽﾞﾏｻｼﾓｶｸﾀﾞﾁｮｳ","pref":"京都府","city":"京都市右京区","address":"太秦下角田町"},
{"zip_code":"6168104","kana_pref":"ｷｮｳﾄﾌ","kana_city":"ｷｮｳﾄｼｳｷｮｳｸ","kana_address":"ｳｽﾞﾏｻｼﾓｹｲﾌﾞﾁｮｳ","pref":"京都府","city":"京都市右京区","address":"太秦下刑部町"},
{"zip_code":"6168126","kana_pref":"ｷｮｳﾄﾌ","kana_city":"ｷｮｳﾄｼｳｷｮｳｸ","kana_address":"ｳｽﾞﾏｻｽｶﾞﾓﾄﾁｮｳ","pref":"京都府","city":"京都市右京区","address":"太秦椙ケ本町"},
{"zip_code":"6168137","kana_pref":"ｷｮｳﾄﾌ","kana_city":"ｷｮｳﾄｼｳｷｮｳｸ","kana_address":"ｳｽﾞﾏｻｽｼﾞｬｸﾁｮｳ","pref":"京都府","city":"京都市右京区","address":"太秦朱雀町"},
{"zip_code":"6168132","kana_pref":"ｷｮｳﾄﾌ","kana_city":"ｷｮｳﾄｼｳｷｮｳｸ","kana_address":"ｳｽﾞﾏｻﾀｷｶﾞﾊﾅﾁｮｳ","pref":"京都府","city":"京都市右京区","address":"太秦滝ケ花町"},
{"zip_code":"6168114","kana_pref":"ｷｮｳﾄﾌ","kana_city":"ｷｮｳﾄｼｳｷｮｳｸ","kana_address":"ｳｽﾞﾏｻﾀﾂﾐﾁｮｳ","pref":"京都府","city":"京都市右京区","address":"太秦巽町"},
{"zip_code":"6168141","kana_pref":"ｷｮｳﾄﾌ","kana_city":"ｷｮｳﾄｼｳｷｮｳｸ","kana_address":"ｳｽﾞﾏｻﾀﾅﾓﾘﾁｮｳ","pref":"京都府","city":"京都市右京区","address":"太秦棚森町"},
{"zip_code":"6168167","kana_pref":"ｷｮｳﾄﾌ","kana_city":"ｷｮｳﾄｼｳｷｮｳｸ","kana_address":"ｳｽﾞﾏｻﾀﾔﾌﾞﾁｮｳ","pref":"京都府","city":"京都市右京区","address":"太秦多薮町"},
{"zip_code":"6168174","kana_pref":"ｷｮｳﾄﾌ","kana_city":"ｷｮｳﾄｼｳｷｮｳｸ","kana_address":"ｳｽﾞﾏｻﾀﾙﾐﾔﾏﾁｮｳ","pref":"京都府","city":"京都市右京区","address":"太秦垂箕山町"},
{"zip_code":"6168124","kana_pref":"ｷｮｳﾄﾌ","kana_city":"ｷｮｳﾄｼｳｷｮｳｸ","kana_address":"ｳｽﾞﾏｻﾂｼﾞｶﾞﾓﾄﾁｮｳ","pref":"京都府","city":"京都市右京区","address":"太秦辻ケ本町"},
{"zip_code":"6168147","kana_pref":"ｷｮｳﾄﾌ","kana_city":"ｷｮｳﾄｼｳｷｮｳｸ","kana_address":"ｳｽﾞﾏｻﾂﾁﾓﾄﾁｮｳ","pref":"京都府","city":"京都市右京区","address":"太秦土本町"},
{"zip_code":"6168184","kana_pref":"ｷｮｳﾄﾌ","kana_city":"ｷｮｳﾄｼｳｷｮｳｸ","kana_address":"ｳｽﾞﾏｻﾅｶｽｼﾞﾁｮｳ","pref":"京都府","city":"京都市右京区","address":"太秦中筋町"},
{"zip_code":"6168133","kana_pref":"ｷｮｳﾄﾌ","kana_city":"ｷｮｳﾄｼｳｷｮｳｸ","kana_address":"ｳｽﾞﾏｻﾅｶﾂﾂﾐﾁｮｳ","pref":"京都府","city":"京都市右京区","address":"太秦中堤町"},
{"zip_code":"6168191","kana_pref":"ｷｮｳﾄﾌ","kana_city":"ｷｮｳﾄｼｳｷｮｳｸ","kana_address":"ｳｽﾞﾏｻﾅｶﾔﾏﾁｮｳ","pref":"京都府","city":"京都市右京区","address":"太秦中山町"},
{"zip_code":"6168156","kana_pref":"ｷｮｳﾄﾌ","kana_city":"ｷｮｳﾄｼｳｷｮｳｸ","kana_address":"ｳｽﾞﾏｻﾆｼﾉﾁｮｳ","pref":"京都府","city":"京都市右京区","address":"太秦西野町"},
{"zip_code":"6168163","kana_pref":"ｷｮｳﾄﾌ","kana_city":"ｷｮｳﾄｼｳｷｮｳｸ","kana_address":"ｳｽﾞﾏｻﾆｼﾊﾁｵｶﾁｮｳ","pref":"京都府","city":"京都市右京区","address":"太秦西蜂岡町"},
{"zip_code":"6168113","kana_pref":"ｷｮｳﾄﾌ","kana_city":"ｷｮｳﾄｼｳｷｮｳｸ","kana_address":"ｳｽﾞﾏｻﾉﾓﾄﾁｮｳ","pref":"京都府","city":"京都市右京区","address":"太秦野元町"},
{"zip_code":"6168155","kana_pref":"ｷｮｳﾄﾌ","kana_city":"ｷｮｳﾄｼｳｷｮｳｸ","kana_address":"ｳｽﾞﾏｻﾊｶﾏﾀﾞﾁｮｳ","pref":"京都府","city":"京都市右京区","address":"太秦袴田町"},
{"zip_code":"6168162","kana_pref":"ｷｮｳﾄﾌ","kana_city":"ｷｮｳﾄｼｳｷｮｳｸ","kana_address":"ｳｽﾞﾏｻﾊﾁｵｶﾁｮｳ","pref":"京都府","city":"京都市右京区","address":"太秦蜂岡町"},
{"zip_code":"6168145","kana_pref":"ｷｮｳﾄﾌ","kana_city":"ｷｮｳﾄｼｳｷｮｳｸ","kana_address":"ｳｽﾞﾏｻﾊｯﾀﾝﾀﾞﾁｮｳ","pref":"京都府","city":"京都市右京区","address":"太秦八反田町"},
{"zip_code":"6168115","kana_pref":"ｷｮｳﾄﾌ","kana_city":"ｷｮｳﾄｼｳｷｮｳｸ","kana_address":"ｳｽﾞﾏｻﾋｶﾞｼｶﾗﾄﾁｮｳ","pref":"京都府","city":"京都市右京区","address":"太秦東唐渡町"},
{"zip_code":"6168161","kana_pref":"ｷｮｳﾄﾌ","kana_city":"ｷｮｳﾄｼｳｷｮｳｸ","kana_address":"ｳｽﾞﾏｻﾋｶﾞｼﾊﾁｵｶﾁｮｳ","pref":"京都府","city":"京都市右京区","address":"太秦東蜂岡町"},
{"zip_code":"6168142","kana_pref":"ｷｮｳﾄﾌ","kana_city":"ｷｮｳﾄｼｳｷｮｳｸ","kana_address":"ｳｽﾞﾏｻﾋﾉｳﾁﾁｮｳ","pref":"京都府","city":"京都市右京区","address":"太秦樋ノ内町"},
{"zip_code":"6168131","kana_pref":"ｷｮｳﾄﾌ","kana_city":"ｷｮｳﾄｼｳｷｮｳｸ","kana_address":"ｳｽﾞﾏｻﾌｼﾞｶﾞﾓﾘﾁｮｳ","pref":"京都府","city":"京都市右京区","address":"太秦藤ケ森町"},
{"zip_code":"6168186","kana_pref":"ｷｮｳﾄﾌ","kana_city":"ｷｮｳﾄｼｳｷｮｳｸ","kana_address":"ｳｽﾞﾏｻﾎﾘｲｹﾁｮｳ","pref":"京都府","city":"京都市右京区","address":"太秦堀池町"},
{"zip_code":"6168152","kana_pref":"ｷｮｳﾄﾌ","kana_city":"ｷｮｳﾄｼｳｷｮｳｸ","kana_address":"ｳｽﾞﾏｻﾎﾘｶﾞｳﾁﾁｮｳ","pref":"京都府","city":"京都市右京区","address":"太秦堀ケ内町"},
{"zip_code":"6168146","kana_pref":"ｷｮｳﾄﾌ","kana_city":"ｷｮｳﾄｼｳｷｮｳｸ","kana_address":"ｳｽﾞﾏｻﾏｴﾉﾀﾞﾁｮｳ","pref":"京都府","city":"京都市右京区","address":"太秦前ノ田町"},
{"zip_code":"6168116","kana_pref":"ｷｮｳﾄﾌ","kana_city":"ｷｮｳﾄｼｳｷｮｳｸ","kana_address":"ｳｽﾞﾏｻﾏﾂﾓﾄﾁｮｳ","pref":"京都府","city":"京都市右京区","address":"太秦松本町"},
{"zip_code":"6168154","kana_pref":"ｷｮｳﾄﾌ","kana_city":"ｷｮｳﾄｼｳｷｮｳｸ","kana_address":"ｳｽﾞﾏｻﾐﾅｾｲｼﾞﾁｮｳ","pref":"京都府","city":"京都市右京区","address":"太秦皆正寺町"},
{"zip_code":"6168183","kana_pref":"ｷｮｳﾄﾌ","kana_city":"ｷｮｳﾄｼｳｷｮｳｸ","kana_address":"ｳｽﾞﾏｻﾐﾔﾉﾏｴﾁｮｳ","pref":"京都府","city":"京都市右京区","address":"太秦宮ノ前町"},
{"zip_code":"6168106","kana_pref":"ｷｮｳﾄﾌ","kana_city":"ｷｮｳﾄｼｳｷｮｳｸ","kana_address":"ｳｽﾞﾏｻﾓﾘｶﾞﾆｼﾁｮｳ","pref":"京都府","city":"京都市右京区","address":"太秦森ケ西町"},
{"zip_code":"6168102","kana_pref":"ｷｮｳﾄﾌ","kana_city":"ｷｮｳﾄｼｳｷｮｳｸ","kana_address":"ｳｽﾞﾏｻﾓﾘｶﾞﾋｶﾞｼﾁｮｳ","pref":"京都府","city":"京都市右京区","address":"太秦森ケ東町"},
{"zip_code":"6168105","kana_pref":"ｷｮｳﾄﾌ","kana_city":"ｷｮｳﾄｼｳｷｮｳｸ","kana_address":"ｳｽﾞﾏｻﾓﾘｶﾞﾏｴﾁｮｳ","pref":"京都府","city":"京都市右京区","address":"太秦森ケ前町"},
{"zip_code":"6168117","kana_pref":"ｷｮｳﾄﾌ","kana_city":"ｷｮｳﾄｼｳｷｮｳｸ","kana_address":"ｳｽﾞﾏｻﾓﾝﾀﾞﾁｮｳ","pref":"京都府","city":"京都市右京区","address":"太秦門田町"},
{"zip_code":"6168144","kana_pref":"ｷｮｳﾄﾌ","kana_city":"ｷｮｳﾄｼｳｷｮｳｸ","kana_address":"ｳｽﾞﾏｻﾕﾘｶﾞﾓﾄﾁｮｳ","pref":"京都府","city":"京都市右京区","address":"太秦百合ケ本町"},
{"zip_code":"6168081","kana_pref":"ｷｮｳﾄﾌ","kana_city":"ｷｮｳﾄｼｳｷｮｳｸ","kana_address":"ｳｽﾞﾏｻﾔｽｲｲｹﾀﾞﾁｮｳ","pref":"京都府","city":"京都市右京区","address":"太秦安井池田町"},
{"zip_code":"6168084","kana_pref":"ｷｮｳﾄﾌ","kana_city":"ｷｮｳﾄｼｳｷｮｳｸ","kana_address":"ｳｽﾞﾏｻﾔｽｲｲｯﾁｮｳﾃﾞﾝﾁｮｳ","pref":"京都府","city":"京都市右京区","address":"太秦安井一町田町"},
{"zip_code":"6168077","kana_pref":"ｷｮｳﾄﾌ","kana_city":"ｷｮｳﾄｼｳｷｮｳｸ","kana_address":"ｳｽﾞﾏｻﾔｽｲｳﾏﾂﾞｶﾁｮｳ","pref":"京都府","city":"京都市右京区","address":"太秦安井馬塚町"},
{"zip_code":"6168082","kana_pref":"ｷｮｳﾄﾌ","kana_city":"ｷｮｳﾄｼｳｷｮｳｸ","kana_address":"ｳｽﾞﾏｻﾔｽｲｵｸﾊﾀﾁｮｳ","pref":"京都府","city":"京都市右京区","address":"太秦安井奥畑町"},
{"zip_code":"6168062","kana_pref":"ｷｮｳﾄﾌ","kana_city":"ｷｮｳﾄｼｳｷｮｳｸ","kana_address":"ｳｽﾞﾏｻﾔｽｲｶｽｶﾞﾁｮｳ","pref":"京都府","city":"京都市右京区","address":"太秦安井春日町"},
{"zip_code":"6168064","kana_pref":"ｷｮｳﾄﾌ","kana_city":"ｷｮｳﾄｼｳｷｮｳｸ","kana_address":"ｳｽﾞﾏｻﾔｽｲｷﾀｺﾞｼｮﾁｮｳ","pref":"京都府","city":"京都市右京区","address":"太秦安井北御所町"},
{"zip_code":"6168066","kana_pref":"ｷｮｳﾄﾌ","kana_city":"ｷｮｳﾄｼｳｷｮｳｸ","kana_address":"ｳｽﾞﾏｻﾔｽｲｸﾙﾏﾐﾁﾁｮｳ","pref":"京都府","city":"京都市右京区","address":"太秦安井車道町"},
{"zip_code":"6168067","kana_pref":"ｷｮｳﾄﾌ","kana_city":"ｷｮｳﾄｼｳｷｮｳｸ","kana_address":"ｳｽﾞﾏｻﾔｽｲｺﾔﾏﾁｮｳ","pref":"京都府","city":"京都市右京区","address":"太秦安井小山町"},
{"zip_code":"6168072","kana_pref":"ｷｮｳﾄﾌ","kana_city":"ｷｮｳﾄｼｳｷｮｳｸ","kana_address":"ｳｽﾞﾏｻﾔｽｲﾀﾂﾐﾁｮｳ","pref":"京都府","city":"京都市右京区","address":"太秦安井辰巳町"},
{"zip_code":"6168076","kana_pref":"ｷｮｳﾄﾌ","kana_city":"ｷｮｳﾄｼｳｷｮｳｸ","kana_address":"ｳｽﾞﾏｻﾔｽｲﾂｼﾞﾉｳﾁﾁｮｳ","pref":"京都府","city":"京都市右京区","address":"太秦安井辻ノ内町"},
{"zip_code":"6168065","kana_pref":"ｷｮｳﾄﾌ","kana_city":"ｷｮｳﾄｼｳｷｮｳｸ","kana_address":"ｳｽﾞﾏｻﾔｽｲﾆｼｳﾗﾁｮｳ","pref":"京都府","city":"京都市右京区","address":"太秦安井西裏町"},
{"zip_code":"6168083","kana_pref":"ｷｮｳﾄﾌ","kana_city":"ｷｮｳﾄｼｳｷｮｳｸ","kana_address":"ｳｽﾞﾏｻﾔｽｲﾆｼｻﾞﾜﾁｮｳ","pref":"京都府","city":"京都市右京区","address":"太秦安井西沢町"},
{"zip_code":"6168074","kana_pref":"ｷｮｳﾄﾌ","kana_city":"ｷｮｳﾄｼｳｷｮｳｸ","kana_address":"ｳｽﾞﾏｻﾔｽｲﾆｼﾞｮｳｳﾗﾁｮｳ","pref":"京都府","city":"京都市右京区","address":"太秦安井二条裏町"},
{"zip_code":"6168063","kana_pref":"ｷｮｳﾄﾌ","kana_city":"ｷｮｳﾄｼｳｷｮｳｸ","kana_address":"ｳｽﾞﾏｻﾔｽｲﾋｶﾞｼｳﾗﾁｮｳ","pref":"京都府","city":"京都市右京区","address":"太秦安井東裏町"},
{"zip_code":"6168071","kana_pref":"ｷｮｳﾄﾌ","kana_city":"ｷｮｳﾄｼｳｷｮｳｸ","kana_address":"ｳｽﾞﾏｻﾔｽｲﾌｼﾞﾉｷﾁｮｳ","pref":"京都府","city":"京都市右京区","address":"太秦安井藤ノ木町"},
{"zip_code":"6168085","kana_pref":"ｷｮｳﾄﾌ","kana_city":"ｷｮｳﾄｼｳｷｮｳｸ","kana_address":"ｳｽﾞﾏｻﾔｽｲﾏﾂﾓﾄﾁｮｳ","pref":"京都府","city":"京都市右京区","address":"太秦安井松本町"},
{"zip_code":"6168073","kana_pref":"ｷｮｳﾄﾌ","kana_city":"ｷｮｳﾄｼｳｷｮｳｸ","kana_address":"ｳｽﾞﾏｻﾔｽｲﾐﾄﾃﾞﾝﾁｮｳ","pref":"京都府","city":"京都市右京区","address":"太秦安井水戸田町"},
{"zip_code":"6168075","kana_pref":"ｷｮｳﾄﾌ","kana_city":"ｷｮｳﾄｼｳｷｮｳｸ","kana_address":"ｳｽﾞﾏｻﾔｽｲﾔﾅｷﾞﾄﾞｵﾘﾁｮｳ","pref":"京都府","city":"京都市右京区","address":"太秦安井柳通町"},
{"zip_code":"6168204","kana_pref":"ｷｮｳﾄﾌ","kana_city":"ｷｮｳﾄｼｳｷｮｳｸ","kana_address":"ｳﾀﾉｵｲｹﾁｮｳ","pref":"京都府","city":"京都市右京区","address":"宇多野御池町"},
{"zip_code":"6168205","kana_pref":"ｷｮｳﾄﾌ","kana_city":"ｷｮｳﾄｼｳｷｮｳｸ","kana_address":"ｳﾀﾉｵﾔｼｷﾁｮｳ","pref":"京都府","city":"京都市右京区","address":"宇多野御屋敷町"},
{"zip_code":"6168252","kana_pref":"ｷｮｳﾄﾌ","kana_city":"ｷｮｳﾄｼｳｷｮｳｸ","kana_address":"ｳﾀﾉｶﾐﾉﾀﾆﾁｮｳ","pref":"京都府","city":"京都市右京区","address":"宇多野上ノ谷町"},
{"zip_code":"6168201","kana_pref":"ｷｮｳﾄﾌ","kana_city":"ｷｮｳﾄｼｳｷｮｳｸ","kana_address":"ｳﾀﾉｷﾀﾉｲﾝﾁｮｳ","pref":"京都府","city":"京都市右京区","address":"宇多野北ノ院町"},
{"zip_code":"6168203","kana_pref":"ｷｮｳﾄﾌ","kana_city":"ｷｮｳﾄｼｳｷｮｳｸ","kana_address":"ｳﾀﾉｼﾊﾞﾊｼﾁｮｳ","pref":"京都府","city":"京都市右京区","address":"宇多野柴橋町"},
{"zip_code":"6168209","kana_pref":"ｷｮｳﾄﾌ","kana_city":"ｷｮｳﾄｼｳｷｮｳｸ","kana_address":"ｳﾀﾉｼﾊﾞﾏﾁ","pref":"京都府","city":"京都市右京区","address":"宇多野芝町"},
{"zip_code":"6168207","kana_pref":"ｷｮｳﾄﾌ","kana_city":"ｷｮｳﾄｼｳｷｮｳｸ","kana_address":"ｳﾀﾉﾅｶﾞｵﾁｮｳ","pref":"京都府","city":"京都市右京区","address":"宇多野長尾町"},
{"zip_code":"6168202","kana_pref":"ｷｮｳﾄﾌ","kana_city":"ｷｮｳﾄｼｳｷｮｳｸ","kana_address":"ｳﾀﾉﾊﾞﾊﾞﾁｮｳ","pref":"京都府","city":"京都市右京区","address":"宇多野馬場町"},
{"zip_code":"6168208","kana_pref":"ｷｮｳﾄﾌ","kana_city":"ｷｮｳﾄｼｳｷｮｳｸ","kana_address":"ｳﾀﾉﾌｸｵｳｼﾞﾁｮｳ","pref":"京都府","city":"京都市右京区","address":"宇多野福王子町"},
{"zip_code":"6168206","kana_pref":"ｷｮｳﾄﾌ","kana_city":"ｷｮｳﾄｼｳｷｮｳｸ","kana_address":"ｳﾀﾉﾎｳｱﾝｼﾞﾁｮｳ","pref":"京都府","city":"京都市右京区","address":"宇多野法安寺町"},
{"zip_code":"6168272","kana_pref":"ｷｮｳﾄﾌ","kana_city":"ｷｮｳﾄｼｳｷｮｳｸ","kana_address":"ｳﾒｶﾞﾊﾀｲﾉｼﾘﾁｮｳ","pref":"京都府","city":"京都市右京区","address":"梅ケ畑猪ノ尻町"},
{"zip_code":"6168282","kana_pref":"ｷｮｳﾄﾌ","kana_city":"ｷｮｳﾄｼｳｷｮｳｸ","kana_address":"ｳﾒｶﾞﾊﾀｳｴﾄﾁｮｳ","pref":"京都府","city":"京都市右京区","address":"梅ケ畑上砥町"},
{"zip_code":"6168274","kana_pref":"ｷｮｳﾄﾌ","kana_city":"ｷｮｳﾄｼｳｷｮｳｸ","kana_address":"ｳﾒｶﾞﾊﾀｳｴﾉﾁｮｳ","pref":"京都府","city":"京都市右京区","address":"梅ケ畑上ノ町"},
{"zip_code":"6168283","kana_pref":"ｷｮｳﾄﾌ","kana_city":"ｷｮｳﾄｼｳｷｮｳｸ","kana_address":"ｳﾒｶﾞﾊﾀｵｸﾄﾉﾁｮｳ","pref":"京都府","city":"京都市右京区","address":"梅ケ畑奥殿町"},
{"zip_code":"6168275","kana_pref":"ｷｮｳﾄﾌ","kana_city":"ｷｮｳﾄｼｳｷｮｳｸ","kana_address":"ｳﾒｶﾞﾊﾀｶｶﾞﾘﾁｮｳ","pref":"京都府","city":"京都市右京区","address":"梅ケ畑篝町"},
{"zip_code":"6168297","kana_pref":"ｷｮｳﾄﾌ","kana_city":"ｷｮｳﾄｼｳｷｮｳｸ","kana_address":"ｳﾒｶﾞﾊﾀｶﾒｲｼﾁｮｳ","pref":"京都府","city":"京都市右京区","address":"梅ケ畑亀石町"},
{"zip_code":"6168296","kana_pref":"ｷｮｳﾄﾌ","kana_city":"ｷｮｳﾄｼｳｷｮｳｸ","kana_address":"ｳﾒｶﾞﾊﾀｶﾜﾆｼﾁｮｳ","pref":"京都府","city":"京都市右京区","address":"梅ケ畑川西町"},
{"zip_code":"6168281","kana_pref":"ｷｮｳﾄﾌ","kana_city":"ｷｮｳﾄｼｳｷｮｳｸ","kana_address":"ｳﾒｶﾞﾊﾀｸﾎﾞﾀﾆﾁｮｳ","pref":"京都府","city":"京都市右京区","address":"梅ケ畑久保谷町"},
{"zip_code":"6168286","kana_pref":"ｷｮｳﾄﾌ","kana_city":"ｷｮｳﾄｼｳｷｮｳｸ","kana_address":"ｳﾒｶﾞﾊﾀｺﾞｼｮﾉｸﾞﾁﾁｮｳ","pref":"京都府","city":"京都市右京区","address":"梅ケ畑御所ノ口町"},
{"zip_code":"6168288","kana_pref":"ｷｮｳﾄﾌ","kana_city":"ｷｮｳﾄｼｳｷｮｳｸ","kana_address":"ｳﾒｶﾞﾊﾀｻｻｴﾍﾞﾁｮｳ","pref":"京都府","city":"京都市右京区","address":"梅ケ畑笹江辺町"},
{"zip_code":"6168276","kana_pref":"ｷｮｳﾄﾌ","kana_city":"ｷｮｳﾄｼｳｷｮｳｸ","kana_address":"ｳﾒｶﾞﾊﾀｼﾐｽﾞﾁｮｳ","pref":"京都府","city":"京都市右京区","address":"梅ケ畑清水町"},
{"zip_code":"6168278","kana_pref":"ｷｮｳﾄﾌ","kana_city":"ｷｮｳﾄｼｳｷｮｳｸ","kana_address":"ｳﾒｶﾞﾊﾀｼｮｳﾌﾞﾀﾆ","pref":"京都府","city":"京都市右京区","address":"梅ケ畑菖蒲谷"},
{"zip_code":"6168292","kana_pref":"ｷｮｳﾄﾌ","kana_city":"ｷｮｳﾄｼｳｷｮｳｸ","kana_address":"ｳﾒｶﾞﾊﾀﾀｶｵﾁｮｳ","pref":"京都府","city":"京都市右京区","address":"梅ケ畑高雄町"},
{"zip_code":"6168261","kana_pref":"ｷｮｳﾄﾌ","kana_city":"ｷｮｳﾄｼｳｷｮｳｸ","kana_address":"ｳﾒｶﾞﾊﾀﾀｶﾊﾅﾁｮｳ","pref":"京都府","city":"京都市右京区","address":"梅ケ畑高鼻町"},
{"zip_code":"6168295","kana_pref":"ｷｮｳﾄﾌ","kana_city":"ｷｮｳﾄｼｳｷｮｳｸ","kana_address":"ｳﾒｶﾞﾊﾀﾄｶﾞﾉｵﾁｮｳ","pref":"京都府","city":"京都市右京区","address":"梅ケ畑栂尾町"},
{"zip_code":"6168293","kana_pref":"ｷｮｳﾄﾌ","kana_city":"ｷｮｳﾄｼｳｷｮｳｸ","kana_address":"ｳﾒｶﾞﾊﾀﾄﾉﾊﾀﾁｮｳ","pref":"京都府","city":"京都市右京区","address":"梅ケ畑殿畑町"},
{"zip_code":"6168287","kana_pref":"ｷｮｳﾄﾌ","kana_city":"ｷｮｳﾄｼｳｷｮｳｸ","kana_address":"ｳﾒｶﾞﾊﾀﾅｶｼﾞﾏﾁｮｳ","pref":"京都府","city":"京都市右京区","address":"梅ケ畑中嶋町"},
{"zip_code":"6168266","kana_pref":"ｷｮｳﾄﾌ","kana_city":"ｷｮｳﾄｼｳｷｮｳｸ","kana_address":"ｳﾒｶﾞﾊﾀﾅｶﾀﾁｮｳ","pref":"京都府","city":"京都市右京区","address":"梅ケ畑中田町"},
{"zip_code":"6168273","kana_pref":"ｷｮｳﾄﾌ","kana_city":"ｷｮｳﾄｼｳｷｮｳｸ","kana_address":"ｳﾒｶﾞﾊﾀﾅｶﾅﾜﾃﾁｮｳ","pref":"京都府","city":"京都市右京区","address":"梅ケ畑中縄手町"},
{"zip_code":"6168289","kana_pref":"ｷｮｳﾄﾌ","kana_city":"ｷｮｳﾄｼｳｷｮｳｸ","kana_address":"ｳﾒｶﾞﾊﾀﾆｼﾉﾊﾀﾏﾁ","pref":"京都府","city":"京都市右京区","address":"梅ケ畑西ノ畑町"},
{"zip_code":"6168263","kana_pref":"ｷｮｳﾄﾌ","kana_city":"ｷｮｳﾄｼｳｷｮｳｸ","kana_address":"ｳﾒｶﾞﾊﾀﾊﾀﾉｼﾀﾁｮｳ","pref":"京都府","city":"京都市右京区","address":"梅ケ畑畑ノ下町"},
{"zip_code":"6168265","kana_pref":"ｷｮｳﾄﾌ","kana_city":"ｷｮｳﾄｼｳｷｮｳｸ","kana_address":"ｳﾒｶﾞﾊﾀﾊﾀﾏﾁ","pref":"京都府","city":"京都市右京区","address":"梅ケ畑畑町"},
{"zip_code":"6168294","kana_pref":"ｷｮｳﾄﾌ","kana_city":"ｷｮｳﾄｼｳｷｮｳｸ","kana_address":"ｳﾒｶﾞﾊﾀﾋｷｼﾞﾁｮｳ","pref":"京都府","city":"京都市右京区","address":"梅ケ畑引地町"},
{"zip_code":"6168285","kana_pref":"ｷｮｳﾄﾌ","kana_city":"ｷｮｳﾄｼｳｷｮｳｸ","kana_address":"ｳﾒｶﾞﾊﾀﾋﾉｷﾔｼﾛﾁｮｳ","pref":"京都府","city":"京都市右京区","address":"梅ケ畑檜社町"},
{"zip_code":"6168277","kana_pref":"ｷｮｳﾄﾌ","kana_city":"ｷｮｳﾄｼｳｷｮｳｸ","kana_address":"ｳﾒｶﾞﾊﾀﾋﾛｼﾊﾞﾁｮｳ","pref":"京都府","city":"京都市右京区","address":"梅ケ畑広芝町"},
{"zip_code":"6168268","kana_pref":"ｷｮｳﾄﾌ","kana_city":"ｷｮｳﾄｼｳｷｮｳｸ","kana_address":"ｳﾒｶﾞﾊﾀﾌﾙﾀﾁｮｳ","pref":"京都府","city":"京都市右京区","address":"梅ケ畑古田町"},
{"zip_code":"6168291","kana_pref":"ｷｮｳﾄﾌ","kana_city":"ｷｮｳﾄｼｳｷｮｳｸ","kana_address":"ｳﾒｶﾞﾊﾀﾏｷﾉｵﾁｮｳ","pref":"京都府","city":"京都市右京区","address":"梅ケ畑槇尾町"},
{"zip_code":"6168284","kana_pref":"ｷｮｳﾄﾌ","kana_city":"ｷｮｳﾄｼｳｷｮｳｸ","kana_address":"ｳﾒｶﾞﾊﾀﾐｷｮｳｻｶﾁｮｳ","pref":"京都府","city":"京都市右京区","address":"梅ケ畑御経坂町"},
{"zip_code":"6168271","kana_pref":"ｷｮｳﾄﾌ","kana_city":"ｷｮｳﾄｼｳｷｮｳｸ","kana_address":"ｳﾒｶﾞﾊﾀﾐﾔﾉｸﾁﾁｮｳ","pref":"京都府","city":"京都市右京区","address":"梅ケ畑宮ノ口町"},
{"zip_code":"6168262","kana_pref":"ｷｮｳﾄﾌ","kana_city":"ｷｮｳﾄｼｳｷｮｳｸ","kana_address":"ｳﾒｶﾞﾊﾀﾑｺｳﾉﾁﾁｮｳ","pref":"京都府","city":"京都市右京区","address":"梅ケ畑向ノ地町"},
{"zip_code":"6168264","kana_pref":"ｷｮｳﾄﾌ","kana_city":"ｷｮｳﾄｼｳｷｮｳｸ","kana_address":"ｳﾒｶﾞﾊﾀﾔﾌﾞﾉｼﾀﾁｮｳ","pref":"京都府","city":"京都市右京区","address":"梅ケ畑薮ノ下町"},
{"zip_code":"6168267","kana_pref":"ｷｮｳﾄﾌ","kana_city":"ｷｮｳﾄｼｳｷｮｳｸ","kana_address":"ｳﾒｶﾞﾊﾀﾔﾏｻｷﾁｮｳ","pref":"京都府","city":"京都市右京区","address":"梅ケ畑山崎町"},
{"zip_code":"6168092","kana_pref":"ｷｮｳﾄﾌ","kana_city":"ｷｮｳﾄｼｳｷｮｳｸ","kana_address":"ｵﾑﾛｵｵｳﾁ","pref":"京都府","city":"京都市右京区","address":"御室大内"},
{"zip_code":"6168096","kana_pref":"ｷｮｳﾄﾌ","kana_city":"ｷｮｳﾄｼｳｷｮｳｸ","kana_address":"ｵﾑﾛｵｶﾉｽｿﾁｮｳ","pref":"京都府","city":"京都市右京区","address":"御室岡ノ裾町"},
{"zip_code":"6168094","kana_pref":"ｷｮｳﾄﾌ","kana_city":"ｷｮｳﾄｼｳｷｮｳｸ","kana_address":"ｵﾑﾛｺﾏﾂﾉﾁｮｳ","pref":"京都府","city":"京都市右京区","address":"御室小松野町"},
{"zip_code":"6168095","kana_pref":"ｷｮｳﾄﾌ","kana_city":"ｷｮｳﾄｼｳｷｮｳｸ","kana_address":"ｵﾑﾛｼﾊﾞﾊｼﾁｮｳ","pref":"京都府","city":"京都市右京区","address":"御室芝橋町"},
{"zip_code":"6168091","kana_pref":"ｷｮｳﾄﾌ","kana_city":"ｷｮｳﾄｼｳｷｮｳｸ","kana_address":"ｵﾑﾛｽﾐﾖｼﾔﾏﾁｮｳ","pref":"京都府","city":"京都市右京区","address":"御室住吉山町"},
{"zip_code":"6168093","kana_pref":"ｷｮｳﾄﾌ","kana_city":"ｷｮｳﾄｼｳｷｮｳｸ","kana_address":"ｵﾑﾛﾀﾃﾏﾁ","pref":"京都府","city":"京都市右京区","address":"御室竪町"},
{"zip_code":"6168097","kana_pref":"ｷｮｳﾄﾌ","kana_city":"ｷｮｳﾄｼｳｷｮｳｸ","kana_address":"ｵﾑﾛﾅﾗﾋﾞｶﾞｵｶﾁｮｳ","pref":"京都府","city":"京都市右京区","address":"御室双岡町"},
{"zip_code":"6168245","kana_pref":"ｷｮｳﾄﾌ","kana_city":"ｷｮｳﾄｼｳｷｮｳｸ","kana_address":"ｵﾝﾄﾞﾔﾏﾔﾏﾉﾁｬﾔﾁｮｳ","pref":"京都府","city":"京都市右京区","address":"音戸山山ノ茶屋町"},
{"zip_code":"6168407","kana_pref":"ｷｮｳﾄﾌ","kana_city":"ｷｮｳﾄｼｳｷｮｳｸ","kana_address":"ｷﾀｻｶﾞｱｶｻｶﾁｮｳ","pref":"京都府","city":"京都市右京区","address":"北嵯峨赤坂町"},
{"zip_code":"6168441","kana_pref":"ｷｮｳﾄﾌ","kana_city":"ｷｮｳﾄｼｳｷｮｳｸ","kana_address":"ｷﾀｻｶﾞｷﾀﾉﾀﾞﾝﾁｮｳ","pref":"京都府","city":"京都市右京区","address":"北嵯峨北ノ段町"},
{"zip_code":"6168442","kana_pref":"ｷｮｳﾄﾌ","kana_city":"ｷｮｳﾄｼｳｷｮｳｸ","kana_address":"ｷﾀｻｶﾞｷﾋﾞｼｬﾁｮｳ","pref":"京都府","city":"京都市右京区","address":"北嵯峨気比社町"},
{"zip_code":"6168406","kana_pref":"ｷｮｳﾄﾌ","kana_city":"ｷｮｳﾄｼｳｷｮｳｸ","kana_address":"ｷﾀｻｶﾞｻﾝｵｳﾁｮｳ","pref":"京都府","city":"京都市右京区","address":"北嵯峨山王町"},
{"zip_code":"6168401","kana_pref":"ｷｮｳﾄﾌ","kana_city":"ｷｮｳﾄｼｳｷｮｳｸ","kana_address":"ｷﾀｻｶﾞﾅｷﾞﾅﾀｻﾞｶﾁｮｳ","pref":"京都府","city":"京都市右京区","address":"北嵯峨長刀坂町"},
{"zip_code":"6168405","kana_pref":"ｷｮｳﾄﾌ","kana_city":"ｷｮｳﾄｼｳｷｮｳｸ","kana_address":"ｷﾀｻｶﾞﾅｺｿﾁｮｳ","pref":"京都府","city":"京都市右京区","address":"北嵯峨名古曽町"},
{"zip_code":"6168404","kana_pref":"ｷｮｳﾄﾌ","kana_city":"ｷｮｳﾄｼｳｷｮｳｸ","kana_address":"ｷﾀｻｶﾞﾊﾁｼﾞｮｳﾁｮｳ","pref":"京都府","city":"京都市右京区","address":"北嵯峨八丈町"},
{"zip_code":"6168403","kana_pref":"ｷｮｳﾄﾌ","kana_city":"ｷｮｳﾄｼｳｷｮｳｸ","kana_address":"ｷﾀｻｶﾞﾎﾗﾉｳﾁﾁｮｳ","pref":"京都府","city":"京都市右京区","address":"北嵯峨洞ノ内町"},
{"zip_code":"6168402","kana_pref":"ｷｮｳﾄﾌ","kana_city":"ｷｮｳﾄｼｳｷｮｳｸ","kana_address":"ｷﾀｻｶﾞﾛｸﾀﾞｲｼﾊﾞﾁｮｳ","pref":"京都府","city":"京都市右京区","address":"北嵯峨六代芝町"},
{"zip_code":"6168343","kana_pref":"ｷｮｳﾄﾌ","kana_city":"ｷｮｳﾄｼｳｷｮｳｸ","kana_address":"ｻｶﾞｱｻﾋﾁｮｳ","pref":"京都府","city":"京都市右京区","address":"嵯峨朝日町"},
{"zip_code":"6168458","kana_pref":"ｷｮｳﾄﾌ","kana_city":"ｷｮｳﾄｼｳｷｮｳｸ","kana_address":"ｻｶﾞｱﾀｺﾞﾁｮｳ","pref":"京都府","city":"京都市右京区","address":"嵯峨愛宕町"},
{"zip_code":"6168335","kana_pref":"ｷｮｳﾄﾌ","kana_city":"ｷｮｳﾄｼｳｷｮｳｸ","kana_address":"ｻｶﾞｲｼｶﾞﾂﾎﾞﾁｮｳ","pref":"京都府","city":"京都市右京区","address":"嵯峨石ケ坪町"},
{"zip_code":"6168365","kana_pref":"ｷｮｳﾄﾌ","kana_city":"ｷｮｳﾄｼｳｷｮｳｸ","kana_address":"ｻｶﾞｲｾﾉｶﾐﾁｮｳ","pref":"京都府","city":"京都市右京区","address":"嵯峨伊勢ノ上町"},
{"zip_code":"6168354","kana_pref":"ｷｮｳﾄﾌ","kana_city":"ｷｮｳﾄｼｳｷｮｳｸ","kana_address":"ｻｶﾞｲｯﾎﾟﾝｷﾞﾁｮｳ","pref":"京都府","city":"京都市右京区","address":"嵯峨一本木町"},
{"zip_code":"6168344","kana_pref":"ｷｮｳﾄﾌ","kana_city":"ｷｮｳﾄｼｳｷｮｳｸ","kana_address":"ｻｶﾞｳﾒﾉｷﾁｮｳ","pref":"京都府","city":"京都市右京区","address":"嵯峨梅ノ木町"},
{"zip_code":"6168411","kana_pref":"ｷｮｳﾄﾌ","kana_city":"ｷｮｳﾄｼｳｷｮｳｸ","kana_address":"ｻｶﾞｵｵｻﾜﾁｮｳ","pref":"京都府","city":"京都市右京区","address":"嵯峨大沢町"},
{"zip_code":"6168395","kana_pref":"ｷｮｳﾄﾌ","kana_city":"ｷｮｳﾄｼｳｷｮｳｸ","kana_address":"ｻｶﾞｵｸﾞﾗﾔﾏﾁｮｳ","pref":"京都府","city":"京都市右京区","address":"嵯峨小倉山町"},
{"zip_code":"6168345","kana_pref":"ｷｮｳﾄﾌ","kana_city":"ｷｮｳﾄｼｳｷｮｳｸ","kana_address":"ｻｶﾞｵﾘﾄﾁｮｳ","pref":"京都府","city":"京都市右京区","address":"嵯峨折戸町"},
{"zip_code":"6168341","kana_pref":"ｷｮｳﾄﾌ","kana_city":"ｷｮｳﾄｼｳｷｮｳｸ","kana_address":"ｻｶﾞｶﾌﾞﾄﾂﾞｶﾁｮｳ","pref":"京都府","city":"京都市右京区","address":"嵯峨甲塚町"},
{"zip_code":"6168386","kana_pref":"ｷｮｳﾄﾌ","kana_city":"ｷｮｳﾄｼｳｷｮｳｸ","kana_address":"ｻｶﾞｶﾒﾉｵﾁｮｳ","pref":"京都府","city":"京都市右京区","address":"嵯峨亀ノ尾町"},
{"zip_code":"6168387","kana_pref":"ｷｮｳﾄﾌ","kana_city":"ｷｮｳﾄｼｳｷｮｳｸ","kana_address":"ｻｶﾞｶﾒﾔﾏﾁｮｳ","pref":"京都府","city":"京都市右京区","address":"嵯峨亀山町"},
{"zip_code":"6168342","kana_pref":"ｷｮｳﾄﾌ","kana_city":"ｷｮｳﾄｼｳｷｮｳｸ","kana_address":"ｻｶﾞｶﾘﾜｹﾁｮｳ","pref":"京都府","city":"京都市右京区","address":"嵯峨苅分町"},
{"zip_code":"6168367","kana_pref":"ｷｮｳﾄﾌ","kana_city":"ｷｮｳﾄｼｳｷｮｳｸ","kana_address":"ｻｶﾞｷﾀﾎﾞﾘﾁｮｳ","pref":"京都府","city":"京都市右京区","address":"嵯峨北堀町"},
{"zip_code":"6168452","kana_pref":"ｷｮｳﾄﾌ","kana_city":"ｷｮｳﾄｼｳｷｮｳｸ","kana_address":"ｻｶﾞｷﾖﾀｷﾁｮｳ","pref":"京都府","city":"京都市右京区","address":"嵯峨清滝町"},
{"zip_code":"6168362","kana_pref":"ｷｮｳﾄﾌ","kana_city":"ｷｮｳﾄｼｳｷｮｳｸ","kana_address":"ｻｶﾞｺﾞﾄｳﾁｮｳ","pref":"京都府","city":"京都市右京区","address":"嵯峨五島町"},
{"zip_code":"6168355","kana_pref":"ｷｮｳﾄﾌ","kana_city":"ｷｮｳﾄｼｳｷｮｳｸ","kana_address":"ｻｶﾞｼﾝｸﾞｳﾁｮｳ","pref":"京都府","city":"京都市右京区","address":"嵯峨新宮町"},
{"zip_code":"6168351","kana_pref":"ｷｮｳﾄﾌ","kana_city":"ｷｮｳﾄｼｳｷｮｳｸ","kana_address":"ｻｶﾞﾂﾘﾄﾞﾉﾁｮｳ","pref":"京都府","city":"京都市右京区","address":"嵯峨釣殿町"},
{"zip_code":"6168336","kana_pref":"ｷｮｳﾄﾌ","kana_city":"ｷｮｳﾄｼｳｷｮｳｸ","kana_address":"ｻｶﾞﾄﾝﾎﾞｼﾞﾘﾁｮｳ","pref":"京都府","city":"京都市右京区","address":"嵯峨蜻蛉尻町"},
{"zip_code":"6168361","kana_pref":"ｷｮｳﾄﾌ","kana_city":"ｷｮｳﾄｼｳｷｮｳｸ","kana_address":"ｻｶﾞﾅｶﾄﾞｵﾘﾁｮｳ","pref":"京都府","city":"京都市右京区","address":"嵯峨中通町"},
{"zip_code":"6168383","kana_pref":"ｷｮｳﾄﾌ","kana_city":"ｷｮｳﾄｼｳｷｮｳｸ","kana_address":"ｻｶﾞﾅｶﾉｼﾏﾁｮｳ","pref":"京都府","city":"京都市右京区","address":"嵯峨中之島町"},
{"zip_code":"6168347","kana_pref":"ｷｮｳﾄﾌ","kana_city":"ｷｮｳﾄｼｳｷｮｳｸ","kana_address":"ｻｶﾞﾅｶﾏﾀﾁｮｳ","pref":"京都府","city":"京都市右京区","address":"嵯峨中又町"},
{"zip_code":"6168364","kana_pref":"ｷｮｳﾄﾌ","kana_city":"ｷｮｳﾄｼｳｷｮｳｸ","kana_address":"ｻｶﾞﾅｶﾔﾏﾁｮｳ","pref":"京都府","city":"京都市右京区","address":"嵯峨中山町"},
{"zip_code":"6168393","kana_pref":"ｷｮｳﾄﾌ","kana_city":"ｷｮｳﾄｼｳｷｮｳｸ","kana_address":"ｻｶﾞﾉﾉﾐﾔﾁｮｳ","pref":"京都府","city":"京都市右京区","address":"嵯峨野々宮町"},
{"zip_code":"6168301","kana_pref":"ｷｮｳﾄﾌ","kana_city":"ｷｮｳﾄｼｳｷｮｳｸ","kana_address":"ｻｶﾞﾋﾛｻﾜﾁｮｳ","pref":"京都府","city":"京都市右京区","address":"嵯峨広沢町"},
{"zip_code":"6168334","kana_pref":"ｷｮｳﾄﾌ","kana_city":"ｷｮｳﾄｼｳｷｮｳｸ","kana_address":"ｻｶﾞﾌｼﾊﾗﾁｮｳ","pref":"京都府","city":"京都市右京区","address":"嵯峨罧原町"},
{"zip_code":"6168337","kana_pref":"ｷｮｳﾄﾌ","kana_city":"ｷｮｳﾄｼｳｷｮｳｸ","kana_address":"ｻｶﾞﾐｮｳｼﾞｮｳﾁｮｳ","pref":"京都府","city":"京都市右京区","address":"嵯峨明星町"},
{"zip_code":"6168363","kana_pref":"ｷｮｳﾄﾌ","kana_city":"ｷｮｳﾄｼｳｷｮｳｸ","kana_address":"ｻｶﾞﾔﾅｷﾞﾀﾞﾁｮｳ","pref":"京都府","city":"京都市右京区","address":"嵯峨柳田町"},
{"zip_code":"6168352","kana_pref":"ｷｮｳﾄﾌ","kana_city":"ｷｮｳﾄｼｳｷｮｳｸ","kana_address":"ｻｶﾞｵｵｻﾜｵﾁｸﾎﾞﾁｮｳ","pref":"京都府","city":"京都市右京区","address":"嵯峨大沢落久保町"},
{"zip_code":"6168353","kana_pref":"ｷｮｳﾄﾌ","kana_city":"ｷｮｳﾄｼｳｷｮｳｸ","kana_address":"ｻｶﾞｵｵｻﾜﾔﾅｷﾞｲﾃﾞﾁｮｳ","pref":"京都府","city":"京都市右京区","address":"嵯峨大沢柳井手町"},
{"zip_code":"6168397","kana_pref":"ｷｮｳﾄﾌ","kana_city":"ｷｮｳﾄｼｳｷｮｳｸ","kana_address":"ｻｶﾞｵｸﾞﾗﾔﾏｵｸﾞﾗﾁｮｳ","pref":"京都府","city":"京都市右京区","address":"嵯峨小倉山小倉町"},
{"zip_code":"6168394","kana_pref":"ｷｮｳﾄﾌ","kana_city":"ｷｮｳﾄｼｳｷｮｳｸ","kana_address":"ｻｶﾞｵｸﾞﾗﾔﾏﾀﾌﾞﾁﾔﾏﾁｮｳ","pref":"京都府","city":"京都市右京区","address":"嵯峨小倉山田渕山町"},
{"zip_code":"6168392","kana_pref":"ｷｮｳﾄﾌ","kana_city":"ｷｮｳﾄｼｳｷｮｳｸ","kana_address":"ｻｶﾞｵｸﾞﾗﾔﾏﾄﾞｳﾉﾏｴﾁｮｳ","pref":"京都府","city":"京都市右京区","address":"嵯峨小倉山堂ノ前町"},
{"zip_code":"6168391","kana_pref":"ｷｮｳﾄﾌ","kana_city":"ｷｮｳﾄｼｳｷｮｳｸ","kana_address":"ｻｶﾞｵｸﾞﾗﾔﾏﾋﾉﾐｮｳｼﾞﾝﾁｮｳ","pref":"京都府","city":"京都市右京区","address":"嵯峨小倉山緋明神町"},
{"zip_code":"6168396","kana_pref":"ｷｮｳﾄﾌ","kana_city":"ｷｮｳﾄｼｳｷｮｳｸ","kana_address":"ｻｶﾞｵｸﾞﾗﾔﾏﾔﾏﾓﾄﾁｮｳ","pref":"京都府","city":"京都市右京区","address":"嵯峨小倉山山本町"},
{"zip_code":"6168445","kana_pref":"ｷｮｳﾄﾌ","kana_city":"ｷｮｳﾄｼｳｷｮｳｸ","kana_address":"ｻｶﾞｶﾝｸｳｼﾞｵｶｻﾞｷﾁｮｳ","pref":"京都府","city":"京都市右京区","address":"嵯峨観空寺岡崎町"},
{"zip_code":"6168444","kana_pref":"ｷｮｳﾄﾌ","kana_city":"ｷｮｳﾄｼｳｷｮｳｸ","kana_address":"ｻｶﾞｶﾝｸｳｼﾞｸﾎﾞﾃﾞﾝﾁｮｳ","pref":"京都府","city":"京都市右京区","address":"嵯峨観空寺久保殿町"},
{"zip_code":"6168446","kana_pref":"ｷｮｳﾄﾌ","kana_city":"ｷｮｳﾄｼｳｷｮｳｸ","kana_address":"ｻｶﾞｶﾝｸｳｼﾞﾀﾞﾆﾁｮｳ","pref":"京都府","city":"京都市右京区","address":"嵯峨観空寺谷町"},
{"zip_code":"6168443","kana_pref":"ｷｮｳﾄﾌ","kana_city":"ｷｮｳﾄｼｳｷｮｳｸ","kana_address":"ｻｶﾞｶﾝｸｳｼﾞﾐｮｳｽﾞｲﾁｮｳ","pref":"京都府","city":"京都市右京区","address":"嵯峨観空寺明水町"},
{"zip_code":"6168451","kana_pref":"ｷｮｳﾄﾌ","kana_city":"ｷｮｳﾄｼｳｷｮｳｸ","kana_address":"ｻｶﾞｷﾖﾀｷｲｯｶﾋｮｳﾁｮｳ","pref":"京都府","city":"京都市右京区","address":"嵯峨清滝一華表町"},
{"zip_code":"6168453","kana_pref":"ｷｮｳﾄﾌ","kana_city":"ｷｮｳﾄｼｳｷｮｳｸ","kana_address":"ｻｶﾞｷﾖﾀｷｵｵﾀﾆﾁｮｳ","pref":"京都府","city":"京都市右京区","address":"嵯峨清滝大谷町"},
{"zip_code":"6168457","kana_pref":"ｷｮｳﾄﾌ","kana_city":"ｷｮｳﾄｼｳｷｮｳｸ","kana_address":"ｻｶﾞｷﾖﾀｷｸｳﾔﾀﾞｷﾁｮｳ","pref":"京都府","city":"京都市右京区","address":"嵯峨清滝空也滝町"},
{"zip_code":"6168455","kana_pref":"ｷｮｳﾄﾌ","kana_city":"ｷｮｳﾄｼｳｷｮｳｸ","kana_address":"ｻｶﾞｷﾖﾀｷﾀﾂﾞﾊﾗﾁｮｳ","pref":"京都府","city":"京都市右京区","address":"嵯峨清滝田鶴原町"},
{"zip_code":"6168456","kana_pref":"ｷｮｳﾄﾌ","kana_city":"ｷｮｳﾄｼｳｷｮｳｸ","kana_address":"ｻｶﾞｷﾖﾀｷﾂｷﾉﾜﾁｮｳ","pref":"京都府","city":"京都市右京区","address":"嵯峨清滝月ノ輪町"},
{"zip_code":"6168454","kana_pref":"ｷｮｳﾄﾌ","kana_city":"ｷｮｳﾄｼｳｷｮｳｸ","kana_address":"ｻｶﾞｷﾖﾀｷﾌｶﾀﾆﾁｮｳ","pref":"京都府","city":"京都市右京区","address":"嵯峨清滝深谷町"},
{"zip_code":"6168491","kana_pref":"ｷｮｳﾄﾌ","kana_city":"ｷｮｳﾄｼｳｷｮｳｸ","kana_address":"ｻｶﾞｺｼﾊﾀｷﾀﾉﾁｮｳ","pref":"京都府","city":"京都市右京区","address":"嵯峨越畑北ノ町"},
{"zip_code":"6168482","kana_pref":"ｷｮｳﾄﾌ","kana_city":"ｷｮｳﾄｼｳｷｮｳｸ","kana_address":"ｻｶﾞｺｼﾊﾀｼｮｳｺﾞﾝｼﾞｮｳ","pref":"京都府","city":"京都市右京区","address":"嵯峨越畑正権条"},
{"zip_code":"6168494","kana_pref":"ｷｮｳﾄﾌ","kana_city":"ｷｮｳﾄｼｳｷｮｳｸ","kana_address":"ｻｶﾞｺｼﾊﾀｼﾘﾀﾆ","pref":"京都府","city":"京都市右京区","address":"嵯峨越畑尻谷"},
{"zip_code":"6168484","kana_pref":"ｷｮｳﾄﾌ","kana_city":"ｷｮｳﾄｼｳｷｮｳｸ","kana_address":"ｻｶﾞｺｼﾊﾀｽｼﾞﾁｶﾞｲ","pref":"京都府","city":"京都市右京区","address":"嵯峨越畑筋違"},
{"zip_code":"6168492","kana_pref":"ｷｮｳﾄﾌ","kana_city":"ｷｮｳﾄｼｳｷｮｳｸ","kana_address":"ｻｶﾞｺｼﾊﾀﾃﾝｹｲ","pref":"京都府","city":"京都市右京区","address":"嵯峨越畑天慶"},
{"zip_code":"6168487","kana_pref":"ｷｮｳﾄﾌ","kana_city":"ｷｮｳﾄｼｳｷｮｳｸ","kana_address":"ｻｶﾞｺｼﾊﾀﾅｶﾉﾁｮｳ","pref":"京都府","city":"京都市右京区","address":"嵯峨越畑中ノ町"},
{"zip_code":"6168483","kana_pref":"ｷｮｳﾄﾌ","kana_city":"ｷｮｳﾄｼｳｷｮｳｸ","kana_address":"ｻｶﾞｺｼﾊﾀﾅﾍﾞｳﾗ","pref":"京都府","city":"京都市右京区","address":"嵯峨越畑鍋浦"},
{"zip_code":"6168485","kana_pref":"ｷｮｳﾄﾌ","kana_city":"ｷｮｳﾄｼｳｷｮｳｸ","kana_address":"ｻｶﾞｺｼﾊﾀﾋｮｳｺﾞﾏｴﾁｮｳ","pref":"京都府","city":"京都市右京区","address":"嵯峨越畑兵庫前町"},
{"zip_code":"6168486","kana_pref":"ｷｮｳﾄﾌ","kana_city":"ｷｮｳﾄｼｳｷｮｳｸ","kana_address":"ｻｶﾞｺｼﾊﾀﾐﾅﾐﾉﾁｮｳ","pref":"京都府","city":"京都市右京区","address":"嵯峨越畑南ノ町"},
{"zip_code":"6168481","kana_pref":"ｷｮｳﾄﾌ","kana_city":"ｷｮｳﾄｼｳｷｮｳｸ","kana_address":"ｻｶﾞｺｼﾊﾀﾓﾓﾊﾗ","pref":"京都府","city":"京都市右京区","address":"嵯峨越畑桃原"},
{"zip_code":"6168493","kana_pref":"ｷｮｳﾄﾌ","kana_city":"ｷｮｳﾄｼｳｷｮｳｸ","kana_address":"ｻｶﾞｺｼﾊﾀﾓﾓﾊﾗｶﾞｲﾁ","pref":"京都府","city":"京都市右京区","address":"嵯峨越畑桃原垣内"},
{"zip_code":"6168471","kana_pref":"ｷｮｳﾄﾌ","kana_city":"ｷｮｳﾄｼｳｷｮｳｸ","kana_address":"ｻｶﾞｼｷﾐｶﾞﾊﾗｲﾅﾘﾓﾄﾁｮｳ","pref":"京都府","city":"京都市右京区","address":"嵯峨樒原稲荷元町"},
{"zip_code":"6168474","kana_pref":"ｷｮｳﾄﾌ","kana_city":"ｷｮｳﾄｼｳｷｮｳｸ","kana_address":"ｻｶﾞｼｷﾐｶﾞﾊﾗｼﾐｽﾞﾁｮｳ","pref":"京都府","city":"京都市右京区","address":"嵯峨樒原清水町"},
{"zip_code":"6168472","kana_pref":"ｷｮｳﾄﾌ","kana_city":"ｷｮｳﾄｼｳｷｮｳｸ","kana_address":"ｻｶﾞｼｷﾐｶﾞﾊﾗﾀｶﾐﾁｮｳ","pref":"京都府","city":"京都市右京区","address":"嵯峨樒原高見町"},
{"zip_code":"6168475","kana_pref":"ｷｮｳﾄﾌ","kana_city":"ｷｮｳﾄｼｳｷｮｳｸ","kana_address":"ｻｶﾞｼｷﾐｶﾞﾊﾗﾐﾔﾉｳｴﾁｮｳ","pref":"京都府","city":"京都市右京区","address":"嵯峨樒原宮ノ上町"},
{"zip_code":"6168473","kana_pref":"ｷｮｳﾄﾌ","kana_city":"ｷｮｳﾄｼｳｷｮｳｸ","kana_address":"ｻｶﾞｼｷﾐｶﾞﾊﾗﾜｶﾐﾔｼﾀﾁｮｳ","pref":"京都府","city":"京都市右京区","address":"嵯峨樒原若宮下町"},
{"zip_code":"6168422","kana_pref":"ｷｮｳﾄﾌ","kana_city":"ｷｮｳﾄｼｳｷｮｳｸ","kana_address":"ｻｶﾞｼｬｶﾄﾞｳﾀﾞｲﾓﾝﾁｮｳ","pref":"京都府","city":"京都市右京区","address":"嵯峨釈迦堂大門町"},
{"zip_code":"6168447","kana_pref":"ｷｮｳﾄﾌ","kana_city":"ｷｮｳﾄｼｳｷｮｳｸ","kana_address":"ｻｶﾞｼｬｶﾄﾞｳﾌｼﾞﾉｷﾁｮｳ","pref":"京都府","city":"京都市右京区","address":"嵯峨釈迦堂藤ノ木町"},
{"zip_code":"6168423","kana_pref":"ｷｮｳﾄﾌ","kana_city":"ｷｮｳﾄｼｳｷｮｳｸ","kana_address":"ｻｶﾞｼｬｶﾄﾞｳﾓﾝｾﾞﾝｳﾗﾔﾅｷﾞﾁｮｳ","pref":"京都府","city":"京都市右京区","address":"嵯峨釈迦堂門前裏柳町"},
{"zip_code":"6168421","kana_pref":"ｷｮｳﾄﾌ","kana_city":"ｷｮｳﾄｼｳｷｮｳｸ","kana_address":"ｻｶﾞｼｬｶﾄﾞｳﾓﾝｾﾞﾝｾﾄｶﾞﾜﾁｮｳ","pref":"京都府","city":"京都市右京区","address":"嵯峨釈迦堂門前瀬戸川町"},
{"zip_code":"6168424","kana_pref":"ｷｮｳﾄﾌ","kana_city":"ｷｮｳﾄｼｳｷｮｳｸ","kana_address":"ｻｶﾞｼｬｶﾄﾞｳﾓﾝｾﾞﾝﾐﾅﾐﾁｭｳｲﾝﾁｮｳ","pref":"京都府","city":"京都市右京区","address":"嵯峨釈迦堂門前南中院町"},
{"zip_code":"6168416","kana_pref":"ｷｮｳﾄﾌ","kana_city":"ｷｮｳﾄｼｳｷｮｳｸ","kana_address":"ｻｶﾞﾀﾞｲｶｸｼﾞﾓﾝｾﾞﾝｲﾄｳﾁｮｳ","pref":"京都府","city":"京都市右京区","address":"嵯峨大覚寺門前井頭町"},
{"zip_code":"6168413","kana_pref":"ｷｮｳﾄﾌ","kana_city":"ｷｮｳﾄｼｳｷｮｳｸ","kana_address":"ｻｶﾞﾀﾞｲｶｸｼﾞﾓﾝｾﾞﾝﾄﾞｳﾉﾏｴﾁｮｳ","pref":"京都府","city":"京都市右京区","address":"嵯峨大覚寺門前堂ノ前町"},
{"zip_code":"6168412","kana_pref":"ｷｮｳﾄﾌ","kana_city":"ｷｮｳﾄｼｳｷｮｳｸ","kana_address":"ｻｶﾞﾀﾞｲｶｸｼﾞﾓﾝｾﾞﾝﾉﾎﾞﾘﾁｮｳ","pref":"京都府","city":"京都市右京区","address":"嵯峨大覚寺門前登り町"},
{"zip_code":"6168414","kana_pref":"ｷｮｳﾄﾌ","kana_city":"ｷｮｳﾄｼｳｷｮｳｸ","kana_address":"ｻｶﾞﾀﾞｲｶｸｼﾞﾓﾝｾﾞﾝﾊｯｹﾝﾁｮｳ","pref":"京都府","city":"京都市右京区","address":"嵯峨大覚寺門前八軒町"},
{"zip_code":"6168415","kana_pref":"ｷｮｳﾄﾌ","kana_city":"ｷｮｳﾄｼｳｷｮｳｸ","kana_address":"ｻｶﾞﾀﾞｲｶｸｼﾞﾓﾝｾﾞﾝﾐﾔﾉｼﾀﾁｮｳ","pref":"京都府","city":"京都市右京区","address":"嵯峨大覚寺門前宮ノ下町"},
{"zip_code":"6168417","kana_pref":"ｷｮｳﾄﾌ","kana_city":"ｷｮｳﾄｼｳｷｮｳｸ","kana_address":"ｻｶﾞﾀﾞｲｶｸｼﾞﾓﾝｾﾞﾝﾛｸﾄﾞｳﾁｮｳ","pref":"京都府","city":"京都市右京区","address":"嵯峨大覚寺門前六道町"},
{"zip_code":"6168346","kana_pref":"ｷｮｳﾄﾌ","kana_city":"ｷｮｳﾄｼｳｷｮｳｸ","kana_address":"ｻｶﾞﾃﾝﾘｭｳｼﾞｱﾌﾞﾗｶｹﾁｮｳ","pref":"京都府","city":"京都市右京区","address":"嵯峨天龍寺油掛町"},
{"zip_code":"6168366","kana_pref":"ｷｮｳﾄﾌ","kana_city":"ｷｮｳﾄｼｳｷｮｳｸ","kana_address":"ｻｶﾞﾃﾝﾘｭｳｼﾞｲﾏﾎﾘﾁｮｳ","pref":"京都府","city":"京都市右京区","address":"嵯峨天龍寺今堀町"},
{"zip_code":"6168374","kana_pref":"ｷｮｳﾄﾌ","kana_city":"ｷｮｳﾄｼｳｷｮｳｸ","kana_address":"ｻｶﾞﾃﾝﾘｭｳｼﾞｷﾀﾂｸﾘﾐﾁﾁｮｳ","pref":"京都府","city":"京都市右京区","address":"嵯峨天龍寺北造路町"},
{"zip_code":"6168373","kana_pref":"ｷｮｳﾄﾌ","kana_city":"ｷｮｳﾄｼｳｷｮｳｸ","kana_address":"ｻｶﾞﾃﾝﾘｭｳｼﾞｸﾙﾏﾐﾁﾁｮｳ","pref":"京都府","city":"京都市右京区","address":"嵯峨天龍寺車道町"},
{"zip_code":"6168357","kana_pref":"ｷｮｳﾄﾌ","kana_city":"ｷｮｳﾄｼｳｷｮｳｸ","kana_address":"ｻｶﾞﾃﾝﾘｭｳｼﾞｼｲﾉﾁｮｳ","pref":"京都府","city":"京都市右京区","address":"嵯峨天龍寺椎野町"},
{"zip_code":"6168385","kana_pref":"ｷｮｳﾄﾌ","kana_city":"ｷｮｳﾄｼｳｷｮｳｸ","kana_address":"ｻｶﾞﾃﾝﾘｭｳｼﾞｽｽｷﾉﾊﾞﾊﾞﾁｮｳ","pref":"京都府","city":"京都市右京区","address":"嵯峨天龍寺芒ノ馬場町"},
{"zip_code":"6168382","kana_pref":"ｷｮｳﾄﾌ","kana_city":"ｷｮｳﾄｼｳｷｮｳｸ","kana_address":"ｻｶﾞﾃﾝﾘｭｳｼﾞｽﾐﾉｸﾗﾁｮｳ","pref":"京都府","city":"京都市右京区","address":"嵯峨天龍寺角倉町"},
{"zip_code":"6168376","kana_pref":"ｷｮｳﾄﾌ","kana_city":"ｷｮｳﾄｼｳｷｮｳｸ","kana_address":"ｻｶﾞﾃﾝﾘｭｳｼﾞｾﾄｶﾞﾜﾁｮｳ","pref":"京都府","city":"京都市右京区","address":"嵯峨天龍寺瀬戸川町"},
{"zip_code":"6168375","kana_pref":"ｷｮｳﾄﾌ","kana_city":"ｷｮｳﾄｼｳｷｮｳｸ","kana_address":"ｻｶﾞﾃﾝﾘｭｳｼﾞﾀﾃｲｼﾁｮｳ","pref":"京都府","city":"京都市右京区","address":"嵯峨天龍寺立石町"},
{"zip_code":"6168384","kana_pref":"ｷｮｳﾄﾌ","kana_city":"ｷｮｳﾄｼｳｷｮｳｸ","kana_address":"ｻｶﾞﾃﾝﾘｭｳｼﾞﾂｸﾘﾐﾁﾁｮｳ","pref":"京都府","city":"京都市右京区","address":"嵯峨天龍寺造路町"},
{"zip_code":"6168356","kana_pref":"ｷｮｳﾄﾌ","kana_city":"ｷｮｳﾄｼｳｷｮｳｸ","kana_address":"ｻｶﾞﾃﾝﾘｭｳｼﾞﾅｶｼﾞﾏﾁｮｳ","pref":"京都府","city":"京都市右京区","address":"嵯峨天龍寺中島町"},
{"zip_code":"6168372","kana_pref":"ｷｮｳﾄﾌ","kana_city":"ｷｮｳﾄｼｳｷｮｳｸ","kana_address":"ｻｶﾞﾃﾝﾘｭｳｼﾞﾋﾛﾐﾁﾁｮｳ","pref":"京都府","city":"京都市右京区","address":"嵯峨天龍寺広道町"},
{"zip_code":"6168381","kana_pref":"ｷｮｳﾄﾌ","kana_city":"ｷｮｳﾄｼｳｷｮｳｸ","kana_address":"ｻｶﾞﾃﾝﾘｭｳｼﾞﾘｭｳﾓﾝﾁｮｳ","pref":"京都府","city":"京都市右京区","address":"嵯峨天龍寺龍門町"},
{"zip_code":"6168371","kana_pref":"ｷｮｳﾄﾌ","kana_city":"ｷｮｳﾄｼｳｷｮｳｸ","kana_address":"ｻｶﾞﾃﾝﾘｭｳｼﾞﾜｶﾐﾔﾁｮｳ","pref":"京都府","city":"京都市右京区","address":"嵯峨天龍寺若宮町"},
{"zip_code":"6168436","kana_pref":"ｷｮｳﾄﾌ","kana_city":"ｷｮｳﾄｼｳｷｮｳｸ","kana_address":"ｻｶﾞﾄﾘｲﾓﾄｱﾀﾞｼﾉﾁｮｳ","pref":"京都府","city":"京都市右京区","address":"嵯峨鳥居本化野町"},
{"zip_code":"6168431","kana_pref":"ｷｮｳﾄﾌ","kana_city":"ｷｮｳﾄｼｳｷｮｳｸ","kana_address":"ｻｶﾞﾄﾘｲﾓﾄｲｯｶﾋｮｳﾁｮｳ","pref":"京都府","city":"京都市右京区","address":"嵯峨鳥居本一華表町"},
{"zip_code":"6168432","kana_pref":"ｷｮｳﾄﾌ","kana_city":"ｷｮｳﾄｼｳｷｮｳｸ","kana_address":"ｻｶﾞﾄﾘｲﾓﾄｷﾀﾀﾞｲﾁｮｳ","pref":"京都府","city":"京都市右京区","address":"嵯峨鳥居本北代町"},
{"zip_code":"6168435","kana_pref":"ｷｮｳﾄﾌ","kana_city":"ｷｮｳﾄｼｳｷｮｳｸ","kana_address":"ｻｶﾞﾄﾘｲﾓﾄｺｻﾞｶﾁｮｳ","pref":"京都府","city":"京都市右京区","address":"嵯峨鳥居本小坂町"},
{"zip_code":"6168437","kana_pref":"ｷｮｳﾄﾌ","kana_city":"ｷｮｳﾄｼｳｷｮｳｸ","kana_address":"ｻｶﾞﾄﾘｲﾓﾄｾﾝﾉｳﾁｮｳ","pref":"京都府","city":"京都市右京区","address":"嵯峨鳥居本仙翁町"},
{"zip_code":"6168433","kana_pref":"ｷｮｳﾄﾌ","kana_city":"ｷｮｳﾄｼｳｷｮｳｸ","kana_address":"ｻｶﾞﾄﾘｲﾓﾄﾅｶｽｼﾞﾁｮｳ","pref":"京都府","city":"京都市右京区","address":"嵯峨鳥居本中筋町"},
{"zip_code":"6168439","kana_pref":"ｷｮｳﾄﾌ","kana_city":"ｷｮｳﾄｼｳｷｮｳｸ","kana_address":"ｻｶﾞﾄﾘｲﾓﾄﾌｶﾀﾆﾁｮｳ","pref":"京都府","city":"京都市右京区","address":"嵯峨鳥居本深谷町"},
{"zip_code":"6168434","kana_pref":"ｷｮｳﾄﾌ","kana_city":"ｷｮｳﾄｼｳｷｮｳｸ","kana_address":"ｻｶﾞﾄﾘｲﾓﾄﾌﾞﾂｼｮｳﾃﾞﾝﾁｮｳ","pref":"京都府","city":"京都市右京区","address":"嵯峨鳥居本仏餉田町"},
{"zip_code":"6168438","kana_pref":"ｷｮｳﾄﾌ","kana_city":"ｷｮｳﾄｼｳｷｮｳｸ","kana_address":"ｻｶﾞﾄﾘｲﾓﾄﾛｸﾀﾝﾁｮｳ","pref":"京都府","city":"京都市右京区","address":"嵯峨鳥居本六反町"},
{"zip_code":"6168426","kana_pref":"ｷｮｳﾄﾌ","kana_city":"ｷｮｳﾄｼｳｷｮｳｸ","kana_address":"ｻｶﾞﾆｿﾝｲﾝﾓﾝｾﾞﾝｵｳｼﾞｮｳｲﾝﾁｮｳ","pref":"京都府","city":"京都市右京区","address":"嵯峨二尊院門前往生院町"},
{"zip_code":"6168428","kana_pref":"ｷｮｳﾄﾌ","kana_city":"ｷｮｳﾄｼｳｷｮｳｸ","kana_address":"ｻｶﾞﾆｿﾝｲﾝﾓﾝｾﾞﾝｷﾀﾁｭｳｲﾝﾁｮｳ","pref":"京都府","city":"京都市右京区","address":"嵯峨二尊院門前北中院町"},
{"zip_code":"6168427","kana_pref":"ｷｮｳﾄﾌ","kana_city":"ｷｮｳﾄｼｳｷｮｳｸ","kana_address":"ｻｶﾞﾆｿﾝｲﾝﾓﾝｾﾞﾝｾﾞﾝｺｳｼﾞﾔﾏﾁｮｳ","pref":"京都府","city":"京都市右京区","address":"嵯峨二尊院門前善光寺山町"},
{"zip_code":"6168425","kana_pref":"ｷｮｳﾄﾌ","kana_city":"ｷｮｳﾄｼｳｷｮｳｸ","kana_address":"ｻｶﾞﾆｿﾝｲﾝﾓﾝｾﾞﾝﾁｮｳｼﾞﾝﾁｮｳ","pref":"京都府","city":"京都市右京区","address":"嵯峨二尊院門前長神町"},
{"zip_code":"6168314","kana_pref":"ｷｮｳﾄﾌ","kana_city":"ｷｮｳﾄｼｳｷｮｳｸ","kana_address":"ｻｶﾞﾉｱｷｶｲﾄﾞｳﾁｮｳ","pref":"京都府","city":"京都市右京区","address":"嵯峨野秋街道町"},
{"zip_code":"6168316","kana_pref":"ｷｮｳﾄﾌ","kana_city":"ｷｮｳﾄｼｳｷｮｳｸ","kana_address":"ｻｶﾞﾉｱﾘｽｶﾞﾜﾁｮｳ","pref":"京都府","city":"京都市右京区","address":"嵯峨野有栖川町"},
{"zip_code":"6168331","kana_pref":"ｷｮｳﾄﾌ","kana_city":"ｷｮｳﾄｼｳｷｮｳｸ","kana_address":"ｻｶﾞﾉｳﾁﾀﾞﾁｮｳ","pref":"京都府","city":"京都市右京区","address":"嵯峨野内田町"},
{"zip_code":"6168317","kana_pref":"ｷｮｳﾄﾌ","kana_city":"ｷｮｳﾄｼｳｷｮｳｸ","kana_address":"ｻｶﾞﾉｶﾐﾉｷﾁｮｳ","pref":"京都府","city":"京都市右京区","address":"嵯峨野神ノ木町"},
{"zip_code":"6168332","kana_pref":"ｷｮｳﾄﾌ","kana_city":"ｷｮｳﾄｼｳｷｮｳｸ","kana_address":"ｻｶﾞﾉｷﾀﾉﾁｮｳ","pref":"京都府","city":"京都市右京区","address":"嵯峨野北野町"},
{"zip_code":"6168311","kana_pref":"ｷｮｳﾄﾌ","kana_city":"ｷｮｳﾄｼｳｷｮｳｸ","kana_address":"ｻｶﾞﾉｻｶﾞﾉﾀﾞﾝﾏﾁ","pref":"京都府","city":"京都市右京区","address":"嵯峨野嵯峨ノ段町"},
{"zip_code":"6168322","kana_pref":"ｷｮｳﾄﾌ","kana_city":"ｷｮｳﾄｼｳｷｮｳｸ","kana_address":"ｻｶﾞﾉｼﾊﾞﾉﾁｮｳ","pref":"京都府","city":"京都市右京区","address":"嵯峨野芝野町"},
{"zip_code":"6168312","kana_pref":"ｷｮｳﾄﾌ","kana_city":"ｷｮｳﾄｼｳｷｮｳｸ","kana_address":"ｻｶﾞﾉｼﾐｽﾞﾁｮｳ","pref":"京都府","city":"京都市右京区","address":"嵯峨野清水町"},
{"zip_code":"6168325","kana_pref":"ｷｮｳﾄﾌ","kana_city":"ｷｮｳﾄｼｳｷｮｳｸ","kana_address":"ｻｶﾞﾉﾀｶﾀﾞﾁｮｳ","pref":"京都府","city":"京都市右京区","address":"嵯峨野高田町"},
{"zip_code":"6168321","kana_pref":"ｷｮｳﾄﾌ","kana_city":"ｷｮｳﾄｼｳｷｮｳｸ","kana_address":"ｻｶﾞﾉﾁﾖﾉﾐﾁﾁｮｳ","pref":"京都府","city":"京都市右京区","address":"嵯峨野千代ノ道町"},
{"zip_code":"6168323","kana_pref":"ｷｮｳﾄﾌ","kana_city":"ｷｮｳﾄｼｳｷｮｳｸ","kana_address":"ｻｶﾞﾉﾅｹﾞﾌﾞﾁﾁｮｳ","pref":"京都府","city":"京都市右京区","address":"嵯峨野投渕町"},
{"zip_code":"6168333","kana_pref":"ｷｮｳﾄﾌ","kana_city":"ｷｮｳﾄｼｳｷｮｳｸ","kana_address":"ｻｶﾞﾉﾆｼﾉﾌｼﾞﾁｮｳ","pref":"京都府","city":"京都市右京区","address":"嵯峨野西ノ藤町"},
{"zip_code":"6168326","kana_pref":"ｷｮｳﾄﾌ","kana_city":"ｷｮｳﾄｼｳｷｮｳｸ","kana_address":"ｻｶﾞﾉﾋｶﾞｼﾀﾞﾁｮｳ","pref":"京都府","city":"京都市右京区","address":"嵯峨野東田町"},
{"zip_code":"6168313","kana_pref":"ｷｮｳﾄﾌ","kana_city":"ｷｮｳﾄｼｳｷｮｳｸ","kana_address":"ｻｶﾞﾉﾋﾗｷﾁｮｳ","pref":"京都府","city":"京都市右京区","address":"嵯峨野開町"},
{"zip_code":"6168324","kana_pref":"ｷｮｳﾄﾌ","kana_city":"ｷｮｳﾄｼｳｷｮｳｸ","kana_address":"ｻｶﾞﾉﾐﾅﾐｳﾗﾁｮｳ","pref":"京都府","city":"京都市右京区","address":"嵯峨野南浦町"},
{"zip_code":"6168315","kana_pref":"ｷｮｳﾄﾌ","kana_city":"ｷｮｳﾄｼｳｷｮｳｸ","kana_address":"ｻｶﾞﾉﾐﾔﾉﾓﾄﾁｮｳ","pref":"京都府","city":"京都市右京区","address":"嵯峨野宮ノ元町"},
{"zip_code":"6168327","kana_pref":"ｷｮｳﾄﾌ","kana_city":"ｷｮｳﾄｼｳｷｮｳｸ","kana_address":"ｻｶﾞﾉﾛｸﾀﾝﾀﾞﾁｮｳ","pref":"京都府","city":"京都市右京区","address":"嵯峨野六反田町"},
{"zip_code":"6168307","kana_pref":"ｷｮｳﾄﾌ","kana_city":"ｷｮｳﾄｼｳｷｮｳｸ","kana_address":"ｻｶﾞﾋﾛｻﾜｲｹｼﾀﾁｮｳ","pref":"京都府","city":"京都市右京区","address":"嵯峨広沢池下町"},
{"zip_code":"6168302","kana_pref":"ｷｮｳﾄﾌ","kana_city":"ｷｮｳﾄｼｳｷｮｳｸ","kana_address":"ｻｶﾞﾋﾛｻﾜｷﾀｹﾞﾊﾞﾉﾁｮｳ","pref":"京都府","city":"京都市右京区","address":"嵯峨広沢北下馬野町"},
{"zip_code":"6168305","kana_pref":"ｷｮｳﾄﾌ","kana_city":"ｷｮｳﾄｼｳｷｮｳｸ","kana_address":"ｻｶﾞﾋﾛｻﾜｺﾞｼｮﾉｳﾁﾁｮｳ","pref":"京都府","city":"京都市右京区","address":"嵯峨広沢御所ノ内町"},
{"zip_code":"6168306","kana_pref":"ｷｮｳﾄﾌ","kana_city":"ｷｮｳﾄｼｳｷｮｳｸ","kana_address":"ｻｶﾞﾋﾛｻﾜﾆｼｳﾗﾁｮｳ","pref":"京都府","city":"京都市右京区","address":"嵯峨広沢西裏町"},
{"zip_code":"6168303","kana_pref":"ｷｮｳﾄﾌ","kana_city":"ｷｮｳﾄｼｳｷｮｳｸ","kana_address":"ｻｶﾞﾋﾛｻﾜﾐﾅﾐｹﾞﾊﾞﾉﾁｮｳ","pref":"京都府","city":"京都市右京区","address":"嵯峨広沢南下馬野町"},
{"zip_code":"6168304","kana_pref":"ｷｮｳﾄﾌ","kana_city":"ｷｮｳﾄｼｳｷｮｳｸ","kana_address":"ｻｶﾞﾋﾛｻﾜﾐﾅﾐﾉﾁｮｳ","pref":"京都府","city":"京都市右京区","address":"嵯峨広沢南野町"},
{"zip_code":"6168467","kana_pref":"ｷｮｳﾄﾌ","kana_city":"ｷｮｳﾄｼｳｷｮｳｸ","kana_address":"ｻｶﾞﾐｽﾞｵｵｵｲﾜ","pref":"京都府","city":"京都市右京区","address":"嵯峨水尾大岩"},
{"zip_code":"6168462","kana_pref":"ｷｮｳﾄﾌ","kana_city":"ｷｮｳﾄｼｳｷｮｳｸ","kana_address":"ｻｶﾞﾐｽﾞｵｵｶﾉｸﾎﾞﾁｮｳ","pref":"京都府","city":"京都市右京区","address":"嵯峨水尾岡ノ窪町"},
{"zip_code":"6168468","kana_pref":"ｷｮｳﾄﾌ","kana_city":"ｷｮｳﾄｼｳｷｮｳｸ","kana_address":"ｻｶﾞﾐｽﾞｵｷﾀｶﾞｲﾁﾁｮｳ","pref":"京都府","city":"京都市右京区","address":"嵯峨水尾北垣内町"},
{"zip_code":"6168466","kana_pref":"ｷｮｳﾄﾌ","kana_city":"ｷｮｳﾄｼｳｷｮｳｸ","kana_address":"ｻｶﾞﾐｽﾞｵｾｲﾜ","pref":"京都府","city":"京都市右京区","address":"嵯峨水尾清和"},
{"zip_code":"6168463","kana_pref":"ｷｮｳﾄﾌ","kana_city":"ｷｮｳﾄｼｳｷｮｳｸ","kana_address":"ｻｶﾞﾐｽﾞｵﾀｹﾉｼﾘﾁｮｳ","pref":"京都府","city":"京都市右京区","address":"嵯峨水尾竹ノ尻町"},
{"zip_code":"6168461","kana_pref":"ｷｮｳﾄﾌ","kana_city":"ｷｮｳﾄｼｳｷｮｳｸ","kana_address":"ｻｶﾞﾐｽﾞｵﾊﾄｶﾞｽ","pref":"京都府","city":"京都市右京区","address":"嵯峨水尾鳩ケ巣"},
{"zip_code":"6168465","kana_pref":"ｷｮｳﾄﾌ","kana_city":"ｷｮｳﾄｼｳｷｮｳｸ","kana_address":"ｻｶﾞﾐｽﾞｵﾐﾔﾉﾜｷﾁｮｳ","pref":"京都府","city":"京都市右京区","address":"嵯峨水尾宮ノ脇町"},
{"zip_code":"6168464","kana_pref":"ｷｮｳﾄﾌ","kana_city":"ｷｮｳﾄｼｳｷｮｳｸ","kana_address":"ｻｶﾞﾐｽﾞｵﾑｻｼｼﾞﾏﾁｮｳ","pref":"京都府","city":"京都市右京区","address":"嵯峨水尾武蔵嶋町"},
{"zip_code":"6168014","kana_pref":"ｷｮｳﾄﾌ","kana_city":"ｷｮｳﾄｼｳｷｮｳｸ","kana_address":"ﾀﾆｸﾞﾁｳﾒﾂﾞﾏﾁｮｳ","pref":"京都府","city":"京都市右京区","address":"谷口梅津間町"},
{"zip_code":"6168022","kana_pref":"ｷｮｳﾄﾌ","kana_city":"ｷｮｳﾄｼｳｷｮｳｸ","kana_address":"ﾀﾆｸﾞﾁｴﾝｼﾞｮｳｼﾞﾁｮｳ","pref":"京都府","city":"京都市右京区","address":"谷口円成寺町"},
{"zip_code":"6168012","kana_pref":"ｷｮｳﾄﾌ","kana_city":"ｷｮｳﾄｼｳｷｮｳｸ","kana_address":"ﾀﾆｸﾞﾁｶｷﾉｳﾁﾁｮｳ","pref":"京都府","city":"京都市右京区","address":"谷口垣ノ内町"},
{"zip_code":"6168013","kana_pref":"ｷｮｳﾄﾌ","kana_city":"ｷｮｳﾄｼｳｷｮｳｸ","kana_address":"ﾀﾆｸﾞﾁｶﾗﾀﾉｳﾁﾁｮｳ","pref":"京都府","city":"京都市右京区","address":"谷口唐田ノ内町"},
{"zip_code":"6168015","kana_pref":"ｷｮｳﾄﾌ","kana_city":"ｷｮｳﾄｼｳｷｮｳｸ","kana_address":"ﾀﾆｸﾞﾁｿﾉﾏﾁ","pref":"京都府","city":"京都市右京区","address":"谷口園町"},
{"zip_code":"6168216","kana_pref":"ｷｮｳﾄﾌ","kana_city":"ｷｮｳﾄｼｳｷｮｳｸ","kana_address":"ﾄｷﾜｲﾁﾉｲﾁｮｳ","pref":"京都府","city":"京都市右京区","address":"常盤一ノ井町"},
{"zip_code":"6168225","kana_pref":"ｷｮｳﾄﾌ","kana_city":"ｷｮｳﾄｼｳｷｮｳｸ","kana_address":"ﾄｷﾜｳﾏﾂﾞｶﾁｮｳ","pref":"京都府","city":"京都市右京区","address":"常盤馬塚町"},
{"zip_code":"6168211","kana_pref":"ｷｮｳﾄﾌ","kana_city":"ｷｮｳﾄｼｳｷｮｳｸ","kana_address":"ﾄｷﾜｵｲｹﾁｮｳ","pref":"京都府","city":"京都市右京区","address":"常盤御池町"},
{"zip_code":"6168213","kana_pref":"ｷｮｳﾄﾌ","kana_city":"ｷｮｳﾄｼｳｷｮｳｸ","kana_address":"ﾄｷﾜｵﾝﾄﾁｮｳ","pref":"京都府","city":"京都市右京区","address":"常盤音戸町"},
{"zip_code":"6168231","kana_pref":"ｷｮｳﾄﾌ","kana_city":"ｷｮｳﾄｼｳｷｮｳｸ","kana_address":"ﾄｷﾜｶｼﾉｷﾁｮｳ","pref":"京都府","city":"京都市右京区","address":"常盤柏ノ木町"},
{"zip_code":"6168219","kana_pref":"ｷｮｳﾄﾌ","kana_city":"ｷｮｳﾄｼｳｷｮｳｸ","kana_address":"ﾄｷﾜｶﾝﾀﾞﾁｮｳ","pref":"京都府","city":"京都市右京区","address":"常盤神田町"},
{"zip_code":"6168229","kana_pref":"ｷｮｳﾄﾌ","kana_city":"ｷｮｳﾄｼｳｷｮｳｸ","kana_address":"ﾄｷﾜｷﾀｳﾗﾁｮｳ","pref":"京都府","city":"京都市右京区","address":"常盤北裏町"},
{"zip_code":"6168227","kana_pref":"ｷｮｳﾄﾌ","kana_city":"ｷｮｳﾄｼｳｷｮｳｸ","kana_address":"ﾄｷﾜｸｻｷﾁｮｳ","pref":"京都府","city":"京都市右京区","address":"常盤草木町"},
{"zip_code":"6168224","kana_pref":"ｷｮｳﾄﾌ","kana_city":"ｷｮｳﾄｼｳｷｮｳｸ","kana_address":"ﾄｷﾜｸﾎﾞﾏﾁ","pref":"京都府","city":"京都市右京区","address":"常盤窪町"},
{"zip_code":"6168228","kana_pref":"ｷｮｳﾄﾌ","kana_city":"ｷｮｳﾄｼｳｷｮｳｸ","kana_address":"ﾄｷﾜｼﾓﾀﾞﾁｮｳ","pref":"京都府","city":"京都市右京区","address":"常盤下田町"},
{"zip_code":"6168226","kana_pref":"ｷｮｳﾄﾌ","kana_city":"ｷｮｳﾄｼｳｷｮｳｸ","kana_address":"ﾄｷﾜﾀﾞﾝﾉｳｴﾁｮｳ","pref":"京都府","city":"京都市右京区","address":"常盤段ノ上町"},
{"zip_code":"6168218","kana_pref":"ｷｮｳﾄﾌ","kana_city":"ｷｮｳﾄｼｳｷｮｳｸ","kana_address":"ﾄｷﾜﾃﾞｸﾞﾁﾁｮｳ","pref":"京都府","city":"京都市右京区","address":"常盤出口町"},
{"zip_code":"6168222","kana_pref":"ｷｮｳﾄﾌ","kana_city":"ｷｮｳﾄｼｳｷｮｳｸ","kana_address":"ﾄｷﾜﾅｶﾉﾁｮｳ","pref":"京都府","city":"京都市右京区","address":"常盤仲之町"},
{"zip_code":"6168223","kana_pref":"ｷｮｳﾄﾌ","kana_city":"ｷｮｳﾄｼｳｷｮｳｸ","kana_address":"ﾄｷﾜﾆｼﾏﾁ","pref":"京都府","city":"京都市右京区","address":"常盤西町"},
{"zip_code":"6168217","kana_pref":"ｷｮｳﾄﾌ","kana_city":"ｷｮｳﾄｼｳｷｮｳｸ","kana_address":"ﾄｷﾜﾋｶﾞｼﾉﾁｮｳ","pref":"京都府","city":"京都市右京区","address":"常盤東ノ町"},
{"zip_code":"6168214","kana_pref":"ｷｮｳﾄﾌ","kana_city":"ｷｮｳﾄｼｳｷｮｳｸ","kana_address":"ﾄｷﾜﾌﾙｺﾞｼｮﾁｮｳ","pref":"京都府","city":"京都市右京区","address":"常盤古御所町"},
{"zip_code":"6168221","kana_pref":"ｷｮｳﾄﾌ","kana_city":"ｷｮｳﾄｼｳｷｮｳｸ","kana_address":"ﾄｷﾜﾑﾗﾉｳﾁﾁｮｳ","pref":"京都府","city":"京都市右京区","address":"常盤村ノ内町"},
{"zip_code":"6168215","kana_pref":"ｷｮｳﾄﾌ","kana_city":"ｷｮｳﾄｼｳｷｮｳｸ","kana_address":"ﾄｷﾜﾓﾘﾏﾁ","pref":"京都府","city":"京都市右京区","address":"常盤森町"},
{"zip_code":"6168212","kana_pref":"ｷｮｳﾄﾌ","kana_city":"ｷｮｳﾄｼｳｷｮｳｸ","kana_address":"ﾄｷﾜﾔﾏｼﾀﾁｮｳ","pref":"京都府","city":"京都市右京区","address":"常盤山下町"},
{"zip_code":"6168253","kana_pref":"ｷｮｳﾄﾌ","kana_city":"ｷｮｳﾄｼｳｷｮｳｸ","kana_address":"ﾅﾙﾀｷｲｽﾞﾐﾀﾆﾁｮｳ","pref":"京都府","city":"京都市右京区","address":"鳴滝泉谷町"},
{"zip_code":"6168241","kana_pref":"ｷｮｳﾄﾌ","kana_city":"ｷｮｳﾄｼｳｷｮｳｸ","kana_address":"ﾅﾙﾀｷｲｽﾞﾐﾃﾞﾝﾁｮｳ","pref":"京都府","city":"京都市右京区","address":"鳴滝泉殿町"},
{"zip_code":"6168251","kana_pref":"ｷｮｳﾄﾌ","kana_city":"ｷｮｳﾄｼｳｷｮｳｸ","kana_address":"ﾅﾙﾀｷｳﾀﾞﾉﾀﾆ","pref":"京都府","city":"京都市右京区","address":"鳴滝宇多野谷"},
{"zip_code":"6168255","kana_pref":"ｷｮｳﾄﾌ","kana_city":"ｷｮｳﾄｼｳｷｮｳｸ","kana_address":"ﾅﾙﾀｷｵﾝﾄﾞﾔﾏﾁｮｳ","pref":"京都府","city":"京都市右京区","address":"鳴滝音戸山町"},
{"zip_code":"6168246","kana_pref":"ｷｮｳﾄﾌ","kana_city":"ｷｮｳﾄｼｳｷｮｳｸ","kana_address":"ﾅﾙﾀｷｶﾜﾆｼﾁｮｳ","pref":"京都府","city":"京都市右京区","address":"鳴滝川西町"},
{"zip_code":"6168238","kana_pref":"ｷｮｳﾄﾌ","kana_city":"ｷｮｳﾄｼｳｷｮｳｸ","kana_address":"ﾅﾙﾀｷｷﾘｶﾞﾌﾁﾁｮｳ","pref":"京都府","city":"京都市右京区","address":"鳴滝桐ケ淵町"},
{"zip_code":"6168234","kana_pref":"ｷｮｳﾄﾌ","kana_city":"ｷｮｳﾄｼｳｷｮｳｸ","kana_address":"ﾅﾙﾀｷｻｶﾞｿﾉﾁｮｳ","pref":"京都府","city":"京都市右京区","address":"鳴滝嵯峨園町"},
{"zip_code":"6168257","kana_pref":"ｷｮｳﾄﾌ","kana_city":"ｷｮｳﾄｼｳｷｮｳｸ","kana_address":"ﾅﾙﾀｷｼﾗｽﾅ","pref":"京都府","city":"京都市右京区","address":"鳴滝白砂"},
{"zip_code":"6168254","kana_pref":"ｷｮｳﾄﾌ","kana_city":"ｷｮｳﾄｼｳｷｮｳｸ","kana_address":"ﾅﾙﾀｷﾀｸﾏﾁｮｳ","pref":"京都府","city":"京都市右京区","address":"鳴滝宅間町"},
{"zip_code":"6168233","kana_pref":"ｷｮｳﾄﾌ","kana_city":"ｷｮｳﾄｼｳｷｮｳｸ","kana_address":"ﾅﾙﾀｷﾅｶﾐﾁﾁｮｳ","pref":"京都府","city":"京都市右京区","address":"鳴滝中道町"},
{"zip_code":"6168235","kana_pref":"ｷｮｳﾄﾌ","kana_city":"ｷｮｳﾄｼｳｷｮｳｸ","kana_address":"ﾅﾙﾀｷﾆｼｻｶﾞｿﾉﾁｮｳ","pref":"京都府","city":"京都市右京区","address":"鳴滝西嵯峨園町"},
{"zip_code":"6168247","kana_pref":"ｷｮｳﾄﾌ","kana_city":"ｷｮｳﾄｼｳｷｮｳｸ","kana_address":"ﾅﾙﾀｷﾊｽｲｹﾁｮｳ","pref":"京都府","city":"京都市右京区","address":"鳴滝蓮池町"},
{"zip_code":"6168236","kana_pref":"ｷｮｳﾄﾌ","kana_city":"ｷｮｳﾄｼｳｷｮｳｸ","kana_address":"ﾅﾙﾀｷﾊﾙｷﾁｮｳ","pref":"京都府","city":"京都市右京区","address":"鳴滝春木町"},
{"zip_code":"6168258","kana_pref":"ｷｮｳﾄﾌ","kana_city":"ｷｮｳﾄｼｳｷｮｳｸ","kana_address":"ﾅﾙﾀｷﾊﾝﾆｬｼﾞﾁｮｳ","pref":"京都府","city":"京都市右京区","address":"鳴滝般若寺町"},
{"zip_code":"6168244","kana_pref":"ｷｮｳﾄﾌ","kana_city":"ｷｮｳﾄｼｳｷｮｳｸ","kana_address":"ﾅﾙﾀｷﾌｼﾞﾉｷﾁｮｳ","pref":"京都府","city":"京都市右京区","address":"鳴滝藤ノ木町"},
{"zip_code":"6168242","kana_pref":"ｷｮｳﾄﾌ","kana_city":"ｷｮｳﾄｼｳｷｮｳｸ","kana_address":"ﾅﾙﾀｷﾎﾝﾏﾁ","pref":"京都府","city":"京都市右京区","address":"鳴滝本町"},
{"zip_code":"6168256","kana_pref":"ｷｮｳﾄﾌ","kana_city":"ｷｮｳﾄｼｳｷｮｳｸ","kana_address":"ﾅﾙﾀｷﾏﾂﾓﾄﾁｮｳ","pref":"京都府","city":"京都市右京区","address":"鳴滝松本町"},
{"zip_code":"6168237","kana_pref":"ｷｮｳﾄﾌ","kana_city":"ｷｮｳﾄｼｳｷｮｳｸ","kana_address":"ﾅﾙﾀｷﾐｽﾞﾎﾁｮｳ","pref":"京都府","city":"京都市右京区","address":"鳴滝瑞穂町"},
{"zip_code":"6168243","kana_pref":"ｷｮｳﾄﾌ","kana_city":"ｷｮｳﾄｼｳｷｮｳｸ","kana_address":"ﾅﾙﾀｷﾔｽｲﾃﾞﾝﾁｮｳ","pref":"京都府","city":"京都市右京区","address":"鳴滝安井殿町"},
{"zip_code":"6168232","kana_pref":"ｷｮｳﾄﾌ","kana_city":"ｷｮｳﾄｼｳｷｮｳｸ","kana_address":"ﾅﾙﾀｷﾚﾝｹﾞｼﾞﾁｮｳ","pref":"京都府","city":"京都市右京区","address":"鳴滝蓮花寺町"},
{"zip_code":"6168024","kana_pref":"ｷｮｳﾄﾌ","kana_city":"ｷｮｳﾄｼｳｷｮｳｸ","kana_address":"ﾊﾅｿﾞﾉｲﾁｼﾞｮｳﾃﾞﾝﾁｮｳ","pref":"京都府","city":"京都市右京区","address":"花園一条田町"},
{"zip_code":"6168037","kana_pref":"ｷｮｳﾄﾌ","kana_city":"ｷｮｳﾄｼｳｷｮｳｸ","kana_address":"ﾊﾅｿﾞﾉｲﾉｹﾁｮｳ","pref":"京都府","city":"京都市右京区","address":"花園猪ノ毛町"},
{"zip_code":"6168042","kana_pref":"ｷｮｳﾄﾌ","kana_city":"ｷｮｳﾄｼｳｷｮｳｸ","kana_address":"ﾊﾅｿﾞﾉｲﾏﾁ","pref":"京都府","city":"京都市右京区","address":"花園伊町"},
{"zip_code":"6168045","kana_pref":"ｷｮｳﾄﾌ","kana_city":"ｷｮｳﾄｼｳｷｮｳｸ","kana_address":"ﾊﾅｿﾞﾉｳﾁﾊﾀﾁｮｳ","pref":"京都府","city":"京都市右京区","address":"花園内畑町"},
{"zip_code":"6168027","kana_pref":"ｷｮｳﾄﾌ","kana_city":"ｷｮｳﾄｼｳｷｮｳｸ","kana_address":"ﾊﾅｿﾞﾉｴﾝｼﾞｮｳｼﾞﾁｮｳ","pref":"京都府","city":"京都市右京区","address":"花園円成寺町"},
{"zip_code":"6168044","kana_pref":"ｷｮｳﾄﾌ","kana_city":"ｷｮｳﾄｼｳｷｮｳｸ","kana_address":"ﾊﾅｿﾞﾉｵｳｷﾞﾉﾁｮｳ","pref":"京都府","city":"京都市右京区","address":"花園扇野町"},
{"zip_code":"6168023","kana_pref":"ｷｮｳﾄﾌ","kana_city":"ｷｮｳﾄｼｳｷｮｳｸ","kana_address":"ﾊﾅｿﾞﾉｵｵﾔﾌﾞﾁｮｳ","pref":"京都府","city":"京都市右京区","address":"花園大薮町"},
{"zip_code":"6168026","kana_pref":"ｷｮｳﾄﾌ","kana_city":"ｷｮｳﾄｼｳｷｮｳｸ","kana_address":"ﾊﾅｿﾞﾉｵｶﾉﾓﾄﾁｮｳ","pref":"京都府","city":"京都市右京区","address":"花園岡ノ本町"},
{"zip_code":"6168061","kana_pref":"ｷｮｳﾄﾌ","kana_city":"ｷｮｳﾄｼｳｷｮｳｸ","kana_address":"ﾊﾅｿﾞﾉｶｽｶﾞﾁｮｳ","pref":"京都府","city":"京都市右京区","address":"花園春日町"},
{"zip_code":"6168034","kana_pref":"ｷｮｳﾄﾌ","kana_city":"ｷｮｳﾄｼｳｷｮｳｸ","kana_address":"ﾊﾅｿﾞﾉｷﾂｼﾞｷﾀﾏﾁ","pref":"京都府","city":"京都市右京区","address":"花園木辻北町"},
{"zip_code":"6168057","kana_pref":"ｷｮｳﾄﾌ","kana_city":"ｷｮｳﾄｼｳｷｮｳｸ","kana_address":"ﾊﾅｿﾞﾉｷﾂｼﾞﾐﾅﾐﾁｮｳ","pref":"京都府","city":"京都市右京区","address":"花園木辻南町"},
{"zip_code":"6168055","kana_pref":"ｷｮｳﾄﾌ","kana_city":"ｷｮｳﾄｼｳｷｮｳｸ","kana_address":"ﾊﾅｿﾞﾉｸﾙﾏﾐﾁﾁｮｳ","pref":"京都府","city":"京都市右京区","address":"花園車道町"},
{"zip_code":"6168056","kana_pref":"ｷｮｳﾄﾌ","kana_city":"ｷｮｳﾄｼｳｷｮｳｸ","kana_address":"ﾊﾅｿﾞﾉｺﾝﾅﾝﾁｮｳ","pref":"京都府","city":"京都市右京区","address":"花園坤南町"},
{"zip_code":"6168033","kana_pref":"ｷｮｳﾄﾌ","kana_city":"ｷｮｳﾄｼｳｷｮｳｸ","kana_address":"ﾊﾅｿﾞﾉｺﾝﾎﾞｸﾁｮｳ","pref":"京都府","city":"京都市右京区","address":"花園艮北町"},
{"zip_code":"6168051","kana_pref":"ｷｮｳﾄﾌ","kana_city":"ｷｮｳﾄｼｳｷｮｳｸ","kana_address":"ﾊﾅｿﾞﾉｿﾝﾅﾝﾁｮｳ","pref":"京都府","city":"京都市右京区","address":"花園巽南町"},
{"zip_code":"6168031","kana_pref":"ｷｮｳﾄﾌ","kana_city":"ｷｮｳﾄｼｳｷｮｳｸ","kana_address":"ﾊﾅｿﾞﾉﾀｶﾂｶｻﾁｮｳ","pref":"京都府","city":"京都市右京区","address":"花園鷹司町"},
{"zip_code":"6168046","kana_pref":"ｷｮｳﾄﾌ","kana_city":"ｷｮｳﾄｼｳｷｮｳｸ","kana_address":"ﾊﾅｿﾞﾉﾀﾞﾝﾉｵｶﾁｮｳ","pref":"京都府","city":"京都市右京区","address":"花園段ノ岡町"},
{"zip_code":"6168025","kana_pref":"ｷｮｳﾄﾌ","kana_city":"ｷｮｳﾄｼｳｷｮｳｸ","kana_address":"ﾊﾅｿﾞﾉﾂﾁﾄﾞｳﾁｮｳ","pref":"京都府","city":"京都市右京区","address":"花園土堂町"},
{"zip_code":"6168043","kana_pref":"ｷｮｳﾄﾌ","kana_city":"ｷｮｳﾄｼｳｷｮｳｸ","kana_address":"ﾊﾅｿﾞﾉﾃﾗﾉｳﾁﾁｮｳ","pref":"京都府","city":"京都市右京区","address":"花園寺ノ内町"},
{"zip_code":"6168036","kana_pref":"ｷｮｳﾄﾌ","kana_city":"ｷｮｳﾄｼｳｷｮｳｸ","kana_address":"ﾊﾅｿﾞﾉﾃﾗﾉﾅｶﾁｮｳ","pref":"京都府","city":"京都市右京区","address":"花園寺ノ中町"},
{"zip_code":"6168041","kana_pref":"ｷｮｳﾄﾌ","kana_city":"ｷｮｳﾄｼｳｷｮｳｸ","kana_address":"ﾊﾅｿﾞﾉﾃﾗﾉﾏｴﾁｮｳ","pref":"京都府","city":"京都市右京区","address":"花園寺ノ前町"},
{"zip_code":"6168021","kana_pref":"ｷｮｳﾄﾌ","kana_city":"ｷｮｳﾄｼｳｷｮｳｸ","kana_address":"ﾊﾅｿﾞﾉﾃﾝｼﾞｭｶﾞｵｶﾁｮｳ","pref":"京都府","city":"京都市右京区","address":"花園天授ケ岡町"},
{"zip_code":"6168054","kana_pref":"ｷｮｳﾄﾌ","kana_city":"ｷｮｳﾄｼｳｷｮｳｸ","kana_address":"ﾊﾅｿﾞﾉﾅｶﾐｶﾄﾞﾁｮｳ","pref":"京都府","city":"京都市右京区","address":"花園中御門町"},
{"zip_code":"6168032","kana_pref":"ｷｮｳﾄﾌ","kana_city":"ｷｮｳﾄｼｳｷｮｳｸ","kana_address":"ﾊﾅｿﾞﾉﾊﾞﾀﾞｲﾁｮｳ","pref":"京都府","city":"京都市右京区","address":"花園馬代町"},
{"zip_code":"6168047","kana_pref":"ｷｮｳﾄﾌ","kana_city":"ｷｮｳﾄｼｳｷｮｳｸ","kana_address":"ﾊﾅｿﾞﾉﾐﾔﾉｶﾐﾁｮｳ","pref":"京都府","city":"京都市右京区","address":"花園宮ノ上町"},
{"zip_code":"6168035","kana_pref":"ｷｮｳﾄﾌ","kana_city":"ｷｮｳﾄｼｳｷｮｳｸ","kana_address":"ﾊﾅｿﾞﾉﾐｮｳｼﾝｼﾞﾁｮｳ","pref":"京都府","city":"京都市右京区","address":"花園妙心寺町"},
{"zip_code":"6168053","kana_pref":"ｷｮｳﾄﾌ","kana_city":"ｷｮｳﾄｼｳｷｮｳｸ","kana_address":"ﾊﾅｿﾞﾉﾔﾂｸﾁﾁｮｳ","pref":"京都府","city":"京都市右京区","address":"花園八ツ口町"},
{"zip_code":"6168052","kana_pref":"ｷｮｳﾄﾌ","kana_city":"ｷｮｳﾄｼｳｷｮｳｸ","kana_address":"ﾊﾅｿﾞﾉﾔﾌﾞﾉｼﾀﾁｮｳ","pref":"京都府","city":"京都市右京区","address":"花園薮ノ下町"},
{"zip_code":"6168197","kana_pref":"ｷｮｳﾄﾌ","kana_city":"ｷｮｳﾄｼｳｷｮｳｸ","kana_address":"ﾔﾏｺﾞｴｲﾇｲﾁｮｳ","pref":"京都府","city":"京都市右京区","address":"山越乾町"},
{"zip_code":"6168193","kana_pref":"ｷｮｳﾄﾌ","kana_city":"ｷｮｳﾄｼｳｷｮｳｸ","kana_address":"ﾔﾏｺﾞｴﾀﾂﾐﾁｮｳ","pref":"京都府","city":"京都市右京区","address":"山越巽町"},
{"zip_code":"6168195","kana_pref":"ｷｮｳﾄﾌ","kana_city":"ｷｮｳﾄｼｳｷｮｳｸ","kana_address":"ﾔﾏｺﾞｴﾅｶﾁｮｳ","pref":"京都府","city":"京都市右京区","address":"山越中町"},
{"zip_code":"6168196","kana_pref":"ｷｮｳﾄﾌ","kana_city":"ｷｮｳﾄｼｳｷｮｳｸ","kana_address":"ﾔﾏｺﾞｴﾆｼﾁｮｳ","pref":"京都府","city":"京都市右京区","address":"山越西町"},
{"zip_code":"6168194","kana_pref":"ｷｮｳﾄﾌ","kana_city":"ｷｮｳﾄｼｳｷｮｳｸ","kana_address":"ﾔﾏｺﾞｴﾋｶﾞｼﾁｮｳ","pref":"京都府","city":"京都市右京区","address":"山越東町"},
{"zip_code":"6168003","kana_pref":"ｷｮｳﾄﾌ","kana_city":"ｷｮｳﾄｼｳｷｮｳｸ","kana_address":"ﾘｮｳｱﾝｼﾞｲｹﾉｼﾀﾁｮｳ","pref":"京都府","city":"京都市右京区","address":"龍安寺池ノ下町"},
{"zip_code":"6168002","kana_pref":"ｷｮｳﾄﾌ","kana_city":"ｷｮｳﾄｼｳｷｮｳｸ","kana_address":"ﾘｮｳｱﾝｼﾞｷﾇｶﾞｻｼﾀﾁｮｳ","pref":"京都府","city":"京都市右京区","address":"龍安寺衣笠下町"},
{"zip_code":"6168017","kana_pref":"ｷｮｳﾄﾌ","kana_city":"ｷｮｳﾄｼｳｷｮｳｸ","kana_address":"ﾘｮｳｱﾝｼﾞｺﾞﾀﾝﾀﾞﾁｮｳ","pref":"京都府","city":"京都市右京区","address":"龍安寺五反田町"},
{"zip_code":"6168001","kana_pref":"ｷｮｳﾄﾌ","kana_city":"ｷｮｳﾄｼｳｷｮｳｸ","kana_address":"ﾘｮｳｱﾝｼﾞｺﾞﾘｮｳﾉｼﾀﾁｮｳ","pref":"京都府","city":"京都市右京区","address":"龍安寺御陵ノ下町"},
{"zip_code":"6168011","kana_pref":"ｷｮｳﾄﾌ","kana_city":"ｷｮｳﾄｼｳｷｮｳｸ","kana_address":"ﾘｮｳｱﾝｼﾞｻｲｸﾞｳﾁｮｳ","pref":"京都府","city":"京都市右京区","address":"龍安寺斎宮町"},
{"zip_code":"6168006","kana_pref":"ｷｮｳﾄﾌ","kana_city":"ｷｮｳﾄｼｳｷｮｳｸ","kana_address":"ﾘｮｳｱﾝｼﾞｽﾐﾖｼﾁｮｳ","pref":"京都府","city":"京都市右京区","address":"龍安寺住吉町"},
{"zip_code":"6168004","kana_pref":"ｷｮｳﾄﾌ","kana_city":"ｷｮｳﾄｼｳｷｮｳｸ","kana_address":"ﾘｮｳｱﾝｼﾞﾀﾏﾂｼﾊﾞﾁｮｳ","pref":"京都府","city":"京都市右京区","address":"龍安寺玉津芝町"},
{"zip_code":"6168005","kana_pref":"ｷｮｳﾄﾌ","kana_city":"ｷｮｳﾄｼｳｷｮｳｸ","kana_address":"ﾘｮｳｱﾝｼﾞﾄｳﾉｼﾀﾁｮｳ","pref":"京都府","city":"京都市右京区","address":"龍安寺塔ノ下町"},
{"zip_code":"6168016","kana_pref":"ｷｮｳﾄﾌ","kana_city":"ｷｮｳﾄｼｳｷｮｳｸ","kana_address":"ﾘｮｳｱﾝｼﾞﾆｼﾉｶﾜﾁｮｳ","pref":"京都府","city":"京都市右京区","address":"龍安寺西ノ川町"},
{"zip_code":"6168007","kana_pref":"ｷｮｳﾄﾌ","kana_city":"ｷｮｳﾄｼｳｷｮｳｸ","kana_address":"ﾘｮｳｱﾝｼﾞﾔﾏﾀﾁｮｳ","pref":"京都府","city":"京都市右京区","address":"龍安寺山田町"},
{"zip_code":"6160022","kana_pref":"ｷｮｳﾄﾌ","kana_city":"ｷｮｳﾄｼﾆｼｷｮｳｸ","kana_address":"ｱﾗｼﾔﾏｱｻﾂｷﾁｮｳ","pref":"京都府","city":"京都市西京区","address":"嵐山朝月町"},
{"zip_code":"6160027","kana_pref":"ｷｮｳﾄﾌ","kana_city":"ｷｮｳﾄｼﾆｼｷｮｳｸ","kana_address":"ｱﾗｼﾔﾏｳﾁﾀﾞﾁｮｳ","pref":"京都府","city":"京都市西京区","address":"嵐山内田町"},
{"zip_code":"6160016","kana_pref":"ｷｮｳﾄﾌ","kana_city":"ｷｮｳﾄｼﾆｼｷｮｳｸ","kana_address":"ｱﾗｼﾔﾏｶﾐｶｲﾄﾞｳﾁｮｳ","pref":"京都府","city":"京都市西京区","address":"嵐山上海道町"},
{"zip_code":"6160001","kana_pref":"ｷｮｳﾄﾌ","kana_city":"ｷｮｳﾄｼﾆｼｷｮｳｸ","kana_address":"ｱﾗｼﾔﾏｶﾐｶﾜﾗﾁｮｳ","pref":"京都府","city":"京都市西京区","address":"嵐山上河原町"},
{"zip_code":"6160007","kana_pref":"ｷｮｳﾄﾌ","kana_city":"ｷｮｳﾄｼﾆｼｷｮｳｸ","kana_address":"ｱﾗｼﾔﾏｹﾞﾝﾛｸｻﾞﾝﾁｮｳ","pref":"京都府","city":"京都市西京区","address":"嵐山元録山町"},
{"zip_code":"6160006","kana_pref":"ｷｮｳﾄﾌ","kana_city":"ｷｮｳﾄｼﾆｼｷｮｳｸ","kana_address":"ｱﾗｼﾔﾏｺｸｿﾞｳﾔﾏﾁｮｳ","pref":"京都府","city":"京都市西京区","address":"嵐山虚空蔵山町"},
{"zip_code":"6160014","kana_pref":"ｷｮｳﾄﾌ","kana_city":"ｷｮｳﾄｼﾆｼｷｮｳｸ","kana_address":"ｱﾗｼﾔﾏﾀﾆｶﾞﾂｼﾞｺﾁｮｳ","pref":"京都府","city":"京都市西京区","address":"嵐山谷ケ辻子町"},
{"zip_code":"6160017","kana_pref":"ｷｮｳﾄﾌ","kana_city":"ｷｮｳﾄｼﾆｼｷｮｳｸ","kana_address":"ｱﾗｼﾔﾏﾁｬｼﾞﾘﾁｮｳ","pref":"京都府","city":"京都市西京区","address":"嵐山茶尻町"},
{"zip_code":"6160004","kana_pref":"ｷｮｳﾄﾌ","kana_city":"ｷｮｳﾄｼﾆｼｷｮｳｸ","kana_address":"ｱﾗｼﾔﾏﾅｶｵｼﾀﾁｮｳ","pref":"京都府","city":"京都市西京区","address":"嵐山中尾下町"},
{"zip_code":"6160003","kana_pref":"ｷｮｳﾄﾌ","kana_city":"ｷｮｳﾄｼﾆｼｷｮｳｸ","kana_address":"ｱﾗｼﾔﾏﾆｼｲﾁｶﾜﾁｮｳ","pref":"京都府","city":"京都市西京区","address":"嵐山西一川町"},
{"zip_code":"6160002","kana_pref":"ｷｮｳﾄﾌ","kana_city":"ｷｮｳﾄｼﾆｼｷｮｳｸ","kana_address":"ｱﾗｼﾔﾏﾋｶﾞｼｲﾁｶﾜﾁｮｳ","pref":"京都府","city":"京都市西京区","address":"嵐山東一川町"},
{"zip_code":"6160012","kana_pref":"ｷｮｳﾄﾌ","kana_city":"ｷｮｳﾄｼﾆｼｷｮｳｸ","kana_address":"ｱﾗｼﾔﾏﾋｶﾞｼｶｲﾄﾞｳﾁｮｳ","pref":"京都府","city":"京都市西京区","address":"嵐山東海道町"},
{"zip_code":"6160011","kana_pref":"ｷｮｳﾄﾌ","kana_city":"ｷｮｳﾄｼﾆｼｷｮｳｸ","kana_address":"ｱﾗｼﾔﾏﾋﾉｶﾐﾁｮｳ","pref":"京都府","city":"京都市西京区","address":"嵐山樋ノ上町"},
{"zip_code":"6160013","kana_pref":"ｷｮｳﾄﾌ","kana_city":"ｷｮｳﾄｼﾆｼｷｮｳｸ","kana_address":"ｱﾗｼﾔﾏﾌﾛﾉﾊｼﾁｮｳ","pref":"京都府","city":"京都市西京区","address":"嵐山風呂ノ橋町"},
{"zip_code":"6160025","kana_pref":"ｷｮｳﾄﾌ","kana_city":"ｷｮｳﾄｼﾆｼｷｮｳｸ","kana_address":"ｱﾗｼﾔﾏﾐﾔﾉｷﾀﾁｮｳ","pref":"京都府","city":"京都市西京区","address":"嵐山宮ノ北町"},
{"zip_code":"6160023","kana_pref":"ｷｮｳﾄﾌ","kana_city":"ｷｮｳﾄｼﾆｼｷｮｳｸ","kana_address":"ｱﾗｼﾔﾏﾐﾔﾉﾏｴﾁｮｳ","pref":"京都府","city":"京都市西京区","address":"嵐山宮ノ前町"},
{"zip_code":"6160024","kana_pref":"ｷｮｳﾄﾌ","kana_city":"ｷｮｳﾄｼﾆｼｷｮｳｸ","kana_address":"ｱﾗｼﾔﾏﾐﾔﾏﾁ","pref":"京都府","city":"京都市西京区","address":"嵐山宮町"},
{"zip_code":"6160021","kana_pref":"ｷｮｳﾄﾌ","kana_city":"ｷｮｳﾄｼﾆｼｷｮｳｸ","kana_address":"ｱﾗｼﾔﾏﾓﾘﾉﾏｴﾁｮｳ","pref":"京都府","city":"京都市西京区","address":"嵐山森ノ前町"},
{"zip_code":"6160026","kana_pref":"ｷｮｳﾄﾌ","kana_city":"ｷｮｳﾄｼﾆｼｷｮｳｸ","kana_address":"ｱﾗｼﾔﾏﾔｸｼｼﾀﾁｮｳ","pref":"京都府","city":"京都市西京区","address":"嵐山薬師下町"},
{"zip_code":"6160005","kana_pref":"ｷｮｳﾄﾌ","kana_city":"ｷｮｳﾄｼﾆｼｷｮｳｸ","kana_address":"ｱﾗｼﾔﾏﾔﾏﾀﾞﾁｮｳ","pref":"京都府","city":"京都市西京区","address":"嵐山山田町"},
{"zip_code":"6160015","kana_pref":"ｷｮｳﾄﾌ","kana_city":"ｷｮｳﾄｼﾆｼｷｮｳｸ","kana_address":"ｱﾗｼﾔﾏﾔﾏﾉｼﾀﾁｮｳ","pref":"京都府","city":"京都市西京区","address":"嵐山山ノ下町"}]}