{"zip_code":[
{"zip_code":"6170000","kana_pref":"ｷｮｳﾄﾌ","kana_city":"ﾑｺｳｼ","kana_address":"","pref":"京都府","city":"向日市","address":""},
{"zip_code":"6170004","kana_pref":"ｷｮｳﾄﾌ","kana_city":"ﾑｺｳｼ","kana_address":"ｶｲﾃﾞﾁｮｳ","pref":"京都府","city":"向日市","address":"鶏冠井町"},
{"zip_code":"6170006","kana_pref":"ｷｮｳﾄﾌ","kana_city":"ﾑｺｳｼ","kana_address":"ｶﾐｳｴﾉﾁｮｳ","pref":"京都府","city":"向日市","address":"上植野町"},
{"zip_code":"6170002","kana_pref":"ｷｮｳﾄﾌ","kana_city":"ﾑｺｳｼ","kana_address":"ﾃﾗﾄﾞﾁｮｳ","pref":"京都府","city":"向日市","address":"寺戸町"},
{"zip_code":"6170005","kana_pref":"ｷｮｳﾄﾌ","kana_city":"ﾑｺｳｼ","kana_address":"ﾑｺｳﾁｮｳ","pref":"京都府","city":"向日市","address":"向日町"},
{"zip_code":"6170001","kana_pref":"ｷｮｳﾄﾌ","kana_city":"ﾑｺｳｼ","kana_address":"ﾓｽﾞﾒﾁｮｳ","pref":"京都府","city":"向日市","address":"物集女町"},
{"zip_code":"6170003","kana_pref":"ｷｮｳﾄﾌ","kana_city":"ﾑｺｳｼ","kana_address":"ﾓﾘﾓﾄﾁｮｳ","pref":"京都府","city":"向日市","address":"森本町"},
{"zip_code":"6170000","kana_pref":"ｷｮｳﾄﾌ","kana_city":"ﾅｶﾞｵｶｷｮｳｼ","kana_address":"","pref":"京都府","city":"長岡京市","address":""},
{"zip_code":"6170811","kana_pref":"ｷｮｳﾄﾌ","kana_city":"ﾅｶﾞｵｶｷｮｳｼ","kana_address":"ｱｵ","pref":"京都府","city":"長岡京市","address":"粟生"},
{"zip_code":"6170846","kana_pref":"ｷｮｳﾄﾌ","kana_city":"ﾅｶﾞｵｶｷｮｳｼ","kana_address":"ｲｽﾞﾐｶﾞｵｶ","pref":"京都府","city":"長岡京市","address":"泉が丘"},
{"zip_code":"6170825","kana_pref":"ｷｮｳﾄﾌ","kana_city":"ﾅｶﾞｵｶｷｮｳｼ","kana_address":"ｲﾁﾓﾝﾊﾞｼ","pref":"京都府","city":"長岡京市","address":"一文橋"},
{"zip_code":"6170831","kana_pref":"ｷｮｳﾄﾌ","kana_city":"ﾅｶﾞｵｶｷｮｳｼ","kana_address":"ｲﾁﾘﾂﾞｶ","pref":"京都府","city":"長岡京市","address":"一里塚"},
{"zip_code":"6170813","kana_pref":"ｷｮｳﾄﾌ","kana_city":"ﾅｶﾞｵｶｷｮｳｼ","kana_address":"ｲﾉｳﾁ","pref":"京都府","city":"長岡京市","address":"井ノ内"},
{"zip_code":"6170814","kana_pref":"ｷｮｳﾄﾌ","kana_city":"ﾅｶﾞｵｶｷｮｳｼ","kana_address":"ｲﾏｻﾞﾄ","pref":"京都府","city":"長岡京市","address":"今里"},
{"zip_code":"6170815","kana_pref":"ｷｮｳﾄﾌ","kana_city":"ﾅｶﾞｵｶｷｮｳｼ","kana_address":"ｳｸﾞｲｽﾀﾞｲ","pref":"京都府","city":"長岡京市","address":"うぐいす台"},
{"zip_code":"6170841","kana_pref":"ｷｮｳﾄﾌ","kana_city":"ﾅｶﾞｵｶｷｮｳｼ","kana_address":"ｳﾒｶﾞｵｶ","pref":"京都府","city":"長岡京市","address":"梅が丘"},
{"zip_code":"6170853","kana_pref":"ｷｮｳﾄﾌ","kana_city":"ﾅｶﾞｵｶｷｮｳｼ","kana_address":"ｵｸｶｲｲﾝｼﾞ","pref":"京都府","city":"長岡京市","address":"奥海印寺"},
{"zip_code":"6170826","kana_pref":"ｷｮｳﾄﾌ","kana_city":"ﾅｶﾞｵｶｷｮｳｼ","kana_address":"ｶｲﾃﾞﾝ","pref":"京都府","city":"長岡京市","address":"開田"},
{"zip_code":"6170856","kana_pref":"ｷｮｳﾄﾌ","kana_city":"ﾅｶﾞｵｶｷｮｳｼ","kana_address":"ｶﾈｶﾞﾊﾗ","pref":"京都府","city":"長岡京市","address":"金ケ原"},
{"zip_code":"6170852","kana_pref":"ｷｮｳﾄﾌ","kana_city":"ﾅｶﾞｵｶｷｮｳｼ","kana_address":"ｶﾖｳｶﾞｵｶ","pref":"京都府","city":"長岡京市","address":"河陽が丘"},
{"zip_code":"6170837","kana_pref":"ｷｮｳﾄﾌ","kana_city":"ﾅｶﾞｵｶｷｮｳｼ","kana_address":"ｸｶﾞｲ","pref":"京都府","city":"長岡京市","address":"久貝"},
{"zip_code":"6170833","kana_pref":"ｷｮｳﾄﾌ","kana_city":"ﾅｶﾞｵｶｷｮｳｼ","kana_address":"ｺｳﾀﾘ","pref":"京都府","city":"長岡京市","address":"神足"},
{"zip_code":"6170851","kana_pref":"ｷｮｳﾄﾌ","kana_city":"ﾅｶﾞｵｶｷｮｳｼ","kana_address":"ｺｳﾌｳﾀﾞｲ","pref":"京都府","city":"長岡京市","address":"光風台"},
{"zip_code":"6170854","kana_pref":"ｷｮｳﾄﾌ","kana_city":"ﾅｶﾞｵｶｷｮｳｼ","kana_address":"ｺｶﾞﾈｶﾞｵｶ","pref":"京都府","city":"長岡京市","address":"こがねが丘"},
{"zip_code":"6170818","kana_pref":"ｷｮｳﾄﾌ","kana_city":"ﾅｶﾞｵｶｷｮｳｼ","kana_address":"ｼﾊﾞﾉｻﾄ","pref":"京都府","city":"長岡京市","address":"柴の里"},
{"zip_code":"6170845","kana_pref":"ｷｮｳﾄﾌ","kana_city":"ﾅｶﾞｵｶｷｮｳｼ","kana_address":"ｼﾓｶｲｲﾝｼﾞ","pref":"京都府","city":"長岡京市","address":"下海印寺"},
{"zip_code":"6170855","kana_pref":"ｷｮｳﾄﾌ","kana_city":"ﾅｶﾞｵｶｷｮｳｼ","kana_address":"ｼﾞｮｳﾄﾞﾀﾞﾆ","pref":"京都府","city":"長岡京市","address":"浄土谷"},
{"zip_code":"6170836","kana_pref":"ｷｮｳﾄﾌ","kana_city":"ﾅｶﾞｵｶｷｮｳｼ","kana_address":"ｼｮｳﾘｭｳｼﾞ","pref":"京都府","city":"長岡京市","address":"勝竜寺"},
{"zip_code":"6170835","kana_pref":"ｷｮｳﾄﾌ","kana_city":"ﾅｶﾞｵｶｷｮｳｼ","kana_address":"ｼﾛﾉｻﾄ","pref":"京都府","city":"長岡京市","address":"城の里"},
{"zip_code":"6170847","kana_pref":"ｷｮｳﾄﾌ","kana_city":"ﾅｶﾞｵｶｷｮｳｼ","kana_address":"ﾀｶﾀﾞｲ","pref":"京都府","city":"長岡京市","address":"高台"},
{"zip_code":"6170857","kana_pref":"ｷｮｳﾄﾌ","kana_city":"ﾅｶﾞｵｶｷｮｳｼ","kana_address":"ﾀｶﾀﾞｲﾆｼ","pref":"京都府","city":"長岡京市","address":"高台西"},
{"zip_code":"6170817","kana_pref":"ｷｮｳﾄﾌ","kana_city":"ﾅｶﾞｵｶｷｮｳｼ","kana_address":"ﾀｷﾉﾁｮｳ","pref":"京都府","city":"長岡京市","address":"滝ノ町"},
{"zip_code":"6170827","kana_pref":"ｷｮｳﾄﾌ","kana_city":"ﾅｶﾞｵｶｷｮｳｼ","kana_address":"ﾀｹﾉﾀﾞｲ","pref":"京都府","city":"長岡京市","address":"竹の台"},
{"zip_code":"6170844","kana_pref":"ｷｮｳﾄﾌ","kana_city":"ﾅｶﾞｵｶｷｮｳｼ","kana_address":"ﾁｮｳｼ","pref":"京都府","city":"長岡京市","address":"調子"},
{"zip_code":"6170812","kana_pref":"ｷｮｳﾄﾌ","kana_city":"ﾅｶﾞｵｶｷｮｳｼ","kana_address":"ﾁｮｳﾎｳｼﾞ","pref":"京都府","city":"長岡京市","address":"長法寺"},
{"zip_code":"6170824","kana_pref":"ｷｮｳﾄﾌ","kana_city":"ﾅｶﾞｵｶｷｮｳｼ","kana_address":"ﾃﾝｼﾞﾝ","pref":"京都府","city":"長岡京市","address":"天神"},
{"zip_code":"6170834","kana_pref":"ｷｮｳﾄﾌ","kana_city":"ﾅｶﾞｵｶｷｮｳｼ","kana_address":"ﾄｳﾜｴﾝ","pref":"京都府","city":"長岡京市","address":"東和苑"},
{"zip_code":"6170843","kana_pref":"ｷｮｳﾄﾌ","kana_city":"ﾅｶﾞｵｶｷｮｳｼ","kana_address":"ﾄﾓｵｶ","pref":"京都府","city":"長岡京市","address":"友岡"},
{"zip_code":"6170823","kana_pref":"ｷｮｳﾄﾌ","kana_city":"ﾅｶﾞｵｶｷｮｳｼ","kana_address":"ﾅｶﾞｵｶ","pref":"京都府","city":"長岡京市","address":"長岡"},
{"zip_code":"6170816","kana_pref":"ｷｮｳﾄﾌ","kana_city":"ﾅｶﾞｵｶｷｮｳｼ","kana_address":"ﾆｼﾉｷｮｳ","pref":"京都府","city":"長岡京市","address":"西の京"},
{"zip_code":"6170821","kana_pref":"ｷｮｳﾄﾌ","kana_city":"ﾅｶﾞｵｶｷｮｳｼ","kana_address":"ﾉｿﾞｴ","pref":"京都府","city":"長岡京市","address":"野添"},
{"zip_code":"6170822","kana_pref":"ｷｮｳﾄﾌ","kana_city":"ﾅｶﾞｵｶｷｮｳｼ","kana_address":"ﾊﾁｼﾞｮｳｶﾞｵｶ","pref":"京都府","city":"長岡京市","address":"八条が丘"},
{"zip_code":"6170842","kana_pref":"ｷｮｳﾄﾌ","kana_city":"ﾅｶﾞｵｶｷｮｳｼ","kana_address":"ﾊﾅﾔﾏ","pref":"京都府","city":"長岡京市","address":"花山"},
{"zip_code":"6170828","kana_pref":"ｷｮｳﾄﾌ","kana_city":"ﾅｶﾞｵｶｷｮｳｼ","kana_address":"ﾊﾞﾊﾞ","pref":"京都府","city":"長岡京市","address":"馬場"},
{"zip_code":"6170832","kana_pref":"ｷｮｳﾄﾌ","kana_city":"ﾅｶﾞｵｶｷｮｳｼ","kana_address":"ﾋｶﾞｼｺｳﾀﾘ","pref":"京都府","city":"長岡京市","address":"東神足"},
{"zip_code":"6170838","kana_pref":"ｷｮｳﾄﾌ","kana_city":"ﾅｶﾞｵｶｷｮｳｼ","kana_address":"ﾐﾄﾞﾘｶﾞｵｶ","pref":"京都府","city":"長岡京市","address":"緑が丘"}]}