{"zip_code":[
{"zip_code":"6180000","kana_pref":"ｷｮｳﾄﾌ","kana_city":"ｵﾄｸﾆｸﾞﾝｵｵﾔﾏｻﾞｷﾁｮｳ","kana_address":"","pref":"京都府","city":"乙訓郡大山崎町","address":""},
{"zip_code":"6180091","kana_pref":"ｷｮｳﾄﾌ","kana_city":"ｵﾄｸﾆｸﾞﾝｵｵﾔﾏｻﾞｷﾁｮｳ","kana_address":"ｴﾝﾐｮｳｼﾞ","pref":"京都府","city":"乙訓郡大山崎町","address":"円明寺"},
{"zip_code":"6180071","kana_pref":"ｷｮｳﾄﾌ","kana_city":"ｵﾄｸﾆｸﾞﾝｵｵﾔﾏｻﾞｷﾁｮｳ","kana_address":"ｵｵﾔﾏｻﾞｷ","pref":"京都府","city":"乙訓郡大山崎町","address":"大山崎"},
{"zip_code":"6180081","kana_pref":"ｷｮｳﾄﾌ","kana_city":"ｵﾄｸﾆｸﾞﾝｵｵﾔﾏｻﾞｷﾁｮｳ","kana_address":"ｼﾓｳｴﾉ","pref":"京都府","city":"乙訓郡大山崎町","address":"下植野"},
{"zip_code":"6180000","kana_pref":"ｵｵｻｶﾌ","kana_city":"ﾐｼﾏｸﾞﾝｼﾏﾓﾄﾁｮｳ","kana_address":"","pref":"大阪府","city":"三島郡島本町","address":""},
{"zip_code":"6180015","kana_pref":"ｵｵｻｶﾌ","kana_city":"ﾐｼﾏｸﾞﾝｼﾏﾓﾄﾁｮｳ","kana_address":"ｱｵﾊﾞ","pref":"大阪府","city":"三島郡島本町","address":"青葉"},
{"zip_code":"6180013","kana_pref":"ｵｵｻｶﾌ","kana_city":"ﾐｼﾏｸﾞﾝｼﾏﾓﾄﾁｮｳ","kana_address":"ｴｶﾞﾜ","pref":"大阪府","city":"三島郡島本町","address":"江川"},
{"zip_code":"6180004","kana_pref":"ｵｵｻｶﾌ","kana_city":"ﾐｼﾏｸﾞﾝｼﾏﾓﾄﾁｮｳ","kana_address":"ｵｵｻﾜ","pref":"大阪府","city":"三島郡島本町","address":"大沢"},
{"zip_code":"6180022","kana_pref":"ｵｵｻｶﾌ","kana_city":"ﾐｼﾏｸﾞﾝｼﾏﾓﾄﾁｮｳ","kana_address":"ｻｸﾗｲ","pref":"大阪府","city":"三島郡島本町","address":"桜井"},
{"zip_code":"6180023","kana_pref":"ｵｵｻｶﾌ","kana_city":"ﾐｼﾏｸﾞﾝｼﾏﾓﾄﾁｮｳ","kana_address":"ｻｸﾗｲﾀﾞｲ","pref":"大阪府","city":"三島郡島本町","address":"桜井台"},
{"zip_code":"6180003","kana_pref":"ｵｵｻｶﾌ","kana_city":"ﾐｼﾏｸﾞﾝｼﾏﾓﾄﾁｮｳ","kana_address":"ｼｬｸﾀﾞｲ","pref":"大阪府","city":"三島郡島本町","address":"尺代"},
{"zip_code":"6180012","kana_pref":"ｵｵｻｶﾌ","kana_city":"ﾐｼﾏｸﾞﾝｼﾏﾓﾄﾁｮｳ","kana_address":"ﾀｶﾊﾏ","pref":"大阪府","city":"三島郡島本町","address":"高浜"},
{"zip_code":"6180002","kana_pref":"ｵｵｻｶﾌ","kana_city":"ﾐｼﾏｸﾞﾝｼﾏﾓﾄﾁｮｳ","kana_address":"ﾄｳﾀﾞｲｼﾞ","pref":"大阪府","city":"三島郡島本町","address":"東大寺"},
{"zip_code":"6180021","kana_pref":"ｵｵｻｶﾌ","kana_city":"ﾐｼﾏｸﾞﾝｼﾏﾓﾄﾁｮｳ","kana_address":"ﾋｬｸﾔﾏ","pref":"大阪府","city":"三島郡島本町","address":"百山"},
{"zip_code":"6180011","kana_pref":"ｵｵｻｶﾌ","kana_city":"ﾐｼﾏｸﾞﾝｼﾏﾓﾄﾁｮｳ","kana_address":"ﾋﾛｾ","pref":"大阪府","city":"三島郡島本町","address":"広瀬"},
{"zip_code":"6180014","kana_pref":"ｵｵｻｶﾌ","kana_city":"ﾐｼﾏｸﾞﾝｼﾏﾓﾄﾁｮｳ","kana_address":"ﾐﾅｾ","pref":"大阪府","city":"三島郡島本町","address":"水無瀬"},
{"zip_code":"6180001","kana_pref":"ｵｵｻｶﾌ","kana_city":"ﾐｼﾏｸﾞﾝｼﾏﾓﾄﾁｮｳ","kana_address":"ﾔﾏｻﾞｷ","pref":"大阪府","city":"三島郡島本町","address":"山崎"},
{"zip_code":"6180024","kana_pref":"ｵｵｻｶﾌ","kana_city":"ﾐｼﾏｸﾞﾝｼﾏﾓﾄﾁｮｳ","kana_address":"ﾜｶﾔﾏﾀﾞｲ","pref":"大阪府","city":"三島郡島本町","address":"若山台"}]}