{"zip_code":[
{"zip_code":"6190200","kana_pref":"ｷｮｳﾄﾌ","kana_city":"ｷﾂﾞｶﾞﾜｼ","kana_address":"","pref":"京都府","city":"木津川市","address":""},
{"zip_code":"6190213","kana_pref":"ｷｮｳﾄﾌ","kana_city":"ｷﾂﾞｶﾞﾜｼ","kana_address":"ｲﾁｻｶ","pref":"京都府","city":"木津川市","address":"市坂"},
{"zip_code":"6190212","kana_pref":"ｷｮｳﾄﾌ","kana_city":"ｷﾂﾞｶﾞﾜｼ","kana_address":"ｳﾒﾀﾞﾆ","pref":"京都府","city":"木津川市","address":"梅谷"},
{"zip_code":"6190215","kana_pref":"ｷｮｳﾄﾌ","kana_city":"ｷﾂﾞｶﾞﾜｼ","kana_address":"ｳﾒﾐﾀﾞｲ","pref":"京都府","city":"木津川市","address":"梅美台"},
{"zip_code":"6190211","kana_pref":"ｷｮｳﾄﾌ","kana_city":"ｷﾂﾞｶﾞﾜｼ","kana_address":"ｶｾﾔﾏ","pref":"京都府","city":"木津川市","address":"鹿背山"},
{"zip_code":"6190224","kana_pref":"ｷｮｳﾄﾌ","kana_city":"ｷﾂﾞｶﾞﾜｼ","kana_address":"ｶﾌﾞﾄﾀﾞｲ","pref":"京都府","city":"木津川市","address":"兜台"},
{"zip_code":"6191102","kana_pref":"ｷｮｳﾄﾌ","kana_city":"ｷﾂﾞｶﾞﾜｼ","kana_address":"ｶﾓﾁｮｳｲﾋﾞﾗｵ","pref":"京都府","city":"木津川市","address":"加茂町井平尾"},
{"zip_code":"6191133","kana_pref":"ｷｮｳﾄﾌ","kana_city":"ｷﾂﾞｶﾞﾜｼ","kana_address":"ｶﾓﾁｮｳｲﾜﾌﾈ","pref":"京都府","city":"木津川市","address":"加茂町岩船"},
{"zip_code":"6191112","kana_pref":"ｷｮｳﾄﾌ","kana_city":"ｷﾂﾞｶﾞﾜｼ","kana_address":"ｶﾓﾁｮｳｳﾅﾐ","pref":"京都府","city":"木津川市","address":"加茂町兎並"},
{"zip_code":"6191153","kana_pref":"ｷｮｳﾄﾌ","kana_city":"ｷﾂﾞｶﾞﾜｼ","kana_address":"ｶﾓﾁｮｳｴｷﾆｼ","pref":"京都府","city":"木津川市","address":"加茂町駅西"},
{"zip_code":"6191154","kana_pref":"ｷｮｳﾄﾌ","kana_city":"ｷﾂﾞｶﾞﾜｼ","kana_address":"ｶﾓﾁｮｳｴｷﾋｶﾞｼ","pref":"京都府","city":"木津川市","address":"加茂町駅東"},
{"zip_code":"6191142","kana_pref":"ｷｮｳﾄﾌ","kana_city":"ｷﾂﾞｶﾞﾜｼ","kana_address":"ｶﾓﾁｮｳｵｵﾉ","pref":"京都府","city":"木津川市","address":"加茂町大野"},
{"zip_code":"6191132","kana_pref":"ｷｮｳﾄﾌ","kana_city":"ｷﾂﾞｶﾞﾜｼ","kana_address":"ｶﾓﾁｮｳｵｵﾊﾀ","pref":"京都府","city":"木津川市","address":"加茂町大畑"},
{"zip_code":"6191103","kana_pref":"ｷｮｳﾄﾌ","kana_city":"ｷﾂﾞｶﾞﾜｼ","kana_address":"ｶﾓﾁｮｳｵｶｻﾞｷ","pref":"京都府","city":"木津川市","address":"加茂町岡崎"},
{"zip_code":"6191107","kana_pref":"ｷｮｳﾄﾌ","kana_city":"ｷﾂﾞｶﾞﾜｼ","kana_address":"ｶﾓﾁｮｳｵｸﾊﾀ","pref":"京都府","city":"木津川市","address":"加茂町奥畑"},
{"zip_code":"6191104","kana_pref":"ｷｮｳﾄﾌ","kana_city":"ｷﾂﾞｶﾞﾜｼ","kana_address":"ｶﾓﾁｮｳｶﾜﾗ","pref":"京都府","city":"木津川市","address":"加茂町河原"},
{"zip_code":"6191143","kana_pref":"ｷｮｳﾄﾌ","kana_city":"ｷﾂﾞｶﾞﾜｼ","kana_address":"ｶﾓﾁｮｳｶﾝｵﾝｼﾞ","pref":"京都府","city":"木津川市","address":"加茂町観音寺"},
{"zip_code":"6191113","kana_pref":"ｷｮｳﾄﾌ","kana_city":"ｷﾂﾞｶﾞﾜｼ","kana_address":"ｶﾓﾁｮｳｷﾀ","pref":"京都府","city":"木津川市","address":"加茂町北"},
{"zip_code":"6191121","kana_pref":"ｷｮｳﾄﾌ","kana_city":"ｷﾂﾞｶﾞﾜｼ","kana_address":"ｶﾓﾁｮｳｷﾀｼﾓﾃﾞ","pref":"京都府","city":"木津川市","address":"加茂町北下手"},
{"zip_code":"6191136","kana_pref":"ｷｮｳﾄﾌ","kana_city":"ｷﾂﾞｶﾞﾜｼ","kana_address":"ｶﾓﾁｮｳｷﾀﾀﾞｲﾓﾝ","pref":"京都府","city":"木津川市","address":"加茂町北大門"},
{"zip_code":"6191152","kana_pref":"ｷｮｳﾄﾌ","kana_city":"ｷﾂﾞｶﾞﾜｼ","kana_address":"ｶﾓﾁｮｳｻﾄ","pref":"京都府","city":"木津川市","address":"加茂町里"},
{"zip_code":"6191124","kana_pref":"ｷｮｳﾄﾌ","kana_city":"ｷﾂﾞｶﾞﾜｼ","kana_address":"ｶﾓﾁｮｳｼｮｳﾌﾞ","pref":"京都府","city":"木津川市","address":"加茂町勝風"},
{"zip_code":"6191126","kana_pref":"ｷｮｳﾄﾌ","kana_city":"ｷﾂﾞｶﾞﾜｼ","kana_address":"ｶﾓﾁｮｳｼﾘｴﾀﾞ","pref":"京都府","city":"木津川市","address":"加茂町尻枝"},
{"zip_code":"6191101","kana_pref":"ｷｮｳﾄﾌ","kana_city":"ｷﾂﾞｶﾞﾜｼ","kana_address":"ｶﾓﾁｮｳｾﾞｽﾞ","pref":"京都府","city":"木津川市","address":"加茂町銭司"},
{"zip_code":"6191125","kana_pref":"ｷｮｳﾄﾌ","kana_city":"ｷﾂﾞｶﾞﾜｼ","kana_address":"ｶﾓﾁｮｳﾀｶｻﾘ","pref":"京都府","city":"木津川市","address":"加茂町高去"},
{"zip_code":"6191144","kana_pref":"ｷｮｳﾄﾌ","kana_city":"ｷﾂﾞｶﾞﾜｼ","kana_address":"ｶﾓﾁｮｳﾀｶﾀ","pref":"京都府","city":"木津川市","address":"加茂町高田"},
{"zip_code":"6191131","kana_pref":"ｷｮｳﾄﾌ","kana_city":"ｷﾂﾞｶﾞﾜｼ","kana_address":"ｶﾓﾁｮｳﾂｼﾞ","pref":"京都府","city":"木津川市","address":"加茂町辻"},
{"zip_code":"6191105","kana_pref":"ｷｮｳﾄﾌ","kana_city":"ｷﾂﾞｶﾞﾜｼ","kana_address":"ｶﾓﾁｮｳﾆｼ","pref":"京都府","city":"木津川市","address":"加茂町西"},
{"zip_code":"6191135","kana_pref":"ｷｮｳﾄﾌ","kana_city":"ｷﾂﾞｶﾞﾜｼ","kana_address":"ｶﾓﾁｮｳﾆｼｵ","pref":"京都府","city":"木津川市","address":"加茂町西小"},
{"zip_code":"6191134","kana_pref":"ｷｮｳﾄﾌ","kana_city":"ｷﾂﾞｶﾞﾜｼ","kana_address":"ｶﾓﾁｮｳﾋｶﾞｼｵｶﾐ","pref":"京都府","city":"木津川市","address":"加茂町東小上"},
{"zip_code":"6191134","kana_pref":"ｷｮｳﾄﾌ","kana_city":"ｷﾂﾞｶﾞﾜｼ","kana_address":"ｶﾓﾁｮｳﾋｶﾞｼｵｼﾀ","pref":"京都府","city":"木津川市","address":"加茂町東小下"},
{"zip_code":"6191141","kana_pref":"ｷｮｳﾄﾌ","kana_city":"ｷﾂﾞｶﾞﾜｼ","kana_address":"ｶﾓﾁｮｳﾎｯｹｼﾞﾉ","pref":"京都府","city":"木津川市","address":"加茂町法花寺野"},
{"zip_code":"6191151","kana_pref":"ｷｮｳﾄﾌ","kana_city":"ｷﾂﾞｶﾞﾜｼ","kana_address":"ｶﾓﾁｮｳﾐﾅﾐ","pref":"京都府","city":"木津川市","address":"加茂町美浪"},
{"zip_code":"6191122","kana_pref":"ｷｮｳﾄﾌ","kana_city":"ｷﾂﾞｶﾞﾜｼ","kana_address":"ｶﾓﾁｮｳﾐﾅﾐｼﾓﾃﾞ","pref":"京都府","city":"木津川市","address":"加茂町南下手"},
{"zip_code":"6191136","kana_pref":"ｷｮｳﾄﾌ","kana_city":"ｷﾂﾞｶﾞﾜｼ","kana_address":"ｶﾓﾁｮｳﾐﾅﾐﾀﾞｲﾓﾝ","pref":"京都府","city":"木津川市","address":"加茂町南大門"},
{"zip_code":"6191123","kana_pref":"ｷｮｳﾄﾌ","kana_city":"ｷﾂﾞｶﾞﾜｼ","kana_address":"ｶﾓﾁｮｳﾓﾘ","pref":"京都府","city":"木津川市","address":"加茂町森"},
{"zip_code":"6191111","kana_pref":"ｷｮｳﾄﾌ","kana_city":"ｷﾂﾞｶﾞﾜｼ","kana_address":"ｶﾓﾁｮｳﾔﾏﾀﾞ","pref":"京都府","city":"木津川市","address":"加茂町山田"},
{"zip_code":"6191106","kana_pref":"ｷｮｳﾄﾌ","kana_city":"ｷﾂﾞｶﾞﾜｼ","kana_address":"ｶﾓﾁｮｳﾚｲﾍｲ","pref":"京都府","city":"木津川市","address":"加茂町例幣"},
{"zip_code":"6190214","kana_pref":"ｷｮｳﾄﾌ","kana_city":"ｷﾂﾞｶﾞﾜｼ","kana_address":"ｷﾂﾞ","pref":"京都府","city":"木津川市","address":"木津"},
{"zip_code":"6190225","kana_pref":"ｷｮｳﾄﾌ","kana_city":"ｷﾂﾞｶﾞﾜｼ","kana_address":"ｷﾂﾞｶﾞﾜﾀﾞｲ","pref":"京都府","city":"木津川市","address":"木津川台"},
{"zip_code":"6190217","kana_pref":"ｷｮｳﾄﾌ","kana_city":"ｷﾂﾞｶﾞﾜｼ","kana_address":"ｷﾂﾞﾏﾁ","pref":"京都府","city":"木津川市","address":"木津町"},
{"zip_code":"6190216","kana_pref":"ｷｮｳﾄﾌ","kana_city":"ｷﾂﾞｶﾞﾜｼ","kana_address":"ｸﾆﾐﾀﾞｲ","pref":"京都府","city":"木津川市","address":"州見台"},
{"zip_code":"6190222","kana_pref":"ｷｮｳﾄﾌ","kana_city":"ｷﾂﾞｶﾞﾜｼ","kana_address":"ｻｶﾞﾅｶ","pref":"京都府","city":"木津川市","address":"相楽"},
{"zip_code":"6190223","kana_pref":"ｷｮｳﾄﾌ","kana_city":"ｷﾂﾞｶﾞﾜｼ","kana_address":"ｻｶﾞﾅｶﾀﾞｲ","pref":"京都府","city":"木津川市","address":"相楽台"},
{"zip_code":"6191127","kana_pref":"ｷｮｳﾄﾌ","kana_city":"ｷﾂﾞｶﾞﾜｼ","kana_address":"ﾅｶﾞﾓﾀﾞｲ","pref":"京都府","city":"木津川市","address":"南加茂台"},
{"zip_code":"6190221","kana_pref":"ｷｮｳﾄﾌ","kana_city":"ｷﾂﾞｶﾞﾜｼ","kana_address":"ﾊｾﾞ","pref":"京都府","city":"木津川市","address":"吐師"},
{"zip_code":"6190201","kana_pref":"ｷｮｳﾄﾌ","kana_city":"ｷﾂﾞｶﾞﾜｼ","kana_address":"ﾔﾏｼﾛﾁｮｳｶﾊﾞﾀ","pref":"京都府","city":"木津川市","address":"山城町綺田"},
{"zip_code":"6190204","kana_pref":"ｷｮｳﾄﾌ","kana_city":"ｷﾂﾞｶﾞﾜｼ","kana_address":"ﾔﾏｼﾛﾁｮｳｶﾐｺﾏ","pref":"京都府","city":"木津川市","address":"山城町上狛"},
{"zip_code":"6190206","kana_pref":"ｷｮｳﾄﾌ","kana_city":"ｷﾂﾞｶﾞﾜｼ","kana_address":"ﾔﾏｼﾛﾁｮｳｷﾀｶﾞﾜﾗ","pref":"京都府","city":"木津川市","address":"山城町北河原"},
{"zip_code":"6190203","kana_pref":"ｷｮｳﾄﾌ","kana_city":"ｷﾂﾞｶﾞﾜｼ","kana_address":"ﾔﾏｼﾛﾁｮｳｼﾞﾝﾄﾞｳｼﾞ","pref":"京都府","city":"木津川市","address":"山城町神童子"},
{"zip_code":"6190205","kana_pref":"ｷｮｳﾄﾌ","kana_city":"ｷﾂﾞｶﾞﾜｼ","kana_address":"ﾔﾏｼﾛﾁｮｳﾂﾊﾞｲ","pref":"京都府","city":"木津川市","address":"山城町椿井"},
{"zip_code":"6190202","kana_pref":"ｷｮｳﾄﾌ","kana_city":"ｷﾂﾞｶﾞﾜｼ","kana_address":"ﾔﾏｼﾛﾁｮｳﾋﾗｵ","pref":"京都府","city":"木津川市","address":"山城町平尾"},
{"zip_code":"6191300","kana_pref":"ｷｮｳﾄﾌ","kana_city":"ｿｳﾗｸｸﾞﾝｶｻｷﾞﾁｮｳ","kana_address":"","pref":"京都府","city":"相楽郡笠置町","address":""},
{"zip_code":"6191302","kana_pref":"ｷｮｳﾄﾌ","kana_city":"ｿｳﾗｸｸﾞﾝｶｻｷﾞﾁｮｳ","kana_address":"ｱｽｶｼﾞ","pref":"京都府","city":"相楽郡笠置町","address":"飛鳥路"},
{"zip_code":"6191301","kana_pref":"ｷｮｳﾄﾌ","kana_city":"ｿｳﾗｸｸﾞﾝｶｻｷﾞﾁｮｳ","kana_address":"ｱﾘｲﾁ","pref":"京都府","city":"相楽郡笠置町","address":"有市"},
{"zip_code":"6191303","kana_pref":"ｷｮｳﾄﾌ","kana_city":"ｿｳﾗｸｸﾞﾝｶｻｷﾞﾁｮｳ","kana_address":"ｶｻｷﾞ","pref":"京都府","city":"相楽郡笠置町","address":"笠置"},
{"zip_code":"6191304","kana_pref":"ｷｮｳﾄﾌ","kana_city":"ｿｳﾗｸｸﾞﾝｶｻｷﾞﾁｮｳ","kana_address":"ｷﾘﾔﾏ","pref":"京都府","city":"相楽郡笠置町","address":"切山"},
{"zip_code":"6191200","kana_pref":"ｷｮｳﾄﾌ","kana_city":"ｿｳﾗｸｸﾞﾝﾜﾂﾞｶﾁｮｳ","kana_address":"","pref":"京都府","city":"相楽郡和束町","address":""},
{"zip_code":"6191221","kana_pref":"ｷｮｳﾄﾌ","kana_city":"ｿｳﾗｸｸﾞﾝﾜﾂﾞｶﾁｮｳ","kana_address":"ｲｼﾃﾗ","pref":"京都府","city":"相楽郡和束町","address":"石寺"},
{"zip_code":"6191225","kana_pref":"ｷｮｳﾄﾌ","kana_city":"ｿｳﾗｸｸﾞﾝﾜﾂﾞｶﾁｮｳ","kana_address":"ｴﾘﾊﾗ","pref":"京都府","city":"相楽郡和束町","address":"撰原"},
{"zip_code":"6191212","kana_pref":"ｷｮｳﾄﾌ","kana_city":"ｿｳﾗｸｸﾞﾝﾜﾂﾞｶﾁｮｳ","kana_address":"ｶﾏﾂｶ","pref":"京都府","city":"相楽郡和束町","address":"釜塚"},
{"zip_code":"6191224","kana_pref":"ｷｮｳﾄﾌ","kana_city":"ｿｳﾗｸｸﾞﾝﾜﾂﾞｶﾁｮｳ","kana_address":"ｺﾔ","pref":"京都府","city":"相楽郡和束町","address":"木屋"},
{"zip_code":"6191226","kana_pref":"ｷｮｳﾄﾌ","kana_city":"ｿｳﾗｸｸﾞﾝﾜﾂﾞｶﾁｮｳ","kana_address":"ｼﾓｼﾞﾏ","pref":"京都府","city":"相楽郡和束町","address":"下島"},
{"zip_code":"6191222","kana_pref":"ｷｮｳﾄﾌ","kana_city":"ｿｳﾗｸｸﾞﾝﾜﾂﾞｶﾁｮｳ","kana_address":"ｼﾗｽ","pref":"京都府","city":"相楽郡和束町","address":"白栖"},
{"zip_code":"6191201","kana_pref":"ｷｮｳﾄﾌ","kana_city":"ｿｳﾗｸｸﾞﾝﾜﾂﾞｶﾁｮｳ","kana_address":"ｿﾉ","pref":"京都府","city":"相楽郡和束町","address":"園"},
{"zip_code":"6191223","kana_pref":"ｷｮｳﾄﾌ","kana_city":"ｿｳﾗｸｸﾞﾝﾜﾂﾞｶﾁｮｳ","kana_address":"ｿﾏﾀﾞ","pref":"京都府","city":"相楽郡和束町","address":"杣田"},
{"zip_code":"6191205","kana_pref":"ｷｮｳﾄﾌ","kana_city":"ｿｳﾗｸｸﾞﾝﾜﾂﾞｶﾁｮｳ","kana_address":"ﾅｶ","pref":"京都府","city":"相楽郡和束町","address":"中"},
{"zip_code":"6191202","kana_pref":"ｷｮｳﾄﾌ","kana_city":"ｿｳﾗｸｸﾞﾝﾜﾂﾞｶﾁｮｳ","kana_address":"ﾊﾗﾔﾏ","pref":"京都府","city":"相楽郡和束町","address":"原山"},
{"zip_code":"6191211","kana_pref":"ｷｮｳﾄﾌ","kana_city":"ｿｳﾗｸｸﾞﾝﾜﾂﾞｶﾁｮｳ","kana_address":"ﾍﾞｯｼｮ","pref":"京都府","city":"相楽郡和束町","address":"別所"},
{"zip_code":"6191213","kana_pref":"ｷｮｳﾄﾌ","kana_city":"ｿｳﾗｸｸﾞﾝﾜﾂﾞｶﾁｮｳ","kana_address":"ﾐﾅﾐ","pref":"京都府","city":"相楽郡和束町","address":"南"},
{"zip_code":"6191204","kana_pref":"ｷｮｳﾄﾌ","kana_city":"ｿｳﾗｸｸﾞﾝﾜﾂﾞｶﾁｮｳ","kana_address":"ﾓﾝｾﾞﾝ","pref":"京都府","city":"相楽郡和束町","address":"門前"},
{"zip_code":"6191203","kana_pref":"ｷｮｳﾄﾌ","kana_city":"ｿｳﾗｸｸﾞﾝﾜﾂﾞｶﾁｮｳ","kana_address":"ﾕﾌﾞﾈ","pref":"京都府","city":"相楽郡和束町","address":"湯船"},
{"zip_code":"6190200","kana_pref":"ｷｮｳﾄﾌ","kana_city":"ｿｳﾗｸｸﾞﾝｾｲｶﾁｮｳ","kana_address":"","pref":"京都府","city":"相楽郡精華町","address":""},
{"zip_code":"6190233","kana_pref":"ｷｮｳﾄﾌ","kana_city":"ｿｳﾗｸｸﾞﾝｾｲｶﾁｮｳ","kana_address":"ｲﾇｲﾀﾞﾆ","pref":"京都府","city":"相楽郡精華町","address":"乾谷"},
{"zip_code":"6190236","kana_pref":"ｷｮｳﾄﾌ","kana_city":"ｿｳﾗｸｸﾞﾝｾｲｶﾁｮｳ","kana_address":"ｳｴﾀﾞ","pref":"京都府","city":"相楽郡精華町","address":"植田"},
{"zip_code":"6190244","kana_pref":"ｷｮｳﾄﾌ","kana_city":"ｿｳﾗｸｸﾞﾝｾｲｶﾁｮｳ","kana_address":"ｷﾀｲﾅﾔﾂﾞﾏ","pref":"京都府","city":"相楽郡精華町","address":"北稲八間"},
{"zip_code":"6190232","kana_pref":"ｷｮｳﾄﾌ","kana_city":"ｿｳﾗｸｸﾞﾝｾｲｶﾁｮｳ","kana_address":"ｻｸﾗｶﾞｵｶ","pref":"京都府","city":"相楽郡精華町","address":"桜が丘"},
{"zip_code":"6190234","kana_pref":"ｷｮｳﾄﾌ","kana_city":"ｿｳﾗｸｸﾞﾝｾｲｶﾁｮｳ","kana_address":"ｻﾞｸﾛ","pref":"京都府","city":"相楽郡精華町","address":"柘榴"},
{"zip_code":"6190245","kana_pref":"ｷｮｳﾄﾌ","kana_city":"ｿｳﾗｸｸﾞﾝｾｲｶﾁｮｳ","kana_address":"ｼﾓｺﾏ","pref":"京都府","city":"相楽郡精華町","address":"下狛"},
{"zip_code":"6190242","kana_pref":"ｷｮｳﾄﾌ","kana_city":"ｿｳﾗｸｸﾞﾝｾｲｶﾁｮｳ","kana_address":"ｽｶﾞｲ","pref":"京都府","city":"相楽郡精華町","address":"菅井"},
{"zip_code":"6190238","kana_pref":"ｷｮｳﾄﾌ","kana_city":"ｿｳﾗｸｸﾞﾝｾｲｶﾁｮｳ","kana_address":"ｾｲｶﾀﾞｲ","pref":"京都府","city":"相楽郡精華町","address":"精華台"},
{"zip_code":"6190235","kana_pref":"ｷｮｳﾄﾌ","kana_city":"ｿｳﾗｸｸﾞﾝｾｲｶﾁｮｳ","kana_address":"ﾋｶﾞｼﾊﾞﾀ","pref":"京都府","city":"相楽郡精華町","address":"東畑"},
{"zip_code":"6190237","kana_pref":"ｷｮｳﾄﾌ","kana_city":"ｿｳﾗｸｸﾞﾝｾｲｶﾁｮｳ","kana_address":"ﾋｶﾘﾀﾞｲ","pref":"京都府","city":"相楽郡精華町","address":"光台"},
{"zip_code":"6190246","kana_pref":"ｷｮｳﾄﾌ","kana_city":"ｿｳﾗｸｸﾞﾝｾｲｶﾁｮｳ","kana_address":"ﾋｼﾀﾞ","pref":"京都府","city":"相楽郡精華町","address":"菱田"},
{"zip_code":"6190241","kana_pref":"ｷｮｳﾄﾌ","kana_city":"ｿｳﾗｸｸﾞﾝｾｲｶﾁｮｳ","kana_address":"ﾎｳｿﾉ","pref":"京都府","city":"相楽郡精華町","address":"祝園"},
{"zip_code":"6190240","kana_pref":"ｷｮｳﾄﾌ","kana_city":"ｿｳﾗｸｸﾞﾝｾｲｶﾁｮｳ","kana_address":"ﾎｳｿﾉﾆｼ","pref":"京都府","city":"相楽郡精華町","address":"祝園西"},
{"zip_code":"6190243","kana_pref":"ｷｮｳﾄﾌ","kana_city":"ｿｳﾗｸｸﾞﾝｾｲｶﾁｮｳ","kana_address":"ﾐﾅﾐｲﾅﾔﾂﾞﾏ","pref":"京都府","city":"相楽郡精華町","address":"南稲八妻"},
{"zip_code":"6190231","kana_pref":"ｷｮｳﾄﾌ","kana_city":"ｿｳﾗｸｸﾞﾝｾｲｶﾁｮｳ","kana_address":"ﾔﾏﾀﾞ","pref":"京都府","city":"相楽郡精華町","address":"山田"},
{"zip_code":"6191400","kana_pref":"ｷｮｳﾄﾌ","kana_city":"ｿｳﾗｸｸﾞﾝﾐﾅﾐﾔﾏｼﾛﾑﾗ","kana_address":"","pref":"京都府","city":"相楽郡南山城村","address":""},
{"zip_code":"6191411","kana_pref":"ｷｮｳﾄﾌ","kana_city":"ｿｳﾗｸｸﾞﾝﾐﾅﾐﾔﾏｼﾛﾑﾗ","kana_address":"ｷﾀｵｵｶﾜﾗ","pref":"京都府","city":"相楽郡南山城村","address":"北大河原"},
{"zip_code":"6191422","kana_pref":"ｷｮｳﾄﾌ","kana_city":"ｿｳﾗｸｸﾞﾝﾐﾅﾐﾔﾏｼﾛﾑﾗ","kana_address":"ﾀｶｵ","pref":"京都府","city":"相楽郡南山城村","address":"高尾"},
{"zip_code":"6191421","kana_pref":"ｷｮｳﾄﾌ","kana_city":"ｿｳﾗｸｸﾞﾝﾐﾅﾐﾔﾏｼﾛﾑﾗ","kana_address":"ﾀﾔﾏ","pref":"京都府","city":"相楽郡南山城村","address":"田山"},
{"zip_code":"6191401","kana_pref":"ｷｮｳﾄﾌ","kana_city":"ｿｳﾗｸｸﾞﾝﾐﾅﾐﾔﾏｼﾛﾑﾗ","kana_address":"ﾄﾞｳｾﾝﾎﾞｳ","pref":"京都府","city":"相楽郡南山城村","address":"童仙房"},
{"zip_code":"6191402","kana_pref":"ｷｮｳﾄﾌ","kana_city":"ｿｳﾗｸｸﾞﾝﾐﾅﾐﾔﾏｼﾛﾑﾗ","kana_address":"ﾉﾄﾞﾉ","pref":"京都府","city":"相楽郡南山城村","address":"野殿"},
{"zip_code":"6191412","kana_pref":"ｷｮｳﾄﾌ","kana_city":"ｿｳﾗｸｸﾞﾝﾐﾅﾐﾔﾏｼﾛﾑﾗ","kana_address":"ﾐﾅﾐｵｵｶﾜﾗ","pref":"京都府","city":"相楽郡南山城村","address":"南大河原"}]}