{"zip_code":[
{"zip_code":"6200000","kana_pref":"ｷｮｳﾄﾌ","kana_city":"ﾌｸﾁﾔﾏｼ","kana_address":"","pref":"京都府","city":"福知山市","address":""},
{"zip_code":"6200861","kana_pref":"ｷｮｳﾄﾌ","kana_city":"ﾌｸﾁﾔﾏｼ","kana_address":"ｱｷﾂｶﾞｵｶ","pref":"京都府","city":"福知山市","address":"秋津が丘"},
{"zip_code":"6200947","kana_pref":"ｷｮｳﾄﾌ","kana_city":"ﾌｸﾁﾔﾏｼ","kana_address":"ｱｻﾋｶﾞｵｶ","pref":"京都府","city":"福知山市","address":"旭が丘"},
{"zip_code":"6200058","kana_pref":"ｷｮｳﾄﾌ","kana_city":"ﾌｸﾁﾔﾏｼ","kana_address":"ｱﾂ","pref":"京都府","city":"福知山市","address":"厚"},
{"zip_code":"6200056","kana_pref":"ｷｮｳﾄﾌ","kana_city":"ﾌｸﾁﾔﾏｼ","kana_address":"ｱﾂﾅｶﾏﾁ","pref":"京都府","city":"福知山市","address":"厚中町"},
{"zip_code":"6200059","kana_pref":"ｷｮｳﾄﾌ","kana_city":"ﾌｸﾁﾔﾏｼ","kana_address":"ｱﾂﾋｶﾞｼﾏﾁ","pref":"京都府","city":"福知山市","address":"厚東町"},
{"zip_code":"6200964","kana_pref":"ｷｮｳﾄﾌ","kana_city":"ﾌｸﾁﾔﾏｼ","kana_address":"ｱﾏｸﾞﾘ","pref":"京都府","city":"福知山市","address":"甘栗"},
{"zip_code":"6200201","kana_pref":"ｷｮｳﾄﾌ","kana_city":"ﾌｸﾁﾔﾏｼ","kana_address":"ｱﾏｻﾞ","pref":"京都府","city":"福知山市","address":"天座"},
{"zip_code":"6200063","kana_pref":"ｷｮｳﾄﾌ","kana_city":"ﾌｸﾁﾔﾏｼ","kana_address":"ｱﾗｶﾞｼﾝﾏﾁ","pref":"京都府","city":"福知山市","address":"荒河新町"},
{"zip_code":"6200061","kana_pref":"ｷｮｳﾄﾌ","kana_city":"ﾌｸﾁﾔﾏｼ","kana_address":"ｱﾗｶﾞﾋｶﾞｼﾏﾁ","pref":"京都府","city":"福知山市","address":"荒河東町"},
{"zip_code":"6200879","kana_pref":"ｷｮｳﾄﾌ","kana_city":"ﾌｸﾁﾔﾏｼ","kana_address":"ｱﾗｷ","pref":"京都府","city":"福知山市","address":"荒木"},
{"zip_code":"6200823","kana_pref":"ｷｮｳﾄﾌ","kana_city":"ﾌｸﾁﾔﾏｼ","kana_address":"ｲｸﾉ","pref":"京都府","city":"福知山市","address":"生野"},
{"zip_code":"6200832","kana_pref":"ｷｮｳﾄﾌ","kana_city":"ﾌｸﾁﾔﾏｼ","kana_address":"ｲｹﾀﾞ","pref":"京都府","city":"福知山市","address":"池田"},
{"zip_code":"6200013","kana_pref":"ｷｮｳﾄﾌ","kana_city":"ﾌｸﾁﾔﾏｼ","kana_address":"ｲｹﾍﾞ","pref":"京都府","city":"福知山市","address":"池部"},
{"zip_code":"6200804","kana_pref":"ｷｮｳﾄﾌ","kana_city":"ﾌｸﾁﾔﾏｼ","kana_address":"ｲｻ","pref":"京都府","city":"福知山市","address":"石原"},
{"zip_code":"6200017","kana_pref":"ｷｮｳﾄﾌ","kana_city":"ﾌｸﾁﾔﾏｼ","kana_address":"ｲｻﾞｷ","pref":"京都府","city":"福知山市","address":"猪崎"},
{"zip_code":"6200961","kana_pref":"ｷｮｳﾄﾌ","kana_city":"ﾌｸﾁﾔﾏｼ","kana_address":"ｲｼﾊﾞ","pref":"京都府","city":"福知山市","address":"石場"},
{"zip_code":"6200074","kana_pref":"ｷｮｳﾄﾌ","kana_city":"ﾌｸﾁﾔﾏｼ","kana_address":"ｲｼﾓﾄ","pref":"京都府","city":"福知山市","address":"石本"},
{"zip_code":"6200071","kana_pref":"ｷｮｳﾄﾌ","kana_city":"ﾌｸﾁﾔﾏｼ","kana_address":"ｲﾁｵ","pref":"京都府","city":"福知山市","address":"一尾"},
{"zip_code":"6200939","kana_pref":"ｷｮｳﾄﾌ","kana_city":"ﾌｸﾁﾔﾏｼ","kana_address":"ｲﾁﾃﾞﾗ","pref":"京都府","city":"福知山市","address":"市寺"},
{"zip_code":"6200848","kana_pref":"ｷｮｳﾄﾌ","kana_city":"ﾌｸﾁﾔﾏｼ","kana_address":"ｲﾁﾉﾀﾆ","pref":"京都府","city":"福知山市","address":"市の谷"},
{"zip_code":"6200907","kana_pref":"ｷｮｳﾄﾌ","kana_city":"ﾌｸﾁﾔﾏｼ","kana_address":"ｲﾁﾉﾐﾔ","pref":"京都府","city":"福知山市","address":"一ノ宮"},
{"zip_code":"6200212","kana_pref":"ｷｮｳﾄﾌ","kana_city":"ﾌｸﾁﾔﾏｼ","kana_address":"ｲﾂﾓﾘ","pref":"京都府","city":"福知山市","address":"行積"},
{"zip_code":"6200984","kana_pref":"ｷｮｳﾄﾌ","kana_city":"ﾌｸﾁﾔﾏｼ","kana_address":"ｲﾉﾉ","pref":"京都府","city":"福知山市","address":"猪野々"},
{"zip_code":"6200953","kana_pref":"ｷｮｳﾄﾌ","kana_city":"ﾌｸﾁﾔﾏｼ","kana_address":"ｲﾏﾔｽ","pref":"京都府","city":"福知山市","address":"今安"},
{"zip_code":"6200031","kana_pref":"ｷｮｳﾄﾌ","kana_city":"ﾌｸﾁﾔﾏｼ","kana_address":"ｲﾓｼﾞ","pref":"京都府","city":"福知山市","address":"鋳物師"},
{"zip_code":"6200922","kana_pref":"ｷｮｳﾄﾌ","kana_city":"ﾌｸﾁﾔﾏｼ","kana_address":"ｲﾜｲ","pref":"京都府","city":"福知山市","address":"岩井"},
{"zip_code":"6200920","kana_pref":"ｷｮｳﾄﾌ","kana_city":"ﾌｸﾁﾔﾏｼ","kana_address":"ｲﾜｲｼﾝﾏﾁ","pref":"京都府","city":"福知山市","address":"岩井新町"},
{"zip_code":"6200064","kana_pref":"ｷｮｳﾄﾌ","kana_city":"ﾌｸﾁﾔﾏｼ","kana_address":"ｲﾜｲﾋｶﾞｼﾏﾁ","pref":"京都府","city":"福知山市","address":"岩井東町"},
{"zip_code":"6200831","kana_pref":"ｷｮｳﾄﾌ","kana_city":"ﾌｸﾁﾔﾏｼ","kana_address":"ｲﾜｻｷ","pref":"京都府","city":"福知山市","address":"岩崎"},
{"zip_code":"6200847","kana_pref":"ｷｮｳﾄﾌ","kana_city":"ﾌｸﾁﾔﾏｼ","kana_address":"ｲﾜﾏ","pref":"京都府","city":"福知山市","address":"岩間"},
{"zip_code":"6200005","kana_pref":"ｷｮｳﾄﾌ","kana_city":"ﾌｸﾁﾔﾏｼ","kana_address":"ｲﾝﾅｲ","pref":"京都府","city":"福知山市","address":"印内"},
{"zip_code":"6200825","kana_pref":"ｷｮｳﾄﾌ","kana_city":"ﾌｸﾁﾔﾏｼ","kana_address":"ｳｴﾉ","pref":"京都府","city":"福知山市","address":"上野"},
{"zip_code":"6200845","kana_pref":"ｷｮｳﾄﾌ","kana_city":"ﾌｸﾁﾔﾏｼ","kana_address":"ｳｴﾏﾂ","pref":"京都府","city":"福知山市","address":"上松"},
{"zip_code":"6200881","kana_pref":"ｷｮｳﾄﾌ","kana_city":"ﾌｸﾁﾔﾏｼ","kana_address":"ｳﾁﾀﾞﾁｮｳ","pref":"京都府","city":"福知山市","address":"内田町"},
{"zip_code":"6200985","kana_pref":"ｷｮｳﾄﾌ","kana_city":"ﾌｸﾁﾔﾏｼ","kana_address":"ｳﾒﾀﾞﾆ","pref":"京都府","city":"福知山市","address":"梅谷"},
{"zip_code":"6200076","kana_pref":"ｷｮｳﾄﾌ","kana_city":"ﾌｸﾁﾔﾏｼ","kana_address":"ｳﾙｼｶﾞﾊﾅ","pref":"京都府","city":"福知山市","address":"漆端"},
{"zip_code":"6200940","kana_pref":"ｷｮｳﾄﾌ","kana_city":"ﾌｸﾁﾔﾏｼ","kana_address":"ｴｷﾅﾝﾁｮｳ","pref":"京都府","city":"福知山市","address":"駅南町"},
{"zip_code":"6200045","kana_pref":"ｷｮｳﾄﾌ","kana_city":"ﾌｸﾁﾔﾏｼ","kana_address":"ｴｷﾏｴﾁｮｳ","pref":"京都府","city":"福知山市","address":"駅前町"},
{"zip_code":"6200918","kana_pref":"ｷｮｳﾄﾌ","kana_city":"ﾌｸﾁﾔﾏｼ","kana_address":"ｴﾋﾞｽ","pref":"京都府","city":"福知山市","address":"夷"},
{"zip_code":"6200816","kana_pref":"ｷｮｳﾄﾌ","kana_city":"ﾌｸﾁﾔﾏｼ","kana_address":"ｵｵｲｹｻﾞｶﾁｮｳ","pref":"京都府","city":"福知山市","address":"大池坂町"},
{"zip_code":"6200325","kana_pref":"ｷｮｳﾄﾌ","kana_city":"ﾌｸﾁﾔﾏｼ","kana_address":"ｵｵｴﾁｮｳｱﾏﾀﾞｳﾁ","pref":"京都府","city":"福知山市","address":"大江町天田内"},
{"zip_code":"6200354","kana_pref":"ｷｮｳﾄﾌ","kana_city":"ﾌｸﾁﾔﾏｼ","kana_address":"ｵｵｴﾁｮｳｱﾘﾀ","pref":"京都府","city":"福知山市","address":"大江町在田"},
{"zip_code":"6200334","kana_pref":"ｷｮｳﾄﾌ","kana_city":"ﾌｸﾁﾔﾏｼ","kana_address":"ｵｵｴﾁｮｳｲﾁﾜﾗﾀﾞﾆ","pref":"京都府","city":"福知山市","address":"大江町市原谷"},
{"zip_code":"6200304","kana_pref":"ｷｮｳﾄﾌ","kana_city":"ﾌｸﾁﾔﾏｼ","kana_address":"ｵｵｴﾁｮｳｳｴﾉ","pref":"京都府","city":"福知山市","address":"大江町上野"},
{"zip_code":"6200314","kana_pref":"ｷｮｳﾄﾌ","kana_city":"ﾌｸﾁﾔﾏｼ","kana_address":"ｵｵｴﾁｮｳｵﾜﾗﾀ","pref":"京都府","city":"福知山市","address":"大江町小原田"},
{"zip_code":"6200303","kana_pref":"ｷｮｳﾄﾌ","kana_city":"ﾌｸﾁﾔﾏｼ","kana_address":"ｵｵｴﾁｮｳｶﾅﾔ","pref":"京都府","city":"福知山市","address":"大江町金屋"},
{"zip_code":"6200341","kana_pref":"ｷｮｳﾄﾌ","kana_city":"ﾌｸﾁﾔﾏｼ","kana_address":"ｵｵｴﾁｮｳｷﾀｱﾘｼﾞ","pref":"京都府","city":"福知山市","address":"大江町北有路"},
{"zip_code":"6200327","kana_pref":"ｷｮｳﾄﾌ","kana_city":"ﾌｸﾁﾔﾏｼ","kana_address":"ｵｵｴﾁｮｳｷﾀﾊﾞﾗ","pref":"京都府","city":"福知山市","address":"大江町北原"},
{"zip_code":"6200312","kana_pref":"ｷｮｳﾄﾌ","kana_city":"ﾌｸﾁﾔﾏｼ","kana_address":"ｵｵｴﾁｮｳｸﾞｼﾞｮｳ","pref":"京都府","city":"福知山市","address":"大江町公庄"},
{"zip_code":"6200322","kana_pref":"ｷｮｳﾄﾌ","kana_city":"ﾌｸﾁﾔﾏｼ","kana_address":"ｵｵｴﾁｮｳｹﾜﾗ","pref":"京都府","city":"福知山市","address":"大江町毛原"},
{"zip_code":"6200301","kana_pref":"ｷｮｳﾄﾌ","kana_city":"ﾌｸﾁﾔﾏｼ","kana_address":"ｵｵｴﾁｮｳｺｳﾓﾘ","pref":"京都府","city":"福知山市","address":"大江町河守"},
{"zip_code":"6200302","kana_pref":"ｷｮｳﾄﾌ","kana_city":"ﾌｸﾁﾔﾏｼ","kana_address":"ｵｵｴﾁｮｳｾｷ","pref":"京都府","city":"福知山市","address":"大江町関"},
{"zip_code":"6200351","kana_pref":"ｷｮｳﾄﾌ","kana_city":"ﾌｸﾁﾔﾏｼ","kana_address":"ｵｵｴﾁｮｳｾﾝﾊﾞﾗ","pref":"京都府","city":"福知山市","address":"大江町千原"},
{"zip_code":"6200331","kana_pref":"ｷｮｳﾄﾌ","kana_city":"ﾌｸﾁﾔﾏｼ","kana_address":"ｵｵｴﾁｮｳｿｳｺﾞ","pref":"京都府","city":"福知山市","address":"大江町三河"},
{"zip_code":"6200332","kana_pref":"ｷｮｳﾄﾌ","kana_city":"ﾌｸﾁﾔﾏｼ","kana_address":"ｵｵｴﾁｮｳﾀｶﾂｴ","pref":"京都府","city":"福知山市","address":"大江町高津江"},
{"zip_code":"6200311","kana_pref":"ｷｮｳﾄﾌ","kana_city":"ﾌｸﾁﾔﾏｼ","kana_address":"ｵｵｴﾁｮｳﾀﾃﾞﾜﾗ","pref":"京都府","city":"福知山市","address":"大江町蓼原"},
{"zip_code":"6200355","kana_pref":"ｷｮｳﾄﾌ","kana_city":"ﾌｸﾁﾔﾏｼ","kana_address":"ｵｵｴﾁｮｳﾂﾈﾂﾞ","pref":"京都府","city":"福知山市","address":"大江町常津"},
{"zip_code":"6200323","kana_pref":"ｷｮｳﾄﾌ","kana_city":"ﾌｸﾁﾔﾏｼ","kana_address":"ｵｵｴﾁｮｳﾅｲｸ","pref":"京都府","city":"福知山市","address":"大江町内宮"},
{"zip_code":"6200353","kana_pref":"ｷｮｳﾄﾌ","kana_city":"ﾌｸﾁﾔﾏｼ","kana_address":"ｵｵｴﾁｮｳﾅﾂﾏ","pref":"京都府","city":"福知山市","address":"大江町夏間"},
{"zip_code":"6200333","kana_pref":"ｷｮｳﾄﾌ","kana_city":"ﾌｸﾁﾔﾏｼ","kana_address":"ｵｵｴﾁｮｳﾆｶ","pref":"京都府","city":"福知山市","address":"大江町二箇"},
{"zip_code":"6200326","kana_pref":"ｷｮｳﾄﾌ","kana_city":"ﾌｸﾁﾔﾏｼ","kana_address":"ｵｵｴﾁｮｳﾊｼﾀﾞﾆ","pref":"京都府","city":"福知山市","address":"大江町橋谷"},
{"zip_code":"6200305","kana_pref":"ｷｮｳﾄﾌ","kana_city":"ﾌｸﾁﾔﾏｼ","kana_address":"ｵｵｴﾁｮｳﾊﾋﾞ","pref":"京都府","city":"福知山市","address":"大江町波美"},
{"zip_code":"6200313","kana_pref":"ｷｮｳﾄﾌ","kana_city":"ﾌｸﾁﾔﾏｼ","kana_address":"ｵｵｴﾁｮｳﾋﾄｳ","pref":"京都府","city":"福知山市","address":"大江町日藤"},
{"zip_code":"6200356","kana_pref":"ｷｮｳﾄﾌ","kana_city":"ﾌｸﾁﾔﾏｼ","kana_address":"ｵｵｴﾁｮｳﾋﾞﾄｳ","pref":"京都府","city":"福知山市","address":"大江町尾藤"},
{"zip_code":"6200324","kana_pref":"ｷｮｳﾄﾌ","kana_city":"ﾌｸﾁﾔﾏｼ","kana_address":"ｵｵｴﾁｮｳﾌﾀﾏﾀ","pref":"京都府","city":"福知山市","address":"大江町二俣"},
{"zip_code":"6200321","kana_pref":"ｷｮｳﾄﾌ","kana_city":"ﾌｸﾁﾔﾏｼ","kana_address":"ｵｵｴﾁｮｳﾌﾞﾂｼｮｳｼﾞ","pref":"京都府","city":"福知山市","address":"大江町仏性寺"},
{"zip_code":"6200342","kana_pref":"ｷｮｳﾄﾌ","kana_city":"ﾌｸﾁﾔﾏｼ","kana_address":"ｵｵｴﾁｮｳﾐﾅﾐｱﾘｼﾞ","pref":"京都府","city":"福知山市","address":"大江町南有路"},
{"zip_code":"6200352","kana_pref":"ｷｮｳﾄﾌ","kana_city":"ﾌｸﾁﾔﾏｼ","kana_address":"ｵｵｴﾁｮｳﾐﾅﾐﾔﾏ","pref":"京都府","city":"福知山市","address":"大江町南山"},
{"zip_code":"6200836","kana_pref":"ｷｮｳﾄﾌ","kana_city":"ﾌｸﾁﾔﾏｼ","kana_address":"ｵｵﾁ","pref":"京都府","city":"福知山市","address":"大内"},
{"zip_code":"6200858","kana_pref":"ｷｮｳﾄﾌ","kana_city":"ﾌｸﾁﾔﾏｼ","kana_address":"ｵｵﾉ","pref":"京都府","city":"福知山市","address":"大野"},
{"zip_code":"6200852","kana_pref":"ｷｮｳﾄﾌ","kana_city":"ﾌｸﾁﾔﾏｼ","kana_address":"ｵｵﾉｳｴ","pref":"京都府","city":"福知山市","address":"大野上"},
{"zip_code":"6200851","kana_pref":"ｷｮｳﾄﾌ","kana_city":"ﾌｸﾁﾔﾏｼ","kana_address":"ｵｵﾉｼﾀ","pref":"京都府","city":"福知山市","address":"大野下"},
{"zip_code":"6200988","kana_pref":"ｷｮｳﾄﾌ","kana_city":"ﾌｸﾁﾔﾏｼ","kana_address":"ｵｵﾐﾅｶﾞｿ","pref":"京都府","city":"福知山市","address":"大見長祖"},
{"zip_code":"6200077","kana_pref":"ｷｮｳﾄﾌ","kana_city":"ﾌｸﾁﾔﾏｼ","kana_address":"ｵｵﾛ","pref":"京都府","city":"福知山市","address":"大呂"},
{"zip_code":"6200872","kana_pref":"ｷｮｳﾄﾌ","kana_city":"ﾌｸﾁﾔﾏｼ","kana_address":"ｵｶﾉ1ﾏﾁ","pref":"京都府","city":"福知山市","address":"岡ノ一町"},
{"zip_code":"6200871","kana_pref":"ｷｮｳﾄﾌ","kana_city":"ﾌｸﾁﾔﾏｼ","kana_address":"ｵｶﾉ2ﾏﾁ","pref":"京都府","city":"福知山市","address":"岡ノ二町"},
{"zip_code":"6200873","kana_pref":"ｷｮｳﾄﾌ","kana_city":"ﾌｸﾁﾔﾏｼ","kana_address":"ｵｶﾉ3ﾏﾁ","pref":"京都府","city":"福知山市","address":"岡ノ三町"},
{"zip_code":"6200891","kana_pref":"ｷｮｳﾄﾌ","kana_city":"ﾌｸﾁﾔﾏｼ","kana_address":"ｵｶﾉｳｴﾏﾁ","pref":"京都府","city":"福知山市","address":"岡ノ上町"},
{"zip_code":"6200802","kana_pref":"ｷｮｳﾄﾌ","kana_city":"ﾌｸﾁﾔﾏｼ","kana_address":"ｵｷ","pref":"京都府","city":"福知山市","address":"興"},
{"zip_code":"6200963","kana_pref":"ｷｮｳﾄﾌ","kana_city":"ﾌｸﾁﾔﾏｼ","kana_address":"ｵｸｴﾊﾞﾗ","pref":"京都府","city":"福知山市","address":"奥榎原"},
{"zip_code":"6200928","kana_pref":"ｷｮｳﾄﾌ","kana_city":"ﾌｸﾁﾔﾏｼ","kana_address":"ｵｸﾉﾍﾞ","pref":"京都府","city":"福知山市","address":"奥野部"},
{"zip_code":"6200846","kana_pref":"ｷｮｳﾄﾌ","kana_city":"ﾌｸﾁﾔﾏｼ","kana_address":"ｵｻﾀﾞﾀﾞﾝ","pref":"京都府","city":"福知山市","address":"長田段"},
{"zip_code":"6200853","kana_pref":"ｷｮｳﾄﾌ","kana_city":"ﾌｸﾁﾔﾏｼ","kana_address":"ｵｻﾀﾞﾉﾁｮｳ","pref":"京都府","city":"福知山市","address":"長田野町"},
{"zip_code":"6200843","kana_pref":"ｷｮｳﾄﾌ","kana_city":"ﾌｸﾁﾔﾏｼ","kana_address":"ｵｻﾀﾞﾐﾅﾐ","pref":"京都府","city":"福知山市","address":"長田南"},
{"zip_code":"6200842","kana_pref":"ｷｮｳﾄﾌ","kana_city":"ﾌｸﾁﾔﾏｼ","kana_address":"ｵｻﾀﾞｷﾀ","pref":"京都府","city":"福知山市","address":"長田北"},
{"zip_code":"6200981","kana_pref":"ｷｮｳﾄﾌ","kana_city":"ﾌｸﾁﾔﾏｼ","kana_address":"ｵﾀﾞ","pref":"京都府","city":"福知山市","address":"小田"},
{"zip_code":"6200938","kana_pref":"ｷｮｳﾄﾌ","kana_city":"ﾌｸﾁﾔﾏｼ","kana_address":"ｵﾉﾜｷ","pref":"京都府","city":"福知山市","address":"小野脇"},
{"zip_code":"6200034","kana_pref":"ｷｮｳﾄﾌ","kana_city":"ﾌｸﾁﾔﾏｼ","kana_address":"ｶｼﾞ","pref":"京都府","city":"福知山市","address":"鍛冶"},
{"zip_code":"6200921","kana_pref":"ｷｮｳﾄﾌ","kana_city":"ﾌｸﾁﾔﾏｼ","kana_address":"ｶｼﾉｷﾀﾞｲ","pref":"京都府","city":"福知山市","address":"かしの木台"},
{"zip_code":"6200065","kana_pref":"ｷｮｳﾄﾌ","kana_city":"ﾌｸﾁﾔﾏｼ","kana_address":"ｶﾐｱﾗｶﾞ","pref":"京都府","city":"福知山市","address":"上荒河"},
{"zip_code":"6200911","kana_pref":"ｷｮｳﾄﾌ","kana_city":"ﾌｸﾁﾔﾏｼ","kana_address":"ｶﾐｵｵﾁ","pref":"京都府","city":"福知山市","address":"上大内"},
{"zip_code":"6200033","kana_pref":"ｷｮｳﾄﾌ","kana_city":"ﾌｸﾁﾔﾏｼ","kana_address":"ｶﾐｺﾔ","pref":"京都府","city":"福知山市","address":"上紺屋"},
{"zip_code":"6200901","kana_pref":"ｷｮｳﾄﾌ","kana_city":"ﾌｸﾁﾔﾏｼ","kana_address":"ｶﾐｻｻｷ","pref":"京都府","city":"福知山市","address":"上佐々木"},
{"zip_code":"6200925","kana_pref":"ｷｮｳﾄﾌ","kana_city":"ﾌｸﾁﾔﾏｼ","kana_address":"ｶﾐｻｿｵ","pref":"京都府","city":"福知山市","address":"上篠尾"},
{"zip_code":"6200028","kana_pref":"ｷｮｳﾄﾌ","kana_city":"ﾌｸﾁﾔﾏｼ","kana_address":"ｶﾐｼﾝ","pref":"京都府","city":"福知山市","address":"上新"},
{"zip_code":"6200214","kana_pref":"ｷｮｳﾄﾌ","kana_city":"ﾌｸﾁﾔﾏｼ","kana_address":"ｶﾐﾉｳｼﾞｮｳ","pref":"京都府","city":"福知山市","address":"上野条"},
{"zip_code":"6200987","kana_pref":"ｷｮｳﾄﾌ","kana_city":"ﾌｸﾁﾔﾏｼ","kana_address":"ｶﾓﾉﾁｮｳ","pref":"京都府","city":"福知山市","address":"鴨野町"},
{"zip_code":"6200969","kana_pref":"ｷｮｳﾄﾌ","kana_city":"ﾌｸﾁﾔﾏｼ","kana_address":"ｶﾔﾉﾀﾞｲ","pref":"京都府","city":"福知山市","address":"茅ノ台"},
{"zip_code":"6200004","kana_pref":"ｷｮｳﾄﾌ","kana_city":"ﾌｸﾁﾔﾏｼ","kana_address":"ｶﾜｷﾞﾀ","pref":"京都府","city":"福知山市","address":"川北"},
{"zip_code":"6200803","kana_pref":"ｷｮｳﾄﾌ","kana_city":"ﾌｸﾁﾔﾏｼ","kana_address":"ｶﾝﾉﾝｼﾞ","pref":"京都府","city":"福知山市","address":"観音寺"},
{"zip_code":"6200859","kana_pref":"ｷｮｳﾄﾌ","kana_city":"ﾌｸﾁﾔﾏｼ","kana_address":"ｷｷｮｳｶﾞｵｶ","pref":"京都府","city":"福知山市","address":"桔梗が丘"},
{"zip_code":"6200003","kana_pref":"ｷｮｳﾄﾌ","kana_city":"ﾌｸﾁﾔﾏｼ","kana_address":"ｷｻｲﾁ","pref":"京都府","city":"福知山市","address":"私市"},
{"zip_code":"6200902","kana_pref":"ｷｮｳﾄﾌ","kana_city":"ﾌｸﾁﾔﾏｼ","kana_address":"ｷﾀ","pref":"京都府","city":"福知山市","address":"喜多"},
{"zip_code":"6200943","kana_pref":"ｷｮｳﾄﾌ","kana_city":"ﾌｸﾁﾔﾏｼ","kana_address":"ｷﾀｵｶﾁｮｳ","pref":"京都府","city":"福知山市","address":"北岡町"},
{"zip_code":"6200893","kana_pref":"ｷｮｳﾄﾌ","kana_city":"ﾌｸﾁﾔﾏｼ","kana_address":"ｷﾀｺﾀﾆｶﾞｵｶ","pref":"京都府","city":"福知山市","address":"北小谷ケ丘"},
{"zip_code":"6200043","kana_pref":"ｷｮｳﾄﾌ","kana_city":"ﾌｸﾁﾔﾏｼ","kana_address":"ｷﾀｻｶｴﾏﾁ","pref":"京都府","city":"福知山市","address":"北栄町"},
{"zip_code":"6200931","kana_pref":"ｷｮｳﾄﾌ","kana_city":"ﾌｸﾁﾔﾏｼ","kana_address":"ｷﾀﾊｺﾞｳ","pref":"京都府","city":"福知山市","address":"北羽合"},
{"zip_code":"6200811","kana_pref":"ｷｮｳﾄﾌ","kana_city":"ﾌｸﾁﾔﾏｼ","kana_address":"ｷﾀﾋﾗﾉﾁｮｳ","pref":"京都府","city":"福知山市","address":"北平野町"},
{"zip_code":"6200041","kana_pref":"ｷｮｳﾄﾌ","kana_city":"ﾌｸﾁﾔﾏｼ","kana_address":"ｷﾀﾎﾝﾏﾁｲｯｸ","pref":"京都府","city":"福知山市","address":"北本町一区"},
{"zip_code":"6200042","kana_pref":"ｷｮｳﾄﾌ","kana_city":"ﾌｸﾁﾔﾏｼ","kana_address":"ｷﾀﾎﾝﾏﾁﾆｸ","pref":"京都府","city":"福知山市","address":"北本町二区"},
{"zip_code":"6200968","kana_pref":"ｷｮｳﾄﾌ","kana_city":"ﾌｸﾁﾔﾏｼ","kana_address":"ｷﾀﾔﾏ","pref":"京都府","city":"福知山市","address":"北山"},
{"zip_code":"6200027","kana_pref":"ｷｮｳﾄﾌ","kana_city":"ﾌｸﾁﾔﾏｼ","kana_address":"ｷｮｳ","pref":"京都府","city":"福知山市","address":"京"},
{"zip_code":"6200962","kana_pref":"ｷｮｳﾄﾌ","kana_city":"ﾌｸﾁﾔﾏｼ","kana_address":"ｸﾁｴﾊﾞﾗ","pref":"京都府","city":"福知山市","address":"口榎原"},
{"zip_code":"6200221","kana_pref":"ｷｮｳﾄﾌ","kana_city":"ﾌｸﾁﾔﾏｼ","kana_address":"ｸﾓﾊﾗ","pref":"京都府","city":"福知山市","address":"雲原"},
{"zip_code":"6200835","kana_pref":"ｷｮｳﾄﾌ","kana_city":"ﾌｸﾁﾔﾏｼ","kana_address":"ｺﾞｼｮｳｼﾞ","pref":"京都府","city":"福知山市","address":"後正寺"},
{"zip_code":"6200026","kana_pref":"ｷｮｳﾄﾌ","kana_city":"ﾌｸﾁﾔﾏｼ","kana_address":"ｺﾞﾌｸ","pref":"京都府","city":"福知山市","address":"呉服"},
{"zip_code":"6200078","kana_pref":"ｷｮｳﾄﾌ","kana_city":"ﾌｸﾁﾔﾏｼ","kana_address":"ｺﾌﾞﾉｷ","pref":"京都府","city":"福知山市","address":"瘤木"},
{"zip_code":"6200972","kana_pref":"ｷｮｳﾄﾌ","kana_city":"ﾌｸﾁﾔﾏｼ","kana_address":"ｺﾏｷ","pref":"京都府","city":"福知山市","address":"小牧"},
{"zip_code":"6200863","kana_pref":"ｷｮｳﾄﾌ","kana_city":"ﾌｸﾁﾔﾏｼ","kana_address":"ｺﾏﾂｶﾞｵｶ","pref":"京都府","city":"福知山市","address":"小松ケ丘"},
{"zip_code":"6200841","kana_pref":"ｷｮｳﾄﾌ","kana_city":"ﾌｸﾁﾔﾏｼ","kana_address":"ｺﾏﾊﾞ","pref":"京都府","city":"福知山市","address":"駒場"},
{"zip_code":"6200827","kana_pref":"ｷｮｳﾄﾌ","kana_city":"ﾌｸﾁﾔﾏｼ","kana_address":"ｻｶﾑﾛ","pref":"京都府","city":"福知山市","address":"坂室"},
{"zip_code":"6200971","kana_pref":"ｷｮｳﾄﾌ","kana_city":"ﾌｸﾁﾔﾏｼ","kana_address":"ｻｹﾞﾄ","pref":"京都府","city":"福知山市","address":"下戸"},
{"zip_code":"6200838","kana_pref":"ｷｮｳﾄﾌ","kana_city":"ﾌｸﾁﾔﾏｼ","kana_address":"ｻｻﾊﾞ","pref":"京都府","city":"福知山市","address":"笹場"},
{"zip_code":"6200055","kana_pref":"ｷｮｳﾄﾌ","kana_city":"ﾌｸﾁﾔﾏｼ","kana_address":"ｻｿｵｼﾝﾏﾁ","pref":"京都府","city":"福知山市","address":"篠尾新町"},
{"zip_code":"6200958","kana_pref":"ｷｮｳﾄﾌ","kana_city":"ﾌｸﾁﾔﾏｼ","kana_address":"ｻﾂｷｶﾞｵｶ","pref":"京都府","city":"福知山市","address":"さつきケ丘"},
{"zip_code":"6200072","kana_pref":"ｷｮｳﾄﾌ","kana_city":"ﾌｸﾁﾔﾏｼ","kana_address":"ｼﾓｱﾏﾂﾞ","pref":"京都府","city":"福知山市","address":"下天津"},
{"zip_code":"6200066","kana_pref":"ｷｮｳﾄﾌ","kana_city":"ﾌｸﾁﾔﾏｼ","kana_address":"ｼﾓｱﾗｶﾞ","pref":"京都府","city":"福知山市","address":"下荒河"},
{"zip_code":"6200015","kana_pref":"ｷｮｳﾄﾌ","kana_city":"ﾌｸﾁﾔﾏｼ","kana_address":"ｼﾓｲｻﾞｷ","pref":"京都府","city":"福知山市","address":"下猪崎"},
{"zip_code":"6200912","kana_pref":"ｷｮｳﾄﾌ","kana_city":"ﾌｸﾁﾔﾏｼ","kana_address":"ｼﾓｵｵﾁ","pref":"京都府","city":"福知山市","address":"下大内"},
{"zip_code":"6200982","kana_pref":"ｷｮｳﾄﾌ","kana_city":"ﾌｸﾁﾔﾏｼ","kana_address":"ｼﾓｵﾀﾞ","pref":"京都府","city":"福知山市","address":"下小田"},
{"zip_code":"6200032","kana_pref":"ｷｮｳﾄﾌ","kana_city":"ﾌｸﾁﾔﾏｼ","kana_address":"ｼﾓｺﾔ","pref":"京都府","city":"福知山市","address":"下紺屋"},
{"zip_code":"6200908","kana_pref":"ｷｮｳﾄﾌ","kana_city":"ﾌｸﾁﾔﾏｼ","kana_address":"ｼﾓｻｻｷ","pref":"京都府","city":"福知山市","address":"下佐々木"},
{"zip_code":"6200924","kana_pref":"ｷｮｳﾄﾌ","kana_city":"ﾌｸﾁﾔﾏｼ","kana_address":"ｼﾓｻｿｵ","pref":"京都府","city":"福知山市","address":"下篠尾"},
{"zip_code":"6200839","kana_pref":"ｷｮｳﾄﾌ","kana_city":"ﾌｸﾁﾔﾏｼ","kana_address":"ｼﾓｼﾞ","pref":"京都府","city":"福知山市","address":"下地"},
{"zip_code":"6200029","kana_pref":"ｷｮｳﾄﾌ","kana_city":"ﾌｸﾁﾔﾏｼ","kana_address":"ｼﾓｼﾝ","pref":"京都府","city":"福知山市","address":"下新"},
{"zip_code":"6200211","kana_pref":"ｷｮｳﾄﾌ","kana_city":"ﾌｸﾁﾔﾏｼ","kana_address":"ｼﾓﾉｳｼﾞｮｳ","pref":"京都府","city":"福知山市","address":"下野条"},
{"zip_code":"6200022","kana_pref":"ｷｮｳﾄﾌ","kana_city":"ﾌｸﾁﾔﾏｼ","kana_address":"ｼﾓﾔﾅｷﾞ","pref":"京都府","city":"福知山市","address":"下柳"},
{"zip_code":"6200875","kana_pref":"ｷｮｳﾄﾌ","kana_city":"ﾌｸﾁﾔﾏｼ","kana_address":"ｼﾞｬｶﾞﾊﾅ","pref":"京都府","city":"福知山市","address":"蛇ケ端"},
{"zip_code":"6200915","kana_pref":"ｷｮｳﾄﾌ","kana_city":"ﾌｸﾁﾔﾏｼ","kana_address":"ｼﾞｭｳﾆ","pref":"京都府","city":"福知山市","address":"十二"},
{"zip_code":"6200904","kana_pref":"ｷｮｳﾄﾌ","kana_city":"ﾌｸﾁﾔﾏｼ","kana_address":"ｼﾞｮｳｶﾞﾝｼﾞ","pref":"京都府","city":"福知山市","address":"常願寺"},
{"zip_code":"6200826","kana_pref":"ｷｮｳﾄﾌ","kana_city":"ﾌｸﾁﾔﾏｼ","kana_address":"ｼｮｳｺﾞｼﾞ","pref":"京都府","city":"福知山市","address":"正後寺"},
{"zip_code":"6200828","kana_pref":"ｷｮｳﾄﾌ","kana_city":"ﾌｸﾁﾔﾏｼ","kana_address":"ｼｮｳｻｶ","pref":"京都府","city":"福知山市","address":"正坂"},
{"zip_code":"6200936","kana_pref":"ｷｮｳﾄﾌ","kana_city":"ﾌｸﾁﾔﾏｼ","kana_address":"ｼｮｳﾐｮｳｼﾞ","pref":"京都府","city":"福知山市","address":"正明寺"},
{"zip_code":"6200051","kana_pref":"ｷｮｳﾄﾌ","kana_city":"ﾌｸﾁﾔﾏｼ","kana_address":"ｼｮｳﾜｼﾝﾏﾁ","pref":"京都府","city":"福知山市","address":"昭和新町"},
{"zip_code":"6200052","kana_pref":"ｷｮｳﾄﾌ","kana_city":"ﾌｸﾁﾔﾏｼ","kana_address":"ｼｮｳﾜﾁｮｳ","pref":"京都府","city":"福知山市","address":"昭和町"},
{"zip_code":"6200016","kana_pref":"ｷｮｳﾄﾌ","kana_city":"ﾌｸﾁﾔﾏｼ","kana_address":"ｼﾛﾔﾏ","pref":"京都府","city":"福知山市","address":"城山"},
{"zip_code":"6200906","kana_pref":"ｷｮｳﾄﾌ","kana_city":"ﾌｸﾁﾔﾏｼ","kana_address":"ｼﾝｸﾞｳ","pref":"京都府","city":"福知山市","address":"新宮"},
{"zip_code":"6200926","kana_pref":"ｷｮｳﾄﾌ","kana_city":"ﾌｸﾁﾔﾏｼ","kana_address":"ｼﾝｼﾞｮｳ","pref":"京都府","city":"福知山市","address":"新庄"},
{"zip_code":"6200054","kana_pref":"ｷｮｳﾄﾌ","kana_city":"ﾌｸﾁﾔﾏｼ","kana_address":"ｽｴﾋﾛﾁｮｳ","pref":"京都府","city":"福知山市","address":"末広町"},
{"zip_code":"6200956","kana_pref":"ｷｮｳﾄﾌ","kana_city":"ﾌｸﾁﾔﾏｼ","kana_address":"ｽｸﾓﾂﾞｶ","pref":"京都府","city":"福知山市","address":"額塚"},
{"zip_code":"6200849","kana_pref":"ｷｮｳﾄﾌ","kana_city":"ﾌｸﾁﾔﾏｼ","kana_address":"ｽﾅｺﾞﾏﾁ","pref":"京都府","city":"福知山市","address":"砂子町"},
{"zip_code":"6200989","kana_pref":"ｷｮｳﾄﾌ","kana_city":"ﾌｸﾁﾔﾏｼ","kana_address":"ｽﾐﾝｼﾞｮｵｵﾔﾏ","pref":"京都府","city":"福知山市","address":"住所大山"},
{"zip_code":"6200806","kana_pref":"ｷｮｳﾄﾌ","kana_city":"ﾌｸﾁﾔﾏｼ","kana_address":"ｾｲｶﾁｮｳ","pref":"京都府","city":"福知山市","address":"聖佳町"},
{"zip_code":"6200952","kana_pref":"ｷｮｳﾄﾌ","kana_city":"ﾌｸﾁﾔﾏｼ","kana_address":"ﾀﾞｲﾓﾝ","pref":"京都府","city":"福知山市","address":"大門"},
{"zip_code":"6200854","kana_pref":"ｷｮｳﾄﾌ","kana_city":"ﾌｸﾁﾔﾏｼ","kana_address":"ﾀｶﾊﾞﾀｹ","pref":"京都府","city":"福知山市","address":"高畑"},
{"zip_code":"6200914","kana_pref":"ｷｮｳﾄﾌ","kana_city":"ﾌｸﾁﾔﾏｼ","kana_address":"ﾀﾂﾜﾗ","pref":"京都府","city":"福知山市","address":"立原"},
{"zip_code":"6200837","kana_pref":"ｷｮｳﾄﾌ","kana_city":"ﾌｸﾁﾔﾏｼ","kana_address":"ﾀﾉ","pref":"京都府","city":"福知山市","address":"田野"},
{"zip_code":"6200965","kana_pref":"ｷｮｳﾄﾌ","kana_city":"ﾌｸﾁﾔﾏｼ","kana_address":"ﾀﾙﾐ","pref":"京都府","city":"福知山市","address":"樽水"},
{"zip_code":"6200905","kana_pref":"ｷｮｳﾄﾌ","kana_city":"ﾌｸﾁﾔﾏｼ","kana_address":"ﾀﾜ","pref":"京都府","city":"福知山市","address":"田和"},
{"zip_code":"6200973","kana_pref":"ｷｮｳﾄﾌ","kana_city":"ﾌｸﾁﾔﾏｼ","kana_address":"ﾀﾞﾝ","pref":"京都府","city":"福知山市","address":"談"},
{"zip_code":"6200073","kana_pref":"ｷｮｳﾄﾌ","kana_city":"ﾌｸﾁﾔﾏｼ","kana_address":"ﾁｮｸｼ","pref":"京都府","city":"福知山市","address":"勅使"},
{"zip_code":"6200966","kana_pref":"ｷｮｳﾄﾌ","kana_city":"ﾌｸﾁﾔﾏｼ","kana_address":"ﾂｼﾞ","pref":"京都府","city":"福知山市","address":"辻"},
{"zip_code":"6200808","kana_pref":"ｷｮｳﾄﾌ","kana_city":"ﾌｸﾁﾔﾏｼ","kana_address":"ﾂﾁ","pref":"京都府","city":"福知山市","address":"土"},
{"zip_code":"6200949","kana_pref":"ｷｮｳﾄﾌ","kana_city":"ﾌｸﾁﾔﾏｼ","kana_address":"ﾂﾂｼﾞｶﾞｵｶ","pref":"京都府","city":"福知山市","address":"つつじケ丘"},
{"zip_code":"6200021","kana_pref":"ｷｮｳﾄﾌ","kana_city":"ﾌｸﾁﾔﾏｼ","kana_address":"ﾃﾗ","pref":"京都府","city":"福知山市","address":"寺"},
{"zip_code":"6200844","kana_pref":"ｷｮｳﾄﾌ","kana_city":"ﾌｸﾁﾔﾏｼ","kana_address":"ﾄｵﾉｲﾁ","pref":"京都府","city":"福知山市","address":"多保市"},
{"zip_code":"6200801","kana_pref":"ｷｮｳﾄﾌ","kana_city":"ﾌｸﾁﾔﾏｼ","kana_address":"ﾄﾀﾞ","pref":"京都府","city":"福知山市","address":"戸田"},
{"zip_code":"6200951","kana_pref":"ｷｮｳﾄﾌ","kana_city":"ﾌｸﾁﾔﾏｼ","kana_address":"ﾄﾐｵｶ","pref":"京都府","city":"福知山市","address":"十三丘"},
{"zip_code":"6200057","kana_pref":"ｷｮｳﾄﾌ","kana_city":"ﾌｸﾁﾔﾏｼ","kana_address":"ﾄﾝﾔﾏﾁ","pref":"京都府","city":"福知山市","address":"問屋町"},
{"zip_code":"6200035","kana_pref":"ｷｮｳﾄﾌ","kana_city":"ﾌｸﾁﾔﾏｼ","kana_address":"ﾅｲｷ","pref":"京都府","city":"福知山市","address":"内記"},
{"zip_code":"6200014","kana_pref":"ｷｮｳﾄﾌ","kana_city":"ﾌｸﾁﾔﾏｼ","kana_address":"ﾅｶ","pref":"京都府","city":"福知山市","address":"中"},
{"zip_code":"6200213","kana_pref":"ｷｮｳﾄﾌ","kana_city":"ﾌｸﾁﾔﾏｼ","kana_address":"ﾅｶﾞｵ","pref":"京都府","city":"福知山市","address":"長尾"},
{"zip_code":"6200817","kana_pref":"ｷｮｳﾄﾌ","kana_city":"ﾌｸﾁﾔﾏｼ","kana_address":"ﾅｶｻｶﾁｮｳ","pref":"京都府","city":"福知山市","address":"中坂町"},
{"zip_code":"6200909","kana_pref":"ｷｮｳﾄﾌ","kana_city":"ﾌｸﾁﾔﾏｼ","kana_address":"ﾅｶｻｻｷ","pref":"京都府","city":"福知山市","address":"中佐々木"},
{"zip_code":"6200834","kana_pref":"ｷｮｳﾄﾌ","kana_city":"ﾌｸﾁﾔﾏｼ","kana_address":"ﾅｶﾁ","pref":"京都府","city":"福知山市","address":"中地"},
{"zip_code":"6200036","kana_pref":"ｷｮｳﾄﾌ","kana_city":"ﾌｸﾁﾔﾏｼ","kana_address":"ﾅｶﾉﾏﾁ","pref":"京都府","city":"福知山市","address":"中ノ町"},
{"zip_code":"6200815","kana_pref":"ｷｮｳﾄﾌ","kana_city":"ﾌｸﾁﾔﾏｼ","kana_address":"ﾅｶﾞﾔﾏﾁｮｳ","pref":"京都府","city":"福知山市","address":"長山町"},
{"zip_code":"6200865","kana_pref":"ｷｮｳﾄﾌ","kana_city":"ﾌｸﾁﾔﾏｼ","kana_address":"ﾆｼｶﾔﾉﾁｮｳ","pref":"京都府","city":"福知山市","address":"西佳屋野町"},
{"zip_code":"6200886","kana_pref":"ｷｮｳﾄﾌ","kana_city":"ﾌｸﾁﾔﾏｼ","kana_address":"ﾆｼｺﾀﾆｶﾞｵｶ","pref":"京都府","city":"福知山市","address":"西小谷ケ丘"},
{"zip_code":"6200038","kana_pref":"ｷｮｳﾄﾌ","kana_city":"ﾌｸﾁﾔﾏｼ","kana_address":"ﾆｼﾅｶﾉﾏﾁ","pref":"京都府","city":"福知山市","address":"西中ノ町"},
{"zip_code":"6200025","kana_pref":"ｷｮｳﾄﾌ","kana_city":"ﾌｸﾁﾔﾏｼ","kana_address":"ﾆｼﾅｶﾞﾏﾁ","pref":"京都府","city":"福知山市","address":"西長町"},
{"zip_code":"6200932","kana_pref":"ｷｮｳﾄﾌ","kana_city":"ﾌｸﾁﾔﾏｼ","kana_address":"ﾆｼﾊｺﾞｳ","pref":"京都府","city":"福知山市","address":"西羽合"},
{"zip_code":"6200814","kana_pref":"ｷｮｳﾄﾌ","kana_city":"ﾌｸﾁﾔﾏｼ","kana_address":"ﾆｼﾋﾗﾉﾁｮｳ","pref":"京都府","city":"福知山市","address":"西平野町"},
{"zip_code":"6200053","kana_pref":"ｷｮｳﾄﾌ","kana_city":"ﾌｸﾁﾔﾏｼ","kana_address":"ﾆｼﾎﾝﾏﾁ","pref":"京都府","city":"福知山市","address":"西本町"},
{"zip_code":"6200039","kana_pref":"ｷｮｳﾄﾌ","kana_city":"ﾌｸﾁﾔﾏｼ","kana_address":"ﾆｼﾏﾁ","pref":"京都府","city":"福知山市","address":"西町"},
{"zip_code":"6200888","kana_pref":"ｷｮｳﾄﾌ","kana_city":"ﾌｸﾁﾔﾏｼ","kana_address":"ﾉｹ","pref":"京都府","city":"福知山市","address":"野家"},
{"zip_code":"6200983","kana_pref":"ｷｮｳﾄﾌ","kana_city":"ﾌｸﾁﾔﾏｼ","kana_address":"ﾉｻﾞｻ","pref":"京都府","city":"福知山市","address":"野笹"},
{"zip_code":"6200917","kana_pref":"ｷｮｳﾄﾌ","kana_city":"ﾌｸﾁﾔﾏｼ","kana_address":"ﾉﾊﾞﾅ","pref":"京都府","city":"福知山市","address":"野花"},
{"zip_code":"6200955","kana_pref":"ｷｮｳﾄﾌ","kana_city":"ﾌｸﾁﾔﾏｼ","kana_address":"ﾊｲｼ","pref":"京都府","city":"福知山市","address":"拝師"},
{"zip_code":"6200075","kana_pref":"ｷｮｳﾄﾌ","kana_city":"ﾌｸﾁﾔﾏｼ","kana_address":"ﾊｴ","pref":"京都府","city":"福知山市","address":"波江"},
{"zip_code":"6200822","kana_pref":"ｷｮｳﾄﾌ","kana_city":"ﾌｸﾁﾔﾏｼ","kana_address":"ﾊｷﾞﾜﾗ","pref":"京都府","city":"福知山市","address":"萩原"},
{"zip_code":"6200011","kana_pref":"ｷｮｳﾄﾌ","kana_city":"ﾌｸﾁﾔﾏｼ","kana_address":"ﾊｽﾞﾏｷ","pref":"京都府","city":"福知山市","address":"筈巻"},
{"zip_code":"6200857","kana_pref":"ｷｮｳﾄﾌ","kana_city":"ﾌｸﾁﾔﾏｼ","kana_address":"ﾊｾﾞ","pref":"京都府","city":"福知山市","address":"土師"},
{"zip_code":"6200855","kana_pref":"ｷｮｳﾄﾌ","kana_city":"ﾌｸﾁﾔﾏｼ","kana_address":"ﾊｾﾞ","pref":"京都府","city":"福知山市","address":"土師"},
{"zip_code":"6200856","kana_pref":"ｷｮｳﾄﾌ","kana_city":"ﾌｸﾁﾔﾏｼ","kana_address":"ﾊｾﾞ","pref":"京都府","city":"福知山市","address":"土師"},
{"zip_code":"6200967","kana_pref":"ｷｮｳﾄﾌ","kana_city":"ﾌｸﾁﾔﾏｼ","kana_address":"ﾊﾀｹﾅｶ","pref":"京都府","city":"福知山市","address":"畑中"},
{"zip_code":"6200954","kana_pref":"ｷｮｳﾄﾌ","kana_city":"ﾌｸﾁﾔﾏｼ","kana_address":"ﾊﾝﾀﾞ","pref":"京都府","city":"福知山市","address":"半田"},
{"zip_code":"6200892","kana_pref":"ｷｮｳﾄﾌ","kana_city":"ﾌｸﾁﾔﾏｼ","kana_address":"ﾋｶﾞｼｵｶﾁｮｳ","pref":"京都府","city":"福知山市","address":"東岡町"},
{"zip_code":"6200862","kana_pref":"ｷｮｳﾄﾌ","kana_city":"ﾌｸﾁﾔﾏｼ","kana_address":"ﾋｶﾞｼｶﾔﾉﾁｮｳ","pref":"京都府","city":"福知山市","address":"東佳屋野町"},
{"zip_code":"6200887","kana_pref":"ｷｮｳﾄﾌ","kana_city":"ﾌｸﾁﾔﾏｼ","kana_address":"ﾋｶﾞｼｺﾀﾆｶﾞｵｶ","pref":"京都府","city":"福知山市","address":"東小谷ケ丘"},
{"zip_code":"6200037","kana_pref":"ｷｮｳﾄﾌ","kana_city":"ﾌｸﾁﾔﾏｼ","kana_address":"ﾋｶﾞｼﾅｶﾉﾏﾁ","pref":"京都府","city":"福知山市","address":"東中ノ町"},
{"zip_code":"6200024","kana_pref":"ｷｮｳﾄﾌ","kana_city":"ﾌｸﾁﾔﾏｼ","kana_address":"ﾋｶﾞｼﾅｶﾞﾏﾁ","pref":"京都府","city":"福知山市","address":"東長町"},
{"zip_code":"6200807","kana_pref":"ｷｮｳﾄﾌ","kana_city":"ﾌｸﾁﾔﾏｼ","kana_address":"ﾋｶﾞｼﾉﾁｮｳ","pref":"京都府","city":"福知山市","address":"東野町"},
{"zip_code":"6200933","kana_pref":"ｷｮｳﾄﾌ","kana_city":"ﾌｸﾁﾔﾏｼ","kana_address":"ﾋｶﾞｼﾊｺﾞｳ","pref":"京都府","city":"福知山市","address":"東羽合"},
{"zip_code":"6200812","kana_pref":"ｷｮｳﾄﾌ","kana_city":"ﾌｸﾁﾔﾏｼ","kana_address":"ﾋｶﾞｼﾋﾗﾉﾁｮｳ","pref":"京都府","city":"福知山市","address":"東平野町"},
{"zip_code":"6200882","kana_pref":"ｷｮｳﾄﾌ","kana_city":"ﾌｸﾁﾔﾏｼ","kana_address":"ﾋｶﾞｼﾎﾞﾘ","pref":"京都府","city":"福知山市","address":"東堀"},
{"zip_code":"6200047","kana_pref":"ｷｮｳﾄﾌ","kana_city":"ﾌｸﾁﾔﾏｼ","kana_address":"ﾋｶﾞｼﾎﾝﾏﾁ","pref":"京都府","city":"福知山市","address":"東本町"},
{"zip_code":"6200023","kana_pref":"ｷｮｳﾄﾌ","kana_city":"ﾌｸﾁﾔﾏｼ","kana_address":"ﾋｼﾔ","pref":"京都府","city":"福知山市","address":"菱屋"},
{"zip_code":"6200903","kana_pref":"ｷｮｳﾄﾌ","kana_city":"ﾌｸﾁﾔﾏｼ","kana_address":"ﾋﾉｵ","pref":"京都府","city":"福知山市","address":"日尾"},
{"zip_code":"6200878","kana_pref":"ｷｮｳﾄﾌ","kana_city":"ﾌｸﾁﾔﾏｼ","kana_address":"ﾋﾖｼｶﾞｵｶ","pref":"京都府","city":"福知山市","address":"日吉ケ丘"},
{"zip_code":"6200945","kana_pref":"ｷｮｳﾄﾌ","kana_city":"ﾌｸﾁﾔﾏｼ","kana_address":"ﾋﾛﾐﾈﾁｮｳ","pref":"京都府","city":"福知山市","address":"広峯町"},
{"zip_code":"6200974","kana_pref":"ｷｮｳﾄﾌ","kana_city":"ﾌｸﾁﾔﾏｼ","kana_address":"ﾎｳﾖｳ","pref":"京都府","city":"福知山市","address":"法用"},
{"zip_code":"6200002","kana_pref":"ｷｮｳﾄﾌ","kana_city":"ﾌｸﾁﾔﾏｼ","kana_address":"ﾎｵｼﾞ","pref":"京都府","city":"福知山市","address":"報恩寺"},
{"zip_code":"6200874","kana_pref":"ｷｮｳﾄﾌ","kana_city":"ﾌｸﾁﾔﾏｼ","kana_address":"ﾎﾘｸﾞﾁ","pref":"京都府","city":"福知山市","address":"堀口"},
{"zip_code":"6200824","kana_pref":"ｷｮｳﾄﾌ","kana_city":"ﾌｸﾁﾔﾏｼ","kana_address":"ﾎﾘｺｼ","pref":"京都府","city":"福知山市","address":"堀越"},
{"zip_code":"6200923","kana_pref":"ｷｮｳﾄﾌ","kana_city":"ﾌｸﾁﾔﾏｼ","kana_address":"ﾎﾝｼｮｳ","pref":"京都府","city":"福知山市","address":"本庄"},
{"zip_code":"6200883","kana_pref":"ｷｮｳﾄﾌ","kana_city":"ﾌｸﾁﾔﾏｼ","kana_address":"ﾎﾝﾎﾞﾘ","pref":"京都府","city":"福知山市","address":"本堀"},
{"zip_code":"6200867","kana_pref":"ｷｮｳﾄﾌ","kana_city":"ﾌｸﾁﾔﾏｼ","kana_address":"ﾏｴﾀﾞ","pref":"京都府","city":"福知山市","address":"前田"},
{"zip_code":"6200866","kana_pref":"ｷｮｳﾄﾌ","kana_city":"ﾌｸﾁﾔﾏｼ","kana_address":"ﾏｴﾀﾞｼﾝﾏﾁ","pref":"京都府","city":"福知山市","address":"前田新町"},
{"zip_code":"6200913","kana_pref":"ｷｮｳﾄﾌ","kana_city":"ﾌｸﾁﾔﾏｼ","kana_address":"ﾏｷ","pref":"京都府","city":"福知山市","address":"牧"},
{"zip_code":"6200894","kana_pref":"ｷｮｳﾄﾌ","kana_city":"ﾌｸﾁﾔﾏｼ","kana_address":"ﾏﾙﾀｶﾞｵｶ","pref":"京都府","city":"福知山市","address":"丸田ケ丘"},
{"zip_code":"6200876","kana_pref":"ｷｮｳﾄﾌ","kana_city":"ﾌｸﾁﾔﾏｼ","kana_address":"ﾐｽﾞｳﾁ","pref":"京都府","city":"福知山市","address":"水内"},
{"zip_code":"6200895","kana_pref":"ｷｮｳﾄﾌ","kana_city":"ﾌｸﾁﾔﾏｼ","kana_address":"ﾐﾄﾞﾘｶﾞｵｶﾁｮｳ","pref":"京都府","city":"福知山市","address":"緑ケ丘町"},
{"zip_code":"6200946","kana_pref":"ｷｮｳﾄﾌ","kana_city":"ﾌｸﾁﾔﾏｼ","kana_address":"ﾐﾅﾐｱﾏﾀﾞﾁｮｳ","pref":"京都府","city":"福知山市","address":"南天田町"},
{"zip_code":"6200944","kana_pref":"ｷｮｳﾄﾌ","kana_city":"ﾌｸﾁﾔﾏｼ","kana_address":"ﾐﾅﾐｵｶﾏﾁ","pref":"京都府","city":"福知山市","address":"南岡町"},
{"zip_code":"6200864","kana_pref":"ｷｮｳﾄﾌ","kana_city":"ﾌｸﾁﾔﾏｼ","kana_address":"ﾐﾅﾐｶﾔﾉﾁｮｳ","pref":"京都府","city":"福知山市","address":"南佳屋野町"},
{"zip_code":"6200885","kana_pref":"ｷｮｳﾄﾌ","kana_city":"ﾌｸﾁﾔﾏｼ","kana_address":"ﾐﾅﾐｺﾀﾆｶﾞｵｶ","pref":"京都府","city":"福知山市","address":"南小谷ケ丘"},
{"zip_code":"6200044","kana_pref":"ｷｮｳﾄﾌ","kana_city":"ﾌｸﾁﾔﾏｼ","kana_address":"ﾐﾅﾐｻｶｴﾏﾁ","pref":"京都府","city":"福知山市","address":"南栄町"},
{"zip_code":"6200805","kana_pref":"ｷｮｳﾄﾌ","kana_city":"ﾌｸﾁﾔﾏｼ","kana_address":"ﾐﾅﾐﾂﾁﾉﾁｮｳ","pref":"京都府","city":"福知山市","address":"南土野町"},
{"zip_code":"6200934","kana_pref":"ｷｮｳﾄﾌ","kana_city":"ﾌｸﾁﾔﾏｼ","kana_address":"ﾐﾅﾐﾊｺﾞｳ","pref":"京都府","city":"福知山市","address":"南羽合"},
{"zip_code":"6200813","kana_pref":"ｷｮｳﾄﾌ","kana_city":"ﾌｸﾁﾔﾏｼ","kana_address":"ﾐﾅﾐﾋﾗﾉﾁｮｳ","pref":"京都府","city":"福知山市","address":"南平野町"},
{"zip_code":"6200046","kana_pref":"ｷｮｳﾄﾌ","kana_city":"ﾌｸﾁﾔﾏｼ","kana_address":"ﾐﾅﾐﾎﾝﾏﾁ","pref":"京都府","city":"福知山市","address":"南本町"},
{"zip_code":"6200884","kana_pref":"ｷｮｳﾄﾌ","kana_city":"ﾌｸﾁﾔﾏｼ","kana_address":"ﾐﾅﾐﾎﾝﾎﾞﾘ","pref":"京都府","city":"福知山市","address":"南本堀"},
{"zip_code":"6200821","kana_pref":"ｷｮｳﾄﾌ","kana_city":"ﾌｸﾁﾔﾏｼ","kana_address":"ﾐﾏﾀ","pref":"京都府","city":"福知山市","address":"三俣"},
{"zip_code":"6200833","kana_pref":"ｷｮｳﾄﾌ","kana_city":"ﾌｸﾁﾔﾏｼ","kana_address":"ﾐﾔ","pref":"京都府","city":"福知山市","address":"宮"},
{"zip_code":"6200986","kana_pref":"ｷｮｳﾄﾌ","kana_city":"ﾌｸﾁﾔﾏｼ","kana_address":"ﾐﾔｶﾞｷ","pref":"京都府","city":"福知山市","address":"宮垣"},
{"zip_code":"6201444","kana_pref":"ｷｮｳﾄﾌ","kana_city":"ﾌｸﾁﾔﾏｼ","kana_address":"ﾐﾜﾁｮｳｱｼﾌﾞﾁ","pref":"京都府","city":"福知山市","address":"三和町芦渕"},
{"zip_code":"6201425","kana_pref":"ｷｮｳﾄﾌ","kana_city":"ﾌｸﾁﾔﾏｼ","kana_address":"ﾐﾜﾁｮｳｳﾊﾞﾗｼﾓ","pref":"京都府","city":"福知山市","address":"三和町菟原下"},
{"zip_code":"6201422","kana_pref":"ｷｮｳﾄﾌ","kana_city":"ﾌｸﾁﾔﾏｼ","kana_address":"ﾐﾜﾁｮｳｳﾊﾞﾗﾅｶ","pref":"京都府","city":"福知山市","address":"三和町菟原中"},
{"zip_code":"6201441","kana_pref":"ｷｮｳﾄﾌ","kana_city":"ﾌｸﾁﾔﾏｼ","kana_address":"ﾐﾜﾁｮｳｳﾒﾊﾗ","pref":"京都府","city":"福知山市","address":"三和町梅原"},
{"zip_code":"6201301","kana_pref":"ｷｮｳﾄﾌ","kana_city":"ﾌｸﾁﾔﾏｼ","kana_address":"ﾐﾜﾁｮｳｵｵﾊﾞﾗ","pref":"京都府","city":"福知山市","address":"三和町大原"},
{"zip_code":"6201421","kana_pref":"ｷｮｳﾄﾌ","kana_city":"ﾌｸﾁﾔﾏｼ","kana_address":"ﾐﾜﾁｮｳｵｵﾐ","pref":"京都府","city":"福知山市","address":"三和町大身"},
{"zip_code":"6201311","kana_pref":"ｷｮｳﾄﾌ","kana_city":"ﾌｸﾁﾔﾏｼ","kana_address":"ﾐﾜﾁｮｳｶﾐｶﾞﾜｲ","pref":"京都府","city":"福知山市","address":"三和町上川合"},
{"zip_code":"6201314","kana_pref":"ｷｮｳﾄﾌ","kana_city":"ﾌｸﾁﾔﾏｼ","kana_address":"ﾐﾜﾁｮｳｶﾖｳ","pref":"京都府","city":"福知山市","address":"三和町加用"},
{"zip_code":"6201435","kana_pref":"ｷｮｳﾄﾌ","kana_city":"ﾌｸﾁﾔﾏｼ","kana_address":"ﾐﾜﾁｮｳｸｻﾔﾏ","pref":"京都府","city":"福知山市","address":"三和町草山"},
{"zip_code":"6201434","kana_pref":"ｷｮｳﾄﾌ","kana_city":"ﾌｸﾁﾔﾏｼ","kana_address":"ﾐﾜﾁｮｳｻｲﾏﾂ","pref":"京都府","city":"福知山市","address":"三和町西松"},
{"zip_code":"6201313","kana_pref":"ｷｮｳﾄﾌ","kana_city":"ﾌｸﾁﾔﾏｼ","kana_address":"ﾐﾜﾁｮｳｼﾓｶﾜｲ","pref":"京都府","city":"福知山市","address":"三和町下川合"},
{"zip_code":"6201442","kana_pref":"ｷｮｳﾄﾌ","kana_city":"ﾌｸﾁﾔﾏｼ","kana_address":"ﾐﾜﾁｮｳｾﾝｿﾞｸ","pref":"京都府","city":"福知山市","address":"三和町千束"},
{"zip_code":"6201302","kana_pref":"ｷｮｳﾄﾌ","kana_city":"ﾌｸﾁﾔﾏｼ","kana_address":"ﾐﾜﾁｮｳﾀﾞｲﾄ","pref":"京都府","city":"福知山市","address":"三和町台頭"},
{"zip_code":"6201423","kana_pref":"ｷｮｳﾄﾌ","kana_city":"ﾌｸﾁﾔﾏｼ","kana_address":"ﾐﾜﾁｮｳﾀｶｽｷﾞ","pref":"京都府","city":"福知山市","address":"三和町高杉"},
{"zip_code":"6201433","kana_pref":"ｷｮｳﾄﾌ","kana_city":"ﾌｸﾁﾔﾏｼ","kana_address":"ﾐﾜﾁｮｳﾀﾉﾀﾆ","pref":"京都府","city":"福知山市","address":"三和町田ノ谷"},
{"zip_code":"6201431","kana_pref":"ｷｮｳﾄﾌ","kana_city":"ﾌｸﾁﾔﾏｼ","kana_address":"ﾐﾜﾁｮｳﾂｼﾞ","pref":"京都府","city":"福知山市","address":"三和町辻"},
{"zip_code":"6201443","kana_pref":"ｷｮｳﾄﾌ","kana_city":"ﾌｸﾁﾔﾏｼ","kana_address":"ﾐﾜﾁｮｳﾃﾗｵ","pref":"京都府","city":"福知山市","address":"三和町寺尾"},
{"zip_code":"6201424","kana_pref":"ｷｮｳﾄﾌ","kana_city":"ﾌｸﾁﾔﾏｼ","kana_address":"ﾐﾜﾁｮｳﾄﾓﾌﾞﾁ","pref":"京都府","city":"福知山市","address":"三和町友渕"},
{"zip_code":"6201432","kana_pref":"ｷｮｳﾄﾌ","kana_city":"ﾌｸﾁﾔﾏｼ","kana_address":"ﾐﾜﾁｮｳﾅｶﾃﾞ","pref":"京都府","city":"福知山市","address":"三和町中出"},
{"zip_code":"6201445","kana_pref":"ｷｮｳﾄﾌ","kana_city":"ﾌｸﾁﾔﾏｼ","kana_address":"ﾐﾜﾁｮｳﾐﾜ","pref":"京都府","city":"福知山市","address":"三和町みわ"},
{"zip_code":"6201312","kana_pref":"ｷｮｳﾄﾌ","kana_city":"ﾌｸﾁﾔﾏｼ","kana_address":"ﾐﾜﾁｮｳﾕﾘ","pref":"京都府","city":"福知山市","address":"三和町岼"},
{"zip_code":"6200935","kana_pref":"ｷｮｳﾄﾌ","kana_city":"ﾌｸﾁﾔﾏｼ","kana_address":"ﾑｶｲﾉ","pref":"京都府","city":"福知山市","address":"向野"},
{"zip_code":"6200916","kana_pref":"ｷｮｳﾄﾌ","kana_city":"ﾌｸﾁﾔﾏｼ","kana_address":"ﾑｿﾁ","pref":"京都府","city":"福知山市","address":"六十内"},
{"zip_code":"6200937","kana_pref":"ｷｮｳﾄﾌ","kana_city":"ﾌｸﾁﾔﾏｼ","kana_address":"ﾑﾛ","pref":"京都府","city":"福知山市","address":"室"},
{"zip_code":"6200877","kana_pref":"ｷｮｳﾄﾌ","kana_city":"ﾌｸﾁﾔﾏｼ","kana_address":"ﾓﾘｶﾞｲ","pref":"京都府","city":"福知山市","address":"森垣"},
{"zip_code":"6200012","kana_pref":"ｷｮｳﾄﾌ","kana_city":"ﾌｸﾁﾔﾏｼ","kana_address":"ﾔｽｲ","pref":"京都府","city":"福知山市","address":"安井"},
{"zip_code":"6200957","kana_pref":"ｷｮｳﾄﾌ","kana_city":"ﾌｸﾁﾔﾏｼ","kana_address":"ﾔﾏｻﾞｷ","pref":"京都府","city":"福知山市","address":"山崎"},
{"zip_code":"6200001","kana_pref":"ｷｮｳﾄﾌ","kana_city":"ﾌｸﾁﾔﾏｼ","kana_address":"ﾔﾏﾉｸﾁ","pref":"京都府","city":"福知山市","address":"山野口"},
{"zip_code":"6200948","kana_pref":"ｷｮｳﾄﾌ","kana_city":"ﾌｸﾁﾔﾏｼ","kana_address":"ﾕｳﾋｶﾞｵｶ","pref":"京都府","city":"福知山市","address":"夕陽が丘"},
{"zip_code":"6200062","kana_pref":"ｷｮｳﾄﾌ","kana_city":"ﾌｸﾁﾔﾏｼ","kana_address":"ﾜｸｲﾁﾁｮｳ","pref":"京都府","city":"福知山市","address":"和久市町"},
{"zip_code":"6200927","kana_pref":"ｷｮｳﾄﾌ","kana_city":"ﾌｸﾁﾔﾏｼ","kana_address":"ﾜｸﾃﾞﾗ","pref":"京都府","city":"福知山市","address":"和久寺"}]}