{"zip_code":[
{"zip_code":"6220000","kana_pref":"ｷｮｳﾄﾌ","kana_city":"ﾅﾝﾀﾝｼ","kana_address":"","pref":"京都府","city":"南丹市","address":""},
{"zip_code":"6220063","kana_pref":"ｷｮｳﾄﾌ","kana_city":"ﾅﾝﾀﾝｼ","kana_address":"ｿﾉﾍﾞﾁｮｳｱﾏﾋﾞｷ","pref":"京都府","city":"南丹市","address":"園部町天引"},
{"zip_code":"6220012","kana_pref":"ｷｮｳﾄﾌ","kana_city":"ﾅﾝﾀﾝｼ","kana_address":"ｿﾉﾍﾞﾁｮｳｳﾁﾊﾞﾔｼﾏﾁ","pref":"京都府","city":"南丹市","address":"園部町内林町"},
{"zip_code":"6220021","kana_pref":"ｷｮｳﾄﾌ","kana_city":"ﾅﾝﾀﾝｼ","kana_address":"ｿﾉﾍﾞﾁｮｳｳﾘｳﾉ","pref":"京都府","city":"南丹市","address":"園部町瓜生野"},
{"zip_code":"6220065","kana_pref":"ｷｮｳﾄﾌ","kana_city":"ﾅﾝﾀﾝｼ","kana_address":"ｿﾉﾍﾞﾁｮｳｵｵｶﾜﾁ","pref":"京都府","city":"南丹市","address":"園部町大河内"},
{"zip_code":"6220033","kana_pref":"ｷｮｳﾄﾌ","kana_city":"ﾅﾝﾀﾝｼ","kana_address":"ｿﾉﾍﾞﾁｮｳｵｵﾄﾞ","pref":"京都府","city":"南丹市","address":"園部町大戸"},
{"zip_code":"6220054","kana_pref":"ｷｮｳﾄﾌ","kana_city":"ﾅﾝﾀﾝｼ","kana_address":"ｿﾉﾍﾞﾁｮｳｵｵﾆｼ","pref":"京都府","city":"南丹市","address":"園部町大西"},
{"zip_code":"6220036","kana_pref":"ｷｮｳﾄﾌ","kana_city":"ﾅﾝﾀﾝｼ","kana_address":"ｿﾉﾍﾞﾁｮｳｵﾁｶﾀ","pref":"京都府","city":"南丹市","address":"園部町越方"},
{"zip_code":"6220043","kana_pref":"ｷｮｳﾄﾌ","kana_city":"ﾅﾝﾀﾝｼ","kana_address":"ｿﾉﾍﾞﾁｮｳｵﾔﾏﾆｼﾏﾁ","pref":"京都府","city":"南丹市","address":"園部町小山西町"},
{"zip_code":"6220041","kana_pref":"ｷｮｳﾄﾌ","kana_city":"ﾅﾝﾀﾝｼ","kana_address":"ｿﾉﾍﾞﾁｮｳｵﾔﾏﾋｶﾞｼﾏﾁ","pref":"京都府","city":"南丹市","address":"園部町小山東町"},
{"zip_code":"6220011","kana_pref":"ｷｮｳﾄﾌ","kana_city":"ﾅﾝﾀﾝｼ","kana_address":"ｿﾉﾍﾞﾁｮｳｶﾐｷｻﾞｷﾏﾁ","pref":"京都府","city":"南丹市","address":"園部町上木崎町"},
{"zip_code":"6220014","kana_pref":"ｷｮｳﾄﾌ","kana_city":"ﾅﾝﾀﾝｼ","kana_address":"ｿﾉﾍﾞﾁｮｳｶﾐﾎﾝﾏﾁ","pref":"京都府","city":"南丹市","address":"園部町上本町"},
{"zip_code":"6220016","kana_pref":"ｷｮｳﾄﾌ","kana_city":"ﾅﾝﾀﾝｼ","kana_address":"ｿﾉﾍﾞﾁｮｳｶﾜﾗﾏﾁ","pref":"京都府","city":"南丹市","address":"園部町河原町"},
{"zip_code":"6220015","kana_pref":"ｷｮｳﾄﾌ","kana_city":"ﾅﾝﾀﾝｼ","kana_address":"ｿﾉﾍﾞﾁｮｳｷｻﾞｷﾏﾁ","pref":"京都府","city":"南丹市","address":"園部町木崎町"},
{"zip_code":"6220046","kana_pref":"ｷｮｳﾄﾌ","kana_city":"ﾅﾝﾀﾝｼ","kana_address":"ｿﾉﾍﾞﾁｮｳｸﾁｳﾄﾞ","pref":"京都府","city":"南丹市","address":"園部町口人"},
{"zip_code":"6220022","kana_pref":"ｷｮｳﾄﾌ","kana_city":"ﾅﾝﾀﾝｼ","kana_address":"ｿﾉﾍﾞﾁｮｳｸﾏｻﾞｷ","pref":"京都府","city":"南丹市","address":"園部町熊崎"},
{"zip_code":"6220034","kana_pref":"ｷｮｳﾄﾌ","kana_city":"ﾅﾝﾀﾝｼ","kana_address":"ｿﾉﾍﾞﾁｮｳｸﾏﾊﾗ","pref":"京都府","city":"南丹市","address":"園部町熊原"},
{"zip_code":"6220052","kana_pref":"ｷｮｳﾄﾌ","kana_city":"ﾅﾝﾀﾝｼ","kana_address":"ｿﾉﾍﾞﾁｮｳｸﾛﾀﾞ","pref":"京都府","city":"南丹市","address":"園部町黒田"},
{"zip_code":"6220047","kana_pref":"ｷｮｳﾄﾌ","kana_city":"ﾅﾝﾀﾝｼ","kana_address":"ｿﾉﾍﾞﾁｮｳｺｳｼ","pref":"京都府","city":"南丹市","address":"園部町口司"},
{"zip_code":"6220004","kana_pref":"ｷｮｳﾄﾌ","kana_city":"ﾅﾝﾀﾝｼ","kana_address":"ｿﾉﾍﾞﾁｮｳｺｻﾞｸﾗﾏﾁ","pref":"京都府","city":"南丹市","address":"園部町小桜町"},
{"zip_code":"6220042","kana_pref":"ｷｮｳﾄﾌ","kana_city":"ﾅﾝﾀﾝｼ","kana_address":"ｿﾉﾍﾞﾁｮｳｻｶｴﾏﾁ","pref":"京都府","city":"南丹市","address":"園部町栄町"},
{"zip_code":"6220035","kana_pref":"ｷｮｳﾄﾌ","kana_city":"ﾅﾝﾀﾝｼ","kana_address":"ｿﾉﾍﾞﾁｮｳｻｷﾞﾘ","pref":"京都府","city":"南丹市","address":"園部町佐切"},
{"zip_code":"6220055","kana_pref":"ｷｮｳﾄﾌ","kana_city":"ﾅﾝﾀﾝｼ","kana_address":"ｿﾉﾍﾞﾁｮｳｼｼｳﾄﾞ","pref":"京都府","city":"南丹市","address":"園部町宍人"},
{"zip_code":"6220044","kana_pref":"ｷｮｳﾄﾌ","kana_city":"ﾅﾝﾀﾝｼ","kana_address":"ｿﾉﾍﾞﾁｮｳｼﾞｮｳﾅﾝﾏﾁ","pref":"京都府","city":"南丹市","address":"園部町城南町"},
{"zip_code":"6220023","kana_pref":"ｷｮｳﾄﾌ","kana_city":"ﾅﾝﾀﾝｼ","kana_address":"ｿﾉﾍﾞﾁｮｳｼﾝﾄﾞｳ","pref":"京都府","city":"南丹市","address":"園部町新堂"},
{"zip_code":"6220003","kana_pref":"ｷｮｳﾄﾌ","kana_city":"ﾅﾝﾀﾝｼ","kana_address":"ｿﾉﾍﾞﾁｮｳｼﾝﾏﾁ","pref":"京都府","city":"南丹市","address":"園部町新町"},
{"zip_code":"6220024","kana_pref":"ｷｮｳﾄﾌ","kana_city":"ﾅﾝﾀﾝｼ","kana_address":"ｿﾉﾍﾞﾁｮｳｾﾝﾂﾞﾏ","pref":"京都府","city":"南丹市","address":"園部町千妻"},
{"zip_code":"6220025","kana_pref":"ｷｮｳﾄﾌ","kana_city":"ﾅﾝﾀﾝｼ","kana_address":"ｿﾉﾍﾞﾁｮｳｿｶﾞﾀﾞﾆ","pref":"京都府","city":"南丹市","address":"園部町曽我谷"},
{"zip_code":"6220032","kana_pref":"ｷｮｳﾄﾌ","kana_city":"ﾅﾝﾀﾝｼ","kana_address":"ｿﾉﾍﾞﾁｮｳﾀｶﾔ","pref":"京都府","city":"南丹市","address":"園部町高屋"},
{"zip_code":"6220062","kana_pref":"ｷｮｳﾄﾌ","kana_city":"ﾅﾝﾀﾝｼ","kana_address":"ｿﾉﾍﾞﾁｮｳﾀｹｲ","pref":"京都府","city":"南丹市","address":"園部町竹井"},
{"zip_code":"6220057","kana_pref":"ｷｮｳﾄﾌ","kana_city":"ﾅﾝﾀﾝｼ","kana_address":"ｿﾉﾍﾞﾁｮｳﾄﾉﾀﾞﾆ","pref":"京都府","city":"南丹市","address":"園部町殿谷"},
{"zip_code":"6220061","kana_pref":"ｷｮｳﾄﾌ","kana_city":"ﾅﾝﾀﾝｼ","kana_address":"ｿﾉﾍﾞﾁｮｳﾆｴ","pref":"京都府","city":"南丹市","address":"園部町仁江"},
{"zip_code":"6220056","kana_pref":"ｷｮｳﾄﾌ","kana_city":"ﾅﾝﾀﾝｼ","kana_address":"ｿﾉﾍﾞﾁｮｳﾊﾌﾞ","pref":"京都府","city":"南丹市","address":"園部町埴生"},
{"zip_code":"6220045","kana_pref":"ｷｮｳﾄﾌ","kana_city":"ﾅﾝﾀﾝｼ","kana_address":"ｿﾉﾍﾞﾁｮｳﾊﾝﾀﾞ","pref":"京都府","city":"南丹市","address":"園部町半田"},
{"zip_code":"6220031","kana_pref":"ｷｮｳﾄﾌ","kana_city":"ﾅﾝﾀﾝｼ","kana_address":"ｿﾉﾍﾞﾁｮｳﾌﾅｵｶ","pref":"京都府","city":"南丹市","address":"園部町船岡"},
{"zip_code":"6220053","kana_pref":"ｷｮｳﾄﾌ","kana_city":"ﾅﾝﾀﾝｼ","kana_address":"ｿﾉﾍﾞﾁｮｳﾌﾅｻｶ","pref":"京都府","city":"南丹市","address":"園部町船阪"},
{"zip_code":"6220064","kana_pref":"ｷｮｳﾄﾌ","kana_city":"ﾅﾝﾀﾝｼ","kana_address":"ｿﾉﾍﾞﾁｮｳﾎｳｷｮｳ","pref":"京都府","city":"南丹市","address":"園部町法京"},
{"zip_code":"6220013","kana_pref":"ｷｮｳﾄﾌ","kana_city":"ﾅﾝﾀﾝｼ","kana_address":"ｿﾉﾍﾞﾁｮｳﾎﾝﾏﾁ","pref":"京都府","city":"南丹市","address":"園部町本町"},
{"zip_code":"6220002","kana_pref":"ｷｮｳﾄﾌ","kana_city":"ﾅﾝﾀﾝｼ","kana_address":"ｿﾉﾍﾞﾁｮｳﾐｿﾉﾏﾁ","pref":"京都府","city":"南丹市","address":"園部町美園町"},
{"zip_code":"6220059","kana_pref":"ｷｮｳﾄﾌ","kana_city":"ﾅﾝﾀﾝｼ","kana_address":"ｿﾉﾍﾞﾁｮｳﾐﾅﾐｵｵﾀﾆ","pref":"京都府","city":"南丹市","address":"園部町南大谷"},
{"zip_code":"6220066","kana_pref":"ｷｮｳﾄﾌ","kana_city":"ﾅﾝﾀﾝｼ","kana_address":"ｿﾉﾍﾞﾁｮｳﾐﾅﾐﾊﾂﾀ","pref":"京都府","city":"南丹市","address":"園部町南八田"},
{"zip_code":"6220001","kana_pref":"ｷｮｳﾄﾌ","kana_city":"ﾅﾝﾀﾝｼ","kana_address":"ｿﾉﾍﾞﾁｮｳﾐﾔﾏﾁ","pref":"京都府","city":"南丹市","address":"園部町宮町"},
{"zip_code":"6220051","kana_pref":"ｷｮｳﾄﾌ","kana_city":"ﾅﾝﾀﾝｼ","kana_address":"ｿﾉﾍﾞﾁｮｳﾖｺﾀ","pref":"京都府","city":"南丹市","address":"園部町横田"},
{"zip_code":"6220017","kana_pref":"ｷｮｳﾄﾌ","kana_city":"ﾅﾝﾀﾝｼ","kana_address":"ｿﾉﾍﾞﾁｮｳﾜｶﾏﾂﾁｮｳ","pref":"京都府","city":"南丹市","address":"園部町若松町"},
{"zip_code":"6220058","kana_pref":"ｷｮｳﾄﾌ","kana_city":"ﾅﾝﾀﾝｼ","kana_address":"ｿﾉﾍﾞﾁｮｳﾜｶﾓﾘ","pref":"京都府","city":"南丹市","address":"園部町若森"},
{"zip_code":"6220200","kana_pref":"ｷｮｳﾄﾌ","kana_city":"ﾌﾅｲｸﾞﾝｷｮｳﾀﾝﾊﾞﾁｮｳ","kana_address":"","pref":"京都府","city":"船井郡京丹波町","address":""},
{"zip_code":"6220301","kana_pref":"ｷｮｳﾄﾌ","kana_city":"ﾌﾅｲｸﾞﾝｷｮｳﾀﾝﾊﾞﾁｮｳ","kana_address":"ｱﾜﾉ","pref":"京都府","city":"船井郡京丹波町","address":"粟野"},
{"zip_code":"6220323","kana_pref":"ｷｮｳﾄﾌ","kana_city":"ﾌﾅｲｸﾞﾝｷｮｳﾀﾝﾊﾞﾁｮｳ","kana_address":"ｲｼﾞﾘ","pref":"京都府","city":"船井郡京丹波町","address":"井尻"},
{"zip_code":"6220212","kana_pref":"ｷｮｳﾄﾌ","kana_city":"ﾌﾅｲｸﾞﾝｷｮｳﾀﾝﾊﾞﾁｮｳ","kana_address":"ｲﾁﾓﾘ","pref":"京都府","city":"船井郡京丹波町","address":"市森"},
{"zip_code":"6220304","kana_pref":"ｷｮｳﾄﾌ","kana_city":"ﾌﾅｲｸﾞﾝｷｮｳﾀﾝﾊﾞﾁｮｳ","kana_address":"ｲﾉﾊﾅ","pref":"京都府","city":"船井郡京丹波町","address":"猪鼻"},
{"zip_code":"6220312","kana_pref":"ｷｮｳﾄﾌ","kana_city":"ﾌﾅｲｸﾞﾝｷｮｳﾀﾝﾊﾞﾁｮｳ","kana_address":"ｲﾜｷ","pref":"京都府","city":"船井郡京丹波町","address":"井脇"},
{"zip_code":"6220236","kana_pref":"ｷｮｳﾄﾌ","kana_city":"ﾌﾅｲｸﾞﾝｷｮｳﾀﾝﾊﾞﾁｮｳ","kana_address":"ｲﾝﾅｲ","pref":"京都府","city":"船井郡京丹波町","address":"院内"},
{"zip_code":"6220211","kana_pref":"ｷｮｳﾄﾌ","kana_city":"ﾌﾅｲｸﾞﾝｷｮｳﾀﾝﾊﾞﾁｮｳ","kana_address":"ｳｴﾉ","pref":"京都府","city":"船井郡京丹波町","address":"上野"},
{"zip_code":"6220322","kana_pref":"ｷｮｳﾄﾌ","kana_city":"ﾌﾅｲｸﾞﾝｷｮｳﾀﾝﾊﾞﾁｮｳ","kana_address":"ｵﾎﾞｿ","pref":"京都府","city":"船井郡京丹波町","address":"大朴"},
{"zip_code":"6220445","kana_pref":"ｷｮｳﾄﾌ","kana_city":"ﾌﾅｲｸﾞﾝｷｮｳﾀﾝﾊﾞﾁｮｳ","kana_address":"ｶﾏﾀﾞﾆｵｸ","pref":"京都府","city":"船井郡京丹波町","address":"鎌谷奥"},
{"zip_code":"6220442","kana_pref":"ｷｮｳﾄﾌ","kana_city":"ﾌﾅｲｸﾞﾝｷｮｳﾀﾝﾊﾞﾁｮｳ","kana_address":"ｶﾏﾀﾞﾆｼﾓ","pref":"京都府","city":"船井郡京丹波町","address":"鎌谷下"},
{"zip_code":"6220444","kana_pref":"ｷｮｳﾄﾌ","kana_city":"ﾌﾅｲｸﾞﾝｷｮｳﾀﾝﾊﾞﾁｮｳ","kana_address":"ｶﾏﾀﾞﾆﾅｶ","pref":"京都府","city":"船井郡京丹波町","address":"鎌谷中"},
{"zip_code":"6220452","kana_pref":"ｷｮｳﾄﾌ","kana_city":"ﾌﾅｲｸﾞﾝｷｮｳﾀﾝﾊﾞﾁｮｳ","kana_address":"ｶﾐｵｵｸﾎﾞ","pref":"京都府","city":"船井郡京丹波町","address":"上大久保"},
{"zip_code":"6220223","kana_pref":"ｷｮｳﾄﾌ","kana_city":"ﾌﾅｲｸﾞﾝｷｮｳﾀﾝﾊﾞﾁｮｳ","kana_address":"ｸﾁﾊｯﾀ","pref":"京都府","city":"船井郡京丹波町","address":"口八田"},
{"zip_code":"6220325","kana_pref":"ｷｮｳﾄﾌ","kana_city":"ﾌﾅｲｸﾞﾝｷｮｳﾀﾝﾊﾞﾁｮｳ","kana_address":"ｺﾉ","pref":"京都府","city":"船井郡京丹波町","address":"小野"},
{"zip_code":"6220214","kana_pref":"ｷｮｳﾄﾌ","kana_city":"ﾌﾅｲｸﾞﾝｷｮｳﾀﾝﾊﾞﾁｮｳ","kana_address":"ｺﾓ","pref":"京都府","city":"船井郡京丹波町","address":"蒲生"},
{"zip_code":"6220441","kana_pref":"ｷｮｳﾄﾌ","kana_city":"ﾌﾅｲｸﾞﾝｷｮｳﾀﾝﾊﾞﾁｮｳ","kana_address":"ｻｶｲ","pref":"京都府","city":"船井郡京丹波町","address":"坂井"},
{"zip_code":"6220303","kana_pref":"ｷｮｳﾄﾌ","kana_city":"ﾌﾅｲｸﾞﾝｷｮｳﾀﾝﾊﾞﾁｮｳ","kana_address":"ｻﾝﾉﾐﾔ","pref":"京都府","city":"船井郡京丹波町","address":"三ノ宮"},
{"zip_code":"6220234","kana_pref":"ｷｮｳﾄﾌ","kana_city":"ﾌﾅｲｸﾞﾝｷｮｳﾀﾝﾊﾞﾁｮｳ","kana_address":"ｼｵﾀﾀﾞﾆ","pref":"京都府","city":"船井郡京丹波町","address":"塩田谷"},
{"zip_code":"6220315","kana_pref":"ｷｮｳﾄﾌ","kana_city":"ﾌﾅｲｸﾞﾝｷｮｳﾀﾝﾊﾞﾁｮｳ","kana_address":"ｼｽﾞｼ","pref":"京都府","city":"船井郡京丹波町","address":"質志"},
{"zip_code":"6220202","kana_pref":"ｷｮｳﾄﾌ","kana_city":"ﾌﾅｲｸﾞﾝｷｮｳﾀﾝﾊﾞﾁｮｳ","kana_address":"ｼﾞｯｾ","pref":"京都府","city":"船井郡京丹波町","address":"実勢"},
{"zip_code":"6220332","kana_pref":"ｷｮｳﾄﾌ","kana_city":"ﾌﾅｲｸﾞﾝｷｮｳﾀﾝﾊﾞﾁｮｳ","kana_address":"ｼﾂﾐ","pref":"京都府","city":"船井郡京丹波町","address":"質美"},
{"zip_code":"6220451","kana_pref":"ｷｮｳﾄﾌ","kana_city":"ﾌﾅｲｸﾞﾝｷｮｳﾀﾝﾊﾞﾁｮｳ","kana_address":"ｼﾓｵｵｸﾎﾞ","pref":"京都府","city":"船井郡京丹波町","address":"下大久保"},
{"zip_code":"6220201","kana_pref":"ｷｮｳﾄﾌ","kana_city":"ﾌﾅｲｸﾞﾝｷｮｳﾀﾝﾊﾞﾁｮｳ","kana_address":"ｼﾓﾔﾏ","pref":"京都府","city":"船井郡京丹波町","address":"下山"},
{"zip_code":"6220213","kana_pref":"ｷｮｳﾄﾌ","kana_city":"ﾌﾅｲｸﾞﾝｷｮｳﾀﾝﾊﾞﾁｮｳ","kana_address":"ｼｭｳﾁ","pref":"京都府","city":"船井郡京丹波町","address":"須知"},
{"zip_code":"6220222","kana_pref":"ｷｮｳﾄﾌ","kana_city":"ﾌﾅｲｸﾞﾝｷｮｳﾀﾝﾊﾞﾁｮｳ","kana_address":"ｼﾝﾐﾄ","pref":"京都府","city":"船井郡京丹波町","address":"新水戸"},
{"zip_code":"6220232","kana_pref":"ｷｮｳﾄﾌ","kana_city":"ﾌﾅｲｸﾞﾝｷｮｳﾀﾝﾊﾞﾁｮｳ","kana_address":"ｿﾈ","pref":"京都府","city":"船井郡京丹波町","address":"曽根"},
{"zip_code":"6220224","kana_pref":"ｷｮｳﾄﾌ","kana_city":"ﾌﾅｲｸﾞﾝｷｮｳﾀﾝﾊﾞﾁｮｳ","kana_address":"ﾀｶｵｶ","pref":"京都府","city":"船井郡京丹波町","address":"高岡"},
{"zip_code":"6220331","kana_pref":"ｷｮｳﾄﾌ","kana_city":"ﾌﾅｲｸﾞﾝｷｮｳﾀﾝﾊﾞﾁｮｳ","kana_address":"ﾁｭｳﾀﾞｲ","pref":"京都府","city":"船井郡京丹波町","address":"中台"},
{"zip_code":"6220316","kana_pref":"ｷｮｳﾄﾌ","kana_city":"ﾌﾅｲｸﾞﾝｷｮｳﾀﾝﾊﾞﾁｮｳ","kana_address":"ﾄﾂｶﾜ","pref":"京都府","city":"船井郡京丹波町","address":"戸津川"},
{"zip_code":"6220203","kana_pref":"ｷｮｳﾄﾌ","kana_city":"ﾌﾅｲｸﾞﾝｷｮｳﾀﾝﾊﾞﾁｮｳ","kana_address":"ﾄﾐﾀ","pref":"京都府","city":"船井郡京丹波町","address":"富田"},
{"zip_code":"6220231","kana_pref":"ｷｮｳﾄﾌ","kana_city":"ﾌﾅｲｸﾞﾝｷｮｳﾀﾝﾊﾞﾁｮｳ","kana_address":"ﾄﾖﾀ","pref":"京都府","city":"船井郡京丹波町","address":"豊田"},
{"zip_code":"6220321","kana_pref":"ｷｮｳﾄﾌ","kana_city":"ﾌﾅｲｸﾞﾝｷｮｳﾀﾝﾊﾞﾁｮｳ","kana_address":"ﾊｼﾂﾞﾒ","pref":"京都府","city":"船井郡京丹波町","address":"橋爪"},
{"zip_code":"6220324","kana_pref":"ｷｮｳﾄﾌ","kana_city":"ﾌﾅｲｸﾞﾝｷｮｳﾀﾝﾊﾞﾁｮｳ","kana_address":"ﾊｯﾀ","pref":"京都府","city":"船井郡京丹波町","address":"八田"},
{"zip_code":"6220443","kana_pref":"ｷｮｳﾄﾌ","kana_city":"ﾌﾅｲｸﾞﾝｷｮｳﾀﾝﾊﾞﾁｮｳ","kana_address":"ﾋｶﾞｼﾏﾀ","pref":"京都府","city":"船井郡京丹波町","address":"東又"},
{"zip_code":"6220313","kana_pref":"ｷｮｳﾄﾌ","kana_city":"ﾌﾅｲｸﾞﾝｷｮｳﾀﾝﾊﾞﾁｮｳ","kana_address":"ﾎｲﾀﾞﾆ","pref":"京都府","city":"船井郡京丹波町","address":"保井谷"},
{"zip_code":"6220314","kana_pref":"ｷｮｳﾄﾌ","kana_city":"ﾌﾅｲｸﾞﾝｷｮｳﾀﾝﾊﾞﾁｮｳ","kana_address":"ﾐｽﾞﾉﾐ","pref":"京都府","city":"船井郡京丹波町","address":"水呑"},
{"zip_code":"6220453","kana_pref":"ｷｮｳﾄﾌ","kana_city":"ﾌﾅｲｸﾞﾝｷｮｳﾀﾝﾊﾞﾁｮｳ","kana_address":"ﾐｽﾞﾊﾗ","pref":"京都府","city":"船井郡京丹波町","address":"水原"},
{"zip_code":"6220221","kana_pref":"ｷｮｳﾄﾌ","kana_city":"ﾌﾅｲｸﾞﾝｷｮｳﾀﾝﾊﾞﾁｮｳ","kana_address":"ﾐﾄ","pref":"京都府","city":"船井郡京丹波町","address":"水戸"},
{"zip_code":"6220302","kana_pref":"ｷｮｳﾄﾌ","kana_city":"ﾌﾅｲｸﾞﾝｷｮｳﾀﾝﾊﾞﾁｮｳ","kana_address":"ﾐｮｳﾗｸｼﾞ","pref":"京都府","city":"船井郡京丹波町","address":"妙楽寺"},
{"zip_code":"6220233","kana_pref":"ｷｮｳﾄﾌ","kana_city":"ﾌﾅｲｸﾞﾝｷｮｳﾀﾝﾊﾞﾁｮｳ","kana_address":"ﾓﾘ","pref":"京都府","city":"船井郡京丹波町","address":"森"},
{"zip_code":"6220235","kana_pref":"ｷｮｳﾄﾌ","kana_city":"ﾌﾅｲｸﾞﾝｷｮｳﾀﾝﾊﾞﾁｮｳ","kana_address":"ﾔｽｲ","pref":"京都府","city":"船井郡京丹波町","address":"安井"},
{"zip_code":"6220311","kana_pref":"ｷｮｳﾄﾌ","kana_city":"ﾌﾅｲｸﾞﾝｷｮｳﾀﾝﾊﾞﾁｮｳ","kana_address":"ﾜﾀﾞ","pref":"京都府","city":"船井郡京丹波町","address":"和田"}]}