{"zip_code":[
{"zip_code":"6260000","kana_pref":"ｷｮｳﾄﾌ","kana_city":"ﾐﾔﾂﾞｼ","kana_address":"","pref":"京都府","city":"宮津市","address":""},
{"zip_code":"6260042","kana_pref":"ｷｮｳﾄﾌ","kana_city":"ﾐﾔﾂﾞｼ","kana_address":"ｱﾝﾁ","pref":"京都府","city":"宮津市","address":"安智"},
{"zip_code":"6260007","kana_pref":"ｷｮｳﾄﾌ","kana_city":"ﾐﾔﾂﾞｼ","kana_address":"ｲｹﾉﾀﾆ","pref":"京都府","city":"宮津市","address":"池ノ谷"},
{"zip_code":"6260072","kana_pref":"ｷｮｳﾄﾌ","kana_city":"ﾐﾔﾂﾞｼ","kana_address":"ｲｼｳﾗ","pref":"京都府","city":"宮津市","address":"石浦"},
{"zip_code":"6260036","kana_pref":"ｷｮｳﾄﾌ","kana_city":"ﾐﾔﾂﾞｼ","kana_address":"ｲﾏﾌｸ","pref":"京都府","city":"宮津市","address":"今福"},
{"zip_code":"6260203","kana_pref":"ｷｮｳﾄﾌ","kana_city":"ﾐﾔﾂﾞｼ","kana_address":"ｲﾜｶﾞﾊﾅ","pref":"京都府","city":"宮津市","address":"岩ケ鼻"},
{"zip_code":"6260015","kana_pref":"ｷｮｳﾄﾌ","kana_city":"ﾐﾔﾂﾞｼ","kana_address":"ｳｵﾔ","pref":"京都府","city":"宮津市","address":"魚屋"},
{"zip_code":"6260006","kana_pref":"ｷｮｳﾄﾌ","kana_city":"ﾐﾔﾂﾞｼ","kana_address":"ｴﾋﾞｽ","pref":"京都府","city":"宮津市","address":"蛭子"},
{"zip_code":"6260028","kana_pref":"ｷｮｳﾄﾌ","kana_city":"ﾐﾔﾂﾞｼ","kana_address":"ｵｵｸﾎﾞ","pref":"京都府","city":"宮津市","address":"大久保"},
{"zip_code":"6260202","kana_pref":"ｷｮｳﾄﾌ","kana_city":"ﾐﾔﾂﾞｼ","kana_address":"ｵｵｼﾏ","pref":"京都府","city":"宮津市","address":"大島"},
{"zip_code":"6260021","kana_pref":"ｷｮｳﾄﾌ","kana_city":"ﾐﾔﾂﾞｼ","kana_address":"ｵｶﾞﾜ","pref":"京都府","city":"宮津市","address":"小川"},
{"zip_code":"6260213","kana_pref":"ｷｮｳﾄﾌ","kana_city":"ﾐﾔﾂﾞｼ","kana_address":"ｵｸﾊﾐ","pref":"京都府","city":"宮津市","address":"奥波見"},
{"zip_code":"6260037","kana_pref":"ｷｮｳﾄﾌ","kana_city":"ﾐﾔﾂﾞｼ","kana_address":"ｵﾀﾞ","pref":"京都府","city":"宮津市","address":"小田"},
{"zip_code":"6260052","kana_pref":"ｷｮｳﾄﾌ","kana_city":"ﾐﾔﾂﾞｼ","kana_address":"ｵﾀﾞｼｭｸﾉ","pref":"京都府","city":"宮津市","address":"小田宿野"},
{"zip_code":"6260063","kana_pref":"ｷｮｳﾄﾌ","kana_city":"ﾐﾔﾂﾞｼ","kana_address":"ｶｲﾊﾞﾗ","pref":"京都府","city":"宮津市","address":"皆原"},
{"zip_code":"6260055","kana_pref":"ｷｮｳﾄﾌ","kana_city":"ﾐﾔﾂﾞｼ","kana_address":"ｶｶﾞﾐｶﾞｳﾗ","pref":"京都府","city":"宮津市","address":"鏡ケ浦"},
{"zip_code":"6260029","kana_pref":"ｷｮｳﾄﾌ","kana_city":"ﾐﾔﾂﾞｼ","kana_address":"ｶﾅﾔﾀﾞﾆ","pref":"京都府","city":"宮津市","address":"金屋谷"},
{"zip_code":"6260227","kana_pref":"ｷｮｳﾄﾌ","kana_city":"ﾐﾔﾂﾞｼ","kana_address":"ｶﾐｾﾔ","pref":"京都府","city":"宮津市","address":"上世屋"},
{"zip_code":"6260004","kana_pref":"ｷｮｳﾄﾌ","kana_city":"ﾐﾔﾂﾞｼ","kana_address":"ｶﾜﾑｶｲ","pref":"京都府","city":"宮津市","address":"川向"},
{"zip_code":"6260014","kana_pref":"ｷｮｳﾄﾌ","kana_city":"ﾐﾔﾂﾞｼ","kana_address":"ｶﾜﾗ","pref":"京都府","city":"宮津市","address":"河原"},
{"zip_code":"6260221","kana_pref":"ｷｮｳﾄﾌ","kana_city":"ﾐﾔﾂﾞｼ","kana_address":"ｷｺﾞ","pref":"京都府","city":"宮津市","address":"木子"},
{"zip_code":"6260035","kana_pref":"ｷｮｳﾄﾌ","kana_city":"ﾐﾔﾂﾞｼ","kana_address":"ｷﾀ","pref":"京都府","city":"宮津市","address":"喜多"},
{"zip_code":"6260025","kana_pref":"ｷｮｳﾄﾌ","kana_city":"ﾐﾔﾂﾞｼ","kana_address":"ｷﾉﾍﾞ","pref":"京都府","city":"宮津市","address":"木ノ部"},
{"zip_code":"6260027","kana_pref":"ｷｮｳﾄﾌ","kana_city":"ﾐﾔﾂﾞｼ","kana_address":"ｷｮｳｶｲﾄﾞｳ","pref":"京都府","city":"宮津市","address":"京街道"},
{"zip_code":"6260031","kana_pref":"ｷｮｳﾄﾌ","kana_city":"ﾐﾔﾂﾞｼ","kana_address":"ｷｮｳｸﾞﾁ","pref":"京都府","city":"宮津市","address":"京口"},
{"zip_code":"6260026","kana_pref":"ｷｮｳﾄﾌ","kana_city":"ﾐﾔﾂﾞｼ","kana_address":"ｷｮｳｸﾞﾁﾏﾁ","pref":"京都府","city":"宮津市","address":"京口町"},
{"zip_code":"6260054","kana_pref":"ｷｮｳﾄﾌ","kana_city":"ﾐﾔﾂﾞｼ","kana_address":"ｷﾞﾝｶﾞｵｶ","pref":"京都府","city":"宮津市","address":"銀丘"},
{"zip_code":"6260075","kana_pref":"ｷｮｳﾄﾌ","kana_city":"ﾐﾔﾂﾞｼ","kana_address":"ｺﾃﾞﾗ","pref":"京都府","city":"宮津市","address":"小寺"},
{"zip_code":"6260211","kana_pref":"ｷｮｳﾄﾌ","kana_city":"ﾐﾔﾂﾞｼ","kana_address":"ｻﾄﾊﾐ","pref":"京都府","city":"宮津市","address":"里波見"},
{"zip_code":"6260065","kana_pref":"ｷｮｳﾄﾌ","kana_city":"ﾐﾔﾂﾞｼ","kana_address":"ｼｼｻﾞｷ","pref":"京都府","city":"宮津市","address":"獅子崎"},
{"zip_code":"6260051","kana_pref":"ｷｮｳﾄﾌ","kana_city":"ﾐﾔﾂﾞｼ","kana_address":"ｼﾏｶｹﾞ","pref":"京都府","city":"宮津市","address":"島陰"},
{"zip_code":"6260017","kana_pref":"ｷｮｳﾄﾌ","kana_city":"ﾐﾔﾂﾞｼ","kana_address":"ｼﾏｻｷ","pref":"京都府","city":"宮津市","address":"島崎"},
{"zip_code":"6260224","kana_pref":"ｷｮｳﾄﾌ","kana_city":"ﾐﾔﾂﾞｼ","kana_address":"ｼﾓｾﾔ","pref":"京都府","city":"宮津市","address":"下世屋"},
{"zip_code":"6260074","kana_pref":"ｷｮｳﾄﾌ","kana_city":"ﾐﾔﾂﾞｼ","kana_address":"ｼﾞｮｳｼ","pref":"京都府","city":"宮津市","address":"上司"},
{"zip_code":"6260011","kana_pref":"ｷｮｳﾄﾌ","kana_city":"ﾐﾔﾂﾞｼ","kana_address":"ｼﾗｶｾ","pref":"京都府","city":"宮津市","address":"白柏"},
{"zip_code":"6260073","kana_pref":"ｷｮｳﾄﾌ","kana_city":"ﾐﾔﾂﾞｼ","kana_address":"ｼﾝｸﾞｳ","pref":"京都府","city":"宮津市","address":"新宮"},
{"zip_code":"6260016","kana_pref":"ｷｮｳﾄﾌ","kana_city":"ﾐﾔﾂﾞｼ","kana_address":"ｼﾝﾊﾏ","pref":"京都府","city":"宮津市","address":"新浜"},
{"zip_code":"6260002","kana_pref":"ｷｮｳﾄﾌ","kana_city":"ﾐﾔﾂﾞｼ","kana_address":"ｽｷﾞﾉｽｴ","pref":"京都府","city":"宮津市","address":"杉末"},
{"zip_code":"6260013","kana_pref":"ｷｮｳﾄﾌ","kana_city":"ﾐﾔﾂﾞｼ","kana_address":"ｽﾐﾖｼ","pref":"京都府","city":"宮津市","address":"住吉"},
{"zip_code":"6260043","kana_pref":"ｷｮｳﾄﾌ","kana_city":"ﾐﾔﾂﾞｼ","kana_address":"ｿｳ","pref":"京都府","city":"宮津市","address":"惣"},
{"zip_code":"6260047","kana_pref":"ｷｮｳﾄﾌ","kana_city":"ﾐﾔﾂﾞｼ","kana_address":"ｿﾄｶﾞﾜ","pref":"京都府","city":"宮津市","address":"外側"},
{"zip_code":"6260068","kana_pref":"ｷｮｳﾄﾌ","kana_city":"ﾐﾔﾂﾞｼ","kana_address":"ﾀｲ","pref":"京都府","city":"宮津市","address":"田井"},
{"zip_code":"6260034","kana_pref":"ｷｮｳﾄﾌ","kana_city":"ﾐﾔﾂﾞｼ","kana_address":"ﾀｷﾊﾞ","pref":"京都府","city":"宮津市","address":"滝馬"},
{"zip_code":"6260201","kana_pref":"ｷｮｳﾄﾌ","kana_city":"ﾐﾔﾂﾞｼ","kana_address":"ﾀﾜﾗ","pref":"京都府","city":"宮津市","address":"田原"},
{"zip_code":"6260066","kana_pref":"ｷｮｳﾄﾌ","kana_city":"ﾐﾔﾂﾞｼ","kana_address":"ﾁｼ","pref":"京都府","city":"宮津市","address":"獅子"},
{"zip_code":"6260041","kana_pref":"ｷｮｳﾄﾌ","kana_city":"ﾐﾔﾂﾞｼ","kana_address":"ﾂﾙｶﾞ","pref":"京都府","city":"宮津市","address":"鶴賀"},
{"zip_code":"6260205","kana_pref":"ｷｮｳﾄﾌ","kana_city":"ﾐﾔﾂﾞｼ","kana_address":"ﾄﾉｶﾞｷ","pref":"京都府","city":"宮津市","address":"外垣"},
{"zip_code":"6260204","kana_pref":"ｷｮｳﾄﾌ","kana_city":"ﾐﾔﾂﾞｼ","kana_address":"ﾅｶﾞｴ","pref":"京都府","city":"宮津市","address":"長江"},
{"zip_code":"6260053","kana_pref":"ｷｮｳﾄﾌ","kana_city":"ﾐﾔﾂﾞｼ","kana_address":"ﾅｶﾂ","pref":"京都府","city":"宮津市","address":"中津"},
{"zip_code":"6260046","kana_pref":"ｷｮｳﾄﾌ","kana_city":"ﾐﾔﾂﾞｼ","kana_address":"ﾅｶﾉﾁｮｳ","pref":"京都府","city":"宮津市","address":"中ノ丁"},
{"zip_code":"6260212","kana_pref":"ｷｮｳﾄﾌ","kana_city":"ﾐﾔﾂﾞｼ","kana_address":"ﾅｶﾊﾐ","pref":"京都府","city":"宮津市","address":"中波見"},
{"zip_code":"6260076","kana_pref":"ｷｮｳﾄﾌ","kana_city":"ﾐﾔﾂﾞｼ","kana_address":"ﾅｶﾑﾗ","pref":"京都府","city":"宮津市","address":"中村"},
{"zip_code":"6260061","kana_pref":"ｷｮｳﾄﾌ","kana_city":"ﾐﾔﾂﾞｼ","kana_address":"ﾊｼﾞ","pref":"京都府","city":"宮津市","address":"波路"},
{"zip_code":"6260064","kana_pref":"ｷｮｳﾄﾌ","kana_city":"ﾐﾔﾂﾞｼ","kana_address":"ﾊｼﾞﾏﾁ","pref":"京都府","city":"宮津市","address":"波路町"},
{"zip_code":"6260226","kana_pref":"ｷｮｳﾄﾌ","kana_city":"ﾐﾔﾂﾞｼ","kana_address":"ﾊﾀ","pref":"京都府","city":"宮津市","address":"畑"},
{"zip_code":"6260045","kana_pref":"ｷｮｳﾄﾌ","kana_city":"ﾐﾔﾂﾞｼ","kana_address":"ﾊﾞﾊﾞｻｷ","pref":"京都府","city":"宮津市","address":"馬場先"},
{"zip_code":"6260012","kana_pref":"ｷｮｳﾄﾌ","kana_city":"ﾐﾔﾂﾞｼ","kana_address":"ﾊﾏﾏﾁ","pref":"京都府","city":"宮津市","address":"浜町"},
{"zip_code":"6260225","kana_pref":"ｷｮｳﾄﾌ","kana_city":"ﾐﾔﾂﾞｼ","kana_address":"ﾋｵｷ","pref":"京都府","city":"宮津市","address":"日置"},
{"zip_code":"6260222","kana_pref":"ｷｮｳﾄﾌ","kana_city":"ﾐﾔﾂﾞｼ","kana_address":"ﾋｶﾞｼﾉ","pref":"京都府","city":"宮津市","address":"東野"},
{"zip_code":"6260206","kana_pref":"ｷｮｳﾄﾌ","kana_city":"ﾐﾔﾂﾞｼ","kana_address":"ﾋｶﾞﾀﾆ","pref":"京都府","city":"宮津市","address":"日ケ谷"},
{"zip_code":"6260018","kana_pref":"ｷｮｳﾄﾌ","kana_city":"ﾐﾔﾂﾞｼ","kana_address":"ﾎﾝﾏﾁ","pref":"京都府","city":"宮津市","address":"本町"},
{"zip_code":"6260223","kana_pref":"ｷｮｳﾄﾌ","kana_city":"ﾐﾔﾂﾞｼ","kana_address":"ﾏﾂｵ","pref":"京都府","city":"宮津市","address":"松尾"},
{"zip_code":"6260032","kana_pref":"ｷｮｳﾄﾌ","kana_city":"ﾐﾔﾂﾞｼ","kana_address":"ﾏﾂﾊﾞﾗ","pref":"京都府","city":"宮津市","address":"松原"},
{"zip_code":"6260008","kana_pref":"ｷｮｳﾄﾌ","kana_city":"ﾐﾔﾂﾞｼ","kana_address":"ﾏﾝﾈﾝ","pref":"京都府","city":"宮津市","address":"万年"},
{"zip_code":"6260019","kana_pref":"ｷｮｳﾄﾌ","kana_city":"ﾐﾔﾂﾞｼ","kana_address":"ﾏﾝﾈﾝｼﾝﾁ","pref":"京都府","city":"宮津市","address":"万年新地"},
{"zip_code":"6260005","kana_pref":"ｷｮｳﾄﾌ","kana_city":"ﾐﾔﾂﾞｼ","kana_address":"ﾐﾔﾏﾁ","pref":"京都府","city":"宮津市","address":"宮町"},
{"zip_code":"6260033","kana_pref":"ｷｮｳﾄﾌ","kana_city":"ﾐﾔﾂﾞｼ","kana_address":"ﾐﾔﾑﾗ","pref":"京都府","city":"宮津市","address":"宮村"},
{"zip_code":"6260023","kana_pref":"ｷｮｳﾄﾌ","kana_city":"ﾐﾔﾂﾞｼ","kana_address":"ﾐﾔﾓﾄ","pref":"京都府","city":"宮津市","address":"宮本"},
{"zip_code":"6260001","kana_pref":"ｷｮｳﾄﾌ","kana_city":"ﾐﾔﾂﾞｼ","kana_address":"ﾓﾝｼﾞｭ","pref":"京都府","city":"宮津市","address":"文珠"},
{"zip_code":"6260024","kana_pref":"ｷｮｳﾄﾌ","kana_city":"ﾐﾔﾂﾞｼ","kana_address":"ﾔﾅｷﾞﾅﾜﾃ","pref":"京都府","city":"宮津市","address":"柳縄手"},
{"zip_code":"6260062","kana_pref":"ｷｮｳﾄﾌ","kana_city":"ﾐﾔﾂﾞｼ","kana_address":"ﾔﾏﾅｶ","pref":"京都府","city":"宮津市","address":"山中"},
{"zip_code":"6260067","kana_pref":"ｷｮｳﾄﾌ","kana_city":"ﾐﾔﾂﾞｼ","kana_address":"ﾔﾜﾗ","pref":"京都府","city":"宮津市","address":"矢原"},
{"zip_code":"6260071","kana_pref":"ｷｮｳﾄﾌ","kana_city":"ﾐﾔﾂﾞｼ","kana_address":"ﾕﾗ","pref":"京都府","city":"宮津市","address":"由良"},
{"zip_code":"6260044","kana_pref":"ｷｮｳﾄﾌ","kana_city":"ﾐﾔﾂﾞｼ","kana_address":"ﾖｼﾊﾗ","pref":"京都府","city":"宮津市","address":"吉原"},
{"zip_code":"6260022","kana_pref":"ｷｮｳﾄﾌ","kana_city":"ﾐﾔﾂﾞｼ","kana_address":"ﾖﾛｽﾞﾏﾁ","pref":"京都府","city":"宮津市","address":"万町"},
{"zip_code":"6260003","kana_pref":"ｷｮｳﾄﾌ","kana_city":"ﾐﾔﾂﾞｼ","kana_address":"ﾘｮｳｼ","pref":"京都府","city":"宮津市","address":"漁師"},
{"zip_code":"6260020","kana_pref":"ｷｮｳﾄﾌ","kana_city":"ﾐﾔﾂﾞｼ","kana_address":"ﾘｮｳｼ","pref":"京都府","city":"宮津市","address":"猟師"},
{"zip_code":"6260077","kana_pref":"ｷｮｳﾄﾌ","kana_city":"ﾐﾔﾂﾞｼ","kana_address":"ﾜｷ","pref":"京都府","city":"宮津市","address":"脇"},
{"zip_code":"6260400","kana_pref":"ｷｮｳﾄﾌ","kana_city":"ﾖｻｸﾞﾝｲﾈﾁｮｳ","kana_address":"","pref":"京都府","city":"与謝郡伊根町","address":""},
{"zip_code":"6260415","kana_pref":"ｷｮｳﾄﾌ","kana_city":"ﾖｻｸﾞﾝｲﾈﾁｮｳ","kana_address":"ｲﾑﾛ","pref":"京都府","city":"与謝郡伊根町","address":"井室"},
{"zip_code":"6260422","kana_pref":"ｷｮｳﾄﾌ","kana_city":"ﾖｻｸﾞﾝｲﾈﾁｮｳ","kana_address":"ｵｵﾊﾗ","pref":"京都府","city":"与謝郡伊根町","address":"大原"},
{"zip_code":"6260401","kana_pref":"ｷｮｳﾄﾌ","kana_city":"ﾖｻｸﾞﾝｲﾈﾁｮｳ","kana_address":"ｶﾏﾆｭｳ","pref":"京都府","city":"与謝郡伊根町","address":"蒲入"},
{"zip_code":"6260424","kana_pref":"ｷｮｳﾄﾌ","kana_city":"ﾖｻｸﾞﾝｲﾈﾁｮｳ","kana_address":"ｶﾒｼﾏ","pref":"京都府","city":"与謝郡伊根町","address":"亀島"},
{"zip_code":"6260431","kana_pref":"ｷｮｳﾄﾌ","kana_city":"ﾖｻｸﾞﾝｲﾈﾁｮｳ","kana_address":"ｽｶﾞﾉ","pref":"京都府","city":"与謝郡伊根町","address":"菅野"},
{"zip_code":"6260402","kana_pref":"ｷｮｳﾄﾌ","kana_city":"ﾖｻｸﾞﾝｲﾈﾁｮｳ","kana_address":"ﾁｮｳｴﾝ","pref":"京都府","city":"与謝郡伊根町","address":"長延"},
{"zip_code":"6260412","kana_pref":"ｷｮｳﾄﾌ","kana_city":"ﾖｻｸﾞﾝｲﾈﾁｮｳ","kana_address":"ﾂﾓ","pref":"京都府","city":"与謝郡伊根町","address":"津母"},
{"zip_code":"6260417","kana_pref":"ｷｮｳﾄﾌ","kana_city":"ﾖｻｸﾞﾝｲﾈﾁｮｳ","kana_address":"ﾄｳｹﾞ","pref":"京都府","city":"与謝郡伊根町","address":"峠"},
{"zip_code":"6260413","kana_pref":"ｷｮｳﾄﾌ","kana_city":"ﾖｻｸﾞﾝｲﾈﾁｮｳ","kana_address":"ﾄﾏﾘ","pref":"京都府","city":"与謝郡伊根町","address":"泊"},
{"zip_code":"6260421","kana_pref":"ｷｮｳﾄﾌ","kana_city":"ﾖｻｸﾞﾝｲﾈﾁｮｳ","kana_address":"ﾆｲ","pref":"京都府","city":"与謝郡伊根町","address":"新井"},
{"zip_code":"6260433","kana_pref":"ｷｮｳﾄﾌ","kana_city":"ﾖｻｸﾞﾝｲﾈﾁｮｳ","kana_address":"ﾉﾑﾗ","pref":"京都府","city":"与謝郡伊根町","address":"野村"},
{"zip_code":"6260411","kana_pref":"ｷｮｳﾄﾌ","kana_city":"ﾖｻｸﾞﾝｲﾈﾁｮｳ","kana_address":"ﾉﾑﾛ","pref":"京都府","city":"与謝郡伊根町","address":"野室"},
{"zip_code":"6260416","kana_pref":"ｷｮｳﾄﾌ","kana_city":"ﾖｻｸﾞﾝｲﾈﾁｮｳ","kana_address":"ﾊﾀﾀﾞﾆ","pref":"京都府","city":"与謝郡伊根町","address":"畑谷"},
{"zip_code":"6260425","kana_pref":"ｷｮｳﾄﾌ","kana_city":"ﾖｻｸﾞﾝｲﾈﾁｮｳ","kana_address":"ﾋﾃﾞ","pref":"京都府","city":"与謝郡伊根町","address":"日出"},
{"zip_code":"6260423","kana_pref":"ｷｮｳﾄﾌ","kana_city":"ﾖｻｸﾞﾝｲﾈﾁｮｳ","kana_address":"ﾋﾗﾀ","pref":"京都府","city":"与謝郡伊根町","address":"平田"},
{"zip_code":"6260432","kana_pref":"ｷｮｳﾄﾌ","kana_city":"ﾖｻｸﾞﾝｲﾈﾁｮｳ","kana_address":"ﾎﾝｻﾞｶ","pref":"京都府","city":"与謝郡伊根町","address":"本坂"},
{"zip_code":"6260405","kana_pref":"ｷｮｳﾄﾌ","kana_city":"ﾖｻｸﾞﾝｲﾈﾁｮｳ","kana_address":"ﾎﾝｼﾞｮｳｱｹﾞ","pref":"京都府","city":"与謝郡伊根町","address":"本庄上"},
{"zip_code":"6260404","kana_pref":"ｷｮｳﾄﾌ","kana_city":"ﾖｻｸﾞﾝｲﾈﾁｮｳ","kana_address":"ﾎﾝｼﾞｮｳｳｼﾞ","pref":"京都府","city":"与謝郡伊根町","address":"本庄宇治"},
{"zip_code":"6260403","kana_pref":"ｷｮｳﾄﾌ","kana_city":"ﾖｻｸﾞﾝｲﾈﾁｮｳ","kana_address":"ﾎﾝｼﾞｮｳﾊﾏ","pref":"京都府","city":"与謝郡伊根町","address":"本庄浜"},
{"zip_code":"6260414","kana_pref":"ｷｮｳﾄﾌ","kana_city":"ﾖｻｸﾞﾝｲﾈﾁｮｳ","kana_address":"ﾛｸﾏﾝﾌﾞ","pref":"京都府","city":"与謝郡伊根町","address":"六万部"}]}