{"zip_code":[
{"zip_code":"6270000","kana_pref":"ｷｮｳﾄﾌ","kana_city":"ｷｮｳﾀﾝｺﾞｼ","kana_address":"","pref":"京都府","city":"京丹後市","address":""},
{"zip_code":"6270227","kana_pref":"ｷｮｳﾄﾌ","kana_city":"ｷｮｳﾀﾝｺﾞｼ","kana_address":"ﾀﾝｺﾞﾁｮｳｲｴﾉﾀﾆ","pref":"京都府","city":"京丹後市","address":"丹後町家ノ谷"},
{"zip_code":"6270248","kana_pref":"ｷｮｳﾄﾌ","kana_city":"ｷｮｳﾀﾝｺﾞｼ","kana_address":"ﾀﾝｺﾞﾁｮｳｲｶﾘ","pref":"京都府","city":"京丹後市","address":"丹後町碇"},
{"zip_code":"6270237","kana_pref":"ｷｮｳﾄﾌ","kana_city":"ｷｮｳﾀﾝｺﾞｼ","kana_address":"ﾀﾝｺﾞﾁｮｳｲﾀﾞﾆ","pref":"京都府","city":"京丹後市","address":"丹後町井谷"},
{"zip_code":"6270235","kana_pref":"ｷｮｳﾄﾌ","kana_city":"ｷｮｳﾀﾝｺﾞｼ","kana_address":"ﾀﾝｺﾞﾁｮｳｲﾉｳｴ","pref":"京都府","city":"京丹後市","address":"丹後町井上"},
{"zip_code":"6270224","kana_pref":"ｷｮｳﾄﾌ","kana_city":"ｷｮｳﾀﾝｺﾞｼ","kana_address":"ﾀﾝｺﾞﾁｮｳｲﾜｷ","pref":"京都府","city":"京丹後市","address":"丹後町岩木"},
{"zip_code":"6270241","kana_pref":"ｷｮｳﾄﾌ","kana_city":"ｷｮｳﾀﾝｺﾞｼ","kana_address":"ﾀﾝｺﾞﾁｮｳｳｴﾉ","pref":"京都府","city":"京丹後市","address":"丹後町上野"},
{"zip_code":"6270247","kana_pref":"ｷｮｳﾄﾌ","kana_city":"ｷｮｳﾀﾝｺﾞｼ","kana_address":"ﾀﾝｺﾞﾁｮｳｳｴﾔﾏ","pref":"京都府","city":"京丹後市","address":"丹後町上山"},
{"zip_code":"6270211","kana_pref":"ｷｮｳﾄﾌ","kana_city":"ｷｮｳﾀﾝｺﾞｼ","kana_address":"ﾀﾝｺﾞﾁｮｳｵｵﾔﾏ","pref":"京都府","city":"京丹後市","address":"丹後町大山"},
{"zip_code":"6270244","kana_pref":"ｷｮｳﾄﾌ","kana_city":"ｷｮｳﾀﾝｺﾞｼ","kana_address":"ﾀﾝｺﾞﾁｮｳｵﾜ","pref":"京都府","city":"京丹後市","address":"丹後町尾和"},
{"zip_code":"6270239","kana_pref":"ｷｮｳﾄﾌ","kana_city":"ｷｮｳﾀﾝｺﾞｼ","kana_address":"ﾀﾝｺﾞﾁｮｳｵﾝｹﾞ","pref":"京都府","city":"京丹後市","address":"丹後町遠下"},
{"zip_code":"6270225","kana_pref":"ｷｮｳﾄﾌ","kana_city":"ｷｮｳﾀﾝｺﾞｼ","kana_address":"ﾀﾝｺﾞﾁｮｳｶﾞﾝｺﾞｳｼﾞ","pref":"京都府","city":"京丹後市","address":"丹後町願興寺"},
{"zip_code":"6270242","kana_pref":"ｷｮｳﾄﾌ","kana_city":"ｷｮｳﾀﾝｺﾞｼ","kana_address":"ﾀﾝｺﾞﾁｮｳｷｭｳｿ","pref":"京都府","city":"京丹後市","address":"丹後町久僧"},
{"zip_code":"6270238","kana_pref":"ｷｮｳﾄﾌ","kana_city":"ｷｮｳﾀﾝｺﾞｼ","kana_address":"ﾀﾝｺﾞﾁｮｳｸﾗｳﾁ","pref":"京都府","city":"京丹後市","address":"丹後町鞍内"},
{"zip_code":"6270232","kana_pref":"ｷｮｳﾄﾌ","kana_city":"ｷｮｳﾀﾝｺﾞｼ","kana_address":"ﾀﾝｺﾞﾁｮｳｺﾉｼﾛ","pref":"京都府","city":"京丹後市","address":"丹後町此代"},
{"zip_code":"6270214","kana_pref":"ｷｮｳﾄﾌ","kana_city":"ｷｮｳﾀﾝｺﾞｼ","kana_address":"ﾀﾝｺﾞﾁｮｳｺﾚﾔｽ","pref":"京都府","city":"京丹後市","address":"丹後町是安"},
{"zip_code":"6270215","kana_pref":"ｷｮｳﾄﾌ","kana_city":"ｷｮｳﾀﾝｺﾞｼ","kana_address":"ﾀﾝｺﾞﾁｮｳｼﾞｮｳｶﾞﾝｼﾞ","pref":"京都府","city":"京丹後市","address":"丹後町成願寺"},
{"zip_code":"6270202","kana_pref":"ｷｮｳﾄﾌ","kana_city":"ｷｮｳﾀﾝｺﾞｼ","kana_address":"ﾀﾝｺﾞﾁｮｳｽﾅｶﾞﾀ","pref":"京都府","city":"京丹後市","address":"丹後町砂方"},
{"zip_code":"6270245","kana_pref":"ｷｮｳﾄﾌ","kana_city":"ｷｮｳﾀﾝｺﾞｼ","kana_address":"ﾀﾝｺﾞﾁｮｳｿﾃﾞｼ","pref":"京都府","city":"京丹後市","address":"丹後町袖志"},
{"zip_code":"6270201","kana_pref":"ｷｮｳﾄﾌ","kana_city":"ｷｮｳﾀﾝｺﾞｼ","kana_address":"ﾀﾝｺﾞﾁｮｳﾀｲｻﾞ","pref":"京都府","city":"京丹後市","address":"丹後町間人"},
{"zip_code":"6270221","kana_pref":"ｷｮｳﾄﾌ","kana_city":"ｷｮｳﾀﾝｺﾞｼ","kana_address":"ﾀﾝｺﾞﾁｮｳﾀｶﾉ","pref":"京都府","city":"京丹後市","address":"丹後町竹野"},
{"zip_code":"6270246","kana_pref":"ｷｮｳﾄﾌ","kana_city":"ｷｮｳﾀﾝｺﾞｼ","kana_address":"ﾀﾝｺﾞﾁｮｳﾀﾆｳﾁ","pref":"京都府","city":"京丹後市","address":"丹後町谷内"},
{"zip_code":"6270216","kana_pref":"ｷｮｳﾄﾌ","kana_city":"ｷｮｳﾀﾝｺﾞｼ","kana_address":"ﾀﾝｺﾞﾁｮｳﾄｸﾐﾂ","pref":"京都府","city":"京丹後市","address":"丹後町徳光"},
{"zip_code":"6270234","kana_pref":"ｷｮｳﾄﾌ","kana_city":"ｷｮｳﾀﾝｺﾞｼ","kana_address":"ﾀﾝｺﾞﾁｮｳﾅｶﾉ","pref":"京都府","city":"京丹後市","address":"丹後町中野"},
{"zip_code":"6270243","kana_pref":"ｷｮｳﾄﾌ","kana_city":"ｷｮｳﾀﾝｺﾞｼ","kana_address":"ﾀﾝｺﾞﾁｮｳﾅｶﾊﾏ","pref":"京都府","city":"京丹後市","address":"丹後町中浜"},
{"zip_code":"6270231","kana_pref":"ｷｮｳﾄﾌ","kana_city":"ｷｮｳﾀﾝｺﾞｼ","kana_address":"ﾀﾝｺﾞﾁｮｳﾉﾝﾊﾞﾗ","pref":"京都府","city":"京丹後市","address":"丹後町乗原"},
{"zip_code":"6270236","kana_pref":"ｷｮｳﾄﾌ","kana_city":"ｷｮｳﾀﾝｺﾞｼ","kana_address":"ﾀﾝｺﾞﾁｮｳﾊﾀ","pref":"京都府","city":"京丹後市","address":"丹後町畑"},
{"zip_code":"6270222","kana_pref":"ｷｮｳﾄﾌ","kana_city":"ｷｮｳﾀﾝｺﾞｼ","kana_address":"ﾀﾝｺﾞﾁｮｳﾌﾃﾞｼ","pref":"京都府","city":"京丹後市","address":"丹後町筆石"},
{"zip_code":"6270233","kana_pref":"ｷｮｳﾄﾌ","kana_city":"ｷｮｳﾀﾝｺﾞｼ","kana_address":"ﾀﾝｺﾞﾁｮｳﾍｲ","pref":"京都府","city":"京丹後市","address":"丹後町平"},
{"zip_code":"6270226","kana_pref":"ｷｮｳﾄﾌ","kana_city":"ｷｮｳﾀﾝｺﾞｼ","kana_address":"ﾀﾝｺﾞﾁｮｳﾏｷﾉﾀﾆ","pref":"京都府","city":"京丹後市","address":"丹後町牧ノ谷"},
{"zip_code":"6270228","kana_pref":"ｷｮｳﾄﾌ","kana_city":"ｷｮｳﾀﾝｺﾞｼ","kana_address":"ﾀﾝｺﾞﾁｮｳﾐﾔ","pref":"京都府","city":"京丹後市","address":"丹後町宮"},
{"zip_code":"6270212","kana_pref":"ｷｮｳﾄﾌ","kana_city":"ｷｮｳﾀﾝｺﾞｼ","kana_address":"ﾀﾝｺﾞﾁｮｳﾐﾔｹ","pref":"京都府","city":"京丹後市","address":"丹後町三宅"},
{"zip_code":"6270249","kana_pref":"ｷｮｳﾄﾌ","kana_city":"ｷｮｳﾀﾝｺﾞｼ","kana_address":"ﾀﾝｺﾞﾁｮｳﾐﾔﾏ","pref":"京都府","city":"京丹後市","address":"丹後町三山"},
{"zip_code":"6270223","kana_pref":"ｷｮｳﾄﾌ","kana_city":"ｷｮｳﾀﾝｺﾞｼ","kana_address":"ﾀﾝｺﾞﾁｮｳﾔﾊﾞﾀ","pref":"京都府","city":"京丹後市","address":"丹後町矢畑"},
{"zip_code":"6270213","kana_pref":"ｷｮｳﾄﾌ","kana_city":"ｷｮｳﾀﾝｺﾞｼ","kana_address":"ﾀﾝｺﾞﾁｮｳﾖｼﾅｶﾞ","pref":"京都府","city":"京丹後市","address":"丹後町吉永"},
{"zip_code":"6270006","kana_pref":"ｷｮｳﾄﾌ","kana_city":"ｷｮｳﾀﾝｺﾞｼ","kana_address":"ﾐﾈﾔﾏﾁｮｳｱｶｻｶ","pref":"京都府","city":"京丹後市","address":"峰山町赤坂"},
{"zip_code":"6270004","kana_pref":"ｷｮｳﾄﾌ","kana_city":"ｷｮｳﾀﾝｺﾞｼ","kana_address":"ﾐﾈﾔﾏﾁｮｳｱﾗﾔﾏ","pref":"京都府","city":"京丹後市","address":"峰山町荒山"},
{"zip_code":"6270007","kana_pref":"ｷｮｳﾄﾌ","kana_city":"ｷｮｳﾀﾝｺﾞｼ","kana_address":"ﾐﾈﾔﾏﾁｮｳｲｼﾏﾙ","pref":"京都府","city":"京丹後市","address":"峰山町石丸"},
{"zip_code":"6270034","kana_pref":"ｷｮｳﾄﾌ","kana_city":"ｷｮｳﾀﾝｺﾞｼ","kana_address":"ﾐﾈﾔﾏﾁｮｳｲｽﾞﾐ","pref":"京都府","city":"京丹後市","address":"峰山町泉"},
{"zip_code":"6270036","kana_pref":"ｷｮｳﾄﾌ","kana_city":"ｷｮｳﾀﾝｺﾞｼ","kana_address":"ﾐﾈﾔﾏﾁｮｳｵﾀﾋﾞ","pref":"京都府","city":"京丹後市","address":"峰山町御旅"},
{"zip_code":"6270023","kana_pref":"ｷｮｳﾄﾌ","kana_city":"ｷｮｳﾀﾝｺﾞｼ","kana_address":"ﾐﾈﾔﾏﾁｮｳｵﾘﾓﾄ","pref":"京都府","city":"京丹後市","address":"峰山町織元"},
{"zip_code":"6270022","kana_pref":"ｷｮｳﾄﾌ","kana_city":"ｷｮｳﾀﾝｺﾞｼ","kana_address":"ﾐﾈﾔﾏﾁｮｳｶﾐ","pref":"京都府","city":"京丹後市","address":"峰山町上"},
{"zip_code":"6270035","kana_pref":"ｷｮｳﾄﾌ","kana_city":"ｷｮｳﾀﾝｺﾞｼ","kana_address":"ﾐﾈﾔﾏﾁｮｳｺｳﾐｮｳｼﾞ","pref":"京都府","city":"京丹後市","address":"峰山町光明寺"},
{"zip_code":"6270052","kana_pref":"ｷｮｳﾄﾌ","kana_city":"ｷｮｳﾀﾝｺﾞｼ","kana_address":"ﾐﾈﾔﾏﾁｮｳｺﾞｶ","pref":"京都府","city":"京丹後市","address":"峰山町五箇"},
{"zip_code":"6270044","kana_pref":"ｷｮｳﾄﾌ","kana_city":"ｷｮｳﾀﾝｺﾞｼ","kana_address":"ﾐﾈﾔﾏﾁｮｳｺﾆｼ","pref":"京都府","city":"京丹後市","address":"峰山町小西"},
{"zip_code":"6270031","kana_pref":"ｷｮｳﾄﾌ","kana_city":"ｷｮｳﾀﾝｺﾞｼ","kana_address":"ﾐﾈﾔﾏﾁｮｳｺﾞﾌｸ","pref":"京都府","city":"京丹後市","address":"峰山町呉服"},
{"zip_code":"6270025","kana_pref":"ｷｮｳﾄﾌ","kana_city":"ｷｮｳﾀﾝｺﾞｼ","kana_address":"ﾐﾈﾔﾏﾁｮｳｻｶｲ","pref":"京都府","city":"京丹後市","address":"峰山町堺"},
{"zip_code":"6270014","kana_pref":"ｷｮｳﾄﾌ","kana_city":"ｷｮｳﾀﾝｺﾞｼ","kana_address":"ﾐﾈﾔﾏﾁｮｳｼｹﾝ","pref":"京都府","city":"京丹後市","address":"峰山町四軒"},
{"zip_code":"6270033","kana_pref":"ｷｮｳﾄﾌ","kana_city":"ｷｮｳﾀﾝｺﾞｼ","kana_address":"ﾐﾈﾔﾏﾁｮｳｼﾗｶﾞﾈ","pref":"京都府","city":"京丹後市","address":"峰山町白銀"},
{"zip_code":"6270005","kana_pref":"ｷｮｳﾄﾌ","kana_city":"ｷｮｳﾀﾝｺﾞｼ","kana_address":"ﾐﾈﾔﾏﾁｮｳｼﾝﾏﾁ","pref":"京都府","city":"京丹後市","address":"峰山町新町"},
{"zip_code":"6270012","kana_pref":"ｷｮｳﾄﾌ","kana_city":"ｷｮｳﾀﾝｺﾞｼ","kana_address":"ﾐﾈﾔﾏﾁｮｳｽｷﾞﾀﾆ","pref":"京都府","city":"京丹後市","address":"峰山町杉谷"},
{"zip_code":"6270041","kana_pref":"ｷｮｳﾄﾌ","kana_city":"ｷｮｳﾀﾝｺﾞｼ","kana_address":"ﾐﾈﾔﾏﾁｮｳｽｹﾞ","pref":"京都府","city":"京丹後市","address":"峰山町菅"},
{"zip_code":"6270011","kana_pref":"ｷｮｳﾄﾌ","kana_city":"ｷｮｳﾀﾝｺﾞｼ","kana_address":"ﾐﾈﾔﾏﾁｮｳﾀﾝﾊﾞ","pref":"京都府","city":"京丹後市","address":"峰山町丹波"},
{"zip_code":"6270037","kana_pref":"ｷｮｳﾄﾌ","kana_city":"ｷｮｳﾀﾝｺﾞｼ","kana_address":"ﾐﾈﾔﾏﾁｮｳﾁﾄｾ","pref":"京都府","city":"京丹後市","address":"峰山町千歳"},
{"zip_code":"6270003","kana_pref":"ｷｮｳﾄﾌ","kana_city":"ｷｮｳﾀﾝｺﾞｼ","kana_address":"ﾐﾈﾔﾏﾁｮｳﾅｲｷ","pref":"京都府","city":"京丹後市","address":"峰山町内記"},
{"zip_code":"6270042","kana_pref":"ｷｮｳﾄﾌ","kana_city":"ｷｮｳﾀﾝｺﾞｼ","kana_address":"ﾐﾈﾔﾏﾁｮｳﾅｶﾞｵｶ","pref":"京都府","city":"京丹後市","address":"峰山町長岡"},
{"zip_code":"6270032","kana_pref":"ｷｮｳﾄﾌ","kana_city":"ｷｮｳﾀﾝｺﾞｼ","kana_address":"ﾐﾈﾔﾏﾁｮｳﾅﾆﾜ","pref":"京都府","city":"京丹後市","address":"峰山町浪花"},
{"zip_code":"6270051","kana_pref":"ｷｮｳﾄﾌ","kana_city":"ｷｮｳﾀﾝｺﾞｼ","kana_address":"ﾐﾈﾔﾏﾁｮｳﾆｶ","pref":"京都府","city":"京丹後市","address":"峰山町二箇"},
{"zip_code":"6270045","kana_pref":"ｷｮｳﾄﾌ","kana_city":"ｷｮｳﾀﾝｺﾞｼ","kana_address":"ﾐﾈﾔﾏﾁｮｳﾆｼﾔﾏ","pref":"京都府","city":"京丹後市","address":"峰山町西山"},
{"zip_code":"6270043","kana_pref":"ｷｮｳﾄﾌ","kana_city":"ｷｮｳﾀﾝｺﾞｼ","kana_address":"ﾐﾈﾔﾏﾁｮｳﾆﾝﾊﾞﾘ","pref":"京都府","city":"京丹後市","address":"峰山町新治"},
{"zip_code":"6270001","kana_pref":"ｷｮｳﾄﾌ","kana_city":"ｷｮｳﾀﾝｺﾞｼ","kana_address":"ﾐﾈﾔﾏﾁｮｳﾊｼｷﾞ","pref":"京都府","city":"京丹後市","address":"峰山町橋木"},
{"zip_code":"6270054","kana_pref":"ｷｮｳﾄﾌ","kana_city":"ｷｮｳﾀﾝｺﾞｼ","kana_address":"ﾐﾈﾔﾏﾁｮｳﾋｻﾂｷﾞ","pref":"京都府","city":"京丹後市","address":"峰山町久次"},
{"zip_code":"6270038","kana_pref":"ｷｮｳﾄﾌ","kana_city":"ｷｮｳﾀﾝｺﾞｼ","kana_address":"ﾐﾈﾔﾏﾁｮｳﾌｷﾔ","pref":"京都府","city":"京丹後市","address":"峰山町富貴屋"},
{"zip_code":"6270013","kana_pref":"ｷｮｳﾄﾌ","kana_city":"ｷｮｳﾀﾝｺﾞｼ","kana_address":"ﾐﾈﾔﾏﾁｮｳﾌﾀﾞﾝ","pref":"京都府","city":"京丹後市","address":"峰山町不断"},
{"zip_code":"6270026","kana_pref":"ｷｮｳﾄﾌ","kana_city":"ｷｮｳﾀﾝｺﾞｼ","kana_address":"ﾐﾈﾔﾏﾁｮｳﾌﾙﾄﾞﾉ","pref":"京都府","city":"京丹後市","address":"峰山町古殿"},
{"zip_code":"6270053","kana_pref":"ｷｮｳﾄﾌ","kana_city":"ｷｮｳﾀﾝｺﾞｼ","kana_address":"ﾐﾈﾔﾏﾁｮｳﾏｽﾄﾞﾒ","pref":"京都府","city":"京丹後市","address":"峰山町鱒留"},
{"zip_code":"6270024","kana_pref":"ｷｮｳﾄﾌ","kana_city":"ｷｮｳﾀﾝｺﾞｼ","kana_address":"ﾐﾈﾔﾏﾁｮｳﾑﾛ","pref":"京都府","city":"京丹後市","address":"峰山町室"},
{"zip_code":"6270027","kana_pref":"ｷｮｳﾄﾌ","kana_city":"ｷｮｳﾀﾝｺﾞｼ","kana_address":"ﾐﾈﾔﾏﾁｮｳﾔｽ","pref":"京都府","city":"京丹後市","address":"峰山町安"},
{"zip_code":"6270002","kana_pref":"ｷｮｳﾄﾌ","kana_city":"ｷｮｳﾀﾝｺﾞｼ","kana_address":"ﾐﾈﾔﾏﾁｮｳﾔﾀ","pref":"京都府","city":"京丹後市","address":"峰山町矢田"},
{"zip_code":"6270021","kana_pref":"ｷｮｳﾄﾌ","kana_city":"ｷｮｳﾀﾝｺﾞｼ","kana_address":"ﾐﾈﾔﾏﾁｮｳﾖｼﾜﾗ","pref":"京都府","city":"京丹後市","address":"峰山町吉原"},
{"zip_code":"6270144","kana_pref":"ｷｮｳﾄﾌ","kana_city":"ｷｮｳﾀﾝｺﾞｼ","kana_address":"ﾔｻｶﾁｮｳｲﾉﾍﾞ","pref":"京都府","city":"京丹後市","address":"弥栄町井辺"},
{"zip_code":"6270122","kana_pref":"ｷｮｳﾄﾌ","kana_city":"ｷｮｳﾀﾝｺﾞｼ","kana_address":"ﾔｻｶﾁｮｳｲﾓﾉ","pref":"京都府","city":"京丹後市","address":"弥栄町芋野"},
{"zip_code":"6270132","kana_pref":"ｷｮｳﾄﾌ","kana_city":"ｷｮｳﾀﾝｺﾞｼ","kana_address":"ﾔｻｶﾁｮｳｷﾊﾞｼ","pref":"京都府","city":"京丹後市","address":"弥栄町木橋"},
{"zip_code":"6270145","kana_pref":"ｷｮｳﾄﾌ","kana_city":"ｷｮｳﾀﾝｺﾞｼ","kana_address":"ﾔｻｶﾁｮｳｸﾆﾋｻ","pref":"京都府","city":"京丹後市","address":"弥栄町国久"},
{"zip_code":"6270142","kana_pref":"ｷｮｳﾄﾌ","kana_city":"ｷｮｳﾀﾝｺﾞｼ","kana_address":"ﾔｻｶﾁｮｳｸﾛﾍﾞ","pref":"京都府","city":"京丹後市","address":"弥栄町黒部"},
{"zip_code":"6270141","kana_pref":"ｷｮｳﾄﾌ","kana_city":"ｷｮｳﾀﾝｺﾞｼ","kana_address":"ﾔｻｶﾁｮｳｺﾀﾞ","pref":"京都府","city":"京丹後市","address":"弥栄町小田"},
{"zip_code":"6270102","kana_pref":"ｷｮｳﾄﾌ","kana_city":"ｷｮｳﾀﾝｺﾞｼ","kana_address":"ﾔｻｶﾁｮｳｽｶﾞﾜ","pref":"京都府","city":"京丹後市","address":"弥栄町須川"},
{"zip_code":"6270121","kana_pref":"ｷｮｳﾄﾌ","kana_city":"ｷｮｳﾀﾝｺﾞｼ","kana_address":"ﾔｻｶﾁｮｳﾂﾂﾐ","pref":"京都府","city":"京丹後市","address":"弥栄町堤"},
{"zip_code":"6270112","kana_pref":"ｷｮｳﾄﾌ","kana_city":"ｷｮｳﾀﾝｺﾞｼ","kana_address":"ﾔｻｶﾁｮｳﾄｳﾗｸｼﾞ","pref":"京都府","city":"京丹後市","address":"弥栄町等楽寺"},
{"zip_code":"6270133","kana_pref":"ｷｮｳﾄﾌ","kana_city":"ｷｮｳﾀﾝｺﾞｼ","kana_address":"ﾔｻｶﾁｮｳﾄｯﾄﾘ","pref":"京都府","city":"京丹後市","address":"弥栄町鳥取"},
{"zip_code":"6270101","kana_pref":"ｷｮｳﾄﾌ","kana_city":"ｷｮｳﾀﾝｺﾞｼ","kana_address":"ﾔｻｶﾁｮｳﾉﾅｶ","pref":"京都府","city":"京丹後市","address":"弥栄町野中"},
{"zip_code":"6270143","kana_pref":"ｷｮｳﾄﾌ","kana_city":"ｷｮｳﾀﾝｺﾞｼ","kana_address":"ﾔｻｶﾁｮｳﾌﾅｷ","pref":"京都府","city":"京丹後市","address":"弥栄町船木"},
{"zip_code":"6270111","kana_pref":"ｷｮｳﾄﾌ","kana_city":"ｷｮｳﾀﾝｺﾞｼ","kana_address":"ﾔｻｶﾁｮｳﾐｿﾞﾀﾆ","pref":"京都府","city":"京丹後市","address":"弥栄町溝谷"},
{"zip_code":"6270123","kana_pref":"ｷｮｳﾄﾌ","kana_city":"ｷｮｳﾀﾝｺﾞｼ","kana_address":"ﾔｻｶﾁｮｳﾖｼｻﾜ","pref":"京都府","city":"京丹後市","address":"弥栄町吉沢"},
{"zip_code":"6270131","kana_pref":"ｷｮｳﾄﾌ","kana_city":"ｷｮｳﾀﾝｺﾞｼ","kana_address":"ﾔｻｶﾁｮｳﾜﾀﾞﾉ","pref":"京都府","city":"京丹後市","address":"弥栄町和田野"}]}