{"zip_code":[
{"zip_code":"6291303","kana_pref":"ｷｮｳﾄﾌ","kana_city":"ﾌｸﾁﾔﾏｼ","kana_address":"ﾔｸﾉﾁｮｳｲﾀﾞ","pref":"京都府","city":"福知山市","address":"夜久野町井田"},
{"zip_code":"6291323","kana_pref":"ｷｮｳﾄﾌ","kana_city":"ﾌｸﾁﾔﾏｼ","kana_address":"ﾔｸﾉﾁｮｳｲﾄｳ","pref":"京都府","city":"福知山市","address":"夜久野町板生"},
{"zip_code":"6291302","kana_pref":"ｷｮｳﾄﾌ","kana_city":"ﾌｸﾁﾔﾏｼ","kana_address":"ﾔｸﾉﾁｮｳｲﾏﾆｼﾅｶ","pref":"京都府","city":"福知山市","address":"夜久野町今西中"},
{"zip_code":"6291314","kana_pref":"ｷｮｳﾄﾌ","kana_city":"ﾌｸﾁﾔﾏｼ","kana_address":"ﾔｸﾉﾁｮｳｵｸﾞﾗ","pref":"京都府","city":"福知山市","address":"夜久野町小倉"},
{"zip_code":"6291315","kana_pref":"ｷｮｳﾄﾌ","kana_city":"ﾌｸﾁﾔﾏｼ","kana_address":"ﾔｸﾉﾁｮｳｵﾕｺﾞ","pref":"京都府","city":"福知山市","address":"夜久野町大油子"},
{"zip_code":"6291312","kana_pref":"ｷｮｳﾄﾌ","kana_city":"ﾌｸﾁﾔﾏｼ","kana_address":"ﾔｸﾉﾁｮｳｽｴ","pref":"京都府","city":"福知山市","address":"夜久野町末"},
{"zip_code":"6291313","kana_pref":"ｷｮｳﾄﾌ","kana_city":"ﾌｸﾁﾔﾏｼ","kana_address":"ﾔｸﾉﾁｮｳﾀｶｳﾁ","pref":"京都府","city":"福知山市","address":"夜久野町高内"},
{"zip_code":"6291305","kana_pref":"ｷｮｳﾄﾌ","kana_city":"ﾌｸﾁﾔﾏｼ","kana_address":"ﾔｸﾉﾁｮｳﾁﾊﾗ","pref":"京都府","city":"福知山市","address":"夜久野町千原"},
{"zip_code":"6291321","kana_pref":"ｷｮｳﾄﾌ","kana_city":"ﾌｸﾁﾔﾏｼ","kana_address":"ﾔｸﾉﾁｮｳﾅｵﾐ","pref":"京都府","city":"福知山市","address":"夜久野町直見"},
{"zip_code":"6291304","kana_pref":"ｷｮｳﾄﾌ","kana_city":"ﾌｸﾁﾔﾏｼ","kana_address":"ﾔｸﾉﾁｮｳﾇｶﾀ","pref":"京都府","city":"福知山市","address":"夜久野町額田"},
{"zip_code":"6291301","kana_pref":"ｷｮｳﾄﾌ","kana_city":"ﾌｸﾁﾔﾏｼ","kana_address":"ﾔｸﾉﾁｮｳﾊﾀ","pref":"京都府","city":"福知山市","address":"夜久野町畑"},
{"zip_code":"6291322","kana_pref":"ｷｮｳﾄﾌ","kana_city":"ﾌｸﾁﾔﾏｼ","kana_address":"ﾔｸﾉﾁｮｳﾋﾗﾉ","pref":"京都府","city":"福知山市","address":"夜久野町平野"},
{"zip_code":"6291311","kana_pref":"ｷｮｳﾄﾌ","kana_city":"ﾌｸﾁﾔﾏｼ","kana_address":"ﾔｸﾉﾁｮｳﾍｷ","pref":"京都府","city":"福知山市","address":"夜久野町日置"},
{"zip_code":"6291261","kana_pref":"ｷｮｳﾄﾌ","kana_city":"ｱﾔﾍﾞｼ","kana_address":"ｱｻﾋﾁｮｳ","pref":"京都府","city":"綾部市","address":"旭町"},
{"zip_code":"6291241","kana_pref":"ｷｮｳﾄﾌ","kana_city":"ｱﾔﾍﾞｼ","kana_address":"ｲﾈﾁｮｳ","pref":"京都府","city":"綾部市","address":"井根町"},
{"zip_code":"6291254","kana_pref":"ｷｮｳﾄﾌ","kana_city":"ｱﾔﾍﾞｼ","kana_address":"ｶﾏﾉﾜﾁｮｳ","pref":"京都府","city":"綾部市","address":"釜輪町"},
{"zip_code":"6291271","kana_pref":"ｷｮｳﾄﾌ","kana_city":"ｱﾔﾍﾞｼ","kana_address":"ｶﾝﾊﾞﾗﾁｮｳ","pref":"京都府","city":"綾部市","address":"上原町"},
{"zip_code":"6291272","kana_pref":"ｷｮｳﾄﾌ","kana_city":"ｱﾔﾍﾞｼ","kana_address":"ｼﾀﾉｶﾁﾁｮｳ","pref":"京都府","city":"綾部市","address":"下替地町"},
{"zip_code":"6291273","kana_pref":"ｷｮｳﾄﾌ","kana_city":"ｱﾔﾍﾞｼ","kana_address":"ｼﾓﾊﾞﾗﾁｮｳ","pref":"京都府","city":"綾部市","address":"下原町"},
{"zip_code":"6291263","kana_pref":"ｷｮｳﾄﾌ","kana_city":"ｱﾔﾍﾞｼ","kana_address":"ﾀｶﾉｽﾁｮｳ","pref":"京都府","city":"綾部市","address":"鷹栖町"},
{"zip_code":"6291253","kana_pref":"ｷｮｳﾄﾌ","kana_city":"ｱﾔﾍﾞｼ","kana_address":"ﾀｹﾖｼﾁｮｳ","pref":"京都府","city":"綾部市","address":"武吉町"},
{"zip_code":"6291251","kana_pref":"ｷｮｳﾄﾌ","kana_city":"ｱﾔﾍﾞｼ","kana_address":"ﾀﾀﾞﾁｮｳ","pref":"京都府","city":"綾部市","address":"忠町"},
{"zip_code":"6291252","kana_pref":"ｷｮｳﾄﾌ","kana_city":"ｱﾔﾍﾞｼ","kana_address":"ﾂｸﾀﾞﾁｮｳ","pref":"京都府","city":"綾部市","address":"佃町"},
{"zip_code":"6291245","kana_pref":"ｷｮｳﾄﾌ","kana_city":"ｱﾔﾍﾞｼ","kana_address":"ﾄｸﾗｼﾓﾁｮｳ","pref":"京都府","city":"綾部市","address":"十倉志茂町"},
{"zip_code":"6291244","kana_pref":"ｷｮｳﾄﾌ","kana_city":"ｱﾔﾍﾞｼ","kana_address":"ﾄｸﾗﾅｶﾏﾁ","pref":"京都府","city":"綾部市","address":"十倉中町"},
{"zip_code":"6291242","kana_pref":"ｷｮｳﾄﾌ","kana_city":"ｱﾔﾍﾞｼ","kana_address":"ﾄｸﾗﾅﾊﾞﾀｹﾁｮｳ","pref":"京都府","city":"綾部市","address":"十倉名畑町"},
{"zip_code":"6291243","kana_pref":"ｷｮｳﾄﾌ","kana_city":"ｱﾔﾍﾞｼ","kana_address":"ﾄｸﾗﾑｶｲﾁｮｳ","pref":"京都府","city":"綾部市","address":"十倉向町"},
{"zip_code":"6291255","kana_pref":"ｷｮｳﾄﾌ","kana_city":"ｱﾔﾍﾞｼ","kana_address":"ﾄﾅｾﾁｮｳ","pref":"京都府","city":"綾部市","address":"戸奈瀬町"},
{"zip_code":"6291264","kana_pref":"ｷｮｳﾄﾌ","kana_city":"ｱﾔﾍﾞｼ","kana_address":"ﾆｼﾊﾞﾗﾁｮｳ","pref":"京都府","city":"綾部市","address":"西原町"},
{"zip_code":"6291257","kana_pref":"ｷｮｳﾄﾌ","kana_city":"ｱﾔﾍﾞｼ","kana_address":"ﾊｼｶﾐﾁｮｳ","pref":"京都府","city":"綾部市","address":"橋上町"},
{"zip_code":"6291262","kana_pref":"ｷｮｳﾄﾌ","kana_city":"ｱﾔﾍﾞｼ","kana_address":"ﾋｶﾞｼﾔﾏﾁｮｳ","pref":"京都府","city":"綾部市","address":"東山町"},
{"zip_code":"6291256","kana_pref":"ｷｮｳﾄﾌ","kana_city":"ｱﾔﾍﾞｼ","kana_address":"ﾋﾛｾﾁｮｳ","pref":"京都府","city":"綾部市","address":"広瀬町"},
{"zip_code":"6291274","kana_pref":"ｷｮｳﾄﾌ","kana_city":"ｱﾔﾍﾞｼ","kana_address":"ﾜｷﾞﾁｮｳ","pref":"京都府","city":"綾部市","address":"和木町"},
{"zip_code":"6292244","kana_pref":"ｷｮｳﾄﾌ","kana_city":"ﾐﾔﾂﾞｼ","kana_address":"ｴｼﾞﾘ","pref":"京都府","city":"宮津市","address":"江尻"},
{"zip_code":"6292242","kana_pref":"ｷｮｳﾄﾌ","kana_city":"ﾐﾔﾂﾞｼ","kana_address":"ｵｵｶﾞｷ","pref":"京都府","city":"宮津市","address":"大垣"},
{"zip_code":"6292234","kana_pref":"ｷｮｳﾄﾌ","kana_city":"ﾐﾔﾂﾞｼ","kana_address":"ｺｸﾌﾞﾝ","pref":"京都府","city":"宮津市","address":"国分"},
{"zip_code":"6292231","kana_pref":"ｷｮｳﾄﾌ","kana_city":"ﾐﾔﾂﾞｼ","kana_address":"ｺﾏﾂ","pref":"京都府","city":"宮津市","address":"小松"},
{"zip_code":"6292251","kana_pref":"ｷｮｳﾄﾌ","kana_city":"ﾐﾔﾂﾞｼ","kana_address":"ｽﾂﾞ","pref":"京都府","city":"宮津市","address":"須津"},
{"zip_code":"6292232","kana_pref":"ｷｮｳﾄﾌ","kana_city":"ﾐﾔﾂﾞｼ","kana_address":"ﾅｶﾉ","pref":"京都府","city":"宮津市","address":"中野"},
{"zip_code":"6292241","kana_pref":"ｷｮｳﾄﾌ","kana_city":"ﾐﾔﾂﾞｼ","kana_address":"ﾅﾘｱｲｼﾞ","pref":"京都府","city":"宮津市","address":"成相寺"},
{"zip_code":"6292243","kana_pref":"ｷｮｳﾄﾌ","kana_city":"ﾐﾔﾂﾞｼ","kana_address":"ﾅﾝﾊﾞﾉ","pref":"京都府","city":"宮津市","address":"難波野"},
{"zip_code":"6292233","kana_pref":"ｷｮｳﾄﾌ","kana_city":"ﾐﾔﾂﾞｼ","kana_address":"ﾐｿﾞｼﾘ","pref":"京都府","city":"宮津市","address":"溝尻"},
{"zip_code":"6293104","kana_pref":"ｷｮｳﾄﾌ","kana_city":"ｷｮｳﾀﾝｺﾞｼ","kana_address":"ｱﾐﾉﾁｮｳｱｻﾓｶﾞﾜ","pref":"京都府","city":"京丹後市","address":"網野町浅茂川"},
{"zip_code":"6293101","kana_pref":"ｷｮｳﾄﾌ","kana_city":"ｷｮｳﾀﾝｺﾞｼ","kana_address":"ｱﾐﾉﾁｮｳｱﾐﾉ","pref":"京都府","city":"京丹後市","address":"網野町網野"},
{"zip_code":"6293134","kana_pref":"ｷｮｳﾄﾌ","kana_city":"ｷｮｳﾀﾝｺﾞｼ","kana_address":"ｱﾐﾉﾁｮｳｲｸﾉｳﾁ","pref":"京都府","city":"京丹後市","address":"網野町生野内"},
{"zip_code":"6293103","kana_pref":"ｷｮｳﾄﾌ","kana_city":"ｷｮｳﾀﾝｺﾞｼ","kana_address":"ｱﾐﾉﾁｮｳｲｿ","pref":"京都府","city":"京丹後市","address":"網野町磯"},
{"zip_code":"6293112","kana_pref":"ｷｮｳﾄﾌ","kana_city":"ｷｮｳﾀﾝｺﾞｼ","kana_address":"ｱﾐﾉﾁｮｳｶｹﾂﾞ","pref":"京都府","city":"京丹後市","address":"網野町掛津"},
{"zip_code":"6293241","kana_pref":"ｷｮｳﾄﾌ","kana_city":"ｷｮｳﾀﾝｺﾞｼ","kana_address":"ｱﾐﾉﾁｮｳｷﾂ","pref":"京都府","city":"京丹後市","address":"網野町木津"},
{"zip_code":"6293135","kana_pref":"ｷｮｳﾄﾌ","kana_city":"ｷｮｳﾀﾝｺﾞｼ","kana_address":"ｱﾐﾉﾁｮｳｷﾘﾊﾀ","pref":"京都府","city":"京丹後市","address":"網野町切畑"},
{"zip_code":"6293132","kana_pref":"ｷｮｳﾄﾌ","kana_city":"ｷｮｳﾀﾝｺﾞｼ","kana_address":"ｱﾐﾉﾁｮｳｸﾞｼﾞｮｳ","pref":"京都府","city":"京丹後市","address":"網野町公庄"},
{"zip_code":"6293133","kana_pref":"ｷｮｳﾄﾌ","kana_city":"ｷｮｳﾀﾝｺﾞｼ","kana_address":"ｱﾐﾉﾁｮｳｺﾞｳ","pref":"京都府","city":"京丹後市","address":"網野町郷"},
{"zip_code":"6293113","kana_pref":"ｷｮｳﾄﾌ","kana_city":"ｷｮｳﾀﾝｺﾞｼ","kana_address":"ｱﾐﾉﾁｮｳｺﾊﾞﾏ","pref":"京都府","city":"京丹後市","address":"網野町小浜"},
{"zip_code":"6293246","kana_pref":"ｷｮｳﾄﾌ","kana_city":"ｷｮｳﾀﾝｺﾞｼ","kana_address":"ｱﾐﾉﾁｮｳｼｵｴ","pref":"京都府","city":"京丹後市","address":"網野町塩江"},
{"zip_code":"6293121","kana_pref":"ｷｮｳﾄﾌ","kana_city":"ｷｮｳﾀﾝｺﾞｼ","kana_address":"ｱﾐﾉﾁｮｳｼﾏﾂﾞ","pref":"京都府","city":"京丹後市","address":"網野町島津"},
{"zip_code":"6293102","kana_pref":"ｷｮｳﾄﾌ","kana_city":"ｷｮｳﾀﾝｺﾞｼ","kana_address":"ｱﾐﾉﾁｮｳｼﾓｵｶ","pref":"京都府","city":"京丹後市","address":"網野町下岡"},
{"zip_code":"6293136","kana_pref":"ｷｮｳﾄﾌ","kana_city":"ｷｮｳﾀﾝｺﾞｼ","kana_address":"ｱﾐﾉﾁｮｳｼﾝｼﾞｮｳ","pref":"京都府","city":"京丹後市","address":"網野町新庄"},
{"zip_code":"6293131","kana_pref":"ｷｮｳﾄﾌ","kana_city":"ｷｮｳﾀﾝｺﾞｼ","kana_address":"ｱﾐﾉﾁｮｳﾀｶﾊｼ","pref":"京都府","city":"京丹後市","address":"網野町高橋"},
{"zip_code":"6293244","kana_pref":"ｷｮｳﾄﾌ","kana_city":"ｷｮｳﾀﾝｺﾞｼ","kana_address":"ｱﾐﾉﾁｮｳﾀﾜﾗﾉ","pref":"京都府","city":"京丹後市","address":"網野町俵野"},
{"zip_code":"6293122","kana_pref":"ｷｮｳﾄﾌ","kana_city":"ｷｮｳﾀﾝｺﾞｼ","kana_address":"ｱﾐﾉﾁｮｳﾁｭｳｾﾞﾝｼﾞ","pref":"京都府","city":"京丹後市","address":"網野町仲禅寺"},
{"zip_code":"6293245","kana_pref":"ｷｮｳﾄﾌ","kana_city":"ｷｮｳﾀﾝｺﾞｼ","kana_address":"ｱﾐﾉﾁｮｳﾊﾏﾂﾞﾒ","pref":"京都府","city":"京丹後市","address":"網野町浜詰"},
{"zip_code":"6293242","kana_pref":"ｷｮｳﾄﾌ","kana_city":"ｷｮｳﾀﾝｺﾞｼ","kana_address":"ｱﾐﾉﾁｮｳﾋﾜﾀﾞ","pref":"京都府","city":"京丹後市","address":"網野町日和田"},
{"zip_code":"6293243","kana_pref":"ｷｮｳﾄﾌ","kana_city":"ｷｮｳﾀﾝｺﾞｼ","kana_address":"ｱﾐﾉﾁｮｳﾐｿﾞﾉ","pref":"京都府","city":"京丹後市","address":"網野町溝野"},
{"zip_code":"6293111","kana_pref":"ｷｮｳﾄﾌ","kana_city":"ｷｮｳﾀﾝｺﾞｼ","kana_address":"ｱﾐﾉﾁｮｳﾐﾂ","pref":"京都府","city":"京丹後市","address":"網野町三津"},
{"zip_code":"6292514","kana_pref":"ｷｮｳﾄﾌ","kana_city":"ｷｮｳﾀﾝｺﾞｼ","kana_address":"ｵｵﾐﾔﾁｮｳｱｹﾀﾞ","pref":"京都府","city":"京丹後市","address":"大宮町明田"},
{"zip_code":"6292512","kana_pref":"ｷｮｳﾄﾌ","kana_city":"ｷｮｳﾀﾝｺﾞｼ","kana_address":"ｵｵﾐﾔﾁｮｳｲｶｶﾞ","pref":"京都府","city":"京丹後市","address":"大宮町五十河"},
{"zip_code":"6292531","kana_pref":"ｷｮｳﾄﾌ","kana_city":"ｷｮｳﾀﾝｺﾞｼ","kana_address":"ｵｵﾐﾔﾁｮｳｵｸｵｵﾉ","pref":"京都府","city":"京丹後市","address":"大宮町奥大野"},
{"zip_code":"6292533","kana_pref":"ｷｮｳﾄﾌ","kana_city":"ｷｮｳﾀﾝｺﾞｼ","kana_address":"ｵｵﾐﾔﾁｮｳｶﾐﾂﾈﾖｼ","pref":"京都府","city":"京丹後市","address":"大宮町上常吉"},
{"zip_code":"6292511","kana_pref":"ｷｮｳﾄﾌ","kana_city":"ｷｮｳﾀﾝｺﾞｼ","kana_address":"ｵｵﾐﾔﾁｮｳｸｽﾐ","pref":"京都府","city":"京丹後市","address":"大宮町久住"},
{"zip_code":"6292501","kana_pref":"ｷｮｳﾄﾌ","kana_city":"ｷｮｳﾀﾝｺﾞｼ","kana_address":"ｵｵﾐﾔﾁｮｳｸﾁｵｵﾉ","pref":"京都府","city":"京丹後市","address":"大宮町口大野"},
{"zip_code":"6292502","kana_pref":"ｷｮｳﾄﾌ","kana_city":"ｷｮｳﾀﾝｺﾞｼ","kana_address":"ｵｵﾐﾔﾁｮｳｺｳﾍﾞ","pref":"京都府","city":"京丹後市","address":"大宮町河辺"},
{"zip_code":"6292534","kana_pref":"ｷｮｳﾄﾌ","kana_city":"ｷｮｳﾀﾝｺﾞｼ","kana_address":"ｵｵﾐﾔﾁｮｳｼﾓﾂﾈﾖｼ","pref":"京都府","city":"京丹後市","address":"大宮町下常吉"},
{"zip_code":"6292515","kana_pref":"ｷｮｳﾄﾌ","kana_city":"ｷｮｳﾀﾝｺﾞｼ","kana_address":"ｵｵﾐﾔﾁｮｳｼﾝｸﾞｳ","pref":"京都府","city":"京丹後市","address":"大宮町新宮"},
{"zip_code":"6292503","kana_pref":"ｷｮｳﾄﾌ","kana_city":"ｷｮｳﾀﾝｺﾞｼ","kana_address":"ｵｵﾐﾔﾁｮｳｽｷ","pref":"京都府","city":"京丹後市","address":"大宮町周枳"},
{"zip_code":"6292504","kana_pref":"ｷｮｳﾄﾌ","kana_city":"ｷｮｳﾀﾝｺﾞｼ","kana_address":"ｵｵﾐﾔﾁｮｳｾﾞﾝﾉｳｼﾞ","pref":"京都府","city":"京丹後市","address":"大宮町善王寺"},
{"zip_code":"6292532","kana_pref":"ｷｮｳﾄﾌ","kana_city":"ｷｮｳﾀﾝｺﾞｼ","kana_address":"ｵｵﾐﾔﾁｮｳﾀﾆｳﾁ","pref":"京都府","city":"京丹後市","address":"大宮町谷内"},
{"zip_code":"6292513","kana_pref":"ｷｮｳﾄﾌ","kana_city":"ｷｮｳﾀﾝｺﾞｼ","kana_address":"ｵｵﾐﾔﾁｮｳﾉﾌﾞﾄｼ","pref":"京都府","city":"京丹後市","address":"大宮町延利"},
{"zip_code":"6292522","kana_pref":"ｷｮｳﾄﾌ","kana_city":"ｷｮｳﾀﾝｺﾞｼ","kana_address":"ｵｵﾐﾔﾁｮｳﾐｴ","pref":"京都府","city":"京丹後市","address":"大宮町三重"},
{"zip_code":"6292523","kana_pref":"ｷｮｳﾄﾌ","kana_city":"ｷｮｳﾀﾝｺﾞｼ","kana_address":"ｵｵﾐﾔﾁｮｳﾐｻｶ","pref":"京都府","city":"京丹後市","address":"大宮町三坂"},
{"zip_code":"6292521","kana_pref":"ｷｮｳﾄﾌ","kana_city":"ｷｮｳﾀﾝｺﾞｼ","kana_address":"ｵｵﾐﾔﾁｮｳﾓﾘﾓﾄ","pref":"京都府","city":"京丹後市","address":"大宮町森本"},
{"zip_code":"6293410","kana_pref":"ｷｮｳﾄﾌ","kana_city":"ｷｮｳﾀﾝｺﾞｼ","kana_address":"ｸﾐﾊﾏﾁｮｳ","pref":"京都府","city":"京丹後市","address":"久美浜町"},
{"zip_code":"6293424","kana_pref":"ｷｮｳﾄﾌ","kana_city":"ｷｮｳﾀﾝｺﾞｼ","kana_address":"ｸﾐﾊﾏﾁｮｳｱｻﾋ","pref":"京都府","city":"京丹後市","address":"久美浜町旭"},
{"zip_code":"6293571","kana_pref":"ｷｮｳﾄﾌ","kana_city":"ｷｮｳﾀﾝｺﾞｼ","kana_address":"ｸﾐﾊﾏﾁｮｳｱｼﾜﾗ","pref":"京都府","city":"京丹後市","address":"久美浜町芦原"},
{"zip_code":"6293443","kana_pref":"ｷｮｳﾄﾌ","kana_city":"ｷｮｳﾀﾝｺﾞｼ","kana_address":"ｸﾐﾊﾏﾁｮｳｱﾏ","pref":"京都府","city":"京丹後市","address":"久美浜町海士"},
{"zip_code":"6293566","kana_pref":"ｷｮｳﾄﾌ","kana_city":"ｷｮｳﾀﾝｺﾞｼ","kana_address":"ｸﾐﾊﾏﾁｮｳｱﾝﾖｳｼﾞ","pref":"京都府","city":"京丹後市","address":"久美浜町安養寺"},
{"zip_code":"6293573","kana_pref":"ｷｮｳﾄﾌ","kana_city":"ｷｮｳﾀﾝｺﾞｼ","kana_address":"ｸﾐﾊﾏﾁｮｳｲｽﾞｽﾐ","pref":"京都府","city":"京丹後市","address":"久美浜町出角"},
{"zip_code":"6293576","kana_pref":"ｷｮｳﾄﾌ","kana_city":"ｷｮｳﾀﾝｺﾞｼ","kana_address":"ｸﾐﾊﾏﾁｮｳｲﾁﾉﾉ","pref":"京都府","city":"京丹後市","address":"久美浜町市野々"},
{"zip_code":"6293574","kana_pref":"ｷｮｳﾄﾌ","kana_city":"ｷｮｳﾀﾝｺﾞｼ","kana_address":"ｸﾐﾊﾏﾁｮｳｲﾁﾊﾞ","pref":"京都府","city":"京丹後市","address":"久美浜町市場"},
{"zip_code":"6293435","kana_pref":"ｷｮｳﾄﾌ","kana_city":"ｷｮｳﾀﾝｺﾞｼ","kana_address":"ｸﾐﾊﾏﾁｮｳｲﾁﾌﾞ","pref":"京都府","city":"京丹後市","address":"久美浜町壱分"},
{"zip_code":"6293438","kana_pref":"ｷｮｳﾄﾌ","kana_city":"ｷｮｳﾀﾝｺﾞｼ","kana_address":"ｸﾐﾊﾏﾁｮｳｳﾗｹ","pref":"京都府","city":"京丹後市","address":"久美浜町浦明"},
{"zip_code":"6293555","kana_pref":"ｷｮｳﾄﾌ","kana_city":"ｷｮｳﾀﾝｺﾞｼ","kana_address":"ｸﾐﾊﾏﾁｮｳｴﾝﾄﾞﾝｼﾞ","pref":"京都府","city":"京丹後市","address":"久美浜町円頓寺"},
{"zip_code":"6293436","kana_pref":"ｷｮｳﾄﾌ","kana_city":"ｷｮｳﾀﾝｺﾞｼ","kana_address":"ｸﾐﾊﾏﾁｮｳｵｵｲ","pref":"京都府","city":"京丹後市","address":"久美浜町大井"},
{"zip_code":"6293423","kana_pref":"ｷｮｳﾄﾌ","kana_city":"ｷｮｳﾀﾝｺﾞｼ","kana_address":"ｸﾐﾊﾏﾁｮｳｵｵﾑｶｲ","pref":"京都府","city":"京丹後市","address":"久美浜町大向"},
{"zip_code":"6293414","kana_pref":"ｷｮｳﾄﾌ","kana_city":"ｷｮｳﾀﾝｺﾞｼ","kana_address":"ｸﾐﾊﾏﾁｮｳｵｸﾏｼﾞ","pref":"京都府","city":"京丹後市","address":"久美浜町奥馬地"},
{"zip_code":"6293412","kana_pref":"ｷｮｳﾄﾌ","kana_city":"ｷｮｳﾀﾝｺﾞｼ","kana_address":"ｸﾐﾊﾏﾁｮｳｵｸﾐﾀﾆ","pref":"京都府","city":"京丹後市","address":"久美浜町奥三谷"},
{"zip_code":"6293422","kana_pref":"ｷｮｳﾄﾌ","kana_city":"ｷｮｳﾀﾝｺﾞｼ","kana_address":"ｸﾐﾊﾏﾁｮｳｶｯﾁ","pref":"京都府","city":"京丹後市","address":"久美浜町河内"},
{"zip_code":"6293421","kana_pref":"ｷｮｳﾄﾌ","kana_city":"ｷｮｳﾀﾝｺﾞｼ","kana_address":"ｸﾐﾊﾏﾁｮｳｶﾂﾞﾗﾉ","pref":"京都府","city":"京丹後市","address":"久美浜町葛野"},
{"zip_code":"6293575","kana_pref":"ｷｮｳﾄﾌ","kana_city":"ｷｮｳﾀﾝｺﾞｼ","kana_address":"ｸﾐﾊﾏﾁｮｳｶﾅﾔ","pref":"京都府","city":"京丹後市","address":"久美浜町金谷"},
{"zip_code":"6293431","kana_pref":"ｷｮｳﾄﾌ","kana_city":"ｷｮｳﾀﾝｺﾞｼ","kana_address":"ｸﾐﾊﾏﾁｮｳｶﾉ","pref":"京都府","city":"京丹後市","address":"久美浜町鹿野"},
{"zip_code":"6293424","kana_pref":"ｷｮｳﾄﾌ","kana_city":"ｷｮｳﾀﾝｺﾞｼ","kana_address":"ｸﾐﾊﾏﾁｮｳｶﾏｲ","pref":"京都府","city":"京丹後市","address":"久美浜町蒲井"},
{"zip_code":"6293441","kana_pref":"ｷｮｳﾄﾌ","kana_city":"ｷｮｳﾀﾝｺﾞｼ","kana_address":"ｸﾐﾊﾏﾁｮｳｶﾝｻﾞｷ","pref":"京都府","city":"京丹後市","address":"久美浜町神崎"},
{"zip_code":"6293416","kana_pref":"ｷｮｳﾄﾌ","kana_city":"ｷｮｳﾀﾝｺﾞｼ","kana_address":"ｸﾐﾊﾏﾁｮｳｶﾝﾀﾞﾆ","pref":"京都府","city":"京丹後市","address":"久美浜町神谷"},
{"zip_code":"6293413","kana_pref":"ｷｮｳﾄﾌ","kana_city":"ｷｮｳﾀﾝｺﾞｼ","kana_address":"ｸﾐﾊﾏﾁｮｳｸﾁﾏｼﾞ","pref":"京都府","city":"京丹後市","address":"久美浜町口馬地"},
{"zip_code":"6293412","kana_pref":"ｷｮｳﾄﾌ","kana_city":"ｷｮｳﾀﾝｺﾞｼ","kana_address":"ｸﾐﾊﾏﾁｮｳｸﾁﾐﾀﾆ","pref":"京都府","city":"京丹後市","address":"久美浜町口三谷"},
{"zip_code":"6293556","kana_pref":"ｷｮｳﾄﾌ","kana_city":"ｷｮｳﾀﾝｺﾞｼ","kana_address":"ｸﾐﾊﾏﾁｮｳｺﾞｳ","pref":"京都府","city":"京丹後市","address":"久美浜町郷"},
{"zip_code":"6293411","kana_pref":"ｷｮｳﾄﾌ","kana_city":"ｷｮｳﾀﾝｺﾞｼ","kana_address":"ｸﾐﾊﾏﾁｮｳｺｳｻｶ","pref":"京都府","city":"京丹後市","address":"久美浜町甲坂"},
{"zip_code":"6293415","kana_pref":"ｷｮｳﾄﾌ","kana_city":"ｷｮｳﾀﾝｺﾞｼ","kana_address":"ｸﾐﾊﾏﾁｮｳｺｳﾅｼ","pref":"京都府","city":"京丹後市","address":"久美浜町河梨"},
{"zip_code":"6293442","kana_pref":"ｷｮｳﾄﾌ","kana_city":"ｷｮｳﾀﾝｺﾞｼ","kana_address":"ｸﾐﾊﾏﾁｮｳｺｳﾔﾏ","pref":"京都府","city":"京丹後市","address":"久美浜町甲山"},
{"zip_code":"6293565","kana_pref":"ｷｮｳﾄﾌ","kana_city":"ｷｮｳﾀﾝｺﾞｼ","kana_address":"ｸﾐﾊﾏﾁｮｳｺｸﾞﾜ","pref":"京都府","city":"京丹後市","address":"久美浜町小桑"},
{"zip_code":"6293448","kana_pref":"ｷｮｳﾄﾌ","kana_city":"ｷｮｳﾀﾝｺﾞｼ","kana_address":"ｸﾐﾊﾏﾁｮｳｻｶｲ","pref":"京都府","city":"京丹後市","address":"久美浜町坂井"},
{"zip_code":"6293405","kana_pref":"ｷｮｳﾄﾌ","kana_city":"ｷｮｳﾀﾝｺﾞｼ","kana_address":"ｸﾐﾊﾏﾁｮｳｻｶｴﾏﾁ","pref":"京都府","city":"京丹後市","address":"久美浜町栄町"},
{"zip_code":"6293554","kana_pref":"ｷｮｳﾄﾌ","kana_city":"ｷｮｳﾀﾝｺﾞｼ","kana_address":"ｸﾐﾊﾏﾁｮｳｻｶﾀﾞﾆ","pref":"京都府","city":"京丹後市","address":"久美浜町坂谷"},
{"zip_code":"6293562","kana_pref":"ｷｮｳﾄﾌ","kana_city":"ｷｮｳﾀﾝｺﾞｼ","kana_address":"ｸﾐﾊﾏﾁｮｳｻﾉ","pref":"京都府","city":"京丹後市","address":"久美浜町佐野"},
{"zip_code":"6293433","kana_pref":"ｷｮｳﾄﾌ","kana_city":"ｷｮｳﾀﾝｺﾞｼ","kana_address":"ｸﾐﾊﾏﾁｮｳｻﾝﾌﾞ","pref":"京都府","city":"京丹後市","address":"久美浜町三分"},
{"zip_code":"6293445","kana_pref":"ｷｮｳﾄﾌ","kana_city":"ｷｮｳﾀﾝｺﾞｼ","kana_address":"ｸﾐﾊﾏﾁｮｳｼﾏ","pref":"京都府","city":"京丹後市","address":"久美浜町島"},
{"zip_code":"6293401","kana_pref":"ｷｮｳﾄﾌ","kana_city":"ｷｮｳﾀﾝｺﾞｼ","kana_address":"ｸﾐﾊﾏﾁｮｳｼﾞｭｳﾗｸ","pref":"京都府","city":"京丹後市","address":"久美浜町十楽"},
{"zip_code":"6293564","kana_pref":"ｷｮｳﾄﾌ","kana_city":"ｷｮｳﾀﾝｺﾞｼ","kana_address":"ｸﾐﾊﾏﾁｮｳｼﾞｮｳｶﾞﾊﾀ","pref":"京都府","city":"京丹後市","address":"久美浜町尉ケ畑"},
{"zip_code":"6293570","kana_pref":"ｷｮｳﾄﾌ","kana_city":"ｷｮｳﾀﾝｺﾞｼ","kana_address":"ｸﾐﾊﾏﾁｮｳｼﾝｼﾞｮｳ","pref":"京都府","city":"京丹後市","address":"久美浜町新庄"},
{"zip_code":"6293407","kana_pref":"ｷｮｳﾄﾌ","kana_city":"ｷｮｳﾀﾝｺﾞｼ","kana_address":"ｸﾐﾊﾏﾁｮｳｼﾝﾊﾞｼ","pref":"京都府","city":"京丹後市","address":"久美浜町新橋"},
{"zip_code":"6293408","kana_pref":"ｷｮｳﾄﾌ","kana_city":"ｷｮｳﾀﾝｺﾞｼ","kana_address":"ｸﾐﾊﾏﾁｮｳｼﾝﾏﾁ","pref":"京都府","city":"京丹後市","address":"久美浜町新町"},
{"zip_code":"6293579","kana_pref":"ｷｮｳﾄﾌ","kana_city":"ｷｮｳﾀﾝｺﾞｼ","kana_address":"ｸﾐﾊﾏﾁｮｳｽﾀﾞ","pref":"京都府","city":"京丹後市","address":"久美浜町須田"},
{"zip_code":"6293437","kana_pref":"ｷｮｳﾄﾌ","kana_city":"ｷｮｳﾀﾝｺﾞｼ","kana_address":"ｸﾐﾊﾏﾁｮｳｾｷ","pref":"京都府","city":"京丹後市","address":"久美浜町関"},
{"zip_code":"6293557","kana_pref":"ｷｮｳﾄﾌ","kana_city":"ｷｮｳﾀﾝｺﾞｼ","kana_address":"ｸﾐﾊﾏﾁｮｳﾀｹﾌｼﾞ","pref":"京都府","city":"京丹後市","address":"久美浜町竹藤"},
{"zip_code":"6293559","kana_pref":"ｷｮｳﾄﾌ","kana_city":"ｷｮｳﾀﾝｺﾞｼ","kana_address":"ｸﾐﾊﾏﾁｮｳﾀﾆ","pref":"京都府","city":"京丹後市","address":"久美浜町谷"},
{"zip_code":"6293404","kana_pref":"ｷｮｳﾄﾌ","kana_city":"ｷｮｳﾀﾝｺﾞｼ","kana_address":"ｸﾐﾊﾏﾁｮｳﾄﾞｲ","pref":"京都府","city":"京丹後市","address":"久美浜町土居"},
{"zip_code":"6293411","kana_pref":"ｷｮｳﾄﾌ","kana_city":"ｷｮｳﾀﾝｺﾞｼ","kana_address":"ｸﾐﾊﾏﾁｮｳﾄﾁﾀﾞﾆ","pref":"京都府","city":"京丹後市","address":"久美浜町栃谷"},
{"zip_code":"6293447","kana_pref":"ｷｮｳﾄﾌ","kana_city":"ｷｮｳﾀﾝｺﾞｼ","kana_address":"ｸﾐﾊﾏﾁｮｳﾄﾓｼｹﾞ","pref":"京都府","city":"京丹後市","address":"久美浜町友重"},
{"zip_code":"6293551","kana_pref":"ｷｮｳﾄﾌ","kana_city":"ｷｮｳﾀﾝｺﾞｼ","kana_address":"ｸﾐﾊﾏﾁｮｳﾅｶﾞﾄﾞﾒ","pref":"京都府","city":"京丹後市","address":"久美浜町永留"},
{"zip_code":"6293553","kana_pref":"ｷｮｳﾄﾌ","kana_city":"ｷｮｳﾀﾝｺﾞｼ","kana_address":"ｸﾐﾊﾏﾁｮｳﾅｶﾞﾉ","pref":"京都府","city":"京丹後市","address":"久美浜町長野"},
{"zip_code":"6293402","kana_pref":"ｷｮｳﾄﾌ","kana_city":"ｷｮｳﾀﾝｺﾞｼ","kana_address":"ｸﾐﾊﾏﾁｮｳﾅｶﾏﾁ","pref":"京都府","city":"京丹後市","address":"久美浜町仲町"},
{"zip_code":"6293438","kana_pref":"ｷｮｳﾄﾌ","kana_city":"ｷｮｳﾀﾝｺﾞｼ","kana_address":"ｸﾐﾊﾏﾁｮｳﾅｶﾞﾗ","pref":"京都府","city":"京丹後市","address":"久美浜町長柄"},
{"zip_code":"6293572","kana_pref":"ｷｮｳﾄﾌ","kana_city":"ｷｮｳﾀﾝｺﾞｼ","kana_address":"ｸﾐﾊﾏﾁｮｳﾆｲﾀﾞﾆ","pref":"京都府","city":"京丹後市","address":"久美浜町新谷"},
{"zip_code":"6293444","kana_pref":"ｷｮｳﾄﾌ","kana_city":"ｷｮｳﾀﾝｺﾞｼ","kana_address":"ｸﾐﾊﾏﾁｮｳﾆｼﾊｼﾂﾞﾒ","pref":"京都府","city":"京丹後市","address":"久美浜町西橋爪"},
{"zip_code":"6293409","kana_pref":"ｷｮｳﾄﾌ","kana_city":"ｷｮｳﾀﾝｺﾞｼ","kana_address":"ｸﾐﾊﾏﾁｮｳﾆｼﾎﾝﾏﾁ","pref":"京都府","city":"京丹後市","address":"久美浜町西本町"},
{"zip_code":"6293552","kana_pref":"ｷｮｳﾄﾌ","kana_city":"ｷｮｳﾀﾝｺﾞｼ","kana_address":"ｸﾐﾊﾏﾁｮｳﾆｮｳ","pref":"京都府","city":"京丹後市","address":"久美浜町女布"},
{"zip_code":"6293561","kana_pref":"ｷｮｳﾄﾌ","kana_city":"ｷｮｳﾀﾝｺﾞｼ","kana_address":"ｸﾐﾊﾏﾁｮｳﾉﾅｶ","pref":"京都府","city":"京丹後市","address":"久美浜町野中"},
{"zip_code":"6293422","kana_pref":"ｷｮｳﾄﾌ","kana_city":"ｷｮｳﾀﾝｺﾞｼ","kana_address":"ｸﾐﾊﾏﾁｮｳﾊｺｲｼ","pref":"京都府","city":"京丹後市","address":"久美浜町箱石"},
{"zip_code":"6293444","kana_pref":"ｷｮｳﾄﾌ","kana_city":"ｷｮｳﾀﾝｺﾞｼ","kana_address":"ｸﾐﾊﾏﾁｮｳﾊｼﾂﾞﾒ","pref":"京都府","city":"京丹後市","address":"久美浜町橋爪"},
{"zip_code":"6293578","kana_pref":"ｷｮｳﾄﾌ","kana_city":"ｷｮｳﾀﾝｺﾞｼ","kana_address":"ｸﾐﾊﾏﾁｮｳﾊﾀ","pref":"京都府","city":"京丹後市","address":"久美浜町畑"},
{"zip_code":"6293406","kana_pref":"ｷｮｳﾄﾌ","kana_city":"ｷｮｳﾀﾝｺﾞｼ","kana_address":"ｸﾐﾊﾏﾁｮｳﾋｶﾞｼﾎﾝﾏﾁ","pref":"京都府","city":"京丹後市","address":"久美浜町東本町"},
{"zip_code":"6293432","kana_pref":"ｷｮｳﾄﾌ","kana_city":"ｷｮｳﾀﾝｺﾞｼ","kana_address":"ｸﾐﾊﾏﾁｮｳﾋﾗﾀ","pref":"京都府","city":"京丹後市","address":"久美浜町平田"},
{"zip_code":"6293563","kana_pref":"ｷｮｳﾄﾌ","kana_city":"ｷｮｳﾀﾝｺﾞｼ","kana_address":"ｸﾐﾊﾏﾁｮｳﾌﾀﾏﾀ","pref":"京都府","city":"京丹後市","address":"久美浜町二俣"},
{"zip_code":"6293577","kana_pref":"ｷｮｳﾄﾌ","kana_city":"ｷｮｳﾀﾝｺﾞｼ","kana_address":"ｸﾐﾊﾏﾁｮｳﾎﾀｲﾉ","pref":"京都府","city":"京丹後市","address":"久美浜町布袋野"},
{"zip_code":"6293446","kana_pref":"ｷｮｳﾄﾌ","kana_city":"ｷｮｳﾀﾝｺﾞｼ","kana_address":"ｸﾐﾊﾏﾁｮｳﾎﾝﾃﾞ","pref":"京都府","city":"京丹後市","address":"久美浜町品田"},
{"zip_code":"6293558","kana_pref":"ｷｮｳﾄﾌ","kana_city":"ｷｮｳﾀﾝｺﾞｼ","kana_address":"ｸﾐﾊﾏﾁｮｳﾏﾙﾔﾏ","pref":"京都府","city":"京丹後市","address":"久美浜町丸山"},
{"zip_code":"6293412","kana_pref":"ｷｮｳﾄﾌ","kana_city":"ｷｮｳﾀﾝｺﾞｼ","kana_address":"ｸﾐﾊﾏﾁｮｳﾐﾀﾆ","pref":"京都府","city":"京丹後市","address":"久美浜町三谷"},
{"zip_code":"6293422","kana_pref":"ｷｮｳﾄﾌ","kana_city":"ｷｮｳﾀﾝｺﾞｼ","kana_address":"ｸﾐﾊﾏﾁｮｳﾐﾅﾄﾐﾔ","pref":"京都府","city":"京丹後市","address":"久美浜町湊宮"},
{"zip_code":"6293434","kana_pref":"ｷｮｳﾄﾌ","kana_city":"ｷｮｳﾀﾝｺﾞｼ","kana_address":"ｸﾐﾊﾏﾁｮｳﾐﾊﾗ","pref":"京都府","city":"京丹後市","address":"久美浜町三原"},
{"zip_code":"6293403","kana_pref":"ｷｮｳﾄﾌ","kana_city":"ｷｮｳﾀﾝｺﾞｼ","kana_address":"ｸﾐﾊﾏﾁｮｳﾑｺｳﾏﾁ","pref":"京都府","city":"京丹後市","address":"久美浜町向町"},
{"zip_code":"6293449","kana_pref":"ｷｮｳﾄﾌ","kana_city":"ｷｮｳﾀﾝｺﾞｼ","kana_address":"ｸﾐﾊﾏﾁｮｳﾕｲｹ","pref":"京都府","city":"京丹後市","address":"久美浜町油池"},
{"zip_code":"6290334","kana_pref":"ｷｮｳﾄﾌ","kana_city":"ﾅﾝﾀﾝｼ","kana_address":"ﾋﾖｼﾁｮｳｱﾏﾜｶ","pref":"京都府","city":"南丹市","address":"日吉町天若"},
{"zip_code":"6290312","kana_pref":"ｷｮｳﾄﾌ","kana_city":"ﾅﾝﾀﾝｼ","kana_address":"ﾋﾖｼﾁｮｳｶﾐｺﾞﾏ","pref":"京都府","city":"南丹市","address":"日吉町上胡麻"},
{"zip_code":"6290331","kana_pref":"ｷｮｳﾄﾌ","kana_city":"ﾅﾝﾀﾝｼ","kana_address":"ﾋﾖｼﾁｮｳｷﾊﾀ","pref":"京都府","city":"南丹市","address":"日吉町生畑"},
{"zip_code":"6290332","kana_pref":"ｷｮｳﾄﾌ","kana_city":"ﾅﾝﾀﾝｼ","kana_address":"ﾋﾖｼﾁｮｳｺｽﾞﾐ","pref":"京都府","city":"南丹市","address":"日吉町木住"},
{"zip_code":"6290311","kana_pref":"ｷｮｳﾄﾌ","kana_city":"ﾅﾝﾀﾝｼ","kana_address":"ﾋﾖｼﾁｮｳｺﾞﾏ","pref":"京都府","city":"南丹市","address":"日吉町胡麻"},
{"zip_code":"6290321","kana_pref":"ｷｮｳﾄﾌ","kana_city":"ﾅﾝﾀﾝｼ","kana_address":"ﾋﾖｼﾁｮｳｻｻｴ","pref":"京都府","city":"南丹市","address":"日吉町佐々江"},
{"zip_code":"6290302","kana_pref":"ｷｮｳﾄﾌ","kana_city":"ﾅﾝﾀﾝｼ","kana_address":"ﾋﾖｼﾁｮｳｼﾜｶﾞ","pref":"京都府","city":"南丹市","address":"日吉町志和賀"},
{"zip_code":"6290323","kana_pref":"ｷｮｳﾄﾌ","kana_city":"ﾅﾝﾀﾝｼ","kana_address":"ﾋﾖｼﾁｮｳﾀﾜﾗ","pref":"京都府","city":"南丹市","address":"日吉町田原"},
{"zip_code":"6290341","kana_pref":"ｷｮｳﾄﾌ","kana_city":"ﾅﾝﾀﾝｼ","kana_address":"ﾋﾖｼﾁｮｳﾄﾉﾀﾞ","pref":"京都府","city":"南丹市","address":"日吉町殿田"},
{"zip_code":"6290335","kana_pref":"ｷｮｳﾄﾌ","kana_city":"ﾅﾝﾀﾝｼ","kana_address":"ﾋﾖｼﾁｮｳﾅｶ","pref":"京都府","city":"南丹市","address":"日吉町中"},
{"zip_code":"6290333","kana_pref":"ｷｮｳﾄﾌ","kana_city":"ﾅﾝﾀﾝｼ","kana_address":"ﾋﾖｼﾁｮｳﾅｶｾｷ","pref":"京都府","city":"南丹市","address":"日吉町中世木"},
{"zip_code":"6290313","kana_pref":"ｷｮｳﾄﾌ","kana_city":"ﾅﾝﾀﾝｼ","kana_address":"ﾋﾖｼﾁｮｳﾊﾀｺﾞｳ","pref":"京都府","city":"南丹市","address":"日吉町畑郷"},
{"zip_code":"6290301","kana_pref":"ｷｮｳﾄﾌ","kana_city":"ﾅﾝﾀﾝｼ","kana_address":"ﾋﾖｼﾁｮｳﾎﾉﾀﾞ","pref":"京都府","city":"南丹市","address":"日吉町保野田"},
{"zip_code":"6290322","kana_pref":"ｷｮｳﾄﾌ","kana_city":"ﾅﾝﾀﾝｼ","kana_address":"ﾋﾖｼﾁｮｳﾖﾂﾔ","pref":"京都府","city":"南丹市","address":"日吉町四ツ谷"},
{"zip_code":"6290122","kana_pref":"ｷｮｳﾄﾌ","kana_city":"ﾅﾝﾀﾝｼ","kana_address":"ﾔｷﾞﾁｮｳｱｵﾄ","pref":"京都府","city":"南丹市","address":"八木町青戸"},
{"zip_code":"6290112","kana_pref":"ｷｮｳﾄﾌ","kana_city":"ﾅﾝﾀﾝｼ","kana_address":"ﾔｷﾞﾁｮｳｲｹｶﾞﾐ","pref":"京都府","city":"南丹市","address":"八木町池上"},
{"zip_code":"6290164","kana_pref":"ｷｮｳﾄﾌ","kana_city":"ﾅﾝﾀﾝｼ","kana_address":"ﾔｷﾞﾁｮｳｲｹﾉｳﾁ","pref":"京都府","city":"南丹市","address":"八木町池ノ内"},
{"zip_code":"6290152","kana_pref":"ｷｮｳﾄﾌ","kana_city":"ﾅﾝﾀﾝｼ","kana_address":"ﾔｷﾞﾁｮｳｵｵﾔﾌﾞ","pref":"京都府","city":"南丹市","address":"八木町大藪"},
{"zip_code":"6290113","kana_pref":"ｷｮｳﾄﾌ","kana_city":"ﾅﾝﾀﾝｼ","kana_address":"ﾔｷﾞﾁｮｳｵｻﾍﾞ","pref":"京都府","city":"南丹市","address":"八木町刑部"},
{"zip_code":"6290271","kana_pref":"ｷｮｳﾄﾌ","kana_city":"ﾅﾝﾀﾝｼ","kana_address":"ﾔｷﾞﾁｮｳｶﾐﾖｼ","pref":"京都府","city":"南丹市","address":"八木町神吉"},
{"zip_code":"6290133","kana_pref":"ｷｮｳﾄﾌ","kana_city":"ﾅﾝﾀﾝｼ","kana_address":"ﾔｷﾞﾁｮｳｶﾝｵﾝｼﾞ","pref":"京都府","city":"南丹市","address":"八木町観音寺"},
{"zip_code":"6290114","kana_pref":"ｷｮｳﾄﾌ","kana_city":"ﾅﾝﾀﾝｼ","kana_address":"ﾔｷﾞﾁｮｳｷﾀﾋﾛｾ","pref":"京都府","city":"南丹市","address":"八木町北廣瀬"},
{"zip_code":"6290131","kana_pref":"ｷｮｳﾄﾌ","kana_city":"ﾅﾝﾀﾝｼ","kana_address":"ﾔｷﾞﾁｮｳｷﾀﾔｶﾞ","pref":"京都府","city":"南丹市","address":"八木町北屋賀"},
{"zip_code":"6290165","kana_pref":"ｷｮｳﾄﾌ","kana_city":"ﾅﾝﾀﾝｼ","kana_address":"ﾔｷﾞﾁｮｳｷﾜﾗ","pref":"京都府","city":"南丹市","address":"八木町木原"},
{"zip_code":"6290154","kana_pref":"ｷｮｳﾄﾌ","kana_city":"ﾅﾝﾀﾝｼ","kana_address":"ﾔｷﾞﾁｮｳｼﾊﾞﾔﾏ","pref":"京都府","city":"南丹市","address":"八木町柴山"},
{"zip_code":"6290163","kana_pref":"ｷｮｳﾄﾌ","kana_city":"ﾅﾝﾀﾝｼ","kana_address":"ﾔｷﾞﾁｮｳﾀﾏﾉｲ","pref":"京都府","city":"南丹市","address":"八木町玉ノ井"},
{"zip_code":"6290162","kana_pref":"ｷｮｳﾄﾌ","kana_city":"ﾅﾝﾀﾝｼ","kana_address":"ﾔｷﾞﾁｮｳﾄﾊﾞ","pref":"京都府","city":"南丹市","address":"八木町鳥羽"},
{"zip_code":"6290134","kana_pref":"ｷｮｳﾄﾌ","kana_city":"ﾅﾝﾀﾝｼ","kana_address":"ﾔｷﾞﾁｮｳﾆｼﾀﾞ","pref":"京都府","city":"南丹市","address":"八木町西田"},
{"zip_code":"6290111","kana_pref":"ｷｮｳﾄﾌ","kana_city":"ﾅﾝﾀﾝｼ","kana_address":"ﾔｷﾞﾁｮｳﾉｼﾞｮｳ","pref":"京都府","city":"南丹市","address":"八木町野条"},
{"zip_code":"6290104","kana_pref":"ｷｮｳﾄﾌ","kana_city":"ﾅﾝﾀﾝｼ","kana_address":"ﾔｷﾞﾁｮｳﾋｵｷ","pref":"京都府","city":"南丹市","address":"八木町日置"},
{"zip_code":"6290121","kana_pref":"ｷｮｳﾄﾌ","kana_city":"ﾅﾝﾀﾝｼ","kana_address":"ﾔｷﾞﾁｮｳﾋﾄﾞｺﾛ","pref":"京都府","city":"南丹市","address":"八木町氷所"},
{"zip_code":"6290101","kana_pref":"ｷｮｳﾄﾌ","kana_city":"ﾅﾝﾀﾝｼ","kana_address":"ﾔｷﾞﾁｮｳﾌﾅｴﾀﾞ","pref":"京都府","city":"南丹市","address":"八木町船枝"},
{"zip_code":"6290161","kana_pref":"ｷｮｳﾄﾌ","kana_city":"ﾅﾝﾀﾝｼ","kana_address":"ﾔｷﾞﾁｮｳﾐｻﾄ","pref":"京都府","city":"南丹市","address":"八木町美里"},
{"zip_code":"6290151","kana_pref":"ｷｮｳﾄﾌ","kana_city":"ﾅﾝﾀﾝｼ","kana_address":"ﾔｷﾞﾁｮｳﾐﾅﾐﾋﾛｾ","pref":"京都府","city":"南丹市","address":"八木町南廣瀬"},
{"zip_code":"6290166","kana_pref":"ｷｮｳﾄﾌ","kana_city":"ﾅﾝﾀﾝｼ","kana_address":"ﾔｷﾞﾁｮｳﾑﾛｶﾞﾜﾗ","pref":"京都府","city":"南丹市","address":"八木町室河原"},
{"zip_code":"6290102","kana_pref":"ｷｮｳﾄﾌ","kana_city":"ﾅﾝﾀﾝｼ","kana_address":"ﾔｷﾞﾁｮｳﾑﾛﾊｼ","pref":"京都府","city":"南丹市","address":"八木町室橋"},
{"zip_code":"6290103","kana_pref":"ｷｮｳﾄﾌ","kana_city":"ﾅﾝﾀﾝｼ","kana_address":"ﾔｷﾞﾁｮｳﾓﾛﾊﾀ","pref":"京都府","city":"南丹市","address":"八木町諸畑"},
{"zip_code":"6290132","kana_pref":"ｷｮｳﾄﾌ","kana_city":"ﾅﾝﾀﾝｼ","kana_address":"ﾔｷﾞﾁｮｳﾔｶﾞ","pref":"京都府","city":"南丹市","address":"八木町屋賀"},
{"zip_code":"6290141","kana_pref":"ｷｮｳﾄﾌ","kana_city":"ﾅﾝﾀﾝｼ","kana_address":"ﾔｷﾞﾁｮｳﾔｷﾞ","pref":"京都府","city":"南丹市","address":"八木町八木"},
{"zip_code":"6290153","kana_pref":"ｷｮｳﾄﾌ","kana_city":"ﾅﾝﾀﾝｼ","kana_address":"ﾔｷﾞﾁｮｳﾔｷﾞﾉｼﾏ","pref":"京都府","city":"南丹市","address":"八木町八木嶋"},
{"zip_code":"6290115","kana_pref":"ｷｮｳﾄﾌ","kana_city":"ﾅﾝﾀﾝｼ","kana_address":"ﾔｷﾞﾁｮｳﾔﾏﾑﾛ","pref":"京都府","city":"南丹市","address":"八木町山室"},
{"zip_code":"6291141","kana_pref":"ｷｮｳﾄﾌ","kana_city":"ﾌﾅｲｸﾞﾝｷｮｳﾀﾝﾊﾞﾁｮｳ","kana_address":"ｱｾﾘ","pref":"京都府","city":"船井郡京丹波町","address":"安栖里"},
{"zip_code":"6291116","kana_pref":"ｷｮｳﾄﾌ","kana_city":"ﾌﾅｲｸﾞﾝｷｮｳﾀﾝﾊﾞﾁｮｳ","kana_address":"ｲﾁﾊﾞ","pref":"京都府","city":"船井郡京丹波町","address":"市場"},
{"zip_code":"6291143","kana_pref":"ｷｮｳﾄﾌ","kana_city":"ﾌﾅｲｸﾞﾝｷｮｳﾀﾝﾊﾞﾁｮｳ","kana_address":"ｲﾃﾞﾉ","pref":"京都府","city":"船井郡京丹波町","address":"出野"},
{"zip_code":"6291142","kana_pref":"ｷｮｳﾄﾌ","kana_city":"ﾌﾅｲｸﾞﾝｷｮｳﾀﾝﾊﾞﾁｮｳ","kana_address":"ｲﾅﾂｷﾞ","pref":"京都府","city":"船井郡京丹波町","address":"稲次"},
{"zip_code":"6291117","kana_pref":"ｷｮｳﾄﾌ","kana_city":"ﾌﾅｲｸﾞﾝｷｮｳﾀﾝﾊﾞﾁｮｳ","kana_address":"ｵｵｸﾗ","pref":"京都府","city":"船井郡京丹波町","address":"大倉"},
{"zip_code":"6291111","kana_pref":"ｷｮｳﾄﾌ","kana_city":"ﾌﾅｲｸﾞﾝｷｮｳﾀﾝﾊﾞﾁｮｳ","kana_address":"ｵｵｻｺ","pref":"京都府","city":"船井郡京丹波町","address":"大迫"},
{"zip_code":"6291145","kana_pref":"ｷｮｳﾄﾌ","kana_city":"ﾌﾅｲｸﾞﾝｷｮｳﾀﾝﾊﾞﾁｮｳ","kana_address":"ｵｵﾐｽ","pref":"京都府","city":"船井郡京丹波町","address":"大簾"},
{"zip_code":"6291122","kana_pref":"ｷｮｳﾄﾌ","kana_city":"ﾌﾅｲｸﾞﾝｷｮｳﾀﾝﾊﾞﾁｮｳ","kana_address":"ｵﾊﾞﾀ","pref":"京都府","city":"船井郡京丹波町","address":"小畑"},
{"zip_code":"6291133","kana_pref":"ｷｮｳﾄﾌ","kana_city":"ﾌﾅｲｸﾞﾝｷｮｳﾀﾝﾊﾞﾁｮｳ","kana_address":"ｶﾄﾞ","pref":"京都府","city":"船井郡京丹波町","address":"角"},
{"zip_code":"6291108","kana_pref":"ｷｮｳﾄﾌ","kana_city":"ﾌﾅｲｸﾞﾝｷｮｳﾀﾝﾊﾞﾁｮｳ","kana_address":"ｶﾐｱﾜﾉ","pref":"京都府","city":"船井郡京丹波町","address":"上粟野"},
{"zip_code":"6291102","kana_pref":"ｷｮｳﾄﾌ","kana_city":"ﾌﾅｲｸﾞﾝｷｮｳﾀﾝﾊﾞﾁｮｳ","kana_address":"ｶﾐｵﾄﾐ","pref":"京都府","city":"船井郡京丹波町","address":"上乙見"},
{"zip_code":"6291135","kana_pref":"ｷｮｳﾄﾌ","kana_city":"ﾌﾅｲｸﾞﾝｷｮｳﾀﾝﾊﾞﾁｮｳ","kana_address":"ｻｲﾊﾞﾗ","pref":"京都府","city":"船井郡京丹波町","address":"才原"},
{"zip_code":"6291131","kana_pref":"ｷｮｳﾄﾌ","kana_city":"ﾌﾅｲｸﾞﾝｷｮｳﾀﾝﾊﾞﾁｮｳ","kana_address":"ｻｶﾊﾞﾗ","pref":"京都府","city":"船井郡京丹波町","address":"坂原"},
{"zip_code":"6291112","kana_pref":"ｷｮｳﾄﾌ","kana_city":"ﾌﾅｲｸﾞﾝｷｮｳﾀﾝﾊﾞﾁｮｳ","kana_address":"ｼｵﾀﾆ","pref":"京都府","city":"船井郡京丹波町","address":"塩谷"},
{"zip_code":"6291104","kana_pref":"ｷｮｳﾄﾌ","kana_city":"ﾌﾅｲｸﾞﾝｷｮｳﾀﾝﾊﾞﾁｮｳ","kana_address":"ｼﾉﾊﾗ","pref":"京都府","city":"船井郡京丹波町","address":"篠原"},
{"zip_code":"6291105","kana_pref":"ｷｮｳﾄﾌ","kana_city":"ﾌﾅｲｸﾞﾝｷｮｳﾀﾝﾊﾞﾁｮｳ","kana_address":"ｼﾓｱﾜﾉ","pref":"京都府","city":"船井郡京丹波町","address":"下粟野"},
{"zip_code":"6291103","kana_pref":"ｷｮｳﾄﾌ","kana_city":"ﾌﾅｲｸﾞﾝｷｮｳﾀﾝﾊﾞﾁｮｳ","kana_address":"ｼﾓｵﾄﾐ","pref":"京都府","city":"船井郡京丹波町","address":"下乙見"},
{"zip_code":"6291132","kana_pref":"ｷｮｳﾄﾌ","kana_city":"ﾌﾅｲｸﾞﾝｷｮｳﾀﾝﾊﾞﾁｮｳ","kana_address":"ﾅｶ","pref":"京都府","city":"船井郡京丹波町","address":"中"},
{"zip_code":"6291113","kana_pref":"ｷｮｳﾄﾌ","kana_city":"ﾌﾅｲｸﾞﾝｷｮｳﾀﾝﾊﾞﾁｮｳ","kana_address":"ﾅｶﾞｾ","pref":"京都府","city":"船井郡京丹波町","address":"長瀬"},
{"zip_code":"6291115","kana_pref":"ｷｮｳﾄﾌ","kana_city":"ﾌﾅｲｸﾞﾝｷｮｳﾀﾝﾊﾞﾁｮｳ","kana_address":"ﾅｶﾔﾏ","pref":"京都府","city":"船井郡京丹波町","address":"中山"},
{"zip_code":"6291107","kana_pref":"ｷｮｳﾄﾌ","kana_city":"ﾌﾅｲｸﾞﾝｷｮｳﾀﾝﾊﾞﾁｮｳ","kana_address":"ﾆｼｶﾜｳﾁ","pref":"京都府","city":"船井郡京丹波町","address":"西河内"},
{"zip_code":"6291134","kana_pref":"ｷｮｳﾄﾌ","kana_city":"ﾌﾅｲｸﾞﾝｷｮｳﾀﾝﾊﾞﾁｮｳ","kana_address":"ﾋﾛｾ","pref":"京都府","city":"船井郡京丹波町","address":"広瀬"},
{"zip_code":"6291144","kana_pref":"ｷｮｳﾄﾌ","kana_city":"ﾌﾅｲｸﾞﾝｷｮｳﾀﾝﾊﾞﾁｮｳ","kana_address":"ﾋﾛﾉ","pref":"京都府","city":"船井郡京丹波町","address":"広野"},
{"zip_code":"6291106","kana_pref":"ｷｮｳﾄﾌ","kana_city":"ﾌﾅｲｸﾞﾝｷｮｳﾀﾝﾊﾞﾁｮｳ","kana_address":"ﾎｿﾀﾆ","pref":"京都府","city":"船井郡京丹波町","address":"細谷"},
{"zip_code":"6291101","kana_pref":"ｷｮｳﾄﾌ","kana_city":"ﾌﾅｲｸﾞﾝｷｮｳﾀﾝﾊﾞﾁｮｳ","kana_address":"ﾎﾄﾞｽ","pref":"京都府","city":"船井郡京丹波町","address":"仏主"},
{"zip_code":"6291121","kana_pref":"ｷｮｳﾄﾌ","kana_city":"ﾌﾅｲｸﾞﾝｷｮｳﾀﾝﾊﾞﾁｮｳ","kana_address":"ﾎﾝｼﾞｮｳ","pref":"京都府","city":"船井郡京丹波町","address":"本庄"},
{"zip_code":"6291114","kana_pref":"ｷｮｳﾄﾌ","kana_city":"ﾌﾅｲｸﾞﾝｷｮｳﾀﾝﾊﾞﾁｮｳ","kana_address":"ﾏｽﾀﾆ","pref":"京都府","city":"船井郡京丹波町","address":"升谷"},
{"zip_code":"6292200","kana_pref":"ｷｮｳﾄﾌ","kana_city":"ﾖｻｸﾞﾝﾖｻﾉﾁｮｳ","kana_address":"","pref":"京都府","city":"与謝郡与謝野町","address":""},
{"zip_code":"6292411","kana_pref":"ｷｮｳﾄﾌ","kana_city":"ﾖｻｸﾞﾝﾖｻﾉﾁｮｳ","kana_address":"ｱｹｼ","pref":"京都府","city":"与謝郡与謝野町","address":"明石"},
{"zip_code":"6292413","kana_pref":"ｷｮｳﾄﾌ","kana_city":"ﾖｻｸﾞﾝﾖｻﾉﾁｮｳ","kana_address":"ｱﾂｴ","pref":"京都府","city":"与謝郡与謝野町","address":"温江"},
{"zip_code":"6292311","kana_pref":"ｷｮｳﾄﾌ","kana_city":"ﾖｻｸﾞﾝﾖｻﾉﾁｮｳ","kana_address":"ｲｸｼﾞ","pref":"京都府","city":"与謝郡与謝野町","address":"幾地"},
{"zip_code":"6292303","kana_pref":"ｷｮｳﾄﾌ","kana_city":"ﾖｻｸﾞﾝﾖｻﾉﾁｮｳ","kana_address":"ｲｼｶﾜ","pref":"京都府","city":"与謝郡与謝野町","address":"石川"},
{"zip_code":"6292262","kana_pref":"ｷｮｳﾄﾌ","kana_city":"ﾖｻｸﾞﾝﾖｻﾉﾁｮｳ","kana_address":"ｲﾜﾀｷ","pref":"京都府","city":"与謝郡与謝野町","address":"岩滝"},
{"zip_code":"6292314","kana_pref":"ｷｮｳﾄﾌ","kana_city":"ﾖｻｸﾞﾝﾖｻﾉﾁｮｳ","kana_address":"ｲﾜﾔ","pref":"京都府","city":"与謝郡与謝野町","address":"岩屋"},
{"zip_code":"6292404","kana_pref":"ｷｮｳﾄﾌ","kana_city":"ﾖｻｸﾞﾝﾖｻﾉﾁｮｳ","kana_address":"ｳｼﾛﾉ","pref":"京都府","city":"与謝郡与謝野町","address":"後野"},
{"zip_code":"6292261","kana_pref":"ｷｮｳﾄﾌ","kana_city":"ﾖｻｸﾞﾝﾖｻﾉﾁｮｳ","kana_address":"ｵﾄｺﾔﾏ","pref":"京都府","city":"与謝郡与謝野町","address":"男山"},
{"zip_code":"6292412","kana_pref":"ｷｮｳﾄﾌ","kana_city":"ﾖｻｸﾞﾝﾖｻﾉﾁｮｳ","kana_address":"ｶｺﾞ","pref":"京都府","city":"与謝郡与謝野町","address":"香河"},
{"zip_code":"6292421","kana_pref":"ｷｮｳﾄﾌ","kana_city":"ﾖｻｸﾞﾝﾖｻﾉﾁｮｳ","kana_address":"ｶﾅﾔ","pref":"京都府","city":"与謝郡与謝野町","address":"金屋"},
{"zip_code":"6292301","kana_pref":"ｷｮｳﾄﾌ","kana_city":"ﾖｻｸﾞﾝﾖｻﾉﾁｮｳ","kana_address":"ｶﾐﾔﾏﾀﾞ","pref":"京都府","city":"与謝郡与謝野町","address":"上山田"},
{"zip_code":"6292403","kana_pref":"ｷｮｳﾄﾌ","kana_city":"ﾖｻｸﾞﾝﾖｻﾉﾁｮｳ","kana_address":"ｶﾔ","pref":"京都府","city":"与謝郡与謝野町","address":"加悦"},
{"zip_code":"6292401","kana_pref":"ｷｮｳﾄﾌ","kana_city":"ﾖｻｸﾞﾝﾖｻﾉﾁｮｳ","kana_address":"ｶﾔｵｸ","pref":"京都府","city":"与謝郡与謝野町","address":"加悦奥"},
{"zip_code":"6292402","kana_pref":"ｷｮｳﾄﾌ","kana_city":"ﾖｻｸﾞﾝﾖｻﾉﾁｮｳ","kana_address":"ｻﾝｼﾞｮ","pref":"京都府","city":"与謝郡与謝野町","address":"算所"},
{"zip_code":"6292302","kana_pref":"ｷｮｳﾄﾌ","kana_city":"ﾖｻｸﾞﾝﾖｻﾉﾁｮｳ","kana_address":"ｼﾓﾔﾏﾀﾞ","pref":"京都府","city":"与謝郡与謝野町","address":"下山田"},
{"zip_code":"6292422","kana_pref":"ｷｮｳﾄﾌ","kana_city":"ﾖｻｸﾞﾝﾖｻﾉﾁｮｳ","kana_address":"ﾀｷ","pref":"京都府","city":"与謝郡与謝野町","address":"滝"},
{"zip_code":"6292313","kana_pref":"ｷｮｳﾄﾌ","kana_city":"ﾖｻｸﾞﾝﾖｻﾉﾁｮｳ","kana_address":"ﾐｺﾞｳﾁ","pref":"京都府","city":"与謝郡与謝野町","address":"三河内"},
{"zip_code":"6292263","kana_pref":"ｷｮｳﾄﾌ","kana_city":"ﾖｻｸﾞﾝﾖｻﾉﾁｮｳ","kana_address":"ﾕﾐｷ","pref":"京都府","city":"与謝郡与謝野町","address":"弓木"},
{"zip_code":"6292423","kana_pref":"ｷｮｳﾄﾌ","kana_city":"ﾖｻｸﾞﾝﾖｻﾉﾁｮｳ","kana_address":"ﾖｻﾞ","pref":"京都府","city":"与謝郡与謝野町","address":"与謝"},
{"zip_code":"6292312","kana_pref":"ｷｮｳﾄﾌ","kana_city":"ﾖｻｸﾞﾝﾖｻﾉﾁｮｳ","kana_address":"ﾖﾂﾂｼﾞ","pref":"京都府","city":"与謝郡与謝野町","address":"四辻"}]}