{"zip_code":[
{"zip_code":"6300271","kana_pref":"ｵｵｻｶﾌ","kana_city":"ﾋｶﾞｼｵｵｻｶｼ","kana_address":"ｶﾐｲｼｷﾘﾁｮｳ","pref":"大阪府","city":"東大阪市","address":"上石切町"},
{"zip_code":"6300272","kana_pref":"ｵｵｻｶﾌ","kana_city":"ﾋｶﾞｼｵｵｻｶｼ","kana_address":"ﾔﾏﾃﾁｮｳ","pref":"大阪府","city":"東大阪市","address":"山手町"},
{"zip_code":"6300000","kana_pref":"ﾅﾗｹﾝ","kana_city":"ﾅﾗｼ","kana_address":"","pref":"奈良県","city":"奈良市","address":""},
{"zip_code":"6308101","kana_pref":"ﾅﾗｹﾝ","kana_city":"ﾅﾗｼ","kana_address":"ｱｵﾔﾏ","pref":"奈良県","city":"奈良市","address":"青山"},
{"zip_code":"6308035","kana_pref":"ﾅﾗｹﾝ","kana_city":"ﾅﾗｼ","kana_address":"ｱｶﾊﾀﾞﾁｮｳ","pref":"奈良県","city":"奈良市","address":"赤膚町"},
{"zip_code":"6308346","kana_pref":"ﾅﾗｹﾝ","kana_city":"ﾅﾗｼ","kana_address":"ｱｾﾞﾏﾒﾁｮｳ","pref":"奈良県","city":"奈良市","address":"阿字万字町"},
{"zip_code":"6308246","kana_pref":"ﾅﾗｹﾝ","kana_city":"ﾅﾗｼ","kana_address":"ｱﾌﾞﾗｻｶｼﾞｶﾀﾁｮｳ","pref":"奈良県","city":"奈良市","address":"油阪地方町"},
{"zip_code":"6308247","kana_pref":"ﾅﾗｹﾝ","kana_city":"ﾅﾗｼ","kana_address":"ｱﾌﾞﾗｻｶﾁｮｳ","pref":"奈良県","city":"奈良市","address":"油阪町"},
{"zip_code":"6308024","kana_pref":"ﾅﾗｹﾝ","kana_city":"ﾅﾗｼ","kana_address":"ｱﾏｶﾞﾂｼﾞﾅｶﾏﾁ","pref":"奈良県","city":"奈良市","address":"尼辻中町"},
{"zip_code":"6308023","kana_pref":"ﾅﾗｹﾝ","kana_city":"ﾅﾗｼ","kana_address":"ｱﾏｶﾞﾂｼﾞﾆｼﾏﾁ","pref":"奈良県","city":"奈良市","address":"尼辻西町"},
{"zip_code":"6308022","kana_pref":"ﾅﾗｹﾝ","kana_city":"ﾅﾗｼ","kana_address":"ｱﾏｶﾞﾂｼﾞﾐﾅﾐﾏﾁ","pref":"奈良県","city":"奈良市","address":"尼辻南町"},
{"zip_code":"6308025","kana_pref":"ﾅﾗｹﾝ","kana_city":"ﾅﾗｼ","kana_address":"ｱﾏｶﾞﾂｼﾞｷﾀﾏﾁ","pref":"奈良県","city":"奈良市","address":"尼辻北町"},
{"zip_code":"6308021","kana_pref":"ﾅﾗｹﾝ","kana_city":"ﾅﾗｼ","kana_address":"ｱﾏｶﾞﾂｼﾞﾁｮｳ","pref":"奈良県","city":"奈良市","address":"尼辻町"},
{"zip_code":"6308445","kana_pref":"ﾅﾗｹﾝ","kana_city":"ﾅﾗｼ","kana_address":"ｲｹﾀﾞﾁｮｳ","pref":"奈良県","city":"奈良市","address":"池田町"},
{"zip_code":"6308361","kana_pref":"ﾅﾗｹﾝ","kana_city":"ﾅﾗｼ","kana_address":"ｲｹﾉﾁｮｳ","pref":"奈良県","city":"奈良市","address":"池之町"},
{"zip_code":"6308317","kana_pref":"ﾅﾗｹﾝ","kana_city":"ﾅﾗｼ","kana_address":"ｲﾉｳｴﾁｮｳ","pref":"奈良県","city":"奈良市","address":"井上町"},
{"zip_code":"6308444","kana_pref":"ﾅﾗｹﾝ","kana_city":"ﾅﾗｼ","kana_address":"ｲﾏｲﾁﾁｮｳ","pref":"奈良県","city":"奈良市","address":"今市町"},
{"zip_code":"6308207","kana_pref":"ﾅﾗｹﾝ","kana_city":"ﾅﾗｼ","kana_address":"ｲﾏｺｳｼﾞﾁｮｳ","pref":"奈良県","city":"奈良市","address":"今小路町"},
{"zip_code":"6308205","kana_pref":"ﾅﾗｹﾝ","kana_city":"ﾅﾗｼ","kana_address":"ｲﾏｻﾞｲｹﾁｮｳ","pref":"奈良県","city":"奈良市","address":"今在家町"},
{"zip_code":"6308243","kana_pref":"ﾅﾗｹﾝ","kana_city":"ﾅﾗｼ","kana_address":"ｲﾏﾂﾞｼﾁｮｳ","pref":"奈良県","city":"奈良市","address":"今辻子町"},
{"zip_code":"6308374","kana_pref":"ﾅﾗｹﾝ","kana_city":"ﾅﾗｼ","kana_address":"ｲﾏﾐｶﾄﾞﾁｮｳ","pref":"奈良県","city":"奈良市","address":"今御門町"},
{"zip_code":"6308338","kana_pref":"ﾅﾗｹﾝ","kana_city":"ﾅﾗｼ","kana_address":"ｲﾝﾖｳﾁｮｳ","pref":"奈良県","city":"奈良市","address":"陰陽町"},
{"zip_code":"6301233","kana_pref":"ﾅﾗｹﾝ","kana_city":"ﾅﾗｼ","kana_address":"ｵｵｼﾞﾁｮｳ","pref":"奈良県","city":"奈良市","address":"邑地町"},
{"zip_code":"6302161","kana_pref":"ﾅﾗｹﾝ","kana_city":"ﾅﾗｼ","kana_address":"ｵｵﾉﾁｮｳ","pref":"奈良県","city":"奈良市","address":"大野町"},
{"zip_code":"6301236","kana_pref":"ﾅﾗｹﾝ","kana_city":"ﾅﾗｼ","kana_address":"ｵｵﾎﾞﾁｮｳ","pref":"奈良県","city":"奈良市","address":"大保町"},
{"zip_code":"6308115","kana_pref":"ﾅﾗｹﾝ","kana_city":"ﾅﾗｼ","kana_address":"ｵｵﾐﾔﾁｮｳ","pref":"奈良県","city":"奈良市","address":"大宮町"},
{"zip_code":"6308131","kana_pref":"ﾅﾗｹﾝ","kana_city":"ﾅﾗｼ","kana_address":"ｵｵﾓﾘﾁｮｳ","pref":"奈良県","city":"奈良市","address":"大森町"},
{"zip_code":"6308132","kana_pref":"ﾅﾗｹﾝ","kana_city":"ﾅﾗｼ","kana_address":"ｵｵﾓﾘﾆｼﾏﾁ","pref":"奈良県","city":"奈良市","address":"大森西町"},
{"zip_code":"6301242","kana_pref":"ﾅﾗｹﾝ","kana_city":"ﾅﾗｼ","kana_address":"ｵｵﾔｷﾞｭｳﾁｮｳ","pref":"奈良県","city":"奈良市","address":"大柳生町"},
{"zip_code":"6308233","kana_pref":"ﾅﾗｹﾝ","kana_city":"ﾅﾗｼ","kana_address":"ｵｶﾞﾜﾁｮｳ","pref":"奈良県","city":"奈良市","address":"小川町"},
{"zip_code":"6301232","kana_pref":"ﾅﾗｹﾝ","kana_city":"ﾅﾗｼ","kana_address":"ｵｸｶﾞﾊﾗﾁｮｳ","pref":"奈良県","city":"奈良市","address":"興ケ原町"},
{"zip_code":"6308235","kana_pref":"ﾅﾗｹﾝ","kana_city":"ﾅﾗｼ","kana_address":"ｵｸｺﾓﾘﾁｮｳ","pref":"奈良県","city":"奈良市","address":"奥子守町"},
{"zip_code":"6308256","kana_pref":"ﾅﾗｹﾝ","kana_city":"ﾅﾗｼ","kana_address":"ｵｸｼﾊﾞﾁｮｳ","pref":"奈良県","city":"奈良市","address":"奥芝町"},
{"zip_code":"6308273","kana_pref":"ﾅﾗｹﾝ","kana_city":"ﾅﾗｼ","kana_address":"ｵｼｱｹﾞﾁｮｳ","pref":"奈良県","city":"奈良市","address":"押上町"},
{"zip_code":"6308294","kana_pref":"ﾅﾗｹﾝ","kana_city":"ﾅﾗｼ","kana_address":"ｵｼｺｳｼﾞﾁｮｳ","pref":"奈良県","city":"奈良市","address":"押小路町"},
{"zip_code":"6301243","kana_pref":"ﾅﾗｹﾝ","kana_city":"ﾅﾗｼ","kana_address":"ｵﾋﾞﾗｵﾁｮｳ","pref":"奈良県","city":"奈良市","address":"大平尾町"},
{"zip_code":"6308142","kana_pref":"ﾅﾗｹﾝ","kana_city":"ﾅﾗｼ","kana_address":"ｶｲﾉﾂﾞｶﾁｮｳ","pref":"奈良県","city":"奈良市","address":"肘塚町"},
{"zip_code":"6308391","kana_pref":"ﾅﾗｹﾝ","kana_city":"ﾅﾗｼ","kana_address":"ｶｻｻｷﾞﾁｮｳ","pref":"奈良県","city":"奈良市","address":"鵲町"},
{"zip_code":"6308031","kana_pref":"ﾅﾗｹﾝ","kana_city":"ﾅﾗｼ","kana_address":"ｶｼﾜｷﾞﾁｮｳ","pref":"奈良県","city":"奈良市","address":"柏木町"},
{"zip_code":"6308212","kana_pref":"ﾅﾗｹﾝ","kana_city":"ﾅﾗｼ","kana_address":"ｶｽｶﾞﾉﾁｮｳ","pref":"奈良県","city":"奈良市","address":"春日野町"},
{"zip_code":"6308143","kana_pref":"ﾅﾗｹﾝ","kana_city":"ﾅﾗｼ","kana_address":"ｶﾂﾗｷﾞﾁｮｳ","pref":"奈良県","city":"奈良市","address":"桂木町"},
{"zip_code":"6308228","kana_pref":"ﾅﾗｹﾝ","kana_city":"ﾅﾗｼ","kana_address":"ｶﾐｻﾝｼﾞｮｳﾁｮｳ","pref":"奈良県","city":"奈良市","address":"上三条町"},
{"zip_code":"6308454","kana_pref":"ﾅﾗｹﾝ","kana_city":"ﾅﾗｼ","kana_address":"ｶﾗﾓﾓﾁｮｳ","pref":"奈良県","city":"奈良市","address":"杏町"},
{"zip_code":"6308202","kana_pref":"ﾅﾗｹﾝ","kana_city":"ﾅﾗｼ","kana_address":"ｶﾜｶﾐﾁｮｳ","pref":"奈良県","city":"奈良市","address":"川上町"},
{"zip_code":"6308293","kana_pref":"ﾅﾗｹﾝ","kana_city":"ﾅﾗｼ","kana_address":"ｶﾜｸﾎﾞﾁｮｳ","pref":"奈良県","city":"奈良市","address":"川久保町"},
{"zip_code":"6308313","kana_pref":"ﾅﾗｹﾝ","kana_city":"ﾅﾗｼ","kana_address":"ｶﾜﾉｶﾐﾁｮｳ","pref":"奈良県","city":"奈良市","address":"川之上町"},
{"zip_code":"6308314","kana_pref":"ﾅﾗｹﾝ","kana_city":"ﾅﾗｼ","kana_address":"ｶﾜﾉｶﾐﾂｷﾇｹﾁｮｳ","pref":"奈良県","city":"奈良市","address":"川之上突抜町"},
{"zip_code":"6308326","kana_pref":"ﾅﾗｹﾝ","kana_city":"ﾅﾗｼ","kana_address":"ｶﾜﾗﾄﾞｳﾁｮｳ","pref":"奈良県","city":"奈良市","address":"瓦堂町"},
{"zip_code":"6308242","kana_pref":"ﾅﾗｹﾝ","kana_city":"ﾅﾗｼ","kana_address":"ｶﾝｺﾞｸﾁｮｳ","pref":"奈良県","city":"奈良市","address":"漢国町"},
{"zip_code":"6308332","kana_pref":"ﾅﾗｹﾝ","kana_city":"ﾅﾗｼ","kana_address":"ｶﾞﾝｺﾞｳｼﾞﾁｮｳ","pref":"奈良県","city":"奈良市","address":"元興寺町"},
{"zip_code":"6308221","kana_pref":"ﾅﾗｹﾝ","kana_city":"ﾅﾗｼ","kana_address":"ｶﾞﾝﾘｲﾝﾁｮｳ","pref":"奈良県","city":"奈良市","address":"元林院町"},
{"zip_code":"6308261","kana_pref":"ﾅﾗｹﾝ","kana_city":"ﾅﾗｼ","kana_address":"ｷﾀｲﾁﾁｮｳ","pref":"奈良県","city":"奈良市","address":"北市町"},
{"zip_code":"6308285","kana_pref":"ﾅﾗｹﾝ","kana_city":"ﾅﾗｼ","kana_address":"ｷﾀｳｵﾔﾋｶﾞｼﾏﾁ","pref":"奈良県","city":"奈良市","address":"北魚屋東町"},
{"zip_code":"6308263","kana_pref":"ﾅﾗｹﾝ","kana_city":"ﾅﾗｼ","kana_address":"ｷﾀｳｵﾔﾆｼﾏﾁ","pref":"奈良県","city":"奈良市","address":"北魚屋西町"},
{"zip_code":"6308297","kana_pref":"ﾅﾗｹﾝ","kana_city":"ﾅﾗｼ","kana_address":"ｷﾀｶﾜﾊﾞﾀﾁｮｳ","pref":"奈良県","city":"奈良市","address":"北川端町"},
{"zip_code":"6308322","kana_pref":"ﾅﾗｹﾝ","kana_city":"ﾅﾗｼ","kana_address":"ｷﾀｷｮｳﾊﾞﾃﾁｮｳ","pref":"奈良県","city":"奈良市","address":"北京終町"},
{"zip_code":"6308252","kana_pref":"ﾅﾗｹﾝ","kana_city":"ﾅﾗｼ","kana_address":"ｷﾀｺｳｼﾞﾁｮｳ","pref":"奈良県","city":"奈良市","address":"北小路町"},
{"zip_code":"6308011","kana_pref":"ﾅﾗｹﾝ","kana_city":"ﾅﾗｼ","kana_address":"ｷﾀｼﾝﾏﾁ","pref":"奈良県","city":"奈良市","address":"北新町"},
{"zip_code":"6308405","kana_pref":"ﾅﾗｹﾝ","kana_city":"ﾅﾗｼ","kana_address":"ｷﾀﾂﾊﾞｵﾁｮｳ","pref":"奈良県","city":"奈良市","address":"北椿尾町"},
{"zip_code":"6308442","kana_pref":"ﾅﾗｹﾝ","kana_city":"ﾅﾗｼ","kana_address":"ｷﾀﾅｶﾞｲﾁｮｳ","pref":"奈良県","city":"奈良市","address":"北永井町"},
{"zip_code":"6308451","kana_pref":"ﾅﾗｹﾝ","kana_city":"ﾅﾗｼ","kana_address":"ｷﾀﾉｼｮｳﾁｮｳ","pref":"奈良県","city":"奈良市","address":"北之庄町"},
{"zip_code":"6308452","kana_pref":"ﾅﾗｹﾝ","kana_city":"ﾅﾗｼ","kana_address":"ｷﾀﾉｼｮｳﾆｼﾏﾁ","pref":"奈良県","city":"奈良市","address":"北之庄西町"},
{"zip_code":"6301234","kana_pref":"ﾅﾗｹﾝ","kana_city":"ﾅﾗｼ","kana_address":"ｷﾀﾉﾔﾏﾁｮｳ","pref":"奈良県","city":"奈良市","address":"北野山町"},
{"zip_code":"6308275","kana_pref":"ﾅﾗｹﾝ","kana_city":"ﾅﾗｼ","kana_address":"ｷﾀﾊﾝﾀﾞﾅｶﾏﾁ","pref":"奈良県","city":"奈良市","address":"北半田中町"},
{"zip_code":"6308274","kana_pref":"ﾅﾗｹﾝ","kana_city":"ﾅﾗｼ","kana_address":"ｷﾀﾊﾝﾀﾞﾋｶﾞｼﾏﾁ","pref":"奈良県","city":"奈良市","address":"北半田東町"},
{"zip_code":"6308276","kana_pref":"ﾅﾗｹﾝ","kana_city":"ﾅﾗｼ","kana_address":"ｷﾀﾊﾝﾀﾞﾆｼﾏﾁ","pref":"奈良県","city":"奈良市","address":"北半田西町"},
{"zip_code":"6308262","kana_pref":"ﾅﾗｹﾝ","kana_city":"ﾅﾗｼ","kana_address":"ｷﾀﾌｸﾛﾁｮｳ","pref":"奈良県","city":"奈良市","address":"北袋町"},
{"zip_code":"6308352","kana_pref":"ﾅﾗｹﾝ","kana_city":"ﾅﾗｼ","kana_address":"ｷﾀﾌﾛﾁｮｳ","pref":"奈良県","city":"奈良市","address":"北風呂町"},
{"zip_code":"6308204","kana_pref":"ﾅﾗｹﾝ","kana_city":"ﾅﾗｼ","kana_address":"ｷﾀﾐｶﾄﾞﾁｮｳ","pref":"奈良県","city":"奈良市","address":"北御門町"},
{"zip_code":"6308232","kana_pref":"ﾅﾗｹﾝ","kana_city":"ﾅﾗｼ","kana_address":"ｷﾀﾑｷﾁｮｳ","pref":"奈良県","city":"奈良市","address":"北向町"},
{"zip_code":"6301113","kana_pref":"ﾅﾗｹﾝ","kana_city":"ﾅﾗｼ","kana_address":"ｷﾀﾑﾗﾁｮｳ","pref":"奈良県","city":"奈良市","address":"北村町"},
{"zip_code":"6308364","kana_pref":"ﾅﾗｹﾝ","kana_city":"ﾅﾗｼ","kana_address":"ｷﾀﾑﾛﾁｮｳ","pref":"奈良県","city":"奈良市","address":"北室町"},
{"zip_code":"6308306","kana_pref":"ﾅﾗｹﾝ","kana_city":"ﾅﾗｼ","kana_address":"ｷﾃﾞﾗﾁｮｳ","pref":"奈良県","city":"奈良市","address":"紀寺町"},
{"zip_code":"6308323","kana_pref":"ﾅﾗｹﾝ","kana_city":"ﾅﾗｼ","kana_address":"ｷｮｳﾊﾞﾃｼﾞｶﾀﾋｶﾞｼｶﾞﾜﾁｮｳ","pref":"奈良県","city":"奈良市","address":"京終地方東側町"},
{"zip_code":"6308324","kana_pref":"ﾅﾗｹﾝ","kana_city":"ﾅﾗｼ","kana_address":"ｷｮｳﾊﾞﾃｼﾞｶﾀﾆｼｶﾞﾜﾁｮｳ","pref":"奈良県","city":"奈良市","address":"京終地方西側町"},
{"zip_code":"6302172","kana_pref":"ﾅﾗｹﾝ","kana_city":"ﾅﾗｼ","kana_address":"ｸﾂｶｹﾁｮｳ","pref":"奈良県","city":"奈良市","address":"沓掛町"},
{"zip_code":"6308382","kana_pref":"ﾅﾗｹﾝ","kana_city":"ﾅﾗｼ","kana_address":"ｸﾉｳﾄﾞｳﾁｮｳ","pref":"奈良県","city":"奈良市","address":"公納堂町"},
{"zip_code":"6308431","kana_pref":"ﾅﾗｹﾝ","kana_city":"ﾅﾗｼ","kana_address":"ｸﾎﾞﾉｼｮｳﾁｮｳ","pref":"奈良県","city":"奈良市","address":"窪之庄町"},
{"zip_code":"6308136","kana_pref":"ﾅﾗｹﾝ","kana_city":"ﾅﾗｼ","kana_address":"ｺｲﾉｸﾎﾞ","pref":"奈良県","city":"奈良市","address":"恋の窪"},
{"zip_code":"6308137","kana_pref":"ﾅﾗｹﾝ","kana_city":"ﾅﾗｼ","kana_address":"ｺｲﾉｸﾎﾞﾋｶﾞｼﾏﾁ","pref":"奈良県","city":"奈良市","address":"恋の窪東町"},
{"zip_code":"6308103","kana_pref":"ﾅﾗｹﾝ","kana_city":"ﾅﾗｼ","kana_address":"ｺｳｾﾞﾝｲﾝﾁｮｳ","pref":"奈良県","city":"奈良市","address":"興善院町"},
{"zip_code":"6308371","kana_pref":"ﾅﾗｹﾝ","kana_city":"ﾅﾗｼ","kana_address":"ｺｳﾐｮｳｲﾝﾁｮｳ","pref":"奈良県","city":"奈良市","address":"光明院町"},
{"zip_code":"6308403","kana_pref":"ﾅﾗｹﾝ","kana_city":"ﾅﾗｼ","kana_address":"ｺｳﾘｭｳｼﾞﾁｮｳ","pref":"奈良県","city":"奈良市","address":"興隆寺町"},
{"zip_code":"6308412","kana_pref":"ﾅﾗｹﾝ","kana_city":"ﾅﾗｼ","kana_address":"ｺｸｿﾞｳﾁｮｳ","pref":"奈良県","city":"奈良市","address":"虚空蔵町"},
{"zip_code":"6308348","kana_pref":"ﾅﾗｹﾝ","kana_city":"ﾅﾗｼ","kana_address":"ｺﾀﾛｳﾏﾁ","pref":"奈良県","city":"奈良市","address":"小太郎町"},
{"zip_code":"6308296","kana_pref":"ﾅﾗｹﾝ","kana_city":"ﾅﾗｼ","kana_address":"ｺﾞﾄｳﾁｮｳ","pref":"奈良県","city":"奈良市","address":"後藤町"},
{"zip_code":"6308441","kana_pref":"ﾅﾗｹﾝ","kana_city":"ﾅﾗｼ","kana_address":"ｺﾄﾞﾉﾁｮｳ","pref":"奈良県","city":"奈良市","address":"神殿町"},
{"zip_code":"6308226","kana_pref":"ﾅﾗｹﾝ","kana_city":"ﾅﾗｼ","kana_address":"ｺﾆｼﾁｮｳ","pref":"奈良県","city":"奈良市","address":"小西町"},
{"zip_code":"6302177","kana_pref":"ﾅﾗｹﾝ","kana_city":"ﾅﾗｼ","kana_address":"ｺﾉｾﾁｮｳ","pref":"奈良県","city":"奈良市","address":"此瀬町"},
{"zip_code":"6308033","kana_pref":"ﾅﾗｹﾝ","kana_city":"ﾅﾗｼ","kana_address":"ｺﾞｼﾞｮｳ","pref":"奈良県","city":"奈良市","address":"五条"},
{"zip_code":"6308032","kana_pref":"ﾅﾗｹﾝ","kana_city":"ﾅﾗｼ","kana_address":"ｺﾞｼﾞｮｳﾁｮｳ","pref":"奈良県","city":"奈良市","address":"五条町"},
{"zip_code":"6308036","kana_pref":"ﾅﾗｹﾝ","kana_city":"ﾅﾗｼ","kana_address":"ｺﾞｼﾞｮｳﾊﾞﾀ","pref":"奈良県","city":"奈良市","address":"五条畑"},
{"zip_code":"6308034","kana_pref":"ﾅﾗｹﾝ","kana_city":"ﾅﾗｼ","kana_address":"ｺﾞｼﾞｮｳﾆｼ","pref":"奈良県","city":"奈良市","address":"五条西"},
{"zip_code":"6308453","kana_pref":"ﾅﾗｹﾝ","kana_city":"ﾅﾗｼ","kana_address":"ｻｲｸｼﾞｮｳﾁｮｳ","pref":"奈良県","city":"奈良市","address":"西九条町"},
{"zip_code":"6308255","kana_pref":"ﾅﾗｹﾝ","kana_city":"ﾅﾗｼ","kana_address":"ｻｶﾉｼﾝﾔﾁｮｳ","pref":"奈良県","city":"奈良市","address":"阪新屋町"},
{"zip_code":"6301241","kana_pref":"ﾅﾗｹﾝ","kana_city":"ﾅﾗｼ","kana_address":"ｻｶﾊﾗﾁｮｳ","pref":"奈良県","city":"奈良市","address":"阪原町"},
{"zip_code":"6301103","kana_pref":"ﾅﾗｹﾝ","kana_city":"ﾅﾗｼ","kana_address":"ｻｶﾞﾜﾋｶﾞｼﾏﾁ","pref":"奈良県","city":"奈良市","address":"狭川東町"},
{"zip_code":"6301104","kana_pref":"ﾅﾗｹﾝ","kana_city":"ﾅﾗｼ","kana_address":"ｻｶﾞﾜﾘｮｳﾁｮｳ","pref":"奈良県","city":"奈良市","address":"狭川両町"},
{"zip_code":"6308003","kana_pref":"ﾅﾗｹﾝ","kana_city":"ﾅﾗｼ","kana_address":"ｻｷﾁｮｳ","pref":"奈良県","city":"奈良市","address":"佐紀町"},
{"zip_code":"6308105","kana_pref":"ﾅﾗｹﾝ","kana_city":"ﾅﾗｼ","kana_address":"ｻﾎﾀﾞｲ","pref":"奈良県","city":"奈良市","address":"佐保台"},
{"zip_code":"6308106","kana_pref":"ﾅﾗｹﾝ","kana_city":"ﾅﾗｼ","kana_address":"ｻﾎﾀﾞｲﾆｼﾏﾁ","pref":"奈良県","city":"奈良市","address":"佐保台西町"},
{"zip_code":"6308013","kana_pref":"ﾅﾗｹﾝ","kana_city":"ﾅﾗｼ","kana_address":"ｻﾝｼﾞｮｳｵｵｼﾞ","pref":"奈良県","city":"奈良市","address":"三条大路"},
{"zip_code":"6308123","kana_pref":"ﾅﾗｹﾝ","kana_city":"ﾅﾗｼ","kana_address":"ｻﾝｼﾞｮｳｵｵﾐﾔﾁｮｳ","pref":"奈良県","city":"奈良市","address":"三条大宮町"},
{"zip_code":"6308125","kana_pref":"ﾅﾗｹﾝ","kana_city":"ﾅﾗｼ","kana_address":"ｻﾝｼﾞｮｳｶﾜﾆｼﾁｮｳ","pref":"奈良県","city":"奈良市","address":"三条川西町"},
{"zip_code":"6308126","kana_pref":"ﾅﾗｹﾝ","kana_city":"ﾅﾗｼ","kana_address":"ｻﾝｼﾞｮｳｻｶｴﾏﾁ","pref":"奈良県","city":"奈良市","address":"三条栄町"},
{"zip_code":"6308127","kana_pref":"ﾅﾗｹﾝ","kana_city":"ﾅﾗｼ","kana_address":"ｻﾝｼﾞｮｳｿｴｶﾞﾜﾁｮｳ","pref":"奈良県","city":"奈良市","address":"三条添川町"},
{"zip_code":"6308124","kana_pref":"ﾅﾗｹﾝ","kana_city":"ﾅﾗｼ","kana_address":"ｻﾝｼﾞｮｳﾋﾉｷﾏﾁ","pref":"奈良県","city":"奈良市","address":"三条桧町"},
{"zip_code":"6308122","kana_pref":"ﾅﾗｹﾝ","kana_city":"ﾅﾗｼ","kana_address":"ｻﾝｼﾞｮｳﾎﾝﾏﾁ","pref":"奈良県","city":"奈良市","address":"三条本町"},
{"zip_code":"6308121","kana_pref":"ﾅﾗｹﾝ","kana_city":"ﾅﾗｼ","kana_address":"ｻﾝｼﾞｮｳﾐﾔﾏｴﾁｮｳ","pref":"奈良県","city":"奈良市","address":"三条宮前町"},
{"zip_code":"6308244","kana_pref":"ﾅﾗｹﾝ","kana_city":"ﾅﾗｼ","kana_address":"ｻﾝｼﾞｮｳﾁｮｳ","pref":"奈良県","city":"奈良市","address":"三条町"},
{"zip_code":"6308014","kana_pref":"ﾅﾗｹﾝ","kana_city":"ﾅﾗｼ","kana_address":"ｼｼﾞｮｳｵｵｼﾞ","pref":"奈良県","city":"奈良市","address":"四条大路"},
{"zip_code":"6308015","kana_pref":"ﾅﾗｹﾝ","kana_city":"ﾅﾗｼ","kana_address":"ｼｼﾞｮｳｵｵｼﾞﾐﾅﾐﾏﾁ","pref":"奈良県","city":"奈良市","address":"四条大路南町"},
{"zip_code":"6308053","kana_pref":"ﾅﾗｹﾝ","kana_city":"ﾅﾗｼ","kana_address":"ｼﾁｼﾞｮｳ","pref":"奈良県","city":"奈良市","address":"七条"},
{"zip_code":"6308051","kana_pref":"ﾅﾗｹﾝ","kana_city":"ﾅﾗｼ","kana_address":"ｼﾁｼﾞｮｳﾁｮｳ","pref":"奈良県","city":"奈良市","address":"七条町"},
{"zip_code":"6308052","kana_pref":"ﾅﾗｹﾝ","kana_city":"ﾅﾗｼ","kana_address":"ｼﾁｼﾞｮｳﾋｶﾞｼﾏﾁ","pref":"奈良県","city":"奈良市","address":"七条東町"},
{"zip_code":"6308054","kana_pref":"ﾅﾗｹﾝ","kana_city":"ﾅﾗｼ","kana_address":"ｼﾁｼﾞｮｳﾆｼﾏﾁ","pref":"奈良県","city":"奈良市","address":"七条西町"},
{"zip_code":"6308385","kana_pref":"ﾅﾗｹﾝ","kana_city":"ﾅﾗｼ","kana_address":"ｼﾊﾞﾂｷﾇｹﾁｮｳ","pref":"奈良県","city":"奈良市","address":"芝突抜町"},
{"zip_code":"6308114","kana_pref":"ﾅﾗｹﾝ","kana_city":"ﾅﾗｼ","kana_address":"ｼﾊﾞﾂｼﾞﾁｮｳ","pref":"奈良県","city":"奈良市","address":"芝辻町"},
{"zip_code":"6308384","kana_pref":"ﾅﾗｹﾝ","kana_city":"ﾅﾗｼ","kana_address":"ｼﾊﾞﾉｼﾝﾔﾁｮｳ","pref":"奈良県","city":"奈良市","address":"芝新屋町"},
{"zip_code":"6308433","kana_pref":"ﾅﾗｹﾝ","kana_city":"ﾅﾗｼ","kana_address":"ｼﾊﾞﾔﾁｮｳ","pref":"奈良県","city":"奈良市","address":"柴屋町"},
{"zip_code":"6301102","kana_pref":"ﾅﾗｹﾝ","kana_city":"ﾅﾗｼ","kana_address":"ｼﾓｻｶﾞﾜﾁｮｳ","pref":"奈良県","city":"奈良市","address":"下狭川町"},
{"zip_code":"6308236","kana_pref":"ﾅﾗｹﾝ","kana_city":"ﾅﾗｼ","kana_address":"ｼﾓｻﾝｼﾞｮｳﾁｮｳ","pref":"奈良県","city":"奈良市","address":"下三条町"},
{"zip_code":"6308365","kana_pref":"ﾅﾗｹﾝ","kana_city":"ﾅﾗｼ","kana_address":"ｼﾓﾐｶﾄﾞﾁｮｳ","pref":"奈良県","city":"奈良市","address":"下御門町"},
{"zip_code":"6308265","kana_pref":"ﾅﾗｹﾝ","kana_city":"ﾅﾗｼ","kana_address":"ｼｭｸｲﾝﾁｮｳ","pref":"奈良県","city":"奈良市","address":"宿院町"},
{"zip_code":"6308363","kana_pref":"ﾅﾗｹﾝ","kana_city":"ﾅﾗｼ","kana_address":"ｼｮｳﾅﾐﾁｮｳ","pref":"奈良県","city":"奈良市","address":"勝南院町"},
{"zip_code":"6308254","kana_pref":"ﾅﾗｹﾝ","kana_city":"ﾅﾗｼ","kana_address":"ｼｮｳﾌﾞｲｹﾁｮｳ","pref":"奈良県","city":"奈良市","address":"菖蒲池町"},
{"zip_code":"6308312","kana_pref":"ﾅﾗｹﾝ","kana_city":"ﾅﾗｼ","kana_address":"ｼﾞｭｳﾘｲﾝﾁｮｳ","pref":"奈良県","city":"奈良市","address":"十輪院町"},
{"zip_code":"6308311","kana_pref":"ﾅﾗｹﾝ","kana_city":"ﾅﾗｼ","kana_address":"ｼﾞｭｳﾘｲﾝﾊﾀﾁｮｳ","pref":"奈良県","city":"奈良市","address":"十輪院畑町"},
{"zip_code":"6308208","kana_pref":"ﾅﾗｹﾝ","kana_city":"ﾅﾗｼ","kana_address":"ｽｲﾓﾝﾁｮｳ","pref":"奈良県","city":"奈良市","address":"水門町"},
{"zip_code":"6301111","kana_pref":"ﾅﾗｹﾝ","kana_city":"ﾅﾗｼ","kana_address":"ｽｶﾞﾜﾁｮｳ","pref":"奈良県","city":"奈良市","address":"須川町"},
{"zip_code":"6302178","kana_pref":"ﾅﾗｹﾝ","kana_city":"ﾅﾗｼ","kana_address":"ｽﾔﾏﾁｮｳ","pref":"奈良県","city":"奈良市","address":"須山町"},
{"zip_code":"6308357","kana_pref":"ﾅﾗｹﾝ","kana_city":"ﾅﾗｼ","kana_address":"ｽﾙｶﾞﾏﾁ","pref":"奈良県","city":"奈良市","address":"杉ケ町"},
{"zip_code":"6302171","kana_pref":"ﾅﾗｹﾝ","kana_city":"ﾅﾗｼ","kana_address":"ｾﾀﾘﾝﾁｮｳ","pref":"奈良県","city":"奈良市","address":"誓多林町"},
{"zip_code":"6308211","kana_pref":"ﾅﾗｹﾝ","kana_city":"ﾅﾗｼ","kana_address":"ｿﾞｳｼﾁｮｳ","pref":"奈良県","city":"奈良市","address":"雑司町"},
{"zip_code":"6301121","kana_pref":"ﾅﾗｹﾝ","kana_city":"ﾅﾗｼ","kana_address":"ｿﾉﾀﾞﾁｮｳ","pref":"奈良県","city":"奈良市","address":"園田町"},
{"zip_code":"6302152","kana_pref":"ﾅﾗｹﾝ","kana_city":"ﾅﾗｼ","kana_address":"ｿﾏﾉｶﾜﾁｮｳ","pref":"奈良県","city":"奈良市","address":"杣ノ川町"},
{"zip_code":"6308133","kana_pref":"ﾅﾗｹﾝ","kana_city":"ﾅﾗｼ","kana_address":"ﾀﾞｲｱﾝｼﾞ","pref":"奈良県","city":"奈良市","address":"大安寺"},
{"zip_code":"6308135","kana_pref":"ﾅﾗｹﾝ","kana_city":"ﾅﾗｼ","kana_address":"ﾀﾞｲｱﾝｼﾞﾆｼ","pref":"奈良県","city":"奈良市","address":"大安寺西"},
{"zip_code":"6308134","kana_pref":"ﾅﾗｹﾝ","kana_city":"ﾅﾗｼ","kana_address":"ﾀﾞｲｱﾝｼﾞﾁｮｳ","pref":"奈良県","city":"奈良市","address":"大安寺町"},
{"zip_code":"6301245","kana_pref":"ﾅﾗｹﾝ","kana_city":"ﾅﾗｼ","kana_address":"ﾀﾞｲｼﾞｾﾝﾁｮｳ","pref":"奈良県","city":"奈良市","address":"大慈仙町"},
{"zip_code":"6308301","kana_pref":"ﾅﾗｹﾝ","kana_city":"ﾅﾗｼ","kana_address":"ﾀｶﾊﾞﾀｹﾁｮｳ","pref":"奈良県","city":"奈良市","address":"高畑町"},
{"zip_code":"6308411","kana_pref":"ﾅﾗｹﾝ","kana_city":"ﾅﾗｼ","kana_address":"ﾀｶﾋﾁｮｳ","pref":"奈良県","city":"奈良市","address":"高樋町"},
{"zip_code":"6308238","kana_pref":"ﾅﾗｹﾝ","kana_city":"ﾅﾗｼ","kana_address":"ﾀｶﾏｲﾁﾁｮｳ","pref":"奈良県","city":"奈良市","address":"高天市町"},
{"zip_code":"6308241","kana_pref":"ﾅﾗｹﾝ","kana_city":"ﾅﾗｼ","kana_address":"ﾀｶﾏﾁｮｳ","pref":"奈良県","city":"奈良市","address":"高天町"},
{"zip_code":"6308336","kana_pref":"ﾅﾗｹﾝ","kana_city":"ﾅﾗｼ","kana_address":"ﾀｶﾐｶﾄﾞﾁｮｳ","pref":"奈良県","city":"奈良市","address":"高御門町"},
{"zip_code":"6308432","kana_pref":"ﾅﾗｹﾝ","kana_city":"ﾅﾗｼ","kana_address":"ﾀﾅｶﾁｮｳ","pref":"奈良県","city":"奈良市","address":"田中町"},
{"zip_code":"6308112","kana_pref":"ﾅﾗｹﾝ","kana_city":"ﾅﾗｼ","kana_address":"ﾀﾓﾝﾁｮｳ","pref":"奈良県","city":"奈良市","address":"多門町"},
{"zip_code":"6308218","kana_pref":"ﾅﾗｹﾝ","kana_city":"ﾅﾗｼ","kana_address":"ﾀﾙｲﾁｮｳ","pref":"奈良県","city":"奈良市","address":"樽井町"},
{"zip_code":"6302167","kana_pref":"ﾅﾗｹﾝ","kana_city":"ﾅﾗｼ","kana_address":"ﾀﾜﾗｶｽｶﾞﾉﾁｮｳ","pref":"奈良県","city":"奈良市","address":"田原春日野町"},
{"zip_code":"6308392","kana_pref":"ﾅﾗｹﾝ","kana_city":"ﾅﾗｼ","kana_address":"ﾁｭｳｲﾝﾁｮｳ","pref":"奈良県","city":"奈良市","address":"中院町"},
{"zip_code":"6302301","kana_pref":"ﾅﾗｹﾝ","kana_city":"ﾅﾗｼ","kana_address":"ﾂｷｶﾞｾｲｼｳﾁ","pref":"奈良県","city":"奈良市","address":"月ケ瀬石打"},
{"zip_code":"6302302","kana_pref":"ﾅﾗｹﾝ","kana_city":"ﾅﾗｼ","kana_address":"ﾂｷｶﾞｾｵﾔﾏ","pref":"奈良県","city":"奈良市","address":"月ケ瀬尾山"},
{"zip_code":"6302304","kana_pref":"ﾅﾗｹﾝ","kana_city":"ﾅﾗｼ","kana_address":"ﾂｷｶﾞｾﾀﾞｹ","pref":"奈良県","city":"奈良市","address":"月ケ瀬嵩"},
{"zip_code":"6302305","kana_pref":"ﾅﾗｹﾝ","kana_city":"ﾅﾗｼ","kana_address":"ﾂｷｶﾞｾﾂｷｾ","pref":"奈良県","city":"奈良市","address":"月ケ瀬月瀬"},
{"zip_code":"6302303","kana_pref":"ﾅﾗｹﾝ","kana_city":"ﾅﾗｼ","kana_address":"ﾂｷｶﾞｾﾅｶﾞﾋｷ","pref":"奈良県","city":"奈良市","address":"月ケ瀬長引"},
{"zip_code":"6302306","kana_pref":"ﾅﾗｹﾝ","kana_city":"ﾅﾗｼ","kana_address":"ﾂｷｶﾞｾﾓﾓｶﾞﾉ","pref":"奈良県","city":"奈良市","address":"月ケ瀬桃香野"},
{"zip_code":"6308316","kana_pref":"ﾅﾗｹﾝ","kana_city":"ﾅﾗｼ","kana_address":"ﾂｼﾞﾉｳﾁﾁｮｳ","pref":"奈良県","city":"奈良市","address":"築地之内町"},
{"zip_code":"6308223","kana_pref":"ﾅﾗｹﾝ","kana_city":"ﾅﾗｼ","kana_address":"ﾂﾉﾌﾘｼﾝﾔﾁｮｳ","pref":"奈良県","city":"奈良市","address":"角振新屋町"},
{"zip_code":"6308224","kana_pref":"ﾅﾗｹﾝ","kana_city":"ﾅﾗｼ","kana_address":"ﾂﾉﾌﾘﾁｮｳ","pref":"奈良県","city":"奈良市","address":"角振町"},
{"zip_code":"6308343","kana_pref":"ﾅﾗｹﾝ","kana_city":"ﾅﾗｼ","kana_address":"ﾂﾊﾞｲﾁｮｳ","pref":"奈良県","city":"奈良市","address":"椿井町"},
{"zip_code":"6308393","kana_pref":"ﾅﾗｹﾝ","kana_city":"ﾅﾗｼ","kana_address":"ﾂﾙﾌｸｲﾝﾁｮｳ","pref":"奈良県","city":"奈良市","address":"鶴福院町"},
{"zip_code":"6308206","kana_pref":"ﾅﾗｹﾝ","kana_city":"ﾅﾗｼ","kana_address":"ﾃｶﾞｲﾁｮｳ","pref":"奈良県","city":"奈良市","address":"手貝町"},
{"zip_code":"6308423","kana_pref":"ﾅﾗｹﾝ","kana_city":"ﾅﾗｼ","kana_address":"ﾃﾞﾔｼｷﾁｮｳ","pref":"奈良県","city":"奈良市","address":"出屋敷町"},
{"zip_code":"6308234","kana_pref":"ﾅﾗｹﾝ","kana_city":"ﾅﾗｼ","kana_address":"ﾃﾗﾏﾁ","pref":"奈良県","city":"奈良市","address":"寺町"},
{"zip_code":"6308144","kana_pref":"ﾅﾗｹﾝ","kana_city":"ﾅﾗｼ","kana_address":"ﾄｳｸｼﾞｮｳﾁｮｳ","pref":"奈良県","city":"奈良市","address":"東九条町"},
{"zip_code":"6308237","kana_pref":"ﾅﾗｹﾝ","kana_city":"ﾅﾗｼ","kana_address":"ﾅｶｽｼﾞﾁｮｳ","pref":"奈良県","city":"奈良市","address":"中筋町"},
{"zip_code":"6308315","kana_pref":"ﾅﾗｹﾝ","kana_city":"ﾅﾗｼ","kana_address":"ﾅｶﾂｼﾞﾁｮｳ","pref":"奈良県","city":"奈良市","address":"中辻町"},
{"zip_code":"6302162","kana_pref":"ﾅﾗｹﾝ","kana_city":"ﾅﾗｼ","kana_address":"ﾅｶﾂﾞﾗﾁｮｳ","pref":"奈良県","city":"奈良市","address":"中貫町"},
{"zip_code":"6301124","kana_pref":"ﾅﾗｹﾝ","kana_city":"ﾅﾗｼ","kana_address":"ﾅｶﾉｶﾜﾁｮｳ","pref":"奈良県","city":"奈良市","address":"中ノ川町"},
{"zip_code":"6308201","kana_pref":"ﾅﾗｹﾝ","kana_city":"ﾅﾗｼ","kana_address":"ﾅｶﾉｶﾜﾁｮｳ","pref":"奈良県","city":"奈良市","address":"中ノ川町"},
{"zip_code":"6302163","kana_pref":"ﾅﾗｹﾝ","kana_city":"ﾅﾗｼ","kana_address":"ﾅｶﾉｼｮｳﾁｮｳ","pref":"奈良県","city":"奈良市","address":"中之庄町"},
{"zip_code":"6308333","kana_pref":"ﾅﾗｹﾝ","kana_city":"ﾅﾗｼ","kana_address":"ﾅｶﾉｼﾝﾔﾁｮｳ","pref":"奈良県","city":"奈良市","address":"中新屋町"},
{"zip_code":"6308401","kana_pref":"ﾅﾗｹﾝ","kana_city":"ﾅﾗｼ","kana_address":"ﾅｶﾊﾀﾁｮｳ","pref":"奈良県","city":"奈良市","address":"中畑町"},
{"zip_code":"6308037","kana_pref":"ﾅﾗｹﾝ","kana_city":"ﾅﾗｼ","kana_address":"ﾅｶﾏﾁ(5115-5149","pref":"奈良県","city":"奈良市","address":"中町（５１１５〜５１４９"},
{"zip_code":"6308037","kana_pref":"ﾅﾗｹﾝ","kana_city":"ﾅﾗｼ","kana_address":"5171","pref":"奈良県","city":"奈良市","address":"５１７１"},
{"zip_code":"6308037","kana_pref":"ﾅﾗｹﾝ","kana_city":"ﾅﾗｼ","kana_address":"5183","pref":"奈良県","city":"奈良市","address":"５１８３"},
{"zip_code":"6308037","kana_pref":"ﾅﾗｹﾝ","kana_city":"ﾅﾗｼ","kana_address":"5186","pref":"奈良県","city":"奈良市","address":"５１８６"},
{"zip_code":"6308037","kana_pref":"ﾅﾗｹﾝ","kana_city":"ﾅﾗｼ","kana_address":"","pref":"奈良県","city":"奈良市","address":""},
{"zip_code":"6308037","kana_pref":"ﾅﾗｹﾝ","kana_city":"ﾅﾗｼ","kana_address":"5192-5196","pref":"奈良県","city":"奈良市","address":"５１９２〜５１９６"},
{"zip_code":"6308037","kana_pref":"ﾅﾗｹﾝ","kana_city":"ﾅﾗｼ","kana_address":"5198-5212","pref":"奈良県","city":"奈良市","address":"５１９８〜５２１２"},
{"zip_code":"6308037","kana_pref":"ﾅﾗｹﾝ","kana_city":"ﾅﾗｼ","kana_address":"5227-5229","pref":"奈良県","city":"奈良市","address":"５２２７〜５２２９"},
{"zip_code":"6308037","kana_pref":"ﾅﾗｹﾝ","kana_city":"ﾅﾗｼ","kana_address":"","pref":"奈良県","city":"奈良市","address":""},
{"zip_code":"6308037","kana_pref":"ﾅﾗｹﾝ","kana_city":"ﾅﾗｼ","kana_address":"5239-5257","pref":"奈良県","city":"奈良市","address":"５２３９〜５２５７"},
{"zip_code":"6308037","kana_pref":"ﾅﾗｹﾝ","kana_city":"ﾅﾗｼ","kana_address":"5263","pref":"奈良県","city":"奈良市","address":"５２６３"},
{"zip_code":"6308037","kana_pref":"ﾅﾗｹﾝ","kana_city":"ﾅﾗｼ","kana_address":"5269-5271","pref":"奈良県","city":"奈良市","address":"５２６９〜５２７１"},
{"zip_code":"6308037","kana_pref":"ﾅﾗｹﾝ","kana_city":"ﾅﾗｼ","kana_address":"5275","pref":"奈良県","city":"奈良市","address":"５２７５"},
{"zip_code":"6308037","kana_pref":"ﾅﾗｹﾝ","kana_city":"ﾅﾗｼ","kana_address":"","pref":"奈良県","city":"奈良市","address":""},
{"zip_code":"6308037","kana_pref":"ﾅﾗｹﾝ","kana_city":"ﾅﾗｼ","kana_address":"5276-4","pref":"奈良県","city":"奈良市","address":"５２７６−４"},
{"zip_code":"6308037","kana_pref":"ﾅﾗｹﾝ","kana_city":"ﾅﾗｼ","kana_address":"5276-5","pref":"奈良県","city":"奈良市","address":"５２７６−５"},
{"zip_code":"6308037","kana_pref":"ﾅﾗｹﾝ","kana_city":"ﾅﾗｼ","kana_address":"5277-5280","pref":"奈良県","city":"奈良市","address":"５２７７〜５２８０"},
{"zip_code":"6308037","kana_pref":"ﾅﾗｹﾝ","kana_city":"ﾅﾗｼ","kana_address":"5284-","pref":"奈良県","city":"奈良市","address":"５２８４〜"},
{"zip_code":"6308037","kana_pref":"ﾅﾗｹﾝ","kana_city":"ﾅﾗｼ","kana_address":"5312","pref":"奈良県","city":"奈良市","address":"５３１２"},
{"zip_code":"6308037","kana_pref":"ﾅﾗｹﾝ","kana_city":"ﾅﾗｼ","kana_address":"5314","pref":"奈良県","city":"奈良市","address":"５３１４"},
{"zip_code":"6308037","kana_pref":"ﾅﾗｹﾝ","kana_city":"ﾅﾗｼ","kana_address":"5316-5327","pref":"奈良県","city":"奈良市","address":"５３１６〜５３２７"},
{"zip_code":"6308037","kana_pref":"ﾅﾗｹﾝ","kana_city":"ﾅﾗｼ","kana_address":"5346","pref":"奈良県","city":"奈良市","address":"５３４６"},
{"zip_code":"6308037","kana_pref":"ﾅﾗｹﾝ","kana_city":"ﾅﾗｼ","kana_address":"5349","pref":"奈良県","city":"奈良市","address":"５３４９"},
{"zip_code":"6308037","kana_pref":"ﾅﾗｹﾝ","kana_city":"ﾅﾗｼ","kana_address":"","pref":"奈良県","city":"奈良市","address":""},
{"zip_code":"6308037","kana_pref":"ﾅﾗｹﾝ","kana_city":"ﾅﾗｼ","kana_address":"5351-5352","pref":"奈良県","city":"奈良市","address":"５３５１〜５３５２"},
{"zip_code":"6308037","kana_pref":"ﾅﾗｹﾝ","kana_city":"ﾅﾗｼ","kana_address":"5355-5362","pref":"奈良県","city":"奈良市","address":"５３５５〜５３６２"},
{"zip_code":"6308037","kana_pref":"ﾅﾗｹﾝ","kana_city":"ﾅﾗｼ","kana_address":"5364-5424","pref":"奈良県","city":"奈良市","address":"５３６４〜５４２４"},
{"zip_code":"6308037","kana_pref":"ﾅﾗｹﾝ","kana_city":"ﾅﾗｼ","kana_address":"","pref":"奈良県","city":"奈良市","address":""},
{"zip_code":"6308037","kana_pref":"ﾅﾗｹﾝ","kana_city":"ﾅﾗｼ","kana_address":"5426","pref":"奈良県","city":"奈良市","address":"５４２６"},
{"zip_code":"6308037","kana_pref":"ﾅﾗｹﾝ","kana_city":"ﾅﾗｼ","kana_address":"5429-5430","pref":"奈良県","city":"奈良市","address":"５４２９〜５４３０"},
{"zip_code":"6308037","kana_pref":"ﾅﾗｹﾝ","kana_city":"ﾅﾗｼ","kana_address":"5445","pref":"奈良県","city":"奈良市","address":"５４４５"},
{"zip_code":"6308037","kana_pref":"ﾅﾗｹﾝ","kana_city":"ﾅﾗｼ","kana_address":"5455","pref":"奈良県","city":"奈良市","address":"５４５５"},
{"zip_code":"6308037","kana_pref":"ﾅﾗｹﾝ","kana_city":"ﾅﾗｼ","kana_address":"5461","pref":"奈良県","city":"奈良市","address":"５４６１"},
{"zip_code":"6308037","kana_pref":"ﾅﾗｹﾝ","kana_city":"ﾅﾗｼ","kana_address":"","pref":"奈良県","city":"奈良市","address":""},
{"zip_code":"6308037","kana_pref":"ﾅﾗｹﾝ","kana_city":"ﾅﾗｼ","kana_address":"5463","pref":"奈良県","city":"奈良市","address":"５４６３"},
{"zip_code":"6308037","kana_pref":"ﾅﾗｹﾝ","kana_city":"ﾅﾗｼ","kana_address":"5470","pref":"奈良県","city":"奈良市","address":"５４７０"},
{"zip_code":"6308037","kana_pref":"ﾅﾗｹﾝ","kana_city":"ﾅﾗｼ","kana_address":"5472","pref":"奈良県","city":"奈良市","address":"５４７２"},
{"zip_code":"6308037","kana_pref":"ﾅﾗｹﾝ","kana_city":"ﾅﾗｼ","kana_address":"5475","pref":"奈良県","city":"奈良市","address":"５４７５"},
{"zip_code":"6308037","kana_pref":"ﾅﾗｹﾝ","kana_city":"ﾅﾗｼ","kana_address":"5482-5529)","pref":"奈良県","city":"奈良市","address":"５４８２〜５５２９）"},
{"zip_code":"6308292","kana_pref":"ﾅﾗｹﾝ","kana_city":"ﾅﾗｼ","kana_address":"ﾅｶﾐｶﾄﾞﾁｮｳ","pref":"奈良県","city":"奈良市","address":"中御門町"},
{"zip_code":"6302165","kana_pref":"ﾅﾗｹﾝ","kana_city":"ﾅﾗｼ","kana_address":"ﾅｶﾞﾀﾆﾁｮｳ","pref":"奈良県","city":"奈良市","address":"長谷町"},
{"zip_code":"6308253","kana_pref":"ﾅﾗｹﾝ","kana_city":"ﾅﾗｼ","kana_address":"ﾅｼﾊﾗﾁｮｳ","pref":"奈良県","city":"奈良市","address":"内侍原町"},
{"zip_code":"6308264","kana_pref":"ﾅﾗｹﾝ","kana_city":"ﾅﾗｼ","kana_address":"ﾅﾍﾞﾔﾁｮｳ","pref":"奈良県","city":"奈良市","address":"鍋屋町"},
{"zip_code":"6308107","kana_pref":"ﾅﾗｹﾝ","kana_city":"ﾅﾗｼ","kana_address":"ﾅﾎﾁｮｳ","pref":"奈良県","city":"奈良市","address":"奈保町"},
{"zip_code":"6308104","kana_pref":"ﾅﾗｹﾝ","kana_city":"ﾅﾗｼ","kana_address":"ﾅﾗｻﾞｶﾁｮｳ","pref":"奈良県","city":"奈良市","address":"奈良阪町"},
{"zip_code":"6308335","kana_pref":"ﾅﾗｹﾝ","kana_city":"ﾅﾗｼ","kana_address":"ﾅﾙｶﾜﾁｮｳ","pref":"奈良県","city":"奈良市","address":"鳴川町"},
{"zip_code":"6308287","kana_pref":"ﾅﾗｹﾝ","kana_city":"ﾅﾗｼ","kana_address":"ﾆｼｶﾈﾅｶﾞﾁｮｳ","pref":"奈良県","city":"奈良市","address":"西包永町"},
{"zip_code":"6308325","kana_pref":"ﾅﾗｹﾝ","kana_city":"ﾅﾗｼ","kana_address":"ﾆｼｷﾂｼﾞﾁｮｳ","pref":"奈良県","city":"奈良市","address":"西木辻町"},
{"zip_code":"6308307","kana_pref":"ﾅﾗｹﾝ","kana_city":"ﾅﾗｼ","kana_address":"ﾆｼｷﾃﾞﾗﾁｮｳ","pref":"奈良県","city":"奈良市","address":"西紀寺町"},
{"zip_code":"6301105","kana_pref":"ﾅﾗｹﾝ","kana_city":"ﾅﾗｼ","kana_address":"ﾆｼｻｶﾞﾜﾁｮｳ","pref":"奈良県","city":"奈良市","address":"西狭川町"},
{"zip_code":"6308291","kana_pref":"ﾅﾗｹﾝ","kana_city":"ﾅﾗｼ","kana_address":"ﾆｼｻｻﾎﾞｺﾁｮｳ","pref":"奈良県","city":"奈良市","address":"西笹鉾町"},
{"zip_code":"6308251","kana_pref":"ﾅﾗｹﾝ","kana_city":"ﾅﾗｼ","kana_address":"ﾆｼｼﾝｻﾞｲｹｺﾞｳｼｮﾁｮｳ","pref":"奈良県","city":"奈良市","address":"西新在家号所町"},
{"zip_code":"6308248","kana_pref":"ﾅﾗｹﾝ","kana_city":"ﾅﾗｼ","kana_address":"ﾆｼｼﾝｻﾞｲｹﾁｮｳ","pref":"奈良県","city":"奈良市","address":"西新在家町"},
{"zip_code":"6308345","kana_pref":"ﾅﾗｹﾝ","kana_city":"ﾅﾗｼ","kana_address":"ﾆｼｼﾞｮｳﾄﾞﾁｮｳ","pref":"奈良県","city":"奈良市","address":"西城戸町"},
{"zip_code":"6308372","kana_pref":"ﾅﾗｹﾝ","kana_city":"ﾅﾗｼ","kana_address":"ﾆｼﾃﾗﾊﾞﾔｼﾁｮｳ","pref":"奈良県","city":"奈良市","address":"西寺林町"},
{"zip_code":"6308042","kana_pref":"ﾅﾗｹﾝ","kana_city":"ﾅﾗｼ","kana_address":"ﾆｼﾉｷｮｳﾁｮｳ","pref":"奈良県","city":"奈良市","address":"西ノ京町"},
{"zip_code":"6308245","kana_pref":"ﾅﾗｹﾝ","kana_city":"ﾅﾗｼ","kana_address":"ﾆｼﾉｻｶﾁｮｳ","pref":"奈良県","city":"奈良市","address":"西之阪町"},
{"zip_code":"6308334","kana_pref":"ﾅﾗｹﾝ","kana_city":"ﾅﾗｼ","kana_address":"ﾆｼﾉｼﾝﾔﾁｮｳ","pref":"奈良県","city":"奈良市","address":"西新屋町"},
{"zip_code":"6308225","kana_pref":"ﾅﾗｹﾝ","kana_city":"ﾅﾗｼ","kana_address":"ﾆｼﾐｶﾄﾞﾁｮｳ","pref":"奈良県","city":"奈良市","address":"西御門町"},
{"zip_code":"6308012","kana_pref":"ﾅﾗｹﾝ","kana_city":"ﾅﾗｼ","kana_address":"ﾆｼﾞｮｳｵｵｼﾞﾐﾅﾐ","pref":"奈良県","city":"奈良市","address":"二条大路南"},
{"zip_code":"6308002","kana_pref":"ﾅﾗｹﾝ","kana_city":"ﾅﾗｼ","kana_address":"ﾆｼﾞｮｳﾁｮｳ","pref":"奈良県","city":"奈良市","address":"二条町"},
{"zip_code":"6301235","kana_pref":"ﾅﾗｹﾝ","kana_city":"ﾅﾗｼ","kana_address":"ﾆｭｳﾁｮｳ","pref":"奈良県","city":"奈良市","address":"丹生町"},
{"zip_code":"6301244","kana_pref":"ﾅﾗｹﾝ","kana_city":"ﾅﾗｼ","kana_address":"ﾆﾝﾆｸｾﾝﾁｮｳ","pref":"奈良県","city":"奈良市","address":"忍辱山町"},
{"zip_code":"6308318","kana_pref":"ﾅﾗｹﾝ","kana_city":"ﾅﾗｼ","kana_address":"ﾉｳｲﾝﾁｮｳ","pref":"奈良県","city":"奈良市","address":"納院町"},
{"zip_code":"6308213","kana_pref":"ﾅﾗｹﾝ","kana_city":"ﾅﾗｼ","kana_address":"ﾉﾎﾞﾘｵｵｼﾞﾁｮｳ","pref":"奈良県","city":"奈良市","address":"登大路町"},
{"zip_code":"6308217","kana_pref":"ﾅﾗｹﾝ","kana_city":"ﾅﾗｼ","kana_address":"ﾊｼﾓﾄﾁｮｳ","pref":"奈良県","city":"奈良市","address":"橋本町"},
{"zip_code":"6308257","kana_pref":"ﾅﾗｹﾝ","kana_city":"ﾅﾗｼ","kana_address":"ﾊﾀｹﾅｶﾁｮｳ","pref":"奈良県","city":"奈良市","address":"畑中町"},
{"zip_code":"6308145","kana_pref":"ﾅﾗｹﾝ","kana_city":"ﾅﾗｼ","kana_address":"ﾊﾁｼﾞｮｳ","pref":"奈良県","city":"奈良市","address":"八条"},
{"zip_code":"6308146","kana_pref":"ﾅﾗｹﾝ","kana_city":"ﾅﾗｼ","kana_address":"ﾊﾁｼﾞｮｳﾁｮｳ","pref":"奈良県","city":"奈良市","address":"八条町"},
{"zip_code":"6308414","kana_pref":"ﾅﾗｹﾝ","kana_city":"ﾅﾗｼ","kana_address":"ﾊﾁﾌﾞｾﾁｮｳ","pref":"奈良県","city":"奈良市","address":"鉢伏町"},
{"zip_code":"6308266","kana_pref":"ﾅﾗｹﾝ","kana_city":"ﾅﾗｼ","kana_address":"ﾊﾅｼﾊﾞﾁｮｳ","pref":"奈良県","city":"奈良市","address":"花芝町"},
{"zip_code":"6308328","kana_pref":"ﾅﾗｹﾝ","kana_city":"ﾅﾗｼ","kana_address":"ﾊﾅｿﾞﾉﾁｮｳ","pref":"奈良県","city":"奈良市","address":"花園町"},
{"zip_code":"6308354","kana_pref":"ﾅﾗｹﾝ","kana_city":"ﾅﾗｼ","kana_address":"ﾊﾞﾊﾞﾁｮｳ","pref":"奈良県","city":"奈良市","address":"馬場町"},
{"zip_code":"6308227","kana_pref":"ﾅﾗｹﾝ","kana_city":"ﾅﾗｼ","kana_address":"ﾊﾔｼｺｳｼﾞﾁｮｳ","pref":"奈良県","city":"奈良市","address":"林小路町"},
{"zip_code":"6308295","kana_pref":"ﾅﾗｹﾝ","kana_city":"ﾅﾗｼ","kana_address":"ﾊﾝﾀﾞﾂｷﾇｹﾁｮｳ","pref":"奈良県","city":"奈良市","address":"半田突抜町"},
{"zip_code":"6308111","kana_pref":"ﾅﾗｹﾝ","kana_city":"ﾅﾗｼ","kana_address":"ﾊﾝﾀﾞﾋﾞﾗｷﾁｮｳ","pref":"奈良県","city":"奈良市","address":"半田開町"},
{"zip_code":"6308284","kana_pref":"ﾅﾗｹﾝ","kana_city":"ﾅﾗｼ","kana_address":"ﾊﾝﾀﾞﾖｺﾏﾁ","pref":"奈良県","city":"奈良市","address":"半田横町"},
{"zip_code":"6308102","kana_pref":"ﾅﾗｹﾝ","kana_city":"ﾅﾗｼ","kana_address":"ﾊﾝﾆｬｼﾞﾁｮｳ","pref":"奈良県","city":"奈良市","address":"般若寺町"},
{"zip_code":"6302173","kana_pref":"ﾅﾗｹﾝ","kana_city":"ﾅﾗｼ","kana_address":"ﾋｶﾞｻﾁｮｳ","pref":"奈良県","city":"奈良市","address":"日笠町"},
{"zip_code":"6308286","kana_pref":"ﾅﾗｹﾝ","kana_city":"ﾅﾗｼ","kana_address":"ﾋｶﾞｼｶﾈﾅｶﾞﾁｮｳ","pref":"奈良県","city":"奈良市","address":"東包永町"},
{"zip_code":"6308327","kana_pref":"ﾅﾗｹﾝ","kana_city":"ﾅﾗｼ","kana_address":"ﾋｶﾞｼｷﾂｼﾞﾁｮｳ","pref":"奈良県","city":"奈良市","address":"東木辻町"},
{"zip_code":"6308305","kana_pref":"ﾅﾗｹﾝ","kana_city":"ﾅﾗｼ","kana_address":"ﾋｶﾞｼｷﾃﾞﾗﾁｮｳ","pref":"奈良県","city":"奈良市","address":"東紀寺町"},
{"zip_code":"6308288","kana_pref":"ﾅﾗｹﾝ","kana_city":"ﾅﾗｼ","kana_address":"ﾋｶﾞｼｻｻﾎﾞｺﾁｮｳ","pref":"奈良県","city":"奈良市","address":"東笹鉾町"},
{"zip_code":"6308272","kana_pref":"ﾅﾗｹﾝ","kana_city":"ﾅﾗｼ","kana_address":"ﾋｶﾞｼｼﾝｻﾞｲｹﾁｮｳ","pref":"奈良県","city":"奈良市","address":"東新在家町"},
{"zip_code":"6308344","kana_pref":"ﾅﾗｹﾝ","kana_city":"ﾅﾗｼ","kana_address":"ﾋｶﾞｼｼﾞｮｳﾄﾞﾁｮｳ","pref":"奈良県","city":"奈良市","address":"東城戸町"},
{"zip_code":"6308362","kana_pref":"ﾅﾗｹﾝ","kana_city":"ﾅﾗｼ","kana_address":"ﾋｶﾞｼﾃﾗﾊﾞﾔｼﾁｮｳ","pref":"奈良県","city":"奈良市","address":"東寺林町"},
{"zip_code":"6301125","kana_pref":"ﾅﾗｹﾝ","kana_city":"ﾅﾗｼ","kana_address":"ﾋｶﾞｼﾅﾙｶﾜﾁｮｳ","pref":"奈良県","city":"奈良市","address":"東鳴川町"},
{"zip_code":"6308203","kana_pref":"ﾅﾗｹﾝ","kana_city":"ﾅﾗｼ","kana_address":"ﾋｶﾞｼﾉｻｶﾁｮｳ","pref":"奈良県","city":"奈良市","address":"東之阪町"},
{"zip_code":"6308215","kana_pref":"ﾅﾗｹﾝ","kana_city":"ﾅﾗｼ","kana_address":"ﾋｶﾞｼﾑｷﾅｶﾏﾁ","pref":"奈良県","city":"奈良市","address":"東向中町"},
{"zip_code":"6308216","kana_pref":"ﾅﾗｹﾝ","kana_city":"ﾅﾗｼ","kana_address":"ﾋｶﾞｼﾑｷﾐﾅﾐﾏﾁ","pref":"奈良県","city":"奈良市","address":"東向南町"},
{"zip_code":"6308214","kana_pref":"ﾅﾗｹﾝ","kana_city":"ﾅﾗｼ","kana_address":"ﾋｶﾞｼﾑｷｷﾀﾏﾁ","pref":"奈良県","city":"奈良市","address":"東向北町"},
{"zip_code":"6308383","kana_pref":"ﾅﾗｹﾝ","kana_city":"ﾅﾗｼ","kana_address":"ﾋﾞｼｬﾓﾝﾁｮｳ","pref":"奈良県","city":"奈良市","address":"毘沙門町"},
{"zip_code":"6308302","kana_pref":"ﾅﾗｹﾝ","kana_city":"ﾅﾗｼ","kana_address":"ﾋﾞｬｸｺﾞｳｼﾞﾁｮｳ","pref":"奈良県","city":"奈良市","address":"白毫寺町"},
{"zip_code":"6301122","kana_pref":"ﾅﾗｹﾝ","kana_city":"ﾅﾗｼ","kana_address":"ﾋﾗｼﾐｽﾞﾁｮｳ","pref":"奈良県","city":"奈良市","address":"平清水町"},
{"zip_code":"6301101","kana_pref":"ﾅﾗｹﾝ","kana_city":"ﾅﾗｼ","kana_address":"ﾋﾛｵｶﾁｮｳ","pref":"奈良県","city":"奈良市","address":"広岡町"},
{"zip_code":"6308381","kana_pref":"ﾅﾗｹﾝ","kana_city":"ﾅﾗｼ","kana_address":"ﾌｸﾁｲﾝﾁｮｳ","pref":"奈良県","city":"奈良市","address":"福智院町"},
{"zip_code":"6308394","kana_pref":"ﾅﾗｹﾝ","kana_city":"ﾅﾗｼ","kana_address":"ﾌｼｶﾞﾂﾞｼﾁｮｳ","pref":"奈良県","city":"奈良市","address":"不審ヶ辻子町"},
{"zip_code":"6308421","kana_pref":"ﾅﾗｹﾝ","kana_city":"ﾅﾗｼ","kana_address":"ﾌｼﾞﾜﾗﾁｮｳ","pref":"奈良県","city":"奈良市","address":"藤原町"},
{"zip_code":"6308258","kana_pref":"ﾅﾗｹﾝ","kana_city":"ﾅﾗｼ","kana_address":"ﾌﾅﾊｼﾁｮｳ","pref":"奈良県","city":"奈良市","address":"船橋町"},
{"zip_code":"6308424","kana_pref":"ﾅﾗｹﾝ","kana_city":"ﾅﾗｼ","kana_address":"ﾌﾙｲﾁﾁｮｳ","pref":"奈良県","city":"奈良市","address":"古市町"},
{"zip_code":"6301123","kana_pref":"ﾅﾗｹﾝ","kana_city":"ﾅﾗｼ","kana_address":"ﾌﾙｻﾄﾁｮｳ","pref":"奈良県","city":"奈良市","address":"生琉里町"},
{"zip_code":"6302153","kana_pref":"ﾅﾗｹﾝ","kana_city":"ﾅﾗｼ","kana_address":"ﾍﾞｯｼﾖﾁｮｳ","pref":"奈良県","city":"奈良市","address":"別所町"},
{"zip_code":"6301126","kana_pref":"ﾅﾗｹﾝ","kana_city":"ﾅﾗｼ","kana_address":"ﾎｳﾖｳﾁｮｳ","pref":"奈良県","city":"奈良市","address":"法用町"},
{"zip_code":"6308108","kana_pref":"ﾅﾗｹﾝ","kana_city":"ﾅﾗｼ","kana_address":"ﾎｳﾚﾝｻﾎﾔﾏ","pref":"奈良県","city":"奈良市","address":"法蓮佐保山"},
{"zip_code":"6308113","kana_pref":"ﾅﾗｹﾝ","kana_city":"ﾅﾗｼ","kana_address":"ﾎｳﾚﾝﾁｮｳ","pref":"奈良県","city":"奈良市","address":"法蓮町"},
{"zip_code":"6308001","kana_pref":"ﾅﾗｹﾝ","kana_city":"ﾅﾗｼ","kana_address":"ﾎｯｹｼﾞﾁｮｳ","pref":"奈良県","city":"奈良市","address":"法華寺町"},
{"zip_code":"6308231","kana_pref":"ﾅﾗｹﾝ","kana_city":"ﾅﾗｼ","kana_address":"ﾎﾝｺﾓﾘﾁｮｳ","pref":"奈良県","city":"奈良市","address":"本子守町"},
{"zip_code":"6308271","kana_pref":"ﾅﾗｹﾝ","kana_city":"ﾅﾗｼ","kana_address":"ﾎﾞｳﾔｼｷﾁｮｳ","pref":"奈良県","city":"奈良市","address":"坊屋敷町"},
{"zip_code":"6302168","kana_pref":"ﾅﾗｹﾝ","kana_city":"ﾅﾗｼ","kana_address":"ﾎﾞﾀﾞｲｾﾝﾁｮｳ","pref":"奈良県","city":"奈良市","address":"菩提山町"},
{"zip_code":"6308413","kana_pref":"ﾅﾗｹﾝ","kana_city":"ﾅﾗｼ","kana_address":"ﾎﾞﾀﾞｲｾﾝﾁｮｳ","pref":"奈良県","city":"奈良市","address":"菩提山町"},
{"zip_code":"6308402","kana_pref":"ﾅﾗｹﾝ","kana_city":"ﾅﾗｼ","kana_address":"ﾏｲﾀﾆﾁｮｳ","pref":"奈良県","city":"奈良市","address":"米谷町"},
{"zip_code":"6308268","kana_pref":"ﾅﾗｹﾝ","kana_city":"ﾅﾗｼ","kana_address":"ﾏﾒﾔﾏﾁｮｳ","pref":"奈良県","city":"奈良市","address":"大豆山町"},
{"zip_code":"6308267","kana_pref":"ﾅﾗｹﾝ","kana_city":"ﾅﾗｼ","kana_address":"ﾏﾒﾔﾏﾂｷﾇｹﾁｮｳ","pref":"奈良県","city":"奈良市","address":"大豆山突抜町"},
{"zip_code":"6308331","kana_pref":"ﾅﾗｹﾝ","kana_city":"ﾅﾗｼ","kana_address":"ﾐﾂﾑﾈﾁｮｳ","pref":"奈良県","city":"奈良市","address":"三棟町"},
{"zip_code":"6308373","kana_pref":"ﾅﾗｹﾝ","kana_city":"ﾅﾗｼ","kana_address":"ﾐﾅﾐｲﾁﾁｮｳ","pref":"奈良県","city":"奈良市","address":"南市町"},
{"zip_code":"6308355","kana_pref":"ﾅﾗｹﾝ","kana_city":"ﾅﾗｼ","kana_address":"ﾐﾅﾐｳｵﾔﾁｮｳ","pref":"奈良県","city":"奈良市","address":"南魚屋町"},
{"zip_code":"6308304","kana_pref":"ﾅﾗｹﾝ","kana_city":"ﾅﾗｼ","kana_address":"ﾐﾅﾐｶｲﾉﾂﾞｶﾁｮｳ","pref":"奈良県","city":"奈良市","address":"南肘塚町"},
{"zip_code":"6308303","kana_pref":"ﾅﾗｹﾝ","kana_city":"ﾅﾗｼ","kana_address":"ﾐﾅﾐｷﾃﾞﾗﾁｮｳ","pref":"奈良県","city":"奈良市","address":"南紀寺町"},
{"zip_code":"6308141","kana_pref":"ﾅﾗｹﾝ","kana_city":"ﾅﾗｼ","kana_address":"ﾐﾅﾐｷｮｳﾊﾞﾃﾁｮｳ","pref":"奈良県","city":"奈良市","address":"南京終町"},
{"zip_code":"6301112","kana_pref":"ﾅﾗｹﾝ","kana_city":"ﾅﾗｼ","kana_address":"ﾐﾅﾐｼｮｳﾁｮｳ","pref":"奈良県","city":"奈良市","address":"南庄町"},
{"zip_code":"6308356","kana_pref":"ﾅﾗｹﾝ","kana_city":"ﾅﾗｼ","kana_address":"ﾐﾅﾐｼﾝﾏﾁ","pref":"奈良県","city":"奈良市","address":"南新町"},
{"zip_code":"6308016","kana_pref":"ﾅﾗｹﾝ","kana_city":"ﾅﾗｼ","kana_address":"ﾐﾅﾐｼﾝﾁｮｳ","pref":"奈良県","city":"奈良市","address":"南新町"},
{"zip_code":"6308341","kana_pref":"ﾅﾗｹﾝ","kana_city":"ﾅﾗｼ","kana_address":"ﾐﾅﾐｼﾞｮｳﾄﾞﾁｮｳ","pref":"奈良県","city":"奈良市","address":"南城戸町"},
{"zip_code":"6302164","kana_pref":"ﾅﾗｹﾝ","kana_city":"ﾅﾗｼ","kana_address":"ﾐﾅﾐﾀﾜﾗﾁｮｳ","pref":"奈良県","city":"奈良市","address":"南田原町"},
{"zip_code":"6308404","kana_pref":"ﾅﾗｹﾝ","kana_city":"ﾅﾗｼ","kana_address":"ﾐﾅﾐﾂﾊﾞｵﾁｮｳ","pref":"奈良県","city":"奈良市","address":"南椿尾町"},
{"zip_code":"6308347","kana_pref":"ﾅﾗｹﾝ","kana_city":"ﾅﾗｼ","kana_address":"ﾐﾅﾐﾅｶﾏﾁ","pref":"奈良県","city":"奈良市","address":"南中町"},
{"zip_code":"6308443","kana_pref":"ﾅﾗｹﾝ","kana_city":"ﾅﾗｼ","kana_address":"ﾐﾅﾐﾅｶﾞｲﾁｮｳ","pref":"奈良県","city":"奈良市","address":"南永井町"},
{"zip_code":"6308281","kana_pref":"ﾅﾗｹﾝ","kana_city":"ﾅﾗｼ","kana_address":"ﾐﾅﾐﾊﾝﾀﾞﾅｶﾏﾁ","pref":"奈良県","city":"奈良市","address":"南半田中町"},
{"zip_code":"6308277","kana_pref":"ﾅﾗｹﾝ","kana_city":"ﾅﾗｼ","kana_address":"ﾐﾅﾐﾊﾝﾀﾞﾋｶﾞｼﾏﾁ","pref":"奈良県","city":"奈良市","address":"南半田東町"},
{"zip_code":"6308282","kana_pref":"ﾅﾗｹﾝ","kana_city":"ﾅﾗｼ","kana_address":"ﾐﾅﾐﾊﾝﾀﾞﾆｼﾏﾁ","pref":"奈良県","city":"奈良市","address":"南半田西町"},
{"zip_code":"6308342","kana_pref":"ﾅﾗｹﾝ","kana_city":"ﾅﾗｼ","kana_address":"ﾐﾅﾐﾌｸﾛﾁｮｳ","pref":"奈良県","city":"奈良市","address":"南袋町"},
{"zip_code":"6308351","kana_pref":"ﾅﾗｹﾝ","kana_city":"ﾅﾗｼ","kana_address":"ﾐﾅﾐﾌﾛﾁｮｳ","pref":"奈良県","city":"奈良市","address":"南風呂町"},
{"zip_code":"6302151","kana_pref":"ﾅﾗｹﾝ","kana_city":"ﾅﾗｼ","kana_address":"ﾐﾏﾁｮｳ","pref":"奈良県","city":"奈良市","address":"水間町"},
{"zip_code":"6302175","kana_pref":"ﾅﾗｹﾝ","kana_city":"ﾅﾗｼ","kana_address":"ﾐｮｳｶﾞﾁｮｳ","pref":"奈良県","city":"奈良市","address":"茗荷町"},
{"zip_code":"6308222","kana_pref":"ﾅﾗｹﾝ","kana_city":"ﾅﾗｼ","kana_address":"ﾓﾁｲﾄﾞﾉﾁｮｳ","pref":"奈良県","city":"奈良市","address":"餅飯殿町"},
{"zip_code":"6301231","kana_pref":"ﾅﾗｹﾝ","kana_city":"ﾅﾗｼ","kana_address":"ﾔｷﾞｭｳｼﾓﾁｮｳ","pref":"奈良県","city":"奈良市","address":"柳生下町"},
{"zip_code":"6301237","kana_pref":"ﾅﾗｹﾝ","kana_city":"ﾅﾗｼ","kana_address":"ﾔｷﾞｭｳﾁｮｳ","pref":"奈良県","city":"奈良市","address":"柳生町"},
{"zip_code":"6308321","kana_pref":"ﾅﾗｹﾝ","kana_city":"ﾅﾗｼ","kana_address":"ﾔｸｼﾄﾞｳﾁｮｳ","pref":"奈良県","city":"奈良市","address":"薬師堂町"},
{"zip_code":"6308435","kana_pref":"ﾅﾗｹﾝ","kana_city":"ﾅﾗｼ","kana_address":"ﾔｼﾏﾁｮｳ","pref":"奈良県","city":"奈良市","address":"八島町"},
{"zip_code":"6302166","kana_pref":"ﾅﾗｹﾝ","kana_city":"ﾅﾗｼ","kana_address":"ﾔﾀﾞﾜﾗﾁｮｳ","pref":"奈良県","city":"奈良市","address":"矢田原町"},
{"zip_code":"6308353","kana_pref":"ﾅﾗｹﾝ","kana_city":"ﾅﾗｼ","kana_address":"ﾔﾅｷﾞﾏﾁ","pref":"奈良県","city":"奈良市","address":"柳町"},
{"zip_code":"6308434","kana_pref":"ﾅﾗｹﾝ","kana_city":"ﾅﾗｼ","kana_address":"ﾔﾏﾁｮｳ","pref":"奈良県","city":"奈良市","address":"山町"},
{"zip_code":"6308283","kana_pref":"ﾅﾗｹﾝ","kana_city":"ﾅﾗｼ","kana_address":"ﾕﾙｷﾞﾁｮｳ","pref":"奈良県","city":"奈良市","address":"油留木町"},
{"zip_code":"6308422","kana_pref":"ﾅﾗｹﾝ","kana_city":"ﾅﾗｼ","kana_address":"ﾖｺｲ","pref":"奈良県","city":"奈良市","address":"横井"},
{"zip_code":"6308422","kana_pref":"ﾅﾗｹﾝ","kana_city":"ﾅﾗｼ","kana_address":"ﾖｺｲﾁｮｳ","pref":"奈良県","city":"奈良市","address":"横井町"},
{"zip_code":"6302174","kana_pref":"ﾅﾗｹﾝ","kana_city":"ﾅﾗｼ","kana_address":"ﾖｺﾀﾁｮｳ","pref":"奈良県","city":"奈良市","address":"横田町"},
{"zip_code":"6308043","kana_pref":"ﾅﾗｹﾝ","kana_city":"ﾅﾗｼ","kana_address":"ﾛｸｼﾞｮｳ","pref":"奈良県","city":"奈良市","address":"六条"},
{"zip_code":"6308045","kana_pref":"ﾅﾗｹﾝ","kana_city":"ﾅﾗｼ","kana_address":"ﾛｸｼﾞｮｳﾐﾄﾞﾘﾏﾁ","pref":"奈良県","city":"奈良市","address":"六条緑町"},
{"zip_code":"6308044","kana_pref":"ﾅﾗｹﾝ","kana_city":"ﾅﾗｼ","kana_address":"ﾛｸｼﾞｮｳﾆｼ","pref":"奈良県","city":"奈良市","address":"六条西"},
{"zip_code":"6308041","kana_pref":"ﾅﾗｹﾝ","kana_city":"ﾅﾗｼ","kana_address":"ﾛｸｼﾞｮｳﾁｮｳ","pref":"奈良県","city":"奈良市","address":"六条町"},
{"zip_code":"6308425","kana_pref":"ﾅﾗｹﾝ","kana_city":"ﾅﾗｼ","kana_address":"ﾛｸﾔｵﾝﾁｮｳ","pref":"奈良県","city":"奈良市","address":"鹿野園町"},
{"zip_code":"6308337","kana_pref":"ﾅﾗｹﾝ","kana_city":"ﾅﾗｼ","kana_address":"ﾜｷﾄﾞﾁｮｳ","pref":"奈良県","city":"奈良市","address":"脇戸町"},
{"zip_code":"6302176","kana_pref":"ﾅﾗｹﾝ","kana_city":"ﾅﾗｼ","kana_address":"ﾜﾀﾞﾁｮｳ","pref":"奈良県","city":"奈良市","address":"和田町"},
{"zip_code":"6300200","kana_pref":"ﾅﾗｹﾝ","kana_city":"ｲｺﾏｼ","kana_address":"","pref":"奈良県","city":"生駒市","address":""},
{"zip_code":"6300239","kana_pref":"ﾅﾗｹﾝ","kana_city":"ｲｺﾏｼ","kana_address":"ｱｵﾔﾏﾀﾞｲ","pref":"奈良県","city":"生駒市","address":"青山台"},
{"zip_code":"6300132","kana_pref":"ﾅﾗｹﾝ","kana_city":"ｲｺﾏｼ","kana_address":"ｱｽｶﾀﾞｲ","pref":"奈良県","city":"生駒市","address":"あすか台"},
{"zip_code":"6300133","kana_pref":"ﾅﾗｹﾝ","kana_city":"ｲｺﾏｼ","kana_address":"ｱｽｶﾉﾐﾅﾐ","pref":"奈良県","city":"生駒市","address":"あすか野南"},
{"zip_code":"6300134","kana_pref":"ﾅﾗｹﾝ","kana_city":"ｲｺﾏｼ","kana_address":"ｱｽｶﾉｷﾀ","pref":"奈良県","city":"生駒市","address":"あすか野北"},
{"zip_code":"6300233","kana_pref":"ﾅﾗｹﾝ","kana_city":"ｲｺﾏｼ","kana_address":"ｱﾘｻﾄﾁｮｳ","pref":"奈良県","city":"生駒市","address":"有里町"},
{"zip_code":"6300202","kana_pref":"ﾅﾗｹﾝ","kana_city":"ｲｺﾏｼ","kana_address":"ｲｺﾏﾀﾞｲﾐﾅﾐ","pref":"奈良県","city":"生駒市","address":"生駒台南"},
{"zip_code":"6300203","kana_pref":"ﾅﾗｹﾝ","kana_city":"ｲｺﾏｼ","kana_address":"ｲｺﾏﾀﾞｲｷﾀ","pref":"奈良県","city":"生駒市","address":"生駒台北"},
{"zip_code":"6300222","kana_pref":"ﾅﾗｹﾝ","kana_city":"ｲｺﾏｼ","kana_address":"ｲﾁﾌﾞﾁｮｳ","pref":"奈良県","city":"生駒市","address":"壱分町"},
{"zip_code":"6300232","kana_pref":"ﾅﾗｹﾝ","kana_city":"ｲｺﾏｼ","kana_address":"ｵｸﾞﾗｼﾞﾁｮｳ","pref":"奈良県","city":"生駒市","address":"小倉寺町"},
{"zip_code":"6300223","kana_pref":"ﾅﾗｹﾝ","kana_city":"ｲｺﾏｼ","kana_address":"ｵｾﾞﾁｮｳ","pref":"奈良県","city":"生駒市","address":"小瀬町"},
{"zip_code":"6300227","kana_pref":"ﾅﾗｹﾝ","kana_city":"ｲｺﾏｼ","kana_address":"ｵﾄﾀﾞﾁｮｳ","pref":"奈良県","city":"生駒市","address":"乙田町"},
{"zip_code":"6300237","kana_pref":"ﾅﾗｹﾝ","kana_city":"ｲｺﾏｼ","kana_address":"ｵﾆﾄﾘﾁｮｳ","pref":"奈良県","city":"生駒市","address":"鬼取町"},
{"zip_code":"6300131","kana_pref":"ﾅﾗｹﾝ","kana_city":"ｲｺﾏｼ","kana_address":"ｶﾐﾏﾁ","pref":"奈良県","city":"生駒市","address":"上町"},
{"zip_code":"6300138","kana_pref":"ﾅﾗｹﾝ","kana_city":"ｲｺﾏｼ","kana_address":"ｶﾐﾏﾁﾀﾞｲ","pref":"奈良県","city":"生駒市","address":"上町台"},
{"zip_code":"6300265","kana_pref":"ﾅﾗｹﾝ","kana_city":"ｲｺﾏｼ","kana_address":"ｶﾙｲｻﾞﾜﾁｮｳ","pref":"奈良県","city":"生駒市","address":"軽井沢町"},
{"zip_code":"6300245","kana_pref":"ﾅﾗｹﾝ","kana_city":"ｲｺﾏｼ","kana_address":"ｷﾀｼﾝﾏﾁ","pref":"奈良県","city":"生駒市","address":"北新町"},
{"zip_code":"6300142","kana_pref":"ﾅﾗｹﾝ","kana_city":"ｲｺﾏｼ","kana_address":"ｷﾀﾀﾊﾗﾁｮｳ","pref":"奈良県","city":"生駒市","address":"北田原町"},
{"zip_code":"6300121","kana_pref":"ﾅﾗｹﾝ","kana_city":"ｲｺﾏｼ","kana_address":"ｷﾀﾔﾏﾄ","pref":"奈良県","city":"生駒市","address":"北大和"},
{"zip_code":"6300248","kana_pref":"ﾅﾗｹﾝ","kana_city":"ｲｺﾏｼ","kana_address":"ｷﾘｶﾞｵｶ","pref":"奈良県","city":"生駒市","address":"喜里が丘"},
{"zip_code":"6300201","kana_pref":"ﾅﾗｹﾝ","kana_city":"ｲｺﾏｼ","kana_address":"ｺｳﾐｮｳﾁｮｳ","pref":"奈良県","city":"生駒市","address":"小明町"},
{"zip_code":"6300247","kana_pref":"ﾅﾗｹﾝ","kana_city":"ｲｺﾏｼ","kana_address":"ｺｳﾖｳﾀﾞｲ","pref":"奈良県","city":"生駒市","address":"光陽台"},
{"zip_code":"6300226","kana_pref":"ﾅﾗｹﾝ","kana_city":"ｲｺﾏｼ","kana_address":"ｺﾋﾞﾗｵﾁｮｳ","pref":"奈良県","city":"生駒市","address":"小平尾町"},
{"zip_code":"6300211","kana_pref":"ﾅﾗｹﾝ","kana_city":"ｲｺﾏｼ","kana_address":"ｻｸﾗｶﾞｵｶ","pref":"奈良県","city":"生駒市","address":"桜ケ丘"},
{"zip_code":"6300221","kana_pref":"ﾅﾗｹﾝ","kana_city":"ｲｺﾏｼ","kana_address":"ｻﾂｷﾀﾞｲ","pref":"奈良県","city":"生駒市","address":"さつき台"},
{"zip_code":"6300112","kana_pref":"ﾅﾗｹﾝ","kana_city":"ｲｺﾏｼ","kana_address":"ｼｶﾉﾀﾞｲﾋｶﾞｼ","pref":"奈良県","city":"生駒市","address":"鹿ノ台東"},
{"zip_code":"6300114","kana_pref":"ﾅﾗｹﾝ","kana_city":"ｲｺﾏｼ","kana_address":"ｼｶﾉﾀﾞｲﾆｼ","pref":"奈良県","city":"生駒市","address":"鹿ノ台西"},
{"zip_code":"6300113","kana_pref":"ﾅﾗｹﾝ","kana_city":"ｲｺﾏｼ","kana_address":"ｼｶﾉﾀﾞｲﾐﾅﾐ","pref":"奈良県","city":"生駒市","address":"鹿ノ台南"},
{"zip_code":"6300111","kana_pref":"ﾅﾗｹﾝ","kana_city":"ｲｺﾏｼ","kana_address":"ｼｶﾉﾀﾞｲｷﾀ","pref":"奈良県","city":"生駒市","address":"鹿ノ台北"},
{"zip_code":"6300115","kana_pref":"ﾅﾗｹﾝ","kana_city":"ｲｺﾏｼ","kana_address":"ｼｶﾊﾀﾁｮｳ","pref":"奈良県","city":"生駒市","address":"鹿畑町"},
{"zip_code":"6300136","kana_pref":"ﾅﾗｹﾝ","kana_city":"ｲｺﾏｼ","kana_address":"ｼﾗﾆﾜﾀﾞｲ","pref":"奈良県","city":"生駒市","address":"白庭台"},
{"zip_code":"6300253","kana_pref":"ﾅﾗｹﾝ","kana_city":"ｲｺﾏｼ","kana_address":"ｼﾝｱｻﾋｶﾞｵｶ","pref":"奈良県","city":"生駒市","address":"新旭ケ丘"},
{"zip_code":"6300242","kana_pref":"ﾅﾗｹﾝ","kana_city":"ｲｺﾏｼ","kana_address":"ｼﾝｲｺﾏﾀﾞｲ","pref":"奈良県","city":"生駒市","address":"新生駒台"},
{"zip_code":"6300238","kana_pref":"ﾅﾗｹﾝ","kana_city":"ｲｺﾏｼ","kana_address":"ﾀﾞｲﾓﾝﾁｮｳ","pref":"奈良県","city":"生駒市","address":"大門町"},
{"zip_code":"6300101","kana_pref":"ﾅﾗｹﾝ","kana_city":"ｲｺﾏｼ","kana_address":"ﾀｶﾔﾏﾁｮｳ","pref":"奈良県","city":"生駒市","address":"高山町"},
{"zip_code":"6300251","kana_pref":"ﾅﾗｹﾝ","kana_city":"ｲｺﾏｼ","kana_address":"ﾀﾆﾀﾞﾁｮｳ","pref":"奈良県","city":"生駒市","address":"谷田町"},
{"zip_code":"6300243","kana_pref":"ﾅﾗｹﾝ","kana_city":"ｲｺﾏｼ","kana_address":"ﾀﾜﾗｸﾞﾁﾁｮｳ","pref":"奈良県","city":"生駒市","address":"俵口町"},
{"zip_code":"6300212","kana_pref":"ﾅﾗｹﾝ","kana_city":"ｲｺﾏｼ","kana_address":"ﾂｼﾞﾏﾁ","pref":"奈良県","city":"生駒市","address":"辻町"},
{"zip_code":"6300263","kana_pref":"ﾅﾗｹﾝ","kana_city":"ｲｺﾏｼ","kana_address":"ﾅｶﾅﾊﾞﾀ","pref":"奈良県","city":"生駒市","address":"中菜畑"},
{"zip_code":"6300267","kana_pref":"ﾅﾗｹﾝ","kana_city":"ｲｺﾏｼ","kana_address":"ﾅｶﾉﾁｮｳ","pref":"奈良県","city":"生駒市","address":"仲之町"},
{"zip_code":"6300231","kana_pref":"ﾅﾗｹﾝ","kana_city":"ｲｺﾏｼ","kana_address":"ﾅﾊﾞﾀﾁｮｳ","pref":"奈良県","city":"生駒市","address":"菜畑町"},
{"zip_code":"6300261","kana_pref":"ﾅﾗｹﾝ","kana_city":"ｲｺﾏｼ","kana_address":"ﾆｼｱｻﾋｶﾞｵｶ","pref":"奈良県","city":"生駒市","address":"西旭ケ丘"},
{"zip_code":"6300137","kana_pref":"ﾅﾗｹﾝ","kana_city":"ｲｺﾏｼ","kana_address":"ﾆｼｼﾗﾆﾜﾀﾞｲ","pref":"奈良県","city":"生駒市","address":"西白庭台"},
{"zip_code":"6300264","kana_pref":"ﾅﾗｹﾝ","kana_city":"ｲｺﾏｼ","kana_address":"ﾆｼﾅﾊﾞﾀﾁｮｳ","pref":"奈良県","city":"生駒市","address":"西菜畑町"},
{"zip_code":"6300236","kana_pref":"ﾅﾗｹﾝ","kana_city":"ｲｺﾏｼ","kana_address":"ﾆｼﾊﾀﾁｮｳ","pref":"奈良県","city":"生駒市","address":"西畑町"},
{"zip_code":"6300246","kana_pref":"ﾅﾗｹﾝ","kana_city":"ｲｺﾏｼ","kana_address":"ﾆｼﾏﾂｶﾞｵｶ","pref":"奈良県","city":"生駒市","address":"西松ケ丘"},
{"zip_code":"6300224","kana_pref":"ﾅﾗｹﾝ","kana_city":"ｲｺﾏｼ","kana_address":"ﾊｷﾞﾉﾀﾞｲ","pref":"奈良県","city":"生駒市","address":"萩の台"},
{"zip_code":"6300234","kana_pref":"ﾅﾗｹﾝ","kana_city":"ｲｺﾏｼ","kana_address":"ﾊｷﾞﾊﾗﾁｮｳ","pref":"奈良県","city":"生駒市","address":"萩原町"},
{"zip_code":"6300141","kana_pref":"ﾅﾗｹﾝ","kana_city":"ｲｺﾏｼ","kana_address":"ﾋｶﾘｶﾞｵｶ","pref":"奈良県","city":"生駒市","address":"ひかりが丘"},
{"zip_code":"6300254","kana_pref":"ﾅﾗｹﾝ","kana_city":"ｲｺﾏｼ","kana_address":"ﾋｶﾞｼｱｻﾋｶﾞｵｶ","pref":"奈良県","city":"生駒市","address":"東旭ケ丘"},
{"zip_code":"6300213","kana_pref":"ﾅﾗｹﾝ","kana_city":"ｲｺﾏｼ","kana_address":"ﾋｶﾞｼｲｺﾏ","pref":"奈良県","city":"生駒市","address":"東生駒"},
{"zip_code":"6300214","kana_pref":"ﾅﾗｹﾝ","kana_city":"ｲｺﾏｼ","kana_address":"ﾋｶﾞｼｲｺﾏﾂｷﾐﾁｮｳ","pref":"奈良県","city":"生駒市","address":"東生駒月見町"},
{"zip_code":"6300258","kana_pref":"ﾅﾗｹﾝ","kana_city":"ｲｺﾏｼ","kana_address":"ﾋｶﾞｼｼﾝﾏﾁ","pref":"奈良県","city":"生駒市","address":"東新町"},
{"zip_code":"6300215","kana_pref":"ﾅﾗｹﾝ","kana_city":"ｲｺﾏｼ","kana_address":"ﾋｶﾞｼﾅﾊﾞﾀ","pref":"奈良県","city":"生駒市","address":"東菜畑"},
{"zip_code":"6300244","kana_pref":"ﾅﾗｹﾝ","kana_city":"ｲｺﾏｼ","kana_address":"ﾋｶﾞｼﾏﾂｶﾞｵｶ","pref":"奈良県","city":"生駒市","address":"東松ケ丘"},
{"zip_code":"6300225","kana_pref":"ﾅﾗｹﾝ","kana_city":"ｲｺﾏｼ","kana_address":"ﾋｶﾞｼﾔﾏﾁｮｳ","pref":"奈良県","city":"生駒市","address":"東山町"},
{"zip_code":"6300235","kana_pref":"ﾅﾗｹﾝ","kana_city":"ｲｺﾏｼ","kana_address":"ﾌｼﾞｵﾁｮｳ","pref":"奈良県","city":"生駒市","address":"藤尾町"},
{"zip_code":"6300256","kana_pref":"ﾅﾗｹﾝ","kana_city":"ｲｺﾏｼ","kana_address":"ﾎﾝﾏﾁ","pref":"奈良県","city":"生駒市","address":"本町"},
{"zip_code":"6300241","kana_pref":"ﾅﾗｹﾝ","kana_city":"ｲｺﾏｼ","kana_address":"ﾏﾂﾐﾀﾞｲ","pref":"奈良県","city":"生駒市","address":"松美台"},
{"zip_code":"6300122","kana_pref":"ﾅﾗｹﾝ","kana_city":"ｲｺﾏｼ","kana_address":"ﾏﾕﾐ","pref":"奈良県","city":"生駒市","address":"真弓"},
{"zip_code":"6300123","kana_pref":"ﾅﾗｹﾝ","kana_city":"ｲｺﾏｼ","kana_address":"ﾏﾕﾐﾐﾅﾐ","pref":"奈良県","city":"生駒市","address":"真弓南"},
{"zip_code":"6300116","kana_pref":"ﾅﾗｹﾝ","kana_city":"ｲｺﾏｼ","kana_address":"ﾐｶﾉﾀﾞｲ","pref":"奈良県","city":"生駒市","address":"美鹿の台"},
{"zip_code":"6300262","kana_pref":"ﾅﾗｹﾝ","kana_city":"ｲｺﾏｼ","kana_address":"ﾐﾄﾞﾘｶﾞｵｶ","pref":"奈良県","city":"生駒市","address":"緑ケ丘"},
{"zip_code":"6300135","kana_pref":"ﾅﾗｹﾝ","kana_city":"ｲｺﾏｼ","kana_address":"ﾐﾅﾐﾀﾜﾗﾁｮｳ","pref":"奈良県","city":"生駒市","address":"南田原町"},
{"zip_code":"6300228","kana_pref":"ﾅﾗｹﾝ","kana_city":"ｲｺﾏｼ","kana_address":"ﾐﾅﾐﾔﾏﾃﾀﾞｲ","pref":"奈良県","city":"生駒市","address":"南山手台"},
{"zip_code":"6300257","kana_pref":"ﾅﾗｹﾝ","kana_city":"ｲｺﾏｼ","kana_address":"ﾓﾄﾏﾁ","pref":"奈良県","city":"生駒市","address":"元町"},
{"zip_code":"6300266","kana_pref":"ﾅﾗｹﾝ","kana_city":"ｲｺﾏｼ","kana_address":"ﾓﾝｾﾞﾝﾁｮｳ","pref":"奈良県","city":"生駒市","address":"門前町"},
{"zip_code":"6300255","kana_pref":"ﾅﾗｹﾝ","kana_city":"ｲｺﾏｼ","kana_address":"ﾔﾏｻｷｼﾝﾏﾁ","pref":"奈良県","city":"生駒市","address":"山崎新町"},
{"zip_code":"6300252","kana_pref":"ﾅﾗｹﾝ","kana_city":"ｲｺﾏｼ","kana_address":"ﾔﾏｻｷﾁｮｳ","pref":"奈良県","city":"生駒市","address":"山崎町"},
{"zip_code":"6300000","kana_pref":"ﾅﾗｹﾝ","kana_city":"ﾔﾏﾍﾞｸﾞﾝﾔﾏｿﾞｴﾑﾗ","kana_address":"","pref":"奈良県","city":"山辺郡山添村","address":""},
{"zip_code":"6302232","kana_pref":"ﾅﾗｹﾝ","kana_city":"ﾔﾏﾍﾞｸﾞﾝﾔﾏｿﾞｴﾑﾗ","kana_address":"ｲﾜﾔ","pref":"奈良県","city":"山辺郡山添村","address":"岩屋"},
{"zip_code":"6302355","kana_pref":"ﾅﾗｹﾝ","kana_city":"ﾔﾏﾍﾞｸﾞﾝﾔﾏｿﾞｴﾑﾗ","kana_address":"ｳﾔﾏ","pref":"奈良県","city":"山辺郡山添村","address":"鵜山"},
{"zip_code":"6302212","kana_pref":"ﾅﾗｹﾝ","kana_city":"ﾔﾏﾍﾞｸﾞﾝﾔﾏｿﾞｴﾑﾗ","kana_address":"ｵｵｼｵ","pref":"奈良県","city":"山辺郡山添村","address":"大塩"},
{"zip_code":"6302344","kana_pref":"ﾅﾗｹﾝ","kana_city":"ﾔﾏﾍﾞｸﾞﾝﾔﾏｿﾞｴﾑﾗ","kana_address":"ｵｵﾆｼ","pref":"奈良県","city":"山辺郡山添村","address":"大西"},
{"zip_code":"6302341","kana_pref":"ﾅﾗｹﾝ","kana_city":"ﾔﾏﾍﾞｸﾞﾝﾔﾏｿﾞｴﾑﾗ","kana_address":"ｵｿｾ","pref":"奈良県","city":"山辺郡山添村","address":"遅瀬"},
{"zip_code":"6302343","kana_pref":"ﾅﾗｹﾝ","kana_city":"ﾔﾏﾍﾞｸﾞﾝﾔﾏｿﾞｴﾑﾗ","kana_address":"ｶｽｶﾞ","pref":"奈良県","city":"山辺郡山添村","address":"春日"},
{"zip_code":"6302356","kana_pref":"ﾅﾗｹﾝ","kana_city":"ﾔﾏﾍﾞｸﾞﾝﾔﾏｿﾞｴﾑﾗ","kana_address":"ｶﾀﾋﾗ","pref":"奈良県","city":"山辺郡山添村","address":"片平"},
{"zip_code":"6302231","kana_pref":"ﾅﾗｹﾝ","kana_city":"ﾔﾏﾍﾞｸﾞﾝﾔﾏｿﾞｴﾑﾗ","kana_address":"ｶﾂﾊﾗ","pref":"奈良県","city":"山辺郡山添村","address":"勝原"},
{"zip_code":"6302211","kana_pref":"ﾅﾗｹﾝ","kana_city":"ﾔﾏﾍﾞｸﾞﾝﾔﾏｿﾞｴﾑﾗ","kana_address":"ｷﾀﾉ","pref":"奈良県","city":"山辺郡山添村","address":"北野"},
{"zip_code":"6302234","kana_pref":"ﾅﾗｹﾝ","kana_city":"ﾔﾏﾍﾞｸﾞﾝﾔﾏｿﾞｴﾑﾗ","kana_address":"ｷﾘﾊﾀ","pref":"奈良県","city":"山辺郡山添村","address":"切幡"},
{"zip_code":"6302205","kana_pref":"ﾅﾗｹﾝ","kana_city":"ﾔﾏﾍﾞｸﾞﾝﾔﾏｿﾞｴﾑﾗ","kana_address":"ｷﾘﾔﾏ","pref":"奈良県","city":"山辺郡山添村","address":"桐山"},
{"zip_code":"6302357","kana_pref":"ﾅﾗｹﾝ","kana_city":"ﾔﾏﾍﾞｸﾞﾝﾔﾏｿﾞｴﾑﾗ","kana_address":"ｸｽﾞｵ","pref":"奈良県","city":"山辺郡山添村","address":"葛尾"},
{"zip_code":"6302233","kana_pref":"ﾅﾗｹﾝ","kana_city":"ﾔﾏﾍﾞｸﾞﾝﾔﾏｿﾞｴﾑﾗ","kana_address":"ｹﾊﾗ","pref":"奈良県","city":"山辺郡山添村","address":"毛原"},
{"zip_code":"6302345","kana_pref":"ﾅﾗｹﾝ","kana_city":"ﾔﾏﾍﾞｸﾞﾝﾔﾏｿﾞｴﾑﾗ","kana_address":"ｽｺﾞｳ","pref":"奈良県","city":"山辺郡山添村","address":"菅生"},
{"zip_code":"6302224","kana_pref":"ﾅﾗｹﾝ","kana_city":"ﾔﾏﾍﾞｸﾞﾝﾔﾏｿﾞｴﾑﾗ","kana_address":"ｾﾞﾐｮｳ","pref":"奈良県","city":"山辺郡山添村","address":"助命"},
{"zip_code":"6302351","kana_pref":"ﾅﾗｹﾝ","kana_city":"ﾔﾏﾍﾞｸﾞﾝﾔﾏｿﾞｴﾑﾗ","kana_address":"ﾁｭｳﾑｻﾞﾝ","pref":"奈良県","city":"山辺郡山添村","address":"中峰山"},
{"zip_code":"6302222","kana_pref":"ﾅﾗｹﾝ","kana_city":"ﾔﾏﾍﾞｸﾞﾝﾔﾏｿﾞｴﾑﾗ","kana_address":"ﾄﾞｳﾏｴ","pref":"奈良県","city":"山辺郡山添村","address":"堂前"},
{"zip_code":"6302352","kana_pref":"ﾅﾗｹﾝ","kana_city":"ﾔﾏﾍﾞｸﾞﾝﾔﾏｿﾞｴﾑﾗ","kana_address":"ﾅｶﾉｼｮｳ","pref":"奈良県","city":"山辺郡山添村","address":"中之庄"},
{"zip_code":"6302346","kana_pref":"ﾅﾗｹﾝ","kana_city":"ﾔﾏﾍﾞｸﾞﾝﾔﾏｿﾞｴﾑﾗ","kana_address":"ﾆｼﾊﾀ","pref":"奈良県","city":"山辺郡山添村","address":"西波多"},
{"zip_code":"6302354","kana_pref":"ﾅﾗｹﾝ","kana_city":"ﾔﾏﾍﾞｸﾞﾝﾔﾏｿﾞｴﾑﾗ","kana_address":"ﾋﾛｾ","pref":"奈良県","city":"山辺郡山添村","address":"広瀬"},
{"zip_code":"6302342","kana_pref":"ﾅﾗｹﾝ","kana_city":"ﾔﾏﾍﾞｸﾞﾝﾔﾏｿﾞｴﾑﾗ","kana_address":"ﾋﾛﾀﾞｲ","pref":"奈良県","city":"山辺郡山添村","address":"広代"},
{"zip_code":"6302225","kana_pref":"ﾅﾗｹﾝ","kana_city":"ﾔﾏﾍﾞｸﾞﾝﾔﾏｿﾞｴﾑﾗ","kana_address":"ﾌｼｵｶﾞﾐ","pref":"奈良県","city":"山辺郡山添村","address":"伏拝"},
{"zip_code":"6302203","kana_pref":"ﾅﾗｹﾝ","kana_city":"ﾔﾏﾍﾞｸﾞﾝﾔﾏｿﾞｴﾑﾗ","kana_address":"ﾏﾂｵ","pref":"奈良県","city":"山辺郡山添村","address":"松尾"},
{"zip_code":"6302202","kana_pref":"ﾅﾗｹﾝ","kana_city":"ﾔﾏﾍﾞｸﾞﾝﾔﾏｿﾞｴﾑﾗ","kana_address":"ﾏﾄﾉ","pref":"奈良県","city":"山辺郡山添村","address":"的野"},
{"zip_code":"6302223","kana_pref":"ﾅﾗｹﾝ","kana_city":"ﾔﾏﾍﾞｸﾞﾝﾔﾏｿﾞｴﾑﾗ","kana_address":"ﾐｶﾀﾞﾆ","pref":"奈良県","city":"山辺郡山添村","address":"三ケ谷"},
{"zip_code":"6302201","kana_pref":"ﾅﾗｹﾝ","kana_city":"ﾔﾏﾍﾞｸﾞﾝﾔﾏｿﾞｴﾑﾗ","kana_address":"ﾐﾈﾃﾞﾗ","pref":"奈良県","city":"山辺郡山添村","address":"峰寺"},
{"zip_code":"6302221","kana_pref":"ﾅﾗｹﾝ","kana_city":"ﾔﾏﾍﾞｸﾞﾝﾔﾏｿﾞｴﾑﾗ","kana_address":"ﾐﾉﾜ","pref":"奈良県","city":"山辺郡山添村","address":"箕輪"},
{"zip_code":"6302204","kana_pref":"ﾅﾗｹﾝ","kana_city":"ﾔﾏﾍﾞｸﾞﾝﾔﾏｿﾞｴﾑﾗ","kana_address":"ﾑﾛﾂﾞ","pref":"奈良県","city":"山辺郡山添村","address":"室津"},
{"zip_code":"6302353","kana_pref":"ﾅﾗｹﾝ","kana_city":"ﾔﾏﾍﾞｸﾞﾝﾔﾏｿﾞｴﾑﾗ","kana_address":"ﾖｼﾀﾞ","pref":"奈良県","city":"山辺郡山添村","address":"吉田"}]}