{"zip_code":[
{"zip_code":"6320245","kana_pref":"ﾅﾗｹﾝ","kana_city":"ﾅﾗｼ","kana_address":"ｲｳﾁｮｳ","pref":"奈良県","city":"奈良市","address":"藺生町"},
{"zip_code":"6320103","kana_pref":"ﾅﾗｹﾝ","kana_city":"ﾅﾗｼ","kana_address":"ｵｵｷﾞﾁｮｳ","pref":"奈良県","city":"奈良市","address":"荻町"},
{"zip_code":"6320111","kana_pref":"ﾅﾗｹﾝ","kana_city":"ﾅﾗｼ","kana_address":"ｵｸﾞﾗﾁｮｳ","pref":"奈良県","city":"奈良市","address":"小倉町"},
{"zip_code":"6320102","kana_pref":"ﾅﾗｹﾝ","kana_city":"ﾅﾗｼ","kana_address":"ｶﾐﾌｶﾜﾁｮｳ","pref":"奈良県","city":"奈良市","address":"上深川町"},
{"zip_code":"6320101","kana_pref":"ﾅﾗｹﾝ","kana_city":"ﾅﾗｼ","kana_address":"ｼﾓﾌｶﾜﾁｮｳ","pref":"奈良県","city":"奈良市","address":"下深川町"},
{"zip_code":"6320243","kana_pref":"ﾅﾗｹﾝ","kana_city":"ﾅﾗｼ","kana_address":"ﾂｹﾞｵﾔﾏﾄﾁｮｳ","pref":"奈良県","city":"奈良市","address":"都祁小山戸町"},
{"zip_code":"6320247","kana_pref":"ﾅﾗｹﾝ","kana_city":"ﾅﾗｼ","kana_address":"ﾂｹﾞｺｳｶﾁｮｳ","pref":"奈良県","city":"奈良市","address":"都祁甲岡町"},
{"zip_code":"6320232","kana_pref":"ﾅﾗｹﾝ","kana_city":"ﾅﾗｼ","kana_address":"ﾂｹﾞｺﾌﾞｼｶﾞｵｶ","pref":"奈良県","city":"奈良市","address":"都祁こぶしが丘"},
{"zip_code":"6320221","kana_pref":"ﾅﾗｹﾝ","kana_city":"ﾅﾗｼ","kana_address":"ﾂｹﾞｼﾗｲｼﾁｮｳ","pref":"奈良県","city":"奈良市","address":"都祁白石町"},
{"zip_code":"6320242","kana_pref":"ﾅﾗｹﾝ","kana_city":"ﾅﾗｼ","kana_address":"ﾂｹﾞｿｳｺﾞﾁｮｳ","pref":"奈良県","city":"奈良市","address":"都祁相河町"},
{"zip_code":"6320246","kana_pref":"ﾅﾗｹﾝ","kana_city":"ﾅﾗｼ","kana_address":"ﾂｹﾞﾄﾓﾀﾞﾁｮｳ","pref":"奈良県","city":"奈良市","address":"都祁友田町"},
{"zip_code":"6320113","kana_pref":"ﾅﾗｹﾝ","kana_city":"ﾅﾗｼ","kana_address":"ﾂｹﾞﾊﾞﾊﾞﾁｮｳ","pref":"奈良県","city":"奈良市","address":"都祁馬場町"},
{"zip_code":"6320231","kana_pref":"ﾅﾗｹﾝ","kana_city":"ﾅﾗｼ","kana_address":"ﾂｹﾞﾊﾔﾏﾁｮｳ","pref":"奈良県","city":"奈良市","address":"都祁吐山町"},
{"zip_code":"6320241","kana_pref":"ﾅﾗｹﾝ","kana_city":"ﾅﾗｼ","kana_address":"ﾂｹﾞﾐﾅﾐﾉｼｮｳﾁｮｳ","pref":"奈良県","city":"奈良市","address":"都祁南之庄町"},
{"zip_code":"6320112","kana_pref":"ﾅﾗｹﾝ","kana_city":"ﾅﾗｼ","kana_address":"ﾊﾘｶﾞﾍﾞｯｼｮﾁｮｳ","pref":"奈良県","city":"奈良市","address":"針ケ別所町"},
{"zip_code":"6320251","kana_pref":"ﾅﾗｹﾝ","kana_city":"ﾅﾗｼ","kana_address":"ﾊﾘﾁｮｳ","pref":"奈良県","city":"奈良市","address":"針町"},
{"zip_code":"6320244","kana_pref":"ﾅﾗｹﾝ","kana_city":"ﾅﾗｼ","kana_address":"ﾗｲｺｳｼﾞﾁｮｳ","pref":"奈良県","city":"奈良市","address":"来迎寺町"},
{"zip_code":"6320000","kana_pref":"ﾅﾗｹﾝ","kana_city":"ﾃﾝﾘｼ","kana_address":"","pref":"奈良県","city":"天理市","address":""},
{"zip_code":"6320068","kana_pref":"ﾅﾗｹﾝ","kana_city":"ﾃﾝﾘｼ","kana_address":"ｱｲﾊﾞﾁｮｳ","pref":"奈良県","city":"天理市","address":"合場町"},
{"zip_code":"6320082","kana_pref":"ﾅﾗｹﾝ","kana_city":"ﾃﾝﾘｼ","kana_address":"ｱﾗﾏｷﾁｮｳ","pref":"奈良県","city":"天理市","address":"荒蒔町"},
{"zip_code":"6320011","kana_pref":"ﾅﾗｹﾝ","kana_city":"ﾃﾝﾘｼ","kana_address":"ｲｿﾉｶﾐﾁｮｳ","pref":"奈良県","city":"天理市","address":"石上町"},
{"zip_code":"6320004","kana_pref":"ﾅﾗｹﾝ","kana_city":"ﾃﾝﾘｼ","kana_address":"ｲﾁﾉﾓﾄﾁｮｳ","pref":"奈良県","city":"天理市","address":"櫟本町"},
{"zip_code":"6320083","kana_pref":"ﾅﾗｹﾝ","kana_city":"ﾃﾝﾘｼ","kana_address":"ｲﾅﾊﾞﾁｮｳ","pref":"奈良県","city":"天理市","address":"稲葉町"},
{"zip_code":"6320076","kana_pref":"ﾅﾗｹﾝ","kana_city":"ﾃﾝﾘｼ","kana_address":"ｲﾜﾑﾛﾁｮｳ","pref":"奈良県","city":"天理市","address":"岩室町"},
{"zip_code":"6320003","kana_pref":"ﾅﾗｹﾝ","kana_city":"ﾃﾝﾘｼ","kana_address":"ｲﾜﾔﾁｮｳ","pref":"奈良県","city":"天理市","address":"岩屋町"},
{"zip_code":"6320031","kana_pref":"ﾅﾗｹﾝ","kana_city":"ﾃﾝﾘｼ","kana_address":"ｳﾁﾊﾞﾊﾞﾁｮｳ","pref":"奈良県","city":"天理市","address":"内馬場町"},
{"zip_code":"6320086","kana_pref":"ﾅﾗｹﾝ","kana_city":"ﾃﾝﾘｼ","kana_address":"ｵｳｼﾞﾁｮｳ","pref":"奈良県","city":"天理市","address":"庵治町"},
{"zip_code":"6320047","kana_pref":"ﾅﾗｹﾝ","kana_city":"ﾃﾝﾘｼ","kana_address":"ｵﾄｷﾞﾁｮｳ","pref":"奈良県","city":"天理市","address":"乙木町"},
{"zip_code":"6320064","kana_pref":"ﾅﾗｹﾝ","kana_city":"ﾃﾝﾘｼ","kana_address":"ｶｲﾁﾁｮｳ","pref":"奈良県","city":"天理市","address":"海知町"},
{"zip_code":"6320084","kana_pref":"ﾅﾗｹﾝ","kana_city":"ﾃﾝﾘｼ","kana_address":"ｶﾊﾞﾀﾁｮｳ","pref":"奈良県","city":"天理市","address":"嘉幡町"},
{"zip_code":"6320024","kana_pref":"ﾅﾗｹﾝ","kana_city":"ﾃﾝﾘｼ","kana_address":"ｶﾐﾆｺﾞｳﾁｮｳ","pref":"奈良県","city":"天理市","address":"上仁興町"},
{"zip_code":"6320042","kana_pref":"ﾅﾗｹﾝ","kana_city":"ﾃﾝﾘｼ","kana_address":"ｶﾖｳﾁｮｳ","pref":"奈良県","city":"天理市","address":"萱生町"},
{"zip_code":"6320016","kana_pref":"ﾅﾗｹﾝ","kana_city":"ﾃﾝﾘｼ","kana_address":"ｶﾜﾊﾗｼﾞｮｳﾁｮｳ","pref":"奈良県","city":"天理市","address":"川原城町"},
{"zip_code":"6320091","kana_pref":"ﾅﾗｹﾝ","kana_city":"ﾃﾝﾘｼ","kana_address":"ｶﾝｻﾁｮｳ","pref":"奈良県","city":"天理市","address":"上総町"},
{"zip_code":"6320056","kana_pref":"ﾅﾗｹﾝ","kana_city":"ﾃﾝﾘｼ","kana_address":"ｷｼﾀﾞﾁｮｳ","pref":"奈良県","city":"天理市","address":"岸田町"},
{"zip_code":"6320095","kana_pref":"ﾅﾗｹﾝ","kana_city":"ﾃﾝﾘｼ","kana_address":"ｷﾄﾞﾉﾁｮｳ","pref":"奈良県","city":"天理市","address":"喜殿町"},
{"zip_code":"6320069","kana_pref":"ﾅﾗｹﾝ","kana_city":"ﾃﾝﾘｼ","kana_address":"ｸｼﾞｮｳﾁｮｳ","pref":"奈良県","city":"天理市","address":"九条町"},
{"zip_code":"6320006","kana_pref":"ﾅﾗｹﾝ","kana_city":"ﾃﾝﾘｼ","kana_address":"ｸﾗﾉｼｮｳﾁｮｳ","pref":"奈良県","city":"天理市","address":"蔵之庄町"},
{"zip_code":"6320036","kana_pref":"ﾅﾗｹﾝ","kana_city":"ﾃﾝﾘｼ","kana_address":"ｺﾞｷｮｳﾉﾁｮｳ","pref":"奈良県","city":"天理市","address":"御経野町"},
{"zip_code":"6320085","kana_pref":"ﾅﾗｹﾝ","kana_city":"ﾃﾝﾘｼ","kana_address":"ｺｼﾞﾏﾁｮｳ","pref":"奈良県","city":"天理市","address":"小島町"},
{"zip_code":"6320092","kana_pref":"ﾅﾗｹﾝ","kana_city":"ﾃﾝﾘｼ","kana_address":"ｺﾀﾞﾅｶﾁｮｳ","pref":"奈良県","city":"天理市","address":"小田中町"},
{"zip_code":"6320093","kana_pref":"ﾅﾗｹﾝ","kana_city":"ﾃﾝﾘｼ","kana_address":"ｻｼﾔﾅｷﾞﾁｮｳ","pref":"奈良県","city":"天理市","address":"指柳町"},
{"zip_code":"6320043","kana_pref":"ﾅﾗｹﾝ","kana_city":"ﾃﾝﾘｼ","kana_address":"ｻﾎﾉｼｮｳﾁｮｳ","pref":"奈良県","city":"天理市","address":"佐保庄町"},
{"zip_code":"6320046","kana_pref":"ﾅﾗｹﾝ","kana_city":"ﾃﾝﾘｼ","kana_address":"ｻﾝﾏｲﾃﾞﾝﾁｮｳ","pref":"奈良県","city":"天理市","address":"三昧田町"},
{"zip_code":"6320053","kana_pref":"ﾅﾗｹﾝ","kana_city":"ﾃﾝﾘｼ","kana_address":"ｼﾌﾞﾀﾆﾁｮｳ","pref":"奈良県","city":"天理市","address":"渋谷町"},
{"zip_code":"6320023","kana_pref":"ﾅﾗｹﾝ","kana_city":"ﾃﾝﾘｼ","kana_address":"ｼﾓﾆｺﾞｳﾁｮｳ","pref":"奈良県","city":"天理市","address":"下仁興町"},
{"zip_code":"6320058","kana_pref":"ﾅﾗｹﾝ","kana_city":"ﾃﾝﾘｼ","kana_address":"ｼﾞｮｳｶﾞﾝｼﾞﾁｮｳ","pref":"奈良県","city":"天理市","address":"成願寺町"},
{"zip_code":"6320096","kana_pref":"ﾅﾗｹﾝ","kana_city":"ﾃﾝﾘｼ","kana_address":"ｼｮｳｼﾞﾁｮｳ","pref":"奈良県","city":"天理市","address":"小路町"},
{"zip_code":"6320078","kana_pref":"ﾅﾗｹﾝ","kana_city":"ﾃﾝﾘｼ","kana_address":"ｽｷﾞﾓﾄﾁｮｳ","pref":"奈良県","city":"天理市","address":"杉本町"},
{"zip_code":"6320094","kana_pref":"ﾅﾗｹﾝ","kana_city":"ﾃﾝﾘｼ","kana_address":"ｾﾝｻﾞｲﾁｮｳ","pref":"奈良県","city":"天理市","address":"前栽町"},
{"zip_code":"6320048","kana_pref":"ﾅﾗｹﾝ","kana_city":"ﾃﾝﾘｼ","kana_address":"ｿﾉﾊﾗﾁｮｳ","pref":"奈良県","city":"天理市","address":"園原町"},
{"zip_code":"6320032","kana_pref":"ﾅﾗｹﾝ","kana_city":"ﾃﾝﾘｼ","kana_address":"ｿﾏﾉｳﾁﾁｮｳ","pref":"奈良県","city":"天理市","address":"杣之内町"},
{"zip_code":"6320071","kana_pref":"ﾅﾗｹﾝ","kana_city":"ﾃﾝﾘｼ","kana_address":"ﾀｲﾉｼｮｳﾁｮｳ","pref":"奈良県","city":"天理市","address":"田井庄町"},
{"zip_code":"6320021","kana_pref":"ﾅﾗｹﾝ","kana_city":"ﾃﾝﾘｼ","kana_address":"ﾀｷﾓﾄﾁｮｳ","pref":"奈良県","city":"天理市","address":"滝本町"},
{"zip_code":"6320041","kana_pref":"ﾅﾗｹﾝ","kana_city":"ﾃﾝﾘｼ","kana_address":"ﾀｹﾉｳﾁﾁｮｳ","pref":"奈良県","city":"天理市","address":"竹之内町"},
{"zip_code":"6320073","kana_pref":"ﾅﾗｹﾝ","kana_city":"ﾃﾝﾘｼ","kana_address":"ﾀﾁｮｳ","pref":"奈良県","city":"天理市","address":"田町"},
{"zip_code":"6320017","kana_pref":"ﾅﾗｹﾝ","kana_city":"ﾃﾝﾘｼ","kana_address":"ﾀﾍﾞﾁｮｳ","pref":"奈良県","city":"天理市","address":"田部町"},
{"zip_code":"6320034","kana_pref":"ﾅﾗｹﾝ","kana_city":"ﾃﾝﾘｼ","kana_address":"ﾀﾝﾊﾞｲﾁﾁｮｳ","pref":"奈良県","city":"天理市","address":"丹波市町"},
{"zip_code":"6320022","kana_pref":"ﾅﾗｹﾝ","kana_city":"ﾃﾝﾘｼ","kana_address":"ﾁｼｬﾜﾗﾁｮｳ","pref":"奈良県","city":"天理市","address":"苣原町"},
{"zip_code":"6320055","kana_pref":"ﾅﾗｹﾝ","kana_city":"ﾃﾝﾘｼ","kana_address":"ﾄｵﾀﾞﾁｮｳ","pref":"奈良県","city":"天理市","address":"遠田町"},
{"zip_code":"6320072","kana_pref":"ﾅﾗｹﾝ","kana_city":"ﾃﾝﾘｼ","kana_address":"ﾄﾐﾄﾞｳﾁｮｳ","pref":"奈良県","city":"天理市","address":"富堂町"},
{"zip_code":"6320013","kana_pref":"ﾅﾗｹﾝ","kana_city":"ﾃﾝﾘｼ","kana_address":"ﾄﾖｲﾁｮｳ","pref":"奈良県","city":"天理市","address":"豊井町"},
{"zip_code":"6320012","kana_pref":"ﾅﾗｹﾝ","kana_city":"ﾃﾝﾘｼ","kana_address":"ﾄﾖﾀﾞﾁｮｳ","pref":"奈良県","city":"天理市","address":"豊田町"},
{"zip_code":"6320097","kana_pref":"ﾅﾗｹﾝ","kana_city":"ﾃﾝﾘｼ","kana_address":"ﾅｶﾁｮｳ","pref":"奈良県","city":"天理市","address":"中町"},
{"zip_code":"6320001","kana_pref":"ﾅﾗｹﾝ","kana_city":"ﾃﾝﾘｼ","kana_address":"ﾅｶﾉｼｮｳﾁｮｳ","pref":"奈良県","city":"天理市","address":"中之庄町"},
{"zip_code":"6320051","kana_pref":"ﾅﾗｹﾝ","kana_city":"ﾃﾝﾘｼ","kana_address":"ﾅｶﾔﾏﾁｮｳ","pref":"奈良県","city":"天理市","address":"中山町"},
{"zip_code":"6320123","kana_pref":"ﾅﾗｹﾝ","kana_city":"ﾃﾝﾘｼ","kana_address":"ﾅｶﾞﾀｷﾁｮｳ","pref":"奈良県","city":"天理市","address":"長滝町"},
{"zip_code":"6320061","kana_pref":"ﾅﾗｹﾝ","kana_city":"ﾃﾝﾘｼ","kana_address":"ﾅｶﾞﾊﾗﾁｮｳ","pref":"奈良県","city":"天理市","address":"永原町"},
{"zip_code":"6320062","kana_pref":"ﾅﾗｹﾝ","kana_city":"ﾃﾝﾘｼ","kana_address":"ﾅｶﾞﾗﾁｮｳ","pref":"奈良県","city":"天理市","address":"長柄町"},
{"zip_code":"6320005","kana_pref":"ﾅﾗｹﾝ","kana_city":"ﾃﾝﾘｼ","kana_address":"ﾅﾗﾁｮｳ","pref":"奈良県","city":"天理市","address":"楢町"},
{"zip_code":"6320057","kana_pref":"ﾅﾗｹﾝ","kana_city":"ﾃﾝﾘｼ","kana_address":"ﾆｲｽﾞﾐﾁｮｳ","pref":"奈良県","city":"天理市","address":"新泉町"},
{"zip_code":"6320081","kana_pref":"ﾅﾗｹﾝ","kana_city":"ﾃﾝﾘｼ","kana_address":"ﾆｶｲﾄﾞｳｶﾐﾉｼｮｳﾁｮｳ","pref":"奈良県","city":"天理市","address":"二階堂上ノ庄町"},
{"zip_code":"6320087","kana_pref":"ﾅﾗｹﾝ","kana_city":"ﾃﾝﾘｼ","kana_address":"ﾆｶｲﾄﾞｳﾐﾅﾐｽｶﾞﾀﾁｮｳ","pref":"奈良県","city":"天理市","address":"二階堂南菅田町"},
{"zip_code":"6320088","kana_pref":"ﾅﾗｹﾝ","kana_city":"ﾃﾝﾘｼ","kana_address":"ﾆｶｲﾄﾞｳｷﾀｽｶﾞﾀﾁｮｳ","pref":"奈良県","city":"天理市","address":"二階堂北菅田町"},
{"zip_code":"6320075","kana_pref":"ﾅﾗｹﾝ","kana_city":"ﾃﾝﾘｼ","kana_address":"ﾆｼｲﾄﾞｳﾄﾞｳﾁｮｳ","pref":"奈良県","city":"天理市","address":"西井戸堂町"},
{"zip_code":"6320063","kana_pref":"ﾅﾗｹﾝ","kana_city":"ﾃﾝﾘｼ","kana_address":"ﾆｼﾅｶﾞﾗﾁｮｳ","pref":"奈良県","city":"天理市","address":"西長柄町"},
{"zip_code":"6320054","kana_pref":"ﾅﾗｹﾝ","kana_city":"ﾃﾝﾘｼ","kana_address":"ﾋｶﾞｲﾁｮｳ","pref":"奈良県","city":"天理市","address":"檜垣町"},
{"zip_code":"6320074","kana_pref":"ﾅﾗｹﾝ","kana_city":"ﾃﾝﾘｼ","kana_address":"ﾋｶﾞｼｲﾄﾞｳﾄﾞｳﾁｮｳ","pref":"奈良県","city":"天理市","address":"東井戸堂町"},
{"zip_code":"6320044","kana_pref":"ﾅﾗｹﾝ","kana_city":"ﾃﾝﾘｼ","kana_address":"ﾋｮｳｺﾞﾁｮｳ","pref":"奈良県","city":"天理市","address":"兵庫町"},
{"zip_code":"6320066","kana_pref":"ﾅﾗｹﾝ","kana_city":"ﾃﾝﾘｼ","kana_address":"ﾋﾞｾﾞﾝﾁｮｳ","pref":"奈良県","city":"天理市","address":"備前町"},
{"zip_code":"6320077","kana_pref":"ﾅﾗｹﾝ","kana_city":"ﾃﾝﾘｼ","kana_address":"ﾋﾞｮｳﾄﾞｳﾎﾞｳﾁｮｳ","pref":"奈良県","city":"天理市","address":"平等坊町"},
{"zip_code":"6320122","kana_pref":"ﾅﾗｹﾝ","kana_city":"ﾃﾝﾘｼ","kana_address":"ﾌｸｽﾐﾁｮｳ","pref":"奈良県","city":"天理市","address":"福住町"},
{"zip_code":"6320045","kana_pref":"ﾅﾗｹﾝ","kana_city":"ﾃﾝﾘｼ","kana_address":"ﾌｸﾁﾄﾞｳﾁｮｳ","pref":"奈良県","city":"天理市","address":"福知堂町"},
{"zip_code":"6320025","kana_pref":"ﾅﾗｹﾝ","kana_city":"ﾃﾝﾘｼ","kana_address":"ﾌｼﾞｲﾁｮｳ","pref":"奈良県","city":"天理市","address":"藤井町"},
{"zip_code":"6320014","kana_pref":"ﾅﾗｹﾝ","kana_city":"ﾃﾝﾘｼ","kana_address":"ﾌﾙﾁｮｳ","pref":"奈良県","city":"天理市","address":"布留町"},
{"zip_code":"6320018","kana_pref":"ﾅﾗｹﾝ","kana_city":"ﾃﾝﾘｼ","kana_address":"ﾍﾞｯｼｮﾁｮｳ","pref":"奈良県","city":"天理市","address":"別所町"},
{"zip_code":"6320033","kana_pref":"ﾅﾗｹﾝ","kana_city":"ﾃﾝﾘｼ","kana_address":"ﾏｶﾞﾀﾁｮｳ","pref":"奈良県","city":"天理市","address":"勾田町"},
{"zip_code":"6320015","kana_pref":"ﾅﾗｹﾝ","kana_city":"ﾃﾝﾘｼ","kana_address":"ﾐｼﾏﾁｮｳ","pref":"奈良県","city":"天理市","address":"三島町"},
{"zip_code":"6320098","kana_pref":"ﾅﾗｹﾝ","kana_city":"ﾃﾝﾘｼ","kana_address":"ﾐﾅﾐﾛｸｼﾞｮｳﾁｮｳ","pref":"奈良県","city":"天理市","address":"南六条町"},
{"zip_code":"6320065","kana_pref":"ﾅﾗｹﾝ","kana_city":"ﾃﾝﾘｼ","kana_address":"ﾑｻｼﾁｮｳ","pref":"奈良県","city":"天理市","address":"武蔵町"},
{"zip_code":"6320035","kana_pref":"ﾅﾗｹﾝ","kana_city":"ﾃﾝﾘｼ","kana_address":"ﾓﾘﾒﾄﾞｳﾁｮｳ","pref":"奈良県","city":"天理市","address":"守目堂町"},
{"zip_code":"6320007","kana_pref":"ﾅﾗｹﾝ","kana_city":"ﾃﾝﾘｼ","kana_address":"ﾓﾘﾓﾄﾁｮｳ","pref":"奈良県","city":"天理市","address":"森本町"},
{"zip_code":"6320052","kana_pref":"ﾅﾗｹﾝ","kana_city":"ﾃﾝﾘｼ","kana_address":"ﾔﾅｷﾞﾓﾄﾁｮｳ","pref":"奈良県","city":"天理市","address":"柳本町"},
{"zip_code":"6320121","kana_pref":"ﾅﾗｹﾝ","kana_city":"ﾃﾝﾘｼ","kana_address":"ﾔﾏﾀﾞﾁｮｳ","pref":"奈良県","city":"天理市","address":"山田町"},
{"zip_code":"6320067","kana_pref":"ﾅﾗｹﾝ","kana_city":"ﾃﾝﾘｼ","kana_address":"ﾖｼﾀﾞﾁｮｳ","pref":"奈良県","city":"天理市","address":"吉田町"},
{"zip_code":"6320002","kana_pref":"ﾅﾗｹﾝ","kana_city":"ﾃﾝﾘｼ","kana_address":"ﾜﾆﾁｮｳ","pref":"奈良県","city":"天理市","address":"和爾町"},
{"zip_code":"6320204","kana_pref":"ﾅﾗｹﾝ","kana_city":"ｳﾀﾞｼ","kana_address":"ﾑﾛｳｵﾊﾗ","pref":"奈良県","city":"宇陀市","address":"室生小原"},
{"zip_code":"6320202","kana_pref":"ﾅﾗｹﾝ","kana_city":"ｳﾀﾞｼ","kana_address":"ﾑﾛｳｶﾐｶｻﾏ","pref":"奈良県","city":"宇陀市","address":"室生上笠間"},
{"zip_code":"6320201","kana_pref":"ﾅﾗｹﾝ","kana_city":"ｳﾀﾞｼ","kana_address":"ﾑﾛｳｼﾓｶｻﾏ","pref":"奈良県","city":"宇陀市","address":"室生下笠間"},
{"zip_code":"6320205","kana_pref":"ﾅﾗｹﾝ","kana_city":"ｳﾀﾞｼ","kana_address":"ﾑﾛｳｿﾒﾀﾞ","pref":"奈良県","city":"宇陀市","address":"室生染田"},
{"zip_code":"6320206","kana_pref":"ﾅﾗｹﾝ","kana_city":"ｳﾀﾞｼ","kana_address":"ﾑﾛｳﾀﾀﾞ","pref":"奈良県","city":"宇陀市","address":"室生多田"},
{"zip_code":"6320203","kana_pref":"ﾅﾗｹﾝ","kana_city":"ｳﾀﾞｼ","kana_address":"ﾑﾛｳﾌｶﾉ","pref":"奈良県","city":"宇陀市","address":"室生深野"},
{"zip_code":"6320207","kana_pref":"ﾅﾗｹﾝ","kana_city":"ｳﾀﾞｼ","kana_address":"ﾑﾛｳﾑﾔﾏ","pref":"奈良県","city":"宇陀市","address":"室生無山"}]}