{"zip_code":[
{"zip_code":"6330000","kana_pref":"ﾅﾗｹﾝ","kana_city":"ｻｸﾗｲｼ","kana_address":"","pref":"奈良県","city":"桜井市","address":""},
{"zip_code":"6330006","kana_pref":"ﾅﾗｹﾝ","kana_city":"ｻｸﾗｲｼ","kana_address":"ｱｶｵ","pref":"奈良県","city":"桜井市","address":"赤尾"},
{"zip_code":"6330003","kana_pref":"ﾅﾗｹﾝ","kana_city":"ｻｸﾗｲｼ","kana_address":"ｱｻｸﾗﾀﾞｲﾋｶﾞｼ","pref":"奈良県","city":"桜井市","address":"朝倉台東"},
{"zip_code":"6330004","kana_pref":"ﾅﾗｹﾝ","kana_city":"ｻｸﾗｲｼ","kana_address":"ｱｻｸﾗﾀﾞｲﾆｼ","pref":"奈良県","city":"桜井市","address":"朝倉台西"},
{"zip_code":"6330052","kana_pref":"ﾅﾗｹﾝ","kana_city":"ｻｸﾗｲｼ","kana_address":"ｱｻｺﾞ","pref":"奈良県","city":"桜井市","address":"浅古"},
{"zip_code":"6330071","kana_pref":"ﾅﾗｹﾝ","kana_city":"ｻｸﾗｲｼ","kana_address":"ｱﾅｼ","pref":"奈良県","city":"桜井市","address":"穴師"},
{"zip_code":"6330054","kana_pref":"ﾅﾗｹﾝ","kana_city":"ｻｸﾗｲｼ","kana_address":"ｱﾍﾞ","pref":"奈良県","city":"桜井市","address":"阿部"},
{"zip_code":"6330055","kana_pref":"ﾅﾗｹﾝ","kana_city":"ｻｸﾗｲｼ","kana_address":"ｱﾍﾞﾓｸｻﾞｲﾀﾞﾝﾁ","pref":"奈良県","city":"桜井市","address":"安倍木材団地"},
{"zip_code":"6330026","kana_pref":"ﾅﾗｹﾝ","kana_city":"ｻｸﾗｲｼ","kana_address":"ｲｲﾓﾘﾂﾞｶ","pref":"奈良県","city":"桜井市","address":"飯盛塚"},
{"zip_code":"6330046","kana_pref":"ﾅﾗｹﾝ","kana_city":"ｻｸﾗｲｼ","kana_address":"ｲｹﾉｳﾁ","pref":"奈良県","city":"桜井市","address":"池之内"},
{"zip_code":"6330122","kana_pref":"ﾅﾗｹﾝ","kana_city":"ｻｸﾗｲｼ","kana_address":"ｲｽﾞﾓ","pref":"奈良県","city":"桜井市","address":"出雲"},
{"zip_code":"6330035","kana_pref":"ﾅﾗｹﾝ","kana_city":"ｻｸﾗｲｼ","kana_address":"ｲﾏｲﾀﾞﾆ","pref":"奈良県","city":"桜井市","address":"今井谷"},
{"zip_code":"6330013","kana_pref":"ﾅﾗｹﾝ","kana_city":"ｻｸﾗｲｼ","kana_address":"ｲﾜｻｶ","pref":"奈良県","city":"桜井市","address":"岩坂"},
{"zip_code":"6330041","kana_pref":"ﾅﾗｹﾝ","kana_city":"ｻｸﾗｲｼ","kana_address":"ｳｴﾉﾐﾔ","pref":"奈良県","city":"桜井市","address":"上之宮"},
{"zip_code":"6330086","kana_pref":"ﾅﾗｹﾝ","kana_city":"ｻｸﾗｲｼ","kana_address":"ｴﾂﾂﾐ","pref":"奈良県","city":"桜井市","address":"江包"},
{"zip_code":"6330076","kana_pref":"ﾅﾗｹﾝ","kana_city":"ｻｸﾗｲｼ","kana_address":"ｵｲｽﾞﾐ","pref":"奈良県","city":"桜井市","address":"大泉"},
{"zip_code":"6330048","kana_pref":"ﾅﾗｹﾝ","kana_city":"ｻｸﾗｲｼ","kana_address":"ｵｲﾀﾞ","pref":"奈良県","city":"桜井市","address":"生田"},
{"zip_code":"6330084","kana_pref":"ﾅﾗｹﾝ","kana_city":"ｻｸﾗｲｼ","kana_address":"ｵｵﾀ","pref":"奈良県","city":"桜井市","address":"太田"},
{"zip_code":"6330062","kana_pref":"ﾅﾗｹﾝ","kana_city":"ｻｸﾗｲｼ","kana_address":"ｵｵﾄﾞﾉ","pref":"奈良県","city":"桜井市","address":"粟殿"},
{"zip_code":"6330014","kana_pref":"ﾅﾗｹﾝ","kana_city":"ｻｸﾗｲｼ","kana_address":"ｵｵﾊﾞﾗ","pref":"奈良県","city":"桜井市","address":"粟原"},
{"zip_code":"6330101","kana_pref":"ﾅﾗｹﾝ","kana_city":"ｻｸﾗｲｼ","kana_address":"ｵｵﾌﾞ","pref":"奈良県","city":"桜井市","address":"小夫"},
{"zip_code":"6330103","kana_pref":"ﾅﾗｹﾝ","kana_city":"ｻｸﾗｲｼ","kana_address":"ｵｵﾌﾞﾀﾞｹﾎｳ","pref":"奈良県","city":"桜井市","address":"小夫嵩方"},
{"zip_code":"6330077","kana_pref":"ﾅﾗｹﾝ","kana_city":"ｻｸﾗｲｼ","kana_address":"ｵｵﾆｼ","pref":"奈良県","city":"桜井市","address":"大西"},
{"zip_code":"6330005","kana_pref":"ﾅﾗｹﾝ","kana_city":"ｻｸﾗｲｼ","kana_address":"ｵｯｻｶ","pref":"奈良県","city":"桜井市","address":"忍阪"},
{"zip_code":"6330031","kana_pref":"ﾅﾗｹﾝ","kana_city":"ｻｸﾗｲｼ","kana_address":"ｵﾘｲ","pref":"奈良県","city":"桜井市","address":"下居"},
{"zip_code":"6330064","kana_pref":"ﾅﾗｹﾝ","kana_city":"ｻｸﾗｲｼ","kana_address":"ｶｲｼﾞｭｳ","pref":"奈良県","city":"桜井市","address":"戒重"},
{"zip_code":"6330133","kana_pref":"ﾅﾗｹﾝ","kana_city":"ｻｸﾗｲｼ","kana_address":"ｶｻ","pref":"奈良県","city":"桜井市","address":"笠"},
{"zip_code":"6330002","kana_pref":"ﾅﾗｹﾝ","kana_city":"ｻｸﾗｲｼ","kana_address":"ｶﾅﾔ","pref":"奈良県","city":"桜井市","address":"金屋"},
{"zip_code":"6330061","kana_pref":"ﾅﾗｹﾝ","kana_city":"ｻｸﾗｲｼ","kana_address":"ｶﾐﾉｼｮｳ","pref":"奈良県","city":"桜井市","address":"上之庄"},
{"zip_code":"6330106","kana_pref":"ﾅﾗｹﾝ","kana_city":"ｻｸﾗｲｼ","kana_address":"ｶﾔﾓﾘ","pref":"奈良県","city":"桜井市","address":"萱森"},
{"zip_code":"6330063","kana_pref":"ﾅﾗｹﾝ","kana_city":"ｻｸﾗｲｼ","kana_address":"ｶﾜｲ","pref":"奈良県","city":"桜井市","address":"川合"},
{"zip_code":"6330051","kana_pref":"ﾅﾗｹﾝ","kana_city":"ｻｸﾗｲｼ","kana_address":"ｶﾜﾆｼ","pref":"奈良県","city":"桜井市","address":"河西"},
{"zip_code":"6330022","kana_pref":"ﾅﾗｹﾝ","kana_city":"ｻｸﾗｲｼ","kana_address":"ｷﾀｵﾄﾜ","pref":"奈良県","city":"桜井市","address":"北音羽"},
{"zip_code":"6330034","kana_pref":"ﾅﾗｹﾝ","kana_city":"ｻｸﾗｲｼ","kana_address":"ｷﾀﾔﾏ","pref":"奈良県","city":"桜井市","address":"北山"},
{"zip_code":"6330065","kana_pref":"ﾅﾗｹﾝ","kana_city":"ｻｸﾗｲｼ","kana_address":"ｷﾋﾞ","pref":"奈良県","city":"桜井市","address":"吉備"},
{"zip_code":"6330081","kana_pref":"ﾅﾗｹﾝ","kana_city":"ｻｸﾗｲｼ","kana_address":"ｸｻｶﾜ","pref":"奈良県","city":"桜井市","address":"草川"},
{"zip_code":"6330021","kana_pref":"ﾅﾗｹﾝ","kana_city":"ｻｸﾗｲｼ","kana_address":"ｸﾗﾊｼ","pref":"奈良県","city":"桜井市","address":"倉橋"},
{"zip_code":"6330011","kana_pref":"ﾅﾗｹﾝ","kana_city":"ｻｸﾗｲｼ","kana_address":"ｸﾛｻﾞｷ","pref":"奈良県","city":"桜井市","address":"黒崎"},
{"zip_code":"6330012","kana_pref":"ﾅﾗｹﾝ","kana_city":"ｻｸﾗｲｼ","kana_address":"ｺﾏ","pref":"奈良県","city":"桜井市","address":"狛"},
{"zip_code":"6330015","kana_pref":"ﾅﾗｹﾝ","kana_city":"ｻｸﾗｲｼ","kana_address":"ｻｶﾞﾘｵ","pref":"奈良県","city":"桜井市","address":"下り尾"},
{"zip_code":"6330091","kana_pref":"ﾅﾗｹﾝ","kana_city":"ｻｸﾗｲｼ","kana_address":"ｻｸﾗｲ","pref":"奈良県","city":"桜井市","address":"桜井"},
{"zip_code":"6330017","kana_pref":"ﾅﾗｹﾝ","kana_city":"ｻｸﾗｲｼ","kana_address":"ｼﾞｵﾝｼﾞ","pref":"奈良県","city":"桜井市","address":"慈恩寺"},
{"zip_code":"6330074","kana_pref":"ﾅﾗｹﾝ","kana_city":"ｻｸﾗｲｼ","kana_address":"ｼﾊﾞ","pref":"奈良県","city":"桜井市","address":"芝"},
{"zip_code":"6330042","kana_pref":"ﾅﾗｹﾝ","kana_city":"ｻｸﾗｲｼ","kana_address":"ｼﾓ","pref":"奈良県","city":"桜井市","address":"下"},
{"zip_code":"6330131","kana_pref":"ﾅﾗｹﾝ","kana_city":"ｻｸﾗｲｼ","kana_address":"ｼｭﾘｴﾀﾞ","pref":"奈良県","city":"桜井市","address":"修理枝"},
{"zip_code":"6330121","kana_pref":"ﾅﾗｹﾝ","kana_city":"ｻｸﾗｲｼ","kana_address":"ｼﾗｶﾞ","pref":"奈良県","city":"桜井市","address":"白河"},
{"zip_code":"6330105","kana_pref":"ﾅﾗｹﾝ","kana_city":"ｻｸﾗｲｼ","kana_address":"ｼﾗｷ","pref":"奈良県","city":"桜井市","address":"白木"},
{"zip_code":"6330075","kana_pref":"ﾅﾗｹﾝ","kana_city":"ｻｸﾗｲｼ","kana_address":"ｼﾝﾔｼｷ","pref":"奈良県","city":"桜井市","address":"新屋敷"},
{"zip_code":"6330104","kana_pref":"ﾅﾗｹﾝ","kana_city":"ｻｸﾗｲｼ","kana_address":"ｾﾘｲ","pref":"奈良県","city":"桜井市","address":"芹井"},
{"zip_code":"6330044","kana_pref":"ﾅﾗｹﾝ","kana_city":"ｻｸﾗｲｼ","kana_address":"ﾀｲｴ","pref":"奈良県","city":"桜井市","address":"高家"},
{"zip_code":"6330067","kana_pref":"ﾅﾗｹﾝ","kana_city":"ｻｸﾗｲｼ","kana_address":"ﾀﾞｲﾌｸ","pref":"奈良県","city":"桜井市","address":"大福"},
{"zip_code":"6330043","kana_pref":"ﾅﾗｹﾝ","kana_city":"ｻｸﾗｲｼ","kana_address":"ﾀｶﾀ","pref":"奈良県","city":"桜井市","address":"高田"},
{"zip_code":"6330108","kana_pref":"ﾅﾗｹﾝ","kana_city":"ｻｸﾗｲｼ","kana_address":"ﾀｷﾉｸﾗ","pref":"奈良県","city":"桜井市","address":"滝倉"},
{"zip_code":"6330053","kana_pref":"ﾅﾗｹﾝ","kana_city":"ｻｸﾗｲｼ","kana_address":"ﾀﾆ","pref":"奈良県","city":"桜井市","address":"谷"},
{"zip_code":"6330073","kana_pref":"ﾅﾗｹﾝ","kana_city":"ｻｸﾗｲｼ","kana_address":"ﾁﾜﾗ","pref":"奈良県","city":"桜井市","address":"茅原"},
{"zip_code":"6330083","kana_pref":"ﾅﾗｹﾝ","kana_city":"ｻｸﾗｲｼ","kana_address":"ﾂｼﾞ","pref":"奈良県","city":"桜井市","address":"辻"},
{"zip_code":"6330032","kana_pref":"ﾅﾗｹﾝ","kana_city":"ｻｸﾗｲｼ","kana_address":"ﾄｳﾉﾐﾈ","pref":"奈良県","city":"桜井市","address":"多武峰"},
{"zip_code":"6330007","kana_pref":"ﾅﾗｹﾝ","kana_city":"ｻｸﾗｲｼ","kana_address":"ﾄﾋﾞ","pref":"奈良県","city":"桜井市","address":"外山"},
{"zip_code":"6330079","kana_pref":"ﾅﾗｹﾝ","kana_city":"ｻｸﾗｲｼ","kana_address":"ﾄﾖﾀﾞ","pref":"奈良県","city":"桜井市","address":"豊田"},
{"zip_code":"6330107","kana_pref":"ﾅﾗｹﾝ","kana_city":"ｻｸﾗｲｼ","kana_address":"ﾅｶﾀﾆ","pref":"奈良県","city":"桜井市","address":"中谷"},
{"zip_code":"6330033","kana_pref":"ﾅﾗｹﾝ","kana_city":"ｻｸﾗｲｼ","kana_address":"ﾆｼｸﾞﾁ","pref":"奈良県","city":"桜井市","address":"西口"},
{"zip_code":"6330066","kana_pref":"ﾅﾗｹﾝ","kana_city":"ｻｸﾗｲｼ","kana_address":"ﾆｼﾉﾐﾔ","pref":"奈良県","city":"桜井市","address":"西之宮"},
{"zip_code":"6330072","kana_pref":"ﾅﾗｹﾝ","kana_city":"ｻｸﾗｲｼ","kana_address":"ﾊｼﾅｶ","pref":"奈良県","city":"桜井市","address":"箸中"},
{"zip_code":"6330047","kana_pref":"ﾅﾗｹﾝ","kana_city":"ｻｸﾗｲｼ","kana_address":"ﾊｼﾓﾄ","pref":"奈良県","city":"桜井市","address":"橋本"},
{"zip_code":"6330112","kana_pref":"ﾅﾗｹﾝ","kana_city":"ｻｸﾗｲｼ","kana_address":"ﾊｾ","pref":"奈良県","city":"桜井市","address":"初瀬"},
{"zip_code":"6330024","kana_pref":"ﾅﾗｹﾝ","kana_city":"ｻｸﾗｲｼ","kana_address":"ﾊﾘﾐﾁ","pref":"奈良県","city":"桜井市","address":"針道"},
{"zip_code":"6330068","kana_pref":"ﾅﾗｹﾝ","kana_city":"ｻｸﾗｲｼ","kana_address":"ﾋｶﾞｼｼﾝﾄﾞｳ","pref":"奈良県","city":"桜井市","address":"東新堂"},
{"zip_code":"6330085","kana_pref":"ﾅﾗｹﾝ","kana_city":"ｻｸﾗｲｼ","kana_address":"ﾋｶﾞｼﾀﾞ","pref":"奈良県","city":"桜井市","address":"東田"},
{"zip_code":"6330078","kana_pref":"ﾅﾗｹﾝ","kana_city":"ｻｸﾗｲｼ","kana_address":"ﾌﾞﾝｾﾞ","pref":"奈良県","city":"桜井市","address":"豊前"},
{"zip_code":"6330082","kana_pref":"ﾅﾗｹﾝ","kana_city":"ｻｸﾗｲｼ","kana_address":"ﾏｷﾉｳﾁ","pref":"奈良県","city":"桜井市","address":"巻野内"},
{"zip_code":"6330087","kana_pref":"ﾅﾗｹﾝ","kana_city":"ｻｸﾗｲｼ","kana_address":"ﾏﾒｺﾞｼ","pref":"奈良県","city":"桜井市","address":"大豆越"},
{"zip_code":"6330102","kana_pref":"ﾅﾗｹﾝ","kana_city":"ｻｸﾗｲｼ","kana_address":"ﾐﾀﾆ","pref":"奈良県","city":"桜井市","address":"三谷"},
{"zip_code":"6330023","kana_pref":"ﾅﾗｹﾝ","kana_city":"ｻｸﾗｲｼ","kana_address":"ﾐﾅﾐｵﾄﾜ","pref":"奈良県","city":"桜井市","address":"南音羽"},
{"zip_code":"6330001","kana_pref":"ﾅﾗｹﾝ","kana_city":"ｻｸﾗｲｼ","kana_address":"ﾐﾜ","pref":"奈良県","city":"桜井市","address":"三輪"},
{"zip_code":"6330028","kana_pref":"ﾅﾗｹﾝ","kana_city":"ｻｸﾗｲｼ","kana_address":"ﾓﾓﾉｲﾁ","pref":"奈良県","city":"桜井市","address":"百市"},
{"zip_code":"6330025","kana_pref":"ﾅﾗｹﾝ","kana_city":"ｻｸﾗｲｼ","kana_address":"ﾔｲﾅｲ","pref":"奈良県","city":"桜井市","address":"八井内"},
{"zip_code":"6330045","kana_pref":"ﾅﾗｹﾝ","kana_city":"ｻｸﾗｲｼ","kana_address":"ﾔﾏﾀﾞ","pref":"奈良県","city":"桜井市","address":"山田"},
{"zip_code":"6330036","kana_pref":"ﾅﾗｹﾝ","kana_city":"ｻｸﾗｲｼ","kana_address":"ﾖｺｶﾞｷ","pref":"奈良県","city":"桜井市","address":"横柿"},
{"zip_code":"6330111","kana_pref":"ﾅﾗｹﾝ","kana_city":"ｻｸﾗｲｼ","kana_address":"ﾖﾅﾊﾞﾘ","pref":"奈良県","city":"桜井市","address":"吉隠"},
{"zip_code":"6330016","kana_pref":"ﾅﾗｹﾝ","kana_city":"ｻｸﾗｲｼ","kana_address":"ﾘｭｳﾀﾆ","pref":"奈良県","city":"桜井市","address":"竜谷"},
{"zip_code":"6330027","kana_pref":"ﾅﾗｹﾝ","kana_city":"ｻｸﾗｲｼ","kana_address":"ﾛｸﾛ","pref":"奈良県","city":"桜井市","address":"鹿路"},
{"zip_code":"6330018","kana_pref":"ﾅﾗｹﾝ","kana_city":"ｻｸﾗｲｼ","kana_address":"ﾜｷﾓﾄ","pref":"奈良県","city":"桜井市","address":"脇本"},
{"zip_code":"6330132","kana_pref":"ﾅﾗｹﾝ","kana_city":"ｻｸﾗｲｼ","kana_address":"ﾜﾀﾞ","pref":"奈良県","city":"桜井市","address":"和田"},
{"zip_code":"6330200","kana_pref":"ﾅﾗｹﾝ","kana_city":"ｳﾀﾞｼ","kana_address":"","pref":"奈良県","city":"宇陀市","address":""},
{"zip_code":"6332225","kana_pref":"ﾅﾗｹﾝ","kana_city":"ｳﾀﾞｼ","kana_address":"ｳﾀﾉｲﾅﾄﾞ","pref":"奈良県","city":"宇陀市","address":"菟田野稲戸"},
{"zip_code":"6332227","kana_pref":"ﾅﾗｹﾝ","kana_city":"ｳﾀﾞｼ","kana_address":"ｳﾀﾉｲﾜｻｷ","pref":"奈良県","city":"宇陀市","address":"菟田野岩崎"},
{"zip_code":"6332214","kana_pref":"ﾅﾗｹﾝ","kana_city":"ｳﾀﾞｼ","kana_address":"ｳﾀﾉｲﾜﾊｼ","pref":"奈良県","city":"宇陀市","address":"菟田野岩端"},
{"zip_code":"6332223","kana_pref":"ﾅﾗｹﾝ","kana_city":"ｳﾀﾞｼ","kana_address":"ｳﾀﾉｳｶｼ","pref":"奈良県","city":"宇陀市","address":"菟田野宇賀志"},
{"zip_code":"6332202","kana_pref":"ﾅﾗｹﾝ","kana_city":"ｳﾀﾞｼ","kana_address":"ｳﾀﾉｵｵｶﾞﾐ","pref":"奈良県","city":"宇陀市","address":"菟田野大神"},
{"zip_code":"6332204","kana_pref":"ﾅﾗｹﾝ","kana_city":"ｳﾀﾞｼ","kana_address":"ｳﾀﾉｵｵｻﾜ","pref":"奈良県","city":"宇陀市","address":"菟田野大澤"},
{"zip_code":"6332213","kana_pref":"ﾅﾗｹﾝ","kana_city":"ｳﾀﾞｼ","kana_address":"ｳﾀﾉｶﾐﾎｳﾉ","pref":"奈良県","city":"宇陀市","address":"菟田野上芳野"},
{"zip_code":"6332222","kana_pref":"ﾅﾗｹﾝ","kana_city":"ｳﾀﾞｼ","kana_address":"ｳﾀﾉｺﾏｶﾞｴﾘ","pref":"奈良県","city":"宇陀市","address":"菟田野駒帰"},
{"zip_code":"6332224","kana_pref":"ﾅﾗｹﾝ","kana_city":"ｳﾀﾞｼ","kana_address":"ｳﾀﾉｻｸﾗ","pref":"奈良県","city":"宇陀市","address":"菟田野佐倉"},
{"zip_code":"6332212","kana_pref":"ﾅﾗｹﾝ","kana_city":"ｳﾀﾞｼ","kana_address":"ｳﾀﾉｼﾓﾎｳﾉ","pref":"奈良県","city":"宇陀市","address":"菟田野下芳野"},
{"zip_code":"6332215","kana_pref":"ﾅﾗｹﾝ","kana_city":"ｳﾀﾞｼ","kana_address":"ｳﾀﾉﾄｳｺﾞｳ","pref":"奈良県","city":"宇陀市","address":"菟田野東郷"},
{"zip_code":"6332211","kana_pref":"ﾅﾗｹﾝ","kana_city":"ｳﾀﾞｼ","kana_address":"ｳﾀﾉﾆｭｳﾀﾞﾆ","pref":"奈良県","city":"宇陀市","address":"菟田野入谷"},
{"zip_code":"6332201","kana_pref":"ﾅﾗｹﾝ","kana_city":"ｳﾀﾞｼ","kana_address":"ｳﾀﾉﾋﾗｲ","pref":"奈良県","city":"宇陀市","address":"菟田野平井"},
{"zip_code":"6332226","kana_pref":"ﾅﾗｹﾝ","kana_city":"ｳﾀﾞｼ","kana_address":"ｳﾀﾉﾌﾙｲﾁﾊﾞ","pref":"奈良県","city":"宇陀市","address":"菟田野古市場"},
{"zip_code":"6332205","kana_pref":"ﾅﾗｹﾝ","kana_city":"ｳﾀﾞｼ","kana_address":"ｳﾀﾉﾍﾞｯｼｮ","pref":"奈良県","city":"宇陀市","address":"菟田野別所"},
{"zip_code":"6332221","kana_pref":"ﾅﾗｹﾝ","kana_city":"ｳﾀﾞｼ","kana_address":"ｳﾀﾉﾏﾂｲ","pref":"奈良県","city":"宇陀市","address":"菟田野松井"},
{"zip_code":"6332203","kana_pref":"ﾅﾗｹﾝ","kana_city":"ｳﾀﾞｼ","kana_address":"ｳﾀﾉﾐﾀ","pref":"奈良県","city":"宇陀市","address":"菟田野見田"},
{"zip_code":"6332105","kana_pref":"ﾅﾗｹﾝ","kana_city":"ｳﾀﾞｼ","kana_address":"ｵｵｳﾀﾞｱｿﾀﾞ","pref":"奈良県","city":"宇陀市","address":"大宇陀麻生田"},
{"zip_code":"6332101","kana_pref":"ﾅﾗｹﾝ","kana_city":"ｳﾀﾞｼ","kana_address":"ｵｵｳﾀﾞｲﾂﾂ","pref":"奈良県","city":"宇陀市","address":"大宇陀五津"},
{"zip_code":"6332162","kana_pref":"ﾅﾗｹﾝ","kana_city":"ｳﾀﾞｼ","kana_address":"ｵｵｳﾀﾞｲﾃﾞｼﾝ","pref":"奈良県","city":"宇陀市","address":"大宇陀出新"},
{"zip_code":"6332126","kana_pref":"ﾅﾗｹﾝ","kana_city":"ｳﾀﾞｼ","kana_address":"ｵｵｳﾀﾞｲﾜｼﾐｽﾞ","pref":"奈良県","city":"宇陀市","address":"大宇陀岩清水"},
{"zip_code":"6332116","kana_pref":"ﾅﾗｹﾝ","kana_city":"ｳﾀﾞｼ","kana_address":"ｵｵｳﾀﾞｲﾜﾑﾛ","pref":"奈良県","city":"宇陀市","address":"大宇陀岩室"},
{"zip_code":"6332111","kana_pref":"ﾅﾗｹﾝ","kana_city":"ｳﾀﾞｼ","kana_address":"ｵｵｳﾀﾞｳﾁﾊﾗ","pref":"奈良県","city":"宇陀市","address":"大宇陀内原"},
{"zip_code":"6332107","kana_pref":"ﾅﾗｹﾝ","kana_city":"ｳﾀﾞｼ","kana_address":"ｵｵｳﾀﾞｳﾚｼｶﾞﾜﾗ","pref":"奈良県","city":"宇陀市","address":"大宇陀嬉河原"},
{"zip_code":"6332136","kana_pref":"ﾅﾗｹﾝ","kana_city":"ｳﾀﾞｼ","kana_address":"ｵｵｳﾀﾞｵｵｸﾏ","pref":"奈良県","city":"宇陀市","address":"大宇陀大熊"},
{"zip_code":"6332114","kana_pref":"ﾅﾗｹﾝ","kana_city":"ｳﾀﾞｼ","kana_address":"ｵｵｳﾀﾞｶｽｶﾞ","pref":"奈良県","city":"宇陀市","address":"大宇陀春日"},
{"zip_code":"6332174","kana_pref":"ﾅﾗｹﾝ","kana_city":"ｳﾀﾞｼ","kana_address":"ｵｵｳﾀﾞｶﾐ","pref":"奈良県","city":"宇陀市","address":"大宇陀上"},
{"zip_code":"6332141","kana_pref":"ﾅﾗｹﾝ","kana_city":"ｳﾀﾞｼ","kana_address":"ｵｵｳﾀﾞｶﾐｶﾀｵｶ","pref":"奈良県","city":"宇陀市","address":"大宇陀上片岡"},
{"zip_code":"6332133","kana_pref":"ﾅﾗｹﾝ","kana_city":"ｳﾀﾞｼ","kana_address":"ｵｵｳﾀﾞｶﾐｼﾅ","pref":"奈良県","city":"宇陀市","address":"大宇陀上品"},
{"zip_code":"6332161","kana_pref":"ﾅﾗｹﾝ","kana_city":"ｳﾀﾞｼ","kana_address":"ｵｵｳﾀﾞｶﾐｼﾝ","pref":"奈良県","city":"宇陀市","address":"大宇陀上新"},
{"zip_code":"6332171","kana_pref":"ﾅﾗｹﾝ","kana_city":"ｳﾀﾞｼ","kana_address":"ｵｵｳﾀﾞｶﾐﾁｬ","pref":"奈良県","city":"宇陀市","address":"大宇陀上茶"},
{"zip_code":"6332173","kana_pref":"ﾅﾗｹﾝ","kana_city":"ｳﾀﾞｼ","kana_address":"ｵｵｳﾀﾞｶﾐﾅｶ","pref":"奈良県","city":"宇陀市","address":"大宇陀上中"},
{"zip_code":"6332172","kana_pref":"ﾅﾗｹﾝ","kana_city":"ｳﾀﾞｼ","kana_address":"ｵｵｳﾀﾞｶﾐﾎﾝ","pref":"奈良県","city":"宇陀市","address":"大宇陀上本"},
{"zip_code":"6332104","kana_pref":"ﾅﾗｹﾝ","kana_city":"ｳﾀﾞｼ","kana_address":"ｵｵｳﾀﾞｸﾁｲﾏｲ","pref":"奈良県","city":"宇陀市","address":"大宇陀口今井"},
{"zip_code":"6332144","kana_pref":"ﾅﾗｹﾝ","kana_city":"ｳﾀﾞｼ","kana_address":"ｵｵｳﾀﾞｸﾘﾉ","pref":"奈良県","city":"宇陀市","address":"大宇陀栗野"},
{"zip_code":"6332155","kana_pref":"ﾅﾗｹﾝ","kana_city":"ｳﾀﾞｼ","kana_address":"ｵｵｳﾀﾞｸﾛｷﾞ","pref":"奈良県","city":"宇陀市","address":"大宇陀黒木"},
{"zip_code":"6332176","kana_pref":"ﾅﾗｹﾝ","kana_city":"ｳﾀﾞｼ","kana_address":"ｵｵｳﾀﾞｺｲﾃﾞｸﾞﾁ","pref":"奈良県","city":"宇陀市","address":"大宇陀小出口"},
{"zip_code":"6332112","kana_pref":"ﾅﾗｹﾝ","kana_city":"ｳﾀﾞｼ","kana_address":"ｵｵｳﾀﾞｺｳﾂｹ","pref":"奈良県","city":"宇陀市","address":"大宇陀小附"},
{"zip_code":"6332134","kana_pref":"ﾅﾗｹﾝ","kana_city":"ｳﾀﾞｼ","kana_address":"ｵｵｳﾀﾞｺﾜﾀﾞ","pref":"奈良県","city":"宇陀市","address":"大宇陀小和田"},
{"zip_code":"6332124","kana_pref":"ﾅﾗｹﾝ","kana_city":"ｳﾀﾞｼ","kana_address":"ｵｵｳﾀﾞｻｲｶﾞﾂｼﾞ","pref":"奈良県","city":"宇陀市","address":"大宇陀才ケ辻"},
{"zip_code":"6332117","kana_pref":"ﾅﾗｹﾝ","kana_city":"ｳﾀﾞｼ","kana_address":"ｵｵｳﾀﾞｼﾎﾞｳ","pref":"奈良県","city":"宇陀市","address":"大宇陀芝生"},
{"zip_code":"6332137","kana_pref":"ﾅﾗｹﾝ","kana_city":"ｳﾀﾞｼ","kana_address":"ｵｵｳﾀﾞｼﾓｶﾀｵｶ","pref":"奈良県","city":"宇陀市","address":"大宇陀下片岡"},
{"zip_code":"6332132","kana_pref":"ﾅﾗｹﾝ","kana_city":"ｳﾀﾞｼ","kana_address":"ｵｵｳﾀﾞｼﾓｼﾅ","pref":"奈良県","city":"宇陀市","address":"大宇陀下品"},
{"zip_code":"6332113","kana_pref":"ﾅﾗｹﾝ","kana_city":"ｳﾀﾞｼ","kana_address":"ｵｵｳﾀﾞｼﾓﾀｹ","pref":"奈良県","city":"宇陀市","address":"大宇陀下竹"},
{"zip_code":"6332170","kana_pref":"ﾅﾗｹﾝ","kana_city":"ｳﾀﾞｼ","kana_address":"ｵｵｳﾀﾞｼﾓﾁｬ","pref":"奈良県","city":"宇陀市","address":"大宇陀下茶"},
{"zip_code":"6332177","kana_pref":"ﾅﾗｹﾝ","kana_city":"ｳﾀﾞｼ","kana_address":"ｵｵｳﾀﾞｼﾓﾃﾞｸﾞﾁ","pref":"奈良県","city":"宇陀市","address":"大宇陀下出口"},
{"zip_code":"6332178","kana_pref":"ﾅﾗｹﾝ","kana_city":"ｳﾀﾞｼ","kana_address":"ｵｵｳﾀﾞｼﾓﾅｶ","pref":"奈良県","city":"宇陀市","address":"大宇陀下中"},
{"zip_code":"6332179","kana_pref":"ﾅﾗｹﾝ","kana_city":"ｳﾀﾞｼ","kana_address":"ｵｵｳﾀﾞｼﾓﾎﾝ","pref":"奈良県","city":"宇陀市","address":"大宇陀下本"},
{"zip_code":"6332153","kana_pref":"ﾅﾗｹﾝ","kana_city":"ｳﾀﾞｼ","kana_address":"ｵｵｳﾀﾞｼﾓﾐﾔﾉｵｸ","pref":"奈良県","city":"宇陀市","address":"大宇陀下宮奥"},
{"zip_code":"6332138","kana_pref":"ﾅﾗｹﾝ","kana_city":"ｳﾀﾞｼ","kana_address":"ｵｵｳﾀﾞｼﾗﾄﾘｲ","pref":"奈良県","city":"宇陀市","address":"大宇陀白鳥居"},
{"zip_code":"6332152","kana_pref":"ﾅﾗｹﾝ","kana_city":"ｳﾀﾞｼ","kana_address":"ｵｵｳﾀﾞｾｷﾄﾞ","pref":"奈良県","city":"宇陀市","address":"大宇陀関戸"},
{"zip_code":"6332151","kana_pref":"ﾅﾗｹﾝ","kana_city":"ｳﾀﾞｼ","kana_address":"ｵｵｳﾀﾞﾀﾞｲﾄｳ","pref":"奈良県","city":"宇陀市","address":"大宇陀大東"},
{"zip_code":"6332142","kana_pref":"ﾅﾗｹﾝ","kana_city":"ｳﾀﾞｼ","kana_address":"ｵｵｳﾀﾞﾀﾜﾗ","pref":"奈良県","city":"宇陀市","address":"大宇陀田原"},
{"zip_code":"6332122","kana_pref":"ﾅﾗｹﾝ","kana_city":"ｳﾀﾞｼ","kana_address":"ｵｵｳﾀﾞﾁｮｳｼ","pref":"奈良県","city":"宇陀市","address":"大宇陀調子"},
{"zip_code":"6332121","kana_pref":"ﾅﾗｹﾝ","kana_city":"ｳﾀﾞｼ","kana_address":"ｵｵｳﾀﾞﾂｶﾜｷ","pref":"奈良県","city":"宇陀市","address":"大宇陀塚脇"},
{"zip_code":"6332175","kana_pref":"ﾅﾗｹﾝ","kana_city":"ｳﾀﾞｼ","kana_address":"ｵｵｳﾀﾞﾅｶｼﾝ","pref":"奈良県","city":"宇陀市","address":"大宇陀中新"},
{"zip_code":"6332165","kana_pref":"ﾅﾗｹﾝ","kana_city":"ｳﾀﾞｼ","kana_address":"ｵｵｳﾀﾞﾅｶﾉｼｮｳ","pref":"奈良県","city":"宇陀市","address":"大宇陀中庄"},
{"zip_code":"6332115","kana_pref":"ﾅﾗｹﾝ","kana_city":"ｳﾀﾞｼ","kana_address":"ｵｵｳﾀﾞﾆｼﾔﾏ","pref":"奈良県","city":"宇陀市","address":"大宇陀西山"},
{"zip_code":"6332103","kana_pref":"ﾅﾗｹﾝ","kana_city":"ｳﾀﾞｼ","kana_address":"ｵｵｳﾀﾞﾉﾖﾘ","pref":"奈良県","city":"宇陀市","address":"大宇陀野依"},
{"zip_code":"6332166","kana_pref":"ﾅﾗｹﾝ","kana_city":"ｳﾀﾞｼ","kana_address":"ｵｵｳﾀﾞﾊｻﾏ","pref":"奈良県","city":"宇陀市","address":"大宇陀迫間"},
{"zip_code":"6332108","kana_pref":"ﾅﾗｹﾝ","kana_city":"ｳﾀﾞｼ","kana_address":"ｵｵｳﾀﾞﾊﾝｻｶ","pref":"奈良県","city":"宇陀市","address":"大宇陀半阪"},
{"zip_code":"6332135","kana_pref":"ﾅﾗｹﾝ","kana_city":"ｳﾀﾞｼ","kana_address":"ｵｵｳﾀﾞﾋｶﾞｼﾋﾗｵ","pref":"奈良県","city":"宇陀市","address":"大宇陀東平尾"},
{"zip_code":"6332102","kana_pref":"ﾅﾗｹﾝ","kana_city":"ｳﾀﾞｼ","kana_address":"ｵｵｳﾀﾞﾋﾗｵ","pref":"奈良県","city":"宇陀市","address":"大宇陀平尾"},
{"zip_code":"6332164","kana_pref":"ﾅﾗｹﾝ","kana_city":"ｳﾀﾞｼ","kana_address":"ｵｵｳﾀﾞﾋﾛｳ","pref":"奈良県","city":"宇陀市","address":"大宇陀拾生"},
{"zip_code":"6332123","kana_pref":"ﾅﾗｹﾝ","kana_city":"ｳﾀﾞｼ","kana_address":"ｵｵｳﾀﾞﾌｼﾞｲ","pref":"奈良県","city":"宇陀市","address":"大宇陀藤井"},
{"zip_code":"6332156","kana_pref":"ﾅﾗｹﾝ","kana_city":"ｳﾀﾞｼ","kana_address":"ｵｵｳﾀﾞﾎﾝｺﾞｳ","pref":"奈良県","city":"宇陀市","address":"大宇陀本郷"},
{"zip_code":"6332143","kana_pref":"ﾅﾗｹﾝ","kana_city":"ｳﾀﾞｼ","kana_address":"ｵｵｳﾀﾞﾏｷ","pref":"奈良県","city":"宇陀市","address":"大宇陀牧"},
{"zip_code":"6332106","kana_pref":"ﾅﾗｹﾝ","kana_city":"ｳﾀﾞｼ","kana_address":"ｵｵｳﾀﾞﾏﾄﾘｶﾞｷ","pref":"奈良県","city":"宇陀市","address":"大宇陀馬取柿"},
{"zip_code":"6332163","kana_pref":"ﾅﾗｹﾝ","kana_city":"ｳﾀﾞｼ","kana_address":"ｵｵｳﾀﾞﾏﾝﾛｸ","pref":"奈良県","city":"宇陀市","address":"大宇陀万六"},
{"zip_code":"6332154","kana_pref":"ﾅﾗｹﾝ","kana_city":"ｳﾀﾞｼ","kana_address":"ｵｵｳﾀﾞﾐﾔﾉｵｸ","pref":"奈良県","city":"宇陀市","address":"大宇陀宮奥"},
{"zip_code":"6332125","kana_pref":"ﾅﾗｹﾝ","kana_city":"ｳﾀﾞｼ","kana_address":"ｵｵｳﾀﾞﾓﾁ","pref":"奈良県","city":"宇陀市","address":"大宇陀守道"},
{"zip_code":"6332139","kana_pref":"ﾅﾗｹﾝ","kana_city":"ｳﾀﾞｼ","kana_address":"ｵｵｳﾀﾞﾔﾏｸﾞﾁ","pref":"奈良県","city":"宇陀市","address":"大宇陀山口"},
{"zip_code":"6332131","kana_pref":"ﾅﾗｹﾝ","kana_city":"ｳﾀﾞｼ","kana_address":"ｵｵｳﾀﾞﾜﾀﾞ","pref":"奈良県","city":"宇陀市","address":"大宇陀和田"},
{"zip_code":"6330207","kana_pref":"ﾅﾗｹﾝ","kana_city":"ｳﾀﾞｼ","kana_address":"ﾊｲﾊﾞﾗｱｶｾﾞ","pref":"奈良県","city":"宇陀市","address":"榛原赤瀬"},
{"zip_code":"6330256","kana_pref":"ﾅﾗｹﾝ","kana_city":"ｳﾀﾞｼ","kana_address":"ﾊｲﾊﾞﾗｱｶﾈﾀﾞｲ","pref":"奈良県","city":"宇陀市","address":"榛原あかね台"},
{"zip_code":"6330213","kana_pref":"ﾅﾗｹﾝ","kana_city":"ｳﾀﾞｼ","kana_address":"ﾊｲﾊﾞﾗｱｶﾊﾞﾈ","pref":"奈良県","city":"宇陀市","address":"榛原赤埴"},
{"zip_code":"6330231","kana_pref":"ﾅﾗｹﾝ","kana_city":"ｳﾀﾞｼ","kana_address":"ﾊｲﾊﾞﾗｱﾀﾞﾁ","pref":"奈良県","city":"宇陀市","address":"榛原足立"},
{"zip_code":"6330243","kana_pref":"ﾅﾗｹﾝ","kana_city":"ｳﾀﾞｼ","kana_address":"ﾊｲﾊﾞﾗｱﾒｼ","pref":"奈良県","city":"宇陀市","address":"榛原雨師"},
{"zip_code":"6330232","kana_pref":"ﾅﾗｹﾝ","kana_city":"ｳﾀﾞｼ","kana_address":"ﾊｲﾊﾞﾗｲｹｶﾞﾐ","pref":"奈良県","city":"宇陀市","address":"榛原池上"},
{"zip_code":"6330223","kana_pref":"ﾅﾗｹﾝ","kana_city":"ｳﾀﾞｼ","kana_address":"ﾊｲﾊﾞﾗｲｼﾀﾞ","pref":"奈良県","city":"宇陀市","address":"榛原石田"},
{"zip_code":"6330215","kana_pref":"ﾅﾗｹﾝ","kana_city":"ｳﾀﾞｼ","kana_address":"ﾊｲﾊﾞﾗｳﾁﾏｷ","pref":"奈良県","city":"宇陀市","address":"榛原内牧"},
{"zip_code":"6330225","kana_pref":"ﾅﾗｹﾝ","kana_city":"ｳﾀﾞｼ","kana_address":"ﾊｲﾊﾞﾗｵｵｶﾞｲ","pref":"奈良県","city":"宇陀市","address":"榛原大貝"},
{"zip_code":"6330201","kana_pref":"ﾅﾗｹﾝ","kana_city":"ｳﾀﾞｼ","kana_address":"ﾊｲﾊﾞﾗｶｲﾊﾞ","pref":"奈良県","city":"宇陀市","address":"榛原戒場"},
{"zip_code":"6330245","kana_pref":"ﾅﾗｹﾝ","kana_city":"ｳﾀﾞｼ","kana_address":"ﾊｲﾊﾞﾗｶｻﾏ","pref":"奈良県","city":"宇陀市","address":"榛原笠間"},
{"zip_code":"6330222","kana_pref":"ﾅﾗｹﾝ","kana_city":"ｳﾀﾞｼ","kana_address":"ﾊｲﾊﾞﾗｶﾐｲﾀﾞﾆ","pref":"奈良県","city":"宇陀市","address":"榛原上井足"},
{"zip_code":"6330228","kana_pref":"ﾅﾗｹﾝ","kana_city":"ｳﾀﾞｼ","kana_address":"ﾊｲﾊﾞﾗｸﾘﾀﾞﾆ","pref":"奈良県","city":"宇陀市","address":"榛原栗谷"},
{"zip_code":"6330252","kana_pref":"ﾅﾗｹﾝ","kana_city":"ｳﾀﾞｼ","kana_address":"ﾊｲﾊﾞﾗｻｸﾗｶﾞｵｶ","pref":"奈良県","city":"宇陀市","address":"榛原桜が丘"},
{"zip_code":"6330242","kana_pref":"ﾅﾗｹﾝ","kana_city":"ｳﾀﾞｼ","kana_address":"ﾊｲﾊﾞﾗｻｻｶﾞｸ","pref":"奈良県","city":"宇陀市","address":"榛原篠楽"},
{"zip_code":"6330226","kana_pref":"ﾅﾗｹﾝ","kana_city":"ｳﾀﾞｼ","kana_address":"ﾊｲﾊﾞﾗｻﾜ","pref":"奈良県","city":"宇陀市","address":"榛原澤"},
{"zip_code":"6330227","kana_pref":"ﾅﾗｹﾝ","kana_city":"ｳﾀﾞｼ","kana_address":"ﾊｲﾊﾞﾗｻﾝｸﾞｳｼﾞ","pref":"奈良県","city":"宇陀市","address":"榛原三宮寺"},
{"zip_code":"6330217","kana_pref":"ﾅﾗｹﾝ","kana_city":"ｳﾀﾞｼ","kana_address":"ﾊｲﾊﾞﾗｼﾞﾐｮｳ","pref":"奈良県","city":"宇陀市","address":"榛原自明"},
{"zip_code":"6330241","kana_pref":"ﾅﾗｹﾝ","kana_city":"ｳﾀﾞｼ","kana_address":"ﾊｲﾊﾞﾗｼﾓｲﾀﾞﾆ","pref":"奈良県","city":"宇陀市","address":"榛原下井足"},
{"zip_code":"6330212","kana_pref":"ﾅﾗｹﾝ","kana_city":"ｳﾀﾞｼ","kana_address":"ﾊｲﾊﾞﾗﾀｶｲ","pref":"奈良県","city":"宇陀市","address":"榛原高井"},
{"zip_code":"6330234","kana_pref":"ﾅﾗｹﾝ","kana_city":"ｳﾀﾞｼ","kana_address":"ﾊｲﾊﾞﾗﾀｶﾂｶ","pref":"奈良県","city":"宇陀市","address":"榛原高塚"},
{"zip_code":"6330254","kana_pref":"ﾅﾗｹﾝ","kana_city":"ｳﾀﾞｼ","kana_address":"ﾊｲﾊﾞﾗﾀｶﾊｷﾞﾀﾞｲ","pref":"奈良県","city":"宇陀市","address":"榛原高萩台"},
{"zip_code":"6330255","kana_pref":"ﾅﾗｹﾝ","kana_city":"ｳﾀﾞｼ","kana_address":"ﾊｲﾊﾞﾗﾂﾉｶﾞﾜﾗ","pref":"奈良県","city":"宇陀市","address":"榛原角柄"},
{"zip_code":"6330206","kana_pref":"ﾅﾗｹﾝ","kana_city":"ｳﾀﾞｼ","kana_address":"ﾊｲﾊﾞﾗﾃﾝﾏﾀﾞｲﾆｼ","pref":"奈良県","city":"宇陀市","address":"榛原天満台西"},
{"zip_code":"6330205","kana_pref":"ﾅﾗｹﾝ","kana_city":"ｳﾀﾞｼ","kana_address":"ﾊｲﾊﾞﾗﾃﾝﾏﾀﾞｲﾋｶﾞｼ","pref":"奈良県","city":"宇陀市","address":"榛原天満台東"},
{"zip_code":"6330203","kana_pref":"ﾅﾗｹﾝ","kana_city":"ｳﾀﾞｼ","kana_address":"ﾊｲﾊﾞﾗﾅｶﾞﾐﾈ","pref":"奈良県","city":"宇陀市","address":"榛原長峯"},
{"zip_code":"6330211","kana_pref":"ﾅﾗｹﾝ","kana_city":"ｳﾀﾞｼ","kana_address":"ﾊｲﾊﾞﾗﾆｻﾞｶ","pref":"奈良県","city":"宇陀市","address":"榛原荷阪"},
{"zip_code":"6330208","kana_pref":"ﾅﾗｹﾝ","kana_city":"ｳﾀﾞｼ","kana_address":"ﾊｲﾊﾞﾗﾇｶｲ","pref":"奈良県","city":"宇陀市","address":"榛原額井"},
{"zip_code":"6330221","kana_pref":"ﾅﾗｹﾝ","kana_city":"ｳﾀﾞｼ","kana_address":"ﾊｲﾊﾞﾗﾊｷﾞﾉｻﾄ","pref":"奈良県","city":"宇陀市","address":"榛原萩乃里"},
{"zip_code":"6330253","kana_pref":"ﾅﾗｹﾝ","kana_city":"ｳﾀﾞｼ","kana_address":"ﾊｲﾊﾞﾗﾊｷﾞﾊﾗ","pref":"奈良県","city":"宇陀市","address":"榛原萩原"},
{"zip_code":"6330257","kana_pref":"ﾅﾗｹﾝ","kana_city":"ｳﾀﾞｼ","kana_address":"ﾊｲﾊﾞﾗﾊﾙﾐｶﾞｵｶ","pref":"奈良県","city":"宇陀市","address":"榛原榛見が丘"},
{"zip_code":"6330251","kana_pref":"ﾅﾗｹﾝ","kana_city":"ｳﾀﾞｼ","kana_address":"ﾊｲﾊﾞﾗﾋﾉｷｻﾞｶ","pref":"奈良県","city":"宇陀市","address":"榛原ひのき坂"},
{"zip_code":"6330218","kana_pref":"ﾅﾗｹﾝ","kana_city":"ｳﾀﾞｼ","kana_address":"ﾊｲﾊﾞﾗﾋﾉﾏｷ","pref":"奈良県","city":"宇陀市","address":"榛原檜牧"},
{"zip_code":"6330235","kana_pref":"ﾅﾗｹﾝ","kana_city":"ｳﾀﾞｼ","kana_address":"ﾊｲﾊﾞﾗﾋﾌ","pref":"奈良県","city":"宇陀市","address":"榛原比布"},
{"zip_code":"6330204","kana_pref":"ﾅﾗｹﾝ","kana_city":"ｳﾀﾞｼ","kana_address":"ﾊｲﾊﾞﾗﾌｸﾁ","pref":"奈良県","city":"宇陀市","address":"榛原福地"},
{"zip_code":"6330233","kana_pref":"ﾅﾗｹﾝ","kana_city":"ｳﾀﾞｼ","kana_address":"ﾊｲﾊﾞﾗﾌｸﾆｼ","pref":"奈良県","city":"宇陀市","address":"榛原福西"},
{"zip_code":"6330236","kana_pref":"ﾅﾗｹﾝ","kana_city":"ｳﾀﾞｼ","kana_address":"ﾊｲﾊﾞﾗﾓﾘ","pref":"奈良県","city":"宇陀市","address":"榛原母里"},
{"zip_code":"6330214","kana_pref":"ﾅﾗｹﾝ","kana_city":"ｳﾀﾞｼ","kana_address":"ﾊｲﾊﾞﾗﾓﾛｷﾉ","pref":"奈良県","city":"宇陀市","address":"榛原諸木野"},
{"zip_code":"6330244","kana_pref":"ﾅﾗｹﾝ","kana_city":"ｳﾀﾞｼ","kana_address":"ﾊｲﾊﾞﾗﾔｽﾀﾞ","pref":"奈良県","city":"宇陀市","address":"榛原安田"},
{"zip_code":"6330216","kana_pref":"ﾅﾗｹﾝ","kana_city":"ｳﾀﾞｼ","kana_address":"ﾊｲﾊﾞﾗﾔﾀｷ","pref":"奈良県","city":"宇陀市","address":"榛原八滝"},
{"zip_code":"6330246","kana_pref":"ﾅﾗｹﾝ","kana_city":"ｳﾀﾞｼ","kana_address":"ﾊｲﾊﾞﾗﾔﾅｷﾞ","pref":"奈良県","city":"宇陀市","address":"榛原柳"},
{"zip_code":"6330224","kana_pref":"ﾅﾗｹﾝ","kana_city":"ｳﾀﾞｼ","kana_address":"ﾊｲﾊﾞﾗﾔﾏｼﾞ","pref":"奈良県","city":"宇陀市","address":"榛原山路"},
{"zip_code":"6330202","kana_pref":"ﾅﾗｹﾝ","kana_city":"ｳﾀﾞｼ","kana_address":"ﾊｲﾊﾞﾗﾔﾏﾍﾞｻﾝ","pref":"奈良県","city":"宇陀市","address":"榛原山辺三"},
{"zip_code":"6330421","kana_pref":"ﾅﾗｹﾝ","kana_city":"ｳﾀﾞｼ","kana_address":"ﾑﾛｳ","pref":"奈良県","city":"宇陀市","address":"室生"},
{"zip_code":"6330315","kana_pref":"ﾅﾗｹﾝ","kana_city":"ｳﾀﾞｼ","kana_address":"ﾑﾛｳｵｵﾉ","pref":"奈良県","city":"宇陀市","address":"室生大野"},
{"zip_code":"6330425","kana_pref":"ﾅﾗｹﾝ","kana_city":"ｳﾀﾞｼ","kana_address":"ﾑﾛｳｸﾛｲﾜ","pref":"奈良県","city":"宇陀市","address":"室生黒岩"},
{"zip_code":"6330317","kana_pref":"ﾅﾗｹﾝ","kana_city":"ｳﾀﾞｼ","kana_address":"ﾑﾛｳｻﾝﾎﾞﾝﾏﾂ","pref":"奈良県","city":"宇陀市","address":"室生三本松"},
{"zip_code":"6330422","kana_pref":"ﾅﾗｹﾝ","kana_city":"ｳﾀﾞｼ","kana_address":"ﾑﾛｳｼﾓﾀｸﾞﾁ","pref":"奈良県","city":"宇陀市","address":"室生下田口"},
{"zip_code":"6330313","kana_pref":"ﾅﾗｹﾝ","kana_city":"ｳﾀﾞｼ","kana_address":"ﾑﾛｳﾀｷﾀﾞﾆ","pref":"奈良県","city":"宇陀市","address":"室生瀧谷"},
{"zip_code":"6330424","kana_pref":"ﾅﾗｹﾝ","kana_city":"ｳﾀﾞｼ","kana_address":"ﾑﾛｳﾀｸﾞﾁﾓﾄｶﾐﾀｸﾞﾁ","pref":"奈良県","city":"宇陀市","address":"室生田口元上田口"},
{"zip_code":"6330423","kana_pref":"ﾅﾗｹﾝ","kana_city":"ｳﾀﾞｼ","kana_address":"ﾑﾛｳﾀｸﾞﾁﾓﾄﾂﾉｶﾞﾜ","pref":"奈良県","city":"宇陀市","address":"室生田口元角川"},
{"zip_code":"6330314","kana_pref":"ﾅﾗｹﾝ","kana_city":"ｳﾀﾞｼ","kana_address":"ﾑﾛｳﾄﾄﾘ","pref":"奈良県","city":"宇陀市","address":"室生砥取"},
{"zip_code":"6330312","kana_pref":"ﾅﾗｹﾝ","kana_city":"ｳﾀﾞｼ","kana_address":"ﾑﾛｳﾆｼﾀﾆ","pref":"奈良県","city":"宇陀市","address":"室生西谷"},
{"zip_code":"6330316","kana_pref":"ﾅﾗｹﾝ","kana_city":"ｳﾀﾞｼ","kana_address":"ﾑﾛｳﾑｺｳﾁﾞ","pref":"奈良県","city":"宇陀市","address":"室生向渕"},
{"zip_code":"6330311","kana_pref":"ﾅﾗｹﾝ","kana_city":"ｳﾀﾞｼ","kana_address":"ﾑﾛｳﾘｭｳｸﾞﾁ","pref":"奈良県","city":"宇陀市","address":"室生龍口"},
{"zip_code":"6331200","kana_pref":"ﾅﾗｹﾝ","kana_city":"ｳﾀﾞｸﾞﾝｿﾆﾑﾗ","kana_address":"","pref":"奈良県","city":"宇陀郡曽爾村","address":""},
{"zip_code":"6331201","kana_pref":"ﾅﾗｹﾝ","kana_city":"ｳﾀﾞｸﾞﾝｿﾆﾑﾗ","kana_address":"ｲｶﾞﾐ","pref":"奈良県","city":"宇陀郡曽爾村","address":"伊賀見"},
{"zip_code":"6331212","kana_pref":"ﾅﾗｹﾝ","kana_city":"ｳﾀﾞｸﾞﾝｿﾆﾑﾗ","kana_address":"ｲﾏｲ","pref":"奈良県","city":"宇陀郡曽爾村","address":"今井"},
{"zip_code":"6331215","kana_pref":"ﾅﾗｹﾝ","kana_city":"ｳﾀﾞｸﾞﾝｿﾆﾑﾗ","kana_address":"ｶｹ","pref":"奈良県","city":"宇陀郡曽爾村","address":"掛"},
{"zip_code":"6331203","kana_pref":"ﾅﾗｹﾝ","kana_city":"ｳﾀﾞｸﾞﾝｿﾆﾑﾗ","kana_address":"ｶｽﾞﾗ","pref":"奈良県","city":"宇陀郡曽爾村","address":"葛"},
{"zip_code":"6331213","kana_pref":"ﾅﾗｹﾝ","kana_city":"ｳﾀﾞｸﾞﾝｿﾆﾑﾗ","kana_address":"ｺﾅｶﾞｵ","pref":"奈良県","city":"宇陀郡曽爾村","address":"小長尾"},
{"zip_code":"6331211","kana_pref":"ﾅﾗｹﾝ","kana_city":"ｳﾀﾞｸﾞﾝｿﾆﾑﾗ","kana_address":"ｼｵｲ","pref":"奈良県","city":"宇陀郡曽爾村","address":"塩井"},
{"zip_code":"6331202","kana_pref":"ﾅﾗｹﾝ","kana_city":"ｳﾀﾞｸﾞﾝｿﾆﾑﾗ","kana_address":"ﾀﾛｼﾞ","pref":"奈良県","city":"宇陀郡曽爾村","address":"太良路"},
{"zip_code":"6331214","kana_pref":"ﾅﾗｹﾝ","kana_city":"ｳﾀﾞｸﾞﾝｿﾆﾑﾗ","kana_address":"ﾅｶﾞﾉ","pref":"奈良県","city":"宇陀郡曽爾村","address":"長野"},
{"zip_code":"6331216","kana_pref":"ﾅﾗｹﾝ","kana_city":"ｳﾀﾞｸﾞﾝｿﾆﾑﾗ","kana_address":"ﾔﾏｶﾞｽ","pref":"奈良県","city":"宇陀郡曽爾村","address":"山粕"},
{"zip_code":"6331300","kana_pref":"ﾅﾗｹﾝ","kana_city":"ｳﾀﾞｸﾞﾝﾐﾂｴﾑﾗ","kana_address":"","pref":"奈良県","city":"宇陀郡御杖村","address":""},
{"zip_code":"6331301","kana_pref":"ﾅﾗｹﾝ","kana_city":"ｳﾀﾞｸﾞﾝﾐﾂｴﾑﾗ","kana_address":"ｺｳｽﾞｴ","pref":"奈良県","city":"宇陀郡御杖村","address":"神末"},
{"zip_code":"6331302","kana_pref":"ﾅﾗｹﾝ","kana_city":"ｳﾀﾞｸﾞﾝﾐﾂｴﾑﾗ","kana_address":"ｽｶﾞﾉ","pref":"奈良県","city":"宇陀郡御杖村","address":"菅野"},
{"zip_code":"6331303","kana_pref":"ﾅﾗｹﾝ","kana_city":"ｳﾀﾞｸﾞﾝﾐﾂｴﾑﾗ","kana_address":"ﾂﾁﾔﾊﾗ","pref":"奈良県","city":"宇陀郡御杖村","address":"土屋原"},
{"zip_code":"6331304","kana_pref":"ﾅﾗｹﾝ","kana_city":"ｳﾀﾞｸﾞﾝﾐﾂｴﾑﾗ","kana_address":"ﾓﾓﾉﾏﾀ","pref":"奈良県","city":"宇陀郡御杖村","address":"桃俣"},
{"zip_code":"6332400","kana_pref":"ﾅﾗｹﾝ","kana_city":"ﾖｼﾉｸﾞﾝﾋｶﾞｼﾖｼﾉﾑﾗ","kana_address":"","pref":"奈良県","city":"吉野郡東吉野村","address":""},
{"zip_code":"6332312","kana_pref":"ﾅﾗｹﾝ","kana_city":"ﾖｼﾉｸﾞﾝﾋｶﾞｼﾖｼﾉﾑﾗ","kana_address":"ｲｽﾞｵ","pref":"奈良県","city":"吉野郡東吉野村","address":"伊豆尾"},
{"zip_code":"6332444","kana_pref":"ﾅﾗｹﾝ","kana_city":"ﾖｼﾉｸﾞﾝﾋｶﾞｼﾖｼﾉﾑﾗ","kana_address":"ｵｵﾏﾀ","pref":"奈良県","city":"吉野郡東吉野村","address":"大又"},
{"zip_code":"6332421","kana_pref":"ﾅﾗｹﾝ","kana_city":"ﾖｼﾉｸﾞﾝﾋｶﾞｼﾖｼﾉﾑﾗ","kana_address":"ｵｶﾞﾜ","pref":"奈良県","city":"吉野郡東吉野村","address":"小川"},
{"zip_code":"6332431","kana_pref":"ﾅﾗｹﾝ","kana_city":"ﾖｼﾉｸﾞﾝﾋｶﾞｼﾖｼﾉﾑﾗ","kana_address":"ｵﾑﾗ","pref":"奈良県","city":"吉野郡東吉野村","address":"小"},
{"zip_code":"6332423","kana_pref":"ﾅﾗｹﾝ","kana_city":"ﾖｼﾉｸﾞﾝﾋｶﾞｼﾖｼﾉﾑﾗ","kana_address":"ｺｸﾞﾘｽ","pref":"奈良県","city":"吉野郡東吉野村","address":"小栗栖"},
{"zip_code":"6332311","kana_pref":"ﾅﾗｹﾝ","kana_city":"ﾖｼﾉｸﾞﾝﾋｶﾞｼﾖｼﾉﾑﾗ","kana_address":"ｺﾂ","pref":"奈良県","city":"吉野郡東吉野村","address":"木津"},
{"zip_code":"6332432","kana_pref":"ﾅﾗｹﾝ","kana_city":"ﾖｼﾉｸﾞﾝﾋｶﾞｼﾖｼﾉﾑﾗ","kana_address":"ｺﾂｶﾞﾜ","pref":"奈良県","city":"吉野郡東吉野村","address":"木津川"},
{"zip_code":"6332304","kana_pref":"ﾅﾗｹﾝ","kana_city":"ﾖｼﾉｸﾞﾝﾋｶﾞｼﾖｼﾉﾑﾗ","kana_address":"ｽｷﾞﾀﾆ","pref":"奈良県","city":"吉野郡東吉野村","address":"杉谷"},
{"zip_code":"6332441","kana_pref":"ﾅﾗｹﾝ","kana_city":"ﾖｼﾉｸﾞﾝﾋｶﾞｼﾖｼﾉﾑﾗ","kana_address":"ｾﾊﾞﾄ","pref":"奈良県","city":"吉野郡東吉野村","address":"狭戸"},
{"zip_code":"6332301","kana_pref":"ﾅﾗｹﾝ","kana_city":"ﾖｼﾉｸﾞﾝﾋｶﾞｼﾖｼﾉﾑﾗ","kana_address":"ﾀｷﾉ","pref":"奈良県","city":"吉野郡東吉野村","address":"滝野"},
{"zip_code":"6332302","kana_pref":"ﾅﾗｹﾝ","kana_city":"ﾖｼﾉｸﾞﾝﾋｶﾞｼﾖｼﾉﾑﾗ","kana_address":"ﾀﾆｼﾞﾘ","pref":"奈良県","city":"吉野郡東吉野村","address":"谷尻"},
{"zip_code":"6332424","kana_pref":"ﾅﾗｹﾝ","kana_city":"ﾖｼﾉｸﾞﾝﾋｶﾞｼﾖｼﾉﾑﾗ","kana_address":"ﾅｶｸﾞﾛ","pref":"奈良県","city":"吉野郡東吉野村","address":"中黒"},
{"zip_code":"6332314","kana_pref":"ﾅﾗｹﾝ","kana_city":"ﾖｼﾉｸﾞﾝﾋｶﾞｼﾖｼﾉﾑﾗ","kana_address":"ﾊｷﾞﾜﾗ","pref":"奈良県","city":"吉野郡東吉野村","address":"萩原"},
{"zip_code":"6332313","kana_pref":"ﾅﾗｹﾝ","kana_city":"ﾖｼﾉｸﾞﾝﾋｶﾞｼﾖｼﾉﾑﾗ","kana_address":"ﾋｳﾗ","pref":"奈良県","city":"吉野郡東吉野村","address":"日裏"},
{"zip_code":"6332303","kana_pref":"ﾅﾗｹﾝ","kana_city":"ﾖｼﾉｸﾞﾝﾋｶﾞｼﾖｼﾉﾑﾗ","kana_address":"ﾋﾗﾉ","pref":"奈良県","city":"吉野郡東吉野村","address":"平野"},
{"zip_code":"6332442","kana_pref":"ﾅﾗｹﾝ","kana_city":"ﾖｼﾉｸﾞﾝﾋｶﾞｼﾖｼﾉﾑﾗ","kana_address":"ﾏﾒｵ","pref":"奈良県","city":"吉野郡東吉野村","address":"大豆生"},
{"zip_code":"6332433","kana_pref":"ﾅﾗｹﾝ","kana_city":"ﾖｼﾉｸﾞﾝﾋｶﾞｼﾖｼﾉﾑﾗ","kana_address":"ﾐｵ","pref":"奈良県","city":"吉野郡東吉野村","address":"三尾"},
{"zip_code":"6332443","kana_pref":"ﾅﾗｹﾝ","kana_city":"ﾖｼﾉｸﾞﾝﾋｶﾞｼﾖｼﾉﾑﾗ","kana_address":"ﾑｷﾞﾀﾆ","pref":"奈良県","city":"吉野郡東吉野村","address":"麦谷"},
{"zip_code":"6332422","kana_pref":"ﾅﾗｹﾝ","kana_city":"ﾖｼﾉｸﾞﾝﾋｶﾞｼﾖｼﾉﾑﾗ","kana_address":"ﾜｼｶ","pref":"奈良県","city":"吉野郡東吉野村","address":"鷲家"}]}