{"zip_code":[
{"zip_code":"6340000","kana_pref":"ﾅﾗｹﾝ","kana_city":"ｶｼﾊﾗｼ","kana_address":"","pref":"奈良県","city":"橿原市","address":""},
{"zip_code":"6340045","kana_pref":"ﾅﾗｹﾝ","kana_city":"ｶｼﾊﾗｼ","kana_address":"ｲｼｶﾜﾁｮｳ","pref":"奈良県","city":"橿原市","address":"石川町"},
{"zip_code":"6340014","kana_pref":"ﾅﾗｹﾝ","kana_city":"ｶｼﾊﾗｼ","kana_address":"ｲｼﾊﾗﾀﾞﾁｮｳ","pref":"奈良県","city":"橿原市","address":"石原田町"},
{"zip_code":"6340812","kana_pref":"ﾅﾗｹﾝ","kana_city":"ｶｼﾊﾗｼ","kana_address":"ｲﾏｲﾁｮｳ","pref":"奈良県","city":"橿原市","address":"今井町"},
{"zip_code":"6340833","kana_pref":"ﾅﾗｹﾝ","kana_city":"ｶｼﾊﾗｼ","kana_address":"ｲﾝﾍﾞﾁｮｳ","pref":"奈良県","city":"橿原市","address":"忌部町"},
{"zip_code":"6340834","kana_pref":"ﾅﾗｹﾝ","kana_city":"ｶｼﾊﾗｼ","kana_address":"ｳﾅﾃﾁｮｳ","pref":"奈良県","city":"橿原市","address":"雲梯町"},
{"zip_code":"6340065","kana_pref":"ﾅﾗｹﾝ","kana_city":"ｶｼﾊﾗｼ","kana_address":"ｳﾈﾋﾞﾁｮｳ","pref":"奈良県","city":"橿原市","address":"畝傍町"},
{"zip_code":"6340046","kana_pref":"ﾅﾗｹﾝ","kana_city":"ｶｼﾊﾗｼ","kana_address":"ｴｲﾜﾁｮｳ","pref":"奈良県","city":"橿原市","address":"栄和町"},
{"zip_code":"6340075","kana_pref":"ﾅﾗｹﾝ","kana_city":"ｶｼﾊﾗｼ","kana_address":"ｵｳｻﾁｮｳ","pref":"奈良県","city":"橿原市","address":"小房町"},
{"zip_code":"6340846","kana_pref":"ﾅﾗｹﾝ","kana_city":"ｶｼﾊﾗｼ","kana_address":"ｵｳﾂﾞｸﾁｮｳ","pref":"奈良県","city":"橿原市","address":"小槻町"},
{"zip_code":"6340841","kana_pref":"ﾅﾗｹﾝ","kana_city":"ｶｼﾊﾗｼ","kana_address":"ｵｵｶﾞｷﾁｮｳ","pref":"奈良県","city":"橿原市","address":"大垣町"},
{"zip_code":"6340044","kana_pref":"ﾅﾗｹﾝ","kana_city":"ｶｼﾊﾗｼ","kana_address":"ｵｵｶﾞﾙﾁｮｳ","pref":"奈良県","city":"橿原市","address":"大軽町"},
{"zip_code":"6340061","kana_pref":"ﾅﾗｹﾝ","kana_city":"ｶｼﾊﾗｼ","kana_address":"ｵｵｸﾎﾞﾁｮｳ","pref":"奈良県","city":"橿原市","address":"大久保町"},
{"zip_code":"6340815","kana_pref":"ﾅﾗｹﾝ","kana_city":"ｶｼﾊﾗｼ","kana_address":"ｵｵﾀﾆﾁｮｳ","pref":"奈良県","city":"橿原市","address":"大谷町"},
{"zip_code":"6340001","kana_pref":"ﾅﾗｹﾝ","kana_city":"ｶｼﾊﾗｼ","kana_address":"ｵﾀﾞｲﾁﾁｮｳ","pref":"奈良県","city":"橿原市","address":"太田市町"},
{"zip_code":"6340023","kana_pref":"ﾅﾗｹﾝ","kana_city":"ｶｼﾊﾗｼ","kana_address":"ｶｲｹﾞﾁｮｳ","pref":"奈良県","city":"橿原市","address":"戒外町"},
{"zip_code":"6340012","kana_pref":"ﾅﾗｹﾝ","kana_city":"ｶｼﾊﾗｼ","kana_address":"ｶｼﾜﾃﾁｮｳ","pref":"奈良県","city":"橿原市","address":"膳夫町"},
{"zip_code":"6340824","kana_pref":"ﾅﾗｹﾝ","kana_city":"ｶｼﾊﾗｼ","kana_address":"ｶｽﾞﾁｮｳ","pref":"奈良県","city":"橿原市","address":"一町"},
{"zip_code":"6340031","kana_pref":"ﾅﾗｹﾝ","kana_city":"ｶｼﾊﾗｼ","kana_address":"ｶﾐﾋﾀﾞﾁｮｳ","pref":"奈良県","city":"橿原市","address":"上飛騨町"},
{"zip_code":"6340826","kana_pref":"ﾅﾗｹﾝ","kana_city":"ｶｼﾊﾗｼ","kana_address":"ｶﾜﾆｼﾁｮｳ","pref":"奈良県","city":"橿原市","address":"川西町"},
{"zip_code":"6340825","kana_pref":"ﾅﾗｹﾝ","kana_city":"ｶｼﾊﾗｼ","kana_address":"ｶﾝﾉﾝｼﾞﾁｮｳ","pref":"奈良県","city":"橿原市","address":"観音寺町"},
{"zip_code":"6340823","kana_pref":"ﾅﾗｹﾝ","kana_city":"ｶｼﾊﾗｼ","kana_address":"ｷﾀｵﾁﾁｮｳ","pref":"奈良県","city":"橿原市","address":"北越智町"},
{"zip_code":"6340843","kana_pref":"ﾅﾗｹﾝ","kana_city":"ｶｼﾊﾗｼ","kana_address":"ｷﾀﾐｮｳﾎｳｼﾞﾁｮｳ","pref":"奈良県","city":"橿原市","address":"北妙法寺町"},
{"zip_code":"6340005","kana_pref":"ﾅﾗｹﾝ","kana_city":"ｶｼﾊﾗｼ","kana_address":"ｷﾀﾔｷﾞﾁｮｳ","pref":"奈良県","city":"橿原市","address":"北八木町"},
{"zip_code":"6340033","kana_pref":"ﾅﾗｹﾝ","kana_city":"ｶｼﾊﾗｼ","kana_address":"ｷﾄﾞﾉﾁｮｳ","pref":"奈良県","city":"橿原市","address":"城殿町"},
{"zip_code":"6340025","kana_pref":"ﾅﾗｹﾝ","kana_city":"ｶｼﾊﾗｼ","kana_address":"ｷﾉﾓﾄﾁｮｳ","pref":"奈良県","city":"橿原市","address":"木之本町"},
{"zip_code":"6340004","kana_pref":"ﾅﾗｹﾝ","kana_city":"ｶｼﾊﾗｼ","kana_address":"ｷﾊﾗﾁｮｳ","pref":"奈良県","city":"橿原市","address":"木原町"},
{"zip_code":"6340007","kana_pref":"ﾅﾗｹﾝ","kana_city":"ｶｼﾊﾗｼ","kana_address":"ｸｽﾞﾓﾄﾁｮｳ","pref":"奈良県","city":"橿原市","address":"葛本町"},
{"zip_code":"6340063","kana_pref":"ﾅﾗｹﾝ","kana_city":"ｶｼﾊﾗｼ","kana_address":"ｸﾒﾁｮｳ","pref":"奈良県","city":"橿原市","address":"久米町"},
{"zip_code":"6340827","kana_pref":"ﾅﾗｹﾝ","kana_city":"ｶｼﾊﾗｼ","kana_address":"ｺｳﾖｳﾁｮｳ","pref":"奈良県","city":"橿原市","address":"光陽町"},
{"zip_code":"6340832","kana_pref":"ﾅﾗｹﾝ","kana_city":"ｶｼﾊﾗｼ","kana_address":"ｺﾞｲﾁｮｳ","pref":"奈良県","city":"橿原市","address":"五井町"},
{"zip_code":"6340043","kana_pref":"ﾅﾗｹﾝ","kana_city":"ｶｼﾊﾗｼ","kana_address":"ｺﾞｼﾞｮｳﾉﾁｮｳ","pref":"奈良県","city":"橿原市","address":"五条野町"},
{"zip_code":"6340062","kana_pref":"ﾅﾗｹﾝ","kana_city":"ｶｼﾊﾗｼ","kana_address":"ｺﾞﾎﾞｳﾁｮｳ","pref":"奈良県","city":"橿原市","address":"御坊町"},
{"zip_code":"6340813","kana_pref":"ﾅﾗｹﾝ","kana_city":"ｶｼﾊﾗｼ","kana_address":"ｼｼﾞｮｳﾁｮｳ","pref":"奈良県","city":"橿原市","address":"四条町"},
{"zip_code":"6340074","kana_pref":"ﾅﾗｹﾝ","kana_city":"ｶｼﾊﾗｼ","kana_address":"ｼﾌﾞﾁｮｳ","pref":"奈良県","city":"橿原市","address":"四分町"},
{"zip_code":"6340029","kana_pref":"ﾅﾗｹﾝ","kana_city":"ｶｼﾊﾗｼ","kana_address":"ｼﾓﾔﾂﾘﾁｮｳ","pref":"奈良県","city":"橿原市","address":"下八釣町"},
{"zip_code":"6340811","kana_pref":"ﾅﾗｹﾝ","kana_city":"ｶｼﾊﾗｼ","kana_address":"ｼｮｳｺﾁｮｳ","pref":"奈良県","city":"橿原市","address":"小綱町"},
{"zip_code":"6340042","kana_pref":"ﾅﾗｹﾝ","kana_city":"ｶｼﾊﾗｼ","kana_address":"ｼｮｳﾌﾞﾁｮｳ","pref":"奈良県","city":"橿原市","address":"菖蒲町"},
{"zip_code":"6340803","kana_pref":"ﾅﾗｹﾝ","kana_city":"ｶｼﾊﾗｼ","kana_address":"ｼﾞｮｳﾎﾞﾝｼﾞﾁｮｳ","pref":"奈良県","city":"橿原市","address":"上品寺町"},
{"zip_code":"6340051","kana_pref":"ﾅﾗｹﾝ","kana_city":"ｶｼﾊﾗｼ","kana_address":"ｼﾗｶｼﾁｮｳ","pref":"奈良県","city":"橿原市","address":"白橿町"},
{"zip_code":"6340006","kana_pref":"ﾅﾗｹﾝ","kana_city":"ｶｼﾊﾗｼ","kana_address":"ｼﾝｶﾞﾁｮｳ","pref":"奈良県","city":"橿原市","address":"新賀町"},
{"zip_code":"6340836","kana_pref":"ﾅﾗｹﾝ","kana_city":"ｶｼﾊﾗｼ","kana_address":"ｼﾝﾄﾞｳﾁｮｳ","pref":"奈良県","city":"橿原市","address":"新堂町"},
{"zip_code":"6340805","kana_pref":"ﾅﾗｹﾝ","kana_city":"ｶｼﾊﾗｼ","kana_address":"ｼﾞｵﾁｮｳ","pref":"奈良県","city":"橿原市","address":"地黄町"},
{"zip_code":"6340816","kana_pref":"ﾅﾗｹﾝ","kana_city":"ｶｼﾊﾗｼ","kana_address":"ｼﾞﾐｮｳｼﾞﾁｮｳ","pref":"奈良県","city":"橿原市","address":"慈明寺町"},
{"zip_code":"6340831","kana_pref":"ﾅﾗｹﾝ","kana_city":"ｶｼﾊﾗｼ","kana_address":"ｿｶﾞﾁｮｳ","pref":"奈良県","city":"橿原市","address":"曽我町"},
{"zip_code":"6340072","kana_pref":"ﾅﾗｹﾝ","kana_city":"ｶｼﾊﾗｼ","kana_address":"ﾀﾞｲｺﾞﾁｮｳ","pref":"奈良県","city":"橿原市","address":"醍醐町"},
{"zip_code":"6340027","kana_pref":"ﾅﾗｹﾝ","kana_city":"ｶｼﾊﾗｼ","kana_address":"ﾀｶﾄﾞﾉﾁｮｳ","pref":"奈良県","city":"橿原市","address":"高殿町"},
{"zip_code":"6340032","kana_pref":"ﾅﾗｹﾝ","kana_city":"ｶｼﾊﾗｼ","kana_address":"ﾀﾅｶﾁｮｳ","pref":"奈良県","city":"橿原市","address":"田中町"},
{"zip_code":"6340844","kana_pref":"ﾅﾗｹﾝ","kana_city":"ｶｼﾊﾗｼ","kana_address":"ﾂﾁﾊｼﾁｮｳ","pref":"奈良県","city":"橿原市","address":"土橋町"},
{"zip_code":"6340013","kana_pref":"ﾅﾗｹﾝ","kana_city":"ｶｼﾊﾗｼ","kana_address":"ﾃﾞｱｲﾁｮｳ","pref":"奈良県","city":"橿原市","address":"出合町"},
{"zip_code":"6340011","kana_pref":"ﾅﾗｹﾝ","kana_city":"ｶｼﾊﾗｼ","kana_address":"ﾃﾞｶﾞｲﾄﾁｮｳ","pref":"奈良県","city":"橿原市","address":"出垣内町"},
{"zip_code":"6340817","kana_pref":"ﾅﾗｹﾝ","kana_city":"ｶｼﾊﾗｼ","kana_address":"ﾃﾗﾀﾞﾁｮｳ","pref":"奈良県","city":"橿原市","address":"寺田町"},
{"zip_code":"6340008","kana_pref":"ﾅﾗｹﾝ","kana_city":"ｶｼﾊﾗｼ","kana_address":"ﾄｵｲﾁﾁｮｳ","pref":"奈良県","city":"橿原市","address":"十市町"},
{"zip_code":"6340003","kana_pref":"ﾅﾗｹﾝ","kana_city":"ｶｼﾊﾗｼ","kana_address":"ﾄｷﾜﾁｮｳ","pref":"奈良県","city":"橿原市","address":"常盤町"},
{"zip_code":"6340842","kana_pref":"ﾅﾗｹﾝ","kana_city":"ｶｼﾊﾗｼ","kana_address":"ﾄﾖﾀﾞﾁｮｳ","pref":"奈良県","city":"橿原市","address":"豊田町"},
{"zip_code":"6340822","kana_pref":"ﾅﾗｹﾝ","kana_city":"ｶｼﾊﾗｼ","kana_address":"ﾄﾘﾔﾁｮｳ","pref":"奈良県","city":"橿原市","address":"鳥屋町"},
{"zip_code":"6340804","kana_pref":"ﾅﾗｹﾝ","kana_city":"ｶｼﾊﾗｼ","kana_address":"ﾅｲｾﾞﾝﾁｮｳ","pref":"奈良県","city":"橿原市","address":"内膳町"},
{"zip_code":"6340845","kana_pref":"ﾅﾗｹﾝ","kana_city":"ｶｼﾊﾗｼ","kana_address":"ﾅｶｿﾞｼﾁｮｳ","pref":"奈良県","city":"橿原市","address":"中曽司町"},
{"zip_code":"6340009","kana_pref":"ﾅﾗｹﾝ","kana_city":"ｶｼﾊﾗｼ","kana_address":"ﾅｶﾁｮｳ","pref":"奈良県","city":"橿原市","address":"中町"},
{"zip_code":"6340073","kana_pref":"ﾅﾗｹﾝ","kana_city":"ｶｼﾊﾗｼ","kana_address":"ﾅﾜﾃﾁｮｳ","pref":"奈良県","city":"橿原市","address":"縄手町"},
{"zip_code":"6340821","kana_pref":"ﾅﾗｹﾝ","kana_city":"ｶｼﾊﾗｼ","kana_address":"ﾆｼｲｹｼﾞﾘﾁｮｳ","pref":"奈良県","city":"橿原市","address":"西池尻町"},
{"zip_code":"6340801","kana_pref":"ﾅﾗｹﾝ","kana_city":"ｶｼﾊﾗｼ","kana_address":"ﾆｼｼﾝﾄﾞｳﾁｮｳ","pref":"奈良県","city":"橿原市","address":"西新堂町"},
{"zip_code":"6340802","kana_pref":"ﾅﾗｹﾝ","kana_city":"ｶｼﾊﾗｼ","kana_address":"ﾆﾉｸﾁﾁｮｳ","pref":"奈良県","city":"橿原市","address":"新口町"},
{"zip_code":"6340021","kana_pref":"ﾅﾗｹﾝ","kana_city":"ｶｼﾊﾗｼ","kana_address":"ﾋｶﾞｼｲｹｼﾞﾘﾁｮｳ","pref":"奈良県","city":"橿原市","address":"東池尻町"},
{"zip_code":"6340002","kana_pref":"ﾅﾗｹﾝ","kana_city":"ｶｼﾊﾗｼ","kana_address":"ﾋｶﾞｼﾀｹﾀﾞﾁｮｳ","pref":"奈良県","city":"橿原市","address":"東竹田町"},
{"zip_code":"6340835","kana_pref":"ﾅﾗｹﾝ","kana_city":"ｶｼﾊﾗｼ","kana_address":"ﾋｶﾞｼﾎﾞｳｼﾞｮｳﾁｮｳ","pref":"奈良県","city":"橿原市","address":"東坊城町"},
{"zip_code":"6340847","kana_pref":"ﾅﾗｹﾝ","kana_city":"ｶｼﾊﾗｼ","kana_address":"ﾋﾀﾞｶﾁｮｳ","pref":"奈良県","city":"橿原市","address":"飯高町"},
{"zip_code":"6340034","kana_pref":"ﾅﾗｹﾝ","kana_city":"ｶｼﾊﾗｼ","kana_address":"ﾋﾀﾞﾁｮｳ","pref":"奈良県","city":"橿原市","address":"飛騨町"},
{"zip_code":"6340076","kana_pref":"ﾅﾗｹﾝ","kana_city":"ｶｼﾊﾗｼ","kana_address":"ﾋｮｳﾌﾞﾁｮｳ","pref":"奈良県","city":"橿原市","address":"兵部町"},
{"zip_code":"6340828","kana_pref":"ﾅﾗｹﾝ","kana_city":"ｶｼﾊﾗｼ","kana_address":"ﾌﾙｶﾜﾁｮｳ","pref":"奈良県","city":"橿原市","address":"古川町"},
{"zip_code":"6340026","kana_pref":"ﾅﾗｹﾝ","kana_city":"ｶｼﾊﾗｼ","kana_address":"ﾍﾞｯｼﾖﾁｮｳ","pref":"奈良県","city":"橿原市","address":"別所町"},
{"zip_code":"6340028","kana_pref":"ﾅﾗｹﾝ","kana_city":"ｶｼﾊﾗｼ","kana_address":"ﾎｯｹｲｼﾞﾁｮｳ","pref":"奈良県","city":"橿原市","address":"法花寺町"},
{"zip_code":"6340837","kana_pref":"ﾅﾗｹﾝ","kana_city":"ｶｼﾊﾗｼ","kana_address":"ﾏｶﾞﾘｶﾜﾁｮｳ","pref":"奈良県","city":"橿原市","address":"曲川町"},
{"zip_code":"6340064","kana_pref":"ﾅﾗｹﾝ","kana_city":"ｶｼﾊﾗｼ","kana_address":"ﾐｾﾁｮｳ","pref":"奈良県","city":"橿原市","address":"見瀬町"},
{"zip_code":"6340022","kana_pref":"ﾅﾗｹﾝ","kana_city":"ｶｼﾊﾗｼ","kana_address":"ﾐﾅﾐｳﾗﾁｮｳ","pref":"奈良県","city":"橿原市","address":"南浦町"},
{"zip_code":"6340052","kana_pref":"ﾅﾗｹﾝ","kana_city":"ｶｼﾊﾗｼ","kana_address":"ﾐﾅﾐﾐｮｳﾎｳｼﾞﾁｮｳ","pref":"奈良県","city":"橿原市","address":"南妙法寺町"},
{"zip_code":"6340077","kana_pref":"ﾅﾗｹﾝ","kana_city":"ｶｼﾊﾗｼ","kana_address":"ﾐﾅﾐﾔｷﾞﾁｮｳ","pref":"奈良県","city":"橿原市","address":"南八木町"},
{"zip_code":"6340024","kana_pref":"ﾅﾗｹﾝ","kana_city":"ｶｼﾊﾗｼ","kana_address":"ﾐﾅﾐﾔﾏﾁｮｳ","pref":"奈良県","city":"橿原市","address":"南山町"},
{"zip_code":"6340078","kana_pref":"ﾅﾗｹﾝ","kana_city":"ｶｼﾊﾗｼ","kana_address":"ﾔｷﾞﾁｮｳ","pref":"奈良県","city":"橿原市","address":"八木町"},
{"zip_code":"6340071","kana_pref":"ﾅﾗｹﾝ","kana_city":"ｶｼﾊﾗｼ","kana_address":"ﾔﾏﾉﾎﾞｳﾁｮｳ","pref":"奈良県","city":"橿原市","address":"山之坊町"},
{"zip_code":"6340814","kana_pref":"ﾅﾗｹﾝ","kana_city":"ｶｼﾊﾗｼ","kana_address":"ﾔﾏﾓﾄﾁｮｳ","pref":"奈良県","city":"橿原市","address":"山本町"},
{"zip_code":"6340829","kana_pref":"ﾅﾗｹﾝ","kana_city":"ｶｼﾊﾗｼ","kana_address":"ﾖｼﾀﾞﾁｮｳ","pref":"奈良県","city":"橿原市","address":"吉田町"},
{"zip_code":"6340041","kana_pref":"ﾅﾗｹﾝ","kana_city":"ｶｼﾊﾗｼ","kana_address":"ﾜﾀﾞﾁｮｳ","pref":"奈良県","city":"橿原市","address":"和田町"},
{"zip_code":"6340100","kana_pref":"ﾅﾗｹﾝ","kana_city":"ﾀｶｲﾁｸﾞﾝｱｽｶﾑﾗ","kana_address":"","pref":"奈良県","city":"高市郡明日香村","address":""},
{"zip_code":"6340103","kana_pref":"ﾅﾗｹﾝ","kana_city":"ﾀｶｲﾁｸﾞﾝｱｽｶﾑﾗ","kana_address":"ｱｽｶ","pref":"奈良県","city":"高市郡明日香村","address":"飛鳥"},
{"zip_code":"6340134","kana_pref":"ﾅﾗｹﾝ","kana_city":"ﾀｶｲﾁｸﾞﾝｱｽｶﾑﾗ","kana_address":"ｱﾍﾞﾔﾏ","pref":"奈良県","city":"高市郡明日香村","address":"阿部山"},
{"zip_code":"6340108","kana_pref":"ﾅﾗｹﾝ","kana_city":"ﾀｶｲﾁｸﾞﾝｱｽｶﾑﾗ","kana_address":"ｲｶﾂﾁ","pref":"奈良県","city":"高市郡明日香村","address":"雷"},
{"zip_code":"6340123","kana_pref":"ﾅﾗｹﾝ","kana_city":"ﾀｶｲﾁｸﾞﾝｱｽｶﾑﾗ","kana_address":"ｲﾅﾌﾞﾁ","pref":"奈良県","city":"高市郡明日香村","address":"稲渕"},
{"zip_code":"6340121","kana_pref":"ﾅﾗｹﾝ","kana_city":"ﾀｶｲﾁｸﾞﾝｱｽｶﾑﾗ","kana_address":"ｲﾜｲﾄﾞ","pref":"奈良県","city":"高市郡明日香村","address":"祝戸"},
{"zip_code":"6340116","kana_pref":"ﾅﾗｹﾝ","kana_city":"ﾀｶｲﾁｸﾞﾝｱｽｶﾑﾗ","kana_address":"ｵｵｿ","pref":"奈良県","city":"高市郡明日香村","address":"尾曽"},
{"zip_code":"6340133","kana_pref":"ﾅﾗｹﾝ","kana_city":"ﾀｶｲﾁｸﾞﾝｱｽｶﾑﾗ","kana_address":"ｵｵﾈﾀﾞ","pref":"奈良県","city":"高市郡明日香村","address":"大根田"},
{"zip_code":"6340111","kana_pref":"ﾅﾗｹﾝ","kana_city":"ﾀｶｲﾁｸﾞﾝｱｽｶﾑﾗ","kana_address":"ｵｶ","pref":"奈良県","city":"高市郡明日香村","address":"岡"},
{"zip_code":"6340102","kana_pref":"ﾅﾗｹﾝ","kana_city":"ﾀｶｲﾁｸﾞﾝｱｽｶﾑﾗ","kana_address":"ｵｸﾔﾏ","pref":"奈良県","city":"高市郡明日香村","address":"奥山"},
{"zip_code":"6340106","kana_pref":"ﾅﾗｹﾝ","kana_city":"ﾀｶｲﾁｸﾞﾝｱｽｶﾑﾗ","kana_address":"ｵｵﾊﾗ","pref":"奈良県","city":"高市郡明日香村","address":"小原"},
{"zip_code":"6340115","kana_pref":"ﾅﾗｹﾝ","kana_city":"ﾀｶｲﾁｸﾞﾝｱｽｶﾑﾗ","kana_address":"ｶﾑﾗ","pref":"奈良県","city":"高市郡明日香村","address":"上"},
{"zip_code":"6340124","kana_pref":"ﾅﾗｹﾝ","kana_city":"ﾀｶｲﾁｸﾞﾝｱｽｶﾑﾗ","kana_address":"ｶﾔﾓﾘ","pref":"奈良県","city":"高市郡明日香村","address":"栢森"},
{"zip_code":"6340141","kana_pref":"ﾅﾗｹﾝ","kana_city":"ﾀｶｲﾁｸﾞﾝｱｽｶﾑﾗ","kana_address":"ｶﾜﾊﾗ","pref":"奈良県","city":"高市郡明日香村","address":"川原"},
{"zip_code":"6340132","kana_pref":"ﾅﾗｹﾝ","kana_city":"ﾀｶｲﾁｸﾞﾝｱｽｶﾑﾗ","kana_address":"ｸﾘﾊﾗ","pref":"奈良県","city":"高市郡明日香村","address":"栗原"},
{"zip_code":"6340138","kana_pref":"ﾅﾗｹﾝ","kana_city":"ﾀｶｲﾁｸﾞﾝｱｽｶﾑﾗ","kana_address":"ｺｼ","pref":"奈良県","city":"高市郡明日香村","address":"越"},
{"zip_code":"6340101","kana_pref":"ﾅﾗｹﾝ","kana_city":"ﾀｶｲﾁｸﾞﾝｱｽｶﾑﾗ","kana_address":"ｺﾔﾏ","pref":"奈良県","city":"高市郡明日香村","address":"小山"},
{"zip_code":"6340122","kana_pref":"ﾅﾗｹﾝ","kana_city":"ﾀｶｲﾁｸﾞﾝｱｽｶﾑﾗ","kana_address":"ｻｶﾀﾞ","pref":"奈良県","city":"高市郡明日香村","address":"阪田"},
{"zip_code":"6340136","kana_pref":"ﾅﾗｹﾝ","kana_city":"ﾀｶｲﾁｸﾞﾝｱｽｶﾑﾗ","kana_address":"ｼﾞﾉｸﾎﾞ","pref":"奈良県","city":"高市郡明日香村","address":"地ノ窪"},
{"zip_code":"6340112","kana_pref":"ﾅﾗｹﾝ","kana_city":"ﾀｶｲﾁｸﾞﾝｱｽｶﾑﾗ","kana_address":"ｼﾏｼｮｳ","pref":"奈良県","city":"高市郡明日香村","address":"島庄"},
{"zip_code":"6340113","kana_pref":"ﾅﾗｹﾝ","kana_city":"ﾀｶｲﾁｸﾞﾝｱｽｶﾑﾗ","kana_address":"ｼﾞｮｳｺﾞ","pref":"奈良県","city":"高市郡明日香村","address":"上居"},
{"zip_code":"6340142","kana_pref":"ﾅﾗｹﾝ","kana_city":"ﾀｶｲﾁｸﾞﾝｱｽｶﾑﾗ","kana_address":"ﾀﾁﾊﾞﾅ","pref":"奈良県","city":"高市郡明日香村","address":"橘"},
{"zip_code":"6340143","kana_pref":"ﾅﾗｹﾝ","kana_city":"ﾀｶｲﾁｸﾞﾝｱｽｶﾑﾗ","kana_address":"ﾀﾁﾍﾞ","pref":"奈良県","city":"高市郡明日香村","address":"立部"},
{"zip_code":"6340107","kana_pref":"ﾅﾗｹﾝ","kana_city":"ﾀｶｲﾁｸﾞﾝｱｽｶﾑﾗ","kana_address":"ﾄﾖｳﾗ","pref":"奈良県","city":"高市郡明日香村","address":"豊浦"},
{"zip_code":"6340125","kana_pref":"ﾅﾗｹﾝ","kana_city":"ﾀｶｲﾁｸﾞﾝｱｽｶﾑﾗ","kana_address":"ﾆｭｳﾀﾞﾆ","pref":"奈良県","city":"高市郡明日香村","address":"入谷"},
{"zip_code":"6340145","kana_pref":"ﾅﾗｹﾝ","kana_city":"ﾀｶｲﾁｸﾞﾝｱｽｶﾑﾗ","kana_address":"ﾉｸﾞﾁ","pref":"奈良県","city":"高市郡明日香村","address":"野口"},
{"zip_code":"6340118","kana_pref":"ﾅﾗｹﾝ","kana_city":"ﾀｶｲﾁｸﾞﾝｱｽｶﾑﾗ","kana_address":"ﾊﾀ","pref":"奈良県","city":"高市郡明日香村","address":"畑"},
{"zip_code":"6340105","kana_pref":"ﾅﾗｹﾝ","kana_city":"ﾀｶｲﾁｸﾞﾝｱｽｶﾑﾗ","kana_address":"ﾋｶﾞｼﾔﾏ","pref":"奈良県","city":"高市郡明日香村","address":"東山"},
{"zip_code":"6340135","kana_pref":"ﾅﾗｹﾝ","kana_city":"ﾀｶｲﾁｸﾞﾝｱｽｶﾑﾗ","kana_address":"ﾋﾉｸﾏ","pref":"奈良県","city":"高市郡明日香村","address":"檜前"},
{"zip_code":"6340144","kana_pref":"ﾅﾗｹﾝ","kana_city":"ﾀｶｲﾁｸﾞﾝｱｽｶﾑﾗ","kana_address":"ﾋﾗﾀ","pref":"奈良県","city":"高市郡明日香村","address":"平田"},
{"zip_code":"6340117","kana_pref":"ﾅﾗｹﾝ","kana_city":"ﾀｶｲﾁｸﾞﾝｱｽｶﾑﾗ","kana_address":"ﾌﾕﾉ","pref":"奈良県","city":"高市郡明日香村","address":"冬野"},
{"zip_code":"6340114","kana_pref":"ﾅﾗｹﾝ","kana_city":"ﾀｶｲﾁｸﾞﾝｱｽｶﾑﾗ","kana_address":"ﾎｿｶﾜ","pref":"奈良県","city":"高市郡明日香村","address":"細川"},
{"zip_code":"6340137","kana_pref":"ﾅﾗｹﾝ","kana_city":"ﾀｶｲﾁｸﾞﾝｱｽｶﾑﾗ","kana_address":"ﾏﾕﾐ","pref":"奈良県","city":"高市郡明日香村","address":"真弓"},
{"zip_code":"6340131","kana_pref":"ﾅﾗｹﾝ","kana_city":"ﾀｶｲﾁｸﾞﾝｱｽｶﾑﾗ","kana_address":"ﾐｿﾉ","pref":"奈良県","city":"高市郡明日香村","address":"御園"},
{"zip_code":"6340104","kana_pref":"ﾅﾗｹﾝ","kana_city":"ﾀｶｲﾁｸﾞﾝｱｽｶﾑﾗ","kana_address":"ﾔﾂﾘ","pref":"奈良県","city":"高市郡明日香村","address":"八釣"}]}