{"zip_code":[
{"zip_code":"6350000","kana_pref":"ﾅﾗｹﾝ","kana_city":"ﾔﾏﾄﾀｶﾀﾞｼ","kana_address":"","pref":"奈良県","city":"大和高田市","address":""},
{"zip_code":"6350053","kana_pref":"ﾅﾗｹﾝ","kana_city":"ﾔﾏﾄﾀｶﾀﾞｼ","kana_address":"ｱｷﾖｼ","pref":"奈良県","city":"大和高田市","address":"秋吉"},
{"zip_code":"6350012","kana_pref":"ﾅﾗｹﾝ","kana_city":"ﾔﾏﾄﾀｶﾀﾞｼ","kana_address":"ｱｹﾎﾞﾉﾁｮｳ","pref":"奈良県","city":"大和高田市","address":"曙町"},
{"zip_code":"6350035","kana_pref":"ﾅﾗｹﾝ","kana_city":"ﾔﾏﾄﾀｶﾀﾞｼ","kana_address":"ｱｻﾋﾐﾅﾐﾁｮｳ","pref":"奈良県","city":"大和高田市","address":"旭南町"},
{"zip_code":"6350036","kana_pref":"ﾅﾗｹﾝ","kana_city":"ﾔﾏﾄﾀｶﾀﾞｼ","kana_address":"ｱｻﾋｷﾀﾁｮｳ","pref":"奈良県","city":"大和高田市","address":"旭北町"},
{"zip_code":"6350072","kana_pref":"ﾅﾗｹﾝ","kana_city":"ﾔﾏﾄﾀｶﾀﾞｼ","kana_address":"ｱﾘｲ","pref":"奈良県","city":"大和高田市","address":"有井"},
{"zip_code":"6350021","kana_pref":"ﾅﾗｹﾝ","kana_city":"ﾔﾏﾄﾀｶﾀﾞｼ","kana_address":"ｲｹｼﾞﾘ","pref":"奈良県","city":"大和高田市","address":"池尻"},
{"zip_code":"6350077","kana_pref":"ﾅﾗｹﾝ","kana_city":"ﾔﾏﾄﾀｶﾀﾞｼ","kana_address":"ｲｹﾀﾞ","pref":"奈良県","city":"大和高田市","address":"池田"},
{"zip_code":"6350093","kana_pref":"ﾅﾗｹﾝ","kana_city":"ﾔﾏﾄﾀｶﾀﾞｼ","kana_address":"ｲｿﾉ","pref":"奈良県","city":"大和高田市","address":"礒野"},
{"zip_code":"6350063","kana_pref":"ﾅﾗｹﾝ","kana_city":"ﾔﾏﾄﾀｶﾀﾞｼ","kana_address":"ｲｿﾉｼﾝﾏﾁ","pref":"奈良県","city":"大和高田市","address":"礒野新町"},
{"zip_code":"6350061","kana_pref":"ﾅﾗｹﾝ","kana_city":"ﾔﾏﾄﾀｶﾀﾞｼ","kana_address":"ｲｿﾉﾋｶﾞｼﾁｮｳ","pref":"奈良県","city":"大和高田市","address":"礒野東町"},
{"zip_code":"6350062","kana_pref":"ﾅﾗｹﾝ","kana_city":"ﾔﾏﾄﾀｶﾀﾞｼ","kana_address":"ｲｿﾉﾐﾅﾐﾏﾁ","pref":"奈良県","city":"大和高田市","address":"礒野南町"},
{"zip_code":"6350094","kana_pref":"ﾅﾗｹﾝ","kana_city":"ﾔﾏﾄﾀｶﾀﾞｼ","kana_address":"ｲｿﾉｷﾀﾁｮｳ","pref":"奈良県","city":"大和高田市","address":"礒野北町"},
{"zip_code":"6350093","kana_pref":"ﾅﾗｹﾝ","kana_city":"ﾔﾏﾄﾀｶﾀﾞｼ","kana_address":"ｲｿﾉﾁｮｳ","pref":"奈良県","city":"大和高田市","address":"礒野町"},
{"zip_code":"6350074","kana_pref":"ﾅﾗｹﾝ","kana_city":"ﾔﾏﾄﾀｶﾀﾞｼ","kana_address":"ｲﾁﾊﾞ","pref":"奈良県","city":"大和高田市","address":"市場"},
{"zip_code":"6350043","kana_pref":"ﾅﾗｹﾝ","kana_city":"ﾔﾏﾄﾀｶﾀﾞｼ","kana_address":"ｲﾃﾞ","pref":"奈良県","city":"大和高田市","address":"出"},
{"zip_code":"6350031","kana_pref":"ﾅﾗｹﾝ","kana_city":"ﾔﾏﾄﾀｶﾀﾞｼ","kana_address":"ｲﾏｻﾞﾄ","pref":"奈良県","city":"大和高田市","address":"今里"},
{"zip_code":"6350032","kana_pref":"ﾅﾗｹﾝ","kana_city":"ﾔﾏﾄﾀｶﾀﾞｼ","kana_address":"ｲﾏｻﾞﾄｶﾜｲﾎｳ","pref":"奈良県","city":"大和高田市","address":"今里川合方"},
{"zip_code":"6350031","kana_pref":"ﾅﾗｹﾝ","kana_city":"ﾔﾏﾄﾀｶﾀﾞｼ","kana_address":"ｲﾏｻﾞﾄﾁｮｳ","pref":"奈良県","city":"大和高田市","address":"今里町"},
{"zip_code":"6350087","kana_pref":"ﾅﾗｹﾝ","kana_city":"ﾔﾏﾄﾀｶﾀﾞｼ","kana_address":"ｳﾁﾎﾝﾏﾁ","pref":"奈良県","city":"大和高田市","address":"内本町"},
{"zip_code":"6350083","kana_pref":"ﾅﾗｹﾝ","kana_city":"ﾔﾏﾄﾀｶﾀﾞｼ","kana_address":"ｴｲﾜﾁｮｳ","pref":"奈良県","city":"大和高田市","address":"永和町"},
{"zip_code":"6350076","kana_pref":"ﾅﾗｹﾝ","kana_city":"ﾔﾏﾄﾀｶﾀﾞｼ","kana_address":"ｵｵﾀﾆ","pref":"奈良県","city":"大和高田市","address":"大谷"},
{"zip_code":"6350095","kana_pref":"ﾅﾗｹﾝ","kana_city":"ﾔﾏﾄﾀｶﾀﾞｼ","kana_address":"ｵｵﾅｶ","pref":"奈良県","city":"大和高田市","address":"大中"},
{"zip_code":"6350091","kana_pref":"ﾅﾗｹﾝ","kana_city":"ﾔﾏﾄﾀｶﾀﾞｼ","kana_address":"ｵｵﾅｶﾋｶﾞｼﾁｮｳ","pref":"奈良県","city":"大和高田市","address":"大中東町"},
{"zip_code":"6350092","kana_pref":"ﾅﾗｹﾝ","kana_city":"ﾔﾏﾄﾀｶﾀﾞｼ","kana_address":"ｵｵﾅｶﾐﾅﾐﾁｮｳ","pref":"奈良県","city":"大和高田市","address":"大中南町"},
{"zip_code":"6350016","kana_pref":"ﾅﾗｹﾝ","kana_city":"ﾔﾏﾄﾀｶﾀﾞｼ","kana_address":"ｵｵﾋｶﾞｼﾁｮｳ","pref":"奈良県","city":"大和高田市","address":"大東町"},
{"zip_code":"6350073","kana_pref":"ﾅﾗｹﾝ","kana_city":"ﾔﾏﾄﾀｶﾀﾞｼ","kana_address":"ｵｶｻﾞｷ","pref":"奈良県","city":"大和高田市","address":"岡崎"},
{"zip_code":"6350052","kana_pref":"ﾅﾗｹﾝ","kana_city":"ﾔﾏﾄﾀｶﾀﾞｼ","kana_address":"ｵｸﾀﾞ","pref":"奈良県","city":"大和高田市","address":"奥田"},
{"zip_code":"6350042","kana_pref":"ﾅﾗｹﾝ","kana_city":"ﾔﾏﾄﾀｶﾀﾞｼ","kana_address":"ｶｼﾞﾒ","pref":"奈良県","city":"大和高田市","address":"勝目"},
{"zip_code":"6350067","kana_pref":"ﾅﾗｹﾝ","kana_city":"ﾔﾏﾄﾀｶﾀﾞｼ","kana_address":"ｶｽｶﾞﾁｮｳ","pref":"奈良県","city":"大和高田市","address":"春日町"},
{"zip_code":"6350085","kana_pref":"ﾅﾗｹﾝ","kana_city":"ﾔﾏﾄﾀｶﾀﾞｼ","kana_address":"ｶﾀｼｵﾁｮｳ","pref":"奈良県","city":"大和高田市","address":"片塩町"},
{"zip_code":"6350056","kana_pref":"ﾅﾗｹﾝ","kana_city":"ﾔﾏﾄﾀｶﾀﾞｼ","kana_address":"ｶﾝﾀﾞﾁｮｳ","pref":"奈良県","city":"大和高田市","address":"甘田町"},
{"zip_code":"6350084","kana_pref":"ﾅﾗｹﾝ","kana_city":"ﾔﾏﾄﾀｶﾀﾞｼ","kana_address":"ｷﾀｶﾀｼｵﾁｮｳ","pref":"奈良県","city":"大和高田市","address":"北片塩町"},
{"zip_code":"6350097","kana_pref":"ﾅﾗｹﾝ","kana_city":"ﾔﾏﾄﾀｶﾀﾞｼ","kana_address":"ｷﾀﾎﾝﾏﾁ","pref":"奈良県","city":"大和高田市","address":"北本町"},
{"zip_code":"6350044","kana_pref":"ﾅﾗｹﾝ","kana_city":"ﾔﾏﾄﾀｶﾀﾞｼ","kana_address":"ｸﾗﾉﾐﾔﾁｮｳ","pref":"奈良県","city":"大和高田市","address":"蔵之宮町"},
{"zip_code":"6350011","kana_pref":"ﾅﾗｹﾝ","kana_city":"ﾔﾏﾄﾀｶﾀﾞｼ","kana_address":"ｻﾞｲﾓｸﾁｮｳ","pref":"奈良県","city":"大和高田市","address":"材木町"},
{"zip_code":"6350015","kana_pref":"ﾅﾗｹﾝ","kana_city":"ﾔﾏﾄﾀｶﾀﾞｼ","kana_address":"ｻｲﾜｲﾁｮｳ","pref":"奈良県","city":"大和高田市","address":"幸町"},
{"zip_code":"6350064","kana_pref":"ﾅﾗｹﾝ","kana_city":"ﾔﾏﾄﾀｶﾀﾞｼ","kana_address":"ｻｶｴﾏﾁ","pref":"奈良県","city":"大和高田市","address":"栄町"},
{"zip_code":"6350014","kana_pref":"ﾅﾗｹﾝ","kana_city":"ﾔﾏﾄﾀｶﾀﾞｼ","kana_address":"ｻﾝﾜﾁｮｳ","pref":"奈良県","city":"大和高田市","address":"三和町"},
{"zip_code":"6350017","kana_pref":"ﾅﾗｹﾝ","kana_city":"ﾔﾏﾄﾀｶﾀﾞｼ","kana_address":"ｼﾉﾉﾒﾁｮｳ","pref":"奈良県","city":"大和高田市","address":"東雲町"},
{"zip_code":"6350013","kana_pref":"ﾅﾗｹﾝ","kana_city":"ﾔﾏﾄﾀｶﾀﾞｼ","kana_address":"ｼｮｳﾜﾁｮｳ","pref":"奈良県","city":"大和高田市","address":"昭和町"},
{"zip_code":"6350025","kana_pref":"ﾅﾗｹﾝ","kana_city":"ﾔﾏﾄﾀｶﾀﾞｼ","kana_address":"ｼﾞﾝﾗｸ","pref":"奈良県","city":"大和高田市","address":"神楽"},
{"zip_code":"6350026","kana_pref":"ﾅﾗｹﾝ","kana_city":"ﾔﾏﾄﾀｶﾀﾞｼ","kana_address":"ｼﾞﾝﾗｸ","pref":"奈良県","city":"大和高田市","address":"神楽"},
{"zip_code":"6350055","kana_pref":"ﾅﾗｹﾝ","kana_city":"ﾔﾏﾄﾀｶﾀﾞｼ","kana_address":"ｿｵﾈ","pref":"奈良県","city":"大和高田市","address":"曽大根"},
{"zip_code":"6350054","kana_pref":"ﾅﾗｹﾝ","kana_city":"ﾔﾏﾄﾀｶﾀﾞｼ","kana_address":"ｿｵﾈ","pref":"奈良県","city":"大和高田市","address":"曽大根"},
{"zip_code":"6350041","kana_pref":"ﾅﾗｹﾝ","kana_city":"ﾔﾏﾄﾀｶﾀﾞｼ","kana_address":"ﾀｲ","pref":"奈良県","city":"大和高田市","address":"田井"},
{"zip_code":"6350047","kana_pref":"ﾅﾗｹﾝ","kana_city":"ﾔﾏﾄﾀｶﾀﾞｼ","kana_address":"ﾀｲｼﾝﾏﾁ","pref":"奈良県","city":"大和高田市","address":"田井新町"},
{"zip_code":"6350081","kana_pref":"ﾅﾗｹﾝ","kana_city":"ﾔﾏﾄﾀｶﾀﾞｼ","kana_address":"ﾀｶｻｺﾞﾁｮｳ","pref":"奈良県","city":"大和高田市","address":"高砂町"},
{"zip_code":"6350022","kana_pref":"ﾅﾗｹﾝ","kana_city":"ﾔﾏﾄﾀｶﾀﾞｼ","kana_address":"ﾀｶﾀﾞ","pref":"奈良県","city":"大和高田市","address":"高田"},
{"zip_code":"6350071","kana_pref":"ﾅﾗｹﾝ","kana_city":"ﾔﾏﾄﾀｶﾀﾞｼ","kana_address":"ﾂｷﾔﾏ","pref":"奈良県","city":"大和高田市","address":"築山"},
{"zip_code":"6350002","kana_pref":"ﾅﾗｹﾝ","kana_city":"ﾔﾏﾄﾀｶﾀﾞｼ","kana_address":"ﾄﾞﾝｺﾞ","pref":"奈良県","city":"大和高田市","address":"土庫"},
{"zip_code":"6350003","kana_pref":"ﾅﾗｹﾝ","kana_city":"ﾔﾏﾄﾀｶﾀﾞｼ","kana_address":"ﾄﾞﾝｺﾞ","pref":"奈良県","city":"大和高田市","address":"土庫"},
{"zip_code":"6350037","kana_pref":"ﾅﾗｹﾝ","kana_city":"ﾔﾏﾄﾀｶﾀﾞｼ","kana_address":"ﾅｶｲﾏｻﾞﾄﾁｮｳ","pref":"奈良県","city":"大和高田市","address":"中今里町"},
{"zip_code":"6350045","kana_pref":"ﾅﾗｹﾝ","kana_city":"ﾔﾏﾄﾀｶﾀﾞｼ","kana_address":"ﾅｶﾐｸﾗﾄﾞｳ","pref":"奈良県","city":"大和高田市","address":"中三倉堂"},
{"zip_code":"6350057","kana_pref":"ﾅﾗｹﾝ","kana_city":"ﾔﾏﾄﾀｶﾀﾞｼ","kana_address":"ﾅﾝﾖｳﾁｮｳ","pref":"奈良県","city":"大和高田市","address":"南陽町"},
{"zip_code":"6350058","kana_pref":"ﾅﾗｹﾝ","kana_city":"ﾔﾏﾄﾀｶﾀﾞｼ","kana_address":"ﾆｼﾎﾞｳｼﾞｮｳ","pref":"奈良県","city":"大和高田市","address":"西坊城"},
{"zip_code":"6350096","kana_pref":"ﾅﾗｹﾝ","kana_city":"ﾔﾏﾄﾀｶﾀﾞｼ","kana_address":"ﾆｼﾏﾁ","pref":"奈良県","city":"大和高田市","address":"西町"},
{"zip_code":"6350046","kana_pref":"ﾅﾗｹﾝ","kana_city":"ﾔﾏﾄﾀｶﾀﾞｼ","kana_address":"ﾆｼﾐｸﾗﾄﾞｳ","pref":"奈良県","city":"大和高田市","address":"西三倉堂"},
{"zip_code":"6350051","kana_pref":"ﾅﾗｹﾝ","kana_city":"ﾔﾏﾄﾀｶﾀﾞｼ","kana_address":"ﾈﾅﾘｶﾞｷ","pref":"奈良県","city":"大和高田市","address":"根成柿"},
{"zip_code":"6350075","kana_pref":"ﾅﾗｹﾝ","kana_city":"ﾔﾏﾄﾀｶﾀﾞｼ","kana_address":"ﾉｸﾞﾁ","pref":"奈良県","city":"大和高田市","address":"野口"},
{"zip_code":"6350065","kana_pref":"ﾅﾗｹﾝ","kana_city":"ﾔﾏﾄﾀｶﾀﾞｼ","kana_address":"ﾋｶﾞｼﾅｶ","pref":"奈良県","city":"大和高田市","address":"東中"},
{"zip_code":"6350066","kana_pref":"ﾅﾗｹﾝ","kana_city":"ﾔﾏﾄﾀｶﾀﾞｼ","kana_address":"ﾋｶﾞｼﾅｶ","pref":"奈良県","city":"大和高田市","address":"東中"},
{"zip_code":"6350034","kana_pref":"ﾅﾗｹﾝ","kana_city":"ﾔﾏﾄﾀｶﾀﾞｼ","kana_address":"ﾋｶﾞｼﾐｸﾗﾄﾞｳﾁｮｳ","pref":"奈良県","city":"大和高田市","address":"東三倉堂町"},
{"zip_code":"6350022","kana_pref":"ﾅﾗｹﾝ","kana_city":"ﾔﾏﾄﾀｶﾀﾞｼ","kana_address":"ﾋﾉﾃﾞﾁｮｳ","pref":"奈良県","city":"大和高田市","address":"日之出町"},
{"zip_code":"6350023","kana_pref":"ﾅﾗｹﾝ","kana_city":"ﾔﾏﾄﾀｶﾀﾞｼ","kana_address":"ﾋﾉﾃﾞﾋｶﾞｼﾎﾝﾏﾁ","pref":"奈良県","city":"大和高田市","address":"日之出東本町"},
{"zip_code":"6350024","kana_pref":"ﾅﾗｹﾝ","kana_city":"ﾔﾏﾄﾀｶﾀﾞｼ","kana_address":"ﾋﾉﾃﾞﾆｼﾎﾝﾏﾁ","pref":"奈良県","city":"大和高田市","address":"日之出西本町"},
{"zip_code":"6350004","kana_pref":"ﾅﾗｹﾝ","kana_city":"ﾔﾏﾄﾀｶﾀﾞｼ","kana_address":"ﾌｼﾞﾉﾓﾘ","pref":"奈良県","city":"大和高田市","address":"藤森"},
{"zip_code":"6350082","kana_pref":"ﾅﾗｹﾝ","kana_city":"ﾔﾏﾄﾀｶﾀﾞｼ","kana_address":"ﾎﾝｺﾞｳﾁｮｳ","pref":"奈良県","city":"大和高田市","address":"本郷町"},
{"zip_code":"6350001","kana_pref":"ﾅﾗｹﾝ","kana_city":"ﾔﾏﾄﾀｶﾀﾞｼ","kana_address":"ﾏﾂﾂﾞｶ","pref":"奈良県","city":"大和高田市","address":"松塚"},
{"zip_code":"6350033","kana_pref":"ﾅﾗｹﾝ","kana_city":"ﾔﾏﾄﾀｶﾀﾞｼ","kana_address":"ﾐﾅﾐｲﾏｻﾞﾄﾁｮｳ","pref":"奈良県","city":"大和高田市","address":"南今里町"},
{"zip_code":"6350086","kana_pref":"ﾅﾗｹﾝ","kana_city":"ﾔﾏﾄﾀｶﾀﾞｼ","kana_address":"ﾐﾅﾐﾎﾝﾏﾁ","pref":"奈良県","city":"大和高田市","address":"南本町"},
{"zip_code":"6350059","kana_pref":"ﾅﾗｹﾝ","kana_city":"ﾔﾏﾄﾀｶﾀﾞｼ","kana_address":"ﾖｼｲ","pref":"奈良県","city":"大和高田市","address":"吉井"},
{"zip_code":"6350100","kana_pref":"ﾅﾗｹﾝ","kana_city":"ﾀｶｲﾁｸﾞﾝﾀｶﾄﾘﾁｮｳ","kana_address":"","pref":"奈良県","city":"高市郡高取町","address":""},
{"zip_code":"6350123","kana_pref":"ﾅﾗｹﾝ","kana_city":"ﾀｶｲﾁｸﾞﾝﾀｶﾄﾘﾁｮｳ","kana_address":"ｲﾁｵ","pref":"奈良県","city":"高市郡高取町","address":"市尾"},
{"zip_code":"6350144","kana_pref":"ﾅﾗｹﾝ","kana_city":"ﾀｶｲﾁｸﾞﾝﾀｶﾄﾘﾁｮｳ","kana_address":"ｵﾁ","pref":"奈良県","city":"高市郡高取町","address":"越智"},
{"zip_code":"6350104","kana_pref":"ﾅﾗｹﾝ","kana_city":"ﾀｶｲﾁｸﾞﾝﾀｶﾄﾘﾁｮｳ","kana_address":"ｶﾐｺｼﾏ","pref":"奈良県","city":"高市郡高取町","address":"上子島"},
{"zip_code":"6350152","kana_pref":"ﾅﾗｹﾝ","kana_city":"ﾀｶｲﾁｸﾞﾝﾀｶﾄﾘﾁｮｳ","kana_address":"ｶﾐﾄｻ","pref":"奈良県","city":"高市郡高取町","address":"上土佐"},
{"zip_code":"6350154","kana_pref":"ﾅﾗｹﾝ","kana_city":"ﾀｶｲﾁｸﾞﾝﾀｶﾄﾘﾁｮｳ","kana_address":"ｶﾝｶﾞｸｼﾞ","pref":"奈良県","city":"高市郡高取町","address":"観覚寺"},
{"zip_code":"6350133","kana_pref":"ﾅﾗｹﾝ","kana_city":"ﾀｶｲﾁｸﾞﾝﾀｶﾄﾘﾁｮｳ","kana_address":"ｷﾋﾞ","pref":"奈良県","city":"高市郡高取町","address":"吉備"},
{"zip_code":"6350143","kana_pref":"ﾅﾗｹﾝ","kana_city":"ﾀｶｲﾁｸﾞﾝﾀｶﾄﾘﾁｮｳ","kana_address":"ｸﾙﾏｷ","pref":"奈良県","city":"高市郡高取町","address":"車木"},
{"zip_code":"6350131","kana_pref":"ﾅﾗｹﾝ","kana_city":"ﾀｶｲﾁｸﾞﾝﾀｶﾄﾘﾁｮｳ","kana_address":"ｻﾀﾞ","pref":"奈良県","city":"高市郡高取町","address":"佐田"},
{"zip_code":"6350134","kana_pref":"ﾅﾗｹﾝ","kana_city":"ﾀｶｲﾁｸﾞﾝﾀｶﾄﾘﾁｮｳ","kana_address":"ｻﾂﾏ","pref":"奈良県","city":"高市郡高取町","address":"薩摩"},
{"zip_code":"6350103","kana_pref":"ﾅﾗｹﾝ","kana_city":"ﾀｶｲﾁｸﾞﾝﾀｶﾄﾘﾁｮｳ","kana_address":"ｼﾐｽﾞﾀﾆ","pref":"奈良県","city":"高市郡高取町","address":"清水谷"},
{"zip_code":"6350151","kana_pref":"ﾅﾗｹﾝ","kana_city":"ﾀｶｲﾁｸﾞﾝﾀｶﾄﾘﾁｮｳ","kana_address":"ｼﾓｺｼﾏ","pref":"奈良県","city":"高市郡高取町","address":"下子島"},
{"zip_code":"6350153","kana_pref":"ﾅﾗｹﾝ","kana_city":"ﾀｶｲﾁｸﾞﾝﾀｶﾄﾘﾁｮｳ","kana_address":"ｼﾓﾄｻ","pref":"奈良県","city":"高市郡高取町","address":"下土佐"},
{"zip_code":"6350135","kana_pref":"ﾅﾗｹﾝ","kana_city":"ﾀｶｲﾁｸﾞﾝﾀｶﾄﾘﾁｮｳ","kana_address":"ﾀｲﾉｼｮｳ","pref":"奈良県","city":"高市郡高取町","address":"田井庄"},
{"zip_code":"6350101","kana_pref":"ﾅﾗｹﾝ","kana_city":"ﾀｶｲﾁｸﾞﾝﾀｶﾄﾘﾁｮｳ","kana_address":"ﾀｶﾄﾘ","pref":"奈良県","city":"高市郡高取町","address":"高取"},
{"zip_code":"6350102","kana_pref":"ﾅﾗｹﾝ","kana_city":"ﾀｶｲﾁｸﾞﾝﾀｶﾄﾘﾁｮｳ","kana_address":"ﾂﾎﾞｻｶ","pref":"奈良県","city":"高市郡高取町","address":"壺阪"},
{"zip_code":"6350142","kana_pref":"ﾅﾗｹﾝ","kana_city":"ﾀｶｲﾁｸﾞﾝﾀｶﾄﾘﾁｮｳ","kana_address":"ﾃﾗｻｷ","pref":"奈良県","city":"高市郡高取町","address":"寺崎"},
{"zip_code":"6350121","kana_pref":"ﾅﾗｹﾝ","kana_city":"ﾀｶｲﾁｸﾞﾝﾀｶﾄﾘﾁｮｳ","kana_address":"ﾆｳﾀﾞﾆ","pref":"奈良県","city":"高市郡高取町","address":"丹生谷"},
{"zip_code":"6350136","kana_pref":"ﾅﾗｹﾝ","kana_city":"ﾀｶｲﾁｸﾞﾝﾀｶﾄﾘﾁｮｳ","kana_address":"ﾋｮｳｺﾞ","pref":"奈良県","city":"高市郡高取町","address":"兵庫"},
{"zip_code":"6350112","kana_pref":"ﾅﾗｹﾝ","kana_city":"ﾀｶｲﾁｸﾞﾝﾀｶﾄﾘﾁｮｳ","kana_address":"ﾌｼﾞｲ","pref":"奈良県","city":"高市郡高取町","address":"藤井"},
{"zip_code":"6350113","kana_pref":"ﾅﾗｹﾝ","kana_city":"ﾀｶｲﾁｸﾞﾝﾀｶﾄﾘﾁｮｳ","kana_address":"ﾎｳﾁ","pref":"奈良県","city":"高市郡高取町","address":"羽内"},
{"zip_code":"6350111","kana_pref":"ﾅﾗｹﾝ","kana_city":"ﾀｶｲﾁｸﾞﾝﾀｶﾄﾘﾁｮｳ","kana_address":"ﾏﾂﾔﾏ","pref":"奈良県","city":"高市郡高取町","address":"松山"},
{"zip_code":"6350132","kana_pref":"ﾅﾗｹﾝ","kana_city":"ﾀｶｲﾁｸﾞﾝﾀｶﾄﾘﾁｮｳ","kana_address":"ﾓﾘ","pref":"奈良県","city":"高市郡高取町","address":"森"},
{"zip_code":"6350122","kana_pref":"ﾅﾗｹﾝ","kana_city":"ﾀｶｲﾁｸﾞﾝﾀｶﾄﾘﾁｮｳ","kana_address":"ﾔﾀ","pref":"奈良県","city":"高市郡高取町","address":"谷田"},
{"zip_code":"6350141","kana_pref":"ﾅﾗｹﾝ","kana_city":"ﾀｶｲﾁｸﾞﾝﾀｶﾄﾘﾁｮｳ","kana_address":"ﾖｳﾗｸ","pref":"奈良県","city":"高市郡高取町","address":"与楽"},
{"zip_code":"6350000","kana_pref":"ﾅﾗｹﾝ","kana_city":"ｷﾀｶﾂﾗｷﾞｸﾞﾝｺｳﾘｮｳﾁｮｳ","kana_address":"","pref":"奈良県","city":"北葛城郡広陵町","address":""},
{"zip_code":"6350825","kana_pref":"ﾅﾗｹﾝ","kana_city":"ｷﾀｶﾂﾗｷﾞｸﾞﾝｺｳﾘｮｳﾁｮｳ","kana_address":"ｱﾍﾞ","pref":"奈良県","city":"北葛城郡広陵町","address":"安部"},
{"zip_code":"6350831","kana_pref":"ﾅﾗｹﾝ","kana_city":"ｷﾀｶﾂﾗｷﾞｸﾞﾝｺｳﾘｮｳﾁｮｳ","kana_address":"ｳﾏﾐｷﾀ","pref":"奈良県","city":"北葛城郡広陵町","address":"馬見北"},
{"zip_code":"6350832","kana_pref":"ﾅﾗｹﾝ","kana_city":"ｷﾀｶﾂﾗｷﾞｸﾞﾝｺｳﾘｮｳﾁｮｳ","kana_address":"ｳﾏﾐﾅｶ","pref":"奈良県","city":"北葛城郡広陵町","address":"馬見中"},
{"zip_code":"6350833","kana_pref":"ﾅﾗｹﾝ","kana_city":"ｷﾀｶﾂﾗｷﾞｸﾞﾝｺｳﾘｮｳﾁｮｳ","kana_address":"ｳﾏﾐﾐﾅﾐ","pref":"奈良県","city":"北葛城郡広陵町","address":"馬見南"},
{"zip_code":"6350834","kana_pref":"ﾅﾗｹﾝ","kana_city":"ｷﾀｶﾂﾗｷﾞｸﾞﾝｺｳﾘｮｳﾁｮｳ","kana_address":"ｵｵﾂｶ","pref":"奈良県","city":"北葛城郡広陵町","address":"大塚"},
{"zip_code":"6350803","kana_pref":"ﾅﾗｹﾝ","kana_city":"ｷﾀｶﾂﾗｷﾞｸﾞﾝｺｳﾘｮｳﾁｮｳ","kana_address":"ｵｵﾉ","pref":"奈良県","city":"北葛城郡広陵町","address":"大野"},
{"zip_code":"6350801","kana_pref":"ﾅﾗｹﾝ","kana_city":"ｷﾀｶﾂﾗｷﾞｸﾞﾝｺｳﾘｮｳﾁｮｳ","kana_address":"ｵｵﾊﾞ","pref":"奈良県","city":"北葛城郡広陵町","address":"大場"},
{"zip_code":"6350821","kana_pref":"ﾅﾗｹﾝ","kana_city":"ｷﾀｶﾂﾗｷﾞｸﾞﾝｺｳﾘｮｳﾁｮｳ","kana_address":"ｶｻ","pref":"奈良県","city":"北葛城郡広陵町","address":"笠"},
{"zip_code":"6350805","kana_pref":"ﾅﾗｹﾝ","kana_city":"ｷﾀｶﾂﾗｷﾞｸﾞﾝｺｳﾘｮｳﾁｮｳ","kana_address":"ｶﾔﾉ","pref":"奈良県","city":"北葛城郡広陵町","address":"萱野"},
{"zip_code":"6350813","kana_pref":"ﾅﾗｹﾝ","kana_city":"ｷﾀｶﾂﾗｷﾞｸﾞﾝｺｳﾘｮｳﾁｮｳ","kana_address":"ｸﾀﾞﾗ","pref":"奈良県","city":"北葛城郡広陵町","address":"百済"},
{"zip_code":"6350815","kana_pref":"ﾅﾗｹﾝ","kana_city":"ｷﾀｶﾂﾗｷﾞｸﾞﾝｺｳﾘｮｳﾁｮｳ","kana_address":"ｺﾃﾞﾗ","pref":"奈良県","city":"北葛城郡広陵町","address":"古寺"},
{"zip_code":"6350804","kana_pref":"ﾅﾗｹﾝ","kana_city":"ｷﾀｶﾂﾗｷﾞｸﾞﾝｺｳﾘｮｳﾁｮｳ","kana_address":"ｻﾜ","pref":"奈良県","city":"北葛城郡広陵町","address":"沢"},
{"zip_code":"6350817","kana_pref":"ﾅﾗｹﾝ","kana_city":"ｷﾀｶﾂﾗｷﾞｸﾞﾝｺｳﾘｮｳﾁｮｳ","kana_address":"ﾃﾗﾄﾞ","pref":"奈良県","city":"北葛城郡広陵町","address":"寺戸"},
{"zip_code":"6350816","kana_pref":"ﾅﾗｹﾝ","kana_city":"ｷﾀｶﾂﾗｷﾞｸﾞﾝｺｳﾘｮｳﾁｮｳ","kana_address":"ﾅｶ","pref":"奈良県","city":"北葛城郡広陵町","address":"中"},
{"zip_code":"6350814","kana_pref":"ﾅﾗｹﾝ","kana_city":"ｷﾀｶﾂﾗｷﾞｸﾞﾝｺｳﾘｮｳﾁｮｳ","kana_address":"ﾅﾝｺﾞｳ","pref":"奈良県","city":"北葛城郡広陵町","address":"南郷"},
{"zip_code":"6350824","kana_pref":"ﾅﾗｹﾝ","kana_city":"ｷﾀｶﾂﾗｷﾞｸﾞﾝｺｳﾘｮｳﾁｮｳ","kana_address":"ﾋｷｿ","pref":"奈良県","city":"北葛城郡広陵町","address":"疋相"},
{"zip_code":"6350822","kana_pref":"ﾅﾗｹﾝ","kana_city":"ｷﾀｶﾂﾗｷﾞｸﾞﾝｺｳﾘｮｳﾁｮｳ","kana_address":"ﾋﾗｵ","pref":"奈良県","city":"北葛城郡広陵町","address":"平尾"},
{"zip_code":"6350812","kana_pref":"ﾅﾗｹﾝ","kana_city":"ｷﾀｶﾂﾗｷﾞｸﾞﾝｺｳﾘｮｳﾁｮｳ","kana_address":"ﾋﾛｾ","pref":"奈良県","city":"北葛城郡広陵町","address":"広瀬"},
{"zip_code":"6350811","kana_pref":"ﾅﾗｹﾝ","kana_city":"ｷﾀｶﾂﾗｷﾞｸﾞﾝｺｳﾘｮｳﾁｮｳ","kana_address":"ﾍﾞｻﾞｲﾃﾝ","pref":"奈良県","city":"北葛城郡広陵町","address":"弁財天"},
{"zip_code":"6350802","kana_pref":"ﾅﾗｹﾝ","kana_city":"ｷﾀｶﾂﾗｷﾞｸﾞﾝｺｳﾘｮｳﾁｮｳ","kana_address":"ﾏﾄﾊﾞ","pref":"奈良県","city":"北葛城郡広陵町","address":"的場"},
{"zip_code":"6350835","kana_pref":"ﾅﾗｹﾝ","kana_city":"ｷﾀｶﾂﾗｷﾞｸﾞﾝｺｳﾘｮｳﾁｮｳ","kana_address":"ﾐｻｻｷﾞﾀﾞｲ","pref":"奈良県","city":"北葛城郡広陵町","address":"みささぎ台"},
{"zip_code":"6350823","kana_pref":"ﾅﾗｹﾝ","kana_city":"ｷﾀｶﾂﾗｷﾞｸﾞﾝｺｳﾘｮｳﾁｮｳ","kana_address":"ﾐﾂﾖｼ","pref":"奈良県","city":"北葛城郡広陵町","address":"三吉"},
{"zip_code":"6350818","kana_pref":"ﾅﾗｹﾝ","kana_city":"ｷﾀｶﾂﾗｷﾞｸﾞﾝｺｳﾘｮｳﾁｮｳ","kana_address":"ﾐﾅﾐ","pref":"奈良県","city":"北葛城郡広陵町","address":"南"}]}