{"zip_code":[
{"zip_code":"6370000","kana_pref":"ﾅﾗｹﾝ","kana_city":"ｺﾞｼﾞｮｳｼ","kana_address":"","pref":"奈良県","city":"五條市","address":""},
{"zip_code":"6370074","kana_pref":"ﾅﾗｹﾝ","kana_city":"ｺﾞｼﾞｮｳｼ","kana_address":"ｱｲﾀﾆﾁｮｳ","pref":"奈良県","city":"五條市","address":"相谷町"},
{"zip_code":"6370013","kana_pref":"ﾅﾗｹﾝ","kana_city":"ｺﾞｼﾞｮｳｼ","kana_address":"ｲﾃﾞﾁｮｳ","pref":"奈良県","city":"五條市","address":"居伝町"},
{"zip_code":"6370072","kana_pref":"ﾅﾗｹﾝ","kana_city":"ｺﾞｼﾞｮｳｼ","kana_address":"ｲﾇｶｲﾁｮｳ","pref":"奈良県","city":"五條市","address":"犬飼町"},
{"zip_code":"6370004","kana_pref":"ﾅﾗｹﾝ","kana_city":"ｺﾞｼﾞｮｳｼ","kana_address":"ｲﾏｲ","pref":"奈良県","city":"五條市","address":"今井"},
{"zip_code":"6370004","kana_pref":"ﾅﾗｹﾝ","kana_city":"ｺﾞｼﾞｮｳｼ","kana_address":"ｲﾏｲﾁｮｳ","pref":"奈良県","city":"五條市","address":"今井町"},
{"zip_code":"6370003","kana_pref":"ﾅﾗｹﾝ","kana_city":"ｺﾞｼﾞｮｳｼ","kana_address":"ｳﾉﾁｮｳ","pref":"奈良県","city":"五條市","address":"宇野町"},
{"zip_code":"6370077","kana_pref":"ﾅﾗｹﾝ","kana_city":"ｺﾞｼﾞｮｳｼ","kana_address":"ｵｵｻﾞﾜﾁｮｳ","pref":"奈良県","city":"五條市","address":"大沢町"},
{"zip_code":"6370060","kana_pref":"ﾅﾗｹﾝ","kana_city":"ｺﾞｼﾞｮｳｼ","kana_address":"ｵｵﾂﾁｮｳ","pref":"奈良県","city":"五條市","address":"大津町"},
{"zip_code":"6370405","kana_pref":"ﾅﾗｹﾝ","kana_city":"ｺﾞｼﾞｮｳｼ","kana_address":"ｵｵﾄｳﾁｮｳｳｲ","pref":"奈良県","city":"五條市","address":"大塔町宇井"},
{"zip_code":"6370416","kana_pref":"ﾅﾗｹﾝ","kana_city":"ｺﾞｼﾞｮｳｼ","kana_address":"ｵｵﾄｳﾁｮｳｺﾀﾞｲ","pref":"奈良県","city":"五條市","address":"大塔町小代"},
{"zip_code":"6370417","kana_pref":"ﾅﾗｹﾝ","kana_city":"ｺﾞｼﾞｮｳｼ","kana_address":"ｵｵﾄｳﾁｮｳｻｶﾓﾄ","pref":"奈良県","city":"五條市","address":"大塔町阪本"},
{"zip_code":"6370414","kana_pref":"ﾅﾗｹﾝ","kana_city":"ｺﾞｼﾞｮｳｼ","kana_address":"ｵｵﾄｳﾁｮｳｻﾙﾀﾆ","pref":"奈良県","city":"五條市","address":"大塔町猿谷"},
{"zip_code":"6370401","kana_pref":"ﾅﾗｹﾝ","kana_city":"ｺﾞｼﾞｮｳｼ","kana_address":"ｵｵﾄｳﾁｮｳｼﾉﾊﾗ","pref":"奈良県","city":"五條市","address":"大塔町篠原"},
{"zip_code":"6370406","kana_pref":"ﾅﾗｹﾝ","kana_city":"ｺﾞｼﾞｮｳｼ","kana_address":"ｵｵﾄｳﾁｮｳｼﾐｽﾞ","pref":"奈良県","city":"五條市","address":"大塔町清水"},
{"zip_code":"6370419","kana_pref":"ﾅﾗｹﾝ","kana_city":"ｺﾞｼﾞｮｳｼ","kana_address":"ｵｵﾄｳﾁｮｳｽﾀﾞﾚ","pref":"奈良県","city":"五條市","address":"大塔町簾"},
{"zip_code":"6370402","kana_pref":"ﾅﾗｹﾝ","kana_city":"ｺﾞｼﾞｮｳｼ","kana_address":"ｵｵﾄｳﾁｮｳｿｳﾀﾆ","pref":"奈良県","city":"五條市","address":"大塔町惣谷"},
{"zip_code":"6370408","kana_pref":"ﾅﾗｹﾝ","kana_city":"ｺﾞｼﾞｮｳｼ","kana_address":"ｵｵﾄｳﾁｮｳﾂｼﾞﾄﾞｳ","pref":"奈良県","city":"五條市","address":"大塔町辻堂"},
{"zip_code":"6370411","kana_pref":"ﾅﾗｹﾝ","kana_city":"ｺﾞｼﾞｮｳｼ","kana_address":"ｵｵﾄｳﾁｮｳﾄﾞｳﾋﾗ","pref":"奈良県","city":"五條市","address":"大塔町堂平"},
{"zip_code":"6370407","kana_pref":"ﾅﾗｹﾝ","kana_city":"ｺﾞｼﾞｮｳｼ","kana_address":"ｵｵﾄｳﾁｮｳﾄｼﾞｷﾐ","pref":"奈良県","city":"五條市","address":"大塔町閉君"},
{"zip_code":"6370409","kana_pref":"ﾅﾗｹﾝ","kana_city":"ｺﾞｼﾞｮｳｼ","kana_address":"ｵｵﾄｳﾁｮｳﾄﾉﾉ","pref":"奈良県","city":"五條市","address":"大塔町殿野"},
{"zip_code":"6370403","kana_pref":"ﾅﾗｹﾝ","kana_city":"ｺﾞｼﾞｮｳｼ","kana_address":"ｵｵﾄｳﾁｮｳﾅｶｲﾎｳｼﾞ","pref":"奈良県","city":"五條市","address":"大塔町中井傍示"},
{"zip_code":"6370415","kana_pref":"ﾅﾗｹﾝ","kana_city":"ｺﾞｼﾞｮｳｼ","kana_address":"ｵｵﾄｳﾁｮｳﾅｶﾊﾞﾗ","pref":"奈良県","city":"五條市","address":"大塔町中原"},
{"zip_code":"6370404","kana_pref":"ﾅﾗｹﾝ","kana_city":"ｺﾞｼﾞｮｳｼ","kana_address":"ｵｵﾄｳﾁｮｳﾅｶﾐﾈ","pref":"奈良県","city":"五條市","address":"大塔町中峯"},
{"zip_code":"6370413","kana_pref":"ﾅﾗｹﾝ","kana_city":"ｺﾞｼﾞｮｳｼ","kana_address":"ｵｵﾄｳﾁｮｳﾋｷﾂﾁ","pref":"奈良県","city":"五條市","address":"大塔町引土"},
{"zip_code":"6370412","kana_pref":"ﾅﾗｹﾝ","kana_city":"ｺﾞｼﾞｮｳｼ","kana_address":"ｵｵﾄｳﾁｮｳﾋﾖｿ","pref":"奈良県","city":"五條市","address":"大塔町飛養曽"},
{"zip_code":"6370015","kana_pref":"ﾅﾗｹﾝ","kana_city":"ｺﾞｼﾞｮｳｼ","kana_address":"ｵｵﾉｼﾝﾃﾞﾝﾁｮｳ","pref":"奈良県","city":"五條市","address":"大野新田町"},
{"zip_code":"6370063","kana_pref":"ﾅﾗｹﾝ","kana_city":"ｺﾞｼﾞｮｳｼ","kana_address":"ｵｵﾉﾁｮｳ","pref":"奈良県","city":"五條市","address":"大野町"},
{"zip_code":"6370066","kana_pref":"ﾅﾗｹﾝ","kana_city":"ｺﾞｼﾞｮｳｼ","kana_address":"ｵｵﾌｶﾁｮｳ","pref":"奈良県","city":"五條市","address":"大深町"},
{"zip_code":"6370006","kana_pref":"ﾅﾗｹﾝ","kana_city":"ｺﾞｼﾞｮｳｼ","kana_address":"ｵｶｸﾞﾁ","pref":"奈良県","city":"五條市","address":"岡口"},
{"zip_code":"6370092","kana_pref":"ﾅﾗｹﾝ","kana_city":"ｺﾞｼﾞｮｳｼ","kana_address":"ｵｶﾁｮｳ","pref":"奈良県","city":"五條市","address":"岡町"},
{"zip_code":"6370053","kana_pref":"ﾅﾗｹﾝ","kana_city":"ｺﾞｼﾞｮｳｼ","kana_address":"ｵﾌﾞｽﾁｮｳ","pref":"奈良県","city":"五條市","address":"生子町"},
{"zip_code":"6370019","kana_pref":"ﾅﾗｹﾝ","kana_city":"ｺﾞｼﾞｮｳｼ","kana_address":"ｵﾜﾁｮｳ","pref":"奈良県","city":"五條市","address":"小和町"},
{"zip_code":"6370054","kana_pref":"ﾅﾗｹﾝ","kana_city":"ｺﾞｼﾞｮｳｼ","kana_address":"ｶｼﾂｼﾞﾁｮｳ","pref":"奈良県","city":"五條市","address":"樫辻町"},
{"zip_code":"6370084","kana_pref":"ﾅﾗｹﾝ","kana_city":"ｺﾞｼﾞｮｳｼ","kana_address":"ｶﾏﾉｸﾎﾞﾁｮｳ","pref":"奈良県","city":"五條市","address":"釜窪町"},
{"zip_code":"6370081","kana_pref":"ﾅﾗｹﾝ","kana_city":"ｺﾞｼﾞｮｳｼ","kana_address":"ｶﾐﾉﾁｮｳ","pref":"奈良県","city":"五條市","address":"上之町"},
{"zip_code":"6370091","kana_pref":"ﾅﾗｹﾝ","kana_city":"ｺﾞｼﾞｮｳｼ","kana_address":"ｷﾀﾔﾏﾁｮｳ","pref":"奈良県","city":"五條市","address":"北山町"},
{"zip_code":"6370076","kana_pref":"ﾅﾗｹﾝ","kana_city":"ｺﾞｼﾞｮｳｼ","kana_address":"ｷﾉﾊﾗﾁｮｳ","pref":"奈良県","city":"五條市","address":"木ノ原町"},
{"zip_code":"6370018","kana_pref":"ﾅﾗｹﾝ","kana_city":"ｺﾞｼﾞｮｳｼ","kana_address":"ｸﾙﾉﾁｮｳ","pref":"奈良県","city":"五條市","address":"久留野町"},
{"zip_code":"6370025","kana_pref":"ﾅﾗｹﾝ","kana_city":"ｺﾞｼﾞｮｳｼ","kana_address":"ｸﾙﾏﾀﾞﾆﾁｮｳ","pref":"奈良県","city":"五條市","address":"車谷町"},
{"zip_code":"6370062","kana_pref":"ﾅﾗｹﾝ","kana_city":"ｺﾞｼﾞｮｳｼ","kana_address":"ｸﾛｺﾏﾁｮｳ","pref":"奈良県","city":"五條市","address":"黒駒町"},
{"zip_code":"6370073","kana_pref":"ﾅﾗｹﾝ","kana_city":"ｺﾞｼﾞｮｳｼ","kana_address":"ｺｳｽﾞｹﾁｮｳ","pref":"奈良県","city":"五條市","address":"上野町"},
{"zip_code":"6370031","kana_pref":"ﾅﾗｹﾝ","kana_city":"ｺﾞｼﾞｮｳｼ","kana_address":"ｺｼﾞﾏﾁｮｳ","pref":"奈良県","city":"五條市","address":"小島町"},
{"zip_code":"6370042","kana_pref":"ﾅﾗｹﾝ","kana_city":"ｺﾞｼﾞｮｳｼ","kana_address":"ｺﾞｼﾞｮｳ","pref":"奈良県","city":"五條市","address":"五條"},
{"zip_code":"6370012","kana_pref":"ﾅﾗｹﾝ","kana_city":"ｺﾞｼﾞｮｳｼ","kana_address":"ｺﾔﾏﾁｮｳ","pref":"奈良県","city":"五條市","address":"小山町"},
{"zip_code":"6370065","kana_pref":"ﾅﾗｹﾝ","kana_city":"ｺﾞｼﾞｮｳｼ","kana_address":"ｻｶｱｲﾍﾞｼﾝﾃﾞﾝﾁｮｳ","pref":"奈良県","city":"五條市","address":"阪合部新田町"},
{"zip_code":"6370002","kana_pref":"ﾅﾗｹﾝ","kana_city":"ｺﾞｼﾞｮｳｼ","kana_address":"ｻﾝｻﾞｲﾁｮｳ","pref":"奈良県","city":"五條市","address":"三在町"},
{"zip_code":"6370027","kana_pref":"ﾅﾗｹﾝ","kana_city":"ｺﾞｼﾞｮｳｼ","kana_address":"ｼﾏﾉﾁｮｳ","pref":"奈良県","city":"五條市","address":"島野町"},
{"zip_code":"6370083","kana_pref":"ﾅﾗｹﾝ","kana_city":"ｺﾞｼﾞｮｳｼ","kana_address":"ｼﾓﾉﾁｮｳ","pref":"奈良県","city":"五條市","address":"下之町"},
{"zip_code":"6370043","kana_pref":"ﾅﾗｹﾝ","kana_city":"ｺﾞｼﾞｮｳｼ","kana_address":"ｼﾝﾏﾁ","pref":"奈良県","city":"五條市","address":"新町"},
{"zip_code":"6370005","kana_pref":"ﾅﾗｹﾝ","kana_city":"ｺﾞｼﾞｮｳｼ","kana_address":"ｽｴ","pref":"奈良県","city":"五條市","address":"須恵"},
{"zip_code":"6370014","kana_pref":"ﾅﾗｹﾝ","kana_city":"ｺﾞｼﾞｮｳｼ","kana_address":"ｽｶﾞﾜﾁｮｳ","pref":"奈良県","city":"五條市","address":"住川町"},
{"zip_code":"6370024","kana_pref":"ﾅﾗｹﾝ","kana_city":"ｺﾞｼﾞｮｳｼ","kana_address":"ﾀｷﾁｮｳ","pref":"奈良県","city":"五條市","address":"滝町"},
{"zip_code":"6370067","kana_pref":"ﾅﾗｹﾝ","kana_city":"ｺﾞｼﾞｮｳｼ","kana_address":"ﾀﾄﾞﾉﾁｮｳ","pref":"奈良県","city":"五條市","address":"田殿町"},
{"zip_code":"6370052","kana_pref":"ﾅﾗｹﾝ","kana_city":"ｺﾞｼﾞｮｳｼ","kana_address":"ﾀﾝﾊﾞﾗﾁｮｳ","pref":"奈良県","city":"五條市","address":"丹原町"},
{"zip_code":"6370016","kana_pref":"ﾅﾗｹﾝ","kana_city":"ｺﾞｼﾞｮｳｼ","kana_address":"ﾁｶｳﾁﾁｮｳ","pref":"奈良県","city":"五條市","address":"近内町"},
{"zip_code":"6370011","kana_pref":"ﾅﾗｹﾝ","kana_city":"ｺﾞｼﾞｮｳｼ","kana_address":"ﾃﾞﾔｼｷﾁｮｳ","pref":"奈良県","city":"五條市","address":"出屋敷町"},
{"zip_code":"6370093","kana_pref":"ﾅﾗｹﾝ","kana_city":"ｺﾞｼﾞｮｳｼ","kana_address":"ﾃﾞﾝｴﾝ","pref":"奈良県","city":"五條市","address":"田園"},
{"zip_code":"6370061","kana_pref":"ﾅﾗｹﾝ","kana_city":"ｺﾞｼﾞｮｳｼ","kana_address":"ﾅｶﾁｮｳ","pref":"奈良県","city":"五條市","address":"中町"},
{"zip_code":"6370082","kana_pref":"ﾅﾗｹﾝ","kana_city":"ｺﾞｼﾞｮｳｼ","kana_address":"ﾅｶﾉﾁｮｳ","pref":"奈良県","city":"五條市","address":"中之町"},
{"zip_code":"6370078","kana_pref":"ﾅﾗｹﾝ","kana_city":"ｺﾞｼﾞｮｳｼ","kana_address":"ﾅﾂﾐﾀﾞｲ","pref":"奈良県","city":"五條市","address":"なつみ台"},
{"zip_code":"6370020","kana_pref":"ﾅﾗｹﾝ","kana_city":"ｺﾞｼﾞｮｳｼ","kana_address":"ﾆｼｱﾀﾞﾁｮｳ","pref":"奈良県","city":"五條市","address":"西阿田町"},
{"zip_code":"6370001","kana_pref":"ﾅﾗｹﾝ","kana_city":"ｺﾞｼﾞｮｳｼ","kana_address":"ﾆｼｶﾜﾁﾁｮｳ","pref":"奈良県","city":"五條市","address":"西河内町"},
{"zip_code":"6370017","kana_pref":"ﾅﾗｹﾝ","kana_city":"ｺﾞｼﾞｮｳｼ","kana_address":"ﾆｼｸﾙﾉﾁｮｳ","pref":"奈良県","city":"五條市","address":"西久留野町"},
{"zip_code":"6370117","kana_pref":"ﾅﾗｹﾝ","kana_city":"ｺﾞｼﾞｮｳｼ","kana_address":"ﾆｼﾖｼﾉﾁｮｳｱﾉｳ","pref":"奈良県","city":"五條市","address":"西吉野町賀名生"},
{"zip_code":"6370221","kana_pref":"ﾅﾗｹﾝ","kana_city":"ｺﾞｼﾞｮｳｼ","kana_address":"ﾆｼﾖｼﾉﾁｮｳｴｲﾀﾆ","pref":"奈良県","city":"五條市","address":"西吉野町永谷"},
{"zip_code":"6370111","kana_pref":"ﾅﾗｹﾝ","kana_city":"ｺﾞｼﾞｮｳｼ","kana_address":"ﾆｼﾖｼﾉﾁｮｳｴｽﾞﾙ","pref":"奈良県","city":"五條市","address":"西吉野町江出"},
{"zip_code":"6370112","kana_pref":"ﾅﾗｹﾝ","kana_city":"ｺﾞｼﾞｮｳｼ","kana_address":"ﾆｼﾖｼﾉﾁｮｳｵｲﾉ","pref":"奈良県","city":"五條市","address":"西吉野町老野"},
{"zip_code":"6370234","kana_pref":"ﾅﾗｹﾝ","kana_city":"ｺﾞｼﾞｮｳｼ","kana_address":"ﾆｼﾖｼﾉﾁｮｳｵｵﾐﾈ","pref":"奈良県","city":"五條市","address":"西吉野町大峯"},
{"zip_code":"6370101","kana_pref":"ﾅﾗｹﾝ","kana_city":"ｺﾞｼﾞｮｳｼ","kana_address":"ﾆｼﾖｼﾉﾁｮｳｵﾋﾞｶﾜ","pref":"奈良県","city":"五條市","address":"西吉野町大日川"},
{"zip_code":"6370239","kana_pref":"ﾅﾗｹﾝ","kana_city":"ｺﾞｼﾞｮｳｼ","kana_address":"ﾆｼﾖｼﾉﾁｮｳｵﾝｼﾞ","pref":"奈良県","city":"五條市","address":"西吉野町陰地"},
{"zip_code":"6370231","kana_pref":"ﾅﾗｹﾝ","kana_city":"ｺﾞｼﾞｮｳｼ","kana_address":"ﾆｼﾖｼﾉﾁｮｳｶﾜｷﾞｼ","pref":"奈良県","city":"五條市","address":"西吉野町川岸"},
{"zip_code":"6370225","kana_pref":"ﾅﾗｹﾝ","kana_city":"ｺﾞｼﾞｮｳｼ","kana_address":"ﾆｼﾖｼﾉﾁｮｳｶﾜﾏﾀ","pref":"奈良県","city":"五條市","address":"西吉野町川股"},
{"zip_code":"6370102","kana_pref":"ﾅﾗｹﾝ","kana_city":"ｺﾞｼﾞｮｳｼ","kana_address":"ﾆｼﾖｼﾉﾁｮｳｸﾛﾌﾞﾁ","pref":"奈良県","city":"五條市","address":"西吉野町黒淵"},
{"zip_code":"6370113","kana_pref":"ﾅﾗｹﾝ","kana_city":"ｺﾞｼﾞｮｳｼ","kana_address":"ﾆｼﾖｼﾉﾁｮｳｺｳﾉ","pref":"奈良県","city":"五條市","address":"西吉野町神野"},
{"zip_code":"6370236","kana_pref":"ﾅﾗｹﾝ","kana_city":"ｺﾞｼﾞｮｳｼ","kana_address":"ﾆｼﾖｼﾉﾁｮｳｻｶﾏｷ","pref":"奈良県","city":"五條市","address":"西吉野町阪巻"},
{"zip_code":"6370230","kana_pref":"ﾅﾗｹﾝ","kana_city":"ｺﾞｼﾞｮｳｼ","kana_address":"ﾆｼﾖｼﾉﾁｮｳｼﾞｮｳﾄﾞ","pref":"奈良県","city":"五條市","address":"西吉野町城戸"},
{"zip_code":"6370227","kana_pref":"ﾅﾗｹﾝ","kana_city":"ｺﾞｼﾞｮｳｼ","kana_address":"ﾆｼﾖｼﾉﾁｮｳｾｲ","pref":"奈良県","city":"五條市","address":"西吉野町勢井"},
{"zip_code":"6370114","kana_pref":"ﾅﾗｹﾝ","kana_city":"ｺﾞｼﾞｮｳｼ","kana_address":"ﾆｼﾖｼﾉﾁｮｳﾀｷ","pref":"奈良県","city":"五條市","address":"西吉野町滝"},
{"zip_code":"6370222","kana_pref":"ﾅﾗｹﾝ","kana_city":"ｺﾞｼﾞｮｳｼ","kana_address":"ﾆｼﾖｼﾉﾁｮｳﾀﾃｶﾜﾄﾞ","pref":"奈良県","city":"五條市","address":"西吉野町立川渡"},
{"zip_code":"6370232","kana_pref":"ﾅﾗｹﾝ","kana_city":"ｺﾞｼﾞｮｳｼ","kana_address":"ﾆｼﾖｼﾉﾁｮｳﾂｺﾞｼ","pref":"奈良県","city":"五條市","address":"西吉野町津越"},
{"zip_code":"6370224","kana_pref":"ﾅﾗｹﾝ","kana_city":"ｺﾞｼﾞｮｳｼ","kana_address":"ﾆｼﾖｼﾉﾁｮｳﾅｽﾊﾗ","pref":"奈良県","city":"五條市","address":"西吉野町茄子原"},
{"zip_code":"6370238","kana_pref":"ﾅﾗｹﾝ","kana_city":"ｺﾞｼﾞｮｳｼ","kana_address":"ﾆｼﾖｼﾉﾁｮｳﾆｼﾉ","pref":"奈良県","city":"五條市","address":"西吉野町西野"},
{"zip_code":"6370226","kana_pref":"ﾅﾗｹﾝ","kana_city":"ｺﾞｼﾞｮｳｼ","kana_address":"ﾆｼﾖｼﾉﾁｮｳﾆｼﾋｳﾗ","pref":"奈良県","city":"五條市","address":"西吉野町西日裏"},
{"zip_code":"6370233","kana_pref":"ﾅﾗｹﾝ","kana_city":"ｺﾞｼﾞｮｳｼ","kana_address":"ﾆｼﾖｼﾉﾁｮｳﾋｶﾜｾ","pref":"奈良県","city":"五條市","address":"西吉野町桧川迫"},
{"zip_code":"6370235","kana_pref":"ﾅﾗｹﾝ","kana_city":"ｺﾞｼﾞｮｳｼ","kana_address":"ﾆｼﾖｼﾉﾁｮｳﾋﾗｵ","pref":"奈良県","city":"五條市","address":"西吉野町平雄"},
{"zip_code":"6370115","kana_pref":"ﾅﾗｹﾝ","kana_city":"ｺﾞｼﾞｮｳｼ","kana_address":"ﾆｼﾖｼﾉﾁｮｳﾎｸｿｷﾞ","pref":"奈良県","city":"五條市","address":"西吉野町北曽木"},
{"zip_code":"6370103","kana_pref":"ﾅﾗｹﾝ","kana_city":"ｺﾞｼﾞｮｳｼ","kana_address":"ﾆｼﾖｼﾉﾁｮｳﾑｶｲｱﾉｳ","pref":"奈良県","city":"五條市","address":"西吉野町向加名生"},
{"zip_code":"6370237","kana_pref":"ﾅﾗｹﾝ","kana_city":"ｺﾞｼﾞｮｳｼ","kana_address":"ﾆｼﾖｼﾉﾁｮｳﾑﾈｶﾞﾜﾉ","pref":"奈良県","city":"五條市","address":"西吉野町宗川野"},
{"zip_code":"6370223","kana_pref":"ﾅﾗｹﾝ","kana_city":"ｺﾞｼﾞｮｳｼ","kana_address":"ﾆｼﾖｼﾉﾁｮｳﾓﾄﾀﾞﾆ","pref":"奈良県","city":"五條市","address":"西吉野町本谷"},
{"zip_code":"6370104","kana_pref":"ﾅﾗｹﾝ","kana_city":"ｺﾞｼﾞｮｳｼ","kana_address":"ﾆｼﾖｼﾉﾁｮｳﾔﾅｾ","pref":"奈良県","city":"五條市","address":"西吉野町屋那瀬"},
{"zip_code":"6370105","kana_pref":"ﾅﾗｹﾝ","kana_city":"ｺﾞｼﾞｮｳｼ","kana_address":"ﾆｼﾖｼﾉﾁｮｳﾕｼｵ","pref":"奈良県","city":"五條市","address":"西吉野町湯塩"},
{"zip_code":"6370116","kana_pref":"ﾅﾗｹﾝ","kana_city":"ｺﾞｼﾞｮｳｼ","kana_address":"ﾆｼﾖｼﾉﾁｮｳﾜﾀﾞ","pref":"奈良県","city":"五條市","address":"西吉野町和田"},
{"zip_code":"6370034","kana_pref":"ﾅﾗｹﾝ","kana_city":"ｺﾞｼﾞｮｳｼ","kana_address":"ﾉﾊﾗﾁｮｳ","pref":"奈良県","city":"五條市","address":"野原町"},
{"zip_code":"6370037","kana_pref":"ﾅﾗｹﾝ","kana_city":"ｺﾞｼﾞｮｳｼ","kana_address":"ﾉﾊﾗﾅｶ","pref":"奈良県","city":"五條市","address":"野原中"},
{"zip_code":"6370036","kana_pref":"ﾅﾗｹﾝ","kana_city":"ｺﾞｼﾞｮｳｼ","kana_address":"ﾉﾊﾗﾆｼ","pref":"奈良県","city":"五條市","address":"野原西"},
{"zip_code":"6370038","kana_pref":"ﾅﾗｹﾝ","kana_city":"ｺﾞｼﾞｮｳｼ","kana_address":"ﾉﾊﾗﾋｶﾞｼ","pref":"奈良県","city":"五條市","address":"野原東"},
{"zip_code":"6370075","kana_pref":"ﾅﾗｹﾝ","kana_city":"ｺﾞｼﾞｮｳｼ","kana_address":"ﾊﾀｹﾀﾞﾁｮｳ","pref":"奈良県","city":"五條市","address":"畑田町"},
{"zip_code":"6370022","kana_pref":"ﾅﾗｹﾝ","kana_city":"ｺﾞｼﾞｮｳｼ","kana_address":"ﾊｯﾀﾁｮｳ","pref":"奈良県","city":"五條市","address":"八田町"},
{"zip_code":"6370028","kana_pref":"ﾅﾗｹﾝ","kana_city":"ｺﾞｼﾞｮｳｼ","kana_address":"ﾊﾗﾁｮｳ","pref":"奈良県","city":"五條市","address":"原町"},
{"zip_code":"6370068","kana_pref":"ﾅﾗｹﾝ","kana_city":"ｺﾞｼﾞｮｳｼ","kana_address":"ﾋｳﾁﾁｮｳ","pref":"奈良県","city":"五條市","address":"火打町"},
{"zip_code":"6370021","kana_pref":"ﾅﾗｹﾝ","kana_city":"ｺﾞｼﾞｮｳｼ","kana_address":"ﾋｶﾞｼｱﾀﾞﾁｮｳ","pref":"奈良県","city":"五條市","address":"東阿田町"},
{"zip_code":"6370069","kana_pref":"ﾅﾗｹﾝ","kana_city":"ｺﾞｼﾞｮｳｼ","kana_address":"ﾋｮｳﾉﾁｮｳ","pref":"奈良県","city":"五條市","address":"表野町"},
{"zip_code":"6370071","kana_pref":"ﾅﾗｹﾝ","kana_city":"ｺﾞｼﾞｮｳｼ","kana_address":"ﾌﾀﾐ","pref":"奈良県","city":"五條市","address":"二見"},
{"zip_code":"6370041","kana_pref":"ﾅﾗｹﾝ","kana_city":"ｺﾞｼﾞｮｳｼ","kana_address":"ﾎﾝﾏﾁ","pref":"奈良県","city":"五條市","address":"本町"},
{"zip_code":"6370033","kana_pref":"ﾅﾗｹﾝ","kana_city":"ｺﾞｼﾞｮｳｼ","kana_address":"ﾏｷﾁｮｳ","pref":"奈良県","city":"五條市","address":"牧町"},
{"zip_code":"6370023","kana_pref":"ﾅﾗｹﾝ","kana_city":"ｺﾞｼﾞｮｳｼ","kana_address":"ﾐﾅﾐｱﾀﾞﾁｮｳ","pref":"奈良県","city":"五條市","address":"南阿田町"},
{"zip_code":"6370051","kana_pref":"ﾅﾗｹﾝ","kana_city":"ｺﾞｼﾞｮｳｼ","kana_address":"ﾐﾔﾏﾁｮｳ","pref":"奈良県","city":"五條市","address":"御山町"},
{"zip_code":"6370032","kana_pref":"ﾅﾗｹﾝ","kana_city":"ｺﾞｼﾞｮｳｼ","kana_address":"ﾑﾂｸﾗﾁｮｳ","pref":"奈良県","city":"五條市","address":"六倉町"},
{"zip_code":"6370064","kana_pref":"ﾅﾗｹﾝ","kana_city":"ｺﾞｼﾞｮｳｼ","kana_address":"ﾔﾏｶｹﾞﾁｮｳ","pref":"奈良県","city":"五條市","address":"山陰町"},
{"zip_code":"6370029","kana_pref":"ﾅﾗｹﾝ","kana_city":"ｺﾞｼﾞｮｳｼ","kana_address":"ﾔﾏﾀﾞﾁｮｳ","pref":"奈良県","city":"五條市","address":"山田町"},
{"zip_code":"6370026","kana_pref":"ﾅﾗｹﾝ","kana_city":"ｺﾞｼﾞｮｳｼ","kana_address":"ﾕﾀﾆｲﾁﾂﾞｶﾁｮｳ","pref":"奈良県","city":"五條市","address":"湯谷市塚町"},
{"zip_code":"6370035","kana_pref":"ﾅﾗｹﾝ","kana_city":"ｺﾞｼﾞｮｳｼ","kana_address":"ﾘｮｳｱﾝｼﾞﾁｮｳ","pref":"奈良県","city":"五條市","address":"霊安寺町"},
{"zip_code":"6370421","kana_pref":"ﾅﾗｹﾝ","kana_city":"ﾖｼﾉｸﾞﾝﾉｾｶﾞﾜﾑﾗ","kana_address":"ｲﾏｲ","pref":"奈良県","city":"吉野郡野迫川村","address":"今井"},
{"zip_code":"6370425","kana_pref":"ﾅﾗｹﾝ","kana_city":"ﾖｼﾉｸﾞﾝﾉｾｶﾞﾜﾑﾗ","kana_address":"ｶﾐ","pref":"奈良県","city":"吉野郡野迫川村","address":"上"},
{"zip_code":"6370424","kana_pref":"ﾅﾗｹﾝ","kana_city":"ﾖｼﾉｸﾞﾝﾉｾｶﾞﾜﾑﾗ","kana_address":"ﾅｶ","pref":"奈良県","city":"吉野郡野迫川村","address":"中"},
{"zip_code":"6370422","kana_pref":"ﾅﾗｹﾝ","kana_city":"ﾖｼﾉｸﾞﾝﾉｾｶﾞﾜﾑﾗ","kana_address":"ﾋﾗｶﾜ","pref":"奈良県","city":"吉野郡野迫川村","address":"平川"},
{"zip_code":"6370423","kana_pref":"ﾅﾗｹﾝ","kana_city":"ﾖｼﾉｸﾞﾝﾉｾｶﾞﾜﾑﾗ","kana_address":"ﾎｿﾊﾗ","pref":"奈良県","city":"吉野郡野迫川村","address":"柞原"},
{"zip_code":"6371500","kana_pref":"ﾅﾗｹﾝ","kana_city":"ﾖｼﾉｸﾞﾝﾄﾂｶﾜﾑﾗ","kana_address":"","pref":"奈良県","city":"吉野郡十津川村","address":""},
{"zip_code":"6371102","kana_pref":"ﾅﾗｹﾝ","kana_city":"ﾖｼﾉｸﾞﾝﾄﾂｶﾜﾑﾗ","kana_address":"ｱｻﾋ","pref":"奈良県","city":"吉野郡十津川村","address":"旭"},
{"zip_code":"6371215","kana_pref":"ﾅﾗｹﾝ","kana_city":"ﾖｼﾉｸﾞﾝﾄﾂｶﾜﾑﾗ","kana_address":"ｲｹｱﾅ","pref":"奈良県","city":"吉野郡十津川村","address":"池穴"},
{"zip_code":"6371664","kana_pref":"ﾅﾗｹﾝ","kana_city":"ﾖｼﾉｸﾞﾝﾄﾂｶﾜﾑﾗ","kana_address":"ｲﾏﾆｼ","pref":"奈良県","city":"吉野郡十津川村","address":"今西"},
{"zip_code":"6371224","kana_pref":"ﾅﾗｹﾝ","kana_city":"ﾖｼﾉｸﾞﾝﾄﾂｶﾜﾑﾗ","kana_address":"ｲﾓｾﾞ","pref":"奈良県","city":"吉野郡十津川村","address":"五百瀬"},
{"zip_code":"6371103","kana_pref":"ﾅﾗｹﾝ","kana_city":"ﾖｼﾉｸﾞﾝﾄﾂｶﾜﾑﾗ","kana_address":"ｳｴﾉｼﾞ","pref":"奈良県","city":"吉野郡十津川村","address":"上野地"},
{"zip_code":"6371107","kana_pref":"ﾅﾗｹﾝ","kana_city":"ﾖｼﾉｸﾞﾝﾄﾂｶﾜﾑﾗ","kana_address":"ｳｸﾞﾊﾗ","pref":"奈良県","city":"吉野郡十津川村","address":"宇宮原"},
{"zip_code":"6371221","kana_pref":"ﾅﾗｹﾝ","kana_city":"ﾖｼﾉｸﾞﾝﾄﾂｶﾜﾑﾗ","kana_address":"ｳﾁﾉ","pref":"奈良県","city":"吉野郡十津川村","address":"内野"},
{"zip_code":"6371331","kana_pref":"ﾅﾗｹﾝ","kana_city":"ﾖｼﾉｸﾞﾝﾄﾂｶﾜﾑﾗ","kana_address":"ｵｵﾉ","pref":"奈良県","city":"吉野郡十津川村","address":"大野"},
{"zip_code":"6371441","kana_pref":"ﾅﾗｹﾝ","kana_city":"ﾖｼﾉｸﾞﾝﾄﾂｶﾜﾑﾗ","kana_address":"ｵｶﾞﾜ","pref":"奈良県","city":"吉野郡十津川村","address":"小川"},
{"zip_code":"6371333","kana_pref":"ﾅﾗｹﾝ","kana_city":"ﾖｼﾉｸﾞﾝﾄﾂｶﾜﾑﾗ","kana_address":"ｵﾊﾗ","pref":"奈良県","city":"吉野郡十津川村","address":"小原"},
{"zip_code":"6371443","kana_pref":"ﾅﾗｹﾝ","kana_city":"ﾖｼﾉｸﾞﾝﾄﾂｶﾜﾑﾗ","kana_address":"ｵﾘﾀﾁ","pref":"奈良県","city":"吉野郡十津川村","address":"折立"},
{"zip_code":"6371446","kana_pref":"ﾅﾗｹﾝ","kana_city":"ﾖｼﾉｸﾞﾝﾄﾂｶﾜﾑﾗ","kana_address":"ｶｼﾜﾗ","pref":"奈良県","city":"吉野郡十津川村","address":"樫原"},
{"zip_code":"6371217","kana_pref":"ﾅﾗｹﾝ","kana_city":"ﾖｼﾉｸﾞﾝﾄﾂｶﾜﾑﾗ","kana_address":"ｶｾﾞﾔ","pref":"奈良県","city":"吉野郡十津川村","address":"風屋"},
{"zip_code":"6371559","kana_pref":"ﾅﾗｹﾝ","kana_city":"ﾖｼﾉｸﾞﾝﾄﾂｶﾜﾑﾗ","kana_address":"ｶﾐﾕｶﾜ","pref":"奈良県","city":"吉野郡十津川村","address":"上湯川"},
{"zip_code":"6371216","kana_pref":"ﾅﾗｹﾝ","kana_city":"ﾖｼﾉｸﾞﾝﾄﾂｶﾜﾑﾗ","kana_address":"ｶﾜﾂ","pref":"奈良県","city":"吉野郡十津川村","address":"川津"},
{"zip_code":"6371556","kana_pref":"ﾅﾗｹﾝ","kana_city":"ﾖｼﾉｸﾞﾝﾄﾂｶﾜﾑﾗ","kana_address":"ｸﾜﾊﾀ","pref":"奈良県","city":"吉野郡十津川村","address":"桑畑"},
{"zip_code":"6371336","kana_pref":"ﾅﾗｹﾝ","kana_city":"ﾖｼﾉｸﾞﾝﾄﾂｶﾜﾑﾗ","kana_address":"ｺｲ","pref":"奈良県","city":"吉野郡十津川村","address":"小井"},
{"zip_code":"6371667","kana_pref":"ﾅﾗｹﾝ","kana_city":"ﾖｼﾉｸﾞﾝﾄﾂｶﾜﾑﾗ","kana_address":"ｺﾂﾎﾞｾ","pref":"奈良県","city":"吉野郡十津川村","address":"小坪瀬"},
{"zip_code":"6371445","kana_pref":"ﾅﾗｹﾝ","kana_city":"ﾖｼﾉｸﾞﾝﾄﾂｶﾜﾑﾗ","kana_address":"ｺﾐﾉｳｴ","pref":"奈良県","city":"吉野郡十津川村","address":"込之上"},
{"zip_code":"6371334","kana_pref":"ﾅﾗｹﾝ","kana_city":"ﾖｼﾉｸﾞﾝﾄﾂｶﾜﾑﾗ","kana_address":"ｺﾓﾘ","pref":"奈良県","city":"吉野郡十津川村","address":"小森"},
{"zip_code":"6371666","kana_pref":"ﾅﾗｹﾝ","kana_city":"ﾖｼﾉｸﾞﾝﾄﾂｶﾜﾑﾗ","kana_address":"ｺﾔﾏﾃ","pref":"奈良県","city":"吉野郡十津川村","address":"小山手"},
{"zip_code":"6371555","kana_pref":"ﾅﾗｹﾝ","kana_city":"ﾖｼﾉｸﾞﾝﾄﾂｶﾜﾑﾗ","kana_address":"ｻﾙｶｲ","pref":"奈良県","city":"吉野郡十津川村","address":"猿飼"},
{"zip_code":"6371661","kana_pref":"ﾅﾗｹﾝ","kana_city":"ﾖｼﾉｸﾞﾝﾄﾂｶﾜﾑﾗ","kana_address":"ｼｹﾞｻﾄ","pref":"奈良県","city":"吉野郡十津川村","address":"重里"},
{"zip_code":"6371225","kana_pref":"ﾅﾗｹﾝ","kana_city":"ﾖｼﾉｸﾞﾝﾄﾂｶﾜﾑﾗ","kana_address":"ｽｷﾞｾ","pref":"奈良県","city":"吉野郡十津川村","address":"杉清"},
{"zip_code":"6371668","kana_pref":"ﾅﾗｹﾝ","kana_city":"ﾖｼﾉｸﾞﾝﾄﾂｶﾜﾑﾗ","kana_address":"ｾﾆｼｶﾞﾜ","pref":"奈良県","city":"吉野郡十津川村","address":"迫西川"},
{"zip_code":"6371442","kana_pref":"ﾅﾗｹﾝ","kana_city":"ﾖｼﾉｸﾞﾝﾄﾂｶﾜﾑﾗ","kana_address":"ﾀｶﾀｷ","pref":"奈良県","city":"吉野郡十津川村","address":"高滝"},
{"zip_code":"6371211","kana_pref":"ﾅﾗｹﾝ","kana_city":"ﾖｼﾉｸﾞﾝﾄﾂｶﾜﾑﾗ","kana_address":"ﾀｷｶﾞﾜ","pref":"奈良県","city":"吉野郡十津川村","address":"滝川"},
{"zip_code":"6371104","kana_pref":"ﾅﾗｹﾝ","kana_city":"ﾖｼﾉｸﾞﾝﾄﾂｶﾜﾑﾗ","kana_address":"ﾀｺｳﾂ","pref":"奈良県","city":"吉野郡十津川村","address":"高津"},
{"zip_code":"6371552","kana_pref":"ﾅﾗｹﾝ","kana_city":"ﾖｼﾉｸﾞﾝﾄﾂｶﾜﾑﾗ","kana_address":"ﾀﾆｶﾞｲﾄ","pref":"奈良県","city":"吉野郡十津川村","address":"谷垣内"},
{"zip_code":"6371106","kana_pref":"ﾅﾗｹﾝ","kana_city":"ﾖｼﾉｸﾞﾝﾄﾂｶﾜﾑﾗ","kana_address":"ﾀﾆｾﾞ","pref":"奈良県","city":"吉野郡十津川村","address":"谷瀬"},
{"zip_code":"6371663","kana_pref":"ﾅﾗｹﾝ","kana_city":"ﾖｼﾉｸﾞﾝﾄﾂｶﾜﾑﾗ","kana_address":"ﾀﾏｶﾞｲﾄ","pref":"奈良県","city":"吉野郡十津川村","address":"玉垣内"},
{"zip_code":"6371558","kana_pref":"ﾅﾗｹﾝ","kana_city":"ﾖｼﾉｸﾞﾝﾄﾂｶﾜﾑﾗ","kana_address":"ﾃﾞﾀﾆ","pref":"奈良県","city":"吉野郡十津川村","address":"出谷"},
{"zip_code":"6371212","kana_pref":"ﾅﾗｹﾝ","kana_city":"ﾖｼﾉｸﾞﾝﾄﾂｶﾜﾑﾗ","kana_address":"ﾅｲﾊﾞﾗ","pref":"奈良県","city":"吉野郡十津川村","address":"内原"},
{"zip_code":"6371662","kana_pref":"ﾅﾗｹﾝ","kana_city":"ﾖｼﾉｸﾞﾝﾄﾂｶﾜﾑﾗ","kana_address":"ﾅｶﾞｲ","pref":"奈良県","city":"吉野郡十津川村","address":"永井"},
{"zip_code":"6371108","kana_pref":"ﾅﾗｹﾝ","kana_city":"ﾖｼﾉｸﾞﾝﾄﾂｶﾜﾑﾗ","kana_address":"ﾅｶﾞﾄﾉ","pref":"奈良県","city":"吉野郡十津川村","address":"長殿"},
{"zip_code":"6371551","kana_pref":"ﾅﾗｹﾝ","kana_city":"ﾖｼﾉｸﾞﾝﾄﾂｶﾜﾑﾗ","kana_address":"ﾅﾁｱｲ","pref":"奈良県","city":"吉野郡十津川村","address":"那知合"},
{"zip_code":"6371557","kana_pref":"ﾅﾗｹﾝ","kana_city":"ﾖｼﾉｸﾞﾝﾄﾂｶﾜﾑﾗ","kana_address":"ﾅﾅｲﾛ","pref":"奈良県","city":"吉野郡十津川村","address":"七色"},
{"zip_code":"6371665","kana_pref":"ﾅﾗｹﾝ","kana_city":"ﾖｼﾉｸﾞﾝﾄﾂｶﾜﾑﾗ","kana_address":"ﾆｼﾅｶ","pref":"奈良県","city":"吉野郡十津川村","address":"西中"},
{"zip_code":"6371101","kana_pref":"ﾅﾗｹﾝ","kana_city":"ﾖｼﾉｸﾞﾝﾄﾂｶﾜﾑﾗ","kana_address":"ﾇﾀﾉﾊﾗ","pref":"奈良県","city":"吉野郡十津川村","address":"沼田原"},
{"zip_code":"6371213","kana_pref":"ﾅﾗｹﾝ","kana_city":"ﾖｼﾉｸﾞﾝﾄﾂｶﾜﾑﾗ","kana_address":"ﾉｼﾞﾘ","pref":"奈良県","city":"吉野郡十津川村","address":"野尻"},
{"zip_code":"6371105","kana_pref":"ﾅﾗｹﾝ","kana_city":"ﾖｼﾉｸﾞﾝﾄﾂｶﾜﾑﾗ","kana_address":"ﾊﾔｼ","pref":"奈良県","city":"吉野郡十津川村","address":"林"},
{"zip_code":"6371554","kana_pref":"ﾅﾗｹﾝ","kana_city":"ﾖｼﾉｸﾞﾝﾄﾂｶﾜﾑﾗ","kana_address":"ﾋﾗﾀﾆ","pref":"奈良県","city":"吉野郡十津川村","address":"平谷"},
{"zip_code":"6371223","kana_pref":"ﾅﾗｹﾝ","kana_city":"ﾖｼﾉｸﾞﾝﾄﾂｶﾜﾑﾗ","kana_address":"ﾐｳﾗ","pref":"奈良県","city":"吉野郡十津川村","address":"三浦"},
{"zip_code":"6371332","kana_pref":"ﾅﾗｹﾝ","kana_city":"ﾖｼﾉｸﾞﾝﾄﾂｶﾜﾑﾗ","kana_address":"ﾑｻｼ","pref":"奈良県","city":"吉野郡十津川村","address":"武蔵"},
{"zip_code":"6371214","kana_pref":"ﾅﾗｹﾝ","kana_city":"ﾖｼﾉｸﾞﾝﾄﾂｶﾜﾑﾗ","kana_address":"ﾔﾏｻｷ","pref":"奈良県","city":"吉野郡十津川村","address":"山崎"},
{"zip_code":"6371553","kana_pref":"ﾅﾗｹﾝ","kana_city":"ﾖｼﾉｸﾞﾝﾄﾂｶﾜﾑﾗ","kana_address":"ﾔﾏﾃ","pref":"奈良県","city":"吉野郡十津川村","address":"山手"},
{"zip_code":"6371444","kana_pref":"ﾅﾗｹﾝ","kana_city":"ﾖｼﾉｸﾞﾝﾄﾂｶﾜﾑﾗ","kana_address":"ﾔﾏﾃﾀﾞﾆ","pref":"奈良県","city":"吉野郡十津川村","address":"山手谷"},
{"zip_code":"6371222","kana_pref":"ﾅﾗｹﾝ","kana_city":"ﾖｼﾉｸﾞﾝﾄﾂｶﾜﾑﾗ","kana_address":"ﾔﾏﾃﾝ","pref":"奈良県","city":"吉野郡十津川村","address":"山天"},
{"zip_code":"6371335","kana_pref":"ﾅﾗｹﾝ","kana_city":"ﾖｼﾉｸﾞﾝﾄﾂｶﾜﾑﾗ","kana_address":"ﾕﾉﾊﾗ","pref":"奈良県","city":"吉野郡十津川村","address":"湯之原"}]}