{"zip_code":[
{"zip_code":"6380643","kana_pref":"ﾅﾗｹﾝ","kana_city":"ｺﾞｼﾞｮｳｼ","kana_address":"ﾆｼﾖｼﾉﾁｮｳｱｶﾏﾂ","pref":"奈良県","city":"五條市","address":"西吉野町赤松"},
{"zip_code":"6380652","kana_pref":"ﾅﾗｹﾝ","kana_city":"ｺﾞｼﾞｮｳｼ","kana_address":"ﾆｼﾖｼﾉﾁｮｳｱﾏｶﾞｼｮｳ","pref":"奈良県","city":"五條市","address":"西吉野町尼ケ生"},
{"zip_code":"6380663","kana_pref":"ﾅﾗｹﾝ","kana_city":"ｺﾞｼﾞｮｳｼ","kana_address":"ﾆｼﾖｼﾉﾁｮｳｵｸﾀﾞﾆ","pref":"奈良県","city":"五條市","address":"西吉野町奥谷"},
{"zip_code":"6380655","kana_pref":"ﾅﾗｹﾝ","kana_city":"ｺﾞｼﾞｮｳｼ","kana_address":"ﾆｼﾖｼﾉﾁｮｳｵﾌﾞﾙﾀ","pref":"奈良県","city":"五條市","address":"西吉野町小古田"},
{"zip_code":"6380651","kana_pref":"ﾅﾗｹﾝ","kana_city":"ｺﾞｼﾞｮｳｼ","kana_address":"ﾆｼﾖｼﾉﾁｮｳｶﾗﾄ","pref":"奈良県","city":"五條市","address":"西吉野町唐戸"},
{"zip_code":"6380656","kana_pref":"ﾅﾗｹﾝ","kana_city":"ｺﾞｼﾞｮｳｼ","kana_address":"ﾆｼﾖｼﾉﾁｮｳｼｼﾊﾞ","pref":"奈良県","city":"五條市","address":"西吉野町鹿場"},
{"zip_code":"6380653","kana_pref":"ﾅﾗｹﾝ","kana_city":"ｺﾞｼﾞｮｳｼ","kana_address":"ﾆｼﾖｼﾉﾁｮｳﾄｵｶｲﾁ","pref":"奈良県","city":"五條市","address":"西吉野町十日市"},
{"zip_code":"6380661","kana_pref":"ﾅﾗｹﾝ","kana_city":"ｺﾞｼﾞｮｳｼ","kana_address":"ﾆｼﾖｼﾉﾁｮｳﾆｼｱﾀﾗｼ","pref":"奈良県","city":"五條市","address":"西吉野町西新子"},
{"zip_code":"6380642","kana_pref":"ﾅﾗｹﾝ","kana_city":"ｺﾞｼﾞｮｳｼ","kana_address":"ﾆｼﾖｼﾉﾁｮｳﾋﾗﾇﾏﾀ","pref":"奈良県","city":"五條市","address":"西吉野町平沼田"},
{"zip_code":"6380654","kana_pref":"ﾅﾗｹﾝ","kana_city":"ｺﾞｼﾞｮｳｼ","kana_address":"ﾆｼﾖｼﾉﾁｮｳﾐﾅﾐﾔﾏ","pref":"奈良県","city":"五條市","address":"西吉野町南山"},
{"zip_code":"6380641","kana_pref":"ﾅﾗｹﾝ","kana_city":"ｺﾞｼﾞｮｳｼ","kana_address":"ﾆｼﾖｼﾉﾁｮｳﾓﾓﾀﾞﾆ","pref":"奈良県","city":"五條市","address":"西吉野町百谷"},
{"zip_code":"6380657","kana_pref":"ﾅﾗｹﾝ","kana_city":"ｺﾞｼﾞｮｳｼ","kana_address":"ﾆｼﾖｼﾉﾁｮｳﾔﾂｶﾜ","pref":"奈良県","city":"五條市","address":"西吉野町八ツ川"},
{"zip_code":"6380644","kana_pref":"ﾅﾗｹﾝ","kana_city":"ｺﾞｼﾞｮｳｼ","kana_address":"ﾆｼﾖｼﾉﾁｮｳﾕｶﾜ","pref":"奈良県","city":"五條市","address":"西吉野町湯川"},
{"zip_code":"6380662","kana_pref":"ﾅﾗｹﾝ","kana_city":"ｺﾞｼﾞｮｳｼ","kana_address":"ﾆｼﾖｼﾉﾁｮｳﾖﾅｶ","pref":"奈良県","city":"五條市","address":"西吉野町夜中"},
{"zip_code":"6380000","kana_pref":"ﾅﾗｹﾝ","kana_city":"ﾖｼﾉｸﾞﾝｵｵﾖﾄﾞﾁｮｳ","kana_address":"","pref":"奈良県","city":"吉野郡大淀町","address":""},
{"zip_code":"6380801","kana_pref":"ﾅﾗｹﾝ","kana_city":"ﾖｼﾉｸﾞﾝｵｵﾖﾄﾞﾁｮｳ","kana_address":"ｱｼﾊﾗ","pref":"奈良県","city":"吉野郡大淀町","address":"芦原"},
{"zip_code":"6380841","kana_pref":"ﾅﾗｹﾝ","kana_city":"ﾖｼﾉｸﾞﾝｵｵﾖﾄﾞﾁｮｳ","kana_address":"ｲﾏｷ","pref":"奈良県","city":"吉野郡大淀町","address":"今木"},
{"zip_code":"6380851","kana_pref":"ﾅﾗｹﾝ","kana_city":"ﾖｼﾉｸﾞﾝｵｵﾖﾄﾞﾁｮｳ","kana_address":"ｲﾜﾂﾎﾞ","pref":"奈良県","city":"吉野郡大淀町","address":"岩壺"},
{"zip_code":"6380842","kana_pref":"ﾅﾗｹﾝ","kana_city":"ﾖｼﾉｸﾞﾝｵｵﾖﾄﾞﾁｮｳ","kana_address":"ｵｵｲﾜ","pref":"奈良県","city":"吉野郡大淀町","address":"大岩"},
{"zip_code":"6380832","kana_pref":"ﾅﾗｹﾝ","kana_city":"ﾖｼﾉｸﾞﾝｵｵﾖﾄﾞﾁｮｳ","kana_address":"ｸｽﾘﾐｽﾞ","pref":"奈良県","city":"吉野郡大淀町","address":"薬水"},
{"zip_code":"6380803","kana_pref":"ﾅﾗｹﾝ","kana_city":"ﾖｼﾉｸﾞﾝｵｵﾖﾄﾞﾁｮｳ","kana_address":"ｺｼﾍﾞ","pref":"奈良県","city":"吉野郡大淀町","address":"越部"},
{"zip_code":"6380831","kana_pref":"ﾅﾗｹﾝ","kana_city":"ﾖｼﾉｸﾞﾝｵｵﾖﾄﾞﾁｮｳ","kana_address":"ｻﾅﾃ","pref":"奈良県","city":"吉野郡大淀町","address":"佐名伝"},
{"zip_code":"6380821","kana_pref":"ﾅﾗｹﾝ","kana_city":"ﾖｼﾉｸﾞﾝｵｵﾖﾄﾞﾁｮｳ","kana_address":"ｼﾓﾌﾞﾁ","pref":"奈良県","city":"吉野郡大淀町","address":"下渕"},
{"zip_code":"6380811","kana_pref":"ﾅﾗｹﾝ","kana_city":"ﾖｼﾉｸﾞﾝｵｵﾖﾄﾞﾁｮｳ","kana_address":"ﾂﾁﾀﾞ","pref":"奈良県","city":"吉野郡大淀町","address":"土田"},
{"zip_code":"6380802","kana_pref":"ﾅﾗｹﾝ","kana_city":"ﾖｼﾉｸﾞﾝｵｵﾖﾄﾞﾁｮｳ","kana_address":"ﾊﾀﾔ","pref":"奈良県","city":"吉野郡大淀町","address":"畑屋"},
{"zip_code":"6380812","kana_pref":"ﾅﾗｹﾝ","kana_city":"ﾖｼﾉｸﾞﾝｵｵﾖﾄﾞﾁｮｳ","kana_address":"ﾋｶﾞｲﾓﾄ","pref":"奈良県","city":"吉野郡大淀町","address":"桧垣本"},
{"zip_code":"6380833","kana_pref":"ﾅﾗｹﾝ","kana_city":"ﾖｼﾉｸﾞﾝｵｵﾖﾄﾞﾁｮｳ","kana_address":"ﾌｸｶﾞﾐ","pref":"奈良県","city":"吉野郡大淀町","address":"福神"},
{"zip_code":"6380843","kana_pref":"ﾅﾗｹﾝ","kana_city":"ﾖｼﾉｸﾞﾝｵｵﾖﾄﾞﾁｮｳ","kana_address":"ﾎｺﾀﾃ","pref":"奈良県","city":"吉野郡大淀町","address":"鉾立"},
{"zip_code":"6380852","kana_pref":"ﾅﾗｹﾝ","kana_city":"ﾖｼﾉｸﾞﾝｵｵﾖﾄﾞﾁｮｳ","kana_address":"ﾓﾁｵ","pref":"奈良県","city":"吉野郡大淀町","address":"持尾"},
{"zip_code":"6380853","kana_pref":"ﾅﾗｹﾝ","kana_city":"ﾖｼﾉｸﾞﾝｵｵﾖﾄﾞﾁｮｳ","kana_address":"ﾔﾊﾞｾ","pref":"奈良県","city":"吉野郡大淀町","address":"矢走"},
{"zip_code":"6380000","kana_pref":"ﾅﾗｹﾝ","kana_city":"ﾖｼﾉｸﾞﾝｼﾓｲﾁﾁｮｳ","kana_address":"","pref":"奈良県","city":"吉野郡下市町","address":""},
{"zip_code":"6380045","kana_pref":"ﾅﾗｹﾝ","kana_city":"ﾖｼﾉｸﾞﾝｼﾓｲﾁﾁｮｳ","kana_address":"ｱﾀﾗｽﾐ","pref":"奈良県","city":"吉野郡下市町","address":"新住"},
{"zip_code":"6380001","kana_pref":"ﾅﾗｹﾝ","kana_city":"ﾖｼﾉｸﾞﾝｼﾓｲﾁﾁｮｳ","kana_address":"ｱﾁｶﾞ","pref":"奈良県","city":"吉野郡下市町","address":"阿知賀"},
{"zip_code":"6380012","kana_pref":"ﾅﾗｹﾝ","kana_city":"ﾖｼﾉｸﾞﾝｼﾓｲﾁﾁｮｳ","kana_address":"ｲﾜﾓﾘ","pref":"奈良県","city":"吉野郡下市町","address":"岩森"},
{"zip_code":"6380043","kana_pref":"ﾅﾗｹﾝ","kana_city":"ﾖｼﾉｸﾞﾝｼﾓｲﾁﾁｮｳ","kana_address":"ｵｵﾐﾈ","pref":"奈良県","city":"吉野郡下市町","address":"大峯"},
{"zip_code":"6380024","kana_pref":"ﾅﾗｹﾝ","kana_city":"ﾖｼﾉｸﾞﾝｼﾓｲﾁﾁｮｳ","kana_address":"ｶｲﾊﾞﾗ","pref":"奈良県","city":"吉野郡下市町","address":"貝原"},
{"zip_code":"6380023","kana_pref":"ﾅﾗｹﾝ","kana_city":"ﾖｼﾉｸﾞﾝｼﾓｲﾁﾁｮｳ","kana_address":"ｸﾛｷﾞ","pref":"奈良県","city":"吉野郡下市町","address":"黒木"},
{"zip_code":"6380014","kana_pref":"ﾅﾗｹﾝ","kana_city":"ﾖｼﾉｸﾞﾝｼﾓｲﾁﾁｮｳ","kana_address":"ｻｲﾀﾆ","pref":"奈良県","city":"吉野郡下市町","address":"才谷"},
{"zip_code":"6380042","kana_pref":"ﾅﾗｹﾝ","kana_city":"ﾖｼﾉｸﾞﾝｼﾓｲﾁﾁｮｳ","kana_address":"ｻｶｴﾁｮｳ","pref":"奈良県","city":"吉野郡下市町","address":"栄町"},
{"zip_code":"6380041","kana_pref":"ﾅﾗｹﾝ","kana_city":"ﾖｼﾉｸﾞﾝｼﾓｲﾁﾁｮｳ","kana_address":"ｼﾓｲﾁ","pref":"奈良県","city":"吉野郡下市町","address":"下市"},
{"zip_code":"6380002","kana_pref":"ﾅﾗｹﾝ","kana_city":"ﾖｼﾉｸﾞﾝｼﾓｲﾁﾁｮｳ","kana_address":"ｼｮｳｼﾞ","pref":"奈良県","city":"吉野郡下市町","address":"小路"},
{"zip_code":"6380003","kana_pref":"ﾅﾗｹﾝ","kana_city":"ﾖｼﾉｸﾞﾝｼﾓｲﾁﾁｮｳ","kana_address":"ｾﾞﾝｷﾞ","pref":"奈良県","city":"吉野郡下市町","address":"善城"},
{"zip_code":"6380013","kana_pref":"ﾅﾗｹﾝ","kana_city":"ﾖｼﾉｸﾞﾝｼﾓｲﾁﾁｮｳ","kana_address":"ﾀﾃｲｼ","pref":"奈良県","city":"吉野郡下市町","address":"立石"},
{"zip_code":"6380044","kana_pref":"ﾅﾗｹﾝ","kana_city":"ﾖｼﾉｸﾞﾝｼﾓｲﾁﾁｮｳ","kana_address":"ﾀﾅｶ","pref":"奈良県","city":"吉野郡下市町","address":"田中"},
{"zip_code":"6380025","kana_pref":"ﾅﾗｹﾝ","kana_city":"ﾖｼﾉｸﾞﾝｼﾓｲﾁﾁｮｳ","kana_address":"ﾀﾆ","pref":"奈良県","city":"吉野郡下市町","address":"谷"},
{"zip_code":"6380035","kana_pref":"ﾅﾗｹﾝ","kana_city":"ﾖｼﾉｸﾞﾝｼﾓｲﾁﾁｮｳ","kana_address":"ﾄﾁﾊﾗ","pref":"奈良県","city":"吉野郡下市町","address":"栃原"},
{"zip_code":"6380031","kana_pref":"ﾅﾗｹﾝ","kana_city":"ﾖｼﾉｸﾞﾝｼﾓｲﾁﾁｮｳ","kana_address":"ﾄﾁﾓﾄ","pref":"奈良県","city":"吉野郡下市町","address":"栃本"},
{"zip_code":"6380021","kana_pref":"ﾅﾗｹﾝ","kana_city":"ﾖｼﾉｸﾞﾝｼﾓｲﾁﾁｮｳ","kana_address":"ﾅｶﾞﾀﾆ","pref":"奈良県","city":"吉野郡下市町","address":"長谷"},
{"zip_code":"6380033","kana_pref":"ﾅﾗｹﾝ","kana_city":"ﾖｼﾉｸﾞﾝｼﾓｲﾁﾁｮｳ","kana_address":"ﾅｼﾄﾞｳ","pref":"奈良県","city":"吉野郡下市町","address":"梨子堂"},
{"zip_code":"6380022","kana_pref":"ﾅﾗｹﾝ","kana_city":"ﾖｼﾉｸﾞﾝｼﾓｲﾁﾁｮｳ","kana_address":"ﾆｳ","pref":"奈良県","city":"吉野郡下市町","address":"丹生"},
{"zip_code":"6380026","kana_pref":"ﾅﾗｹﾝ","kana_city":"ﾖｼﾉｸﾞﾝｼﾓｲﾁﾁｮｳ","kana_address":"ﾆｼﾔﾏ","pref":"奈良県","city":"吉野郡下市町","address":"西山"},
{"zip_code":"6380032","kana_pref":"ﾅﾗｹﾝ","kana_city":"ﾖｼﾉｸﾞﾝｼﾓｲﾁﾁｮｳ","kana_address":"ﾊﾗﾀﾞﾆ","pref":"奈良県","city":"吉野郡下市町","address":"原谷"},
{"zip_code":"6380015","kana_pref":"ﾅﾗｹﾝ","kana_city":"ﾖｼﾉｸﾞﾝｼﾓｲﾁﾁｮｳ","kana_address":"ﾋﾛﾊｼ","pref":"奈良県","city":"吉野郡下市町","address":"広橋"},
{"zip_code":"6380034","kana_pref":"ﾅﾗｹﾝ","kana_city":"ﾖｼﾉｸﾞﾝｼﾓｲﾁﾁｮｳ","kana_address":"ﾍｲﾊﾞﾗ","pref":"奈良県","city":"吉野郡下市町","address":"平原"},
{"zip_code":"6380011","kana_pref":"ﾅﾗｹﾝ","kana_city":"ﾖｼﾉｸﾞﾝｼﾓｲﾁﾁｮｳ","kana_address":"ﾖﾑﾗ","pref":"奈良県","city":"吉野郡下市町","address":"よ邑"},
{"zip_code":"6380200","kana_pref":"ﾅﾗｹﾝ","kana_city":"ﾖｼﾉｸﾞﾝｸﾛﾀｷﾑﾗ","kana_address":"","pref":"奈良県","city":"吉野郡黒滝村","address":""},
{"zip_code":"6380211","kana_pref":"ﾅﾗｹﾝ","kana_city":"ﾖｼﾉｸﾞﾝｸﾛﾀｷﾑﾗ","kana_address":"ｱｶﾀｷ","pref":"奈良県","city":"吉野郡黒滝村","address":"赤滝"},
{"zip_code":"6380241","kana_pref":"ﾅﾗｹﾝ","kana_city":"ﾖｼﾉｸﾞﾝｸﾛﾀｷﾑﾗ","kana_address":"ｱﾜｲﾀﾞﾆ","pref":"奈良県","city":"吉野郡黒滝村","address":"粟飯谷"},
{"zip_code":"6380231","kana_pref":"ﾅﾗｹﾝ","kana_city":"ﾖｼﾉｸﾞﾝｸﾛﾀｷﾑﾗ","kana_address":"ｶｻｷﾞ","pref":"奈良県","city":"吉野郡黒滝村","address":"笠木"},
{"zip_code":"6380232","kana_pref":"ﾅﾗｹﾝ","kana_city":"ﾖｼﾉｸﾞﾝｸﾛﾀｷﾑﾗ","kana_address":"ｶﾂﾗﾊﾗ","pref":"奈良県","city":"吉野郡黒滝村","address":"桂原"},
{"zip_code":"6380251","kana_pref":"ﾅﾗｹﾝ","kana_city":"ﾖｼﾉｸﾞﾝｸﾛﾀｷﾑﾗ","kana_address":"ﾃﾗﾄﾞ","pref":"奈良県","city":"吉野郡黒滝村","address":"寺戸"},
{"zip_code":"6380243","kana_pref":"ﾅﾗｹﾝ","kana_city":"ﾖｼﾉｸﾞﾝｸﾛﾀｷﾑﾗ","kana_address":"ﾄﾞｳﾊﾞﾗ","pref":"奈良県","city":"吉野郡黒滝村","address":"堂原"},
{"zip_code":"6380203","kana_pref":"ﾅﾗｹﾝ","kana_city":"ﾖｼﾉｸﾞﾝｸﾛﾀｷﾑﾗ","kana_address":"ﾄﾘｽﾐ","pref":"奈良県","city":"吉野郡黒滝村","address":"鳥住"},
{"zip_code":"6380221","kana_pref":"ﾅﾗｹﾝ","kana_city":"ﾖｼﾉｸﾞﾝｸﾛﾀｷﾑﾗ","kana_address":"ﾅｶﾄ","pref":"奈良県","city":"吉野郡黒滝村","address":"中戸"},
{"zip_code":"6380233","kana_pref":"ﾅﾗｹﾝ","kana_city":"ﾖｼﾉｸﾞﾝｸﾛﾀｷﾑﾗ","kana_address":"ﾅｶﾞｾ","pref":"奈良県","city":"吉野郡黒滝村","address":"長瀬"},
{"zip_code":"6380201","kana_pref":"ﾅﾗｹﾝ","kana_city":"ﾖｼﾉｸﾞﾝｸﾛﾀｷﾑﾗ","kana_address":"ﾏｷｵ","pref":"奈良県","city":"吉野郡黒滝村","address":"槇尾"},
{"zip_code":"6380242","kana_pref":"ﾅﾗｹﾝ","kana_city":"ﾖｼﾉｸﾞﾝｸﾛﾀｷﾑﾗ","kana_address":"ﾐﾖｼﾉ","pref":"奈良県","city":"吉野郡黒滝村","address":"御吉野"},
{"zip_code":"6380202","kana_pref":"ﾅﾗｹﾝ","kana_city":"ﾖｼﾉｸﾞﾝｸﾛﾀｷﾑﾗ","kana_address":"ﾜｷｶﾞﾜ","pref":"奈良県","city":"吉野郡黒滝村","address":"脇川"},
{"zip_code":"6380300","kana_pref":"ﾅﾗｹﾝ","kana_city":"ﾖｼﾉｸﾞﾝﾃﾝｶﾜﾑﾗ","kana_address":"","pref":"奈良県","city":"吉野郡天川村","address":""},
{"zip_code":"6380552","kana_pref":"ﾅﾗｹﾝ","kana_city":"ﾖｼﾉｸﾞﾝﾃﾝｶﾜﾑﾗ","kana_address":"ｲｵｽﾐ","pref":"奈良県","city":"吉野郡天川村","address":"庵住"},
{"zip_code":"6380311","kana_pref":"ﾅﾗｹﾝ","kana_city":"ﾖｼﾉｸﾞﾝﾃﾝｶﾜﾑﾗ","kana_address":"ｵｷｶﾞﾈ","pref":"奈良県","city":"吉野郡天川村","address":"沖金"},
{"zip_code":"6380301","kana_pref":"ﾅﾗｹﾝ","kana_city":"ﾖｼﾉｸﾞﾝﾃﾝｶﾜﾑﾗ","kana_address":"ｶﾜｱｲ","pref":"奈良県","city":"吉野郡天川村","address":"川合"},
{"zip_code":"6380313","kana_pref":"ﾅﾗｹﾝ","kana_city":"ﾖｼﾉｸﾞﾝﾃﾝｶﾜﾑﾗ","kana_address":"ｷﾀｺﾊﾞﾗ","pref":"奈良県","city":"吉野郡天川村","address":"北小原"},
{"zip_code":"6380303","kana_pref":"ﾅﾗｹﾝ","kana_city":"ﾖｼﾉｸﾞﾝﾃﾝｶﾜﾑﾗ","kana_address":"ｷﾄｽﾞﾐ","pref":"奈良県","city":"吉野郡天川村","address":"北角"},
{"zip_code":"6380314","kana_pref":"ﾅﾗｹﾝ","kana_city":"ﾖｼﾉｸﾞﾝﾃﾝｶﾜﾑﾗ","kana_address":"ｺﾞｼｷ","pref":"奈良県","city":"吉野郡天川村","address":"五色"},
{"zip_code":"6380551","kana_pref":"ﾅﾗｹﾝ","kana_city":"ﾖｼﾉｸﾞﾝﾃﾝｶﾜﾑﾗ","kana_address":"ｺﾓﾘﾔﾏ","pref":"奈良県","city":"吉野郡天川村","address":"籠山"},
{"zip_code":"6380305","kana_pref":"ﾅﾗｹﾝ","kana_city":"ﾖｼﾉｸﾞﾝﾃﾝｶﾜﾑﾗ","kana_address":"ｻﾜﾀﾆ","pref":"奈良県","city":"吉野郡天川村","address":"沢谷"},
{"zip_code":"6380315","kana_pref":"ﾅﾗｹﾝ","kana_city":"ﾖｼﾉｸﾞﾝﾃﾝｶﾜﾑﾗ","kana_address":"ｻﾜﾊﾞﾗ","pref":"奈良県","city":"吉野郡天川村","address":"沢原"},
{"zip_code":"6380564","kana_pref":"ﾅﾗｹﾝ","kana_city":"ﾖｼﾉｸﾞﾝﾃﾝｶﾜﾑﾗ","kana_address":"ｼｵﾀﾆ","pref":"奈良県","city":"吉野郡天川村","address":"塩谷"},
{"zip_code":"6380563","kana_pref":"ﾅﾗｹﾝ","kana_city":"ﾖｼﾉｸﾞﾝﾃﾝｶﾜﾑﾗ","kana_address":"ｼｵﾉ","pref":"奈良県","city":"吉野郡天川村","address":"塩野"},
{"zip_code":"6380562","kana_pref":"ﾅﾗｹﾝ","kana_city":"ﾖｼﾉｸﾞﾝﾃﾝｶﾜﾑﾗ","kana_address":"ﾀｷｵ","pref":"奈良県","city":"吉野郡天川村","address":"滝尾"},
{"zip_code":"6380541","kana_pref":"ﾅﾗｹﾝ","kana_city":"ﾖｼﾉｸﾞﾝﾃﾝｶﾜﾑﾗ","kana_address":"ﾂﾂﾞﾗｵ","pref":"奈良県","city":"吉野郡天川村","address":"九尾"},
{"zip_code":"6380321","kana_pref":"ﾅﾗｹﾝ","kana_city":"ﾖｼﾉｸﾞﾝﾃﾝｶﾜﾑﾗ","kana_address":"ﾂﾎﾞﾉｳﾁ","pref":"奈良県","city":"吉野郡天川村","address":"坪内"},
{"zip_code":"6380542","kana_pref":"ﾅﾗｹﾝ","kana_city":"ﾖｼﾉｸﾞﾝﾃﾝｶﾜﾑﾗ","kana_address":"ﾄﾁｵ","pref":"奈良県","city":"吉野郡天川村","address":"栃尾"},
{"zip_code":"6380431","kana_pref":"ﾅﾗｹﾝ","kana_city":"ﾖｼﾉｸﾞﾝﾃﾝｶﾜﾑﾗ","kana_address":"ﾄﾞﾛｶﾞﾜ","pref":"奈良県","city":"吉野郡天川村","address":"洞川"},
{"zip_code":"6380302","kana_pref":"ﾅﾗｹﾝ","kana_city":"ﾖｼﾉｸﾞﾝﾃﾝｶﾜﾑﾗ","kana_address":"ﾅｶｺﾞｼ","pref":"奈良県","city":"吉野郡天川村","address":"中越"},
{"zip_code":"6380312","kana_pref":"ﾅﾗｹﾝ","kana_city":"ﾖｼﾉｸﾞﾝﾃﾝｶﾜﾑﾗ","kana_address":"ﾅｶﾀﾆ","pref":"奈良県","city":"吉野郡天川村","address":"中谷"},
{"zip_code":"6380561","kana_pref":"ﾅﾗｹﾝ","kana_city":"ﾖｼﾉｸﾞﾝﾃﾝｶﾜﾑﾗ","kana_address":"ﾋﾛｾ","pref":"奈良県","city":"吉野郡天川村","address":"広瀬"},
{"zip_code":"6380322","kana_pref":"ﾅﾗｹﾝ","kana_city":"ﾖｼﾉｸﾞﾝﾃﾝｶﾜﾑﾗ","kana_address":"ﾐﾅﾐﾋｳﾗ","pref":"奈良県","city":"吉野郡天川村","address":"南日裏"},
{"zip_code":"6380304","kana_pref":"ﾅﾗｹﾝ","kana_city":"ﾖｼﾉｸﾞﾝﾃﾝｶﾜﾑﾗ","kana_address":"ﾐﾉｽﾞﾐ","pref":"奈良県","city":"吉野郡天川村","address":"南角"},
{"zip_code":"6380553","kana_pref":"ﾅﾗｹﾝ","kana_city":"ﾖｼﾉｸﾞﾝﾃﾝｶﾜﾑﾗ","kana_address":"ﾔﾏﾆｼ","pref":"奈良県","city":"吉野郡天川村","address":"山西"},
{"zip_code":"6380543","kana_pref":"ﾅﾗｹﾝ","kana_city":"ﾖｼﾉｸﾞﾝﾃﾝｶﾜﾑﾗ","kana_address":"ﾜﾀﾞ","pref":"奈良県","city":"吉野郡天川村","address":"和田"}]}