{"zip_code":[
{"zip_code":"6391100","kana_pref":"ﾅﾗｹﾝ","kana_city":"ﾔﾏﾄｺｵﾘﾔﾏｼ","kana_address":"","pref":"奈良県","city":"大和郡山市","address":""},
{"zip_code":"6391013","kana_pref":"ﾅﾗｹﾝ","kana_city":"ﾔﾏﾄｺｵﾘﾔﾏｼ","kana_address":"ｱｻﾋﾁｮｳ","pref":"奈良県","city":"大和郡山市","address":"朝日町"},
{"zip_code":"6391032","kana_pref":"ﾅﾗｹﾝ","kana_city":"ﾔﾏﾄｺｵﾘﾔﾏｼ","kana_address":"ｲｹｻﾞﾜﾁｮｳ","pref":"奈良県","city":"大和郡山市","address":"池沢町"},
{"zip_code":"6391027","kana_pref":"ﾅﾗｹﾝ","kana_city":"ﾔﾏﾄｺｵﾘﾔﾏｼ","kana_address":"ｲｹﾉｳﾁﾁｮｳ","pref":"奈良県","city":"大和郡山市","address":"池之内町"},
{"zip_code":"6391111","kana_pref":"ﾅﾗｹﾝ","kana_city":"ﾔﾏﾄｺｵﾘﾔﾏｼ","kana_address":"ｲｼｶﾜﾁｮｳ","pref":"奈良県","city":"大和郡山市","address":"石川町"},
{"zip_code":"6391116","kana_pref":"ﾅﾗｹﾝ","kana_city":"ﾔﾏﾄｺｵﾘﾔﾏｼ","kana_address":"ｲｽﾞｼﾁｼﾞｮｳﾁｮｳ","pref":"奈良県","city":"大和郡山市","address":"伊豆七条町"},
{"zip_code":"6391056","kana_pref":"ﾅﾗｹﾝ","kana_city":"ﾔﾏﾄｺｵﾘﾔﾏｼ","kana_address":"ｲｽﾞﾐﾊﾗﾁｮｳ","pref":"奈良県","city":"大和郡山市","address":"泉原町"},
{"zip_code":"6391113","kana_pref":"ﾅﾗｹﾝ","kana_city":"ﾔﾏﾄｺｵﾘﾔﾏｼ","kana_address":"ｲﾁｴﾀﾞﾁｮｳ","pref":"奈良県","city":"大和郡山市","address":"櫟枝町"},
{"zip_code":"6391104","kana_pref":"ﾅﾗｹﾝ","kana_city":"ﾔﾏﾄｺｵﾘﾔﾏｼ","kana_address":"ｲﾄﾞﾉﾁｮｳ","pref":"奈良県","city":"大和郡山市","address":"井戸野町"},
{"zip_code":"6391158","kana_pref":"ﾅﾗｹﾝ","kana_city":"ﾔﾏﾄｺｵﾘﾔﾏｼ","kana_address":"ｲﾉﾏﾁ","pref":"奈良県","city":"大和郡山市","address":"藺町"},
{"zip_code":"6391155","kana_pref":"ﾅﾗｹﾝ","kana_city":"ﾔﾏﾄｺｵﾘﾔﾏｼ","kana_address":"ｲﾏｲﾏﾁ","pref":"奈良県","city":"大和郡山市","address":"今井町"},
{"zip_code":"6391031","kana_pref":"ﾅﾗｹﾝ","kana_city":"ﾔﾏﾄｺｵﾘﾔﾏｼ","kana_address":"ｲﾏｺﾞｳﾁｮｳ","pref":"奈良県","city":"大和郡山市","address":"今国府町"},
{"zip_code":"6391005","kana_pref":"ﾅﾗｹﾝ","kana_city":"ﾔﾏﾄｺｵﾘﾔﾏｼ","kana_address":"ｳｴﾂｷﾁｮｳ","pref":"奈良県","city":"大和郡山市","address":"植槻町"},
{"zip_code":"6391168","kana_pref":"ﾅﾗｹﾝ","kana_city":"ﾔﾏﾄｺｵﾘﾔﾏｼ","kana_address":"ｳｵﾏﾁ","pref":"奈良県","city":"大和郡山市","address":"魚町"},
{"zip_code":"6391019","kana_pref":"ﾅﾗｹﾝ","kana_city":"ﾔﾏﾄｺｵﾘﾔﾏｼ","kana_address":"ｴｲｹｲｼﾞﾁｮｳ","pref":"奈良県","city":"大和郡山市","address":"永慶寺町"},
{"zip_code":"6391106","kana_pref":"ﾅﾗｹﾝ","kana_city":"ﾔﾏﾄｺｵﾘﾔﾏｼ","kana_address":"ｵｵｴﾁｮｳ","pref":"奈良県","city":"大和郡山市","address":"大江町"},
{"zip_code":"6391138","kana_pref":"ﾅﾗｹﾝ","kana_city":"ﾔﾏﾄｺｵﾘﾔﾏｼ","kana_address":"ｵｵﾐﾔﾁｮｳ","pref":"奈良県","city":"大和郡山市","address":"大宮町"},
{"zip_code":"6391034","kana_pref":"ﾅﾗｹﾝ","kana_city":"ﾔﾏﾄｺｵﾘﾔﾏｼ","kana_address":"ｶｼﾜｷﾞﾁｮｳ","pref":"奈良県","city":"大和郡山市","address":"柏木町"},
{"zip_code":"6391102","kana_pref":"ﾅﾗｹﾝ","kana_city":"ﾔﾏﾄｺｵﾘﾔﾏｼ","kana_address":"ｶﾐﾐﾂﾊｼﾁｮｳ","pref":"奈良県","city":"大和郡山市","address":"上三橋町"},
{"zip_code":"6391018","kana_pref":"ﾅﾗｹﾝ","kana_city":"ﾔﾏﾄｺｵﾘﾔﾏｼ","kana_address":"ｶﾝｻﾞﾝﾁｮｳ","pref":"奈良県","city":"大和郡山市","address":"冠山町"},
{"zip_code":"6391161","kana_pref":"ﾅﾗｹﾝ","kana_city":"ﾔﾏﾄｺｵﾘﾔﾏｼ","kana_address":"ｶﾝﾉﾝｼﾞﾁｮｳ","pref":"奈良県","city":"大和郡山市","address":"観音寺町"},
{"zip_code":"6391165","kana_pref":"ﾅﾗｹﾝ","kana_city":"ﾔﾏﾄｺｵﾘﾔﾏｼ","kana_address":"ｷﾀｶｼﾞﾏﾁ","pref":"奈良県","city":"大和郡山市","address":"北鍛冶町"},
{"zip_code":"6391160","kana_pref":"ﾅﾗｹﾝ","kana_city":"ﾔﾏﾄｺｵﾘﾔﾏｼ","kana_address":"ｷﾀｺｵﾘﾔﾏﾁｮｳ","pref":"奈良県","city":"大和郡山市","address":"北郡山町"},
{"zip_code":"6391146","kana_pref":"ﾅﾗｹﾝ","kana_city":"ﾔﾏﾄｺｵﾘﾔﾏｼ","kana_address":"ｷﾀﾀﾞｲｸﾏﾁ","pref":"奈良県","city":"大和郡山市","address":"北大工町"},
{"zip_code":"6391025","kana_pref":"ﾅﾗｹﾝ","kana_city":"ﾔﾏﾄｺｵﾘﾔﾏｼ","kana_address":"ｷﾀﾆｼﾁｮｳ","pref":"奈良県","city":"大和郡山市","address":"北西町"},
{"zip_code":"6391001","kana_pref":"ﾅﾗｹﾝ","kana_city":"ﾔﾏﾄｺｵﾘﾔﾏｼ","kana_address":"ｸｼﾞｮｳﾁｮｳ","pref":"奈良県","city":"大和郡山市","address":"九条町"},
{"zip_code":"6391002","kana_pref":"ﾅﾗｹﾝ","kana_city":"ﾔﾏﾄｺｵﾘﾔﾏｼ","kana_address":"ｸｼﾞｮｳﾋﾗﾉﾁｮｳ","pref":"奈良県","city":"大和郡山市","address":"九条平野町"},
{"zip_code":"6391147","kana_pref":"ﾅﾗｹﾝ","kana_city":"ﾔﾏﾄｺｵﾘﾔﾏｼ","kana_address":"ｸﾙﾏﾏﾁ","pref":"奈良県","city":"大和郡山市","address":"車町"},
{"zip_code":"6391042","kana_pref":"ﾅﾗｹﾝ","kana_city":"ﾔﾏﾄｺｵﾘﾔﾏｼ","kana_address":"ｺｲｽﾞﾐﾁｮｳ","pref":"奈良県","city":"大和郡山市","address":"小泉町"},
{"zip_code":"6391044","kana_pref":"ﾅﾗｹﾝ","kana_city":"ﾔﾏﾄｺｵﾘﾔﾏｼ","kana_address":"ｺｲｽﾞﾐﾁｮｳﾋｶﾞｼ","pref":"奈良県","city":"大和郡山市","address":"小泉町東"},
{"zip_code":"6391026","kana_pref":"ﾅﾗｹﾝ","kana_city":"ﾔﾏﾄｺｵﾘﾔﾏｼ","kana_address":"ｺﾊﾞﾔｼﾁｮｳ","pref":"奈良県","city":"大和郡山市","address":"小林町"},
{"zip_code":"6391045","kana_pref":"ﾅﾗｹﾝ","kana_city":"ﾔﾏﾄｺｵﾘﾔﾏｼ","kana_address":"ｺﾊﾞﾔｼﾁｮｳﾆｼ","pref":"奈良県","city":"大和郡山市","address":"小林町西"},
{"zip_code":"6391023","kana_pref":"ﾅﾗｹﾝ","kana_city":"ﾔﾏﾄｺｵﾘﾔﾏｼ","kana_address":"ｺﾐﾅﾐﾁｮｳ","pref":"奈良県","city":"大和郡山市","address":"小南町"},
{"zip_code":"6391148","kana_pref":"ﾅﾗｹﾝ","kana_city":"ﾔﾏﾄｺｵﾘﾔﾏｼ","kana_address":"ｺﾝﾔﾏﾁ","pref":"奈良県","city":"大和郡山市","address":"紺屋町"},
{"zip_code":"6391156","kana_pref":"ﾅﾗｹﾝ","kana_city":"ﾔﾏﾄｺｵﾘﾔﾏｼ","kana_address":"ｻｶｲﾁｮｳ","pref":"奈良県","city":"大和郡山市","address":"堺町"},
{"zip_code":"6391141","kana_pref":"ﾅﾗｹﾝ","kana_city":"ﾔﾏﾄｺｵﾘﾔﾏｼ","kana_address":"ｻﾞｲﾓｸﾏﾁ","pref":"奈良県","city":"大和郡山市","address":"材木町"},
{"zip_code":"6391150","kana_pref":"ﾅﾗｹﾝ","kana_city":"ﾔﾏﾄｺｵﾘﾔﾏｼ","kana_address":"ｻﾞｺｸﾏﾁ","pref":"奈良県","city":"大和郡山市","address":"雑穀町"},
{"zip_code":"6391169","kana_pref":"ﾅﾗｹﾝ","kana_city":"ﾔﾏﾄｺｵﾘﾔﾏｼ","kana_address":"ｼｵﾏﾁ","pref":"奈良県","city":"大和郡山市","address":"塩町"},
{"zip_code":"6391039","kana_pref":"ﾅﾗｹﾝ","kana_city":"ﾔﾏﾄｺｵﾘﾔﾏｼ","kana_address":"ｼｷﾞﾁｮｳ","pref":"奈良県","city":"大和郡山市","address":"椎木町"},
{"zip_code":"6391101","kana_pref":"ﾅﾗｹﾝ","kana_city":"ﾔﾏﾄｺｵﾘﾔﾏｼ","kana_address":"ｼﾓﾐﾂﾊｼﾁｮｳ","pref":"奈良県","city":"大和郡山市","address":"下三橋町"},
{"zip_code":"6391051","kana_pref":"ﾅﾗｹﾝ","kana_city":"ﾔﾏﾄｺｵﾘﾔﾏｼ","kana_address":"ｼﾞｮｳﾁｮｳ","pref":"奈良県","city":"大和郡山市","address":"城町"},
{"zip_code":"6391011","kana_pref":"ﾅﾗｹﾝ","kana_city":"ﾔﾏﾄｺｵﾘﾔﾏｼ","kana_address":"ｼﾞｮｳﾅｲﾁｮｳ","pref":"奈良県","city":"大和郡山市","address":"城内町"},
{"zip_code":"6391016","kana_pref":"ﾅﾗｹﾝ","kana_city":"ﾔﾏﾄｺｵﾘﾔﾏｼ","kana_address":"ｼﾞｮｳﾅﾝﾁｮｳ","pref":"奈良県","city":"大和郡山市","address":"城南町"},
{"zip_code":"6391004","kana_pref":"ﾅﾗｹﾝ","kana_city":"ﾔﾏﾄｺｵﾘﾔﾏｼ","kana_address":"ｼﾞｮｳﾎｸﾁｮｳ","pref":"奈良県","city":"大和郡山市","address":"城北町"},
{"zip_code":"6391033","kana_pref":"ﾅﾗｹﾝ","kana_city":"ﾔﾏﾄｺｵﾘﾔﾏｼ","kana_address":"ｼｮｳﾜﾁｮｳ","pref":"奈良県","city":"大和郡山市","address":"昭和町"},
{"zip_code":"6391112","kana_pref":"ﾅﾗｹﾝ","kana_city":"ﾔﾏﾄｺｵﾘﾔﾏｼ","kana_address":"ｼﾗﾂﾁﾁｮｳ","pref":"奈良県","city":"大和郡山市","address":"白土町"},
{"zip_code":"6391008","kana_pref":"ﾅﾗｹﾝ","kana_city":"ﾔﾏﾄｺｵﾘﾔﾏｼ","kana_address":"ｼﾛﾉﾀﾞｲﾁｮｳ","pref":"奈良県","city":"大和郡山市","address":"城の台町"},
{"zip_code":"6391012","kana_pref":"ﾅﾗｹﾝ","kana_city":"ﾔﾏﾄｺｵﾘﾔﾏｼ","kana_address":"ｼﾛﾐﾁｮｳ","pref":"奈良県","city":"大和郡山市","address":"城見町"},
{"zip_code":"6391143","kana_pref":"ﾅﾗｹﾝ","kana_city":"ﾔﾏﾄｺｵﾘﾔﾏｼ","kana_address":"ｼﾝｺﾝﾔﾏﾁ","pref":"奈良県","city":"大和郡山市","address":"新紺屋町"},
{"zip_code":"6391114","kana_pref":"ﾅﾗｹﾝ","kana_city":"ﾔﾏﾄｺｵﾘﾔﾏｼ","kana_address":"ｼﾝｼﾞｮｳﾁｮｳ","pref":"奈良県","city":"大和郡山市","address":"新庄町"},
{"zip_code":"6391157","kana_pref":"ﾅﾗｹﾝ","kana_city":"ﾔﾏﾄｺｵﾘﾔﾏｼ","kana_address":"ｼﾝﾅｶﾏﾁ","pref":"奈良県","city":"大和郡山市","address":"新中町"},
{"zip_code":"6391054","kana_pref":"ﾅﾗｹﾝ","kana_city":"ﾔﾏﾄｺｵﾘﾔﾏｼ","kana_address":"ｼﾝﾏﾁ","pref":"奈良県","city":"大和郡山市","address":"新町"},
{"zip_code":"6391121","kana_pref":"ﾅﾗｹﾝ","kana_city":"ﾔﾏﾄｺｵﾘﾔﾏｼ","kana_address":"ｽｷﾞﾁｮｳ","pref":"奈良県","city":"大和郡山市","address":"杉町"},
{"zip_code":"6391053","kana_pref":"ﾅﾗｹﾝ","kana_city":"ﾔﾏﾄｺｵﾘﾔﾏｼ","kana_address":"ｾﾝﾆﾁﾁｮｳ","pref":"奈良県","city":"大和郡山市","address":"千日町"},
{"zip_code":"6391003","kana_pref":"ﾅﾗｹﾝ","kana_city":"ﾔﾏﾄｺｵﾘﾔﾏｼ","kana_address":"ﾀﾞｲｶﾝﾁｮｳ","pref":"奈良県","city":"大和郡山市","address":"代官町"},
{"zip_code":"6391133","kana_pref":"ﾅﾗｹﾝ","kana_city":"ﾔﾏﾄｺｵﾘﾔﾏｼ","kana_address":"ﾀｶﾀﾞｸﾞﾁﾁｮｳ","pref":"奈良県","city":"大和郡山市","address":"高田口町"},
{"zip_code":"6391132","kana_pref":"ﾅﾗｹﾝ","kana_city":"ﾔﾏﾄｺｵﾘﾔﾏｼ","kana_address":"ﾀｶﾀﾞﾁｮｳ","pref":"奈良県","city":"大和郡山市","address":"高田町"},
{"zip_code":"6391028","kana_pref":"ﾅﾗｹﾝ","kana_city":"ﾔﾏﾄｺｵﾘﾔﾏｼ","kana_address":"ﾀﾅｶﾁｮｳ","pref":"奈良県","city":"大和郡山市","address":"田中町"},
{"zip_code":"6391122","kana_pref":"ﾅﾗｹﾝ","kana_city":"ﾔﾏﾄｺｵﾘﾔﾏｼ","kana_address":"ﾀﾝｺﾞﾉｼｮｳﾁｮｳ","pref":"奈良県","city":"大和郡山市","address":"丹後庄町"},
{"zip_code":"6391152","kana_pref":"ﾅﾗｹﾝ","kana_city":"ﾔﾏﾄｺｵﾘﾔﾏｼ","kana_address":"ﾁｬﾏﾁ","pref":"奈良県","city":"大和郡山市","address":"茶町"},
{"zip_code":"6391127","kana_pref":"ﾅﾗｹﾝ","kana_city":"ﾔﾏﾄｺｵﾘﾔﾏｼ","kana_address":"ﾁｮｳｱﾝｼﾞﾁｮｳ","pref":"奈良県","city":"大和郡山市","address":"長安寺町"},
{"zip_code":"6391123","kana_pref":"ﾅﾗｹﾝ","kana_city":"ﾔﾏﾄｺｵﾘﾔﾏｼ","kana_address":"ﾂﾂｲﾁｮｳ","pref":"奈良県","city":"大和郡山市","address":"筒井町"},
{"zip_code":"6391135","kana_pref":"ﾅﾗｹﾝ","kana_city":"ﾔﾏﾄｺｵﾘﾔﾏｼ","kana_address":"ﾃﾝｼﾞｮｳﾁｮｳ","pref":"奈良県","city":"大和郡山市","address":"天井町"},
{"zip_code":"6391006","kana_pref":"ﾅﾗｹﾝ","kana_city":"ﾔﾏﾄｺｵﾘﾔﾏｼ","kana_address":"ﾃﾝﾘﾁｮｳ","pref":"奈良県","city":"大和郡山市","address":"天理町"},
{"zip_code":"6391144","kana_pref":"ﾅﾗｹﾝ","kana_city":"ﾔﾏﾄｺｵﾘﾔﾏｼ","kana_address":"ﾄｳｾﾝｼﾞﾁｮｳ","pref":"奈良県","city":"大和郡山市","address":"洞泉寺町"},
{"zip_code":"6391149","kana_pref":"ﾅﾗｹﾝ","kana_city":"ﾔﾏﾄｺｵﾘﾔﾏｼ","kana_address":"ﾄｳﾌﾏﾁ","pref":"奈良県","city":"大和郡山市","address":"豆腐町"},
{"zip_code":"6391052","kana_pref":"ﾅﾗｹﾝ","kana_city":"ﾔﾏﾄｺｵﾘﾔﾏｼ","kana_address":"ﾄｶﾞﾜﾁｮｳ","pref":"奈良県","city":"大和郡山市","address":"外川町"},
{"zip_code":"6391022","kana_pref":"ﾅﾗｹﾝ","kana_city":"ﾔﾏﾄｺｵﾘﾔﾏｼ","kana_address":"ﾄﾖｳﾗﾁｮｳ","pref":"奈良県","city":"大和郡山市","address":"豊浦町"},
{"zip_code":"6391166","kana_pref":"ﾅﾗｹﾝ","kana_city":"ﾔﾏﾄｺｵﾘﾔﾏｼ","kana_address":"ﾅｶｶｼﾞﾏﾁ","pref":"奈良県","city":"大和郡山市","address":"中鍛冶町"},
{"zip_code":"6391118","kana_pref":"ﾅﾗｹﾝ","kana_city":"ﾔﾏﾄｺｵﾘﾔﾏｼ","kana_address":"ﾅｶｼﾞｮｳﾁｮｳ","pref":"奈良県","city":"大和郡山市","address":"中城町"},
{"zip_code":"6391159","kana_pref":"ﾅﾗｹﾝ","kana_city":"ﾔﾏﾄｺｵﾘﾔﾏｼ","kana_address":"ﾅﾗﾏﾁ","pref":"奈良県","city":"大和郡山市","address":"奈良町"},
{"zip_code":"6391021","kana_pref":"ﾅﾗｹﾝ","kana_city":"ﾔﾏﾄｺｵﾘﾔﾏｼ","kana_address":"ﾆｷﾁｮｳ","pref":"奈良県","city":"大和郡山市","address":"新木町"},
{"zip_code":"6391014","kana_pref":"ﾅﾗｹﾝ","kana_city":"ﾔﾏﾄｺｵﾘﾔﾏｼ","kana_address":"ﾆｼｵｶﾁｮｳ","pref":"奈良県","city":"大和郡山市","address":"西岡町"},
{"zip_code":"6391164","kana_pref":"ﾅﾗｹﾝ","kana_city":"ﾔﾏﾄｺｵﾘﾔﾏｼ","kana_address":"ﾆｼｶﾝﾉﾝｼﾞﾁｮｳ","pref":"奈良県","city":"大和郡山市","address":"西観音寺町"},
{"zip_code":"6391043","kana_pref":"ﾅﾗｹﾝ","kana_city":"ﾔﾏﾄｺｵﾘﾔﾏｼ","kana_address":"ﾆｼﾀﾅｶﾁｮｳ","pref":"奈良県","city":"大和郡山市","address":"西田中町"},
{"zip_code":"6391163","kana_pref":"ﾅﾗｹﾝ","kana_city":"ﾔﾏﾄｺｵﾘﾔﾏｼ","kana_address":"ﾆｼﾅﾗｸﾞﾁﾁｮｳ","pref":"奈良県","city":"大和郡山市","address":"西奈良口町"},
{"zip_code":"6391153","kana_pref":"ﾅﾗｹﾝ","kana_city":"ﾔﾏﾄｺｵﾘﾔﾏｼ","kana_address":"ﾆｼﾉｶﾞｲﾄﾁｮｳ","pref":"奈良県","city":"大和郡山市","address":"西野垣内町"},
{"zip_code":"6391038","kana_pref":"ﾅﾗｹﾝ","kana_city":"ﾔﾏﾄｺｵﾘﾔﾏｼ","kana_address":"ﾆｼﾏﾁ","pref":"奈良県","city":"大和郡山市","address":"西町"},
{"zip_code":"6391036","kana_pref":"ﾅﾗｹﾝ","kana_city":"ﾔﾏﾄｺｵﾘﾔﾏｼ","kana_address":"ﾇｶﾀﾍﾞﾃﾗﾏﾁ","pref":"奈良県","city":"大和郡山市","address":"額田部寺町"},
{"zip_code":"6391035","kana_pref":"ﾅﾗｹﾝ","kana_city":"ﾔﾏﾄｺｵﾘﾔﾏｼ","kana_address":"ﾇｶﾀﾍﾞﾐﾅﾐﾁｮｳ","pref":"奈良県","city":"大和郡山市","address":"額田部南町"},
{"zip_code":"6391037","kana_pref":"ﾅﾗｹﾝ","kana_city":"ﾔﾏﾄｺｵﾘﾔﾏｼ","kana_address":"ﾇｶﾀﾍﾞｷﾀﾏﾁ","pref":"奈良県","city":"大和郡山市","address":"額田部北町"},
{"zip_code":"6391131","kana_pref":"ﾅﾗｹﾝ","kana_city":"ﾔﾏﾄｺｵﾘﾔﾏｼ","kana_address":"ﾉｶﾞｲﾄﾁｮｳ","pref":"奈良県","city":"大和郡山市","address":"野垣内町"},
{"zip_code":"6391125","kana_pref":"ﾅﾗｹﾝ","kana_city":"ﾔﾏﾄｺｵﾘﾔﾏｼ","kana_address":"ﾊﾁｼﾞｮｳﾁｮｳ","pref":"奈良県","city":"大和郡山市","address":"八条町"},
{"zip_code":"6391119","kana_pref":"ﾅﾗｹﾝ","kana_city":"ﾔﾏﾄｺｵﾘﾔﾏｼ","kana_address":"ﾊﾂｼｲﾝﾁｮｳ","pref":"奈良県","city":"大和郡山市","address":"発志院町"},
{"zip_code":"6391105","kana_pref":"ﾅﾗｹﾝ","kana_city":"ﾔﾏﾄｺｵﾘﾔﾏｼ","kana_address":"ﾊﾞﾝｼﾞｮｳﾀﾅｶﾁｮｳ","pref":"奈良県","city":"大和郡山市","address":"番匠田中町"},
{"zip_code":"6391117","kana_pref":"ﾅﾗｹﾝ","kana_city":"ﾔﾏﾄｺｵﾘﾔﾏｼ","kana_address":"ﾊﾞﾝｼﾞｮｳﾁｮｳ","pref":"奈良県","city":"大和郡山市","address":"番条町"},
{"zip_code":"6391108","kana_pref":"ﾅﾗｹﾝ","kana_city":"ﾔﾏﾄｺｵﾘﾔﾏｼ","kana_address":"ﾋｴﾀﾞﾁｮｳ","pref":"奈良県","city":"大和郡山市","address":"稗田町"},
{"zip_code":"6391137","kana_pref":"ﾅﾗｹﾝ","kana_city":"ﾔﾏﾄｺｵﾘﾔﾏｼ","kana_address":"ﾋｶﾞｼｵｶﾁｮｳ","pref":"奈良県","city":"大和郡山市","address":"東岡町"},
{"zip_code":"6391162","kana_pref":"ﾅﾗｹﾝ","kana_city":"ﾔﾏﾄｺｵﾘﾔﾏｼ","kana_address":"ﾋｶﾞｼﾅﾗｸﾞﾁﾁｮｳ","pref":"奈良県","city":"大和郡山市","address":"東奈良口町"},
{"zip_code":"6391017","kana_pref":"ﾅﾗｹﾝ","kana_city":"ﾔﾏﾄｺｵﾘﾔﾏｼ","kana_address":"ﾌｼﾞﾜﾗﾁｮｳ","pref":"奈良県","city":"大和郡山市","address":"藤原町"},
{"zip_code":"6391136","kana_pref":"ﾅﾗｹﾝ","kana_city":"ﾔﾏﾄｺｵﾘﾔﾏｼ","kana_address":"ﾎﾝｼﾞｮｳﾁｮｳ","pref":"奈良県","city":"大和郡山市","address":"本庄町"},
{"zip_code":"6391151","kana_pref":"ﾅﾗｹﾝ","kana_city":"ﾔﾏﾄｺｵﾘﾔﾏｼ","kana_address":"ﾎﾝﾏﾁ","pref":"奈良県","city":"大和郡山市","address":"本町"},
{"zip_code":"6391124","kana_pref":"ﾅﾗｹﾝ","kana_city":"ﾔﾏﾄｺｵﾘﾔﾏｼ","kana_address":"ﾏﾂｶｻﾁｮｳ","pref":"奈良県","city":"大和郡山市","address":"馬司町"},
{"zip_code":"6391041","kana_pref":"ﾅﾗｹﾝ","kana_city":"ﾔﾏﾄｺｵﾘﾔﾏｼ","kana_address":"ﾏﾝｶﾞﾝｼﾞﾁｮｳ","pref":"奈良県","city":"大和郡山市","address":"満願寺町"},
{"zip_code":"6391024","kana_pref":"ﾅﾗｹﾝ","kana_city":"ﾔﾏﾄｺｵﾘﾔﾏｼ","kana_address":"ﾐﾅﾐｲﾁｮｳ","pref":"奈良県","city":"大和郡山市","address":"南井町"},
{"zip_code":"6391167","kana_pref":"ﾅﾗｹﾝ","kana_city":"ﾔﾏﾄｺｵﾘﾔﾏｼ","kana_address":"ﾐﾅﾐｶｼﾞﾏﾁ","pref":"奈良県","city":"大和郡山市","address":"南鍛冶町"},
{"zip_code":"6391007","kana_pref":"ﾅﾗｹﾝ","kana_city":"ﾔﾏﾄｺｵﾘﾔﾏｼ","kana_address":"ﾐﾅﾐｺｵﾘﾔﾏﾁｮｳ","pref":"奈良県","city":"大和郡山市","address":"南郡山町"},
{"zip_code":"6391145","kana_pref":"ﾅﾗｹﾝ","kana_city":"ﾔﾏﾄｺｵﾘﾔﾏｼ","kana_address":"ﾐﾅﾐﾀﾞｲｸﾏﾁ","pref":"奈良県","city":"大和郡山市","address":"南大工町"},
{"zip_code":"6391103","kana_pref":"ﾅﾗｹﾝ","kana_city":"ﾔﾏﾄｺｵﾘﾔﾏｼ","kana_address":"ﾐﾉｼｮｳﾁｮｳ","pref":"奈良県","city":"大和郡山市","address":"美濃庄町"},
{"zip_code":"6391015","kana_pref":"ﾅﾗｹﾝ","kana_city":"ﾔﾏﾄｺｵﾘﾔﾏｼ","kana_address":"ﾐﾉﾔﾏﾁｮｳ","pref":"奈良県","city":"大和郡山市","address":"箕山町"},
{"zip_code":"6391126","kana_pref":"ﾅﾗｹﾝ","kana_city":"ﾔﾏﾄｺｵﾘﾔﾏｼ","kana_address":"ﾐﾔﾄﾞｳﾁｮｳ","pref":"奈良県","city":"大和郡山市","address":"宮堂町"},
{"zip_code":"6391058","kana_pref":"ﾅﾗｹﾝ","kana_city":"ﾔﾏﾄｺｵﾘﾔﾏｼ","kana_address":"ﾔﾀﾁｮｳ","pref":"奈良県","city":"大和郡山市","address":"矢田町"},
{"zip_code":"6391142","kana_pref":"ﾅﾗｹﾝ","kana_city":"ﾔﾏﾄｺｵﾘﾔﾏｼ","kana_address":"ﾔﾀﾏﾁﾄﾞｵﾘ","pref":"奈良県","city":"大和郡山市","address":"矢田町通"},
{"zip_code":"6391055","kana_pref":"ﾅﾗｹﾝ","kana_city":"ﾔﾏﾄｺｵﾘﾔﾏｼ","kana_address":"ﾔﾀﾔﾏﾁｮｳ","pref":"奈良県","city":"大和郡山市","address":"矢田山町"},
{"zip_code":"6391134","kana_pref":"ﾅﾗｹﾝ","kana_city":"ﾔﾏﾄｺｵﾘﾔﾏｼ","kana_address":"ﾔﾅｷﾞ","pref":"奈良県","city":"大和郡山市","address":"柳"},
{"zip_code":"6391057","kana_pref":"ﾅﾗｹﾝ","kana_city":"ﾔﾏﾄｺｵﾘﾔﾏｼ","kana_address":"ﾔﾏﾀﾞﾁｮｳ","pref":"奈良県","city":"大和郡山市","address":"山田町"},
{"zip_code":"6391115","kana_pref":"ﾅﾗｹﾝ","kana_city":"ﾔﾏﾄｺｵﾘﾔﾏｼ","kana_address":"ﾖｺﾀﾁｮｳ","pref":"奈良県","city":"大和郡山市","address":"横田町"},
{"zip_code":"6391107","kana_pref":"ﾅﾗｹﾝ","kana_city":"ﾔﾏﾄｺｵﾘﾔﾏｼ","kana_address":"ﾜｶﾂｷﾁｮｳ","pref":"奈良県","city":"大和郡山市","address":"若槻町"},
{"zip_code":"6391154","kana_pref":"ﾅﾗｹﾝ","kana_city":"ﾔﾏﾄｺｵﾘﾔﾏｼ","kana_address":"ﾜﾀﾏﾁ","pref":"奈良県","city":"大和郡山市","address":"綿町"},
{"zip_code":"6392200","kana_pref":"ﾅﾗｹﾝ","kana_city":"ｺﾞｾｼ","kana_address":"","pref":"奈良県","city":"御所市","address":""},
{"zip_code":"6392341","kana_pref":"ﾅﾗｹﾝ","kana_city":"ｺﾞｾｼ","kana_address":"ｱｻﾂﾞﾏ","pref":"奈良県","city":"御所市","address":"朝妻"},
{"zip_code":"6392239","kana_pref":"ﾅﾗｹﾝ","kana_city":"ｺﾞｾｼ","kana_address":"ｱｻﾋﾏﾁ","pref":"奈良県","city":"御所市","address":"旭町"},
{"zip_code":"6392255","kana_pref":"ﾅﾗｹﾝ","kana_city":"ｺﾞｾｼ","kana_address":"ｱｻﾏﾁ","pref":"奈良県","city":"御所市","address":"朝町"},
{"zip_code":"6392264","kana_pref":"ﾅﾗｹﾝ","kana_city":"ｺﾞｾｼ","kana_address":"ｲｳｶ","pref":"奈良県","city":"御所市","address":"五百家"},
{"zip_code":"6392273","kana_pref":"ﾅﾗｹﾝ","kana_city":"ｺﾞｾｼ","kana_address":"ｲｹﾉｳﾁ","pref":"奈良県","city":"御所市","address":"池之内"},
{"zip_code":"6392326","kana_pref":"ﾅﾗｹﾝ","kana_city":"ｺﾞｾｼ","kana_address":"ｲﾄﾞ","pref":"奈良県","city":"御所市","address":"井戸"},
{"zip_code":"6392258","kana_pref":"ﾅﾗｹﾝ","kana_city":"ｺﾞｾｼ","kana_address":"ｲﾅｲﾄﾞ","pref":"奈良県","city":"御所市","address":"稲宿"},
{"zip_code":"6392245","kana_pref":"ﾅﾗｹﾝ","kana_city":"ｺﾞｾｼ","kana_address":"ｲﾏｽﾞﾐ","pref":"奈良県","city":"御所市","address":"今住"},
{"zip_code":"6392279","kana_pref":"ﾅﾗｹﾝ","kana_city":"ｺﾞｾｼ","kana_address":"ｲﾏﾃﾞ","pref":"奈良県","city":"御所市","address":"今出"},
{"zip_code":"6392207","kana_pref":"ﾅﾗｹﾝ","kana_city":"ｺﾞｾｼ","kana_address":"ｲﾏﾝｼﾞｮｳ","pref":"奈良県","city":"御所市","address":"今城"},
{"zip_code":"6392267","kana_pref":"ﾅﾗｹﾝ","kana_city":"ｺﾞｾｼ","kana_address":"ｳﾁﾀﾆ","pref":"奈良県","city":"御所市","address":"内谷"},
{"zip_code":"6392323","kana_pref":"ﾅﾗｹﾝ","kana_city":"ｺﾞｾｼ","kana_address":"ｵｲﾀﾞ","pref":"奈良県","city":"御所市","address":"多田"},
{"zip_code":"6392238","kana_pref":"ﾅﾗｹﾝ","kana_city":"ｺﾞｾｼ","kana_address":"ｵｵﾊｼﾄﾞｵﾘ","pref":"奈良県","city":"御所市","address":"大橋通り"},
{"zip_code":"6392304","kana_pref":"ﾅﾗｹﾝ","kana_city":"ｺﾞｾｼ","kana_address":"ｵｵﾋﾛﾁｮｳ","pref":"奈良県","city":"御所市","address":"大広町"},
{"zip_code":"6392257","kana_pref":"ﾅﾗｹﾝ","kana_city":"ｺﾞｾｼ","kana_address":"ｵﾄﾞﾉ","pref":"奈良県","city":"御所市","address":"小殿"},
{"zip_code":"6392231","kana_pref":"ﾅﾗｹﾝ","kana_city":"ｺﾞｾｼ","kana_address":"ｶｷｶﾞﾂﾎﾞﾁｮｳ","pref":"奈良県","city":"御所市","address":"柿ケ坪町"},
{"zip_code":"6392244","kana_pref":"ﾅﾗｹﾝ","kana_city":"ｺﾞｾｼ","kana_address":"ｶｼﾊﾗ","pref":"奈良県","city":"御所市","address":"柏原"},
{"zip_code":"6392343","kana_pref":"ﾅﾗｹﾝ","kana_city":"ｺﾞｾｼ","kana_address":"ｶﾓｶﾞﾐ","pref":"奈良県","city":"御所市","address":"鴨神"},
{"zip_code":"6392229","kana_pref":"ﾅﾗｹﾝ","kana_city":"ｺﾞｾｼ","kana_address":"ｶﾓｸﾞﾁﾁｮｳ","pref":"奈良県","city":"御所市","address":"鴨口町"},
{"zip_code":"6392334","kana_pref":"ﾅﾗｹﾝ","kana_city":"ｺﾞｾｼ","kana_address":"ｷﾀｸﾎﾞ","pref":"奈良県","city":"御所市","address":"北窪"},
{"zip_code":"6392203","kana_pref":"ﾅﾗｹﾝ","kana_city":"ｺﾞｾｼ","kana_address":"ｷﾀｼﾞｭｳｿ","pref":"奈良県","city":"御所市","address":"北十三"},
{"zip_code":"6392312","kana_pref":"ﾅﾗｹﾝ","kana_city":"ｺﾞｾｼ","kana_address":"ｸｼﾞﾗ","pref":"奈良県","city":"御所市","address":"櫛羅"},
{"zip_code":"6392256","kana_pref":"ﾅﾗｹﾝ","kana_city":"ｺﾞｾｼ","kana_address":"ｸﾘｻｶ","pref":"奈良県","city":"御所市","address":"栗阪"},
{"zip_code":"6392211","kana_pref":"ﾅﾗｹﾝ","kana_city":"ｺﾞｾｼ","kana_address":"ｺｸﾃﾂｺﾞｾｴｷﾏｴﾄﾞｵﾘ","pref":"奈良県","city":"御所市","address":"国鉄御所駅前通り"},
{"zip_code":"6392337","kana_pref":"ﾅﾗｹﾝ","kana_city":"ｺﾞｾｼ","kana_address":"ｺﾞｸﾗｸｼﾞ","pref":"奈良県","city":"御所市","address":"極楽寺"},
{"zip_code":"6392254","kana_pref":"ﾅﾗｹﾝ","kana_city":"ｺﾞｾｼ","kana_address":"ｺｾ","pref":"奈良県","city":"御所市","address":"古瀬"},
{"zip_code":"6392311","kana_pref":"ﾅﾗｹﾝ","kana_city":"ｺﾞｾｼ","kana_address":"ｺﾊﾞﾔｼ","pref":"奈良県","city":"御所市","address":"小林"},
{"zip_code":"6392224","kana_pref":"ﾅﾗｹﾝ","kana_city":"ｺﾞｾｼ","kana_address":"ｻｲｶｼﾁｮｳ","pref":"奈良県","city":"御所市","address":"西柏町"},
{"zip_code":"6392314","kana_pref":"ﾅﾗｹﾝ","kana_city":"ｺﾞｾｼ","kana_address":"ｻｲﾜｲﾁｮｳ","pref":"奈良県","city":"御所市","address":"幸町"},
{"zip_code":"6392221","kana_pref":"ﾅﾗｹﾝ","kana_city":"ｺﾞｾｼ","kana_address":"ｻｶｴﾏﾁ","pref":"奈良県","city":"御所市","address":"栄町"},
{"zip_code":"6392325","kana_pref":"ﾅﾗｹﾝ","kana_city":"ｺﾞｾｼ","kana_address":"ｻﾀﾞ","pref":"奈良県","city":"御所市","address":"佐田"},
{"zip_code":"6392272","kana_pref":"ﾅﾗｹﾝ","kana_city":"ｺﾞｾｼ","kana_address":"ｻﾗｷﾞ","pref":"奈良県","city":"御所市","address":"蛇穴"},
{"zip_code":"6392324","kana_pref":"ﾅﾗｹﾝ","kana_city":"ｺﾞｾｼ","kana_address":"ｼﾓﾉﾁｬﾔ","pref":"奈良県","city":"御所市","address":"下茶屋"},
{"zip_code":"6392276","kana_pref":"ﾅﾗｹﾝ","kana_city":"ｺﾞｾｼ","kana_address":"ｼﾞｮｳ","pref":"奈良県","city":"御所市","address":"條"},
{"zip_code":"6392261","kana_pref":"ﾅﾗｹﾝ","kana_city":"ｺﾞｾｼ","kana_address":"ｼﾛﾔﾏﾀﾞｲ","pref":"奈良県","city":"御所市","address":"城山台"},
{"zip_code":"6392213","kana_pref":"ﾅﾗｹﾝ","kana_city":"ｺﾞｾｼ","kana_address":"ｼﾝｸﾞｳﾏﾁ","pref":"奈良県","city":"御所市","address":"神宮町"},
{"zip_code":"6392217","kana_pref":"ﾅﾗｹﾝ","kana_city":"ｺﾞｾｼ","kana_address":"ｼﾝﾁﾏﾁ","pref":"奈良県","city":"御所市","address":"新地町"},
{"zip_code":"6392265","kana_pref":"ﾅﾗｹﾝ","kana_city":"ｺﾞｾｼ","kana_address":"ｼﾝﾃﾞﾝ","pref":"奈良県","city":"御所市","address":"新田"},
{"zip_code":"6392235","kana_pref":"ﾅﾗｹﾝ","kana_city":"ｺﾞｾｼ","kana_address":"ｼﾞﾅｲﾁｮｳ","pref":"奈良県","city":"御所市","address":"寺内町"},
{"zip_code":"6392303","kana_pref":"ﾅﾗｹﾝ","kana_city":"ｺﾞｾｼ","kana_address":"ｽｴﾋﾛﾁｮｳ","pref":"奈良県","city":"御所市","address":"末広町"},
{"zip_code":"6392328","kana_pref":"ﾅﾗｹﾝ","kana_city":"ｺﾞｾｼ","kana_address":"ｾｷﾔ","pref":"奈良県","city":"御所市","address":"関屋"},
{"zip_code":"6392342","kana_pref":"ﾅﾗｹﾝ","kana_city":"ｺﾞｾｼ","kana_address":"ｿｳﾄﾞｳ","pref":"奈良県","city":"御所市","address":"僧堂"},
{"zip_code":"6392236","kana_pref":"ﾅﾗｹﾝ","kana_city":"ｺﾞｾｼ","kana_address":"ﾀﾞｲｶﾝﾏﾁ","pref":"奈良県","city":"御所市","address":"代官町"},
{"zip_code":"6392336","kana_pref":"ﾅﾗｹﾝ","kana_city":"ｺﾞｾｼ","kana_address":"ﾀｶﾏ","pref":"奈良県","city":"御所市","address":"高天"},
{"zip_code":"6392206","kana_pref":"ﾅﾗｹﾝ","kana_city":"ｺﾞｾｼ","kana_address":"ﾀｹﾀﾞ","pref":"奈良県","city":"御所市","address":"竹田"},
{"zip_code":"6392247","kana_pref":"ﾅﾗｹﾝ","kana_city":"ｺﾞｾｼ","kana_address":"ﾀﾏﾃﾞ","pref":"奈良県","city":"御所市","address":"玉手"},
{"zip_code":"6392241","kana_pref":"ﾅﾗｹﾝ","kana_city":"ｺﾞｾｼ","kana_address":"ﾁﾊﾗ","pref":"奈良県","city":"御所市","address":"茅原"},
{"zip_code":"6392212","kana_pref":"ﾅﾗｹﾝ","kana_city":"ｺﾞｾｼ","kana_address":"ﾁｭｳｵｳﾄﾞｵﾘ","pref":"奈良県","city":"御所市","address":"中央通り"},
{"zip_code":"6392275","kana_pref":"ﾅﾗｹﾝ","kana_city":"ｺﾞｾｼ","kana_address":"ﾃﾞﾊｼﾘ","pref":"奈良県","city":"御所市","address":"出走"},
{"zip_code":"6392202","kana_pref":"ﾅﾗｹﾝ","kana_city":"ｺﾞｾｼ","kana_address":"ﾃﾞﾔｼｷ","pref":"奈良県","city":"御所市","address":"出屋敷"},
{"zip_code":"6392251","kana_pref":"ﾅﾗｹﾝ","kana_city":"ｺﾞｾｼ","kana_address":"ﾄｳｹﾞ","pref":"奈良県","city":"御所市","address":"戸毛"},
{"zip_code":"6392274","kana_pref":"ﾅﾗｹﾝ","kana_city":"ｺﾞｾｼ","kana_address":"ﾄﾐﾀ","pref":"奈良県","city":"御所市","address":"冨田"},
{"zip_code":"6392317","kana_pref":"ﾅﾗｹﾝ","kana_city":"ｺﾞｾｼ","kana_address":"ﾄﾖﾀﾞ","pref":"奈良県","city":"御所市","address":"豊田"},
{"zip_code":"6392263","kana_pref":"ﾅﾗｹﾝ","kana_city":"ｺﾞｾｼ","kana_address":"ﾄﾘｲﾄﾞ","pref":"奈良県","city":"御所市","address":"鳥井戸"},
{"zip_code":"6392225","kana_pref":"ﾅﾗｹﾝ","kana_city":"ｺﾞｾｼ","kana_address":"ﾅｶﾎﾝﾏﾁ","pref":"奈良県","city":"御所市","address":"中本町"},
{"zip_code":"6392321","kana_pref":"ﾅﾗｹﾝ","kana_city":"ｺﾞｾｼ","kana_address":"ﾅｶﾞﾗ","pref":"奈良県","city":"御所市","address":"名柄"},
{"zip_code":"6392313","kana_pref":"ﾅﾗｹﾝ","kana_city":"ｺﾞｾｼ","kana_address":"ﾅﾗﾊﾞﾗ","pref":"奈良県","city":"御所市","address":"楢原"},
{"zip_code":"6392331","kana_pref":"ﾅﾗｹﾝ","kana_city":"ｺﾞｾｼ","kana_address":"ﾅﾝｺﾞｳ","pref":"奈良県","city":"御所市","address":"南郷"},
{"zip_code":"6392335","kana_pref":"ﾅﾗｹﾝ","kana_city":"ｺﾞｾｼ","kana_address":"ﾆｼｷﾀｸﾎﾞ","pref":"奈良県","city":"御所市","address":"西北窪"},
{"zip_code":"6392228","kana_pref":"ﾅﾗｹﾝ","kana_city":"ｺﾞｾｼ","kana_address":"ﾆｼｸﾎﾞﾎﾝﾏﾁ","pref":"奈良県","city":"御所市","address":"西久保本町"},
{"zip_code":"6392345","kana_pref":"ﾅﾗｹﾝ","kana_city":"ｺﾞｾｼ","kana_address":"ﾆｼｻﾋﾞ","pref":"奈良県","city":"御所市","address":"西佐味"},
{"zip_code":"6392316","kana_pref":"ﾅﾗｹﾝ","kana_city":"ｺﾞｾｼ","kana_address":"ﾆｼﾃﾗﾀﾞ","pref":"奈良県","city":"御所市","address":"西寺田"},
{"zip_code":"6392215","kana_pref":"ﾅﾗｹﾝ","kana_city":"ｺﾞｾｼ","kana_address":"ﾆｼﾏﾁ","pref":"奈良県","city":"御所市","address":"西町"},
{"zip_code":"6392332","kana_pref":"ﾅﾗｹﾝ","kana_city":"ｺﾞｾｼ","kana_address":"ﾆｼﾓｯﾀ","pref":"奈良県","city":"御所市","address":"西持田"},
{"zip_code":"6392333","kana_pref":"ﾅﾗｹﾝ","kana_city":"ｺﾞｾｼ","kana_address":"ﾊﾔｼ","pref":"奈良県","city":"御所市","address":"林"},
{"zip_code":"6392246","kana_pref":"ﾅﾗｹﾝ","kana_city":"ｺﾞｾｼ","kana_address":"ﾊﾗﾀﾞﾆ","pref":"奈良県","city":"御所市","address":"原谷"},
{"zip_code":"6392227","kana_pref":"ﾅﾗｹﾝ","kana_city":"ｺﾞｾｼ","kana_address":"ﾋｶﾞｼｸﾎﾞﾁｮｳ","pref":"奈良県","city":"御所市","address":"東久保町"},
{"zip_code":"6392344","kana_pref":"ﾅﾗｹﾝ","kana_city":"ｺﾞｾｼ","kana_address":"ﾋｶﾞｼｻﾋﾞ","pref":"奈良県","city":"御所市","address":"東佐味"},
{"zip_code":"6392205","kana_pref":"ﾅﾗｹﾝ","kana_city":"ｺﾞｾｼ","kana_address":"ﾋｶﾞｼﾂｼﾞ","pref":"奈良県","city":"御所市","address":"東辻"},
{"zip_code":"6392243","kana_pref":"ﾅﾗｹﾝ","kana_city":"ｺﾞｾｼ","kana_address":"ﾋｶﾞｼﾃﾗﾀﾞ","pref":"奈良県","city":"御所市","address":"東寺田"},
{"zip_code":"6392322","kana_pref":"ﾅﾗｹﾝ","kana_city":"ｺﾞｾｼ","kana_address":"ﾋｶﾞｼﾅｶﾞﾗ","pref":"奈良県","city":"御所市","address":"東名柄"},
{"zip_code":"6392302","kana_pref":"ﾅﾗｹﾝ","kana_city":"ｺﾞｾｼ","kana_address":"ﾋｶﾞｼﾏﾂﾓﾄ","pref":"奈良県","city":"御所市","address":"東松本"},
{"zip_code":"6392262","kana_pref":"ﾅﾗｹﾝ","kana_city":"ｺﾞｾｼ","kana_address":"ﾋｶﾞｼﾓｯﾀ","pref":"奈良県","city":"御所市","address":"東持田"},
{"zip_code":"6392252","kana_pref":"ﾅﾗｹﾝ","kana_city":"ｺﾞｾｼ","kana_address":"ﾋﾉ","pref":"奈良県","city":"御所市","address":"樋野"},
{"zip_code":"6392346","kana_pref":"ﾅﾗｹﾝ","kana_city":"ｺﾞｾｼ","kana_address":"ﾌｼﾐ","pref":"奈良県","city":"御所市","address":"伏見"},
{"zip_code":"6392268","kana_pref":"ﾅﾗｹﾝ","kana_city":"ｺﾞｾｼ","kana_address":"ﾌﾅｼﾞ","pref":"奈良県","city":"御所市","address":"船路"},
{"zip_code":"6392253","kana_pref":"ﾅﾗｹﾝ","kana_city":"ｺﾞｾｼ","kana_address":"ﾌﾞﾝｾﾞ","pref":"奈良県","city":"御所市","address":"奉膳"},
{"zip_code":"6392266","kana_pref":"ﾅﾗｹﾝ","kana_city":"ｺﾞｾｼ","kana_address":"ﾍｲｻｶ","pref":"奈良県","city":"御所市","address":"重阪"},
{"zip_code":"6392237","kana_pref":"ﾅﾗｹﾝ","kana_city":"ｺﾞｾｼ","kana_address":"ﾎｳﾈﾝﾊﾞｼﾄﾞｵﾘ","pref":"奈良県","city":"御所市","address":"豊年橋通り"},
{"zip_code":"6392242","kana_pref":"ﾅﾗｹﾝ","kana_city":"ｺﾞｾｼ","kana_address":"ﾎﾝﾏ","pref":"奈良県","city":"御所市","address":"本馬"},
{"zip_code":"6392223","kana_pref":"ﾅﾗｹﾝ","kana_city":"ｺﾞｾｼ","kana_address":"ﾎﾝﾏﾁ","pref":"奈良県","city":"御所市","address":"本町"},
{"zip_code":"6392327","kana_pref":"ﾅﾗｹﾝ","kana_city":"ｺﾞｾｼ","kana_address":"ﾏｼ","pref":"奈良県","city":"御所市","address":"増"},
{"zip_code":"6392232","kana_pref":"ﾅﾗｹﾝ","kana_city":"ｺﾞｾｼ","kana_address":"ﾐｶﾄﾞﾁｮｳ","pref":"奈良県","city":"御所市","address":"御門町"},
{"zip_code":"6392216","kana_pref":"ﾅﾗｹﾝ","kana_city":"ｺﾞｾｼ","kana_address":"ﾐｸﾆﾄﾞｵﾘ","pref":"奈良県","city":"御所市","address":"御国通り"},
{"zip_code":"6392214","kana_pref":"ﾅﾗｹﾝ","kana_city":"ｺﾞｾｼ","kana_address":"ﾐﾄﾞｳｳｵﾀﾅﾏﾁ","pref":"奈良県","city":"御所市","address":"御堂魚棚町"},
{"zip_code":"6392278","kana_pref":"ﾅﾗｹﾝ","kana_city":"ｺﾞｾｼ","kana_address":"ﾐﾄﾞﾘｶﾞｵｶ","pref":"奈良県","city":"御所市","address":"緑ケ丘"},
{"zip_code":"6392248","kana_pref":"ﾅﾗｹﾝ","kana_city":"ｺﾞｾｼ","kana_address":"ﾐﾄﾞﾘﾏﾁ","pref":"奈良県","city":"御所市","address":"緑町"},
{"zip_code":"6392204","kana_pref":"ﾅﾗｹﾝ","kana_city":"ｺﾞｾｼ","kana_address":"ﾐﾅﾐｼﾞｭｳｿ","pref":"奈良県","city":"御所市","address":"南十三"},
{"zip_code":"6392226","kana_pref":"ﾅﾗｹﾝ","kana_city":"ｺﾞｾｼ","kana_address":"ﾐﾅﾐﾅｶﾏﾁ","pref":"奈良県","city":"御所市","address":"南中町"},
{"zip_code":"6392306","kana_pref":"ﾅﾗｹﾝ","kana_city":"ｺﾞｾｼ","kana_address":"ﾐﾑﾛ","pref":"奈良県","city":"御所市","address":"三室"},
{"zip_code":"6392233","kana_pref":"ﾅﾗｹﾝ","kana_city":"ｺﾞｾｼ","kana_address":"ﾐﾔｺﾏﾁ","pref":"奈良県","city":"御所市","address":"都町"},
{"zip_code":"6392315","kana_pref":"ﾅﾗｹﾝ","kana_city":"ｺﾞｾｼ","kana_address":"ﾐﾔﾄﾞ","pref":"奈良県","city":"御所市","address":"宮戸"},
{"zip_code":"6392271","kana_pref":"ﾅﾗｹﾝ","kana_city":"ｺﾞｾｼ","kana_address":"ﾐﾔﾏｴﾏﾁ","pref":"奈良県","city":"御所市","address":"宮前町"},
{"zip_code":"6392277","kana_pref":"ﾅﾗｹﾝ","kana_city":"ｺﾞｾｼ","kana_address":"ﾑﾛ","pref":"奈良県","city":"御所市","address":"室"},
{"zip_code":"6392262","kana_pref":"ﾅﾗｹﾝ","kana_city":"ｺﾞｾｼ","kana_address":"ﾓｯﾀ","pref":"奈良県","city":"御所市","address":"持田"},
{"zip_code":"6392301","kana_pref":"ﾅﾗｹﾝ","kana_city":"ｺﾞｾｼ","kana_address":"ﾓﾄﾏﾁ","pref":"奈良県","city":"御所市","address":"元町"},
{"zip_code":"6392318","kana_pref":"ﾅﾗｹﾝ","kana_city":"ｺﾞｾｼ","kana_address":"ﾓﾘﾜｷ","pref":"奈良県","city":"御所市","address":"森脇"},
{"zip_code":"6392305","kana_pref":"ﾅﾗｹﾝ","kana_city":"ｺﾞｾｼ","kana_address":"ﾔﾅｷﾞﾀﾞﾁｮｳ","pref":"奈良県","city":"御所市","address":"柳田町"},
{"zip_code":"6392201","kana_pref":"ﾅﾗｹﾝ","kana_city":"ｺﾞｾｼ","kana_address":"ﾔﾅｷﾞﾊﾗ","pref":"奈良県","city":"御所市","address":"柳原"},
{"zip_code":"6392234","kana_pref":"ﾅﾗｹﾝ","kana_city":"ｺﾞｾｼ","kana_address":"ﾔﾅｷﾞﾏﾁ","pref":"奈良県","city":"御所市","address":"柳町"},
{"zip_code":"6392222","kana_pref":"ﾅﾗｹﾝ","kana_city":"ｺﾞｾｼ","kana_address":"ﾛｯｹﾝﾏﾁ","pref":"奈良県","city":"御所市","address":"六軒町"},
{"zip_code":"6390200","kana_pref":"ﾅﾗｹﾝ","kana_city":"ｶｼﾊﾞｼ","kana_address":"","pref":"奈良県","city":"香芝市","address":""},
{"zip_code":"6390266","kana_pref":"ﾅﾗｹﾝ","kana_city":"ｶｼﾊﾞｼ","kana_address":"ｱｻﾋｶﾞｵｶ","pref":"奈良県","city":"香芝市","address":"旭ケ丘"},
{"zip_code":"6390252","kana_pref":"ﾅﾗｹﾝ","kana_city":"ｶｼﾊﾞｼ","kana_address":"ｱﾅﾑｼ","pref":"奈良県","city":"香芝市","address":"穴虫"},
{"zip_code":"6390236","kana_pref":"ﾅﾗｹﾝ","kana_city":"ｶｼﾊﾞｼ","kana_address":"ｲｿｶﾍﾞ","pref":"奈良県","city":"香芝市","address":"磯壁"},
{"zip_code":"6390264","kana_pref":"ﾅﾗｹﾝ","kana_city":"ｶｼﾊﾞｼ","kana_address":"ｲﾏｲｽﾞﾐ","pref":"奈良県","city":"香芝市","address":"今泉"},
{"zip_code":"6390251","kana_pref":"ﾅﾗｹﾝ","kana_city":"ｶｼﾊﾞｼ","kana_address":"ｵｳｻｶ","pref":"奈良県","city":"香芝市","address":"逢坂"},
{"zip_code":"6390227","kana_pref":"ﾅﾗｹﾝ","kana_city":"ｶｼﾊﾞｼ","kana_address":"ｶﾏﾀﾞ","pref":"奈良県","city":"香芝市","address":"鎌田"},
{"zip_code":"6390265","kana_pref":"ﾅﾗｹﾝ","kana_city":"ｶｼﾊﾞｼ","kana_address":"ｶﾐﾅｶ","pref":"奈良県","city":"香芝市","address":"上中"},
{"zip_code":"6390225","kana_pref":"ﾅﾗｹﾝ","kana_city":"ｶｼﾊﾞｼ","kana_address":"ｶﾜﾗｸﾞﾁ","pref":"奈良県","city":"香芝市","address":"瓦口"},
{"zip_code":"6390242","kana_pref":"ﾅﾗｹﾝ","kana_city":"ｶｼﾊﾞｼ","kana_address":"ｷﾀｲﾏｲﾁ","pref":"奈良県","city":"香芝市","address":"北今市"},
{"zip_code":"6390234","kana_pref":"ﾅﾗｹﾝ","kana_city":"ｶｼﾊﾞｼ","kana_address":"ｷﾂｲ","pref":"奈良県","city":"香芝市","address":"狐井"},
{"zip_code":"6390226","kana_pref":"ﾅﾗｹﾝ","kana_city":"ｶｼﾊﾞｼ","kana_address":"ｺﾞｲﾄﾞｳ","pref":"奈良県","city":"香芝市","address":"五位堂"},
{"zip_code":"6390221","kana_pref":"ﾅﾗｹﾝ","kana_city":"ｶｼﾊﾞｼ","kana_address":"ｺﾞｶｼｮ","pref":"奈良県","city":"香芝市","address":"五ケ所"},
{"zip_code":"6390233","kana_pref":"ﾅﾗｹﾝ","kana_city":"ｶｼﾊﾞｼ","kana_address":"ｼﾓﾀﾞ","pref":"奈良県","city":"香芝市","address":"下田"},
{"zip_code":"6390232","kana_pref":"ﾅﾗｹﾝ","kana_city":"ｶｼﾊﾞｼ","kana_address":"ｼﾓﾀﾞﾋｶﾞｼ","pref":"奈良県","city":"香芝市","address":"下田東"},
{"zip_code":"6390231","kana_pref":"ﾅﾗｹﾝ","kana_city":"ｶｼﾊﾞｼ","kana_address":"ｼﾓﾀﾞﾆｼ","pref":"奈良県","city":"香芝市","address":"下田西"},
{"zip_code":"6390255","kana_pref":"ﾅﾗｹﾝ","kana_city":"ｶｼﾊﾞｼ","kana_address":"ｾｷﾔ","pref":"奈良県","city":"香芝市","address":"関屋"},
{"zip_code":"6390254","kana_pref":"ﾅﾗｹﾝ","kana_city":"ｶｼﾊﾞｼ","kana_address":"ｾｷﾔｷﾀ","pref":"奈良県","city":"香芝市","address":"関屋北"},
{"zip_code":"6390241","kana_pref":"ﾅﾗｹﾝ","kana_city":"ｶｼﾊﾞｼ","kana_address":"ﾀｶ","pref":"奈良県","city":"香芝市","address":"高"},
{"zip_code":"6390256","kana_pref":"ﾅﾗｹﾝ","kana_city":"ｶｼﾊﾞｼ","kana_address":"ﾀｶﾔﾏﾀﾞｲ","pref":"奈良県","city":"香芝市","address":"高山台"},
{"zip_code":"6390253","kana_pref":"ﾅﾗｹﾝ","kana_city":"ｶｼﾊﾞｼ","kana_address":"ﾀｼﾞﾘ","pref":"奈良県","city":"香芝市","address":"田尻"},
{"zip_code":"6390222","kana_pref":"ﾅﾗｹﾝ","kana_city":"ｶｼﾊﾞｼ","kana_address":"ﾆｼﾏﾐ","pref":"奈良県","city":"香芝市","address":"西真美"},
{"zip_code":"6390261","kana_pref":"ﾅﾗｹﾝ","kana_city":"ｶｼﾊﾞｼ","kana_address":"ﾆﾝｼﾞ","pref":"奈良県","city":"香芝市","address":"尼寺"},
{"zip_code":"6390262","kana_pref":"ﾅﾗｹﾝ","kana_city":"ｶｼﾊﾞｼ","kana_address":"ﾊｸﾎｳﾀﾞｲ","pref":"奈良県","city":"香芝市","address":"白鳳台"},
{"zip_code":"6390245","kana_pref":"ﾅﾗｹﾝ","kana_city":"ｶｼﾊﾞｼ","kana_address":"ﾊﾀ","pref":"奈良県","city":"香芝市","address":"畑"},
{"zip_code":"6390263","kana_pref":"ﾅﾗｹﾝ","kana_city":"ｶｼﾊﾞｼ","kana_address":"ﾋﾗﾉ","pref":"奈良県","city":"香芝市","address":"平野"},
{"zip_code":"6390243","kana_pref":"ﾅﾗｹﾝ","kana_city":"ｶｼﾊﾞｼ","kana_address":"ﾌｼﾞﾔﾏ","pref":"奈良県","city":"香芝市","address":"藤山"},
{"zip_code":"6390224","kana_pref":"ﾅﾗｹﾝ","kana_city":"ｶｼﾊﾞｼ","kana_address":"ﾍﾞｯｼﾖ","pref":"奈良県","city":"香芝市","address":"別所"},
{"zip_code":"6390244","kana_pref":"ﾅﾗｹﾝ","kana_city":"ｶｼﾊﾞｼ","kana_address":"ﾎﾝﾏﾁ","pref":"奈良県","city":"香芝市","address":"本町"},
{"zip_code":"6390223","kana_pref":"ﾅﾗｹﾝ","kana_city":"ｶｼﾊﾞｼ","kana_address":"ﾏﾐｶﾞｵｶ","pref":"奈良県","city":"香芝市","address":"真美ケ丘"},
{"zip_code":"6390235","kana_pref":"ﾅﾗｹﾝ","kana_city":"ｶｼﾊﾞｼ","kana_address":"ﾘｮｳﾌｸｼﾞ","pref":"奈良県","city":"香芝市","address":"良福寺"},
{"zip_code":"6392100","kana_pref":"ﾅﾗｹﾝ","kana_city":"ｶﾂﾗｷﾞｼ","kana_address":"","pref":"奈良県","city":"葛城市","address":""},
{"zip_code":"6390274","kana_pref":"ﾅﾗｹﾝ","kana_city":"ｶﾂﾗｷﾞｼ","kana_address":"ｲﾏｻﾞｲｹ","pref":"奈良県","city":"葛城市","address":"今在家"},
{"zip_code":"6392133","kana_pref":"ﾅﾗｹﾝ","kana_city":"ｶﾂﾗｷﾞｼ","kana_address":"ｳﾒﾑﾛ","pref":"奈良県","city":"葛城市","address":"梅室"},
{"zip_code":"6392153","kana_pref":"ﾅﾗｹﾝ","kana_city":"ｶﾂﾗｷﾞｼ","kana_address":"ｵｵﾀ","pref":"奈良県","city":"葛城市","address":"太田"},
{"zip_code":"6392145","kana_pref":"ﾅﾗｹﾝ","kana_city":"ｶﾂﾗｷﾞｼ","kana_address":"ｵｵﾔ","pref":"奈良県","city":"葛城市","address":"大屋"},
{"zip_code":"6392123","kana_pref":"ﾅﾗｹﾝ","kana_city":"ｶﾂﾗｷﾞｼ","kana_address":"ｵｼﾐ","pref":"奈良県","city":"葛城市","address":"忍海"},
{"zip_code":"6392152","kana_pref":"ﾅﾗｹﾝ","kana_city":"ｶﾂﾗｷﾞｼ","kana_address":"ｵﾊﾞﾀｹ","pref":"奈良県","city":"葛城市","address":"大畑"},
{"zip_code":"6392111","kana_pref":"ﾅﾗｹﾝ","kana_city":"ｶﾂﾗｷﾞｼ","kana_address":"ｶｷﾉﾓﾄ","pref":"奈良県","city":"葛城市","address":"柿本"},
{"zip_code":"6390275","kana_pref":"ﾅﾗｹﾝ","kana_city":"ｶﾂﾗｷﾞｼ","kana_address":"ｶﾂﾈ","pref":"奈良県","city":"葛城市","address":"勝根"},
{"zip_code":"6392144","kana_pref":"ﾅﾗｹﾝ","kana_city":"ｶﾂﾗｷﾞｼ","kana_address":"ｶﾂﾗｷﾞ","pref":"奈良県","city":"葛城市","address":"葛木"},
{"zip_code":"6390271","kana_pref":"ﾅﾗｹﾝ","kana_city":"ｶﾂﾗｷﾞｼ","kana_address":"ｶﾓﾘ","pref":"奈良県","city":"葛城市","address":"加守"},
{"zip_code":"6392113","kana_pref":"ﾅﾗｹﾝ","kana_city":"ｶﾂﾗｷﾞｼ","kana_address":"ｷﾀﾊﾅｳﾁ","pref":"奈良県","city":"葛城市","address":"北花内"},
{"zip_code":"6392142","kana_pref":"ﾅﾗｹﾝ","kana_city":"ｶﾂﾗｷﾞｼ","kana_address":"ｷﾀﾐﾂﾎﾞ","pref":"奈良県","city":"葛城市","address":"北道穂"},
{"zip_code":"6392161","kana_pref":"ﾅﾗｹﾝ","kana_city":"ｶﾂﾗｷﾞｼ","kana_address":"ｷﾄﾞ","pref":"奈良県","city":"葛城市","address":"木戸"},
{"zip_code":"6392121","kana_pref":"ﾅﾗｹﾝ","kana_city":"ｶﾂﾗｷﾞｼ","kana_address":"ｼﾑﾗ","pref":"奈良県","city":"葛城市","address":"新村"},
{"zip_code":"6392162","kana_pref":"ﾅﾗｹﾝ","kana_city":"ｶﾂﾗｷﾞｼ","kana_address":"ｼｬｸﾄﾞ","pref":"奈良県","city":"葛城市","address":"尺土"},
{"zip_code":"6390272","kana_pref":"ﾅﾗｹﾝ","kana_city":"ｶﾂﾗｷﾞｼ","kana_address":"ｼﾝｻﾞｲｹ","pref":"奈良県","city":"葛城市","address":"新在家"},
{"zip_code":"6392147","kana_pref":"ﾅﾗｹﾝ","kana_city":"ｶﾂﾗｷﾞｼ","kana_address":"ｼﾝｼﾞｮｳ","pref":"奈良県","city":"葛城市","address":"新庄"},
{"zip_code":"6392127","kana_pref":"ﾅﾗｹﾝ","kana_city":"ｶﾂﾗｷﾞｼ","kana_address":"ｼﾝﾏﾁ","pref":"奈良県","city":"葛城市","address":"新町"},
{"zip_code":"6390273","kana_pref":"ﾅﾗｹﾝ","kana_city":"ｶﾂﾗｷﾞｼ","kana_address":"ｿﾒﾉ","pref":"奈良県","city":"葛城市","address":"染野"},
{"zip_code":"6390276","kana_pref":"ﾅﾗｹﾝ","kana_city":"ｶﾂﾗｷﾞｼ","kana_address":"ﾀｲﾏ","pref":"奈良県","city":"葛城市","address":"當麻"},
{"zip_code":"6392155","kana_pref":"ﾅﾗｹﾝ","kana_city":"ｶﾂﾗｷﾞｼ","kana_address":"ﾀｹﾉｳﾁ","pref":"奈良県","city":"葛城市","address":"竹内"},
{"zip_code":"6392135","kana_pref":"ﾅﾗｹﾝ","kana_city":"ｶﾂﾗｷﾞｼ","kana_address":"ﾃﾗｸﾞﾁ","pref":"奈良県","city":"葛城市","address":"寺口"},
{"zip_code":"6392164","kana_pref":"ﾅﾗｹﾝ","kana_city":"ｶﾂﾗｷﾞｼ","kana_address":"ﾅｶﾞｵ","pref":"奈良県","city":"葛城市","address":"長尾"},
{"zip_code":"6392146","kana_pref":"ﾅﾗｹﾝ","kana_city":"ｶﾂﾗｷﾞｼ","kana_address":"ﾅｶﾄ","pref":"奈良県","city":"葛城市","address":"中戸"},
{"zip_code":"6392125","kana_pref":"ﾅﾗｹﾝ","kana_city":"ｶﾂﾗｷﾞｼ","kana_address":"ﾆｼﾂｼﾞ","pref":"奈良県","city":"葛城市","address":"西辻"},
{"zip_code":"6392103","kana_pref":"ﾅﾗｹﾝ","kana_city":"ｶﾂﾗｷﾞｼ","kana_address":"ﾆｼﾑﾛ","pref":"奈良県","city":"葛城市","address":"西室"},
{"zip_code":"6392122","kana_pref":"ﾅﾗｹﾝ","kana_city":"ｶﾂﾗｷﾞｼ","kana_address":"ﾊｼﾞｶﾐ","pref":"奈良県","city":"葛城市","address":"薑"},
{"zip_code":"6392163","kana_pref":"ﾅﾗｹﾝ","kana_city":"ｶﾂﾗｷﾞｼ","kana_address":"ﾊﾁｶﾞﾜ","pref":"奈良県","city":"葛城市","address":"八川"},
{"zip_code":"6392131","kana_pref":"ﾅﾗｹﾝ","kana_city":"ｶﾂﾗｷﾞｼ","kana_address":"ﾊﾔｼﾄﾞｳ","pref":"奈良県","city":"葛城市","address":"林堂"},
{"zip_code":"6392102","kana_pref":"ﾅﾗｹﾝ","kana_city":"ｶﾂﾗｷﾞｼ","kana_address":"ﾋｶﾞｼﾑﾛ","pref":"奈良県","city":"葛城市","address":"東室"},
{"zip_code":"6392101","kana_pref":"ﾅﾗｹﾝ","kana_city":"ｶﾂﾗｷﾞｼ","kana_address":"ﾋｷﾀﾞ","pref":"奈良県","city":"葛城市","address":"疋田"},
{"zip_code":"6392154","kana_pref":"ﾅﾗｹﾝ","kana_city":"ｶﾂﾗｷﾞｼ","kana_address":"ﾋｮｳｹﾞ","pref":"奈良県","city":"葛城市","address":"兵家"},
{"zip_code":"6392136","kana_pref":"ﾅﾗｹﾝ","kana_city":"ｶﾂﾗｷﾞｼ","kana_address":"ﾋﾗｵｶ","pref":"奈良県","city":"葛城市","address":"平岡"},
{"zip_code":"6392112","kana_pref":"ﾅﾗｹﾝ","kana_city":"ｶﾂﾗｷﾞｼ","kana_address":"ﾌｴﾄﾞｳ","pref":"奈良県","city":"葛城市","address":"笛堂"},
{"zip_code":"6392132","kana_pref":"ﾅﾗｹﾝ","kana_city":"ｶﾂﾗｷﾞｼ","kana_address":"ﾌｴﾌｷ","pref":"奈良県","city":"葛城市","address":"笛吹"},
{"zip_code":"6392141","kana_pref":"ﾅﾗｹﾝ","kana_city":"ｶﾂﾗｷﾞｼ","kana_address":"ﾍﾞﾝﾉｼｮｳ","pref":"奈良県","city":"葛城市","address":"弁之庄"},
{"zip_code":"6392151","kana_pref":"ﾅﾗｹﾝ","kana_city":"ｶﾂﾗｷﾞｼ","kana_address":"ﾐﾅﾐｲﾏｲﾁ","pref":"奈良県","city":"葛城市","address":"南今市"},
{"zip_code":"6392123","kana_pref":"ﾅﾗｹﾝ","kana_city":"ｶﾂﾗｷﾞｼ","kana_address":"ﾐﾅﾐｼﾝﾏﾁ","pref":"奈良県","city":"葛城市","address":"南新町"},
{"zip_code":"6392126","kana_pref":"ﾅﾗｹﾝ","kana_city":"ｶﾂﾗｷﾞｼ","kana_address":"ﾐﾅﾐﾊﾅｳﾁ","pref":"奈良県","city":"葛城市","address":"南花内"},
{"zip_code":"6392137","kana_pref":"ﾅﾗｹﾝ","kana_city":"ｶﾂﾗｷﾞｼ","kana_address":"ﾐﾅﾐﾌｼﾞｲ","pref":"奈良県","city":"葛城市","address":"南藤井"},
{"zip_code":"6392143","kana_pref":"ﾅﾗｹﾝ","kana_city":"ｶﾂﾗｷﾞｼ","kana_address":"ﾐﾅﾐﾐﾂﾎﾞ","pref":"奈良県","city":"葛城市","address":"南道穂"},
{"zip_code":"6392134","kana_pref":"ﾅﾗｹﾝ","kana_city":"ｶﾂﾗｷﾞｼ","kana_address":"ﾔﾏｸﾞﾁ","pref":"奈良県","city":"葛城市","address":"山口"},
{"zip_code":"6392138","kana_pref":"ﾅﾗｹﾝ","kana_city":"ｶﾂﾗｷﾞｼ","kana_address":"ﾔﾏﾀﾞ","pref":"奈良県","city":"葛城市","address":"山田"},
{"zip_code":"6392124","kana_pref":"ﾅﾗｹﾝ","kana_city":"ｶﾂﾗｷﾞｼ","kana_address":"ﾜｷﾀﾞ","pref":"奈良県","city":"葛城市","address":"脇田"},
{"zip_code":"6391100","kana_pref":"ﾅﾗｹﾝ","kana_city":"ｲｺﾏｸﾞﾝｱﾝﾄﾞﾁｮｳ","kana_address":"","pref":"奈良県","city":"生駒郡安堵町","address":""},
{"zip_code":"6391062","kana_pref":"ﾅﾗｹﾝ","kana_city":"ｲｺﾏｸﾞﾝｱﾝﾄﾞﾁｮｳ","kana_address":"ｵｶｻｷ","pref":"奈良県","city":"生駒郡安堵町","address":"岡崎"},
{"zip_code":"6391065","kana_pref":"ﾅﾗｹﾝ","kana_city":"ｲｺﾏｸﾞﾝｱﾝﾄﾞﾁｮｳ","kana_address":"ｶｻﾒ","pref":"奈良県","city":"生駒郡安堵町","address":"笠目"},
{"zip_code":"6391063","kana_pref":"ﾅﾗｹﾝ","kana_city":"ｲｺﾏｸﾞﾝｱﾝﾄﾞﾁｮｳ","kana_address":"ｶｼﾉｷﾀﾞｲ","pref":"奈良県","city":"生駒郡安堵町","address":"かしの木台"},
{"zip_code":"6391064","kana_pref":"ﾅﾗｹﾝ","kana_city":"ｲｺﾏｸﾞﾝｱﾝﾄﾞﾁｮｳ","kana_address":"ｸﾎﾞﾀ","pref":"奈良県","city":"生駒郡安堵町","address":"窪田"},
{"zip_code":"6391066","kana_pref":"ﾅﾗｹﾝ","kana_city":"ｲｺﾏｸﾞﾝｱﾝﾄﾞﾁｮｳ","kana_address":"ﾆｼｱﾝﾄﾞ","pref":"奈良県","city":"生駒郡安堵町","address":"西安堵"},
{"zip_code":"6391061","kana_pref":"ﾅﾗｹﾝ","kana_city":"ｲｺﾏｸﾞﾝｱﾝﾄﾞﾁｮｳ","kana_address":"ﾋｶﾞｼｱﾝﾄﾞ","pref":"奈良県","city":"生駒郡安堵町","address":"東安堵"},
{"zip_code":"6390200","kana_pref":"ﾅﾗｹﾝ","kana_city":"ｷﾀｶﾂﾗｷﾞｸﾞﾝｶﾝﾏｷﾁｮｳ","kana_address":"","pref":"奈良県","city":"北葛城郡上牧町","address":""},
{"zip_code":"6390201","kana_pref":"ﾅﾗｹﾝ","kana_city":"ｷﾀｶﾂﾗｷﾞｸﾞﾝｶﾝﾏｷﾁｮｳ","kana_address":"ｶﾀｵｶﾀﾞｲ","pref":"奈良県","city":"北葛城郡上牧町","address":"片岡台"},
{"zip_code":"6390215","kana_pref":"ﾅﾗｹﾝ","kana_city":"ｷﾀｶﾂﾗｷﾞｸﾞﾝｶﾝﾏｷﾁｮｳ","kana_address":"ｶﾂﾗｷﾞﾀﾞｲ","pref":"奈良県","city":"北葛城郡上牧町","address":"葛城台"},
{"zip_code":"6390214","kana_pref":"ﾅﾗｹﾝ","kana_city":"ｷﾀｶﾂﾗｷﾞｸﾞﾝｶﾝﾏｷﾁｮｳ","kana_address":"ｶﾝﾏｷ","pref":"奈良県","city":"北葛城郡上牧町","address":"上牧"},
{"zip_code":"6390202","kana_pref":"ﾅﾗｹﾝ","kana_city":"ｷﾀｶﾂﾗｷﾞｸﾞﾝｶﾝﾏｷﾁｮｳ","kana_address":"ｻｸﾗｶﾞｵｶ","pref":"奈良県","city":"北葛城郡上牧町","address":"桜ケ丘"},
{"zip_code":"6390205","kana_pref":"ﾅﾗｹﾝ","kana_city":"ｷﾀｶﾂﾗｷﾞｸﾞﾝｶﾝﾏｷﾁｮｳ","kana_address":"ｼﾓﾏｷ","pref":"奈良県","city":"北葛城郡上牧町","address":"下牧"},
{"zip_code":"6390216","kana_pref":"ﾅﾗｹﾝ","kana_city":"ｷﾀｶﾂﾗｷﾞｸﾞﾝｶﾝﾏｷﾁｮｳ","kana_address":"ｼｮｳﾘｴﾝ","pref":"奈良県","city":"北葛城郡上牧町","address":"松里園"},
{"zip_code":"6390211","kana_pref":"ﾅﾗｹﾝ","kana_city":"ｷﾀｶﾂﾗｷﾞｸﾞﾝｶﾝﾏｷﾁｮｳ","kana_address":"ﾀｷｶﾞﾜﾀﾞｲ","pref":"奈良県","city":"北葛城郡上牧町","address":"滝川台"},
{"zip_code":"6390203","kana_pref":"ﾅﾗｹﾝ","kana_city":"ｷﾀｶﾂﾗｷﾞｸﾞﾝｶﾝﾏｷﾁｮｳ","kana_address":"ﾄﾓｶﾞｵｶ","pref":"奈良県","city":"北葛城郡上牧町","address":"友が丘"},
{"zip_code":"6390217","kana_pref":"ﾅﾗｹﾝ","kana_city":"ｷﾀｶﾂﾗｷﾞｸﾞﾝｶﾝﾏｷﾁｮｳ","kana_address":"ﾅｶｽｼﾞｼｭﾂｻｸ","pref":"奈良県","city":"北葛城郡上牧町","address":"中筋出作"},
{"zip_code":"6390212","kana_pref":"ﾅﾗｹﾝ","kana_city":"ｷﾀｶﾂﾗｷﾞｸﾞﾝｶﾝﾏｷﾁｮｳ","kana_address":"ﾊｯﾄﾘﾀﾞｲ","pref":"奈良県","city":"北葛城郡上牧町","address":"服部台"},
{"zip_code":"6390204","kana_pref":"ﾅﾗｹﾝ","kana_city":"ｷﾀｶﾂﾗｷﾞｸﾞﾝｶﾝﾏｷﾁｮｳ","kana_address":"ﾐﾄﾞﾘｶﾞｵｶ","pref":"奈良県","city":"北葛城郡上牧町","address":"緑ケ丘"},
{"zip_code":"6390213","kana_pref":"ﾅﾗｹﾝ","kana_city":"ｷﾀｶﾂﾗｷﾞｸﾞﾝｶﾝﾏｷﾁｮｳ","kana_address":"ﾖﾈﾔﾏﾀﾞｲ","pref":"奈良県","city":"北葛城郡上牧町","address":"米山台"},
{"zip_code":"6393100","kana_pref":"ﾅﾗｹﾝ","kana_city":"ﾖｼﾉｸﾞﾝﾖｼﾉﾁｮｳ","kana_address":"","pref":"奈良県","city":"吉野郡吉野町","address":""},
{"zip_code":"6393433","kana_pref":"ﾅﾗｹﾝ","kana_city":"ﾖｼﾉｸﾞﾝﾖｼﾉﾁｮｳ","kana_address":"ｱﾀﾗｼ","pref":"奈良県","city":"吉野郡吉野町","address":"新子"},
{"zip_code":"6393113","kana_pref":"ﾅﾗｹﾝ","kana_city":"ﾖｼﾉｸﾞﾝﾖｼﾉﾁｮｳ","kana_address":"ｲｲｶﾞｲ","pref":"奈良県","city":"吉野郡吉野町","address":"飯貝"},
{"zip_code":"6393323","kana_pref":"ﾅﾗｹﾝ","kana_city":"ﾖｼﾉｸﾞﾝﾖｼﾉﾁｮｳ","kana_address":"ｲﾛｳ","pref":"奈良県","city":"吉野郡吉野町","address":"色生"},
{"zip_code":"6393436","kana_pref":"ﾅﾗｹﾝ","kana_city":"ﾖｼﾉｸﾞﾝﾖｼﾉﾁｮｳ","kana_address":"ｶｼｵ","pref":"奈良県","city":"吉野郡吉野町","address":"樫尾"},
{"zip_code":"6393111","kana_pref":"ﾅﾗｹﾝ","kana_city":"ﾖｼﾉｸﾞﾝﾖｼﾉﾁｮｳ","kana_address":"ｶﾐｲﾁ","pref":"奈良県","city":"吉野郡吉野町","address":"上市"},
{"zip_code":"6393102","kana_pref":"ﾅﾗｹﾝ","kana_city":"ﾖｼﾉｸﾞﾝﾖｼﾉﾁｮｳ","kana_address":"ｶﾜﾊﾗﾔ","pref":"奈良県","city":"吉野郡吉野町","address":"河原屋"},
{"zip_code":"6393442","kana_pref":"ﾅﾗｹﾝ","kana_city":"ﾖｼﾉｸﾞﾝﾖｼﾉﾁｮｳ","kana_address":"ｷｻﾀﾞﾆ","pref":"奈良県","city":"吉野郡吉野町","address":"喜佐谷"},
{"zip_code":"6393434","kana_pref":"ﾅﾗｹﾝ","kana_city":"ﾖｼﾉｸﾞﾝﾖｼﾉﾁｮｳ","kana_address":"ｸｽﾞ","pref":"奈良県","city":"吉野郡吉野町","address":"国栖"},
{"zip_code":"6393432","kana_pref":"ﾅﾗｹﾝ","kana_city":"ﾖｼﾉｸﾞﾝﾖｼﾉﾁｮｳ","kana_address":"ｸﾎﾞｶﾞｲﾄ","pref":"奈良県","city":"吉野郡吉野町","address":"窪垣内"},
{"zip_code":"6393324","kana_pref":"ﾅﾗｹﾝ","kana_city":"ﾖｼﾉｸﾞﾝﾖｼﾉﾁｮｳ","kana_address":"ｺｳｿｸ","pref":"奈良県","city":"吉野郡吉野町","address":"香束"},
{"zip_code":"6393322","kana_pref":"ﾅﾗｹﾝ","kana_city":"ﾖｼﾉｸﾞﾝﾖｼﾉﾁｮｳ","kana_address":"ｺﾅ","pref":"奈良県","city":"吉野郡吉野町","address":"小名"},
{"zip_code":"6393107","kana_pref":"ﾅﾗｹﾝ","kana_city":"ﾖｼﾉｸﾞﾝﾖｼﾉﾁｮｳ","kana_address":"ｻｻﾗ","pref":"奈良県","city":"吉野郡吉野町","address":"佐々羅"},
{"zip_code":"6393117","kana_pref":"ﾅﾗｹﾝ","kana_city":"ﾖｼﾉｸﾞﾝﾖｼﾉﾁｮｳ","kana_address":"ｻｿ","pref":"奈良県","city":"吉野郡吉野町","address":"左曽"},
{"zip_code":"6393431","kana_pref":"ﾅﾗｹﾝ","kana_city":"ﾖｼﾉｸﾞﾝﾖｼﾉﾁｮｳ","kana_address":"ｼｵﾉ","pref":"奈良県","city":"吉野郡吉野町","address":"入野"},
{"zip_code":"6393106","kana_pref":"ﾅﾗｹﾝ","kana_city":"ﾖｼﾉｸﾞﾝﾖｼﾉﾁｮｳ","kana_address":"ｼｶﾞ","pref":"奈良県","city":"吉野郡吉野町","address":"志賀"},
{"zip_code":"6393106","kana_pref":"ﾅﾗｹﾝ","kana_city":"ﾖｼﾉｸﾞﾝﾖｼﾉﾁｮｳ","kana_address":"ﾀｷﾊﾀ","pref":"奈良県","city":"吉野郡吉野町","address":"滝畑"},
{"zip_code":"6393112","kana_pref":"ﾅﾗｹﾝ","kana_city":"ﾖｼﾉｸﾞﾝﾖｼﾉﾁｮｳ","kana_address":"ﾀﾁﾉ","pref":"奈良県","city":"吉野郡吉野町","address":"立野"},
{"zip_code":"6393114","kana_pref":"ﾅﾗｹﾝ","kana_city":"ﾖｼﾉｸﾞﾝﾖｼﾉﾁｮｳ","kana_address":"ﾀﾝｼﾞ","pref":"奈良県","city":"吉野郡吉野町","address":"丹治"},
{"zip_code":"6393105","kana_pref":"ﾅﾗｹﾝ","kana_city":"ﾖｼﾉｸﾞﾝﾖｼﾉﾁｮｳ","kana_address":"ﾁﾏﾀ","pref":"奈良県","city":"吉野郡吉野町","address":"千股"},
{"zip_code":"6393102","kana_pref":"ﾅﾗｹﾝ","kana_city":"ﾖｼﾉｸﾞﾝﾖｼﾉﾁｮｳ","kana_address":"ﾂﾌﾞﾛ","pref":"奈良県","city":"吉野郡吉野町","address":"津風呂"},
{"zip_code":"6393446","kana_pref":"ﾅﾗｹﾝ","kana_city":"ﾖｼﾉｸﾞﾝﾖｼﾉﾁｮｳ","kana_address":"ﾅﾂﾐ","pref":"奈良県","city":"吉野郡吉野町","address":"菜摘"},
{"zip_code":"6393445","kana_pref":"ﾅﾗｹﾝ","kana_city":"ﾖｼﾉｸﾞﾝﾖｼﾉﾁｮｳ","kana_address":"ﾅﾗｲ","pref":"奈良県","city":"吉野郡吉野町","address":"楢井"},
{"zip_code":"6393108","kana_pref":"ﾅﾗｹﾝ","kana_city":"ﾖｼﾉｸﾞﾝﾖｼﾉﾁｮｳ","kana_address":"ﾆｼﾀﾆ","pref":"奈良県","city":"吉野郡吉野町","address":"西谷"},
{"zip_code":"6393118","kana_pref":"ﾅﾗｹﾝ","kana_city":"ﾖｼﾉｸﾞﾝﾖｼﾉﾁｮｳ","kana_address":"ﾊｼﾔ","pref":"奈良県","city":"吉野郡吉野町","address":"橋屋"},
{"zip_code":"6393103","kana_pref":"ﾅﾗｹﾝ","kana_city":"ﾖｼﾉｸﾞﾝﾖｼﾉﾁｮｳ","kana_address":"ﾋﾗｵ","pref":"奈良県","city":"吉野郡吉野町","address":"平尾"},
{"zip_code":"6393444","kana_pref":"ﾅﾗｹﾝ","kana_city":"ﾖｼﾉｸﾞﾝﾖｼﾉﾁｮｳ","kana_address":"ﾐｿﾉ","pref":"奈良県","city":"吉野郡吉野町","address":"御園"},
{"zip_code":"6393321","kana_pref":"ﾅﾗｹﾝ","kana_city":"ﾖｼﾉｸﾞﾝﾖｼﾉﾁｮｳ","kana_address":"ﾐﾂﾁｬﾔ","pref":"奈良県","city":"吉野郡吉野町","address":"三茶屋"},
{"zip_code":"6393108","kana_pref":"ﾅﾗｹﾝ","kana_city":"ﾖｼﾉｸﾞﾝﾖｼﾉﾁｮｳ","kana_address":"ﾐﾂﾞ","pref":"奈良県","city":"吉野郡吉野町","address":"三津"},
{"zip_code":"6393437","kana_pref":"ﾅﾗｹﾝ","kana_city":"ﾖｼﾉｸﾞﾝﾖｼﾉﾁｮｳ","kana_address":"ﾐﾅﾐｵｵﾉ","pref":"奈良県","city":"吉野郡吉野町","address":"南大野"},
{"zip_code":"6393435","kana_pref":"ﾅﾗｹﾝ","kana_city":"ﾖｼﾉｸﾞﾝﾖｼﾉﾁｮｳ","kana_address":"ﾐﾅﾐｸｽﾞ","pref":"奈良県","city":"吉野郡吉野町","address":"南国栖"},
{"zip_code":"6393104","kana_pref":"ﾅﾗｹﾝ","kana_city":"ﾖｼﾉｸﾞﾝﾖｼﾉﾁｮｳ","kana_address":"ﾐﾈﾃﾞﾗ","pref":"奈良県","city":"吉野郡吉野町","address":"峰寺"},
{"zip_code":"6393443","kana_pref":"ﾅﾗｹﾝ","kana_city":"ﾖｼﾉｸﾞﾝﾖｼﾉﾁｮｳ","kana_address":"ﾐﾔﾀｷ","pref":"奈良県","city":"吉野郡吉野町","address":"宮滝"},
{"zip_code":"6393116","kana_pref":"ﾅﾗｹﾝ","kana_city":"ﾖｼﾉｸﾞﾝﾖｼﾉﾁｮｳ","kana_address":"ﾑﾀﾞ","pref":"奈良県","city":"吉野郡吉野町","address":"六田"},
{"zip_code":"6393441","kana_pref":"ﾅﾗｹﾝ","kana_city":"ﾖｼﾉｸﾞﾝﾖｼﾉﾁｮｳ","kana_address":"ﾔｼﾞ","pref":"奈良県","city":"吉野郡吉野町","address":"矢治"},
{"zip_code":"6393325","kana_pref":"ﾅﾗｹﾝ","kana_city":"ﾖｼﾉｸﾞﾝﾖｼﾉﾁｮｳ","kana_address":"ﾔﾅｷﾞ","pref":"奈良県","city":"吉野郡吉野町","address":"柳"},
{"zip_code":"6393101","kana_pref":"ﾅﾗｹﾝ","kana_city":"ﾖｼﾉｸﾞﾝﾖｼﾉﾁｮｳ","kana_address":"ﾔﾏｸﾞﾁ","pref":"奈良県","city":"吉野郡吉野町","address":"山口"},
{"zip_code":"6393115","kana_pref":"ﾅﾗｹﾝ","kana_city":"ﾖｼﾉｸﾞﾝﾖｼﾉﾁｮｳ","kana_address":"ﾖｼﾉﾔﾏ","pref":"奈良県","city":"吉野郡吉野町","address":"吉野山"},
{"zip_code":"6393125","kana_pref":"ﾅﾗｹﾝ","kana_city":"ﾖｼﾉｸﾞﾝｵｵﾖﾄﾞﾁｮｳ","kana_address":"ｷﾀﾉ","pref":"奈良県","city":"吉野郡大淀町","address":"北野"},
{"zip_code":"6393124","kana_pref":"ﾅﾗｹﾝ","kana_city":"ﾖｼﾉｸﾞﾝｵｵﾖﾄﾞﾁｮｳ","kana_address":"ｷﾀﾑﾀﾞ","pref":"奈良県","city":"吉野郡大淀町","address":"北六田"},
{"zip_code":"6393122","kana_pref":"ﾅﾗｹﾝ","kana_city":"ﾖｼﾉｸﾞﾝｵｵﾖﾄﾞﾁｮｳ","kana_address":"ﾅｶﾏｼ","pref":"奈良県","city":"吉野郡大淀町","address":"中増"},
{"zip_code":"6393121","kana_pref":"ﾅﾗｹﾝ","kana_city":"ﾖｼﾉｸﾞﾝｵｵﾖﾄﾞﾁｮｳ","kana_address":"ﾆｼﾏｼ","pref":"奈良県","city":"吉野郡大淀町","address":"西増"},
{"zip_code":"6393126","kana_pref":"ﾅﾗｹﾝ","kana_city":"ﾖｼﾉｸﾞﾝｵｵﾖﾄﾞﾁｮｳ","kana_address":"ﾆﾉ","pref":"奈良県","city":"吉野郡大淀町","address":"新野"},
{"zip_code":"6393127","kana_pref":"ﾅﾗｹﾝ","kana_city":"ﾖｼﾉｸﾞﾝｵｵﾖﾄﾞﾁｮｳ","kana_address":"ﾊﾞｻ","pref":"奈良県","city":"吉野郡大淀町","address":"馬佐"},
{"zip_code":"6393128","kana_pref":"ﾅﾗｹﾝ","kana_city":"ﾖｼﾉｸﾞﾝｵｵﾖﾄﾞﾁｮｳ","kana_address":"ﾋｿ","pref":"奈良県","city":"吉野郡大淀町","address":"比曽"},
{"zip_code":"6393123","kana_pref":"ﾅﾗｹﾝ","kana_city":"ﾖｼﾉｸﾞﾝｵｵﾖﾄﾞﾁｮｳ","kana_address":"ﾏｼｸﾞﾁ","pref":"奈良県","city":"吉野郡大淀町","address":"増口"},
{"zip_code":"6393800","kana_pref":"ﾅﾗｹﾝ","kana_city":"ﾖｼﾉｸﾞﾝｼﾓｷﾀﾔﾏﾑﾗ","kana_address":"","pref":"奈良県","city":"吉野郡下北山村","address":""},
{"zip_code":"6393804","kana_pref":"ﾅﾗｹﾝ","kana_city":"ﾖｼﾉｸﾞﾝｼﾓｷﾀﾔﾏﾑﾗ","kana_address":"ｲｹﾐﾈ","pref":"奈良県","city":"吉野郡下北山村","address":"池峰"},
{"zip_code":"6393802","kana_pref":"ﾅﾗｹﾝ","kana_city":"ﾖｼﾉｸﾞﾝｼﾓｷﾀﾔﾏﾑﾗ","kana_address":"ｳﾗﾑｶｲ","pref":"奈良県","city":"吉野郡下北山村","address":"浦向"},
{"zip_code":"6393805","kana_pref":"ﾅﾗｹﾝ","kana_city":"ﾖｼﾉｸﾞﾝｼﾓｷﾀﾔﾏﾑﾗ","kana_address":"ｶﾐｲｹﾊﾗ","pref":"奈良県","city":"吉野郡下北山村","address":"上池原"},
{"zip_code":"6393808","kana_pref":"ﾅﾗｹﾝ","kana_city":"ﾖｼﾉｸﾞﾝｼﾓｷﾀﾔﾏﾑﾗ","kana_address":"ｶﾐｸﾜﾊﾗ","pref":"奈良県","city":"吉野郡下北山村","address":"上桑原"},
{"zip_code":"6393801","kana_pref":"ﾅﾗｹﾝ","kana_city":"ﾖｼﾉｸﾞﾝｼﾓｷﾀﾔﾏﾑﾗ","kana_address":"ｻﾀﾞ","pref":"奈良県","city":"吉野郡下北山村","address":"佐田"},
{"zip_code":"6393806","kana_pref":"ﾅﾗｹﾝ","kana_city":"ﾖｼﾉｸﾞﾝｼﾓｷﾀﾔﾏﾑﾗ","kana_address":"ｼﾓｲｹﾊﾗ","pref":"奈良県","city":"吉野郡下北山村","address":"下池原"},
{"zip_code":"6393807","kana_pref":"ﾅﾗｹﾝ","kana_city":"ﾖｼﾉｸﾞﾝｼﾓｷﾀﾔﾏﾑﾗ","kana_address":"ｼﾓｸﾜﾊﾗ","pref":"奈良県","city":"吉野郡下北山村","address":"下桑原"},
{"zip_code":"6393809","kana_pref":"ﾅﾗｹﾝ","kana_city":"ﾖｼﾉｸﾞﾝｼﾓｷﾀﾔﾏﾑﾗ","kana_address":"ｾﾞﾝｷ","pref":"奈良県","city":"吉野郡下北山村","address":"前鬼"},
{"zip_code":"6393803","kana_pref":"ﾅﾗｹﾝ","kana_city":"ﾖｼﾉｸﾞﾝｼﾓｷﾀﾔﾏﾑﾗ","kana_address":"ﾃﾗｶﾞｲﾄ","pref":"奈良県","city":"吉野郡下北山村","address":"寺垣内"},
{"zip_code":"6393700","kana_pref":"ﾅﾗｹﾝ","kana_city":"ﾖｼﾉｸﾞﾝｶﾐｷﾀﾔﾏﾑﾗ","kana_address":"","pref":"奈良県","city":"吉野郡上北山村","address":""},
{"zip_code":"6393701","kana_pref":"ﾅﾗｹﾝ","kana_city":"ﾖｼﾉｸﾞﾝｶﾐｷﾀﾔﾏﾑﾗ","kana_address":"ｶﾜｲ","pref":"奈良県","city":"吉野郡上北山村","address":"河合"},
{"zip_code":"6393702","kana_pref":"ﾅﾗｹﾝ","kana_city":"ﾖｼﾉｸﾞﾝｶﾐｷﾀﾔﾏﾑﾗ","kana_address":"ｺﾄﾁ","pref":"奈良県","city":"吉野郡上北山村","address":"小橡"},
{"zip_code":"6393703","kana_pref":"ﾅﾗｹﾝ","kana_city":"ﾖｼﾉｸﾞﾝｶﾐｷﾀﾔﾏﾑﾗ","kana_address":"ｼﾗｶﾜ","pref":"奈良県","city":"吉野郡上北山村","address":"白川"},
{"zip_code":"6393704","kana_pref":"ﾅﾗｹﾝ","kana_city":"ﾖｼﾉｸﾞﾝｶﾐｷﾀﾔﾏﾑﾗ","kana_address":"ﾆｼﾊﾗ","pref":"奈良県","city":"吉野郡上北山村","address":"西原"},
{"zip_code":"6393705","kana_pref":"ﾅﾗｹﾝ","kana_city":"ﾖｼﾉｸﾞﾝｶﾐｷﾀﾔﾏﾑﾗ","kana_address":"ﾋｶﾞｼﾉｶﾜ","pref":"奈良県","city":"吉野郡上北山村","address":"東ノ川"},
{"zip_code":"6393500","kana_pref":"ﾅﾗｹﾝ","kana_city":"ﾖｼﾉｸﾞﾝｶﾜｶﾐﾑﾗ","kana_address":"","pref":"奈良県","city":"吉野郡川上村","address":""},
{"zip_code":"6393623","kana_pref":"ﾅﾗｹﾝ","kana_city":"ﾖｼﾉｸﾞﾝｶﾜｶﾐﾑﾗ","kana_address":"ｲｶﾘ","pref":"奈良県","city":"吉野郡川上村","address":"井光"},
{"zip_code":"6393622","kana_pref":"ﾅﾗｹﾝ","kana_city":"ﾖｼﾉｸﾞﾝｶﾜｶﾐﾑﾗ","kana_address":"ｲﾄﾞ","pref":"奈良県","city":"吉野郡川上村","address":"井戸"},
{"zip_code":"6393558","kana_pref":"ﾅﾗｹﾝ","kana_city":"ﾖｼﾉｸﾞﾝｶﾜｶﾐﾑﾗ","kana_address":"ｲﾄﾞ","pref":"奈良県","city":"吉野郡川上村","address":"井戸"},
{"zip_code":"6393541","kana_pref":"ﾅﾗｹﾝ","kana_city":"ﾖｼﾉｸﾞﾝｶﾜｶﾐﾑﾗ","kana_address":"ｳﾉｶﾞﾜ","pref":"奈良県","city":"吉野郡川上村","address":"東川"},
{"zip_code":"6393612","kana_pref":"ﾅﾗｹﾝ","kana_city":"ﾖｼﾉｸﾞﾝｶﾜｶﾐﾑﾗ","kana_address":"ｵｵｻｺ","pref":"奈良県","city":"吉野郡川上村","address":"大迫"},
{"zip_code":"6393543","kana_pref":"ﾅﾗｹﾝ","kana_city":"ﾖｼﾉｸﾞﾝｶﾜｶﾐﾑﾗ","kana_address":"ｵｵﾀｷ","pref":"奈良県","city":"吉野郡川上村","address":"大滝"},
{"zip_code":"6393613","kana_pref":"ﾅﾗｹﾝ","kana_city":"ﾖｼﾉｸﾞﾝｶﾜｶﾐﾑﾗ","kana_address":"ｵﾊﾞﾀﾆ","pref":"奈良県","city":"吉野郡川上村","address":"伯母谷"},
{"zip_code":"6393601","kana_pref":"ﾅﾗｹﾝ","kana_city":"ﾖｼﾉｸﾞﾝｶﾜｶﾐﾑﾗ","kana_address":"ｶｼﾜｷﾞ","pref":"奈良県","city":"吉野郡川上村","address":"柏木"},
{"zip_code":"6393552","kana_pref":"ﾅﾗｹﾝ","kana_city":"ﾖｼﾉｸﾞﾝｶﾜｶﾐﾑﾗ","kana_address":"ｷﾀｼｵﾀﾞﾆ","pref":"奈良県","city":"吉野郡川上村","address":"北塩谷"},
{"zip_code":"6393603","kana_pref":"ﾅﾗｹﾝ","kana_city":"ﾖｼﾉｸﾞﾝｶﾜｶﾐﾑﾗ","kana_address":"ｷﾀﾜﾀﾞ","pref":"奈良県","city":"吉野郡川上村","address":"北和田"},
{"zip_code":"6393602","kana_pref":"ﾅﾗｹﾝ","kana_city":"ﾖｼﾉｸﾞﾝｶﾜｶﾐﾑﾗ","kana_address":"ｺｳﾀﾞｺ","pref":"奈良県","city":"吉野郡川上村","address":"上多古"},
{"zip_code":"6393604","kana_pref":"ﾅﾗｹﾝ","kana_city":"ﾖｼﾉｸﾞﾝｶﾜｶﾐﾑﾗ","kana_address":"ｺｳﾀﾞﾆ","pref":"奈良県","city":"吉野郡川上村","address":"上谷"},
{"zip_code":"6393635","kana_pref":"ﾅﾗｹﾝ","kana_city":"ﾖｼﾉｸﾞﾝｶﾜｶﾐﾑﾗ","kana_address":"ｺｳﾉﾀﾆ","pref":"奈良県","city":"吉野郡川上村","address":"神之谷"},
{"zip_code":"6393553","kana_pref":"ﾅﾗｹﾝ","kana_city":"ﾖｼﾉｸﾞﾝｶﾜｶﾐﾑﾗ","kana_address":"ｻｺ","pref":"奈良県","city":"吉野郡川上村","address":"迫"},
{"zip_code":"6393611","kana_pref":"ﾅﾗｹﾝ","kana_city":"ﾖｼﾉｸﾞﾝｶﾜｶﾐﾑﾗ","kana_address":"ｼｵﾉﾊ","pref":"奈良県","city":"吉野郡川上村","address":"入之波"},
{"zip_code":"6393621","kana_pref":"ﾅﾗｹﾝ","kana_city":"ﾖｼﾉｸﾞﾝｶﾜｶﾐﾑﾗ","kana_address":"ｼﾓﾀｺ","pref":"奈良県","city":"吉野郡川上村","address":"下多古"},
{"zip_code":"6393631","kana_pref":"ﾅﾗｹﾝ","kana_city":"ﾖｼﾉｸﾞﾝｶﾜｶﾐﾑﾗ","kana_address":"ｼﾗｶﾜﾄﾞ","pref":"奈良県","city":"吉野郡川上村","address":"白川渡"},
{"zip_code":"6393555","kana_pref":"ﾅﾗｹﾝ","kana_city":"ﾖｼﾉｸﾞﾝｶﾜｶﾐﾑﾗ","kana_address":"ｼﾗﾔ","pref":"奈良県","city":"吉野郡川上村","address":"白屋"},
{"zip_code":"6393634","kana_pref":"ﾅﾗｹﾝ","kana_city":"ﾖｼﾉｸﾞﾝｶﾜｶﾐﾑﾗ","kana_address":"ｾﾄ","pref":"奈良県","city":"吉野郡川上村","address":"瀬戸"},
{"zip_code":"6393632","kana_pref":"ﾅﾗｹﾝ","kana_city":"ﾖｼﾉｸﾞﾝｶﾜｶﾐﾑﾗ","kana_address":"ｿｷﾞｵ","pref":"奈良県","city":"吉野郡川上村","address":"枌尾"},
{"zip_code":"6393554","kana_pref":"ﾅﾗｹﾝ","kana_city":"ﾖｼﾉｸﾞﾝｶﾜｶﾐﾑﾗ","kana_address":"ﾀｶﾊﾗ","pref":"奈良県","city":"吉野郡川上村","address":"高原"},
{"zip_code":"6393556","kana_pref":"ﾅﾗｹﾝ","kana_city":"ﾖｼﾉｸﾞﾝｶﾜｶﾐﾑﾗ","kana_address":"ﾀｶﾊﾗﾄﾞﾊﾞ","pref":"奈良県","city":"吉野郡川上村","address":"高原土場"},
{"zip_code":"6393622","kana_pref":"ﾅﾗｹﾝ","kana_city":"ﾖｼﾉｸﾞﾝｶﾜｶﾐﾑﾗ","kana_address":"ﾀｷｷﾞ","pref":"奈良県","city":"吉野郡川上村","address":"武木"},
{"zip_code":"6393551","kana_pref":"ﾅﾗｹﾝ","kana_city":"ﾖｼﾉｸﾞﾝｶﾜｶﾐﾑﾗ","kana_address":"ﾃﾗｵ","pref":"奈良県","city":"吉野郡川上村","address":"寺尾"},
{"zip_code":"6393633","kana_pref":"ﾅﾗｹﾝ","kana_city":"ﾖｼﾉｸﾞﾝｶﾜｶﾐﾑﾗ","kana_address":"ﾅｶｵｸ","pref":"奈良県","city":"吉野郡川上村","address":"中奥"},
{"zip_code":"6393542","kana_pref":"ﾅﾗｹﾝ","kana_city":"ﾖｼﾉｸﾞﾝｶﾜｶﾐﾑﾗ","kana_address":"ﾆｼｶﾞﾜ","pref":"奈良県","city":"吉野郡川上村","address":"西河"},
{"zip_code":"6393557","kana_pref":"ﾅﾗｹﾝ","kana_city":"ﾖｼﾉｸﾞﾝｶﾜｶﾐﾑﾗ","kana_address":"ﾋﾄｼﾞ","pref":"奈良県","city":"吉野郡川上村","address":"人知"}]}