{"zip_code":[
{"zip_code":"6400000","kana_pref":"ﾜｶﾔﾏｹﾝ","kana_city":"ﾜｶﾔﾏｼ","kana_address":"","pref":"和歌山県","city":"和歌山市","address":""},
{"zip_code":"6408273","kana_pref":"ﾜｶﾔﾏｹﾝ","kana_city":"ﾜｶﾔﾏｼ","kana_address":"ｱｵｲﾁｮｳ","pref":"和歌山県","city":"和歌山市","address":"葵町"},
{"zip_code":"6408322","kana_pref":"ﾜｶﾔﾏｹﾝ","kana_city":"ﾜｶﾔﾏｼ","kana_address":"ｱｷﾂﾞｷ","pref":"和歌山県","city":"和歌山市","address":"秋月"},
{"zip_code":"6400344","kana_pref":"ﾜｶﾔﾏｹﾝ","kana_city":"ﾜｶﾔﾏｼ","kana_address":"ｱｻﾋ","pref":"和歌山県","city":"和歌山市","address":"朝日"},
{"zip_code":"6408134","kana_pref":"ﾜｶﾔﾏｹﾝ","kana_city":"ﾜｶﾔﾏｼ","kana_address":"ｱｼﾍﾞﾁｮｳ","pref":"和歌山県","city":"和歌山市","address":"芦辺丁"},
{"zip_code":"6408238","kana_pref":"ﾜｶﾔﾏｹﾝ","kana_city":"ﾜｶﾔﾏｼ","kana_address":"ｱﾐﾔﾏﾁ","pref":"和歌山県","city":"和歌山市","address":"網屋町"},
{"zip_code":"6408316","kana_pref":"ﾜｶﾔﾏｹﾝ","kana_city":"ﾜｶﾔﾏｼ","kana_address":"ｱﾘｴ","pref":"和歌山県","city":"和歌山市","address":"有家"},
{"zip_code":"6408248","kana_pref":"ﾜｶﾔﾏｹﾝ","kana_city":"ﾜｶﾔﾏｼ","kana_address":"ｱﾘﾀﾞﾔﾏﾁ","pref":"和歌山県","city":"和歌山市","address":"有田屋町"},
{"zip_code":"6408246","kana_pref":"ﾜｶﾔﾏｹﾝ","kana_city":"ﾜｶﾔﾏｼ","kana_address":"ｱﾘﾀﾞﾔﾏﾁﾆｼﾉﾁｮｳ","pref":"和歌山県","city":"和歌山市","address":"有田屋町西ノ丁"},
{"zip_code":"6408245","kana_pref":"ﾜｶﾔﾏｹﾝ","kana_city":"ﾜｶﾔﾏｼ","kana_address":"ｱﾘﾀﾞﾔﾏﾁﾐﾅﾐﾉﾁｮｳ","pref":"和歌山県","city":"和歌山市","address":"有田屋町南ノ丁"},
{"zip_code":"6408390","kana_pref":"ﾜｶﾔﾏｹﾝ","kana_city":"ﾜｶﾔﾏｼ","kana_address":"ｱﾘﾓﾄ","pref":"和歌山県","city":"和歌山市","address":"有本"},
{"zip_code":"6408351","kana_pref":"ﾜｶﾔﾏｹﾝ","kana_city":"ﾜｶﾔﾏｼ","kana_address":"ｱﾛﾁ","pref":"和歌山県","city":"和歌山市","address":"新内"},
{"zip_code":"6408462","kana_pref":"ﾜｶﾔﾏｹﾝ","kana_city":"ﾜｶﾔﾏｼ","kana_address":"ｱﾜ","pref":"和歌山県","city":"和歌山市","address":"粟"},
{"zip_code":"6408201","kana_pref":"ﾜｶﾔﾏｹﾝ","kana_city":"ﾜｶﾔﾏｼ","kana_address":"ｲｼﾊﾞｼﾁｮｳ","pref":"和歌山県","city":"和歌山市","address":"石橋丁"},
{"zip_code":"6400114","kana_pref":"ﾜｶﾔﾏｹﾝ","kana_city":"ﾜｶﾔﾏｼ","kana_address":"ｲｿﾉｳﾗ","pref":"和歌山県","city":"和歌山市","address":"磯の浦"},
{"zip_code":"6408044","kana_pref":"ﾜｶﾔﾏｹﾝ","kana_city":"ﾜｶﾔﾏｼ","kana_address":"ｲﾀﾔﾏﾁ","pref":"和歌山県","city":"和歌山市","address":"板屋町"},
{"zip_code":"6400361","kana_pref":"ﾜｶﾔﾏｹﾝ","kana_city":"ﾜｶﾔﾏｼ","kana_address":"ｲﾀﾞｷｿ","pref":"和歌山県","city":"和歌山市","address":"伊太祈曽"},
{"zip_code":"6408464","kana_pref":"ﾜｶﾔﾏｹﾝ","kana_city":"ﾜｶﾔﾏｼ","kana_address":"ｲﾁｼｮｳｼﾞ","pref":"和歌山県","city":"和歌山市","address":"市小路"},
{"zip_code":"6408146","kana_pref":"ﾜｶﾔﾏｹﾝ","kana_city":"ﾜｶﾔﾏｼ","kana_address":"ｲﾁﾊﾞﾝﾁｮｳ","pref":"和歌山県","city":"和歌山市","address":"一番丁"},
{"zip_code":"6408076","kana_pref":"ﾜｶﾔﾏｹﾝ","kana_city":"ﾜｶﾔﾏｼ","kana_address":"ｲﾂｽｼﾞﾒ","pref":"和歌山県","city":"和歌山市","address":"五筋目"},
{"zip_code":"6400352","kana_pref":"ﾜｶﾔﾏｹﾝ","kana_city":"ﾜｶﾔﾏｼ","kana_address":"ｲﾄﾞ","pref":"和歌山県","city":"和歌山市","address":"井戸"},
{"zip_code":"6408301","kana_pref":"ﾜｶﾔﾏｹﾝ","kana_city":"ﾜｶﾔﾏｼ","kana_address":"ｲﾜｾ","pref":"和歌山県","city":"和歌山市","address":"岩橋"},
{"zip_code":"6408302","kana_pref":"ﾜｶﾔﾏｹﾝ","kana_city":"ﾜｶﾔﾏｼ","kana_address":"ｲﾝﾍﾞ","pref":"和歌山県","city":"和歌山市","address":"井辺"},
{"zip_code":"6408242","kana_pref":"ﾜｶﾔﾏｹﾝ","kana_city":"ﾜｶﾔﾏｼ","kana_address":"ｳｴﾉﾏﾁ","pref":"和歌山県","city":"和歌山市","address":"上野町"},
{"zip_code":"6408298","kana_pref":"ﾜｶﾔﾏｹﾝ","kana_city":"ﾜｶﾔﾏｼ","kana_address":"ｳｴﾏﾂﾁｮｳ","pref":"和歌山県","city":"和歌山市","address":"植松丁"},
{"zip_code":"6408078","kana_pref":"ﾜｶﾔﾏｹﾝ","kana_city":"ﾜｶﾔﾏｼ","kana_address":"ｳｼﾞﾃｯﾎﾟｳﾊﾞ","pref":"和歌山県","city":"和歌山市","address":"宇治鉄砲場"},
{"zip_code":"6408039","kana_pref":"ﾜｶﾔﾏｹﾝ","kana_city":"ﾜｶﾔﾏｼ","kana_address":"ｳｼﾞﾌｸﾛﾏﾁ","pref":"和歌山県","city":"和歌山市","address":"宇治袋町"},
{"zip_code":"6408072","kana_pref":"ﾜｶﾔﾏｹﾝ","kana_city":"ﾜｶﾔﾏｼ","kana_address":"ｳｼﾞﾔｳﾗ","pref":"和歌山県","city":"和歌山市","address":"宇治家裏"},
{"zip_code":"6408071","kana_pref":"ﾜｶﾔﾏｹﾝ","kana_city":"ﾜｶﾔﾏｼ","kana_address":"ｳｼﾞﾔﾌﾞｼﾀ","pref":"和歌山県","city":"和歌山市","address":"宇治薮下"},
{"zip_code":"6408452","kana_pref":"ﾜｶﾔﾏｹﾝ","kana_city":"ﾜｶﾔﾏｼ","kana_address":"ｳﾒﾊﾗ","pref":"和歌山県","city":"和歌山市","address":"梅原"},
{"zip_code":"6408239","kana_pref":"ﾜｶﾔﾏｹﾝ","kana_city":"ﾜｶﾔﾏｼ","kana_address":"ｳﾜﾏﾁ","pref":"和歌山県","city":"和歌山市","address":"上町"},
{"zip_code":"6408335","kana_pref":"ﾜｶﾔﾏｹﾝ","kana_city":"ﾜｶﾔﾏｼ","kana_address":"ｴｻｼﾏﾁ","pref":"和歌山県","city":"和歌山市","address":"餌差町"},
{"zip_code":"6400343","kana_pref":"ﾜｶﾔﾏｹﾝ","kana_city":"ﾜｶﾔﾏｼ","kana_address":"ｴﾅ","pref":"和歌山県","city":"和歌山市","address":"江南"},
{"zip_code":"6408434","kana_pref":"ﾜｶﾔﾏｹﾝ","kana_city":"ﾜｶﾔﾏｼ","kana_address":"ｴﾉｷﾊﾗ","pref":"和歌山県","city":"和歌山市","address":"榎原"},
{"zip_code":"6400101","kana_pref":"ﾜｶﾔﾏｹﾝ","kana_city":"ﾜｶﾔﾏｼ","kana_address":"ｵｵｶﾜ","pref":"和歌山県","city":"和歌山市","address":"大川"},
{"zip_code":"6400316","kana_pref":"ﾜｶﾔﾏｹﾝ","kana_city":"ﾜｶﾔﾏｼ","kana_address":"ｵｵｶﾜﾁ","pref":"和歌山県","city":"和歌山市","address":"大河内"},
{"zip_code":"6408472","kana_pref":"ﾜｶﾔﾏｹﾝ","kana_city":"ﾜｶﾔﾏｼ","kana_address":"ｵｵﾀﾆ","pref":"和歌山県","city":"和歌山市","address":"大谷"},
{"zip_code":"6408323","kana_pref":"ﾜｶﾔﾏｹﾝ","kana_city":"ﾜｶﾔﾏｼ","kana_address":"ｵｵﾀﾞ","pref":"和歌山県","city":"和歌山市","address":"太田"},
{"zip_code":"6408361","kana_pref":"ﾜｶﾔﾏｹﾝ","kana_city":"ﾜｶﾔﾏｼ","kana_address":"ｵｶｴﾝﾌﾟｸｲﾝﾋｶﾞｼﾉﾁｮｳ","pref":"和歌山県","city":"和歌山市","address":"岡円福院東ノ丁"},
{"zip_code":"6408364","kana_pref":"ﾜｶﾔﾏｹﾝ","kana_city":"ﾜｶﾔﾏｼ","kana_address":"ｵｶｴﾝﾌﾟｸｲﾝﾆｼﾉﾁｮｳ","pref":"和歌山県","city":"和歌山市","address":"岡円福院西ノ丁"},
{"zip_code":"6408362","kana_pref":"ﾜｶﾔﾏｹﾝ","kana_city":"ﾜｶﾔﾏｼ","kana_address":"ｵｶｵﾘﾔｼｮｳｼﾞ","pref":"和歌山県","city":"和歌山市","address":"岡織屋小路"},
{"zip_code":"6408365","kana_pref":"ﾜｶﾔﾏｹﾝ","kana_city":"ﾜｶﾔﾏｼ","kana_address":"ｵｶｷﾀﾉﾁｮｳ","pref":"和歌山県","city":"和歌山市","address":"岡北ノ丁"},
{"zip_code":"6408363","kana_pref":"ﾜｶﾔﾏｹﾝ","kana_city":"ﾜｶﾔﾏｼ","kana_address":"ｵｶﾐﾅﾐﾉﾁｮｳ","pref":"和歌山県","city":"和歌山市","address":"岡南ノ丁"},
{"zip_code":"6408145","kana_pref":"ﾜｶﾔﾏｹﾝ","kana_city":"ﾜｶﾔﾏｼ","kana_address":"ｵｶﾔﾏﾁｮｳ","pref":"和歌山県","city":"和歌山市","address":"岡山丁"},
{"zip_code":"6400362","kana_pref":"ﾜｶﾔﾏｹﾝ","kana_city":"ﾜｶﾔﾏｼ","kana_address":"ｵｸｽﾞｻ","pref":"和歌山県","city":"和歌山市","address":"奥須佐"},
{"zip_code":"6408271","kana_pref":"ﾜｶﾔﾏｹﾝ","kana_city":"ﾜｶﾔﾏｼ","kana_address":"ｵｻﾞｷﾁｮｳ","pref":"和歌山県","city":"和歌山市","address":"尾崎丁"},
{"zip_code":"6408230","kana_pref":"ﾜｶﾔﾏｹﾝ","kana_city":"ﾜｶﾔﾏｼ","kana_address":"ｵﾉｼﾊﾞﾁｮｳ","pref":"和歌山県","city":"和歌山市","address":"男野芝丁"},
{"zip_code":"6408224","kana_pref":"ﾜｶﾔﾏｹﾝ","kana_city":"ﾜｶﾔﾏｼ","kana_address":"ｵﾉﾏﾁ","pref":"和歌山県","city":"和歌山市","address":"小野町"},
{"zip_code":"6408124","kana_pref":"ﾜｶﾔﾏｹﾝ","kana_city":"ﾜｶﾔﾏｼ","kana_address":"ｵﾏﾂﾁｮｳ","pref":"和歌山県","city":"和歌山市","address":"雄松町"},
{"zip_code":"6408073","kana_pref":"ﾜｶﾔﾏｹﾝ","kana_city":"ﾜｶﾔﾏｼ","kana_address":"ｶｹﾂﾞｸﾘﾁｮｳ","pref":"和歌山県","city":"和歌山市","address":"嘉家作丁"},
{"zip_code":"6408293","kana_pref":"ﾜｶﾔﾏｹﾝ","kana_city":"ﾜｶﾔﾏｼ","kana_address":"ｶｺﾞﾏﾁ","pref":"和歌山県","city":"和歌山市","address":"駕町"},
{"zip_code":"6408139","kana_pref":"ﾜｶﾔﾏｹﾝ","kana_city":"ﾜｶﾔﾏｼ","kana_address":"ｶﾀｵｶﾁｮｳ","pref":"和歌山県","city":"和歌山市","address":"片岡町"},
{"zip_code":"6400103","kana_pref":"ﾜｶﾔﾏｹﾝ","kana_city":"ﾜｶﾔﾏｼ","kana_address":"ｶﾀﾞ","pref":"和歌山県","city":"和歌山市","address":"加太"},
{"zip_code":"6408243","kana_pref":"ﾜｶﾔﾏｹﾝ","kana_city":"ﾜｶﾔﾏｼ","kana_address":"ｶﾁﾏﾁ","pref":"和歌山県","city":"和歌山市","address":"徒町"},
{"zip_code":"6408391","kana_pref":"ﾜｶﾔﾏｹﾝ","kana_city":"ﾜｶﾔﾏｼ","kana_address":"ｶﾉｳ","pref":"和歌山県","city":"和歌山市","address":"加納"},
{"zip_code":"6408288","kana_pref":"ﾜｶﾔﾏｹﾝ","kana_city":"ﾜｶﾔﾏｼ","kana_address":"ｶﾉｳﾏﾁ","pref":"和歌山県","city":"和歌山市","address":"加納町"},
{"zip_code":"6408411","kana_pref":"ﾜｶﾔﾏｹﾝ","kana_city":"ﾜｶﾔﾏｼ","kana_address":"ｶﾝﾄﾞﾘ","pref":"和歌山県","city":"和歌山市","address":"梶取"},
{"zip_code":"6408253","kana_pref":"ﾜｶﾔﾏｹﾝ","kana_city":"ﾜｶﾔﾏｼ","kana_address":"ｷﾀｱｲｵｲﾁｮｳ","pref":"和歌山県","city":"和歌山市","address":"北相生丁"},
{"zip_code":"6408299","kana_pref":"ﾜｶﾔﾏｹﾝ","kana_city":"ﾜｶﾔﾏｼ","kana_address":"ｷﾀｳｼﾏﾁ","pref":"和歌山県","city":"和歌山市","address":"北牛町"},
{"zip_code":"6408020","kana_pref":"ﾜｶﾔﾏｹﾝ","kana_city":"ﾜｶﾔﾏｼ","kana_address":"ｷﾀｵｹﾔﾏﾁ","pref":"和歌山県","city":"和歌山市","address":"北桶屋町"},
{"zip_code":"6408103","kana_pref":"ﾜｶﾔﾏｹﾝ","kana_city":"ﾜｶﾔﾏｼ","kana_address":"ｷﾀｷｭｳｶﾏﾁ","pref":"和歌山県","city":"和歌山市","address":"北休賀町"},
{"zip_code":"6408062","kana_pref":"ﾜｶﾔﾏｹﾝ","kana_city":"ﾜｶﾔﾏｼ","kana_address":"ｷﾀｸｷﾞﾇｷﾁｮｳ","pref":"和歌山県","city":"和歌山市","address":"北釘貫丁"},
{"zip_code":"6408118","kana_pref":"ﾜｶﾔﾏｹﾝ","kana_city":"ﾜｶﾔﾏｼ","kana_address":"ｷﾀｻｲｸﾏﾁ","pref":"和歌山県","city":"和歌山市","address":"北細工町"},
{"zip_code":"6408233","kana_pref":"ﾜｶﾔﾏｹﾝ","kana_city":"ﾜｶﾔﾏｼ","kana_address":"ｷﾀｻｶﾉｳｴﾁｮｳ","pref":"和歌山県","city":"和歌山市","address":"北坂ノ上丁"},
{"zip_code":"6408002","kana_pref":"ﾜｶﾔﾏｹﾝ","kana_city":"ﾜｶﾔﾏｼ","kana_address":"ｷﾀｼﾝ","pref":"和歌山県","city":"和歌山市","address":"北新"},
{"zip_code":"6408017","kana_pref":"ﾜｶﾔﾏｹﾝ","kana_city":"ﾜｶﾔﾏｼ","kana_address":"ｷﾀｼﾝｴﾋﾞｽﾉﾁｮｳ","pref":"和歌山県","city":"和歌山市","address":"北新戎ノ丁"},
{"zip_code":"6408015","kana_pref":"ﾜｶﾔﾏｹﾝ","kana_city":"ﾜｶﾔﾏｼ","kana_address":"ｷﾀｼﾝｵｹﾔﾏﾁ","pref":"和歌山県","city":"和歌山市","address":"北新桶屋町"},
{"zip_code":"6408012","kana_pref":"ﾜｶﾔﾏｹﾝ","kana_city":"ﾜｶﾔﾏｼ","kana_address":"ｷﾀｼﾝｶﾅﾔﾁｮｳ","pref":"和歌山県","city":"和歌山市","address":"北新金屋丁"},
{"zip_code":"6408001","kana_pref":"ﾜｶﾔﾏｹﾝ","kana_city":"ﾜｶﾔﾏｼ","kana_address":"ｷﾀｼﾝｼﾁｹﾝﾁｮｳ","pref":"和歌山県","city":"和歌山市","address":"北新七軒丁"},
{"zip_code":"6408016","kana_pref":"ﾜｶﾔﾏｹﾝ","kana_city":"ﾜｶﾔﾏｼ","kana_address":"ｷﾀｼﾝﾅｶﾉﾁｮｳ","pref":"和歌山県","city":"和歌山市","address":"北新中ノ丁"},
{"zip_code":"6408003","kana_pref":"ﾜｶﾔﾏｹﾝ","kana_city":"ﾜｶﾔﾏｼ","kana_address":"ｷﾀｼﾝﾊﾞｸﾛｳﾏﾁ","pref":"和歌山県","city":"和歌山市","address":"北新博労町"},
{"zip_code":"6408011","kana_pref":"ﾜｶﾔﾏｹﾝ","kana_city":"ﾜｶﾔﾏｼ","kana_address":"ｷﾀｼﾝﾓﾄｶﾅﾔﾁｮｳ","pref":"和歌山県","city":"和歌山市","address":"北新元金屋丁"},
{"zip_code":"6408403","kana_pref":"ﾜｶﾔﾏｹﾝ","kana_city":"ﾜｶﾔﾏｼ","kana_address":"ｷﾀｼﾞﾏ","pref":"和歌山県","city":"和歌山市","address":"北島"},
{"zip_code":"6408291","kana_pref":"ﾜｶﾔﾏｹﾝ","kana_city":"ﾜｶﾔﾏｼ","kana_address":"ｷﾀｼﾞﾝｺﾞﾍﾞｴﾁｮｳ","pref":"和歌山県","city":"和歌山市","address":"北甚五兵衛丁"},
{"zip_code":"6408252","kana_pref":"ﾜｶﾔﾏｹﾝ","kana_city":"ﾜｶﾔﾏｼ","kana_address":"ｷﾀﾀﾅﾍﾞﾁｮｳ","pref":"和歌山県","city":"和歌山市","address":"北田辺丁"},
{"zip_code":"6408031","kana_pref":"ﾜｶﾔﾏｹﾝ","kana_city":"ﾜｶﾔﾏｼ","kana_address":"ｷﾀﾀﾞｲｸﾏﾁ","pref":"和歌山県","city":"和歌山市","address":"北大工町"},
{"zip_code":"6408294","kana_pref":"ﾜｶﾔﾏｹﾝ","kana_city":"ﾜｶﾔﾏｼ","kana_address":"ｷﾀﾁｭｳｹﾞﾝﾏﾁ","pref":"和歌山県","city":"和歌山市","address":"北中間町"},
{"zip_code":"6408317","kana_pref":"ﾜｶﾔﾏｹﾝ","kana_city":"ﾜｶﾔﾏｼ","kana_address":"ｷﾀﾃﾞｼﾞﾏ","pref":"和歌山県","city":"和歌山市","address":"北出島"},
{"zip_code":"6408296","kana_pref":"ﾜｶﾔﾏｹﾝ","kana_city":"ﾜｶﾔﾏｼ","kana_address":"ｷﾀﾄｻﾁｮｳ","pref":"和歌山県","city":"和歌山市","address":"北土佐丁"},
{"zip_code":"6408355","kana_pref":"ﾜｶﾔﾏｹﾝ","kana_city":"ﾜｶﾔﾏｼ","kana_address":"ｷﾀﾉｼﾝﾁ","pref":"和歌山県","city":"和歌山市","address":"北ノ新地"},
{"zip_code":"6408352","kana_pref":"ﾜｶﾔﾏｹﾝ","kana_city":"ﾜｶﾔﾏｼ","kana_address":"ｷﾀﾉｼﾝﾁｳﾗﾀﾏﾁ","pref":"和歌山県","city":"和歌山市","address":"北ノ新地裏田町"},
{"zip_code":"6408353","kana_pref":"ﾜｶﾔﾏｹﾝ","kana_city":"ﾜｶﾔﾏｼ","kana_address":"ｷﾀﾉｼﾝﾁｴﾉｷﾁｮｳ","pref":"和歌山県","city":"和歌山市","address":"北ノ新地榎丁"},
{"zip_code":"6408356","kana_pref":"ﾜｶﾔﾏｹﾝ","kana_city":"ﾜｶﾔﾏｼ","kana_address":"ｷﾀﾉｼﾝﾁｶﾐﾛｯｹﾝﾁｮｳ","pref":"和歌山県","city":"和歌山市","address":"北ノ新地上六軒丁"},
{"zip_code":"6408357","kana_pref":"ﾜｶﾔﾏｹﾝ","kana_city":"ﾜｶﾔﾏｼ","kana_address":"ｷﾀﾉｼﾝﾁﾅｶﾛｯｹﾝﾁｮｳ","pref":"和歌山県","city":"和歌山市","address":"北ノ新地中六軒丁"},
{"zip_code":"6408358","kana_pref":"ﾜｶﾔﾏｹﾝ","kana_city":"ﾜｶﾔﾏｼ","kana_address":"ｷﾀﾉｼﾝﾁｼﾓﾛｯｹﾝﾁｮｳ","pref":"和歌山県","city":"和歌山市","address":"北ノ新地下六軒丁"},
{"zip_code":"6408359","kana_pref":"ﾜｶﾔﾏｹﾝ","kana_city":"ﾜｶﾔﾏｼ","kana_address":"ｷﾀﾉｼﾝﾁﾀﾏﾁ","pref":"和歌山県","city":"和歌山市","address":"北ノ新地田町"},
{"zip_code":"6408354","kana_pref":"ﾜｶﾔﾏｹﾝ","kana_city":"ﾜｶﾔﾏｼ","kana_address":"ｷﾀﾉｼﾝﾁﾋｶﾞｼﾉﾁｮｳ","pref":"和歌山県","city":"和歌山市","address":"北ノ新地東ノ丁"},
{"zip_code":"6408350","kana_pref":"ﾜｶﾔﾏｹﾝ","kana_city":"ﾜｶﾔﾏｼ","kana_address":"ｷﾀﾉｼﾝﾁﾌﾝﾄﾞｳﾁｮｳ","pref":"和歌山県","city":"和歌山市","address":"北ノ新地分銅丁"},
{"zip_code":"6408038","kana_pref":"ﾜｶﾔﾏｹﾝ","kana_city":"ﾜｶﾔﾏｼ","kana_address":"ｷﾀﾏﾁ","pref":"和歌山県","city":"和歌山市","address":"北町"},
{"zip_code":"6408231","kana_pref":"ﾜｶﾔﾏｹﾝ","kana_city":"ﾜｶﾔﾏｼ","kana_address":"ｷﾀﾐｷﾞﾜﾁｮｳ","pref":"和歌山県","city":"和歌山市","address":"北汀丁"},
{"zip_code":"6408412","kana_pref":"ﾜｶﾔﾏｹﾝ","kana_city":"ﾜｶﾔﾏｼ","kana_address":"ｷﾂﾈｼﾞﾏ","pref":"和歌山県","city":"和歌山市","address":"狐島"},
{"zip_code":"6408453","kana_pref":"ﾜｶﾔﾏｹﾝ","kana_city":"ﾜｶﾔﾏｼ","kana_address":"ｷﾉﾓﾄ","pref":"和歌山県","city":"和歌山市","address":"木ノ本"},
{"zip_code":"6408328","kana_pref":"ﾜｶﾔﾏｹﾝ","kana_city":"ﾜｶﾔﾏｼ","kana_address":"ｷﾋﾛﾁｮｳ","pref":"和歌山県","city":"和歌山市","address":"木広町"},
{"zip_code":"6408244","kana_pref":"ﾜｶﾔﾏｹﾝ","kana_city":"ﾜｶﾔﾏｼ","kana_address":"ｷｭｳｴﾓﾝﾁｮｳ","pref":"和歌山県","city":"和歌山市","address":"久右衛門丁"},
{"zip_code":"6408155","kana_pref":"ﾜｶﾔﾏｹﾝ","kana_city":"ﾜｶﾔﾏｼ","kana_address":"ｷｭｳﾊﾞﾝﾁｮｳ","pref":"和歌山県","city":"和歌山市","address":"九番丁"},
{"zip_code":"6400351","kana_pref":"ﾜｶﾔﾏｹﾝ","kana_city":"ﾜｶﾔﾏｼ","kana_address":"ｷﾚ","pref":"和歌山県","city":"和歌山市","address":"吉礼"},
{"zip_code":"6408274","kana_pref":"ﾜｶﾔﾏｹﾝ","kana_city":"ﾜｶﾔﾏｼ","kana_address":"ｷﾝﾘｭｳｼﾞﾁｮｳ","pref":"和歌山県","city":"和歌山市","address":"金龍寺丁"},
{"zip_code":"6408055","kana_pref":"ﾜｶﾔﾏｹﾝ","kana_city":"ﾜｶﾔﾏｼ","kana_address":"ｸｹﾉﾁｮｳ","pref":"和歌山県","city":"和歌山市","address":"九家ノ丁"},
{"zip_code":"6408332","kana_pref":"ﾜｶﾔﾏｹﾝ","kana_city":"ﾜｶﾔﾏｼ","kana_address":"ｸｽｴﾓﾝｼｮｳｼﾞ","pref":"和歌山県","city":"和歌山市","address":"楠右衛門小路"},
{"zip_code":"6408463","kana_pref":"ﾜｶﾔﾏｹﾝ","kana_city":"ﾜｶﾔﾏｼ","kana_address":"ｸｽﾐﾅｶ","pref":"和歌山県","city":"和歌山市","address":"楠見中"},
{"zip_code":"6400364","kana_pref":"ﾜｶﾔﾏｹﾝ","kana_city":"ﾜｶﾔﾏｼ","kana_address":"ｸﾁｽﾞｻ","pref":"和歌山県","city":"和歌山市","address":"口須佐"},
{"zip_code":"6408225","kana_pref":"ﾜｶﾔﾏｹﾝ","kana_city":"ﾜｶﾔﾏｼ","kana_address":"ｸﾎﾞﾁｮｳ","pref":"和歌山県","city":"和歌山市","address":"久保丁"},
{"zip_code":"6408333","kana_pref":"ﾜｶﾔﾏｹﾝ","kana_city":"ﾜｶﾔﾏｼ","kana_address":"ｸﾗｼｮｳｼﾞ","pref":"和歌山県","city":"和歌山市","address":"蔵小路"},
{"zip_code":"6408305","kana_pref":"ﾜｶﾔﾏｹﾝ","kana_city":"ﾜｶﾔﾏｼ","kana_address":"ｸﾙｽ","pref":"和歌山県","city":"和歌山市","address":"栗栖"},
{"zip_code":"6400311","kana_pref":"ﾜｶﾔﾏｹﾝ","kana_city":"ﾜｶﾔﾏｼ","kana_address":"ｸﾛｲﾜ","pref":"和歌山県","city":"和歌山市","address":"黒岩"},
{"zip_code":"6408341","kana_pref":"ﾜｶﾔﾏｹﾝ","kana_city":"ﾜｶﾔﾏｼ","kana_address":"ｸﾛﾀﾞ","pref":"和歌山県","city":"和歌山市","address":"黒田"},
{"zip_code":"6400312","kana_pref":"ﾜｶﾔﾏｹﾝ","kana_city":"ﾜｶﾔﾏｼ","kana_address":"ｸﾛﾀﾞﾆ","pref":"和歌山県","city":"和歌山市","address":"黒谷"},
{"zip_code":"6400345","kana_pref":"ﾜｶﾔﾏｹﾝ","kana_city":"ﾜｶﾔﾏｼ","kana_address":"ｸﾜﾔﾏ","pref":"和歌山県","city":"和歌山市","address":"桑山"},
{"zip_code":"6408337","kana_pref":"ﾜｶﾔﾏｹﾝ","kana_city":"ﾜｶﾔﾏｼ","kana_address":"ｹｶﾞﾜﾔﾁｮｳ","pref":"和歌山県","city":"和歌山市","address":"毛革屋丁"},
{"zip_code":"6408220","kana_pref":"ﾜｶﾔﾏｹﾝ","kana_city":"ﾜｶﾔﾏｼ","kana_address":"ｹﾞﾉﾏﾁ","pref":"和歌山県","city":"和歌山市","address":"下町"},
{"zip_code":"6408075","kana_pref":"ﾜｶﾔﾏｹﾝ","kana_city":"ﾜｶﾔﾏｼ","kana_address":"ｹﾞﾝｿﾞｳﾊﾞﾊﾞ","pref":"和歌山県","city":"和歌山市","address":"源蔵馬場"},
{"zip_code":"6408314","kana_pref":"ﾜｶﾔﾏｹﾝ","kana_city":"ﾜｶﾔﾏｼ","kana_address":"ｺｳｻﾞｷ","pref":"和歌山県","city":"和歌山市","address":"神前"},
{"zip_code":"6400323","kana_pref":"ﾜｶﾔﾏｹﾝ","kana_city":"ﾜｶﾔﾏｼ","kana_address":"ｺｾﾞﾀ","pref":"和歌山県","city":"和歌山市","address":"小瀬田"},
{"zip_code":"6408141","kana_pref":"ﾜｶﾔﾏｹﾝ","kana_city":"ﾜｶﾔﾏｼ","kana_address":"ｺﾞﾊﾞﾝﾁｮｳ","pref":"和歌山県","city":"和歌山市","address":"五番丁"},
{"zip_code":"6408373","kana_pref":"ﾜｶﾔﾏｹﾝ","kana_city":"ﾜｶﾔﾏｼ","kana_address":"ｺﾋﾞｷﾁｮｳ","pref":"和歌山県","city":"和歌山市","address":"木挽丁"},
{"zip_code":"6408226","kana_pref":"ﾜｶﾔﾏｹﾝ","kana_city":"ﾜｶﾔﾏｼ","kana_address":"ｺﾋﾞﾄﾏﾁ","pref":"和歌山県","city":"和歌山市","address":"小人町"},
{"zip_code":"6408228","kana_pref":"ﾜｶﾔﾏｹﾝ","kana_city":"ﾜｶﾔﾏｼ","kana_address":"ｺﾋﾞﾄﾏﾁﾐﾅﾐﾉﾁｮｳ","pref":"和歌山県","city":"和歌山市","address":"小人町南ノ丁"},
{"zip_code":"6400301","kana_pref":"ﾜｶﾔﾏｹﾝ","kana_city":"ﾜｶﾔﾏｼ","kana_address":"ｺﾏｸﾗ","pref":"和歌山県","city":"和歌山市","address":"木枕"},
{"zip_code":"6408265","kana_pref":"ﾜｶﾔﾏｹﾝ","kana_city":"ﾜｶﾔﾏｼ","kana_address":"ｺﾏﾂﾊﾞﾗ","pref":"和歌山県","city":"和歌山市","address":"小松原"},
{"zip_code":"6408269","kana_pref":"ﾜｶﾔﾏｹﾝ","kana_city":"ﾜｶﾔﾏｼ","kana_address":"ｺﾏﾂﾊﾞﾗﾄﾞｵﾘ","pref":"和歌山県","city":"和歌山市","address":"小松原通"},
{"zip_code":"6408027","kana_pref":"ﾜｶﾔﾏｹﾝ","kana_city":"ﾜｶﾔﾏｼ","kana_address":"ｺﾒﾔﾏﾁ","pref":"和歌山県","city":"和歌山市","address":"米屋町"},
{"zip_code":"6408435","kana_pref":"ﾜｶﾔﾏｹﾝ","kana_city":"ﾜｶﾔﾏｼ","kana_address":"ｺﾔ","pref":"和歌山県","city":"和歌山市","address":"古屋"},
{"zip_code":"6408108","kana_pref":"ﾜｶﾔﾏｹﾝ","kana_city":"ﾜｶﾔﾏｼ","kana_address":"ｻｲｶﾏﾁ","pref":"和歌山県","city":"和歌山市","address":"雑賀町"},
{"zip_code":"6408121","kana_pref":"ﾜｶﾔﾏｹﾝ","kana_city":"ﾜｶﾔﾏｼ","kana_address":"ｻｲｶﾐﾁ","pref":"和歌山県","city":"和歌山市","address":"雑賀道"},
{"zip_code":"6408249","kana_pref":"ﾜｶﾔﾏｹﾝ","kana_city":"ﾜｶﾔﾏｼ","kana_address":"ｻｲｶﾔﾏﾁ","pref":"和歌山県","city":"和歌山市","address":"雑賀屋町"},
{"zip_code":"6408241","kana_pref":"ﾜｶﾔﾏｹﾝ","kana_city":"ﾜｶﾔﾏｼ","kana_address":"ｻｲｶﾔﾏﾁﾋｶﾞｼﾉﾁｮｳ","pref":"和歌山県","city":"和歌山市","address":"雑賀屋町東ノ丁"},
{"zip_code":"6408237","kana_pref":"ﾜｶﾔﾏｹﾝ","kana_city":"ﾜｶﾔﾏｼ","kana_address":"ｻﾞｲﾓｸﾁｮｳ","pref":"和歌山県","city":"和歌山市","address":"材木丁"},
{"zip_code":"6400313","kana_pref":"ﾜｶﾔﾏｹﾝ","kana_city":"ﾜｶﾔﾏｼ","kana_address":"ｻｶｲﾊﾞﾗ","pref":"和歌山県","city":"和歌山市","address":"境原"},
{"zip_code":"6408441","kana_pref":"ﾜｶﾔﾏｹﾝ","kana_city":"ﾜｶﾔﾏｼ","kana_address":"ｻｶｴﾀﾞﾆ","pref":"和歌山県","city":"和歌山市","address":"栄谷"},
{"zip_code":"6408053","kana_pref":"ﾜｶﾔﾏｹﾝ","kana_city":"ﾜｶﾔﾏｼ","kana_address":"ｻｷﾞﾉﾓﾘ","pref":"和歌山県","city":"和歌山市","address":"鷺ノ森"},
{"zip_code":"6408054","kana_pref":"ﾜｶﾔﾏｹﾝ","kana_city":"ﾜｶﾔﾏｼ","kana_address":"ｻｷﾞﾉﾓﾘｶﾀﾏﾁ","pref":"和歌山県","city":"和歌山市","address":"鷺ノ森片町"},
{"zip_code":"6408057","kana_pref":"ﾜｶﾔﾏｹﾝ","kana_city":"ﾜｶﾔﾏｼ","kana_address":"ｻｷﾞﾉﾓﾘｼﾝﾐﾁ","pref":"和歌山県","city":"和歌山市","address":"鷺ノ森新道"},
{"zip_code":"6408052","kana_pref":"ﾜｶﾔﾏｹﾝ","kana_city":"ﾜｶﾔﾏｼ","kana_address":"ｻｷﾞﾉﾓﾘﾄﾞｳﾏｴﾁｮｳ","pref":"和歌山県","city":"和歌山市","address":"鷺ノ森堂前丁"},
{"zip_code":"6408058","kana_pref":"ﾜｶﾔﾏｹﾝ","kana_city":"ﾜｶﾔﾏｼ","kana_address":"ｻｷﾞﾉﾓﾘﾅｶﾉﾁｮｳ","pref":"和歌山県","city":"和歌山市","address":"鷺ノ森中ノ丁"},
{"zip_code":"6408051","kana_pref":"ﾜｶﾔﾏｹﾝ","kana_city":"ﾜｶﾔﾏｼ","kana_address":"ｻｷﾞﾉﾓﾘﾋｶﾞｼﾉﾁｮｳ","pref":"和歌山県","city":"和歌山市","address":"鷺ノ森東ノ丁"},
{"zip_code":"6408056","kana_pref":"ﾜｶﾔﾏｹﾝ","kana_city":"ﾜｶﾔﾏｼ","kana_address":"ｻｷﾞﾉﾓﾘﾆｼﾉﾁｮｳ","pref":"和歌山県","city":"和歌山市","address":"鷺ノ森西ノ丁"},
{"zip_code":"6408047","kana_pref":"ﾜｶﾔﾏｹﾝ","kana_city":"ﾜｶﾔﾏｼ","kana_address":"ｻｷﾞﾉﾓﾘﾐﾅﾐﾉﾁｮｳ","pref":"和歌山県","city":"和歌山市","address":"鷺ノ森南ノ丁"},
{"zip_code":"6408059","kana_pref":"ﾜｶﾔﾏｹﾝ","kana_city":"ﾜｶﾔﾏｼ","kana_address":"ｻｷﾞﾉﾓﾘﾐｮｳｼﾞﾝﾁｮｳ","pref":"和歌山県","city":"和歌山市","address":"鷺ノ森明神丁"},
{"zip_code":"6408276","kana_pref":"ﾜｶﾔﾏｹﾝ","kana_city":"ﾜｶﾔﾏｼ","kana_address":"ｻｸｼﾞﾁｮｳ","pref":"和歌山県","city":"和歌山市","address":"作事丁"},
{"zip_code":"6400303","kana_pref":"ﾜｶﾔﾏｹﾝ","kana_city":"ﾜｶﾔﾏｼ","kana_address":"ｻﾝﾄﾞｳﾅｶ","pref":"和歌山県","city":"和歌山市","address":"山東中"},
{"zip_code":"6408142","kana_pref":"ﾜｶﾔﾏｹﾝ","kana_city":"ﾜｶﾔﾏｼ","kana_address":"ｻﾝﾊﾞﾝﾁｮｳ","pref":"和歌山県","city":"和歌山市","address":"三番丁"},
{"zip_code":"6400306","kana_pref":"ﾜｶﾔﾏｹﾝ","kana_city":"ﾜｶﾔﾏｼ","kana_address":"ｼｵﾉﾀﾆ","pref":"和歌山県","city":"和歌山市","address":"塩ノ谷"},
{"zip_code":"6408122","kana_pref":"ﾜｶﾔﾏｹﾝ","kana_city":"ﾜｶﾔﾏｼ","kana_address":"ｼｵﾐﾁｮｳ","pref":"和歌山県","city":"和歌山市","address":"汐見町"},
{"zip_code":"6408156","kana_pref":"ﾜｶﾔﾏｹﾝ","kana_city":"ﾜｶﾔﾏｼ","kana_address":"ｼﾁﾊﾞﾝﾁｮｳ","pref":"和歌山県","city":"和歌山市","address":"七番丁"},
{"zip_code":"6408267","kana_pref":"ﾜｶﾔﾏｹﾝ","kana_city":"ﾜｶﾔﾏｼ","kana_address":"ｼﾊﾞﾉﾁｮｳ","pref":"和歌山県","city":"和歌山市","address":"芝ノ丁"},
{"zip_code":"6408125","kana_pref":"ﾜｶﾔﾏｹﾝ","kana_city":"ﾜｶﾔﾏｼ","kana_address":"ｼﾏｻﾞｷﾁｮｳ","pref":"和歌山県","city":"和歌山市","address":"島崎町"},
{"zip_code":"6408413","kana_pref":"ﾜｶﾔﾏｹﾝ","kana_city":"ﾜｶﾔﾏｼ","kana_address":"ｼﾏﾊﾞｼﾋｶﾞｼﾉﾁｮｳ","pref":"和歌山県","city":"和歌山市","address":"島橋東ノ丁"},
{"zip_code":"6408414","kana_pref":"ﾜｶﾔﾏｹﾝ","kana_city":"ﾜｶﾔﾏｼ","kana_address":"ｼﾏﾊﾞｼﾆｼﾉﾁｮｳ","pref":"和歌山県","city":"和歌山市","address":"島橋西ノ丁"},
{"zip_code":"6408415","kana_pref":"ﾜｶﾔﾏｹﾝ","kana_city":"ﾜｶﾔﾏｼ","kana_address":"ｼﾏﾊﾞｼﾐﾅﾐﾉﾁｮｳ","pref":"和歌山県","city":"和歌山市","address":"島橋南ノ丁"},
{"zip_code":"6408416","kana_pref":"ﾜｶﾔﾏｹﾝ","kana_city":"ﾜｶﾔﾏｼ","kana_address":"ｼﾏﾊﾞｼｷﾀﾉﾁｮｳ","pref":"和歌山県","city":"和歌山市","address":"島橋北ノ丁"},
{"zip_code":"6408074","kana_pref":"ﾜｶﾔﾏｹﾝ","kana_city":"ﾜｶﾔﾏｼ","kana_address":"ｼﾝｷﾞｮﾏﾁ","pref":"和歌山県","city":"和歌山市","address":"新魚町"},
{"zip_code":"6408101","kana_pref":"ﾜｶﾔﾏｹﾝ","kana_city":"ﾜｶﾔﾏｼ","kana_address":"ｼﾝｻｲｶﾏﾁ","pref":"和歌山県","city":"和歌山市","address":"新雑賀町"},
{"zip_code":"6408377","kana_pref":"ﾜｶﾔﾏｹﾝ","kana_city":"ﾜｶﾔﾏｼ","kana_address":"ｼﾝｻｶｲﾁｮｳ","pref":"和歌山県","city":"和歌山市","address":"新堺丁"},
{"zip_code":"6408345","kana_pref":"ﾜｶﾔﾏｹﾝ","kana_city":"ﾜｶﾔﾏｼ","kana_address":"ｼﾝｻﾞｲｹ","pref":"和歌山県","city":"和歌山市","address":"新在家"},
{"zip_code":"6408325","kana_pref":"ﾜｶﾔﾏｹﾝ","kana_city":"ﾜｶﾔﾏｼ","kana_address":"ｼﾝｾｲﾁｮｳ","pref":"和歌山県","city":"和歌山市","address":"新生町"},
{"zip_code":"6408372","kana_pref":"ﾜｶﾔﾏｹﾝ","kana_city":"ﾜｶﾔﾏｼ","kana_address":"ｼﾝﾀﾞｲｸﾏﾁ","pref":"和歌山県","city":"和歌山市","address":"新大工町"},
{"zip_code":"6408111","kana_pref":"ﾜｶﾔﾏｹﾝ","kana_city":"ﾜｶﾔﾏｼ","kana_address":"ｼﾝﾄｵﾘ","pref":"和歌山県","city":"和歌山市","address":"新通"},
{"zip_code":"6408376","kana_pref":"ﾜｶﾔﾏｹﾝ","kana_city":"ﾜｶﾔﾏｼ","kana_address":"ｼﾝﾅｶﾄﾞｵﾘ","pref":"和歌山県","city":"和歌山市","address":"新中通"},
{"zip_code":"6408371","kana_pref":"ﾜｶﾔﾏｹﾝ","kana_city":"ﾜｶﾔﾏｼ","kana_address":"ｼﾝﾔｵﾔﾁｮｳ","pref":"和歌山県","city":"和歌山市","address":"新八百屋丁"},
{"zip_code":"6408152","kana_pref":"ﾜｶﾔﾏｹﾝ","kana_city":"ﾜｶﾔﾏｼ","kana_address":"ｼﾞｭｳﾊﾞﾝﾁｮｳ","pref":"和歌山県","city":"和歌山市","address":"十番丁"},
{"zip_code":"6408159","kana_pref":"ﾜｶﾔﾏｹﾝ","kana_city":"ﾜｶﾔﾏｼ","kana_address":"ｼﾞｭｳｲﾁﾊﾞﾝﾁｮｳ","pref":"和歌山県","city":"和歌山市","address":"十一番丁"},
{"zip_code":"6408158","kana_pref":"ﾜｶﾔﾏｹﾝ","kana_city":"ﾜｶﾔﾏｼ","kana_address":"ｼﾞｭｳﾆﾊﾞﾝﾁｮｳ","pref":"和歌山県","city":"和歌山市","address":"十二番丁"},
{"zip_code":"6408150","kana_pref":"ﾜｶﾔﾏｹﾝ","kana_city":"ﾜｶﾔﾏｼ","kana_address":"ｼﾞｭｳｻﾝﾊﾞﾝﾁｮｳ","pref":"和歌山県","city":"和歌山市","address":"十三番丁"},
{"zip_code":"6408444","kana_pref":"ﾜｶﾔﾏｹﾝ","kana_city":"ﾜｶﾔﾏｼ","kana_address":"ｼﾞﾛﾏﾙ","pref":"和歌山県","city":"和歌山市","address":"次郎丸"},
{"zip_code":"6408374","kana_pref":"ﾜｶﾔﾏｹﾝ","kana_city":"ﾜｶﾔﾏｼ","kana_address":"ｽｷﾔﾁｮｳ","pref":"和歌山県","city":"和歌山市","address":"数寄屋丁"},
{"zip_code":"6408212","kana_pref":"ﾜｶﾔﾏｹﾝ","kana_city":"ﾜｶﾔﾏｼ","kana_address":"ｽｷﾞﾉﾊﾞﾊﾞ","pref":"和歌山県","city":"和歌山市","address":"杉ノ馬場"},
{"zip_code":"6408378","kana_pref":"ﾜｶﾔﾏｹﾝ","kana_city":"ﾜｶﾔﾏｼ","kana_address":"ｽｽﾞﾏﾙﾁｮｳ","pref":"和歌山県","city":"和歌山市","address":"鈴丸丁"},
{"zip_code":"6400314","kana_pref":"ﾜｶﾔﾏｹﾝ","kana_city":"ﾜｶﾔﾏｼ","kana_address":"ｽﾞﾀﾞｼﾞ","pref":"和歌山県","city":"和歌山市","address":"頭陀寺"},
{"zip_code":"6408272","kana_pref":"ﾜｶﾔﾏｹﾝ","kana_city":"ﾜｶﾔﾏｼ","kana_address":"ｽﾅﾔﾏﾐﾅﾐ","pref":"和歌山県","city":"和歌山市","address":"砂山南"},
{"zip_code":"6408022","kana_pref":"ﾜｶﾔﾏｹﾝ","kana_city":"ﾜｶﾔﾏｼ","kana_address":"ｽﾐﾖｼﾏﾁ","pref":"和歌山県","city":"和歌山市","address":"住吉町"},
{"zip_code":"6408034","kana_pref":"ﾜｶﾔﾏｹﾝ","kana_city":"ﾜｶﾔﾏｼ","kana_address":"ｽﾙｶﾞﾏﾁ","pref":"和歌山県","city":"和歌山市","address":"駿河町"},
{"zip_code":"6408041","kana_pref":"ﾜｶﾔﾏｹﾝ","kana_city":"ﾜｶﾔﾏｼ","kana_address":"ｾﾝｺｳｼﾞﾓﾝｾﾞﾝﾁｮｳ","pref":"和歌山県","city":"和歌山市","address":"専光寺門前丁"},
{"zip_code":"6408114","kana_pref":"ﾜｶﾔﾏｹﾝ","kana_city":"ﾜｶﾔﾏｼ","kana_address":"ｾﾝﾊﾞﾁｮｳ","pref":"和歌山県","city":"和歌山市","address":"船場町"},
{"zip_code":"6408471","kana_pref":"ﾜｶﾔﾏｹﾝ","kana_city":"ﾜｶﾔﾏｼ","kana_address":"ｾﾞﾝﾐｮｳｼﾞ","pref":"和歌山県","city":"和歌山市","address":"善明寺"},
{"zip_code":"6400341","kana_pref":"ﾜｶﾔﾏｹﾝ","kana_city":"ﾜｶﾔﾏｼ","kana_address":"ｿｳｻﾞｶ","pref":"和歌山県","city":"和歌山市","address":"相坂"},
{"zip_code":"6408483","kana_pref":"ﾜｶﾔﾏｹﾝ","kana_city":"ﾜｶﾔﾏｼ","kana_address":"ｿﾉﾍﾞ","pref":"和歌山県","city":"和歌山市","address":"園部"},
{"zip_code":"6408135","kana_pref":"ﾜｶﾔﾏｹﾝ","kana_city":"ﾜｶﾔﾏｼ","kana_address":"ﾀｶｼﾞｮｳﾏﾁ","pref":"和歌山県","city":"和歌山市","address":"鷹匠町"},
{"zip_code":"6408028","kana_pref":"ﾜｶﾔﾏｹﾝ","kana_city":"ﾜｶﾔﾏｼ","kana_address":"ﾀｸﾐﾏﾁ","pref":"和歌山県","city":"和歌山市","address":"匠町"},
{"zip_code":"6408061","kana_pref":"ﾜｶﾔﾏｹﾝ","kana_city":"ﾜｶﾔﾏｼ","kana_address":"ﾀﾀﾐﾔﾏﾁ","pref":"和歌山県","city":"和歌山市","address":"畳屋町"},
{"zip_code":"6408329","kana_pref":"ﾜｶﾔﾏｹﾝ","kana_city":"ﾜｶﾔﾏｼ","kana_address":"ﾀﾅｶﾏﾁ","pref":"和歌山県","city":"和歌山市","address":"田中町"},
{"zip_code":"6408133","kana_pref":"ﾜｶﾔﾏｹﾝ","kana_city":"ﾜｶﾔﾏｼ","kana_address":"ﾀﾆﾏﾁ","pref":"和歌山県","city":"和歌山市","address":"谷町"},
{"zip_code":"6408287","kana_pref":"ﾜｶﾔﾏｹﾝ","kana_city":"ﾜｶﾔﾏｼ","kana_address":"ﾁｯｺｳ","pref":"和歌山県","city":"和歌山市","address":"築港"},
{"zip_code":"6408263","kana_pref":"ﾜｶﾔﾏｹﾝ","kana_city":"ﾜｶﾔﾏｼ","kana_address":"ﾁｬﾔﾉﾁｮｳ","pref":"和歌山県","city":"和歌山市","address":"茶屋ノ丁"},
{"zip_code":"6408334","kana_pref":"ﾜｶﾔﾏｹﾝ","kana_city":"ﾜｶﾔﾏｼ","kana_address":"ﾁｬﾔﾏﾁ","pref":"和歌山県","city":"和歌山市","address":"茶屋町"},
{"zip_code":"6400115","kana_pref":"ﾜｶﾔﾏｹﾝ","kana_city":"ﾜｶﾔﾏｼ","kana_address":"ﾂﾂｼﾞｶﾞｵｶ","pref":"和歌山県","city":"和歌山市","address":"つつじが丘"},
{"zip_code":"6408315","kana_pref":"ﾜｶﾔﾏｹﾝ","kana_city":"ﾜｶﾔﾏｼ","kana_address":"ﾂﾊﾀﾞ","pref":"和歌山県","city":"和歌山市","address":"津秦"},
{"zip_code":"6408319","kana_pref":"ﾜｶﾔﾏｹﾝ","kana_city":"ﾜｶﾔﾏｼ","kana_address":"ﾃﾋﾞﾗ","pref":"和歌山県","city":"和歌山市","address":"手平"},
{"zip_code":"6408320","kana_pref":"ﾜｶﾔﾏｹﾝ","kana_city":"ﾜｶﾔﾏｼ","kana_address":"ﾃﾋﾞﾗﾃﾞｼﾞﾏ","pref":"和歌山県","city":"和歌山市","address":"手平出島"},
{"zip_code":"6408311","kana_pref":"ﾜｶﾔﾏｹﾝ","kana_city":"ﾜｶﾔﾏｼ","kana_address":"ﾃﾗｳﾁ","pref":"和歌山県","city":"和歌山市","address":"寺内"},
{"zip_code":"6408282","kana_pref":"ﾜｶﾔﾏｹﾝ","kana_city":"ﾜｶﾔﾏｼ","kana_address":"ﾃﾞｸﾞﾁｺｳｶﾞﾁｮｳ","pref":"和歌山県","city":"和歌山市","address":"出口甲賀丁"},
{"zip_code":"6408285","kana_pref":"ﾜｶﾔﾏｹﾝ","kana_city":"ﾜｶﾔﾏｼ","kana_address":"ﾃﾞｸﾞﾁｼﾝﾊｼﾉﾁｮｳ","pref":"和歌山県","city":"和歌山市","address":"出口新端ノ丁"},
{"zip_code":"6408283","kana_pref":"ﾜｶﾔﾏｹﾝ","kana_city":"ﾜｶﾔﾏｼ","kana_address":"ﾃﾞｸﾞﾁﾅｶﾉﾁｮｳ","pref":"和歌山県","city":"和歌山市","address":"出口中ノ丁"},
{"zip_code":"6408284","kana_pref":"ﾜｶﾔﾏｹﾝ","kana_city":"ﾜｶﾔﾏｼ","kana_address":"ﾃﾞｸﾞﾁﾊｼﾉﾁｮｳ","pref":"和歌山県","city":"和歌山市","address":"出口端ノ丁"},
{"zip_code":"6408306","kana_pref":"ﾜｶﾔﾏｹﾝ","kana_city":"ﾜｶﾔﾏｼ","kana_address":"ﾃﾞｼﾞﾏ","pref":"和歌山県","city":"和歌山市","address":"出島"},
{"zip_code":"6408321","kana_pref":"ﾜｶﾔﾏｹﾝ","kana_city":"ﾜｶﾔﾏｼ","kana_address":"ﾃﾞﾐｽﾞ","pref":"和歌山県","city":"和歌山市","address":"出水"},
{"zip_code":"6408204","kana_pref":"ﾜｶﾔﾏｹﾝ","kana_city":"ﾜｶﾔﾏｼ","kana_address":"ﾃﾞﾝﾎﾟｳﾊﾞｼﾐﾅﾐﾉﾁｮｳ","pref":"和歌山県","city":"和歌山市","address":"伝法橋南ノ丁"},
{"zip_code":"6408229","kana_pref":"ﾜｶﾔﾏｹﾝ","kana_city":"ﾜｶﾔﾏｼ","kana_address":"ﾄﾞｳｼﾞｮｳﾏﾁ","pref":"和歌山県","city":"和歌山市","address":"道場町"},
{"zip_code":"6408432","kana_pref":"ﾜｶﾔﾏｹﾝ","kana_city":"ﾜｶﾔﾏｼ","kana_address":"ﾄﾞｳﾆｭｳ","pref":"和歌山県","city":"和歌山市","address":"土入"},
{"zip_code":"6408206","kana_pref":"ﾜｶﾔﾏｹﾝ","kana_city":"ﾜｶﾔﾏｼ","kana_address":"ﾄｸﾀﾞｷﾞﾁｮｳ","pref":"和歌山県","city":"和歌山市","address":"徳田木丁"},
{"zip_code":"6408256","kana_pref":"ﾜｶﾔﾏｹﾝ","kana_city":"ﾜｶﾔﾏｼ","kana_address":"ﾄｻﾏﾁ","pref":"和歌山県","city":"和歌山市","address":"土佐町"},
{"zip_code":"6408342","kana_pref":"ﾜｶﾔﾏｹﾝ","kana_city":"ﾜｶﾔﾏｼ","kana_address":"ﾄﾓﾀﾞﾁｮｳ","pref":"和歌山県","city":"和歌山市","address":"友田町"},
{"zip_code":"6408451","kana_pref":"ﾜｶﾔﾏｹﾝ","kana_city":"ﾜｶﾔﾏｼ","kana_address":"ﾅｶ","pref":"和歌山県","city":"和歌山市","address":"中"},
{"zip_code":"6408433","kana_pref":"ﾜｶﾔﾏｹﾝ","kana_city":"ﾜｶﾔﾏｼ","kana_address":"ﾅｶﾉ","pref":"和歌山県","city":"和歌山市","address":"中野"},
{"zip_code":"6408392","kana_pref":"ﾜｶﾔﾏｹﾝ","kana_city":"ﾜｶﾔﾏｼ","kana_address":"ﾅｶﾉｼﾏ","pref":"和歌山県","city":"和歌山市","address":"中之島"},
{"zip_code":"6408025","kana_pref":"ﾜｶﾔﾏｹﾝ","kana_city":"ﾜｶﾔﾏｼ","kana_address":"ﾅｶﾉﾀﾅﾅｶﾉﾁｮｳ","pref":"和歌山県","city":"和歌山市","address":"中ノ店中ノ丁"},
{"zip_code":"6408026","kana_pref":"ﾜｶﾔﾏｹﾝ","kana_city":"ﾜｶﾔﾏｼ","kana_address":"ﾅｶﾉﾀﾅﾐﾅﾐﾉﾁｮｳ","pref":"和歌山県","city":"和歌山市","address":"中ノ店南ノ丁"},
{"zip_code":"6408023","kana_pref":"ﾜｶﾔﾏｹﾝ","kana_city":"ﾜｶﾔﾏｼ","kana_address":"ﾅｶﾉﾀﾅｷﾀﾉﾁｮｳ","pref":"和歌山県","city":"和歌山市","address":"中ノ店北ノ丁"},
{"zip_code":"6400302","kana_pref":"ﾜｶﾔﾏｹﾝ","kana_city":"ﾜｶﾔﾏｼ","kana_address":"ﾅｶﾞﾔﾏ","pref":"和歌山県","city":"和歌山市","address":"永山"},
{"zip_code":"6408236","kana_pref":"ﾜｶﾔﾏｹﾝ","kana_city":"ﾜｶﾔﾏｼ","kana_address":"ﾅﾅﾏｶﾞﾘ","pref":"和歌山県","city":"和歌山市","address":"七曲り"},
{"zip_code":"6408009","kana_pref":"ﾜｶﾔﾏｹﾝ","kana_city":"ﾜｶﾔﾏｼ","kana_address":"ﾅﾍﾞﾔﾏﾁ","pref":"和歌山県","city":"和歌山市","address":"鍋屋町"},
{"zip_code":"6408303","kana_pref":"ﾜｶﾔﾏｹﾝ","kana_city":"ﾜｶﾔﾏｼ","kana_address":"ﾅﾙｶﾐ","pref":"和歌山県","city":"和歌山市","address":"鳴神"},
{"zip_code":"6400322","kana_pref":"ﾜｶﾔﾏｹﾝ","kana_city":"ﾜｶﾔﾏｼ","kana_address":"ﾆｲﾍﾞ","pref":"和歌山県","city":"和歌山市","address":"仁井辺"},
{"zip_code":"6408313","kana_pref":"ﾜｶﾔﾏｹﾝ","kana_city":"ﾜｶﾔﾏｼ","kana_address":"ﾆｼ","pref":"和歌山県","city":"和歌山市","address":"西"},
{"zip_code":"6408046","kana_pref":"ﾜｶﾔﾏｹﾝ","kana_city":"ﾜｶﾔﾏｼ","kana_address":"ﾆｼｶｼﾞﾔﾏﾁ","pref":"和歌山県","city":"和歌山市","address":"西鍛冶屋町"},
{"zip_code":"6408297","kana_pref":"ﾜｶﾔﾏｹﾝ","kana_city":"ﾜｶﾔﾏｼ","kana_address":"ﾆｼｶﾜｷﾞｼﾁｮｳ","pref":"和歌山県","city":"和歌山市","address":"西河岸町"},
{"zip_code":"6408063","kana_pref":"ﾜｶﾔﾏｹﾝ","kana_city":"ﾜｶﾔﾏｼ","kana_address":"ﾆｼｸｷﾞﾇｷﾁｮｳ","pref":"和歌山県","city":"和歌山市","address":"西釘貫丁"},
{"zip_code":"6408205","kana_pref":"ﾜｶﾔﾏｹﾝ","kana_city":"ﾜｶﾔﾏｼ","kana_address":"ﾆｼｸﾗﾏｴﾁｮｳ","pref":"和歌山県","city":"和歌山市","address":"西蔵前丁"},
{"zip_code":"6408116","kana_pref":"ﾜｶﾔﾏｹﾝ","kana_city":"ﾜｶﾔﾏｼ","kana_address":"ﾆｼｺﾝﾔﾏﾁ","pref":"和歌山県","city":"和歌山市","address":"西紺屋町"},
{"zip_code":"6408234","kana_pref":"ﾜｶﾔﾏｹﾝ","kana_city":"ﾜｶﾔﾏｼ","kana_address":"ﾆｼｻｶﾉｳｴﾁｮｳ","pref":"和歌山県","city":"和歌山市","address":"西坂ノ上丁"},
{"zip_code":"6408037","kana_pref":"ﾜｶﾔﾏｹﾝ","kana_city":"ﾜｶﾔﾏｼ","kana_address":"ﾆｼﾀﾞｲｸﾏﾁ","pref":"和歌山県","city":"和歌山市","address":"西大工町"},
{"zip_code":"6408014","kana_pref":"ﾜｶﾔﾏｹﾝ","kana_city":"ﾜｶﾔﾏｼ","kana_address":"ﾆｼﾁｭｳｹﾞﾝﾏﾁ","pref":"和歌山県","city":"和歌山市","address":"西仲間町"},
{"zip_code":"6408290","kana_pref":"ﾜｶﾔﾏｹﾝ","kana_city":"ﾜｶﾔﾏｼ","kana_address":"ﾆｼﾅｶﾞﾏﾁ","pref":"和歌山県","city":"和歌山市","address":"西長町"},
{"zip_code":"6408211","kana_pref":"ﾜｶﾔﾏｹﾝ","kana_city":"ﾜｶﾔﾏｼ","kana_address":"ﾆｼﾇﾉｴﾁｮｳ","pref":"和歌山県","city":"和歌山市","address":"西布経丁"},
{"zip_code":"6400112","kana_pref":"ﾜｶﾔﾏｹﾝ","kana_city":"ﾜｶﾔﾏｼ","kana_address":"ﾆｼﾉｼｮｳ","pref":"和歌山県","city":"和歌山市","address":"西庄"},
{"zip_code":"6408042","kana_pref":"ﾜｶﾔﾏｹﾝ","kana_city":"ﾜｶﾔﾏｼ","kana_address":"ﾆｼﾉﾀﾅ","pref":"和歌山県","city":"和歌山市","address":"西ノ店"},
{"zip_code":"6408021","kana_pref":"ﾜｶﾔﾏｹﾝ","kana_city":"ﾜｶﾔﾏｼ","kana_address":"ﾆｼﾊﾀｺﾞﾏﾁ","pref":"和歌山県","city":"和歌山市","address":"西旅籠町"},
{"zip_code":"6408227","kana_pref":"ﾜｶﾔﾏｹﾝ","kana_city":"ﾜｶﾔﾏｼ","kana_address":"ﾆｼﾐｷﾞﾜﾁｮｳ","pref":"和歌山県","city":"和歌山市","address":"西汀丁"},
{"zip_code":"6408143","kana_pref":"ﾜｶﾔﾏｹﾝ","kana_city":"ﾜｶﾔﾏｼ","kana_address":"ﾆﾊﾞﾝﾁｮｳ","pref":"和歌山県","city":"和歌山市","address":"二番丁"},
{"zip_code":"6408326","kana_pref":"ﾜｶﾔﾏｹﾝ","kana_city":"ﾜｶﾔﾏｼ","kana_address":"ﾆﾝﾄﾒﾁｮｳ","pref":"和歌山県","city":"和歌山市","address":"新留丁"},
{"zip_code":"6408481","kana_pref":"ﾜｶﾔﾏｹﾝ","kana_city":"ﾜｶﾔﾏｼ","kana_address":"ﾉｳｶﾞﾜ","pref":"和歌山県","city":"和歌山市","address":"直川"},
{"zip_code":"6408344","kana_pref":"ﾜｶﾔﾏｹﾝ","kana_city":"ﾜｶﾔﾏｼ","kana_address":"ﾉｳｼﾞｮｳ","pref":"和歌山県","city":"和歌山市","address":"納定"},
{"zip_code":"6408402","kana_pref":"ﾜｶﾔﾏｹﾝ","kana_city":"ﾜｶﾔﾏｼ","kana_address":"ﾉｻﾞｷ","pref":"和歌山県","city":"和歌山市","address":"野崎"},
{"zip_code":"6408443","kana_pref":"ﾜｶﾔﾏｹﾝ","kana_city":"ﾜｶﾔﾏｼ","kana_address":"ﾉﾌﾞﾄｷ","pref":"和歌山県","city":"和歌山市","address":"延時"},
{"zip_code":"6408215","kana_pref":"ﾜｶﾔﾏｹﾝ","kana_city":"ﾜｶﾔﾏｼ","kana_address":"ﾊｼﾁｮｳ","pref":"和歌山県","city":"和歌山市","address":"橋丁"},
{"zip_code":"6408327","kana_pref":"ﾜｶﾔﾏｹﾝ","kana_city":"ﾜｶﾔﾏｼ","kana_address":"ﾊｼﾑｶｲﾁｮｳ","pref":"和歌山県","city":"和歌山市","address":"橋向丁"},
{"zip_code":"6408382","kana_pref":"ﾜｶﾔﾏｹﾝ","kana_city":"ﾜｶﾔﾏｼ","kana_address":"ﾊﾀﾔｼｷｴﾉｷﾉﾁｮｳ","pref":"和歌山県","city":"和歌山市","address":"畑屋敷榎丁"},
{"zip_code":"6408383","kana_pref":"ﾜｶﾔﾏｹﾝ","kana_city":"ﾜｶﾔﾏｼ","kana_address":"ﾊﾀﾔｼｷｴﾝﾌﾟｸｲﾝﾋｶﾞｼﾉﾁｮｳ","pref":"和歌山県","city":"和歌山市","address":"畑屋敷円福院東ノ丁"},
{"zip_code":"6408385","kana_pref":"ﾜｶﾔﾏｹﾝ","kana_city":"ﾜｶﾔﾏｼ","kana_address":"ﾊﾀﾔｼｷｴﾝﾌﾟｸｲﾝﾆｼﾉﾁｮｳ","pref":"和歌山県","city":"和歌山市","address":"畑屋敷円福院西ノ丁"},
{"zip_code":"6408386","kana_pref":"ﾜｶﾔﾏｹﾝ","kana_city":"ﾜｶﾔﾏｼ","kana_address":"ﾊﾀﾔｼｷｶﾞﾝｷﾞﾁｮｳ","pref":"和歌山県","city":"和歌山市","address":"畑屋敷雁木丁"},
{"zip_code":"6408384","kana_pref":"ﾜｶﾔﾏｹﾝ","kana_city":"ﾜｶﾔﾏｼ","kana_address":"ﾊﾀﾔｼｷｸｽﾞﾔﾁｮｳ","pref":"和歌山県","city":"和歌山市","address":"畑屋敷葛屋丁"},
{"zip_code":"6408397","kana_pref":"ﾜｶﾔﾏｹﾝ","kana_city":"ﾜｶﾔﾏｼ","kana_address":"ﾊﾀﾔｼｷｼﾝﾐﾁﾁｮｳ","pref":"和歌山県","city":"和歌山市","address":"畑屋敷新道丁"},
{"zip_code":"6408394","kana_pref":"ﾜｶﾔﾏｹﾝ","kana_city":"ﾜｶﾔﾏｼ","kana_address":"ﾊﾀﾔｼｷｾﾝﾀｲﾌﾞﾂﾁｮｳ","pref":"和歌山県","city":"和歌山市","address":"畑屋敷千体仏丁"},
{"zip_code":"6408395","kana_pref":"ﾜｶﾔﾏｹﾝ","kana_city":"ﾜｶﾔﾏｼ","kana_address":"ﾊﾀﾔｼｷﾅｶﾉﾁｮｳ","pref":"和歌山県","city":"和歌山市","address":"畑屋敷中ノ丁"},
{"zip_code":"6408393","kana_pref":"ﾜｶﾔﾏｹﾝ","kana_city":"ﾜｶﾔﾏｼ","kana_address":"ﾊﾀﾔｼｷﾊｼﾉﾁｮｳ","pref":"和歌山県","city":"和歌山市","address":"畑屋敷端ノ丁"},
{"zip_code":"6408381","kana_pref":"ﾜｶﾔﾏｹﾝ","kana_city":"ﾜｶﾔﾏｼ","kana_address":"ﾊﾀﾔｼｷﾋｶﾞｼﾉﾁｮｳ","pref":"和歌山県","city":"和歌山市","address":"畑屋敷東ノ丁"},
{"zip_code":"6408396","kana_pref":"ﾜｶﾔﾏｹﾝ","kana_city":"ﾜｶﾔﾏｼ","kana_address":"ﾊﾀﾔｼｷﾆｼﾉﾁｮｳ","pref":"和歌山県","city":"和歌山市","address":"畑屋敷西ノ丁"},
{"zip_code":"6408399","kana_pref":"ﾜｶﾔﾏｹﾝ","kana_city":"ﾜｶﾔﾏｼ","kana_address":"ﾊﾀﾔｼｷﾋｮｳｺﾞﾉﾁｮｳ","pref":"和歌山県","city":"和歌山市","address":"畑屋敷兵庫ノ丁"},
{"zip_code":"6408387","kana_pref":"ﾜｶﾔﾏｹﾝ","kana_city":"ﾜｶﾔﾏｼ","kana_address":"ﾊﾀﾔｼｷﾌｸﾛﾏﾁ","pref":"和歌山県","city":"和歌山市","address":"畑屋敷袋町"},
{"zip_code":"6408398","kana_pref":"ﾜｶﾔﾏｹﾝ","kana_city":"ﾜｶﾔﾏｼ","kana_address":"ﾊﾀﾔｼｷﾏﾂｶﾞｴﾁｮｳ","pref":"和歌山県","city":"和歌山市","address":"畑屋敷松ケ枝丁"},
{"zip_code":"6408157","kana_pref":"ﾜｶﾔﾏｹﾝ","kana_city":"ﾜｶﾔﾏｼ","kana_address":"ﾊﾁﾊﾞﾝﾁｮｳ","pref":"和歌山県","city":"和歌山市","address":"八番丁"},
{"zip_code":"6400353","kana_pref":"ﾜｶﾔﾏｹﾝ","kana_city":"ﾜｶﾔﾏｼ","kana_address":"ﾊﾞﾊﾞ","pref":"和歌山県","city":"和歌山市","address":"馬場"},
{"zip_code":"6408036","kana_pref":"ﾜｶﾔﾏｹﾝ","kana_city":"ﾜｶﾔﾏｼ","kana_address":"ﾋｶﾞｼｶｼﾞﾔﾏﾁ","pref":"和歌山県","city":"和歌山市","address":"東鍛冶屋町"},
{"zip_code":"6408064","kana_pref":"ﾜｶﾔﾏｹﾝ","kana_city":"ﾜｶﾔﾏｼ","kana_address":"ﾋｶﾞｼｸｷﾞﾇｷﾁｮｳ","pref":"和歌山県","city":"和歌山市","address":"東釘貫丁"},
{"zip_code":"6408203","kana_pref":"ﾜｶﾔﾏｹﾝ","kana_city":"ﾜｶﾔﾏｼ","kana_address":"ﾋｶﾞｼｸﾗﾏｴﾁｮｳ","pref":"和歌山県","city":"和歌山市","address":"東蔵前丁"},
{"zip_code":"6408115","kana_pref":"ﾜｶﾔﾏｹﾝ","kana_city":"ﾜｶﾔﾏｼ","kana_address":"ﾋｶﾞｼｺﾝﾔﾏﾁ","pref":"和歌山県","city":"和歌山市","address":"東紺屋町"},
{"zip_code":"6408247","kana_pref":"ﾜｶﾔﾏｹﾝ","kana_city":"ﾜｶﾔﾏｼ","kana_address":"ﾋｶﾞｼｻｶﾉｳｴﾁｮｳ","pref":"和歌山県","city":"和歌山市","address":"東坂ノ上丁"},
{"zip_code":"6408013","kana_pref":"ﾜｶﾔﾏｹﾝ","kana_city":"ﾜｶﾔﾏｼ","kana_address":"ﾋｶﾞｼﾁｭｳｹﾞﾝﾏﾁ","pref":"和歌山県","city":"和歌山市","address":"東仲間町"},
{"zip_code":"6408235","kana_pref":"ﾜｶﾔﾏｹﾝ","kana_city":"ﾜｶﾔﾏｼ","kana_address":"ﾋｶﾞｼﾅｶﾞﾏﾁ","pref":"和歌山県","city":"和歌山市","address":"東長町"},
{"zip_code":"6408266","kana_pref":"ﾜｶﾔﾏｹﾝ","kana_city":"ﾜｶﾔﾏｼ","kana_address":"ﾋｶﾞｼﾅｶﾞﾏﾁﾅｶﾉﾁｮｳ","pref":"和歌山県","city":"和歌山市","address":"東長町中ノ丁"},
{"zip_code":"6408066","kana_pref":"ﾜｶﾔﾏｹﾝ","kana_city":"ﾜｶﾔﾏｼ","kana_address":"ﾋｶﾞｼﾇﾉｴﾁｮｳ","pref":"和歌山県","city":"和歌山市","address":"東布経丁"},
{"zip_code":"6408004","kana_pref":"ﾜｶﾔﾏｹﾝ","kana_city":"ﾜｶﾔﾏｼ","kana_address":"ﾋｶﾞｼﾊﾀｺﾞﾏﾁ","pref":"和歌山県","city":"和歌山市","address":"東旅籠町"},
{"zip_code":"6408067","kana_pref":"ﾜｶﾔﾏｹﾝ","kana_city":"ﾜｶﾔﾏｼ","kana_address":"ﾋﾄｽｼﾞﾒ","pref":"和歌山県","city":"和歌山市","address":"一筋目"},
{"zip_code":"6400111","kana_pref":"ﾜｶﾔﾏｹﾝ","kana_city":"ﾜｶﾔﾏｼ","kana_address":"ﾋﾉ","pref":"和歌山県","city":"和歌山市","address":"日野"},
{"zip_code":"6408202","kana_pref":"ﾜｶﾔﾏｹﾝ","kana_city":"ﾜｶﾔﾏｼ","kana_address":"ﾋﾞｮｳﾌﾞﾁｮｳ","pref":"和歌山県","city":"和歌山市","address":"屏風丁"},
{"zip_code":"6408442","kana_pref":"ﾜｶﾔﾏｹﾝ","kana_city":"ﾜｶﾔﾏｼ","kana_address":"ﾋﾗｲ","pref":"和歌山県","city":"和歌山市","address":"平井"},
{"zip_code":"6400304","kana_pref":"ﾜｶﾔﾏｹﾝ","kana_city":"ﾜｶﾔﾏｼ","kana_address":"ﾋﾗｵ","pref":"和歌山県","city":"和歌山市","address":"平尾"},
{"zip_code":"6408113","kana_pref":"ﾜｶﾔﾏｹﾝ","kana_city":"ﾜｶﾔﾏｼ","kana_address":"ﾋﾛｾﾄｵﾘﾁｮｳ","pref":"和歌山県","city":"和歌山市","address":"広瀬通丁"},
{"zip_code":"6408128","kana_pref":"ﾜｶﾔﾏｹﾝ","kana_city":"ﾜｶﾔﾏｼ","kana_address":"ﾋﾛｾﾅｶﾉﾁｮｳ","pref":"和歌山県","city":"和歌山市","address":"広瀬中ノ丁"},
{"zip_code":"6400333","kana_pref":"ﾜｶﾔﾏｹﾝ","kana_city":"ﾜｶﾔﾏｼ","kana_address":"ﾋﾛﾊﾗ","pref":"和歌山県","city":"和歌山市","address":"広原"},
{"zip_code":"6408268","kana_pref":"ﾜｶﾔﾏｹﾝ","kana_city":"ﾜｶﾔﾏｼ","kana_address":"ﾋﾛﾐﾁ","pref":"和歌山県","city":"和歌山市","address":"広道"},
{"zip_code":"6408137","kana_pref":"ﾜｶﾔﾏｹﾝ","kana_city":"ﾜｶﾔﾏｼ","kana_address":"ﾌｷｱｹﾞ","pref":"和歌山県","city":"和歌山市","address":"吹上"},
{"zip_code":"6408324","kana_pref":"ﾜｶﾔﾏｹﾝ","kana_city":"ﾜｶﾔﾏｼ","kana_address":"ﾌｷﾔﾁｮｳ","pref":"和歌山県","city":"和歌山市","address":"吹屋町"},
{"zip_code":"6408401","kana_pref":"ﾜｶﾔﾏｹﾝ","kana_city":"ﾜｶﾔﾏｼ","kana_address":"ﾌｸｼﾏ","pref":"和歌山県","city":"和歌山市","address":"福島"},
{"zip_code":"6408043","kana_pref":"ﾜｶﾔﾏｹﾝ","kana_city":"ﾜｶﾔﾏｼ","kana_address":"ﾌｸﾏﾁ","pref":"和歌山県","city":"和歌山市","address":"福町"},
{"zip_code":"6408068","kana_pref":"ﾜｶﾔﾏｹﾝ","kana_city":"ﾜｶﾔﾏｼ","kana_address":"ﾌﾀｽｼﾞﾒ","pref":"和歌山県","city":"和歌山市","address":"二筋目"},
{"zip_code":"6408213","kana_pref":"ﾜｶﾔﾏｹﾝ","kana_city":"ﾜｶﾔﾏｼ","kana_address":"ﾌﾅﾀﾞｲｸﾏﾁ","pref":"和歌山県","city":"和歌山市","address":"舟大工町"},
{"zip_code":"6408255","kana_pref":"ﾜｶﾔﾏｹﾝ","kana_city":"ﾜｶﾔﾏｼ","kana_address":"ﾌﾅﾂﾞﾁｮｳ","pref":"和歌山県","city":"和歌山市","address":"舟津町"},
{"zip_code":"6408461","kana_pref":"ﾜｶﾔﾏｹﾝ","kana_city":"ﾜｶﾔﾏｼ","kana_address":"ﾌﾅﾄﾞｺﾛ","pref":"和歌山県","city":"和歌山市","address":"船所"},
{"zip_code":"6400332","kana_pref":"ﾜｶﾔﾏｹﾝ","kana_city":"ﾜｶﾔﾏｼ","kana_address":"ﾌﾕﾉ","pref":"和歌山県","city":"和歌山市","address":"冬野"},
{"zip_code":"6408131","kana_pref":"ﾜｶﾔﾏｹﾝ","kana_city":"ﾜｶﾔﾏｼ","kana_address":"ﾍﾞｻﾞｲﾃﾝﾁｮｳ","pref":"和歌山県","city":"和歌山市","address":"弁財天丁"},
{"zip_code":"6408375","kana_pref":"ﾜｶﾔﾏｹﾝ","kana_city":"ﾜｶﾔﾏｼ","kana_address":"ﾎﾞｳｽﾞﾁｮｳ","pref":"和歌山県","city":"和歌山市","address":"坊主丁"},
{"zip_code":"6408045","kana_pref":"ﾜｶﾔﾏｹﾝ","kana_city":"ﾜｶﾔﾏｼ","kana_address":"ﾎﾞｸﾊﾝﾏﾁ","pref":"和歌山県","city":"和歌山市","address":"卜半町"},
{"zip_code":"6408136","kana_pref":"ﾜｶﾔﾏｹﾝ","kana_city":"ﾜｶﾔﾏｼ","kana_address":"ﾎﾘﾄﾞﾒﾋｶﾞｼ","pref":"和歌山県","city":"和歌山市","address":"堀止東"},
{"zip_code":"6408033","kana_pref":"ﾜｶﾔﾏｹﾝ","kana_city":"ﾜｶﾔﾏｼ","kana_address":"ﾎﾝﾏﾁ","pref":"和歌山県","city":"和歌山市","address":"本町"},
{"zip_code":"6408261","kana_pref":"ﾜｶﾔﾏｹﾝ","kana_city":"ﾜｶﾔﾏｼ","kana_address":"ﾏｻｺﾞﾁｮｳ","pref":"和歌山県","city":"和歌山市","address":"真砂丁"},
{"zip_code":"6408421","kana_pref":"ﾜｶﾔﾏｹﾝ","kana_city":"ﾜｶﾔﾏｼ","kana_address":"ﾏﾂｴ","pref":"和歌山県","city":"和歌山市","address":"松江"},
{"zip_code":"6408423","kana_pref":"ﾜｶﾔﾏｹﾝ","kana_city":"ﾜｶﾔﾏｼ","kana_address":"ﾏﾂｴﾅｶ","pref":"和歌山県","city":"和歌山市","address":"松江中"},
{"zip_code":"6408422","kana_pref":"ﾜｶﾔﾏｹﾝ","kana_city":"ﾜｶﾔﾏｼ","kana_address":"ﾏﾂｴﾋｶﾞｼ","pref":"和歌山県","city":"和歌山市","address":"松江東"},
{"zip_code":"6408424","kana_pref":"ﾜｶﾔﾏｹﾝ","kana_city":"ﾜｶﾔﾏｼ","kana_address":"ﾏﾂｴﾆｼ","pref":"和歌山県","city":"和歌山市","address":"松江西"},
{"zip_code":"6408425","kana_pref":"ﾜｶﾔﾏｹﾝ","kana_city":"ﾜｶﾔﾏｼ","kana_address":"ﾏﾂｴｷﾀ","pref":"和歌山県","city":"和歌山市","address":"松江北"},
{"zip_code":"6408304","kana_pref":"ﾜｶﾔﾏｹﾝ","kana_city":"ﾜｶﾔﾏｼ","kana_address":"ﾏﾂｼﾏ","pref":"和歌山県","city":"和歌山市","address":"松島"},
{"zip_code":"6400342","kana_pref":"ﾜｶﾔﾏｹﾝ","kana_city":"ﾜｶﾔﾏｼ","kana_address":"ﾏﾂﾊﾞﾗ","pref":"和歌山県","city":"和歌山市","address":"松原"},
{"zip_code":"6408153","kana_pref":"ﾜｶﾔﾏｹﾝ","kana_city":"ﾜｶﾔﾏｼ","kana_address":"ﾐｷﾏﾁﾀﾞｲﾄﾞｺﾛﾏﾁ","pref":"和歌山県","city":"和歌山市","address":"三木町台所町"},
{"zip_code":"6408106","kana_pref":"ﾜｶﾔﾏｹﾝ","kana_city":"ﾜｶﾔﾏｼ","kana_address":"ﾐｷﾏﾁﾅｶﾉﾁｮｳ","pref":"和歌山県","city":"和歌山市","address":"三木町中ノ丁"},
{"zip_code":"6408107","kana_pref":"ﾜｶﾔﾏｹﾝ","kana_city":"ﾜｶﾔﾏｼ","kana_address":"ﾐｷﾏﾁﾎﾘﾂﾞﾒ","pref":"和歌山県","city":"和歌山市","address":"三木町堀詰"},
{"zip_code":"6408105","kana_pref":"ﾜｶﾔﾏｹﾝ","kana_city":"ﾜｶﾔﾏｼ","kana_address":"ﾐｷﾏﾁﾐﾅﾐﾉﾁｮｳ","pref":"和歌山県","city":"和歌山市","address":"三木町南ノ丁"},
{"zip_code":"6408123","kana_pref":"ﾜｶﾔﾏｹﾝ","kana_city":"ﾜｶﾔﾏｼ","kana_address":"ﾐｻﾜﾁｮｳ","pref":"和歌山県","city":"和歌山市","address":"三沢町"},
{"zip_code":"6408069","kana_pref":"ﾜｶﾔﾏｹﾝ","kana_city":"ﾜｶﾔﾏｼ","kana_address":"ﾐｽｼﾞﾒ","pref":"和歌山県","city":"和歌山市","address":"三筋目"},
{"zip_code":"6408331","kana_pref":"ﾜｶﾔﾏｹﾝ","kana_city":"ﾜｶﾔﾏｼ","kana_address":"ﾐｿﾉﾁｮｳ","pref":"和歌山県","city":"和歌山市","address":"美園町"},
{"zip_code":"6408404","kana_pref":"ﾜｶﾔﾏｹﾝ","kana_city":"ﾜｶﾔﾏｼ","kana_address":"ﾐﾅﾄ","pref":"和歌山県","city":"和歌山市","address":"湊"},
{"zip_code":"6408264","kana_pref":"ﾜｶﾔﾏｹﾝ","kana_city":"ﾜｶﾔﾏｼ","kana_address":"ﾐﾅﾄｵｹﾔﾏﾁ","pref":"和歌山県","city":"和歌山市","address":"湊桶屋町"},
{"zip_code":"6408223","kana_pref":"ﾜｶﾔﾏｹﾝ","kana_city":"ﾜｶﾔﾏｼ","kana_address":"ﾐﾅﾄｷﾀﾏﾁ","pref":"和歌山県","city":"和歌山市","address":"湊北町"},
{"zip_code":"6408221","kana_pref":"ﾜｶﾔﾏｹﾝ","kana_city":"ﾜｶﾔﾏｼ","kana_address":"ﾐﾅﾄｺﾝﾔﾏﾁ","pref":"和歌山県","city":"和歌山市","address":"湊紺屋町"},
{"zip_code":"6408286","kana_pref":"ﾜｶﾔﾏｹﾝ","kana_city":"ﾜｶﾔﾏｼ","kana_address":"ﾐﾅﾄｺﾞﾃﾝ","pref":"和歌山県","city":"和歌山市","address":"湊御殿"},
{"zip_code":"6408281","kana_pref":"ﾜｶﾔﾏｹﾝ","kana_city":"ﾜｶﾔﾏｼ","kana_address":"ﾐﾅﾄﾄｵﾘﾁｮｳﾐﾅﾐ","pref":"和歌山県","city":"和歌山市","address":"湊通丁南"},
{"zip_code":"6408262","kana_pref":"ﾜｶﾔﾏｹﾝ","kana_city":"ﾜｶﾔﾏｼ","kana_address":"ﾐﾅﾄﾄｵﾘﾁｮｳｷﾀ","pref":"和歌山県","city":"和歌山市","address":"湊通丁北"},
{"zip_code":"6408222","kana_pref":"ﾜｶﾔﾏｹﾝ","kana_city":"ﾜｶﾔﾏｼ","kana_address":"ﾐﾅﾄﾎﾝﾏﾁ","pref":"和歌山県","city":"和歌山市","address":"湊本町"},
{"zip_code":"6408275","kana_pref":"ﾜｶﾔﾏｹﾝ","kana_city":"ﾜｶﾔﾏｼ","kana_address":"ﾐﾅﾐｱｲｵｲﾁｮｳ","pref":"和歌山県","city":"和歌山市","address":"南相生丁"},
{"zip_code":"6408295","kana_pref":"ﾜｶﾔﾏｹﾝ","kana_city":"ﾜｶﾔﾏｼ","kana_address":"ﾐﾅﾐｳｼﾏﾁ","pref":"和歌山県","city":"和歌山市","address":"南牛町"},
{"zip_code":"6408029","kana_pref":"ﾜｶﾔﾏｹﾝ","kana_city":"ﾜｶﾔﾏｼ","kana_address":"ﾐﾅﾐｵｹﾔﾏﾁ","pref":"和歌山県","city":"和歌山市","address":"南桶屋町"},
{"zip_code":"6408126","kana_pref":"ﾜｶﾔﾏｹﾝ","kana_city":"ﾜｶﾔﾏｼ","kana_address":"ﾐﾅﾐｶﾀﾊﾗ","pref":"和歌山県","city":"和歌山市","address":"南片原"},
{"zip_code":"6408104","kana_pref":"ﾜｶﾔﾏｹﾝ","kana_city":"ﾜｶﾔﾏｼ","kana_address":"ﾐﾅﾐｷｭｳｶﾏﾁ","pref":"和歌山県","city":"和歌山市","address":"南休賀町"},
{"zip_code":"6408102","kana_pref":"ﾜｶﾔﾏｹﾝ","kana_city":"ﾜｶﾔﾏｼ","kana_address":"ﾐﾅﾐｻｲｶﾏﾁ","pref":"和歌山県","city":"和歌山市","address":"南雑賀町"},
{"zip_code":"6408117","kana_pref":"ﾜｶﾔﾏｹﾝ","kana_city":"ﾜｶﾔﾏｼ","kana_address":"ﾐﾅﾐｻｲｸﾏﾁ","pref":"和歌山県","city":"和歌山市","address":"南細工町"},
{"zip_code":"6408112","kana_pref":"ﾜｶﾔﾏｹﾝ","kana_city":"ﾜｶﾔﾏｼ","kana_address":"ﾐﾅﾐｻﾞｲﾓｸﾁｮｳ","pref":"和歌山県","city":"和歌山市","address":"南材木丁"},
{"zip_code":"6408292","kana_pref":"ﾜｶﾔﾏｹﾝ","kana_city":"ﾜｶﾔﾏｼ","kana_address":"ﾐﾅﾐｼﾞﾝｺﾞﾍﾞｴﾁｮｳ","pref":"和歌山県","city":"和歌山市","address":"南甚五兵衛丁"},
{"zip_code":"6408254","kana_pref":"ﾜｶﾔﾏｹﾝ","kana_city":"ﾜｶﾔﾏｼ","kana_address":"ﾐﾅﾐﾀﾅﾍﾞﾁｮｳ","pref":"和歌山県","city":"和歌山市","address":"南田辺丁"},
{"zip_code":"6408032","kana_pref":"ﾜｶﾔﾏｹﾝ","kana_city":"ﾜｶﾔﾏｼ","kana_address":"ﾐﾅﾐﾀﾞｲｸﾏﾁ","pref":"和歌山県","city":"和歌山市","address":"南大工町"},
{"zip_code":"6408251","kana_pref":"ﾜｶﾔﾏｹﾝ","kana_city":"ﾜｶﾔﾏｼ","kana_address":"ﾐﾅﾐﾁｭｳｹﾞﾝﾏﾁ","pref":"和歌山県","city":"和歌山市","address":"南中間町"},
{"zip_code":"6408318","kana_pref":"ﾜｶﾔﾏｹﾝ","kana_city":"ﾜｶﾔﾏｼ","kana_address":"ﾐﾅﾐﾃﾞｼﾞﾏ","pref":"和歌山県","city":"和歌山市","address":"南出島"},
{"zip_code":"6400315","kana_pref":"ﾜｶﾔﾏｹﾝ","kana_city":"ﾜｶﾔﾏｼ","kana_address":"ﾐﾅﾐﾊﾞﾀ","pref":"和歌山県","city":"和歌山市","address":"南畑"},
{"zip_code":"6408232","kana_pref":"ﾜｶﾔﾏｹﾝ","kana_city":"ﾜｶﾔﾏｼ","kana_address":"ﾐﾅﾐﾐｷﾞﾜﾁｮｳ","pref":"和歌山県","city":"和歌山市","address":"南汀丁"},
{"zip_code":"6400102","kana_pref":"ﾜｶﾔﾏｹﾝ","kana_city":"ﾜｶﾔﾏｼ","kana_address":"ﾐﾔﾏ","pref":"和歌山県","city":"和歌山市","address":"深山"},
{"zip_code":"6400305","kana_pref":"ﾜｶﾔﾏｹﾝ","kana_city":"ﾜｶﾔﾏｼ","kana_address":"ﾐｮｳｵｳｼﾞ","pref":"和歌山県","city":"和歌山市","address":"明王寺"},
{"zip_code":"6408431","kana_pref":"ﾜｶﾔﾏｹﾝ","kana_city":"ﾜｶﾔﾏｼ","kana_address":"ﾑｶｲ","pref":"和歌山県","city":"和歌山市","address":"向"},
{"zip_code":"6408077","kana_pref":"ﾜｶﾔﾏｹﾝ","kana_city":"ﾜｶﾔﾏｼ","kana_address":"ﾑｽｼﾞﾒ","pref":"和歌山県","city":"和歌山市","address":"六筋目"},
{"zip_code":"6408482","kana_pref":"ﾜｶﾔﾏｹﾝ","kana_city":"ﾜｶﾔﾏｼ","kana_address":"ﾑｿﾀ","pref":"和歌山県","city":"和歌山市","address":"六十谷"},
{"zip_code":"6408024","kana_pref":"ﾜｶﾔﾏｹﾝ","kana_city":"ﾜｶﾔﾏｼ","kana_address":"ﾓﾄﾃﾞﾗﾏﾁ","pref":"和歌山県","city":"和歌山市","address":"元寺町"},
{"zip_code":"6408006","kana_pref":"ﾜｶﾔﾏｹﾝ","kana_city":"ﾜｶﾔﾏｼ","kana_address":"ﾓﾄﾃﾞﾗﾏﾁﾋｶﾞｼﾉﾁｮｳ","pref":"和歌山県","city":"和歌山市","address":"元寺町東ノ丁"},
{"zip_code":"6408007","kana_pref":"ﾜｶﾔﾏｹﾝ","kana_city":"ﾜｶﾔﾏｼ","kana_address":"ﾓﾄﾃﾞﾗﾏﾁﾆｼﾉﾁｮｳ","pref":"和歌山県","city":"和歌山市","address":"元寺町西ノ丁"},
{"zip_code":"6408005","kana_pref":"ﾜｶﾔﾏｹﾝ","kana_city":"ﾜｶﾔﾏｼ","kana_address":"ﾓﾄﾃﾞﾗﾏﾁﾐﾅﾐﾉﾁｮｳ","pref":"和歌山県","city":"和歌山市","address":"元寺町南ノ丁"},
{"zip_code":"6408008","kana_pref":"ﾜｶﾔﾏｹﾝ","kana_city":"ﾜｶﾔﾏｼ","kana_address":"ﾓﾄﾃﾞﾗﾏﾁｷﾀﾉﾁｮｳ","pref":"和歌山県","city":"和歌山市","address":"元寺町北ノ丁"},
{"zip_code":"6408216","kana_pref":"ﾜｶﾔﾏｹﾝ","kana_city":"ﾜｶﾔﾏｼ","kana_address":"ﾓﾄﾊﾞｸﾛｳﾏﾁ","pref":"和歌山県","city":"和歌山市","address":"元博労町"},
{"zip_code":"6408127","kana_pref":"ﾜｶﾔﾏｹﾝ","kana_city":"ﾜｶﾔﾏｼ","kana_address":"ﾓﾄﾏﾁﾌﾞｷﾞｮｳﾁｮｳ","pref":"和歌山県","city":"和歌山市","address":"元町奉行丁"},
{"zip_code":"6400113","kana_pref":"ﾜｶﾔﾏｹﾝ","kana_city":"ﾜｶﾔﾏｼ","kana_address":"ﾓﾄﾜｷ","pref":"和歌山県","city":"和歌山市","address":"本脇"},
{"zip_code":"6400324","kana_pref":"ﾜｶﾔﾏｹﾝ","kana_city":"ﾜｶﾔﾏｼ","kana_address":"ﾓﾄﾜﾀﾘ","pref":"和歌山県","city":"和歌山市","address":"本渡"},
{"zip_code":"6408312","kana_pref":"ﾜｶﾔﾏｹﾝ","kana_city":"ﾜｶﾔﾏｼ","kana_address":"ﾓﾘｵﾃﾎﾞ","pref":"和歌山県","city":"和歌山市","address":"森小手穂"},
{"zip_code":"6408151","kana_pref":"ﾜｶﾔﾏｹﾝ","kana_city":"ﾜｶﾔﾏｼ","kana_address":"ﾔｶﾀﾏﾁ","pref":"和歌山県","city":"和歌山市","address":"屋形町"},
{"zip_code":"6400321","kana_pref":"ﾜｶﾔﾏｹﾝ","kana_city":"ﾜｶﾔﾏｼ","kana_address":"ﾔｸｼｮｳｼﾞ","pref":"和歌山県","city":"和歌山市","address":"薬勝寺"},
{"zip_code":"6400307","kana_pref":"ﾜｶﾔﾏｹﾝ","kana_city":"ﾜｶﾔﾏｼ","kana_address":"ﾔﾀ","pref":"和歌山県","city":"和歌山市","address":"矢田"},
{"zip_code":"6408336","kana_pref":"ﾜｶﾔﾏｹﾝ","kana_city":"ﾜｶﾔﾏｼ","kana_address":"ﾔﾅｷﾞﾁｮｳ","pref":"和歌山県","city":"和歌山市","address":"柳丁"},
{"zip_code":"6408138","kana_pref":"ﾜｶﾔﾏｹﾝ","kana_city":"ﾜｶﾔﾏｼ","kana_address":"ﾔﾌﾞﾉﾁｮｳ","pref":"和歌山県","city":"和歌山市","address":"薮ノ丁"},
{"zip_code":"6408132","kana_pref":"ﾜｶﾔﾏｹﾝ","kana_city":"ﾜｶﾔﾏｼ","kana_address":"ﾔﾏｶｹﾞﾁｮｳ","pref":"和歌山県","city":"和歌山市","address":"山蔭丁"},
{"zip_code":"6408065","kana_pref":"ﾜｶﾔﾏｹﾝ","kana_city":"ﾜｶﾔﾏｼ","kana_address":"ﾔﾏﾌﾞｷﾁｮｳ","pref":"和歌山県","city":"和歌山市","address":"山吹丁"},
{"zip_code":"6400363","kana_pref":"ﾜｶﾔﾏｹﾝ","kana_city":"ﾜｶﾔﾏｼ","kana_address":"ﾖｼｻﾞﾄ","pref":"和歌山県","city":"和歌山市","address":"吉里"},
{"zip_code":"6408343","kana_pref":"ﾜｶﾔﾏｹﾝ","kana_city":"ﾜｶﾔﾏｼ","kana_address":"ﾖｼﾀﾞ","pref":"和歌山県","city":"和歌山市","address":"吉田"},
{"zip_code":"6400331","kana_pref":"ﾜｶﾔﾏｹﾝ","kana_city":"ﾜｶﾔﾏｼ","kana_address":"ﾖｼﾊﾗ","pref":"和歌山県","city":"和歌山市","address":"吉原"},
{"zip_code":"6408060","kana_pref":"ﾜｶﾔﾏｹﾝ","kana_city":"ﾜｶﾔﾏｼ","kana_address":"ﾖｽｼﾞﾒ","pref":"和歌山県","city":"和歌山市","address":"四筋目"},
{"zip_code":"6408214","kana_pref":"ﾜｶﾔﾏｹﾝ","kana_city":"ﾜｶﾔﾏｼ","kana_address":"ﾖﾘｱｲﾏﾁ","pref":"和歌山県","city":"和歌山市","address":"寄合町"},
{"zip_code":"6408035","kana_pref":"ﾜｶﾔﾏｹﾝ","kana_city":"ﾜｶﾔﾏｼ","kana_address":"ﾖﾛｽﾞﾏﾁ","pref":"和歌山県","city":"和歌山市","address":"万町"},
{"zip_code":"6408144","kana_pref":"ﾜｶﾔﾏｹﾝ","kana_city":"ﾜｶﾔﾏｼ","kana_address":"ﾖﾝﾊﾞﾝﾁｮｳ","pref":"和歌山県","city":"和歌山市","address":"四番丁"},
{"zip_code":"6408154","kana_pref":"ﾜｶﾔﾏｹﾝ","kana_city":"ﾜｶﾔﾏｼ","kana_address":"ﾛｸﾊﾞﾝﾁｮｳ","pref":"和歌山県","city":"和歌山市","address":"六番丁"},
{"zip_code":"6408119","kana_pref":"ﾜｶﾔﾏｹﾝ","kana_city":"ﾜｶﾔﾏｼ","kana_address":"ﾜｶﾏﾁ","pref":"和歌山県","city":"和歌山市","address":"和歌町"},
{"zip_code":"6401163","kana_pref":"ﾜｶﾔﾏｹﾝ","kana_city":"ｶｲﾅﾝｼ","kana_address":"ｱｶﾇﾏ","pref":"和歌山県","city":"海南市","address":"赤沼"},
{"zip_code":"6401164","kana_pref":"ﾜｶﾔﾏｹﾝ","kana_city":"ｶｲﾅﾝｼ","kana_address":"ｴﾋﾞﾀﾆ","pref":"和歌山県","city":"海南市","address":"海老谷"},
{"zip_code":"6401175","kana_pref":"ﾜｶﾔﾏｹﾝ","kana_city":"ｶｲﾅﾝｼ","kana_address":"ｵｷﾉﾉ","pref":"和歌山県","city":"海南市","address":"沖野々"},
{"zip_code":"6401162","kana_pref":"ﾜｶﾔﾏｹﾝ","kana_city":"ｶｲﾅﾝｼ","kana_address":"ｶﾐﾀﾞﾆ","pref":"和歌山県","city":"海南市","address":"上谷"},
{"zip_code":"6401174","kana_pref":"ﾜｶﾔﾏｹﾝ","kana_city":"ｶｲﾅﾝｼ","kana_address":"ｷﾂﾞ","pref":"和歌山県","city":"海南市","address":"木津"},
{"zip_code":"6401167","kana_pref":"ﾜｶﾔﾏｹﾝ","kana_city":"ｶｲﾅﾝｼ","kana_address":"ｸﾎﾝｼﾞ","pref":"和歌山県","city":"海南市","address":"九品寺"},
{"zip_code":"6400443","kana_pref":"ﾜｶﾔﾏｹﾝ","kana_city":"ｶｲﾅﾝｼ","kana_address":"ｼﾓﾂﾉ","pref":"和歌山県","city":"海南市","address":"下津野"},
{"zip_code":"6400451","kana_pref":"ﾜｶﾔﾏｹﾝ","kana_city":"ｶｲﾅﾝｼ","kana_address":"ﾀｶﾂﾞ","pref":"和歌山県","city":"海南市","address":"高津"},
{"zip_code":"6401166","kana_pref":"ﾜｶﾔﾏｹﾝ","kana_city":"ｶｲﾅﾝｼ","kana_address":"ﾂｹﾞﾀﾞﾆ","pref":"和歌山県","city":"海南市","address":"次ケ谷"},
{"zip_code":"6400441","kana_pref":"ﾜｶﾔﾏｹﾝ","kana_city":"ｶｲﾅﾝｼ","kana_address":"ﾅﾅﾔﾏ","pref":"和歌山県","city":"海南市","address":"七山"},
{"zip_code":"6401161","kana_pref":"ﾜｶﾔﾏｹﾝ","kana_city":"ｶｲﾅﾝｼ","kana_address":"ﾉｶﾐｼﾝ","pref":"和歌山県","city":"海南市","address":"野上新"},
{"zip_code":"6401171","kana_pref":"ﾜｶﾔﾏｹﾝ","kana_city":"ｶｲﾅﾝｼ","kana_address":"ﾉｶﾐﾅｶ","pref":"和歌山県","city":"海南市","address":"野上中"},
{"zip_code":"6400453","kana_pref":"ﾜｶﾔﾏｹﾝ","kana_city":"ｶｲﾅﾝｼ","kana_address":"ﾉｼﾞﾘ","pref":"和歌山県","city":"海南市","address":"野尻"},
{"zip_code":"6400442","kana_pref":"ﾜｶﾔﾏｹﾝ","kana_city":"ｶｲﾅﾝｼ","kana_address":"ﾊﾗﾉ","pref":"和歌山県","city":"海南市","address":"原野"},
{"zip_code":"6401165","kana_pref":"ﾜｶﾔﾏｹﾝ","kana_city":"ｶｲﾅﾝｼ","kana_address":"ﾋﾔﾐｽﾞ","pref":"和歌山県","city":"海南市","address":"ひや水"},
{"zip_code":"6400454","kana_pref":"ﾜｶﾔﾏｹﾝ","kana_city":"ｶｲﾅﾝｼ","kana_address":"ﾍﾞﾂｲﾝ","pref":"和歌山県","city":"海南市","address":"別院"},
{"zip_code":"6401172","kana_pref":"ﾜｶﾔﾏｹﾝ","kana_city":"ｶｲﾅﾝｼ","kana_address":"ﾐｿﾞﾉｸﾁ","pref":"和歌山県","city":"海南市","address":"溝ノ口"},
{"zip_code":"6401173","kana_pref":"ﾜｶﾔﾏｹﾝ","kana_city":"ｶｲﾅﾝｼ","kana_address":"ﾑｸﾉｷ","pref":"和歌山県","city":"海南市","address":"椋木"},
{"zip_code":"6400452","kana_pref":"ﾜｶﾔﾏｹﾝ","kana_city":"ｶｲﾅﾝｼ","kana_address":"ﾓｳｺ","pref":"和歌山県","city":"海南市","address":"孟子"},
{"zip_code":"6400403","kana_pref":"ﾜｶﾔﾏｹﾝ","kana_city":"ｷﾉｶﾜｼ","kana_address":"ｷｼｶﾞﾜﾁｮｳｱﾏﾃﾗ","pref":"和歌山県","city":"紀の川市","address":"貴志川町尼寺"},
{"zip_code":"6400424","kana_pref":"ﾜｶﾔﾏｹﾝ","kana_city":"ｷﾉｶﾜｼ","kana_address":"ｷｼｶﾞﾜﾁｮｳｲﾉｸﾁ","pref":"和歌山県","city":"紀の川市","address":"貴志川町井ノ口"},
{"zip_code":"6400412","kana_pref":"ﾜｶﾔﾏｹﾝ","kana_city":"ｷﾉｶﾜｼ","kana_address":"ｷｼｶﾞﾜﾁｮｳｳｴﾉﾔﾏ","pref":"和歌山県","city":"紀の川市","address":"貴志川町上野山"},
{"zip_code":"6400422","kana_pref":"ﾜｶﾔﾏｹﾝ","kana_city":"ｷﾉｶﾜｼ","kana_address":"ｷｼｶﾞﾜﾁｮｳｷｼｵﾉ","pref":"和歌山県","city":"紀の川市","address":"貴志川町岸小野"},
{"zip_code":"6400405","kana_pref":"ﾜｶﾔﾏｹﾝ","kana_city":"ｷﾉｶﾜｼ","kana_address":"ｷｼｶﾞﾜﾁｮｳｷｼﾐﾔ","pref":"和歌山県","city":"紀の川市","address":"貴志川町岸宮"},
{"zip_code":"6400421","kana_pref":"ﾜｶﾔﾏｹﾝ","kana_city":"ｷﾉｶﾜｼ","kana_address":"ｷｼｶﾞﾜﾁｮｳｷﾀ","pref":"和歌山県","city":"紀の川市","address":"貴志川町北"},
{"zip_code":"6400402","kana_pref":"ﾜｶﾔﾏｹﾝ","kana_city":"ｷﾉｶﾜｼ","kana_address":"ｷｼｶﾞﾜﾁｮｳｷﾀﾔﾏ","pref":"和歌山県","city":"紀の川市","address":"貴志川町北山"},
{"zip_code":"6400414","kana_pref":"ﾜｶﾔﾏｹﾝ","kana_city":"ｷﾉｶﾜｼ","kana_address":"ｷｼｶﾞﾜﾁｮｳｸﾆｼ","pref":"和歌山県","city":"紀の川市","address":"貴志川町国主"},
{"zip_code":"6400413","kana_pref":"ﾜｶﾔﾏｹﾝ","kana_city":"ｷﾉｶﾜｼ","kana_address":"ｷｼｶﾞﾜﾁｮｳｺｳﾄﾞ","pref":"和歌山県","city":"紀の川市","address":"貴志川町神戸"},
{"zip_code":"6400423","kana_pref":"ﾜｶﾔﾏｹﾝ","kana_city":"ｷﾉｶﾜｼ","kana_address":"ｷｼｶﾞﾜﾁｮｳﾀｶｵ","pref":"和歌山県","city":"紀の川市","address":"貴志川町高尾"},
{"zip_code":"6400404","kana_pref":"ﾜｶﾔﾏｹﾝ","kana_city":"ｷﾉｶﾜｼ","kana_address":"ｷｼｶﾞﾜﾁｮｳﾄﾘｲ","pref":"和歌山県","city":"紀の川市","address":"貴志川町鳥居"},
{"zip_code":"6400415","kana_pref":"ﾜｶﾔﾏｹﾝ","kana_city":"ｷﾉｶﾜｼ","kana_address":"ｷｼｶﾞﾜﾁｮｳﾅｶﾞﾊﾗ","pref":"和歌山県","city":"紀の川市","address":"貴志川町長原"},
{"zip_code":"6400416","kana_pref":"ﾜｶﾔﾏｹﾝ","kana_city":"ｷﾉｶﾜｼ","kana_address":"ｷｼｶﾞﾜﾁｮｳﾅｶﾞﾔﾏ","pref":"和歌山県","city":"紀の川市","address":"貴志川町長山"},
{"zip_code":"6400406","kana_pref":"ﾜｶﾔﾏｹﾝ","kana_city":"ｷﾉｶﾜｼ","kana_address":"ｷｼｶﾞﾜﾁｮｳﾆｼﾔﾏ","pref":"和歌山県","city":"紀の川市","address":"貴志川町西山"},
{"zip_code":"6400411","kana_pref":"ﾜｶﾔﾏｹﾝ","kana_city":"ｷﾉｶﾜｼ","kana_address":"ｷｼｶﾞﾜﾁｮｳﾏｴﾀﾞ","pref":"和歌山県","city":"紀の川市","address":"貴志川町前田"},
{"zip_code":"6400401","kana_pref":"ﾜｶﾔﾏｹﾝ","kana_city":"ｷﾉｶﾜｼ","kana_address":"ｷｼｶﾞﾜﾁｮｳﾏﾙｽ","pref":"和歌山県","city":"紀の川市","address":"貴志川町丸栖"},
{"zip_code":"6401333","kana_pref":"ﾜｶﾔﾏｹﾝ","kana_city":"ｷﾉｶﾜｼ","kana_address":"ﾓﾓﾔﾏﾁｮｳｶｲﾄ","pref":"和歌山県","city":"紀の川市","address":"桃山町垣内"},
{"zip_code":"6401332","kana_pref":"ﾜｶﾔﾏｹﾝ","kana_city":"ｷﾉｶﾜｼ","kana_address":"ﾓﾓﾔﾏﾁｮｳﾅｶﾊﾀ","pref":"和歌山県","city":"紀の川市","address":"桃山町中畑"},
{"zip_code":"6401331","kana_pref":"ﾜｶﾔﾏｹﾝ","kana_city":"ｷﾉｶﾜｼ","kana_address":"ﾓﾓﾔﾏﾁｮｳﾐﾈ","pref":"和歌山県","city":"紀の川市","address":"桃山町峯"},
{"zip_code":"6401100","kana_pref":"ﾜｶﾔﾏｹﾝ","kana_city":"ｶｲｿｳｸﾞﾝｷﾐﾉﾁｮｳ","kana_address":"","pref":"和歌山県","city":"海草郡紀美野町","address":""},
{"zip_code":"6401213","kana_pref":"ﾜｶﾔﾏｹﾝ","kana_city":"ｶｲｿｳｸﾞﾝｷﾐﾉﾁｮｳ","kana_address":"ｱｶｷﾞ","pref":"和歌山県","city":"海草郡紀美野町","address":"赤木"},
{"zip_code":"6401231","kana_pref":"ﾜｶﾔﾏｹﾝ","kana_city":"ｶｲｿｳｸﾞﾝｷﾐﾉﾁｮｳ","kana_address":"ｱｹﾞｲ","pref":"和歌山県","city":"海草郡紀美野町","address":"上ケ井"},
{"zip_code":"6401207","kana_pref":"ﾜｶﾔﾏｹﾝ","kana_city":"ｶｲｿｳｸﾞﾝｷﾐﾉﾁｮｳ","kana_address":"ｲｾｷ","pref":"和歌山県","city":"海草郡紀美野町","address":"井堰"},
{"zip_code":"6401365","kana_pref":"ﾜｶﾔﾏｹﾝ","kana_city":"ｶｲｿｳｸﾞﾝｷﾐﾉﾁｮｳ","kana_address":"ｲﾏﾆｼ","pref":"和歌山県","city":"海草郡紀美野町","address":"今西"},
{"zip_code":"6401202","kana_pref":"ﾜｶﾔﾏｹﾝ","kana_city":"ｶｲｿｳｸﾞﾝｷﾐﾉﾁｮｳ","kana_address":"ｳｲﾀﾆ","pref":"和歌山県","city":"海草郡紀美野町","address":"初生谷"},
{"zip_code":"6401113","kana_pref":"ﾜｶﾔﾏｹﾝ","kana_city":"ｶｲｿｳｸﾞﾝｷﾐﾉﾁｮｳ","kana_address":"ｳﾒﾓﾄ","pref":"和歌山県","city":"海草郡紀美野町","address":"梅本"},
{"zip_code":"6401353","kana_pref":"ﾜｶﾔﾏｹﾝ","kana_city":"ｶｲｿｳｸﾞﾝｷﾐﾉﾁｮｳ","kana_address":"ｴﾝﾐｮｳｼﾞ","pref":"和歌山県","city":"海草郡紀美野町","address":"円明寺"},
{"zip_code":"6401222","kana_pref":"ﾜｶﾔﾏｹﾝ","kana_city":"ｶｲｿｳｸﾞﾝｷﾐﾉﾁｮｳ","kana_address":"ｵｵｽﾐ","pref":"和歌山県","city":"海草郡紀美野町","address":"大角"},
{"zip_code":"6401115","kana_pref":"ﾜｶﾔﾏｹﾝ","kana_city":"ｶｲｿｳｸﾞﾝｷﾐﾉﾁｮｳ","kana_address":"ｵｸｻｻ","pref":"和歌山県","city":"海草郡紀美野町","address":"奥佐々"},
{"zip_code":"6401351","kana_pref":"ﾜｶﾔﾏｹﾝ","kana_city":"ｶｲｿｳｸﾞﾝｷﾐﾉﾁｮｳ","kana_address":"ｶﾁﾔ","pref":"和歌山県","city":"海草郡紀美野町","address":"勝谷"},
{"zip_code":"6401211","kana_pref":"ﾜｶﾔﾏｹﾝ","kana_city":"ｶｲｿｳｸﾞﾝｷﾐﾉﾁｮｳ","kana_address":"ｶﾂﾗｾ","pref":"和歌山県","city":"海草郡紀美野町","address":"桂瀬"},
{"zip_code":"6401255","kana_pref":"ﾜｶﾔﾏｹﾝ","kana_city":"ｶｲｿｳｸﾞﾝｷﾐﾉﾁｮｳ","kana_address":"ｶﾏﾀｷ","pref":"和歌山県","city":"海草郡紀美野町","address":"釜滝"},
{"zip_code":"6401215","kana_pref":"ﾜｶﾔﾏｹﾝ","kana_city":"ｶｲｿｳｸﾞﾝｷﾐﾉﾁｮｳ","kana_address":"ｶﾏﾀｷ","pref":"和歌山県","city":"海草郡紀美野町","address":"鎌滝"},
{"zip_code":"6401201","kana_pref":"ﾜｶﾔﾏｹﾝ","kana_city":"ｶｲｿｳｸﾞﾝｷﾐﾉﾁｮｳ","kana_address":"ｷﾀﾉ","pref":"和歌山県","city":"海草郡紀美野町","address":"北野"},
{"zip_code":"6401251","kana_pref":"ﾜｶﾔﾏｹﾝ","kana_city":"ｶｲｿｳｸﾞﾝｷﾐﾉﾁｮｳ","kana_address":"ｸﾆｷﾞﾊﾗ","pref":"和歌山県","city":"海草郡紀美野町","address":"国木原"},
{"zip_code":"6401472","kana_pref":"ﾜｶﾔﾏｹﾝ","kana_city":"ｶｲｿｳｸﾞﾝｷﾐﾉﾁｮｳ","kana_address":"ｹﾊﾞﾗｶﾐ","pref":"和歌山県","city":"海草郡紀美野町","address":"毛原上"},
{"zip_code":"6401476","kana_pref":"ﾜｶﾔﾏｹﾝ","kana_city":"ｶｲｿｳｸﾞﾝｷﾐﾉﾁｮｳ","kana_address":"ｹﾊﾞﾗｼﾓ","pref":"和歌山県","city":"海草郡紀美野町","address":"毛原下"},
{"zip_code":"6401474","kana_pref":"ﾜｶﾔﾏｹﾝ","kana_city":"ｶｲｿｳｸﾞﾝｷﾐﾉﾁｮｳ","kana_address":"ｹﾊﾞﾗﾅｶ","pref":"和歌山県","city":"海草郡紀美野町","address":"毛原中"},
{"zip_code":"6401473","kana_pref":"ﾜｶﾔﾏｹﾝ","kana_city":"ｶｲｿｳｸﾞﾝｷﾐﾉﾁｮｳ","kana_address":"ｹﾊﾞﾗﾐﾔ","pref":"和歌山県","city":"海草郡紀美野町","address":"毛原宮"},
{"zip_code":"6401243","kana_pref":"ﾜｶﾔﾏｹﾝ","kana_city":"ｶｲｿｳｸﾞﾝｷﾐﾉﾁｮｳ","kana_address":"ｺｳﾉｲﾁﾊﾞ","pref":"和歌山県","city":"海草郡紀美野町","address":"神野市場"},
{"zip_code":"6401475","kana_pref":"ﾜｶﾔﾏｹﾝ","kana_city":"ｶｲｿｳｸﾞﾝｷﾐﾉﾁｮｳ","kana_address":"ｺﾆｼ","pref":"和歌山県","city":"海草郡紀美野町","address":"小西"},
{"zip_code":"6401112","kana_pref":"ﾜｶﾔﾏｹﾝ","kana_city":"ｶｲｿｳｸﾞﾝｷﾐﾉﾁｮｳ","kana_address":"ｻｶﾓﾄ","pref":"和歌山県","city":"海草郡紀美野町","address":"坂本"},
{"zip_code":"6401102","kana_pref":"ﾜｶﾔﾏｹﾝ","kana_city":"ｶｲｿｳｸﾞﾝｷﾐﾉﾁｮｳ","kana_address":"ｼﾊﾞﾒ","pref":"和歌山県","city":"海草郡紀美野町","address":"柴目"},
{"zip_code":"6401121","kana_pref":"ﾜｶﾔﾏｹﾝ","kana_city":"ｶｲｿｳｸﾞﾝｷﾐﾉﾁｮｳ","kana_address":"ｼﾓｻｻ","pref":"和歌山県","city":"海草郡紀美野町","address":"下佐々"},
{"zip_code":"6401141","kana_pref":"ﾜｶﾔﾏｹﾝ","kana_city":"ｶｲｿｳｸﾞﾝｷﾐﾉﾁｮｳ","kana_address":"ｼｮｳﾊﾞﾀ","pref":"和歌山県","city":"海草郡紀美野町","address":"小畑"},
{"zip_code":"6401364","kana_pref":"ﾜｶﾔﾏｹﾝ","kana_city":"ｶｲｿｳｸﾞﾝｷﾐﾉﾁｮｳ","kana_address":"ｽｹﾞｻﾞﾜ","pref":"和歌山県","city":"海草郡紀美野町","address":"菅沢"},
{"zip_code":"6401363","kana_pref":"ﾜｶﾔﾏｹﾝ","kana_city":"ｶｲｿｳｸﾞﾝｷﾐﾉﾁｮｳ","kana_address":"ﾀ","pref":"和歌山県","city":"海草郡紀美野町","address":"田"},
{"zip_code":"6401212","kana_pref":"ﾜｶﾔﾏｹﾝ","kana_city":"ｶｲｿｳｸﾞﾝｷﾐﾉﾁｮｳ","kana_address":"ﾀｶﾊﾀ","pref":"和歌山県","city":"海草郡紀美野町","address":"高畑"},
{"zip_code":"6401362","kana_pref":"ﾜｶﾔﾏｹﾝ","kana_city":"ｶｲｿｳｸﾞﾝｷﾐﾉﾁｮｳ","kana_address":"ﾀｷﾉｶﾞﾜ","pref":"和歌山県","city":"海草郡紀美野町","address":"滝ノ川"},
{"zip_code":"6401352","kana_pref":"ﾜｶﾔﾏｹﾝ","kana_city":"ｶｲｿｳｸﾞﾝｷﾐﾉﾁｮｳ","kana_address":"ﾀﾆ","pref":"和歌山県","city":"海草郡紀美野町","address":"谷"},
{"zip_code":"6401223","kana_pref":"ﾜｶﾔﾏｹﾝ","kana_city":"ｶｲｿｳｸﾞﾝｷﾐﾉﾁｮｳ","kana_address":"ﾂｶﾞﾜ","pref":"和歌山県","city":"海草郡紀美野町","address":"津川"},
{"zip_code":"6401131","kana_pref":"ﾜｶﾔﾏｹﾝ","kana_city":"ｶｲｿｳｸﾞﾝｷﾐﾉﾁｮｳ","kana_address":"ﾄﾄﾞﾛｷ","pref":"和歌山県","city":"海草郡紀美野町","address":"動木"},
{"zip_code":"6401361","kana_pref":"ﾜｶﾔﾏｹﾝ","kana_city":"ｶｲｿｳｸﾞﾝｷﾐﾉﾁｮｳ","kana_address":"ﾅｶ","pref":"和歌山県","city":"海草郡紀美野町","address":"中"},
{"zip_code":"6401114","kana_pref":"ﾜｶﾔﾏｹﾝ","kana_city":"ｶｲｿｳｸﾞﾝｷﾐﾉﾁｮｳ","kana_address":"ﾅｶﾀﾞ","pref":"和歌山県","city":"海草郡紀美野町","address":"中田"},
{"zip_code":"6401101","kana_pref":"ﾜｶﾔﾏｹﾝ","kana_city":"ｶｲｿｳｸﾞﾝｷﾐﾉﾁｮｳ","kana_address":"ﾅｶﾞﾀﾆ","pref":"和歌山県","city":"海草郡紀美野町","address":"長谷"},
{"zip_code":"6401241","kana_pref":"ﾜｶﾔﾏｹﾝ","kana_city":"ｶｲｿｳｸﾞﾝｷﾐﾉﾁｮｳ","kana_address":"ﾅｶﾞﾀﾆ","pref":"和歌山県","city":"海草郡紀美野町","address":"永谷"},
{"zip_code":"6401252","kana_pref":"ﾜｶﾔﾏｹﾝ","kana_city":"ｶｲｿｳｸﾞﾝｷﾐﾉﾁｮｳ","kana_address":"ﾆｼﾉ","pref":"和歌山県","city":"海草郡紀美野町","address":"西野"},
{"zip_code":"6401235","kana_pref":"ﾜｶﾔﾏｹﾝ","kana_city":"ｶｲｿｳｸﾞﾝｷﾐﾉﾁｮｳ","kana_address":"ﾉﾅｶ","pref":"和歌山県","city":"海草郡紀美野町","address":"野中"},
{"zip_code":"6401471","kana_pref":"ﾜｶﾔﾏｹﾝ","kana_city":"ｶｲｿｳｸﾞﾝｷﾐﾉﾁｮｳ","kana_address":"ﾊｾﾐﾔ","pref":"和歌山県","city":"海草郡紀美野町","address":"長谷宮"},
{"zip_code":"6401203","kana_pref":"ﾜｶﾔﾏｹﾝ","kana_city":"ｶｲｿｳｸﾞﾝｷﾐﾉﾁｮｳ","kana_address":"ﾊﾅﾉﾊﾗ","pref":"和歌山県","city":"海草郡紀美野町","address":"花野原"},
{"zip_code":"6401253","kana_pref":"ﾜｶﾔﾏｹﾝ","kana_city":"ｶｲｿｳｸﾞﾝｷﾐﾉﾁｮｳ","kana_address":"ﾋｶﾞｼﾉ","pref":"和歌山県","city":"海草郡紀美野町","address":"東野"},
{"zip_code":"6401242","kana_pref":"ﾜｶﾔﾏｹﾝ","kana_city":"ｶｲｿｳｸﾞﾝｷﾐﾉﾁｮｳ","kana_address":"ﾋﾉｼﾀ","pref":"和歌山県","city":"海草郡紀美野町","address":"樋下"},
{"zip_code":"6401111","kana_pref":"ﾜｶﾔﾏｹﾝ","kana_city":"ｶｲｿｳｸﾞﾝｷﾐﾉﾁｮｳ","kana_address":"ﾌｸｲ","pref":"和歌山県","city":"海草郡紀美野町","address":"福井"},
{"zip_code":"6401244","kana_pref":"ﾜｶﾔﾏｹﾝ","kana_city":"ｶｲｿｳｸﾞﾝｷﾐﾉﾁｮｳ","kana_address":"ﾌｸﾀﾞ","pref":"和歌山県","city":"海草郡紀美野町","address":"福田"},
{"zip_code":"6401205","kana_pref":"ﾜｶﾔﾏｹﾝ","kana_city":"ｶｲｿｳｸﾞﾝｷﾐﾉﾁｮｳ","kana_address":"ﾏｸﾆﾐﾔ","pref":"和歌山県","city":"海草郡紀美野町","address":"真国宮"},
{"zip_code":"6401366","kana_pref":"ﾜｶﾔﾏｹﾝ","kana_city":"ｶｲｿｳｸﾞﾝｷﾐﾉﾁｮｳ","kana_address":"ﾏﾂｶﾞﾐﾈ","pref":"和歌山県","city":"海草郡紀美野町","address":"松ケ峰"},
{"zip_code":"6401254","kana_pref":"ﾜｶﾔﾏｹﾝ","kana_city":"ｶｲｿｳｸﾞﾝｷﾐﾉﾁｮｳ","kana_address":"ﾏﾂｾ","pref":"和歌山県","city":"海草郡紀美野町","address":"松瀬"},
{"zip_code":"6401221","kana_pref":"ﾜｶﾔﾏｹﾝ","kana_city":"ｶｲｿｳｸﾞﾝｷﾐﾉﾁｮｳ","kana_address":"ﾐｵｶﾞﾜ","pref":"和歌山県","city":"海草郡紀美野町","address":"三尾川"},
{"zip_code":"6401233","kana_pref":"ﾜｶﾔﾏｹﾝ","kana_city":"ｶｲｿｳｸﾞﾝｷﾐﾉﾁｮｳ","kana_address":"ﾐﾅﾐﾊﾞﾀ","pref":"和歌山県","city":"海草郡紀美野町","address":"南畑"},
{"zip_code":"6401206","kana_pref":"ﾜｶﾔﾏｹﾝ","kana_city":"ｶｲｿｳｸﾞﾝｷﾐﾉﾁｮｳ","kana_address":"ﾐﾉｶﾞｲﾄ","pref":"和歌山県","city":"海草郡紀美野町","address":"蓑垣内"},
{"zip_code":"6401204","kana_pref":"ﾜｶﾔﾏｹﾝ","kana_city":"ｶｲｿｳｸﾞﾝｷﾐﾉﾁｮｳ","kana_address":"ﾐﾉﾂﾛ","pref":"和歌山県","city":"海草郡紀美野町","address":"蓑津呂"},
{"zip_code":"6401214","kana_pref":"ﾜｶﾔﾏｹﾝ","kana_city":"ｶｲｿｳｸﾞﾝｷﾐﾉﾁｮｳ","kana_address":"ﾐｮｳｿﾞｴ","pref":"和歌山県","city":"海草郡紀美野町","address":"明添"},
{"zip_code":"6401232","kana_pref":"ﾜｶﾔﾏｹﾝ","kana_city":"ｶｲｿｳｸﾞﾝｷﾐﾉﾁｮｳ","kana_address":"ﾐﾛｸ","pref":"和歌山県","city":"海草郡紀美野町","address":"箕六"},
{"zip_code":"6401234","kana_pref":"ﾜｶﾔﾏｹﾝ","kana_city":"ｶｲｿｳｸﾞﾝｷﾐﾉﾁｮｳ","kana_address":"ﾔｽｲ","pref":"和歌山県","city":"海草郡紀美野町","address":"安井"},
{"zip_code":"6401354","kana_pref":"ﾜｶﾔﾏｹﾝ","kana_city":"ｶｲｿｳｸﾞﾝｷﾐﾉﾁｮｳ","kana_address":"ﾖｺﾞｳ","pref":"和歌山県","city":"海草郡紀美野町","address":"四郷"},
{"zip_code":"6401103","kana_pref":"ﾜｶﾔﾏｹﾝ","kana_city":"ｶｲｿｳｸﾞﾝｷﾐﾉﾁｮｳ","kana_address":"ﾖｼﾉ","pref":"和歌山県","city":"海草郡紀美野町","address":"吉野"},
{"zip_code":"6401481","kana_pref":"ﾜｶﾔﾏｹﾝ","kana_city":"ｲﾄｸﾞﾝｶﾂﾗｷﾞﾁｮｳ","kana_address":"ｼﾝｼﾞｮｳ","pref":"和歌山県","city":"伊都郡かつらぎ町","address":"新城"}]}