{"zip_code":[
{"zip_code":"6410056","kana_pref":"ﾜｶﾔﾏｹﾝ","kana_city":"ﾜｶﾔﾏｼ","kana_address":"ｱｷﾊﾞﾁｮｳ","pref":"和歌山県","city":"和歌山市","address":"秋葉町"},
{"zip_code":"6410044","kana_pref":"ﾜｶﾔﾏｹﾝ","kana_city":"ﾜｶﾔﾏｼ","kana_address":"ｲﾏﾌﾞｸ","pref":"和歌山県","city":"和歌山市","address":"今福"},
{"zip_code":"6410043","kana_pref":"ﾜｶﾔﾏｹﾝ","kana_city":"ﾜｶﾔﾏｼ","kana_address":"ｳｽﾞ","pref":"和歌山県","city":"和歌山市","address":"宇須"},
{"zip_code":"6410053","kana_pref":"ﾜｶﾔﾏｹﾝ","kana_city":"ﾜｶﾔﾏｼ","kana_address":"ｳﾁｺｼﾁｮｳ","pref":"和歌山県","city":"和歌山市","address":"打越町"},
{"zip_code":"6410013","kana_pref":"ﾜｶﾔﾏｹﾝ","kana_city":"ﾜｶﾔﾏｼ","kana_address":"ｳﾁﾊﾗ","pref":"和歌山県","city":"和歌山市","address":"内原"},
{"zip_code":"6410008","kana_pref":"ﾜｶﾔﾏｹﾝ","kana_city":"ﾜｶﾔﾏｼ","kana_address":"ｷﾀﾅｶｼﾞﾏ","pref":"和歌山県","city":"和歌山市","address":"北中島"},
{"zip_code":"6410012","kana_pref":"ﾜｶﾔﾏｹﾝ","kana_city":"ﾜｶﾔﾏｼ","kana_address":"ｷﾐｲﾃﾞﾗ","pref":"和歌山県","city":"和歌山市","address":"紀三井寺"},
{"zip_code":"6410001","kana_pref":"ﾜｶﾔﾏｹﾝ","kana_city":"ﾜｶﾔﾏｼ","kana_address":"ｸｲﾉｾ","pref":"和歌山県","city":"和歌山市","address":"杭ノ瀬"},
{"zip_code":"6410014","kana_pref":"ﾜｶﾔﾏｹﾝ","kana_city":"ﾜｶﾔﾏｼ","kana_address":"ｹﾐ","pref":"和歌山県","city":"和歌山市","address":"毛見"},
{"zip_code":"6410007","kana_pref":"ﾜｶﾔﾏｹﾝ","kana_city":"ﾜｶﾔﾏｼ","kana_address":"ｺｻﾞｲｶ","pref":"和歌山県","city":"和歌山市","address":"小雑賀"},
{"zip_code":"6410062","kana_pref":"ﾜｶﾔﾏｹﾝ","kana_city":"ﾜｶﾔﾏｼ","kana_address":"ｻｲｶｻﾞｷ","pref":"和歌山県","city":"和歌山市","address":"雑賀崎"},
{"zip_code":"6410003","kana_pref":"ﾜｶﾔﾏｹﾝ","kana_city":"ﾜｶﾔﾏｼ","kana_address":"ｻｶﾀﾞ","pref":"和歌山県","city":"和歌山市","address":"坂田"},
{"zip_code":"6410054","kana_pref":"ﾜｶﾔﾏｹﾝ","kana_city":"ﾜｶﾔﾏｼ","kana_address":"ｼｵﾔ","pref":"和歌山県","city":"和歌山市","address":"塩屋"},
{"zip_code":"6410002","kana_pref":"ﾜｶﾔﾏｹﾝ","kana_city":"ﾜｶﾔﾏｼ","kana_address":"ｼﾝﾅｶｼﾞﾏ","pref":"和歌山県","city":"和歌山市","address":"新中島"},
{"zip_code":"6410042","kana_pref":"ﾜｶﾔﾏｹﾝ","kana_city":"ﾜｶﾔﾏｼ","kana_address":"ｼﾝﾎﾞﾘﾋｶﾞｼ","pref":"和歌山県","city":"和歌山市","address":"新堀東"},
{"zip_code":"6410023","kana_pref":"ﾜｶﾔﾏｹﾝ","kana_city":"ﾜｶﾔﾏｼ","kana_address":"ｼﾝﾜｶｳﾗ","pref":"和歌山県","city":"和歌山市","address":"新和歌浦"},
{"zip_code":"6410035","kana_pref":"ﾜｶﾔﾏｹﾝ","kana_city":"ﾜｶﾔﾏｼ","kana_address":"ｾｷﾄﾞ","pref":"和歌山県","city":"和歌山市","address":"関戸"},
{"zip_code":"6410005","kana_pref":"ﾜｶﾔﾏｹﾝ","kana_city":"ﾜｶﾔﾏｼ","kana_address":"ﾀｼﾞﾘ","pref":"和歌山県","city":"和歌山市","address":"田尻"},
{"zip_code":"6410061","kana_pref":"ﾜｶﾔﾏｹﾝ","kana_city":"ﾜｶﾔﾏｼ","kana_address":"ﾀﾉ","pref":"和歌山県","city":"和歌山市","address":"田野"},
{"zip_code":"6410006","kana_pref":"ﾜｶﾔﾏｹﾝ","kana_city":"ﾜｶﾔﾏｼ","kana_address":"ﾅｶｼﾞﾏ","pref":"和歌山県","city":"和歌山市","address":"中島"},
{"zip_code":"6410034","kana_pref":"ﾜｶﾔﾏｹﾝ","kana_city":"ﾜｶﾔﾏｼ","kana_address":"ﾆｲﾀｶﾁｮｳ","pref":"和歌山県","city":"和歌山市","address":"新高町"},
{"zip_code":"6410031","kana_pref":"ﾜｶﾔﾏｹﾝ","kana_city":"ﾜｶﾔﾏｼ","kana_address":"ﾆｼｺﾆﾘ","pref":"和歌山県","city":"和歌山市","address":"西小二里"},
{"zip_code":"6410051","kana_pref":"ﾜｶﾔﾏｹﾝ","kana_city":"ﾜｶﾔﾏｼ","kana_address":"ﾆｼﾀｶﾏﾂ","pref":"和歌山県","city":"和歌山市","address":"西高松"},
{"zip_code":"6410036","kana_pref":"ﾜｶﾔﾏｹﾝ","kana_city":"ﾜｶﾔﾏｼ","kana_address":"ﾆｼﾊﾏ","pref":"和歌山県","city":"和歌山市","address":"西浜"},
{"zip_code":"6410015","kana_pref":"ﾜｶﾔﾏｹﾝ","kana_city":"ﾜｶﾔﾏｼ","kana_address":"ﾇﾉﾋｷ","pref":"和歌山県","city":"和歌山市","address":"布引"},
{"zip_code":"6410032","kana_pref":"ﾜｶﾔﾏｹﾝ","kana_city":"ﾜｶﾔﾏｼ","kana_address":"ﾋｶﾞｼｺﾆﾘﾁｮｳ","pref":"和歌山県","city":"和歌山市","address":"東小二里町"},
{"zip_code":"6410052","kana_pref":"ﾜｶﾔﾏｹﾝ","kana_city":"ﾜｶﾔﾏｼ","kana_address":"ﾋｶﾞｼﾀｶﾏﾂ","pref":"和歌山県","city":"和歌山市","address":"東高松"},
{"zip_code":"6410041","kana_pref":"ﾜｶﾔﾏｹﾝ","kana_city":"ﾜｶﾔﾏｼ","kana_address":"ﾎﾘﾄﾞﾒﾐﾅﾐﾉﾁｮｳ","pref":"和歌山県","city":"和歌山市","address":"堀止南ノ丁"},
{"zip_code":"6410045","kana_pref":"ﾜｶﾔﾏｹﾝ","kana_city":"ﾜｶﾔﾏｼ","kana_address":"ﾎﾘﾄﾞﾒﾆｼ","pref":"和歌山県","city":"和歌山市","address":"堀止西"},
{"zip_code":"6410033","kana_pref":"ﾜｶﾔﾏｹﾝ","kana_city":"ﾜｶﾔﾏｼ","kana_address":"ﾏﾂｶﾞｵｶ","pref":"和歌山県","city":"和歌山市","address":"松ケ丘"},
{"zip_code":"6410011","kana_pref":"ﾜｶﾔﾏｹﾝ","kana_city":"ﾜｶﾔﾏｼ","kana_address":"ﾐｶｽﾞﾗ","pref":"和歌山県","city":"和歌山市","address":"三葛"},
{"zip_code":"6410025","kana_pref":"ﾜｶﾔﾏｹﾝ","kana_city":"ﾜｶﾔﾏｼ","kana_address":"ﾜｶｳﾗﾅｶ","pref":"和歌山県","city":"和歌山市","address":"和歌浦中"},
{"zip_code":"6410021","kana_pref":"ﾜｶﾔﾏｹﾝ","kana_city":"ﾜｶﾔﾏｼ","kana_address":"ﾜｶｳﾗﾋｶﾞｼ","pref":"和歌山県","city":"和歌山市","address":"和歌浦東"},
{"zip_code":"6410024","kana_pref":"ﾜｶﾔﾏｹﾝ","kana_city":"ﾜｶﾔﾏｼ","kana_address":"ﾜｶｳﾗﾆｼ","pref":"和歌山県","city":"和歌山市","address":"和歌浦西"},
{"zip_code":"6410022","kana_pref":"ﾜｶﾔﾏｹﾝ","kana_city":"ﾜｶﾔﾏｼ","kana_address":"ﾜｶｳﾗﾐﾅﾐ","pref":"和歌山県","city":"和歌山市","address":"和歌浦南"},
{"zip_code":"6410055","kana_pref":"ﾜｶﾔﾏｹﾝ","kana_city":"ﾜｶﾔﾏｼ","kana_address":"ﾜｶｶﾞﾜﾁｮｳ","pref":"和歌山県","city":"和歌山市","address":"和歌川町"},
{"zip_code":"6410004","kana_pref":"ﾜｶﾔﾏｹﾝ","kana_city":"ﾜｶﾔﾏｼ","kana_address":"ﾜﾀﾞ","pref":"和歌山県","city":"和歌山市","address":"和田"}]}