{"zip_code":[
{"zip_code":"6420000","kana_pref":"ﾜｶﾔﾏｹﾝ","kana_city":"ｶｲﾅﾝｼ","kana_address":"","pref":"和歌山県","city":"海南市","address":""},
{"zip_code":"6420015","kana_pref":"ﾜｶﾔﾏｹﾝ","kana_city":"ｶｲﾅﾝｼ","kana_address":"ｱｯｿ","pref":"和歌山県","city":"海南市","address":"且来"},
{"zip_code":"6420021","kana_pref":"ﾜｶﾔﾏｹﾝ","kana_city":"ｶｲﾅﾝｼ","kana_address":"ｲﾀﾞ","pref":"和歌山県","city":"海南市","address":"井田"},
{"zip_code":"6420013","kana_pref":"ﾜｶﾔﾏｹﾝ","kana_city":"ｶｲﾅﾝｼ","kana_address":"ｵｵﾀ","pref":"和歌山県","city":"海南市","address":"多田"},
{"zip_code":"6420022","kana_pref":"ﾜｶﾔﾏｹﾝ","kana_city":"ｶｲﾅﾝｼ","kana_address":"ｵｵﾉﾅｶ","pref":"和歌山県","city":"海南市","address":"大野中"},
{"zip_code":"6420012","kana_pref":"ﾜｶﾔﾏｹﾝ","kana_city":"ｶｲﾅﾝｼ","kana_address":"ｵｶﾀﾞ","pref":"和歌山県","city":"海南市","address":"岡田"},
{"zip_code":"6420014","kana_pref":"ﾜｶﾔﾏｹﾝ","kana_city":"ｶｲﾅﾝｼ","kana_address":"ｵﾉﾀﾞ","pref":"和歌山県","city":"海南市","address":"小野田"},
{"zip_code":"6420016","kana_pref":"ﾜｶﾔﾏｹﾝ","kana_city":"ｶｲﾅﾝｼ","kana_address":"ｷﾀｱｶｻｶ","pref":"和歌山県","city":"海南市","address":"北赤坂"},
{"zip_code":"6420027","kana_pref":"ﾜｶﾔﾏｹﾝ","kana_city":"ｶｲﾅﾝｼ","kana_address":"ｸﾞﾐｻﾞﾜ","pref":"和歌山県","city":"海南市","address":"扱沢"},
{"zip_code":"6420011","kana_pref":"ﾜｶﾔﾏｹﾝ","kana_city":"ｶｲﾅﾝｼ","kana_address":"ｸﾛｴ","pref":"和歌山県","city":"海南市","address":"黒江"},
{"zip_code":"6420024","kana_pref":"ﾜｶﾔﾏｹﾝ","kana_city":"ｶｲﾅﾝｼ","kana_address":"ｻｶｲ","pref":"和歌山県","city":"海南市","address":"阪井"},
{"zip_code":"6420023","kana_pref":"ﾜｶﾔﾏｹﾝ","kana_city":"ｶｲﾅﾝｼ","kana_address":"ｼｺﾈ","pref":"和歌山県","city":"海南市","address":"重根"},
{"zip_code":"6420035","kana_pref":"ﾜｶﾔﾏｹﾝ","kana_city":"ｶｲﾅﾝｼ","kana_address":"ｼﾐｽﾞ","pref":"和歌山県","city":"海南市","address":"冷水"},
{"zip_code":"6420031","kana_pref":"ﾜｶﾔﾏｹﾝ","kana_city":"ｶｲﾅﾝｼ","kana_address":"ﾂｷｼﾞ","pref":"和歌山県","city":"海南市","address":"築地"},
{"zip_code":"6420033","kana_pref":"ﾜｶﾔﾏｹﾝ","kana_city":"ｶｲﾅﾝｼ","kana_address":"ﾄﾘｲ","pref":"和歌山県","city":"海南市","address":"鳥居"},
{"zip_code":"6420032","kana_pref":"ﾜｶﾔﾏｹﾝ","kana_city":"ｶｲﾅﾝｼ","kana_address":"ﾅﾀｶ","pref":"和歌山県","city":"海南市","address":"名高"},
{"zip_code":"6420028","kana_pref":"ﾜｶﾔﾏｹﾝ","kana_city":"ｶｲﾅﾝｼ","kana_address":"ﾊﾀｶﾞﾜ","pref":"和歌山県","city":"海南市","address":"幡川"},
{"zip_code":"6420004","kana_pref":"ﾜｶﾔﾏｹﾝ","kana_city":"ｶｲﾅﾝｼ","kana_address":"ﾊﾞﾊﾞﾁｮｳ","pref":"和歌山県","city":"海南市","address":"馬場町"},
{"zip_code":"6420002","kana_pref":"ﾜｶﾔﾏｹﾝ","kana_city":"ｶｲﾅﾝｼ","kana_address":"ﾋｶﾀ","pref":"和歌山県","city":"海南市","address":"日方"},
{"zip_code":"6420025","kana_pref":"ﾜｶﾔﾏｹﾝ","kana_city":"ｶｲﾅﾝｼ","kana_address":"ﾋｶﾞｼﾊﾞﾀ","pref":"和歌山県","city":"海南市","address":"東畑"},
{"zip_code":"6420034","kana_pref":"ﾜｶﾔﾏｹﾝ","kana_city":"ｶｲﾅﾝｼ","kana_address":"ﾌｼﾞｼﾛ","pref":"和歌山県","city":"海南市","address":"藤白"},
{"zip_code":"6420001","kana_pref":"ﾜｶﾔﾏｹﾝ","kana_city":"ｶｲﾅﾝｼ","kana_address":"ﾌﾉｵ","pref":"和歌山県","city":"海南市","address":"船尾"},
{"zip_code":"6420026","kana_pref":"ﾜｶﾔﾏｹﾝ","kana_city":"ｶｲﾅﾝｼ","kana_address":"ﾍﾞｯｼﾖ","pref":"和歌山県","city":"海南市","address":"別所"},
{"zip_code":"6420017","kana_pref":"ﾜｶﾔﾏｹﾝ","kana_city":"ｶｲﾅﾝｼ","kana_address":"ﾐﾅﾐｱｶｻｶ","pref":"和歌山県","city":"海南市","address":"南赤坂"},
{"zip_code":"6420003","kana_pref":"ﾜｶﾔﾏｹﾝ","kana_city":"ｶｲﾅﾝｼ","kana_address":"ﾔﾏｻｷﾁｮｳ","pref":"和歌山県","city":"海南市","address":"山崎町"},
{"zip_code":"6420029","kana_pref":"ﾜｶﾔﾏｹﾝ","kana_city":"ｶｲﾅﾝｼ","kana_address":"ﾔﾏﾀﾞ","pref":"和歌山県","city":"海南市","address":"山田"}]}