{"zip_code":[
{"zip_code":"6430614","kana_pref":"ﾜｶﾔﾏｹﾝ","kana_city":"ｲﾄｸﾞﾝｶﾂﾗｷﾞﾁｮｳ","kana_address":"ﾊﾅｿﾞﾉｱﾀﾗｼ","pref":"和歌山県","city":"伊都郡かつらぎ町","address":"花園新子"},
{"zip_code":"6430613","kana_pref":"ﾜｶﾔﾏｹﾝ","kana_city":"ｲﾄｸﾞﾝｶﾂﾗｷﾞﾁｮｳ","kana_address":"ﾊﾅｿﾞﾉｲｹﾉｸﾎﾞ","pref":"和歌山県","city":"伊都郡かつらぎ町","address":"花園池ノ窪"},
{"zip_code":"6430612","kana_pref":"ﾜｶﾔﾏｹﾝ","kana_city":"ｲﾄｸﾞﾝｶﾂﾗｷﾞﾁｮｳ","kana_address":"ﾊﾅｿﾞﾉｷﾀﾃﾞﾗ","pref":"和歌山県","city":"伊都郡かつらぎ町","address":"花園北寺"},
{"zip_code":"6430611","kana_pref":"ﾜｶﾔﾏｹﾝ","kana_city":"ｲﾄｸﾞﾝｶﾂﾗｷﾞﾁｮｳ","kana_address":"ﾊﾅｿﾞﾉﾔﾅｾ","pref":"和歌山県","city":"伊都郡かつらぎ町","address":"花園梁瀬"},
{"zip_code":"6430000","kana_pref":"ﾜｶﾔﾏｹﾝ","kana_city":"ｱﾘﾀﾞｸﾞﾝﾕｱｻﾁｮｳ","kana_address":"","pref":"和歌山県","city":"有田郡湯浅町","address":""},
{"zip_code":"6430002","kana_pref":"ﾜｶﾔﾏｹﾝ","kana_city":"ｱﾘﾀﾞｸﾞﾝﾕｱｻﾁｮｳ","kana_address":"ｱｵｷ","pref":"和歌山県","city":"有田郡湯浅町","address":"青木"},
{"zip_code":"6430005","kana_pref":"ﾜｶﾔﾏｹﾝ","kana_city":"ｱﾘﾀﾞｸﾞﾝﾕｱｻﾁｮｳ","kana_address":"ｽﾊﾗ","pref":"和歌山県","city":"有田郡湯浅町","address":"栖原"},
{"zip_code":"6430006","kana_pref":"ﾜｶﾔﾏｹﾝ","kana_city":"ｱﾘﾀﾞｸﾞﾝﾕｱｻﾁｮｳ","kana_address":"ﾀ","pref":"和歌山県","city":"有田郡湯浅町","address":"田"},
{"zip_code":"6430003","kana_pref":"ﾜｶﾔﾏｹﾝ","kana_city":"ｱﾘﾀﾞｸﾞﾝﾕｱｻﾁｮｳ","kana_address":"ﾍﾞｯｼﾖ","pref":"和歌山県","city":"有田郡湯浅町","address":"別所"},
{"zip_code":"6430001","kana_pref":"ﾜｶﾔﾏｹﾝ","kana_city":"ｱﾘﾀﾞｸﾞﾝﾕｱｻﾁｮｳ","kana_address":"ﾔﾏﾀﾞ","pref":"和歌山県","city":"有田郡湯浅町","address":"山田"},
{"zip_code":"6430004","kana_pref":"ﾜｶﾔﾏｹﾝ","kana_city":"ｱﾘﾀﾞｸﾞﾝﾕｱｻﾁｮｳ","kana_address":"ﾕｱｻ","pref":"和歌山県","city":"有田郡湯浅町","address":"湯浅"},
{"zip_code":"6430007","kana_pref":"ﾜｶﾔﾏｹﾝ","kana_city":"ｱﾘﾀﾞｸﾞﾝﾕｱｻﾁｮｳ","kana_address":"ﾖｼｶﾜ","pref":"和歌山県","city":"有田郡湯浅町","address":"吉川"},
{"zip_code":"6430000","kana_pref":"ﾜｶﾔﾏｹﾝ","kana_city":"ｱﾘﾀﾞｸﾞﾝﾋﾛｶﾞﾜﾁｮｳ","kana_address":"","pref":"和歌山県","city":"有田郡広川町","address":""},
{"zip_code":"6430055","kana_pref":"ﾜｶﾔﾏｹﾝ","kana_city":"ｱﾘﾀﾞｸﾞﾝﾋﾛｶﾞﾜﾁｮｳ","kana_address":"ｲｾｷ","pref":"和歌山県","city":"有田郡広川町","address":"井関"},
{"zip_code":"6430052","kana_pref":"ﾜｶﾔﾏｹﾝ","kana_city":"ｱﾘﾀﾞｸﾞﾝﾋﾛｶﾞﾜﾁｮｳ","kana_address":"ｶﾐﾂｷﾞ","pref":"和歌山県","city":"有田郡広川町","address":"上津木"},
{"zip_code":"6430064","kana_pref":"ﾜｶﾔﾏｹﾝ","kana_city":"ｱﾘﾀﾞｸﾞﾝﾋﾛｶﾞﾜﾁｮｳ","kana_address":"ｶﾐﾅｶﾉ","pref":"和歌山県","city":"有田郡広川町","address":"上中野"},
{"zip_code":"6430073","kana_pref":"ﾜｶﾔﾏｹﾝ","kana_city":"ｱﾘﾀﾞｸﾞﾝﾋﾛｶﾞﾜﾁｮｳ","kana_address":"ｶﾛ","pref":"和歌山県","city":"有田郡広川町","address":"唐尾"},
{"zip_code":"6430053","kana_pref":"ﾜｶﾔﾏｹﾝ","kana_city":"ｱﾘﾀﾞｸﾞﾝﾋﾛｶﾞﾜﾁｮｳ","kana_address":"ｺﾞﾉｾ","pref":"和歌山県","city":"有田郡広川町","address":"河瀬"},
{"zip_code":"6430051","kana_pref":"ﾜｶﾔﾏｹﾝ","kana_city":"ｱﾘﾀﾞｸﾞﾝﾋﾛｶﾞﾜﾁｮｳ","kana_address":"ｼﾓﾂｷﾞ","pref":"和歌山県","city":"有田郡広川町","address":"下津木"},
{"zip_code":"6430062","kana_pref":"ﾜｶﾔﾏｹﾝ","kana_city":"ｱﾘﾀﾞｸﾞﾝﾋﾛｶﾞﾜﾁｮｳ","kana_address":"ﾄﾉ","pref":"和歌山県","city":"有田郡広川町","address":"殿"},
{"zip_code":"6430066","kana_pref":"ﾜｶﾔﾏｹﾝ","kana_city":"ｱﾘﾀﾞｸﾞﾝﾋﾛｶﾞﾜﾁｮｳ","kana_address":"ﾅｼﾏ","pref":"和歌山県","city":"有田郡広川町","address":"名島"},
{"zip_code":"6430074","kana_pref":"ﾜｶﾔﾏｹﾝ","kana_city":"ｱﾘﾀﾞｸﾞﾝﾋﾛｶﾞﾜﾁｮｳ","kana_address":"ﾆｼﾋﾛ","pref":"和歌山県","city":"有田郡広川町","address":"西広"},
{"zip_code":"6430065","kana_pref":"ﾜｶﾔﾏｹﾝ","kana_city":"ｱﾘﾀﾞｸﾞﾝﾋﾛｶﾞﾜﾁｮｳ","kana_address":"ﾋｶﾞｼﾅｶ","pref":"和歌山県","city":"有田郡広川町","address":"東中"},
{"zip_code":"6430071","kana_pref":"ﾜｶﾔﾏｹﾝ","kana_city":"ｱﾘﾀﾞｸﾞﾝﾋﾛｶﾞﾜﾁｮｳ","kana_address":"ﾋﾛ","pref":"和歌山県","city":"有田郡広川町","address":"広"},
{"zip_code":"6430054","kana_pref":"ﾜｶﾔﾏｹﾝ","kana_city":"ｱﾘﾀﾞｸﾞﾝﾋﾛｶﾞﾜﾁｮｳ","kana_address":"ﾏｴﾀﾞ","pref":"和歌山県","city":"有田郡広川町","address":"前田"},
{"zip_code":"6430063","kana_pref":"ﾜｶﾔﾏｹﾝ","kana_city":"ｱﾘﾀﾞｸﾞﾝﾋﾛｶﾞﾜﾁｮｳ","kana_address":"ﾐﾅﾐｶﾅﾔ","pref":"和歌山県","city":"有田郡広川町","address":"南金屋"},
{"zip_code":"6430061","kana_pref":"ﾜｶﾔﾏｹﾝ","kana_city":"ｱﾘﾀﾞｸﾞﾝﾋﾛｶﾞﾜﾁｮｳ","kana_address":"ﾔﾅｾ","pref":"和歌山県","city":"有田郡広川町","address":"柳瀬"},
{"zip_code":"6430072","kana_pref":"ﾜｶﾔﾏｹﾝ","kana_city":"ｱﾘﾀﾞｸﾞﾝﾋﾛｶﾞﾜﾁｮｳ","kana_address":"ﾔﾏﾓﾄ","pref":"和歌山県","city":"有田郡広川町","address":"山本"},
{"zip_code":"6430075","kana_pref":"ﾜｶﾔﾏｹﾝ","kana_city":"ｱﾘﾀﾞｸﾞﾝﾋﾛｶﾞﾜﾁｮｳ","kana_address":"ﾜﾀﾞ","pref":"和歌山県","city":"有田郡広川町","address":"和田"},
{"zip_code":"6430000","kana_pref":"ﾜｶﾔﾏｹﾝ","kana_city":"ｱﾘﾀﾞｸﾞﾝｱﾘﾀﾞｶﾞﾜﾁｮｳ","kana_address":"","pref":"和歌山県","city":"有田郡有田川町","address":""},
{"zip_code":"6430366","kana_pref":"ﾜｶﾔﾏｹﾝ","kana_city":"ｱﾘﾀﾞｸﾞﾝｱﾘﾀﾞｶﾞﾜﾁｮｳ","kana_address":"ｱｵ","pref":"和歌山県","city":"有田郡有田川町","address":"粟生"},
{"zip_code":"6430136","kana_pref":"ﾜｶﾔﾏｹﾝ","kana_city":"ｱﾘﾀﾞｸﾞﾝｱﾘﾀﾞｶﾞﾜﾁｮｳ","kana_address":"ｱｵﾀ","pref":"和歌山県","city":"有田郡有田川町","address":"青田"},
{"zip_code":"6430129","kana_pref":"ﾜｶﾔﾏｹﾝ","kana_city":"ｱﾘﾀﾞｸﾞﾝｱﾘﾀﾞｶﾞﾜﾁｮｳ","kana_address":"ｱｾﾞﾀ","pref":"和歌山県","city":"有田郡有田川町","address":"畦田"},
{"zip_code":"6430127","kana_pref":"ﾜｶﾔﾏｹﾝ","kana_city":"ｱﾘﾀﾞｸﾞﾝｱﾘﾀﾞｶﾞﾜﾁｮｳ","kana_address":"ｱﾘﾊﾗ","pref":"和歌山県","city":"有田郡有田川町","address":"有原"},
{"zip_code":"6430603","kana_pref":"ﾜｶﾔﾏｹﾝ","kana_city":"ｱﾘﾀﾞｸﾞﾝｱﾘﾀﾞｶﾞﾜﾁｮｳ","kana_address":"ｲﾀｵ","pref":"和歌山県","city":"有田郡有田川町","address":"板尾"},
{"zip_code":"6430604","kana_pref":"ﾜｶﾔﾏｹﾝ","kana_city":"ｱﾘﾀﾞｸﾞﾝｱﾘﾀﾞｶﾞﾜﾁｮｳ","kana_address":"ｲﾀﾞﾆ","pref":"和歌山県","city":"有田郡有田川町","address":"井谷"},
{"zip_code":"6430144","kana_pref":"ﾜｶﾔﾏｹﾝ","kana_city":"ｱﾘﾀﾞｸﾞﾝｱﾘﾀﾞｶﾞﾜﾁｮｳ","kana_address":"ｲﾁﾊﾞ","pref":"和歌山県","city":"有田郡有田川町","address":"市場"},
{"zip_code":"6430851","kana_pref":"ﾜｶﾔﾏｹﾝ","kana_city":"ｱﾘﾀﾞｸﾞﾝｱﾘﾀﾞｶﾞﾜﾁｮｳ","kana_address":"ｲﾃﾞ","pref":"和歌山県","city":"有田郡有田川町","address":"出"},
{"zip_code":"6430165","kana_pref":"ﾜｶﾔﾏｹﾝ","kana_city":"ｱﾘﾀﾞｸﾞﾝｱﾘﾀﾞｶﾞﾜﾁｮｳ","kana_address":"ｲﾄｶﾞﾜ","pref":"和歌山県","city":"有田郡有田川町","address":"糸川"},
{"zip_code":"6430174","kana_pref":"ﾜｶﾔﾏｹﾝ","kana_city":"ｱﾘﾀﾞｸﾞﾝｱﾘﾀﾞｶﾞﾜﾁｮｳ","kana_address":"ｲﾄﾉ","pref":"和歌山県","city":"有田郡有田川町","address":"糸野"},
{"zip_code":"6430844","kana_pref":"ﾜｶﾔﾏｹﾝ","kana_city":"ｱﾘﾀﾞｸﾞﾝｱﾘﾀﾞｶﾞﾜﾁｮｳ","kana_address":"ｲﾉｸﾁ","pref":"和歌山県","city":"有田郡有田川町","address":"井口"},
{"zip_code":"6430312","kana_pref":"ﾜｶﾔﾏｹﾝ","kana_city":"ｱﾘﾀﾞｸﾞﾝｱﾘﾀﾞｶﾞﾜﾁｮｳ","kana_address":"ｲﾜﾉｶﾞﾜ","pref":"和歌山県","city":"有田郡有田川町","address":"岩野河"},
{"zip_code":"6430164","kana_pref":"ﾜｶﾔﾏｹﾝ","kana_city":"ｱﾘﾀﾞｸﾞﾝｱﾘﾀﾞｶﾞﾜﾁｮｳ","kana_address":"ｳｲｺﾞｹ","pref":"和歌山県","city":"有田郡有田川町","address":"宇井苔"},
{"zip_code":"6430026","kana_pref":"ﾜｶﾔﾏｹﾝ","kana_city":"ｱﾘﾀﾞｸﾞﾝｱﾘﾀﾞｶﾞﾜﾁｮｳ","kana_address":"ｳｴﾉ","pref":"和歌山県","city":"有田郡有田川町","address":"植野"},
{"zip_code":"6430131","kana_pref":"ﾜｶﾔﾏｹﾝ","kana_city":"ｱﾘﾀﾞｸﾞﾝｱﾘﾀﾞｶﾞﾜﾁｮｳ","kana_address":"ｵｲｼ","pref":"和歌山県","city":"有田郡有田川町","address":"生石"},
{"zip_code":"6430847","kana_pref":"ﾜｶﾔﾏｹﾝ","kana_city":"ｱﾘﾀﾞｸﾞﾝｱﾘﾀﾞｶﾞﾜﾁｮｳ","kana_address":"ｵｵｶﾊﾀ","pref":"和歌山県","city":"有田郡有田川町","address":"大賀畑"},
{"zip_code":"6430513","kana_pref":"ﾜｶﾔﾏｹﾝ","kana_city":"ｱﾘﾀﾞｸﾞﾝｱﾘﾀﾞｶﾞﾜﾁｮｳ","kana_address":"ｵｵｿﾞｳ","pref":"和歌山県","city":"有田郡有田川町","address":"大蔵"},
{"zip_code":"6430134","kana_pref":"ﾜｶﾔﾏｹﾝ","kana_city":"ｱﾘﾀﾞｸﾞﾝｱﾘﾀﾞｶﾞﾜﾁｮｳ","kana_address":"ｵｵｿﾉ","pref":"和歌山県","city":"有田郡有田川町","address":"大薗"},
{"zip_code":"6430845","kana_pref":"ﾜｶﾔﾏｹﾝ","kana_city":"ｱﾘﾀﾞｸﾞﾝｱﾘﾀﾞｶﾞﾜﾁｮｳ","kana_address":"ｵｵﾀﾆ","pref":"和歌山県","city":"有田郡有田川町","address":"大谷"},
{"zip_code":"6430135","kana_pref":"ﾜｶﾔﾏｹﾝ","kana_city":"ｱﾘﾀﾞｸﾞﾝｱﾘﾀﾞｶﾞﾜﾁｮｳ","kana_address":"ｵｵﾆｼ","pref":"和歌山県","city":"有田郡有田川町","address":"大西"},
{"zip_code":"6430142","kana_pref":"ﾜｶﾔﾏｹﾝ","kana_city":"ｱﾘﾀﾞｸﾞﾝｱﾘﾀﾞｶﾞﾜﾁｮｳ","kana_address":"ｵｶﾞﾜ","pref":"和歌山県","city":"有田郡有田川町","address":"小川"},
{"zip_code":"6430022","kana_pref":"ﾜｶﾔﾏｹﾝ","kana_city":"ｱﾘﾀﾞｸﾞﾝｱﾘﾀﾞｶﾞﾜﾁｮｳ","kana_address":"ｵｷ","pref":"和歌山県","city":"有田郡有田川町","address":"奥"},
{"zip_code":"6430601","kana_pref":"ﾜｶﾔﾏｹﾝ","kana_city":"ｱﾘﾀﾞｸﾞﾝｱﾘﾀﾞｶﾞﾜﾁｮｳ","kana_address":"ｵｼﾃ","pref":"和歌山県","city":"有田郡有田川町","address":"押手"},
{"zip_code":"6430034","kana_pref":"ﾜｶﾔﾏｹﾝ","kana_city":"ｱﾘﾀﾞｸﾞﾝｱﾘﾀﾞｶﾞﾜﾁｮｳ","kana_address":"ｵｼﾏ","pref":"和歌山県","city":"有田郡有田川町","address":"小島"},
{"zip_code":"6430852","kana_pref":"ﾜｶﾔﾏｹﾝ","kana_city":"ｱﾘﾀﾞｸﾞﾝｱﾘﾀﾞｶﾞﾜﾁｮｳ","kana_address":"ｵﾅｶ","pref":"和歌山県","city":"有田郡有田川町","address":"尾中"},
{"zip_code":"6430133","kana_pref":"ﾜｶﾔﾏｹﾝ","kana_city":"ｱﾘﾀﾞｸﾞﾝｱﾘﾀﾞｶﾞﾜﾁｮｳ","kana_address":"ｵﾉｳｴ","pref":"和歌山県","city":"有田郡有田川町","address":"尾上"},
{"zip_code":"6430132","kana_pref":"ﾜｶﾔﾏｹﾝ","kana_city":"ｱﾘﾀﾞｸﾞﾝｱﾘﾀﾞｶﾞﾜﾁｮｳ","kana_address":"ｵﾊﾗ","pref":"和歌山県","city":"有田郡有田川町","address":"小原"},
{"zip_code":"6430812","kana_pref":"ﾜｶﾔﾏｹﾝ","kana_city":"ｱﾘﾀﾞｸﾞﾝｱﾘﾀﾞｶﾞﾜﾁｮｳ","kana_address":"ｶｲｸﾞﾗ","pref":"和歌山県","city":"有田郡有田川町","address":"垣倉"},
{"zip_code":"6430843","kana_pref":"ﾜｶﾔﾏｹﾝ","kana_city":"ｱﾘﾀﾞｸﾞﾝｱﾘﾀﾞｶﾞﾜﾁｮｳ","kana_address":"ｶｼｺ","pref":"和歌山県","city":"有田郡有田川町","address":"賢"},
{"zip_code":"6430152","kana_pref":"ﾜｶﾔﾏｹﾝ","kana_city":"ｱﾘﾀﾞｸﾞﾝｱﾘﾀﾞｶﾞﾜﾁｮｳ","kana_address":"ｶﾅﾔ","pref":"和歌山県","city":"有田郡有田川町","address":"金屋"},
{"zip_code":"6430176","kana_pref":"ﾜｶﾔﾏｹﾝ","kana_city":"ｱﾘﾀﾞｸﾞﾝｱﾘﾀﾞｶﾞﾜﾁｮｳ","kana_address":"ｶﾏﾅｶ","pref":"和歌山県","city":"有田郡有田川町","address":"釜中"},
{"zip_code":"6430855","kana_pref":"ﾜｶﾔﾏｹﾝ","kana_city":"ｱﾘﾀﾞｸﾞﾝｱﾘﾀﾞｶﾞﾜﾁｮｳ","kana_address":"ｶﾐﾅｶｼﾏ","pref":"和歌山県","city":"有田郡有田川町","address":"上中島"},
{"zip_code":"6430171","kana_pref":"ﾜｶﾔﾏｹﾝ","kana_city":"ｱﾘﾀﾞｸﾞﾝｱﾘﾀﾞｶﾞﾜﾁｮｳ","kana_address":"ｶﾐﾑﾂｶﾞﾜ","pref":"和歌山県","city":"有田郡有田川町","address":"上六川"},
{"zip_code":"6430551","kana_pref":"ﾜｶﾔﾏｹﾝ","kana_city":"ｱﾘﾀﾞｸﾞﾝｱﾘﾀﾞｶﾞﾜﾁｮｳ","kana_address":"ｶﾐﾕｶﾜ","pref":"和歌山県","city":"有田郡有田川町","address":"上湯川"},
{"zip_code":"6430364","kana_pref":"ﾜｶﾔﾏｹﾝ","kana_city":"ｱﾘﾀﾞｸﾞﾝｱﾘﾀﾞｶﾞﾜﾁｮｳ","kana_address":"ｶﾜｲ","pref":"和歌山県","city":"有田郡有田川町","address":"川合"},
{"zip_code":"6430313","kana_pref":"ﾜｶﾔﾏｹﾝ","kana_city":"ｱﾘﾀﾞｸﾞﾝｱﾘﾀﾞｶﾞﾜﾁｮｳ","kana_address":"ｶﾜｸﾞﾁ","pref":"和歌山県","city":"有田郡有田川町","address":"川口"},
{"zip_code":"6430161","kana_pref":"ﾜｶﾔﾏｹﾝ","kana_city":"ｱﾘﾀﾞｸﾞﾝｱﾘﾀﾞｶﾞﾜﾁｮｳ","kana_address":"ｶﾝｷﾞｼﾞ","pref":"和歌山県","city":"有田郡有田川町","address":"歓喜寺"},
{"zip_code":"6430362","kana_pref":"ﾜｶﾔﾏｹﾝ","kana_city":"ｱﾘﾀﾞｸﾞﾝｱﾘﾀﾞｶﾞﾜﾁｮｳ","kana_address":"ｷﾀﾉｶﾜ","pref":"和歌山県","city":"有田郡有田川町","address":"北野川"},
{"zip_code":"6430531","kana_pref":"ﾜｶﾔﾏｹﾝ","kana_city":"ｱﾘﾀﾞｸﾞﾝｱﾘﾀﾞｶﾞﾜﾁｮｳ","kana_address":"ｸｽﾓﾄ","pref":"和歌山県","city":"有田郡有田川町","address":"楠本"},
{"zip_code":"6430514","kana_pref":"ﾜｶﾔﾏｹﾝ","kana_city":"ｱﾘﾀﾞｸﾞﾝｱﾘﾀﾞｶﾞﾜﾁｮｳ","kana_address":"ｸﾉﾊﾗ","pref":"和歌山県","city":"有田郡有田川町","address":"久野原"},
{"zip_code":"6430023","kana_pref":"ﾜｶﾔﾏｹﾝ","kana_city":"ｱﾘﾀﾞｸﾞﾝｱﾘﾀﾞｶﾞﾜﾁｮｳ","kana_address":"ｸﾏｲ","pref":"和歌山県","city":"有田郡有田川町","address":"熊井"},
{"zip_code":"6430172","kana_pref":"ﾜｶﾔﾏｹﾝ","kana_city":"ｱﾘﾀﾞｸﾞﾝｱﾘﾀﾞｶﾞﾜﾁｮｳ","kana_address":"ｸﾛﾏﾂ","pref":"和歌山県","city":"有田郡有田川町","address":"黒松"},
{"zip_code":"6430544","kana_pref":"ﾜｶﾔﾏｹﾝ","kana_city":"ｱﾘﾀﾞｸﾞﾝｱﾘﾀﾞｶﾞﾜﾁｮｳ","kana_address":"ｻｶｲｶﾞﾜ","pref":"和歌山県","city":"有田郡有田川町","address":"境川"},
{"zip_code":"6430521","kana_pref":"ﾜｶﾔﾏｹﾝ","kana_city":"ｱﾘﾀﾞｸﾞﾝｱﾘﾀﾞｶﾞﾜﾁｮｳ","kana_address":"ｼﾐｽﾞ","pref":"和歌山県","city":"有田郡有田川町","address":"清水"},
{"zip_code":"6430021","kana_pref":"ﾜｶﾔﾏｹﾝ","kana_city":"ｱﾘﾀﾞｸﾞﾝｱﾘﾀﾞｶﾞﾜﾁｮｳ","kana_address":"ｼﾓﾂﾉ","pref":"和歌山県","city":"有田郡有田川町","address":"下津野"},
{"zip_code":"6430173","kana_pref":"ﾜｶﾔﾏｹﾝ","kana_city":"ｱﾘﾀﾞｸﾞﾝｱﾘﾀﾞｶﾞﾜﾁｮｳ","kana_address":"ｼﾓﾑﾂｶﾞﾜ","pref":"和歌山県","city":"有田郡有田川町","address":"下六川"},
{"zip_code":"6430522","kana_pref":"ﾜｶﾔﾏｹﾝ","kana_city":"ｱﾘﾀﾞｸﾞﾝｱﾘﾀﾞｶﾞﾜﾁｮｳ","kana_address":"ｼﾓﾕｶﾜ","pref":"和歌山県","city":"有田郡有田川町","address":"下湯川"},
{"zip_code":"6430811","kana_pref":"ﾜｶﾔﾏｹﾝ","kana_city":"ｱﾘﾀﾞｸﾞﾝｱﾘﾀﾞｶﾞﾜﾁｮｳ","kana_address":"ｼｮｳ","pref":"和歌山県","city":"有田郡有田川町","address":"庄"},
{"zip_code":"6430602","kana_pref":"ﾜｶﾔﾏｹﾝ","kana_city":"ｱﾘﾀﾞｸﾞﾝｱﾘﾀﾞｶﾞﾜﾁｮｳ","kana_address":"ｽｷﾞﾉﾊﾗ","pref":"和歌山県","city":"有田郡有田川町","address":"杉野原"},
{"zip_code":"6430853","kana_pref":"ﾜｶﾔﾏｹﾝ","kana_city":"ｱﾘﾀﾞｸﾞﾝｱﾘﾀﾞｶﾞﾜﾁｮｳ","kana_address":"ｽﾐ","pref":"和歌山県","city":"有田郡有田川町","address":"角"},
{"zip_code":"6430163","kana_pref":"ﾜｶﾔﾏｹﾝ","kana_city":"ｱﾘﾀﾞｸﾞﾝｱﾘﾀﾞｶﾞﾜﾁｮｳ","kana_address":"ｽﾘｶﾞﾜ","pref":"和歌山県","city":"有田郡有田川町","address":"修理川"},
{"zip_code":"6430122","kana_pref":"ﾜｶﾔﾏｹﾝ","kana_city":"ｱﾘﾀﾞｸﾞﾝｱﾘﾀﾞｶﾞﾜﾁｮｳ","kana_address":"ｾｲ","pref":"和歌山県","city":"有田郡有田川町","address":"瀬井"},
{"zip_code":"6430846","kana_pref":"ﾜｶﾔﾏｹﾝ","kana_city":"ｱﾘﾀﾞｸﾞﾝｱﾘﾀﾞｶﾞﾜﾁｮｳ","kana_address":"ﾀｸﾞﾁ","pref":"和歌山県","city":"有田郡有田川町","address":"田口"},
{"zip_code":"6430848","kana_pref":"ﾜｶﾔﾏｹﾝ","kana_city":"ｱﾘﾀﾞｸﾞﾝｱﾘﾀﾞｶﾞﾜﾁｮｳ","kana_address":"ﾀｽﾞﾐ","pref":"和歌山県","city":"有田郡有田川町","address":"田角"},
{"zip_code":"6430314","kana_pref":"ﾜｶﾔﾏｹﾝ","kana_city":"ｱﾘﾀﾞｸﾞﾝｱﾘﾀﾞｶﾞﾜﾁｮｳ","kana_address":"ﾀﾃｲｼ","pref":"和歌山県","city":"有田郡有田川町","address":"立石"},
{"zip_code":"6430311","kana_pref":"ﾜｶﾔﾏｹﾝ","kana_city":"ｱﾘﾀﾞｸﾞﾝｱﾘﾀﾞｶﾞﾜﾁｮｳ","kana_address":"ﾀﾆ","pref":"和歌山県","city":"有田郡有田川町","address":"谷"},
{"zip_code":"6430032","kana_pref":"ﾜｶﾔﾏｹﾝ","kana_city":"ｱﾘﾀﾞｸﾞﾝｱﾘﾀﾞｶﾞﾜﾁｮｳ","kana_address":"ﾃﾝﾏ","pref":"和歌山県","city":"有田郡有田川町","address":"天満"},
{"zip_code":"6430533","kana_pref":"ﾜｶﾔﾏｹﾝ","kana_city":"ｱﾘﾀﾞｸﾞﾝｱﾘﾀﾞｶﾞﾜﾁｮｳ","kana_address":"ﾄｲ","pref":"和歌山県","city":"有田郡有田川町","address":"遠井"},
{"zip_code":"6430801","kana_pref":"ﾜｶﾔﾏｹﾝ","kana_city":"ｱﾘﾀﾞｸﾞﾝｱﾘﾀﾞｶﾞﾜﾁｮｳ","kana_address":"ﾄｸﾀﾞ","pref":"和歌山県","city":"有田郡有田川町","address":"徳田"},
{"zip_code":"6430123","kana_pref":"ﾜｶﾔﾏｹﾝ","kana_city":"ｱﾘﾀﾞｸﾞﾝｱﾘﾀﾞｶﾞﾜﾁｮｳ","kana_address":"ﾅｶ","pref":"和歌山県","city":"有田郡有田川町","address":"中"},
{"zip_code":"6430153","kana_pref":"ﾜｶﾔﾏｹﾝ","kana_city":"ｱﾘﾀﾞｸﾞﾝｱﾘﾀﾞｶﾞﾜﾁｮｳ","kana_address":"ﾅｶｲﾊﾞﾗ","pref":"和歌山県","city":"有田郡有田川町","address":"中井原"},
{"zip_code":"6430854","kana_pref":"ﾜｶﾔﾏｹﾝ","kana_city":"ｱﾘﾀﾞｸﾞﾝｱﾘﾀﾞｶﾞﾜﾁｮｳ","kana_address":"ﾅｶﾞﾀ","pref":"和歌山県","city":"有田郡有田川町","address":"長田"},
{"zip_code":"6430841","kana_pref":"ﾜｶﾔﾏｹﾝ","kana_city":"ｱﾘﾀﾞｸﾞﾝｱﾘﾀﾞｶﾞﾜﾁｮｳ","kana_address":"ﾅｶﾞﾀﾆ","pref":"和歌山県","city":"有田郡有田川町","address":"長谷"},
{"zip_code":"6430143","kana_pref":"ﾜｶﾔﾏｹﾝ","kana_city":"ｱﾘﾀﾞｸﾞﾝｱﾘﾀﾞｶﾞﾜﾁｮｳ","kana_address":"ﾅｶﾉ","pref":"和歌山県","city":"有田郡有田川町","address":"中野"},
{"zip_code":"6430365","kana_pref":"ﾜｶﾔﾏｹﾝ","kana_city":"ｱﾘﾀﾞｸﾞﾝｱﾘﾀﾞｶﾞﾜﾁｮｳ","kana_address":"ﾅｶﾊﾗ","pref":"和歌山県","city":"有田郡有田川町","address":"中原"},
{"zip_code":"6430124","kana_pref":"ﾜｶﾔﾏｹﾝ","kana_city":"ｱﾘﾀﾞｸﾞﾝｱﾘﾀﾞｶﾞﾜﾁｮｳ","kana_address":"ﾅｶﾐﾈ","pref":"和歌山県","city":"有田郡有田川町","address":"中峯"},
{"zip_code":"6430175","kana_pref":"ﾜｶﾔﾏｹﾝ","kana_city":"ｱﾘﾀﾞｸﾞﾝｱﾘﾀﾞｶﾞﾜﾁｮｳ","kana_address":"ﾆｳ","pref":"和歌山県","city":"有田郡有田川町","address":"丹生"},
{"zip_code":"6430363","kana_pref":"ﾜｶﾔﾏｹﾝ","kana_city":"ｱﾘﾀﾞｸﾞﾝｱﾘﾀﾞｶﾞﾜﾁｮｳ","kana_address":"ﾆｻﾜ","pref":"和歌山県","city":"有田郡有田川町","address":"二沢"},
{"zip_code":"6430128","kana_pref":"ﾜｶﾔﾏｹﾝ","kana_city":"ｱﾘﾀﾞｸﾞﾝｱﾘﾀﾞｶﾞﾜﾁｮｳ","kana_address":"ﾆｼｶﾞﾐﾈ","pref":"和歌山県","city":"有田郡有田川町","address":"西ケ峯"},
{"zip_code":"6430813","kana_pref":"ﾜｶﾔﾏｹﾝ","kana_city":"ｱﾘﾀﾞｸﾞﾝｱﾘﾀﾞｶﾞﾜﾁｮｳ","kana_address":"ﾆｼﾆｭｳﾉｽﾞ","pref":"和歌山県","city":"有田郡有田川町","address":"西丹生図"},
{"zip_code":"6430125","kana_pref":"ﾜｶﾔﾏｹﾝ","kana_city":"ｱﾘﾀﾞｸﾞﾝｱﾘﾀﾞｶﾞﾜﾁｮｳ","kana_address":"ﾇﾀﾀﾞ","pref":"和歌山県","city":"有田郡有田川町","address":"沼田"},
{"zip_code":"6430532","kana_pref":"ﾜｶﾔﾏｹﾝ","kana_city":"ｱﾘﾀﾞｸﾞﾝｱﾘﾀﾞｶﾞﾜﾁｮｳ","kana_address":"ﾇﾏ","pref":"和歌山県","city":"有田郡有田川町","address":"沼"},
{"zip_code":"6430605","kana_pref":"ﾜｶﾔﾏｹﾝ","kana_city":"ｱﾘﾀﾞｸﾞﾝｱﾘﾀﾞｶﾞﾜﾁｮｳ","kana_address":"ﾇﾏﾀﾆ","pref":"和歌山県","city":"有田郡有田川町","address":"沼谷"},
{"zip_code":"6430031","kana_pref":"ﾜｶﾔﾏｹﾝ","kana_city":"ｱﾘﾀﾞｸﾞﾝｱﾘﾀﾞｶﾞﾜﾁｮｳ","kana_address":"ﾉﾀﾞ","pref":"和歌山県","city":"有田郡有田川町","address":"野田"},
{"zip_code":"6430137","kana_pref":"ﾜｶﾔﾏｹﾝ","kana_city":"ｱﾘﾀﾞｸﾞﾝｱﾘﾀﾞｶﾞﾜﾁｮｳ","kana_address":"ﾉﾌﾞｻｶ","pref":"和歌山県","city":"有田郡有田川町","address":"延坂"},
{"zip_code":"6430151","kana_pref":"ﾜｶﾔﾏｹﾝ","kana_city":"ｱﾘﾀﾞｸﾞﾝｱﾘﾀﾞｶﾞﾜﾁｮｳ","kana_address":"ﾊｾｶﾞﾜ","pref":"和歌山県","city":"有田郡有田川町","address":"長谷川"},
{"zip_code":"6430025","kana_pref":"ﾜｶﾔﾏｹﾝ","kana_city":"ｱﾘﾀﾞｸﾞﾝｱﾘﾀﾞｶﾞﾜﾁｮｳ","kana_address":"ﾊﾌﾞ","pref":"和歌山県","city":"有田郡有田川町","address":"土生"},
{"zip_code":"6430541","kana_pref":"ﾜｶﾔﾏｹﾝ","kana_city":"ｱﾘﾀﾞｸﾞﾝｱﾘﾀﾞｶﾞﾜﾁｮｳ","kana_address":"ﾋｶﾞｼｵｵﾀﾞﾆ","pref":"和歌山県","city":"有田郡有田川町","address":"東大谷"},
{"zip_code":"6430803","kana_pref":"ﾜｶﾔﾏｹﾝ","kana_city":"ｱﾘﾀﾞｸﾞﾝｱﾘﾀﾞｶﾞﾜﾁｮｳ","kana_address":"ﾋｶﾞｼﾆｭｳﾉｽﾞ","pref":"和歌山県","city":"有田郡有田川町","address":"東丹生図"},
{"zip_code":"6430121","kana_pref":"ﾜｶﾔﾏｹﾝ","kana_city":"ｱﾘﾀﾞｸﾞﾝｱﾘﾀﾞｶﾞﾜﾁｮｳ","kana_address":"ﾋｺｶﾞｾ","pref":"和歌山県","city":"有田郡有田川町","address":"彦ケ瀬"},
{"zip_code":"6430543","kana_pref":"ﾜｶﾔﾏｹﾝ","kana_city":"ｱﾘﾀﾞｸﾞﾝｱﾘﾀﾞｶﾞﾜﾁｮｳ","kana_address":"ﾋﾓﾉｶﾞﾜ","pref":"和歌山県","city":"有田郡有田川町","address":"日物川"},
{"zip_code":"6430542","kana_pref":"ﾜｶﾔﾏｹﾝ","kana_city":"ｱﾘﾀﾞｸﾞﾝｱﾘﾀﾞｶﾞﾜﾁｮｳ","kana_address":"ﾌﾀｶﾞﾜ","pref":"和歌山県","city":"有田郡有田川町","address":"二川"},
{"zip_code":"6430842","kana_pref":"ﾜｶﾔﾏｹﾝ","kana_city":"ｱﾘﾀﾞｸﾞﾝｱﾘﾀﾞｶﾞﾜﾁｮｳ","kana_address":"ﾌﾅｻｶ","pref":"和歌山県","city":"有田郡有田川町","address":"船坂"},
{"zip_code":"6430141","kana_pref":"ﾜｶﾔﾏｹﾝ","kana_city":"ｱﾘﾀﾞｸﾞﾝｱﾘﾀﾞｶﾞﾜﾁｮｳ","kana_address":"ﾌﾞﾖｳ","pref":"和歌山県","city":"有田郡有田川町","address":"伏羊"},
{"zip_code":"6430126","kana_pref":"ﾜｶﾔﾏｹﾝ","kana_city":"ｱﾘﾀﾞｸﾞﾝｱﾘﾀﾞｶﾞﾜﾁｮｳ","kana_address":"ﾎﾝﾄﾞｳ","pref":"和歌山県","city":"有田郡有田川町","address":"本堂"},
{"zip_code":"6430162","kana_pref":"ﾜｶﾔﾏｹﾝ","kana_city":"ｱﾘﾀﾞｸﾞﾝｱﾘﾀﾞｶﾞﾜﾁｮｳ","kana_address":"ﾏﾂﾊﾞﾗ","pref":"和歌山県","city":"有田郡有田川町","address":"松原"},
{"zip_code":"6430024","kana_pref":"ﾜｶﾔﾏｹﾝ","kana_city":"ｱﾘﾀﾞｸﾞﾝｱﾘﾀﾞｶﾞﾜﾁｮｳ","kana_address":"ﾐｽﾞｼﾘ","pref":"和歌山県","city":"有田郡有田川町","address":"水尻"},
{"zip_code":"6430361","kana_pref":"ﾜｶﾔﾏｹﾝ","kana_city":"ｱﾘﾀﾞｸﾞﾝｱﾘﾀﾞｶﾞﾜﾁｮｳ","kana_address":"ﾐｾｶﾞﾜ","pref":"和歌山県","city":"有田郡有田川町","address":"三瀬川"},
{"zip_code":"6430511","kana_pref":"ﾜｶﾔﾏｹﾝ","kana_city":"ｱﾘﾀﾞｸﾞﾝｱﾘﾀﾞｶﾞﾜﾁｮｳ","kana_address":"ﾐﾀ","pref":"和歌山県","city":"有田郡有田川町","address":"三田"},
{"zip_code":"6430512","kana_pref":"ﾜｶﾔﾏｹﾝ","kana_city":"ｱﾘﾀﾞｸﾞﾝｱﾘﾀﾞｶﾞﾜﾁｮｳ","kana_address":"ﾐﾔｶﾞﾜ","pref":"和歌山県","city":"有田郡有田川町","address":"宮川"},
{"zip_code":"6430033","kana_pref":"ﾜｶﾔﾏｹﾝ","kana_city":"ｱﾘﾀﾞｸﾞﾝｱﾘﾀﾞｶﾞﾜﾁｮｳ","kana_address":"ﾐｮｳｼﾞ","pref":"和歌山県","city":"有田郡有田川町","address":"明王寺"},
{"zip_code":"6430515","kana_pref":"ﾜｶﾔﾏｹﾝ","kana_city":"ｱﾘﾀﾞｸﾞﾝｱﾘﾀﾞｶﾞﾜﾁｮｳ","kana_address":"ﾑﾛｶﾞﾜ","pref":"和歌山県","city":"有田郡有田川町","address":"室川"},
{"zip_code":"6430166","kana_pref":"ﾜｶﾔﾏｹﾝ","kana_city":"ｱﾘﾀﾞｸﾞﾝｱﾘﾀﾞｶﾞﾜﾁｮｳ","kana_address":"ﾖｼﾊﾗ","pref":"和歌山県","city":"有田郡有田川町","address":"吉原"},
{"zip_code":"6430802","kana_pref":"ﾜｶﾔﾏｹﾝ","kana_city":"ｱﾘﾀﾞｸﾞﾝｱﾘﾀﾞｶﾞﾜﾁｮｳ","kana_address":"ﾖｼﾐ","pref":"和歌山県","city":"有田郡有田川町","address":"吉見"}]}