{"zip_code":[
{"zip_code":"6440000","kana_pref":"ﾜｶﾔﾏｹﾝ","kana_city":"ｺﾞﾎﾞｳｼ","kana_address":"","pref":"和歌山県","city":"御坊市","address":""},
{"zip_code":"6440015","kana_pref":"ﾜｶﾔﾏｹﾝ","kana_city":"ｺﾞﾎﾞｳｼ","kana_address":"ｲﾊﾞﾗｷ","pref":"和歌山県","city":"御坊市","address":"荊木"},
{"zip_code":"6440033","kana_pref":"ﾜｶﾔﾏｹﾝ","kana_city":"ｺﾞﾎﾞｳｼ","kana_address":"ｲﾔ","pref":"和歌山県","city":"御坊市","address":"熊野"},
{"zip_code":"6440032","kana_pref":"ﾜｶﾔﾏｹﾝ","kana_city":"ｺﾞﾎﾞｳｼ","kana_address":"ｲﾜｳﾁ","pref":"和歌山県","city":"御坊市","address":"岩内"},
{"zip_code":"6440001","kana_pref":"ﾜｶﾔﾏｹﾝ","kana_city":"ｺﾞﾎﾞｳｼ","kana_address":"ｺﾞﾎﾞｳ","pref":"和歌山県","city":"御坊市","address":"御坊"},
{"zip_code":"6440024","kana_pref":"ﾜｶﾔﾏｹﾝ","kana_city":"ｺﾞﾎﾞｳｼ","kana_address":"ｼｵﾔﾁｮｳﾐﾅﾐｼｵﾔ","pref":"和歌山県","city":"御坊市","address":"塩屋町南塩屋"},
{"zip_code":"6440025","kana_pref":"ﾜｶﾔﾏｹﾝ","kana_city":"ｺﾞﾎﾞｳｼ","kana_address":"ｼｵﾔﾁｮｳｷﾀｼｵﾔ","pref":"和歌山県","city":"御坊市","address":"塩屋町北塩屋"},
{"zip_code":"6440003","kana_pref":"ﾜｶﾔﾏｹﾝ","kana_city":"ｺﾞﾎﾞｳｼ","kana_address":"ｼﾏ","pref":"和歌山県","city":"御坊市","address":"島"},
{"zip_code":"6440002","kana_pref":"ﾜｶﾔﾏｹﾝ","kana_city":"ｺﾞﾎﾞｳｼ","kana_address":"ｿﾉ","pref":"和歌山県","city":"御坊市","address":"薗"},
{"zip_code":"6440022","kana_pref":"ﾜｶﾔﾏｹﾝ","kana_city":"ｺﾞﾎﾞｳｼ","kana_address":"ﾅﾀﾞﾁｮｳｳｴﾉ","pref":"和歌山県","city":"御坊市","address":"名田町上野"},
{"zip_code":"6440021","kana_pref":"ﾜｶﾔﾏｹﾝ","kana_city":"ｺﾞﾎﾞｳｼ","kana_address":"ﾅﾀﾞﾁｮｳｸｽｲ","pref":"和歌山県","city":"御坊市","address":"名田町楠井"},
{"zip_code":"6440023","kana_pref":"ﾜｶﾔﾏｹﾝ","kana_city":"ｺﾞﾎﾞｳｼ","kana_address":"ﾅﾀﾞﾁｮｳﾉｼﾏ","pref":"和歌山県","city":"御坊市","address":"名田町野島"},
{"zip_code":"6440004","kana_pref":"ﾜｶﾔﾏｹﾝ","kana_city":"ｺﾞﾎﾞｳｼ","kana_address":"ﾅﾔ","pref":"和歌山県","city":"御坊市","address":"名屋"},
{"zip_code":"6440005","kana_pref":"ﾜｶﾔﾏｹﾝ","kana_city":"ｺﾞﾎﾞｳｼ","kana_address":"ﾅﾔﾁｮｳ","pref":"和歌山県","city":"御坊市","address":"名屋町"},
{"zip_code":"6440031","kana_pref":"ﾜｶﾔﾏｹﾝ","kana_city":"ｺﾞﾎﾞｳｼ","kana_address":"ﾉｸﾞﾁ","pref":"和歌山県","city":"御坊市","address":"野口"},
{"zip_code":"6440034","kana_pref":"ﾜｶﾔﾏｹﾝ","kana_city":"ｺﾞﾎﾞｳｼ","kana_address":"ﾐｮｳｼﾞﾝｶﾞﾜ","pref":"和歌山県","city":"御坊市","address":"明神川"},
{"zip_code":"6440012","kana_pref":"ﾜｶﾔﾏｹﾝ","kana_city":"ｺﾞﾎﾞｳｼ","kana_address":"ﾕｶﾜﾁｮｳｺﾏﾂﾊﾞﾗ","pref":"和歌山県","city":"御坊市","address":"湯川町小松原"},
{"zip_code":"6440011","kana_pref":"ﾜｶﾔﾏｹﾝ","kana_city":"ｺﾞﾎﾞｳｼ","kana_address":"ﾕｶﾜﾁｮｳﾀｶﾗ","pref":"和歌山県","city":"御坊市","address":"湯川町財部"},
{"zip_code":"6440014","kana_pref":"ﾜｶﾔﾏｹﾝ","kana_city":"ｺﾞﾎﾞｳｼ","kana_address":"ﾕｶﾜﾁｮｳﾄﾐﾔｽ","pref":"和歌山県","city":"御坊市","address":"湯川町富安"},
{"zip_code":"6440013","kana_pref":"ﾜｶﾔﾏｹﾝ","kana_city":"ｺﾞﾎﾞｳｼ","kana_address":"ﾕｶﾜﾁｮｳﾏﾙﾔﾏ","pref":"和歌山県","city":"御坊市","address":"湯川町丸山"},
{"zip_code":"6440000","kana_pref":"ﾜｶﾔﾏｹﾝ","kana_city":"ﾋﾀﾞｶｸﾞﾝﾐﾊﾏﾁｮｳ","kana_address":"","pref":"和歌山県","city":"日高郡美浜町","address":""},
{"zip_code":"6440041","kana_pref":"ﾜｶﾔﾏｹﾝ","kana_city":"ﾋﾀﾞｶｸﾞﾝﾐﾊﾏﾁｮｳ","kana_address":"ﾀｲ","pref":"和歌山県","city":"日高郡美浜町","address":"田井"},
{"zip_code":"6440042","kana_pref":"ﾜｶﾔﾏｹﾝ","kana_city":"ﾋﾀﾞｶｸﾞﾝﾐﾊﾏﾁｮｳ","kana_address":"ﾊﾏﾉｾ","pref":"和歌山県","city":"日高郡美浜町","address":"浜ノ瀬"},
{"zip_code":"6440045","kana_pref":"ﾜｶﾔﾏｹﾝ","kana_city":"ﾋﾀﾞｶｸﾞﾝﾐﾊﾏﾁｮｳ","kana_address":"ﾐｵ","pref":"和歌山県","city":"日高郡美浜町","address":"三尾"},
{"zip_code":"6440043","kana_pref":"ﾜｶﾔﾏｹﾝ","kana_city":"ﾋﾀﾞｶｸﾞﾝﾐﾊﾏﾁｮｳ","kana_address":"ﾖｼﾊﾗ","pref":"和歌山県","city":"日高郡美浜町","address":"吉原"},
{"zip_code":"6440044","kana_pref":"ﾜｶﾔﾏｹﾝ","kana_city":"ﾋﾀﾞｶｸﾞﾝﾐﾊﾏﾁｮｳ","kana_address":"ﾜﾀﾞ","pref":"和歌山県","city":"日高郡美浜町","address":"和田"},
{"zip_code":"6440215","kana_pref":"ﾜｶﾔﾏｹﾝ","kana_city":"ﾋﾀﾞｶｸﾞﾝｲﾅﾐﾁｮｳ","kana_address":"ｶｲｾﾞｶﾞﾜ","pref":"和歌山県","city":"日高郡印南町","address":"皆瀬川"},
{"zip_code":"6440202","kana_pref":"ﾜｶﾔﾏｹﾝ","kana_city":"ﾋﾀﾞｶｸﾞﾝｲﾅﾐﾁｮｳ","kana_address":"ｶﾎﾞﾗ","pref":"和歌山県","city":"日高郡印南町","address":"上洞"},
{"zip_code":"6440201","kana_pref":"ﾜｶﾔﾏｹﾝ","kana_city":"ﾋﾀﾞｶｸﾞﾝｲﾅﾐﾁｮｳ","kana_address":"ｶﾜﾏﾀ","pref":"和歌山県","city":"日高郡印南町","address":"川又"},
{"zip_code":"6440214","kana_pref":"ﾜｶﾔﾏｹﾝ","kana_city":"ﾋﾀﾞｶｸﾞﾝｲﾅﾐﾁｮｳ","kana_address":"ｺﾊﾞﾗ","pref":"和歌山県","city":"日高郡印南町","address":"小原"},
{"zip_code":"6440216","kana_pref":"ﾜｶﾔﾏｹﾝ","kana_city":"ﾋﾀﾞｶｸﾞﾝｲﾅﾐﾁｮｳ","kana_address":"ｻｷﾉﾊﾗ","pref":"和歌山県","city":"日高郡印南町","address":"崎ノ原"},
{"zip_code":"6440211","kana_pref":"ﾜｶﾔﾏｹﾝ","kana_city":"ﾋﾀﾞｶｸﾞﾝｲﾅﾐﾁｮｳ","kana_address":"ﾀｶｸｼ","pref":"和歌山県","city":"日高郡印南町","address":"高串"},
{"zip_code":"6440212","kana_pref":"ﾜｶﾔﾏｹﾝ","kana_city":"ﾋﾀﾞｶｸﾞﾝｲﾅﾐﾁｮｳ","kana_address":"ﾀﾉｶｲﾄ","pref":"和歌山県","city":"日高郡印南町","address":"田ノ垣内"},
{"zip_code":"6440213","kana_pref":"ﾜｶﾔﾏｹﾝ","kana_city":"ﾋﾀﾞｶｸﾞﾝｲﾅﾐﾁｮｳ","kana_address":"ﾆｼｺｳﾉｶﾞﾜ","pref":"和歌山県","city":"日高郡印南町","address":"西神ノ川"},
{"zip_code":"6440217","kana_pref":"ﾜｶﾔﾏｹﾝ","kana_city":"ﾋﾀﾞｶｸﾞﾝｲﾅﾐﾁｮｳ","kana_address":"ﾆｭｳ","pref":"和歌山県","city":"日高郡印南町","address":"丹生"},
{"zip_code":"6440218","kana_pref":"ﾜｶﾔﾏｹﾝ","kana_city":"ﾋﾀﾞｶｸﾞﾝｲﾅﾐﾁｮｳ","kana_address":"ﾏﾂﾊﾞﾗ","pref":"和歌山県","city":"日高郡印南町","address":"松原"},
{"zip_code":"6441243","kana_pref":"ﾜｶﾔﾏｹﾝ","kana_city":"ﾋﾀﾞｶｸﾞﾝﾋﾀﾞｶｶﾞﾜﾁｮｳ","kana_address":"ｱｻﾏ","pref":"和歌山県","city":"日高郡日高川町","address":"浅間"},
{"zip_code":"6441213","kana_pref":"ﾜｶﾔﾏｹﾝ","kana_city":"ﾋﾀﾞｶｸﾞﾝﾋﾀﾞｶｶﾞﾜﾁｮｳ","kana_address":"ｱﾀｲｶﾞﾜ","pref":"和歌山県","city":"日高郡日高川町","address":"愛川"},
{"zip_code":"6441132","kana_pref":"ﾜｶﾔﾏｹﾝ","kana_city":"ﾋﾀﾞｶｸﾞﾝﾋﾀﾞｶｶﾞﾜﾁｮｳ","kana_address":"ｱﾈｺ","pref":"和歌山県","city":"日高郡日高川町","address":"姉子"},
{"zip_code":"6441211","kana_pref":"ﾜｶﾔﾏｹﾝ","kana_city":"ﾋﾀﾞｶｸﾞﾝﾋﾀﾞｶｶﾞﾜﾁｮｳ","kana_address":"ｲﾔﾀﾞﾆ","pref":"和歌山県","city":"日高郡日高川町","address":"弥谷"},
{"zip_code":"6441231","kana_pref":"ﾜｶﾔﾏｹﾝ","kana_city":"ﾋﾀﾞｶｸﾞﾝﾋﾀﾞｶｶﾞﾜﾁｮｳ","kana_address":"ｳﾌﾞﾕｶﾞﾜ","pref":"和歌山県","city":"日高郡日高川町","address":"初湯川"},
{"zip_code":"6441162","kana_pref":"ﾜｶﾔﾏｹﾝ","kana_city":"ﾋﾀﾞｶｸﾞﾝﾋﾀﾞｶｶﾞﾜﾁｮｳ","kana_address":"ｵｲﾎﾞｼ","pref":"和歌山県","city":"日高郡日高川町","address":"老星"},
{"zip_code":"6441163","kana_pref":"ﾜｶﾔﾏｹﾝ","kana_city":"ﾋﾀﾞｶｸﾞﾝﾋﾀﾞｶｶﾞﾜﾁｮｳ","kana_address":"ｵｵﾏﾀ","pref":"和歌山県","city":"日高郡日高川町","address":"大又"},
{"zip_code":"6441212","kana_pref":"ﾜｶﾔﾏｹﾝ","kana_city":"ﾋﾀﾞｶｸﾞﾝﾋﾀﾞｶｶﾞﾜﾁｮｳ","kana_address":"ｶｲｾﾞ","pref":"和歌山県","city":"日高郡日高川町","address":"皆瀬"},
{"zip_code":"6441214","kana_pref":"ﾜｶﾔﾏｹﾝ","kana_city":"ﾋﾀﾞｶｸﾞﾝﾋﾀﾞｶｶﾞﾜﾁｮｳ","kana_address":"ｶﾐｳﾌﾞﾕｶﾞﾜ","pref":"和歌山県","city":"日高郡日高川町","address":"上初湯川"},
{"zip_code":"6441244","kana_pref":"ﾜｶﾔﾏｹﾝ","kana_city":"ﾋﾀﾞｶｸﾞﾝﾋﾀﾞｶｶﾞﾜﾁｮｳ","kana_address":"ｶﾐｺｼｶﾀ","pref":"和歌山県","city":"日高郡日高川町","address":"上越方"},
{"zip_code":"6441141","kana_pref":"ﾜｶﾔﾏｹﾝ","kana_city":"ﾋﾀﾞｶｸﾞﾝﾋﾀﾞｶｶﾞﾜﾁｮｳ","kana_address":"ｶﾐﾀﾊﾗ","pref":"和歌山県","city":"日高郡日高川町","address":"上田原"},
{"zip_code":"6441201","kana_pref":"ﾜｶﾔﾏｹﾝ","kana_city":"ﾋﾀﾞｶｸﾞﾝﾋﾀﾞｶｶﾞﾜﾁｮｳ","kana_address":"ｶﾜﾊﾗｺﾞｳ","pref":"和歌山県","city":"日高郡日高川町","address":"川原河"},
{"zip_code":"6441222","kana_pref":"ﾜｶﾔﾏｹﾝ","kana_city":"ﾋﾀﾞｶｸﾞﾝﾋﾀﾞｶｶﾞﾜﾁｮｳ","kana_address":"ｸｼﾓﾄ","pref":"和歌山県","city":"日高郡日高川町","address":"串本"},
{"zip_code":"6441242","kana_pref":"ﾜｶﾔﾏｹﾝ","kana_city":"ﾋﾀﾞｶｸﾞﾝﾋﾀﾞｶｶﾞﾜﾁｮｳ","kana_address":"ｸﾏﾉｶﾞﾜ","pref":"和歌山県","city":"日高郡日高川町","address":"熊野川"},
{"zip_code":"6441143","kana_pref":"ﾜｶﾔﾏｹﾝ","kana_city":"ﾋﾀﾞｶｸﾞﾝﾋﾀﾞｶｶﾞﾜﾁｮｳ","kana_address":"ｺｶﾓﾄ","pref":"和歌山県","city":"日高郡日高川町","address":"小釜本"},
{"zip_code":"6441164","kana_pref":"ﾜｶﾔﾏｹﾝ","kana_city":"ﾋﾀﾞｶｸﾞﾝﾋﾀﾞｶｶﾞﾜﾁｮｳ","kana_address":"ｻｲ","pref":"和歌山県","city":"日高郡日高川町","address":"佐井"},
{"zip_code":"6441161","kana_pref":"ﾜｶﾔﾏｹﾝ","kana_city":"ﾋﾀﾞｶｸﾞﾝﾋﾀﾞｶｶﾞﾜﾁｮｳ","kana_address":"ｻｶﾉｶﾞﾜ","pref":"和歌山県","city":"日高郡日高川町","address":"坂野川"},
{"zip_code":"6441142","kana_pref":"ﾜｶﾔﾏｹﾝ","kana_city":"ﾋﾀﾞｶｸﾞﾝﾋﾀﾞｶｶﾞﾜﾁｮｳ","kana_address":"ｼﾓﾀﾊﾗ","pref":"和歌山県","city":"日高郡日高川町","address":"下田原"},
{"zip_code":"6441221","kana_pref":"ﾜｶﾔﾏｹﾝ","kana_city":"ﾋﾀﾞｶｸﾞﾝﾋﾀﾞｶｶﾞﾜﾁｮｳ","kana_address":"ｿｳｶﾞﾜ","pref":"和歌山県","city":"日高郡日高川町","address":"寒川"},
{"zip_code":"6441122","kana_pref":"ﾜｶﾔﾏｹﾝ","kana_city":"ﾋﾀﾞｶｸﾞﾝﾋﾀﾞｶｶﾞﾜﾁｮｳ","kana_address":"ﾀｶﾂｵ","pref":"和歌山県","city":"日高郡日高川町","address":"高津尾"},
{"zip_code":"6441123","kana_pref":"ﾜｶﾔﾏｹﾝ","kana_city":"ﾋﾀﾞｶｸﾞﾝﾋﾀﾞｶｶﾞﾜﾁｮｳ","kana_address":"ﾀｶﾂｵｶﾞﾜ","pref":"和歌山県","city":"日高郡日高川町","address":"高津尾川"},
{"zip_code":"6441241","kana_pref":"ﾜｶﾔﾏｹﾝ","kana_city":"ﾋﾀﾞｶｸﾞﾝﾋﾀﾞｶｶﾞﾜﾁｮｳ","kana_address":"ﾀｷｶﾞｼﾗ","pref":"和歌山県","city":"日高郡日高川町","address":"滝頭"},
{"zip_code":"6441151","kana_pref":"ﾜｶﾔﾏｹﾝ","kana_city":"ﾋﾀﾞｶｸﾞﾝﾋﾀﾞｶｶﾞﾜﾁｮｳ","kana_address":"ﾀｼﾞﾘ","pref":"和歌山県","city":"日高郡日高川町","address":"田尻"},
{"zip_code":"6441101","kana_pref":"ﾜｶﾔﾏｹﾝ","kana_city":"ﾋﾀﾞｶｸﾞﾝﾋﾀﾞｶｶﾞﾜﾁｮｳ","kana_address":"ﾄｳﾉｶﾞﾜ","pref":"和歌山県","city":"日高郡日高川町","address":"藤野川"},
{"zip_code":"6441121","kana_pref":"ﾜｶﾔﾏｹﾝ","kana_city":"ﾋﾀﾞｶｸﾞﾝﾋﾀﾞｶｶﾞﾜﾁｮｳ","kana_address":"ﾆｼﾊﾗ","pref":"和歌山県","city":"日高郡日高川町","address":"西原"},
{"zip_code":"6441133","kana_pref":"ﾜｶﾔﾏｹﾝ","kana_city":"ﾋﾀﾞｶｸﾞﾝﾋﾀﾞｶｶﾞﾜﾁｮｳ","kana_address":"ﾊﾗﾋﾞｳﾗ","pref":"和歌山県","city":"日高郡日高川町","address":"原日浦"},
{"zip_code":"6441111","kana_pref":"ﾜｶﾔﾏｹﾝ","kana_city":"ﾋﾀﾞｶｸﾞﾝﾋﾀﾞｶｶﾞﾜﾁｮｳ","kana_address":"ﾌﾅﾂ","pref":"和歌山県","city":"日高郡日高川町","address":"船津"},
{"zip_code":"6441152","kana_pref":"ﾜｶﾔﾏｹﾝ","kana_city":"ﾋﾀﾞｶｸﾞﾝﾋﾀﾞｶｶﾞﾜﾁｮｳ","kana_address":"ﾐｻﾞ","pref":"和歌山県","city":"日高郡日高川町","address":"三佐"},
{"zip_code":"6441131","kana_pref":"ﾜｶﾔﾏｹﾝ","kana_city":"ﾋﾀﾞｶｸﾞﾝﾋﾀﾞｶｶﾞﾜﾁｮｳ","kana_address":"ﾐｿｲｶﾞﾜ","pref":"和歌山県","city":"日高郡日高川町","address":"三十井川"},
{"zip_code":"6441134","kana_pref":"ﾜｶﾔﾏｹﾝ","kana_city":"ﾋﾀﾞｶｸﾞﾝﾋﾀﾞｶｶﾞﾜﾁｮｳ","kana_address":"ﾐｿｷﾞ","pref":"和歌山県","city":"日高郡日高川町","address":"三十木"}]}