{"zip_code":[
{"zip_code":"6460000","kana_pref":"ﾜｶﾔﾏｹﾝ","kana_city":"ﾀﾅﾍﾞｼ","kana_address":"","pref":"和歌山県","city":"田辺市","address":""},
{"zip_code":"6460102","kana_pref":"ﾜｶﾔﾏｹﾝ","kana_city":"ﾀﾅﾍﾞｼ","kana_address":"ｱｷﾂﾞｶﾞﾜ","pref":"和歌山県","city":"田辺市","address":"秋津川"},
{"zip_code":"6460005","kana_pref":"ﾜｶﾔﾏｹﾝ","kana_city":"ﾀﾅﾍﾞｼ","kana_address":"ｱｷﾂﾞﾁｮｳ","pref":"和歌山県","city":"田辺市","address":"秋津町"},
{"zip_code":"6460021","kana_pref":"ﾜｶﾔﾏｹﾝ","kana_city":"ﾀﾅﾍﾞｼ","kana_address":"ｱｹﾎﾞﾉ","pref":"和歌山県","city":"田辺市","address":"あけぼの"},
{"zip_code":"6460027","kana_pref":"ﾜｶﾔﾏｹﾝ","kana_city":"ﾀﾅﾍﾞｼ","kana_address":"ｱｻﾋｶﾞｵｶ","pref":"和歌山県","city":"田辺市","address":"朝日ヶ丘"},
{"zip_code":"6461101","kana_pref":"ﾜｶﾔﾏｹﾝ","kana_city":"ﾀﾅﾍﾞｼ","kana_address":"ｱﾕｶﾜ","pref":"和歌山県","city":"田辺市","address":"鮎川"},
{"zip_code":"6460037","kana_pref":"ﾜｶﾔﾏｹﾝ","kana_city":"ﾀﾅﾍﾞｼ","kana_address":"ｲｿﾏ","pref":"和歌山県","city":"田辺市","address":"磯間"},
{"zip_code":"6460051","kana_pref":"ﾜｶﾔﾏｹﾝ","kana_city":"ﾀﾅﾍﾞｼ","kana_address":"ｲﾅﾘﾁｮｳ","pref":"和歌山県","city":"田辺市","address":"稲成町"},
{"zip_code":"6460043","kana_pref":"ﾜｶﾔﾏｹﾝ","kana_city":"ﾀﾅﾍﾞｼ","kana_address":"ｲﾏﾌｸﾏﾁ","pref":"和歌山県","city":"田辺市","address":"今福町"},
{"zip_code":"6461321","kana_pref":"ﾜｶﾔﾏｹﾝ","kana_city":"ﾀﾅﾍﾞｼ","kana_address":"ｲﾔ","pref":"和歌山県","city":"田辺市","address":"熊野"},
{"zip_code":"6460212","kana_pref":"ﾜｶﾔﾏｹﾝ","kana_city":"ﾀﾅﾍﾞｼ","kana_address":"ｳｴﾉ","pref":"和歌山県","city":"田辺市","address":"上野"},
{"zip_code":"6460061","kana_pref":"ﾜｶﾔﾏｹﾝ","kana_city":"ﾀﾅﾍﾞｼ","kana_address":"ｳｴﾉﾔﾏ","pref":"和歌山県","city":"田辺市","address":"上の山"},
{"zip_code":"6460054","kana_pref":"ﾜｶﾔﾏｹﾝ","kana_city":"ﾀﾅﾍﾞｼ","kana_address":"ｴｶﾞﾜ","pref":"和歌山県","city":"田辺市","address":"江川"},
{"zip_code":"6460034","kana_pref":"ﾜｶﾔﾏｹﾝ","kana_city":"ﾀﾅﾍﾞｼ","kana_address":"ｵｳｷﾞｶﾞﾊﾏ","pref":"和歌山県","city":"田辺市","address":"扇ケ浜"},
{"zip_code":"6460024","kana_pref":"ﾜｶﾔﾏｹﾝ","kana_city":"ﾀﾅﾍﾞｼ","kana_address":"ｶﾞｸｴﾝ","pref":"和歌山県","city":"田辺市","address":"学園"},
{"zip_code":"6460012","kana_pref":"ﾜｶﾔﾏｹﾝ","kana_city":"ﾀﾅﾍﾞｼ","kana_address":"ｶｼﾏﾀﾞｲ","pref":"和歌山県","city":"田辺市","address":"神島台"},
{"zip_code":"6460045","kana_pref":"ﾜｶﾔﾏｹﾝ","kana_city":"ﾀﾅﾍﾞｼ","kana_address":"ｶﾀﾏﾁ","pref":"和歌山県","city":"田辺市","address":"片町"},
{"zip_code":"6460001","kana_pref":"ﾜｶﾔﾏｹﾝ","kana_city":"ﾀﾅﾍﾞｼ","kana_address":"ｶﾐｱｷﾂﾞ","pref":"和歌山県","city":"田辺市","address":"上秋津"},
{"zip_code":"6460101","kana_pref":"ﾜｶﾔﾏｹﾝ","kana_city":"ﾀﾅﾍﾞｼ","kana_address":"ｶﾐﾊﾔ","pref":"和歌山県","city":"田辺市","address":"上芳養"},
{"zip_code":"6460002","kana_pref":"ﾜｶﾔﾏｹﾝ","kana_city":"ﾀﾅﾍﾞｼ","kana_address":"ｶﾐﾏﾛ","pref":"和歌山県","city":"田辺市","address":"上万呂"},
{"zip_code":"6460214","kana_pref":"ﾜｶﾔﾏｹﾝ","kana_city":"ﾀﾅﾍﾞｼ","kana_address":"ｶﾐﾐｽ","pref":"和歌山県","city":"田辺市","address":"上三栖"},
{"zip_code":"6460036","kana_pref":"ﾜｶﾔﾏｹﾝ","kana_city":"ﾀﾅﾍﾞｼ","kana_address":"ｶﾐﾔｼｷ","pref":"和歌山県","city":"田辺市","address":"上屋敷"},
{"zip_code":"6460041","kana_pref":"ﾜｶﾔﾏｹﾝ","kana_city":"ﾀﾅﾍﾞｼ","kana_address":"ｷﾀｼﾝﾏﾁ","pref":"和歌山県","city":"田辺市","address":"北新町"},
{"zip_code":"6461334","kana_pref":"ﾜｶﾔﾏｹﾝ","kana_city":"ﾀﾅﾍﾞｼ","kana_address":"ｸｶﾞﾜ","pref":"和歌山県","city":"田辺市","address":"九川"},
{"zip_code":"6461335","kana_pref":"ﾜｶﾔﾏｹﾝ","kana_city":"ﾀﾅﾍﾞｼ","kana_address":"ｸｼ","pref":"和歌山県","city":"田辺市","address":"串"},
{"zip_code":"6461338","kana_pref":"ﾜｶﾔﾏｹﾝ","kana_city":"ﾀﾅﾍﾞｼ","kana_address":"ｺﾞｳｶﾞﾜ","pref":"和歌山県","city":"田辺市","address":"合川"},
{"zip_code":"6461325","kana_pref":"ﾜｶﾔﾏｹﾝ","kana_city":"ﾀﾅﾍﾞｼ","kana_address":"ｺﾀﾞﾆ","pref":"和歌山県","city":"田辺市","address":"小谷"},
{"zip_code":"6461332","kana_pref":"ﾜｶﾔﾏｹﾝ","kana_city":"ﾀﾅﾍﾞｼ","kana_address":"ｺﾞﾐ","pref":"和歌山県","city":"田辺市","address":"五味"},
{"zip_code":"6461331","kana_pref":"ﾜｶﾔﾏｹﾝ","kana_city":"ﾀﾅﾍﾞｼ","kana_address":"ｺﾓﾘ","pref":"和歌山県","city":"田辺市","address":"木守"},
{"zip_code":"6460047","kana_pref":"ﾜｶﾔﾏｹﾝ","kana_city":"ﾀﾅﾍﾞｼ","kana_address":"ｺﾝﾔﾏﾁ","pref":"和歌山県","city":"田辺市","address":"紺屋町"},
{"zip_code":"6460048","kana_pref":"ﾜｶﾔﾏｹﾝ","kana_city":"ﾀﾅﾍﾞｼ","kana_address":"ｻｶｴﾏﾁ","pref":"和歌山県","city":"田辺市","address":"栄町"},
{"zip_code":"6461212","kana_pref":"ﾜｶﾔﾏｹﾝ","kana_city":"ﾀﾅﾍﾞｼ","kana_address":"ｼﾓｶﾞﾜｶﾐ","pref":"和歌山県","city":"田辺市","address":"下川上"},
{"zip_code":"6461213","kana_pref":"ﾜｶﾔﾏｹﾝ","kana_city":"ﾀﾅﾍﾞｼ","kana_address":"ｼﾓｶﾞﾜｼﾓ","pref":"和歌山県","city":"田辺市","address":"下川下"},
{"zip_code":"6461337","kana_pref":"ﾜｶﾔﾏｹﾝ","kana_city":"ﾀﾅﾍﾞｼ","kana_address":"ｼﾓﾂﾕ","pref":"和歌山県","city":"田辺市","address":"下露"},
{"zip_code":"6460004","kana_pref":"ﾜｶﾔﾏｹﾝ","kana_city":"ﾀﾅﾍﾞｼ","kana_address":"ｼﾓﾏﾛ","pref":"和歌山県","city":"田辺市","address":"下万呂"},
{"zip_code":"6460216","kana_pref":"ﾜｶﾔﾏｹﾝ","kana_city":"ﾀﾅﾍﾞｼ","kana_address":"ｼﾓﾐｽ","pref":"和歌山県","city":"田辺市","address":"下三栖"},
{"zip_code":"6460032","kana_pref":"ﾜｶﾔﾏｹﾝ","kana_city":"ﾀﾅﾍﾞｼ","kana_address":"ｼﾓﾔｼｷﾏﾁ","pref":"和歌山県","city":"田辺市","address":"下屋敷町"},
{"zip_code":"6460217","kana_pref":"ﾜｶﾔﾏｹﾝ","kana_city":"ﾀﾅﾍﾞｼ","kana_address":"ｼﾛﾔﾏﾀﾞｲ","pref":"和歌山県","city":"田辺市","address":"城山台"},
{"zip_code":"6460011","kana_pref":"ﾜｶﾔﾏｹﾝ","kana_city":"ﾀﾅﾍﾞｼ","kana_address":"ｼﾝｼﾞｮｳﾁｮｳ","pref":"和歌山県","city":"田辺市","address":"新庄町"},
{"zip_code":"6460014","kana_pref":"ﾜｶﾔﾏｹﾝ","kana_city":"ﾀﾅﾍﾞｼ","kana_address":"ｼﾝﾏﾝ","pref":"和歌山県","city":"田辺市","address":"新万"},
{"zip_code":"6460033","kana_pref":"ﾜｶﾔﾏｹﾝ","kana_city":"ﾀﾅﾍﾞｼ","kana_address":"ｼﾝﾔｼｷﾏﾁ","pref":"和歌山県","city":"田辺市","address":"新屋敷町"},
{"zip_code":"6460038","kana_pref":"ﾜｶﾔﾏｹﾝ","kana_city":"ﾀﾅﾍﾞｼ","kana_address":"ｽｴﾋﾛﾁｮｳ","pref":"和歌山県","city":"田辺市","address":"末広町"},
{"zip_code":"6460028","kana_pref":"ﾜｶﾔﾏｹﾝ","kana_city":"ﾀﾅﾍﾞｼ","kana_address":"ﾀｶｵ","pref":"和歌山県","city":"田辺市","address":"高雄"},
{"zip_code":"6460015","kana_pref":"ﾜｶﾔﾏｹﾝ","kana_city":"ﾀﾅﾍﾞｼ","kana_address":"ﾀｷﾅｲﾁｮｳ","pref":"和歌山県","city":"田辺市","address":"たきない町"},
{"zip_code":"6461324","kana_pref":"ﾜｶﾔﾏｹﾝ","kana_city":"ﾀﾅﾍﾞｼ","kana_address":"ﾀｹﾉﾀｲﾗ","pref":"和歌山県","city":"田辺市","address":"竹ノ平"},
{"zip_code":"6461336","kana_pref":"ﾜｶﾔﾏｹﾝ","kana_city":"ﾀﾅﾍﾞｼ","kana_address":"ﾀﾆﾉｸﾁ","pref":"和歌山県","city":"田辺市","address":"谷野口"},
{"zip_code":"6460050","kana_pref":"ﾜｶﾔﾏｹﾝ","kana_city":"ﾀﾅﾍﾞｼ","kana_address":"ﾃﾝｼﾞﾝｻﾞｷ","pref":"和歌山県","city":"田辺市","address":"天神崎"},
{"zip_code":"6461339","kana_pref":"ﾜｶﾔﾏｹﾝ","kana_city":"ﾀﾅﾍﾞｼ","kana_address":"ﾅｶﾞｾ","pref":"和歌山県","city":"田辺市","address":"長瀬"},
{"zip_code":"6460057","kana_pref":"ﾜｶﾔﾏｹﾝ","kana_city":"ﾀﾅﾍﾞｼ","kana_address":"ﾅｶﾊﾔ","pref":"和歌山県","city":"田辺市","address":"中芳養"},
{"zip_code":"6461412","kana_pref":"ﾜｶﾔﾏｹﾝ","kana_city":"ﾀﾅﾍﾞｼ","kana_address":"ﾅｶﾍﾁﾁｮｳｲｼﾌﾞﾘ","pref":"和歌山県","city":"田辺市","address":"中辺路町石船"},
{"zip_code":"6461439","kana_pref":"ﾜｶﾔﾏｹﾝ","kana_city":"ﾀﾅﾍﾞｼ","kana_address":"ﾅｶﾍﾁﾁｮｳｳﾁｲｶﾞﾜ","pref":"和歌山県","city":"田辺市","address":"中辺路町内井川"},
{"zip_code":"6461411","kana_pref":"ﾜｶﾔﾏｹﾝ","kana_city":"ﾀﾅﾍﾞｼ","kana_address":"ﾅｶﾍﾁﾁｮｳｵｵｳﾁｶﾞﾜ","pref":"和歌山県","city":"田辺市","address":"中辺路町大内川"},
{"zip_code":"6461433","kana_pref":"ﾜｶﾔﾏｹﾝ","kana_city":"ﾀﾅﾍﾞｼ","kana_address":"ﾅｶﾍﾁﾁｮｳｵｵｶﾜ","pref":"和歌山県","city":"田辺市","address":"中辺路町大川"},
{"zip_code":"6461417","kana_pref":"ﾜｶﾔﾏｹﾝ","kana_city":"ﾀﾅﾍﾞｼ","kana_address":"ﾅｶﾍﾁﾁｮｳｶﾜｲ","pref":"和歌山県","city":"田辺市","address":"中辺路町川合"},
{"zip_code":"6461436","kana_pref":"ﾜｶﾔﾏｹﾝ","kana_city":"ﾀﾅﾍﾞｼ","kana_address":"ﾅｶﾍﾁﾁｮｳｸﾏﾉｶﾞﾜ","pref":"和歌山県","city":"田辺市","address":"中辺路町熊野川"},
{"zip_code":"6461421","kana_pref":"ﾜｶﾔﾏｹﾝ","kana_city":"ﾀﾅﾍﾞｼ","kana_address":"ﾅｶﾍﾁﾁｮｳｸﾘｽｶﾞﾜ","pref":"和歌山県","city":"田辺市","address":"中辺路町栗栖川"},
{"zip_code":"6461435","kana_pref":"ﾜｶﾔﾏｹﾝ","kana_city":"ﾀﾅﾍﾞｼ","kana_address":"ﾅｶﾍﾁﾁｮｳｺｶｲ","pref":"和歌山県","city":"田辺市","address":"中辺路町小皆"},
{"zip_code":"6461431","kana_pref":"ﾜｶﾔﾏｹﾝ","kana_city":"ﾀﾅﾍﾞｼ","kana_address":"ﾅｶﾍﾁﾁｮｳｺﾏﾂﾊﾞﾗ","pref":"和歌山県","city":"田辺市","address":"中辺路町小松原"},
{"zip_code":"6461437","kana_pref":"ﾜｶﾔﾏｹﾝ","kana_city":"ﾀﾅﾍﾞｼ","kana_address":"ﾅｶﾍﾁﾁｮｳｻﾜ","pref":"和歌山県","city":"田辺市","address":"中辺路町沢"},
{"zip_code":"6461416","kana_pref":"ﾜｶﾔﾏｹﾝ","kana_city":"ﾀﾅﾍﾞｼ","kana_address":"ﾅｶﾍﾁﾁｮｳﾀｶﾊﾗ","pref":"和歌山県","city":"田辺市","address":"中辺路町高原"},
{"zip_code":"6461402","kana_pref":"ﾜｶﾔﾏｹﾝ","kana_city":"ﾀﾅﾍﾞｼ","kana_address":"ﾅｶﾍﾁﾁｮｳﾁｶﾂﾕ","pref":"和歌山県","city":"田辺市","address":"中辺路町近露"},
{"zip_code":"6461414","kana_pref":"ﾜｶﾔﾏｹﾝ","kana_city":"ﾀﾅﾍﾞｼ","kana_address":"ﾅｶﾍﾁﾁｮｳﾆｼﾀﾞﾆ","pref":"和歌山県","city":"田辺市","address":"中辺路町西谷"},
{"zip_code":"6461434","kana_pref":"ﾜｶﾔﾏｹﾝ","kana_city":"ﾀﾅﾍﾞｼ","kana_address":"ﾅｶﾍﾁﾁｮｳﾇﾙﾐｶﾞﾜ","pref":"和歌山県","city":"田辺市","address":"中辺路町温川"},
{"zip_code":"6461401","kana_pref":"ﾜｶﾔﾏｹﾝ","kana_city":"ﾀﾅﾍﾞｼ","kana_address":"ﾅｶﾍﾁﾁｮｳﾉﾅｶ","pref":"和歌山県","city":"田辺市","address":"中辺路町野中"},
{"zip_code":"6461432","kana_pref":"ﾜｶﾔﾏｹﾝ","kana_city":"ﾀﾅﾍﾞｼ","kana_address":"ﾅｶﾍﾁﾁｮｳﾌｸｻﾀﾞ","pref":"和歌山県","city":"田辺市","address":"中辺路町福定"},
{"zip_code":"6461413","kana_pref":"ﾜｶﾔﾏｹﾝ","kana_city":"ﾀﾅﾍﾞｼ","kana_address":"ﾅｶﾍﾁﾁｮｳﾎｸｿｷﾞ","pref":"和歌山県","city":"田辺市","address":"中辺路町北郡"},
{"zip_code":"6461415","kana_pref":"ﾜｶﾔﾏｹﾝ","kana_city":"ﾀﾅﾍﾞｼ","kana_address":"ﾅｶﾍﾁﾁｮｳﾏﾅｺﾞ","pref":"和歌山県","city":"田辺市","address":"中辺路町真砂"},
{"zip_code":"6461438","kana_pref":"ﾜｶﾔﾏｹﾝ","kana_city":"ﾀﾅﾍﾞｼ","kana_address":"ﾅｶﾍﾁﾁｮｳﾐｽﾞｶﾐ","pref":"和歌山県","city":"田辺市","address":"中辺路町水上"},
{"zip_code":"6460003","kana_pref":"ﾜｶﾔﾏｹﾝ","kana_city":"ﾀﾅﾍﾞｼ","kana_address":"ﾅｶﾏﾛ","pref":"和歌山県","city":"田辺市","address":"中万呂"},
{"zip_code":"6460215","kana_pref":"ﾜｶﾔﾏｹﾝ","kana_city":"ﾀﾅﾍﾞｼ","kana_address":"ﾅｶﾐｽ","pref":"和歌山県","city":"田辺市","address":"中三栖"},
{"zip_code":"6460035","kana_pref":"ﾜｶﾔﾏｹﾝ","kana_city":"ﾀﾅﾍﾞｼ","kana_address":"ﾅｶﾔｼｷﾏﾁ","pref":"和歌山県","city":"田辺市","address":"中屋敷町"},
{"zip_code":"6460213","kana_pref":"ﾜｶﾔﾏｹﾝ","kana_city":"ﾀﾅﾍﾞｼ","kana_address":"ﾅｶﾞﾉ","pref":"和歌山県","city":"田辺市","address":"長野"},
{"zip_code":"6460056","kana_pref":"ﾜｶﾔﾏｹﾝ","kana_city":"ﾀﾅﾍﾞｼ","kana_address":"ﾊﾔﾁｮｳ","pref":"和歌山県","city":"田辺市","address":"芳養町"},
{"zip_code":"6460063","kana_pref":"ﾜｶﾔﾏｹﾝ","kana_city":"ﾀﾅﾍﾞｼ","kana_address":"ﾊﾔﾏﾂﾊﾞﾗ","pref":"和歌山県","city":"田辺市","address":"芳養松原"},
{"zip_code":"6461333","kana_pref":"ﾜｶﾔﾏｹﾝ","kana_city":"ﾀﾅﾍﾞｼ","kana_address":"ﾋｶﾞｼﾌﾄﾞﾉ","pref":"和歌山県","city":"田辺市","address":"東伏菟野"},
{"zip_code":"6460022","kana_pref":"ﾜｶﾔﾏｹﾝ","kana_city":"ﾀﾅﾍﾞｼ","kana_address":"ﾋｶﾞｼﾔﾏ","pref":"和歌山県","city":"田辺市","address":"東山"},
{"zip_code":"6461214","kana_pref":"ﾜｶﾔﾏｹﾝ","kana_city":"ﾀﾅﾍﾞｼ","kana_address":"ﾋﾗｾ","pref":"和歌山県","city":"田辺市","address":"平瀬"},
{"zip_code":"6461326","kana_pref":"ﾜｶﾔﾏｹﾝ","kana_city":"ﾀﾅﾍﾞｼ","kana_address":"ﾌｶﾀﾆ","pref":"和歌山県","city":"田辺市","address":"深谷"},
{"zip_code":"6460044","kana_pref":"ﾜｶﾔﾏｹﾝ","kana_city":"ﾀﾅﾍﾞｼ","kana_address":"ﾌｸﾛﾏﾁ","pref":"和歌山県","city":"田辺市","address":"福路町"},
{"zip_code":"6460211","kana_pref":"ﾜｶﾔﾏｹﾝ","kana_city":"ﾀﾅﾍﾞｼ","kana_address":"ﾌﾄﾞﾉ","pref":"和歌山県","city":"田辺市","address":"伏菟野"},
{"zip_code":"6460059","kana_pref":"ﾜｶﾔﾏｹﾝ","kana_city":"ﾀﾅﾍﾞｼ","kana_address":"ﾌﾙｵ","pref":"和歌山県","city":"田辺市","address":"古尾"},
{"zip_code":"6460026","kana_pref":"ﾜｶﾔﾏｹﾝ","kana_city":"ﾀﾅﾍﾞｼ","kana_address":"ﾎｳﾗｲﾁｮｳ","pref":"和歌山県","city":"田辺市","address":"宝来町"},
{"zip_code":"6460046","kana_pref":"ﾜｶﾔﾏｹﾝ","kana_city":"ﾀﾅﾍﾞｼ","kana_address":"ﾎﾝﾏﾁ","pref":"和歌山県","city":"田辺市","address":"本町"},
{"zip_code":"6460025","kana_pref":"ﾜｶﾔﾏｹﾝ","kana_city":"ﾀﾅﾍﾞｼ","kana_address":"ﾐｺﾉﾊﾏ","pref":"和歌山県","city":"田辺市","address":"神子浜"},
{"zip_code":"6460031","kana_pref":"ﾜｶﾔﾏｹﾝ","kana_city":"ﾀﾅﾍﾞｼ","kana_address":"ﾐﾅﾄ","pref":"和歌山県","city":"田辺市","address":"湊"},
{"zip_code":"6460042","kana_pref":"ﾜｶﾔﾏｹﾝ","kana_city":"ﾀﾅﾍﾞｼ","kana_address":"ﾐﾅﾐｼﾝﾏﾁ","pref":"和歌山県","city":"田辺市","address":"南新町"},
{"zip_code":"6460013","kana_pref":"ﾜｶﾔﾏｹﾝ","kana_city":"ﾀﾅﾍﾞｼ","kana_address":"ﾐﾅﾐｼﾝﾏﾝ","pref":"和歌山県","city":"田辺市","address":"南新万"},
{"zip_code":"6461323","kana_pref":"ﾜｶﾔﾏｹﾝ","kana_city":"ﾀﾅﾍﾞｼ","kana_address":"ﾑｶｲﾔﾏ","pref":"和歌山県","city":"田辺市","address":"向山"},
{"zip_code":"6460052","kana_pref":"ﾜｶﾔﾏｹﾝ","kana_city":"ﾀﾅﾍﾞｼ","kana_address":"ﾑﾂﾐ","pref":"和歌山県","city":"田辺市","address":"むつみ"},
{"zip_code":"6460062","kana_pref":"ﾜｶﾔﾏｹﾝ","kana_city":"ﾀﾅﾍﾞｼ","kana_address":"ﾒｲﾖｳ","pref":"和歌山県","city":"田辺市","address":"明洋"},
{"zip_code":"6460058","kana_pref":"ﾜｶﾔﾏｹﾝ","kana_city":"ﾀﾅﾍﾞｼ","kana_address":"ﾒﾗ","pref":"和歌山県","city":"田辺市","address":"目良"},
{"zip_code":"6461322","kana_pref":"ﾜｶﾔﾏｹﾝ","kana_city":"ﾀﾅﾍﾞｼ","kana_address":"ﾒﾝｶﾞﾜ","pref":"和歌山県","city":"田辺市","address":"面川"},
{"zip_code":"6460053","kana_pref":"ﾜｶﾔﾏｹﾝ","kana_city":"ﾀﾅﾍﾞｼ","kana_address":"ﾓﾄﾏﾁ","pref":"和歌山県","city":"田辺市","address":"元町"},
{"zip_code":"6460023","kana_pref":"ﾜｶﾔﾏｹﾝ","kana_city":"ﾀﾅﾍﾞｼ","kana_address":"ﾓﾘ","pref":"和歌山県","city":"田辺市","address":"文里"},
{"zip_code":"6461211","kana_pref":"ﾜｶﾔﾏｹﾝ","kana_city":"ﾀﾅﾍﾞｼ","kana_address":"ﾜﾀﾞ","pref":"和歌山県","city":"田辺市","address":"和田"},
{"zip_code":"6460301","kana_pref":"ﾜｶﾔﾏｹﾝ","kana_city":"ﾆｼﾑﾛｸﾞﾝｼﾗﾊﾏﾁｮｳ","kana_address":"ｲﾁｶﾉ","pref":"和歌山県","city":"西牟婁郡白浜町","address":"市鹿野"},
{"zip_code":"6460312","kana_pref":"ﾜｶﾔﾏｹﾝ","kana_city":"ﾆｼﾑﾛｸﾞﾝｼﾗﾊﾏﾁｮｳ","kana_address":"ｵｵ","pref":"和歌山県","city":"西牟婁郡白浜町","address":"大"},
{"zip_code":"6460303","kana_pref":"ﾜｶﾔﾏｹﾝ","kana_city":"ﾆｼﾑﾛｸﾞﾝｼﾗﾊﾏﾁｮｳ","kana_address":"ｵｵｾ","pref":"和歌山県","city":"西牟婁郡白浜町","address":"大瀬"},
{"zip_code":"6460311","kana_pref":"ﾜｶﾔﾏｹﾝ","kana_city":"ﾆｼﾑﾛｸﾞﾝｼﾗﾊﾏﾁｮｳ","kana_address":"ｵﾌﾞｻ","pref":"和歌山県","city":"西牟婁郡白浜町","address":"小房"},
{"zip_code":"6460305","kana_pref":"ﾜｶﾔﾏｹﾝ","kana_city":"ﾆｼﾑﾛｸﾞﾝｼﾗﾊﾏﾁｮｳ","kana_address":"ｷﾀﾀﾞﾆ","pref":"和歌山県","city":"西牟婁郡白浜町","address":"北谷"},
{"zip_code":"6460302","kana_pref":"ﾜｶﾔﾏｹﾝ","kana_city":"ﾆｼﾑﾛｸﾞﾝｼﾗﾊﾏﾁｮｳ","kana_address":"ｺｳﾂﾞﾕ","pref":"和歌山県","city":"西牟婁郡白浜町","address":"上露"},
{"zip_code":"6460314","kana_pref":"ﾜｶﾔﾏｹﾝ","kana_city":"ﾆｼﾑﾛｸﾞﾝｼﾗﾊﾏﾁｮｳ","kana_address":"ｻﾄﾀﾞﾆ","pref":"和歌山県","city":"西牟婁郡白浜町","address":"里谷"},
{"zip_code":"6460304","kana_pref":"ﾜｶﾔﾏｹﾝ","kana_city":"ﾆｼﾑﾛｸﾞﾝｼﾗﾊﾏﾁｮｳ","kana_address":"ﾀｹｶﾞｲﾄ","pref":"和歌山県","city":"西牟婁郡白浜町","address":"竹垣内"},
{"zip_code":"6460313","kana_pref":"ﾜｶﾔﾏｹﾝ","kana_city":"ﾆｼﾑﾛｸﾞﾝｼﾗﾊﾏﾁｮｳ","kana_address":"ﾀﾏﾃﾞ","pref":"和歌山県","city":"西牟婁郡白浜町","address":"玉伝"}]}