{"zip_code":[
{"zip_code":"6480300","kana_pref":"ﾅﾗｹﾝ","kana_city":"ﾖｼﾉｸﾞﾝﾉｾｶﾞﾜﾑﾗ","kana_address":"","pref":"奈良県","city":"吉野郡野迫川村","address":""},
{"zip_code":"6480301","kana_pref":"ﾅﾗｹﾝ","kana_city":"ﾖｼﾉｸﾞﾝﾉｾｶﾞﾜﾑﾗ","kana_address":"ｲｹﾂｶﾜ","pref":"奈良県","city":"吉野郡野迫川村","address":"池津川"},
{"zip_code":"6480307","kana_pref":"ﾅﾗｹﾝ","kana_city":"ﾖｼﾉｸﾞﾝﾉｾｶﾞﾜﾑﾗ","kana_address":"ｷﾀｲﾏﾆｼ","pref":"奈良県","city":"吉野郡野迫川村","address":"北今西"},
{"zip_code":"6480305","kana_pref":"ﾅﾗｹﾝ","kana_city":"ﾖｼﾉｸﾞﾝﾉｾｶﾞﾜﾑﾗ","kana_address":"ｷﾀﾏﾀ","pref":"奈良県","city":"吉野郡野迫川村","address":"北股"},
{"zip_code":"6480302","kana_pref":"ﾅﾗｹﾝ","kana_city":"ﾖｼﾉｸﾞﾝﾉｾｶﾞﾜﾑﾗ","kana_address":"ｼｵﾝ","pref":"奈良県","city":"吉野郡野迫川村","address":"紫園"},
{"zip_code":"6480306","kana_pref":"ﾅﾗｹﾝ","kana_city":"ﾖｼﾉｸﾞﾝﾉｾｶﾞﾜﾑﾗ","kana_address":"ﾀｲﾗ","pref":"奈良県","city":"吉野郡野迫川村","address":"平"},
{"zip_code":"6480304","kana_pref":"ﾅﾗｹﾝ","kana_city":"ﾖｼﾉｸﾞﾝﾉｾｶﾞﾜﾑﾗ","kana_address":"ﾀﾃﾘ","pref":"奈良県","city":"吉野郡野迫川村","address":"立里"},
{"zip_code":"6480303","kana_pref":"ﾅﾗｹﾝ","kana_city":"ﾖｼﾉｸﾞﾝﾉｾｶﾞﾜﾑﾗ","kana_address":"ﾅｶﾂｶﾞﾜ","pref":"奈良県","city":"吉野郡野迫川村","address":"中津川"},
{"zip_code":"6480308","kana_pref":"ﾅﾗｹﾝ","kana_city":"ﾖｼﾉｸﾞﾝﾉｾｶﾞﾜﾑﾗ","kana_address":"ﾋﾉｷﾏﾀ","pref":"奈良県","city":"吉野郡野迫川村","address":"桧股"},
{"zip_code":"6480309","kana_pref":"ﾅﾗｹﾝ","kana_city":"ﾖｼﾉｸﾞﾝﾉｾｶﾞﾜﾑﾗ","kana_address":"ﾕﾐﾃﾊﾗ","pref":"奈良県","city":"吉野郡野迫川村","address":"弓手原"},
{"zip_code":"6480000","kana_pref":"ﾜｶﾔﾏｹﾝ","kana_city":"ﾊｼﾓﾄｼ","kana_address":"","pref":"和歌山県","city":"橋本市","address":""},
{"zip_code":"6480022","kana_pref":"ﾜｶﾔﾏｹﾝ","kana_city":"ﾊｼﾓﾄｼ","kana_address":"ｱｶﾂｶ","pref":"和歌山県","city":"橋本市","address":"赤塚"},
{"zip_code":"6480019","kana_pref":"ﾜｶﾔﾏｹﾝ","kana_city":"ﾊｼﾓﾄｼ","kana_address":"ｱﾔﾉﾀﾞｲ","pref":"和歌山県","city":"橋本市","address":"あやの台"},
{"zip_code":"6480073","kana_pref":"ﾜｶﾔﾏｹﾝ","kana_city":"ﾊｼﾓﾄｼ","kana_address":"ｲﾁﾜｷ","pref":"和歌山県","city":"橋本市","address":"市脇"},
{"zip_code":"6480024","kana_pref":"ﾜｶﾔﾏｹﾝ","kana_city":"ﾊｼﾓﾄｼ","kana_address":"ｳｴﾀﾞ","pref":"和歌山県","city":"橋本市","address":"上田"},
{"zip_code":"6480071","kana_pref":"ﾜｶﾔﾏｹﾝ","kana_city":"ﾊｼﾓﾄｼ","kana_address":"ｵﾊﾗﾀ","pref":"和歌山県","city":"橋本市","address":"小原田"},
{"zip_code":"6480005","kana_pref":"ﾜｶﾔﾏｹﾝ","kana_city":"ﾊｼﾓﾄｼ","kana_address":"ｵﾐﾈﾀﾞｲ","pref":"和歌山県","city":"橋本市","address":"小峰台"},
{"zip_code":"6480097","kana_pref":"ﾜｶﾔﾏｹﾝ","kana_city":"ﾊｼﾓﾄｼ","kana_address":"ｶｷﾉｷｻﾞｶ","pref":"和歌山県","city":"橋本市","address":"柿の木坂"},
{"zip_code":"6480037","kana_pref":"ﾜｶﾔﾏｹﾝ","kana_city":"ﾊｼﾓﾄｼ","kana_address":"ｶｼｺﾄﾞｳ","pref":"和歌山県","city":"橋本市","address":"賢堂"},
{"zip_code":"6480084","kana_pref":"ﾜｶﾔﾏｹﾝ","kana_city":"ﾊｼﾓﾄｼ","kana_address":"ｶｾﾊﾞﾗ","pref":"和歌山県","city":"橋本市","address":"柏原"},
{"zip_code":"6480043","kana_pref":"ﾜｶﾔﾏｹﾝ","kana_city":"ﾊｼﾓﾄｼ","kana_address":"ｶﾑﾛ","pref":"和歌山県","city":"橋本市","address":"学文路"},
{"zip_code":"6480085","kana_pref":"ﾜｶﾔﾏｹﾝ","kana_city":"ﾊｼﾓﾄｼ","kana_address":"ｷｼｶﾞﾐ","pref":"和歌山県","city":"橋本市","address":"岸上"},
{"zip_code":"6480061","kana_pref":"ﾜｶﾔﾏｹﾝ","kana_city":"ﾊｼﾓﾄｼ","kana_address":"ｷﾀﾊﾞﾊﾞ","pref":"和歌山県","city":"橋本市","address":"北馬場"},
{"zip_code":"6480033","kana_pref":"ﾜｶﾔﾏｹﾝ","kana_city":"ﾊｼﾓﾄｼ","kana_address":"ｷﾀﾔﾄﾞﾘ","pref":"和歌山県","city":"橋本市","address":"北宿"},
{"zip_code":"6480052","kana_pref":"ﾜｶﾔﾏｹﾝ","kana_city":"ﾊｼﾓﾄｼ","kana_address":"ｷﾐ","pref":"和歌山県","city":"橋本市","address":"紀見"},
{"zip_code":"6480092","kana_pref":"ﾜｶﾔﾏｹﾝ","kana_city":"ﾊｼﾓﾄｼ","kana_address":"ｷﾐｶﾞｵｶ","pref":"和歌山県","city":"橋本市","address":"紀見ケ丘"},
{"zip_code":"6480093","kana_pref":"ﾜｶﾔﾏｹﾝ","kana_city":"ﾊｼﾓﾄｼ","kana_address":"ｹｶﾞﾉ","pref":"和歌山県","city":"橋本市","address":"慶賀野"},
{"zip_code":"6480021","kana_pref":"ﾜｶﾔﾏｹﾝ","kana_city":"ﾊｼﾓﾄｼ","kana_address":"ｺｲﾉ","pref":"和歌山県","city":"橋本市","address":"恋野"},
{"zip_code":"6480099","kana_pref":"ﾜｶﾔﾏｹﾝ","kana_city":"ﾊｼﾓﾄｼ","kana_address":"ｺｳﾖｳﾀﾞｲ","pref":"和歌山県","city":"橋本市","address":"光陽台"},
{"zip_code":"6480065","kana_pref":"ﾜｶﾔﾏｹﾝ","kana_city":"ﾊｼﾓﾄｼ","kana_address":"ｺｻﾀﾞ","pref":"和歌山県","city":"橋本市","address":"古佐田"},
{"zip_code":"6480086","kana_pref":"ﾜｶﾔﾏｹﾝ","kana_city":"ﾊｼﾓﾄｼ","kana_address":"ｺﾉﾉ","pref":"和歌山県","city":"橋本市","address":"神野々"},
{"zip_code":"6480066","kana_pref":"ﾜｶﾔﾏｹﾝ","kana_city":"ﾊｼﾓﾄｼ","kana_address":"ｺﾞﾓｳ","pref":"和歌山県","city":"橋本市","address":"胡麻生"},
{"zip_code":"6480006","kana_pref":"ﾜｶﾔﾏｹﾝ","kana_city":"ﾊｼﾓﾄｼ","kana_address":"ｻｶｲﾊﾞﾗ","pref":"和歌山県","city":"橋本市","address":"境原"},
{"zip_code":"6480075","kana_pref":"ﾜｶﾔﾏｹﾝ","kana_city":"ﾊｼﾓﾄｼ","kana_address":"ｻﾂｷﾀﾞｲ","pref":"和歌山県","city":"橋本市","address":"さつき台"},
{"zip_code":"6480041","kana_pref":"ﾜｶﾔﾏｹﾝ","kana_city":"ﾊｼﾓﾄｼ","kana_address":"ｼﾐｽﾞ","pref":"和歌山県","city":"橋本市","address":"清水"},
{"zip_code":"6480082","kana_pref":"ﾜｶﾔﾏｹﾝ","kana_city":"ﾊｼﾓﾄｼ","kana_address":"ｼｮｳﾌﾞﾀﾆ","pref":"和歌山県","city":"橋本市","address":"菖蒲谷"},
{"zip_code":"6480053","kana_pref":"ﾜｶﾔﾏｹﾝ","kana_city":"ﾊｼﾓﾄｼ","kana_address":"ｼﾗｻｷﾞﾀﾞｲ","pref":"和歌山県","city":"橋本市","address":"しらさぎ台"},
{"zip_code":"6480054","kana_pref":"ﾜｶﾔﾏｹﾝ","kana_city":"ﾊｼﾓﾄｼ","kana_address":"ｼﾛﾔﾏﾀﾞｲ","pref":"和歌山県","city":"橋本市","address":"城山台"},
{"zip_code":"6480001","kana_pref":"ﾜｶﾔﾏｹﾝ","kana_city":"ﾊｼﾓﾄｼ","kana_address":"ｽｷﾞｵ","pref":"和歌山県","city":"橋本市","address":"杉尾"},
{"zip_code":"6480038","kana_pref":"ﾜｶﾔﾏｹﾝ","kana_city":"ﾊｼﾓﾄｼ","kana_address":"ｽｺﾞｳ","pref":"和歌山県","city":"橋本市","address":"須河"},
{"zip_code":"6480012","kana_pref":"ﾜｶﾔﾏｹﾝ","kana_city":"ﾊｼﾓﾄｼ","kana_address":"ｽﾀﾞﾁｮｳｲﾓｳ","pref":"和歌山県","city":"橋本市","address":"隅田町芋生"},
{"zip_code":"6480014","kana_pref":"ﾜｶﾔﾏｹﾝ","kana_city":"ﾊｼﾓﾄｼ","kana_address":"ｽﾀﾞﾁｮｳｶﾐﾋｮｳｺﾞ","pref":"和歌山県","city":"橋本市","address":"隅田町上兵庫"},
{"zip_code":"6480016","kana_pref":"ﾜｶﾔﾏｹﾝ","kana_city":"ﾊｼﾓﾄｼ","kana_address":"ｽﾀﾞﾁｮｳｼﾓﾋｮｳｺﾞ","pref":"和歌山県","city":"橋本市","address":"隅田町下兵庫"},
{"zip_code":"6480015","kana_pref":"ﾜｶﾔﾏｹﾝ","kana_city":"ﾊｼﾓﾄｼ","kana_address":"ｽﾀﾞﾁｮｳｺｳｾﾞ","pref":"和歌山県","city":"橋本市","address":"隅田町河瀬"},
{"zip_code":"6480004","kana_pref":"ﾜｶﾔﾏｹﾝ","kana_city":"ﾊｼﾓﾄｼ","kana_address":"ｽﾀﾞﾁｮｳｼﾓｸｻ","pref":"和歌山県","city":"橋本市","address":"隅田町霜草"},
{"zip_code":"6480018","kana_pref":"ﾜｶﾔﾏｹﾝ","kana_city":"ﾊｼﾓﾄｼ","kana_address":"ｽﾀﾞﾁｮｳﾀﾙｲ","pref":"和歌山県","city":"橋本市","address":"隅田町垂井"},
{"zip_code":"6480013","kana_pref":"ﾜｶﾔﾏｹﾝ","kana_city":"ﾊｼﾓﾄｼ","kana_address":"ｽﾀﾞﾁｮｳﾁｭｳｹﾞ","pref":"和歌山県","city":"橋本市","address":"隅田町中下"},
{"zip_code":"6480017","kana_pref":"ﾜｶﾔﾏｹﾝ","kana_city":"ﾊｼﾓﾄｼ","kana_address":"ｽﾀﾞﾁｮｳﾅｶｼﾞﾏ","pref":"和歌山県","city":"橋本市","address":"隅田町中島"},
{"zip_code":"6480002","kana_pref":"ﾜｶﾔﾏｹﾝ","kana_city":"ﾊｼﾓﾄｼ","kana_address":"ｽﾀﾞﾁｮｳﾋﾗﾉ","pref":"和歌山県","city":"橋本市","address":"隅田町平野"},
{"zip_code":"6480011","kana_pref":"ﾜｶﾔﾏｹﾝ","kana_city":"ﾊｼﾓﾄｼ","kana_address":"ｽﾀﾞﾁｮｳﾏﾂﾁ","pref":"和歌山県","city":"橋本市","address":"隅田町真土"},
{"zip_code":"6480003","kana_pref":"ﾜｶﾔﾏｹﾝ","kana_city":"ﾊｼﾓﾄｼ","kana_address":"ｽﾀﾞﾁｮｳﾔﾏｳﾁ","pref":"和歌山県","city":"橋本市","address":"隅田町山内"},
{"zip_code":"6480031","kana_pref":"ﾜｶﾔﾏｹﾝ","kana_city":"ﾊｼﾓﾄｼ","kana_address":"ﾀﾀﾞﾉ","pref":"和歌山県","city":"橋本市","address":"只野"},
{"zip_code":"6480032","kana_pref":"ﾜｶﾔﾏｹﾝ","kana_city":"ﾊｼﾓﾄｼ","kana_address":"ﾀﾆｵﾌﾞｶ","pref":"和歌山県","city":"橋本市","address":"谷奥深"},
{"zip_code":"6480062","kana_pref":"ﾜｶﾔﾏｹﾝ","kana_city":"ﾊｼﾓﾄｼ","kana_address":"ﾂﾏ","pref":"和歌山県","city":"橋本市","address":"妻"},
{"zip_code":"6480083","kana_pref":"ﾜｶﾔﾏｹﾝ","kana_city":"ﾊｼﾓﾄｼ","kana_address":"ﾃﾞﾄｳ","pref":"和歌山県","city":"橋本市","address":"出塔"},
{"zip_code":"6480072","kana_pref":"ﾜｶﾔﾏｹﾝ","kana_city":"ﾊｼﾓﾄｼ","kana_address":"ﾄｳｹﾞ","pref":"和歌山県","city":"橋本市","address":"東家"},
{"zip_code":"6480023","kana_pref":"ﾜｶﾔﾏｹﾝ","kana_city":"ﾊｼﾓﾄｼ","kana_address":"ﾅｶﾄﾞｳ","pref":"和歌山県","city":"橋本市","address":"中道"},
{"zip_code":"6480042","kana_pref":"ﾜｶﾔﾏｹﾝ","kana_city":"ﾊｼﾓﾄｼ","kana_address":"ﾆｼﾊﾞﾀ","pref":"和歌山県","city":"橋本市","address":"西畑"},
{"zip_code":"6480074","kana_pref":"ﾜｶﾔﾏｹﾝ","kana_city":"ﾊｼﾓﾄｼ","kana_address":"ﾉ","pref":"和歌山県","city":"橋本市","address":"野"},
{"zip_code":"6480095","kana_pref":"ﾜｶﾔﾏｹﾝ","kana_city":"ﾊｼﾓﾄｼ","kana_address":"ﾊｼﾀﾆ","pref":"和歌山県","city":"橋本市","address":"橋谷"},
{"zip_code":"6480064","kana_pref":"ﾜｶﾔﾏｹﾝ","kana_city":"ﾊｼﾓﾄｼ","kana_address":"ﾊｼﾓﾄ","pref":"和歌山県","city":"橋本市","address":"橋本"},
{"zip_code":"6480091","kana_pref":"ﾜｶﾔﾏｹﾝ","kana_city":"ﾊｼﾓﾄｼ","kana_address":"ﾊｼﾗﾓﾄ","pref":"和歌山県","city":"橋本市","address":"柱本"},
{"zip_code":"6480063","kana_pref":"ﾜｶﾔﾏｹﾝ","kana_city":"ﾊｼﾓﾄｼ","kana_address":"ﾊﾗﾀﾞ","pref":"和歌山県","city":"橋本市","address":"原田"},
{"zip_code":"6480035","kana_pref":"ﾜｶﾔﾏｹﾝ","kana_city":"ﾊｼﾓﾄｼ","kana_address":"ﾋｺﾀﾆ","pref":"和歌山県","city":"橋本市","address":"彦谷"},
{"zip_code":"6480051","kana_pref":"ﾜｶﾔﾏｹﾝ","kana_city":"ﾊｼﾓﾄｼ","kana_address":"ﾎｿｶﾜ","pref":"和歌山県","city":"橋本市","address":"細川"},
{"zip_code":"6480094","kana_pref":"ﾜｶﾔﾏｹﾝ","kana_city":"ﾊｼﾓﾄｼ","kana_address":"ﾐﾂｲｼﾀﾞｲ","pref":"和歌山県","city":"橋本市","address":"三石台"},
{"zip_code":"6480044","kana_pref":"ﾜｶﾔﾏｹﾝ","kana_city":"ﾊｼﾓﾄｼ","kana_address":"ﾐﾅﾐﾊﾞﾊﾞ","pref":"和歌山県","city":"橋本市","address":"南馬場"},
{"zip_code":"6480034","kana_pref":"ﾜｶﾔﾏｹﾝ","kana_city":"ﾊｼﾓﾄｼ","kana_address":"ﾐﾅﾐﾔﾄﾞﾘ","pref":"和歌山県","city":"橋本市","address":"南宿"},
{"zip_code":"6480088","kana_pref":"ﾜｶﾔﾏｹﾝ","kana_city":"ﾊｼﾓﾄｼ","kana_address":"ﾐﾕｷﾀﾞｲ","pref":"和歌山県","city":"橋本市","address":"みゆき台"},
{"zip_code":"6480096","kana_pref":"ﾜｶﾔﾏｹﾝ","kana_city":"ﾊｼﾓﾄｼ","kana_address":"ﾐﾕｷﾂｼﾞ","pref":"和歌山県","city":"橋本市","address":"御幸辻"},
{"zip_code":"6480025","kana_pref":"ﾜｶﾔﾏｹﾝ","kana_city":"ﾊｼﾓﾄｼ","kana_address":"ﾑｶｿｲ","pref":"和歌山県","city":"橋本市","address":"向副"},
{"zip_code":"6480098","kana_pref":"ﾜｶﾔﾏｹﾝ","kana_city":"ﾊｼﾓﾄｼ","kana_address":"ﾔｸﾞﾗﾜｷ","pref":"和歌山県","city":"橋本市","address":"矢倉脇"},
{"zip_code":"6480081","kana_pref":"ﾜｶﾔﾏｹﾝ","kana_city":"ﾊｼﾓﾄｼ","kana_address":"ﾔﾏﾀﾞ","pref":"和歌山県","city":"橋本市","address":"山田"},
{"zip_code":"6480036","kana_pref":"ﾜｶﾔﾏｹﾝ","kana_city":"ﾊｼﾓﾄｼ","kana_address":"ﾖｺｻﾞ","pref":"和歌山県","city":"橋本市","address":"横座"},
{"zip_code":"6480087","kana_pref":"ﾜｶﾔﾏｹﾝ","kana_city":"ﾊｼﾓﾄｼ","kana_address":"ﾖｼﾊﾗ","pref":"和歌山県","city":"橋本市","address":"吉原"},
{"zip_code":"6480201","kana_pref":"ﾜｶﾔﾏｹﾝ","kana_city":"ｲﾄｸﾞﾝｶﾂﾗｷﾞﾁｮｳ","kana_address":"ﾊﾅｿﾞﾉｸｷ","pref":"和歌山県","city":"伊都郡かつらぎ町","address":"花園久木"},
{"zip_code":"6480202","kana_pref":"ﾜｶﾔﾏｹﾝ","kana_city":"ｲﾄｸﾞﾝｶﾂﾗｷﾞﾁｮｳ","kana_address":"ﾊﾅｿﾞﾉﾅｶﾐﾅﾐ","pref":"和歌山県","city":"伊都郡かつらぎ町","address":"花園中南"},
{"zip_code":"6480100","kana_pref":"ﾜｶﾔﾏｹﾝ","kana_city":"ｲﾄｸﾞﾝｸﾄﾞﾔﾏﾁｮｳ","kana_address":"","pref":"和歌山県","city":"伊都郡九度山町","address":""},
{"zip_code":"6480131","kana_pref":"ﾜｶﾔﾏｹﾝ","kana_city":"ｲﾄｸﾞﾝｸﾄﾞﾔﾏﾁｮｳ","kana_address":"ｲﾁﾀｲﾗ","pref":"和歌山県","city":"伊都郡九度山町","address":"市平"},
{"zip_code":"6480142","kana_pref":"ﾜｶﾔﾏｹﾝ","kana_city":"ｲﾄｸﾞﾝｸﾄﾞﾔﾏﾁｮｳ","kana_address":"ｶｻｷﾞ","pref":"和歌山県","city":"伊都郡九度山町","address":"笠木"},
{"zip_code":"6480111","kana_pref":"ﾜｶﾔﾏｹﾝ","kana_city":"ｲﾄｸﾞﾝｸﾄﾞﾔﾏﾁｮｳ","kana_address":"ｶﾈ","pref":"和歌山県","city":"伊都郡九度山町","address":"河根"},
{"zip_code":"6480143","kana_pref":"ﾜｶﾔﾏｹﾝ","kana_city":"ｲﾄｸﾞﾝｸﾄﾞﾔﾏﾁｮｳ","kana_address":"ｶﾐｺｻﾜ","pref":"和歌山県","city":"伊都郡九度山町","address":"上古沢"},
{"zip_code":"6480132","kana_pref":"ﾜｶﾔﾏｹﾝ","kana_city":"ｲﾄｸﾞﾝｸﾄﾞﾔﾏﾁｮｳ","kana_address":"ｷﾀﾏﾀ","pref":"和歌山県","city":"伊都郡九度山町","address":"北又"},
{"zip_code":"6480101","kana_pref":"ﾜｶﾔﾏｹﾝ","kana_city":"ｲﾄｸﾞﾝｸﾄﾞﾔﾏﾁｮｳ","kana_address":"ｸﾄﾞﾔﾏ","pref":"和歌山県","city":"伊都郡九度山町","address":"九度山"},
{"zip_code":"6480141","kana_pref":"ﾜｶﾔﾏｹﾝ","kana_city":"ｲﾄｸﾞﾝｸﾄﾞﾔﾏﾁｮｳ","kana_address":"ｼｲﾃﾞ","pref":"和歌山県","city":"伊都郡九度山町","address":"椎出"},
{"zip_code":"6480151","kana_pref":"ﾜｶﾔﾏｹﾝ","kana_city":"ｲﾄｸﾞﾝｸﾄﾞﾔﾏﾁｮｳ","kana_address":"ｼﾞｿﾝｲﾝ","pref":"和歌山県","city":"伊都郡九度山町","address":"慈尊院"},
{"zip_code":"6480145","kana_pref":"ﾜｶﾔﾏｹﾝ","kana_city":"ｲﾄｸﾞﾝｸﾄﾞﾔﾏﾁｮｳ","kana_address":"ｼﾓｺｻﾜ","pref":"和歌山県","city":"伊都郡九度山町","address":"下古沢"},
{"zip_code":"6480144","kana_pref":"ﾜｶﾔﾏｹﾝ","kana_city":"ｲﾄｸﾞﾝｸﾄﾞﾔﾏﾁｮｳ","kana_address":"ﾅｶｺｻﾜ","pref":"和歌山県","city":"伊都郡九度山町","address":"中古沢"},
{"zip_code":"6480121","kana_pref":"ﾜｶﾔﾏｹﾝ","kana_city":"ｲﾄｸﾞﾝｸﾄﾞﾔﾏﾁｮｳ","kana_address":"ﾆｭｳｶﾜ","pref":"和歌山県","city":"伊都郡九度山町","address":"丹生川"},
{"zip_code":"6480161","kana_pref":"ﾜｶﾔﾏｹﾝ","kana_city":"ｲﾄｸﾞﾝｸﾄﾞﾔﾏﾁｮｳ","kana_address":"ﾆｭｳｺﾞｳ","pref":"和歌山県","city":"伊都郡九度山町","address":"入郷"},
{"zip_code":"6480133","kana_pref":"ﾜｶﾔﾏｹﾝ","kana_city":"ｲﾄｸﾞﾝｸﾄﾞﾔﾏﾁｮｳ","kana_address":"ﾋｶﾞｼｺﾞｳ","pref":"和歌山県","city":"伊都郡九度山町","address":"東郷"},
{"zip_code":"6480200","kana_pref":"ﾜｶﾔﾏｹﾝ","kana_city":"ｲﾄｸﾞﾝｺｳﾔﾁｮｳ","kana_address":"","pref":"和歌山県","city":"伊都郡高野町","address":""},
{"zip_code":"6480241","kana_pref":"ﾜｶﾔﾏｹﾝ","kana_city":"ｲﾄｸﾞﾝｺｳﾔﾁｮｳ","kana_address":"ｱｲﾉｳﾗ","pref":"和歌山県","city":"伊都郡高野町","address":"相ノ浦"},
{"zip_code":"6480231","kana_pref":"ﾜｶﾔﾏｹﾝ","kana_city":"ｲﾄｸﾞﾝｺｳﾔﾁｮｳ","kana_address":"ｵｵﾀｷ","pref":"和歌山県","city":"伊都郡高野町","address":"大滝"},
{"zip_code":"6480227","kana_pref":"ﾜｶﾔﾏｹﾝ","kana_city":"ｲﾄｸﾞﾝｺｳﾔﾁｮｳ","kana_address":"ｶｼﾊﾗ","pref":"和歌山県","city":"伊都郡高野町","address":"樫原"},
{"zip_code":"6480403","kana_pref":"ﾜｶﾔﾏｹﾝ","kana_city":"ｲﾄｸﾞﾝｺｳﾔﾁｮｳ","kana_address":"ｶﾐﾂﾂｶﾞ","pref":"和歌山県","city":"伊都郡高野町","address":"上筒香"},
{"zip_code":"6480211","kana_pref":"ﾜｶﾔﾏｹﾝ","kana_city":"ｲﾄｸﾞﾝｺｳﾔﾁｮｳ","kana_address":"ｺｳﾔｻﾝ","pref":"和歌山県","city":"伊都郡高野町","address":"高野山"},
{"zip_code":"6480405","kana_pref":"ﾜｶﾔﾏｹﾝ","kana_city":"ｲﾄｸﾞﾝｺｳﾔﾁｮｳ","kana_address":"ｼﾓﾂﾂｶﾞ","pref":"和歌山県","city":"伊都郡高野町","address":"下筒香"},
{"zip_code":"6480225","kana_pref":"ﾜｶﾔﾏｹﾝ","kana_city":"ｲﾄｸﾞﾝｺｳﾔﾁｮｳ","kana_address":"ﾂｴｶﾞﾔﾌﾞ","pref":"和歌山県","city":"伊都郡高野町","address":"杖ケ薮"},
{"zip_code":"6480404","kana_pref":"ﾜｶﾔﾏｹﾝ","kana_city":"ｲﾄｸﾞﾝｺｳﾔﾁｮｳ","kana_address":"ﾅｶﾂﾂｶﾞ","pref":"和歌山県","city":"伊都郡高野町","address":"中筒香"},
{"zip_code":"6480221","kana_pref":"ﾜｶﾔﾏｹﾝ","kana_city":"ｲﾄｸﾞﾝｺｳﾔﾁｮｳ","kana_address":"ﾆｼｶﾞﾐﾈ","pref":"和歌山県","city":"伊都郡高野町","address":"西ケ峰"},
{"zip_code":"6480261","kana_pref":"ﾜｶﾔﾏｹﾝ","kana_city":"ｲﾄｸﾞﾝｺｳﾔﾁｮｳ","kana_address":"ﾆｼｺﾞｳ","pref":"和歌山県","city":"伊都郡高野町","address":"西郷"},
{"zip_code":"6480171","kana_pref":"ﾜｶﾔﾏｹﾝ","kana_city":"ｲﾄｸﾞﾝｺｳﾔﾁｮｳ","kana_address":"ﾆｼｺﾞｳ","pref":"和歌山県","city":"伊都郡高野町","address":"西郷"},
{"zip_code":"6480401","kana_pref":"ﾜｶﾔﾏｹﾝ","kana_city":"ｲﾄｸﾞﾝｺｳﾔﾁｮｳ","kana_address":"ﾆｼﾌｷ","pref":"和歌山県","city":"伊都郡高野町","address":"西富貴"},
{"zip_code":"6480263","kana_pref":"ﾜｶﾔﾏｹﾝ","kana_city":"ｲﾄｸﾞﾝｺｳﾔﾁｮｳ","kana_address":"ﾊﾅｻｶ","pref":"和歌山県","city":"伊都郡高野町","address":"花坂"},
{"zip_code":"6480223","kana_pref":"ﾜｶﾔﾏｹﾝ","kana_city":"ｲﾄｸﾞﾝｺｳﾔﾁｮｳ","kana_address":"ﾊﾔｼ","pref":"和歌山県","city":"伊都郡高野町","address":"林"},
{"zip_code":"6480402","kana_pref":"ﾜｶﾔﾏｹﾝ","kana_city":"ｲﾄｸﾞﾝｺｳﾔﾁｮｳ","kana_address":"ﾋｶﾞｼﾌｷ","pref":"和歌山県","city":"伊都郡高野町","address":"東富貴"},
{"zip_code":"6480226","kana_pref":"ﾜｶﾔﾏｹﾝ","kana_city":"ｲﾄｸﾞﾝｺｳﾔﾁｮｳ","kana_address":"ﾋｶﾞｼﾏﾀ","pref":"和歌山県","city":"伊都郡高野町","address":"東又"},
{"zip_code":"6480224","kana_pref":"ﾜｶﾔﾏｹﾝ","kana_city":"ｲﾄｸﾞﾝｺｳﾔﾁｮｳ","kana_address":"ﾋﾗﾊﾗ","pref":"和歌山県","city":"伊都郡高野町","address":"平原"},
{"zip_code":"6480262","kana_pref":"ﾜｶﾔﾏｹﾝ","kana_city":"ｲﾄｸﾞﾝｺｳﾔﾁｮｳ","kana_address":"ﾎｿｶﾜ","pref":"和歌山県","city":"伊都郡高野町","address":"細川"},
{"zip_code":"6480222","kana_pref":"ﾜｶﾔﾏｹﾝ","kana_city":"ｲﾄｸﾞﾝｺｳﾔﾁｮｳ","kana_address":"ﾐﾅﾐ","pref":"和歌山県","city":"伊都郡高野町","address":"南"},
{"zip_code":"6480251","kana_pref":"ﾜｶﾔﾏｹﾝ","kana_city":"ｲﾄｸﾞﾝｺｳﾔﾁｮｳ","kana_address":"ﾕｶﾜ","pref":"和歌山県","city":"伊都郡高野町","address":"湯川"}]}