{"zip_code":[
{"zip_code":"6500000","kana_pref":"ﾋｮｳｺﾞｹﾝ","kana_city":"ｺｳﾍﾞｼﾁｭｳｵｳｸ","kana_address":"","pref":"兵庫県","city":"神戸市中央区","address":""},
{"zip_code":"6500025","kana_pref":"ﾋｮｳｺﾞｹﾝ","kana_city":"ｺｳﾍﾞｼﾁｭｳｵｳｸ","kana_address":"ｱｲｵｲﾁｮｳ","pref":"兵庫県","city":"神戸市中央区","address":"相生町"},
{"zip_code":"6500037","kana_pref":"ﾋｮｳｺﾞｹﾝ","kana_city":"ｺｳﾍﾞｼﾁｭｳｵｳｸ","kana_address":"ｱｶｼﾏﾁ","pref":"兵庫県","city":"神戸市中央区","address":"明石町"},
{"zip_code":"6500032","kana_pref":"ﾋｮｳｺﾞｹﾝ","kana_city":"ｺｳﾍﾞｼﾁｭｳｵｳｸ","kana_address":"ｲﾄｳﾏﾁ","pref":"兵庫県","city":"神戸市中央区","address":"伊藤町"},
{"zip_code":"6500033","kana_pref":"ﾋｮｳｺﾞｹﾝ","kana_city":"ｺｳﾍﾞｼﾁｭｳｵｳｸ","kana_address":"ｴﾄﾞﾏﾁ","pref":"兵庫県","city":"神戸市中央区","address":"江戸町"},
{"zip_code":"6500024","kana_pref":"ﾋｮｳｺﾞｹﾝ","kana_city":"ｺｳﾍﾞｼﾁｭｳｵｳｸ","kana_address":"ｶｲｶﾞﾝﾄﾞｵﾘ","pref":"兵庫県","city":"神戸市中央区","address":"海岸通"},
{"zip_code":"6500001","kana_pref":"ﾋｮｳｺﾞｹﾝ","kana_city":"ｺｳﾍﾞｼﾁｭｳｵｳｸ","kana_address":"ｶﾉｳﾁｮｳ","pref":"兵庫県","city":"神戸市中央区","address":"加納町"},
{"zip_code":"6500012","kana_pref":"ﾋｮｳｺﾞｹﾝ","kana_city":"ｺｳﾍﾞｼﾁｭｳｵｳｸ","kana_address":"ｷﾀﾅｶﾞｻﾄﾞｵﾘ","pref":"兵庫県","city":"神戸市中央区","address":"北長狭通"},
{"zip_code":"6500002","kana_pref":"ﾋｮｳｺﾞｹﾝ","kana_city":"ｺｳﾍﾞｼﾁｭｳｵｳｸ","kana_address":"ｷﾀﾉﾁｮｳ","pref":"兵庫県","city":"神戸市中央区","address":"北野町"},
{"zip_code":"6500034","kana_pref":"ﾋｮｳｺﾞｹﾝ","kana_city":"ｺｳﾍﾞｼﾁｭｳｵｳｸ","kana_address":"ｷｮｳﾏﾁ","pref":"兵庫県","city":"神戸市中央区","address":"京町"},
{"zip_code":"6500017","kana_pref":"ﾋｮｳｺﾞｹﾝ","kana_city":"ｺｳﾍﾞｼﾁｭｳｵｳｸ","kana_address":"ｸｽﾉｷﾁｮｳ","pref":"兵庫県","city":"神戸市中央区","address":"楠町"},
{"zip_code":"6500048","kana_pref":"ﾋｮｳｺﾞｹﾝ","kana_city":"ｺｳﾍﾞｼﾁｭｳｵｳｸ","kana_address":"ｺｳﾍﾞｸｳｺｳ","pref":"兵庫県","city":"神戸市中央区","address":"神戸空港"},
{"zip_code":"6500007","kana_pref":"ﾋｮｳｺﾞｹﾝ","kana_city":"ｺｳﾍﾞｼﾁｭｳｵｳｸ","kana_address":"ｺｳﾍﾞｺｳｼﾞｶﾀ","pref":"兵庫県","city":"神戸市中央区","address":"神戸港地方"},
{"zip_code":"6500026","kana_pref":"ﾋｮｳｺﾞｹﾝ","kana_city":"ｺｳﾍﾞｼﾁｭｳｵｳｸ","kana_address":"ｺﾐﾅﾄﾄﾞｵﾘ","pref":"兵庫県","city":"神戸市中央区","address":"古湊通"},
{"zip_code":"6500023","kana_pref":"ﾋｮｳｺﾞｹﾝ","kana_city":"ｺｳﾍﾞｼﾁｭｳｵｳｸ","kana_address":"ｻｶｴﾏﾁﾄﾞｵﾘ","pref":"兵庫県","city":"神戸市中央区","address":"栄町通"},
{"zip_code":"6500021","kana_pref":"ﾋｮｳｺﾞｹﾝ","kana_city":"ｺｳﾍﾞｼﾁｭｳｵｳｸ","kana_address":"ｻﾝﾉﾐﾔﾁｮｳ","pref":"兵庫県","city":"神戸市中央区","address":"三宮町"},
{"zip_code":"6500011","kana_pref":"ﾋｮｳｺﾞｹﾝ","kana_city":"ｺｳﾍﾞｼﾁｭｳｵｳｸ","kana_address":"ｼﾓﾔﾏﾃﾄﾞｵﾘ","pref":"兵庫県","city":"神戸市中央区","address":"下山手通"},
{"zip_code":"6500041","kana_pref":"ﾋｮｳｺﾞｹﾝ","kana_city":"ｺｳﾍﾞｼﾁｭｳｵｳｸ","kana_address":"ｼﾝｺｳﾁｮｳ","pref":"兵庫県","city":"神戸市中央区","address":"新港町"},
{"zip_code":"6500006","kana_pref":"ﾋｮｳｺﾞｹﾝ","kana_city":"ｺｳﾍﾞｼﾁｭｳｵｳｸ","kana_address":"ｽﾜﾔﾏﾁｮｳ","pref":"兵庫県","city":"神戸市中央区","address":"諏訪山町"},
{"zip_code":"6500016","kana_pref":"ﾋｮｳｺﾞｹﾝ","kana_city":"ｺｳﾍﾞｼﾁｭｳｵｳｸ","kana_address":"ﾀﾁﾊﾞﾅﾄﾞｵﾘ","pref":"兵庫県","city":"神戸市中央区","address":"橘通"},
{"zip_code":"6500015","kana_pref":"ﾋｮｳｺﾞｹﾝ","kana_city":"ｺｳﾍﾞｼﾁｭｳｵｳｸ","kana_address":"ﾀﾓﾝﾄﾞｵﾘ","pref":"兵庫県","city":"神戸市中央区","address":"多聞通"},
{"zip_code":"6500027","kana_pref":"ﾋｮｳｺﾞｹﾝ","kana_city":"ｺｳﾍﾞｼﾁｭｳｵｳｸ","kana_address":"ﾅｶﾏﾁﾄﾞｵﾘ","pref":"兵庫県","city":"神戸市中央区","address":"中町通"},
{"zip_code":"6500004","kana_pref":"ﾋｮｳｺﾞｹﾝ","kana_city":"ｺｳﾍﾞｼﾁｭｳｵｳｸ","kana_address":"ﾅｶﾔﾏﾃﾄﾞｵﾘ","pref":"兵庫県","city":"神戸市中央区","address":"中山手通"},
{"zip_code":"6500035","kana_pref":"ﾋｮｳｺﾞｹﾝ","kana_city":"ｺｳﾍﾞｼﾁｭｳｵｳｸ","kana_address":"ﾅﾆﾜﾏﾁ","pref":"兵庫県","city":"神戸市中央区","address":"浪花町"},
{"zip_code":"6500038","kana_pref":"ﾋｮｳｺﾞｹﾝ","kana_city":"ｺｳﾍﾞｼﾁｭｳｵｳｸ","kana_address":"ﾆｼﾏﾁ","pref":"兵庫県","city":"神戸市中央区","address":"西町"},
{"zip_code":"6500042","kana_pref":"ﾋｮｳｺﾞｹﾝ","kana_city":"ｺｳﾍﾞｼﾁｭｳｵｳｸ","kana_address":"ﾊﾄﾊﾞﾁｮｳ","pref":"兵庫県","city":"神戸市中央区","address":"波止場町"},
{"zip_code":"6500013","kana_pref":"ﾋｮｳｺﾞｹﾝ","kana_city":"ｺｳﾍﾞｼﾁｭｳｵｳｸ","kana_address":"ﾊﾅｸﾏﾁｮｳ","pref":"兵庫県","city":"神戸市中央区","address":"花隈町"},
{"zip_code":"6500036","kana_pref":"ﾋｮｳｺﾞｹﾝ","kana_city":"ｺｳﾍﾞｼﾁｭｳｵｳｸ","kana_address":"ﾊﾘﾏﾏﾁ","pref":"兵庫県","city":"神戸市中央区","address":"播磨町"},
{"zip_code":"6500044","kana_pref":"ﾋｮｳｺﾞｹﾝ","kana_city":"ｺｳﾍﾞｼﾁｭｳｵｳｸ","kana_address":"ﾋｶﾞｼｶﾜｻｷﾁｮｳ","pref":"兵庫県","city":"神戸市中央区","address":"東川崎町"},
{"zip_code":"6500031","kana_pref":"ﾋｮｳｺﾞｹﾝ","kana_city":"ｺｳﾍﾞｼﾁｭｳｵｳｸ","kana_address":"ﾋｶﾞｼﾏﾁ","pref":"兵庫県","city":"神戸市中央区","address":"東町"},
{"zip_code":"6500005","kana_pref":"ﾋｮｳｺﾞｹﾝ","kana_city":"ｺｳﾍﾞｼﾁｭｳｵｳｸ","kana_address":"ﾌﾀﾀﾋﾞｽｼﾞﾁｮｳ","pref":"兵庫県","city":"神戸市中央区","address":"再度筋町"},
{"zip_code":"6500043","kana_pref":"ﾋｮｳｺﾞｹﾝ","kana_city":"ｺｳﾍﾞｼﾁｭｳｵｳｸ","kana_address":"ﾍﾞﾝﾃﾝﾁｮｳ","pref":"兵庫県","city":"神戸市中央区","address":"弁天町"},
{"zip_code":"6500039","kana_pref":"ﾋｮｳｺﾞｹﾝ","kana_city":"ｺｳﾍﾞｼﾁｭｳｵｳｸ","kana_address":"ﾏｴﾏﾁ","pref":"兵庫県","city":"神戸市中央区","address":"前町"},
{"zip_code":"6500045","kana_pref":"ﾋｮｳｺﾞｹﾝ","kana_city":"ｺｳﾍﾞｼﾁｭｳｵｳｸ","kana_address":"ﾐﾅﾄｼﾞﾏ","pref":"兵庫県","city":"神戸市中央区","address":"港島"},
{"zip_code":"6500046","kana_pref":"ﾋｮｳｺﾞｹﾝ","kana_city":"ｺｳﾍﾞｼﾁｭｳｵｳｸ","kana_address":"ﾐﾅﾄｼﾞﾏﾅｶﾏﾁ","pref":"兵庫県","city":"神戸市中央区","address":"港島中町"},
{"zip_code":"6500047","kana_pref":"ﾋｮｳｺﾞｹﾝ","kana_city":"ｺｳﾍﾞｼﾁｭｳｵｳｸ","kana_address":"ﾐﾅﾄｼﾞﾏﾐﾅﾐﾏﾁ","pref":"兵庫県","city":"神戸市中央区","address":"港島南町"},
{"zip_code":"6500014","kana_pref":"ﾋｮｳｺﾞｹﾝ","kana_city":"ｺｳﾍﾞｼﾁｭｳｵｳｸ","kana_address":"ﾓﾄﾏﾁｺｳｶﾄﾞｵﾘ","pref":"兵庫県","city":"神戸市中央区","address":"元町高架通"},
{"zip_code":"6500022","kana_pref":"ﾋｮｳｺﾞｹﾝ","kana_city":"ｺｳﾍﾞｼﾁｭｳｵｳｸ","kana_address":"ﾓﾄﾏﾁﾄﾞｵﾘ","pref":"兵庫県","city":"神戸市中央区","address":"元町通"},
{"zip_code":"6500003","kana_pref":"ﾋｮｳｺﾞｹﾝ","kana_city":"ｺｳﾍﾞｼﾁｭｳｵｳｸ","kana_address":"ﾔﾏﾓﾄﾄﾞｵﾘ","pref":"兵庫県","city":"神戸市中央区","address":"山本通"},
{"zip_code":"6500000","kana_pref":"ﾋｮｳｺﾞｹﾝ","kana_city":"ｺｳﾍﾞｼﾆｼｸ","kana_address":"","pref":"兵庫県","city":"神戸市西区","address":""}]}