{"zip_code":[
{"zip_code":"6520000","kana_pref":"ﾋｮｳｺﾞｹﾝ","kana_city":"ｺｳﾍﾞｼﾋｮｳｺﾞｸ","kana_address":"","pref":"兵庫県","city":"神戸市兵庫区","address":""},
{"zip_code":"6520882","kana_pref":"ﾋｮｳｺﾞｹﾝ","kana_city":"ｺｳﾍﾞｼﾋｮｳｺﾞｸ","kana_address":"ｱｼﾊﾗﾄﾞｵﾘ","pref":"兵庫県","city":"神戸市兵庫区","address":"芦原通"},
{"zip_code":"6520032","kana_pref":"ﾋｮｳｺﾞｹﾝ","kana_city":"ｺｳﾍﾞｼﾋｮｳｺﾞｸ","kana_address":"ｱﾗﾀﾁｮｳ","pref":"兵庫県","city":"神戸市兵庫区","address":"荒田町"},
{"zip_code":"6520061","kana_pref":"ﾋｮｳｺﾞｹﾝ","kana_city":"ｺｳﾍﾞｼﾋｮｳｺﾞｸ","kana_address":"ｲｼｲﾁｮｳ","pref":"兵庫県","city":"神戸市兵庫区","address":"石井町"},
{"zip_code":"6520842","kana_pref":"ﾋｮｳｺﾞｹﾝ","kana_city":"ｺｳﾍﾞｼﾋｮｳｺﾞｸ","kana_address":"ｲｿﾉﾁｮｳ","pref":"兵庫県","city":"神戸市兵庫区","address":"磯之町"},
{"zip_code":"6520853","kana_pref":"ﾋｮｳｺﾞｹﾝ","kana_city":"ｺｳﾍﾞｼﾋｮｳｺﾞｸ","kana_address":"ｲﾏﾃﾞｻﾞｲｹﾁｮｳ","pref":"兵庫県","city":"神戸市兵庫区","address":"今出在家町"},
{"zip_code":"6520894","kana_pref":"ﾋｮｳｺﾞｹﾝ","kana_city":"ｺｳﾍﾞｼﾋｮｳｺﾞｸ","kana_address":"ｲﾘｴﾄﾞｵﾘ","pref":"兵庫県","city":"神戸市兵庫区","address":"入江通"},
{"zip_code":"6520003","kana_pref":"ﾋｮｳｺﾞｹﾝ","kana_city":"ｺｳﾍﾞｼﾋｮｳｺﾞｸ","kana_address":"ｳﾒﾓﾄﾁｮｳ","pref":"兵庫県","city":"神戸市兵庫区","address":"梅元町"},
{"zip_code":"6520816","kana_pref":"ﾋｮｳｺﾞｹﾝ","kana_city":"ｺｳﾍﾞｼﾋｮｳｺﾞｸ","kana_address":"ｴｲｻﾞﾜﾁｮｳ","pref":"兵庫県","city":"神戸市兵庫区","address":"永沢町"},
{"zip_code":"6520898","kana_pref":"ﾋｮｳｺﾞｹﾝ","kana_city":"ｺｳﾍﾞｼﾋｮｳｺﾞｸ","kana_address":"ｴｷﾏｴﾄﾞｵﾘ","pref":"兵庫県","city":"神戸市兵庫区","address":"駅前通"},
{"zip_code":"6520897","kana_pref":"ﾋｮｳｺﾞｹﾝ","kana_city":"ｺｳﾍﾞｼﾋｮｳｺﾞｸ","kana_address":"ｴｷﾐﾅﾐﾄﾞｵﾘ","pref":"兵庫県","city":"神戸市兵庫区","address":"駅南通"},
{"zip_code":"6520043","kana_pref":"ﾋｮｳｺﾞｹﾝ","kana_city":"ｺｳﾍﾞｼﾋｮｳｺﾞｸ","kana_address":"ｴｹﾞﾔﾏﾁｮｳ","pref":"兵庫県","city":"神戸市兵庫区","address":"会下山町"},
{"zip_code":"6520044","kana_pref":"ﾋｮｳｺﾞｹﾝ","kana_city":"ｺｳﾍﾞｼﾋｮｳｺﾞｸ","kana_address":"ｵｵｲﾄﾞｵﾘ","pref":"兵庫県","city":"神戸市兵庫区","address":"大井通"},
{"zip_code":"6520895","kana_pref":"ﾋｮｳｺﾞｹﾝ","kana_city":"ｺｳﾍﾞｼﾋｮｳｺﾞｸ","kana_address":"ｵｶﾞﾜﾄﾞｵﾘ","pref":"兵庫県","city":"神戸市兵庫区","address":"小河通"},
{"zip_code":"6520864","kana_pref":"ﾋｮｳｺﾞｹﾝ","kana_city":"ｺｳﾍﾞｼﾋｮｳｺﾞｸ","kana_address":"ｶｻﾏﾂﾄﾞｵﾘ","pref":"兵庫県","city":"神戸市兵庫区","address":"笠松通"},
{"zip_code":"6520832","kana_pref":"ﾋｮｳｺﾞｹﾝ","kana_city":"ｺｳﾍﾞｼﾋｮｳｺﾞｸ","kana_address":"ｶｼﾞﾔﾁｮｳ","pref":"兵庫県","city":"神戸市兵庫区","address":"鍛冶屋町"},
{"zip_code":"6520008","kana_pref":"ﾋｮｳｺﾞｹﾝ","kana_city":"ｺｳﾍﾞｼﾋｮｳｺﾞｸ","kana_address":"ｶﾐｷﾞｵﾝﾁｮｳ","pref":"兵庫県","city":"神戸市兵庫区","address":"上祇園町"},
{"zip_code":"6520046","kana_pref":"ﾋｮｳｺﾞｹﾝ","kana_city":"ｺｳﾍﾞｼﾋｮｳｺﾞｸ","kana_address":"ｶﾐｻﾜﾄﾞｵﾘ","pref":"兵庫県","city":"神戸市兵庫区","address":"上沢通"},
{"zip_code":"6520013","kana_pref":"ﾋｮｳｺﾞｹﾝ","kana_city":"ｺｳﾍﾞｼﾋｮｳｺﾞｸ","kana_address":"ｶﾐｻﾝｼﾞｮｳﾁｮｳ","pref":"兵庫県","city":"神戸市兵庫区","address":"上三条町"},
{"zip_code":"6520862","kana_pref":"ﾋｮｳｺﾞｹﾝ","kana_city":"ｺｳﾍﾞｼﾋｮｳｺﾞｸ","kana_address":"ｶﾐｼｮｳﾄﾞｵﾘ","pref":"兵庫県","city":"神戸市兵庫区","address":"上庄通"},
{"zip_code":"6520001","kana_pref":"ﾋｮｳｺﾞｹﾝ","kana_city":"ｺｳﾍﾞｼﾋｮｳｺﾞｸ","kana_address":"ｶﾗｽﾊﾗﾁｮｳ","pref":"兵庫県","city":"神戸市兵庫区","address":"烏原町"},
{"zip_code":"6520006","kana_pref":"ﾋｮｳｺﾞｹﾝ","kana_city":"ｺｳﾍﾞｼﾋｮｳｺﾞｸ","kana_address":"ｶﾝﾀﾞﾁｮｳ","pref":"兵庫県","city":"神戸市兵庫区","address":"神田町"},
{"zip_code":"6520058","kana_pref":"ﾋｮｳｺﾞｹﾝ","kana_city":"ｺｳﾍﾞｼﾋｮｳｺﾞｸ","kana_address":"ｷｸｽｲﾁｮｳ","pref":"兵庫県","city":"神戸市兵庫区","address":"菊水町"},
{"zip_code":"6520837","kana_pref":"ﾋｮｳｺﾞｹﾝ","kana_city":"ｺｳﾍﾞｼﾋｮｳｺﾞｸ","kana_address":"ｷﾀｻｶｾｶﾞﾜﾁｮｳ","pref":"兵庫県","city":"神戸市兵庫区","address":"北逆瀬川町"},
{"zip_code":"6520053","kana_pref":"ﾋｮｳｺﾞｹﾝ","kana_city":"ｺｳﾍﾞｼﾋｮｳｺﾞｸ","kana_address":"ｷﾀﾔﾏﾁｮｳ","pref":"兵庫県","city":"神戸市兵庫区","address":"北山町"},
{"zip_code":"6520847","kana_pref":"ﾋｮｳｺﾞｹﾝ","kana_city":"ｺｳﾍﾞｼﾋｮｳｺﾞｸ","kana_address":"ｷﾚﾄﾁｮｳ","pref":"兵庫県","city":"神戸市兵庫区","address":"切戸町"},
{"zip_code":"6520873","kana_pref":"ﾋｮｳｺﾞｹﾝ","kana_city":"ｺｳﾍﾞｼﾋｮｳｺﾞｸ","kana_address":"ｷﾝﾍﾟｲﾁｮｳ","pref":"兵庫県","city":"神戸市兵庫区","address":"金平町"},
{"zip_code":"6520004","kana_pref":"ﾋｮｳｺﾞｹﾝ","kana_city":"ｺｳﾍﾞｼﾋｮｳｺﾞｸ","kana_address":"ｸｽﾀﾞﾆﾁｮｳ","pref":"兵庫県","city":"神戸市兵庫区","address":"楠谷町"},
{"zip_code":"6520064","kana_pref":"ﾋｮｳｺﾞｹﾝ","kana_city":"ｺｳﾍﾞｼﾋｮｳｺﾞｸ","kana_address":"ｸﾏﾉﾁｮｳ","pref":"兵庫県","city":"神戸市兵庫区","address":"熊野町"},
{"zip_code":"6520885","kana_pref":"ﾋｮｳｺﾞｹﾝ","kana_city":"ｺｳﾍﾞｼﾋｮｳｺﾞｸ","kana_address":"ｺﾞｼｮﾄﾞｵﾘ","pref":"兵庫県","city":"神戸市兵庫区","address":"御所通"},
{"zip_code":"6520007","kana_pref":"ﾋｮｳｺﾞｹﾝ","kana_city":"ｺｳﾍﾞｼﾋｮｳｺﾞｸ","kana_address":"ｺﾞﾉﾐﾔﾁｮｳ","pref":"兵庫県","city":"神戸市兵庫区","address":"五宮町"},
{"zip_code":"6520865","kana_pref":"ﾋｮｳｺﾞｹﾝ","kana_city":"ｺｳﾍﾞｼﾋｮｳｺﾞｸ","kana_address":"ｺﾏﾂﾄﾞｵﾘ","pref":"兵庫県","city":"神戸市兵庫区","address":"小松通"},
{"zip_code":"6520055","kana_pref":"ﾋｮｳｺﾞｹﾝ","kana_city":"ｺｳﾍﾞｼﾋｮｳｺﾞｸ","kana_address":"ｺﾔﾏﾁｮｳ","pref":"兵庫県","city":"神戸市兵庫区","address":"小山町"},
{"zip_code":"6520851","kana_pref":"ﾋｮｳｺﾞｹﾝ","kana_city":"ｺｳﾍﾞｼﾋｮｳｺﾞｸ","kana_address":"ｻﾞｲﾓｸﾁｮｳ","pref":"兵庫県","city":"神戸市兵庫区","address":"材木町"},
{"zip_code":"6520051","kana_pref":"ﾋｮｳｺﾞｹﾝ","kana_city":"ｺｳﾍﾞｼﾋｮｳｺﾞｸ","kana_address":"ｻﾄﾔﾏﾁｮｳ","pref":"兵庫県","city":"神戸市兵庫区","address":"里山町"},
{"zip_code":"6520821","kana_pref":"ﾋｮｳｺﾞｹﾝ","kana_city":"ｺｳﾍﾞｼﾋｮｳｺﾞｸ","kana_address":"ｻﾋﾞｴﾁｮｳ","pref":"兵庫県","city":"神戸市兵庫区","address":"佐比江町"},
{"zip_code":"6520011","kana_pref":"ﾋｮｳｺﾞｹﾝ","kana_city":"ｺｳﾍﾞｼﾋｮｳｺﾞｸ","kana_address":"ｻﾝﾉｳﾁｮｳ","pref":"兵庫県","city":"神戸市兵庫区","address":"山王町"},
{"zip_code":"6520831","kana_pref":"ﾋｮｳｺﾞｹﾝ","kana_city":"ｺｳﾍﾞｼﾋｮｳｺﾞｸ","kana_address":"ｼﾁﾉﾐﾔﾁｮｳ","pref":"兵庫県","city":"神戸市兵庫区","address":"七宮町"},
{"zip_code":"6520833","kana_pref":"ﾋｮｳｺﾞｹﾝ","kana_city":"ｺｳﾍﾞｼﾋｮｳｺﾞｸ","kana_address":"ｼﾏｶﾞﾐﾁｮｳ","pref":"兵庫県","city":"神戸市兵庫区","address":"島上町"},
{"zip_code":"6520065","kana_pref":"ﾋｮｳｺﾞｹﾝ","kana_city":"ｺｳﾍﾞｼﾋｮｳｺﾞｸ","kana_address":"ｼﾐｽﾞﾁｮｳ","pref":"兵庫県","city":"神戸市兵庫区","address":"清水町"},
{"zip_code":"6520015","kana_pref":"ﾋｮｳｺﾞｹﾝ","kana_city":"ｺｳﾍﾞｼﾋｮｳｺﾞｸ","kana_address":"ｼﾓｷﾞｵﾝﾁｮｳ","pref":"兵庫県","city":"神戸市兵庫区","address":"下祇園町"},
{"zip_code":"6520047","kana_pref":"ﾋｮｳｺﾞｹﾝ","kana_city":"ｺｳﾍﾞｼﾋｮｳｺﾞｸ","kana_address":"ｼﾓｻﾜﾄﾞｵﾘ","pref":"兵庫県","city":"神戸市兵庫区","address":"下沢通"},
{"zip_code":"6520014","kana_pref":"ﾋｮｳｺﾞｹﾝ","kana_city":"ｺｳﾍﾞｼﾋｮｳｺﾞｸ","kana_address":"ｼﾓｻﾝｼﾞｮｳﾁｮｳ","pref":"兵庫県","city":"神戸市兵庫区","address":"下三条町"},
{"zip_code":"6520811","kana_pref":"ﾋｮｳｺﾞｹﾝ","kana_city":"ｺｳﾍﾞｼﾋｮｳｺﾞｸ","kana_address":"ｼﾝｶｲﾁ","pref":"兵庫県","city":"神戸市兵庫区","address":"新開地"},
{"zip_code":"6520836","kana_pref":"ﾋｮｳｺﾞｹﾝ","kana_city":"ｺｳﾍﾞｼﾋｮｳｺﾞｸ","kana_address":"ｼﾝﾒｲﾁｮｳ","pref":"兵庫県","city":"神戸市兵庫区","address":"神明町"},
{"zip_code":"6520896","kana_pref":"ﾋｮｳｺﾞｹﾝ","kana_city":"ｺｳﾍﾞｼﾋｮｳｺﾞｸ","kana_address":"ｽｻﾉﾄﾞｵﾘ","pref":"兵庫県","city":"神戸市兵庫区","address":"須佐野通"},
{"zip_code":"6520062","kana_pref":"ﾋｮｳｺﾞｹﾝ","kana_city":"ｺｳﾍﾞｼﾋｮｳｺﾞｸ","kana_address":"ﾀﾞｲﾄﾞｳﾁｮｳ","pref":"兵庫県","city":"神戸市兵庫区","address":"大同町"},
{"zip_code":"6520874","kana_pref":"ﾋｮｳｺﾞｹﾝ","kana_city":"ｺｳﾍﾞｼﾋｮｳｺﾞｸ","kana_address":"ﾀｶﾏﾂﾁｮｳ","pref":"兵庫県","city":"神戸市兵庫区","address":"高松町"},
{"zip_code":"6520056","kana_pref":"ﾋｮｳｺﾞｹﾝ","kana_city":"ｺｳﾍﾞｼﾋｮｳｺﾞｸ","kana_address":"ﾀｷﾔﾏﾁｮｳ","pref":"兵庫県","city":"神戸市兵庫区","address":"滝山町"},
{"zip_code":"6520803","kana_pref":"ﾋｮｳｺﾞｹﾝ","kana_city":"ｺｳﾍﾞｼﾋｮｳｺﾞｸ","kana_address":"ﾀﾞｲｶｲﾄﾞｵﾘ","pref":"兵庫県","city":"神戸市兵庫区","address":"大開通"},
{"zip_code":"6520022","kana_pref":"ﾋｮｳｺﾞｹﾝ","kana_city":"ｺｳﾍﾞｼﾋｮｳｺﾞｸ","kana_address":"ﾁﾄﾞﾘﾁｮｳ","pref":"兵庫県","city":"神戸市兵庫区","address":"千鳥町"},
{"zip_code":"6520804","kana_pref":"ﾋｮｳｺﾞｹﾝ","kana_city":"ｺｳﾍﾞｼﾋｮｳｺﾞｸ","kana_address":"ﾂｶﾓﾄﾄﾞｵﾘ","pref":"兵庫県","city":"神戸市兵庫区","address":"塚本通"},
{"zip_code":"6520845","kana_pref":"ﾋｮｳｺﾞｹﾝ","kana_city":"ｺｳﾍﾞｼﾋｮｳｺﾞｸ","kana_address":"ﾂｷｼﾞﾁｮｳ","pref":"兵庫県","city":"神戸市兵庫区","address":"築地町"},
{"zip_code":"6520023","kana_pref":"ﾋｮｳｺﾞｹﾝ","kana_city":"ｺｳﾍﾞｼﾋｮｳｺﾞｸ","kana_address":"ﾂﾕﾉﾁｮｳ","pref":"兵庫県","city":"神戸市兵庫区","address":"都由乃町"},
{"zip_code":"6520846","kana_pref":"ﾋｮｳｺﾞｹﾝ","kana_city":"ｺｳﾍﾞｼﾋｮｳｺﾞｸ","kana_address":"ﾃﾞｻﾞｲｹﾁｮｳ","pref":"兵庫県","city":"神戸市兵庫区","address":"出在家町"},
{"zip_code":"6520021","kana_pref":"ﾋｮｳｺﾞｹﾝ","kana_city":"ｺｳﾍﾞｼﾋｮｳｺﾞｸ","kana_address":"ﾃﾝﾉｳﾁｮｳ","pref":"兵庫県","city":"神戸市兵庫区","address":"天王町"},
{"zip_code":"6520866","kana_pref":"ﾋｮｳｺﾞｹﾝ","kana_city":"ｺｳﾍﾞｼﾋｮｳｺﾞｸ","kana_address":"ﾄｵﾔﾊﾏﾁｮｳ","pref":"兵庫県","city":"神戸市兵庫区","address":"遠矢浜町"},
{"zip_code":"6520844","kana_pref":"ﾋｮｳｺﾞｹﾝ","kana_city":"ｺｳﾍﾞｼﾋｮｳｺﾞｸ","kana_address":"ﾅｶﾉｼﾏ","pref":"兵庫県","city":"神戸市兵庫区","address":"中之島"},
{"zip_code":"6520801","kana_pref":"ﾋｮｳｺﾞｹﾝ","kana_city":"ｺｳﾍﾞｼﾋｮｳｺﾞｸ","kana_address":"ﾅｶﾐﾁﾄﾞｵﾘ","pref":"兵庫県","city":"神戸市兵庫区","address":"中道通"},
{"zip_code":"6520033","kana_pref":"ﾋｮｳｺﾞｹﾝ","kana_city":"ｺｳﾍﾞｼﾋｮｳｺﾞｸ","kana_address":"ﾆｼｶﾐﾀﾁﾊﾞﾅﾄﾞｵﾘ","pref":"兵庫県","city":"神戸市兵庫区","address":"西上橘通"},
{"zip_code":"6520034","kana_pref":"ﾋｮｳｺﾞｹﾝ","kana_city":"ｺｳﾍﾞｼﾋｮｳｺﾞｸ","kana_address":"ﾆｼﾀﾁﾊﾞﾅﾄﾞｵﾘ","pref":"兵庫県","city":"神戸市兵庫区","address":"西橘通"},
{"zip_code":"6520035","kana_pref":"ﾋｮｳｺﾞｹﾝ","kana_city":"ｺｳﾍﾞｼﾋｮｳｺﾞｸ","kana_address":"ﾆｼﾀﾓﾝﾄﾞｵﾘ","pref":"兵庫県","city":"神戸市兵庫区","address":"西多聞通"},
{"zip_code":"6520822","kana_pref":"ﾋｮｳｺﾞｹﾝ","kana_city":"ｺｳﾍﾞｼﾋｮｳｺﾞｸ","kana_address":"ﾆｼﾃﾞﾏﾁ","pref":"兵庫県","city":"神戸市兵庫区","address":"西出町"},
{"zip_code":"6520835","kana_pref":"ﾋｮｳｺﾞｹﾝ","kana_city":"ｺｳﾍﾞｼﾋｮｳｺﾞｸ","kana_address":"ﾆｼﾅｶﾏﾁ","pref":"兵庫県","city":"神戸市兵庫区","address":"西仲町"},
{"zip_code":"6520891","kana_pref":"ﾋｮｳｺﾞｹﾝ","kana_city":"ｺｳﾍﾞｼﾋｮｳｺﾞｸ","kana_address":"ﾆｼﾐﾔｳﾁﾁｮｳ","pref":"兵庫県","city":"神戸市兵庫区","address":"西宮内町"},
{"zip_code":"6520806","kana_pref":"ﾋｮｳｺﾞｹﾝ","kana_city":"ｺｳﾍﾞｼﾋｮｳｺﾞｸ","kana_address":"ﾆｼﾔﾅｷﾞﾜﾗﾁｮｳ","pref":"兵庫県","city":"神戸市兵庫区","address":"西柳原町"},
{"zip_code":"6520805","kana_pref":"ﾋｮｳｺﾞｹﾝ","kana_city":"ｺｳﾍﾞｼﾋｮｳｺﾞｸ","kana_address":"ﾊｻｶﾄﾞｵﾘ","pref":"兵庫県","city":"神戸市兵庫区","address":"羽坂通"},
{"zip_code":"6520016","kana_pref":"ﾋｮｳｺﾞｹﾝ","kana_city":"ｺｳﾍﾞｼﾋｮｳｺﾞｸ","kana_address":"ﾊﾞﾊﾞﾁｮｳ","pref":"兵庫県","city":"神戸市兵庫区","address":"馬場町"},
{"zip_code":"6520807","kana_pref":"ﾋｮｳｺﾞｹﾝ","kana_city":"ｺｳﾍﾞｼﾋｮｳｺﾞｸ","kana_address":"ﾊﾏｻｷﾄﾞｵﾘ","pref":"兵庫県","city":"神戸市兵庫区","address":"浜崎通"},
{"zip_code":"6520875","kana_pref":"ﾋｮｳｺﾞｹﾝ","kana_city":"ｺｳﾍﾞｼﾋｮｳｺﾞｸ","kana_address":"ﾊﾏﾅｶﾁｮｳ","pref":"兵庫県","city":"神戸市兵庫区","address":"浜中町"},
{"zip_code":"6520871","kana_pref":"ﾋｮｳｺﾞｹﾝ","kana_city":"ｺｳﾍﾞｼﾋｮｳｺﾞｸ","kana_address":"ﾊﾏﾔﾏﾄﾞｵﾘ","pref":"兵庫県","city":"神戸市兵庫区","address":"浜山通"},
{"zip_code":"6520823","kana_pref":"ﾋｮｳｺﾞｹﾝ","kana_city":"ｺｳﾍﾞｼﾋｮｳｺﾞｸ","kana_address":"ﾋｶﾞｼﾃﾞﾏﾁ","pref":"兵庫県","city":"神戸市兵庫区","address":"東出町"},
{"zip_code":"6520892","kana_pref":"ﾋｮｳｺﾞｹﾝ","kana_city":"ｺｳﾍﾞｼﾋｮｳｺﾞｸ","kana_address":"ﾋｶﾞｼﾔﾅｷﾞﾜﾗﾁｮｳ","pref":"兵庫県","city":"神戸市兵庫区","address":"東柳原町"},
{"zip_code":"6520042","kana_pref":"ﾋｮｳｺﾞｹﾝ","kana_city":"ｺｳﾍﾞｼﾋｮｳｺﾞｸ","kana_address":"ﾋｶﾞｼﾔﾏﾁｮｳ","pref":"兵庫県","city":"神戸市兵庫区","address":"東山町"},
{"zip_code":"6520054","kana_pref":"ﾋｮｳｺﾞｹﾝ","kana_city":"ｺｳﾍﾞｼﾋｮｳｺﾞｸ","kana_address":"ﾋﾑﾛﾁｮｳ","pref":"兵庫県","city":"神戸市兵庫区","address":"氷室町"},
{"zip_code":"6520813","kana_pref":"ﾋｮｳｺﾞｹﾝ","kana_city":"ｺｳﾍﾞｼﾋｮｳｺﾞｸ","kana_address":"ﾋｮｳｺﾞﾁｮｳ","pref":"兵庫県","city":"神戸市兵庫区","address":"兵庫町"},
{"zip_code":"6520052","kana_pref":"ﾋｮｳｺﾞｹﾝ","kana_city":"ｺｳﾍﾞｼﾋｮｳｺﾞｸ","kana_address":"ﾋﾖﾄﾞﾘｺﾞｴｽｼﾞ","pref":"兵庫県","city":"神戸市兵庫区","address":"鵯越筋"},
{"zip_code":"6520057","kana_pref":"ﾋｮｳｺﾞｹﾝ","kana_city":"ｺｳﾍﾞｼﾋｮｳｺﾞｸ","kana_address":"ﾋﾖﾄﾞﾘｺﾞｴﾁｮｳ","pref":"兵庫県","city":"神戸市兵庫区","address":"鵯越町"},
{"zip_code":"6520002","kana_pref":"ﾋｮｳｺﾞｹﾝ","kana_city":"ｺｳﾍﾞｼﾋｮｳｺﾞｸ","kana_address":"ﾋﾗﾉﾁｮｳ","pref":"兵庫県","city":"神戸市兵庫区","address":"平野町"},
{"zip_code":"6520036","kana_pref":"ﾋｮｳｺﾞｹﾝ","kana_city":"ｺｳﾍﾞｼﾋｮｳｺﾞｸ","kana_address":"ﾌｸﾜﾗﾁｮｳ","pref":"兵庫県","city":"神戸市兵庫区","address":"福原町"},
{"zip_code":"6520843","kana_pref":"ﾋｮｳｺﾞｹﾝ","kana_city":"ｺｳﾍﾞｼﾋｮｳｺﾞｸ","kana_address":"ﾌﾅﾀﾞｲｸﾁｮｳ","pref":"兵庫県","city":"神戸市兵庫区","address":"船大工町"},
{"zip_code":"6520834","kana_pref":"ﾋｮｳｺﾞｹﾝ","kana_city":"ｺｳﾍﾞｼﾋｮｳｺﾞｸ","kana_address":"ﾎﾝﾏﾁ","pref":"兵庫県","city":"神戸市兵庫区","address":"本町"},
{"zip_code":"6520881","kana_pref":"ﾋｮｳｺﾞｹﾝ","kana_city":"ｺｳﾍﾞｼﾋｮｳｺﾞｸ","kana_address":"ﾏﾂﾊﾞﾗﾄﾞｵﾘ","pref":"兵庫県","city":"神戸市兵庫区","address":"松原通"},
{"zip_code":"6520045","kana_pref":"ﾋｮｳｺﾞｹﾝ","kana_city":"ｺｳﾍﾞｼﾋｮｳｺﾞｸ","kana_address":"ﾏﾂﾓﾄﾄﾞｵﾘ","pref":"兵庫県","city":"神戸市兵庫区","address":"松本通"},
{"zip_code":"6520815","kana_pref":"ﾋｮｳｺﾞｹﾝ","kana_city":"ｺｳﾍﾞｼﾋｮｳｺﾞｸ","kana_address":"ﾐｶﾜｸﾞﾁﾁｮｳ","pref":"兵庫県","city":"神戸市兵庫区","address":"三川口町"},
{"zip_code":"6520855","kana_pref":"ﾋｮｳｺﾞｹﾝ","kana_city":"ｺｳﾍﾞｼﾋｮｳｺﾞｸ","kana_address":"ﾐｻｷﾁｮｳ","pref":"兵庫県","city":"神戸市兵庫区","address":"御崎町"},
{"zip_code":"6520852","kana_pref":"ﾋｮｳｺﾞｹﾝ","kana_city":"ｺｳﾍﾞｼﾋｮｳｺﾞｸ","kana_address":"ﾐｻｷﾎﾝﾏﾁ","pref":"兵庫県","city":"神戸市兵庫区","address":"御崎本町"},
{"zip_code":"6520802","kana_pref":"ﾋｮｳｺﾞｹﾝ","kana_city":"ｺｳﾍﾞｼﾋｮｳｺﾞｸ","kana_address":"ﾐｽﾞｷﾄﾞｵﾘ","pref":"兵庫県","city":"神戸市兵庫区","address":"水木通"},
{"zip_code":"6520861","kana_pref":"ﾋｮｳｺﾞｹﾝ","kana_city":"ｺｳﾍﾞｼﾋｮｳｺﾞｸ","kana_address":"ﾐﾂｲｼﾄﾞｵﾘ","pref":"兵庫県","city":"神戸市兵庫区","address":"三石通"},
{"zip_code":"6520041","kana_pref":"ﾋｮｳｺﾞｹﾝ","kana_city":"ｺｳﾍﾞｼﾋｮｳｺﾞｸ","kana_address":"ﾐﾅﾄｶﾞﾜﾁｮｳ","pref":"兵庫県","city":"神戸市兵庫区","address":"湊川町"},
{"zip_code":"6520812","kana_pref":"ﾋｮｳｺﾞｹﾝ","kana_city":"ｺｳﾍﾞｼﾋｮｳｺﾞｸ","kana_address":"ﾐﾅﾄﾁｮｳ","pref":"兵庫県","city":"神戸市兵庫区","address":"湊町"},
{"zip_code":"6520012","kana_pref":"ﾋｮｳｺﾞｹﾝ","kana_city":"ｺｳﾍﾞｼﾋｮｳｺﾞｸ","kana_address":"ﾐﾅﾄﾔﾏﾁｮｳ","pref":"兵庫県","city":"神戸市兵庫区","address":"湊山町"},
{"zip_code":"6520893","kana_pref":"ﾋｮｳｺﾞｹﾝ","kana_city":"ｺｳﾍﾞｼﾋｮｳｺﾞｸ","kana_address":"ﾐﾅﾐｻｶｾｶﾞﾜﾁｮｳ","pref":"兵庫県","city":"神戸市兵庫区","address":"南逆瀬川町"},
{"zip_code":"6520841","kana_pref":"ﾋｮｳｺﾞｹﾝ","kana_city":"ｺｳﾍﾞｼﾋｮｳｺﾞｸ","kana_address":"ﾐﾅﾐﾅｶﾏﾁ","pref":"兵庫県","city":"神戸市兵庫区","address":"南仲町"},
{"zip_code":"6520883","kana_pref":"ﾋｮｳｺﾞｹﾝ","kana_city":"ｺｳﾍﾞｼﾋｮｳｺﾞｸ","kana_address":"ﾒｲﾜﾄﾞｵﾘ","pref":"兵庫県","city":"神戸市兵庫区","address":"明和通"},
{"zip_code":"6520814","kana_pref":"ﾋｮｳｺﾞｹﾝ","kana_city":"ｺｳﾍﾞｼﾋｮｳｺﾞｸ","kana_address":"ﾓﾝｸﾞﾁﾁｮｳ","pref":"兵庫県","city":"神戸市兵庫区","address":"門口町"},
{"zip_code":"6520005","kana_pref":"ﾋｮｳｺﾞｹﾝ","kana_city":"ｺｳﾍﾞｼﾋｮｳｺﾞｸ","kana_address":"ﾔﾍﾞﾁｮｳ","pref":"兵庫県","city":"神戸市兵庫区","address":"矢部町"},
{"zip_code":"6520031","kana_pref":"ﾋｮｳｺﾞｹﾝ","kana_city":"ｺｳﾍﾞｼﾋｮｳｺﾞｸ","kana_address":"ﾕｷﾉｺﾞｼｮﾁｮｳ","pref":"兵庫県","city":"神戸市兵庫区","address":"雪御所町"},
{"zip_code":"6520063","kana_pref":"ﾋｮｳｺﾞｹﾝ","kana_city":"ｺｳﾍﾞｼﾋｮｳｺﾞｸ","kana_address":"ﾕﾒﾉﾁｮｳ","pref":"兵庫県","city":"神戸市兵庫区","address":"夢野町"},
{"zip_code":"6520872","kana_pref":"ﾋｮｳｺﾞｹﾝ","kana_city":"ｺｳﾍﾞｼﾋｮｳｺﾞｸ","kana_address":"ﾖｼﾀﾞﾁｮｳ","pref":"兵庫県","city":"神戸市兵庫区","address":"吉田町"},
{"zip_code":"6520854","kana_pref":"ﾋｮｳｺﾞｹﾝ","kana_city":"ｺｳﾍﾞｼﾋｮｳｺﾞｸ","kana_address":"ﾜﾀﾞｻｷﾁｮｳ","pref":"兵庫県","city":"神戸市兵庫区","address":"和田崎町"},
{"zip_code":"6520863","kana_pref":"ﾋｮｳｺﾞｹﾝ","kana_city":"ｺｳﾍﾞｼﾋｮｳｺﾞｸ","kana_address":"ﾜﾀﾞﾐﾔﾄﾞｵﾘ","pref":"兵庫県","city":"神戸市兵庫区","address":"和田宮通"},
{"zip_code":"6520884","kana_pref":"ﾋｮｳｺﾞｹﾝ","kana_city":"ｺｳﾍﾞｼﾋｮｳｺﾞｸ","kana_address":"ﾜﾀﾞﾔﾏﾄﾞｵﾘ","pref":"兵庫県","city":"神戸市兵庫区","address":"和田山通"},
{"zip_code":"6520071","kana_pref":"ﾋｮｳｺﾞｹﾝ","kana_city":"ｺｳﾍﾞｼｷﾀｸ","kana_address":"ﾔﾏﾀﾞﾁｮｳｼﾓﾀﾆｶﾞﾐ(ｷｸｽｲﾔﾏ","pref":"兵庫県","city":"神戸市北区","address":"山田町下谷上（菊水山"},
{"zip_code":"6520071","kana_pref":"ﾋｮｳｺﾞｹﾝ","kana_city":"ｺｳﾍﾞｼｷﾀｸ","kana_address":"ｺｳｻﾞｶﾜﾑｶｲ","pref":"兵庫県","city":"神戸市北区","address":"高座川向"},
{"zip_code":"6520071","kana_pref":"ﾋｮｳｺﾞｹﾝ","kana_city":"ｺｳﾍﾞｼｷﾀｸ","kana_address":"ﾅｶｲﾁﾘﾔﾏﾈﾝﾌﾞﾂﾄﾞｳ","pref":"兵庫県","city":"神戸市北区","address":"中一里山念仏堂"},
{"zip_code":"6520071","kana_pref":"ﾋｮｳｺﾞｹﾝ","kana_city":"ｺｳﾍﾞｼｷﾀｸ","kana_address":"","pref":"兵庫県","city":"神戸市北区","address":""},
{"zip_code":"6520071","kana_pref":"ﾋｮｳｺﾞｹﾝ","kana_city":"ｺｳﾍﾞｼｷﾀｸ","kana_address":"ﾋﾖﾄﾞﾘｺﾞｴ)","pref":"兵庫県","city":"神戸市北区","address":"ひよどり越）"}]}