{"zip_code":[
{"zip_code":"6530000","kana_pref":"ﾋｮｳｺﾞｹﾝ","kana_city":"ｺｳﾍﾞｼﾅｶﾞﾀｸ","kana_address":"","pref":"兵庫県","city":"神戸市長田区","address":""},
{"zip_code":"6530824","kana_pref":"ﾋｮｳｺﾞｹﾝ","kana_city":"ｺｳﾍﾞｼﾅｶﾞﾀｸ","kana_address":"ｲｹﾀﾞｳｴﾏﾁ","pref":"兵庫県","city":"神戸市長田区","address":"池田上町"},
{"zip_code":"6530823","kana_pref":"ﾋｮｳｺﾞｹﾝ","kana_city":"ｺｳﾍﾞｼﾅｶﾞﾀｸ","kana_address":"ｲｹﾀﾞｷｮｳﾏﾁ","pref":"兵庫県","city":"神戸市長田区","address":"池田経町"},
{"zip_code":"6530826","kana_pref":"ﾋｮｳｺﾞｹﾝ","kana_city":"ｺｳﾍﾞｼﾅｶﾞﾀｸ","kana_address":"ｲｹﾀﾞｼｵﾏﾁ","pref":"兵庫県","city":"神戸市長田区","address":"池田塩町"},
{"zip_code":"6530825","kana_pref":"ﾋｮｳｺﾞｹﾝ","kana_city":"ｺｳﾍﾞｼﾅｶﾞﾀｸ","kana_address":"ｲｹﾀﾞｼﾝﾏﾁ","pref":"兵庫県","city":"神戸市長田区","address":"池田新町"},
{"zip_code":"6530864","kana_pref":"ﾋｮｳｺﾞｹﾝ","kana_city":"ｺｳﾍﾞｼﾅｶﾞﾀｸ","kana_address":"ｲｹﾀﾞｿｳﾏﾁ","pref":"兵庫県","city":"神戸市長田区","address":"池田惣町"},
{"zip_code":"6530822","kana_pref":"ﾋｮｳｺﾞｹﾝ","kana_city":"ｺｳﾍﾞｼﾅｶﾞﾀｸ","kana_address":"ｲｹﾀﾞﾃﾗﾏﾁ","pref":"兵庫県","city":"神戸市長田区","address":"池田寺町"},
{"zip_code":"6530814","kana_pref":"ﾋｮｳｺﾞｹﾝ","kana_city":"ｺｳﾍﾞｼﾅｶﾞﾀｸ","kana_address":"ｲｹﾀﾞﾋﾛﾏﾁ","pref":"兵庫県","city":"神戸市長田区","address":"池田広町"},
{"zip_code":"6530865","kana_pref":"ﾋｮｳｺﾞｹﾝ","kana_city":"ｺｳﾍﾞｼﾅｶﾞﾀｸ","kana_address":"ｲｹﾀﾞﾐﾔﾏﾁ","pref":"兵庫県","city":"神戸市長田区","address":"池田宮町"},
{"zip_code":"6530821","kana_pref":"ﾋｮｳｺﾞｹﾝ","kana_city":"ｺｳﾍﾞｼﾅｶﾞﾀｸ","kana_address":"ｲｹﾀﾞﾀﾆﾏﾁ","pref":"兵庫県","city":"神戸市長田区","address":"池田谷町"},
{"zip_code":"6530013","kana_pref":"ﾋｮｳｺﾞｹﾝ","kana_city":"ｺｳﾍﾞｼﾅｶﾞﾀｸ","kana_address":"ｲﾁﾊﾞﾝﾁｮｳ","pref":"兵庫県","city":"神戸市長田区","address":"一番町"},
{"zip_code":"6530878","kana_pref":"ﾋｮｳｺﾞｹﾝ","kana_city":"ｺｳﾍﾞｼﾅｶﾞﾀｸ","kana_address":"ｲﾁﾘﾔﾏﾁｮｳ","pref":"兵庫県","city":"神戸市長田区","address":"一里山町"},
{"zip_code":"6530871","kana_pref":"ﾋｮｳｺﾞｹﾝ","kana_city":"ｺｳﾍﾞｼﾅｶﾞﾀｸ","kana_address":"ｳｸﾞｲｽﾁｮｳ","pref":"兵庫県","city":"神戸市長田区","address":"鶯町"},
{"zip_code":"6530036","kana_pref":"ﾋｮｳｺﾞｹﾝ","kana_city":"ｺｳﾍﾞｼﾅｶﾞﾀｸ","kana_address":"ｳﾃﾞﾂﾞｶﾁｮｳ","pref":"兵庫県","city":"神戸市長田区","address":"腕塚町"},
{"zip_code":"6530021","kana_pref":"ﾋｮｳｺﾞｹﾝ","kana_city":"ｺｳﾍﾞｼﾅｶﾞﾀｸ","kana_address":"ｳﾒｶﾞｶﾁｮｳ","pref":"兵庫県","city":"神戸市長田区","address":"梅ケ香町"},
{"zip_code":"6530838","kana_pref":"ﾋｮｳｺﾞｹﾝ","kana_city":"ｺｳﾍﾞｼﾅｶﾞﾀｸ","kana_address":"ｵｵﾀﾆﾁｮｳ","pref":"兵庫県","city":"神戸市長田区","address":"大谷町"},
{"zip_code":"6530811","kana_pref":"ﾋｮｳｺﾞｹﾝ","kana_city":"ｺｳﾍﾞｼﾅｶﾞﾀｸ","kana_address":"ｵｵﾂｶﾁｮｳ","pref":"兵庫県","city":"神戸市長田区","address":"大塚町"},
{"zip_code":"6530037","kana_pref":"ﾋｮｳｺﾞｹﾝ","kana_city":"ｺｳﾍﾞｼﾅｶﾞﾀｸ","kana_address":"ｵｵﾊｼﾁｮｳ","pref":"兵庫県","city":"神戸市長田区","address":"大橋町"},
{"zip_code":"6530833","kana_pref":"ﾋｮｳｺﾞｹﾝ","kana_city":"ｺｳﾍﾞｼﾅｶﾞﾀｸ","kana_address":"ｵｵﾐﾁﾄﾞｵﾘ","pref":"兵庫県","city":"神戸市長田区","address":"大道通"},
{"zip_code":"6530802","kana_pref":"ﾋｮｳｺﾞｹﾝ","kana_city":"ｺｳﾍﾞｼﾅｶﾞﾀｸ","kana_address":"ｵﾓｲｹﾁｮｳ","pref":"兵庫県","city":"神戸市長田区","address":"重池町"},
{"zip_code":"6530843","kana_pref":"ﾋｮｳｺﾞｹﾝ","kana_city":"ｺｳﾍﾞｼﾅｶﾞﾀｸ","kana_address":"ｵﾔｼｷﾄﾞｵﾘ","pref":"兵庫県","city":"神戸市長田区","address":"御屋敷通"},
{"zip_code":"6530052","kana_pref":"ﾋｮｳｺﾞｹﾝ","kana_city":"ｺｳﾍﾞｼﾅｶﾞﾀｸ","kana_address":"ｶｲｳﾝﾁｮｳ","pref":"兵庫県","city":"神戸市長田区","address":"海運町"},
{"zip_code":"6530836","kana_pref":"ﾋｮｳｺﾞｹﾝ","kana_city":"ｺｳﾍﾞｼﾅｶﾞﾀｸ","kana_address":"ｶｸﾞﾗﾁｮｳ","pref":"兵庫県","city":"神戸市長田区","address":"神楽町"},
{"zip_code":"6530805","kana_pref":"ﾋｮｳｺﾞｹﾝ","kana_city":"ｺｳﾍﾞｼﾅｶﾞﾀｸ","kana_address":"ｶﾀﾔﾏﾁｮｳ","pref":"兵庫県","city":"神戸市長田区","address":"片山町"},
{"zip_code":"6530827","kana_pref":"ﾋｮｳｺﾞｹﾝ","kana_city":"ｺｳﾍﾞｼﾅｶﾞﾀｸ","kana_address":"ｶﾐｲｹﾀﾞ","pref":"兵庫県","city":"神戸市長田区","address":"上池田"},
{"zip_code":"6530033","kana_pref":"ﾋｮｳｺﾞｹﾝ","kana_city":"ｺｳﾍﾞｼﾅｶﾞﾀｸ","kana_address":"ｶﾙﾓｼﾞﾏﾁｮｳ","pref":"兵庫県","city":"神戸市長田区","address":"苅藻島町"},
{"zip_code":"6530032","kana_pref":"ﾋｮｳｺﾞｹﾝ","kana_city":"ｺｳﾍﾞｼﾅｶﾞﾀｸ","kana_address":"ｶﾙﾓﾄﾞｵﾘ","pref":"兵庫県","city":"神戸市長田区","address":"苅藻通"},
{"zip_code":"6530834","kana_pref":"ﾋｮｳｺﾞｹﾝ","kana_city":"ｺｳﾍﾞｼﾅｶﾞﾀｸ","kana_address":"ｶﾜﾆｼﾄﾞｵﾘ","pref":"兵庫県","city":"神戸市長田区","address":"川西通"},
{"zip_code":"6530016","kana_pref":"ﾋｮｳｺﾞｹﾝ","kana_city":"ｺｳﾍﾞｼﾅｶﾞﾀｸ","kana_address":"ｷﾀﾏﾁ","pref":"兵庫県","city":"神戸市長田区","address":"北町"},
{"zip_code":"6530041","kana_pref":"ﾋｮｳｺﾞｹﾝ","kana_city":"ｺｳﾍﾞｼﾅｶﾞﾀｸ","kana_address":"ｸﾎﾞﾁｮｳ","pref":"兵庫県","city":"神戸市長田区","address":"久保町"},
{"zip_code":"6530888","kana_pref":"ﾋｮｳｺﾞｹﾝ","kana_city":"ｺｳﾍﾞｼﾅｶﾞﾀｸ","kana_address":"ｹﾞﾝﾍﾟｲﾁｮｳ","pref":"兵庫県","city":"神戸市長田区","address":"源平町"},
{"zip_code":"6530851","kana_pref":"ﾋｮｳｺﾞｹﾝ","kana_city":"ｺｳﾍﾞｼﾅｶﾞﾀｸ","kana_address":"ｺﾞｲﾉｲｹﾁｮｳ","pref":"兵庫県","city":"神戸市長田区","address":"五位ノ池町"},
{"zip_code":"6530867","kana_pref":"ﾋｮｳｺﾞｹﾝ","kana_city":"ｺｳﾍﾞｼﾅｶﾞﾀｸ","kana_address":"ｺｳﾄｳﾁｮｳ","pref":"兵庫県","city":"神戸市長田区","address":"高東町"},
{"zip_code":"6530003","kana_pref":"ﾋｮｳｺﾞｹﾝ","kana_city":"ｺｳﾍﾞｼﾅｶﾞﾀｸ","kana_address":"ｺﾞﾊﾞﾝﾁｮｳ","pref":"兵庫県","city":"神戸市長田区","address":"五番町"},
{"zip_code":"6530034","kana_pref":"ﾋｮｳｺﾞｹﾝ","kana_city":"ｺｳﾍﾞｼﾅｶﾞﾀｸ","kana_address":"ｺﾏｴﾁｮｳ","pref":"兵庫県","city":"神戸市長田区","address":"駒栄町"},
{"zip_code":"6530043","kana_pref":"ﾋｮｳｺﾞｹﾝ","kana_city":"ｺｳﾍﾞｼﾅｶﾞﾀｸ","kana_address":"ｺﾏｶﾞﾊﾞﾔｼﾁｮｳ","pref":"兵庫県","city":"神戸市長田区","address":"駒ケ林町"},
{"zip_code":"6530045","kana_pref":"ﾋｮｳｺﾞｹﾝ","kana_city":"ｺｳﾍﾞｼﾅｶﾞﾀｸ","kana_address":"ｺﾏｶﾞﾊﾞﾔｼﾐﾅﾐﾁｮｳ","pref":"兵庫県","city":"神戸市長田区","address":"駒ケ林南町"},
{"zip_code":"6530011","kana_pref":"ﾋｮｳｺﾞｹﾝ","kana_city":"ｺｳﾍﾞｼﾅｶﾞﾀｸ","kana_address":"ｻﾝﾊﾞﾝﾁｮｳ","pref":"兵庫県","city":"神戸市長田区","address":"三番町"},
{"zip_code":"6530877","kana_pref":"ﾋｮｳｺﾞｹﾝ","kana_city":"ｺｳﾍﾞｼﾅｶﾞﾀｸ","kana_address":"ｼｶﾏﾂﾁｮｳ","pref":"兵庫県","city":"神戸市長田区","address":"鹿松町"},
{"zip_code":"6530035","kana_pref":"ﾋｮｳｺﾞｹﾝ","kana_city":"ｺｳﾍﾞｼﾅｶﾞﾀｸ","kana_address":"ｼｮｳﾀﾞﾁｮｳ","pref":"兵庫県","city":"神戸市長田区","address":"庄田町"},
{"zip_code":"6530853","kana_pref":"ﾋｮｳｺﾞｹﾝ","kana_city":"ｺｳﾍﾞｼﾅｶﾞﾀｸ","kana_address":"ｼｮｳﾔﾏﾁｮｳ","pref":"兵庫県","city":"神戸市長田区","address":"庄山町"},
{"zip_code":"6530015","kana_pref":"ﾋｮｳｺﾞｹﾝ","kana_city":"ｺｳﾍﾞｼﾅｶﾞﾀｸ","kana_address":"ｽｶﾞﾊﾗﾄﾞｵﾘ","pref":"兵庫県","city":"神戸市長田区","address":"菅原通"},
{"zip_code":"6530806","kana_pref":"ﾋｮｳｺﾞｹﾝ","kana_city":"ｺｳﾍﾞｼﾅｶﾞﾀｸ","kana_address":"ﾀﾞｲﾏﾙﾁｮｳ","pref":"兵庫県","city":"神戸市長田区","address":"大丸町"},
{"zip_code":"6530856","kana_pref":"ﾋｮｳｺﾞｹﾝ","kana_city":"ｺｳﾍﾞｼﾅｶﾞﾀｸ","kana_address":"ﾀｶﾄﾘｻﾝﾁｮｳ","pref":"兵庫県","city":"神戸市長田区","address":"高取山町"},
{"zip_code":"6530881","kana_pref":"ﾋｮｳｺﾞｹﾝ","kana_city":"ｺｳﾍﾞｼﾅｶﾞﾀｸ","kana_address":"ﾀｷﾀﾆﾁｮｳ","pref":"兵庫県","city":"神戸市長田区","address":"滝谷町"},
{"zip_code":"6530872","kana_pref":"ﾋｮｳｺﾞｹﾝ","kana_city":"ｺｳﾍﾞｼﾅｶﾞﾀｸ","kana_address":"ﾀﾞｲﾆﾁｶﾞｵｶﾁｮｳ","pref":"兵庫県","city":"神戸市長田区","address":"大日丘町"},
{"zip_code":"6530866","kana_pref":"ﾋｮｳｺﾞｹﾝ","kana_city":"ｺｳﾍﾞｼﾅｶﾞﾀｸ","kana_address":"ﾁｮｳｼﾞｬﾏﾁ","pref":"兵庫県","city":"神戸市長田区","address":"長者町"},
{"zip_code":"6530804","kana_pref":"ﾋｮｳｺﾞｹﾝ","kana_city":"ｺｳﾍﾞｼﾅｶﾞﾀｸ","kana_address":"ﾃﾗｲｹﾁｮｳ","pref":"兵庫県","city":"神戸市長田区","address":"寺池町"},
{"zip_code":"6530845","kana_pref":"ﾋｮｳｺﾞｹﾝ","kana_city":"ｺｳﾍﾞｼﾅｶﾞﾀｸ","kana_address":"ﾄｻﾞｷﾄﾞｵﾘ","pref":"兵庫県","city":"神戸市長田区","address":"戸崎通"},
{"zip_code":"6530855","kana_pref":"ﾋｮｳｺﾞｹﾝ","kana_city":"ｺｳﾍﾞｼﾅｶﾞﾀｸ","kana_address":"ﾅｶﾞｵﾁｮｳ","pref":"兵庫県","city":"神戸市長田区","address":"長尾町"},
{"zip_code":"6530812","kana_pref":"ﾋｮｳｺﾞｹﾝ","kana_city":"ｺｳﾍﾞｼﾅｶﾞﾀｸ","kana_address":"ﾅｶﾞﾀﾁｮｳ","pref":"兵庫県","city":"神戸市長田区","address":"長田町"},
{"zip_code":"6530882","kana_pref":"ﾋｮｳｺﾞｹﾝ","kana_city":"ｺｳﾍﾞｼﾅｶﾞﾀｸ","kana_address":"ﾅｶﾞﾀﾃﾝｼﾞﾝﾁｮｳ","pref":"兵庫県","city":"神戸市長田区","address":"長田天神町"},
{"zip_code":"6530054","kana_pref":"ﾋｮｳｺﾞｹﾝ","kana_city":"ｺｳﾍﾞｼﾅｶﾞﾀｸ","kana_address":"ﾅｶﾞﾗﾁｮｳ","pref":"兵庫県","city":"神戸市長田区","address":"長楽町"},
{"zip_code":"6530883","kana_pref":"ﾋｮｳｺﾞｹﾝ","kana_city":"ｺｳﾍﾞｼﾅｶﾞﾀｸ","kana_address":"ﾅｸﾞﾗﾁｮｳ","pref":"兵庫県","city":"神戸市長田区","address":"名倉町"},
{"zip_code":"6530001","kana_pref":"ﾋｮｳｺﾞｹﾝ","kana_city":"ｺｳﾍﾞｼﾅｶﾞﾀｸ","kana_address":"ﾅﾅﾊﾞﾝﾁｮｳ","pref":"兵庫県","city":"神戸市長田区","address":"七番町"},
{"zip_code":"6530055","kana_pref":"ﾋｮｳｺﾞｹﾝ","kana_city":"ｺｳﾍﾞｼﾅｶﾞﾀｸ","kana_address":"ﾅﾐﾏﾂﾁｮｳ","pref":"兵庫県","city":"神戸市長田区","address":"浪松町"},
{"zip_code":"6530031","kana_pref":"ﾋｮｳｺﾞｹﾝ","kana_city":"ｺｳﾍﾞｼﾅｶﾞﾀｸ","kana_address":"ﾆｼｼﾘｲｹﾁｮｳ","pref":"兵庫県","city":"神戸市長田区","address":"西尻池町"},
{"zip_code":"6530844","kana_pref":"ﾋｮｳｺﾞｹﾝ","kana_city":"ｺｳﾍﾞｼﾅｶﾞﾀｸ","kana_address":"ﾆｼﾀﾞｲﾄﾞｵﾘ","pref":"兵庫県","city":"神戸市長田区","address":"西代通"},
{"zip_code":"6530874","kana_pref":"ﾋｮｳｺﾞｹﾝ","kana_city":"ｺｳﾍﾞｼﾅｶﾞﾀｸ","kana_address":"ﾆｼﾏﾙﾔﾏﾁｮｳ","pref":"兵庫県","city":"神戸市長田区","address":"西丸山町"},
{"zip_code":"6530862","kana_pref":"ﾋｮｳｺﾞｹﾝ","kana_city":"ｺｳﾍﾞｼﾅｶﾞﾀｸ","kana_address":"ﾆｼﾔﾏﾁｮｳ","pref":"兵庫県","city":"神戸市長田区","address":"西山町"},
{"zip_code":"6530012","kana_pref":"ﾋｮｳｺﾞｹﾝ","kana_city":"ｺｳﾍﾞｼﾅｶﾞﾀｸ","kana_address":"ﾆﾊﾞﾝﾁｮｳ","pref":"兵庫県","city":"神戸市長田区","address":"二番町"},
{"zip_code":"6530051","kana_pref":"ﾋｮｳｺﾞｹﾝ","kana_city":"ｺｳﾍﾞｼﾅｶﾞﾀｸ","kana_address":"ﾉﾀﾞﾁｮｳ","pref":"兵庫県","city":"神戸市長田区","address":"野田町"},
{"zip_code":"6530873","kana_pref":"ﾋｮｳｺﾞｹﾝ","kana_city":"ｺｳﾍﾞｼﾅｶﾞﾀｸ","kana_address":"ﾊｷﾞﾉﾁｮｳ","pref":"兵庫県","city":"神戸市長田区","address":"萩乃町"},
{"zip_code":"6530837","kana_pref":"ﾋｮｳｺﾞｹﾝ","kana_city":"ｺｳﾍﾞｼﾅｶﾞﾀｸ","kana_address":"ﾊｽｲｹﾁｮｳ","pref":"兵庫県","city":"神戸市長田区","address":"蓮池町"},
{"zip_code":"6530831","kana_pref":"ﾋｮｳｺﾞｹﾝ","kana_city":"ｺｳﾍﾞｼﾅｶﾞﾀｸ","kana_address":"ﾊｽﾐﾔﾄﾞｵﾘ","pref":"兵庫県","city":"神戸市長田区","address":"蓮宮通"},
{"zip_code":"6530876","kana_pref":"ﾋｮｳｺﾞｹﾝ","kana_city":"ｺｳﾍﾞｼﾅｶﾞﾀｸ","kana_address":"ﾊﾅﾔﾏﾁｮｳ","pref":"兵庫県","city":"神戸市長田区","address":"花山町"},
{"zip_code":"6530024","kana_pref":"ﾋｮｳｺﾞｹﾝ","kana_city":"ｺｳﾍﾞｼﾅｶﾞﾀｸ","kana_address":"ﾊﾏｿﾞｴﾄﾞｵﾘ","pref":"兵庫県","city":"神戸市長田区","address":"浜添通"},
{"zip_code":"6530861","kana_pref":"ﾋｮｳｺﾞｹﾝ","kana_city":"ｺｳﾍﾞｼﾅｶﾞﾀｸ","kana_address":"ﾊﾔｼﾔﾏﾁｮｳ","pref":"兵庫県","city":"神戸市長田区","address":"林山町"},
{"zip_code":"6530887","kana_pref":"ﾋｮｳｺﾞｹﾝ","kana_city":"ｺｳﾍﾞｼﾅｶﾞﾀｸ","kana_address":"ﾋｶﾜﾁｮｳ","pref":"兵庫県","city":"神戸市長田区","address":"檜川町"},
{"zip_code":"6530023","kana_pref":"ﾋｮｳｺﾞｹﾝ","kana_city":"ｺｳﾍﾞｼﾅｶﾞﾀｸ","kana_address":"ﾋｶﾞｼｼﾘｲｹｼﾝﾁｮｳ","pref":"兵庫県","city":"神戸市長田区","address":"東尻池新町"},
{"zip_code":"6530022","kana_pref":"ﾋｮｳｺﾞｹﾝ","kana_city":"ｺｳﾍﾞｼﾅｶﾞﾀｸ","kana_address":"ﾋｶﾞｼｼﾘｲｹﾁｮｳ","pref":"兵庫県","city":"神戸市長田区","address":"東尻池町"},
{"zip_code":"6530886","kana_pref":"ﾋｮｳｺﾞｹﾝ","kana_city":"ｺｳﾍﾞｼﾅｶﾞﾀｸ","kana_address":"ﾋｶﾞｼﾏﾙﾔﾏﾁｮｳ","pref":"兵庫県","city":"神戸市長田区","address":"東丸山町"},
{"zip_code":"6530879","kana_pref":"ﾋｮｳｺﾞｹﾝ","kana_city":"ｺｳﾍﾞｼﾅｶﾞﾀｸ","kana_address":"ﾋﾊﾞﾘｶﾞｵｶ","pref":"兵庫県","city":"神戸市長田区","address":"雲雀ケ丘"},
{"zip_code":"6530039","kana_pref":"ﾋｮｳｺﾞｹﾝ","kana_city":"ｺｳﾍﾞｼﾅｶﾞﾀｸ","kana_address":"ﾋﾖｼﾁｮｳ","pref":"兵庫県","city":"神戸市長田区","address":"日吉町"},
{"zip_code":"6530042","kana_pref":"ﾋｮｳｺﾞｹﾝ","kana_city":"ｺｳﾍﾞｼﾅｶﾞﾀｸ","kana_address":"ﾌﾀﾊﾞﾁｮｳ","pref":"兵庫県","city":"神戸市長田区","address":"二葉町"},
{"zip_code":"6530854","kana_pref":"ﾋｮｳｺﾞｹﾝ","kana_city":"ｺｳﾍﾞｼﾅｶﾞﾀｸ","kana_address":"ﾍｲﾜﾀﾞｲﾁｮｳ","pref":"兵庫県","city":"神戸市長田区","address":"平和台町"},
{"zip_code":"6530801","kana_pref":"ﾋｮｳｺﾞｹﾝ","kana_city":"ｺｳﾍﾞｼﾅｶﾞﾀｸ","kana_address":"ﾎﾞｳｵｳｼﾞﾁｮｳ","pref":"兵庫県","city":"神戸市長田区","address":"房王寺町"},
{"zip_code":"6530835","kana_pref":"ﾋｮｳｺﾞｹﾝ","kana_city":"ｺｳﾍﾞｼﾅｶﾞﾀｸ","kana_address":"ﾎｿﾀﾞﾁｮｳ","pref":"兵庫県","city":"神戸市長田区","address":"細田町"},
{"zip_code":"6530885","kana_pref":"ﾋｮｳｺﾞｹﾝ","kana_city":"ｺｳﾍﾞｼﾅｶﾞﾀｸ","kana_address":"ﾎﾘｷﾘﾁｮｳ","pref":"兵庫県","city":"神戸市長田区","address":"堀切町"},
{"zip_code":"6530053","kana_pref":"ﾋｮｳｺﾞｹﾝ","kana_city":"ｺｳﾍﾞｼﾅｶﾞﾀｸ","kana_address":"ﾎﾝｼﾞｮｳﾁｮｳ","pref":"兵庫県","city":"神戸市長田区","address":"本庄町"},
{"zip_code":"6530803","kana_pref":"ﾋｮｳｺﾞｹﾝ","kana_city":"ｺｳﾍﾞｼﾅｶﾞﾀｸ","kana_address":"ﾏｴﾊﾞﾗﾁｮｳ","pref":"兵庫県","city":"神戸市長田区","address":"前原町"},
{"zip_code":"6530841","kana_pref":"ﾋｮｳｺﾞｹﾝ","kana_city":"ｺｳﾍﾞｼﾅｶﾞﾀｸ","kana_address":"ﾏﾂﾉﾄﾞｵﾘ","pref":"兵庫県","city":"神戸市長田区","address":"松野通"},
{"zip_code":"6530025","kana_pref":"ﾋｮｳｺﾞｹﾝ","kana_city":"ｺｳﾍﾞｼﾅｶﾞﾀｸ","kana_address":"ﾏﾉﾁｮｳ","pref":"兵庫県","city":"神戸市長田区","address":"真野町"},
{"zip_code":"6530875","kana_pref":"ﾋｮｳｺﾞｹﾝ","kana_city":"ｺｳﾍﾞｼﾅｶﾞﾀｸ","kana_address":"ﾏﾙﾔﾏﾁｮｳ","pref":"兵庫県","city":"神戸市長田区","address":"丸山町"},
{"zip_code":"6530014","kana_pref":"ﾋｮｳｺﾞｹﾝ","kana_city":"ｺｳﾍﾞｼﾅｶﾞﾀｸ","kana_address":"ﾐｸﾗﾄﾞｵﾘ","pref":"兵庫県","city":"神戸市長田区","address":"御蔵通"},
{"zip_code":"6530842","kana_pref":"ﾋｮｳｺﾞｹﾝ","kana_city":"ｺｳﾍﾞｼﾅｶﾞﾀｸ","kana_address":"ﾐｽﾞｶｻﾄﾞｵﾘ","pref":"兵庫県","city":"神戸市長田区","address":"水笠通"},
{"zip_code":"6530044","kana_pref":"ﾋｮｳｺﾞｹﾝ","kana_city":"ｺｳﾍﾞｼﾅｶﾞﾀｸ","kana_address":"ﾐﾅﾐｺﾏｴﾁｮｳ","pref":"兵庫県","city":"神戸市長田区","address":"南駒栄町"},
{"zip_code":"6530832","kana_pref":"ﾋｮｳｺﾞｹﾝ","kana_city":"ｺｳﾍﾞｼﾅｶﾞﾀｸ","kana_address":"ﾐﾌﾈﾄﾞｵﾘ","pref":"兵庫県","city":"神戸市長田区","address":"御船通"},
{"zip_code":"6530863","kana_pref":"ﾋｮｳｺﾞｹﾝ","kana_city":"ｺｳﾍﾞｼﾅｶﾞﾀｸ","kana_address":"ﾐﾔｵｶﾁｮｳ","pref":"兵庫県","city":"神戸市長田区","address":"宮丘町"},
{"zip_code":"6530813","kana_pref":"ﾋｮｳｺﾞｹﾝ","kana_city":"ｺｳﾍﾞｼﾅｶﾞﾀｸ","kana_address":"ﾐﾔｶﾞﾜﾁｮｳ","pref":"兵庫県","city":"神戸市長田区","address":"宮川町"},
{"zip_code":"6530884","kana_pref":"ﾋｮｳｺﾞｹﾝ","kana_city":"ｺｳﾍﾞｼﾅｶﾞﾀｸ","kana_address":"ﾐｮｳｾﾝｼﾞﾁｮｳ","pref":"兵庫県","city":"神戸市長田区","address":"明泉寺町"},
{"zip_code":"6530852","kana_pref":"ﾋｮｳｺﾞｹﾝ","kana_city":"ｺｳﾍﾞｼﾅｶﾞﾀｸ","kana_address":"ﾔﾏｼﾀﾁｮｳ","pref":"兵庫県","city":"神戸市長田区","address":"山下町"},
{"zip_code":"6530004","kana_pref":"ﾋｮｳｺﾞｹﾝ","kana_city":"ｺｳﾍﾞｼﾅｶﾞﾀｸ","kana_address":"ﾖﾝﾊﾞﾝﾁｮｳ","pref":"兵庫県","city":"神戸市長田区","address":"四番町"},
{"zip_code":"6530002","kana_pref":"ﾋｮｳｺﾞｹﾝ","kana_city":"ｺｳﾍﾞｼﾅｶﾞﾀｸ","kana_address":"ﾛｸﾊﾞﾝﾁｮｳ","pref":"兵庫県","city":"神戸市長田区","address":"六番町"},
{"zip_code":"6530038","kana_pref":"ﾋｮｳｺﾞｹﾝ","kana_city":"ｺｳﾍﾞｼﾅｶﾞﾀｸ","kana_address":"ﾜｶﾏﾂﾁｮｳ","pref":"兵庫県","city":"神戸市長田区","address":"若松町"}]}