{"zip_code":[
{"zip_code":"6540000","kana_pref":"ﾋｮｳｺﾞｹﾝ","kana_city":"ｺｳﾍﾞｼｽﾏｸ","kana_address":"","pref":"兵庫県","city":"神戸市須磨区","address":""},
{"zip_code":"6540038","kana_pref":"ﾋｮｳｺﾞｹﾝ","kana_city":"ｺｳﾍﾞｼｽﾏｸ","kana_address":"ｱｵﾊﾞﾁｮｳ","pref":"兵庫県","city":"神戸市須磨区","address":"青葉町"},
{"zip_code":"6540047","kana_pref":"ﾋｮｳｺﾞｹﾝ","kana_city":"ｺｳﾍﾞｼｽﾏｸ","kana_address":"ｲｿﾅﾚﾁｮｳ","pref":"兵庫県","city":"神戸市須磨区","address":"磯馴町"},
{"zip_code":"6540009","kana_pref":"ﾋｮｳｺﾞｹﾝ","kana_city":"ｺｳﾍﾞｼｽﾏｸ","kana_address":"ｲﾀﾔﾄﾞﾁｮｳ","pref":"兵庫県","city":"神戸市須磨区","address":"板宿町"},
{"zip_code":"6540076","kana_pref":"ﾋｮｳｺﾞｹﾝ","kana_city":"ｺｳﾍﾞｼｽﾏｸ","kana_address":"ｲﾁﾉﾀﾆﾁｮｳ","pref":"兵庫県","city":"神戸市須磨区","address":"一ノ谷町"},
{"zip_code":"6540044","kana_pref":"ﾋｮｳｺﾞｹﾝ","kana_city":"ｺｳﾍﾞｼｽﾏｸ","kana_address":"ｲﾅﾊﾞﾁｮｳ","pref":"兵庫県","city":"神戸市須磨区","address":"稲葉町"},
{"zip_code":"6540004","kana_pref":"ﾋｮｳｺﾞｹﾝ","kana_city":"ｺｳﾍﾞｼｽﾏｸ","kana_address":"ｴｲﾗｸﾁｮｳ","pref":"兵庫県","city":"神戸市須磨区","address":"永楽町"},
{"zip_code":"6540023","kana_pref":"ﾋｮｳｺﾞｹﾝ","kana_city":"ｺｳﾍﾞｼｽﾏｸ","kana_address":"ｴﾋﾞｽﾁｮｳ","pref":"兵庫県","city":"神戸市須磨区","address":"戎町"},
{"zip_code":"6540026","kana_pref":"ﾋｮｳｺﾞｹﾝ","kana_city":"ｺｳﾍﾞｼｽﾏｸ","kana_address":"ｵｵｲｹﾁｮｳ","pref":"兵庫県","city":"神戸市須磨区","address":"大池町"},
{"zip_code":"6540024","kana_pref":"ﾋｮｳｺﾞｹﾝ","kana_city":"ｺｳﾍﾞｼｽﾏｸ","kana_address":"ｵｵﾀﾁｮｳ","pref":"兵庫県","city":"神戸市須磨区","address":"大田町"},
{"zip_code":"6540017","kana_pref":"ﾋｮｳｺﾞｹﾝ","kana_city":"ｺｳﾍﾞｼｽﾏｸ","kana_address":"ｵｵﾃ","pref":"兵庫県","city":"神戸市須磨区","address":"大手"},
{"zip_code":"6540013","kana_pref":"ﾋｮｳｺﾞｹﾝ","kana_city":"ｺｳﾍﾞｼｽﾏｸ","kana_address":"ｵｵﾃﾁｮｳ","pref":"兵庫県","city":"神戸市須磨区","address":"大手町"},
{"zip_code":"6540015","kana_pref":"ﾋｮｳｺﾞｹﾝ","kana_city":"ｺｳﾍﾞｼｽﾏｸ","kana_address":"ｵｸﾔﾏﾊﾀﾁｮｳ","pref":"兵庫県","city":"神戸市須磨区","address":"奥山畑町"},
{"zip_code":"6540162","kana_pref":"ﾋｮｳｺﾞｹﾝ","kana_city":"ｺｳﾍﾞｼｽﾏｸ","kana_address":"ｶﾐﾉﾀﾆ","pref":"兵庫県","city":"神戸市須磨区","address":"神の谷"},
{"zip_code":"6540016","kana_pref":"ﾋｮｳｺﾞｹﾝ","kana_city":"ｺｳﾍﾞｼｽﾏｸ","kana_address":"ｶﾐﾎｿｻﾞﾜﾁｮｳ","pref":"兵庫県","city":"神戸市須磨区","address":"上細沢町"},
{"zip_code":"6540005","kana_pref":"ﾋｮｳｺﾞｹﾝ","kana_city":"ｺｳﾍﾞｼｽﾏｸ","kana_address":"ｶﾜｶﾐﾁｮｳ","pref":"兵庫県","city":"神戸市須磨区","address":"川上町"},
{"zip_code":"6540008","kana_pref":"ﾋｮｳｺﾞｹﾝ","kana_city":"ｺｳﾍﾞｼｽﾏｸ","kana_address":"ｷｸｲｹﾁｮｳ","pref":"兵庫県","city":"神戸市須磨区","address":"菊池町"},
{"zip_code":"6540151","kana_pref":"ﾋｮｳｺﾞｹﾝ","kana_city":"ｺｳﾍﾞｼｽﾏｸ","kana_address":"ｷﾀｵﾁｱｲ","pref":"兵庫県","city":"神戸市須磨区","address":"北落合"},
{"zip_code":"6540064","kana_pref":"ﾋｮｳｺﾞｹﾝ","kana_city":"ｺｳﾍﾞｼｽﾏｸ","kana_address":"ｷﾀﾏﾁ","pref":"兵庫県","city":"神戸市須磨区","address":"北町"},
{"zip_code":"6540048","kana_pref":"ﾋｮｳｺﾞｹﾝ","kana_city":"ｺｳﾍﾞｼｽﾏｸ","kana_address":"ｷﾇｶﾞｹﾁｮｳ","pref":"兵庫県","city":"神戸市須磨区","address":"衣掛町"},
{"zip_code":"6540111","kana_pref":"ﾋｮｳｺﾞｹﾝ","kana_city":"ｺｳﾍﾞｼｽﾏｸ","kana_address":"ｸﾙﾏ","pref":"兵庫県","city":"神戸市須磨区","address":"車"},
{"zip_code":"6540042","kana_pref":"ﾋｮｳｺﾞｹﾝ","kana_city":"ｺｳﾍﾞｼｽﾏｸ","kana_address":"ｺﾃﾞﾗﾁｮｳ","pref":"兵庫県","city":"神戸市須磨区","address":"小寺町"},
{"zip_code":"6540031","kana_pref":"ﾋｮｳｺﾞｹﾝ","kana_city":"ｺｳﾍﾞｼｽﾏｸ","kana_address":"ｺﾞﾝｹﾞﾝﾁｮｳ","pref":"兵庫県","city":"神戸市須磨区","address":"権現町"},
{"zip_code":"6540066","kana_pref":"ﾋｮｳｺﾞｹﾝ","kana_city":"ｺｳﾍﾞｼｽﾏｸ","kana_address":"ｻｸﾗｷﾞﾁｮｳ","pref":"兵庫県","city":"神戸市須磨区","address":"桜木町"},
{"zip_code":"6540075","kana_pref":"ﾋｮｳｺﾞｹﾝ","kana_city":"ｺｳﾍﾞｼｽﾏｸ","kana_address":"ｼｵﾐﾀﾞｲﾁｮｳ","pref":"兵庫県","city":"神戸市須磨区","address":"潮見台町"},
{"zip_code":"6540123","kana_pref":"ﾋｮｳｺﾞｹﾝ","kana_city":"ｺｳﾍﾞｼｽﾏｸ","kana_address":"ｼﾐｽﾞﾀﾞｲ","pref":"兵庫県","city":"神戸市須磨区","address":"清水台"},
{"zip_code":"6540101","kana_pref":"ﾋｮｳｺﾞｹﾝ","kana_city":"ｺｳﾍﾞｼｽﾏｸ","kana_address":"ｼﾗｶﾜ","pref":"兵庫県","city":"神戸市須磨区","address":"白川"},
{"zip_code":"6540103","kana_pref":"ﾋｮｳｺﾞｹﾝ","kana_city":"ｺｳﾍﾞｼｽﾏｸ","kana_address":"ｼﾗｶﾜﾀﾞｲ","pref":"兵庫県","city":"神戸市須磨区","address":"白川台"},
{"zip_code":"6540003","kana_pref":"ﾋｮｳｺﾞｹﾝ","kana_city":"ｺｳﾍﾞｼｽﾏｸ","kana_address":"ｼﾞﾝﾌﾞﾁｮｳ","pref":"兵庫県","city":"神戸市須磨区","address":"神撫町"},
{"zip_code":"6540143","kana_pref":"ﾋｮｳｺﾞｹﾝ","kana_city":"ｺｳﾍﾞｼｽﾏｸ","kana_address":"ｽｶﾞﾉﾀﾞｲ","pref":"兵庫県","city":"神戸市須磨区","address":"菅の台"},
{"zip_code":"6540055","kana_pref":"ﾋｮｳｺﾞｹﾝ","kana_city":"ｺｳﾍﾞｼｽﾏｸ","kana_address":"ｽﾏｳﾗﾄﾞｵﾘ","pref":"兵庫県","city":"神戸市須磨区","address":"須磨浦通"},
{"zip_code":"6540071","kana_pref":"ﾋｮｳｺﾞｹﾝ","kana_city":"ｺｳﾍﾞｼｽﾏｸ","kana_address":"ｽﾏﾃﾞﾗﾁｮｳ","pref":"兵庫県","city":"神戸市須磨区","address":"須磨寺町"},
{"zip_code":"6540054","kana_pref":"ﾋｮｳｺﾞｹﾝ","kana_city":"ｺｳﾍﾞｼｽﾏｸ","kana_address":"ｽﾏﾎﾝﾏﾁ","pref":"兵庫県","city":"神戸市須磨区","address":"須磨本町"},
{"zip_code":"6540073","kana_pref":"ﾋｮｳｺﾞｹﾝ","kana_city":"ｺｳﾍﾞｼｽﾏｸ","kana_address":"ｾｷﾓﾘﾁｮｳ","pref":"兵庫県","city":"神戸市須磨区","address":"関守町"},
{"zip_code":"6540001","kana_pref":"ﾋｮｳｺﾞｹﾝ","kana_city":"ｺｳﾍﾞｼｽﾏｸ","kana_address":"ｾﾞﾝｼｮｳｼﾞﾁｮｳ","pref":"兵庫県","city":"神戸市須磨区","address":"禅昌寺町"},
{"zip_code":"6540043","kana_pref":"ﾋｮｳｺﾞｹﾝ","kana_city":"ｺｳﾍﾞｼｽﾏｸ","kana_address":"ｿﾄﾊﾏﾁｮｳ","pref":"兵庫県","city":"神戸市須磨区","address":"外浜町"},
{"zip_code":"6540022","kana_pref":"ﾋｮｳｺﾞｹﾝ","kana_city":"ｺｳﾍﾞｼｽﾏｸ","kana_address":"ﾀﾞｲｺｸﾁｮｳ","pref":"兵庫県","city":"神戸市須磨区","address":"大黒町"},
{"zip_code":"6540133","kana_pref":"ﾋｮｳｺﾞｹﾝ","kana_city":"ｺｳﾍﾞｼｽﾏｸ","kana_address":"ﾀｲﾉﾊﾀ","pref":"兵庫県","city":"神戸市須磨区","address":"多井畑"},
{"zip_code":"6540134","kana_pref":"ﾋｮｳｺﾞｹﾝ","kana_city":"ｺｳﾍﾞｼｽﾏｸ","kana_address":"ﾀｲﾉﾊﾀﾋｶﾞｼﾏﾁ","pref":"兵庫県","city":"神戸市須磨区","address":"多井畑東町"},
{"zip_code":"6540132","kana_pref":"ﾋｮｳｺﾞｹﾝ","kana_city":"ｺｳﾍﾞｼｽﾏｸ","kana_address":"ﾀｲﾉﾊﾀﾐﾅﾐﾏﾁ","pref":"兵庫県","city":"神戸市須磨区","address":"多井畑南町"},
{"zip_code":"6540061","kana_pref":"ﾋｮｳｺﾞｹﾝ","kana_city":"ｺｳﾍﾞｼｽﾏｸ","kana_address":"ﾀｶｵﾀﾞｲ","pref":"兵庫県","city":"神戸市須磨区","address":"高尾台"},
{"zip_code":"6540081","kana_pref":"ﾋｮｳｺﾞｹﾝ","kana_city":"ｺｳﾍﾞｼｽﾏｸ","kana_address":"ﾀｶｸﾗﾀﾞｲ","pref":"兵庫県","city":"神戸市須磨区","address":"高倉台"},
{"zip_code":"6540074","kana_pref":"ﾋｮｳｺﾞｹﾝ","kana_city":"ｺｳﾍﾞｼｽﾏｸ","kana_address":"ﾀｶｸﾗﾁｮｳ","pref":"兵庫県","city":"神戸市須磨区","address":"高倉町"},
{"zip_code":"6540039","kana_pref":"ﾋｮｳｺﾞｹﾝ","kana_city":"ｺｳﾍﾞｼｽﾏｸ","kana_address":"ﾀｶﾄﾘﾁｮｳ","pref":"兵庫県","city":"神戸市須磨区","address":"鷹取町"},
{"zip_code":"6540027","kana_pref":"ﾋｮｳｺﾞｹﾝ","kana_city":"ｺｳﾍﾞｼｽﾏｸ","kana_address":"ﾁﾄｾﾁｮｳ","pref":"兵庫県","city":"神戸市須磨区","address":"千歳町"},
{"zip_code":"6540072","kana_pref":"ﾋｮｳｺﾞｹﾝ","kana_city":"ｺｳﾍﾞｼｽﾏｸ","kana_address":"ﾁﾓﾘﾁｮｳ","pref":"兵庫県","city":"神戸市須磨区","address":"千守町"},
{"zip_code":"6540063","kana_pref":"ﾋｮｳｺﾞｹﾝ","kana_city":"ｺｳﾍﾞｼｽﾏｸ","kana_address":"ﾂｷﾐﾔﾏﾁｮｳ","pref":"兵庫県","city":"神戸市須磨区","address":"月見山町"},
{"zip_code":"6540051","kana_pref":"ﾋｮｳｺﾞｹﾝ","kana_city":"ｺｳﾍﾞｼｽﾏｸ","kana_address":"ﾂｷﾐﾔﾏﾎﾝﾏﾁ","pref":"兵庫県","city":"神戸市須磨区","address":"月見山本町"},
{"zip_code":"6540025","kana_pref":"ﾋｮｳｺﾞｹﾝ","kana_city":"ｺｳﾍﾞｼｽﾏｸ","kana_address":"ﾃﾗﾀﾞﾁｮｳ","pref":"兵庫県","city":"神戸市須磨区","address":"寺田町"},
{"zip_code":"6540053","kana_pref":"ﾋｮｳｺﾞｹﾝ","kana_city":"ｺｳﾍﾞｼｽﾏｸ","kana_address":"ﾃﾝｼﾞﾝﾁｮｳ","pref":"兵庫県","city":"神戸市須磨区","address":"天神町"},
{"zip_code":"6540122","kana_pref":"ﾋｮｳｺﾞｹﾝ","kana_city":"ｺｳﾍﾞｼｽﾏｸ","kana_address":"ﾄﾞｳｼｮｳﾀﾞｲ","pref":"兵庫県","city":"神戸市須磨区","address":"道正台"},
{"zip_code":"6540028","kana_pref":"ﾋｮｳｺﾞｹﾝ","kana_city":"ｺｳﾍﾞｼｽﾏｸ","kana_address":"ﾄｷﾜﾁｮｳ","pref":"兵庫県","city":"神戸市須磨区","address":"常盤町"},
{"zip_code":"6540012","kana_pref":"ﾋｮｳｺﾞｹﾝ","kana_city":"ｺｳﾍﾞｼｽﾏｸ","kana_address":"ﾄﾋﾞﾏﾂﾁｮｳ","pref":"兵庫県","city":"神戸市須磨区","address":"飛松町"},
{"zip_code":"6540034","kana_pref":"ﾋｮｳｺﾞｹﾝ","kana_city":"ｺｳﾍﾞｼｽﾏｸ","kana_address":"ﾄﾏｻﾁｮｳ","pref":"兵庫県","city":"神戸市須磨区","address":"戸政町"},
{"zip_code":"6540142","kana_pref":"ﾋｮｳｺﾞｹﾝ","kana_city":"ｺｳﾍﾞｼｽﾏｸ","kana_address":"ﾄﾓｶﾞｵｶ","pref":"兵庫県","city":"神戸市須磨区","address":"友が丘"},
{"zip_code":"6540154","kana_pref":"ﾋｮｳｺﾞｹﾝ","kana_city":"ｺｳﾍﾞｼｽﾏｸ","kana_address":"ﾅｶｵﾁｱｲ","pref":"兵庫県","city":"神戸市須磨区","address":"中落合"},
{"zip_code":"6540035","kana_pref":"ﾋｮｳｺﾞｹﾝ","kana_city":"ｺｳﾍﾞｼｽﾏｸ","kana_address":"ﾅｶｼﾞﾏﾁｮｳ","pref":"兵庫県","city":"神戸市須磨区","address":"中島町"},
{"zip_code":"6540155","kana_pref":"ﾋｮｳｺﾞｹﾝ","kana_city":"ｺｳﾍﾞｼｽﾏｸ","kana_address":"ﾆｼｵﾁｱｲ","pref":"兵庫県","city":"神戸市須磨区","address":"西落合"},
{"zip_code":"6540068","kana_pref":"ﾋｮｳｺﾞｹﾝ","kana_city":"ｺｳﾍﾞｼｽﾏｸ","kana_address":"ﾆｼｽﾏ","pref":"兵庫県","city":"神戸市須磨区","address":"西須磨"},
{"zip_code":"6540152","kana_pref":"ﾋｮｳｺﾞｹﾝ","kana_city":"ｺｳﾍﾞｼｽﾏｸ","kana_address":"ﾋｶﾞｼｵﾁｱｲ","pref":"兵庫県","city":"神戸市須磨区","address":"東落合"},
{"zip_code":"6540102","kana_pref":"ﾋｮｳｺﾞｹﾝ","kana_city":"ｺｳﾍﾞｼｽﾏｸ","kana_address":"ﾋｶﾞｼｼﾗｶﾜﾀﾞｲ","pref":"兵庫県","city":"神戸市須磨区","address":"東白川台"},
{"zip_code":"6540018","kana_pref":"ﾋｮｳｺﾞｹﾝ","kana_city":"ｺｳﾍﾞｼｽﾏｸ","kana_address":"ﾋｶﾞｼｽﾏ","pref":"兵庫県","city":"神戸市須磨区","address":"東須磨"},
{"zip_code":"6540033","kana_pref":"ﾋｮｳｺﾞｹﾝ","kana_city":"ｺｳﾍﾞｼｽﾏｸ","kana_address":"ﾋｶﾞｼﾏﾁ","pref":"兵庫県","city":"神戸市須磨区","address":"東町"},
{"zip_code":"6540021","kana_pref":"ﾋｮｳｺﾞｹﾝ","kana_city":"ｺｳﾍﾞｼｽﾏｸ","kana_address":"ﾋﾗﾀﾁｮｳ","pref":"兵庫県","city":"神戸市須磨区","address":"平田町"},
{"zip_code":"6540041","kana_pref":"ﾋｮｳｺﾞｹﾝ","kana_city":"ｺｳﾍﾞｼｽﾏｸ","kana_address":"ﾌﾙｶﾜﾁｮｳ","pref":"兵庫県","city":"神戸市須磨区","address":"古川町"},
{"zip_code":"6540007","kana_pref":"ﾋｮｳｺﾞｹﾝ","kana_city":"ｺｳﾍﾞｼｽﾏｸ","kana_address":"ﾎｳﾃﾞﾝﾁｮｳ","pref":"兵庫県","city":"神戸市須磨区","address":"宝田町"},
{"zip_code":"6540032","kana_pref":"ﾋｮｳｺﾞｹﾝ","kana_city":"ｺｳﾍﾞｼｽﾏｸ","kana_address":"ﾎﾘｲｹﾁｮｳ","pref":"兵庫県","city":"神戸市須磨区","address":"堀池町"},
{"zip_code":"6540011","kana_pref":"ﾋｮｳｺﾞｹﾝ","kana_city":"ｺｳﾍﾞｼｽﾏｸ","kana_address":"ﾏｴｲｹﾁｮｳ","pref":"兵庫県","city":"神戸市須磨区","address":"前池町"},
{"zip_code":"6540045","kana_pref":"ﾋｮｳｺﾞｹﾝ","kana_city":"ｺｳﾍﾞｼｽﾏｸ","kana_address":"ﾏﾂｶｾﾞﾁｮｳ","pref":"兵庫県","city":"神戸市須磨区","address":"松風町"},
{"zip_code":"6540062","kana_pref":"ﾋｮｳｺﾞｹﾝ","kana_city":"ｺｳﾍﾞｼｽﾏｸ","kana_address":"ﾐｽﾞﾉﾁｮｳ","pref":"兵庫県","city":"神戸市須磨区","address":"水野町"},
{"zip_code":"6540113","kana_pref":"ﾋｮｳｺﾞｹﾝ","kana_city":"ｺｳﾍﾞｼｽﾏｸ","kana_address":"ﾐﾄﾞﾘｶﾞｵｶ","pref":"兵庫県","city":"神戸市須磨区","address":"緑が丘"},
{"zip_code":"6540163","kana_pref":"ﾋｮｳｺﾞｹﾝ","kana_city":"ｺｳﾍﾞｼｽﾏｸ","kana_address":"ﾐﾄﾞﾘﾀﾞｲ","pref":"兵庫県","city":"神戸市須磨区","address":"緑台"},
{"zip_code":"6540153","kana_pref":"ﾋｮｳｺﾞｹﾝ","kana_city":"ｺｳﾍﾞｼｽﾏｸ","kana_address":"ﾐﾅﾐｵﾁｱｲ","pref":"兵庫県","city":"神戸市須磨区","address":"南落合"},
{"zip_code":"6540036","kana_pref":"ﾋｮｳｺﾞｹﾝ","kana_city":"ｺｳﾍﾞｼｽﾏｸ","kana_address":"ﾐﾅﾐﾏﾁ","pref":"兵庫県","city":"神戸市須磨区","address":"南町"},
{"zip_code":"6540052","kana_pref":"ﾋｮｳｺﾞｹﾝ","kana_city":"ｺｳﾍﾞｼｽﾏｸ","kana_address":"ﾐﾕｷﾁｮｳ","pref":"兵庫県","city":"神戸市須磨区","address":"行幸町"},
{"zip_code":"6540002","kana_pref":"ﾋｮｳｺﾞｹﾝ","kana_city":"ｺｳﾍﾞｼｽﾏｸ","kana_address":"ﾐｮｳｼﾞﾝﾁｮｳ","pref":"兵庫県","city":"神戸市須磨区","address":"明神町"},
{"zip_code":"6540121","kana_pref":"ﾋｮｳｺﾞｹﾝ","kana_city":"ｺｳﾍﾞｼｽﾏｸ","kana_address":"ﾐｮｳﾎｳｼﾞ","pref":"兵庫県","city":"神戸市須磨区","address":"妙法寺"},
{"zip_code":"6540046","kana_pref":"ﾋｮｳｺﾞｹﾝ","kana_city":"ｺｳﾍﾞｼｽﾏｸ","kana_address":"ﾑﾗｻﾒﾁｮｳ","pref":"兵庫県","city":"神戸市須磨区","address":"村雨町"},
{"zip_code":"6540161","kana_pref":"ﾋｮｳｺﾞｹﾝ","kana_city":"ｺｳﾍﾞｼｽﾏｸ","kana_address":"ﾔｻｶﾀﾞｲ","pref":"兵庫県","city":"神戸市須磨区","address":"弥栄台"},
{"zip_code":"6540037","kana_pref":"ﾋｮｳｺﾞｹﾝ","kana_city":"ｺｳﾍﾞｼｽﾏｸ","kana_address":"ﾕｷﾋﾗﾁｮｳ","pref":"兵庫県","city":"神戸市須磨区","address":"行平町"},
{"zip_code":"6540006","kana_pref":"ﾋｮｳｺﾞｹﾝ","kana_city":"ｺｳﾍﾞｼｽﾏｸ","kana_address":"ﾖｳﾛｳﾁｮｳ","pref":"兵庫県","city":"神戸市須磨区","address":"養老町"},
{"zip_code":"6540131","kana_pref":"ﾋｮｳｺﾞｹﾝ","kana_city":"ｺｳﾍﾞｼｽﾏｸ","kana_address":"ﾖｺｵ","pref":"兵庫県","city":"神戸市須磨区","address":"横尾"},
{"zip_code":"6540067","kana_pref":"ﾋｮｳｺﾞｹﾝ","kana_city":"ｺｳﾍﾞｼｽﾏｸ","kana_address":"ﾘｷｭｳﾆｼﾁｮｳ","pref":"兵庫県","city":"神戸市須磨区","address":"離宮西町"},
{"zip_code":"6540065","kana_pref":"ﾋｮｳｺﾞｹﾝ","kana_city":"ｺｳﾍﾞｼｽﾏｸ","kana_address":"ﾘｷｭｳﾏｴﾏﾁ","pref":"兵庫県","city":"神戸市須磨区","address":"離宮前町"},
{"zip_code":"6540141","kana_pref":"ﾋｮｳｺﾞｹﾝ","kana_city":"ｺｳﾍﾞｼｽﾏｸ","kana_address":"ﾘｭｳｶﾞﾀﾞｲ","pref":"兵庫県","city":"神戸市須磨区","address":"竜が台"},
{"zip_code":"6540014","kana_pref":"ﾋｮｳｺﾞｹﾝ","kana_city":"ｺｳﾍﾞｼｽﾏｸ","kana_address":"ﾜｶｷﾞﾁｮｳ","pref":"兵庫県","city":"神戸市須磨区","address":"若木町"},
{"zip_code":"6540112","kana_pref":"ﾋｮｳｺﾞｹﾝ","kana_city":"ｺｳﾍﾞｼｽﾏｸ","kana_address":"ﾜｶｸｻﾁｮｳ","pref":"兵庫県","city":"神戸市須磨区","address":"若草町"},
{"zip_code":"6540049","kana_pref":"ﾋｮｳｺﾞｹﾝ","kana_city":"ｺｳﾍﾞｼｽﾏｸ","kana_address":"ﾜｶﾐﾔﾁｮｳ","pref":"兵庫県","city":"神戸市須磨区","address":"若宮町"}]}