{"zip_code":[
{"zip_code":"6560000","kana_pref":"ﾋｮｳｺﾞｹﾝ","kana_city":"ｽﾓﾄｼ","kana_address":"","pref":"兵庫県","city":"洲本市","address":""},
{"zip_code":"6562531","kana_pref":"ﾋｮｳｺﾞｹﾝ","kana_city":"ｽﾓﾄｼ","kana_address":"ｱｲｶﾜｸﾞﾐ","pref":"兵庫県","city":"洲本市","address":"相川組"},
{"zip_code":"6562124","kana_pref":"ﾋｮｳｺﾞｹﾝ","kana_city":"ｽﾓﾄｼ","kana_address":"ｱｲｶﾞﾁｮｳｷﾀﾀﾞﾆ","pref":"兵庫県","city":"洲本市","address":"安乎町北谷"},
{"zip_code":"6562122","kana_pref":"ﾋｮｳｺﾞｹﾝ","kana_city":"ｽﾓﾄｼ","kana_address":"ｱｲｶﾞﾁｮｳﾅｶﾀﾞ","pref":"兵庫県","city":"洲本市","address":"安乎町中田"},
{"zip_code":"6562123","kana_pref":"ﾋｮｳｺﾞｹﾝ","kana_city":"ｽﾓﾄｼ","kana_address":"ｱｲｶﾞﾁｮｳﾌﾙﾐﾔ","pref":"兵庫県","city":"洲本市","address":"安乎町古宮"},
{"zip_code":"6562121","kana_pref":"ﾋｮｳｺﾞｹﾝ","kana_city":"ｽﾓﾄｼ","kana_address":"ｱｲｶﾞﾁｮｳﾍｲｱﾝｳﾗ","pref":"兵庫県","city":"洲本市","address":"安乎町平安浦"},
{"zip_code":"6562126","kana_pref":"ﾋｮｳｺﾞｹﾝ","kana_city":"ｽﾓﾄｼ","kana_address":"ｱｲｶﾞﾁｮｳﾐﾔﾉﾊﾗ","pref":"兵庫県","city":"洲本市","address":"安乎町宮野原"},
{"zip_code":"6562125","kana_pref":"ﾋｮｳｺﾞｹﾝ","kana_city":"ｽﾓﾄｼ","kana_address":"ｱｲｶﾞﾁｮｳﾔﾏﾀﾞﾊﾗ","pref":"兵庫県","city":"洲本市","address":"安乎町山田原"},
{"zip_code":"6560111","kana_pref":"ﾋｮｳｺﾞｹﾝ","kana_city":"ｽﾓﾄｼ","kana_address":"ｱｲﾔ","pref":"兵庫県","city":"洲本市","address":"鮎屋"},
{"zip_code":"6560042","kana_pref":"ﾋｮｳｺﾞｹﾝ","kana_city":"ｽﾓﾄｼ","kana_address":"ｲｹｳﾁ","pref":"兵庫県","city":"洲本市","address":"池内"},
{"zip_code":"6560043","kana_pref":"ﾋｮｳｺﾞｹﾝ","kana_city":"ｽﾓﾄｼ","kana_address":"ｲｹﾀﾞ","pref":"兵庫県","city":"洲本市","address":"池田"},
{"zip_code":"6560054","kana_pref":"ﾋｮｳｺﾞｹﾝ","kana_city":"ｽﾓﾄｼ","kana_address":"ｳﾊﾗ","pref":"兵庫県","city":"洲本市","address":"宇原"},
{"zip_code":"6560012","kana_pref":"ﾋｮｳｺﾞｹﾝ","kana_city":"ｽﾓﾄｼ","kana_address":"ｳﾔﾏ","pref":"兵庫県","city":"洲本市","address":"宇山"},
{"zip_code":"6560055","kana_pref":"ﾋｮｳｺﾞｹﾝ","kana_city":"ｽﾓﾄｼ","kana_address":"ｵｵﾉ","pref":"兵庫県","city":"洲本市","address":"大野"},
{"zip_code":"6560018","kana_pref":"ﾋｮｳｺﾞｹﾝ","kana_city":"ｽﾓﾄｼ","kana_address":"ｵｸﾊﾀ","pref":"兵庫県","city":"洲本市","address":"奥畑"},
{"zip_code":"6560101","kana_pref":"ﾋｮｳｺﾞｹﾝ","kana_city":"ｽﾓﾄｼ","kana_address":"ｵｻﾒ","pref":"兵庫県","city":"洲本市","address":"納"},
{"zip_code":"6560023","kana_pref":"ﾋｮｳｺﾞｹﾝ","kana_city":"ｽﾓﾄｼ","kana_address":"ｵﾛﾀﾞﾆ","pref":"兵庫県","city":"洲本市","address":"小路谷"},
{"zip_code":"6560022","kana_pref":"ﾋｮｳｺﾞｹﾝ","kana_city":"ｽﾓﾄｼ","kana_address":"ｶｲｶﾞﾝﾄﾞｵﾘ","pref":"兵庫県","city":"洲本市","address":"海岸通"},
{"zip_code":"6560046","kana_pref":"ﾋｮｳｺﾞｹﾝ","kana_city":"ｽﾓﾄｼ","kana_address":"ｶﾅﾔ","pref":"兵庫県","city":"洲本市","address":"金屋"},
{"zip_code":"6560015","kana_pref":"ﾋｮｳｺﾞｹﾝ","kana_city":"ｽﾓﾄｼ","kana_address":"ｶﾐｶﾞﾓ","pref":"兵庫県","city":"洲本市","address":"上加茂"},
{"zip_code":"6560017","kana_pref":"ﾋｮｳｺﾞｹﾝ","kana_city":"ｽﾓﾄｼ","kana_address":"ｶﾐﾅｲｾﾞﾝ","pref":"兵庫県","city":"洲本市","address":"上内膳"},
{"zip_code":"6560053","kana_pref":"ﾋｮｳｺﾞｹﾝ","kana_city":"ｽﾓﾄｼ","kana_address":"ｶﾐﾓﾉﾍﾞ","pref":"兵庫県","city":"洲本市","address":"上物部"},
{"zip_code":"6560045","kana_pref":"ﾋｮｳｺﾞｹﾝ","kana_city":"ｽﾓﾄｼ","kana_address":"ｷﾄﾞ","pref":"兵庫県","city":"洲本市","address":"木戸"},
{"zip_code":"6560014","kana_pref":"ﾋｮｳｺﾞｹﾝ","kana_city":"ｽﾓﾄｼ","kana_address":"ｸﾜﾏ","pref":"兵庫県","city":"洲本市","address":"桑間"},
{"zip_code":"6561314","kana_pref":"ﾋｮｳｺﾞｹﾝ","kana_city":"ｽﾓﾄｼ","kana_address":"ｺﾞｼｷﾁｮｳｱｲﾊﾗｱﾕﾉｻﾄ","pref":"兵庫県","city":"洲本市","address":"五色町鮎原鮎の郷"},
{"zip_code":"6561315","kana_pref":"ﾋｮｳｺﾞｹﾝ","kana_city":"ｽﾓﾄｼ","kana_address":"ｺﾞｼｷﾁｮｳｱｲﾊﾗｳﾀﾞﾆ","pref":"兵庫県","city":"洲本市","address":"五色町鮎原宇谷"},
{"zip_code":"6561322","kana_pref":"ﾋｮｳｺﾞｹﾝ","kana_city":"ｽﾓﾄｼ","kana_address":"ｺﾞｼｷﾁｮｳｱｲﾊﾗｶﾐ","pref":"兵庫県","city":"洲本市","address":"五色町鮎原上"},
{"zip_code":"6561316","kana_pref":"ﾋｮｳｺﾞｹﾝ","kana_city":"ｽﾓﾄｼ","kana_address":"ｺﾞｼｷﾁｮｳｱｲﾊﾗｶﾔﾉ","pref":"兵庫県","city":"洲本市","address":"五色町鮎原栢野"},
{"zip_code":"6561317","kana_pref":"ﾋｮｳｺﾞｹﾝ","kana_city":"ｽﾓﾄｼ","kana_address":"ｺﾞｼｷﾁｮｳｱｲﾊﾗｺﾔﾏﾀﾞ","pref":"兵庫県","city":"洲本市","address":"五色町鮎原小山田"},
{"zip_code":"6561326","kana_pref":"ﾋｮｳｺﾞｹﾝ","kana_city":"ｽﾓﾄｼ","kana_address":"ｺﾞｼｷﾁｮｳｱｲﾊﾗｼﾓ","pref":"兵庫県","city":"洲本市","address":"五色町鮎原下"},
{"zip_code":"6561318","kana_pref":"ﾋｮｳｺﾞｹﾝ","kana_city":"ｽﾓﾄｼ","kana_address":"ｺﾞｼｷﾁｮｳｱｲﾊﾗｼﾝﾖｳ","pref":"兵庫県","city":"洲本市","address":"五色町鮎原神陽"},
{"zip_code":"6561327","kana_pref":"ﾋｮｳｺﾞｹﾝ","kana_city":"ｽﾓﾄｼ","kana_address":"ｺﾞｼｷﾁｮｳｱｲﾊﾗﾀﾄﾞｺﾛ","pref":"兵庫県","city":"洲本市","address":"五色町鮎原田処"},
{"zip_code":"6561311","kana_pref":"ﾋｮｳｺﾞｹﾝ","kana_city":"ｽﾓﾄｼ","kana_address":"ｺﾞｼｷﾁｮｳｱｲﾊﾗﾂﾂﾞﾗｵ","pref":"兵庫県","city":"洲本市","address":"五色町鮎原葛尾"},
{"zip_code":"6561323","kana_pref":"ﾋｮｳｺﾞｹﾝ","kana_city":"ｽﾓﾄｼ","kana_address":"ｺﾞｼｷﾁｮｳｱｲﾊﾗﾄｳｹﾞ","pref":"兵庫県","city":"洲本市","address":"五色町鮎原塔下"},
{"zip_code":"6561321","kana_pref":"ﾋｮｳｺﾞｹﾝ","kana_city":"ｽﾓﾄｼ","kana_address":"ｺﾞｼｷﾁｮｳｱｲﾊﾗﾅｶﾑﾗ","pref":"兵庫県","city":"洲本市","address":"五色町鮎原中邑"},
{"zip_code":"6561313","kana_pref":"ﾋｮｳｺﾞｹﾝ","kana_city":"ｽﾓﾄｼ","kana_address":"ｺﾞｼｷﾁｮｳｱｲﾊﾗﾆｼ","pref":"兵庫県","city":"洲本市","address":"五色町鮎原西"},
{"zip_code":"6561325","kana_pref":"ﾋｮｳｺﾞｹﾝ","kana_city":"ｽﾓﾄｼ","kana_address":"ｺﾞｼｷﾁｮｳｱｲﾊﾗﾐﾅﾐﾀﾞﾆ","pref":"兵庫県","city":"洲本市","address":"五色町鮎原南谷"},
{"zip_code":"6561324","kana_pref":"ﾋｮｳｺﾞｹﾝ","kana_city":"ｽﾓﾄｼ","kana_address":"ｺﾞｼｷﾁｮｳｱｲﾊﾗﾐﾉﾊﾀ","pref":"兵庫県","city":"洲本市","address":"五色町鮎原三野畑"},
{"zip_code":"6561312","kana_pref":"ﾋｮｳｺﾞｹﾝ","kana_city":"ｽﾓﾄｼ","kana_address":"ｺﾞｼｷﾁｮｳｱｲﾊﾗﾖｼﾀﾞ","pref":"兵庫県","city":"洲本市","address":"五色町鮎原吉田"},
{"zip_code":"6561336","kana_pref":"ﾋｮｳｺﾞｹﾝ","kana_city":"ｽﾓﾄｼ","kana_address":"ｺﾞｼｷﾁｮｳｶﾐｻｶｲ","pref":"兵庫県","city":"洲本市","address":"五色町上堺"},
{"zip_code":"6561337","kana_pref":"ﾋｮｳｺﾞｹﾝ","kana_city":"ｽﾓﾄｼ","kana_address":"ｺﾞｼｷﾁｮｳｼﾓｻｶｲ","pref":"兵庫県","city":"洲本市","address":"五色町下堺"},
{"zip_code":"6561301","kana_pref":"ﾋｮｳｺﾞｹﾝ","kana_city":"ｽﾓﾄｼ","kana_address":"ｺﾞｼｷﾁｮｳﾂｼ","pref":"兵庫県","city":"洲本市","address":"五色町都志"},
{"zip_code":"6561303","kana_pref":"ﾋｮｳｺﾞｹﾝ","kana_city":"ｽﾓﾄｼ","kana_address":"ｺﾞｼｷﾁｮｳﾂｼｵｵﾐﾔ","pref":"兵庫県","city":"洲本市","address":"五色町都志大宮"},
{"zip_code":"6561302","kana_pref":"ﾋｮｳｺﾞｹﾝ","kana_city":"ｽﾓﾄｼ","kana_address":"ｺﾞｼｷﾁｮｳﾂｼｺﾒﾔﾏ","pref":"兵庫県","city":"洲本市","address":"五色町都志米山"},
{"zip_code":"6561331","kana_pref":"ﾋｮｳｺﾞｹﾝ","kana_city":"ｽﾓﾄｼ","kana_address":"ｺﾞｼｷﾁｮｳﾂｼﾀﾞｲﾆﾁ","pref":"兵庫県","city":"洲本市","address":"五色町都志大日"},
{"zip_code":"6561341","kana_pref":"ﾋｮｳｺﾞｹﾝ","kana_city":"ｽﾓﾄｼ","kana_address":"ｺﾞｼｷﾁｮｳﾂｼﾂﾉｶﾜ","pref":"兵庫県","city":"洲本市","address":"五色町都志角川"},
{"zip_code":"6561304","kana_pref":"ﾋｮｳｺﾞｹﾝ","kana_city":"ｽﾓﾄｼ","kana_address":"ｺﾞｼｷﾁｮｳﾂｼﾏﾝｻﾞｲ","pref":"兵庫県","city":"洲本市","address":"五色町都志万歳"},
{"zip_code":"6561344","kana_pref":"ﾋｮｳｺﾞｹﾝ","kana_city":"ｽﾓﾄｼ","kana_address":"ｺﾞｼｷﾁｮｳﾄﾘｶｲｳﾗ","pref":"兵庫県","city":"洲本市","address":"五色町鳥飼浦"},
{"zip_code":"6561342","kana_pref":"ﾋｮｳｺﾞｹﾝ","kana_city":"ｽﾓﾄｼ","kana_address":"ｺﾞｼｷﾁｮｳﾄﾘｶｲｶﾐ","pref":"兵庫県","city":"洲本市","address":"五色町鳥飼上"},
{"zip_code":"6561343","kana_pref":"ﾋｮｳｺﾞｹﾝ","kana_city":"ｽﾓﾄｼ","kana_address":"ｺﾞｼｷﾁｮｳﾄﾘｶｲﾅｶ","pref":"兵庫県","city":"洲本市","address":"五色町鳥飼中"},
{"zip_code":"6561333","kana_pref":"ﾋｮｳｺﾞｹﾝ","kana_city":"ｽﾓﾄｼ","kana_address":"ｺﾞｼｷﾁｮｳﾋﾛｲｼｶﾐ","pref":"兵庫県","city":"洲本市","address":"五色町広石上"},
{"zip_code":"6561332","kana_pref":"ﾋｮｳｺﾞｹﾝ","kana_city":"ｽﾓﾄｼ","kana_address":"ｺﾞｼｷﾁｮｳﾋﾛｲｼｷﾀ","pref":"兵庫県","city":"洲本市","address":"五色町広石北"},
{"zip_code":"6561335","kana_pref":"ﾋｮｳｺﾞｹﾝ","kana_city":"ｽﾓﾄｼ","kana_address":"ｺﾞｼｷﾁｮｳﾋﾛｲｼｼﾓ","pref":"兵庫県","city":"洲本市","address":"五色町広石下"},
{"zip_code":"6561334","kana_pref":"ﾋｮｳｺﾞｹﾝ","kana_city":"ｽﾓﾄｼ","kana_address":"ｺﾞｼｷﾁｮｳﾋﾛｲｼﾅｶ","pref":"兵庫県","city":"洲本市","address":"五色町広石中"},
{"zip_code":"6560026","kana_pref":"ﾋｮｳｺﾞｹﾝ","kana_city":"ｽﾓﾄｼ","kana_address":"ｻｶｴﾏﾁ","pref":"兵庫県","city":"洲本市","address":"栄町"},
{"zip_code":"6560021","kana_pref":"ﾋｮｳｺﾞｹﾝ","kana_city":"ｽﾓﾄｼ","kana_address":"ｼｵﾔ","pref":"兵庫県","city":"洲本市","address":"塩屋"},
{"zip_code":"6560013","kana_pref":"ﾋｮｳｺﾞｹﾝ","kana_city":"ｽﾓﾄｼ","kana_address":"ｼﾓｶﾞﾓ","pref":"兵庫県","city":"洲本市","address":"下加茂"},
{"zip_code":"6560016","kana_pref":"ﾋｮｳｺﾞｹﾝ","kana_city":"ｽﾓﾄｼ","kana_address":"ｼﾓﾅｲｾﾞﾝ","pref":"兵庫県","city":"洲本市","address":"下内膳"},
{"zip_code":"6560041","kana_pref":"ﾋｮｳｺﾞｹﾝ","kana_city":"ｽﾓﾄｼ","kana_address":"ｼﾝﾑﾗ","pref":"兵庫県","city":"洲本市","address":"新村"},
{"zip_code":"6560011","kana_pref":"ﾋｮｳｺﾞｹﾝ","kana_city":"ｽﾓﾄｼ","kana_address":"ﾀｹﾉｸﾁ","pref":"兵庫県","city":"洲本市","address":"炬口"},
{"zip_code":"6560031","kana_pref":"ﾋｮｳｺﾞｹﾝ","kana_city":"ｽﾓﾄｼ","kana_address":"ﾁｸｻ","pref":"兵庫県","city":"洲本市","address":"千草"},
{"zip_code":"6560052","kana_pref":"ﾋｮｳｺﾞｹﾝ","kana_city":"ｽﾓﾄｼ","kana_address":"ﾂﾀﾞ","pref":"兵庫県","city":"洲本市","address":"津田"},
{"zip_code":"6560001","kana_pref":"ﾋｮｳｺﾞｹﾝ","kana_city":"ｽﾓﾄｼ","kana_address":"ﾅｶｶﾞﾜﾗﾁｮｳｱﾂﾊﾏ","pref":"兵庫県","city":"洲本市","address":"中川原町厚浜"},
{"zip_code":"6560005","kana_pref":"ﾋｮｳｺﾞｹﾝ","kana_city":"ｽﾓﾄｼ","kana_address":"ﾅｶｶﾞﾜﾗﾁｮｳｲﾁﾊﾞﾗ","pref":"兵庫県","city":"洲本市","address":"中川原町市原"},
{"zip_code":"6560002","kana_pref":"ﾋｮｳｺﾞｹﾝ","kana_city":"ｽﾓﾄｼ","kana_address":"ﾅｶｶﾞﾜﾗﾁｮｳﾅｶｶﾞﾜﾗ","pref":"兵庫県","city":"洲本市","address":"中川原町中川原"},
{"zip_code":"6560006","kana_pref":"ﾋｮｳｺﾞｹﾝ","kana_city":"ｽﾓﾄｼ","kana_address":"ﾅｶｶﾞﾜﾗﾁｮｳﾌﾀﾂｲｼ","pref":"兵庫県","city":"洲本市","address":"中川原町二ツ石"},
{"zip_code":"6560003","kana_pref":"ﾋｮｳｺﾞｹﾝ","kana_city":"ｽﾓﾄｼ","kana_address":"ﾅｶｶﾞﾜﾗﾁｮｳﾐｷﾀﾞ","pref":"兵庫県","city":"洲本市","address":"中川原町三木田"},
{"zip_code":"6560004","kana_pref":"ﾋｮｳｺﾞｹﾝ","kana_city":"ｽﾓﾄｼ","kana_address":"ﾅｶｶﾞﾜﾗﾁｮｳﾔｽｻｶ","pref":"兵庫県","city":"洲本市","address":"中川原町安坂"},
{"zip_code":"6562532","kana_pref":"ﾋｮｳｺﾞｹﾝ","kana_city":"ｽﾓﾄｼ","kana_address":"ﾅｶﾂｶﾞﾜｸﾞﾐ","pref":"兵庫県","city":"洲本市","address":"中津川組"},
{"zip_code":"6562533","kana_pref":"ﾋｮｳｺﾞｹﾝ","kana_city":"ｽﾓﾄｼ","kana_address":"ﾊﾀﾀﾞｸﾞﾐ","pref":"兵庫県","city":"洲本市","address":"畑田組"},
{"zip_code":"6560025","kana_pref":"ﾋｮｳｺﾞｹﾝ","kana_city":"ｽﾓﾄｼ","kana_address":"ﾎﾝﾏﾁ","pref":"兵庫県","city":"洲本市","address":"本町"},
{"zip_code":"6560044","kana_pref":"ﾋｮｳｺﾞｹﾝ","kana_city":"ｽﾓﾄｼ","kana_address":"ﾏｴﾋﾗ","pref":"兵庫県","city":"洲本市","address":"前平"},
{"zip_code":"6560027","kana_pref":"ﾋｮｳｺﾞｹﾝ","kana_city":"ｽﾓﾄｼ","kana_address":"ﾐﾅﾄ","pref":"兵庫県","city":"洲本市","address":"港"},
{"zip_code":"6560051","kana_pref":"ﾋｮｳｺﾞｹﾝ","kana_city":"ｽﾓﾄｼ","kana_address":"ﾓﾉﾍﾞ","pref":"兵庫県","city":"洲本市","address":"物部"},
{"zip_code":"6560024","kana_pref":"ﾋｮｳｺﾞｹﾝ","kana_city":"ｽﾓﾄｼ","kana_address":"ﾔﾏﾃ","pref":"兵庫県","city":"洲本市","address":"山手"},
{"zip_code":"6562541","kana_pref":"ﾋｮｳｺﾞｹﾝ","kana_city":"ｽﾓﾄｼ","kana_address":"ﾕﾗ","pref":"兵庫県","city":"洲本市","address":"由良"},
{"zip_code":"6562542","kana_pref":"ﾋｮｳｺﾞｹﾝ","kana_city":"ｽﾓﾄｼ","kana_address":"ﾕﾗﾁｮｳｳﾁﾀﾞ","pref":"兵庫県","city":"洲本市","address":"由良町内田"},
{"zip_code":"6562543","kana_pref":"ﾋｮｳｺﾞｹﾝ","kana_city":"ｽﾓﾄｼ","kana_address":"ﾕﾗﾁｮｳﾕﾗ","pref":"兵庫県","city":"洲本市","address":"由良町由良"},
{"zip_code":"6560400","kana_pref":"ﾋｮｳｺﾞｹﾝ","kana_city":"ﾐﾅﾐｱﾜｼﾞｼ","kana_address":"","pref":"兵庫県","city":"南あわじ市","address":""},
{"zip_code":"6560661","kana_pref":"ﾋｮｳｺﾞｹﾝ","kana_city":"ﾐﾅﾐｱﾜｼﾞｼ","kana_address":"ｱﾅｶﾞ","pref":"兵庫県","city":"南あわじ市","address":"阿那賀"},
{"zip_code":"6560662","kana_pref":"ﾋｮｳｺﾞｹﾝ","kana_city":"ﾐﾅﾐｱﾜｼﾞｼ","kana_address":"ｱﾅｶﾞｼﾁｶﾞﾜ","pref":"兵庫県","city":"南あわじ市","address":"阿那賀志知川"},
{"zip_code":"6560663","kana_pref":"ﾋｮｳｺﾞｹﾝ","kana_city":"ﾐﾅﾐｱﾜｼﾞｼ","kana_address":"ｱﾅｶﾞﾆｼｼﾞ","pref":"兵庫県","city":"南あわじ市","address":"阿那賀西路"},
{"zip_code":"6560541","kana_pref":"ﾋｮｳｺﾞｹﾝ","kana_city":"ﾐﾅﾐｱﾜｼﾞｼ","kana_address":"ｱﾏｶﾐﾏﾁ","pref":"兵庫県","city":"南あわじ市","address":"阿万上町"},
{"zip_code":"6560543","kana_pref":"ﾋｮｳｺﾞｹﾝ","kana_city":"ﾐﾅﾐｱﾜｼﾞｼ","kana_address":"ｱﾏｼｵﾔﾏﾁ","pref":"兵庫県","city":"南あわじ市","address":"阿万塩屋町"},
{"zip_code":"6560544","kana_pref":"ﾋｮｳｺﾞｹﾝ","kana_city":"ﾐﾅﾐｱﾜｼﾞｼ","kana_address":"ｱﾏｼﾓﾏﾁ","pref":"兵庫県","city":"南あわじ市","address":"阿万下町"},
{"zip_code":"6560545","kana_pref":"ﾋｮｳｺﾞｹﾝ","kana_city":"ﾐﾅﾐｱﾜｼﾞｼ","kana_address":"ｱﾏﾆｼﾏﾁ","pref":"兵庫県","city":"南あわじ市","address":"阿万西町"},
{"zip_code":"6560546","kana_pref":"ﾋｮｳｺﾞｹﾝ","kana_city":"ﾐﾅﾐｱﾜｼﾞｼ","kana_address":"ｱﾏﾋｶﾞｼﾏﾁ","pref":"兵庫県","city":"南あわじ市","address":"阿万東町"},
{"zip_code":"6560542","kana_pref":"ﾋｮｳｺﾞｹﾝ","kana_city":"ﾐﾅﾐｱﾜｼﾞｼ","kana_address":"ｱﾏﾌｷｱｹﾞﾏﾁ","pref":"兵庫県","city":"南あわじ市","address":"阿万吹上町"},
{"zip_code":"6560651","kana_pref":"ﾋｮｳｺﾞｹﾝ","kana_city":"ﾐﾅﾐｱﾜｼﾞｼ","kana_address":"ｲｶﾘ","pref":"兵庫県","city":"南あわじ市","address":"伊加利"},
{"zip_code":"6560462","kana_pref":"ﾋｮｳｺﾞｹﾝ","kana_city":"ﾐﾅﾐｱﾜｼﾞｼ","kana_address":"ｲﾁｱｵｷ","pref":"兵庫県","city":"南あわじ市","address":"市青木"},
{"zip_code":"6560474","kana_pref":"ﾋｮｳｺﾞｹﾝ","kana_city":"ﾐﾅﾐｱﾜｼﾞｼ","kana_address":"ｲﾁｲﾁ","pref":"兵庫県","city":"南あわじ市","address":"市市"},
{"zip_code":"6560461","kana_pref":"ﾋｮｳｺﾞｹﾝ","kana_city":"ﾐﾅﾐｱﾜｼﾞｼ","kana_address":"ｲﾁｴﾝｷﾞｮｳｼﾞ","pref":"兵庫県","city":"南あわじ市","address":"市円行寺"},
{"zip_code":"6560473","kana_pref":"ﾋｮｳｺﾞｹﾝ","kana_city":"ﾐﾅﾐｱﾜｼﾞｼ","kana_address":"ｲﾁｵｲ","pref":"兵庫県","city":"南あわじ市","address":"市小井"},
{"zip_code":"6560475","kana_pref":"ﾋｮｳｺﾞｹﾝ","kana_city":"ﾐﾅﾐｱﾜｼﾞｼ","kana_address":"ｲﾁｻﾝｼﾞｮｳ","pref":"兵庫県","city":"南あわじ市","address":"市三條"},
{"zip_code":"6560471","kana_pref":"ﾋｮｳｺﾞｹﾝ","kana_city":"ﾐﾅﾐｱﾜｼﾞｼ","kana_address":"ｲﾁｼﾞｭｳｲｯｶｼｮ","pref":"兵庫県","city":"南あわじ市","address":"市十一ケ所"},
{"zip_code":"6560476","kana_pref":"ﾋｮｳｺﾞｹﾝ","kana_city":"ﾐﾅﾐｱﾜｼﾞｼ","kana_address":"ｲﾁｼﾝ","pref":"兵庫県","city":"南あわじ市","address":"市新"},
{"zip_code":"6560472","kana_pref":"ﾋｮｳｺﾞｹﾝ","kana_city":"ﾐﾅﾐｱﾜｼﾞｼ","kana_address":"ｲﾁｾﾞﾝｺｳｼﾞ","pref":"兵庫県","city":"南あわじ市","address":"市善光寺"},
{"zip_code":"6560477","kana_pref":"ﾋｮｳｺﾞｹﾝ","kana_city":"ﾐﾅﾐｱﾜｼﾞｼ","kana_address":"ｲﾁﾄｸﾅｶﾞ","pref":"兵庫県","city":"南あわじ市","address":"市徳長"},
{"zip_code":"6560478","kana_pref":"ﾋｮｳｺﾞｹﾝ","kana_city":"ﾐﾅﾐｱﾜｼﾞｼ","kana_address":"ｲﾁﾌｸﾅｶﾞ","pref":"兵庫県","city":"南あわじ市","address":"市福永"},
{"zip_code":"6560426","kana_pref":"ﾋｮｳｺﾞｹﾝ","kana_city":"ﾐﾅﾐｱﾜｼﾞｼ","kana_address":"ｴﾅﾐｵｵｴﾅﾐ","pref":"兵庫県","city":"南あわじ市","address":"榎列大榎列"},
{"zip_code":"6560422","kana_pref":"ﾋｮｳｺﾞｹﾝ","kana_city":"ﾐﾅﾐｱﾜｼﾞｼ","kana_address":"ｴﾅﾐｶﾐﾊﾀﾞ","pref":"兵庫県","city":"南あわじ市","address":"榎列上幡多"},
{"zip_code":"6560428","kana_pref":"ﾋｮｳｺﾞｹﾝ","kana_city":"ﾐﾅﾐｱﾜｼﾞｼ","kana_address":"ｴﾅﾐｶﾓﾘ","pref":"兵庫県","city":"南あわじ市","address":"榎列掃守"},
{"zip_code":"6560425","kana_pref":"ﾋｮｳｺﾞｹﾝ","kana_city":"ﾐﾅﾐｱﾜｼﾞｼ","kana_address":"ｴﾅﾐｺｴﾅﾐ","pref":"兵庫県","city":"南あわじ市","address":"榎列小榎列"},
{"zip_code":"6560423","kana_pref":"ﾋｮｳｺﾞｹﾝ","kana_city":"ﾐﾅﾐｱﾜｼﾞｼ","kana_address":"ｴﾅﾐｼﾓﾊﾀﾞ","pref":"兵庫県","city":"南あわじ市","address":"榎列下幡多"},
{"zip_code":"6560424","kana_pref":"ﾋｮｳｺﾞｹﾝ","kana_city":"ﾐﾅﾐｱﾜｼﾞｼ","kana_address":"ｴﾅﾐﾆｼｶﾞﾜ","pref":"兵庫県","city":"南あわじ市","address":"榎列西川"},
{"zip_code":"6560427","kana_pref":"ﾋｮｳｺﾞｹﾝ","kana_city":"ﾐﾅﾐｱﾜｼﾞｼ","kana_address":"ｴﾅﾐﾏﾂﾀﾞ","pref":"兵庫県","city":"南あわじ市","address":"榎列松田"},
{"zip_code":"6560421","kana_pref":"ﾋｮｳｺﾞｹﾝ","kana_city":"ﾐﾅﾐｱﾜｼﾞｼ","kana_address":"ｴﾅﾐﾔﾏｼﾞｮ","pref":"兵庫県","city":"南あわじ市","address":"榎列山所"},
{"zip_code":"6560518","kana_pref":"ﾋｮｳｺﾞｹﾝ","kana_city":"ﾐﾅﾐｱﾜｼﾞｼ","kana_address":"ｶｼｭｳｳｼｳﾁ","pref":"兵庫県","city":"南あわじ市","address":"賀集牛内"},
{"zip_code":"6560517","kana_pref":"ﾋｮｳｺﾞｹﾝ","kana_city":"ﾐﾅﾐｱﾜｼﾞｼ","kana_address":"ｶｼｭｳｳﾁｶﾞﾊﾗ","pref":"兵庫県","city":"南あわじ市","address":"賀集内ケ原"},
{"zip_code":"6560515","kana_pref":"ﾋｮｳｺﾞｹﾝ","kana_city":"ﾐﾅﾐｱﾜｼﾞｼ","kana_address":"ｶｼｭｳｶｼﾞﾔ","pref":"兵庫県","city":"南あわじ市","address":"賀集鍛治屋"},
{"zip_code":"6560517","kana_pref":"ﾋｮｳｺﾞｹﾝ","kana_city":"ﾐﾅﾐｱﾜｼﾞｼ","kana_address":"ｶｼｭｳｾｲｺﾞ","pref":"兵庫県","city":"南あわじ市","address":"賀集生子"},
{"zip_code":"6560512","kana_pref":"ﾋｮｳｺﾞｹﾝ","kana_city":"ﾐﾅﾐｱﾜｼﾞｼ","kana_address":"ｶｼｭｳﾀﾃｶﾞﾜｾ","pref":"兵庫県","city":"南あわじ市","address":"賀集立川瀬"},
{"zip_code":"6560517","kana_pref":"ﾋｮｳｺﾞｹﾝ","kana_city":"ﾐﾅﾐｱﾜｼﾞｼ","kana_address":"ｶｼｭｳﾅｶﾞﾊﾗ","pref":"兵庫県","city":"南あわじ市","address":"賀集長原"},
{"zip_code":"6560513","kana_pref":"ﾋｮｳｺﾞｹﾝ","kana_city":"ﾐﾅﾐｱﾜｼﾞｼ","kana_address":"ｶｼｭｳﾉﾀ","pref":"兵庫県","city":"南あわじ市","address":"賀集野田"},
{"zip_code":"6560516","kana_pref":"ﾋｮｳｺﾞｹﾝ","kana_city":"ﾐﾅﾐｱﾜｼﾞｼ","kana_address":"ｶｼｭｳﾌｸｲ","pref":"兵庫県","city":"南あわじ市","address":"賀集福井"},
{"zip_code":"6560511","kana_pref":"ﾋｮｳｺﾞｹﾝ","kana_city":"ﾐﾅﾐｱﾜｼﾞｼ","kana_address":"ｶｼｭｳﾔﾊﾀ","pref":"兵庫県","city":"南あわじ市","address":"賀集八幡"},
{"zip_code":"6560514","kana_pref":"ﾋｮｳｺﾞｹﾝ","kana_city":"ﾐﾅﾐｱﾜｼﾞｼ","kana_address":"ｶｼｭｳ","pref":"兵庫県","city":"南あわじ市","address":"賀集"},
{"zip_code":"6560531","kana_pref":"ﾋｮｳｺﾞｹﾝ","kana_city":"ﾐﾅﾐｱﾜｼﾞｼ","kana_address":"ｷﾀｱﾏｲｶﾞﾉ","pref":"兵庫県","city":"南あわじ市","address":"北阿万伊賀野"},
{"zip_code":"6560532","kana_pref":"ﾋｮｳｺﾞｹﾝ","kana_city":"ﾐﾅﾐｱﾜｼﾞｼ","kana_address":"ｷﾀｱﾏｲﾅﾀﾞﾐﾅﾐ","pref":"兵庫県","city":"南あわじ市","address":"北阿万稲田南"},
{"zip_code":"6560533","kana_pref":"ﾋｮｳｺﾞｹﾝ","kana_city":"ﾐﾅﾐｱﾜｼﾞｼ","kana_address":"ｷﾀｱﾏｼﾝﾃﾞﾝ","pref":"兵庫県","city":"南あわじ市","address":"北阿万新田"},
{"zip_code":"6560534","kana_pref":"ﾋｮｳｺﾞｹﾝ","kana_city":"ﾐﾅﾐｱﾜｼﾞｼ","kana_address":"ｷﾀｱﾏﾂﾂｲ","pref":"兵庫県","city":"南あわじ市","address":"北阿万筒井"},
{"zip_code":"6560521","kana_pref":"ﾋｮｳｺﾞｹﾝ","kana_city":"ﾐﾅﾐｱﾜｼﾞｼ","kana_address":"ｼｵﾐﾀﾞｲ","pref":"兵庫県","city":"南あわじ市","address":"潮美台"},
{"zip_code":"6560321","kana_pref":"ﾋｮｳｺﾞｹﾝ","kana_city":"ﾐﾅﾐｱﾜｼﾞｼ","kana_address":"ｼﾁ","pref":"兵庫県","city":"南あわじ市","address":"志知"},
{"zip_code":"6560325","kana_pref":"ﾋｮｳｺﾞｹﾝ","kana_city":"ﾐﾅﾐｱﾜｼﾞｼ","kana_address":"ｼﾁｵｸ","pref":"兵庫県","city":"南あわじ市","address":"志知奥"},
{"zip_code":"6560327","kana_pref":"ﾋｮｳｺﾞｹﾝ","kana_city":"ﾐﾅﾐｱﾜｼﾞｼ","kana_address":"ｼﾁｷﾀ","pref":"兵庫県","city":"南あわじ市","address":"志知北"},
{"zip_code":"6560324","kana_pref":"ﾋｮｳｺﾞｹﾝ","kana_city":"ﾐﾅﾐｱﾜｼﾞｼ","kana_address":"ｼﾁｸﾁ","pref":"兵庫県","city":"南あわじ市","address":"志知口"},
{"zip_code":"6560484","kana_pref":"ﾋｮｳｺﾞｹﾝ","kana_city":"ﾐﾅﾐｱﾜｼﾞｼ","kana_address":"ｼﾁｻﾚｵ","pref":"兵庫県","city":"南あわじ市","address":"志知佐礼尾"},
{"zip_code":"6560322","kana_pref":"ﾋｮｳｺﾞｹﾝ","kana_city":"ﾐﾅﾐｱﾜｼﾞｼ","kana_address":"ｼﾁﾀﾀﾗ","pref":"兵庫県","city":"南あわじ市","address":"志知鈩"},
{"zip_code":"6560483","kana_pref":"ﾋｮｳｺﾞｹﾝ","kana_city":"ﾐﾅﾐｱﾜｼﾞｼ","kana_address":"ｼﾁﾅｶｼﾏ","pref":"兵庫県","city":"南あわじ市","address":"志知中島"},
{"zip_code":"6560482","kana_pref":"ﾋｮｳｺﾞｹﾝ","kana_city":"ﾐﾅﾐｱﾜｼﾞｼ","kana_address":"ｼﾁﾅﾝﾊﾞ","pref":"兵庫県","city":"南あわじ市","address":"志知難波"},
{"zip_code":"6560323","kana_pref":"ﾋｮｳｺﾞｹﾝ","kana_city":"ﾐﾅﾐｱﾜｼﾞｼ","kana_address":"ｼﾁﾊﾝｻﾝｼﾞ","pref":"兵庫県","city":"南あわじ市","address":"志知飯山寺"},
{"zip_code":"6560481","kana_pref":"ﾋｮｳｺﾞｹﾝ","kana_city":"ﾐﾅﾐｱﾜｼﾞｼ","kana_address":"ｼﾁﾏﾂﾓﾄ","pref":"兵庫県","city":"南あわじ市","address":"志知松本"},
{"zip_code":"6560326","kana_pref":"ﾋｮｳｺﾞｹﾝ","kana_city":"ﾐﾅﾐｱﾜｼﾞｼ","kana_address":"ｼﾁﾐﾅﾐ","pref":"兵庫県","city":"南あわじ市","address":"志知南"},
{"zip_code":"6560151","kana_pref":"ﾋｮｳｺﾞｹﾝ","kana_city":"ﾐﾅﾐｱﾜｼﾞｼ","kana_address":"ｼﾄｵﾘｱﾝｼﾞｭｳｼﾞ","pref":"兵庫県","city":"南あわじ市","address":"倭文安住寺"},
{"zip_code":"6560412","kana_pref":"ﾋｮｳｺﾞｹﾝ","kana_city":"ﾐﾅﾐｱﾜｼﾞｼ","kana_address":"ｼﾄｵﾘｲﾌﾞﾝ","pref":"兵庫県","city":"南あわじ市","address":"倭文委文"},
{"zip_code":"6560411","kana_pref":"ﾋｮｳｺﾞｹﾝ","kana_city":"ﾐﾅﾐｱﾜｼﾞｼ","kana_address":"ｼﾄｵﾘｺｳ","pref":"兵庫県","city":"南あわじ市","address":"倭文高"},
{"zip_code":"6560153","kana_pref":"ﾋｮｳｺﾞｹﾝ","kana_city":"ﾐﾅﾐｱﾜｼﾞｼ","kana_address":"ｼﾄｵﾘｼｮｳﾀﾞ","pref":"兵庫県","city":"南あわじ市","address":"倭文庄田"},
{"zip_code":"6560154","kana_pref":"ﾋｮｳｺﾞｹﾝ","kana_city":"ﾐﾅﾐｱﾜｼﾞｼ","kana_address":"ｼﾄｵﾘｼﾞﾝﾄﾞｳ","pref":"兵庫県","city":"南あわじ市","address":"倭文神道"},
{"zip_code":"6560161","kana_pref":"ﾋｮｳｺﾞｹﾝ","kana_city":"ﾐﾅﾐｱﾜｼﾞｼ","kana_address":"ｼﾄｵﾘﾄﾞｲ","pref":"兵庫県","city":"南あわじ市","address":"倭文土井"},
{"zip_code":"6560152","kana_pref":"ﾋｮｳｺﾞｹﾝ","kana_city":"ﾐﾅﾐｱﾜｼﾞｼ","kana_address":"ｼﾄｵﾘﾅｶﾞﾀ","pref":"兵庫県","city":"南あわじ市","address":"倭文長田"},
{"zip_code":"6560413","kana_pref":"ﾋｮｳｺﾞｹﾝ","kana_city":"ﾐﾅﾐｱﾜｼﾞｼ","kana_address":"ｼﾄｵﾘﾅｶﾞﾚ","pref":"兵庫県","city":"南あわじ市","address":"倭文流"},
{"zip_code":"6560452","kana_pref":"ﾋｮｳｺﾞｹﾝ","kana_city":"ﾐﾅﾐｱﾜｼﾞｼ","kana_address":"ｼﾞﾝﾀﾞｲｳﾗｶﾍﾞ","pref":"兵庫県","city":"南あわじ市","address":"神代浦壁"},
{"zip_code":"6560454","kana_pref":"ﾋｮｳｺﾞｹﾝ","kana_city":"ﾐﾅﾐｱﾜｼﾞｼ","kana_address":"ｼﾞﾝﾀﾞｲｷﾗｲ","pref":"兵庫県","city":"南あわじ市","address":"神代喜来"},
{"zip_code":"6560453","kana_pref":"ﾋｮｳｺﾞｹﾝ","kana_city":"ﾐﾅﾐｱﾜｼﾞｼ","kana_address":"ｼﾞﾝﾀﾞｲｸﾛﾐﾁ","pref":"兵庫県","city":"南あわじ市","address":"神代黒道"},
{"zip_code":"6560455","kana_pref":"ﾋｮｳｺﾞｹﾝ","kana_city":"ﾐﾅﾐｱﾜｼﾞｼ","kana_address":"ｼﾞﾝﾀﾞｲｺｸｶﾞ","pref":"兵庫県","city":"南あわじ市","address":"神代國衙"},
{"zip_code":"6560456","kana_pref":"ﾋｮｳｺﾞｹﾝ","kana_city":"ﾐﾅﾐｱﾜｼﾞｼ","kana_address":"ｼﾞﾝﾀﾞｲｼﾞﾄﾎｳ","pref":"兵庫県","city":"南あわじ市","address":"神代地頭方"},
{"zip_code":"6560451","kana_pref":"ﾋｮｳｺﾞｹﾝ","kana_city":"ﾐﾅﾐｱﾜｼﾞｼ","kana_address":"ｼﾞﾝﾀﾞｲｼｬｹ","pref":"兵庫県","city":"南あわじ市","address":"神代社家"},
{"zip_code":"6560457","kana_pref":"ﾋｮｳｺﾞｹﾝ","kana_city":"ﾐﾅﾐｱﾜｼﾞｼ","kana_address":"ｼﾞﾝﾀﾞｲﾄﾐﾀﾞ","pref":"兵庫県","city":"南あわじ市","address":"神代富田"},
{"zip_code":"6560143","kana_pref":"ﾋｮｳｺﾞｹﾝ","kana_city":"ﾐﾅﾐｱﾜｼﾞｼ","kana_address":"ﾁｭｳｼﾞｮｳﾁｭｳｷﾝ","pref":"兵庫県","city":"南あわじ市","address":"中条中筋"},
{"zip_code":"6560142","kana_pref":"ﾋｮｳｺﾞｹﾝ","kana_city":"ﾐﾅﾐｱﾜｼﾞｼ","kana_address":"ﾁｭｳｼﾞｮｳﾄｸﾊﾗ","pref":"兵庫県","city":"南あわじ市","address":"中条徳原"},
{"zip_code":"6560141","kana_pref":"ﾋｮｳｺﾞｹﾝ","kana_city":"ﾐﾅﾐｱﾜｼﾞｼ","kana_address":"ﾁｭｳｼﾞｮｳﾋﾛﾀ","pref":"兵庫県","city":"南あわじ市","address":"中条広田"},
{"zip_code":"6560341","kana_pref":"ﾋｮｳｺﾞｹﾝ","kana_city":"ﾐﾅﾐｱﾜｼﾞｼ","kana_address":"ﾂｲ","pref":"兵庫県","city":"南あわじ市","address":"津井"},
{"zip_code":"6560551","kana_pref":"ﾋｮｳｺﾞｹﾝ","kana_city":"ﾐﾅﾐｱﾜｼﾞｼ","kana_address":"ﾅﾀﾞ","pref":"兵庫県","city":"南あわじ市","address":"灘"},
{"zip_code":"6560961","kana_pref":"ﾋｮｳｺﾞｹﾝ","kana_city":"ﾐﾅﾐｱﾜｼﾞｼ","kana_address":"ﾇｼﾏ","pref":"兵庫県","city":"南あわじ市","address":"沼島"},
{"zip_code":"6560131","kana_pref":"ﾋｮｳｺﾞｹﾝ","kana_city":"ﾐﾅﾐｱﾜｼﾞｼ","kana_address":"ﾋﾛﾀﾅｶｽｼﾞ","pref":"兵庫県","city":"南あわじ市","address":"広田中筋"},
{"zip_code":"6560122","kana_pref":"ﾋｮｳｺﾞｹﾝ","kana_city":"ﾐﾅﾐｱﾜｼﾞｼ","kana_address":"ﾋﾛﾀﾋﾛﾀ","pref":"兵庫県","city":"南あわじ市","address":"広田広田"},
{"zip_code":"6560502","kana_pref":"ﾋｮｳｺﾞｹﾝ","kana_city":"ﾐﾅﾐｱﾜｼﾞｼ","kana_address":"ﾌｸﾗｵﾂ","pref":"兵庫県","city":"南あわじ市","address":"福良乙"},
{"zip_code":"6560501","kana_pref":"ﾋｮｳｺﾞｹﾝ","kana_city":"ﾐﾅﾐｱﾜｼﾞｼ","kana_address":"ﾌｸﾗｺｳ","pref":"兵庫県","city":"南あわじ市","address":"福良甲"},
{"zip_code":"6560503","kana_pref":"ﾋｮｳｺﾞｹﾝ","kana_city":"ﾐﾅﾐｱﾜｼﾞｼ","kana_address":"ﾌｸﾗﾍｲ","pref":"兵庫県","city":"南あわじ市","address":"福良丙"},
{"zip_code":"6560307","kana_pref":"ﾋｮｳｺﾞｹﾝ","kana_city":"ﾐﾅﾐｱﾜｼﾞｼ","kana_address":"ﾏﾂﾎｲﾁﾀﾞ","pref":"兵庫県","city":"南あわじ市","address":"松帆檪田"},
{"zip_code":"6560303","kana_pref":"ﾋｮｳｺﾞｹﾝ","kana_city":"ﾐﾅﾐｱﾜｼﾞｼ","kana_address":"ﾏﾂﾎｴｼﾞﾘ","pref":"兵庫県","city":"南あわじ市","address":"松帆江尻"},
{"zip_code":"6560311","kana_pref":"ﾋｮｳｺﾞｹﾝ","kana_city":"ﾐﾅﾐｱﾜｼﾞｼ","kana_address":"ﾏﾂﾎｶｲﾀﾞﾝｼﾞ","pref":"兵庫県","city":"南あわじ市","address":"松帆戒旦寺"},
{"zip_code":"6560301","kana_pref":"ﾋｮｳｺﾞｹﾝ","kana_city":"ﾐﾅﾐｱﾜｼﾞｼ","kana_address":"ﾏﾂﾎｷﾀｶﾀ","pref":"兵庫県","city":"南あわじ市","address":"松帆北方"},
{"zip_code":"6560305","kana_pref":"ﾋｮｳｺﾞｹﾝ","kana_city":"ﾐﾅﾐｱﾜｼﾞｼ","kana_address":"ﾏﾂﾎｷﾀﾊﾏ","pref":"兵庫県","city":"南あわじ市","address":"松帆北浜"},
{"zip_code":"6560306","kana_pref":"ﾋｮｳｺﾞｹﾝ","kana_city":"ﾐﾅﾐｱﾜｼﾞｼ","kana_address":"ﾏﾂﾎｹｲﾉ","pref":"兵庫県","city":"南あわじ市","address":"松帆慶野"},
{"zip_code":"6560304","kana_pref":"ﾋｮｳｺﾞｹﾝ","kana_city":"ﾐﾅﾐｱﾜｼﾞｼ","kana_address":"ﾏﾂﾎｺﾂﾛ","pref":"兵庫県","city":"南あわじ市","address":"松帆古津路"},
{"zip_code":"6560302","kana_pref":"ﾋｮｳｺﾞｹﾝ","kana_city":"ﾐﾅﾐｱﾜｼﾞｼ","kana_address":"ﾏﾂﾎｼｵﾊﾏ","pref":"兵庫県","city":"南あわじ市","address":"松帆塩浜"},
{"zip_code":"6560313","kana_pref":"ﾋｮｳｺﾞｹﾝ","kana_city":"ﾐﾅﾐｱﾜｼﾞｼ","kana_address":"ﾏﾂﾎｼﾁｶﾞﾜ","pref":"兵庫県","city":"南あわじ市","address":"松帆志知川"},
{"zip_code":"6560315","kana_pref":"ﾋｮｳｺﾞｹﾝ","kana_city":"ﾐﾅﾐｱﾜｼﾞｼ","kana_address":"ﾏﾂﾎﾀｶﾔ","pref":"兵庫県","city":"南あわじ市","address":"松帆高屋"},
{"zip_code":"6560314","kana_pref":"ﾋｮｳｺﾞｹﾝ","kana_city":"ﾐﾅﾐｱﾜｼﾞｼ","kana_address":"ﾏﾂﾎﾆｼｼﾞ","pref":"兵庫県","city":"南あわじ市","address":"松帆西路"},
{"zip_code":"6560308","kana_pref":"ﾋｮｳｺﾞｹﾝ","kana_city":"ﾐﾅﾐｱﾜｼﾞｼ","kana_address":"ﾏﾂﾎﾎｳﾐｮｳｼﾞ","pref":"兵庫県","city":"南あわじ市","address":"松帆宝明寺"},
{"zip_code":"6560312","kana_pref":"ﾋｮｳｺﾞｹﾝ","kana_city":"ﾐﾅﾐｱﾜｼﾞｼ","kana_address":"ﾏﾂﾎﾜｷﾀﾞ","pref":"兵庫県","city":"南あわじ市","address":"松帆脇田"},
{"zip_code":"6560332","kana_pref":"ﾋｮｳｺﾞｹﾝ","kana_city":"ﾐﾅﾐｱﾜｼﾞｼ","kana_address":"ﾐﾅﾄ","pref":"兵庫県","city":"南あわじ市","address":"湊"},
{"zip_code":"6560331","kana_pref":"ﾋｮｳｺﾞｹﾝ","kana_city":"ﾐﾅﾐｱﾜｼﾞｼ","kana_address":"ﾐﾅﾄｻﾄ","pref":"兵庫県","city":"南あわじ市","address":"湊里"},
{"zip_code":"6560441","kana_pref":"ﾋｮｳｺﾞｹﾝ","kana_city":"ﾐﾅﾐｱﾜｼﾞｼ","kana_address":"ﾔｷﾞｲﾘﾀ","pref":"兵庫県","city":"南あわじ市","address":"八木入田"},
{"zip_code":"6560445","kana_pref":"ﾋｮｳｺﾞｹﾝ","kana_city":"ﾐﾅﾐｱﾜｼﾞｼ","kana_address":"ﾔｷﾞｳﾏﾏﾜﾘ","pref":"兵庫県","city":"南あわじ市","address":"八木馬回"},
{"zip_code":"6560444","kana_pref":"ﾋｮｳｺﾞｹﾝ","kana_city":"ﾐﾅﾐｱﾜｼﾞｼ","kana_address":"ﾔｷﾞｵｵｸﾎﾞ","pref":"兵庫県","city":"南あわじ市","address":"八木大久保"},
{"zip_code":"6560434","kana_pref":"ﾋｮｳｺﾞｹﾝ","kana_city":"ﾐﾅﾐｱﾜｼﾞｼ","kana_address":"ﾔｷﾞｺｸﾌﾞ","pref":"兵庫県","city":"南あわじ市","address":"八木国分"},
{"zip_code":"6560446","kana_pref":"ﾋｮｳｺﾞｹﾝ","kana_city":"ﾐﾅﾐｱﾜｼﾞｼ","kana_address":"ﾔｷﾞｼﾞﾅｲ","pref":"兵庫県","city":"南あわじ市","address":"八木寺内"},
{"zip_code":"6560436","kana_pref":"ﾋｮｳｺﾞｹﾝ","kana_city":"ﾐﾅﾐｱﾜｼﾞｼ","kana_address":"ﾔｷﾞｼﾝｼﾞｮｳ","pref":"兵庫県","city":"南あわじ市","address":"八木新庄"},
{"zip_code":"6560435","kana_pref":"ﾋｮｳｺﾞｹﾝ","kana_city":"ﾐﾅﾐｱﾜｼﾞｼ","kana_address":"ﾔｷﾞﾀﾃｲｼ","pref":"兵庫県","city":"南あわじ市","address":"八木立石"},
{"zip_code":"6560432","kana_pref":"ﾋｮｳｺﾞｹﾝ","kana_city":"ﾐﾅﾐｱﾜｼﾞｼ","kana_address":"ﾔｷﾞﾄｸﾉ","pref":"兵庫県","city":"南あわじ市","address":"八木徳野"},
{"zip_code":"6560433","kana_pref":"ﾋｮｳｺﾞｹﾝ","kana_city":"ﾐﾅﾐｱﾜｼﾞｼ","kana_address":"ﾔｷﾞﾄﾘｲ","pref":"兵庫県","city":"南あわじ市","address":"八木鳥井"},
{"zip_code":"6560431","kana_pref":"ﾋｮｳｺﾞｹﾝ","kana_city":"ﾐﾅﾐｱﾜｼﾞｼ","kana_address":"ﾔｷﾞﾉﾊﾗ","pref":"兵庫県","city":"南あわじ市","address":"八木野原"},
{"zip_code":"6560443","kana_pref":"ﾋｮｳｺﾞｹﾝ","kana_city":"ﾐﾅﾐｱﾜｼﾞｼ","kana_address":"ﾔｷﾞﾖｳｷﾞｶﾐ","pref":"兵庫県","city":"南あわじ市","address":"八木養宜上"},
{"zip_code":"6560442","kana_pref":"ﾋｮｳｺﾞｹﾝ","kana_city":"ﾐﾅﾐｱﾜｼﾞｼ","kana_address":"ﾔｷﾞﾖｳｷﾞﾅｶ","pref":"兵庫県","city":"南あわじ市","address":"八木養宜中"},
{"zip_code":"6560121","kana_pref":"ﾋｮｳｺﾞｹﾝ","kana_city":"ﾐﾅﾐｱﾜｼﾞｼ","kana_address":"ﾔﾏｿﾞｴ","pref":"兵庫県","city":"南あわじ市","address":"山添"},
{"zip_code":"6562100","kana_pref":"ﾋｮｳｺﾞｹﾝ","kana_city":"ｱﾜｼﾞｼ","kana_address":"","pref":"兵庫県","city":"淡路市","address":""},
{"zip_code":"6561742","kana_pref":"ﾋｮｳｺﾞｹﾝ","kana_city":"ｱﾜｼﾞｼ","kana_address":"ｱｻﾉｶﾝﾀﾞ","pref":"兵庫県","city":"淡路市","address":"浅野神田"},
{"zip_code":"6561741","kana_pref":"ﾋｮｳｺﾞｹﾝ","kana_city":"ｱﾜｼﾞｼ","kana_address":"ｱｻﾉﾐﾅﾐ","pref":"兵庫県","city":"淡路市","address":"浅野南"},
{"zip_code":"6561603","kana_pref":"ﾋｮｳｺﾞｹﾝ","kana_city":"ｱﾜｼﾞｼ","kana_address":"ｲｸﾀｵｵﾂﾎﾞ","pref":"兵庫県","city":"淡路市","address":"生田大坪"},
{"zip_code":"6561605","kana_pref":"ﾋｮｳｺﾞｹﾝ","kana_city":"ｱﾜｼﾞｼ","kana_address":"ｲｸﾀﾀｼﾞﾘ","pref":"兵庫県","city":"淡路市","address":"生田田尻"},
{"zip_code":"6561604","kana_pref":"ﾋｮｳｺﾞｹﾝ","kana_city":"ｱﾜｼﾞｼ","kana_address":"ｲｸﾀﾊﾀ","pref":"兵庫県","city":"淡路市","address":"生田畑"},
{"zip_code":"6561602","kana_pref":"ﾋｮｳｺﾞｹﾝ","kana_city":"ｱﾜｼﾞｼ","kana_address":"ｲｸﾊ","pref":"兵庫県","city":"淡路市","address":"育波"},
{"zip_code":"6562223","kana_pref":"ﾋｮｳｺﾞｹﾝ","kana_city":"ｱﾜｼﾞｼ","kana_address":"ｲｸﾎ","pref":"兵庫県","city":"淡路市","address":"生穂"},
{"zip_code":"6562225","kana_pref":"ﾋｮｳｺﾞｹﾝ","kana_city":"ｱﾜｼﾞｼ","kana_address":"ｲｸﾎﾆｲｼﾞﾏ","pref":"兵庫県","city":"淡路市","address":"生穂新島"},
{"zip_code":"6562161","kana_pref":"ﾋｮｳｺﾞｹﾝ","kana_city":"ｱﾜｼﾞｼ","kana_address":"ｲｹﾉｳﾁ","pref":"兵庫県","city":"淡路市","address":"池ノ内"},
{"zip_code":"6561712","kana_pref":"ﾋｮｳｺﾞｹﾝ","kana_city":"ｱﾜｼﾞｼ","kana_address":"ｲｼﾀﾞ","pref":"兵庫県","city":"淡路市","address":"石田"},
{"zip_code":"6561525","kana_pref":"ﾋｮｳｺﾞｹﾝ","kana_city":"ｱﾜｼﾞｼ","kana_address":"ｲﾃﾞ","pref":"兵庫県","city":"淡路市","address":"井手"},
{"zip_code":"6561552","kana_pref":"ﾋｮｳｺﾞｹﾝ","kana_city":"ｱﾜｼﾞｼ","kana_address":"ｲﾘﾉ","pref":"兵庫県","city":"淡路市","address":"入野"},
{"zip_code":"6562401","kana_pref":"ﾋｮｳｺﾞｹﾝ","kana_city":"ｱﾜｼﾞｼ","kana_address":"ｲﾜﾔ","pref":"兵庫県","city":"淡路市","address":"岩屋"},
{"zip_code":"6562305","kana_pref":"ﾋｮｳｺﾞｹﾝ","kana_city":"ｱﾜｼﾞｼ","kana_address":"ｳﾗ","pref":"兵庫県","city":"淡路市","address":"浦"},
{"zip_code":"6561531","kana_pref":"ﾋｮｳｺﾞｹﾝ","kana_city":"ｱﾜｼﾞｼ","kana_address":"ｴｲ","pref":"兵庫県","city":"淡路市","address":"江井"},
{"zip_code":"6562162","kana_pref":"ﾋｮｳｺﾞｹﾝ","kana_city":"ｱﾜｼﾞｼ","kana_address":"ｵｳｼﾞ","pref":"兵庫県","city":"淡路市","address":"王子"},
{"zip_code":"6562302","kana_pref":"ﾋｮｳｺﾞｹﾝ","kana_city":"ｱﾜｼﾞｼ","kana_address":"ｵｵｲｿ","pref":"兵庫県","city":"淡路市","address":"大磯"},
{"zip_code":"6562224","kana_pref":"ﾋｮｳｺﾞｹﾝ","kana_city":"ｱﾜｼﾞｼ","kana_address":"ｵｵﾀﾆ","pref":"兵庫県","city":"淡路市","address":"大谷"},
{"zip_code":"6562155","kana_pref":"ﾋｮｳｺﾞｹﾝ","kana_city":"ｱﾜｼﾞｼ","kana_address":"ｵｵﾏﾁｶﾐ","pref":"兵庫県","city":"淡路市","address":"大町上"},
{"zip_code":"6562156","kana_pref":"ﾋｮｳｺﾞｹﾝ","kana_city":"ｱﾜｼﾞｼ","kana_address":"ｵｵﾏﾁｼﾓ","pref":"兵庫県","city":"淡路市","address":"大町下"},
{"zip_code":"6562151","kana_pref":"ﾋｮｳｺﾞｹﾝ","kana_city":"ｱﾜｼﾞｼ","kana_address":"ｵｵﾏﾁﾊﾀ","pref":"兵庫県","city":"淡路市","address":"大町畑"},
{"zip_code":"6561736","kana_pref":"ﾋｮｳｺﾞｹﾝ","kana_city":"ｱﾜｼﾞｼ","kana_address":"ｵｸﾞﾗ","pref":"兵庫県","city":"淡路市","address":"小倉"},
{"zip_code":"6561501","kana_pref":"ﾋｮｳｺﾞｹﾝ","kana_city":"ｱﾜｼﾞｼ","kana_address":"ｵｻｷ","pref":"兵庫県","city":"淡路市","address":"尾崎"},
{"zip_code":"6561732","kana_pref":"ﾋｮｳｺﾞｹﾝ","kana_city":"ｱﾜｼﾞｼ","kana_address":"ｵﾀﾞ","pref":"兵庫県","city":"淡路市","address":"小田"},
{"zip_code":"6562334","kana_pref":"ﾋｮｳｺﾞｹﾝ","kana_city":"ｱﾜｼﾞｼ","kana_address":"ｶﾏｸﾞﾁ","pref":"兵庫県","city":"淡路市","address":"釜口"},
{"zip_code":"6561523","kana_pref":"ﾋｮｳｺﾞｹﾝ","kana_city":"ｱﾜｼﾞｼ","kana_address":"ｶﾐｶﾞﾜｲ","pref":"兵庫県","city":"淡路市","address":"上河合"},
{"zip_code":"6562331","kana_pref":"ﾋｮｳｺﾞｹﾝ","kana_city":"ｱﾜｼﾞｼ","kana_address":"ｶﾘﾔ","pref":"兵庫県","city":"淡路市","address":"仮屋"},
{"zip_code":"6562152","kana_pref":"ﾋｮｳｺﾞｹﾝ","kana_city":"ｱﾜｼﾞｼ","kana_address":"ｷｿｶﾐ","pref":"兵庫県","city":"淡路市","address":"木曽上"},
{"zip_code":"6562153","kana_pref":"ﾋｮｳｺﾞｹﾝ","kana_city":"ｱﾜｼﾞｼ","kana_address":"ｷｿｶﾐﾊﾀ","pref":"兵庫県","city":"淡路市","address":"木曽上畑"},
{"zip_code":"6562154","kana_pref":"ﾋｮｳｺﾞｹﾝ","kana_city":"ｱﾜｼﾞｼ","kana_address":"ｷｿｼﾓ","pref":"兵庫県","city":"淡路市","address":"木曽下"},
{"zip_code":"6561512","kana_pref":"ﾋｮｳｺﾞｹﾝ","kana_city":"ｱﾜｼﾞｼ","kana_address":"ｷﾀﾔﾏ","pref":"兵庫県","city":"淡路市","address":"北山"},
{"zip_code":"6561556","kana_pref":"ﾋｮｳｺﾞｹﾝ","kana_city":"ｱﾜｼﾞｼ","kana_address":"ｸｻｶ","pref":"兵庫県","city":"淡路市","address":"草香"},
{"zip_code":"6561558","kana_pref":"ﾋｮｳｺﾞｹﾝ","kana_city":"ｱﾜｼﾞｼ","kana_address":"ｸｻｶｷﾀ","pref":"兵庫県","city":"淡路市","address":"草香北"},
{"zip_code":"6562301","kana_pref":"ﾋｮｳｺﾞｹﾝ","kana_city":"ｱﾜｼﾞｼ","kana_address":"ｸｽﾓﾄ","pref":"兵庫県","city":"淡路市","address":"楠本"},
{"zip_code":"6562144","kana_pref":"ﾋｮｳｺﾞｹﾝ","kana_city":"ｱﾜｼﾞｼ","kana_address":"ｸﾀﾞｼ","pref":"兵庫県","city":"淡路市","address":"下司"},
{"zip_code":"6561735","kana_pref":"ﾋｮｳｺﾞｹﾝ","kana_city":"ｱﾜｼﾞｼ","kana_address":"ｸﾉﾉ","pref":"兵庫県","city":"淡路市","address":"久野々"},
{"zip_code":"6562311","kana_pref":"ﾋｮｳｺﾞｹﾝ","kana_city":"ｱﾜｼﾞｼ","kana_address":"ｸﾙﾏ","pref":"兵庫県","city":"淡路市","address":"久留麻"},
{"zip_code":"6561601","kana_pref":"ﾋｮｳｺﾞｹﾝ","kana_city":"ｱﾜｼﾞｼ","kana_address":"ｸﾛﾀﾞﾆ","pref":"兵庫県","city":"淡路市","address":"黒谷"},
{"zip_code":"6561511","kana_pref":"ﾋｮｳｺﾞｹﾝ","kana_city":"ｱﾜｼﾞｼ","kana_address":"ｸﾞﾝｹﾞ","pref":"兵庫県","city":"淡路市","address":"郡家"},
{"zip_code":"6562303","kana_pref":"ﾋｮｳｺﾞｹﾝ","kana_city":"ｱﾜｼﾞｼ","kana_address":"ｺｲｿ","pref":"兵庫県","city":"淡路市","address":"小磯"},
{"zip_code":"6562323","kana_pref":"ﾋｮｳｺﾞｹﾝ","kana_city":"ｱﾜｼﾞｼ","kana_address":"ｺｳﾁ","pref":"兵庫県","city":"淡路市","address":"河内"},
{"zip_code":"6562211","kana_pref":"ﾋｮｳｺﾞｹﾝ","kana_city":"ｱﾜｼﾞｼ","kana_address":"ｺｳﾘｭｳｼﾞ","pref":"兵庫県","city":"淡路市","address":"興隆寺"},
{"zip_code":"6562143","kana_pref":"ﾋｮｳｺﾞｹﾝ","kana_city":"ｱﾜｼﾞｼ","kana_address":"ｻﾄ","pref":"兵庫県","city":"淡路市","address":"里"},
{"zip_code":"6562212","kana_pref":"ﾋｮｳｺﾞｹﾝ","kana_city":"ｱﾜｼﾞｼ","kana_address":"ｻﾉ","pref":"兵庫県","city":"淡路市","address":"佐野"},
{"zip_code":"6562213","kana_pref":"ﾋｮｳｺﾞｹﾝ","kana_city":"ｱﾜｼﾞｼ","kana_address":"ｻﾉﾆｲｼﾞﾏ","pref":"兵庫県","city":"淡路市","address":"佐野新島"},
{"zip_code":"6562141","kana_pref":"ﾋｮｳｺﾞｹﾝ","kana_city":"ｱﾜｼﾞｼ","kana_address":"ｼｵ","pref":"兵庫県","city":"淡路市","address":"塩尾"},
{"zip_code":"6562142","kana_pref":"ﾋｮｳｺﾞｹﾝ","kana_city":"ｱﾜｼﾞｼ","kana_address":"ｼｵﾀﾆｲｼﾞﾏ","pref":"兵庫県","city":"淡路市","address":"塩田新島"},
{"zip_code":"6562131","kana_pref":"ﾋｮｳｺﾞｹﾝ","kana_city":"ｱﾜｼﾞｼ","kana_address":"ｼﾂﾞｷ","pref":"兵庫県","city":"淡路市","address":"志筑"},
{"zip_code":"6562132","kana_pref":"ﾋｮｳｺﾞｹﾝ","kana_city":"ｱﾜｼﾞｼ","kana_address":"ｼﾂﾞｷﾆｲｼﾞﾏ","pref":"兵庫県","city":"淡路市","address":"志筑新島"},
{"zip_code":"6561522","kana_pref":"ﾋｮｳｺﾞｹﾝ","kana_city":"ｱﾜｼﾞｼ","kana_address":"ｼﾓｶﾞﾜｲ","pref":"兵庫県","city":"淡路市","address":"下河合"},
{"zip_code":"6562333","kana_pref":"ﾋｮｳｺﾞｹﾝ","kana_city":"ｱﾜｼﾞｼ","kana_address":"ｼﾓﾀﾞ","pref":"兵庫県","city":"淡路市","address":"下田"},
{"zip_code":"6562322","kana_pref":"ﾋｮｳｺﾞｹﾝ","kana_city":"ｱﾜｼﾞｼ","kana_address":"ｼﾗﾔﾏ","pref":"兵庫県","city":"淡路市","address":"白山"},
{"zip_code":"6561502","kana_pref":"ﾋｮｳｺﾞｹﾝ","kana_city":"ｱﾜｼﾞｼ","kana_address":"ｼﾝﾑﾗ","pref":"兵庫県","city":"淡路市","address":"新村"},
{"zip_code":"6561521","kana_pref":"ﾋｮｳｺﾞｹﾝ","kana_city":"ｱﾜｼﾞｼ","kana_address":"ﾀｶﾞ","pref":"兵庫県","city":"淡路市","address":"多賀"},
{"zip_code":"6561551","kana_pref":"ﾋｮｳｺﾞｹﾝ","kana_city":"ｱﾜｼﾞｼ","kana_address":"ﾀｶﾔﾏ","pref":"兵庫県","city":"淡路市","address":"高山"},
{"zip_code":"6561524","kana_pref":"ﾋｮｳｺﾞｹﾝ","kana_city":"ｱﾜｼﾞｼ","kana_address":"ﾀｹﾀﾞﾆ","pref":"兵庫県","city":"淡路市","address":"竹谷"},
{"zip_code":"6562332","kana_pref":"ﾋｮｳｺﾞｹﾝ","kana_city":"ｱﾜｼﾞｼ","kana_address":"ﾀﾆ","pref":"兵庫県","city":"淡路市","address":"谷"},
{"zip_code":"6561503","kana_pref":"ﾋｮｳｺﾞｹﾝ","kana_city":"ｱﾜｼﾞｼ","kana_address":"ﾄｵﾀﾞ","pref":"兵庫県","city":"淡路市","address":"遠田"},
{"zip_code":"6561711","kana_pref":"ﾋｮｳｺﾞｹﾝ","kana_city":"ｱﾜｼﾞｼ","kana_address":"ﾄｼﾏ","pref":"兵庫県","city":"淡路市","address":"富島"},
{"zip_code":"6561743","kana_pref":"ﾋｮｳｺﾞｹﾝ","kana_city":"ｱﾜｼﾞｼ","kana_address":"ﾄﾉｳﾁ","pref":"兵庫県","city":"淡路市","address":"斗ノ内"},
{"zip_code":"6562221","kana_pref":"ﾋｮｳｺﾞｹﾝ","kana_city":"ｱﾜｼﾞｼ","kana_address":"ﾅｶﾞｻﾜ","pref":"兵庫県","city":"淡路市","address":"長沢"},
{"zip_code":"6562163","kana_pref":"ﾋｮｳｺﾞｹﾝ","kana_city":"ｱﾜｼﾞｼ","kana_address":"ﾅｶﾀﾞ","pref":"兵庫県","city":"淡路市","address":"中田"},
{"zip_code":"6561733","kana_pref":"ﾋｮｳｺﾞｹﾝ","kana_city":"ｱﾜｼﾞｼ","kana_address":"ﾅｶﾞﾊﾞﾀｹ","pref":"兵庫県","city":"淡路市","address":"長畠"},
{"zip_code":"6561526","kana_pref":"ﾋｮｳｺﾞｹﾝ","kana_city":"ｱﾜｼﾞｼ","kana_address":"ﾅｶﾑﾗ","pref":"兵庫県","city":"淡路市","address":"中村"},
{"zip_code":"6562321","kana_pref":"ﾋｮｳｺﾞｹﾝ","kana_city":"ｱﾜｼﾞｼ","kana_address":"ﾅｶﾓﾁ","pref":"兵庫県","city":"淡路市","address":"中持"},
{"zip_code":"6561731","kana_pref":"ﾋｮｳｺﾞｹﾝ","kana_city":"ｱﾜｼﾞｼ","kana_address":"ﾆｲ","pref":"兵庫県","city":"淡路市","address":"仁井"},
{"zip_code":"6561723","kana_pref":"ﾋｮｳｺﾞｹﾝ","kana_city":"ｱﾜｼﾞｼ","kana_address":"ﾉｼﾞﾏｵｵｶﾜ","pref":"兵庫県","city":"淡路市","address":"野島大川"},
{"zip_code":"6561727","kana_pref":"ﾋｮｳｺﾞｹﾝ","kana_city":"ｱﾜｼﾞｼ","kana_address":"ﾉｼﾞﾏｷﾌﾈ","pref":"兵庫県","city":"淡路市","address":"野島貴船"},
{"zip_code":"6561726","kana_pref":"ﾋｮｳｺﾞｹﾝ","kana_city":"ｱﾜｼﾞｼ","kana_address":"ﾉｼﾞﾏﾄｷﾜ","pref":"兵庫県","city":"淡路市","address":"野島常盤"},
{"zip_code":"6561722","kana_pref":"ﾋｮｳｺﾞｹﾝ","kana_city":"ｱﾜｼﾞｼ","kana_address":"ﾉｼﾞﾏﾄﾄﾞﾛｷ","pref":"兵庫県","city":"淡路市","address":"野島轟木"},
{"zip_code":"6561721","kana_pref":"ﾋｮｳｺﾞｹﾝ","kana_city":"ｱﾜｼﾞｼ","kana_address":"ﾉｼﾞﾏﾋｷﾉｳﾗ","pref":"兵庫県","city":"淡路市","address":"野島蟇浦"},
{"zip_code":"6561724","kana_pref":"ﾋｮｳｺﾞｹﾝ","kana_city":"ｱﾜｼﾞｼ","kana_address":"ﾉｼﾞﾏﾋﾗﾊﾞﾔｼ","pref":"兵庫県","city":"淡路市","address":"野島平林"},
{"zip_code":"6562451","kana_pref":"ﾋｮｳｺﾞｹﾝ","kana_city":"ｱﾜｼﾞｼ","kana_address":"ﾉｼﾞﾏｴｻﾞｷ","pref":"兵庫県","city":"淡路市","address":"野島江崎"},
{"zip_code":"6561725","kana_pref":"ﾋｮｳｺﾞｹﾝ","kana_city":"ｱﾜｼﾞｼ","kana_address":"ﾉｼﾞﾏｴｻﾞｷ","pref":"兵庫県","city":"淡路市","address":"野島江崎"},
{"zip_code":"6562222","kana_pref":"ﾋｮｳｺﾞｹﾝ","kana_city":"ｱﾜｼﾞｼ","kana_address":"ﾉﾀｵ","pref":"兵庫県","city":"淡路市","address":"野田尾"},
{"zip_code":"6562304","kana_pref":"ﾋｮｳｺﾞｹﾝ","kana_city":"ｱﾜｼﾞｼ","kana_address":"ﾊﾏ","pref":"兵庫県","city":"淡路市","address":"浜"},
{"zip_code":"6561554","kana_pref":"ﾋｮｳｺﾞｹﾝ","kana_city":"ｱﾜｼﾞｼ","kana_address":"ﾌｶｸｻ","pref":"兵庫県","city":"淡路市","address":"深草"},
{"zip_code":"6561734","kana_pref":"ﾋｮｳｺﾞｹﾝ","kana_city":"ｱﾜｼﾞｼ","kana_address":"ﾌﾅｷ","pref":"兵庫県","city":"淡路市","address":"舟木"},
{"zip_code":"6561555","kana_pref":"ﾋｮｳｺﾞｹﾝ","kana_city":"ｱﾜｼﾞｼ","kana_address":"ﾐﾅﾐ","pref":"兵庫県","city":"淡路市","address":"南"},
{"zip_code":"6562307","kana_pref":"ﾋｮｳｺﾞｹﾝ","kana_city":"ｱﾜｼﾞｼ","kana_address":"ﾐﾅﾐｳｻﾞｷ","pref":"兵庫県","city":"淡路市","address":"南鵜崎"},
{"zip_code":"6561557","kana_pref":"ﾋｮｳｺﾞｹﾝ","kana_city":"ｱﾜｼﾞｼ","kana_address":"ﾐｮｳｼﾞﾝ","pref":"兵庫県","city":"淡路市","address":"明神"},
{"zip_code":"6561606","kana_pref":"ﾋｮｳｺﾞｹﾝ","kana_city":"ｱﾜｼﾞｼ","kana_address":"ﾑﾛﾂ","pref":"兵庫県","city":"淡路市","address":"室津"},
{"zip_code":"6561541","kana_pref":"ﾋｮｳｺﾞｹﾝ","kana_city":"ｱﾜｼﾞｼ","kana_address":"ﾔﾅｷﾞｻﾜ","pref":"兵庫県","city":"淡路市","address":"柳沢"},
{"zip_code":"6561553","kana_pref":"ﾋｮｳｺﾞｹﾝ","kana_city":"ｱﾜｼﾞｼ","kana_address":"ﾔﾏﾀﾞ","pref":"兵庫県","city":"淡路市","address":"山田"},
{"zip_code":"6562306","kana_pref":"ﾋｮｳｺﾞｹﾝ","kana_city":"ｱﾜｼﾞｼ","kana_address":"ﾕﾒﾌﾞﾀｲ","pref":"兵庫県","city":"淡路市","address":"夢舞台"}]}