{"zip_code":[
{"zip_code":"6570111","kana_pref":"ﾋｮｳｺﾞｹﾝ","kana_city":"ｺｳﾍﾞｼﾋｶﾞｼﾅﾀﾞｸ","kana_address":"ﾓﾄﾔﾏﾁｮｳﾓﾘ","pref":"兵庫県","city":"神戸市東灘区","address":"本山町森"},
{"zip_code":"6570000","kana_pref":"ﾋｮｳｺﾞｹﾝ","kana_city":"ｺｳﾍﾞｼﾅﾀﾞｸ","kana_address":"","pref":"兵庫県","city":"神戸市灘区","address":""},
{"zip_code":"6570805","kana_pref":"ﾋｮｳｺﾞｹﾝ","kana_city":"ｺｳﾍﾞｼﾅﾀﾞｸ","kana_address":"ｱｵﾀﾆﾁｮｳ","pref":"兵庫県","city":"神戸市灘区","address":"青谷町"},
{"zip_code":"6570821","kana_pref":"ﾋｮｳｺﾞｹﾝ","kana_city":"ｺｳﾍﾞｼﾅﾀﾞｸ","kana_address":"ｱｶｻｶﾄﾞｵﾘ","pref":"兵庫県","city":"神戸市灘区","address":"赤坂通"},
{"zip_code":"6570061","kana_pref":"ﾋｮｳｺﾞｹﾝ","kana_city":"ｺｳﾍﾞｼﾅﾀﾞｸ","kana_address":"ｱｶﾏﾂﾁｮｳ","pref":"兵庫県","city":"神戸市灘区","address":"赤松町"},
{"zip_code":"6570823","kana_pref":"ﾋｮｳｺﾞｹﾝ","kana_city":"ｺｳﾍﾞｼﾅﾀﾞｸ","kana_address":"ｱﾏｷﾞﾄﾞｵﾘ","pref":"兵庫県","city":"神戸市灘区","address":"天城通"},
{"zip_code":"6570834","kana_pref":"ﾋｮｳｺﾞｹﾝ","kana_city":"ｺｳﾍﾞｼﾅﾀﾞｸ","kana_address":"ｲｽﾞﾐﾄﾞｵﾘ","pref":"兵庫県","city":"神戸市灘区","address":"泉通"},
{"zip_code":"6570012","kana_pref":"ﾋｮｳｺﾞｹﾝ","kana_city":"ｺｳﾍﾞｼﾅﾀﾞｸ","kana_address":"ｲﾁﾉｳｻﾝﾁｮｳ","pref":"兵庫県","city":"神戸市灘区","address":"一王山町"},
{"zip_code":"6570803","kana_pref":"ﾋｮｳｺﾞｹﾝ","kana_city":"ｺｳﾍﾞｼﾅﾀﾞｸ","kana_address":"ｲﾜﾔ","pref":"兵庫県","city":"神戸市灘区","address":"岩屋"},
{"zip_code":"6570846","kana_pref":"ﾋｮｳｺﾞｹﾝ","kana_city":"ｺｳﾍﾞｼﾅﾀﾞｸ","kana_address":"ｲﾜﾔｷﾀﾏﾁ","pref":"兵庫県","city":"神戸市灘区","address":"岩屋北町"},
{"zip_code":"6570845","kana_pref":"ﾋｮｳｺﾞｹﾝ","kana_city":"ｺｳﾍﾞｼﾅﾀﾞｸ","kana_address":"ｲﾜﾔﾅｶﾏﾁ","pref":"兵庫県","city":"神戸市灘区","address":"岩屋中町"},
{"zip_code":"6570856","kana_pref":"ﾋｮｳｺﾞｹﾝ","kana_city":"ｺｳﾍﾞｼﾅﾀﾞｸ","kana_address":"ｲﾜﾔﾐﾅﾐﾏﾁ","pref":"兵庫県","city":"神戸市灘区","address":"岩屋南町"},
{"zip_code":"6570103","kana_pref":"ﾋｮｳｺﾞｹﾝ","kana_city":"ｺｳﾍﾞｼﾅﾀﾞｸ","kana_address":"ｳｴﾉ","pref":"兵庫県","city":"神戸市灘区","address":"上野"},
{"zip_code":"6570817","kana_pref":"ﾋｮｳｺﾞｹﾝ","kana_city":"ｺｳﾍﾞｼﾅﾀﾞｸ","kana_address":"ｳｴﾉﾄﾞｵﾘ","pref":"兵庫県","city":"神戸市灘区","address":"上野通"},
{"zip_code":"6570042","kana_pref":"ﾋｮｳｺﾞｹﾝ","kana_city":"ｺｳﾍﾞｼﾅﾀﾞｸ","kana_address":"ｴﾎﾞｼﾁｮｳ","pref":"兵庫県","city":"神戸市灘区","address":"烏帽子町"},
{"zip_code":"6570838","kana_pref":"ﾋｮｳｺﾞｹﾝ","kana_city":"ｺｳﾍﾞｼﾅﾀﾞｸ","kana_address":"ｵｳｼﾞﾁｮｳ","pref":"兵庫県","city":"神戸市灘区","address":"王子町"},
{"zip_code":"6570843","kana_pref":"ﾋｮｳｺﾞｹﾝ","kana_city":"ｺｳﾍﾞｼﾅﾀﾞｸ","kana_address":"ｵｵｲｼｷﾀﾏﾁ","pref":"兵庫県","city":"神戸市灘区","address":"大石北町"},
{"zip_code":"6570043","kana_pref":"ﾋｮｳｺﾞｹﾝ","kana_city":"ｺｳﾍﾞｼﾅﾀﾞｸ","kana_address":"ｵｵｲｼﾋｶﾞｼﾏﾁ","pref":"兵庫県","city":"神戸市灘区","address":"大石東町"},
{"zip_code":"6570852","kana_pref":"ﾋｮｳｺﾞｹﾝ","kana_city":"ｺｳﾍﾞｼﾅﾀﾞｸ","kana_address":"ｵｵｲｼﾐﾅﾐﾏﾁ","pref":"兵庫県","city":"神戸市灘区","address":"大石南町"},
{"zip_code":"6570833","kana_pref":"ﾋｮｳｺﾞｹﾝ","kana_city":"ｺｳﾍﾞｼﾅﾀﾞｸ","kana_address":"ｵｵｳﾁﾄﾞｵﾘ","pref":"兵庫県","city":"神戸市灘区","address":"大内通"},
{"zip_code":"6570017","kana_pref":"ﾋｮｳｺﾞｹﾝ","kana_city":"ｺｳﾍﾞｼﾅﾀﾞｸ","kana_address":"ｵｵﾂｷﾀﾞｲ","pref":"兵庫県","city":"神戸市灘区","address":"大月台"},
{"zip_code":"6570014","kana_pref":"ﾋｮｳｺﾞｹﾝ","kana_city":"ｺｳﾍﾞｼﾅﾀﾞｸ","kana_address":"ｵｵﾄﾞｶﾞﾋﾗﾁｮｳ","pref":"兵庫県","city":"神戸市灘区","address":"大土平町"},
{"zip_code":"6570055","kana_pref":"ﾋｮｳｺﾞｹﾝ","kana_city":"ｺｳﾍﾞｼﾅﾀﾞｸ","kana_address":"ｶﾐｶﾜﾗﾄﾞｵﾘ","pref":"兵庫県","city":"神戸市灘区","address":"上河原通"},
{"zip_code":"6570057","kana_pref":"ﾋｮｳｺﾞｹﾝ","kana_city":"ｺｳﾍﾞｼﾅﾀﾞｸ","kana_address":"ｶﾐﾉｷﾄﾞｵﾘ","pref":"兵庫県","city":"神戸市灘区","address":"神ノ木通"},
{"zip_code":"6570052","kana_pref":"ﾋｮｳｺﾞｹﾝ","kana_city":"ｺｳﾍﾞｼﾅﾀﾞｸ","kana_address":"ｶﾐﾏｴﾁｮｳ","pref":"兵庫県","city":"神戸市灘区","address":"神前町"},
{"zip_code":"6570832","kana_pref":"ﾋｮｳｺﾞｹﾝ","kana_city":"ｺｳﾍﾞｼﾅﾀﾞｸ","kana_address":"ｷｼﾁﾄﾞｵﾘ","pref":"兵庫県","city":"神戸市灘区","address":"岸地通"},
{"zip_code":"6570034","kana_pref":"ﾋｮｳｺﾞｹﾝ","kana_city":"ｺｳﾍﾞｼﾅﾀﾞｸ","kana_address":"ｷﾀﾞﾁｮｳ","pref":"兵庫県","city":"神戸市灘区","address":"記田町"},
{"zip_code":"6570024","kana_pref":"ﾋｮｳｺﾞｹﾝ","kana_city":"ｺｳﾍﾞｼﾅﾀﾞｸ","kana_address":"ｸｽｶﾞｵｶﾁｮｳ","pref":"兵庫県","city":"神戸市灘区","address":"楠丘町"},
{"zip_code":"6570816","kana_pref":"ﾋｮｳｺﾞｹﾝ","kana_city":"ｺｳﾍﾞｼﾅﾀﾞｸ","kana_address":"ｸﾆﾀﾏﾄﾞｵﾘ","pref":"兵庫県","city":"神戸市灘区","address":"国玉通"},
{"zip_code":"6570826","kana_pref":"ﾋｮｳｺﾞｹﾝ","kana_city":"ｺｳﾍﾞｼﾅﾀﾞｸ","kana_address":"ｸﾗｲｼﾄﾞｵﾘ","pref":"兵庫県","city":"神戸市灘区","address":"倉石通"},
{"zip_code":"6570025","kana_pref":"ﾋｮｳｺﾞｹﾝ","kana_city":"ｺｳﾍﾞｼﾅﾀﾞｸ","kana_address":"ｺｳﾄｸﾁｮｳ","pref":"兵庫県","city":"神戸市灘区","address":"高徳町"},
{"zip_code":"6570801","kana_pref":"ﾋｮｳｺﾞｹﾝ","kana_city":"ｺｳﾍﾞｼﾅﾀﾞｸ","kana_address":"ｺﾞﾓｳ","pref":"兵庫県","city":"神戸市灘区","address":"五毛"},
{"zip_code":"6570814","kana_pref":"ﾋｮｳｺﾞｹﾝ","kana_city":"ｺｳﾍﾞｼﾅﾀﾞｸ","kana_address":"ｺﾞﾓｳﾄﾞｵﾘ","pref":"兵庫県","city":"神戸市灘区","address":"五毛通"},
{"zip_code":"6570021","kana_pref":"ﾋｮｳｺﾞｹﾝ","kana_city":"ｺｳﾍﾞｼﾅﾀﾞｸ","kana_address":"ｻｸﾗｶﾞｵｶﾁｮｳ","pref":"兵庫県","city":"神戸市灘区","address":"桜ケ丘町"},
{"zip_code":"6570036","kana_pref":"ﾋｮｳｺﾞｹﾝ","kana_city":"ｺｳﾍﾞｼﾅﾀﾞｸ","kana_address":"ｻｸﾗｸﾞﾁﾁｮｳ","pref":"兵庫県","city":"神戸市灘区","address":"桜口町"},
{"zip_code":"6570044","kana_pref":"ﾋｮｳｺﾞｹﾝ","kana_city":"ｺｳﾍﾞｼﾅﾀﾞｸ","kana_address":"ｼｶﾉｼﾀﾄﾞｵﾘ","pref":"兵庫県","city":"神戸市灘区","address":"鹿ノ下通"},
{"zip_code":"6570015","kana_pref":"ﾋｮｳｺﾞｹﾝ","kana_city":"ｺｳﾍﾞｼﾅﾀﾞｸ","kana_address":"ｼﾉﾊﾗｵﾊﾞﾉﾔﾏﾁｮｳ","pref":"兵庫県","city":"神戸市灘区","address":"篠原伯母野山町"},
{"zip_code":"6570068","kana_pref":"ﾋｮｳｺﾞｹﾝ","kana_city":"ｺｳﾍﾞｼﾅﾀﾞｸ","kana_address":"ｼﾉﾊﾗｷﾀﾏﾁ","pref":"兵庫県","city":"神戸市灘区","address":"篠原北町"},
{"zip_code":"6570016","kana_pref":"ﾋｮｳｺﾞｹﾝ","kana_city":"ｺｳﾍﾞｼﾅﾀﾞｸ","kana_address":"ｼﾉﾊﾗﾀﾞｲ","pref":"兵庫県","city":"神戸市灘区","address":"篠原台"},
{"zip_code":"6570066","kana_pref":"ﾋｮｳｺﾞｹﾝ","kana_city":"ｺｳﾍﾞｼﾅﾀﾞｸ","kana_address":"ｼﾉﾊﾗﾅｶﾏﾁ","pref":"兵庫県","city":"神戸市灘区","address":"篠原中町"},
{"zip_code":"6570067","kana_pref":"ﾋｮｳｺﾞｹﾝ","kana_city":"ｺｳﾍﾞｼﾅﾀﾞｸ","kana_address":"ｼﾉﾊﾗﾎﾝﾏﾁ","pref":"兵庫県","city":"神戸市灘区","address":"篠原本町"},
{"zip_code":"6570059","kana_pref":"ﾋｮｳｺﾞｹﾝ","kana_city":"ｺｳﾍﾞｼﾅﾀﾞｸ","kana_address":"ｼﾉﾊﾗﾐﾅﾐﾏﾁ","pref":"兵庫県","city":"神戸市灘区","address":"篠原南町"},
{"zip_code":"6570002","kana_pref":"ﾋｮｳｺﾞｹﾝ","kana_city":"ｺｳﾍﾞｼﾅﾀﾞｸ","kana_address":"ｼﾉﾊﾗ","pref":"兵庫県","city":"神戸市灘区","address":"篠原"},
{"zip_code":"6570045","kana_pref":"ﾋｮｳｺﾞｹﾝ","kana_city":"ｺｳﾍﾞｼﾅﾀﾞｸ","kana_address":"ｼﾓｶﾞﾜﾗﾄﾞｵﾘ","pref":"兵庫県","city":"神戸市灘区","address":"下河原通"},
{"zip_code":"6570058","kana_pref":"ﾋｮｳｺﾞｹﾝ","kana_city":"ｺｳﾍﾞｼﾅﾀﾞｸ","kana_address":"ｼｮｳｸﾞﾝﾄﾞｵﾘ","pref":"兵庫県","city":"神戸市灘区","address":"将軍通"},
{"zip_code":"6570836","kana_pref":"ﾋｮｳｺﾞｹﾝ","kana_city":"ｺｳﾍﾞｼﾅﾀﾞｸ","kana_address":"ｼﾛﾉｳﾁﾄﾞｵﾘ","pref":"兵庫県","city":"神戸市灘区","address":"城内通"},
{"zip_code":"6570804","kana_pref":"ﾋｮｳｺﾞｹﾝ","kana_city":"ｺｳﾍﾞｼﾅﾀﾞｸ","kana_address":"ｼﾛﾉｼﾀﾄﾞｵﾘ","pref":"兵庫県","city":"神戸市灘区","address":"城の下通"},
{"zip_code":"6570864","kana_pref":"ﾋｮｳｺﾞｹﾝ","kana_city":"ｺｳﾍﾞｼﾅﾀﾞｸ","kana_address":"ｼﾝｻﾞｲｹﾐﾅﾐﾏﾁ","pref":"兵庫県","city":"神戸市灘区","address":"新在家南町"},
{"zip_code":"6570861","kana_pref":"ﾋｮｳｺﾞｹﾝ","kana_city":"ｺｳﾍﾞｼﾅﾀﾞｸ","kana_address":"ｼﾝｻﾞｲｹｷﾀﾏﾁ","pref":"兵庫県","city":"神戸市灘区","address":"新在家北町"},
{"zip_code":"6570018","kana_pref":"ﾋｮｳｺﾞｹﾝ","kana_city":"ｺｳﾍﾞｼﾅﾀﾞｸ","kana_address":"ｽｲｼｬｼﾝﾃﾞﾝ","pref":"兵庫県","city":"神戸市灘区","address":"水車新田"},
{"zip_code":"6570831","kana_pref":"ﾋｮｳｺﾞｹﾝ","kana_city":"ｺｳﾍﾞｼﾅﾀﾞｸ","kana_address":"ｽｲﾄﾞｳｽｼﾞ","pref":"兵庫県","city":"神戸市灘区","address":"水道筋"},
{"zip_code":"6570056","kana_pref":"ﾋｮｳｺﾞｹﾝ","kana_city":"ｺｳﾍﾞｼﾅﾀﾞｸ","kana_address":"ｾﾝﾀﾝﾄﾞｵﾘ","pref":"兵庫県","city":"神戸市灘区","address":"千旦通"},
{"zip_code":"6570063","kana_pref":"ﾋｮｳｺﾞｹﾝ","kana_city":"ｺｳﾍﾞｼﾅﾀﾞｸ","kana_address":"ｿﾜﾁｮｳ","pref":"兵庫県","city":"神戸市灘区","address":"曾和町"},
{"zip_code":"6570813","kana_pref":"ﾋｮｳｺﾞｹﾝ","kana_city":"ｺｳﾍﾞｼﾅﾀﾞｸ","kana_address":"ﾀｶｵﾄﾞｵﾘ","pref":"兵庫県","city":"神戸市灘区","address":"高尾通"},
{"zip_code":"6570001","kana_pref":"ﾋｮｳｺﾞｹﾝ","kana_city":"ｺｳﾍﾞｼﾅﾀﾞｸ","kana_address":"ﾀｶﾊ","pref":"兵庫県","city":"神戸市灘区","address":"高羽"},
{"zip_code":"6570023","kana_pref":"ﾋｮｳｺﾞｹﾝ","kana_city":"ｺｳﾍﾞｼﾅﾀﾞｸ","kana_address":"ﾀｶﾊﾁｮｳ","pref":"兵庫県","city":"神戸市灘区","address":"高羽町"},
{"zip_code":"6570022","kana_pref":"ﾋｮｳｺﾞｹﾝ","kana_city":"ｺｳﾍﾞｼﾅﾀﾞｸ","kana_address":"ﾂﾁﾔﾏﾁｮｳ","pref":"兵庫県","city":"神戸市灘区","address":"土山町"},
{"zip_code":"6570011","kana_pref":"ﾋｮｳｺﾞｹﾝ","kana_city":"ｺｳﾍﾞｼﾅﾀﾞｸ","kana_address":"ﾂﾙｶﾌﾞﾄ","pref":"兵庫県","city":"神戸市灘区","address":"鶴甲"},
{"zip_code":"6570062","kana_pref":"ﾋｮｳｺﾞｹﾝ","kana_city":"ｺｳﾍﾞｼﾅﾀﾞｸ","kana_address":"ﾃﾗｸﾞﾁﾁｮｳ","pref":"兵庫県","city":"神戸市灘区","address":"寺口町"},
{"zip_code":"6570033","kana_pref":"ﾋｮｳｺﾞｹﾝ","kana_city":"ｺｳﾍﾞｼﾅﾀﾞｸ","kana_address":"ﾄｸｲﾁｮｳ","pref":"兵庫県","city":"神戸市灘区","address":"徳井町"},
{"zip_code":"6570035","kana_pref":"ﾋｮｳｺﾞｹﾝ","kana_city":"ｺｳﾍﾞｼﾅﾀﾞｸ","kana_address":"ﾄﾓﾀﾞﾁｮｳ","pref":"兵庫県","city":"神戸市灘区","address":"友田町"},
{"zip_code":"6570032","kana_pref":"ﾋｮｳｺﾞｹﾝ","kana_city":"ｺｳﾍﾞｼﾅﾀﾞｸ","kana_address":"ﾅｶｺﾞｳﾁｮｳ","pref":"兵庫県","city":"神戸市灘区","address":"中郷町"},
{"zip_code":"6570825","kana_pref":"ﾋｮｳｺﾞｹﾝ","kana_city":"ｺｳﾍﾞｼﾅﾀﾞｸ","kana_address":"ﾅｶﾊﾗﾄﾞｵﾘ","pref":"兵庫県","city":"神戸市灘区","address":"中原通"},
{"zip_code":"6570027","kana_pref":"ﾋｮｳｺﾞｹﾝ","kana_city":"ｺｳﾍﾞｼﾅﾀﾞｸ","kana_address":"ﾅｶﾞﾃﾁｮｳ","pref":"兵庫県","city":"神戸市灘区","address":"永手町"},
{"zip_code":"6570811","kana_pref":"ﾋｮｳｺﾞｹﾝ","kana_city":"ｺｳﾍﾞｼﾅﾀﾞｸ","kana_address":"ﾅｶﾞﾐﾈﾀﾞｲ","pref":"兵庫県","city":"神戸市灘区","address":"長峰台"},
{"zip_code":"6570835","kana_pref":"ﾋｮｳｺﾞｹﾝ","kana_city":"ｺｳﾍﾞｼﾅﾀﾞｸ","kana_address":"ﾅﾀﾞｷﾀﾄﾞｵﾘ","pref":"兵庫県","city":"神戸市灘区","address":"灘北通"},
{"zip_code":"6570853","kana_pref":"ﾋｮｳｺﾞｹﾝ","kana_city":"ｺｳﾍﾞｼﾅﾀﾞｸ","kana_address":"ﾅﾀﾞﾊﾏﾁｮｳ","pref":"兵庫県","city":"神戸市灘区","address":"灘浜町"},
{"zip_code":"6570863","kana_pref":"ﾋｮｳｺﾞｹﾝ","kana_city":"ｺｳﾍﾞｼﾅﾀﾞｸ","kana_address":"ﾅﾀﾞﾊﾏﾋｶﾞｼﾁｮｳ","pref":"兵庫県","city":"神戸市灘区","address":"灘浜東町"},
{"zip_code":"6570841","kana_pref":"ﾋｮｳｺﾞｹﾝ","kana_city":"ｺｳﾍﾞｼﾅﾀﾞｸ","kana_address":"ﾅﾀﾞﾐﾅﾐﾄﾞｵﾘ","pref":"兵庫県","city":"神戸市灘区","address":"灘南通"},
{"zip_code":"6570102","kana_pref":"ﾋｮｳｺﾞｹﾝ","kana_city":"ｺｳﾍﾞｼﾅﾀﾞｸ","kana_address":"ﾊﾀﾊﾗ","pref":"兵庫県","city":"神戸市灘区","address":"畑原"},
{"zip_code":"6570822","kana_pref":"ﾋｮｳｺﾞｹﾝ","kana_city":"ｺｳﾍﾞｼﾅﾀﾞｸ","kana_address":"ﾊﾀﾊﾗﾄﾞｵﾘ","pref":"兵庫県","city":"神戸市灘区","address":"畑原通"},
{"zip_code":"6570862","kana_pref":"ﾋｮｳｺﾞｹﾝ","kana_city":"ｺｳﾍﾞｼﾅﾀﾞｸ","kana_address":"ﾊﾏﾀﾞﾁｮｳ","pref":"兵庫県","city":"神戸市灘区","address":"浜田町"},
{"zip_code":"6570802","kana_pref":"ﾋｮｳｺﾞｹﾝ","kana_city":"ｺｳﾍﾞｼﾅﾀﾞｸ","kana_address":"ﾊﾗﾀﾞ","pref":"兵庫県","city":"神戸市灘区","address":"原田"},
{"zip_code":"6570837","kana_pref":"ﾋｮｳｺﾞｹﾝ","kana_city":"ｺｳﾍﾞｼﾅﾀﾞｸ","kana_address":"ﾊﾗﾀﾞﾄﾞｵﾘ","pref":"兵庫県","city":"神戸市灘区","address":"原田通"},
{"zip_code":"6570054","kana_pref":"ﾋｮｳｺﾞｹﾝ","kana_city":"ｺｳﾍﾞｼﾅﾀﾞｸ","kana_address":"ﾋｴﾊﾗﾁｮｳ","pref":"兵庫県","city":"神戸市灘区","address":"稗原町"},
{"zip_code":"6570029","kana_pref":"ﾋｮｳｺﾞｹﾝ","kana_city":"ｺｳﾍﾞｼﾅﾀﾞｸ","kana_address":"ﾋｵﾁｮｳ","pref":"兵庫県","city":"神戸市灘区","address":"日尾町"},
{"zip_code":"6570855","kana_pref":"ﾋｮｳｺﾞｹﾝ","kana_city":"ｺｳﾍﾞｼﾅﾀﾞｸ","kana_address":"ﾋﾉﾃﾞﾁｮｳ","pref":"兵庫県","city":"神戸市灘区","address":"日出町"},
{"zip_code":"6570041","kana_pref":"ﾋｮｳｺﾞｹﾝ","kana_city":"ｺｳﾍﾞｼﾅﾀﾞｸ","kana_address":"ﾋﾞﾜﾁｮｳ","pref":"兵庫県","city":"神戸市灘区","address":"琵琶町"},
{"zip_code":"6570037","kana_pref":"ﾋｮｳｺﾞｹﾝ","kana_city":"ｺｳﾍﾞｼﾅﾀﾞｸ","kana_address":"ﾋﾞﾝｺﾞﾁｮｳ","pref":"兵庫県","city":"神戸市灘区","address":"備後町"},
{"zip_code":"6570038","kana_pref":"ﾋｮｳｺﾞｹﾝ","kana_city":"ｺｳﾍﾞｼﾅﾀﾞｸ","kana_address":"ﾌｶﾀﾞﾁｮｳ","pref":"兵庫県","city":"神戸市灘区","address":"深田町"},
{"zip_code":"6570824","kana_pref":"ﾋｮｳｺﾞｹﾝ","kana_city":"ｺｳﾍﾞｼﾅﾀﾞｸ","kana_address":"ﾌｸｽﾞﾐﾄﾞｵﾘ","pref":"兵庫県","city":"神戸市灘区","address":"福住通"},
{"zip_code":"6570842","kana_pref":"ﾋｮｳｺﾞｹﾝ","kana_city":"ｺｳﾍﾞｼﾅﾀﾞｸ","kana_address":"ﾌﾅﾃﾞﾗﾄﾞｵﾘ","pref":"兵庫県","city":"神戸市灘区","address":"船寺通"},
{"zip_code":"6570855","kana_pref":"ﾋｮｳｺﾞｹﾝ","kana_city":"ｺｳﾍﾞｼﾅﾀﾞｸ","kana_address":"ﾏﾔｶｲｶﾞﾝﾄﾞｵﾘ","pref":"兵庫県","city":"神戸市灘区","address":"摩耶海岸通"},
{"zip_code":"6570104","kana_pref":"ﾋｮｳｺﾞｹﾝ","kana_city":"ｺｳﾍﾞｼﾅﾀﾞｸ","kana_address":"ﾏﾔｻﾝ","pref":"兵庫県","city":"神戸市灘区","address":"摩耶山"},
{"zip_code":"6570105","kana_pref":"ﾋｮｳｺﾞｹﾝ","kana_city":"ｺｳﾍﾞｼﾅﾀﾞｸ","kana_address":"ﾏﾔｻﾝﾁｮｳ","pref":"兵庫県","city":"神戸市灘区","address":"摩耶山町"},
{"zip_code":"6570854","kana_pref":"ﾋｮｳｺﾞｹﾝ","kana_city":"ｺｳﾍﾞｼﾅﾀﾞｸ","kana_address":"ﾏﾔﾌﾄｳ","pref":"兵庫県","city":"神戸市灘区","address":"摩耶埠頭"},
{"zip_code":"6570851","kana_pref":"ﾋｮｳｺﾞｹﾝ","kana_city":"ｺｳﾍﾞｼﾅﾀﾞｸ","kana_address":"ﾐﾄﾞﾛﾁｮｳ","pref":"兵庫県","city":"神戸市灘区","address":"味泥町"},
{"zip_code":"6570812","kana_pref":"ﾋｮｳｺﾞｹﾝ","kana_city":"ｺｳﾍﾞｼﾅﾀﾞｸ","kana_address":"ﾐﾉｵｶﾄﾞｵﾘ","pref":"兵庫県","city":"神戸市灘区","address":"箕岡通"},
{"zip_code":"6570844","kana_pref":"ﾋｮｳｺﾞｹﾝ","kana_city":"ｺｳﾍﾞｼﾅﾀﾞｸ","kana_address":"ﾐﾔｺﾄﾞｵﾘ","pref":"兵庫県","city":"神戸市灘区","address":"都通"},
{"zip_code":"6570065","kana_pref":"ﾋｮｳｺﾞｹﾝ","kana_city":"ｺｳﾍﾞｼﾅﾀﾞｸ","kana_address":"ﾐﾔﾔﾏﾁｮｳ","pref":"兵庫県","city":"神戸市灘区","address":"宮山町"},
{"zip_code":"6570028","kana_pref":"ﾋｮｳｺﾞｹﾝ","kana_city":"ｺｳﾍﾞｼﾅﾀﾞｸ","kana_address":"ﾓﾘｺﾞﾁｮｳ","pref":"兵庫県","city":"神戸市灘区","address":"森後町"},
{"zip_code":"6570815","kana_pref":"ﾋｮｳｺﾞｹﾝ","kana_city":"ｺｳﾍﾞｼﾅﾀﾞｸ","kana_address":"ﾔｸｼﾄﾞｵﾘ","pref":"兵庫県","city":"神戸市灘区","address":"薬師通"},
{"zip_code":"6570051","kana_pref":"ﾋｮｳｺﾞｹﾝ","kana_city":"ｺｳﾍﾞｼﾅﾀﾞｸ","kana_address":"ﾔﾊﾀﾁｮｳ","pref":"兵庫県","city":"神戸市灘区","address":"八幡町"},
{"zip_code":"6570064","kana_pref":"ﾋｮｳｺﾞｹﾝ","kana_city":"ｺｳﾍﾞｼﾅﾀﾞｸ","kana_address":"ﾔﾏﾀﾞﾁｮｳ","pref":"兵庫県","city":"神戸市灘区","address":"山田町"},
{"zip_code":"6570031","kana_pref":"ﾋｮｳｺﾞｹﾝ","kana_city":"ｺｳﾍﾞｼﾅﾀﾞｸ","kana_address":"ﾔﾏﾄﾁｮｳ","pref":"兵庫県","city":"神戸市灘区","address":"大和町"},
{"zip_code":"6570026","kana_pref":"ﾋｮｳｺﾞｹﾝ","kana_city":"ｺｳﾍﾞｼﾅﾀﾞｸ","kana_address":"ﾕﾐﾉｷﾁｮｳ","pref":"兵庫県","city":"神戸市灘区","address":"弓木町"},
{"zip_code":"6570101","kana_pref":"ﾋｮｳｺﾞｹﾝ","kana_city":"ｺｳﾍﾞｼﾅﾀﾞｸ","kana_address":"ﾛｯｺｳｻﾝﾁｮｳ","pref":"兵庫県","city":"神戸市灘区","address":"六甲山町"},
{"zip_code":"6570013","kana_pref":"ﾋｮｳｺﾞｹﾝ","kana_city":"ｺｳﾍﾞｼﾅﾀﾞｸ","kana_address":"ﾛｯｺｳﾀﾞｲﾁｮｳ","pref":"兵庫県","city":"神戸市灘区","address":"六甲台町"},
{"zip_code":"6570053","kana_pref":"ﾋｮｳｺﾞｹﾝ","kana_city":"ｺｳﾍﾞｼﾅﾀﾞｸ","kana_address":"ﾛｯｺｳﾁｮｳ","pref":"兵庫県","city":"神戸市灘区","address":"六甲町"}]}