{"zip_code":[
{"zip_code":"6580000","kana_pref":"ﾋｮｳｺﾞｹﾝ","kana_city":"ｺｳﾍﾞｼﾋｶﾞｼﾅﾀﾞｸ","kana_address":"","pref":"兵庫県","city":"神戸市東灘区","address":""},
{"zip_code":"6580083","kana_pref":"ﾋｮｳｺﾞｹﾝ","kana_city":"ｺｳﾍﾞｼﾋｶﾞｼﾅﾀﾞｸ","kana_address":"ｳｵｻﾞｷﾅｶﾏﾁ","pref":"兵庫県","city":"神戸市東灘区","address":"魚崎中町"},
{"zip_code":"6580026","kana_pref":"ﾋｮｳｺﾞｹﾝ","kana_city":"ｺｳﾍﾞｼﾋｶﾞｼﾅﾀﾞｸ","kana_address":"ｳｵｻﾞｷﾆｼﾏﾁ","pref":"兵庫県","city":"神戸市東灘区","address":"魚崎西町"},
{"zip_code":"6580025","kana_pref":"ﾋｮｳｺﾞｹﾝ","kana_city":"ｺｳﾍﾞｼﾋｶﾞｼﾅﾀﾞｸ","kana_address":"ｳｵｻﾞｷﾐﾅﾐﾏﾁ","pref":"兵庫県","city":"神戸市東灘区","address":"魚崎南町"},
{"zip_code":"6580082","kana_pref":"ﾋｮｳｺﾞｹﾝ","kana_city":"ｺｳﾍﾞｼﾋｶﾞｼﾅﾀﾞｸ","kana_address":"ｳｵｻﾞｷｷﾀﾏﾁ","pref":"兵庫県","city":"神戸市東灘区","address":"魚崎北町"},
{"zip_code":"6580024","kana_pref":"ﾋｮｳｺﾞｹﾝ","kana_city":"ｺｳﾍﾞｼﾋｶﾞｼﾅﾀﾞｸ","kana_address":"ｳｵｻﾞｷﾊﾏﾏﾁ","pref":"兵庫県","city":"神戸市東灘区","address":"魚崎浜町"},
{"zip_code":"6580066","kana_pref":"ﾋｮｳｺﾞｹﾝ","kana_city":"ｺｳﾍﾞｼﾋｶﾞｼﾅﾀﾞｸ","kana_address":"ｳｽﾞﾓﾘﾀﾞｲ","pref":"兵庫県","city":"神戸市東灘区","address":"渦森台"},
{"zip_code":"6580027","kana_pref":"ﾋｮｳｺﾞｹﾝ","kana_city":"ｺｳﾍﾞｼﾋｶﾞｼﾅﾀﾞｸ","kana_address":"ｵｳｷﾞ","pref":"兵庫県","city":"神戸市東灘区","address":"青木"},
{"zip_code":"6580072","kana_pref":"ﾋｮｳｺﾞｹﾝ","kana_city":"ｺｳﾍﾞｼﾋｶﾞｼﾅﾀﾞｸ","kana_address":"ｵｶﾓﾄ","pref":"兵庫県","city":"神戸市東灘区","address":"岡本"},
{"zip_code":"6580064","kana_pref":"ﾋｮｳｺﾞｹﾝ","kana_city":"ｺｳﾍﾞｼﾋｶﾞｼﾅﾀﾞｸ","kana_address":"ｶﾓｺｶﾞﾊﾗ","pref":"兵庫県","city":"神戸市東灘区","address":"鴨子ケ原"},
{"zip_code":"6580014","kana_pref":"ﾋｮｳｺﾞｹﾝ","kana_city":"ｺｳﾍﾞｼﾋｶﾞｼﾅﾀﾞｸ","kana_address":"ｷﾀｵｳｷﾞ","pref":"兵庫県","city":"神戸市東灘区","address":"北青木"},
{"zip_code":"6580002","kana_pref":"ﾋｮｳｺﾞｹﾝ","kana_city":"ｺｳﾍﾞｼﾋｶﾞｼﾅﾀﾞｸ","kana_address":"ｺｳﾅﾝﾀﾞｲ","pref":"兵庫県","city":"神戸市東灘区","address":"甲南台"},
{"zip_code":"6580084","kana_pref":"ﾋｮｳｺﾞｹﾝ","kana_city":"ｺｳﾍﾞｼﾋｶﾞｼﾅﾀﾞｸ","kana_address":"ｺｳﾅﾝﾁｮｳ","pref":"兵庫県","city":"神戸市東灘区","address":"甲南町"},
{"zip_code":"6580032","kana_pref":"ﾋｮｳｺﾞｹﾝ","kana_city":"ｺｳﾍﾞｼﾋｶﾞｼﾅﾀﾞｸ","kana_address":"ｺｳﾖｳﾁｮｳﾅｶ","pref":"兵庫県","city":"神戸市東灘区","address":"向洋町中"},
{"zip_code":"6580031","kana_pref":"ﾋｮｳｺﾞｹﾝ","kana_city":"ｺｳﾍﾞｼﾋｶﾞｼﾅﾀﾞｸ","kana_address":"ｺｳﾖｳﾁｮｳﾋｶﾞｼ","pref":"兵庫県","city":"神戸市東灘区","address":"向洋町東"},
{"zip_code":"6580033","kana_pref":"ﾋｮｳｺﾞｹﾝ","kana_city":"ｺｳﾍﾞｼﾋｶﾞｼﾅﾀﾞｸ","kana_address":"ｺｳﾖｳﾁｮｳﾆｼ","pref":"兵庫県","city":"神戸市東灘区","address":"向洋町西"},
{"zip_code":"6580062","kana_pref":"ﾋｮｳｺﾞｹﾝ","kana_city":"ｺｳﾍﾞｼﾋｶﾞｼﾅﾀﾞｸ","kana_address":"ｽﾐﾖｼﾀﾞｲ","pref":"兵庫県","city":"神戸市東灘区","address":"住吉台"},
{"zip_code":"6580042","kana_pref":"ﾋｮｳｺﾞｹﾝ","kana_city":"ｺｳﾍﾞｼﾋｶﾞｼﾅﾀﾞｸ","kana_address":"ｽﾐﾖｼﾊﾏﾏﾁ","pref":"兵庫県","city":"神戸市東灘区","address":"住吉浜町"},
{"zip_code":"6580051","kana_pref":"ﾋｮｳｺﾞｹﾝ","kana_city":"ｺｳﾍﾞｼﾋｶﾞｼﾅﾀﾞｸ","kana_address":"ｽﾐﾖｼﾎﾝﾏﾁ","pref":"兵庫県","city":"神戸市東灘区","address":"住吉本町"},
{"zip_code":"6580052","kana_pref":"ﾋｮｳｺﾞｹﾝ","kana_city":"ｺｳﾍﾞｼﾋｶﾞｼﾅﾀﾞｸ","kana_address":"ｽﾐﾖｼﾋｶﾞｼﾏﾁ","pref":"兵庫県","city":"神戸市東灘区","address":"住吉東町"},
{"zip_code":"6580041","kana_pref":"ﾋｮｳｺﾞｹﾝ","kana_city":"ｺｳﾍﾞｼﾋｶﾞｼﾅﾀﾞｸ","kana_address":"ｽﾐﾖｼﾐﾅﾐﾏﾁ","pref":"兵庫県","city":"神戸市東灘区","address":"住吉南町"},
{"zip_code":"6580053","kana_pref":"ﾋｮｳｺﾞｹﾝ","kana_city":"ｺｳﾍﾞｼﾋｶﾞｼﾅﾀﾞｸ","kana_address":"ｽﾐﾖｼﾐﾔﾏﾁ","pref":"兵庫県","city":"神戸市東灘区","address":"住吉宮町"},
{"zip_code":"6580063","kana_pref":"ﾋｮｳｺﾞｹﾝ","kana_city":"ｺｳﾍﾞｼﾋｶﾞｼﾅﾀﾞｸ","kana_address":"ｽﾐﾖｼﾔﾏﾃ","pref":"兵庫県","city":"神戸市東灘区","address":"住吉山手"},
{"zip_code":"6580081","kana_pref":"ﾋｮｳｺﾞｹﾝ","kana_city":"ｺｳﾍﾞｼﾋｶﾞｼﾅﾀﾞｸ","kana_address":"ﾀﾅｶﾁｮｳ","pref":"兵庫県","city":"神戸市東灘区","address":"田中町"},
{"zip_code":"6580073","kana_pref":"ﾋｮｳｺﾞｹﾝ","kana_city":"ｺｳﾍﾞｼﾋｶﾞｼﾅﾀﾞｸ","kana_address":"ﾆｼｵｶﾓﾄ","pref":"兵庫県","city":"神戸市東灘区","address":"西岡本"},
{"zip_code":"6580023","kana_pref":"ﾋｮｳｺﾞｹﾝ","kana_city":"ｺｳﾍﾞｼﾋｶﾞｼﾅﾀﾞｸ","kana_address":"ﾌｶｴﾊﾏﾏﾁ","pref":"兵庫県","city":"神戸市東灘区","address":"深江浜町"},
{"zip_code":"6580021","kana_pref":"ﾋｮｳｺﾞｹﾝ","kana_city":"ｺｳﾍﾞｼﾋｶﾞｼﾅﾀﾞｸ","kana_address":"ﾌｶｴﾎﾝﾏﾁ","pref":"兵庫県","city":"神戸市東灘区","address":"深江本町"},
{"zip_code":"6580022","kana_pref":"ﾋｮｳｺﾞｹﾝ","kana_city":"ｺｳﾍﾞｼﾋｶﾞｼﾅﾀﾞｸ","kana_address":"ﾌｶｴﾐﾅﾐﾏﾁ","pref":"兵庫県","city":"神戸市東灘区","address":"深江南町"},
{"zip_code":"6580013","kana_pref":"ﾋｮｳｺﾞｹﾝ","kana_city":"ｺｳﾍﾞｼﾋｶﾞｼﾅﾀﾞｸ","kana_address":"ﾌｶｴｷﾀﾏﾁ","pref":"兵庫県","city":"神戸市東灘区","address":"深江北町"},
{"zip_code":"6580012","kana_pref":"ﾋｮｳｺﾞｹﾝ","kana_city":"ｺｳﾍﾞｼﾋｶﾞｼﾅﾀﾞｸ","kana_address":"ﾎﾝｼﾞｮｳﾁｮｳ","pref":"兵庫県","city":"神戸市東灘区","address":"本庄町"},
{"zip_code":"6580047","kana_pref":"ﾋｮｳｺﾞｹﾝ","kana_city":"ｺｳﾍﾞｼﾋｶﾞｼﾅﾀﾞｸ","kana_address":"ﾐｶｹﾞ","pref":"兵庫県","city":"神戸市東灘区","address":"御影"},
{"zip_code":"6580045","kana_pref":"ﾋｮｳｺﾞｹﾝ","kana_city":"ｺｳﾍﾞｼﾋｶﾞｼﾅﾀﾞｸ","kana_address":"ﾐｶｹﾞｲｼﾏﾁ","pref":"兵庫県","city":"神戸市東灘区","address":"御影石町"},
{"zip_code":"6580048","kana_pref":"ﾋｮｳｺﾞｹﾝ","kana_city":"ｺｳﾍﾞｼﾋｶﾞｼﾅﾀﾞｸ","kana_address":"ﾐｶｹﾞｸﾞﾝｹﾞ","pref":"兵庫県","city":"神戸市東灘区","address":"御影郡家"},
{"zip_code":"6580044","kana_pref":"ﾋｮｳｺﾞｹﾝ","kana_city":"ｺｳﾍﾞｼﾋｶﾞｼﾅﾀﾞｸ","kana_address":"ﾐｶｹﾞﾂｶﾏﾁ","pref":"兵庫県","city":"神戸市東灘区","address":"御影塚町"},
{"zip_code":"6580054","kana_pref":"ﾋｮｳｺﾞｹﾝ","kana_city":"ｺｳﾍﾞｼﾋｶﾞｼﾅﾀﾞｸ","kana_address":"ﾐｶｹﾞﾅｶﾏﾁ","pref":"兵庫県","city":"神戸市東灘区","address":"御影中町"},
{"zip_code":"6580043","kana_pref":"ﾋｮｳｺﾞｹﾝ","kana_city":"ｺｳﾍﾞｼﾋｶﾞｼﾅﾀﾞｸ","kana_address":"ﾐｶｹﾞﾊﾏﾏﾁ","pref":"兵庫県","city":"神戸市東灘区","address":"御影浜町"},
{"zip_code":"6580046","kana_pref":"ﾋｮｳｺﾞｹﾝ","kana_city":"ｺｳﾍﾞｼﾋｶﾞｼﾅﾀﾞｸ","kana_address":"ﾐｶｹﾞﾎﾝﾏﾁ","pref":"兵庫県","city":"神戸市東灘区","address":"御影本町"},
{"zip_code":"6580065","kana_pref":"ﾋｮｳｺﾞｹﾝ","kana_city":"ｺｳﾍﾞｼﾋｶﾞｼﾅﾀﾞｸ","kana_address":"ﾐｶｹﾞﾔﾏﾃ","pref":"兵庫県","city":"神戸市東灘区","address":"御影山手"},
{"zip_code":"6580003","kana_pref":"ﾋｮｳｺﾞｹﾝ","kana_city":"ｺｳﾍﾞｼﾋｶﾞｼﾅﾀﾞｸ","kana_address":"ﾓﾄﾔﾏｷﾀﾏﾁ","pref":"兵庫県","city":"神戸市東灘区","address":"本山北町"},
{"zip_code":"6580071","kana_pref":"ﾋｮｳｺﾞｹﾝ","kana_city":"ｺｳﾍﾞｼﾋｶﾞｼﾅﾀﾞｸ","kana_address":"ﾓﾄﾔﾏﾁｮｳｵｶﾓﾄ","pref":"兵庫県","city":"神戸市東灘区","address":"本山町岡本"},
{"zip_code":"6580005","kana_pref":"ﾋｮｳｺﾞｹﾝ","kana_city":"ｺｳﾍﾞｼﾋｶﾞｼﾅﾀﾞｸ","kana_address":"ﾓﾄﾔﾏﾁｮｳｷﾀﾊﾀ","pref":"兵庫県","city":"神戸市東灘区","address":"本山町北畑"},
{"zip_code":"6580061","kana_pref":"ﾋｮｳｺﾞｹﾝ","kana_city":"ｺｳﾍﾞｼﾋｶﾞｼﾅﾀﾞｸ","kana_address":"ﾓﾄﾔﾏﾁｮｳﾀﾅｶ","pref":"兵庫県","city":"神戸市東灘区","address":"本山町田中"},
{"zip_code":"6580004","kana_pref":"ﾋｮｳｺﾞｹﾝ","kana_city":"ｺｳﾍﾞｼﾋｶﾞｼﾅﾀﾞｸ","kana_address":"ﾓﾄﾔﾏﾁｮｳﾀﾅﾍﾞ","pref":"兵庫県","city":"神戸市東灘区","address":"本山町田辺"},
{"zip_code":"6580016","kana_pref":"ﾋｮｳｺﾞｹﾝ","kana_city":"ｺｳﾍﾞｼﾋｶﾞｼﾅﾀﾞｸ","kana_address":"ﾓﾄﾔﾏﾅｶﾏﾁ","pref":"兵庫県","city":"神戸市東灘区","address":"本山中町"},
{"zip_code":"6580015","kana_pref":"ﾋｮｳｺﾞｹﾝ","kana_city":"ｺｳﾍﾞｼﾋｶﾞｼﾅﾀﾞｸ","kana_address":"ﾓﾄﾔﾏﾐﾅﾐﾏﾁ","pref":"兵庫県","city":"神戸市東灘区","address":"本山南町"},
{"zip_code":"6580001","kana_pref":"ﾋｮｳｺﾞｹﾝ","kana_city":"ｺｳﾍﾞｼﾋｶﾞｼﾅﾀﾞｸ","kana_address":"ﾓﾘｷﾀﾏﾁ","pref":"兵庫県","city":"神戸市東灘区","address":"森北町"},
{"zip_code":"6580011","kana_pref":"ﾋｮｳｺﾞｹﾝ","kana_city":"ｺｳﾍﾞｼﾋｶﾞｼﾅﾀﾞｸ","kana_address":"ﾓﾘﾐﾅﾐﾏﾁ","pref":"兵庫県","city":"神戸市東灘区","address":"森南町"}]}