{"zip_code":[
{"zip_code":"6590000","kana_pref":"ﾋｮｳｺﾞｹﾝ","kana_city":"ｱｼﾔｼ","kana_address":"","pref":"兵庫県","city":"芦屋市","address":""},
{"zip_code":"6590012","kana_pref":"ﾋｮｳｺﾞｹﾝ","kana_city":"ｱｼﾔｼ","kana_address":"ｱｻﾋｶﾞｵｶﾁｮｳ","pref":"兵庫県","city":"芦屋市","address":"朝日ケ丘町"},
{"zip_code":"6590052","kana_pref":"ﾋｮｳｺﾞｹﾝ","kana_city":"ｱｼﾔｼ","kana_address":"ｲｾﾁｮｳ","pref":"兵庫県","city":"芦屋市","address":"伊勢町"},
{"zip_code":"6590013","kana_pref":"ﾋｮｳｺﾞｹﾝ","kana_city":"ｱｼﾔｼ","kana_address":"ｲﾜｿﾞﾉﾁｮｳ","pref":"兵庫県","city":"芦屋市","address":"岩園町"},
{"zip_code":"6590028","kana_pref":"ﾋｮｳｺﾞｹﾝ","kana_city":"ｱｼﾔｼ","kana_address":"ｳﾁﾃﾞｺﾂﾞﾁﾁｮｳ","pref":"兵庫県","city":"芦屋市","address":"打出小槌町"},
{"zip_code":"6590022","kana_pref":"ﾋｮｳｺﾞｹﾝ","kana_city":"ｱｼﾔｼ","kana_address":"ｳﾁﾃﾞﾁｮｳ","pref":"兵庫県","city":"芦屋市","address":"打出町"},
{"zip_code":"6590092","kana_pref":"ﾋｮｳｺﾞｹﾝ","kana_city":"ｱｼﾔｼ","kana_address":"ｵｵﾊﾗﾁｮｳ","pref":"兵庫県","city":"芦屋市","address":"大原町"},
{"zip_code":"6590066","kana_pref":"ﾋｮｳｺﾞｹﾝ","kana_city":"ｱｼﾔｼ","kana_address":"ｵｵﾏｽﾁｮｳ","pref":"兵庫県","city":"芦屋市","address":"大桝町"},
{"zip_code":"6590003","kana_pref":"ﾋｮｳｺﾞｹﾝ","kana_city":"ｱｼﾔｼ","kana_address":"ｵｸｲｹﾁｮｳ","pref":"兵庫県","city":"芦屋市","address":"奥池町"},
{"zip_code":"6590004","kana_pref":"ﾋｮｳｺﾞｹﾝ","kana_city":"ｱｼﾔｼ","kana_address":"ｵｸｲｹﾐﾅﾐﾁｮｳ","pref":"兵庫県","city":"芦屋市","address":"奥池南町"},
{"zip_code":"6590002","kana_pref":"ﾋｮｳｺﾞｹﾝ","kana_city":"ｱｼﾔｼ","kana_address":"ｵｸﾔﾏ","pref":"兵庫県","city":"芦屋市","address":"奥山"},
{"zip_code":"6590035","kana_pref":"ﾋｮｳｺﾞｹﾝ","kana_city":"ｱｼﾔｼ","kana_address":"ｶｲﾖｳﾁｮｳ","pref":"兵庫県","city":"芦屋市","address":"海洋町"},
{"zip_code":"6590021","kana_pref":"ﾋｮｳｺﾞｹﾝ","kana_city":"ｱｼﾔｼ","kana_address":"ｶｽｶﾞﾁｮｳ","pref":"兵庫県","city":"芦屋市","address":"春日町"},
{"zip_code":"6590061","kana_pref":"ﾋｮｳｺﾞｹﾝ","kana_city":"ｱｼﾔｼ","kana_address":"ｶﾐﾐﾔｶﾞﾜﾁｮｳ","pref":"兵庫県","city":"芦屋市","address":"上宮川町"},
{"zip_code":"6590072","kana_pref":"ﾋｮｳｺﾞｹﾝ","kana_city":"ｱｼﾔｼ","kana_address":"ｶﾜﾆｼﾁｮｳ","pref":"兵庫県","city":"芦屋市","address":"川西町"},
{"zip_code":"6590065","kana_pref":"ﾋｮｳｺﾞｹﾝ","kana_city":"ｱｼﾔｼ","kana_address":"ｷﾝﾐﾂﾁｮｳ","pref":"兵庫県","city":"芦屋市","address":"公光町"},
{"zip_code":"6590015","kana_pref":"ﾋｮｳｺﾞｹﾝ","kana_city":"ｱｼﾔｼ","kana_address":"ｸｽﾉｷﾁｮｳ","pref":"兵庫県","city":"芦屋市","address":"楠町"},
{"zip_code":"6590051","kana_pref":"ﾋｮｳｺﾞｹﾝ","kana_city":"ｱｼﾔｼ","kana_address":"ｸﾚｶﾜﾁｮｳ","pref":"兵庫県","city":"芦屋市","address":"呉川町"},
{"zip_code":"6590001","kana_pref":"ﾋｮｳｺﾞｹﾝ","kana_city":"ｱｼﾔｼ","kana_address":"ｹﾝﾀﾆ","pref":"兵庫県","city":"芦屋市","address":"剣谷"},
{"zip_code":"6590087","kana_pref":"ﾋｮｳｺﾞｹﾝ","kana_city":"ｱｼﾔｼ","kana_address":"ｻﾝｼﾞｮｳﾁｮｳ","pref":"兵庫県","city":"芦屋市","address":"三条町"},
{"zip_code":"6590086","kana_pref":"ﾋｮｳｺﾞｹﾝ","kana_city":"ｱｼﾔｼ","kana_address":"ｻﾝｼﾞｮｳﾐﾅﾐﾁｮｳ","pref":"兵庫県","city":"芦屋市","address":"三条南町"},
{"zip_code":"6590043","kana_pref":"ﾋｮｳｺﾞｹﾝ","kana_city":"ｱｼﾔｼ","kana_address":"ｼｵﾐﾁｮｳ","pref":"兵庫県","city":"芦屋市","address":"潮見町"},
{"zip_code":"6590076","kana_pref":"ﾋｮｳｺﾞｹﾝ","kana_city":"ｱｼﾔｼ","kana_address":"ｼﾐｽﾞﾁｮｳ","pref":"兵庫県","city":"芦屋市","address":"清水町"},
{"zip_code":"6590081","kana_pref":"ﾋｮｳｺﾞｹﾝ","kana_city":"ｱｼﾔｼ","kana_address":"ｼﾛﾔﾏ","pref":"兵庫県","city":"芦屋市","address":"城山"},
{"zip_code":"6590016","kana_pref":"ﾋｮｳｺﾞｹﾝ","kana_city":"ｱｼﾔｼ","kana_address":"ｼﾝﾉｳﾂﾞｶﾁｮｳ","pref":"兵庫県","city":"芦屋市","address":"親王塚町"},
{"zip_code":"6590036","kana_pref":"ﾋｮｳｺﾞｹﾝ","kana_city":"ｱｼﾔｼ","kana_address":"ｽｽﾞｶｾﾞﾁｮｳ","pref":"兵庫県","city":"芦屋市","address":"涼風町"},
{"zip_code":"6590064","kana_pref":"ﾋｮｳｺﾞｹﾝ","kana_city":"ｱｼﾔｼ","kana_address":"ｾｲﾄﾞｳﾁｮｳ","pref":"兵庫県","city":"芦屋市","address":"精道町"},
{"zip_code":"6590023","kana_pref":"ﾋｮｳｺﾞｹﾝ","kana_city":"ｱｼﾔｼ","kana_address":"ﾀﾞｲﾄｳﾁｮｳ","pref":"兵庫県","city":"芦屋市","address":"大東町"},
{"zip_code":"6590033","kana_pref":"ﾋｮｳｺﾞｹﾝ","kana_city":"ｱｼﾔｼ","kana_address":"ﾀｶﾊﾏﾁｮｳ","pref":"兵庫県","city":"芦屋市","address":"高浜町"},
{"zip_code":"6590055","kana_pref":"ﾋｮｳｺﾞｹﾝ","kana_city":"ｱｼﾔｼ","kana_address":"ﾀｹｿﾞﾉﾁｮｳ","pref":"兵庫県","city":"芦屋市","address":"竹園町"},
{"zip_code":"6590067","kana_pref":"ﾋｮｳｺﾞｹﾝ","kana_city":"ｱｼﾔｼ","kana_address":"ﾁｬﾔﾉﾁｮｳ","pref":"兵庫県","city":"芦屋市","address":"茶屋之町"},
{"zip_code":"6590084","kana_pref":"ﾋｮｳｺﾞｹﾝ","kana_city":"ｱｼﾔｼ","kana_address":"ﾂｷﾜｶﾁｮｳ","pref":"兵庫県","city":"芦屋市","address":"月若町"},
{"zip_code":"6590075","kana_pref":"ﾋｮｳｺﾞｹﾝ","kana_city":"ｱｼﾔｼ","kana_address":"ﾂﾁﾁｮｳ","pref":"兵庫県","city":"芦屋市","address":"津知町"},
{"zip_code":"6590068","kana_pref":"ﾋｮｳｺﾞｹﾝ","kana_city":"ｱｼﾔｼ","kana_address":"ﾅﾘﾋﾗﾁｮｳ","pref":"兵庫県","city":"芦屋市","address":"業平町"},
{"zip_code":"6590024","kana_pref":"ﾋｮｳｺﾞｹﾝ","kana_city":"ｱｼﾔｼ","kana_address":"ﾅﾝｸﾞｳﾁｮｳ","pref":"兵庫県","city":"芦屋市","address":"南宮町"},
{"zip_code":"6590031","kana_pref":"ﾋｮｳｺﾞｹﾝ","kana_city":"ｱｼﾔｼ","kana_address":"ﾆｲﾊﾏﾁｮｳ","pref":"兵庫県","city":"芦屋市","address":"新浜町"},
{"zip_code":"6590085","kana_pref":"ﾋｮｳｺﾞｹﾝ","kana_city":"ｱｼﾔｼ","kana_address":"ﾆｼｱｼﾔﾁｮｳ","pref":"兵庫県","city":"芦屋市","address":"西芦屋町"},
{"zip_code":"6590026","kana_pref":"ﾋｮｳｺﾞｹﾝ","kana_city":"ｱｼﾔｼ","kana_address":"ﾆｼｸﾗﾁｮｳ","pref":"兵庫県","city":"芦屋市","address":"西蔵町"},
{"zip_code":"6590083","kana_pref":"ﾋｮｳｺﾞｹﾝ","kana_city":"ｱｼﾔｼ","kana_address":"ﾆｼﾔﾏﾁｮｳ","pref":"兵庫県","city":"芦屋市","address":"西山町"},
{"zip_code":"6590054","kana_pref":"ﾋｮｳｺﾞｹﾝ","kana_city":"ｱｼﾔｼ","kana_address":"ﾊﾏｱｼﾔﾁｮｳ","pref":"兵庫県","city":"芦屋市","address":"浜芦屋町"},
{"zip_code":"6590032","kana_pref":"ﾋｮｳｺﾞｹﾝ","kana_city":"ｱｼﾔｼ","kana_address":"ﾊﾏｶｾﾞﾁｮｳ","pref":"兵庫県","city":"芦屋市","address":"浜風町"},
{"zip_code":"6590025","kana_pref":"ﾋｮｳｺﾞｹﾝ","kana_city":"ｱｼﾔｼ","kana_address":"ﾊﾏﾁｮｳ","pref":"兵庫県","city":"芦屋市","address":"浜町"},
{"zip_code":"6590095","kana_pref":"ﾋｮｳｺﾞｹﾝ","kana_city":"ｱｼﾔｼ","kana_address":"ﾋｶﾞｼｱｼﾔﾁｮｳ","pref":"兵庫県","city":"芦屋市","address":"東芦屋町"},
{"zip_code":"6590091","kana_pref":"ﾋｮｳｺﾞｹﾝ","kana_city":"ｱｼﾔｼ","kana_address":"ﾋｶﾞｼﾔﾏﾁｮｳ","pref":"兵庫県","city":"芦屋市","address":"東山町"},
{"zip_code":"6590073","kana_pref":"ﾋｮｳｺﾞｹﾝ","kana_city":"ｱｼﾔｼ","kana_address":"ﾋﾗﾀｷﾀﾁｮｳ","pref":"兵庫県","city":"芦屋市","address":"平田北町"},
{"zip_code":"6590074","kana_pref":"ﾋｮｳｺﾞｹﾝ","kana_city":"ｱｼﾔｼ","kana_address":"ﾋﾗﾀﾁｮｳ","pref":"兵庫県","city":"芦屋市","address":"平田町"},
{"zip_code":"6590093","kana_pref":"ﾋｮｳｺﾞｹﾝ","kana_city":"ｱｼﾔｼ","kana_address":"ﾌﾅﾄﾞﾁｮｳ","pref":"兵庫県","city":"芦屋市","address":"船戸町"},
{"zip_code":"6590071","kana_pref":"ﾋｮｳｺﾞｹﾝ","kana_city":"ｱｼﾔｼ","kana_address":"ﾏｴﾀﾞﾁｮｳ","pref":"兵庫県","city":"芦屋市","address":"前田町"},
{"zip_code":"6590094","kana_pref":"ﾋｮｳｺﾞｹﾝ","kana_city":"ｱｼﾔｼ","kana_address":"ﾏﾂﾉｳﾁﾁｮｳ","pref":"兵庫県","city":"芦屋市","address":"松ノ内町"},
{"zip_code":"6590053","kana_pref":"ﾋｮｳｺﾞｹﾝ","kana_city":"ｱｼﾔｼ","kana_address":"ﾏﾂﾊﾏﾁｮｳ","pref":"兵庫県","city":"芦屋市","address":"松浜町"},
{"zip_code":"6590014","kana_pref":"ﾋｮｳｺﾞｹﾝ","kana_city":"ｱｼﾔｼ","kana_address":"ﾐﾄﾞﾘｶﾞｵｶﾁｮｳ","pref":"兵庫県","city":"芦屋市","address":"翠ケ丘町"},
{"zip_code":"6590042","kana_pref":"ﾋｮｳｺﾞｹﾝ","kana_city":"ｱｼﾔｼ","kana_address":"ﾐﾄﾞﾘﾁｮｳ","pref":"兵庫県","city":"芦屋市","address":"緑町"},
{"zip_code":"6590037","kana_pref":"ﾋｮｳｺﾞｹﾝ","kana_city":"ｱｼﾔｼ","kana_address":"ﾐﾅﾐﾊﾏﾁｮｳ","pref":"兵庫県","city":"芦屋市","address":"南浜町"},
{"zip_code":"6590063","kana_pref":"ﾋｮｳｺﾞｹﾝ","kana_city":"ｱｼﾔｼ","kana_address":"ﾐﾔｶﾞﾜﾁｮｳ","pref":"兵庫県","city":"芦屋市","address":"宮川町"},
{"zip_code":"6590062","kana_pref":"ﾋｮｳｺﾞｹﾝ","kana_city":"ｱｼﾔｼ","kana_address":"ﾐﾔﾂﾞｶﾁｮｳ","pref":"兵庫県","city":"芦屋市","address":"宮塚町"},
{"zip_code":"6590082","kana_pref":"ﾋｮｳｺﾞｹﾝ","kana_city":"ｱｼﾔｼ","kana_address":"ﾔﾏｱｼﾔﾁｮｳ","pref":"兵庫県","city":"芦屋市","address":"山芦屋町"},
{"zip_code":"6590096","kana_pref":"ﾋｮｳｺﾞｹﾝ","kana_city":"ｱｼﾔｼ","kana_address":"ﾔﾏﾃﾁｮｳ","pref":"兵庫県","city":"芦屋市","address":"山手町"},
{"zip_code":"6590034","kana_pref":"ﾋｮｳｺﾞｹﾝ","kana_city":"ｱｼﾔｼ","kana_address":"ﾖｳｺｳﾁｮｳ","pref":"兵庫県","city":"芦屋市","address":"陽光町"},
{"zip_code":"6590011","kana_pref":"ﾋｮｳｺﾞｹﾝ","kana_city":"ｱｼﾔｼ","kana_address":"ﾛｸﾛｸｿｳﾁｮｳ","pref":"兵庫県","city":"芦屋市","address":"六麓荘町"},
{"zip_code":"6590041","kana_pref":"ﾋｮｳｺﾞｹﾝ","kana_city":"ｱｼﾔｼ","kana_address":"ﾜｶﾊﾞﾁｮｳ","pref":"兵庫県","city":"芦屋市","address":"若葉町"},
{"zip_code":"6590027","kana_pref":"ﾋｮｳｺﾞｹﾝ","kana_city":"ｱｼﾔｼ","kana_address":"ﾜｶﾐﾔﾁｮｳ","pref":"兵庫県","city":"芦屋市","address":"若宮町"}]}