{"zip_code":[
{"zip_code":"6600000","kana_pref":"ﾋｮｳｺﾞｹﾝ","kana_city":"ｱﾏｶﾞｻｷｼ","kana_address":"","pref":"兵庫県","city":"尼崎市","address":""},
{"zip_code":"6600064","kana_pref":"ﾋｮｳｺﾞｹﾝ","kana_city":"ｱﾏｶﾞｻｷｼ","kana_address":"ｲﾅﾊﾞｿｳ","pref":"兵庫県","city":"尼崎市","address":"稲葉荘"},
{"zip_code":"6600055","kana_pref":"ﾋｮｳｺﾞｹﾝ","kana_city":"ｱﾏｶﾞｻｷｼ","kana_address":"ｲﾅﾊﾞﾓﾄﾏﾁ","pref":"兵庫県","city":"尼崎市","address":"稲葉元町"},
{"zip_code":"6600812","kana_pref":"ﾋｮｳｺﾞｹﾝ","kana_city":"ｱﾏｶﾞｻｷｼ","kana_address":"ｲﾏﾌｸ","pref":"兵庫県","city":"尼崎市","address":"今福"},
{"zip_code":"6600096","kana_pref":"ﾋｮｳｺﾞｹﾝ","kana_city":"ｱﾏｶﾞｻｷｼ","kana_address":"ｵｳｷﾞﾏﾁ","pref":"兵庫県","city":"尼崎市","address":"扇町"},
{"zip_code":"6600076","kana_pref":"ﾋｮｳｺﾞｹﾝ","kana_city":"ｱﾏｶﾞｻｷｼ","kana_address":"ｵｵｼﾏ","pref":"兵庫県","city":"尼崎市","address":"大島"},
{"zip_code":"6600072","kana_pref":"ﾋｮｳｺﾞｹﾝ","kana_city":"ｱﾏｶﾞｻｷｼ","kana_address":"ｵｵｼｮｳｶﾜﾀﾁｮｳ","pref":"兵庫県","city":"尼崎市","address":"大庄川田町"},
{"zip_code":"6600075","kana_pref":"ﾋｮｳｺﾞｹﾝ","kana_city":"ｱﾏｶﾞｻｷｼ","kana_address":"ｵｵｼｮｳﾅｶﾄﾞｵﾘ","pref":"兵庫県","city":"尼崎市","address":"大庄中通"},
{"zip_code":"6600077","kana_pref":"ﾋｮｳｺﾞｹﾝ","kana_city":"ｱﾏｶﾞｻｷｼ","kana_address":"ｵｵｼｮｳﾆｼﾏﾁ","pref":"兵庫県","city":"尼崎市","address":"大庄西町"},
{"zip_code":"6600063","kana_pref":"ﾋｮｳｺﾞｹﾝ","kana_city":"ｱﾏｶﾞｻｷｼ","kana_address":"ｵｵｼｮｳｷﾀ","pref":"兵庫県","city":"尼崎市","address":"大庄北"},
{"zip_code":"6600842","kana_pref":"ﾋｮｳｺﾞｹﾝ","kana_city":"ｱﾏｶﾞｻｷｼ","kana_address":"ｵｵﾀｶｽﾁｮｳ","pref":"兵庫県","city":"尼崎市","address":"大高洲町"},
{"zip_code":"6600095","kana_pref":"ﾋｮｳｺﾞｹﾝ","kana_city":"ｱﾏｶﾞｻｷｼ","kana_address":"ｵｵﾊﾏﾁｮｳ","pref":"兵庫県","city":"尼崎市","address":"大浜町"},
{"zip_code":"6600862","kana_pref":"ﾋｮｳｺﾞｹﾝ","kana_city":"ｱﾏｶﾞｻｷｼ","kana_address":"ｶｲﾒｲﾁｮｳ","pref":"兵庫県","city":"尼崎市","address":"開明町"},
{"zip_code":"6600821","kana_pref":"ﾋｮｳｺﾞｹﾝ","kana_city":"ｱﾏｶﾞｻｷｼ","kana_address":"ｶｼﾞｶﾞｼﾏ","pref":"兵庫県","city":"尼崎市","address":"梶ケ島"},
{"zip_code":"6600884","kana_pref":"ﾋｮｳｺﾞｹﾝ","kana_city":"ｱﾏｶﾞｻｷｼ","kana_address":"ｶﾝﾀﾞﾅｶﾄﾞｵﾘ","pref":"兵庫県","city":"尼崎市","address":"神田中通"},
{"zip_code":"6600885","kana_pref":"ﾋｮｳｺﾞｹﾝ","kana_city":"ｱﾏｶﾞｻｷｼ","kana_address":"ｶﾝﾀﾞﾐﾅﾐﾄﾞｵﾘ","pref":"兵庫県","city":"尼崎市","address":"神田南通"},
{"zip_code":"6600883","kana_pref":"ﾋｮｳｺﾞｹﾝ","kana_city":"ｱﾏｶﾞｻｷｼ","kana_address":"ｶﾝﾀﾞｷﾀﾄﾞｵﾘ","pref":"兵庫県","city":"尼崎市","address":"神田北通"},
{"zip_code":"6600826","kana_pref":"ﾋｮｳｺﾞｹﾝ","kana_city":"ｱﾏｶﾞｻｷｼ","kana_address":"ｷﾀｼﾞｮｳﾅｲ","pref":"兵庫県","city":"尼崎市","address":"北城内"},
{"zip_code":"6600878","kana_pref":"ﾋｮｳｺﾞｹﾝ","kana_city":"ｱﾏｶﾞｻｷｼ","kana_address":"ｷﾀﾀｹﾔﾁｮｳ","pref":"兵庫県","city":"尼崎市","address":"北竹谷町"},
{"zip_code":"6600804","kana_pref":"ﾋｮｳｺﾞｹﾝ","kana_city":"ｱﾏｶﾞｻｷｼ","kana_address":"ｷﾀﾀﾞｲﾓﾂﾁｮｳ","pref":"兵庫県","city":"尼崎市","address":"北大物町"},
{"zip_code":"6600834","kana_pref":"ﾋｮｳｺﾞｹﾝ","kana_city":"ｱﾏｶﾞｻｷｼ","kana_address":"ｷﾀﾊﾂｼﾏﾁｮｳ","pref":"兵庫県","city":"尼崎市","address":"北初島町"},
{"zip_code":"6600806","kana_pref":"ﾋｮｳｺﾞｹﾝ","kana_city":"ｱﾏｶﾞｻｷｼ","kana_address":"ｷﾝﾗｸｼﾞﾁｮｳ","pref":"兵庫県","city":"尼崎市","address":"金楽寺町"},
{"zip_code":"6600813","kana_pref":"ﾋｮｳｺﾞｹﾝ","kana_city":"ｱﾏｶﾞｻｷｼ","kana_address":"ｸｲｾﾃﾗｼﾞﾏ","pref":"兵庫県","city":"尼崎市","address":"杭瀬寺島"},
{"zip_code":"6600814","kana_pref":"ﾋｮｳｺﾞｹﾝ","kana_city":"ｱﾏｶﾞｻｷｼ","kana_address":"ｸｲｾﾎﾝﾏﾁ","pref":"兵庫県","city":"尼崎市","address":"杭瀬本町"},
{"zip_code":"6600822","kana_pref":"ﾋｮｳｺﾞｹﾝ","kana_city":"ｱﾏｶﾞｻｷｼ","kana_address":"ｸｲｾﾐﾅﾐｼﾝﾏﾁ","pref":"兵庫県","city":"尼崎市","address":"杭瀬南新町"},
{"zip_code":"6600815","kana_pref":"ﾋｮｳｺﾞｹﾝ","kana_city":"ｱﾏｶﾞｻｷｼ","kana_address":"ｸｲｾｷﾀｼﾝﾏﾁ","pref":"兵庫県","city":"尼崎市","address":"杭瀬北新町"},
{"zip_code":"6600873","kana_pref":"ﾋｮｳｺﾞｹﾝ","kana_city":"ｱﾏｶﾞｻｷｼ","kana_address":"ｹﾞﾝﾊﾞﾝﾐﾅﾐﾉﾁｮｳ","pref":"兵庫県","city":"尼崎市","address":"玄番南之町"},
{"zip_code":"6600872","kana_pref":"ﾋｮｳｺﾞｹﾝ","kana_city":"ｱﾏｶﾞｻｷｼ","kana_address":"ｹﾞﾝﾊﾞﾝｷﾀﾉﾁｮｳ","pref":"兵庫県","city":"尼崎市","address":"玄番北之町"},
{"zip_code":"6600074","kana_pref":"ﾋｮｳｺﾞｹﾝ","kana_city":"ｱﾏｶﾞｻｷｼ","kana_address":"ｺﾄｳﾗﾁｮｳ","pref":"兵庫県","city":"尼崎市","address":"琴浦町"},
{"zip_code":"6600808","kana_pref":"ﾋｮｳｺﾞｹﾝ","kana_city":"ｱﾏｶﾞｻｷｼ","kana_address":"ｼｵｴ","pref":"兵庫県","city":"尼崎市","address":"潮江"},
{"zip_code":"6600866","kana_pref":"ﾋｮｳｺﾞｹﾝ","kana_city":"ｱﾏｶﾞｻｷｼ","kana_address":"ｼｵﾏﾁ","pref":"兵庫県","city":"尼崎市","address":"汐町"},
{"zip_code":"6600811","kana_pref":"ﾋｮｳｺﾞｹﾝ","kana_city":"ｱﾏｶﾞｻｷｼ","kana_address":"ｼﾞｮｳｺｳｼﾞ","pref":"兵庫県","city":"尼崎市","address":"常光寺"},
{"zip_code":"6600881","kana_pref":"ﾋｮｳｺﾞｹﾝ","kana_city":"ｱﾏｶﾞｻｷｼ","kana_address":"ｼｮｳﾜﾄﾞｵﾘ","pref":"兵庫県","city":"尼崎市","address":"昭和通"},
{"zip_code":"6600882","kana_pref":"ﾋｮｳｺﾞｹﾝ","kana_city":"ｱﾏｶﾞｻｷｼ","kana_address":"ｼｮｳﾜﾐﾅﾐﾄﾞｵﾘ","pref":"兵庫県","city":"尼崎市","address":"昭和南通"},
{"zip_code":"6600082","kana_pref":"ﾋｮｳｺﾞｹﾝ","kana_city":"ｱﾏｶﾞｻｷｼ","kana_address":"ｽｲﾒｲﾁｮｳ","pref":"兵庫県","city":"尼崎市","address":"水明町"},
{"zip_code":"6600094","kana_pref":"ﾋｮｳｺﾞｹﾝ","kana_city":"ｱﾏｶﾞｻｷｼ","kana_address":"ｽｴﾋﾛﾁｮｳ","pref":"兵庫県","city":"尼崎市","address":"末広町"},
{"zip_code":"6600071","kana_pref":"ﾋｮｳｺﾞｹﾝ","kana_city":"ｱﾏｶﾞｻｷｼ","kana_address":"ｽﾄｸｲﾝ","pref":"兵庫県","city":"尼崎市","address":"崇徳院"},
{"zip_code":"6600823","kana_pref":"ﾋｮｳｺﾞｹﾝ","kana_city":"ｱﾏｶﾞｻｷｼ","kana_address":"ﾀﾞｲﾓﾂﾁｮｳ","pref":"兵庫県","city":"尼崎市","address":"大物町"},
{"zip_code":"6600876","kana_pref":"ﾋｮｳｺﾞｹﾝ","kana_city":"ｱﾏｶﾞｻｷｼ","kana_address":"ﾀｹﾔﾁｮｳ","pref":"兵庫県","city":"尼崎市","address":"竹谷町"},
{"zip_code":"6600871","kana_pref":"ﾋｮｳｺﾞｹﾝ","kana_city":"ｱﾏｶﾞｻｷｼ","kana_address":"ﾀﾃﾔﾁｮｳ","pref":"兵庫県","city":"尼崎市","address":"建家町"},
{"zip_code":"6600858","kana_pref":"ﾋｮｳｺﾞｹﾝ","kana_city":"ｱﾏｶﾞｻｷｼ","kana_address":"ﾂｷｼﾞ","pref":"兵庫県","city":"尼崎市","address":"築地"},
{"zip_code":"6600092","kana_pref":"ﾋｮｳｺﾞｹﾝ","kana_city":"ｱﾏｶﾞｻｷｼ","kana_address":"ﾂﾙﾏﾁ","pref":"兵庫県","city":"尼崎市","address":"鶴町"},
{"zip_code":"6600867","kana_pref":"ﾋｮｳｺﾞｹﾝ","kana_city":"ｱﾏｶﾞｻｷｼ","kana_address":"ﾃﾗﾏﾁ","pref":"兵庫県","city":"尼崎市","address":"寺町"},
{"zip_code":"6600083","kana_pref":"ﾋｮｳｺﾞｹﾝ","kana_city":"ｱﾏｶﾞｻｷｼ","kana_address":"ﾄﾞｲﾁｮｳ","pref":"兵庫県","city":"尼崎市","address":"道意町"},
{"zip_code":"6600851","kana_pref":"ﾋｮｳｺﾞｹﾝ","kana_city":"ｱﾏｶﾞｻｷｼ","kana_address":"ﾅｶｻﾞｲｹﾁｮｳ","pref":"兵庫県","city":"尼崎市","address":"中在家町"},
{"zip_code":"6600091","kana_pref":"ﾋｮｳｺﾞｹﾝ","kana_city":"ｱﾏｶﾞｻｷｼ","kana_address":"ﾅｶﾊﾏﾁｮｳ","pref":"兵庫県","city":"尼崎市","address":"中浜町"},
{"zip_code":"6600802","kana_pref":"ﾋｮｳｺﾞｹﾝ","kana_city":"ｱﾏｶﾞｻｷｼ","kana_address":"ﾅｶﾞｽﾅｶﾄﾞｵﾘ","pref":"兵庫県","city":"尼崎市","address":"長洲中通"},
{"zip_code":"6600801","kana_pref":"ﾋｮｳｺﾞｹﾝ","kana_city":"ｱﾏｶﾞｻｷｼ","kana_address":"ﾅｶﾞｽﾋｶﾞｼﾄﾞｵﾘ","pref":"兵庫県","city":"尼崎市","address":"長洲東通"},
{"zip_code":"6600807","kana_pref":"ﾋｮｳｺﾞｹﾝ","kana_city":"ｱﾏｶﾞｻｷｼ","kana_address":"ﾅｶﾞｽﾆｼﾄﾞｵﾘ","pref":"兵庫県","city":"尼崎市","address":"長洲西通"},
{"zip_code":"6600803","kana_pref":"ﾋｮｳｺﾞｹﾝ","kana_city":"ｱﾏｶﾞｻｷｼ","kana_address":"ﾅｶﾞｽﾎﾝﾄﾞｵﾘ","pref":"兵庫県","city":"尼崎市","address":"長洲本通"},
{"zip_code":"6600073","kana_pref":"ﾋｮｳｺﾞｹﾝ","kana_city":"ｱﾏｶﾞｻｷｼ","kana_address":"ﾅｷﾘﾔﾏﾁｮｳ","pref":"兵庫県","city":"尼崎市","address":"菜切山町"},
{"zip_code":"6600052","kana_pref":"ﾋｮｳｺﾞｹﾝ","kana_city":"ｱﾏｶﾞｻｷｼ","kana_address":"ﾅﾅﾏﾂﾁｮｳ","pref":"兵庫県","city":"尼崎市","address":"七松町"},
{"zip_code":"6600093","kana_pref":"ﾋｮｳｺﾞｹﾝ","kana_city":"ｱﾏｶﾞｻｷｼ","kana_address":"ﾆｼｶｲｶﾞﾝﾁｮｳ","pref":"兵庫県","city":"尼崎市","address":"西海岸町"},
{"zip_code":"6600865","kana_pref":"ﾋｮｳｺﾞｹﾝ","kana_city":"ｱﾏｶﾞｻｷｼ","kana_address":"ﾆｼｻｸﾗｷﾞﾁｮｳ","pref":"兵庫県","city":"尼崎市","address":"西桜木町"},
{"zip_code":"6600845","kana_pref":"ﾋｮｳｺﾞｹﾝ","kana_city":"ｱﾏｶﾞｻｷｼ","kana_address":"ﾆｼﾀｶｽﾁｮｳ","pref":"兵庫県","city":"尼崎市","address":"西高洲町"},
{"zip_code":"6600054","kana_pref":"ﾋｮｳｺﾞｹﾝ","kana_city":"ｱﾏｶﾞｻｷｼ","kana_address":"ﾆｼﾀﾁﾊﾞﾅﾁｮｳ","pref":"兵庫県","city":"尼崎市","address":"西立花町"},
{"zip_code":"6600827","kana_pref":"ﾋｮｳｺﾞｹﾝ","kana_city":"ｱﾏｶﾞｻｷｼ","kana_address":"ﾆｼﾀﾞｲﾓﾂﾁｮｳ","pref":"兵庫県","city":"尼崎市","address":"西大物町"},
{"zip_code":"6600805","kana_pref":"ﾋｮｳｺﾞｹﾝ","kana_city":"ｱﾏｶﾞｻｷｼ","kana_address":"ﾆｼﾅｶﾞｽﾁｮｳ","pref":"兵庫県","city":"尼崎市","address":"西長洲町"},
{"zip_code":"6600893","kana_pref":"ﾋｮｳｺﾞｹﾝ","kana_city":"ｱﾏｶﾞｻｷｼ","kana_address":"ﾆｼﾅﾆﾜﾁｮｳ","pref":"兵庫県","city":"尼崎市","address":"西難波町"},
{"zip_code":"6600874","kana_pref":"ﾋｮｳｺﾞｹﾝ","kana_city":"ｱﾏｶﾞｻｷｼ","kana_address":"ﾆｼﾎﾝﾏﾁ","pref":"兵庫県","city":"尼崎市","address":"西本町"},
{"zip_code":"6600863","kana_pref":"ﾋｮｳｺﾞｹﾝ","kana_city":"ｱﾏｶﾞｻｷｼ","kana_address":"ﾆｼﾎﾝﾏﾁｷﾀﾄﾞｵﾘ","pref":"兵庫県","city":"尼崎市","address":"西本町北通"},
{"zip_code":"6600837","kana_pref":"ﾋｮｳｺﾞｹﾝ","kana_city":"ｱﾏｶﾞｻｷｼ","kana_address":"ﾆｼﾏﾂｼﾏﾁｮｳ","pref":"兵庫県","city":"尼崎市","address":"西松島町"},
{"zip_code":"6600868","kana_pref":"ﾋｮｳｺﾞｹﾝ","kana_city":"ｱﾏｶﾞｻｷｼ","kana_address":"ﾆｼﾐｿﾉﾁｮｳ","pref":"兵庫県","city":"尼崎市","address":"西御園町"},
{"zip_code":"6600857","kana_pref":"ﾋｮｳｺﾞｹﾝ","kana_city":"ｱﾏｶﾞｻｷｼ","kana_address":"ﾆｼﾑｺｳｼﾞﾏﾁｮｳ","pref":"兵庫県","city":"尼崎市","address":"西向島町"},
{"zip_code":"6600062","kana_pref":"ﾋｮｳｺﾞｹﾝ","kana_city":"ｱﾏｶﾞｻｷｼ","kana_address":"ﾊﾏﾀﾞﾁｮｳ","pref":"兵庫県","city":"尼崎市","address":"浜田町"},
{"zip_code":"6600843","kana_pref":"ﾋｮｳｺﾞｹﾝ","kana_city":"ｱﾏｶﾞｻｷｼ","kana_address":"ﾋｶﾞｼｶｲｶﾞﾝﾁｮｳ","pref":"兵庫県","city":"尼崎市","address":"東海岸町"},
{"zip_code":"6600864","kana_pref":"ﾋｮｳｺﾞｹﾝ","kana_city":"ｱﾏｶﾞｻｷｼ","kana_address":"ﾋｶﾞｼｻｸﾗｷﾞﾁｮｳ","pref":"兵庫県","city":"尼崎市","address":"東桜木町"},
{"zip_code":"6600841","kana_pref":"ﾋｮｳｺﾞｹﾝ","kana_city":"ｱﾏｶﾞｻｷｼ","kana_address":"ﾋｶﾞｼﾀｶｽﾁｮｳ","pref":"兵庫県","city":"尼崎市","address":"東高洲町"},
{"zip_code":"6600828","kana_pref":"ﾋｮｳｺﾞｹﾝ","kana_city":"ｱﾏｶﾞｻｷｼ","kana_address":"ﾋｶﾞｼﾀﾞｲﾓﾂﾁｮｳ","pref":"兵庫県","city":"尼崎市","address":"東大物町"},
{"zip_code":"6600051","kana_pref":"ﾋｮｳｺﾞｹﾝ","kana_city":"ｱﾏｶﾞｻｷｼ","kana_address":"ﾋｶﾞｼﾅﾅﾏﾂﾁｮｳ","pref":"兵庫県","city":"尼崎市","address":"東七松町"},
{"zip_code":"6600892","kana_pref":"ﾋｮｳｺﾞｹﾝ","kana_city":"ｱﾏｶﾞｻｷｼ","kana_address":"ﾋｶﾞｼﾅﾆﾜﾁｮｳ","pref":"兵庫県","city":"尼崎市","address":"東難波町"},
{"zip_code":"6600832","kana_pref":"ﾋｮｳｺﾞｹﾝ","kana_city":"ｱﾏｶﾞｻｷｼ","kana_address":"ﾋｶﾞｼﾊﾂｼﾏﾁｮｳ","pref":"兵庫県","city":"尼崎市","address":"東初島町"},
{"zip_code":"6600844","kana_pref":"ﾋｮｳｺﾞｹﾝ","kana_city":"ｱﾏｶﾞｻｷｼ","kana_address":"ﾋｶﾞｼﾊﾏﾁｮｳ","pref":"兵庫県","city":"尼崎市","address":"東浜町"},
{"zip_code":"6600824","kana_pref":"ﾋｮｳｺﾞｹﾝ","kana_city":"ｱﾏｶﾞｻｷｼ","kana_address":"ﾋｶﾞｼﾎﾝﾏﾁ","pref":"兵庫県","city":"尼崎市","address":"東本町"},
{"zip_code":"6600831","kana_pref":"ﾋｮｳｺﾞｹﾝ","kana_city":"ｱﾏｶﾞｻｷｼ","kana_address":"ﾋｶﾞｼﾏﾂｼﾏﾁｮｳ","pref":"兵庫県","city":"尼崎市","address":"東松島町"},
{"zip_code":"6600835","kana_pref":"ﾋｮｳｺﾞｹﾝ","kana_city":"ｱﾏｶﾞｻｷｼ","kana_address":"ﾋｶﾞｼﾑｺｳｼﾞﾏﾋｶﾞｼﾉﾁｮｳ","pref":"兵庫県","city":"尼崎市","address":"東向島東之町"},
{"zip_code":"6600856","kana_pref":"ﾋｮｳｺﾞｹﾝ","kana_city":"ｱﾏｶﾞｻｷｼ","kana_address":"ﾋｶﾞｼﾑｺｳｼﾞﾏﾆｼﾉﾁｮｳ","pref":"兵庫県","city":"尼崎市","address":"東向島西之町"},
{"zip_code":"6600891","kana_pref":"ﾋｮｳｺﾞｹﾝ","kana_city":"ｱﾏｶﾞｻｷｼ","kana_address":"ﾌｿｳﾁｮｳ","pref":"兵庫県","city":"尼崎市","address":"扶桑町"},
{"zip_code":"6600846","kana_pref":"ﾋｮｳｺﾞｹﾝ","kana_city":"ｱﾏｶﾞｻｷｼ","kana_address":"ﾌﾅﾃﾞ","pref":"兵庫県","city":"尼崎市","address":"船出"},
{"zip_code":"6600087","kana_pref":"ﾋｮｳｺﾞｹﾝ","kana_city":"ｱﾏｶﾞｻｷｼ","kana_address":"ﾍｲｻﾞｴﾓﾝﾁｮｳ","pref":"兵庫県","city":"尼崎市","address":"平左衛門町"},
{"zip_code":"6600086","kana_pref":"ﾋｮｳｺﾞｹﾝ","kana_city":"ｱﾏｶﾞｻｷｼ","kana_address":"ﾏﾙｼﾏﾁｮｳ","pref":"兵庫県","city":"尼崎市","address":"丸島町"},
{"zip_code":"6600861","kana_pref":"ﾋｮｳｺﾞｹﾝ","kana_city":"ｱﾏｶﾞｻｷｼ","kana_address":"ﾐｿﾉﾁｮｳ","pref":"兵庫県","city":"尼崎市","address":"御園町"},
{"zip_code":"6600825","kana_pref":"ﾋｮｳｺﾞｹﾝ","kana_city":"ｱﾏｶﾞｻｷｼ","kana_address":"ﾐﾅﾐｼﾞｮｳﾅｲ","pref":"兵庫県","city":"尼崎市","address":"南城内"},
{"zip_code":"6600875","kana_pref":"ﾋｮｳｺﾞｹﾝ","kana_city":"ｱﾏｶﾞｻｷｼ","kana_address":"ﾐﾅﾐﾀｹﾔﾁｮｳ","pref":"兵庫県","city":"尼崎市","address":"南竹谷町"},
{"zip_code":"6600053","kana_pref":"ﾋｮｳｺﾞｹﾝ","kana_city":"ｱﾏｶﾞｻｷｼ","kana_address":"ﾐﾅﾐﾅﾅﾏﾂﾁｮｳ","pref":"兵庫県","city":"尼崎市","address":"南七松町"},
{"zip_code":"6600833","kana_pref":"ﾋｮｳｺﾞｹﾝ","kana_city":"ｱﾏｶﾞｻｷｼ","kana_address":"ﾐﾅﾐﾊﾂｼﾏﾁｮｳ","pref":"兵庫県","city":"尼崎市","address":"南初島町"},
{"zip_code":"6600877","kana_pref":"ﾋｮｳｺﾞｹﾝ","kana_city":"ｱﾏｶﾞｻｷｼ","kana_address":"ﾐﾔｳﾁﾁｮｳ","pref":"兵庫県","city":"尼崎市","address":"宮内町"},
{"zip_code":"6600084","kana_pref":"ﾋｮｳｺﾞｹﾝ","kana_city":"ｱﾏｶﾞｻｷｼ","kana_address":"ﾑｺｶﾞﾜﾁｮｳ","pref":"兵庫県","city":"尼崎市","address":"武庫川町"},
{"zip_code":"6600085","kana_pref":"ﾋｮｳｺﾞｹﾝ","kana_city":"ｱﾏｶﾞｻｷｼ","kana_address":"ﾓﾄﾊﾏﾁｮｳ","pref":"兵庫県","city":"尼崎市","address":"元浜町"},
{"zip_code":"6600061","kana_pref":"ﾋｮｳｺﾞｹﾝ","kana_city":"ｱﾏｶﾞｻｷｼ","kana_address":"ﾖﾓｶﾞﾜｿｳｴﾝ","pref":"兵庫県","city":"尼崎市","address":"蓬川荘園"},
{"zip_code":"6600081","kana_pref":"ﾋｮｳｺﾞｹﾝ","kana_city":"ｱﾏｶﾞｻｷｼ","kana_address":"ﾖﾓｶﾞﾜﾁｮｳ","pref":"兵庫県","city":"尼崎市","address":"蓬川町"}]}