{"zip_code":[
{"zip_code":"6610981","kana_pref":"ﾋｮｳｺﾞｹﾝ","kana_city":"ｱﾏｶﾞｻｷｼ","kana_address":"ｲﾅﾃﾞﾗ","pref":"兵庫県","city":"尼崎市","address":"猪名寺"},
{"zip_code":"6610023","kana_pref":"ﾋｮｳｺﾞｹﾝ","kana_city":"ｱﾏｶﾞｻｷｼ","kana_address":"ｵｵﾆｼﾁｮｳ","pref":"兵庫県","city":"尼崎市","address":"大西町"},
{"zip_code":"6610022","kana_pref":"ﾋｮｳｺﾞｹﾝ","kana_city":"ｱﾏｶﾞｻｷｼ","kana_address":"ｵﾊﾏﾁｮｳ","pref":"兵庫県","city":"尼崎市","address":"尾浜町"},
{"zip_code":"6610979","kana_pref":"ﾋｮｳｺﾞｹﾝ","kana_city":"ｱﾏｶﾞｻｷｼ","kana_address":"ｶﾐｻｶﾍﾞ","pref":"兵庫県","city":"尼崎市","address":"上坂部"},
{"zip_code":"6610014","kana_pref":"ﾋｮｳｺﾞｹﾝ","kana_city":"ｱﾏｶﾞｻｷｼ","kana_address":"ｶﾐﾉｼﾏﾁｮｳ","pref":"兵庫県","city":"尼崎市","address":"上ノ島町"},
{"zip_code":"6610971","kana_pref":"ﾋｮｳｺﾞｹﾝ","kana_city":"ｱﾏｶﾞｻｷｼ","kana_address":"ｶﾜﾗﾉﾐﾔ","pref":"兵庫県","city":"尼崎市","address":"瓦宮"},
{"zip_code":"6610964","kana_pref":"ﾋｮｳｺﾞｹﾝ","kana_city":"ｱﾏｶﾞｻｷｼ","kana_address":"ｶﾝｻﾞｷﾁｮｳ","pref":"兵庫県","city":"尼崎市","address":"神崎町"},
{"zip_code":"6610977","kana_pref":"ﾋｮｳｺﾞｹﾝ","kana_city":"ｱﾏｶﾞｻｷｼ","kana_address":"ｸｸﾁ","pref":"兵庫県","city":"尼崎市","address":"久々知"},
{"zip_code":"6610978","kana_pref":"ﾋｮｳｺﾞｹﾝ","kana_city":"ｱﾏｶﾞｻｷｼ","kana_address":"ｸｸﾁﾆｼﾏﾁ","pref":"兵庫県","city":"尼崎市","address":"久々知西町"},
{"zip_code":"6610983","kana_pref":"ﾋｮｳｺﾞｹﾝ","kana_city":"ｱﾏｶﾞｻｷｼ","kana_address":"ｸﾁﾀﾅｶ","pref":"兵庫県","city":"尼崎市","address":"口田中"},
{"zip_code":"6610013","kana_pref":"ﾋｮｳｺﾞｹﾝ","kana_city":"ｱﾏｶﾞｻｷｼ","kana_address":"ｸﾘﾔﾏﾁｮｳ","pref":"兵庫県","city":"尼崎市","address":"栗山町"},
{"zip_code":"6610982","kana_pref":"ﾋｮｳｺﾞｹﾝ","kana_city":"ｱﾏｶﾞｻｷｼ","kana_address":"ｹﾏ","pref":"兵庫県","city":"尼崎市","address":"食満"},
{"zip_code":"6610972","kana_pref":"ﾋｮｳｺﾞｹﾝ","kana_city":"ｱﾏｶﾞｻｷｼ","kana_address":"ｺﾅｶｼﾞﾏ","pref":"兵庫県","city":"尼崎市","address":"小中島"},
{"zip_code":"6610024","kana_pref":"ﾋｮｳｺﾞｹﾝ","kana_city":"ｱﾏｶﾞｻｷｼ","kana_address":"ｻﾝﾀﾝﾀﾞﾁｮｳ","pref":"兵庫県","city":"尼崎市","address":"三反田町"},
{"zip_code":"6610976","kana_pref":"ﾋｮｳｺﾞｹﾝ","kana_city":"ｱﾏｶﾞｻｷｼ","kana_address":"ｼｵｴ","pref":"兵庫県","city":"尼崎市","address":"潮江"},
{"zip_code":"6610952","kana_pref":"ﾋｮｳｺﾞｹﾝ","kana_city":"ｱﾏｶﾞｻｷｼ","kana_address":"ｼﾄﾞｳ","pref":"兵庫県","city":"尼崎市","address":"椎堂"},
{"zip_code":"6610975","kana_pref":"ﾋｮｳｺﾞｹﾝ","kana_city":"ｱﾏｶﾞｻｷｼ","kana_address":"ｼﾓｻｶﾍﾞ","pref":"兵庫県","city":"尼崎市","address":"下坂部"},
{"zip_code":"6610973","kana_pref":"ﾋｮｳｺﾞｹﾝ","kana_city":"ｱﾏｶﾞｻｷｼ","kana_address":"ｾﾞﾝﾎﾟｳｼﾞﾁｮｳ","pref":"兵庫県","city":"尼崎市","address":"善法寺町"},
{"zip_code":"6610963","kana_pref":"ﾋｮｳｺﾞｹﾝ","kana_city":"ｱﾏｶﾞｻｷｼ","kana_address":"ﾀｶﾀﾁｮｳ","pref":"兵庫県","city":"尼崎市","address":"高田町"},
{"zip_code":"6610025","kana_pref":"ﾋｮｳｺﾞｹﾝ","kana_city":"ｱﾏｶﾞｻｷｼ","kana_address":"ﾀﾁﾊﾞﾅﾁｮｳ","pref":"兵庫県","city":"尼崎市","address":"立花町"},
{"zip_code":"6610951","kana_pref":"ﾋｮｳｺﾞｹﾝ","kana_city":"ｱﾏｶﾞｻｷｼ","kana_address":"ﾀﾉｳ","pref":"兵庫県","city":"尼崎市","address":"田能"},
{"zip_code":"6610002","kana_pref":"ﾋｮｳｺﾞｹﾝ","kana_city":"ｱﾏｶﾞｻｷｼ","kana_address":"ﾂｶｸﾞﾁﾁｮｳ","pref":"兵庫県","city":"尼崎市","address":"塚口町"},
{"zip_code":"6610001","kana_pref":"ﾋｮｳｺﾞｹﾝ","kana_city":"ｱﾏｶﾞｻｷｼ","kana_address":"ﾂｶｸﾞﾁﾎﾝﾏﾁ","pref":"兵庫県","city":"尼崎市","address":"塚口本町"},
{"zip_code":"6610965","kana_pref":"ﾋｮｳｺﾞｹﾝ","kana_city":"ｱﾏｶﾞｻｷｼ","kana_address":"ﾂｷﾞﾔ","pref":"兵庫県","city":"尼崎市","address":"次屋"},
{"zip_code":"6610046","kana_pref":"ﾋｮｳｺﾞｹﾝ","kana_city":"ｱﾏｶﾞｻｷｼ","kana_address":"ﾂﾈﾏﾂ","pref":"兵庫県","city":"尼崎市","address":"常松"},
{"zip_code":"6610042","kana_pref":"ﾋｮｳｺﾞｹﾝ","kana_city":"ｱﾏｶﾞｻｷｼ","kana_address":"ﾂﾈﾖｼ","pref":"兵庫県","city":"尼崎市","address":"常吉"},
{"zip_code":"6610961","kana_pref":"ﾋｮｳｺﾞｹﾝ","kana_city":"ｱﾏｶﾞｻｷｼ","kana_address":"ﾄﾉｳﾁﾁｮｳ","pref":"兵庫県","city":"尼崎市","address":"戸ノ内町"},
{"zip_code":"6610003","kana_pref":"ﾋｮｳｺﾞｹﾝ","kana_city":"ｱﾏｶﾞｻｷｼ","kana_address":"ﾄﾏﾂﾁｮｳ","pref":"兵庫県","city":"尼崎市","address":"富松町"},
{"zip_code":"6610974","kana_pref":"ﾋｮｳｺﾞｹﾝ","kana_city":"ｱﾏｶﾞｻｷｼ","kana_address":"ﾅｺｳｼﾞ","pref":"兵庫県","city":"尼崎市","address":"若王寺"},
{"zip_code":"6610966","kana_pref":"ﾋｮｳｺﾞｹﾝ","kana_city":"ｱﾏｶﾞｻｷｼ","kana_address":"ﾆｼｶﾜ","pref":"兵庫県","city":"尼崎市","address":"西川"},
{"zip_code":"6610047","kana_pref":"ﾋｮｳｺﾞｹﾝ","kana_city":"ｱﾏｶﾞｻｷｼ","kana_address":"ﾆｼｺﾔ","pref":"兵庫県","city":"尼崎市","address":"西昆陽"},
{"zip_code":"6610962","kana_pref":"ﾋｮｳｺﾞｹﾝ","kana_city":"ｱﾏｶﾞｻｷｼ","kana_address":"ﾇｶﾀﾁｮｳ","pref":"兵庫県","city":"尼崎市","address":"額田町"},
{"zip_code":"6610967","kana_pref":"ﾋｮｳｺﾞｹﾝ","kana_city":"ｱﾏｶﾞｻｷｼ","kana_address":"ﾊﾏ","pref":"兵庫県","city":"尼崎市","address":"浜"},
{"zip_code":"6610953","kana_pref":"ﾋｮｳｺﾞｹﾝ","kana_city":"ｱﾏｶﾞｻｷｼ","kana_address":"ﾋｶﾞｼｿﾉﾀﾞﾁｮｳ","pref":"兵庫県","city":"尼崎市","address":"東園田町"},
{"zip_code":"6610011","kana_pref":"ﾋｮｳｺﾞｹﾝ","kana_city":"ｱﾏｶﾞｻｷｼ","kana_address":"ﾋｶﾞｼﾂｶｸﾞﾁﾁｮｳ","pref":"兵庫県","city":"尼崎市","address":"東塚口町"},
{"zip_code":"6610026","kana_pref":"ﾋｮｳｺﾞｹﾝ","kana_city":"ｱﾏｶﾞｻｷｼ","kana_address":"ﾐｽﾞﾄﾞｳﾁｮｳ","pref":"兵庫県","city":"尼崎市","address":"水堂町"},
{"zip_code":"6610984","kana_pref":"ﾋｮｳｺﾞｹﾝ","kana_city":"ｱﾏｶﾞｻｷｼ","kana_address":"ﾐｿﾉ","pref":"兵庫県","city":"尼崎市","address":"御園"},
{"zip_code":"6610985","kana_pref":"ﾋｮｳｺﾞｹﾝ","kana_city":"ｱﾏｶﾞｻｷｼ","kana_address":"ﾐﾅﾐｼﾐｽﾞ","pref":"兵庫県","city":"尼崎市","address":"南清水"},
{"zip_code":"6610012","kana_pref":"ﾋｮｳｺﾞｹﾝ","kana_city":"ｱﾏｶﾞｻｷｼ","kana_address":"ﾐﾅﾐﾂｶｸﾞﾁﾁｮｳ","pref":"兵庫県","city":"尼崎市","address":"南塚口町"},
{"zip_code":"6610033","kana_pref":"ﾋｮｳｺﾞｹﾝ","kana_city":"ｱﾏｶﾞｻｷｼ","kana_address":"ﾐﾅﾐﾑｺﾉｿｳ","pref":"兵庫県","city":"尼崎市","address":"南武庫之荘"},
{"zip_code":"6610044","kana_pref":"ﾋｮｳｺﾞｹﾝ","kana_city":"ｱﾏｶﾞｻｷｼ","kana_address":"ﾑｺﾁｮｳ","pref":"兵庫県","city":"尼崎市","address":"武庫町"},
{"zip_code":"6610041","kana_pref":"ﾋｮｳｺﾞｹﾝ","kana_city":"ｱﾏｶﾞｻｷｼ","kana_address":"ﾑｺﾉｻﾄ","pref":"兵庫県","city":"尼崎市","address":"武庫の里"},
{"zip_code":"6610035","kana_pref":"ﾋｮｳｺﾞｹﾝ","kana_city":"ｱﾏｶﾞｻｷｼ","kana_address":"ﾑｺﾉｿｳ","pref":"兵庫県","city":"尼崎市","address":"武庫之荘"},
{"zip_code":"6610031","kana_pref":"ﾋｮｳｺﾞｹﾝ","kana_city":"ｱﾏｶﾞｻｷｼ","kana_address":"ﾑｺﾉｿｳﾎﾝﾏﾁ","pref":"兵庫県","city":"尼崎市","address":"武庫之荘本町"},
{"zip_code":"6610032","kana_pref":"ﾋｮｳｺﾞｹﾝ","kana_city":"ｱﾏｶﾞｻｷｼ","kana_address":"ﾑｺﾉｿｳﾋｶﾞｼ","pref":"兵庫県","city":"尼崎市","address":"武庫之荘東"},
{"zip_code":"6610034","kana_pref":"ﾋｮｳｺﾞｹﾝ","kana_city":"ｱﾏｶﾞｻｷｼ","kana_address":"ﾑｺﾉｿｳﾆｼ","pref":"兵庫県","city":"尼崎市","address":"武庫之荘西"},
{"zip_code":"6610043","kana_pref":"ﾋｮｳｺﾞｹﾝ","kana_city":"ｱﾏｶﾞｻｷｼ","kana_address":"ﾑｺﾓﾄﾏﾁ","pref":"兵庫県","city":"尼崎市","address":"武庫元町"},
{"zip_code":"6610045","kana_pref":"ﾋｮｳｺﾞｹﾝ","kana_city":"ｱﾏｶﾞｻｷｼ","kana_address":"ﾑｺﾕﾀｶﾏﾁ","pref":"兵庫県","city":"尼崎市","address":"武庫豊町"},
{"zip_code":"6610021","kana_pref":"ﾋｮｳｺﾞｹﾝ","kana_city":"ｱﾏｶﾞｻｷｼ","kana_address":"ﾒｲｼﾝﾁｮｳ","pref":"兵庫県","city":"尼崎市","address":"名神町"},
{"zip_code":"6610970","kana_pref":"ﾋｮｳｺﾞｹﾝ","kana_city":"ｱﾏｶﾞｻｷｼ","kana_address":"ﾔﾖｲｶﾞｵｶﾁｮｳ","pref":"兵庫県","city":"尼崎市","address":"弥生ケ丘町"}]}