{"zip_code":[
{"zip_code":"6620000","kana_pref":"ﾋｮｳｺﾞｹﾝ","kana_city":"ﾆｼﾉﾐﾔｼ","kana_address":"","pref":"兵庫県","city":"西宮市","address":""},
{"zip_code":"6620063","kana_pref":"ﾋｮｳｺﾞｹﾝ","kana_city":"ﾆｼﾉﾐﾔｼ","kana_address":"ｱｲｵｲﾁｮｳ","pref":"兵庫県","city":"西宮市","address":"相生町"},
{"zip_code":"6620862","kana_pref":"ﾋｮｳｺﾞｹﾝ","kana_city":"ﾆｼﾉﾐﾔｼ","kana_address":"ｱｵｷﾁｮｳ","pref":"兵庫県","city":"西宮市","address":"青木町"},
{"zip_code":"6620925","kana_pref":"ﾋｮｳｺﾞｹﾝ","kana_city":"ﾆｼﾉﾐﾔｼ","kana_address":"ｱｻﾅｷﾞﾁｮｳ","pref":"兵庫県","city":"西宮市","address":"朝凪町"},
{"zip_code":"6620842","kana_pref":"ﾋｮｳｺﾞｹﾝ","kana_city":"ﾆｼﾉﾐﾔｼ","kana_address":"ｱｼﾊﾗﾁｮｳ","pref":"兵庫県","city":"西宮市","address":"芦原町"},
{"zip_code":"6620871","kana_pref":"ﾋｮｳｺﾞｹﾝ","kana_city":"ﾆｼﾉﾐﾔｼ","kana_address":"ｱﾀｺﾞﾔﾏ","pref":"兵庫県","city":"西宮市","address":"愛宕山"},
{"zip_code":"6620946","kana_pref":"ﾋｮｳｺﾞｹﾝ","kana_city":"ﾆｼﾉﾐﾔｼ","kana_address":"ｱﾗｴﾋﾞｽﾁｮｳ","pref":"兵庫県","city":"西宮市","address":"荒戎町"},
{"zip_code":"6620911","kana_pref":"ﾋｮｳｺﾞｹﾝ","kana_city":"ﾆｼﾉﾐﾔｼ","kana_address":"ｲｹﾀﾞﾁｮｳ","pref":"兵庫県","city":"西宮市","address":"池田町"},
{"zip_code":"6620928","kana_pref":"ﾋｮｳｺﾞｹﾝ","kana_city":"ﾆｼﾉﾐﾔｼ","kana_address":"ｲｼｻﾞｲﾁｮｳ","pref":"兵庫県","city":"西宮市","address":"石在町"},
{"zip_code":"6620074","kana_pref":"ﾋｮｳｺﾞｹﾝ","kana_city":"ﾆｼﾉﾐﾔｼ","kana_address":"ｲｼﾊﾞﾈﾁｮｳ","pref":"兵庫県","city":"西宮市","address":"石刎町"},
{"zip_code":"6620932","kana_pref":"ﾋｮｳｺﾞｹﾝ","kana_city":"ﾆｼﾉﾐﾔｼ","kana_address":"ｲｽﾞﾐﾁｮｳ","pref":"兵庫県","city":"西宮市","address":"泉町"},
{"zip_code":"6620873","kana_pref":"ﾋｮｳｺﾞｹﾝ","kana_city":"ﾆｼﾉﾐﾔｼ","kana_address":"ｲﾁｶﾞﾔﾁｮｳ","pref":"兵庫県","city":"西宮市","address":"一ケ谷町"},
{"zip_code":"6620975","kana_pref":"ﾋｮｳｺﾞｹﾝ","kana_city":"ﾆｼﾉﾐﾔｼ","kana_address":"ｲﾁﾆﾜﾁｮｳ","pref":"兵庫県","city":"西宮市","address":"市庭町"},
{"zip_code":"6620972","kana_pref":"ﾋｮｳｺﾞｹﾝ","kana_city":"ﾆｼﾉﾐﾔｼ","kana_address":"ｲﾏｻﾞｲｹﾁｮｳ","pref":"兵庫県","city":"西宮市","address":"今在家町"},
{"zip_code":"6620886","kana_pref":"ﾋｮｳｺﾞｹﾝ","kana_city":"ﾆｼﾉﾐﾔｼ","kana_address":"ｳｴｶﾞﾊﾗﾔﾏﾀﾞﾁｮｳ","pref":"兵庫県","city":"西宮市","address":"上ケ原山田町"},
{"zip_code":"6620885","kana_pref":"ﾋｮｳｺﾞｹﾝ","kana_city":"ﾆｼﾉﾐﾔｼ","kana_address":"ｳｴｶﾞﾊﾗﾔﾏﾃﾁｮｳ","pref":"兵庫県","city":"西宮市","address":"上ケ原山手町"},
{"zip_code":"6620891","kana_pref":"ﾋｮｳｺﾞｹﾝ","kana_city":"ﾆｼﾉﾐﾔｼ","kana_address":"ｳｴｶﾞﾊﾗ1ﾊﾞﾝﾁｮｳ","pref":"兵庫県","city":"西宮市","address":"上ケ原一番町"},
{"zip_code":"6620892","kana_pref":"ﾋｮｳｺﾞｹﾝ","kana_city":"ﾆｼﾉﾐﾔｼ","kana_address":"ｳｴｶﾞﾊﾗ2ﾊﾞﾝﾁｮｳ","pref":"兵庫県","city":"西宮市","address":"上ケ原二番町"},
{"zip_code":"6620893","kana_pref":"ﾋｮｳｺﾞｹﾝ","kana_city":"ﾆｼﾉﾐﾔｼ","kana_address":"ｳｴｶﾞﾊﾗ3ﾊﾞﾝﾁｮｳ","pref":"兵庫県","city":"西宮市","address":"上ケ原三番町"},
{"zip_code":"6620894","kana_pref":"ﾋｮｳｺﾞｹﾝ","kana_city":"ﾆｼﾉﾐﾔｼ","kana_address":"ｳｴｶﾞﾊﾗ4ﾊﾞﾝﾁｮｳ","pref":"兵庫県","city":"西宮市","address":"上ケ原四番町"},
{"zip_code":"6620895","kana_pref":"ﾋｮｳｺﾞｹﾝ","kana_city":"ﾆｼﾉﾐﾔｼ","kana_address":"ｳｴｶﾞﾊﾗ5ﾊﾞﾝﾁｮｳ","pref":"兵庫県","city":"西宮市","address":"上ケ原五番町"},
{"zip_code":"6620896","kana_pref":"ﾋｮｳｺﾞｹﾝ","kana_city":"ﾆｼﾉﾐﾔｼ","kana_address":"ｳｴｶﾞﾊﾗ6ﾊﾞﾝﾁｮｳ","pref":"兵庫県","city":"西宮市","address":"上ケ原六番町"},
{"zip_code":"6620881","kana_pref":"ﾋｮｳｺﾞｹﾝ","kana_city":"ﾆｼﾉﾐﾔｼ","kana_address":"ｳｴｶﾞﾊﾗ7ﾊﾞﾝﾁｮｳ","pref":"兵庫県","city":"西宮市","address":"上ケ原七番町"},
{"zip_code":"6620882","kana_pref":"ﾋｮｳｺﾞｹﾝ","kana_city":"ﾆｼﾉﾐﾔｼ","kana_address":"ｳｴｶﾞﾊﾗ8ﾊﾞﾝﾁｮｳ","pref":"兵庫県","city":"西宮市","address":"上ケ原八番町"},
{"zip_code":"6620883","kana_pref":"ﾋｮｳｺﾞｹﾝ","kana_city":"ﾆｼﾉﾐﾔｼ","kana_address":"ｳｴｶﾞﾊﾗ9ﾊﾞﾝﾁｮｳ","pref":"兵庫県","city":"西宮市","address":"上ケ原九番町"},
{"zip_code":"6620884","kana_pref":"ﾋｮｳｺﾞｹﾝ","kana_city":"ﾆｼﾉﾐﾔｼ","kana_address":"ｳｴｶﾞﾊﾗ10ﾊﾞﾝﾁｮｳ","pref":"兵庫県","city":"西宮市","address":"上ケ原十番町"},
{"zip_code":"6620855","kana_pref":"ﾋｮｳｺﾞｹﾝ","kana_city":"ﾆｼﾉﾐﾔｼ","kana_address":"ｴｶﾞﾐﾁｮｳ","pref":"兵庫県","city":"西宮市","address":"江上町"},
{"zip_code":"6620085","kana_pref":"ﾋｮｳｺﾞｹﾝ","kana_city":"ﾆｼﾉﾐﾔｼ","kana_address":"ｵｲﾏﾂﾁｮｳ","pref":"兵庫県","city":"西宮市","address":"老松町"},
{"zip_code":"6620036","kana_pref":"ﾋｮｳｺﾞｹﾝ","kana_city":"ﾆｼﾉﾐﾔｼ","kana_address":"ｵｵｲﾃﾞﾁｮｳ","pref":"兵庫県","city":"西宮市","address":"大井手町"},
{"zip_code":"6620054","kana_pref":"ﾋｮｳｺﾞｹﾝ","kana_city":"ﾆｼﾉﾐﾔｼ","kana_address":"ｵｵﾀﾆﾁｮｳ","pref":"兵庫県","city":"西宮市","address":"大谷町"},
{"zip_code":"6620836","kana_pref":"ﾋｮｳｺﾞｹﾝ","kana_city":"ﾆｼﾉﾐﾔｼ","kana_address":"ｵｵﾊﾀﾁｮｳ","pref":"兵庫県","city":"西宮市","address":"大畑町"},
{"zip_code":"6620957","kana_pref":"ﾋｮｳｺﾞｹﾝ","kana_city":"ﾆｼﾉﾐﾔｼ","kana_address":"ｵｵﾊﾏﾁｮｳ","pref":"兵庫県","city":"西宮市","address":"大浜町"},
{"zip_code":"6620827","kana_pref":"ﾋｮｳｺﾞｹﾝ","kana_city":"ﾆｼﾉﾐﾔｼ","kana_address":"ｵｶﾀﾞﾔﾏ","pref":"兵庫県","city":"西宮市","address":"岡田山"},
{"zip_code":"6620022","kana_pref":"ﾋｮｳｺﾞｹﾝ","kana_city":"ﾆｼﾉﾐﾔｼ","kana_address":"ｵｸﾊﾀ","pref":"兵庫県","city":"西宮市","address":"奥畑"},
{"zip_code":"6620961","kana_pref":"ﾋｮｳｺﾞｹﾝ","kana_city":"ﾆｼﾉﾐﾔｼ","kana_address":"ｵﾁｬﾔｼｮﾁｮｳ","pref":"兵庫県","city":"西宮市","address":"御茶家所町"},
{"zip_code":"6620977","kana_pref":"ﾋｮｳｺﾞｹﾝ","kana_city":"ﾆｼﾉﾐﾔｼ","kana_address":"ｶｸﾞﾗﾁｮｳ","pref":"兵庫県","city":"西宮市","address":"神楽町"},
{"zip_code":"6620052","kana_pref":"ﾋｮｳｺﾞｹﾝ","kana_city":"ﾆｼﾉﾐﾔｼ","kana_address":"ｶｽﾐﾁｮｳ","pref":"兵庫県","city":"西宮市","address":"霞町"},
{"zip_code":"6620001","kana_pref":"ﾋｮｳｺﾞｹﾝ","kana_city":"ﾆｼﾉﾐﾔｼ","kana_address":"ｶﾌﾞﾄﾔﾏﾁｮｳ","pref":"兵庫県","city":"西宮市","address":"甲山町"},
{"zip_code":"6620865","kana_pref":"ﾋｮｳｺﾞｹﾝ","kana_city":"ﾆｼﾉﾐﾔｼ","kana_address":"ｶﾐｶﾞｷﾁｮｳ","pref":"兵庫県","city":"西宮市","address":"神垣町"},
{"zip_code":"6620813","kana_pref":"ﾋｮｳｺﾞｹﾝ","kana_city":"ﾆｼﾉﾐﾔｼ","kana_address":"ｶﾐｺｳﾄｳｴﾝ","pref":"兵庫県","city":"西宮市","address":"上甲東園"},
{"zip_code":"6620027","kana_pref":"ﾋｮｳｺﾞｹﾝ","kana_city":"ﾆｼﾉﾐﾔｼ","kana_address":"ｶﾐｿﾞﾉﾁｮｳ","pref":"兵庫県","city":"西宮市","address":"神園町"},
{"zip_code":"6620954","kana_pref":"ﾋｮｳｺﾞｹﾝ","kana_city":"ﾆｼﾉﾐﾔｼ","kana_address":"ｶﾐﾖｼﾊﾗﾁｮｳ","pref":"兵庫県","city":"西宮市","address":"上葭原町"},
{"zip_code":"6620097","kana_pref":"ﾋｮｳｺﾞｹﾝ","kana_city":"ﾆｼﾉﾐﾔｼ","kana_address":"ｶﾔﾝﾄﾞｳﾁｮｳ","pref":"兵庫県","city":"西宮市","address":"柏堂町"},
{"zip_code":"6620098","kana_pref":"ﾋｮｳｺﾞｹﾝ","kana_city":"ﾆｼﾉﾐﾔｼ","kana_address":"ｶﾔﾝﾄﾞｳﾆｼﾏﾁ","pref":"兵庫県","city":"西宮市","address":"柏堂西町"},
{"zip_code":"6620944","kana_pref":"ﾋｮｳｺﾞｹﾝ","kana_city":"ﾆｼﾉﾐﾔｼ","kana_address":"ｶﾜｿﾞｴﾁｮｳ","pref":"兵庫県","city":"西宮市","address":"川添町"},
{"zip_code":"6620951","kana_pref":"ﾋｮｳｺﾞｹﾝ","kana_city":"ﾆｼﾉﾐﾔｼ","kana_address":"ｶﾜﾆｼﾁｮｳ","pref":"兵庫県","city":"西宮市","address":"川西町"},
{"zip_code":"6620861","kana_pref":"ﾋｮｳｺﾞｹﾝ","kana_city":"ﾆｼﾉﾐﾔｼ","kana_address":"ｶﾜﾊﾗﾁｮｳ","pref":"兵庫県","city":"西宮市","address":"河原町"},
{"zip_code":"6620945","kana_pref":"ﾋｮｳｺﾞｹﾝ","kana_city":"ﾆｼﾉﾐﾔｼ","kana_address":"ｶﾜﾋｶﾞｼﾁｮｳ","pref":"兵庫県","city":"西宮市","address":"川東町"},
{"zip_code":"6620823","kana_pref":"ﾋｮｳｺﾞｹﾝ","kana_city":"ﾆｼﾉﾐﾔｼ","kana_address":"ｶﾝﾉｳﾁｮｳ","pref":"兵庫県","city":"西宮市","address":"神呪町"},
{"zip_code":"6620021","kana_pref":"ﾋｮｳｺﾞｹﾝ","kana_city":"ﾆｼﾉﾐﾔｼ","kana_address":"ｶﾝﾊﾞﾗ","pref":"兵庫県","city":"西宮市","address":"神原"},
{"zip_code":"6620078","kana_pref":"ﾋｮｳｺﾞｹﾝ","kana_city":"ﾆｼﾉﾐﾔｼ","kana_address":"ｷｸﾀﾆﾁｮｳ","pref":"兵庫県","city":"西宮市","address":"菊谷町"},
{"zip_code":"6620062","kana_pref":"ﾋｮｳｺﾞｹﾝ","kana_city":"ﾆｼﾉﾐﾔｼ","kana_address":"ｷｽﾞﾔﾏﾁｮｳ","pref":"兵庫県","city":"西宮市","address":"木津山町"},
{"zip_code":"6620833","kana_pref":"ﾋｮｳｺﾞｹﾝ","kana_city":"ﾆｼﾉﾐﾔｼ","kana_address":"ｷﾀｼｮｳﾜﾁｮｳ","pref":"兵庫県","city":"西宮市","address":"北昭和町"},
{"zip_code":"6620025","kana_pref":"ﾋｮｳｺﾞｹﾝ","kana_city":"ﾆｼﾉﾐﾔｼ","kana_address":"ｷﾀﾅﾂｷﾞﾁｮｳ","pref":"兵庫県","city":"西宮市","address":"北名次町"},
{"zip_code":"6620091","kana_pref":"ﾋｮｳｺﾞｹﾝ","kana_city":"ﾆｼﾉﾐﾔｼ","kana_address":"ｷﾀﾔﾏﾁｮｳ","pref":"兵庫県","city":"西宮市","address":"北山町"},
{"zip_code":"6620077","kana_pref":"ﾋｮｳｺﾞｹﾝ","kana_city":"ﾆｼﾉﾐﾔｼ","kana_address":"ｸﾃﾞｶﾞﾔﾁｮｳ","pref":"兵庫県","city":"西宮市","address":"久出ケ谷町"},
{"zip_code":"6620927","kana_pref":"ﾋｮｳｺﾞｹﾝ","kana_city":"ﾆｼﾉﾐﾔｼ","kana_address":"ｸﾎﾞﾁｮｳ","pref":"兵庫県","city":"西宮市","address":"久保町"},
{"zip_code":"6620064","kana_pref":"ﾋｮｳｺﾞｹﾝ","kana_city":"ﾆｼﾉﾐﾔｼ","kana_address":"ｸﾓｲﾁｮｳ","pref":"兵庫県","city":"西宮市","address":"雲井町"},
{"zip_code":"6620926","kana_pref":"ﾋｮｳｺﾞｹﾝ","kana_city":"ﾆｼﾉﾐﾔｼ","kana_address":"ｸﾗｶｹﾁｮｳ","pref":"兵庫県","city":"西宮市","address":"鞍掛町"},
{"zip_code":"6620083","kana_pref":"ﾋｮｳｺﾞｹﾝ","kana_city":"ﾆｼﾉﾐﾔｼ","kana_address":"ｸﾗｸｴﾝ1ﾊﾞﾝﾁｮｳ","pref":"兵庫県","city":"西宮市","address":"苦楽園一番町"},
{"zip_code":"6620082","kana_pref":"ﾋｮｳｺﾞｹﾝ","kana_city":"ﾆｼﾉﾐﾔｼ","kana_address":"ｸﾗｸｴﾝ2ﾊﾞﾝﾁｮｳ","pref":"兵庫県","city":"西宮市","address":"苦楽園二番町"},
{"zip_code":"6620081","kana_pref":"ﾋｮｳｺﾞｹﾝ","kana_city":"ﾆｼﾉﾐﾔｼ","kana_address":"ｸﾗｸｴﾝ3ﾊﾞﾝﾁｮｳ","pref":"兵庫県","city":"西宮市","address":"苦楽園三番町"},
{"zip_code":"6620088","kana_pref":"ﾋｮｳｺﾞｹﾝ","kana_city":"ﾆｼﾉﾐﾔｼ","kana_address":"ｸﾗｸｴﾝ4ﾊﾞﾝﾁｮｳ","pref":"兵庫県","city":"西宮市","address":"苦楽園四番町"},
{"zip_code":"6620087","kana_pref":"ﾋｮｳｺﾞｹﾝ","kana_city":"ﾆｼﾉﾐﾔｼ","kana_address":"ｸﾗｸｴﾝ5ﾊﾞﾝﾁｮｳ","pref":"兵庫県","city":"西宮市","address":"苦楽園五番町"},
{"zip_code":"6620086","kana_pref":"ﾋｮｳｺﾞｹﾝ","kana_city":"ﾆｼﾉﾐﾔｼ","kana_address":"ｸﾗｸｴﾝ6ﾊﾞﾝﾁｮｳ","pref":"兵庫県","city":"西宮市","address":"苦楽園六番町"},
{"zip_code":"6620037","kana_pref":"ﾋｮｳｺﾞｹﾝ","kana_city":"ﾆｼﾉﾐﾔｼ","kana_address":"ｹﾂｾﾞﾝﾁｮｳ","pref":"兵庫県","city":"西宮市","address":"結善町"},
{"zip_code":"6620099","kana_pref":"ﾋｮｳｺﾞｹﾝ","kana_city":"ﾆｼﾉﾐﾔｼ","kana_address":"ｹﾝﾀﾞﾆﾁｮｳ","pref":"兵庫県","city":"西宮市","address":"剣谷町"},
{"zip_code":"6620812","kana_pref":"ﾋｮｳｺﾞｹﾝ","kana_city":"ﾆｼﾉﾐﾔｼ","kana_address":"ｺｳﾄｳｴﾝ","pref":"兵庫県","city":"西宮市","address":"甲東園"},
{"zip_code":"6620832","kana_pref":"ﾋｮｳｺﾞｹﾝ","kana_city":"ﾆｼﾉﾐﾔｼ","kana_address":"ｺｳﾌｳｴﾝ","pref":"兵庫県","city":"西宮市","address":"甲風園"},
{"zip_code":"6620965","kana_pref":"ﾋｮｳｺﾞｹﾝ","kana_city":"ﾆｼﾉﾐﾔｼ","kana_address":"ｺﾞｳﾒﾝﾁｮｳ","pref":"兵庫県","city":"西宮市","address":"郷免町"},
{"zip_code":"6620018","kana_pref":"ﾋｮｳｺﾞｹﾝ","kana_city":"ﾆｼﾉﾐﾔｼ","kana_address":"ｺｳﾖｳｴﾝｻﾝﾉｳﾁｮｳ","pref":"兵庫県","city":"西宮市","address":"甲陽園山王町"},
{"zip_code":"6620012","kana_pref":"ﾋｮｳｺﾞｹﾝ","kana_city":"ﾆｼﾉﾐﾔｼ","kana_address":"ｺｳﾖｳｴﾝﾋｶﾞｼﾔﾏﾁｮｳ","pref":"兵庫県","city":"西宮市","address":"甲陽園東山町"},
{"zip_code":"6620017","kana_pref":"ﾋｮｳｺﾞｹﾝ","kana_city":"ﾆｼﾉﾐﾔｼ","kana_address":"ｺｳﾖｳｴﾝﾆｼﾔﾏﾁｮｳ","pref":"兵庫県","city":"西宮市","address":"甲陽園西山町"},
{"zip_code":"6620014","kana_pref":"ﾋｮｳｺﾞｹﾝ","kana_city":"ﾆｼﾉﾐﾔｼ","kana_address":"ｺｳﾖｳｴﾝﾋﾉﾃﾞﾁｮｳ","pref":"兵庫県","city":"西宮市","address":"甲陽園日之出町"},
{"zip_code":"6620015","kana_pref":"ﾋｮｳｺﾞｹﾝ","kana_city":"ﾆｼﾉﾐﾔｼ","kana_address":"ｺｳﾖｳｴﾝﾎﾝｼﾞｮｳﾁｮｳ","pref":"兵庫県","city":"西宮市","address":"甲陽園本庄町"},
{"zip_code":"6620011","kana_pref":"ﾋｮｳｺﾞｹﾝ","kana_city":"ﾆｼﾉﾐﾔｼ","kana_address":"ｺｳﾖｳｴﾝﾒｶﾞﾐﾔﾏﾁｮｳ","pref":"兵庫県","city":"西宮市","address":"甲陽園目神山町"},
{"zip_code":"6620016","kana_pref":"ﾋｮｳｺﾞｹﾝ","kana_city":"ﾆｼﾉﾐﾔｼ","kana_address":"ｺｳﾖｳｴﾝﾜｶｴﾁｮｳ","pref":"兵庫県","city":"西宮市","address":"甲陽園若江町"},
{"zip_code":"6620092","kana_pref":"ﾋｮｳｺﾞｹﾝ","kana_city":"ﾆｼﾉﾐﾔｼ","kana_address":"ｺｼｷｲﾜﾁｮｳ","pref":"兵庫県","city":"西宮市","address":"甑岩町"},
{"zip_code":"6620006","kana_pref":"ﾋｮｳｺﾞｹﾝ","kana_city":"ﾆｼﾉﾐﾔｼ","kana_address":"ｺｼﾐｽﾞｼｬｹｺﾞｳﾔﾏ","pref":"兵庫県","city":"西宮市","address":"越水社家郷山"},
{"zip_code":"6620864","kana_pref":"ﾋｮｳｺﾞｹﾝ","kana_city":"ﾆｼﾉﾐﾔｼ","kana_address":"ｺｼﾐｽﾞﾁｮｳ","pref":"兵庫県","city":"西宮市","address":"越水町"},
{"zip_code":"6620047","kana_pref":"ﾋｮｳｺﾞｹﾝ","kana_city":"ﾆｼﾉﾐﾔｼ","kana_address":"ｺﾄﾌﾞｷﾁｮｳ","pref":"兵庫県","city":"西宮市","address":"寿町"},
{"zip_code":"6620844","kana_pref":"ﾋｮｳｺﾞｹﾝ","kana_city":"ﾆｼﾉﾐﾔｼ","kana_address":"ｻｲﾌｸﾁｮｳ","pref":"兵庫県","city":"西宮市","address":"西福町"},
{"zip_code":"6620032","kana_pref":"ﾋｮｳｺﾞｹﾝ","kana_city":"ﾆｼﾉﾐﾔｼ","kana_address":"ｻｸﾗﾀﾞﾆﾁｮｳ","pref":"兵庫県","city":"西宮市","address":"桜谷町"},
{"zip_code":"6620071","kana_pref":"ﾋｮｳｺﾞｹﾝ","kana_city":"ﾆｼﾉﾐﾔｼ","kana_address":"ｻｸﾗﾏﾁ","pref":"兵庫県","city":"西宮市","address":"桜町"},
{"zip_code":"6620875","kana_pref":"ﾋｮｳｺﾞｹﾝ","kana_city":"ﾆｼﾉﾐﾔｼ","kana_address":"ｻﾂｷｶﾞｵｶ","pref":"兵庫県","city":"西宮市","address":"五月ケ丘"},
{"zip_code":"6620978","kana_pref":"ﾋｮｳｺﾞｹﾝ","kana_city":"ﾆｼﾉﾐﾔｼ","kana_address":"ｻﾝｼｮﾁｮｳ","pref":"兵庫県","city":"西宮市","address":"産所町"},
{"zip_code":"6620026","kana_pref":"ﾋｮｳｺﾞｹﾝ","kana_city":"ﾆｼﾉﾐﾔｼ","kana_address":"ｼｼｶﾞｸﾞﾁﾁｮｳ","pref":"兵庫県","city":"西宮市","address":"獅子ケ口町"},
{"zip_code":"6620033","kana_pref":"ﾋｮｳｺﾞｹﾝ","kana_city":"ﾆｼﾉﾐﾔｼ","kana_address":"ｼﾐｽﾞﾁｮｳ","pref":"兵庫県","city":"西宮市","address":"清水町"},
{"zip_code":"6620956","kana_pref":"ﾋｮｳｺﾞｹﾝ","kana_city":"ﾆｼﾉﾐﾔｼ","kana_address":"ｼﾓﾖｼﾊﾗﾁｮｳ","pref":"兵庫県","city":"西宮市","address":"下葭原町"},
{"zip_code":"6620974","kana_pref":"ﾋｮｳｺﾞｹﾝ","kana_city":"ﾆｼﾉﾐﾔｼ","kana_address":"ｼｬｹﾁｮｳ","pref":"兵庫県","city":"西宮市","address":"社家町"},
{"zip_code":"6620004","kana_pref":"ﾋｮｳｺﾞｹﾝ","kana_city":"ﾆｼﾉﾐﾔｼ","kana_address":"ｼﾞｭｳﾘﾝｼﾞ","pref":"兵庫県","city":"西宮市","address":"鷲林寺"},
{"zip_code":"6620003","kana_pref":"ﾋｮｳｺﾞｹﾝ","kana_city":"ﾆｼﾉﾐﾔｼ","kana_address":"ｼﾞｭｳﾘﾝｼﾞﾁｮｳ","pref":"兵庫県","city":"西宮市","address":"鷲林寺町"},
{"zip_code":"6620002","kana_pref":"ﾋｮｳｺﾞｹﾝ","kana_city":"ﾆｼﾉﾐﾔｼ","kana_address":"ｼﾞｭｳﾘﾝｼﾞﾐﾅﾐﾏﾁ","pref":"兵庫県","city":"西宮市","address":"鷲林寺南町"},
{"zip_code":"6620856","kana_pref":"ﾋｮｳｺﾞｹﾝ","kana_city":"ﾆｼﾉﾐﾔｼ","kana_address":"ｼﾞｮｳｶﾞﾎﾞﾘﾁｮｳ","pref":"兵庫県","city":"西宮市","address":"城ケ堀町"},
{"zip_code":"6620822","kana_pref":"ﾋｮｳｺﾞｹﾝ","kana_city":"ﾆｼﾉﾐﾔｼ","kana_address":"ｼｮｳﾗｲｿｳ","pref":"兵庫県","city":"西宮市","address":"松籟荘"},
{"zip_code":"6620023","kana_pref":"ﾋｮｳｺﾞｹﾝ","kana_city":"ﾆｼﾉﾐﾔｼ","kana_address":"ｼﾛﾔﾏ","pref":"兵庫県","city":"西宮市","address":"城山"},
{"zip_code":"6620843","kana_pref":"ﾋｮｳｺﾞｹﾝ","kana_city":"ﾆｼﾉﾐﾔｼ","kana_address":"ｼﾞﾝｷﾞｶﾝﾁｮｳ","pref":"兵庫県","city":"西宮市","address":"神祇官町"},
{"zip_code":"6620013","kana_pref":"ﾋｮｳｺﾞｹﾝ","kana_city":"ﾆｼﾉﾐﾔｼ","kana_address":"ｼﾝｺｳﾖｳﾁｮｳ","pref":"兵庫県","city":"西宮市","address":"新甲陽町"},
{"zip_code":"6620845","kana_pref":"ﾋｮｳｺﾞｹﾝ","kana_city":"ﾆｼﾉﾐﾔｼ","kana_address":"ｼﾝﾒｲﾁｮｳ","pref":"兵庫県","city":"西宮市","address":"神明町"},
{"zip_code":"6620041","kana_pref":"ﾋｮｳｺﾞｹﾝ","kana_city":"ﾆｼﾉﾐﾔｼ","kana_address":"ｽｴﾋﾛﾁｮｳ","pref":"兵庫県","city":"西宮市","address":"末広町"},
{"zip_code":"6620096","kana_pref":"ﾋｮｳｺﾞｹﾝ","kana_city":"ﾆｼﾉﾐﾔｼ","kana_address":"ｽﾐｲｼﾁｮｳ","pref":"兵庫県","city":"西宮市","address":"角石町"},
{"zip_code":"6620913","kana_pref":"ﾋｮｳｺﾞｹﾝ","kana_city":"ﾆｼﾉﾐﾔｼ","kana_address":"ｿﾒﾄﾞﾉﾁｮｳ","pref":"兵庫県","city":"西宮市","address":"染殿町"},
{"zip_code":"6620867","kana_pref":"ﾋｮｳｺﾞｹﾝ","kana_city":"ﾆｼﾉﾐﾔｼ","kana_address":"ﾀｲｼｬﾁｮｳ","pref":"兵庫県","city":"西宮市","address":"大社町"},
{"zip_code":"6620872","kana_pref":"ﾋｮｳｺﾞｹﾝ","kana_city":"ﾆｼﾉﾐﾔｼ","kana_address":"ﾀｶｸﾗﾁｮｳ","pref":"兵庫県","city":"西宮市","address":"高座町"},
{"zip_code":"6620066","kana_pref":"ﾋｮｳｺﾞｹﾝ","kana_city":"ﾆｼﾉﾐﾔｼ","kana_address":"ﾀｶﾂｶﾁｮｳ","pref":"兵庫県","city":"西宮市","address":"高塚町"},
{"zip_code":"6620943","kana_pref":"ﾋｮｳｺﾞｹﾝ","kana_city":"ﾆｼﾉﾐﾔｼ","kana_address":"ﾀﾃｲｼﾁｮｳ","pref":"兵庫県","city":"西宮市","address":"建石町"},
{"zip_code":"6620973","kana_pref":"ﾋｮｳｺﾞｹﾝ","kana_city":"ﾆｼﾉﾐﾔｼ","kana_address":"ﾀﾅｶﾁｮｳ","pref":"兵庫県","city":"西宮市","address":"田中町"},
{"zip_code":"6620046","kana_pref":"ﾋｮｳｺﾞｹﾝ","kana_city":"ﾆｼﾉﾐﾔｼ","kana_address":"ﾁﾄｾﾁｮｳ","pref":"兵庫県","city":"西宮市","address":"千歳町"},
{"zip_code":"6620853","kana_pref":"ﾋｮｳｺﾞｹﾝ","kana_city":"ﾆｼﾉﾐﾔｼ","kana_address":"ﾂﾀﾞﾁｮｳ","pref":"兵庫県","city":"西宮市","address":"津田町"},
{"zip_code":"6620043","kana_pref":"ﾋｮｳｺﾞｹﾝ","kana_city":"ﾆｼﾉﾐﾔｼ","kana_address":"ﾄｷﾜﾁｮｳ","pref":"兵庫県","city":"西宮市","address":"常磐町"},
{"zip_code":"6620916","kana_pref":"ﾋｮｳｺﾞｹﾝ","kana_city":"ﾆｼﾉﾐﾔｼ","kana_address":"ﾄﾀﾞﾁｮｳ","pref":"兵庫県","city":"西宮市","address":"戸田町"},
{"zip_code":"6620065","kana_pref":"ﾋｮｳｺﾞｹﾝ","kana_city":"ﾆｼﾉﾐﾔｼ","kana_address":"ﾄﾉﾔﾏﾁｮｳ","pref":"兵庫県","city":"西宮市","address":"殿山町"},
{"zip_code":"6620851","kana_pref":"ﾋｮｳｺﾞｹﾝ","kana_city":"ﾆｼﾉﾐﾔｼ","kana_address":"ﾅｶｽｻﾁｮｳ","pref":"兵庫県","city":"西宮市","address":"中須佐町"},
{"zip_code":"6620852","kana_pref":"ﾋｮｳｺﾞｹﾝ","kana_city":"ﾆｼﾉﾐﾔｼ","kana_address":"ﾅｶﾄﾞﾉﾁｮｳ","pref":"兵庫県","city":"西宮市","address":"中殿町"},
{"zip_code":"6620952","kana_pref":"ﾋｮｳｺﾞｹﾝ","kana_city":"ﾆｼﾉﾐﾔｼ","kana_address":"ﾅｶﾊﾏﾁｮｳ","pref":"兵庫県","city":"西宮市","address":"中浜町"},
{"zip_code":"6620857","kana_pref":"ﾋｮｳｺﾞｹﾝ","kana_city":"ﾆｼﾉﾐﾔｼ","kana_address":"ﾅｶﾏｴﾀﾞﾁｮｳ","pref":"兵庫県","city":"西宮市","address":"中前田町"},
{"zip_code":"6620868","kana_pref":"ﾋｮｳｺﾞｹﾝ","kana_city":"ﾆｼﾉﾐﾔｼ","kana_address":"ﾅｶﾔﾁｮｳ","pref":"兵庫県","city":"西宮市","address":"中屋町"},
{"zip_code":"6620955","kana_pref":"ﾋｮｳｺﾞｹﾝ","kana_city":"ﾆｼﾉﾐﾔｼ","kana_address":"ﾅｶﾖｼﾊﾗﾁｮｳ","pref":"兵庫県","city":"西宮市","address":"中葭原町"},
{"zip_code":"6620024","kana_pref":"ﾋｮｳｺﾞｹﾝ","kana_city":"ﾆｼﾉﾐﾔｼ","kana_address":"ﾅﾂｷﾞﾁｮｳ","pref":"兵庫県","city":"西宮市","address":"名次町"},
{"zip_code":"6620038","kana_pref":"ﾋｮｳｺﾞｹﾝ","kana_city":"ﾆｼﾉﾐﾔｼ","kana_address":"ﾅﾝｺﾞｳﾁｮｳ","pref":"兵庫県","city":"西宮市","address":"南郷町"},
{"zip_code":"6620814","kana_pref":"ﾋｮｳｺﾞｹﾝ","kana_city":"ﾆｼﾉﾐﾔｼ","kana_address":"ﾆｶﾞﾜｺﾞｶﾔﾏﾁｮｳ","pref":"兵庫県","city":"西宮市","address":"仁川五ケ山町"},
{"zip_code":"6620815","kana_pref":"ﾋｮｳｺﾞｹﾝ","kana_city":"ﾆｼﾉﾐﾔｼ","kana_address":"ﾆｶﾞﾜﾕﾘﾉﾁｮｳ","pref":"兵庫県","city":"西宮市","address":"仁川百合野町"},
{"zip_code":"6620811","kana_pref":"ﾋｮｳｺﾞｹﾝ","kana_city":"ﾆｼﾉﾐﾔｼ","kana_address":"ﾆｶﾞﾜﾁｮｳ","pref":"兵庫県","city":"西宮市","address":"仁川町"},
{"zip_code":"6620034","kana_pref":"ﾋｮｳｺﾞｹﾝ","kana_city":"ﾆｼﾉﾐﾔｼ","kana_address":"ﾆｼﾀﾞﾁｮｳ","pref":"兵庫県","city":"西宮市","address":"西田町"},
{"zip_code":"6620934","kana_pref":"ﾋｮｳｺﾞｹﾝ","kana_city":"ﾆｼﾉﾐﾔｼ","kana_address":"ﾆｼﾉﾐﾔﾊﾏ","pref":"兵庫県","city":"西宮市","address":"西宮浜"},
{"zip_code":"6620933","kana_pref":"ﾋｮｳｺﾞｹﾝ","kana_city":"ﾆｼﾉﾐﾔｼ","kana_address":"ﾆｼﾊﾄﾁｮｳ","pref":"兵庫県","city":"西宮市","address":"西波止町"},
{"zip_code":"6620093","kana_pref":"ﾋｮｳｺﾞｹﾝ","kana_city":"ﾆｼﾉﾐﾔｼ","kana_address":"ﾆｼﾋﾗﾁｮｳ","pref":"兵庫県","city":"西宮市","address":"西平町"},
{"zip_code":"6620838","kana_pref":"ﾋｮｳｺﾞｹﾝ","kana_city":"ﾆｼﾉﾐﾔｼ","kana_address":"ﾉﾄﾁｮｳ","pref":"兵庫県","city":"西宮市","address":"能登町"},
{"zip_code":"6620051","kana_pref":"ﾋｮｳｺﾞｹﾝ","kana_city":"ﾆｼﾉﾐﾔｼ","kana_address":"ﾊｺﾞﾛﾓﾁｮｳ","pref":"兵庫県","city":"西宮市","address":"羽衣町"},
{"zip_code":"6620854","kana_pref":"ﾋｮｳｺﾞｹﾝ","kana_city":"ﾆｼﾉﾐﾔｼ","kana_address":"ﾊｾﾞﾂｶﾁｮｳ","pref":"兵庫県","city":"西宮市","address":"櫨塚町"},
{"zip_code":"6620915","kana_pref":"ﾋｮｳｺﾞｹﾝ","kana_city":"ﾆｼﾉﾐﾔｼ","kana_address":"ﾊﾞﾊﾞﾁｮｳ","pref":"兵庫県","city":"西宮市","address":"馬場町"},
{"zip_code":"6620942","kana_pref":"ﾋｮｳｺﾞｹﾝ","kana_city":"ﾆｼﾉﾐﾔｼ","kana_address":"ﾊﾏﾁｮｳ","pref":"兵庫県","city":"西宮市","address":"浜町"},
{"zip_code":"6620923","kana_pref":"ﾋｮｳｺﾞｹﾝ","kana_city":"ﾆｼﾉﾐﾔｼ","kana_address":"ﾊﾏﾏﾂﾊﾞﾗﾁｮｳ","pref":"兵庫県","city":"西宮市","address":"浜松原町"},
{"zip_code":"6620941","kana_pref":"ﾋｮｳｺﾞｹﾝ","kana_city":"ﾆｼﾉﾐﾔｼ","kana_address":"ﾊﾏﾜｷﾁｮｳ","pref":"兵庫県","city":"西宮市","address":"浜脇町"},
{"zip_code":"6620924","kana_pref":"ﾋｮｳｺﾞｹﾝ","kana_city":"ﾆｼﾉﾐﾔｼ","kana_address":"ﾋｶﾞｼﾊﾏﾁｮｳ","pref":"兵庫県","city":"西宮市","address":"東浜町"},
{"zip_code":"6620922","kana_pref":"ﾋｮｳｺﾞｹﾝ","kana_city":"ﾆｼﾉﾐﾔｼ","kana_address":"ﾋｶﾞｼﾏﾁ","pref":"兵庫県","city":"西宮市","address":"東町"},
{"zip_code":"6620094","kana_pref":"ﾋｮｳｺﾞｹﾝ","kana_city":"ﾆｼﾉﾐﾔｼ","kana_address":"ﾋﾞｼｬﾓﾝﾁｮｳ","pref":"兵庫県","city":"西宮市","address":"毘沙門町"},
{"zip_code":"6620084","kana_pref":"ﾋｮｳｺﾞｹﾝ","kana_city":"ﾆｼﾉﾐﾔｼ","kana_address":"ﾋﾉｲｹﾁｮｳ","pref":"兵庫県","city":"西宮市","address":"樋之池町"},
{"zip_code":"6620835","kana_pref":"ﾋｮｳｺﾞｹﾝ","kana_city":"ﾆｼﾉﾐﾔｼ","kana_address":"ﾋﾗｷﾁｮｳ","pref":"兵庫県","city":"西宮市","address":"平木町"},
{"zip_code":"6620044","kana_pref":"ﾋｮｳｺﾞｹﾝ","kana_city":"ﾆｼﾉﾐﾔｼ","kana_address":"ﾋﾗﾏﾂﾁｮｳ","pref":"兵庫県","city":"西宮市","address":"平松町"},
{"zip_code":"6620837","kana_pref":"ﾋｮｳｺﾞｹﾝ","kana_city":"ﾆｼﾉﾐﾔｼ","kana_address":"ﾋﾛﾀﾁｮｳ","pref":"兵庫県","city":"西宮市","address":"広田町"},
{"zip_code":"6620067","kana_pref":"ﾋｮｳｺﾞｹﾝ","kana_city":"ﾆｼﾉﾐﾔｼ","kana_address":"ﾌｶﾀﾆﾁｮｳ","pref":"兵庫県","city":"西宮市","address":"深谷町"},
{"zip_code":"6620042","kana_pref":"ﾋｮｳｺﾞｹﾝ","kana_city":"ﾆｼﾉﾐﾔｼ","kana_address":"ﾌﾞﾝﾄﾞｳﾁｮｳ","pref":"兵庫県","city":"西宮市","address":"分銅町"},
{"zip_code":"6620072","kana_pref":"ﾋｮｳｺﾞｹﾝ","kana_city":"ﾆｼﾉﾐﾔｼ","kana_address":"ﾎｳﾗｸﾁｮｳ","pref":"兵庫県","city":"西宮市","address":"豊楽町"},
{"zip_code":"6620953","kana_pref":"ﾋｮｳｺﾞｹﾝ","kana_city":"ﾆｼﾉﾐﾔｼ","kana_address":"ﾎﾘｷﾘﾁｮｳ","pref":"兵庫県","city":"西宮市","address":"堀切町"},
{"zip_code":"6620914","kana_pref":"ﾋｮｳｺﾞｹﾝ","kana_city":"ﾆｼﾉﾐﾔｼ","kana_address":"ﾎﾝﾏﾁ","pref":"兵庫県","city":"西宮市","address":"本町"},
{"zip_code":"6620931","kana_pref":"ﾋｮｳｺﾞｹﾝ","kana_city":"ﾆｼﾉﾐﾔｼ","kana_address":"ﾏｴﾊﾏﾁｮｳ","pref":"兵庫県","city":"西宮市","address":"前浜町"},
{"zip_code":"6620076","kana_pref":"ﾋｮｳｺﾞｹﾝ","kana_city":"ﾆｼﾉﾐﾔｼ","kana_address":"ﾏﾂｵｲﾁｮｳ","pref":"兵庫県","city":"西宮市","address":"松生町"},
{"zip_code":"6620073","kana_pref":"ﾋｮｳｺﾞｹﾝ","kana_city":"ﾆｼﾉﾐﾔｼ","kana_address":"ﾏﾂｶｾﾞﾁｮｳ","pref":"兵庫県","city":"西宮市","address":"松風町"},
{"zip_code":"6620061","kana_pref":"ﾋｮｳｺﾞｹﾝ","kana_city":"ﾆｼﾉﾐﾔｼ","kana_address":"ﾏﾂｶﾞｵｶﾁｮｳ","pref":"兵庫県","city":"西宮市","address":"松ケ丘町"},
{"zip_code":"6620962","kana_pref":"ﾋｮｳｺﾞｹﾝ","kana_city":"ﾆｼﾉﾐﾔｼ","kana_address":"ﾏﾂｼﾀﾁｮｳ","pref":"兵庫県","city":"西宮市","address":"松下町"},
{"zip_code":"6620053","kana_pref":"ﾋｮｳｺﾞｹﾝ","kana_city":"ﾆｼﾉﾐﾔｼ","kana_address":"ﾏﾂｿﾞﾉﾁｮｳ","pref":"兵庫県","city":"西宮市","address":"松園町"},
{"zip_code":"6620912","kana_pref":"ﾋｮｳｺﾞｹﾝ","kana_city":"ﾆｼﾉﾐﾔｼ","kana_address":"ﾏﾂﾊﾞﾗﾁｮｳ","pref":"兵庫県","city":"西宮市","address":"松原町"},
{"zip_code":"6620831","kana_pref":"ﾋｮｳｺﾞｹﾝ","kana_city":"ﾆｼﾉﾐﾔｼ","kana_address":"ﾏﾙﾊｼﾁｮｳ","pref":"兵庫県","city":"西宮市","address":"丸橋町"},
{"zip_code":"6620031","kana_pref":"ﾋｮｳｺﾞｹﾝ","kana_city":"ﾆｼﾉﾐﾔｼ","kana_address":"ﾏﾝﾁﾀﾞﾆﾁｮｳ","pref":"兵庫県","city":"西宮市","address":"満池谷町"},
{"zip_code":"6620095","kana_pref":"ﾋｮｳｺﾞｹﾝ","kana_city":"ﾆｼﾉﾐﾔｼ","kana_address":"ﾐｻｸﾁｮｳ","pref":"兵庫県","city":"西宮市","address":"美作町"},
{"zip_code":"6620075","kana_pref":"ﾋｮｳｺﾞｹﾝ","kana_city":"ﾆｼﾉﾐﾔｼ","kana_address":"ﾐﾅﾐｺｼｷｲﾜﾁｮｳ","pref":"兵庫県","city":"西宮市","address":"南越木岩町"},
{"zip_code":"6620834","kana_pref":"ﾋｮｳｺﾞｹﾝ","kana_city":"ﾆｼﾉﾐﾔｼ","kana_address":"ﾐﾅﾐｼｮｳﾜﾁｮｳ","pref":"兵庫県","city":"西宮市","address":"南昭和町"},
{"zip_code":"6620976","kana_pref":"ﾋｮｳｺﾞｹﾝ","kana_city":"ﾆｼﾉﾐﾔｼ","kana_address":"ﾐﾔﾆｼﾁｮｳ","pref":"兵庫県","city":"西宮市","address":"宮西町"},
{"zip_code":"6620947","kana_pref":"ﾋｮｳｺﾞｹﾝ","kana_city":"ﾆｼﾉﾐﾔｼ","kana_address":"ﾐﾔﾏｴﾁｮｳ","pref":"兵庫県","city":"西宮市","address":"宮前町"},
{"zip_code":"6620863","kana_pref":"ﾋｮｳｺﾞｹﾝ","kana_city":"ﾆｼﾉﾐﾔｼ","kana_address":"ﾑﾛｶﾜﾁｮｳ","pref":"兵庫県","city":"西宮市","address":"室川町"},
{"zip_code":"6620846","kana_pref":"ﾋｮｳｺﾞｹﾝ","kana_city":"ﾆｼﾉﾐﾔｼ","kana_address":"ﾓﾘｼﾀﾁｮｳ","pref":"兵庫県","city":"西宮市","address":"森下町"},
{"zip_code":"6620826","kana_pref":"ﾋｮｳｺﾞｹﾝ","kana_city":"ﾆｼﾉﾐﾔｼ","kana_address":"ﾓﾝﾄﾞｵｶﾀﾞﾁｮｳ","pref":"兵庫県","city":"西宮市","address":"門戸岡田町"},
{"zip_code":"6620824","kana_pref":"ﾋｮｳｺﾞｹﾝ","kana_city":"ﾆｼﾉﾐﾔｼ","kana_address":"ﾓﾝﾄﾞﾋｶﾞｼﾏﾁ","pref":"兵庫県","city":"西宮市","address":"門戸東町"},
{"zip_code":"6620828","kana_pref":"ﾋｮｳｺﾞｹﾝ","kana_city":"ﾆｼﾉﾐﾔｼ","kana_address":"ﾓﾝﾄﾞﾆｼﾏﾁ","pref":"兵庫県","city":"西宮市","address":"門戸西町"},
{"zip_code":"6620825","kana_pref":"ﾋｮｳｺﾞｹﾝ","kana_city":"ﾆｼﾉﾐﾔｼ","kana_address":"ﾓﾝﾄﾞｿｳ","pref":"兵庫県","city":"西宮市","address":"門戸荘"},
{"zip_code":"6620963","kana_pref":"ﾋｮｳｺﾞｹﾝ","kana_city":"ﾆｼﾉﾐﾔｼ","kana_address":"ﾔｼｷﾁｮｳ","pref":"兵庫県","city":"西宮市","address":"屋敷町"},
{"zip_code":"6620045","kana_pref":"ﾋｮｳｺﾞｹﾝ","kana_city":"ﾆｼﾉﾐﾔｼ","kana_address":"ﾔｽｲﾁｮｳ","pref":"兵庫県","city":"西宮市","address":"安井町"},
{"zip_code":"6620866","kana_pref":"ﾋｮｳｺﾞｹﾝ","kana_city":"ﾆｼﾉﾐﾔｼ","kana_address":"ﾔﾅｷﾞﾓﾄﾁｮｳ","pref":"兵庫県","city":"西宮市","address":"柳本町"},
{"zip_code":"6620005","kana_pref":"ﾋｮｳｺﾞｹﾝ","kana_city":"ﾆｼﾉﾐﾔｼ","kana_address":"ﾕﾉﾓﾄﾁｮｳ","pref":"兵庫県","city":"西宮市","address":"湯元町"},
{"zip_code":"6620964","kana_pref":"ﾋｮｳｺﾞｹﾝ","kana_city":"ﾆｼﾉﾐﾔｼ","kana_address":"ﾕﾊﾞﾁｮｳ","pref":"兵庫県","city":"西宮市","address":"弓場町"},
{"zip_code":"6620921","kana_pref":"ﾋｮｳｺﾞｹﾝ","kana_city":"ﾆｼﾉﾐﾔｼ","kana_address":"ﾖｳｶﾞｲﾁｮｳ","pref":"兵庫県","city":"西宮市","address":"用海町"},
{"zip_code":"6620917","kana_pref":"ﾋｮｳｺﾞｹﾝ","kana_city":"ﾆｼﾉﾐﾔｼ","kana_address":"ﾖｺﾐﾁﾁｮｳ","pref":"兵庫県","city":"西宮市","address":"与古道町"},
{"zip_code":"6620841","kana_pref":"ﾋｮｳｺﾞｹﾝ","kana_city":"ﾆｼﾉﾐﾔｼ","kana_address":"ﾘｮｳﾄﾞﾁｮｳ","pref":"兵庫県","city":"西宮市","address":"両度町"},
{"zip_code":"6620918","kana_pref":"ﾋｮｳｺﾞｹﾝ","kana_city":"ﾆｼﾉﾐﾔｼ","kana_address":"ﾛｸﾀﾝｼﾞﾁｮｳ","pref":"兵庫県","city":"西宮市","address":"六湛寺町"},
{"zip_code":"6620874","kana_pref":"ﾋｮｳｺﾞｹﾝ","kana_city":"ﾆｼﾉﾐﾔｼ","kana_address":"ﾛｯｹﾝﾁｮｳ","pref":"兵庫県","city":"西宮市","address":"六軒町"},
{"zip_code":"6620035","kana_pref":"ﾋｮｳｺﾞｹﾝ","kana_city":"ﾆｼﾉﾐﾔｼ","kana_address":"ﾜｶﾏﾂﾁｮｳ","pref":"兵庫県","city":"西宮市","address":"若松町"},
{"zip_code":"6620971","kana_pref":"ﾋｮｳｺﾞｹﾝ","kana_city":"ﾆｼﾉﾐﾔｼ","kana_address":"ﾜｼﾞｮｳﾁｮｳ","pref":"兵庫県","city":"西宮市","address":"和上町"}]}