{"zip_code":[
{"zip_code":"6638186","kana_pref":"ﾋｮｳｺﾞｹﾝ","kana_city":"ﾆｼﾉﾐﾔｼ","kana_address":"ｱｹﾞﾅﾙｵﾁｮｳ","pref":"兵庫県","city":"西宮市","address":"上鳴尾町"},
{"zip_code":"6638025","kana_pref":"ﾋｮｳｺﾞｹﾝ","kana_city":"ﾆｼﾉﾐﾔｼ","kana_address":"ｱﾗｷﾁｮｳ","pref":"兵庫県","city":"西宮市","address":"荒木町"},
{"zip_code":"6638137","kana_pref":"ﾋｮｳｺﾞｹﾝ","kana_city":"ﾆｼﾉﾐﾔｼ","kana_address":"ｲｹﾋﾞﾗｷﾁｮｳ","pref":"兵庫県","city":"西宮市","address":"池開町"},
{"zip_code":"6638002","kana_pref":"ﾋｮｳｺﾞｹﾝ","kana_city":"ﾆｼﾉﾐﾔｼ","kana_address":"ｲﾁﾘﾔﾏﾁｮｳ","pref":"兵庫県","city":"西宮市","address":"一里山町"},
{"zip_code":"6638214","kana_pref":"ﾋｮｳｺﾞｹﾝ","kana_city":"ﾆｼﾉﾐﾔｼ","kana_address":"ｲﾏﾂﾞｱｹﾎﾞﾉﾁｮｳ","pref":"兵庫県","city":"西宮市","address":"今津曙町"},
{"zip_code":"6638213","kana_pref":"ﾋｮｳｺﾞｹﾝ","kana_city":"ﾆｼﾉﾐﾔｼ","kana_address":"ｲﾏﾂﾞｳｴﾉﾁｮｳ","pref":"兵庫県","city":"西宮市","address":"今津上野町"},
{"zip_code":"6638221","kana_pref":"ﾋｮｳｺﾞｹﾝ","kana_city":"ﾆｼﾉﾐﾔｼ","kana_address":"ｲﾏﾂﾞｵｵﾋｶﾞｼﾁｮｳ","pref":"兵庫県","city":"西宮市","address":"今津大東町"},
{"zip_code":"6638222","kana_pref":"ﾋｮｳｺﾞｹﾝ","kana_city":"ﾆｼﾉﾐﾔｼ","kana_address":"ｲﾏﾂﾞｸｽｶﾞﾜﾁｮｳ","pref":"兵庫県","city":"西宮市","address":"今津久寿川町"},
{"zip_code":"6638229","kana_pref":"ﾋｮｳｺﾞｹﾝ","kana_city":"ﾆｼﾉﾐﾔｼ","kana_address":"ｲﾏﾂﾞｼｬｾﾞﾝﾁｮｳ","pref":"兵庫県","city":"西宮市","address":"今津社前町"},
{"zip_code":"6638223","kana_pref":"ﾋｮｳｺﾞｹﾝ","kana_city":"ﾆｼﾉﾐﾔｼ","kana_address":"ｲﾏﾂﾞﾀﾂﾐﾁｮｳ","pref":"兵庫県","city":"西宮市","address":"今津巽町"},
{"zip_code":"6638227","kana_pref":"ﾋｮｳｺﾞｹﾝ","kana_city":"ﾆｼﾉﾐﾔｼ","kana_address":"ｲﾏﾂﾞﾃﾞｻﾞｲｹﾁｮｳ","pref":"兵庫県","city":"西宮市","address":"今津出在家町"},
{"zip_code":"6638225","kana_pref":"ﾋｮｳｺﾞｹﾝ","kana_city":"ﾆｼﾉﾐﾔｼ","kana_address":"ｲﾏﾂﾞﾆｼﾊﾏﾁｮｳ","pref":"兵庫県","city":"西宮市","address":"今津西浜町"},
{"zip_code":"6638212","kana_pref":"ﾋｮｳｺﾞｹﾝ","kana_city":"ﾆｼﾉﾐﾔｼ","kana_address":"ｲﾏﾂﾞﾉﾀﾞﾁｮｳ","pref":"兵庫県","city":"西宮市","address":"今津野田町"},
{"zip_code":"6638228","kana_pref":"ﾋｮｳｺﾞｹﾝ","kana_city":"ﾆｼﾉﾐﾔｼ","kana_address":"ｲﾏﾂﾞﾌﾀﾊﾞﾁｮｳ","pref":"兵庫県","city":"西宮市","address":"今津二葉町"},
{"zip_code":"6638224","kana_pref":"ﾋｮｳｺﾞｹﾝ","kana_city":"ﾆｼﾉﾐﾔｼ","kana_address":"ｲﾏﾂﾞﾏｻｺﾞﾁｮｳ","pref":"兵庫県","city":"西宮市","address":"今津真砂町"},
{"zip_code":"6638215","kana_pref":"ﾋｮｳｺﾞｹﾝ","kana_city":"ﾆｼﾉﾐﾔｼ","kana_address":"ｲﾏﾂﾞﾐｽﾞﾅﾐﾁｮｳ","pref":"兵庫県","city":"西宮市","address":"今津水波町"},
{"zip_code":"6638226","kana_pref":"ﾋｮｳｺﾞｹﾝ","kana_city":"ﾆｼﾉﾐﾔｼ","kana_address":"ｲﾏﾂﾞﾐﾅﾄﾁｮｳ","pref":"兵庫県","city":"西宮市","address":"今津港町"},
{"zip_code":"6638211","kana_pref":"ﾋｮｳｺﾞｹﾝ","kana_city":"ﾆｼﾉﾐﾔｼ","kana_address":"ｲﾏﾂﾞﾔﾏﾅｶﾁｮｳ","pref":"兵庫県","city":"西宮市","address":"今津山中町"},
{"zip_code":"6638134","kana_pref":"ﾋｮｳｺﾞｹﾝ","kana_city":"ﾆｼﾉﾐﾔｼ","kana_address":"ｳｴﾀﾞﾅｶﾏﾁ","pref":"兵庫県","city":"西宮市","address":"上田中町"},
{"zip_code":"6638133","kana_pref":"ﾋｮｳｺﾞｹﾝ","kana_city":"ﾆｼﾉﾐﾔｼ","kana_address":"ｳｴﾀﾞﾋｶﾞｼﾏﾁ","pref":"兵庫県","city":"西宮市","address":"上田東町"},
{"zip_code":"6638135","kana_pref":"ﾋｮｳｺﾞｹﾝ","kana_city":"ﾆｼﾉﾐﾔｼ","kana_address":"ｳｴﾀﾞﾆｼﾏﾁ","pref":"兵庫県","city":"西宮市","address":"上田西町"},
{"zip_code":"6638143","kana_pref":"ﾋｮｳｺﾞｹﾝ","kana_city":"ﾆｼﾉﾐﾔｼ","kana_address":"ｴﾀﾞｶﾞﾜﾁｮｳ","pref":"兵庫県","city":"西宮市","address":"枝川町"},
{"zip_code":"6638017","kana_pref":"ﾋｮｳｺﾞｹﾝ","kana_city":"ﾆｼﾉﾐﾔｼ","kana_address":"ｵｵｼﾏﾁｮｳ","pref":"兵庫県","city":"西宮市","address":"大島町"},
{"zip_code":"6638023","kana_pref":"ﾋｮｳｺﾞｹﾝ","kana_city":"ﾆｼﾉﾐﾔｼ","kana_address":"ｵｵﾓﾘﾁｮｳ","pref":"兵庫県","city":"西宮市","address":"大森町"},
{"zip_code":"6638106","kana_pref":"ﾋｮｳｺﾞｹﾝ","kana_city":"ﾆｼﾉﾐﾔｼ","kana_address":"ｵｵﾔﾁｮｳ","pref":"兵庫県","city":"西宮市","address":"大屋町"},
{"zip_code":"6638182","kana_pref":"ﾋｮｳｺﾞｹﾝ","kana_city":"ﾆｼﾉﾐﾔｼ","kana_address":"ｶﾞｸﾌﾞﾝﾃﾞﾝﾁｮｳ","pref":"兵庫県","city":"西宮市","address":"学文殿町"},
{"zip_code":"6638136","kana_pref":"ﾋｮｳｺﾞｹﾝ","kana_city":"ﾆｼﾉﾐﾔｼ","kana_address":"ｶｻﾔﾁｮｳ","pref":"兵庫県","city":"西宮市","address":"笠屋町"},
{"zip_code":"6638003","kana_pref":"ﾋｮｳｺﾞｹﾝ","kana_city":"ﾆｼﾉﾐﾔｼ","kana_address":"ｶﾐｵｵｲﾁ","pref":"兵庫県","city":"西宮市","address":"上大市"},
{"zip_code":"6638114","kana_pref":"ﾋｮｳｺﾞｹﾝ","kana_city":"ﾆｼﾉﾐﾔｼ","kana_address":"ｶﾐｺｳｼｴﾝ","pref":"兵庫県","city":"西宮市","address":"上甲子園"},
{"zip_code":"6638021","kana_pref":"ﾋｮｳｺﾞｹﾝ","kana_city":"ﾆｼﾉﾐﾔｼ","kana_address":"ｶﾐﾉﾁｮｳ","pref":"兵庫県","city":"西宮市","address":"上之町"},
{"zip_code":"6638107","kana_pref":"ﾋｮｳｺﾞｹﾝ","kana_city":"ﾆｼﾉﾐﾔｼ","kana_address":"ｶﾜﾗﾊﾞﾔｼﾁｮｳ","pref":"兵庫県","city":"西宮市","address":"瓦林町"},
{"zip_code":"6638035","kana_pref":"ﾋｮｳｺﾞｹﾝ","kana_city":"ﾆｼﾉﾐﾔｼ","kana_address":"ｷﾀｸﾞﾁﾁｮｳ","pref":"兵庫県","city":"西宮市","address":"北口町"},
{"zip_code":"6638103","kana_pref":"ﾋｮｳｺﾞｹﾝ","kana_city":"ﾆｼﾉﾐﾔｼ","kana_address":"ｸﾏﾉﾁｮｳ","pref":"兵庫県","city":"西宮市","address":"熊野町"},
{"zip_code":"6638156","kana_pref":"ﾋｮｳｺﾞｹﾝ","kana_city":"ﾆｼﾉﾐﾔｼ","kana_address":"ｺｳｼｴﾝｱﾋﾞｷﾁｮｳ","pref":"兵庫県","city":"西宮市","address":"甲子園網引町"},
{"zip_code":"6638165","kana_pref":"ﾋｮｳｺﾞｹﾝ","kana_city":"ﾆｼﾉﾐﾔｼ","kana_address":"ｺｳｼｴﾝｳﾗｶｾﾞﾁｮｳ","pref":"兵庫県","city":"西宮市","address":"甲子園浦風町"},
{"zip_code":"6638151","kana_pref":"ﾋｮｳｺﾞｹﾝ","kana_city":"ﾆｼﾉﾐﾔｼ","kana_address":"ｺｳｼｴﾝｽﾄﾞﾘﾁｮｳ","pref":"兵庫県","city":"西宮市","address":"甲子園洲鳥町"},
{"zip_code":"6638162","kana_pref":"ﾋｮｳｺﾞｹﾝ","kana_city":"ﾆｼﾉﾐﾔｼ","kana_address":"ｺｳｼｴﾝｽﾅﾀﾞﾁｮｳ","pref":"兵庫県","city":"西宮市","address":"甲子園砂田町"},
{"zip_code":"6638166","kana_pref":"ﾋｮｳｺﾞｹﾝ","kana_city":"ﾆｼﾉﾐﾔｼ","kana_address":"ｺｳｼｴﾝﾀｶｼｵﾁｮｳ","pref":"兵庫県","city":"西宮市","address":"甲子園高潮町"},
{"zip_code":"6638167","kana_pref":"ﾋｮｳｺﾞｹﾝ","kana_city":"ﾆｼﾉﾐﾔｼ","kana_address":"ｺｳｼｴﾝﾊﾏﾀﾞﾁｮｳ","pref":"兵庫県","city":"西宮市","address":"甲子園浜田町"},
{"zip_code":"6638161","kana_pref":"ﾋｮｳｺﾞｹﾝ","kana_city":"ﾆｼﾉﾐﾔｼ","kana_address":"ｺｳｼｴﾝﾊﾙｶｾﾞﾁｮｳ","pref":"兵庫県","city":"西宮市","address":"甲子園春風町"},
{"zip_code":"6638163","kana_pref":"ﾋｮｳｺﾞｹﾝ","kana_city":"ﾆｼﾉﾐﾔｼ","kana_address":"ｺｳｼｴﾝﾐﾎﾁｮｳ","pref":"兵庫県","city":"西宮市","address":"甲子園三保町"},
{"zip_code":"6638164","kana_pref":"ﾋｮｳｺﾞｹﾝ","kana_city":"ﾆｼﾉﾐﾔｼ","kana_address":"ｺｳｼｴﾝﾛｯｺｸﾁｮｳ","pref":"兵庫県","city":"西宮市","address":"甲子園六石町"},
{"zip_code":"6638171","kana_pref":"ﾋｮｳｺﾞｹﾝ","kana_city":"ﾆｼﾉﾐﾔｼ","kana_address":"ｺｳｼｴﾝ1ﾊﾞﾝﾁｮｳ","pref":"兵庫県","city":"西宮市","address":"甲子園一番町"},
{"zip_code":"6638172","kana_pref":"ﾋｮｳｺﾞｹﾝ","kana_city":"ﾆｼﾉﾐﾔｼ","kana_address":"ｺｳｼｴﾝ2ﾊﾞﾝﾁｮｳ","pref":"兵庫県","city":"西宮市","address":"甲子園二番町"},
{"zip_code":"6638173","kana_pref":"ﾋｮｳｺﾞｹﾝ","kana_city":"ﾆｼﾉﾐﾔｼ","kana_address":"ｺｳｼｴﾝ3ﾊﾞﾝﾁｮｳ","pref":"兵庫県","city":"西宮市","address":"甲子園三番町"},
{"zip_code":"6638174","kana_pref":"ﾋｮｳｺﾞｹﾝ","kana_city":"ﾆｼﾉﾐﾔｼ","kana_address":"ｺｳｼｴﾝ4ﾊﾞﾝﾁｮｳ","pref":"兵庫県","city":"西宮市","address":"甲子園四番町"},
{"zip_code":"6638175","kana_pref":"ﾋｮｳｺﾞｹﾝ","kana_city":"ﾆｼﾉﾐﾔｼ","kana_address":"ｺｳｼｴﾝ5ﾊﾞﾝﾁｮｳ","pref":"兵庫県","city":"西宮市","address":"甲子園五番町"},
{"zip_code":"6638176","kana_pref":"ﾋｮｳｺﾞｹﾝ","kana_city":"ﾆｼﾉﾐﾔｼ","kana_address":"ｺｳｼｴﾝ6ﾊﾞﾝﾁｮｳ","pref":"兵庫県","city":"西宮市","address":"甲子園六番町"},
{"zip_code":"6638177","kana_pref":"ﾋｮｳｺﾞｹﾝ","kana_city":"ﾆｼﾉﾐﾔｼ","kana_address":"ｺｳｼｴﾝ7ﾊﾞﾝﾁｮｳ","pref":"兵庫県","city":"西宮市","address":"甲子園七番町"},
{"zip_code":"6638178","kana_pref":"ﾋｮｳｺﾞｹﾝ","kana_city":"ﾆｼﾉﾐﾔｼ","kana_address":"ｺｳｼｴﾝ8ﾊﾞﾝﾁｮｳ","pref":"兵庫県","city":"西宮市","address":"甲子園八番町"},
{"zip_code":"6638179","kana_pref":"ﾋｮｳｺﾞｹﾝ","kana_city":"ﾆｼﾉﾐﾔｼ","kana_address":"ｺｳｼｴﾝ9ﾊﾞﾝﾁｮｳ","pref":"兵庫県","city":"西宮市","address":"甲子園九番町"},
{"zip_code":"6638113","kana_pref":"ﾋｮｳｺﾞｹﾝ","kana_city":"ﾆｼﾉﾐﾔｼ","kana_address":"ｺｳｼｴﾝｸﾞﾁ","pref":"兵庫県","city":"西宮市","address":"甲子園口"},
{"zip_code":"6638112","kana_pref":"ﾋｮｳｺﾞｹﾝ","kana_city":"ﾆｼﾉﾐﾔｼ","kana_address":"ｺｳｼｴﾝｸﾞﾁｷﾀﾏﾁ","pref":"兵庫県","city":"西宮市","address":"甲子園口北町"},
{"zip_code":"6638152","kana_pref":"ﾋｮｳｺﾞｹﾝ","kana_city":"ﾆｼﾉﾐﾔｼ","kana_address":"ｺｳｼｴﾝﾁｮｳ","pref":"兵庫県","city":"西宮市","address":"甲子園町"},
{"zip_code":"6638155","kana_pref":"ﾋｮｳｺﾞｹﾝ","kana_city":"ﾆｼﾉﾐﾔｼ","kana_address":"ｺｳｼｴﾝﾊﾏ","pref":"兵庫県","city":"西宮市","address":"甲子園浜"},
{"zip_code":"6638122","kana_pref":"ﾋｮｳｺﾞｹﾝ","kana_city":"ﾆｼﾉﾐﾔｼ","kana_address":"ｺｿﾈﾁｮｳ","pref":"兵庫県","city":"西宮市","address":"小曽根町"},
{"zip_code":"6638123","kana_pref":"ﾋｮｳｺﾞｹﾝ","kana_city":"ﾆｼﾉﾐﾔｼ","kana_address":"ｺﾏﾂﾋｶﾞｼﾏﾁ","pref":"兵庫県","city":"西宮市","address":"小松東町"},
{"zip_code":"6638125","kana_pref":"ﾋｮｳｺﾞｹﾝ","kana_city":"ﾆｼﾉﾐﾔｼ","kana_address":"ｺﾏﾂﾆｼﾏﾁ","pref":"兵庫県","city":"西宮市","address":"小松西町"},
{"zip_code":"6638124","kana_pref":"ﾋｮｳｺﾞｹﾝ","kana_city":"ﾆｼﾉﾐﾔｼ","kana_address":"ｺﾏﾂﾐﾅﾐﾏﾁ","pref":"兵庫県","city":"西宮市","address":"小松南町"},
{"zip_code":"6638126","kana_pref":"ﾋｮｳｺﾞｹﾝ","kana_city":"ﾆｼﾉﾐﾔｼ","kana_address":"ｺﾏﾂｷﾀﾏﾁ","pref":"兵庫県","city":"西宮市","address":"小松北町"},
{"zip_code":"6638127","kana_pref":"ﾋｮｳｺﾞｹﾝ","kana_city":"ﾆｼﾉﾐﾔｼ","kana_address":"ｺﾏﾂﾁｮｳ","pref":"兵庫県","city":"西宮市","address":"小松町"},
{"zip_code":"6638183","kana_pref":"ﾋｮｳｺﾞｹﾝ","kana_city":"ﾆｼﾉﾐﾔｼ","kana_address":"ｻﾄﾅｶﾁｮｳ","pref":"兵庫県","city":"西宮市","address":"里中町"},
{"zip_code":"6638004","kana_pref":"ﾋｮｳｺﾞｹﾝ","kana_city":"ﾆｼﾉﾐﾔｼ","kana_address":"ｼﾓｵｵｲﾁﾋｶﾞｼﾏﾁ","pref":"兵庫県","city":"西宮市","address":"下大市東町"},
{"zip_code":"6638005","kana_pref":"ﾋｮｳｺﾞｹﾝ","kana_city":"ﾆｼﾉﾐﾔｼ","kana_address":"ｼﾓｵｵｲﾁﾆｼﾏﾁ","pref":"兵庫県","city":"西宮市","address":"下大市西町"},
{"zip_code":"6638033","kana_pref":"ﾋｮｳｺﾞｹﾝ","kana_city":"ﾆｼﾉﾐﾔｼ","kana_address":"ﾀｶｷﾞﾋｶﾞｼﾏﾁ","pref":"兵庫県","city":"西宮市","address":"高木東町"},
{"zip_code":"6638032","kana_pref":"ﾋｮｳｺﾞｹﾝ","kana_city":"ﾆｼﾉﾐﾔｼ","kana_address":"ﾀｶｷﾞﾆｼﾏﾁ","pref":"兵庫県","city":"西宮市","address":"高木西町"},
{"zip_code":"6638141","kana_pref":"ﾋｮｳｺﾞｹﾝ","kana_city":"ﾆｼﾉﾐﾔｼ","kana_address":"ﾀｶｽﾁｮｳ","pref":"兵庫県","city":"西宮市","address":"高須町"},
{"zip_code":"6638202","kana_pref":"ﾋｮｳｺﾞｹﾝ","kana_city":"ﾆｼﾉﾐﾔｼ","kana_address":"ﾀｶﾊﾀﾁｮｳ","pref":"兵庫県","city":"西宮市","address":"高畑町"},
{"zip_code":"6638204","kana_pref":"ﾋｮｳｺﾞｹﾝ","kana_city":"ﾆｼﾉﾐﾔｼ","kana_address":"ﾀｶﾏﾂﾁｮｳ","pref":"兵庫県","city":"西宮市","address":"高松町"},
{"zip_code":"6638201","kana_pref":"ﾋｮｳｺﾞｹﾝ","kana_city":"ﾆｼﾉﾐﾔｼ","kana_address":"ﾀｼﾛﾁｮｳ","pref":"兵庫県","city":"西宮市","address":"田代町"},
{"zip_code":"6638001","kana_pref":"ﾋｮｳｺﾞｹﾝ","kana_city":"ﾆｼﾉﾐﾔｼ","kana_address":"ﾀｼﾞｶﾉﾁｮｳ","pref":"兵庫県","city":"西宮市","address":"田近野町"},
{"zip_code":"6638006","kana_pref":"ﾋｮｳｺﾞｹﾝ","kana_city":"ﾆｼﾉﾐﾔｼ","kana_address":"ﾀﾞﾝｼﾞｮｳﾁｮｳ","pref":"兵庫県","city":"西宮市","address":"段上町"},
{"zip_code":"6638012","kana_pref":"ﾋｮｳｺﾞｹﾝ","kana_city":"ﾆｼﾉﾐﾔｼ","kana_address":"ﾂﾂﾐﾁｮｳ","pref":"兵庫県","city":"西宮市","address":"堤町"},
{"zip_code":"6638244","kana_pref":"ﾋｮｳｺﾞｹﾝ","kana_city":"ﾆｼﾉﾐﾔｼ","kana_address":"ﾂﾄｱﾔﾊﾁｮｳ","pref":"兵庫県","city":"西宮市","address":"津門綾羽町"},
{"zip_code":"6638242","kana_pref":"ﾋｮｳｺﾞｹﾝ","kana_city":"ﾆｼﾉﾐﾔｼ","kana_address":"ﾂﾄｲｲﾃﾞﾝﾁｮｳ","pref":"兵庫県","city":"西宮市","address":"津門飯田町"},
{"zip_code":"6638247","kana_pref":"ﾋｮｳｺﾞｹﾝ","kana_city":"ﾆｼﾉﾐﾔｼ","kana_address":"ﾂﾄｲﾅﾘﾁｮｳ","pref":"兵庫県","city":"西宮市","address":"津門稲荷町"},
{"zip_code":"6638243","kana_pref":"ﾋｮｳｺﾞｹﾝ","kana_city":"ﾆｼﾉﾐﾔｼ","kana_address":"ﾂﾄｵｵｺﾞﾁｮｳ","pref":"兵庫県","city":"西宮市","address":"津門大箇町"},
{"zip_code":"6638241","kana_pref":"ﾋｮｳｺﾞｹﾝ","kana_city":"ﾆｼﾉﾐﾔｼ","kana_address":"ﾂﾄｵｵﾂｶﾁｮｳ","pref":"兵庫県","city":"西宮市","address":"津門大塚町"},
{"zip_code":"6638245","kana_pref":"ﾋｮｳｺﾞｹﾝ","kana_city":"ﾆｼﾉﾐﾔｼ","kana_address":"ﾂﾄｸﾚﾊﾁｮｳ","pref":"兵庫県","city":"西宮市","address":"津門呉羽町"},
{"zip_code":"6638234","kana_pref":"ﾋｮｳｺﾞｹﾝ","kana_city":"ﾆｼﾉﾐﾔｼ","kana_address":"ﾂﾄｽﾐｴﾁｮｳ","pref":"兵庫県","city":"西宮市","address":"津門住江町"},
{"zip_code":"6638231","kana_pref":"ﾋｮｳｺﾞｹﾝ","kana_city":"ﾆｼﾉﾐﾔｼ","kana_address":"ﾂﾄﾆｼｸﾞﾁﾁｮｳ","pref":"兵庫県","city":"西宮市","address":"津門西口町"},
{"zip_code":"6638246","kana_pref":"ﾋｮｳｺﾞｹﾝ","kana_city":"ﾆｼﾉﾐﾔｼ","kana_address":"ﾂﾄﾆﾍﾞﾁｮｳ","pref":"兵庫県","city":"西宮市","address":"津門仁辺町"},
{"zip_code":"6638232","kana_pref":"ﾋｮｳｺﾞｹﾝ","kana_city":"ﾆｼﾉﾐﾔｼ","kana_address":"ﾂﾄﾎｳｽﾞﾁｮｳ","pref":"兵庫県","city":"西宮市","address":"津門宝津町"},
{"zip_code":"6638233","kana_pref":"ﾋｮｳｺﾞｹﾝ","kana_city":"ﾆｼﾉﾐﾔｼ","kana_address":"ﾂﾄｶﾞﾜﾁｮｳ","pref":"兵庫県","city":"西宮市","address":"津門川町"},
{"zip_code":"6638104","kana_pref":"ﾋｮｳｺﾞｹﾝ","kana_city":"ﾆｼﾉﾐﾔｼ","kana_address":"ﾃﾝﾄﾞｳﾁｮｳ","pref":"兵庫県","city":"西宮市","address":"天道町"},
{"zip_code":"6638121","kana_pref":"ﾋｮｳｺﾞｹﾝ","kana_city":"ﾆｼﾉﾐﾔｼ","kana_address":"ﾄｻﾞｷﾁｮｳ","pref":"兵庫県","city":"西宮市","address":"戸崎町"},
{"zip_code":"6638105","kana_pref":"ﾋｮｳｺﾞｹﾝ","kana_city":"ﾆｼﾉﾐﾔｼ","kana_address":"ﾅｶｼﾞﾏﾁｮｳ","pref":"兵庫県","city":"西宮市","address":"中島町"},
{"zip_code":"6638034","kana_pref":"ﾋｮｳｺﾞｹﾝ","kana_city":"ﾆｼﾉﾐﾔｼ","kana_address":"ﾅｶﾞﾀﾁｮｳ","pref":"兵庫県","city":"西宮市","address":"長田町"},
{"zip_code":"6638184","kana_pref":"ﾋｮｳｺﾞｹﾝ","kana_city":"ﾆｼﾉﾐﾔｼ","kana_address":"ﾅﾙｵﾁｮｳ","pref":"兵庫県","city":"西宮市","address":"鳴尾町"},
{"zip_code":"6638142","kana_pref":"ﾋｮｳｺﾞｹﾝ","kana_city":"ﾆｼﾉﾐﾔｼ","kana_address":"ﾅﾙｵﾊﾏ","pref":"兵庫県","city":"西宮市","address":"鳴尾浜"},
{"zip_code":"6638015","kana_pref":"ﾋｮｳｺﾞｹﾝ","kana_city":"ﾆｼﾉﾐﾔｼ","kana_address":"ﾉﾏﾁｮｳ","pref":"兵庫県","city":"西宮市","address":"野間町"},
{"zip_code":"6638187","kana_pref":"ﾋｮｳｺﾞｹﾝ","kana_city":"ﾆｼﾉﾐﾔｼ","kana_address":"ﾊﾅｿﾞﾉﾁｮｳ","pref":"兵庫県","city":"西宮市","address":"花園町"},
{"zip_code":"6638154","kana_pref":"ﾋｮｳｺﾞｹﾝ","kana_city":"ﾆｼﾉﾐﾔｼ","kana_address":"ﾊﾏｺｳｼｴﾝ","pref":"兵庫県","city":"西宮市","address":"浜甲子園"},
{"zip_code":"6638014","kana_pref":"ﾋｮｳｺﾞｹﾝ","kana_city":"ﾆｼﾉﾐﾔｼ","kana_address":"ﾊﾔｼﾀﾞﾁｮｳ","pref":"兵庫県","city":"西宮市","address":"林田町"},
{"zip_code":"6638132","kana_pref":"ﾋｮｳｺﾞｹﾝ","kana_city":"ﾆｼﾉﾐﾔｼ","kana_address":"ﾋｶﾞｼﾅﾙｵﾁｮｳ","pref":"兵庫県","city":"西宮市","address":"東鳴尾町"},
{"zip_code":"6638011","kana_pref":"ﾋｮｳｺﾞｹﾝ","kana_city":"ﾆｼﾉﾐﾔｼ","kana_address":"ﾋﾉｸﾁﾁｮｳ","pref":"兵庫県","city":"西宮市","address":"樋ノ口町"},
{"zip_code":"6638022","kana_pref":"ﾋｮｳｺﾞｹﾝ","kana_city":"ﾆｼﾉﾐﾔｼ","kana_address":"ﾋﾉﾁｮｳ","pref":"兵庫県","city":"西宮市","address":"日野町"},
{"zip_code":"6638203","kana_pref":"ﾋｮｳｺﾞｹﾝ","kana_city":"ﾆｼﾉﾐﾔｼ","kana_address":"ﾌｶｽﾞﾁｮｳ","pref":"兵庫県","city":"西宮市","address":"深津町"},
{"zip_code":"6638031","kana_pref":"ﾋｮｳｺﾞｹﾝ","kana_city":"ﾆｼﾉﾐﾔｼ","kana_address":"ﾌｼﾊﾗﾁｮｳ","pref":"兵庫県","city":"西宮市","address":"伏原町"},
{"zip_code":"6638111","kana_pref":"ﾋｮｳｺﾞｹﾝ","kana_city":"ﾆｼﾉﾐﾔｼ","kana_address":"ﾌﾀﾐﾁｮｳ","pref":"兵庫県","city":"西宮市","address":"二見町"},
{"zip_code":"6638185","kana_pref":"ﾋｮｳｺﾞｹﾝ","kana_city":"ﾆｼﾉﾐﾔｼ","kana_address":"ﾌﾙｶﾜﾁｮｳ","pref":"兵庫県","city":"西宮市","address":"古川町"},
{"zip_code":"6638102","kana_pref":"ﾋｮｳｺﾞｹﾝ","kana_city":"ﾆｼﾉﾐﾔｼ","kana_address":"ﾏﾂﾅﾐﾁｮｳ","pref":"兵庫県","city":"西宮市","address":"松並町"},
{"zip_code":"6638101","kana_pref":"ﾋｮｳｺﾞｹﾝ","kana_city":"ﾆｼﾉﾐﾔｼ","kana_address":"ﾏﾂﾔﾏﾁｮｳ","pref":"兵庫県","city":"西宮市","address":"松山町"},
{"zip_code":"6638153","kana_pref":"ﾋｮｳｺﾞｹﾝ","kana_city":"ﾆｼﾉﾐﾔｼ","kana_address":"ﾐﾅﾐｺｳｼｴﾝ","pref":"兵庫県","city":"西宮市","address":"南甲子園"},
{"zip_code":"6638131","kana_pref":"ﾋｮｳｺﾞｹﾝ","kana_city":"ﾆｼﾉﾐﾔｼ","kana_address":"ﾑｺｶﾞﾜﾁｮｳ","pref":"兵庫県","city":"西宮市","address":"武庫川町"},
{"zip_code":"6638013","kana_pref":"ﾋｮｳｺﾞｹﾝ","kana_city":"ﾆｼﾉﾐﾔｼ","kana_address":"ﾓﾝｾﾞﾝﾁｮｳ","pref":"兵庫県","city":"西宮市","address":"門前町"},
{"zip_code":"6638024","kana_pref":"ﾋｮｳｺﾞｹﾝ","kana_city":"ﾆｼﾉﾐﾔｼ","kana_address":"ﾔｸｼﾁｮｳ","pref":"兵庫県","city":"西宮市","address":"薬師町"},
{"zip_code":"6638181","kana_pref":"ﾋｮｳｺﾞｹﾝ","kana_city":"ﾆｼﾉﾐﾔｼ","kana_address":"ﾜｶｸｻﾁｮｳ","pref":"兵庫県","city":"西宮市","address":"若草町"},
{"zip_code":"6638016","kana_pref":"ﾋｮｳｺﾞｹﾝ","kana_city":"ﾆｼﾉﾐﾔｼ","kana_address":"ﾜｶﾔﾏﾁｮｳ","pref":"兵庫県","city":"西宮市","address":"若山町"}]}