{"zip_code":[
{"zip_code":"6640000","kana_pref":"ﾋｮｳｺﾞｹﾝ","kana_city":"ｲﾀﾐｼ","kana_address":"","pref":"兵庫県","city":"伊丹市","address":""},
{"zip_code":"6640001","kana_pref":"ﾋｮｳｺﾞｹﾝ","kana_city":"ｲﾀﾐｼ","kana_address":"ｱﾗﾏｷ","pref":"兵庫県","city":"伊丹市","address":"荒牧"},
{"zip_code":"6640008","kana_pref":"ﾋｮｳｺﾞｹﾝ","kana_city":"ｲﾀﾐｼ","kana_address":"ｱﾗﾏｷﾐﾅﾐ","pref":"兵庫県","city":"伊丹市","address":"荒牧南"},
{"zip_code":"6640864","kana_pref":"ﾋｮｳｺﾞｹﾝ","kana_city":"ｲﾀﾐｼ","kana_address":"ｱﾝﾄﾞｳｼﾞﾁｮｳ","pref":"兵庫県","city":"伊丹市","address":"安堂寺町"},
{"zip_code":"6640027","kana_pref":"ﾋｮｳｺﾞｹﾝ","kana_city":"ｲﾀﾐｼ","kana_address":"ｲｹｼﾞﾘ","pref":"兵庫県","city":"伊丹市","address":"池尻"},
{"zip_code":"6640846","kana_pref":"ﾋｮｳｺﾞｹﾝ","kana_city":"ｲﾀﾐｼ","kana_address":"ｲﾀﾐ","pref":"兵庫県","city":"伊丹市","address":"伊丹"},
{"zip_code":"6640861","kana_pref":"ﾋｮｳｺﾞｹﾝ","kana_city":"ｲﾀﾐｼ","kana_address":"ｲﾅﾉﾁｮｳ","pref":"兵庫県","city":"伊丹市","address":"稲野町"},
{"zip_code":"6640011","kana_pref":"ﾋｮｳｺﾞｹﾝ","kana_city":"ｲﾀﾐｼ","kana_address":"ｲﾓｼﾞ","pref":"兵庫県","city":"伊丹市","address":"鋳物師"},
{"zip_code":"6640843","kana_pref":"ﾋｮｳｺﾞｹﾝ","kana_city":"ｲﾀﾐｼ","kana_address":"ｲﾜﾔ","pref":"兵庫県","city":"伊丹市","address":"岩屋"},
{"zip_code":"6640856","kana_pref":"ﾋｮｳｺﾞｹﾝ","kana_city":"ｲﾀﾐｼ","kana_address":"ｳﾒﾉｷ","pref":"兵庫県","city":"伊丹市","address":"梅ノ木"},
{"zip_code":"6640899","kana_pref":"ﾋｮｳｺﾞｹﾝ","kana_city":"ｲﾀﾐｼ","kana_address":"ｵｵｼﾞｶ","pref":"兵庫県","city":"伊丹市","address":"大鹿"},
{"zip_code":"6640003","kana_pref":"ﾋｮｳｺﾞｹﾝ","kana_city":"ｲﾀﾐｼ","kana_address":"ｵｵﾉ","pref":"兵庫県","city":"伊丹市","address":"大野"},
{"zip_code":"6640002","kana_pref":"ﾋｮｳｺﾞｹﾝ","kana_city":"ｲﾀﾐｼ","kana_address":"ｵｷﾞﾉ","pref":"兵庫県","city":"伊丹市","address":"荻野"},
{"zip_code":"6640031","kana_pref":"ﾋｮｳｺﾞｹﾝ","kana_city":"ｲﾀﾐｼ","kana_address":"ｵｷﾞﾉﾆｼ","pref":"兵庫県","city":"伊丹市","address":"荻野西"},
{"zip_code":"6640025","kana_pref":"ﾋｮｳｺﾞｹﾝ","kana_city":"ｲﾀﾐｼ","kana_address":"ｵｸﾊﾀ","pref":"兵庫県","city":"伊丹市","address":"奥畑"},
{"zip_code":"6640833","kana_pref":"ﾋｮｳｺﾞｹﾝ","kana_city":"ｲﾀﾐｼ","kana_address":"ｵｻｶﾃﾞﾝ","pref":"兵庫県","city":"伊丹市","address":"小阪田"},
{"zip_code":"6640863","kana_pref":"ﾋｮｳｺﾞｹﾝ","kana_city":"ｲﾀﾐｼ","kana_address":"ｶｼﾜｷﾞﾁｮｳ","pref":"兵庫県","city":"伊丹市","address":"柏木町"},
{"zip_code":"6640893","kana_pref":"ﾋｮｳｺﾞｹﾝ","kana_city":"ｲﾀﾐｼ","kana_address":"ｶｽｶﾞｵｶ","pref":"兵庫県","city":"伊丹市","address":"春日丘"},
{"zip_code":"6640831","kana_pref":"ﾋｮｳｺﾞｹﾝ","kana_city":"ｲﾀﾐｼ","kana_address":"ｷﾀｲﾀﾐ","pref":"兵庫県","city":"伊丹市","address":"北伊丹"},
{"zip_code":"6640837","kana_pref":"ﾋｮｳｺﾞｹﾝ","kana_city":"ｲﾀﾐｼ","kana_address":"ｷﾀｶﾞﾜﾗ","pref":"兵庫県","city":"伊丹市","address":"北河原"},
{"zip_code":"6640891","kana_pref":"ﾋｮｳｺﾞｹﾝ","kana_city":"ｲﾀﾐｼ","kana_address":"ｷﾀｿﾞﾉ","pref":"兵庫県","city":"伊丹市","address":"北園"},
{"zip_code":"6640007","kana_pref":"ﾋｮｳｺﾞｹﾝ","kana_city":"ｲﾀﾐｼ","kana_address":"ｷﾀﾉ","pref":"兵庫県","city":"伊丹市","address":"北野"},
{"zip_code":"6640836","kana_pref":"ﾋｮｳｺﾞｹﾝ","kana_city":"ｲﾀﾐｼ","kana_address":"ｷﾀﾎﾝﾏﾁ","pref":"兵庫県","city":"伊丹市","address":"北本町"},
{"zip_code":"6640857","kana_pref":"ﾋｮｳｺﾞｹﾝ","kana_city":"ｲﾀﾐｼ","kana_address":"ｷﾞｮｳｷﾁｮｳ","pref":"兵庫県","city":"伊丹市","address":"行基町"},
{"zip_code":"6640844","kana_pref":"ﾋｮｳｺﾞｹﾝ","kana_city":"ｲﾀﾐｼ","kana_address":"ｸﾁｻｶｲ","pref":"兵庫県","city":"伊丹市","address":"口酒井"},
{"zip_code":"6640872","kana_pref":"ﾋｮｳｺﾞｹﾝ","kana_city":"ｲﾀﾐｼ","kana_address":"ｸﾙﾏﾂﾞｶ","pref":"兵庫県","city":"伊丹市","address":"車塚"},
{"zip_code":"6640839","kana_pref":"ﾋｮｳｺﾞｹﾝ","kana_city":"ｲﾀﾐｼ","kana_address":"ｸﾜﾂﾞ","pref":"兵庫県","city":"伊丹市","address":"桑津"},
{"zip_code":"6640006","kana_pref":"ﾋｮｳｺﾞｹﾝ","kana_city":"ｲﾀﾐｼ","kana_address":"ｺｳﾉｲｹ","pref":"兵庫県","city":"伊丹市","address":"鴻池"},
{"zip_code":"6640855","kana_pref":"ﾋｮｳｺﾞｹﾝ","kana_city":"ｲﾀﾐｼ","kana_address":"ｺﾞｶﾞﾂﾞｶ","pref":"兵庫県","city":"伊丹市","address":"御願塚"},
{"zip_code":"6640881","kana_pref":"ﾋｮｳｺﾞｹﾝ","kana_city":"ｲﾀﾐｼ","kana_address":"ｺﾔ","pref":"兵庫県","city":"伊丹市","address":"昆陽"},
{"zip_code":"6640015","kana_pref":"ﾋｮｳｺﾞｹﾝ","kana_city":"ｲﾀﾐｼ","kana_address":"ｺﾔｲｹ","pref":"兵庫県","city":"伊丹市","address":"昆陽池"},
{"zip_code":"6640885","kana_pref":"ﾋｮｳｺﾞｹﾝ","kana_city":"ｲﾀﾐｼ","kana_address":"ｺﾔｲｽﾞﾐﾁｮｳ","pref":"兵庫県","city":"伊丹市","address":"昆陽泉町"},
{"zip_code":"6640016","kana_pref":"ﾋｮｳｺﾞｹﾝ","kana_city":"ｲﾀﾐｼ","kana_address":"ｺﾔｷﾀ","pref":"兵庫県","city":"伊丹市","address":"昆陽北"},
{"zip_code":"6640886","kana_pref":"ﾋｮｳｺﾞｹﾝ","kana_city":"ｲﾀﾐｼ","kana_address":"ｺﾔﾋｶﾞｼ","pref":"兵庫県","city":"伊丹市","address":"昆陽東"},
{"zip_code":"6640888","kana_pref":"ﾋｮｳｺﾞｹﾝ","kana_city":"ｲﾀﾐｼ","kana_address":"ｺﾔﾐﾅﾐ","pref":"兵庫県","city":"伊丹市","address":"昆陽南"},
{"zip_code":"6640897","kana_pref":"ﾋｮｳｺﾞｹﾝ","kana_city":"ｲﾀﾐｼ","kana_address":"ｻｸﾗｶﾞｵｶ","pref":"兵庫県","city":"伊丹市","address":"桜ケ丘"},
{"zip_code":"6640894","kana_pref":"ﾋｮｳｺﾞｹﾝ","kana_city":"ｲﾀﾐｼ","kana_address":"ｼﾐｽﾞ","pref":"兵庫県","city":"伊丹市","address":"清水"},
{"zip_code":"6640832","kana_pref":"ﾋｮｳｺﾞｹﾝ","kana_city":"ｲﾀﾐｼ","kana_address":"ｼﾓｶﾞﾜﾗ","pref":"兵庫県","city":"伊丹市","address":"下河原"},
{"zip_code":"6640882","kana_pref":"ﾋｮｳｺﾞｹﾝ","kana_city":"ｲﾀﾐｼ","kana_address":"ｽｽﾞﾊﾗﾁｮｳ","pref":"兵庫県","city":"伊丹市","address":"鈴原町"},
{"zip_code":"6640898","kana_pref":"ﾋｮｳｺﾞｹﾝ","kana_city":"ｲﾀﾐｼ","kana_address":"ｾﾝｿﾞ","pref":"兵庫県","city":"伊丹市","address":"千僧"},
{"zip_code":"6640892","kana_pref":"ﾋｮｳｺﾞｹﾝ","kana_city":"ｲﾀﾐｼ","kana_address":"ﾀｶﾀﾞｲ","pref":"兵庫県","city":"伊丹市","address":"高台"},
{"zip_code":"6640851","kana_pref":"ﾋｮｳｺﾞｹﾝ","kana_city":"ｲﾀﾐｼ","kana_address":"ﾁｭｳｵｳ","pref":"兵庫県","city":"伊丹市","address":"中央"},
{"zip_code":"6640026","kana_pref":"ﾋｮｳｺﾞｹﾝ","kana_city":"ｲﾀﾐｼ","kana_address":"ﾃﾗﾓﾄ","pref":"兵庫県","city":"伊丹市","address":"寺本"},
{"zip_code":"6640020","kana_pref":"ﾋｮｳｺﾞｹﾝ","kana_city":"ｲﾀﾐｼ","kana_address":"ﾃﾗﾓﾄﾋｶﾞｼ","pref":"兵庫県","city":"伊丹市","address":"寺本東"},
{"zip_code":"6640021","kana_pref":"ﾋｮｳｺﾞｹﾝ","kana_city":"ｲﾀﾐｼ","kana_address":"ﾅｶﾉ","pref":"兵庫県","city":"伊丹市","address":"中野"},
{"zip_code":"6640022","kana_pref":"ﾋｮｳｺﾞｹﾝ","kana_city":"ｲﾀﾐｼ","kana_address":"ﾅｶﾉﾋｶﾞｼ","pref":"兵庫県","city":"伊丹市","address":"中野東"},
{"zip_code":"6640023","kana_pref":"ﾋｮｳｺﾞｹﾝ","kana_city":"ｲﾀﾐｼ","kana_address":"ﾅｶﾉﾆｼ","pref":"兵庫県","city":"伊丹市","address":"中野西"},
{"zip_code":"6640029","kana_pref":"ﾋｮｳｺﾞｹﾝ","kana_city":"ｲﾀﾐｼ","kana_address":"ﾅｶﾉｷﾀ","pref":"兵庫県","city":"伊丹市","address":"中野北"},
{"zip_code":"6640838","kana_pref":"ﾋｮｳｺﾞｹﾝ","kana_city":"ｲﾀﾐｼ","kana_address":"ﾅｶﾑﾗ","pref":"兵庫県","city":"伊丹市","address":"中村"},
{"zip_code":"6640834","kana_pref":"ﾋｮｳｺﾞｹﾝ","kana_city":"ｲﾀﾐｼ","kana_address":"ﾆｼｸﾜﾂﾞ","pref":"兵庫県","city":"伊丹市","address":"西桑津"},
{"zip_code":"6640858","kana_pref":"ﾋｮｳｺﾞｹﾝ","kana_city":"ｲﾀﾐｼ","kana_address":"ﾆｼﾀﾞｲ","pref":"兵庫県","city":"伊丹市","address":"西台"},
{"zip_code":"6640028","kana_pref":"ﾋｮｳｺﾞｹﾝ","kana_city":"ｲﾀﾐｼ","kana_address":"ﾆｼﾉ","pref":"兵庫県","city":"伊丹市","address":"西野"},
{"zip_code":"6640873","kana_pref":"ﾋｮｳｺﾞｹﾝ","kana_city":"ｲﾀﾐｼ","kana_address":"ﾉﾏ","pref":"兵庫県","city":"伊丹市","address":"野間"},
{"zip_code":"6640875","kana_pref":"ﾋｮｳｺﾞｹﾝ","kana_city":"ｲﾀﾐｼ","kana_address":"ﾉﾏｷﾀ","pref":"兵庫県","city":"伊丹市","address":"野間北"},
{"zip_code":"6640845","kana_pref":"ﾋｮｳｺﾞｹﾝ","kana_city":"ｲﾀﾐｼ","kana_address":"ﾋｶﾞｼｱﾘｵｶ","pref":"兵庫県","city":"伊丹市","address":"東有岡"},
{"zip_code":"6640835","kana_pref":"ﾋｮｳｺﾞｹﾝ","kana_city":"ｲﾀﾐｼ","kana_address":"ﾋｶﾞｼｸﾜﾂﾞ","pref":"兵庫県","city":"伊丹市","address":"東桑津"},
{"zip_code":"6640004","kana_pref":"ﾋｮｳｺﾞｹﾝ","kana_city":"ｲﾀﾐｼ","kana_address":"ﾋｶﾞｼﾉ","pref":"兵庫県","city":"伊丹市","address":"東野"},
{"zip_code":"6640853","kana_pref":"ﾋｮｳｺﾞｹﾝ","kana_city":"ｲﾀﾐｼ","kana_address":"ﾋﾗﾏﾂ","pref":"兵庫県","city":"伊丹市","address":"平松"},
{"zip_code":"6640014","kana_pref":"ﾋｮｳｺﾞｹﾝ","kana_city":"ｲﾀﾐｼ","kana_address":"ﾋﾛﾊﾀ","pref":"兵庫県","city":"伊丹市","address":"広畑"},
{"zip_code":"6640847","kana_pref":"ﾋｮｳｺﾞｹﾝ","kana_city":"ｲﾀﾐｼ","kana_address":"ﾌｼﾞﾉｷ","pref":"兵庫県","city":"伊丹市","address":"藤ノ木"},
{"zip_code":"6640896","kana_pref":"ﾋｮｳｺﾞｹﾝ","kana_city":"ｲﾀﾐｼ","kana_address":"ﾌﾅﾊﾗ","pref":"兵庫県","city":"伊丹市","address":"船原"},
{"zip_code":"6640871","kana_pref":"ﾋｮｳｺﾞｹﾝ","kana_city":"ｲﾀﾐｼ","kana_address":"ﾎﾘｲｹ","pref":"兵庫県","city":"伊丹市","address":"堀池"},
{"zip_code":"6640024","kana_pref":"ﾋｮｳｺﾞｹﾝ","kana_city":"ｲﾀﾐｼ","kana_address":"ﾏﾂｶﾞｵｶ","pref":"兵庫県","city":"伊丹市","address":"松ケ丘"},
{"zip_code":"6640884","kana_pref":"ﾋｮｳｺﾞｹﾝ","kana_city":"ｲﾀﾐｼ","kana_address":"ﾐｽｽﾞﾁｮｳ","pref":"兵庫県","city":"伊丹市","address":"美鈴町"},
{"zip_code":"6640017","kana_pref":"ﾋｮｳｺﾞｹﾝ","kana_city":"ｲﾀﾐｼ","kana_address":"ﾐｽﾞｶﾞｵｶ","pref":"兵庫県","city":"伊丹市","address":"瑞ケ丘"},
{"zip_code":"6640005","kana_pref":"ﾋｮｳｺﾞｹﾝ","kana_city":"ｲﾀﾐｼ","kana_address":"ﾐｽﾞﾊﾗ","pref":"兵庫県","city":"伊丹市","address":"瑞原"},
{"zip_code":"6640013","kana_pref":"ﾋｮｳｺﾞｹﾝ","kana_city":"ｲﾀﾐｼ","kana_address":"ﾐｽﾞﾎﾁｮｳ","pref":"兵庫県","city":"伊丹市","address":"瑞穂町"},
{"zip_code":"6640012","kana_pref":"ﾋｮｳｺﾞｹﾝ","kana_city":"ｲﾀﾐｼ","kana_address":"ﾐﾄﾞﾘｶﾞｵｶ","pref":"兵庫県","city":"伊丹市","address":"緑ケ丘"},
{"zip_code":"6640883","kana_pref":"ﾋｮｳｺﾞｹﾝ","kana_city":"ｲﾀﾐｼ","kana_address":"ﾐﾅﾐｽｽﾞﾊﾗ","pref":"兵庫県","city":"伊丹市","address":"南鈴原"},
{"zip_code":"6640854","kana_pref":"ﾋｮｳｺﾞｹﾝ","kana_city":"ｲﾀﾐｼ","kana_address":"ﾐﾅﾐﾁｮｳ","pref":"兵庫県","city":"伊丹市","address":"南町"},
{"zip_code":"6640865","kana_pref":"ﾋｮｳｺﾞｹﾝ","kana_city":"ｲﾀﾐｼ","kana_address":"ﾐﾅﾐﾉ","pref":"兵庫県","city":"伊丹市","address":"南野"},
{"zip_code":"6640887","kana_pref":"ﾋｮｳｺﾞｹﾝ","kana_city":"ｲﾀﾐｼ","kana_address":"ﾐﾅﾐﾉｷﾀ","pref":"兵庫県","city":"伊丹市","address":"南野北"},
{"zip_code":"6640852","kana_pref":"ﾋｮｳｺﾞｹﾝ","kana_city":"ｲﾀﾐｼ","kana_address":"ﾐﾅﾐﾎﾝﾏﾁ","pref":"兵庫県","city":"伊丹市","address":"南本町"},
{"zip_code":"6640895","kana_pref":"ﾋｮｳｺﾞｹﾝ","kana_city":"ｲﾀﾐｼ","kana_address":"ﾐﾔﾉﾏｴ","pref":"兵庫県","city":"伊丹市","address":"宮ノ前"},
{"zip_code":"6640842","kana_pref":"ﾋｮｳｺﾞｹﾝ","kana_city":"ｲﾀﾐｼ","kana_address":"ﾓﾘﾓﾄ","pref":"兵庫県","city":"伊丹市","address":"森本"},
{"zip_code":"6640874","kana_pref":"ﾋｮｳｺﾞｹﾝ","kana_city":"ｲﾀﾐｼ","kana_address":"ﾔﾏﾀﾞ","pref":"兵庫県","city":"伊丹市","address":"山田"},
{"zip_code":"6640862","kana_pref":"ﾋｮｳｺﾞｹﾝ","kana_city":"ｲﾀﾐｼ","kana_address":"ﾜｶﾋﾞｼﾁｮｳ","pref":"兵庫県","city":"伊丹市","address":"若菱町"}]}