{"zip_code":[
{"zip_code":"6650000","kana_pref":"ﾋｮｳｺﾞｹﾝ","kana_city":"ﾀｶﾗﾂﾞｶｼ","kana_address":"","pref":"兵庫県","city":"宝塚市","address":""},
{"zip_code":"6650014","kana_pref":"ﾋｮｳｺﾞｹﾝ","kana_city":"ﾀｶﾗﾂﾞｶｼ","kana_address":"ｱｵﾊﾞﾀﾞｲ","pref":"兵庫県","city":"宝塚市","address":"青葉台"},
{"zip_code":"6650822","kana_pref":"ﾋｮｳｺﾞｹﾝ","kana_city":"ﾀｶﾗﾂﾞｶｼ","kana_address":"ｱｸﾗﾅｶ","pref":"兵庫県","city":"宝塚市","address":"安倉中"},
{"zip_code":"6650825","kana_pref":"ﾋｮｳｺﾞｹﾝ","kana_city":"ﾀｶﾗﾂﾞｶｼ","kana_address":"ｱｸﾗﾆｼ","pref":"兵庫県","city":"宝塚市","address":"安倉西"},
{"zip_code":"6650823","kana_pref":"ﾋｮｳｺﾞｹﾝ","kana_city":"ﾀｶﾗﾂﾞｶｼ","kana_address":"ｱｸﾗﾐﾅﾐ","pref":"兵庫県","city":"宝塚市","address":"安倉南"},
{"zip_code":"6650821","kana_pref":"ﾋｮｳｺﾞｹﾝ","kana_city":"ﾀｶﾗﾂﾞｶｼ","kana_address":"ｱｸﾗｷﾀ","pref":"兵庫県","city":"宝塚市","address":"安倉北"},
{"zip_code":"6650835","kana_pref":"ﾋｮｳｺﾞｹﾝ","kana_city":"ﾀｶﾗﾂﾞｶｼ","kana_address":"ｱｻﾋﾏﾁ","pref":"兵庫県","city":"宝塚市","address":"旭町"},
{"zip_code":"6650851","kana_pref":"ﾋｮｳｺﾞｹﾝ","kana_city":"ﾀｶﾗﾂﾞｶｼ","kana_address":"ｲｽﾞﾐｶﾞｵｶ","pref":"兵庫県","city":"宝塚市","address":"泉ガ丘"},
{"zip_code":"6650864","kana_pref":"ﾋｮｳｺﾞｹﾝ","kana_city":"ﾀｶﾗﾂﾞｶｼ","kana_address":"ｲｽﾞﾐﾁｮｳ","pref":"兵庫県","city":"宝塚市","address":"泉町"},
{"zip_code":"6650033","kana_pref":"ﾋｮｳｺﾞｹﾝ","kana_city":"ﾀｶﾗﾂﾞｶｼ","kana_address":"ｲｿｼ","pref":"兵庫県","city":"宝塚市","address":"伊孑志"},
{"zip_code":"6650007","kana_pref":"ﾋｮｳｺﾞｹﾝ","kana_city":"ﾀｶﾗﾂﾞｶｼ","kana_address":"ｲｿｼ","pref":"兵庫県","city":"宝塚市","address":"伊孑志"},
{"zip_code":"6650862","kana_pref":"ﾋｮｳｺﾞｹﾝ","kana_city":"ﾀｶﾗﾂﾞｶｼ","kana_address":"ｲﾏｻﾞﾄﾁｮｳ","pref":"兵庫県","city":"宝塚市","address":"今里町"},
{"zip_code":"6650004","kana_pref":"ﾋｮｳｺﾞｹﾝ","kana_city":"ﾀｶﾗﾂﾞｶｼ","kana_address":"ｳﾒﾉﾁｮｳ","pref":"兵庫県","city":"宝塚市","address":"梅野町"},
{"zip_code":"6650057","kana_pref":"ﾋｮｳｺﾞｹﾝ","kana_city":"ﾀｶﾗﾂﾞｶｼ","kana_address":"ｵｵﾌﾞｷﾁｮｳ","pref":"兵庫県","city":"宝塚市","address":"大吹町"},
{"zip_code":"6650034","kana_pref":"ﾋｮｳｺﾞｹﾝ","kana_city":"ﾀｶﾗﾂﾞｶｼ","kana_address":"ｵﾊﾞﾔｼ","pref":"兵庫県","city":"宝塚市","address":"小林"},
{"zip_code":"6650017","kana_pref":"ﾋｮｳｺﾞｹﾝ","kana_city":"ﾀｶﾗﾂﾞｶｼ","kana_address":"ｵﾊﾞﾔｼﾆｼﾔﾏ","pref":"兵庫県","city":"宝塚市","address":"小林西山"},
{"zip_code":"6650054","kana_pref":"ﾋｮｳｺﾞｹﾝ","kana_city":"ﾀｶﾗﾂﾞｶｼ","kana_address":"ｶｼｵ","pref":"兵庫県","city":"宝塚市","address":"鹿塩"},
{"zip_code":"6650824","kana_pref":"ﾋｮｳｺﾞｹﾝ","kana_city":"ﾀｶﾗﾂﾞｶｼ","kana_address":"ｶﾅｲﾁｮｳ","pref":"兵庫県","city":"宝塚市","address":"金井町"},
{"zip_code":"6650047","kana_pref":"ﾋｮｳｺﾞｹﾝ","kana_city":"ﾀｶﾗﾂﾞｶｼ","kana_address":"ｶﾒｲﾁｮｳ","pref":"兵庫県","city":"宝塚市","address":"亀井町"},
{"zip_code":"6650842","kana_pref":"ﾋｮｳｺﾞｹﾝ","kana_city":"ﾀｶﾗﾂﾞｶｼ","kana_address":"ｶﾜﾓ","pref":"兵庫県","city":"宝塚市","address":"川面"},
{"zip_code":"6650848","kana_pref":"ﾋｮｳｺﾞｹﾝ","kana_city":"ﾀｶﾗﾂﾞｶｼ","kana_address":"ｶﾜﾓ","pref":"兵庫県","city":"宝塚市","address":"川面"},
{"zip_code":"6650836","kana_pref":"ﾋｮｳｺﾞｹﾝ","kana_city":"ﾀｶﾗﾂﾞｶｼ","kana_address":"ｷﾖｼｺｳｼﾞﾝ","pref":"兵庫県","city":"宝塚市","address":"清荒神"},
{"zip_code":"6650808","kana_pref":"ﾋｮｳｺﾞｹﾝ","kana_city":"ﾀｶﾗﾂﾞｶｼ","kana_address":"ｷﾘﾊﾀ","pref":"兵庫県","city":"宝塚市","address":"切畑"},
{"zip_code":"6650812","kana_pref":"ﾋｮｳｺﾞｹﾝ","kana_city":"ﾀｶﾗﾂﾞｶｼ","kana_address":"ｸﾁﾀﾆﾋｶﾞｼ","pref":"兵庫県","city":"宝塚市","address":"口谷東"},
{"zip_code":"6650813","kana_pref":"ﾋｮｳｺﾞｹﾝ","kana_city":"ﾀｶﾗﾂﾞｶｼ","kana_address":"ｸﾁﾀﾆﾆｼ","pref":"兵庫県","city":"宝塚市","address":"口谷西"},
{"zip_code":"6650023","kana_pref":"ﾋｮｳｺﾞｹﾝ","kana_city":"ﾀｶﾗﾂﾞｶｼ","kana_address":"ｸﾗﾝﾄﾞ","pref":"兵庫県","city":"宝塚市","address":"蔵人"},
{"zip_code":"6650832","kana_pref":"ﾋｮｳｺﾞｹﾝ","kana_city":"ﾀｶﾗﾂﾞｶｼ","kana_address":"ｺｳｹﾞﾂﾁｮｳ","pref":"兵庫県","city":"宝塚市","address":"向月町"},
{"zip_code":"6650045","kana_pref":"ﾋｮｳｺﾞｹﾝ","kana_city":"ﾀｶﾗﾂﾞｶｼ","kana_address":"ｺｳﾐｮｳﾁｮｳ","pref":"兵庫県","city":"宝塚市","address":"光明町"},
{"zip_code":"6650041","kana_pref":"ﾋｮｳｺﾞｹﾝ","kana_city":"ﾀｶﾗﾂﾞｶｼ","kana_address":"ｺﾞｼｮﾉﾏｴﾁｮｳ","pref":"兵庫県","city":"宝塚市","address":"御所の前町"},
{"zip_code":"6650841","kana_pref":"ﾋｮｳｺﾞｹﾝ","kana_city":"ﾀｶﾗﾂﾞｶｼ","kana_address":"ｺﾞﾃﾝﾔﾏ","pref":"兵庫県","city":"宝塚市","address":"御殿山"},
{"zip_code":"6650865","kana_pref":"ﾋｮｳｺﾞｹﾝ","kana_city":"ﾀｶﾗﾂﾞｶｼ","kana_address":"ｺﾄﾌﾞｷﾁｮｳ","pref":"兵庫県","city":"宝塚市","address":"寿町"},
{"zip_code":"6650827","kana_pref":"ﾋｮｳｺﾞｹﾝ","kana_city":"ﾀｶﾗﾂﾞｶｼ","kana_address":"ｺﾊﾏ","pref":"兵庫県","city":"宝塚市","address":"小浜"},
{"zip_code":"6650053","kana_pref":"ﾋｮｳｺﾞｹﾝ","kana_city":"ﾀｶﾗﾂﾞｶｼ","kana_address":"ｺﾏﾉﾁｮｳ","pref":"兵庫県","city":"宝塚市","address":"駒の町"},
{"zip_code":"6650845","kana_pref":"ﾋｮｳｺﾞｹﾝ","kana_city":"ﾀｶﾗﾂﾞｶｼ","kana_address":"ｻｶｴﾏﾁ","pref":"兵庫県","city":"宝塚市","address":"栄町"},
{"zip_code":"6650035","kana_pref":"ﾋｮｳｺﾞｹﾝ","kana_city":"ﾀｶﾗﾂﾞｶｼ","kana_address":"ｻｶｾｶﾞﾜ","pref":"兵庫県","city":"宝塚市","address":"逆瀬川"},
{"zip_code":"6650024","kana_pref":"ﾋｮｳｺﾞｹﾝ","kana_city":"ﾀｶﾗﾂﾞｶｼ","kana_address":"ｻｶｾﾀﾞｲ","pref":"兵庫県","city":"宝塚市","address":"逆瀬台"},
{"zip_code":"6650846","kana_pref":"ﾋｮｳｺﾞｹﾝ","kana_city":"ﾀｶﾗﾂﾞｶｼ","kana_address":"ｻｸﾗｶﾞｵｶ","pref":"兵庫県","city":"宝塚市","address":"桜ガ丘"},
{"zip_code":"6650012","kana_pref":"ﾋｮｳｺﾞｹﾝ","kana_city":"ﾀｶﾗﾂﾞｶｼ","kana_address":"ｼﾞｭﾗｸｿｳ","pref":"兵庫県","city":"宝塚市","address":"寿楽荘"},
{"zip_code":"6650052","kana_pref":"ﾋｮｳｺﾞｹﾝ","kana_city":"ﾀｶﾗﾂﾞｶｼ","kana_address":"ｼﾝﾒｲﾜﾁｮｳ","pref":"兵庫県","city":"宝塚市","address":"新明和町"},
{"zip_code":"6650044","kana_pref":"ﾋｮｳｺﾞｹﾝ","kana_city":"ﾀｶﾗﾂﾞｶｼ","kana_address":"ｽｴﾅﾘﾁｮｳ","pref":"兵庫県","city":"宝塚市","address":"末成町"},
{"zip_code":"6650031","kana_pref":"ﾋｮｳｺﾞｹﾝ","kana_city":"ﾀｶﾗﾂﾞｶｼ","kana_address":"ｽｴﾋﾛﾁｮｳ","pref":"兵庫県","city":"宝塚市","address":"末広町"},
{"zip_code":"6650847","kana_pref":"ﾋｮｳｺﾞｹﾝ","kana_city":"ﾀｶﾗﾂﾞｶｼ","kana_address":"ｽﾐﾚｶﾞｵｶ","pref":"兵庫県","city":"宝塚市","address":"すみれガ丘"},
{"zip_code":"6650055","kana_pref":"ﾋｮｳｺﾞｹﾝ","kana_city":"ﾀｶﾗﾂﾞｶｼ","kana_address":"ﾀｲｾｲﾁｮｳ","pref":"兵庫県","city":"宝塚市","address":"大成町"},
{"zip_code":"6650051","kana_pref":"ﾋｮｳｺﾞｹﾝ","kana_city":"ﾀｶﾗﾂﾞｶｼ","kana_address":"ﾀｶﾂｶｻ","pref":"兵庫県","city":"宝塚市","address":"高司"},
{"zip_code":"6650043","kana_pref":"ﾋｮｳｺﾞｹﾝ","kana_city":"ﾀｶﾗﾂﾞｶｼ","kana_address":"ﾀｶﾏﾂﾁｮｳ","pref":"兵庫県","city":"宝塚市","address":"高松町"},
{"zip_code":"6650076","kana_pref":"ﾋｮｳｺﾞｹﾝ","kana_city":"ﾀｶﾗﾂﾞｶｼ","kana_address":"ﾀﾆｸﾞﾁﾁｮｳ","pref":"兵庫県","city":"宝塚市","address":"谷口町"},
{"zip_code":"6650072","kana_pref":"ﾋｮｳｺﾞｹﾝ","kana_city":"ﾀｶﾗﾂﾞｶｼ","kana_address":"ﾁｸﾞｻ","pref":"兵庫県","city":"宝塚市","address":"千種"},
{"zip_code":"6650001","kana_pref":"ﾋｮｳｺﾞｹﾝ","kana_city":"ﾀｶﾗﾂﾞｶｼ","kana_address":"ﾁｮｳｼﾞｭｶﾞｵｶ","pref":"兵庫県","city":"宝塚市","address":"長寿ガ丘"},
{"zip_code":"6650002","kana_pref":"ﾋｮｳｺﾞｹﾝ","kana_city":"ﾀｶﾗﾂﾞｶｼ","kana_address":"ﾂｷﾐﾔﾏ","pref":"兵庫県","city":"宝塚市","address":"月見山"},
{"zip_code":"6650833","kana_pref":"ﾋｮｳｺﾞｹﾝ","kana_city":"ﾀｶﾗﾂﾞｶｼ","kana_address":"ﾂﾙﾉｿｳ","pref":"兵庫県","city":"宝塚市","address":"鶴の荘"},
{"zip_code":"6650073","kana_pref":"ﾋｮｳｺﾞｹﾝ","kana_city":"ﾀｶﾗﾂﾞｶｼ","kana_address":"ﾄｳﾉﾁｮｳ","pref":"兵庫県","city":"宝塚市","address":"塔の町"},
{"zip_code":"6650032","kana_pref":"ﾋｮｳｺﾞｹﾝ","kana_city":"ﾀｶﾗﾂﾞｶｼ","kana_address":"ﾄｳﾖｳﾁｮｳ","pref":"兵庫県","city":"宝塚市","address":"東洋町"},
{"zip_code":"6650021","kana_pref":"ﾋｮｳｺﾞｹﾝ","kana_city":"ﾀｶﾗﾂﾞｶｼ","kana_address":"ﾅｶｽ","pref":"兵庫県","city":"宝塚市","address":"中州"},
{"zip_code":"6650874","kana_pref":"ﾋｮｳｺﾞｹﾝ","kana_city":"ﾀｶﾗﾂﾞｶｼ","kana_address":"ﾅｶｽｼﾞ","pref":"兵庫県","city":"宝塚市","address":"中筋"},
{"zip_code":"6650872","kana_pref":"ﾋｮｳｺﾞｹﾝ","kana_city":"ﾀｶﾗﾂﾞｶｼ","kana_address":"ﾅｶｽｼﾞ","pref":"兵庫県","city":"宝塚市","address":"中筋"},
{"zip_code":"6650875","kana_pref":"ﾋｮｳｺﾞｹﾝ","kana_city":"ﾀｶﾗﾂﾞｶｼ","kana_address":"ﾅｶｽｼﾞﾔﾏﾃ","pref":"兵庫県","city":"宝塚市","address":"中筋山手"},
{"zip_code":"6650056","kana_pref":"ﾋｮｳｺﾞｹﾝ","kana_city":"ﾀｶﾗﾂﾞｶｼ","kana_address":"ﾅｶﾉﾁｮｳ","pref":"兵庫県","city":"宝塚市","address":"中野町"},
{"zip_code":"6650877","kana_pref":"ﾋｮｳｺﾞｹﾝ","kana_city":"ﾀｶﾗﾂﾞｶｼ","kana_address":"ﾅｶﾔﾏｻｸﾗﾀﾞｲ","pref":"兵庫県","city":"宝塚市","address":"中山桜台"},
{"zip_code":"6650871","kana_pref":"ﾋｮｳｺﾞｹﾝ","kana_city":"ﾀｶﾗﾂﾞｶｼ","kana_address":"ﾅｶﾔﾏｻﾂｷﾀﾞｲ","pref":"兵庫県","city":"宝塚市","address":"中山五月台"},
{"zip_code":"6650868","kana_pref":"ﾋｮｳｺﾞｹﾝ","kana_city":"ﾀｶﾗﾂﾞｶｼ","kana_address":"ﾅｶﾔﾏｿｳｴﾝ","pref":"兵庫県","city":"宝塚市","address":"中山荘園"},
{"zip_code":"6650876","kana_pref":"ﾋｮｳｺﾞｹﾝ","kana_city":"ﾀｶﾗﾂﾞｶｼ","kana_address":"ﾅｶﾔﾏﾀﾞｲ","pref":"兵庫県","city":"宝塚市","address":"中山台"},
{"zip_code":"6650861","kana_pref":"ﾋｮｳｺﾞｹﾝ","kana_city":"ﾀｶﾗﾂﾞｶｼ","kana_address":"ﾅｶﾔﾏﾃﾞﾗ","pref":"兵庫県","city":"宝塚市","address":"中山寺"},
{"zip_code":"6650807","kana_pref":"ﾋｮｳｺﾞｹﾝ","kana_city":"ﾀｶﾗﾂﾞｶｼ","kana_address":"ﾅｶﾞｵﾀﾞｲ","pref":"兵庫県","city":"宝塚市","address":"長尾台"},
{"zip_code":"6650873","kana_pref":"ﾋｮｳｺﾞｹﾝ","kana_city":"ﾀｶﾗﾂﾞｶｼ","kana_address":"ﾅｶﾞｵﾁｮｳ","pref":"兵庫県","city":"宝塚市","address":"長尾町"},
{"zip_code":"6650065","kana_pref":"ﾋｮｳｺﾞｹﾝ","kana_city":"ﾀｶﾗﾂﾞｶｼ","kana_address":"ﾆｶﾞﾜｱｻﾋｶﾞｵｶ","pref":"兵庫県","city":"宝塚市","address":"仁川旭ガ丘"},
{"zip_code":"6650064","kana_pref":"ﾋｮｳｺﾞｹﾝ","kana_city":"ﾀｶﾗﾂﾞｶｼ","kana_address":"ﾆｶﾞﾜｳｸﾞｲｽﾀﾞｲ","pref":"兵庫県","city":"宝塚市","address":"仁川うぐいす台"},
{"zip_code":"6650062","kana_pref":"ﾋｮｳｺﾞｹﾝ","kana_city":"ﾀｶﾗﾂﾞｶｼ","kana_address":"ﾆｶﾞﾜﾀｶﾀﾞｲ","pref":"兵庫県","city":"宝塚市","address":"仁川高台"},
{"zip_code":"6650063","kana_pref":"ﾋｮｳｺﾞｹﾝ","kana_city":"ﾀｶﾗﾂﾞｶｼ","kana_address":"ﾆｶﾞﾜﾀｶﾏﾙ","pref":"兵庫県","city":"宝塚市","address":"仁川高丸"},
{"zip_code":"6650066","kana_pref":"ﾋｮｳｺﾞｹﾝ","kana_city":"ﾀｶﾗﾂﾞｶｼ","kana_address":"ﾆｶﾞﾜﾀﾞﾝﾁ","pref":"兵庫県","city":"宝塚市","address":"仁川団地"},
{"zip_code":"6650067","kana_pref":"ﾋｮｳｺﾞｹﾝ","kana_city":"ﾀｶﾗﾂﾞｶｼ","kana_address":"ﾆｶﾞﾜﾂｷﾐｶﾞｵｶ","pref":"兵庫県","city":"宝塚市","address":"仁川月見ガ丘"},
{"zip_code":"6650075","kana_pref":"ﾋｮｳｺﾞｹﾝ","kana_city":"ﾀｶﾗﾂﾞｶｼ","kana_address":"ﾆｶﾞﾜﾐﾔﾆｼﾁｮｳ","pref":"兵庫県","city":"宝塚市","address":"仁川宮西町"},
{"zip_code":"6650061","kana_pref":"ﾋｮｳｺﾞｹﾝ","kana_city":"ﾀｶﾗﾂﾞｶｼ","kana_address":"ﾆｶﾞﾜｷﾀ","pref":"兵庫県","city":"宝塚市","address":"仁川北"},
{"zip_code":"6650074","kana_pref":"ﾋｮｳｺﾞｹﾝ","kana_city":"ﾀｶﾗﾂﾞｶｼ","kana_address":"ﾆｶﾞﾜﾀﾞｲ","pref":"兵庫県","city":"宝塚市","address":"仁川台"},
{"zip_code":"6650022","kana_pref":"ﾋｮｳｺﾞｹﾝ","kana_city":"ﾀｶﾗﾂﾞｶｼ","kana_address":"ﾉｶﾞﾐ","pref":"兵庫県","city":"宝塚市","address":"野上"},
{"zip_code":"6650802","kana_pref":"ﾋｮｳｺﾞｹﾝ","kana_city":"ﾀｶﾗﾂﾞｶｼ","kana_address":"ﾊﾅﾔｼｷｿｳｴﾝ","pref":"兵庫県","city":"宝塚市","address":"花屋敷荘園"},
{"zip_code":"6650803","kana_pref":"ﾋｮｳｺﾞｹﾝ","kana_city":"ﾀｶﾗﾂﾞｶｼ","kana_address":"ﾊﾅﾔｼｷﾂﾂｼﾞｶﾞｵｶ","pref":"兵庫県","city":"宝塚市","address":"花屋敷つつじガ丘"},
{"zip_code":"6650801","kana_pref":"ﾋｮｳｺﾞｹﾝ","kana_city":"ﾀｶﾗﾂﾞｶｼ","kana_address":"ﾊﾅﾔｼｷﾏﾂｶﾞｵｶ","pref":"兵庫県","city":"宝塚市","address":"花屋敷松ガ丘"},
{"zip_code":"6650015","kana_pref":"ﾋｮｳｺﾞｹﾝ","kana_city":"ﾀｶﾗﾂﾞｶｼ","kana_address":"ﾋｶﾘｶﾞｵｶ","pref":"兵庫県","city":"宝塚市","address":"光ガ丘"},
{"zip_code":"6650805","kana_pref":"ﾋｮｳｺﾞｹﾝ","kana_city":"ﾀｶﾗﾂﾞｶｼ","kana_address":"ﾋﾊﾞﾘｶﾞｵｶ","pref":"兵庫県","city":"宝塚市","address":"雲雀丘"},
{"zip_code":"6650804","kana_pref":"ﾋｮｳｺﾞｹﾝ","kana_city":"ﾀｶﾗﾂﾞｶｼ","kana_address":"ﾋﾊﾞﾘｶﾞｵｶﾔﾏﾃ","pref":"兵庫県","city":"宝塚市","address":"雲雀丘山手"},
{"zip_code":"6650816","kana_pref":"ﾋｮｳｺﾞｹﾝ","kana_city":"ﾀｶﾗﾂﾞｶｼ","kana_address":"ﾋﾗｲ","pref":"兵庫県","city":"宝塚市","address":"平井"},
{"zip_code":"6650817","kana_pref":"ﾋｮｳｺﾞｹﾝ","kana_city":"ﾀｶﾗﾂﾞｶｼ","kana_address":"ﾋﾗｲｻﾝｿｳ","pref":"兵庫県","city":"宝塚市","address":"平井山荘"},
{"zip_code":"6650046","kana_pref":"ﾋｮｳｺﾞｹﾝ","kana_city":"ﾀｶﾗﾂﾞｶｼ","kana_address":"ﾌｸｲﾁｮｳ","pref":"兵庫県","city":"宝塚市","address":"福井町"},
{"zip_code":"6650806","kana_pref":"ﾋｮｳｺﾞｹﾝ","kana_city":"ﾀｶﾗﾂﾞｶｼ","kana_address":"ﾌｼﾞｶﾞｵｶ","pref":"兵庫県","city":"宝塚市","address":"ふじガ丘"},
{"zip_code":"6650016","kana_pref":"ﾋｮｳｺﾞｹﾝ","kana_city":"ﾀｶﾗﾂﾞｶｼ","kana_address":"ﾎｳｼｮｳｴﾝ","pref":"兵庫県","city":"宝塚市","address":"宝松苑"},
{"zip_code":"6650013","kana_pref":"ﾋｮｳｺﾞｹﾝ","kana_city":"ﾀｶﾗﾂﾞｶｼ","kana_address":"ﾎｳﾊﾞｲ","pref":"兵庫県","city":"宝塚市","address":"宝梅"},
{"zip_code":"6650866","kana_pref":"ﾋｮｳｺﾞｹﾝ","kana_city":"ﾀｶﾗﾂﾞｶｼ","kana_address":"ﾎｼﾉｿｳ","pref":"兵庫県","city":"宝塚市","address":"星の荘"},
{"zip_code":"6650831","kana_pref":"ﾋｮｳｺﾞｹﾝ","kana_city":"ﾀｶﾗﾂﾞｶｼ","kana_address":"ﾏｲﾀﾆ","pref":"兵庫県","city":"宝塚市","address":"米谷"},
{"zip_code":"6650837","kana_pref":"ﾋｮｳｺﾞｹﾝ","kana_city":"ﾀｶﾗﾂﾞｶｼ","kana_address":"ﾏｲﾀﾆｷﾖｼ","pref":"兵庫県","city":"宝塚市","address":"米谷清"},
{"zip_code":"6650863","kana_pref":"ﾋｮｳｺﾞｹﾝ","kana_city":"ﾀｶﾗﾂﾞｶｼ","kana_address":"ﾐｶｻﾁｮｳ","pref":"兵庫県","city":"宝塚市","address":"三笠町"},
{"zip_code":"6650834","kana_pref":"ﾋｮｳｺﾞｹﾝ","kana_city":"ﾀｶﾗﾂﾞｶｼ","kana_address":"ﾐｻﾞ","pref":"兵庫県","city":"宝塚市","address":"美座"},
{"zip_code":"6650011","kana_pref":"ﾋｮｳｺﾞｹﾝ","kana_city":"ﾀｶﾗﾂﾞｶｼ","kana_address":"ﾐﾅﾐｸﾞﾁ","pref":"兵庫県","city":"宝塚市","address":"南口"},
{"zip_code":"6650811","kana_pref":"ﾋｮｳｺﾞｹﾝ","kana_city":"ﾀｶﾗﾂﾞｶｼ","kana_address":"ﾐﾅﾐﾋﾊﾞﾘｶﾞｵｶ","pref":"兵庫県","city":"宝塚市","address":"南ひばりガ丘"},
{"zip_code":"6650843","kana_pref":"ﾋｮｳｺﾞｹﾝ","kana_city":"ﾀｶﾗﾂﾞｶｼ","kana_address":"ﾐﾔﾉﾁｮｳ","pref":"兵庫県","city":"宝塚市","address":"宮の町"},
{"zip_code":"6650042","kana_pref":"ﾋｮｳｺﾞｹﾝ","kana_city":"ﾀｶﾗﾂﾞｶｼ","kana_address":"ﾐﾕｷﾁｮｳ","pref":"兵庫県","city":"宝塚市","address":"美幸町"},
{"zip_code":"6650844","kana_pref":"ﾋｮｳｺﾞｹﾝ","kana_city":"ﾀｶﾗﾂﾞｶｼ","kana_address":"ﾑｺｶﾞﾜﾁｮｳ","pref":"兵庫県","city":"宝塚市","address":"武庫川町"},
{"zip_code":"6650005","kana_pref":"ﾋｮｳｺﾞｹﾝ","kana_city":"ﾀｶﾗﾂﾞｶｼ","kana_address":"ﾑｺﾔﾏ","pref":"兵庫県","city":"宝塚市","address":"武庫山"},
{"zip_code":"6650852","kana_pref":"ﾋｮｳｺﾞｹﾝ","kana_city":"ﾀｶﾗﾂﾞｶｼ","kana_address":"ﾒﾌ","pref":"兵庫県","city":"宝塚市","address":"売布"},
{"zip_code":"6650855","kana_pref":"ﾋｮｳｺﾞｹﾝ","kana_city":"ﾀｶﾗﾂﾞｶｼ","kana_address":"ﾒﾌｷﾖｼｶﾞｵｶ","pref":"兵庫県","city":"宝塚市","address":"売布きよしガ丘"},
{"zip_code":"6650867","kana_pref":"ﾋｮｳｺﾞｹﾝ","kana_city":"ﾀｶﾗﾂﾞｶｼ","kana_address":"ﾒﾌﾋｶﾞｼﾉﾁｮｳ","pref":"兵庫県","city":"宝塚市","address":"売布東の町"},
{"zip_code":"6650854","kana_pref":"ﾋｮｳｺﾞｹﾝ","kana_city":"ﾀｶﾗﾂﾞｶｼ","kana_address":"ﾒﾌﾔﾏﾃﾁｮｳ","pref":"兵庫県","city":"宝塚市","address":"売布山手町"},
{"zip_code":"6650853","kana_pref":"ﾋｮｳｺﾞｹﾝ","kana_city":"ﾀｶﾗﾂﾞｶｼ","kana_address":"ﾒﾌｶﾞｵｶ","pref":"兵庫県","city":"宝塚市","address":"売布ガ丘"},
{"zip_code":"6650006","kana_pref":"ﾋｮｳｺﾞｹﾝ","kana_city":"ﾀｶﾗﾂﾞｶｼ","kana_address":"ﾓﾐｼﾞｶﾞｵｶ","pref":"兵庫県","city":"宝塚市","address":"紅葉ガ丘"},
{"zip_code":"6650071","kana_pref":"ﾋｮｳｺﾞｹﾝ","kana_city":"ﾀｶﾗﾂﾞｶｼ","kana_address":"ﾔｼﾛﾁｮｳ","pref":"兵庫県","city":"宝塚市","address":"社町"},
{"zip_code":"6650887","kana_pref":"ﾋｮｳｺﾞｹﾝ","kana_city":"ﾀｶﾗﾂﾞｶｼ","kana_address":"ﾔﾏﾃﾀﾞｲﾋｶﾞｼ","pref":"兵庫県","city":"宝塚市","address":"山手台東"},
{"zip_code":"6650886","kana_pref":"ﾋｮｳｺﾞｹﾝ","kana_city":"ﾀｶﾗﾂﾞｶｼ","kana_address":"ﾔﾏﾃﾀﾞｲﾆｼ","pref":"兵庫県","city":"宝塚市","address":"山手台西"},
{"zip_code":"6650883","kana_pref":"ﾋｮｳｺﾞｹﾝ","kana_city":"ﾀｶﾗﾂﾞｶｼ","kana_address":"ﾔﾏﾓﾄﾅｶ","pref":"兵庫県","city":"宝塚市","address":"山本中"},
{"zip_code":"6650814","kana_pref":"ﾋｮｳｺﾞｹﾝ","kana_city":"ﾀｶﾗﾂﾞｶｼ","kana_address":"ﾔﾏﾓﾄﾉｻﾞﾄ","pref":"兵庫県","city":"宝塚市","address":"山本野里"},
{"zip_code":"6650815","kana_pref":"ﾋｮｳｺﾞｹﾝ","kana_city":"ﾀｶﾗﾂﾞｶｼ","kana_address":"ﾔﾏﾓﾄﾏﾙﾊｼ","pref":"兵庫県","city":"宝塚市","address":"山本丸橋"},
{"zip_code":"6650881","kana_pref":"ﾋｮｳｺﾞｹﾝ","kana_city":"ﾀｶﾗﾂﾞｶｼ","kana_address":"ﾔﾏﾓﾄﾋｶﾞｼ","pref":"兵庫県","city":"宝塚市","address":"山本東"},
{"zip_code":"6650884","kana_pref":"ﾋｮｳｺﾞｹﾝ","kana_city":"ﾀｶﾗﾂﾞｶｼ","kana_address":"ﾔﾏﾓﾄﾆｼ","pref":"兵庫県","city":"宝塚市","address":"山本西"},
{"zip_code":"6650882","kana_pref":"ﾋｮｳｺﾞｹﾝ","kana_city":"ﾀｶﾗﾂﾞｶｼ","kana_address":"ﾔﾏﾓﾄﾐﾅﾐ","pref":"兵庫県","city":"宝塚市","address":"山本南"},
{"zip_code":"6650885","kana_pref":"ﾋｮｳｺﾞｹﾝ","kana_city":"ﾀｶﾗﾂﾞｶｼ","kana_address":"ﾔﾏﾓﾄﾀﾞｲ","pref":"兵庫県","city":"宝塚市","address":"山本台"},
{"zip_code":"6650826","kana_pref":"ﾋｮｳｺﾞｹﾝ","kana_city":"ﾀｶﾗﾂﾞｶｼ","kana_address":"ﾔﾖｲﾁｮｳ","pref":"兵庫県","city":"宝塚市","address":"弥生町"},
{"zip_code":"6650025","kana_pref":"ﾋｮｳｺﾞｹﾝ","kana_city":"ﾀｶﾗﾂﾞｶｼ","kana_address":"ﾕｽﾞﾘﾊﾀﾞｲ","pref":"兵庫県","city":"宝塚市","address":"ゆずり葉台"},
{"zip_code":"6650003","kana_pref":"ﾋｮｳｺﾞｹﾝ","kana_city":"ﾀｶﾗﾂﾞｶｼ","kana_address":"ﾕﾓﾄﾁｮｳ","pref":"兵庫県","city":"宝塚市","address":"湯本町"},
{"zip_code":"6650891","kana_pref":"ﾋｮｳｺﾞｹﾝ","kana_city":"ｶﾜﾆｼｼ","kana_address":"ﾏﾝｶﾞﾝｼﾞﾁｮｳ","pref":"兵庫県","city":"川西市","address":"満願寺町"}]}