{"zip_code":[
{"zip_code":"6660161","kana_pref":"ﾋｮｳｺﾞｹﾝ","kana_city":"ﾀｶﾗﾂﾞｶｼ","kana_address":"ｷﾘﾊﾀ","pref":"兵庫県","city":"宝塚市","address":"切畑"},
{"zip_code":"6660162","kana_pref":"ﾋｮｳｺﾞｹﾝ","kana_city":"ﾀｶﾗﾂﾞｶｼ","kana_address":"ﾊﾅﾔｼｷﾐﾄﾞﾘｶﾞｵｶ","pref":"兵庫県","city":"宝塚市","address":"花屋敷緑ガ丘"},
{"zip_code":"6660000","kana_pref":"ﾋｮｳｺﾞｹﾝ","kana_city":"ｶﾜﾆｼｼ","kana_address":"","pref":"兵庫県","city":"川西市","address":""},
{"zip_code":"6660148","kana_pref":"ﾋｮｳｺﾞｹﾝ","kana_city":"ｶﾜﾆｼｼ","kana_address":"ｱｶﾏﾂ","pref":"兵庫県","city":"川西市","address":"赤松"},
{"zip_code":"6660156","kana_pref":"ﾋｮｳｺﾞｹﾝ","kana_city":"ｶﾜﾆｼｼ","kana_address":"ｲｼﾐﾁ","pref":"兵庫県","city":"川西市","address":"石道"},
{"zip_code":"6660146","kana_pref":"ﾋｮｳｺﾞｹﾝ","kana_city":"ｶﾜﾆｼｼ","kana_address":"ｲﾓｵ","pref":"兵庫県","city":"川西市","address":"芋生"},
{"zip_code":"6660007","kana_pref":"ﾋｮｳｺﾞｹﾝ","kana_city":"ｶﾜﾆｼｼ","kana_address":"ｳｸﾞｲｽｶﾞｵｶ","pref":"兵庫県","city":"川西市","address":"鴬が丘"},
{"zip_code":"6660133","kana_pref":"ﾋｮｳｺﾞｹﾝ","kana_city":"ｶﾜﾆｼｼ","kana_address":"ｳｸﾞｲｽﾀﾞｲ","pref":"兵庫県","city":"川西市","address":"鴬台"},
{"zip_code":"6660001","kana_pref":"ﾋｮｳｺﾞｹﾝ","kana_city":"ｶﾜﾆｼｼ","kana_address":"ｳｸﾞｲｽﾉﾓﾘﾁｮｳ","pref":"兵庫県","city":"川西市","address":"鴬の森町"},
{"zip_code":"6660014","kana_pref":"ﾋｮｳｺﾞｹﾝ","kana_city":"ｶﾜﾆｼｼ","kana_address":"ｵｵﾍﾞ","pref":"兵庫県","city":"川西市","address":"小戸"},
{"zip_code":"6660015","kana_pref":"ﾋｮｳｺﾞｹﾝ","kana_city":"ｶﾜﾆｼｼ","kana_address":"ｵﾊﾞﾅ","pref":"兵庫県","city":"川西市","address":"小花"},
{"zip_code":"6660031","kana_pref":"ﾋｮｳｺﾞｹﾝ","kana_city":"ｶﾜﾆｼｼ","kana_address":"ｶｽﾐｶﾞｵｶ","pref":"兵庫県","city":"川西市","address":"霞ケ丘"},
{"zip_code":"6660025","kana_pref":"ﾋｮｳｺﾞｹﾝ","kana_city":"ｶﾜﾆｼｼ","kana_address":"ｶﾓ","pref":"兵庫県","city":"川西市","address":"加茂"},
{"zip_code":"6660012","kana_pref":"ﾋｮｳｺﾞｹﾝ","kana_city":"ｶﾜﾆｼｼ","kana_address":"ｷﾇﾉﾍﾞﾁｮｳ","pref":"兵庫県","city":"川西市","address":"絹延町"},
{"zip_code":"6660135","kana_pref":"ﾋｮｳｺﾞｹﾝ","kana_city":"ｶﾜﾆｼｼ","kana_address":"ｷﾝｼｮｳﾀﾞｲ","pref":"兵庫県","city":"川西市","address":"錦松台"},
{"zip_code":"6660024","kana_pref":"ﾋｮｳｺﾞｹﾝ","kana_city":"ｶﾜﾆｼｼ","kana_address":"ｸｼﾛ","pref":"兵庫県","city":"川西市","address":"久代"},
{"zip_code":"6660103","kana_pref":"ﾋｮｳｺﾞｹﾝ","kana_city":"ｶﾜﾆｼｼ","kana_address":"ｸﾆｻｷ","pref":"兵庫県","city":"川西市","address":"国崎"},
{"zip_code":"6660101","kana_pref":"ﾋｮｳｺﾞｹﾝ","kana_city":"ｶﾜﾆｼｼ","kana_address":"ｸﾛｶﾜ","pref":"兵庫県","city":"川西市","address":"黒川"},
{"zip_code":"6660107","kana_pref":"ﾋｮｳｺﾞｹﾝ","kana_city":"ｶﾜﾆｼｼ","kana_address":"ｹﾞｻﾞｲﾁｮｳ","pref":"兵庫県","city":"川西市","address":"下財町"},
{"zip_code":"6660145","kana_pref":"ﾋｮｳｺﾞｹﾝ","kana_city":"ｶﾜﾆｼｼ","kana_address":"ｹﾔｷｻﾞｶ","pref":"兵庫県","city":"川西市","address":"けやき坂"},
{"zip_code":"6660115","kana_pref":"ﾋｮｳｺﾞｹﾝ","kana_city":"ｶﾜﾆｼｼ","kana_address":"ｺｳﾖｳﾀﾞｲ","pref":"兵庫県","city":"川西市","address":"向陽台"},
{"zip_code":"6660033","kana_pref":"ﾋｮｳｺﾞｹﾝ","kana_city":"ｶﾜﾆｼｼ","kana_address":"ｻｶｴﾏﾁ","pref":"兵庫県","city":"川西市","address":"栄町"},
{"zip_code":"6660021","kana_pref":"ﾋｮｳｺﾞｹﾝ","kana_city":"ｶﾜﾆｼｼ","kana_address":"ｻｶﾈ","pref":"兵庫県","city":"川西市","address":"栄根"},
{"zip_code":"6660104","kana_pref":"ﾋｮｳｺﾞｹﾝ","kana_city":"ｶﾜﾆｼｼ","kana_address":"ｻｻﾍﾞ","pref":"兵庫県","city":"川西市","address":"笹部"},
{"zip_code":"6660022","kana_pref":"ﾋｮｳｺﾞｹﾝ","kana_city":"ｶﾜﾆｼｼ","kana_address":"ｼﾀｶﾓ","pref":"兵庫県","city":"川西市","address":"下加茂"},
{"zip_code":"6660125","kana_pref":"ﾋｮｳｺﾞｹﾝ","kana_city":"ｶﾜﾆｼｼ","kana_address":"ｼﾝﾃﾞﾝ","pref":"兵庫県","city":"川西市","address":"新田"},
{"zip_code":"6660116","kana_pref":"ﾋｮｳｺﾞｹﾝ","kana_city":"ｶﾜﾆｼｼ","kana_address":"ｽｲﾒｲﾀﾞｲ","pref":"兵庫県","city":"川西市","address":"水明台"},
{"zip_code":"6660158","kana_pref":"ﾋｮｳｺﾞｹﾝ","kana_city":"ｶﾜﾆｼｼ","kana_address":"ｾｲﾘｭｳﾀﾞｲ","pref":"兵庫県","city":"川西市","address":"清流台"},
{"zip_code":"6660142","kana_pref":"ﾋｮｳｺﾞｹﾝ","kana_city":"ｶﾜﾆｼｼ","kana_address":"ｾｲﾜﾀﾞｲﾋｶﾞｼ","pref":"兵庫県","city":"川西市","address":"清和台東"},
{"zip_code":"6660143","kana_pref":"ﾋｮｳｺﾞｹﾝ","kana_city":"ｶﾜﾆｼｼ","kana_address":"ｾｲﾜﾀﾞｲﾆｼ","pref":"兵庫県","city":"川西市","address":"清和台西"},
{"zip_code":"6660111","kana_pref":"ﾋｮｳｺﾞｹﾝ","kana_city":"ｶﾜﾆｼｼ","kana_address":"ﾀﾞｲﾜﾋｶﾞｼ","pref":"兵庫県","city":"川西市","address":"大和東"},
{"zip_code":"6660112","kana_pref":"ﾋｮｳｺﾞｹﾝ","kana_city":"ｶﾜﾆｼｼ","kana_address":"ﾀﾞｲﾜﾆｼ","pref":"兵庫県","city":"川西市","address":"大和西"},
{"zip_code":"6660002","kana_pref":"ﾋｮｳｺﾞｹﾝ","kana_city":"ｶﾜﾆｼｼ","kana_address":"ﾀｷﾔﾏﾁｮｳ","pref":"兵庫県","city":"川西市","address":"滝山町"},
{"zip_code":"6660126","kana_pref":"ﾋｮｳｺﾞｹﾝ","kana_city":"ｶﾜﾆｼｼ","kana_address":"ﾀﾀﾞｲﾝ","pref":"兵庫県","city":"川西市","address":"多田院"},
{"zip_code":"6660127","kana_pref":"ﾋｮｳｺﾞｹﾝ","kana_city":"ｶﾜﾆｼｼ","kana_address":"ﾀﾀﾞｲﾝﾀﾀﾞﾄﾞｺﾛﾁｮｳ","pref":"兵庫県","city":"川西市","address":"多田院多田所町"},
{"zip_code":"6660128","kana_pref":"ﾋｮｳｺﾞｹﾝ","kana_city":"ｶﾜﾆｼｼ","kana_address":"ﾀﾀﾞｲﾝﾆｼ","pref":"兵庫県","city":"川西市","address":"多田院西"},
{"zip_code":"6660124","kana_pref":"ﾋｮｳｺﾞｹﾝ","kana_city":"ｶﾜﾆｼｼ","kana_address":"ﾀﾀﾞｻｸﾗｷﾞ","pref":"兵庫県","city":"川西市","address":"多田桜木"},
{"zip_code":"6660016","kana_pref":"ﾋｮｳｺﾞｹﾝ","kana_city":"ｶﾜﾆｼｼ","kana_address":"ﾁｭｳｵｳﾁｮｳ","pref":"兵庫県","city":"川西市","address":"中央町"},
{"zip_code":"6660123","kana_pref":"ﾋｮｳｺﾞｹﾝ","kana_city":"ｶﾜﾆｼｼ","kana_address":"ﾂﾂﾐｶﾞﾀｷ","pref":"兵庫県","city":"川西市","address":"鼓が滝"},
{"zip_code":"6660011","kana_pref":"ﾋｮｳｺﾞｹﾝ","kana_city":"ｶﾜﾆｼｼ","kana_address":"ﾃﾞｻﾞｲｹﾁｮｳ","pref":"兵庫県","city":"川西市","address":"出在家町"},
{"zip_code":"6660034","kana_pref":"ﾋｮｳｺﾞｹﾝ","kana_city":"ｶﾜﾆｼｼ","kana_address":"ﾃﾗﾊﾀ","pref":"兵庫県","city":"川西市","address":"寺畑"},
{"zip_code":"6660113","kana_pref":"ﾋｮｳｺﾞｹﾝ","kana_city":"ｶﾜﾆｼｼ","kana_address":"ﾅｶﾞｵﾁｮｳ","pref":"兵庫県","city":"川西市","address":"長尾町"},
{"zip_code":"6660155","kana_pref":"ﾋｮｳｺﾞｹﾝ","kana_city":"ｶﾜﾆｼｼ","kana_address":"ﾆｼｳﾈﾉ","pref":"兵庫県","city":"川西市","address":"西畦野"},
{"zip_code":"6660138","kana_pref":"ﾋｮｳｺﾞｹﾝ","kana_city":"ｶﾜﾆｼｼ","kana_address":"ﾆｼﾀﾀﾞ","pref":"兵庫県","city":"川西市","address":"西多田"},
{"zip_code":"6660004","kana_pref":"ﾋｮｳｺﾞｹﾝ","kana_city":"ｶﾜﾆｼｼ","kana_address":"ﾊｷﾞﾊﾗ","pref":"兵庫県","city":"川西市","address":"萩原"},
{"zip_code":"6660005","kana_pref":"ﾋｮｳｺﾞｹﾝ","kana_city":"ｶﾜﾆｼｼ","kana_address":"ﾊｷﾞﾊﾗﾀﾞｲﾋｶﾞｼ","pref":"兵庫県","city":"川西市","address":"萩原台東"},
{"zip_code":"6660006","kana_pref":"ﾋｮｳｺﾞｹﾝ","kana_city":"ｶﾜﾆｼｼ","kana_address":"ﾊｷﾞﾊﾗﾀﾞｲﾆｼ","pref":"兵庫県","city":"川西市","address":"萩原台西"},
{"zip_code":"6660134","kana_pref":"ﾋｮｳｺﾞｹﾝ","kana_city":"ｶﾜﾆｼｼ","kana_address":"ﾊｷﾞﾊﾗﾀﾞｲﾆｼ","pref":"兵庫県","city":"川西市","address":"萩原台西"},
{"zip_code":"6660035","kana_pref":"ﾋｮｳｺﾞｹﾝ","kana_city":"ｶﾜﾆｼｼ","kana_address":"ﾊﾅﾔｼｷ","pref":"兵庫県","city":"川西市","address":"花屋敷"},
{"zip_code":"6660036","kana_pref":"ﾋｮｳｺﾞｹﾝ","kana_city":"ｶﾜﾆｼｼ","kana_address":"ﾊﾅﾔｼｷﾔﾏﾃﾁｮｳ","pref":"兵庫県","city":"川西市","address":"花屋敷山手町"},
{"zip_code":"6660017","kana_pref":"ﾋｮｳｺﾞｹﾝ","kana_city":"ｶﾜﾆｼｼ","kana_address":"ﾋｳﾁ","pref":"兵庫県","city":"川西市","address":"火打"},
{"zip_code":"6660117","kana_pref":"ﾋｮｳｺﾞｹﾝ","kana_city":"ｶﾜﾆｼｼ","kana_address":"ﾋｶﾞｼｳﾈﾉ","pref":"兵庫県","city":"川西市","address":"東畦野"},
{"zip_code":"6660114","kana_pref":"ﾋｮｳｺﾞｹﾝ","kana_city":"ｶﾜﾆｼｼ","kana_address":"ﾋｶﾞｼｳﾈﾉﾔﾏﾃ","pref":"兵庫県","city":"川西市","address":"東畦野山手"},
{"zip_code":"6660023","kana_pref":"ﾋｮｳｺﾞｹﾝ","kana_city":"ｶﾜﾆｼｼ","kana_address":"ﾋｶﾞｼｸｼﾛ","pref":"兵庫県","city":"川西市","address":"東久代"},
{"zip_code":"6660122","kana_pref":"ﾋｮｳｺﾞｹﾝ","kana_city":"ｶﾜﾆｼｼ","kana_address":"ﾋｶﾞｼﾀﾀﾞ","pref":"兵庫県","city":"川西市","address":"東多田"},
{"zip_code":"6660032","kana_pref":"ﾋｮｳｺﾞｹﾝ","kana_city":"ｶﾜﾆｼｼ","kana_address":"ﾋﾀﾞｶﾁｮｳ","pref":"兵庫県","city":"川西市","address":"日高町"},
{"zip_code":"6660153","kana_pref":"ﾋｮｳｺﾞｹﾝ","kana_city":"ｶﾜﾆｼｼ","kana_address":"ﾋﾄｸﾗ","pref":"兵庫県","city":"川西市","address":"一庫"},
{"zip_code":"6660121","kana_pref":"ﾋｮｳｺﾞｹﾝ","kana_city":"ｶﾜﾆｼｼ","kana_address":"ﾋﾗﾉ","pref":"兵庫県","city":"川西市","address":"平野"},
{"zip_code":"6660037","kana_pref":"ﾋｮｳｺﾞｹﾝ","kana_city":"ｶﾜﾆｼｼ","kana_address":"ﾏﾂｶﾞｵｶﾁｮｳ","pref":"兵庫県","city":"川西市","address":"松が丘町"},
{"zip_code":"6660003","kana_pref":"ﾋｮｳｺﾞｹﾝ","kana_city":"ｶﾜﾆｼｼ","kana_address":"ﾏﾙﾉｳﾁﾁｮｳ","pref":"兵庫県","city":"川西市","address":"丸の内町"},
{"zip_code":"6660152","kana_pref":"ﾋｮｳｺﾞｹﾝ","kana_city":"ｶﾜﾆｼｼ","kana_address":"ﾏﾙﾔﾏﾀﾞｲ","pref":"兵庫県","city":"川西市","address":"丸山台"},
{"zip_code":"6660013","kana_pref":"ﾋｮｳｺﾞｹﾝ","kana_city":"ｶﾜﾆｼｼ","kana_address":"ﾐｿﾉﾁｮｳ","pref":"兵庫県","city":"川西市","address":"美園町"},
{"zip_code":"6660157","kana_pref":"ﾋｮｳｺﾞｹﾝ","kana_city":"ｶﾜﾆｼｼ","kana_address":"ﾐﾄﾞﾘｶﾞｵｶ","pref":"兵庫県","city":"川西市","address":"緑が丘"},
{"zip_code":"6660129","kana_pref":"ﾋｮｳｺﾞｹﾝ","kana_city":"ｶﾜﾆｼｼ","kana_address":"ﾐﾄﾞﾘﾀﾞｲ","pref":"兵庫県","city":"川西市","address":"緑台"},
{"zip_code":"6660136","kana_pref":"ﾋｮｳｺﾞｹﾝ","kana_city":"ｶﾜﾆｼｼ","kana_address":"ﾐﾅﾐﾉｻｶ","pref":"兵庫県","city":"川西市","address":"南野坂"},
{"zip_code":"6660026","kana_pref":"ﾋｮｳｺﾞｹﾝ","kana_city":"ｶﾜﾆｼｼ","kana_address":"ﾐﾅﾐﾊﾅﾔｼｷ","pref":"兵庫県","city":"川西市","address":"南花屋敷"},
{"zip_code":"6660105","kana_pref":"ﾋｮｳｺﾞｹﾝ","kana_city":"ｶﾜﾆｼｼ","kana_address":"ﾐﾉ","pref":"兵庫県","city":"川西市","address":"見野"},
{"zip_code":"6660151","kana_pref":"ﾋｮｳｺﾞｹﾝ","kana_city":"ｶﾜﾆｼｼ","kana_address":"ﾐﾔﾏﾀﾞｲ","pref":"兵庫県","city":"川西市","address":"美山台"},
{"zip_code":"6660141","kana_pref":"ﾋｮｳｺﾞｹﾝ","kana_city":"ｶﾜﾆｼｼ","kana_address":"ﾑｼｭｳ","pref":"兵庫県","city":"川西市","address":"虫生"},
{"zip_code":"6660131","kana_pref":"ﾋｮｳｺﾞｹﾝ","kana_city":"ｶﾜﾆｼｼ","kana_address":"ﾔﾄｳ","pref":"兵庫県","city":"川西市","address":"矢問"},
{"zip_code":"6660132","kana_pref":"ﾋｮｳｺﾞｹﾝ","kana_city":"ｶﾜﾆｼｼ","kana_address":"ﾔﾄｳﾋｶﾞｼﾏﾁ","pref":"兵庫県","city":"川西市","address":"矢問東町"},
{"zip_code":"6660144","kana_pref":"ﾋｮｳｺﾞｹﾝ","kana_city":"ｶﾜﾆｼｼ","kana_address":"ﾔﾅｷﾞﾀﾆ","pref":"兵庫県","city":"川西市","address":"柳谷"},
{"zip_code":"6660106","kana_pref":"ﾋｮｳｺﾞｹﾝ","kana_city":"ｶﾜﾆｼｼ","kana_address":"ﾔﾏｼﾀﾁｮｳ","pref":"兵庫県","city":"川西市","address":"山下町"},
{"zip_code":"6660154","kana_pref":"ﾋｮｳｺﾞｹﾝ","kana_city":"ｶﾜﾆｼｼ","kana_address":"ﾔﾏﾊﾗ","pref":"兵庫県","city":"川西市","address":"山原"},
{"zip_code":"6660137","kana_pref":"ﾋｮｳｺﾞｹﾝ","kana_city":"ｶﾜﾆｼｼ","kana_address":"ﾕﾔﾏﾀﾞｲ","pref":"兵庫県","city":"川西市","address":"湯山台"},
{"zip_code":"6660102","kana_pref":"ﾋｮｳｺﾞｹﾝ","kana_city":"ｶﾜﾆｼｼ","kana_address":"ﾖｺｼﾞ","pref":"兵庫県","city":"川西市","address":"横路"},
{"zip_code":"6660147","kana_pref":"ﾋｮｳｺﾞｹﾝ","kana_city":"ｶﾜﾆｼｼ","kana_address":"ﾜｶﾐﾔ","pref":"兵庫県","city":"川西市","address":"若宮"},
{"zip_code":"6660200","kana_pref":"ﾋｮｳｺﾞｹﾝ","kana_city":"ｶﾜﾍﾞｸﾞﾝｲﾅｶﾞﾜﾁｮｳ","kana_address":"","pref":"兵庫県","city":"川辺郡猪名川町","address":""},
{"zip_code":"6660212","kana_pref":"ﾋｮｳｺﾞｹﾝ","kana_city":"ｶﾜﾍﾞｸﾞﾝｲﾅｶﾞﾜﾁｮｳ","kana_address":"ｱｻﾋｶﾞｵｶ","pref":"兵庫県","city":"川辺郡猪名川町","address":"旭ケ丘"},
{"zip_code":"6660246","kana_pref":"ﾋｮｳｺﾞｹﾝ","kana_city":"ｶﾜﾍﾞｸﾞﾝｲﾅｶﾞﾜﾁｮｳ","kana_address":"ｲﾅｶﾞﾜﾀﾞｲ","pref":"兵庫県","city":"川辺郡猪名川町","address":"猪名川台"},
{"zip_code":"6660255","kana_pref":"ﾋｮｳｺﾞｹﾝ","kana_city":"ｶﾜﾍﾞｸﾞﾝｲﾅｶﾞﾜﾁｮｳ","kana_address":"ｲﾌﾞﾁ","pref":"兵庫県","city":"川辺郡猪名川町","address":"猪渕"},
{"zip_code":"6660244","kana_pref":"ﾋｮｳｺﾞｹﾝ","kana_city":"ｶﾜﾍﾞｸﾞﾝｲﾅｶﾞﾜﾁｮｳ","kana_address":"ｳｴﾉ","pref":"兵庫県","city":"川辺郡猪名川町","address":"上野"},
{"zip_code":"6660241","kana_pref":"ﾋｮｳｺﾞｹﾝ","kana_city":"ｶﾜﾍﾞｸﾞﾝｲﾅｶﾞﾜﾁｮｳ","kana_address":"ｳﾁﾊﾞﾊﾞ","pref":"兵庫県","city":"川辺郡猪名川町","address":"内馬場"},
{"zip_code":"6660243","kana_pref":"ﾋｮｳｺﾞｹﾝ","kana_city":"ｶﾜﾍﾞｸﾞﾝｲﾅｶﾞﾜﾁｮｳ","kana_address":"ｶｼｳﾀﾞ","pref":"兵庫県","city":"川辺郡猪名川町","address":"柏梨田"},
{"zip_code":"6660204","kana_pref":"ﾋｮｳｺﾞｹﾝ","kana_city":"ｶﾜﾍﾞｸﾞﾝｲﾅｶﾞﾜﾁｮｳ","kana_address":"ｶｼﾊﾗ","pref":"兵庫県","city":"川辺郡猪名川町","address":"柏原"},
{"zip_code":"6660202","kana_pref":"ﾋｮｳｺﾞｹﾝ","kana_city":"ｶﾜﾍﾞｸﾞﾝｲﾅｶﾞﾜﾁｮｳ","kana_address":"ｶﾏｸﾗ","pref":"兵庫県","city":"川辺郡猪名川町","address":"鎌倉"},
{"zip_code":"6660231","kana_pref":"ﾋｮｳｺﾞｹﾝ","kana_city":"ｶﾜﾍﾞｸﾞﾝｲﾅｶﾞﾜﾁｮｳ","kana_address":"ｶﾐｱｺﾀﾆ","pref":"兵庫県","city":"川辺郡猪名川町","address":"上阿古谷"},
{"zip_code":"6660236","kana_pref":"ﾋｮｳｺﾞｹﾝ","kana_city":"ｶﾜﾍﾞｸﾞﾝｲﾅｶﾞﾜﾁｮｳ","kana_address":"ｷﾀﾀﾊﾗ","pref":"兵庫県","city":"川辺郡猪名川町","address":"北田原"},
{"zip_code":"6660234","kana_pref":"ﾋｮｳｺﾞｹﾝ","kana_city":"ｶﾜﾍﾞｸﾞﾝｲﾅｶﾞﾜﾁｮｳ","kana_address":"ｷﾀﾉ","pref":"兵庫県","city":"川辺郡猪名川町","address":"北野"},
{"zip_code":"6660225","kana_pref":"ﾋｮｳｺﾞｹﾝ","kana_city":"ｶﾜﾍﾞｸﾞﾝｲﾅｶﾞﾜﾁｮｳ","kana_address":"ｷﾂﾞ","pref":"兵庫県","city":"川辺郡猪名川町","address":"木津"},
{"zip_code":"6660254","kana_pref":"ﾋｮｳｺﾞｹﾝ","kana_city":"ｶﾜﾍﾞｸﾞﾝｲﾅｶﾞﾜﾁｮｳ","kana_address":"ｷﾓｶﾜ","pref":"兵庫県","city":"川辺郡猪名川町","address":"肝川"},
{"zip_code":"6660256","kana_pref":"ﾋｮｳｺﾞｹﾝ","kana_city":"ｶﾜﾍﾞｸﾞﾝｲﾅｶﾞﾜﾁｮｳ","kana_address":"ｷﾞﾝｻﾞﾝ","pref":"兵庫県","city":"川辺郡猪名川町","address":"銀山"},
{"zip_code":"6660223","kana_pref":"ﾋｮｳｺﾞｹﾝ","kana_city":"ｶﾜﾍﾞｸﾞﾝｲﾅｶﾞﾜﾁｮｳ","kana_address":"ｺﾓｵ","pref":"兵庫県","city":"川辺郡猪名川町","address":"木間生"},
{"zip_code":"6660227","kana_pref":"ﾋｮｳｺﾞｹﾝ","kana_city":"ｶﾜﾍﾞｸﾞﾝｲﾅｶﾞﾜﾁｮｳ","kana_address":"ｻｻｵ","pref":"兵庫県","city":"川辺郡猪名川町","address":"笹尾"},
{"zip_code":"6660253","kana_pref":"ﾋｮｳｺﾞｹﾝ","kana_city":"ｶﾜﾍﾞｸﾞﾝｲﾅｶﾞﾜﾁｮｳ","kana_address":"ｻｼｸﾐ","pref":"兵庫県","city":"川辺郡猪名川町","address":"差組"},
{"zip_code":"6660215","kana_pref":"ﾋｮｳｺﾞｹﾝ","kana_city":"ｶﾜﾍﾞｸﾞﾝｲﾅｶﾞﾜﾁｮｳ","kana_address":"ｼﾏ","pref":"兵庫県","city":"川辺郡猪名川町","address":"島"},
{"zip_code":"6660214","kana_pref":"ﾋｮｳｺﾞｹﾝ","kana_city":"ｶﾜﾍﾞｸﾞﾝｲﾅｶﾞﾜﾁｮｳ","kana_address":"ｼﾐｽﾞ","pref":"兵庫県","city":"川辺郡猪名川町","address":"清水"},
{"zip_code":"6660213","kana_pref":"ﾋｮｳｺﾞｹﾝ","kana_city":"ｶﾜﾍﾞｸﾞﾝｲﾅｶﾞﾜﾁｮｳ","kana_address":"ｼﾐｽﾞﾋｶﾞｼ","pref":"兵庫県","city":"川辺郡猪名川町","address":"清水東"},
{"zip_code":"6660237","kana_pref":"ﾋｮｳｺﾞｹﾝ","kana_city":"ｶﾜﾍﾞｸﾞﾝｲﾅｶﾞﾜﾁｮｳ","kana_address":"ｼﾓｱｺﾀﾆ","pref":"兵庫県","city":"川辺郡猪名川町","address":"下阿古谷"},
{"zip_code":"6660257","kana_pref":"ﾋｮｳｺﾞｹﾝ","kana_city":"ｶﾜﾍﾞｸﾞﾝｲﾅｶﾞﾜﾁｮｳ","kana_address":"ｼﾛｶﾞﾈ","pref":"兵庫県","city":"川辺郡猪名川町","address":"白金"},
{"zip_code":"6660201","kana_pref":"ﾋｮｳｺﾞｹﾝ","kana_city":"ｶﾜﾍﾞｸﾞﾝｲﾅｶﾞﾜﾁｮｳ","kana_address":"ｽｷﾞｵ","pref":"兵庫県","city":"川辺郡猪名川町","address":"杉生"},
{"zip_code":"6660232","kana_pref":"ﾋｮｳｺﾞｹﾝ","kana_city":"ｶﾜﾍﾞｸﾞﾝｲﾅｶﾞﾜﾁｮｳ","kana_address":"ﾀﾐﾀﾞ","pref":"兵庫県","city":"川辺郡猪名川町","address":"民田"},
{"zip_code":"6660222","kana_pref":"ﾋｮｳｺﾞｹﾝ","kana_city":"ｶﾜﾍﾞｸﾞﾝｲﾅｶﾞﾜﾁｮｳ","kana_address":"ﾂｸﾅﾐ","pref":"兵庫県","city":"川辺郡猪名川町","address":"槻並"},
{"zip_code":"6660245","kana_pref":"ﾋｮｳｺﾞｹﾝ","kana_city":"ｶﾜﾍﾞｸﾞﾝｲﾅｶﾞﾜﾁｮｳ","kana_address":"ﾂﾂｼﾞｶﾞｵｶ","pref":"兵庫県","city":"川辺郡猪名川町","address":"つつじが丘"},
{"zip_code":"6660221","kana_pref":"ﾋｮｳｺﾞｹﾝ","kana_city":"ｶﾜﾍﾞｸﾞﾝｲﾅｶﾞﾜﾁｮｳ","kana_address":"ﾄﾁﾊﾗ","pref":"兵庫県","city":"川辺郡猪名川町","address":"杤原"},
{"zip_code":"6660203","kana_pref":"ﾋｮｳｺﾞｹﾝ","kana_city":"ｶﾜﾍﾞｸﾞﾝｲﾅｶﾞﾜﾁｮｳ","kana_address":"ﾆｼﾊﾀ","pref":"兵庫県","city":"川辺郡猪名川町","address":"西畑"},
{"zip_code":"6660211","kana_pref":"ﾋｮｳｺﾞｹﾝ","kana_city":"ｶﾜﾍﾞｸﾞﾝｲﾅｶﾞﾜﾁｮｳ","kana_address":"ﾆｼﾞｮｳｼﾞ","pref":"兵庫県","city":"川辺郡猪名川町","address":"仁頂寺"},
{"zip_code":"6660226","kana_pref":"ﾋｮｳｺﾞｹﾝ","kana_city":"ｶﾜﾍﾞｸﾞﾝｲﾅｶﾞﾜﾁｮｳ","kana_address":"ﾊﾔｼﾀ","pref":"兵庫県","city":"川辺郡猪名川町","address":"林田"},
{"zip_code":"6660242","kana_pref":"ﾋｮｳｺﾞｹﾝ","kana_city":"ｶﾜﾍﾞｸﾞﾝｲﾅｶﾞﾜﾁｮｳ","kana_address":"ﾊﾗ","pref":"兵庫県","city":"川辺郡猪名川町","address":"原"},
{"zip_code":"6660252","kana_pref":"ﾋｮｳｺﾞｹﾝ","kana_city":"ｶﾜﾍﾞｸﾞﾝｲﾅｶﾞﾜﾁｮｳ","kana_address":"ﾋﾛﾈ","pref":"兵庫県","city":"川辺郡猪名川町","address":"広根"},
{"zip_code":"6660262","kana_pref":"ﾋｮｳｺﾞｹﾝ","kana_city":"ｶﾜﾍﾞｸﾞﾝｲﾅｶﾞﾜﾁｮｳ","kana_address":"ﾌｼﾐﾀﾞｲ","pref":"兵庫県","city":"川辺郡猪名川町","address":"伏見台"},
{"zip_code":"6660261","kana_pref":"ﾋｮｳｺﾞｹﾝ","kana_city":"ｶﾜﾍﾞｸﾞﾝｲﾅｶﾞﾜﾁｮｳ","kana_address":"ﾏﾂｵﾀﾞｲ","pref":"兵庫県","city":"川辺郡猪名川町","address":"松尾台"},
{"zip_code":"6660224","kana_pref":"ﾋｮｳｺﾞｹﾝ","kana_city":"ｶﾜﾍﾞｸﾞﾝｲﾅｶﾞﾜﾁｮｳ","kana_address":"ﾏﾝｾﾞﾝ","pref":"兵庫県","city":"川辺郡猪名川町","address":"万善"},
{"zip_code":"6660235","kana_pref":"ﾋｮｳｺﾞｹﾝ","kana_city":"ｶﾜﾍﾞｸﾞﾝｲﾅｶﾞﾜﾁｮｳ","kana_address":"ﾐﾅﾐﾀﾊﾗ","pref":"兵庫県","city":"川辺郡猪名川町","address":"南田原"},
{"zip_code":"6660233","kana_pref":"ﾋｮｳｺﾞｹﾝ","kana_city":"ｶﾜﾍﾞｸﾞﾝｲﾅｶﾞﾜﾁｮｳ","kana_address":"ﾕｳﾀﾞ","pref":"兵庫県","city":"川辺郡猪名川町","address":"紫合"},
{"zip_code":"6660251","kana_pref":"ﾋｮｳｺﾞｹﾝ","kana_city":"ｶﾜﾍﾞｸﾞﾝｲﾅｶﾞﾜﾁｮｳ","kana_address":"ﾜｶﾊﾞ","pref":"兵庫県","city":"川辺郡猪名川町","address":"若葉"}]}