{"zip_code":[
{"zip_code":"6680000","kana_pref":"ﾋｮｳｺﾞｹﾝ","kana_city":"ﾄﾖｵｶｼ","kana_address":"","pref":"兵庫県","city":"豊岡市","address":""},
{"zip_code":"6680801","kana_pref":"ﾋｮｳｺﾞｹﾝ","kana_city":"ﾄﾖｵｶｼ","kana_address":"ｱｶｲｼ","pref":"兵庫県","city":"豊岡市","address":"赤石"},
{"zip_code":"6680001","kana_pref":"ﾋｮｳｺﾞｹﾝ","kana_city":"ﾄﾖｵｶｼ","kana_address":"ｲｶﾞﾀﾞﾆ","pref":"兵庫県","city":"豊岡市","address":"伊賀谷"},
{"zip_code":"6680261","kana_pref":"ﾋｮｳｺﾞｹﾝ","kana_city":"ﾄﾖｵｶｼ","kana_address":"ｲｽﾞｼﾁｮｳｱﾗｷ","pref":"兵庫県","city":"豊岡市","address":"出石町荒木"},
{"zip_code":"6680213","kana_pref":"ﾋｮｳｺﾞｹﾝ","kana_city":"ﾄﾖｵｶｼ","kana_address":"ｲｽﾞｼﾁｮｳｲｷﾞ","pref":"兵庫県","city":"豊岡市","address":"出石町伊木"},
{"zip_code":"6680207","kana_pref":"ﾋｮｳｺﾞｹﾝ","kana_city":"ﾄﾖｵｶｼ","kana_address":"ｲｽﾞｼﾁｮｳｲｽﾞ","pref":"兵庫県","city":"豊岡市","address":"出石町伊豆"},
{"zip_code":"6680218","kana_pref":"ﾋｮｳｺﾞｹﾝ","kana_city":"ﾄﾖｵｶｼ","kana_address":"ｲｽﾞｼﾁｮｳｲﾙｻ","pref":"兵庫県","city":"豊岡市","address":"出石町入佐"},
{"zip_code":"6680244","kana_pref":"ﾋｮｳｺﾞｹﾝ","kana_city":"ﾄﾖｵｶｼ","kana_address":"ｲｽﾞｼﾁｮｳｳｴﾉ","pref":"兵庫県","city":"豊岡市","address":"出石町上野"},
{"zip_code":"6680215","kana_pref":"ﾋｮｳｺﾞｹﾝ","kana_city":"ﾄﾖｵｶｼ","kana_address":"ｲｽﾞｼﾁｮｳｳｵﾔ","pref":"兵庫県","city":"豊岡市","address":"出石町魚屋"},
{"zip_code":"6680214","kana_pref":"ﾋｮｳｺﾞｹﾝ","kana_city":"ﾄﾖｵｶｼ","kana_address":"ｲｽﾞｼﾁｮｳｳﾁﾏﾁ","pref":"兵庫県","city":"豊岡市","address":"出石町内町"},
{"zip_code":"6680271","kana_pref":"ﾋｮｳｺﾞｹﾝ","kana_city":"ﾄﾖｵｶｼ","kana_address":"ｲｽﾞｼﾁｮｳｵｵﾀﾆ","pref":"兵庫県","city":"豊岡市","address":"出石町大谷"},
{"zip_code":"6680201","kana_pref":"ﾋｮｳｺﾞｹﾝ","kana_city":"ﾄﾖｵｶｼ","kana_address":"ｲｽﾞｼﾁｮｳｵｸｵﾉ","pref":"兵庫県","city":"豊岡市","address":"出石町奥小野"},
{"zip_code":"6680251","kana_pref":"ﾋｮｳｺﾞｹﾝ","kana_city":"ﾄﾖｵｶｼ","kana_address":"ｲｽﾞｼﾁｮｳｵｸﾔﾏ","pref":"兵庫県","city":"豊岡市","address":"出石町奥山"},
{"zip_code":"6680235","kana_pref":"ﾋｮｳｺﾞｹﾝ","kana_city":"ﾄﾖｵｶｼ","kana_address":"ｲｽﾞｼﾁｮｳｶｼﾞﾔ","pref":"兵庫県","city":"豊岡市","address":"出石町鍛冶屋"},
{"zip_code":"6680279","kana_pref":"ﾋｮｳｺﾞｹﾝ","kana_city":"ﾄﾖｵｶｼ","kana_address":"ｲｽﾞｼﾁｮｳｶﾀﾏ","pref":"兵庫県","city":"豊岡市","address":"出石町片間"},
{"zip_code":"6680255","kana_pref":"ﾋｮｳｺﾞｹﾝ","kana_city":"ﾄﾖｵｶｼ","kana_address":"ｲｽﾞｼﾁｮｳｶﾐﾑﾗ","pref":"兵庫県","city":"豊岡市","address":"出石町上村"},
{"zip_code":"6680231","kana_pref":"ﾋｮｳｺﾞｹﾝ","kana_city":"ﾄﾖｵｶｼ","kana_address":"ｲｽﾞｼﾁｮｳｶﾜﾗ","pref":"兵庫県","city":"豊岡市","address":"出石町川原"},
{"zip_code":"6680242","kana_pref":"ﾋｮｳｺﾞｹﾝ","kana_city":"ﾄﾖｵｶｼ","kana_address":"ｲｽﾞｼﾁｮｳｷﾘﾉ","pref":"兵庫県","city":"豊岡市","address":"出石町桐野"},
{"zip_code":"6680202","kana_pref":"ﾋｮｳｺﾞｹﾝ","kana_city":"ﾄﾖｵｶｼ","kana_address":"ｲｽﾞｼﾁｮｳｸﾁｵﾉ","pref":"兵庫県","city":"豊岡市","address":"出石町口小野"},
{"zip_code":"6680264","kana_pref":"ﾋｮｳｺﾞｹﾝ","kana_city":"ﾄﾖｵｶｼ","kana_address":"ｲｽﾞｼﾁｮｳｸﾚｻｶ","pref":"兵庫県","city":"豊岡市","address":"出石町暮坂"},
{"zip_code":"6680256","kana_pref":"ﾋｮｳｺﾞｹﾝ","kana_city":"ﾄﾖｵｶｼ","kana_address":"ｲｽﾞｼﾁｮｳｺﾋﾞﾄ","pref":"兵庫県","city":"豊岡市","address":"出石町小人"},
{"zip_code":"6680216","kana_pref":"ﾋｮｳｺﾞｹﾝ","kana_city":"ﾄﾖｵｶｼ","kana_address":"ｲｽﾞｼﾁｮｳｻﾞｲﾓｸ","pref":"兵庫県","city":"豊岡市","address":"出石町材木"},
{"zip_code":"6680205","kana_pref":"ﾋｮｳｺﾞｹﾝ","kana_city":"ﾄﾖｵｶｼ","kana_address":"ｲｽﾞｼﾁｮｳｼﾏ","pref":"兵庫県","city":"豊岡市","address":"出石町嶋"},
{"zip_code":"6680211","kana_pref":"ﾋｮｳｺﾞｹﾝ","kana_city":"ﾄﾖｵｶｼ","kana_address":"ｲｽﾞｼﾁｮｳｼﾓﾀﾆ","pref":"兵庫県","city":"豊岡市","address":"出石町下谷"},
{"zip_code":"6680233","kana_pref":"ﾋｮｳｺﾞｹﾝ","kana_city":"ﾄﾖｵｶｼ","kana_address":"ｲｽﾞｼﾁｮｳﾀｲﾉｼｮｳ","pref":"兵庫県","city":"豊岡市","address":"出石町田結庄"},
{"zip_code":"6680209","kana_pref":"ﾋｮｳｺﾞｹﾝ","kana_city":"ﾄﾖｵｶｼ","kana_address":"ｲｽﾞｼﾁｮｳﾀﾀﾞﾁ","pref":"兵庫県","city":"豊岡市","address":"出石町田多地"},
{"zip_code":"6680212","kana_pref":"ﾋｮｳｺﾞｹﾝ","kana_city":"ﾄﾖｵｶｼ","kana_address":"ｲｽﾞｼﾁｮｳﾀﾆﾔﾏ","pref":"兵庫県","city":"豊岡市","address":"出石町谷山"},
{"zip_code":"6680273","kana_pref":"ﾋｮｳｺﾞｹﾝ","kana_city":"ﾄﾖｵｶｼ","kana_address":"ｲｽﾞｼﾁｮｳﾂﾎﾞｲ","pref":"兵庫県","city":"豊岡市","address":"出石町坪井"},
{"zip_code":"6680257","kana_pref":"ﾋｮｳｺﾞｹﾝ","kana_city":"ﾄﾖｵｶｼ","kana_address":"ｲｽﾞｼﾁｮｳﾂﾎﾞｸﾞﾁ","pref":"兵庫県","city":"豊岡市","address":"出石町坪口"},
{"zip_code":"6680223","kana_pref":"ﾋｮｳｺﾞｹﾝ","kana_city":"ﾄﾖｵｶｼ","kana_address":"ｲｽﾞｼﾁｮｳﾃｯﾎﾟｳ","pref":"兵庫県","city":"豊岡市","address":"出石町鉄砲"},
{"zip_code":"6680241","kana_pref":"ﾋｮｳｺﾞｹﾝ","kana_city":"ﾄﾖｵｶｼ","kana_address":"ｲｽﾞｼﾁｮｳﾃﾗｻｶ","pref":"兵庫県","city":"豊岡市","address":"出石町寺坂"},
{"zip_code":"6680222","kana_pref":"ﾋｮｳｺﾞｹﾝ","kana_city":"ﾄﾖｵｶｼ","kana_address":"ｲｽﾞｼﾁｮｳﾃﾗﾏﾁ","pref":"兵庫県","city":"豊岡市","address":"出石町寺町"},
{"zip_code":"6680217","kana_pref":"ﾋｮｳｺﾞｹﾝ","kana_city":"ﾄﾖｵｶｼ","kana_address":"ｲｽﾞｼﾁｮｳﾄｳｼﾞｮｳ","pref":"兵庫県","city":"豊岡市","address":"出石町東條"},
{"zip_code":"6680272","kana_pref":"ﾋｮｳｺﾞｹﾝ","kana_city":"ﾄﾖｵｶｼ","kana_address":"ｲｽﾞｼﾁｮｳﾄﾘｲ","pref":"兵庫県","city":"豊岡市","address":"出石町鳥居"},
{"zip_code":"6680275","kana_pref":"ﾋｮｳｺﾞｹﾝ","kana_city":"ﾄﾖｵｶｼ","kana_address":"ｲｽﾞｼﾁｮｳﾅｶﾞｽﾅ","pref":"兵庫県","city":"豊岡市","address":"出石町長砂"},
{"zip_code":"6680243","kana_pref":"ﾋｮｳｺﾞｹﾝ","kana_city":"ﾄﾖｵｶｼ","kana_address":"ｲｽﾞｼﾁｮｳﾅｶﾉ","pref":"兵庫県","city":"豊岡市","address":"出石町中野"},
{"zip_code":"6680254","kana_pref":"ﾋｮｳｺﾞｹﾝ","kana_city":"ﾄﾖｵｶｼ","kana_address":"ｲｽﾞｼﾁｮｳﾅｶﾑﾗ","pref":"兵庫県","city":"豊岡市","address":"出石町中村"},
{"zip_code":"6680203","kana_pref":"ﾋｮｳｺﾞｹﾝ","kana_city":"ﾄﾖｵｶｼ","kana_address":"ｲｽﾞｼﾁｮｳﾊｶｻﾞ","pref":"兵庫県","city":"豊岡市","address":"出石町袴狭"},
{"zip_code":"6680237","kana_pref":"ﾋｮｳｺﾞｹﾝ","kana_city":"ﾄﾖｵｶｼ","kana_address":"ｲｽﾞｼﾁｮｳﾊﾞﾊﾞ","pref":"兵庫県","city":"豊岡市","address":"出石町馬場"},
{"zip_code":"6680246","kana_pref":"ﾋｮｳｺﾞｹﾝ","kana_city":"ﾄﾖｵｶｼ","kana_address":"ｲｽﾞｼﾁｮｳﾋﾉﾍﾞ","pref":"兵庫県","city":"豊岡市","address":"出石町日野辺"},
{"zip_code":"6680266","kana_pref":"ﾋｮｳｺﾞｹﾝ","kana_city":"ﾄﾖｵｶｼ","kana_address":"ｲｽﾞｼﾁｮｳﾋﾗﾀ","pref":"兵庫県","city":"豊岡市","address":"出石町平田"},
{"zip_code":"6680238","kana_pref":"ﾋｮｳｺﾞｹﾝ","kana_city":"ﾄﾖｵｶｼ","kana_address":"ｲｽﾞｼﾁｮｳﾋﾛﾊﾗ","pref":"兵庫県","city":"豊岡市","address":"出石町弘原"},
{"zip_code":"6680206","kana_pref":"ﾋｮｳｺﾞｹﾝ","kana_city":"ﾄﾖｵｶｼ","kana_address":"ｲｽﾞｼﾁｮｳﾌｸｲ","pref":"兵庫県","city":"豊岡市","address":"出石町福居"},
{"zip_code":"6680263","kana_pref":"ﾋｮｳｺﾞｹﾝ","kana_city":"ﾄﾖｵｶｼ","kana_address":"ｲｽﾞｼﾁｮｳﾌｸｽﾐ","pref":"兵庫県","city":"豊岡市","address":"出石町福住"},
{"zip_code":"6680265","kana_pref":"ﾋｮｳｺﾞｹﾝ","kana_city":"ﾄﾖｵｶｼ","kana_address":"ｲｽﾞｼﾁｮｳﾌｸﾐ","pref":"兵庫県","city":"豊岡市","address":"出石町福見"},
{"zip_code":"6680262","kana_pref":"ﾋｮｳｺﾞｹﾝ","kana_city":"ﾄﾖｵｶｼ","kana_address":"ｲｽﾞｼﾁｮｳﾎｿﾐ","pref":"兵庫県","city":"豊岡市","address":"出石町細見"},
{"zip_code":"6680224","kana_pref":"ﾋｮｳｺﾞｹﾝ","kana_city":"ﾄﾖｵｶｼ","kana_address":"ｲｽﾞｼﾁｮｳﾎﾝﾏﾁ","pref":"兵庫県","city":"豊岡市","address":"出石町本町"},
{"zip_code":"6680221","kana_pref":"ﾋｮｳｺﾞｹﾝ","kana_city":"ﾄﾖｵｶｼ","kana_address":"ｲｽﾞｼﾁｮｳﾏﾁﾌﾞﾝ","pref":"兵庫県","city":"豊岡市","address":"出石町町分"},
{"zip_code":"6680236","kana_pref":"ﾋｮｳｺﾞｹﾝ","kana_city":"ﾄﾖｵｶｼ","kana_address":"ｲｽﾞｼﾁｮｳﾏﾂｶﾞｴ","pref":"兵庫県","city":"豊岡市","address":"出石町松枝"},
{"zip_code":"6680277","kana_pref":"ﾋｮｳｺﾞｹﾝ","kana_city":"ﾄﾖｵｶｼ","kana_address":"ｲｽﾞｼﾁｮｳﾏﾙﾅｶ","pref":"兵庫県","city":"豊岡市","address":"出石町丸中"},
{"zip_code":"6680278","kana_pref":"ﾋｮｳｺﾞｹﾝ","kana_city":"ﾄﾖｵｶｼ","kana_address":"ｲｽﾞｼﾁｮｳﾐﾂｷ","pref":"兵庫県","city":"豊岡市","address":"出石町三木"},
{"zip_code":"6680204","kana_pref":"ﾋｮｳｺﾞｹﾝ","kana_city":"ﾄﾖｵｶｼ","kana_address":"ｲｽﾞｼﾁｮｳﾐﾔｳﾁ","pref":"兵庫県","city":"豊岡市","address":"出石町宮内"},
{"zip_code":"6680274","kana_pref":"ﾋｮｳｺﾞｹﾝ","kana_city":"ﾄﾖｵｶｼ","kana_address":"ｲｽﾞｼﾁｮｳﾑﾅｶﾞｲ","pref":"兵庫県","city":"豊岡市","address":"出石町水上"},
{"zip_code":"6680276","kana_pref":"ﾋｮｳｺﾞｹﾝ","kana_city":"ﾄﾖｵｶｼ","kana_address":"ｲｽﾞｼﾁｮｳﾓﾘｲ","pref":"兵庫県","city":"豊岡市","address":"出石町森井"},
{"zip_code":"6680225","kana_pref":"ﾋｮｳｺﾞｹﾝ","kana_city":"ﾄﾖｵｶｼ","kana_address":"ｲｽﾞｼﾁｮｳﾔｷﾞ","pref":"兵庫県","city":"豊岡市","address":"出石町八木"},
{"zip_code":"6680208","kana_pref":"ﾋｮｳｺﾞｹﾝ","kana_city":"ﾄﾖｵｶｼ","kana_address":"ｲｽﾞｼﾁｮｳﾔｽﾗ","pref":"兵庫県","city":"豊岡市","address":"出石町安良"},
{"zip_code":"6680234","kana_pref":"ﾋｮｳｺﾞｹﾝ","kana_city":"ﾄﾖｵｶｼ","kana_address":"ｲｽﾞｼﾁｮｳﾔﾅｷﾞ","pref":"兵庫県","city":"豊岡市","address":"出石町柳"},
{"zip_code":"6680245","kana_pref":"ﾋｮｳｺﾞｹﾝ","kana_city":"ﾄﾖｵｶｼ","kana_address":"ｲｽﾞｼﾁｮｳﾕﾘ","pref":"兵庫県","city":"豊岡市","address":"出石町百合"},
{"zip_code":"6680232","kana_pref":"ﾋｮｳｺﾞｹﾝ","kana_city":"ﾄﾖｵｶｼ","kana_address":"ｲｽﾞｼﾁｮｳﾖｲﾀﾞ","pref":"兵庫県","city":"豊岡市","address":"出石町宵田"},
{"zip_code":"6680253","kana_pref":"ﾋｮｳｺﾞｹﾝ","kana_city":"ﾄﾖｵｶｼ","kana_address":"ｲｽﾞｼﾁｮｳﾖﾉﾐ","pref":"兵庫県","city":"豊岡市","address":"出石町榎見"},
{"zip_code":"6680252","kana_pref":"ﾋｮｳｺﾞｹﾝ","kana_city":"ﾄﾖｵｶｼ","kana_address":"ｲｽﾞｼﾁｮｳﾜﾔ","pref":"兵庫県","city":"豊岡市","address":"出石町和屋"},
{"zip_code":"6680021","kana_pref":"ﾋｮｳｺﾞｹﾝ","kana_city":"ﾄﾖｵｶｼ","kana_address":"ｲｽﾞﾐﾁｮｳ","pref":"兵庫県","city":"豊岡市","address":"泉町"},
{"zip_code":"6680821","kana_pref":"ﾋｮｳｺﾞｹﾝ","kana_city":"ﾄﾖｵｶｼ","kana_address":"ｲﾁﾊﾞ","pref":"兵庫県","city":"豊岡市","address":"市場"},
{"zip_code":"6680851","kana_pref":"ﾋｮｳｺﾞｹﾝ","kana_city":"ﾄﾖｵｶｼ","kana_address":"ｲﾏﾓﾘ","pref":"兵庫県","city":"豊岡市","address":"今森"},
{"zip_code":"6680081","kana_pref":"ﾋｮｳｺﾞｹﾝ","kana_city":"ﾄﾖｵｶｼ","kana_address":"ｲﾜｲ","pref":"兵庫県","city":"豊岡市","address":"岩井"},
{"zip_code":"6680002","kana_pref":"ﾋｮｳｺﾞｹﾝ","kana_city":"ﾄﾖｵｶｼ","kana_address":"ｲﾜｸﾏ","pref":"兵庫県","city":"豊岡市","address":"岩熊"},
{"zip_code":"6680071","kana_pref":"ﾋｮｳｺﾞｹﾝ","kana_city":"ﾄﾖｵｶｼ","kana_address":"ｳﾁﾏﾁ","pref":"兵庫県","city":"豊岡市","address":"内町"},
{"zip_code":"6680852","kana_pref":"ﾋｮｳｺﾞｹﾝ","kana_city":"ﾄﾖｵｶｼ","kana_address":"ｴﾓﾄ","pref":"兵庫県","city":"豊岡市","address":"江本"},
{"zip_code":"6680041","kana_pref":"ﾋｮｳｺﾞｹﾝ","kana_city":"ﾄﾖｵｶｼ","kana_address":"ｵｵｲｿﾁｮｳ","pref":"兵庫県","city":"豊岡市","address":"大磯町"},
{"zip_code":"6680861","kana_pref":"ﾋｮｳｺﾞｹﾝ","kana_city":"ﾄﾖｵｶｼ","kana_address":"ｵｵｼﾉｶ","pref":"兵庫県","city":"豊岡市","address":"大篠岡"},
{"zip_code":"6680072","kana_pref":"ﾋｮｳｺﾞｹﾝ","kana_city":"ﾄﾖｵｶｼ","kana_address":"ｵｵﾀﾆ","pref":"兵庫県","city":"豊岡市","address":"大谷"},
{"zip_code":"6680031","kana_pref":"ﾋｮｳｺﾞｹﾝ","kana_city":"ﾄﾖｵｶｼ","kana_address":"ｵｵﾃﾏﾁ","pref":"兵庫県","city":"豊岡市","address":"大手町"},
{"zip_code":"6680822","kana_pref":"ﾋｮｳｺﾞｹﾝ","kana_city":"ﾄﾖｵｶｼ","kana_address":"ｵｸﾉ","pref":"兵庫県","city":"豊岡市","address":"奥野"},
{"zip_code":"6680022","kana_pref":"ﾋｮｳｺﾞｹﾝ","kana_city":"ﾄﾖｵｶｼ","kana_address":"ｵﾀﾞｲﾁｮｳ","pref":"兵庫県","city":"豊岡市","address":"小田井町"},
{"zip_code":"6680871","kana_pref":"ﾋｮｳｺﾞｹﾝ","kana_city":"ﾄﾖｵｶｼ","kana_address":"ｶｼﾞﾜﾗ","pref":"兵庫県","city":"豊岡市","address":"梶原"},
{"zip_code":"6680862","kana_pref":"ﾋｮｳｺﾞｹﾝ","kana_city":"ﾄﾖｵｶｼ","kana_address":"ｶｽﾐ","pref":"兵庫県","city":"豊岡市","address":"香住"},
{"zip_code":"6680023","kana_pref":"ﾋｮｳｺﾞｹﾝ","kana_city":"ﾄﾖｵｶｼ","kana_address":"ｶﾋﾛﾁｮｳ","pref":"兵庫県","city":"豊岡市","address":"加広町"},
{"zip_code":"6680811","kana_pref":"ﾋｮｳｺﾞｹﾝ","kana_city":"ﾄﾖｵｶｼ","kana_address":"ｶﾏﾀ","pref":"兵庫県","city":"豊岡市","address":"鎌田"},
{"zip_code":"6680011","kana_pref":"ﾋｮｳｺﾞｹﾝ","kana_city":"ﾄﾖｵｶｼ","kana_address":"ｶﾐｶｹﾞ","pref":"兵庫県","city":"豊岡市","address":"上陰"},
{"zip_code":"6680061","kana_pref":"ﾋｮｳｺﾞｹﾝ","kana_city":"ﾄﾖｵｶｼ","kana_address":"ｶﾐｻﾉ","pref":"兵庫県","city":"豊岡市","address":"上佐野"},
{"zip_code":"6680863","kana_pref":"ﾋｮｳｺﾞｹﾝ","kana_city":"ﾄﾖｵｶｼ","kana_address":"ｶﾐﾊﾁﾔﾏ","pref":"兵庫県","city":"豊岡市","address":"上鉢山"},
{"zip_code":"6680831","kana_pref":"ﾋｮｳｺﾞｹﾝ","kana_city":"ﾄﾖｵｶｼ","kana_address":"ｶﾐﾖｼﾀﾞｲ","pref":"兵庫県","city":"豊岡市","address":"神美台"},
{"zip_code":"6680841","kana_pref":"ﾋｮｳｺﾞｹﾝ","kana_city":"ﾄﾖｵｶｼ","kana_address":"ｶﾔ","pref":"兵庫県","city":"豊岡市","address":"加陽"},
{"zip_code":"6680864","kana_pref":"ﾋｮｳｺﾞｹﾝ","kana_city":"ﾄﾖｵｶｼ","kana_address":"ｷﾅｼ","pref":"兵庫県","city":"豊岡市","address":"木内"},
{"zip_code":"6680042","kana_pref":"ﾋｮｳｺﾞｹﾝ","kana_city":"ﾄﾖｵｶｼ","kana_address":"ｷｮｳﾏﾁ","pref":"兵庫県","city":"豊岡市","address":"京町"},
{"zip_code":"6680832","kana_pref":"ﾋｮｳｺﾞｹﾝ","kana_city":"ﾄﾖｵｶｼ","kana_address":"ｸﾗﾐ","pref":"兵庫県","city":"豊岡市","address":"倉見"},
{"zip_code":"6680872","kana_pref":"ﾋｮｳｺﾞｹﾝ","kana_city":"ﾄﾖｵｶｼ","kana_address":"ｺｳﾀﾞﾆ","pref":"兵庫県","city":"豊岡市","address":"河谷"},
{"zip_code":"6680003","kana_pref":"ﾋｮｳｺﾞｹﾝ","kana_city":"ﾄﾖｵｶｼ","kana_address":"ｺﾞｳﾉ","pref":"兵庫県","city":"豊岡市","address":"江野"},
{"zip_code":"6680051","kana_pref":"ﾋｮｳｺﾞｹﾝ","kana_city":"ﾄﾖｵｶｼ","kana_address":"ｺｺﾉｶｲﾁｶﾐﾉﾁｮｳ","pref":"兵庫県","city":"豊岡市","address":"九日市上町"},
{"zip_code":"6680053","kana_pref":"ﾋｮｳｺﾞｹﾝ","kana_city":"ﾄﾖｵｶｼ","kana_address":"ｺｺﾉｶｲﾁﾅｶﾉﾁｮｳ","pref":"兵庫県","city":"豊岡市","address":"九日市中町"},
{"zip_code":"6680052","kana_pref":"ﾋｮｳｺﾞｹﾝ","kana_city":"ﾄﾖｵｶｼ","kana_address":"ｺｺﾉｶｲﾁｼﾓﾉﾁｮｳ","pref":"兵庫県","city":"豊岡市","address":"九日市下町"},
{"zip_code":"6680024","kana_pref":"ﾋｮｳｺﾞｹﾝ","kana_city":"ﾄﾖｵｶｼ","kana_address":"ｺﾄﾌﾞｷﾁｮｳ","pref":"兵庫県","city":"豊岡市","address":"寿町"},
{"zip_code":"6680802","kana_pref":"ﾋｮｳｺﾞｹﾝ","kana_city":"ﾄﾖｵｶｼ","kana_address":"ｺﾝｺﾞｳｼﾞ","pref":"兵庫県","city":"豊岡市","address":"金剛寺"},
{"zip_code":"6680025","kana_pref":"ﾋｮｳｺﾞｹﾝ","kana_city":"ﾄﾖｵｶｼ","kana_address":"ｻｲﾜｲﾁｮｳ","pref":"兵庫県","city":"豊岡市","address":"幸町"},
{"zip_code":"6680812","kana_pref":"ﾋｮｳｺﾞｹﾝ","kana_city":"ﾄﾖｵｶｼ","kana_address":"ｻｶｴﾏﾁ","pref":"兵庫県","city":"豊岡市","address":"栄町"},
{"zip_code":"6680043","kana_pref":"ﾋｮｳｺﾞｹﾝ","kana_city":"ﾄﾖｵｶｼ","kana_address":"ｻｸﾗﾏﾁ","pref":"兵庫県","city":"豊岡市","address":"桜町"},
{"zip_code":"6680062","kana_pref":"ﾋｮｳｺﾞｹﾝ","kana_city":"ﾄﾖｵｶｼ","kana_address":"ｻﾉ","pref":"兵庫県","city":"豊岡市","address":"佐野"},
{"zip_code":"6680044","kana_pref":"ﾋｮｳｺﾞｹﾝ","kana_city":"ﾄﾖｵｶｼ","kana_address":"ｻﾝﾉｳﾁｮｳ","pref":"兵庫県","city":"豊岡市","address":"山王町"},
{"zip_code":"6680054","kana_pref":"ﾋｮｳｺﾞｹﾝ","kana_city":"ﾄﾖｵｶｼ","kana_address":"ｼｵﾂﾁｮｳ","pref":"兵庫県","city":"豊岡市","address":"塩津町"},
{"zip_code":"6680012","kana_pref":"ﾋｮｳｺﾞｹﾝ","kana_city":"ﾄﾖｵｶｼ","kana_address":"ｼﾓｶｹﾞ","pref":"兵庫県","city":"豊岡市","address":"下陰"},
{"zip_code":"6680803","kana_pref":"ﾋｮｳｺﾞｹﾝ","kana_city":"ﾄﾖｵｶｼ","kana_address":"ｼﾓﾂﾙｲ","pref":"兵庫県","city":"豊岡市","address":"下鶴井"},
{"zip_code":"6680813","kana_pref":"ﾋｮｳｺﾞｹﾝ","kana_city":"ﾄﾖｵｶｼ","kana_address":"ｼﾓﾉﾐﾔ","pref":"兵庫県","city":"豊岡市","address":"下宮"},
{"zip_code":"6680865","kana_pref":"ﾋｮｳｺﾞｹﾝ","kana_city":"ﾄﾖｵｶｼ","kana_address":"ｼﾓﾊﾁﾔﾏ","pref":"兵庫県","city":"豊岡市","address":"下鉢山"},
{"zip_code":"6680082","kana_pref":"ﾋｮｳｺﾞｹﾝ","kana_city":"ﾄﾖｵｶｼ","kana_address":"ｼｮｳ","pref":"兵庫県","city":"豊岡市","address":"庄"},
{"zip_code":"6680814","kana_pref":"ﾋｮｳｺﾞｹﾝ","kana_city":"ﾄﾖｵｶｼ","kana_address":"ｼｮｳｳﾝｼﾞ","pref":"兵庫県","city":"豊岡市","address":"祥雲寺"},
{"zip_code":"6680873","kana_pref":"ﾋｮｳｺﾞｹﾝ","kana_city":"ﾄﾖｵｶｼ","kana_address":"ｼｮｳｻﾞｶｲ","pref":"兵庫県","city":"豊岡市","address":"庄境"},
{"zip_code":"6680045","kana_pref":"ﾋｮｳｺﾞｹﾝ","kana_city":"ﾄﾖｵｶｼ","kana_address":"ｼﾞｮｳﾅﾝﾁｮｳ","pref":"兵庫県","city":"豊岡市","address":"城南町"},
{"zip_code":"6680063","kana_pref":"ﾋｮｳｺﾞｹﾝ","kana_city":"ﾄﾖｵｶｼ","kana_address":"ｼｮｳﾎﾞｳｼﾞ","pref":"兵庫県","city":"豊岡市","address":"正法寺"},
{"zip_code":"6680853","kana_pref":"ﾋｮｳｺﾞｹﾝ","kana_city":"ﾄﾖｵｶｼ","kana_address":"ｼｮｳﾚﾝｼﾞ","pref":"兵庫県","city":"豊岡市","address":"清冷寺"},
{"zip_code":"6680055","kana_pref":"ﾋｮｳｺﾞｹﾝ","kana_city":"ﾄﾖｵｶｼ","kana_address":"ｼｮｳﾜﾁｮｳ","pref":"兵庫県","city":"豊岡市","address":"昭和町"},
{"zip_code":"6680004","kana_pref":"ﾋｮｳｺﾞｹﾝ","kana_city":"ﾄﾖｵｶｼ","kana_address":"ｼﾝﾄﾞｳ","pref":"兵庫県","city":"豊岡市","address":"新堂"},
{"zip_code":"6680064","kana_pref":"ﾋｮｳｺﾞｹﾝ","kana_city":"ﾄﾖｵｶｼ","kana_address":"ﾀｶﾔ","pref":"兵庫県","city":"豊岡市","address":"高屋"},
{"zip_code":"6680005","kana_pref":"ﾋｮｳｺﾞｹﾝ","kana_city":"ﾄﾖｵｶｼ","kana_address":"ﾀｷ","pref":"兵庫県","city":"豊岡市","address":"滝"},
{"zip_code":"6680866","kana_pref":"ﾋｮｳｺﾞｹﾝ","kana_city":"ﾄﾖｵｶｼ","kana_address":"ﾀﾞｻｶ","pref":"兵庫県","city":"豊岡市","address":"駄坂"},
{"zip_code":"6680046","kana_pref":"ﾋｮｳｺﾞｹﾝ","kana_city":"ﾄﾖｵｶｼ","kana_address":"ﾀﾁﾉﾁｮｳ","pref":"兵庫県","city":"豊岡市","address":"立野町"},
{"zip_code":"6680833","kana_pref":"ﾋｮｳｺﾞｹﾝ","kana_city":"ﾄﾖｵｶｼ","kana_address":"ﾀﾃｲｼ","pref":"兵庫県","city":"豊岡市","address":"立石"},
{"zip_code":"6680324","kana_pref":"ﾋｮｳｺﾞｹﾝ","kana_city":"ﾄﾖｵｶｼ","kana_address":"ﾀﾝﾄｳﾁｮｳｱｲﾀﾞ","pref":"兵庫県","city":"豊岡市","address":"但東町相田"},
{"zip_code":"6680352","kana_pref":"ﾋｮｳｺﾞｹﾝ","kana_city":"ﾄﾖｵｶｼ","kana_address":"ﾀﾝﾄｳﾁｮｳｱｶﾊﾞﾅ","pref":"兵庫県","city":"豊岡市","address":"但東町赤花"},
{"zip_code":"6680316","kana_pref":"ﾋｮｳｺﾞｹﾝ","kana_city":"ﾄﾖｵｶｼ","kana_address":"ﾀﾝﾄｳﾁｮｳｱﾏﾀﾞﾆ","pref":"兵庫県","city":"豊岡市","address":"但東町天谷"},
{"zip_code":"6680374","kana_pref":"ﾋｮｳｺﾞｹﾝ","kana_city":"ﾄﾖｵｶｼ","kana_address":"ﾀﾝﾄｳﾁｮｳｳｼﾛ","pref":"兵庫県","city":"豊岡市","address":"但東町後"},
{"zip_code":"6680372","kana_pref":"ﾋｮｳｺﾞｹﾝ","kana_city":"ﾄﾖｵｶｼ","kana_address":"ﾀﾝﾄｳﾁｮｳｵｵｺﾞｳﾁ","pref":"兵庫県","city":"豊岡市","address":"但東町大河内"},
{"zip_code":"6680335","kana_pref":"ﾋｮｳｺﾞｹﾝ","kana_city":"ﾄﾖｵｶｼ","kana_address":"ﾀﾝﾄｳﾁｮｳｵｵﾀ","pref":"兵庫県","city":"豊岡市","address":"但東町太田"},
{"zip_code":"6680353","kana_pref":"ﾋｮｳｺﾞｹﾝ","kana_city":"ﾄﾖｵｶｼ","kana_address":"ﾀﾝﾄｳﾁｮｳｵｸｱｶ","pref":"兵庫県","city":"豊岡市","address":"但東町奥赤"},
{"zip_code":"6680343","kana_pref":"ﾋｮｳｺﾞｹﾝ","kana_city":"ﾄﾖｵｶｼ","kana_address":"ﾀﾝﾄｳﾁｮｳｵｸﾌｼﾞ","pref":"兵庫県","city":"豊岡市","address":"但東町奥藤"},
{"zip_code":"6680301","kana_pref":"ﾋｮｳｺﾞｹﾝ","kana_city":"ﾄﾖｵｶｼ","kana_address":"ﾀﾝﾄｳﾁｮｳｵｸﾔﾈ","pref":"兵庫県","city":"豊岡市","address":"但東町奥矢根"},
{"zip_code":"6680323","kana_pref":"ﾋｮｳｺﾞｹﾝ","kana_city":"ﾄﾖｵｶｼ","kana_address":"ﾀﾝﾄｳﾁｮｳｵﾀﾞﾆ","pref":"兵庫県","city":"豊岡市","address":"但東町小谷"},
{"zip_code":"6680321","kana_pref":"ﾋｮｳｺﾞｹﾝ","kana_city":"ﾄﾖｵｶｼ","kana_address":"ﾀﾝﾄｳﾁｮｳｶﾗｶﾜ","pref":"兵庫県","city":"豊岡市","address":"但東町唐川"},
{"zip_code":"6680331","kana_pref":"ﾋｮｳｺﾞｹﾝ","kana_city":"ﾄﾖｵｶｼ","kana_address":"ﾀﾝﾄｳﾁｮｳｷﾑﾗ","pref":"兵庫県","city":"豊岡市","address":"但東町木村"},
{"zip_code":"6680341","kana_pref":"ﾋｮｳｺﾞｹﾝ","kana_city":"ﾄﾖｵｶｼ","kana_address":"ﾀﾝﾄｳﾁｮｳｸﾁﾌｼﾞ","pref":"兵庫県","city":"豊岡市","address":"但東町口藤"},
{"zip_code":"6680373","kana_pref":"ﾋｮｳｺﾞｹﾝ","kana_city":"ﾄﾖｵｶｼ","kana_address":"ﾀﾝﾄｳﾁｮｳｸﾊﾞﾀ","pref":"兵庫県","city":"豊岡市","address":"但東町久畑"},
{"zip_code":"6680363","kana_pref":"ﾋｮｳｺﾞｹﾝ","kana_city":"ﾄﾖｵｶｼ","kana_address":"ﾀﾝﾄｳﾁｮｳｸﾘｵ","pref":"兵庫県","city":"豊岡市","address":"但東町栗尾"},
{"zip_code":"6680315","kana_pref":"ﾋｮｳｺﾞｹﾝ","kana_city":"ﾄﾖｵｶｼ","kana_address":"ﾀﾝﾄｳﾁｮｳｺｳﾓﾄ","pref":"兵庫県","city":"豊岡市","address":"但東町河本"},
{"zip_code":"6680333","kana_pref":"ﾋｮｳｺﾞｹﾝ","kana_city":"ﾄﾖｵｶｼ","kana_address":"ﾀﾝﾄｳﾁｮｳｺｳﾘｭｳｼﾞ","pref":"兵庫県","city":"豊岡市","address":"但東町高龍寺"},
{"zip_code":"6680376","kana_pref":"ﾋｮｳｺﾞｹﾝ","kana_city":"ﾄﾖｵｶｼ","kana_address":"ﾀﾝﾄｳﾁｮｳｺｻﾞｺ","pref":"兵庫県","city":"豊岡市","address":"但東町小坂"},
{"zip_code":"6680354","kana_pref":"ﾋｮｳｺﾞｹﾝ","kana_city":"ﾄﾖｵｶｼ","kana_address":"ﾀﾝﾄｳﾁｮｳｻｶﾂﾞ","pref":"兵庫県","city":"豊岡市","address":"但東町坂津"},
{"zip_code":"6680334","kana_pref":"ﾋｮｳｺﾞｹﾝ","kana_city":"ﾄﾖｵｶｼ","kana_address":"ﾀﾝﾄｳﾁｮｳｻｶﾉ","pref":"兵庫県","city":"豊岡市","address":"但東町坂野"},
{"zip_code":"6680325","kana_pref":"ﾋｮｳｺﾞｹﾝ","kana_city":"ﾄﾖｵｶｼ","kana_address":"ﾀﾝﾄｳﾁｮｳｻｻｷ","pref":"兵庫県","city":"豊岡市","address":"但東町佐々木"},
{"zip_code":"6680364","kana_pref":"ﾋｮｳｺﾞｹﾝ","kana_city":"ﾄﾖｵｶｼ","kana_address":"ﾀﾝﾄｳﾁｮｳｻﾀﾞ","pref":"兵庫県","city":"豊岡市","address":"但東町佐田"},
{"zip_code":"6680361","kana_pref":"ﾋｮｳｺﾞｹﾝ","kana_city":"ﾄﾖｵｶｼ","kana_address":"ﾀﾝﾄｳﾁｮｳｼｮｳﾎﾞｳｼﾞ","pref":"兵庫県","city":"豊岡市","address":"但東町正法寺"},
{"zip_code":"6680311","kana_pref":"ﾋｮｳｺﾞｹﾝ","kana_city":"ﾄﾖｵｶｼ","kana_address":"ﾀﾝﾄｳﾁｮｳﾃﾞｱｲ","pref":"兵庫県","city":"豊岡市","address":"但東町出合"},
{"zip_code":"6680313","kana_pref":"ﾋｮｳｺﾞｹﾝ","kana_city":"ﾄﾖｵｶｼ","kana_address":"ﾀﾝﾄｳﾁｮｳﾃﾞｱｲｲﾁﾊﾞ","pref":"兵庫県","city":"豊岡市","address":"但東町出合市場"},
{"zip_code":"6680337","kana_pref":"ﾋｮｳｺﾞｹﾝ","kana_city":"ﾄﾖｵｶｼ","kana_address":"ﾀﾝﾄｳﾁｮｳﾄｳﾘ","pref":"兵庫県","city":"豊岡市","address":"但東町東里"},
{"zip_code":"6680342","kana_pref":"ﾋｮｳｺﾞｹﾝ","kana_city":"ﾄﾖｵｶｼ","kana_address":"ﾀﾝﾄｳﾁｮｳﾅｶﾌｼﾞ","pref":"兵庫県","city":"豊岡市","address":"但東町中藤"},
{"zip_code":"6680345","kana_pref":"ﾋｮｳｺﾞｹﾝ","kana_city":"ﾄﾖｵｶｼ","kana_address":"ﾀﾝﾄｳﾁｮｳﾅｶﾔﾏ","pref":"兵庫県","city":"豊岡市","address":"但東町中山"},
{"zip_code":"6680317","kana_pref":"ﾋｮｳｺﾞｹﾝ","kana_city":"ﾄﾖｵｶｼ","kana_address":"ﾀﾝﾄｳﾁｮｳﾆｼﾀﾞﾆ","pref":"兵庫県","city":"豊岡市","address":"但東町西谷"},
{"zip_code":"6680332","kana_pref":"ﾋｮｳｺﾞｹﾝ","kana_city":"ﾄﾖｵｶｼ","kana_address":"ﾀﾝﾄｳﾁｮｳﾆｼﾉﾉ","pref":"兵庫県","city":"豊岡市","address":"但東町西野々"},
{"zip_code":"6680303","kana_pref":"ﾋｮｳｺﾞｹﾝ","kana_city":"ﾄﾖｵｶｼ","kana_address":"ﾀﾝﾄｳﾁｮｳﾊﾀ","pref":"兵庫県","city":"豊岡市","address":"但東町畑"},
{"zip_code":"6680351","kana_pref":"ﾋｮｳｺﾞｹﾝ","kana_city":"ﾄﾖｵｶｼ","kana_address":"ﾀﾝﾄｳﾁｮｳﾊﾀﾔﾏ","pref":"兵庫県","city":"豊岡市","address":"但東町畑山"},
{"zip_code":"6680375","kana_pref":"ﾋｮｳｺﾞｹﾝ","kana_city":"ﾄﾖｵｶｼ","kana_address":"ﾀﾝﾄｳﾁｮｳﾋｶﾞｼﾅｶ","pref":"兵庫県","city":"豊岡市","address":"但東町東中"},
{"zip_code":"6680314","kana_pref":"ﾋｮｳｺﾞｹﾝ","kana_city":"ﾄﾖｵｶｼ","kana_address":"ﾀﾝﾄｳﾁｮｳﾋﾄﾞﾉ","pref":"兵庫県","city":"豊岡市","address":"但東町日殿"},
{"zip_code":"6680336","kana_pref":"ﾋｮｳｺﾞｹﾝ","kana_city":"ﾄﾖｵｶｼ","kana_address":"ﾀﾝﾄｳﾁｮｳﾋﾅﾀﾞ","pref":"兵庫県","city":"豊岡市","address":"但東町日向"},
{"zip_code":"6680362","kana_pref":"ﾋｮｳｺﾞｹﾝ","kana_city":"ﾄﾖｵｶｼ","kana_address":"ﾀﾝﾄｳﾁｮｳﾋﾗﾀ","pref":"兵庫県","city":"豊岡市","address":"但東町平田"},
{"zip_code":"6680304","kana_pref":"ﾋｮｳｺﾞｹﾝ","kana_city":"ﾄﾖｵｶｼ","kana_address":"ﾀﾝﾄｳﾁｮｳﾐｽﾞｼ","pref":"兵庫県","city":"豊岡市","address":"但東町水石"},
{"zip_code":"6680312","kana_pref":"ﾋｮｳｺﾞｹﾝ","kana_city":"ﾄﾖｵｶｼ","kana_address":"ﾀﾝﾄｳﾁｮｳﾐﾉｵ","pref":"兵庫県","city":"豊岡市","address":"但東町南尾"},
{"zip_code":"6680322","kana_pref":"ﾋｮｳｺﾞｹﾝ","kana_city":"ﾄﾖｵｶｼ","kana_address":"ﾀﾝﾄｳﾁｮｳﾐﾊﾗ","pref":"兵庫県","city":"豊岡市","address":"但東町三原"},
{"zip_code":"6680344","kana_pref":"ﾋｮｳｺﾞｹﾝ","kana_city":"ﾄﾖｵｶｼ","kana_address":"ﾀﾝﾄｳﾁｮｳﾑｼｭｳ","pref":"兵庫県","city":"豊岡市","address":"但東町虫生"},
{"zip_code":"6680371","kana_pref":"ﾋｮｳｺﾞｹﾝ","kana_city":"ﾄﾖｵｶｼ","kana_address":"ﾀﾝﾄｳﾁｮｳﾔｸｵｳｼﾞ","pref":"兵庫県","city":"豊岡市","address":"但東町薬王寺"},
{"zip_code":"6680302","kana_pref":"ﾋｮｳｺﾞｹﾝ","kana_city":"ﾄﾖｵｶｼ","kana_address":"ﾀﾝﾄｳﾁｮｳﾔﾈ","pref":"兵庫県","city":"豊岡市","address":"但東町矢根"},
{"zip_code":"6680033","kana_pref":"ﾋｮｳｺﾞｹﾝ","kana_city":"ﾄﾖｵｶｼ","kana_address":"ﾁｭｳｵｳﾏﾁ","pref":"兵庫県","city":"豊岡市","address":"中央町"},
{"zip_code":"6680032","kana_pref":"ﾋｮｳｺﾞｹﾝ","kana_city":"ﾄﾖｵｶｼ","kana_address":"ﾁﾖﾀﾞﾁｮｳ","pref":"兵庫県","city":"豊岡市","address":"千代田町"},
{"zip_code":"6680073","kana_pref":"ﾋｮｳｺﾞｹﾝ","kana_city":"ﾄﾖｵｶｼ","kana_address":"ﾂｼﾞ","pref":"兵庫県","city":"豊岡市","address":"辻"},
{"zip_code":"6680083","kana_pref":"ﾋｮｳｺﾞｹﾝ","kana_city":"ﾄﾖｵｶｼ","kana_address":"ﾄﾁｴ","pref":"兵庫県","city":"豊岡市","address":"栃江"},
{"zip_code":"6680065","kana_pref":"ﾋｮｳｺﾞｹﾝ","kana_city":"ﾄﾖｵｶｼ","kana_address":"ﾄﾍﾞﾗ","pref":"兵庫県","city":"豊岡市","address":"戸牧"},
{"zip_code":"6680013","kana_pref":"ﾋｮｳｺﾞｹﾝ","kana_city":"ﾄﾖｵｶｼ","kana_address":"ﾅｶｶｹﾞ","pref":"兵庫県","city":"豊岡市","address":"中陰"},
{"zip_code":"6680842","kana_pref":"ﾋｮｳｺﾞｹﾝ","kana_city":"ﾄﾖｵｶｼ","kana_address":"ﾅｶﾉｺﾞｳ","pref":"兵庫県","city":"豊岡市","address":"中郷"},
{"zip_code":"6680874","kana_pref":"ﾋｮｳｺﾞｹﾝ","kana_city":"ﾄﾖｵｶｼ","kana_address":"ﾅｶﾉﾀﾆ","pref":"兵庫県","city":"豊岡市","address":"中谷"},
{"zip_code":"6680834","kana_pref":"ﾋｮｳｺﾞｹﾝ","kana_city":"ﾄﾖｵｶｼ","kana_address":"ﾅｶﾞﾀﾆ","pref":"兵庫県","city":"豊岡市","address":"長谷"},
{"zip_code":"6680074","kana_pref":"ﾋｮｳｺﾞｹﾝ","kana_city":"ﾄﾖｵｶｼ","kana_address":"ﾉｶﾞｷ","pref":"兵庫県","city":"豊岡市","address":"野垣"},
{"zip_code":"6680804","kana_pref":"ﾋｮｳｺﾞｹﾝ","kana_city":"ﾄﾖｵｶｼ","kana_address":"ﾉｼﾞｮｳ","pref":"兵庫県","city":"豊岡市","address":"野上"},
{"zip_code":"6680014","kana_pref":"ﾋｮｳｺﾞｹﾝ","kana_city":"ﾄﾖｵｶｼ","kana_address":"ﾉﾀﾞ","pref":"兵庫県","city":"豊岡市","address":"野田"},
{"zip_code":"6680854","kana_pref":"ﾋｮｳｺﾞｹﾝ","kana_city":"ﾄﾖｵｶｼ","kana_address":"ﾊｻﾐ","pref":"兵庫県","city":"豊岡市","address":"八社宮"},
{"zip_code":"6680843","kana_pref":"ﾋｮｳｺﾞｹﾝ","kana_city":"ﾄﾖｵｶｼ","kana_address":"ﾋｷﾉ","pref":"兵庫県","city":"豊岡市","address":"引野"},
{"zip_code":"6680844","kana_pref":"ﾋｮｳｺﾞｹﾝ","kana_city":"ﾄﾖｵｶｼ","kana_address":"ﾋｼﾞｳﾁ","pref":"兵庫県","city":"豊岡市","address":"土渕"},
{"zip_code":"6680015","kana_pref":"ﾋｮｳｺﾞｹﾝ","kana_city":"ﾄﾖｵｶｼ","kana_address":"ﾋﾄｲﾁ","pref":"兵庫県","city":"豊岡市","address":"一日市"},
{"zip_code":"6680815","kana_pref":"ﾋｮｳｺﾞｹﾝ","kana_city":"ﾄﾖｵｶｼ","kana_address":"ﾋﾅﾄﾞ","pref":"兵庫県","city":"豊岡市","address":"日撫"},
{"zip_code":"6680075","kana_pref":"ﾋｮｳｺﾞｹﾝ","kana_city":"ﾄﾖｵｶｼ","kana_address":"ﾌｸｼﾞｮｳｼﾞ","pref":"兵庫県","city":"豊岡市","address":"福成寺"},
{"zip_code":"6680084","kana_pref":"ﾋｮｳｺﾞｹﾝ","kana_city":"ﾄﾖｵｶｼ","kana_address":"ﾌｸﾀﾞ","pref":"兵庫県","city":"豊岡市","address":"福田"},
{"zip_code":"6680855","kana_pref":"ﾋｮｳｺﾞｹﾝ","kana_city":"ﾄﾖｵｶｼ","kana_address":"ﾌｼ","pref":"兵庫県","city":"豊岡市","address":"伏"},
{"zip_code":"6680076","kana_pref":"ﾋｮｳｺﾞｹﾝ","kana_city":"ﾄﾖｵｶｼ","kana_address":"ﾌﾅﾀﾞﾆ","pref":"兵庫県","city":"豊岡市","address":"船谷"},
{"zip_code":"6680805","kana_pref":"ﾋｮｳｺﾞｹﾝ","kana_city":"ﾄﾖｵｶｼ","kana_address":"ﾌﾅﾏﾁ","pref":"兵庫県","city":"豊岡市","address":"船町"},
{"zip_code":"6680816","kana_pref":"ﾋｮｳｺﾞｹﾝ","kana_city":"ﾄﾖｵｶｼ","kana_address":"ﾎｯｹｲｼﾞ","pref":"兵庫県","city":"豊岡市","address":"法花寺"},
{"zip_code":"6680047","kana_pref":"ﾋｮｳｺﾞｹﾝ","kana_city":"ﾄﾖｵｶｼ","kana_address":"ﾐｻｶﾁｮｳ","pref":"兵庫県","city":"豊岡市","address":"三坂町"},
{"zip_code":"6680085","kana_pref":"ﾋｮｳｺﾞｹﾝ","kana_city":"ﾄﾖｵｶｼ","kana_address":"ﾐﾔｲ","pref":"兵庫県","city":"豊岡市","address":"宮井"},
{"zip_code":"6680823","kana_pref":"ﾋｮｳｺﾞｹﾝ","kana_city":"ﾄﾖｵｶｼ","kana_address":"ﾐﾔｹ","pref":"兵庫県","city":"豊岡市","address":"三宅"},
{"zip_code":"6680016","kana_pref":"ﾋｮｳｺﾞｹﾝ","kana_city":"ﾄﾖｵｶｼ","kana_address":"ﾐﾔｼﾞﾏ","pref":"兵庫県","city":"豊岡市","address":"宮島"},
{"zip_code":"6680056","kana_pref":"ﾋｮｳｺﾞｹﾝ","kana_city":"ﾄﾖｵｶｼ","kana_address":"ﾐｮｳﾗｸｼﾞ","pref":"兵庫県","city":"豊岡市","address":"妙楽寺"},
{"zip_code":"6680077","kana_pref":"ﾋｮｳｺﾞｹﾝ","kana_city":"ﾄﾖｵｶｼ","kana_address":"ﾒｻｶ","pref":"兵庫県","city":"豊岡市","address":"目坂"},
{"zip_code":"6680026","kana_pref":"ﾋｮｳｺﾞｹﾝ","kana_city":"ﾄﾖｵｶｼ","kana_address":"ﾓﾄﾏﾁ","pref":"兵庫県","city":"豊岡市","address":"元町"},
{"zip_code":"6680806","kana_pref":"ﾋｮｳｺﾞｹﾝ","kana_city":"ﾄﾖｵｶｼ","kana_address":"ﾓﾘ","pref":"兵庫県","city":"豊岡市","address":"森"},
{"zip_code":"6680824","kana_pref":"ﾋｮｳｺﾞｹﾝ","kana_city":"ﾄﾖｵｶｼ","kana_address":"ﾓﾘｵ","pref":"兵庫県","city":"豊岡市","address":"森尾"},
{"zip_code":"6680006","kana_pref":"ﾋｮｳｺﾞｹﾝ","kana_city":"ﾄﾖｵｶｼ","kana_address":"ﾓﾘﾂﾞ","pref":"兵庫県","city":"豊岡市","address":"森津"},
{"zip_code":"6680057","kana_pref":"ﾋｮｳｺﾞｹﾝ","kana_city":"ﾄﾖｵｶｼ","kana_address":"ﾔｻｶﾁｮｳ","pref":"兵庫県","city":"豊岡市","address":"弥栄町"},
{"zip_code":"6680807","kana_pref":"ﾋｮｳｺﾞｹﾝ","kana_city":"ﾄﾖｵｶｼ","kana_address":"ﾔﾏﾓﾄ","pref":"兵庫県","city":"豊岡市","address":"山本"},
{"zip_code":"6680875","kana_pref":"ﾋｮｳｺﾞｹﾝ","kana_city":"ﾄﾖｵｶｼ","kana_address":"ﾕﾙｼﾞ","pref":"兵庫県","city":"豊岡市","address":"百合地"},
{"zip_code":"6680078","kana_pref":"ﾋｮｳｺﾞｹﾝ","kana_city":"ﾄﾖｵｶｼ","kana_address":"ﾖｼｲ","pref":"兵庫県","city":"豊岡市","address":"吉井"},
{"zip_code":"6680817","kana_pref":"ﾋｮｳｺﾞｹﾝ","kana_city":"ﾄﾖｵｶｼ","kana_address":"ﾛｸｼﾞｿﾞｳ","pref":"兵庫県","city":"豊岡市","address":"六地蔵"},
{"zip_code":"6680027","kana_pref":"ﾋｮｳｺﾞｹﾝ","kana_city":"ﾄﾖｵｶｼ","kana_address":"ﾜｶﾏﾂﾁｮｳ","pref":"兵庫県","city":"豊岡市","address":"若松町"}]}