{"zip_code":[
{"zip_code":"6691161","kana_pref":"ﾋｮｳｺﾞｹﾝ","kana_city":"ｺｳﾍﾞｼｷﾀｸ","kana_address":"ﾄﾞｳｼﾞｮｳﾁｮｳｲｸﾉ","pref":"兵庫県","city":"神戸市北区","address":"道場町生野"},
{"zip_code":"6691122","kana_pref":"ﾋｮｳｺﾞｹﾝ","kana_city":"ﾆｼﾉﾐﾔｼ","kana_address":"ｱｵﾊﾞﾀﾞｲ","pref":"兵庫県","city":"西宮市","address":"青葉台"},
{"zip_code":"6691131","kana_pref":"ﾋｮｳｺﾞｹﾝ","kana_city":"ﾆｼﾉﾐﾔｼ","kana_address":"ｷﾖｾﾀﾞｲ","pref":"兵庫県","city":"西宮市","address":"清瀬台"},
{"zip_code":"6691135","kana_pref":"ﾋｮｳｺﾞｹﾝ","kana_city":"ﾆｼﾉﾐﾔｼ","kana_address":"ｸﾆﾐﾀﾞｲ","pref":"兵庫県","city":"西宮市","address":"国見台"},
{"zip_code":"6691101","kana_pref":"ﾋｮｳｺﾞｹﾝ","kana_city":"ﾆｼﾉﾐﾔｼ","kana_address":"ｼｵｾﾁｮｳﾅﾏｾﾞ","pref":"兵庫県","city":"西宮市","address":"塩瀬町生瀬"},
{"zip_code":"6691251","kana_pref":"ﾋｮｳｺﾞｹﾝ","kana_city":"ﾆｼﾉﾐﾔｼ","kana_address":"ｼｵｾﾁｮｳﾅｼﾞｵ(4205-1","pref":"兵庫県","city":"西宮市","address":"塩瀬町名塩（４２０５−１"},
{"zip_code":"6691251","kana_pref":"ﾋｮｳｺﾞｹﾝ","kana_city":"ﾆｼﾉﾐﾔｼ","kana_address":"5205","pref":"兵庫県","city":"西宮市","address":"５２０５"},
{"zip_code":"6691251","kana_pref":"ﾋｮｳｺﾞｹﾝ","kana_city":"ﾆｼﾉﾐﾔｼ","kana_address":"5313-20","pref":"兵庫県","city":"西宮市","address":"５３１３−２０"},
{"zip_code":"6691251","kana_pref":"ﾋｮｳｺﾞｹﾝ","kana_city":"ﾆｼﾉﾐﾔｼ","kana_address":"5313-33","pref":"兵庫県","city":"西宮市","address":"５３１３−３３"},
{"zip_code":"6691251","kana_pref":"ﾋｮｳｺﾞｹﾝ","kana_city":"ﾆｼﾉﾐﾔｼ","kana_address":"","pref":"兵庫県","city":"西宮市","address":""},
{"zip_code":"6691251","kana_pref":"ﾋｮｳｺﾞｹﾝ","kana_city":"ﾆｼﾉﾐﾔｼ","kana_address":"5313-35ﾊﾞﾝﾁ)","pref":"兵庫県","city":"西宮市","address":"５３１３−３５番地）"},
{"zip_code":"6691141","kana_pref":"ﾋｮｳｺﾞｹﾝ","kana_city":"ﾆｼﾉﾐﾔｼ","kana_address":"ｼｵｾﾁｮｳﾅｼﾞｵ","pref":"兵庫県","city":"西宮市","address":"塩瀬町名塩"},
{"zip_code":"6691147","kana_pref":"ﾋｮｳｺﾞｹﾝ","kana_city":"ﾆｼﾉﾐﾔｼ","kana_address":"ﾅｼﾞｵ","pref":"兵庫県","city":"西宮市","address":"名塩"},
{"zip_code":"6691149","kana_pref":"ﾋｮｳｺﾞｹﾝ","kana_city":"ﾆｼﾉﾐﾔｼ","kana_address":"ﾅｼﾞｵｱｶｻｶ","pref":"兵庫県","city":"西宮市","address":"名塩赤坂"},
{"zip_code":"6691143","kana_pref":"ﾋｮｳｺﾞｹﾝ","kana_city":"ﾆｼﾉﾐﾔｼ","kana_address":"ﾅｼﾞｵｶﾞｰﾃﾞﾝ","pref":"兵庫県","city":"西宮市","address":"名塩ガーデン"},
{"zip_code":"6691136","kana_pref":"ﾋｮｳｺﾞｹﾝ","kana_city":"ﾆｼﾉﾐﾔｼ","kana_address":"ﾅｼﾞｵｺﾉﾓﾄ","pref":"兵庫県","city":"西宮市","address":"名塩木之元"},
{"zip_code":"6691146","kana_pref":"ﾋｮｳｺﾞｹﾝ","kana_city":"ﾆｼﾉﾐﾔｼ","kana_address":"ﾅｼﾞｵｻｸﾗﾀﾞｲ","pref":"兵庫県","city":"西宮市","address":"名塩さくら台"},
{"zip_code":"6691142","kana_pref":"ﾋｮｳｺﾞｹﾝ","kana_city":"ﾆｼﾉﾐﾔｼ","kana_address":"ﾅｼﾞｵｻﾝｿｳ","pref":"兵庫県","city":"西宮市","address":"名塩山荘"},
{"zip_code":"6691144","kana_pref":"ﾋｮｳｺﾞｹﾝ","kana_city":"ﾆｼﾉﾐﾔｼ","kana_address":"ﾅｼﾞｵﾁｬｴﾝﾁｮｳ","pref":"兵庫県","city":"西宮市","address":"名塩茶園町"},
{"zip_code":"6691148","kana_pref":"ﾋｮｳｺﾞｹﾝ","kana_city":"ﾆｼﾉﾐﾔｼ","kana_address":"ﾅｼﾞｵﾄｳｸﾎﾞ","pref":"兵庫県","city":"西宮市","address":"名塩東久保"},
{"zip_code":"6691145","kana_pref":"ﾋｮｳｺﾞｹﾝ","kana_city":"ﾆｼﾉﾐﾔｼ","kana_address":"ﾅｼﾞｵﾍｲｾｲﾀﾞｲ","pref":"兵庫県","city":"西宮市","address":"名塩平成台"},
{"zip_code":"6691132","kana_pref":"ﾋｮｳｺﾞｹﾝ","kana_city":"ﾆｼﾉﾐﾔｼ","kana_address":"ﾅｼﾞｵﾐﾅﾐﾀﾞｲ","pref":"兵庫県","city":"西宮市","address":"名塩南台"},
{"zip_code":"6691162","kana_pref":"ﾋｮｳｺﾞｹﾝ","kana_city":"ﾆｼﾉﾐﾔｼ","kana_address":"ﾅｼﾞｵﾐﾔﾏ","pref":"兵庫県","city":"西宮市","address":"名塩美山"},
{"zip_code":"6691134","kana_pref":"ﾋｮｳｺﾞｹﾝ","kana_city":"ﾆｼﾉﾐﾔｼ","kana_address":"ﾅｼﾞｵｼﾝﾏﾁ","pref":"兵庫県","city":"西宮市","address":"名塩新町"},
{"zip_code":"6691103","kana_pref":"ﾋｮｳｺﾞｹﾝ","kana_city":"ﾆｼﾉﾐﾔｼ","kana_address":"ﾅﾏｾﾞﾋｶﾞｼﾏﾁ","pref":"兵庫県","city":"西宮市","address":"生瀬東町"},
{"zip_code":"6691111","kana_pref":"ﾋｮｳｺﾞｹﾝ","kana_city":"ﾆｼﾉﾐﾔｼ","kana_address":"ﾅﾏｾﾞﾀｶﾀﾞｲ","pref":"兵庫県","city":"西宮市","address":"生瀬高台"},
{"zip_code":"6691102","kana_pref":"ﾋｮｳｺﾞｹﾝ","kana_city":"ﾆｼﾉﾐﾔｼ","kana_address":"ﾅﾏｾﾞﾁｮｳ","pref":"兵庫県","city":"西宮市","address":"生瀬町"},
{"zip_code":"6691104","kana_pref":"ﾋｮｳｺﾞｹﾝ","kana_city":"ﾆｼﾉﾐﾔｼ","kana_address":"ﾅﾏｾﾑｺｶﾞﾜﾁｮｳ","pref":"兵庫県","city":"西宮市","address":"生瀬武庫川町"},
{"zip_code":"6691121","kana_pref":"ﾋｮｳｺﾞｹﾝ","kana_city":"ﾆｼﾉﾐﾔｼ","kana_address":"ﾊﾅﾉﾐﾈ","pref":"兵庫県","city":"西宮市","address":"花の峯"},
{"zip_code":"6691133","kana_pref":"ﾋｮｳｺﾞｹﾝ","kana_city":"ﾆｼﾉﾐﾔｼ","kana_address":"ﾋｶﾞｼﾔﾏﾀﾞｲ","pref":"兵庫県","city":"西宮市","address":"東山台"},
{"zip_code":"6691112","kana_pref":"ﾋｮｳｺﾞｹﾝ","kana_city":"ﾆｼﾉﾐﾔｼ","kana_address":"ﾎｳｼｮｳｶﾞｵｶ","pref":"兵庫県","city":"西宮市","address":"宝生ケ丘"},
{"zip_code":"6696123","kana_pref":"ﾋｮｳｺﾞｹﾝ","kana_city":"ﾄﾖｵｶｼ","kana_address":"ｵｼﾏ","pref":"兵庫県","city":"豊岡市","address":"小島"},
{"zip_code":"6696103","kana_pref":"ﾋｮｳｺﾞｹﾝ","kana_city":"ﾄﾖｵｶｼ","kana_address":"ｷﾉｻｷﾁｮｳｲﾏﾂﾞ","pref":"兵庫県","city":"豊岡市","address":"城崎町今津"},
{"zip_code":"6696116","kana_pref":"ﾋｮｳｺﾞｹﾝ","kana_city":"ﾄﾖｵｶｼ","kana_address":"ｷﾉｻｷﾁｮｳｳﾔﾏ","pref":"兵庫県","city":"豊岡市","address":"城崎町上山"},
{"zip_code":"6696115","kana_pref":"ﾋｮｳｺﾞｹﾝ","kana_city":"ﾄﾖｵｶｼ","kana_address":"ｷﾉｻｷﾁｮｳｸﾙﾋ","pref":"兵庫県","city":"豊岡市","address":"城崎町来日"},
{"zip_code":"6696111","kana_pref":"ﾋｮｳｺﾞｹﾝ","kana_city":"ﾄﾖｵｶｼ","kana_address":"ｷﾉｻｷﾁｮｳｻｻｳﾗ","pref":"兵庫県","city":"豊岡市","address":"城崎町楽々浦"},
{"zip_code":"6696114","kana_pref":"ﾋｮｳｺﾞｹﾝ","kana_city":"ﾄﾖｵｶｼ","kana_address":"ｷﾉｻｷﾁｮｳﾄｼﾏ","pref":"兵庫県","city":"豊岡市","address":"城崎町戸島"},
{"zip_code":"6696112","kana_pref":"ﾋｮｳｺﾞｹﾝ","kana_city":"ﾄﾖｵｶｼ","kana_address":"ｷﾉｻｷﾁｮｳﾊﾝﾀﾞﾆ","pref":"兵庫県","city":"豊岡市","address":"城崎町飯谷"},
{"zip_code":"6696113","kana_pref":"ﾋｮｳｺﾞｹﾝ","kana_city":"ﾄﾖｵｶｼ","kana_address":"ｷﾉｻｷﾁｮｳﾑｽﾌﾞ","pref":"兵庫県","city":"豊岡市","address":"城崎町結"},
{"zip_code":"6696102","kana_pref":"ﾋｮｳｺﾞｹﾝ","kana_city":"ﾄﾖｵｶｼ","kana_address":"ｷﾉｻｷﾁｮｳﾓﾓｼﾏ","pref":"兵庫県","city":"豊岡市","address":"城崎町桃島"},
{"zip_code":"6696101","kana_pref":"ﾋｮｳｺﾞｹﾝ","kana_city":"ﾄﾖｵｶｼ","kana_address":"ｷﾉｻｷﾁｮｳﾕｼﾏ","pref":"兵庫県","city":"豊岡市","address":"城崎町湯島"},
{"zip_code":"6696124","kana_pref":"ﾋｮｳｺﾞｹﾝ","kana_city":"ﾄﾖｵｶｼ","kana_address":"ｹﾋ","pref":"兵庫県","city":"豊岡市","address":"気比"},
{"zip_code":"6696122","kana_pref":"ﾋｮｳｺﾞｹﾝ","kana_city":"ﾄﾖｵｶｼ","kana_address":"ｾﾄ","pref":"兵庫県","city":"豊岡市","address":"瀬戸"},
{"zip_code":"6696125","kana_pref":"ﾋｮｳｺﾞｹﾝ","kana_city":"ﾄﾖｵｶｼ","kana_address":"ﾀｲ","pref":"兵庫県","city":"豊岡市","address":"田結"},
{"zip_code":"6696214","kana_pref":"ﾋｮｳｺﾞｹﾝ","kana_city":"ﾄﾖｵｶｼ","kana_address":"ﾀｹﾉﾁｮｳｱｺﾝﾀﾞﾆ","pref":"兵庫県","city":"豊岡市","address":"竹野町阿金谷"},
{"zip_code":"6696223","kana_pref":"ﾋｮｳｺﾞｹﾝ","kana_city":"ﾄﾖｵｶｼ","kana_address":"ﾀｹﾉﾁｮｳｱｼﾀﾞﾆ","pref":"兵庫県","city":"豊岡市","address":"竹野町芦谷"},
{"zip_code":"6696202","kana_pref":"ﾋｮｳｺﾞｹﾝ","kana_city":"ﾄﾖｵｶｼ","kana_address":"ﾀｹﾉﾁｮｳｳﾋ","pref":"兵庫県","city":"豊岡市","address":"竹野町宇日"},
{"zip_code":"6696352","kana_pref":"ﾋｮｳｺﾞｹﾝ","kana_city":"ﾄﾖｵｶｼ","kana_address":"ﾀｹﾉﾁｮｳｵｵﾓﾘ","pref":"兵庫県","city":"豊岡市","address":"竹野町大森"},
{"zip_code":"6696218","kana_pref":"ﾋｮｳｺﾞｹﾝ","kana_city":"ﾄﾖｵｶｼ","kana_address":"ﾀｹﾉﾁｮｳｵｸｽｲ","pref":"兵庫県","city":"豊岡市","address":"竹野町奥須井"},
{"zip_code":"6696224","kana_pref":"ﾋｮｳｺﾞｹﾝ","kana_city":"ﾄﾖｵｶｼ","kana_address":"ﾀｹﾉﾁｮｳｵｼﾞﾝﾀﾞﾆ","pref":"兵庫県","city":"豊岡市","address":"竹野町鬼神谷"},
{"zip_code":"6696333","kana_pref":"ﾋｮｳｺﾞｹﾝ","kana_city":"ﾄﾖｵｶｼ","kana_address":"ﾀｹﾉﾁｮｳｵﾝﾏﾀ","pref":"兵庫県","city":"豊岡市","address":"竹野町御又"},
{"zip_code":"6696354","kana_pref":"ﾋｮｳｺﾞｹﾝ","kana_city":"ﾄﾖｵｶｼ","kana_address":"ﾀｹﾉﾁｮｳｶﾅﾝﾀﾞﾆ","pref":"兵庫県","city":"豊岡市","address":"竹野町川南谷"},
{"zip_code":"6696334","kana_pref":"ﾋｮｳｺﾞｹﾝ","kana_city":"ﾄﾖｵｶｼ","kana_address":"ﾀｹﾉﾁｮｳｶﾜﾁ","pref":"兵庫県","city":"豊岡市","address":"竹野町河内"},
{"zip_code":"6696216","kana_pref":"ﾋｮｳｺﾞｹﾝ","kana_city":"ﾄﾖｵｶｼ","kana_address":"ﾀｹﾉﾁｮｳｷﾘﾊﾏ","pref":"兵庫県","city":"豊岡市","address":"竹野町切浜"},
{"zip_code":"6696229","kana_pref":"ﾋｮｳｺﾞｹﾝ","kana_city":"ﾄﾖｵｶｼ","kana_address":"ﾀｹﾉﾁｮｳｷﾝﾊﾞﾗ","pref":"兵庫県","city":"豊岡市","address":"竹野町金原"},
{"zip_code":"6696215","kana_pref":"ﾋｮｳｺﾞｹﾝ","kana_city":"ﾄﾖｵｶｼ","kana_address":"ﾀｹﾉﾁｮｳｸｻｶｲ","pref":"兵庫県","city":"豊岡市","address":"竹野町草飼"},
{"zip_code":"6696353","kana_pref":"ﾋｮｳｺﾞｹﾝ","kana_city":"ﾄﾖｵｶｼ","kana_address":"ﾀｹﾉﾁｮｳｸﾜﾉﾓﾄ","pref":"兵庫県","city":"豊岡市","address":"竹野町桑野本"},
{"zip_code":"6696341","kana_pref":"ﾋｮｳｺﾞｹﾝ","kana_city":"ﾄﾖｵｶｼ","kana_address":"ﾀｹﾉﾁｮｳｺｼﾞｮｳ","pref":"兵庫県","city":"豊岡市","address":"竹野町小城"},
{"zip_code":"6696222","kana_pref":"ﾋｮｳｺﾞｹﾝ","kana_city":"ﾄﾖｵｶｼ","kana_address":"ﾀｹﾉﾁｮｳｺﾏﾙ","pref":"兵庫県","city":"豊岡市","address":"竹野町小丸"},
{"zip_code":"6696226","kana_pref":"ﾋｮｳｺﾞｹﾝ","kana_city":"ﾄﾖｵｶｼ","kana_address":"ﾀｹﾉﾁｮｳｼﾓﾂﾞｶ","pref":"兵庫県","city":"豊岡市","address":"竹野町下塚"},
{"zip_code":"6696221","kana_pref":"ﾋｮｳｺﾞｹﾝ","kana_city":"ﾄﾖｵｶｼ","kana_address":"ﾀｹﾉﾁｮｳｽﾀﾞﾆ","pref":"兵庫県","city":"豊岡市","address":"竹野町須谷"},
{"zip_code":"6696351","kana_pref":"ﾋｮｳｺﾞｹﾝ","kana_city":"ﾄﾖｵｶｼ","kana_address":"ﾀｹﾉﾁｮｳｽﾉﾀﾆ","pref":"兵庫県","city":"豊岡市","address":"竹野町須野谷"},
{"zip_code":"6696203","kana_pref":"ﾋｮｳｺﾞｹﾝ","kana_city":"ﾄﾖｵｶｼ","kana_address":"ﾀｹﾉﾁｮｳﾀｸﾋ","pref":"兵庫県","city":"豊岡市","address":"竹野町田久日"},
{"zip_code":"6696201","kana_pref":"ﾋｮｳｺﾞｹﾝ","kana_city":"ﾄﾖｵｶｼ","kana_address":"ﾀｹﾉﾁｮｳﾀｹﾉ","pref":"兵庫県","city":"豊岡市","address":"竹野町竹野"},
{"zip_code":"6696343","kana_pref":"ﾋｮｳｺﾞｹﾝ","kana_city":"ﾄﾖｵｶｼ","kana_address":"ﾀｹﾉﾁｮｳﾀﾞﾝ","pref":"兵庫県","city":"豊岡市","address":"竹野町段"},
{"zip_code":"6696225","kana_pref":"ﾋｮｳｺﾞｹﾝ","kana_city":"ﾄﾖｵｶｼ","kana_address":"ﾀｹﾉﾁｮｳﾄﾄﾞﾛｷ","pref":"兵庫県","city":"豊岡市","address":"竹野町轟"},
{"zip_code":"6696342","kana_pref":"ﾋｮｳｺﾞｹﾝ","kana_city":"ﾄﾖｵｶｼ","kana_address":"ﾀｹﾉﾁｮｳﾆﾚﾝﾊﾞﾗ","pref":"兵庫県","city":"豊岡市","address":"竹野町二連原"},
{"zip_code":"6696344","kana_pref":"ﾋｮｳｺﾞｹﾝ","kana_city":"ﾄﾖｵｶｼ","kana_address":"ﾀｹﾉﾁｮｳﾊｼﾞｶﾐ","pref":"兵庫県","city":"豊岡市","address":"竹野町椒"},
{"zip_code":"6696213","kana_pref":"ﾋｮｳｺﾞｹﾝ","kana_city":"ﾄﾖｵｶｼ","kana_address":"ﾀｹﾉﾁｮｳﾊﾆｭｳ","pref":"兵庫県","city":"豊岡市","address":"竹野町羽入"},
{"zip_code":"6696217","kana_pref":"ﾋｮｳｺﾞｹﾝ","kana_city":"ﾄﾖｵｶｼ","kana_address":"ﾀｹﾉﾁｮｳﾊﾏｽｲ","pref":"兵庫県","city":"豊岡市","address":"竹野町浜須井"},
{"zip_code":"6696227","kana_pref":"ﾋｮｳｺﾞｹﾝ","kana_city":"ﾄﾖｵｶｼ","kana_address":"ﾀｹﾉﾁｮｳﾊﾔｼ","pref":"兵庫県","city":"豊岡市","address":"竹野町林"},
{"zip_code":"6696228","kana_pref":"ﾋｮｳｺﾞｹﾝ","kana_city":"ﾄﾖｵｶｼ","kana_address":"ﾀｹﾉﾁｮｳﾋｶﾞｼｵｵﾀﾆ","pref":"兵庫県","city":"豊岡市","address":"竹野町東大谷"},
{"zip_code":"6696331","kana_pref":"ﾋｮｳｺﾞｹﾝ","kana_city":"ﾄﾖｵｶｼ","kana_address":"ﾀｹﾉﾁｮｳﾎﾞｳｵｶ","pref":"兵庫県","city":"豊岡市","address":"竹野町坊岡"},
{"zip_code":"6696212","kana_pref":"ﾋｮｳｺﾞｹﾝ","kana_city":"ﾄﾖｵｶｼ","kana_address":"ﾀｹﾉﾁｮｳﾏﾂﾓﾄ","pref":"兵庫県","city":"豊岡市","address":"竹野町松本"},
{"zip_code":"6696355","kana_pref":"ﾋｮｳｺﾞｹﾝ","kana_city":"ﾄﾖｵｶｼ","kana_address":"ﾀｹﾉﾁｮｳﾐﾊﾗ","pref":"兵庫県","city":"豊岡市","address":"竹野町三原"},
{"zip_code":"6696332","kana_pref":"ﾋｮｳｺﾞｹﾝ","kana_city":"ﾄﾖｵｶｼ","kana_address":"ﾀｹﾉﾁｮｳﾓﾘﾓﾄ","pref":"兵庫県","city":"豊岡市","address":"竹野町森本"},
{"zip_code":"6696335","kana_pref":"ﾋｮｳｺﾞｹﾝ","kana_city":"ﾄﾖｵｶｼ","kana_address":"ﾀｹﾉﾁｮｳﾓﾝﾀﾞﾆ","pref":"兵庫県","city":"豊岡市","address":"竹野町門谷"},
{"zip_code":"6696211","kana_pref":"ﾋｮｳｺﾞｹﾝ","kana_city":"ﾄﾖｵｶｼ","kana_address":"ﾀｹﾉﾁｮｳﾜﾀﾞ","pref":"兵庫県","city":"豊岡市","address":"竹野町和田"},
{"zip_code":"6696121","kana_pref":"ﾋｮｳｺﾞｹﾝ","kana_city":"ﾄﾖｵｶｼ","kana_address":"ﾂｲﾔﾏ","pref":"兵庫県","city":"豊岡市","address":"津居山"},
{"zip_code":"6696127","kana_pref":"ﾋｮｳｺﾞｹﾝ","kana_city":"ﾄﾖｵｶｼ","kana_address":"ﾊﾀｶﾞﾐ","pref":"兵庫県","city":"豊岡市","address":"畑上"},
{"zip_code":"6695314","kana_pref":"ﾋｮｳｺﾞｹﾝ","kana_city":"ﾄﾖｵｶｼ","kana_address":"ﾋﾀﾞｶﾁｮｳｱｶｻｷ","pref":"兵庫県","city":"豊岡市","address":"日高町赤崎"},
{"zip_code":"6695331","kana_pref":"ﾋｮｳｺﾞｹﾝ","kana_city":"ﾄﾖｵｶｼ","kana_address":"ﾋﾀﾞｶﾁｮｳｱｹﾞｼ","pref":"兵庫県","city":"豊岡市","address":"日高町上石"},
{"zip_code":"6695315","kana_pref":"ﾋｮｳｺﾞｹﾝ","kana_city":"ﾄﾖｵｶｼ","kana_address":"ﾋﾀﾞｶﾁｮｳｱｻｸﾗ","pref":"兵庫県","city":"豊岡市","address":"日高町浅倉"},
{"zip_code":"6695356","kana_pref":"ﾋｮｳｺﾞｹﾝ","kana_city":"ﾄﾖｵｶｼ","kana_address":"ﾋﾀﾞｶﾁｮｳｱﾗｶﾜ","pref":"兵庫県","city":"豊岡市","address":"日高町荒川"},
{"zip_code":"6695326","kana_pref":"ﾋｮｳｺﾞｹﾝ","kana_city":"ﾄﾖｵｶｼ","kana_address":"ﾋﾀﾞｶﾁｮｳｲｹｶﾞﾐ","pref":"兵庫県","city":"豊岡市","address":"日高町池上"},
{"zip_code":"6695367","kana_pref":"ﾋｮｳｺﾞｹﾝ","kana_city":"ﾄﾖｵｶｼ","kana_address":"ﾋﾀﾞｶﾁｮｳｲｼｲ","pref":"兵庫県","city":"豊岡市","address":"日高町石井"},
{"zip_code":"6695375","kana_pref":"ﾋｮｳｺﾞｹﾝ","kana_city":"ﾄﾖｵｶｼ","kana_address":"ﾋﾀﾞｶﾁｮｳｲﾅﾝﾊﾞ","pref":"兵庫県","city":"豊岡市","address":"日高町稲葉"},
{"zip_code":"6695357","kana_pref":"ﾋｮｳｺﾞｹﾝ","kana_city":"ﾄﾖｵｶｼ","kana_address":"ﾋﾀﾞｶﾁｮｳｲﾉｺｶﾞｷ","pref":"兵庫県","city":"豊岡市","address":"日高町猪子垣"},
{"zip_code":"6695338","kana_pref":"ﾋｮｳｺﾞｹﾝ","kana_city":"ﾄﾖｵｶｼ","kana_address":"ﾋﾀﾞｶﾁｮｳｲﾉﾂﾒ","pref":"兵庫県","city":"豊岡市","address":"日高町猪爪"},
{"zip_code":"6695346","kana_pref":"ﾋｮｳｺﾞｹﾝ","kana_city":"ﾄﾖｵｶｼ","kana_address":"ﾋﾀﾞｶﾁｮｳｲﾌﾞ","pref":"兵庫県","city":"豊岡市","address":"日高町伊府"},
{"zip_code":"6695302","kana_pref":"ﾋｮｳｺﾞｹﾝ","kana_city":"ﾄﾖｵｶｼ","kana_address":"ﾋﾀﾞｶﾁｮｳｲﾜﾅｶ","pref":"兵庫県","city":"豊岡市","address":"日高町岩中"},
{"zip_code":"6695301","kana_pref":"ﾋｮｳｺﾞｹﾝ","kana_city":"ﾄﾖｵｶｼ","kana_address":"ﾋﾀﾞｶﾁｮｳｴﾊﾞﾗ","pref":"兵庫県","city":"豊岡市","address":"日高町江原"},
{"zip_code":"6695339","kana_pref":"ﾋｮｳｺﾞｹﾝ","kana_city":"ﾄﾖｵｶｼ","kana_address":"ﾋﾀﾞｶﾁｮｳｵｵｵｶ","pref":"兵庫県","city":"豊岡市","address":"日高町大岡"},
{"zip_code":"6695324","kana_pref":"ﾋｮｳｺﾞｹﾝ","kana_city":"ﾄﾖｵｶｼ","kana_address":"ﾋﾀﾞｶﾁｮｳｶﾐﾉｺﾞｳ","pref":"兵庫県","city":"豊岡市","address":"日高町上郷"},
{"zip_code":"6695339","kana_pref":"ﾋｮｳｺﾞｹﾝ","kana_city":"ﾄﾖｵｶｼ","kana_address":"ﾋﾀﾞｶﾁｮｳｶﾜｴ","pref":"兵庫県","city":"豊岡市","address":"日高町河江"},
{"zip_code":"6695354","kana_pref":"ﾋｮｳｺﾞｹﾝ","kana_city":"ﾄﾖｵｶｼ","kana_address":"ﾋﾀﾞｶﾁｮｳｶﾝﾉﾝｼﾞ","pref":"兵庫県","city":"豊岡市","address":"日高町観音寺"},
{"zip_code":"6695345","kana_pref":"ﾋｮｳｺﾞｹﾝ","kana_city":"ﾄﾖｵｶｼ","kana_address":"ﾋﾀﾞｶﾁｮｳｸﾀﾀﾞﾆ","pref":"兵庫県","city":"豊岡市","address":"日高町久田谷"},
{"zip_code":"6695342","kana_pref":"ﾋｮｳｺﾞｹﾝ","kana_city":"ﾄﾖｵｶｼ","kana_address":"ﾋﾀﾞｶﾁｮｳｸﾄ","pref":"兵庫県","city":"豊岡市","address":"日高町久斗"},
{"zip_code":"6695372","kana_pref":"ﾋｮｳｺﾞｹﾝ","kana_city":"ﾄﾖｵｶｼ","kana_address":"ﾋﾀﾞｶﾁｮｳｸﾘｽﾉ","pref":"兵庫県","city":"豊岡市","address":"日高町栗栖野"},
{"zip_code":"6695361","kana_pref":"ﾋｮｳｺﾞｹﾝ","kana_city":"ﾄﾖｵｶｼ","kana_address":"ﾋﾀﾞｶﾁｮｳｸﾘﾔﾏ","pref":"兵庫県","city":"豊岡市","address":"日高町栗山"},
{"zip_code":"6695339","kana_pref":"ﾋｮｳｺﾞｹﾝ","kana_city":"ﾄﾖｵｶｼ","kana_address":"ﾋﾀﾞｶﾁｮｳｺｶﾞﾜｴ","pref":"兵庫県","city":"豊岡市","address":"日高町小河江"},
{"zip_code":"6695341","kana_pref":"ﾋｮｳｺﾞｹﾝ","kana_city":"ﾄﾖｵｶｼ","kana_address":"ﾋﾀﾞｶﾁｮｳｺｸﾌﾞﾝｼﾞ","pref":"兵庫県","city":"豊岡市","address":"日高町国分寺"},
{"zip_code":"6695366","kana_pref":"ﾋｮｳｺﾞｹﾝ","kana_city":"ﾄﾖｵｶｼ","kana_address":"ﾋﾀﾞｶﾁｮｳｺﾛｶﾞｷ","pref":"兵庫県","city":"豊岡市","address":"日高町頃垣"},
{"zip_code":"6695351","kana_pref":"ﾋｮｳｺﾞｹﾝ","kana_city":"ﾄﾖｵｶｼ","kana_address":"ﾋﾀﾞｶﾁｮｳｻﾀ","pref":"兵庫県","city":"豊岡市","address":"日高町佐田"},
{"zip_code":"6695355","kana_pref":"ﾋｮｳｺﾞｹﾝ","kana_city":"ﾄﾖｵｶｼ","kana_address":"ﾋﾀﾞｶﾁｮｳｼﾉｶﾞｷ","pref":"兵庫県","city":"豊岡市","address":"日高町篠垣"},
{"zip_code":"6695362","kana_pref":"ﾋｮｳｺﾞｹﾝ","kana_city":"ﾄﾖｵｶｼ","kana_address":"ﾋﾀﾞｶﾁｮｳｼﾊﾞ","pref":"兵庫県","city":"豊岡市","address":"日高町芝"},
{"zip_code":"6695365","kana_pref":"ﾋｮｳｺﾞｹﾝ","kana_city":"ﾄﾖｵｶｼ","kana_address":"ﾋﾀﾞｶﾁｮｳｼﾞｭｳｺﾞ","pref":"兵庫県","city":"豊岡市","address":"日高町十戸"},
{"zip_code":"6695364","kana_pref":"ﾋｮｳｺﾞｹﾝ","kana_city":"ﾄﾖｵｶｼ","kana_address":"ﾋﾀﾞｶﾁｮｳｼｮｳｻﾞｶｴ","pref":"兵庫県","city":"豊岡市","address":"日高町庄境"},
{"zip_code":"6695332","kana_pref":"ﾋｮｳｺﾞｹﾝ","kana_city":"ﾄﾖｵｶｼ","kana_address":"ﾋﾀﾞｶﾁｮｳﾀｶﾇｷ","pref":"兵庫県","city":"豊岡市","address":"日高町竹貫"},
{"zip_code":"6695371","kana_pref":"ﾋｮｳｺﾞｹﾝ","kana_city":"ﾄﾖｵｶｼ","kana_address":"ﾋﾀﾞｶﾁｮｳﾀﾀﾞ","pref":"兵庫県","city":"豊岡市","address":"日高町太田"},
{"zip_code":"6695336","kana_pref":"ﾋｮｳｺﾞｹﾝ","kana_city":"ﾄﾖｵｶｼ","kana_address":"ﾋﾀﾞｶﾁｮｳﾀﾆ","pref":"兵庫県","city":"豊岡市","address":"日高町谷"},
{"zip_code":"6695357","kana_pref":"ﾋｮｳｺﾞｹﾝ","kana_city":"ﾄﾖｵｶｼ","kana_address":"ﾋﾀﾞｶﾁｮｳﾀﾉｸﾁ","pref":"兵庫県","city":"豊岡市","address":"日高町田ノ口"},
{"zip_code":"6695352","kana_pref":"ﾋｮｳｺﾞｹﾝ","kana_city":"ﾄﾖｵｶｼ","kana_address":"ﾋﾀﾞｶﾁｮｳﾁﾐ","pref":"兵庫県","city":"豊岡市","address":"日高町知見"},
{"zip_code":"6695313","kana_pref":"ﾋｮｳｺﾞｹﾝ","kana_city":"ﾄﾖｵｶｼ","kana_address":"ﾋﾀﾞｶﾁｮｳﾂﾙｵｶ","pref":"兵庫県","city":"豊岡市","address":"日高町鶴岡"},
{"zip_code":"6695321","kana_pref":"ﾋｮｳｺﾞｹﾝ","kana_city":"ﾄﾖｵｶｼ","kana_address":"ﾋﾀﾞｶﾁｮｳﾄﾞｲ","pref":"兵庫県","city":"豊岡市","address":"日高町土居"},
{"zip_code":"6695343","kana_pref":"ﾋｮｳｺﾞｹﾝ","kana_city":"ﾄﾖｵｶｼ","kana_address":"ﾋﾀﾞｶﾁｮｳﾄﾞｳｼﾞｮｳ","pref":"兵庫県","city":"豊岡市","address":"日高町道場"},
{"zip_code":"6695369","kana_pref":"ﾋｮｳｺﾞｹﾝ","kana_city":"ﾄﾖｵｶｼ","kana_address":"ﾋﾀﾞｶﾁｮｳﾄﾁﾓﾄ","pref":"兵庫県","city":"豊岡市","address":"日高町栃本"},
{"zip_code":"6695358","kana_pref":"ﾋｮｳｺﾞｹﾝ","kana_city":"ﾄﾖｵｶｼ","kana_address":"ﾋﾀﾞｶﾁｮｳﾄﾉ","pref":"兵庫県","city":"豊岡市","address":"日高町殿"},
{"zip_code":"6695337","kana_pref":"ﾋｮｳｺﾞｹﾝ","kana_city":"ﾄﾖｵｶｼ","kana_address":"ﾋﾀﾞｶﾁｮｳﾅｶ","pref":"兵庫県","city":"豊岡市","address":"日高町中"},
{"zip_code":"6695335","kana_pref":"ﾋｮｳｺﾞｹﾝ","kana_city":"ﾄﾖｵｶｼ","kana_address":"ﾋﾀﾞｶﾁｮｳﾅｻｼﾞ","pref":"兵庫県","city":"豊岡市","address":"日高町奈佐路"},
{"zip_code":"6695379","kana_pref":"ﾋｮｳｺﾞｹﾝ","kana_city":"ﾄﾖｵｶｼ","kana_address":"ﾋﾀﾞｶﾁｮｳﾅｼｷ","pref":"兵庫県","city":"豊岡市","address":"日高町名色"},
{"zip_code":"6695344","kana_pref":"ﾋｮｳｺﾞｹﾝ","kana_city":"ﾄﾖｵｶｼ","kana_address":"ﾋﾀﾞｶﾁｮｳﾅﾂｸﾘ","pref":"兵庫県","city":"豊岡市","address":"日高町夏栗"},
{"zip_code":"6695328","kana_pref":"ﾋｮｳｺﾞｹﾝ","kana_city":"ﾄﾖｵｶｼ","kana_address":"ﾋﾀﾞｶﾁｮｳﾆｼｼﾊﾞ","pref":"兵庫県","city":"豊岡市","address":"日高町西芝"},
{"zip_code":"6695305","kana_pref":"ﾋｮｳｺﾞｹﾝ","kana_city":"ﾄﾖｵｶｼ","kana_address":"ﾋﾀﾞｶﾁｮｳﾆｮｳ","pref":"兵庫県","city":"豊岡市","address":"日高町祢布"},
{"zip_code":"6695363","kana_pref":"ﾋｮｳｺﾞｹﾝ","kana_city":"ﾄﾖｵｶｼ","kana_address":"ﾋﾀﾞｶﾁｮｳﾉ","pref":"兵庫県","city":"豊岡市","address":"日高町野"},
{"zip_code":"6695327","kana_pref":"ﾋｮｳｺﾞｹﾝ","kana_city":"ﾄﾖｵｶｼ","kana_address":"ﾋﾀﾞｶﾁｮｳﾉﾉｼｮｳ","pref":"兵庫県","city":"豊岡市","address":"日高町野々庄"},
{"zip_code":"6695359","kana_pref":"ﾋｮｳｺﾞｹﾝ","kana_city":"ﾄﾖｵｶｼ","kana_address":"ﾋﾀﾞｶﾁｮｳﾊｼﾞﾘ","pref":"兵庫県","city":"豊岡市","address":"日高町羽尻"},
{"zip_code":"6695311","kana_pref":"ﾋｮｳｺﾞｹﾝ","kana_city":"ﾄﾖｵｶｼ","kana_address":"ﾋﾀﾞｶﾁｮｳﾋｵｷ","pref":"兵庫県","city":"豊岡市","address":"日高町日置"},
{"zip_code":"6695303","kana_pref":"ﾋｮｳｺﾞｹﾝ","kana_city":"ﾄﾖｵｶｼ","kana_address":"ﾋﾀﾞｶﾁｮｳﾋｶﾞｼｶﾞﾏｴ","pref":"兵庫県","city":"豊岡市","address":"日高町東構"},
{"zip_code":"6695373","kana_pref":"ﾋｮｳｺﾞｹﾝ","kana_city":"ﾄﾖｵｶｼ","kana_address":"ﾋﾀﾞｶﾁｮｳﾋｶﾞｼｺﾞｳﾁ","pref":"兵庫県","city":"豊岡市","address":"日高町東河内"},
{"zip_code":"6695328","kana_pref":"ﾋｮｳｺﾞｹﾝ","kana_city":"ﾄﾖｵｶｼ","kana_address":"ﾋﾀﾞｶﾁｮｳﾋｶﾞｼｼﾊﾞ","pref":"兵庫県","city":"豊岡市","address":"日高町東芝"},
{"zip_code":"6695312","kana_pref":"ﾋｮｳｺﾞｹﾝ","kana_city":"ﾄﾖｵｶｼ","kana_address":"ﾋﾀﾞｶﾁｮｳﾋﾀﾞｶ","pref":"兵庫県","city":"豊岡市","address":"日高町日高"},
{"zip_code":"6695358","kana_pref":"ﾋｮｳｺﾞｹﾝ","kana_city":"ﾄﾖｵｶｼ","kana_address":"ﾋﾀﾞｶﾁｮｳﾋﾛｲ","pref":"兵庫県","city":"豊岡市","address":"日高町広井"},
{"zip_code":"6695322","kana_pref":"ﾋｮｳｺﾞｹﾝ","kana_city":"ﾄﾖｵｶｼ","kana_address":"ﾋﾀﾞｶﾁｮｳﾌｲﾁﾊﾞ","pref":"兵庫県","city":"豊岡市","address":"日高町府市場"},
{"zip_code":"6695333","kana_pref":"ﾋｮｳｺﾞｹﾝ","kana_city":"ﾄﾖｵｶｼ","kana_address":"ﾋﾀﾞｶﾁｮｳﾌｼﾞｲ","pref":"兵庫県","city":"豊岡市","address":"日高町藤井"},
{"zip_code":"6695323","kana_pref":"ﾋｮｳｺﾞｹﾝ","kana_city":"ﾄﾖｵｶｼ","kana_address":"ﾋﾀﾞｶﾁｮｳﾌﾁｭｳｼﾝ","pref":"兵庫県","city":"豊岡市","address":"日高町府中新"},
{"zip_code":"6695325","kana_pref":"ﾋｮｳｺﾞｹﾝ","kana_city":"ﾄﾖｵｶｼ","kana_address":"ﾋﾀﾞｶﾁｮｳﾎﾘ","pref":"兵庫県","city":"豊岡市","address":"日高町堀"},
{"zip_code":"6695307","kana_pref":"ﾋｮｳｺﾞｹﾝ","kana_city":"ﾄﾖｵｶｼ","kana_address":"ﾋﾀﾞｶﾁｮｳﾏﾂｵｶ","pref":"兵庫県","city":"豊岡市","address":"日高町松岡"},
{"zip_code":"6695376","kana_pref":"ﾋｮｳｺﾞｹﾝ","kana_city":"ﾄﾖｵｶｼ","kana_address":"ﾋﾀﾞｶﾁｮｳﾏﾝｺﾞｳ","pref":"兵庫県","city":"豊岡市","address":"日高町万劫"},
{"zip_code":"6695378","kana_pref":"ﾋｮｳｺﾞｹﾝ","kana_city":"ﾄﾖｵｶｼ","kana_address":"ﾋﾀﾞｶﾁｮｳﾏﾝﾊﾞ","pref":"兵庫県","city":"豊岡市","address":"日高町万場"},
{"zip_code":"6695306","kana_pref":"ﾋｮｳｺﾞｹﾝ","kana_city":"ﾄﾖｵｶｼ","kana_address":"ﾋﾀﾞｶﾁｮｳﾐﾉｶﾐ","pref":"兵庫県","city":"豊岡市","address":"日高町水上"},
{"zip_code":"6695374","kana_pref":"ﾋｮｳｺﾞｹﾝ","kana_city":"ﾄﾖｵｶｼ","kana_address":"ﾋﾀﾞｶﾁｮｳﾐﾉｸﾁ","pref":"兵庫県","city":"豊岡市","address":"日高町水口"},
{"zip_code":"6695353","kana_pref":"ﾋｮｳｺﾞｹﾝ","kana_city":"ﾄﾖｵｶｼ","kana_address":"ﾋﾀﾞｶﾁｮｳﾓﾘﾔﾏ","pref":"兵庫県","city":"豊岡市","address":"日高町森山"},
{"zip_code":"6695339","kana_pref":"ﾋｮｳｺﾞｹﾝ","kana_city":"ﾄﾖｵｶｼ","kana_address":"ﾋﾀﾞｶﾁｮｳﾔｼﾛ","pref":"兵庫県","city":"豊岡市","address":"日高町八代"},
{"zip_code":"6695377","kana_pref":"ﾋｮｳｺﾞｹﾝ","kana_city":"ﾄﾖｵｶｼ","kana_address":"ﾋﾀﾞｶﾁｮｳﾔﾏﾀ","pref":"兵庫県","city":"豊岡市","address":"日高町山田"},
{"zip_code":"6695368","kana_pref":"ﾋｮｳｺﾞｹﾝ","kana_city":"ﾄﾖｵｶｼ","kana_address":"ﾋﾀﾞｶﾁｮｳﾔﾏﾉﾐﾔ","pref":"兵庫県","city":"豊岡市","address":"日高町山宮"},
{"zip_code":"6695334","kana_pref":"ﾋｮｳｺﾞｹﾝ","kana_city":"ﾄﾖｵｶｼ","kana_address":"ﾋﾀﾞｶﾁｮｳﾔﾏﾓﾄ","pref":"兵庫県","city":"豊岡市","address":"日高町山本"},
{"zip_code":"6695304","kana_pref":"ﾋｮｳｺﾞｹﾝ","kana_city":"ﾄﾖｵｶｼ","kana_address":"ﾋﾀﾞｶﾁｮｳﾖｲﾀﾞ","pref":"兵庫県","city":"豊岡市","address":"日高町宵田"},
{"zip_code":"6696126","kana_pref":"ﾋｮｳｺﾞｹﾝ","kana_city":"ﾄﾖｵｶｼ","kana_address":"ﾐﾊﾗ","pref":"兵庫県","city":"豊岡市","address":"三原"},
{"zip_code":"6691211","kana_pref":"ﾋｮｳｺﾞｹﾝ","kana_city":"ﾀｶﾗﾂﾞｶｼ","kana_address":"ｵｵﾊﾗﾉ","pref":"兵庫県","city":"宝塚市","address":"大原野"},
{"zip_code":"6691202","kana_pref":"ﾋｮｳｺﾞｹﾝ","kana_city":"ﾀｶﾗﾂﾞｶｼ","kana_address":"ｶﾐｻｿﾘ","pref":"兵庫県","city":"宝塚市","address":"上佐曽利"},
{"zip_code":"6691241","kana_pref":"ﾋｮｳｺﾞｹﾝ","kana_city":"ﾀｶﾗﾂﾞｶｼ","kana_address":"ｷﾘﾊﾀ","pref":"兵庫県","city":"宝塚市","address":"切畑"},
{"zip_code":"6691241","kana_pref":"ﾋｮｳｺﾞｹﾝ","kana_city":"ﾀｶﾗﾂﾞｶｼ","kana_address":"ｷﾘﾊﾀ","pref":"兵庫県","city":"宝塚市","address":"切畑"},
{"zip_code":"6691201","kana_pref":"ﾋｮｳｺﾞｹﾝ","kana_city":"ﾀｶﾗﾂﾞｶｼ","kana_address":"ｺｳﾊﾞｺｼﾝﾃﾞﾝ","pref":"兵庫県","city":"宝塚市","address":"香合新田"},
{"zip_code":"6691222","kana_pref":"ﾋｮｳｺﾞｹﾝ","kana_city":"ﾀｶﾗﾂﾞｶｼ","kana_address":"ｻｶｲﾉ","pref":"兵庫県","city":"宝塚市","address":"境野"},
{"zip_code":"6691205","kana_pref":"ﾋｮｳｺﾞｹﾝ","kana_city":"ﾀｶﾗﾂﾞｶｼ","kana_address":"ｼﾊﾞﾂｼﾞｼﾝﾃﾞﾝ","pref":"兵庫県","city":"宝塚市","address":"芝辻新田"},
{"zip_code":"6691203","kana_pref":"ﾋｮｳｺﾞｹﾝ","kana_city":"ﾀｶﾗﾂﾞｶｼ","kana_address":"ｼﾓｻｿﾘ","pref":"兵庫県","city":"宝塚市","address":"下佐曽利"},
{"zip_code":"6691231","kana_pref":"ﾋｮｳｺﾞｹﾝ","kana_city":"ﾀｶﾗﾂﾞｶｼ","kana_address":"ﾀﾏｾ","pref":"兵庫県","city":"宝塚市","address":"玉瀬"},
{"zip_code":"6691204","kana_pref":"ﾋｮｳｺﾞｹﾝ","kana_city":"ﾀｶﾗﾂﾞｶｼ","kana_address":"ﾅｶﾞﾀﾆ","pref":"兵庫県","city":"宝塚市","address":"長谷"},
{"zip_code":"6691221","kana_pref":"ﾋｮｳｺﾞｹﾝ","kana_city":"ﾀｶﾗﾂﾞｶｼ","kana_address":"ﾊｽﾞ","pref":"兵庫県","city":"宝塚市","address":"波豆"},
{"zip_code":"6691300","kana_pref":"ﾋｮｳｺﾞｹﾝ","kana_city":"ｻﾝﾀﾞｼ","kana_address":"","pref":"兵庫県","city":"三田市","address":""},
{"zip_code":"6691536","kana_pref":"ﾋｮｳｺﾞｹﾝ","kana_city":"ｻﾝﾀﾞｼ","kana_address":"ｻﾝﾀﾞｼﾉﾂｷﾞﾆﾊﾞﾝﾁｶﾞｸﾙﾊﾞｱｲ","pref":"兵庫県","city":"三田市","address":"三田市の次に番地がくる場合"},
{"zip_code":"6691526","kana_pref":"ﾋｮｳｺﾞｹﾝ","kana_city":"ｻﾝﾀﾞｼ","kana_address":"ｱｲｵｲﾁｮｳ","pref":"兵庫県","city":"三田市","address":"相生町"},
{"zip_code":"6691358","kana_pref":"ﾋｮｳｺﾞｹﾝ","kana_city":"ｻﾝﾀﾞｼ","kana_address":"ｱｲﾓﾄ","pref":"兵庫県","city":"三田市","address":"藍本"},
{"zip_code":"6691323","kana_pref":"ﾋｮｳｺﾞｹﾝ","kana_city":"ｻﾝﾀﾞｼ","kana_address":"ｱｶｼｱﾀﾞｲ","pref":"兵庫県","city":"三田市","address":"あかしあ台"},
{"zip_code":"6691548","kana_pref":"ﾋｮｳｺﾞｹﾝ","kana_city":"ｻﾝﾀﾞｼ","kana_address":"ｲｹｼﾞﾘ","pref":"兵庫県","city":"三田市","address":"池尻"},
{"zip_code":"6691414","kana_pref":"ﾋｮｳｺﾞｹﾝ","kana_city":"ｻﾝﾀﾞｼ","kana_address":"ｲﾁﾉｾ","pref":"兵庫県","city":"三田市","address":"市之瀬"},
{"zip_code":"6691356","kana_pref":"ﾋｮｳｺﾞｹﾝ","kana_city":"ｻﾝﾀﾞｼ","kana_address":"ｲﾉｸｻ","pref":"兵庫県","city":"三田市","address":"井ノ草"},
{"zip_code":"6691336","kana_pref":"ﾋｮｳｺﾞｹﾝ","kana_city":"ｻﾝﾀﾞｼ","kana_address":"ｳﾏﾜﾀﾘ","pref":"兵庫県","city":"三田市","address":"馬渡"},
{"zip_code":"6691502","kana_pref":"ﾋｮｳｺﾞｹﾝ","kana_city":"ｻﾝﾀﾞｼ","kana_address":"ｴｲﾀｸｼﾞ","pref":"兵庫県","city":"三田市","address":"永沢寺"},
{"zip_code":"6691528","kana_pref":"ﾋｮｳｺﾞｹﾝ","kana_city":"ｻﾝﾀﾞｼ","kana_address":"ｴｷﾏｴﾁｮｳ","pref":"兵庫県","city":"三田市","address":"駅前町"},
{"zip_code":"6691349","kana_pref":"ﾋｮｳｺﾞｹﾝ","kana_city":"ｻﾝﾀﾞｼ","kana_address":"ｵｵｶﾜｾ","pref":"兵庫県","city":"三田市","address":"大川瀬"},
{"zip_code":"6691354","kana_pref":"ﾋｮｳｺﾞｹﾝ","kana_city":"ｻﾝﾀﾞｼ","kana_address":"ｵｵﾊﾀ","pref":"兵庫県","city":"三田市","address":"大畑"},
{"zip_code":"6691515","kana_pref":"ﾋｮｳｺﾞｹﾝ","kana_city":"ｻﾝﾀﾞｼ","kana_address":"ｵｵﾊﾗ","pref":"兵庫県","city":"三田市","address":"大原"},
{"zip_code":"6691503","kana_pref":"ﾋｮｳｺﾞｹﾝ","kana_city":"ｻﾝﾀﾞｼ","kana_address":"ｵﾁﾊﾞﾗ","pref":"兵庫県","city":"三田市","address":"乙原"},
{"zip_code":"6691504","kana_pref":"ﾋｮｳｺﾞｹﾝ","kana_city":"ｻﾝﾀﾞｼ","kana_address":"ｵﾉ","pref":"兵庫県","city":"三田市","address":"小野"},
{"zip_code":"6691337","kana_pref":"ﾋｮｳｺﾞｹﾝ","kana_city":"ｻﾝﾀﾞｼ","kana_address":"ｶﾞｸｴﾝ","pref":"兵庫県","city":"三田市","address":"学園"},
{"zip_code":"6691507","kana_pref":"ﾋｮｳｺﾞｹﾝ","kana_city":"ｻﾝﾀﾞｼ","kana_address":"ｶｼﾀ","pref":"兵庫県","city":"三田市","address":"香下"},
{"zip_code":"6691346","kana_pref":"ﾋｮｳｺﾞｹﾝ","kana_city":"ｻﾝﾀﾞｼ","kana_address":"ｶﾐｱｲﾉ","pref":"兵庫県","city":"三田市","address":"上相野"},
{"zip_code":"6691301","kana_pref":"ﾋｮｳｺﾞｹﾝ","kana_city":"ｻﾝﾀﾞｼ","kana_address":"ｶﾐｱｵﾉ","pref":"兵庫県","city":"三田市","address":"上青野"},
{"zip_code":"6691316","kana_pref":"ﾋｮｳｺﾞｹﾝ","kana_city":"ｻﾝﾀﾞｼ","kana_address":"ｶﾐｲｻﾜ","pref":"兵庫県","city":"三田市","address":"上井沢"},
{"zip_code":"6691338","kana_pref":"ﾋｮｳｺﾞｹﾝ","kana_city":"ｻﾝﾀﾞｼ","kana_address":"ｶﾐｳﾁｶﾞﾐ","pref":"兵庫県","city":"三田市","address":"上内神"},
{"zip_code":"6691415","kana_pref":"ﾋｮｳｺﾞｹﾝ","kana_city":"ｻﾝﾀﾞｼ","kana_address":"ｶﾐﾂﾞｷｾ","pref":"兵庫県","city":"三田市","address":"上槻瀬"},
{"zip_code":"6691542","kana_pref":"ﾋｮｳｺﾞｹﾝ","kana_city":"ｻﾝﾀﾞｼ","kana_address":"ｶﾐﾌｶﾀ","pref":"兵庫県","city":"三田市","address":"上深田"},
{"zip_code":"6691351","kana_pref":"ﾋｮｳｺﾞｹﾝ","kana_city":"ｻﾝﾀﾞｼ","kana_address":"ｶﾐﾎﾝｼﾞｮｳ","pref":"兵庫県","city":"三田市","address":"上本庄"},
{"zip_code":"6691311","kana_pref":"ﾋｮｳｺﾞｹﾝ","kana_city":"ｻﾝﾀﾞｼ","kana_address":"ｶﾓ","pref":"兵庫県","city":"三田市","address":"加茂"},
{"zip_code":"6691514","kana_pref":"ﾋｮｳｺﾞｹﾝ","kana_city":"ｻﾝﾀﾞｼ","kana_address":"ｶﾜﾖｹ","pref":"兵庫県","city":"三田市","address":"川除"},
{"zip_code":"6691403","kana_pref":"ﾋｮｳｺﾞｹﾝ","kana_city":"ｻﾝﾀﾞｼ","kana_address":"ｶﾜﾗ","pref":"兵庫県","city":"三田市","address":"川原"},
{"zip_code":"6691541","kana_pref":"ﾋｮｳｺﾞｹﾝ","kana_city":"ｻﾝﾀﾞｼ","kana_address":"ｷｼ","pref":"兵庫県","city":"三田市","address":"貴志"},
{"zip_code":"6691304","kana_pref":"ﾋｮｳｺﾞｹﾝ","kana_city":"ｻﾝﾀﾞｼ","kana_address":"ｷﾀｳﾗ","pref":"兵庫県","city":"三田市","address":"北浦"},
{"zip_code":"6691521","kana_pref":"ﾋｮｳｺﾞｹﾝ","kana_city":"ｻﾝﾀﾞｼ","kana_address":"ｸﾜﾊﾞﾗ","pref":"兵庫県","city":"三田市","address":"桑原"},
{"zip_code":"6691321","kana_pref":"ﾋｮｳｺﾞｹﾝ","kana_city":"ｻﾝﾀﾞｼ","kana_address":"ｹﾔｷﾀﾞｲ","pref":"兵庫県","city":"三田市","address":"けやき台"},
{"zip_code":"6691412","kana_pref":"ﾋｮｳｺﾞｹﾝ","kana_city":"ｻﾝﾀﾞｼ","kana_address":"ｺｳﾂﾞｷ","pref":"兵庫県","city":"三田市","address":"木器"},
{"zip_code":"6691401","kana_pref":"ﾋｮｳｺﾞｹﾝ","kana_city":"ｻﾝﾀﾞｼ","kana_address":"ｺｶﾞｷ","pref":"兵庫県","city":"三田市","address":"小柿"},
{"zip_code":"6691405","kana_pref":"ﾋｮｳｺﾞｹﾝ","kana_city":"ｻﾝﾀﾞｼ","kana_address":"ｻｶｲ","pref":"兵庫県","city":"三田市","address":"酒井"},
{"zip_code":"6691325","kana_pref":"ﾋｮｳｺﾞｹﾝ","kana_city":"ｻﾝﾀﾞｼ","kana_address":"ｻｸﾗｻﾞｶ","pref":"兵庫県","city":"三田市","address":"さくら坂"},
{"zip_code":"6691335","kana_pref":"ﾋｮｳｺﾞｹﾝ","kana_city":"ｻﾝﾀﾞｼ","kana_address":"ｻﾜﾀﾞﾆ","pref":"兵庫県","city":"三田市","address":"沢谷"},
{"zip_code":"6691533","kana_pref":"ﾋｮｳｺﾞｹﾝ","kana_city":"ｻﾝﾀﾞｼ","kana_address":"ｻﾝﾀﾞﾁｮｳ","pref":"兵庫県","city":"三田市","address":"三田町"},
{"zip_code":"6691506","kana_pref":"ﾋｮｳｺﾞｹﾝ","kana_city":"ｻﾝﾀﾞｼ","kana_address":"ｼﾃﾞﾊﾗ","pref":"兵庫県","city":"三田市","address":"志手原"},
{"zip_code":"6691345","kana_pref":"ﾋｮｳｺﾞｹﾝ","kana_city":"ｻﾝﾀﾞｼ","kana_address":"ｼﾓｱｲﾉ","pref":"兵庫県","city":"三田市","address":"下相野"},
{"zip_code":"6691302","kana_pref":"ﾋｮｳｺﾞｹﾝ","kana_city":"ｻﾝﾀﾞｼ","kana_address":"ｼﾓｱｵﾉ","pref":"兵庫県","city":"三田市","address":"下青野"},
{"zip_code":"6691315","kana_pref":"ﾋｮｳｺﾞｹﾝ","kana_city":"ｻﾝﾀﾞｼ","kana_address":"ｼﾓｲｻﾜ","pref":"兵庫県","city":"三田市","address":"下井沢"},
{"zip_code":"6691333","kana_pref":"ﾋｮｳｺﾞｹﾝ","kana_city":"ｻﾝﾀﾞｼ","kana_address":"ｼﾓｳﾁｶﾞﾐ","pref":"兵庫県","city":"三田市","address":"下内神"},
{"zip_code":"6691416","kana_pref":"ﾋｮｳｺﾞｹﾝ","kana_city":"ｻﾝﾀﾞｼ","kana_address":"ｼﾓｻﾞﾄ","pref":"兵庫県","city":"三田市","address":"下里"},
{"zip_code":"6691522","kana_pref":"ﾋｮｳｺﾞｹﾝ","kana_city":"ｻﾝﾀﾞｼ","kana_address":"ｼﾓﾀﾅｶ","pref":"兵庫県","city":"三田市","address":"下田中"},
{"zip_code":"6691413","kana_pref":"ﾋｮｳｺﾞｹﾝ","kana_city":"ｻﾝﾀﾞｼ","kana_address":"ｼﾓﾂﾞｷｾ","pref":"兵庫県","city":"三田市","address":"下槻瀬"},
{"zip_code":"6691543","kana_pref":"ﾋｮｳｺﾞｹﾝ","kana_city":"ｻﾝﾀﾞｼ","kana_address":"ｼﾓﾌｶﾀ","pref":"兵庫県","city":"三田市","address":"下深田"},
{"zip_code":"6691303","kana_pref":"ﾋｮｳｺﾞｹﾝ","kana_city":"ｻﾝﾀﾞｼ","kana_address":"ｽｴ","pref":"兵庫県","city":"三田市","address":"末"},
{"zip_code":"6691402","kana_pref":"ﾋｮｳｺﾞｹﾝ","kana_city":"ｻﾝﾀﾞｼ","kana_address":"ｽｴﾖｼ","pref":"兵庫県","city":"三田市","address":"末吉"},
{"zip_code":"6691417","kana_pref":"ﾋｮｳｺﾞｹﾝ","kana_city":"ｻﾝﾀﾞｼ","kana_address":"ｽｽﾞｶ","pref":"兵庫県","city":"三田市","address":"鈴鹿"},
{"zip_code":"6691322","kana_pref":"ﾋｮｳｺﾞｹﾝ","kana_city":"ｻﾝﾀﾞｼ","kana_address":"ｽｽﾞｶｹﾀﾞｲ","pref":"兵庫県","city":"三田市","address":"すずかけ台"},
{"zip_code":"6691352","kana_pref":"ﾋｮｳｺﾞｹﾝ","kana_city":"ｻﾝﾀﾞｼ","kana_address":"ｽﾏﾀﾞ","pref":"兵庫県","city":"三田市","address":"須磨田"},
{"zip_code":"6691525","kana_pref":"ﾋｮｳｺﾞｹﾝ","kana_city":"ｻﾝﾀﾞｼ","kana_address":"ﾀｲﾅｶﾁｮｳ","pref":"兵庫県","city":"三田市","address":"対中町"},
{"zip_code":"6691512","kana_pref":"ﾋｮｳｺﾞｹﾝ","kana_city":"ｻﾝﾀﾞｼ","kana_address":"ﾀｶｽｷﾞ","pref":"兵庫県","city":"三田市","address":"高次"},
{"zip_code":"6691406","kana_pref":"ﾋｮｳｺﾞｹﾝ","kana_city":"ｻﾝﾀﾞｼ","kana_address":"ﾀﾅｶ","pref":"兵庫県","city":"三田市","address":"田中"},
{"zip_code":"6691529","kana_pref":"ﾋｮｳｺﾞｹﾝ","kana_city":"ｻﾝﾀﾞｼ","kana_address":"ﾁｭｳｵｳﾁｮｳ","pref":"兵庫県","city":"三田市","address":"中央町"},
{"zip_code":"6691347","kana_pref":"ﾋｮｳｺﾞｹﾝ","kana_city":"ｻﾝﾀﾞｼ","kana_address":"ﾂﾂｼﾞｶﾞｵｶﾐﾅﾐ","pref":"兵庫県","city":"三田市","address":"つつじが丘南"},
{"zip_code":"6691348","kana_pref":"ﾋｮｳｺﾞｹﾝ","kana_city":"ｻﾝﾀﾞｼ","kana_address":"ﾂﾂｼﾞｶﾞｵｶｷﾀ","pref":"兵庫県","city":"三田市","address":"つつじが丘北"},
{"zip_code":"6691339","kana_pref":"ﾋｮｳｺﾞｹﾝ","kana_city":"ｻﾝﾀﾞｼ","kana_address":"ﾃｸﾉﾊﾟｰｸ","pref":"兵庫県","city":"三田市","address":"テクノパーク"},
{"zip_code":"6691523","kana_pref":"ﾋｮｳｺﾞｹﾝ","kana_city":"ｻﾝﾀﾞｼ","kana_address":"ﾃﾗﾑﾗﾁｮｳ","pref":"兵庫県","city":"三田市","address":"寺村町"},
{"zip_code":"6691531","kana_pref":"ﾋｮｳｺﾞｹﾝ","kana_city":"ｻﾝﾀﾞｼ","kana_address":"ﾃﾝｼﾞﾝ","pref":"兵庫県","city":"三田市","address":"天神"},
{"zip_code":"6691404","kana_pref":"ﾋｮｳｺﾞｹﾝ","kana_city":"ｻﾝﾀﾞｼ","kana_address":"ﾄｸﾗ","pref":"兵庫県","city":"三田市","address":"十倉"},
{"zip_code":"6691516","kana_pref":"ﾋｮｳｺﾞｹﾝ","kana_city":"ｻﾝﾀﾞｼ","kana_address":"ﾄﾓｶﾞｵｶ","pref":"兵庫県","city":"三田市","address":"友が丘"},
{"zip_code":"6691334","kana_pref":"ﾋｮｳｺﾞｹﾝ","kana_city":"ｻﾝﾀﾞｼ","kana_address":"ﾅｶｳﾁｶﾞﾐ","pref":"兵庫県","city":"三田市","address":"中内神"},
{"zip_code":"6691527","kana_pref":"ﾋｮｳｺﾞｹﾝ","kana_city":"ｻﾝﾀﾞｼ","kana_address":"ﾅｶﾏﾁ","pref":"兵庫県","city":"三田市","address":"中町"},
{"zip_code":"6691355","kana_pref":"ﾋｮｳｺﾞｹﾝ","kana_city":"ｻﾝﾀﾞｼ","kana_address":"ﾅｶﾞｻｶ","pref":"兵庫県","city":"三田市","address":"長坂"},
{"zip_code":"6691517","kana_pref":"ﾋｮｳｺﾞｹﾝ","kana_city":"ｻﾝﾀﾞｼ","kana_address":"ﾅﾙﾀﾆ","pref":"兵庫県","city":"三田市","address":"成谷"},
{"zip_code":"6691341","kana_pref":"ﾋｮｳｺﾞｹﾝ","kana_city":"ｻﾝﾀﾞｼ","kana_address":"ﾆｼｱｲﾉ","pref":"兵庫県","city":"三田市","address":"西相野"},
{"zip_code":"6691314","kana_pref":"ﾋｮｳｺﾞｹﾝ","kana_city":"ｻﾝﾀﾞｼ","kana_address":"ﾆｼﾉｶﾞﾐ","pref":"兵庫県","city":"三田市","address":"西野上"},
{"zip_code":"6691537","kana_pref":"ﾋｮｳｺﾞｹﾝ","kana_city":"ｻﾝﾀﾞｼ","kana_address":"ﾆｼﾔﾏ","pref":"兵庫県","city":"三田市","address":"西山"},
{"zip_code":"6691505","kana_pref":"ﾋｮｳｺﾞｹﾝ","kana_city":"ｻﾝﾀﾞｼ","kana_address":"ﾆﾝｼﾞ","pref":"兵庫県","city":"三田市","address":"尼寺"},
{"zip_code":"6691545","kana_pref":"ﾋｮｳｺﾞｹﾝ","kana_city":"ｻﾝﾀﾞｼ","kana_address":"ﾊｻﾏｶﾞｵｶ","pref":"兵庫県","city":"三田市","address":"狭間が丘"},
{"zip_code":"6691411","kana_pref":"ﾋｮｳｺﾞｹﾝ","kana_city":"ｻﾝﾀﾞｼ","kana_address":"ﾊｽﾞｶﾜ","pref":"兵庫県","city":"三田市","address":"波豆川"},
{"zip_code":"6691524","kana_pref":"ﾋｮｳｺﾞｹﾝ","kana_city":"ｻﾝﾀﾞｼ","kana_address":"ﾊｯｹｲﾁｮｳ","pref":"兵庫県","city":"三田市","address":"八景町"},
{"zip_code":"6691312","kana_pref":"ﾋｮｳｺﾞｹﾝ","kana_city":"ｻﾝﾀﾞｼ","kana_address":"ﾋｶﾞｼﾉｶﾞﾐ","pref":"兵庫県","city":"三田市","address":"東野上"},
{"zip_code":"6691357","kana_pref":"ﾋｮｳｺﾞｹﾝ","kana_city":"ｻﾝﾀﾞｼ","kana_address":"ﾋｶﾞｼﾎﾝｼﾞｮｳ","pref":"兵庫県","city":"三田市","address":"東本庄"},
{"zip_code":"6691353","kana_pref":"ﾋｮｳｺﾞｹﾝ","kana_city":"ｻﾝﾀﾞｼ","kana_address":"ﾋｶﾞｼﾔﾏ","pref":"兵庫県","city":"三田市","address":"東山"},
{"zip_code":"6691332","kana_pref":"ﾋｮｳｺﾞｹﾝ","kana_city":"ｻﾝﾀﾞｼ","kana_address":"ﾋﾛｻﾜ","pref":"兵庫県","city":"三田市","address":"広沢"},
{"zip_code":"6691331","kana_pref":"ﾋｮｳｺﾞｹﾝ","kana_city":"ｻﾝﾀﾞｼ","kana_address":"ﾋﾛﾉ","pref":"兵庫県","city":"三田市","address":"広野"},
{"zip_code":"6691407","kana_pref":"ﾋｮｳｺﾞｹﾝ","kana_city":"ｻﾝﾀﾞｼ","kana_address":"ﾌｷ","pref":"兵庫県","city":"三田市","address":"布木"},
{"zip_code":"6691313","kana_pref":"ﾋｮｳｺﾞｹﾝ","kana_city":"ｻﾝﾀﾞｼ","kana_address":"ﾌｸｼﾏ","pref":"兵庫県","city":"三田市","address":"福島"},
{"zip_code":"6691547","kana_pref":"ﾋｮｳｺﾞｹﾝ","kana_city":"ｻﾝﾀﾞｼ","kana_address":"ﾌｼﾞｶﾞｵｶ","pref":"兵庫県","city":"三田市","address":"富士が丘"},
{"zip_code":"6691343","kana_pref":"ﾋｮｳｺﾞｹﾝ","kana_city":"ｻﾝﾀﾞｼ","kana_address":"ﾎﾗ","pref":"兵庫県","city":"三田市","address":"洞"},
{"zip_code":"6691344","kana_pref":"ﾋｮｳｺﾞｹﾝ","kana_city":"ｻﾝﾀﾞｼ","kana_address":"ﾐｿﾞｸﾞﾁ","pref":"兵庫県","city":"三田市","address":"溝口"},
{"zip_code":"6691535","kana_pref":"ﾋｮｳｺﾞｹﾝ","kana_city":"ｻﾝﾀﾞｼ","kana_address":"ﾐﾅﾐｶﾞｵｶ","pref":"兵庫県","city":"三田市","address":"南が丘"},
{"zip_code":"6691317","kana_pref":"ﾋｮｳｺﾞｹﾝ","kana_city":"ｻﾝﾀﾞｼ","kana_address":"ﾐﾔﾜｷ","pref":"兵庫県","city":"三田市","address":"宮脇"},
{"zip_code":"6691513","kana_pref":"ﾋｮｳｺﾞｹﾝ","kana_city":"ｻﾝﾀﾞｼ","kana_address":"ﾐﾜ","pref":"兵庫県","city":"三田市","address":"三輪"},
{"zip_code":"6691544","kana_pref":"ﾋｮｳｺﾞｹﾝ","kana_city":"ｻﾝﾀﾞｼ","kana_address":"ﾑｺｶﾞｵｶ","pref":"兵庫県","city":"三田市","address":"武庫が丘"},
{"zip_code":"6691501","kana_pref":"ﾋｮｳｺﾞｹﾝ","kana_city":"ｻﾝﾀﾞｼ","kana_address":"ﾓｳｼ","pref":"兵庫県","city":"三田市","address":"母子"},
{"zip_code":"6691532","kana_pref":"ﾋｮｳｺﾞｹﾝ","kana_city":"ｻﾝﾀﾞｼ","kana_address":"ﾔｼｷﾏﾁ","pref":"兵庫県","city":"三田市","address":"屋敷町"},
{"zip_code":"6691511","kana_pref":"ﾋｮｳｺﾞｹﾝ","kana_city":"ｻﾝﾀﾞｼ","kana_address":"ﾔﾏﾀ","pref":"兵庫県","city":"三田市","address":"山田"},
{"zip_code":"6691546","kana_pref":"ﾋｮｳｺﾞｹﾝ","kana_city":"ｻﾝﾀﾞｼ","kana_address":"ﾔﾖｲｶﾞｵｶ","pref":"兵庫県","city":"三田市","address":"弥生が丘"},
{"zip_code":"6691324","kana_pref":"ﾋｮｳｺﾞｹﾝ","kana_city":"ｻﾝﾀﾞｼ","kana_address":"ﾕﾘﾉｷﾀﾞｲ","pref":"兵庫県","city":"三田市","address":"ゆりのき台"},
{"zip_code":"6691534","kana_pref":"ﾋｮｳｺﾞｹﾝ","kana_city":"ｻﾝﾀﾞｼ","kana_address":"ﾖｺﾔﾏﾁｮｳ","pref":"兵庫県","city":"三田市","address":"横山町"},
{"zip_code":"6691342","kana_pref":"ﾋｮｳｺﾞｹﾝ","kana_city":"ｻﾝﾀﾞｼ","kana_address":"ﾖﾂﾂｼﾞ","pref":"兵庫県","city":"三田市","address":"四ツ辻"},
{"zip_code":"6692300","kana_pref":"ﾋｮｳｺﾞｹﾝ","kana_city":"ｻｻﾔﾏｼ","kana_address":"","pref":"兵庫県","city":"篠山市","address":""},
{"zip_code":"6692205","kana_pref":"ﾋｮｳｺﾞｹﾝ","kana_city":"ｻｻﾔﾏｼ","kana_address":"ｱｶﾞｹ","pref":"兵庫県","city":"篠山市","address":"網掛"},
{"zip_code":"6692402","kana_pref":"ﾋｮｳｺﾞｹﾝ","kana_city":"ｻｻﾔﾏｼ","kana_address":"ｱｶﾞﾀﾓﾘ","pref":"兵庫県","city":"篠山市","address":"県守"},
{"zip_code":"6692822","kana_pref":"ﾋｮｳｺﾞｹﾝ","kana_city":"ｻｻﾔﾏｼ","kana_address":"ｱｹﾉ","pref":"兵庫県","city":"篠山市","address":"明野"},
{"zip_code":"6692223","kana_pref":"ﾋｮｳｺﾞｹﾝ","kana_city":"ｻｻﾔﾏｼ","kana_address":"ｱｼﾞﾏｵｸ","pref":"兵庫県","city":"篠山市","address":"味間奥"},
{"zip_code":"6692224","kana_pref":"ﾋｮｳｺﾞｹﾝ","kana_city":"ｻｻﾔﾏｼ","kana_address":"ｱｼﾞﾏｷﾀ","pref":"兵庫県","city":"篠山市","address":"味間北"},
{"zip_code":"6692214","kana_pref":"ﾋｮｳｺﾞｹﾝ","kana_city":"ｻｻﾔﾏｼ","kana_address":"ｱｼﾞﾏｼﾝ","pref":"兵庫県","city":"篠山市","address":"味間新"},
{"zip_code":"6692222","kana_pref":"ﾋｮｳｺﾞｹﾝ","kana_city":"ｻｻﾔﾏｼ","kana_address":"ｱｼﾞﾏﾐﾅﾐ","pref":"兵庫県","city":"篠山市","address":"味間南"},
{"zip_code":"6692114","kana_pref":"ﾋｮｳｺﾞｹﾝ","kana_city":"ｻｻﾔﾏｼ","kana_address":"ｱﾌﾞﾗｲ","pref":"兵庫県","city":"篠山市","address":"油井"},
{"zip_code":"6692804","kana_pref":"ﾋｮｳｺﾞｹﾝ","kana_city":"ｻｻﾔﾏｼ","kana_address":"ｱﾗｺｼﾝﾃﾞﾝ","pref":"兵庫県","city":"篠山市","address":"荒子新田"},
{"zip_code":"6692354","kana_pref":"ﾋｮｳｺﾞｹﾝ","kana_city":"ｻｻﾔﾏｼ","kana_address":"ｱﾘｲ","pref":"兵庫県","city":"篠山市","address":"有居"},
{"zip_code":"6692541","kana_pref":"ﾋｮｳｺﾞｹﾝ","kana_city":"ｻｻﾔﾏｼ","kana_address":"ｲｸｼ","pref":"兵庫県","city":"篠山市","address":"井串"},
{"zip_code":"6692436","kana_pref":"ﾋｮｳｺﾞｹﾝ","kana_city":"ｻｻﾔﾏｼ","kana_address":"ｲｹｶﾞﾐ","pref":"兵庫県","city":"篠山市","address":"池上"},
{"zip_code":"6692811","kana_pref":"ﾋｮｳｺﾞｹﾝ","kana_city":"ｻｻﾔﾏｼ","kana_address":"ｲｼｽﾞﾐ","pref":"兵庫県","city":"篠山市","address":"石住"},
{"zip_code":"6692406","kana_pref":"ﾋｮｳｺﾞｹﾝ","kana_city":"ｻｻﾔﾏｼ","kana_address":"ｲｽﾞﾐ","pref":"兵庫県","city":"篠山市","address":"泉"},
{"zip_code":"6692813","kana_pref":"ﾋｮｳｺﾞｹﾝ","kana_city":"ｻｻﾔﾏｼ","kana_address":"ｲﾁｲﾝﾀﾞﾆ","pref":"兵庫県","city":"篠山市","address":"一印谷"},
{"zip_code":"6692613","kana_pref":"ﾋｮｳｺﾞｹﾝ","kana_city":"ｻｻﾔﾏｼ","kana_address":"ｲﾁﾉﾉ","pref":"兵庫県","city":"篠山市","address":"市野々"},
{"zip_code":"6692718","kana_pref":"ﾋｮｳｺﾞｹﾝ","kana_city":"ｻｻﾔﾏｼ","kana_address":"ｲﾁﾔﾏ","pref":"兵庫県","city":"篠山市","address":"市山"},
{"zip_code":"6692335","kana_pref":"ﾋｮｳｺﾞｹﾝ","kana_city":"ｻｻﾔﾏｼ","kana_address":"ｲﾇｲｼﾝﾏﾁ","pref":"兵庫県","city":"篠山市","address":"乾新町"},
{"zip_code":"6692105","kana_pref":"ﾋｮｳｺﾞｹﾝ","kana_city":"ｻｻﾔﾏｼ","kana_address":"ｲﾇｶｲ","pref":"兵庫県","city":"篠山市","address":"犬飼"},
{"zip_code":"6692416","kana_pref":"ﾋｮｳｺﾞｹﾝ","kana_city":"ｻｻﾔﾏｼ","kana_address":"ｲﾉｳｴ","pref":"兵庫県","city":"篠山市","address":"井ノ上"},
{"zip_code":"6692304","kana_pref":"ﾋｮｳｺﾞｹﾝ","kana_city":"ｻｻﾔﾏｼ","kana_address":"ｲﾏﾀﾞﾆ","pref":"兵庫県","city":"篠山市","address":"今谷"},
{"zip_code":"6692357","kana_pref":"ﾋｮｳｺﾞｹﾝ","kana_city":"ｻｻﾔﾏｼ","kana_address":"ｲﾏﾌｸ","pref":"兵庫県","city":"篠山市","address":"今福"},
{"zip_code":"6692454","kana_pref":"ﾋｮｳｺﾞｹﾝ","kana_city":"ｻｻﾔﾏｼ","kana_address":"ｲﾜｻﾞｷ","pref":"兵庫県","city":"篠山市","address":"岩崎"},
{"zip_code":"6692336","kana_pref":"ﾋｮｳｺﾞｹﾝ","kana_city":"ｻｻﾔﾏｼ","kana_address":"ｳｵﾔﾏﾁ","pref":"兵庫県","city":"篠山市","address":"魚屋町"},
{"zip_code":"6692106","kana_pref":"ﾋｮｳｺﾞｹﾝ","kana_city":"ｻｻﾔﾏｼ","kana_address":"ｳｼｶﾞｾ","pref":"兵庫県","city":"篠山市","address":"牛ケ瀬"},
{"zip_code":"6692715","kana_pref":"ﾋｮｳｺﾞｹﾝ","kana_city":"ｻｻﾔﾏｼ","kana_address":"ｳﾁｻｶ","pref":"兵庫県","city":"篠山市","address":"打坂"},
{"zip_code":"6692455","kana_pref":"ﾋｮｳｺﾞｹﾝ","kana_city":"ｻｻﾔﾏｼ","kana_address":"ｳﾄﾞ","pref":"兵庫県","city":"篠山市","address":"宇土"},
{"zip_code":"6692801","kana_pref":"ﾋｮｳｺﾞｹﾝ","kana_city":"ｻｻﾔﾏｼ","kana_address":"ｵｲﾚ","pref":"兵庫県","city":"篠山市","address":"追入"},
{"zip_code":"6692306","kana_pref":"ﾋｮｳｺﾞｹﾝ","kana_city":"ｻｻﾔﾏｼ","kana_address":"ｵｵｶﾞﾐ","pref":"兵庫県","city":"篠山市","address":"大上"},
{"zip_code":"6692318","kana_pref":"ﾋｮｳｺﾞｹﾝ","kana_city":"ｻｻﾔﾏｼ","kana_address":"ｵｵｸﾏ","pref":"兵庫県","city":"篠山市","address":"大熊"},
{"zip_code":"6692212","kana_pref":"ﾋｮｳｺﾞｹﾝ","kana_city":"ｻｻﾔﾏｼ","kana_address":"ｵｵｻﾞﾜ","pref":"兵庫県","city":"篠山市","address":"大沢"},
{"zip_code":"6692211","kana_pref":"ﾋｮｳｺﾞｹﾝ","kana_city":"ｻｻﾔﾏｼ","kana_address":"ｵｵｻﾞﾜｼﾝ","pref":"兵庫県","city":"篠山市","address":"大沢新"},
{"zip_code":"6692363","kana_pref":"ﾋｮｳｺﾞｹﾝ","kana_city":"ｻｻﾔﾏｼ","kana_address":"ｵｵﾀﾆ","pref":"兵庫県","city":"篠山市","address":"大谷"},
{"zip_code":"6692355","kana_pref":"ﾋｮｳｺﾞｹﾝ","kana_city":"ｻｻﾔﾏｼ","kana_address":"ｵｵﾉ","pref":"兵庫県","city":"篠山市","address":"大野"},
{"zip_code":"6692611","kana_pref":"ﾋｮｳｺﾞｹﾝ","kana_city":"ｻｻﾔﾏｼ","kana_address":"ｵｵﾌｼﾞ","pref":"兵庫県","city":"篠山市","address":"大藤"},
{"zip_code":"6692309","kana_pref":"ﾋｮｳｺﾞｹﾝ","kana_city":"ｻｻﾔﾏｼ","kana_address":"ｵｵﾌﾞﾁ","pref":"兵庫県","city":"篠山市","address":"大渕"},
{"zip_code":"6692803","kana_pref":"ﾋｮｳｺﾞｹﾝ","kana_city":"ｻｻﾔﾏｼ","kana_address":"ｵｵﾔﾏｶﾐ","pref":"兵庫県","city":"篠山市","address":"大山上"},
{"zip_code":"6692823","kana_pref":"ﾋｮｳｺﾞｹﾝ","kana_city":"ｻｻﾔﾏｼ","kana_address":"ｵｵﾔﾏｼﾓ","pref":"兵庫県","city":"篠山市","address":"大山下"},
{"zip_code":"6692827","kana_pref":"ﾋｮｳｺﾞｹﾝ","kana_city":"ｻｻﾔﾏｼ","kana_address":"ｵｵﾔﾏｼﾝ","pref":"兵庫県","city":"篠山市","address":"大山新"},
{"zip_code":"6692802","kana_pref":"ﾋｮｳｺﾞｹﾝ","kana_city":"ｻｻﾔﾏｼ","kana_address":"ｵｵﾔﾏﾐﾔ","pref":"兵庫県","city":"篠山市","address":"大山宮"},
{"zip_code":"6692326","kana_pref":"ﾋｮｳｺﾞｹﾝ","kana_city":"ｻｻﾔﾏｼ","kana_address":"ｵｶﾞﾜﾏﾁ","pref":"兵庫県","city":"篠山市","address":"小川町"},
{"zip_code":"6692401","kana_pref":"ﾋｮｳｺﾞｹﾝ","kana_city":"ｻｻﾔﾏｼ","kana_address":"ｵｸｱｶﾞﾀﾓﾘ","pref":"兵庫県","city":"篠山市","address":"奥県守"},
{"zip_code":"6692302","kana_pref":"ﾋｮｳｺﾞｹﾝ","kana_city":"ｻｻﾔﾏｼ","kana_address":"ｵｸﾊﾀ","pref":"兵庫県","city":"篠山市","address":"奥畑"},
{"zip_code":"6692501","kana_pref":"ﾋｮｳｺﾞｹﾝ","kana_city":"ｻｻﾔﾏｼ","kana_address":"ｵｸﾊﾗﾔﾏ","pref":"兵庫県","city":"篠山市","address":"奥原山"},
{"zip_code":"6692616","kana_pref":"ﾋｮｳｺﾞｹﾝ","kana_city":"ｻｻﾔﾏｼ","kana_address":"ｵｸﾔﾏ","pref":"兵庫県","city":"篠山市","address":"奥山"},
{"zip_code":"6692614","kana_pref":"ﾋｮｳｺﾞｹﾝ","kana_city":"ｻｻﾔﾏｼ","kana_address":"ｵｸﾞﾗ","pref":"兵庫県","city":"篠山市","address":"小倉"},
{"zip_code":"6692731","kana_pref":"ﾋｮｳｺﾞｹﾝ","kana_city":"ｻｻﾔﾏｼ","kana_address":"ｵｻｶ","pref":"兵庫県","city":"篠山市","address":"小坂"},
{"zip_code":"6692435","kana_pref":"ﾋｮｳｺﾞｹﾝ","kana_city":"ｻｻﾔﾏｼ","kana_address":"ｵﾀﾀﾞ","pref":"兵庫県","city":"篠山市","address":"小多田"},
{"zip_code":"6692532","kana_pref":"ﾋｮｳｺﾞｹﾝ","kana_city":"ｻｻﾔﾏｼ","kana_address":"ｵﾀﾞﾁ","pref":"兵庫県","city":"篠山市","address":"小立"},
{"zip_code":"6692704","kana_pref":"ﾋｮｳｺﾞｹﾝ","kana_city":"ｻｻﾔﾏｼ","kana_address":"ｵﾁｶﾀ","pref":"兵庫県","city":"篠山市","address":"遠方"},
{"zip_code":"6692522","kana_pref":"ﾋｮｳｺﾞｹﾝ","kana_city":"ｻｻﾔﾏｼ","kana_address":"ｵﾉｵｸﾀﾞﾆ","pref":"兵庫県","city":"篠山市","address":"小野奥谷"},
{"zip_code":"6692523","kana_pref":"ﾋｮｳｺﾞｹﾝ","kana_city":"ｻｻﾔﾏｼ","kana_address":"ｵﾉｼﾝ","pref":"兵庫県","city":"篠山市","address":"小野新"},
{"zip_code":"6692604","kana_pref":"ﾋｮｳｺﾞｹﾝ","kana_city":"ｻｻﾔﾏｼ","kana_address":"ｵﾊﾞﾗ","pref":"兵庫県","city":"篠山市","address":"小原"},
{"zip_code":"6692554","kana_pref":"ﾋｮｳｺﾞｹﾝ","kana_city":"ｻｻﾔﾏｼ","kana_address":"ｶｲﾀ","pref":"兵庫県","city":"篠山市","address":"貝田"},
{"zip_code":"6692714","kana_pref":"ﾋｮｳｺﾞｹﾝ","kana_city":"ｻｻﾔﾏｼ","kana_address":"ｶｷﾔ","pref":"兵庫県","city":"篠山市","address":"垣屋"},
{"zip_code":"6692408","kana_pref":"ﾋｮｳｺﾞｹﾝ","kana_city":"ｻｻﾔﾏｼ","kana_address":"ｶｽｶﾞｴ","pref":"兵庫県","city":"篠山市","address":"春日江"},
{"zip_code":"6692732","kana_pref":"ﾋｮｳｺﾞｹﾝ","kana_city":"ｻｻﾔﾏｼ","kana_address":"ｶﾐｲﾀｲ","pref":"兵庫県","city":"篠山市","address":"上板井"},
{"zip_code":"6692534","kana_pref":"ﾋｮｳｺﾞｹﾝ","kana_city":"ｻｻﾔﾏｼ","kana_address":"ｶﾐｻｻﾐ","pref":"兵庫県","city":"篠山市","address":"上筱見"},
{"zip_code":"6692415","kana_pref":"ﾋｮｳｺﾞｹﾝ","kana_city":"ｻｻﾔﾏｼ","kana_address":"ｶﾐｼﾞｭｸ","pref":"兵庫県","city":"篠山市","address":"上宿"},
{"zip_code":"6692722","kana_pref":"ﾋｮｳｺﾞｹﾝ","kana_city":"ｻｻﾔﾏｼ","kana_address":"ｶﾜｳﾁﾀﾞｲ","pref":"兵庫県","city":"篠山市","address":"河内台"},
{"zip_code":"6692724","kana_pref":"ﾋｮｳｺﾞｹﾝ","kana_city":"ｻｻﾔﾏｼ","kana_address":"ｶﾜｷﾞﾀ","pref":"兵庫県","city":"篠山市","address":"川北"},
{"zip_code":"6692725","kana_pref":"ﾋｮｳｺﾞｹﾝ","kana_city":"ｻｻﾔﾏｼ","kana_address":"ｶﾜｷﾞﾀｼﾝﾃﾞﾝ","pref":"兵庫県","city":"篠山市","address":"川北新田"},
{"zip_code":"6692701","kana_pref":"ﾋｮｳｺﾞｹﾝ","kana_city":"ｻｻﾔﾏｼ","kana_address":"ｶﾜｻｶ","pref":"兵庫県","city":"篠山市","address":"川阪"},
{"zip_code":"6692735","kana_pref":"ﾋｮｳｺﾞｹﾝ","kana_city":"ｻｻﾔﾏｼ","kana_address":"ｶﾜﾆｼ","pref":"兵庫県","city":"篠山市","address":"川西"},
{"zip_code":"6692512","kana_pref":"ﾋｮｳｺﾞｹﾝ","kana_city":"ｻｻﾔﾏｼ","kana_address":"ｶﾜﾗ","pref":"兵庫県","city":"篠山市","address":"川原"},
{"zip_code":"6692325","kana_pref":"ﾋｮｳｺﾞｹﾝ","kana_city":"ｻｻﾔﾏｼ","kana_address":"ｶﾜﾗﾏﾁ","pref":"兵庫県","city":"篠山市","address":"河原町"},
{"zip_code":"6692451","kana_pref":"ﾋｮｳｺﾞｹﾝ","kana_city":"ｻｻﾔﾏｼ","kana_address":"ｷﾀ","pref":"兵庫県","city":"篠山市","address":"北"},
{"zip_code":"6692317","kana_pref":"ﾋｮｳｺﾞｹﾝ","kana_city":"ｻｻﾔﾏｼ","kana_address":"ｷﾀｻﾜﾀﾞ","pref":"兵庫県","city":"篠山市","address":"北沢田"},
{"zip_code":"6692417","kana_pref":"ﾋｮｳｺﾞｹﾝ","kana_city":"ｻｻﾔﾏｼ","kana_address":"ｷﾀｼﾞﾏ","pref":"兵庫県","city":"篠山市","address":"北島"},
{"zip_code":"6692332","kana_pref":"ﾋｮｳｺﾞｹﾝ","kana_city":"ｻｻﾔﾏｼ","kana_address":"ｷﾀｼﾝﾏﾁ","pref":"兵庫県","city":"篠山市","address":"北新町"},
{"zip_code":"6692824","kana_pref":"ﾋｮｳｺﾞｹﾝ","kana_city":"ｻｻﾔﾏｼ","kana_address":"ｷﾀﾉ","pref":"兵庫県","city":"篠山市","address":"北野"},
{"zip_code":"6692825","kana_pref":"ﾋｮｳｺﾞｹﾝ","kana_city":"ｻｻﾔﾏｼ","kana_address":"ｷﾀﾉｼﾝﾃﾞﾝ","pref":"兵庫県","city":"篠山市","address":"北野新田"},
{"zip_code":"6692438","kana_pref":"ﾋｮｳｺﾞｹﾝ","kana_city":"ｻｻﾔﾏｼ","kana_address":"ｷｮｳﾏﾁ","pref":"兵庫県","city":"篠山市","address":"京町"},
{"zip_code":"6692113","kana_pref":"ﾋｮｳｺﾞｹﾝ","kana_city":"ｻｻﾔﾏｼ","kana_address":"ｸｻﾉ","pref":"兵庫県","city":"篠山市","address":"草野"},
{"zip_code":"6692544","kana_pref":"ﾋｮｳｺﾞｹﾝ","kana_city":"ｻｻﾔﾏｼ","kana_address":"ｸｻﾉｶﾐ","pref":"兵庫県","city":"篠山市","address":"草ノ上"},
{"zip_code":"6692723","kana_pref":"ﾋｮｳｺﾞｹﾝ","kana_city":"ｻｻﾔﾏｼ","kana_address":"ｸﾁｻｶﾓﾄ","pref":"兵庫県","city":"篠山市","address":"口阪本"},
{"zip_code":"6692367","kana_pref":"ﾋｮｳｺﾞｹﾝ","kana_city":"ｻｻﾔﾏｼ","kana_address":"ｸﾏﾀﾞﾆ","pref":"兵庫県","city":"篠山市","address":"熊谷"},
{"zip_code":"6692407","kana_pref":"ﾋｮｳｺﾞｹﾝ","kana_city":"ｻｻﾔﾏｼ","kana_address":"ｸﾗﾀﾆ","pref":"兵庫県","city":"篠山市","address":"倉谷"},
{"zip_code":"6692713","kana_pref":"ﾋｮｳｺﾞｹﾝ","kana_city":"ｻｻﾔﾏｼ","kana_address":"ｸﾗﾓﾄ","pref":"兵庫県","city":"篠山市","address":"倉本"},
{"zip_code":"6692711","kana_pref":"ﾋｮｳｺﾞｹﾝ","kana_city":"ｻｻﾔﾏｼ","kana_address":"ｸﾘｶﾗ","pref":"兵庫県","city":"篠山市","address":"栗柄"},
{"zip_code":"6692465","kana_pref":"ﾋｮｳｺﾞｹﾝ","kana_city":"ｻｻﾔﾏｼ","kana_address":"ｸﾘｽﾉ","pref":"兵庫県","city":"篠山市","address":"栗栖野"},
{"zip_code":"6692321","kana_pref":"ﾋｮｳｺﾞｹﾝ","kana_city":"ｻｻﾔﾏｼ","kana_address":"ｸﾛｵｶ","pref":"兵庫県","city":"篠山市","address":"黒岡"},
{"zip_code":"6692726","kana_pref":"ﾋｮｳｺﾞｹﾝ","kana_city":"ｻｻﾔﾏｼ","kana_address":"ｸﾛﾀﾞ","pref":"兵庫県","city":"篠山市","address":"黒田"},
{"zip_code":"6692703","kana_pref":"ﾋｮｳｺﾞｹﾝ","kana_city":"ｻｻﾔﾏｼ","kana_address":"ｸﾜﾊﾞﾗ","pref":"兵庫県","city":"篠山市","address":"桑原"},
{"zip_code":"6692341","kana_pref":"ﾋｮｳｺﾞｹﾝ","kana_city":"ｻｻﾔﾏｼ","kana_address":"ｸﾞﾝｹﾞ","pref":"兵庫県","city":"篠山市","address":"郡家"},
{"zip_code":"6692112","kana_pref":"ﾋｮｳｺﾞｹﾝ","kana_city":"ｻｻﾔﾏｼ","kana_address":"ｺｳﾓﾘ","pref":"兵庫県","city":"篠山市","address":"古森"},
{"zip_code":"6692545","kana_pref":"ﾋｮｳｺﾞｹﾝ","kana_city":"ｻｻﾔﾏｼ","kana_address":"ｺﾀﾞﾅｶ","pref":"兵庫県","city":"篠山市","address":"小田中"},
{"zip_code":"6692412","kana_pref":"ﾋｮｳｺﾞｹﾝ","kana_city":"ｻｻﾔﾏｼ","kana_address":"ｺﾅｶ","pref":"兵庫県","city":"篠山市","address":"小中"},
{"zip_code":"6692124","kana_pref":"ﾋｮｳｺﾞｹﾝ","kana_city":"ｻｻﾔﾏｼ","kana_address":"ｺﾉｻｶ","pref":"兵庫県","city":"篠山市","address":"不来坂"},
{"zip_code":"6692322","kana_pref":"ﾋｮｳｺﾞｹﾝ","kana_city":"ｻｻﾔﾏｼ","kana_address":"ｺﾞﾌｸﾏﾁ","pref":"兵庫県","city":"篠山市","address":"呉服町"},
{"zip_code":"6692461","kana_pref":"ﾋｮｳｺﾞｹﾝ","kana_city":"ｻｻﾔﾏｼ","kana_address":"ｺﾏｸﾗ","pref":"兵庫県","city":"篠山市","address":"小枕"},
{"zip_code":"6692144","kana_pref":"ﾋｮｳｺﾞｹﾝ","kana_city":"ｻｻﾔﾏｼ","kana_address":"ｺﾝﾀﾞﾁｮｳｱｲｼﾝﾃﾞﾝ","pref":"兵庫県","city":"篠山市","address":"今田町間新田"},
{"zip_code":"6692155","kana_pref":"ﾋｮｳｺﾞｹﾝ","kana_city":"ｻｻﾔﾏｼ","kana_address":"ｺﾝﾀﾞﾁｮｳｱｼﾊﾗｼﾝﾃﾞﾝ","pref":"兵庫県","city":"篠山市","address":"今田町芦原新田"},
{"zip_code":"6692154","kana_pref":"ﾋｮｳｺﾞｹﾝ","kana_city":"ｻｻﾔﾏｼ","kana_address":"ｺﾝﾀﾞﾁｮｳｲﾁﾊﾗ","pref":"兵庫県","city":"篠山市","address":"今田町市原"},
{"zip_code":"6692152","kana_pref":"ﾋｮｳｺﾞｹﾝ","kana_city":"ｻｻﾔﾏｼ","kana_address":"ｺﾝﾀﾞﾁｮｳｵｷﾞﾉﾌﾞﾝ","pref":"兵庫県","city":"篠山市","address":"今田町荻野分"},
{"zip_code":"6692143","kana_pref":"ﾋｮｳｺﾞｹﾝ","kana_city":"ｻｻﾔﾏｼ","kana_address":"ｺﾝﾀﾞﾁｮｳｶﾏﾔ","pref":"兵庫県","city":"篠山市","address":"今田町釜屋"},
{"zip_code":"6692132","kana_pref":"ﾋｮｳｺﾞｹﾝ","kana_city":"ｻｻﾔﾏｼ","kana_address":"ｺﾝﾀﾞﾁｮｳｶﾐｵﾉﾊﾞﾗ","pref":"兵庫県","city":"篠山市","address":"今田町上小野原"},
{"zip_code":"6692135","kana_pref":"ﾋｮｳｺﾞｹﾝ","kana_city":"ｻｻﾔﾏｼ","kana_address":"ｺﾝﾀﾞﾁｮｳｶﾐﾀﾁｸｲ","pref":"兵庫県","city":"篠山市","address":"今田町上立杭"},
{"zip_code":"6692162","kana_pref":"ﾋｮｳｺﾞｹﾝ","kana_city":"ｻｻﾔﾏｼ","kana_address":"ｺﾝﾀﾞﾁｮｳｸﾛｲｼ","pref":"兵庫県","city":"篠山市","address":"今田町黒石"},
{"zip_code":"6692145","kana_pref":"ﾋｮｳｺﾞｹﾝ","kana_city":"ｻｻﾔﾏｼ","kana_address":"ｺﾝﾀﾞﾁｮｳｺﾂ","pref":"兵庫県","city":"篠山市","address":"今田町木津"},
{"zip_code":"6692151","kana_pref":"ﾋｮｳｺﾞｹﾝ","kana_city":"ｻｻﾔﾏｼ","kana_address":"ｺﾝﾀﾞﾁｮｳｺﾝﾀﾞ","pref":"兵庫県","city":"篠山市","address":"今田町今田"},
{"zip_code":"6692153","kana_pref":"ﾋｮｳｺﾞｹﾝ","kana_city":"ｻｻﾔﾏｼ","kana_address":"ｺﾝﾀﾞﾁｮｳｺﾝﾀﾞｼﾝﾃﾞﾝ","pref":"兵庫県","city":"篠山市","address":"今田町今田新田"},
{"zip_code":"6692156","kana_pref":"ﾋｮｳｺﾞｹﾝ","kana_city":"ｻｻﾔﾏｼ","kana_address":"ｺﾝﾀﾞﾁｮｳｻｿﾗｼﾝﾃﾞﾝ","pref":"兵庫県","city":"篠山市","address":"今田町佐曽良新田"},
{"zip_code":"6692161","kana_pref":"ﾋｮｳｺﾞｹﾝ","kana_city":"ｻｻﾔﾏｼ","kana_address":"ｺﾝﾀﾞﾁｮｳｼﾄﾀﾞﾆ","pref":"兵庫県","city":"篠山市","address":"今田町四斗谷"},
{"zip_code":"6692133","kana_pref":"ﾋｮｳｺﾞｹﾝ","kana_city":"ｻｻﾔﾏｼ","kana_address":"ｺﾝﾀﾞﾁｮｳｼﾓｵﾉﾊﾞﾗ","pref":"兵庫県","city":"篠山市","address":"今田町下小野原"},
{"zip_code":"6692141","kana_pref":"ﾋｮｳｺﾞｹﾝ","kana_city":"ｻｻﾔﾏｼ","kana_address":"ｺﾝﾀﾞﾁｮｳｼﾓﾀﾁｸｲ","pref":"兵庫県","city":"篠山市","address":"今田町下立杭"},
{"zip_code":"6692131","kana_pref":"ﾋｮｳｺﾞｹﾝ","kana_city":"ｻｻﾔﾏｼ","kana_address":"ｺﾝﾀﾞﾁｮｳﾀﾂﾐ","pref":"兵庫県","city":"篠山市","address":"今田町辰巳"},
{"zip_code":"6692142","kana_pref":"ﾋｮｳｺﾞｹﾝ","kana_city":"ｻｻﾔﾏｼ","kana_address":"ｺﾝﾀﾞﾁｮｳﾋｶﾞｼｼｮｳ","pref":"兵庫県","city":"篠山市","address":"今田町東庄"},
{"zip_code":"6692163","kana_pref":"ﾋｮｳｺﾞｹﾝ","kana_city":"ｻｻﾔﾏｼ","kana_address":"ｺﾝﾀﾞﾁｮｳﾎﾝｼﾞｮｳ","pref":"兵庫県","city":"篠山市","address":"今田町本荘"},
{"zip_code":"6692134","kana_pref":"ﾋｮｳｺﾞｹﾝ","kana_city":"ｻｻﾔﾏｼ","kana_address":"ｺﾝﾀﾞﾁｮｳﾔｽﾝﾊﾞ","pref":"兵庫県","city":"篠山市","address":"今田町休場"},
{"zip_code":"6692542","kana_pref":"ﾋｮｳｺﾞｹﾝ","kana_city":"ｻｻﾔﾏｼ","kana_address":"ｻｲｸｼﾞｮ","pref":"兵庫県","city":"篠山市","address":"細工所"},
{"zip_code":"6692712","kana_pref":"ﾋｮｳｺﾞｹﾝ","kana_city":"ｻｻﾔﾏｼ","kana_address":"ｻｶﾓﾄ","pref":"兵庫県","city":"篠山市","address":"坂本"},
{"zip_code":"6692365","kana_pref":"ﾋｮｳｺﾞｹﾝ","kana_city":"ｻｻﾔﾏｼ","kana_address":"ｻｸﾗ","pref":"兵庫県","city":"篠山市","address":"佐倉"},
{"zip_code":"6692405","kana_pref":"ﾋｮｳｺﾞｹﾝ","kana_city":"ｻｻﾔﾏｼ","kana_address":"ｻﾇｷﾀﾞﾆ","pref":"兵庫県","city":"篠山市","address":"佐貫谷"},
{"zip_code":"6692425","kana_pref":"ﾋｮｳｺﾞｹﾝ","kana_city":"ｻｻﾔﾏｼ","kana_address":"ｼﾂｶﾜｵｸ","pref":"兵庫県","city":"篠山市","address":"後川奥"},
{"zip_code":"6692422","kana_pref":"ﾋｮｳｺﾞｹﾝ","kana_city":"ｻｻﾔﾏｼ","kana_address":"ｼﾂｶﾜｶﾐ","pref":"兵庫県","city":"篠山市","address":"後川上"},
{"zip_code":"6692424","kana_pref":"ﾋｮｳｺﾞｹﾝ","kana_city":"ｻｻﾔﾏｼ","kana_address":"ｼﾂｶﾜｼﾓ","pref":"兵庫県","city":"篠山市","address":"後川下"},
{"zip_code":"6692421","kana_pref":"ﾋｮｳｺﾞｹﾝ","kana_city":"ｻｻﾔﾏｼ","kana_address":"ｼﾂｶﾜｼﾝﾃﾞﾝ","pref":"兵庫県","city":"篠山市","address":"後川新田"},
{"zip_code":"6692423","kana_pref":"ﾋｮｳｺﾞｹﾝ","kana_city":"ｻｻﾔﾏｼ","kana_address":"ｼﾂｶﾜﾅｶ","pref":"兵庫県","city":"篠山市","address":"後川中"},
{"zip_code":"6692439","kana_pref":"ﾋｮｳｺﾞｹﾝ","kana_city":"ｻｻﾔﾏｼ","kana_address":"ｼﾌﾞﾀﾆ","pref":"兵庫県","city":"篠山市","address":"渋谷"},
{"zip_code":"6692733","kana_pref":"ﾋｮｳｺﾞｹﾝ","kana_city":"ｻｻﾔﾏｼ","kana_address":"ｼﾓｲﾀｲ","pref":"兵庫県","city":"篠山市","address":"下板井"},
{"zip_code":"6692535","kana_pref":"ﾋｮｳｺﾞｹﾝ","kana_city":"ｻｻﾔﾏｼ","kana_address":"ｼﾓｻｻﾐ","pref":"兵庫県","city":"篠山市","address":"下筱見"},
{"zip_code":"6692503","kana_pref":"ﾋｮｳｺﾞｹﾝ","kana_city":"ｻｻﾔﾏｼ","kana_address":"ｼﾓﾊﾗﾔﾏ","pref":"兵庫県","city":"篠山市","address":"下原山"},
{"zip_code":"6692543","kana_pref":"ﾋｮｳｺﾞｹﾝ","kana_city":"ｻｻﾔﾏｼ","kana_address":"ｼｮｳｶ","pref":"兵庫県","city":"篠山市","address":"塩岡"},
{"zip_code":"6692311","kana_pref":"ﾋｮｳｺﾞｹﾝ","kana_city":"ｻｻﾔﾏｼ","kana_address":"ｼﾝｼﾞｮｳ","pref":"兵庫県","city":"篠山市","address":"新荘"},
{"zip_code":"6692204","kana_pref":"ﾋｮｳｺﾞｹﾝ","kana_city":"ｻｻﾔﾏｼ","kana_address":"ｽｷﾞ","pref":"兵庫県","city":"篠山市","address":"杉"},
{"zip_code":"6692312","kana_pref":"ﾋｮｳｺﾞｹﾝ","kana_city":"ｻｻﾔﾏｼ","kana_address":"ｽｹﾞ","pref":"兵庫県","city":"篠山市","address":"菅"},
{"zip_code":"6692315","kana_pref":"ﾋｮｳｺﾞｹﾝ","kana_city":"ｻｻﾔﾏｼ","kana_address":"ｽｼﾞﾔﾏ","pref":"兵庫県","city":"篠山市","address":"筋山"},
{"zip_code":"6692125","kana_pref":"ﾋｮｳｺﾞｹﾝ","kana_city":"ｻｻﾔﾏｼ","kana_address":"ｽﾐﾔﾏ","pref":"兵庫県","city":"篠山市","address":"住山"},
{"zip_code":"6692231","kana_pref":"ﾋｮｳｺﾞｹﾝ","kana_city":"ｻｻﾔﾏｼ","kana_address":"ｽﾐﾖｼﾀﾞｲ","pref":"兵庫県","city":"篠山市","address":"住吉台"},
{"zip_code":"6692303","kana_pref":"ﾋｮｳｺﾞｹﾝ","kana_city":"ｻｻﾔﾏｼ","kana_address":"ｾﾘ","pref":"兵庫県","city":"篠山市","address":"瀬利"},
{"zip_code":"6692444","kana_pref":"ﾋｮｳｺﾞｹﾝ","kana_city":"ｻｻﾔﾏｼ","kana_address":"ｿｳｼﾞｵｸ","pref":"兵庫県","city":"篠山市","address":"曽地奥"},
{"zip_code":"6692442","kana_pref":"ﾋｮｳｺﾞｹﾝ","kana_city":"ｻｻﾔﾏｼ","kana_address":"ｿｳｼﾞｸﾁ","pref":"兵庫県","city":"篠山市","address":"曽地口"},
{"zip_code":"6692443","kana_pref":"ﾋｮｳｺﾞｹﾝ","kana_city":"ｻｻﾔﾏｼ","kana_address":"ｿｳｼﾞﾅｶ","pref":"兵庫県","city":"篠山市","address":"曽地中"},
{"zip_code":"6692805","kana_pref":"ﾋｮｳｺﾞｹﾝ","kana_city":"ｻｻﾔﾏｼ","kana_address":"ｿﾉﾀﾞﾌﾞﾝ","pref":"兵庫県","city":"篠山市","address":"園田分"},
{"zip_code":"6692812","kana_pref":"ﾋｮｳｺﾞｹﾝ","kana_city":"ｻｻﾔﾏｼ","kana_address":"ﾀｶｸﾗ","pref":"兵庫県","city":"篠山市","address":"高倉"},
{"zip_code":"6692717","kana_pref":"ﾋｮｳｺﾞｹﾝ","kana_city":"ｻｻﾔﾏｼ","kana_address":"ﾀｶｻｶ","pref":"兵庫県","city":"篠山市","address":"高坂"},
{"zip_code":"6692727","kana_pref":"ﾋｮｳｺﾞｹﾝ","kana_city":"ｻｻﾔﾏｼ","kana_address":"ﾀｶﾔ","pref":"兵庫県","city":"篠山市","address":"高屋"},
{"zip_code":"6692612","kana_pref":"ﾋｮｳｺﾞｹﾝ","kana_city":"ｻｻﾔﾏｼ","kana_address":"ﾀﾂｶﾞﾈ","pref":"兵庫県","city":"篠山市","address":"立金"},
{"zip_code":"6692323","kana_pref":"ﾋｮｳｺﾞｹﾝ","kana_city":"ｻｻﾔﾏｼ","kana_address":"ﾀﾂﾏﾁ","pref":"兵庫県","city":"篠山市","address":"立町"},
{"zip_code":"6692453","kana_pref":"ﾋｮｳｺﾞｹﾝ","kana_city":"ｻｻﾔﾏｼ","kana_address":"ﾀﾆﾔﾏ","pref":"兵庫県","city":"篠山市","address":"谷山"},
{"zip_code":"6692531","kana_pref":"ﾋｮｳｺﾞｹﾝ","kana_city":"ｻｻﾔﾏｼ","kana_address":"ﾀﾙﾐ","pref":"兵庫県","city":"篠山市","address":"垂水"},
{"zip_code":"6692362","kana_pref":"ﾋｮｳｺﾞｹﾝ","kana_city":"ｻｻﾔﾏｼ","kana_address":"ﾁｿｸ","pref":"兵庫県","city":"篠山市","address":"知足"},
{"zip_code":"6692814","kana_pref":"ﾋｮｳｺﾞｹﾝ","kana_city":"ｻｻﾔﾏｼ","kana_address":"ﾁｮｳｱﾝｼﾞ","pref":"兵庫県","city":"篠山市","address":"長安寺"},
{"zip_code":"6692815","kana_pref":"ﾋｮｳｺﾞｹﾝ","kana_city":"ｻｻﾔﾏｼ","kana_address":"ﾁｮｳﾉﾀ","pref":"兵庫県","city":"篠山市","address":"町ノ田"},
{"zip_code":"6692411","kana_pref":"ﾋｮｳｺﾞｹﾝ","kana_city":"ｻｻﾔﾏｼ","kana_address":"ﾂｼﾞ","pref":"兵庫県","city":"篠山市","address":"辻"},
{"zip_code":"6692366","kana_pref":"ﾋｮｳｺﾞｹﾝ","kana_city":"ｻｻﾔﾏｼ","kana_address":"ﾃﾗｳﾁ","pref":"兵庫県","city":"篠山市","address":"寺内"},
{"zip_code":"6692821","kana_pref":"ﾋｮｳｺﾞｹﾝ","kana_city":"ｻｻﾔﾏｼ","kana_address":"ﾄｳｺｳﾁ","pref":"兵庫県","city":"篠山市","address":"東河地"},
{"zip_code":"6692111","kana_pref":"ﾋｮｳｺﾞｹﾝ","kana_city":"ｻｻﾔﾏｼ","kana_address":"ﾄｳﾉ","pref":"兵庫県","city":"篠山市","address":"当野"},
{"zip_code":"6692826","kana_pref":"ﾋｮｳｺﾞｹﾝ","kana_city":"ｻｻﾔﾏｼ","kana_address":"ﾄｸﾅｶﾞ","pref":"兵庫県","city":"篠山市","address":"徳永"},
{"zip_code":"6692525","kana_pref":"ﾋｮｳｺﾞｹﾝ","kana_city":"ｻｻﾔﾏｼ","kana_address":"ﾄﾁﾅｼ","pref":"兵庫県","city":"篠山市","address":"栃梨"},
{"zip_code":"6692434","kana_pref":"ﾋｮｳｺﾞｹﾝ","kana_city":"ｻｻﾔﾏｼ","kana_address":"ﾄﾉﾏﾁ","pref":"兵庫県","city":"篠山市","address":"殿町"},
{"zip_code":"6692601","kana_pref":"ﾋｮｳｺﾞｹﾝ","kana_city":"ｻｻﾔﾏｼ","kana_address":"ﾅｶ","pref":"兵庫県","city":"篠山市","address":"中"},
{"zip_code":"6692213","kana_pref":"ﾋｮｳｺﾞｹﾝ","kana_city":"ｻｻﾔﾏｼ","kana_address":"ﾅｶﾉ","pref":"兵庫県","city":"篠山市","address":"中野"},
{"zip_code":"6692502","kana_pref":"ﾋｮｳｺﾞｹﾝ","kana_city":"ｻｻﾔﾏｼ","kana_address":"ﾅｶﾊﾗﾔﾏ","pref":"兵庫県","city":"篠山市","address":"中原山"},
{"zip_code":"6692331","kana_pref":"ﾋｮｳｺﾞｹﾝ","kana_city":"ｻｻﾔﾏｼ","kana_address":"ﾆｶｲﾏﾁ","pref":"兵庫県","city":"篠山市","address":"二階町"},
{"zip_code":"6692346","kana_pref":"ﾋｮｳｺﾞｹﾝ","kana_city":"ｻｻﾔﾏｼ","kana_address":"ﾆｼｵｶﾔ","pref":"兵庫県","city":"篠山市","address":"西岡屋"},
{"zip_code":"6692736","kana_pref":"ﾋｮｳｺﾞｹﾝ","kana_city":"ｻｻﾔﾏｼ","kana_address":"ﾆｼｷﾉﾍﾞ","pref":"兵庫県","city":"篠山市","address":"西木之部"},
{"zip_code":"6692221","kana_pref":"ﾋｮｳｺﾞｹﾝ","kana_city":"ｻｻﾔﾏｼ","kana_address":"ﾆｼｺｻ","pref":"兵庫県","city":"篠山市","address":"西古佐"},
{"zip_code":"6692728","kana_pref":"ﾋｮｳｺﾞｹﾝ","kana_city":"ｻｻﾔﾏｼ","kana_address":"ﾆｼｻｶﾓﾄ","pref":"兵庫県","city":"篠山市","address":"西阪本"},
{"zip_code":"6692447","kana_pref":"ﾋｮｳｺﾞｹﾝ","kana_city":"ｻｻﾔﾏｼ","kana_address":"ﾆｼｼﾞｮｳ","pref":"兵庫県","city":"篠山市","address":"西荘"},
{"zip_code":"6692334","kana_pref":"ﾋｮｳｺﾞｹﾝ","kana_city":"ｻｻﾔﾏｼ","kana_address":"ﾆｼｼﾝﾏﾁ","pref":"兵庫県","city":"篠山市","address":"西新町"},
{"zip_code":"6692721","kana_pref":"ﾋｮｳｺﾞｹﾝ","kana_city":"ｻｻﾔﾏｼ","kana_address":"ﾆｼﾀﾆ","pref":"兵庫県","city":"篠山市","address":"西谷"},
{"zip_code":"6692504","kana_pref":"ﾋｮｳｺﾞｹﾝ","kana_city":"ｻｻﾔﾏｼ","kana_address":"ﾆｼﾉﾉ","pref":"兵庫県","city":"篠山市","address":"西野々"},
{"zip_code":"6692352","kana_pref":"ﾋｮｳｺﾞｹﾝ","kana_city":"ｻｻﾔﾏｼ","kana_address":"ﾆｼﾊﾏﾀﾞﾆ","pref":"兵庫県","city":"篠山市","address":"西浜谷"},
{"zip_code":"6692206","kana_pref":"ﾋｮｳｺﾞｹﾝ","kana_city":"ｻｻﾔﾏｼ","kana_address":"ﾆｼﾌﾞｷ","pref":"兵庫県","city":"篠山市","address":"西吹"},
{"zip_code":"6692404","kana_pref":"ﾋｮｳｺﾞｹﾝ","kana_city":"ｻｻﾔﾏｼ","kana_address":"ﾆｼﾎﾝｼﾞｮｳ","pref":"兵庫県","city":"篠山市","address":"西本荘"},
{"zip_code":"6692342","kana_pref":"ﾋｮｳｺﾞｹﾝ","kana_city":"ｻｻﾔﾏｼ","kana_address":"ﾆｼﾏﾁ","pref":"兵庫県","city":"篠山市","address":"西町"},
{"zip_code":"6692433","kana_pref":"ﾋｮｳｺﾞｹﾝ","kana_city":"ｻｻﾔﾏｼ","kana_address":"ﾆｼﾔｶﾐ","pref":"兵庫県","city":"篠山市","address":"西八上"},
{"zip_code":"6692521","kana_pref":"ﾋｮｳｺﾞｹﾝ","kana_city":"ｻｻﾔﾏｼ","kana_address":"ﾆﾉﾂﾎﾞ","pref":"兵庫県","city":"篠山市","address":"二之坪"},
{"zip_code":"6692353","kana_pref":"ﾋｮｳｺﾞｹﾝ","kana_city":"ｻｻﾔﾏｼ","kana_address":"ﾉｼﾞﾘ","pref":"兵庫県","city":"篠山市","address":"野尻"},
{"zip_code":"6692452","kana_pref":"ﾋｮｳｺﾞｹﾝ","kana_city":"ｻｻﾔﾏｼ","kana_address":"ﾉﾅｶ","pref":"兵庫県","city":"篠山市","address":"野中"},
{"zip_code":"6692445","kana_pref":"ﾋｮｳｺﾞｹﾝ","kana_city":"ｻｻﾔﾏｼ","kana_address":"ﾉﾉｶﾞｷ","pref":"兵庫県","city":"篠山市","address":"野々垣"},
{"zip_code":"6692313","kana_pref":"ﾋｮｳｺﾞｹﾝ","kana_city":"ｻｻﾔﾏｼ","kana_address":"ﾉﾏ","pref":"兵庫県","city":"篠山市","address":"野間"},
{"zip_code":"6692716","kana_pref":"ﾋｮｳｺﾞｹﾝ","kana_city":"ｻｻﾔﾏｼ","kana_address":"ﾉﾘﾀｹ","pref":"兵庫県","city":"篠山市","address":"乗竹"},
{"zip_code":"6692103","kana_pref":"ﾋｮｳｺﾞｹﾝ","kana_city":"ｻｻﾔﾏｼ","kana_address":"ﾊｶﾞﾉ","pref":"兵庫県","city":"篠山市","address":"波賀野"},
{"zip_code":"6692122","kana_pref":"ﾋｮｳｺﾞｹﾝ","kana_city":"ｻｻﾔﾏｼ","kana_address":"ﾊｶﾞﾉｼﾝﾃﾞﾝ","pref":"兵庫県","city":"篠山市","address":"波賀野新田"},
{"zip_code":"6692524","kana_pref":"ﾋｮｳｺﾞｹﾝ","kana_city":"ｻｻﾔﾏｼ","kana_address":"ﾊｺﾀﾞﾆ","pref":"兵庫県","city":"篠山市","address":"箱谷"},
{"zip_code":"6692418","kana_pref":"ﾋｮｳｺﾞｹﾝ","kana_city":"ｻｻﾔﾏｼ","kana_address":"ﾊﾀｲ","pref":"兵庫県","city":"篠山市","address":"畑井"},
{"zip_code":"6692413","kana_pref":"ﾋｮｳｺﾞｹﾝ","kana_city":"ｻｻﾔﾏｼ","kana_address":"ﾊﾀｲﾁ","pref":"兵庫県","city":"篠山市","address":"畑市"},
{"zip_code":"6692505","kana_pref":"ﾋｮｳｺﾞｹﾝ","kana_city":"ｻｻﾔﾏｼ","kana_address":"ﾊﾀﾞｶｽ","pref":"兵庫県","city":"篠山市","address":"安口"},
{"zip_code":"6692553","kana_pref":"ﾋｮｳｺﾞｹﾝ","kana_city":"ｻｻﾔﾏｼ","kana_address":"ﾊﾀﾞﾁ","pref":"兵庫県","city":"篠山市","address":"幡路"},
{"zip_code":"6692305","kana_pref":"ﾋｮｳｺﾞｹﾝ","kana_city":"ｻｻﾔﾏｼ","kana_address":"ﾊﾀﾐﾔ","pref":"兵庫県","city":"篠山市","address":"畑宮"},
{"zip_code":"6692101","kana_pref":"ﾋｮｳｺﾞｹﾝ","kana_city":"ｻｻﾔﾏｼ","kana_address":"ﾊﾂﾀﾞ","pref":"兵庫県","city":"篠山市","address":"初田"},
{"zip_code":"6692307","kana_pref":"ﾋｮｳｺﾞｹﾝ","kana_city":"ｻｻﾔﾏｼ","kana_address":"ﾊﾝﾆｬｼﾞ","pref":"兵庫県","city":"篠山市","address":"般若寺"},
{"zip_code":"6692301","kana_pref":"ﾋｮｳｺﾞｹﾝ","kana_city":"ｻｻﾔﾏｼ","kana_address":"ﾋｳﾁﾜﾝ","pref":"兵庫県","city":"篠山市","address":"火打岩"},
{"zip_code":"6692441","kana_pref":"ﾋｮｳｺﾞｹﾝ","kana_city":"ｻｻﾔﾏｼ","kana_address":"ﾋｵｷ","pref":"兵庫県","city":"篠山市","address":"日置"},
{"zip_code":"6692345","kana_pref":"ﾋｮｳｺﾞｹﾝ","kana_city":"ｻｻﾔﾏｼ","kana_address":"ﾋｶﾞｼｵｶﾔ","pref":"兵庫県","city":"篠山市","address":"東岡屋"},
{"zip_code":"6692737","kana_pref":"ﾋｮｳｺﾞｹﾝ","kana_city":"ｻｻﾔﾏｼ","kana_address":"ﾋｶﾞｼｷﾉﾍﾞ","pref":"兵庫県","city":"篠山市","address":"東木之部"},
{"zip_code":"6692201","kana_pref":"ﾋｮｳｺﾞｹﾝ","kana_city":"ｻｻﾔﾏｼ","kana_address":"ﾋｶﾞｼｺｻ","pref":"兵庫県","city":"篠山市","address":"東古佐"},
{"zip_code":"6692314","kana_pref":"ﾋｮｳｺﾞｹﾝ","kana_city":"ｻｻﾔﾏｼ","kana_address":"ﾋｶﾞｼｻﾜﾀﾞ","pref":"兵庫県","city":"篠山市","address":"東沢田"},
{"zip_code":"6692324","kana_pref":"ﾋｮｳｺﾞｹﾝ","kana_city":"ｻｻﾔﾏｼ","kana_address":"ﾋｶﾞｼｼﾝﾏﾁ","pref":"兵庫県","city":"篠山市","address":"東新町"},
{"zip_code":"6692351","kana_pref":"ﾋｮｳｺﾞｹﾝ","kana_city":"ｻｻﾔﾏｼ","kana_address":"ﾋｶﾞｼﾊﾏﾀﾞﾆ","pref":"兵庫県","city":"篠山市","address":"東浜谷"},
{"zip_code":"6692202","kana_pref":"ﾋｮｳｺﾞｹﾝ","kana_city":"ｻｻﾔﾏｼ","kana_address":"ﾋｶﾞｼﾌﾞｷ","pref":"兵庫県","city":"篠山市","address":"東吹"},
{"zip_code":"6692403","kana_pref":"ﾋｮｳｺﾞｹﾝ","kana_city":"ｻｻﾔﾏｼ","kana_address":"ﾋｶﾞｼﾎﾝｼﾞｮｳ","pref":"兵庫県","city":"篠山市","address":"東本荘"},
{"zip_code":"6692343","kana_pref":"ﾋｮｳｺﾞｹﾝ","kana_city":"ｻｻﾔﾏｼ","kana_address":"ﾌｳｶ","pref":"兵庫県","city":"篠山市","address":"風深"},
{"zip_code":"6692344","kana_pref":"ﾋｮｳｺﾞｹﾝ","kana_city":"ｻｻﾔﾏｼ","kana_address":"ﾌｷｶﾞﾐ","pref":"兵庫県","city":"篠山市","address":"吹上"},
{"zip_code":"6692203","kana_pref":"ﾋｮｳｺﾞｹﾝ","kana_city":"ｻｻﾔﾏｼ","kana_address":"ﾌｷｼﾝ","pref":"兵庫県","city":"篠山市","address":"吹新"},
{"zip_code":"6692603","kana_pref":"ﾋｮｳｺﾞｹﾝ","kana_city":"ｻｻﾔﾏｼ","kana_address":"ﾌｸｲ","pref":"兵庫県","city":"篠山市","address":"福井"},
{"zip_code":"6692513","kana_pref":"ﾋｮｳｺﾞｹﾝ","kana_city":"ｻｻﾔﾏｼ","kana_address":"ﾌｸｽﾐ","pref":"兵庫県","city":"篠山市","address":"福住"},
{"zip_code":"6692369","kana_pref":"ﾋｮｳｺﾞｹﾝ","kana_city":"ｻｻﾔﾏｼ","kana_address":"ﾌｼﾞｵｶｵｸ","pref":"兵庫県","city":"篠山市","address":"藤岡奥"},
{"zip_code":"6692368","kana_pref":"ﾋｮｳｺﾞｹﾝ","kana_city":"ｻｻﾔﾏｼ","kana_address":"ﾌｼﾞｵｶｸﾁ","pref":"兵庫県","city":"篠山市","address":"藤岡口"},
{"zip_code":"6692605","kana_pref":"ﾋｮｳｺﾞｹﾝ","kana_city":"ｻｻﾔﾏｼ","kana_address":"ﾌｼﾞｻｶ","pref":"兵庫県","city":"篠山市","address":"藤坂"},
{"zip_code":"6692552","kana_pref":"ﾋｮｳｺﾞｹﾝ","kana_city":"ｻｻﾔﾏｼ","kana_address":"ﾌｼﾞﾉｷ","pref":"兵庫県","city":"篠山市","address":"藤之木"},
{"zip_code":"6692123","kana_pref":"ﾋｮｳｺﾞｹﾝ","kana_city":"ｻｻﾔﾏｼ","kana_address":"ﾌﾙｲﾁ","pref":"兵庫県","city":"篠山市","address":"古市"},
{"zip_code":"6692702","kana_pref":"ﾋｮｳｺﾞｹﾝ","kana_city":"ｻｻﾔﾏｼ","kana_address":"ﾎﾝｺﾞｳ","pref":"兵庫県","city":"篠山市","address":"本郷"},
{"zip_code":"6692511","kana_pref":"ﾋｮｳｺﾞｹﾝ","kana_city":"ｻｻﾔﾏｼ","kana_address":"ﾎﾝﾐｮｳﾀﾞﾆ","pref":"兵庫県","city":"篠山市","address":"本明谷"},
{"zip_code":"6692316","kana_pref":"ﾋｮｳｺﾞｹﾝ","kana_city":"ｻｻﾔﾏｼ","kana_address":"ﾏｴｻﾜﾀﾞ","pref":"兵庫県","city":"篠山市","address":"前沢田"},
{"zip_code":"6692527","kana_pref":"ﾋｮｳｺﾞｹﾝ","kana_city":"ｻｻﾔﾏｼ","kana_address":"ﾏﾂｶﾞﾊﾅ","pref":"兵庫県","city":"篠山市","address":"松ケ鼻"},
{"zip_code":"6692462","kana_pref":"ﾋｮｳｺﾞｹﾝ","kana_city":"ｻｻﾔﾏｼ","kana_address":"ﾏﾅﾝｼﾞｮｳｶﾐ","pref":"兵庫県","city":"篠山市","address":"真南条上"},
{"zip_code":"6692464","kana_pref":"ﾋｮｳｺﾞｹﾝ","kana_city":"ｻｻﾔﾏｼ","kana_address":"ﾏﾅﾝｼﾞｮｳｼﾓ","pref":"兵庫県","city":"篠山市","address":"真南条下"},
{"zip_code":"6692463","kana_pref":"ﾋｮｳｺﾞｹﾝ","kana_city":"ｻｻﾔﾏｼ","kana_address":"ﾏﾅﾝｼﾞｮｳﾅｶ","pref":"兵庫県","city":"篠山市","address":"真南条中"},
{"zip_code":"6692361","kana_pref":"ﾋｮｳｺﾞｹﾝ","kana_city":"ｻｻﾔﾏｼ","kana_address":"ﾏﾙﾔﾏ","pref":"兵庫県","city":"篠山市","address":"丸山"},
{"zip_code":"6692121","kana_pref":"ﾋｮｳｺﾞｹﾝ","kana_city":"ｻｻﾔﾏｼ","kana_address":"ﾐｳﾁ","pref":"兵庫県","city":"篠山市","address":"見内"},
{"zip_code":"6692602","kana_pref":"ﾋｮｳｺﾞｹﾝ","kana_city":"ｻｻﾔﾏｼ","kana_address":"ﾐｸﾏ","pref":"兵庫県","city":"篠山市","address":"三熊"},
{"zip_code":"6692333","kana_pref":"ﾋｮｳｺﾞｹﾝ","kana_city":"ｻｻﾔﾏｼ","kana_address":"ﾐﾅﾐｼﾝﾏﾁ","pref":"兵庫県","city":"篠山市","address":"南新町"},
{"zip_code":"6692102","kana_pref":"ﾋｮｳｺﾞｹﾝ","kana_city":"ｻｻﾔﾏｼ","kana_address":"ﾐﾅﾐﾔｼﾛ","pref":"兵庫県","city":"篠山市","address":"南矢代"},
{"zip_code":"6692615","kana_pref":"ﾋｮｳｺﾞｹﾝ","kana_city":"ｻｻﾔﾏｼ","kana_address":"ﾐﾔｼﾛ","pref":"兵庫県","city":"篠山市","address":"宮代"},
{"zip_code":"6692734","kana_pref":"ﾋｮｳｺﾞｹﾝ","kana_city":"ｻｻﾔﾏｼ","kana_address":"ﾐﾔﾀﾞ","pref":"兵庫県","city":"篠山市","address":"宮田"},
{"zip_code":"6692414","kana_pref":"ﾋｮｳｺﾞｹﾝ","kana_city":"ｻｻﾔﾏｼ","kana_address":"ﾐﾔﾉﾏｴ","pref":"兵庫県","city":"篠山市","address":"宮ノ前"},
{"zip_code":"6692526","kana_pref":"ﾋｮｳｺﾞｹﾝ","kana_city":"ｻｻﾔﾏｼ","kana_address":"ﾑｶｲ","pref":"兵庫県","city":"篠山市","address":"向井"},
{"zip_code":"6692437","kana_pref":"ﾋｮｳｺﾞｹﾝ","kana_city":"ｻｻﾔﾏｼ","kana_address":"ﾓﾁｶﾞﾂﾎﾞ","pref":"兵庫県","city":"篠山市","address":"糯ケ坪"},
{"zip_code":"6692432","kana_pref":"ﾋｮｳｺﾞｹﾝ","kana_city":"ｻｻﾔﾏｼ","kana_address":"ﾔｶﾐｳﾁ","pref":"兵庫県","city":"篠山市","address":"八上内"},
{"zip_code":"6692446","kana_pref":"ﾋｮｳｺﾞｹﾝ","kana_city":"ｻｻﾔﾏｼ","kana_address":"ﾔｶﾐｶﾐ","pref":"兵庫県","city":"篠山市","address":"八上上"},
{"zip_code":"6692431","kana_pref":"ﾋｮｳｺﾞｹﾝ","kana_city":"ｻｻﾔﾏｼ","kana_address":"ﾔｶﾐｼﾓ","pref":"兵庫県","city":"篠山市","address":"八上下"},
{"zip_code":"6692356","kana_pref":"ﾋｮｳｺﾞｹﾝ","kana_city":"ｻｻﾔﾏｼ","kana_address":"ﾔｼﾛ","pref":"兵庫県","city":"篠山市","address":"矢代"},
{"zip_code":"6692104","kana_pref":"ﾋｮｳｺﾞｹﾝ","kana_city":"ｻｻﾔﾏｼ","kana_address":"ﾔｼﾛｼﾝ","pref":"兵庫県","city":"篠山市","address":"矢代新"},
{"zip_code":"6692551","kana_pref":"ﾋｮｳｺﾞｹﾝ","kana_city":"ｻｻﾔﾏｼ","kana_address":"ﾔｽﾀﾞ","pref":"兵庫県","city":"篠山市","address":"安田"},
{"zip_code":"6692337","kana_pref":"ﾋｮｳｺﾞｹﾝ","kana_city":"ｻｻﾔﾏｼ","kana_address":"ﾔﾏｳﾁﾁｮｳ","pref":"兵庫県","city":"篠山市","address":"山内町"},
{"zip_code":"6692533","kana_pref":"ﾋｮｳｺﾞｹﾝ","kana_city":"ｻｻﾔﾏｼ","kana_address":"ﾔﾏﾀﾞ","pref":"兵庫県","city":"篠山市","address":"山田"},
{"zip_code":"6692364","kana_pref":"ﾋｮｳｺﾞｹﾝ","kana_city":"ｻｻﾔﾏｼ","kana_address":"ﾜｼｵ","pref":"兵庫県","city":"篠山市","address":"鷲尾"},
{"zip_code":"6692308","kana_pref":"ﾋｮｳｺﾞｹﾝ","kana_city":"ｻｻﾔﾏｼ","kana_address":"ﾜﾀﾞ","pref":"兵庫県","city":"篠山市","address":"和田"},
{"zip_code":"6693300","kana_pref":"ﾋｮｳｺﾞｹﾝ","kana_city":"ﾀﾝﾊﾞｼ","kana_address":"","pref":"兵庫県","city":"丹波市","address":""},
{"zip_code":"6693831","kana_pref":"ﾋｮｳｺﾞｹﾝ","kana_city":"ﾀﾝﾊﾞｼ","kana_address":"ｱｵｶﾞｷﾁｮｳｲﾁﾊﾞﾗ","pref":"兵庫県","city":"丹波市","address":"青垣町市原"},
{"zip_code":"6693827","kana_pref":"ﾋｮｳｺﾞｹﾝ","kana_city":"ﾀﾝﾊﾞｼ","kana_address":"ｱｵｶﾞｷﾁｮｳｲﾅﾂﾞﾁ","pref":"兵庫県","city":"丹波市","address":"青垣町稲土"},
{"zip_code":"6693843","kana_pref":"ﾋｮｳｺﾞｹﾝ","kana_city":"ﾀﾝﾊﾞｼ","kana_address":"ｱｵｶﾞｷﾁｮｳｵｸｼｵｸ","pref":"兵庫県","city":"丹波市","address":"青垣町奥塩久"},
{"zip_code":"6693812","kana_pref":"ﾋｮｳｺﾞｹﾝ","kana_city":"ﾀﾝﾊﾞｼ","kana_address":"ｱｵｶﾞｷﾁｮｳｵｸﾞﾗ","pref":"兵庫県","city":"丹波市","address":"青垣町小倉"},
{"zip_code":"6693822","kana_pref":"ﾋｮｳｺﾞｹﾝ","kana_city":"ﾀﾝﾊﾞｼ","kana_address":"ｱｵｶﾞｷﾁｮｳｵﾅｻﾞ","pref":"兵庫県","city":"丹波市","address":"青垣町大名草"},
{"zip_code":"6693823","kana_pref":"ﾋｮｳｺﾞｹﾝ","kana_city":"ﾀﾝﾊﾞｼ","kana_address":"ｱｵｶﾞｷﾁｮｳｵﾋﾞｴ","pref":"兵庫県","city":"丹波市","address":"青垣町大稗"},
{"zip_code":"6693841","kana_pref":"ﾋｮｳｺﾞｹﾝ","kana_city":"ﾀﾝﾊﾞｼ","kana_address":"ｱｵｶﾞｷﾁｮｳｸﾁｼｵｸ","pref":"兵庫県","city":"丹波市","address":"青垣町口塩久"},
{"zip_code":"6693802","kana_pref":"ﾋｮｳｺﾞｹﾝ","kana_city":"ﾀﾝﾊﾞｼ","kana_address":"ｱｵｶﾞｷﾁｮｳｸﾘｽﾉ","pref":"兵庫県","city":"丹波市","address":"青垣町栗住野"},
{"zip_code":"6693824","kana_pref":"ﾋｮｳｺﾞｹﾝ","kana_city":"ﾀﾝﾊﾞｼ","kana_address":"ｱｵｶﾞｷﾁｮｳｺﾋﾞｴ","pref":"兵庫県","city":"丹波市","address":"青垣町小稗"},
{"zip_code":"6693811","kana_pref":"ﾋｮｳｺﾞｹﾝ","kana_city":"ﾀﾝﾊﾞｼ","kana_address":"ｱｵｶﾞｷﾁｮｳｻｼﾞ","pref":"兵庫県","city":"丹波市","address":"青垣町佐治"},
{"zip_code":"6693842","kana_pref":"ﾋｮｳｺﾞｹﾝ","kana_city":"ﾀﾝﾊﾞｼ","kana_address":"ｱｵｶﾞｷﾁｮｳｻﾜﾉ","pref":"兵庫県","city":"丹波市","address":"青垣町沢野"},
{"zip_code":"6693825","kana_pref":"ﾋｮｳｺﾞｹﾝ","kana_city":"ﾀﾝﾊﾞｼ","kana_address":"ｱｵｶﾞｷﾁｮｳｿｳｼﾞ","pref":"兵庫県","city":"丹波市","address":"青垣町惣持"},
{"zip_code":"6693804","kana_pref":"ﾋｮｳｺﾞｹﾝ","kana_city":"ﾀﾝﾊﾞｼ","kana_address":"ｱｵｶﾞｷﾁｮｳﾀｲﾅﾜ","pref":"兵庫県","city":"丹波市","address":"青垣町田井縄"},
{"zip_code":"6693832","kana_pref":"ﾋｮｳｺﾞｹﾝ","kana_city":"ﾀﾝﾊﾞｼ","kana_address":"ｱｵｶﾞｷﾁｮｳﾄｵｻﾞｶ","pref":"兵庫県","city":"丹波市","address":"青垣町遠阪"},
{"zip_code":"6693834","kana_pref":"ﾋｮｳｺﾞｹﾝ","kana_city":"ﾀﾝﾊﾞｼ","kana_address":"ｱｵｶﾞｷﾁｮｳﾅｶｻｼﾞ","pref":"兵庫県","city":"丹波市","address":"青垣町中佐治"},
{"zip_code":"6693803","kana_pref":"ﾋｮｳｺﾞｹﾝ","kana_city":"ﾀﾝﾊﾞｼ","kana_address":"ｱｵｶﾞｷﾁｮｳﾆｼｱｼﾀﾞ","pref":"兵庫県","city":"丹波市","address":"青垣町西芦田"},
{"zip_code":"6693801","kana_pref":"ﾋｮｳｺﾞｹﾝ","kana_city":"ﾀﾝﾊﾞｼ","kana_address":"ｱｵｶﾞｷﾁｮｳﾋｶﾞｼｱｼﾀﾞ","pref":"兵庫県","city":"丹波市","address":"青垣町東芦田"},
{"zip_code":"6693821","kana_pref":"ﾋｮｳｺﾞｹﾝ","kana_city":"ﾀﾝﾊﾞｼ","kana_address":"ｱｵｶﾞｷﾁｮｳﾋﾉｸﾗ","pref":"兵庫県","city":"丹波市","address":"青垣町桧倉"},
{"zip_code":"6693826","kana_pref":"ﾋｮｳｺﾞｹﾝ","kana_city":"ﾀﾝﾊﾞｼ","kana_address":"ｱｵｶﾞｷﾁｮｳﾌﾑﾛ","pref":"兵庫県","city":"丹波市","address":"青垣町文室"},
{"zip_code":"6693833","kana_pref":"ﾋｮｳｺﾞｹﾝ","kana_city":"ﾀﾝﾊﾞｼ","kana_address":"ｱｵｶﾞｷﾁｮｳﾔﾏｶﾞｲ","pref":"兵庫県","city":"丹波市","address":"青垣町山垣"},
{"zip_code":"6694324","kana_pref":"ﾋｮｳｺﾞｹﾝ","kana_city":"ﾀﾝﾊﾞｼ","kana_address":"ｲﾁｼﾞﾏﾁｮｳｲﾁｼﾞﾏ","pref":"兵庫県","city":"丹波市","address":"市島町市島"},
{"zip_code":"6694316","kana_pref":"ﾋｮｳｺﾞｹﾝ","kana_city":"ﾀﾝﾊﾞｼ","kana_address":"ｲﾁｼﾞﾏﾁｮｳｲﾜﾄ","pref":"兵庫県","city":"丹波市","address":"市島町岩戸"},
{"zip_code":"6694321","kana_pref":"ﾋｮｳｺﾞｹﾝ","kana_city":"ﾀﾝﾊﾞｼ","kana_address":"ｲﾁｼﾞﾏﾁｮｳｳｴｶﾞｲ","pref":"兵庫県","city":"丹波市","address":"市島町上垣"},
{"zip_code":"6694317","kana_pref":"ﾋｮｳｺﾞｹﾝ","kana_city":"ﾀﾝﾊﾞｼ","kana_address":"ｲﾁｼﾞﾏﾁｮｳｳｴﾏｷ","pref":"兵庫県","city":"丹波市","address":"市島町上牧"},
{"zip_code":"6694336","kana_pref":"ﾋｮｳｺﾞｹﾝ","kana_city":"ﾀﾝﾊﾞｼ","kana_address":"ｲﾁｼﾞﾏﾁｮｳｵﾄｶﾞﾜﾁ","pref":"兵庫県","city":"丹波市","address":"市島町乙河内"},
{"zip_code":"6694323","kana_pref":"ﾋｮｳｺﾞｹﾝ","kana_city":"ﾀﾝﾊﾞｼ","kana_address":"ｲﾁｼﾞﾏﾁｮｳｶｼﾞﾜﾗ","pref":"兵庫県","city":"丹波市","address":"市島町梶原"},
{"zip_code":"6694344","kana_pref":"ﾋｮｳｺﾞｹﾝ","kana_city":"ﾀﾝﾊﾞｼ","kana_address":"ｲﾁｼﾞﾏﾁｮｳｶﾐｶﾓｻｶ","pref":"兵庫県","city":"丹波市","address":"市島町上鴨阪"},
{"zip_code":"6694322","kana_pref":"ﾋｮｳｺﾞｹﾝ","kana_city":"ﾀﾝﾊﾞｼ","kana_address":"ｲﾁｼﾞﾏﾁｮｳｶﾐﾀﾞ","pref":"兵庫県","city":"丹波市","address":"市島町上田"},
{"zip_code":"6694341","kana_pref":"ﾋｮｳｺﾞｹﾝ","kana_city":"ﾀﾝﾊﾞｼ","kana_address":"ｲﾁｼﾞﾏﾁｮｳｶﾐﾀｹﾀﾞ","pref":"兵庫県","city":"丹波市","address":"市島町上竹田"},
{"zip_code":"6694315","kana_pref":"ﾋｮｳｺﾞｹﾝ","kana_city":"ﾀﾝﾊﾞｼ","kana_address":"ｲﾁｼﾞﾏﾁｮｳｷﾀ","pref":"兵庫県","city":"丹波市","address":"市島町喜多"},
{"zip_code":"6694325","kana_pref":"ﾋｮｳｺﾞｹﾝ","kana_city":"ﾀﾝﾊﾞｼ","kana_address":"ｲﾁｼﾞﾏﾁｮｳｷﾀｵｶﾓﾄ","pref":"兵庫県","city":"丹波市","address":"市島町北岡本"},
{"zip_code":"6694312","kana_pref":"ﾋｮｳｺﾞｹﾝ","kana_city":"ﾀﾝﾊﾞｼ","kana_address":"ｲﾁｼﾞﾏﾁｮｳｷﾀｵｸ","pref":"兵庫県","city":"丹波市","address":"市島町北奥"},
{"zip_code":"6694337","kana_pref":"ﾋｮｳｺﾞｹﾝ","kana_city":"ﾀﾝﾊﾞｼ","kana_address":"ｲﾁｼﾞﾏﾁｮｳｻﾅｾ","pref":"兵庫県","city":"丹波市","address":"市島町酒梨"},
{"zip_code":"6694343","kana_pref":"ﾋｮｳｺﾞｹﾝ","kana_city":"ﾀﾝﾊﾞｼ","kana_address":"ｲﾁｼﾞﾏﾁｮｳｼﾓｶﾓｻｶ","pref":"兵庫県","city":"丹波市","address":"市島町下鴨阪"},
{"zip_code":"6694301","kana_pref":"ﾋｮｳｺﾞｹﾝ","kana_city":"ﾀﾝﾊﾞｼ","kana_address":"ｲﾁｼﾞﾏﾁｮｳｼﾓﾀｹﾀﾞ","pref":"兵庫県","city":"丹波市","address":"市島町下竹田"},
{"zip_code":"6694313","kana_pref":"ﾋｮｳｺﾞｹﾝ","kana_city":"ﾀﾝﾊﾞｼ","kana_address":"ｲﾁｼﾞﾏﾁｮｳﾀﾘ","pref":"兵庫県","city":"丹波市","address":"市島町多利"},
{"zip_code":"6694332","kana_pref":"ﾋｮｳｺﾞｹﾝ","kana_city":"ﾀﾝﾊﾞｼ","kana_address":"ｲﾁｼﾞﾏﾁｮｳﾁｮｸｼ","pref":"兵庫県","city":"丹波市","address":"市島町勅使"},
{"zip_code":"6694345","kana_pref":"ﾋｮｳｺﾞｹﾝ","kana_city":"ﾀﾝﾊﾞｼ","kana_address":"ｲﾁｼﾞﾏﾁｮｳﾄｸｵ","pref":"兵庫県","city":"丹波市","address":"市島町徳尾"},
{"zip_code":"6694333","kana_pref":"ﾋｮｳｺﾞｹﾝ","kana_city":"ﾀﾝﾊﾞｼ","kana_address":"ｲﾁｼﾞﾏﾁｮｳﾄｻｶ","pref":"兵庫県","city":"丹波市","address":"市島町戸坂"},
{"zip_code":"6694311","kana_pref":"ﾋｮｳｺﾞｹﾝ","kana_city":"ﾀﾝﾊﾞｼ","kana_address":"ｲﾁｼﾞﾏﾁｮｳﾄﾍﾞﾗ","pref":"兵庫県","city":"丹波市","address":"市島町戸平"},
{"zip_code":"6694302","kana_pref":"ﾋｮｳｺﾞｹﾝ","kana_city":"ﾀﾝﾊﾞｼ","kana_address":"ｲﾁｼﾞﾏﾁｮｳﾅｶﾀｹﾀﾞ","pref":"兵庫県","city":"丹波市","address":"市島町中竹田"},
{"zip_code":"6694331","kana_pref":"ﾋｮｳｺﾞｹﾝ","kana_city":"ﾀﾝﾊﾞｼ","kana_address":"ｲﾁｼﾞﾏﾁｮｳﾋｶﾞｼﾁｮｸｼ","pref":"兵庫県","city":"丹波市","address":"市島町東勅使"},
{"zip_code":"6694334","kana_pref":"ﾋｮｳｺﾞｹﾝ","kana_city":"ﾀﾝﾊﾞｼ","kana_address":"ｲﾁｼﾞﾏﾁｮｳﾋﾞｬｸｺﾞｳｼﾞ","pref":"兵庫県","city":"丹波市","address":"市島町白毫寺"},
{"zip_code":"6694314","kana_pref":"ﾋｮｳｺﾞｹﾝ","kana_city":"ﾀﾝﾊﾞｼ","kana_address":"ｲﾁｼﾞﾏﾁｮｳﾐﾅﾐ","pref":"兵庫県","city":"丹波市","address":"市島町南"},
{"zip_code":"6694342","kana_pref":"ﾋｮｳｺﾞｹﾝ","kana_city":"ﾀﾝﾊﾞｼ","kana_address":"ｲﾁｼﾞﾏﾁｮｳﾔｼﾛ","pref":"兵庫県","city":"丹波市","address":"市島町矢代"},
{"zip_code":"6694335","kana_pref":"ﾋｮｳｺﾞｹﾝ","kana_city":"ﾀﾝﾊﾞｼ","kana_address":"ｲﾁｼﾞﾏﾁｮｳﾖﾄ","pref":"兵庫県","city":"丹波市","address":"市島町与戸"},
{"zip_code":"6693314","kana_pref":"ﾋｮｳｺﾞｹﾝ","kana_city":"ﾀﾝﾊﾞｼ","kana_address":"ｶｲﾊﾞﾗﾁｮｳｱｸﾞﾀ","pref":"兵庫県","city":"丹波市","address":"柏原町挙田"},
{"zip_code":"6693307","kana_pref":"ﾋｮｳｺﾞｹﾝ","kana_city":"ﾀﾝﾊﾞｼ","kana_address":"ｶｲﾊﾞﾗﾁｮｳｲｼﾄﾞ","pref":"兵庫県","city":"丹波市","address":"柏原町石戸"},
{"zip_code":"6693315","kana_pref":"ﾋｮｳｺﾞｹﾝ","kana_city":"ﾀﾝﾊﾞｼ","kana_address":"ｶｲﾊﾞﾗﾁｮｳｵｵﾆﾔ","pref":"兵庫県","city":"丹波市","address":"柏原町大新屋"},
{"zip_code":"6693309","kana_pref":"ﾋｮｳｺﾞｹﾝ","kana_city":"ﾀﾝﾊﾞｼ","kana_address":"ｶｲﾊﾞﾗﾁｮｳｶｲﾊﾞﾗ","pref":"兵庫県","city":"丹波市","address":"柏原町柏原"},
{"zip_code":"6693304","kana_pref":"ﾋｮｳｺﾞｹﾝ","kana_city":"ﾀﾝﾊﾞｼ","kana_address":"ｶｲﾊﾞﾗﾁｮｳｶﾐｵｸﾞﾗ","pref":"兵庫県","city":"丹波市","address":"柏原町上小倉"},
{"zip_code":"6693316","kana_pref":"ﾋｮｳｺﾞｹﾝ","kana_city":"ﾀﾝﾊﾞｼ","kana_address":"ｶｲﾊﾞﾗﾁｮｳｶﾓﾉ","pref":"兵庫県","city":"丹波市","address":"柏原町鴨野"},
{"zip_code":"6693306","kana_pref":"ﾋｮｳｺﾞｹﾝ","kana_city":"ﾀﾝﾊﾞｼ","kana_address":"ｶｲﾊﾞﾗﾁｮｳｷﾀﾅｶ","pref":"兵庫県","city":"丹波市","address":"柏原町北中"},
{"zip_code":"6693313","kana_pref":"ﾋｮｳｺﾞｹﾝ","kana_city":"ﾀﾝﾊﾞｼ","kana_address":"ｶｲﾊﾞﾗﾁｮｳｷﾀﾔﾏ","pref":"兵庫県","city":"丹波市","address":"柏原町北山"},
{"zip_code":"6693308","kana_pref":"ﾋｮｳｺﾞｹﾝ","kana_city":"ﾀﾝﾊﾞｼ","kana_address":"ｶｲﾊﾞﾗﾁｮｳｺﾐﾅﾐ","pref":"兵庫県","city":"丹波市","address":"柏原町小南"},
{"zip_code":"6693305","kana_pref":"ﾋｮｳｺﾞｹﾝ","kana_city":"ﾀﾝﾊﾞｼ","kana_address":"ｶｲﾊﾞﾗﾁｮｳｼﾓｵｸﾞﾗ","pref":"兵庫県","city":"丹波市","address":"柏原町下小倉"},
{"zip_code":"6693312","kana_pref":"ﾋｮｳｺﾞｹﾝ","kana_city":"ﾀﾝﾊﾞｼ","kana_address":"ｶｲﾊﾞﾗﾁｮｳﾀｼﾞ","pref":"兵庫県","city":"丹波市","address":"柏原町田路"},
{"zip_code":"6693302","kana_pref":"ﾋｮｳｺﾞｹﾝ","kana_city":"ﾀﾝﾊﾞｼ","kana_address":"ｶｲﾊﾞﾗﾁｮｳﾋｶﾞｼｵｸ","pref":"兵庫県","city":"丹波市","address":"柏原町東奥"},
{"zip_code":"6693311","kana_pref":"ﾋｮｳｺﾞｹﾝ","kana_city":"ﾀﾝﾊﾞｼ","kana_address":"ｶｲﾊﾞﾗﾁｮｳﾎﾂﾎﾞ","pref":"兵庫県","city":"丹波市","address":"柏原町母坪"},
{"zip_code":"6693303","kana_pref":"ﾋｮｳｺﾞｹﾝ","kana_city":"ﾀﾝﾊﾞｼ","kana_address":"ｶｲﾊﾞﾗﾁｮｳﾐﾅｶﾞ","pref":"兵庫県","city":"丹波市","address":"柏原町見長"},
{"zip_code":"6693301","kana_pref":"ﾋｮｳｺﾞｹﾝ","kana_city":"ﾀﾝﾊﾞｼ","kana_address":"ｶｲﾊﾞﾗﾁｮｳﾐﾅﾐﾀﾀﾞ","pref":"兵庫県","city":"丹波市","address":"柏原町南多田"},
{"zip_code":"6693411","kana_pref":"ﾋｮｳｺﾞｹﾝ","kana_city":"ﾀﾝﾊﾞｼ","kana_address":"ｶｽｶﾞﾁｮｳｱｻﾋ","pref":"兵庫県","city":"丹波市","address":"春日町朝日"},
{"zip_code":"6694121","kana_pref":"ﾋｮｳｺﾞｹﾝ","kana_city":"ﾀﾝﾊﾞｼ","kana_address":"ｶｽｶﾞﾁｮｳｲｹｵ","pref":"兵庫県","city":"丹波市","address":"春日町池尾"},
{"zip_code":"6693413","kana_pref":"ﾋｮｳｺﾞｹﾝ","kana_city":"ﾀﾝﾊﾞｼ","kana_address":"ｶｽｶﾞﾁｮｳｲｼｻﾞｲ","pref":"兵庫県","city":"丹波市","address":"春日町石才"},
{"zip_code":"6694135","kana_pref":"ﾋｮｳｺﾞｹﾝ","kana_city":"ﾀﾝﾊﾞｼ","kana_address":"ｶｽｶﾞﾁｮｳｲﾅﾂﾞｶ","pref":"兵庫県","city":"丹波市","address":"春日町稲塚"},
{"zip_code":"6693404","kana_pref":"ﾋｮｳｺﾞｹﾝ","kana_city":"ﾀﾝﾊﾞｼ","kana_address":"ｶｽｶﾞﾁｮｳｳｼｶﾞﾜﾁ","pref":"兵庫県","city":"丹波市","address":"春日町牛河内"},
{"zip_code":"6693414","kana_pref":"ﾋｮｳｺﾞｹﾝ","kana_city":"ﾀﾝﾊﾞｼ","kana_address":"ｶｽｶﾞﾁｮｳｳﾄｳﾀﾞﾆ","pref":"兵庫県","city":"丹波市","address":"春日町歌道谷"},
{"zip_code":"6694251","kana_pref":"ﾋｮｳｺﾞｹﾝ","kana_city":"ﾀﾝﾊﾞｼ","kana_address":"ｶｽｶﾞﾁｮｳｶﾐﾐﾉｼｮｳ","pref":"兵庫県","city":"丹波市","address":"春日町上三井庄"},
{"zip_code":"6694262","kana_pref":"ﾋｮｳｺﾞｹﾝ","kana_city":"ﾀﾝﾊﾞｼ","kana_address":"ｶｽｶﾞﾁｮｳｶﾔﾉ","pref":"兵庫県","city":"丹波市","address":"春日町栢野"},
{"zip_code":"6694253","kana_pref":"ﾋｮｳｺﾞｹﾝ","kana_city":"ﾀﾝﾊﾞｼ","kana_address":"ｶｽｶﾞﾁｮｳｶﾝﾊﾞ","pref":"兵庫県","city":"丹波市","address":"春日町鹿場"},
{"zip_code":"6694141","kana_pref":"ﾋｮｳｺﾞｹﾝ","kana_city":"ﾀﾝﾊﾞｼ","kana_address":"ｶｽｶﾞﾁｮｳｸﾛｲ","pref":"兵庫県","city":"丹波市","address":"春日町黒井"},
{"zip_code":"6694273","kana_pref":"ﾋｮｳｺﾞｹﾝ","kana_city":"ﾀﾝﾊﾞｼ","kana_address":"ｶｽｶﾞﾁｮｳｺｸﾘｮｳ","pref":"兵庫県","city":"丹波市","address":"春日町国領"},
{"zip_code":"6694122","kana_pref":"ﾋｮｳｺﾞｹﾝ","kana_city":"ﾀﾝﾊﾞｼ","kana_address":"ｶｽｶﾞﾁｮｳｺﾀﾞﾘ","pref":"兵庫県","city":"丹波市","address":"春日町小多利"},
{"zip_code":"6693415","kana_pref":"ﾋｮｳｺﾞｹﾝ","kana_city":"ﾀﾝﾊﾞｼ","kana_address":"ｶｽｶﾞﾁｮｳｻｶ","pref":"兵庫県","city":"丹波市","address":"春日町坂"},
{"zip_code":"6694252","kana_pref":"ﾋｮｳｺﾞｹﾝ","kana_city":"ﾀﾝﾊﾞｼ","kana_address":"ｶｽｶﾞﾁｮｳｼﾓﾐﾉｼｮｳ","pref":"兵庫県","city":"丹波市","address":"春日町下三井庄"},
{"zip_code":"6693402","kana_pref":"ﾋｮｳｺﾞｹﾝ","kana_city":"ﾀﾝﾊﾞｼ","kana_address":"ｶｽｶﾞﾁｮｳｼﾝｻｲ","pref":"兵庫県","city":"丹波市","address":"春日町新才"},
{"zip_code":"6693412","kana_pref":"ﾋｮｳｺﾞｹﾝ","kana_city":"ﾀﾝﾊﾞｼ","kana_address":"ｶｽｶﾞﾁｮｳｿﾉﾍﾞ","pref":"兵庫県","city":"丹波市","address":"春日町園部"},
{"zip_code":"6694125","kana_pref":"ﾋｮｳｺﾞｹﾝ","kana_city":"ﾀﾝﾊﾞｼ","kana_address":"ｶｽｶﾞﾁｮｳﾀﾀﾞ","pref":"兵庫県","city":"丹波市","address":"春日町多田"},
{"zip_code":"6694274","kana_pref":"ﾋｮｳｺﾞｹﾝ","kana_city":"ﾀﾝﾊﾞｼ","kana_address":"ｶｽｶﾞﾁｮｳﾀﾅﾊﾞﾗ","pref":"兵庫県","city":"丹波市","address":"春日町棚原"},
{"zip_code":"6694123","kana_pref":"ﾋｮｳｺﾞｹﾝ","kana_city":"ﾀﾝﾊﾞｼ","kana_address":"ｶｽｶﾞﾁｮｳﾀﾘ","pref":"兵庫県","city":"丹波市","address":"春日町多利"},
{"zip_code":"6693403","kana_pref":"ﾋｮｳｺﾞｹﾝ","kana_city":"ﾀﾝﾊﾞｼ","kana_address":"ｶｽｶﾞﾁｮｳﾅｶﾞｵｳ","pref":"兵庫県","city":"丹波市","address":"春日町長王"},
{"zip_code":"6694265","kana_pref":"ﾋｮｳｺﾞｹﾝ","kana_city":"ﾀﾝﾊﾞｼ","kana_address":"ｶｽｶﾞﾁｮｳﾅｶﾔﾏ","pref":"兵庫県","city":"丹波市","address":"春日町中山"},
{"zip_code":"6694131","kana_pref":"ﾋｮｳｺﾞｹﾝ","kana_city":"ﾀﾝﾊﾞｼ","kana_address":"ｶｽｶﾞﾁｮｳﾅﾇｶｲﾁ","pref":"兵庫県","city":"丹波市","address":"春日町七日市"},
{"zip_code":"6694124","kana_pref":"ﾋｮｳｺﾞｹﾝ","kana_city":"ﾀﾝﾊﾞｼ","kana_address":"ｶｽｶﾞﾁｮｳﾉｺﾉ","pref":"兵庫県","city":"丹波市","address":"春日町野上野"},
{"zip_code":"6694261","kana_pref":"ﾋｮｳｺﾞｹﾝ","kana_city":"ﾀﾝﾊﾞｼ","kana_address":"ｶｽｶﾞﾁｮｳﾉｾ","pref":"兵庫県","city":"丹波市","address":"春日町野瀬"},
{"zip_code":"6694132","kana_pref":"ﾋｮｳｺﾞｹﾝ","kana_city":"ﾀﾝﾊﾞｼ","kana_address":"ｶｽｶﾞﾁｮｳﾉﾑﾗ","pref":"兵庫県","city":"丹波市","address":"春日町野村"},
{"zip_code":"6693416","kana_pref":"ﾋｮｳｺﾞｹﾝ","kana_city":"ﾀﾝﾊﾞｼ","kana_address":"ｶｽｶﾞﾁｮｳﾉﾔﾏ","pref":"兵庫県","city":"丹波市","address":"春日町野山"},
{"zip_code":"6694272","kana_pref":"ﾋｮｳｺﾞｹﾝ","kana_city":"ﾀﾝﾊﾞｼ","kana_address":"ｶｽｶﾞﾁｮｳﾋｶﾞｼﾅｶ","pref":"兵庫県","city":"丹波市","address":"春日町東中"},
{"zip_code":"6694133","kana_pref":"ﾋｮｳｺﾞｹﾝ","kana_city":"ﾀﾝﾊﾞｼ","kana_address":"ｶｽｶﾞﾁｮｳﾋﾗﾏﾂ","pref":"兵庫県","city":"丹波市","address":"春日町平松"},
{"zip_code":"6694263","kana_pref":"ﾋｮｳｺﾞｹﾝ","kana_city":"ﾀﾝﾊﾞｼ","kana_address":"ｶｽｶﾞﾁｮｳﾋﾛｾ","pref":"兵庫県","city":"丹波市","address":"春日町広瀬"},
{"zip_code":"6694134","kana_pref":"ﾋｮｳｺﾞｹﾝ","kana_city":"ﾀﾝﾊﾞｼ","kana_address":"ｶｽｶﾞﾁｮｳﾌﾙｶﾜ","pref":"兵庫県","city":"丹波市","address":"春日町古河"},
{"zip_code":"6694264","kana_pref":"ﾋｮｳｺﾞｹﾝ","kana_city":"ﾀﾝﾊﾞｼ","kana_address":"ｶｽｶﾞﾁｮｳﾏﾂﾓﾘ","pref":"兵庫県","city":"丹波市","address":"春日町松森"},
{"zip_code":"6693401","kana_pref":"ﾋｮｳｺﾞｹﾝ","kana_city":"ﾀﾝﾊﾞｼ","kana_address":"ｶｽｶﾞﾁｮｳﾔﾏﾀﾞ","pref":"兵庫県","city":"丹波市","address":"春日町山田"},
{"zip_code":"6694271","kana_pref":"ﾋｮｳｺﾞｹﾝ","kana_city":"ﾀﾝﾊﾞｼ","kana_address":"ｶｽｶﾞﾁｮｳﾕﾂﾞ","pref":"兵庫県","city":"丹波市","address":"春日町柚津"},
{"zip_code":"6693112","kana_pref":"ﾋｮｳｺﾞｹﾝ","kana_city":"ﾀﾝﾊﾞｼ","kana_address":"ｻﾝﾅﾝﾁｮｳｱｵﾀﾞ","pref":"兵庫県","city":"丹波市","address":"山南町青田"},
{"zip_code":"6693111","kana_pref":"ﾋｮｳｺﾞｹﾝ","kana_city":"ﾀﾝﾊﾞｼ","kana_address":"ｻﾝﾅﾝﾁｮｳｱｸｻ","pref":"兵庫県","city":"丹波市","address":"山南町阿草"},
{"zip_code":"6693125","kana_pref":"ﾋｮｳｺﾞｹﾝ","kana_city":"ﾀﾝﾊﾞｼ","kana_address":"ｻﾝﾅﾝﾁｮｳｲｹﾀﾞﾆ","pref":"兵庫県","city":"丹波市","address":"山南町池谷"},
{"zip_code":"6693143","kana_pref":"ﾋｮｳｺﾞｹﾝ","kana_city":"ﾀﾝﾊﾞｼ","kana_address":"ｻﾝﾅﾝﾁｮｳｲﾊﾞﾗ","pref":"兵庫県","city":"丹波市","address":"山南町井原"},
{"zip_code":"6693141","kana_pref":"ﾋｮｳｺﾞｹﾝ","kana_city":"ﾀﾝﾊﾞｼ","kana_address":"ｻﾝﾅﾝﾁｮｳｲﾜﾔ","pref":"兵庫県","city":"丹波市","address":"山南町岩屋"},
{"zip_code":"6693158","kana_pref":"ﾋｮｳｺﾞｹﾝ","kana_city":"ﾀﾝﾊﾞｼ","kana_address":"ｻﾝﾅﾝﾁｮｳｵｳﾁ","pref":"兵庫県","city":"丹波市","address":"山南町応地"},
{"zip_code":"6693123","kana_pref":"ﾋｮｳｺﾞｹﾝ","kana_city":"ﾀﾝﾊﾞｼ","kana_address":"ｻﾝﾅﾝﾁｮｳｵｵｶ","pref":"兵庫県","city":"丹波市","address":"山南町大河"},
{"zip_code":"6693113","kana_pref":"ﾋｮｳｺﾞｹﾝ","kana_city":"ﾀﾝﾊﾞｼ","kana_address":"ｻﾝﾅﾝﾁｮｳｵｵﾀﾞ","pref":"兵庫県","city":"丹波市","address":"山南町太田"},
{"zip_code":"6693124","kana_pref":"ﾋｮｳｺﾞｹﾝ","kana_city":"ﾀﾝﾊﾞｼ","kana_address":"ｻﾝﾅﾝﾁｮｳｵｵﾀﾆ","pref":"兵庫県","city":"丹波市","address":"山南町大谷"},
{"zip_code":"6693127","kana_pref":"ﾋｮｳｺﾞｹﾝ","kana_city":"ﾀﾝﾊﾞｼ","kana_address":"ｻﾝﾅﾝﾁｮｳｵｶﾓﾄ","pref":"兵庫県","city":"丹波市","address":"山南町岡本"},
{"zip_code":"6693144","kana_pref":"ﾋｮｳｺﾞｹﾝ","kana_city":"ﾀﾝﾊﾞｼ","kana_address":"ｻﾝﾅﾝﾁｮｳｵｸ","pref":"兵庫県","city":"丹波市","address":"山南町奥"},
{"zip_code":"6693121","kana_pref":"ﾋｮｳｺﾞｹﾝ","kana_city":"ﾀﾝﾊﾞｼ","kana_address":"ｻﾝﾅﾝﾁｮｳｵｸﾉﾉ","pref":"兵庫県","city":"丹波市","address":"山南町奥野々"},
{"zip_code":"6693166","kana_pref":"ﾋｮｳｺﾞｹﾝ","kana_city":"ﾀﾝﾊﾞｼ","kana_address":"ｻﾝﾅﾝﾁｮｳｵﾉｼﾞﾘ","pref":"兵庫県","city":"丹波市","address":"山南町小野尻"},
{"zip_code":"6693167","kana_pref":"ﾋｮｳｺﾞｹﾝ","kana_city":"ﾀﾝﾊﾞｼ","kana_address":"ｻﾝﾅﾝﾁｮｳｵﾊﾞﾀｹ","pref":"兵庫県","city":"丹波市","address":"山南町小畑"},
{"zip_code":"6693154","kana_pref":"ﾋｮｳｺﾞｹﾝ","kana_city":"ﾀﾝﾊﾞｼ","kana_address":"ｻﾝﾅﾝﾁｮｳｶｼﾞ","pref":"兵庫県","city":"丹波市","address":"山南町梶"},
{"zip_code":"6693156","kana_pref":"ﾋｮｳｺﾞｹﾝ","kana_city":"ﾀﾝﾊﾞｼ","kana_address":"ｻﾝﾅﾝﾁｮｳｶﾅｸﾗ","pref":"兵庫県","city":"丹波市","address":"山南町金倉"},
{"zip_code":"6693128","kana_pref":"ﾋｮｳｺﾞｹﾝ","kana_city":"ﾀﾝﾊﾞｼ","kana_address":"ｻﾝﾅﾝﾁｮｳｶﾅﾔ","pref":"兵庫県","city":"丹波市","address":"山南町金屋"},
{"zip_code":"6693101","kana_pref":"ﾋｮｳｺﾞｹﾝ","kana_city":"ﾀﾝﾊﾞｼ","kana_address":"ｻﾝﾅﾝﾁｮｳｶﾐﾀｷ","pref":"兵庫県","city":"丹波市","address":"山南町上滝"},
{"zip_code":"6693105","kana_pref":"ﾋｮｳｺﾞｹﾝ","kana_city":"ﾀﾝﾊﾞｼ","kana_address":"ｻﾝﾅﾝﾁｮｳｷﾀｵｵﾀﾞ","pref":"兵庫県","city":"丹波市","address":"山南町北太田"},
{"zip_code":"6693152","kana_pref":"ﾋｮｳｺﾞｹﾝ","kana_city":"ﾀﾝﾊﾞｼ","kana_address":"ｻﾝﾅﾝﾁｮｳｷﾀﾜﾀﾞ","pref":"兵庫県","city":"丹波市","address":"山南町北和田"},
{"zip_code":"6693148","kana_pref":"ﾋｮｳｺﾞｹﾝ","kana_city":"ﾀﾝﾊﾞｼ","kana_address":"ｻﾝﾅﾝﾁｮｳｷﾗﾗﾄﾞｵﾘ","pref":"兵庫県","city":"丹波市","address":"山南町きらら通"},
{"zip_code":"6693151","kana_pref":"ﾋｮｳｺﾞｹﾝ","kana_city":"ﾀﾝﾊﾞｼ","kana_address":"ｻﾝﾅﾝﾁｮｳｸｻﾍﾞ","pref":"兵庫県","city":"丹波市","address":"山南町草部"},
{"zip_code":"6693161","kana_pref":"ﾋｮｳｺﾞｹﾝ","kana_city":"ﾀﾝﾊﾞｼ","kana_address":"ｻﾝﾅﾝﾁｮｳｺﾞｶﾞﾉ","pref":"兵庫県","city":"丹波市","address":"山南町五ケ野"},
{"zip_code":"6693155","kana_pref":"ﾋｮｳｺﾞｹﾝ","kana_city":"ﾀﾝﾊﾞｼ","kana_address":"ｻﾝﾅﾝﾁｮｳｺﾆﾔ","pref":"兵庫県","city":"丹波市","address":"山南町小新屋"},
{"zip_code":"6693162","kana_pref":"ﾋｮｳｺﾞｹﾝ","kana_city":"ﾀﾝﾊﾞｼ","kana_address":"ｻﾝﾅﾝﾁｮｳｻｶｼﾞﾘ","pref":"兵庫県","city":"丹波市","address":"山南町坂尻"},
{"zip_code":"6693103","kana_pref":"ﾋｮｳｺﾞｹﾝ","kana_city":"ﾀﾝﾊﾞｼ","kana_address":"ｻﾝﾅﾝﾁｮｳｻｻﾊﾞ","pref":"兵庫県","city":"丹波市","address":"山南町篠場"},
{"zip_code":"6693147","kana_pref":"ﾋｮｳｺﾞｹﾝ","kana_city":"ﾀﾝﾊﾞｼ","kana_address":"ｻﾝﾅﾝﾁｮｳｼﾓﾀﾞ","pref":"兵庫県","city":"丹波市","address":"山南町子茂田"},
{"zip_code":"6693102","kana_pref":"ﾋｮｳｺﾞｹﾝ","kana_city":"ﾀﾝﾊﾞｼ","kana_address":"ｻﾝﾅﾝﾁｮｳｼﾓﾀｷ","pref":"兵庫県","city":"丹波市","address":"山南町下滝"},
{"zip_code":"6693131","kana_pref":"ﾋｮｳｺﾞｹﾝ","kana_city":"ﾀﾝﾊﾞｼ","kana_address":"ｻﾝﾅﾝﾁｮｳﾀﾆｶﾞﾜ","pref":"兵庫県","city":"丹波市","address":"山南町谷川"},
{"zip_code":"6693122","kana_pref":"ﾋｮｳｺﾞｹﾝ","kana_city":"ﾀﾝﾊﾞｼ","kana_address":"ｻﾝﾅﾝﾁｮｳﾀﾏｷ","pref":"兵庫県","city":"丹波市","address":"山南町玉巻"},
{"zip_code":"6693165","kana_pref":"ﾋｮｳｺﾞｹﾝ","kana_city":"ﾀﾝﾊﾞｼ","kana_address":"ｻﾝﾅﾝﾁｮｳﾄﾐﾀ","pref":"兵庫県","city":"丹波市","address":"山南町富田"},
{"zip_code":"6693126","kana_pref":"ﾋｮｳｺﾞｹﾝ","kana_city":"ﾀﾝﾊﾞｼ","kana_address":"ｻﾝﾅﾝﾁｮｳﾅｶﾞﾉ","pref":"兵庫県","city":"丹波市","address":"山南町長野"},
{"zip_code":"6693168","kana_pref":"ﾋｮｳｺﾞｹﾝ","kana_city":"ﾀﾝﾊﾞｼ","kana_address":"ｻﾝﾅﾝﾁｮｳﾆｼﾀﾆ","pref":"兵庫県","city":"丹波市","address":"山南町西谷"},
{"zip_code":"6693145","kana_pref":"ﾋｮｳｺﾞｹﾝ","kana_city":"ﾀﾝﾊﾞｼ","kana_address":"ｻﾝﾅﾝﾁｮｳﾉｻｶ","pref":"兵庫県","city":"丹波市","address":"山南町野坂"},
{"zip_code":"6693104","kana_pref":"ﾋｮｳｺﾞｹﾝ","kana_city":"ﾀﾝﾊﾞｼ","kana_address":"ｻﾝﾅﾝﾁｮｳﾊﾀｳﾁ","pref":"兵庫県","city":"丹波市","address":"山南町畑内"},
{"zip_code":"6693153","kana_pref":"ﾋｮｳｺﾞｹﾝ","kana_city":"ﾀﾝﾊﾞｼ","kana_address":"ｻﾝﾅﾝﾁｮｳﾏｴｶﾞﾜ","pref":"兵庫県","city":"丹波市","address":"山南町前川"},
{"zip_code":"6693146","kana_pref":"ﾋｮｳｺﾞｹﾝ","kana_city":"ﾀﾝﾊﾞｼ","kana_address":"ｻﾝﾅﾝﾁｮｳﾐﾅﾐﾅｶ","pref":"兵庫県","city":"丹波市","address":"山南町南中"},
{"zip_code":"6693159","kana_pref":"ﾋｮｳｺﾞｹﾝ","kana_city":"ﾀﾝﾊﾞｼ","kana_address":"ｻﾝﾅﾝﾁｮｳﾐﾜ","pref":"兵庫県","city":"丹波市","address":"山南町美和"},
{"zip_code":"6693142","kana_pref":"ﾋｮｳｺﾞｹﾝ","kana_city":"ﾀﾝﾊﾞｼ","kana_address":"ｻﾝﾅﾝﾁｮｳﾑﾗﾓﾘ","pref":"兵庫県","city":"丹波市","address":"山南町村森"},
{"zip_code":"6693132","kana_pref":"ﾋｮｳｺﾞｹﾝ","kana_city":"ﾀﾝﾊﾞｼ","kana_address":"ｻﾝﾅﾝﾁｮｳﾔﾏｻｷ","pref":"兵庫県","city":"丹波市","address":"山南町山崎"},
{"zip_code":"6693163","kana_pref":"ﾋｮｳｺﾞｹﾝ","kana_city":"ﾀﾝﾊﾞｼ","kana_address":"ｻﾝﾅﾝﾁｮｳﾔﾏﾓﾄ","pref":"兵庫県","city":"丹波市","address":"山南町山本"},
{"zip_code":"6693164","kana_pref":"ﾋｮｳｺﾞｹﾝ","kana_city":"ﾀﾝﾊﾞｼ","kana_address":"ｻﾝﾅﾝﾁｮｳﾜｶﾊﾞﾔｼ","pref":"兵庫県","city":"丹波市","address":"山南町若林"},
{"zip_code":"6693157","kana_pref":"ﾋｮｳｺﾞｹﾝ","kana_city":"ﾀﾝﾊﾞｼ","kana_address":"ｻﾝﾅﾝﾁｮｳﾜﾀﾞ","pref":"兵庫県","city":"丹波市","address":"山南町和田"},
{"zip_code":"6693606","kana_pref":"ﾋｮｳｺﾞｹﾝ","kana_city":"ﾀﾝﾊﾞｼ","kana_address":"ﾋｶﾐﾁｮｳｱｹﾞﾅﾘﾏﾂ","pref":"兵庫県","city":"丹波市","address":"氷上町上成松"},
{"zip_code":"6693574","kana_pref":"ﾋｮｳｺﾞｹﾝ","kana_city":"ﾀﾝﾊﾞｼ","kana_address":"ﾋｶﾐﾁｮｳｱｻｶ","pref":"兵庫県","city":"丹波市","address":"氷上町朝阪"},
{"zip_code":"6693643","kana_pref":"ﾋｮｳｺﾞｹﾝ","kana_city":"ﾀﾝﾊﾞｼ","kana_address":"ﾋｶﾐﾁｮｳｲｻｸﾁ","pref":"兵庫県","city":"丹波市","address":"氷上町伊佐口"},
{"zip_code":"6693464","kana_pref":"ﾋｮｳｺﾞｹﾝ","kana_city":"ﾀﾝﾊﾞｼ","kana_address":"ﾋｶﾐﾁｮｳｲｿｳ","pref":"兵庫県","city":"丹波市","address":"氷上町石生"},
{"zip_code":"6693461","kana_pref":"ﾋｮｳｺﾞｹﾝ","kana_city":"ﾀﾝﾊﾞｼ","kana_address":"ﾋｶﾐﾁｮｳｲﾁﾍﾞ","pref":"兵庫県","city":"丹波市","address":"氷上町市辺"},
{"zip_code":"6693632","kana_pref":"ﾋｮｳｺﾞｹﾝ","kana_city":"ﾀﾝﾊﾞｼ","kana_address":"ﾋｶﾐﾁｮｳｲﾅｶ","pref":"兵庫県","city":"丹波市","address":"氷上町井中"},
{"zip_code":"6693466","kana_pref":"ﾋｮｳｺﾞｹﾝ","kana_city":"ﾀﾝﾊﾞｼ","kana_address":"ﾋｶﾐﾁｮｳｲﾅﾂｷﾞ","pref":"兵庫県","city":"丹波市","address":"氷上町稲継"},
{"zip_code":"6693581","kana_pref":"ﾋｮｳｺﾞｹﾝ","kana_city":"ﾀﾝﾊﾞｼ","kana_address":"ﾋｶﾐﾁｮｳｲﾅﾊﾀ","pref":"兵庫県","city":"丹波市","address":"氷上町稲畑"},
{"zip_code":"6693604","kana_pref":"ﾋｮｳｺﾞｹﾝ","kana_city":"ﾀﾝﾊﾞｼ","kana_address":"ﾋｶﾐﾁｮｳｲﾇｵｶ","pref":"兵庫県","city":"丹波市","address":"氷上町犬岡"},
{"zip_code":"6693462","kana_pref":"ﾋｮｳｺﾞｹﾝ","kana_city":"ﾀﾝﾊﾞｼ","kana_address":"ﾋｶﾐﾁｮｳｵｵｻｷ","pref":"兵庫県","city":"丹波市","address":"氷上町大崎"},
{"zip_code":"6693621","kana_pref":"ﾋｮｳｺﾞｹﾝ","kana_city":"ﾀﾝﾊﾞｼ","kana_address":"ﾋｶﾐﾁｮｳｵｵﾀﾆ","pref":"兵庫県","city":"丹波市","address":"氷上町大谷"},
{"zip_code":"6693612","kana_pref":"ﾋｮｳｺﾞｹﾝ","kana_city":"ﾀﾝﾊﾞｼ","kana_address":"ﾋｶﾐﾁｮｳｵｻﾉ","pref":"兵庫県","city":"丹波市","address":"氷上町長野"},
{"zip_code":"6693575","kana_pref":"ﾋｮｳｺﾞｹﾝ","kana_city":"ﾀﾝﾊﾞｼ","kana_address":"ﾋｶﾐﾁｮｳｵﾉ","pref":"兵庫県","city":"丹波市","address":"氷上町小野"},
{"zip_code":"6693611","kana_pref":"ﾋｮｳｺﾞｹﾝ","kana_city":"ﾀﾝﾊﾞｼ","kana_address":"ﾋｶﾐﾁｮｳｶｷｼﾊﾞ","pref":"兵庫県","city":"丹波市","address":"氷上町柿柴"},
{"zip_code":"6693613","kana_pref":"ﾋｮｳｺﾞｹﾝ","kana_city":"ﾀﾝﾊﾞｼ","kana_address":"ﾋｶﾐﾁｮｳｶﾐｼﾝｼﾞｮｳ","pref":"兵庫県","city":"丹波市","address":"氷上町上新庄"},
{"zip_code":"6693631","kana_pref":"ﾋｮｳｺﾞｹﾝ","kana_city":"ﾀﾝﾊﾞｼ","kana_address":"ﾋｶﾐﾁｮｳｶﾓ","pref":"兵庫県","city":"丹波市","address":"氷上町賀茂"},
{"zip_code":"6693645","kana_pref":"ﾋｮｳｺﾞｹﾝ","kana_city":"ﾀﾝﾊﾞｼ","kana_address":"ﾋｶﾐﾁｮｳｶﾓｳﾁ","pref":"兵庫県","city":"丹波市","address":"氷上町鴨内"},
{"zip_code":"6693463","kana_pref":"ﾋｮｳｺﾞｹﾝ","kana_city":"ﾀﾝﾊﾞｼ","kana_address":"ﾋｶﾐﾁｮｳｷﾀﾉ","pref":"兵庫県","city":"丹波市","address":"氷上町北野"},
{"zip_code":"6693653","kana_pref":"ﾋｮｳｺﾞｹﾝ","kana_city":"ﾀﾝﾊﾞｼ","kana_address":"ﾋｶﾐﾁｮｳｷﾀﾕﾗ","pref":"兵庫県","city":"丹波市","address":"氷上町北油良"},
{"zip_code":"6693641","kana_pref":"ﾋｮｳｺﾞｹﾝ","kana_city":"ﾀﾝﾊﾞｼ","kana_address":"ﾋｶﾐﾁｮｳｷﾇﾔﾏ","pref":"兵庫県","city":"丹波市","address":"氷上町絹山"},
{"zip_code":"6693626","kana_pref":"ﾋｮｳｺﾞｹﾝ","kana_city":"ﾀﾝﾊﾞｼ","kana_address":"ﾋｶﾐﾁｮｳｷﾖｽﾞﾐ","pref":"兵庫県","city":"丹波市","address":"氷上町清住"},
{"zip_code":"6693605","kana_pref":"ﾋｮｳｺﾞｹﾝ","kana_city":"ﾀﾝﾊﾞｼ","kana_address":"ﾋｶﾐﾁｮｳｸﾛﾀﾞ","pref":"兵庫県","city":"丹波市","address":"氷上町黒田"},
{"zip_code":"6693642","kana_pref":"ﾋｮｳｺﾞｹﾝ","kana_city":"ﾀﾝﾊﾞｼ","kana_address":"ﾋｶﾐﾁｮｳｺｳﾗ","pref":"兵庫県","city":"丹波市","address":"氷上町香良"},
{"zip_code":"6693646","kana_pref":"ﾋｮｳｺﾞｹﾝ","kana_city":"ﾀﾝﾊﾞｼ","kana_address":"ﾋｶﾐﾁｮｳｺﾀﾆ","pref":"兵庫県","city":"丹波市","address":"氷上町小谷"},
{"zip_code":"6693633","kana_pref":"ﾋｮｳｺﾞｹﾝ","kana_city":"ﾀﾝﾊﾞｼ","kana_address":"ﾋｶﾐﾁｮｳｺﾞﾕ","pref":"兵庫県","city":"丹波市","address":"氷上町御油"},
{"zip_code":"6693652","kana_pref":"ﾋｮｳｺﾞｹﾝ","kana_city":"ﾀﾝﾊﾞｼ","kana_address":"ﾋｶﾐﾁｮｳｻｼﾞｷ","pref":"兵庫県","city":"丹波市","address":"氷上町桟敷"},
{"zip_code":"6693582","kana_pref":"ﾋｮｳｺﾞｹﾝ","kana_city":"ﾀﾝﾊﾞｼ","kana_address":"ﾋｶﾐﾁｮｳｻﾉ","pref":"兵庫県","city":"丹波市","address":"氷上町佐野"},
{"zip_code":"6693614","kana_pref":"ﾋｮｳｺﾞｹﾝ","kana_city":"ﾀﾝﾊﾞｼ","kana_address":"ﾋｶﾐﾁｮｳｼﾓｼﾝｼﾞｮｳ","pref":"兵庫県","city":"丹波市","address":"氷上町下新庄"},
{"zip_code":"6693602","kana_pref":"ﾋｮｳｺﾞｹﾝ","kana_city":"ﾀﾝﾊﾞｼ","kana_address":"ﾋｶﾐﾁｮｳｼﾞｮｳﾗｸ","pref":"兵庫県","city":"丹波市","address":"氷上町常楽"},
{"zip_code":"6693571","kana_pref":"ﾋｮｳｺﾞｹﾝ","kana_city":"ﾀﾝﾊﾞｼ","kana_address":"ﾋｶﾐﾁｮｳｼﾝｺﾞｳ","pref":"兵庫県","city":"丹波市","address":"氷上町新郷"},
{"zip_code":"6693572","kana_pref":"ﾋｮｳｺﾞｹﾝ","kana_city":"ﾀﾝﾊﾞｼ","kana_address":"ﾋｶﾐﾁｮｳﾀﾆﾑﾗ","pref":"兵庫県","city":"丹波市","address":"氷上町谷村"},
{"zip_code":"6693625","kana_pref":"ﾋｮｳｺﾞｹﾝ","kana_city":"ﾀﾝﾊﾞｼ","kana_address":"ﾋｶﾐﾁｮｳﾅｶ","pref":"兵庫県","city":"丹波市","address":"氷上町中"},
{"zip_code":"6693623","kana_pref":"ﾋｮｳｺﾞｹﾝ","kana_city":"ﾀﾝﾊﾞｼ","kana_address":"ﾋｶﾐﾁｮｳﾅｶﾉ","pref":"兵庫県","city":"丹波市","address":"氷上町中野"},
{"zip_code":"6693601","kana_pref":"ﾋｮｳｺﾞｹﾝ","kana_city":"ﾀﾝﾊﾞｼ","kana_address":"ﾋｶﾐﾁｮｳﾅﾘﾏﾂ","pref":"兵庫県","city":"丹波市","address":"氷上町成松"},
{"zip_code":"6693603","kana_pref":"ﾋｮｳｺﾞｹﾝ","kana_city":"ﾀﾝﾊﾞｼ","kana_address":"ﾋｶﾐﾁｮｳﾆｼﾅｶ","pref":"兵庫県","city":"丹波市","address":"氷上町西中"},
{"zip_code":"6693634","kana_pref":"ﾋｮｳｺﾞｹﾝ","kana_city":"ﾀﾝﾊﾞｼ","kana_address":"ﾋｶﾐﾁｮｳﾇﾏ","pref":"兵庫県","city":"丹波市","address":"氷上町沼"},
{"zip_code":"6693651","kana_pref":"ﾋｮｳｺﾞｹﾝ","kana_city":"ﾀﾝﾊﾞｼ","kana_address":"ﾋｶﾐﾁｮｳﾋｶﾐ","pref":"兵庫県","city":"丹波市","address":"氷上町氷上"},
{"zip_code":"6693644","kana_pref":"ﾋｮｳｺﾞｹﾝ","kana_city":"ﾀﾝﾊﾞｼ","kana_address":"ﾋｶﾐﾁｮｳﾋﾋﾞｳ","pref":"兵庫県","city":"丹波市","address":"氷上町日比宇"},
{"zip_code":"6693583","kana_pref":"ﾋｮｳｺﾞｹﾝ","kana_city":"ﾀﾝﾊﾞｼ","kana_address":"ﾋｶﾐﾁｮｳﾌｸﾀ","pref":"兵庫県","city":"丹波市","address":"氷上町福田"},
{"zip_code":"6693467","kana_pref":"ﾋｮｳｺﾞｹﾝ","kana_city":"ﾀﾝﾊﾞｼ","kana_address":"ﾋｶﾐﾁｮｳﾎﾝｺﾞｳ","pref":"兵庫県","city":"丹波市","address":"氷上町本郷"},
{"zip_code":"6693624","kana_pref":"ﾋｮｳｺﾞｹﾝ","kana_city":"ﾀﾝﾊﾞｼ","kana_address":"ﾋｶﾐﾁｮｳﾐｶﾀ","pref":"兵庫県","city":"丹波市","address":"氷上町三方"},
{"zip_code":"6693654","kana_pref":"ﾋｮｳｺﾞｹﾝ","kana_city":"ﾀﾝﾊﾞｼ","kana_address":"ﾋｶﾐﾁｮｳﾐﾅﾐﾕﾗ","pref":"兵庫県","city":"丹波市","address":"氷上町南油良"},
{"zip_code":"6693622","kana_pref":"ﾋｮｳｺﾞｹﾝ","kana_city":"ﾀﾝﾊﾞｼ","kana_address":"ﾋｶﾐﾁｮｳﾐﾊﾗ","pref":"兵庫県","city":"丹波市","address":"氷上町三原"},
{"zip_code":"6693573","kana_pref":"ﾋｮｳｺﾞｹﾝ","kana_city":"ﾀﾝﾊﾞｼ","kana_address":"ﾋｶﾐﾁｮｳﾕﾘ","pref":"兵庫県","city":"丹波市","address":"氷上町油利"},
{"zip_code":"6693465","kana_pref":"ﾋｮｳｺﾞｹﾝ","kana_city":"ﾀﾝﾊﾞｼ","kana_address":"ﾋｶﾐﾁｮｳﾖｺﾀ","pref":"兵庫県","city":"丹波市","address":"氷上町横田"},
{"zip_code":"6695200","kana_pref":"ﾋｮｳｺﾞｹﾝ","kana_city":"ｱｻｺﾞｼ","kana_address":"","pref":"兵庫県","city":"朝来市","address":""},
{"zip_code":"6695125","kana_pref":"ﾋｮｳｺﾞｹﾝ","kana_city":"ｱｻｺﾞｼ","kana_address":"ｻﾝﾄｳﾁｮｳｱﾜｶﾞ","pref":"兵庫県","city":"朝来市","address":"山東町粟鹿"},
{"zip_code":"6695123","kana_pref":"ﾋｮｳｺﾞｹﾝ","kana_city":"ｱｻｺﾞｼ","kana_address":"ｻﾝﾄｳﾁｮｳｲｯﾎﾟｳ","pref":"兵庫県","city":"朝来市","address":"山東町一品"},
{"zip_code":"6695112","kana_pref":"ﾋｮｳｺﾞｹﾝ","kana_city":"ｱｻｺﾞｼ","kana_address":"ｻﾝﾄｳﾁｮｳｵｵｳﾁ","pref":"兵庫県","city":"朝来市","address":"山東町大内"},
{"zip_code":"6695102","kana_pref":"ﾋｮｳｺﾞｹﾝ","kana_city":"ｱｻｺﾞｼ","kana_address":"ｻﾝﾄｳﾁｮｳｵｵｶｲ","pref":"兵庫県","city":"朝来市","address":"山東町大垣"},
{"zip_code":"6695153","kana_pref":"ﾋｮｳｺﾞｹﾝ","kana_city":"ｱｻｺﾞｼ","kana_address":"ｻﾝﾄｳﾁｮｳｵｵﾂｷ","pref":"兵庫県","city":"朝来市","address":"山東町大月"},
{"zip_code":"6695142","kana_pref":"ﾋｮｳｺﾞｹﾝ","kana_city":"ｱｻｺﾞｼ","kana_address":"ｻﾝﾄｳﾁｮｳｵｯﾀ","pref":"兵庫県","city":"朝来市","address":"山東町越田"},
{"zip_code":"6695143","kana_pref":"ﾋｮｳｺﾞｹﾝ","kana_city":"ｱｻｺﾞｼ","kana_address":"ｻﾝﾄｳﾁｮｳｶｷﾂﾎﾞ","pref":"兵庫県","city":"朝来市","address":"山東町柿坪"},
{"zip_code":"6695152","kana_pref":"ﾋｮｳｺﾞｹﾝ","kana_city":"ｱｻｺﾞｼ","kana_address":"ｻﾝﾄｳﾁｮｳｶﾞｸｵﾝｼﾞ","pref":"兵庫県","city":"朝来市","address":"山東町楽音寺"},
{"zip_code":"6695115","kana_pref":"ﾋｮｳｺﾞｹﾝ","kana_city":"ｱｻｺﾞｼ","kana_address":"ｻﾝﾄｳﾁｮｳｶﾅｳﾗ","pref":"兵庫県","city":"朝来市","address":"山東町金浦"},
{"zip_code":"6695133","kana_pref":"ﾋｮｳｺﾞｹﾝ","kana_city":"ｱｻｺﾞｼ","kana_address":"ｻﾝﾄｳﾁｮｳｷﾀｶﾞｷ","pref":"兵庫県","city":"朝来市","address":"山東町喜多垣"},
{"zip_code":"6695151","kana_pref":"ﾋｮｳｺﾞｹﾝ","kana_city":"ｱｻｺﾞｼ","kana_address":"ｻﾝﾄｳﾁｮｳｺﾀﾆ","pref":"兵庫県","city":"朝来市","address":"山東町小谷"},
{"zip_code":"6695113","kana_pref":"ﾋｮｳｺﾞｹﾝ","kana_city":"ｱｻｺﾞｼ","kana_address":"ｻﾝﾄｳﾁｮｳｼｵﾀ","pref":"兵庫県","city":"朝来市","address":"山東町塩田"},
{"zip_code":"6695124","kana_pref":"ﾋｮｳｺﾞｹﾝ","kana_city":"ｱｻｺﾞｼ","kana_address":"ｻﾝﾄｳﾁｮｳｼﾊﾞ","pref":"兵庫県","city":"朝来市","address":"山東町柴"},
{"zip_code":"6695111","kana_pref":"ﾋｮｳｺﾞｹﾝ","kana_city":"ｱｻｺﾞｼ","kana_address":"ｻﾝﾄｳﾁｮｳｼﾝﾄﾞｳ","pref":"兵庫県","city":"朝来市","address":"山東町新堂"},
{"zip_code":"6695101","kana_pref":"ﾋｮｳｺﾞｹﾝ","kana_city":"ｱｻｺﾞｼ","kana_address":"ｻﾝﾄｳﾁｮｳﾀｷﾀ","pref":"兵庫県","city":"朝来市","address":"山東町滝田"},
{"zip_code":"6695114","kana_pref":"ﾋｮｳｺﾞｹﾝ","kana_city":"ｱｻｺﾞｼ","kana_address":"ｻﾝﾄｳﾁｮｳﾉﾏ","pref":"兵庫県","city":"朝来市","address":"山東町野間"},
{"zip_code":"6695134","kana_pref":"ﾋｮｳｺﾞｹﾝ","kana_city":"ｱｻｺﾞｼ","kana_address":"ｻﾝﾄｳﾁｮｳﾊｻﾏ","pref":"兵庫県","city":"朝来市","address":"山東町迫間"},
{"zip_code":"6695131","kana_pref":"ﾋｮｳｺﾞｹﾝ","kana_city":"ｱｻｺﾞｼ","kana_address":"ｻﾝﾄｳﾁｮｳﾋｲﾗｷﾞ","pref":"兵庫県","city":"朝来市","address":"山東町柊木"},
{"zip_code":"6695104","kana_pref":"ﾋｮｳｺﾞｹﾝ","kana_city":"ｱｻｺﾞｼ","kana_address":"ｻﾝﾄｳﾁｮｳﾏｯｻｲ","pref":"兵庫県","city":"朝来市","address":"山東町末歳"},
{"zip_code":"6695132","kana_pref":"ﾋｮｳｺﾞｹﾝ","kana_city":"ｱｻｺﾞｼ","kana_address":"ｻﾝﾄｳﾁｮｳﾐｿﾞｸﾛ","pref":"兵庫県","city":"朝来市","address":"山東町溝黒"},
{"zip_code":"6695141","kana_pref":"ﾋｮｳｺﾞｹﾝ","kana_city":"ｱｻｺﾞｼ","kana_address":"ｻﾝﾄｳﾁｮｳﾐﾎ","pref":"兵庫県","city":"朝来市","address":"山東町三保"},
{"zip_code":"6695135","kana_pref":"ﾋｮｳｺﾞｹﾝ","kana_city":"ｱｻｺﾞｼ","kana_address":"ｻﾝﾄｳﾁｮｳﾓﾘ","pref":"兵庫県","city":"朝来市","address":"山東町森"},
{"zip_code":"6695103","kana_pref":"ﾋｮｳｺﾞｹﾝ","kana_city":"ｱｻｺﾞｼ","kana_address":"ｻﾝﾄｳﾁｮｳﾔﾅｾﾏﾁ","pref":"兵庫県","city":"朝来市","address":"山東町矢名瀬町"},
{"zip_code":"6695136","kana_pref":"ﾋｮｳｺﾞｹﾝ","kana_city":"ｱｻｺﾞｼ","kana_address":"ｻﾝﾄｳﾁｮｳﾖﾌﾄﾞ","pref":"兵庫県","city":"朝来市","address":"山東町与布土"},
{"zip_code":"6695121","kana_pref":"ﾋｮｳｺﾞｹﾝ","kana_city":"ｱｻｺﾞｼ","kana_address":"ｻﾝﾄｳﾁｮｳﾜｶﾞ","pref":"兵庫県","city":"朝来市","address":"山東町和賀"},
{"zip_code":"6695122","kana_pref":"ﾋｮｳｺﾞｹﾝ","kana_city":"ｱｻｺﾞｼ","kana_address":"ｻﾝﾄｳﾁｮｳﾜｻﾀﾞ","pref":"兵庫県","city":"朝来市","address":"山東町早田"},
{"zip_code":"6695221","kana_pref":"ﾋｮｳｺﾞｹﾝ","kana_city":"ｱｻｺﾞｼ","kana_address":"ﾜﾀﾞﾔﾏﾁｮｳｱｷﾊﾞﾀﾞｲ","pref":"兵庫県","city":"朝来市","address":"和田山町秋葉台"},
{"zip_code":"6695238","kana_pref":"ﾋｮｳｺﾞｹﾝ","kana_city":"ｱｻｺﾞｼ","kana_address":"ﾜﾀﾞﾔﾏﾁｮｳｱｻﾋ","pref":"兵庫県","city":"朝来市","address":"和田山町朝日"},
{"zip_code":"6695234","kana_pref":"ﾋｮｳｺﾞｹﾝ","kana_city":"ｱｻｺﾞｼ","kana_address":"ﾜﾀﾞﾔﾏﾁｮｳｲﾁﾊﾞ","pref":"兵庫県","city":"朝来市","address":"和田山町市場"},
{"zip_code":"6695262","kana_pref":"ﾋｮｳｺﾞｹﾝ","kana_city":"ｱｻｺﾞｼ","kana_address":"ﾜﾀﾞﾔﾏﾁｮｳｲﾁﾐﾄﾞｳ","pref":"兵庫県","city":"朝来市","address":"和田山町市御堂"},
{"zip_code":"6695236","kana_pref":"ﾋｮｳｺﾞｹﾝ","kana_city":"ｱｻｺﾞｼ","kana_address":"ﾜﾀﾞﾔﾏﾁｮｳｳﾂﾉﾐ","pref":"兵庫県","city":"朝来市","address":"和田山町内海"},
{"zip_code":"6695204","kana_pref":"ﾋｮｳｺﾞｹﾝ","kana_city":"ｱｻｺﾞｼ","kana_address":"ﾜﾀﾞﾔﾏﾁｮｳｴｷｷﾀ","pref":"兵庫県","city":"朝来市","address":"和田山町駅北"},
{"zip_code":"6695246","kana_pref":"ﾋｮｳｺﾞｹﾝ","kana_city":"ｱｻｺﾞｼ","kana_address":"ﾜﾀﾞﾔﾏﾁｮｳｵｶ","pref":"兵庫県","city":"朝来市","address":"和田山町岡"},
{"zip_code":"6695224","kana_pref":"ﾋｮｳｺﾞｹﾝ","kana_city":"ｱｻｺﾞｼ","kana_address":"ﾜﾀﾞﾔﾏﾁｮｳｵｶﾀﾞ","pref":"兵庫県","city":"朝来市","address":"和田山町岡田"},
{"zip_code":"6695264","kana_pref":"ﾋｮｳｺﾞｹﾝ","kana_city":"ｱｻｺﾞｼ","kana_address":"ﾜﾀﾞﾔﾏﾁｮｳｶﾂ","pref":"兵庫県","city":"朝来市","address":"和田山町加都"},
{"zip_code":"6695253","kana_pref":"ﾋｮｳｺﾞｹﾝ","kana_city":"ｱｻｺﾞｼ","kana_address":"ﾜﾀﾞﾔﾏﾁｮｳｸｾﾀﾞ","pref":"兵庫県","city":"朝来市","address":"和田山町久世田"},
{"zip_code":"6695228","kana_pref":"ﾋｮｳｺﾞｹﾝ","kana_city":"ｱｻｺﾞｼ","kana_address":"ﾜﾀﾞﾔﾏﾁｮｳｸﾀﾞﾜ","pref":"兵庫県","city":"朝来市","address":"和田山町久田和"},
{"zip_code":"6695263","kana_pref":"ﾋｮｳｺﾞｹﾝ","kana_city":"ｱｻｺﾞｼ","kana_address":"ﾜﾀﾞﾔﾏﾁｮｳｸﾙﾌﾞｷ","pref":"兵庫県","city":"朝来市","address":"和田山町久留引"},
{"zip_code":"6695214","kana_pref":"ﾋｮｳｺﾞｹﾝ","kana_city":"ｱｻｺﾞｼ","kana_address":"ﾜﾀﾞﾔﾏﾁｮｳｸﾜﾊﾞﾗ","pref":"兵庫県","city":"朝来市","address":"和田山町桑原"},
{"zip_code":"6695251","kana_pref":"ﾋｮｳｺﾞｹﾝ","kana_city":"ｱｻｺﾞｼ","kana_address":"ﾜﾀﾞﾔﾏﾁｮｳｻｶｴﾏﾁ","pref":"兵庫県","city":"朝来市","address":"和田山町栄町"},
{"zip_code":"6695256","kana_pref":"ﾋｮｳｺﾞｹﾝ","kana_city":"ｱｻｺﾞｼ","kana_address":"ﾜﾀﾞﾔﾏﾁｮｳｻﾝﾅﾐ","pref":"兵庫県","city":"朝来市","address":"和田山町三波"},
{"zip_code":"6695258","kana_pref":"ﾋｮｳｺﾞｹﾝ","kana_city":"ｱｻｺﾞｼ","kana_address":"ﾜﾀﾞﾔﾏﾁｮｳｼﾞｮｳﾅﾝﾀﾞｲ","pref":"兵庫県","city":"朝来市","address":"和田山町城南台"},
{"zip_code":"6695220","kana_pref":"ﾋｮｳｺﾞｹﾝ","kana_city":"ｱｻｺﾞｼ","kana_address":"ﾜﾀﾞﾔﾏﾁｮｳｼﾗｲ","pref":"兵庫県","city":"朝来市","address":"和田山町白井"},
{"zip_code":"6695243","kana_pref":"ﾋｮｳｺﾞｹﾝ","kana_city":"ｱｻｺﾞｼ","kana_address":"ﾜﾀﾞﾔﾏﾁｮｳﾀｶﾀ","pref":"兵庫県","city":"朝来市","address":"和田山町高田"},
{"zip_code":"6695252","kana_pref":"ﾋｮｳｺﾞｹﾝ","kana_city":"ｱｻｺﾞｼ","kana_address":"ﾜﾀﾞﾔﾏﾁｮｳﾀｹﾀﾞ","pref":"兵庫県","city":"朝来市","address":"和田山町竹田"},
{"zip_code":"6695237","kana_pref":"ﾋｮｳｺﾞｹﾝ","kana_city":"ｱｻｺﾞｼ","kana_address":"ﾜﾀﾞﾔﾏﾁｮｳﾀｹﾉｳﾁ","pref":"兵庫県","city":"朝来市","address":"和田山町竹ノ内"},
{"zip_code":"6695233","kana_pref":"ﾋｮｳｺﾞｹﾝ","kana_city":"ｱｻｺﾞｼ","kana_address":"ﾜﾀﾞﾔﾏﾁｮｳﾀｺｳﾀﾞ","pref":"兵庫県","city":"朝来市","address":"和田山町高生田"},
{"zip_code":"6695268","kana_pref":"ﾋｮｳｺﾞｹﾝ","kana_city":"ｱｻｺﾞｼ","kana_address":"ﾜﾀﾞﾔﾏﾁｮｳﾀﾂﾉﾊﾗ","pref":"兵庫県","city":"朝来市","address":"和田山町立ノ原"},
{"zip_code":"6695213","kana_pref":"ﾋｮｳｺﾞｹﾝ","kana_city":"ｱｻｺﾞｼ","kana_address":"ﾜﾀﾞﾔﾏﾁｮｳﾀﾏｷ","pref":"兵庫県","city":"朝来市","address":"和田山町玉置"},
{"zip_code":"6695265","kana_pref":"ﾋｮｳｺﾞｹﾝ","kana_city":"ｱｻｺﾞｼ","kana_address":"ﾜﾀﾞﾔﾏﾁｮｳﾂﾂｴ","pref":"兵庫県","city":"朝来市","address":"和田山町筒江"},
{"zip_code":"6695232","kana_pref":"ﾋｮｳｺﾞｹﾝ","kana_city":"ｱｻｺﾞｼ","kana_address":"ﾜﾀﾞﾔﾏﾁｮｳﾃﾗｳﾁ","pref":"兵庫県","city":"朝来市","address":"和田山町寺内"},
{"zip_code":"6695203","kana_pref":"ﾋｮｳｺﾞｹﾝ","kana_city":"ｱｻｺﾞｼ","kana_address":"ﾜﾀﾞﾔﾏﾁｮｳﾃﾗﾀﾞﾆ","pref":"兵庫県","city":"朝来市","address":"和田山町寺谷"},
{"zip_code":"6695255","kana_pref":"ﾋｮｳｺﾞｹﾝ","kana_city":"ｱｻｺﾞｼ","kana_address":"ﾜﾀﾞﾔﾏﾁｮｳﾄﾉ","pref":"兵庫県","city":"朝来市","address":"和田山町殿"},
{"zip_code":"6695226","kana_pref":"ﾋｮｳｺﾞｹﾝ","kana_city":"ｱｻｺﾞｼ","kana_address":"ﾜﾀﾞﾔﾏﾁｮｳﾅｶ","pref":"兵庫県","city":"朝来市","address":"和田山町中"},
{"zip_code":"6695225","kana_pref":"ﾋｮｳｺﾞｹﾝ","kana_city":"ｱｻｺﾞｼ","kana_address":"ﾜﾀﾞﾔﾏﾁｮｳﾉﾑﾗ","pref":"兵庫県","city":"朝来市","address":"和田山町野村"},
{"zip_code":"6695231","kana_pref":"ﾋｮｳｺﾞｹﾝ","kana_city":"ｱｻｺﾞｼ","kana_address":"ﾜﾀﾞﾔﾏﾁｮｳﾊﾔｼｶﾞｷ","pref":"兵庫県","city":"朝来市","address":"和田山町林垣"},
{"zip_code":"6695241","kana_pref":"ﾋｮｳｺﾞｹﾝ","kana_city":"ｱｻｺﾞｼ","kana_address":"ﾜﾀﾞﾔﾏﾁｮｳﾊﾝﾀﾞ","pref":"兵庫県","city":"朝来市","address":"和田山町土田"},
{"zip_code":"6695202","kana_pref":"ﾋｮｳｺﾞｹﾝ","kana_city":"ｱｻｺﾞｼ","kana_address":"ﾜﾀﾞﾔﾏﾁｮｳﾋｶﾞｼﾀﾞﾆ","pref":"兵庫県","city":"朝来市","address":"和田山町東谷"},
{"zip_code":"6695227","kana_pref":"ﾋｮｳｺﾞｹﾝ","kana_city":"ｱｻｺﾞｼ","kana_address":"ﾜﾀﾞﾔﾏﾁｮｳﾋｶﾞｼﾜﾀﾞ","pref":"兵庫県","city":"朝来市","address":"和田山町東和田"},
{"zip_code":"6695266","kana_pref":"ﾋｮｳｺﾞｹﾝ","kana_city":"ｱｻｺﾞｼ","kana_address":"ﾜﾀﾞﾔﾏﾁｮｳﾋｼﾞ","pref":"兵庫県","city":"朝来市","address":"和田山町比治"},
{"zip_code":"6695261","kana_pref":"ﾋｮｳｺﾞｹﾝ","kana_city":"ｱｻｺﾞｼ","kana_address":"ﾜﾀﾞﾔﾏﾁｮｳﾋﾗﾀ","pref":"兵庫県","city":"朝来市","address":"和田山町枚田"},
{"zip_code":"6695215","kana_pref":"ﾋｮｳｺﾞｹﾝ","kana_city":"ｱｻｺﾞｼ","kana_address":"ﾜﾀﾞﾔﾏﾁｮｳﾋﾗﾀｵｶ","pref":"兵庫県","city":"朝来市","address":"和田山町枚田岡"},
{"zip_code":"6695211","kana_pref":"ﾋｮｳｺﾞｹﾝ","kana_city":"ｱｻｺﾞｼ","kana_address":"ﾜﾀﾞﾔﾏﾁｮｳﾋﾗﾉ","pref":"兵庫県","city":"朝来市","address":"和田山町平野"},
{"zip_code":"6695257","kana_pref":"ﾋｮｳｺﾞｹﾝ","kana_city":"ｱｻｺﾞｼ","kana_address":"ﾜﾀﾞﾔﾏﾁｮｳﾌｼﾞﾜ","pref":"兵庫県","city":"朝来市","address":"和田山町藤和"},
{"zip_code":"6695245","kana_pref":"ﾋｮｳｺﾞｹﾝ","kana_city":"ｱｻｺﾞｼ","kana_address":"ﾜﾀﾞﾔﾏﾁｮｳﾎｳﾄﾞｳｼﾞ","pref":"兵庫県","city":"朝来市","address":"和田山町法道寺"},
{"zip_code":"6695267","kana_pref":"ﾋｮｳｺﾞｹﾝ","kana_city":"ｱｻｺﾞｼ","kana_address":"ﾜﾀﾞﾔﾏﾁｮｳﾎﾂｺｳｼﾞ","pref":"兵庫県","city":"朝来市","address":"和田山町法興寺"},
{"zip_code":"6695222","kana_pref":"ﾋｮｳｺﾞｹﾝ","kana_city":"ｱｻｺﾞｼ","kana_address":"ﾜﾀﾞﾔﾏﾁｮｳﾏﾝﾖｳﾀﾞｲ","pref":"兵庫県","city":"朝来市","address":"和田山町万葉台"},
{"zip_code":"6695229","kana_pref":"ﾋｮｳｺﾞｹﾝ","kana_city":"ｱｻｺﾞｼ","kana_address":"ﾜﾀﾞﾔﾏﾁｮｳﾐﾔ","pref":"兵庫県","city":"朝来市","address":"和田山町宮"},
{"zip_code":"6695244","kana_pref":"ﾋｮｳｺﾞｹﾝ","kana_city":"ｱｻｺﾞｼ","kana_address":"ﾜﾀﾞﾔﾏﾁｮｳﾐﾔｳﾁ","pref":"兵庫県","city":"朝来市","address":"和田山町宮内"},
{"zip_code":"6695242","kana_pref":"ﾋｮｳｺﾞｹﾝ","kana_city":"ｱｻｺﾞｼ","kana_address":"ﾜﾀﾞﾔﾏﾁｮｳﾐﾔﾀﾞ","pref":"兵庫県","city":"朝来市","address":"和田山町宮田"},
{"zip_code":"6695223","kana_pref":"ﾋｮｳｺﾞｹﾝ","kana_city":"ｱｻｺﾞｼ","kana_address":"ﾜﾀﾞﾔﾏﾁｮｳﾑﾛｵ","pref":"兵庫県","city":"朝来市","address":"和田山町室尾"},
{"zip_code":"6695254","kana_pref":"ﾋｮｳｺﾞｹﾝ","kana_city":"ｱｻｺﾞｼ","kana_address":"ﾜﾀﾞﾔﾏﾁｮｳﾔｽｲ","pref":"兵庫県","city":"朝来市","address":"和田山町安井"},
{"zip_code":"6695212","kana_pref":"ﾋｮｳｺﾞｹﾝ","kana_city":"ｱｻｺﾞｼ","kana_address":"ﾜﾀﾞﾔﾏﾁｮｳﾔﾅｷﾞﾊﾗ","pref":"兵庫県","city":"朝来市","address":"和田山町柳原"},
{"zip_code":"6695216","kana_pref":"ﾋｮｳｺﾞｹﾝ","kana_city":"ｱｻｺﾞｼ","kana_address":"ﾜﾀﾞﾔﾏﾁｮｳﾔﾖｲｶﾞｵｶ","pref":"兵庫県","city":"朝来市","address":"和田山町弥生が丘"},
{"zip_code":"6695235","kana_pref":"ﾋｮｳｺﾞｹﾝ","kana_city":"ｱｻｺﾞｼ","kana_address":"ﾜﾀﾞﾔﾏﾁｮｳﾜﾀﾞ","pref":"兵庫県","city":"朝来市","address":"和田山町和田"},
{"zip_code":"6695201","kana_pref":"ﾋｮｳｺﾞｹﾝ","kana_city":"ｱｻｺﾞｼ","kana_address":"ﾜﾀﾞﾔﾏﾁｮｳﾜﾀﾞﾔﾏ","pref":"兵庫県","city":"朝来市","address":"和田山町和田山"},
{"zip_code":"6696500","kana_pref":"ﾋｮｳｺﾞｹﾝ","kana_city":"ﾐｶﾀｸﾞﾝｶﾐﾁｮｳ","kana_address":"","pref":"兵庫県","city":"美方郡香美町","address":""},
{"zip_code":"6696404","kana_pref":"ﾋｮｳｺﾞｹﾝ","kana_city":"ﾐｶﾀｸﾞﾝｶﾐﾁｮｳ","kana_address":"ｶｽﾐｸｱｲﾀﾞﾆ","pref":"兵庫県","city":"美方郡香美町","address":"香住区相谷"},
{"zip_code":"6696432","kana_pref":"ﾋｮｳｺﾞｹﾝ","kana_city":"ﾐｶﾀｸﾞﾝｶﾐﾁｮｳ","kana_address":"ｶｽﾐｸｱｹﾞ","pref":"兵庫県","city":"美方郡香美町","address":"香住区上計"},
{"zip_code":"6696671","kana_pref":"ﾋｮｳｺﾞｹﾝ","kana_city":"ﾐｶﾀｸﾞﾝｶﾐﾁｮｳ","kana_address":"ｶｽﾐｸｱﾏﾙﾍﾞ","pref":"兵庫県","city":"美方郡香美町","address":"香住区余部"},
{"zip_code":"6696431","kana_pref":"ﾋｮｳｺﾞｹﾝ","kana_city":"ﾐｶﾀｸﾞﾝｶﾐﾁｮｳ","kana_address":"ｶｽﾐｸｳﾗｶﾞﾐ","pref":"兵庫県","city":"美方郡香美町","address":"香住区浦上"},
{"zip_code":"6696425","kana_pref":"ﾋｮｳｺﾞｹﾝ","kana_city":"ﾐｶﾀｸﾞﾝｶﾐﾁｮｳ","kana_address":"ｶｽﾐｸｵｵｶｼﾞ","pref":"兵庫県","city":"美方郡香美町","address":"香住区大梶"},
{"zip_code":"6696554","kana_pref":"ﾋｮｳｺﾞｹﾝ","kana_city":"ﾐｶﾀｸﾞﾝｶﾐﾁｮｳ","kana_address":"ｶｽﾐｸｵｵﾀﾞﾆ","pref":"兵庫県","city":"美方郡香美町","address":"香住区大谷"},
{"zip_code":"6696555","kana_pref":"ﾋｮｳｺﾞｹﾝ","kana_city":"ﾐｶﾀｸﾞﾝｶﾐﾁｮｳ","kana_address":"ｶｽﾐｸｵｵﾉ","pref":"兵庫県","city":"美方郡香美町","address":"香住区大野"},
{"zip_code":"6696433","kana_pref":"ﾋｮｳｺﾞｹﾝ","kana_city":"ﾐｶﾀｸﾞﾝｶﾐﾁｮｳ","kana_address":"ｶｽﾐｸｵｷﾉｳﾗ","pref":"兵庫県","city":"美方郡香美町","address":"香住区沖浦"},
{"zip_code":"6696552","kana_pref":"ﾋｮｳｺﾞｹﾝ","kana_city":"ﾐｶﾀｸﾞﾝｶﾐﾁｮｳ","kana_address":"ｶｽﾐｸｶｼﾞｶﾉ","pref":"兵庫県","city":"美方郡香美町","address":"香住区加鹿野"},
{"zip_code":"6696544","kana_pref":"ﾋｮｳｺﾞｹﾝ","kana_city":"ﾐｶﾀｸﾞﾝｶﾐﾁｮｳ","kana_address":"ｶｽﾐｸｶｽﾐ","pref":"兵庫県","city":"美方郡香美町","address":"香住区香住"},
{"zip_code":"6696414","kana_pref":"ﾋｮｳｺﾞｹﾝ","kana_city":"ﾐｶﾀｸﾞﾝｶﾐﾁｮｳ","kana_address":"ｶｽﾐｸｶﾐｵｶ","pref":"兵庫県","city":"美方郡香美町","address":"香住区上岡"},
{"zip_code":"6696411","kana_pref":"ﾋｮｳｺﾞｹﾝ","kana_city":"ﾐｶﾀｸﾞﾝｶﾐﾁｮｳ","kana_address":"ｶｽﾐｸｸﾄ","pref":"兵庫県","city":"美方郡香美町","address":"香住区九斗"},
{"zip_code":"6696402","kana_pref":"ﾋｮｳｺﾞｹﾝ","kana_city":"ﾐｶﾀｸﾞﾝｶﾐﾁｮｳ","kana_address":"ｶｽﾐｸｸﾝﾀﾞﾆ","pref":"兵庫県","city":"美方郡香美町","address":"香住区訓谷"},
{"zip_code":"6696559","kana_pref":"ﾋｮｳｺﾞｹﾝ","kana_city":"ﾐｶﾀｸﾞﾝｶﾐﾁｮｳ","kana_address":"ｶｽﾐｸｺﾊﾞﾗ","pref":"兵庫県","city":"美方郡香美町","address":"香住区小原"},
{"zip_code":"6696541","kana_pref":"ﾋｮｳｺﾞｹﾝ","kana_city":"ﾐｶﾀｸﾞﾝｶﾐﾁｮｳ","kana_address":"ｶｽﾐｸｻｶｲ","pref":"兵庫県","city":"美方郡香美町","address":"香住区境"},
{"zip_code":"6696413","kana_pref":"ﾋｮｳｺﾞｹﾝ","kana_city":"ﾐｶﾀｸﾞﾝｶﾐﾁｮｳ","kana_address":"ｶｽﾐｸｼﾓｵｶ","pref":"兵庫県","city":"美方郡香美町","address":"香住区下岡"},
{"zip_code":"6696564","kana_pref":"ﾋｮｳｺﾞｹﾝ","kana_city":"ﾐｶﾀｸﾞﾝｶﾐﾁｮｳ","kana_address":"ｶｽﾐｸｼﾓﾉﾊﾏ","pref":"兵庫県","city":"美方郡香美町","address":"香住区下浜"},
{"zip_code":"6696551","kana_pref":"ﾋｮｳｺﾞｹﾝ","kana_city":"ﾐｶﾀｸﾞﾝｶﾐﾁｮｳ","kana_address":"ｶｽﾐｸｽｶﾗ","pref":"兵庫県","city":"美方郡香美町","address":"香住区守柄"},
{"zip_code":"6696556","kana_pref":"ﾋｮｳｺﾞｹﾝ","kana_city":"ﾐｶﾀｸﾞﾝｶﾐﾁｮｳ","kana_address":"ｶｽﾐｸﾅｶﾉ","pref":"兵庫県","city":"美方郡香美町","address":"香住区中野"},
{"zip_code":"6696546","kana_pref":"ﾋｮｳｺﾞｹﾝ","kana_city":"ﾐｶﾀｸﾞﾝｶﾐﾁｮｳ","kana_address":"ｶｽﾐｸﾅﾇｶｲﾁ","pref":"兵庫県","city":"美方郡香美町","address":"香住区七日市"},
{"zip_code":"6696416","kana_pref":"ﾋｮｳｺﾞｹﾝ","kana_city":"ﾐｶﾀｸﾞﾝｶﾐﾁｮｳ","kana_address":"ｶｽﾐｸﾆｳｼﾞ","pref":"兵庫県","city":"美方郡香美町","address":"香住区丹生地"},
{"zip_code":"6696415","kana_pref":"ﾋｮｳｺﾞｹﾝ","kana_city":"ﾐｶﾀｸﾞﾝｶﾐﾁｮｳ","kana_address":"ｶｽﾐｸﾆｼｼﾓｵｶ","pref":"兵庫県","city":"美方郡香美町","address":"香住区西下岡"},
{"zip_code":"6696423","kana_pref":"ﾋｮｳｺﾞｹﾝ","kana_city":"ﾐｶﾀｸﾞﾝｶﾐﾁｮｳ","kana_address":"ｶｽﾐｸﾊﾀ","pref":"兵庫県","city":"美方郡香美町","address":"香住区畑"},
{"zip_code":"6696422","kana_pref":"ﾋｮｳｺﾞｹﾝ","kana_city":"ﾐｶﾀｸﾞﾝｶﾐﾁｮｳ","kana_address":"ｶｽﾐｸﾊﾌﾞ","pref":"兵庫県","city":"美方郡香美町","address":"香住区土生"},
{"zip_code":"6696424","kana_pref":"ﾋｮｳｺﾞｹﾝ","kana_city":"ﾐｶﾀｸﾞﾝｶﾐﾁｮｳ","kana_address":"ｶｽﾐｸﾊﾔﾄ","pref":"兵庫県","city":"美方郡香美町","address":"香住区隼人"},
{"zip_code":"6696542","kana_pref":"ﾋｮｳｺﾞｹﾝ","kana_city":"ﾐｶﾀｸﾞﾝｶﾐﾁｮｳ","kana_address":"ｶｽﾐｸﾋﾄｲﾁ","pref":"兵庫県","city":"美方郡香美町","address":"香住区一日市"},
{"zip_code":"6696557","kana_pref":"ﾋｮｳｺﾞｹﾝ","kana_city":"ﾐｶﾀｸﾞﾝｶﾐﾁｮｳ","kana_address":"ｶｽﾐｸﾌｼﾞ","pref":"兵庫県","city":"美方郡香美町","address":"香住区藤"},
{"zip_code":"6696561","kana_pref":"ﾋｮｳｺﾞｹﾝ","kana_city":"ﾐｶﾀｸﾞﾝｶﾐﾁｮｳ","kana_address":"ｶｽﾐｸﾏﾑﾛ","pref":"兵庫県","city":"美方郡香美町","address":"香住区間室"},
{"zip_code":"6696426","kana_pref":"ﾋｮｳｺﾞｹﾝ","kana_city":"ﾐｶﾀｸﾞﾝｶﾐﾁｮｳ","kana_address":"ｶｽﾐｸﾐｶﾜ","pref":"兵庫県","city":"美方郡香美町","address":"香住区三川"},
{"zip_code":"6696553","kana_pref":"ﾋｮｳｺﾞｹﾝ","kana_city":"ﾐｶﾀｸﾞﾝｶﾐﾁｮｳ","kana_address":"ｶｽﾐｸﾐﾀﾆ","pref":"兵庫県","city":"美方郡香美町","address":"香住区三谷"},
{"zip_code":"6696401","kana_pref":"ﾋｮｳｺﾞｹﾝ","kana_city":"ﾐｶﾀｸﾞﾝｶﾐﾁｮｳ","kana_address":"ｶｽﾐｸﾑﾅｶﾞｲ","pref":"兵庫県","city":"美方郡香美町","address":"香住区無南垣"},
{"zip_code":"6696412","kana_pref":"ﾋｮｳｺﾞｹﾝ","kana_city":"ﾐｶﾀｸﾞﾝｶﾐﾁｮｳ","kana_address":"ｶｽﾐｸﾒｼﾞ","pref":"兵庫県","city":"美方郡香美町","address":"香住区米地"},
{"zip_code":"6696421","kana_pref":"ﾋｮｳｺﾞｹﾝ","kana_city":"ﾐｶﾀｸﾞﾝｶﾐﾁｮｳ","kana_address":"ｶｽﾐｸﾓﾄﾐﾂﾞｶ","pref":"兵庫県","city":"美方郡香美町","address":"香住区本見塚"},
{"zip_code":"6696545","kana_pref":"ﾋｮｳｺﾞｹﾝ","kana_city":"ﾐｶﾀｸﾞﾝｶﾐﾁｮｳ","kana_address":"ｶｽﾐｸﾓﾘ","pref":"兵庫県","city":"美方郡香美町","address":"香住区森"},
{"zip_code":"6696403","kana_pref":"ﾋｮｳｺﾞｹﾝ","kana_city":"ﾐｶﾀｸﾞﾝｶﾐﾁｮｳ","kana_address":"ｶｽﾐｸﾔｽｷﾞ","pref":"兵庫県","city":"美方郡香美町","address":"香住区安木"},
{"zip_code":"6696563","kana_pref":"ﾋｮｳｺﾞｹﾝ","kana_city":"ﾐｶﾀｸﾞﾝｶﾐﾁｮｳ","kana_address":"ｶｽﾐｸﾔﾀﾞ","pref":"兵庫県","city":"美方郡香美町","address":"香住区矢田"},
{"zip_code":"6696558","kana_pref":"ﾋｮｳｺﾞｹﾝ","kana_city":"ﾐｶﾀｸﾞﾝｶﾐﾁｮｳ","kana_address":"ｶｽﾐｸﾔﾊﾗ","pref":"兵庫県","city":"美方郡香美町","address":"香住区八原"},
{"zip_code":"6696562","kana_pref":"ﾋｮｳｺﾞｹﾝ","kana_city":"ﾐｶﾀｸﾞﾝｶﾐﾁｮｳ","kana_address":"ｶｽﾐｸﾕﾗ","pref":"兵庫県","city":"美方郡香美町","address":"香住区油良"},
{"zip_code":"6696672","kana_pref":"ﾋｮｳｺﾞｹﾝ","kana_city":"ﾐｶﾀｸﾞﾝｶﾐﾁｮｳ","kana_address":"ｶｽﾐｸﾖﾛｲ","pref":"兵庫県","city":"美方郡香美町","address":"香住区鎧"},
{"zip_code":"6696543","kana_pref":"ﾋｮｳｺﾞｹﾝ","kana_city":"ﾐｶﾀｸﾞﾝｶﾐﾁｮｳ","kana_address":"ｶｽﾐｸﾜｶﾏﾂ","pref":"兵庫県","city":"美方郡香美町","address":"香住区若松"},
{"zip_code":"6696700","kana_pref":"ﾋｮｳｺﾞｹﾝ","kana_city":"ﾐｶﾀｸﾞﾝｼﾝｵﾝｾﾝﾁｮｳ","kana_address":"","pref":"兵庫県","city":"美方郡新温泉町","address":""},
{"zip_code":"6696714","kana_pref":"ﾋｮｳｺﾞｹﾝ","kana_city":"ﾐｶﾀｸﾞﾝｼﾝｵﾝｾﾝﾁｮｳ","kana_address":"ｱｶｻｷ","pref":"兵庫県","city":"美方郡新温泉町","address":"赤崎"},
{"zip_code":"6696701","kana_pref":"ﾋｮｳｺﾞｹﾝ","kana_city":"ﾐｶﾀｸﾞﾝｼﾝｵﾝｾﾝﾁｮｳ","kana_address":"ｱｼﾔ","pref":"兵庫県","city":"美方郡新温泉町","address":"芦屋"},
{"zip_code":"6696832","kana_pref":"ﾋｮｳｺﾞｹﾝ","kana_city":"ﾐｶﾀｸﾞﾝｼﾝｵﾝｾﾝﾁｮｳ","kana_address":"ｲｲﾉ","pref":"兵庫県","city":"美方郡新温泉町","address":"飯野"},
{"zip_code":"6696751","kana_pref":"ﾋｮｳｺﾞｹﾝ","kana_city":"ﾐｶﾀｸﾞﾝｼﾝｵﾝｾﾝﾁｮｳ","kana_address":"ｲｸﾞﾐ","pref":"兵庫県","city":"美方郡新温泉町","address":"居組"},
{"zip_code":"6696953","kana_pref":"ﾋｮｳｺﾞｹﾝ","kana_city":"ﾐｶﾀｸﾞﾝｼﾝｵﾝｾﾝﾁｮｳ","kana_address":"ｲｼﾊﾞｼ","pref":"兵庫県","city":"美方郡新温泉町","address":"石橋"},
{"zip_code":"6696805","kana_pref":"ﾋｮｳｺﾞｹﾝ","kana_city":"ﾐｶﾀｸﾞﾝｼﾝｵﾝｾﾝﾁｮｳ","kana_address":"ｲｽﾐ","pref":"兵庫県","city":"美方郡新温泉町","address":"伊角"},
{"zip_code":"6696801","kana_pref":"ﾋｮｳｺﾞｹﾝ","kana_city":"ﾐｶﾀｸﾞﾝｼﾝｵﾝｾﾝﾁｮｳ","kana_address":"ｲﾄﾞ","pref":"兵庫県","city":"美方郡新温泉町","address":"井土"},
{"zip_code":"6696803","kana_pref":"ﾋｮｳｺﾞｹﾝ","kana_city":"ﾐｶﾀｸﾞﾝｼﾝｵﾝｾﾝﾁｮｳ","kana_address":"ｲﾏｵｶ","pref":"兵庫県","city":"美方郡新温泉町","address":"今岡"},
{"zip_code":"6696808","kana_pref":"ﾋｮｳｺﾞｹﾝ","kana_city":"ﾐｶﾀｸﾞﾝｼﾝｵﾝｾﾝﾁｮｳ","kana_address":"ｳﾀｵｻ","pref":"兵庫県","city":"美方郡新温泉町","address":"歌長"},
{"zip_code":"6696945","kana_pref":"ﾋｮｳｺﾞｹﾝ","kana_city":"ﾐｶﾀｸﾞﾝｼﾝｵﾝｾﾝﾁｮｳ","kana_address":"ｳﾁﾔﾏ","pref":"兵庫県","city":"美方郡新温泉町","address":"内山"},
{"zip_code":"6696952","kana_pref":"ﾋｮｳｺﾞｹﾝ","kana_city":"ﾐｶﾀｸﾞﾝｼﾝｵﾝｾﾝﾁｮｳ","kana_address":"ｳﾐｶﾞﾐ","pref":"兵庫県","city":"美方郡新温泉町","address":"海上"},
{"zip_code":"6696811","kana_pref":"ﾋｮｳｺﾞｹﾝ","kana_city":"ﾐｶﾀｸﾞﾝｼﾝｵﾝｾﾝﾁｮｳ","kana_address":"ｵｲｺﾞ","pref":"兵庫県","city":"美方郡新温泉町","address":"多子"},
{"zip_code":"6696946","kana_pref":"ﾋｮｳｺﾞｹﾝ","kana_city":"ﾐｶﾀｸﾞﾝｼﾝｵﾝｾﾝﾁｮｳ","kana_address":"ｵｯｻｶ","pref":"兵庫県","city":"美方郡新温泉町","address":"越坂"},
{"zip_code":"6696802","kana_pref":"ﾋｮｳｺﾞｹﾝ","kana_city":"ﾐｶﾀｸﾞﾝｼﾝｵﾝｾﾝﾁｮｳ","kana_address":"ｶﾅﾔ","pref":"兵庫県","city":"美方郡新温泉町","address":"金屋"},
{"zip_code":"6696942","kana_pref":"ﾋｮｳｺﾞｹﾝ","kana_city":"ﾐｶﾀｸﾞﾝｼﾝｵﾝｾﾝﾁｮｳ","kana_address":"ｶﾈｵ","pref":"兵庫県","city":"美方郡新温泉町","address":"鐘尾"},
{"zip_code":"6696752","kana_pref":"ﾋｮｳｺﾞｹﾝ","kana_city":"ﾐｶﾀｸﾞﾝｼﾝｵﾝｾﾝﾁｮｳ","kana_address":"ｶﾏﾔ","pref":"兵庫県","city":"美方郡新温泉町","address":"釜屋"},
{"zip_code":"6696954","kana_pref":"ﾋｮｳｺﾞｹﾝ","kana_city":"ﾐｶﾀｸﾞﾝｼﾝｵﾝｾﾝﾁｮｳ","kana_address":"ｷｼﾀﾞ","pref":"兵庫県","city":"美方郡新温泉町","address":"岸田"},
{"zip_code":"6696711","kana_pref":"ﾋｮｳｺﾞｹﾝ","kana_city":"ﾐｶﾀｸﾞﾝｼﾝｵﾝｾﾝﾁｮｳ","kana_address":"ｷﾖﾄﾐ","pref":"兵庫県","city":"美方郡新温泉町","address":"清富"},
{"zip_code":"6696815","kana_pref":"ﾋｮｳｺﾞｹﾝ","kana_city":"ﾐｶﾀｸﾞﾝｼﾝｵﾝｾﾝﾁｮｳ","kana_address":"ｷﾘｵｶ","pref":"兵庫県","city":"美方郡新温泉町","address":"桐岡"},
{"zip_code":"6696812","kana_pref":"ﾋｮｳｺﾞｹﾝ","kana_city":"ﾐｶﾀｸﾞﾝｼﾝｵﾝｾﾝﾁｮｳ","kana_address":"ｷﾘﾊﾀ","pref":"兵庫県","city":"美方郡新温泉町","address":"切畑"},
{"zip_code":"6696721","kana_pref":"ﾋｮｳｺﾞｹﾝ","kana_city":"ﾐｶﾀｸﾞﾝｼﾝｵﾝｾﾝﾁｮｳ","kana_address":"ｸﾀﾆ","pref":"兵庫県","city":"美方郡新温泉町","address":"久谷"},
{"zip_code":"6696727","kana_pref":"ﾋｮｳｺﾞｹﾝ","kana_city":"ﾐｶﾀｸﾞﾝｼﾝｵﾝｾﾝﾁｮｳ","kana_address":"ｸﾄﾔﾏ","pref":"兵庫県","city":"美方郡新温泉町","address":"久斗山"},
{"zip_code":"6696804","kana_pref":"ﾋｮｳｺﾞｹﾝ","kana_city":"ﾐｶﾀｸﾞﾝｼﾝｵﾝｾﾝﾁｮｳ","kana_address":"ｸﾏﾀﾞﾆ","pref":"兵庫県","city":"美方郡新温泉町","address":"熊谷"},
{"zip_code":"6696726","kana_pref":"ﾋｮｳｺﾞｹﾝ","kana_city":"ﾐｶﾀｸﾞﾝｼﾝｵﾝｾﾝﾁｮｳ","kana_address":"ｻｶｲ","pref":"兵庫県","city":"美方郡新温泉町","address":"境"},
{"zip_code":"6696712","kana_pref":"ﾋｮｳｺﾞｹﾝ","kana_city":"ﾐｶﾀｸﾞﾝｼﾝｵﾝｾﾝﾁｮｳ","kana_address":"ｻｼｸｲ","pref":"兵庫県","city":"美方郡新温泉町","address":"指杭"},
{"zip_code":"6696833","kana_pref":"ﾋｮｳｺﾞｹﾝ","kana_city":"ﾐｶﾀｸﾞﾝｼﾝｵﾝｾﾝﾁｮｳ","kana_address":"ｼｵﾔﾏ","pref":"兵庫県","city":"美方郡新温泉町","address":"塩山"},
{"zip_code":"6696741","kana_pref":"ﾋｮｳｺﾞｹﾝ","kana_city":"ﾐｶﾀｸﾞﾝｼﾝｵﾝｾﾝﾁｮｳ","kana_address":"ｼﾁｶﾏ","pref":"兵庫県","city":"美方郡新温泉町","address":"七釜"},
{"zip_code":"6696723","kana_pref":"ﾋｮｳｺﾞｹﾝ","kana_city":"ﾐｶﾀｸﾞﾝｼﾝｵﾝｾﾝﾁｮｳ","kana_address":"ｼｮｳﾎﾞｳｱﾝ","pref":"兵庫県","city":"美方郡新温泉町","address":"正法庵"},
{"zip_code":"6696742","kana_pref":"ﾋｮｳｺﾞｹﾝ","kana_city":"ﾐｶﾀｸﾞﾝｼﾝｵﾝｾﾝﾁｮｳ","kana_address":"ｼﾝｲﾁ","pref":"兵庫県","city":"美方郡新温泉町","address":"新市"},
{"zip_code":"6696713","kana_pref":"ﾋｮｳｺﾞｹﾝ","kana_city":"ﾐｶﾀｸﾞﾝｼﾝｵﾝｾﾝﾁｮｳ","kana_address":"ﾀｲ","pref":"兵庫県","city":"美方郡新温泉町","address":"田井"},
{"zip_code":"6696728","kana_pref":"ﾋｮｳｺﾞｹﾝ","kana_city":"ﾐｶﾀｸﾞﾝｼﾝｵﾝｾﾝﾁｮｳ","kana_address":"ﾀｲﾀ","pref":"兵庫県","city":"美方郡新温泉町","address":"対田"},
{"zip_code":"6696722","kana_pref":"ﾋｮｳｺﾞｹﾝ","kana_city":"ﾐｶﾀｸﾞﾝｼﾝｵﾝｾﾝﾁｮｳ","kana_address":"ﾀｶｽｴ","pref":"兵庫県","city":"美方郡新温泉町","address":"高末"},
{"zip_code":"6696761","kana_pref":"ﾋｮｳｺﾞｹﾝ","kana_city":"ﾐｶﾀｸﾞﾝｼﾝｵﾝｾﾝﾁｮｳ","kana_address":"ﾀｹﾀﾞ","pref":"兵庫県","city":"美方郡新温泉町","address":"竹田"},
{"zip_code":"6696831","kana_pref":"ﾋｮｳｺﾞｹﾝ","kana_city":"ﾐｶﾀｸﾞﾝｼﾝｵﾝｾﾝﾁｮｳ","kana_address":"ﾀｹﾀﾞ","pref":"兵庫県","city":"美方郡新温泉町","address":"竹田"},
{"zip_code":"6696813","kana_pref":"ﾋｮｳｺﾞｹﾝ","kana_city":"ﾐｶﾀｸﾞﾝｼﾝｵﾝｾﾝﾁｮｳ","kana_address":"ﾀﾝﾄﾞ","pref":"兵庫県","city":"美方郡新温泉町","address":"丹土"},
{"zip_code":"6696943","kana_pref":"ﾋｮｳｺﾞｹﾝ","kana_city":"ﾐｶﾀｸﾞﾝｼﾝｵﾝｾﾝﾁｮｳ","kana_address":"ﾁﾀﾞﾆ","pref":"兵庫県","city":"美方郡新温泉町","address":"千谷"},
{"zip_code":"6696941","kana_pref":"ﾋｮｳｺﾞｹﾝ","kana_city":"ﾐｶﾀｸﾞﾝｼﾝｵﾝｾﾝﾁｮｳ","kana_address":"ﾁﾊﾗ","pref":"兵庫県","city":"美方郡新温泉町","address":"千原"},
{"zip_code":"6696745","kana_pref":"ﾋｮｳｺﾞｹﾝ","kana_city":"ﾐｶﾀｸﾞﾝｼﾝｵﾝｾﾝﾁｮｳ","kana_address":"ﾄﾁﾀﾞﾆ","pref":"兵庫県","city":"美方郡新温泉町","address":"栃谷"},
{"zip_code":"6696814","kana_pref":"ﾋｮｳｺﾞｹﾝ","kana_city":"ﾐｶﾀｸﾞﾝｼﾝｵﾝｾﾝﾁｮｳ","kana_address":"ﾅｶﾂｼﾞ","pref":"兵庫県","city":"美方郡新温泉町","address":"中辻"},
{"zip_code":"6696702","kana_pref":"ﾋｮｳｺﾞｹﾝ","kana_city":"ﾐｶﾀｸﾞﾝｼﾝｵﾝｾﾝﾁｮｳ","kana_address":"ﾊﾏｻｶ","pref":"兵庫県","city":"美方郡新温泉町","address":"浜坂"},
{"zip_code":"6696807","kana_pref":"ﾋｮｳｺﾞｹﾝ","kana_city":"ﾐｶﾀｸﾞﾝｼﾝｵﾝｾﾝﾁｮｳ","kana_address":"ﾊﾙｷ","pref":"兵庫県","city":"美方郡新温泉町","address":"春来"},
{"zip_code":"6696806","kana_pref":"ﾋｮｳｺﾞｹﾝ","kana_city":"ﾐｶﾀｸﾞﾝｼﾝｵﾝｾﾝﾁｮｳ","kana_address":"ﾋﾉｷｵ","pref":"兵庫県","city":"美方郡新温泉町","address":"桧尾"},
{"zip_code":"6696732","kana_pref":"ﾋｮｳｺﾞｹﾝ","kana_city":"ﾐｶﾀｸﾞﾝｼﾝｵﾝｾﾝﾁｮｳ","kana_address":"ﾌｸﾄﾐ","pref":"兵庫県","city":"美方郡新温泉町","address":"福富"},
{"zip_code":"6696725","kana_pref":"ﾋｮｳｺﾞｹﾝ","kana_city":"ﾐｶﾀｸﾞﾝｼﾝｵﾝｾﾝﾁｮｳ","kana_address":"ﾌｼﾞｵ","pref":"兵庫県","city":"美方郡新温泉町","address":"藤尾"},
{"zip_code":"6696731","kana_pref":"ﾋｮｳｺﾞｹﾝ","kana_city":"ﾐｶﾀｸﾞﾝｼﾝｵﾝｾﾝﾁｮｳ","kana_address":"ﾌﾂｶｲﾁ","pref":"兵庫県","city":"美方郡新温泉町","address":"二日市"},
{"zip_code":"6696743","kana_pref":"ﾋｮｳｺﾞｹﾝ","kana_city":"ﾐｶﾀｸﾞﾝｼﾝｵﾝｾﾝﾁｮｳ","kana_address":"ﾌﾙｲﾁ","pref":"兵庫県","city":"美方郡新温泉町","address":"古市"},
{"zip_code":"6696746","kana_pref":"ﾋｮｳｺﾞｹﾝ","kana_city":"ﾐｶﾀｸﾞﾝｼﾝｵﾝｾﾝﾁｮｳ","kana_address":"ﾍﾀﾞ","pref":"兵庫県","city":"美方郡新温泉町","address":"戸田"},
{"zip_code":"6696724","kana_pref":"ﾋｮｳｺﾞｹﾝ","kana_city":"ﾐｶﾀｸﾞﾝｼﾝｵﾝｾﾝﾁｮｳ","kana_address":"ﾍｯﾁ","pref":"兵庫県","city":"美方郡新温泉町","address":"辺地"},
{"zip_code":"6696822","kana_pref":"ﾋｮｳｺﾞｹﾝ","kana_city":"ﾐｶﾀｸﾞﾝｼﾝｵﾝｾﾝﾁｮｳ","kana_address":"ﾎｿﾀﾞ","pref":"兵庫県","city":"美方郡新温泉町","address":"細田"},
{"zip_code":"6696951","kana_pref":"ﾋｮｳｺﾞｹﾝ","kana_city":"ﾐｶﾀｸﾞﾝｼﾝｵﾝｾﾝﾁｮｳ","kana_address":"ﾏｴ","pref":"兵庫県","city":"美方郡新温泉町","address":"前"},
{"zip_code":"6696715","kana_pref":"ﾋｮｳｺﾞｹﾝ","kana_city":"ﾐｶﾀｸﾞﾝｼﾝｵﾝｾﾝﾁｮｳ","kana_address":"ﾐｵ","pref":"兵庫県","city":"美方郡新温泉町","address":"三尾"},
{"zip_code":"6696747","kana_pref":"ﾋｮｳｺﾞｹﾝ","kana_city":"ﾐｶﾀｸﾞﾝｼﾝｵﾝｾﾝﾁｮｳ","kana_address":"ﾐﾀﾆ","pref":"兵庫県","city":"美方郡新温泉町","address":"三谷"},
{"zip_code":"6696944","kana_pref":"ﾋｮｳｺﾞｹﾝ","kana_city":"ﾐｶﾀｸﾞﾝｼﾝｵﾝｾﾝﾁｮｳ","kana_address":"ﾐﾔﾜｷ","pref":"兵庫県","city":"美方郡新温泉町","address":"宮脇"},
{"zip_code":"6696753","kana_pref":"ﾋｮｳｺﾞｹﾝ","kana_city":"ﾐｶﾀｸﾞﾝｼﾝｵﾝｾﾝﾁｮｳ","kana_address":"ﾓﾛﾖｾ","pref":"兵庫県","city":"美方郡新温泉町","address":"諸寄"},
{"zip_code":"6696821","kana_pref":"ﾋｮｳｺﾞｹﾝ","kana_city":"ﾐｶﾀｸﾞﾝｼﾝｵﾝｾﾝﾁｮｳ","kana_address":"ﾕ","pref":"兵庫県","city":"美方郡新温泉町","address":"湯"},
{"zip_code":"6696744","kana_pref":"ﾋｮｳｺﾞｹﾝ","kana_city":"ﾐｶﾀｸﾞﾝｼﾝｵﾝｾﾝﾁｮｳ","kana_address":"ﾖｳﾄﾞ","pref":"兵庫県","city":"美方郡新温泉町","address":"用土"},
{"zip_code":"6696716","kana_pref":"ﾋｮｳｺﾞｹﾝ","kana_city":"ﾐｶﾀｸﾞﾝｼﾝｵﾝｾﾝﾁｮｳ","kana_address":"ﾜﾀﾞ","pref":"兵庫県","city":"美方郡新温泉町","address":"和田"}]}