{"zip_code":[
{"zip_code":"6700000","kana_pref":"ﾋｮｳｺﾞｹﾝ","kana_city":"ﾋﾒｼﾞｼ","kana_address":"","pref":"兵庫県","city":"姫路市","address":""},
{"zip_code":"6700934","kana_pref":"ﾋｮｳｺﾞｹﾝ","kana_city":"ﾋﾒｼﾞｼ","kana_address":"ｱｻﾋﾏﾁ","pref":"兵庫県","city":"姫路市","address":"朝日町"},
{"zip_code":"6700944","kana_pref":"ﾋｮｳｺﾞｹﾝ","kana_city":"ﾋﾒｼﾞｼ","kana_address":"ｱﾎﾞ","pref":"兵庫県","city":"姫路市","address":"阿保"},
{"zip_code":"6700029","kana_pref":"ﾋｮｳｺﾞｹﾝ","kana_city":"ﾋﾒｼﾞｼ","kana_address":"ｱﾗｼﾔﾏﾁｮｳ","pref":"兵庫県","city":"姫路市","address":"嵐山町"},
{"zip_code":"6700974","kana_pref":"ﾋｮｳｺﾞｹﾝ","kana_city":"ﾋﾒｼﾞｼ","kana_address":"ｲｲﾀﾞ","pref":"兵庫県","city":"姫路市","address":"飯田"},
{"zip_code":"6700007","kana_pref":"ﾋｮｳｺﾞｹﾝ","kana_city":"ﾋﾒｼﾞｼ","kana_address":"ｲｸﾉﾏﾁ","pref":"兵庫県","city":"姫路市","address":"生野町"},
{"zip_code":"6700822","kana_pref":"ﾋｮｳｺﾞｹﾝ","kana_city":"ﾋﾒｼﾞｼ","kana_address":"ｲﾁｶﾜﾀﾞｲ","pref":"兵庫県","city":"姫路市","address":"市川台"},
{"zip_code":"6700825","kana_pref":"ﾋｮｳｺﾞｹﾝ","kana_city":"ﾋﾒｼﾞｼ","kana_address":"ｲﾁｶﾜﾊﾞｼﾄﾞｵﾘ","pref":"兵庫県","city":"姫路市","address":"市川橋通"},
{"zip_code":"6700943","kana_pref":"ﾋｮｳｺﾞｹﾝ","kana_city":"ﾋﾒｼﾞｼ","kana_address":"ｲﾁﾉｺﾞｳﾁｮｳ","pref":"兵庫県","city":"姫路市","address":"市之郷町"},
{"zip_code":"6700871","kana_pref":"ﾋｮｳｺﾞｹﾝ","kana_city":"ﾋﾒｼﾞｼ","kana_address":"ｲﾃﾞｲ","pref":"兵庫県","city":"姫路市","address":"伊伝居"},
{"zip_code":"6700816","kana_pref":"ﾋｮｳｺﾞｹﾝ","kana_city":"ﾋﾒｼﾞｼ","kana_address":"ｲﾄｸｼﾞﾏﾁ","pref":"兵庫県","city":"姫路市","address":"威徳寺町"},
{"zip_code":"6700983","kana_pref":"ﾋｮｳｺﾞｹﾝ","kana_city":"ﾋﾒｼﾞｼ","kana_address":"ｲﾉｸﾞﾁ","pref":"兵庫県","city":"姫路市","address":"井ノ口"},
{"zip_code":"6700052","kana_pref":"ﾋｮｳｺﾞｹﾝ","kana_city":"ﾋﾒｼﾞｼ","kana_address":"ｲﾏｼﾞｭｸ","pref":"兵庫県","city":"姫路市","address":"今宿"},
{"zip_code":"6700028","kana_pref":"ﾋｮｳｺﾞｹﾝ","kana_city":"ﾋﾒｼﾞｼ","kana_address":"ｲﾜﾊﾞﾅﾁｮｳ","pref":"兵庫県","city":"姫路市","address":"岩端町"},
{"zip_code":"6700905","kana_pref":"ﾋｮｳｺﾞｹﾝ","kana_city":"ﾋﾒｼﾞｼ","kana_address":"ｳｵﾏﾁ","pref":"兵庫県","city":"姫路市","address":"魚町"},
{"zip_code":"6700817","kana_pref":"ﾋｮｳｺﾞｹﾝ","kana_city":"ﾋﾒｼﾞｼ","kana_address":"ｳﾒｶﾞｴﾁｮｳ","pref":"兵庫県","city":"姫路市","address":"梅ケ枝町"},
{"zip_code":"6700894","kana_pref":"ﾋｮｳｺﾞｹﾝ","kana_city":"ﾋﾒｼﾞｼ","kana_address":"ｳﾒｶﾞﾀﾆﾁｮｳ","pref":"兵庫県","city":"姫路市","address":"梅ケ谷町"},
{"zip_code":"6700927","kana_pref":"ﾋｮｳｺﾞｹﾝ","kana_city":"ﾋﾒｼﾞｼ","kana_address":"ｴｷﾏｴﾁｮｳ","pref":"兵庫県","city":"姫路市","address":"駅前町"},
{"zip_code":"6700868","kana_pref":"ﾋｮｳｺﾞｹﾝ","kana_city":"ﾋﾒｼﾞｼ","kana_address":"ｵｵﾉﾏﾁ","pref":"兵庫県","city":"姫路市","address":"大野町"},
{"zip_code":"6700982","kana_pref":"ﾋｮｳｺﾞｹﾝ","kana_city":"ﾋﾒｼﾞｼ","kana_address":"ｵｶﾀﾞ","pref":"兵庫県","city":"姫路市","address":"岡田"},
{"zip_code":"6700026","kana_pref":"ﾋｮｳｺﾞｹﾝ","kana_city":"ﾋﾒｼﾞｼ","kana_address":"ｵｶﾏﾁ","pref":"兵庫県","city":"姫路市","address":"岡町"},
{"zip_code":"6700037","kana_pref":"ﾋｮｳｺﾞｹﾝ","kana_city":"ﾋﾒｼﾞｼ","kana_address":"ｶｷﾔﾏﾌﾞｼ","pref":"兵庫県","city":"姫路市","address":"柿山伏"},
{"zip_code":"6700009","kana_pref":"ﾋｮｳｺﾞｹﾝ","kana_city":"ﾋﾒｼﾞｼ","kana_address":"ｶｷﾞﾏﾁ","pref":"兵庫県","city":"姫路市","address":"鍵町"},
{"zip_code":"6700002","kana_pref":"ﾋｮｳｺﾞｹﾝ","kana_city":"ﾋﾒｼﾞｼ","kana_address":"ｶｼﾞﾏﾁ","pref":"兵庫県","city":"姫路市","address":"鍛冶町"},
{"zip_code":"6700045","kana_pref":"ﾋｮｳｺﾞｹﾝ","kana_city":"ﾋﾒｼﾞｼ","kana_address":"ｶﾀﾀﾞﾏﾁ","pref":"兵庫県","city":"姫路市","address":"片田町"},
{"zip_code":"6700005","kana_pref":"ﾋｮｳｺﾞｹﾝ","kana_city":"ﾋﾒｼﾞｼ","kana_address":"ｶﾅﾔﾏﾁ","pref":"兵庫県","city":"姫路市","address":"金屋町"},
{"zip_code":"6700896","kana_pref":"ﾋｮｳｺﾞｹﾝ","kana_city":"ﾋﾒｼﾞｼ","kana_address":"ｶﾐｵｵﾉ","pref":"兵庫県","city":"姫路市","address":"上大野"},
{"zip_code":"6700041","kana_pref":"ﾋｮｳｺﾞｹﾝ","kana_city":"ﾋﾒｼﾞｼ","kana_address":"ｶﾐｶﾀﾏﾁ","pref":"兵庫県","city":"姫路市","address":"上片町"},
{"zip_code":"6700065","kana_pref":"ﾋｮｳｺﾞｹﾝ","kana_city":"ﾋﾒｼﾞｼ","kana_address":"ｶﾐﾃﾉ","pref":"兵庫県","city":"姫路市","address":"上手野"},
{"zip_code":"6700836","kana_pref":"ﾋｮｳｺﾞｹﾝ","kana_city":"ﾋﾒｼﾞｼ","kana_address":"ｶﾐﾔﾁｮｳ","pref":"兵庫県","city":"姫路市","address":"神屋町"},
{"zip_code":"6700925","kana_pref":"ﾋｮｳｺﾞｹﾝ","kana_city":"ﾋﾒｼﾞｼ","kana_address":"ｶﾒｲﾏﾁ","pref":"兵庫県","city":"姫路市","address":"亀井町"},
{"zip_code":"6700973","kana_pref":"ﾋｮｳｺﾞｹﾝ","kana_city":"ﾋﾒｼﾞｼ","kana_address":"ｶﾒﾔﾏ","pref":"兵庫県","city":"姫路市","address":"亀山"},
{"zip_code":"6700991","kana_pref":"ﾋｮｳｺﾞｹﾝ","kana_city":"ﾋﾒｼﾞｼ","kana_address":"ｶﾝﾀﾞﾁｮｳ","pref":"兵庫県","city":"姫路市","address":"神田町"},
{"zip_code":"6700057","kana_pref":"ﾋｮｳｺﾞｹﾝ","kana_city":"ﾋﾒｼﾞｼ","kana_address":"ｷﾀｲﾏｼﾞｭｸ","pref":"兵庫県","city":"姫路市","address":"北今宿"},
{"zip_code":"6700091","kana_pref":"ﾋｮｳｺﾞｹﾝ","kana_city":"ﾋﾒｼﾞｼ","kana_address":"ｷﾀｼﾝｻﾞｲｹ","pref":"兵庫県","city":"姫路市","address":"北新在家"},
{"zip_code":"6700893","kana_pref":"ﾋｮｳｺﾞｹﾝ","kana_city":"ﾋﾒｼﾞｼ","kana_address":"ｷﾀﾋﾗﾉ","pref":"兵庫県","city":"姫路市","address":"北平野"},
{"zip_code":"6700892","kana_pref":"ﾋｮｳｺﾞｹﾝ","kana_city":"ﾋﾒｼﾞｼ","kana_address":"ｷﾀﾋﾗﾉｵｸｶﾞｲﾁ","pref":"兵庫県","city":"姫路市","address":"北平野奥垣内"},
{"zip_code":"6700895","kana_pref":"ﾋｮｳｺﾞｹﾝ","kana_city":"ﾋﾒｼﾞｼ","kana_address":"ｷﾀﾋﾗﾉﾀﾞｲﾁｮｳ","pref":"兵庫県","city":"姫路市","address":"北平野台町"},
{"zip_code":"6700887","kana_pref":"ﾋｮｳｺﾞｹﾝ","kana_city":"ﾋﾒｼﾞｼ","kana_address":"ｷﾀﾋﾗﾉﾐﾅﾐﾉﾁｮｳ","pref":"兵庫県","city":"姫路市","address":"北平野南の町"},
{"zip_code":"6700877","kana_pref":"ﾋｮｳｺﾞｹﾝ","kana_city":"ﾋﾒｼﾞｼ","kana_address":"ｷﾀﾔｼﾛ","pref":"兵庫県","city":"姫路市","address":"北八代"},
{"zip_code":"6700075","kana_pref":"ﾋｮｳｺﾞｹﾝ","kana_city":"ﾋﾒｼﾞｼ","kana_address":"ｷﾀﾕﾒｻｷﾀﾞｲ","pref":"兵庫県","city":"姫路市","address":"北夢前台"},
{"zip_code":"6700851","kana_pref":"ﾋｮｳｺﾞｹﾝ","kana_city":"ﾋﾒｼﾞｼ","kana_address":"ｷｮｳｸﾞﾁﾏﾁ","pref":"兵庫県","city":"姫路市","address":"京口町"},
{"zip_code":"6700824","kana_pref":"ﾋｮｳｺﾞｹﾝ","kana_city":"ﾋﾒｼﾞｼ","kana_address":"ｷｮｳﾏﾁ","pref":"兵庫県","city":"姫路市","address":"京町"},
{"zip_code":"6700826","kana_pref":"ﾋｮｳｺﾞｹﾝ","kana_city":"ﾋﾒｼﾞｼ","kana_address":"ｸｽﾉｷﾁｮｳ","pref":"兵庫県","city":"姫路市","address":"楠町"},
{"zip_code":"6700916","kana_pref":"ﾋｮｳｺﾞｹﾝ","kana_city":"ﾋﾒｼﾞｼ","kana_address":"ｸﾎﾞﾁｮｳ","pref":"兵庫県","city":"姫路市","address":"久保町"},
{"zip_code":"6700954","kana_pref":"ﾋｮｳｺﾞｹﾝ","kana_city":"ﾋﾒｼﾞｼ","kana_address":"ｸﾘﾔﾏﾁｮｳ","pref":"兵庫県","city":"姫路市","address":"栗山町"},
{"zip_code":"6700058","kana_pref":"ﾋｮｳｺﾞｹﾝ","kana_city":"ﾋﾒｼﾞｼ","kana_address":"ｸﾙﾏｻﾞｷ","pref":"兵庫県","city":"姫路市","address":"車崎"},
{"zip_code":"6700027","kana_pref":"ﾋｮｳｺﾞｹﾝ","kana_city":"ﾋﾒｼﾞｼ","kana_address":"ｹｲﾌｸｼﾞﾏｴ","pref":"兵庫県","city":"姫路市","address":"景福寺前"},
{"zip_code":"6700852","kana_pref":"ﾋｮｳｺﾞｹﾝ","kana_city":"ﾋﾒｼﾞｼ","kana_address":"ｺｵﾃﾞﾗﾏﾁ","pref":"兵庫県","city":"姫路市","address":"国府寺町"},
{"zip_code":"6700854","kana_pref":"ﾋｮｳｺﾞｹﾝ","kana_city":"ﾋﾒｼﾞｼ","kana_address":"ｺﾞｹﾝﾔｼｷ","pref":"兵庫県","city":"姫路市","address":"五軒邸"},
{"zip_code":"6700043","kana_pref":"ﾋｮｳｺﾞｹﾝ","kana_city":"ﾋﾒｼﾞｼ","kana_address":"ｺｼｮｳﾏﾁ","pref":"兵庫県","city":"姫路市","address":"小姓町"},
{"zip_code":"6700035","kana_pref":"ﾋｮｳｺﾞｹﾝ","kana_city":"ﾋﾒｼﾞｼ","kana_address":"ｺﾄｵｶﾁｮｳ","pref":"兵庫県","city":"姫路市","address":"琴岡町"},
{"zip_code":"6700936","kana_pref":"ﾋｮｳｺﾞｹﾝ","kana_city":"ﾋﾒｼﾞｼ","kana_address":"ｺﾆｶｲﾏﾁ","pref":"兵庫県","city":"姫路市","address":"古二階町"},
{"zip_code":"6700001","kana_pref":"ﾋｮｳｺﾞｹﾝ","kana_city":"ﾋﾒｼﾞｼ","kana_address":"ｺﾊﾞｻﾏﾁｮｳ","pref":"兵庫県","city":"姫路市","address":"河間町"},
{"zip_code":"6700003","kana_pref":"ﾋｮｳｺﾞｹﾝ","kana_city":"ﾋﾒｼﾞｼ","kana_address":"ｺﾒﾔﾏﾁ","pref":"兵庫県","city":"姫路市","address":"米屋町"},
{"zip_code":"6700022","kana_pref":"ﾋｮｳｺﾞｹﾝ","kana_city":"ﾋﾒｼﾞｼ","kana_address":"ｺﾘｷﾏﾁ","pref":"兵庫県","city":"姫路市","address":"小利木町"},
{"zip_code":"6700924","kana_pref":"ﾋｮｳｺﾞｹﾝ","kana_city":"ﾋﾒｼﾞｼ","kana_address":"ｺﾝﾔﾏﾁ","pref":"兵庫県","city":"姫路市","address":"紺屋町"},
{"zip_code":"6700923","kana_pref":"ﾋｮｳｺﾞｹﾝ","kana_city":"ﾋﾒｼﾞｼ","kana_address":"ｺﾞﾌｸﾏﾁ","pref":"兵庫県","city":"姫路市","address":"呉服町"},
{"zip_code":"6700857","kana_pref":"ﾋｮｳｺﾞｹﾝ","kana_city":"ﾋﾒｼﾞｼ","kana_address":"ｺﾞﾛｳｴﾓﾝﾃｲ","pref":"兵庫県","city":"姫路市","address":"五郎右衛門邸"},
{"zip_code":"6700981","kana_pref":"ﾋｮｳｺﾞｹﾝ","kana_city":"ﾋﾒｼﾞｼ","kana_address":"ｻｲｼｮｳ","pref":"兵庫県","city":"姫路市","address":"西庄"},
{"zip_code":"6700025","kana_pref":"ﾋｮｳｺﾞｹﾝ","kana_city":"ﾋﾒｼﾞｼ","kana_address":"ｻﾞｲﾓｸﾏﾁ","pref":"兵庫県","city":"姫路市","address":"材木町"},
{"zip_code":"6700835","kana_pref":"ﾋｮｳｺﾞｹﾝ","kana_city":"ﾋﾒｼﾞｼ","kana_address":"ｻｲﾜｲﾁｮｳ","pref":"兵庫県","city":"姫路市","address":"幸町"},
{"zip_code":"6700014","kana_pref":"ﾋｮｳｺﾞｹﾝ","kana_city":"ﾋﾒｼﾞｼ","kana_address":"ｻｶｲﾏﾁ","pref":"兵庫県","city":"姫路市","address":"堺町"},
{"zip_code":"6700931","kana_pref":"ﾋｮｳｺﾞｹﾝ","kana_city":"ﾋﾒｼﾞｼ","kana_address":"ｻｶﾀﾏﾁ","pref":"兵庫県","city":"姫路市","address":"坂田町"},
{"zip_code":"6700016","kana_pref":"ﾋｮｳｺﾞｹﾝ","kana_city":"ﾋﾒｼﾞｼ","kana_address":"ｻｶﾓﾄﾏﾁ","pref":"兵庫県","city":"姫路市","address":"坂元町"},
{"zip_code":"6700994","kana_pref":"ﾋｮｳｺﾞｹﾝ","kana_city":"ﾋﾒｼﾞｼ","kana_address":"ｻﾀﾞﾓﾄﾏﾁ","pref":"兵庫県","city":"姫路市","address":"定元町"},
{"zip_code":"6700940","kana_pref":"ﾋｮｳｺﾞｹﾝ","kana_city":"ﾋﾒｼﾞｼ","kana_address":"ｻﾝｻﾞｴﾓﾝﾎﾞﾘﾆｼﾉﾏﾁ","pref":"兵庫県","city":"姫路市","address":"三左衛門堀西の町"},
{"zip_code":"6700949","kana_pref":"ﾋｮｳｺﾞｹﾝ","kana_city":"ﾋﾒｼﾞｼ","kana_address":"ｻﾝｻﾞｴﾓﾝﾎﾞﾘﾋｶﾞｼﾉﾏﾁ","pref":"兵庫県","city":"姫路市","address":"三左衛門堀東の町"},
{"zip_code":"6700953","kana_pref":"ﾋｮｳｺﾞｹﾝ","kana_city":"ﾋﾒｼﾞｼ","kana_address":"ｻﾝｼﾞｮｳﾁｮｳ","pref":"兵庫県","city":"姫路市","address":"三条町"},
{"zip_code":"6700904","kana_pref":"ﾋｮｳｺﾞｹﾝ","kana_city":"ﾋﾒｼﾞｼ","kana_address":"ｼｵﾏﾁ","pref":"兵庫県","city":"姫路市","address":"塩町"},
{"zip_code":"6700044","kana_pref":"ﾋｮｳｺﾞｹﾝ","kana_city":"ﾋﾒｼﾞｼ","kana_address":"ｼﾞﾅｲﾏﾁ","pref":"兵庫県","city":"姫路市","address":"地内町"},
{"zip_code":"6700046","kana_pref":"ﾋｮｳｺﾞｹﾝ","kana_city":"ﾋﾒｼﾞｼ","kana_address":"ｼﾉﾉﾒﾁｮｳ","pref":"兵庫県","city":"姫路市","address":"東雲町"},
{"zip_code":"6700917","kana_pref":"ﾋｮｳｺﾞｹﾝ","kana_city":"ﾋﾒｼﾞｼ","kana_address":"ｼﾉﾌﾞﾏﾁ","pref":"兵庫県","city":"姫路市","address":"忍町"},
{"zip_code":"6700063","kana_pref":"ﾋｮｳｺﾞｹﾝ","kana_city":"ﾋﾒｼﾞｼ","kana_address":"ｼﾓﾃﾉ","pref":"兵庫県","city":"姫路市","address":"下手野"},
{"zip_code":"6700932","kana_pref":"ﾋｮｳｺﾞｹﾝ","kana_city":"ﾋﾒｼﾞｼ","kana_address":"ｼﾓﾃﾞﾗﾏﾁ","pref":"兵庫県","city":"姫路市","address":"下寺町"},
{"zip_code":"6700911","kana_pref":"ﾋｮｳｺﾞｹﾝ","kana_city":"ﾋﾒｼﾞｼ","kana_address":"ｼﾞｭｳﾆｼｮﾏｴﾁｮｳ","pref":"兵庫県","city":"姫路市","address":"十二所前町"},
{"zip_code":"6700951","kana_pref":"ﾋｮｳｺﾞｹﾝ","kana_city":"ﾋﾒｼﾞｼ","kana_address":"ｼｮｳﾀﾞ","pref":"兵庫県","city":"姫路市","address":"庄田"},
{"zip_code":"6700841","kana_pref":"ﾋｮｳｺﾞｹﾝ","kana_city":"ﾋﾒｼﾞｼ","kana_address":"ｼﾞｮｳﾄｳﾏﾁ","pref":"兵庫県","city":"姫路市","address":"城東町"},
{"zip_code":"6700845","kana_pref":"ﾋｮｳｺﾞｹﾝ","kana_city":"ﾋﾒｼﾞｼ","kana_address":"ｼﾞｮｳﾄｳﾏﾁｷｮｳｸﾞﾁﾀﾞｲ","pref":"兵庫県","city":"姫路市","address":"城東町京口台"},
{"zip_code":"6700849","kana_pref":"ﾋｮｳｺﾞｹﾝ","kana_city":"ﾋﾒｼﾞｼ","kana_address":"ｼﾞｮｳﾄｳﾏﾁｺﾞｹﾝﾔ","pref":"兵庫県","city":"姫路市","address":"城東町五軒屋"},
{"zip_code":"6700843","kana_pref":"ﾋｮｳｺﾞｹﾝ","kana_city":"ﾋﾒｼﾞｼ","kana_address":"ｼﾞｮｳﾄｳﾏﾁｼﾐｽﾞ","pref":"兵庫県","city":"姫路市","address":"城東町清水"},
{"zip_code":"6700848","kana_pref":"ﾋｮｳｺﾞｹﾝ","kana_city":"ﾋﾒｼﾞｼ","kana_address":"ｼﾞｮｳﾄｳﾏﾁﾀｹﾉﾓﾝ","pref":"兵庫県","city":"姫路市","address":"城東町竹之門"},
{"zip_code":"6700847","kana_pref":"ﾋｮｳｺﾞｹﾝ","kana_city":"ﾋﾒｼﾞｼ","kana_address":"ｼﾞｮｳﾄｳﾏﾁﾅｶｶﾞﾜﾗ","pref":"兵庫県","city":"姫路市","address":"城東町中河原"},
{"zip_code":"6700844","kana_pref":"ﾋｮｳｺﾞｹﾝ","kana_city":"ﾋﾒｼﾞｼ","kana_address":"ｼﾞｮｳﾄｳﾏﾁﾉﾀﾞ","pref":"兵庫県","city":"姫路市","address":"城東町野田"},
{"zip_code":"6700842","kana_pref":"ﾋｮｳｺﾞｹﾝ","kana_city":"ﾋﾒｼﾞｼ","kana_address":"ｼﾞｮｳﾄｳﾏﾁﾋﾞｼｬﾓﾝ","pref":"兵庫県","city":"姫路市","address":"城東町毘沙門"},
{"zip_code":"6700883","kana_pref":"ﾋｮｳｺﾞｹﾝ","kana_city":"ﾋﾒｼﾞｼ","kana_address":"ｼﾞｮｳﾎｸｼﾝﾏﾁ","pref":"兵庫県","city":"姫路市","address":"城北新町"},
{"zip_code":"6700884","kana_pref":"ﾋｮｳｺﾞｹﾝ","kana_city":"ﾋﾒｼﾞｼ","kana_address":"ｼﾞｮｳﾎｸﾎﾝﾁｮｳ","pref":"兵庫県","city":"姫路市","address":"城北本町"},
{"zip_code":"6700808","kana_pref":"ﾋｮｳｺﾞｹﾝ","kana_city":"ﾋﾒｼﾞｼ","kana_address":"ｼﾗｸﾆ","pref":"兵庫県","city":"姫路市","address":"白国"},
{"zip_code":"6700902","kana_pref":"ﾋｮｳｺﾞｹﾝ","kana_city":"ﾋﾒｼﾞｼ","kana_address":"ｼﾛｶﾞﾈﾏﾁ","pref":"兵庫県","city":"姫路市","address":"白銀町"},
{"zip_code":"6700803","kana_pref":"ﾋｮｳｺﾞｹﾝ","kana_city":"ﾋﾒｼﾞｼ","kana_address":"ｼﾛﾐﾀﾞｲ","pref":"兵庫県","city":"姫路市","address":"城見台"},
{"zip_code":"6700831","kana_pref":"ﾋｮｳｺﾞｹﾝ","kana_city":"ﾋﾒｼﾞｼ","kana_address":"ｼﾛﾐﾁｮｳ","pref":"兵庫県","city":"姫路市","address":"城見町"},
{"zip_code":"6700095","kana_pref":"ﾋｮｳｺﾞｹﾝ","kana_city":"ﾋﾒｼﾞｼ","kana_address":"ｼﾝｻﾞｲｹ","pref":"兵庫県","city":"姫路市","address":"新在家"},
{"zip_code":"6700094","kana_pref":"ﾋｮｳｺﾞｹﾝ","kana_city":"ﾋﾒｼﾞｼ","kana_address":"ｼﾝｻﾞｲｹﾅｶﾉﾁｮｳ","pref":"兵庫県","city":"姫路市","address":"新在家中の町"},
{"zip_code":"6700092","kana_pref":"ﾋｮｳｺﾞｹﾝ","kana_city":"ﾋﾒｼﾞｼ","kana_address":"ｼﾝｻﾞｲｹﾎﾝﾁｮｳ","pref":"兵庫県","city":"姫路市","address":"新在家本町"},
{"zip_code":"6700834","kana_pref":"ﾋｮｳｺﾞｹﾝ","kana_city":"ﾋﾒｼﾞｼ","kana_address":"ｼﾝﾜﾁｮｳ","pref":"兵庫県","city":"姫路市","address":"神和町"},
{"zip_code":"6700015","kana_pref":"ﾋｮｳｺﾞｹﾝ","kana_city":"ﾋﾒｼﾞｼ","kana_address":"ｿｳｼｬﾎﾝﾏﾁ","pref":"兵庫県","city":"姫路市","address":"総社本町"},
{"zip_code":"6700853","kana_pref":"ﾋｮｳｺﾞｹﾝ","kana_city":"ﾋﾒｼﾞｼ","kana_address":"ﾀﾞｲｺｸｲｯﾁｮｳﾏﾁ","pref":"兵庫県","city":"姫路市","address":"大黒壱丁町"},
{"zip_code":"6700898","kana_pref":"ﾋｮｳｺﾞｹﾝ","kana_city":"ﾋﾒｼﾞｼ","kana_address":"ﾀﾞｲｼﾞｭﾀﾞｲ","pref":"兵庫県","city":"姫路市","address":"大寿台"},
{"zip_code":"6700833","kana_pref":"ﾋｮｳｺﾞｹﾝ","kana_city":"ﾋﾒｼﾞｼ","kana_address":"ﾀﾞｲｾﾞﾝﾁｮｳ","pref":"兵庫県","city":"姫路市","address":"大善町"},
{"zip_code":"6700062","kana_pref":"ﾋｮｳｺﾞｹﾝ","kana_city":"ﾋﾒｼﾞｼ","kana_address":"ﾀｶｵｶｼﾝﾏﾁ","pref":"兵庫県","city":"姫路市","address":"高岡新町"},
{"zip_code":"6700915","kana_pref":"ﾋｮｳｺﾞｹﾝ","kana_city":"ﾋﾒｼﾞｼ","kana_address":"ﾀｶｵﾁｮｳ","pref":"兵庫県","city":"姫路市","address":"高尾町"},
{"zip_code":"6700024","kana_pref":"ﾋｮｳｺﾞｹﾝ","kana_city":"ﾋﾒｼﾞｼ","kana_address":"ﾀｶｼﾞｮｳﾁｮｳ","pref":"兵庫県","city":"姫路市","address":"鷹匠町"},
{"zip_code":"6700013","kana_pref":"ﾋｮｳｺﾞｹﾝ","kana_city":"ﾋﾒｼﾞｼ","kana_address":"ﾀｹﾀﾞﾏﾁ","pref":"兵庫県","city":"姫路市","address":"竹田町"},
{"zip_code":"6700032","kana_pref":"ﾋｮｳｺﾞｹﾝ","kana_city":"ﾋﾒｼﾞｼ","kana_address":"ﾀﾂﾉﾏﾁ","pref":"兵庫県","city":"姫路市","address":"龍野町"},
{"zip_code":"6700903","kana_pref":"ﾋｮｳｺﾞｹﾝ","kana_city":"ﾋﾒｼﾞｼ","kana_address":"ﾀﾃﾏﾁ","pref":"兵庫県","city":"姫路市","address":"立町"},
{"zip_code":"6700086","kana_pref":"ﾋｮｳｺﾞｹﾝ","kana_city":"ﾋﾒｼﾞｼ","kana_address":"ﾀﾃﾞﾗ","pref":"兵庫県","city":"姫路市","address":"田寺"},
{"zip_code":"6700082","kana_pref":"ﾋｮｳｺﾞｹﾝ","kana_city":"ﾋﾒｼﾞｼ","kana_address":"ﾀﾃﾞﾗﾔﾏﾃﾁｮｳ","pref":"兵庫県","city":"姫路市","address":"田寺山手町"},
{"zip_code":"6700081","kana_pref":"ﾋｮｳｺﾞｹﾝ","kana_city":"ﾋﾒｼﾞｼ","kana_address":"ﾀﾃﾞﾗﾋｶﾞｼ","pref":"兵庫県","city":"姫路市","address":"田寺東"},
{"zip_code":"6700985","kana_pref":"ﾋｮｳｺﾞｹﾝ","kana_city":"ﾋﾒｼﾞｼ","kana_address":"ﾀﾏﾃ","pref":"兵庫県","city":"姫路市","address":"玉手"},
{"zip_code":"6700976","kana_pref":"ﾋｮｳｺﾞｹﾝ","kana_city":"ﾋﾒｼﾞｼ","kana_address":"ﾁｭｳｼﾞ","pref":"兵庫県","city":"姫路市","address":"中地"},
{"zip_code":"6700975","kana_pref":"ﾋｮｳｺﾞｹﾝ","kana_city":"ﾋﾒｼﾞｼ","kana_address":"ﾁｭｳｼﾞﾐﾅﾐﾉﾁｮｳ","pref":"兵庫県","city":"姫路市","address":"中地南町"},
{"zip_code":"6700984","kana_pref":"ﾋｮｳｺﾞｹﾝ","kana_city":"ﾋﾒｼﾞｼ","kana_address":"ﾁｮｳﾉﾂﾎﾞ","pref":"兵庫県","city":"姫路市","address":"町坪"},
{"zip_code":"6700989","kana_pref":"ﾋｮｳｺﾞｹﾝ","kana_city":"ﾋﾒｼﾞｼ","kana_address":"ﾁｮｳﾉﾂﾎﾞﾐﾅﾐﾏﾁ","pref":"兵庫県","city":"姫路市","address":"町坪南町"},
{"zip_code":"6700993","kana_pref":"ﾋｮｳｺﾞｹﾝ","kana_city":"ﾋﾒｼﾞｼ","kana_address":"ﾁﾖﾀﾞﾏﾁ","pref":"兵庫県","city":"姫路市","address":"千代田町"},
{"zip_code":"6700083","kana_pref":"ﾋｮｳｺﾞｹﾝ","kana_city":"ﾋﾒｼﾞｼ","kana_address":"ﾂｼﾞｲ","pref":"兵庫県","city":"姫路市","address":"辻井"},
{"zip_code":"6700996","kana_pref":"ﾋｮｳｺﾞｹﾝ","kana_city":"ﾋﾒｼﾞｼ","kana_address":"ﾂﾁﾔﾏ","pref":"兵庫県","city":"姫路市","address":"土山"},
{"zip_code":"6700995","kana_pref":"ﾋｮｳｺﾞｹﾝ","kana_city":"ﾋﾒｼﾞｼ","kana_address":"ﾂﾁﾔﾏﾋｶﾞｼﾉﾁｮｳ","pref":"兵庫県","city":"姫路市","address":"土山東の町"},
{"zip_code":"6700972","kana_pref":"ﾋｮｳｺﾞｹﾝ","kana_city":"ﾋﾒｼﾞｼ","kana_address":"ﾃｶﾞﾗ","pref":"兵庫県","city":"姫路市","address":"手柄"},
{"zip_code":"6700846","kana_pref":"ﾋｮｳｺﾞｹﾝ","kana_city":"ﾋﾒｼﾞｼ","kana_address":"ﾃﾝｼﾞﾝﾏﾁ","pref":"兵庫県","city":"姫路市","address":"天神町"},
{"zip_code":"6700821","kana_pref":"ﾋｮｳｺﾞｹﾝ","kana_city":"ﾋﾒｼﾞｼ","kana_address":"ﾄｳｺﾞｳﾁｮｳ","pref":"兵庫県","city":"姫路市","address":"東郷町"},
{"zip_code":"6700856","kana_pref":"ﾋｮｳｺﾞｹﾝ","kana_city":"ﾋﾒｼﾞｼ","kana_address":"ﾄﾞｳｼﾝﾏﾁ","pref":"兵庫県","city":"姫路市","address":"同心町"},
{"zip_code":"6700914","kana_pref":"ﾋｮｳｺﾞｹﾝ","kana_city":"ﾋﾒｼﾞｼ","kana_address":"ﾄｳﾌﾏﾁ","pref":"兵庫県","city":"姫路市","address":"豆腐町"},
{"zip_code":"6700802","kana_pref":"ﾋｮｳｺﾞｹﾝ","kana_city":"ﾋﾒｼﾞｼ","kana_address":"ﾄﾎﾘ","pref":"兵庫県","city":"姫路市","address":"砥堀"},
{"zip_code":"6700986","kana_pref":"ﾋｮｳｺﾞｹﾝ","kana_city":"ﾋﾒｼﾞｼ","kana_address":"ﾄﾏﾐ","pref":"兵庫県","city":"姫路市","address":"苫編"},
{"zip_code":"6700987","kana_pref":"ﾋｮｳｺﾞｹﾝ","kana_city":"ﾋﾒｼﾞｼ","kana_address":"ﾄﾏﾐﾐﾅﾐ","pref":"兵庫県","city":"姫路市","address":"苫編南"},
{"zip_code":"6700964","kana_pref":"ﾋｮｳｺﾞｹﾝ","kana_city":"ﾋﾒｼﾞｼ","kana_address":"ﾄﾖｻﾞﾜﾁｮｳ","pref":"兵庫県","city":"姫路市","address":"豊沢町"},
{"zip_code":"6700051","kana_pref":"ﾋｮｳｺﾞｹﾝ","kana_city":"ﾋﾒｼﾞｼ","kana_address":"ﾅｺﾞﾔﾏﾁｮｳ","pref":"兵庫県","city":"姫路市","address":"名古山町"},
{"zip_code":"6700952","kana_pref":"ﾋｮｳｺﾞｹﾝ","kana_city":"ﾋﾒｼﾞｼ","kana_address":"ﾅﾝｼﾞｮｳ","pref":"兵庫県","city":"姫路市","address":"南条"},
{"zip_code":"6700922","kana_pref":"ﾋｮｳｺﾞｹﾝ","kana_city":"ﾋﾒｼﾞｼ","kana_address":"ﾆｶｲﾏﾁ","pref":"兵庫県","city":"姫路市","address":"二階町"},
{"zip_code":"6700061","kana_pref":"ﾋｮｳｺﾞｹﾝ","kana_city":"ﾋﾒｼﾞｼ","kana_address":"ﾆｼｲﾏｼﾞｭｸ","pref":"兵庫県","city":"姫路市","address":"西今宿"},
{"zip_code":"6700913","kana_pref":"ﾋｮｳｺﾞｹﾝ","kana_city":"ﾋﾒｼﾞｼ","kana_address":"ﾆｼｴｷﾏｴﾁｮｳ","pref":"兵庫県","city":"姫路市","address":"西駅前町"},
{"zip_code":"6700096","kana_pref":"ﾋｮｳｺﾞｹﾝ","kana_city":"ﾋﾒｼﾞｼ","kana_address":"ﾆｼｼﾝｻﾞｲｹ","pref":"兵庫県","city":"姫路市","address":"西新在家"},
{"zip_code":"6700033","kana_pref":"ﾋｮｳｺﾞｹﾝ","kana_city":"ﾋﾒｼﾞｼ","kana_address":"ﾆｼｼﾝﾏﾁ","pref":"兵庫県","city":"姫路市","address":"西新町"},
{"zip_code":"6700897","kana_pref":"ﾋｮｳｺﾞｹﾝ","kana_city":"ﾋﾒｼﾞｼ","kana_address":"ﾆｼﾀﾞｲｼﾞｭﾀﾞｲ","pref":"兵庫県","city":"姫路市","address":"西大寿台"},
{"zip_code":"6700805","kana_pref":"ﾋｮｳｺﾞｹﾝ","kana_city":"ﾋﾒｼﾞｼ","kana_address":"ﾆｼﾅｶｼﾞﾏ","pref":"兵庫県","city":"姫路市","address":"西中島"},
{"zip_code":"6700901","kana_pref":"ﾋｮｳｺﾞｹﾝ","kana_city":"ﾋﾒｼﾞｼ","kana_address":"ﾆｼﾆｶｲﾏﾁ","pref":"兵庫県","city":"姫路市","address":"西二階町"},
{"zip_code":"6700971","kana_pref":"ﾋｮｳｺﾞｹﾝ","kana_city":"ﾋﾒｼﾞｼ","kana_address":"ﾆｼﾉﾌﾞｽｴ","pref":"兵庫県","city":"姫路市","address":"西延末"},
{"zip_code":"6700876","kana_pref":"ﾋｮｳｺﾞｹﾝ","kana_city":"ﾋﾒｼﾞｼ","kana_address":"ﾆｼﾔｼﾛﾁｮｳ","pref":"兵庫県","city":"姫路市","address":"西八代町"},
{"zip_code":"6700801","kana_pref":"ﾋｮｳｺﾞｹﾝ","kana_city":"ﾋﾒｼﾞｼ","kana_address":"ﾆﾌﾞﾉ","pref":"兵庫県","city":"姫路市","address":"仁豊野"},
{"zip_code":"6700038","kana_pref":"ﾋｮｳｺﾞｹﾝ","kana_city":"ﾋﾒｼﾞｼ","kana_address":"ﾉｳﾆﾝﾏﾁ","pref":"兵庫県","city":"姫路市","address":"農人町"},
{"zip_code":"6700961","kana_pref":"ﾋｮｳｺﾞｹﾝ","kana_city":"ﾋﾒｼﾞｼ","kana_address":"ﾉｳﾈﾝﾁｮｳ","pref":"兵庫県","city":"姫路市","address":"南畝町"},
{"zip_code":"6700811","kana_pref":"ﾋｮｳｺﾞｹﾝ","kana_city":"ﾋﾒｼﾞｼ","kana_address":"ﾉｻﾞﾄ","pref":"兵庫県","city":"姫路市","address":"野里"},
{"zip_code":"6700814","kana_pref":"ﾋｮｳｺﾞｹﾝ","kana_city":"ﾋﾒｼﾞｼ","kana_address":"ﾉｻﾞﾄｳｴﾉﾁｮｳ","pref":"兵庫県","city":"姫路市","address":"野里上野町"},
{"zip_code":"6700813","kana_pref":"ﾋｮｳｺﾞｹﾝ","kana_city":"ﾋﾒｼﾞｼ","kana_address":"ﾉｻﾞﾄｹｲｳﾝｼﾞﾏｴﾁｮｳ","pref":"兵庫県","city":"姫路市","address":"野里慶雲寺前町"},
{"zip_code":"6700862","kana_pref":"ﾋｮｳｺﾞｹﾝ","kana_city":"ﾋﾒｼﾞｼ","kana_address":"ﾉｻﾞﾄｼﾝﾏﾁ","pref":"兵庫県","city":"姫路市","address":"野里新町"},
{"zip_code":"6700815","kana_pref":"ﾋｮｳｺﾞｹﾝ","kana_city":"ﾋﾒｼﾞｼ","kana_address":"ﾉｻﾞﾄﾀﾞｲﾜﾏﾁ","pref":"兵庫県","city":"姫路市","address":"野里大和町"},
{"zip_code":"6700865","kana_pref":"ﾋｮｳｺﾞｹﾝ","kana_city":"ﾋﾒｼﾞｼ","kana_address":"ﾉｻﾞﾄﾂｷｵｶﾏﾁ","pref":"兵庫県","city":"姫路市","address":"野里月丘町"},
{"zip_code":"6700867","kana_pref":"ﾋｮｳｺﾞｹﾝ","kana_city":"ﾋﾒｼﾞｼ","kana_address":"ﾉｻﾞﾄﾃﾗﾏﾁ","pref":"兵庫県","city":"姫路市","address":"野里寺町"},
{"zip_code":"6700864","kana_pref":"ﾋｮｳｺﾞｹﾝ","kana_city":"ﾋﾒｼﾞｼ","kana_address":"ﾉｻﾞﾄﾅｶﾏﾁ","pref":"兵庫県","city":"姫路市","address":"野里中町"},
{"zip_code":"6700863","kana_pref":"ﾋｮｳｺﾞｹﾝ","kana_city":"ﾋﾒｼﾞｼ","kana_address":"ﾉｻﾞﾄﾋｶﾞｼﾄﾞｳｼﾝﾏﾁ","pref":"兵庫県","city":"姫路市","address":"野里東同心町"},
{"zip_code":"6700861","kana_pref":"ﾋｮｳｺﾞｹﾝ","kana_city":"ﾋﾒｼﾞｼ","kana_address":"ﾉｻﾞﾄﾋｶﾞｼﾏﾁ","pref":"兵庫県","city":"姫路市","address":"野里東町"},
{"zip_code":"6700866","kana_pref":"ﾋｮｳｺﾞｹﾝ","kana_city":"ﾋﾒｼﾞｼ","kana_address":"ﾉｻﾞﾄﾎﾘﾄﾞﾒﾏﾁ","pref":"兵庫県","city":"姫路市","address":"野里堀留町"},
{"zip_code":"6700966","kana_pref":"ﾋｮｳｺﾞｹﾝ","kana_city":"ﾋﾒｼﾞｼ","kana_address":"ﾉﾌﾞｽｴ","pref":"兵庫県","city":"姫路市","address":"延末"},
{"zip_code":"6700906","kana_pref":"ﾋｮｳｺﾞｹﾝ","kana_city":"ﾋﾒｼﾞｼ","kana_address":"ﾊﾞｸﾛｳﾏﾁ","pref":"兵庫県","city":"姫路市","address":"博労町"},
{"zip_code":"6700008","kana_pref":"ﾋｮｳｺﾞｹﾝ","kana_city":"ﾋﾒｼﾞｼ","kana_address":"ﾊｼﾉﾏﾁ","pref":"兵庫県","city":"姫路市","address":"橋之町"},
{"zip_code":"6700047","kana_pref":"ﾋｮｳｺﾞｹﾝ","kana_city":"ﾋﾒｼﾞｼ","kana_address":"ﾊﾅｶｹﾞﾁｮｳ","pref":"兵庫県","city":"姫路市","address":"花影町"},
{"zip_code":"6700056","kana_pref":"ﾋｮｳｺﾞｹﾝ","kana_city":"ﾋﾒｼﾞｼ","kana_address":"ﾋｶﾞｼｲﾏｼﾞｭｸ","pref":"兵庫県","city":"姫路市","address":"東今宿"},
{"zip_code":"6700926","kana_pref":"ﾋｮｳｺﾞｹﾝ","kana_city":"ﾋﾒｼﾞｼ","kana_address":"ﾋｶﾞｼｴｷﾏｴﾁｮｳ","pref":"兵庫県","city":"姫路市","address":"東駅前町"},
{"zip_code":"6700084","kana_pref":"ﾋｮｳｺﾞｹﾝ","kana_city":"ﾋﾒｼﾞｼ","kana_address":"ﾋｶﾞｼﾂｼﾞｲ","pref":"兵庫県","city":"姫路市","address":"東辻井"},
{"zip_code":"6700965","kana_pref":"ﾋｮｳｺﾞｹﾝ","kana_city":"ﾋﾒｼﾞｼ","kana_address":"ﾋｶﾞｼﾉﾌﾞｽｴ","pref":"兵庫県","city":"姫路市","address":"東延末"},
{"zip_code":"6700064","kana_pref":"ﾋｮｳｺﾞｹﾝ","kana_city":"ﾋﾒｼﾞｼ","kana_address":"ﾋｶﾞｼﾕﾒｻｷﾀﾞｲ","pref":"兵庫県","city":"姫路市","address":"東夢前台"},
{"zip_code":"6700942","kana_pref":"ﾋｮｳｺﾞｹﾝ","kana_city":"ﾋﾒｼﾞｼ","kana_address":"ﾋﾉﾃﾞﾁｮｳ","pref":"兵庫県","city":"姫路市","address":"日出町"},
{"zip_code":"6700933","kana_pref":"ﾋｮｳｺﾞｹﾝ","kana_city":"ﾋﾒｼﾞｼ","kana_address":"ﾋﾗﾉﾏﾁ","pref":"兵庫県","city":"姫路市","address":"平野町"},
{"zip_code":"6700882","kana_pref":"ﾋｮｳｺﾞｹﾝ","kana_city":"ﾋﾒｼﾞｼ","kana_address":"ﾋﾛﾐﾈ","pref":"兵庫県","city":"姫路市","address":"広峰"},
{"zip_code":"6700891","kana_pref":"ﾋｮｳｺﾞｹﾝ","kana_city":"ﾋﾒｼﾞｼ","kana_address":"ﾋﾛﾐﾈﾔﾏ","pref":"兵庫県","city":"姫路市","address":"広嶺山"},
{"zip_code":"6700855","kana_pref":"ﾋｮｳｺﾞｹﾝ","kana_city":"ﾋﾒｼﾞｼ","kana_address":"ﾌｸｲﾏﾁ","pref":"兵庫県","city":"姫路市","address":"福居町"},
{"zip_code":"6700992","kana_pref":"ﾋｮｳｺﾞｹﾝ","kana_city":"ﾋﾒｼﾞｼ","kana_address":"ﾌｸｻﾞﾜﾁｮｳ","pref":"兵庫県","city":"姫路市","address":"福沢町"},
{"zip_code":"6700017","kana_pref":"ﾋｮｳｺﾞｹﾝ","kana_city":"ﾋﾒｼﾞｼ","kana_address":"ﾌｸﾅｶﾏﾁ","pref":"兵庫県","city":"姫路市","address":"福中町"},
{"zip_code":"6700004","kana_pref":"ﾋｮｳｺﾞｹﾝ","kana_city":"ﾋﾒｼﾞｼ","kana_address":"ﾌｸﾓﾄﾏﾁ","pref":"兵庫県","city":"姫路市","address":"福本町"},
{"zip_code":"6700066","kana_pref":"ﾋｮｳｺﾞｹﾝ","kana_city":"ﾋﾒｼﾞｼ","kana_address":"ﾌｼﾞｶﾞﾀﾞｲ","pref":"兵庫県","city":"姫路市","address":"藤ケ台"},
{"zip_code":"6700832","kana_pref":"ﾋｮｳｺﾞｹﾝ","kana_city":"ﾋﾒｼﾞｼ","kana_address":"ﾌﾀﾊﾞﾁｮｳ","pref":"兵庫県","city":"姫路市","address":"双葉町"},
{"zip_code":"6700034","kana_pref":"ﾋｮｳｺﾞｹﾝ","kana_city":"ﾋﾒｼﾞｼ","kana_address":"ﾌﾅｵｶﾁｮｳ","pref":"兵庫県","city":"姫路市","address":"船丘町"},
{"zip_code":"6700048","kana_pref":"ﾋｮｳｺﾞｹﾝ","kana_city":"ﾋﾒｼﾞｼ","kana_address":"ﾌﾅﾊｼﾁｮｳ","pref":"兵庫県","city":"姫路市","address":"船橋町"},
{"zip_code":"6700947","kana_pref":"ﾋｮｳｺﾞｹﾝ","kana_city":"ﾋﾒｼﾞｼ","kana_address":"ﾎｳｼﾞｮｳ","pref":"兵庫県","city":"姫路市","address":"北条"},
{"zip_code":"6700945","kana_pref":"ﾋｮｳｺﾞｹﾝ","kana_city":"ﾋﾒｼﾞｼ","kana_address":"ﾎｳｼﾞｮｳｳﾒﾊﾗﾁｮｳ","pref":"兵庫県","city":"姫路市","address":"北条梅原町"},
{"zip_code":"6700946","kana_pref":"ﾋｮｳｺﾞｹﾝ","kana_city":"ﾋﾒｼﾞｼ","kana_address":"ﾎｳｼﾞｮｳﾅｶﾞﾗﾁｮｳ","pref":"兵庫県","city":"姫路市","address":"北条永良町"},
{"zip_code":"6700948","kana_pref":"ﾋｮｳｺﾞｹﾝ","kana_city":"ﾋﾒｼﾞｼ","kana_address":"ﾎｳｼﾞｮｳﾐﾔﾉﾏﾁ","pref":"兵庫県","city":"姫路市","address":"北条宮の町"},
{"zip_code":"6700935","kana_pref":"ﾋｮｳｺﾞｹﾝ","kana_city":"ﾋﾒｼﾞｼ","kana_address":"ﾎｳｼﾞｮｳｸﾞﾁ","pref":"兵庫県","city":"姫路市","address":"北条口"},
{"zip_code":"6700804","kana_pref":"ﾋｮｳｺﾞｹﾝ","kana_city":"ﾋﾒｼﾞｼ","kana_address":"ﾎｳｼﾛ","pref":"兵庫県","city":"姫路市","address":"保城"},
{"zip_code":"6700011","kana_pref":"ﾋｮｳｺﾞｹﾝ","kana_city":"ﾋﾒｼﾞｼ","kana_address":"ﾎﾞｳｽﾞﾏﾁ","pref":"兵庫県","city":"姫路市","address":"坊主町"},
{"zip_code":"6700881","kana_pref":"ﾋｮｳｺﾞｹﾝ","kana_city":"ﾋﾒｼﾞｼ","kana_address":"ﾎｳﾅﾝﾁｮｳ","pref":"兵庫県","city":"姫路市","address":"峰南町"},
{"zip_code":"6700012","kana_pref":"ﾋｮｳｺﾞｹﾝ","kana_city":"ﾋﾒｼﾞｼ","kana_address":"ﾎﾝﾏﾁ","pref":"兵庫県","city":"姫路市","address":"本町"},
{"zip_code":"6700806","kana_pref":"ﾋｮｳｺﾞｹﾝ","kana_city":"ﾋﾒｼﾞｼ","kana_address":"ﾏｽｲｼﾝﾏﾁ","pref":"兵庫県","city":"姫路市","address":"増位新町"},
{"zip_code":"6700807","kana_pref":"ﾋｮｳｺﾞｹﾝ","kana_city":"ﾋﾒｼﾞｼ","kana_address":"ﾏｽｲﾎﾝﾏﾁ","pref":"兵庫県","city":"姫路市","address":"増位本町"},
{"zip_code":"6700827","kana_pref":"ﾋｮｳｺﾞｹﾝ","kana_city":"ﾋﾒｼﾞｼ","kana_address":"ﾏﾙｵﾁｮｳ","pref":"兵庫県","city":"姫路市","address":"丸尾町"},
{"zip_code":"6700055","kana_pref":"ﾋｮｳｺﾞｹﾝ","kana_city":"ﾋﾒｼﾞｼ","kana_address":"ﾐｺｵｶﾏｴ","pref":"兵庫県","city":"姫路市","address":"神子岡前"},
{"zip_code":"6700073","kana_pref":"ﾋｮｳｺﾞｹﾝ","kana_city":"ﾋﾒｼﾞｼ","kana_address":"ﾐﾀﾁﾅｶ","pref":"兵庫県","city":"姫路市","address":"御立中"},
{"zip_code":"6700072","kana_pref":"ﾋｮｳｺﾞｹﾝ","kana_city":"ﾋﾒｼﾞｼ","kana_address":"ﾐﾀﾁﾋｶﾞｼ","pref":"兵庫県","city":"姫路市","address":"御立東"},
{"zip_code":"6700074","kana_pref":"ﾋｮｳｺﾞｹﾝ","kana_city":"ﾋﾒｼﾞｼ","kana_address":"ﾐﾀﾁﾆｼ","pref":"兵庫県","city":"姫路市","address":"御立西"},
{"zip_code":"6700071","kana_pref":"ﾋｮｳｺﾞｹﾝ","kana_city":"ﾋﾒｼﾞｼ","kana_address":"ﾐﾀﾁｷﾀ","pref":"兵庫県","city":"姫路市","address":"御立北"},
{"zip_code":"6700054","kana_pref":"ﾋｮｳｺﾞｹﾝ","kana_city":"ﾋﾒｼﾞｼ","kana_address":"ﾐﾅﾐｲﾏｼﾞｭｸ","pref":"兵庫県","city":"姫路市","address":"南今宿"},
{"zip_code":"6700962","kana_pref":"ﾋｮｳｺﾞｹﾝ","kana_city":"ﾋﾒｼﾞｼ","kana_address":"ﾐﾅﾐｴｷﾏｴﾁｮｳ","pref":"兵庫県","city":"姫路市","address":"南駅前町"},
{"zip_code":"6700053","kana_pref":"ﾋｮｳｺﾞｹﾝ","kana_city":"ﾋﾒｼﾞｼ","kana_address":"ﾐﾅﾐｸﾙﾏｻﾞｷ","pref":"兵庫県","city":"姫路市","address":"南車崎"},
{"zip_code":"6700093","kana_pref":"ﾋｮｳｺﾞｹﾝ","kana_city":"ﾋﾒｼﾞｼ","kana_address":"ﾐﾅﾐｼﾝｻﾞｲｹ","pref":"兵庫県","city":"姫路市","address":"南新在家"},
{"zip_code":"6700912","kana_pref":"ﾋｮｳｺﾞｹﾝ","kana_city":"ﾋﾒｼﾞｼ","kana_address":"ﾐﾅﾐﾏﾁ","pref":"兵庫県","city":"姫路市","address":"南町"},
{"zip_code":"6700875","kana_pref":"ﾋｮｳｺﾞｹﾝ","kana_city":"ﾋﾒｼﾞｼ","kana_address":"ﾐﾅﾐﾔｼﾛﾁｮｳ","pref":"兵庫県","city":"姫路市","address":"南八代町"},
{"zip_code":"6700823","kana_pref":"ﾋｮｳｺﾞｹﾝ","kana_city":"ﾋﾒｼﾞｼ","kana_address":"ﾐﾔｳｴﾁｮｳ","pref":"兵庫県","city":"姫路市","address":"宮上町"},
{"zip_code":"6700837","kana_pref":"ﾋｮｳｺﾞｹﾝ","kana_city":"ﾋﾒｼﾞｼ","kana_address":"ﾐﾔﾆｼﾁｮｳ","pref":"兵庫県","city":"姫路市","address":"宮西町"},
{"zip_code":"6700812","kana_pref":"ﾋｮｳｺﾞｹﾝ","kana_city":"ﾋﾒｼﾞｼ","kana_address":"ﾑﾂﾐﾁｮｳ","pref":"兵庫県","city":"姫路市","address":"睦町"},
{"zip_code":"6700937","kana_pref":"ﾋｮｳｺﾞｹﾝ","kana_city":"ﾋﾒｼﾞｼ","kana_address":"ﾓﾄｼｵﾏﾁ","pref":"兵庫県","city":"姫路市","address":"元塩町"},
{"zip_code":"6700049","kana_pref":"ﾋｮｳｺﾞｹﾝ","kana_city":"ﾋﾒｼﾞｼ","kana_address":"ﾓﾄﾏﾁ","pref":"兵庫県","city":"姫路市","address":"元町"},
{"zip_code":"6700006","kana_pref":"ﾋｮｳｺﾞｹﾝ","kana_city":"ﾋﾒｼﾞｼ","kana_address":"ﾔｷﾞﾏﾁ","pref":"兵庫県","city":"姫路市","address":"八木町"},
{"zip_code":"6700872","kana_pref":"ﾋｮｳｺﾞｹﾝ","kana_city":"ﾋﾒｼﾞｼ","kana_address":"ﾔｼﾛ","pref":"兵庫県","city":"姫路市","address":"八代"},
{"zip_code":"6700873","kana_pref":"ﾋｮｳｺﾞｹﾝ","kana_city":"ﾋﾒｼﾞｼ","kana_address":"ﾔｼﾛﾄｳｺｳｼﾞﾁｮｳ","pref":"兵庫県","city":"姫路市","address":"八代東光寺町"},
{"zip_code":"6700874","kana_pref":"ﾋｮｳｺﾞｹﾝ","kana_city":"ﾋﾒｼﾞｼ","kana_address":"ﾔｼﾛﾎﾝﾁｮｳ","pref":"兵庫県","city":"姫路市","address":"八代本町"},
{"zip_code":"6700886","kana_pref":"ﾋｮｳｺﾞｹﾝ","kana_city":"ﾋﾒｼﾞｼ","kana_address":"ﾔｼﾛﾐﾄﾞﾘｶﾞｵｶﾁｮｳ","pref":"兵庫県","city":"姫路市","address":"八代緑ケ丘町"},
{"zip_code":"6700885","kana_pref":"ﾋｮｳｺﾞｹﾝ","kana_city":"ﾋﾒｼﾞｼ","kana_address":"ﾔｼﾛﾐﾔﾏｴﾁｮｳ","pref":"兵庫県","city":"姫路市","address":"八代宮前町"},
{"zip_code":"6700955","kana_pref":"ﾋｮｳｺﾞｹﾝ","kana_city":"ﾋﾒｼﾞｼ","kana_address":"ﾔｽﾀﾞ","pref":"兵庫県","city":"姫路市","address":"安田"},
{"zip_code":"6700023","kana_pref":"ﾋｮｳｺﾞｹﾝ","kana_city":"ﾋﾒｼﾞｼ","kana_address":"ﾔﾅｷﾞﾏﾁ","pref":"兵庫県","city":"姫路市","address":"柳町"},
{"zip_code":"6700021","kana_pref":"ﾋｮｳｺﾞｹﾝ","kana_city":"ﾋﾒｼﾞｼ","kana_address":"ﾔﾏﾉｲﾁｮｳ","pref":"兵庫県","city":"姫路市","address":"山野井町"},
{"zip_code":"6700036","kana_pref":"ﾋｮｳｺﾞｹﾝ","kana_city":"ﾋﾒｼﾞｼ","kana_address":"ﾔﾏﾊﾀｼﾝﾃﾞﾝ","pref":"兵庫県","city":"姫路市","address":"山畑新田"},
{"zip_code":"6700085","kana_pref":"ﾋｮｳｺﾞｹﾝ","kana_city":"ﾋﾒｼﾞｼ","kana_address":"ﾔﾏﾌﾞｷ","pref":"兵庫県","city":"姫路市","address":"山吹"},
{"zip_code":"6700031","kana_pref":"ﾋｮｳｺﾞｹﾝ","kana_city":"ﾋﾒｼﾞｼ","kana_address":"ﾖｼﾀﾞﾏﾁ","pref":"兵庫県","city":"姫路市","address":"吉田町"},
{"zip_code":"6700042","kana_pref":"ﾋｮｳｺﾞｹﾝ","kana_city":"ﾋﾒｼﾞｼ","kana_address":"ﾖﾈﾀﾞﾏﾁ","pref":"兵庫県","city":"姫路市","address":"米田町"},
{"zip_code":"6700941","kana_pref":"ﾋｮｳｺﾞｹﾝ","kana_city":"ﾋﾒｼﾞｼ","kana_address":"ﾜｶﾅﾁｮｳ","pref":"兵庫県","city":"姫路市","address":"若菜町"},
{"zip_code":"6700921","kana_pref":"ﾋｮｳｺﾞｹﾝ","kana_city":"ﾋﾒｼﾞｼ","kana_address":"ﾜﾀﾏﾁ","pref":"兵庫県","city":"姫路市","address":"綿町"}]}