{"zip_code":[
{"zip_code":"6720103","kana_pref":"ﾋｮｳｺﾞｹﾝ","kana_city":"ﾋﾒｼﾞｼ","kana_address":"ｲｴｼﾏﾁｮｳﾎﾞｳｾﾞ","pref":"兵庫県","city":"姫路市","address":"家島町坊勢"},
{"zip_code":"6720101","kana_pref":"ﾋｮｳｺﾞｹﾝ","kana_city":"ﾋﾒｼﾞｼ","kana_address":"ｲｴｼﾏﾁｮｳﾏｳﾗ","pref":"兵庫県","city":"姫路市","address":"家島町真浦"},
{"zip_code":"6720102","kana_pref":"ﾋｮｳｺﾞｹﾝ","kana_city":"ﾋﾒｼﾞｼ","kana_address":"ｲｴｼﾏﾁｮｳﾐﾔ","pref":"兵庫県","city":"姫路市","address":"家島町宮"},
{"zip_code":"6728003","kana_pref":"ﾋｮｳｺﾞｹﾝ","kana_city":"ﾋﾒｼﾞｼ","kana_address":"ｵｸﾔﾏ","pref":"兵庫県","city":"姫路市","address":"奥山"},
{"zip_code":"6728001","kana_pref":"ﾋｮｳｺﾞｹﾝ","kana_city":"ﾋﾒｼﾞｼ","kana_address":"ｶﾈﾀﾞ","pref":"兵庫県","city":"姫路市","address":"兼田"},
{"zip_code":"6728002","kana_pref":"ﾋｮｳｺﾞｹﾝ","kana_city":"ﾋﾒｼﾞｼ","kana_address":"ｷﾀﾊﾗ","pref":"兵庫県","city":"姫路市","address":"北原"},
{"zip_code":"6728016","kana_pref":"ﾋｮｳｺﾞｹﾝ","kana_city":"ﾋﾒｼﾞｼ","kana_address":"ｷﾊﾞ","pref":"兵庫県","city":"姫路市","address":"木場"},
{"zip_code":"6728017","kana_pref":"ﾋｮｳｺﾞｹﾝ","kana_city":"ﾋﾒｼﾞｼ","kana_address":"ｷﾊﾞｼﾞｭｳﾊｯﾀﾝﾁｮｳ","pref":"兵庫県","city":"姫路市","address":"木場十八反町"},
{"zip_code":"6728018","kana_pref":"ﾋｮｳｺﾞｹﾝ","kana_city":"ﾋﾒｼﾞｼ","kana_address":"ｷﾊﾞﾏｴﾅｶﾁｮｳ","pref":"兵庫県","city":"姫路市","address":"木場前中町"},
{"zip_code":"6728019","kana_pref":"ﾋｮｳｺﾞｹﾝ","kana_city":"ﾋﾒｼﾞｼ","kana_address":"ｷﾊﾞﾏｴﾅﾅﾀﾝﾁｮｳ","pref":"兵庫県","city":"姫路市","address":"木場前七反町"},
{"zip_code":"6728041","kana_pref":"ﾋｮｳｺﾞｹﾝ","kana_city":"ﾋﾒｼﾞｼ","kana_address":"ｻﾝｼﾞｮｳﾁｮｳ","pref":"兵庫県","city":"姫路市","address":"三条町"},
{"zip_code":"6728078","kana_pref":"ﾋｮｳｺﾞｹﾝ","kana_city":"ﾋﾒｼﾞｼ","kana_address":"ｼｶﾏｸｱｶﾞ","pref":"兵庫県","city":"姫路市","address":"飾磨区英賀"},
{"zip_code":"6728092","kana_pref":"ﾋｮｳｺﾞｹﾝ","kana_city":"ﾋﾒｼﾞｼ","kana_address":"ｼｶﾏｸｱｶﾞｶｽｶﾞﾁｮｳ","pref":"兵庫県","city":"姫路市","address":"飾磨区英賀春日町"},
{"zip_code":"6728084","kana_pref":"ﾋｮｳｺﾞｹﾝ","kana_city":"ﾋﾒｼﾞｼ","kana_address":"ｼｶﾏｸｱｶﾞｼﾐｽﾞﾁｮｳ","pref":"兵庫県","city":"姫路市","address":"飾磨区英賀清水町"},
{"zip_code":"6728087","kana_pref":"ﾋｮｳｺﾞｹﾝ","kana_city":"ﾋﾒｼﾞｼ","kana_address":"ｼｶﾏｸｱｶﾞﾋｶﾞｼﾁｮｳ","pref":"兵庫県","city":"姫路市","address":"飾磨区英賀東町"},
{"zip_code":"6728088","kana_pref":"ﾋｮｳｺﾞｹﾝ","kana_city":"ﾋﾒｼﾞｼ","kana_address":"ｼｶﾏｸｱｶﾞﾆｼﾁｮｳ","pref":"兵庫県","city":"姫路市","address":"飾磨区英賀西町"},
{"zip_code":"6728091","kana_pref":"ﾋｮｳｺﾞｹﾝ","kana_city":"ﾋﾒｼﾞｼ","kana_address":"ｼｶﾏｸｱｶﾞﾎｴｷﾏｴﾁｮｳ","pref":"兵庫県","city":"姫路市","address":"飾磨区英賀保駅前町"},
{"zip_code":"6728089","kana_pref":"ﾋｮｳｺﾞｹﾝ","kana_city":"ﾋﾒｼﾞｼ","kana_address":"ｼｶﾏｸｱｶﾞﾐﾔﾀﾞｲ","pref":"兵庫県","city":"姫路市","address":"飾磨区英賀宮台"},
{"zip_code":"6728080","kana_pref":"ﾋｮｳｺﾞｹﾝ","kana_city":"ﾋﾒｼﾞｼ","kana_address":"ｼｶﾏｸｱｶﾞﾐﾔﾁｮｳ","pref":"兵庫県","city":"姫路市","address":"飾磨区英賀宮町"},
{"zip_code":"6728037","kana_pref":"ﾋｮｳｺﾞｹﾝ","kana_city":"ﾋﾒｼﾞｼ","kana_address":"ｼｶﾏｸｱﾅｾ","pref":"兵庫県","city":"姫路市","address":"飾磨区阿成"},
{"zip_code":"6728030","kana_pref":"ﾋｮｳｺﾞｹﾝ","kana_city":"ﾋﾒｼﾞｼ","kana_address":"ｼｶﾏｸｱﾅｾｳｴｷ","pref":"兵庫県","city":"姫路市","address":"飾磨区阿成植木"},
{"zip_code":"6728038","kana_pref":"ﾋｮｳｺﾞｹﾝ","kana_city":"ﾋﾒｼﾞｼ","kana_address":"ｼｶﾏｸｱﾅｾｶｺ","pref":"兵庫県","city":"姫路市","address":"飾磨区阿成鹿古"},
{"zip_code":"6728059","kana_pref":"ﾋｮｳｺﾞｹﾝ","kana_city":"ﾋﾒｼﾞｼ","kana_address":"ｼｶﾏｸｱﾅｾｼﾓｶｲﾁ","pref":"兵庫県","city":"姫路市","address":"飾磨区阿成下垣内"},
{"zip_code":"6728058","kana_pref":"ﾋｮｳｺﾞｹﾝ","kana_city":"ﾋﾒｼﾞｼ","kana_address":"ｼｶﾏｸｱﾅｾﾅｶｶｲﾁ","pref":"兵庫県","city":"姫路市","address":"飾磨区阿成中垣内"},
{"zip_code":"6728039","kana_pref":"ﾋｮｳｺﾞｹﾝ","kana_city":"ﾋﾒｼﾞｼ","kana_address":"ｼｶﾏｸｱﾅｾﾜﾀｼﾊﾞ","pref":"兵庫県","city":"姫路市","address":"飾磨区阿成渡場"},
{"zip_code":"6728079","kana_pref":"ﾋｮｳｺﾞｹﾝ","kana_city":"ﾋﾒｼﾞｼ","kana_address":"ｼｶﾏｸｲﾏｻﾞｲｹ","pref":"兵庫県","city":"姫路市","address":"飾磨区今在家"},
{"zip_code":"6728090","kana_pref":"ﾋｮｳｺﾞｹﾝ","kana_city":"ﾋﾒｼﾞｼ","kana_address":"ｼｶﾏｸｲﾏｻﾞｲｹｷﾀ","pref":"兵庫県","city":"姫路市","address":"飾磨区今在家北"},
{"zip_code":"6728076","kana_pref":"ﾋｮｳｺﾞｹﾝ","kana_city":"ﾋﾒｼﾞｼ","kana_address":"ｼｶﾏｸｲﾘﾌﾈﾁｮｳ","pref":"兵庫県","city":"姫路市","address":"飾磨区入船町"},
{"zip_code":"6728057","kana_pref":"ﾋｮｳｺﾞｹﾝ","kana_city":"ﾋﾒｼﾞｼ","kana_address":"ｼｶﾏｸｴﾋﾞｽ","pref":"兵庫県","city":"姫路市","address":"飾磨区恵美酒"},
{"zip_code":"6728062","kana_pref":"ﾋｮｳｺﾞｹﾝ","kana_city":"ﾋﾒｼﾞｼ","kana_address":"ｼｶﾏｸｵｵﾊﾏ","pref":"兵庫県","city":"姫路市","address":"飾磨区大浜"},
{"zip_code":"6728077","kana_pref":"ﾋｮｳｺﾞｹﾝ","kana_city":"ﾋﾒｼﾞｼ","kana_address":"ｼｶﾏｸｶｽﾔｼﾝﾏﾁ","pref":"兵庫県","city":"姫路市","address":"飾磨区粕谷新町"},
{"zip_code":"6728071","kana_pref":"ﾋｮｳｺﾞｹﾝ","kana_city":"ﾋﾒｼﾞｼ","kana_address":"ｼｶﾏｸｶﾏｴ","pref":"兵庫県","city":"姫路市","address":"飾磨区構"},
{"zip_code":"6728094","kana_pref":"ﾋｮｳｺﾞｹﾝ","kana_city":"ﾋﾒｼﾞｼ","kana_address":"ｼｶﾏｸｶﾏｸﾗﾁｮｳ","pref":"兵庫県","city":"姫路市","address":"飾磨区鎌倉町"},
{"zip_code":"6728043","kana_pref":"ﾋｮｳｺﾞｹﾝ","kana_city":"ﾋﾒｼﾞｼ","kana_address":"ｼｶﾏｸｶﾐﾉﾀﾞ","pref":"兵庫県","city":"姫路市","address":"飾磨区上野田"},
{"zip_code":"6728047","kana_pref":"ﾋｮｳｺﾞｹﾝ","kana_city":"ﾋﾒｼﾞｼ","kana_address":"ｼｶﾏｸｶﾒﾔﾏ","pref":"兵庫県","city":"姫路市","address":"飾磨区亀山"},
{"zip_code":"6728074","kana_pref":"ﾋｮｳｺﾞｹﾝ","kana_city":"ﾋﾒｼﾞｼ","kana_address":"ｼｶﾏｸｶﾓ","pref":"兵庫県","city":"姫路市","address":"飾磨区加茂"},
{"zip_code":"6728073","kana_pref":"ﾋｮｳｺﾞｹﾝ","kana_city":"ﾋﾒｼﾞｼ","kana_address":"ｼｶﾏｸｶﾓｷﾀ","pref":"兵庫県","city":"姫路市","address":"飾磨区加茂北"},
{"zip_code":"6728070","kana_pref":"ﾋｮｳｺﾞｹﾝ","kana_city":"ﾋﾒｼﾞｼ","kana_address":"ｼｶﾏｸｶﾓﾋｶﾞｼ","pref":"兵庫県","city":"姫路市","address":"飾磨区加茂東"},
{"zip_code":"6728069","kana_pref":"ﾋｮｳｺﾞｹﾝ","kana_city":"ﾋﾒｼﾞｼ","kana_address":"ｼｶﾏｸｶﾓﾐﾅﾐ","pref":"兵庫県","city":"姫路市","address":"飾磨区加茂南"},
{"zip_code":"6728056","kana_pref":"ﾋｮｳｺﾞｹﾝ","kana_city":"ﾋﾒｼﾞｼ","kana_address":"ｼｶﾏｸｺﾞｺｳ","pref":"兵庫県","city":"姫路市","address":"飾磨区御幸"},
{"zip_code":"6728053","kana_pref":"ﾋｮｳｺﾞｹﾝ","kana_city":"ﾋﾒｼﾞｼ","kana_address":"ｼｶﾏｸｻｶｴﾏﾁ","pref":"兵庫県","city":"姫路市","address":"飾磨区栄町"},
{"zip_code":"6728036","kana_pref":"ﾋｮｳｺﾞｹﾝ","kana_city":"ﾋﾒｼﾞｼ","kana_address":"ｼｶﾏｸｻﾝﾜﾁｮｳ","pref":"兵庫県","city":"姫路市","address":"飾磨区三和町"},
{"zip_code":"6728075","kana_pref":"ﾋｮｳｺﾞｹﾝ","kana_city":"ﾋﾒｼﾞｼ","kana_address":"ｼｶﾏｸｼｱﾝﾊﾞｼ","pref":"兵庫県","city":"姫路市","address":"飾磨区思案橋"},
{"zip_code":"6728051","kana_pref":"ﾋｮｳｺﾞｹﾝ","kana_city":"ﾋﾒｼﾞｼ","kana_address":"ｼｶﾏｸｼﾐｽﾞ","pref":"兵庫県","city":"姫路市","address":"飾磨区清水"},
{"zip_code":"6728044","kana_pref":"ﾋｮｳｺﾞｹﾝ","kana_city":"ﾋﾒｼﾞｼ","kana_address":"ｼｶﾏｸｼﾓﾉﾀﾞ","pref":"兵庫県","city":"姫路市","address":"飾磨区下野田"},
{"zip_code":"6728083","kana_pref":"ﾋｮｳｺﾞｹﾝ","kana_city":"ﾋﾒｼﾞｼ","kana_address":"ｼｶﾏｸｼﾞｮｳﾅﾝﾁｮｳ","pref":"兵庫県","city":"姫路市","address":"飾磨区城南町"},
{"zip_code":"6728063","kana_pref":"ﾋｮｳｺﾞｹﾝ","kana_city":"ﾋﾒｼﾞｼ","kana_address":"ｼｶﾏｸｽｶ","pref":"兵庫県","city":"姫路市","address":"飾磨区須加"},
{"zip_code":"6728081","kana_pref":"ﾋｮｳｺﾞｹﾝ","kana_city":"ﾋﾒｼﾞｼ","kana_address":"ｼｶﾏｸﾀｶﾏﾁ","pref":"兵庫県","city":"姫路市","address":"飾磨区高町"},
{"zip_code":"6728072","kana_pref":"ﾋｮｳｺﾞｹﾝ","kana_city":"ﾋﾒｼﾞｼ","kana_address":"ｼｶﾏｸﾀﾃﾞﾉﾁｮｳ","pref":"兵庫県","city":"姫路市","address":"飾磨区蓼野町"},
{"zip_code":"6728052","kana_pref":"ﾋｮｳｺﾞｹﾝ","kana_city":"ﾋﾒｼﾞｼ","kana_address":"ｼｶﾏｸﾀﾏﾁ","pref":"兵庫県","city":"姫路市","address":"飾磨区玉地"},
{"zip_code":"6728082","kana_pref":"ﾋｮｳｺﾞｹﾝ","kana_city":"ﾋﾒｼﾞｼ","kana_address":"ｼｶﾏｸﾂｹｼﾛ","pref":"兵庫県","city":"姫路市","address":"飾磨区付城"},
{"zip_code":"6728061","kana_pref":"ﾋｮｳｺﾞｹﾝ","kana_city":"ﾋﾒｼﾞｼ","kana_address":"ｼｶﾏｸﾃﾝｼﾞﾝ","pref":"兵庫県","city":"姫路市","address":"飾磨区天神"},
{"zip_code":"6728046","kana_pref":"ﾋｮｳｺﾞｹﾝ","kana_city":"ﾋﾒｼﾞｼ","kana_address":"ｼｶﾏｸﾄｸﾗ","pref":"兵庫県","city":"姫路市","address":"飾磨区都倉"},
{"zip_code":"6728035","kana_pref":"ﾋｮｳｺﾞｹﾝ","kana_city":"ﾋﾒｼﾞｼ","kana_address":"ｼｶﾏｸﾅｶｼﾏ","pref":"兵庫県","city":"姫路市","address":"飾磨区中島"},
{"zip_code":"6728045","kana_pref":"ﾋｮｳｺﾞｹﾝ","kana_city":"ﾋﾒｼﾞｼ","kana_address":"ｼｶﾏｸﾅｶﾉﾀﾞ","pref":"兵庫県","city":"姫路市","address":"飾磨区中野田"},
{"zip_code":"6728085","kana_pref":"ﾋｮｳｺﾞｹﾝ","kana_city":"ﾋﾒｼﾞｼ","kana_address":"ｼｶﾏｸﾅｶﾊﾏﾁｮｳ","pref":"兵庫県","city":"姫路市","address":"飾磨区中浜町"},
{"zip_code":"6728086","kana_pref":"ﾋｮｳｺﾞｹﾝ","kana_city":"ﾋﾒｼﾞｼ","kana_address":"ｼｶﾏｸﾆｼﾊﾏﾁｮｳ","pref":"兵庫県","city":"姫路市","address":"飾磨区西浜町"},
{"zip_code":"6728040","kana_pref":"ﾋｮｳｺﾞｹﾝ","kana_city":"ﾋﾒｼﾞｼ","kana_address":"ｼｶﾏｸﾉﾀﾞﾁｮｳ","pref":"兵庫県","city":"姫路市","address":"飾磨区野田町"},
{"zip_code":"6728054","kana_pref":"ﾋｮｳｺﾞｹﾝ","kana_city":"ﾋﾒｼﾞｼ","kana_address":"ｼｶﾏｸﾋｶﾞｼﾎﾞﾘ","pref":"兵庫県","city":"姫路市","address":"飾磨区東堀"},
{"zip_code":"6728098","kana_pref":"ﾋｮｳｺﾞｹﾝ","kana_city":"ﾋﾒｼﾞｼ","kana_address":"ｼｶﾏｸﾌｼﾞﾐｶﾞｵｶﾁｮｳ","pref":"兵庫県","city":"姫路市","address":"飾磨区富士見ケ丘町"},
{"zip_code":"6728064","kana_pref":"ﾋｮｳｺﾞｹﾝ","kana_city":"ﾋﾒｼﾞｼ","kana_address":"ｼｶﾏｸﾎｿｴ","pref":"兵庫県","city":"姫路市","address":"飾磨区細江"},
{"zip_code":"6728025","kana_pref":"ﾋｮｳｺﾞｹﾝ","kana_city":"ﾋﾒｼﾞｼ","kana_address":"ｼｶﾏｸﾎﾘｶﾜﾁｮｳ","pref":"兵庫県","city":"姫路市","address":"飾磨区堀川町"},
{"zip_code":"6728055","kana_pref":"ﾋｮｳｺﾞｹﾝ","kana_city":"ﾋﾒｼﾞｼ","kana_address":"ｼｶﾏｸﾐﾔ","pref":"兵庫県","city":"姫路市","address":"飾磨区宮"},
{"zip_code":"6728048","kana_pref":"ﾋｮｳｺﾞｹﾝ","kana_city":"ﾋﾒｼﾞｼ","kana_address":"ｼｶﾏｸﾐﾔｹ","pref":"兵庫県","city":"姫路市","address":"飾磨区三宅"},
{"zip_code":"6728031","kana_pref":"ﾋｮｳｺﾞｹﾝ","kana_city":"ﾋﾒｼﾞｼ","kana_address":"ｼｶﾏｸﾒｶﾞ","pref":"兵庫県","city":"姫路市","address":"飾磨区妻鹿"},
{"zip_code":"6728032","kana_pref":"ﾋｮｳｺﾞｹﾝ","kana_city":"ﾋﾒｼﾞｼ","kana_address":"ｼｶﾏｸﾒｶﾞﾄｳｶｲﾁｮｳ","pref":"兵庫県","city":"姫路市","address":"飾磨区妻鹿東海町"},
{"zip_code":"6728034","kana_pref":"ﾋｮｳｺﾞｹﾝ","kana_city":"ﾋﾒｼﾞｼ","kana_address":"ｼｶﾏｸﾒｶﾞﾄｷﾜﾁｮｳ","pref":"兵庫県","city":"姫路市","address":"飾磨区妻鹿常盤町"},
{"zip_code":"6728033","kana_pref":"ﾋｮｳｺﾞｹﾝ","kana_city":"ﾋﾒｼﾞｼ","kana_address":"ｼｶﾏｸﾒｶﾞﾋﾀﾞﾁｮｳ","pref":"兵庫県","city":"姫路市","address":"飾磨区妻鹿日田町"},
{"zip_code":"6728093","kana_pref":"ﾋｮｳｺﾞｹﾝ","kana_city":"ﾋﾒｼﾞｼ","kana_address":"ｼｶﾏｸﾔｸﾞﾗﾁｮｳ","pref":"兵庫県","city":"姫路市","address":"飾磨区矢倉町"},
{"zip_code":"6728097","kana_pref":"ﾋｮｳｺﾞｹﾝ","kana_city":"ﾋﾒｼﾞｼ","kana_address":"ｼｶﾏｸﾔﾏｻｷ","pref":"兵庫県","city":"姫路市","address":"飾磨区山崎"},
{"zip_code":"6728096","kana_pref":"ﾋｮｳｺﾞｹﾝ","kana_city":"ﾋﾒｼﾞｼ","kana_address":"ｼｶﾏｸﾔﾏｻｷﾀﾞｲ","pref":"兵庫県","city":"姫路市","address":"飾磨区山崎台"},
{"zip_code":"6728095","kana_pref":"ﾋｮｳｺﾞｹﾝ","kana_city":"ﾋﾒｼﾞｼ","kana_address":"ｼｶﾏｸﾜｶﾐﾔﾁｮｳ","pref":"兵庫県","city":"姫路市","address":"飾磨区若宮町"},
{"zip_code":"6728023","kana_pref":"ﾋｮｳｺﾞｹﾝ","kana_city":"ﾋﾒｼﾞｼ","kana_address":"ｼﾗﾊﾏﾁｮｳ","pref":"兵庫県","city":"姫路市","address":"白浜町"},
{"zip_code":"6728021","kana_pref":"ﾋｮｳｺﾞｹﾝ","kana_city":"ﾋﾒｼﾞｼ","kana_address":"ｼﾗﾊﾏﾁｮｳｳｻｻﾞｷﾅｶ","pref":"兵庫県","city":"姫路市","address":"白浜町宇佐崎中"},
{"zip_code":"6728022","kana_pref":"ﾋｮｳｺﾞｹﾝ","kana_city":"ﾋﾒｼﾞｼ","kana_address":"ｼﾗﾊﾏﾁｮｳｳｻｻﾞｷﾐﾅﾐ","pref":"兵庫県","city":"姫路市","address":"白浜町宇佐崎南"},
{"zip_code":"6728013","kana_pref":"ﾋｮｳｺﾞｹﾝ","kana_city":"ﾋﾒｼﾞｼ","kana_address":"ｼﾗﾊﾏﾁｮｳｳｻｻﾞｷｷﾀ","pref":"兵庫県","city":"姫路市","address":"白浜町宇佐崎北"},
{"zip_code":"6728011","kana_pref":"ﾋｮｳｺﾞｹﾝ","kana_city":"ﾋﾒｼﾞｼ","kana_address":"ｼﾗﾊﾏﾁｮｳｶﾝﾀﾞ","pref":"兵庫県","city":"姫路市","address":"白浜町神田"},
{"zip_code":"6728012","kana_pref":"ﾋｮｳｺﾞｹﾝ","kana_city":"ﾋﾒｼﾞｼ","kana_address":"ｼﾗﾊﾏﾁｮｳｼﾞｹ","pref":"兵庫県","city":"姫路市","address":"白浜町寺家"},
{"zip_code":"6728024","kana_pref":"ﾋｮｳｺﾞｹﾝ","kana_city":"ﾋﾒｼﾞｼ","kana_address":"ｼﾗﾊﾏﾁｮｳﾅﾀﾞﾊﾏ","pref":"兵庫県","city":"姫路市","address":"白浜町灘浜"},
{"zip_code":"6728004","kana_pref":"ﾋｮｳｺﾞｹﾝ","kana_city":"ﾋﾒｼﾞｼ","kana_address":"ﾂｷﾞ","pref":"兵庫県","city":"姫路市","address":"継"},
{"zip_code":"6728049","kana_pref":"ﾋｮｳｺﾞｹﾝ","kana_city":"ﾋﾒｼﾞｼ","kana_address":"ﾂｸﾀﾞﾁｮｳ","pref":"兵庫県","city":"姫路市","address":"佃町"},
{"zip_code":"6728014","kana_pref":"ﾋｮｳｺﾞｹﾝ","kana_city":"ﾋﾒｼﾞｼ","kana_address":"ﾋｶﾞｼﾔﾏ","pref":"兵庫県","city":"姫路市","address":"東山"},
{"zip_code":"6728015","kana_pref":"ﾋｮｳｺﾞｹﾝ","kana_city":"ﾋﾒｼﾞｼ","kana_address":"ﾔｶ","pref":"兵庫県","city":"姫路市","address":"八家"}]}