{"zip_code":[
{"zip_code":"6730000","kana_pref":"ﾋｮｳｺﾞｹﾝ","kana_city":"ｱｶｼｼ","kana_address":"","pref":"兵庫県","city":"明石市","address":""},
{"zip_code":"6730882","kana_pref":"ﾋｮｳｺﾞｹﾝ","kana_city":"ｱｶｼｼ","kana_address":"ｱｲｵｲﾁｮｳ","pref":"兵庫県","city":"明石市","address":"相生町"},
{"zip_code":"6730847","kana_pref":"ﾋｮｳｺﾞｹﾝ","kana_city":"ｱｶｼｼ","kana_address":"ｱｶｼｺｳｴﾝ","pref":"兵庫県","city":"明石市","address":"明石公園"},
{"zip_code":"6730851","kana_pref":"ﾋｮｳｺﾞｹﾝ","kana_city":"ｱｶｼｼ","kana_address":"ｱｻｷﾞﾘｷﾀﾏﾁ","pref":"兵庫県","city":"明石市","address":"朝霧北町"},
{"zip_code":"6730852","kana_pref":"ﾋｮｳｺﾞｹﾝ","kana_city":"ｱｶｼｼ","kana_address":"ｱｻｷﾞﾘﾀﾞｲ","pref":"兵庫県","city":"明石市","address":"朝霧台"},
{"zip_code":"6730866","kana_pref":"ﾋｮｳｺﾞｹﾝ","kana_city":"ｱｶｼｼ","kana_address":"ｱｻｷﾞﾘﾁｮｳ","pref":"兵庫県","city":"明石市","address":"朝霧町"},
{"zip_code":"6730853","kana_pref":"ﾋｮｳｺﾞｹﾝ","kana_city":"ｱｶｼｼ","kana_address":"ｱｻｷﾞﾘﾔﾏﾃﾁｮｳ","pref":"兵庫県","city":"明石市","address":"朝霧山手町"},
{"zip_code":"6730002","kana_pref":"ﾋｮｳｺﾞｹﾝ","kana_city":"ｱｶｼｼ","kana_address":"ｱｻﾋｶﾞｵｶ","pref":"兵庫県","city":"明石市","address":"旭が丘"},
{"zip_code":"6730846","kana_pref":"ﾋｮｳｺﾞｹﾝ","kana_city":"ｱｶｼｼ","kana_address":"ｳｴﾉﾏﾙ","pref":"兵庫県","city":"明石市","address":"上ノ丸"},
{"zip_code":"6730022","kana_pref":"ﾋｮｳｺﾞｹﾝ","kana_city":"ｱｶｼｼ","kana_address":"ｵｳｼﾞ","pref":"兵庫県","city":"明石市","address":"王子"},
{"zip_code":"6730891","kana_pref":"ﾋｮｳｺﾞｹﾝ","kana_city":"ｱｶｼｼ","kana_address":"ｵｵｱｶｼﾁｮｳ","pref":"兵庫県","city":"明石市","address":"大明石町"},
{"zip_code":"6730879","kana_pref":"ﾋｮｳｺﾞｹﾝ","kana_city":"ｱｶｼｼ","kana_address":"ｵｵｸﾗｶｲｶﾞﾝﾄﾞｵﾘ","pref":"兵庫県","city":"明石市","address":"大蔵海岸通"},
{"zip_code":"6730875","kana_pref":"ﾋｮｳｺﾞｹﾝ","kana_city":"ｱｶｼｼ","kana_address":"ｵｵｸﾗﾃﾝｼﾞﾝﾁｮｳ","pref":"兵庫県","city":"明石市","address":"大蔵天神町"},
{"zip_code":"6730873","kana_pref":"ﾋｮｳｺﾞｹﾝ","kana_city":"ｱｶｼｼ","kana_address":"ｵｵｸﾗﾅｶﾏﾁ","pref":"兵庫県","city":"明石市","address":"大蔵中町"},
{"zip_code":"6730871","kana_pref":"ﾋｮｳｺﾞｹﾝ","kana_city":"ｱｶｼｼ","kana_address":"ｵｵｸﾗﾊﾁﾏﾝﾁｮｳ","pref":"兵庫県","city":"明石市","address":"大蔵八幡町"},
{"zip_code":"6730874","kana_pref":"ﾋｮｳｺﾞｹﾝ","kana_city":"ｱｶｼｼ","kana_address":"ｵｵｸﾗﾎﾝﾏﾁ","pref":"兵庫県","city":"明石市","address":"大蔵本町"},
{"zip_code":"6730863","kana_pref":"ﾋｮｳｺﾞｹﾝ","kana_city":"ｱｶｼｼ","kana_address":"ｵｵｸﾗﾀﾞﾆｶﾘｸﾞﾁ","pref":"兵庫県","city":"明石市","address":"大蔵谷狩口"},
{"zip_code":"6730865","kana_pref":"ﾋｮｳｺﾞｹﾝ","kana_city":"ｱｶｼｼ","kana_address":"ｵｵｸﾗﾀﾞﾆｼﾐｽﾞ","pref":"兵庫県","city":"明石市","address":"大蔵谷清水"},
{"zip_code":"6730869","kana_pref":"ﾋｮｳｺﾞｹﾝ","kana_city":"ｱｶｼｼ","kana_address":"ｵｵｸﾗﾀﾞﾆﾋｶﾞｼﾔﾏ","pref":"兵庫県","city":"明石市","address":"大蔵谷東山"},
{"zip_code":"6730864","kana_pref":"ﾋｮｳｺﾞｹﾝ","kana_city":"ｱｶｼｼ","kana_address":"ｵｵｸﾗﾀﾞﾆﾋｶﾞｼﾔﾏﾆｼﾔﾏ","pref":"兵庫県","city":"明石市","address":"大蔵谷東山西山"},
{"zip_code":"6730867","kana_pref":"ﾋｮｳｺﾞｹﾝ","kana_city":"ｱｶｼｼ","kana_address":"ｵｵｸﾗﾀﾞﾆｵｸ","pref":"兵庫県","city":"明石市","address":"大蔵谷奥"},
{"zip_code":"6730872","kana_pref":"ﾋｮｳｺﾞｹﾝ","kana_city":"ｱｶｼｼ","kana_address":"ｵｵｸﾗﾁｮｳ","pref":"兵庫県","city":"明石市","address":"大蔵町"},
{"zip_code":"6730884","kana_pref":"ﾋｮｳｺﾞｹﾝ","kana_city":"ｱｶｼｼ","kana_address":"ｶｼﾞﾔﾁｮｳ","pref":"兵庫県","city":"明石市","address":"鍛治屋町"},
{"zip_code":"6730012","kana_pref":"ﾋｮｳｺﾞｹﾝ","kana_city":"ｱｶｼｼ","kana_address":"ｶﾆｶﾞｻｶ","pref":"兵庫県","city":"明石市","address":"和坂"},
{"zip_code":"6730014","kana_pref":"ﾋｮｳｺﾞｹﾝ","kana_city":"ｱｶｼｼ","kana_address":"ｶﾜｻｷﾁｮｳ","pref":"兵庫県","city":"明石市","address":"川崎町"},
{"zip_code":"6730037","kana_pref":"ﾋｮｳｺﾞｹﾝ","kana_city":"ｱｶｼｼ","kana_address":"ｷｻｷ","pref":"兵庫県","city":"明石市","address":"貴崎"},
{"zip_code":"6730857","kana_pref":"ﾋｮｳｺﾞｹﾝ","kana_city":"ｱｶｼｼ","kana_address":"ｷﾀｱｻｷﾞﾘｵｶ","pref":"兵庫県","city":"明石市","address":"北朝霧丘"},
{"zip_code":"6730021","kana_pref":"ﾋｮｳｺﾞｹﾝ","kana_city":"ｱｶｼｼ","kana_address":"ｷﾀｵｳｼﾞﾁｮｳ","pref":"兵庫県","city":"明石市","address":"北王子町"},
{"zip_code":"6730005","kana_pref":"ﾋｮｳｺﾞｹﾝ","kana_city":"ｱｶｼｼ","kana_address":"ｺｸﾎﾞ","pref":"兵庫県","city":"明石市","address":"小久保"},
{"zip_code":"6730893","kana_pref":"ﾋｮｳｺﾞｹﾝ","kana_city":"ｱｶｼｼ","kana_address":"ｻﾞｲﾓｸﾁｮｳ","pref":"兵庫県","city":"明石市","address":"材木町"},
{"zip_code":"6730849","kana_pref":"ﾋｮｳｺﾞｹﾝ","kana_city":"ｱｶｼｼ","kana_address":"ｻｴﾝﾊﾞﾁｮｳ","pref":"兵庫県","city":"明石市","address":"茶園場町"},
{"zip_code":"6730885","kana_pref":"ﾋｮｳｺﾞｹﾝ","kana_city":"ｱｶｼｼ","kana_address":"ｻｸﾗﾁｮｳ","pref":"兵庫県","city":"明石市","address":"桜町"},
{"zip_code":"6730008","kana_pref":"ﾋｮｳｺﾞｹﾝ","kana_city":"ｱｶｼｼ","kana_address":"ｻﾜﾉ","pref":"兵庫県","city":"明石市","address":"沢野"},
{"zip_code":"6730027","kana_pref":"ﾋｮｳｺﾞｹﾝ","kana_city":"ｱｶｼｼ","kana_address":"ｼﾝﾒｲﾁｮｳ","pref":"兵庫県","city":"明石市","address":"新明町"},
{"zip_code":"6730028","kana_pref":"ﾋｮｳｺﾞｹﾝ","kana_city":"ｱｶｼｼ","kana_address":"ｽｽﾞﾘﾁｮｳ","pref":"兵庫県","city":"明石市","address":"硯町"},
{"zip_code":"6730897","kana_pref":"ﾋｮｳｺﾞｹﾝ","kana_city":"ｱｶｼｼ","kana_address":"ﾀｲｶﾝﾁｮｳ","pref":"兵庫県","city":"明石市","address":"大観町"},
{"zip_code":"6730845","kana_pref":"ﾋｮｳｺﾞｹﾝ","kana_city":"ｱｶｼｼ","kana_address":"ﾀｲﾃﾞﾗ","pref":"兵庫県","city":"明石市","address":"太寺"},
{"zip_code":"6730843","kana_pref":"ﾋｮｳｺﾞｹﾝ","kana_city":"ｱｶｼｼ","kana_address":"ﾀｲﾃﾞﾗｵｵﾉﾁｮｳ","pref":"兵庫県","city":"明石市","address":"太寺大野町"},
{"zip_code":"6730841","kana_pref":"ﾋｮｳｺﾞｹﾝ","kana_city":"ｱｶｼｼ","kana_address":"ﾀｲﾃﾞﾗﾃﾝﾉｳﾁｮｳ","pref":"兵庫県","city":"明石市","address":"太寺天王町"},
{"zip_code":"6730029","kana_pref":"ﾋｮｳｺﾞｹﾝ","kana_city":"ｱｶｼｼ","kana_address":"ﾀﾞｲﾄﾞｳﾁｮｳ","pref":"兵庫県","city":"明石市","address":"大道町"},
{"zip_code":"6730848","kana_pref":"ﾋｮｳｺﾞｹﾝ","kana_city":"ｱｶｼｼ","kana_address":"ﾀｶｼｮｳﾏﾁ","pref":"兵庫県","city":"明石市","address":"鷹匠町"},
{"zip_code":"6730032","kana_pref":"ﾋｮｳｺﾞｹﾝ","kana_city":"ｱｶｼｼ","kana_address":"ﾀﾃｲｼ","pref":"兵庫県","city":"明石市","address":"立石"},
{"zip_code":"6730025","kana_pref":"ﾋｮｳｺﾞｹﾝ","kana_city":"ｱｶｼｼ","kana_address":"ﾀﾏﾁ","pref":"兵庫県","city":"明石市","address":"田町"},
{"zip_code":"6730898","kana_pref":"ﾋｮｳｺﾞｹﾝ","kana_city":"ｱｶｼｼ","kana_address":"ﾀﾙﾔﾏﾁ","pref":"兵庫県","city":"明石市","address":"樽屋町"},
{"zip_code":"6730881","kana_pref":"ﾋｮｳｺﾞｹﾝ","kana_city":"ｱｶｼｼ","kana_address":"ﾃﾝﾓﾝﾁｮｳ","pref":"兵庫県","city":"明石市","address":"天文町"},
{"zip_code":"6730003","kana_pref":"ﾋｮｳｺﾞｹﾝ","kana_city":"ｱｶｼｼ","kana_address":"ﾄﾊﾞ","pref":"兵庫県","city":"明石市","address":"鳥羽"},
{"zip_code":"6730007","kana_pref":"ﾋｮｳｺﾞｹﾝ","kana_city":"ｱｶｼｼ","kana_address":"ﾄﾊﾞﾆｼﾄﾊﾞ","pref":"兵庫県","city":"明石市","address":"鳥羽西鳥羽"},
{"zip_code":"6730006","kana_pref":"ﾋｮｳｺﾞｹﾝ","kana_city":"ｱｶｼｼ","kana_address":"ﾄﾊﾞﾆﾎﾝﾏﾂ","pref":"兵庫県","city":"明石市","address":"鳥羽二本松"},
{"zip_code":"6730004","kana_pref":"ﾋｮｳｺﾞｹﾝ","kana_city":"ｱｶｼｼ","kana_address":"ﾄﾊﾞﾍﾞﾝｻﾞｲﾃﾝ","pref":"兵庫県","city":"明石市","address":"鳥羽弁財天"},
{"zip_code":"6730855","kana_pref":"ﾋｮｳｺﾞｹﾝ","kana_city":"ｱｶｼｼ","kana_address":"ﾅｶｱｻｷﾞﾘｵｶ","pref":"兵庫県","city":"明石市","address":"中朝霧丘"},
{"zip_code":"6730883","kana_pref":"ﾋｮｳｺﾞｹﾝ","kana_city":"ｱｶｼｼ","kana_address":"ﾅｶｻｷ","pref":"兵庫県","city":"明石市","address":"中崎"},
{"zip_code":"6730009","kana_pref":"ﾋｮｳｺﾞｹﾝ","kana_city":"ｱｶｼｼ","kana_address":"ﾆｼｱｶｼﾋｶﾞｼﾏﾁ","pref":"兵庫県","city":"明石市","address":"西明石東町"},
{"zip_code":"6730049","kana_pref":"ﾋｮｳｺﾞｹﾝ","kana_city":"ｱｶｼｼ","kana_address":"ﾆｼｱｶｼﾆｼﾏﾁ","pref":"兵庫県","city":"明石市","address":"西明石西町"},
{"zip_code":"6730041","kana_pref":"ﾋｮｳｺﾞｹﾝ","kana_city":"ｱｶｼｼ","kana_address":"ﾆｼｱｶｼﾐﾅﾐﾁｮｳ","pref":"兵庫県","city":"明石市","address":"西明石南町"},
{"zip_code":"6730018","kana_pref":"ﾋｮｳｺﾞｹﾝ","kana_city":"ｱｶｼｼ","kana_address":"ﾆｼｱｶｼｷﾀﾏﾁ","pref":"兵庫県","city":"明石市","address":"西明石北町"},
{"zip_code":"6730011","kana_pref":"ﾋｮｳｺﾞｹﾝ","kana_city":"ｱｶｼｼ","kana_address":"ﾆｼｱｶｼﾁｮｳ","pref":"兵庫県","city":"明石市","address":"西明石町"},
{"zip_code":"6730856","kana_pref":"ﾋｮｳｺﾞｹﾝ","kana_city":"ｱｶｼｼ","kana_address":"ﾆｼｱｻｷﾞﾘｵｶ","pref":"兵庫県","city":"明石市","address":"西朝霧丘"},
{"zip_code":"6730023","kana_pref":"ﾋｮｳｺﾞｹﾝ","kana_city":"ｱｶｼｼ","kana_address":"ﾆｼｼﾝﾏﾁ","pref":"兵庫県","city":"明石市","address":"西新町"},
{"zip_code":"6730842","kana_pref":"ﾋｮｳｺﾞｹﾝ","kana_city":"ｱｶｼｼ","kana_address":"ﾆﾔﾏﾁｮｳ","pref":"兵庫県","city":"明石市","address":"荷山町"},
{"zip_code":"6730017","kana_pref":"ﾋｮｳｺﾞｹﾝ","kana_city":"ｱｶｼｼ","kana_address":"ﾉﾉｳｴ","pref":"兵庫県","city":"明石市","address":"野々上"},
{"zip_code":"6730015","kana_pref":"ﾋｮｳｺﾞｹﾝ","kana_city":"ｱｶｼｼ","kana_address":"ﾊﾅｿﾞﾉﾁｮｳ","pref":"兵庫県","city":"明石市","address":"花園町"},
{"zip_code":"6730034","kana_pref":"ﾋｮｳｺﾞｹﾝ","kana_city":"ｱｶｼｼ","kana_address":"ﾊﾔｼ","pref":"兵庫県","city":"明石市","address":"林"},
{"zip_code":"6730033","kana_pref":"ﾋｮｳｺﾞｹﾝ","kana_city":"ｱｶｼｼ","kana_address":"ﾊﾔｼｻｷﾁｮｳ","pref":"兵庫県","city":"明石市","address":"林崎町"},
{"zip_code":"6730854","kana_pref":"ﾋｮｳｺﾞｹﾝ","kana_city":"ｱｶｼｼ","kana_address":"ﾋｶﾞｼｱｻｷﾞﾘｵｶ","pref":"兵庫県","city":"明石市","address":"東朝霧丘"},
{"zip_code":"6730886","kana_pref":"ﾋｮｳｺﾞｹﾝ","kana_city":"ｱｶｼｼ","kana_address":"ﾋｶﾞｼﾅｶﾉﾁｮｳ","pref":"兵庫県","city":"明石市","address":"東仲ノ町"},
{"zip_code":"6730844","kana_pref":"ﾋｮｳｺﾞｹﾝ","kana_city":"ｱｶｼｼ","kana_address":"ﾋｶﾞｼﾉﾁｮｳ","pref":"兵庫県","city":"明石市","address":"東野町"},
{"zip_code":"6730876","kana_pref":"ﾋｮｳｺﾞｹﾝ","kana_city":"ｱｶｼｼ","kana_address":"ﾋｶﾞｼﾋﾄﾏﾙﾁｮｳ","pref":"兵庫県","city":"明石市","address":"東人丸町"},
{"zip_code":"6730042","kana_pref":"ﾋｮｳｺﾞｹﾝ","kana_city":"ｱｶｼｼ","kana_address":"ﾋｶﾞｼﾌｼﾞｴ","pref":"兵庫県","city":"明石市","address":"東藤江"},
{"zip_code":"6730868","kana_pref":"ﾋｮｳｺﾞｹﾝ","kana_city":"ｱｶｼｼ","kana_address":"ﾋｶﾞｼﾔﾏﾁｮｳ","pref":"兵庫県","city":"明石市","address":"東山町"},
{"zip_code":"6730877","kana_pref":"ﾋｮｳｺﾞｹﾝ","kana_city":"ｱｶｼｼ","kana_address":"ﾋﾄﾏﾙﾁｮｳ","pref":"兵庫県","city":"明石市","address":"人丸町"},
{"zip_code":"6730896","kana_pref":"ﾋｮｳｺﾞｹﾝ","kana_city":"ｱｶｼｼ","kana_address":"ﾋﾌﾐﾁｮｳ","pref":"兵庫県","city":"明石市","address":"日富美町"},
{"zip_code":"6730044","kana_pref":"ﾋｮｳｺﾞｹﾝ","kana_city":"ｱｶｼｼ","kana_address":"ﾌｼﾞｴ","pref":"兵庫県","city":"明石市","address":"藤江"},
{"zip_code":"6730043","kana_pref":"ﾋｮｳｺﾞｹﾝ","kana_city":"ｱｶｼｼ","kana_address":"ﾌｼﾞｴ","pref":"兵庫県","city":"明石市","address":"藤江"},
{"zip_code":"6730047","kana_pref":"ﾋｮｳｺﾞｹﾝ","kana_city":"ｱｶｼｼ","kana_address":"ﾌｼﾞｴ","pref":"兵庫県","city":"明石市","address":"藤江"},
{"zip_code":"6730048","kana_pref":"ﾋｮｳｺﾞｹﾝ","kana_city":"ｱｶｼｼ","kana_address":"ﾌｼﾞｴ","pref":"兵庫県","city":"明石市","address":"藤江"},
{"zip_code":"6730045","kana_pref":"ﾋｮｳｺﾞｹﾝ","kana_city":"ｱｶｼｼ","kana_address":"ﾌｼﾞｴ","pref":"兵庫県","city":"明石市","address":"藤江"},
{"zip_code":"6730046","kana_pref":"ﾋｮｳｺﾞｹﾝ","kana_city":"ｱｶｼｼ","kana_address":"ﾌｼﾞｶﾞｵｶ","pref":"兵庫県","city":"明石市","address":"藤が丘"},
{"zip_code":"6730026","kana_pref":"ﾋｮｳｺﾞｹﾝ","kana_city":"ｱｶｼｼ","kana_address":"ﾌﾅｹﾞﾁｮｳ","pref":"兵庫県","city":"明石市","address":"船上町"},
{"zip_code":"6730038","kana_pref":"ﾋｮｳｺﾞｹﾝ","kana_city":"ｱｶｼｼ","kana_address":"ﾍﾞｯｼｮﾁｮｳ","pref":"兵庫県","city":"明石市","address":"別所町"},
{"zip_code":"6730892","kana_pref":"ﾋｮｳｺﾞｹﾝ","kana_city":"ｱｶｼｼ","kana_address":"ﾎﾝﾏﾁ","pref":"兵庫県","city":"明石市","address":"本町"},
{"zip_code":"6730036","kana_pref":"ﾋｮｳｺﾞｹﾝ","kana_city":"ｱｶｼｼ","kana_address":"ﾏﾂｴ","pref":"兵庫県","city":"明石市","address":"松江"},
{"zip_code":"6730862","kana_pref":"ﾋｮｳｺﾞｹﾝ","kana_city":"ｱｶｼｼ","kana_address":"ﾏﾂｶﾞｵｶ","pref":"兵庫県","city":"明石市","address":"松が丘"},
{"zip_code":"6730861","kana_pref":"ﾋｮｳｺﾞｹﾝ","kana_city":"ｱｶｼｼ","kana_address":"ﾏﾂｶﾞｵｶｷﾀﾏﾁ","pref":"兵庫県","city":"明石市","address":"松が丘北町"},
{"zip_code":"6730016","kana_pref":"ﾋｮｳｺﾞｹﾝ","kana_city":"ｱｶｼｼ","kana_address":"ﾏﾂﾉｳﾁ","pref":"兵庫県","city":"明石市","address":"松の内"},
{"zip_code":"6730895","kana_pref":"ﾋｮｳｺﾞｹﾝ","kana_city":"ｱｶｼｼ","kana_address":"ﾐｻｷﾁｮｳ","pref":"兵庫県","city":"明石市","address":"岬町"},
{"zip_code":"6730894","kana_pref":"ﾋｮｳｺﾞｹﾝ","kana_city":"ｱｶｼｼ","kana_address":"ﾐﾅﾄﾁｮｳ","pref":"兵庫県","city":"明石市","address":"港町"},
{"zip_code":"6730024","kana_pref":"ﾋｮｳｺﾞｹﾝ","kana_city":"ｱｶｼｼ","kana_address":"ﾐﾅﾐｵｳｼﾞﾁｮｳ","pref":"兵庫県","city":"明石市","address":"南王子町"},
{"zip_code":"6730035","kana_pref":"ﾋｮｳｺﾞｹﾝ","kana_city":"ｱｶｼｼ","kana_address":"ﾐﾅﾐｷｻｷﾁｮｳ","pref":"兵庫県","city":"明石市","address":"南貴崎町"},
{"zip_code":"6730031","kana_pref":"ﾋｮｳｺﾞｹﾝ","kana_city":"ｱｶｼｼ","kana_address":"ﾐﾔﾉｳｴ","pref":"兵庫県","city":"明石市","address":"宮の上"},
{"zip_code":"6730001","kana_pref":"ﾋｮｳｺﾞｹﾝ","kana_city":"ｱｶｼｼ","kana_address":"ﾒｲﾅﾝﾁｮｳ","pref":"兵庫県","city":"明石市","address":"明南町"},
{"zip_code":"6730878","kana_pref":"ﾋｮｳｺﾞｹﾝ","kana_city":"ｱｶｼｼ","kana_address":"ﾔﾏｼﾀﾁｮｳ","pref":"兵庫県","city":"明石市","address":"山下町"},
{"zip_code":"6730012","kana_pref":"ﾋｮｳｺﾞｹﾝ","kana_city":"ｱｶｼｼ","kana_address":"ﾜｻｶ","pref":"兵庫県","city":"明石市","address":"和坂"},
{"zip_code":"6730013","kana_pref":"ﾋｮｳｺﾞｹﾝ","kana_city":"ｱｶｼｼ","kana_address":"ﾜｻｶｲﾅﾘﾁｮｳ","pref":"兵庫県","city":"明石市","address":"和坂稲荷町"},
{"zip_code":"6730400","kana_pref":"ﾋｮｳｺﾞｹﾝ","kana_city":"ﾐｷｼ","kana_address":"","pref":"兵庫県","city":"三木市","address":""},
{"zip_code":"6730401","kana_pref":"ﾋｮｳｺﾞｹﾝ","kana_city":"ﾐｷｼ","kana_address":"ｱﾄﾍﾞ","pref":"兵庫県","city":"三木市","address":"跡部"},
{"zip_code":"6730412","kana_pref":"ﾋｮｳｺﾞｹﾝ","kana_city":"ﾐｷｼ","kana_address":"ｲﾜﾐﾔ","pref":"兵庫県","city":"三木市","address":"岩宮"},
{"zip_code":"6730432","kana_pref":"ﾋｮｳｺﾞｹﾝ","kana_city":"ﾐｷｼ","kana_address":"ｳｴﾉﾏﾙﾁｮｳ","pref":"兵庫県","city":"三木市","address":"上の丸町"},
{"zip_code":"6730413","kana_pref":"ﾋｮｳｺﾞｹﾝ","kana_city":"ﾐｷｼ","kana_address":"ｵｵﾂｶ","pref":"兵庫県","city":"三木市","address":"大塚"},
{"zip_code":"6730404","kana_pref":"ﾋｮｳｺﾞｹﾝ","kana_city":"ﾐｷｼ","kana_address":"ｵｵﾑﾗ","pref":"兵庫県","city":"三木市","address":"大村"},
{"zip_code":"6730402","kana_pref":"ﾋｮｳｺﾞｹﾝ","kana_city":"ﾐｷｼ","kana_address":"ｶｻ","pref":"兵庫県","city":"三木市","address":"加佐"},
{"zip_code":"6730723","kana_pref":"ﾋｮｳｺﾞｹﾝ","kana_city":"ﾐｷｼ","kana_address":"ｶｻｿｳｶﾉ","pref":"兵庫県","city":"三木市","address":"加佐草荷野"},
{"zip_code":"6730425","kana_pref":"ﾋｮｳｺﾞｹﾝ","kana_city":"ﾐｷｼ","kana_address":"ｷﾐｶﾞﾐﾈﾁｮｳ","pref":"兵庫県","city":"三木市","address":"君が峰町"},
{"zip_code":"6730755","kana_pref":"ﾋｮｳｺﾞｹﾝ","kana_city":"ﾐｷｼ","kana_address":"ｸﾁﾖｶﾜﾁｮｳｵｵｼﾏ","pref":"兵庫県","city":"三木市","address":"口吉川町大島"},
{"zip_code":"6730752","kana_pref":"ﾋｮｳｺﾞｹﾝ","kana_city":"ﾐｷｼ","kana_address":"ｸﾁﾖｶﾜﾁｮｳｷﾂｼｮｳｼﾞ","pref":"兵庫県","city":"三木市","address":"口吉川町吉祥寺"},
{"zip_code":"6730743","kana_pref":"ﾋｮｳｺﾞｹﾝ","kana_city":"ﾐｷｼ","kana_address":"ｸﾁﾖｶﾜﾁｮｳｸﾇｷﾞﾊﾗ","pref":"兵庫県","city":"三木市","address":"口吉川町桾原"},
{"zip_code":"6730757","kana_pref":"ﾋｮｳｺﾞｹﾝ","kana_city":"ﾐｷｼ","kana_address":"ｸﾁﾖｶﾜﾁｮｳｻｻﾊﾗ","pref":"兵庫県","city":"三木市","address":"口吉川町笹原"},
{"zip_code":"6730751","kana_pref":"ﾋｮｳｺﾞｹﾝ","kana_city":"ﾐｷｼ","kana_address":"ｸﾁﾖｶﾜﾁｮｳｻﾄﾜｷ","pref":"兵庫県","city":"三木市","address":"口吉川町里脇"},
{"zip_code":"6730754","kana_pref":"ﾋｮｳｺﾞｹﾝ","kana_city":"ﾐｷｼ","kana_address":"ｸﾁﾖｶﾜﾁｮｳｾﾞﾝｼｮｳｼﾞ","pref":"兵庫県","city":"三木市","address":"口吉川町善祥寺"},
{"zip_code":"6730741","kana_pref":"ﾋｮｳｺﾞｹﾝ","kana_city":"ﾐｷｼ","kana_address":"ｸﾁﾖｶﾜﾁｮｳﾄﾉﾊﾀ","pref":"兵庫県","city":"三木市","address":"口吉川町殿畑"},
{"zip_code":"6730735","kana_pref":"ﾋｮｳｺﾞｹﾝ","kana_city":"ﾐｷｼ","kana_address":"ｸﾁﾖｶﾜﾁｮｳﾆｼﾅｶ","pref":"兵庫県","city":"三木市","address":"口吉川町西中"},
{"zip_code":"6730732","kana_pref":"ﾋｮｳｺﾞｹﾝ","kana_city":"ﾐｷｼ","kana_address":"ｸﾁﾖｶﾜﾁｮｳﾊﾞﾊﾞ","pref":"兵庫県","city":"三木市","address":"口吉川町馬場"},
{"zip_code":"6730731","kana_pref":"ﾋｮｳｺﾞｹﾝ","kana_city":"ﾐｷｼ","kana_address":"ｸﾁﾖｶﾜﾁｮｳﾋｶﾞｼﾅｶ","pref":"兵庫県","city":"三木市","address":"口吉川町東中"},
{"zip_code":"6730758","kana_pref":"ﾋｮｳｺﾞｹﾝ","kana_city":"ﾐｷｼ","kana_address":"ｸﾁﾖｶﾜﾁｮｳﾋｻﾂｸﾞ","pref":"兵庫県","city":"三木市","address":"口吉川町久次"},
{"zip_code":"6730742","kana_pref":"ﾋｮｳｺﾞｹﾝ","kana_city":"ﾐｷｼ","kana_address":"ｸﾁﾖｶﾜﾁｮｳﾎｷ","pref":"兵庫県","city":"三木市","address":"口吉川町保木"},
{"zip_code":"6730753","kana_pref":"ﾋｮｳｺﾞｹﾝ","kana_city":"ﾐｷｼ","kana_address":"ｸﾁﾖｶﾜﾁｮｳﾏｷ","pref":"兵庫県","city":"三木市","address":"口吉川町槇"},
{"zip_code":"6730756","kana_pref":"ﾋｮｳｺﾞｹﾝ","kana_city":"ﾐｷｼ","kana_address":"ｸﾁﾖｶﾜﾁｮｳﾐﾅﾐﾊﾞﾀ","pref":"兵庫県","city":"三木市","address":"口吉川町南畑"},
{"zip_code":"6730736","kana_pref":"ﾋｮｳｺﾞｹﾝ","kana_city":"ﾐｷｼ","kana_address":"ｸﾁﾖｶﾜﾁｮｳﾓﾓｻﾞｶ","pref":"兵庫県","city":"三木市","address":"口吉川町桃坂"},
{"zip_code":"6730734","kana_pref":"ﾋｮｳｺﾞｹﾝ","kana_city":"ﾐｷｼ","kana_address":"ｸﾁﾖｶﾜﾁｮｳﾚﾝｹﾞｼﾞ","pref":"兵庫県","city":"三木市","address":"口吉川町蓮花寺"},
{"zip_code":"6730733","kana_pref":"ﾋｮｳｺﾞｹﾝ","kana_city":"ﾐｷｼ","kana_address":"ｸﾁﾖｶﾜﾁｮｳﾋｶﾞｼ","pref":"兵庫県","city":"三木市","address":"口吉川町東"},
{"zip_code":"6730411","kana_pref":"ﾋｮｳｺﾞｹﾝ","kana_city":"ﾐｷｼ","kana_address":"ｸﾙﾐ","pref":"兵庫県","city":"三木市","address":"久留美"},
{"zip_code":"6730436","kana_pref":"ﾋｮｳｺﾞｹﾝ","kana_city":"ﾐｷｼ","kana_address":"ｻﾂｷﾀﾞｲ","pref":"兵庫県","city":"三木市","address":"さつき台"},
{"zip_code":"6730521","kana_pref":"ﾋｮｳｺﾞｹﾝ","kana_city":"ﾐｷｼ","kana_address":"ｼｼﾞﾐﾁｮｳｱｵﾔﾏ","pref":"兵庫県","city":"三木市","address":"志染町青山"},
{"zip_code":"6730502","kana_pref":"ﾋｮｳｺﾞｹﾝ","kana_city":"ﾐｷｼ","kana_address":"ｼｼﾞﾐﾁｮｳｱﾌﾞﾀ","pref":"兵庫県","city":"三木市","address":"志染町安福田"},
{"zip_code":"6730512","kana_pref":"ﾋｮｳｺﾞｹﾝ","kana_city":"ﾐｷｼ","kana_address":"ｼｼﾞﾐﾁｮｳｲﾉｳｴ","pref":"兵庫県","city":"三木市","address":"志染町井上"},
{"zip_code":"6730503","kana_pref":"ﾋｮｳｺﾞｹﾝ","kana_city":"ﾐｷｼ","kana_address":"ｼｼﾞﾐﾁｮｳｲﾜﾔ","pref":"兵庫県","city":"三木市","address":"志染町窟屋"},
{"zip_code":"6730513","kana_pref":"ﾋｮｳｺﾞｹﾝ","kana_city":"ﾐｷｼ","kana_address":"ｼｼﾞﾐﾁｮｳｵｵﾀﾆ","pref":"兵庫県","city":"三木市","address":"志染町大谷"},
{"zip_code":"6730504","kana_pref":"ﾋｮｳｺﾞｹﾝ","kana_city":"ﾐｷｼ","kana_address":"ｼｼﾞﾐﾁｮｳｺｳﾅﾝｼﾞ","pref":"兵庫県","city":"三木市","address":"志染町高男寺"},
{"zip_code":"6730506","kana_pref":"ﾋｮｳｺﾞｹﾝ","kana_city":"ﾐｷｼ","kana_address":"ｼｼﾞﾐﾁｮｳｼｺﾞｳﾀﾞﾆ","pref":"兵庫県","city":"三木市","address":"志染町四合谷"},
{"zip_code":"6730511","kana_pref":"ﾋｮｳｺﾞｹﾝ","kana_city":"ﾐｷｼ","kana_address":"ｼｼﾞﾐﾁｮｳｼｼﾞﾐﾅｶ","pref":"兵庫県","city":"三木市","address":"志染町志染中"},
{"zip_code":"6730514","kana_pref":"ﾋｮｳｺﾞｹﾝ","kana_city":"ﾐｷｼ","kana_address":"ｼｼﾞﾐﾁｮｳﾄﾀﾞ","pref":"兵庫県","city":"三木市","address":"志染町戸田"},
{"zip_code":"6730552","kana_pref":"ﾋｮｳｺﾞｹﾝ","kana_city":"ﾐｷｼ","kana_address":"ｼｼﾞﾐﾁｮｳﾅｶｼﾞﾕｳｶﾞｵｶ","pref":"兵庫県","city":"三木市","address":"志染町中自由が丘"},
{"zip_code":"6730553","kana_pref":"ﾋｮｳｺﾞｹﾝ","kana_city":"ﾐｷｼ","kana_address":"ｼｼﾞﾐﾁｮｳﾋｶﾞｼｼﾞﾕｳｶﾞｵｶ","pref":"兵庫県","city":"三木市","address":"志染町東自由が丘"},
{"zip_code":"6730551","kana_pref":"ﾋｮｳｺﾞｹﾝ","kana_city":"ﾐｷｼ","kana_address":"ｼｼﾞﾐﾁｮｳﾆｼｼﾞﾕｳｶﾞｵｶ","pref":"兵庫県","city":"三木市","address":"志染町西自由が丘"},
{"zip_code":"6730541","kana_pref":"ﾋｮｳｺﾞｹﾝ","kana_city":"ﾐｷｼ","kana_address":"ｼｼﾞﾐﾁｮｳﾋﾛﾉ","pref":"兵庫県","city":"三木市","address":"志染町広野"},
{"zip_code":"6730505","kana_pref":"ﾋｮｳｺﾞｹﾝ","kana_city":"ﾐｷｼ","kana_address":"ｼｼﾞﾐﾁｮｳﾎｿﾒ","pref":"兵庫県","city":"三木市","address":"志染町細目"},
{"zip_code":"6730516","kana_pref":"ﾋｮｳｺﾞｹﾝ","kana_city":"ﾐｷｼ","kana_address":"ｼｼﾞﾐﾁｮｳﾐｻｶ","pref":"兵庫県","city":"三木市","address":"志染町御坂"},
{"zip_code":"6730515","kana_pref":"ﾋｮｳｺﾞｹﾝ","kana_city":"ﾐｷｼ","kana_address":"ｼｼﾞﾐﾁｮｳﾐﾂﾀﾞ","pref":"兵庫県","city":"三木市","address":"志染町三津田"},
{"zip_code":"6730501","kana_pref":"ﾋｮｳｺﾞｹﾝ","kana_city":"ﾐｷｼ","kana_address":"ｼｼﾞﾐﾁｮｳﾖｼﾀﾞ","pref":"兵庫県","city":"三木市","address":"志染町吉田"},
{"zip_code":"6730414","kana_pref":"ﾋｮｳｺﾞｹﾝ","kana_city":"ﾐｷｼ","kana_address":"ｼﾊﾞﾏﾁ","pref":"兵庫県","city":"三木市","address":"芝町"},
{"zip_code":"6730424","kana_pref":"ﾋｮｳｺﾞｹﾝ","kana_city":"ﾐｷｼ","kana_address":"ｼﾞﾕｳｶﾞｵｶﾎﾝﾏﾁ","pref":"兵庫県","city":"三木市","address":"自由が丘本町"},
{"zip_code":"6730423","kana_pref":"ﾋｮｳｺﾞｹﾝ","kana_city":"ﾐｷｼ","kana_address":"ｼｭｸﾊﾗ","pref":"兵庫県","city":"三木市","address":"宿原"},
{"zip_code":"6730403","kana_pref":"ﾋｮｳｺﾞｹﾝ","kana_city":"ﾐｷｼ","kana_address":"ｽｴﾋﾛ","pref":"兵庫県","city":"三木市","address":"末広"},
{"zip_code":"6730456","kana_pref":"ﾋｮｳｺﾞｹﾝ","kana_city":"ﾐｷｼ","kana_address":"ﾄﾘﾏﾁ","pref":"兵庫県","city":"三木市","address":"鳥町"},
{"zip_code":"6730421","kana_pref":"ﾋｮｳｺﾞｹﾝ","kana_city":"ﾐｷｼ","kana_address":"ﾋﾗｲ","pref":"兵庫県","city":"三木市","address":"平井"},
{"zip_code":"6730405","kana_pref":"ﾋｮｳｺﾞｹﾝ","kana_city":"ﾐｷｼ","kana_address":"ﾋﾗﾀ","pref":"兵庫県","city":"三木市","address":"平田"},
{"zip_code":"6730433","kana_pref":"ﾋｮｳｺﾞｹﾝ","kana_city":"ﾐｷｼ","kana_address":"ﾌｸｲ","pref":"兵庫県","city":"三木市","address":"福井"},
{"zip_code":"6730415","kana_pref":"ﾋｮｳｺﾞｹﾝ","kana_city":"ﾐｷｼ","kana_address":"ﾌﾅｲ","pref":"兵庫県","city":"三木市","address":"府内"},
{"zip_code":"6730441","kana_pref":"ﾋｮｳｺﾞｹﾝ","kana_city":"ﾐｷｼ","kana_address":"ﾍﾞｯｼｮﾁｮｳｱｻﾋｶﾞｵｶ","pref":"兵庫県","city":"三木市","address":"別所町朝日ケ丘"},
{"zip_code":"6730452","kana_pref":"ﾋｮｳｺﾞｹﾝ","kana_city":"ﾐｷｼ","kana_address":"ﾍﾞｯｼｮﾁｮｳｲｼﾉ","pref":"兵庫県","city":"三木市","address":"別所町石野"},
{"zip_code":"6730442","kana_pref":"ﾋｮｳｺﾞｹﾝ","kana_city":"ﾐｷｼ","kana_address":"ﾍﾞｯｼｮﾁｮｳｵｷﾊﾙ","pref":"兵庫県","city":"三木市","address":"別所町興治"},
{"zip_code":"6730434","kana_pref":"ﾋｮｳｺﾞｹﾝ","kana_city":"ﾐｷｼ","kana_address":"ﾍﾞｯｼｮﾁｮｳｺﾊﾞﾔｼ","pref":"兵庫県","city":"三木市","address":"別所町小林"},
{"zip_code":"6730451","kana_pref":"ﾋｮｳｺﾞｹﾝ","kana_city":"ﾐｷｼ","kana_address":"ﾍﾞｯｼｮﾁｮｳｺﾝﾄﾞｳ","pref":"兵庫県","city":"三木市","address":"別所町近藤"},
{"zip_code":"6730453","kana_pref":"ﾋｮｳｺﾞｹﾝ","kana_city":"ﾐｷｼ","kana_address":"ﾍﾞｯｼｮﾁｮｳｼﾓｲｼﾉ","pref":"兵庫県","city":"三木市","address":"別所町下石野"},
{"zip_code":"6730454","kana_pref":"ﾋｮｳｺﾞｹﾝ","kana_city":"ﾐｷｼ","kana_address":"ﾍﾞｯｼｮﾁｮｳｼｮｳﾎﾞｳｼﾞ","pref":"兵庫県","city":"三木市","address":"別所町正法寺"},
{"zip_code":"6730435","kana_pref":"ﾋｮｳｺﾞｹﾝ","kana_city":"ﾐｷｼ","kana_address":"ﾍﾞｯｼｮﾁｮｳﾀｶｷﾞ","pref":"兵庫県","city":"三木市","address":"別所町高木"},
{"zip_code":"6730443","kana_pref":"ﾋｮｳｺﾞｹﾝ","kana_city":"ﾐｷｼ","kana_address":"ﾍﾞｯｼｮﾁｮｳﾄﾓｴ","pref":"兵庫県","city":"三木市","address":"別所町巴"},
{"zip_code":"6730446","kana_pref":"ﾋｮｳｺﾞｹﾝ","kana_city":"ﾐｷｼ","kana_address":"ﾍﾞｯｼｮﾁｮｳﾊﾅｼﾞﾘ","pref":"兵庫県","city":"三木市","address":"別所町花尻"},
{"zip_code":"6730444","kana_pref":"ﾋｮｳｺﾞｹﾝ","kana_city":"ﾐｷｼ","kana_address":"ﾍﾞｯｼｮﾁｮｳﾋｶﾞｼﾎｳﾀﾞ","pref":"兵庫県","city":"三木市","address":"別所町東這田"},
{"zip_code":"6730445","kana_pref":"ﾋｮｳｺﾞｹﾝ","kana_city":"ﾐｷｼ","kana_address":"ﾍﾞｯｼｮﾁｮｳﾆｼﾎｳﾀﾞ","pref":"兵庫県","city":"三木市","address":"別所町西這田"},
{"zip_code":"6730455","kana_pref":"ﾋｮｳｺﾞｹﾝ","kana_city":"ﾐｷｼ","kana_address":"ﾍﾞｯｼｮﾁｮｳﾜﾀﾞ","pref":"兵庫県","city":"三木市","address":"別所町和田"},
{"zip_code":"6730711","kana_pref":"ﾋｮｳｺﾞｹﾝ","kana_city":"ﾐｷｼ","kana_address":"ﾎｿｶﾜﾁｮｳｶﾅﾔ","pref":"兵庫県","city":"三木市","address":"細川町金屋"},
{"zip_code":"6730721","kana_pref":"ﾋｮｳｺﾞｹﾝ","kana_city":"ﾐｷｼ","kana_address":"ﾎｿｶﾜﾁｮｳﾀｶｼﾉ","pref":"兵庫県","city":"三木市","address":"細川町高篠"},
{"zip_code":"6730724","kana_pref":"ﾋｮｳｺﾞｹﾝ","kana_city":"ﾐｷｼ","kana_address":"ﾎｿｶﾜﾁｮｳﾀｶﾊﾀ","pref":"兵庫県","city":"三木市","address":"細川町高畑"},
{"zip_code":"6730703","kana_pref":"ﾋｮｳｺﾞｹﾝ","kana_city":"ﾐｷｼ","kana_address":"ﾎｿｶﾜﾁｮｳﾀﾙﾎ","pref":"兵庫県","city":"三木市","address":"細川町垂穂"},
{"zip_code":"6730713","kana_pref":"ﾋｮｳｺﾞｹﾝ","kana_city":"ﾐｷｼ","kana_address":"ﾎｿｶﾜﾁｮｳﾄﾖﾁ","pref":"兵庫県","city":"三木市","address":"細川町豊地"},
{"zip_code":"6730702","kana_pref":"ﾋｮｳｺﾞｹﾝ","kana_city":"ﾐｷｼ","kana_address":"ﾎｿｶﾜﾁｮｳﾅｶｻﾞﾄ","pref":"兵庫県","city":"三木市","address":"細川町中里"},
{"zip_code":"6730714","kana_pref":"ﾋｮｳｺﾞｹﾝ","kana_city":"ﾐｷｼ","kana_address":"ﾎｿｶﾜﾁｮｳﾎｿｶﾜﾅｶ","pref":"兵庫県","city":"三木市","address":"細川町細川中"},
{"zip_code":"6730704","kana_pref":"ﾋｮｳｺﾞｹﾝ","kana_city":"ﾐｷｼ","kana_address":"ﾎｿｶﾜﾁｮｳﾏｽﾀﾞ","pref":"兵庫県","city":"三木市","address":"細川町増田"},
{"zip_code":"6730701","kana_pref":"ﾋｮｳｺﾞｹﾝ","kana_city":"ﾐｷｼ","kana_address":"ﾎｿｶﾜﾁｮｳﾐｽﾞﾎ","pref":"兵庫県","city":"三木市","address":"細川町瑞穂"},
{"zip_code":"6730712","kana_pref":"ﾋｮｳｺﾞｹﾝ","kana_city":"ﾐｷｼ","kana_address":"ﾎｿｶﾜﾁｮｳﾓﾓﾂﾞ","pref":"兵庫県","city":"三木市","address":"細川町桃津"},
{"zip_code":"6730722","kana_pref":"ﾋｮｳｺﾞｹﾝ","kana_city":"ﾐｷｼ","kana_address":"ﾎｿｶﾜﾁｮｳﾜｷｶﾞﾜ","pref":"兵庫県","city":"三木市","address":"細川町脇川"},
{"zip_code":"6730715","kana_pref":"ﾋｮｳｺﾞｹﾝ","kana_city":"ﾐｷｼ","kana_address":"ﾎｿｶﾜﾁｮｳﾆｼ","pref":"兵庫県","city":"三木市","address":"細川町西"},
{"zip_code":"6730431","kana_pref":"ﾋｮｳｺﾞｹﾝ","kana_city":"ﾐｷｼ","kana_address":"ﾎﾝﾏﾁ","pref":"兵庫県","city":"三木市","address":"本町"},
{"zip_code":"6730532","kana_pref":"ﾋｮｳｺﾞｹﾝ","kana_city":"ﾐｷｼ","kana_address":"ﾐﾄﾞﾘｶﾞｵｶﾁｮｳﾅｶ","pref":"兵庫県","city":"三木市","address":"緑が丘町中"},
{"zip_code":"6730534","kana_pref":"ﾋｮｳｺﾞｹﾝ","kana_city":"ﾐｷｼ","kana_address":"ﾐﾄﾞﾘｶﾞｵｶﾁｮｳﾎﾝﾏﾁ","pref":"兵庫県","city":"三木市","address":"緑が丘町本町"},
{"zip_code":"6730533","kana_pref":"ﾋｮｳｺﾞｹﾝ","kana_city":"ﾐｷｼ","kana_address":"ﾐﾄﾞﾘｶﾞｵｶﾁｮｳﾋｶﾞｼ","pref":"兵庫県","city":"三木市","address":"緑が丘町東"},
{"zip_code":"6730531","kana_pref":"ﾋｮｳｺﾞｹﾝ","kana_city":"ﾐｷｼ","kana_address":"ﾐﾄﾞﾘｶﾞｵｶﾁｮｳﾆｼ","pref":"兵庫県","city":"三木市","address":"緑が丘町西"},
{"zip_code":"6731107","kana_pref":"ﾋｮｳｺﾞｹﾝ","kana_city":"ﾐｷｼ","kana_address":"ﾖｶﾜﾁｮｳｱﾘﾔｽ","pref":"兵庫県","city":"三木市","address":"吉川町有安"},
{"zip_code":"6731235","kana_pref":"ﾋｮｳｺﾞｹﾝ","kana_city":"ﾐｷｼ","kana_address":"ﾖｶﾜﾁｮｳｲﾁﾉｾ","pref":"兵庫県","city":"三木市","address":"吉川町市野瀬"},
{"zip_code":"6731231","kana_pref":"ﾋｮｳｺﾞｹﾝ","kana_city":"ﾐｷｼ","kana_address":"ﾖｶﾜﾁｮｳｲﾅﾀﾞ","pref":"兵庫県","city":"三木市","address":"吉川町稲田"},
{"zip_code":"6731126","kana_pref":"ﾋｮｳｺﾞｹﾝ","kana_city":"ﾐｷｼ","kana_address":"ﾖｶﾜﾁｮｳｳｴﾏﾂ","pref":"兵庫県","city":"三木市","address":"吉川町上松"},
{"zip_code":"6731115","kana_pref":"ﾋｮｳｺﾞｹﾝ","kana_city":"ﾐｷｼ","kana_address":"ﾖｶﾜﾁｮｳｵｵｿ","pref":"兵庫県","city":"三木市","address":"吉川町大沢"},
{"zip_code":"6731116","kana_pref":"ﾋｮｳｺﾞｹﾝ","kana_city":"ﾐｷｼ","kana_address":"ﾖｶﾜﾁｮｳｵｵﾊﾀ","pref":"兵庫県","city":"三木市","address":"吉川町大畑"},
{"zip_code":"6731242","kana_pref":"ﾋｮｳｺﾞｹﾝ","kana_city":"ﾐｷｼ","kana_address":"ﾖｶﾜﾁｮｳｵｸﾀﾞﾆ","pref":"兵庫県","city":"三木市","address":"吉川町奥谷"},
{"zip_code":"6731118","kana_pref":"ﾋｮｳｺﾞｹﾝ","kana_city":"ﾐｷｼ","kana_address":"ﾖｶﾜﾁｮｳｶｼｵ","pref":"兵庫県","city":"三木市","address":"吉川町貸潮"},
{"zip_code":"6731119","kana_pref":"ﾋｮｳｺﾞｹﾝ","kana_city":"ﾐｷｼ","kana_address":"ﾖｶﾜﾁｮｳｶｼﾞﾔ","pref":"兵庫県","city":"三木市","address":"吉川町鍛治屋"},
{"zip_code":"6731111","kana_pref":"ﾋｮｳｺﾞｹﾝ","kana_city":"ﾐｷｼ","kana_address":"ﾖｶﾜﾁｮｳｶﾐｱﾗｶﾜ","pref":"兵庫県","city":"三木市","address":"吉川町上荒川"},
{"zip_code":"6731104","kana_pref":"ﾋｮｳｺﾞｹﾝ","kana_city":"ﾐｷｼ","kana_address":"ﾖｶﾜﾁｮｳｶﾐﾅｶ","pref":"兵庫県","city":"三木市","address":"吉川町上中"},
{"zip_code":"6731114","kana_pref":"ﾋｮｳｺﾞｹﾝ","kana_city":"ﾐｷｼ","kana_address":"ﾖｶﾜﾁｮｳｷﾁﾔｽ","pref":"兵庫県","city":"三木市","address":"吉川町吉安"},
{"zip_code":"6731232","kana_pref":"ﾋｮｳｺﾞｹﾝ","kana_city":"ﾐｷｼ","kana_address":"ﾖｶﾜﾁｮｳｷﾝｶｲ","pref":"兵庫県","city":"三木市","address":"吉川町金会"},
{"zip_code":"6731241","kana_pref":"ﾋｮｳｺﾞｹﾝ","kana_city":"ﾐｷｼ","kana_address":"ﾖｶﾜﾁｮｳｸｽﾊﾗ","pref":"兵庫県","city":"三木市","address":"吉川町楠原"},
{"zip_code":"6731106","kana_pref":"ﾋｮｳｺﾞｹﾝ","kana_city":"ﾐｷｼ","kana_address":"ﾖｶﾜﾁｮｳｼﾞﾂﾗｸ","pref":"兵庫県","city":"三木市","address":"吉川町実楽"},
{"zip_code":"6731125","kana_pref":"ﾋｮｳｺﾞｹﾝ","kana_city":"ﾐｷｼ","kana_address":"ﾖｶﾜﾁｮｳﾀﾔ","pref":"兵庫県","city":"三木市","address":"吉川町田谷"},
{"zip_code":"6731102","kana_pref":"ﾋｮｳｺﾞｹﾝ","kana_city":"ﾐｷｼ","kana_address":"ﾖｶﾜﾁｮｳﾄﾐｵｶ","pref":"兵庫県","city":"三木市","address":"吉川町冨岡"},
{"zip_code":"6731243","kana_pref":"ﾋｮｳｺﾞｹﾝ","kana_city":"ﾐｷｼ","kana_address":"ﾖｶﾜﾁｮｳﾄﾖｵｶ","pref":"兵庫県","city":"三木市","address":"吉川町豊岡"},
{"zip_code":"6731127","kana_pref":"ﾋｮｳｺﾞｹﾝ","kana_city":"ﾐｷｼ","kana_address":"ﾖｶﾜﾁｮｳﾅｶﾞﾀﾆ","pref":"兵庫県","city":"三木市","address":"吉川町長谷"},
{"zip_code":"6731122","kana_pref":"ﾋｮｳｺﾞｹﾝ","kana_city":"ﾐｷｼ","kana_address":"ﾖｶﾜﾁｮｳﾆｼｵｸ","pref":"兵庫県","city":"三木市","address":"吉川町西奥"},
{"zip_code":"6731101","kana_pref":"ﾋｮｳｺﾞｹﾝ","kana_city":"ﾐｷｼ","kana_address":"ﾖｶﾜﾁｮｳﾆｯﾀ","pref":"兵庫県","city":"三木市","address":"吉川町新田"},
{"zip_code":"6731112","kana_pref":"ﾋｮｳｺﾞｹﾝ","kana_city":"ﾐｷｼ","kana_address":"ﾖｶﾜﾁｮｳﾊﾀｴﾀﾞ","pref":"兵庫県","city":"三木市","address":"吉川町畑枝"},
{"zip_code":"6731236","kana_pref":"ﾋｮｳｺﾞｹﾝ","kana_city":"ﾐｷｼ","kana_address":"ﾖｶﾜﾁｮｳﾋｶﾞｼﾀﾞ","pref":"兵庫県","city":"三木市","address":"吉川町東田"},
{"zip_code":"6731233","kana_pref":"ﾋｮｳｺﾞｹﾝ","kana_city":"ﾐｷｼ","kana_address":"ﾖｶﾜﾁｮｳﾋﾞｼｬﾓﾝ","pref":"兵庫県","city":"三木市","address":"吉川町毘沙門"},
{"zip_code":"6731113","kana_pref":"ﾋｮｳｺﾞｹﾝ","kana_city":"ﾐｷｼ","kana_address":"ﾖｶﾜﾁｮｳﾌｸｲ","pref":"兵庫県","city":"三木市","address":"吉川町福井"},
{"zip_code":"6731234","kana_pref":"ﾋｮｳｺﾞｹﾝ","kana_city":"ﾐｷｼ","kana_address":"ﾖｶﾜﾁｮｳﾌｸﾖｼ","pref":"兵庫県","city":"三木市","address":"吉川町福吉"},
{"zip_code":"6731108","kana_pref":"ﾋｮｳｺﾞｹﾝ","kana_city":"ﾐｷｼ","kana_address":"ﾖｶﾜﾁｮｳﾌﾙｲﾁ","pref":"兵庫県","city":"三木市","address":"吉川町古市"},
{"zip_code":"6731105","kana_pref":"ﾋｮｳｺﾞｹﾝ","kana_city":"ﾐｷｼ","kana_address":"ﾖｶﾜﾁｮｳﾌﾙｶﾜ","pref":"兵庫県","city":"三木市","address":"吉川町古川"},
{"zip_code":"6731124","kana_pref":"ﾋｮｳｺﾞｹﾝ","kana_city":"ﾐｷｼ","kana_address":"ﾖｶﾜﾁｮｳﾎｳｺｳｼﾞ","pref":"兵庫県","city":"三木市","address":"吉川町法光寺"},
{"zip_code":"6731103","kana_pref":"ﾋｮｳｺﾞｹﾝ","kana_city":"ﾐｷｼ","kana_address":"ﾖｶﾜﾁｮｳﾏｴﾀﾞ","pref":"兵庫県","city":"三木市","address":"吉川町前田"},
{"zip_code":"6731244","kana_pref":"ﾋｮｳｺﾞｹﾝ","kana_city":"ﾐｷｼ","kana_address":"ﾖｶﾜﾁｮｳﾐｽﾞｶﾐ","pref":"兵庫県","city":"三木市","address":"吉川町水上"},
{"zip_code":"6731117","kana_pref":"ﾋｮｳｺﾞｹﾝ","kana_city":"ﾐｷｼ","kana_address":"ﾖｶﾜﾁｮｳﾐﾅｷﾞﾀﾞｲ","pref":"兵庫県","city":"三木市","address":"吉川町みなぎ台"},
{"zip_code":"6731128","kana_pref":"ﾋｮｳｺﾞｹﾝ","kana_city":"ﾐｷｼ","kana_address":"ﾖｶﾜﾁｮｳﾔﾏﾉｳｴ","pref":"兵庫県","city":"三木市","address":"吉川町山上"},
{"zip_code":"6731123","kana_pref":"ﾋｮｳｺﾞｹﾝ","kana_city":"ﾐｷｼ","kana_address":"ﾖｶﾜﾁｮｳﾕﾀﾞﾆ","pref":"兵庫県","city":"三木市","address":"吉川町湯谷"},
{"zip_code":"6731121","kana_pref":"ﾋｮｳｺﾞｹﾝ","kana_city":"ﾐｷｼ","kana_address":"ﾖｶﾜﾁｮｳﾖﾈﾀﾞ","pref":"兵庫県","city":"三木市","address":"吉川町米田"},
{"zip_code":"6731129","kana_pref":"ﾋｮｳｺﾞｹﾝ","kana_city":"ﾐｷｼ","kana_address":"ﾖｶﾜﾁｮｳﾜﾀｾ","pref":"兵庫県","city":"三木市","address":"吉川町渡瀬"},
{"zip_code":"6730422","kana_pref":"ﾋｮｳｺﾞｹﾝ","kana_city":"ﾐｷｼ","kana_address":"ﾖﾛｷ","pref":"兵庫県","city":"三木市","address":"与呂木"},
{"zip_code":"6731400","kana_pref":"ﾋｮｳｺﾞｹﾝ","kana_city":"ｶﾄｳｼ","kana_address":"","pref":"兵庫県","city":"加東市","address":""},
{"zip_code":"6731302","kana_pref":"ﾋｮｳｺﾞｹﾝ","kana_city":"ｶﾄｳｼ","kana_address":"ｱｷﾂ","pref":"兵庫県","city":"加東市","address":"秋津"},
{"zip_code":"6731338","kana_pref":"ﾋｮｳｺﾞｹﾝ","kana_city":"ｶﾄｳｼ","kana_address":"ｱﾂﾄｼ","pref":"兵庫県","city":"加東市","address":"厚利"},
{"zip_code":"6731451","kana_pref":"ﾋｮｳｺﾞｹﾝ","kana_city":"ｶﾄｳｼ","kana_address":"ｲｴﾊﾗ","pref":"兵庫県","city":"加東市","address":"家原"},
{"zip_code":"6731413","kana_pref":"ﾋｮｳｺﾞｹﾝ","kana_city":"ｶﾄｳｼ","kana_address":"ｲｹﾉｳﾁ","pref":"兵庫県","city":"加東市","address":"池之内"},
{"zip_code":"6731442","kana_pref":"ﾋｮｳｺﾞｹﾝ","kana_city":"ｶﾄｳｼ","kana_address":"ｲｽﾞﾐ","pref":"兵庫県","city":"加東市","address":"出水"},
{"zip_code":"6731321","kana_pref":"ﾋｮｳｺﾞｹﾝ","kana_city":"ｶﾄｳｼ","kana_address":"ｲﾜﾔ","pref":"兵庫県","city":"加東市","address":"岩屋"},
{"zip_code":"6731446","kana_pref":"ﾋｮｳｺﾞｹﾝ","kana_city":"ｶﾄｳｼ","kana_address":"ｳｴﾀﾞ","pref":"兵庫県","city":"加東市","address":"上田"},
{"zip_code":"6731404","kana_pref":"ﾋｮｳｺﾞｹﾝ","kana_city":"ｶﾄｳｼ","kana_address":"ｳﾏｾﾞ","pref":"兵庫県","city":"加東市","address":"馬瀬"},
{"zip_code":"6731313","kana_pref":"ﾋｮｳｺﾞｹﾝ","kana_city":"ｶﾄｳｼ","kana_address":"ｴｲﾌｸ","pref":"兵庫県","city":"加東市","address":"永福"},
{"zip_code":"6731325","kana_pref":"ﾋｮｳｺﾞｹﾝ","kana_city":"ｶﾄｳｼ","kana_address":"ｵｵﾊﾀ","pref":"兵庫県","city":"加東市","address":"大畑"},
{"zip_code":"6731323","kana_pref":"ﾋｮｳｺﾞｹﾝ","kana_city":"ｶﾄｳｼ","kana_address":"ｵｶﾓﾄ","pref":"兵庫県","city":"加東市","address":"岡本"},
{"zip_code":"6731333","kana_pref":"ﾋｮｳｺﾞｹﾝ","kana_city":"ｶﾄｳｼ","kana_address":"ｵｻﾞﾜ","pref":"兵庫県","city":"加東市","address":"小沢"},
{"zip_code":"6731453","kana_pref":"ﾋｮｳｺﾞｹﾝ","kana_city":"ｶﾄｳｼ","kana_address":"ｶｲﾊﾗ","pref":"兵庫県","city":"加東市","address":"貝原"},
{"zip_code":"6731463","kana_pref":"ﾋｮｳｺﾞｹﾝ","kana_city":"ｶﾄｳｼ","kana_address":"ｶｼﾞﾜﾗ","pref":"兵庫県","city":"加東市","address":"梶原"},
{"zip_code":"6731401","kana_pref":"ﾋｮｳｺﾞｹﾝ","kana_city":"ｶﾄｳｼ","kana_address":"ｶﾐｶﾓｶﾞﾜ","pref":"兵庫県","city":"加東市","address":"上鴨川"},
{"zip_code":"6731414","kana_pref":"ﾋｮｳｺﾞｹﾝ","kana_city":"ｶﾄｳｼ","kana_address":"ｶﾐｸﾒ","pref":"兵庫県","city":"加東市","address":"上久米"},
{"zip_code":"6731464","kana_pref":"ﾋｮｳｺﾞｹﾝ","kana_city":"ｶﾄｳｼ","kana_address":"ｶﾐﾅｶ","pref":"兵庫県","city":"加東市","address":"上中"},
{"zip_code":"6731472","kana_pref":"ﾋｮｳｺﾞｹﾝ","kana_city":"ｶﾄｳｼ","kana_address":"ｶﾐﾐｸｻ","pref":"兵庫県","city":"加東市","address":"上三草"},
{"zip_code":"6731465","kana_pref":"ﾋｮｳｺﾞｹﾝ","kana_city":"ｶﾄｳｼ","kana_address":"ｷﾀ","pref":"兵庫県","city":"加東市","address":"喜田"},
{"zip_code":"6731461","kana_pref":"ﾋｮｳｺﾞｹﾝ","kana_city":"ｶﾄｳｼ","kana_address":"ｷﾅｼ","pref":"兵庫県","city":"加東市","address":"木梨"},
{"zip_code":"6731456","kana_pref":"ﾋｮｳｺﾞｹﾝ","kana_city":"ｶﾄｳｼ","kana_address":"ｸﾎﾞﾀ","pref":"兵庫県","city":"加東市","address":"窪田"},
{"zip_code":"6731416","kana_pref":"ﾋｮｳｺﾞｹﾝ","kana_city":"ｶﾄｳｼ","kana_address":"ｸﾒ","pref":"兵庫県","city":"加東市","address":"久米"},
{"zip_code":"6731301","kana_pref":"ﾋｮｳｺﾞｹﾝ","kana_city":"ｶﾄｳｼ","kana_address":"ｸﾛﾀﾞﾆ","pref":"兵庫県","city":"加東市","address":"黒谷"},
{"zip_code":"6731332","kana_pref":"ﾋｮｳｺﾞｹﾝ","kana_city":"ｶﾄｳｼ","kana_address":"ｻｶｴ","pref":"兵庫県","city":"加東市","address":"栄枝"},
{"zip_code":"6731447","kana_pref":"ﾋｮｳｺﾞｹﾝ","kana_city":"ｶﾄｳｼ","kana_address":"ｻﾎ","pref":"兵庫県","city":"加東市","address":"佐保"},
{"zip_code":"6731444","kana_pref":"ﾋｮｳｺﾞｹﾝ","kana_city":"ｶﾄｳｼ","kana_address":"ｻﾜﾍﾞ","pref":"兵庫県","city":"加東市","address":"沢部"},
{"zip_code":"6731403","kana_pref":"ﾋｮｳｺﾞｹﾝ","kana_city":"ｶﾄｳｼ","kana_address":"ｼﾓｶﾓｶﾞﾜ","pref":"兵庫県","city":"加東市","address":"下鴨川"},
{"zip_code":"6731415","kana_pref":"ﾋｮｳｺﾞｹﾝ","kana_city":"ｶﾄｳｼ","kana_address":"ｼﾓｸﾒ","pref":"兵庫県","city":"加東市","address":"下久米"},
{"zip_code":"6731473","kana_pref":"ﾋｮｳｺﾞｹﾝ","kana_city":"ｶﾄｳｼ","kana_address":"ｼﾓﾐｸｻ","pref":"兵庫県","city":"加東市","address":"下三草"},
{"zip_code":"6731303","kana_pref":"ﾋｮｳｺﾞｹﾝ","kana_city":"ｶﾄｳｼ","kana_address":"ｼｮｳﾌﾞﾀﾞﾆ","pref":"兵庫県","city":"加東市","address":"少分谷"},
{"zip_code":"6731324","kana_pref":"ﾋｮｳｺﾞｹﾝ","kana_city":"ｶﾄｳｼ","kana_address":"ｼﾝｼﾞｮｳ","pref":"兵庫県","city":"加東市","address":"新定"},
{"zip_code":"6731445","kana_pref":"ﾋｮｳｺﾞｹﾝ","kana_city":"ｶﾄｳｼ","kana_address":"ﾀﾞｲﾓﾝ","pref":"兵庫県","city":"加東市","address":"大門"},
{"zip_code":"6731441","kana_pref":"ﾋｮｳｺﾞｹﾝ","kana_city":"ｶﾄｳｼ","kana_address":"ﾀﾅｶ","pref":"兵庫県","city":"加東市","address":"田中"},
{"zip_code":"6731311","kana_pref":"ﾋｮｳｺﾞｹﾝ","kana_city":"ｶﾄｳｼ","kana_address":"ﾃﾝｼﾞﾝ","pref":"兵庫県","city":"加東市","address":"天神"},
{"zip_code":"6731434","kana_pref":"ﾋｮｳｺﾞｹﾝ","kana_city":"ｶﾄｳｼ","kana_address":"ﾄｳｼﾞﾂ","pref":"兵庫県","city":"加東市","address":"東実"},
{"zip_code":"6731452","kana_pref":"ﾋｮｳｺﾞｹﾝ","kana_city":"ｶﾄｳｼ","kana_address":"ﾄﾘｲ","pref":"兵庫県","city":"加東市","address":"鳥居"},
{"zip_code":"6731424","kana_pref":"ﾋｮｳｺﾞｹﾝ","kana_city":"ｶﾄｳｼ","kana_address":"ﾅｶｺﾞｾ","pref":"兵庫県","city":"加東市","address":"中古瀬"},
{"zip_code":"6731304","kana_pref":"ﾋｮｳｺﾞｹﾝ","kana_city":"ｶﾄｳｼ","kana_address":"ﾅｶﾞｻﾀﾞ","pref":"兵庫県","city":"加東市","address":"長貞"},
{"zip_code":"6731425","kana_pref":"ﾋｮｳｺﾞｹﾝ","kana_city":"ｶﾄｳｼ","kana_address":"ﾆｼｺｾ","pref":"兵庫県","city":"加東市","address":"西古瀬"},
{"zip_code":"6731455","kana_pref":"ﾋｮｳｺﾞｹﾝ","kana_city":"ｶﾄｳｼ","kana_address":"ﾆｼﾀﾙﾐ","pref":"兵庫県","city":"加東市","address":"西垂水"},
{"zip_code":"6731454","kana_pref":"ﾋｮｳｺﾞｹﾝ","kana_city":"ｶﾄｳｼ","kana_address":"ﾉﾑﾗ","pref":"兵庫県","city":"加東市","address":"野村"},
{"zip_code":"6731312","kana_pref":"ﾋｮｳｺﾞｹﾝ","kana_city":"ｶﾄｳｼ","kana_address":"ﾊｼｶﾀﾞﾆ","pref":"兵庫県","city":"加東市","address":"掎鹿谷"},
{"zip_code":"6731411","kana_pref":"ﾋｮｳｺﾞｹﾝ","kana_city":"ｶﾄｳｼ","kana_address":"ﾊﾀ","pref":"兵庫県","city":"加東市","address":"畑"},
{"zip_code":"6731423","kana_pref":"ﾋｮｳｺﾞｹﾝ","kana_city":"ｶﾄｳｼ","kana_address":"ﾋｶﾞｼｺﾞｾ","pref":"兵庫県","city":"加東市","address":"東古瀬"},
{"zip_code":"6731336","kana_pref":"ﾋｮｳｺﾞｹﾝ","kana_city":"ｶﾄｳｼ","kana_address":"ﾋｶﾞｼﾀﾙﾐ","pref":"兵庫県","city":"加東市","address":"東垂水"},
{"zip_code":"6731402","kana_pref":"ﾋｮｳｺﾞｹﾝ","kana_city":"ｶﾄｳｼ","kana_address":"ﾋﾗｷ","pref":"兵庫県","city":"加東市","address":"平木"},
{"zip_code":"6731432","kana_pref":"ﾋｮｳｺﾞｹﾝ","kana_city":"ｶﾄｳｼ","kana_address":"ﾋﾛﾉｶﾞｵｶ","pref":"兵庫県","city":"加東市","address":"ひろのが丘"},
{"zip_code":"6731443","kana_pref":"ﾋｮｳｺﾞｹﾝ","kana_city":"ｶﾄｳｼ","kana_address":"ﾌｸﾖｼ","pref":"兵庫県","city":"加東市","address":"福吉"},
{"zip_code":"6731462","kana_pref":"ﾋｮｳｺﾞｹﾝ","kana_city":"ｶﾄｳｼ","kana_address":"ﾌｼﾞﾀ","pref":"兵庫県","city":"加東市","address":"藤田"},
{"zip_code":"6731474","kana_pref":"ﾋｮｳｺﾞｹﾝ","kana_city":"ｶﾄｳｼ","kana_address":"ﾏｷﾉ","pref":"兵庫県","city":"加東市","address":"牧野"},
{"zip_code":"6731433","kana_pref":"ﾋｮｳｺﾞｹﾝ","kana_city":"ｶﾄｳｼ","kana_address":"ﾏﾂｵ","pref":"兵庫県","city":"加東市","address":"松尾"},
{"zip_code":"6731337","kana_pref":"ﾋｮｳｺﾞｹﾝ","kana_city":"ｶﾄｳｼ","kana_address":"ﾏﾂｻﾞﾜ","pref":"兵庫県","city":"加東市","address":"松沢"},
{"zip_code":"6731412","kana_pref":"ﾋｮｳｺﾞｹﾝ","kana_city":"ｶﾄｳｼ","kana_address":"ﾏﾜﾘﾌﾞﾁ","pref":"兵庫県","city":"加東市","address":"廻渕"},
{"zip_code":"6731341","kana_pref":"ﾋｮｳｺﾞｹﾝ","kana_city":"ｶﾄｳｼ","kana_address":"ﾐﾅﾐﾔﾏ","pref":"兵庫県","city":"加東市","address":"南山"},
{"zip_code":"6731322","kana_pref":"ﾋｮｳｺﾞｹﾝ","kana_city":"ｶﾄｳｼ","kana_address":"ﾓﾘ","pref":"兵庫県","city":"加東市","address":"森"},
{"zip_code":"6731331","kana_pref":"ﾋｮｳｺﾞｹﾝ","kana_city":"ｶﾄｳｼ","kana_address":"ﾓﾘｵ","pref":"兵庫県","city":"加東市","address":"森尾"},
{"zip_code":"6731431","kana_pref":"ﾋｮｳｺﾞｹﾝ","kana_city":"ｶﾄｳｼ","kana_address":"ﾔｼﾛ","pref":"兵庫県","city":"加東市","address":"社"},
{"zip_code":"6731422","kana_pref":"ﾋｮｳｺﾞｹﾝ","kana_city":"ｶﾄｳｼ","kana_address":"ﾔﾄﾞ","pref":"兵庫県","city":"加東市","address":"屋度"},
{"zip_code":"6731335","kana_pref":"ﾋｮｳｺﾞｹﾝ","kana_city":"ｶﾄｳｼ","kana_address":"ﾔﾌﾞ","pref":"兵庫県","city":"加東市","address":"藪"},
{"zip_code":"6731471","kana_pref":"ﾋｮｳｺﾞｹﾝ","kana_city":"ｶﾄｳｼ","kana_address":"ﾔﾏｸﾞﾁ","pref":"兵庫県","city":"加東市","address":"山口"},
{"zip_code":"6731421","kana_pref":"ﾋｮｳｺﾞｹﾝ","kana_city":"ｶﾄｳｼ","kana_address":"ﾔﾏｸﾆ","pref":"兵庫県","city":"加東市","address":"山国"},
{"zip_code":"6731314","kana_pref":"ﾋｮｳｺﾞｹﾝ","kana_city":"ｶﾄｳｼ","kana_address":"ﾖｺﾀﾞﾆ","pref":"兵庫県","city":"加東市","address":"横谷"},
{"zip_code":"6731334","kana_pref":"ﾋｮｳｺﾞｹﾝ","kana_city":"ｶﾄｳｼ","kana_address":"ﾖｼｲ","pref":"兵庫県","city":"加東市","address":"吉井"},
{"zip_code":"6731475","kana_pref":"ﾋｮｳｺﾞｹﾝ","kana_city":"ｶﾄｳｼ","kana_address":"ﾖｼﾏ","pref":"兵庫県","city":"加東市","address":"吉馬"}]}