{"zip_code":[
{"zip_code":"6740071","kana_pref":"ﾋｮｳｺﾞｹﾝ","kana_city":"ｱｶｼｼ","kana_address":"ｳｵｽﾞﾐﾁｮｳｶﾅｶﾞｻｷ","pref":"兵庫県","city":"明石市","address":"魚住町金ケ崎"},
{"zip_code":"6740073","kana_pref":"ﾋｮｳｺﾞｹﾝ","kana_city":"ｱｶｼｼ","kana_address":"ｳｵｽﾞﾐﾁｮｳｶﾓｲｹ","pref":"兵庫県","city":"明石市","address":"魚住町鴨池"},
{"zip_code":"6740074","kana_pref":"ﾋｮｳｺﾞｹﾝ","kana_city":"ｱｶｼｼ","kana_address":"ｳｵｽﾞﾐﾁｮｳｼﾐｽﾞ","pref":"兵庫県","city":"明石市","address":"魚住町清水"},
{"zip_code":"6740083","kana_pref":"ﾋｮｳｺﾞｹﾝ","kana_city":"ｱｶｼｼ","kana_address":"ｳｵｽﾞﾐﾁｮｳｽﾐﾖｼ","pref":"兵庫県","city":"明石市","address":"魚住町住吉"},
{"zip_code":"6740072","kana_pref":"ﾋｮｳｺﾞｹﾝ","kana_city":"ｱｶｼｼ","kana_address":"ｳｵｽﾞﾐﾁｮｳﾁｮｳﾊﾝｼﾞ","pref":"兵庫県","city":"明石市","address":"魚住町長坂寺"},
{"zip_code":"6740082","kana_pref":"ﾋｮｳｺﾞｹﾝ","kana_city":"ｱｶｼｼ","kana_address":"ｳｵｽﾞﾐﾁｮｳﾅｶｵ","pref":"兵庫県","city":"明石市","address":"魚住町中尾"},
{"zip_code":"6740084","kana_pref":"ﾋｮｳｺﾞｹﾝ","kana_city":"ｱｶｼｼ","kana_address":"ｳｵｽﾞﾐﾁｮｳﾆｼｵｶ","pref":"兵庫県","city":"明石市","address":"魚住町西岡"},
{"zip_code":"6740081","kana_pref":"ﾋｮｳｺﾞｹﾝ","kana_city":"ｱｶｼｼ","kana_address":"ｳｵｽﾞﾐﾁｮｳﾆｼｷｶﾞｵｶ","pref":"兵庫県","city":"明石市","address":"魚住町錦が丘"},
{"zip_code":"6740064","kana_pref":"ﾋｮｳｺﾞｹﾝ","kana_city":"ｱｶｼｼ","kana_address":"ｵｵｸﾎﾞﾁｮｳｴｲｶﾞｼﾏ","pref":"兵庫県","city":"明石市","address":"大久保町江井島"},
{"zip_code":"6740058","kana_pref":"ﾋｮｳｺﾞｹﾝ","kana_city":"ｱｶｼｼ","kana_address":"ｵｵｸﾎﾞﾁｮｳｴｷﾏｴ","pref":"兵庫県","city":"明石市","address":"大久保町駅前"},
{"zip_code":"6740051","kana_pref":"ﾋｮｳｺﾞｹﾝ","kana_city":"ｱｶｼｼ","kana_address":"ｵｵｸﾎﾞﾁｮｳｵｵｸﾎﾞ","pref":"兵庫県","city":"明石市","address":"大久保町大窪"},
{"zip_code":"6740067","kana_pref":"ﾋｮｳｺﾞｹﾝ","kana_city":"ｱｶｼｼ","kana_address":"ｵｵｸﾎﾞﾁｮｳｵｵｸﾎﾞﾏﾁ","pref":"兵庫県","city":"明石市","address":"大久保町大久保町"},
{"zip_code":"6740057","kana_pref":"ﾋｮｳｺﾞｹﾝ","kana_city":"ｱｶｼｼ","kana_address":"ｵｵｸﾎﾞﾁｮｳﾀｶｵｶ","pref":"兵庫県","city":"明石市","address":"大久保町高丘"},
{"zip_code":"6740062","kana_pref":"ﾋｮｳｺﾞｹﾝ","kana_city":"ｱｶｼｼ","kana_address":"ｵｵｸﾎﾞﾁｮｳﾀﾆﾔｷﾞ","pref":"兵庫県","city":"明石市","address":"大久保町谷八木"},
{"zip_code":"6740065","kana_pref":"ﾋｮｳｺﾞｹﾝ","kana_city":"ｱｶｼｼ","kana_address":"ｵｵｸﾎﾞﾁｮｳﾆｼｼﾞﾏ","pref":"兵庫県","city":"明石市","address":"大久保町西島"},
{"zip_code":"6740054","kana_pref":"ﾋｮｳｺﾞｹﾝ","kana_city":"ｱｶｼｼ","kana_address":"ｵｵｸﾎﾞﾁｮｳﾆｼﾜｷ","pref":"兵庫県","city":"明石市","address":"大久保町西脇"},
{"zip_code":"6740066","kana_pref":"ﾋｮｳｺﾞｹﾝ","kana_city":"ｱｶｼｼ","kana_address":"ｵｵｸﾎﾞﾁｮｳﾌｸﾀﾞ","pref":"兵庫県","city":"明石市","address":"大久保町福田"},
{"zip_code":"6740053","kana_pref":"ﾋｮｳｺﾞｹﾝ","kana_city":"ｱｶｼｼ","kana_address":"ｵｵｸﾎﾞﾁｮｳﾏﾂｶｹﾞ","pref":"兵庫県","city":"明石市","address":"大久保町松陰"},
{"zip_code":"6740052","kana_pref":"ﾋｮｳｺﾞｹﾝ","kana_city":"ｱｶｼｼ","kana_address":"ｵｵｸﾎﾞﾁｮｳﾏﾂｶｹﾞｼﾝﾃﾞﾝ","pref":"兵庫県","city":"明石市","address":"大久保町松陰新田"},
{"zip_code":"6740055","kana_pref":"ﾋｮｳｺﾞｹﾝ","kana_city":"ｱｶｼｼ","kana_address":"ｵｵｸﾎﾞﾁｮｳﾐﾄﾞﾘｶﾞｵｶ","pref":"兵庫県","city":"明石市","address":"大久保町緑が丘"},
{"zip_code":"6740061","kana_pref":"ﾋｮｳｺﾞｹﾝ","kana_city":"ｱｶｼｼ","kana_address":"ｵｵｸﾎﾞﾁｮｳﾓﾘﾀ","pref":"兵庫県","city":"明石市","address":"大久保町森田"},
{"zip_code":"6740063","kana_pref":"ﾋｮｳｺﾞｹﾝ","kana_city":"ｱｶｼｼ","kana_address":"ｵｵｸﾎﾞﾁｮｳﾔｷﾞ","pref":"兵庫県","city":"明石市","address":"大久保町八木"},
{"zip_code":"6740056","kana_pref":"ﾋｮｳｺﾞｹﾝ","kana_city":"ｱｶｼｼ","kana_address":"ｵｵｸﾎﾞﾁｮｳﾔﾏﾃﾀﾞｲ","pref":"兵庫県","city":"明石市","address":"大久保町山手台"},
{"zip_code":"6740068","kana_pref":"ﾋｮｳｺﾞｹﾝ","kana_city":"ｱｶｼｼ","kana_address":"ｵｵｸﾎﾞﾁｮｳﾕﾘﾉｷﾄﾞｵﾘ","pref":"兵庫県","city":"明石市","address":"大久保町ゆりのき通"},
{"zip_code":"6740069","kana_pref":"ﾋｮｳｺﾞｹﾝ","kana_city":"ｱｶｼｼ","kana_address":"ｵｵｸﾎﾞﾁｮｳﾜｶﾊﾞ","pref":"兵庫県","city":"明石市","address":"大久保町わかば"},
{"zip_code":"6740092","kana_pref":"ﾋｮｳｺﾞｹﾝ","kana_city":"ｱｶｼｼ","kana_address":"ﾌﾀﾐﾁｮｳﾋｶﾞｼﾌﾀﾐ","pref":"兵庫県","city":"明石市","address":"二見町東二見"},
{"zip_code":"6740094","kana_pref":"ﾋｮｳｺﾞｹﾝ","kana_city":"ｱｶｼｼ","kana_address":"ﾌﾀﾐﾁｮｳﾆｼﾌﾀﾐ","pref":"兵庫県","city":"明石市","address":"二見町西二見"},
{"zip_code":"6740095","kana_pref":"ﾋｮｳｺﾞｹﾝ","kana_city":"ｱｶｼｼ","kana_address":"ﾌﾀﾐﾁｮｳﾆｼﾌﾀﾐｴｷﾏｴ","pref":"兵庫県","city":"明石市","address":"二見町西二見駅前"},
{"zip_code":"6740093","kana_pref":"ﾋｮｳｺﾞｹﾝ","kana_city":"ｱｶｼｼ","kana_address":"ﾌﾀﾐﾁｮｳﾐﾅﾐﾌﾀﾐ","pref":"兵庫県","city":"明石市","address":"二見町南二見"},
{"zip_code":"6740091","kana_pref":"ﾋｮｳｺﾞｹﾝ","kana_city":"ｱｶｼｼ","kana_address":"ﾌﾀﾐﾁｮｳﾌｸｻﾄ","pref":"兵庫県","city":"明石市","address":"二見町福里"}]}