{"zip_code":[
{"zip_code":"6750000","kana_pref":"ﾋｮｳｺﾞｹﾝ","kana_city":"ｶｺｶﾞﾜｼ","kana_address":"","pref":"兵庫県","city":"加古川市","address":""},
{"zip_code":"6750026","kana_pref":"ﾋｮｳｺﾞｹﾝ","kana_city":"ｶｺｶﾞﾜｼ","kana_address":"ｵﾉｴﾁｮｳｱｻﾋ","pref":"兵庫県","city":"加古川市","address":"尾上町旭"},
{"zip_code":"6750023","kana_pref":"ﾋｮｳｺﾞｹﾝ","kana_city":"ｶｺｶﾞﾜｼ","kana_address":"ｵﾉｴﾁｮｳｲｹﾀﾞ","pref":"兵庫県","city":"加古川市","address":"尾上町池田"},
{"zip_code":"6750027","kana_pref":"ﾋｮｳｺﾞｹﾝ","kana_city":"ｶｺｶﾞﾜｼ","kana_address":"ｵﾉｴﾁｮｳｲﾏﾌｸ","pref":"兵庫県","city":"加古川市","address":"尾上町今福"},
{"zip_code":"6750022","kana_pref":"ﾋｮｳｺﾞｹﾝ","kana_city":"ｶｺｶﾞﾜｼ","kana_address":"ｵﾉｴﾁｮｳｸﾁﾘ","pref":"兵庫県","city":"加古川市","address":"尾上町口里"},
{"zip_code":"6750024","kana_pref":"ﾋｮｳｺﾞｹﾝ","kana_city":"ｶｺｶﾞﾜｼ","kana_address":"ｵﾉｴﾁｮｳﾅｶﾞﾀ","pref":"兵庫県","city":"加古川市","address":"尾上町長田"},
{"zip_code":"6750021","kana_pref":"ﾋｮｳｺﾞｹﾝ","kana_city":"ｶｺｶﾞﾜｼ","kana_address":"ｵﾉｴﾁｮｳﾔｽﾀ","pref":"兵庫県","city":"加古川市","address":"尾上町安田"},
{"zip_code":"6750025","kana_pref":"ﾋｮｳｺﾞｹﾝ","kana_city":"ｶｺｶﾞﾜｼ","kana_address":"ｵﾉｴﾁｮｳﾖｳﾀ","pref":"兵庫県","city":"加古川市","address":"尾上町養田"},
{"zip_code":"6750039","kana_pref":"ﾋｮｳｺﾞｹﾝ","kana_city":"ｶｺｶﾞﾜｼ","kana_address":"ｶｺｶﾞﾜﾁｮｳｱﾜﾂﾞ","pref":"兵庫県","city":"加古川市","address":"加古川町粟津"},
{"zip_code":"6750034","kana_pref":"ﾋｮｳｺﾞｹﾝ","kana_city":"ｶｺｶﾞﾜｼ","kana_address":"ｶｺｶﾞﾜﾁｮｳｲﾅﾔ","pref":"兵庫県","city":"加古川市","address":"加古川町稲屋"},
{"zip_code":"6750061","kana_pref":"ﾋｮｳｺﾞｹﾝ","kana_city":"ｶｺｶﾞﾜｼ","kana_address":"ｶｺｶﾞﾜﾁｮｳｵｵﾉ","pref":"兵庫県","city":"加古川市","address":"加古川町大野"},
{"zip_code":"6750067","kana_pref":"ﾋｮｳｺﾞｹﾝ","kana_city":"ｶｺｶﾞﾜｼ","kana_address":"ｶｺｶﾞﾜﾁｮｳｶﾜﾗ","pref":"兵庫県","city":"加古川市","address":"加古川町河原"},
{"zip_code":"6750031","kana_pref":"ﾋｮｳｺﾞｹﾝ","kana_city":"ｶｺｶﾞﾜｼ","kana_address":"ｶｺｶﾞﾜﾁｮｳｷﾀｻﾞｲｹ","pref":"兵庫県","city":"加古川市","address":"加古川町北在家"},
{"zip_code":"6750038","kana_pref":"ﾋｮｳｺﾞｹﾝ","kana_city":"ｶｺｶﾞﾜｼ","kana_address":"ｶｺｶﾞﾜﾁｮｳｷﾑﾗ","pref":"兵庫県","city":"加古川市","address":"加古川町木村"},
{"zip_code":"6750065","kana_pref":"ﾋｮｳｺﾞｹﾝ","kana_city":"ｶｺｶﾞﾜｼ","kana_address":"ｶｺｶﾞﾜﾁｮｳｼﾉﾊﾗﾁｮｳ","pref":"兵庫県","city":"加古川市","address":"加古川町篠原町"},
{"zip_code":"6750066","kana_pref":"ﾋｮｳｺﾞｹﾝ","kana_city":"ｶｺｶﾞﾜｼ","kana_address":"ｶｺｶﾞﾜﾁｮｳｼﾞｹﾏﾁ","pref":"兵庫県","city":"加古川市","address":"加古川町寺家町"},
{"zip_code":"6750035","kana_pref":"ﾋｮｳｺﾞｹﾝ","kana_city":"ｶｺｶﾞﾜｼ","kana_address":"ｶｺｶﾞﾜﾁｮｳﾄﾓｻﾜ","pref":"兵庫県","city":"加古川市","address":"加古川町友沢"},
{"zip_code":"6750068","kana_pref":"ﾋｮｳｺﾞｹﾝ","kana_city":"ｶｺｶﾞﾜｼ","kana_address":"ｶｺｶﾞﾜﾁｮｳﾅｶﾂ","pref":"兵庫県","city":"加古川市","address":"加古川町中津"},
{"zip_code":"6750036","kana_pref":"ﾋｮｳｺﾞｹﾝ","kana_city":"ｶｺｶﾞﾜｼ","kana_address":"ｶｺｶﾞﾜﾁｮｳﾆｼｶﾞﾜﾗ","pref":"兵庫県","city":"加古川市","address":"加古川町西河原"},
{"zip_code":"6750063","kana_pref":"ﾋｮｳｺﾞｹﾝ","kana_city":"ｶｺｶﾞﾜｼ","kana_address":"ｶｺｶﾞﾜﾁｮｳﾋﾗﾉ","pref":"兵庫県","city":"加古川市","address":"加古川町平野"},
{"zip_code":"6750032","kana_pref":"ﾋｮｳｺﾞｹﾝ","kana_city":"ｶｺｶﾞﾜｼ","kana_address":"ｶｺｶﾞﾜﾁｮｳﾋﾞﾝｺﾞ","pref":"兵庫県","city":"加古川市","address":"加古川町備後"},
{"zip_code":"6750037","kana_pref":"ﾋｮｳｺﾞｹﾝ","kana_city":"ｶｺｶﾞﾜｼ","kana_address":"ｶｺｶﾞﾜﾁｮｳﾎﾝﾏﾁ","pref":"兵庫県","city":"加古川市","address":"加古川町本町"},
{"zip_code":"6750064","kana_pref":"ﾋｮｳｺﾞｹﾝ","kana_city":"ｶｺｶﾞﾜｼ","kana_address":"ｶｺｶﾞﾜﾁｮｳﾐｿﾞﾉｸﾁ","pref":"兵庫県","city":"加古川市","address":"加古川町溝之口"},
{"zip_code":"6750033","kana_pref":"ﾋｮｳｺﾞｹﾝ","kana_city":"ｶｺｶﾞﾜｼ","kana_address":"ｶｺｶﾞﾜﾁｮｳﾐﾅﾐﾋﾞﾝｺﾞ","pref":"兵庫県","city":"加古川市","address":"加古川町南備後"},
{"zip_code":"6750062","kana_pref":"ﾋｮｳｺﾞｹﾝ","kana_city":"ｶｺｶﾞﾜｼ","kana_address":"ｶｺｶﾞﾜﾁｮｳﾐﾉﾘ","pref":"兵庫県","city":"加古川市","address":"加古川町美乃利"},
{"zip_code":"6750137","kana_pref":"ﾋｮｳｺﾞｹﾝ","kana_city":"ｶｺｶﾞﾜｼ","kana_address":"ｶﾅｻﾞﾜﾁｮｳ","pref":"兵庫県","city":"加古川市","address":"金沢町"},
{"zip_code":"6751212","kana_pref":"ﾋｮｳｺﾞｹﾝ","kana_city":"ｶｺｶﾞﾜｼ","kana_address":"ｶﾐｿｳﾁｮｳｲﾉｸﾁ","pref":"兵庫県","city":"加古川市","address":"上荘町井ノ口"},
{"zip_code":"6751218","kana_pref":"ﾋｮｳｺﾞｹﾝ","kana_city":"ｶｺｶﾞﾜｼ","kana_address":"ｶﾐｿｳﾁｮｳｵﾉ","pref":"兵庫県","city":"加古川市","address":"上荘町小野"},
{"zip_code":"6751217","kana_pref":"ﾋｮｳｺﾞｹﾝ","kana_city":"ｶｺｶﾞﾜｼ","kana_address":"ｶﾐｿｳﾁｮｳｸｽｸﾘ","pref":"兵庫県","city":"加古川市","address":"上荘町薬栗"},
{"zip_code":"6751213","kana_pref":"ﾋｮｳｺﾞｹﾝ","kana_city":"ｶｺｶﾞﾜｼ","kana_address":"ｶﾐｿｳﾁｮｳｸﾆｶﾈ","pref":"兵庫県","city":"加古川市","address":"上荘町国包"},
{"zip_code":"6751211","kana_pref":"ﾋｮｳｺﾞｹﾝ","kana_city":"ｶｺｶﾞﾜｼ","kana_address":"ｶﾐｿｳﾁｮｳｼﾗｻﾜ","pref":"兵庫県","city":"加古川市","address":"上荘町白沢"},
{"zip_code":"6751216","kana_pref":"ﾋｮｳｺﾞｹﾝ","kana_city":"ｶｺｶﾞﾜｼ","kana_address":"ｶﾐｿｳﾁｮｳﾂｿﾞﾒ","pref":"兵庫県","city":"加古川市","address":"上荘町都染"},
{"zip_code":"6751214","kana_pref":"ﾋｮｳｺﾞｹﾝ","kana_city":"ｶｺｶﾞﾜｼ","kana_address":"ｶﾐｿｳﾁｮｳﾐﾄﾞﾛ","pref":"兵庫県","city":"加古川市","address":"上荘町見土呂"},
{"zip_code":"6751215","kana_pref":"ﾋｮｳｺﾞｹﾝ","kana_city":"ｶｺｶﾞﾜｼ","kana_address":"ｶﾐｿｳﾁｮｳﾐﾔｺﾀﾞｲ","pref":"兵庫県","city":"加古川市","address":"上荘町都台"},
{"zip_code":"6750005","kana_pref":"ﾋｮｳｺﾞｹﾝ","kana_city":"ｶｺｶﾞﾜｼ","kana_address":"ｶﾝﾉﾁｮｳｲｼﾓﾘ","pref":"兵庫県","city":"加古川市","address":"神野町石守"},
{"zip_code":"6750003","kana_pref":"ﾋｮｳｺﾞｹﾝ","kana_city":"ｶｺｶﾞﾜｼ","kana_address":"ｶﾝﾉﾁｮｳｶﾝﾉ","pref":"兵庫県","city":"加古川市","address":"神野町神野"},
{"zip_code":"6750009","kana_pref":"ﾋｮｳｺﾞｹﾝ","kana_city":"ｶｺｶﾞﾜｼ","kana_address":"ｶﾝﾉﾁｮｳｻｲｼﾞｮｳ","pref":"兵庫県","city":"加古川市","address":"神野町西条"},
{"zip_code":"6750007","kana_pref":"ﾋｮｳｺﾞｹﾝ","kana_city":"ｶｺｶﾞﾜｼ","kana_address":"ｶﾝﾉﾁｮｳﾆｼﾉﾔﾏ","pref":"兵庫県","city":"加古川市","address":"神野町西之山"},
{"zip_code":"6750006","kana_pref":"ﾋｮｳｺﾞｹﾝ","kana_city":"ｶｺｶﾞﾜｼ","kana_address":"ｶﾝﾉﾁｮｳﾋｵｶｴﾝ","pref":"兵庫県","city":"加古川市","address":"神野町日岡苑"},
{"zip_code":"6750004","kana_pref":"ﾋｮｳｺﾞｹﾝ","kana_city":"ｶｺｶﾞﾜｼ","kana_address":"ｶﾝﾉﾁｮｳﾌｸﾄﾞﾒ","pref":"兵庫県","city":"加古川市","address":"神野町福留"},
{"zip_code":"6750001","kana_pref":"ﾋｮｳｺﾞｹﾝ","kana_city":"ｶｺｶﾞﾜｼ","kana_address":"ｻｲｼﾞｮｳﾔﾏﾃ","pref":"兵庫県","city":"加古川市","address":"西条山手"},
{"zip_code":"6750301","kana_pref":"ﾋｮｳｺﾞｹﾝ","kana_city":"ｶｺｶﾞﾜｼ","kana_address":"ｼｶﾀﾁｮｳｵｵｻﾞﾜ","pref":"兵庫県","city":"加古川市","address":"志方町大澤"},
{"zip_code":"6750305","kana_pref":"ﾋｮｳｺﾞｹﾝ","kana_city":"ｶｺｶﾞﾜｼ","kana_address":"ｼｶﾀﾁｮｳｵｵﾑﾈ","pref":"兵庫県","city":"加古川市","address":"志方町大宗"},
{"zip_code":"6750311","kana_pref":"ﾋｮｳｺﾞｹﾝ","kana_city":"ｶｺｶﾞﾜｼ","kana_address":"ｼｶﾀﾁｮｳｵｶ","pref":"兵庫県","city":"加古川市","address":"志方町岡"},
{"zip_code":"6750314","kana_pref":"ﾋｮｳｺﾞｹﾝ","kana_city":"ｶｺｶﾞﾜｼ","kana_address":"ｼｶﾀﾁｮｳｶﾐﾄﾐｷ","pref":"兵庫県","city":"加古川市","address":"志方町上冨木"},
{"zip_code":"6750303","kana_pref":"ﾋｮｳｺﾞｹﾝ","kana_city":"ｶｺｶﾞﾜｼ","kana_address":"ｼｶﾀﾁｮｳｻｲｸｼﾞｮ","pref":"兵庫県","city":"加古川市","address":"志方町細工所"},
{"zip_code":"6750321","kana_pref":"ﾋｮｳｺﾞｹﾝ","kana_city":"ｶｺｶﾞﾜｼ","kana_address":"ｼｶﾀﾁｮｳｼｶﾀﾏﾁ","pref":"兵庫県","city":"加古川市","address":"志方町志方町"},
{"zip_code":"6750342","kana_pref":"ﾋｮｳｺﾞｹﾝ","kana_city":"ｶｺｶﾞﾜｼ","kana_address":"ｼｶﾀﾁｮｳｿﾞｳｺﾞｳ","pref":"兵庫県","city":"加古川市","address":"志方町雑郷"},
{"zip_code":"6750304","kana_pref":"ﾋｮｳｺﾞｹﾝ","kana_city":"ｶｺｶﾞﾜｼ","kana_address":"ｼｶﾀﾁｮｳﾀｶﾊﾀ","pref":"兵庫県","city":"加古川市","address":"志方町高畑"},
{"zip_code":"6750347","kana_pref":"ﾋｮｳｺﾞｹﾝ","kana_city":"ｶｺｶﾞﾜｼ","kana_address":"ｼｶﾀﾁｮｳﾅｶﾞﾑﾛ","pref":"兵庫県","city":"加古川市","address":"志方町永室"},
{"zip_code":"6750334","kana_pref":"ﾋｮｳｺﾞｹﾝ","kana_city":"ｶｺｶﾞﾜｼ","kana_address":"ｼｶﾀﾁｮｳﾅﾙｲ","pref":"兵庫県","city":"加古川市","address":"志方町成井"},
{"zip_code":"6750345","kana_pref":"ﾋｮｳｺﾞｹﾝ","kana_city":"ｶｺｶﾞﾜｼ","kana_address":"ｼｶﾀﾁｮｳﾆｼｲｲｻﾞｶ","pref":"兵庫県","city":"加古川市","address":"志方町西飯坂"},
{"zip_code":"6750346","kana_pref":"ﾋｮｳｺﾞｹﾝ","kana_city":"ｶｺｶﾞﾜｼ","kana_address":"ｼｶﾀﾁｮｳﾆｼﾅｶ","pref":"兵庫県","city":"加古川市","address":"志方町西中"},
{"zip_code":"6750331","kana_pref":"ﾋｮｳｺﾞｹﾝ","kana_city":"ｶｺｶﾞﾜｼ","kana_address":"ｼｶﾀﾁｮｳﾆｼﾏｷ","pref":"兵庫県","city":"加古川市","address":"志方町西牧"},
{"zip_code":"6750333","kana_pref":"ﾋｮｳｺﾞｹﾝ","kana_city":"ｶｺｶﾞﾜｼ","kana_address":"ｼｶﾀﾁｮｳﾆｼﾔﾏ","pref":"兵庫県","city":"加古川市","address":"志方町西山"},
{"zip_code":"6750313","kana_pref":"ﾋｮｳｺﾞｹﾝ","kana_city":"ｶｺｶﾞﾜｼ","kana_address":"ｼｶﾀﾁｮｳﾈｼﾞﾏﾂ","pref":"兵庫県","city":"加古川市","address":"志方町投松"},
{"zip_code":"6750302","kana_pref":"ﾋｮｳｺﾞｹﾝ","kana_city":"ｶｺｶﾞﾜｼ","kana_address":"ｼｶﾀﾁｮｳﾉｼﾞﾘ","pref":"兵庫県","city":"加古川市","address":"志方町野尻"},
{"zip_code":"6750341","kana_pref":"ﾋｮｳｺﾞｹﾝ","kana_city":"ｶｺｶﾞﾜｼ","kana_address":"ｼｶﾀﾁｮｳﾊﾀ","pref":"兵庫県","city":"加古川市","address":"志方町畑"},
{"zip_code":"6750335","kana_pref":"ﾋｮｳｺﾞｹﾝ","kana_city":"ｶｺｶﾞﾜｼ","kana_address":"ｼｶﾀﾁｮｳﾊﾗ","pref":"兵庫県","city":"加古川市","address":"志方町原"},
{"zip_code":"6750344","kana_pref":"ﾋｮｳｺﾞｹﾝ","kana_city":"ｶｺｶﾞﾜｼ","kana_address":"ｼｶﾀﾁｮｳﾋｶﾞｼｲｲｻﾞｶ","pref":"兵庫県","city":"加古川市","address":"志方町東飯坂"},
{"zip_code":"6750306","kana_pref":"ﾋｮｳｺﾞｹﾝ","kana_city":"ｶｺｶﾞﾜｼ","kana_address":"ｼｶﾀﾁｮｳﾋｶﾞｼﾅｶ","pref":"兵庫県","city":"加古川市","address":"志方町東中"},
{"zip_code":"6750312","kana_pref":"ﾋｮｳｺﾞｹﾝ","kana_city":"ｶｺｶﾞﾜｼ","kana_address":"ｼｶﾀﾁｮｳﾋﾛｵ","pref":"兵庫県","city":"加古川市","address":"志方町広尾"},
{"zip_code":"6750336","kana_pref":"ﾋｮｳｺﾞｹﾝ","kana_city":"ｶｺｶﾞﾜｼ","kana_address":"ｼｶﾀﾁｮｳﾔﾏﾅｶ","pref":"兵庫県","city":"加古川市","address":"志方町山中"},
{"zip_code":"6750343","kana_pref":"ﾋｮｳｺﾞｹﾝ","kana_city":"ｶｺｶﾞﾜｼ","kana_address":"ｼｶﾀﾁｮｳﾕｷﾂﾈ","pref":"兵庫県","city":"加古川市","address":"志方町行常"},
{"zip_code":"6750332","kana_pref":"ﾋｮｳｺﾞｹﾝ","kana_city":"ｶｺｶﾞﾜｼ","kana_address":"ｼｶﾀﾁｮｳﾖｺｵｵｼﾞ","pref":"兵庫県","city":"加古川市","address":"志方町横大路"},
{"zip_code":"6750008","kana_pref":"ﾋｮｳｺﾞｹﾝ","kana_city":"ｶｺｶﾞﾜｼ","kana_address":"ｼﾝｶﾝﾉ","pref":"兵庫県","city":"加古川市","address":"新神野"},
{"zip_code":"6750044","kana_pref":"ﾋｮｳｺﾞｹﾝ","kana_city":"ｶｺｶﾞﾜｼ","kana_address":"ﾆｼｶﾝｷﾁｮｳｵｵｸﾞﾆ","pref":"兵庫県","city":"加古川市","address":"西神吉町大国"},
{"zip_code":"6750047","kana_pref":"ﾋｮｳｺﾞｹﾝ","kana_city":"ｶｺｶﾞﾜｼ","kana_address":"ﾆｼｶﾝｷﾁｮｳｶﾅｴ","pref":"兵庫県","city":"加古川市","address":"西神吉町鼎"},
{"zip_code":"6750045","kana_pref":"ﾋｮｳｺﾞｹﾝ","kana_city":"ｶｺｶﾞﾜｼ","kana_address":"ﾆｼｶﾝｷﾁｮｳｷｼ","pref":"兵庫県","city":"加古川市","address":"西神吉町岸"},
{"zip_code":"6750046","kana_pref":"ﾋｮｳｺﾞｹﾝ","kana_city":"ｶｺｶﾞﾜｼ","kana_address":"ﾆｼｶﾝｷﾁｮｳﾂｼﾞ","pref":"兵庫県","city":"加古川市","address":"西神吉町辻"},
{"zip_code":"6750043","kana_pref":"ﾋｮｳｺﾞｹﾝ","kana_city":"ｶｺｶﾞﾜｼ","kana_address":"ﾆｼｶﾝｷﾁｮｳﾅｶﾆｼ","pref":"兵庫県","city":"加古川市","address":"西神吉町中西"},
{"zip_code":"6750042","kana_pref":"ﾋｮｳｺﾞｹﾝ","kana_city":"ｶｺｶﾞﾜｼ","kana_address":"ﾆｼｶﾝｷﾁｮｳﾆｼﾑﾗ","pref":"兵庫県","city":"加古川市","address":"西神吉町西村"},
{"zip_code":"6750041","kana_pref":"ﾋｮｳｺﾞｹﾝ","kana_city":"ｶｺｶﾞﾜｼ","kana_address":"ﾆｼｶﾝｷﾁｮｳﾐﾔﾏｴ","pref":"兵庫県","city":"加古川市","address":"西神吉町宮前"},
{"zip_code":"6750011","kana_pref":"ﾋｮｳｺﾞｹﾝ","kana_city":"ｶｺｶﾞﾜｼ","kana_address":"ﾉｸﾞﾁﾁｮｳｷﾀﾉ","pref":"兵庫県","city":"加古川市","address":"野口町北野"},
{"zip_code":"6750015","kana_pref":"ﾋｮｳｺﾞｹﾝ","kana_city":"ｶｺｶﾞﾜｼ","kana_address":"ﾉｸﾞﾁﾁｮｳｻｶｲ","pref":"兵庫県","city":"加古川市","address":"野口町坂井"},
{"zip_code":"6750018","kana_pref":"ﾋｮｳｺﾞｹﾝ","kana_city":"ｶｺｶﾞﾜｼ","kana_address":"ﾉｸﾞﾁﾁｮｳｻｶﾓﾄ","pref":"兵庫県","city":"加古川市","address":"野口町坂元"},
{"zip_code":"6750010","kana_pref":"ﾋｮｳｺﾞｹﾝ","kana_city":"ｶｺｶﾞﾜｼ","kana_address":"ﾉｸﾞﾁﾁｮｳｻｶﾓﾄｷﾀ","pref":"兵庫県","city":"加古川市","address":"野口町坂元北"},
{"zip_code":"6750016","kana_pref":"ﾋｮｳｺﾞｹﾝ","kana_city":"ｶｺｶﾞﾜｼ","kana_address":"ﾉｸﾞﾁﾁｮｳﾅｶﾞｽﾅ","pref":"兵庫県","city":"加古川市","address":"野口町長砂"},
{"zip_code":"6750012","kana_pref":"ﾋｮｳｺﾞｹﾝ","kana_city":"ｶｺｶﾞﾜｼ","kana_address":"ﾉｸﾞﾁﾁｮｳﾉｸﾞﾁ","pref":"兵庫県","city":"加古川市","address":"野口町野口"},
{"zip_code":"6750013","kana_pref":"ﾋｮｳｺﾞｹﾝ","kana_city":"ｶｺｶﾞﾜｼ","kana_address":"ﾉｸﾞﾁﾁｮｳﾌﾀﾔ","pref":"兵庫県","city":"加古川市","address":"野口町二屋"},
{"zip_code":"6750014","kana_pref":"ﾋｮｳｺﾞｹﾝ","kana_city":"ｶｺｶﾞﾜｼ","kana_address":"ﾉｸﾞﾁﾁｮｳﾌﾙｵｳﾁ","pref":"兵庫県","city":"加古川市","address":"野口町古大内"},
{"zip_code":"6750019","kana_pref":"ﾋｮｳｺﾞｹﾝ","kana_city":"ｶｺｶﾞﾜｼ","kana_address":"ﾉｸﾞﾁﾁｮｳﾐｽﾞｱｼ","pref":"兵庫県","city":"加古川市","address":"野口町水足"},
{"zip_code":"6750017","kana_pref":"ﾋｮｳｺﾞｹﾝ","kana_city":"ｶｺｶﾞﾜｼ","kana_address":"ﾉｸﾞﾁﾁｮｳﾖｼﾉ","pref":"兵庫県","city":"加古川市","address":"野口町良野"},
{"zip_code":"6750058","kana_pref":"ﾋｮｳｺﾞｹﾝ","kana_city":"ｶｺｶﾞﾜｼ","kana_address":"ﾋｶﾞｼｶﾝｷﾁｮｳｱﾏｶﾞﾊﾗ","pref":"兵庫県","city":"加古川市","address":"東神吉町天下原"},
{"zip_code":"6750056","kana_pref":"ﾋｮｳｺﾞｹﾝ","kana_city":"ｶｺｶﾞﾜｼ","kana_address":"ﾋｶﾞｼｶﾝｷﾁｮｳｲｻﾍﾞ","pref":"兵庫県","city":"加古川市","address":"東神吉町砂部"},
{"zip_code":"6750057","kana_pref":"ﾋｮｳｺﾞｹﾝ","kana_city":"ｶｺｶﾞﾜｼ","kana_address":"ﾋｶﾞｼｶﾝｷﾁｮｳｶﾝｷ","pref":"兵庫県","city":"加古川市","address":"東神吉町神吉"},
{"zip_code":"6750052","kana_pref":"ﾋｮｳｺﾞｹﾝ","kana_city":"ｶｺｶﾞﾜｼ","kana_address":"ﾋｶﾞｼｶﾝｷﾁｮｳﾃﾞｶﾞﾊﾗ","pref":"兵庫県","city":"加古川市","address":"東神吉町出河原"},
{"zip_code":"6750055","kana_pref":"ﾋｮｳｺﾞｹﾝ","kana_city":"ｶｺｶﾞﾜｼ","kana_address":"ﾋｶﾞｼｶﾝｷﾁｮｳﾆｼｲﾉｸﾁ","pref":"兵庫県","city":"加古川市","address":"東神吉町西井ノ口"},
{"zip_code":"6750051","kana_pref":"ﾋｮｳｺﾞｹﾝ","kana_city":"ｶｺｶﾞﾜｼ","kana_address":"ﾋｶﾞｼｶﾝｷﾁｮｳﾏｽﾀﾞ","pref":"兵庫県","city":"加古川市","address":"東神吉町升田"},
{"zip_code":"6750115","kana_pref":"ﾋｮｳｺﾞｹﾝ","kana_city":"ｶｺｶﾞﾜｼ","kana_address":"ﾋﾗｵｶﾁｮｳｲｼｷ","pref":"兵庫県","city":"加古川市","address":"平岡町一色"},
{"zip_code":"6750116","kana_pref":"ﾋｮｳｺﾞｹﾝ","kana_city":"ｶｺｶﾞﾜｼ","kana_address":"ﾋﾗｵｶﾁｮｳｲｼｷﾋｶﾞｼ","pref":"兵庫県","city":"加古川市","address":"平岡町一色東"},
{"zip_code":"6750117","kana_pref":"ﾋｮｳｺﾞｹﾝ","kana_city":"ｶｺｶﾞﾜｼ","kana_address":"ﾋﾗｵｶﾁｮｳｲｼｷﾆｼ","pref":"兵庫県","city":"加古川市","address":"平岡町一色西"},
{"zip_code":"6750101","kana_pref":"ﾋｮｳｺﾞｹﾝ","kana_city":"ｶｺｶﾞﾜｼ","kana_address":"ﾋﾗｵｶﾁｮｳｼﾝｻﾞｲｹ","pref":"兵庫県","city":"加古川市","address":"平岡町新在家"},
{"zip_code":"6750103","kana_pref":"ﾋｮｳｺﾞｹﾝ","kana_city":"ｶｺｶﾞﾜｼ","kana_address":"ﾋﾗｵｶﾁｮｳﾀｶﾊﾀ","pref":"兵庫県","city":"加古川市","address":"平岡町高畑"},
{"zip_code":"6750104","kana_pref":"ﾋｮｳｺﾞｹﾝ","kana_city":"ｶｺｶﾞﾜｼ","kana_address":"ﾋﾗｵｶﾁｮｳﾂﾁﾔﾏ","pref":"兵庫県","city":"加古川市","address":"平岡町土山"},
{"zip_code":"6750105","kana_pref":"ﾋｮｳｺﾞｹﾝ","kana_city":"ｶｺｶﾞﾜｼ","kana_address":"ﾋﾗｵｶﾁｮｳﾂﾂｼﾞﾉ","pref":"兵庫県","city":"加古川市","address":"平岡町つつじ野"},
{"zip_code":"6750113","kana_pref":"ﾋｮｳｺﾞｹﾝ","kana_city":"ｶｺｶﾞﾜｼ","kana_address":"ﾋﾗｵｶﾁｮｳﾅｶﾉ","pref":"兵庫県","city":"加古川市","address":"平岡町中野"},
{"zip_code":"6750102","kana_pref":"ﾋｮｳｺﾞｹﾝ","kana_city":"ｶｺｶﾞﾜｼ","kana_address":"ﾋﾗｵｶﾁｮｳﾆｼﾀﾆ","pref":"兵庫県","city":"加古川市","address":"平岡町西谷"},
{"zip_code":"6750114","kana_pref":"ﾋｮｳｺﾞｹﾝ","kana_city":"ｶｺｶﾞﾜｼ","kana_address":"ﾋﾗｵｶﾁｮｳﾊｯﾀﾝﾀﾞ","pref":"兵庫県","city":"加古川市","address":"平岡町八反田"},
{"zip_code":"6750111","kana_pref":"ﾋｮｳｺﾞｹﾝ","kana_city":"ｶｺｶﾞﾜｼ","kana_address":"ﾋﾗｵｶﾁｮｳﾌﾀﾏﾀ","pref":"兵庫県","city":"加古川市","address":"平岡町二俣"},
{"zip_code":"6750112","kana_pref":"ﾋｮｳｺﾞｹﾝ","kana_city":"ｶｺｶﾞﾜｼ","kana_address":"ﾋﾗｵｶﾁｮｳﾔﾏﾉｳｴ","pref":"兵庫県","city":"加古川市","address":"平岡町山之上"},
{"zip_code":"6751233","kana_pref":"ﾋｮｳｺﾞｹﾝ","kana_city":"ｶｺｶﾞﾜｼ","kana_address":"ﾍｲｿｳﾁｮｳｲｹｼﾞﾘ","pref":"兵庫県","city":"加古川市","address":"平荘町池尻"},
{"zip_code":"6751236","kana_pref":"ﾋｮｳｺﾞｹﾝ","kana_city":"ｶｺｶﾞﾜｼ","kana_address":"ﾍｲｿｳﾁｮｳｲｯﾎﾟﾝﾏﾂ","pref":"兵庫県","city":"加古川市","address":"平荘町一本松"},
{"zip_code":"6751226","kana_pref":"ﾋｮｳｺﾞｹﾝ","kana_city":"ｶｺｶﾞﾜｼ","kana_address":"ﾍｲｿｳﾁｮｳｲﾜｵ","pref":"兵庫県","city":"加古川市","address":"平荘町磐"},
{"zip_code":"6751224","kana_pref":"ﾋｮｳｺﾞｹﾝ","kana_city":"ｶｺｶﾞﾜｼ","kana_address":"ﾍｲｿｳﾁｮｳｶﾐﾊﾗ","pref":"兵庫県","city":"加古川市","address":"平荘町上原"},
{"zip_code":"6751222","kana_pref":"ﾋｮｳｺﾞｹﾝ","kana_city":"ｶｺｶﾞﾜｼ","kana_address":"ﾍｲｿｳﾁｮｳｺｳｷﾞ","pref":"兵庫県","city":"加古川市","address":"平荘町神木"},
{"zip_code":"6751235","kana_pref":"ﾋｮｳｺﾞｹﾝ","kana_city":"ｶｺｶﾞﾜｼ","kana_address":"ﾍｲｿｳﾁｮｳｺﾊﾞﾀ","pref":"兵庫県","city":"加古川市","address":"平荘町小畑"},
{"zip_code":"6751232","kana_pref":"ﾋｮｳｺﾞｹﾝ","kana_city":"ｶｺｶﾞﾜｼ","kana_address":"ﾍｲｿｳﾁｮｳｻﾄ","pref":"兵庫県","city":"加古川市","address":"平荘町里"},
{"zip_code":"6751223","kana_pref":"ﾋｮｳｺﾞｹﾝ","kana_city":"ｶｺｶﾞﾜｼ","kana_address":"ﾍｲｿｳﾁｮｳｼﾝﾅｶﾔﾏ","pref":"兵庫県","city":"加古川市","address":"平荘町新中山"},
{"zip_code":"6751225","kana_pref":"ﾋｮｳｺﾞｹﾝ","kana_city":"ｶｺｶﾞﾜｼ","kana_address":"ﾍｲｿｳﾁｮｳﾅｶﾔﾏ","pref":"兵庫県","city":"加古川市","address":"平荘町中山"},
{"zip_code":"6751234","kana_pref":"ﾋｮｳｺﾞｹﾝ","kana_city":"ｶｺｶﾞﾜｼ","kana_address":"ﾍｲｿｳﾁｮｳﾆｼﾔﾏ","pref":"兵庫県","city":"加古川市","address":"平荘町西山"},
{"zip_code":"6751221","kana_pref":"ﾋｮｳｺﾞｹﾝ","kana_city":"ｶｺｶﾞﾜｼ","kana_address":"ﾍｲｿｳﾁｮｳﾔﾏｶﾄﾞ","pref":"兵庫県","city":"加古川市","address":"平荘町山角"},
{"zip_code":"6751231","kana_pref":"ﾋｮｳｺﾞｹﾝ","kana_city":"ｶｺｶﾞﾜｼ","kana_address":"ﾍｲｿｳﾁｮｳﾖｳﾛｳ","pref":"兵庫県","city":"加古川市","address":"平荘町養老"},
{"zip_code":"6750123","kana_pref":"ﾋｮｳｺﾞｹﾝ","kana_city":"ｶｺｶﾞﾜｼ","kana_address":"ﾍﾞﾌﾁｮｳｱｻﾋﾏﾁ","pref":"兵庫県","city":"加古川市","address":"別府町朝日町"},
{"zip_code":"6750127","kana_pref":"ﾋｮｳｺﾞｹﾝ","kana_city":"ｶｺｶﾞﾜｼ","kana_address":"ﾍﾞﾌﾁｮｳｲｼﾏﾁ","pref":"兵庫県","city":"加古川市","address":"別府町石町"},
{"zip_code":"6750131","kana_pref":"ﾋｮｳｺﾞｹﾝ","kana_city":"ｶｺｶﾞﾜｼ","kana_address":"ﾍﾞﾌﾁｮｳｼﾉﾍﾞ","pref":"兵庫県","city":"加古川市","address":"別府町新野辺"},
{"zip_code":"6750121","kana_pref":"ﾋｮｳｺﾞｹﾝ","kana_city":"ｶｺｶﾞﾜｼ","kana_address":"ﾍﾞﾌﾁｮｳｼﾉﾍﾞｷﾀﾏﾁ","pref":"兵庫県","city":"加古川市","address":"別府町新野辺北町"},
{"zip_code":"6750128","kana_pref":"ﾋｮｳｺﾞｹﾝ","kana_city":"ｶｺｶﾞﾜｼ","kana_address":"ﾍﾞﾌﾁｮｳﾅｶｼﾏﾏﾁ","pref":"兵庫県","city":"加古川市","address":"別府町中島町"},
{"zip_code":"6750133","kana_pref":"ﾋｮｳｺﾞｹﾝ","kana_city":"ｶｺｶﾞﾜｼ","kana_address":"ﾍﾞﾌﾁｮｳﾆｼﾏﾁ","pref":"兵庫県","city":"加古川市","address":"別府町西町"},
{"zip_code":"6750125","kana_pref":"ﾋｮｳｺﾞｹﾝ","kana_city":"ｶｺｶﾞﾜｼ","kana_address":"ﾍﾞﾌﾁｮｳﾆｼﾜｷ","pref":"兵庫県","city":"加古川市","address":"別府町西脇"},
{"zip_code":"6750135","kana_pref":"ﾋｮｳｺﾞｹﾝ","kana_city":"ｶｺｶﾞﾜｼ","kana_address":"ﾍﾞﾌﾁｮｳﾋｶﾞｼﾏﾁ","pref":"兵庫県","city":"加古川市","address":"別府町東町"},
{"zip_code":"6750122","kana_pref":"ﾋｮｳｺﾞｹﾝ","kana_city":"ｶｺｶﾞﾜｼ","kana_address":"ﾍﾞﾌﾁｮｳﾍﾞﾌ","pref":"兵庫県","city":"加古川市","address":"別府町別府"},
{"zip_code":"6750126","kana_pref":"ﾋｮｳｺﾞｹﾝ","kana_city":"ｶｺｶﾞﾜｼ","kana_address":"ﾍﾞﾌﾁｮｳﾎﾝﾏﾁ","pref":"兵庫県","city":"加古川市","address":"別府町本町"},
{"zip_code":"6750124","kana_pref":"ﾋｮｳｺﾞｹﾝ","kana_city":"ｶｺｶﾞﾜｼ","kana_address":"ﾍﾞﾌﾁｮｳﾐﾄﾞﾘﾏﾁ","pref":"兵庫県","city":"加古川市","address":"別府町緑町"},
{"zip_code":"6750136","kana_pref":"ﾋｮｳｺﾞｹﾝ","kana_city":"ｶｺｶﾞﾜｼ","kana_address":"ﾍﾞﾌﾁｮｳﾐﾅﾄﾏﾁ","pref":"兵庫県","city":"加古川市","address":"別府町港町"},
{"zip_code":"6750132","kana_pref":"ﾋｮｳｺﾞｹﾝ","kana_city":"ｶｺｶﾞﾜｼ","kana_address":"ﾍﾞﾌﾁｮｳﾐﾔﾃﾞﾝﾏﾁ","pref":"兵庫県","city":"加古川市","address":"別府町宮田町"},
{"zip_code":"6750134","kana_pref":"ﾋｮｳｺﾞｹﾝ","kana_city":"ｶｺｶﾞﾜｼ","kana_address":"ﾍﾞﾌﾁｮｳﾓﾄﾏﾁ","pref":"兵庫県","city":"加古川市","address":"別府町元町"},
{"zip_code":"6751204","kana_pref":"ﾋｮｳｺﾞｹﾝ","kana_city":"ｶｺｶﾞﾜｼ","kana_address":"ﾔﾊﾀﾁｮｳｶﾐｻｲｼﾞｮｳ","pref":"兵庫県","city":"加古川市","address":"八幡町上西条"},
{"zip_code":"6751203","kana_pref":"ﾋｮｳｺﾞｹﾝ","kana_city":"ｶｺｶﾞﾜｼ","kana_address":"ﾔﾊﾀﾁｮｳｼﾓﾑﾗ","pref":"兵庫県","city":"加古川市","address":"八幡町下村"},
{"zip_code":"6751201","kana_pref":"ﾋｮｳｺﾞｹﾝ","kana_city":"ｶｺｶﾞﾜｼ","kana_address":"ﾔﾊﾀﾁｮｳｿｳｻ","pref":"兵庫県","city":"加古川市","address":"八幡町宗佐"},
{"zip_code":"6751205","kana_pref":"ﾋｮｳｺﾞｹﾝ","kana_city":"ｶｺｶﾞﾜｼ","kana_address":"ﾔﾊﾀﾁｮｳﾅｶｻｲｼﾞｮｳ","pref":"兵庫県","city":"加古川市","address":"八幡町中西条"},
{"zip_code":"6751202","kana_pref":"ﾋｮｳｺﾞｹﾝ","kana_city":"ｶｺｶﾞﾜｼ","kana_address":"ﾔﾊﾀﾁｮｳﾉﾑﾗ","pref":"兵庫県","city":"加古川市","address":"八幡町野村"},
{"zip_code":"6751206","kana_pref":"ﾋｮｳｺﾞｹﾝ","kana_city":"ｶｺｶﾞﾜｼ","kana_address":"ﾔﾊﾀﾁｮｳﾌﾅﾏﾁ","pref":"兵庫県","city":"加古川市","address":"八幡町船町"},
{"zip_code":"6750002","kana_pref":"ﾋｮｳｺﾞｹﾝ","kana_city":"ｶｺｶﾞﾜｼ","kana_address":"ﾔﾏﾃ","pref":"兵庫県","city":"加古川市","address":"山手"},
{"zip_code":"6750053","kana_pref":"ﾋｮｳｺﾞｹﾝ","kana_city":"ｶｺｶﾞﾜｼ","kana_address":"ﾖﾈﾀﾞﾁｮｳｾﾝﾄﾞｳ","pref":"兵庫県","city":"加古川市","address":"米田町船頭"},
{"zip_code":"6750054","kana_pref":"ﾋｮｳｺﾞｹﾝ","kana_city":"ｶｺｶﾞﾜｼ","kana_address":"ﾖﾈﾀﾞﾁｮｳﾋﾗﾂ","pref":"兵庫県","city":"加古川市","address":"米田町平津"},
{"zip_code":"6751300","kana_pref":"ﾋｮｳｺﾞｹﾝ","kana_city":"ｵﾉｼ","kana_address":"","pref":"兵庫県","city":"小野市","address":""},
{"zip_code":"6751358","kana_pref":"ﾋｮｳｺﾞｹﾝ","kana_city":"ｵﾉｼ","kana_address":"ｱｵﾁｮｳ","pref":"兵庫県","city":"小野市","address":"粟生町"},
{"zip_code":"6751352","kana_pref":"ﾋｮｳｺﾞｹﾝ","kana_city":"ｵﾉｼ","kana_address":"ｱｵﾉｶﾞﾊﾗﾁｮｳ","pref":"兵庫県","city":"小野市","address":"青野ケ原町"},
{"zip_code":"6751342","kana_pref":"ﾋｮｳｺﾞｹﾝ","kana_city":"ｵﾉｼ","kana_address":"ｱｶﾞﾀﾁｮｳ","pref":"兵庫県","city":"小野市","address":"阿形町"},
{"zip_code":"6751356","kana_pref":"ﾋｮｳｺﾞｹﾝ","kana_city":"ｵﾉｼ","kana_address":"ｱｻﾋﾁｮｳ","pref":"兵庫県","city":"小野市","address":"旭町"},
{"zip_code":"6751324","kana_pref":"ﾋｮｳｺﾞｹﾝ","kana_city":"ｵﾉｼ","kana_address":"ｲｸｶﾞｵｶﾁｮｳ","pref":"兵庫県","city":"小野市","address":"育ケ丘町"},
{"zip_code":"6751326","kana_pref":"ﾋｮｳｺﾞｹﾝ","kana_city":"ｵﾉｼ","kana_address":"ｲｹｼﾞﾘﾁｮｳ","pref":"兵庫県","city":"小野市","address":"池尻町"},
{"zip_code":"6751303","kana_pref":"ﾋｮｳｺﾞｹﾝ","kana_city":"ｵﾉｼ","kana_address":"ｲｹﾀﾞﾁｮｳ","pref":"兵庫県","city":"小野市","address":"池田町"},
{"zip_code":"6751327","kana_pref":"ﾋｮｳｺﾞｹﾝ","kana_city":"ｵﾉｼ","kana_address":"ｲﾁﾊﾞﾁｮｳ","pref":"兵庫県","city":"小野市","address":"市場町"},
{"zip_code":"6751378","kana_pref":"ﾋｮｳｺﾞｹﾝ","kana_city":"ｵﾉｼ","kana_address":"ｵｳｼﾞﾁｮｳ","pref":"兵庫県","city":"小野市","address":"王子町"},
{"zip_code":"6751334","kana_pref":"ﾋｮｳｺﾞｹﾝ","kana_city":"ｵﾉｼ","kana_address":"ｵｵｼﾏﾁｮｳ","pref":"兵庫県","city":"小野市","address":"大島町"},
{"zip_code":"6751301","kana_pref":"ﾋｮｳｺﾞｹﾝ","kana_city":"ｵﾉｼ","kana_address":"ｵﾀﾞﾁｮｳ","pref":"兵庫県","city":"小野市","address":"小田町"},
{"zip_code":"6751325","kana_pref":"ﾋｮｳｺﾞｹﾝ","kana_city":"ｵﾉｼ","kana_address":"ｶｼﾔﾏﾁｮｳ","pref":"兵庫県","city":"小野市","address":"樫山町"},
{"zip_code":"6751335","kana_pref":"ﾋｮｳｺﾞｹﾝ","kana_city":"ｵﾉｼ","kana_address":"ｶﾀﾔﾏﾁｮｳ","pref":"兵庫県","city":"小野市","address":"片山町"},
{"zip_code":"6751364","kana_pref":"ﾋｮｳｺﾞｹﾝ","kana_city":"ｵﾉｼ","kana_address":"ｶﾉﾁｮｳ","pref":"兵庫県","city":"小野市","address":"鹿野町"},
{"zip_code":"6751378","kana_pref":"ﾋｮｳｺﾞｹﾝ","kana_city":"ｵﾉｼ","kana_address":"ｶﾐｼﾝﾏﾁ","pref":"兵庫県","city":"小野市","address":"上新町"},
{"zip_code":"6751379","kana_pref":"ﾋｮｳｺﾞｹﾝ","kana_city":"ｵﾉｼ","kana_address":"ｶﾐﾎﾝﾏﾁ","pref":"兵庫県","city":"小野市","address":"上本町"},
{"zip_code":"6751353","kana_pref":"ﾋｮｳｺﾞｹﾝ","kana_city":"ｵﾉｼ","kana_address":"ｶﾜｲﾅｶﾁｮｳ","pref":"兵庫県","city":"小野市","address":"河合中町"},
{"zip_code":"6751354","kana_pref":"ﾋｮｳｺﾞｹﾝ","kana_city":"ｵﾉｼ","kana_address":"ｶﾜｲﾆｼﾁｮｳ","pref":"兵庫県","city":"小野市","address":"河合西町"},
{"zip_code":"6751343","kana_pref":"ﾋｮｳｺﾞｹﾝ","kana_city":"ｵﾉｼ","kana_address":"ｷｼﾁｮｳ","pref":"兵庫県","city":"小野市","address":"来住町"},
{"zip_code":"6751318","kana_pref":"ﾋｮｳｺﾞｹﾝ","kana_city":"ｵﾉｼ","kana_address":"ｷﾀｵｶﾁｮｳ","pref":"兵庫県","city":"小野市","address":"北丘町"},
{"zip_code":"6751360","kana_pref":"ﾋｮｳｺﾞｹﾝ","kana_city":"ｵﾉｼ","kana_address":"ｷﾀﾁｮｳ","pref":"兵庫県","city":"小野市","address":"喜多町"},
{"zip_code":"6751345","kana_pref":"ﾋｮｳｺﾞｹﾝ","kana_city":"ｵﾉｼ","kana_address":"ｷﾋﾞﾀﾁｮｳ","pref":"兵庫県","city":"小野市","address":"黍田町"},
{"zip_code":"6751317","kana_pref":"ﾋｮｳｺﾞｹﾝ","kana_city":"ｵﾉｼ","kana_address":"ｷﾖﾀﾆﾁｮｳ","pref":"兵庫県","city":"小野市","address":"浄谷町"},
{"zip_code":"6751362","kana_pref":"ﾋｮｳｺﾞｹﾝ","kana_city":"ｵﾉｼ","kana_address":"ｸﾎﾞｷﾁｮｳ","pref":"兵庫県","city":"小野市","address":"久保木町"},
{"zip_code":"6751337","kana_pref":"ﾋｮｳｺﾞｹﾝ","kana_city":"ｵﾉｼ","kana_address":"ｸﾓﾁｮｳ","pref":"兵庫県","city":"小野市","address":"久茂町"},
{"zip_code":"6751371","kana_pref":"ﾋｮｳｺﾞｹﾝ","kana_city":"ｵﾉｼ","kana_address":"ｸﾛｶﾜﾁｮｳ","pref":"兵庫県","city":"小野市","address":"黒川町"},
{"zip_code":"6751365","kana_pref":"ﾋｮｳｺﾞｹﾝ","kana_city":"ｵﾉｼ","kana_address":"ｺｳﾄﾞﾁｮｳ","pref":"兵庫県","city":"小野市","address":"広渡町"},
{"zip_code":"6751312","kana_pref":"ﾋｮｳｺﾞｹﾝ","kana_city":"ｵﾉｼ","kana_address":"ｻｶｴﾁｮｳ","pref":"兵庫県","city":"小野市","address":"栄町"},
{"zip_code":"6751323","kana_pref":"ﾋｮｳｺﾞｹﾝ","kana_city":"ｵﾉｼ","kana_address":"ｻｶﾞｷﾁｮｳ","pref":"兵庫県","city":"小野市","address":"榊町"},
{"zip_code":"6751351","kana_pref":"ﾋｮｳｺﾞｹﾝ","kana_city":"ｵﾉｼ","kana_address":"ｻｸﾗﾀﾞｲ","pref":"兵庫県","city":"小野市","address":"桜台"},
{"zip_code":"6751367","kana_pref":"ﾋｮｳｺﾞｹﾝ","kana_city":"ｵﾉｼ","kana_address":"ｼｷｼﾞﾁｮｳ","pref":"兵庫県","city":"小野市","address":"敷地町"},
{"zip_code":"6751336","kana_pref":"ﾋｮｳｺﾞｹﾝ","kana_city":"ｵﾉｼ","kana_address":"ｼﾓｵｵﾍﾞﾁｮｳ","pref":"兵庫県","city":"小野市","address":"下大部町"},
{"zip_code":"6751344","kana_pref":"ﾋｮｳｺﾞｹﾝ","kana_city":"ｵﾉｼ","kana_address":"ｼﾓｷｼﾁｮｳ","pref":"兵庫県","city":"小野市","address":"下来住町"},
{"zip_code":"6751359","kana_pref":"ﾋｮｳｺﾞｹﾝ","kana_city":"ｵﾉｼ","kana_address":"ｼｮｳﾜﾁｮｳ","pref":"兵庫県","city":"小野市","address":"昭和町"},
{"zip_code":"6751355","kana_pref":"ﾋｮｳｺﾞｹﾝ","kana_city":"ｵﾉｼ","kana_address":"ｼﾝﾍﾞﾁｮｳ","pref":"兵庫県","city":"小野市","address":"新部町"},
{"zip_code":"6751331","kana_pref":"ﾋｮｳｺﾞｹﾝ","kana_city":"ｵﾉｼ","kana_address":"ｼﾝﾒｲﾁｮｳ","pref":"兵庫県","city":"小野市","address":"神明町"},
{"zip_code":"6751307","kana_pref":"ﾋｮｳｺﾞｹﾝ","kana_city":"ｵﾉｼ","kana_address":"ｽｶﾞﾀﾁｮｳ","pref":"兵庫県","city":"小野市","address":"菅田町"},
{"zip_code":"6751368","kana_pref":"ﾋｮｳｺﾞｹﾝ","kana_city":"ｵﾉｼ","kana_address":"ｽﾐﾅｶﾞﾁｮｳ","pref":"兵庫県","city":"小野市","address":"住永町"},
{"zip_code":"6751361","kana_pref":"ﾋｮｳｺﾞｹﾝ","kana_city":"ｵﾉｼ","kana_address":"ｽﾐﾖｼﾁｮｳ","pref":"兵庫県","city":"小野市","address":"住吉町"},
{"zip_code":"6751302","kana_pref":"ﾋｮｳｺﾞｹﾝ","kana_city":"ｵﾉｼ","kana_address":"ｿﾈﾁｮｳ","pref":"兵庫県","city":"小野市","address":"曽根町"},
{"zip_code":"6751313","kana_pref":"ﾋｮｳｺﾞｹﾝ","kana_city":"ｵﾉｼ","kana_address":"ﾀﾞｲｶｲﾁｮｳ","pref":"兵庫県","city":"小野市","address":"大開町"},
{"zip_code":"6751369","kana_pref":"ﾋｮｳｺﾞｹﾝ","kana_city":"ｵﾉｼ","kana_address":"ﾀｶﾀﾁｮｳ","pref":"兵庫県","city":"小野市","address":"高田町"},
{"zip_code":"6751362","kana_pref":"ﾋｮｳｺﾞｹﾝ","kana_city":"ｵﾉｼ","kana_address":"ﾀｶﾔﾏﾁｮｳ","pref":"兵庫県","city":"小野市","address":"高山町"},
{"zip_code":"6751322","kana_pref":"ﾋｮｳｺﾞｹﾝ","kana_city":"ｵﾉｼ","kana_address":"ﾀｸﾐﾀﾞｲ","pref":"兵庫県","city":"小野市","address":"匠台"},
{"zip_code":"6751333","kana_pref":"ﾋｮｳｺﾞｹﾝ","kana_city":"ｵﾉｼ","kana_address":"ﾀﾙｲﾁｮｳ","pref":"兵庫県","city":"小野市","address":"垂井町"},
{"zip_code":"6751338","kana_pref":"ﾋｮｳｺﾞｹﾝ","kana_city":"ｵﾉｼ","kana_address":"ﾃﾞﾝｴﾝﾁｮｳ","pref":"兵庫県","city":"小野市","address":"田園町"},
{"zip_code":"6751316","kana_pref":"ﾋｮｳｺﾞｹﾝ","kana_city":"ｵﾉｼ","kana_address":"ﾃﾝｼﾞﾝﾁｮｳ","pref":"兵庫県","city":"小野市","address":"天神町"},
{"zip_code":"6751366","kana_pref":"ﾋｮｳｺﾞｹﾝ","kana_city":"ｵﾉｼ","kana_address":"ﾅｶｼﾏﾁｮｳ","pref":"兵庫県","city":"小野市","address":"中島町"},
{"zip_code":"6751304","kana_pref":"ﾋｮｳｺﾞｹﾝ","kana_city":"ｵﾉｼ","kana_address":"ﾅｶﾀﾆﾁｮｳ","pref":"兵庫県","city":"小野市","address":"中谷町"},
{"zip_code":"6751332","kana_pref":"ﾋｮｳｺﾞｹﾝ","kana_city":"ｵﾉｼ","kana_address":"ﾅｶﾁｮｳ","pref":"兵庫県","city":"小野市","address":"中町"},
{"zip_code":"6751308","kana_pref":"ﾋｮｳｺﾞｹﾝ","kana_city":"ｵﾉｼ","kana_address":"ﾅｶﾊﾞﾝﾁｮｳ","pref":"兵庫県","city":"小野市","address":"中番町"},
{"zip_code":"6751314","kana_pref":"ﾋｮｳｺﾞｹﾝ","kana_city":"ｵﾉｼ","kana_address":"ﾅｶﾞｵﾁｮｳ","pref":"兵庫県","city":"小野市","address":"長尾町"},
{"zip_code":"6751375","kana_pref":"ﾋｮｳｺﾞｹﾝ","kana_city":"ｵﾉｼ","kana_address":"ﾆｼﾎﾝﾏﾁ","pref":"兵庫県","city":"小野市","address":"西本町"},
{"zip_code":"6751352","kana_pref":"ﾋｮｳｺﾞｹﾝ","kana_city":"ｵﾉｼ","kana_address":"ﾆｼﾔﾏﾁｮｳ","pref":"兵庫県","city":"小野市","address":"西山町"},
{"zip_code":"6751341","kana_pref":"ﾋｮｳｺﾞｹﾝ","kana_city":"ｵﾉｼ","kana_address":"ﾆｼﾜｷﾁｮｳ","pref":"兵庫県","city":"小野市","address":"西脇町"},
{"zip_code":"6751377","kana_pref":"ﾋｮｳｺﾞｹﾝ","kana_city":"ｵﾉｼ","kana_address":"ﾊﾀﾁｮｳ","pref":"兵庫県","city":"小野市","address":"葉多町"},
{"zip_code":"6751373","kana_pref":"ﾋｮｳｺﾞｹﾝ","kana_city":"ｵﾉｼ","kana_address":"ﾋｶﾞｼﾎﾝﾏﾁ","pref":"兵庫県","city":"小野市","address":"東本町"},
{"zip_code":"6751315","kana_pref":"ﾋｮｳｺﾞｹﾝ","kana_city":"ｵﾉｼ","kana_address":"ﾋﾖｼﾁｮｳ","pref":"兵庫県","city":"小野市","address":"日吉町"},
{"zip_code":"6751352","kana_pref":"ﾋｮｳｺﾞｹﾝ","kana_city":"ｵﾉｼ","kana_address":"ﾌｸｲﾁｮｳ","pref":"兵庫県","city":"小野市","address":"復井町"},
{"zip_code":"6751309","kana_pref":"ﾋｮｳｺﾞｹﾝ","kana_city":"ｵﾉｼ","kana_address":"ﾌｸｽﾞﾐﾁｮｳ","pref":"兵庫県","city":"小野市","address":"福住町"},
{"zip_code":"6751346","kana_pref":"ﾋｮｳｺﾞｹﾝ","kana_city":"ｵﾉｼ","kana_address":"ﾌｸﾃﾞﾝﾁｮｳ","pref":"兵庫県","city":"小野市","address":"福甸町"},
{"zip_code":"6751328","kana_pref":"ﾋｮｳｺﾞｹﾝ","kana_city":"ｵﾉｼ","kana_address":"ﾌﾀﾊﾞﾁｮｳ","pref":"兵庫県","city":"小野市","address":"二葉町"},
{"zip_code":"6751306","kana_pref":"ﾋｮｳｺﾞｹﾝ","kana_city":"ｵﾉｼ","kana_address":"ﾌﾅｷﾁｮｳ","pref":"兵庫県","city":"小野市","address":"船木町"},
{"zip_code":"6751363","kana_pref":"ﾋｮｳｺﾞｹﾝ","kana_city":"ｵﾉｼ","kana_address":"ﾌﾙｶﾜﾁｮｳ","pref":"兵庫県","city":"小野市","address":"古川町"},
{"zip_code":"6751374","kana_pref":"ﾋｮｳｺﾞｹﾝ","kana_city":"ｵﾉｼ","kana_address":"ﾎﾝﾏﾁ","pref":"兵庫県","city":"小野市","address":"本町"},
{"zip_code":"6751372","kana_pref":"ﾋｮｳｺﾞｹﾝ","kana_city":"ｵﾉｼ","kana_address":"ﾎﾝﾏﾁ","pref":"兵庫県","city":"小野市","address":"本町"},
{"zip_code":"6751376","kana_pref":"ﾋｮｳｺﾞｹﾝ","kana_city":"ｵﾉｼ","kana_address":"ﾏﾙﾔﾏﾁｮｳ","pref":"兵庫県","city":"小野市","address":"丸山町"},
{"zip_code":"6751311","kana_pref":"ﾋｮｳｺﾞｹﾝ","kana_city":"ｵﾉｼ","kana_address":"ﾏﾝｼｮｳｼﾞﾁｮｳ","pref":"兵庫県","city":"小野市","address":"万勝寺町"},
{"zip_code":"6751350","kana_pref":"ﾋｮｳｺﾞｹﾝ","kana_city":"ｵﾉｼ","kana_address":"ﾐﾅﾐｱｵﾉﾁｮｳ","pref":"兵庫県","city":"小野市","address":"南青野町"},
{"zip_code":"6751357","kana_pref":"ﾋｮｳｺﾞｹﾝ","kana_city":"ｵﾉｼ","kana_address":"ﾐﾜﾁｮｳ","pref":"兵庫県","city":"小野市","address":"三和町"},
{"zip_code":"6751321","kana_pref":"ﾋｮｳｺﾞｹﾝ","kana_city":"ｵﾉｼ","kana_address":"ﾔﾏﾀﾞﾁｮｳ","pref":"兵庫県","city":"小野市","address":"山田町"},
{"zip_code":"6751305","kana_pref":"ﾋｮｳｺﾞｹﾝ","kana_city":"ｵﾉｼ","kana_address":"ﾜｷﾓﾄﾁｮｳ","pref":"兵庫県","city":"小野市","address":"脇本町"},
{"zip_code":"6750000","kana_pref":"ﾋｮｳｺﾞｹﾝ","kana_city":"ｶｻｲｼ","kana_address":"","pref":"兵庫県","city":"加西市","address":""},
{"zip_code":"6752413","kana_pref":"ﾋｮｳｺﾞｹﾝ","kana_city":"ｶｻｲｼ","kana_address":"ｱｵﾉﾁｮｳ","pref":"兵庫県","city":"加西市","address":"青野町"},
{"zip_code":"6752113","kana_pref":"ﾋｮｳｺﾞｹﾝ","kana_city":"ｶｻｲｼ","kana_address":"ｱﾋﾞｷﾁｮｳ","pref":"兵庫県","city":"加西市","address":"網引町"},
{"zip_code":"6752425","kana_pref":"ﾋｮｳｺﾞｹﾝ","kana_city":"ｶｻｲｼ","kana_address":"ｲｹｶﾞﾐﾁｮｳ","pref":"兵庫県","city":"加西市","address":"池上町"},
{"zip_code":"6752423","kana_pref":"ﾋｮｳｺﾞｹﾝ","kana_city":"ｶｻｲｼ","kana_address":"ｲｽﾞﾐﾁｮｳ","pref":"兵庫県","city":"加西市","address":"和泉町"},
{"zip_code":"6752337","kana_pref":"ﾋｮｳｺﾞｹﾝ","kana_city":"ｶｻｲｼ","kana_address":"ｲﾁﾑﾗﾁｮｳ","pref":"兵庫県","city":"加西市","address":"市村町"},
{"zip_code":"6752434","kana_pref":"ﾋｮｳｺﾞｹﾝ","kana_city":"ｶｻｲｼ","kana_address":"ｳｴﾉﾁｮｳ","pref":"兵庫県","city":"加西市","address":"上野町"},
{"zip_code":"6752203","kana_pref":"ﾋｮｳｺﾞｹﾝ","kana_city":"ｶｻｲｼ","kana_address":"ｳｼｲﾁｮｳ","pref":"兵庫県","city":"加西市","address":"牛居町"},
{"zip_code":"6752103","kana_pref":"ﾋｮｳｺﾞｹﾝ","kana_city":"ｶｻｲｼ","kana_address":"ｳｽﾞﾗﾉﾁｮｳ","pref":"兵庫県","city":"加西市","address":"鶉野町"},
{"zip_code":"6752441","kana_pref":"ﾋｮｳｺﾞｹﾝ","kana_city":"ｶｻｲｼ","kana_address":"ｳﾃﾐﾁｮｳ","pref":"兵庫県","city":"加西市","address":"越水町"},
{"zip_code":"6752231","kana_pref":"ﾋｮｳｺﾞｹﾝ","kana_city":"ｶｻｲｼ","kana_address":"ｵｳｼﾞﾁｮｳ","pref":"兵庫県","city":"加西市","address":"王子町"},
{"zip_code":"6752455","kana_pref":"ﾋｮｳｺﾞｹﾝ","kana_city":"ｶｻｲｼ","kana_address":"ｵｵﾁﾁｮｳ","pref":"兵庫県","city":"加西市","address":"大内町"},
{"zip_code":"6752234","kana_pref":"ﾋｮｳｺﾞｹﾝ","kana_city":"ｶｻｲｼ","kana_address":"ｵｵﾑﾗﾁｮｳ","pref":"兵庫県","city":"加西市","address":"大村町"},
{"zip_code":"6752242","kana_pref":"ﾋｮｳｺﾞｹﾝ","kana_city":"ｶｻｲｼ","kana_address":"ｵｻｷﾁｮｳ","pref":"兵庫県","city":"加西市","address":"尾崎町"},
{"zip_code":"6752344","kana_pref":"ﾋｮｳｺﾞｹﾝ","kana_city":"ｶｻｲｼ","kana_address":"ｵﾔﾅｷﾞﾁｮｳ","pref":"兵庫県","city":"加西市","address":"大柳町"},
{"zip_code":"6752412","kana_pref":"ﾋｮｳｺﾞｹﾝ","kana_city":"ｶｻｲｼ","kana_address":"ｶｼﾞﾔﾁｮｳ","pref":"兵庫県","city":"加西市","address":"鍛治屋町"},
{"zip_code":"6752465","kana_pref":"ﾋｮｳｺﾞｹﾝ","kana_city":"ｶｻｲｼ","kana_address":"ｶﾐｹﾞﾀﾁｮｳ","pref":"兵庫県","city":"加西市","address":"上芥田町"},
{"zip_code":"6752451","kana_pref":"ﾋｮｳｺﾞｹﾝ","kana_city":"ｶｻｲｼ","kana_address":"ｶﾐﾏﾝｶﾞﾝｼﾞﾁｮｳ","pref":"兵庫県","city":"加西市","address":"上万願寺町"},
{"zip_code":"6752453","kana_pref":"ﾋｮｳｺﾞｹﾝ","kana_city":"ｶｻｲｼ","kana_address":"ｶﾐﾐﾁﾔﾏﾁｮｳ","pref":"兵庫県","city":"加西市","address":"上道山町"},
{"zip_code":"6752104","kana_pref":"ﾋｮｳｺﾞｹﾝ","kana_city":"ｶｻｲｼ","kana_address":"ｶﾐﾐﾔｷﾁｮｳ","pref":"兵庫県","city":"加西市","address":"上宮木町"},
{"zip_code":"6752444","kana_pref":"ﾋｮｳｺﾞｹﾝ","kana_city":"ｶｻｲｼ","kana_address":"ｶﾓﾀﾞﾆﾁｮｳ","pref":"兵庫県","city":"加西市","address":"鴨谷町"},
{"zip_code":"6752333","kana_pref":"ﾋｮｳｺﾞｹﾝ","kana_city":"ｶｻｲｼ","kana_address":"ｷｼﾛﾁｮｳ","pref":"兵庫県","city":"加西市","address":"岸呂町"},
{"zip_code":"6752433","kana_pref":"ﾋｮｳｺﾞｹﾝ","kana_city":"ｶｻｲｼ","kana_address":"ｷﾀﾁｮｳ","pref":"兵庫県","city":"加西市","address":"北町"},
{"zip_code":"6752401","kana_pref":"ﾋｮｳｺﾞｹﾝ","kana_city":"ｶｻｲｼ","kana_address":"ｸﾆﾏｻﾁｮｳ","pref":"兵庫県","city":"加西市","address":"国正町"},
{"zip_code":"6752364","kana_pref":"ﾋｮｳｺﾞｹﾝ","kana_city":"ｶｻｲｼ","kana_address":"ｸﾎﾞﾀﾁｮｳ","pref":"兵庫県","city":"加西市","address":"窪田町"},
{"zip_code":"6752221","kana_pref":"ﾋｮｳｺﾞｹﾝ","kana_city":"ｶｻｲｼ","kana_address":"ｸﾗﾀﾆﾁｮｳ","pref":"兵庫県","city":"加西市","address":"倉谷町"},
{"zip_code":"6752111","kana_pref":"ﾋｮｳｺﾞｹﾝ","kana_city":"ｶｻｲｼ","kana_address":"ｸﾜﾊﾗﾀﾞﾁｮｳ","pref":"兵庫県","city":"加西市","address":"桑原田町"},
{"zip_code":"6752403","kana_pref":"ﾋｮｳｺﾞｹﾝ","kana_city":"ｶｻｲｼ","kana_address":"ｺｲﾅﾐﾁｮｳ","pref":"兵庫県","city":"加西市","address":"小印南町"},
{"zip_code":"6752421","kana_pref":"ﾋｮｳｺﾞｹﾝ","kana_city":"ｶｻｲｼ","kana_address":"ｺｳﾁﾁｮｳ","pref":"兵庫県","city":"加西市","address":"河内町"},
{"zip_code":"6752112","kana_pref":"ﾋｮｳｺﾞｹﾝ","kana_city":"ｶｻｲｼ","kana_address":"ｻｶｴﾁｮｳ","pref":"兵庫県","city":"加西市","address":"栄町"},
{"zip_code":"6752222","kana_pref":"ﾋｮｳｺﾞｹﾝ","kana_city":"ｶｻｲｼ","kana_address":"ｻｶﾓﾄﾁｮｳ","pref":"兵庫県","city":"加西市","address":"坂本町"},
{"zip_code":"6752336","kana_pref":"ﾋｮｳｺﾞｹﾝ","kana_city":"ｶｻｲｼ","kana_address":"ｻｶﾓﾄﾁｮｳ","pref":"兵庫県","city":"加西市","address":"坂元町"},
{"zip_code":"6752443","kana_pref":"ﾋｮｳｺﾞｹﾝ","kana_city":"ｶｻｲｼ","kana_address":"ｻｻｸﾗﾁｮｳ","pref":"兵庫県","city":"加西市","address":"笹倉町"},
{"zip_code":"6752461","kana_pref":"ﾋｮｳｺﾞｹﾝ","kana_city":"ｶｻｲｼ","kana_address":"ｻﾀﾆﾁｮｳ","pref":"兵庫県","city":"加西市","address":"佐谷町"},
{"zip_code":"6752431","kana_pref":"ﾋｮｳｺﾞｹﾝ","kana_city":"ｶｻｲｼ","kana_address":"ｼﾏﾁｮｳ","pref":"兵庫県","city":"加西市","address":"島町"},
{"zip_code":"6752464","kana_pref":"ﾋｮｳｺﾞｹﾝ","kana_city":"ｶｻｲｼ","kana_address":"ｼﾓｹﾞﾀﾁｮｳ","pref":"兵庫県","city":"加西市","address":"下芥田町"},
{"zip_code":"6752452","kana_pref":"ﾋｮｳｺﾞｹﾝ","kana_city":"ｶｻｲｼ","kana_address":"ｼﾓﾏﾝｶﾞﾝｼﾞﾁｮｳ","pref":"兵庫県","city":"加西市","address":"下万願寺町"},
{"zip_code":"6752454","kana_pref":"ﾋｮｳｺﾞｹﾝ","kana_city":"ｶｻｲｼ","kana_address":"ｼﾓﾐﾁﾔﾏﾁｮｳ","pref":"兵庫県","city":"加西市","address":"下道山町"},
{"zip_code":"6752105","kana_pref":"ﾋｮｳｺﾞｹﾝ","kana_city":"ｶｻｲｼ","kana_address":"ｼﾓﾐﾔｷﾁｮｳ","pref":"兵庫県","city":"加西市","address":"下宮木町"},
{"zip_code":"6752204","kana_pref":"ﾋｮｳｺﾞｹﾝ","kana_city":"ｶｻｲｼ","kana_address":"ｼﾝｼﾞｮｳﾁｮｳ","pref":"兵庫県","city":"加西市","address":"新生町"},
{"zip_code":"6752363","kana_pref":"ﾋｮｳｺﾞｹﾝ","kana_city":"ｶｻｲｼ","kana_address":"ｽｲﾀﾞﾆﾁｮｳ","pref":"兵庫県","city":"加西市","address":"吸谷町"},
{"zip_code":"6752411","kana_pref":"ﾋｮｳｺﾞｹﾝ","kana_city":"ｶｻｲｼ","kana_address":"ﾀﾞｲｸﾁｮｳ","pref":"兵庫県","city":"加西市","address":"大工町"},
{"zip_code":"6752352","kana_pref":"ﾋｮｳｺﾞｹﾝ","kana_city":"ｶｻｲｼ","kana_address":"ﾀﾆｸﾞﾁﾁｮｳ","pref":"兵庫県","city":"加西市","address":"谷口町"},
{"zip_code":"6752361","kana_pref":"ﾋｮｳｺﾞｹﾝ","kana_city":"ｶｻｲｼ","kana_address":"ﾀﾆﾁｮｳ","pref":"兵庫県","city":"加西市","address":"谷町"},
{"zip_code":"6752114","kana_pref":"ﾋｮｳｺﾞｹﾝ","kana_city":"ｶｻｲｼ","kana_address":"ﾀﾊﾗﾁｮｳ","pref":"兵庫県","city":"加西市","address":"田原町"},
{"zip_code":"6752402","kana_pref":"ﾋｮｳｺﾞｹﾝ","kana_city":"ｶｻｲｼ","kana_address":"ﾀﾔﾁｮｳ","pref":"兵庫県","city":"加西市","address":"田谷町"},
{"zip_code":"6752241","kana_pref":"ﾋｮｳｺﾞｹﾝ","kana_city":"ｶｻｲｼ","kana_address":"ﾀﾞﾝｹﾞﾁｮｳ","pref":"兵庫県","city":"加西市","address":"段下町"},
{"zip_code":"6752332","kana_pref":"ﾋｮｳｺﾞｹﾝ","kana_city":"ｶｻｲｼ","kana_address":"ﾄｺﾅﾍﾞﾁｮｳ","pref":"兵庫県","city":"加西市","address":"鎮岩町"},
{"zip_code":"6752232","kana_pref":"ﾋｮｳｺﾞｹﾝ","kana_city":"ｶｻｲｼ","kana_address":"ﾄﾀｲﾁｮｳ","pref":"兵庫県","city":"加西市","address":"戸田井町"},
{"zip_code":"6752445","kana_pref":"ﾋｮｳｺﾞｹﾝ","kana_city":"ｶｻｲｼ","kana_address":"ﾄﾉﾊﾗﾁｮｳ","pref":"兵庫県","city":"加西市","address":"殿原町"},
{"zip_code":"6752442","kana_pref":"ﾋｮｳｺﾞｹﾝ","kana_city":"ｶｻｲｼ","kana_address":"ﾅｶﾄﾐﾁｮｳ","pref":"兵庫県","city":"加西市","address":"中富町"},
{"zip_code":"6752243","kana_pref":"ﾋｮｳｺﾞｹﾝ","kana_city":"ｶｻｲｼ","kana_address":"ﾅｶﾆｼﾁｮｳ","pref":"兵庫県","city":"加西市","address":"中西町"},
{"zip_code":"6752102","kana_pref":"ﾋｮｳｺﾞｹﾝ","kana_city":"ｶｻｲｼ","kana_address":"ﾅｶﾉﾁｮｳ","pref":"兵庫県","city":"加西市","address":"中野町"},
{"zip_code":"6752343","kana_pref":"ﾋｮｳｺﾞｹﾝ","kana_city":"ｶｻｲｼ","kana_address":"ﾅｶﾔﾏﾁｮｳ","pref":"兵庫県","city":"加西市","address":"中山町"},
{"zip_code":"6752362","kana_pref":"ﾋｮｳｺﾞｹﾝ","kana_city":"ｶｻｲｼ","kana_address":"ﾆｼｳｴﾉﾁｮｳ","pref":"兵庫県","city":"加西市","address":"西上野町"},
{"zip_code":"6752342","kana_pref":"ﾋｮｳｺﾞｹﾝ","kana_city":"ｶｻｲｼ","kana_address":"ﾆｼｵｻﾁｮｳ","pref":"兵庫県","city":"加西市","address":"西長町"},
{"zip_code":"6752213","kana_pref":"ﾋｮｳｺﾞｹﾝ","kana_city":"ｶｻｲｼ","kana_address":"ﾆｼｶｻﾊﾗﾁｮｳ","pref":"兵庫県","city":"加西市","address":"西笠原町"},
{"zip_code":"6752345","kana_pref":"ﾋｮｳｺﾞｹﾝ","kana_city":"ｶｻｲｼ","kana_address":"ﾆｼｹﾝｻﾞｶﾁｮｳ","pref":"兵庫県","city":"加西市","address":"西剣坂町"},
{"zip_code":"6752366","kana_pref":"ﾋｮｳｺﾞｹﾝ","kana_city":"ｶｻｲｼ","kana_address":"ﾆｼﾀﾆﾁｮｳ","pref":"兵庫県","city":"加西市","address":"西谷町"},
{"zip_code":"6752426","kana_pref":"ﾋｮｳｺﾞｹﾝ","kana_city":"ｶｻｲｼ","kana_address":"ﾆｼﾉﾉﾁｮｳ","pref":"兵庫県","city":"加西市","address":"西野々町"},
{"zip_code":"6752335","kana_pref":"ﾋｮｳｺﾞｹﾝ","kana_city":"ｶｻｲｼ","kana_address":"ﾆｼﾖｺﾀﾁｮｳ","pref":"兵庫県","city":"加西市","address":"西横田町"},
{"zip_code":"6752202","kana_pref":"ﾋｮｳｺﾞｹﾝ","kana_city":"ｶｻｲｼ","kana_address":"ﾉｳｼﾞｮｳﾁｮｳ","pref":"兵庫県","city":"加西市","address":"野条町"},
{"zip_code":"6752424","kana_pref":"ﾋｮｳｺﾞｹﾝ","kana_city":"ｶｻｲｼ","kana_address":"ﾉｶﾞﾐﾁｮｳ","pref":"兵庫県","city":"加西市","address":"野上町"},
{"zip_code":"6752211","kana_pref":"ﾋｮｳｺﾞｹﾝ","kana_city":"ｶｻｲｼ","kana_address":"ﾉﾀﾞﾁｮｳ","pref":"兵庫県","city":"加西市","address":"野田町"},
{"zip_code":"6752365","kana_pref":"ﾋｮｳｺﾞｹﾝ","kana_city":"ｶｻｲｼ","kana_address":"ﾊﾀﾁｮｳ","pref":"兵庫県","city":"加西市","address":"畑町"},
{"zip_code":"6752101","kana_pref":"ﾋｮｳｺﾞｹﾝ","kana_city":"ｶｻｲｼ","kana_address":"ﾊﾝｼﾞｮｳﾁｮｳ","pref":"兵庫県","city":"加西市","address":"繁昌町"},
{"zip_code":"6752341","kana_pref":"ﾋｮｳｺﾞｹﾝ","kana_city":"ｶｻｲｼ","kana_address":"ﾋｶﾞｼｵｻﾁｮｳ","pref":"兵庫県","city":"加西市","address":"東長町"},
{"zip_code":"6752212","kana_pref":"ﾋｮｳｺﾞｹﾝ","kana_city":"ｶｻｲｼ","kana_address":"ﾋｶﾞｼｶｻﾊﾗﾁｮｳ","pref":"兵庫県","city":"加西市","address":"東笠原町"},
{"zip_code":"6752346","kana_pref":"ﾋｮｳｺﾞｹﾝ","kana_city":"ｶｻｲｼ","kana_address":"ﾋｶﾞｼｹﾝｻﾞｶﾁｮｳ","pref":"兵庫県","city":"加西市","address":"東剣坂町"},
{"zip_code":"6752331","kana_pref":"ﾋｮｳｺﾞｹﾝ","kana_city":"ｶｻｲｼ","kana_address":"ﾋｶﾞｼﾖｺﾀﾁｮｳ","pref":"兵庫県","city":"加西市","address":"東横田町"},
{"zip_code":"6752463","kana_pref":"ﾋｮｳｺﾞｹﾝ","kana_city":"ｶｻｲｼ","kana_address":"ﾋﾛﾜﾗﾁｮｳ","pref":"兵庫県","city":"加西市","address":"広原町"},
{"zip_code":"6752201","kana_pref":"ﾋｮｳｺﾞｹﾝ","kana_city":"ｶｻｲｼ","kana_address":"ﾋﾞﾜｺｳﾁｮｳ","pref":"兵庫県","city":"加西市","address":"琵琶甲町"},
{"zip_code":"6752351","kana_pref":"ﾋｮｳｺﾞｹﾝ","kana_city":"ｶｻｲｼ","kana_address":"ﾌｸｲﾁｮｳ","pref":"兵庫県","city":"加西市","address":"福居町"},
{"zip_code":"6752334","kana_pref":"ﾋｮｳｺﾞｹﾝ","kana_city":"ｶｻｲｼ","kana_address":"ﾌｸｽﾞﾐﾁｮｳ","pref":"兵庫県","city":"加西市","address":"福住町"},
{"zip_code":"6752462","kana_pref":"ﾋｮｳｺﾞｹﾝ","kana_city":"ｶｻｲｼ","kana_address":"ﾍﾞｯｼｮﾁｮｳ","pref":"兵庫県","city":"加西市","address":"別所町"},
{"zip_code":"6752302","kana_pref":"ﾋｮｳｺﾞｹﾝ","kana_city":"ｶｻｲｼ","kana_address":"ﾎｳｼﾞｮｳﾁｮｳｸﾘﾀﾞ","pref":"兵庫県","city":"加西市","address":"北条町栗田"},
{"zip_code":"6752313","kana_pref":"ﾋｮｳｺﾞｹﾝ","kana_city":"ｶｻｲｼ","kana_address":"ﾎｳｼﾞｮｳﾁｮｳｸﾛｺﾏ","pref":"兵庫県","city":"加西市","address":"北条町黒駒"},
{"zip_code":"6752301","kana_pref":"ﾋｮｳｺﾞｹﾝ","kana_city":"ｶｻｲｼ","kana_address":"ﾎｳｼﾞｮｳﾁｮｳｺﾀﾞﾆ","pref":"兵庫県","city":"加西市","address":"北条町小谷"},
{"zip_code":"6752321","kana_pref":"ﾋｮｳｺﾞｹﾝ","kana_city":"ｶｻｲｼ","kana_address":"ﾎｳｼﾞｮｳﾁｮｳﾋｶﾞｼﾀｶﾑﾛ","pref":"兵庫県","city":"加西市","address":"北条町東高室"},
{"zip_code":"6752322","kana_pref":"ﾋｮｳｺﾞｹﾝ","kana_city":"ｶｻｲｼ","kana_address":"ﾎｳｼﾞｮｳﾁｮｳﾆｼﾀｶﾑﾛ","pref":"兵庫県","city":"加西市","address":"北条町西高室"},
{"zip_code":"6752324","kana_pref":"ﾋｮｳｺﾞｹﾝ","kana_city":"ｶｻｲｼ","kana_address":"ﾎｳｼﾞｮｳﾁｮｳﾋｶﾞｼﾅﾝ","pref":"兵庫県","city":"加西市","address":"北条町東南"},
{"zip_code":"6752323","kana_pref":"ﾋｮｳｺﾞｹﾝ","kana_city":"ｶｻｲｼ","kana_address":"ﾎｳｼﾞｮｳﾁｮｳﾆｼﾅﾝ","pref":"兵庫県","city":"加西市","address":"北条町西南"},
{"zip_code":"6752303","kana_pref":"ﾋｮｳｺﾞｹﾝ","kana_city":"ｶｻｲｼ","kana_address":"ﾎｳｼﾞｮｳﾁｮｳﾌﾙｻｶ","pref":"兵庫県","city":"加西市","address":"北条町古坂"},
{"zip_code":"6752312","kana_pref":"ﾋｮｳｺﾞｹﾝ","kana_city":"ｶｻｲｼ","kana_address":"ﾎｳｼﾞｮｳﾁｮｳﾎｳｼﾞｮｳ","pref":"兵庫県","city":"加西市","address":"北条町北条"},
{"zip_code":"6752311","kana_pref":"ﾋｮｳｺﾞｹﾝ","kana_city":"ｶｻｲｼ","kana_address":"ﾎｳｼﾞｮｳﾁｮｳﾖｺｵ","pref":"兵庫県","city":"加西市","address":"北条町横尾"},
{"zip_code":"6752432","kana_pref":"ﾋｮｳｺﾞｹﾝ","kana_city":"ｶｻｲｼ","kana_address":"ﾏｸﾁｮｳ","pref":"兵庫県","city":"加西市","address":"満久町"},
{"zip_code":"6752223","kana_pref":"ﾋｮｳｺﾞｹﾝ","kana_city":"ｶｻｲｼ","kana_address":"ﾐｸﾁﾁｮｳ","pref":"兵庫県","city":"加西市","address":"三口町"},
{"zip_code":"6752414","kana_pref":"ﾋｮｳｺﾞｹﾝ","kana_city":"ｶｻｲｼ","kana_address":"ﾓｵﾀﾆﾁｮｳ","pref":"兵庫県","city":"加西市","address":"馬渡谷町"},
{"zip_code":"6752354","kana_pref":"ﾋｮｳｺﾞｹﾝ","kana_city":"ｶｻｲｼ","kana_address":"ﾔﾏｼﾀﾁｮｳ","pref":"兵庫県","city":"加西市","address":"山下町"},
{"zip_code":"6752422","kana_pref":"ﾋｮｳｺﾞｹﾝ","kana_city":"ｶｻｲｼ","kana_address":"ﾔﾏﾀﾞﾁｮｳ","pref":"兵庫県","city":"加西市","address":"山田町"},
{"zip_code":"6752404","kana_pref":"ﾋｮｳｺﾞｹﾝ","kana_city":"ｶｻｲｼ","kana_address":"ﾕﾀﾞﾆﾁｮｳ","pref":"兵庫県","city":"加西市","address":"油谷町"},
{"zip_code":"6752353","kana_pref":"ﾋｮｳｺﾞｹﾝ","kana_city":"ｶｻｲｼ","kana_address":"ﾖｼﾉﾁｮｳ","pref":"兵庫県","city":"加西市","address":"吉野町"},
{"zip_code":"6752456","kana_pref":"ﾋｮｳｺﾞｹﾝ","kana_city":"ｶｻｲｼ","kana_address":"ﾜｶｲﾁｮｳ","pref":"兵庫県","city":"加西市","address":"若井町"},
{"zip_code":"6752233","kana_pref":"ﾋｮｳｺﾞｹﾝ","kana_city":"ｶｻｲｼ","kana_address":"ﾜﾁﾁｮｳ","pref":"兵庫県","city":"加西市","address":"両月町"},
{"zip_code":"6751100","kana_pref":"ﾋｮｳｺﾞｹﾝ","kana_city":"ｶｺｸﾞﾝｲﾅﾐﾁｮｳ","kana_address":"","pref":"兵庫県","city":"加古郡稲美町","address":""},
{"zip_code":"6751111","kana_pref":"ﾋｮｳｺﾞｹﾝ","kana_city":"ｶｺｸﾞﾝｲﾅﾐﾁｮｳ","kana_address":"ｲﾝﾅﾐ","pref":"兵庫県","city":"加古郡稲美町","address":"印南"},
{"zip_code":"6751113","kana_pref":"ﾋｮｳｺﾞｹﾝ","kana_city":"ｶｺｸﾞﾝｲﾅﾐﾁｮｳ","kana_address":"ｵｶ","pref":"兵庫県","city":"加古郡稲美町","address":"岡"},
{"zip_code":"6751105","kana_pref":"ﾋｮｳｺﾞｹﾝ","kana_city":"ｶｺｸﾞﾝｲﾅﾐﾁｮｳ","kana_address":"ｶｺ","pref":"兵庫県","city":"加古郡稲美町","address":"加古"},
{"zip_code":"6751121","kana_pref":"ﾋｮｳｺﾞｹﾝ","kana_city":"ｶｺｸﾞﾝｲﾅﾐﾁｮｳ","kana_address":"ｷﾀﾔﾏ","pref":"兵庫県","city":"加古郡稲美町","address":"北山"},
{"zip_code":"6751102","kana_pref":"ﾋｮｳｺﾞｹﾝ","kana_city":"ｶｺｸﾞﾝｲﾅﾐﾁｮｳ","kana_address":"ｸｻﾀﾞﾆ","pref":"兵庫県","city":"加古郡稲美町","address":"草谷"},
{"zip_code":"6751115","kana_pref":"ﾋｮｳｺﾞｹﾝ","kana_city":"ｶｺｸﾞﾝｲﾅﾐﾁｮｳ","kana_address":"ｸﾆｵｶ","pref":"兵庫県","city":"加古郡稲美町","address":"国岡"},
{"zip_code":"6751123","kana_pref":"ﾋｮｳｺﾞｹﾝ","kana_city":"ｶｺｸﾞﾝｲﾅﾐﾁｮｳ","kana_address":"ｸﾆﾎｸ","pref":"兵庫県","city":"加古郡稲美町","address":"国北"},
{"zip_code":"6751114","kana_pref":"ﾋｮｳｺﾞｹﾝ","kana_city":"ｶｺｸﾞﾝｲﾅﾐﾁｮｳ","kana_address":"ｸﾆﾔｽ","pref":"兵庫県","city":"加古郡稲美町","address":"国安"},
{"zip_code":"6751126","kana_pref":"ﾋｮｳｺﾞｹﾝ","kana_city":"ｶｺｸﾞﾝｲﾅﾐﾁｮｳ","kana_address":"ｺｳﾀｹ","pref":"兵庫県","city":"加古郡稲美町","address":"幸竹"},
{"zip_code":"6751101","kana_pref":"ﾋｮｳｺﾞｹﾝ","kana_city":"ｶｺｸﾞﾝｲﾅﾐﾁｮｳ","kana_address":"ｼﾓｸｻﾀﾞﾆ","pref":"兵庫県","city":"加古郡稲美町","address":"下草谷"},
{"zip_code":"6751116","kana_pref":"ﾋｮｳｺﾞｹﾝ","kana_city":"ｶｺｸﾞﾝｲﾅﾐﾁｮｳ","kana_address":"ﾀｺｸｻ","pref":"兵庫県","city":"加古郡稲美町","address":"蛸草"},
{"zip_code":"6751127","kana_pref":"ﾋｮｳｺﾞｹﾝ","kana_city":"ｶｺｸﾞﾝｲﾅﾐﾁｮｳ","kana_address":"ﾅｶｲｼｷ","pref":"兵庫県","city":"加古郡稲美町","address":"中一色"},
{"zip_code":"6751122","kana_pref":"ﾋｮｳｺﾞｹﾝ","kana_city":"ｶｺｸﾞﾝｲﾅﾐﾁｮｳ","kana_address":"ﾅｶﾑﾗ","pref":"兵庫県","city":"加古郡稲美町","address":"中村"},
{"zip_code":"6751103","kana_pref":"ﾋｮｳｺﾞｹﾝ","kana_city":"ｶｺｸﾞﾝｲﾅﾐﾁｮｳ","kana_address":"ﾉﾀﾞﾆ","pref":"兵庫県","city":"加古郡稲美町","address":"野谷"},
{"zip_code":"6751104","kana_pref":"ﾋｮｳｺﾞｹﾝ","kana_city":"ｶｺｸﾞﾝｲﾅﾐﾁｮｳ","kana_address":"ﾉﾃﾞﾗ","pref":"兵庫県","city":"加古郡稲美町","address":"野寺"},
{"zip_code":"6751124","kana_pref":"ﾋｮｳｺﾞｹﾝ","kana_city":"ｶｺｸﾞﾝｲﾅﾐﾁｮｳ","kana_address":"ﾓﾘﾔｽ","pref":"兵庫県","city":"加古郡稲美町","address":"森安"},
{"zip_code":"6751112","kana_pref":"ﾋｮｳｺﾞｹﾝ","kana_city":"ｶｺｸﾞﾝｲﾅﾐﾁｮｳ","kana_address":"ﾛｸﾌﾞｲﾁ","pref":"兵庫県","city":"加古郡稲美町","address":"六分一"},
{"zip_code":"6751125","kana_pref":"ﾋｮｳｺﾞｹﾝ","kana_city":"ｶｺｸﾞﾝｲﾅﾐﾁｮｳ","kana_address":"ﾜﾀﾞ","pref":"兵庫県","city":"加古郡稲美町","address":"和田"},
{"zip_code":"6750100","kana_pref":"ﾋｮｳｺﾞｹﾝ","kana_city":"ｶｺｸﾞﾝﾊﾘﾏﾁｮｳ","kana_address":"","pref":"兵庫県","city":"加古郡播磨町","address":""},
{"zip_code":"6750142","kana_pref":"ﾋｮｳｺﾞｹﾝ","kana_city":"ｶｺｸﾞﾝﾊﾘﾏﾁｮｳ","kana_address":"ｵｵﾅｶ","pref":"兵庫県","city":"加古郡播磨町","address":"大中"},
{"zip_code":"6750157","kana_pref":"ﾋｮｳｺﾞｹﾝ","kana_city":"ｶｺｸﾞﾝﾊﾘﾏﾁｮｳ","kana_address":"ｶﾐﾉｿﾞｴ","pref":"兵庫県","city":"加古郡播磨町","address":"上野添"},
{"zip_code":"6750158","kana_pref":"ﾋｮｳｺﾞｹﾝ","kana_city":"ｶｺｸﾞﾝﾊﾘﾏﾁｮｳ","kana_address":"ｷﾀﾉｿﾞｴ","pref":"兵庫県","city":"加古郡播磨町","address":"北野添"},
{"zip_code":"6750148","kana_pref":"ﾋｮｳｺﾞｹﾝ","kana_city":"ｶｺｸﾞﾝﾊﾘﾏﾁｮｳ","kana_address":"ｷﾀﾌﾙﾀ","pref":"兵庫県","city":"加古郡播磨町","address":"北古田"},
{"zip_code":"6750144","kana_pref":"ﾋｮｳｺﾞｹﾝ","kana_city":"ｶｺｸﾞﾝﾊﾘﾏﾁｮｳ","kana_address":"ｷﾀﾎﾝｼﾞｮｳ","pref":"兵庫県","city":"加古郡播磨町","address":"北本荘"},
{"zip_code":"6750163","kana_pref":"ﾋｮｳｺﾞｹﾝ","kana_city":"ｶｺｸﾞﾝﾊﾘﾏﾁｮｳ","kana_address":"ｺﾐﾔ","pref":"兵庫県","city":"加古郡播磨町","address":"古宮"},
{"zip_code":"6750155","kana_pref":"ﾋｮｳｺﾞｹﾝ","kana_city":"ｶｺｸﾞﾝﾊﾘﾏﾁｮｳ","kana_address":"ﾆｲｼﾞﾏ","pref":"兵庫県","city":"加古郡播磨町","address":"新島"},
{"zip_code":"6750160","kana_pref":"ﾋｮｳｺﾞｹﾝ","kana_city":"ｶｺｸﾞﾝﾊﾘﾏﾁｮｳ","kana_address":"ﾆｼﾉｿﾞｴ","pref":"兵庫県","city":"加古郡播磨町","address":"西野添"},
{"zip_code":"6750151","kana_pref":"ﾋｮｳｺﾞｹﾝ","kana_city":"ｶｺｸﾞﾝﾊﾘﾏﾁｮｳ","kana_address":"ﾉｿﾞｴ","pref":"兵庫県","city":"加古郡播磨町","address":"野添"},
{"zip_code":"6750141","kana_pref":"ﾋｮｳｺﾞｹﾝ","kana_city":"ｶｺｸﾞﾝﾊﾘﾏﾁｮｳ","kana_address":"ﾉｿﾞｴｼﾞｮｳ","pref":"兵庫県","city":"加古郡播磨町","address":"野添城"},
{"zip_code":"6750164","kana_pref":"ﾋｮｳｺﾞｹﾝ","kana_city":"ｶｺｸﾞﾝﾊﾘﾏﾁｮｳ","kana_address":"ﾋｶﾞｼﾆｲｼﾞﾏ","pref":"兵庫県","city":"加古郡播磨町","address":"東新島"},
{"zip_code":"6750159","kana_pref":"ﾋｮｳｺﾞｹﾝ","kana_city":"ｶｺｸﾞﾝﾊﾘﾏﾁｮｳ","kana_address":"ﾋｶﾞｼﾉｿﾞｴ","pref":"兵庫県","city":"加古郡播磨町","address":"東野添"},
{"zip_code":"6750156","kana_pref":"ﾋｮｳｺﾞｹﾝ","kana_city":"ｶｺｸﾞﾝﾊﾘﾏﾁｮｳ","kana_address":"ﾋｶﾞｼﾎﾝｼﾞｮｳ","pref":"兵庫県","city":"加古郡播磨町","address":"東本荘"},
{"zip_code":"6750162","kana_pref":"ﾋｮｳｺﾞｹﾝ","kana_city":"ｶｺｸﾞﾝﾊﾘﾏﾁｮｳ","kana_address":"ﾌﾀｺﾞ","pref":"兵庫県","city":"加古郡播磨町","address":"二子"},
{"zip_code":"6750146","kana_pref":"ﾋｮｳｺﾞｹﾝ","kana_city":"ｶｺｸﾞﾝﾊﾘﾏﾁｮｳ","kana_address":"ﾌﾙﾀ","pref":"兵庫県","city":"加古郡播磨町","address":"古田"},
{"zip_code":"6750154","kana_pref":"ﾋｮｳｺﾞｹﾝ","kana_city":"ｶｺｸﾞﾝﾊﾘﾏﾁｮｳ","kana_address":"ﾎﾝｼﾞｮｳ","pref":"兵庫県","city":"加古郡播磨町","address":"本荘"},
{"zip_code":"6750147","kana_pref":"ﾋｮｳｺﾞｹﾝ","kana_city":"ｶｺｸﾞﾝﾊﾘﾏﾁｮｳ","kana_address":"ﾐﾅﾐｵｵﾅｶ","pref":"兵庫県","city":"加古郡播磨町","address":"南大中"},
{"zip_code":"6750150","kana_pref":"ﾋｮｳｺﾞｹﾝ","kana_city":"ｶｺｸﾞﾝﾊﾘﾏﾁｮｳ","kana_address":"ﾐﾅﾐﾉｿﾞｴ","pref":"兵庫県","city":"加古郡播磨町","address":"南野添"},
{"zip_code":"6750143","kana_pref":"ﾋｮｳｺﾞｹﾝ","kana_city":"ｶｺｸﾞﾝﾊﾘﾏﾁｮｳ","kana_address":"ﾐﾔｷﾀ","pref":"兵庫県","city":"加古郡播磨町","address":"宮北"},
{"zip_code":"6750145","kana_pref":"ﾋｮｳｺﾞｹﾝ","kana_city":"ｶｺｸﾞﾝﾊﾘﾏﾁｮｳ","kana_address":"ﾐﾔﾆｼ","pref":"兵庫県","city":"加古郡播磨町","address":"宮西"}]}