{"zip_code":[
{"zip_code":"6760000","kana_pref":"ﾋｮｳｺﾞｹﾝ","kana_city":"ﾀｶｻｺﾞｼ","kana_address":"","pref":"兵庫県","city":"高砂市","address":""},
{"zip_code":"6760815","kana_pref":"ﾋｮｳｺﾞｹﾝ","kana_city":"ﾀｶｻｺﾞｼ","kana_address":"ｱﾐﾀﾞ","pref":"兵庫県","city":"高砂市","address":"阿弥陀"},
{"zip_code":"6760827","kana_pref":"ﾋｮｳｺﾞｹﾝ","kana_city":"ﾀｶｻｺﾞｼ","kana_address":"ｱﾐﾀﾞﾁｮｳｱﾐﾀﾞ","pref":"兵庫県","city":"高砂市","address":"阿弥陀町阿弥陀"},
{"zip_code":"6760822","kana_pref":"ﾋｮｳｺﾞｹﾝ","kana_city":"ﾀｶｻｺﾞｼ","kana_address":"ｱﾐﾀﾞﾁｮｳｳｵﾊｼ","pref":"兵庫県","city":"高砂市","address":"阿弥陀町魚橋"},
{"zip_code":"6760823","kana_pref":"ﾋｮｳｺﾞｹﾝ","kana_city":"ﾀｶｻｺﾞｼ","kana_address":"ｱﾐﾀﾞﾁｮｳｵｵｼｺ","pref":"兵庫県","city":"高砂市","address":"阿弥陀町生石"},
{"zip_code":"6760825","kana_pref":"ﾋｮｳｺﾞｹﾝ","kana_city":"ﾀｶｻｺﾞｼ","kana_address":"ｱﾐﾀﾞﾁｮｳｷﾀｲｹ","pref":"兵庫県","city":"高砂市","address":"阿弥陀町北池"},
{"zip_code":"6760826","kana_pref":"ﾋｮｳｺﾞｹﾝ","kana_city":"ﾀｶｻｺﾞｼ","kana_address":"ｱﾐﾀﾞﾁｮｳｷﾀﾔﾏ","pref":"兵庫県","city":"高砂市","address":"阿弥陀町北山"},
{"zip_code":"6760828","kana_pref":"ﾋｮｳｺﾞｹﾝ","kana_city":"ﾀｶｻｺﾞｼ","kana_address":"ｱﾐﾀﾞﾁｮｳｼﾞﾄｸ","pref":"兵庫県","city":"高砂市","address":"阿弥陀町地徳"},
{"zip_code":"6760821","kana_pref":"ﾋｮｳｺﾞｹﾝ","kana_city":"ﾀｶｻｺﾞｼ","kana_address":"ｱﾐﾀﾞﾁｮｳﾅｶﾞｵ","pref":"兵庫県","city":"高砂市","address":"阿弥陀町長尾"},
{"zip_code":"6760824","kana_pref":"ﾋｮｳｺﾞｹﾝ","kana_city":"ﾀｶｻｺﾞｼ","kana_address":"ｱﾐﾀﾞﾁｮｳﾐﾅﾐｲｹ","pref":"兵庫県","city":"高砂市","address":"阿弥陀町南池"},
{"zip_code":"6760016","kana_pref":"ﾋｮｳｺﾞｹﾝ","kana_city":"ﾀｶｻｺﾞｼ","kana_address":"ｱﾗｲﾁｮｳｵｵｷﾞﾏﾁ","pref":"兵庫県","city":"高砂市","address":"荒井町扇町"},
{"zip_code":"6760005","kana_pref":"ﾋｮｳｺﾞｹﾝ","kana_city":"ﾀｶｻｺﾞｼ","kana_address":"ｱﾗｲﾁｮｳｵﾀﾋﾞ","pref":"兵庫県","city":"高砂市","address":"荒井町御旅"},
{"zip_code":"6760015","kana_pref":"ﾋｮｳｺﾞｹﾝ","kana_city":"ﾀｶｻｺﾞｼ","kana_address":"ｱﾗｲﾁｮｳｶﾐﾏﾁ","pref":"兵庫県","city":"高砂市","address":"荒井町紙町"},
{"zip_code":"6760011","kana_pref":"ﾋｮｳｺﾞｹﾝ","kana_city":"ﾀｶｻｺﾞｼ","kana_address":"ｱﾗｲﾁｮｳｺﾏﾂﾊﾞﾗ","pref":"兵庫県","city":"高砂市","address":"荒井町小松原"},
{"zip_code":"6760008","kana_pref":"ﾋｮｳｺﾞｹﾝ","kana_city":"ﾀｶｻｺﾞｼ","kana_address":"ｱﾗｲﾁｮｳｼﾝﾊﾏ","pref":"兵庫県","city":"高砂市","address":"荒井町新浜"},
{"zip_code":"6760004","kana_pref":"ﾋｮｳｺﾞｹﾝ","kana_city":"ﾀｶｻｺﾞｼ","kana_address":"ｱﾗｲﾁｮｳﾁﾄﾞﾘ","pref":"兵庫県","city":"高砂市","address":"荒井町千鳥"},
{"zip_code":"6760012","kana_pref":"ﾋｮｳｺﾞｹﾝ","kana_city":"ﾀｶｻｺﾞｼ","kana_address":"ｱﾗｲﾁｮｳﾅｶｼﾝﾏﾁ","pref":"兵庫県","city":"高砂市","address":"荒井町中新町"},
{"zip_code":"6760007","kana_pref":"ﾋｮｳｺﾞｹﾝ","kana_city":"ﾀｶｻｺﾞｼ","kana_address":"ｱﾗｲﾁｮｳﾅｶﾏﾁ","pref":"兵庫県","city":"高砂市","address":"荒井町中町"},
{"zip_code":"6760013","kana_pref":"ﾋｮｳｺﾞｹﾝ","kana_city":"ﾀｶｻｺﾞｼ","kana_address":"ｱﾗｲﾁｮｳﾊｽｲｹ","pref":"兵庫県","city":"高砂市","address":"荒井町蓮池"},
{"zip_code":"6760017","kana_pref":"ﾋｮｳｺﾞｹﾝ","kana_city":"ﾀｶｻｺﾞｼ","kana_address":"ｱﾗｲﾁｮｳﾋｶﾞｼﾎﾝﾏﾁ","pref":"兵庫県","city":"高砂市","address":"荒井町東本町"},
{"zip_code":"6760014","kana_pref":"ﾋｮｳｺﾞｹﾝ","kana_city":"ﾀｶｻｺﾞｼ","kana_address":"ｱﾗｲﾁｮｳﾋﾉﾃﾞﾁｮｳ","pref":"兵庫県","city":"高砂市","address":"荒井町日之出町"},
{"zip_code":"6760006","kana_pref":"ﾋｮｳｺﾞｹﾝ","kana_city":"ﾀｶｻｺﾞｼ","kana_address":"ｱﾗｲﾁｮｳﾐﾅﾐｻｶｴﾏﾁ","pref":"兵庫県","city":"高砂市","address":"荒井町南栄町"},
{"zip_code":"6760018","kana_pref":"ﾋｮｳｺﾞｹﾝ","kana_city":"ﾀｶｻｺﾞｼ","kana_address":"ｱﾗｲﾁｮｳﾜｶﾐﾔﾏﾁ","pref":"兵庫県","city":"高砂市","address":"荒井町若宮町"},
{"zip_code":"6760078","kana_pref":"ﾋｮｳｺﾞｹﾝ","kana_city":"ﾀｶｻｺﾞｼ","kana_address":"ｲﾎ","pref":"兵庫県","city":"高砂市","address":"伊保"},
{"zip_code":"6760072","kana_pref":"ﾋｮｳｺﾞｹﾝ","kana_city":"ﾀｶｻｺﾞｼ","kana_address":"ｲﾎﾐﾅﾄﾏﾁ","pref":"兵庫県","city":"高砂市","address":"伊保港町"},
{"zip_code":"6760071","kana_pref":"ﾋｮｳｺﾞｹﾝ","kana_city":"ﾀｶｻｺﾞｼ","kana_address":"ｲﾎﾋｶﾞｼ","pref":"兵庫県","city":"高砂市","address":"伊保東"},
{"zip_code":"6760076","kana_pref":"ﾋｮｳｺﾞｹﾝ","kana_city":"ﾀｶｻｺﾞｼ","kana_address":"ｲﾎｻﾞｷ","pref":"兵庫県","city":"高砂市","address":"伊保崎"},
{"zip_code":"6760075","kana_pref":"ﾋｮｳｺﾞｹﾝ","kana_city":"ﾀｶｻｺﾞｼ","kana_address":"ｲﾎｻﾞｷﾐﾅﾐ","pref":"兵庫県","city":"高砂市","address":"伊保崎南"},
{"zip_code":"6760081","kana_pref":"ﾋｮｳｺﾞｹﾝ","kana_city":"ﾀｶｻｺﾞｼ","kana_address":"ｲﾎﾁｮｳﾅｶｽｼﾞ","pref":"兵庫県","city":"高砂市","address":"伊保町中筋"},
{"zip_code":"6760003","kana_pref":"ﾋｮｳｺﾞｹﾝ","kana_city":"ﾀｶｻｺﾞｼ","kana_address":"ｲﾏｲﾁ","pref":"兵庫県","city":"高砂市","address":"今市"},
{"zip_code":"6760074","kana_pref":"ﾋｮｳｺﾞｹﾝ","kana_city":"ﾀｶｻｺﾞｼ","kana_address":"ｳﾒｲ","pref":"兵庫県","city":"高砂市","address":"梅井"},
{"zip_code":"6760814","kana_pref":"ﾋｮｳｺﾞｹﾝ","kana_city":"ﾀｶｻｺﾞｼ","kana_address":"ｶｽｶﾞﾉﾁｮｳ","pref":"兵庫県","city":"高砂市","address":"春日野町"},
{"zip_code":"6760808","kana_pref":"ﾋｮｳｺﾞｹﾝ","kana_city":"ﾀｶｻｺﾞｼ","kana_address":"ｶﾂﾞﾒ","pref":"兵庫県","city":"高砂市","address":"神爪"},
{"zip_code":"6760816","kana_pref":"ﾋｮｳｺﾞｹﾝ","kana_city":"ﾀｶｻｺﾞｼ","kana_address":"ｶﾅｹﾀﾞﾁｮｳ","pref":"兵庫県","city":"高砂市","address":"金ケ田町"},
{"zip_code":"6760813","kana_pref":"ﾋｮｳｺﾞｹﾝ","kana_city":"ﾀｶｻｺﾞｼ","kana_address":"ｼﾞｺｳｼﾞﾁｮｳ","pref":"兵庫県","city":"高砂市","address":"時光寺町"},
{"zip_code":"6760077","kana_pref":"ﾋｮｳｺﾞｹﾝ","kana_city":"ﾀｶｻｺﾞｼ","kana_address":"ｼｮｳﾖｳ","pref":"兵庫県","city":"高砂市","address":"松陽"},
{"zip_code":"6760002","kana_pref":"ﾋｮｳｺﾞｹﾝ","kana_city":"ﾀｶｻｺﾞｼ","kana_address":"ｽｴﾋﾛﾁｮｳ","pref":"兵庫県","city":"高砂市","address":"末広町"},
{"zip_code":"6760082","kana_pref":"ﾋｮｳｺﾞｹﾝ","kana_city":"ﾀｶｻｺﾞｼ","kana_address":"ｿﾈﾁｮｳ","pref":"兵庫県","city":"高砂市","address":"曽根町"},
{"zip_code":"6760028","kana_pref":"ﾋｮｳｺﾞｹﾝ","kana_city":"ﾀｶｻｺﾞｼ","kana_address":"ﾀｶｻｺﾞﾁｮｳｱｲｵｲﾁｮｳ","pref":"兵庫県","city":"高砂市","address":"高砂町相生町"},
{"zip_code":"6760037","kana_pref":"ﾋｮｳｺﾞｹﾝ","kana_city":"ﾀｶｻｺﾞｼ","kana_address":"ﾀｶｻｺﾞﾁｮｳｱｲﾔﾏﾁ","pref":"兵庫県","city":"高砂市","address":"高砂町藍屋町"},
{"zip_code":"6760021","kana_pref":"ﾋｮｳｺﾞｹﾝ","kana_city":"ﾀｶｻｺﾞｼ","kana_address":"ﾀｶｻｺﾞﾁｮｳｱｻﾋﾏﾁ","pref":"兵庫県","city":"高砂市","address":"高砂町朝日町"},
{"zip_code":"6760041","kana_pref":"ﾋｮｳｺﾞｹﾝ","kana_city":"ﾀｶｻｺﾞｼ","kana_address":"ﾀｶｻｺﾞﾁｮｳｲﾏﾂﾞﾏﾁ","pref":"兵庫県","city":"高砂市","address":"高砂町今津町"},
{"zip_code":"6760053","kana_pref":"ﾋｮｳｺﾞｹﾝ","kana_city":"ﾀｶｻｺﾞｼ","kana_address":"ﾀｶｻｺﾞﾁｮｳｳｵﾏﾁ","pref":"兵庫県","city":"高砂市","address":"高砂町魚町"},
{"zip_code":"6760045","kana_pref":"ﾋｮｳｺﾞｹﾝ","kana_city":"ﾀｶｻｺﾞｼ","kana_address":"ﾀｶｻｺﾞﾁｮｳｴﾋﾞｽﾏﾁ","pref":"兵庫県","city":"高砂市","address":"高砂町戎町"},
{"zip_code":"6760026","kana_pref":"ﾋｮｳｺﾞｹﾝ","kana_city":"ﾀｶｻｺﾞｼ","kana_address":"ﾀｶｻｺﾞﾁｮｳｵｷﾊﾏﾁｮｳ","pref":"兵庫県","city":"高砂市","address":"高砂町沖浜町"},
{"zip_code":"6760066","kana_pref":"ﾋｮｳｺﾞｹﾝ","kana_city":"ﾀｶｻｺﾞｼ","kana_address":"ﾀｶｻｺﾞﾁｮｳｶｷﾞﾏﾁ","pref":"兵庫県","city":"高砂市","address":"高砂町鍵町"},
{"zip_code":"6760068","kana_pref":"ﾋｮｳｺﾞｹﾝ","kana_city":"ﾀｶｻｺﾞｼ","kana_address":"ﾀｶｻｺﾞﾁｮｳｶｼﾞﾔﾏﾁ","pref":"兵庫県","city":"高砂市","address":"高砂町鍛冶屋町"},
{"zip_code":"6760054","kana_pref":"ﾋｮｳｺﾞｹﾝ","kana_city":"ﾀｶｻｺﾞｼ","kana_address":"ﾀｶｻｺﾞﾁｮｳｶﾘｱﾐﾏﾁ","pref":"兵庫県","city":"高砂市","address":"高砂町狩網町"},
{"zip_code":"6760024","kana_pref":"ﾋｮｳｺﾞｹﾝ","kana_city":"ﾀｶｻｺﾞｼ","kana_address":"ﾀｶｻｺﾞﾁｮｳｷｿﾏﾁ","pref":"兵庫県","city":"高砂市","address":"高砂町木曽町"},
{"zip_code":"6760062","kana_pref":"ﾋｮｳｺﾞｹﾝ","kana_city":"ﾀｶｻｺﾞｼ","kana_address":"ﾀｶｻｺﾞﾁｮｳｷﾀﾄｶｲﾏﾁ","pref":"兵庫県","city":"高砂市","address":"高砂町北渡海町"},
{"zip_code":"6760064","kana_pref":"ﾋｮｳｺﾞｹﾝ","kana_city":"ﾀｶｻｺﾞｼ","kana_address":"ﾀｶｻｺﾞﾁｮｳｷﾀﾎﾝﾏﾁ","pref":"兵庫県","city":"高砂市","address":"高砂町北本町"},
{"zip_code":"6760065","kana_pref":"ﾋｮｳｺﾞｹﾝ","kana_city":"ﾀｶｻｺﾞｼ","kana_address":"ﾀｶｻｺﾞﾁｮｳｻｲｸﾏﾁ","pref":"兵庫県","city":"高砂市","address":"高砂町細工町"},
{"zip_code":"6760038","kana_pref":"ﾋｮｳｺﾞｹﾝ","kana_city":"ﾀｶｻｺﾞｼ","kana_address":"ﾀｶｻｺﾞﾁｮｳｻｶｴﾏﾁ","pref":"兵庫県","city":"高砂市","address":"高砂町栄町"},
{"zip_code":"6760033","kana_pref":"ﾋｮｳｺﾞｹﾝ","kana_city":"ﾀｶｻｺﾞｼ","kana_address":"ﾀｶｻｺﾞﾁｮｳｻﾞｲﾓｸﾏﾁ","pref":"兵庫県","city":"高砂市","address":"高砂町材木町"},
{"zip_code":"6760035","kana_pref":"ﾋｮｳｺﾞｹﾝ","kana_city":"ﾀｶｻｺﾞｼ","kana_address":"ﾀｶｻｺﾞﾁｮｳｼﾐｽﾞﾏﾁ","pref":"兵庫県","city":"高砂市","address":"高砂町清水町"},
{"zip_code":"6760063","kana_pref":"ﾋｮｳｺﾞｹﾝ","kana_city":"ﾀｶｻｺﾞｼ","kana_address":"ﾀｶｻｺﾞﾁｮｳｼﾞﾛｽｹﾏﾁ","pref":"兵庫県","city":"高砂市","address":"高砂町次郎助町"},
{"zip_code":"6760034","kana_pref":"ﾋｮｳｺﾞｹﾝ","kana_city":"ﾀｶｻｺﾞｼ","kana_address":"ﾀｶｻｺﾞﾁｮｳｾﾝﾄﾞｳﾏﾁ","pref":"兵庫県","city":"高砂市","address":"高砂町船頭町"},
{"zip_code":"6760036","kana_pref":"ﾋｮｳｺﾞｹﾝ","kana_city":"ﾀｶｻｺﾞｼ","kana_address":"ﾀｶｻｺﾞﾁｮｳﾀｶｾﾏﾁ","pref":"兵庫県","city":"高砂市","address":"高砂町高瀬町"},
{"zip_code":"6760049","kana_pref":"ﾋｮｳｺﾞｹﾝ","kana_city":"ﾀｶｻｺﾞｼ","kana_address":"ﾀｶｻｺﾞﾁｮｳﾀﾏﾁ","pref":"兵庫県","city":"高砂市","address":"高砂町田町"},
{"zip_code":"6760056","kana_pref":"ﾋｮｳｺﾞｹﾝ","kana_city":"ﾀｶｻｺﾞｼ","kana_address":"ﾀｶｻｺﾞﾁｮｳﾀﾞｲｸﾏﾁ","pref":"兵庫県","city":"高砂市","address":"高砂町大工町"},
{"zip_code":"6760055","kana_pref":"ﾋｮｳｺﾞｹﾝ","kana_city":"ﾀｶｻｺﾞｼ","kana_address":"ﾀｶｻｺﾞﾁｮｳﾂﾘﾌﾈﾏﾁ","pref":"兵庫県","city":"高砂市","address":"高砂町釣船町"},
{"zip_code":"6760046","kana_pref":"ﾋｮｳｺﾞｹﾝ","kana_city":"ﾀｶｻｺﾞｼ","kana_address":"ﾀｶｻｺﾞﾁｮｳﾆｼﾐﾔﾏﾁ","pref":"兵庫県","city":"高砂市","address":"高砂町西宮町"},
{"zip_code":"6760061","kana_pref":"ﾋｮｳｺﾞｹﾝ","kana_city":"ﾀｶｻｺﾞｼ","kana_address":"ﾀｶｻｺﾞﾁｮｳﾉｳﾆﾝﾏﾁ","pref":"兵庫県","city":"高砂市","address":"高砂町農人町"},
{"zip_code":"6760022","kana_pref":"ﾋｮｳｺﾞｹﾝ","kana_city":"ﾀｶｻｺﾞｼ","kana_address":"ﾀｶｻｺﾞﾁｮｳﾊﾏﾀﾞﾏﾁ","pref":"兵庫県","city":"高砂市","address":"高砂町浜田町"},
{"zip_code":"6760067","kana_pref":"ﾋｮｳｺﾞｹﾝ","kana_city":"ﾀｶｻｺﾞｼ","kana_address":"ﾀｶｻｺﾞﾁｮｳﾋｶﾞｼﾉｳﾆﾝﾏﾁ","pref":"兵庫県","city":"高砂市","address":"高砂町東農人町"},
{"zip_code":"6760032","kana_pref":"ﾋｮｳｺﾞｹﾝ","kana_city":"ﾀｶｻｺﾞｼ","kana_address":"ﾀｶｻｺﾞﾁｮｳﾋｶﾞｼﾊﾏﾏﾁ","pref":"兵庫県","city":"高砂市","address":"高砂町東浜町"},
{"zip_code":"6760043","kana_pref":"ﾋｮｳｺﾞｹﾝ","kana_city":"ﾀｶｻｺﾞｼ","kana_address":"ﾀｶｻｺﾞﾁｮｳﾋｶﾞｼﾐﾔﾏﾁ","pref":"兵庫県","city":"高砂市","address":"高砂町東宮町"},
{"zip_code":"6760023","kana_pref":"ﾋｮｳｺﾞｹﾝ","kana_city":"ﾀｶｻｺﾞｼ","kana_address":"ﾀｶｻｺﾞﾁｮｳﾏﾂﾅﾐﾁｮｳ","pref":"兵庫県","city":"高砂市","address":"高砂町松波町"},
{"zip_code":"6760044","kana_pref":"ﾋｮｳｺﾞｹﾝ","kana_city":"ﾀｶｻｺﾞｼ","kana_address":"ﾀｶｻｺﾞﾁｮｳﾐﾅﾐｻﾞｲﾓｸﾏﾁ","pref":"兵庫県","city":"高砂市","address":"高砂町南材木町"},
{"zip_code":"6760052","kana_pref":"ﾋｮｳｺﾞｹﾝ","kana_city":"ﾀｶｻｺﾞｼ","kana_address":"ﾀｶｻｺﾞﾁｮｳﾐﾅﾐﾄｶｲﾏﾁ","pref":"兵庫県","city":"高砂市","address":"高砂町南渡海町"},
{"zip_code":"6760042","kana_pref":"ﾋｮｳｺﾞｹﾝ","kana_city":"ﾀｶｻｺﾞｼ","kana_address":"ﾀｶｻｺﾞﾁｮｳﾐﾅﾐﾊﾏﾏﾁ","pref":"兵庫県","city":"高砂市","address":"高砂町南浜町"},
{"zip_code":"6760047","kana_pref":"ﾋｮｳｺﾞｹﾝ","kana_city":"ﾀｶｻｺﾞｼ","kana_address":"ﾀｶｻｺﾞﾁｮｳﾐﾅﾐﾎﾝﾏﾁ","pref":"兵庫県","city":"高砂市","address":"高砂町南本町"},
{"zip_code":"6760027","kana_pref":"ﾋｮｳｺﾞｹﾝ","kana_city":"ﾀｶｻｺﾞｼ","kana_address":"ﾀｶｻｺﾞﾁｮｳﾐﾔﾏｴﾁｮｳ","pref":"兵庫県","city":"高砂市","address":"高砂町宮前町"},
{"zip_code":"6760031","kana_pref":"ﾋｮｳｺﾞｹﾝ","kana_city":"ﾀｶｻｺﾞｼ","kana_address":"ﾀｶｻｺﾞﾁｮｳﾑｺｳｼﾞﾏﾁｮｳ","pref":"兵庫県","city":"高砂市","address":"高砂町向島町"},
{"zip_code":"6760051","kana_pref":"ﾋｮｳｺﾞｹﾝ","kana_city":"ﾀｶｻｺﾞｼ","kana_address":"ﾀｶｻｺﾞﾁｮｳﾖｺﾏﾁ","pref":"兵庫県","city":"高砂市","address":"高砂町横町"},
{"zip_code":"6760048","kana_pref":"ﾋｮｳｺﾞｹﾝ","kana_city":"ﾀｶｻｺﾞｼ","kana_address":"ﾀｶｻｺﾞﾁｮｳﾘｮｳｼﾏﾁ","pref":"兵庫県","city":"高砂市","address":"高砂町猟師町"},
{"zip_code":"6760073","kana_pref":"ﾋｮｳｺﾞｹﾝ","kana_city":"ﾀｶｻｺﾞｼ","kana_address":"ﾀｶｽ","pref":"兵庫県","city":"高砂市","address":"高須"},
{"zip_code":"6760811","kana_pref":"ﾋｮｳｺﾞｹﾝ","kana_city":"ﾀｶｻｺﾞｼ","kana_address":"ﾀﾂﾔﾏ","pref":"兵庫県","city":"高砂市","address":"竜山"},
{"zip_code":"6760001","kana_pref":"ﾋｮｳｺﾞｹﾝ","kana_city":"ﾀｶｻｺﾞｼ","kana_address":"ﾅｶｼﾏ","pref":"兵庫県","city":"高砂市","address":"中島"},
{"zip_code":"6760812","kana_pref":"ﾋｮｳｺﾞｹﾝ","kana_city":"ﾀｶｻｺﾞｼ","kana_address":"ﾅｶｽｼﾞ","pref":"兵庫県","city":"高砂市","address":"中筋"},
{"zip_code":"6760025","kana_pref":"ﾋｮｳｺﾞｹﾝ","kana_city":"ﾀｶｻｺﾞｼ","kana_address":"ﾆｼﾊﾀ","pref":"兵庫県","city":"高砂市","address":"西畑"},
{"zip_code":"6760019","kana_pref":"ﾋｮｳｺﾞｹﾝ","kana_city":"ﾀｶｻｺﾞｼ","kana_address":"ﾐﾄﾞﾘｶﾞｵｶ","pref":"兵庫県","city":"高砂市","address":"緑丘"},
{"zip_code":"6760804","kana_pref":"ﾋｮｳｺﾞｹﾝ","kana_city":"ﾀｶｻｺﾞｼ","kana_address":"ﾐﾎﾉｻﾄ","pref":"兵庫県","city":"高砂市","address":"美保里"},
{"zip_code":"6760803","kana_pref":"ﾋｮｳｺﾞｹﾝ","kana_city":"ﾀｶｻｺﾞｼ","kana_address":"ﾕﾘｶﾞｵｶ","pref":"兵庫県","city":"高砂市","address":"百合丘"},
{"zip_code":"6760809","kana_pref":"ﾋｮｳｺﾞｹﾝ","kana_city":"ﾀｶｻｺﾞｼ","kana_address":"ﾖﾈﾀﾞﾀﾞﾝﾁ","pref":"兵庫県","city":"高砂市","address":"米田団地"},
{"zip_code":"6760802","kana_pref":"ﾋｮｳｺﾞｹﾝ","kana_city":"ﾀｶｻｺﾞｼ","kana_address":"ﾖﾈﾀﾞﾁｮｳｺｼﾝ","pref":"兵庫県","city":"高砂市","address":"米田町古新"},
{"zip_code":"6760806","kana_pref":"ﾋｮｳｺﾞｹﾝ","kana_city":"ﾀｶｻｺﾞｼ","kana_address":"ﾖﾈﾀﾞﾁｮｳｼｵｲﾁ","pref":"兵庫県","city":"高砂市","address":"米田町塩市"},
{"zip_code":"6760807","kana_pref":"ﾋｮｳｺﾞｹﾝ","kana_city":"ﾀｶｻｺﾞｼ","kana_address":"ﾖﾈﾀﾞﾁｮｳｼﾏ","pref":"兵庫県","city":"高砂市","address":"米田町島"},
{"zip_code":"6760805","kana_pref":"ﾋｮｳｺﾞｹﾝ","kana_city":"ﾀｶｻｺﾞｼ","kana_address":"ﾖﾈﾀﾞﾁｮｳﾖﾈﾀﾞ","pref":"兵庫県","city":"高砂市","address":"米田町米田"},
{"zip_code":"6760801","kana_pref":"ﾋｮｳｺﾞｹﾝ","kana_city":"ﾀｶｻｺﾞｼ","kana_address":"ﾖﾈﾀﾞﾁｮｳﾖﾈﾀﾞｼﾝ","pref":"兵庫県","city":"高砂市","address":"米田町米田新"}]}