{"zip_code":[
{"zip_code":"6770000","kana_pref":"ﾋｮｳｺﾞｹﾝ","kana_city":"ﾆｼﾜｷｼ","kana_address":"","pref":"兵庫県","city":"西脇市","address":""},
{"zip_code":"6770061","kana_pref":"ﾋｮｳｺﾞｹﾝ","kana_city":"ﾆｼﾜｷｼ","kana_address":"ｱﾔﾏﾁｮｳ","pref":"兵庫県","city":"西脇市","address":"合山町"},
{"zip_code":"6770056","kana_pref":"ﾋｮｳｺﾞｹﾝ","kana_city":"ﾆｼﾜｷｼ","kana_address":"ｲﾀﾊﾞﾁｮｳ","pref":"兵庫県","city":"西脇市","address":"板波町"},
{"zip_code":"6770004","kana_pref":"ﾋｮｳｺﾞｹﾝ","kana_city":"ﾆｼﾜｷｼ","kana_address":"ｲﾁﾊﾗﾁｮｳ","pref":"兵庫県","city":"西脇市","address":"市原町"},
{"zip_code":"6770044","kana_pref":"ﾋｮｳｺﾞｹﾝ","kana_city":"ﾆｼﾜｷｼ","kana_address":"ｳｴﾉ","pref":"兵庫県","city":"西脇市","address":"上野"},
{"zip_code":"6770038","kana_pref":"ﾋｮｳｺﾞｹﾝ","kana_city":"ﾆｼﾜｷｼ","kana_address":"ｵｵｶﾞﾁ","pref":"兵庫県","city":"西脇市","address":"大垣内"},
{"zip_code":"6770001","kana_pref":"ﾋｮｳｺﾞｹﾝ","kana_city":"ﾆｼﾜｷｼ","kana_address":"ｵｵｷﾞﾁｮｳ","pref":"兵庫県","city":"西脇市","address":"大木町"},
{"zip_code":"6770025","kana_pref":"ﾋｮｳｺﾞｹﾝ","kana_city":"ﾆｼﾜｷｼ","kana_address":"ｵｵﾉ","pref":"兵庫県","city":"西脇市","address":"大野"},
{"zip_code":"6770065","kana_pref":"ﾋｮｳｺﾞｹﾝ","kana_city":"ﾆｼﾜｷｼ","kana_address":"ｵｶｻﾞｷﾁｮｳ","pref":"兵庫県","city":"西脇市","address":"岡崎町"},
{"zip_code":"6770068","kana_pref":"ﾋｮｳｺﾞｹﾝ","kana_city":"ﾆｼﾜｷｼ","kana_address":"ｵﾁｶﾀﾁｮｳ","pref":"兵庫県","city":"西脇市","address":"落方町"},
{"zip_code":"6770069","kana_pref":"ﾋｮｳｺﾞｹﾝ","kana_city":"ﾆｼﾜｷｼ","kana_address":"ｶﾐｵｳｼﾞﾁｮｳ","pref":"兵庫県","city":"西脇市","address":"上王子町"},
{"zip_code":"6770035","kana_pref":"ﾋｮｳｺﾞｹﾝ","kana_city":"ﾆｼﾜｷｼ","kana_address":"ｶﾐﾄﾀﾞ","pref":"兵庫県","city":"西脇市","address":"上戸田"},
{"zip_code":"6770039","kana_pref":"ﾋｮｳｺﾞｹﾝ","kana_city":"ﾆｼﾜｷｼ","kana_address":"ｶﾐﾋｴﾁｮｳ","pref":"兵庫県","city":"西脇市","address":"上比延町"},
{"zip_code":"6770016","kana_pref":"ﾋｮｳｺﾞｹﾝ","kana_city":"ﾆｼﾜｷｼ","kana_address":"ｺｳﾀﾞｲﾁｮｳ","pref":"兵庫県","city":"西脇市","address":"高田井町"},
{"zip_code":"6770017","kana_pref":"ﾋｮｳｺﾞｹﾝ","kana_city":"ﾆｼﾜｷｼ","kana_address":"ｺｻｶﾁｮｳ","pref":"兵庫県","city":"西脇市","address":"小坂町"},
{"zip_code":"6770014","kana_pref":"ﾋｮｳｺﾞｹﾝ","kana_city":"ﾆｼﾜｷｼ","kana_address":"ｺﾞﾉｾﾁｮｳ","pref":"兵庫県","city":"西脇市","address":"郷瀬町"},
{"zip_code":"6770021","kana_pref":"ﾋｮｳｺﾞｹﾝ","kana_city":"ﾆｼﾜｷｼ","kana_address":"ｺﾓｴ","pref":"兵庫県","city":"西脇市","address":"蒲江"},
{"zip_code":"6770026","kana_pref":"ﾋｮｳｺﾞｹﾝ","kana_city":"ﾆｼﾜｷｼ","kana_address":"ｻｶﾓﾄ","pref":"兵庫県","city":"西脇市","address":"坂本"},
{"zip_code":"6770033","kana_pref":"ﾋｮｳｺﾞｹﾝ","kana_city":"ﾆｼﾜｷｼ","kana_address":"ｼｶﾉﾁｮｳ","pref":"兵庫県","city":"西脇市","address":"鹿野町"},
{"zip_code":"6770024","kana_pref":"ﾋｮｳｺﾞｹﾝ","kana_city":"ﾆｼﾜｷｼ","kana_address":"ｼﾏ","pref":"兵庫県","city":"西脇市","address":"嶋"},
{"zip_code":"6770043","kana_pref":"ﾋｮｳｺﾞｹﾝ","kana_city":"ﾆｼﾜｷｼ","kana_address":"ｼﾓﾄﾀﾞ","pref":"兵庫県","city":"西脇市","address":"下戸田"},
{"zip_code":"6770031","kana_pref":"ﾋｮｳｺﾞｹﾝ","kana_city":"ﾆｼﾜｷｼ","kana_address":"ｽﾐﾖｼﾁｮｳ","pref":"兵庫県","city":"西脇市","address":"住吉町"},
{"zip_code":"6770041","kana_pref":"ﾋｮｳｺﾞｹﾝ","kana_city":"ﾆｼﾜｷｼ","kana_address":"ﾀｶｼﾏﾁｮｳ","pref":"兵庫県","city":"西脇市","address":"高嶋町"},
{"zip_code":"6770055","kana_pref":"ﾋｮｳｺﾞｹﾝ","kana_city":"ﾆｼﾜｷｼ","kana_address":"ﾀｶﾏﾂﾁｮｳ","pref":"兵庫県","city":"西脇市","address":"高松町"},
{"zip_code":"6770051","kana_pref":"ﾋｮｳｺﾞｹﾝ","kana_city":"ﾆｼﾜｷｼ","kana_address":"ﾀﾆﾁｮｳ","pref":"兵庫県","city":"西脇市","address":"谷町"},
{"zip_code":"6770034","kana_pref":"ﾋｮｳｺﾞｹﾝ","kana_city":"ﾆｼﾜｷｼ","kana_address":"ﾂｶｸﾞﾁﾁｮｳ","pref":"兵庫県","city":"西脇市","address":"塚口町"},
{"zip_code":"6770036","kana_pref":"ﾋｮｳｺﾞｹﾝ","kana_city":"ﾆｼﾜｷｼ","kana_address":"ﾂﾏ","pref":"兵庫県","city":"西脇市","address":"津万"},
{"zip_code":"6770062","kana_pref":"ﾋｮｳｺﾞｹﾝ","kana_city":"ﾆｼﾜｷｼ","kana_address":"ﾃﾞｱｲﾁｮｳ","pref":"兵庫県","city":"西脇市","address":"出会町"},
{"zip_code":"6770022","kana_pref":"ﾋｮｳｺﾞｹﾝ","kana_city":"ﾆｼﾜｷｼ","kana_address":"ﾃﾗｳﾁ","pref":"兵庫県","city":"西脇市","address":"寺内"},
{"zip_code":"6770018","kana_pref":"ﾋｮｳｺﾞｹﾝ","kana_city":"ﾆｼﾜｷｼ","kana_address":"ﾄﾐﾀﾁｮｳ","pref":"兵庫県","city":"西脇市","address":"富田町"},
{"zip_code":"6770011","kana_pref":"ﾋｮｳｺﾞｹﾝ","kana_city":"ﾆｼﾜｷｼ","kana_address":"ﾄﾐﾖｼｶﾐﾏﾁ","pref":"兵庫県","city":"西脇市","address":"富吉上町"},
{"zip_code":"6770012","kana_pref":"ﾋｮｳｺﾞｹﾝ","kana_city":"ﾆｼﾜｷｼ","kana_address":"ﾄﾐﾖｼﾐﾅﾐﾁｮｳ","pref":"兵庫県","city":"西脇市","address":"富吉南町"},
{"zip_code":"6770032","kana_pref":"ﾋｮｳｺﾞｹﾝ","kana_city":"ﾆｼﾜｷｼ","kana_address":"ﾅｶﾊﾀﾁｮｳ","pref":"兵庫県","city":"西脇市","address":"中畑町"},
{"zip_code":"6770023","kana_pref":"ﾋｮｳｺﾞｹﾝ","kana_city":"ﾆｼﾜｷｼ","kana_address":"ﾆｼｼﾞﾏ","pref":"兵庫県","city":"西脇市","address":"西嶋"},
{"zip_code":"6770003","kana_pref":"ﾋｮｳｺﾞｹﾝ","kana_city":"ﾆｼﾜｷｼ","kana_address":"ﾆｼﾀﾞﾁｮｳ","pref":"兵庫県","city":"西脇市","address":"西田町"},
{"zip_code":"6770015","kana_pref":"ﾋｮｳｺﾞｹﾝ","kana_city":"ﾆｼﾜｷｼ","kana_address":"ﾆｼﾜｷ","pref":"兵庫県","city":"西脇市","address":"西脇"},
{"zip_code":"6770005","kana_pref":"ﾋｮｳｺﾞｹﾝ","kana_city":"ﾆｼﾜｷｼ","kana_address":"ﾉﾅｶﾁｮｳ","pref":"兵庫県","city":"西脇市","address":"野中町"},
{"zip_code":"6770054","kana_pref":"ﾋｮｳｺﾞｹﾝ","kana_city":"ﾆｼﾜｷｼ","kana_address":"ﾉﾑﾗﾁｮｳ","pref":"兵庫県","city":"西脇市","address":"野村町"},
{"zip_code":"6770057","kana_pref":"ﾋｮｳｺﾞｹﾝ","kana_city":"ﾆｼﾜｷｼ","kana_address":"ﾉﾑﾗﾁｮｳｱｶﾈｶﾞｵｶ","pref":"兵庫県","city":"西脇市","address":"野村町茜が丘"},
{"zip_code":"6770006","kana_pref":"ﾋｮｳｺﾞｹﾝ","kana_city":"ﾆｼﾜｷｼ","kana_address":"ﾊﾔｽﾁｮｳ","pref":"兵庫県","city":"西脇市","address":"羽安町"},
{"zip_code":"6770037","kana_pref":"ﾋｮｳｺﾞｹﾝ","kana_city":"ﾆｼﾜｷｼ","kana_address":"ﾋｴﾁｮｳ","pref":"兵庫県","city":"西脇市","address":"比延町"},
{"zip_code":"6770013","kana_pref":"ﾋｮｳｺﾞｹﾝ","kana_city":"ﾆｼﾜｷｼ","kana_address":"ﾋﾉﾁｮｳ","pref":"兵庫県","city":"西脇市","address":"日野町"},
{"zip_code":"6770063","kana_pref":"ﾋｮｳｺﾞｹﾝ","kana_city":"ﾆｼﾜｷｼ","kana_address":"ﾋﾗﾉﾁｮｳ","pref":"兵庫県","city":"西脇市","address":"平野町"},
{"zip_code":"6770042","kana_pref":"ﾋｮｳｺﾞｹﾝ","kana_city":"ﾆｼﾜｷｼ","kana_address":"ﾎﾘﾁｮｳ","pref":"兵庫県","city":"西脇市","address":"堀町"},
{"zip_code":"6770002","kana_pref":"ﾋｮｳｺﾞｹﾝ","kana_city":"ﾆｼﾜｷｼ","kana_address":"ﾏｴｼﾞﾏﾁｮｳ","pref":"兵庫県","city":"西脇市","address":"前島町"},
{"zip_code":"6770066","kana_pref":"ﾋｮｳｺﾞｹﾝ","kana_city":"ﾆｼﾜｷｼ","kana_address":"ﾐｽﾞｵﾁｮｳ","pref":"兵庫県","city":"西脇市","address":"水尾町"},
{"zip_code":"6770067","kana_pref":"ﾋｮｳｺﾞｹﾝ","kana_city":"ﾆｼﾜｷｼ","kana_address":"ﾐｮｳﾗｸｼﾞﾁｮｳ","pref":"兵庫県","city":"西脇市","address":"明楽寺町"},
{"zip_code":"6770064","kana_pref":"ﾋｮｳｺﾞｹﾝ","kana_city":"ﾆｼﾜｷｼ","kana_address":"ﾔｻｶﾁｮｳ","pref":"兵庫県","city":"西脇市","address":"八坂町"},
{"zip_code":"6770052","kana_pref":"ﾋｮｳｺﾞｹﾝ","kana_city":"ﾆｼﾜｷｼ","kana_address":"ﾜﾀﾞﾁｮｳ","pref":"兵庫県","city":"西脇市","address":"和田町"},
{"zip_code":"6770053","kana_pref":"ﾋｮｳｺﾞｹﾝ","kana_city":"ﾆｼﾜｷｼ","kana_address":"ﾜﾌﾞﾁｮｳ","pref":"兵庫県","city":"西脇市","address":"和布町"},
{"zip_code":"6770112","kana_pref":"ﾋｮｳｺﾞｹﾝ","kana_city":"ﾀｶｸﾞﾝﾀｶﾁｮｳ","kana_address":"ﾔﾁﾖｸｱｶｻｶ","pref":"兵庫県","city":"多可郡多可町","address":"八千代区赤坂"},
{"zip_code":"6770101","kana_pref":"ﾋｮｳｺﾞｹﾝ","kana_city":"ﾀｶｸﾞﾝﾀｶﾁｮｳ","kana_address":"ﾔﾁﾖｸｵｵﾔ","pref":"兵庫県","city":"多可郡多可町","address":"八千代区大屋"},
{"zip_code":"6770111","kana_pref":"ﾋｮｳｺﾞｹﾝ","kana_city":"ﾀｶｸﾞﾝﾀｶﾁｮｳ","kana_address":"ﾔﾁﾖｸｶﾄﾞﾀ","pref":"兵庫県","city":"多可郡多可町","address":"八千代区門田"},
{"zip_code":"6770102","kana_pref":"ﾋｮｳｺﾞｹﾝ","kana_city":"ﾀｶｸﾞﾝﾀｶﾁｮｳ","kana_address":"ﾔﾁﾖｸｻｶﾓﾄ","pref":"兵庫県","city":"多可郡多可町","address":"八千代区坂本"},
{"zip_code":"6770114","kana_pref":"ﾋｮｳｺﾞｹﾝ","kana_city":"ﾀｶｸﾞﾝﾀｶﾁｮｳ","kana_address":"ﾔﾁﾖｸｼﾃﾞﾊﾗ","pref":"兵庫県","city":"多可郡多可町","address":"八千代区仕出原"},
{"zip_code":"6770122","kana_pref":"ﾋｮｳｺﾞｹﾝ","kana_city":"ﾀｶｸﾞﾝﾀｶﾁｮｳ","kana_address":"ﾔﾁﾖｸｼﾓﾉﾏ","pref":"兵庫県","city":"多可郡多可町","address":"八千代区下野間"},
{"zip_code":"6770131","kana_pref":"ﾋｮｳｺﾞｹﾝ","kana_city":"ﾀｶｸﾞﾝﾀｶﾁｮｳ","kana_address":"ﾔﾁﾖｸｼﾓﾐﾊﾗ","pref":"兵庫県","city":"多可郡多可町","address":"八千代区下三原"},
{"zip_code":"6770105","kana_pref":"ﾋｮｳｺﾞｹﾝ","kana_city":"ﾀｶｸﾞﾝﾀｶﾁｮｳ","kana_address":"ﾔﾁﾖｸｼﾓﾑﾗ","pref":"兵庫県","city":"多可郡多可町","address":"八千代区下村"},
{"zip_code":"6770113","kana_pref":"ﾋｮｳｺﾞｹﾝ","kana_city":"ﾀｶｸﾞﾝﾀｶﾁｮｳ","kana_address":"ﾔﾁﾖｸﾀﾜﾗﾀﾞ","pref":"兵庫県","city":"多可郡多可町","address":"八千代区俵田"},
{"zip_code":"6770121","kana_pref":"ﾋｮｳｺﾞｹﾝ","kana_city":"ﾀｶｸﾞﾝﾀｶﾁｮｳ","kana_address":"ﾔﾁﾖｸﾅｶﾉﾏ","pref":"兵庫県","city":"多可郡多可町","address":"八千代区中野間"},
{"zip_code":"6770103","kana_pref":"ﾋｮｳｺﾞｹﾝ","kana_city":"ﾀｶｸﾞﾝﾀｶﾁｮｳ","kana_address":"ﾔﾁﾖｸﾅｶﾑﾗ","pref":"兵庫県","city":"多可郡多可町","address":"八千代区中村"},
{"zip_code":"6770132","kana_pref":"ﾋｮｳｺﾞｹﾝ","kana_city":"ﾀｶｸﾞﾝﾀｶﾁｮｳ","kana_address":"ﾔﾁﾖｸﾔﾏﾄ","pref":"兵庫県","city":"多可郡多可町","address":"八千代区大和"},
{"zip_code":"6770104","kana_pref":"ﾋｮｳｺﾞｹﾝ","kana_city":"ﾀｶｸﾞﾝﾀｶﾁｮｳ","kana_address":"ﾔﾁﾖｸﾖｺﾔ","pref":"兵庫県","city":"多可郡多可町","address":"八千代区横屋"}]}