{"zip_code":[
{"zip_code":"6780000","kana_pref":"ﾋｮｳｺﾞｹﾝ","kana_city":"ｱｲｵｲｼ","kana_address":"","pref":"兵庫県","city":"相生市","address":""},
{"zip_code":"6780141","kana_pref":"ﾋｮｳｺﾞｹﾝ","kana_city":"ｱｲｵｲｼ","kana_address":"ｱｲｵｲ","pref":"兵庫県","city":"相生市","address":"相生"},
{"zip_code":"6780041","kana_pref":"ﾋｮｳｺﾞｹﾝ","kana_city":"ｱｲｵｲｼ","kana_address":"ｱｲｵｲ","pref":"兵庫県","city":"相生市","address":"相生"},
{"zip_code":"6780064","kana_pref":"ﾋｮｳｺﾞｹﾝ","kana_city":"ｱｲｵｲｼ","kana_address":"ｱｵﾊﾞﾀﾞｲ","pref":"兵庫県","city":"相生市","address":"青葉台"},
{"zip_code":"6780021","kana_pref":"ﾋｮｳｺﾞｹﾝ","kana_city":"ｱｲｵｲｼ","kana_address":"ｱｶｻｶ","pref":"兵庫県","city":"相生市","address":"赤坂"},
{"zip_code":"6780031","kana_pref":"ﾋｮｳｺﾞｹﾝ","kana_city":"ｱｲｵｲｼ","kana_address":"ｱｻﾋ","pref":"兵庫県","city":"相生市","address":"旭"},
{"zip_code":"6780004","kana_pref":"ﾋｮｳｺﾞｹﾝ","kana_city":"ｱｲｵｲｼ","kana_address":"ｲｹﾉｳﾁ","pref":"兵庫県","city":"相生市","address":"池之内"},
{"zip_code":"6780005","kana_pref":"ﾋｮｳｺﾞｹﾝ","kana_city":"ｱｲｵｲｼ","kana_address":"ｵｵｲｼﾁｮｳ","pref":"兵庫県","city":"相生市","address":"大石町"},
{"zip_code":"6780052","kana_pref":"ﾋｮｳｺﾞｹﾝ","kana_city":"ｱｲｵｲｼ","kana_address":"ｵｵｼﾏﾁｮｳ","pref":"兵庫県","city":"相生市","address":"大島町"},
{"zip_code":"6780043","kana_pref":"ﾋｮｳｺﾞｹﾝ","kana_city":"ｱｲｵｲｼ","kana_address":"ｵｵﾀﾆﾁｮｳ","pref":"兵庫県","city":"相生市","address":"大谷町"},
{"zip_code":"6780022","kana_pref":"ﾋｮｳｺﾞｹﾝ","kana_city":"ｱｲｵｲｼ","kana_address":"ｶｷｳﾁﾁｮｳ","pref":"兵庫県","city":"相生市","address":"垣内町"},
{"zip_code":"6780042","kana_pref":"ﾋｮｳｺﾞｹﾝ","kana_city":"ｱｲｵｲｼ","kana_address":"ｶﾜﾊﾗﾁｮｳ","pref":"兵庫県","city":"相生市","address":"川原町"},
{"zip_code":"6780003","kana_pref":"ﾋｮｳｺﾞｹﾝ","kana_city":"ｱｲｵｲｼ","kana_address":"ｸｶﾞ","pref":"兵庫県","city":"相生市","address":"陸"},
{"zip_code":"6780007","kana_pref":"ﾋｮｳｺﾞｹﾝ","kana_city":"ｱｲｵｲｼ","kana_address":"ｸｶﾞﾎﾝﾏﾁ","pref":"兵庫県","city":"相生市","address":"陸本町"},
{"zip_code":"6780023","kana_pref":"ﾋｮｳｺﾞｹﾝ","kana_city":"ｱｲｵｲｼ","kana_address":"ｺｳﾖｳﾀﾞｲ","pref":"兵庫県","city":"相生市","address":"向陽台"},
{"zip_code":"6780008","kana_pref":"ﾋｮｳｺﾞｹﾝ","kana_city":"ｱｲｵｲｼ","kana_address":"ｻｶｴﾏﾁ","pref":"兵庫県","city":"相生市","address":"栄町"},
{"zip_code":"6780063","kana_pref":"ﾋｮｳｺﾞｹﾝ","kana_city":"ｱｲｵｲｼ","kana_address":"ｻｶﾞﾀ","pref":"兵庫県","city":"相生市","address":"佐方"},
{"zip_code":"6780061","kana_pref":"ﾋｮｳｺﾞｹﾝ","kana_city":"ｱｲｵｲｼ","kana_address":"ｻｸﾗｶﾞｵｶﾁｮｳ","pref":"兵庫県","city":"相生市","address":"桜ケ丘町"},
{"zip_code":"6780002","kana_pref":"ﾋｮｳｺﾞｹﾝ","kana_city":"ｱｲｵｲｼ","kana_address":"ｼｵﾐﾀﾞｲ","pref":"兵庫県","city":"相生市","address":"汐見台"},
{"zip_code":"6780073","kana_pref":"ﾋｮｳｺﾞｹﾝ","kana_city":"ｱｲｵｲｼ","kana_address":"ｽｶﾞﾊﾗﾁｮｳ","pref":"兵庫県","city":"相生市","address":"菅原町"},
{"zip_code":"6780062","kana_pref":"ﾋｮｳｺﾞｹﾝ","kana_city":"ｱｲｵｲｼ","kana_address":"ﾁﾋﾛﾁｮｳ","pref":"兵庫県","city":"相生市","address":"千尋町"},
{"zip_code":"6780067","kana_pref":"ﾋｮｳｺﾞｹﾝ","kana_city":"ｱｲｵｲｼ","kana_address":"ﾅﾊﾞ","pref":"兵庫県","city":"相生市","address":"那波"},
{"zip_code":"6780051","kana_pref":"ﾋｮｳｺﾞｹﾝ","kana_city":"ｱｲｵｲｼ","kana_address":"ﾅﾊﾞｵｵﾊﾏﾁｮｳ","pref":"兵庫県","city":"相生市","address":"那波大浜町"},
{"zip_code":"6780056","kana_pref":"ﾋｮｳｺﾞｹﾝ","kana_city":"ｱｲｵｲｼ","kana_address":"ﾅﾊﾞﾋｶﾞｼﾎﾝﾏﾁ","pref":"兵庫県","city":"相生市","address":"那波東本町"},
{"zip_code":"6780054","kana_pref":"ﾋｮｳｺﾞｹﾝ","kana_city":"ｱｲｵｲｼ","kana_address":"ﾅﾊﾞﾆｼﾎﾝﾏﾁ","pref":"兵庫県","city":"相生市","address":"那波西本町"},
{"zip_code":"6780053","kana_pref":"ﾋｮｳｺﾞｹﾝ","kana_city":"ｱｲｵｲｼ","kana_address":"ﾅﾊﾞﾐﾅﾐﾎﾝﾏﾁ","pref":"兵庫県","city":"相生市","address":"那波南本町"},
{"zip_code":"6780055","kana_pref":"ﾋｮｳｺﾞｹﾝ","kana_city":"ｱｲｵｲｼ","kana_address":"ﾅﾊﾞﾎﾝﾏﾁ","pref":"兵庫県","city":"相生市","address":"那波本町"},
{"zip_code":"6780011","kana_pref":"ﾋｮｳｺﾞｹﾝ","kana_city":"ｱｲｵｲｼ","kana_address":"ﾅﾊﾞﾉ","pref":"兵庫県","city":"相生市","address":"那波野"},
{"zip_code":"6780065","kana_pref":"ﾋｮｳｺﾞｹﾝ","kana_city":"ｱｲｵｲｼ","kana_address":"ﾆｼﾀﾆﾁｮｳ","pref":"兵庫県","city":"相生市","address":"西谷町"},
{"zip_code":"6780044","kana_pref":"ﾋｮｳｺﾞｹﾝ","kana_city":"ｱｲｵｲｼ","kana_address":"ﾉｾ","pref":"兵庫県","city":"相生市","address":"野瀬"},
{"zip_code":"6780074","kana_pref":"ﾋｮｳｺﾞｹﾝ","kana_city":"ｱｲｵｲｼ","kana_address":"ﾋｶﾘｶﾞｵｶ","pref":"兵庫県","city":"相生市","address":"ひかりが丘"},
{"zip_code":"6780024","kana_pref":"ﾋｮｳｺﾞｹﾝ","kana_city":"ｱｲｵｲｼ","kana_address":"ﾌﾀﾊﾞ","pref":"兵庫県","city":"相生市","address":"双葉"},
{"zip_code":"6780012","kana_pref":"ﾋｮｳｺﾞｹﾝ","kana_city":"ｱｲｵｲｼ","kana_address":"ﾌﾙｲｹ","pref":"兵庫県","city":"相生市","address":"古池"},
{"zip_code":"6780025","kana_pref":"ﾋｮｳｺﾞｹﾝ","kana_city":"ｱｲｵｲｼ","kana_address":"ﾌﾙｲｹﾎﾝﾏﾁ","pref":"兵庫県","city":"相生市","address":"古池本町"},
{"zip_code":"6780006","kana_pref":"ﾋｮｳｺﾞｹﾝ","kana_city":"ｱｲｵｲｼ","kana_address":"ﾎﾝｺﾞｳﾁｮｳ","pref":"兵庫県","city":"相生市","address":"本郷町"},
{"zip_code":"6780071","kana_pref":"ﾋｮｳｺﾞｹﾝ","kana_city":"ｱｲｵｲｼ","kana_address":"ﾐﾄﾞﾘｶﾞｵｶ","pref":"兵庫県","city":"相生市","address":"緑ケ丘"},
{"zip_code":"6780091","kana_pref":"ﾋｮｳｺﾞｹﾝ","kana_city":"ｱｲｵｲｼ","kana_address":"ﾔﾉﾁｮｳｳﾘｭｳ","pref":"兵庫県","city":"相生市","address":"矢野町瓜生"},
{"zip_code":"6780092","kana_pref":"ﾋｮｳｺﾞｹﾝ","kana_city":"ｱｲｵｲｼ","kana_address":"ﾔﾉﾁｮｳｵｳｺﾞ","pref":"兵庫県","city":"相生市","address":"矢野町小河"},
{"zip_code":"6780091","kana_pref":"ﾋｮｳｺﾞｹﾝ","kana_city":"ｱｲｵｲｼ","kana_address":"ﾔﾉﾁｮｳｶﾈｻｶ","pref":"兵庫県","city":"相生市","address":"矢野町金坂"},
{"zip_code":"6780091","kana_pref":"ﾋｮｳｺﾞｹﾝ","kana_city":"ｱｲｵｲｼ","kana_address":"ﾔﾉﾁｮｳｶﾏﾃﾞ","pref":"兵庫県","city":"相生市","address":"矢野町釜出"},
{"zip_code":"6780091","kana_pref":"ﾋｮｳｺﾞｹﾝ","kana_city":"ｱｲｵｲｼ","kana_address":"ﾔﾉﾁｮｳｶﾐ","pref":"兵庫県","city":"相生市","address":"矢野町上"},
{"zip_code":"6780092","kana_pref":"ﾋｮｳｺﾞｹﾝ","kana_city":"ｱｲｵｲｼ","kana_address":"ﾔﾉﾁｮｳｶﾐﾄﾞｲ","pref":"兵庫県","city":"相生市","address":"矢野町上土井"},
{"zip_code":"6780091","kana_pref":"ﾋｮｳｺﾞｹﾝ","kana_city":"ｱｲｵｲｼ","kana_address":"ﾔﾉﾁｮｳｻｶｷ","pref":"兵庫県","city":"相生市","address":"矢野町榊"},
{"zip_code":"6780092","kana_pref":"ﾋｮｳｺﾞｹﾝ","kana_city":"ｱｲｵｲｼ","kana_address":"ﾔﾉﾁｮｳｼﾓﾀﾞ","pref":"兵庫県","city":"相生市","address":"矢野町下田"},
{"zip_code":"6780091","kana_pref":"ﾋｮｳｺﾞｹﾝ","kana_city":"ｱｲｵｲｼ","kana_address":"ﾔﾉﾁｮｳｽｶﾞﾀﾆ","pref":"兵庫県","city":"相生市","address":"矢野町菅谷"},
{"zip_code":"6780091","kana_pref":"ﾋｮｳｺﾞｹﾝ","kana_city":"ｱｲｵｲｼ","kana_address":"ﾔﾉﾁｮｳﾅｶﾉ","pref":"兵庫県","city":"相生市","address":"矢野町中野"},
{"zip_code":"6780091","kana_pref":"ﾋｮｳｺﾞｹﾝ","kana_city":"ｱｲｵｲｼ","kana_address":"ﾔﾉﾁｮｳﾉｳｹﾞ","pref":"兵庫県","city":"相生市","address":"矢野町能下"},
{"zip_code":"6780091","kana_pref":"ﾋｮｳｺﾞｹﾝ","kana_city":"ｱｲｵｲｼ","kana_address":"ﾔﾉﾁｮｳﾌﾀﾂｷﾞ","pref":"兵庫県","city":"相生市","address":"矢野町二木"},
{"zip_code":"6780091","kana_pref":"ﾋｮｳｺﾞｹﾝ","kana_city":"ｱｲｵｲｼ","kana_address":"ﾔﾉﾁｮｳﾏﾋﾛ","pref":"兵庫県","city":"相生市","address":"矢野町真広"},
{"zip_code":"6780091","kana_pref":"ﾋｮｳｺﾞｹﾝ","kana_city":"ｱｲｵｲｼ","kana_address":"ﾔﾉﾁｮｳﾓﾘ","pref":"兵庫県","city":"相生市","address":"矢野町森"},
{"zip_code":"6780066","kana_pref":"ﾋｮｳｺﾞｹﾝ","kana_city":"ｱｲｵｲｼ","kana_address":"ﾔﾏｻｷﾁｮｳ","pref":"兵庫県","city":"相生市","address":"山崎町"},
{"zip_code":"6780001","kana_pref":"ﾋｮｳｺﾞｹﾝ","kana_city":"ｱｲｵｲｼ","kana_address":"ﾔﾏﾃ","pref":"兵庫県","city":"相生市","address":"山手"},
{"zip_code":"6780072","kana_pref":"ﾋｮｳｺﾞｹﾝ","kana_city":"ｱｲｵｲｼ","kana_address":"ﾘｭｳｾﾝﾁｮｳ","pref":"兵庫県","city":"相生市","address":"竜泉町"},
{"zip_code":"6780081","kana_pref":"ﾋｮｳｺﾞｹﾝ","kana_city":"ｱｲｵｲｼ","kana_address":"ﾜｶｻﾉﾁｮｳｱﾏｳﾁ","pref":"兵庫県","city":"相生市","address":"若狭野町雨内"},
{"zip_code":"6780081","kana_pref":"ﾋｮｳｺﾞｹﾝ","kana_city":"ｱｲｵｲｼ","kana_address":"ﾜｶｻﾉﾁｮｳｲﾘﾉ","pref":"兵庫県","city":"相生市","address":"若狭野町入野"},
{"zip_code":"6780081","kana_pref":"ﾋｮｳｺﾞｹﾝ","kana_city":"ｱｲｵｲｼ","kana_address":"ﾜｶｻﾉﾁｮｳｳｴﾏﾂ","pref":"兵庫県","city":"相生市","address":"若狭野町上松"},
{"zip_code":"6780082","kana_pref":"ﾋｮｳｺﾞｹﾝ","kana_city":"ｱｲｵｲｼ","kana_address":"ﾜｶｻﾉﾁｮｳｼﾓﾄﾞｲ","pref":"兵庫県","city":"相生市","address":"若狭野町下土井"},
{"zip_code":"6780082","kana_pref":"ﾋｮｳｺﾞｹﾝ","kana_city":"ｱｲｵｲｼ","kana_address":"ﾜｶｻﾉﾁｮｳﾃﾗﾀﾞ","pref":"兵庫県","city":"相生市","address":"若狭野町寺田"},
{"zip_code":"6780082","kana_pref":"ﾋｮｳｺﾞｹﾝ","kana_city":"ｱｲｵｲｼ","kana_address":"ﾜｶｻﾉﾁｮｳﾃﾞ","pref":"兵庫県","city":"相生市","address":"若狭野町出"},
{"zip_code":"6780082","kana_pref":"ﾋｮｳｺﾞｹﾝ","kana_city":"ｱｲｵｲｼ","kana_address":"ﾜｶｻﾉﾁｮｳﾉﾉ","pref":"兵庫県","city":"相生市","address":"若狭野町野々"},
{"zip_code":"6780082","kana_pref":"ﾋｮｳｺﾞｹﾝ","kana_city":"ｱｲｵｲｼ","kana_address":"ﾜｶｻﾉﾁｮｳﾊｯﾄｳ","pref":"兵庫県","city":"相生市","address":"若狭野町八洞"},
{"zip_code":"6780081","kana_pref":"ﾋｮｳｺﾞｹﾝ","kana_city":"ｱｲｵｲｼ","kana_address":"ﾜｶｻﾉﾁｮｳﾋｶﾞｼｺﾞﾐｮｳ","pref":"兵庫県","city":"相生市","address":"若狭野町東後明"},
{"zip_code":"6780081","kana_pref":"ﾋｮｳｺﾞｹﾝ","kana_city":"ｱｲｵｲｼ","kana_address":"ﾜｶｻﾉﾁｮｳﾆｼｺﾞﾐｮｳ","pref":"兵庫県","city":"相生市","address":"若狭野町西後明"},
{"zip_code":"6780082","kana_pref":"ﾋｮｳｺﾞｹﾝ","kana_city":"ｱｲｵｲｼ","kana_address":"ﾜｶｻﾉﾁｮｳﾌｸｲ","pref":"兵庫県","city":"相生市","address":"若狭野町福井"},
{"zip_code":"6780081","kana_pref":"ﾋｮｳｺﾞｹﾝ","kana_city":"ｱｲｵｲｼ","kana_address":"ﾜｶｻﾉﾁｮｳﾜｶｻﾉ","pref":"兵庫県","city":"相生市","address":"若狭野町若狭野"},
{"zip_code":"6780200","kana_pref":"ﾋｮｳｺﾞｹﾝ","kana_city":"ｱｺｳｼ","kana_address":"","pref":"兵庫県","city":"赤穂市","address":""},
{"zip_code":"6780214","kana_pref":"ﾋｮｳｺﾞｹﾝ","kana_city":"ｱｺｳｼ","kana_address":"ｱｻﾋﾁｮｳ","pref":"兵庫県","city":"赤穂市","address":"朝日町"},
{"zip_code":"6780250","kana_pref":"ﾋｮｳｺﾞｹﾝ","kana_city":"ｱｺｳｼ","kana_address":"ｲｿﾊﾏﾁｮｳ","pref":"兵庫県","city":"赤穂市","address":"磯浜町"},
{"zip_code":"6780248","kana_pref":"ﾋｮｳｺﾞｹﾝ","kana_city":"ｱｺｳｼ","kana_address":"ｲﾀﾔﾁｮｳ","pref":"兵庫県","city":"赤穂市","address":"板屋町"},
{"zip_code":"6781181","kana_pref":"ﾋｮｳｺﾞｹﾝ","kana_city":"ｱｺｳｼ","kana_address":"ｳﾈﾅﾗﾊﾞﾗ","pref":"兵庫県","city":"赤穂市","address":"有年楢原"},
{"zip_code":"6781182","kana_pref":"ﾋｮｳｺﾞｹﾝ","kana_city":"ｱｺｳｼ","kana_address":"ｳﾈﾊﾗ","pref":"兵庫県","city":"赤穂市","address":"有年原"},
{"zip_code":"6781183","kana_pref":"ﾋｮｳｺﾞｹﾝ","kana_city":"ｱｺｳｼ","kana_address":"ｳﾈﾑﾚ","pref":"兵庫県","city":"赤穂市","address":"有年牟礼"},
{"zip_code":"6781184","kana_pref":"ﾋｮｳｺﾞｹﾝ","kana_city":"ｱｺｳｼ","kana_address":"ｳﾈﾖｺｵ","pref":"兵庫県","city":"赤穂市","address":"有年横尾"},
{"zip_code":"6780252","kana_pref":"ﾋｮｳｺﾞｹﾝ","kana_city":"ｱｺｳｼ","kana_address":"ｵｵﾂ","pref":"兵庫県","city":"赤穂市","address":"大津"},
{"zip_code":"6780229","kana_pref":"ﾋｮｳｺﾞｹﾝ","kana_city":"ｱｺｳｼ","kana_address":"ｵｵﾊｼﾁｮｳ","pref":"兵庫県","city":"赤穂市","address":"大橋町"},
{"zip_code":"6780205","kana_pref":"ﾋｮｳｺﾞｹﾝ","kana_city":"ｱｺｳｼ","kana_address":"ｵｵﾏﾁ","pref":"兵庫県","city":"赤穂市","address":"大町"},
{"zip_code":"6780221","kana_pref":"ﾋｮｳｺﾞｹﾝ","kana_city":"ｱｺｳｼ","kana_address":"ｵｻｷ","pref":"兵庫県","city":"赤穂市","address":"尾崎"},
{"zip_code":"6780254","kana_pref":"ﾋｮｳｺﾞｹﾝ","kana_city":"ｱｺｳｼ","kana_address":"ｵﾘｶﾀ","pref":"兵庫県","city":"赤穂市","address":"折方"},
{"zip_code":"6780225","kana_pref":"ﾋｮｳｺﾞｹﾝ","kana_city":"ｱｺｳｼ","kana_address":"ｶｲﾋﾝﾁｮｳ","pref":"兵庫県","city":"赤穂市","address":"海浜町"},
{"zip_code":"6780249","kana_pref":"ﾋｮｳｺﾞｹﾝ","kana_city":"ｱｺｳｼ","kana_address":"ｶﾀﾊﾏﾁｮｳ","pref":"兵庫県","city":"赤穂市","address":"片浜町"},
{"zip_code":"6780235","kana_pref":"ﾋｮｳｺﾞｹﾝ","kana_city":"ｱｺｳｼ","kana_address":"ｶﾐｶﾘﾔ","pref":"兵庫県","city":"赤穂市","address":"上仮屋"},
{"zip_code":"6780236","kana_pref":"ﾋｮｳｺﾞｹﾝ","kana_city":"ｱｺｳｼ","kana_address":"ｶﾐｶﾘﾔﾐﾅﾐ","pref":"兵庫県","city":"赤穂市","address":"上仮屋南"},
{"zip_code":"6780237","kana_pref":"ﾋｮｳｺﾞｹﾝ","kana_city":"ｱｺｳｼ","kana_address":"ｶﾐｶﾘﾔｷﾀ","pref":"兵庫県","city":"赤穂市","address":"上仮屋北"},
{"zip_code":"6780239","kana_pref":"ﾋｮｳｺﾞｹﾝ","kana_city":"ｱｺｳｼ","kana_address":"ｶﾘﾔ","pref":"兵庫県","city":"赤穂市","address":"加里屋"},
{"zip_code":"6780233","kana_pref":"ﾋｮｳｺﾞｹﾝ","kana_city":"ｱｺｳｼ","kana_address":"ｶﾘﾔﾅｶｽ","pref":"兵庫県","city":"赤穂市","address":"加里屋中洲"},
{"zip_code":"6780234","kana_pref":"ﾋｮｳｺﾞｹﾝ","kana_city":"ｱｺｳｼ","kana_address":"ｶﾘﾔﾐﾅﾐ","pref":"兵庫県","city":"赤穂市","address":"加里屋南"},
{"zip_code":"6780175","kana_pref":"ﾋｮｳｺﾞｹﾝ","kana_city":"ｱｺｳｼ","kana_address":"ｷﾀﾉﾅｶ","pref":"兵庫県","city":"赤穂市","address":"北野中"},
{"zip_code":"6780165","kana_pref":"ﾋｮｳｺﾞｹﾝ","kana_city":"ｱｺｳｼ","kana_address":"ｷﾂﾞ","pref":"兵庫県","city":"赤穂市","address":"木津"},
{"zip_code":"6780253","kana_pref":"ﾋｮｳｺﾞｹﾝ","kana_city":"ｱｺｳｼ","kana_address":"ｷｭｳﾉﾀﾆ","pref":"兵庫県","city":"赤穂市","address":"木生谷"},
{"zip_code":"6780259","kana_pref":"ﾋｮｳｺﾞｹﾝ","kana_city":"ｱｺｳｼ","kana_address":"ｸﾛｻｷﾁｮｳ","pref":"兵庫県","city":"赤穂市","address":"黒崎町"},
{"zip_code":"6780223","kana_pref":"ﾋｮｳｺﾞｹﾝ","kana_city":"ｱｺｳｼ","kana_address":"ｹﾞﾝﾛｸﾊﾞｼﾁｮｳ","pref":"兵庫県","city":"赤穂市","address":"元禄橋町"},
{"zip_code":"6780171","kana_pref":"ﾋｮｳｺﾞｹﾝ","kana_city":"ｱｺｳｼ","kana_address":"ｺｳﾉ","pref":"兵庫県","city":"赤穂市","address":"高野"},
{"zip_code":"6780204","kana_pref":"ﾋｮｳｺﾞｹﾝ","kana_city":"ｱｺｳｼ","kana_address":"ｺﾄﾌﾞｷﾁｮｳ","pref":"兵庫県","city":"赤穂市","address":"寿町"},
{"zip_code":"6780258","kana_pref":"ﾋｮｳｺﾞｹﾝ","kana_city":"ｱｺｳｼ","kana_address":"ｺﾊﾏﾁｮｳ","pref":"兵庫県","city":"赤穂市","address":"古浜町"},
{"zip_code":"6780172","kana_pref":"ﾋｮｳｺﾞｹﾝ","kana_city":"ｱｺｳｼ","kana_address":"ｻｺｼ","pref":"兵庫県","city":"赤穂市","address":"坂越"},
{"zip_code":"6780226","kana_pref":"ﾋｮｳｺﾞｹﾝ","kana_city":"ｱｺｳｼ","kana_address":"ｻﾂｷﾁｮｳ","pref":"兵庫県","city":"赤穂市","address":"さつき町"},
{"zip_code":"6780201","kana_pref":"ﾋｮｳｺﾞｹﾝ","kana_city":"ｱｺｳｼ","kana_address":"ｼｵﾔ","pref":"兵庫県","city":"赤穂市","address":"塩屋"},
{"zip_code":"6780212","kana_pref":"ﾋｮｳｺﾞｹﾝ","kana_city":"ｱｺｳｼ","kana_address":"ｼﾐｽﾞﾁｮｳ","pref":"兵庫県","city":"赤穂市","address":"清水町"},
{"zip_code":"6780244","kana_pref":"ﾋｮｳｺﾞｹﾝ","kana_city":"ｱｺｳｼ","kana_address":"ｼﾞｮｳｻｲﾁｮｳ","pref":"兵庫県","city":"赤穂市","address":"城西町"},
{"zip_code":"6780216","kana_pref":"ﾋｮｳｺﾞｹﾝ","kana_city":"ｱｺｳｼ","kana_address":"ｼｮｳﾎﾊﾞｼﾁｮｳ","pref":"兵庫県","city":"赤穂市","address":"正保橋町"},
{"zip_code":"6780255","kana_pref":"ﾋｮｳｺﾞｹﾝ","kana_city":"ｱｺｳｼ","kana_address":"ｼﾝﾃﾞﾝ","pref":"兵庫県","city":"赤穂市","address":"新田"},
{"zip_code":"6780162","kana_pref":"ﾋｮｳｺﾞｹﾝ","kana_city":"ｱｺｳｼ","kana_address":"ｽｾ","pref":"兵庫県","city":"赤穂市","address":"周世"},
{"zip_code":"6780241","kana_pref":"ﾋｮｳｺﾞｹﾝ","kana_city":"ｱｺｳｼ","kana_address":"ｿｳﾓﾝﾁｮｳ","pref":"兵庫県","city":"赤穂市","address":"惣門町"},
{"zip_code":"6780163","kana_pref":"ﾋｮｳｺﾞｹﾝ","kana_city":"ｱｺｳｼ","kana_address":"ﾀｶｵ","pref":"兵庫県","city":"赤穂市","address":"高雄"},
{"zip_code":"6780256","kana_pref":"ﾋｮｳｺﾞｹﾝ","kana_city":"ｱｺｳｼ","kana_address":"ﾃﾝﾜ","pref":"兵庫県","city":"赤穂市","address":"鷆和"},
{"zip_code":"6780227","kana_pref":"ﾋｮｳｺﾞｹﾝ","kana_city":"ｱｺｳｼ","kana_address":"ﾅｶﾊﾏﾁｮｳ","pref":"兵庫県","city":"赤穂市","address":"中浜町"},
{"zip_code":"6780232","kana_pref":"ﾋｮｳｺﾞｹﾝ","kana_city":"ｱｺｳｼ","kana_address":"ﾅｶﾋﾛ","pref":"兵庫県","city":"赤穂市","address":"中広"},
{"zip_code":"6780161","kana_pref":"ﾋｮｳｺﾞｹﾝ","kana_city":"ｱｺｳｼ","kana_address":"ﾅｶﾔﾏ","pref":"兵庫県","city":"赤穂市","address":"中山"},
{"zip_code":"6780242","kana_pref":"ﾋｮｳｺﾞｹﾝ","kana_city":"ｱｺｳｼ","kana_address":"ﾅｶﾞｲｹﾁｮｳ","pref":"兵庫県","city":"赤穂市","address":"長池町"},
{"zip_code":"6780211","kana_pref":"ﾋｮｳｺﾞｹﾝ","kana_city":"ｱｺｳｼ","kana_address":"ﾅﾝｸﾞｳﾁｮｳ","pref":"兵庫県","city":"赤穂市","address":"南宮町"},
{"zip_code":"6780251","kana_pref":"ﾋｮｳｺﾞｹﾝ","kana_city":"ｱｺｳｼ","kana_address":"ﾆｼｳﾈ","pref":"兵庫県","city":"赤穂市","address":"西有年"},
{"zip_code":"6781186","kana_pref":"ﾋｮｳｺﾞｹﾝ","kana_city":"ｱｺｳｼ","kana_address":"ﾆｼｳﾈ","pref":"兵庫県","city":"赤穂市","address":"西有年"},
{"zip_code":"6780207","kana_pref":"ﾋｮｳｺﾞｹﾝ","kana_city":"ｱｺｳｼ","kana_address":"ﾆｼﾊﾏｷﾀﾏﾁ","pref":"兵庫県","city":"赤穂市","address":"西浜北町"},
{"zip_code":"6780208","kana_pref":"ﾋｮｳｺﾞｹﾝ","kana_city":"ｱｺｳｼ","kana_address":"ﾆｼﾊﾏﾁｮｳ","pref":"兵庫県","city":"赤穂市","address":"西浜町"},
{"zip_code":"6780238","kana_pref":"ﾋｮｳｺﾞｹﾝ","kana_city":"ｱｺｳｼ","kana_address":"ﾉｳｼﾞﾝﾁｮｳ","pref":"兵庫県","city":"赤穂市","address":"農神町"},
{"zip_code":"6780173","kana_pref":"ﾋｮｳｺﾞｹﾝ","kana_city":"ｱｺｳｼ","kana_address":"ﾊﾏｲﾁ","pref":"兵庫県","city":"赤穂市","address":"浜市"},
{"zip_code":"6781185","kana_pref":"ﾋｮｳｺﾞｹﾝ","kana_city":"ｱｺｳｼ","kana_address":"ﾋｶﾞｼｳﾈ","pref":"兵庫県","city":"赤穂市","address":"東有年"},
{"zip_code":"6780222","kana_pref":"ﾋｮｳｺﾞｹﾝ","kana_city":"ｱｺｳｼ","kana_address":"ﾋｶﾞｼﾊﾏﾁｮｳ","pref":"兵庫県","city":"赤穂市","address":"東浜町"},
{"zip_code":"6780257","kana_pref":"ﾋｮｳｺﾞｹﾝ","kana_city":"ｱｺｳｼ","kana_address":"ﾌｸｳﾗ","pref":"兵庫県","city":"赤穂市","address":"福浦"},
{"zip_code":"6780247","kana_pref":"ﾋｮｳｺﾞｹﾝ","kana_city":"ｱｺｳｼ","kana_address":"ﾍｲｾｲﾁｮｳ","pref":"兵庫県","city":"赤穂市","address":"平成町"},
{"zip_code":"6780231","kana_pref":"ﾋｮｳｺﾞｹﾝ","kana_city":"ｱｺｳｼ","kana_address":"ﾎｿﾉﾁｮｳ","pref":"兵庫県","city":"赤穂市","address":"細野町"},
{"zip_code":"6780217","kana_pref":"ﾋｮｳｺﾞｹﾝ","kana_city":"ｱｺｳｼ","kana_address":"ﾎﾝﾐｵﾁｮｳ","pref":"兵庫県","city":"赤穂市","address":"本水尾町"},
{"zip_code":"6780228","kana_pref":"ﾋｮｳｺﾞｹﾝ","kana_city":"ｱｺｳｼ","kana_address":"ﾏﾂﾊﾞﾗﾁｮｳ","pref":"兵庫県","city":"赤穂市","address":"松原町"},
{"zip_code":"6780166","kana_pref":"ﾋｮｳｺﾞｹﾝ","kana_city":"ｱｺｳｼ","kana_address":"ﾏﾄﾉ","pref":"兵庫県","city":"赤穂市","address":"真殿"},
{"zip_code":"6780174","kana_pref":"ﾋｮｳｺﾞｹﾝ","kana_city":"ｱｺｳｼ","kana_address":"ﾏﾅｺﾞ","pref":"兵庫県","city":"赤穂市","address":"砂子"},
{"zip_code":"6780215","kana_pref":"ﾋｮｳｺﾞｹﾝ","kana_city":"ｱｺｳｼ","kana_address":"ﾐｻｷ","pref":"兵庫県","city":"赤穂市","address":"御崎"},
{"zip_code":"6780245","kana_pref":"ﾋｮｳｺﾞｹﾝ","kana_city":"ｱｺｳｼ","kana_address":"ﾐﾂﾋﾁｮｳ","pref":"兵庫県","city":"赤穂市","address":"三樋町"},
{"zip_code":"6780176","kana_pref":"ﾋｮｳｺﾞｹﾝ","kana_city":"ｱｺｳｼ","kana_address":"ﾐﾅﾐﾉﾅｶ","pref":"兵庫県","city":"赤穂市","address":"南野中"},
{"zip_code":"6780206","kana_pref":"ﾋｮｳｺﾞｹﾝ","kana_city":"ｱｺｳｼ","kana_address":"ﾐﾔﾏｴﾁｮｳ","pref":"兵庫県","city":"赤穂市","address":"宮前町"},
{"zip_code":"6780164","kana_pref":"ﾋｮｳｺﾞｹﾝ","kana_city":"ｱｺｳｼ","kana_address":"ﾒｻｶ","pref":"兵庫県","city":"赤穂市","address":"目坂"},
{"zip_code":"6780224","kana_pref":"ﾋｮｳｺﾞｹﾝ","kana_city":"ｱｺｳｼ","kana_address":"ﾓﾄｵｷﾁｮｳ","pref":"兵庫県","city":"赤穂市","address":"元沖町"},
{"zip_code":"6780213","kana_pref":"ﾋｮｳｺﾞｹﾝ","kana_city":"ｱｺｳｼ","kana_address":"ﾓﾄｼｵﾁｮｳ","pref":"兵庫県","city":"赤穂市","address":"元塩町"},
{"zip_code":"6780203","kana_pref":"ﾋｮｳｺﾞｹﾝ","kana_city":"ｱｺｳｼ","kana_address":"ﾓﾄﾏﾁ","pref":"兵庫県","city":"赤穂市","address":"元町"},
{"zip_code":"6780202","kana_pref":"ﾋｮｳｺﾞｹﾝ","kana_city":"ｱｺｳｼ","kana_address":"ﾔﾏﾃﾁｮｳ","pref":"兵庫県","city":"赤穂市","address":"山手町"},
{"zip_code":"6780246","kana_pref":"ﾋｮｳｺﾞｹﾝ","kana_city":"ｱｺｳｼ","kana_address":"ﾛｯﾋﾟｬｸﾒﾁｮｳ","pref":"兵庫県","city":"赤穂市","address":"六百目町"},
{"zip_code":"6780243","kana_pref":"ﾋｮｳｺﾞｹﾝ","kana_city":"ｱｺｳｼ","kana_address":"ﾜｶｸｻﾁｮｳ","pref":"兵庫県","city":"赤穂市","address":"若草町"},
{"zip_code":"6781200","kana_pref":"ﾋｮｳｺﾞｹﾝ","kana_city":"ｱｺｳｸﾞﾝｶﾐｺﾞｵﾘﾁｮｳ","kana_address":"","pref":"兵庫県","city":"赤穂郡上郡町","address":""},
{"zip_code":"6781273","kana_pref":"ﾋｮｳｺﾞｹﾝ","kana_city":"ｱｺｳｸﾞﾝｶﾐｺﾞｵﾘﾁｮｳ","kana_address":"ｱｶﾏﾂ","pref":"兵庫県","city":"赤穂郡上郡町","address":"赤松"},
{"zip_code":"6781261","kana_pref":"ﾋｮｳｺﾞｹﾝ","kana_city":"ｱｺｳｸﾞﾝｶﾐｺﾞｵﾘﾁｮｳ","kana_address":"ｱｻﾋ","pref":"兵庫県","city":"赤穂郡上郡町","address":"旭日"},
{"zip_code":"6781251","kana_pref":"ﾋｮｳｺﾞｹﾝ","kana_city":"ｱｺｳｸﾞﾝｶﾐｺﾞｵﾘﾁｮｳ","kana_address":"ｲﾉｶﾐ","pref":"兵庫県","city":"赤穂郡上郡町","address":"井上"},
{"zip_code":"6781262","kana_pref":"ﾋｮｳｺﾞｹﾝ","kana_city":"ｱｺｳｸﾞﾝｶﾐｺﾞｵﾘﾁｮｳ","kana_address":"ｲﾜｷ","pref":"兵庫県","city":"赤穂郡上郡町","address":"岩木"},
{"zip_code":"6781218","kana_pref":"ﾋｮｳｺﾞｹﾝ","kana_city":"ｱｺｳｸﾞﾝｶﾐｺﾞｵﾘﾁｮｳ","kana_address":"ｳｼﾞﾔﾏ","pref":"兵庫県","city":"赤穂郡上郡町","address":"宇治山"},
{"zip_code":"6781213","kana_pref":"ﾋｮｳｺﾞｹﾝ","kana_city":"ｱｺｳｸﾞﾝｶﾐｺﾞｵﾘﾁｮｳ","kana_address":"ｳﾉﾔﾏ","pref":"兵庫県","city":"赤穂郡上郡町","address":"宇野山"},
{"zip_code":"6781275","kana_pref":"ﾋｮｳｺﾞｹﾝ","kana_city":"ｱｺｳｸﾞﾝｶﾐｺﾞｵﾘﾁｮｳ","kana_address":"ｵｴﾀﾞ","pref":"兵庫県","city":"赤穂郡上郡町","address":"大枝"},
{"zip_code":"6781276","kana_pref":"ﾋｮｳｺﾞｹﾝ","kana_city":"ｱｺｳｸﾞﾝｶﾐｺﾞｵﾘﾁｮｳ","kana_address":"ｵｴﾀﾞｼﾝ","pref":"兵庫県","city":"赤穂郡上郡町","address":"大枝新"},
{"zip_code":"6781204","kana_pref":"ﾋｮｳｺﾞｹﾝ","kana_city":"ｱｺｳｸﾞﾝｶﾐｺﾞｵﾘﾁｮｳ","kana_address":"ｵｵﾄﾐ","pref":"兵庫県","city":"赤穂郡上郡町","address":"大冨"},
{"zip_code":"6781219","kana_pref":"ﾋｮｳｺﾞｹﾝ","kana_city":"ｱｺｳｸﾞﾝｶﾐｺﾞｵﾘﾁｮｳ","kana_address":"ｵｸ","pref":"兵庫県","city":"赤穂郡上郡町","address":"奥"},
{"zip_code":"6781203","kana_pref":"ﾋｮｳｺﾞｹﾝ","kana_city":"ｱｺｳｸﾞﾝｶﾐｺﾞｵﾘﾁｮｳ","kana_address":"ｵﾅｶﾞﾀﾞﾆ","pref":"兵庫県","city":"赤穂郡上郡町","address":"尾長谷"},
{"zip_code":"6781211","kana_pref":"ﾋｮｳｺﾞｹﾝ","kana_city":"ｱｺｳｸﾞﾝｶﾐｺﾞｵﾘﾁｮｳ","kana_address":"ｵﾉｽﾞ","pref":"兵庫県","city":"赤穂郡上郡町","address":"小野豆"},
{"zip_code":"6781243","kana_pref":"ﾋｮｳｺﾞｹﾝ","kana_city":"ｱｺｳｸﾞﾝｶﾐｺﾞｵﾘﾁｮｳ","kana_address":"ｵﾛﾁ","pref":"兵庫県","city":"赤穂郡上郡町","address":"落地"},
{"zip_code":"6781274","kana_pref":"ﾋｮｳｺﾞｹﾝ","kana_city":"ｱｺｳｸﾞﾝｶﾐｺﾞｵﾘﾁｮｳ","kana_address":"ｶｼﾜﾉ","pref":"兵庫県","city":"赤穂郡上郡町","address":"柏野"},
{"zip_code":"6781201","kana_pref":"ﾋｮｳｺﾞｹﾝ","kana_city":"ｱｺｳｸﾞﾝｶﾐｺﾞｵﾘﾁｮｳ","kana_address":"ｶﾅｼﾞ","pref":"兵庫県","city":"赤穂郡上郡町","address":"金出地"},
{"zip_code":"6781223","kana_pref":"ﾋｮｳｺﾞｹﾝ","kana_city":"ｱｺｳｸﾞﾝｶﾐｺﾞｵﾘﾁｮｳ","kana_address":"ｶﾏｼﾏ","pref":"兵庫県","city":"赤穂郡上郡町","address":"釜島"},
{"zip_code":"6781231","kana_pref":"ﾋｮｳｺﾞｹﾝ","kana_city":"ｱｺｳｸﾞﾝｶﾐｺﾞｵﾘﾁｮｳ","kana_address":"ｶﾐｺﾞｵﾘ","pref":"兵庫県","city":"赤穂郡上郡町","address":"上郡"},
{"zip_code":"6781214","kana_pref":"ﾋｮｳｺﾞｹﾝ","kana_city":"ｱｺｳｸﾞﾝｶﾐｺﾞｵﾘﾁｮｳ","kana_address":"ｷｭｳｼﾞ","pref":"兵庫県","city":"赤穂郡上郡町","address":"休治"},
{"zip_code":"6781271","kana_pref":"ﾋｮｳｺﾞｹﾝ","kana_city":"ｱｺｳｸﾞﾝｶﾐｺﾞｵﾘﾁｮｳ","kana_address":"ｸｽﾉｷ","pref":"兵庫県","city":"赤穂郡上郡町","address":"楠"},
{"zip_code":"6781242","kana_pref":"ﾋｮｳｺﾞｹﾝ","kana_city":"ｱｺｳｸﾞﾝｶﾐｺﾞｵﾘﾁｮｳ","kana_address":"ｸﾘﾊﾞﾗ","pref":"兵庫県","city":"赤穂郡上郡町","address":"栗原"},
{"zip_code":"6781205","kana_pref":"ﾋｮｳｺﾞｹﾝ","kana_city":"ｱｺｳｸﾞﾝｶﾐｺﾞｵﾘﾁｮｳ","kana_address":"ｺｳﾄ","pref":"兵庫県","city":"赤穂郡上郡町","address":"光都"},
{"zip_code":"6781278","kana_pref":"ﾋｮｳｺﾞｹﾝ","kana_city":"ｱｺｳｸﾞﾝｶﾐｺﾞｵﾘﾁｮｳ","kana_address":"ｺｳﾉﾊﾗ","pref":"兵庫県","city":"赤穂郡上郡町","address":"河野原"},
{"zip_code":"6781277","kana_pref":"ﾋｮｳｺﾞｹﾝ","kana_city":"ｱｺｳｸﾞﾝｶﾐｺﾞｵﾘﾁｮｳ","kana_address":"ｺｹﾅﾜ","pref":"兵庫県","city":"赤穂郡上郡町","address":"苔縄"},
{"zip_code":"6781212","kana_pref":"ﾋｮｳｺﾞｹﾝ","kana_city":"ｱｺｳｸﾞﾝｶﾐｺﾞｵﾘﾁｮｳ","kana_address":"ｻﾖﾀﾞﾆ","pref":"兵庫県","city":"赤穂郡上郡町","address":"佐用谷"},
{"zip_code":"6781221","kana_pref":"ﾋｮｳｺﾞｹﾝ","kana_city":"ｱｺｳｸﾞﾝｶﾐｺﾞｵﾘﾁｮｳ","kana_address":"ｼﾞﾐｮｳｼﾞ","pref":"兵庫県","city":"赤穂郡上郡町","address":"神明寺"},
{"zip_code":"6781217","kana_pref":"ﾋｮｳｺﾞｹﾝ","kana_city":"ｱｺｳｸﾞﾝｶﾐｺﾞｵﾘﾁｮｳ","kana_address":"ｼｭｸ","pref":"兵庫県","city":"赤穂郡上郡町","address":"宿"},
{"zip_code":"6781215","kana_pref":"ﾋｮｳｺﾞｹﾝ","kana_city":"ｱｺｳｸﾞﾝｶﾐｺﾞｵﾘﾁｮｳ","kana_address":"ｼｮｳﾌｸｼﾞ","pref":"兵庫県","city":"赤穂郡上郡町","address":"正福寺"},
{"zip_code":"6781233","kana_pref":"ﾋｮｳｺﾞｹﾝ","kana_city":"ｱｺｳｸﾞﾝｶﾐｺﾞｵﾘﾁｮｳ","kana_address":"ﾀﾞｲﾓﾁ","pref":"兵庫県","city":"赤穂郡上郡町","address":"大持"},
{"zip_code":"6781226","kana_pref":"ﾋｮｳｺﾞｹﾝ","kana_city":"ｱｺｳｸﾞﾝｶﾐｺﾞｵﾘﾁｮｳ","kana_address":"ﾀｶﾀﾀﾞｲ","pref":"兵庫県","city":"赤穂郡上郡町","address":"高田台"},
{"zip_code":"6781254","kana_pref":"ﾋｮｳｺﾞｹﾝ","kana_city":"ｱｺｳｸﾞﾝｶﾐｺﾞｵﾘﾁｮｳ","kana_address":"ﾀｶﾔﾏ","pref":"兵庫県","city":"赤穂郡上郡町","address":"高山"},
{"zip_code":"6781232","kana_pref":"ﾋｮｳｺﾞｹﾝ","kana_city":"ｱｺｳｸﾞﾝｶﾐｺﾞｵﾘﾁｮｳ","kana_address":"ﾁｸﾏ","pref":"兵庫県","city":"赤穂郡上郡町","address":"竹万"},
{"zip_code":"6781216","kana_pref":"ﾋｮｳｺﾞｹﾝ","kana_city":"ｱｺｳｸﾞﾝｶﾐｺﾞｵﾘﾁｮｳ","kana_address":"ﾅｶﾉ","pref":"兵庫県","city":"赤穂郡上郡町","address":"中野"},
{"zip_code":"6781244","kana_pref":"ﾋｮｳｺﾞｹﾝ","kana_city":"ｱｺｳｸﾞﾝｶﾐｺﾞｵﾘﾁｮｳ","kana_address":"ﾅｼｶﾞﾊﾗ","pref":"兵庫県","city":"赤穂郡上郡町","address":"梨ケ原"},
{"zip_code":"6781222","kana_pref":"ﾋｮｳｺﾞｹﾝ","kana_city":"ｱｺｳｸﾞﾝｶﾐｺﾞｵﾘﾁｮｳ","kana_address":"ﾆｼﾉﾔﾏ","pref":"兵庫県","city":"赤穂郡上郡町","address":"西野山"},
{"zip_code":"6781202","kana_pref":"ﾋｮｳｺﾞｹﾝ","kana_city":"ｱｺｳｸﾞﾝｶﾐｺﾞｵﾘﾁｮｳ","kana_address":"ﾉｸﾜ","pref":"兵庫県","city":"赤穂郡上郡町","address":"野桑"},
{"zip_code":"6781252","kana_pref":"ﾋｮｳｺﾞｹﾝ","kana_city":"ｱｺｳｸﾞﾝｶﾐｺﾞｵﾘﾁｮｳ","kana_address":"ﾌﾅｻｶ","pref":"兵庫県","city":"赤穂郡上郡町","address":"船坂"},
{"zip_code":"6781253","kana_pref":"ﾋｮｳｺﾞｹﾝ","kana_city":"ｱｺｳｸﾞﾝｶﾐｺﾞｵﾘﾁｮｳ","kana_address":"ﾍﾞﾂﾐｮｳ","pref":"兵庫県","city":"赤穂郡上郡町","address":"別名"},
{"zip_code":"6781272","kana_pref":"ﾋｮｳｺﾞｹﾝ","kana_city":"ｱｺｳｸﾞﾝｶﾐｺﾞｵﾘﾁｮｳ","kana_address":"ﾎｿﾉ","pref":"兵庫県","city":"赤穂郡上郡町","address":"細野"},
{"zip_code":"6781256","kana_pref":"ﾋｮｳｺﾞｹﾝ","kana_city":"ｱｺｳｸﾞﾝｶﾐｺﾞｵﾘﾁｮｳ","kana_address":"ﾔﾎ","pref":"兵庫県","city":"赤穂郡上郡町","address":"八保"},
{"zip_code":"6781241","kana_pref":"ﾋｮｳｺﾞｹﾝ","kana_city":"ｱｺｳｸﾞﾝｶﾐｺﾞｵﾘﾁｮｳ","kana_address":"ﾔﾏﾉｻﾄ","pref":"兵庫県","city":"赤穂郡上郡町","address":"山野里"},
{"zip_code":"6781255","kana_pref":"ﾋｮｳｺﾞｹﾝ","kana_city":"ｱｺｳｸﾞﾝｶﾐｺﾞｵﾘﾁｮｳ","kana_address":"ﾕｸﾄｳ","pref":"兵庫県","city":"赤穂郡上郡町","address":"行頭"},
{"zip_code":"6781225","kana_pref":"ﾋｮｳｺﾞｹﾝ","kana_city":"ｱｺｳｸﾞﾝｶﾐｺﾞｵﾘﾁｮｳ","kana_address":"ﾖｲ","pref":"兵庫県","city":"赤穂郡上郡町","address":"與井"},
{"zip_code":"6781224","kana_pref":"ﾋｮｳｺﾞｹﾝ","kana_city":"ｱｺｳｸﾞﾝｶﾐｺﾞｵﾘﾁｮｳ","kana_address":"ﾖｲｼﾝ","pref":"兵庫県","city":"赤穂郡上郡町","address":"與井新"}]}