{"zip_code":[
{"zip_code":"6792154","kana_pref":"ﾋｮｳｺﾞｹﾝ","kana_city":"ﾋﾒｼﾞｼ","kana_address":"ｺｳﾃﾞﾗﾁｮｳｱｲｻｶ","pref":"兵庫県","city":"姫路市","address":"香寺町相坂"},
{"zip_code":"6792131","kana_pref":"ﾋｮｳｺﾞｹﾝ","kana_city":"ﾋﾒｼﾞｼ","kana_address":"ｺｳﾃﾞﾗﾁｮｳｲﾇｶｲ","pref":"兵庫県","city":"姫路市","address":"香寺町犬飼"},
{"zip_code":"6792141","kana_pref":"ﾋｮｳｺﾞｹﾝ","kana_city":"ﾋﾒｼﾞｼ","kana_address":"ｺｳﾃﾞﾗﾁｮｳｲﾜﾍﾞ","pref":"兵庫県","city":"姫路市","address":"香寺町岩部"},
{"zip_code":"6792167","kana_pref":"ﾋｮｳｺﾞｹﾝ","kana_city":"ﾋﾒｼﾞｼ","kana_address":"ｺｳﾃﾞﾗﾁｮｳｸﾊﾞﾀ","pref":"兵庫県","city":"姫路市","address":"香寺町久畑"},
{"zip_code":"6792151","kana_pref":"ﾋｮｳｺﾞｹﾝ","kana_city":"ﾋﾒｼﾞｼ","kana_address":"ｺｳﾃﾞﾗﾁｮｳｺｳﾛ","pref":"兵庫県","city":"姫路市","address":"香寺町香呂"},
{"zip_code":"6792132","kana_pref":"ﾋｮｳｺﾞｹﾝ","kana_city":"ﾋﾒｼﾞｼ","kana_address":"ｺｳﾃﾞﾗﾁｮｳｽｶｲﾝ","pref":"兵庫県","city":"姫路市","address":"香寺町須加院"},
{"zip_code":"6792153","kana_pref":"ﾋｮｳｺﾞｹﾝ","kana_city":"ﾋﾒｼﾞｼ","kana_address":"ｺｳﾃﾞﾗﾁｮｳﾀﾉ","pref":"兵庫県","city":"姫路市","address":"香寺町田野"},
{"zip_code":"6792165","kana_pref":"ﾋｮｳｺﾞｹﾝ","kana_city":"ﾋﾒｼﾞｼ","kana_address":"ｺｳﾃﾞﾗﾁｮｳﾂﾈﾔ","pref":"兵庫県","city":"姫路市","address":"香寺町恒屋"},
{"zip_code":"6792164","kana_pref":"ﾋｮｳｺﾞｹﾝ","kana_city":"ﾋﾒｼﾞｼ","kana_address":"ｺｳﾃﾞﾗﾁｮｳﾅｶﾃﾞﾗ","pref":"兵庫県","city":"姫路市","address":"香寺町中寺"},
{"zip_code":"6792143","kana_pref":"ﾋｮｳｺﾞｹﾝ","kana_city":"ﾋﾒｼﾞｼ","kana_address":"ｺｳﾃﾞﾗﾁｮｳﾅｶﾆﾉ","pref":"兵庫県","city":"姫路市","address":"香寺町中仁野"},
{"zip_code":"6792166","kana_pref":"ﾋｮｳｺﾞｹﾝ","kana_city":"ﾋﾒｼﾞｼ","kana_address":"ｺｳﾃﾞﾗﾁｮｳﾅｶﾑﾗ","pref":"兵庫県","city":"姫路市","address":"香寺町中村"},
{"zip_code":"6792144","kana_pref":"ﾋｮｳｺﾞｹﾝ","kana_city":"ﾋﾒｼﾞｼ","kana_address":"ｺｳﾃﾞﾗﾁｮｳﾅｶﾔ","pref":"兵庫県","city":"姫路市","address":"香寺町中屋"},
{"zip_code":"6792162","kana_pref":"ﾋｮｳｺﾞｹﾝ","kana_city":"ﾋﾒｼﾞｼ","kana_address":"ｺｳﾃﾞﾗﾁｮｳﾉﾀﾞ","pref":"兵庫県","city":"姫路市","address":"香寺町野田"},
{"zip_code":"6792163","kana_pref":"ﾋｮｳｺﾞｹﾝ","kana_city":"ﾋﾒｼﾞｼ","kana_address":"ｺｳﾃﾞﾗﾁｮｳﾊｾﾞ","pref":"兵庫県","city":"姫路市","address":"香寺町土師"},
{"zip_code":"6792142","kana_pref":"ﾋｮｳｺﾞｹﾝ","kana_city":"ﾋﾒｼﾞｼ","kana_address":"ｺｳﾃﾞﾗﾁｮｳﾋﾛｾ","pref":"兵庫県","city":"姫路市","address":"香寺町広瀬"},
{"zip_code":"6792161","kana_pref":"ﾋｮｳｺﾞｹﾝ","kana_city":"ﾋﾒｼﾞｼ","kana_address":"ｺｳﾃﾞﾗﾁｮｳﾐｿﾞｸﾞﾁ","pref":"兵庫県","city":"姫路市","address":"香寺町溝口"},
{"zip_code":"6792155","kana_pref":"ﾋｮｳｺﾞｹﾝ","kana_city":"ﾋﾒｼﾞｼ","kana_address":"ｺｳﾃﾞﾗﾁｮｳﾔﾀﾍﾞ","pref":"兵庫県","city":"姫路市","address":"香寺町矢田部"},
{"zip_code":"6792152","kana_pref":"ﾋｮｳｺﾞｹﾝ","kana_city":"ﾋﾒｼﾞｼ","kana_address":"ｺｳﾃﾞﾗﾁｮｳﾕｷｼｹﾞ","pref":"兵庫県","city":"姫路市","address":"香寺町行重"},
{"zip_code":"6792124","kana_pref":"ﾋｮｳｺﾞｹﾝ","kana_city":"ﾋﾒｼﾞｼ","kana_address":"ﾄﾖﾄﾐﾁｮｳｶﾌﾞﾄｶﾞｵｶ","pref":"兵庫県","city":"姫路市","address":"豊富町甲丘"},
{"zip_code":"6792121","kana_pref":"ﾋｮｳｺﾞｹﾝ","kana_city":"ﾋﾒｼﾞｼ","kana_address":"ﾄﾖﾄﾐﾁｮｳｺﾀﾞﾆ","pref":"兵庫県","city":"姫路市","address":"豊富町神谷"},
{"zip_code":"6792123","kana_pref":"ﾋｮｳｺﾞｹﾝ","kana_city":"ﾋﾒｼﾞｼ","kana_address":"ﾄﾖﾄﾐﾁｮｳﾄﾖﾄﾐ","pref":"兵庫県","city":"姫路市","address":"豊富町豊富"},
{"zip_code":"6792122","kana_pref":"ﾋｮｳｺﾞｹﾝ","kana_city":"ﾋﾒｼﾞｼ","kana_address":"ﾄﾖﾄﾐﾁｮｳﾐｶｹﾞ","pref":"兵庫県","city":"姫路市","address":"豊富町御蔭"},
{"zip_code":"6794231","kana_pref":"ﾋｮｳｺﾞｹﾝ","kana_city":"ﾋﾒｼﾞｼ","kana_address":"ﾊﾔｼﾀﾞﾁｮｳｵｵﾂﾞﾂﾐ","pref":"兵庫県","city":"姫路市","address":"林田町大堤"},
{"zip_code":"6794223","kana_pref":"ﾋｮｳｺﾞｹﾝ","kana_city":"ﾋﾒｼﾞｼ","kana_address":"ﾊﾔｼﾀﾞﾁｮｳｵｸｻﾐ","pref":"兵庫県","city":"姫路市","address":"林田町奥佐見"},
{"zip_code":"6794232","kana_pref":"ﾋｮｳｺﾞｹﾝ","kana_city":"ﾋﾒｼﾞｼ","kana_address":"ﾊﾔｼﾀﾞﾁｮｳｶﾐｲｾ","pref":"兵庫県","city":"姫路市","address":"林田町上伊勢"},
{"zip_code":"6794233","kana_pref":"ﾋｮｳｺﾞｹﾝ","kana_city":"ﾋﾒｼﾞｼ","kana_address":"ﾊﾔｼﾀﾞﾁｮｳｼﾓｲｾ","pref":"兵庫県","city":"姫路市","address":"林田町下伊勢"},
{"zip_code":"6794204","kana_pref":"ﾋｮｳｺﾞｹﾝ","kana_city":"ﾋﾒｼﾞｼ","kana_address":"ﾊﾔｼﾀﾞﾁｮｳｶﾐｶﾏｴ","pref":"兵庫県","city":"姫路市","address":"林田町上構"},
{"zip_code":"6794203","kana_pref":"ﾋｮｳｺﾞｹﾝ","kana_city":"ﾋﾒｼﾞｼ","kana_address":"ﾊﾔｼﾀﾞﾁｮｳﾅｶｶﾏｴ","pref":"兵庫県","city":"姫路市","address":"林田町中構"},
{"zip_code":"6794202","kana_pref":"ﾋｮｳｺﾞｹﾝ","kana_city":"ﾋﾒｼﾞｼ","kana_address":"ﾊﾔｼﾀﾞﾁｮｳｼﾓｶﾏｴ","pref":"兵庫県","city":"姫路市","address":"林田町下構"},
{"zip_code":"6794222","kana_pref":"ﾋｮｳｺﾞｹﾝ","kana_city":"ﾋﾒｼﾞｼ","kana_address":"ﾊﾔｼﾀﾞﾁｮｳｸﾁｻﾐ","pref":"兵庫県","city":"姫路市","address":"林田町口佐見"},
{"zip_code":"6794201","kana_pref":"ﾋｮｳｺﾞｹﾝ","kana_city":"ﾋﾒｼﾞｼ","kana_address":"ﾊﾔｼﾀﾞﾁｮｳｸﾎﾞ","pref":"兵庫県","city":"姫路市","address":"林田町久保"},
{"zip_code":"6794205","kana_pref":"ﾋｮｳｺﾞｹﾝ","kana_city":"ﾋﾒｼﾞｼ","kana_address":"ﾊﾔｼﾀﾞﾁｮｳｼﾝﾏﾁ","pref":"兵庫県","city":"姫路市","address":"林田町新町"},
{"zip_code":"6794214","kana_pref":"ﾋｮｳｺﾞｹﾝ","kana_city":"ﾋﾒｼﾞｼ","kana_address":"ﾊﾔｼﾀﾞﾁｮｳﾅｶﾔﾏｼﾀ","pref":"兵庫県","city":"姫路市","address":"林田町中山下"},
{"zip_code":"6794206","kana_pref":"ﾋｮｳｺﾞｹﾝ","kana_city":"ﾋﾒｼﾞｼ","kana_address":"ﾊﾔｼﾀﾞﾁｮｳﾊﾔｼﾀﾞ","pref":"兵庫県","city":"姫路市","address":"林田町林田"},
{"zip_code":"6794221","kana_pref":"ﾋｮｳｺﾞｹﾝ","kana_city":"ﾋﾒｼﾞｼ","kana_address":"ﾊﾔｼﾀﾞﾁｮｳﾊﾔｼﾀﾞﾆ","pref":"兵庫県","city":"姫路市","address":"林田町林谷"},
{"zip_code":"6794212","kana_pref":"ﾋｮｳｺﾞｹﾝ","kana_city":"ﾋﾒｼﾞｼ","kana_address":"ﾊﾔｼﾀﾞﾁｮｳﾏﾂﾔﾏ","pref":"兵庫県","city":"姫路市","address":"林田町松山"},
{"zip_code":"6794211","kana_pref":"ﾋｮｳｺﾞｹﾝ","kana_city":"ﾋﾒｼﾞｼ","kana_address":"ﾊﾔｼﾀﾞﾁｮｳﾑｸﾀﾞﾆ","pref":"兵庫県","city":"姫路市","address":"林田町六九谷"},
{"zip_code":"6794215","kana_pref":"ﾋｮｳｺﾞｹﾝ","kana_city":"ﾋﾒｼﾞｼ","kana_address":"ﾊﾔｼﾀﾞﾁｮｳﾔﾊﾀ","pref":"兵庫県","city":"姫路市","address":"林田町八幡"},
{"zip_code":"6794213","kana_pref":"ﾋｮｳｺﾞｹﾝ","kana_city":"ﾋﾒｼﾞｼ","kana_address":"ﾊﾔｼﾀﾞﾁｮｳﾔﾏﾀﾞ","pref":"兵庫県","city":"姫路市","address":"林田町山田"},
{"zip_code":"6792101","kana_pref":"ﾋｮｳｺﾞｹﾝ","kana_city":"ﾋﾒｼﾞｼ","kana_address":"ﾌﾅﾂﾁｮｳ","pref":"兵庫県","city":"姫路市","address":"船津町"},
{"zip_code":"6792111","kana_pref":"ﾋｮｳｺﾞｹﾝ","kana_city":"ﾋﾒｼﾞｼ","kana_address":"ﾔﾏﾀﾞﾁｮｳﾀﾀﾞ","pref":"兵庫県","city":"姫路市","address":"山田町多田"},
{"zip_code":"6792114","kana_pref":"ﾋｮｳｺﾞｹﾝ","kana_city":"ﾋﾒｼﾞｼ","kana_address":"ﾔﾏﾀﾞﾁｮｳﾏｷﾉ","pref":"兵庫県","city":"姫路市","address":"山田町牧野"},
{"zip_code":"6792115","kana_pref":"ﾋｮｳｺﾞｹﾝ","kana_city":"ﾋﾒｼﾞｼ","kana_address":"ﾔﾏﾀﾞﾁｮｳﾆｼﾔﾏﾀﾞ","pref":"兵庫県","city":"姫路市","address":"山田町西山田"},
{"zip_code":"6792113","kana_pref":"ﾋｮｳｺﾞｹﾝ","kana_city":"ﾋﾒｼﾞｼ","kana_address":"ﾔﾏﾀﾞﾁｮｳﾐﾅﾐﾔﾏﾀﾞ","pref":"兵庫県","city":"姫路市","address":"山田町南山田"},
{"zip_code":"6792112","kana_pref":"ﾋｮｳｺﾞｹﾝ","kana_city":"ﾋﾒｼﾞｼ","kana_address":"ﾔﾏﾀﾞﾁｮｳｷﾀﾔﾏﾀﾞ","pref":"兵庫県","city":"姫路市","address":"山田町北山田"},
{"zip_code":"6790322","kana_pref":"ﾋｮｳｺﾞｹﾝ","kana_city":"ﾆｼﾜｷｼ","kana_address":"ｸﾛﾀﾞｼｮｳﾁｮｳｲｼﾊﾗ","pref":"兵庫県","city":"西脇市","address":"黒田庄町石原"},
{"zip_code":"6790324","kana_pref":"ﾋｮｳｺﾞｹﾝ","kana_city":"ﾆｼﾜｷｼ","kana_address":"ｸﾛﾀﾞｼｮｳﾁｮｳｵｵﾌｼ","pref":"兵庫県","city":"西脇市","address":"黒田庄町大伏"},
{"zip_code":"6790313","kana_pref":"ﾋｮｳｺﾞｹﾝ","kana_city":"ﾆｼﾜｷｼ","kana_address":"ｸﾛﾀﾞｼｮｳﾁｮｳｵｶ","pref":"兵庫県","city":"西脇市","address":"黒田庄町岡"},
{"zip_code":"6790311","kana_pref":"ﾋｮｳｺﾞｹﾝ","kana_city":"ﾆｼﾜｷｼ","kana_address":"ｸﾛﾀﾞｼｮｳﾁｮｳｷﾀ","pref":"兵庫県","city":"西脇市","address":"黒田庄町喜多"},
{"zip_code":"6790302","kana_pref":"ﾋｮｳｺﾞｹﾝ","kana_city":"ﾆｼﾜｷｼ","kana_address":"ｸﾛﾀﾞｼｮｳﾁｮｳｸﾛﾀﾞ","pref":"兵庫県","city":"西脇市","address":"黒田庄町黒田"},
{"zip_code":"6790301","kana_pref":"ﾋｮｳｺﾞｹﾝ","kana_city":"ﾆｼﾜｷｼ","kana_address":"ｸﾛﾀﾞｼｮｳﾁｮｳｺﾅｴ","pref":"兵庫県","city":"西脇市","address":"黒田庄町小苗"},
{"zip_code":"6790316","kana_pref":"ﾋｮｳｺﾞｹﾝ","kana_city":"ﾆｼﾜｷｼ","kana_address":"ｸﾛﾀﾞｼｮｳﾁｮｳﾀﾞｲﾓﾝ","pref":"兵庫県","city":"西脇市","address":"黒田庄町大門"},
{"zip_code":"6790321","kana_pref":"ﾋｮｳｺﾞｹﾝ","kana_city":"ﾆｼﾜｷｼ","kana_address":"ｸﾛﾀﾞｼｮｳﾁｮｳﾀｺｳ","pref":"兵庫県","city":"西脇市","address":"黒田庄町田高"},
{"zip_code":"6790315","kana_pref":"ﾋｮｳｺﾞｹﾝ","kana_city":"ﾆｼﾜｷｼ","kana_address":"ｸﾛﾀﾞｼｮｳﾁｮｳﾂﾏｲ","pref":"兵庫県","city":"西脇市","address":"黒田庄町津万井"},
{"zip_code":"6790323","kana_pref":"ﾋｮｳｺﾞｹﾝ","kana_city":"ﾆｼﾜｷｼ","kana_address":"ｸﾛﾀﾞｼｮｳﾁｮｳﾆｼｻﾞﾜ","pref":"兵庫県","city":"西脇市","address":"黒田庄町西澤"},
{"zip_code":"6790314","kana_pref":"ﾋｮｳｺﾞｹﾝ","kana_city":"ﾆｼﾜｷｼ","kana_address":"ｸﾛﾀﾞｼｮｳﾁｮｳﾌｸｼﾞ","pref":"兵庫県","city":"西脇市","address":"黒田庄町福地"},
{"zip_code":"6790304","kana_pref":"ﾋｮｳｺﾞｹﾝ","kana_city":"ﾆｼﾜｷｼ","kana_address":"ｸﾛﾀﾞｼｮｳﾁｮｳﾌﾅﾏﾁ","pref":"兵庫県","city":"西脇市","address":"黒田庄町船町"},
{"zip_code":"6790303","kana_pref":"ﾋｮｳｺﾞｹﾝ","kana_city":"ﾆｼﾜｷｼ","kana_address":"ｸﾛﾀﾞｼｮｳﾁｮｳﾏｴｻｶ","pref":"兵庫県","city":"西脇市","address":"黒田庄町前坂"},
{"zip_code":"6790312","kana_pref":"ﾋｮｳｺﾞｹﾝ","kana_city":"ﾆｼﾜｷｼ","kana_address":"ｸﾛﾀﾞｼｮｳﾁｮｳﾓﾝﾘｭｳ","pref":"兵庫県","city":"西脇市","address":"黒田庄町門柳"},
{"zip_code":"6790102","kana_pref":"ﾋｮｳｺﾞｹﾝ","kana_city":"ｶｻｲｼ","kana_address":"ｱｵﾉﾊﾗﾁｮｳ","pref":"兵庫県","city":"加西市","address":"青野原町"},
{"zip_code":"6790105","kana_pref":"ﾋｮｳｺﾞｹﾝ","kana_city":"ｶｻｲｼ","kana_address":"ｱｻﾂﾞﾏﾁｮｳ","pref":"兵庫県","city":"加西市","address":"朝妻町"},
{"zip_code":"6790109","kana_pref":"ﾋｮｳｺﾞｹﾝ","kana_city":"ｶｻｲｼ","kana_address":"ﾀﾏｵｶﾁｮｳ","pref":"兵庫県","city":"加西市","address":"玉丘町"},
{"zip_code":"6790107","kana_pref":"ﾋｮｳｺﾞｹﾝ","kana_city":"ｶｻｲｼ","kana_address":"ﾀﾏﾉﾁｮｳ","pref":"兵庫県","city":"加西市","address":"玉野町"},
{"zip_code":"6790101","kana_pref":"ﾋｮｳｺﾞｹﾝ","kana_city":"ｶｻｲｼ","kana_address":"ﾂｿﾒﾁｮｳ","pref":"兵庫県","city":"加西市","address":"都染町"},
{"zip_code":"6790104","kana_pref":"ﾋｮｳｺﾞｹﾝ","kana_city":"ｶｻｲｼ","kana_address":"ﾂﾈﾖｼﾁｮｳ","pref":"兵庫県","city":"加西市","address":"常吉町"},
{"zip_code":"6790106","kana_pref":"ﾋｮｳｺﾞｹﾝ","kana_city":"ｶｻｲｼ","kana_address":"ﾄﾖｸﾗﾁｮｳ","pref":"兵庫県","city":"加西市","address":"豊倉町"},
{"zip_code":"6790103","kana_pref":"ﾋｮｳｺﾞｹﾝ","kana_city":"ｶｻｲｼ","kana_address":"ﾍﾞﾌﾁｮｳ","pref":"兵庫県","city":"加西市","address":"別府町"},
{"zip_code":"6790108","kana_pref":"ﾋｮｳｺﾞｹﾝ","kana_city":"ｶｻｲｼ","kana_address":"ﾔﾏｴﾀﾞﾁｮｳ","pref":"兵庫県","city":"加西市","address":"山枝町"},
{"zip_code":"6793325","kana_pref":"ﾋｮｳｺﾞｹﾝ","kana_city":"ｱｻｺﾞｼ","kana_address":"ｲｸﾉﾁｮｳｲﾉﾉ","pref":"兵庫県","city":"朝来市","address":"生野町猪野々"},
{"zip_code":"6793322","kana_pref":"ﾋｮｳｺﾞｹﾝ","kana_city":"ｱｻｺﾞｼ","kana_address":"ｲｸﾉﾁｮｳｵｸｶﾞﾅﾔ","pref":"兵庫県","city":"朝来市","address":"生野町奥銀谷"},
{"zip_code":"6793332","kana_pref":"ﾋｮｳｺﾞｹﾝ","kana_city":"ｱｻｺﾞｼ","kana_address":"ｲｸﾉﾁｮｳｶﾜｼﾘ","pref":"兵庫県","city":"朝来市","address":"生野町川尻"},
{"zip_code":"6793301","kana_pref":"ﾋｮｳｺﾞｹﾝ","kana_city":"ｱｻｺﾞｼ","kana_address":"ｲｸﾉﾁｮｳｸﾁｶﾞﾅﾔ","pref":"兵庫県","city":"朝来市","address":"生野町口銀谷"},
{"zip_code":"6793341","kana_pref":"ﾋｮｳｺﾞｹﾝ","kana_city":"ｱｻｺﾞｼ","kana_address":"ｲｸﾉﾁｮｳｸﾛｶﾜ","pref":"兵庫県","city":"朝来市","address":"生野町黒川"},
{"zip_code":"6793324","kana_pref":"ﾋｮｳｺﾞｹﾝ","kana_city":"ｱｻｺﾞｼ","kana_address":"ｲｸﾉﾁｮｳｺﾉ","pref":"兵庫県","city":"朝来市","address":"生野町小野"},
{"zip_code":"6793326","kana_pref":"ﾋｮｳｺﾞｹﾝ","kana_city":"ｱｻｺﾞｼ","kana_address":"ｲｸﾉﾁｮｳｼﾗｸﾁ","pref":"兵庫県","city":"朝来市","address":"生野町白口"},
{"zip_code":"6793321","kana_pref":"ﾋｮｳｺﾞｹﾝ","kana_city":"ｱｻｺﾞｼ","kana_address":"ｲｸﾉﾁｮｳｼﾝﾏﾁ","pref":"兵庫県","city":"朝来市","address":"生野町新町"},
{"zip_code":"6793323","kana_pref":"ﾋｮｳｺﾞｹﾝ","kana_city":"ｱｻｺﾞｼ","kana_address":"ｲｸﾉﾁｮｳﾀｹﾊﾗﾉ","pref":"兵庫県","city":"朝来市","address":"生野町竹原野"},
{"zip_code":"6793331","kana_pref":"ﾋｮｳｺﾞｹﾝ","kana_city":"ｱｻｺﾞｼ","kana_address":"ｲｸﾉﾁｮｳﾄﾁﾊﾗ","pref":"兵庫県","city":"朝来市","address":"生野町栃原"},
{"zip_code":"6793311","kana_pref":"ﾋｮｳｺﾞｹﾝ","kana_city":"ｱｻｺﾞｼ","kana_address":"ｲｸﾉﾁｮｳﾏﾕﾐ","pref":"兵庫県","city":"朝来市","address":"生野町真弓"},
{"zip_code":"6793302","kana_pref":"ﾋｮｳｺﾞｹﾝ","kana_city":"ｱｻｺﾞｼ","kana_address":"ｲｸﾉﾁｮｳﾏﾙﾔﾏ","pref":"兵庫県","city":"朝来市","address":"生野町円山"},
{"zip_code":"6793422","kana_pref":"ﾋｮｳｺﾞｹﾝ","kana_city":"ｱｻｺﾞｼ","kana_address":"ｲｼﾀﾞ","pref":"兵庫県","city":"朝来市","address":"石田"},
{"zip_code":"6793421","kana_pref":"ﾋｮｳｺﾞｹﾝ","kana_city":"ｱｻｺﾞｼ","kana_address":"ｲﾕｳｲﾁﾊﾞ","pref":"兵庫県","city":"朝来市","address":"伊由市場"},
{"zip_code":"6793433","kana_pref":"ﾋｮｳｺﾞｹﾝ","kana_city":"ｱｻｺﾞｼ","kana_address":"ｲﾜﾂ","pref":"兵庫県","city":"朝来市","address":"岩津"},
{"zip_code":"6793451","kana_pref":"ﾋｮｳｺﾞｹﾝ","kana_city":"ｱｻｺﾞｼ","kana_address":"ｶﾐﾔｼﾛ","pref":"兵庫県","city":"朝来市","address":"上八代"},
{"zip_code":"6793414","kana_pref":"ﾋｮｳｺﾞｹﾝ","kana_city":"ｱｻｺﾞｼ","kana_address":"ｶﾜｶﾐ","pref":"兵庫県","city":"朝来市","address":"川上"},
{"zip_code":"6793402","kana_pref":"ﾋｮｳｺﾞｹﾝ","kana_city":"ｱｻｺﾞｼ","kana_address":"ｸﾜｲﾁ","pref":"兵庫県","city":"朝来市","address":"桑市"},
{"zip_code":"6793453","kana_pref":"ﾋｮｳｺﾞｹﾝ","kana_city":"ｱｻｺﾞｼ","kana_address":"ｻﾉｳ","pref":"兵庫県","city":"朝来市","address":"佐嚢"},
{"zip_code":"6793411","kana_pref":"ﾋｮｳｺﾞｹﾝ","kana_city":"ｱｻｺﾞｼ","kana_address":"ｻﾜ","pref":"兵庫県","city":"朝来市","address":"沢"},
{"zip_code":"6793423","kana_pref":"ﾋｮｳｺﾞｹﾝ","kana_city":"ｱｻｺﾞｼ","kana_address":"ﾀﾀﾗｷﾞ","pref":"兵庫県","city":"朝来市","address":"多々良木"},
{"zip_code":"6793403","kana_pref":"ﾋｮｳｺﾞｹﾝ","kana_city":"ｱｻｺﾞｼ","kana_address":"ﾀﾁﾜｷ","pref":"兵庫県","city":"朝来市","address":"立脇"},
{"zip_code":"6793424","kana_pref":"ﾋｮｳｺﾞｹﾝ","kana_city":"ｱｻｺﾞｼ","kana_address":"ﾀﾃﾉ","pref":"兵庫県","city":"朝来市","address":"立野"},
{"zip_code":"6793442","kana_pref":"ﾋｮｳｺﾞｹﾝ","kana_city":"ｱｻｺﾞｼ","kana_address":"ﾄｳｼﾞ","pref":"兵庫県","city":"朝来市","address":"田路"},
{"zip_code":"6793431","kana_pref":"ﾋｮｳｺﾞｹﾝ","kana_city":"ｱｻｺﾞｼ","kana_address":"ﾆｲ","pref":"兵庫県","city":"朝来市","address":"新井"},
{"zip_code":"6793413","kana_pref":"ﾋｮｳｺﾞｹﾝ","kana_city":"ｱｻｺﾞｼ","kana_address":"ﾉｳｻﾞ","pref":"兵庫県","city":"朝来市","address":"納座"},
{"zip_code":"6793441","kana_pref":"ﾋｮｳｺﾞｹﾝ","kana_city":"ｱｻｺﾞｼ","kana_address":"ﾊﾌﾞﾁ","pref":"兵庫県","city":"朝来市","address":"羽渕"},
{"zip_code":"6793401","kana_pref":"ﾋｮｳｺﾞｹﾝ","kana_city":"ｱｻｺﾞｼ","kana_address":"ﾓﾉﾉﾍﾞ","pref":"兵庫県","city":"朝来市","address":"物部"},
{"zip_code":"6793452","kana_pref":"ﾋｮｳｺﾞｹﾝ","kana_city":"ｱｻｺﾞｼ","kana_address":"ﾔｼﾛ","pref":"兵庫県","city":"朝来市","address":"八代"},
{"zip_code":"6793412","kana_pref":"ﾋｮｳｺﾞｹﾝ","kana_city":"ｱｻｺﾞｼ","kana_address":"ﾔﾏｳﾁ","pref":"兵庫県","city":"朝来市","address":"山内"},
{"zip_code":"6793432","kana_pref":"ﾋｮｳｺﾞｹﾝ","kana_city":"ｱｻｺﾞｼ","kana_address":"ﾔﾏｸﾞﾁ","pref":"兵庫県","city":"朝来市","address":"山口"},
{"zip_code":"6790203","kana_pref":"ﾋｮｳｺﾞｹﾝ","kana_city":"ｶﾄｳｼ","kana_address":"ｲﾅｵ","pref":"兵庫県","city":"加東市","address":"稲尾"},
{"zip_code":"6790202","kana_pref":"ﾋｮｳｺﾞｹﾝ","kana_city":"ｶﾄｳｼ","kana_address":"ｵｲﾀﾞ","pref":"兵庫県","city":"加東市","address":"多井田"},
{"zip_code":"6790211","kana_pref":"ﾋｮｳｺﾞｹﾝ","kana_city":"ｶﾄｳｼ","kana_address":"ｶﾐﾀｷﾉ","pref":"兵庫県","city":"加東市","address":"上滝野"},
{"zip_code":"6790205","kana_pref":"ﾋｮｳｺﾞｹﾝ","kana_city":"ｶﾄｳｼ","kana_address":"ｷﾀﾉ","pref":"兵庫県","city":"加東市","address":"北野"},
{"zip_code":"6790221","kana_pref":"ﾋｮｳｺﾞｹﾝ","kana_city":"ｶﾄｳｼ","kana_address":"ｺｳﾀｶ","pref":"兵庫県","city":"加東市","address":"河高"},
{"zip_code":"6790213","kana_pref":"ﾋｮｳｺﾞｹﾝ","kana_city":"ｶﾄｳｼ","kana_address":"ｺｳﾐｮｳｼﾞ","pref":"兵庫県","city":"加東市","address":"光明寺"},
{"zip_code":"6790223","kana_pref":"ﾋｮｳｺﾞｹﾝ","kana_city":"ｶﾄｳｼ","kana_address":"ｻｸﾗﾀﾞｲ","pref":"兵庫県","city":"加東市","address":"桜台"},
{"zip_code":"6790212","kana_pref":"ﾋｮｳｺﾞｹﾝ","kana_city":"ｶﾄｳｼ","kana_address":"ｼﾓﾀｷﾉ","pref":"兵庫県","city":"加東市","address":"下滝野"},
{"zip_code":"6790204","kana_pref":"ﾋｮｳｺﾞｹﾝ","kana_city":"ｶﾄｳｼ","kana_address":"ｼﾝﾏﾁ","pref":"兵庫県","city":"加東市","address":"新町"},
{"zip_code":"6790201","kana_pref":"ﾋｮｳｺﾞｹﾝ","kana_city":"ｶﾄｳｼ","kana_address":"ｿｶﾞ","pref":"兵庫県","city":"加東市","address":"曽我"},
{"zip_code":"6790222","kana_pref":"ﾋｮｳｺﾞｹﾝ","kana_city":"ｶﾄｳｼ","kana_address":"ﾀｶｵｶ","pref":"兵庫県","city":"加東市","address":"高岡"},
{"zip_code":"6790207","kana_pref":"ﾋｮｳｺﾞｹﾝ","kana_city":"ｶﾄｳｼ","kana_address":"ﾀｷﾉﾀﾞﾝﾁ","pref":"兵庫県","city":"加東市","address":"滝野団地"},
{"zip_code":"6790206","kana_pref":"ﾋｮｳｺﾞｹﾝ","kana_city":"ｶﾄｳｼ","kana_address":"ﾎﾂﾞﾐ","pref":"兵庫県","city":"加東市","address":"穂積"},
{"zip_code":"6794100","kana_pref":"ﾋｮｳｺﾞｹﾝ","kana_city":"ﾀﾂﾉｼ","kana_address":"","pref":"兵庫県","city":"たつの市","address":""},
{"zip_code":"6794008","kana_pref":"ﾋｮｳｺﾞｹﾝ","kana_city":"ﾀﾂﾉｼ","kana_address":"ｲｯｻｲﾁｮｳｱｼﾊﾗﾀﾞｲ","pref":"兵庫県","city":"たつの市","address":"揖西町芦原台"},
{"zip_code":"6794003","kana_pref":"ﾋｮｳｺﾞｹﾝ","kana_city":"ﾀﾂﾉｼ","kana_address":"ｲｯｻｲﾁｮｳｵｶﾞﾐ","pref":"兵庫県","city":"たつの市","address":"揖西町小神"},
{"zip_code":"6794024","kana_pref":"ﾋｮｳｺﾞｹﾝ","kana_city":"ﾀﾂﾉｼ","kana_address":"ｲｯｻｲﾁｮｳｵｻｷ","pref":"兵庫県","city":"たつの市","address":"揖西町尾崎"},
{"zip_code":"6794025","kana_pref":"ﾋｮｳｺﾞｹﾝ","kana_city":"ﾀﾂﾉｼ","kana_address":"ｲｯｻｲﾁｮｳｵﾊﾞﾀｹ","pref":"兵庫県","city":"たつの市","address":"揖西町小畑"},
{"zip_code":"6794007","kana_pref":"ﾋｮｳｺﾞｹﾝ","kana_city":"ﾀﾂﾉｼ","kana_address":"ｲｯｻｲﾁｮｳｶﾏｴ","pref":"兵庫県","city":"たつの市","address":"揖西町構"},
{"zip_code":"6794022","kana_pref":"ﾋｮｳｺﾞｹﾝ","kana_city":"ﾀﾂﾉｼ","kana_address":"ｲｯｻｲﾁｮｳｷﾀｻﾜ","pref":"兵庫県","city":"たつの市","address":"揖西町北沢"},
{"zip_code":"6794013","kana_pref":"ﾋｮｳｺﾞｹﾝ","kana_city":"ﾀﾂﾉｼ","kana_address":"ｲｯｻｲﾁｮｳｷﾀﾔﾏ","pref":"兵庫県","city":"たつの市","address":"揖西町北山"},
{"zip_code":"6794021","kana_pref":"ﾋｮｳｺﾞｹﾝ","kana_city":"ﾀﾂﾉｼ","kana_address":"ｲｯｻｲﾁｮｳｺｲﾇﾏﾙ","pref":"兵庫県","city":"たつの市","address":"揖西町小犬丸"},
{"zip_code":"6794011","kana_pref":"ﾋｮｳｺﾞｹﾝ","kana_city":"ﾀﾂﾉｼ","kana_address":"ｲｯｻｲﾁｮｳｻｴ","pref":"兵庫県","city":"たつの市","address":"揖西町佐江"},
{"zip_code":"6794005","kana_pref":"ﾋｮｳｺﾞｹﾝ","kana_city":"ﾀﾂﾉｼ","kana_address":"ｲｯｻｲﾁｮｳｼﾐｽﾞ","pref":"兵庫県","city":"たつの市","address":"揖西町清水"},
{"zip_code":"6794004","kana_pref":"ﾋｮｳｺﾞｹﾝ","kana_city":"ﾀﾂﾉｼ","kana_address":"ｲｯｻｲﾁｮｳｼﾐｽﾞｼﾝ","pref":"兵庫県","city":"たつの市","address":"揖西町清水新"},
{"zip_code":"6794001","kana_pref":"ﾋｮｳｺﾞｹﾝ","kana_city":"ﾀﾂﾉｼ","kana_address":"ｲｯｻｲﾁｮｳｼﾝｸﾞｳ","pref":"兵庫県","city":"たつの市","address":"揖西町新宮"},
{"zip_code":"6794023","kana_pref":"ﾋｮｳｺﾞｹﾝ","kana_city":"ﾀﾂﾉｼ","kana_address":"ｲｯｻｲﾁｮｳｽﾐﾖｼ","pref":"兵庫県","city":"たつの市","address":"揖西町住吉"},
{"zip_code":"6794006","kana_pref":"ﾋｮｳｺﾞｹﾝ","kana_city":"ﾀﾂﾉｼ","kana_address":"ｲｯｻｲﾁｮｳﾀｲ","pref":"兵庫県","city":"たつの市","address":"揖西町田井"},
{"zip_code":"6794026","kana_pref":"ﾋｮｳｺﾞｹﾝ","kana_city":"ﾀﾂﾉｼ","kana_address":"ｲｯｻｲﾁｮｳﾀｹﾊﾗ","pref":"兵庫県","city":"たつの市","address":"揖西町竹原"},
{"zip_code":"6794014","kana_pref":"ﾋｮｳｺﾞｹﾝ","kana_city":"ﾀﾂﾉｼ","kana_address":"ｲｯｻｲﾁｮｳﾁｸﾏ","pref":"兵庫県","city":"たつの市","address":"揖西町竹万"},
{"zip_code":"6794027","kana_pref":"ﾋｮｳｺﾞｹﾝ","kana_city":"ﾀﾂﾉｼ","kana_address":"ｲｯｻｲﾁｮｳﾅｶﾞｵ","pref":"兵庫県","city":"たつの市","address":"揖西町長尾"},
{"zip_code":"6794002","kana_pref":"ﾋｮｳｺﾞｹﾝ","kana_city":"ﾀﾂﾉｼ","kana_address":"ｲｯｻｲﾁｮｳﾅｶｶﾞｲﾁ","pref":"兵庫県","city":"たつの市","address":"揖西町中垣内"},
{"zip_code":"6794017","kana_pref":"ﾋｮｳｺﾞｹﾝ","kana_city":"ﾀﾂﾉｼ","kana_address":"ｲｯｻｲﾁｮｳﾊｾﾞ","pref":"兵庫県","city":"たつの市","address":"揖西町土師"},
{"zip_code":"6794012","kana_pref":"ﾋｮｳｺﾞｹﾝ","kana_city":"ﾀﾂﾉｼ","kana_address":"ｲｯｻｲﾁｮｳﾏｴｼﾞ","pref":"兵庫県","city":"たつの市","address":"揖西町前地"},
{"zip_code":"6794016","kana_pref":"ﾋｮｳｺﾞｹﾝ","kana_city":"ﾀﾂﾉｼ","kana_address":"ｲｯｻｲﾁｮｳﾐﾅﾐﾔﾏ","pref":"兵庫県","city":"たつの市","address":"揖西町南山"},
{"zip_code":"6794015","kana_pref":"ﾋｮｳｺﾞｹﾝ","kana_city":"ﾀﾂﾉｼ","kana_address":"ｲｯｻｲﾁｮｳﾘｭｳｺ","pref":"兵庫県","city":"たつの市","address":"揖西町龍子"},
{"zip_code":"6794156","kana_pref":"ﾋｮｳｺﾞｹﾝ","kana_city":"ﾀﾂﾉｼ","kana_address":"ｲﾎﾞﾁｮｳｲﾎﾞｶﾐ","pref":"兵庫県","city":"たつの市","address":"揖保町揖保上"},
{"zip_code":"6794155","kana_pref":"ﾋｮｳｺﾞｹﾝ","kana_city":"ﾀﾂﾉｼ","kana_address":"ｲﾎﾞﾁｮｳｲﾎﾞﾅｶ","pref":"兵庫県","city":"たつの市","address":"揖保町揖保中"},
{"zip_code":"6794146","kana_pref":"ﾋｮｳｺﾞｹﾝ","kana_city":"ﾀﾂﾉｼ","kana_address":"ｲﾎﾞﾁｮｳｲﾏｲﾁ","pref":"兵庫県","city":"たつの市","address":"揖保町今市"},
{"zip_code":"6794141","kana_pref":"ﾋｮｳｺﾞｹﾝ","kana_city":"ﾀﾂﾉｼ","kana_address":"ｲﾎﾞﾁｮｳｻｶｴ","pref":"兵庫県","city":"たつの市","address":"揖保町栄"},
{"zip_code":"6794143","kana_pref":"ﾋｮｳｺﾞｹﾝ","kana_city":"ﾀﾂﾉｼ","kana_address":"ｲﾎﾞﾁｮｳﾄｳﾖｳ","pref":"兵庫県","city":"たつの市","address":"揖保町東用"},
{"zip_code":"6794152","kana_pref":"ﾋｮｳｺﾞｹﾝ","kana_city":"ﾀﾂﾉｼ","kana_address":"ｲﾎﾞﾁｮｳﾅｶｼﾞﾝ","pref":"兵庫県","city":"たつの市","address":"揖保町中臣"},
{"zip_code":"6794154","kana_pref":"ﾋｮｳｺﾞｹﾝ","kana_city":"ﾀﾂﾉｼ","kana_address":"ｲﾎﾞﾁｮｳﾆｼｶﾞﾏｴ","pref":"兵庫県","city":"たつの市","address":"揖保町西構"},
{"zip_code":"6794145","kana_pref":"ﾋｮｳｺﾞｹﾝ","kana_city":"ﾀﾂﾉｼ","kana_address":"ｲﾎﾞﾁｮｳﾊｲﾊﾞﾗ","pref":"兵庫県","city":"たつの市","address":"揖保町萩原"},
{"zip_code":"6794144","kana_pref":"ﾋｮｳｺﾞｹﾝ","kana_city":"ﾀﾂﾉｼ","kana_address":"ｲﾎﾞﾁｮｳﾏｻｺﾞ","pref":"兵庫県","city":"たつの市","address":"揖保町真砂"},
{"zip_code":"6794142","kana_pref":"ﾋｮｳｺﾞｹﾝ","kana_city":"ﾀﾂﾉｼ","kana_address":"ｲﾎﾞﾁｮｳﾏﾂﾊﾞﾗ","pref":"兵庫県","city":"たつの市","address":"揖保町松原"},
{"zip_code":"6794153","kana_pref":"ﾋｮｳｺﾞｹﾝ","kana_city":"ﾀﾂﾉｼ","kana_address":"ｲﾎﾞﾁｮｳﾓﾝｾﾞﾝ","pref":"兵庫県","city":"たつの市","address":"揖保町門前"},
{"zip_code":"6794151","kana_pref":"ﾋｮｳｺﾞｹﾝ","kana_city":"ﾀﾂﾉｼ","kana_address":"ｲﾎﾞﾁｮｳﾔﾏｼﾀ","pref":"兵庫県","city":"たつの市","address":"揖保町山下"},
{"zip_code":"6794115","kana_pref":"ﾋｮｳｺﾞｹﾝ","kana_city":"ﾀﾂﾉｼ","kana_address":"ｶﾐｵｶﾁｮｳｲﾘﾉ","pref":"兵庫県","city":"たつの市","address":"神岡町入野"},
{"zip_code":"6794112","kana_pref":"ﾋｮｳｺﾞｹﾝ","kana_city":"ﾀﾂﾉｼ","kana_address":"ｶﾐｵｶﾁｮｳｵｲﾜｹ","pref":"兵庫県","city":"たつの市","address":"神岡町追分"},
{"zip_code":"6794101","kana_pref":"ﾋｮｳｺﾞｹﾝ","kana_city":"ﾀﾂﾉｼ","kana_address":"ｶﾐｵｶﾁｮｳｵｸﾑﾗ","pref":"兵庫県","city":"たつの市","address":"神岡町奥村"},
{"zip_code":"6794103","kana_pref":"ﾋｮｳｺﾞｹﾝ","kana_city":"ﾀﾂﾉｼ","kana_address":"ｶﾐｵｶﾁｮｳｶﾐﾖｺｳﾁ","pref":"兵庫県","city":"たつの市","address":"神岡町上横内"},
{"zip_code":"6794102","kana_pref":"ﾋｮｳｺﾞｹﾝ","kana_city":"ﾀﾂﾉｼ","kana_address":"ｶﾐｵｶﾁｮｳｷﾀﾖｺｳﾁ","pref":"兵庫県","city":"たつの市","address":"神岡町北横内"},
{"zip_code":"6794116","kana_pref":"ﾋｮｳｺﾞｹﾝ","kana_city":"ﾀﾂﾉｼ","kana_address":"ｶﾐｵｶﾁｮｳｻﾜﾀﾞ","pref":"兵庫県","city":"たつの市","address":"神岡町沢田"},
{"zip_code":"6794108","kana_pref":"ﾋｮｳｺﾞｹﾝ","kana_city":"ﾀﾂﾉｼ","kana_address":"ｶﾐｵｶﾁｮｳﾀﾞｲｼﾞｭｳｼﾞ","pref":"兵庫県","city":"たつの市","address":"神岡町大住寺"},
{"zip_code":"6794113","kana_pref":"ﾋｮｳｺﾞｹﾝ","kana_city":"ﾀﾂﾉｼ","kana_address":"ｶﾐｵｶﾁｮｳﾀﾅｶ","pref":"兵庫県","city":"たつの市","address":"神岡町田中"},
{"zip_code":"6794104","kana_pref":"ﾋｮｳｺﾞｹﾝ","kana_city":"ﾀﾂﾉｼ","kana_address":"ｶﾐｵｶﾁｮｳﾂﾂｲ","pref":"兵庫県","city":"たつの市","address":"神岡町筒井"},
{"zip_code":"6794105","kana_pref":"ﾋｮｳｺﾞｹﾝ","kana_city":"ﾀﾂﾉｼ","kana_address":"ｶﾐｵｶﾁｮｳﾆｼﾄﾘｲ","pref":"兵庫県","city":"たつの市","address":"神岡町西鳥井"},
{"zip_code":"6794107","kana_pref":"ﾋｮｳｺﾞｹﾝ","kana_city":"ﾀﾂﾉｼ","kana_address":"ｶﾐｵｶﾁｮｳﾆｼﾖｺｳﾁ","pref":"兵庫県","city":"たつの市","address":"神岡町西横内"},
{"zip_code":"6794111","kana_pref":"ﾋｮｳｺﾞｹﾝ","kana_city":"ﾀﾂﾉｼ","kana_address":"ｶﾐｵｶﾁｮｳﾉﾍﾞ","pref":"兵庫県","city":"たつの市","address":"神岡町野部"},
{"zip_code":"6794109","kana_pref":"ﾋｮｳｺﾞｹﾝ","kana_city":"ﾀﾂﾉｼ","kana_address":"ｶﾐｵｶﾁｮｳﾋｶﾞｼﾊｼｻｷ","pref":"兵庫県","city":"たつの市","address":"神岡町東觜崎"},
{"zip_code":"6794106","kana_pref":"ﾋｮｳｺﾞｹﾝ","kana_city":"ﾀﾂﾉｼ","kana_address":"ｶﾐｵｶﾁｮｳﾖｺｳﾁ","pref":"兵庫県","city":"たつの市","address":"神岡町横内"},
{"zip_code":"6794114","kana_pref":"ﾋｮｳｺﾞｹﾝ","kana_city":"ﾀﾂﾉｼ","kana_address":"ｶﾐｵｶﾁｮｳﾖﾘｲ","pref":"兵庫県","city":"たつの市","address":"神岡町寄井"},
{"zip_code":"6794331","kana_pref":"ﾋｮｳｺﾞｹﾝ","kana_city":"ﾀﾂﾉｼ","kana_address":"ｼﾝｸﾞｳﾁｮｳｲﾁﾉﾎ","pref":"兵庫県","city":"たつの市","address":"新宮町市野保"},
{"zip_code":"6794315","kana_pref":"ﾋｮｳｺﾞｹﾝ","kana_city":"ﾀﾂﾉｼ","kana_address":"ｼﾝｸﾞｳﾁｮｳｲﾉﾊﾗ","pref":"兵庫県","city":"たつの市","address":"新宮町井野原"},
{"zip_code":"6794332","kana_pref":"ﾋｮｳｺﾞｹﾝ","kana_city":"ﾀﾂﾉｼ","kana_address":"ｼﾝｸﾞｳﾁｮｳｳﾏﾀﾃ","pref":"兵庫県","city":"たつの市","address":"新宮町馬立"},
{"zip_code":"6794343","kana_pref":"ﾋｮｳｺﾞｹﾝ","kana_city":"ﾀﾂﾉｼ","kana_address":"ｼﾝｸﾞｳﾁｮｳｵｵﾔ","pref":"兵庫県","city":"たつの市","address":"新宮町大屋"},
{"zip_code":"6795151","kana_pref":"ﾋｮｳｺﾞｹﾝ","kana_city":"ﾀﾂﾉｼ","kana_address":"ｼﾝｸﾞｳﾁｮｳｵｸｺﾞﾔ","pref":"兵庫県","city":"たつの市","address":"新宮町奥小屋"},
{"zip_code":"6795154","kana_pref":"ﾋｮｳｺﾞｹﾝ","kana_city":"ﾀﾂﾉｼ","kana_address":"ｼﾝｸﾞｳﾁｮｳｶｼﾞﾔ","pref":"兵庫県","city":"たつの市","address":"新宮町鍛冶屋"},
{"zip_code":"6795162","kana_pref":"ﾋｮｳｺﾞｹﾝ","kana_city":"ﾀﾂﾉｼ","kana_address":"ｼﾝｸﾞｳﾁｮｳｶﾐｱｻﾞﾜﾗ","pref":"兵庫県","city":"たつの市","address":"新宮町上莇原"},
{"zip_code":"6794303","kana_pref":"ﾋｮｳｺﾞｹﾝ","kana_city":"ﾀﾂﾉｼ","kana_address":"ｼﾝｸﾞｳﾁｮｳｶﾐｻｻ","pref":"兵庫県","city":"たつの市","address":"新宮町上笹"},
{"zip_code":"6794323","kana_pref":"ﾋｮｳｺﾞｹﾝ","kana_city":"ﾀﾂﾉｼ","kana_address":"ｼﾝｸﾞｳﾁｮｳｷﾀﾑﾗ","pref":"兵庫県","city":"たつの市","address":"新宮町北村"},
{"zip_code":"6795155","kana_pref":"ﾋｮｳｺﾞｹﾝ","kana_city":"ﾀﾂﾉｼ","kana_address":"ｼﾝｸﾞｳﾁｮｳｸﾘﾏﾁ","pref":"兵庫県","city":"たつの市","address":"新宮町栗町"},
{"zip_code":"6795165","kana_pref":"ﾋｮｳｺﾞｹﾝ","kana_city":"ﾀﾂﾉｼ","kana_address":"ｼﾝｸﾞｳﾁｮｳｺｳﾄ","pref":"兵庫県","city":"たつの市","address":"新宮町光都"},
{"zip_code":"6794302","kana_pref":"ﾋｮｳｺﾞｹﾝ","kana_city":"ﾀﾂﾉｼ","kana_address":"ｼﾝｸﾞｳﾁｮｳｺｳﾔﾏ","pref":"兵庫県","city":"たつの市","address":"新宮町香山"},
{"zip_code":"6794316","kana_pref":"ﾋｮｳｺﾞｹﾝ","kana_city":"ﾀﾂﾉｼ","kana_address":"ｼﾝｸﾞｳﾁｮｳｺｹﾞﾀ","pref":"兵庫県","city":"たつの市","address":"新宮町芝田"},
{"zip_code":"6794325","kana_pref":"ﾋｮｳｺﾞｹﾝ","kana_city":"ﾀﾂﾉｼ","kana_address":"ｼﾝｸﾞｳﾁｮｳｻﾉ","pref":"兵庫県","city":"たつの市","address":"新宮町佐野"},
{"zip_code":"6794301","kana_pref":"ﾋｮｳｺﾞｹﾝ","kana_city":"ﾀﾂﾉｼ","kana_address":"ｼﾝｸﾞｳﾁｮｳｼﾉｸﾋﾞ","pref":"兵庫県","city":"たつの市","address":"新宮町篠首"},
{"zip_code":"6795161","kana_pref":"ﾋｮｳｺﾞｹﾝ","kana_city":"ﾀﾂﾉｼ","kana_address":"ｼﾝｸﾞｳﾁｮｳｼﾓｱｻﾞﾜﾗ","pref":"兵庫県","city":"たつの市","address":"新宮町下莇原"},
{"zip_code":"6794304","kana_pref":"ﾋｮｳｺﾞｹﾝ","kana_city":"ﾀﾂﾉｼ","kana_address":"ｼﾝｸﾞｳﾁｮｳｼﾓｻｻ","pref":"兵庫県","city":"たつの市","address":"新宮町下笹"},
{"zip_code":"6794312","kana_pref":"ﾋｮｳｺﾞｹﾝ","kana_city":"ﾀﾂﾉｼ","kana_address":"ｼﾝｸﾞｳﾁｮｳｼﾓﾉ","pref":"兵庫県","city":"たつの市","address":"新宮町下野"},
{"zip_code":"6794333","kana_pref":"ﾋｮｳｺﾞｹﾝ","kana_city":"ﾀﾂﾉｼ","kana_address":"ｼﾝｸﾞｳﾁｮｳｼﾓﾉﾀﾞ","pref":"兵庫県","city":"たつの市","address":"新宮町下野田"},
{"zip_code":"6794313","kana_pref":"ﾋｮｳｺﾞｹﾝ","kana_city":"ﾀﾂﾉｼ","kana_address":"ｼﾝｸﾞｳﾁｮｳｼﾝｸﾞｳ","pref":"兵庫県","city":"たつの市","address":"新宮町新宮"},
{"zip_code":"6794344","kana_pref":"ﾋｮｳｺﾞｹﾝ","kana_city":"ﾀﾂﾉｼ","kana_address":"ｼﾝｸﾞｳﾁｮｳｾﾞﾝｼﾞｮ","pref":"兵庫県","city":"たつの市","address":"新宮町善定"},
{"zip_code":"6794322","kana_pref":"ﾋｮｳｺﾞｹﾝ","kana_city":"ﾀﾂﾉｼ","kana_address":"ｼﾝｸﾞｳﾁｮｳｾﾝｼｮｳ","pref":"兵庫県","city":"たつの市","address":"新宮町仙正"},
{"zip_code":"6794346","kana_pref":"ﾋｮｳｺﾞｹﾝ","kana_city":"ﾀﾂﾉｼ","kana_address":"ｼﾝｸﾞｳﾁｮｳｾﾝﾎﾞﾝ","pref":"兵庫県","city":"たつの市","address":"新宮町千本"},
{"zip_code":"6794314","kana_pref":"ﾋｮｳｺﾞｹﾝ","kana_city":"ﾀﾂﾉｼ","kana_address":"ｼﾝｸﾞｳﾁｮｳｿｶﾞｲ","pref":"兵庫県","city":"たつの市","address":"新宮町曽我井"},
{"zip_code":"6794321","kana_pref":"ﾋｮｳｺﾞｹﾝ","kana_city":"ﾀﾂﾉｼ","kana_address":"ｼﾝｸﾞｳﾁｮｳﾀﾞﾝﾉｳｴ","pref":"兵庫県","city":"たつの市","address":"新宮町段之上"},
{"zip_code":"6795163","kana_pref":"ﾋｮｳｺﾞｹﾝ","kana_city":"ﾀﾂﾉｼ","kana_address":"ｼﾝｸﾞｳﾁｮｳﾂﾉｶﾞﾒ","pref":"兵庫県","city":"たつの市","address":"新宮町角亀"},
{"zip_code":"6795153","kana_pref":"ﾋｮｳｺﾞｹﾝ","kana_city":"ﾀﾂﾉｼ","kana_address":"ｼﾝｸﾞｳﾁｮｳﾄｷｼｹﾞ","pref":"兵庫県","city":"たつの市","address":"新宮町時重"},
{"zip_code":"6794327","kana_pref":"ﾋｮｳｺﾞｹﾝ","kana_city":"ﾀﾂﾉｼ","kana_address":"ｼﾝｸﾞｳﾁｮｳﾅｶﾉｼｮｳ","pref":"兵庫県","city":"たつの市","address":"新宮町中野庄"},
{"zip_code":"6794341","kana_pref":"ﾋｮｳｺﾞｹﾝ","kana_city":"ﾀﾂﾉｼ","kana_address":"ｼﾝｸﾞｳﾁｮｳﾉｳｼﾞ","pref":"兵庫県","city":"たつの市","address":"新宮町能地"},
{"zip_code":"6794324","kana_pref":"ﾋｮｳｺﾞｹﾝ","kana_city":"ﾀﾂﾉｼ","kana_address":"ｼﾝｸﾞｳﾁｮｳﾊｼｻｷ","pref":"兵庫県","city":"たつの市","address":"新宮町觜崎"},
{"zip_code":"6794342","kana_pref":"ﾋｮｳｺﾞｹﾝ","kana_city":"ﾀﾂﾉｼ","kana_address":"ｼﾝｸﾞｳﾁｮｳﾋﾗﾉ","pref":"兵庫県","city":"たつの市","address":"新宮町平野"},
{"zip_code":"6794345","kana_pref":"ﾋｮｳｺﾞｹﾝ","kana_city":"ﾀﾂﾉｼ","kana_address":"ｼﾝｸﾞｳﾁｮｳﾌｸｽ","pref":"兵庫県","city":"たつの市","address":"新宮町福栖"},
{"zip_code":"6795164","kana_pref":"ﾋｮｳｺﾞｹﾝ","kana_city":"ﾀﾂﾉｼ","kana_address":"ｼﾝｸﾞｳﾁｮｳﾌﾀﾂｶﾞｲﾉ","pref":"兵庫県","city":"たつの市","address":"新宮町二柏野"},
{"zip_code":"6794326","kana_pref":"ﾋｮｳｺﾞｹﾝ","kana_city":"ﾀﾂﾉｼ","kana_address":"ｼﾝｸﾞｳﾁｮｳﾌﾅﾄ","pref":"兵庫県","city":"たつの市","address":"新宮町船渡"},
{"zip_code":"6795152","kana_pref":"ﾋｮｳｺﾞｹﾝ","kana_city":"ﾀﾂﾉｼ","kana_address":"ｼﾝｸﾞｳﾁｮｳﾏｷ","pref":"兵庫県","city":"たつの市","address":"新宮町牧"},
{"zip_code":"6794311","kana_pref":"ﾋｮｳｺﾞｹﾝ","kana_city":"ﾀﾂﾉｼ","kana_address":"ｼﾝｸﾞｳﾁｮｳﾐﾔｳﾁ","pref":"兵庫県","city":"たつの市","address":"新宮町宮内"},
{"zip_code":"6794305","kana_pref":"ﾋｮｳｺﾞｹﾝ","kana_city":"ﾀﾂﾉｼ","kana_address":"ｼﾝｸﾞｳﾁｮｳﾖｼﾏ","pref":"兵庫県","city":"たつの市","address":"新宮町吉島"},
{"zip_code":"6794175","kana_pref":"ﾋｮｳｺﾞｹﾝ","kana_city":"ﾀﾂﾉｼ","kana_address":"ﾀﾂﾉﾁｮｳｱｻﾋﾏﾁ","pref":"兵庫県","city":"たつの市","address":"龍野町旭町"},
{"zip_code":"6794178","kana_pref":"ﾋｮｳｺﾞｹﾝ","kana_city":"ﾀﾂﾉｼ","kana_address":"ﾀﾂﾉﾁｮｳｵｵﾃ","pref":"兵庫県","city":"たつの市","address":"龍野町大手"},
{"zip_code":"6794128","kana_pref":"ﾋｮｳｺﾞｹﾝ","kana_city":"ﾀﾂﾉｼ","kana_address":"ﾀﾂﾉﾁｮｳｵﾔｹｷﾀ","pref":"兵庫県","city":"たつの市","address":"龍野町小宅北"},
{"zip_code":"6794123","kana_pref":"ﾋｮｳｺﾞｹﾝ","kana_city":"ﾀﾂﾉｼ","kana_address":"ﾀﾂﾉﾁｮｳｶﾀﾔﾏ","pref":"兵庫県","city":"たつの市","address":"龍野町片山"},
{"zip_code":"6794179","kana_pref":"ﾋｮｳｺﾞｹﾝ","kana_city":"ﾀﾂﾉｼ","kana_address":"ﾀﾂﾉﾁｮｳｶﾐｶｼﾞｮｳ","pref":"兵庫県","city":"たつの市","address":"龍野町上霞城"},
{"zip_code":"6794172","kana_pref":"ﾋｮｳｺﾞｹﾝ","kana_city":"ﾀﾂﾉｼ","kana_address":"ﾀﾂﾉﾁｮｳｶﾐｶﾞﾜﾗ","pref":"兵庫県","city":"たつの市","address":"龍野町上川原"},
{"zip_code":"6794166","kana_pref":"ﾋｮｳｺﾞｹﾝ","kana_city":"ﾀﾂﾉｼ","kana_address":"ﾀﾂﾉﾁｮｳｶﾜﾗﾁｮｳ","pref":"兵庫県","city":"たつの市","address":"龍野町川原町"},
{"zip_code":"6794171","kana_pref":"ﾋｮｳｺﾞｹﾝ","kana_city":"ﾀﾂﾉｼ","kana_address":"ﾀﾂﾉﾁｮｳｷﾀﾀﾂﾉ","pref":"兵庫県","city":"たつの市","address":"龍野町北龍野"},
{"zip_code":"6794121","kana_pref":"ﾋｮｳｺﾞｹﾝ","kana_city":"ﾀﾂﾉｼ","kana_address":"ﾀﾂﾉﾁｮｳｼﾏﾀﾞ","pref":"兵庫県","city":"たつの市","address":"龍野町島田"},
{"zip_code":"6794162","kana_pref":"ﾋｮｳｺﾞｹﾝ","kana_city":"ﾀﾂﾉｼ","kana_address":"ﾀﾂﾉﾁｮｳｼﾓｶｼﾞｮｳ","pref":"兵庫県","city":"たつの市","address":"龍野町下霞城"},
{"zip_code":"6794177","kana_pref":"ﾋｮｳｺﾞｹﾝ","kana_city":"ﾀﾂﾉｼ","kana_address":"ﾀﾂﾉﾁｮｳｼﾓｶﾞﾜﾗ","pref":"兵庫県","city":"たつの市","address":"龍野町下川原"},
{"zip_code":"6794176","kana_pref":"ﾋｮｳｺﾞｹﾝ","kana_city":"ﾀﾂﾉｼ","kana_address":"ﾀﾂﾉﾁｮｳｽｲｼﾞﾝﾁｮｳ","pref":"兵庫県","city":"たつの市","address":"龍野町水神町"},
{"zip_code":"6794125","kana_pref":"ﾋｮｳｺﾞｹﾝ","kana_city":"ﾀﾂﾉｼ","kana_address":"ﾀﾂﾉﾁｮｳｽｴﾏｻ","pref":"兵庫県","city":"たつの市","address":"龍野町末政"},
{"zip_code":"6794169","kana_pref":"ﾋｮｳｺﾞｹﾝ","kana_city":"ﾀﾂﾉｼ","kana_address":"ﾀﾂﾉﾁｮｳﾀﾞｲﾄﾞｳ","pref":"兵庫県","city":"たつの市","address":"龍野町大道"},
{"zip_code":"6794164","kana_pref":"ﾋｮｳｺﾞｹﾝ","kana_city":"ﾀﾂﾉｼ","kana_address":"ﾀﾂﾉﾁｮｳﾀﾃﾏﾁ","pref":"兵庫県","city":"たつの市","address":"龍野町立町"},
{"zip_code":"6794129","kana_pref":"ﾋｮｳｺﾞｹﾝ","kana_city":"ﾀﾂﾉｼ","kana_address":"ﾀﾂﾉﾁｮｳﾄﾞｳﾓﾄ","pref":"兵庫県","city":"たつの市","address":"龍野町堂本"},
{"zip_code":"6794167","kana_pref":"ﾋｮｳｺﾞｹﾝ","kana_city":"ﾀﾂﾉｼ","kana_address":"ﾀﾂﾉﾁｮｳﾄﾐﾅｶﾞ","pref":"兵庫県","city":"たつの市","address":"龍野町富永"},
{"zip_code":"6794124","kana_pref":"ﾋｮｳｺﾞｹﾝ","kana_city":"ﾀﾂﾉｼ","kana_address":"ﾀﾂﾉﾁｮｳﾅｶｲ","pref":"兵庫県","city":"たつの市","address":"龍野町中井"},
{"zip_code":"6794170","kana_pref":"ﾋｮｳｺﾞｹﾝ","kana_city":"ﾀﾂﾉｼ","kana_address":"ﾀﾂﾉﾁｮｳﾅｶｶｼﾞｮｳ","pref":"兵庫県","city":"たつの市","address":"龍野町中霞城"},
{"zip_code":"6794126","kana_pref":"ﾋｮｳｺﾞｹﾝ","kana_city":"ﾀﾂﾉｼ","kana_address":"ﾀﾂﾉﾁｮｳﾅｶﾑﾗ","pref":"兵庫県","city":"たつの市","address":"龍野町中村"},
{"zip_code":"6794122","kana_pref":"ﾋｮｳｺﾞｹﾝ","kana_city":"ﾀﾂﾉｼ","kana_address":"ﾀﾂﾉﾁｮｳﾋｶﾞｲ","pref":"兵庫県","city":"たつの市","address":"龍野町日飼"},
{"zip_code":"6794161","kana_pref":"ﾋｮｳｺﾞｹﾝ","kana_city":"ﾀﾂﾉｼ","kana_address":"ﾀﾂﾉﾁｮｳﾋﾔﾏ","pref":"兵庫県","city":"たつの市","address":"龍野町日山"},
{"zip_code":"6794163","kana_pref":"ﾋｮｳｺﾞｹﾝ","kana_city":"ﾀﾂﾉｼ","kana_address":"ﾀﾂﾉﾁｮｳﾌｸﾉｶﾐ","pref":"兵庫県","city":"たつの市","address":"龍野町福の神"},
{"zip_code":"6794165","kana_pref":"ﾋｮｳｺﾞｹﾝ","kana_city":"ﾀﾂﾉｼ","kana_address":"ﾀﾂﾉﾁｮｳﾎﾝﾏﾁ","pref":"兵庫県","city":"たつの市","address":"龍野町本町"},
{"zip_code":"6794127","kana_pref":"ﾋｮｳｺﾞｹﾝ","kana_city":"ﾀﾂﾉｼ","kana_address":"ﾀﾂﾉﾁｮｳﾐﾔﾜｷ","pref":"兵庫県","city":"たつの市","address":"龍野町宮脇"},
{"zip_code":"6794173","kana_pref":"ﾋｮｳｺﾞｹﾝ","kana_city":"ﾀﾂﾉｼ","kana_address":"ﾀﾂﾉﾁｮｳﾓﾝﾉｿﾄ","pref":"兵庫県","city":"たつの市","address":"龍野町門の外"},
{"zip_code":"6794174","kana_pref":"ﾋｮｳｺﾞｹﾝ","kana_city":"ﾀﾂﾉｼ","kana_address":"ﾀﾂﾉﾁｮｳﾔﾅｷﾞﾊﾗ","pref":"兵庫県","city":"たつの市","address":"龍野町柳原"},
{"zip_code":"6794168","kana_pref":"ﾋｮｳｺﾞｹﾝ","kana_city":"ﾀﾂﾉｼ","kana_address":"ﾀﾂﾉﾁｮｳﾖｯｶ","pref":"兵庫県","city":"たつの市","address":"龍野町四箇"},
{"zip_code":"6794136","kana_pref":"ﾋｮｳｺﾞｹﾝ","kana_city":"ﾀﾂﾉｼ","kana_address":"ﾎﾝﾀﾞﾁｮｳｲﾉｶﾐ","pref":"兵庫県","city":"たつの市","address":"誉田町井上"},
{"zip_code":"6794131","kana_pref":"ﾋｮｳｺﾞｹﾝ","kana_city":"ﾀﾂﾉｼ","kana_address":"ﾎﾝﾀﾞﾁｮｳｳﾁﾔﾏ","pref":"兵庫県","city":"たつの市","address":"誉田町内山"},
{"zip_code":"6794137","kana_pref":"ﾋｮｳｺﾞｹﾝ","kana_city":"ﾀﾂﾉｼ","kana_address":"ﾎﾝﾀﾞﾁｮｳｶﾀﾌﾞｷ","pref":"兵庫県","city":"たつの市","address":"誉田町片吹"},
{"zip_code":"6794139","kana_pref":"ﾋｮｳｺﾞｹﾝ","kana_city":"ﾀﾂﾉｼ","kana_address":"ﾎﾝﾀﾞﾁｮｳｶﾐｵｷ","pref":"兵庫県","city":"たつの市","address":"誉田町上沖"},
{"zip_code":"6794138","kana_pref":"ﾋｮｳｺﾞｹﾝ","kana_city":"ﾀﾂﾉｼ","kana_address":"ﾎﾝﾀﾞﾁｮｳｼﾓｵｷ","pref":"兵庫県","city":"たつの市","address":"誉田町下沖"},
{"zip_code":"6794135","kana_pref":"ﾋｮｳｺﾞｹﾝ","kana_city":"ﾀﾂﾉｼ","kana_address":"ﾎﾝﾀﾞﾁｮｳﾀｶﾀﾞ","pref":"兵庫県","city":"たつの市","address":"誉田町高駄"},
{"zip_code":"6794130","kana_pref":"ﾋｮｳｺﾞｹﾝ","kana_city":"ﾀﾂﾉｼ","kana_address":"ﾎﾝﾀﾞﾁｮｳﾅｶﾞｻﾞﾈ","pref":"兵庫県","city":"たつの市","address":"誉田町長真"},
{"zip_code":"6794134","kana_pref":"ﾋｮｳｺﾞｹﾝ","kana_city":"ﾀﾂﾉｼ","kana_address":"ﾎﾝﾀﾞﾁｮｳﾋﾛﾔﾏ","pref":"兵庫県","city":"たつの市","address":"誉田町広山"},
{"zip_code":"6794132","kana_pref":"ﾋｮｳｺﾞｹﾝ","kana_city":"ﾀﾂﾉｼ","kana_address":"ﾎﾝﾀﾞﾁｮｳﾌｸﾀﾞ","pref":"兵庫県","city":"たつの市","address":"誉田町福田"},
{"zip_code":"6794133","kana_pref":"ﾋｮｳｺﾞｹﾝ","kana_city":"ﾀﾂﾉｼ","kana_address":"ﾎﾝﾀﾞﾁｮｳﾎﾏﾚ","pref":"兵庫県","city":"たつの市","address":"誉田町誉"},
{"zip_code":"6791100","kana_pref":"ﾋｮｳｺﾞｹﾝ","kana_city":"ﾀｶｸﾞﾝﾀｶﾁｮｳ","kana_address":"","pref":"兵庫県","city":"多可郡多可町","address":""},
{"zip_code":"6791205","kana_pref":"ﾋｮｳｺﾞｹﾝ","kana_city":"ﾀｶｸﾞﾝﾀｶﾁｮｳ","kana_address":"ｶﾐｸｲｻﾘｶﾞﾐ","pref":"兵庫県","city":"多可郡多可町","address":"加美区岩座神"},
{"zip_code":"6791327","kana_pref":"ﾋｮｳｺﾞｹﾝ","kana_city":"ﾀｶｸﾞﾝﾀｶﾁｮｳ","kana_address":"ｶﾐｸｲﾁﾊﾗ","pref":"兵庫県","city":"多可郡多可町","address":"加美区市原"},
{"zip_code":"6791332","kana_pref":"ﾋｮｳｺﾞｹﾝ","kana_city":"ﾀｶｸﾞﾝﾀｶﾁｮｳ","kana_address":"ｶﾐｸｵｵﾌﾞｸﾛ","pref":"兵庫県","city":"多可郡多可町","address":"加美区大袋"},
{"zip_code":"6791215","kana_pref":"ﾋｮｳｺﾞｹﾝ","kana_city":"ﾀｶｸﾞﾝﾀｶﾁｮｳ","kana_address":"ｶﾐｸｵｸｱﾗﾀ","pref":"兵庫県","city":"多可郡多可町","address":"加美区奥荒田"},
{"zip_code":"6791337","kana_pref":"ﾋｮｳｺﾞｹﾝ","kana_city":"ﾀｶｸﾞﾝﾀｶﾁｮｳ","kana_address":"ｶﾐｸｵｸﾄﾖﾍﾞ","pref":"兵庫県","city":"多可郡多可町","address":"加美区奥豊部"},
{"zip_code":"6791335","kana_pref":"ﾋｮｳｺﾞｹﾝ","kana_city":"ﾀｶｸﾞﾝﾀｶﾁｮｳ","kana_address":"ｶﾐｸｶﾄﾞﾑﾗ","pref":"兵庫県","city":"多可郡多可町","address":"加美区門村"},
{"zip_code":"6791338","kana_pref":"ﾋｮｳｺﾞｹﾝ","kana_city":"ﾀｶｸﾞﾝﾀｶﾁｮｳ","kana_address":"ｶﾐｸｶﾝﾉﾝｼﾞ","pref":"兵庫県","city":"多可郡多可町","address":"加美区観音寺"},
{"zip_code":"6791323","kana_pref":"ﾋｮｳｺﾞｹﾝ","kana_city":"ﾀｶｸﾞﾝﾀｶﾁｮｳ","kana_address":"ｶﾐｸｷﾖﾐｽﾞ","pref":"兵庫県","city":"多可郡多可町","address":"加美区清水"},
{"zip_code":"6791202","kana_pref":"ﾋｮｳｺﾞｹﾝ","kana_city":"ﾀｶｸﾞﾝﾀｶﾁｮｳ","kana_address":"ｶﾐｸｸﾏﾉﾍﾞ","pref":"兵庫県","city":"多可郡多可町","address":"加美区熊野部"},
{"zip_code":"6791336","kana_pref":"ﾋｮｳｺﾞｹﾝ","kana_city":"ﾀｶｸﾞﾝﾀｶﾁｮｳ","kana_address":"ｶﾐｸｽｷﾞﾊﾗ","pref":"兵庫県","city":"多可郡多可町","address":"加美区杉原"},
{"zip_code":"6791203","kana_pref":"ﾋｮｳｺﾞｹﾝ","kana_city":"ﾀｶｸﾞﾝﾀｶﾁｮｳ","kana_address":"ｶﾐｸﾀﾀﾞ","pref":"兵庫県","city":"多可郡多可町","address":"加美区多田"},
{"zip_code":"6791204","kana_pref":"ﾋｮｳｺﾞｹﾝ","kana_city":"ﾀｶｸﾞﾝﾀｶﾁｮｳ","kana_address":"ｶﾐｸﾀﾅｶﾏ","pref":"兵庫県","city":"多可郡多可町","address":"加美区棚釜"},
{"zip_code":"6791331","kana_pref":"ﾋｮｳｺﾞｹﾝ","kana_city":"ﾀｶｸﾞﾝﾀｶﾁｮｳ","kana_address":"ｶﾐｸﾀﾝｼﾞ","pref":"兵庫県","city":"多可郡多可町","address":"加美区丹治"},
{"zip_code":"6791211","kana_pref":"ﾋｮｳｺﾞｹﾝ","kana_city":"ﾀｶｸﾞﾝﾀｶﾁｮｳ","kana_address":"ｶﾐｸﾃﾗｳﾁ","pref":"兵庫県","city":"多可郡多可町","address":"加美区寺内"},
{"zip_code":"6791324","kana_pref":"ﾋｮｳｺﾞｹﾝ","kana_city":"ﾀｶｸﾞﾝﾀｶﾁｮｳ","kana_address":"ｶﾐｸﾄﾄﾞﾛｷ","pref":"兵庫県","city":"多可郡多可町","address":"加美区轟"},
{"zip_code":"6791201","kana_pref":"ﾋｮｳｺﾞｹﾝ","kana_city":"ﾀｶｸﾞﾝﾀｶﾁｮｳ","kana_address":"ｶﾐｸﾄﾖﾍﾞ","pref":"兵庫県","city":"多可郡多可町","address":"加美区豊部"},
{"zip_code":"6791322","kana_pref":"ﾋｮｳｺﾞｹﾝ","kana_city":"ﾀｶｸﾞﾝﾀｶﾁｮｳ","kana_address":"ｶﾐｸﾄﾘﾏ","pref":"兵庫県","city":"多可郡多可町","address":"加美区鳥羽"},
{"zip_code":"6791326","kana_pref":"ﾋｮｳｺﾞｹﾝ","kana_city":"ﾀｶｸﾞﾝﾀｶﾁｮｳ","kana_address":"ｶﾐｸﾆｼﾔﾏ","pref":"兵庫県","city":"多可郡多可町","address":"加美区西山"},
{"zip_code":"6791212","kana_pref":"ﾋｮｳｺﾞｹﾝ","kana_city":"ﾀｶｸﾞﾝﾀｶﾁｮｳ","kana_address":"ｶﾐｸﾆｼﾜｷ","pref":"兵庫県","city":"多可郡多可町","address":"加美区西脇"},
{"zip_code":"6791334","kana_pref":"ﾋｮｳｺﾞｹﾝ","kana_city":"ﾀｶｸﾞﾝﾀｶﾁｮｳ","kana_address":"ｶﾐｸﾊｾｶﾞｲ","pref":"兵庫県","city":"多可郡多可町","address":"加美区箸荷"},
{"zip_code":"6791214","kana_pref":"ﾋｮｳｺﾞｹﾝ","kana_city":"ﾀｶｸﾞﾝﾀｶﾁｮｳ","kana_address":"ｶﾐｸﾏﾄﾊﾞ","pref":"兵庫県","city":"多可郡多可町","address":"加美区的場"},
{"zip_code":"6791333","kana_pref":"ﾋｮｳｺﾞｹﾝ","kana_city":"ﾀｶｸﾞﾝﾀｶﾁｮｳ","kana_address":"ｶﾐｸﾐﾀﾞﾆ","pref":"兵庫県","city":"多可郡多可町","address":"加美区三谷"},
{"zip_code":"6791325","kana_pref":"ﾋｮｳｺﾞｹﾝ","kana_city":"ﾀｶｸﾞﾝﾀｶﾁｮｳ","kana_address":"ｶﾐｸﾔﾏｸﾞﾁ","pref":"兵庫県","city":"多可郡多可町","address":"加美区山口"},
{"zip_code":"6791213","kana_pref":"ﾋｮｳｺﾞｹﾝ","kana_city":"ﾀｶｸﾞﾝﾀｶﾁｮｳ","kana_address":"ｶﾐｸﾔﾏﾉﾍﾞ","pref":"兵庫県","city":"多可郡多可町","address":"加美区山野部"},
{"zip_code":"6791321","kana_pref":"ﾋｮｳｺﾞｹﾝ","kana_city":"ﾀｶｸﾞﾝﾀｶﾁｮｳ","kana_address":"ｶﾐｸﾔﾏﾖﾘｶﾐ","pref":"兵庫県","city":"多可郡多可町","address":"加美区山寄上"},
{"zip_code":"6791135","kana_pref":"ﾋｮｳｺﾞｹﾝ","kana_city":"ﾀｶｸﾞﾝﾀｶﾁｮｳ","kana_address":"ﾅｶｸｱｻｶ","pref":"兵庫県","city":"多可郡多可町","address":"中区安坂"},
{"zip_code":"6791115","kana_pref":"ﾋｮｳｺﾞｹﾝ","kana_city":"ﾀｶｸﾞﾝﾀｶﾁｮｳ","kana_address":"ﾅｶｸｱﾏﾀﾞ","pref":"兵庫県","city":"多可郡多可町","address":"中区天田"},
{"zip_code":"6791102","kana_pref":"ﾋｮｳｺﾞｹﾝ","kana_city":"ﾀｶｸﾞﾝﾀｶﾁｮｳ","kana_address":"ﾅｶｸｱﾗﾀ","pref":"兵庫県","city":"多可郡多可町","address":"中区安楽田"},
{"zip_code":"6791107","kana_pref":"ﾋｮｳｺﾞｹﾝ","kana_city":"ﾀｶｸﾞﾝﾀｶﾁｮｳ","kana_address":"ﾅｶｸｵｸﾅｶ","pref":"兵庫県","city":"多可郡多可町","address":"中区奥中"},
{"zip_code":"6791111","kana_pref":"ﾋｮｳｺﾞｹﾝ","kana_city":"ﾀｶｸﾞﾝﾀｶﾁｮｳ","kana_address":"ﾅｶｸｶｼﾞﾔ","pref":"兵庫県","city":"多可郡多可町","address":"中区鍛冶屋"},
{"zip_code":"6791114","kana_pref":"ﾋｮｳｺﾞｹﾝ","kana_city":"ﾀｶｸﾞﾝﾀｶﾁｮｳ","kana_address":"ﾅｶｸｷｼｶﾐ","pref":"兵庫県","city":"多可郡多可町","address":"中区岸上"},
{"zip_code":"6791133","kana_pref":"ﾋｮｳｺﾞｹﾝ","kana_city":"ﾀｶｸﾞﾝﾀｶﾁｮｳ","kana_address":"ﾅｶｸｺｳｼﾞﾔ","pref":"兵庫県","city":"多可郡多可町","address":"中区糀屋"},
{"zip_code":"6791132","kana_pref":"ﾋｮｳｺﾞｹﾝ","kana_city":"ﾀｶｸﾞﾝﾀｶﾁｮｳ","kana_address":"ﾅｶｸｻｶﾓﾄ","pref":"兵庫県","city":"多可郡多可町","address":"中区坂本"},
{"zip_code":"6791134","kana_pref":"ﾋｮｳｺﾞｹﾝ","kana_city":"ﾀｶｸﾞﾝﾀｶﾁｮｳ","kana_address":"ﾅｶｸｼｹﾞﾘ","pref":"兵庫県","city":"多可郡多可町","address":"中区茂利"},
{"zip_code":"6791131","kana_pref":"ﾋｮｳｺﾞｹﾝ","kana_city":"ﾀｶｸﾞﾝﾀｶﾁｮｳ","kana_address":"ﾅｶｸｿｶﾞｲ","pref":"兵庫県","city":"多可郡多可町","address":"中区曽我井"},
{"zip_code":"6791106","kana_pref":"ﾋｮｳｺﾞｹﾝ","kana_city":"ﾀｶｸﾞﾝﾀｶﾁｮｳ","kana_address":"ﾅｶｸﾀｶｷﾞｼ","pref":"兵庫県","city":"多可郡多可町","address":"中区高岸"},
{"zip_code":"6791104","kana_pref":"ﾋｮｳｺﾞｹﾝ","kana_city":"ﾀｶｸﾞﾝﾀｶﾁｮｳ","kana_address":"ﾅｶｸﾀﾉｸﾁ","pref":"兵庫県","city":"多可郡多可町","address":"中区田野口"},
{"zip_code":"6791107","kana_pref":"ﾋｮｳｺﾞｹﾝ","kana_city":"ﾀｶｸﾞﾝﾀｶﾁｮｳ","kana_address":"ﾅｶｸﾄｸﾊﾞﾀ","pref":"兵庫県","city":"多可郡多可町","address":"中区徳畑"},
{"zip_code":"6791113","kana_pref":"ﾋｮｳｺﾞｹﾝ","kana_city":"ﾀｶｸﾞﾝﾀｶﾁｮｳ","kana_address":"ﾅｶｸﾅｶﾑﾗﾏﾁ","pref":"兵庫県","city":"多可郡多可町","address":"中区中村町"},
{"zip_code":"6791122","kana_pref":"ﾋｮｳｺﾞｹﾝ","kana_city":"ﾀｶｸﾞﾝﾀｶﾁｮｳ","kana_address":"ﾅｶｸﾅｶﾔｽﾀﾞ","pref":"兵庫県","city":"多可郡多可町","address":"中区中安田"},
{"zip_code":"6791123","kana_pref":"ﾋｮｳｺﾞｹﾝ","kana_city":"ﾀｶｸﾞﾝﾀｶﾁｮｳ","kana_address":"ﾅｶｸﾆｼﾔｽﾀﾞ","pref":"兵庫県","city":"多可郡多可町","address":"中区西安田"},
{"zip_code":"6791121","kana_pref":"ﾋｮｳｺﾞｹﾝ","kana_city":"ﾀｶｸﾞﾝﾀｶﾁｮｳ","kana_address":"ﾅｶｸﾋｶﾞｼﾔｽﾀﾞ","pref":"兵庫県","city":"多可郡多可町","address":"中区東安田"},
{"zip_code":"6791105","kana_pref":"ﾋｮｳｺﾞｹﾝ","kana_city":"ﾀｶｸﾞﾝﾀｶﾁｮｳ","kana_address":"ﾅｶｸﾋｶﾞｼﾔﾏ","pref":"兵庫県","city":"多可郡多可町","address":"中区東山"},
{"zip_code":"6791103","kana_pref":"ﾋｮｳｺﾞｹﾝ","kana_city":"ﾀｶｸﾞﾝﾀｶﾁｮｳ","kana_address":"ﾅｶｸﾏｷﾉ","pref":"兵庫県","city":"多可郡多可町","address":"中区牧野"},
{"zip_code":"6791112","kana_pref":"ﾋｮｳｺﾞｹﾝ","kana_city":"ﾀｶｸﾞﾝﾀｶﾁｮｳ","kana_address":"ﾅｶｸﾏｺｳ","pref":"兵庫県","city":"多可郡多可町","address":"中区間子"},
{"zip_code":"6791124","kana_pref":"ﾋｮｳｺﾞｹﾝ","kana_city":"ﾀｶｸﾞﾝﾀｶﾁｮｳ","kana_address":"ﾅｶｸﾓﾘﾓﾄ","pref":"兵庫県","city":"多可郡多可町","address":"中区森本"},
{"zip_code":"6791101","kana_pref":"ﾋｮｳｺﾞｹﾝ","kana_city":"ﾀｶｸﾞﾝﾀｶﾁｮｳ","kana_address":"ﾅｶｸﾓﾝｾﾞﾝ","pref":"兵庫県","city":"多可郡多可町","address":"中区門前"},
{"zip_code":"6792300","kana_pref":"ﾋｮｳｺﾞｹﾝ","kana_city":"ｶﾝｻﾞｷｸﾞﾝｲﾁｶﾜﾁｮｳ","kana_address":"","pref":"兵庫県","city":"神崎郡市川町","address":""},
{"zip_code":"6792317","kana_pref":"ﾋｮｳｺﾞｹﾝ","kana_city":"ｶﾝｻﾞｷｸﾞﾝｲﾁｶﾜﾁｮｳ","kana_address":"ｱｻﾉ","pref":"兵庫県","city":"神崎郡市川町","address":"浅野"},
{"zip_code":"6792323","kana_pref":"ﾋｮｳｺﾞｹﾝ","kana_city":"ｶﾝｻﾞｷｸﾞﾝｲﾁｶﾜﾁｮｳ","kana_address":"ｱﾏｼﾞ","pref":"兵庫県","city":"神崎郡市川町","address":"甘地"},
{"zip_code":"6792311","kana_pref":"ﾋｮｳｺﾞｹﾝ","kana_city":"ｶﾝｻﾞｷｸﾞﾝｲﾁｶﾜﾁｮｳ","kana_address":"ｳｴﾀﾞﾅｶ","pref":"兵庫県","city":"神崎郡市川町","address":"上田中"},
{"zip_code":"6792325","kana_pref":"ﾋｮｳｺﾞｹﾝ","kana_city":"ｶﾝｻﾞｷｸﾞﾝｲﾁｶﾜﾁｮｳ","kana_address":"ｵｸ","pref":"兵庫県","city":"神崎郡市川町","address":"奥"},
{"zip_code":"6792318","kana_pref":"ﾋｮｳｺﾞｹﾝ","kana_city":"ｶﾝｻﾞｷｸﾞﾝｲﾁｶﾜﾁｮｳ","kana_address":"ｵﾊﾞﾀ","pref":"兵庫県","city":"神崎郡市川町","address":"小畑"},
{"zip_code":"6792301","kana_pref":"ﾋｮｳｺﾞｹﾝ","kana_city":"ｶﾝｻﾞｷｸﾞﾝｲﾁｶﾜﾁｮｳ","kana_address":"ｶﾐｳｼｵ","pref":"兵庫県","city":"神崎郡市川町","address":"上牛尾"},
{"zip_code":"6792303","kana_pref":"ﾋｮｳｺﾞｹﾝ","kana_city":"ｶﾝｻﾞｷｸﾞﾝｲﾁｶﾜﾁｮｳ","kana_address":"ｶﾐｾｶ","pref":"兵庫県","city":"神崎郡市川町","address":"上瀬加"},
{"zip_code":"6792333","kana_pref":"ﾋｮｳｺﾞｹﾝ","kana_city":"ｶﾝｻﾞｷｸﾞﾝｲﾁｶﾜﾁｮｳ","kana_address":"ｶﾝｻﾞｷ","pref":"兵庫県","city":"神崎郡市川町","address":"神崎"},
{"zip_code":"6792314","kana_pref":"ﾋｮｳｺﾞｹﾝ","kana_city":"ｶﾝｻﾞｷｸﾞﾝｲﾁｶﾜﾁｮｳ","kana_address":"ｷﾀﾀﾅｶ","pref":"兵庫県","city":"神崎郡市川町","address":"北田中"},
{"zip_code":"6792322","kana_pref":"ﾋｮｳｺﾞｹﾝ","kana_city":"ｶﾝｻﾞｷｸﾞﾝｲﾁｶﾜﾁｮｳ","kana_address":"ｺﾀﾞﾆ","pref":"兵庫県","city":"神崎郡市川町","address":"小谷"},
{"zip_code":"6792331","kana_pref":"ﾋｮｳｺﾞｹﾝ","kana_city":"ｶﾝｻﾞｷｸﾞﾝｲﾁｶﾜﾁｮｳ","kana_address":"ｺﾑﾛ","pref":"兵庫県","city":"神崎郡市川町","address":"小室"},
{"zip_code":"6792324","kana_pref":"ﾋｮｳｺﾞｹﾝ","kana_city":"ｶﾝｻﾞｷｸﾞﾝｲﾁｶﾜﾁｮｳ","kana_address":"ｻｶﾄﾞ","pref":"兵庫県","city":"神崎郡市川町","address":"坂戸"},
{"zip_code":"6792336","kana_pref":"ﾋｮｳｺﾞｹﾝ","kana_city":"ｶﾝｻﾞｷｸﾞﾝｲﾁｶﾜﾁｮｳ","kana_address":"ｻﾜ","pref":"兵庫県","city":"神崎郡市川町","address":"沢"},
{"zip_code":"6792302","kana_pref":"ﾋｮｳｺﾞｹﾝ","kana_city":"ｶﾝｻﾞｷｸﾞﾝｲﾁｶﾜﾁｮｳ","kana_address":"ｼﾓｳｼｵ","pref":"兵庫県","city":"神崎郡市川町","address":"下牛尾"},
{"zip_code":"6792304","kana_pref":"ﾋｮｳｺﾞｹﾝ","kana_city":"ｶﾝｻﾞｷｸﾞﾝｲﾁｶﾜﾁｮｳ","kana_address":"ｼﾓｾｶ","pref":"兵庫県","city":"神崎郡市川町","address":"下瀬加"},
{"zip_code":"6792332","kana_pref":"ﾋｮｳｺﾞｹﾝ","kana_city":"ｶﾝｻﾞｷｸﾞﾝｲﾁｶﾜﾁｮｳ","kana_address":"ﾀﾅｶ","pref":"兵庫県","city":"神崎郡市川町","address":"田中"},
{"zip_code":"6792326","kana_pref":"ﾋｮｳｺﾞｹﾝ","kana_city":"ｶﾝｻﾞｷｸﾞﾝｲﾁｶﾜﾁｮｳ","kana_address":"ﾀﾆ","pref":"兵庫県","city":"神崎郡市川町","address":"谷"},
{"zip_code":"6792327","kana_pref":"ﾋｮｳｺﾞｹﾝ","kana_city":"ｶﾝｻﾞｷｸﾞﾝｲﾁｶﾜﾁｮｳ","kana_address":"ﾁｶﾗ","pref":"兵庫県","city":"神崎郡市川町","address":"近平"},
{"zip_code":"6792321","kana_pref":"ﾋｮｳｺﾞｹﾝ","kana_city":"ｶﾝｻﾞｷｸﾞﾝｲﾁｶﾜﾁｮｳ","kana_address":"ﾁﾊﾗ","pref":"兵庫県","city":"神崎郡市川町","address":"千原"},
{"zip_code":"6792334","kana_pref":"ﾋｮｳｺﾞｹﾝ","kana_city":"ｶﾝｻﾞｷｸﾞﾝｲﾁｶﾜﾁｮｳ","kana_address":"ﾂﾙｲ","pref":"兵庫県","city":"神崎郡市川町","address":"鶴居"},
{"zip_code":"6792315","kana_pref":"ﾋｮｳｺﾞｹﾝ","kana_city":"ｶﾝｻﾞｷｸﾞﾝｲﾁｶﾜﾁｮｳ","kana_address":"ﾆｼｶﾜﾅﾍﾞ","pref":"兵庫県","city":"神崎郡市川町","address":"西川辺"},
{"zip_code":"6792313","kana_pref":"ﾋｮｳｺﾞｹﾝ","kana_city":"ｶﾝｻﾞｷｸﾞﾝｲﾁｶﾜﾁｮｳ","kana_address":"ﾆｼﾀﾅｶ","pref":"兵庫県","city":"神崎郡市川町","address":"西田中"},
{"zip_code":"6792316","kana_pref":"ﾋｮｳｺﾞｹﾝ","kana_city":"ｶﾝｻﾞｷｸﾞﾝｲﾁｶﾜﾁｮｳ","kana_address":"ﾋｶﾞｼｶﾜﾅﾍﾞ","pref":"兵庫県","city":"神崎郡市川町","address":"東川辺"},
{"zip_code":"6792312","kana_pref":"ﾋｮｳｺﾞｹﾝ","kana_city":"ｶﾝｻﾞｷｸﾞﾝｲﾁｶﾜﾁｮｳ","kana_address":"ﾎｷ","pref":"兵庫県","city":"神崎郡市川町","address":"保喜"},
{"zip_code":"6792335","kana_pref":"ﾋｮｳｺﾞｹﾝ","kana_city":"ｶﾝｻﾞｷｸﾞﾝｲﾁｶﾜﾁｮｳ","kana_address":"ﾐｻ","pref":"兵庫県","city":"神崎郡市川町","address":"美佐"},
{"zip_code":"6792337","kana_pref":"ﾋｮｳｺﾞｹﾝ","kana_city":"ｶﾝｻﾞｷｸﾞﾝｲﾁｶﾜﾁｮｳ","kana_address":"ﾔｶﾀ","pref":"兵庫県","city":"神崎郡市川町","address":"屋形"},
{"zip_code":"6792200","kana_pref":"ﾋｮｳｺﾞｹﾝ","kana_city":"ｶﾝｻﾞｷｸﾞﾝﾌｸｻｷﾁｮｳ","kana_address":"","pref":"兵庫県","city":"神崎郡福崎町","address":""},
{"zip_code":"6792213","kana_pref":"ﾋｮｳｺﾞｹﾝ","kana_city":"ｶﾝｻﾞｷｸﾞﾝﾌｸｻｷﾁｮｳ","kana_address":"ｳﾏﾀﾞ","pref":"兵庫県","city":"神崎郡福崎町","address":"馬田"},
{"zip_code":"6792201","kana_pref":"ﾋｮｳｺﾞｹﾝ","kana_city":"ｶﾝｻﾞｷｸﾞﾝﾌｸｻｷﾁｮｳ","kana_address":"ｵｵﾇｷ","pref":"兵庫県","city":"神崎郡福崎町","address":"大貫"},
{"zip_code":"6792215","kana_pref":"ﾋｮｳｺﾞｹﾝ","kana_city":"ｶﾝｻﾞｷｸﾞﾝﾌｸｻｷﾁｮｳ","kana_address":"ｻｲｼﾞ","pref":"兵庫県","city":"神崎郡福崎町","address":"西治"},
{"zip_code":"6792217","kana_pref":"ﾋｮｳｺﾞｹﾝ","kana_city":"ｶﾝｻﾞｷｸﾞﾝﾌｸｻｷﾁｮｳ","kana_address":"ﾀｶｵｶ","pref":"兵庫県","city":"神崎郡福崎町","address":"高岡"},
{"zip_code":"6792216","kana_pref":"ﾋｮｳｺﾞｹﾝ","kana_city":"ｶﾝｻﾞｷｸﾞﾝﾌｸｻｷﾁｮｳ","kana_address":"ﾀｶﾊｼ","pref":"兵庫県","city":"神崎郡福崎町","address":"高橋"},
{"zip_code":"6792218","kana_pref":"ﾋｮｳｺﾞｹﾝ","kana_city":"ｶﾝｻﾞｷｸﾞﾝﾌｸｻｷﾁｮｳ","kana_address":"ﾀｸﾞﾁ","pref":"兵庫県","city":"神崎郡福崎町","address":"田口"},
{"zip_code":"6792204","kana_pref":"ﾋｮｳｺﾞｹﾝ","kana_city":"ｶﾝｻﾞｷｸﾞﾝﾌｸｻｷﾁｮｳ","kana_address":"ﾆｼﾀﾜﾗ","pref":"兵庫県","city":"神崎郡福崎町","address":"西田原"},
{"zip_code":"6792205","kana_pref":"ﾋｮｳｺﾞｹﾝ","kana_city":"ｶﾝｻﾞｷｸﾞﾝﾌｸｻｷﾁｮｳ","kana_address":"ﾋｶﾞｼﾀﾜﾗ","pref":"兵庫県","city":"神崎郡福崎町","address":"東田原"},
{"zip_code":"6792214","kana_pref":"ﾋｮｳｺﾞｹﾝ","kana_city":"ｶﾝｻﾞｷｸﾞﾝﾌｸｻｷﾁｮｳ","kana_address":"ﾌｸｻｷｼﾝ","pref":"兵庫県","city":"神崎郡福崎町","address":"福崎新"},
{"zip_code":"6792212","kana_pref":"ﾋｮｳｺﾞｹﾝ","kana_city":"ｶﾝｻﾞｷｸﾞﾝﾌｸｻｷﾁｮｳ","kana_address":"ﾌｸﾀﾞ","pref":"兵庫県","city":"神崎郡福崎町","address":"福田"},
{"zip_code":"6792203","kana_pref":"ﾋｮｳｺﾞｹﾝ","kana_city":"ｶﾝｻﾞｷｸﾞﾝﾌｸｻｷﾁｮｳ","kana_address":"ﾐﾅﾐﾀﾜﾗ","pref":"兵庫県","city":"神崎郡福崎町","address":"南田原"},
{"zip_code":"6792202","kana_pref":"ﾋｮｳｺﾞｹﾝ","kana_city":"ｶﾝｻﾞｷｸﾞﾝﾌｸｻｷﾁｮｳ","kana_address":"ﾔﾁｸｻ","pref":"兵庫県","city":"神崎郡福崎町","address":"八千種"},
{"zip_code":"6792211","kana_pref":"ﾋｮｳｺﾞｹﾝ","kana_city":"ｶﾝｻﾞｷｸﾞﾝﾌｸｻｷﾁｮｳ","kana_address":"ﾔﾏｻｷ","pref":"兵庫県","city":"神崎郡福崎町","address":"山崎"},
{"zip_code":"6793100","kana_pref":"ﾋｮｳｺﾞｹﾝ","kana_city":"ｶﾝｻﾞｷｸﾞﾝｶﾐｶﾜﾁｮｳ","kana_address":"","pref":"兵庫県","city":"神崎郡神河町","address":""},
{"zip_code":"6793121","kana_pref":"ﾋｮｳｺﾞｹﾝ","kana_city":"ｶﾝｻﾞｷｸﾞﾝｶﾐｶﾜﾁｮｳ","kana_address":"ｱｹﾞｲﾜ","pref":"兵庫県","city":"神崎郡神河町","address":"上岩"},
{"zip_code":"6792414","kana_pref":"ﾋｮｳｺﾞｹﾝ","kana_city":"ｶﾝｻﾞｷｸﾞﾝｶﾐｶﾜﾁｮｳ","kana_address":"ｱﾜｶﾞﾏﾁ","pref":"兵庫県","city":"神崎郡神河町","address":"粟賀町"},
{"zip_code":"6792431","kana_pref":"ﾋｮｳｺﾞｹﾝ","kana_city":"ｶﾝｻﾞｷｸﾞﾝｶﾐｶﾜﾁｮｳ","kana_address":"ｲｻﾞｻ","pref":"兵庫県","city":"神崎郡神河町","address":"猪篠"},
{"zip_code":"6792405","kana_pref":"ﾋｮｳｺﾞｹﾝ","kana_city":"ｶﾝｻﾞｷｸﾞﾝｶﾐｶﾜﾁｮｳ","kana_address":"ｲﾜﾔ","pref":"兵庫県","city":"神崎郡神河町","address":"岩屋"},
{"zip_code":"6793111","kana_pref":"ﾋｮｳｺﾞｹﾝ","kana_city":"ｶﾝｻﾞｷｸﾞﾝｶﾐｶﾜﾁｮｳ","kana_address":"ｵｵｶﾜ","pref":"兵庫県","city":"神崎郡神河町","address":"大河"},
{"zip_code":"6792403","kana_pref":"ﾋｮｳｺﾞｹﾝ","kana_city":"ｶﾝｻﾞｷｸﾞﾝｶﾐｶﾜﾁｮｳ","kana_address":"ｵｵﾊﾀ","pref":"兵庫県","city":"神崎郡神河町","address":"大畑"},
{"zip_code":"6792432","kana_pref":"ﾋｮｳｺﾞｹﾝ","kana_city":"ｶﾝｻﾞｷｸﾞﾝｶﾐｶﾜﾁｮｳ","kana_address":"ｵｵﾔﾏ","pref":"兵庫県","city":"神崎郡神河町","address":"大山"},
{"zip_code":"6792404","kana_pref":"ﾋｮｳｺﾞｹﾝ","kana_city":"ｶﾝｻﾞｷｸﾞﾝｶﾐｶﾜﾁｮｳ","kana_address":"ｵﾁ","pref":"兵庫県","city":"神崎郡神河町","address":"越知"},
{"zip_code":"6792422","kana_pref":"ﾋｮｳｺﾞｹﾝ","kana_city":"ｶﾝｻﾞｷｸﾞﾝｶﾐｶﾜﾁｮｳ","kana_address":"ｶｲﾉ","pref":"兵庫県","city":"神崎郡神河町","address":"貝野"},
{"zip_code":"6793112","kana_pref":"ﾋｮｳｺﾞｹﾝ","kana_city":"ｶﾝｻﾞｷｸﾞﾝｶﾐｶﾜﾁｮｳ","kana_address":"ｶｼﾞ","pref":"兵庫県","city":"神崎郡神河町","address":"鍛治"},
{"zip_code":"6792424","kana_pref":"ﾋｮｳｺﾞｹﾝ","kana_city":"ｶﾝｻﾞｷｸﾞﾝｶﾐｶﾜﾁｮｳ","kana_address":"ｶｼｵ","pref":"兵庫県","city":"神崎郡神河町","address":"柏尾"},
{"zip_code":"6792421","kana_pref":"ﾋｮｳｺﾞｹﾝ","kana_city":"ｶﾝｻﾞｷｸﾞﾝｶﾐｶﾜﾁｮｳ","kana_address":"ｶﾉｳ","pref":"兵庫県","city":"神崎郡神河町","address":"加納"},
{"zip_code":"6793125","kana_pref":"ﾋｮｳｺﾞｹﾝ","kana_city":"ｶﾝｻﾞｷｸﾞﾝｶﾐｶﾜﾁｮｳ","kana_address":"ｶﾐｵﾀﾞ","pref":"兵庫県","city":"神崎郡神河町","address":"上小田"},
{"zip_code":"6793104","kana_pref":"ﾋｮｳｺﾞｹﾝ","kana_city":"ｶﾝｻﾞｷｸﾞﾝｶﾐｶﾜﾁｮｳ","kana_address":"ｶﾜｶﾐ","pref":"兵庫県","city":"神崎郡神河町","address":"川上"},
{"zip_code":"6793102","kana_pref":"ﾋｮｳｺﾞｹﾝ","kana_city":"ｶﾝｻﾞｷｸﾞﾝｶﾐｶﾜﾁｮｳ","kana_address":"ｸﾘ","pref":"兵庫県","city":"神崎郡神河町","address":"栗"},
{"zip_code":"6792402","kana_pref":"ﾋｮｳｺﾞｹﾝ","kana_city":"ｶﾝｻﾞｷｸﾞﾝｶﾐｶﾜﾁｮｳ","kana_address":"ｻｸﾊﾀ","pref":"兵庫県","city":"神崎郡神河町","address":"作畑"},
{"zip_code":"6792401","kana_pref":"ﾋｮｳｺﾞｹﾝ","kana_city":"ｶﾝｻﾞｷｸﾞﾝｶﾐｶﾜﾁｮｳ","kana_address":"ｼﾝﾃﾞﾝ","pref":"兵庫県","city":"神崎郡神河町","address":"新田"},
{"zip_code":"6792433","kana_pref":"ﾋｮｳｺﾞｹﾝ","kana_city":"ｶﾝｻﾞｷｸﾞﾝｶﾐｶﾜﾁｮｳ","kana_address":"ｽｷﾞ","pref":"兵庫県","city":"神崎郡神河町","address":"杉"},
{"zip_code":"6793122","kana_pref":"ﾋｮｳｺﾞｹﾝ","kana_city":"ｶﾝｻﾞｷｸﾞﾝｶﾐｶﾜﾁｮｳ","kana_address":"ﾀｶﾁｮｳﾀﾞ","pref":"兵庫県","city":"神崎郡神河町","address":"高朝田"},
{"zip_code":"6792423","kana_pref":"ﾋｮｳｺﾞｹﾝ","kana_city":"ｶﾝｻﾞｷｸﾞﾝｶﾐｶﾜﾁｮｳ","kana_address":"ﾃﾗﾉ","pref":"兵庫県","city":"神崎郡神河町","address":"寺野"},
{"zip_code":"6793116","kana_pref":"ﾋｮｳｺﾞｹﾝ","kana_city":"ｶﾝｻﾞｷｸﾞﾝｶﾐｶﾜﾁｮｳ","kana_address":"ﾃﾗﾏｴ","pref":"兵庫県","city":"神崎郡神河町","address":"寺前"},
{"zip_code":"6792413","kana_pref":"ﾋｮｳｺﾞｹﾝ","kana_city":"ｶﾝｻﾞｷｸﾞﾝｶﾐｶﾜﾁｮｳ","kana_address":"ﾅｶﾑﾗ","pref":"兵庫県","city":"神崎郡神河町","address":"中村"},
{"zip_code":"6793114","kana_pref":"ﾋｮｳｺﾞｹﾝ","kana_city":"ｶﾝｻﾞｷｸﾞﾝｶﾐｶﾜﾁｮｳ","kana_address":"ﾆｲﾉ","pref":"兵庫県","city":"神崎郡神河町","address":"新野"},
{"zip_code":"6793113","kana_pref":"ﾋｮｳｺﾞｹﾝ","kana_city":"ｶﾝｻﾞｷｸﾞﾝｶﾐｶﾜﾁｮｳ","kana_address":"ﾉﾑﾗ","pref":"兵庫県","city":"神崎郡神河町","address":"野村"},
{"zip_code":"6793103","kana_pref":"ﾋｮｳｺﾞｹﾝ","kana_city":"ｶﾝｻﾞｷｸﾞﾝｶﾐｶﾜﾁｮｳ","kana_address":"ﾊｾ","pref":"兵庫県","city":"神崎郡神河町","address":"長谷"},
{"zip_code":"6793115","kana_pref":"ﾋｮｳｺﾞｹﾝ","kana_city":"ｶﾝｻﾞｷｸﾞﾝｶﾐｶﾜﾁｮｳ","kana_address":"ﾋｴ","pref":"兵庫県","city":"神崎郡神河町","address":"比延"},
{"zip_code":"6792425","kana_pref":"ﾋｮｳｺﾞｹﾝ","kana_city":"ｶﾝｻﾞｷｸﾞﾝｶﾐｶﾜﾁｮｳ","kana_address":"ﾋｶﾞｼｶｼｵ","pref":"兵庫県","city":"神崎郡神河町","address":"東柏尾"},
{"zip_code":"6792415","kana_pref":"ﾋｮｳｺﾞｹﾝ","kana_city":"ｶﾝｻﾞｷｸﾞﾝｶﾐｶﾜﾁｮｳ","kana_address":"ﾌｸﾓﾄ","pref":"兵庫県","city":"神崎郡神河町","address":"福本"},
{"zip_code":"6793101","kana_pref":"ﾋｮｳｺﾞｹﾝ","kana_city":"ｶﾝｻﾞｷｸﾞﾝｶﾐｶﾜﾁｮｳ","kana_address":"ﾌﾁ","pref":"兵庫県","city":"神崎郡神河町","address":"渕"},
{"zip_code":"6793124","kana_pref":"ﾋｮｳｺﾞｹﾝ","kana_city":"ｶﾝｻﾞｷｸﾞﾝｶﾐｶﾜﾁｮｳ","kana_address":"ﾐﾅﾐｵﾀﾞ","pref":"兵庫県","city":"神崎郡神河町","address":"南小田"},
{"zip_code":"6793123","kana_pref":"ﾋｮｳｺﾞｹﾝ","kana_city":"ｶﾝｻﾞｷｸﾞﾝｶﾐｶﾜﾁｮｳ","kana_address":"ﾐﾔﾉ","pref":"兵庫県","city":"神崎郡神河町","address":"宮野"},
{"zip_code":"6792411","kana_pref":"ﾋｮｳｺﾞｹﾝ","kana_city":"ｶﾝｻﾞｷｸﾞﾝｶﾐｶﾜﾁｮｳ","kana_address":"ﾐﾖﾉ","pref":"兵庫県","city":"神崎郡神河町","address":"根宇野"},
{"zip_code":"6792412","kana_pref":"ﾋｮｳｺﾞｹﾝ","kana_city":"ｶﾝｻﾞｷｸﾞﾝｶﾐｶﾜﾁｮｳ","kana_address":"ﾔﾏﾀﾞ","pref":"兵庫県","city":"神崎郡神河町","address":"山田"},
{"zip_code":"6792434","kana_pref":"ﾋｮｳｺﾞｹﾝ","kana_city":"ｶﾝｻﾞｷｸﾞﾝｶﾐｶﾜﾁｮｳ","kana_address":"ﾖｼﾄﾐ","pref":"兵庫県","city":"神崎郡神河町","address":"吉冨"},
{"zip_code":"6795300","kana_pref":"ﾋｮｳｺﾞｹﾝ","kana_city":"ｻﾖｳｸﾞﾝｻﾖｳﾁｮｳ","kana_address":"","pref":"兵庫県","city":"佐用郡佐用町","address":""},
{"zip_code":"6795333","kana_pref":"ﾋｮｳｺﾞｹﾝ","kana_city":"ｻﾖｳｸﾞﾝｻﾖｳﾁｮｳ","kana_address":"ｲｵﾘ","pref":"兵庫県","city":"佐用郡佐用町","address":"庵"},
{"zip_code":"6795531","kana_pref":"ﾋｮｳｺﾞｹﾝ","kana_city":"ｻﾖｳｸﾞﾝｻﾖｳﾁｮｳ","kana_address":"ｳﾈ","pref":"兵庫県","city":"佐用郡佐用町","address":"宇根"},
{"zip_code":"6795221","kana_pref":"ﾋｮｳｺﾞｹﾝ","kana_city":"ｻﾖｳｸﾞﾝｻﾖｳﾁｮｳ","kana_address":"ｳﾙｼﾉ","pref":"兵庫県","city":"佐用郡佐用町","address":"漆野"},
{"zip_code":"6795642","kana_pref":"ﾋｮｳｺﾞｹﾝ","kana_city":"ｻﾖｳｸﾞﾝｻﾖｳﾁｮｳ","kana_address":"ｴﾝｺｳｼﾞ","pref":"兵庫県","city":"佐用郡佐用町","address":"円光寺"},
{"zip_code":"6795307","kana_pref":"ﾋｮｳｺﾞｹﾝ","kana_city":"ｻﾖｳｸﾞﾝｻﾖｳﾁｮｳ","kana_address":"ｴﾝﾉｳｼﾞ","pref":"兵庫県","city":"佐用郡佐用町","address":"円応寺"},
{"zip_code":"6795504","kana_pref":"ﾋｮｳｺﾞｹﾝ","kana_city":"ｻﾖｳｸﾞﾝｻﾖｳﾁｮｳ","kana_address":"ｵｵｶﾞｲﾁ","pref":"兵庫県","city":"佐用郡佐用町","address":"大垣内"},
{"zip_code":"6795314","kana_pref":"ﾋｮｳｺﾞｹﾝ","kana_city":"ｻﾖｳｸﾞﾝｻﾖｳﾁｮｳ","kana_address":"ｵｵｷﾀﾞﾆ","pref":"兵庫県","city":"佐用郡佐用町","address":"大木谷"},
{"zip_code":"6795146","kana_pref":"ﾋｮｳｺﾞｹﾝ","kana_city":"ｻﾖｳｸﾞﾝｻﾖｳﾁｮｳ","kana_address":"ｵｵｻｶﾞﾘ","pref":"兵庫県","city":"佐用郡佐用町","address":"大下り"},
{"zip_code":"6795654","kana_pref":"ﾋｮｳｺﾞｹﾝ","kana_city":"ｻﾖｳｸﾞﾝｻﾖｳﾁｮｳ","kana_address":"ｵｵｻﾞｹ","pref":"兵庫県","city":"佐用郡佐用町","address":"大酒"},
{"zip_code":"6795145","kana_pref":"ﾋｮｳｺﾞｹﾝ","kana_city":"ｻﾖｳｸﾞﾝｻﾖｳﾁｮｳ","kana_address":"ｵｵﾊﾀ","pref":"兵庫県","city":"佐用郡佐用町","address":"大畑"},
{"zip_code":"6795319","kana_pref":"ﾋｮｳｺﾞｹﾝ","kana_city":"ｻﾖｳｸﾞﾝｻﾖｳﾁｮｳ","kana_address":"ｵｵﾊﾞﾀｹ","pref":"兵庫県","city":"佐用郡佐用町","address":"大畠"},
{"zip_code":"6795646","kana_pref":"ﾋｮｳｺﾞｹﾝ","kana_city":"ｻﾖｳｸﾞﾝｻﾖｳﾁｮｳ","kana_address":"ｵｵﾋﾞﾔﾏ","pref":"兵庫県","city":"佐用郡佐用町","address":"大日山"},
{"zip_code":"6795345","kana_pref":"ﾋｮｳｺﾞｹﾝ","kana_city":"ｻﾖｳｸﾞﾝｻﾖｳﾁｮｳ","kana_address":"ｵｸｶﾈﾁｶ","pref":"兵庫県","city":"佐用郡佐用町","address":"奥金近"},
{"zip_code":"6795344","kana_pref":"ﾋｮｳｺﾞｹﾝ","kana_city":"ｻﾖｳｸﾞﾝｻﾖｳﾁｮｳ","kana_address":"ｵｸﾅｶﾞﾀﾆ","pref":"兵庫県","city":"佐用郡佐用町","address":"奥長谷"},
{"zip_code":"6795324","kana_pref":"ﾋｮｳｺﾞｹﾝ","kana_city":"ｻﾖｳｸﾞﾝｻﾖｳﾁｮｳ","kana_address":"ｵﾈﾐ","pref":"兵庫県","city":"佐用郡佐用町","address":"奥海"},
{"zip_code":"6795505","kana_pref":"ﾋｮｳｺﾞｹﾝ","kana_city":"ｻﾖｳｸﾞﾝｻﾖｳﾁｮｳ","kana_address":"ｶｲﾀ","pref":"兵庫県","city":"佐用郡佐用町","address":"皆田"},
{"zip_code":"6795513","kana_pref":"ﾋｮｳｺﾞｹﾝ","kana_city":"ｻﾖｳｸﾞﾝｻﾖｳﾁｮｳ","kana_address":"ｶﾅﾔ","pref":"兵庫県","city":"佐用郡佐用町","address":"金屋"},
{"zip_code":"6795644","kana_pref":"ﾋｮｳｺﾞｹﾝ","kana_city":"ｻﾖｳｸﾞﾝｻﾖｳﾁｮｳ","kana_address":"ｶﾐｱｷｻﾄ","pref":"兵庫県","city":"佐用郡佐用町","address":"上秋里"},
{"zip_code":"6795322","kana_pref":"ﾋｮｳｺﾞｹﾝ","kana_city":"ｻﾖｳｸﾞﾝｻﾖｳﾁｮｳ","kana_address":"ｶﾐｲｼｲ","pref":"兵庫県","city":"佐用郡佐用町","address":"上石井"},
{"zip_code":"6795131","kana_pref":"ﾋｮｳｺﾞｹﾝ","kana_city":"ｻﾖｳｸﾞﾝｻﾖｳﾁｮｳ","kana_address":"ｶﾐﾎﾝｺﾞｳ","pref":"兵庫県","city":"佐用郡佐用町","address":"上本郷"},
{"zip_code":"6795225","kana_pref":"ﾋｮｳｺﾞｹﾝ","kana_city":"ｻﾖｳｸﾞﾝｻﾖｳﾁｮｳ","kana_address":"ｶﾐﾐｶﾜ","pref":"兵庫県","city":"佐用郡佐用町","address":"上三河"},
{"zip_code":"6795641","kana_pref":"ﾋｮｳｺﾞｹﾝ","kana_city":"ｻﾖｳｸﾞﾝｻﾖｳﾁｮｳ","kana_address":"ｸｻﾞｷ","pref":"兵庫県","city":"佐用郡佐用町","address":"久崎"},
{"zip_code":"6795651","kana_pref":"ﾋｮｳｺﾞｹﾝ","kana_city":"ｻﾖｳｸﾞﾝｻﾖｳﾁｮｳ","kana_address":"ｸｼﾀﾞ","pref":"兵庫県","city":"佐用郡佐用町","address":"櫛田"},
{"zip_code":"6795346","kana_pref":"ﾋｮｳｺﾞｹﾝ","kana_city":"ｻﾖｳｸﾞﾝｻﾖｳﾁｮｳ","kana_address":"ｸﾁｶﾈﾁｶ","pref":"兵庫県","city":"佐用郡佐用町","address":"口金近"},
{"zip_code":"6795343","kana_pref":"ﾋｮｳｺﾞｹﾝ","kana_city":"ｻﾖｳｸﾞﾝｻﾖｳﾁｮｳ","kana_address":"ｸﾁﾅｶﾞﾀﾆ","pref":"兵庫県","city":"佐用郡佐用町","address":"口長谷"},
{"zip_code":"6795334","kana_pref":"ﾋｮｳｺﾞｹﾝ","kana_city":"ｻﾖｳｸﾞﾝｻﾖｳﾁｮｳ","kana_address":"ｸﾜﾉ","pref":"兵庫県","city":"佐用郡佐用町","address":"桑野"},
{"zip_code":"6795652","kana_pref":"ﾋｮｳｺﾞｹﾝ","kana_city":"ｻﾖｳｸﾞﾝｻﾖｳﾁｮｳ","kana_address":"ｹﾅｲ","pref":"兵庫県","city":"佐用郡佐用町","address":"家内"},
{"zip_code":"6795653","kana_pref":"ﾋｮｳｺﾞｹﾝ","kana_city":"ｻﾖｳｸﾞﾝｻﾖｳﾁｮｳ","kana_address":"ｺｱｶﾏﾂ","pref":"兵庫県","city":"佐用郡佐用町","address":"小赤松"},
{"zip_code":"6795226","kana_pref":"ﾋｮｳｺﾞｹﾝ","kana_city":"ｻﾖｳｸﾞﾝｻﾖｳﾁｮｳ","kana_address":"ｺｳｻﾞｷ","pref":"兵庫県","city":"佐用郡佐用町","address":"河崎"},
{"zip_code":"6795523","kana_pref":"ﾋｮｳｺﾞｹﾝ","kana_city":"ｻﾖｳｸﾞﾝｻﾖｳﾁｮｳ","kana_address":"ｺｳﾂﾞｷ","pref":"兵庫県","city":"佐用郡佐用町","address":"上月"},
{"zip_code":"6795148","kana_pref":"ﾋｮｳｺﾞｹﾝ","kana_city":"ｻﾖｳｸﾞﾝｻﾖｳﾁｮｳ","kana_address":"ｺｳﾄ","pref":"兵庫県","city":"佐用郡佐用町","address":"光都"},
{"zip_code":"6795535","kana_pref":"ﾋｮｳｺﾞｹﾝ","kana_city":"ｻﾖｳｸﾞﾝｻﾖｳﾁｮｳ","kana_address":"ｺﾋﾞﾔﾏ","pref":"兵庫県","city":"佐用郡佐用町","address":"小日山"},
{"zip_code":"6795204","kana_pref":"ﾋｮｳｺﾞｹﾝ","kana_city":"ｻﾖｳｸﾞﾝｻﾖｳﾁｮｳ","kana_address":"ｺﾔﾏ","pref":"兵庫県","city":"佐用郡佐用町","address":"小山"},
{"zip_code":"6795502","kana_pref":"ﾋｮｳｺﾞｹﾝ","kana_city":"ｻﾖｳｸﾞﾝｻﾖｳﾁｮｳ","kana_address":"ｻｲｶﾈ","pref":"兵庫県","city":"佐用郡佐用町","address":"才金"},
{"zip_code":"6795501","kana_pref":"ﾋｮｳｺﾞｹﾝ","kana_city":"ｻﾖｳｸﾞﾝｻﾖｳﾁｮｳ","kana_address":"ｻｸﾗﾔﾏ","pref":"兵庫県","city":"佐用郡佐用町","address":"桜山"},
{"zip_code":"6795303","kana_pref":"ﾋｮｳｺﾞｹﾝ","kana_city":"ｻﾖｳｸﾞﾝｻﾖｳﾁｮｳ","kana_address":"ｻﾈﾓﾘ","pref":"兵庫県","city":"佐用郡佐用町","address":"真盛"},
{"zip_code":"6795137","kana_pref":"ﾋｮｳｺﾞｹﾝ","kana_city":"ｻﾖｳｸﾞﾝｻﾖｳﾁｮｳ","kana_address":"ｻﾉﾑﾈ","pref":"兵庫県","city":"佐用郡佐用町","address":"真宗"},
{"zip_code":"6795301","kana_pref":"ﾋｮｳｺﾞｹﾝ","kana_city":"ｻﾖｳｸﾞﾝｻﾖｳﾁｮｳ","kana_address":"ｻﾖｳ","pref":"兵庫県","city":"佐用郡佐用町","address":"佐用"},
{"zip_code":"6795136","kana_pref":"ﾋｮｳｺﾞｹﾝ","kana_city":"ｻﾖｳｸﾞﾝｻﾖｳﾁｮｳ","kana_address":"ｼﾌﾞﾐ","pref":"兵庫県","city":"佐用郡佐用町","address":"志文"},
{"zip_code":"6795643","kana_pref":"ﾋｮｳｺﾞｹﾝ","kana_city":"ｻﾖｳｸﾞﾝｻﾖｳﾁｮｳ","kana_address":"ｼﾓｱｷｻﾄ","pref":"兵庫県","city":"佐用郡佐用町","address":"下秋里"},
{"zip_code":"6795321","kana_pref":"ﾋｮｳｺﾞｹﾝ","kana_city":"ｻﾖｳｸﾞﾝｻﾖｳﾁｮｳ","kana_address":"ｼﾓｲｼｲ","pref":"兵庫県","city":"佐用郡佐用町","address":"下石井"},
{"zip_code":"6795211","kana_pref":"ﾋｮｳｺﾞｹﾝ","kana_city":"ｻﾖｳｸﾞﾝｻﾖｳﾁｮｳ","kana_address":"ｼﾓﾄｸｻ","pref":"兵庫県","city":"佐用郡佐用町","address":"下徳久"},
{"zip_code":"6795132","kana_pref":"ﾋｮｳｺﾞｹﾝ","kana_city":"ｻﾖｳｸﾞﾝｻﾖｳﾁｮｳ","kana_address":"ｼﾓﾎﾝｺﾞｳ","pref":"兵庫県","city":"佐用郡佐用町","address":"下本郷"},
{"zip_code":"6795223","kana_pref":"ﾋｮｳｺﾞｹﾝ","kana_city":"ｻﾖｳｸﾞﾝｻﾖｳﾁｮｳ","kana_address":"ｼﾓﾐｶﾜ","pref":"兵庫県","city":"佐用郡佐用町","address":"下三河"},
{"zip_code":"6795317","kana_pref":"ﾋｮｳｺﾞｹﾝ","kana_city":"ｻﾖｳｸﾞﾝｻﾖｳﾁｮｳ","kana_address":"ｽｴｶﾈ","pref":"兵庫県","city":"佐用郡佐用町","address":"末包"},
{"zip_code":"6795147","kana_pref":"ﾋｮｳｺﾞｹﾝ","kana_city":"ｻﾖｳｸﾞﾝｻﾖｳﾁｮｳ","kana_address":"ｽｴﾋﾛ","pref":"兵庫県","city":"佐用郡佐用町","address":"末廣"},
{"zip_code":"6795532","kana_pref":"ﾋｮｳｺﾞｹﾝ","kana_city":"ｻﾖｳｸﾞﾝｻﾖｳﾁｮｳ","kana_address":"ｽﾔｽ","pref":"兵庫県","city":"佐用郡佐用町","address":"須安"},
{"zip_code":"6795201","kana_pref":"ﾋｮｳｺﾞｹﾝ","kana_city":"ｻﾖｳｸﾞﾝｻﾖｳﾁｮｳ","kana_address":"ﾀｶﾞ","pref":"兵庫県","city":"佐用郡佐用町","address":"多賀"},
{"zip_code":"6795142","kana_pref":"ﾋｮｳｺﾞｹﾝ","kana_city":"ｻﾖｳｸﾞﾝｻﾖｳﾁｮｳ","kana_address":"ﾂﾙﾀﾞﾆ","pref":"兵庫県","city":"佐用郡佐用町","address":"弦谷"},
{"zip_code":"6795206","kana_pref":"ﾋｮｳｺﾞｹﾝ","kana_city":"ｻﾖｳｸﾞﾝｻﾖｳﾁｮｳ","kana_address":"ﾄﾞｲ","pref":"兵庫県","city":"佐用郡佐用町","address":"土井"},
{"zip_code":"6795316","kana_pref":"ﾋｮｳｺﾞｹﾝ","kana_city":"ｻﾖｳｸﾞﾝｻﾖｳﾁｮｳ","kana_address":"ﾄﾖﾌｸ","pref":"兵庫県","city":"佐用郡佐用町","address":"豊福"},
{"zip_code":"6795202","kana_pref":"ﾋｮｳｺﾞｹﾝ","kana_city":"ｻﾖｳｸﾞﾝｻﾖｳﾁｮｳ","kana_address":"ﾅｶｼﾏ","pref":"兵庫県","city":"佐用郡佐用町","address":"中島"},
{"zip_code":"6795224","kana_pref":"ﾋｮｳｺﾞｹﾝ","kana_city":"ｻﾖｳｸﾞﾝｻﾖｳﾁｮｳ","kana_address":"ﾅｶﾐｶﾜ","pref":"兵庫県","city":"佐用郡佐用町","address":"中三河"},
{"zip_code":"6795305","kana_pref":"ﾋｮｳｺﾞｹﾝ","kana_city":"ｻﾖｳｸﾞﾝｻﾖｳﾁｮｳ","kana_address":"ﾅｶﾞｵ","pref":"兵庫県","city":"佐用郡佐用町","address":"長尾"},
{"zip_code":"6795522","kana_pref":"ﾋｮｳｺﾞｹﾝ","kana_city":"ｻﾖｳｸﾞﾝｻﾖｳﾁｮｳ","kana_address":"ﾆｲ","pref":"兵庫県","city":"佐用郡佐用町","address":"仁位"},
{"zip_code":"6795312","kana_pref":"ﾋｮｳｺﾞｹﾝ","kana_city":"ｻﾖｳｸﾞﾝｻﾖｳﾁｮｳ","kana_address":"ﾆｶﾞﾀ","pref":"兵庫県","city":"佐用郡佐用町","address":"仁方"},
{"zip_code":"6795534","kana_pref":"ﾋｮｳｺﾞｹﾝ","kana_city":"ｻﾖｳｸﾞﾝｻﾖｳﾁｮｳ","kana_address":"ﾆｼｵｵﾊﾞﾀｹ","pref":"兵庫県","city":"佐用郡佐用町","address":"西大畠"},
{"zip_code":"6795313","kana_pref":"ﾋｮｳｺﾞｹﾝ","kana_city":"ｻﾖｳｸﾞﾝｻﾖｳﾁｮｳ","kana_address":"ﾆｼｶﾞｲﾁ","pref":"兵庫県","city":"佐用郡佐用町","address":"西河内"},
{"zip_code":"6795222","kana_pref":"ﾋｮｳｺﾞｹﾝ","kana_city":"ｻﾖｳｸﾞﾝｻﾖｳﾁｮｳ","kana_address":"ﾆｼｼﾓﾉ","pref":"兵庫県","city":"佐用郡佐用町","address":"西下野"},
{"zip_code":"6795645","kana_pref":"ﾋｮｳｺﾞｹﾝ","kana_city":"ｻﾖｳｸﾞﾝｻﾖｳﾁｮｳ","kana_address":"ﾆｼｼﾝｼﾞｭｸ","pref":"兵庫県","city":"佐用郡佐用町","address":"西新宿"},
{"zip_code":"6795214","kana_pref":"ﾋｮｳｺﾞｹﾝ","kana_city":"ｻﾖｳｸﾞﾝｻﾖｳﾁｮｳ","kana_address":"ﾆｼﾄｸｻ","pref":"兵庫県","city":"佐用郡佐用町","address":"西徳久"},
{"zip_code":"6795134","kana_pref":"ﾋｮｳｺﾞｹﾝ","kana_city":"ｻﾖｳｸﾞﾝｻﾖｳﾁｮｳ","kana_address":"ﾉｲﾉ","pref":"兵庫県","city":"佐用郡佐用町","address":"乃井野"},
{"zip_code":"6795332","kana_pref":"ﾋｮｳｺﾞｹﾝ","kana_city":"ｻﾖｳｸﾞﾝｻﾖｳﾁｮｳ","kana_address":"ﾉﾌﾞﾖｼ","pref":"兵庫県","city":"佐用郡佐用町","address":"延吉"},
{"zip_code":"6795212","kana_pref":"ﾋｮｳｺﾞｹﾝ","kana_city":"ｻﾖｳｸﾞﾝｻﾖｳﾁｮｳ","kana_address":"ﾊﾔｼｻｷ","pref":"兵庫県","city":"佐用郡佐用町","address":"林崎"},
{"zip_code":"6795521","kana_pref":"ﾋｮｳｺﾞｹﾝ","kana_city":"ｻﾖｳｸﾞﾝｻﾖｳﾁｮｳ","kana_address":"ﾊﾔｾ","pref":"兵庫県","city":"佐用郡佐用町","address":"早瀬"},
{"zip_code":"6795135","kana_pref":"ﾋｮｳｺﾞｹﾝ","kana_city":"ｻﾖｳｸﾞﾝｻﾖｳﾁｮｳ","kana_address":"ﾊﾙｶﾅ","pref":"兵庫県","city":"佐用郡佐用町","address":"春哉"},
{"zip_code":"6795213","kana_pref":"ﾋｮｳｺﾞｹﾝ","kana_city":"ｻﾖｳｸﾞﾝｻﾖｳﾁｮｳ","kana_address":"ﾋｶﾞｼﾄｸｻ","pref":"兵庫県","city":"佐用郡佐用町","address":"東徳久"},
{"zip_code":"6795318","kana_pref":"ﾋｮｳｺﾞｹﾝ","kana_city":"ｻﾖｳｸﾞﾝｻﾖｳﾁｮｳ","kana_address":"ﾋｶﾞｼﾅｶﾔﾏ","pref":"兵庫県","city":"佐用郡佐用町","address":"東中山"},
{"zip_code":"6795331","kana_pref":"ﾋｮｳｺﾞｹﾝ","kana_city":"ｻﾖｳｸﾞﾝｻﾖｳﾁｮｳ","kana_address":"ﾋﾗﾌｸ","pref":"兵庫県","city":"佐用郡佐用町","address":"平福"},
{"zip_code":"6795215","kana_pref":"ﾋｮｳｺﾞｹﾝ","kana_city":"ｻﾖｳｸﾞﾝｻﾖｳﾁｮｳ","kana_address":"ﾋﾗﾏﾂ","pref":"兵庫県","city":"佐用郡佐用町","address":"平松"},
{"zip_code":"6795141","kana_pref":"ﾋｮｳｺﾞｹﾝ","kana_city":"ｻﾖｳｸﾞﾝｻﾖｳﾁｮｳ","kana_address":"ﾋﾛﾔﾏ","pref":"兵庫県","city":"佐用郡佐用町","address":"廣山"},
{"zip_code":"6795311","kana_pref":"ﾋｮｳｺﾞｹﾝ","kana_city":"ｻﾖｳｸﾞﾝｻﾖｳﾁｮｳ","kana_address":"ﾌｸｻﾜ","pref":"兵庫県","city":"佐用郡佐用町","address":"福沢"},
{"zip_code":"6795511","kana_pref":"ﾋｮｳｺﾞｹﾝ","kana_city":"ｻﾖｳｸﾞﾝｻﾖｳﾁｮｳ","kana_address":"ﾌｸﾅｶ","pref":"兵庫県","city":"佐用郡佐用町","address":"福中"},
{"zip_code":"6795514","kana_pref":"ﾋｮｳｺﾞｹﾝ","kana_city":"ｻﾖｳｸﾞﾝｻﾖｳﾁｮｳ","kana_address":"ﾌｸﾖｼ","pref":"兵庫県","city":"佐用郡佐用町","address":"福吉"},
{"zip_code":"6795227","kana_pref":"ﾋｮｳｺﾞｹﾝ","kana_city":"ｻﾖｳｸﾞﾝｻﾖｳﾁｮｳ","kana_address":"ﾌﾅｺｼ","pref":"兵庫県","city":"佐用郡佐用町","address":"船越"},
{"zip_code":"6795207","kana_pref":"ﾋｮｳｺﾞｹﾝ","kana_city":"ｻﾖｳｸﾞﾝｻﾖｳﾁｮｳ","kana_address":"ﾎｳｿﾞｳｼﾞ","pref":"兵庫県","city":"佐用郡佐用町","address":"宝蔵寺"},
{"zip_code":"6795306","kana_pref":"ﾋｮｳｺﾞｹﾝ","kana_city":"ｻﾖｳｸﾞﾝｻﾖｳﾁｮｳ","kana_address":"ﾎﾝｲﾃﾞﾝ","pref":"兵庫県","city":"佐用郡佐用町","address":"本位田"},
{"zip_code":"6795503","kana_pref":"ﾋｮｳｺﾞｹﾝ","kana_city":"ｻﾖｳｸﾞﾝｻﾖｳﾁｮｳ","kana_address":"ﾎﾝｺﾞｳ","pref":"兵庫県","city":"佐用郡佐用町","address":"本郷"},
{"zip_code":"6795335","kana_pref":"ﾋｮｳｺﾞｹﾝ","kana_city":"ｻﾖｳｸﾞﾝｻﾖｳﾁｮｳ","kana_address":"ﾐｳﾁ","pref":"兵庫県","city":"佐用郡佐用町","address":"海内"},
{"zip_code":"6795133","kana_pref":"ﾋｮｳｺﾞｹﾝ","kana_city":"ｻﾖｳｸﾞﾝｻﾖｳﾁｮｳ","kana_address":"ﾐｶﾂﾞｷ","pref":"兵庫県","city":"佐用郡佐用町","address":"三日月"},
{"zip_code":"6795325","kana_pref":"ﾋｮｳｺﾞｹﾝ","kana_city":"ｻﾖｳｸﾞﾝｻﾖｳﾁｮｳ","kana_address":"ﾐｽﾞﾈ","pref":"兵庫県","city":"佐用郡佐用町","address":"水根"},
{"zip_code":"6795144","kana_pref":"ﾋｮｳｺﾞｹﾝ","kana_city":"ｻﾖｳｸﾞﾝｻﾖｳﾁｮｳ","kana_address":"ﾐﾂｵ","pref":"兵庫県","city":"佐用郡佐用町","address":"三ツ尾"},
{"zip_code":"6795512","kana_pref":"ﾋｮｳｺﾞｹﾝ","kana_city":"ｻﾖｳｸﾞﾝｻﾖｳﾁｮｳ","kana_address":"ﾐﾅﾐﾅｶﾔﾏ","pref":"兵庫県","city":"佐用郡佐用町","address":"南中山"},
{"zip_code":"6795143","kana_pref":"ﾋｮｳｺﾞｹﾝ","kana_city":"ｻﾖｳｸﾞﾝｻﾖｳﾁｮｳ","kana_address":"ﾐﾊﾗ","pref":"兵庫県","city":"佐用郡佐用町","address":"三原"},
{"zip_code":"6795342","kana_pref":"ﾋｮｳｺﾞｹﾝ","kana_city":"ｻﾖｳｸﾞﾝｻﾖｳﾁｮｳ","kana_address":"ﾑﾈﾕｷ","pref":"兵庫県","city":"佐用郡佐用町","address":"宗行"},
{"zip_code":"6795525","kana_pref":"ﾋｮｳｺﾞｹﾝ","kana_city":"ｻﾖｳｸﾞﾝｻﾖｳﾁｮｳ","kana_address":"ﾒﾀｶ","pref":"兵庫県","city":"佐用郡佐用町","address":"目高"},
{"zip_code":"6795205","kana_pref":"ﾋｮｳｺﾞｹﾝ","kana_city":"ｻﾖｳｸﾞﾝｻﾖｳﾁｮｳ","kana_address":"ﾔｽｶﾜ","pref":"兵庫県","city":"佐用郡佐用町","address":"安川"},
{"zip_code":"6795304","kana_pref":"ﾋｮｳｺﾞｹﾝ","kana_city":"ｻﾖｳｸﾞﾝｻﾖｳﾁｮｳ","kana_address":"ﾔﾏﾀﾞ","pref":"兵庫県","city":"佐用郡佐用町","address":"山田"},
{"zip_code":"6795302","kana_pref":"ﾋｮｳｺﾞｹﾝ","kana_city":"ｻﾖｳｸﾞﾝｻﾖｳﾁｮｳ","kana_address":"ﾔﾏﾜｷ","pref":"兵庫県","city":"佐用郡佐用町","address":"山脇"},
{"zip_code":"6795341","kana_pref":"ﾋｮｳｺﾞｹﾝ","kana_city":"ｻﾖｳｸﾞﾝｻﾖｳﾁｮｳ","kana_address":"ﾖｺｻｶ","pref":"兵庫県","city":"佐用郡佐用町","address":"横坂"},
{"zip_code":"6795315","kana_pref":"ﾋｮｳｺﾞｹﾝ","kana_city":"ｻﾖｳｸﾞﾝｻﾖｳﾁｮｳ","kana_address":"ﾖﾄﾞ","pref":"兵庫県","city":"佐用郡佐用町","address":"淀"},
{"zip_code":"6795203","kana_pref":"ﾋｮｳｺﾞｹﾝ","kana_city":"ｻﾖｳｸﾞﾝｻﾖｳﾁｮｳ","kana_address":"ﾖﾈﾀﾞ","pref":"兵庫県","city":"佐用郡佐用町","address":"米田"},
{"zip_code":"6795524","kana_pref":"ﾋｮｳｺﾞｹﾝ","kana_city":"ｻﾖｳｸﾞﾝｻﾖｳﾁｮｳ","kana_address":"ﾖﾘﾉﾌﾞ","pref":"兵庫県","city":"佐用郡佐用町","address":"寄延"},
{"zip_code":"6795533","kana_pref":"ﾋｮｳｺﾞｹﾝ","kana_city":"ｻﾖｳｸﾞﾝｻﾖｳﾁｮｳ","kana_address":"ﾘｷﾏﾝ","pref":"兵庫県","city":"佐用郡佐用町","address":"力万"},
{"zip_code":"6795323","kana_pref":"ﾋｮｳｺﾞｹﾝ","kana_city":"ｻﾖｳｸﾞﾝｻﾖｳﾁｮｳ","kana_address":"ﾜｶｽ","pref":"兵庫県","city":"佐用郡佐用町","address":"若州"}]}