{"zip_code":[
{"zip_code":"6800000","kana_pref":"ﾄｯﾄﾘｹﾝ","kana_city":"ﾄｯﾄﾘｼ","kana_address":"","pref":"鳥取県","city":"鳥取市","address":""},
{"zip_code":"6800805","kana_pref":"ﾄｯﾄﾘｹﾝ","kana_city":"ﾄｯﾄﾘｼ","kana_address":"ｱｲｵｲﾁｮｳ","pref":"鳥取県","city":"鳥取市","address":"相生町"},
{"zip_code":"6800802","kana_pref":"ﾄｯﾄﾘｹﾝ","kana_city":"ﾄｯﾄﾘｼ","kana_address":"ｱｵﾊﾞﾁｮｳ","pref":"鳥取県","city":"鳥取市","address":"青葉町"},
{"zip_code":"6800902","kana_pref":"ﾄｯﾄﾘｹﾝ","kana_city":"ﾄｯﾄﾘｼ","kana_address":"ｱｷｻﾄ","pref":"鳥取県","city":"鳥取市","address":"秋里"},
{"zip_code":"6801146","kana_pref":"ﾄｯﾄﾘｹﾝ","kana_city":"ﾄｯﾄﾘｼ","kana_address":"ｱｺﾀﾞ","pref":"鳥取県","city":"鳥取市","address":"赤子田"},
{"zip_code":"6801166","kana_pref":"ﾄｯﾄﾘｹﾝ","kana_city":"ﾄｯﾄﾘｼ","kana_address":"ｱｻﾂﾞｷ","pref":"鳥取県","city":"鳥取市","address":"朝月"},
{"zip_code":"6801176","kana_pref":"ﾄｯﾄﾘｹﾝ","kana_city":"ﾄｯﾄﾘｼ","kana_address":"ｱﾘﾄﾞﾒ","pref":"鳥取県","city":"鳥取市","address":"有富"},
{"zip_code":"6801164","kana_pref":"ﾄｯﾄﾘｹﾝ","kana_city":"ﾄｯﾄﾘｼ","kana_address":"ｲﾉｺ","pref":"鳥取県","city":"鳥取市","address":"猪子"},
{"zip_code":"6800822","kana_pref":"ﾄｯﾄﾘｹﾝ","kana_city":"ﾄｯﾄﾘｼ","kana_address":"ｲﾏﾏﾁ","pref":"鳥取県","city":"鳥取市","address":"今町"},
{"zip_code":"6800081","kana_pref":"ﾄｯﾄﾘｹﾝ","kana_city":"ﾄｯﾄﾘｼ","kana_address":"ｲﾜｸﾗ","pref":"鳥取県","city":"鳥取市","address":"岩倉"},
{"zip_code":"6801157","kana_pref":"ﾄｯﾄﾘｹﾝ","kana_city":"ﾄｯﾄﾘｼ","kana_address":"ｲﾜﾂﾎﾞ","pref":"鳥取県","city":"鳥取市","address":"岩坪"},
{"zip_code":"6800931","kana_pref":"ﾄｯﾄﾘｹﾝ","kana_city":"ﾄｯﾄﾘｼ","kana_address":"ｲﾜﾖｼ","pref":"鳥取県","city":"鳥取市","address":"岩吉"},
{"zip_code":"6801422","kana_pref":"ﾄｯﾄﾘｹﾝ","kana_city":"ﾄｯﾄﾘｼ","kana_address":"ｳｴﾊﾞﾗ","pref":"鳥取県","city":"鳥取市","address":"上原"},
{"zip_code":"6800015","kana_pref":"ﾄｯﾄﾘｹﾝ","kana_city":"ﾄｯﾄﾘｼ","kana_address":"ｳｴﾏﾁ","pref":"鳥取県","city":"鳥取市","address":"上町"},
{"zip_code":"6800834","kana_pref":"ﾄｯﾄﾘｹﾝ","kana_city":"ﾄｯﾄﾘｼ","kana_address":"ｴｲﾗｸｵﾝｾﾝﾁｮｳ","pref":"鳥取県","city":"鳥取市","address":"永楽温泉町"},
{"zip_code":"6800013","kana_pref":"ﾄｯﾄﾘｹﾝ","kana_city":"ﾄｯﾄﾘｼ","kana_address":"ｴｻﾞｷﾁｮｳ","pref":"鳥取県","city":"鳥取市","address":"江崎町"},
{"zip_code":"6800901","kana_pref":"ﾄｯﾄﾘｹﾝ","kana_city":"ﾄｯﾄﾘｼ","kana_address":"ｴﾂﾞ","pref":"鳥取県","city":"鳥取市","address":"江津"},
{"zip_code":"6800055","kana_pref":"ﾄｯﾄﾘｹﾝ","kana_city":"ﾄｯﾄﾘｼ","kana_address":"ｴﾋﾞｽﾏﾁ","pref":"鳥取県","city":"鳥取市","address":"戎町"},
{"zip_code":"6800005","kana_pref":"ﾄｯﾄﾘｹﾝ","kana_city":"ﾄｯﾄﾘｼ","kana_address":"ｴﾝｺﾞｼﾞ","pref":"鳥取県","city":"鳥取市","address":"円護寺"},
{"zip_code":"6801144","kana_pref":"ﾄｯﾄﾘｹﾝ","kana_city":"ﾄｯﾄﾘｼ","kana_address":"ｴﾝﾂｳｼﾞ","pref":"鳥取県","city":"鳥取市","address":"円通寺"},
{"zip_code":"6800846","kana_pref":"ﾄｯﾄﾘｹﾝ","kana_city":"ﾄｯﾄﾘｼ","kana_address":"ｵｳｷﾞﾏﾁ","pref":"鳥取県","city":"鳥取市","address":"扇町"},
{"zip_code":"6800043","kana_pref":"ﾄｯﾄﾘｹﾝ","kana_city":"ﾄｯﾄﾘｼ","kana_address":"ｵｵｴﾉｷﾁｮｳ","pref":"鳥取県","city":"鳥取市","address":"大榎町"},
{"zip_code":"6800851","kana_pref":"ﾄｯﾄﾘｹﾝ","kana_city":"ﾄｯﾄﾘｼ","kana_address":"ｵｵｸｲ","pref":"鳥取県","city":"鳥取市","address":"大杙"},
{"zip_code":"6801415","kana_pref":"ﾄｯﾄﾘｹﾝ","kana_city":"ﾄｯﾄﾘｼ","kana_address":"ｵｵﾂﾞｶ","pref":"鳥取県","city":"鳥取市","address":"大塚"},
{"zip_code":"6801437","kana_pref":"ﾄｯﾄﾘｹﾝ","kana_city":"ﾄｯﾄﾘｼ","kana_address":"ｵｵﾊﾞﾀｹ","pref":"鳥取県","city":"鳥取市","address":"大畑"},
{"zip_code":"6800904","kana_pref":"ﾄｯﾄﾘｹﾝ","kana_city":"ﾄｯﾄﾘｼ","kana_address":"ｵｸﾃ","pref":"鳥取県","city":"鳥取市","address":"晩稲"},
{"zip_code":"6800054","kana_pref":"ﾄｯﾄﾘｹﾝ","kana_city":"ﾄｯﾄﾘｼ","kana_address":"ｵｹﾔﾏﾁ","pref":"鳥取県","city":"鳥取市","address":"桶屋町"},
{"zip_code":"6801427","kana_pref":"ﾄｯﾄﾘｹﾝ","kana_city":"ﾄｯﾄﾘｼ","kana_address":"ｵｻｷ","pref":"鳥取県","city":"鳥取市","address":"尾崎"},
{"zip_code":"6800855","kana_pref":"ﾄｯﾄﾘｹﾝ","kana_city":"ﾄｯﾄﾘｼ","kana_address":"ｵﾓｶｹﾞ","pref":"鳥取県","city":"鳥取市","address":"面影"},
{"zip_code":"6800044","kana_pref":"ﾄｯﾄﾘｹﾝ","kana_city":"ﾄｯﾄﾘｼ","kana_address":"ｵﾕﾐﾉﾁｮｳ","pref":"鳥取県","city":"鳥取市","address":"御弓町"},
{"zip_code":"6800003","kana_pref":"ﾄｯﾄﾘｹﾝ","kana_city":"ﾄｯﾄﾘｼ","kana_address":"ｶｸｼﾞ","pref":"鳥取県","city":"鳥取市","address":"覚寺"},
{"zip_code":"6800041","kana_pref":"ﾄｯﾄﾘｹﾝ","kana_city":"ﾄｯﾄﾘｼ","kana_address":"ｶｹﾀﾞｼﾁｮｳ","pref":"鳥取県","city":"鳥取市","address":"掛出町"},
{"zip_code":"6800052","kana_pref":"ﾄｯﾄﾘｹﾝ","kana_city":"ﾄｯﾄﾘｼ","kana_address":"ｶｼﾞﾏﾁ","pref":"鳥取県","city":"鳥取市","address":"鍛冶町"},
{"zip_code":"6800023","kana_pref":"ﾄｯﾄﾘｹﾝ","kana_city":"ﾄｯﾄﾘｼ","kana_address":"ｶﾀﾊﾗ","pref":"鳥取県","city":"鳥取市","address":"片原"},
{"zip_code":"6801417","kana_pref":"ﾄｯﾄﾘｹﾝ","kana_city":"ﾄｯﾄﾘｼ","kana_address":"ｶﾂﾗﾐ","pref":"鳥取県","city":"鳥取市","address":"桂見"},
{"zip_code":"6801439","kana_pref":"ﾄｯﾄﾘｹﾝ","kana_city":"ﾄｯﾄﾘｼ","kana_address":"ｶﾅｻﾞﾜ","pref":"鳥取県","city":"鳥取市","address":"金沢"},
{"zip_code":"6800874","kana_pref":"ﾄｯﾄﾘｹﾝ","kana_city":"ﾄｯﾄﾘｼ","kana_address":"ｶﾉｳ","pref":"鳥取県","city":"鳥取市","address":"叶"},
{"zip_code":"6801167","kana_pref":"ﾄｯﾄﾘｹﾝ","kana_city":"ﾄｯﾄﾘｼ","kana_address":"ｶﾐｱｼﾞﾉ","pref":"鳥取県","city":"鳥取市","address":"上味野"},
{"zip_code":"6800047","kana_pref":"ﾄｯﾄﾘｹﾝ","kana_city":"ﾄｯﾄﾘｼ","kana_address":"ｶﾐｳｵﾏﾁ","pref":"鳥取県","city":"鳥取市","address":"上魚町"},
{"zip_code":"6801156","kana_pref":"ﾄｯﾄﾘｹﾝ","kana_city":"ﾄｯﾄﾘｼ","kana_address":"ｶﾐｽﾅﾐ","pref":"鳥取県","city":"鳥取市","address":"上砂見"},
{"zip_code":"6801421","kana_pref":"ﾄｯﾄﾘｹﾝ","kana_city":"ﾄｯﾄﾘｼ","kana_address":"ｶﾐﾀﾞﾝ","pref":"鳥取県","city":"鳥取市","address":"上段"},
{"zip_code":"6800905","kana_pref":"ﾄｯﾄﾘｹﾝ","kana_city":"ﾄｯﾄﾘｼ","kana_address":"ｶﾛﾁｮｳ","pref":"鳥取県","city":"鳥取市","address":"賀露町"},
{"zip_code":"6800907","kana_pref":"ﾄｯﾄﾘｹﾝ","kana_city":"ﾄｯﾄﾘｼ","kana_address":"ｶﾛﾁｮｳｷﾀ","pref":"鳥取県","city":"鳥取市","address":"賀露町北"},
{"zip_code":"6800908","kana_pref":"ﾄｯﾄﾘｹﾝ","kana_city":"ﾄｯﾄﾘｼ","kana_address":"ｶﾛﾁｮｳﾆｼ","pref":"鳥取県","city":"鳥取市","address":"賀露町西"},
{"zip_code":"6800909","kana_pref":"ﾄｯﾄﾘｹﾝ","kana_city":"ﾄｯﾄﾘｼ","kana_address":"ｶﾛﾁｮｳﾐﾅﾐ","pref":"鳥取県","city":"鳥取市","address":"賀露町南"},
{"zip_code":"6800036","kana_pref":"ﾄｯﾄﾘｹﾝ","kana_city":"ﾄｯﾄﾘｼ","kana_address":"ｶﾜﾊﾞﾀ","pref":"鳥取県","city":"鳥取市","address":"川端"},
{"zip_code":"6801208","kana_pref":"ﾄｯﾄﾘｹﾝ","kana_city":"ﾄｯﾄﾘｼ","kana_address":"ｶﾜﾊﾗﾁｮｳｱﾕｶﾞｵｶ","pref":"鳥取県","city":"鳥取市","address":"河原町鮎ケ丘"},
{"zip_code":"6801203","kana_pref":"ﾄｯﾄﾘｹﾝ","kana_city":"ﾄｯﾄﾘｼ","kana_address":"ｶﾜﾊﾗﾁｮｳｲﾅﾂﾈ","pref":"鳥取県","city":"鳥取市","address":"河原町稲常"},
{"zip_code":"6801205","kana_pref":"ﾄｯﾄﾘｹﾝ","kana_city":"ﾄｯﾄﾘｼ","kana_address":"ｶﾜﾊﾗﾁｮｳｲﾏｻﾞｲｹ","pref":"鳥取県","city":"鳥取市","address":"河原町今在家"},
{"zip_code":"6801225","kana_pref":"ﾄｯﾄﾘｹﾝ","kana_city":"ﾄｯﾄﾘｼ","kana_address":"ｶﾜﾊﾗﾁｮｳｳｼﾄ","pref":"鳥取県","city":"鳥取市","address":"河原町牛戸"},
{"zip_code":"6801245","kana_pref":"ﾄｯﾄﾘｹﾝ","kana_city":"ﾄｯﾄﾘｼ","kana_address":"ｶﾜﾊﾗﾁｮｳｵｸﾞﾗ","pref":"鳥取県","city":"鳥取市","address":"河原町小倉"},
{"zip_code":"6801253","kana_pref":"ﾄｯﾄﾘｹﾝ","kana_city":"ﾄｯﾄﾘｼ","kana_address":"ｶﾜﾊﾗﾁｮｳｵｺﾞｳﾁ","pref":"鳥取県","city":"鳥取市","address":"河原町小河内"},
{"zip_code":"6801232","kana_pref":"ﾄｯﾄﾘｹﾝ","kana_city":"ﾄｯﾄﾘｼ","kana_address":"ｶﾜﾊﾗﾁｮｳｵﾊﾞﾀ","pref":"鳥取県","city":"鳥取市","address":"河原町小畑"},
{"zip_code":"6801204","kana_pref":"ﾄｯﾄﾘｹﾝ","kana_city":"ﾄｯﾄﾘｼ","kana_address":"ｶﾜﾊﾗﾁｮｳｶﾀﾔﾏ","pref":"鳥取県","city":"鳥取市","address":"河原町片山"},
{"zip_code":"6801216","kana_pref":"ﾄｯﾄﾘｹﾝ","kana_city":"ﾄｯﾄﾘｼ","kana_address":"ｶﾜﾊﾗﾁｮｳｶﾏｸﾞﾁ","pref":"鳥取県","city":"鳥取市","address":"河原町釜口"},
{"zip_code":"6801251","kana_pref":"ﾄｯﾄﾘｹﾝ","kana_city":"ﾄｯﾄﾘｼ","kana_address":"ｶﾜﾊﾗﾁｮｳｶﾜﾊﾗ","pref":"鳥取県","city":"鳥取市","address":"河原町河原"},
{"zip_code":"6801254","kana_pref":"ﾄｯﾄﾘｹﾝ","kana_city":"ﾄｯﾄﾘｼ","kana_address":"ｶﾜﾊﾗﾁｮｳｶﾝﾊﾞ","pref":"鳥取県","city":"鳥取市","address":"河原町神馬"},
{"zip_code":"6801234","kana_pref":"ﾄｯﾄﾘｹﾝ","kana_city":"ﾄｯﾄﾘｼ","kana_address":"ｶﾜﾊﾗﾁｮｳｷﾀﾑﾗ","pref":"鳥取県","city":"鳥取市","address":"河原町北村"},
{"zip_code":"6801207","kana_pref":"ﾄｯﾄﾘｹﾝ","kana_city":"ﾄｯﾄﾘｼ","kana_address":"ｶﾜﾊﾗﾁｮｳｺﾞｳﾊﾞﾗ","pref":"鳥取県","city":"鳥取市","address":"河原町郷原"},
{"zip_code":"6801243","kana_pref":"ﾄｯﾄﾘｹﾝ","kana_city":"ﾄｯﾄﾘｼ","kana_address":"ｶﾜﾊﾗﾁｮｳｻﾇｷ","pref":"鳥取県","city":"鳥取市","address":"河原町佐貫"},
{"zip_code":"6801213","kana_pref":"ﾄｯﾄﾘｹﾝ","kana_city":"ﾄｯﾄﾘｼ","kana_address":"ｶﾜﾊﾗﾁｮｳﾀｶﾌｸ","pref":"鳥取県","city":"鳥取市","address":"河原町高福"},
{"zip_code":"6801242","kana_pref":"ﾄｯﾄﾘｹﾝ","kana_city":"ﾄｯﾄﾘｼ","kana_address":"ｶﾜﾊﾗﾁｮｳﾀﾆﾋﾄﾂｷﾞ","pref":"鳥取県","city":"鳥取市","address":"河原町谷一木"},
{"zip_code":"6801223","kana_pref":"ﾄｯﾄﾘｹﾝ","kana_city":"ﾄｯﾄﾘｼ","kana_address":"ｶﾜﾊﾗﾁｮｳﾃﾝｼﾞﾝﾊﾞﾗ","pref":"鳥取県","city":"鳥取市","address":"河原町天神原"},
{"zip_code":"6801212","kana_pref":"ﾄｯﾄﾘｹﾝ","kana_city":"ﾄｯﾄﾘｼ","kana_address":"ｶﾜﾊﾗﾁｮｳﾄｸﾖｼ","pref":"鳥取県","city":"鳥取市","address":"河原町徳吉"},
{"zip_code":"6801224","kana_pref":"ﾄｯﾄﾘｹﾝ","kana_city":"ﾄｯﾄﾘｼ","kana_address":"ｶﾜﾊﾗﾁｮｳﾅｶｲ","pref":"鳥取県","city":"鳥取市","address":"河原町中井"},
{"zip_code":"6801241","kana_pref":"ﾄｯﾄﾘｹﾝ","kana_city":"ﾄｯﾄﾘｼ","kana_address":"ｶﾜﾊﾗﾁｮｳﾅｶﾞｾ","pref":"鳥取県","city":"鳥取市","address":"河原町長瀬"},
{"zip_code":"6801222","kana_pref":"ﾄｯﾄﾘｹﾝ","kana_city":"ﾄｯﾄﾘｼ","kana_address":"ｶﾜﾊﾗﾁｮｳﾋｹﾀ","pref":"鳥取県","city":"鳥取市","address":"河原町曳田"},
{"zip_code":"6801201","kana_pref":"ﾄｯﾄﾘｹﾝ","kana_city":"ﾄｯﾄﾘｼ","kana_address":"ｶﾜﾊﾗﾁｮｳﾌｸﾛｶﾞﾜﾗ","pref":"鳥取県","city":"鳥取市","address":"河原町袋河原"},
{"zip_code":"6801202","kana_pref":"ﾄｯﾄﾘｹﾝ","kana_city":"ﾄｯﾄﾘｼ","kana_address":"ｶﾜﾊﾗﾁｮｳﾎﾃｲ","pref":"鳥取県","city":"鳥取市","address":"河原町布袋"},
{"zip_code":"6801252","kana_pref":"ﾄｯﾄﾘｹﾝ","kana_city":"ﾄｯﾄﾘｼ","kana_address":"ｶﾜﾊﾗﾁｮｳﾎﾝｶﾞ","pref":"鳥取県","city":"鳥取市","address":"河原町本鹿"},
{"zip_code":"6801244","kana_pref":"ﾄｯﾄﾘｹﾝ","kana_city":"ﾄｯﾄﾘｼ","kana_address":"ｶﾜﾊﾗﾁｮｳﾐｽﾞﾈ","pref":"鳥取県","city":"鳥取市","address":"河原町水根"},
{"zip_code":"6801206","kana_pref":"ﾄｯﾄﾘｹﾝ","kana_city":"ﾄｯﾄﾘｼ","kana_address":"ｶﾜﾊﾗﾁｮｳﾐﾀﾆ","pref":"鳥取県","city":"鳥取市","address":"河原町三谷"},
{"zip_code":"6801246","kana_pref":"ﾄｯﾄﾘｹﾝ","kana_city":"ﾄｯﾄﾘｼ","kana_address":"ｶﾜﾊﾗﾁｮｳﾔﾏｶﾞﾐ","pref":"鳥取県","city":"鳥取市","address":"河原町山上"},
{"zip_code":"6801211","kana_pref":"ﾄｯﾄﾘｹﾝ","kana_city":"ﾄｯﾄﾘｼ","kana_address":"ｶﾜﾊﾗﾁｮｳﾔﾏﾃ","pref":"鳥取県","city":"鳥取市","address":"河原町山手"},
{"zip_code":"6801231","kana_pref":"ﾄｯﾄﾘｹﾝ","kana_city":"ﾄｯﾄﾘｼ","kana_address":"ｶﾜﾊﾗﾁｮｳﾕﾀﾞﾆ","pref":"鳥取県","city":"鳥取市","address":"河原町湯谷"},
{"zip_code":"6801233","kana_pref":"ﾄｯﾄﾘｹﾝ","kana_city":"ﾄｯﾄﾘｼ","kana_address":"ｶﾜﾊﾗﾁｮｳﾕﾐｺﾞｳﾁ","pref":"鳥取県","city":"鳥取市","address":"河原町弓河内"},
{"zip_code":"6801214","kana_pref":"ﾄｯﾄﾘｹﾝ","kana_city":"ﾄｯﾄﾘｼ","kana_address":"ｶﾜﾊﾗﾁｮｳﾖｳｶｲﾁ","pref":"鳥取県","city":"鳥取市","address":"河原町八日市"},
{"zip_code":"6801221","kana_pref":"ﾄｯﾄﾘｹﾝ","kana_city":"ﾄｯﾄﾘｼ","kana_address":"ｶﾜﾊﾗﾁｮｳﾜﾀﾘﾋﾄﾂｷﾞ","pref":"鳥取県","city":"鳥取市","address":"河原町渡一木"},
{"zip_code":"6801215","kana_pref":"ﾄｯﾄﾘｹﾝ","kana_city":"ﾄｯﾄﾘｼ","kana_address":"ｶﾜﾊﾗﾁｮｳﾜﾅﾐ","pref":"鳥取県","city":"鳥取市","address":"河原町和奈見"},
{"zip_code":"6800821","kana_pref":"ﾄｯﾄﾘｹﾝ","kana_city":"ﾄｯﾄﾘｼ","kana_address":"ｶﾜﾗﾏﾁ","pref":"鳥取県","city":"鳥取市","address":"瓦町"},
{"zip_code":"6800004","kana_pref":"ﾄｯﾄﾘｹﾝ","kana_city":"ﾄｯﾄﾘｼ","kana_address":"ｷﾀｿﾞﾉ","pref":"鳥取県","city":"鳥取市","address":"北園"},
{"zip_code":"6801172","kana_pref":"ﾄｯﾄﾘｹﾝ","kana_city":"ﾄｯﾄﾘｼ","kana_address":"ｷﾀﾑﾗ","pref":"鳥取県","city":"鳥取市","address":"北村"},
{"zip_code":"6800824","kana_pref":"ﾄｯﾄﾘｹﾝ","kana_city":"ﾄｯﾄﾘｼ","kana_address":"ｷﾞｮｳﾄｸ","pref":"鳥取県","city":"鳥取市","address":"行徳"},
{"zip_code":"6801132","kana_pref":"ﾄｯﾄﾘｹﾝ","kana_city":"ﾄｯﾄﾘｼ","kana_address":"ｸﾆﾔｽ","pref":"鳥取県","city":"鳥取市","address":"国安"},
{"zip_code":"6800862","kana_pref":"ﾄｯﾄﾘｹﾝ","kana_city":"ﾄｯﾄﾘｼ","kana_address":"ｸﾓﾔﾏ","pref":"鳥取県","city":"鳥取市","address":"雲山"},
{"zip_code":"6801141","kana_pref":"ﾄｯﾄﾘｹﾝ","kana_city":"ﾄｯﾄﾘｼ","kana_address":"ｸﾗﾀﾞ","pref":"鳥取県","city":"鳥取市","address":"蔵田"},
{"zip_code":"6800012","kana_pref":"ﾄｯﾄﾘｹﾝ","kana_city":"ﾄｯﾄﾘｼ","kana_address":"ｸﾘﾀﾆﾁｮｳ","pref":"鳥取県","city":"鳥取市","address":"栗谷町"},
{"zip_code":"6800024","kana_pref":"ﾄｯﾄﾘｹﾝ","kana_city":"ﾄｯﾄﾘｼ","kana_address":"ｹﾞﾝｺｳﾁｮｳ","pref":"鳥取県","city":"鳥取市","address":"玄好町"},
{"zip_code":"6801133","kana_pref":"ﾄｯﾄﾘｹﾝ","kana_city":"ﾄｯﾄﾘｼ","kana_address":"ｹﾞﾝﾀ","pref":"鳥取県","city":"鳥取市","address":"源太"},
{"zip_code":"6801425","kana_pref":"ﾄｯﾄﾘｹﾝ","kana_city":"ﾄｯﾄﾘｼ","kana_address":"ｺｳﾁ","pref":"鳥取県","city":"鳥取市","address":"河内"},
{"zip_code":"6800844","kana_pref":"ﾄｯﾄﾘｹﾝ","kana_city":"ﾄｯﾄﾘｼ","kana_address":"ｺｳﾅﾝﾁｮｳ","pref":"鳥取県","city":"鳥取市","address":"興南町"},
{"zip_code":"6801177","kana_pref":"ﾄｯﾄﾘｹﾝ","kana_city":"ﾄｯﾄﾘｼ","kana_address":"ｺｳﾛ","pref":"鳥取県","city":"鳥取市","address":"高路"},
{"zip_code":"6800142","kana_pref":"ﾄｯﾄﾘｹﾝ","kana_city":"ﾄｯﾄﾘｼ","kana_address":"ｺｸﾌﾁｮｳｱｿｳ","pref":"鳥取県","city":"鳥取市","address":"国府町麻生"},
{"zip_code":"6800201","kana_pref":"ﾄｯﾄﾘｹﾝ","kana_city":"ﾄｯﾄﾘｼ","kana_address":"ｺｸﾌﾁｮｳｱﾒﾀﾞｷ","pref":"鳥取県","city":"鳥取市","address":"国府町雨滝"},
{"zip_code":"6800216","kana_pref":"ﾄｯﾄﾘｹﾝ","kana_city":"ﾄｯﾄﾘｼ","kana_address":"ｺｸﾌﾁｮｳｱﾗﾌﾈ","pref":"鳥取県","city":"鳥取市","address":"国府町荒舟"},
{"zip_code":"6800136","kana_pref":"ﾄｯﾄﾘｹﾝ","kana_city":"ﾄｯﾄﾘｼ","kana_address":"ｺｸﾌﾁｮｳｲﾄﾀﾆ","pref":"鳥取県","city":"鳥取市","address":"国府町糸谷"},
{"zip_code":"6808062","kana_pref":"ﾄｯﾄﾘｹﾝ","kana_city":"ﾄｯﾄﾘｼ","kana_address":"ｺｸﾌﾁｮｳｲﾅﾊﾞｶﾞｵｶ","pref":"鳥取県","city":"鳥取市","address":"国府町稲葉丘"},
{"zip_code":"6800202","kana_pref":"ﾄｯﾄﾘｹﾝ","kana_city":"ﾄｯﾄﾘｼ","kana_address":"ｺｸﾌﾁｮｳｲﾜｲﾀﾞﾆ","pref":"鳥取県","city":"鳥取市","address":"国府町石井谷"},
{"zip_code":"6800203","kana_pref":"ﾄｯﾄﾘｹﾝ","kana_city":"ﾄｯﾄﾘｼ","kana_address":"ｺｸﾌﾁｮｳｵｵｲｼ","pref":"鳥取県","city":"鳥取市","address":"国府町大石"},
{"zip_code":"6800144","kana_pref":"ﾄｯﾄﾘｹﾝ","kana_city":"ﾄｯﾄﾘｼ","kana_address":"ｺｸﾌﾁｮｳｵｶﾏｽ","pref":"鳥取県","city":"鳥取市","address":"国府町岡益"},
{"zip_code":"6808063","kana_pref":"ﾄｯﾄﾘｹﾝ","kana_city":"ﾄｯﾄﾘｼ","kana_address":"ｺｸﾌﾁｮｳｵｸﾀﾞﾆ","pref":"鳥取県","city":"鳥取市","address":"国府町奥谷"},
{"zip_code":"6800214","kana_pref":"ﾄｯﾄﾘｹﾝ","kana_city":"ﾄｯﾄﾘｼ","kana_address":"ｺｸﾌﾁｮｳｶﾐｱﾗﾌﾈ","pref":"鳥取県","city":"鳥取市","address":"国府町上荒舟"},
{"zip_code":"6800213","kana_pref":"ﾄｯﾄﾘｹﾝ","kana_city":"ﾄｯﾄﾘｼ","kana_address":"ｺｸﾌﾁｮｳｶﾐﾜｼﾞ","pref":"鳥取県","city":"鳥取市","address":"国府町上上地"},
{"zip_code":"6800221","kana_pref":"ﾄｯﾄﾘｹﾝ","kana_city":"ﾄｯﾄﾘｼ","kana_address":"ｺｸﾌﾁｮｳｶﾝｺﾞ","pref":"鳥取県","city":"鳥取市","address":"国府町神護"},
{"zip_code":"6800208","kana_pref":"ﾄｯﾄﾘｹﾝ","kana_city":"ﾄｯﾄﾘｼ","kana_address":"ｺｸﾌﾁｮｳｷﾊﾗ","pref":"鳥取県","city":"鳥取市","address":"国府町木原"},
{"zip_code":"6800132","kana_pref":"ﾄｯﾄﾘｹﾝ","kana_city":"ﾄｯﾄﾘｼ","kana_address":"ｺｸﾌﾁｮｳｺｳｶﾞｹ","pref":"鳥取県","city":"鳥取市","address":"国府町神垣"},
{"zip_code":"6800155","kana_pref":"ﾄｯﾄﾘｹﾝ","kana_city":"ﾄｯﾄﾘｼ","kana_address":"ｺｸﾌﾁｮｳｺｸﾌﾞﾝｼﾞ","pref":"鳥取県","city":"鳥取市","address":"国府町国分寺"},
{"zip_code":"6800154","kana_pref":"ﾄｯﾄﾘｹﾝ","kana_city":"ﾄｯﾄﾘｼ","kana_address":"ｺｸﾌﾁｮｳｻﾝﾀﾞｲｼﾞ","pref":"鳥取県","city":"鳥取市","address":"国府町三代寺"},
{"zip_code":"6800205","kana_pref":"ﾄｯﾄﾘｹﾝ","kana_city":"ﾄｯﾄﾘｼ","kana_address":"ｺｸﾌﾁｮｳｼﾞｯｺｸ","pref":"鳥取県","city":"鳥取市","address":"国府町拾石"},
{"zip_code":"6800207","kana_pref":"ﾄｯﾄﾘｹﾝ","kana_city":"ﾄｯﾄﾘｼ","kana_address":"ｺｸﾌﾁｮｳｼﾓｷﾊﾗ","pref":"鳥取県","city":"鳥取市","address":"国府町下木原"},
{"zip_code":"6808066","kana_pref":"ﾄｯﾄﾘｹﾝ","kana_city":"ﾄｯﾄﾘｼ","kana_address":"ｺｸﾌﾁｮｳｼﾝﾄﾞｵﾘ","pref":"鳥取県","city":"鳥取市","address":"国府町新通り"},
{"zip_code":"6808065","kana_pref":"ﾄｯﾄﾘｹﾝ","kana_city":"ﾄｯﾄﾘｼ","kana_address":"ｺｸﾌﾁｮｳｼﾝﾏﾁ","pref":"鳥取県","city":"鳥取市","address":"国府町新町"},
{"zip_code":"6800211","kana_pref":"ﾄｯﾄﾘｹﾝ","kana_city":"ﾄｯﾄﾘｼ","kana_address":"ｺｸﾌﾁｮｳｽｶﾞﾉ","pref":"鳥取県","city":"鳥取市","address":"国府町菅野"},
{"zip_code":"6800134","kana_pref":"ﾄｯﾄﾘｹﾝ","kana_city":"ﾄｯﾄﾘｼ","kana_address":"ｺｸﾌﾁｮｳｽﾝｽﾞ","pref":"鳥取県","city":"鳥取市","address":"国府町清水"},
{"zip_code":"6800131","kana_pref":"ﾄｯﾄﾘｹﾝ","kana_city":"ﾄｯﾄﾘｼ","kana_address":"ｺｸﾌﾁｮｳﾀｶｵｶ","pref":"鳥取県","city":"鳥取市","address":"国府町高岡"},
{"zip_code":"6800135","kana_pref":"ﾄｯﾄﾘｹﾝ","kana_city":"ﾄｯﾄﾘｼ","kana_address":"ｺｸﾌﾁｮｳﾀﾆ","pref":"鳥取県","city":"鳥取市","address":"国府町谷"},
{"zip_code":"6800143","kana_pref":"ﾄｯﾄﾘｹﾝ","kana_city":"ﾄｯﾄﾘｼ","kana_address":"ｺｸﾌﾁｮｳﾀﾏﾎﾞｺ","pref":"鳥取県","city":"鳥取市","address":"国府町玉鉾"},
{"zip_code":"6800156","kana_pref":"ﾄｯﾄﾘｹﾝ","kana_city":"ﾄｯﾄﾘｼ","kana_address":"ｺｸﾌﾁｮｳﾁｭｳｺﾞｳ","pref":"鳥取県","city":"鳥取市","address":"国府町中郷"},
{"zip_code":"6800152","kana_pref":"ﾄｯﾄﾘｹﾝ","kana_city":"ﾄｯﾄﾘｼ","kana_address":"ｺｸﾌﾁｮｳﾁｮｳ","pref":"鳥取県","city":"鳥取市","address":"国府町庁"},
{"zip_code":"6800206","kana_pref":"ﾄｯﾄﾘｹﾝ","kana_city":"ﾄｯﾄﾘｼ","kana_address":"ｺｸﾌﾁｮｳﾄﾁﾓﾄ","pref":"鳥取県","city":"鳥取市","address":"国府町栃本"},
{"zip_code":"6800222","kana_pref":"ﾄｯﾄﾘｹﾝ","kana_city":"ﾄｯﾄﾘｼ","kana_address":"ｺｸﾌﾁｮｳﾄﾉ","pref":"鳥取県","city":"鳥取市","address":"国府町殿"},
{"zip_code":"6800223","kana_pref":"ﾄｯﾄﾘｹﾝ","kana_city":"ﾄｯﾄﾘｼ","kana_address":"ｺｸﾌﾁｮｳﾅｶｶﾞﾜﾗ","pref":"鳥取県","city":"鳥取市","address":"国府町中河原"},
{"zip_code":"6800204","kana_pref":"ﾄｯﾄﾘｹﾝ","kana_city":"ﾄｯﾄﾘｼ","kana_address":"ｺｸﾌﾁｮｳﾅﾜｼﾛ","pref":"鳥取県","city":"鳥取市","address":"国府町楠城"},
{"zip_code":"6800226","kana_pref":"ﾄｯﾄﾘｹﾝ","kana_city":"ﾄｯﾄﾘｼ","kana_address":"ｺｸﾌﾁｮｳﾆｲ","pref":"鳥取県","city":"鳥取市","address":"国府町新井"},
{"zip_code":"6800145","kana_pref":"ﾄｯﾄﾘｹﾝ","kana_city":"ﾄｯﾄﾘｼ","kana_address":"ｺｸﾌﾁｮｳﾋﾛｾ","pref":"鳥取県","city":"鳥取市","address":"国府町広西"},
{"zip_code":"6808064","kana_pref":"ﾄｯﾄﾘｹﾝ","kana_city":"ﾄｯﾄﾘｼ","kana_address":"ｺｸﾌﾁｮｳﾌﾞﾝｼﾞｮｳ","pref":"鳥取県","city":"鳥取市","address":"国府町分上"},
{"zip_code":"6800153","kana_pref":"ﾄｯﾄﾘｹﾝ","kana_city":"ﾄｯﾄﾘｼ","kana_address":"ｺｸﾌﾁｮｳﾎｯｹｼﾞ","pref":"鳥取県","city":"鳥取市","address":"国府町法花寺"},
{"zip_code":"6800146","kana_pref":"ﾄｯﾄﾘｹﾝ","kana_city":"ﾄｯﾄﾘｼ","kana_address":"ｺｸﾌﾁｮｳﾏﾁﾔ","pref":"鳥取県","city":"鳥取市","address":"国府町町屋"},
{"zip_code":"6800224","kana_pref":"ﾄｯﾄﾘｹﾝ","kana_city":"ﾄｯﾄﾘｼ","kana_address":"ｺｸﾌﾁｮｳﾏﾂｵ","pref":"鳥取県","city":"鳥取市","address":"国府町松尾"},
{"zip_code":"6800141","kana_pref":"ﾄｯﾄﾘｹﾝ","kana_city":"ﾄｯﾄﾘｼ","kana_address":"ｺｸﾌﾁｮｳﾐﾀﾆ","pref":"鳥取県","city":"鳥取市","address":"国府町美歎"},
{"zip_code":"6800151","kana_pref":"ﾄｯﾄﾘｹﾝ","kana_city":"ﾄｯﾄﾘｼ","kana_address":"ｺｸﾌﾁｮｳﾐﾔﾉｼﾀ","pref":"鳥取県","city":"鳥取市","address":"国府町宮下"},
{"zip_code":"6800215","kana_pref":"ﾄｯﾄﾘｹﾝ","kana_city":"ﾄｯﾄﾘｼ","kana_address":"ｺｸﾌﾁｮｳﾔﾏｻｷ","pref":"鳥取県","city":"鳥取市","address":"国府町山崎"},
{"zip_code":"6800133","kana_pref":"ﾄｯﾄﾘｹﾝ","kana_city":"ﾄｯﾄﾘｼ","kana_address":"ｺｸﾌﾁｮｳﾔﾏﾈ","pref":"鳥取県","city":"鳥取市","address":"国府町山根"},
{"zip_code":"6800225","kana_pref":"ﾄｯﾄﾘｹﾝ","kana_city":"ﾄｯﾄﾘｼ","kana_address":"ｺｸﾌﾁｮｳﾖｼﾉ","pref":"鳥取県","city":"鳥取市","address":"国府町吉野"},
{"zip_code":"6800212","kana_pref":"ﾄｯﾄﾘｹﾝ","kana_city":"ﾄｯﾄﾘｼ","kana_address":"ｺｸﾌﾁｮｳﾜｼﾞ","pref":"鳥取県","city":"鳥取市","address":"国府町上地"},
{"zip_code":"6800073","kana_pref":"ﾄｯﾄﾘｹﾝ","kana_city":"ﾄｯﾄﾘｼ","kana_address":"ｺｻﾞｲ","pref":"鳥取県","city":"鳥取市","address":"小西谷"},
{"zip_code":"6800932","kana_pref":"ﾄｯﾄﾘｹﾝ","kana_city":"ﾄｯﾄﾘｼ","kana_address":"ｺﾞﾀﾝﾀﾞﾁｮｳ","pref":"鳥取県","city":"鳥取市","address":"五反田町"},
{"zip_code":"6800813","kana_pref":"ﾄｯﾄﾘｹﾝ","kana_city":"ﾄｯﾄﾘｼ","kana_address":"ｺﾄﾌﾞｷﾁｮｳ","pref":"鳥取県","city":"鳥取市","address":"寿町"},
{"zip_code":"6800946","kana_pref":"ﾄｯﾄﾘｹﾝ","kana_city":"ﾄｯﾄﾘｼ","kana_address":"ｺﾔﾏﾁｮｳ","pref":"鳥取県","city":"鳥取市","address":"湖山町"},
{"zip_code":"6800942","kana_pref":"ﾄｯﾄﾘｹﾝ","kana_city":"ﾄｯﾄﾘｼ","kana_address":"ｺﾔﾏﾁｮｳﾋｶﾞｼ","pref":"鳥取県","city":"鳥取市","address":"湖山町東"},
{"zip_code":"6800947","kana_pref":"ﾄｯﾄﾘｹﾝ","kana_city":"ﾄｯﾄﾘｼ","kana_address":"ｺﾔﾏﾁｮｳﾆｼ","pref":"鳥取県","city":"鳥取市","address":"湖山町西"},
{"zip_code":"6800945","kana_pref":"ﾄｯﾄﾘｹﾝ","kana_city":"ﾄｯﾄﾘｼ","kana_address":"ｺﾔﾏﾁｮｳﾐﾅﾐ","pref":"鳥取県","city":"鳥取市","address":"湖山町南"},
{"zip_code":"6800941","kana_pref":"ﾄｯﾄﾘｹﾝ","kana_city":"ﾄｯﾄﾘｼ","kana_address":"ｺﾔﾏﾁｮｳｷﾀ","pref":"鳥取県","city":"鳥取市","address":"湖山町北"},
{"zip_code":"6800021","kana_pref":"ﾄｯﾄﾘｹﾝ","kana_city":"ﾄｯﾄﾘｼ","kana_address":"ｻﾞｲﾓｸﾁｮｳ","pref":"鳥取県","city":"鳥取市","address":"材木町"},
{"zip_code":"6800823","kana_pref":"ﾄｯﾄﾘｹﾝ","kana_city":"ﾄｯﾄﾘｼ","kana_address":"ｻｲﾜｲﾁｮｳ","pref":"鳥取県","city":"鳥取市","address":"幸町"},
{"zip_code":"6800831","kana_pref":"ﾄｯﾄﾘｹﾝ","kana_city":"ﾄｯﾄﾘｼ","kana_address":"ｻｶｴﾏﾁ","pref":"鳥取県","city":"鳥取市","address":"栄町"},
{"zip_code":"6800853","kana_pref":"ﾄｯﾄﾘｹﾝ","kana_city":"ﾄｯﾄﾘｼ","kana_address":"ｻｸﾗﾀﾞﾆ","pref":"鳥取県","city":"鳥取市","address":"桜谷"},
{"zip_code":"6800935","kana_pref":"ﾄｯﾄﾘｹﾝ","kana_city":"ﾄｯﾄﾘｼ","kana_address":"ｻﾄﾆ","pref":"鳥取県","city":"鳥取市","address":"里仁"},
{"zip_code":"6801151","kana_pref":"ﾄｯﾄﾘｹﾝ","kana_city":"ﾄｯﾄﾘｼ","kana_address":"ｼﾄﾘ","pref":"鳥取県","city":"鳥取市","address":"倭文"},
{"zip_code":"6801174","kana_pref":"ﾄｯﾄﾘｹﾝ","kana_city":"ﾄｯﾄﾘｼ","kana_address":"ｼﾉｻﾞｶ","pref":"鳥取県","city":"鳥取市","address":"篠坂"},
{"zip_code":"6801411","kana_pref":"ﾄｯﾄﾘｹﾝ","kana_city":"ﾄｯﾄﾘｼ","kana_address":"ｼﾏ","pref":"鳥取県","city":"鳥取市","address":"嶋"},
{"zip_code":"6801165","kana_pref":"ﾄｯﾄﾘｹﾝ","kana_city":"ﾄｯﾄﾘｼ","kana_address":"ｼﾓｱｼﾞﾉ","pref":"鳥取県","city":"鳥取市","address":"下味野"},
{"zip_code":"6801154","kana_pref":"ﾄｯﾄﾘｹﾝ","kana_city":"ﾄｯﾄﾘｼ","kana_address":"ｼﾓｽﾅﾐ","pref":"鳥取県","city":"鳥取市","address":"下砂見"},
{"zip_code":"6801414","kana_pref":"ﾄｯﾄﾘｹﾝ","kana_city":"ﾄｯﾄﾘｼ","kana_address":"ｼﾓﾀﾞﾝ","pref":"鳥取県","city":"鳥取市","address":"下段"},
{"zip_code":"6800912","kana_pref":"ﾄｯﾄﾘｹﾝ","kana_city":"ﾄｯﾄﾘｼ","kana_address":"ｼｮｳｴｲﾁｮｳ","pref":"鳥取県","city":"鳥取市","address":"商栄町"},
{"zip_code":"6800017","kana_pref":"ﾄｯﾄﾘｹﾝ","kana_city":"ﾄｯﾄﾘｼ","kana_address":"ｼｮｳﾄｸﾁｮｳ","pref":"鳥取県","city":"鳥取市","address":"尚徳町"},
{"zip_code":"6800922","kana_pref":"ﾄｯﾄﾘｹﾝ","kana_city":"ﾄｯﾄﾘｼ","kana_address":"ｼｮｳﾌﾞ","pref":"鳥取県","city":"鳥取市","address":"菖蒲"},
{"zip_code":"6800854","kana_pref":"ﾄｯﾄﾘｹﾝ","kana_city":"ﾄｯﾄﾘｼ","kana_address":"ｼｮｳﾚﾝｼﾞ","pref":"鳥取県","city":"鳥取市","address":"正蓮寺"},
{"zip_code":"6800056","kana_pref":"ﾄｯﾄﾘｹﾝ","kana_city":"ﾄｯﾄﾘｼ","kana_address":"ｼｮｸﾆﾝﾏﾁ","pref":"鳥取県","city":"鳥取市","address":"職人町"},
{"zip_code":"6800861","kana_pref":"ﾄｯﾄﾘｹﾝ","kana_city":"ﾄｯﾄﾘｼ","kana_address":"ｼﾝ","pref":"鳥取県","city":"鳥取市","address":"新"},
{"zip_code":"6800812","kana_pref":"ﾄｯﾄﾘｹﾝ","kana_city":"ﾄｯﾄﾘｼ","kana_address":"ｼﾝﾎﾝｼﾞﾁｮｳ","pref":"鳥取県","city":"鳥取市","address":"新品治町"},
{"zip_code":"6800035","kana_pref":"ﾄｯﾄﾘｹﾝ","kana_city":"ﾄｯﾄﾘｼ","kana_address":"ｼﾝﾏﾁ","pref":"鳥取県","city":"鳥取市","address":"新町"},
{"zip_code":"6800833","kana_pref":"ﾄｯﾄﾘｹﾝ","kana_city":"ﾄｯﾄﾘｼ","kana_address":"ｽｴﾋﾛｵﾝｾﾝﾁｮｳ","pref":"鳥取県","city":"鳥取市","address":"末広温泉町"},
{"zip_code":"6800875","kana_pref":"ﾄｯﾄﾘｹﾝ","kana_city":"ﾄｯﾄﾘｼ","kana_address":"ｽﾂﾞ","pref":"鳥取県","city":"鳥取市","address":"数津"},
{"zip_code":"6801435","kana_pref":"ﾄｯﾄﾘｹﾝ","kana_city":"ﾄｯﾄﾘｼ","kana_address":"ｾﾀｸﾞﾗ","pref":"鳥取県","city":"鳥取市","address":"瀬田蔵"},
{"zip_code":"6801432","kana_pref":"ﾄｯﾄﾘｹﾝ","kana_city":"ﾄｯﾄﾘｼ","kana_address":"ｿｳﾛｸﾊﾞﾗ","pref":"鳥取県","city":"鳥取市","address":"双六原"},
{"zip_code":"6801418","kana_pref":"ﾄｯﾄﾘｹﾝ","kana_city":"ﾄｯﾄﾘｼ","kana_address":"ﾀﾞｲｶｸ","pref":"鳥取県","city":"鳥取市","address":"大桷"},
{"zip_code":"6800863","kana_pref":"ﾄｯﾄﾘｹﾝ","kana_city":"ﾄｯﾄﾘｼ","kana_address":"ﾀﾞｲｶｸｼﾞ","pref":"鳥取県","city":"鳥取市","address":"大覚寺"},
{"zip_code":"6801416","kana_pref":"ﾄｯﾄﾘｹﾝ","kana_city":"ﾄｯﾄﾘｼ","kana_address":"ﾀｶｽﾞﾐ","pref":"鳥取県","city":"鳥取市","address":"高住"},
{"zip_code":"6800045","kana_pref":"ﾄｯﾄﾘｹﾝ","kana_city":"ﾄｯﾄﾘｼ","kana_address":"ﾀﾞｲｸﾏﾁｶﾞｼﾗ","pref":"鳥取県","city":"鳥取市","address":"大工町頭"},
{"zip_code":"6800072","kana_pref":"ﾄｯﾄﾘｹﾝ","kana_city":"ﾄｯﾄﾘｼ","kana_address":"ﾀｷﾔﾏ","pref":"鳥取県","city":"鳥取市","address":"滝山"},
{"zip_code":"6801162","kana_pref":"ﾄｯﾄﾘｹﾝ","kana_city":"ﾄｯﾄﾘｼ","kana_address":"ﾀｹﾅﾘ","pref":"鳥取県","city":"鳥取市","address":"竹生"},
{"zip_code":"6800804","kana_pref":"ﾄｯﾄﾘｹﾝ","kana_city":"ﾄｯﾄﾘｼ","kana_address":"ﾀｼﾏ","pref":"鳥取県","city":"鳥取市","address":"田島"},
{"zip_code":"6800061","kana_pref":"ﾄｯﾄﾘｹﾝ","kana_city":"ﾄｯﾄﾘｼ","kana_address":"ﾀﾁｶﾜﾁｮｳ","pref":"鳥取県","city":"鳥取市","address":"立川町"},
{"zip_code":"6801152","kana_pref":"ﾄｯﾄﾘｹﾝ","kana_city":"ﾄｯﾄﾘｼ","kana_address":"ﾀﾏﾂﾞ","pref":"鳥取県","city":"鳥取市","address":"玉津"},
{"zip_code":"6800943","kana_pref":"ﾄｯﾄﾘｹﾝ","kana_city":"ﾄｯﾄﾘｼ","kana_address":"ﾀﾘﾔﾏ","pref":"鳥取県","city":"鳥取市","address":"足山"},
{"zip_code":"6800032","kana_pref":"ﾄｯﾄﾘｹﾝ","kana_city":"ﾄｯﾄﾘｼ","kana_address":"ﾁｬﾏﾁ","pref":"鳥取県","city":"鳥取市","address":"茶町"},
{"zip_code":"6800911","kana_pref":"ﾄｯﾄﾘｹﾝ","kana_city":"ﾄｯﾄﾘｼ","kana_address":"ﾁﾖﾐ","pref":"鳥取県","city":"鳥取市","address":"千代水"},
{"zip_code":"6800053","kana_pref":"ﾄｯﾄﾘｹﾝ","kana_city":"ﾄｯﾄﾘｼ","kana_address":"ﾃﾗﾏﾁ","pref":"鳥取県","city":"鳥取市","address":"寺町"},
{"zip_code":"6800803","kana_pref":"ﾄｯﾄﾘｹﾝ","kana_city":"ﾄｯﾄﾘｼ","kana_address":"ﾃﾞﾝｴﾝﾁｮｳ","pref":"鳥取県","city":"鳥取市","address":"田園町"},
{"zip_code":"6800847","kana_pref":"ﾄｯﾄﾘｹﾝ","kana_city":"ﾄｯﾄﾘｼ","kana_address":"ﾃﾝｼﾞﾝﾁｮｳ","pref":"鳥取県","city":"鳥取市","address":"天神町"},
{"zip_code":"6800934","kana_pref":"ﾄｯﾄﾘｹﾝ","kana_city":"ﾄｯﾄﾘｼ","kana_address":"ﾄｸﾉｵ","pref":"鳥取県","city":"鳥取市","address":"徳尾"},
{"zip_code":"6800933","kana_pref":"ﾄｯﾄﾘｹﾝ","kana_city":"ﾄｯﾄﾘｼ","kana_address":"ﾄｸﾖｼ","pref":"鳥取県","city":"鳥取市","address":"徳吉"},
{"zip_code":"6800845","kana_pref":"ﾄｯﾄﾘｹﾝ","kana_city":"ﾄｯﾄﾘｼ","kana_address":"ﾄﾐﾔｽ","pref":"鳥取県","city":"鳥取市","address":"富安"},
{"zip_code":"6801155","kana_pref":"ﾄｯﾄﾘｹﾝ","kana_city":"ﾄｯﾄﾘｼ","kana_address":"ﾅｶｽﾅﾐ","pref":"鳥取県","city":"鳥取市","address":"中砂見"},
{"zip_code":"6800016","kana_pref":"ﾄｯﾄﾘｹﾝ","kana_city":"ﾄｯﾄﾘｼ","kana_address":"ﾅｶﾏﾁ","pref":"鳥取県","city":"鳥取市","address":"中町"},
{"zip_code":"6801175","kana_pref":"ﾄｯﾄﾘｹﾝ","kana_city":"ﾄｯﾄﾘｼ","kana_address":"ﾅｶﾑﾗ","pref":"鳥取県","city":"鳥取市","address":"中村"},
{"zip_code":"6801436","kana_pref":"ﾄｯﾄﾘｹﾝ","kana_city":"ﾄｯﾄﾘｼ","kana_address":"ﾅｶﾞﾗ","pref":"鳥取県","city":"鳥取市","address":"長柄"},
{"zip_code":"6800033","kana_pref":"ﾄｯﾄﾘｹﾝ","kana_city":"ﾄｯﾄﾘｼ","kana_address":"ﾆｶｲﾏﾁ","pref":"鳥取県","city":"鳥取市","address":"二階町"},
{"zip_code":"6801173","kana_pref":"ﾄｯﾄﾘｹﾝ","kana_city":"ﾄｯﾄﾘｼ","kana_address":"ﾆｼｲﾏｻﾞｲｹ","pref":"鳥取県","city":"鳥取市","address":"西今在家"},
{"zip_code":"6801145","kana_pref":"ﾄｯﾄﾘｹﾝ","kana_city":"ﾄｯﾄﾘｼ","kana_address":"ﾆｼｴﾝﾂｳｼﾞ","pref":"鳥取県","city":"鳥取市","address":"西円通寺"},
{"zip_code":"6800811","kana_pref":"ﾄｯﾄﾘｹﾝ","kana_city":"ﾄｯﾄﾘｼ","kana_address":"ﾆｼﾎﾝｼﾞ","pref":"鳥取県","city":"鳥取市","address":"西品治"},
{"zip_code":"6800022","kana_pref":"ﾄｯﾄﾘｹﾝ","kana_city":"ﾄｯﾄﾘｼ","kana_address":"ﾆｼﾏﾁ","pref":"鳥取県","city":"鳥取市","address":"西町"},
{"zip_code":"6801413","kana_pref":"ﾄｯﾄﾘｹﾝ","kana_city":"ﾄｯﾄﾘｼ","kana_address":"ﾉｻｶ","pref":"鳥取県","city":"鳥取市","address":"野坂"},
{"zip_code":"6800924","kana_pref":"ﾄｯﾄﾘｹﾝ","kana_city":"ﾄｯﾄﾘｼ","kana_address":"ﾉﾃﾞﾗ","pref":"鳥取県","city":"鳥取市","address":"野寺"},
{"zip_code":"6801142","kana_pref":"ﾄｯﾄﾘｹﾝ","kana_city":"ﾄｯﾄﾘｼ","kana_address":"ﾊｼﾓﾄ","pref":"鳥取県","city":"鳥取市","address":"橋本"},
{"zip_code":"6801153","kana_pref":"ﾄｯﾄﾘｹﾝ","kana_city":"ﾄｯﾄﾘｼ","kana_address":"ﾊｾ","pref":"鳥取県","city":"鳥取市","address":"長谷"},
{"zip_code":"6801143","kana_pref":"ﾄｯﾄﾘｹﾝ","kana_city":"ﾄｯﾄﾘｼ","kana_address":"ﾊﾂｻｶ","pref":"鳥取県","city":"鳥取市","address":"八坂"},
{"zip_code":"6800923","kana_pref":"ﾄｯﾄﾘｹﾝ","kana_city":"ﾄｯﾄﾘｼ","kana_address":"ﾊｯﾄﾘ","pref":"鳥取県","city":"鳥取市","address":"服部"},
{"zip_code":"6801131","kana_pref":"ﾄｯﾄﾘｹﾝ","kana_city":"ﾄｯﾄﾘｼ","kana_address":"ﾊﾞﾊﾞ","pref":"鳥取県","city":"鳥取市","address":"馬場"},
{"zip_code":"6800014","kana_pref":"ﾄｯﾄﾘｹﾝ","kana_city":"ﾄｯﾄﾘｼ","kana_address":"ﾊﾞﾊﾞﾉﾁｮｳ","pref":"鳥取県","city":"鳥取市","address":"馬場町"},
{"zip_code":"6800001","kana_pref":"ﾄｯﾄﾘｹﾝ","kana_city":"ﾄｯﾄﾘｼ","kana_address":"ﾊﾏｻｶ","pref":"鳥取県","city":"鳥取市","address":"浜坂"},
{"zip_code":"6800002","kana_pref":"ﾄｯﾄﾘｹﾝ","kana_city":"ﾄｯﾄﾘｼ","kana_address":"ﾊﾏｻｶﾋｶﾞｼ","pref":"鳥取県","city":"鳥取市","address":"浜坂東"},
{"zip_code":"6800852","kana_pref":"ﾄｯﾄﾘｹﾝ","kana_city":"ﾄｯﾄﾘｼ","kana_address":"ﾋｶﾞｼｲﾏｻﾞｲｹ","pref":"鳥取県","city":"鳥取市","address":"東今在家"},
{"zip_code":"6800835","kana_pref":"ﾄｯﾄﾘｹﾝ","kana_city":"ﾄｯﾄﾘｼ","kana_address":"ﾋｶﾞｼﾎﾝｼﾞﾁｮｳ","pref":"鳥取県","city":"鳥取市","address":"東品治町"},
{"zip_code":"6800011","kana_pref":"ﾄｯﾄﾘｹﾝ","kana_city":"ﾄｯﾄﾘｼ","kana_address":"ﾋｶﾞｼﾏﾁ","pref":"鳥取県","city":"鳥取市","address":"東町"},
{"zip_code":"6801438","kana_pref":"ﾄｯﾄﾘｹﾝ","kana_city":"ﾄｯﾄﾘｼ","kana_address":"ﾌｸｲ","pref":"鳥取県","city":"鳥取市","address":"福井"},
{"zip_code":"6808021","kana_pref":"ﾄｯﾄﾘｹﾝ","kana_city":"ﾄｯﾄﾘｼ","kana_address":"ﾌｸﾍﾞﾁｮｳｸｼﾞﾗ","pref":"鳥取県","city":"鳥取市","address":"福部町久志羅"},
{"zip_code":"6808022","kana_pref":"ﾄｯﾄﾘｹﾝ","kana_city":"ﾄｯﾄﾘｼ","kana_address":"ﾌｸﾍﾞﾁｮｳｻｺ","pref":"鳥取県","city":"鳥取市","address":"福部町左近"},
{"zip_code":"6800944","kana_pref":"ﾄｯﾄﾘｹﾝ","kana_city":"ﾄｯﾄﾘｼ","kana_address":"ﾌｾ","pref":"鳥取県","city":"鳥取市","address":"布勢"},
{"zip_code":"6800865","kana_pref":"ﾄｯﾄﾘｹﾝ","kana_city":"ﾄｯﾄﾘｼ","kana_address":"ﾌﾙｲﾁ","pref":"鳥取県","city":"鳥取市","address":"古市"},
{"zip_code":"6800921","kana_pref":"ﾄｯﾄﾘｹﾝ","kana_city":"ﾄｯﾄﾘｼ","kana_address":"ﾌﾙﾐ","pref":"鳥取県","city":"鳥取市","address":"古海"},
{"zip_code":"6800074","kana_pref":"ﾄｯﾄﾘｹﾝ","kana_city":"ﾄｯﾄﾘｼ","kana_address":"ﾎﾞｳｶﾞｷ","pref":"鳥取県","city":"鳥取市","address":"卯垣"},
{"zip_code":"6800042","kana_pref":"ﾄｯﾄﾘｹﾝ","kana_city":"ﾄｯﾄﾘｼ","kana_address":"ﾎｳﾁｮｳﾆﾝﾏﾁ","pref":"鳥取県","city":"鳥取市","address":"庖丁人町"},
{"zip_code":"6801426","kana_pref":"ﾄｯﾄﾘｹﾝ","kana_city":"ﾄｯﾄﾘｼ","kana_address":"ﾎｿﾐ","pref":"鳥取県","city":"鳥取市","address":"細見"},
{"zip_code":"6801434","kana_pref":"ﾄｯﾄﾘｹﾝ","kana_city":"ﾄｯﾄﾘｼ","kana_address":"ﾎﾗﾀﾞﾆ","pref":"鳥取県","city":"鳥取市","address":"洞谷"},
{"zip_code":"6800031","kana_pref":"ﾄｯﾄﾘｹﾝ","kana_city":"ﾄｯﾄﾘｼ","kana_address":"ﾎﾝﾏﾁ","pref":"鳥取県","city":"鳥取市","address":"本町"},
{"zip_code":"6801424","kana_pref":"ﾄｯﾄﾘｹﾝ","kana_city":"ﾄｯﾄﾘｼ","kana_address":"ﾏｷﾊﾞﾗ","pref":"鳥取県","city":"鳥取市","address":"槇原"},
{"zip_code":"6801423","kana_pref":"ﾄｯﾄﾘｹﾝ","kana_city":"ﾄｯﾄﾘｼ","kana_address":"ﾏﾂｶﾞﾐ","pref":"鳥取県","city":"鳥取市","address":"松上"},
{"zip_code":"6800801","kana_pref":"ﾄｯﾄﾘｹﾝ","kana_city":"ﾄｯﾄﾘｼ","kana_address":"ﾏﾂﾅﾐﾁｮｳ","pref":"鳥取県","city":"鳥取市","address":"松並町"},
{"zip_code":"6801444","kana_pref":"ﾄｯﾄﾘｹﾝ","kana_city":"ﾄｯﾄﾘｼ","kana_address":"ﾏﾂﾊﾞﾗ","pref":"鳥取県","city":"鳥取市","address":"松原"},
{"zip_code":"6800873","kana_pref":"ﾄｯﾄﾘｹﾝ","kana_city":"ﾄｯﾄﾘｼ","kana_address":"ﾏﾄﾊﾞ","pref":"鳥取県","city":"鳥取市","address":"的場"},
{"zip_code":"6800006","kana_pref":"ﾄｯﾄﾘｹﾝ","kana_city":"ﾄｯﾄﾘｼ","kana_address":"ﾏﾙﾔﾏﾁｮｳ","pref":"鳥取県","city":"鳥取市","address":"丸山町"},
{"zip_code":"6800915","kana_pref":"ﾄｯﾄﾘｹﾝ","kana_city":"ﾄｯﾄﾘｼ","kana_address":"ﾐﾄﾞﾘｶﾞｵｶ","pref":"鳥取県","city":"鳥取市","address":"緑ケ丘"},
{"zip_code":"6800906","kana_pref":"ﾄｯﾄﾘｹﾝ","kana_city":"ﾄｯﾄﾘｼ","kana_address":"ﾐﾅﾄﾏﾁ","pref":"鳥取県","city":"鳥取市","address":"港町"},
{"zip_code":"6800903","kana_pref":"ﾄｯﾄﾘｹﾝ","kana_city":"ﾄｯﾄﾘｼ","kana_address":"ﾐﾅﾐｶﾞｸﾏ","pref":"鳥取県","city":"鳥取市","address":"南隈"},
{"zip_code":"6800814","kana_pref":"ﾄｯﾄﾘｹﾝ","kana_city":"ﾄｯﾄﾘｼ","kana_address":"ﾐﾅﾐﾏﾁ","pref":"鳥取県","city":"鳥取市","address":"南町"},
{"zip_code":"6800914","kana_pref":"ﾄｯﾄﾘｹﾝ","kana_city":"ﾄｯﾄﾘｼ","kana_address":"ﾐﾅﾐﾔｽﾅｶﾞ","pref":"鳥取県","city":"鳥取市","address":"南安長"},
{"zip_code":"6800843","kana_pref":"ﾄｯﾄﾘｹﾝ","kana_city":"ﾄｯﾄﾘｼ","kana_address":"ﾐﾅﾐﾖｼｶﾀ","pref":"鳥取県","city":"鳥取市","address":"南吉方"},
{"zip_code":"6801412","kana_pref":"ﾄｯﾄﾘｹﾝ","kana_city":"ﾄｯﾄﾘｼ","kana_address":"ﾐﾔﾀﾞﾆ","pref":"鳥取県","city":"鳥取市","address":"宮谷"},
{"zip_code":"6800872","kana_pref":"ﾄｯﾄﾘｹﾝ","kana_city":"ﾄｯﾄﾘｼ","kana_address":"ﾐﾔﾅｶﾞ","pref":"鳥取県","city":"鳥取市","address":"宮長"},
{"zip_code":"6801428","kana_pref":"ﾄｯﾄﾘｹﾝ","kana_city":"ﾄｯﾄﾘｼ","kana_address":"ﾐﾔﾏｸﾞﾁ","pref":"鳥取県","city":"鳥取市","address":"三山口"},
{"zip_code":"6801431","kana_pref":"ﾄｯﾄﾘｹﾝ","kana_city":"ﾄｯﾄﾘｼ","kana_address":"ﾐｮｳﾄｸｼﾞ","pref":"鳥取県","city":"鳥取市","address":"妙徳寺"},
{"zip_code":"6801161","kana_pref":"ﾄｯﾄﾘｹﾝ","kana_city":"ﾄｯﾄﾘｼ","kana_address":"ﾑｺｳｸﾞﾆﾔｽ","pref":"鳥取県","city":"鳥取市","address":"向国安"},
{"zip_code":"6800034","kana_pref":"ﾄｯﾄﾘｹﾝ","kana_city":"ﾄｯﾄﾘｼ","kana_address":"ﾓﾄｳｵﾏﾁ","pref":"鳥取県","city":"鳥取市","address":"元魚町"},
{"zip_code":"6800046","kana_pref":"ﾄｯﾄﾘｹﾝ","kana_city":"ﾄｯﾄﾘｼ","kana_address":"ﾓﾄﾀﾞｲｸﾏﾁ","pref":"鳥取県","city":"鳥取市","address":"元大工町"},
{"zip_code":"6801171","kana_pref":"ﾄｯﾄﾘｹﾝ","kana_city":"ﾄｯﾄﾘｼ","kana_address":"ﾓﾄﾀﾞｶ","pref":"鳥取県","city":"鳥取市","address":"本高"},
{"zip_code":"6800037","kana_pref":"ﾄｯﾄﾘｹﾝ","kana_city":"ﾄｯﾄﾘｼ","kana_address":"ﾓﾄﾏﾁ","pref":"鳥取県","city":"鳥取市","address":"元町"},
{"zip_code":"6800071","kana_pref":"ﾄｯﾄﾘｹﾝ","kana_city":"ﾄｯﾄﾘｼ","kana_address":"ﾓﾓﾀﾞﾆ","pref":"鳥取県","city":"鳥取市","address":"百谷"},
{"zip_code":"6800806","kana_pref":"ﾄｯﾄﾘｹﾝ","kana_city":"ﾄｯﾄﾘｼ","kana_address":"ﾔｸｼﾏﾁ","pref":"鳥取県","city":"鳥取市","address":"薬師町"},
{"zip_code":"6800913","kana_pref":"ﾄｯﾄﾘｹﾝ","kana_city":"ﾄｯﾄﾘｼ","kana_address":"ﾔｽﾅｶﾞ","pref":"鳥取県","city":"鳥取市","address":"安長"},
{"zip_code":"6801433","kana_pref":"ﾄｯﾄﾘｹﾝ","kana_city":"ﾄｯﾄﾘｼ","kana_address":"ﾔﾊｷﾞ","pref":"鳥取県","city":"鳥取市","address":"矢矯"},
{"zip_code":"6800008","kana_pref":"ﾄｯﾄﾘｹﾝ","kana_city":"ﾄｯﾄﾘｼ","kana_address":"ﾔﾏｼﾛﾁｮｳ","pref":"鳥取県","city":"鳥取市","address":"山城町"},
{"zip_code":"6800832","kana_pref":"ﾄｯﾄﾘｹﾝ","kana_city":"ﾄｯﾄﾘｼ","kana_address":"ﾔﾖｲﾁｮｳ","pref":"鳥取県","city":"鳥取市","address":"弥生町"},
{"zip_code":"6800007","kana_pref":"ﾄｯﾄﾘｹﾝ","kana_city":"ﾄｯﾄﾘｼ","kana_address":"ﾕﾄｺﾛﾁｮｳ","pref":"鳥取県","city":"鳥取市","address":"湯所町"},
{"zip_code":"6801163","kana_pref":"ﾄｯﾄﾘｹﾝ","kana_city":"ﾄｯﾄﾘｼ","kana_address":"ﾖｺﾏｸﾗ","pref":"鳥取県","city":"鳥取市","address":"横枕"},
{"zip_code":"6801442","kana_pref":"ﾄｯﾄﾘｹﾝ","kana_city":"ﾄｯﾄﾘｼ","kana_address":"ﾖｼｵｶｵﾝｾﾝﾁｮｳ","pref":"鳥取県","city":"鳥取市","address":"吉岡温泉町"},
{"zip_code":"6800842","kana_pref":"ﾄｯﾄﾘｹﾝ","kana_city":"ﾄｯﾄﾘｼ","kana_address":"ﾖｼｶﾀ","pref":"鳥取県","city":"鳥取市","address":"吉方"},
{"zip_code":"6800841","kana_pref":"ﾄｯﾄﾘｹﾝ","kana_city":"ﾄｯﾄﾘｼ","kana_address":"ﾖｼｶﾀｵﾝｾﾝ","pref":"鳥取県","city":"鳥取市","address":"吉方温泉"},
{"zip_code":"6800062","kana_pref":"ﾄｯﾄﾘｹﾝ","kana_city":"ﾄｯﾄﾘｼ","kana_address":"ﾖｼｶﾀﾁｮｳ","pref":"鳥取県","city":"鳥取市","address":"吉方町"},
{"zip_code":"6801441","kana_pref":"ﾄｯﾄﾘｹﾝ","kana_city":"ﾄｯﾄﾘｼ","kana_address":"ﾖｼﾀﾞ","pref":"鳥取県","city":"鳥取市","address":"良田"},
{"zip_code":"6800864","kana_pref":"ﾄｯﾄﾘｹﾝ","kana_city":"ﾄｯﾄﾘｼ","kana_address":"ﾖｼﾅﾘ","pref":"鳥取県","city":"鳥取市","address":"吉成"},
{"zip_code":"6800871","kana_pref":"ﾄｯﾄﾘｹﾝ","kana_city":"ﾄｯﾄﾘｼ","kana_address":"ﾖｼﾅﾘﾐﾅﾐﾏﾁ","pref":"鳥取県","city":"鳥取市","address":"吉成南町"},
{"zip_code":"6801443","kana_pref":"ﾄｯﾄﾘｹﾝ","kana_city":"ﾄｯﾄﾘｼ","kana_address":"ﾛｸﾀﾝﾀﾞ","pref":"鳥取県","city":"鳥取市","address":"六反田"},
{"zip_code":"6800051","kana_pref":"ﾄｯﾄﾘｹﾝ","kana_city":"ﾄｯﾄﾘｼ","kana_address":"ﾜｶｻﾏﾁ","pref":"鳥取県","city":"鳥取市","address":"若桜町"},
{"zip_code":"6800700","kana_pref":"ﾄｯﾄﾘｹﾝ","kana_city":"ﾔｽﾞｸﾞﾝﾜｶｻﾁｮｳ","kana_address":"","pref":"鳥取県","city":"八頭郡若桜町","address":""},
{"zip_code":"6800713","kana_pref":"ﾄｯﾄﾘｹﾝ","kana_city":"ﾔｽﾞｸﾞﾝﾜｶｻﾁｮｳ","kana_address":"ｱｶﾏﾂ","pref":"鳥取県","city":"八頭郡若桜町","address":"赤松"},
{"zip_code":"6800722","kana_pref":"ﾄｯﾄﾘｹﾝ","kana_city":"ﾔｽﾞｸﾞﾝﾜｶｻﾁｮｳ","kana_address":"ｱｻｲ","pref":"鳥取県","city":"八頭郡若桜町","address":"浅井"},
{"zip_code":"6800743","kana_pref":"ﾄｯﾄﾘｹﾝ","kana_city":"ﾔｽﾞｸﾞﾝﾜｶｻﾁｮｳ","kana_address":"ｲﾄｼﾛﾐ","pref":"鳥取県","city":"八頭郡若桜町","address":"糸白見"},
{"zip_code":"6800731","kana_pref":"ﾄｯﾄﾘｹﾝ","kana_city":"ﾔｽﾞｸﾞﾝﾜｶｻﾁｮｳ","kana_address":"ｲﾜﾔﾄﾞｳ","pref":"鳥取県","city":"八頭郡若桜町","address":"岩屋堂"},
{"zip_code":"6800741","kana_pref":"ﾄｯﾄﾘｹﾝ","kana_city":"ﾔｽﾞｸﾞﾝﾜｶｻﾁｮｳ","kana_address":"ｵｵｲ","pref":"鳥取県","city":"八頭郡若桜町","address":"大炊"},
{"zip_code":"6800733","kana_pref":"ﾄｯﾄﾘｹﾝ","kana_city":"ﾔｽﾞｸﾞﾝﾜｶｻﾁｮｳ","kana_address":"ｵｵﾉ","pref":"鳥取県","city":"八頭郡若桜町","address":"大野"},
{"zip_code":"6800735","kana_pref":"ﾄｯﾄﾘｹﾝ","kana_city":"ﾔｽﾞｸﾞﾝﾜｶｻﾁｮｳ","kana_address":"ｵﾁｵﾘ","pref":"鳥取県","city":"八頭郡若桜町","address":"落折"},
{"zip_code":"6800734","kana_pref":"ﾄｯﾄﾘｹﾝ","kana_city":"ﾔｽﾞｸﾞﾝﾜｶｻﾁｮｳ","kana_address":"ｵﾌﾞﾈ","pref":"鳥取県","city":"八頭郡若桜町","address":"小船"},
{"zip_code":"6800742","kana_pref":"ﾄｯﾄﾘｹﾝ","kana_city":"ﾔｽﾞｸﾞﾝﾜｶｻﾁｮｳ","kana_address":"ｷｼﾉ","pref":"鳥取県","city":"八頭郡若桜町","address":"岸野"},
{"zip_code":"6800714","kana_pref":"ﾄｯﾄﾘｹﾝ","kana_city":"ﾔｽﾞｸﾞﾝﾜｶｻﾁｮｳ","kana_address":"ｸﾙﾐﾉ","pref":"鳥取県","city":"八頭郡若桜町","address":"来見野"},
{"zip_code":"6800723","kana_pref":"ﾄｯﾄﾘｹﾝ","kana_city":"ﾔｽﾞｸﾞﾝﾜｶｻﾁｮｳ","kana_address":"ｺｳﾀﾞ","pref":"鳥取県","city":"八頭郡若桜町","address":"香田"},
{"zip_code":"6800745","kana_pref":"ﾄｯﾄﾘｹﾝ","kana_city":"ﾔｽﾞｸﾞﾝﾜｶｻﾁｮｳ","kana_address":"ｽｽﾐ","pref":"鳥取県","city":"八頭郡若桜町","address":"須澄"},
{"zip_code":"6800712","kana_pref":"ﾄｯﾄﾘｹﾝ","kana_city":"ﾔｽﾞｸﾞﾝﾜｶｻﾁｮｳ","kana_address":"ﾀｶﾉ","pref":"鳥取県","city":"八頭郡若桜町","address":"高野"},
{"zip_code":"6800728","kana_pref":"ﾄｯﾄﾘｹﾝ","kana_city":"ﾔｽﾞｸﾞﾝﾜｶｻﾁｮｳ","kana_address":"ﾂｸﾖﾈ","pref":"鳥取県","city":"八頭郡若桜町","address":"つく米"},
{"zip_code":"6800732","kana_pref":"ﾄｯﾄﾘｹﾝ","kana_city":"ﾔｽﾞｸﾞﾝﾜｶｻﾁｮｳ","kana_address":"ﾅｶﾊﾗ","pref":"鳥取県","city":"八頭郡若桜町","address":"中原"},
{"zip_code":"6800724","kana_pref":"ﾄｯﾄﾘｹﾝ","kana_city":"ﾔｽﾞｸﾞﾝﾜｶｻﾁｮｳ","kana_address":"ﾅｶﾞｽﾅ","pref":"鳥取県","city":"八頭郡若桜町","address":"長砂"},
{"zip_code":"6800744","kana_pref":"ﾄｯﾄﾘｹﾝ","kana_city":"ﾔｽﾞｸﾞﾝﾜｶｻﾁｮｳ","kana_address":"ﾈﾔｽ","pref":"鳥取県","city":"八頭郡若桜町","address":"根安"},
{"zip_code":"6800726","kana_pref":"ﾄｯﾄﾘｹﾝ","kana_city":"ﾔｽﾞｸﾞﾝﾜｶｻﾁｮｳ","kana_address":"ﾌﾁﾐ","pref":"鳥取県","city":"八頭郡若桜町","address":"淵見"},
{"zip_code":"6800711","kana_pref":"ﾄｯﾄﾘｹﾝ","kana_city":"ﾔｽﾞｸﾞﾝﾜｶｻﾁｮｳ","kana_address":"ﾐｸﾗ","pref":"鳥取県","city":"八頭郡若桜町","address":"三倉"},
{"zip_code":"6800727","kana_pref":"ﾄｯﾄﾘｹﾝ","kana_city":"ﾔｽﾞｸﾞﾝﾜｶｻﾁｮｳ","kana_address":"ﾐｮｳｶﾞﾀﾞﾆ","pref":"鳥取県","city":"八頭郡若桜町","address":"茗荷谷"},
{"zip_code":"6800715","kana_pref":"ﾄｯﾄﾘｹﾝ","kana_city":"ﾔｽﾞｸﾞﾝﾜｶｻﾁｮｳ","kana_address":"ﾓﾛｶﾞ","pref":"鳥取県","city":"八頭郡若桜町","address":"諸鹿"},
{"zip_code":"6800721","kana_pref":"ﾄｯﾄﾘｹﾝ","kana_city":"ﾔｽﾞｸﾞﾝﾜｶｻﾁｮｳ","kana_address":"ﾔﾄﾞﾗ","pref":"鳥取県","city":"八頭郡若桜町","address":"屋堂羅"},
{"zip_code":"6800725","kana_pref":"ﾄｯﾄﾘｹﾝ","kana_city":"ﾔｽﾞｸﾞﾝﾜｶｻﾁｮｳ","kana_address":"ﾕﾜﾗ","pref":"鳥取県","city":"八頭郡若桜町","address":"湯原"},
{"zip_code":"6800746","kana_pref":"ﾄｯﾄﾘｹﾝ","kana_city":"ﾔｽﾞｸﾞﾝﾜｶｻﾁｮｳ","kana_address":"ﾖｼｶﾜ","pref":"鳥取県","city":"八頭郡若桜町","address":"吉川"},
{"zip_code":"6800701","kana_pref":"ﾄｯﾄﾘｹﾝ","kana_city":"ﾔｽﾞｸﾞﾝﾜｶｻﾁｮｳ","kana_address":"ﾜｶｻ","pref":"鳥取県","city":"八頭郡若桜町","address":"若桜"},
{"zip_code":"6800400","kana_pref":"ﾄｯﾄﾘｹﾝ","kana_city":"ﾔｽﾞｸﾞﾝﾔｽﾞﾁｮｳ","kana_address":"","pref":"鳥取県","city":"八頭郡八頭町","address":""},
{"zip_code":"6800302","kana_pref":"ﾄｯﾄﾘｹﾝ","kana_city":"ﾔｽﾞｸﾞﾝﾔｽﾞﾁｮｳ","kana_address":"ｱｹﾅﾍﾞ","pref":"鳥取県","city":"八頭郡八頭町","address":"明辺"},
{"zip_code":"6800305","kana_pref":"ﾄｯﾄﾘｹﾝ","kana_city":"ﾔｽﾞｸﾞﾝﾔｽﾞﾁｮｳ","kana_address":"ｱｿｳ","pref":"鳥取県","city":"八頭郡八頭町","address":"麻生"},
{"zip_code":"6800452","kana_pref":"ﾄｯﾄﾘｹﾝ","kana_city":"ﾔｽﾞｸﾞﾝﾔｽﾞﾁｮｳ","kana_address":"ｲｹﾀﾞ","pref":"鳥取県","city":"八頭郡八頭町","address":"池田"},
{"zip_code":"6800425","kana_pref":"ﾄｯﾄﾘｹﾝ","kana_city":"ﾔｽﾞｸﾞﾝﾔｽﾞﾁｮｳ","kana_address":"ｲｺﾞ","pref":"鳥取県","city":"八頭郡八頭町","address":"井古"},
{"zip_code":"6800454","kana_pref":"ﾄｯﾄﾘｹﾝ","kana_city":"ﾔｽﾞｸﾞﾝﾔｽﾞﾁｮｳ","kana_address":"ｲｼﾀﾞﾓﾓｲ","pref":"鳥取県","city":"八頭郡八頭町","address":"石田百井"},
{"zip_code":"6800442","kana_pref":"ﾄｯﾄﾘｹﾝ","kana_city":"ﾔｽﾞｸﾞﾝﾔｽﾞﾁｮｳ","kana_address":"ｲﾁﾉﾀﾆ","pref":"鳥取県","city":"八頭郡八頭町","address":"市谷"},
{"zip_code":"6800311","kana_pref":"ﾄｯﾄﾘｹﾝ","kana_city":"ﾔｽﾞｸﾞﾝﾔｽﾞﾁｮｳ","kana_address":"ｲﾁﾊﾞ","pref":"鳥取県","city":"八頭郡八頭町","address":"市場"},
{"zip_code":"6800424","kana_pref":"ﾄｯﾄﾘｹﾝ","kana_city":"ﾔｽﾞｸﾞﾝﾔｽﾞﾁｮｳ","kana_address":"ｲﾅﾘ","pref":"鳥取県","city":"八頭郡八頭町","address":"稲荷"},
{"zip_code":"6800537","kana_pref":"ﾄｯﾄﾘｹﾝ","kana_city":"ﾔｽﾞｸﾞﾝﾔｽﾞﾁｮｳ","kana_address":"ｲﾜﾌﾞﾁ","pref":"鳥取県","city":"八頭郡八頭町","address":"岩淵"},
{"zip_code":"6800434","kana_pref":"ﾄｯﾄﾘｹﾝ","kana_city":"ﾔｽﾞｸﾞﾝﾔｽﾞﾁｮｳ","kana_address":"ｴﾝﾒｲｼﾞ","pref":"鳥取県","city":"八頭郡八頭町","address":"延命寺"},
{"zip_code":"6800416","kana_pref":"ﾄｯﾄﾘｹﾝ","kana_city":"ﾔｽﾞｸﾞﾝﾔｽﾞﾁｮｳ","kana_address":"ｵｵｴ","pref":"鳥取県","city":"八頭郡八頭町","address":"大江"},
{"zip_code":"6800435","kana_pref":"ﾄｯﾄﾘｹﾝ","kana_city":"ﾔｽﾞｸﾞﾝﾔｽﾞﾁｮｳ","kana_address":"ｵｵﾂﾎﾞ","pref":"鳥取県","city":"八頭郡八頭町","address":"大坪"},
{"zip_code":"6800427","kana_pref":"ﾄｯﾄﾘｹﾝ","kana_city":"ﾔｽﾞｸﾞﾝﾔｽﾞﾁｮｳ","kana_address":"ｵｸﾀﾞﾆ","pref":"鳥取県","city":"八頭郡八頭町","address":"奥谷"},
{"zip_code":"6800543","kana_pref":"ﾄｯﾄﾘｹﾝ","kana_city":"ﾔｽﾞｸﾞﾝﾔｽﾞﾁｮｳ","kana_address":"ｵｸﾉ","pref":"鳥取県","city":"八頭郡八頭町","address":"奥野"},
{"zip_code":"6800303","kana_pref":"ﾄｯﾄﾘｹﾝ","kana_city":"ﾔｽﾞｸﾞﾝﾔｽﾞﾁｮｳ","kana_address":"ｵﾁｲﾜ","pref":"鳥取県","city":"八頭郡八頭町","address":"落岩"},
{"zip_code":"6800426","kana_pref":"ﾄｯﾄﾘｹﾝ","kana_city":"ﾔｽﾞｸﾞﾝﾔｽﾞﾁｮｳ","kana_address":"ｵﾘｻｶ","pref":"鳥取県","city":"八頭郡八頭町","address":"下坂"},
{"zip_code":"6800533","kana_pref":"ﾄｯﾄﾘｹﾝ","kana_city":"ﾔｽﾞｸﾞﾝﾔｽﾞﾁｮｳ","kana_address":"ｶｲﾊﾗ","pref":"鳥取県","city":"八頭郡八頭町","address":"皆原"},
{"zip_code":"6800545","kana_pref":"ﾄｯﾄﾘｹﾝ","kana_city":"ﾔｽﾞｸﾞﾝﾔｽﾞﾁｮｳ","kana_address":"ｶｷﾊﾗ","pref":"鳥取県","city":"八頭郡八頭町","address":"柿原"},
{"zip_code":"6800312","kana_pref":"ﾄｯﾄﾘｹﾝ","kana_city":"ﾔｽﾞｸﾞﾝﾔｽﾞﾁｮｳ","kana_address":"ｶｸｵｳｼﾞ","pref":"鳥取県","city":"八頭郡八頭町","address":"覚王寺"},
{"zip_code":"6800534","kana_pref":"ﾄｯﾄﾘｹﾝ","kana_city":"ﾔｽﾞｸﾞﾝﾔｽﾞﾁｮｳ","kana_address":"ｶｼﾞﾔ","pref":"鳥取県","city":"八頭郡八頭町","address":"鍛冶屋"},
{"zip_code":"6800422","kana_pref":"ﾄｯﾄﾘｹﾝ","kana_city":"ﾔｽﾞｸﾞﾝﾔｽﾞﾁｮｳ","kana_address":"ｶﾄﾞｵ","pref":"鳥取県","city":"八頭郡八頭町","address":"門尾"},
{"zip_code":"6800313","kana_pref":"ﾄｯﾄﾘｹﾝ","kana_city":"ﾔｽﾞｸﾞﾝﾔｽﾞﾁｮｳ","kana_address":"ｶﾐﾂｸﾞﾛ","pref":"鳥取県","city":"八頭郡八頭町","address":"上津黒"},
{"zip_code":"6800401","kana_pref":"ﾄｯﾄﾘｹﾝ","kana_city":"ﾔｽﾞｸﾞﾝﾔｽﾞﾁｮｳ","kana_address":"ｶﾐﾉ","pref":"鳥取県","city":"八頭郡八頭町","address":"上野"},
{"zip_code":"6800432","kana_pref":"ﾄｯﾄﾘｹﾝ","kana_city":"ﾔｽﾞｸﾞﾝﾔｽﾞﾁｮｳ","kana_address":"ｶﾐﾐﾈﾃﾞﾗ","pref":"鳥取県","city":"八頭郡八頭町","address":"上峰寺"},
{"zip_code":"6800601","kana_pref":"ﾄｯﾄﾘｹﾝ","kana_city":"ﾔｽﾞｸﾞﾝﾔｽﾞﾁｮｳ","kana_address":"ｷﾀﾔﾏ","pref":"鳥取県","city":"八頭郡八頭町","address":"北山"},
{"zip_code":"6800526","kana_pref":"ﾄｯﾄﾘｹﾝ","kana_city":"ﾔｽﾞｸﾞﾝﾔｽﾞﾁｮｳ","kana_address":"ｸｻｶﾍﾞ","pref":"鳥取県","city":"八頭郡八頭町","address":"日下部"},
{"zip_code":"6800457","kana_pref":"ﾄｯﾄﾘｹﾝ","kana_city":"ﾔｽﾞｸﾞﾝﾔｽﾞﾁｮｳ","kana_address":"ｸﾆﾅｶ","pref":"鳥取県","city":"八頭郡八頭町","address":"国中"},
{"zip_code":"6800451","kana_pref":"ﾄｯﾄﾘｹﾝ","kana_city":"ﾔｽﾞｸﾞﾝﾔｽﾞﾁｮｳ","kana_address":"ｸﾉｳｼﾞ","pref":"鳥取県","city":"八頭郡八頭町","address":"久能寺"},
{"zip_code":"6800443","kana_pref":"ﾄｯﾄﾘｹﾝ","kana_city":"ﾔｽﾞｸﾞﾝﾔｽﾞﾁｮｳ","kana_address":"ｺｳｹﾞﾄﾉ","pref":"鳥取県","city":"八頭郡八頭町","address":"郡家殿"},
{"zip_code":"6800461","kana_pref":"ﾄｯﾄﾘｹﾝ","kana_city":"ﾔｽﾞｸﾞﾝﾔｽﾞﾁｮｳ","kana_address":"ｺｵｹﾞ","pref":"鳥取県","city":"八頭郡八頭町","address":"郡家"},
{"zip_code":"6800523","kana_pref":"ﾄｯﾄﾘｹﾝ","kana_city":"ﾔｽﾞｸﾞﾝﾔｽﾞﾁｮｳ","kana_address":"ｺﾍﾞﾌ","pref":"鳥取県","city":"八頭郡八頭町","address":"小別府"},
{"zip_code":"6800531","kana_pref":"ﾄｯﾄﾘｹﾝ","kana_city":"ﾔｽﾞｸﾞﾝﾔｽﾞﾁｮｳ","kana_address":"ｻｲﾀｲ","pref":"鳥取県","city":"八頭郡八頭町","address":"才代"},
{"zip_code":"6800473","kana_pref":"ﾄｯﾄﾘｹﾝ","kana_city":"ﾔｽﾞｸﾞﾝﾔｽﾞﾁｮｳ","kana_address":"ｻｶﾀﾞ","pref":"鳥取県","city":"八頭郡八頭町","address":"坂田"},
{"zip_code":"6800527","kana_pref":"ﾄｯﾄﾘｹﾝ","kana_city":"ﾔｽﾞｸﾞﾝﾔｽﾞﾁｮｳ","kana_address":"ｻｸﾗｶﾞｵｶ","pref":"鳥取県","city":"八頭郡八頭町","address":"桜ヶ丘"},
{"zip_code":"6800544","kana_pref":"ﾄｯﾄﾘｹﾝ","kana_city":"ﾔｽﾞｸﾞﾝﾔｽﾞﾁｮｳ","kana_address":"ｻｻｷ","pref":"鳥取県","city":"八頭郡八頭町","address":"佐崎"},
{"zip_code":"6800316","kana_pref":"ﾄｯﾄﾘｹﾝ","kana_city":"ﾔｽﾞｸﾞﾝﾔｽﾞﾁｮｳ","kana_address":"ｻｻﾅﾐ","pref":"鳥取県","city":"八頭郡八頭町","address":"篠波"},
{"zip_code":"6800413","kana_pref":"ﾄｯﾄﾘｹﾝ","kana_city":"ﾔｽﾞｸﾞﾝﾔｽﾞﾁｮｳ","kana_address":"ｼｵﾉｳｴ","pref":"鳥取県","city":"八頭郡八頭町","address":"塩上"},
{"zip_code":"6800606","kana_pref":"ﾄｯﾄﾘｹﾝ","kana_city":"ﾔｽﾞｸﾞﾝﾔｽﾞﾁｮｳ","kana_address":"ｼｹﾞｴﾀﾞ","pref":"鳥取県","city":"八頭郡八頭町","address":"重枝"},
{"zip_code":"6800407","kana_pref":"ﾄｯﾄﾘｹﾝ","kana_city":"ﾔｽﾞｸﾞﾝﾔｽﾞﾁｮｳ","kana_address":"ｼｺﾍﾞ","pref":"鳥取県","city":"八頭郡八頭町","address":"志子部"},
{"zip_code":"6800612","kana_pref":"ﾄｯﾄﾘｹﾝ","kana_city":"ﾔｽﾞｸﾞﾝﾔｽﾞﾁｮｳ","kana_address":"ｼﾀﾆ","pref":"鳥取県","city":"八頭郡八頭町","address":"志谷"},
{"zip_code":"6800605","kana_pref":"ﾄｯﾄﾘｹﾝ","kana_city":"ﾔｽﾞｸﾞﾝﾔｽﾞﾁｮｳ","kana_address":"ｼﾏ","pref":"鳥取県","city":"八頭郡八頭町","address":"島"},
{"zip_code":"6800421","kana_pref":"ﾄｯﾄﾘｹﾝ","kana_city":"ﾔｽﾞｸﾞﾝﾔｽﾞﾁｮｳ","kana_address":"ｼﾓｶﾄﾞｵ","pref":"鳥取県","city":"八頭郡八頭町","address":"下門尾"},
{"zip_code":"6800314","kana_pref":"ﾄｯﾄﾘｹﾝ","kana_city":"ﾔｽﾞｸﾞﾝﾔｽﾞﾁｮｳ","kana_address":"ｼﾓﾂｸﾞﾛ","pref":"鳥取県","city":"八頭郡八頭町","address":"下津黒"},
{"zip_code":"6800415","kana_pref":"ﾄｯﾄﾘｹﾝ","kana_city":"ﾔｽﾞｸﾞﾝﾔｽﾞﾁｮｳ","kana_address":"ｼﾓﾂｹ","pref":"鳥取県","city":"八頭郡八頭町","address":"下野"},
{"zip_code":"6800472","kana_pref":"ﾄｯﾄﾘｹﾝ","kana_city":"ﾔｽﾞｸﾞﾝﾔｽﾞﾁｮｳ","kana_address":"ｼﾓﾉ","pref":"鳥取県","city":"八頭郡八頭町","address":"下濃"},
{"zip_code":"6800431","kana_pref":"ﾄｯﾄﾘｹﾝ","kana_city":"ﾔｽﾞｸﾞﾝﾔｽﾞﾁｮｳ","kana_address":"ｼﾓﾐﾈﾃﾞﾗ","pref":"鳥取県","city":"八頭郡八頭町","address":"下峰寺"},
{"zip_code":"6800522","kana_pref":"ﾄｯﾄﾘｹﾝ","kana_city":"ﾔｽﾞｸﾞﾝﾔｽﾞﾁｮｳ","kana_address":"ｼﾝｺﾞｳｼﾞ","pref":"鳥取県","city":"八頭郡八頭町","address":"新興寺"},
{"zip_code":"6800541","kana_pref":"ﾄｯﾄﾘｹﾝ","kana_city":"ﾔｽﾞｸﾞﾝﾔｽﾞﾁｮｳ","kana_address":"ｾｲﾄｸ","pref":"鳥取県","city":"八頭郡八頭町","address":"清徳"},
{"zip_code":"6800445","kana_pref":"ﾄｯﾄﾘｹﾝ","kana_city":"ﾔｽﾞｸﾞﾝﾔｽﾞﾁｮｳ","kana_address":"ﾀﾞｲﾓﾝ","pref":"鳥取県","city":"八頭郡八頭町","address":"大門"},
{"zip_code":"6800607","kana_pref":"ﾄｯﾄﾘｹﾝ","kana_city":"ﾔｽﾞｸﾞﾝﾔｽﾞﾁｮｳ","kana_address":"ﾄｸﾏﾙ","pref":"鳥取県","city":"八頭郡八頭町","address":"徳丸"},
{"zip_code":"6800611","kana_pref":"ﾄｯﾄﾘｹﾝ","kana_city":"ﾔｽﾞｸﾞﾝﾔｽﾞﾁｮｳ","kana_address":"ﾄﾐｴﾀﾞ","pref":"鳥取県","city":"八頭郡八頭町","address":"富枝"},
{"zip_code":"6800614","kana_pref":"ﾄｯﾄﾘｹﾝ","kana_city":"ﾔｽﾞｸﾞﾝﾔｽﾞﾁｮｳ","kana_address":"ﾅｶ","pref":"鳥取県","city":"八頭郡八頭町","address":"中"},
{"zip_code":"6800408","kana_pref":"ﾄｯﾄﾘｹﾝ","kana_city":"ﾔｽﾞｸﾞﾝﾔｽﾞﾁｮｳ","kana_address":"ﾆｼﾀﾞﾆ","pref":"鳥取県","city":"八頭郡八頭町","address":"西谷"},
{"zip_code":"6800441","kana_pref":"ﾄｯﾄﾘｹﾝ","kana_city":"ﾔｽﾞｸﾞﾝﾔｽﾞﾁｮｳ","kana_address":"ﾆｼﾐｶﾄﾞ","pref":"鳥取県","city":"八頭郡八頭町","address":"西御門"},
{"zip_code":"6800306","kana_pref":"ﾄｯﾄﾘｹﾝ","kana_city":"ﾔｽﾞｸﾞﾝﾔｽﾞﾁｮｳ","kana_address":"ﾉﾏﾁ","pref":"鳥取県","city":"八頭郡八頭町","address":"野町"},
{"zip_code":"6800414","kana_pref":"ﾄｯﾄﾘｹﾝ","kana_city":"ﾔｽﾞｸﾞﾝﾔｽﾞﾁｮｳ","kana_address":"ﾊｼﾓﾄ","pref":"鳥取県","city":"八頭郡八頭町","address":"橋本"},
{"zip_code":"6800455","kana_pref":"ﾄｯﾄﾘｹﾝ","kana_city":"ﾔｽﾞｸﾞﾝﾔｽﾞﾁｮｳ","kana_address":"ﾊｼﾞﾓﾓｲ","pref":"鳥取県","city":"八頭郡八頭町","address":"土師百井"},
{"zip_code":"6800444","kana_pref":"ﾄｯﾄﾘｹﾝ","kana_city":"ﾔｽﾞｸﾞﾝﾔｽﾞﾁｮｳ","kana_address":"ﾊﾅ","pref":"鳥取県","city":"八頭郡八頭町","address":"花"},
{"zip_code":"6800437","kana_pref":"ﾄｯﾄﾘｹﾝ","kana_city":"ﾔｽﾞｸﾞﾝﾔｽﾞﾁｮｳ","kana_address":"ﾊﾅﾊﾞﾗ","pref":"鳥取県","city":"八頭郡八頭町","address":"花原"},
{"zip_code":"6800402","kana_pref":"ﾄｯﾄﾘｹﾝ","kana_city":"ﾔｽﾞｸﾞﾝﾔｽﾞﾁｮｳ","kana_address":"ﾊﾔﾌｸ","pref":"鳥取県","city":"八頭郡八頭町","address":"隼福"},
{"zip_code":"6800405","kana_pref":"ﾄｯﾄﾘｹﾝ","kana_city":"ﾔｽﾞｸﾞﾝﾔｽﾞﾁｮｳ","kana_address":"ﾊﾔﾌﾞｻｺｵｹﾞ","pref":"鳥取県","city":"八頭郡八頭町","address":"隼郡家"},
{"zip_code":"6800613","kana_pref":"ﾄｯﾄﾘｹﾝ","kana_city":"ﾔｽﾞｸﾞﾝﾔｽﾞﾁｮｳ","kana_address":"ﾋｴﾀﾞﾆ","pref":"鳥取県","city":"八頭郡八頭町","address":"稗谷"},
{"zip_code":"6800532","kana_pref":"ﾄｯﾄﾘｹﾝ","kana_city":"ﾔｽﾞｸﾞﾝﾔｽﾞﾁｮｳ","kana_address":"ﾋｶﾞｼ","pref":"鳥取県","city":"八頭郡八頭町","address":"東"},
{"zip_code":"6800603","kana_pref":"ﾄｯﾄﾘｹﾝ","kana_city":"ﾔｽﾞｸﾞﾝﾔｽﾞﾁｮｳ","kana_address":"ﾋﾀﾞ","pref":"鳥取県","city":"八頭郡八頭町","address":"日田"},
{"zip_code":"6800301","kana_pref":"ﾄｯﾄﾘｹﾝ","kana_city":"ﾔｽﾞｸﾞﾝﾔｽﾞﾁｮｳ","kana_address":"ﾋﾒｼﾞ","pref":"鳥取県","city":"八頭郡八頭町","address":"姫路"},
{"zip_code":"6800403","kana_pref":"ﾄｯﾄﾘｹﾝ","kana_city":"ﾔｽﾞｸﾞﾝﾔｽﾞﾁｮｳ","kana_address":"ﾌｸｲ","pref":"鳥取県","city":"八頭郡八頭町","address":"福井"},
{"zip_code":"6800307","kana_pref":"ﾄｯﾄﾘｹﾝ","kana_city":"ﾔｽﾞｸﾞﾝﾔｽﾞﾁｮｳ","kana_address":"ﾌｸﾁ","pref":"鳥取県","city":"八頭郡八頭町","address":"福地"},
{"zip_code":"6800462","kana_pref":"ﾄｯﾄﾘｹﾝ","kana_city":"ﾔｽﾞｸﾞﾝﾔｽﾞﾁｮｳ","kana_address":"ﾌｸﾓﾄ","pref":"鳥取県","city":"八頭郡八頭町","address":"福本"},
{"zip_code":"6800471","kana_pref":"ﾄｯﾄﾘｹﾝ","kana_city":"ﾔｽﾞｸﾞﾝﾔｽﾞﾁｮｳ","kana_address":"ﾌﾅｵｶ","pref":"鳥取県","city":"八頭郡八頭町","address":"船岡"},
{"zip_code":"6800411","kana_pref":"ﾄｯﾄﾘｹﾝ","kana_city":"ﾔｽﾞｸﾞﾝﾔｽﾞﾁｮｳ","kana_address":"ﾌﾅｵｶﾄﾉ","pref":"鳥取県","city":"八頭郡八頭町","address":"船岡殿"},
{"zip_code":"6800315","kana_pref":"ﾄｯﾄﾘｹﾝ","kana_city":"ﾔｽﾞｸﾞﾝﾔｽﾞﾁｮｳ","kana_address":"ﾍﾞﾌ","pref":"鳥取県","city":"八頭郡八頭町","address":"別府"},
{"zip_code":"6800423","kana_pref":"ﾄｯﾄﾘｹﾝ","kana_city":"ﾔｽﾞｸﾞﾝﾔｽﾞﾁｮｳ","kana_address":"ﾎﾘｺﾞｼ","pref":"鳥取県","city":"八頭郡八頭町","address":"堀越"},
{"zip_code":"6800453","kana_pref":"ﾄｯﾄﾘｹﾝ","kana_city":"ﾔｽﾞｸﾞﾝﾔｽﾞﾁｮｳ","kana_address":"ﾏﾝﾀｲｼﾞ","pref":"鳥取県","city":"八頭郡八頭町","address":"万代寺"},
{"zip_code":"6800536","kana_pref":"ﾄｯﾄﾘｹﾝ","kana_city":"ﾔｽﾞｸﾞﾝﾔｽﾞﾁｮｳ","kana_address":"ﾐｳﾗ","pref":"鳥取県","city":"八頭郡八頭町","address":"三浦"},
{"zip_code":"6800406","kana_pref":"ﾄｯﾄﾘｹﾝ","kana_city":"ﾔｽﾞｸﾞﾝﾔｽﾞﾁｮｳ","kana_address":"ﾐﾂﾞｷ","pref":"鳥取県","city":"八頭郡八頭町","address":"見槻"},
{"zip_code":"6800404","kana_pref":"ﾄｯﾄﾘｹﾝ","kana_city":"ﾔｽﾞｸﾞﾝﾔｽﾞﾁｮｳ","kana_address":"ﾐﾂﾞｷﾅｶ","pref":"鳥取県","city":"八頭郡八頭町","address":"見槻中"},
{"zip_code":"6800412","kana_pref":"ﾄｯﾄﾘｹﾝ","kana_city":"ﾔｽﾞｸﾞﾝﾔｽﾞﾁｮｳ","kana_address":"ﾐﾅｸﾁ","pref":"鳥取県","city":"八頭郡八頭町","address":"水口"},
{"zip_code":"6800604","kana_pref":"ﾄｯﾄﾘｹﾝ","kana_city":"ﾔｽﾞｸﾞﾝﾔｽﾞﾁｮｳ","kana_address":"ﾐﾅﾐ","pref":"鳥取県","city":"八頭郡八頭町","address":"南"},
{"zip_code":"6800463","kana_pref":"ﾄｯﾄﾘｹﾝ","kana_city":"ﾔｽﾞｸﾞﾝﾔｽﾞﾁｮｳ","kana_address":"ﾐﾔﾀﾞﾆ","pref":"鳥取県","city":"八頭郡八頭町","address":"宮谷"},
{"zip_code":"6800535","kana_pref":"ﾄｯﾄﾘｹﾝ","kana_city":"ﾔｽﾞｸﾞﾝﾔｽﾞﾁｮｳ","kana_address":"ﾐﾔﾏｸﾞﾁ","pref":"鳥取県","city":"八頭郡八頭町","address":"三山口"},
{"zip_code":"6800524","kana_pref":"ﾄｯﾄﾘｹﾝ","kana_city":"ﾔｽﾞｸﾞﾝﾔｽﾞﾁｮｳ","kana_address":"ﾓﾀﾞ","pref":"鳥取県","city":"八頭郡八頭町","address":"茂田"},
{"zip_code":"6800542","kana_pref":"ﾄｯﾄﾘｹﾝ","kana_city":"ﾔｽﾞｸﾞﾝﾔｽﾞﾁｮｳ","kana_address":"ﾓﾀﾆ","pref":"鳥取県","city":"八頭郡八頭町","address":"茂谷"},
{"zip_code":"6800521","kana_pref":"ﾄｯﾄﾘｹﾝ","kana_city":"ﾔｽﾞｸﾞﾝﾔｽﾞﾁｮｳ","kana_address":"ﾔｽｲｼｭｸ","pref":"鳥取県","city":"八頭郡八頭町","address":"安井宿"},
{"zip_code":"6800436","kana_pref":"ﾄｯﾄﾘｹﾝ","kana_city":"ﾔｽﾞｸﾞﾝﾔｽﾞﾁｮｳ","kana_address":"ﾔﾏｼﾞ","pref":"鳥取県","city":"八頭郡八頭町","address":"山路"},
{"zip_code":"6800304","kana_pref":"ﾄｯﾄﾘｹﾝ","kana_city":"ﾔｽﾞｸﾞﾝﾔｽﾞﾁｮｳ","kana_address":"ﾔﾏｼﾀﾞﾆ","pref":"鳥取県","city":"八頭郡八頭町","address":"山志谷"},
{"zip_code":"6800438","kana_pref":"ﾄｯﾄﾘｹﾝ","kana_city":"ﾔｽﾞｸﾞﾝﾔｽﾞﾁｮｳ","kana_address":"ﾔﾏﾀﾞ","pref":"鳥取県","city":"八頭郡八頭町","address":"山田"},
{"zip_code":"6800433","kana_pref":"ﾄｯﾄﾘｹﾝ","kana_city":"ﾔｽﾞｸﾞﾝﾔｽﾞﾁｮｳ","kana_address":"ﾔﾏﾉｳｴ","pref":"鳥取県","city":"八頭郡八頭町","address":"山上"},
{"zip_code":"6800602","kana_pref":"ﾄｯﾄﾘｹﾝ","kana_city":"ﾔｽﾞｸﾞﾝﾔｽﾞﾁｮｳ","kana_address":"ﾖｳﾛ","pref":"鳥取県","city":"八頭郡八頭町","address":"用呂"},
{"zip_code":"6800525","kana_pref":"ﾄｯﾄﾘｹﾝ","kana_city":"ﾔｽﾞｸﾞﾝﾔｽﾞﾁｮｳ","kana_address":"ﾖｺﾀ","pref":"鳥取県","city":"八頭郡八頭町","address":"横田"},
{"zip_code":"6800456","kana_pref":"ﾄｯﾄﾘｹﾝ","kana_city":"ﾔｽﾞｸﾞﾝﾔｽﾞﾁｮｳ","kana_address":"ﾖﾈｵｶ","pref":"鳥取県","city":"八頭郡八頭町","address":"米岡"},
{"zip_code":"6800474","kana_pref":"ﾄｯﾄﾘｹﾝ","kana_city":"ﾔｽﾞｸﾞﾝﾔｽﾞﾁｮｳ","kana_address":"ﾜﾚｲﾜ","pref":"鳥取県","city":"八頭郡八頭町","address":"破岩"}]}