{"zip_code":[
{"zip_code":"6820000","kana_pref":"ﾄｯﾄﾘｹﾝ","kana_city":"ｸﾗﾖｼｼ","kana_address":"","pref":"鳥取県","city":"倉吉市","address":""},
{"zip_code":"6820822","kana_pref":"ﾄｯﾄﾘｹﾝ","kana_city":"ｸﾗﾖｼｼ","kana_address":"ｱｵｲﾏﾁ","pref":"鳥取県","city":"倉吉市","address":"葵町"},
{"zip_code":"6820021","kana_pref":"ﾄｯﾄﾘｹﾝ","kana_city":"ｸﾗﾖｼｼ","kana_address":"ｱｹﾞｲ","pref":"鳥取県","city":"倉吉市","address":"上井"},
{"zip_code":"6820022","kana_pref":"ﾄｯﾄﾘｹﾝ","kana_city":"ｸﾗﾖｼｼ","kana_address":"ｱｹﾞｲﾁｮｳ","pref":"鳥取県","city":"倉吉市","address":"上井町"},
{"zip_code":"6820871","kana_pref":"ﾄｯﾄﾘｹﾝ","kana_city":"ｸﾗﾖｼｼ","kana_address":"ｱｻﾋﾀﾞﾁｮｳ","pref":"鳥取県","city":"倉吉市","address":"旭田町"},
{"zip_code":"6820001","kana_pref":"ﾄｯﾄﾘｹﾝ","kana_city":"ｸﾗﾖｼｼ","kana_address":"ｱﾅｸﾎﾞ","pref":"鳥取県","city":"倉吉市","address":"穴窪"},
{"zip_code":"6820901","kana_pref":"ﾄｯﾄﾘｹﾝ","kana_city":"ｸﾗﾖｼｼ","kana_address":"ｱﾅｻﾞﾜ","pref":"鳥取県","city":"倉吉市","address":"穴沢"},
{"zip_code":"6820024","kana_pref":"ﾄｯﾄﾘｹﾝ","kana_city":"ｸﾗﾖｼｼ","kana_address":"ｲｷﾞ","pref":"鳥取県","city":"倉吉市","address":"伊木"},
{"zip_code":"6820855","kana_pref":"ﾄｯﾄﾘｹﾝ","kana_city":"ｸﾗﾖｼｼ","kana_address":"ｲｸﾀ","pref":"鳥取県","city":"倉吉市","address":"生田"},
{"zip_code":"6820933","kana_pref":"ﾄｯﾄﾘｹﾝ","kana_city":"ｸﾗﾖｼｼ","kana_address":"ｲｼﾂﾞｶ","pref":"鳥取県","city":"倉吉市","address":"石塚"},
{"zip_code":"6820006","kana_pref":"ﾄｯﾄﾘｹﾝ","kana_city":"ｸﾗﾖｼｼ","kana_address":"ｲﾃﾞﾊﾞﾀ","pref":"鳥取県","city":"倉吉市","address":"井手畑"},
{"zip_code":"6820641","kana_pref":"ﾄｯﾄﾘｹﾝ","kana_city":"ｸﾗﾖｼｼ","kana_address":"ｲﾏｻﾞｲｹ","pref":"鳥取県","city":"倉吉市","address":"今在家"},
{"zip_code":"6820801","kana_pref":"ﾄｯﾄﾘｹﾝ","kana_city":"ｸﾗﾖｼｼ","kana_address":"ｲﾜｷ","pref":"鳥取県","city":"倉吉市","address":"巌城"},
{"zip_code":"6820842","kana_pref":"ﾄｯﾄﾘｹﾝ","kana_city":"ｸﾗﾖｼｼ","kana_address":"ｲﾜｸﾗ","pref":"鳥取県","city":"倉吉市","address":"岩倉"},
{"zip_code":"6820821","kana_pref":"ﾄｯﾄﾘｹﾝ","kana_city":"ｸﾗﾖｼｼ","kana_address":"ｳｵﾏﾁ","pref":"鳥取県","city":"倉吉市","address":"魚町"},
{"zip_code":"6820811","kana_pref":"ﾄｯﾄﾘｹﾝ","kana_city":"ｸﾗﾖｼｼ","kana_address":"ｳﾜﾅﾀﾞﾁｮｳ","pref":"鳥取県","city":"倉吉市","address":"上灘町"},
{"zip_code":"6820865","kana_pref":"ﾄｯﾄﾘｹﾝ","kana_city":"ｸﾗﾖｼｼ","kana_address":"ｴｯﾁｭｳﾏﾁ","pref":"鳥取県","city":"倉吉市","address":"越中町"},
{"zip_code":"6820813","kana_pref":"ﾄｯﾄﾘｹﾝ","kana_city":"ｸﾗﾖｼｼ","kana_address":"ｴﾝﾀﾞﾆﾁｮｳ","pref":"鳥取県","city":"倉吉市","address":"円谷町"},
{"zip_code":"6820623","kana_pref":"ﾄｯﾄﾘｹﾝ","kana_city":"ｸﾗﾖｼｼ","kana_address":"ｵｵｶﾁ","pref":"鳥取県","city":"倉吉市","address":"大河内"},
{"zip_code":"6820947","kana_pref":"ﾄｯﾄﾘｹﾝ","kana_city":"ｸﾗﾖｼｼ","kana_address":"ｵｵｻﾜ","pref":"鳥取県","city":"倉吉市","address":"大沢"},
{"zip_code":"6820632","kana_pref":"ﾄｯﾄﾘｹﾝ","kana_city":"ｸﾗﾖｼｼ","kana_address":"ｵｵﾀﾁ","pref":"鳥取県","city":"倉吉市","address":"大立"},
{"zip_code":"6820941","kana_pref":"ﾄｯﾄﾘｹﾝ","kana_city":"ｸﾗﾖｼｼ","kana_address":"ｵｵﾀﾆ","pref":"鳥取県","city":"倉吉市","address":"大谷"},
{"zip_code":"6820948","kana_pref":"ﾄｯﾄﾘｹﾝ","kana_city":"ｸﾗﾖｼｼ","kana_address":"ｵｵﾀﾆﾁｬﾔ","pref":"鳥取県","city":"倉吉市","address":"大谷茶屋"},
{"zip_code":"6820011","kana_pref":"ﾄｯﾄﾘｹﾝ","kana_city":"ｸﾗﾖｼｼ","kana_address":"ｵｵﾂｶ","pref":"鳥取県","city":"倉吉市","address":"大塚"},
{"zip_code":"6820042","kana_pref":"ﾄｯﾄﾘｹﾝ","kana_city":"ｸﾗﾖｼｼ","kana_address":"ｵｵﾋﾗﾁｮｳ","pref":"鳥取県","city":"倉吉市","address":"大平町"},
{"zip_code":"6820841","kana_pref":"ﾄｯﾄﾘｹﾝ","kana_city":"ｸﾗﾖｼｼ","kana_address":"ｵｵﾐﾔ","pref":"鳥取県","city":"倉吉市","address":"大宮"},
{"zip_code":"6820645","kana_pref":"ﾄｯﾄﾘｹﾝ","kana_city":"ｸﾗﾖｼｼ","kana_address":"ｵｶ","pref":"鳥取県","city":"倉吉市","address":"岡"},
{"zip_code":"6820931","kana_pref":"ﾄｯﾄﾘｹﾝ","kana_city":"ｸﾗﾖｼｼ","kana_address":"ｵｶﾞﾓ","pref":"鳥取県","city":"倉吉市","address":"小鴨"},
{"zip_code":"6820607","kana_pref":"ﾄｯﾄﾘｹﾝ","kana_city":"ｸﾗﾖｼｼ","kana_address":"ｵﾀﾞ","pref":"鳥取県","city":"倉吉市","address":"尾田"},
{"zip_code":"6820034","kana_pref":"ﾄｯﾄﾘｹﾝ","kana_city":"ｸﾗﾖｼｼ","kana_address":"ｵﾊﾗ","pref":"鳥取県","city":"倉吉市","address":"大原"},
{"zip_code":"6820904","kana_pref":"ﾄｯﾄﾘｹﾝ","kana_city":"ｸﾗﾖｼｼ","kana_address":"ｵﾜﾗ","pref":"鳥取県","city":"倉吉市","address":"尾原"},
{"zip_code":"6820014","kana_pref":"ﾄｯﾄﾘｹﾝ","kana_city":"ｸﾗﾖｼｼ","kana_address":"ｶｲﾀﾞﾋｶﾞｼﾏﾁ","pref":"鳥取県","city":"倉吉市","address":"海田東町"},
{"zip_code":"6820016","kana_pref":"ﾄｯﾄﾘｹﾝ","kana_city":"ｸﾗﾖｼｼ","kana_address":"ｶｲﾀﾞﾆｼﾏﾁ","pref":"鳥取県","city":"倉吉市","address":"海田西町"},
{"zip_code":"6820015","kana_pref":"ﾄｯﾄﾘｹﾝ","kana_city":"ｸﾗﾖｼｼ","kana_address":"ｶｲﾀﾞﾐﾅﾐﾏﾁ","pref":"鳥取県","city":"倉吉市","address":"海田南町"},
{"zip_code":"6820864","kana_pref":"ﾄｯﾄﾘｹﾝ","kana_city":"ｸﾗﾖｼｼ","kana_address":"ｶｼﾞﾏﾁ","pref":"鳥取県","city":"倉吉市","address":"鍛冶町"},
{"zip_code":"6820902","kana_pref":"ﾄｯﾄﾘｹﾝ","kana_city":"ｸﾗﾖｼｼ","kana_address":"ｶｽﾞﾜ","pref":"鳥取県","city":"倉吉市","address":"上神"},
{"zip_code":"6820621","kana_pref":"ﾄｯﾄﾘｹﾝ","kana_city":"ｸﾗﾖｼｼ","kana_address":"ｶｾﾀﾞﾆ","pref":"鳥取県","city":"倉吉市","address":"忰谷"},
{"zip_code":"6820875","kana_pref":"ﾄｯﾄﾘｹﾝ","kana_city":"ｸﾗﾖｼｼ","kana_address":"ｶﾅﾓﾘﾁｮｳ","pref":"鳥取県","city":"倉吉市","address":"金森町"},
{"zip_code":"6820041","kana_pref":"ﾄｯﾄﾘｹﾝ","kana_city":"ｸﾗﾖｼｼ","kana_address":"ｶﾎｸﾁｮｳ","pref":"鳥取県","city":"倉吉市","address":"河北町"},
{"zip_code":"6820631","kana_pref":"ﾄｯﾄﾘｹﾝ","kana_city":"ｸﾗﾖｼｼ","kana_address":"ｶﾐｵｵﾀﾁ","pref":"鳥取県","city":"倉吉市","address":"上大立"},
{"zip_code":"6820642","kana_pref":"ﾄｯﾄﾘｹﾝ","kana_city":"ｸﾗﾖｼｼ","kana_address":"ｶﾐﾌｸﾀﾞ","pref":"鳥取県","city":"倉吉市","address":"上福田"},
{"zip_code":"6820934","kana_pref":"ﾄｯﾄﾘｹﾝ","kana_city":"ｸﾗﾖｼｼ","kana_address":"ｶﾐﾌﾙｶﾜ","pref":"鳥取県","city":"倉吉市","address":"上古川"},
{"zip_code":"6820032","kana_pref":"ﾄｯﾄﾘｹﾝ","kana_city":"ｸﾗﾖｼｼ","kana_address":"ｶﾐﾖﾄﾞ","pref":"鳥取県","city":"倉吉市","address":"上余戸"},
{"zip_code":"6820602","kana_pref":"ﾄｯﾄﾘｹﾝ","kana_city":"ｸﾗﾖｼｼ","kana_address":"ｶﾐﾖﾅﾂﾞﾐ","pref":"鳥取県","city":"倉吉市","address":"上米積"},
{"zip_code":"6820923","kana_pref":"ﾄｯﾄﾘｹﾝ","kana_city":"ｸﾗﾖｼｼ","kana_address":"ｶﾓｶﾞﾜﾁｮｳ","pref":"鳥取県","city":"倉吉市","address":"鴨川町"},
{"zip_code":"6820846","kana_pref":"ﾄｯﾄﾘｹﾝ","kana_city":"ｸﾗﾖｼｼ","kana_address":"ｶﾓｺﾞｳﾁ","pref":"鳥取県","city":"倉吉市","address":"鴨河内"},
{"zip_code":"6820633","kana_pref":"ﾄｯﾄﾘｹﾝ","kana_city":"ｸﾗﾖｼｼ","kana_address":"ｶﾜｸﾙﾐ","pref":"鳥取県","city":"倉吉市","address":"河来見"},
{"zip_code":"6820924","kana_pref":"ﾄｯﾄﾘｹﾝ","kana_city":"ｸﾗﾖｼｼ","kana_address":"ｶﾜﾗﾏﾁ","pref":"鳥取県","city":"倉吉市","address":"河原町"},
{"zip_code":"6820857","kana_pref":"ﾄｯﾄﾘｹﾝ","kana_city":"ｸﾗﾖｼｼ","kana_address":"ｷﾀﾉ","pref":"鳥取県","city":"倉吉市","address":"北野"},
{"zip_code":"6820903","kana_pref":"ﾄｯﾄﾘｹﾝ","kana_city":"ｸﾗﾖｼｼ","kana_address":"ｷﾀﾓ","pref":"鳥取県","city":"倉吉市","address":"北面"},
{"zip_code":"6820932","kana_pref":"ﾄｯﾄﾘｹﾝ","kana_city":"ｸﾗﾖｼｼ","kana_address":"ｸﾗｳﾁ","pref":"鳥取県","city":"倉吉市","address":"蔵内"},
{"zip_code":"6820033","kana_pref":"ﾄｯﾄﾘｹﾝ","kana_city":"ｸﾗﾖｼｼ","kana_address":"ｸﾘｵ","pref":"鳥取県","city":"倉吉市","address":"栗尾"},
{"zip_code":"6820945","kana_pref":"ﾄｯﾄﾘｹﾝ","kana_city":"ｸﾗﾖｼｼ","kana_address":"ｸﾛﾐ","pref":"鳥取県","city":"倉吉市","address":"黒見"},
{"zip_code":"6820942","kana_pref":"ﾄｯﾄﾘｹﾝ","kana_city":"ｸﾗﾖｼｼ","kana_address":"ｺｳ","pref":"鳥取県","city":"倉吉市","address":"国府"},
{"zip_code":"6820035","kana_pref":"ﾄｯﾄﾘｹﾝ","kana_city":"ｸﾗﾖｼｼ","kana_address":"ｺｳｴｲﾁｮｳ","pref":"鳥取県","city":"倉吉市","address":"広栄町"},
{"zip_code":"6820883","kana_pref":"ﾄｯﾄﾘｹﾝ","kana_city":"ｸﾗﾖｼｼ","kana_address":"ｺｳｼﾞﾝﾁｮｳ","pref":"鳥取県","city":"倉吉市","address":"荒神町"},
{"zip_code":"6820943","kana_pref":"ﾄｯﾄﾘｹﾝ","kana_city":"ｸﾗﾖｼｼ","kana_address":"ｺｸﾌﾞﾝｼﾞ","pref":"鳥取県","city":"倉吉市","address":"国分寺"},
{"zip_code":"6820867","kana_pref":"ﾄｯﾄﾘｹﾝ","kana_city":"ｸﾗﾖｼｼ","kana_address":"ｺｼﾄﾞﾉﾁｮｳ","pref":"鳥取県","city":"倉吉市","address":"越殿町"},
{"zip_code":"6820044","kana_pref":"ﾄｯﾄﾘｹﾝ","kana_city":"ｸﾗﾖｼｼ","kana_address":"ｺﾀﾞ","pref":"鳥取県","city":"倉吉市","address":"小田"},
{"zip_code":"6820045","kana_pref":"ﾄｯﾄﾘｹﾝ","kana_city":"ｸﾗﾖｼｼ","kana_address":"ｺﾀﾞﾋｶﾞｼ","pref":"鳥取県","city":"倉吉市","address":"小田東"},
{"zip_code":"6820807","kana_pref":"ﾄｯﾄﾘｹﾝ","kana_city":"ｸﾗﾖｼｼ","kana_address":"ｻｲﾜｲﾏﾁ","pref":"鳥取県","city":"倉吉市","address":"幸町"},
{"zip_code":"6820885","kana_pref":"ﾄｯﾄﾘｹﾝ","kana_city":"ｸﾗﾖｼｼ","kana_address":"ｻｶｴﾏﾁ","pref":"鳥取県","city":"倉吉市","address":"堺町"},
{"zip_code":"6820634","kana_pref":"ﾄｯﾄﾘｹﾝ","kana_city":"ｸﾗﾖｼｼ","kana_address":"ｻｸﾗ","pref":"鳥取県","city":"倉吉市","address":"桜"},
{"zip_code":"6820606","kana_pref":"ﾄｯﾄﾘｹﾝ","kana_city":"ｸﾗﾖｼｼ","kana_address":"ｻﾜﾀﾞﾆ","pref":"鳥取県","city":"倉吉市","address":"沢谷"},
{"zip_code":"6820613","kana_pref":"ﾄｯﾄﾘｹﾝ","kana_city":"ｸﾗﾖｼｼ","kana_address":"ｼﾂ","pref":"鳥取県","city":"倉吉市","address":"志津"},
{"zip_code":"6820837","kana_pref":"ﾄｯﾄﾘｹﾝ","kana_city":"ｸﾗﾖｼｼ","kana_address":"ｼﾓｵｵｴ","pref":"鳥取県","city":"倉吉市","address":"下大江"},
{"zip_code":"6820812","kana_pref":"ﾄｯﾄﾘｹﾝ","kana_city":"ｸﾗﾖｼｼ","kana_address":"ｼﾓﾀﾅｶﾁｮｳ","pref":"鳥取県","city":"倉吉市","address":"下田中町"},
{"zip_code":"6820643","kana_pref":"ﾄｯﾄﾘｹﾝ","kana_city":"ｸﾗﾖｼｼ","kana_address":"ｼﾓﾌｸﾀﾞ","pref":"鳥取県","city":"倉吉市","address":"下福田"},
{"zip_code":"6820005","kana_pref":"ﾄｯﾄﾘｹﾝ","kana_city":"ｸﾗﾖｼｼ","kana_address":"ｼﾓﾌﾙｶﾜ","pref":"鳥取県","city":"倉吉市","address":"下古川"},
{"zip_code":"6820031","kana_pref":"ﾄｯﾄﾘｹﾝ","kana_city":"ｸﾗﾖｼｼ","kana_address":"ｼﾓﾖﾄﾞ","pref":"鳥取県","city":"倉吉市","address":"下余戸"},
{"zip_code":"6820601","kana_pref":"ﾄｯﾄﾘｹﾝ","kana_city":"ｸﾗﾖｼｼ","kana_address":"ｼﾓﾖﾅﾂﾞﾐ","pref":"鳥取県","city":"倉吉市","address":"下米積"},
{"zip_code":"6820925","kana_pref":"ﾄｯﾄﾘｹﾝ","kana_city":"ｸﾗﾖｼｼ","kana_address":"ｼｭｳｷ","pref":"鳥取県","city":"倉吉市","address":"秋喜"},
{"zip_code":"6820926","kana_pref":"ﾄｯﾄﾘｹﾝ","kana_city":"ｸﾗﾖｼｼ","kana_address":"ｼｭｳｷﾆｼﾏﾁ","pref":"鳥取県","city":"倉吉市","address":"秋喜西町"},
{"zip_code":"6820806","kana_pref":"ﾄｯﾄﾘｹﾝ","kana_city":"ｸﾗﾖｼｼ","kana_address":"ｼｮｳﾜﾏﾁ","pref":"鳥取県","city":"倉吉市","address":"昭和町"},
{"zip_code":"6820003","kana_pref":"ﾄｯﾄﾘｹﾝ","kana_city":"ｸﾗﾖｼｼ","kana_address":"ｼﾝﾃﾞﾝ","pref":"鳥取県","city":"倉吉市","address":"新田"},
{"zip_code":"6820861","kana_pref":"ﾄｯﾄﾘｹﾝ","kana_city":"ｸﾗﾖｼｼ","kana_address":"ｼﾝﾏﾁ","pref":"鳥取県","city":"倉吉市","address":"新町"},
{"zip_code":"6820815","kana_pref":"ﾄｯﾄﾘｹﾝ","kana_city":"ｸﾗﾖｼｼ","kana_address":"ｼﾝﾖｳﾁｮｳ","pref":"鳥取県","city":"倉吉市","address":"新陽町"},
{"zip_code":"6820952","kana_pref":"ﾄｯﾄﾘｹﾝ","kana_city":"ｸﾗﾖｼｼ","kana_address":"ｽｷ","pref":"鳥取県","city":"倉吉市","address":"鋤"},
{"zip_code":"6820611","kana_pref":"ﾄｯﾄﾘｹﾝ","kana_city":"ｸﾗﾖｼｼ","kana_address":"ｽｷﾞﾉ","pref":"鳥取県","city":"倉吉市","address":"杉野"},
{"zip_code":"6820843","kana_pref":"ﾄｯﾄﾘｹﾝ","kana_city":"ｸﾗﾖｼｼ","kana_address":"ｽｹﾞｶﾞﾊﾗ","pref":"鳥取県","city":"倉吉市","address":"菅原"},
{"zip_code":"6820817","kana_pref":"ﾄｯﾄﾘｹﾝ","kana_city":"ｸﾗﾖｼｼ","kana_address":"ｽﾐﾖｼﾁｮｳ","pref":"鳥取県","city":"倉吉市","address":"住吉町"},
{"zip_code":"6820012","kana_pref":"ﾄｯﾄﾘｹﾝ","kana_city":"ｸﾗﾖｼｼ","kana_address":"ｾｲﾀﾞﾆ","pref":"鳥取県","city":"倉吉市","address":"清谷"},
{"zip_code":"6820017","kana_pref":"ﾄｯﾄﾘｹﾝ","kana_city":"ｸﾗﾖｼｼ","kana_address":"ｾｲﾀﾞﾆﾁｮｳ","pref":"鳥取県","city":"倉吉市","address":"清谷町"},
{"zip_code":"6820401","kana_pref":"ﾄｯﾄﾘｹﾝ","kana_city":"ｸﾗﾖｼｼ","kana_address":"ｾｷｶﾞﾈﾁｮｳｱﾌﾞ","pref":"鳥取県","city":"倉吉市","address":"関金町安歩"},
{"zip_code":"6820421","kana_pref":"ﾄｯﾄﾘｹﾝ","kana_city":"ｸﾗﾖｼｼ","kana_address":"ｾｷｶﾞﾈﾁｮｳｲﾏﾆｼ","pref":"鳥取県","city":"倉吉市","address":"関金町今西"},
{"zip_code":"6820402","kana_pref":"ﾄｯﾄﾘｹﾝ","kana_city":"ｸﾗﾖｼｼ","kana_address":"ｾｷｶﾞﾈﾁｮｳｵｵﾄﾞﾘｲ","pref":"鳥取県","city":"倉吉市","address":"関金町大鳥居"},
{"zip_code":"6820433","kana_pref":"ﾄｯﾄﾘｹﾝ","kana_city":"ｸﾗﾖｼｼ","kana_address":"ｾｷｶﾞﾈﾁｮｳｺｲｽﾞﾐ","pref":"鳥取県","city":"倉吉市","address":"関金町小泉"},
{"zip_code":"6820413","kana_pref":"ﾄｯﾄﾘｹﾝ","kana_city":"ｸﾗﾖｼｼ","kana_address":"ｾｷｶﾞﾈﾁｮｳｺｵｹﾞ","pref":"鳥取県","city":"倉吉市","address":"関金町郡家"},
{"zip_code":"6820411","kana_pref":"ﾄｯﾄﾘｹﾝ","kana_city":"ｸﾗﾖｼｼ","kana_address":"ｾｷｶﾞﾈﾁｮｳｾｷｶﾞﾈｼｭｸ","pref":"鳥取県","city":"倉吉市","address":"関金町関金宿"},
{"zip_code":"6820404","kana_pref":"ﾄｯﾄﾘｹﾝ","kana_city":"ｸﾗﾖｼｼ","kana_address":"ｾｷｶﾞﾈﾁｮｳﾀｲｷｭｳｼﾞ","pref":"鳥取県","city":"倉吉市","address":"関金町泰久寺"},
{"zip_code":"6820434","kana_pref":"ﾄｯﾄﾘｹﾝ","kana_city":"ｸﾗﾖｼｼ","kana_address":"ｾｷｶﾞﾈﾁｮｳﾉｿﾞｴ","pref":"鳥取県","city":"倉吉市","address":"関金町野添"},
{"zip_code":"6820432","kana_pref":"ﾄｯﾄﾘｹﾝ","kana_city":"ｸﾗﾖｼｼ","kana_address":"ｾｷｶﾞﾈﾁｮｳﾌｸﾊﾗ","pref":"鳥取県","city":"倉吉市","address":"関金町福原"},
{"zip_code":"6820422","kana_pref":"ﾄｯﾄﾘｹﾝ","kana_city":"ｸﾗﾖｼｼ","kana_address":"ｾｷｶﾞﾈﾁｮｳﾎﾘ","pref":"鳥取県","city":"倉吉市","address":"関金町堀"},
{"zip_code":"6820403","kana_pref":"ﾄｯﾄﾘｹﾝ","kana_city":"ｸﾗﾖｼｼ","kana_address":"ｾｷｶﾞﾈﾁｮｳﾏﾂｶﾞﾜﾗ","pref":"鳥取県","city":"倉吉市","address":"関金町松河原"},
{"zip_code":"6820423","kana_pref":"ﾄｯﾄﾘｹﾝ","kana_city":"ｸﾗﾖｼｼ","kana_address":"ｾｷｶﾞﾈﾁｮｳﾐｮｳｺｳ","pref":"鳥取県","city":"倉吉市","address":"関金町明高"},
{"zip_code":"6820412","kana_pref":"ﾄｯﾄﾘｹﾝ","kana_city":"ｸﾗﾖｼｼ","kana_address":"ｾｷｶﾞﾈﾁｮｳﾔﾏｸﾞﾁ","pref":"鳥取県","city":"倉吉市","address":"関金町山口"},
{"zip_code":"6820431","kana_pref":"ﾄｯﾄﾘｹﾝ","kana_city":"ｸﾗﾖｼｼ","kana_address":"ｾｷｶﾞﾈﾁｮｳﾖﾈﾄﾞﾒ","pref":"鳥取県","city":"倉吉市","address":"関金町米富"},
{"zip_code":"6820863","kana_pref":"ﾄｯﾄﾘｹﾝ","kana_city":"ｸﾗﾖｼｼ","kana_address":"ｾｻｷﾏﾁ","pref":"鳥取県","city":"倉吉市","address":"瀬崎町"},
{"zip_code":"6820886","kana_pref":"ﾄｯﾄﾘｹﾝ","kana_city":"ｸﾗﾖｼｼ","kana_address":"ﾀｲｼｮｳﾏﾁ","pref":"鳥取県","city":"倉吉市","address":"大正町"},
{"zip_code":"6820816","kana_pref":"ﾄｯﾄﾘｹﾝ","kana_city":"ｸﾗﾖｼｼ","kana_address":"ﾀﾞｷｮｳｼﾞﾁｮｳ","pref":"鳥取県","city":"倉吉市","address":"駄経寺町"},
{"zip_code":"6820626","kana_pref":"ﾄｯﾄﾘｹﾝ","kana_city":"ｸﾗﾖｼｼ","kana_address":"ﾀﾃﾐ","pref":"鳥取県","city":"倉吉市","address":"立見"},
{"zip_code":"6820954","kana_pref":"ﾄｯﾄﾘｹﾝ","kana_city":"ｸﾗﾖｼｼ","kana_address":"ﾀﾆ","pref":"鳥取県","city":"倉吉市","address":"谷"},
{"zip_code":"6820951","kana_pref":"ﾄｯﾄﾘｹﾝ","kana_city":"ｸﾗﾖｼｼ","kana_address":"ﾂﾜﾗ","pref":"鳥取県","city":"倉吉市","address":"津原"},
{"zip_code":"6820911","kana_pref":"ﾄｯﾄﾘｹﾝ","kana_city":"ｸﾗﾖｼｼ","kana_address":"ﾃﾗﾀﾞﾆ","pref":"鳥取県","city":"倉吉市","address":"寺谷"},
{"zip_code":"6820043","kana_pref":"ﾄｯﾄﾘｹﾝ","kana_city":"ｸﾗﾖｼｼ","kana_address":"ﾃﾝｼﾞﾝﾁｮｳ","pref":"鳥取県","city":"倉吉市","address":"天神町"},
{"zip_code":"6820884","kana_pref":"ﾄｯﾄﾘｹﾝ","kana_city":"ｸﾗﾖｼｼ","kana_address":"ﾄｷﾞﾔﾏﾁ","pref":"鳥取県","city":"倉吉市","address":"研屋町"},
{"zip_code":"6820832","kana_pref":"ﾄｯﾄﾘｹﾝ","kana_city":"ｸﾗﾖｼｼ","kana_address":"ﾄﾄﾞﾐ","pref":"鳥取県","city":"倉吉市","address":"富海"},
{"zip_code":"6820002","kana_pref":"ﾄｯﾄﾘｹﾝ","kana_city":"ｸﾗﾖｼｼ","kana_address":"ﾅｶｴ","pref":"鳥取県","city":"倉吉市","address":"中江"},
{"zip_code":"6820856","kana_pref":"ﾄｯﾄﾘｹﾝ","kana_city":"ｸﾗﾖｼｼ","kana_address":"ﾅｶｶﾞﾜﾗ","pref":"鳥取県","city":"倉吉市","address":"中河原"},
{"zip_code":"6820612","kana_pref":"ﾄｯﾄﾘｹﾝ","kana_city":"ｸﾗﾖｼｼ","kana_address":"ﾅｶﾉ","pref":"鳥取県","city":"倉吉市","address":"中野"},
{"zip_code":"6820824","kana_pref":"ﾄｯﾄﾘｹﾝ","kana_city":"ｸﾗﾖｼｼ","kana_address":"ﾅｶﾉﾁｮｳ","pref":"鳥取県","city":"倉吉市","address":"仲ノ町"},
{"zip_code":"6820836","kana_pref":"ﾄｯﾄﾘｹﾝ","kana_city":"ｸﾗﾖｼｼ","kana_address":"ﾅｶﾞｻｶｼﾝﾏﾁ","pref":"鳥取県","city":"倉吉市","address":"長坂新町"},
{"zip_code":"6820835","kana_pref":"ﾄｯﾄﾘｹﾝ","kana_city":"ｸﾗﾖｼｼ","kana_address":"ﾅｶﾞｻｶﾁｮｳ","pref":"鳥取県","city":"倉吉市","address":"長坂町"},
{"zip_code":"6820622","kana_pref":"ﾄｯﾄﾘｹﾝ","kana_city":"ｸﾗﾖｼｼ","kana_address":"ﾅｶﾞﾀﾆ","pref":"鳥取県","city":"倉吉市","address":"長谷"},
{"zip_code":"6820874","kana_pref":"ﾄｯﾄﾘｹﾝ","kana_city":"ｸﾗﾖｼｼ","kana_address":"ﾆｼｲﾜｸﾗﾏﾁ","pref":"鳥取県","city":"倉吉市","address":"西岩倉町"},
{"zip_code":"6820851","kana_pref":"ﾄｯﾄﾘｹﾝ","kana_city":"ｸﾗﾖｼｼ","kana_address":"ﾆｼｸﾗﾖｼﾁｮｳ","pref":"鳥取県","city":"倉吉市","address":"西倉吉町"},
{"zip_code":"6820825","kana_pref":"ﾄｯﾄﾘｹﾝ","kana_city":"ｸﾗﾖｼｼ","kana_address":"ﾆｼﾅｶﾏﾁ","pref":"鳥取県","city":"倉吉市","address":"西仲町"},
{"zip_code":"6820921","kana_pref":"ﾄｯﾄﾘｹﾝ","kana_city":"ｸﾗﾖｼｼ","kana_address":"ﾆｼﾌｸﾓﾘﾁｮｳ","pref":"鳥取県","city":"倉吉市","address":"西福守町"},
{"zip_code":"6820862","kana_pref":"ﾄｯﾄﾘｹﾝ","kana_city":"ｸﾗﾖｼｼ","kana_address":"ﾆｼﾏﾁ","pref":"鳥取県","city":"倉吉市","address":"西町"},
{"zip_code":"6820036","kana_pref":"ﾄｯﾄﾘｹﾝ","kana_city":"ｸﾗﾖｼｼ","kana_address":"ﾆｼﾞｶﾞｵｶﾁｮｳ","pref":"鳥取県","city":"倉吉市","address":"虹ケ丘町"},
{"zip_code":"6820831","kana_pref":"ﾄｯﾄﾘｹﾝ","kana_city":"ｸﾗﾖｼｼ","kana_address":"ﾊﾁﾏﾝﾁｮｳ","pref":"鳥取県","city":"倉吉市","address":"八幡町"},
{"zip_code":"6820635","kana_pref":"ﾄｯﾄﾘｹﾝ","kana_city":"ｸﾗﾖｼｼ","kana_address":"ﾊｯﾄﾘ","pref":"鳥取県","city":"倉吉市","address":"服部"},
{"zip_code":"6820953","kana_pref":"ﾄｯﾄﾘｹﾝ","kana_city":"ｸﾗﾖｼｼ","kana_address":"ﾊﾝｻﾞｶ","pref":"鳥取県","city":"倉吉市","address":"半坂"},
{"zip_code":"6820914","kana_pref":"ﾄｯﾄﾘｹﾝ","kana_city":"ｸﾗﾖｼｼ","kana_address":"ﾊﾞﾊﾞﾁｮｳ","pref":"鳥取県","city":"倉吉市","address":"馬場町"},
{"zip_code":"6820624","kana_pref":"ﾄｯﾄﾘｹﾝ","kana_city":"ｸﾗﾖｼｼ","kana_address":"ﾊﾝﾆｬ","pref":"鳥取県","city":"倉吉市","address":"般若"},
{"zip_code":"6820802","kana_pref":"ﾄｯﾄﾘｹﾝ","kana_city":"ｸﾗﾖｼｼ","kana_address":"ﾋｶﾞｼｲﾜｷﾁｮｳ","pref":"鳥取県","city":"倉吉市","address":"東巌城町"},
{"zip_code":"6820873","kana_pref":"ﾄｯﾄﾘｹﾝ","kana_city":"ｸﾗﾖｼｼ","kana_address":"ﾋｶﾞｼｲﾜｸﾗﾏﾁ","pref":"鳥取県","city":"倉吉市","address":"東岩倉町"},
{"zip_code":"6820834","kana_pref":"ﾄｯﾄﾘｹﾝ","kana_city":"ｸﾗﾖｼｼ","kana_address":"ﾋｶﾞｼｶﾞﾓ","pref":"鳥取県","city":"倉吉市","address":"東鴨"},
{"zip_code":"6820833","kana_pref":"ﾄｯﾄﾘｹﾝ","kana_city":"ｸﾗﾖｼｼ","kana_address":"ﾋｶﾞｼｶﾞﾓｼﾝﾏﾁ","pref":"鳥取県","city":"倉吉市","address":"東鴨新町"},
{"zip_code":"6820804","kana_pref":"ﾄｯﾄﾘｹﾝ","kana_city":"ｸﾗﾖｼｼ","kana_address":"ﾋｶﾞｼｼｮｳﾜﾏﾁ","pref":"鳥取県","city":"倉吉市","address":"東昭和町"},
{"zip_code":"6820826","kana_pref":"ﾄｯﾄﾘｹﾝ","kana_city":"ｸﾗﾖｼｼ","kana_address":"ﾋｶﾞｼﾅｶﾏﾁ","pref":"鳥取県","city":"倉吉市","address":"東仲町"},
{"zip_code":"6820823","kana_pref":"ﾄｯﾄﾘｹﾝ","kana_city":"ｸﾗﾖｼｼ","kana_address":"ﾋｶﾞｼﾏﾁ","pref":"鳥取県","city":"倉吉市","address":"東町"},
{"zip_code":"6820844","kana_pref":"ﾄｯﾄﾘｹﾝ","kana_city":"ｸﾗﾖｼｼ","kana_address":"ﾋﾛｾ","pref":"鳥取県","city":"倉吉市","address":"広瀬"},
{"zip_code":"6820866","kana_pref":"ﾄｯﾄﾘｹﾝ","kana_city":"ｸﾗﾖｼｼ","kana_address":"ﾋﾛｾﾏﾁ","pref":"鳥取県","city":"倉吉市","address":"広瀬町"},
{"zip_code":"6820644","kana_pref":"ﾄｯﾄﾘｹﾝ","kana_city":"ｸﾗﾖｼｼ","kana_address":"ﾌｸﾂﾞﾐ","pref":"鳥取県","city":"倉吉市","address":"福積"},
{"zip_code":"6820605","kana_pref":"ﾄｯﾄﾘｹﾝ","kana_city":"ｸﾗﾖｼｼ","kana_address":"ﾌｸﾄﾞﾐ","pref":"鳥取県","city":"倉吉市","address":"福富"},
{"zip_code":"6820013","kana_pref":"ﾄｯﾄﾘｹﾝ","kana_city":"ｸﾗﾖｼｼ","kana_address":"ﾌｸﾊﾞ","pref":"鳥取県","city":"倉吉市","address":"福庭"},
{"zip_code":"6820018","kana_pref":"ﾄｯﾄﾘｹﾝ","kana_city":"ｸﾗﾖｼｼ","kana_address":"ﾌｸﾊﾞﾁｮｳ","pref":"鳥取県","city":"倉吉市","address":"福庭町"},
{"zip_code":"6820944","kana_pref":"ﾄｯﾄﾘｹﾝ","kana_city":"ｸﾗﾖｼｼ","kana_address":"ﾌｸﾐﾂ","pref":"鳥取県","city":"倉吉市","address":"福光"},
{"zip_code":"6820604","kana_pref":"ﾄｯﾄﾘｹﾝ","kana_city":"ｸﾗﾖｼｼ","kana_address":"ﾌｸﾓﾄ","pref":"鳥取県","city":"倉吉市","address":"福本"},
{"zip_code":"6820922","kana_pref":"ﾄｯﾄﾘｹﾝ","kana_city":"ｸﾗﾖｼｼ","kana_address":"ﾌｸﾓﾘﾁｮｳ","pref":"鳥取県","city":"倉吉市","address":"福守町"},
{"zip_code":"6820847","kana_pref":"ﾄｯﾄﾘｹﾝ","kana_city":"ｸﾗﾖｼｼ","kana_address":"ﾌｸﾔﾏ","pref":"鳥取県","city":"倉吉市","address":"福山"},
{"zip_code":"6820872","kana_pref":"ﾄｯﾄﾘｹﾝ","kana_city":"ｸﾗﾖｼｼ","kana_address":"ﾌｸﾖｼﾁｮｳ","pref":"鳥取県","city":"倉吉市","address":"福吉町"},
{"zip_code":"6820915","kana_pref":"ﾄｯﾄﾘｹﾝ","kana_city":"ｸﾗﾖｼｼ","kana_address":"ﾌﾆｵｶ","pref":"鳥取県","city":"倉吉市","address":"不入岡"},
{"zip_code":"6820004","kana_pref":"ﾄｯﾄﾘｹﾝ","kana_city":"ｸﾗﾖｼｼ","kana_address":"ﾌﾙｶﾜｻﾜ","pref":"鳥取県","city":"倉吉市","address":"古川沢"},
{"zip_code":"6820905","kana_pref":"ﾄｯﾄﾘｹﾝ","kana_city":"ｸﾗﾖｼｼ","kana_address":"ﾍﾞｯｼﾖ","pref":"鳥取県","city":"倉吉市","address":"別所"},
{"zip_code":"6820852","kana_pref":"ﾄｯﾄﾘｹﾝ","kana_city":"ｸﾗﾖｼｼ","kana_address":"ﾏﾙﾔﾏﾁｮｳ","pref":"鳥取県","city":"倉吉市","address":"丸山町"},
{"zip_code":"6820603","kana_pref":"ﾄｯﾄﾘｹﾝ","kana_city":"ｸﾗﾖｼｼ","kana_address":"ﾐｴ","pref":"鳥取県","city":"倉吉市","address":"三江"},
{"zip_code":"6820854","kana_pref":"ﾄｯﾄﾘｹﾝ","kana_city":"ｸﾗﾖｼｼ","kana_address":"ﾐﾄﾞﾘﾏﾁ","pref":"鳥取県","city":"倉吉市","address":"みどり町"},
{"zip_code":"6820882","kana_pref":"ﾄｯﾄﾘｹﾝ","kana_city":"ｸﾗﾖｼｼ","kana_address":"ﾐﾅﾄﾏﾁ","pref":"鳥取県","city":"倉吉市","address":"湊町"},
{"zip_code":"6820805","kana_pref":"ﾄｯﾄﾘｹﾝ","kana_city":"ｸﾗﾖｼｼ","kana_address":"ﾐﾅﾐｼｮｳﾜﾏﾁ","pref":"鳥取県","city":"倉吉市","address":"南昭和町"},
{"zip_code":"6820845","kana_pref":"ﾄｯﾄﾘｹﾝ","kana_city":"ｸﾗﾖｼｼ","kana_address":"ﾐﾐ","pref":"鳥取県","city":"倉吉市","address":"耳"},
{"zip_code":"6820881","kana_pref":"ﾄｯﾄﾘｹﾝ","kana_city":"ｸﾗﾖｼｼ","kana_address":"ﾐﾔｶﾞﾜﾁｮｳ","pref":"鳥取県","city":"倉吉市","address":"宮川町"},
{"zip_code":"6820803","kana_pref":"ﾄｯﾄﾘｹﾝ","kana_city":"ｸﾗﾖｼｼ","kana_address":"ﾐﾙｶﾁｮｳ","pref":"鳥取県","city":"倉吉市","address":"見日町"},
{"zip_code":"6820887","kana_pref":"ﾄｯﾄﾘｹﾝ","kana_city":"ｸﾗﾖｼｼ","kana_address":"ﾒｲｼﾞﾏﾁ","pref":"鳥取県","city":"倉吉市","address":"明治町"},
{"zip_code":"6820625","kana_pref":"ﾄｯﾄﾘｹﾝ","kana_city":"ｸﾗﾖｼｼ","kana_address":"ﾓｸﾅﾐ","pref":"鳥取県","city":"倉吉市","address":"椋波"},
{"zip_code":"6820615","kana_pref":"ﾄｯﾄﾘｹﾝ","kana_city":"ｸﾗﾖｼｼ","kana_address":"ﾓﾘ","pref":"鳥取県","city":"倉吉市","address":"森"},
{"zip_code":"6820025","kana_pref":"ﾄｯﾄﾘｹﾝ","kana_city":"ｸﾗﾖｼｼ","kana_address":"ﾔﾂﾔ","pref":"鳥取県","city":"倉吉市","address":"八屋"},
{"zip_code":"6820023","kana_pref":"ﾄｯﾄﾘｹﾝ","kana_city":"ｸﾗﾖｼｼ","kana_address":"ﾔﾏﾈ","pref":"鳥取県","city":"倉吉市","address":"山根"},
{"zip_code":"6820946","kana_pref":"ﾄｯﾄﾘｹﾝ","kana_city":"ｸﾗﾖｼｼ","kana_address":"ﾖｺﾀ","pref":"鳥取県","city":"倉吉市","address":"横田"},
{"zip_code":"6820853","kana_pref":"ﾄｯﾄﾘｹﾝ","kana_city":"ｸﾗﾖｼｼ","kana_address":"ﾖﾄﾞﾔﾁｮｳ","pref":"鳥取県","city":"倉吉市","address":"余戸谷町"},
{"zip_code":"6820814","kana_pref":"ﾄｯﾄﾘｹﾝ","kana_city":"ｸﾗﾖｼｼ","kana_address":"ﾖﾈﾀﾞﾁｮｳ","pref":"鳥取県","city":"倉吉市","address":"米田町"},
{"zip_code":"6820912","kana_pref":"ﾄｯﾄﾘｹﾝ","kana_city":"ｸﾗﾖｼｼ","kana_address":"ﾜﾀﾞ","pref":"鳥取県","city":"倉吉市","address":"和田"},
{"zip_code":"6820913","kana_pref":"ﾄｯﾄﾘｹﾝ","kana_city":"ｸﾗﾖｼｼ","kana_address":"ﾜﾀﾞﾋｶﾞｼﾏﾁ","pref":"鳥取県","city":"倉吉市","address":"和田東町"},
{"zip_code":"6820100","kana_pref":"ﾄｯﾄﾘｹﾝ","kana_city":"ﾄｳﾊｸｸﾞﾝﾐｻｻﾁｮｳ","kana_address":"","pref":"鳥取県","city":"東伯郡三朝町","address":""},
{"zip_code":"6820172","kana_pref":"ﾄｯﾄﾘｹﾝ","kana_city":"ﾄｳﾊｸｸﾞﾝﾐｻｻﾁｮｳ","kana_address":"ｱｶﾏﾂ","pref":"鳥取県","city":"東伯郡三朝町","address":"赤松"},
{"zip_code":"6820303","kana_pref":"ﾄｯﾄﾘｹﾝ","kana_city":"ﾄｳﾊｸｸﾞﾝﾐｻｻﾁｮｳ","kana_address":"ｱﾅｶﾞﾓ","pref":"鳥取県","city":"東伯郡三朝町","address":"穴鴨"},
{"zip_code":"6820151","kana_pref":"ﾄｯﾄﾘｹﾝ","kana_city":"ﾄｳﾊｸｸﾞﾝﾐｻｻﾁｮｳ","kana_address":"ｲﾏｲｽﾞﾐ","pref":"鳥取県","city":"東伯郡三朝町","address":"今泉"},
{"zip_code":"6820177","kana_pref":"ﾄｯﾄﾘｹﾝ","kana_city":"ﾄｳﾊｸｸﾞﾝﾐｻｻﾁｮｳ","kana_address":"ｵｵｶﾞｷ","pref":"鳥取県","city":"東伯郡三朝町","address":"大柿"},
{"zip_code":"6820121","kana_pref":"ﾄｯﾄﾘｹﾝ","kana_city":"ﾄｳﾊｸｸﾞﾝﾐｻｻﾁｮｳ","kana_address":"ｵｵｾﾞ","pref":"鳥取県","city":"東伯郡三朝町","address":"大瀬"},
{"zip_code":"6820315","kana_pref":"ﾄｯﾄﾘｹﾝ","kana_city":"ﾄｳﾊｸｸﾞﾝﾐｻｻﾁｮｳ","kana_address":"ｵｵﾀﾆ","pref":"鳥取県","city":"東伯郡三朝町","address":"大谷"},
{"zip_code":"6820157","kana_pref":"ﾄｯﾄﾘｹﾝ","kana_city":"ﾄｳﾊｸｸﾞﾝﾐｻｻﾁｮｳ","kana_address":"ｵｺﾞﾁ","pref":"鳥取県","city":"東伯郡三朝町","address":"小河内"},
{"zip_code":"6820173","kana_pref":"ﾄｯﾄﾘｹﾝ","kana_city":"ﾄｳﾊｸｸﾞﾝﾐｻｻﾁｮｳ","kana_address":"ｵﾝｼﾞ","pref":"鳥取県","city":"東伯郡三朝町","address":"恩地"},
{"zip_code":"6820161","kana_pref":"ﾄｯﾄﾘｹﾝ","kana_city":"ﾄｳﾊｸｸﾞﾝﾐｻｻﾁｮｳ","kana_address":"ｶｷﾀﾞﾆ","pref":"鳥取県","city":"東伯郡三朝町","address":"柿谷"},
{"zip_code":"6820135","kana_pref":"ﾄｯﾄﾘｹﾝ","kana_city":"ﾄｳﾊｸｸﾞﾝﾐｻｻﾁｮｳ","kana_address":"ｶﾀｼﾊﾞ","pref":"鳥取県","city":"東伯郡三朝町","address":"片柴"},
{"zip_code":"6820302","kana_pref":"ﾄｯﾄﾘｹﾝ","kana_city":"ﾄｳﾊｸｸﾞﾝﾐｻｻﾁｮｳ","kana_address":"ｶﾀﾞﾆ","pref":"鳥取県","city":"東伯郡三朝町","address":"加谷"},
{"zip_code":"6820154","kana_pref":"ﾄｯﾄﾘｹﾝ","kana_city":"ﾄｳﾊｸｸﾞﾝﾐｻｻﾁｮｳ","kana_address":"ｶﾏﾀﾞ","pref":"鳥取県","city":"東伯郡三朝町","address":"鎌田"},
{"zip_code":"6820313","kana_pref":"ﾄｯﾄﾘｹﾝ","kana_city":"ﾄｳﾊｸｸﾞﾝﾐｻｻﾁｮｳ","kana_address":"ｶﾐﾆｼﾀﾞﾆ","pref":"鳥取県","city":"東伯郡三朝町","address":"上西谷"},
{"zip_code":"6820142","kana_pref":"ﾄｯﾄﾘｹﾝ","kana_city":"ﾄｳﾊｸｸﾞﾝﾐｻｻﾁｮｳ","kana_address":"ｶﾝﾉｸﾗ","pref":"鳥取県","city":"東伯郡三朝町","address":"神倉"},
{"zip_code":"6820301","kana_pref":"ﾄｯﾄﾘｹﾝ","kana_city":"ﾄｳﾊｸｸﾞﾝﾐｻｻﾁｮｳ","kana_address":"ｷｼﾞﾔﾏ","pref":"鳥取県","city":"東伯郡三朝町","address":"木地山"},
{"zip_code":"6820375","kana_pref":"ﾄｯﾄﾘｹﾝ","kana_city":"ﾄｳﾊｸｸﾞﾝﾐｻｻﾁｮｳ","kana_address":"ｸﾊﾞﾗ","pref":"鳥取県","city":"東伯郡三朝町","address":"久原"},
{"zip_code":"6820123","kana_pref":"ﾄｯﾄﾘｹﾝ","kana_city":"ﾄｳﾊｸｸﾞﾝﾐｻｻﾁｮｳ","kana_address":"ｺｲﾀﾞﾆ","pref":"鳥取県","city":"東伯郡三朝町","address":"恋谷"},
{"zip_code":"6820136","kana_pref":"ﾄｯﾄﾘｹﾝ","kana_city":"ﾄｳﾊｸｸﾞﾝﾐｻｻﾁｮｳ","kana_address":"ｻｶﾓﾄ","pref":"鳥取県","city":"東伯郡三朝町","address":"坂本"},
{"zip_code":"6820133","kana_pref":"ﾄｯﾄﾘｹﾝ","kana_city":"ﾄｳﾊｸｸﾞﾝﾐｻｻﾁｮｳ","kana_address":"ｻｸﾗｶﾞｵｶ","pref":"鳥取県","city":"東伯郡三朝町","address":"桜ケ丘"},
{"zip_code":"6820156","kana_pref":"ﾄｯﾄﾘｹﾝ","kana_city":"ﾄｳﾊｸｸﾞﾝﾐｻｻﾁｮｳ","kana_address":"ｼﾓﾀﾞﾆ","pref":"鳥取県","city":"東伯郡三朝町","address":"下谷"},
{"zip_code":"6820312","kana_pref":"ﾄｯﾄﾘｹﾝ","kana_city":"ﾄｳﾊｸｸﾞﾝﾐｻｻﾁｮｳ","kana_address":"ｼﾓﾆｼﾀﾞﾆ","pref":"鳥取県","city":"東伯郡三朝町","address":"下西谷"},
{"zip_code":"6820316","kana_pref":"ﾄｯﾄﾘｹﾝ","kana_city":"ﾄｳﾊｸｸﾞﾝﾐｻｻﾁｮｳ","kana_address":"ｼﾓﾊﾞﾀ","pref":"鳥取県","city":"東伯郡三朝町","address":"下畑"},
{"zip_code":"6820176","kana_pref":"ﾄｯﾄﾘｹﾝ","kana_city":"ﾄｳﾊｸｸﾞﾝﾐｻｻﾁｮｳ","kana_address":"ｽｹﾀﾞﾆ","pref":"鳥取県","city":"東伯郡三朝町","address":"助谷"},
{"zip_code":"6820124","kana_pref":"ﾄｯﾄﾘｹﾝ","kana_city":"ﾄｳﾊｸｸﾞﾝﾐｻｻﾁｮｳ","kana_address":"ｽﾅﾜﾗ","pref":"鳥取県","city":"東伯郡三朝町","address":"砂原"},
{"zip_code":"6820374","kana_pref":"ﾄｯﾄﾘｹﾝ","kana_city":"ﾄｳﾊｸｸﾞﾝﾐｻｻﾁｮｳ","kana_address":"ｿｳｹﾞﾝｼﾞ","pref":"鳥取県","city":"東伯郡三朝町","address":"曹源寺"},
{"zip_code":"6820146","kana_pref":"ﾄｯﾄﾘｹﾝ","kana_city":"ﾄｳﾊｸｸﾞﾝﾐｻｻﾁｮｳ","kana_address":"ﾀｶﾊｼ","pref":"鳥取県","city":"東伯郡三朝町","address":"高橋"},
{"zip_code":"6820314","kana_pref":"ﾄｯﾄﾘｹﾝ","kana_city":"ﾄｳﾊｸｸﾞﾝﾐｻｻﾁｮｳ","kana_address":"ﾀｼﾛ","pref":"鳥取県","city":"東伯郡三朝町","address":"田代"},
{"zip_code":"6820131","kana_pref":"ﾄｯﾄﾘｹﾝ","kana_city":"ﾄｳﾊｸｸﾞﾝﾐｻｻﾁｮｳ","kana_address":"ﾀﾜﾗ","pref":"鳥取県","city":"東伯郡三朝町","address":"俵原"},
{"zip_code":"6820158","kana_pref":"ﾄｯﾄﾘｹﾝ","kana_city":"ﾄｳﾊｸｸﾞﾝﾐｻｻﾁｮｳ","kana_address":"ﾂｶﾞ","pref":"鳥取県","city":"東伯郡三朝町","address":"笏賀"},
{"zip_code":"6820153","kana_pref":"ﾄｯﾄﾘｹﾝ","kana_city":"ﾄｳﾊｸｸﾞﾝﾐｻｻﾁｮｳ","kana_address":"ﾃﾝｼﾞﾝ","pref":"鳥取県","city":"東伯郡三朝町","address":"天神"},
{"zip_code":"6820125","kana_pref":"ﾄｯﾄﾘｹﾝ","kana_city":"ﾄｳﾊｸｸﾞﾝﾐｻｻﾁｮｳ","kana_address":"ﾄｸﾓﾄ","pref":"鳥取県","city":"東伯郡三朝町","address":"徳本"},
{"zip_code":"6820141","kana_pref":"ﾄｯﾄﾘｹﾝ","kana_city":"ﾄｳﾊｸｸﾞﾝﾐｻｻﾁｮｳ","kana_address":"ﾅｶﾂ","pref":"鳥取県","city":"東伯郡三朝町","address":"中津"},
{"zip_code":"6820162","kana_pref":"ﾄｯﾄﾘｹﾝ","kana_city":"ﾄｳﾊｸｸﾞﾝﾐｻｻﾁｮｳ","kana_address":"ﾅﾏﾘﾔﾏ","pref":"鳥取県","city":"東伯郡三朝町","address":"鉛山"},
{"zip_code":"6820145","kana_pref":"ﾄｯﾄﾘｹﾝ","kana_city":"ﾄｳﾊｸｸﾞﾝﾐｻｻﾁｮｳ","kana_address":"ﾆｼｵ","pref":"鳥取県","city":"東伯郡三朝町","address":"西尾"},
{"zip_code":"6820144","kana_pref":"ﾄｯﾄﾘｹﾝ","kana_city":"ﾄｳﾊｸｸﾞﾝﾐｻｻﾁｮｳ","kana_address":"ﾆｼｵｼｶ","pref":"鳥取県","city":"東伯郡三朝町","address":"西小鹿"},
{"zip_code":"6820143","kana_pref":"ﾄｯﾄﾘｹﾝ","kana_city":"ﾄｳﾊｸｸﾞﾝﾐｻｻﾁｮｳ","kana_address":"ﾋｶﾞｼｵｼｶ","pref":"鳥取県","city":"東伯郡三朝町","address":"東小鹿"},
{"zip_code":"6820159","kana_pref":"ﾄｯﾄﾘｹﾝ","kana_city":"ﾄｳﾊｸｸﾞﾝﾐｻｻﾁｮｳ","kana_address":"ﾌｸﾀﾞ","pref":"鳥取県","city":"東伯郡三朝町","address":"福田"},
{"zip_code":"6820317","kana_pref":"ﾄｯﾄﾘｹﾝ","kana_city":"ﾄｳﾊｸｸﾞﾝﾐｻｻﾁｮｳ","kana_address":"ﾌｸﾓﾄ","pref":"鳥取県","city":"東伯郡三朝町","address":"福本"},
{"zip_code":"6820311","kana_pref":"ﾄｯﾄﾘｹﾝ","kana_city":"ﾄｳﾊｸｸﾞﾝﾐｻｻﾁｮｳ","kana_address":"ﾌｸﾔﾏ","pref":"鳥取県","city":"東伯郡三朝町","address":"福山"},
{"zip_code":"6820163","kana_pref":"ﾄｯﾄﾘｹﾝ","kana_city":"ﾄｳﾊｸｸﾞﾝﾐｻｻﾁｮｳ","kana_address":"ﾌｸﾖｼ","pref":"鳥取県","city":"東伯郡三朝町","address":"福吉"},
{"zip_code":"6820178","kana_pref":"ﾄｯﾄﾘｹﾝ","kana_city":"ﾄｳﾊｸｸﾞﾝﾐｻｻﾁｮｳ","kana_address":"ﾏｷ","pref":"鳥取県","city":"東伯郡三朝町","address":"牧"},
{"zip_code":"6820123","kana_pref":"ﾄｯﾄﾘｹﾝ","kana_city":"ﾄｳﾊｸｸﾞﾝﾐｻｻﾁｮｳ","kana_address":"ﾐｻｻ","pref":"鳥取県","city":"東伯郡三朝町","address":"三朝"},
{"zip_code":"6820132","kana_pref":"ﾄｯﾄﾘｹﾝ","kana_city":"ﾄｳﾊｸｸﾞﾝﾐｻｻﾁｮｳ","kana_address":"ﾐﾄｸ","pref":"鳥取県","city":"東伯郡三朝町","address":"三徳"},
{"zip_code":"6820152","kana_pref":"ﾄｯﾄﾘｹﾝ","kana_city":"ﾄｳﾊｸｸﾞﾝﾐｻｻﾁｮｳ","kana_address":"ﾓﾄｲｽﾞﾐ","pref":"鳥取県","city":"東伯郡三朝町","address":"本泉"},
{"zip_code":"6820153","kana_pref":"ﾄｯﾄﾘｹﾝ","kana_city":"ﾄｳﾊｸｸﾞﾝﾐｻｻﾁｮｳ","kana_address":"ﾓﾘ","pref":"鳥取県","city":"東伯郡三朝町","address":"森"},
{"zip_code":"6820122","kana_pref":"ﾄｯﾄﾘｹﾝ","kana_city":"ﾄｳﾊｸｸﾞﾝﾐｻｻﾁｮｳ","kana_address":"ﾔﾏﾀﾞ","pref":"鳥取県","city":"東伯郡三朝町","address":"山田"},
{"zip_code":"6820171","kana_pref":"ﾄｯﾄﾘｹﾝ","kana_city":"ﾄｳﾊｸｸﾞﾝﾐｻｻﾁｮｳ","kana_address":"ﾕﾀﾆ","pref":"鳥取県","city":"東伯郡三朝町","address":"湯谷"},
{"zip_code":"6820125","kana_pref":"ﾄｯﾄﾘｹﾝ","kana_city":"ﾄｳﾊｸｸﾞﾝﾐｻｻﾁｮｳ","kana_address":"ﾖｺﾃ","pref":"鳥取県","city":"東伯郡三朝町","address":"横手"},
{"zip_code":"6820155","kana_pref":"ﾄｯﾄﾘｹﾝ","kana_city":"ﾄｳﾊｸｸﾞﾝﾐｻｻﾁｮｳ","kana_address":"ﾖｼｵ","pref":"鳥取県","city":"東伯郡三朝町","address":"吉尾"},
{"zip_code":"6820133","kana_pref":"ﾄｯﾄﾘｹﾝ","kana_city":"ﾄｳﾊｸｸﾞﾝﾐｻｻﾁｮｳ","kana_address":"ﾖｼﾀﾞ","pref":"鳥取県","city":"東伯郡三朝町","address":"吉田"},
{"zip_code":"6820134","kana_pref":"ﾄｯﾄﾘｹﾝ","kana_city":"ﾄｳﾊｸｸﾞﾝﾐｻｻﾁｮｳ","kana_address":"ﾖﾄﾞ","pref":"鳥取県","city":"東伯郡三朝町","address":"余戸"},
{"zip_code":"6820151","kana_pref":"ﾄｯﾄﾘｹﾝ","kana_city":"ﾄｳﾊｸｸﾞﾝﾐｻｻﾁｮｳ","kana_address":"ﾜｶﾐﾔ","pref":"鳥取県","city":"東伯郡三朝町","address":"若宮"},
{"zip_code":"6820700","kana_pref":"ﾄｯﾄﾘｹﾝ","kana_city":"ﾄｳﾊｸｸﾞﾝﾕﾘﾊﾏﾁｮｳ","kana_address":"","pref":"鳥取県","city":"東伯郡湯梨浜町","address":""},
{"zip_code":"6820714","kana_pref":"ﾄｯﾄﾘｹﾝ","kana_city":"ﾄｳﾊｸｸﾞﾝﾕﾘﾊﾏﾁｮｳ","kana_address":"ｱｶｲｹ","pref":"鳥取県","city":"東伯郡湯梨浜町","address":"赤池"},
{"zip_code":"6820701","kana_pref":"ﾄｯﾄﾘｹﾝ","kana_city":"ﾄｳﾊｸｸﾞﾝﾕﾘﾊﾏﾁｮｳ","kana_address":"ｳﾉ","pref":"鳥取県","city":"東伯郡湯梨浜町","address":"宇野"},
{"zip_code":"6820712","kana_pref":"ﾄｯﾄﾘｹﾝ","kana_city":"ﾄｳﾊｸｸﾞﾝﾕﾘﾊﾏﾁｮｳ","kana_address":"ｶﾐｱｿﾂﾞ","pref":"鳥取県","city":"東伯郡湯梨浜町","address":"上浅津"},
{"zip_code":"6820703","kana_pref":"ﾄｯﾄﾘｹﾝ","kana_city":"ﾄｳﾊｸｸﾞﾝﾕﾘﾊﾏﾁｮｳ","kana_address":"ｶﾐﾊｼﾂﾞ","pref":"鳥取県","city":"東伯郡湯梨浜町","address":"上橋津"},
{"zip_code":"6820711","kana_pref":"ﾄｯﾄﾘｹﾝ","kana_city":"ﾄｳﾊｸｸﾞﾝﾕﾘﾊﾏﾁｮｳ","kana_address":"ｼﾓｱｿﾂﾞ","pref":"鳥取県","city":"東伯郡湯梨浜町","address":"下浅津"},
{"zip_code":"6820721","kana_pref":"ﾄｯﾄﾘｹﾝ","kana_city":"ﾄｳﾊｸｸﾞﾝﾕﾘﾊﾏﾁｮｳ","kana_address":"ﾀｼﾞﾘ","pref":"鳥取県","city":"東伯郡湯梨浜町","address":"田後"},
{"zip_code":"6820702","kana_pref":"ﾄｯﾄﾘｹﾝ","kana_city":"ﾄｳﾊｸｸﾞﾝﾕﾘﾊﾏﾁｮｳ","kana_address":"ﾊｼﾂﾞ","pref":"鳥取県","city":"東伯郡湯梨浜町","address":"橋津"},
{"zip_code":"6820715","kana_pref":"ﾄｯﾄﾘｹﾝ","kana_city":"ﾄｳﾊｸｸﾞﾝﾕﾘﾊﾏﾁｮｳ","kana_address":"ﾊﾜｲｵﾝｾﾝ","pref":"鳥取県","city":"東伯郡湯梨浜町","address":"はわい温泉"},
{"zip_code":"6820722","kana_pref":"ﾄｯﾄﾘｹﾝ","kana_city":"ﾄｳﾊｸｸﾞﾝﾕﾘﾊﾏﾁｮｳ","kana_address":"ﾊﾜｲﾅｶﾞｾ","pref":"鳥取県","city":"東伯郡湯梨浜町","address":"はわい長瀬"},
{"zip_code":"6820723","kana_pref":"ﾄｯﾄﾘｹﾝ","kana_city":"ﾄｳﾊｸｸﾞﾝﾕﾘﾊﾏﾁｮｳ","kana_address":"ﾋｻﾄﾞﾒ","pref":"鳥取県","city":"東伯郡湯梨浜町","address":"久留"},
{"zip_code":"6820724","kana_pref":"ﾄｯﾄﾘｹﾝ","kana_city":"ﾄｳﾊｸｸﾞﾝﾕﾘﾊﾏﾁｮｳ","kana_address":"ﾐｽﾞｵﾁ","pref":"鳥取県","city":"東伯郡湯梨浜町","address":"水下"},
{"zip_code":"6820713","kana_pref":"ﾄｯﾄﾘｹﾝ","kana_city":"ﾄｳﾊｸｸﾞﾝﾕﾘﾊﾏﾁｮｳ","kana_address":"ﾐﾂﾖｼ","pref":"鳥取県","city":"東伯郡湯梨浜町","address":"光吉"},
{"zip_code":"6820704","kana_pref":"ﾄｯﾄﾘｹﾝ","kana_city":"ﾄｳﾊｸｸﾞﾝﾕﾘﾊﾏﾁｮｳ","kana_address":"ﾐﾅﾐﾀﾞﾆ","pref":"鳥取県","city":"東伯郡湯梨浜町","address":"南谷"}]}