{"zip_code":[
{"zip_code":"6830000","kana_pref":"ﾄｯﾄﾘｹﾝ","kana_city":"ﾖﾅｺﾞｼ","kana_address":"","pref":"鳥取県","city":"米子市","address":""},
{"zip_code":"6830252","kana_pref":"ﾄｯﾄﾘｹﾝ","kana_city":"ﾖﾅｺﾞｼ","kana_address":"ｱｵｷ","pref":"鳥取県","city":"米子市","address":"青木"},
{"zip_code":"6830813","kana_pref":"ﾄｯﾄﾘｹﾝ","kana_city":"ﾖﾅｺﾞｼ","kana_address":"ｱｻﾋﾏﾁ","pref":"鳥取県","city":"米子市","address":"朝日町"},
{"zip_code":"6830046","kana_pref":"ﾄｯﾄﾘｹﾝ","kana_city":"ﾖﾅｺﾞｼ","kana_address":"ｱﾀｺﾞﾁｮｳ","pref":"鳥取県","city":"米子市","address":"愛宕町"},
{"zip_code":"6830846","kana_pref":"ﾄｯﾄﾘｹﾝ","kana_city":"ﾖﾅｺﾞｼ","kana_address":"ｱﾍﾞ","pref":"鳥取県","city":"米子市","address":"安倍"},
{"zip_code":"6830021","kana_pref":"ﾄｯﾄﾘｹﾝ","kana_city":"ﾖﾅｺﾞｼ","kana_address":"ｲｼｲ","pref":"鳥取県","city":"米子市","address":"石井"},
{"zip_code":"6830833","kana_pref":"ﾄｯﾄﾘｹﾝ","kana_city":"ﾖﾅｺﾞｼ","kana_address":"ｲﾜｸﾗﾏﾁ","pref":"鳥取県","city":"米子市","address":"岩倉町"},
{"zip_code":"6830027","kana_pref":"ﾄｯﾄﾘｹﾝ","kana_city":"ﾖﾅｺﾞｼ","kana_address":"ｲﾝﾀﾞﾁｮｳ","pref":"鳥取県","city":"米子市","address":"陰田町"},
{"zip_code":"6830834","kana_pref":"ﾄｯﾄﾘｹﾝ","kana_city":"ﾖﾅｺﾞｼ","kana_address":"ｳﾁﾏﾁ","pref":"鳥取県","city":"米子市","address":"内町"},
{"zip_code":"6830257","kana_pref":"ﾄｯﾄﾘｹﾝ","kana_city":"ﾖﾅｺﾞｼ","kana_address":"ｴﾉｷﾊﾗ","pref":"鳥取県","city":"米子市","address":"榎原"},
{"zip_code":"6830104","kana_pref":"ﾄｯﾄﾘｹﾝ","kana_city":"ﾖﾅｺﾞｼ","kana_address":"ｵｵｻﾞｷ","pref":"鳥取県","city":"米子市","address":"大崎"},
{"zip_code":"6830101","kana_pref":"ﾄｯﾄﾘｹﾝ","kana_city":"ﾖﾅｺﾞｼ","kana_address":"ｵｵｼﾉﾂﾞﾁｮｳ","pref":"鳥取県","city":"米子市","address":"大篠津町"},
{"zip_code":"6830045","kana_pref":"ﾄｯﾄﾘｹﾝ","kana_city":"ﾖﾅｺﾞｼ","kana_address":"ｵｵﾀﾞﾆﾁｮｳ","pref":"鳥取県","city":"米子市","address":"大谷町"},
{"zip_code":"6830256","kana_pref":"ﾄｯﾄﾘｹﾝ","kana_city":"ﾖﾅｺﾞｼ","kana_address":"ｵｵﾌﾞｸﾛ","pref":"鳥取県","city":"米子市","address":"大袋"},
{"zip_code":"6830016","kana_pref":"ﾄｯﾄﾘｹﾝ","kana_city":"ﾖﾅｺﾞｼ","kana_address":"ｵｸﾉﾀﾆ","pref":"鳥取県","city":"米子市","address":"奥谷"},
{"zip_code":"6830814","kana_pref":"ﾄｯﾄﾘｹﾝ","kana_city":"ﾖﾅｺﾞｼ","kana_address":"ｵﾀﾞｶﾏﾁ","pref":"鳥取県","city":"米子市","address":"尾高町"},
{"zip_code":"6830003","kana_pref":"ﾄｯﾄﾘｹﾝ","kana_city":"ﾖﾅｺﾞｼ","kana_address":"ｶｲｹ","pref":"鳥取県","city":"米子市","address":"皆生"},
{"zip_code":"6830001","kana_pref":"ﾄｯﾄﾘｹﾝ","kana_city":"ﾖﾅｺﾞｼ","kana_address":"ｶｲｹｵﾝｾﾝ","pref":"鳥取県","city":"米子市","address":"皆生温泉"},
{"zip_code":"6830002","kana_pref":"ﾄｯﾄﾘｹﾝ","kana_city":"ﾖﾅｺﾞｼ","kana_address":"ｶｲｹｼﾝﾃﾞﾝ","pref":"鳥取県","city":"米子市","address":"皆生新田"},
{"zip_code":"6830812","kana_pref":"ﾄｯﾄﾘｹﾝ","kana_city":"ﾖﾅｺﾞｼ","kana_address":"ｶｸﾊﾞﾝﾁｮｳ","pref":"鳥取県","city":"米子市","address":"角盤町"},
{"zip_code":"6830251","kana_pref":"ﾄｯﾄﾘｹﾝ","kana_city":"ﾖﾅｺﾞｼ","kana_address":"ｶﾈﾋｻ","pref":"鳥取県","city":"米子市","address":"兼久"},
{"zip_code":"6830255","kana_pref":"ﾄｯﾄﾘｹﾝ","kana_city":"ﾖﾅｺﾞｼ","kana_address":"ｶﾐｱｽﾞﾏ","pref":"鳥取県","city":"米子市","address":"上安曇"},
{"zip_code":"6830841","kana_pref":"ﾄｯﾄﾘｹﾝ","kana_city":"ﾖﾅｺﾞｼ","kana_address":"ｶﾐｺﾞﾄｳ","pref":"鳥取県","city":"米子市","address":"上後藤"},
{"zip_code":"6830004","kana_pref":"ﾄｯﾄﾘｹﾝ","kana_city":"ﾖﾅｺﾞｼ","kana_address":"ｶﾐﾌｸﾊﾞﾗ","pref":"鳥取県","city":"米子市","address":"上福原"},
{"zip_code":"6830823","kana_pref":"ﾄｯﾄﾘｹﾝ","kana_city":"ﾖﾅｺﾞｼ","kana_address":"ｶﾓﾁｮｳ","pref":"鳥取県","city":"米子市","address":"加茂町"},
{"zip_code":"6830852","kana_pref":"ﾄｯﾄﾘｹﾝ","kana_city":"ﾖﾅｺﾞｼ","kana_address":"ｶﾜｻｷ","pref":"鳥取県","city":"米子市","address":"河崎"},
{"zip_code":"6830051","kana_pref":"ﾄｯﾄﾘｹﾝ","kana_city":"ﾖﾅｺﾞｼ","kana_address":"ｶﾝﾀﾞﾏﾁ","pref":"鳥取県","city":"米子市","address":"勝田町"},
{"zip_code":"6830007","kana_pref":"ﾄｯﾄﾘｹﾝ","kana_city":"ﾖﾅｺﾞｼ","kana_address":"ｶﾝﾉﾝｼﾞ","pref":"鳥取県","city":"米子市","address":"観音寺"},
{"zip_code":"6830009","kana_pref":"ﾄｯﾄﾘｹﾝ","kana_city":"ﾖﾅｺﾞｼ","kana_address":"ｶﾝﾉﾝｼﾞｼﾝﾏﾁ","pref":"鳥取県","city":"米子市","address":"観音寺新町"},
{"zip_code":"6830047","kana_pref":"ﾄｯﾄﾘｹﾝ","kana_city":"ﾖﾅｺﾞｼ","kana_address":"ｷﾞｵﾝﾁｮｳ","pref":"鳥取県","city":"米子市","address":"祇園町"},
{"zip_code":"6830844","kana_pref":"ﾄｯﾄﾘｹﾝ","kana_city":"ﾖﾅｺﾞｼ","kana_address":"ｷﾞﾎｳﾁｮｳ","pref":"鳥取県","city":"米子市","address":"義方町"},
{"zip_code":"6830825","kana_pref":"ﾄｯﾄﾘｹﾝ","kana_city":"ﾖﾅｺﾞｼ","kana_address":"ｷﾝｶｲﾁｮｳ","pref":"鳥取県","city":"米子市","address":"錦海町"},
{"zip_code":"6830006","kana_pref":"ﾄｯﾄﾘｹﾝ","kana_city":"ﾖﾅｺﾞｼ","kana_address":"ｸｽﾞﾓ","pref":"鳥取県","city":"米子市","address":"車尾"},
{"zip_code":"6830008","kana_pref":"ﾄｯﾄﾘｹﾝ","kana_city":"ﾖﾅｺﾞｼ","kana_address":"ｸｽﾞﾓﾐﾅﾐ","pref":"鳥取県","city":"米子市","address":"車尾南"},
{"zip_code":"6830824","kana_pref":"ﾄｯﾄﾘｹﾝ","kana_city":"ﾖﾅｺﾞｼ","kana_address":"ｸﾒﾁｮｳ","pref":"鳥取県","city":"米子市","address":"久米町"},
{"zip_code":"6830054","kana_pref":"ﾄｯﾄﾘｹﾝ","kana_city":"ﾖﾅｺﾞｼ","kana_address":"ｺｳｼﾞﾏﾁ","pref":"鳥取県","city":"米子市","address":"糀町"},
{"zip_code":"6830062","kana_pref":"ﾄｯﾄﾘｹﾝ","kana_city":"ﾖﾅｺﾞｼ","kana_address":"ｺｳﾔﾏﾁ","pref":"鳥取県","city":"米子市","address":"紺屋町"},
{"zip_code":"6830842","kana_pref":"ﾄｯﾄﾘｹﾝ","kana_city":"ﾖﾅｺﾞｼ","kana_address":"ｻﾝﾎﾞﾝﾏﾂ","pref":"鳥取県","city":"米子市","address":"三本松"},
{"zip_code":"6830042","kana_pref":"ﾄｯﾄﾘｹﾝ","kana_city":"ﾖﾅｺﾞｼ","kana_address":"ｼｵﾏﾁ","pref":"鳥取県","city":"米子市","address":"塩町"},
{"zip_code":"6830253","kana_pref":"ﾄｯﾄﾘｹﾝ","kana_city":"ﾖﾅｺﾞｼ","kana_address":"ｼﾓｱｽﾞﾏ","pref":"鳥取県","city":"米子市","address":"下安曇"},
{"zip_code":"6830037","kana_pref":"ﾄｯﾄﾘｹﾝ","kana_city":"ﾖﾅｺﾞｼ","kana_address":"ｼｮｳﾜﾁｮｳ","pref":"鳥取県","city":"米子市","address":"昭和町"},
{"zip_code":"6830801","kana_pref":"ﾄｯﾄﾘｹﾝ","kana_city":"ﾖﾅｺﾞｼ","kana_address":"ｼﾝｶｲ","pref":"鳥取県","city":"米子市","address":"新開"},
{"zip_code":"6830043","kana_pref":"ﾄｯﾄﾘｹﾝ","kana_city":"ﾖﾅｺﾞｼ","kana_address":"ｽｴﾋﾛﾁｮｳ","pref":"鳥取県","city":"米子市","address":"末広町"},
{"zip_code":"6830013","kana_pref":"ﾄｯﾄﾘｹﾝ","kana_city":"ﾖﾅｺﾞｼ","kana_address":"ｽﾜ","pref":"鳥取県","city":"米子市","address":"諏訪"},
{"zip_code":"6830044","kana_pref":"ﾄｯﾄﾘｹﾝ","kana_city":"ﾖﾅｺﾞｼ","kana_address":"ﾀﾞｲｸﾏﾁ","pref":"鳥取県","city":"米子市","address":"大工町"},
{"zip_code":"6830832","kana_pref":"ﾄｯﾄﾘｹﾝ","kana_city":"ﾖﾅｺﾞｼ","kana_address":"ﾀﾃﾏﾁ","pref":"鳥取県","city":"米子市","address":"立町"},
{"zip_code":"6830041","kana_pref":"ﾄｯﾄﾘｹﾝ","kana_city":"ﾖﾅｺﾞｼ","kana_address":"ﾁｬﾏﾁ","pref":"鳥取県","city":"米子市","address":"茶町"},
{"zip_code":"6830831","kana_pref":"ﾄｯﾄﾘｹﾝ","kana_city":"ﾖﾅｺﾞｼ","kana_address":"ﾃﾗﾏﾁ","pref":"鳥取県","city":"米子市","address":"寺町"},
{"zip_code":"6830821","kana_pref":"ﾄｯﾄﾘｹﾝ","kana_city":"ﾖﾅｺﾞｼ","kana_address":"ﾃﾝｼﾞﾝﾏﾁ","pref":"鳥取県","city":"米子市","address":"天神町"},
{"zip_code":"6830064","kana_pref":"ﾄｯﾄﾘｹﾝ","kana_city":"ﾖﾅｺﾞｼ","kana_address":"ﾄﾞｳｼｮｳﾏﾁ","pref":"鳥取県","city":"米子市","address":"道笑町"},
{"zip_code":"6830103","kana_pref":"ﾄｯﾄﾘｹﾝ","kana_city":"ﾖﾅｺﾞｼ","kana_address":"ﾄﾐﾏｽﾁｮｳ","pref":"鳥取県","city":"米子市","address":"富益町"},
{"zip_code":"6830005","kana_pref":"ﾄｯﾄﾘｹﾝ","kana_city":"ﾖﾅｺﾞｼ","kana_address":"ﾅｶｼﾏ","pref":"鳥取県","city":"米子市","address":"中島"},
{"zip_code":"6830822","kana_pref":"ﾄｯﾄﾘｹﾝ","kana_city":"ﾖﾅｺﾞｼ","kana_address":"ﾅｶﾏﾁ","pref":"鳥取県","city":"米子市","address":"中町"},
{"zip_code":"6830014","kana_pref":"ﾄｯﾄﾘｹﾝ","kana_city":"ﾖﾅｺﾞｼ","kana_address":"ﾅｶﾞｴ","pref":"鳥取県","city":"米子市","address":"永江"},
{"zip_code":"6830033","kana_pref":"ﾄｯﾄﾘｹﾝ","kana_city":"ﾖﾅｺﾞｼ","kana_address":"ﾅｶﾞｽﾅﾁｮｳ","pref":"鳥取県","city":"米子市","address":"長砂町"},
{"zip_code":"6830022","kana_pref":"ﾄｯﾄﾘｹﾝ","kana_city":"ﾖﾅｺﾞｼ","kana_address":"ﾅｷﾞﾗ","pref":"鳥取県","city":"米子市","address":"奈喜良"},
{"zip_code":"6830835","kana_pref":"ﾄｯﾄﾘｹﾝ","kana_city":"ﾖﾅｺﾞｼ","kana_address":"ﾅﾀﾞﾏﾁ","pref":"鳥取県","city":"米子市","address":"灘町"},
{"zip_code":"6830026","kana_pref":"ﾄｯﾄﾘｹﾝ","kana_city":"ﾖﾅｺﾞｼ","kana_address":"ﾆｲﾔﾏ","pref":"鳥取県","city":"米子市","address":"新山"},
{"zip_code":"6830811","kana_pref":"ﾄｯﾄﾘｹﾝ","kana_city":"ﾖﾅｺﾞｼ","kana_address":"ﾆｼｷﾁｮｳ","pref":"鳥取県","city":"米子市","address":"錦町"},
{"zip_code":"6830816","kana_pref":"ﾄｯﾄﾘｹﾝ","kana_city":"ﾖﾅｺﾞｼ","kana_address":"ﾆｼｸﾗﾖｼﾏﾁ","pref":"鳥取県","city":"米子市","address":"西倉吉町"},
{"zip_code":"6830826","kana_pref":"ﾄｯﾄﾘｹﾝ","kana_city":"ﾖﾅｺﾞｼ","kana_address":"ﾆｼﾁｮｳ","pref":"鳥取県","city":"米子市","address":"西町"},
{"zip_code":"6830805","kana_pref":"ﾄｯﾄﾘｹﾝ","kana_city":"ﾖﾅｺﾞｼ","kana_address":"ﾆｼﾌｸﾊﾞﾗ","pref":"鳥取県","city":"米子市","address":"西福原"},
{"zip_code":"6830052","kana_pref":"ﾄｯﾄﾘｹﾝ","kana_city":"ﾖﾅｺﾞｼ","kana_address":"ﾊﾞｸﾛｳﾏﾁ","pref":"鳥取県","city":"米子市","address":"博労町"},
{"zip_code":"6830023","kana_pref":"ﾄｯﾄﾘｹﾝ","kana_city":"ﾖﾅｺﾞｼ","kana_address":"ﾊｼﾓﾄ","pref":"鳥取県","city":"米子市","address":"橋本"},
{"zip_code":"6830845","kana_pref":"ﾄｯﾄﾘｹﾝ","kana_city":"ﾖﾅｺﾞｼ","kana_address":"ﾊﾀｶﾞｻｷ","pref":"鳥取県","city":"米子市","address":"旗ケ崎"},
{"zip_code":"6830836","kana_pref":"ﾄｯﾄﾘｹﾝ","kana_city":"ﾖﾅｺﾞｼ","kana_address":"ﾊﾅｿﾞﾉﾁｮｳ","pref":"鳥取県","city":"米子市","address":"花園町"},
{"zip_code":"6830815","kana_pref":"ﾄｯﾄﾘｹﾝ","kana_city":"ﾖﾅｺﾞｼ","kana_address":"ﾋｶﾞｼｸﾗﾖｼﾏﾁ","pref":"鳥取県","city":"米子市","address":"東倉吉町"},
{"zip_code":"6830067","kana_pref":"ﾄｯﾄﾘｹﾝ","kana_city":"ﾖﾅｺﾞｼ","kana_address":"ﾋｶﾞｼﾁｮｳ","pref":"鳥取県","city":"米子市","address":"東町"},
{"zip_code":"6830802","kana_pref":"ﾄｯﾄﾘｹﾝ","kana_city":"ﾖﾅｺﾞｼ","kana_address":"ﾋｶﾞｼﾌｸﾊﾞﾗ","pref":"鳥取県","city":"米子市","address":"東福原"},
{"zip_code":"6830031","kana_pref":"ﾄｯﾄﾘｹﾝ","kana_city":"ﾖﾅｺﾞｼ","kana_address":"ﾋｶﾞｼﾔﾏﾁｮｳ","pref":"鳥取県","city":"米子市","address":"東山町"},
{"zip_code":"6830855","kana_pref":"ﾄｯﾄﾘｹﾝ","kana_city":"ﾖﾅｺﾞｼ","kana_address":"ﾋｺﾅｼﾝﾃﾞﾝ","pref":"鳥取県","city":"米子市","address":"彦名新田"},
{"zip_code":"6830854","kana_pref":"ﾄｯﾄﾘｹﾝ","kana_city":"ﾖﾅｺﾞｼ","kana_address":"ﾋｺﾅﾁｮｳ","pref":"鳥取県","city":"米子市","address":"彦名町"},
{"zip_code":"6830803","kana_pref":"ﾄｯﾄﾘｹﾝ","kana_city":"ﾖﾅｺﾞｼ","kana_address":"ﾋﾉﾃﾞﾁｮｳ","pref":"鳥取県","city":"米子市","address":"日ノ出町"},
{"zip_code":"6830066","kana_pref":"ﾄｯﾄﾘｹﾝ","kana_city":"ﾖﾅｺﾞｼ","kana_address":"ﾋﾉﾏﾁ","pref":"鳥取県","city":"米子市","address":"日野町"},
{"zip_code":"6830015","kana_pref":"ﾄｯﾄﾘｹﾝ","kana_city":"ﾖﾅｺﾞｼ","kana_address":"ﾋﾊﾞﾗ","pref":"鳥取県","city":"米子市","address":"日原"},
{"zip_code":"6830011","kana_pref":"ﾄｯﾄﾘｹﾝ","kana_city":"ﾖﾅｺﾞｼ","kana_address":"ﾌｸｲﾁ","pref":"鳥取県","city":"米子市","address":"福市"},
{"zip_code":"6830055","kana_pref":"ﾄｯﾄﾘｹﾝ","kana_city":"ﾖﾅｺﾞｼ","kana_address":"ﾌｼﾞﾐﾁｮｳ","pref":"鳥取県","city":"米子市","address":"冨士見町"},
{"zip_code":"6830025","kana_pref":"ﾄｯﾄﾘｹﾝ","kana_city":"ﾖﾅｺﾞｼ","kana_address":"ﾌﾙｲﾁ","pref":"鳥取県","city":"米子市","address":"古市"},
{"zip_code":"6830254","kana_pref":"ﾄｯﾄﾘｹﾝ","kana_city":"ﾖﾅｺﾞｼ","kana_address":"ﾍﾞｯｼｮ","pref":"鳥取県","city":"米子市","address":"別所"},
{"zip_code":"6830063","kana_pref":"ﾄｯﾄﾘｹﾝ","kana_city":"ﾖﾅｺﾞｼ","kana_address":"ﾎﾂｼｮｳｼﾞﾏﾁ","pref":"鳥取県","city":"米子市","address":"法勝寺町"},
{"zip_code":"6830065","kana_pref":"ﾄｯﾄﾘｹﾝ","kana_city":"ﾖﾅｺﾞｼ","kana_address":"ﾏﾝﾉｳﾁｮｳ","pref":"鳥取県","city":"米子市","address":"万能町"},
{"zip_code":"6830843","kana_pref":"ﾄｯﾄﾘｹﾝ","kana_city":"ﾖﾅｺﾞｼ","kana_address":"ﾐﾊﾀﾁｮｳ","pref":"鳥取県","city":"米子市","address":"三旗町"},
{"zip_code":"6830034","kana_pref":"ﾄｯﾄﾘｹﾝ","kana_city":"ﾖﾅｺﾞｼ","kana_address":"ﾐﾖｼ","pref":"鳥取県","city":"米子市","address":"美吉"},
{"zip_code":"6830017","kana_pref":"ﾄｯﾄﾘｹﾝ","kana_city":"ﾖﾅｺﾞｼ","kana_address":"ﾑﾅｶﾀ","pref":"鳥取県","city":"米子市","address":"宗像"},
{"zip_code":"6830053","kana_pref":"ﾄｯﾄﾘｹﾝ","kana_city":"ﾖﾅｺﾞｼ","kana_address":"ﾒｲｼﾞﾁｮｳ","pref":"鳥取県","city":"米子市","address":"明治町"},
{"zip_code":"6830035","kana_pref":"ﾄｯﾄﾘｹﾝ","kana_city":"ﾖﾅｺﾞｼ","kana_address":"ﾒｸﾞﾐﾁｮｳ","pref":"鳥取県","city":"米子市","address":"目久美町"},
{"zip_code":"6830036","kana_pref":"ﾄｯﾄﾘｹﾝ","kana_city":"ﾖﾅｺﾞｼ","kana_address":"ﾔﾖｲﾁｮｳ","pref":"鳥取県","city":"米子市","address":"弥生町"},
{"zip_code":"6830012","kana_pref":"ﾄｯﾄﾘｹﾝ","kana_city":"ﾖﾅｺﾞｼ","kana_address":"ﾔﾜﾀ","pref":"鳥取県","city":"米子市","address":"八幡"},
{"zip_code":"6830032","kana_pref":"ﾄｯﾄﾘｹﾝ","kana_city":"ﾖﾅｺﾞｼ","kana_address":"ﾖｳﾃﾞﾝﾁｮｳ","pref":"鳥取県","city":"米子市","address":"陽田町"},
{"zip_code":"6830024","kana_pref":"ﾄｯﾄﾘｹﾝ","kana_city":"ﾖﾅｺﾞｼ","kana_address":"ﾖｼﾀﾆ","pref":"鳥取県","city":"米子市","address":"吉谷"},
{"zip_code":"6830105","kana_pref":"ﾄｯﾄﾘｹﾝ","kana_city":"ﾖﾅｺﾞｼ","kana_address":"ﾖｼﾂﾞ","pref":"鳥取県","city":"米子市","address":"葭津"},
{"zip_code":"6830061","kana_pref":"ﾄｯﾄﾘｹﾝ","kana_city":"ﾖﾅｺﾞｼ","kana_address":"ﾖｯｶｲﾁﾏﾁ","pref":"鳥取県","city":"米子市","address":"四日市町"},
{"zip_code":"6830804","kana_pref":"ﾄｯﾄﾘｹﾝ","kana_city":"ﾖﾅｺﾞｼ","kana_address":"ﾖﾈﾊﾗ","pref":"鳥取県","city":"米子市","address":"米原"},
{"zip_code":"6830851","kana_pref":"ﾄｯﾄﾘｹﾝ","kana_city":"ﾖﾅｺﾞｼ","kana_address":"ﾖﾐﾁｮｳ","pref":"鳥取県","city":"米子市","address":"夜見町"},
{"zip_code":"6830853","kana_pref":"ﾄｯﾄﾘｹﾝ","kana_city":"ﾖﾅｺﾞｼ","kana_address":"ﾘｮｳﾐﾂﾔﾅｷﾞ","pref":"鳥取県","city":"米子市","address":"両三柳"},
{"zip_code":"6830102","kana_pref":"ﾄｯﾄﾘｹﾝ","kana_city":"ﾖﾅｺﾞｼ","kana_address":"ﾜﾀﾞﾁｮｳ","pref":"鳥取県","city":"米子市","address":"和田町"},
{"zip_code":"6830300","kana_pref":"ﾄｯﾄﾘｹﾝ","kana_city":"ｻｲﾊｸｸﾞﾝﾅﾝﾌﾞﾁｮｳ","kana_address":"","pref":"鳥取県","city":"西伯郡南部町","address":""},
{"zip_code":"6830322","kana_pref":"ﾄｯﾄﾘｹﾝ","kana_city":"ｻｲﾊｸｸﾞﾝﾅﾝﾌﾞﾁｮｳ","kana_address":"ｱｶﾞ","pref":"鳥取県","city":"西伯郡南部町","address":"阿賀"},
{"zip_code":"6830227","kana_pref":"ﾄｯﾄﾘｹﾝ","kana_city":"ｻｲﾊｸｸﾞﾝﾅﾝﾌﾞﾁｮｳ","kana_address":"ｱｻｲ","pref":"鳥取県","city":"西伯郡南部町","address":"浅井"},
{"zip_code":"6830216","kana_pref":"ﾄｯﾄﾘｹﾝ","kana_city":"ｻｲﾊｸｸﾞﾝﾅﾝﾌﾞﾁｮｳ","kana_address":"ｱｻｶﾈ","pref":"鳥取県","city":"西伯郡南部町","address":"朝金"},
{"zip_code":"6830218","kana_pref":"ﾄｯﾄﾘｹﾝ","kana_city":"ｻｲﾊｸｸﾞﾝﾅﾝﾌﾞﾁｮｳ","kana_address":"ｲｹﾉ","pref":"鳥取県","city":"西伯郡南部町","address":"池野"},
{"zip_code":"6830222","kana_pref":"ﾄｯﾄﾘｹﾝ","kana_city":"ｻｲﾊｸｸﾞﾝﾅﾝﾌﾞﾁｮｳ","kana_address":"ｲﾁﾔﾏ","pref":"鳥取県","city":"西伯郡南部町","address":"市山"},
{"zip_code":"6830223","kana_pref":"ﾄｯﾄﾘｹﾝ","kana_city":"ｻｲﾊｸｸﾞﾝﾅﾝﾌﾞﾁｮｳ","kana_address":"ｲﾉｳｴ","pref":"鳥取県","city":"西伯郡南部町","address":"井上"},
{"zip_code":"6830367","kana_pref":"ﾄｯﾄﾘｹﾝ","kana_city":"ｻｲﾊｸｸﾞﾝﾅﾝﾌﾞﾁｮｳ","kana_address":"ｲﾉｺｳｼﾞ","pref":"鳥取県","city":"西伯郡南部町","address":"猪小路"},
{"zip_code":"6830345","kana_pref":"ﾄｯﾄﾘｹﾝ","kana_city":"ｻｲﾊｸｸﾞﾝﾅﾝﾌﾞﾁｮｳ","kana_address":"ｵｵｷﾔ","pref":"鳥取県","city":"西伯郡南部町","address":"大木屋"},
{"zip_code":"6830215","kana_pref":"ﾄｯﾄﾘｹﾝ","kana_city":"ｻｲﾊｸｸﾞﾝﾅﾝﾌﾞﾁｮｳ","kana_address":"ｵｷﾞﾅ","pref":"鳥取県","city":"西伯郡南部町","address":"荻名"},
{"zip_code":"6830337","kana_pref":"ﾄｯﾄﾘｹﾝ","kana_city":"ｻｲﾊｸｸﾞﾝﾅﾝﾌﾞﾁｮｳ","kana_address":"ｵﾁｱｲ","pref":"鳥取県","city":"西伯郡南部町","address":"落合"},
{"zip_code":"6830331","kana_pref":"ﾄｯﾄﾘｹﾝ","kana_city":"ｻｲﾊｸｸﾞﾝﾅﾝﾌﾞﾁｮｳ","kana_address":"ｶｹｱｲ","pref":"鳥取県","city":"西伯郡南部町","address":"掛相"},
{"zip_code":"6830224","kana_pref":"ﾄｯﾄﾘｹﾝ","kana_city":"ｻｲﾊｸｸﾞﾝﾅﾝﾌﾞﾁｮｳ","kana_address":"ｶﾈﾀﾞ","pref":"鳥取県","city":"西伯郡南部町","address":"金田"},
{"zip_code":"6830344","kana_pref":"ﾄｯﾄﾘｹﾝ","kana_city":"ｻｲﾊｸｸﾞﾝﾅﾝﾌﾞﾁｮｳ","kana_address":"ｶﾐﾅｶﾀﾆ","pref":"鳥取県","city":"西伯郡南部町","address":"上中谷"},
{"zip_code":"6830341","kana_pref":"ﾄｯﾄﾘｹﾝ","kana_city":"ｻｲﾊｸｸﾞﾝﾅﾝﾌﾞﾁｮｳ","kana_address":"ｶﾓﾍﾞ","pref":"鳥取県","city":"西伯郡南部町","address":"鴨部"},
{"zip_code":"6830361","kana_pref":"ﾄｯﾄﾘｹﾝ","kana_city":"ｻｲﾊｸｸﾞﾝﾅﾝﾌﾞﾁｮｳ","kana_address":"ｷﾀｶﾞﾀ","pref":"鳥取県","city":"西伯郡南部町","address":"北方"},
{"zip_code":"6830364","kana_pref":"ﾄｯﾄﾘｹﾝ","kana_city":"ｻｲﾊｸｸﾞﾝﾅﾝﾌﾞﾁｮｳ","kana_address":"ｷﾇﾔ","pref":"鳥取県","city":"西伯郡南部町","address":"絹屋"},
{"zip_code":"6830356","kana_pref":"ﾄｯﾄﾘｹﾝ","kana_city":"ｻｲﾊｸｸﾞﾝﾅﾝﾌﾞﾁｮｳ","kana_address":"ｷﾘｸｲ","pref":"鳥取県","city":"西伯郡南部町","address":"伐株"},
{"zip_code":"6830311","kana_pref":"ﾄｯﾄﾘｹﾝ","kana_city":"ｻｲﾊｸｸﾞﾝﾅﾝﾌﾞﾁｮｳ","kana_address":"ｻｶｴ","pref":"鳥取県","city":"西伯郡南部町","address":"境"},
{"zip_code":"6830321","kana_pref":"ﾄｯﾄﾘｹﾝ","kana_city":"ｻｲﾊｸｸﾞﾝﾅﾝﾌﾞﾁｮｳ","kana_address":"ｼﾐｽﾞｶﾞﾜ","pref":"鳥取県","city":"西伯郡南部町","address":"清水川"},
{"zip_code":"6830343","kana_pref":"ﾄｯﾄﾘｹﾝ","kana_city":"ｻｲﾊｸｸﾞﾝﾅﾝﾌﾞﾁｮｳ","kana_address":"ｼﾓﾅｶﾀﾆ","pref":"鳥取県","city":"西伯郡南部町","address":"下中谷"},
{"zip_code":"6830226","kana_pref":"ﾄｯﾄﾘｹﾝ","kana_city":"ｻｲﾊｸｸﾞﾝﾅﾝﾌﾞﾁｮｳ","kana_address":"ﾀｶﾋﾒ","pref":"鳥取県","city":"西伯郡南部町","address":"高姫"},
{"zip_code":"6830354","kana_pref":"ﾄｯﾄﾘｹﾝ","kana_city":"ｻｲﾊｸｸﾞﾝﾅﾝﾌﾞﾁｮｳ","kana_address":"ﾀｹﾉﾌﾞ","pref":"鳥取県","city":"西伯郡南部町","address":"武信"},
{"zip_code":"6830214","kana_pref":"ﾄｯﾄﾘｹﾝ","kana_city":"ｻｲﾊｸｸﾞﾝﾅﾝﾌﾞﾁｮｳ","kana_address":"ﾀｽﾐ","pref":"鳥取県","city":"西伯郡南部町","address":"田住"},
{"zip_code":"6830217","kana_pref":"ﾄｯﾄﾘｹﾝ","kana_city":"ｻｲﾊｸｸﾞﾝﾅﾝﾌﾞﾁｮｳ","kana_address":"ﾂﾙﾀﾞ","pref":"鳥取県","city":"西伯郡南部町","address":"鶴田"},
{"zip_code":"6830202","kana_pref":"ﾄｯﾄﾘｹﾝ","kana_city":"ｻｲﾊｸｸﾞﾝﾅﾝﾌﾞﾁｮｳ","kana_address":"ﾃﾗｳﾁ","pref":"鳥取県","city":"西伯郡南部町","address":"寺内"},
{"zip_code":"6830201","kana_pref":"ﾄｯﾄﾘｹﾝ","kana_city":"ｻｲﾊｸｸﾞﾝﾅﾝﾌﾞﾁｮｳ","kana_address":"ﾃﾝﾏﾝ","pref":"鳥取県","city":"西伯郡南部町","address":"天万"},
{"zip_code":"6830355","kana_pref":"ﾄｯﾄﾘｹﾝ","kana_city":"ｻｲﾊｸｸﾞﾝﾅﾝﾌﾞﾁｮｳ","kana_address":"ﾄﾞｳｶﾞﾜｳﾁ","pref":"鳥取県","city":"西伯郡南部町","address":"道河内"},
{"zip_code":"6830334","kana_pref":"ﾄｯﾄﾘｹﾝ","kana_city":"ｻｲﾊｸｸﾞﾝﾅﾝﾌﾞﾁｮｳ","kana_address":"ﾄｳｼﾞｮｳ","pref":"鳥取県","city":"西伯郡南部町","address":"東上"},
{"zip_code":"6830353","kana_pref":"ﾄｯﾄﾘｹﾝ","kana_city":"ｻｲﾊｸｸﾞﾝﾅﾝﾌﾞﾁｮｳ","kana_address":"ﾄｸﾅｶﾞ","pref":"鳥取県","city":"西伯郡南部町","address":"徳長"},
{"zip_code":"6830335","kana_pref":"ﾄｯﾄﾘｹﾝ","kana_city":"ｻｲﾊｸｸﾞﾝﾅﾝﾌﾞﾁｮｳ","kana_address":"ﾅｶ","pref":"鳥取県","city":"西伯郡南部町","address":"中"},
{"zip_code":"6830365","kana_pref":"ﾄｯﾄﾘｹﾝ","kana_city":"ｻｲﾊｸｸﾞﾝﾅﾝﾌﾞﾁｮｳ","kana_address":"ﾅﾍﾞｸﾗ","pref":"鳥取県","city":"西伯郡南部町","address":"鍋倉"},
{"zip_code":"6830363","kana_pref":"ﾄｯﾄﾘｹﾝ","kana_city":"ｻｲﾊｸｸﾞﾝﾅﾝﾌﾞﾁｮｳ","kana_address":"ﾆｼ","pref":"鳥取県","city":"西伯郡南部町","address":"西"},
{"zip_code":"6830213","kana_pref":"ﾄｯﾄﾘｹﾝ","kana_city":"ｻｲﾊｸｸﾞﾝﾅﾝﾌﾞﾁｮｳ","kana_address":"ﾆｼﾊﾞﾗ","pref":"鳥取県","city":"西伯郡南部町","address":"西原"},
{"zip_code":"6830302","kana_pref":"ﾄｯﾄﾘｹﾝ","kana_city":"ｻｲﾊｸｸﾞﾝﾅﾝﾌﾞﾁｮｳ","kana_address":"ﾆｼﾏﾁ","pref":"鳥取県","city":"西伯郡南部町","address":"西町"},
{"zip_code":"6830342","kana_pref":"ﾄｯﾄﾘｹﾝ","kana_city":"ｻｲﾊｸｸﾞﾝﾅﾝﾌﾞﾁｮｳ","kana_address":"ﾉｳｼﾞｸ","pref":"鳥取県","city":"西伯郡南部町","address":"能竹"},
{"zip_code":"6830332","kana_pref":"ﾄｯﾄﾘｹﾝ","kana_city":"ｻｲﾊｸｸﾞﾝﾅﾝﾌﾞﾁｮｳ","kana_address":"ﾊﾞｻﾗ","pref":"鳥取県","city":"西伯郡南部町","address":"馬佐良"},
{"zip_code":"6830352","kana_pref":"ﾄｯﾄﾘｹﾝ","kana_city":"ｻｲﾊｸｸﾞﾝﾅﾝﾌﾞﾁｮｳ","kana_address":"ﾊﾞﾊﾞ","pref":"鳥取県","city":"西伯郡南部町","address":"馬場"},
{"zip_code":"6830362","kana_pref":"ﾄｯﾄﾘｹﾝ","kana_city":"ｻｲﾊｸｸﾞﾝﾅﾝﾌﾞﾁｮｳ","kana_address":"ﾊﾗ","pref":"鳥取県","city":"西伯郡南部町","address":"原"},
{"zip_code":"6830301","kana_pref":"ﾄｯﾄﾘｹﾝ","kana_city":"ｻｲﾊｸｸﾞﾝﾅﾝﾌﾞﾁｮｳ","kana_address":"ﾋｶﾞｼﾏﾁ","pref":"鳥取県","city":"西伯郡南部町","address":"東町"},
{"zip_code":"6830204","kana_pref":"ﾄｯﾄﾘｹﾝ","kana_city":"ｻｲﾊｸｸﾞﾝﾅﾝﾌﾞﾁｮｳ","kana_address":"ﾌｸｻﾄ","pref":"鳥取県","city":"西伯郡南部町","address":"福里"},
{"zip_code":"6830312","kana_pref":"ﾄｯﾄﾘｹﾝ","kana_city":"ｻｲﾊｸｸﾞﾝﾅﾝﾌﾞﾁｮｳ","kana_address":"ﾌｸﾅﾘ","pref":"鳥取県","city":"西伯郡南部町","address":"福成"},
{"zip_code":"6830336","kana_pref":"ﾄｯﾄﾘｹﾝ","kana_city":"ｻｲﾊｸｸﾞﾝﾅﾝﾌﾞﾁｮｳ","kana_address":"ﾌｸﾖﾘ","pref":"鳥取県","city":"西伯郡南部町","address":"福頼"},
{"zip_code":"6830351","kana_pref":"ﾄｯﾄﾘｹﾝ","kana_city":"ｻｲﾊｸｸﾞﾝﾅﾝﾌﾞﾁｮｳ","kana_address":"ﾎｯｼｮｳｼﾞ","pref":"鳥取県","city":"西伯郡南部町","address":"法勝寺"},
{"zip_code":"6830211","kana_pref":"ﾄｯﾄﾘｹﾝ","kana_city":"ｻｲﾊｸｸﾞﾝﾅﾝﾌﾞﾁｮｳ","kana_address":"ﾏﾙﾔﾏ","pref":"鳥取県","city":"西伯郡南部町","address":"円山"},
{"zip_code":"6830225","kana_pref":"ﾄｯﾄﾘｹﾝ","kana_city":"ｻｲﾊｸｸﾞﾝﾅﾝﾌﾞﾁｮｳ","kana_address":"ﾐｳﾁﾀﾞﾆ","pref":"鳥取県","city":"西伯郡南部町","address":"御内谷"},
{"zip_code":"6830203","kana_pref":"ﾄｯﾄﾘｹﾝ","kana_city":"ｻｲﾊｸｸﾞﾝﾅﾝﾌﾞﾁｮｳ","kana_address":"ﾐｻｷ","pref":"鳥取県","city":"西伯郡南部町","address":"三崎"},
{"zip_code":"6830221","kana_pref":"ﾄｯﾄﾘｹﾝ","kana_city":"ｻｲﾊｸｸﾞﾝﾅﾝﾌﾞﾁｮｳ","kana_address":"ﾐﾔﾏｴ","pref":"鳥取県","city":"西伯郡南部町","address":"宮前"},
{"zip_code":"6830212","kana_pref":"ﾄｯﾄﾘｹﾝ","kana_city":"ｻｲﾊｸｸﾞﾝﾅﾝﾌﾞﾁｮｳ","kana_address":"ﾓﾛｷﾞ","pref":"鳥取県","city":"西伯郡南部町","address":"諸木"},
{"zip_code":"6830333","kana_pref":"ﾄｯﾄﾘｹﾝ","kana_city":"ｻｲﾊｸｸﾞﾝﾅﾝﾌﾞﾁｮｳ","kana_address":"ﾔｶﾈ","pref":"鳥取県","city":"西伯郡南部町","address":"八金"},
{"zip_code":"6830323","kana_pref":"ﾄｯﾄﾘｹﾝ","kana_city":"ｻｲﾊｸｸﾞﾝﾅﾝﾌﾞﾁｮｳ","kana_address":"ﾔﾏﾄ","pref":"鳥取県","city":"西伯郡南部町","address":"倭"},
{"zip_code":"6830366","kana_pref":"ﾄｯﾄﾘｹﾝ","kana_city":"ｻｲﾊｸｸﾞﾝﾅﾝﾌﾞﾁｮｳ","kana_address":"ﾖｲﾁﾀﾞﾆ","pref":"鳥取県","city":"西伯郡南部町","address":"与一谷"}]}