{"zip_code":[
{"zip_code":"6840000","kana_pref":"ﾄｯﾄﾘｹﾝ","kana_city":"ｻｶｲﾐﾅﾄｼ","kana_address":"","pref":"鳥取県","city":"境港市","address":""},
{"zip_code":"6840011","kana_pref":"ﾄｯﾄﾘｹﾝ","kana_city":"ｻｶｲﾐﾅﾄｼ","kana_address":"ｱｲｵｲﾁｮｳ","pref":"鳥取県","city":"境港市","address":"相生町"},
{"zip_code":"6840033","kana_pref":"ﾄｯﾄﾘｹﾝ","kana_city":"ｻｶｲﾐﾅﾄｼ","kana_address":"ｱｶﾞﾘﾐﾁﾁｮｳ","pref":"鳥取県","city":"境港市","address":"上道町"},
{"zip_code":"6840013","kana_pref":"ﾄｯﾄﾘｹﾝ","kana_city":"ｻｶｲﾐﾅﾄｼ","kana_address":"ｱｻﾋﾏﾁ","pref":"鳥取県","city":"境港市","address":"朝日町"},
{"zip_code":"6840006","kana_pref":"ﾄｯﾄﾘｹﾝ","kana_city":"ｻｶｲﾐﾅﾄｼ","kana_address":"ｴｲﾏﾁ","pref":"鳥取県","city":"境港市","address":"栄町"},
{"zip_code":"6840023","kana_pref":"ﾄｯﾄﾘｹﾝ","kana_city":"ｻｶｲﾐﾅﾄｼ","kana_address":"ｷｮｳﾏﾁ","pref":"鳥取県","city":"境港市","address":"京町"},
{"zip_code":"6840056","kana_pref":"ﾄｯﾄﾘｹﾝ","kana_city":"ｻｶｲﾐﾅﾄｼ","kana_address":"ｺｳｼﾞﾝﾁｮｳ","pref":"鳥取県","city":"境港市","address":"幸神町"},
{"zip_code":"6840053","kana_pref":"ﾄｯﾄﾘｹﾝ","kana_city":"ｻｶｲﾐﾅﾄｼ","kana_address":"ｺｼﾉﾂﾞﾁｮｳ","pref":"鳥取県","city":"境港市","address":"小篠津町"},
{"zip_code":"6840055","kana_pref":"ﾄｯﾄﾘｹﾝ","kana_city":"ｻｶｲﾐﾅﾄｼ","kana_address":"ｻｲﾉｶﾐﾁｮｳ","pref":"鳥取県","city":"境港市","address":"佐斐神町"},
{"zip_code":"6840054","kana_pref":"ﾄｯﾄﾘｹﾝ","kana_city":"ｻｶｲﾐﾅﾄｼ","kana_address":"ｻｲﾉｷﾁｮｳ","pref":"鳥取県","city":"境港市","address":"財ノ木町"},
{"zip_code":"6840064","kana_pref":"ﾄｯﾄﾘｹﾝ","kana_city":"ｻｶｲﾐﾅﾄｼ","kana_address":"ｻﾝｹﾞﾝﾔﾁｮｳ","pref":"鳥取県","city":"境港市","address":"三軒屋町"},
{"zip_code":"6840074","kana_pref":"ﾄｯﾄﾘｹﾝ","kana_city":"ｻｶｲﾐﾅﾄｼ","kana_address":"ｼｵﾐﾁｮｳ","pref":"鳥取県","city":"境港市","address":"潮見町"},
{"zip_code":"6840015","kana_pref":"ﾄｯﾄﾘｹﾝ","kana_city":"ｻｶｲﾐﾅﾄｼ","kana_address":"ｼﾉﾉﾒﾁｮｳ","pref":"鳥取県","city":"境港市","address":"東雲町"},
{"zip_code":"6840066","kana_pref":"ﾄｯﾄﾘｹﾝ","kana_city":"ｻｶｲﾐﾅﾄｼ","kana_address":"ｼﾊﾞﾁｮｳ","pref":"鳥取県","city":"境港市","address":"芝町"},
{"zip_code":"6840001","kana_pref":"ﾄｯﾄﾘｹﾝ","kana_city":"ｻｶｲﾐﾅﾄｼ","kana_address":"ｼﾐｽﾞﾁｮｳ","pref":"鳥取県","city":"境港市","address":"清水町"},
{"zip_code":"6840034","kana_pref":"ﾄｯﾄﾘｹﾝ","kana_city":"ｻｶｲﾐﾅﾄｼ","kana_address":"ｼｮｳﾜﾏﾁ","pref":"鳥取県","city":"境港市","address":"昭和町"},
{"zip_code":"6840026","kana_pref":"ﾄｯﾄﾘｹﾝ","kana_city":"ｻｶｲﾐﾅﾄｼ","kana_address":"ｽｴﾋﾛﾁｮｳ","pref":"鳥取県","city":"境港市","address":"末広町"},
{"zip_code":"6840063","kana_pref":"ﾄｯﾄﾘｹﾝ","kana_city":"ｻｶｲﾐﾅﾄｼ","kana_address":"ｾｲﾄﾞｳﾁｮｳ","pref":"鳥取県","city":"境港市","address":"誠道町"},
{"zip_code":"6840004","kana_pref":"ﾄｯﾄﾘｹﾝ","kana_city":"ｻｶｲﾐﾅﾄｼ","kana_address":"ﾀｲｼｮｳﾏﾁ","pref":"鳥取県","city":"境港市","address":"大正町"},
{"zip_code":"6840045","kana_pref":"ﾄｯﾄﾘｹﾝ","kana_city":"ｻｶｲﾐﾅﾄｼ","kana_address":"ﾀｶﾏﾂﾁｮｳ","pref":"鳥取県","city":"境港市","address":"高松町"},
{"zip_code":"6840046","kana_pref":"ﾄｯﾄﾘｹﾝ","kana_city":"ｻｶｲﾐﾅﾄｼ","kana_address":"ﾀｹﾉｳﾁﾀﾞﾝﾁ","pref":"鳥取県","city":"境港市","address":"竹内団地"},
{"zip_code":"6840043","kana_pref":"ﾄｯﾄﾘｹﾝ","kana_city":"ｻｶｲﾐﾅﾄｼ","kana_address":"ﾀｹﾉｳﾁﾁｮｳ","pref":"鳥取県","city":"境港市","address":"竹内町"},
{"zip_code":"6840071","kana_pref":"ﾄｯﾄﾘｹﾝ","kana_city":"ｻｶｲﾐﾅﾄｼ","kana_address":"ﾄﾉｴﾁｮｳ","pref":"鳥取県","city":"境港市","address":"外江町"},
{"zip_code":"6840073","kana_pref":"ﾄｯﾄﾘｹﾝ","kana_city":"ｻｶｲﾐﾅﾄｼ","kana_address":"ﾅｶｳﾐｶﾝﾀｸﾁ","pref":"鳥取県","city":"境港市","address":"中海干拓地"},
{"zip_code":"6840041","kana_pref":"ﾄｯﾄﾘｹﾝ","kana_city":"ｻｶｲﾐﾅﾄｼ","kana_address":"ﾅｶﾉﾁｮｳ","pref":"鳥取県","city":"境港市","address":"中野町"},
{"zip_code":"6840012","kana_pref":"ﾄｯﾄﾘｹﾝ","kana_city":"ｻｶｲﾐﾅﾄｼ","kana_address":"ﾅｶﾏﾁ","pref":"鳥取県","city":"境港市","address":"中町"},
{"zip_code":"6840051","kana_pref":"ﾄｯﾄﾘｹﾝ","kana_city":"ｻｶｲﾐﾅﾄｼ","kana_address":"ﾆｲﾔﾁｮｳ","pref":"鳥取県","city":"境港市","address":"新屋町"},
{"zip_code":"6840075","kana_pref":"ﾄｯﾄﾘｹﾝ","kana_city":"ｻｶｲﾐﾅﾄｼ","kana_address":"ﾆｼｺｳｷﾞｮｳﾀﾞﾝﾁ","pref":"鳥取県","city":"境港市","address":"西工業団地"},
{"zip_code":"6840014","kana_pref":"ﾄｯﾄﾘｹﾝ","kana_city":"ｻｶｲﾐﾅﾄｼ","kana_address":"ﾆｭｳｾﾝﾁｮｳ","pref":"鳥取県","city":"境港市","address":"入船町"},
{"zip_code":"6840062","kana_pref":"ﾄｯﾄﾘｹﾝ","kana_city":"ｻｶｲﾐﾅﾄｼ","kana_address":"ﾊｽｲｹﾁｮｳ","pref":"鳥取県","city":"境港市","address":"蓮池町"},
{"zip_code":"6840016","kana_pref":"ﾄｯﾄﾘｹﾝ","kana_city":"ｻｶｲﾐﾅﾄｼ","kana_address":"ﾊﾅﾏﾁ","pref":"鳥取県","city":"境港市","address":"花町"},
{"zip_code":"6840021","kana_pref":"ﾄｯﾄﾘｹﾝ","kana_city":"ｻｶｲﾐﾅﾄｼ","kana_address":"ﾊﾞﾊﾞｻｷﾁｮｳ","pref":"鳥取県","city":"境港市","address":"馬場崎町"},
{"zip_code":"6840003","kana_pref":"ﾄｯﾄﾘｹﾝ","kana_city":"ｻｶｲﾐﾅﾄｼ","kana_address":"ﾊﾏﾉﾁｮｳ","pref":"鳥取県","city":"境港市","address":"浜ノ町"},
{"zip_code":"6840027","kana_pref":"ﾄｯﾄﾘｹﾝ","kana_city":"ｻｶｲﾐﾅﾄｼ","kana_address":"ﾋｶﾞｼﾎﾝﾏﾁ","pref":"鳥取県","city":"境港市","address":"東本町"},
{"zip_code":"6840024","kana_pref":"ﾄｯﾄﾘｹﾝ","kana_city":"ｻｶｲﾐﾅﾄｼ","kana_address":"ﾋﾉﾃﾞﾁｮｳ","pref":"鳥取県","city":"境港市","address":"日ノ出町"},
{"zip_code":"6840042","kana_pref":"ﾄｯﾄﾘｹﾝ","kana_city":"ｻｶｲﾐﾅﾄｼ","kana_address":"ﾌｸｻﾀﾞﾁｮｳ","pref":"鳥取県","city":"境港市","address":"福定町"},
{"zip_code":"6840025","kana_pref":"ﾄｯﾄﾘｹﾝ","kana_city":"ｻｶｲﾐﾅﾄｼ","kana_address":"ﾎﾝﾏﾁ","pref":"鳥取県","city":"境港市","address":"本町"},
{"zip_code":"6840005","kana_pref":"ﾄｯﾄﾘｹﾝ","kana_city":"ｻｶｲﾐﾅﾄｼ","kana_address":"ﾏﾂｶﾞｴﾁｮｳ","pref":"鳥取県","city":"境港市","address":"松ケ枝町"},
{"zip_code":"6840017","kana_pref":"ﾄｯﾄﾘｹﾝ","kana_city":"ｻｶｲﾐﾅﾄｼ","kana_address":"ﾐｻｷﾁｮｳ","pref":"鳥取県","city":"境港市","address":"岬町"},
{"zip_code":"6840031","kana_pref":"ﾄｯﾄﾘｹﾝ","kana_city":"ｻｶｲﾐﾅﾄｼ","kana_address":"ﾐﾅﾄﾏﾁ","pref":"鳥取県","city":"境港市","address":"湊町"},
{"zip_code":"6840044","kana_pref":"ﾄｯﾄﾘｹﾝ","kana_city":"ｻｶｲﾐﾅﾄｼ","kana_address":"ﾐﾎﾁｮｳ","pref":"鳥取県","city":"境港市","address":"美保町"},
{"zip_code":"6840052","kana_pref":"ﾄｯﾄﾘｹﾝ","kana_city":"ｻｶｲﾐﾅﾄｼ","kana_address":"ﾑｷﾞｶｷﾁｮｳ","pref":"鳥取県","city":"境港市","address":"麦垣町"},
{"zip_code":"6840022","kana_pref":"ﾄｯﾄﾘｹﾝ","kana_city":"ｻｶｲﾐﾅﾄｼ","kana_address":"ﾒｲｼﾞﾏﾁ","pref":"鳥取県","city":"境港市","address":"明治町"},
{"zip_code":"6840032","kana_pref":"ﾄｯﾄﾘｹﾝ","kana_city":"ｻｶｲﾐﾅﾄｼ","kana_address":"ﾓﾄﾏﾁ","pref":"鳥取県","city":"境港市","address":"元町"},
{"zip_code":"6840065","kana_pref":"ﾄｯﾄﾘｹﾝ","kana_city":"ｻｶｲﾐﾅﾄｼ","kana_address":"ﾓﾘｵｶﾁｮｳ","pref":"鳥取県","city":"境港市","address":"森岡町"},
{"zip_code":"6840002","kana_pref":"ﾄｯﾄﾘｹﾝ","kana_city":"ｻｶｲﾐﾅﾄｼ","kana_address":"ﾔﾖｲﾁｮｳ","pref":"鳥取県","city":"境港市","address":"弥生町"},
{"zip_code":"6840076","kana_pref":"ﾄｯﾄﾘｹﾝ","kana_city":"ｻｶｲﾐﾅﾄｼ","kana_address":"ﾕｳﾋｶﾞｵｶ","pref":"鳥取県","city":"境港市","address":"夕日ケ丘"},
{"zip_code":"6840061","kana_pref":"ﾄｯﾄﾘｹﾝ","kana_city":"ｻｶｲﾐﾅﾄｼ","kana_address":"ﾖﾈｶﾞﾜﾁｮｳ","pref":"鳥取県","city":"境港市","address":"米川町"},
{"zip_code":"6840072","kana_pref":"ﾄｯﾄﾘｹﾝ","kana_city":"ｻｶｲﾐﾅﾄｼ","kana_address":"ﾜﾀﾘﾁｮｳ","pref":"鳥取県","city":"境港市","address":"渡町"},
{"zip_code":"6840400","kana_pref":"ｼﾏﾈｹﾝ","kana_city":"ｵｷｸﾞﾝｱﾏﾁｮｳ","kana_address":"","pref":"島根県","city":"隠岐郡海士町","address":""},
{"zip_code":"6840403","kana_pref":"ｼﾏﾈｹﾝ","kana_city":"ｵｷｸﾞﾝｱﾏﾁｮｳ","kana_address":"ｱﾏ","pref":"島根県","city":"隠岐郡海士町","address":"海士"},
{"zip_code":"6840401","kana_pref":"ｼﾏﾈｹﾝ","kana_city":"ｵｷｸﾞﾝｱﾏﾁｮｳ","kana_address":"ｳｽﾞｶ","pref":"島根県","city":"隠岐郡海士町","address":"宇受賀"},
{"zip_code":"6840413","kana_pref":"ｼﾏﾈｹﾝ","kana_city":"ｵｷｸﾞﾝｱﾏﾁｮｳ","kana_address":"ｻｷ","pref":"島根県","city":"隠岐郡海士町","address":"崎"},
{"zip_code":"6840411","kana_pref":"ｼﾏﾈｹﾝ","kana_city":"ｵｷｸﾞﾝｱﾏﾁｮｳ","kana_address":"ﾁﾁｲ","pref":"島根県","city":"隠岐郡海士町","address":"知々井"},
{"zip_code":"6840402","kana_pref":"ｼﾏﾈｹﾝ","kana_city":"ｵｷｸﾞﾝｱﾏﾁｮｳ","kana_address":"ﾄﾖﾀﾞ","pref":"島根県","city":"隠岐郡海士町","address":"豊田"},
{"zip_code":"6840404","kana_pref":"ｼﾏﾈｹﾝ","kana_city":"ｵｷｸﾞﾝｱﾏﾁｮｳ","kana_address":"ﾌｸｲ","pref":"島根県","city":"隠岐郡海士町","address":"福井"},
{"zip_code":"6840412","kana_pref":"ｼﾏﾈｹﾝ","kana_city":"ｵｷｸﾞﾝｱﾏﾁｮｳ","kana_address":"ﾐﾅﾐ","pref":"島根県","city":"隠岐郡海士町","address":"御波"},
{"zip_code":"6840300","kana_pref":"ｼﾏﾈｹﾝ","kana_city":"ｵｷｸﾞﾝﾆｼﾉｼﾏﾁｮｳ","kana_address":"","pref":"島根県","city":"隠岐郡西ノ島町","address":""},
{"zip_code":"6840301","kana_pref":"ｼﾏﾈｹﾝ","kana_city":"ｵｷｸﾞﾝﾆｼﾉｼﾏﾁｮｳ","kana_address":"ｳｶ","pref":"島根県","city":"隠岐郡西ノ島町","address":"宇賀"},
{"zip_code":"6840211","kana_pref":"ｼﾏﾈｹﾝ","kana_city":"ｵｷｸﾞﾝﾆｼﾉｼﾏﾁｮｳ","kana_address":"ｳﾗｺﾞｳ","pref":"島根県","city":"隠岐郡西ノ島町","address":"浦郷"},
{"zip_code":"6840302","kana_pref":"ｼﾏﾈｹﾝ","kana_city":"ｵｷｸﾞﾝﾆｼﾉｼﾏﾁｮｳ","kana_address":"ﾍﾞｯﾌﾟ","pref":"島根県","city":"隠岐郡西ノ島町","address":"別府"},
{"zip_code":"6840303","kana_pref":"ｼﾏﾈｹﾝ","kana_city":"ｵｷｸﾞﾝﾆｼﾉｼﾏﾁｮｳ","kana_address":"ﾐﾀ","pref":"島根県","city":"隠岐郡西ノ島町","address":"美田"},
{"zip_code":"6840100","kana_pref":"ｼﾏﾈｹﾝ","kana_city":"ｵｷｸﾞﾝﾁﾌﾞﾑﾗ","kana_address":"","pref":"島根県","city":"隠岐郡知夫村","address":""},
{"zip_code":"6840104","kana_pref":"ｼﾏﾈｹﾝ","kana_city":"ｵｷｸﾞﾝﾁﾌﾞﾑﾗ","kana_address":"ｳｽｹﾞ","pref":"島根県","city":"隠岐郡知夫村","address":"薄毛"},
{"zip_code":"6840107","kana_pref":"ｼﾏﾈｹﾝ","kana_city":"ｵｷｸﾞﾝﾁﾌﾞﾑﾗ","kana_address":"ｳﾙﾐ","pref":"島根県","city":"隠岐郡知夫村","address":"古海"},
{"zip_code":"6840101","kana_pref":"ｼﾏﾈｹﾝ","kana_city":"ｵｷｸﾞﾝﾁﾌﾞﾑﾗ","kana_address":"ｵｵｴ","pref":"島根県","city":"隠岐郡知夫村","address":"大江"},
{"zip_code":"6840106","kana_pref":"ｼﾏﾈｹﾝ","kana_city":"ｵｷｸﾞﾝﾁﾌﾞﾑﾗ","kana_address":"ｸﾘｲ","pref":"島根県","city":"隠岐郡知夫村","address":"来居"},
{"zip_code":"6840102","kana_pref":"ｼﾏﾈｹﾝ","kana_city":"ｵｷｸﾞﾝﾁﾌﾞﾑﾗ","kana_address":"ｺｵﾘ","pref":"島根県","city":"隠岐郡知夫村","address":"郡"},
{"zip_code":"6840103","kana_pref":"ｼﾏﾈｹﾝ","kana_city":"ｵｷｸﾞﾝﾁﾌﾞﾑﾗ","kana_address":"ﾀﾀｸ","pref":"島根県","city":"隠岐郡知夫村","address":"多沢"},
{"zip_code":"6840105","kana_pref":"ｼﾏﾈｹﾝ","kana_city":"ｵｷｸﾞﾝﾁﾌﾞﾑﾗ","kana_address":"ﾆﾌﾞ","pref":"島根県","city":"隠岐郡知夫村","address":"仁夫"}]}