{"zip_code":[
{"zip_code":"6890501","kana_pref":"ﾄｯﾄﾘｹﾝ","kana_city":"ﾄｯﾄﾘｼ","kana_address":"ｱｵﾔﾁｮｳｱｵﾔ","pref":"鳥取県","city":"鳥取市","address":"青谷町青谷"},
{"zip_code":"6890535","kana_pref":"ﾄｯﾄﾘｹﾝ","kana_city":"ﾄｯﾄﾘｼ","kana_address":"ｱｵﾔﾁｮｳｲﾃﾞ","pref":"鳥取県","city":"鳥取市","address":"青谷町井手"},
{"zip_code":"6890518","kana_pref":"ﾄｯﾄﾘｹﾝ","kana_city":"ﾄｯﾄﾘｼ","kana_address":"ｱｵﾔﾁｮｳｵｵﾂﾎﾞ","pref":"鳥取県","city":"鳥取市","address":"青谷町大坪"},
{"zip_code":"6890519","kana_pref":"ﾄｯﾄﾘｹﾝ","kana_city":"ﾄｯﾄﾘｼ","kana_address":"ｱｵﾔﾁｮｳｵｸｻﾞｷ","pref":"鳥取県","city":"鳥取市","address":"青谷町奥崎"},
{"zip_code":"6890516","kana_pref":"ﾄｯﾄﾘｹﾝ","kana_city":"ﾄｯﾄﾘｼ","kana_address":"ｱｵﾔﾁｮｳｵﾊﾞﾀ","pref":"鳥取県","city":"鳥取市","address":"青谷町小畑"},
{"zip_code":"6890526","kana_pref":"ﾄｯﾄﾘｹﾝ","kana_city":"ﾄｯﾄﾘｼ","kana_address":"ｱｵﾔﾁｮｳｶﾐﾔ","pref":"鳥取県","city":"鳥取市","address":"青谷町紙屋"},
{"zip_code":"6890522","kana_pref":"ﾄｯﾄﾘｹﾝ","kana_city":"ﾄｯﾄﾘｼ","kana_address":"ｱｵﾔﾁｮｳｶﾒｼﾞﾘ","pref":"鳥取県","city":"鳥取市","address":"青谷町亀尻"},
{"zip_code":"6890515","kana_pref":"ﾄｯﾄﾘｹﾝ","kana_city":"ﾄｯﾄﾘｼ","kana_address":"ｱｵﾔﾁｮｳｶﾜﾗ","pref":"鳥取県","city":"鳥取市","address":"青谷町河原"},
{"zip_code":"6890532","kana_pref":"ﾄｯﾄﾘｹﾝ","kana_city":"ﾄｯﾄﾘｼ","kana_address":"ｱｵﾔﾁｮｳｷﾀｶﾞﾜﾗ","pref":"鳥取県","city":"鳥取市","address":"青谷町北河原"},
{"zip_code":"6890533","kana_pref":"ﾄｯﾄﾘｹﾝ","kana_city":"ﾄｯﾄﾘｼ","kana_address":"ｱｵﾔﾁｮｳｷﾇﾐ","pref":"鳥取県","city":"鳥取市","address":"青谷町絹見"},
{"zip_code":"6890527","kana_pref":"ﾄｯﾄﾘｹﾝ","kana_city":"ﾄｯﾄﾘｼ","kana_address":"ｱｵﾔﾁｮｳｸｽﾈ","pref":"鳥取県","city":"鳥取市","address":"青谷町楠根"},
{"zip_code":"6890513","kana_pref":"ﾄｯﾄﾘｹﾝ","kana_city":"ﾄｯﾄﾘｼ","kana_address":"ｱｵﾔﾁｮｳｸﾗｳﾁ","pref":"鳥取県","city":"鳥取市","address":"青谷町蔵内"},
{"zip_code":"6890529","kana_pref":"ﾄｯﾄﾘｹﾝ","kana_city":"ﾄｯﾄﾘｼ","kana_address":"ｱｵﾔﾁｮｳｸﾜﾊﾞﾗ","pref":"鳥取県","city":"鳥取市","address":"青谷町桑原"},
{"zip_code":"6890537","kana_pref":"ﾄｯﾄﾘｹﾝ","kana_city":"ﾄｯﾄﾘｼ","kana_address":"ｱｵﾔﾁｮｳｻｶｴﾏﾁ","pref":"鳥取県","city":"鳥取市","address":"青谷町栄町"},
{"zip_code":"6890528","kana_pref":"ﾄｯﾄﾘｹﾝ","kana_city":"ﾄｯﾄﾘｼ","kana_address":"ｱｵﾔﾁｮｳｽﾝｽﾞ","pref":"鳥取県","city":"鳥取市","address":"青谷町澄水"},
{"zip_code":"6890525","kana_pref":"ﾄｯﾄﾘｹﾝ","kana_city":"ﾄｯﾄﾘｼ","kana_address":"ｱｵﾔﾁｮｳﾀﾜﾗﾀﾞﾆ","pref":"鳥取県","city":"鳥取市","address":"青谷町田原谷"},
{"zip_code":"6890521","kana_pref":"ﾄｯﾄﾘｹﾝ","kana_city":"ﾄｯﾄﾘｼ","kana_address":"ｱｵﾔﾁｮｳﾂﾕﾀﾞﾆ","pref":"鳥取県","city":"鳥取市","address":"青谷町露谷"},
{"zip_code":"6890536","kana_pref":"ﾄｯﾄﾘｹﾝ","kana_city":"ﾄｯﾄﾘｼ","kana_address":"ｱｵﾔﾁｮｳﾅｶﾞﾜｾ","pref":"鳥取県","city":"鳥取市","address":"青谷町長和瀬"},
{"zip_code":"6890531","kana_pref":"ﾄｯﾄﾘｹﾝ","kana_city":"ﾄｯﾄﾘｼ","kana_address":"ｱｵﾔﾁｮｳﾅﾙﾀｷ","pref":"鳥取県","city":"鳥取市","address":"青谷町鳴滝"},
{"zip_code":"6890524","kana_pref":"ﾄｯﾄﾘｹﾝ","kana_city":"ﾄｯﾄﾘｼ","kana_address":"ｱｵﾔﾁｮｳﾊﾂｼｮｳｼﾞ","pref":"鳥取県","city":"鳥取市","address":"青谷町八葉寺"},
{"zip_code":"6890517","kana_pref":"ﾄｯﾄﾘｹﾝ","kana_city":"ﾄｯﾄﾘｼ","kana_address":"ｱｵﾔﾁｮｳﾊﾔｳｼﾞ","pref":"鳥取県","city":"鳥取市","address":"青谷町早牛"},
{"zip_code":"6890523","kana_pref":"ﾄｯﾄﾘｹﾝ","kana_city":"ﾄｯﾄﾘｼ","kana_address":"ｱｵﾔﾁｮｳﾔﾏﾀﾞ","pref":"鳥取県","city":"鳥取市","address":"青谷町山田"},
{"zip_code":"6890514","kana_pref":"ﾄｯﾄﾘｹﾝ","kana_city":"ﾄｯﾄﾘｼ","kana_address":"ｱｵﾔﾁｮｳﾔﾏﾈ","pref":"鳥取県","city":"鳥取市","address":"青谷町山根"},
{"zip_code":"6890512","kana_pref":"ﾄｯﾄﾘｹﾝ","kana_city":"ﾄｯﾄﾘｼ","kana_address":"ｱｵﾔﾁｮｳﾖｳｺﾞｳ","pref":"鳥取県","city":"鳥取市","address":"青谷町養郷"},
{"zip_code":"6890534","kana_pref":"ﾄｯﾄﾘｹﾝ","kana_city":"ﾄｯﾄﾘｼ","kana_address":"ｱｵﾔﾁｮｳﾖｼｶﾜ","pref":"鳥取県","city":"鳥取市","address":"青谷町吉川"},
{"zip_code":"6890511","kana_pref":"ﾄｯﾄﾘｹﾝ","kana_city":"ﾄｯﾄﾘｼ","kana_address":"ｱｵﾔﾁｮｳﾖｼﾀﾞ","pref":"鳥取県","city":"鳥取市","address":"青谷町善田"},
{"zip_code":"6890205","kana_pref":"ﾄｯﾄﾘｹﾝ","kana_city":"ﾄｯﾄﾘｼ","kana_address":"ｳﾂﾐﾅｶ","pref":"鳥取県","city":"鳥取市","address":"内海中"},
{"zip_code":"6891117","kana_pref":"ﾄｯﾄﾘｹﾝ","kana_city":"ﾄｯﾄﾘｼ","kana_address":"ｶｲｿﾞｳｼﾞ","pref":"鳥取県","city":"鳥取市","address":"海蔵寺"},
{"zip_code":"6891115","kana_pref":"ﾄｯﾄﾘｹﾝ","kana_city":"ﾄｯﾄﾘｼ","kana_address":"ｶｺﾞﾀﾞﾆ","pref":"鳥取県","city":"鳥取市","address":"紙子谷"},
{"zip_code":"6891104","kana_pref":"ﾄｯﾄﾘｹﾝ","kana_city":"ﾄｯﾄﾘｼ","kana_address":"ｶﾂﾗｷﾞ","pref":"鳥取県","city":"鳥取市","address":"桂木"},
{"zip_code":"6891114","kana_pref":"ﾄｯﾄﾘｹﾝ","kana_city":"ﾄｯﾄﾘｼ","kana_address":"ｶﾄﾘ","pref":"鳥取県","city":"鳥取市","address":"香取"},
{"zip_code":"6890343","kana_pref":"ﾄｯﾄﾘｹﾝ","kana_city":"ﾄｯﾄﾘｼ","kana_address":"ｹﾀｶﾁｮｳｲｲｻﾞﾄ","pref":"鳥取県","city":"鳥取市","address":"気高町飯里"},
{"zip_code":"6890355","kana_pref":"ﾄｯﾄﾘｹﾝ","kana_city":"ﾄｯﾄﾘｼ","kana_address":"ｹﾀｶﾁｮｳｴｹﾞ","pref":"鳥取県","city":"鳥取市","address":"気高町会下"},
{"zip_code":"6890211","kana_pref":"ﾄｯﾄﾘｹﾝ","kana_city":"ﾄｯﾄﾘｼ","kana_address":"ｹﾀｶﾁｮｳｵｸｿﾞｳﾐ","pref":"鳥取県","city":"鳥取市","address":"気高町奥沢見"},
{"zip_code":"6890341","kana_pref":"ﾄｯﾄﾘｹﾝ","kana_city":"ﾄｯﾄﾘｼ","kana_address":"ｹﾀｶﾁｮｳｵﾛｼﾞ","pref":"鳥取県","city":"鳥取市","address":"気高町下石"},
{"zip_code":"6890332","kana_pref":"ﾄｯﾄﾘｹﾝ","kana_city":"ﾄｯﾄﾘｼ","kana_address":"ｹﾀｶﾁｮｳｶﾁﾐ","pref":"鳥取県","city":"鳥取市","address":"気高町勝見"},
{"zip_code":"6890214","kana_pref":"ﾄｯﾄﾘｹﾝ","kana_city":"ﾄｯﾄﾘｼ","kana_address":"ｹﾀｶﾁｮｳｶﾐﾐﾂ","pref":"鳥取県","city":"鳥取市","address":"気高町上光"},
{"zip_code":"6890344","kana_pref":"ﾄｯﾄﾘｹﾝ","kana_city":"ﾄｯﾄﾘｼ","kana_address":"ｹﾀｶﾁｮｳｶﾝﾊﾞﾗ","pref":"鳥取県","city":"鳥取市","address":"気高町上原"},
{"zip_code":"6890334","kana_pref":"ﾄｯﾄﾘｹﾝ","kana_city":"ﾄｯﾄﾘｼ","kana_address":"ｹﾀｶﾁｮｳｷﾀﾊﾏ","pref":"鳥取県","city":"鳥取市","address":"気高町北浜"},
{"zip_code":"6890353","kana_pref":"ﾄｯﾄﾘｹﾝ","kana_city":"ﾄｯﾄﾘｼ","kana_address":"ｹﾀｶﾁｮｳｺｳｹﾞ","pref":"鳥取県","city":"鳥取市","address":"気高町郡家"},
{"zip_code":"6890217","kana_pref":"ﾄｯﾄﾘｹﾝ","kana_city":"ﾄｯﾄﾘｼ","kana_address":"ｹﾀｶﾁｮｳｻｹﾉﾂ","pref":"鳥取県","city":"鳥取市","address":"気高町酒津"},
{"zip_code":"6890224","kana_pref":"ﾄｯﾄﾘｹﾝ","kana_city":"ﾄｯﾄﾘｼ","kana_address":"ｹﾀｶﾁｮｳｼｹﾞﾀｶ","pref":"鳥取県","city":"鳥取市","address":"気高町重高"},
{"zip_code":"6890221","kana_pref":"ﾄｯﾄﾘｹﾝ","kana_city":"ﾄｯﾄﾘｼ","kana_address":"ｹﾀｶﾁｮｳｼﾓｻｶﾓﾄ","pref":"鳥取県","city":"鳥取市","address":"気高町下坂本"},
{"zip_code":"6890356","kana_pref":"ﾄｯﾄﾘｹﾝ","kana_city":"ﾄｯﾄﾘｼ","kana_address":"ｹﾀｶﾁｮｳｼﾓﾊﾞﾗ","pref":"鳥取県","city":"鳥取市","address":"気高町下原"},
{"zip_code":"6890213","kana_pref":"ﾄｯﾄﾘｹﾝ","kana_city":"ﾄｯﾄﾘｼ","kana_address":"ｹﾀｶﾁｮｳｼﾓﾐﾂﾓﾄ","pref":"鳥取県","city":"鳥取市","address":"気高町下光元"},
{"zip_code":"6890226","kana_pref":"ﾄｯﾄﾘｹﾝ","kana_city":"ﾄｯﾄﾘｼ","kana_address":"ｹﾀｶﾁｮｳｼｭｸ","pref":"鳥取県","city":"鳥取市","address":"気高町宿"},
{"zip_code":"6890333","kana_pref":"ﾄｯﾄﾘｹﾝ","kana_city":"ﾄｯﾄﾘｼ","kana_address":"ｹﾀｶﾁｮｳｼﾝﾏﾁ","pref":"鳥取県","city":"鳥取市","address":"気高町新町"},
{"zip_code":"6890352","kana_pref":"ﾄｯﾄﾘｹﾝ","kana_city":"ﾄｯﾄﾘｼ","kana_address":"ｹﾀｶﾁｮｳﾀｶｴ","pref":"鳥取県","city":"鳥取市","address":"気高町高江"},
{"zip_code":"6890212","kana_pref":"ﾄｯﾄﾘｹﾝ","kana_city":"ﾄｯﾄﾘｼ","kana_address":"ｹﾀｶﾁｮｳﾂﾈﾏﾂ","pref":"鳥取県","city":"鳥取市","address":"気高町常松"},
{"zip_code":"6890225","kana_pref":"ﾄｯﾄﾘｹﾝ","kana_city":"ﾄｯﾄﾘｼ","kana_address":"ｹﾀｶﾁｮｳﾄﾞｲ","pref":"鳥取県","city":"鳥取市","address":"気高町土居"},
{"zip_code":"6890342","kana_pref":"ﾄｯﾄﾘｹﾝ","kana_city":"ﾄｯﾄﾘｼ","kana_address":"ｹﾀｶﾁｮｳﾄﾉ","pref":"鳥取県","city":"鳥取市","address":"気高町殿"},
{"zip_code":"6890215","kana_pref":"ﾄｯﾄﾘｹﾝ","kana_city":"ﾄｯﾄﾘｼ","kana_address":"ｹﾀｶﾁｮｳﾄﾐﾖｼ","pref":"鳥取県","city":"鳥取市","address":"気高町冨吉"},
{"zip_code":"6890222","kana_pref":"ﾄｯﾄﾘｹﾝ","kana_city":"ﾄｯﾄﾘｼ","kana_address":"ｹﾀｶﾁｮｳﾆｯｺｳ","pref":"鳥取県","city":"鳥取市","address":"気高町日光"},
{"zip_code":"6890223","kana_pref":"ﾄｯﾄﾘｹﾝ","kana_city":"ﾄｯﾄﾘｼ","kana_address":"ｹﾀｶﾁｮｳﾆﾎﾝｷﾞ","pref":"鳥取県","city":"鳥取市","address":"気高町二本木"},
{"zip_code":"6890331","kana_pref":"ﾄｯﾄﾘｹﾝ","kana_city":"ﾄｯﾄﾘｼ","kana_address":"ｹﾀｶﾁｮｳﾊﾏﾑﾗ","pref":"鳥取県","city":"鳥取市","address":"気高町浜村"},
{"zip_code":"6890216","kana_pref":"ﾄｯﾄﾘｹﾝ","kana_city":"ﾄｯﾄﾘｼ","kana_address":"ｹﾀｶﾁｮｳﾎｳｷﾞ","pref":"鳥取県","city":"鳥取市","address":"気高町宝木"},
{"zip_code":"6890354","kana_pref":"ﾄｯﾄﾘｹﾝ","kana_city":"ﾄｯﾄﾘｼ","kana_address":"ｹﾀｶﾁｮｳﾑﾂｵ","pref":"鳥取県","city":"鳥取市","address":"気高町睦逢"},
{"zip_code":"6890357","kana_pref":"ﾄｯﾄﾘｹﾝ","kana_city":"ﾄｯﾄﾘｼ","kana_address":"ｹﾀｶﾁｮｳﾔﾂｶﾐ","pref":"鳥取県","city":"鳥取市","address":"気高町八束水"},
{"zip_code":"6890345","kana_pref":"ﾄｯﾄﾘｹﾝ","kana_city":"ﾄｯﾄﾘｼ","kana_address":"ｹﾀｶﾁｮｳﾔﾏﾐﾔ","pref":"鳥取県","city":"鳥取市","address":"気高町山宮"},
{"zip_code":"6890351","kana_pref":"ﾄｯﾄﾘｹﾝ","kana_city":"ﾄｯﾄﾘｼ","kana_address":"ｹﾀｶﾁｮｳﾔﾜﾀ","pref":"鳥取県","city":"鳥取市","address":"気高町八幡"},
{"zip_code":"6891124","kana_pref":"ﾄｯﾄﾘｹﾝ","kana_city":"ﾄｯﾄﾘｼ","kana_address":"ｺｲｼﾞ","pref":"鳥取県","city":"鳥取市","address":"越路"},
{"zip_code":"6891125","kana_pref":"ﾄｯﾄﾘｹﾝ","kana_city":"ﾄｯﾄﾘｼ","kana_address":"ｺｺｵｹﾞ","pref":"鳥取県","city":"鳥取市","address":"古郡家"},
{"zip_code":"6890207","kana_pref":"ﾄｯﾄﾘｹﾝ","kana_city":"ﾄｯﾄﾘｼ","kana_address":"ｺｿﾞﾐ","pref":"鳥取県","city":"鳥取市","address":"小沢見"},
{"zip_code":"6891304","kana_pref":"ﾄｯﾄﾘｹﾝ","kana_city":"ﾄｯﾄﾘｼ","kana_address":"ｻｼﾞﾁｮｳｵｵｲ","pref":"鳥取県","city":"鳥取市","address":"佐治町大井"},
{"zip_code":"6891324","kana_pref":"ﾄｯﾄﾘｹﾝ","kana_city":"ﾄｯﾄﾘｼ","kana_address":"ｻｼﾞﾁｮｳｵﾜｲ","pref":"鳥取県","city":"鳥取市","address":"佐治町尾際"},
{"zip_code":"6891301","kana_pref":"ﾄｯﾄﾘｹﾝ","kana_city":"ﾄｯﾄﾘｼ","kana_address":"ｻｼﾞﾁｮｳｶｽﾞﾗﾀﾆ","pref":"鳥取県","city":"鳥取市","address":"佐治町葛谷"},
{"zip_code":"6891313","kana_pref":"ﾄｯﾄﾘｹﾝ","kana_city":"ﾄｯﾄﾘｼ","kana_address":"ｻｼﾞﾁｮｳｶｾｷﾞ","pref":"鳥取県","city":"鳥取市","address":"佐治町加瀬木"},
{"zip_code":"6891314","kana_pref":"ﾄｯﾄﾘｹﾝ","kana_city":"ﾄｯﾄﾘｼ","kana_address":"ｻｼﾞﾁｮｳｶﾓ","pref":"鳥取県","city":"鳥取市","address":"佐治町加茂"},
{"zip_code":"6891303","kana_pref":"ﾄｯﾄﾘｹﾝ","kana_city":"ﾄｯﾄﾘｼ","kana_address":"ｻｼﾞﾁｮｳｶﾙﾁ","pref":"鳥取県","city":"鳥取市","address":"佐治町刈地"},
{"zip_code":"6891321","kana_pref":"ﾄｯﾄﾘｹﾝ","kana_city":"ﾄｯﾄﾘｼ","kana_address":"ｻｼﾞﾁｮｳｶﾜﾓﾄ","pref":"鳥取県","city":"鳥取市","address":"佐治町河本"},
{"zip_code":"6891302","kana_pref":"ﾄｯﾄﾘｹﾝ","kana_city":"ﾄｯﾄﾘｼ","kana_address":"ｻｼﾞﾁｮｳｺﾊﾞﾗ","pref":"鳥取県","city":"鳥取市","address":"佐治町小原"},
{"zip_code":"6891312","kana_pref":"ﾄｯﾄﾘｹﾝ","kana_city":"ﾄｯﾄﾘｼ","kana_address":"ｻｼﾞﾁｮｳﾀｶﾔﾏ","pref":"鳥取県","city":"鳥取市","address":"佐治町高山"},
{"zip_code":"6891322","kana_pref":"ﾄｯﾄﾘｹﾝ","kana_city":"ﾄｯﾄﾘｼ","kana_address":"ｻｼﾞﾁｮｳﾂｸﾀﾞﾆ","pref":"鳥取県","city":"鳥取市","address":"佐治町つく谷"},
{"zip_code":"6891307","kana_pref":"ﾄｯﾄﾘｹﾝ","kana_city":"ﾄｯﾄﾘｼ","kana_address":"ｻｼﾞﾁｮｳﾂﾅｼ","pref":"鳥取県","city":"鳥取市","address":"佐治町津無"},
{"zip_code":"6891311","kana_pref":"ﾄｯﾄﾘｹﾝ","kana_city":"ﾄｯﾄﾘｼ","kana_address":"ｻｼﾞﾁｮｳﾂﾉ","pref":"鳥取県","city":"鳥取市","address":"佐治町津野"},
{"zip_code":"6891326","kana_pref":"ﾄｯﾄﾘｹﾝ","kana_city":"ﾄｯﾄﾘｼ","kana_address":"ｻｼﾞﾁｮｳﾄﾁﾜﾗ","pref":"鳥取県","city":"鳥取市","address":"佐治町栃原"},
{"zip_code":"6891325","kana_pref":"ﾄｯﾄﾘｹﾝ","kana_city":"ﾄｯﾄﾘｼ","kana_address":"ｻｼﾞﾁｮｳﾅｶ","pref":"鳥取県","city":"鳥取市","address":"佐治町中"},
{"zip_code":"6891315","kana_pref":"ﾄｯﾄﾘｹﾝ","kana_city":"ﾄｯﾄﾘｼ","kana_address":"ｻｼﾞﾁｮｳﾊﾀ","pref":"鳥取県","city":"鳥取市","address":"佐治町畑"},
{"zip_code":"6891316","kana_pref":"ﾄｯﾄﾘｹﾝ","kana_city":"ﾄｯﾄﾘｼ","kana_address":"ｻｼﾞﾁｮｳﾌｸｿﾞﾉ","pref":"鳥取県","city":"鳥取市","address":"佐治町福園"},
{"zip_code":"6891306","kana_pref":"ﾄｯﾄﾘｹﾝ","kana_city":"ﾄｯﾄﾘｼ","kana_address":"ｻｼﾞﾁｮｳﾌﾙｲﾁ","pref":"鳥取県","city":"鳥取市","address":"佐治町古市"},
{"zip_code":"6891305","kana_pref":"ﾄｯﾄﾘｹﾝ","kana_city":"ﾄｯﾄﾘｼ","kana_address":"ｻｼﾞﾁｮｳﾓﾘﾂﾎﾞ","pref":"鳥取県","city":"鳥取市","address":"佐治町森坪"},
{"zip_code":"6891323","kana_pref":"ﾄｯﾄﾘｹﾝ","kana_city":"ﾄｯﾄﾘｼ","kana_address":"ｻｼﾞﾁｮｳﾖﾄﾞ","pref":"鳥取県","city":"鳥取市","address":"佐治町余戸"},
{"zip_code":"6890425","kana_pref":"ﾄｯﾄﾘｹﾝ","kana_city":"ﾄｯﾄﾘｼ","kana_address":"ｼｶﾉﾁｮｳｲﾏｲﾁ","pref":"鳥取県","city":"鳥取市","address":"鹿野町今市"},
{"zip_code":"6890422","kana_pref":"ﾄｯﾄﾘｹﾝ","kana_city":"ﾄｯﾄﾘｼ","kana_address":"ｼｶﾉﾁｮｳｵｶｷ","pref":"鳥取県","city":"鳥取市","address":"鹿野町岡木"},
{"zip_code":"6890421","kana_pref":"ﾄｯﾄﾘｹﾝ","kana_city":"ﾄｯﾄﾘｼ","kana_address":"ｼｶﾉﾁｮｳｵﾂｶﾞｾ","pref":"鳥取県","city":"鳥取市","address":"鹿野町乙亥正"},
{"zip_code":"6890412","kana_pref":"ﾄｯﾄﾘｹﾝ","kana_city":"ﾄｯﾄﾘｼ","kana_address":"ｼｶﾉﾁｮｳｺｳﾁ","pref":"鳥取県","city":"鳥取市","address":"鹿野町河内"},
{"zip_code":"6890413","kana_pref":"ﾄｯﾄﾘｹﾝ","kana_city":"ﾄｯﾄﾘｼ","kana_address":"ｼｶﾉﾁｮｳｺﾍﾞﾂｼﾖ","pref":"鳥取県","city":"鳥取市","address":"鹿野町小別所"},
{"zip_code":"6890405","kana_pref":"ﾄｯﾄﾘｹﾝ","kana_city":"ﾄｯﾄﾘｼ","kana_address":"ｼｶﾉﾁｮｳｼｶﾉ","pref":"鳥取県","city":"鳥取市","address":"鹿野町鹿野"},
{"zip_code":"6890411","kana_pref":"ﾄｯﾄﾘｹﾝ","kana_city":"ﾄｯﾄﾘｼ","kana_address":"ｼｶﾉﾁｮｳｼﾞｭｳﾎﾞｳ","pref":"鳥取県","city":"鳥取市","address":"鹿野町鷲峯"},
{"zip_code":"6890403","kana_pref":"ﾄｯﾄﾘｹﾝ","kana_city":"ﾄｯﾄﾘｼ","kana_address":"ｼｶﾉﾁｮｳｽｴﾓﾁ","pref":"鳥取県","city":"鳥取市","address":"鹿野町末用"},
{"zip_code":"6890426","kana_pref":"ﾄｯﾄﾘｹﾝ","kana_city":"ﾄｯﾄﾘｼ","kana_address":"ｼｶﾉﾁｮｳﾃﾗｳﾁ","pref":"鳥取県","city":"鳥取市","address":"鹿野町寺内"},
{"zip_code":"6890402","kana_pref":"ﾄｯﾄﾘｹﾝ","kana_city":"ﾄｯﾄﾘｼ","kana_address":"ｼｶﾉﾁｮｳﾄｼﾞﾉ","pref":"鳥取県","city":"鳥取市","address":"鹿野町閉野"},
{"zip_code":"6890423","kana_pref":"ﾄｯﾄﾘｹﾝ","kana_city":"ﾄｯﾄﾘｼ","kana_address":"ｼｶﾉﾁｮｳﾅｶｿﾞﾉ","pref":"鳥取県","city":"鳥取市","address":"鹿野町中園"},
{"zip_code":"6890401","kana_pref":"ﾄｯﾄﾘｹﾝ","kana_city":"ﾄｯﾄﾘｼ","kana_address":"ｼｶﾉﾁｮｳﾋﾛｷﾞ","pref":"鳥取県","city":"鳥取市","address":"鹿野町広木"},
{"zip_code":"6890404","kana_pref":"ﾄｯﾄﾘｹﾝ","kana_city":"ﾄｯﾄﾘｼ","kana_address":"ｼｶﾉﾁｮｳﾐｽﾞﾀﾆ","pref":"鳥取県","city":"鳥取市","address":"鹿野町水谷"},
{"zip_code":"6890424","kana_pref":"ﾄｯﾄﾘｹﾝ","kana_city":"ﾄｯﾄﾘｼ","kana_address":"ｼｶﾉﾁｮｳﾐﾔｶﾀ","pref":"鳥取県","city":"鳥取市","address":"鹿野町宮方"},
{"zip_code":"6891103","kana_pref":"ﾄｯﾄﾘｹﾝ","kana_city":"ﾄｯﾄﾘｼ","kana_address":"ｼｮｳｻﾞﾝ","pref":"鳥取県","city":"鳥取市","address":"生山"},
{"zip_code":"6891101","kana_pref":"ﾄｯﾄﾘｹﾝ","kana_city":"ﾄｯﾄﾘｼ","kana_address":"ｽｷﾞｻﾞｷ","pref":"鳥取県","city":"鳥取市","address":"杉崎"},
{"zip_code":"6891102","kana_pref":"ﾄｯﾄﾘｹﾝ","kana_city":"ﾄｯﾄﾘｼ","kana_address":"ﾂﾉｲ","pref":"鳥取県","city":"鳥取市","address":"津ノ井"},
{"zip_code":"6891106","kana_pref":"ﾄｯﾄﾘｹﾝ","kana_city":"ﾄｯﾄﾘｼ","kana_address":"ﾅｶｵｵﾛ","pref":"鳥取県","city":"鳥取市","address":"中大路"},
{"zip_code":"6891121","kana_pref":"ﾄｯﾄﾘｹﾝ","kana_city":"ﾄｯﾄﾘｼ","kana_address":"ﾅﾝｴｲﾁｮｳ","pref":"鳥取県","city":"鳥取市","address":"南栄町"},
{"zip_code":"6891107","kana_pref":"ﾄｯﾄﾘｹﾝ","kana_city":"ﾄｯﾄﾘｼ","kana_address":"ﾆｼｵｵﾛ","pref":"鳥取県","city":"鳥取市","address":"西大路"},
{"zip_code":"6891113","kana_pref":"ﾄｯﾄﾘｹﾝ","kana_city":"ﾄｯﾄﾘｼ","kana_address":"ﾈｷﾞﾀﾞﾆ","pref":"鳥取県","city":"鳥取市","address":"祢宜谷"},
{"zip_code":"6890206","kana_pref":"ﾄｯﾄﾘｹﾝ","kana_city":"ﾄｯﾄﾘｼ","kana_address":"ﾊｸﾄ","pref":"鳥取県","city":"鳥取市","address":"白兎"},
{"zip_code":"6891105","kana_pref":"ﾄｯﾄﾘｹﾝ","kana_city":"ﾄｯﾄﾘｼ","kana_address":"ﾋｶﾞｼｵｵﾛ","pref":"鳥取県","city":"鳥取市","address":"東大路"},
{"zip_code":"6891123","kana_pref":"ﾄｯﾄﾘｹﾝ","kana_city":"ﾄｯﾄﾘｼ","kana_address":"ﾋｻｽｴ","pref":"鳥取県","city":"鳥取市","address":"久末"},
{"zip_code":"6891116","kana_pref":"ﾄｯﾄﾘｹﾝ","kana_city":"ﾄｯﾄﾘｼ","kana_address":"ﾋﾛｵｶ","pref":"鳥取県","city":"鳥取市","address":"広岡"},
{"zip_code":"6890106","kana_pref":"ﾄｯﾄﾘｹﾝ","kana_city":"ﾄｯﾄﾘｼ","kana_address":"ﾌｸﾍﾞﾁｮｳｱﾓｳ","pref":"鳥取県","city":"鳥取市","address":"福部町海士"},
{"zip_code":"6890101","kana_pref":"ﾄｯﾄﾘｹﾝ","kana_city":"ﾄｯﾄﾘｼ","kana_address":"ﾌｸﾍﾞﾁｮｳｲﾜﾄﾞ","pref":"鳥取県","city":"鳥取市","address":"福部町岩戸"},
{"zip_code":"6890113","kana_pref":"ﾄｯﾄﾘｹﾝ","kana_city":"ﾄｯﾄﾘｼ","kana_address":"ﾌｸﾍﾞﾁｮｳｸｼﾞﾗ","pref":"鳥取県","city":"鳥取市","address":"福部町久志羅"},
{"zip_code":"6890112","kana_pref":"ﾄｯﾄﾘｹﾝ","kana_city":"ﾄｯﾄﾘｼ","kana_address":"ﾌｸﾍﾞﾁｮｳｸﾗﾐ","pref":"鳥取県","city":"鳥取市","address":"福部町蔵見"},
{"zip_code":"6890111","kana_pref":"ﾄｯﾄﾘｹﾝ","kana_city":"ﾄｯﾄﾘｼ","kana_address":"ﾌｸﾍﾞﾁｮｳｸﾘﾀﾆ","pref":"鳥取県","city":"鳥取市","address":"福部町栗谷"},
{"zip_code":"6890114","kana_pref":"ﾄｯﾄﾘｹﾝ","kana_city":"ﾄｯﾄﾘｼ","kana_address":"ﾌｸﾍﾞﾁｮｳｻｺ","pref":"鳥取県","city":"鳥取市","address":"福部町左近"},
{"zip_code":"6890103","kana_pref":"ﾄｯﾄﾘｹﾝ","kana_city":"ﾄｯﾄﾘｼ","kana_address":"ﾌｸﾍﾞﾁｮｳﾀｶｴ","pref":"鳥取県","city":"鳥取市","address":"福部町高江"},
{"zip_code":"6890116","kana_pref":"ﾄｯﾄﾘｹﾝ","kana_city":"ﾄｯﾄﾘｼ","kana_address":"ﾌｸﾍﾞﾁｮｳﾅｶ","pref":"鳥取県","city":"鳥取市","address":"福部町中"},
{"zip_code":"6890117","kana_pref":"ﾄｯﾄﾘｹﾝ","kana_city":"ﾄｯﾄﾘｼ","kana_address":"ﾌｸﾍﾞﾁｮｳﾉｳﾀﾞ","pref":"鳥取県","city":"鳥取市","address":"福部町南田"},
{"zip_code":"6890102","kana_pref":"ﾄｯﾄﾘｹﾝ","kana_city":"ﾄｯﾄﾘｼ","kana_address":"ﾌｸﾍﾞﾁｮｳﾎｿｶﾞﾜ","pref":"鳥取県","city":"鳥取市","address":"福部町細川"},
{"zip_code":"6890115","kana_pref":"ﾄｯﾄﾘｹﾝ","kana_city":"ﾄｯﾄﾘｼ","kana_address":"ﾌｸﾍﾞﾁｮｳﾔｴﾊﾞﾗ","pref":"鳥取県","city":"鳥取市","address":"福部町八重原"},
{"zip_code":"6890104","kana_pref":"ﾄｯﾄﾘｹﾝ","kana_city":"ﾄｯﾄﾘｼ","kana_address":"ﾌｸﾍﾞﾁｮｳﾔﾀﾞﾆ","pref":"鳥取県","city":"鳥取市","address":"福部町箭渓"},
{"zip_code":"6890105","kana_pref":"ﾄｯﾄﾘｹﾝ","kana_city":"ﾄｯﾄﾘｼ","kana_address":"ﾌｸﾍﾞﾁｮｳﾕﾔﾏ","pref":"鳥取県","city":"鳥取市","address":"福部町湯山"},
{"zip_code":"6890201","kana_pref":"ﾄｯﾄﾘｹﾝ","kana_city":"ﾄｯﾄﾘｼ","kana_address":"ﾌｼﾉ","pref":"鳥取県","city":"鳥取市","address":"伏野"},
{"zip_code":"6891122","kana_pref":"ﾄｯﾄﾘｹﾝ","kana_city":"ﾄｯﾄﾘｼ","kana_address":"ﾌﾅｷ","pref":"鳥取県","city":"鳥取市","address":"船木"},
{"zip_code":"6890204","kana_pref":"ﾄｯﾄﾘｹﾝ","kana_city":"ﾄｯﾄﾘｼ","kana_address":"ﾐｸﾏ","pref":"鳥取県","city":"鳥取市","address":"御熊"},
{"zip_code":"6890203","kana_pref":"ﾄｯﾄﾘｹﾝ","kana_city":"ﾄｯﾄﾘｼ","kana_address":"ﾐﾂ","pref":"鳥取県","city":"鳥取市","address":"三津"},
{"zip_code":"6890202","kana_pref":"ﾄｯﾄﾘｹﾝ","kana_city":"ﾄｯﾄﾘｼ","kana_address":"ﾐﾊｷﾞﾉ","pref":"鳥取県","city":"鳥取市","address":"美萩野"},
{"zip_code":"6891126","kana_pref":"ﾄｯﾄﾘｹﾝ","kana_city":"ﾄｯﾄﾘｼ","kana_address":"ﾐﾜ","pref":"鳥取県","city":"鳥取市","address":"美和"},
{"zip_code":"6891215","kana_pref":"ﾄｯﾄﾘｹﾝ","kana_city":"ﾄｯﾄﾘｼ","kana_address":"ﾓﾁｶﾞｾﾁｮｳｱｶﾞﾅﾐ","pref":"鳥取県","city":"鳥取市","address":"用瀬町赤波"},
{"zip_code":"6891214","kana_pref":"ﾄｯﾄﾘｹﾝ","kana_city":"ﾄｯﾄﾘｼ","kana_address":"ﾓﾁｶﾞｾﾁｮｳｱｻﾋｶﾞｵｶ","pref":"鳥取県","city":"鳥取市","address":"用瀬町旭ケ丘"},
{"zip_code":"6891227","kana_pref":"ﾄｯﾄﾘｹﾝ","kana_city":"ﾄｯﾄﾘｼ","kana_address":"ﾓﾁｶﾞｾﾁｮｳｱｿﾞｳ","pref":"鳥取県","city":"鳥取市","address":"用瀬町安蔵"},
{"zip_code":"6891222","kana_pref":"ﾄｯﾄﾘｹﾝ","kana_city":"ﾄｯﾄﾘｼ","kana_address":"ﾓﾁｶﾞｾﾁｮｳｲｴｵｸ","pref":"鳥取県","city":"鳥取市","address":"用瀬町家奥"},
{"zip_code":"6891229","kana_pref":"ﾄｯﾄﾘｹﾝ","kana_city":"ﾄｯﾄﾘｼ","kana_address":"ﾓﾁｶﾞｾﾁｮｳｴﾅﾐ","pref":"鳥取県","city":"鳥取市","address":"用瀬町江波"},
{"zip_code":"6891223","kana_pref":"ﾄｯﾄﾘｹﾝ","kana_city":"ﾄｯﾄﾘｼ","kana_address":"ﾓﾁｶﾞｾﾁｮｳｶﾅﾔ","pref":"鳥取県","city":"鳥取市","address":"用瀬町金屋"},
{"zip_code":"6891226","kana_pref":"ﾄｯﾄﾘｹﾝ","kana_city":"ﾄｯﾄﾘｼ","kana_address":"ﾓﾁｶﾞｾﾁｮｳｶﾜﾅｶ","pref":"鳥取県","city":"鳥取市","address":"用瀬町川中"},
{"zip_code":"6891224","kana_pref":"ﾄｯﾄﾘｹﾝ","kana_city":"ﾄｯﾄﾘｼ","kana_address":"ﾓﾁｶﾞｾﾁｮｳｸﾇｷﾞﾜﾗ","pref":"鳥取県","city":"鳥取市","address":"用瀬町樟原"},
{"zip_code":"6891213","kana_pref":"ﾄｯﾄﾘｹﾝ","kana_city":"ﾄｯﾄﾘｼ","kana_address":"ﾓﾁｶﾞｾﾁｮｳﾀｶｶﾞﾘ","pref":"鳥取県","city":"鳥取市","address":"用瀬町鷹狩"},
{"zip_code":"6891221","kana_pref":"ﾄｯﾄﾘｹﾝ","kana_city":"ﾄｯﾄﾘｼ","kana_address":"ﾓﾁｶﾞｾﾁｮｳﾌﾙﾓﾁｶﾞｾ","pref":"鳥取県","city":"鳥取市","address":"用瀬町古用瀬"},
{"zip_code":"6891211","kana_pref":"ﾄｯﾄﾘｹﾝ","kana_city":"ﾄｯﾄﾘｼ","kana_address":"ﾓﾁｶﾞｾﾁｮｳﾍﾞﾌ","pref":"鳥取県","city":"鳥取市","address":"用瀬町別府"},
{"zip_code":"6891212","kana_pref":"ﾄｯﾄﾘｹﾝ","kana_city":"ﾄｯﾄﾘｼ","kana_address":"ﾓﾁｶﾞｾﾁｮｳﾐﾅﾘ","pref":"鳥取県","city":"鳥取市","address":"用瀬町美成"},
{"zip_code":"6891225","kana_pref":"ﾄｯﾄﾘｹﾝ","kana_city":"ﾄｯﾄﾘｼ","kana_address":"ﾓﾁｶﾞｾﾁｮｳﾐﾔﾊﾞﾗ","pref":"鳥取県","city":"鳥取市","address":"用瀬町宮原"},
{"zip_code":"6891201","kana_pref":"ﾄｯﾄﾘｹﾝ","kana_city":"ﾄｯﾄﾘｼ","kana_address":"ﾓﾁｶﾞｾﾁｮｳﾓﾁｶﾞｾ","pref":"鳥取県","city":"鳥取市","address":"用瀬町用瀬"},
{"zip_code":"6891228","kana_pref":"ﾄｯﾄﾘｹﾝ","kana_city":"ﾄｯﾄﾘｼ","kana_address":"ﾓﾁｶﾞｾﾁｮｳﾔｽﾞﾐ","pref":"鳥取県","city":"鳥取市","address":"用瀬町屋住"},
{"zip_code":"6891112","kana_pref":"ﾄｯﾄﾘｹﾝ","kana_city":"ﾄｯﾄﾘｼ","kana_address":"ﾜｶﾊﾞﾀﾞｲﾐﾅﾐ","pref":"鳥取県","city":"鳥取市","address":"若葉台南"},
{"zip_code":"6891111","kana_pref":"ﾄｯﾄﾘｹﾝ","kana_city":"ﾄｯﾄﾘｼ","kana_address":"ﾜｶﾊﾞﾀﾞｲｷﾀ","pref":"鳥取県","city":"鳥取市","address":"若葉台北"},
{"zip_code":"6893515","kana_pref":"ﾄｯﾄﾘｹﾝ","kana_city":"ﾖﾅｺﾞｼ","kana_address":"ｱｶｲﾃﾞ","pref":"鳥取県","city":"米子市","address":"赤井手"},
{"zip_code":"6893512","kana_pref":"ﾄｯﾄﾘｹﾝ","kana_city":"ﾖﾅｺﾞｼ","kana_address":"ｲｽﾞﾐ","pref":"鳥取県","city":"米子市","address":"泉"},
{"zip_code":"6893533","kana_pref":"ﾄｯﾄﾘｹﾝ","kana_city":"ﾖﾅｺﾞｼ","kana_address":"ｲﾁﾌﾞ","pref":"鳥取県","city":"米子市","address":"一部"},
{"zip_code":"6893542","kana_pref":"ﾄｯﾄﾘｹﾝ","kana_city":"ﾖﾅｺﾞｼ","kana_address":"ｲﾏｻﾞｲｹ","pref":"鳥取県","city":"米子市","address":"今在家"},
{"zip_code":"6893544","kana_pref":"ﾄｯﾄﾘｹﾝ","kana_city":"ﾖﾅｺﾞｼ","kana_address":"ｳﾗﾂ","pref":"鳥取県","city":"米子市","address":"浦津"},
{"zip_code":"6893513","kana_pref":"ﾄｯﾄﾘｹﾝ","kana_city":"ﾖﾅｺﾞｼ","kana_address":"ｵｶﾅﾘ","pref":"鳥取県","city":"米子市","address":"岡成"},
{"zip_code":"6893514","kana_pref":"ﾄｯﾄﾘｹﾝ","kana_city":"ﾖﾅｺﾞｼ","kana_address":"ｵﾀﾞｶ","pref":"鳥取県","city":"米子市","address":"尾高"},
{"zip_code":"6893532","kana_pref":"ﾄｯﾄﾘｹﾝ","kana_city":"ﾖﾅｺﾞｼ","kana_address":"ｶﾐｼｲ","pref":"鳥取県","city":"米子市","address":"上新印"},
{"zip_code":"6893543","kana_pref":"ﾄｯﾄﾘｹﾝ","kana_city":"ﾖﾅｺﾞｼ","kana_address":"ｶﾔ","pref":"鳥取県","city":"米子市","address":"蚊屋"},
{"zip_code":"6893521","kana_pref":"ﾄｯﾄﾘｹﾝ","kana_city":"ﾖﾅｺﾞｼ","kana_address":"ｶﾜｵｶ","pref":"鳥取県","city":"米子市","address":"河岡"},
{"zip_code":"6893522","kana_pref":"ﾄｯﾄﾘｹﾝ","kana_city":"ﾖﾅｺﾞｼ","kana_address":"ｸｻｶ","pref":"鳥取県","city":"米子市","address":"日下"},
{"zip_code":"6893546","kana_pref":"ﾄｯﾄﾘｹﾝ","kana_city":"ﾖﾅｺﾞｼ","kana_address":"ｸﾏﾝﾄｳ","pref":"鳥取県","city":"米子市","address":"熊党"},
{"zip_code":"6893537","kana_pref":"ﾄｯﾄﾘｹﾝ","kana_city":"ﾖﾅｺﾞｼ","kana_address":"ｺﾎｳﾁ","pref":"鳥取県","city":"米子市","address":"古豊千"},
{"zip_code":"6893531","kana_pref":"ﾄｯﾄﾘｹﾝ","kana_city":"ﾖﾅｺﾞｼ","kana_address":"ｼﾓｼｲ","pref":"鳥取県","city":"米子市","address":"下新印"},
{"zip_code":"6893511","kana_pref":"ﾄｯﾄﾘｹﾝ","kana_city":"ﾖﾅｺﾞｼ","kana_address":"ｼﾓﾉｺﾞｳ","pref":"鳥取県","city":"米子市","address":"下郷"},
{"zip_code":"6893524","kana_pref":"ﾄｯﾄﾘｹﾝ","kana_city":"ﾖﾅｺﾞｼ","kana_address":"ｾｷｼｭｳﾌ","pref":"鳥取県","city":"米子市","address":"石州府"},
{"zip_code":"6893536","kana_pref":"ﾄｯﾄﾘｹﾝ","kana_city":"ﾖﾅｺﾞｼ","kana_address":"ﾀｶｼﾏ","pref":"鳥取県","city":"米子市","address":"高島"},
{"zip_code":"6893541","kana_pref":"ﾄｯﾄﾘｹﾝ","kana_city":"ﾖﾅｺﾞｼ","kana_address":"ﾆﾎﾝｷﾞ","pref":"鳥取県","city":"米子市","address":"二本木"},
{"zip_code":"6893535","kana_pref":"ﾄｯﾄﾘｹﾝ","kana_city":"ﾖﾅｺﾞｼ","kana_address":"ﾋｶﾞｼﾔﾜﾀ","pref":"鳥取県","city":"米子市","address":"東八幡"},
{"zip_code":"6893523","kana_pref":"ﾄｯﾄﾘｹﾝ","kana_city":"ﾖﾅｺﾞｼ","kana_address":"ﾌｸﾏﾝ","pref":"鳥取県","city":"米子市","address":"福万"},
{"zip_code":"6893534","kana_pref":"ﾄｯﾄﾘｹﾝ","kana_city":"ﾖﾅｺﾞｼ","kana_address":"ﾐｽﾞﾊﾏ","pref":"鳥取県","city":"米子市","address":"水浜"},
{"zip_code":"6893545","kana_pref":"ﾄｯﾄﾘｹﾝ","kana_city":"ﾖﾅｺﾞｼ","kana_address":"ﾖｼｵｶ","pref":"鳥取県","city":"米子市","address":"吉岡"},
{"zip_code":"6893412","kana_pref":"ﾄｯﾄﾘｹﾝ","kana_city":"ﾖﾅｺﾞｼ","kana_address":"ﾖﾄﾞｴﾁｮｳｲﾅﾖｼ","pref":"鳥取県","city":"米子市","address":"淀江町稲吉"},
{"zip_code":"6893401","kana_pref":"ﾄｯﾄﾘｹﾝ","kana_city":"ﾖﾅｺﾞｼ","kana_address":"ﾖﾄﾞｴﾁｮｳｲﾏﾂﾞ","pref":"鳥取県","city":"米子市","address":"淀江町今津"},
{"zip_code":"6893423","kana_pref":"ﾄｯﾄﾘｹﾝ","kana_city":"ﾖﾅｺﾞｼ","kana_address":"ﾖﾄﾞｴﾁｮｳｺﾅﾐ","pref":"鳥取県","city":"米子市","address":"淀江町小波"},
{"zip_code":"6893425","kana_pref":"ﾄｯﾄﾘｹﾝ","kana_city":"ﾖﾅｺﾞｼ","kana_address":"ﾖﾄﾞｴﾁｮｳｻﾀﾞ","pref":"鳥取県","city":"米子市","address":"淀江町佐陀"},
{"zip_code":"6893418","kana_pref":"ﾄｯﾄﾘｹﾝ","kana_city":"ﾖﾅｺﾞｼ","kana_address":"ﾖﾄﾞｴﾁｮｳﾀｶｲﾀﾞﾆ","pref":"鳥取県","city":"米子市","address":"淀江町高井谷"},
{"zip_code":"6893415","kana_pref":"ﾄｯﾄﾘｹﾝ","kana_city":"ﾖﾅｺﾞｼ","kana_address":"ﾖﾄﾞｴﾁｮｳﾄﾐｼｹﾞ","pref":"鳥取県","city":"米子市","address":"淀江町富繁"},
{"zip_code":"6893417","kana_pref":"ﾄｯﾄﾘｹﾝ","kana_city":"ﾖﾅｺﾞｼ","kana_address":"ﾖﾄﾞｴﾁｮｳﾅｶﾆｼｵ","pref":"鳥取県","city":"米子市","address":"淀江町中西尾"},
{"zip_code":"6893424","kana_pref":"ﾄｯﾄﾘｹﾝ","kana_city":"ﾖﾅｺﾞｼ","kana_address":"ﾖﾄﾞｴﾁｮｳﾅｶﾏ","pref":"鳥取県","city":"米子市","address":"淀江町中間"},
{"zip_code":"6893414","kana_pref":"ﾄｯﾄﾘｹﾝ","kana_city":"ﾖﾅｺﾞｼ","kana_address":"ﾖﾄﾞｴﾁｮｳﾆｼｵﾊﾗ","pref":"鳥取県","city":"米子市","address":"淀江町西尾原"},
{"zip_code":"6893403","kana_pref":"ﾄｯﾄﾘｹﾝ","kana_city":"ﾖﾅｺﾞｼ","kana_address":"ﾖﾄﾞｴﾁｮｳﾆｼﾊﾞﾗ","pref":"鳥取県","city":"米子市","address":"淀江町西原"},
{"zip_code":"6893422","kana_pref":"ﾄｯﾄﾘｹﾝ","kana_city":"ﾖﾅｺﾞｼ","kana_address":"ﾖﾄﾞｴﾁｮｳﾋﾗｵｶ","pref":"鳥取県","city":"米子市","address":"淀江町平岡"},
{"zip_code":"6893416","kana_pref":"ﾄｯﾄﾘｹﾝ","kana_city":"ﾖﾅｺﾞｼ","kana_address":"ﾖﾄﾞｴﾁｮｳﾌｸｲ","pref":"鳥取県","city":"米子市","address":"淀江町福井"},
{"zip_code":"6893411","kana_pref":"ﾄｯﾄﾘｹﾝ","kana_city":"ﾖﾅｺﾞｼ","kana_address":"ﾖﾄﾞｴﾁｮｳﾌｸｵｶ","pref":"鳥取県","city":"米子市","address":"淀江町福岡"},
{"zip_code":"6893421","kana_pref":"ﾄｯﾄﾘｹﾝ","kana_city":"ﾖﾅｺﾞｼ","kana_address":"ﾖﾄﾞｴﾁｮｳﾌｸﾖﾘ","pref":"鳥取県","city":"米子市","address":"淀江町福頼"},
{"zip_code":"6893413","kana_pref":"ﾄｯﾄﾘｹﾝ","kana_city":"ﾖﾅｺﾞｼ","kana_address":"ﾖﾄﾞｴﾁｮｳﾎﾝｸﾞｳ","pref":"鳥取県","city":"米子市","address":"淀江町本宮"},
{"zip_code":"6893402","kana_pref":"ﾄｯﾄﾘｹﾝ","kana_city":"ﾖﾅｺﾞｼ","kana_address":"ﾖﾄﾞｴﾁｮｳﾖﾄﾞｴ","pref":"鳥取県","city":"米子市","address":"淀江町淀江"},
{"zip_code":"6893547","kana_pref":"ﾄｯﾄﾘｹﾝ","kana_city":"ﾖﾅｺﾞｼ","kana_address":"ﾘｭｳﾂｳﾁｮｳ","pref":"鳥取県","city":"米子市","address":"流通町"},
{"zip_code":"6891400","kana_pref":"ﾄｯﾄﾘｹﾝ","kana_city":"ﾔｽﾞｸﾞﾝﾁﾂﾞﾁｮｳ","kana_address":"","pref":"鳥取県","city":"八頭郡智頭町","address":""},
{"zip_code":"6891412","kana_pref":"ﾄｯﾄﾘｹﾝ","kana_city":"ﾔｽﾞｸﾞﾝﾁﾂﾞﾁｮｳ","kana_address":"ｱｼﾂﾞ","pref":"鳥取県","city":"八頭郡智頭町","address":"芦津"},
{"zip_code":"6891401","kana_pref":"ﾄｯﾄﾘｹﾝ","kana_city":"ﾔｽﾞｸﾞﾝﾁﾂﾞﾁｮｳ","kana_address":"ｲﾁﾉｾ","pref":"鳥取県","city":"八頭郡智頭町","address":"市瀬"},
{"zip_code":"6891404","kana_pref":"ﾄｯﾄﾘｹﾝ","kana_city":"ﾔｽﾞｸﾞﾝﾁﾂﾞﾁｮｳ","kana_address":"ｲﾜｶﾞﾐ","pref":"鳥取県","city":"八頭郡智頭町","address":"岩神"},
{"zip_code":"6891465","kana_pref":"ﾄｯﾄﾘｹﾝ","kana_city":"ﾔｽﾞｸﾞﾝﾁﾂﾞﾁｮｳ","kana_address":"ｳﾅﾐ","pref":"鳥取県","city":"八頭郡智頭町","address":"宇波"},
{"zip_code":"6891451","kana_pref":"ﾄｯﾄﾘｹﾝ","kana_city":"ﾔｽﾞｸﾞﾝﾁﾂﾞﾁｮｳ","kana_address":"ｵｵｾ","pref":"鳥取県","city":"八頭郡智頭町","address":"大背"},
{"zip_code":"6891421","kana_pref":"ﾄｯﾄﾘｹﾝ","kana_city":"ﾔｽﾞｸﾞﾝﾁﾂﾞﾁｮｳ","kana_address":"ｵｵﾁ","pref":"鳥取県","city":"八頭郡智頭町","address":"大内"},
{"zip_code":"6891442","kana_pref":"ﾄｯﾄﾘｹﾝ","kana_city":"ﾔｽﾞｸﾞﾝﾁﾂﾞﾁｮｳ","kana_address":"ｵｵﾔ","pref":"鳥取県","city":"八頭郡智頭町","address":"大屋"},
{"zip_code":"6891413","kana_pref":"ﾄｯﾄﾘｹﾝ","kana_city":"ﾔｽﾞｸﾞﾝﾁﾂﾞﾁｮｳ","kana_address":"ｵｵﾛ","pref":"鳥取県","city":"八頭郡智頭町","address":"大呂"},
{"zip_code":"6891452","kana_pref":"ﾄｯﾄﾘｹﾝ","kana_city":"ﾔｽﾞｸﾞﾝﾁﾂﾞﾁｮｳ","kana_address":"ｵｸﾓﾄ","pref":"鳥取県","city":"八頭郡智頭町","address":"奥本"},
{"zip_code":"6891422","kana_pref":"ﾄｯﾄﾘｹﾝ","kana_city":"ﾔｽﾞｸﾞﾝﾁﾂﾞﾁｮｳ","kana_address":"ｵﾐ","pref":"鳥取県","city":"八頭郡智頭町","address":"尾見"},
{"zip_code":"6891436","kana_pref":"ﾄｯﾄﾘｹﾝ","kana_city":"ﾔｽﾞｸﾞﾝﾁﾂﾞﾁｮｳ","kana_address":"ｷﾊﾗ","pref":"鳥取県","city":"八頭郡智頭町","address":"木原"},
{"zip_code":"6891464","kana_pref":"ﾄｯﾄﾘｹﾝ","kana_city":"ﾔｽﾞｸﾞﾝﾁﾂﾞﾁｮｳ","kana_address":"ｸﾁｳﾅﾐ","pref":"鳥取県","city":"八頭郡智頭町","address":"口宇波"},
{"zip_code":"6891467","kana_pref":"ﾄｯﾄﾘｹﾝ","kana_city":"ﾔｽﾞｸﾞﾝﾁﾂﾞﾁｮｳ","kana_address":"ｸﾁﾊﾀ","pref":"鳥取県","city":"八頭郡智頭町","address":"口波多"},
{"zip_code":"6891441","kana_pref":"ﾄｯﾄﾘｹﾝ","kana_city":"ﾔｽﾞｸﾞﾝﾁﾂﾞﾁｮｳ","kana_address":"ｹｲｼﾞｮ","pref":"鳥取県","city":"八頭郡智頭町","address":"慶所"},
{"zip_code":"6891416","kana_pref":"ﾄｯﾄﾘｹﾝ","kana_city":"ﾔｽﾞｸﾞﾝﾁﾂﾞﾁｮｳ","kana_address":"ｹﾀﾞﾆ","pref":"鳥取県","city":"八頭郡智頭町","address":"毛谷"},
{"zip_code":"6891454","kana_pref":"ﾄｯﾄﾘｹﾝ","kana_city":"ﾔｽﾞｸﾞﾝﾁﾂﾞﾁｮｳ","kana_address":"ｺｳﾂﾞﾜﾗ","pref":"鳥取県","city":"八頭郡智頭町","address":"河津原"},
{"zip_code":"6891415","kana_pref":"ﾄｯﾄﾘｹﾝ","kana_city":"ﾔｽﾞｸﾞﾝﾁﾂﾞﾁｮｳ","kana_address":"ｺﾞｳﾊﾞﾗ","pref":"鳥取県","city":"八頭郡智頭町","address":"郷原"},
{"zip_code":"6891424","kana_pref":"ﾄｯﾄﾘｹﾝ","kana_city":"ﾔｽﾞｸﾞﾝﾁﾂﾞﾁｮｳ","kana_address":"ｺﾏｶﾞｴﾘ","pref":"鳥取県","city":"八頭郡智頭町","address":"駒帰"},
{"zip_code":"6891461","kana_pref":"ﾄｯﾄﾘｹﾝ","kana_city":"ﾔｽﾞｸﾞﾝﾁﾂﾞﾁｮｳ","kana_address":"ｻｶﾜﾗ","pref":"鳥取県","city":"八頭郡智頭町","address":"坂原"},
{"zip_code":"6891417","kana_pref":"ﾄｯﾄﾘｹﾝ","kana_city":"ﾔｽﾞｸﾞﾝﾁﾂﾞﾁｮｳ","kana_address":"ｼﾉｻﾞｶ","pref":"鳥取県","city":"八頭郡智頭町","address":"篠坂"},
{"zip_code":"6891468","kana_pref":"ﾄｯﾄﾘｹﾝ","kana_city":"ﾔｽﾞｸﾞﾝﾁﾂﾞﾁｮｳ","kana_address":"ｿｳﾁ","pref":"鳥取県","city":"八頭郡智頭町","address":"惣地"},
{"zip_code":"6891402","kana_pref":"ﾄｯﾄﾘｹﾝ","kana_city":"ﾔｽﾞｸﾞﾝﾁﾂﾞﾁｮｳ","kana_address":"ﾁｽﾞ","pref":"鳥取県","city":"八頭郡智頭町","address":"智頭"},
{"zip_code":"6891462","kana_pref":"ﾄｯﾄﾘｹﾝ","kana_city":"ﾔｽﾞｸﾞﾝﾁﾂﾞﾁｮｳ","kana_address":"ﾅｶﾀﾞ","pref":"鳥取県","city":"八頭郡智頭町","address":"中田"},
{"zip_code":"6891423","kana_pref":"ﾄｯﾄﾘｹﾝ","kana_city":"ﾔｽﾞｸﾞﾝﾁﾂﾞﾁｮｳ","kana_address":"ﾅｶﾊﾞﾗ","pref":"鳥取県","city":"八頭郡智頭町","address":"中原"},
{"zip_code":"6891463","kana_pref":"ﾄｯﾄﾘｹﾝ","kana_city":"ﾔｽﾞｸﾞﾝﾁﾂﾞﾁｮｳ","kana_address":"ﾆｲﾐ","pref":"鳥取県","city":"八頭郡智頭町","address":"新見"},
{"zip_code":"6891455","kana_pref":"ﾄｯﾄﾘｹﾝ","kana_city":"ﾔｽﾞｸﾞﾝﾁﾂﾞﾁｮｳ","kana_address":"ﾆｼｳﾂﾞｶ","pref":"鳥取県","city":"八頭郡智頭町","address":"西宇塚"},
{"zip_code":"6891426","kana_pref":"ﾄｯﾄﾘｹﾝ","kana_city":"ﾔｽﾞｸﾞﾝﾁﾂﾞﾁｮｳ","kana_address":"ﾆｼﾀﾞﾆ","pref":"鳥取県","city":"八頭郡智頭町","address":"西谷"},
{"zip_code":"6891414","kana_pref":"ﾄｯﾄﾘｹﾝ","kana_city":"ﾔｽﾞｸﾞﾝﾁﾂﾞﾁｮｳ","kana_address":"ﾆｼﾉ","pref":"鳥取県","city":"八頭郡智頭町","address":"西野"},
{"zip_code":"6891444","kana_pref":"ﾄｯﾄﾘｹﾝ","kana_city":"ﾔｽﾞｸﾞﾝﾁﾂﾞﾁｮｳ","kana_address":"ﾉﾊﾞﾗ","pref":"鳥取県","city":"八頭郡智頭町","address":"野原"},
{"zip_code":"6891466","kana_pref":"ﾄｯﾄﾘｹﾝ","kana_city":"ﾔｽﾞｸﾞﾝﾁﾂﾞﾁｮｳ","kana_address":"ﾊﾀ","pref":"鳥取県","city":"八頭郡智頭町","address":"波多"},
{"zip_code":"6891433","kana_pref":"ﾄｯﾄﾘｹﾝ","kana_city":"ﾔｽﾞｸﾞﾝﾁﾂﾞﾁｮｳ","kana_address":"ﾊﾆｼ","pref":"鳥取県","city":"八頭郡智頭町","address":"埴師"},
{"zip_code":"6891445","kana_pref":"ﾄｯﾄﾘｹﾝ","kana_city":"ﾔｽﾞｸﾞﾝﾁﾂﾞﾁｮｳ","kana_address":"ﾊﾔｾ","pref":"鳥取県","city":"八頭郡智頭町","address":"早瀬"},
{"zip_code":"6891453","kana_pref":"ﾄｯﾄﾘｹﾝ","kana_city":"ﾔｽﾞｸﾞﾝﾁﾂﾞﾁｮｳ","kana_address":"ﾋｶﾞｼｳﾂﾞｶ","pref":"鳥取県","city":"八頭郡智頭町","address":"東宇塚"},
{"zip_code":"6891425","kana_pref":"ﾄｯﾄﾘｹﾝ","kana_city":"ﾔｽﾞｸﾞﾝﾁﾂﾞﾁｮｳ","kana_address":"ﾌｸﾜﾗ","pref":"鳥取県","city":"八頭郡智頭町","address":"福原"},
{"zip_code":"6891432","kana_pref":"ﾄｯﾄﾘｹﾝ","kana_city":"ﾔｽﾞｸﾞﾝﾁﾂﾞﾁｮｳ","kana_address":"ﾎﾉﾐ","pref":"鳥取県","city":"八頭郡智頭町","address":"穂見"},
{"zip_code":"6891443","kana_pref":"ﾄｯﾄﾘｹﾝ","kana_city":"ﾔｽﾞｸﾞﾝﾁﾂﾞﾁｮｳ","kana_address":"ﾏｶﾞﾉ","pref":"鳥取県","city":"八頭郡智頭町","address":"真鹿野"},
{"zip_code":"6891437","kana_pref":"ﾄｯﾄﾘｹﾝ","kana_city":"ﾔｽﾞｸﾞﾝﾁﾂﾞﾁｮｳ","kana_address":"ﾐﾀ","pref":"鳥取県","city":"八頭郡智頭町","address":"三田"},
{"zip_code":"6891403","kana_pref":"ﾄｯﾄﾘｹﾝ","kana_city":"ﾔｽﾞｸﾞﾝﾁﾂﾞﾁｮｳ","kana_address":"ﾐﾅﾐｶﾞﾀ","pref":"鳥取県","city":"八頭郡智頭町","address":"南方"},
{"zip_code":"6891434","kana_pref":"ﾄｯﾄﾘｹﾝ","kana_city":"ﾔｽﾞｸﾞﾝﾁﾂﾞﾁｮｳ","kana_address":"ﾐﾖｼ","pref":"鳥取県","city":"八頭郡智頭町","address":"三吉"},
{"zip_code":"6891411","kana_pref":"ﾄｯﾄﾘｹﾝ","kana_city":"ﾔｽﾞｸﾞﾝﾁﾂﾞﾁｮｳ","kana_address":"ﾔｺｳﾀﾞﾆ","pref":"鳥取県","city":"八頭郡智頭町","address":"八河谷"},
{"zip_code":"6891431","kana_pref":"ﾄｯﾄﾘｹﾝ","kana_city":"ﾔｽﾞｸﾞﾝﾁﾂﾞﾁｮｳ","kana_address":"ﾔﾏﾈ","pref":"鳥取県","city":"八頭郡智頭町","address":"山根"},
{"zip_code":"6891435","kana_pref":"ﾄｯﾄﾘｹﾝ","kana_city":"ﾔｽﾞｸﾞﾝﾁﾂﾞﾁｮｳ","kana_address":"ﾖｺﾀ","pref":"鳥取県","city":"八頭郡智頭町","address":"横田"},
{"zip_code":"6890721","kana_pref":"ﾄｯﾄﾘｹﾝ","kana_city":"ﾄｳﾊｸｸﾞﾝﾕﾘﾊﾏﾁｮｳ","kana_address":"ｱｻﾊﾞﾀｹ","pref":"鳥取県","city":"東伯郡湯梨浜町","address":"麻畑"},
{"zip_code":"6890713","kana_pref":"ﾄｯﾄﾘｹﾝ","kana_city":"ﾄｳﾊｸｸﾞﾝﾕﾘﾊﾏﾁｮｳ","kana_address":"ｱｻﾋ","pref":"鳥取県","city":"東伯郡湯梨浜町","address":"旭"},
{"zip_code":"6890602","kana_pref":"ﾄｯﾄﾘｹﾝ","kana_city":"ﾄｳﾊｸｸﾞﾝﾕﾘﾊﾏﾁｮｳ","kana_address":"ｲｼﾜｷ","pref":"鳥取県","city":"東伯郡湯梨浜町","address":"石脇"},
{"zip_code":"6890733","kana_pref":"ﾄｯﾄﾘｹﾝ","kana_city":"ﾄｳﾊｸｸﾞﾝﾕﾘﾊﾏﾁｮｳ","kana_address":"ｳｴｼ","pref":"鳥取県","city":"東伯郡湯梨浜町","address":"羽衣石"},
{"zip_code":"6890607","kana_pref":"ﾄｯﾄﾘｹﾝ","kana_city":"ﾄｳﾊｸｸﾞﾝﾕﾘﾊﾏﾁｮｳ","kana_address":"ｳﾀﾆ","pref":"鳥取県","city":"東伯郡湯梨浜町","address":"宇谷"},
{"zip_code":"6890702","kana_pref":"ﾄｯﾄﾘｹﾝ","kana_city":"ﾄｳﾊｸｸﾞﾝﾕﾘﾊﾏﾁｮｳ","kana_address":"ｳﾙｼﾊﾞﾗ","pref":"鳥取県","city":"東伯郡湯梨浜町","address":"漆原"},
{"zip_code":"6890729","kana_pref":"ﾄｯﾄﾘｹﾝ","kana_city":"ﾄｳﾊｸｸﾞﾝﾕﾘﾊﾏﾁｮｳ","kana_address":"ｵｼｶﾀﾞﾆ","pref":"鳥取県","city":"東伯郡湯梨浜町","address":"小鹿谷"},
{"zip_code":"6890724","kana_pref":"ﾄｯﾄﾘｹﾝ","kana_city":"ﾄｳﾊｸｸﾞﾝﾕﾘﾊﾏﾁｮｳ","kana_address":"ｶﾀﾓ","pref":"鳥取県","city":"東伯郡湯梨浜町","address":"方面"},
{"zip_code":"6890736","kana_pref":"ﾄｯﾄﾘｹﾝ","kana_city":"ﾄｳﾊｸｸﾞﾝﾕﾘﾊﾏﾁｮｳ","kana_address":"ｶﾄﾞﾀ","pref":"鳥取県","city":"東伯郡湯梨浜町","address":"門田"},
{"zip_code":"6890722","kana_pref":"ﾄｯﾄﾘｹﾝ","kana_city":"ﾄｳﾊｸｸﾞﾝﾕﾘﾊﾏﾁｮｳ","kana_address":"ｶﾜｶﾐ","pref":"鳥取県","city":"東伯郡湯梨浜町","address":"川上"},
{"zip_code":"6890701","kana_pref":"ﾄｯﾄﾘｹﾝ","kana_city":"ﾄｳﾊｸｸﾞﾝﾕﾘﾊﾏﾁｮｳ","kana_address":"ｷﾀﾌｸ","pref":"鳥取県","city":"東伯郡湯梨浜町","address":"北福"},
{"zip_code":"6890726","kana_pref":"ﾄｯﾄﾘｹﾝ","kana_city":"ﾄｳﾊｸｸﾞﾝﾕﾘﾊﾏﾁｮｳ","kana_address":"ｸﾆﾉﾌﾞ","pref":"鳥取県","city":"東伯郡湯梨浜町","address":"国信"},
{"zip_code":"6890603","kana_pref":"ﾄｯﾄﾘｹﾝ","kana_city":"ﾄｳﾊｸｸﾞﾝﾕﾘﾊﾏﾁｮｳ","kana_address":"ｺﾊﾞﾏ","pref":"鳥取県","city":"東伯郡湯梨浜町","address":"小浜"},
{"zip_code":"6890735","kana_pref":"ﾄｯﾄﾘｹﾝ","kana_city":"ﾄｳﾊｸｸﾞﾝﾕﾘﾊﾏﾁｮｳ","kana_address":"ｻﾋﾞ","pref":"鳥取県","city":"東伯郡湯梨浜町","address":"佐美"},
{"zip_code":"6890704","kana_pref":"ﾄｯﾄﾘｹﾝ","kana_city":"ﾄｳﾊｸｸﾞﾝﾕﾘﾊﾏﾁｮｳ","kana_address":"ｼﾗｲｼ","pref":"鳥取県","city":"東伯郡湯梨浜町","address":"白石"},
{"zip_code":"6890605","kana_pref":"ﾄｯﾄﾘｹﾝ","kana_city":"ﾄｳﾊｸｸﾞﾝﾕﾘﾊﾏﾁｮｳ","kana_address":"ｿﾉ","pref":"鳥取県","city":"東伯郡湯梨浜町","address":"園"},
{"zip_code":"6890723","kana_pref":"ﾄｯﾄﾘｹﾝ","kana_city":"ﾄｳﾊｸｸﾞﾝﾕﾘﾊﾏﾁｮｳ","kana_address":"ﾀｶﾂｼﾞ","pref":"鳥取県","city":"東伯郡湯梨浜町","address":"高辻"},
{"zip_code":"6890727","kana_pref":"ﾄｯﾄﾘｹﾝ","kana_city":"ﾄｳﾊｸｸﾞﾝﾕﾘﾊﾏﾁｮｳ","kana_address":"ﾀﾊﾞﾀｹ","pref":"鳥取県","city":"東伯郡湯梨浜町","address":"田畑"},
{"zip_code":"6890712","kana_pref":"ﾄｯﾄﾘｹﾝ","kana_city":"ﾄｳﾊｸｸﾞﾝﾕﾘﾊﾏﾁｮｳ","kana_address":"ﾁｭｳｺｳｼﾞ","pref":"鳥取県","city":"東伯郡湯梨浜町","address":"中興寺"},
{"zip_code":"6890604","kana_pref":"ﾄｯﾄﾘｹﾝ","kana_city":"ﾄｳﾊｸｸﾞﾝﾕﾘﾊﾏﾁｮｳ","kana_address":"ﾂﾂｼﾞ","pref":"鳥取県","city":"東伯郡湯梨浜町","address":"筒地"},
{"zip_code":"6890601","kana_pref":"ﾄｯﾄﾘｹﾝ","kana_city":"ﾄｳﾊｸｸﾞﾝﾕﾘﾊﾏﾁｮｳ","kana_address":"ﾄﾏﾘ","pref":"鳥取県","city":"東伯郡湯梨浜町","address":"泊"},
{"zip_code":"6890737","kana_pref":"ﾄｯﾄﾘｹﾝ","kana_city":"ﾄｳﾊｸｸﾞﾝﾕﾘﾊﾏﾁｮｳ","kana_address":"ﾅｶﾞｴ","pref":"鳥取県","city":"東伯郡湯梨浜町","address":"長江"},
{"zip_code":"6890732","kana_pref":"ﾄｯﾄﾘｹﾝ","kana_city":"ﾄｳﾊｸｸﾞﾝﾕﾘﾊﾏﾁｮｳ","kana_address":"ﾅｺﾞｳﾀ","pref":"鳥取県","city":"東伯郡湯梨浜町","address":"長和田"},
{"zip_code":"6890705","kana_pref":"ﾄｯﾄﾘｹﾝ","kana_city":"ﾄｳﾊｸｸﾞﾝﾕﾘﾊﾏﾁｮｳ","kana_address":"ﾉｶﾀ","pref":"鳥取県","city":"東伯郡湯梨浜町","address":"野方"},
{"zip_code":"6890731","kana_pref":"ﾄｯﾄﾘｹﾝ","kana_city":"ﾄｳﾊｸｸﾞﾝﾕﾘﾊﾏﾁｮｳ","kana_address":"ﾉｷｮｳ","pref":"鳥取県","city":"東伯郡湯梨浜町","address":"野花"},
{"zip_code":"6890734","kana_pref":"ﾄｯﾄﾘｹﾝ","kana_city":"ﾄｳﾊｸｸﾞﾝﾕﾘﾊﾏﾁｮｳ","kana_address":"ﾊﾅﾐ","pref":"鳥取県","city":"東伯郡湯梨浜町","address":"埴見"},
{"zip_code":"6890606","kana_pref":"ﾄｯﾄﾘｹﾝ","kana_city":"ﾄｳﾊｸｸﾞﾝﾕﾘﾊﾏﾁｮｳ","kana_address":"ﾊﾗ","pref":"鳥取県","city":"東伯郡湯梨浜町","address":"原"},
{"zip_code":"6890715","kana_pref":"ﾄｯﾄﾘｹﾝ","kana_city":"ﾄｳﾊｸｸﾞﾝﾕﾘﾊﾏﾁｮｳ","kana_address":"ﾋｷｼﾞ","pref":"鳥取県","city":"東伯郡湯梨浜町","address":"引地"},
{"zip_code":"6890728","kana_pref":"ﾄｯﾄﾘｹﾝ","kana_city":"ﾄｳﾊｸｸﾞﾝﾕﾘﾊﾏﾁｮｳ","kana_address":"ﾋｻﾐ","pref":"鳥取県","city":"東伯郡湯梨浜町","address":"久見"},
{"zip_code":"6890706","kana_pref":"ﾄｯﾄﾘｹﾝ","kana_city":"ﾄｳﾊｸｸﾞﾝﾕﾘﾊﾏﾁｮｳ","kana_address":"ﾌｼﾞﾂ","pref":"鳥取県","city":"東伯郡湯梨浜町","address":"藤津"},
{"zip_code":"6890725","kana_pref":"ﾄｯﾄﾘｹﾝ","kana_city":"ﾄｳﾊｸｸﾞﾝﾕﾘﾊﾏﾁｮｳ","kana_address":"ﾍﾞｯｼｮ","pref":"鳥取県","city":"東伯郡湯梨浜町","address":"別所"},
{"zip_code":"6890703","kana_pref":"ﾄｯﾄﾘｹﾝ","kana_city":"ﾄｳﾊｸｸﾞﾝﾕﾘﾊﾏﾁｮｳ","kana_address":"ﾎｳｼﾞ","pref":"鳥取県","city":"東伯郡湯梨浜町","address":"方地"},
{"zip_code":"6890711","kana_pref":"ﾄｯﾄﾘｹﾝ","kana_city":"ﾄｳﾊｸｸﾞﾝﾕﾘﾊﾏﾁｮｳ","kana_address":"ﾏﾂｻﾞｷ","pref":"鳥取県","city":"東伯郡湯梨浜町","address":"松崎"},
{"zip_code":"6890707","kana_pref":"ﾄｯﾄﾘｹﾝ","kana_city":"ﾄｳﾊｸｸﾞﾝﾕﾘﾊﾏﾁｮｳ","kana_address":"ﾐﾔｳﾁ","pref":"鳥取県","city":"東伯郡湯梨浜町","address":"宮内"},
{"zip_code":"6890714","kana_pref":"ﾄｯﾄﾘｹﾝ","kana_city":"ﾄｳﾊｸｸﾞﾝﾕﾘﾊﾏﾁｮｳ","kana_address":"ﾘｭｳﾄｳ","pref":"鳥取県","city":"東伯郡湯梨浜町","address":"龍島"},
{"zip_code":"6892300","kana_pref":"ﾄｯﾄﾘｹﾝ","kana_city":"ﾄｳﾊｸｸﾞﾝｺﾄｳﾗﾁｮｳ","kana_address":"","pref":"鳥取県","city":"東伯郡琴浦町","address":""},
{"zip_code":"6892501","kana_pref":"ﾄｯﾄﾘｹﾝ","kana_city":"ﾄｳﾊｸｸﾞﾝｺﾄｳﾗﾁｮｳ","kana_address":"ｱｶｻｷ","pref":"鳥取県","city":"東伯郡琴浦町","address":"赤碕"},
{"zip_code":"6892511","kana_pref":"ﾄｯﾄﾘｹﾝ","kana_city":"ﾄｳﾊｸｸﾞﾝｺﾄｳﾗﾁｮｳ","kana_address":"ｲﾃﾞｶﾐ","pref":"鳥取県","city":"東伯郡琴浦町","address":"出上"},
{"zip_code":"6892543","kana_pref":"ﾄｯﾄﾘｹﾝ","kana_city":"ﾄｳﾊｸｸﾞﾝｺﾄｳﾗﾁｮｳ","kana_address":"ｳﾒﾀﾞ","pref":"鳥取県","city":"東伯郡琴浦町","address":"梅田"},
{"zip_code":"6892352","kana_pref":"ﾄｯﾄﾘｹﾝ","kana_city":"ﾄｳﾊｸｸﾞﾝｺﾄｳﾗﾁｮｳ","kana_address":"ｳﾗﾔｽ","pref":"鳥取県","city":"東伯郡琴浦町","address":"浦安"},
{"zip_code":"6892344","kana_pref":"ﾄｯﾄﾘｹﾝ","kana_city":"ﾄｳﾊｸｸﾞﾝｺﾄｳﾗﾁｮｳ","kana_address":"ｵｵｽｷﾞ","pref":"鳥取県","city":"東伯郡琴浦町","address":"大杉"},
{"zip_code":"6892304","kana_pref":"ﾄｯﾄﾘｹﾝ","kana_city":"ﾄｳﾊｸｸﾞﾝｺﾄｳﾗﾁｮｳ","kana_address":"ｵｵﾂｶ","pref":"鳥取県","city":"東伯郡琴浦町","address":"逢束"},
{"zip_code":"6892524","kana_pref":"ﾄｯﾄﾘｹﾝ","kana_city":"ﾄｳﾊｸｸﾞﾝｺﾄｳﾗﾁｮｳ","kana_address":"ｵｵﾌﾞ","pref":"鳥取県","city":"東伯郡琴浦町","address":"大父"},
{"zip_code":"6892535","kana_pref":"ﾄｯﾄﾘｹﾝ","kana_city":"ﾄｳﾊｸｸﾞﾝｺﾄｳﾗﾁｮｳ","kana_address":"ｵﾜﾘ","pref":"鳥取県","city":"東伯郡琴浦町","address":"尾張"},
{"zip_code":"6892306","kana_pref":"ﾄｯﾄﾘｹﾝ","kana_city":"ﾄｳﾊｸｸﾞﾝｺﾄｳﾗﾁｮｳ","kana_address":"ｶｻﾐ","pref":"鳥取県","city":"東伯郡琴浦町","address":"笠見"},
{"zip_code":"6892512","kana_pref":"ﾄｯﾄﾘｹﾝ","kana_city":"ﾄｳﾊｸｸﾞﾝｺﾄｳﾗﾁｮｳ","kana_address":"ｶﾂﾀ","pref":"鳥取県","city":"東伯郡琴浦町","address":"勝田"},
{"zip_code":"6892312","kana_pref":"ﾄｯﾄﾘｹﾝ","kana_city":"ﾄｳﾊｸｸﾞﾝｺﾄｳﾗﾁｮｳ","kana_address":"ｶﾅﾔ","pref":"鳥取県","city":"東伯郡琴浦町","address":"金屋"},
{"zip_code":"6892315","kana_pref":"ﾄｯﾄﾘｹﾝ","kana_city":"ﾄｳﾊｸｸﾞﾝｺﾄｳﾗﾁｮｳ","kana_address":"ｶﾐｲｾ","pref":"鳥取県","city":"東伯郡琴浦町","address":"上伊勢"},
{"zip_code":"6892342","kana_pref":"ﾄｯﾄﾘｹﾝ","kana_city":"ﾄｳﾊｸｸﾞﾝｺﾄｳﾗﾁｮｳ","kana_address":"ｸﾓﾝ","pref":"鳥取県","city":"東伯郡琴浦町","address":"公文"},
{"zip_code":"6892341","kana_pref":"ﾄｯﾄﾘｹﾝ","kana_city":"ﾄｳﾊｸｸﾞﾝｺﾄｳﾗﾁｮｳ","kana_address":"ｸﾗｻｶ","pref":"鳥取県","city":"東伯郡琴浦町","address":"倉坂"},
{"zip_code":"6892355","kana_pref":"ﾄｯﾄﾘｹﾝ","kana_city":"ﾄｳﾊｸｸﾞﾝｺﾄｳﾗﾁｮｳ","kana_address":"ｺｶﾞﾈ","pref":"鳥取県","city":"東伯郡琴浦町","address":"釛"},
{"zip_code":"6892531","kana_pref":"ﾄｯﾄﾘｹﾝ","kana_city":"ﾄｳﾊｸｸﾞﾝｺﾄｳﾗﾁｮｳ","kana_address":"ｻｻﾞｷ","pref":"鳥取県","city":"東伯郡琴浦町","address":"佐崎"},
{"zip_code":"6892334","kana_pref":"ﾄｯﾄﾘｹﾝ","kana_city":"ﾄｳﾊｸｸﾞﾝｺﾄｳﾗﾁｮｳ","kana_address":"ｻﾝﾎﾞﾝｽｷﾞ","pref":"鳥取県","city":"東伯郡琴浦町","address":"三本杉"},
{"zip_code":"6892316","kana_pref":"ﾄｯﾄﾘｹﾝ","kana_city":"ﾄｳﾊｸｸﾞﾝｺﾄｳﾗﾁｮｳ","kana_address":"ｼﾓｲｾ","pref":"鳥取県","city":"東伯郡琴浦町","address":"下伊勢"},
{"zip_code":"6892314","kana_pref":"ﾄｯﾄﾘｹﾝ","kana_city":"ﾄｳﾊｸｸﾞﾝｺﾄｳﾗﾁｮｳ","kana_address":"ｼﾓｵｵｴ","pref":"鳥取県","city":"東伯郡琴浦町","address":"下大江"},
{"zip_code":"6892331","kana_pref":"ﾄｯﾄﾘｹﾝ","kana_city":"ﾄｳﾊｸｸﾞﾝｺﾄｳﾗﾁｮｳ","kana_address":"ｽｷﾞｼﾞ","pref":"鳥取県","city":"東伯郡琴浦町","address":"杉地"},
{"zip_code":"6892313","kana_pref":"ﾄｯﾄﾘｹﾝ","kana_city":"ﾄｳﾊｸｸﾞﾝｺﾄｳﾗﾁｮｳ","kana_address":"ｽｷﾞｼﾀ","pref":"鳥取県","city":"東伯郡琴浦町","address":"杉下"},
{"zip_code":"6892532","kana_pref":"ﾄｯﾄﾘｹﾝ","kana_city":"ﾄｳﾊｸｸﾞﾝｺﾄｳﾗﾁｮｳ","kana_address":"ﾀｲﾁｶﾞｷ","pref":"鳥取県","city":"東伯郡琴浦町","address":"太一垣"},
{"zip_code":"6892523","kana_pref":"ﾄｯﾄﾘｹﾝ","kana_city":"ﾄｳﾊｸｸﾞﾝｺﾄｳﾗﾁｮｳ","kana_address":"ﾀｶｵｶ","pref":"鳥取県","city":"東伯郡琴浦町","address":"高岡"},
{"zip_code":"6892521","kana_pref":"ﾄｯﾄﾘｹﾝ","kana_city":"ﾄｳﾊｸｸﾞﾝｺﾄｳﾗﾁｮｳ","kana_address":"ﾀｹｳﾁ","pref":"鳥取県","city":"東伯郡琴浦町","address":"竹内"},
{"zip_code":"6892356","kana_pref":"ﾄｯﾄﾘｹﾝ","kana_city":"ﾄｳﾊｸｸﾞﾝｺﾄｳﾗﾁｮｳ","kana_address":"ﾀｺｴ","pref":"鳥取県","city":"東伯郡琴浦町","address":"田越"},
{"zip_code":"6892305","kana_pref":"ﾄｯﾄﾘｹﾝ","kana_city":"ﾄｳﾊｸｸﾞﾝｺﾄｳﾗﾁｮｳ","kana_address":"ﾂｷﾉｼﾀ","pref":"鳥取県","city":"東伯郡琴浦町","address":"槻下"},
{"zip_code":"6892303","kana_pref":"ﾄｯﾄﾘｹﾝ","kana_city":"ﾄｳﾊｸｸﾞﾝｺﾄｳﾗﾁｮｳ","kana_address":"ﾄｸﾏﾝ","pref":"鳥取県","city":"東伯郡琴浦町","address":"徳万"},
{"zip_code":"6892311","kana_pref":"ﾄｯﾄﾘｹﾝ","kana_city":"ﾄｳﾊｸｸﾞﾝｺﾄｳﾗﾁｮｳ","kana_address":"ﾅｶｵ","pref":"鳥取県","city":"東伯郡琴浦町","address":"中尾"},
{"zip_code":"6892335","kana_pref":"ﾄｯﾄﾘｹﾝ","kana_city":"ﾄｳﾊｸｸﾞﾝｺﾄｳﾗﾁｮｳ","kana_address":"ﾅｶﾂﾊﾗ","pref":"鳥取県","city":"東伯郡琴浦町","address":"中津原"},
{"zip_code":"6892533","kana_pref":"ﾄｯﾄﾘｹﾝ","kana_city":"ﾄｳﾊｸｸﾞﾝｺﾄｳﾗﾁｮｳ","kana_address":"ﾅｶﾑﾗ","pref":"鳥取県","city":"東伯郡琴浦町","address":"中村"},
{"zip_code":"6892513","kana_pref":"ﾄｯﾄﾘｹﾝ","kana_city":"ﾄｳﾊｸｸﾞﾝｺﾄｳﾗﾁｮｳ","kana_address":"ﾆｼﾐﾔ","pref":"鳥取県","city":"東伯郡琴浦町","address":"西宮"},
{"zip_code":"6892336","kana_pref":"ﾄｯﾄﾘｹﾝ","kana_city":"ﾄｳﾊｸｸﾞﾝｺﾄｳﾗﾁｮｳ","kana_address":"ﾉｲｸﾞﾗ","pref":"鳥取県","city":"東伯郡琴浦町","address":"野井倉"},
{"zip_code":"6892346","kana_pref":"ﾄｯﾄﾘｹﾝ","kana_city":"ﾄｳﾊｸｸﾞﾝｺﾄｳﾗﾁｮｳ","kana_address":"ﾉﾀ","pref":"鳥取県","city":"東伯郡琴浦町","address":"野田"},
{"zip_code":"6892544","kana_pref":"ﾄｯﾄﾘｹﾝ","kana_city":"ﾄｳﾊｸｸﾞﾝｺﾄｳﾗﾁｮｳ","kana_address":"ﾉﾂ","pref":"鳥取県","city":"東伯郡琴浦町","address":"箆津"},
{"zip_code":"6892322","kana_pref":"ﾄｯﾄﾘｹﾝ","kana_city":"ﾄｳﾊｸｸﾞﾝｺﾄｳﾗﾁｮｳ","kana_address":"ﾊｯﾀﾝﾀﾞ","pref":"鳥取県","city":"東伯郡琴浦町","address":"八反田"},
{"zip_code":"6892345","kana_pref":"ﾄｯﾄﾘｹﾝ","kana_city":"ﾄｳﾊｸｸﾞﾝｺﾄｳﾗﾁｮｳ","kana_address":"ﾌｸﾅｶﾞ","pref":"鳥取県","city":"東伯郡琴浦町","address":"福永"},
{"zip_code":"6892332","kana_pref":"ﾄｯﾄﾘｹﾝ","kana_city":"ﾄｳﾊｸｸﾞﾝｺﾄｳﾗﾁｮｳ","kana_address":"ﾌﾙﾅｶﾞ","pref":"鳥取県","city":"東伯郡琴浦町","address":"古長"},
{"zip_code":"6892502","kana_pref":"ﾄｯﾄﾘｹﾝ","kana_city":"ﾄｳﾊｸｸﾞﾝｺﾄｳﾗﾁｮｳ","kana_address":"ﾍﾞｯｼｮ","pref":"鳥取県","city":"東伯郡琴浦町","address":"別所"},
{"zip_code":"6892333","kana_pref":"ﾄｯﾄﾘｹﾝ","kana_city":"ﾄｳﾊｸｸﾞﾝｺﾄｳﾗﾁｮｳ","kana_address":"ﾍﾞﾂﾐﾔ","pref":"鳥取県","city":"東伯郡琴浦町","address":"別宮"},
{"zip_code":"6892351","kana_pref":"ﾄｯﾄﾘｹﾝ","kana_city":"ﾄｳﾊｸｸﾞﾝｺﾄｳﾗﾁｮｳ","kana_address":"ﾎｳ","pref":"鳥取県","city":"東伯郡琴浦町","address":"保"},
{"zip_code":"6892325","kana_pref":"ﾄｯﾄﾘｹﾝ","kana_city":"ﾄｳﾊｸｸﾞﾝｺﾄｳﾗﾁｮｳ","kana_address":"ﾎｳﾏﾝ","pref":"鳥取県","city":"東伯郡琴浦町","address":"法万"},
{"zip_code":"6892503","kana_pref":"ﾄｯﾄﾘｹﾝ","kana_city":"ﾄｳﾊｸｸﾞﾝｺﾄｳﾗﾁｮｳ","kana_address":"ﾏﾂﾀﾞﾆ","pref":"鳥取県","city":"東伯郡琴浦町","address":"松谷"},
{"zip_code":"6892302","kana_pref":"ﾄｯﾄﾘｹﾝ","kana_city":"ﾄｳﾊｸｸﾞﾝｺﾄｳﾗﾁｮｳ","kana_address":"ﾏﾙｵ","pref":"鳥取県","city":"東伯郡琴浦町","address":"丸尾"},
{"zip_code":"6892534","kana_pref":"ﾄｯﾄﾘｹﾝ","kana_city":"ﾄｳﾊｸｸﾞﾝｺﾄｳﾗﾁｮｳ","kana_address":"ﾐﾂ","pref":"鳥取県","city":"東伯郡琴浦町","address":"光"},
{"zip_code":"6892326","kana_pref":"ﾄｯﾄﾘｹﾝ","kana_city":"ﾄｳﾊｸｸﾞﾝｺﾄｳﾗﾁｮｳ","kana_address":"ﾐﾂﾖｼ","pref":"鳥取県","city":"東伯郡琴浦町","address":"光好"},
{"zip_code":"6892353","kana_pref":"ﾄｯﾄﾘｹﾝ","kana_city":"ﾄｳﾊｸｸﾞﾝｺﾄｳﾗﾁｮｳ","kana_address":"ﾐﾎ","pref":"鳥取県","city":"東伯郡琴浦町","address":"三保"},
{"zip_code":"6892522","kana_pref":"ﾄｯﾄﾘｹﾝ","kana_city":"ﾄｳﾊｸｸﾞﾝｺﾄｳﾗﾁｮｳ","kana_address":"ﾐﾔｷ","pref":"鳥取県","city":"東伯郡琴浦町","address":"宮木"},
{"zip_code":"6892323","kana_pref":"ﾄｯﾄﾘｹﾝ","kana_city":"ﾄｳﾊｸｸﾞﾝｺﾄｳﾗﾁｮｳ","kana_address":"ﾐﾔﾊﾞ","pref":"鳥取県","city":"東伯郡琴浦町","address":"宮場"},
{"zip_code":"6892354","kana_pref":"ﾄｯﾄﾘｹﾝ","kana_city":"ﾄｳﾊｸｸﾞﾝｺﾄｳﾗﾁｮｳ","kana_address":"ﾐﾖｼ","pref":"鳥取県","city":"東伯郡琴浦町","address":"美好"},
{"zip_code":"6892321","kana_pref":"ﾄｯﾄﾘｹﾝ","kana_city":"ﾄｳﾊｸｸﾞﾝｺﾄｳﾗﾁｮｳ","kana_address":"ﾓﾘﾄｳ","pref":"鳥取県","city":"東伯郡琴浦町","address":"森藤"},
{"zip_code":"6892324","kana_pref":"ﾄｯﾄﾘｹﾝ","kana_city":"ﾄｳﾊｸｸﾞﾝｺﾄｳﾗﾁｮｳ","kana_address":"ﾔｼﾞﾀ","pref":"鳥取県","city":"東伯郡琴浦町","address":"矢下"},
{"zip_code":"6892301","kana_pref":"ﾄｯﾄﾘｹﾝ","kana_city":"ﾄｳﾊｸｸﾞﾝｺﾄｳﾗﾁｮｳ","kana_address":"ﾔﾊﾞｾ","pref":"鳥取県","city":"東伯郡琴浦町","address":"八橋"},
{"zip_code":"6892525","kana_pref":"ﾄｯﾄﾘｹﾝ","kana_city":"ﾄｳﾊｸｸﾞﾝｺﾄｳﾗﾁｮｳ","kana_address":"ﾔﾏｶﾞﾜ","pref":"鳥取県","city":"東伯郡琴浦町","address":"山川"},
{"zip_code":"6892343","kana_pref":"ﾄｯﾄﾘｹﾝ","kana_city":"ﾄｳﾊｸｸﾞﾝｺﾄｳﾗﾁｮｳ","kana_address":"ﾔﾏﾀ","pref":"鳥取県","city":"東伯郡琴浦町","address":"山田"},
{"zip_code":"6892541","kana_pref":"ﾄｯﾄﾘｹﾝ","kana_city":"ﾄｳﾊｸｸﾞﾝｺﾄｳﾗﾁｮｳ","kana_address":"ﾔﾜﾀ","pref":"鳥取県","city":"東伯郡琴浦町","address":"八幡"},
{"zip_code":"6892542","kana_pref":"ﾄｯﾄﾘｹﾝ","kana_city":"ﾄｳﾊｸｸﾞﾝｺﾄｳﾗﾁｮｳ","kana_address":"ﾕｻﾞｶ","pref":"鳥取県","city":"東伯郡琴浦町","address":"湯坂"},
{"zip_code":"6892200","kana_pref":"ﾄｯﾄﾘｹﾝ","kana_city":"ﾄｳﾊｸｸﾞﾝﾎｸｴｲﾁｮｳ","kana_address":"","pref":"鳥取県","city":"東伯郡北栄町","address":""},
{"zip_code":"6892216","kana_pref":"ﾄｯﾄﾘｹﾝ","kana_city":"ﾄｳﾊｸｸﾞﾝﾎｸｴｲﾁｮｳ","kana_address":"ｲﾜﾂﾎﾞ","pref":"鳥取県","city":"東伯郡北栄町","address":"岩坪"},
{"zip_code":"6892101","kana_pref":"ﾄｯﾄﾘｹﾝ","kana_city":"ﾄｳﾊｸｸﾞﾝﾎｸｴｲﾁｮｳ","kana_address":"ｴｷﾀ","pref":"鳥取県","city":"東伯郡北栄町","address":"江北"},
{"zip_code":"6892206","kana_pref":"ﾄｯﾄﾘｹﾝ","kana_city":"ﾄｳﾊｸｸﾞﾝﾎｸｴｲﾁｮｳ","kana_address":"ｵｵｼﾏ","pref":"鳥取県","city":"東伯郡北栄町","address":"大島"},
{"zip_code":"6892223","kana_pref":"ﾄｯﾄﾘｹﾝ","kana_city":"ﾄｳﾊｸｸﾞﾝﾎｸｴｲﾁｮｳ","kana_address":"ｵｵﾀﾞﾆ","pref":"鳥取県","city":"東伯郡北栄町","address":"大谷"},
{"zip_code":"6892213","kana_pref":"ﾄｯﾄﾘｹﾝ","kana_city":"ﾄｳﾊｸｸﾞﾝﾎｸｴｲﾁｮｳ","kana_address":"ｶﾐﾀﾞﾈ","pref":"鳥取県","city":"東伯郡北栄町","address":"上種"},
{"zip_code":"6892211","kana_pref":"ﾄｯﾄﾘｹﾝ","kana_city":"ﾄｳﾊｸｸﾞﾝﾎｸｴｲﾁｮｳ","kana_address":"ｶﾒﾀﾞﾆ","pref":"鳥取県","city":"東伯郡北栄町","address":"亀谷"},
{"zip_code":"6892114","kana_pref":"ﾄｯﾄﾘｹﾝ","kana_city":"ﾄｳﾊｸｸﾞﾝﾎｸｴｲﾁｮｳ","kana_address":"ｷﾀｵ","pref":"鳥取県","city":"東伯郡北栄町","address":"北尾"},
{"zip_code":"6892102","kana_pref":"ﾄｯﾄﾘｹﾝ","kana_city":"ﾄｳﾊｸｸﾞﾝﾎｸｴｲﾁｮｳ","kana_address":"ｸﾆｻｶ","pref":"鳥取県","city":"東伯郡北栄町","address":"国坂"},
{"zip_code":"6892212","kana_pref":"ﾄｯﾄﾘｹﾝ","kana_city":"ﾄｳﾊｸｸﾞﾝﾎｸｴｲﾁｮｳ","kana_address":"ｼﾓﾀﾞﾈ","pref":"鳥取県","city":"東伯郡北栄町","address":"下種"},
{"zip_code":"6892105","kana_pref":"ﾄｯﾄﾘｹﾝ","kana_city":"ﾄｳﾊｸｸﾞﾝﾎｸｴｲﾁｮｳ","kana_address":"ｼﾓﾂﾜ","pref":"鳥取県","city":"東伯郡北栄町","address":"下神"},
{"zip_code":"6892205","kana_pref":"ﾄｯﾄﾘｹﾝ","kana_city":"ﾄｳﾊｸｸﾞﾝﾎｸｴｲﾁｮｳ","kana_address":"ｾﾄ","pref":"鳥取県","city":"東伯郡北栄町","address":"瀬戸"},
{"zip_code":"6892103","kana_pref":"ﾄｯﾄﾘｹﾝ","kana_city":"ﾄｳﾊｸｸﾞﾝﾎｸｴｲﾁｮｳ","kana_address":"ﾀｲ","pref":"鳥取県","city":"東伯郡北栄町","address":"田井"},
{"zip_code":"6892224","kana_pref":"ﾄｯﾄﾘｹﾝ","kana_city":"ﾄｳﾊｸｸﾞﾝﾎｸｴｲﾁｮｳ","kana_address":"ﾂﾏﾅﾐ","pref":"鳥取県","city":"東伯郡北栄町","address":"妻波"},
{"zip_code":"6892201","kana_pref":"ﾄｯﾄﾘｹﾝ","kana_city":"ﾄｳﾊｸｸﾞﾝﾎｸｴｲﾁｮｳ","kana_address":"ﾆｼｿﾉ","pref":"鳥取県","city":"東伯郡北栄町","address":"西園"},
{"zip_code":"6892215","kana_pref":"ﾄｯﾄﾘｹﾝ","kana_city":"ﾄｳﾊｸｸﾞﾝﾎｸｴｲﾁｮｳ","kana_address":"ﾆｼﾀｶｵ","pref":"鳥取県","city":"東伯郡北栄町","address":"西高尾"},
{"zip_code":"6892207","kana_pref":"ﾄｯﾄﾘｹﾝ","kana_city":"ﾄｳﾊｸｸﾞﾝﾎｸｴｲﾁｮｳ","kana_address":"ﾆｼﾎﾅﾐ","pref":"鳥取県","city":"東伯郡北栄町","address":"西穂波"},
{"zip_code":"6892111","kana_pref":"ﾄｯﾄﾘｹﾝ","kana_city":"ﾄｳﾊｸｸﾞﾝﾎｸｴｲﾁｮｳ","kana_address":"ﾊｼﾀ","pref":"鳥取県","city":"東伯郡北栄町","address":"土下"},
{"zip_code":"6892203","kana_pref":"ﾄｯﾄﾘｹﾝ","kana_city":"ﾄｳﾊｸｸﾞﾝﾎｸｴｲﾁｮｳ","kana_address":"ﾊﾗ","pref":"鳥取県","city":"東伯郡北栄町","address":"原"},
{"zip_code":"6892202","kana_pref":"ﾄｯﾄﾘｹﾝ","kana_city":"ﾄｳﾊｸｸﾞﾝﾎｸｴｲﾁｮｳ","kana_address":"ﾋｶﾞｼｿﾉ","pref":"鳥取県","city":"東伯郡北栄町","address":"東園"},
{"zip_code":"6892214","kana_pref":"ﾄｯﾄﾘｹﾝ","kana_city":"ﾄｳﾊｸｸﾞﾝﾎｸｴｲﾁｮｳ","kana_address":"ﾋｶﾞｼﾀｶｵ","pref":"鳥取県","city":"東伯郡北栄町","address":"東高尾"},
{"zip_code":"6892112","kana_pref":"ﾄｯﾄﾘｹﾝ","kana_city":"ﾄｳﾊｸｸﾞﾝﾎｸｴｲﾁｮｳ","kana_address":"ﾎｳｼﾞｮｳｼﾏ","pref":"鳥取県","city":"東伯郡北栄町","address":"北条島"},
{"zip_code":"6892204","kana_pref":"ﾄｯﾄﾘｹﾝ","kana_city":"ﾄｳﾊｸｸﾞﾝﾎｸｴｲﾁｮｳ","kana_address":"ﾎﾅﾐ","pref":"鳥取県","city":"東伯郡北栄町","address":"穂波"},
{"zip_code":"6892115","kana_pref":"ﾄｯﾄﾘｹﾝ","kana_city":"ﾄｳﾊｸｸﾞﾝﾎｸｴｲﾁｮｳ","kana_address":"ﾏｶﾞﾘ","pref":"鳥取県","city":"東伯郡北栄町","address":"曲"},
{"zip_code":"6892106","kana_pref":"ﾄｯﾄﾘｹﾝ","kana_city":"ﾄｳﾊｸｸﾞﾝﾎｸｴｲﾁｮｳ","kana_address":"ﾏﾂｶﾞﾐ","pref":"鳥取県","city":"東伯郡北栄町","address":"松神"},
{"zip_code":"6892208","kana_pref":"ﾄｯﾄﾘｹﾝ","kana_city":"ﾄｳﾊｸｸﾞﾝﾎｸｴｲﾁｮｳ","kana_address":"ﾑﾂｵ","pref":"鳥取県","city":"東伯郡北栄町","address":"六尾"},
{"zip_code":"6892104","kana_pref":"ﾄｯﾄﾘｹﾝ","kana_city":"ﾄｳﾊｸｸﾞﾝﾎｸｴｲﾁｮｳ","kana_address":"ﾕﾐﾊﾗ","pref":"鳥取県","city":"東伯郡北栄町","address":"弓原"},
{"zip_code":"6892221","kana_pref":"ﾄｯﾄﾘｹﾝ","kana_city":"ﾄｳﾊｸｸﾞﾝﾎｸｴｲﾁｮｳ","kana_address":"ﾕﾗｼｭｸ","pref":"鳥取県","city":"東伯郡北栄町","address":"由良宿"},
{"zip_code":"6892113","kana_pref":"ﾄｯﾄﾘｹﾝ","kana_city":"ﾄｳﾊｸｸﾞﾝﾎｸｴｲﾁｮｳ","kana_address":"ﾖﾈｻﾄ","pref":"鳥取県","city":"東伯郡北栄町","address":"米里"},
{"zip_code":"6893500","kana_pref":"ﾄｯﾄﾘｹﾝ","kana_city":"ｻｲﾊｸｸﾞﾝﾋｴﾂﾞｿﾝ","kana_address":"","pref":"鳥取県","city":"西伯郡日吉津村","address":""},
{"zip_code":"6893551","kana_pref":"ﾄｯﾄﾘｹﾝ","kana_city":"ｻｲﾊｸｸﾞﾝﾋｴﾂﾞｿﾝ","kana_address":"ｲﾏﾖｼ","pref":"鳥取県","city":"西伯郡日吉津村","address":"今吉"},
{"zip_code":"6893552","kana_pref":"ﾄｯﾄﾘｹﾝ","kana_city":"ｻｲﾊｸｸﾞﾝﾋｴﾂﾞｿﾝ","kana_address":"ﾄﾐﾖｼ","pref":"鳥取県","city":"西伯郡日吉津村","address":"富吉"},
{"zip_code":"6893553","kana_pref":"ﾄｯﾄﾘｹﾝ","kana_city":"ｻｲﾊｸｸﾞﾝﾋｴﾂﾞｿﾝ","kana_address":"ﾋｴﾂﾞ","pref":"鳥取県","city":"西伯郡日吉津村","address":"日吉津"},
{"zip_code":"6893200","kana_pref":"ﾄｯﾄﾘｹﾝ","kana_city":"ｻｲﾊｸｸﾞﾝﾀﾞｲｾﾝﾁｮｳ","kana_address":"","pref":"鳥取県","city":"西伯郡大山町","address":""},
{"zip_code":"6893111","kana_pref":"ﾄｯﾄﾘｹﾝ","kana_city":"ｻｲﾊｸｸﾞﾝﾀﾞｲｾﾝﾁｮｳ","kana_address":"ｱｶｻﾞｶ","pref":"鳥取県","city":"西伯郡大山町","address":"赤坂"},
{"zip_code":"6893319","kana_pref":"ﾄｯﾄﾘｹﾝ","kana_city":"ｻｲﾊｸｸﾞﾝﾀﾞｲｾﾝﾁｮｳ","kana_address":"ｱｶﾏﾂ","pref":"鳥取県","city":"西伯郡大山町","address":"赤松"},
{"zip_code":"6893334","kana_pref":"ﾄｯﾄﾘｹﾝ","kana_city":"ｻｲﾊｸｸﾞﾝﾀﾞｲｾﾝﾁｮｳ","kana_address":"ｲﾅﾐﾂ","pref":"鳥取県","city":"西伯郡大山町","address":"稲光"},
{"zip_code":"6893314","kana_pref":"ﾄｯﾄﾘｹﾝ","kana_city":"ｻｲﾊｸｸﾞﾝﾀﾞｲｾﾝﾁｮｳ","kana_address":"ｲﾏｻﾞｲｹ","pref":"鳥取県","city":"西伯郡大山町","address":"今在家"},
{"zip_code":"6893102","kana_pref":"ﾄｯﾄﾘｹﾝ","kana_city":"ｻｲﾊｸｸﾞﾝﾀﾞｲｾﾝﾁｮｳ","kana_address":"ｲﾜｲｶﾞｷ","pref":"鳥取県","city":"西伯郡大山町","address":"石井垣"},
{"zip_code":"6893302","kana_pref":"ﾄｯﾄﾘｹﾝ","kana_city":"ｻｲﾊｸｸﾞﾝﾀﾞｲｾﾝﾁｮｳ","kana_address":"ｳｴﾉ","pref":"鳥取県","city":"西伯郡大山町","address":"上野"},
{"zip_code":"6893124","kana_pref":"ﾄｯﾄﾘｹﾝ","kana_city":"ｻｲﾊｸｸﾞﾝﾀﾞｲｾﾝﾁｮｳ","kana_address":"ｳﾜｲﾁ","pref":"鳥取県","city":"西伯郡大山町","address":"上市"},
{"zip_code":"6893226","kana_pref":"ﾄｯﾄﾘｹﾝ","kana_city":"ｻｲﾊｸｸﾞﾝﾀﾞｲｾﾝﾁｮｳ","kana_address":"ｵｵﾂｶ","pref":"鳥取県","city":"西伯郡大山町","address":"大塚"},
{"zip_code":"6893121","kana_pref":"ﾄｯﾄﾘｹﾝ","kana_city":"ｻｲﾊｸｸﾞﾝﾀﾞｲｾﾝﾁｮｳ","kana_address":"ｵｶ","pref":"鳥取県","city":"西伯郡大山町","address":"岡"},
{"zip_code":"6893225","kana_pref":"ﾄｯﾄﾘｹﾝ","kana_city":"ｻｲﾊｸｸﾞﾝﾀﾞｲｾﾝﾁｮｳ","kana_address":"ｵｼﾅﾗ","pref":"鳥取県","city":"西伯郡大山町","address":"押平"},
{"zip_code":"6893214","kana_pref":"ﾄｯﾄﾘｹﾝ","kana_city":"ｻｲﾊｸｸﾞﾝﾀﾞｲｾﾝﾁｮｳ","kana_address":"ｶﾓ","pref":"鳥取県","city":"西伯郡大山町","address":"加茂"},
{"zip_code":"6893305","kana_pref":"ﾄｯﾄﾘｹﾝ","kana_city":"ｻｲﾊｸｸﾞﾝﾀﾞｲｾﾝﾁｮｳ","kana_address":"ｶﾝﾊﾞﾗ","pref":"鳥取県","city":"西伯郡大山町","address":"神原"},
{"zip_code":"6893308","kana_pref":"ﾄｯﾄﾘｹﾝ","kana_city":"ｻｲﾊｸｸﾞﾝﾀﾞｲｾﾝﾁｮｳ","kana_address":"ｷﾖﾊﾗ","pref":"鳥取県","city":"西伯郡大山町","address":"清原"},
{"zip_code":"6893309","kana_pref":"ﾄｯﾄﾘｹﾝ","kana_city":"ｻｲﾊｸｸﾞﾝﾀﾞｲｾﾝﾁｮｳ","kana_address":"ｸﾆﾉﾌﾞ","pref":"鳥取県","city":"西伯郡大山町","address":"国信"},
{"zip_code":"6893202","kana_pref":"ﾄｯﾄﾘｹﾝ","kana_city":"ｻｲﾊｸｸﾞﾝﾀﾞｲｾﾝﾁｮｳ","kana_address":"ｸﾗﾀﾞﾆ","pref":"鳥取県","city":"西伯郡大山町","address":"倉谷"},
{"zip_code":"6893203","kana_pref":"ﾄｯﾄﾘｹﾝ","kana_city":"ｻｲﾊｸｸﾞﾝﾀﾞｲｾﾝﾁｮｳ","kana_address":"ｺﾀﾞｹ","pref":"鳥取県","city":"西伯郡大山町","address":"小竹"},
{"zip_code":"6893222","kana_pref":"ﾄｯﾄﾘｹﾝ","kana_city":"ｻｲﾊｸｸﾞﾝﾀﾞｲｾﾝﾁｮｳ","kana_address":"ｺﾐﾄﾞｳ","pref":"鳥取県","city":"西伯郡大山町","address":"古御堂"},
{"zip_code":"6893115","kana_pref":"ﾄｯﾄﾘｹﾝ","kana_city":"ｻｲﾊｸｸﾞﾝﾀﾞｲｾﾝﾁｮｳ","kana_address":"ｻｶｴﾀﾞ","pref":"鳥取県","city":"西伯郡大山町","address":"栄田"},
{"zip_code":"6893313","kana_pref":"ﾄｯﾄﾘｹﾝ","kana_city":"ｻｲﾊｸｸﾞﾝﾀﾞｲｾﾝﾁｮｳ","kana_address":"ｻﾏ","pref":"鳥取県","city":"西伯郡大山町","address":"佐摩"},
{"zip_code":"6893122","kana_pref":"ﾄｯﾄﾘｹﾝ","kana_city":"ｻｲﾊｸｸﾞﾝﾀﾞｲｾﾝﾁｮｳ","kana_address":"ｼｵﾂ","pref":"鳥取県","city":"西伯郡大山町","address":"塩津"},
{"zip_code":"6893125","kana_pref":"ﾄｯﾄﾘｹﾝ","kana_city":"ｻｲﾊｸｸﾞﾝﾀﾞｲｾﾝﾁｮｳ","kana_address":"ｼﾓｲﾁ","pref":"鳥取県","city":"西伯郡大山町","address":"下市"},
{"zip_code":"6893112","kana_pref":"ﾄｯﾄﾘｹﾝ","kana_city":"ｻｲﾊｸｸﾞﾝﾀﾞｲｾﾝﾁｮｳ","kana_address":"ｼﾓｷﾞ","pref":"鳥取県","city":"西伯郡大山町","address":"下甲"},
{"zip_code":"6893323","kana_pref":"ﾄｯﾄﾘｹﾝ","kana_city":"ｻｲﾊｸｸﾞﾝﾀﾞｲｾﾝﾁｮｳ","kana_address":"ｼｮｳﾀﾞ","pref":"鳥取県","city":"西伯郡大山町","address":"荘田"},
{"zip_code":"6893335","kana_pref":"ﾄｯﾄﾘｹﾝ","kana_city":"ｻｲﾊｸｸﾞﾝﾀﾞｲｾﾝﾁｮｳ","kana_address":"ｼﾞｮｳﾏﾝ","pref":"鳥取県","city":"西伯郡大山町","address":"上万"},
{"zip_code":"6893332","kana_pref":"ﾄｯﾄﾘｹﾝ","kana_city":"ｻｲﾊｸｸﾞﾝﾀﾞｲｾﾝﾁｮｳ","kana_address":"ｽｴﾅｶﾞ","pref":"鳥取県","city":"西伯郡大山町","address":"末長"},
{"zip_code":"6893331","kana_pref":"ﾄｯﾄﾘｹﾝ","kana_city":"ｻｲﾊｸｸﾞﾝﾀﾞｲｾﾝﾁｮｳ","kana_address":"ｽｴﾖｼ","pref":"鳥取県","city":"西伯郡大山町","address":"末吉"},
{"zip_code":"6893123","kana_pref":"ﾄｯﾄﾘｹﾝ","kana_city":"ｻｲﾊｸｸﾞﾝﾀﾞｲｾﾝﾁｮｳ","kana_address":"ｽﾐﾖｼ","pref":"鳥取県","city":"西伯郡大山町","address":"住吉"},
{"zip_code":"6893133","kana_pref":"ﾄｯﾄﾘｹﾝ","kana_city":"ｻｲﾊｸｸﾞﾝﾀﾞｲｾﾝﾁｮｳ","kana_address":"ﾀｲｷｭｳｼﾞ","pref":"鳥取県","city":"西伯郡大山町","address":"退休寺"},
{"zip_code":"6893318","kana_pref":"ﾄｯﾄﾘｹﾝ","kana_city":"ｻｲﾊｸｸﾞﾝﾀﾞｲｾﾝﾁｮｳ","kana_address":"ﾀﾞｲｾﾝ","pref":"鳥取県","city":"西伯郡大山町","address":"大山"},
{"zip_code":"6893224","kana_pref":"ﾄｯﾄﾘｹﾝ","kana_city":"ｻｲﾊｸｸﾞﾝﾀﾞｲｾﾝﾁｮｳ","kana_address":"ﾀｶﾀ","pref":"鳥取県","city":"西伯郡大山町","address":"高田"},
{"zip_code":"6893134","kana_pref":"ﾄｯﾄﾘｹﾝ","kana_city":"ｻｲﾊｸｸﾞﾝﾀﾞｲｾﾝﾁｮｳ","kana_address":"ﾀｶﾊｼ","pref":"鳥取県","city":"西伯郡大山町","address":"高橋"},
{"zip_code":"6893317","kana_pref":"ﾄｯﾄﾘｹﾝ","kana_city":"ｻｲﾊｸｸﾞﾝﾀﾞｲｾﾝﾁｮｳ","kana_address":"ﾀﾀﾗﾄﾞ","pref":"鳥取県","city":"西伯郡大山町","address":"鈑戸"},
{"zip_code":"6893114","kana_pref":"ﾄｯﾄﾘｹﾝ","kana_city":"ｻｲﾊｸｸﾞﾝﾀﾞｲｾﾝﾁｮｳ","kana_address":"ﾀﾅｶ","pref":"鳥取県","city":"西伯郡大山町","address":"田中"},
{"zip_code":"6893223","kana_pref":"ﾄｯﾄﾘｹﾝ","kana_city":"ｻｲﾊｸｸﾞﾝﾀﾞｲｾﾝﾁｮｳ","kana_address":"ﾁｬﾊﾞﾀ","pref":"鳥取県","city":"西伯郡大山町","address":"茶畑"},
{"zip_code":"6893101","kana_pref":"ﾄｯﾄﾘｹﾝ","kana_city":"ｻｲﾊｸｸﾞﾝﾀﾞｲｾﾝﾁｮｳ","kana_address":"ﾁｮｳｵﾝｼﾞ","pref":"鳥取県","city":"西伯郡大山町","address":"潮音寺"},
{"zip_code":"6893105","kana_pref":"ﾄｯﾄﾘｹﾝ","kana_city":"ｻｲﾊｸｸﾞﾝﾀﾞｲｾﾝﾁｮｳ","kana_address":"ﾂｶﾂﾞﾐ","pref":"鳥取県","city":"西伯郡大山町","address":"束積"},
{"zip_code":"6893333","kana_pref":"ﾄｯﾄﾘｹﾝ","kana_city":"ｻｲﾊｸｸﾞﾝﾀﾞｲｾﾝﾁｮｳ","kana_address":"ﾄｳﾉｳ","pref":"鳥取県","city":"西伯郡大山町","address":"唐王"},
{"zip_code":"6893303","kana_pref":"ﾄｯﾄﾘｹﾝ","kana_city":"ｻｲﾊｸｸﾞﾝﾀﾞｲｾﾝﾁｮｳ","kana_address":"ﾄｺﾛｺﾞ","pref":"鳥取県","city":"西伯郡大山町","address":"所子"},
{"zip_code":"6893135","kana_pref":"ﾄｯﾄﾘｹﾝ","kana_city":"ｻｲﾊｸｸﾞﾝﾀﾞｲｾﾝﾁｮｳ","kana_address":"ﾄﾉｶﾞﾜﾁ","pref":"鳥取県","city":"西伯郡大山町","address":"殿河内"},
{"zip_code":"6893325","kana_pref":"ﾄｯﾄﾘｹﾝ","kana_city":"ｻｲﾊｸｸﾞﾝﾀﾞｲｾﾝﾁｮｳ","kana_address":"ﾄﾐｵｶ","pref":"鳥取県","city":"西伯郡大山町","address":"富岡"},
{"zip_code":"6893221","kana_pref":"ﾄｯﾄﾘｹﾝ","kana_city":"ｻｲﾊｸｸﾞﾝﾀﾞｲｾﾝﾁｮｳ","kana_address":"ﾄﾐﾅｶﾞ","pref":"鳥取県","city":"西伯郡大山町","address":"富長"},
{"zip_code":"6893201","kana_pref":"ﾄｯﾄﾘｹﾝ","kana_city":"ｻｲﾊｸｸﾞﾝﾀﾞｲｾﾝﾁｮｳ","kana_address":"ﾄﾖｼｹﾞ","pref":"鳥取県","city":"西伯郡大山町","address":"豊成"},
{"zip_code":"6893316","kana_pref":"ﾄｯﾄﾘｹﾝ","kana_city":"ｻｲﾊｸｸﾞﾝﾀﾞｲｾﾝﾁｮｳ","kana_address":"ﾄﾖﾌｻ","pref":"鳥取県","city":"西伯郡大山町","address":"豊房"},
{"zip_code":"6893322","kana_pref":"ﾄｯﾄﾘｹﾝ","kana_city":"ｻｲﾊｸｸﾞﾝﾀﾞｲｾﾝﾁｮｳ","kana_address":"ﾅｶﾞﾀ","pref":"鳥取県","city":"西伯郡大山町","address":"長田"},
{"zip_code":"6893306","kana_pref":"ﾄｯﾄﾘｹﾝ","kana_city":"ｻｲﾊｸｸﾞﾝﾀﾞｲｾﾝﾁｮｳ","kana_address":"ﾅｶﾀﾞｶ","pref":"鳥取県","city":"西伯郡大山町","address":"中高"},
{"zip_code":"6893136","kana_pref":"ﾄｯﾄﾘｹﾝ","kana_city":"ｻｲﾊｸｸﾞﾝﾀﾞｲｾﾝﾁｮｳ","kana_address":"ﾅｶﾞﾉ","pref":"鳥取県","city":"西伯郡大山町","address":"長野"},
{"zip_code":"6893212","kana_pref":"ﾄｯﾄﾘｹﾝ","kana_city":"ｻｲﾊｸｸﾞﾝﾀﾞｲｾﾝﾁｮｳ","kana_address":"ﾅﾜ","pref":"鳥取県","city":"西伯郡大山町","address":"名和"},
{"zip_code":"6893205","kana_pref":"ﾄｯﾄﾘｹﾝ","kana_city":"ｻｲﾊｸｸﾞﾝﾀﾞｲｾﾝﾁｮｳ","kana_address":"ﾆｼﾂﾎﾞ","pref":"鳥取県","city":"西伯郡大山町","address":"西坪"},
{"zip_code":"6893307","kana_pref":"ﾄｯﾄﾘｹﾝ","kana_city":"ｻｲﾊｸｸﾞﾝﾀﾞｲｾﾝﾁｮｳ","kana_address":"ﾉﾀﾞ","pref":"鳥取県","city":"西伯郡大山町","address":"野田"},
{"zip_code":"6893106","kana_pref":"ﾄｯﾄﾘｹﾝ","kana_city":"ｻｲﾊｸｸﾞﾝﾀﾞｲｾﾝﾁｮｳ","kana_address":"ﾊﾀｲ","pref":"鳥取県","city":"西伯郡大山町","address":"羽田井"},
{"zip_code":"6893204","kana_pref":"ﾄｯﾄﾘｹﾝ","kana_city":"ｻｲﾊｸｸﾞﾝﾀﾞｲｾﾝﾁｮｳ","kana_address":"ﾋｶﾞｼﾂﾎﾞ","pref":"鳥取県","city":"西伯郡大山町","address":"東坪"},
{"zip_code":"6893103","kana_pref":"ﾄｯﾄﾘｹﾝ","kana_city":"ｻｲﾊｸｸﾞﾝﾀﾞｲｾﾝﾁｮｳ","kana_address":"ﾋﾉｸﾁ","pref":"鳥取県","city":"西伯郡大山町","address":"樋口"},
{"zip_code":"6893321","kana_pref":"ﾄｯﾄﾘｹﾝ","kana_city":"ｻｲﾊｸｸﾞﾝﾀﾞｲｾﾝﾁｮｳ","kana_address":"ﾋﾗ","pref":"鳥取県","city":"西伯郡大山町","address":"平"},
{"zip_code":"6893304","kana_pref":"ﾄｯﾄﾘｹﾝ","kana_city":"ｻｲﾊｸｸﾞﾝﾀﾞｲｾﾝﾁｮｳ","kana_address":"ﾋﾗｷﾞ","pref":"鳥取県","city":"西伯郡大山町","address":"平木"},
{"zip_code":"6893336","kana_pref":"ﾄｯﾄﾘｹﾝ","kana_city":"ｻｲﾊｸｸﾞﾝﾀﾞｲｾﾝﾁｮｳ","kana_address":"ﾋﾗﾀﾞ","pref":"鳥取県","city":"西伯郡大山町","address":"平田"},
{"zip_code":"6893301","kana_pref":"ﾄｯﾄﾘｹﾝ","kana_city":"ｻｲﾊｸｸﾞﾝﾀﾞｲｾﾝﾁｮｳ","kana_address":"ﾌｸｵ","pref":"鳥取県","city":"西伯郡大山町","address":"福尾"},
{"zip_code":"6893312","kana_pref":"ﾄｯﾄﾘｹﾝ","kana_city":"ｻｲﾊｸｸﾞﾝﾀﾞｲｾﾝﾁｮｳ","kana_address":"ﾎﾞｳﾘｮｳ","pref":"鳥取県","city":"西伯郡大山町","address":"坊領"},
{"zip_code":"6893315","kana_pref":"ﾄｯﾄﾘｹﾝ","kana_city":"ｻｲﾊｸｸﾞﾝﾀﾞｲｾﾝﾁｮｳ","kana_address":"ﾏｴ","pref":"鳥取県","city":"西伯郡大山町","address":"前"},
{"zip_code":"6893132","kana_pref":"ﾄｯﾄﾘｹﾝ","kana_city":"ｻｲﾊｸｸﾞﾝﾀﾞｲｾﾝﾁｮｳ","kana_address":"ﾏﾂｶﾞﾜﾗ","pref":"鳥取県","city":"西伯郡大山町","address":"松河原"},
{"zip_code":"6893211","kana_pref":"ﾄｯﾄﾘｹﾝ","kana_city":"ｻｲﾊｸｸﾞﾝﾀﾞｲｾﾝﾁｮｳ","kana_address":"ﾐｸﾘﾔ","pref":"鳥取県","city":"西伯郡大山町","address":"御来屋"},
{"zip_code":"6893113","kana_pref":"ﾄｯﾄﾘｹﾝ","kana_city":"ｻｲﾊｸｸﾞﾝﾀﾞｲｾﾝﾁｮｳ","kana_address":"ﾐｻｷ","pref":"鳥取県","city":"西伯郡大山町","address":"御崎"},
{"zip_code":"6893311","kana_pref":"ﾄｯﾄﾘｹﾝ","kana_city":"ｻｲﾊｸｸﾞﾝﾀﾞｲｾﾝﾁｮｳ","kana_address":"ﾐﾔｳﾁ","pref":"鳥取県","city":"西伯郡大山町","address":"宮内"},
{"zip_code":"6893324","kana_pref":"ﾄｯﾄﾘｹﾝ","kana_city":"ｻｲﾊｸｸﾞﾝﾀﾞｲｾﾝﾁｮｳ","kana_address":"ﾑｷ","pref":"鳥取県","city":"西伯郡大山町","address":"妻木"},
{"zip_code":"6893213","kana_pref":"ﾄｯﾄﾘｹﾝ","kana_city":"ｻｲﾊｸｸﾞﾝﾀﾞｲｾﾝﾁｮｳ","kana_address":"ﾓﾝｾﾞﾝ","pref":"鳥取県","city":"西伯郡大山町","address":"門前"},
{"zip_code":"6893104","kana_pref":"ﾄｯﾄﾘｹﾝ","kana_city":"ｻｲﾊｸｸﾞﾝﾀﾞｲｾﾝﾁｮｳ","kana_address":"ﾔｴ","pref":"鳥取県","city":"西伯郡大山町","address":"八重"},
{"zip_code":"6893327","kana_pref":"ﾄｯﾄﾘｹﾝ","kana_city":"ｻｲﾊｸｸﾞﾝﾀﾞｲｾﾝﾁｮｳ","kana_address":"ﾔｽﾀﾞ","pref":"鳥取県","city":"西伯郡大山町","address":"保田"},
{"zip_code":"6893326","kana_pref":"ﾄｯﾄﾘｹﾝ","kana_city":"ｻｲﾊｸｸﾞﾝﾀﾞｲｾﾝﾁｮｳ","kana_address":"ﾔｽﾊﾗ","pref":"鳥取県","city":"西伯郡大山町","address":"安原"},
{"zip_code":"6894100","kana_pref":"ﾄｯﾄﾘｹﾝ","kana_city":"ｻｲﾊｸｸﾞﾝﾎｳｷﾁｮｳ","kana_address":"","pref":"鳥取県","city":"西伯郡伯耆町","address":""},
{"zip_code":"6894214","kana_pref":"ﾄｯﾄﾘｹﾝ","kana_city":"ｻｲﾊｸｸﾞﾝﾎｳｷﾁｮｳ","kana_address":"ｲﾜﾀﾃ","pref":"鳥取県","city":"西伯郡伯耆町","address":"岩立"},
{"zip_code":"6894123","kana_pref":"ﾄｯﾄﾘｹﾝ","kana_city":"ｻｲﾊｸｸﾞﾝﾎｳｷﾁｮｳ","kana_address":"ｲﾜﾔﾀﾞﾆ","pref":"鳥取県","city":"西伯郡伯耆町","address":"岩屋谷"},
{"zip_code":"6894212","kana_pref":"ﾄｯﾄﾘｹﾝ","kana_city":"ｻｲﾊｸｸﾞﾝﾎｳｷﾁｮｳ","kana_address":"ｳｴﾉ","pref":"鳥取県","city":"西伯郡伯耆町","address":"上野"},
{"zip_code":"6894207","kana_pref":"ﾄｯﾄﾘｹﾝ","kana_city":"ｻｲﾊｸｸﾞﾝﾎｳｷﾁｮｳ","kana_address":"ｳﾀﾞｲ","pref":"鳥取県","city":"西伯郡伯耆町","address":"宇代"},
{"zip_code":"6894134","kana_pref":"ﾄｯﾄﾘｹﾝ","kana_city":"ｻｲﾊｸｸﾞﾝﾎｳｷﾁｮｳ","kana_address":"ｴﾝﾄﾞｳ","pref":"鳥取県","city":"西伯郡伯耆町","address":"遠藤"},
{"zip_code":"6894215","kana_pref":"ﾄｯﾄﾘｹﾝ","kana_city":"ｻｲﾊｸｸﾞﾝﾎｳｷﾁｮｳ","kana_address":"ｵｵｳﾁ","pref":"鳥取県","city":"西伯郡伯耆町","address":"大内"},
{"zip_code":"6894211","kana_pref":"ﾄｯﾄﾘｹﾝ","kana_city":"ｻｲﾊｸｸﾞﾝﾎｳｷﾁｮｳ","kana_address":"ｵｵｴ","pref":"鳥取県","city":"西伯郡伯耆町","address":"大江"},
{"zip_code":"6894205","kana_pref":"ﾄｯﾄﾘｹﾝ","kana_city":"ｻｲﾊｸｸﾞﾝﾎｳｷﾁｮｳ","kana_address":"ｵｵｸﾗ","pref":"鳥取県","city":"西伯郡伯耆町","address":"大倉"},
{"zip_code":"6894226","kana_pref":"ﾄｯﾄﾘｹﾝ","kana_city":"ｻｲﾊｸｸﾞﾝﾎｳｷﾁｮｳ","kana_address":"ｵｵｻｶ","pref":"鳥取県","city":"西伯郡伯耆町","address":"大坂"},
{"zip_code":"6894222","kana_pref":"ﾄｯﾄﾘｹﾝ","kana_city":"ｻｲﾊｸｸﾞﾝﾎｳｷﾁｮｳ","kana_address":"ｵｵﾀｷ","pref":"鳥取県","city":"西伯郡伯耆町","address":"大滝"},
{"zip_code":"6894121","kana_pref":"ﾄｯﾄﾘｹﾝ","kana_city":"ｻｲﾊｸｸﾞﾝﾎｳｷﾁｮｳ","kana_address":"ｵｵﾄﾉ","pref":"鳥取県","city":"西伯郡伯耆町","address":"大殿"},
{"zip_code":"6894102","kana_pref":"ﾄｯﾄﾘｹﾝ","kana_city":"ｻｲﾊｸｸﾞﾝﾎｳｷﾁｮｳ","kana_address":"ｵｵﾊﾗ","pref":"鳥取県","city":"西伯郡伯耆町","address":"大原"},
{"zip_code":"6894135","kana_pref":"ﾄｯﾄﾘｹﾝ","kana_city":"ｻｲﾊｸｸﾞﾝﾎｳｷﾁｮｳ","kana_address":"ｵｻｴｸﾞﾁ","pref":"鳥取県","city":"西伯郡伯耆町","address":"押口"},
{"zip_code":"6894113","kana_pref":"ﾄｯﾄﾘｹﾝ","kana_city":"ｻｲﾊｸｸﾞﾝﾎｳｷﾁｮｳ","kana_address":"ｵﾉ","pref":"鳥取県","city":"西伯郡伯耆町","address":"小野"},
{"zip_code":"6894213","kana_pref":"ﾄｯﾄﾘｹﾝ","kana_city":"ｻｲﾊｸｸﾞﾝﾎｳｷﾁｮｳ","kana_address":"ｶﾅﾔﾀﾞﾆ","pref":"鳥取県","city":"西伯郡伯耆町","address":"金屋谷"},
{"zip_code":"6894112","kana_pref":"ﾄｯﾄﾘｹﾝ","kana_city":"ｻｲﾊｸｸﾞﾝﾎｳｷﾁｮｳ","kana_address":"ｶﾐﾎｿﾐ","pref":"鳥取県","city":"西伯郡伯耆町","address":"上細見"},
{"zip_code":"6894132","kana_pref":"ﾄｯﾄﾘｹﾝ","kana_city":"ｻｲﾊｸｸﾞﾝﾎｳｷﾁｮｳ","kana_address":"ｷｼﾓﾄ","pref":"鳥取県","city":"西伯郡伯耆町","address":"岸本"},
{"zip_code":"6894203","kana_pref":"ﾄｯﾄﾘｹﾝ","kana_city":"ｻｲﾊｸｸﾞﾝﾎｳｷﾁｮｳ","kana_address":"ｷｽﾞﾐ","pref":"鳥取県","city":"西伯郡伯耆町","address":"貴住"},
{"zip_code":"6894111","kana_pref":"ﾄｯﾄﾘｹﾝ","kana_city":"ｻｲﾊｸｸﾞﾝﾎｳｷﾁｮｳ","kana_address":"ｷﾖﾊﾗ","pref":"鳥取県","city":"西伯郡伯耆町","address":"清原"},
{"zip_code":"6894105","kana_pref":"ﾄｯﾄﾘｹﾝ","kana_city":"ｻｲﾊｸｸﾞﾝﾎｳｷﾁｮｳ","kana_address":"ｸｺﾞ","pref":"鳥取県","city":"西伯郡伯耆町","address":"久古"},
{"zip_code":"6894106","kana_pref":"ﾄｯﾄﾘｹﾝ","kana_city":"ｻｲﾊｸｸﾞﾝﾎｳｷﾁｮｳ","kana_address":"ｸﾁﾍﾞｯｼﾖ","pref":"鳥取県","city":"西伯郡伯耆町","address":"口別所"},
{"zip_code":"6894101","kana_pref":"ﾄｯﾄﾘｹﾝ","kana_city":"ｻｲﾊｸｸﾞﾝﾎｳｷﾁｮｳ","kana_address":"ｺﾊﾞﾔｼ","pref":"鳥取県","city":"西伯郡伯耆町","address":"小林"},
{"zip_code":"6894115","kana_pref":"ﾄｯﾄﾘｹﾝ","kana_city":"ｻｲﾊｸｸﾞﾝﾎｳｷﾁｮｳ","kana_address":"ｺﾏﾁ","pref":"鳥取県","city":"西伯郡伯耆町","address":"小町"},
{"zip_code":"6894122","kana_pref":"ﾄｯﾄﾘｹﾝ","kana_city":"ｻｲﾊｸｸﾞﾝﾎｳｷﾁｮｳ","kana_address":"ｻｶﾁｮｳ","pref":"鳥取県","city":"西伯郡伯耆町","address":"坂長"},
{"zip_code":"6894246","kana_pref":"ﾄｯﾄﾘｹﾝ","kana_city":"ｻｲﾊｸｸﾞﾝﾎｳｷﾁｮｳ","kana_address":"ｻﾝﾌﾞ","pref":"鳥取県","city":"西伯郡伯耆町","address":"三部"},
{"zip_code":"6894243","kana_pref":"ﾄｯﾄﾘｹﾝ","kana_city":"ｻｲﾊｸｸﾞﾝﾎｳｷﾁｮｳ","kana_address":"ｼｮｳ","pref":"鳥取県","city":"西伯郡伯耆町","address":"荘"},
{"zip_code":"6894225","kana_pref":"ﾄｯﾄﾘｹﾝ","kana_city":"ｻｲﾊｸｸﾞﾝﾎｳｷﾁｮｳ","kana_address":"ｼﾗﾐ","pref":"鳥取県","city":"西伯郡伯耆町","address":"白水"},
{"zip_code":"6894107","kana_pref":"ﾄｯﾄﾘｹﾝ","kana_city":"ｻｲﾊｸｸﾞﾝﾎｳｷﾁｮｳ","kana_address":"ｽﾑﾗ","pref":"鳥取県","city":"西伯郡伯耆町","address":"須村"},
{"zip_code":"6894217","kana_pref":"ﾄｯﾄﾘｹﾝ","kana_city":"ｻｲﾊｸｸﾞﾝﾎｳｷﾁｮｳ","kana_address":"ｿｴﾀﾞﾆ","pref":"鳥取県","city":"西伯郡伯耆町","address":"添谷"},
{"zip_code":"6894114","kana_pref":"ﾄｯﾄﾘｹﾝ","kana_city":"ｻｲﾊｸｸﾞﾝﾎｳｷﾁｮｳ","kana_address":"ﾀﾃｲﾜ","pref":"鳥取県","city":"西伯郡伯耆町","address":"立岩"},
{"zip_code":"6894204","kana_pref":"ﾄｯﾄﾘｹﾝ","kana_city":"ｻｲﾊｸｸﾞﾝﾎｳｷﾁｮｳ","kana_address":"ﾀﾆｶﾞﾜ","pref":"鳥取県","city":"西伯郡伯耆町","address":"谷川"},
{"zip_code":"6894244","kana_pref":"ﾄｯﾄﾘｹﾝ","kana_city":"ｻｲﾊｸｸﾞﾝﾎｳｷﾁｮｳ","kana_address":"ﾁﾁﾊﾞﾗ","pref":"鳥取県","city":"西伯郡伯耆町","address":"父原"},
{"zip_code":"6894223","kana_pref":"ﾄｯﾄﾘｹﾝ","kana_city":"ｻｲﾊｸｸﾞﾝﾎｳｷﾁｮｳ","kana_address":"ﾄﾁﾊﾞﾗ","pref":"鳥取県","city":"西伯郡伯耆町","address":"栃原"},
{"zip_code":"6894221","kana_pref":"ﾄｯﾄﾘｹﾝ","kana_city":"ｻｲﾊｸｸﾞﾝﾎｳｷﾁｮｳ","kana_address":"ﾄﾐｴ","pref":"鳥取県","city":"西伯郡伯耆町","address":"富江"},
{"zip_code":"6894241","kana_pref":"ﾄｯﾄﾘｹﾝ","kana_city":"ｻｲﾊｸｸﾞﾝﾎｳｷﾁｮｳ","kana_address":"ﾅｶｿﾞ","pref":"鳥取県","city":"西伯郡伯耆町","address":"中祖"},
{"zip_code":"6894202","kana_pref":"ﾄｯﾄﾘｹﾝ","kana_city":"ｻｲﾊｸｸﾞﾝﾎｳｷﾁｮｳ","kana_address":"ﾅｶﾞﾔﾏ","pref":"鳥取県","city":"西伯郡伯耆町","address":"長山"},
{"zip_code":"6894233","kana_pref":"ﾄｯﾄﾘｹﾝ","kana_city":"ｻｲﾊｸｸﾞﾝﾎｳｷﾁｮｳ","kana_address":"ﾆﾌﾞ","pref":"鳥取県","city":"西伯郡伯耆町","address":"二部"},
{"zip_code":"6894224","kana_pref":"ﾄｯﾄﾘｹﾝ","kana_city":"ｻｲﾊｸｸﾞﾝﾎｳｷﾁｮｳ","kana_address":"ﾈｳﾊﾞﾗ","pref":"鳥取県","city":"西伯郡伯耆町","address":"根雨原"},
{"zip_code":"6894234","kana_pref":"ﾄｯﾄﾘｹﾝ","kana_city":"ｻｲﾊｸｸﾞﾝﾎｳｷﾁｮｳ","kana_address":"ﾊﾀｲｹ","pref":"鳥取県","city":"西伯郡伯耆町","address":"畑池"},
{"zip_code":"6894104","kana_pref":"ﾄｯﾄﾘｹﾝ","kana_city":"ｻｲﾊｸｸﾞﾝﾎｳｷﾁｮｳ","kana_address":"ﾊﾞﾝﾊﾞﾗ","pref":"鳥取県","city":"西伯郡伯耆町","address":"番原"},
{"zip_code":"6894237","kana_pref":"ﾄｯﾄﾘｹﾝ","kana_city":"ｻｲﾊｸｸﾞﾝﾎｳｷﾁｮｳ","kana_address":"ﾌｸｲ","pref":"鳥取県","city":"西伯郡伯耆町","address":"福居"},
{"zip_code":"6894235","kana_pref":"ﾄｯﾄﾘｹﾝ","kana_city":"ｻｲﾊｸｸﾞﾝﾎｳｷﾁｮｳ","kana_address":"ﾌｸｵｶ","pref":"鳥取県","city":"西伯郡伯耆町","address":"福岡"},
{"zip_code":"6894136","kana_pref":"ﾄｯﾄﾘｹﾝ","kana_city":"ｻｲﾊｸｸﾞﾝﾎｳｷﾁｮｳ","kana_address":"ﾌｸｵｶﾊﾗ","pref":"鳥取県","city":"西伯郡伯耆町","address":"福岡原"},
{"zip_code":"6894216","kana_pref":"ﾄｯﾄﾘｹﾝ","kana_city":"ｻｲﾊｸｸﾞﾝﾎｳｷﾁｮｳ","kana_address":"ﾌｸｶﾈ","pref":"鳥取県","city":"西伯郡伯耆町","address":"福兼"},
{"zip_code":"6894232","kana_pref":"ﾄｯﾄﾘｹﾝ","kana_city":"ｻｲﾊｸｸﾞﾝﾎｳｷﾁｮｳ","kana_address":"ﾌｸｼﾞﾏ","pref":"鳥取県","city":"西伯郡伯耆町","address":"福島"},
{"zip_code":"6894245","kana_pref":"ﾄｯﾄﾘｹﾝ","kana_city":"ｻｲﾊｸｸﾞﾝﾎｳｷﾁｮｳ","kana_address":"ﾌｸﾖｼ","pref":"鳥取県","city":"西伯郡伯耆町","address":"福吉"},
{"zip_code":"6894231","kana_pref":"ﾄｯﾄﾘｹﾝ","kana_city":"ｻｲﾊｸｸﾞﾝﾎｳｷﾁｮｳ","kana_address":"ﾌﾅｺｼ","pref":"鳥取県","city":"西伯郡伯耆町","address":"船越"},
{"zip_code":"6894242","kana_pref":"ﾄｯﾄﾘｹﾝ","kana_city":"ｻｲﾊｸｸﾞﾝﾎｳｷﾁｮｳ","kana_address":"ﾌﾙｲﾁ","pref":"鳥取県","city":"西伯郡伯耆町","address":"古市"},
{"zip_code":"6894103","kana_pref":"ﾄｯﾄﾘｹﾝ","kana_city":"ｻｲﾊｸｸﾞﾝﾎｳｷﾁｮｳ","kana_address":"ﾏﾉ","pref":"鳥取県","city":"西伯郡伯耆町","address":"真野"},
{"zip_code":"6894108","kana_pref":"ﾄｯﾄﾘｹﾝ","kana_city":"ｻｲﾊｸｸﾞﾝﾎｳｷﾁｮｳ","kana_address":"ﾏﾙﾔﾏ","pref":"鳥取県","city":"西伯郡伯耆町","address":"丸山"},
{"zip_code":"6894201","kana_pref":"ﾄｯﾄﾘｹﾝ","kana_city":"ｻｲﾊｸｸﾞﾝﾎｳｷﾁｮｳ","kana_address":"ﾐｿﾞｸﾁ","pref":"鳥取県","city":"西伯郡伯耆町","address":"溝口"},
{"zip_code":"6894206","kana_pref":"ﾄｯﾄﾘｹﾝ","kana_city":"ｻｲﾊｸｸﾞﾝﾎｳｷﾁｮｳ","kana_address":"ﾐﾔﾊﾞﾗ","pref":"鳥取県","city":"西伯郡伯耆町","address":"宮原"},
{"zip_code":"6894236","kana_pref":"ﾄｯﾄﾘｹﾝ","kana_city":"ｻｲﾊｸｸﾞﾝﾎｳｷﾁｮｳ","kana_address":"ﾔｹｽｷﾞ","pref":"鳥取県","city":"西伯郡伯耆町","address":"焼杉"},
{"zip_code":"6894131","kana_pref":"ﾄｯﾄﾘｹﾝ","kana_city":"ｻｲﾊｸｸﾞﾝﾎｳｷﾁｮｳ","kana_address":"ﾖｼｻﾀﾞ","pref":"鳥取県","city":"西伯郡伯耆町","address":"吉定"},
{"zip_code":"6894133","kana_pref":"ﾄｯﾄﾘｹﾝ","kana_city":"ｻｲﾊｸｸﾞﾝﾎｳｷﾁｮｳ","kana_address":"ﾖｼﾅｶﾞ","pref":"鳥取県","city":"西伯郡伯耆町","address":"吉長"},
{"zip_code":"6895200","kana_pref":"ﾄｯﾄﾘｹﾝ","kana_city":"ﾋﾉｸﾞﾝﾆﾁﾅﾝﾁｮｳ","kana_address":"","pref":"鳥取県","city":"日野郡日南町","address":""},
{"zip_code":"6895551","kana_pref":"ﾄｯﾄﾘｹﾝ","kana_city":"ﾋﾉｸﾞﾝﾆﾁﾅﾝﾁｮｳ","kana_address":"ｱﾋﾞﾚ","pref":"鳥取県","city":"日野郡日南町","address":"阿毘縁"},
{"zip_code":"6895531","kana_pref":"ﾄｯﾄﾘｹﾝ","kana_city":"ﾋﾉｸﾞﾝﾆﾁﾅﾝﾁｮｳ","kana_address":"ｲﾝｶﾞ","pref":"鳥取県","city":"日野郡日南町","address":"印賀"},
{"zip_code":"6895534","kana_pref":"ﾄｯﾄﾘｹﾝ","kana_city":"ﾋﾉｸﾞﾝﾆﾁﾅﾝﾁｮｳ","kana_address":"ｵﾘﾜﾀﾘ","pref":"鳥取県","city":"日野郡日南町","address":"折渡"},
{"zip_code":"6895543","kana_pref":"ﾄｯﾄﾘｹﾝ","kana_city":"ﾋﾉｸﾞﾝﾆﾁﾅﾝﾁｮｳ","kana_address":"ｶｻｷﾞ","pref":"鳥取県","city":"日野郡日南町","address":"笠木"},
{"zip_code":"6895212","kana_pref":"ﾄｯﾄﾘｹﾝ","kana_city":"ﾋﾉｸﾞﾝﾆﾁﾅﾝﾁｮｳ","kana_address":"ｶｽﾐ","pref":"鳥取県","city":"日野郡日南町","address":"霞"},
{"zip_code":"6895662","kana_pref":"ﾄｯﾄﾘｹﾝ","kana_city":"ﾋﾉｸﾞﾝﾆﾁﾅﾝﾁｮｳ","kana_address":"ｶﾄﾞﾉｶﾐ","pref":"鳥取県","city":"日野郡日南町","address":"神戸上"},
{"zip_code":"6895663","kana_pref":"ﾄｯﾄﾘｹﾝ","kana_city":"ﾋﾉｸﾞﾝﾆﾁﾅﾝﾁｮｳ","kana_address":"ｶﾐｲﾜﾐ","pref":"鳥取県","city":"日野郡日南町","address":"上石見"},
{"zip_code":"6895223","kana_pref":"ﾄｯﾄﾘｹﾝ","kana_city":"ﾋﾉｸﾞﾝﾆﾁﾅﾝﾁｮｳ","kana_address":"ｶﾐﾊｷﾞﾔﾏ","pref":"鳥取県","city":"日野郡日南町","address":"上萩山"},
{"zip_code":"6895672","kana_pref":"ﾄｯﾄﾘｹﾝ","kana_city":"ﾋﾉｸﾞﾝﾆﾁﾅﾝﾁｮｳ","kana_address":"ｶﾐﾌｸ","pref":"鳥取県","city":"日野郡日南町","address":"神福"},
{"zip_code":"6895221","kana_pref":"ﾄｯﾄﾘｹﾝ","kana_city":"ﾋﾉｸﾞﾝﾆﾁﾅﾝﾁｮｳ","kana_address":"ｶﾜｶﾐ","pref":"鳥取県","city":"日野郡日南町","address":"河上"},
{"zip_code":"6895541","kana_pref":"ﾄｯﾄﾘｹﾝ","kana_city":"ﾋﾉｸﾞﾝﾆﾁﾅﾝﾁｮｳ","kana_address":"ｻｷﾞﾀﾞﾆ","pref":"鳥取県","city":"日野郡日南町","address":"佐木谷"},
{"zip_code":"6895552","kana_pref":"ﾄｯﾄﾘｹﾝ","kana_city":"ﾋﾉｸﾞﾝﾆﾁﾅﾝﾁｮｳ","kana_address":"ｼﾓｱﾋﾞﾚ","pref":"鳥取県","city":"日野郡日南町","address":"下阿毘縁"},
{"zip_code":"6895665","kana_pref":"ﾄｯﾄﾘｹﾝ","kana_city":"ﾋﾉｸﾞﾝﾆﾁﾅﾝﾁｮｳ","kana_address":"ｼﾓｲﾜﾐ","pref":"鳥取県","city":"日野郡日南町","address":"下石見"},
{"zip_code":"6895211","kana_pref":"ﾄｯﾄﾘｹﾝ","kana_city":"ﾋﾉｸﾞﾝﾆﾁﾅﾝﾁｮｳ","kana_address":"ｼｮｳﾔﾏ","pref":"鳥取県","city":"日野郡日南町","address":"生山"},
{"zip_code":"6895532","kana_pref":"ﾄｯﾄﾘｹﾝ","kana_city":"ﾋﾉｸﾞﾝﾆﾁﾅﾝﾁｮｳ","kana_address":"ｽｹﾞｻﾞﾜ","pref":"鳥取県","city":"日野郡日南町","address":"菅沢"},
{"zip_code":"6895533","kana_pref":"ﾄｯﾄﾘｹﾝ","kana_city":"ﾋﾉｸﾞﾝﾆﾁﾅﾝﾁｮｳ","kana_address":"ﾀｶﾗﾀﾞﾆ","pref":"鳥取県","city":"日野郡日南町","address":"宝谷"},
{"zip_code":"6895224","kana_pref":"ﾄｯﾄﾘｹﾝ","kana_city":"ﾋﾉｸﾞﾝﾆﾁﾅﾝﾁｮｳ","kana_address":"ﾀﾘ","pref":"鳥取県","city":"日野郡日南町","address":"多里"},
{"zip_code":"6895544","kana_pref":"ﾄｯﾄﾘｹﾝ","kana_city":"ﾋﾉｸﾞﾝﾆﾁﾅﾝﾁｮｳ","kana_address":"ﾁｬﾔ","pref":"鳥取県","city":"日野郡日南町","address":"茶屋"},
{"zip_code":"6895673","kana_pref":"ﾄｯﾄﾘｹﾝ","kana_city":"ﾋﾉｸﾞﾝﾆﾁﾅﾝﾁｮｳ","kana_address":"ﾄﾖｻｶｴ","pref":"鳥取県","city":"日野郡日南町","address":"豊栄"},
{"zip_code":"6895664","kana_pref":"ﾄｯﾄﾘｹﾝ","kana_city":"ﾋﾉｸﾞﾝﾆﾁﾅﾝﾁｮｳ","kana_address":"ﾅｶｲﾜﾐ","pref":"鳥取県","city":"日野郡日南町","address":"中石見"},
{"zip_code":"6895225","kana_pref":"ﾄｯﾄﾘｹﾝ","kana_city":"ﾋﾉｸﾞﾝﾆﾁﾅﾝﾁｮｳ","kana_address":"ﾆｲﾔ","pref":"鳥取県","city":"日野郡日南町","address":"新屋"},
{"zip_code":"6895222","kana_pref":"ﾄｯﾄﾘｹﾝ","kana_city":"ﾋﾉｸﾞﾝﾆﾁﾅﾝﾁｮｳ","kana_address":"ﾊｷﾞﾊﾗ","pref":"鳥取県","city":"日野郡日南町","address":"萩原"},
{"zip_code":"6895661","kana_pref":"ﾄｯﾄﾘｹﾝ","kana_city":"ﾋﾉｸﾞﾝﾆﾁﾅﾝﾁｮｳ","kana_address":"ﾊﾅｸﾞﾁ","pref":"鳥取県","city":"日野郡日南町","address":"花口"},
{"zip_code":"6895545","kana_pref":"ﾄｯﾄﾘｹﾝ","kana_city":"ﾋﾉｸﾞﾝﾆﾁﾅﾝﾁｮｳ","kana_address":"ﾌｸｽﾐ","pref":"鳥取県","city":"日野郡日南町","address":"福寿実"},
{"zip_code":"6895671","kana_pref":"ﾄｯﾄﾘｹﾝ","kana_city":"ﾋﾉｸﾞﾝﾆﾁﾅﾝﾁｮｳ","kana_address":"ﾌｸﾂﾞｶ","pref":"鳥取県","city":"日野郡日南町","address":"福塚"},
{"zip_code":"6895542","kana_pref":"ﾄｯﾄﾘｹﾝ","kana_city":"ﾋﾉｸﾞﾝﾆﾁﾅﾝﾁｮｳ","kana_address":"ﾌｸﾏｷ","pref":"鳥取県","city":"日野郡日南町","address":"福万来"},
{"zip_code":"6895213","kana_pref":"ﾄｯﾄﾘｹﾝ","kana_city":"ﾋﾉｸﾞﾝﾆﾁﾅﾝﾁｮｳ","kana_address":"ﾏﾙﾔﾏ","pref":"鳥取県","city":"日野郡日南町","address":"丸山"},
{"zip_code":"6895214","kana_pref":"ﾄｯﾄﾘｹﾝ","kana_city":"ﾋﾉｸﾞﾝﾆﾁﾅﾝﾁｮｳ","kana_address":"ﾐｻｶｴ","pref":"鳥取県","city":"日野郡日南町","address":"三栄"},
{"zip_code":"6895216","kana_pref":"ﾄｯﾄﾘｹﾝ","kana_city":"ﾋﾉｸﾞﾝﾆﾁﾅﾝﾁｮｳ","kana_address":"ﾐﾔｳﾁ","pref":"鳥取県","city":"日野郡日南町","address":"宮内"},
{"zip_code":"6895666","kana_pref":"ﾄｯﾄﾘｹﾝ","kana_city":"ﾋﾉｸﾞﾝﾆﾁﾅﾝﾁｮｳ","kana_address":"ﾐﾖｼ","pref":"鳥取県","city":"日野郡日南町","address":"三吉"},
{"zip_code":"6895215","kana_pref":"ﾄｯﾄﾘｹﾝ","kana_city":"ﾋﾉｸﾞﾝﾆﾁﾅﾝﾁｮｳ","kana_address":"ﾔﾄ","pref":"鳥取県","city":"日野郡日南町","address":"矢戸"},
{"zip_code":"6895226","kana_pref":"ﾄｯﾄﾘｹﾝ","kana_city":"ﾋﾉｸﾞﾝﾆﾁﾅﾝﾁｮｳ","kana_address":"ﾕｶﾜ","pref":"鳥取県","city":"日野郡日南町","address":"湯河"},
{"zip_code":"6894500","kana_pref":"ﾄｯﾄﾘｹﾝ","kana_city":"ﾋﾉｸﾞﾝﾋﾉﾁｮｳ","kana_address":"","pref":"鳥取県","city":"日野郡日野町","address":""},
{"zip_code":"6894515","kana_pref":"ﾄｯﾄﾘｹﾝ","kana_city":"ﾋﾉｸﾞﾝﾋﾉﾁｮｳ","kana_address":"ｱｷﾂﾅ","pref":"鳥取県","city":"日野郡日野町","address":"秋縄"},
{"zip_code":"6894513","kana_pref":"ﾄｯﾄﾘｹﾝ","kana_city":"ﾋﾉｸﾞﾝﾋﾉﾁｮｳ","kana_address":"ｲﾀｲﾊﾞﾗ","pref":"鳥取県","city":"日野郡日野町","address":"板井原"},
{"zip_code":"6894523","kana_pref":"ﾄｯﾄﾘｹﾝ","kana_city":"ﾋﾉｸﾞﾝﾋﾉﾁｮｳ","kana_address":"ｴﾉｷｲﾁ","pref":"鳥取県","city":"日野郡日野町","address":"榎市"},
{"zip_code":"6895136","kana_pref":"ﾄｯﾄﾘｹﾝ","kana_city":"ﾋﾉｸﾞﾝﾋﾉﾁｮｳ","kana_address":"ｵｺﾞｳｼﾞ","pref":"鳥取県","city":"日野郡日野町","address":"小河内"},
{"zip_code":"6894501","kana_pref":"ﾄｯﾄﾘｹﾝ","kana_city":"ﾋﾉｸﾞﾝﾋﾉﾁｮｳ","kana_address":"ｶｲﾊﾗ","pref":"鳥取県","city":"日野郡日野町","address":"貝原"},
{"zip_code":"6894516","kana_pref":"ﾄｯﾄﾘｹﾝ","kana_city":"ﾋﾉｸﾞﾝﾋﾉﾁｮｳ","kana_address":"ｶﾄﾞﾀﾆ","pref":"鳥取県","city":"日野郡日野町","address":"門谷"},
{"zip_code":"6895137","kana_pref":"ﾄｯﾄﾘｹﾝ","kana_city":"ﾋﾉｸﾞﾝﾋﾉﾁｮｳ","kana_address":"ｶﾐｽｹﾞ","pref":"鳥取県","city":"日野郡日野町","address":"上菅"},
{"zip_code":"6894512","kana_pref":"ﾄｯﾄﾘｹﾝ","kana_city":"ﾋﾉｸﾞﾝﾋﾉﾁｮｳ","kana_address":"ｶﾓﾁ","pref":"鳥取県","city":"日野郡日野町","address":"金持"},
{"zip_code":"6895132","kana_pref":"ﾄｯﾄﾘｹﾝ","kana_city":"ﾋﾉｸﾞﾝﾋﾉﾁｮｳ","kana_address":"ｸｽﾐ","pref":"鳥取県","city":"日野郡日野町","address":"久住"},
{"zip_code":"6895131","kana_pref":"ﾄｯﾄﾘｹﾝ","kana_city":"ﾋﾉｸﾞﾝﾋﾉﾁｮｳ","kana_address":"ｸﾛｻｶ","pref":"鳥取県","city":"日野郡日野町","address":"黒坂"},
{"zip_code":"6894511","kana_pref":"ﾄｯﾄﾘｹﾝ","kana_city":"ﾋﾉｸﾞﾝﾋﾉﾁｮｳ","kana_address":"ｺｵ","pref":"鳥取県","city":"日野郡日野町","address":"高尾"},
{"zip_code":"6894525","kana_pref":"ﾄｯﾄﾘｹﾝ","kana_city":"ﾋﾉｸﾞﾝﾋﾉﾁｮｳ","kana_address":"ｺﾊﾞﾗ","pref":"鳥取県","city":"日野郡日野町","address":"小原"},
{"zip_code":"6894526","kana_pref":"ﾄｯﾄﾘｹﾝ","kana_city":"ﾋﾉｸﾞﾝﾋﾉﾁｮｳ","kana_address":"ｼﾓｴﾉｷ","pref":"鳥取県","city":"日野郡日野町","address":"下榎"},
{"zip_code":"6895133","kana_pref":"ﾄｯﾄﾘｹﾝ","kana_city":"ﾋﾉｸﾞﾝﾋﾉﾁｮｳ","kana_address":"ｼﾓｸﾞﾛｻｶ","pref":"鳥取県","city":"日野郡日野町","address":"下黒坂"},
{"zip_code":"6895134","kana_pref":"ﾄｯﾄﾘｹﾝ","kana_city":"ﾋﾉｸﾞﾝﾋﾉﾁｮｳ","kana_address":"ｼﾓｽｹﾞ","pref":"鳥取県","city":"日野郡日野町","address":"下菅"},
{"zip_code":"6894521","kana_pref":"ﾄｯﾄﾘｹﾝ","kana_city":"ﾋﾉｸﾞﾝﾋﾉﾁｮｳ","kana_address":"ﾂﾁ","pref":"鳥取県","city":"日野郡日野町","address":"津地"},
{"zip_code":"6895135","kana_pref":"ﾄｯﾄﾘｹﾝ","kana_city":"ﾋﾉｸﾞﾝﾋﾉﾁｮｳ","kana_address":"ﾅｶｽｹﾞ","pref":"鳥取県","city":"日野郡日野町","address":"中菅"},
{"zip_code":"6894517","kana_pref":"ﾄｯﾄﾘｹﾝ","kana_city":"ﾋﾉｸﾞﾝﾋﾉﾁｮｳ","kana_address":"ﾆｺﾞﾀﾆ","pref":"鳥取県","city":"日野郡日野町","address":"濁谷"},
{"zip_code":"6894503","kana_pref":"ﾄｯﾄﾘｹﾝ","kana_city":"ﾋﾉｸﾞﾝﾋﾉﾁｮｳ","kana_address":"ﾈｳ","pref":"鳥取県","city":"日野郡日野町","address":"根雨"},
{"zip_code":"6894504","kana_pref":"ﾄｯﾄﾘｹﾝ","kana_city":"ﾋﾉｸﾞﾝﾋﾉﾁｮｳ","kana_address":"ﾉﾀ","pref":"鳥取県","city":"日野郡日野町","address":"野田"},
{"zip_code":"6895137","kana_pref":"ﾄｯﾄﾘｹﾝ","kana_city":"ﾋﾉｸﾞﾝﾋﾉﾁｮｳ","kana_address":"ﾌｸﾅｶﾞ","pref":"鳥取県","city":"日野郡日野町","address":"福長"},
{"zip_code":"6894505","kana_pref":"ﾄｯﾄﾘｹﾝ","kana_city":"ﾋﾉｸﾞﾝﾋﾉﾁｮｳ","kana_address":"ﾌﾅﾊﾞ","pref":"鳥取県","city":"日野郡日野町","address":"舟場"},
{"zip_code":"6894524","kana_pref":"ﾄｯﾄﾘｹﾝ","kana_city":"ﾋﾉｸﾞﾝﾋﾉﾁｮｳ","kana_address":"ﾍﾞｯｼｮ","pref":"鳥取県","city":"日野郡日野町","address":"別所"},
{"zip_code":"6894522","kana_pref":"ﾄｯﾄﾘｹﾝ","kana_city":"ﾋﾉｸﾞﾝﾋﾉﾁｮｳ","kana_address":"ﾎﾝｺﾞｳ","pref":"鳥取県","city":"日野郡日野町","address":"本郷"},
{"zip_code":"6894502","kana_pref":"ﾄｯﾄﾘｹﾝ","kana_city":"ﾋﾉｸﾞﾝﾋﾉﾁｮｳ","kana_address":"ﾐﾀﾆ","pref":"鳥取県","city":"日野郡日野町","address":"三谷"},
{"zip_code":"6894514","kana_pref":"ﾄｯﾄﾘｹﾝ","kana_city":"ﾋﾉｸﾞﾝﾋﾉﾁｮｳ","kana_address":"ﾐﾂﾁ","pref":"鳥取県","city":"日野郡日野町","address":"三土"},
{"zip_code":"6894527","kana_pref":"ﾄｯﾄﾘｹﾝ","kana_city":"ﾋﾉｸﾞﾝﾋﾉﾁｮｳ","kana_address":"ﾔｽﾊﾗ","pref":"鳥取県","city":"日野郡日野町","address":"安原"},
{"zip_code":"6894400","kana_pref":"ﾄｯﾄﾘｹﾝ","kana_city":"ﾋﾉｸﾞﾝｺｳﾌﾁｮｳ","kana_address":"","pref":"鳥取県","city":"日野郡江府町","address":""},
{"zip_code":"6894401","kana_pref":"ﾄｯﾄﾘｹﾝ","kana_city":"ﾋﾉｸﾞﾝｺｳﾌﾁｮｳ","kana_address":"ｴﾋﾞ","pref":"鳥取県","city":"日野郡江府町","address":"江尾"},
{"zip_code":"6894434","kana_pref":"ﾄｯﾄﾘｹﾝ","kana_city":"ﾋﾉｸﾞﾝｺｳﾌﾁｮｳ","kana_address":"ｵｵｶﾜﾗ","pref":"鳥取県","city":"日野郡江府町","address":"大河原"},
{"zip_code":"6894435","kana_pref":"ﾄｯﾄﾘｹﾝ","kana_city":"ﾋﾉｸﾞﾝｺｳﾌﾁｮｳ","kana_address":"ｶｲﾀﾞ","pref":"鳥取県","city":"日野郡江府町","address":"貝田"},
{"zip_code":"6894432","kana_pref":"ﾄｯﾄﾘｹﾝ","kana_city":"ﾋﾉｸﾞﾝｺｳﾌﾁｮｳ","kana_address":"ｶｷﾊﾞﾗ","pref":"鳥取県","city":"日野郡江府町","address":"柿原"},
{"zip_code":"6894403","kana_pref":"ﾄｯﾄﾘｹﾝ","kana_city":"ﾋﾉｸﾞﾝｺｳﾌﾁｮｳ","kana_address":"ｸﾚ","pref":"鳥取県","city":"日野郡江府町","address":"久連"},
{"zip_code":"6894402","kana_pref":"ﾄｯﾄﾘｹﾝ","kana_city":"ﾋﾉｸﾞﾝｺｳﾌﾁｮｳ","kana_address":"ｺｴﾋﾞ","pref":"鳥取県","city":"日野郡江府町","address":"小江尾"},
{"zip_code":"6894425","kana_pref":"ﾄｯﾄﾘｹﾝ","kana_city":"ﾋﾉｸﾞﾝｺｳﾌﾁｮｳ","kana_address":"ｻｶﾞﾘｶﾔ","pref":"鳥取県","city":"日野郡江府町","address":"下蚊屋"},
{"zip_code":"6894431","kana_pref":"ﾄｯﾄﾘｹﾝ","kana_city":"ﾋﾉｸﾞﾝｺｳﾌﾁｮｳ","kana_address":"ｻｶﾞﾜ","pref":"鳥取県","city":"日野郡江府町","address":"佐川"},
{"zip_code":"6894412","kana_pref":"ﾄｯﾄﾘｹﾝ","kana_city":"ﾋﾉｸﾞﾝｺｳﾌﾁｮｳ","kana_address":"ｼﾓﾔｽｲ","pref":"鳥取県","city":"日野郡江府町","address":"下安井"},
{"zip_code":"6894413","kana_pref":"ﾄｯﾄﾘｹﾝ","kana_city":"ﾋﾉｸﾞﾝｺｳﾌﾁｮｳ","kana_address":"ｽｶﾞｻｷ","pref":"鳥取県","city":"日野郡江府町","address":"洲河崎"},
{"zip_code":"6894422","kana_pref":"ﾄｯﾄﾘｹﾝ","kana_city":"ﾋﾉｸﾞﾝｺｳﾌﾁｮｳ","kana_address":"ｽｷﾞﾀﾆ","pref":"鳥取県","city":"日野郡江府町","address":"杉谷"},
{"zip_code":"6894426","kana_pref":"ﾄｯﾄﾘｹﾝ","kana_city":"ﾋﾉｸﾞﾝｺｳﾌﾁｮｳ","kana_address":"ｽｹｻﾜ","pref":"鳥取県","city":"日野郡江府町","address":"助沢"},
{"zip_code":"6894414","kana_pref":"ﾄｯﾄﾘｹﾝ","kana_city":"ﾋﾉｸﾞﾝｺｳﾌﾁｮｳ","kana_address":"ﾏﾀﾉ","pref":"鳥取県","city":"日野郡江府町","address":"俣野"},
{"zip_code":"6894424","kana_pref":"ﾄｯﾄﾘｹﾝ","kana_city":"ﾋﾉｸﾞﾝｺｳﾌﾁｮｳ","kana_address":"ﾐﾂｸｴ","pref":"鳥取県","city":"日野郡江府町","address":"御机"},
{"zip_code":"6894421","kana_pref":"ﾄｯﾄﾘｹﾝ","kana_city":"ﾋﾉｸﾞﾝｺｳﾌﾁｮｳ","kana_address":"ﾐﾔｲﾁ","pref":"鳥取県","city":"日野郡江府町","address":"宮市"},
{"zip_code":"6894423","kana_pref":"ﾄｯﾄﾘｹﾝ","kana_city":"ﾋﾉｸﾞﾝｺｳﾌﾁｮｳ","kana_address":"ﾐﾖｳ","pref":"鳥取県","city":"日野郡江府町","address":"美用"},
{"zip_code":"6894411","kana_pref":"ﾄｯﾄﾘｹﾝ","kana_city":"ﾋﾉｸﾞﾝｺｳﾌﾁｮｳ","kana_address":"ﾑｺ","pref":"鳥取県","city":"日野郡江府町","address":"武庫"},
{"zip_code":"6894433","kana_pref":"ﾄｯﾄﾘｹﾝ","kana_city":"ﾋﾉｸﾞﾝｺｳﾌﾁｮｳ","kana_address":"ﾖｼﾊﾗ","pref":"鳥取県","city":"日野郡江府町","address":"吉原"}]}