{"zip_code":[
{"zip_code":"6900000","kana_pref":"ｼﾏﾈｹﾝ","kana_city":"ﾏﾂｴｼ","kana_address":"","pref":"島根県","city":"松江市","address":""},
{"zip_code":"6900261","kana_pref":"ｼﾏﾈｹﾝ","kana_city":"ﾏﾂｴｼ","kana_address":"ｱｲｶﾁｮｳ","pref":"島根県","city":"松江市","address":"秋鹿町"},
{"zip_code":"6900022","kana_pref":"ｼﾏﾈｹﾝ","kana_city":"ﾏﾂｴｼ","kana_address":"ｱｵﾊﾞﾀﾞｲ","pref":"島根県","city":"松江市","address":"青葉台"},
{"zip_code":"6900015","kana_pref":"ｼﾏﾈｹﾝ","kana_city":"ﾏﾂｴｼ","kana_address":"ｱｹﾞﾉｷﾞ","pref":"島根県","city":"松江市","address":"上乃木"},
{"zip_code":"6900834","kana_pref":"ｼﾏﾈｹﾝ","kana_city":"ﾏﾂｴｼ","kana_address":"ｱｻｸﾐﾁｮｳ","pref":"島根県","city":"松江市","address":"朝酌町"},
{"zip_code":"6900003","kana_pref":"ｼﾏﾈｹﾝ","kana_city":"ﾏﾂｴｼ","kana_address":"ｱｻﾋﾏﾁ","pref":"島根県","city":"松江市","address":"朝日町"},
{"zip_code":"6900027","kana_pref":"ｼﾏﾈｹﾝ","kana_city":"ﾏﾂｴｼ","kana_address":"ｲｳﾁｮｳ","pref":"島根県","city":"松江市","address":"意宇町"},
{"zip_code":"6900881","kana_pref":"ｼﾏﾈｹﾝ","kana_city":"ﾏﾂｴｼ","kana_address":"ｲｼﾊﾞｼﾁｮｳ","pref":"島根県","city":"松江市","address":"石橋町"},
{"zip_code":"6900006","kana_pref":"ｼﾏﾈｹﾝ","kana_city":"ﾏﾂｴｼ","kana_address":"ｲｾﾐﾔﾁｮｳ","pref":"島根県","city":"松江市","address":"伊勢宮町"},
{"zip_code":"6900034","kana_pref":"ｼﾏﾈｹﾝ","kana_city":"ﾏﾂｴｼ","kana_address":"ｲﾁﾉﾀﾆﾁｮｳ","pref":"島根県","city":"松江市","address":"一の谷町"},
{"zip_code":"6900062","kana_pref":"ｼﾏﾈｹﾝ","kana_city":"ﾏﾂｴｼ","kana_address":"ｳｵﾏﾁ","pref":"島根県","city":"松江市","address":"魚町"},
{"zip_code":"6900869","kana_pref":"ｼﾏﾈｹﾝ","kana_city":"ﾏﾂｴｼ","kana_address":"ｳｸﾞｲｽﾀﾞｲ","pref":"島根県","city":"松江市","address":"うぐいす台"},
{"zip_code":"6900131","kana_pref":"ｼﾏﾈｹﾝ","kana_city":"ﾏﾂｴｼ","kana_address":"ｳﾁﾃﾞﾁｮｳ","pref":"島根県","city":"松江市","address":"打出町"},
{"zip_code":"6900873","kana_pref":"ｼﾏﾈｹﾝ","kana_city":"ﾏﾂｴｼ","kana_address":"ｳﾁﾅｶﾊﾞﾗﾁｮｳ","pref":"島根県","city":"松江市","address":"内中原町"},
{"zip_code":"6901115","kana_pref":"ｼﾏﾈｹﾝ","kana_city":"ﾏﾂｴｼ","kana_address":"ｵｳﾁｮｳ","pref":"島根県","city":"松江市","address":"邑生町"},
{"zip_code":"6900832","kana_pref":"ｼﾏﾈｹﾝ","kana_city":"ﾏﾂｴｼ","kana_address":"ｵｵｲﾁｮｳ","pref":"島根県","city":"松江市","address":"大井町"},
{"zip_code":"6900263","kana_pref":"ｼﾏﾈｹﾝ","kana_city":"ﾏﾂｴｼ","kana_address":"ｵｵｶﾞｷﾁｮｳ","pref":"島根県","city":"松江市","address":"大垣町"},
{"zip_code":"6900032","kana_pref":"ｼﾏﾈｹﾝ","kana_city":"ﾏﾂｴｼ","kana_address":"ｵｵｸｻﾁｮｳ","pref":"島根県","city":"松江市","address":"大草町"},
{"zip_code":"6900264","kana_pref":"ｼﾏﾈｹﾝ","kana_city":"ﾏﾂｴｼ","kana_address":"ｵｵﾉﾁｮｳ","pref":"島根県","city":"松江市","address":"大野町"},
{"zip_code":"6900033","kana_pref":"ｼﾏﾈｹﾝ","kana_city":"ﾏﾂｴｼ","kana_address":"ｵｵﾊﾞﾁｮｳ","pref":"島根県","city":"松江市","address":"大庭町"},
{"zip_code":"6900831","kana_pref":"ｼﾏﾈｹﾝ","kana_city":"ﾏﾂｴｼ","kana_address":"ｵｵﾐｻｷﾁｮｳ","pref":"島根県","city":"松江市","address":"大海崎町"},
{"zip_code":"6900262","kana_pref":"ｼﾏﾈｹﾝ","kana_city":"ﾏﾂｴｼ","kana_address":"ｵｶﾓﾄﾁｮｳ","pref":"島根県","city":"松江市","address":"岡本町"},
{"zip_code":"6900872","kana_pref":"ｼﾏﾈｹﾝ","kana_city":"ﾏﾂｴｼ","kana_address":"ｵｸﾀﾞﾆﾁｮｳ","pref":"島根県","city":"松江市","address":"奥谷町"},
{"zip_code":"6900007","kana_pref":"ｼﾏﾈｹﾝ","kana_city":"ﾏﾂｴｼ","kana_address":"ｵﾃｾﾝﾊﾞﾁｮｳ","pref":"島根県","city":"松江市","address":"御手船場町"},
{"zip_code":"6900266","kana_pref":"ｼﾏﾈｹﾝ","kana_city":"ﾏﾂｴｼ","kana_address":"ｵﾉｾﾞﾁｮｳ","pref":"島根県","city":"松江市","address":"魚瀬町"},
{"zip_code":"6900848","kana_pref":"ｼﾏﾈｹﾝ","kana_city":"ﾏﾂｴｼ","kana_address":"ｵﾏﾁ","pref":"島根県","city":"松江市","address":"苧町"},
{"zip_code":"6900825","kana_pref":"ｼﾏﾈｹﾝ","kana_city":"ﾏﾂｴｼ","kana_address":"ｶﾞｸｴﾝ","pref":"島根県","city":"松江市","address":"学園"},
{"zip_code":"6900826","kana_pref":"ｼﾏﾈｹﾝ","kana_city":"ﾏﾂｴｼ","kana_address":"ｶﾞｸｴﾝﾐﾅﾐ","pref":"島根県","city":"松江市","address":"学園南"},
{"zip_code":"6900322","kana_pref":"ｼﾏﾈｹﾝ","kana_city":"ﾏﾂｴｼ","kana_address":"ｶｼﾏﾁｮｳｴﾄﾓ","pref":"島根県","city":"松江市","address":"鹿島町恵曇"},
{"zip_code":"6900324","kana_pref":"ｼﾏﾈｹﾝ","kana_city":"ﾏﾂｴｼ","kana_address":"ｶｼﾏﾁｮｳｶﾀｸ","pref":"島根県","city":"松江市","address":"鹿島町片句"},
{"zip_code":"6900801","kana_pref":"ｼﾏﾈｹﾝ","kana_city":"ﾏﾂｴｼ","kana_address":"ｶｼﾏﾁｮｳｶﾐｺｳﾌﾞ","pref":"島根県","city":"松江市","address":"鹿島町上講武"},
{"zip_code":"6900804","kana_pref":"ｼﾏﾈｹﾝ","kana_city":"ﾏﾂｴｼ","kana_address":"ｶｼﾏﾁｮｳｷﾀｺｳﾌﾞ","pref":"島根県","city":"松江市","address":"鹿島町北講武"},
{"zip_code":"6900333","kana_pref":"ｼﾏﾈｹﾝ","kana_city":"ﾏﾂｴｼ","kana_address":"ｶｼﾏﾁｮｳｺｳﾗ","pref":"島根県","city":"松江市","address":"鹿島町古浦"},
{"zip_code":"6900332","kana_pref":"ｼﾏﾈｹﾝ","kana_city":"ﾏﾂｴｼ","kana_address":"ｶｼﾏﾁｮｳｻﾀﾞﾎﾝｺﾞｳ","pref":"島根県","city":"松江市","address":"鹿島町佐陀本郷"},
{"zip_code":"6900331","kana_pref":"ｼﾏﾈｹﾝ","kana_city":"ﾏﾂｴｼ","kana_address":"ｶｼﾏﾁｮｳｻﾀﾞﾐﾔｳﾁ","pref":"島根県","city":"松江市","address":"鹿島町佐陀宮内"},
{"zip_code":"6900321","kana_pref":"ｼﾏﾈｹﾝ","kana_city":"ﾏﾂｴｼ","kana_address":"ｶｼﾏﾁｮｳﾀｹﾀﾞｲ","pref":"島根県","city":"松江市","address":"鹿島町武代"},
{"zip_code":"6900323","kana_pref":"ｼﾏﾈｹﾝ","kana_city":"ﾏﾂｴｼ","kana_address":"ｶｼﾏﾁｮｳﾀﾕ","pref":"島根県","city":"松江市","address":"鹿島町手結"},
{"zip_code":"6900411","kana_pref":"ｼﾏﾈｹﾝ","kana_city":"ﾏﾂｴｼ","kana_address":"ｶｼﾏﾁｮｳﾐﾂ","pref":"島根県","city":"松江市","address":"鹿島町御津"},
{"zip_code":"6900802","kana_pref":"ｼﾏﾈｹﾝ","kana_city":"ﾏﾂｴｼ","kana_address":"ｶｼﾏﾁｮｳﾐﾅﾐｺｳﾌﾞ","pref":"島根県","city":"松江市","address":"鹿島町南講武"},
{"zip_code":"6900803","kana_pref":"ｼﾏﾈｹﾝ","kana_city":"ﾏﾂｴｼ","kana_address":"ｶｼﾏﾁｮｳﾐｮｳﾌﾞﾝ","pref":"島根県","city":"松江市","address":"鹿島町名分"},
{"zip_code":"6900877","kana_pref":"ｼﾏﾈｹﾝ","kana_city":"ﾏﾂｴｼ","kana_address":"ｶｽｶﾞﾁｮｳ","pref":"島根県","city":"松江市","address":"春日町"},
{"zip_code":"6900847","kana_pref":"ｼﾏﾈｹﾝ","kana_city":"ﾏﾂｴｼ","kana_address":"ｶﾀﾊﾗﾁｮｳ","pref":"島根県","city":"松江市","address":"片原町"},
{"zip_code":"6901104","kana_pref":"ｼﾏﾈｹﾝ","kana_city":"ﾏﾂｴｼ","kana_address":"ｶﾐｳﾍﾞｵﾁｮｳ","pref":"島根県","city":"松江市","address":"上宇部尾町"},
{"zip_code":"6900265","kana_pref":"ｼﾏﾈｹﾝ","kana_city":"ﾏﾂｴｼ","kana_address":"ｶﾐｵｵﾉﾁｮｳ","pref":"島根県","city":"松江市","address":"上大野町"},
{"zip_code":"6900867","kana_pref":"ｼﾏﾈｹﾝ","kana_city":"ﾏﾂｴｼ","kana_address":"ｶﾐｻﾀﾞﾁｮｳ","pref":"島根県","city":"松江市","address":"上佐陀町"},
{"zip_code":"6900821","kana_pref":"ｼﾏﾈｹﾝ","kana_city":"ﾏﾂｴｼ","kana_address":"ｶﾐﾋｶﾞｼｶﾜﾂﾁｮｳ","pref":"島根県","city":"松江市","address":"上東川津町"},
{"zip_code":"6901102","kana_pref":"ｼﾏﾈｹﾝ","kana_city":"ﾏﾂｴｼ","kana_address":"ｶﾐﾎﾝｼﾞｮｳﾁｮｳ","pref":"島根県","city":"松江市","address":"上本庄町"},
{"zip_code":"6900812","kana_pref":"ｼﾏﾈｹﾝ","kana_city":"ﾏﾂｴｼ","kana_address":"ｶﾜﾊﾗﾁｮｳ","pref":"島根県","city":"松江市","address":"川原町"},
{"zip_code":"6900883","kana_pref":"ｼﾏﾈｹﾝ","kana_city":"ﾏﾂｴｼ","kana_address":"ｷﾀﾀﾏﾁ","pref":"島根県","city":"松江市","address":"北田町"},
{"zip_code":"6900888","kana_pref":"ｼﾏﾈｹﾝ","kana_city":"ﾏﾂｴｼ","kana_address":"ｷﾀﾎﾘﾁｮｳ","pref":"島根県","city":"松江市","address":"北堀町"},
{"zip_code":"6900859","kana_pref":"ｼﾏﾈｹﾝ","kana_city":"ﾏﾂｴｼ","kana_address":"ｸﾔﾁｮｳ","pref":"島根県","city":"松江市","address":"国屋町"},
{"zip_code":"6900876","kana_pref":"ｼﾏﾈｹﾝ","kana_city":"ﾏﾂｴｼ","kana_address":"ｸﾛﾀﾞﾁｮｳ","pref":"島根県","city":"松江市","address":"黒田町"},
{"zip_code":"6900121","kana_pref":"ｼﾏﾈｹﾝ","kana_city":"ﾏﾂｴｼ","kana_address":"ｺｼﾁｮｳ","pref":"島根県","city":"松江市","address":"古志町"},
{"zip_code":"6900012","kana_pref":"ｼﾏﾈｹﾝ","kana_city":"ﾏﾂｴｼ","kana_address":"ｺｼﾊﾞﾗ","pref":"島根県","city":"松江市","address":"古志原"},
{"zip_code":"6900013","kana_pref":"ｼﾏﾈｹﾝ","kana_city":"ﾏﾂｴｼ","kana_address":"ｺｼﾊﾞﾗﾁｮｳ","pref":"島根県","city":"松江市","address":"古志原町"},
{"zip_code":"6900151","kana_pref":"ｼﾏﾈｹﾝ","kana_city":"ﾏﾂｴｼ","kana_address":"ｺｿｼﾁｮｳ","pref":"島根県","city":"松江市","address":"古曽志町"},
{"zip_code":"6900856","kana_pref":"ｼﾏﾈｹﾝ","kana_city":"ﾏﾂｴｼ","kana_address":"ｺﾓﾂﾞﾁｮｳ","pref":"島根県","city":"松江市","address":"薦津町"},
{"zip_code":"6900056","kana_pref":"ｼﾏﾈｹﾝ","kana_city":"ﾏﾂｴｼ","kana_address":"ｻｲｶﾏﾁ","pref":"島根県","city":"松江市","address":"雑賀町"},
{"zip_code":"6900041","kana_pref":"ｼﾏﾈｹﾝ","kana_city":"ﾏﾂｴｼ","kana_address":"ｻｲﾜｲﾏﾁ","pref":"島根県","city":"松江市","address":"幸町"},
{"zip_code":"6900042","kana_pref":"ｼﾏﾈｹﾝ","kana_city":"ﾏﾂｴｼ","kana_address":"ｻｶｴﾏﾁ","pref":"島根県","city":"松江市","address":"栄町"},
{"zip_code":"6900813","kana_pref":"ｼﾏﾈｹﾝ","kana_city":"ﾏﾂｴｼ","kana_address":"ｻｶﾓﾄﾁｮｳ","pref":"島根県","city":"松江市","address":"坂本町"},
{"zip_code":"6900035","kana_pref":"ｼﾏﾈｹﾝ","kana_city":"ﾏﾂｴｼ","kana_address":"ｻｸｻﾁｮｳ","pref":"島根県","city":"松江市","address":"佐草町"},
{"zip_code":"6900402","kana_pref":"ｼﾏﾈｹﾝ","kana_city":"ﾏﾂｴｼ","kana_address":"ｼﾏﾈﾁｮｳｵﾜｼ","pref":"島根県","city":"松江市","address":"島根町大芦"},
{"zip_code":"6900401","kana_pref":"ｼﾏﾈｹﾝ","kana_city":"ﾏﾂｴｼ","kana_address":"ｼﾏﾈﾁｮｳｶｶ","pref":"島根県","city":"松江市","address":"島根町加賀"},
{"zip_code":"6901213","kana_pref":"ｼﾏﾈｹﾝ","kana_city":"ﾏﾂｴｼ","kana_address":"ｼﾏﾈﾁｮｳﾀｺ","pref":"島根県","city":"松江市","address":"島根町多古"},
{"zip_code":"6901211","kana_pref":"ｼﾏﾈｹﾝ","kana_city":"ﾏﾂｴｼ","kana_address":"ｼﾏﾈﾁｮｳﾉｲ","pref":"島根県","city":"松江市","address":"島根町野井"},
{"zip_code":"6901212","kana_pref":"ｼﾏﾈｹﾝ","kana_city":"ﾏﾂｴｼ","kana_address":"ｼﾏﾈﾁｮｳﾉﾅﾐ","pref":"島根県","city":"松江市","address":"島根町野波"},
{"zip_code":"6900866","kana_pref":"ｼﾏﾈｹﾝ","kana_city":"ﾏﾂｴｼ","kana_address":"ｼﾓｻﾀﾞﾁｮｳ","pref":"島根県","city":"松江市","address":"下佐陀町"},
{"zip_code":"6900822","kana_pref":"ｼﾏﾈｹﾝ","kana_city":"ﾏﾂｴｼ","kana_address":"ｼﾓﾋｶﾞｼｶﾜﾂﾁｮｳ","pref":"島根県","city":"松江市","address":"下東川津町"},
{"zip_code":"6900141","kana_pref":"ｼﾏﾈｹﾝ","kana_city":"ﾏﾂｴｼ","kana_address":"ｼｮｳｼﾞｮｳﾁｮｳ","pref":"島根県","city":"松江市","address":"荘成町"},
{"zip_code":"6900868","kana_pref":"ｼﾏﾈｹﾝ","kana_city":"ﾏﾂｴｼ","kana_address":"ｼｮｳﾎｸﾀﾞｲ","pref":"島根県","city":"松江市","address":"淞北台"},
{"zip_code":"6900061","kana_pref":"ｼﾏﾈｹﾝ","kana_city":"ﾏﾂｴｼ","kana_address":"ｼﾗｶﾀﾎﾝﾏﾁ","pref":"島根県","city":"松江市","address":"白潟本町"},
{"zip_code":"6900054","kana_pref":"ｼﾏﾈｹﾝ","kana_city":"ﾏﾂｴｼ","kana_address":"ｼﾝｻｲｶﾏﾁ","pref":"島根県","city":"松江市","address":"新雑賀町"},
{"zip_code":"6901103","kana_pref":"ｼﾏﾈｹﾝ","kana_city":"ﾏﾂｴｼ","kana_address":"ｼﾝｼﾞｮｳﾁｮｳ","pref":"島根県","city":"松江市","address":"新庄町"},
{"zip_code":"6900057","kana_pref":"ｼﾏﾈｹﾝ","kana_city":"ﾏﾂｴｼ","kana_address":"ｼﾝﾏﾁ","pref":"島根県","city":"松江市","address":"新町"},
{"zip_code":"6900846","kana_pref":"ｼﾏﾈｹﾝ","kana_city":"ﾏﾂｴｼ","kana_address":"ｽｴﾂｸﾞﾁｮｳ","pref":"島根県","city":"松江市","address":"末次町"},
{"zip_code":"6900843","kana_pref":"ｼﾏﾈｹﾝ","kana_city":"ﾏﾂｴｼ","kana_address":"ｽｴﾂｸﾞﾎﾝﾏﾁ","pref":"島根県","city":"松江市","address":"末次本町"},
{"zip_code":"6900824","kana_pref":"ｼﾏﾈｹﾝ","kana_city":"ﾏﾂｴｼ","kana_address":"ｽｶﾞﾀﾁｮｳ","pref":"島根県","city":"松江市","address":"菅田町"},
{"zip_code":"6900878","kana_pref":"ｼﾏﾈｹﾝ","kana_city":"ﾏﾂｴｼ","kana_address":"ｽﾅｺﾞﾁｮｳ","pref":"島根県","city":"松江市","address":"砂子町"},
{"zip_code":"6900049","kana_pref":"ｼﾏﾈｹﾝ","kana_city":"ﾏﾂｴｼ","kana_address":"ｿﾃﾞｼﾁｮｳ","pref":"島根県","city":"松江市","address":"袖師町"},
{"zip_code":"6900875","kana_pref":"ｼﾏﾈｹﾝ","kana_city":"ﾏﾂｴｼ","kana_address":"ｿﾄﾅｶﾊﾞﾗﾁｮｳ","pref":"島根県","city":"松江市","address":"外中原町"},
{"zip_code":"6900002","kana_pref":"ｼﾏﾈｹﾝ","kana_city":"ﾏﾂｴｼ","kana_address":"ﾀｲｼｮｳﾏﾁ","pref":"島根県","city":"松江市","address":"大正町"},
{"zip_code":"6900882","kana_pref":"ｼﾏﾈｹﾝ","kana_city":"ﾏﾂｴｼ","kana_address":"ﾀﾞｲﾘﾝﾁｮｳ","pref":"島根県","city":"松江市","address":"大輪町"},
{"zip_code":"6901113","kana_pref":"ｼﾏﾈｹﾝ","kana_city":"ﾏﾂｴｼ","kana_address":"ﾀｽﾐﾁｮｳ","pref":"島根県","city":"松江市","address":"手角町"},
{"zip_code":"6900052","kana_pref":"ｼﾏﾈｹﾝ","kana_city":"ﾏﾂｴｼ","kana_address":"ﾀﾃﾏﾁ","pref":"島根県","city":"松江市","address":"竪町"},
{"zip_code":"6900058","kana_pref":"ｼﾏﾈｹﾝ","kana_city":"ﾏﾂｴｼ","kana_address":"ﾀﾜﾔﾏﾁｮｳ","pref":"島根県","city":"松江市","address":"田和山町"},
{"zip_code":"6900023","kana_pref":"ｼﾏﾈｹﾝ","kana_city":"ﾏﾂｴｼ","kana_address":"ﾁｸﾔﾁｮｳ","pref":"島根県","city":"松江市","address":"竹矢町"},
{"zip_code":"6900852","kana_pref":"ｼﾏﾈｹﾝ","kana_city":"ﾏﾂｴｼ","kana_address":"ﾁﾄﾞﾘﾁｮｳ","pref":"島根県","city":"松江市","address":"千鳥町"},
{"zip_code":"6900055","kana_pref":"ｼﾏﾈｹﾝ","kana_city":"ﾏﾂｴｼ","kana_address":"ﾂﾀﾞﾏﾁ","pref":"島根県","city":"松江市","address":"津田町"},
{"zip_code":"6900063","kana_pref":"ｼﾏﾈｹﾝ","kana_city":"ﾏﾂｴｼ","kana_address":"ﾃﾗﾏﾁ","pref":"島根県","city":"松江市","address":"寺町"},
{"zip_code":"6900064","kana_pref":"ｼﾏﾈｹﾝ","kana_city":"ﾏﾂｴｼ","kana_address":"ﾃﾝｼﾞﾝﾏﾁ","pref":"島根県","city":"松江市","address":"天神町"},
{"zip_code":"6900851","kana_pref":"ｼﾏﾈｹﾝ","kana_city":"ﾏﾂｴｼ","kana_address":"ﾄﾞｳｶﾞﾀﾁｮｳ","pref":"島根県","city":"松江市","address":"堂形町"},
{"zip_code":"6900887","kana_pref":"ｼﾏﾈｹﾝ","kana_city":"ﾏﾂｴｼ","kana_address":"ﾄﾉﾏﾁ","pref":"島根県","city":"松江市","address":"殿町"},
{"zip_code":"6900874","kana_pref":"ｼﾏﾈｹﾝ","kana_city":"ﾏﾂｴｼ","kana_address":"ﾅｶﾊﾗﾁｮｳ","pref":"島根県","city":"松江市","address":"中原町"},
{"zip_code":"6901112","kana_pref":"ｼﾏﾈｹﾝ","kana_city":"ﾏﾂｴｼ","kana_address":"ﾅｶﾞﾐﾁｮｳ","pref":"島根県","city":"松江市","address":"長海町"},
{"zip_code":"6900065","kana_pref":"ｼﾏﾈｹﾝ","kana_city":"ﾏﾂｴｼ","kana_address":"ﾅﾀﾞﾏﾁ","pref":"島根県","city":"松江市","address":"灘町"},
{"zip_code":"6900854","kana_pref":"ｼﾏﾈｹﾝ","kana_city":"ﾏﾂｴｼ","kana_address":"ﾅﾝﾍﾟｲﾀﾞｲ","pref":"島根県","city":"松江市","address":"南平台"},
{"zip_code":"6900865","kana_pref":"ｼﾏﾈｹﾝ","kana_city":"ﾏﾂｴｼ","kana_address":"ﾆｼｲｸﾏﾁｮｳ","pref":"島根県","city":"松江市","address":"西生馬町"},
{"zip_code":"6900037","kana_pref":"ｼﾏﾈｹﾝ","kana_city":"ﾏﾂｴｼ","kana_address":"ﾆｼｲﾝﾍﾞﾁｮｳ","pref":"島根県","city":"松江市","address":"西忌部町"},
{"zip_code":"6900835","kana_pref":"ｼﾏﾈｹﾝ","kana_city":"ﾏﾂｴｼ","kana_address":"ﾆｼｵﾁｮｳ","pref":"島根県","city":"松江市","address":"西尾町"},
{"zip_code":"6900823","kana_pref":"ｼﾏﾈｹﾝ","kana_city":"ﾏﾂｴｼ","kana_address":"ﾆｼｶﾜﾂﾁｮｳ","pref":"島根県","city":"松江市","address":"西川津町"},
{"zip_code":"6900142","kana_pref":"ｼﾏﾈｹﾝ","kana_city":"ﾏﾂｴｼ","kana_address":"ﾆｼﾀﾞﾆﾁｮｳ","pref":"島根県","city":"松江市","address":"西谷町"},
{"zip_code":"6900845","kana_pref":"ｼﾏﾈｹﾝ","kana_city":"ﾏﾂｴｼ","kana_address":"ﾆｼﾁｬﾏﾁ","pref":"島根県","city":"松江市","address":"西茶町"},
{"zip_code":"6900017","kana_pref":"ｼﾏﾈｹﾝ","kana_city":"ﾏﾂｴｼ","kana_address":"ﾆｼﾂﾀﾞ","pref":"島根県","city":"松江市","address":"西津田"},
{"zip_code":"6900132","kana_pref":"ｼﾏﾈｹﾝ","kana_city":"ﾏﾂｴｼ","kana_address":"ﾆｼﾅｶﾞｴﾁｮｳ","pref":"島根県","city":"松江市","address":"西長江町"},
{"zip_code":"6900122","kana_pref":"ｼﾏﾈｹﾝ","kana_city":"ﾏﾂｴｼ","kana_address":"ﾆｼﾊﾏｻﾀﾞﾁｮｳ","pref":"島根県","city":"松江市","address":"西浜佐陀町"},
{"zip_code":"6900860","kana_pref":"ｼﾏﾈｹﾝ","kana_city":"ﾏﾂｴｼ","kana_address":"ﾆｼﾎｯｷﾁｮｳ","pref":"島根県","city":"松江市","address":"西法吉町"},
{"zip_code":"6900815","kana_pref":"ｼﾏﾈｹﾝ","kana_city":"ﾏﾂｴｼ","kana_address":"ﾆｼﾓﾁﾀﾞﾁｮｳ","pref":"島根県","city":"松江市","address":"西持田町"},
{"zip_code":"6900048","kana_pref":"ｼﾏﾈｹﾝ","kana_city":"ﾏﾂｴｼ","kana_address":"ﾆｼﾖﾒｼﾏ","pref":"島根県","city":"松江市","address":"西嫁島"},
{"zip_code":"6900046","kana_pref":"ｼﾏﾈｹﾝ","kana_city":"ﾏﾂｴｼ","kana_address":"ﾉｷﾞﾌｸﾄﾐﾁｮｳ","pref":"島根県","city":"松江市","address":"乃木福富町"},
{"zip_code":"6900045","kana_pref":"ｼﾏﾈｹﾝ","kana_city":"ﾏﾂｴｼ","kana_address":"ﾉｼﾗﾁｮｳ","pref":"島根県","city":"松江市","address":"乃白町"},
{"zip_code":"6901114","kana_pref":"ｼﾏﾈｹﾝ","kana_city":"ﾏﾂｴｼ","kana_address":"ﾉﾊﾞﾗﾁｮｳ","pref":"島根県","city":"松江市","address":"野原町"},
{"zip_code":"6900004","kana_pref":"ｼﾏﾈｹﾝ","kana_city":"ﾏﾂｴｼ","kana_address":"ﾊﾁｹﾝﾔﾏﾁ","pref":"島根県","city":"松江市","address":"八軒屋町"},
{"zip_code":"6900855","kana_pref":"ｼﾏﾈｹﾝ","kana_city":"ﾏﾂｴｼ","kana_address":"ﾊﾏｻﾀﾞﾁｮｳ","pref":"島根県","city":"松江市","address":"浜佐田町"},
{"zip_code":"6900044","kana_pref":"ｼﾏﾈｹﾝ","kana_city":"ﾏﾂｴｼ","kana_address":"ﾊﾏﾉｷﾞ","pref":"島根県","city":"松江市","address":"浜乃木"},
{"zip_code":"6900001","kana_pref":"ｼﾏﾈｹﾝ","kana_city":"ﾏﾂｴｼ","kana_address":"ﾋｶﾞｼｱｻﾋﾏﾁ","pref":"島根県","city":"松江市","address":"東朝日町"},
{"zip_code":"6900864","kana_pref":"ｼﾏﾈｹﾝ","kana_city":"ﾏﾂｴｼ","kana_address":"ﾋｶﾞｼｲｸﾏﾁｮｳ","pref":"島根県","city":"松江市","address":"東生馬町"},
{"zip_code":"6900036","kana_pref":"ｼﾏﾈｹﾝ","kana_city":"ﾏﾂｴｼ","kana_address":"ﾋｶﾞｼｲﾝﾍﾞﾁｮｳ","pref":"島根県","city":"松江市","address":"東忌部町"},
{"zip_code":"6900871","kana_pref":"ｼﾏﾈｹﾝ","kana_city":"ﾏﾂｴｼ","kana_address":"ﾋｶﾞｼｵｸﾀﾞﾆﾁｮｳ","pref":"島根県","city":"松江市","address":"東奥谷町"},
{"zip_code":"6900844","kana_pref":"ｼﾏﾈｹﾝ","kana_city":"ﾏﾂｴｼ","kana_address":"ﾋｶﾞｼﾁｬﾏﾁ","pref":"島根県","city":"松江市","address":"東茶町"},
{"zip_code":"6900011","kana_pref":"ｼﾏﾈｹﾝ","kana_city":"ﾏﾂｴｼ","kana_address":"ﾋｶﾞｼﾂﾀﾞﾁｮｳ","pref":"島根県","city":"松江市","address":"東津田町"},
{"zip_code":"6900133","kana_pref":"ｼﾏﾈｹﾝ","kana_city":"ﾏﾂｴｼ","kana_address":"ﾋｶﾞｼﾅｶﾞｴﾁｮｳ","pref":"島根県","city":"松江市","address":"東長江町"},
{"zip_code":"6900842","kana_pref":"ｼﾏﾈｹﾝ","kana_city":"ﾏﾂｴｼ","kana_address":"ﾋｶﾞｼﾎﾝﾏﾁ","pref":"島根県","city":"松江市","address":"東本町"},
{"zip_code":"6900814","kana_pref":"ｼﾏﾈｹﾝ","kana_city":"ﾏﾂｴｼ","kana_address":"ﾋｶﾞｼﾓﾁﾀﾞﾁｮｳ","pref":"島根県","city":"松江市","address":"東持田町"},
{"zip_code":"6900862","kana_pref":"ｼﾏﾈｹﾝ","kana_city":"ﾏﾂｴｼ","kana_address":"ﾋﾂｶﾞｵｶ","pref":"島根県","city":"松江市","address":"比津が丘"},
{"zip_code":"6900863","kana_pref":"ｼﾏﾈｹﾝ","kana_city":"ﾏﾂｴｼ","kana_address":"ﾋﾂﾁｮｳ","pref":"島根県","city":"松江市","address":"比津町"},
{"zip_code":"6900833","kana_pref":"ｼﾏﾈｹﾝ","kana_city":"ﾏﾂｴｼ","kana_address":"ﾌｸﾄﾐﾁｮｳ","pref":"島根県","city":"松江市","address":"福富町"},
{"zip_code":"6900811","kana_pref":"ｼﾏﾈｹﾝ","kana_city":"ﾏﾂｴｼ","kana_address":"ﾌｸﾊﾗﾁｮｳ","pref":"島根県","city":"松江市","address":"福原町"},
{"zip_code":"6900026","kana_pref":"ｼﾏﾈｹﾝ","kana_city":"ﾏﾂｴｼ","kana_address":"ﾌｼﾞﾐﾁｮｳ","pref":"島根県","city":"松江市","address":"富士見町"},
{"zip_code":"6900038","kana_pref":"ｼﾏﾈｹﾝ","kana_city":"ﾏﾂｴｼ","kana_address":"ﾍｲｾｲﾁｮｳ","pref":"島根県","city":"松江市","address":"平成町"},
{"zip_code":"6900816","kana_pref":"ｼﾏﾈｹﾝ","kana_city":"ﾏﾂｴｼ","kana_address":"ﾎｸﾘｮｳﾁｮｳ","pref":"島根県","city":"松江市","address":"北陵町"},
{"zip_code":"6900861","kana_pref":"ｼﾏﾈｹﾝ","kana_city":"ﾏﾂｴｼ","kana_address":"ﾎｯｷﾁｮｳ","pref":"島根県","city":"松江市","address":"法吉町"},
{"zip_code":"6900886","kana_pref":"ｼﾏﾈｹﾝ","kana_city":"ﾏﾂｴｼ","kana_address":"ﾎﾛﾏﾁ","pref":"島根県","city":"松江市","address":"母衣町"},
{"zip_code":"6900053","kana_pref":"ｼﾏﾈｹﾝ","kana_city":"ﾏﾂｴｼ","kana_address":"ﾎﾝｺﾞｳﾁｮｳ","pref":"島根県","city":"松江市","address":"本郷町"},
{"zip_code":"6901101","kana_pref":"ｼﾏﾈｹﾝ","kana_city":"ﾏﾂｴｼ","kana_address":"ﾎﾝｼﾞｮｳﾁｮｳ","pref":"島根県","city":"松江市","address":"本庄町"},
{"zip_code":"6900024","kana_pref":"ｼﾏﾈｹﾝ","kana_city":"ﾏﾂｴｼ","kana_address":"ﾏｶﾀﾁｮｳ","pref":"島根県","city":"松江市","address":"馬潟町"},
{"zip_code":"6901111","kana_pref":"ｼﾏﾈｹﾝ","kana_city":"ﾏﾂｴｼ","kana_address":"ﾏｸﾗｷﾞﾁｮｳ","pref":"島根県","city":"松江市","address":"枕木町"},
{"zip_code":"6900043","kana_pref":"ｼﾏﾈｹﾝ","kana_city":"ﾏﾂｴｼ","kana_address":"ﾏﾂｵﾁｮｳ","pref":"島根県","city":"松江市","address":"松尾町"},
{"zip_code":"6900884","kana_pref":"ｼﾏﾈｹﾝ","kana_city":"ﾏﾂｴｼ","kana_address":"ﾐﾅﾐﾀﾏﾁ","pref":"島根県","city":"松江市","address":"南田町"},
{"zip_code":"6901223","kana_pref":"ｼﾏﾈｹﾝ","kana_city":"ﾏﾂｴｼ","kana_address":"ﾐﾎﾉｾｷﾁｮｳｶｻｳﾗ","pref":"島根県","city":"松江市","address":"美保関町笠浦"},
{"zip_code":"6901315","kana_pref":"ｼﾏﾈｹﾝ","kana_city":"ﾏﾂｴｼ","kana_address":"ﾐﾎﾉｾｷﾁｮｳｶﾀｴ","pref":"島根県","city":"松江市","address":"美保関町片江"},
{"zip_code":"6901221","kana_pref":"ｼﾏﾈｹﾝ","kana_city":"ﾏﾂｴｼ","kana_address":"ﾐﾎﾉｾｷﾁｮｳｷﾀｳﾗ","pref":"島根県","city":"松江市","address":"美保関町北浦"},
{"zip_code":"6901502","kana_pref":"ｼﾏﾈｹﾝ","kana_city":"ﾏﾂｴｼ","kana_address":"ﾐﾎﾉｾｷﾁｮｳｸﾓﾂﾞ","pref":"島根県","city":"松江市","address":"美保関町雲津"},
{"zip_code":"6901311","kana_pref":"ｼﾏﾈｹﾝ","kana_city":"ﾏﾂｴｼ","kana_address":"ﾐﾎﾉｾｷﾁｮｳｼﾁﾙｲ","pref":"島根県","city":"松江市","address":"美保関町七類"},
{"zip_code":"6901313","kana_pref":"ｼﾏﾈｹﾝ","kana_city":"ﾏﾂｴｼ","kana_address":"ﾐﾎﾉｾｷﾁｮｳｼﾓｳﾍﾞｵ","pref":"島根県","city":"松江市","address":"美保関町下宇部尾"},
{"zip_code":"6901314","kana_pref":"ｼﾏﾈｹﾝ","kana_city":"ﾏﾂｴｼ","kana_address":"ﾐﾎﾉｾｷﾁｮｳｽｹﾞｳﾗ","pref":"島根県","city":"松江市","address":"美保関町菅浦"},
{"zip_code":"6901222","kana_pref":"ｼﾏﾈｹﾝ","kana_city":"ﾏﾂｴｼ","kana_address":"ﾐﾎﾉｾｷﾁｮｳﾁｸﾐ","pref":"島根県","city":"松江市","address":"美保関町千酌"},
{"zip_code":"6901504","kana_pref":"ｼﾏﾈｹﾝ","kana_city":"ﾏﾂｴｼ","kana_address":"ﾐﾎﾉｾｷﾁｮｳﾌｸｳﾗ","pref":"島根県","city":"松江市","address":"美保関町福浦"},
{"zip_code":"6901501","kana_pref":"ｼﾏﾈｹﾝ","kana_city":"ﾏﾂｴｼ","kana_address":"ﾐﾎﾉｾｷﾁｮｳﾐﾎﾉｾｷ","pref":"島根県","city":"松江市","address":"美保関町美保関"},
{"zip_code":"6901505","kana_pref":"ｼﾏﾈｹﾝ","kana_city":"ﾏﾂｴｼ","kana_address":"ﾐﾎﾉｾｷﾁｮｳﾓﾘﾔﾏ","pref":"島根県","city":"松江市","address":"美保関町森山"},
{"zip_code":"6901312","kana_pref":"ｼﾏﾈｹﾝ","kana_city":"ﾏﾂｴｼ","kana_address":"ﾐﾎﾉｾｷﾁｮｳﾓﾘﾔﾏ","pref":"島根県","city":"松江市","address":"美保関町森山"},
{"zip_code":"6901503","kana_pref":"ｼﾏﾈｹﾝ","kana_city":"ﾏﾂｴｼ","kana_address":"ﾐﾎﾉｾｷﾁｮｳﾓﾛｸｲ","pref":"島根県","city":"松江市","address":"美保関町諸喰"},
{"zip_code":"6900841","kana_pref":"ｼﾏﾈｹﾝ","kana_city":"ﾏﾂｴｼ","kana_address":"ﾑｺｳｼﾞﾏﾁｮｳ","pref":"島根県","city":"松江市","address":"向島町"},
{"zip_code":"6900014","kana_pref":"ｼﾏﾈｹﾝ","kana_city":"ﾏﾂｴｼ","kana_address":"ﾔｸﾓﾀﾞｲ","pref":"島根県","city":"松江市","address":"八雲台"},
{"zip_code":"6902104","kana_pref":"ｼﾏﾈｹﾝ","kana_city":"ﾏﾂｴｼ","kana_address":"ﾔｸﾓﾁｮｳｸﾏﾉ","pref":"島根県","city":"松江市","address":"八雲町熊野"},
{"zip_code":"6902103","kana_pref":"ｼﾏﾈｹﾝ","kana_city":"ﾏﾂｴｼ","kana_address":"ﾔｸﾓﾁｮｳﾆｼｲﾜｻｶ","pref":"島根県","city":"松江市","address":"八雲町西岩坂"},
{"zip_code":"6902102","kana_pref":"ｼﾏﾈｹﾝ","kana_city":"ﾏﾂｴｼ","kana_address":"ﾔｸﾓﾁｮｳﾋｶﾞｼｲﾜｻｶ","pref":"島根県","city":"松江市","address":"八雲町東岩坂"},
{"zip_code":"6902101","kana_pref":"ｼﾏﾈｹﾝ","kana_city":"ﾏﾂｴｼ","kana_address":"ﾔｸﾓﾁｮｳﾋﾖｼ","pref":"島根県","city":"松江市","address":"八雲町日吉"},
{"zip_code":"6902105","kana_pref":"ｼﾏﾈｹﾝ","kana_city":"ﾏﾂｴｼ","kana_address":"ﾔｸﾓﾁｮｳﾋﾗﾊﾗ","pref":"島根県","city":"松江市","address":"八雲町平原"},
{"zip_code":"6900021","kana_pref":"ｼﾏﾈｹﾝ","kana_city":"ﾏﾂｴｼ","kana_address":"ﾔﾀﾞﾁｮｳ","pref":"島根県","city":"松江市","address":"矢田町"},
{"zip_code":"6901401","kana_pref":"ｼﾏﾈｹﾝ","kana_city":"ﾏﾂｴｼ","kana_address":"ﾔﾂｶﾁｮｳｴｼﾏ","pref":"島根県","city":"松江市","address":"八束町江島"},
{"zip_code":"6901403","kana_pref":"ｼﾏﾈｹﾝ","kana_city":"ﾏﾂｴｼ","kana_address":"ﾔﾂｶﾁｮｳｵｿｴ","pref":"島根県","city":"松江市","address":"八束町遅江"},
{"zip_code":"6901408","kana_pref":"ｼﾏﾈｹﾝ","kana_city":"ﾏﾂｴｼ","kana_address":"ﾔﾂｶﾁｮｳｶﾒｼﾘ","pref":"島根県","city":"松江市","address":"八束町亀尻"},
{"zip_code":"6901407","kana_pref":"ｼﾏﾈｹﾝ","kana_city":"ﾏﾂｴｼ","kana_address":"ﾔﾂｶﾁｮｳﾃﾗﾂﾞ","pref":"島根県","city":"松江市","address":"八束町寺津"},
{"zip_code":"6901405","kana_pref":"ｼﾏﾈｹﾝ","kana_city":"ﾏﾂｴｼ","kana_address":"ﾔﾂｶﾁｮｳﾆｭｳｺｳ","pref":"島根県","city":"松江市","address":"八束町入江"},
{"zip_code":"6901404","kana_pref":"ｼﾏﾈｹﾝ","kana_city":"ﾏﾂｴｼ","kana_address":"ﾔﾂｶﾁｮｳﾊﾆｭｳ","pref":"島根県","city":"松江市","address":"八束町波入"},
{"zip_code":"6901406","kana_pref":"ｼﾏﾈｹﾝ","kana_city":"ﾏﾂｴｼ","kana_address":"ﾔﾂｶﾁｮｳﾌﾀｺﾞ","pref":"島根県","city":"松江市","address":"八束町二子"},
{"zip_code":"6901402","kana_pref":"ｼﾏﾈｹﾝ","kana_city":"ﾏﾂｴｼ","kana_address":"ﾔﾂｶﾁｮｳﾏﾜﾀｼ","pref":"島根県","city":"松江市","address":"八束町馬渡"},
{"zip_code":"6900031","kana_pref":"ｼﾏﾈｹﾝ","kana_city":"ﾏﾂｴｼ","kana_address":"ﾔﾏｼﾛﾁｮｳ","pref":"島根県","city":"松江市","address":"山代町"},
{"zip_code":"6900025","kana_pref":"ｼﾏﾈｹﾝ","kana_city":"ﾏﾂｴｼ","kana_address":"ﾔﾜﾀﾁｮｳ","pref":"島根県","city":"松江市","address":"八幡町"},
{"zip_code":"6900051","kana_pref":"ｼﾏﾈｹﾝ","kana_city":"ﾏﾂｴｼ","kana_address":"ﾖｺﾊﾞﾏﾁｮｳ","pref":"島根県","city":"松江市","address":"横浜町"},
{"zip_code":"6900885","kana_pref":"ｼﾏﾈｹﾝ","kana_city":"ﾏﾂｴｼ","kana_address":"ﾖﾅｺﾞﾏﾁ","pref":"島根県","city":"松江市","address":"米子町"},
{"zip_code":"6900047","kana_pref":"ｼﾏﾈｹﾝ","kana_city":"ﾏﾂｴｼ","kana_address":"ﾖﾒｼﾏﾁｮｳ","pref":"島根県","city":"松江市","address":"嫁島町"},
{"zip_code":"6900005","kana_pref":"ｼﾏﾈｹﾝ","kana_city":"ﾏﾂｴｼ","kana_address":"ﾜﾀﾞﾐﾁｮｳ","pref":"島根県","city":"松江市","address":"和多見町"},
{"zip_code":"6902400","kana_pref":"ｼﾏﾈｹﾝ","kana_city":"ｳﾝﾅﾝｼ","kana_address":"","pref":"島根県","city":"雲南市","address":""},
{"zip_code":"6902704","kana_pref":"ｼﾏﾈｹﾝ","kana_city":"ｳﾝﾅﾝｼ","kana_address":"ｶｹﾔﾁｮｳｱﾅﾐ","pref":"島根県","city":"雲南市","address":"掛合町穴見"},
{"zip_code":"6902702","kana_pref":"ｼﾏﾈｹﾝ","kana_city":"ｳﾝﾅﾝｼ","kana_address":"ｶｹﾔﾁｮｳｲﾙﾏ","pref":"島根県","city":"雲南市","address":"掛合町入間"},
{"zip_code":"6902701","kana_pref":"ｼﾏﾈｹﾝ","kana_city":"ｳﾝﾅﾝｼ","kana_address":"ｶｹﾔﾁｮｳｶｹﾔ","pref":"島根県","city":"雲南市","address":"掛合町掛合"},
{"zip_code":"6902706","kana_pref":"ｼﾏﾈｹﾝ","kana_city":"ｳﾝﾅﾝｼ","kana_address":"ｶｹﾔﾁｮｳﾀﾈ","pref":"島根県","city":"雲南市","address":"掛合町多根"},
{"zip_code":"6902703","kana_pref":"ｼﾏﾈｹﾝ","kana_city":"ｳﾝﾅﾝｼ","kana_address":"ｶｹﾔﾁｮｳﾊﾀ","pref":"島根県","city":"雲南市","address":"掛合町波多"},
{"zip_code":"6902705","kana_pref":"ｼﾏﾈｹﾝ","kana_city":"ｳﾝﾅﾝｼ","kana_address":"ｶｹﾔﾁｮｳﾏﾂｶｻ","pref":"島根県","city":"雲南市","address":"掛合町松笠"},
{"zip_code":"6902513","kana_pref":"ｼﾏﾈｹﾝ","kana_city":"ｳﾝﾅﾝｼ","kana_address":"ﾐﾄﾔﾁｮｳｱﾜﾀﾞﾆ","pref":"島根県","city":"雲南市","address":"三刀屋町粟谷"},
{"zip_code":"6902401","kana_pref":"ｼﾏﾈｹﾝ","kana_city":"ｳﾝﾅﾝｼ","kana_address":"ﾐﾄﾔﾁｮｳｲｶﾞﾔ","pref":"島根県","city":"雲南市","address":"三刀屋町伊萱"},
{"zip_code":"6902634","kana_pref":"ｼﾏﾈｹﾝ","kana_city":"ｳﾝﾅﾝｼ","kana_address":"ﾐﾄﾔﾁｮｳｵﾂｶﾐﾔ","pref":"島根県","city":"雲南市","address":"三刀屋町乙加宮"},
{"zip_code":"6902511","kana_pref":"ｼﾏﾈｹﾝ","kana_city":"ｳﾝﾅﾝｼ","kana_address":"ﾐﾄﾔﾁｮｳｶﾐｸﾏﾀﾆ","pref":"島根県","city":"雲南市","address":"三刀屋町上熊谷"},
{"zip_code":"6902402","kana_pref":"ｼﾏﾈｹﾝ","kana_city":"ｳﾝﾅﾝｼ","kana_address":"ﾐﾄﾔﾁｮｳｷｭｳｼﾀ","pref":"島根県","city":"雲南市","address":"三刀屋町給下"},
{"zip_code":"6902521","kana_pref":"ｼﾏﾈｹﾝ","kana_city":"ｳﾝﾅﾝｼ","kana_address":"ﾐﾄﾔﾁｮｳｺｳｼﾞﾛ","pref":"島根県","city":"雲南市","address":"三刀屋町神代"},
{"zip_code":"6902405","kana_pref":"ｼﾏﾈｹﾝ","kana_city":"ｳﾝﾅﾝｼ","kana_address":"ﾐﾄﾔﾁｮｳｺｼﾞｮｳ","pref":"島根県","city":"雲南市","address":"三刀屋町古城"},
{"zip_code":"6902525","kana_pref":"ｼﾏﾈｹﾝ","kana_city":"ｳﾝﾅﾝｼ","kana_address":"ﾐﾄﾔﾁｮｳｻｶﾓﾄ","pref":"島根県","city":"雲南市","address":"三刀屋町坂本"},
{"zip_code":"6902625","kana_pref":"ｼﾏﾈｹﾝ","kana_city":"ｳﾝﾅﾝｼ","kana_address":"ﾐﾄﾔﾁｮｳｻｶﾓﾄ","pref":"島根県","city":"雲南市","address":"三刀屋町坂本"},
{"zip_code":"6902632","kana_pref":"ｼﾏﾈｹﾝ","kana_city":"ｳﾝﾅﾝｼ","kana_address":"ﾐﾄﾔﾁｮｳｻﾄﾎﾞｳ","pref":"島根県","city":"雲南市","address":"三刀屋町里坊"},
{"zip_code":"6902403","kana_pref":"ｼﾏﾈｹﾝ","kana_city":"ｳﾝﾅﾝｼ","kana_address":"ﾐﾄﾔﾁｮｳｼﾓｸﾏﾀﾆ","pref":"島根県","city":"雲南市","address":"三刀屋町下熊谷"},
{"zip_code":"6902524","kana_pref":"ｼﾏﾈｹﾝ","kana_city":"ｳﾝﾅﾝｼ","kana_address":"ﾐﾄﾔﾁｮｳｽｿﾞ","pref":"島根県","city":"雲南市","address":"三刀屋町須所"},
{"zip_code":"6902406","kana_pref":"ｼﾏﾈｹﾝ","kana_city":"ｳﾝﾅﾝｼ","kana_address":"ﾐﾄﾔﾁｮｳﾀｶｸﾎﾞ","pref":"島根県","city":"雲南市","address":"三刀屋町高窪"},
{"zip_code":"6902512","kana_pref":"ｼﾏﾈｹﾝ","kana_city":"ｳﾝﾅﾝｼ","kana_address":"ﾐﾄﾔﾁｮｳﾀｸﾜ","pref":"島根県","city":"雲南市","address":"三刀屋町多久和"},
{"zip_code":"6902633","kana_pref":"ｼﾏﾈｹﾝ","kana_city":"ｳﾝﾅﾝｼ","kana_address":"ﾐﾄﾔﾁｮｳﾄﾉｺﾞｳﾁ","pref":"島根県","city":"雲南市","address":"三刀屋町殿河内"},
{"zip_code":"6902523","kana_pref":"ｼﾏﾈｹﾝ","kana_city":"ｳﾝﾅﾝｼ","kana_address":"ﾐﾄﾔﾁｮｳﾅｶﾉ","pref":"島根県","city":"雲南市","address":"三刀屋町中野"},
{"zip_code":"6902631","kana_pref":"ｼﾏﾈｹﾝ","kana_city":"ｳﾝﾅﾝｼ","kana_address":"ﾐﾄﾔﾁｮｳﾈﾊﾞﾍﾞｯｼﾖ","pref":"島根県","city":"雲南市","address":"三刀屋町根波別所"},
{"zip_code":"6902404","kana_pref":"ｼﾏﾈｹﾝ","kana_city":"ｳﾝﾅﾝｼ","kana_address":"ﾐﾄﾔﾁｮｳﾐﾄﾔ","pref":"島根県","city":"雲南市","address":"三刀屋町三刀屋"},
{"zip_code":"6902522","kana_pref":"ｼﾏﾈｹﾝ","kana_city":"ｳﾝﾅﾝｼ","kana_address":"ﾐﾄﾔﾁｮｳﾑｴ","pref":"島根県","city":"雲南市","address":"三刀屋町六重"},
{"zip_code":"6902311","kana_pref":"ｼﾏﾈｹﾝ","kana_city":"ｳﾝﾅﾝｼ","kana_address":"ﾖｼﾀﾞﾁｮｳｳｴﾔﾏ","pref":"島根県","city":"雲南市","address":"吉田町上山"},
{"zip_code":"6902314","kana_pref":"ｼﾏﾈｹﾝ","kana_city":"ｳﾝﾅﾝｼ","kana_address":"ﾖｼﾀﾞﾁｮｳｶﾜﾃ","pref":"島根県","city":"雲南市","address":"吉田町川手"},
{"zip_code":"6902312","kana_pref":"ｼﾏﾈｹﾝ","kana_city":"ｳﾝﾅﾝｼ","kana_address":"ﾖｼﾀﾞﾁｮｳｿｷﾞ","pref":"島根県","city":"雲南市","address":"吉田町曽木"},
{"zip_code":"6902313","kana_pref":"ｼﾏﾈｹﾝ","kana_city":"ｳﾝﾅﾝｼ","kana_address":"ﾖｼﾀﾞﾁｮｳﾌｶﾉ","pref":"島根県","city":"雲南市","address":"吉田町深野"},
{"zip_code":"6902802","kana_pref":"ｼﾏﾈｹﾝ","kana_city":"ｳﾝﾅﾝｼ","kana_address":"ﾖｼﾀﾞﾁｮｳﾐﾝﾀﾞﾆ","pref":"島根県","city":"雲南市","address":"吉田町民谷"},
{"zip_code":"6902801","kana_pref":"ｼﾏﾈｹﾝ","kana_city":"ｳﾝﾅﾝｼ","kana_address":"ﾖｼﾀﾞﾁｮｳﾖｼﾀﾞ","pref":"島根県","city":"雲南市","address":"吉田町吉田"},
{"zip_code":"6903200","kana_pref":"ｼﾏﾈｹﾝ","kana_city":"ｲｲｼｸﾞﾝｲｲﾅﾝﾁｮｳ","kana_address":"","pref":"島根県","city":"飯石郡飯南町","address":""},
{"zip_code":"6903511","kana_pref":"ｼﾏﾈｹﾝ","kana_city":"ｲｲｼｸﾞﾝｲｲﾅﾝﾁｮｳ","kana_address":"ｱｶﾅ","pref":"島根県","city":"飯石郡飯南町","address":"赤名"},
{"zip_code":"6903514","kana_pref":"ｼﾏﾈｹﾝ","kana_city":"ｲｲｼｸﾞﾝｲｲﾅﾝﾁｮｳ","kana_address":"ｲﾄﾞﾀﾞﾆ","pref":"島根県","city":"飯石郡飯南町","address":"井戸谷"},
{"zip_code":"6903403","kana_pref":"ｼﾏﾈｹﾝ","kana_city":"ｲｲｼｸﾞﾝｲｲﾅﾝﾁｮｳ","kana_address":"ｵﾀﾞ","pref":"島根県","city":"飯石郡飯南町","address":"小田"},
{"zip_code":"6903512","kana_pref":"ｼﾏﾈｹﾝ","kana_city":"ｲｲｼｸﾞﾝｲｲﾅﾝﾁｮｳ","kana_address":"ｶﾐｱｶﾅ","pref":"島根県","city":"飯石郡飯南町","address":"上赤名"},
{"zip_code":"6903405","kana_pref":"ｼﾏﾈｹﾝ","kana_city":"ｲｲｼｸﾞﾝｲｲﾅﾝﾁｮｳ","kana_address":"ｶﾐｷｼﾞﾏ","pref":"島根県","city":"飯石郡飯南町","address":"上来島"},
{"zip_code":"6903204","kana_pref":"ｼﾏﾈｹﾝ","kana_city":"ｲｲｼｸﾞﾝｲｲﾅﾝﾁｮｳ","kana_address":"ｻﾐ","pref":"島根県","city":"飯石郡飯南町","address":"佐見"},
{"zip_code":"6903515","kana_pref":"ｼﾏﾈｹﾝ","kana_city":"ｲｲｼｸﾞﾝｲｲﾅﾝﾁｮｳ","kana_address":"ｼｵﾀﾞﾆ","pref":"島根県","city":"飯石郡飯南町","address":"塩谷"},
{"zip_code":"6903311","kana_pref":"ｼﾏﾈｹﾝ","kana_city":"ｲｲｼｸﾞﾝｲｲﾅﾝﾁｮｳ","kana_address":"ｼｼ","pref":"島根県","city":"飯石郡飯南町","address":"獅子"},
{"zip_code":"6903313","kana_pref":"ｼﾏﾈｹﾝ","kana_city":"ｲｲｼｸﾞﾝｲｲﾅﾝﾁｮｳ","kana_address":"ｼﾂﾐ","pref":"島根県","city":"飯石郡飯南町","address":"志津見"},
{"zip_code":"6903513","kana_pref":"ｼﾏﾈｹﾝ","kana_city":"ｲｲｼｸﾞﾝｲｲﾅﾝﾁｮｳ","kana_address":"ｼﾓｱｶﾅ","pref":"島根県","city":"飯石郡飯南町","address":"下赤名"},
{"zip_code":"6903402","kana_pref":"ｼﾏﾈｹﾝ","kana_city":"ｲｲｼｸﾞﾝｲｲﾅﾝﾁｮｳ","kana_address":"ｼﾓｷｼﾞﾏ","pref":"島根県","city":"飯石郡飯南町","address":"下来島"},
{"zip_code":"6903203","kana_pref":"ｼﾏﾈｹﾝ","kana_city":"ｲｲｼｸﾞﾝｲｲﾅﾝﾁｮｳ","kana_address":"ﾂｶﾞｶ","pref":"島根県","city":"飯石郡飯南町","address":"都加賀"},
{"zip_code":"6903314","kana_pref":"ｼﾏﾈｹﾝ","kana_city":"ｲｲｼｸﾞﾝｲｲﾅﾝﾁｮｳ","kana_address":"ﾂﾉｲ","pref":"島根県","city":"飯石郡飯南町","address":"角井"},
{"zip_code":"6903207","kana_pref":"ｼﾏﾈｹﾝ","kana_city":"ｲｲｼｸﾞﾝｲｲﾅﾝﾁｮｳ","kana_address":"ﾄﾝﾊﾞﾗ","pref":"島根県","city":"飯石郡飯南町","address":"頓原"},
{"zip_code":"6903205","kana_pref":"ｼﾏﾈｹﾝ","kana_city":"ｲｲｼｸﾞﾝｲｲﾅﾝﾁｮｳ","kana_address":"ﾅｶﾞﾀﾆ","pref":"島根県","city":"飯石郡飯南町","address":"長谷"},
{"zip_code":"6903401","kana_pref":"ｼﾏﾈｹﾝ","kana_city":"ｲｲｼｸﾞﾝｲｲﾅﾝﾁｮｳ","kana_address":"ﾉｶﾞﾔ","pref":"島根県","city":"飯石郡飯南町","address":"野萱"},
{"zip_code":"6903312","kana_pref":"ｼﾏﾈｹﾝ","kana_city":"ｲｲｼｸﾞﾝｲｲﾅﾝﾁｮｳ","kana_address":"ﾊｶﾐ","pref":"島根県","city":"飯石郡飯南町","address":"八神"},
{"zip_code":"6903516","kana_pref":"ｼﾏﾈｹﾝ","kana_city":"ｲｲｼｸﾞﾝｲｲﾅﾝﾁｮｳ","kana_address":"ﾊﾀﾀ","pref":"島根県","city":"飯石郡飯南町","address":"畑田"},
{"zip_code":"6903206","kana_pref":"ｼﾏﾈｹﾝ","kana_city":"ｲｲｼｸﾞﾝｲｲﾅﾝﾁｮｳ","kana_address":"ﾊﾅｸﾞﾘ","pref":"島根県","city":"飯石郡飯南町","address":"花栗"},
{"zip_code":"6903404","kana_pref":"ｼﾏﾈｹﾝ","kana_city":"ｲｲｼｸﾞﾝｲｲﾅﾝﾁｮｳ","kana_address":"ﾏｷ","pref":"島根県","city":"飯石郡飯南町","address":"真木"}]}