{"zip_code":[
{"zip_code":"6910024","kana_pref":"ｼﾏﾈｹﾝ","kana_city":"ｲｽﾞﾓｼ","kana_address":"ｲﾉﾒﾁｮｳ","pref":"島根県","city":"出雲市","address":"猪目町"},
{"zip_code":"6910042","kana_pref":"ｼﾏﾈｹﾝ","kana_city":"ｲｽﾞﾓｼ","kana_address":"ｳｯﾌﾟﾙｲﾁｮｳ","pref":"島根県","city":"出雲市","address":"十六島町"},
{"zip_code":"6910063","kana_pref":"ｼﾏﾈｹﾝ","kana_city":"ｲｽﾞﾓｼ","kana_address":"ｵｶﾀﾞﾁｮｳ","pref":"島根県","city":"出雲市","address":"岡田町"},
{"zip_code":"6910021","kana_pref":"ｼﾏﾈｹﾝ","kana_city":"ｲｽﾞﾓｼ","kana_address":"ｵｸｳｶﾞﾁｮｳ","pref":"島根県","city":"出雲市","address":"奥宇賀町"},
{"zip_code":"6910043","kana_pref":"ｼﾏﾈｹﾝ","kana_city":"ｲｽﾞﾓｼ","kana_address":"ｶﾏｳﾗﾁｮｳ","pref":"島根県","city":"出雲市","address":"釜浦町"},
{"zip_code":"6910064","kana_pref":"ｼﾏﾈｹﾝ","kana_city":"ｲｽﾞﾓｼ","kana_address":"ｶﾐｵｶﾀﾞﾁｮｳ","pref":"島根県","city":"出雲市","address":"上岡田町"},
{"zip_code":"6910023","kana_pref":"ｼﾏﾈｹﾝ","kana_city":"ｲｽﾞﾓｼ","kana_address":"ｶﾗｶﾜﾁｮｳ","pref":"島根県","city":"出雲市","address":"唐川町"},
{"zip_code":"6910025","kana_pref":"ｼﾏﾈｹﾝ","kana_city":"ｲｽﾞﾓｼ","kana_address":"ｶﾜｼﾓﾁｮｳ","pref":"島根県","city":"出雲市","address":"河下町"},
{"zip_code":"6910034","kana_pref":"ｼﾏﾈｹﾝ","kana_city":"ｲｽﾞﾓｼ","kana_address":"ｸﾀﾐﾁｮｳ","pref":"島根県","city":"出雲市","address":"久多見町"},
{"zip_code":"6910014","kana_pref":"ｼﾏﾈｹﾝ","kana_city":"ｲｽﾞﾓｼ","kana_address":"ｸﾁｳｶﾞﾁｮｳ","pref":"島根県","city":"出雲市","address":"口宇賀町"},
{"zip_code":"6910011","kana_pref":"ｼﾏﾈｹﾝ","kana_city":"ｲｽﾞﾓｼ","kana_address":"ｸﾝﾄﾞﾐﾁｮｳ","pref":"島根県","city":"出雲市","address":"国富町"},
{"zip_code":"6910052","kana_pref":"ｼﾏﾈｹﾝ","kana_city":"ｲｽﾞﾓｼ","kana_address":"ｺｲﾂﾞﾁｮｳ","pref":"島根県","city":"出雲市","address":"小伊津町"},
{"zip_code":"6910074","kana_pref":"ｼﾏﾈｹﾝ","kana_city":"ｲｽﾞﾓｼ","kana_address":"ｺｻﾞｶｲﾁｮｳ","pref":"島根県","city":"出雲市","address":"小境町"},
{"zip_code":"6910041","kana_pref":"ｼﾏﾈｹﾝ","kana_city":"ｲｽﾞﾓｼ","kana_address":"ｺﾂﾞﾁｮｳ","pref":"島根県","city":"出雲市","address":"小津町"},
{"zip_code":"6910015","kana_pref":"ｼﾏﾈｹﾝ","kana_city":"ｲｽﾞﾓｼ","kana_address":"ｻｲｺﾞｳﾁｮｳ","pref":"島根県","city":"出雲市","address":"西郷町"},
{"zip_code":"6910051","kana_pref":"ｼﾏﾈｹﾝ","kana_city":"ｲｽﾞﾓｼ","kana_address":"ｻｶｳﾗﾁｮｳ","pref":"島根県","city":"出雲市","address":"坂浦町"},
{"zip_code":"6910044","kana_pref":"ｼﾏﾈｹﾝ","kana_city":"ｲｽﾞﾓｼ","kana_address":"ｼｵﾂﾁｮｳ","pref":"島根県","city":"出雲市","address":"塩津町"},
{"zip_code":"6910004","kana_pref":"ｼﾏﾈｹﾝ","kana_city":"ｲｽﾞﾓｼ","kana_address":"ｼﾏﾑﾗﾁｮｳ","pref":"島根県","city":"出雲市","address":"島村町"},
{"zip_code":"6910076","kana_pref":"ｼﾏﾈｹﾝ","kana_city":"ｲｽﾞﾓｼ","kana_address":"ｿﾉﾁｮｳ","pref":"島根県","city":"出雲市","address":"園町"},
{"zip_code":"6910062","kana_pref":"ｼﾏﾈｹﾝ","kana_city":"ｲｽﾞﾓｼ","kana_address":"ﾀｸﾀﾞﾆﾁｮｳ","pref":"島根県","city":"出雲市","address":"多久谷町"},
{"zip_code":"6910061","kana_pref":"ｼﾏﾈｹﾝ","kana_city":"ｲｽﾞﾓｼ","kana_address":"ﾀｸﾁｮｳ","pref":"島根県","city":"出雲市","address":"多久町"},
{"zip_code":"6910071","kana_pref":"ｼﾏﾈｹﾝ","kana_city":"ｲｽﾞﾓｼ","kana_address":"ﾁｺﾞｳﾁｮｳ","pref":"島根県","city":"出雲市","address":"地合町"},
{"zip_code":"6910065","kana_pref":"ｼﾏﾈｹﾝ","kana_city":"ｲｽﾞﾓｼ","kana_address":"ﾄｳｺﾞｳﾁｮｳ","pref":"島根県","city":"出雲市","address":"東郷町"},
{"zip_code":"6910031","kana_pref":"ｼﾏﾈｹﾝ","kana_city":"ｲｽﾞﾓｼ","kana_address":"ﾄｳﾌｸﾁｮｳ","pref":"島根県","city":"出雲市","address":"東福町"},
{"zip_code":"6910003","kana_pref":"ｼﾏﾈｹﾝ","kana_city":"ｲｽﾞﾓｼ","kana_address":"ﾅﾀﾞﾌﾞﾝﾁｮｳ","pref":"島根県","city":"出雲市","address":"灘分町"},
{"zip_code":"6910012","kana_pref":"ｼﾏﾈｹﾝ","kana_city":"ｲｽﾞﾓｼ","kana_address":"ﾆｼﾀﾞｲﾁｮｳ","pref":"島根県","city":"出雲市","address":"西代町"},
{"zip_code":"6910002","kana_pref":"ｼﾏﾈｹﾝ","kana_city":"ｲｽﾞﾓｼ","kana_address":"ﾆｼﾋﾗﾀﾁｮｳ","pref":"島根県","city":"出雲市","address":"西平田町"},
{"zip_code":"6910066","kana_pref":"ｼﾏﾈｹﾝ","kana_city":"ｲｽﾞﾓｼ","kana_address":"ﾉｲｼﾀﾞﾆﾁｮｳ","pref":"島根県","city":"出雲市","address":"野石谷町"},
{"zip_code":"6910072","kana_pref":"ｼﾏﾈｹﾝ","kana_city":"ｲｽﾞﾓｼ","kana_address":"ﾉｻﾞﾄﾁｮｳ","pref":"島根県","city":"出雲市","address":"野郷町"},
{"zip_code":"6910001","kana_pref":"ｼﾏﾈｹﾝ","kana_city":"ｲｽﾞﾓｼ","kana_address":"ﾋﾗﾀﾁｮｳ","pref":"島根県","city":"出雲市","address":"平田町"},
{"zip_code":"6910022","kana_pref":"ｼﾏﾈｹﾝ","kana_city":"ｲｽﾞﾓｼ","kana_address":"ﾍﾞｯｼﾖﾁｮｳ","pref":"島根県","city":"出雲市","address":"別所町"},
{"zip_code":"6910032","kana_pref":"ｼﾏﾈｹﾝ","kana_city":"ｲｽﾞﾓｼ","kana_address":"ﾎﾝｼﾞｮｳﾁｮｳ","pref":"島根県","city":"出雲市","address":"本庄町"},
{"zip_code":"6910033","kana_pref":"ｼﾏﾈｹﾝ","kana_city":"ｲｽﾞﾓｼ","kana_address":"ﾏﾝﾀﾞﾁｮｳ","pref":"島根県","city":"出雲市","address":"万田町"},
{"zip_code":"6910013","kana_pref":"ｼﾏﾈｹﾝ","kana_city":"ｲｽﾞﾓｼ","kana_address":"ﾐﾀﾞﾐﾁｮｳ","pref":"島根県","city":"出雲市","address":"美談町"},
{"zip_code":"6910053","kana_pref":"ｼﾏﾈｹﾝ","kana_city":"ｲｽﾞﾓｼ","kana_address":"ﾐﾂﾁｮｳ","pref":"島根県","city":"出雲市","address":"三津町"},
{"zip_code":"6910045","kana_pref":"ｼﾏﾈｹﾝ","kana_city":"ｲｽﾞﾓｼ","kana_address":"ﾐﾎﾁｮｳ","pref":"島根県","city":"出雲市","address":"美保町"},
{"zip_code":"6910073","kana_pref":"ｼﾏﾈｹﾝ","kana_city":"ｲｽﾞﾓｼ","kana_address":"ﾖｼﾉﾁｮｳ","pref":"島根県","city":"出雲市","address":"美野町"},
{"zip_code":"6910075","kana_pref":"ｼﾏﾈｹﾝ","kana_city":"ｲｽﾞﾓｼ","kana_address":"ﾛｸｵﾝｼﾞﾁｮｳ","pref":"島根県","city":"出雲市","address":"鹿園寺町"}]}