{"zip_code":[
{"zip_code":"6920000","kana_pref":"ｼﾏﾈｹﾝ","kana_city":"ﾔｽｷﾞｼ","kana_address":"","pref":"島根県","city":"安来市","address":""},
{"zip_code":"6920001","kana_pref":"ｼﾏﾈｹﾝ","kana_city":"ﾔｽｷﾞｼ","kana_address":"ｱｶｴﾁｮｳ","pref":"島根県","city":"安来市","address":"赤江町"},
{"zip_code":"6920052","kana_pref":"ｼﾏﾈｹﾝ","kana_city":"ﾔｽｷﾞｼ","kana_address":"ｱｶｻｷﾁｮｳ","pref":"島根県","city":"安来市","address":"赤崎町"},
{"zip_code":"6920007","kana_pref":"ｼﾏﾈｹﾝ","kana_city":"ﾔｽｷﾞｼ","kana_address":"ｱﾗｼﾏﾁｮｳ","pref":"島根県","city":"安来市","address":"荒島町"},
{"zip_code":"6920066","kana_pref":"ｼﾏﾈｹﾝ","kana_city":"ﾔｽｷﾞｼ","kana_address":"ｲｲﾅｼﾁｮｳ","pref":"島根県","city":"安来市","address":"飯梨町"},
{"zip_code":"6920055","kana_pref":"ｼﾏﾈｹﾝ","kana_city":"ﾔｽｷﾞｼ","kana_address":"ｲﾅﾘﾁｮｳ","pref":"島根県","city":"安来市","address":"飯生町"},
{"zip_code":"6920015","kana_pref":"ｼﾏﾈｹﾝ","kana_city":"ﾔｽｷﾞｼ","kana_address":"ｲﾏﾂﾞﾁｮｳ","pref":"島根県","city":"安来市","address":"今津町"},
{"zip_code":"6920065","kana_pref":"ｼﾏﾈｹﾝ","kana_city":"ﾔｽｷﾞｼ","kana_address":"ｲﾜﾌﾈﾁｮｳ","pref":"島根県","city":"安来市","address":"岩舟町"},
{"zip_code":"6920063","kana_pref":"ｼﾏﾈｹﾝ","kana_city":"ﾔｽｷﾞｼ","kana_address":"ｳｴﾀﾞﾁｮｳ","pref":"島根県","city":"安来市","address":"植田町"},
{"zip_code":"6920034","kana_pref":"ｼﾏﾈｹﾝ","kana_city":"ﾔｽｷﾞｼ","kana_address":"ｳｶｼｮｳﾁｮｳ","pref":"島根県","city":"安来市","address":"宇賀荘町"},
{"zip_code":"6920057","kana_pref":"ｼﾏﾈｹﾝ","kana_city":"ﾔｽｷﾞｼ","kana_address":"ｴﾉｼﾏﾁｮｳ","pref":"島根県","city":"安来市","address":"恵乃島町"},
{"zip_code":"6920042","kana_pref":"ｼﾏﾈｹﾝ","kana_city":"ﾔｽｷﾞｼ","kana_address":"ｵｵﾂｶﾁｮｳ","pref":"島根県","city":"安来市","address":"大塚町"},
{"zip_code":"6920046","kana_pref":"ｼﾏﾈｹﾝ","kana_city":"ﾔｽｷﾞｼ","kana_address":"ｵﾘｻｶﾁｮｳ","pref":"島根県","city":"安来市","address":"折坂町"},
{"zip_code":"6920045","kana_pref":"ｼﾏﾈｹﾝ","kana_city":"ﾔｽｷﾞｼ","kana_address":"ｶｷﾀﾞﾆﾁｮｳ","pref":"島根県","city":"安来市","address":"柿谷町"},
{"zip_code":"6920027","kana_pref":"ｼﾏﾈｹﾝ","kana_city":"ﾔｽｷﾞｼ","kana_address":"ｶﾄﾞｳﾁｮｳ","pref":"島根県","city":"安来市","address":"門生町"},
{"zip_code":"6920002","kana_pref":"ｼﾏﾈｹﾝ","kana_city":"ﾔｽｷﾞｼ","kana_address":"ｶﾐｻｶﾀﾞﾁｮｳ","pref":"島根県","city":"安来市","address":"上坂田町"},
{"zip_code":"6920043","kana_pref":"ｼﾏﾈｹﾝ","kana_city":"ﾔｽｷﾞｼ","kana_address":"ｶﾐﾖｼﾀﾞﾁｮｳ","pref":"島根県","city":"安来市","address":"上吉田町"},
{"zip_code":"6920071","kana_pref":"ｼﾏﾈｹﾝ","kana_city":"ﾔｽｷﾞｼ","kana_address":"ｶﾒｼﾏﾁｮｳ","pref":"島根県","city":"安来市","address":"亀島町"},
{"zip_code":"6920075","kana_pref":"ｼﾏﾈｹﾝ","kana_city":"ﾔｽｷﾞｼ","kana_address":"ｶﾝﾊﾞﾁｮｳ","pref":"島根県","city":"安来市","address":"神庭町"},
{"zip_code":"6920026","kana_pref":"ｼﾏﾈｹﾝ","kana_city":"ﾔｽｷﾞｼ","kana_address":"ｷｻﾁｮｳ","pref":"島根県","city":"安来市","address":"吉佐町"},
{"zip_code":"6920056","kana_pref":"ｼﾏﾈｹﾝ","kana_city":"ﾔｽｷﾞｼ","kana_address":"ｷﾖｲﾁｮｳ","pref":"島根県","city":"安来市","address":"清井町"},
{"zip_code":"6920035","kana_pref":"ｼﾏﾈｹﾝ","kana_city":"ﾔｽｷﾞｼ","kana_address":"ｷﾖｾﾁｮｳ","pref":"島根県","city":"安来市","address":"清瀬町"},
{"zip_code":"6920033","kana_pref":"ｼﾏﾈｹﾝ","kana_city":"ﾔｽｷﾞｼ","kana_address":"ｷﾖﾐｽﾞﾁｮｳ","pref":"島根県","city":"安来市","address":"清水町"},
{"zip_code":"6920051","kana_pref":"ｼﾏﾈｹﾝ","kana_city":"ﾔｽｷﾞｼ","kana_address":"ｷﾚｶﾜﾁｮｳ","pref":"島根県","city":"安来市","address":"切川町"},
{"zip_code":"6920004","kana_pref":"ｼﾏﾈｹﾝ","kana_city":"ﾔｽｷﾞｼ","kana_address":"ｸｼﾞﾗﾁｮｳ","pref":"島根県","city":"安来市","address":"久白町"},
{"zip_code":"6920032","kana_pref":"ｼﾏﾈｹﾝ","kana_city":"ﾔｽｷﾞｼ","kana_address":"ｸﾉｳﾁｮｳ","pref":"島根県","city":"安来市","address":"九重町"},
{"zip_code":"6920023","kana_pref":"ｼﾏﾈｹﾝ","kana_city":"ﾔｽｷﾞｼ","kana_address":"ｸﾛｲﾀﾞﾁｮｳ","pref":"島根県","city":"安来市","address":"黒井田町"},
{"zip_code":"6920031","kana_pref":"ｼﾏﾈｹﾝ","kana_city":"ﾔｽｷﾞｼ","kana_address":"ｻｸﾎﾞﾁｮｳ","pref":"島根県","city":"安来市","address":"佐久保町"},
{"zip_code":"6920062","kana_pref":"ｼﾏﾈｹﾝ","kana_city":"ﾔｽｷﾞｼ","kana_address":"ｻﾈﾏﾂﾁｮｳ","pref":"島根県","city":"安来市","address":"実松町"},
{"zip_code":"6920053","kana_pref":"ｼﾏﾈｹﾝ","kana_city":"ﾔｽｷﾞｼ","kana_address":"ｻﾜﾁｮｳ","pref":"島根県","city":"安来市","address":"沢町"},
{"zip_code":"6920028","kana_pref":"ｼﾏﾈｹﾝ","kana_city":"ﾔｽｷﾞｼ","kana_address":"ｼｵﾃﾞｶﾞｵｶ","pref":"島根県","city":"安来市","address":"汐手が丘"},
{"zip_code":"6920024","kana_pref":"ｼﾏﾈｹﾝ","kana_city":"ﾔｽｷﾞｼ","kana_address":"ｼﾏﾀﾁｮｳ","pref":"島根県","city":"安来市","address":"島田町"},
{"zip_code":"6920017","kana_pref":"ｼﾏﾈｹﾝ","kana_city":"ﾔｽｷﾞｼ","kana_address":"ｼﾓｻｶﾀﾞﾁｮｳ","pref":"島根県","city":"安来市","address":"下坂田町"},
{"zip_code":"6920044","kana_pref":"ｼﾏﾈｹﾝ","kana_city":"ﾔｽｷﾞｼ","kana_address":"ｼﾓﾖｼﾀﾞﾁｮｳ","pref":"島根県","city":"安来市","address":"下吉田町"},
{"zip_code":"6920021","kana_pref":"ｼﾏﾈｹﾝ","kana_city":"ﾔｽｷﾞｼ","kana_address":"ｼﾝﾄｶﾐﾁｮｳ","pref":"島根県","city":"安来市","address":"新十神町"},
{"zip_code":"6920047","kana_pref":"ｼﾏﾈｹﾝ","kana_city":"ﾔｽｷﾞｼ","kana_address":"ｿｳﾀﾞﾁｮｳ","pref":"島根県","city":"安来市","address":"早田町"},
{"zip_code":"6920067","kana_pref":"ｼﾏﾈｹﾝ","kana_city":"ﾔｽｷﾞｼ","kana_address":"ﾀﾖﾘﾁｮｳ","pref":"島根県","city":"安来市","address":"田頼町"},
{"zip_code":"6920013","kana_pref":"ｼﾏﾈｹﾝ","kana_city":"ﾔｽｷﾞｼ","kana_address":"ﾂｷｻﾞｶﾁｮｳ","pref":"島根県","city":"安来市","address":"月坂町"},
{"zip_code":"6920054","kana_pref":"ｼﾏﾈｹﾝ","kana_city":"ﾔｽｷﾞｼ","kana_address":"ﾄｼﾋﾛﾁｮｳ","pref":"島根県","city":"安来市","address":"利弘町"},
{"zip_code":"6920041","kana_pref":"ｼﾏﾈｹﾝ","kana_city":"ﾔｽｷﾞｼ","kana_address":"ﾄﾘｷﾞﾁｮｳ","pref":"島根県","city":"安来市","address":"鳥木町"},
{"zip_code":"6920074","kana_pref":"ｼﾏﾈｹﾝ","kana_city":"ﾔｽｷﾞｼ","kana_address":"ﾅｶｳﾐﾁｮｳ","pref":"島根県","city":"安来市","address":"中海町"},
{"zip_code":"6920061","kana_pref":"ｼﾏﾈｹﾝ","kana_city":"ﾔｽｷﾞｼ","kana_address":"ﾅｶﾂﾞﾁｮｳ","pref":"島根県","city":"安来市","address":"中津町"},
{"zip_code":"6920003","kana_pref":"ｼﾏﾈｹﾝ","kana_city":"ﾔｽｷﾞｼ","kana_address":"ﾆｼｱｶｴﾁｮｳ","pref":"島根県","city":"安来市","address":"西赤江町"},
{"zip_code":"6920006","kana_pref":"ｼﾏﾈｹﾝ","kana_city":"ﾔｽｷﾞｼ","kana_address":"ﾆｼｱﾗｼﾏﾁｮｳ","pref":"島根県","city":"安来市","address":"西荒島町"},
{"zip_code":"6920058","kana_pref":"ｼﾏﾈｹﾝ","kana_city":"ﾔｽｷﾞｼ","kana_address":"ﾆｼｴﾉｼﾏﾁｮｳ","pref":"島根県","city":"安来市","address":"西恵乃島町"},
{"zip_code":"6920077","kana_pref":"ｼﾏﾈｹﾝ","kana_city":"ﾔｽｷﾞｼ","kana_address":"ﾆｼﾏﾂｲﾁｮｳ","pref":"島根県","city":"安来市","address":"西松井町"},
{"zip_code":"6920036","kana_pref":"ｼﾏﾈｹﾝ","kana_city":"ﾔｽｷﾞｼ","kana_address":"ﾉｶﾀﾁｮｳ","pref":"島根県","city":"安来市","address":"野方町"},
{"zip_code":"6920072","kana_pref":"ｼﾏﾈｹﾝ","kana_city":"ﾔｽｷﾞｼ","kana_address":"ﾉｷﾁｮｳ","pref":"島根県","city":"安来市","address":"能義町"},
{"zip_code":"6920321","kana_pref":"ｼﾏﾈｹﾝ","kana_city":"ﾔｽｷﾞｼ","kana_address":"ﾊｸﾀﾁｮｳｱｶﾔ","pref":"島根県","city":"安来市","address":"伯太町赤屋"},
{"zip_code":"6920213","kana_pref":"ｼﾏﾈｹﾝ","kana_city":"ﾔｽｷﾞｼ","kana_address":"ﾊｸﾀﾁｮｳｲｼﾞﾘ","pref":"島根県","city":"安来市","address":"伯太町井尻"},
{"zip_code":"6920322","kana_pref":"ｼﾏﾈｹﾝ","kana_city":"ﾔｽｷﾞｼ","kana_address":"ﾊｸﾀﾁｮｳｶﾐｵﾀﾞｹ","pref":"島根県","city":"安来市","address":"伯太町上小竹"},
{"zip_code":"6920325","kana_pref":"ｼﾏﾈｹﾝ","kana_city":"ﾔｽｷﾞｼ","kana_address":"ﾊｸﾀﾁｮｳｶﾐｼﾞｭｳﾈﾝﾊﾞﾀ","pref":"島根県","city":"安来市","address":"伯太町上十年畑"},
{"zip_code":"6920324","kana_pref":"ｼﾏﾈｹﾝ","kana_city":"ﾔｽｷﾞｼ","kana_address":"ﾊｸﾀﾁｮｳｸｻﾉ","pref":"島根県","city":"安来市","address":"伯太町草野"},
{"zip_code":"6920323","kana_pref":"ｼﾏﾈｹﾝ","kana_city":"ﾔｽｷﾞｼ","kana_address":"ﾊｸﾀﾁｮｳｼﾓｵﾀﾞｹ","pref":"島根県","city":"安来市","address":"伯太町下小竹"},
{"zip_code":"6920326","kana_pref":"ｼﾏﾈｹﾝ","kana_city":"ﾔｽｷﾞｼ","kana_address":"ﾊｸﾀﾁｮｳｼﾓｼﾞｭｳﾈﾝﾊﾞﾀ","pref":"島根県","city":"安来市","address":"伯太町下十年畑"},
{"zip_code":"6920214","kana_pref":"ｼﾏﾈｹﾝ","kana_city":"ﾔｽｷﾞｼ","kana_address":"ﾊｸﾀﾁｮｳｽﾔﾏﾌｸﾄﾞﾒ","pref":"島根県","city":"安来市","address":"伯太町須山福冨"},
{"zip_code":"6920215","kana_pref":"ｼﾏﾈｹﾝ","kana_city":"ﾔｽｷﾞｼ","kana_address":"ﾊｸﾀﾁｮｳﾀｶｴｽﾝｼﾞ","pref":"島根県","city":"安来市","address":"伯太町高江寸次"},
{"zip_code":"6920218","kana_pref":"ｼﾏﾈｹﾝ","kana_city":"ﾔｽｷﾞｼ","kana_address":"ﾊｸﾀﾁｮｳﾀﾜﾉｳﾁ","pref":"島根県","city":"安来市","address":"伯太町峠之内"},
{"zip_code":"6920212","kana_pref":"ｼﾏﾈｹﾝ","kana_city":"ﾔｽｷﾞｼ","kana_address":"ﾊｸﾀﾁｮｳﾆｼﾓﾘ","pref":"島根県","city":"安来市","address":"伯太町西母里"},
{"zip_code":"6920207","kana_pref":"ｼﾏﾈｹﾝ","kana_city":"ﾔｽｷﾞｼ","kana_address":"ﾊｸﾀﾁｮｳﾋｶﾞｼﾓﾘ","pref":"島根県","city":"安来市","address":"伯太町東母里"},
{"zip_code":"6920216","kana_pref":"ｼﾏﾈｹﾝ","kana_city":"ﾔｽｷﾞｼ","kana_address":"ﾊｸﾀﾁｮｳﾋﾅﾐ","pref":"島根県","city":"安来市","address":"伯太町日次"},
{"zip_code":"6920203","kana_pref":"ｼﾏﾈｹﾝ","kana_city":"ﾔｽｷﾞｼ","kana_address":"ﾊｸﾀﾁｮｳﾎﾉｶ","pref":"島根県","city":"安来市","address":"伯太町未明"},
{"zip_code":"6920211","kana_pref":"ｼﾏﾈｹﾝ","kana_city":"ﾔｽｷﾞｼ","kana_address":"ﾊｸﾀﾁｮｳﾓﾘ","pref":"島根県","city":"安来市","address":"伯太町母里"},
{"zip_code":"6920206","kana_pref":"ｼﾏﾈｹﾝ","kana_city":"ﾔｽｷﾞｼ","kana_address":"ﾊｸﾀﾁｮｳﾔｽﾀﾞ","pref":"島根県","city":"安来市","address":"伯太町安田"},
{"zip_code":"6920202","kana_pref":"ｼﾏﾈｹﾝ","kana_city":"ﾔｽｷﾞｼ","kana_address":"ﾊｸﾀﾁｮｳﾔｽﾀﾞｾｷ","pref":"島根県","city":"安来市","address":"伯太町安田関"},
{"zip_code":"6920205","kana_pref":"ｼﾏﾈｹﾝ","kana_city":"ﾔｽｷﾞｼ","kana_address":"ﾊｸﾀﾁｮｳﾔｽﾀﾞﾅｶ","pref":"島根県","city":"安来市","address":"伯太町安田中"},
{"zip_code":"6920204","kana_pref":"ｼﾏﾈｹﾝ","kana_city":"ﾔｽｷﾞｼ","kana_address":"ﾊｸﾀﾁｮｳﾔｽﾀﾞﾐﾔｳﾁ","pref":"島根県","city":"安来市","address":"伯太町安田宮内"},
{"zip_code":"6920201","kana_pref":"ｼﾏﾈｹﾝ","kana_city":"ﾔｽｷﾞｼ","kana_address":"ﾊｸﾀﾁｮｳﾔｽﾀﾞﾔﾏｶﾞﾀ","pref":"島根県","city":"安来市","address":"伯太町安田山形"},
{"zip_code":"6920217","kana_pref":"ｼﾏﾈｹﾝ","kana_city":"ﾔｽｷﾞｼ","kana_address":"ﾊｸﾀﾁｮｳﾖｺﾔ","pref":"島根県","city":"安来市","address":"伯太町横屋"},
{"zip_code":"6920014","kana_pref":"ｼﾏﾈｹﾝ","kana_city":"ﾔｽｷﾞｼ","kana_address":"ﾊｼﾏﾁｮｳ","pref":"島根県","city":"安来市","address":"飯島町"},
{"zip_code":"6920016","kana_pref":"ｼﾏﾈｹﾝ","kana_city":"ﾔｽｷﾞｼ","kana_address":"ﾋｶﾞｼｱｶｴﾁｮｳ","pref":"島根県","city":"安来市","address":"東赤江町"},
{"zip_code":"6920005","kana_pref":"ｼﾏﾈｹﾝ","kana_city":"ﾔｽｷﾞｼ","kana_address":"ﾋｼﾞﾗﾁｮｳ","pref":"島根県","city":"安来市","address":"日白町"},
{"zip_code":"6920401","kana_pref":"ｼﾏﾈｹﾝ","kana_city":"ﾔｽｷﾞｼ","kana_address":"ﾋﾛｾﾁｮｳｲｼﾊﾗ","pref":"島根県","city":"安来市","address":"広瀬町石原"},
{"zip_code":"6920622","kana_pref":"ｼﾏﾈｹﾝ","kana_city":"ﾔｽｷﾞｼ","kana_address":"ﾋﾛｾﾁｮｳｳﾅﾐ","pref":"島根県","city":"安来市","address":"広瀬町宇波"},
{"zip_code":"6920625","kana_pref":"ｼﾏﾈｹﾝ","kana_city":"ﾔｽｷﾞｼ","kana_address":"ﾋﾛｾﾁｮｳｵｸﾀﾜﾗ","pref":"島根県","city":"安来市","address":"広瀬町奥田原"},
{"zip_code":"6920405","kana_pref":"ｼﾏﾈｹﾝ","kana_city":"ﾔｽｷﾞｼ","kana_address":"ﾋﾛｾﾁｮｳｵｼﾞﾀﾞﾆ","pref":"島根県","city":"安来市","address":"広瀬町祖父谷"},
{"zip_code":"6920732","kana_pref":"ｼﾏﾈｹﾝ","kana_city":"ﾔｽｷﾞｼ","kana_address":"ﾋﾛｾﾁｮｳｶｼﾞﾌｸﾄﾞﾒ","pref":"島根県","city":"安来市","address":"広瀬町梶福留"},
{"zip_code":"6920413","kana_pref":"ｼﾏﾈｹﾝ","kana_city":"ﾔｽｷﾞｼ","kana_address":"ﾋﾛｾﾁｮｳｶﾐﾔﾏｻ","pref":"島根県","city":"安来市","address":"広瀬町上山佐"},
{"zip_code":"6920412","kana_pref":"ｼﾏﾈｹﾝ","kana_city":"ﾔｽｷﾞｼ","kana_address":"ﾋﾛｾﾁｮｳｼﾓﾔﾏｻ","pref":"島根県","city":"安来市","address":"広瀬町下山佐"},
{"zip_code":"6920411","kana_pref":"ｼﾏﾈｹﾝ","kana_city":"ﾔｽｷﾞｼ","kana_address":"ﾋﾛｾﾁｮｳｽｶﾞﾊﾗ","pref":"島根県","city":"安来市","address":"広瀬町菅原"},
{"zip_code":"6920621","kana_pref":"ｼﾏﾈｹﾝ","kana_city":"ﾔｽｷﾞｼ","kana_address":"ﾋﾛｾﾁｮｳｽｶﾞﾊﾗ","pref":"島根県","city":"安来市","address":"広瀬町菅原"},
{"zip_code":"6920403","kana_pref":"ｼﾏﾈｹﾝ","kana_city":"ﾔｽｷﾞｼ","kana_address":"ﾋﾛｾﾁｮｳﾄﾀﾞ","pref":"島根県","city":"安来市","address":"広瀬町富田"},
{"zip_code":"6920624","kana_pref":"ｼﾏﾈｹﾝ","kana_city":"ﾔｽｷﾞｼ","kana_address":"ﾋﾛｾﾁｮｳﾆｼﾀﾞﾆ","pref":"島根県","city":"安来市","address":"広瀬町西谷"},
{"zip_code":"6920731","kana_pref":"ｼﾏﾈｹﾝ","kana_city":"ﾔｽｷﾞｼ","kana_address":"ﾋﾛｾﾁｮｳﾆｼﾋﾀﾞ","pref":"島根県","city":"安来市","address":"広瀬町西比田"},
{"zip_code":"6920733","kana_pref":"ｼﾏﾈｹﾝ","kana_city":"ﾔｽｷﾞｼ","kana_address":"ﾋﾛｾﾁｮｳﾋｶﾞｼﾋﾀﾞ","pref":"島根県","city":"安来市","address":"広瀬町東比田"},
{"zip_code":"6920404","kana_pref":"ｼﾏﾈｹﾝ","kana_city":"ﾔｽｷﾞｼ","kana_address":"ﾋﾛｾﾁｮｳﾋﾛｾ","pref":"島根県","city":"安来市","address":"広瀬町広瀬"},
{"zip_code":"6920623","kana_pref":"ｼﾏﾈｹﾝ","kana_city":"ﾔｽｷﾞｼ","kana_address":"ﾋﾛｾﾁｮｳﾌﾍﾞ","pref":"島根県","city":"安来市","address":"広瀬町布部"},
{"zip_code":"6920402","kana_pref":"ｼﾏﾈｹﾝ","kana_city":"ﾔｽｷﾞｼ","kana_address":"ﾋﾛｾﾁｮｳﾏﾁﾁｮｳ","pref":"島根県","city":"安来市","address":"広瀬町町帳"},
{"zip_code":"6920064","kana_pref":"ｼﾏﾈｹﾝ","kana_city":"ﾔｽｷﾞｼ","kana_address":"ﾌﾙｶﾜﾁｮｳ","pref":"島根県","city":"安来市","address":"古川町"},
{"zip_code":"6920025","kana_pref":"ｼﾏﾈｹﾝ","kana_city":"ﾔｽｷﾞｼ","kana_address":"ﾎﾋｼﾞﾏﾁｮｳ","pref":"島根県","city":"安来市","address":"穂日島町"},
{"zip_code":"6920022","kana_pref":"ｼﾏﾈｹﾝ","kana_city":"ﾔｽｷﾞｼ","kana_address":"ﾐﾅﾐﾄｶﾐﾁｮｳ","pref":"島根県","city":"安来市","address":"南十神町"},
{"zip_code":"6920012","kana_pref":"ｼﾏﾈｹﾝ","kana_city":"ﾔｽｷﾞｼ","kana_address":"ﾐﾔｳﾁﾁｮｳ","pref":"島根県","city":"安来市","address":"宮内町"},
{"zip_code":"6920011","kana_pref":"ｼﾏﾈｹﾝ","kana_city":"ﾔｽｷﾞｼ","kana_address":"ﾔｽｷﾞﾁｮｳ","pref":"島根県","city":"安来市","address":"安来町"},
{"zip_code":"6920073","kana_pref":"ｼﾏﾈｹﾝ","kana_city":"ﾔｽｷﾞｼ","kana_address":"ﾔﾀﾁｮｳ","pref":"島根県","city":"安来市","address":"矢田町"},
{"zip_code":"6920037","kana_pref":"ｼﾏﾈｹﾝ","kana_city":"ﾔｽｷﾞｼ","kana_address":"ﾖｼｵｶﾁｮｳ","pref":"島根県","city":"安来市","address":"吉岡町"}]}