{"zip_code":[
{"zip_code":"6940000","kana_pref":"ｼﾏﾈｹﾝ","kana_city":"ｵｵﾀﾞｼ","kana_address":"","pref":"島根県","city":"大田市","address":""},
{"zip_code":"6940035","kana_pref":"ｼﾏﾈｹﾝ","kana_city":"ｵｵﾀﾞｼ","kana_address":"ｲｿﾀｹﾁｮｳ","pref":"島根県","city":"大田市","address":"五十猛町"},
{"zip_code":"6940433","kana_pref":"ｼﾏﾈｹﾝ","kana_city":"ｵｵﾀﾞｼ","kana_address":"ｵｵｼﾛﾁｮｳｵｵｴ","pref":"島根県","city":"大田市","address":"大代町大家"},
{"zip_code":"6940432","kana_pref":"ｼﾏﾈｹﾝ","kana_city":"ｵｵﾀﾞｼ","kana_address":"ｵｵｼﾛﾁｮｳﾆｲﾔ","pref":"島根県","city":"大田市","address":"大代町新屋"},
{"zip_code":"6940064","kana_pref":"ｼﾏﾈｹﾝ","kana_city":"ｵｵﾀﾞｼ","kana_address":"ｵｵﾀﾞﾁｮｳｵｵﾀﾞ","pref":"島根県","city":"大田市","address":"大田町大田"},
{"zip_code":"6940062","kana_pref":"ｼﾏﾈｹﾝ","kana_city":"ｵｵﾀﾞｼ","kana_address":"ｵｵﾀﾞﾁｮｳﾉｼﾞﾛ","pref":"島根県","city":"大田市","address":"大田町野城"},
{"zip_code":"6940063","kana_pref":"ｼﾏﾈｹﾝ","kana_city":"ｵｵﾀﾞｼ","kana_address":"ｵｵﾀﾞﾁｮｳﾖｼﾅｶﾞ","pref":"島根県","city":"大田市","address":"大田町吉永"},
{"zip_code":"6940305","kana_pref":"ｼﾏﾈｹﾝ","kana_city":"ｵｵﾀﾞｼ","kana_address":"ｵｵﾓﾘﾁｮｳ","pref":"島根県","city":"大田市","address":"大森町"},
{"zip_code":"6940033","kana_pref":"ｼﾏﾈｹﾝ","kana_city":"ｵｵﾀﾞｼ","kana_address":"ｵｵﾔﾁｮｳｵｵｸﾞﾆ","pref":"島根県","city":"大田市","address":"大屋町大国"},
{"zip_code":"6940034","kana_pref":"ｼﾏﾈｹﾝ","kana_city":"ｵｵﾀﾞｼ","kana_address":"ｵｵﾔﾁｮｳｵｵﾔ","pref":"島根県","city":"大田市","address":"大屋町大屋"},
{"zip_code":"6940032","kana_pref":"ｼﾏﾈｹﾝ","kana_city":"ｵｵﾀﾞｼ","kana_address":"ｵｵﾔﾁｮｳｵﾆﾑﾗ","pref":"島根県","city":"大田市","address":"大屋町鬼村"},
{"zip_code":"6940012","kana_pref":"ｼﾏﾈｹﾝ","kana_city":"ｵｵﾀﾞｼ","kana_address":"ｶﾜｲﾁｮｳｵｼﾊﾗ","pref":"島根県","city":"大田市","address":"川合町忍原"},
{"zip_code":"6940011","kana_pref":"ｼﾏﾈｹﾝ","kana_city":"ｵｵﾀﾞｼ","kana_address":"ｶﾜｲﾁｮｳｶﾜｲ","pref":"島根県","city":"大田市","address":"川合町川合"},
{"zip_code":"6940013","kana_pref":"ｼﾏﾈｹﾝ","kana_city":"ｵｵﾀﾞｼ","kana_address":"ｶﾜｲﾁｮｳﾖｼﾅｶﾞ","pref":"島根県","city":"大田市","address":"川合町吉永"},
{"zip_code":"6940052","kana_pref":"ｼﾏﾈｹﾝ","kana_city":"ｵｵﾀﾞｼ","kana_address":"ｸﾃﾁｮｳｻﾂｶ","pref":"島根県","city":"大田市","address":"久手町刺鹿"},
{"zip_code":"6940051","kana_pref":"ｼﾏﾈｹﾝ","kana_city":"ｵｵﾀﾞｼ","kana_address":"ｸﾃﾁｮｳﾊﾈﾆｼ","pref":"島根県","city":"大田市","address":"久手町波根西"},
{"zip_code":"6940022","kana_pref":"ｼﾏﾈｹﾝ","kana_city":"ｵｵﾀﾞｼ","kana_address":"ｸﾘﾁｮｳｲﾁﾊﾗ","pref":"島根県","city":"大田市","address":"久利町市原"},
{"zip_code":"6940024","kana_pref":"ｼﾏﾈｹﾝ","kana_city":"ｵｵﾀﾞｼ","kana_address":"ｸﾘﾁｮｳｸﾘ","pref":"島根県","city":"大田市","address":"久利町久利"},
{"zip_code":"6940023","kana_pref":"ｼﾏﾈｹﾝ","kana_city":"ｵｵﾀﾞｼ","kana_address":"ｸﾘﾁｮｳｻﾏ","pref":"島根県","city":"大田市","address":"久利町佐摩"},
{"zip_code":"6940025","kana_pref":"ｼﾏﾈｹﾝ","kana_city":"ｵｵﾀﾞｼ","kana_address":"ｸﾘﾁｮｳﾏﾂｼﾛ","pref":"島根県","city":"大田市","address":"久利町松代"},
{"zip_code":"6940021","kana_pref":"ｼﾏﾈｹﾝ","kana_city":"ｵｵﾀﾞｼ","kana_address":"ｸﾘﾁｮｳﾕｷﾂﾈ","pref":"島根県","city":"大田市","address":"久利町行恒"},
{"zip_code":"6940223","kana_pref":"ｼﾏﾈｹﾝ","kana_city":"ｵｵﾀﾞｼ","kana_address":"ｻﾝﾍﾞﾁｮｳｲｹﾀﾞ","pref":"島根県","city":"大田市","address":"三瓶町池田"},
{"zip_code":"6940221","kana_pref":"ｼﾏﾈｹﾝ","kana_city":"ｵｵﾀﾞｼ","kana_address":"ｻﾝﾍﾞﾁｮｳｳﾔﾏ","pref":"島根県","city":"大田市","address":"三瓶町上山"},
{"zip_code":"6940224","kana_pref":"ｼﾏﾈｹﾝ","kana_city":"ｵｵﾀﾞｼ","kana_address":"ｻﾝﾍﾞﾁｮｳｺﾔﾊﾗ","pref":"島根県","city":"大田市","address":"三瓶町小屋原"},
{"zip_code":"6940222","kana_pref":"ｼﾏﾈｹﾝ","kana_city":"ｵｵﾀﾞｼ","kana_address":"ｻﾝﾍﾞﾁｮｳｼｶﾞｸ","pref":"島根県","city":"大田市","address":"三瓶町志学"},
{"zip_code":"6940003","kana_pref":"ｼﾏﾈｹﾝ","kana_city":"ｵｵﾀﾞｼ","kana_address":"ｻﾝﾍﾞﾁｮｳﾀﾈ","pref":"島根県","city":"大田市","address":"三瓶町多根"},
{"zip_code":"6940004","kana_pref":"ｼﾏﾈｹﾝ","kana_city":"ｵｵﾀﾞｼ","kana_address":"ｻﾝﾍﾞﾁｮｳﾉｼﾞﾛ","pref":"島根県","city":"大田市","address":"三瓶町野城"},
{"zip_code":"6940031","kana_pref":"ｼﾏﾈｹﾝ","kana_city":"ｵｵﾀﾞｼ","kana_address":"ｼｽﾞﾏﾁｮｳ","pref":"島根県","city":"大田市","address":"静間町"},
{"zip_code":"6940431","kana_pref":"ｼﾏﾈｹﾝ","kana_city":"ｵｵﾀﾞｼ","kana_address":"ｿｼﾞｷﾁｮｳ","pref":"島根県","city":"大田市","address":"祖式町"},
{"zip_code":"6940061","kana_pref":"ｼﾏﾈｹﾝ","kana_city":"ｵｵﾀﾞｼ","kana_address":"ﾄﾐﾔﾏﾁｮｳﾔﾏﾅｶ","pref":"島根県","city":"大田市","address":"富山町山中"},
{"zip_code":"6940054","kana_pref":"ｼﾏﾈｹﾝ","kana_city":"ｵｵﾀﾞｼ","kana_address":"ﾄﾘｲﾁｮｳﾄﾘｲ","pref":"島根県","city":"大田市","address":"鳥井町鳥井"},
{"zip_code":"6940053","kana_pref":"ｼﾏﾈｹﾝ","kana_city":"ｵｵﾀﾞｼ","kana_address":"ﾄﾘｲﾁｮｳﾄﾘｺﾞｴ","pref":"島根県","city":"大田市","address":"鳥井町鳥越"},
{"zip_code":"6940042","kana_pref":"ｼﾏﾈｹﾝ","kana_city":"ｵｵﾀﾞｼ","kana_address":"ﾅｶﾞﾋｻﾁｮｳｲﾅﾓﾁ","pref":"島根県","city":"大田市","address":"長久町稲用"},
{"zip_code":"6940044","kana_pref":"ｼﾏﾈｹﾝ","kana_city":"ｵｵﾀﾞｼ","kana_address":"ﾅｶﾞﾋｻﾁｮｳﾂﾁｴ","pref":"島根県","city":"大田市","address":"長久町土江"},
{"zip_code":"6940041","kana_pref":"ｼﾏﾈｹﾝ","kana_city":"ｵｵﾀﾞｼ","kana_address":"ﾅｶﾞﾋｻﾁｮｳﾅｶﾞﾋｻ","pref":"島根県","city":"大田市","address":"長久町長久"},
{"zip_code":"6940043","kana_pref":"ｼﾏﾈｹﾝ","kana_city":"ｵｵﾀﾞｼ","kana_address":"ﾅｶﾞﾋｻﾁｮｳﾉﾌﾞｻﾄ","pref":"島根県","city":"大田市","address":"長久町延里"},
{"zip_code":"6940301","kana_pref":"ｼﾏﾈｹﾝ","kana_city":"ｵｵﾀﾞｼ","kana_address":"ﾐﾅｶﾐﾁｮｳｵｷﾞﾊﾗ","pref":"島根県","city":"大田市","address":"水上町荻原"},
{"zip_code":"6940303","kana_pref":"ｼﾏﾈｹﾝ","kana_city":"ｵｵﾀﾞｼ","kana_address":"ﾐﾅｶﾐﾁｮｳｼﾛﾂｷ","pref":"島根県","city":"大田市","address":"水上町白坏"},
{"zip_code":"6940302","kana_pref":"ｼﾏﾈｹﾝ","kana_city":"ｵｵﾀﾞｼ","kana_address":"ﾐﾅｶﾐﾁｮｳﾌｸﾊﾗ","pref":"島根県","city":"大田市","address":"水上町福原"},
{"zip_code":"6940304","kana_pref":"ｼﾏﾈｹﾝ","kana_city":"ｵｵﾀﾞｼ","kana_address":"ﾐﾅｶﾐﾁｮｳﾐｸｽ","pref":"島根県","city":"大田市","address":"水上町三久須"},
{"zip_code":"6940001","kana_pref":"ｼﾏﾈｹﾝ","kana_city":"ｵｵﾀﾞｼ","kana_address":"ﾔﾏｸﾞﾁﾁｮｳｻﾂﾒ","pref":"島根県","city":"大田市","address":"山口町佐津目"},
{"zip_code":"6940002","kana_pref":"ｼﾏﾈｹﾝ","kana_city":"ｵｵﾀﾞｼ","kana_address":"ﾔﾏｸﾞﾁﾁｮｳﾔﾏｸﾞﾁ","pref":"島根県","city":"大田市","address":"山口町山口"}]}