{"zip_code":[
{"zip_code":"6960000","kana_pref":"ｼﾏﾈｹﾝ","kana_city":"ｵｵﾁｸﾞﾝｶﾜﾓﾄﾏﾁ","kana_address":"","pref":"島根県","city":"邑智郡川本町","address":""},
{"zip_code":"6960003","kana_pref":"ｼﾏﾈｹﾝ","kana_city":"ｵｵﾁｸﾞﾝｶﾜﾓﾄﾏﾁ","kana_address":"ｲﾝﾊﾞﾗ","pref":"島根県","city":"邑智郡川本町","address":"因原"},
{"zip_code":"6960011","kana_pref":"ｼﾏﾈｹﾝ","kana_city":"ｵｵﾁｸﾞﾝｶﾜﾓﾄﾏﾁ","kana_address":"ｶﾜｳﾁ","pref":"島根県","city":"邑智郡川本町","address":"川内"},
{"zip_code":"6960004","kana_pref":"ｼﾏﾈｹﾝ","kana_city":"ｵｵﾁｸﾞﾝｶﾜﾓﾄﾏﾁ","kana_address":"ｶﾜｸﾀﾞﾘ","pref":"島根県","city":"邑智郡川本町","address":"川下"},
{"zip_code":"6960001","kana_pref":"ｼﾏﾈｹﾝ","kana_city":"ｵｵﾁｸﾞﾝｶﾜﾓﾄﾏﾁ","kana_address":"ｶﾜﾓﾄ","pref":"島根県","city":"邑智郡川本町","address":"川本"},
{"zip_code":"6961221","kana_pref":"ｼﾏﾈｹﾝ","kana_city":"ｵｵﾁｸﾞﾝｶﾜﾓﾄﾏﾁ","kana_address":"ｷﾀｻｷ","pref":"島根県","city":"邑智郡川本町","address":"北佐木"},
{"zip_code":"6960006","kana_pref":"ｼﾏﾈｹﾝ","kana_city":"ｵｵﾁｸﾞﾝｶﾜﾓﾄﾏﾁ","kana_address":"ｸｻﾞﾆ","pref":"島根県","city":"邑智郡川本町","address":"久座仁"},
{"zip_code":"6960012","kana_pref":"ｼﾏﾈｹﾝ","kana_city":"ｵｵﾁｸﾞﾝｶﾜﾓﾄﾏﾁ","kana_address":"ｺﾀﾆ","pref":"島根県","city":"邑智郡川本町","address":"小谷"},
{"zip_code":"6961226","kana_pref":"ｼﾏﾈｹﾝ","kana_city":"ｵｵﾁｸﾞﾝｶﾜﾓﾄﾏﾁ","kana_address":"ﾀｸﾎﾞ","pref":"島根県","city":"邑智郡川本町","address":"田窪"},
{"zip_code":"6960007","kana_pref":"ｼﾏﾈｹﾝ","kana_city":"ｵｵﾁｸﾞﾝｶﾜﾓﾄﾏﾁ","kana_address":"ﾀﾀ","pref":"島根県","city":"邑智郡川本町","address":"多田"},
{"zip_code":"6960005","kana_pref":"ｼﾏﾈｹﾝ","kana_city":"ｵｵﾁｸﾞﾝｶﾜﾓﾄﾏﾁ","kana_address":"ﾀﾝﾄﾞ","pref":"島根県","city":"邑智郡川本町","address":"谷戸"},
{"zip_code":"6960002","kana_pref":"ｼﾏﾈｹﾝ","kana_city":"ｵｵﾁｸﾞﾝｶﾜﾓﾄﾏﾁ","kana_address":"ﾂｶﾞﾕｷ","pref":"島根県","city":"邑智郡川本町","address":"都賀行"},
{"zip_code":"6960013","kana_pref":"ｼﾏﾈｹﾝ","kana_city":"ｵｵﾁｸﾞﾝｶﾜﾓﾄﾏﾁ","kana_address":"ﾏﾉﾊﾗ","pref":"島根県","city":"邑智郡川本町","address":"馬野原"},
{"zip_code":"6961225","kana_pref":"ｼﾏﾈｹﾝ","kana_city":"ｵｵﾁｸﾞﾝｶﾜﾓﾄﾏﾁ","kana_address":"ﾐﾅﾐｻｷ","pref":"島根県","city":"邑智郡川本町","address":"南佐木"},
{"zip_code":"6961224","kana_pref":"ｼﾏﾈｹﾝ","kana_city":"ｵｵﾁｸﾞﾝｶﾜﾓﾄﾏﾁ","kana_address":"ﾐﾊﾗ","pref":"島根県","city":"邑智郡川本町","address":"三原"},
{"zip_code":"6961223","kana_pref":"ｼﾏﾈｹﾝ","kana_city":"ｵｵﾁｸﾞﾝｶﾜﾓﾄﾏﾁ","kana_address":"ﾐﾏﾀ","pref":"島根県","city":"邑智郡川本町","address":"三俣"},
{"zip_code":"6961222","kana_pref":"ｼﾏﾈｹﾝ","kana_city":"ｵｵﾁｸﾞﾝｶﾜﾓﾄﾏﾁ","kana_address":"ﾕﾀﾞﾆ","pref":"島根県","city":"邑智郡川本町","address":"湯谷"},
{"zip_code":"6960701","kana_pref":"ｼﾏﾈｹﾝ","kana_city":"ｵｵﾁｸﾞﾝﾐｻﾄﾁｮｳ","kana_address":"ｳｼｵﾑﾗ","pref":"島根県","city":"邑智郡美郷町","address":"潮村"},
{"zip_code":"6961136","kana_pref":"ｼﾏﾈｹﾝ","kana_city":"ｵｵﾁｸﾞﾝﾐｻﾄﾁｮｳ","kana_address":"ｳﾁﾀﾞ","pref":"島根県","city":"邑智郡美郷町","address":"内田"},
{"zip_code":"6961137","kana_pref":"ｼﾏﾈｹﾝ","kana_city":"ｵｵﾁｸﾞﾝﾐｻﾄﾁｮｳ","kana_address":"ｶﾀﾗｶﾞｲ","pref":"島根県","city":"邑智郡美郷町","address":"櫨谷"},
{"zip_code":"6960702","kana_pref":"ｼﾏﾈｹﾝ","kana_city":"ｵｵﾁｸﾞﾝﾐｻﾄﾁｮｳ","kana_address":"ｶﾐﾉ","pref":"島根県","city":"邑智郡美郷町","address":"上野"},
{"zip_code":"6961141","kana_pref":"ｼﾏﾈｹﾝ","kana_city":"ｵｵﾁｸﾞﾝﾐｻﾄﾁｮｳ","kana_address":"ｷｮﾗﾝﾊﾞﾗ","pref":"島根県","city":"邑智郡美郷町","address":"京覧原"},
{"zip_code":"6961142","kana_pref":"ｼﾏﾈｹﾝ","kana_city":"ｵｵﾁｸﾞﾝﾐｻﾄﾁｮｳ","kana_address":"ｸｷﾊﾞﾗ","pref":"島根県","city":"邑智郡美郷町","address":"久喜原"},
{"zip_code":"6961144","kana_pref":"ｼﾏﾈｹﾝ","kana_city":"ｵｵﾁｸﾞﾝﾐｻﾄﾁｮｳ","kana_address":"ｺﾀﾆ","pref":"島根県","city":"邑智郡美郷町","address":"小谷"},
{"zip_code":"6961133","kana_pref":"ｼﾏﾈｹﾝ","kana_city":"ｵｵﾁｸﾞﾝﾐｻﾄﾁｮｳ","kana_address":"ｺﾊﾞﾔｼ","pref":"島根県","city":"邑智郡美郷町","address":"小林"},
{"zip_code":"6961135","kana_pref":"ｼﾏﾈｹﾝ","kana_city":"ｵｵﾁｸﾞﾝﾐｻﾄﾁｮｳ","kana_address":"ｺﾏﾂｼﾞ","pref":"島根県","city":"邑智郡美郷町","address":"小松地"},
{"zip_code":"6961132","kana_pref":"ｼﾏﾈｹﾝ","kana_city":"ｵｵﾁｸﾞﾝﾐｻﾄﾁｮｳ","kana_address":"ｼｷﾞﾐ","pref":"島根県","city":"邑智郡美郷町","address":"志君"},
{"zip_code":"6961143","kana_pref":"ｼﾏﾈｹﾝ","kana_city":"ｵｵﾁｸﾞﾝﾐｻﾄﾁｮｳ","kana_address":"ｼﾞﾄｳｼｮ","pref":"島根県","city":"邑智郡美郷町","address":"地頭所"},
{"zip_code":"6961134","kana_pref":"ｼﾏﾈｹﾝ","kana_city":"ｵｵﾁｸﾞﾝﾐｻﾄﾁｮｳ","kana_address":"ｿｳﾓﾘ","pref":"島根県","city":"邑智郡美郷町","address":"惣森"},
{"zip_code":"6960703","kana_pref":"ｼﾏﾈｹﾝ","kana_city":"ｵｵﾁｸﾞﾝﾐｻﾄﾁｮｳ","kana_address":"ﾂｶﾞﾆｼ","pref":"島根県","city":"邑智郡美郷町","address":"都賀西"},
{"zip_code":"6960704","kana_pref":"ｼﾏﾈｹﾝ","kana_city":"ｵｵﾁｸﾞﾝﾐｻﾄﾁｮｳ","kana_address":"ﾂｶﾞﾎﾝｺﾞｳ","pref":"島根県","city":"邑智郡美郷町","address":"都賀本郷"},
{"zip_code":"6960705","kana_pref":"ｼﾏﾈｹﾝ","kana_city":"ｵｵﾁｸﾞﾝﾐｻﾄﾁｮｳ","kana_address":"ﾂｶﾞﾕｷ","pref":"島根県","city":"邑智郡美郷町","address":"都賀行"},
{"zip_code":"6960706","kana_pref":"ｼﾏﾈｹﾝ","kana_city":"ｵｵﾁｸﾞﾝﾐｻﾄﾁｮｳ","kana_address":"ﾅｶﾞﾄｳ","pref":"島根県","city":"邑智郡美郷町","address":"長藤"},
{"zip_code":"6960712","kana_pref":"ｼﾏﾈｹﾝ","kana_city":"ｵｵﾁｸﾞﾝﾐｻﾄﾁｮｳ","kana_address":"ﾋｼﾞｷ","pref":"島根県","city":"邑智郡美郷町","address":"比敷"},
{"zip_code":"6961131","kana_pref":"ｼﾏﾈｹﾝ","kana_city":"ｵｵﾁｸﾞﾝﾐｻﾄﾁｮｳ","kana_address":"ﾍﾞｯﾌﾟ","pref":"島根県","city":"邑智郡美郷町","address":"別府"},
{"zip_code":"6961145","kana_pref":"ｼﾏﾈｹﾝ","kana_city":"ｵｵﾁｸﾞﾝﾐｻﾄﾁｮｳ","kana_address":"ﾐﾅﾄ","pref":"島根県","city":"邑智郡美郷町","address":"港"},
{"zip_code":"6960711","kana_pref":"ｼﾏﾈｹﾝ","kana_city":"ｵｵﾁｸﾞﾝﾐｻﾄﾁｮｳ","kana_address":"ﾐﾔｳﾁ","pref":"島根県","city":"邑智郡美郷町","address":"宮内"},
{"zip_code":"6960713","kana_pref":"ｼﾏﾈｹﾝ","kana_city":"ｵｵﾁｸﾞﾝﾐｻﾄﾁｮｳ","kana_address":"ﾑﾗﾉｺﾞｳ","pref":"島根県","city":"邑智郡美郷町","address":"村之郷"},
{"zip_code":"6960100","kana_pref":"ｼﾏﾈｹﾝ","kana_city":"ｵｵﾁｸﾞﾝｵｵﾅﾝﾁｮｳ","kana_address":"","pref":"島根県","city":"邑智郡邑南町","address":""},
{"zip_code":"6960501","kana_pref":"ｼﾏﾈｹﾝ","kana_city":"ｵｵﾁｸﾞﾝｵｵﾅﾝﾁｮｳ","kana_address":"ｱｽﾅ","pref":"島根県","city":"邑智郡邑南町","address":"阿須那"},
{"zip_code":"6960312","kana_pref":"ｼﾏﾈｹﾝ","kana_city":"ｵｵﾁｸﾞﾝｵｵﾅﾝﾁｮｳ","kana_address":"ｲｽﾞﾊ","pref":"島根県","city":"邑智郡邑南町","address":"出羽"},
{"zip_code":"6960101","kana_pref":"ｼﾏﾈｹﾝ","kana_city":"ｵｵﾁｸﾞﾝｵｵﾅﾝﾁｮｳ","kana_address":"ｲﾊﾞﾗ","pref":"島根県","city":"邑智郡邑南町","address":"井原"},
{"zip_code":"6960504","kana_pref":"ｼﾏﾈｹﾝ","kana_city":"ｵｵﾁｸﾞﾝｵｵﾅﾝﾁｮｳ","kana_address":"ｲﾏｲ","pref":"島根県","city":"邑智郡邑南町","address":"今井"},
{"zip_code":"6960314","kana_pref":"ｼﾏﾈｹﾝ","kana_city":"ｵｵﾁｸﾞﾝｵｵﾅﾝﾁｮｳ","kana_address":"ｲﾜﾔ","pref":"島根県","city":"邑智郡邑南町","address":"岩屋"},
{"zip_code":"6960601","kana_pref":"ｼﾏﾈｹﾝ","kana_city":"ｵｵﾁｸﾞﾝｵｵﾅﾝﾁｮｳ","kana_address":"ｳｴﾀﾞ","pref":"島根県","city":"邑智郡邑南町","address":"上田"},
{"zip_code":"6960503","kana_pref":"ｼﾏﾈｹﾝ","kana_city":"ｵｵﾁｸﾞﾝｵｵﾅﾝﾁｮｳ","kana_address":"ｳﾂﾞｲ","pref":"島根県","city":"邑智郡邑南町","address":"宇都井"},
{"zip_code":"6960315","kana_pref":"ｼﾏﾈｹﾝ","kana_city":"ｵｵﾁｸﾞﾝｵｵﾅﾝﾁｮｳ","kana_address":"ｵｵﾊﾞﾔｼ","pref":"島根県","city":"邑智郡邑南町","address":"大林"},
{"zip_code":"6960224","kana_pref":"ｼﾏﾈｹﾝ","kana_city":"ｵｵﾁｸﾞﾝｵｵﾅﾝﾁｮｳ","kana_address":"ｶﾐｶﾒﾀﾞﾆ","pref":"島根県","city":"邑智郡邑南町","address":"上亀谷"},
{"zip_code":"6960602","kana_pref":"ｼﾏﾈｹﾝ","kana_city":"ｵｵﾁｸﾞﾝｵｵﾅﾝﾁｮｳ","kana_address":"ｶﾐｸﾁﾊﾞ","pref":"島根県","city":"邑智郡邑南町","address":"上口羽"},
{"zip_code":"6960225","kana_pref":"ｼﾏﾈｹﾝ","kana_city":"ｵｵﾁｸﾞﾝｵｵﾅﾝﾁｮｳ","kana_address":"ｶﾐﾀﾄﾞｺﾛ","pref":"島根県","city":"邑智郡邑南町","address":"上田所"},
{"zip_code":"6960405","kana_pref":"ｼﾏﾈｹﾝ","kana_city":"ｵｵﾁｸﾞﾝｵｵﾅﾝﾁｮｳ","kana_address":"ｶﾐﾊﾗ","pref":"島根県","city":"邑智郡邑南町","address":"上原"},
{"zip_code":"6960502","kana_pref":"ｼﾏﾈｹﾝ","kana_city":"ｵｵﾁｸﾞﾝｵｵﾅﾝﾁｮｳ","kana_address":"ｷｽﾞﾀ","pref":"島根県","city":"邑智郡邑南町","address":"木須田"},
{"zip_code":"6960316","kana_pref":"ｼﾏﾈｹﾝ","kana_city":"ｵｵﾁｸﾞﾝｵｵﾅﾝﾁｮｳ","kana_address":"ｸｷ","pref":"島根県","city":"邑智郡邑南町","address":"久喜"},
{"zip_code":"6960131","kana_pref":"ｼﾏﾈｹﾝ","kana_city":"ｵｵﾁｸﾞﾝｵｵﾅﾝﾁｮｳ","kana_address":"ｺｳｽﾞｲ","pref":"島根県","city":"邑智郡邑南町","address":"高水"},
{"zip_code":"6960223","kana_pref":"ｼﾏﾈｹﾝ","kana_city":"ｵｵﾁｸﾞﾝｵｵﾅﾝﾁｮｳ","kana_address":"ｼﾓｶﾒﾀﾞﾆ","pref":"島根県","city":"邑智郡邑南町","address":"下亀谷"},
{"zip_code":"6960603","kana_pref":"ｼﾏﾈｹﾝ","kana_city":"ｵｵﾁｸﾞﾝｵｵﾅﾝﾁｮｳ","kana_address":"ｼﾓｸﾁﾊﾞ","pref":"島根県","city":"邑智郡邑南町","address":"下口羽"},
{"zip_code":"6960222","kana_pref":"ｼﾏﾈｹﾝ","kana_city":"ｵｵﾁｸﾞﾝｵｵﾅﾝﾁｮｳ","kana_address":"ｼﾓﾀﾄﾞｺﾛ","pref":"島根県","city":"邑智郡邑南町","address":"下田所"},
{"zip_code":"6960406","kana_pref":"ｼﾏﾈｹﾝ","kana_city":"ｵｵﾁｸﾞﾝｵｵﾅﾝﾁｮｳ","kana_address":"ﾀｶﾐ","pref":"島根県","city":"邑智郡邑南町","address":"高見"},
{"zip_code":"6960505","kana_pref":"ｼﾏﾈｹﾝ","kana_city":"ｵｵﾁｸﾞﾝｵｵﾅﾝﾁｮｳ","kana_address":"ﾄｶﾞｳﾁ","pref":"島根県","city":"邑智郡邑南町","address":"戸河内"},
{"zip_code":"6960102","kana_pref":"ｼﾏﾈｹﾝ","kana_city":"ｵｵﾁｸﾞﾝｵｵﾅﾝﾁｮｳ","kana_address":"ﾅｶﾉ","pref":"島根県","city":"邑智郡邑南町","address":"中野"},
{"zip_code":"6960404","kana_pref":"ｼﾏﾈｹﾝ","kana_city":"ｵｵﾁｸﾞﾝｵｵﾅﾝﾁｮｳ","kana_address":"ﾊﾗﾑﾗ","pref":"島根県","city":"邑智郡邑南町","address":"原村"},
{"zip_code":"6960104","kana_pref":"ｼﾏﾈｹﾝ","kana_city":"ｵｵﾁｸﾞﾝｵｵﾅﾝﾁｮｳ","kana_address":"ﾋﾜ","pref":"島根県","city":"邑智郡邑南町","address":"日和"},
{"zip_code":"6960402","kana_pref":"ｼﾏﾈｹﾝ","kana_city":"ｵｵﾁｸﾞﾝｵｵﾅﾝﾁｮｳ","kana_address":"ﾌｼﾀﾆ","pref":"島根県","city":"邑智郡邑南町","address":"伏谷"},
{"zip_code":"6960401","kana_pref":"ｼﾏﾈｹﾝ","kana_city":"ｵｵﾁｸﾞﾝｵｵﾅﾝﾁｮｳ","kana_address":"ﾌｾ","pref":"島根県","city":"邑智郡邑南町","address":"布施"},
{"zip_code":"6960221","kana_pref":"ｼﾏﾈｹﾝ","kana_city":"ｵｵﾁｸﾞﾝｵｵﾅﾝﾁｮｳ","kana_address":"ﾏｽﾌﾞﾁ","pref":"島根県","city":"邑智郡邑南町","address":"鱒渕"},
{"zip_code":"6960311","kana_pref":"ｼﾏﾈｹﾝ","kana_city":"ｵｵﾁｸﾞﾝｵｵﾅﾝﾁｮｳ","kana_address":"ﾐｯｶｲﾁ","pref":"島根県","city":"邑智郡邑南町","address":"三日市"},
{"zip_code":"6960407","kana_pref":"ｼﾏﾈｹﾝ","kana_city":"ｵｵﾁｸﾞﾝｵｵﾅﾝﾁｮｳ","kana_address":"ﾔｲﾛｲｼ","pref":"島根県","city":"邑智郡邑南町","address":"八色石"},
{"zip_code":"6960103","kana_pref":"ｼﾏﾈｹﾝ","kana_city":"ｵｵﾁｸﾞﾝｵｵﾅﾝﾁｮｳ","kana_address":"ﾔｶﾐ","pref":"島根県","city":"邑智郡邑南町","address":"矢上"},
{"zip_code":"6960313","kana_pref":"ｼﾏﾈｹﾝ","kana_city":"ｵｵﾁｸﾞﾝｵｵﾅﾝﾁｮｳ","kana_address":"ﾔﾏﾀﾞ","pref":"島根県","city":"邑智郡邑南町","address":"山田"},
{"zip_code":"6960506","kana_pref":"ｼﾏﾈｹﾝ","kana_city":"ｵｵﾁｸﾞﾝｵｵﾅﾝﾁｮｳ","kana_address":"ﾕｷﾀ","pref":"島根県","city":"邑智郡邑南町","address":"雪田"},
{"zip_code":"6960317","kana_pref":"ｼﾏﾈｹﾝ","kana_city":"ｵｵﾁｸﾞﾝｵｵﾅﾝﾁｮｳ","kana_address":"ﾖﾄﾞﾊﾗ","pref":"島根県","city":"邑智郡邑南町","address":"淀原"},
{"zip_code":"6960403","kana_pref":"ｼﾏﾈｹﾝ","kana_city":"ｵｵﾁｸﾞﾝｵｵﾅﾝﾁｮｳ","kana_address":"ﾜﾀﾞ","pref":"島根県","city":"邑智郡邑南町","address":"和田"}]}