{"zip_code":[
{"zip_code":"6970000","kana_pref":"ｼﾏﾈｹﾝ","kana_city":"ﾊﾏﾀﾞｼ","kana_address":"","pref":"島根県","city":"浜田市","address":""},
{"zip_code":"6970034","kana_pref":"ｼﾏﾈｹﾝ","kana_city":"ﾊﾏﾀﾞｼ","kana_address":"ｱｲｵｲﾁｮｳ","pref":"島根県","city":"浜田市","address":"相生町"},
{"zip_code":"6970022","kana_pref":"ｼﾏﾈｹﾝ","kana_city":"ﾊﾏﾀﾞｼ","kana_address":"ｱｻｲﾁｮｳ","pref":"島根県","city":"浜田市","address":"浅井町"},
{"zip_code":"6970514","kana_pref":"ｼﾏﾈｹﾝ","kana_city":"ﾊﾏﾀﾞｼ","kana_address":"ｱｻﾋﾁｮｳｲﾁｷﾞ","pref":"島根県","city":"浜田市","address":"旭町市木"},
{"zip_code":"6970425","kana_pref":"ｼﾏﾈｹﾝ","kana_city":"ﾊﾏﾀﾞｼ","kana_address":"ｱｻﾋﾁｮｳｲﾏｲﾁ","pref":"島根県","city":"浜田市","address":"旭町今市"},
{"zip_code":"6970427","kana_pref":"ｼﾏﾈｹﾝ","kana_city":"ﾊﾏﾀﾞｼ","kana_address":"ｱｻﾋﾁｮｳｷﾀ","pref":"島根県","city":"浜田市","address":"旭町木田"},
{"zip_code":"6970512","kana_pref":"ｼﾏﾈｹﾝ","kana_city":"ﾊﾏﾀﾞｼ","kana_address":"ｱｻﾋﾁｮｳｷﾀｵ","pref":"島根県","city":"浜田市","address":"旭町来尾"},
{"zip_code":"6970513","kana_pref":"ｼﾏﾈｹﾝ","kana_city":"ﾊﾏﾀﾞｼ","kana_address":"ｱｻﾋﾁｮｳｻｶﾓﾄ","pref":"島根県","city":"浜田市","address":"旭町坂本"},
{"zip_code":"6970431","kana_pref":"ｼﾏﾈｹﾝ","kana_city":"ﾊﾏﾀﾞｼ","kana_address":"ｱｻﾋﾁｮｳｻｶﾓﾄ","pref":"島根県","city":"浜田市","address":"旭町坂本"},
{"zip_code":"6970423","kana_pref":"ｼﾏﾈｹﾝ","kana_city":"ﾊﾏﾀﾞｼ","kana_address":"ｱｻﾋﾁｮｳｼｹﾞﾄﾐ","pref":"島根県","city":"浜田市","address":"旭町重富"},
{"zip_code":"6970511","kana_pref":"ｼﾏﾈｹﾝ","kana_city":"ﾊﾏﾀﾞｼ","kana_address":"ｱｻﾋﾁｮｳﾂｶﾜ","pref":"島根県","city":"浜田市","address":"旭町都川"},
{"zip_code":"6970422","kana_pref":"ｼﾏﾈｹﾝ","kana_city":"ﾊﾏﾀﾞｼ","kana_address":"ｱｻﾋﾁｮｳﾎﾝｺﾞｳ","pref":"島根県","city":"浜田市","address":"旭町本郷"},
{"zip_code":"6970426","kana_pref":"ｼﾏﾈｹﾝ","kana_city":"ﾊﾏﾀﾞｼ","kana_address":"ｱｻﾋﾁｮｳﾏﾙﾊﾞﾗ","pref":"島根県","city":"浜田市","address":"旭町丸原"},
{"zip_code":"6970421","kana_pref":"ｼﾏﾈｹﾝ","kana_city":"ﾊﾏﾀﾞｼ","kana_address":"ｱｻﾋﾁｮｳﾔﾏﾉｳﾁ","pref":"島根県","city":"浜田市","address":"旭町山ノ内"},
{"zip_code":"6970424","kana_pref":"ｼﾏﾈｹﾝ","kana_city":"ﾊﾏﾀﾞｼ","kana_address":"ｱｻﾋﾁｮｳﾜﾀﾞ","pref":"島根県","city":"浜田市","address":"旭町和田"},
{"zip_code":"6970033","kana_pref":"ｼﾏﾈｹﾝ","kana_city":"ﾊﾏﾀﾞｼ","kana_address":"ｱｻﾋﾏﾁ","pref":"島根県","city":"浜田市","address":"朝日町"},
{"zip_code":"6970062","kana_pref":"ｼﾏﾈｹﾝ","kana_city":"ﾊﾏﾀﾞｼ","kana_address":"ｱﾂﾀﾁｮｳ","pref":"島根県","city":"浜田市","address":"熱田町"},
{"zip_code":"6971334","kana_pref":"ｼﾏﾈｹﾝ","kana_city":"ﾊﾏﾀﾞｼ","kana_address":"ｲﾁｲﾀﾊﾞﾗﾁｮｳ","pref":"島根県","city":"浜田市","address":"櫟田原町"},
{"zip_code":"6971335","kana_pref":"ｼﾏﾈｹﾝ","kana_city":"ﾊﾏﾀﾞｼ","kana_address":"ｲﾉﾁｮｳ","pref":"島根県","city":"浜田市","address":"井野町"},
{"zip_code":"6970032","kana_pref":"ｼﾏﾈｹﾝ","kana_city":"ﾊﾏﾀﾞｼ","kana_address":"ｳｼｲﾁﾁｮｳ","pref":"島根県","city":"浜田市","address":"牛市町"},
{"zip_code":"6970011","kana_pref":"ｼﾏﾈｹﾝ","kana_city":"ﾊﾏﾀﾞｼ","kana_address":"ｳｼﾛﾉﾁｮｳ","pref":"島根県","city":"浜田市","address":"後野町"},
{"zip_code":"6970064","kana_pref":"ｼﾏﾈｹﾝ","kana_city":"ﾊﾏﾀﾞｼ","kana_address":"ｳﾁﾀﾞﾁｮｳ","pref":"島根県","city":"浜田市","address":"内田町"},
{"zip_code":"6971323","kana_pref":"ｼﾏﾈｹﾝ","kana_city":"ﾊﾏﾀﾞｼ","kana_address":"ｳﾁﾀﾞﾁｮｳ","pref":"島根県","city":"浜田市","address":"内田町"},
{"zip_code":"6970312","kana_pref":"ｼﾏﾈｹﾝ","kana_city":"ﾊﾏﾀﾞｼ","kana_address":"ｳﾂｲﾁｮｳ","pref":"島根県","city":"浜田市","address":"宇津井町"},
{"zip_code":"6970002","kana_pref":"ｼﾏﾈｹﾝ","kana_city":"ﾊﾏﾀﾞｼ","kana_address":"ｳﾌﾞﾕﾁｮｳ","pref":"島根県","city":"浜田市","address":"生湯町"},
{"zip_code":"6970044","kana_pref":"ｼﾏﾈｹﾝ","kana_city":"ﾊﾏﾀﾞｼ","kana_address":"ｴﾋﾞｽﾁｮｳ","pref":"島根県","city":"浜田市","address":"蛭子町"},
{"zip_code":"6970053","kana_pref":"ｼﾏﾈｹﾝ","kana_city":"ﾊﾏﾀﾞｼ","kana_address":"ｵｵﾂｼﾞﾁｮｳ","pref":"島根県","city":"浜田市","address":"大辻町"},
{"zip_code":"6971338","kana_pref":"ｼﾏﾈｹﾝ","kana_city":"ﾊﾏﾀﾞｼ","kana_address":"ｵﾘｲﾁｮｳ","pref":"島根県","city":"浜田市","address":"折居町"},
{"zip_code":"6970061","kana_pref":"ｼﾏﾈｹﾝ","kana_city":"ﾊﾏﾀﾞｼ","kana_address":"ｶｻｶﾞﾗﾁｮｳ","pref":"島根県","city":"浜田市","address":"笠柄町"},
{"zip_code":"6970041","kana_pref":"ｼﾏﾈｹﾝ","kana_city":"ﾊﾏﾀﾞｼ","kana_address":"ｶﾀﾆﾜﾁｮｳ","pref":"島根県","city":"浜田市","address":"片庭町"},
{"zip_code":"6970302","kana_pref":"ｼﾏﾈｹﾝ","kana_city":"ﾊﾏﾀﾞｼ","kana_address":"ｶﾅｷﾞﾁｮｳｲﾏﾌｸ","pref":"島根県","city":"浜田市","address":"金城町今福"},
{"zip_code":"6970305","kana_pref":"ｼﾏﾈｹﾝ","kana_city":"ﾊﾏﾀﾞｼ","kana_address":"ｶﾅｷﾞﾁｮｳｲﾘﾉ","pref":"島根県","city":"浜田市","address":"金城町入野"},
{"zip_code":"6970304","kana_pref":"ｼﾏﾈｹﾝ","kana_city":"ﾊﾏﾀﾞｼ","kana_address":"ｶﾅｷﾞﾁｮｳｳﾂｲ","pref":"島根県","city":"浜田市","address":"金城町宇津井"},
{"zip_code":"6970301","kana_pref":"ｼﾏﾈｹﾝ","kana_city":"ﾊﾏﾀﾞｼ","kana_address":"ｶﾅｷﾞﾁｮｳｵｲﾊﾞﾗ","pref":"島根県","city":"浜田市","address":"金城町追原"},
{"zip_code":"6970213","kana_pref":"ｼﾏﾈｹﾝ","kana_city":"ﾊﾏﾀﾞｼ","kana_address":"ｶﾅｷﾞﾁｮｳｵｸﾞﾆ","pref":"島根県","city":"浜田市","address":"金城町小国"},
{"zip_code":"6970122","kana_pref":"ｼﾏﾈｹﾝ","kana_city":"ﾊﾏﾀﾞｼ","kana_address":"ｶﾅｷﾞﾁｮｳｶﾐｸﾙﾊﾞﾗ","pref":"島根県","city":"浜田市","address":"金城町上来原"},
{"zip_code":"6970303","kana_pref":"ｼﾏﾈｹﾝ","kana_city":"ﾊﾏﾀﾞｼ","kana_address":"ｶﾅｷﾞﾁｮｳｸｻﾞ","pref":"島根県","city":"浜田市","address":"金城町久佐"},
{"zip_code":"6970123","kana_pref":"ｼﾏﾈｹﾝ","kana_city":"ﾊﾏﾀﾞｼ","kana_address":"ｶﾅｷﾞﾁｮｳｼﾁｼﾞｮｳ","pref":"島根県","city":"浜田市","address":"金城町七条"},
{"zip_code":"6970121","kana_pref":"ｼﾏﾈｹﾝ","kana_city":"ﾊﾏﾀﾞｼ","kana_address":"ｶﾅｷﾞﾁｮｳｼﾓｸﾙﾊﾞﾗ","pref":"島根県","city":"浜田市","address":"金城町下来原"},
{"zip_code":"6970212","kana_pref":"ｼﾏﾈｹﾝ","kana_city":"ﾊﾏﾀﾞｼ","kana_address":"ｶﾅｷﾞﾁｮｳﾅｶﾞﾀ","pref":"島根県","city":"浜田市","address":"金城町長田"},
{"zip_code":"6970211","kana_pref":"ｼﾏﾈｹﾝ","kana_city":"ﾊﾏﾀﾞｼ","kana_address":"ｶﾅｷﾞﾁｮｳﾊｻﾞ","pref":"島根県","city":"浜田市","address":"金城町波佐"},
{"zip_code":"6970005","kana_pref":"ｼﾏﾈｹﾝ","kana_city":"ﾊﾏﾀﾞｼ","kana_address":"ｶﾐｺｳﾁｮｳ","pref":"島根県","city":"浜田市","address":"上府町"},
{"zip_code":"6970045","kana_pref":"ｼﾏﾈｹﾝ","kana_city":"ﾊﾏﾀﾞｼ","kana_address":"ｷｮｳﾏﾁ","pref":"島根県","city":"浜田市","address":"京町"},
{"zip_code":"6970004","kana_pref":"ｼﾏﾈｹﾝ","kana_city":"ﾊﾏﾀﾞｼ","kana_address":"ｸｼﾛﾁｮｳ","pref":"島根県","city":"浜田市","address":"久代町"},
{"zip_code":"6970024","kana_pref":"ｼﾏﾈｹﾝ","kana_city":"ﾊﾏﾀﾞｼ","kana_address":"ｸﾛｶﾜﾁｮｳ","pref":"島根県","city":"浜田市","address":"黒川町"},
{"zip_code":"6970007","kana_pref":"ｼﾏﾈｹﾝ","kana_city":"ﾊﾏﾀﾞｼ","kana_address":"ｺｳｻﾁｮｳ","pref":"島根県","city":"浜田市","address":"高佐町"},
{"zip_code":"6970012","kana_pref":"ｼﾏﾈｹﾝ","kana_city":"ﾊﾏﾀﾞｼ","kana_address":"ｺｳﾁﾁｮｳ","pref":"島根県","city":"浜田市","address":"河内町"},
{"zip_code":"6970003","kana_pref":"ｼﾏﾈｹﾝ","kana_city":"ﾊﾏﾀﾞｼ","kana_address":"ｺｸﾌﾞﾁｮｳ","pref":"島根県","city":"浜田市","address":"国分町"},
{"zip_code":"6970031","kana_pref":"ｼﾏﾈｹﾝ","kana_city":"ﾊﾏﾀﾞｼ","kana_address":"ｺﾝﾔﾏﾁ","pref":"島根県","city":"浜田市","address":"紺屋町"},
{"zip_code":"6970043","kana_pref":"ｼﾏﾈｹﾝ","kana_city":"ﾊﾏﾀﾞｼ","kana_address":"ｻｶｴﾏﾁ","pref":"島根県","city":"浜田市","address":"栄町"},
{"zip_code":"6970311","kana_pref":"ｼﾏﾈｹﾝ","kana_city":"ﾊﾏﾀﾞｼ","kana_address":"ｻﾉﾁｮｳ","pref":"島根県","city":"浜田市","address":"佐野町"},
{"zip_code":"6970013","kana_pref":"ｼﾏﾈｹﾝ","kana_city":"ﾊﾏﾀﾞｼ","kana_address":"ｻﾝｶﾞｲﾁｮｳ","pref":"島根県","city":"浜田市","address":"三階町"},
{"zip_code":"6970047","kana_pref":"ｼﾏﾈｹﾝ","kana_city":"ﾊﾏﾀﾞｼ","kana_address":"ｼﾐｽﾞﾁｮｳ","pref":"島根県","city":"浜田市","address":"清水町"},
{"zip_code":"6970006","kana_pref":"ｼﾏﾈｹﾝ","kana_city":"ﾊﾏﾀﾞｼ","kana_address":"ｼﾓｺｳﾁｮｳ","pref":"島根県","city":"浜田市","address":"下府町"},
{"zip_code":"6970046","kana_pref":"ｼﾏﾈｹﾝ","kana_city":"ﾊﾏﾀﾞｼ","kana_address":"ｼﾝｺｳﾁｮｳ","pref":"島根県","city":"浜田市","address":"真光町"},
{"zip_code":"6970037","kana_pref":"ｼﾏﾈｹﾝ","kana_city":"ﾊﾏﾀﾞｼ","kana_address":"ｼﾝﾏﾁ","pref":"島根県","city":"浜田市","address":"新町"},
{"zip_code":"6970035","kana_pref":"ｼﾏﾈｹﾝ","kana_city":"ﾊﾏﾀﾞｼ","kana_address":"ｽｷﾞﾄﾞﾁｮｳ","pref":"島根県","city":"浜田市","address":"杉戸町"},
{"zip_code":"6971321","kana_pref":"ｼﾏﾈｹﾝ","kana_city":"ﾊﾏﾀﾞｼ","kana_address":"ｽﾌﾁｮｳ","pref":"島根県","city":"浜田市","address":"周布町"},
{"zip_code":"6970051","kana_pref":"ｼﾏﾈｹﾝ","kana_city":"ﾊﾏﾀﾞｼ","kana_address":"ｾﾄｶﾞｼﾏﾁｮｳ","pref":"島根県","city":"浜田市","address":"瀬戸ケ島町"},
{"zip_code":"6970057","kana_pref":"ｼﾏﾈｹﾝ","kana_city":"ﾊﾏﾀﾞｼ","kana_address":"ｾﾄﾐﾁｮｳ","pref":"島根県","city":"浜田市","address":"瀬戸見町"},
{"zip_code":"6970054","kana_pref":"ｼﾏﾈｹﾝ","kana_city":"ﾊﾏﾀﾞｼ","kana_address":"ﾀｶﾀﾁｮｳ","pref":"島根県","city":"浜田市","address":"高田町"},
{"zip_code":"6970015","kana_pref":"ｼﾏﾈｹﾝ","kana_city":"ﾊﾏﾀﾞｼ","kana_address":"ﾀｹｻﾞｺﾁｮｳ","pref":"島根県","city":"浜田市","address":"竹迫町"},
{"zip_code":"6971332","kana_pref":"ｼﾏﾈｹﾝ","kana_city":"ﾊﾏﾀﾞｼ","kana_address":"ﾀﾊﾞｾﾁｮｳ","pref":"島根県","city":"浜田市","address":"田橋町"},
{"zip_code":"6970026","kana_pref":"ｼﾏﾈｹﾝ","kana_city":"ﾊﾏﾀﾞｼ","kana_address":"ﾀﾏﾁ","pref":"島根県","city":"浜田市","address":"田町"},
{"zip_code":"6971326","kana_pref":"ｼﾏﾈｹﾝ","kana_city":"ﾊﾏﾀﾞｼ","kana_address":"ﾁﾜﾁｮｳ","pref":"島根県","city":"浜田市","address":"治和町"},
{"zip_code":"6971327","kana_pref":"ｼﾏﾈｹﾝ","kana_city":"ﾊﾏﾀﾞｼ","kana_address":"ﾂﾏﾁｮｳ","pref":"島根県","city":"浜田市","address":"津摩町"},
{"zip_code":"6970036","kana_pref":"ｼﾏﾈｹﾝ","kana_city":"ﾊﾏﾀﾞｼ","kana_address":"ﾃﾝﾏﾁｮｳ","pref":"島根県","city":"浜田市","address":"天満町"},
{"zip_code":"6970001","kana_pref":"ｼﾏﾈｹﾝ","kana_city":"ﾊﾏﾀﾞｼ","kana_address":"ﾄﾉｳﾗﾁｮｳ","pref":"島根県","city":"浜田市","address":"外ノ浦町"},
{"zip_code":"6970027","kana_pref":"ｼﾏﾈｹﾝ","kana_city":"ﾊﾏﾀﾞｼ","kana_address":"ﾄﾉﾏﾁ","pref":"島根県","city":"浜田市","address":"殿町"},
{"zip_code":"6970065","kana_pref":"ｼﾏﾈｹﾝ","kana_city":"ﾊﾏﾀﾞｼ","kana_address":"ﾅｲﾑﾗﾁｮｳ","pref":"島根県","city":"浜田市","address":"内村町"},
{"zip_code":"6971331","kana_pref":"ｼﾏﾈｹﾝ","kana_city":"ﾊﾏﾀﾞｼ","kana_address":"ﾅｲﾑﾗﾁｮｳ","pref":"島根県","city":"浜田市","address":"内村町"},
{"zip_code":"6970023","kana_pref":"ｼﾏﾈｹﾝ","kana_city":"ﾊﾏﾀﾞｼ","kana_address":"ﾅｶﾞｻﾜﾁｮｳ","pref":"島根県","city":"浜田市","address":"長沢町"},
{"zip_code":"6970063","kana_pref":"ｼﾏﾈｹﾝ","kana_city":"ﾊﾏﾀﾞｼ","kana_address":"ﾅｶﾞﾊﾏﾁｮｳ","pref":"島根県","city":"浜田市","address":"長浜町"},
{"zip_code":"6970014","kana_pref":"ｼﾏﾈｹﾝ","kana_city":"ﾊﾏﾀﾞｼ","kana_address":"ﾅｶﾞﾐﾁｮｳ","pref":"島根県","city":"浜田市","address":"長見町"},
{"zip_code":"6971333","kana_pref":"ｼﾏﾈｹﾝ","kana_city":"ﾊﾏﾀﾞｼ","kana_address":"ﾅﾍﾞｲｼﾁｮｳ","pref":"島根県","city":"浜田市","address":"鍋石町"},
{"zip_code":"6970042","kana_pref":"ｼﾏﾈｹﾝ","kana_city":"ﾊﾏﾀﾞｼ","kana_address":"ﾆｼｷﾏﾁ","pref":"島根県","city":"浜田市","address":"錦町"},
{"zip_code":"6971337","kana_pref":"ｼﾏﾈｹﾝ","kana_city":"ﾊﾏﾀﾞｼ","kana_address":"ﾆｼﾑﾗﾁｮｳ","pref":"島根県","city":"浜田市","address":"西村町"},
{"zip_code":"6970016","kana_pref":"ｼﾏﾈｹﾝ","kana_city":"ﾊﾏﾀﾞｼ","kana_address":"ﾉﾊﾞﾗﾁｮｳ","pref":"島根県","city":"浜田市","address":"野原町"},
{"zip_code":"6970017","kana_pref":"ｼﾏﾈｹﾝ","kana_city":"ﾊﾏﾀﾞｼ","kana_address":"ﾊﾗｲﾁｮｳ","pref":"島根県","city":"浜田市","address":"原井町"},
{"zip_code":"6970056","kana_pref":"ｼﾏﾈｹﾝ","kana_city":"ﾊﾏﾀﾞｼ","kana_address":"ﾊﾗﾁｮｳ","pref":"島根県","city":"浜田市","address":"原町"},
{"zip_code":"6971322","kana_pref":"ｼﾏﾈｹﾝ","kana_city":"ﾊﾏﾀﾞｼ","kana_address":"ﾋﾅｼﾁｮｳ","pref":"島根県","city":"浜田市","address":"日脚町"},
{"zip_code":"6970025","kana_pref":"ｼﾏﾈｹﾝ","kana_city":"ﾊﾏﾀﾞｼ","kana_address":"ﾋﾞﾜﾏﾁ","pref":"島根県","city":"浜田市","address":"琵琶町"},
{"zip_code":"6971324","kana_pref":"ｼﾏﾈｹﾝ","kana_city":"ﾊﾏﾀﾞｼ","kana_address":"ﾎﾉﾃﾞﾁｮｳ","pref":"島根県","city":"浜田市","address":"穂出町"},
{"zip_code":"6970021","kana_pref":"ｼﾏﾈｹﾝ","kana_city":"ﾊﾏﾀﾞｼ","kana_address":"ﾏﾂﾊﾞﾗﾁｮｳ","pref":"島根県","city":"浜田市","address":"松原町"},
{"zip_code":"6970052","kana_pref":"ｼﾏﾈｹﾝ","kana_city":"ﾊﾏﾀﾞｼ","kana_address":"ﾐﾅﾄﾏﾁ","pref":"島根県","city":"浜田市","address":"港町"},
{"zip_code":"6970055","kana_pref":"ｼﾏﾈｹﾝ","kana_city":"ﾊﾏﾀﾞｼ","kana_address":"ﾓﾄﾊﾏﾁｮｳ","pref":"島根県","city":"浜田市","address":"元浜町"},
{"zip_code":"6971215","kana_pref":"ｼﾏﾈｹﾝ","kana_city":"ﾊﾏﾀﾞｼ","kana_address":"ﾔｻｶﾁｮｳｲﾅｼﾛ","pref":"島根県","city":"浜田市","address":"弥栄町稲代"},
{"zip_code":"6971214","kana_pref":"ｼﾏﾈｹﾝ","kana_city":"ﾊﾏﾀﾞｼ","kana_address":"ﾔｻｶﾁｮｳｵｵﾂﾎﾞ","pref":"島根県","city":"浜田市","address":"弥栄町大坪"},
{"zip_code":"6971202","kana_pref":"ｼﾏﾈｹﾝ","kana_city":"ﾊﾏﾀﾞｼ","kana_address":"ﾔｻｶﾁｮｳｵｻｶ","pref":"島根県","city":"浜田市","address":"弥栄町小坂"},
{"zip_code":"6971204","kana_pref":"ｼﾏﾈｹﾝ","kana_city":"ﾊﾏﾀﾞｼ","kana_address":"ﾔｻｶﾁｮｳｶﾄﾞﾀ","pref":"島根県","city":"浜田市","address":"弥栄町門田"},
{"zip_code":"6971122","kana_pref":"ｼﾏﾈｹﾝ","kana_city":"ﾊﾏﾀﾞｼ","kana_address":"ﾔｻｶﾁｮｳｷﾂｶ","pref":"島根県","city":"浜田市","address":"弥栄町木都賀"},
{"zip_code":"6971203","kana_pref":"ｼﾏﾈｹﾝ","kana_city":"ﾊﾏﾀﾞｼ","kana_address":"ﾔｻｶﾁｮｳﾀｶｳﾁ","pref":"島根県","city":"浜田市","address":"弥栄町高内"},
{"zip_code":"6971123","kana_pref":"ｼﾏﾈｹﾝ","kana_city":"ﾊﾏﾀﾞｼ","kana_address":"ﾔｻｶﾁｮｳﾀﾉﾊﾗ","pref":"島根県","city":"浜田市","address":"弥栄町田野原"},
{"zip_code":"6971201","kana_pref":"ｼﾏﾈｹﾝ","kana_city":"ﾊﾏﾀﾞｼ","kana_address":"ﾔｻｶﾁｮｳﾄﾁｷﾞ","pref":"島根県","city":"浜田市","address":"弥栄町栃木"},
{"zip_code":"6971211","kana_pref":"ｼﾏﾈｹﾝ","kana_city":"ﾊﾏﾀﾞｼ","kana_address":"ﾔｻｶﾁｮｳﾅｶﾞﾔｽﾎﾝｺﾞｳ","pref":"島根県","city":"浜田市","address":"弥栄町長安本郷"},
{"zip_code":"6971121","kana_pref":"ｼﾏﾈｹﾝ","kana_city":"ﾊﾏﾀﾞｼ","kana_address":"ﾔｻｶﾁｮｳﾉｻｶ","pref":"島根県","city":"浜田市","address":"弥栄町野坂"},
{"zip_code":"6971213","kana_pref":"ｼﾏﾈｹﾝ","kana_city":"ﾊﾏﾀﾞｼ","kana_address":"ﾔｻｶﾁｮｳﾎﾄﾞﾊﾗ","pref":"島根県","city":"浜田市","address":"弥栄町程原"},
{"zip_code":"6971212","kana_pref":"ｼﾏﾈｹﾝ","kana_city":"ﾊﾏﾀﾞｼ","kana_address":"ﾔｻｶﾁｮｳﾐｻﾄ","pref":"島根県","city":"浜田市","address":"弥栄町三里"},
{"zip_code":"6971336","kana_pref":"ｼﾏﾈｹﾝ","kana_city":"ﾊﾏﾀﾞｼ","kana_address":"ﾖｺﾔﾏﾁｮｳ","pref":"島根県","city":"浜田市","address":"横山町"},
{"zip_code":"6971325","kana_pref":"ｼﾏﾈｹﾝ","kana_city":"ﾊﾏﾀﾞｼ","kana_address":"ﾖｼｼﾞﾁｮｳ","pref":"島根県","city":"浜田市","address":"吉地町"},
{"zip_code":"6970631","kana_pref":"ｼﾏﾈｹﾝ","kana_city":"ｵｵﾁｸﾞﾝｵｵﾅﾝﾁｮｳ","kana_address":"ｲﾁｷﾞ","pref":"島根県","city":"邑智郡邑南町","address":"市木"}]}