{"zip_code":[
{"zip_code":"6980000","kana_pref":"ｼﾏﾈｹﾝ","kana_city":"ﾏｽﾀﾞｼ","kana_address":"","pref":"島根県","city":"益田市","address":""},
{"zip_code":"6980034","kana_pref":"ｼﾏﾈｹﾝ","kana_city":"ﾏｽﾀﾞｼ","kana_address":"ｱｶｷﾞﾁｮｳ","pref":"島根県","city":"益田市","address":"赤城町"},
{"zip_code":"6980027","kana_pref":"ｼﾏﾈｹﾝ","kana_city":"ﾏｽﾀﾞｼ","kana_address":"ｱｹﾎﾞﾉﾋｶﾞｼﾏﾁ","pref":"島根県","city":"益田市","address":"あけぼの東町"},
{"zip_code":"6980025","kana_pref":"ｼﾏﾈｹﾝ","kana_city":"ﾏｽﾀﾞｼ","kana_address":"ｱｹﾎﾞﾉﾆｼﾏﾁ","pref":"島根県","city":"益田市","address":"あけぼの西町"},
{"zip_code":"6980026","kana_pref":"ｼﾏﾈｹﾝ","kana_city":"ﾏｽﾀﾞｼ","kana_address":"ｱｹﾎﾞﾉﾎﾝﾏﾁ","pref":"島根県","city":"益田市","address":"あけぼの本町"},
{"zip_code":"6982253","kana_pref":"ｼﾏﾈｹﾝ","kana_city":"ﾏｽﾀﾞｼ","kana_address":"ｱｻｶﾁｮｳ","pref":"島根県","city":"益田市","address":"愛栄町"},
{"zip_code":"6980022","kana_pref":"ｼﾏﾈｹﾝ","kana_city":"ﾏｽﾀﾞｼ","kana_address":"ｱﾘｱｹﾁｮｳ","pref":"島根県","city":"益田市","address":"有明町"},
{"zip_code":"6980037","kana_pref":"ｼﾏﾈｹﾝ","kana_city":"ﾏｽﾀﾞｼ","kana_address":"ｲｲﾀﾞﾁｮｳ","pref":"島根県","city":"益田市","address":"飯田町"},
{"zip_code":"6982142","kana_pref":"ｼﾏﾈｹﾝ","kana_city":"ﾏｽﾀﾞｼ","kana_address":"ｲﾁﾊﾗﾁｮｳ","pref":"島根県","city":"益田市","address":"市原町"},
{"zip_code":"6980014","kana_pref":"ｼﾏﾈｹﾝ","kana_city":"ﾏｽﾀﾞｼ","kana_address":"ｲﾜｸﾗﾁｮｳ","pref":"島根県","city":"益田市","address":"岩倉町"},
{"zip_code":"6980051","kana_pref":"ｼﾏﾈｹﾝ","kana_city":"ﾏｽﾀﾞｼ","kana_address":"ｳﾁﾀﾞﾁｮｳ","pref":"島根県","city":"益田市","address":"内田町"},
{"zip_code":"6982143","kana_pref":"ｼﾏﾈｹﾝ","kana_city":"ﾏｽﾀﾞｼ","kana_address":"ｳﾁﾀﾞﾁｮｳ","pref":"島根県","city":"益田市","address":"内田町"},
{"zip_code":"6980413","kana_pref":"ｼﾏﾈｹﾝ","kana_city":"ﾏｽﾀﾞｼ","kana_address":"ｳﾏﾀﾞﾆﾁｮｳ","pref":"島根県","city":"益田市","address":"馬谷町"},
{"zip_code":"6980024","kana_pref":"ｼﾏﾈｹﾝ","kana_city":"ﾏｽﾀﾞｼ","kana_address":"ｴｷﾏｴﾁｮｳ","pref":"島根県","city":"益田市","address":"駅前町"},
{"zip_code":"6980012","kana_pref":"ｼﾏﾈｹﾝ","kana_city":"ﾏｽﾀﾞｼ","kana_address":"ｵｵﾀﾆﾁｮｳ","pref":"島根県","city":"益田市","address":"大谷町"},
{"zip_code":"6980003","kana_pref":"ｼﾏﾈｹﾝ","kana_city":"ﾏｽﾀﾞｼ","kana_address":"ｵﾄﾖｼﾁｮｳ","pref":"島根県","city":"益田市","address":"乙吉町"},
{"zip_code":"6982252","kana_pref":"ｼﾏﾈｹﾝ","kana_city":"ﾏｽﾀﾞｼ","kana_address":"ｶｼﾊﾞﾗﾁｮｳ","pref":"島根県","city":"益田市","address":"柏原町"},
{"zip_code":"6982254","kana_pref":"ｼﾏﾈｹﾝ","kana_city":"ﾏｽﾀﾞｼ","kana_address":"ｶﾂﾗﾋﾗﾁｮｳ","pref":"島根県","city":"益田市","address":"桂平町"},
{"zip_code":"6982255","kana_pref":"ｼﾏﾈｹﾝ","kana_city":"ﾏｽﾀﾞｼ","kana_address":"ｶﾐｸﾛﾀﾞﾆﾁｮｳ","pref":"島根県","city":"益田市","address":"上黒谷町"},
{"zip_code":"6982145","kana_pref":"ｼﾏﾈｹﾝ","kana_city":"ﾏｽﾀﾞｼ","kana_address":"ｶﾜﾉﾎﾞﾘﾁｮｳ","pref":"島根県","city":"益田市","address":"川登町"},
{"zip_code":"6980013","kana_pref":"ｼﾏﾈｹﾝ","kana_city":"ﾏｽﾀﾞｼ","kana_address":"ｸｸﾓﾁｮｳ","pref":"島根県","city":"益田市","address":"久々茂町"},
{"zip_code":"6980001","kana_pref":"ｼﾏﾈｹﾝ","kana_city":"ﾏｽﾀﾞｼ","kana_address":"ｸｼﾛﾁｮｳ","pref":"島根県","city":"益田市","address":"久城町"},
{"zip_code":"6982251","kana_pref":"ｼﾏﾈｹﾝ","kana_city":"ﾏｽﾀﾞｼ","kana_address":"ｸﾛｽﾁｮｳ","pref":"島根県","city":"益田市","address":"黒周町"},
{"zip_code":"6980021","kana_pref":"ｼﾏﾈｹﾝ","kana_city":"ﾏｽﾀﾞｼ","kana_address":"ｻｲﾜｲﾁｮｳ","pref":"島根県","city":"益田市","address":"幸町"},
{"zip_code":"6980035","kana_pref":"ｼﾏﾈｹﾝ","kana_city":"ﾏｽﾀﾞｼ","kana_address":"ｻｶｴﾏﾁ","pref":"島根県","city":"益田市","address":"栄町"},
{"zip_code":"6980414","kana_pref":"ｼﾏﾈｹﾝ","kana_city":"ﾏｽﾀﾞｼ","kana_address":"ｼﾓﾊﾀﾞﾁｮｳ","pref":"島根県","city":"益田市","address":"下波田町"},
{"zip_code":"6980002","kana_pref":"ｼﾏﾈｹﾝ","kana_city":"ﾏｽﾀﾞｼ","kana_address":"ｼﾓﾎﾝｺﾞｳﾁｮｳ","pref":"島根県","city":"益田市","address":"下本郷町"},
{"zip_code":"6980007","kana_pref":"ｼﾏﾈｹﾝ","kana_city":"ﾏｽﾀﾞｼ","kana_address":"ｼｮｳﾜﾁｮｳ","pref":"島根県","city":"益田市","address":"昭和町"},
{"zip_code":"6982141","kana_pref":"ｼﾏﾈｹﾝ","kana_city":"ﾏｽﾀﾞｼ","kana_address":"ｼﾗｶﾐﾁｮｳ","pref":"島根県","city":"益田市","address":"白上町"},
{"zip_code":"6980036","kana_pref":"ｼﾏﾈｹﾝ","kana_city":"ﾏｽﾀﾞｼ","kana_address":"ｽｺﾁｮｳ","pref":"島根県","city":"益田市","address":"須子町"},
{"zip_code":"6980011","kana_pref":"ｼﾏﾈｹﾝ","kana_city":"ﾏｽﾀﾞｼ","kana_address":"ｿﾒﾊﾞﾁｮｳ","pref":"島根県","city":"益田市","address":"染羽町"},
{"zip_code":"6980041","kana_pref":"ｼﾏﾈｹﾝ","kana_city":"ﾏｽﾀﾞｼ","kana_address":"ﾀｶﾂ","pref":"島根県","city":"益田市","address":"高津"},
{"zip_code":"6980041","kana_pref":"ｼﾏﾈｹﾝ","kana_city":"ﾏｽﾀﾞｼ","kana_address":"ﾀｶﾂﾁｮｳ","pref":"島根県","city":"益田市","address":"高津町"},
{"zip_code":"6980031","kana_pref":"ｼﾏﾈｹﾝ","kana_city":"ﾏｽﾀﾞｼ","kana_address":"ﾀﾀﾞﾁｮｳ","pref":"島根県","city":"益田市","address":"多田町"},
{"zip_code":"6980016","kana_pref":"ｼﾏﾈｹﾝ","kana_city":"ﾏｽﾀﾞｼ","kana_address":"ﾄﾞｲﾁｮｳ","pref":"島根県","city":"益田市","address":"土井町"},
{"zip_code":"6980023","kana_pref":"ｼﾏﾈｹﾝ","kana_city":"ﾏｽﾀﾞｼ","kana_address":"ﾄｷﾜﾁｮｳ","pref":"島根県","city":"益田市","address":"常盤町"},
{"zip_code":"6980015","kana_pref":"ｼﾏﾈｹﾝ","kana_city":"ﾏｽﾀﾞｼ","kana_address":"ﾄﾁﾔﾏﾁｮｳ","pref":"島根県","city":"益田市","address":"栃山町"},
{"zip_code":"6982146","kana_pref":"ｼﾏﾈｹﾝ","kana_city":"ﾏｽﾀﾞｼ","kana_address":"ﾅｶｶﾞｳﾁﾁｮｳ","pref":"島根県","city":"益田市","address":"中垣内町"},
{"zip_code":"6980044","kana_pref":"ｼﾏﾈｹﾝ","kana_city":"ﾏｽﾀﾞｼ","kana_address":"ﾅｶｽﾞﾁｮｳ","pref":"島根県","city":"益田市","address":"中須町"},
{"zip_code":"6980043","kana_pref":"ｼﾏﾈｹﾝ","kana_city":"ﾏｽﾀﾞｼ","kana_address":"ﾅｶﾉｼﾏﾁｮｳ","pref":"島根県","city":"益田市","address":"中島町"},
{"zip_code":"6980042","kana_pref":"ｼﾏﾈｹﾝ","kana_city":"ﾏｽﾀﾞｼ","kana_address":"ﾅｶﾖｼﾀﾞﾁｮｳ","pref":"島根県","city":"益田市","address":"中吉田町"},
{"zip_code":"6980412","kana_pref":"ｼﾏﾈｹﾝ","kana_city":"ﾏｽﾀﾞｼ","kana_address":"ﾅｶﾞｻﾜﾁｮｳ","pref":"島根県","city":"益田市","address":"長沢町"},
{"zip_code":"6980017","kana_pref":"ｼﾏﾈｹﾝ","kana_city":"ﾏｽﾀﾞｼ","kana_address":"ﾅﾅｵﾁｮｳ","pref":"島根県","city":"益田市","address":"七尾町"},
{"zip_code":"6980411","kana_pref":"ｼﾏﾈｹﾝ","kana_city":"ﾏｽﾀﾞｼ","kana_address":"ﾊﾀﾞﾁｮｳ","pref":"島根県","city":"益田市","address":"波田町"},
{"zip_code":"6980004","kana_pref":"ｼﾏﾈｹﾝ","kana_city":"ﾏｽﾀﾞｼ","kana_address":"ﾋｶﾞｼﾏﾁ","pref":"島根県","city":"益田市","address":"東町"},
{"zip_code":"6981223","kana_pref":"ｼﾏﾈｹﾝ","kana_city":"ﾏｽﾀﾞｼ","kana_address":"ﾋｷﾐﾁｮｳｲｼﾀﾆ","pref":"島根県","city":"益田市","address":"匹見町石谷"},
{"zip_code":"6981213","kana_pref":"ｼﾏﾈｹﾝ","kana_city":"ﾏｽﾀﾞｼ","kana_address":"ﾋｷﾐﾁｮｳｵﾁｱｲ","pref":"島根県","city":"益田市","address":"匹見町落合"},
{"zip_code":"6981212","kana_pref":"ｼﾏﾈｹﾝ","kana_city":"ﾏｽﾀﾞｼ","kana_address":"ﾋｷﾐﾁｮｳｼｿ","pref":"島根県","city":"益田市","address":"匹見町紙祖"},
{"zip_code":"6981221","kana_pref":"ｼﾏﾈｹﾝ","kana_city":"ﾏｽﾀﾞｼ","kana_address":"ﾋｷﾐﾁｮｳｽﾐｶﾜ","pref":"島根県","city":"益田市","address":"匹見町澄川"},
{"zip_code":"6981211","kana_pref":"ｼﾏﾈｹﾝ","kana_city":"ﾏｽﾀﾞｼ","kana_address":"ﾋｷﾐﾁｮｳﾋｷﾐ","pref":"島根県","city":"益田市","address":"匹見町匹見"},
{"zip_code":"6981222","kana_pref":"ｼﾏﾈｹﾝ","kana_city":"ﾏｽﾀﾞｼ","kana_address":"ﾋｷﾐﾁｮｳﾋﾛｾ","pref":"島根県","city":"益田市","address":"匹見町広瀬"},
{"zip_code":"6981201","kana_pref":"ｼﾏﾈｹﾝ","kana_city":"ﾏｽﾀﾞｼ","kana_address":"ﾋｷﾐﾁｮｳﾐﾁｶﾜ","pref":"島根県","city":"益田市","address":"匹見町道川"},
{"zip_code":"6980005","kana_pref":"ｼﾏﾈｹﾝ","kana_city":"ﾏｽﾀﾞｼ","kana_address":"ﾎﾝﾏﾁ","pref":"島根県","city":"益田市","address":"本町"},
{"zip_code":"6980032","kana_pref":"ｼﾏﾈｹﾝ","kana_city":"ﾏｽﾀﾞｼ","kana_address":"ﾐｽﾞﾜｹﾁｮｳ","pref":"島根県","city":"益田市","address":"水分町"},
{"zip_code":"6980213","kana_pref":"ｼﾏﾈｹﾝ","kana_city":"ﾏｽﾀﾞｼ","kana_address":"ﾐﾄﾁｮｳｱｻｸﾗ","pref":"島根県","city":"益田市","address":"美都町朝倉"},
{"zip_code":"6980201","kana_pref":"ｼﾏﾈｹﾝ","kana_city":"ﾏｽﾀﾞｼ","kana_address":"ﾐﾄﾁｮｳｲﾀｲｶﾞﾜ","pref":"島根県","city":"益田市","address":"美都町板井川"},
{"zip_code":"6980202","kana_pref":"ｼﾏﾈｹﾝ","kana_city":"ﾏｽﾀﾞｼ","kana_address":"ﾐﾄﾁｮｳｳﾂﾞｶﾜ","pref":"島根県","city":"益田市","address":"美都町宇津川"},
{"zip_code":"6980206","kana_pref":"ｼﾏﾈｹﾝ","kana_city":"ﾏｽﾀﾞｼ","kana_address":"ﾐﾄﾁｮｳｸﾊﾞﾗ","pref":"島根県","city":"益田市","address":"美都町久原"},
{"zip_code":"6980211","kana_pref":"ｼﾏﾈｹﾝ","kana_city":"ﾏｽﾀﾞｼ","kana_address":"ﾐﾄﾁｮｳｺﾊﾞﾗ","pref":"島根県","city":"益田市","address":"美都町小原"},
{"zip_code":"6980214","kana_pref":"ｼﾏﾈｹﾝ","kana_city":"ﾏｽﾀﾞｼ","kana_address":"ﾐﾄﾁｮｳｻｻｸﾗ","pref":"島根県","city":"益田市","address":"美都町笹倉"},
{"zip_code":"6980212","kana_pref":"ｼﾏﾈｹﾝ","kana_city":"ﾏｽﾀﾞｼ","kana_address":"ﾐﾄﾁｮｳｾﾝﾄﾞｳ","pref":"島根県","city":"益田市","address":"美都町仙道"},
{"zip_code":"6980203","kana_pref":"ｼﾏﾈｹﾝ","kana_city":"ﾏｽﾀﾞｼ","kana_address":"ﾐﾄﾁｮｳﾂﾓ","pref":"島根県","city":"益田市","address":"美都町都茂"},
{"zip_code":"6980207","kana_pref":"ｼﾏﾈｹﾝ","kana_city":"ﾏｽﾀﾞｼ","kana_address":"ﾐﾄﾁｮｳﾏﾙﾓ","pref":"島根県","city":"益田市","address":"美都町丸茂"},
{"zip_code":"6980205","kana_pref":"ｼﾏﾈｹﾝ","kana_city":"ﾏｽﾀﾞｼ","kana_address":"ﾐﾄﾁｮｳﾐﾀﾆ","pref":"島根県","city":"益田市","address":"美都町三谷"},
{"zip_code":"6980204","kana_pref":"ｼﾏﾈｹﾝ","kana_city":"ﾏｽﾀﾞｼ","kana_address":"ﾐﾄﾁｮｳﾔﾏﾓﾄ","pref":"島根県","city":"益田市","address":"美都町山本"},
{"zip_code":"6980006","kana_pref":"ｼﾏﾈｹﾝ","kana_city":"ﾏｽﾀﾞｼ","kana_address":"ﾐﾔｹﾁｮｳ","pref":"島根県","city":"益田市","address":"三宅町"},
{"zip_code":"6982144","kana_pref":"ｼﾏﾈｹﾝ","kana_city":"ﾏｽﾀﾞｼ","kana_address":"ﾑｿｳﾁｮｳ","pref":"島根県","city":"益田市","address":"虫追町"},
{"zip_code":"6980033","kana_pref":"ｼﾏﾈｹﾝ","kana_city":"ﾏｽﾀﾞｼ","kana_address":"ﾓﾄﾏﾁ","pref":"島根県","city":"益田市","address":"元町"}]}