{"zip_code":[
{"zip_code":"6990407","kana_pref":"ｼﾏﾈｹﾝ","kana_city":"ﾏﾂｴｼ","kana_address":"ｼﾝｼﾞﾁｮｳｲｼﾞﾐ","pref":"島根県","city":"松江市","address":"宍道町伊志見"},
{"zip_code":"6990405","kana_pref":"ｼﾏﾈｹﾝ","kana_city":"ﾏﾂｴｼ","kana_address":"ｼﾝｼﾞﾁｮｳｶﾐｷﾏﾁ","pref":"島根県","city":"松江市","address":"宍道町上来待"},
{"zip_code":"6990406","kana_pref":"ｼﾏﾈｹﾝ","kana_city":"ﾏﾂｴｼ","kana_address":"ｼﾝｼﾞﾁｮｳｻｿｳ","pref":"島根県","city":"松江市","address":"宍道町佐々布"},
{"zip_code":"6990408","kana_pref":"ｼﾏﾈｹﾝ","kana_city":"ﾏﾂｴｼ","kana_address":"ｼﾝｼﾞﾁｮｳｼｮｳﾜ","pref":"島根県","city":"松江市","address":"宍道町昭和"},
{"zip_code":"6990401","kana_pref":"ｼﾏﾈｹﾝ","kana_city":"ﾏﾂｴｼ","kana_address":"ｼﾝｼﾞﾁｮｳｼﾝｼﾞ","pref":"島根県","city":"松江市","address":"宍道町宍道"},
{"zip_code":"6990403","kana_pref":"ｼﾏﾈｹﾝ","kana_city":"ﾏﾂｴｼ","kana_address":"ｼﾝｼﾞﾁｮｳﾆｼｷﾏﾁ","pref":"島根県","city":"松江市","address":"宍道町西来待"},
{"zip_code":"6990402","kana_pref":"ｼﾏﾈｹﾝ","kana_city":"ﾏﾂｴｼ","kana_address":"ｼﾝｼﾞﾁｮｳﾊｸｲｼ","pref":"島根県","city":"松江市","address":"宍道町白石"},
{"zip_code":"6990404","kana_pref":"ｼﾏﾈｹﾝ","kana_city":"ﾏﾂｴｼ","kana_address":"ｼﾝｼﾞﾁｮｳﾋｶﾞｼｷﾏﾁ","pref":"島根県","city":"松江市","address":"宍道町東来待"},
{"zip_code":"6990205","kana_pref":"ｼﾏﾈｹﾝ","kana_city":"ﾏﾂｴｼ","kana_address":"ﾀﾏﾕﾁｮｳｵｵﾀﾞﾆ","pref":"島根県","city":"松江市","address":"玉湯町大谷"},
{"zip_code":"6990201","kana_pref":"ｼﾏﾈｹﾝ","kana_city":"ﾏﾂｴｼ","kana_address":"ﾀﾏﾕﾁｮｳﾀﾏﾂｸﾘ","pref":"島根県","city":"松江市","address":"玉湯町玉造"},
{"zip_code":"6990204","kana_pref":"ｼﾏﾈｹﾝ","kana_city":"ﾏﾂｴｼ","kana_address":"ﾀﾏﾕﾁｮｳﾊﾔｼ","pref":"島根県","city":"松江市","address":"玉湯町林"},
{"zip_code":"6990203","kana_pref":"ｼﾏﾈｹﾝ","kana_city":"ﾏﾂｴｼ","kana_address":"ﾀﾏﾕﾁｮｳﾌｼﾞﾅ","pref":"島根県","city":"松江市","address":"玉湯町布志名"},
{"zip_code":"6990202","kana_pref":"ｼﾏﾈｹﾝ","kana_city":"ﾏﾂｴｼ","kana_address":"ﾀﾏﾕﾁｮｳﾕﾏﾁ","pref":"島根県","city":"松江市","address":"玉湯町湯町"},
{"zip_code":"6990108","kana_pref":"ｼﾏﾈｹﾝ","kana_city":"ﾏﾂｴｼ","kana_address":"ﾋｶﾞｼｲｽﾞﾓﾁｮｳｱﾀﾞｶｴ","pref":"島根県","city":"松江市","address":"東出雲町出雲郷"},
{"zip_code":"6990111","kana_pref":"ｼﾏﾈｹﾝ","kana_city":"ﾏﾂｴｼ","kana_address":"ﾋｶﾞｼｲｽﾞﾓﾁｮｳｲｳﾅﾝ","pref":"島根県","city":"松江市","address":"東出雲町意宇南"},
{"zip_code":"6990112","kana_pref":"ｼﾏﾈｹﾝ","kana_city":"ﾏﾂｴｼ","kana_address":"ﾋｶﾞｼｲｽﾞﾓﾁｮｳｲｳﾋｶﾞｼ","pref":"島根県","city":"松江市","address":"東出雲町意宇東"},
{"zip_code":"6990107","kana_pref":"ｼﾏﾈｹﾝ","kana_city":"ﾏﾂｴｼ","kana_address":"ﾋｶﾞｼｲｽﾞﾓﾁｮｳｲﾏﾐﾔ","pref":"島根県","city":"松江市","address":"東出雲町今宮"},
{"zip_code":"6990101","kana_pref":"ｼﾏﾈｹﾝ","kana_city":"ﾏﾂｴｼ","kana_address":"ﾋｶﾞｼｲｽﾞﾓﾁｮｳｲﾔ","pref":"島根県","city":"松江市","address":"東出雲町揖屋"},
{"zip_code":"6990105","kana_pref":"ｼﾏﾈｹﾝ","kana_city":"ﾏﾂｴｼ","kana_address":"ﾋｶﾞｼｲｽﾞﾓﾁｮｳｳﾁｳﾏ","pref":"島根県","city":"松江市","address":"東出雲町内馬"},
{"zip_code":"6990106","kana_pref":"ｼﾏﾈｹﾝ","kana_city":"ﾏﾂｴｼ","kana_address":"ﾋｶﾞｼｲｽﾞﾓﾁｮｳｶｽｶﾞ","pref":"島根県","city":"松江市","address":"東出雲町春日"},
{"zip_code":"6990103","kana_pref":"ｼﾏﾈｹﾝ","kana_city":"ﾏﾂｴｼ","kana_address":"ﾋｶﾞｼｲｽﾞﾓﾁｮｳｶﾐｲﾄｳ","pref":"島根県","city":"松江市","address":"東出雲町上意東"},
{"zip_code":"6990102","kana_pref":"ｼﾏﾈｹﾝ","kana_city":"ﾏﾂｴｼ","kana_address":"ﾋｶﾞｼｲｽﾞﾓﾁｮｳｼﾓｲﾄｳ","pref":"島根県","city":"松江市","address":"東出雲町下意東"},
{"zip_code":"6990104","kana_pref":"ｼﾏﾈｹﾝ","kana_city":"ﾏﾂｴｼ","kana_address":"ﾋｶﾞｼｲｽﾞﾓﾁｮｳｽﾀ","pref":"島根県","city":"松江市","address":"東出雲町須田"},
{"zip_code":"6990110","kana_pref":"ｼﾏﾈｹﾝ","kana_city":"ﾏﾂｴｼ","kana_address":"ﾋｶﾞｼｲｽﾞﾓﾁｮｳﾆｼｷｼﾝﾏﾁ","pref":"島根県","city":"松江市","address":"東出雲町錦新町"},
{"zip_code":"6990109","kana_pref":"ｼﾏﾈｹﾝ","kana_city":"ﾏﾂｴｼ","kana_address":"ﾋｶﾞｼｲｽﾞﾓﾁｮｳﾆｼｷﾊﾏ","pref":"島根県","city":"松江市","address":"東出雲町錦浜"},
{"zip_code":"6993302","kana_pref":"ｼﾏﾈｹﾝ","kana_city":"ﾊﾏﾀﾞｼ","kana_address":"ﾐｽﾐﾁｮｳｱｼﾀﾞﾆ","pref":"島根県","city":"浜田市","address":"三隅町芦谷"},
{"zip_code":"6993215","kana_pref":"ｼﾏﾈｹﾝ","kana_city":"ﾊﾏﾀﾞｼ","kana_address":"ﾐｽﾐﾁｮｳｲｶﾞﾜ","pref":"島根県","city":"浜田市","address":"三隅町井川"},
{"zip_code":"6993301","kana_pref":"ｼﾏﾈｹﾝ","kana_city":"ﾊﾏﾀﾞｼ","kana_address":"ﾐｽﾐﾁｮｳｲﾉ","pref":"島根県","city":"浜田市","address":"三隅町井野"},
{"zip_code":"6993226","kana_pref":"ｼﾏﾈｹﾝ","kana_city":"ﾊﾏﾀﾞｼ","kana_address":"ﾐｽﾐﾁｮｳｵｶﾐ","pref":"島根県","city":"浜田市","address":"三隅町岡見"},
{"zip_code":"6993222","kana_pref":"ｼﾏﾈｹﾝ","kana_city":"ﾊﾏﾀﾞｼ","kana_address":"ﾐｽﾐﾁｮｳｵﾘｲ","pref":"島根県","city":"浜田市","address":"三隅町折居"},
{"zip_code":"6993216","kana_pref":"ｼﾏﾈｹﾝ","kana_city":"ﾊﾏﾀﾞｼ","kana_address":"ﾐｽﾐﾁｮｳｶﾐｺﾜ","pref":"島根県","city":"浜田市","address":"三隅町上古和"},
{"zip_code":"6993217","kana_pref":"ｼﾏﾈｹﾝ","kana_city":"ﾊﾏﾀﾞｼ","kana_address":"ﾐｽﾐﾁｮｳｸﾛｻﾜ","pref":"島根県","city":"浜田市","address":"三隅町黒沢"},
{"zip_code":"6993213","kana_pref":"ｼﾏﾈｹﾝ","kana_city":"ﾊﾏﾀﾞｼ","kana_address":"ﾐｽﾐﾁｮｳｺｳﾁ","pref":"島根県","city":"浜田市","address":"三隅町河内"},
{"zip_code":"6993223","kana_pref":"ｼﾏﾈｹﾝ","kana_city":"ﾊﾏﾀﾞｼ","kana_address":"ﾐｽﾐﾁｮｳｻｲｺﾞｳﾁ","pref":"島根県","city":"浜田市","address":"三隅町西河内"},
{"zip_code":"6993215","kana_pref":"ｼﾏﾈｹﾝ","kana_city":"ﾊﾏﾀﾞｼ","kana_address":"ﾐｽﾐﾁｮｳｼﾓｺﾜ","pref":"島根県","city":"浜田市","address":"三隅町下古和"},
{"zip_code":"6993221","kana_pref":"ｼﾏﾈｹﾝ","kana_city":"ﾊﾏﾀﾞｼ","kana_address":"ﾐｽﾐﾁｮｳﾋｶﾞｼﾋﾗﾊﾞﾗ","pref":"島根県","city":"浜田市","address":"三隅町東平原"},
{"zip_code":"6993225","kana_pref":"ｼﾏﾈｹﾝ","kana_city":"ﾊﾏﾀﾞｼ","kana_address":"ﾐｽﾐﾁｮｳﾌﾙｲﾁﾊﾞ","pref":"島根県","city":"浜田市","address":"三隅町古市場"},
{"zip_code":"6993211","kana_pref":"ｼﾏﾈｹﾝ","kana_city":"ﾊﾏﾀﾞｼ","kana_address":"ﾐｽﾐﾁｮｳﾐｽﾐ","pref":"島根県","city":"浜田市","address":"三隅町三隅"},
{"zip_code":"6993224","kana_pref":"ｼﾏﾈｹﾝ","kana_city":"ﾊﾏﾀﾞｼ","kana_address":"ﾐｽﾐﾁｮｳﾐﾅﾄｳﾗ","pref":"島根県","city":"浜田市","address":"三隅町湊浦"},
{"zip_code":"6993212","kana_pref":"ｼﾏﾈｹﾝ","kana_city":"ﾊﾏﾀﾞｼ","kana_address":"ﾐｽﾐﾁｮｳﾑｶｲﾉﾀ","pref":"島根県","city":"浜田市","address":"三隅町向野田"},
{"zip_code":"6993303","kana_pref":"ｼﾏﾈｹﾝ","kana_city":"ﾊﾏﾀﾞｼ","kana_address":"ﾐｽﾐﾁｮｳﾑﾛﾀﾞﾆ","pref":"島根県","city":"浜田市","address":"三隅町室谷"},
{"zip_code":"6993214","kana_pref":"ｼﾏﾈｹﾝ","kana_city":"ﾊﾏﾀﾞｼ","kana_address":"ﾐｽﾐﾁｮｳﾔﾊﾞﾗ","pref":"島根県","city":"浜田市","address":"三隅町矢原"},
{"zip_code":"6990821","kana_pref":"ｼﾏﾈｹﾝ","kana_city":"ｲｽﾞﾓｼ","kana_address":"ｵｵｼﾞﾏﾁｮｳ","pref":"島根県","city":"出雲市","address":"大島町"},
{"zip_code":"6990817","kana_pref":"ｼﾏﾈｹﾝ","kana_city":"ｲｽﾞﾓｼ","kana_address":"ｺﾘｮｳﾁｮｳｲﾀﾂﾞ","pref":"島根県","city":"出雲市","address":"湖陵町板津"},
{"zip_code":"6990816","kana_pref":"ｼﾏﾈｹﾝ","kana_city":"ｲｽﾞﾓｼ","kana_address":"ｺﾘｮｳﾁｮｳｵｵｲｹ","pref":"島根県","city":"出雲市","address":"湖陵町大池"},
{"zip_code":"6990811","kana_pref":"ｼﾏﾈｹﾝ","kana_city":"ｲｽﾞﾓｼ","kana_address":"ｺﾘｮｳﾁｮｳｻｼｳﾐ","pref":"島根県","city":"出雲市","address":"湖陵町差海"},
{"zip_code":"6990813","kana_pref":"ｼﾏﾈｹﾝ","kana_city":"ｲｽﾞﾓｼ","kana_address":"ｺﾘｮｳﾁｮｳｻﾝﾌﾞ","pref":"島根県","city":"出雲市","address":"湖陵町三部"},
{"zip_code":"6990814","kana_pref":"ｼﾏﾈｹﾝ","kana_city":"ｲｽﾞﾓｼ","kana_address":"ｺﾘｮｳﾁｮｳｼﾞｮｳﾗｸｼﾞ","pref":"島根県","city":"出雲市","address":"湖陵町常楽寺"},
{"zip_code":"6990812","kana_pref":"ｼﾏﾈｹﾝ","kana_city":"ｲｽﾞﾓｼ","kana_address":"ｺﾘｮｳﾁｮｳﾆﾌﾞ","pref":"島根県","city":"出雲市","address":"湖陵町二部"},
{"zip_code":"6990815","kana_pref":"ｼﾏﾈｹﾝ","kana_city":"ｲｽﾞﾓｼ","kana_address":"ｺﾘｮｳﾁｮｳﾊﾀﾑﾗ","pref":"島根県","city":"出雲市","address":"湖陵町畑村"},
{"zip_code":"6990822","kana_pref":"ｼﾏﾈｹﾝ","kana_city":"ｲｽﾞﾓｼ","kana_address":"ｼﾞﾝｻﾞｲｵｷﾁｮｳ","pref":"島根県","city":"出雲市","address":"神西沖町"},
{"zip_code":"6990825","kana_pref":"ｼﾏﾈｹﾝ","kana_city":"ｲｽﾞﾓｼ","kana_address":"ｼﾞﾝｻﾞｲｼﾝﾏﾁ","pref":"島根県","city":"出雲市","address":"神西新町"},
{"zip_code":"6990762","kana_pref":"ｼﾏﾈｹﾝ","kana_city":"ｲｽﾞﾓｼ","kana_address":"ﾀｲｼｬﾁｮｳｳﾄﾞ","pref":"島根県","city":"出雲市","address":"大社町鵜峠"},
{"zip_code":"6990764","kana_pref":"ｼﾏﾈｹﾝ","kana_city":"ｲｽﾞﾓｼ","kana_address":"ﾀｲｼｬﾁｮｳｳﾘｭｳ","pref":"島根県","city":"出雲市","address":"大社町宇龍"},
{"zip_code":"6990722","kana_pref":"ｼﾏﾈｹﾝ","kana_city":"ｲｽﾞﾓｼ","kana_address":"ﾀｲｼｬﾁｮｳｷﾀｱﾗｷ","pref":"島根県","city":"出雲市","address":"大社町北荒木"},
{"zip_code":"6990702","kana_pref":"ｼﾏﾈｹﾝ","kana_city":"ｲｽﾞﾓｼ","kana_address":"ﾀｲｼｬﾁｮｳｷﾂﾞｷｷﾀ","pref":"島根県","city":"出雲市","address":"大社町杵築北"},
{"zip_code":"6990751","kana_pref":"ｼﾏﾈｹﾝ","kana_city":"ｲｽﾞﾓｼ","kana_address":"ﾀｲｼｬﾁｮｳｷﾂﾞｷﾆｼ","pref":"島根県","city":"出雲市","address":"大社町杵築西"},
{"zip_code":"6990701","kana_pref":"ｼﾏﾈｹﾝ","kana_city":"ｲｽﾞﾓｼ","kana_address":"ﾀｲｼｬﾁｮｳｷﾂﾞｷﾋｶﾞｼ","pref":"島根県","city":"出雲市","address":"大社町杵築東"},
{"zip_code":"6990711","kana_pref":"ｼﾏﾈｹﾝ","kana_city":"ｲｽﾞﾓｼ","kana_address":"ﾀｲｼｬﾁｮｳｷﾂﾞｷﾐﾅﾐ","pref":"島根県","city":"出雲市","address":"大社町杵築南"},
{"zip_code":"6990761","kana_pref":"ｼﾏﾈｹﾝ","kana_city":"ｲｽﾞﾓｼ","kana_address":"ﾀｲｼｬﾁｮｳｻｷﾞｳﾗ","pref":"島根県","city":"出雲市","address":"大社町鷺浦"},
{"zip_code":"6990721","kana_pref":"ｼﾏﾈｹﾝ","kana_city":"ｲｽﾞﾓｼ","kana_address":"ﾀｲｼｬﾁｮｳｼｭｳﾘﾒﾝ","pref":"島根県","city":"出雲市","address":"大社町修理免"},
{"zip_code":"6990741","kana_pref":"ｼﾏﾈｹﾝ","kana_city":"ｲｽﾞﾓｼ","kana_address":"ﾀｲｼｬﾁｮｳﾅｶｱﾗｷ","pref":"島根県","city":"出雲市","address":"大社町中荒木"},
{"zip_code":"6990732","kana_pref":"ｼﾏﾈｹﾝ","kana_city":"ｲｽﾞﾓｼ","kana_address":"ﾀｲｼｬﾁｮｳﾆｭｳﾅﾝ","pref":"島根県","city":"出雲市","address":"大社町入南"},
{"zip_code":"6990733","kana_pref":"ｼﾏﾈｹﾝ","kana_city":"ｲｽﾞﾓｼ","kana_address":"ﾀｲｼｬﾁｮｳﾋｼﾈ","pref":"島根県","city":"出雲市","address":"大社町菱根"},
{"zip_code":"6990763","kana_pref":"ｼﾏﾈｹﾝ","kana_city":"ｲｽﾞﾓｼ","kana_address":"ﾀｲｼｬﾁｮｳﾋﾉﾐｻｷ","pref":"島根県","city":"出雲市","address":"大社町日御碕"},
{"zip_code":"6990731","kana_pref":"ｼﾏﾈｹﾝ","kana_city":"ｲｽﾞﾓｼ","kana_address":"ﾀｲｼｬﾁｮｳﾖｳｶﾝ","pref":"島根県","city":"出雲市","address":"大社町遙堪"},
{"zip_code":"6990905","kana_pref":"ｼﾏﾈｹﾝ","kana_city":"ｲｽﾞﾓｼ","kana_address":"ﾀｷﾁｮｳｵｸﾀｷﾞ","pref":"島根県","city":"出雲市","address":"多伎町奥田儀"},
{"zip_code":"6990903","kana_pref":"ｼﾏﾈｹﾝ","kana_city":"ｲｽﾞﾓｼ","kana_address":"ﾀｷﾁｮｳｵﾀﾞ","pref":"島根県","city":"出雲市","address":"多伎町小田"},
{"zip_code":"6990906","kana_pref":"ｼﾏﾈｹﾝ","kana_city":"ｲｽﾞﾓｼ","kana_address":"ﾀｷﾁｮｳｶﾝﾊﾞﾗ","pref":"島根県","city":"出雲市","address":"多伎町神原"},
{"zip_code":"6990904","kana_pref":"ｼﾏﾈｹﾝ","kana_city":"ｲｽﾞﾓｼ","kana_address":"ﾀｷﾁｮｳｸﾁﾀｷﾞ","pref":"島根県","city":"出雲市","address":"多伎町口田儀"},
{"zip_code":"6990901","kana_pref":"ｼﾏﾈｹﾝ","kana_city":"ｲｽﾞﾓｼ","kana_address":"ﾀｷﾁｮｳｸﾑﾗ","pref":"島根県","city":"出雲市","address":"多伎町久村"},
{"zip_code":"6990902","kana_pref":"ｼﾏﾈｹﾝ","kana_city":"ｲｽﾞﾓｼ","kana_address":"ﾀｷﾁｮｳﾀｷ","pref":"島根県","city":"出雲市","address":"多伎町多岐"},
{"zip_code":"6990824","kana_pref":"ｼﾏﾈｹﾝ","kana_city":"ｲｽﾞﾓｼ","kana_address":"ﾆｼｼﾞﾝｻﾞｲﾁｮｳ","pref":"島根県","city":"出雲市","address":"西神西町"},
{"zip_code":"6990823","kana_pref":"ｼﾏﾈｹﾝ","kana_city":"ｲｽﾞﾓｼ","kana_address":"ﾋｶﾞｼｼﾞﾝｻﾞｲﾁｮｳ","pref":"島根県","city":"出雲市","address":"東神西町"},
{"zip_code":"6990615","kana_pref":"ｼﾏﾈｹﾝ","kana_city":"ｲｽﾞﾓｼ","kana_address":"ﾋｶﾜﾁｮｳｱｲｶﾜ","pref":"島根県","city":"出雲市","address":"斐川町併川"},
{"zip_code":"6990611","kana_pref":"ｼﾏﾈｹﾝ","kana_city":"ｲｽﾞﾓｼ","kana_address":"ﾋｶﾜﾁｮｳｱｸﾞ","pref":"島根県","city":"出雲市","address":"斐川町阿宮"},
{"zip_code":"6990644","kana_pref":"ｼﾏﾈｹﾝ","kana_city":"ｲｽﾞﾓｼ","kana_address":"ﾋｶﾜﾁｮｳｲﾏｻﾞｲｹ","pref":"島根県","city":"出雲市","address":"斐川町今在家"},
{"zip_code":"6990551","kana_pref":"ｼﾏﾈｹﾝ","kana_city":"ｲｽﾞﾓｼ","kana_address":"ﾋｶﾜﾁｮｳｵｷﾉｽ","pref":"島根県","city":"出雲市","address":"斐川町沖洲"},
{"zip_code":"6990501","kana_pref":"ｼﾏﾈｹﾝ","kana_city":"ｲｽﾞﾓｼ","kana_address":"ﾋｶﾜﾁｮｳｶﾞｸﾄｳ","pref":"島根県","city":"出雲市","address":"斐川町学頭"},
{"zip_code":"6990505","kana_pref":"ｼﾏﾈｹﾝ","kana_city":"ｲｽﾞﾓｼ","kana_address":"ﾋｶﾜﾁｮｳｶﾐｼｮｳﾊﾞﾗ","pref":"島根県","city":"出雲市","address":"斐川町上庄原"},
{"zip_code":"6990624","kana_pref":"ｼﾏﾈｹﾝ","kana_city":"ｲｽﾞﾓｼ","kana_address":"ﾋｶﾜﾁｮｳｶﾐﾅｵｴ","pref":"島根県","city":"出雲市","address":"斐川町上直江"},
{"zip_code":"6990503","kana_pref":"ｼﾏﾈｹﾝ","kana_city":"ｲｽﾞﾓｼ","kana_address":"ﾋｶﾜﾁｮｳｶﾝﾊﾞ","pref":"島根県","city":"出雲市","address":"斐川町神庭"},
{"zip_code":"6990613","kana_pref":"ｼﾏﾈｹﾝ","kana_city":"ｲｽﾞﾓｼ","kana_address":"ﾋｶﾜﾁｮｳｶﾝﾋﾟ","pref":"島根県","city":"出雲市","address":"斐川町神氷"},
{"zip_code":"6990614","kana_pref":"ｼﾏﾈｹﾝ","kana_city":"ｲｽﾞﾓｼ","kana_address":"ﾋｶﾜﾁｮｳｸﾞｲ","pref":"島根県","city":"出雲市","address":"斐川町求院"},
{"zip_code":"6990553","kana_pref":"ｼﾏﾈｹﾝ","kana_city":"ｲｽﾞﾓｼ","kana_address":"ﾋｶﾜﾁｮｳｸﾛﾒ","pref":"島根県","city":"出雲市","address":"斐川町黒目"},
{"zip_code":"6990555","kana_pref":"ｼﾏﾈｹﾝ","kana_city":"ｲｽﾞﾓｼ","kana_address":"ﾋｶﾜﾁｮｳｻｶﾀﾞ","pref":"島根県","city":"出雲市","address":"斐川町坂田"},
{"zip_code":"6990554","kana_pref":"ｼﾏﾈｹﾝ","kana_city":"ｲｽﾞﾓｼ","kana_address":"ﾋｶﾜﾁｮｳｻﾝﾌﾞｲﾁ","pref":"島根県","city":"出雲市","address":"斐川町三分市"},
{"zip_code":"6990612","kana_pref":"ｼﾏﾈｹﾝ","kana_city":"ｲｽﾞﾓｼ","kana_address":"ﾋｶﾜﾁｮｳｼｭｯｻｲ","pref":"島根県","city":"出雲市","address":"斐川町出西"},
{"zip_code":"6990502","kana_pref":"ｼﾏﾈｹﾝ","kana_city":"ｲｽﾞﾓｼ","kana_address":"ﾋｶﾜﾁｮｳｼｮｳﾊﾞﾗ","pref":"島根県","city":"出雲市","address":"斐川町荘原"},
{"zip_code":"6990621","kana_pref":"ｼﾏﾈｹﾝ","kana_city":"ｲｽﾞﾓｼ","kana_address":"ﾋｶﾜﾁｮｳﾄﾋﾞﾑﾗ","pref":"島根県","city":"出雲市","address":"斐川町富村"},
{"zip_code":"6990623","kana_pref":"ｼﾏﾈｹﾝ","kana_city":"ｲｽﾞﾓｼ","kana_address":"ﾋｶﾜﾁｮｳﾄﾘｲ","pref":"島根県","city":"出雲市","address":"斐川町鳥井"},
{"zip_code":"6990631","kana_pref":"ｼﾏﾈｹﾝ","kana_city":"ｲｽﾞﾓｼ","kana_address":"ﾋｶﾜﾁｮｳﾅｵｴ","pref":"島根県","city":"出雲市","address":"斐川町直江"},
{"zip_code":"6990552","kana_pref":"ｼﾏﾈｹﾝ","kana_city":"ｲｽﾞﾓｼ","kana_address":"ﾋｶﾜﾁｮｳﾅｶﾉｽ","pref":"島根県","city":"出雲市","address":"斐川町中洲"},
{"zip_code":"6990622","kana_pref":"ｼﾏﾈｹﾝ","kana_city":"ｲｽﾞﾓｼ","kana_address":"ﾋｶﾜﾁｮｳﾅｼﾏ","pref":"島根県","city":"出雲市","address":"斐川町名島"},
{"zip_code":"6990643","kana_pref":"ｼﾏﾈｹﾝ","kana_city":"ｲｽﾞﾓｼ","kana_address":"ﾋｶﾜﾁｮｳﾊﾗｼｶ","pref":"島根県","city":"出雲市","address":"斐川町原鹿"},
{"zip_code":"6990642","kana_pref":"ｼﾏﾈｹﾝ","kana_city":"ｲｽﾞﾓｼ","kana_address":"ﾋｶﾜﾁｮｳﾌｸﾄﾞﾐ","pref":"島根県","city":"出雲市","address":"斐川町福富"},
{"zip_code":"6990504","kana_pref":"ｼﾏﾈｹﾝ","kana_city":"ｲｽﾞﾓｼ","kana_address":"ﾋｶﾜﾁｮｳﾐﾂｶﾞﾈ","pref":"島根県","city":"出雲市","address":"斐川町三絡"},
{"zip_code":"6990641","kana_pref":"ｼﾏﾈｹﾝ","kana_city":"ｲｽﾞﾓｼ","kana_address":"ﾋｶﾜﾁｮｳﾐﾅﾐ","pref":"島根県","city":"出雲市","address":"斐川町美南"},
{"zip_code":"6993672","kana_pref":"ｼﾏﾈｹﾝ","kana_city":"ﾏｽﾀﾞｼ","kana_address":"ｱｶｶﾞﾘﾁｮｳ","pref":"島根県","city":"益田市","address":"赤雁町"},
{"zip_code":"6993765","kana_pref":"ｼﾏﾈｹﾝ","kana_city":"ﾏｽﾀﾞｼ","kana_address":"ｱﾘﾀﾁｮｳ","pref":"島根県","city":"益田市","address":"有田町"},
{"zip_code":"6993761","kana_pref":"ｼﾏﾈｹﾝ","kana_city":"ﾏｽﾀﾞｼ","kana_address":"ｲｲﾉｳﾗﾁｮｳ","pref":"島根県","city":"益田市","address":"飯浦町"},
{"zip_code":"6995123","kana_pref":"ｼﾏﾈｹﾝ","kana_city":"ﾏｽﾀﾞｼ","kana_address":"ｲﾉｷﾀﾞﾆﾁｮｳ","pref":"島根県","city":"益田市","address":"猪木谷町"},
{"zip_code":"6995127","kana_pref":"ｼﾏﾈｹﾝ","kana_city":"ﾏｽﾀﾞｼ","kana_address":"ｳﾒﾂｷﾁｮｳ","pref":"島根県","city":"益田市","address":"梅月町"},
{"zip_code":"6993674","kana_pref":"ｼﾏﾈｹﾝ","kana_city":"ﾏｽﾀﾞｼ","kana_address":"ｵｵｸｻﾁｮｳ","pref":"島根県","city":"益田市","address":"大草町"},
{"zip_code":"6993675","kana_pref":"ｼﾏﾈｹﾝ","kana_city":"ﾏｽﾀﾞｼ","kana_address":"ｵﾄｺﾁｮｳ","pref":"島根県","city":"益田市","address":"乙子町"},
{"zip_code":"6993501","kana_pref":"ｼﾏﾈｹﾝ","kana_city":"ﾏｽﾀﾞｼ","kana_address":"ｶﾈﾔﾏﾁｮｳ","pref":"島根県","city":"益田市","address":"金山町"},
{"zip_code":"6995133","kana_pref":"ｼﾏﾈｹﾝ","kana_city":"ﾏｽﾀﾞｼ","kana_address":"ｶﾝﾀﾞﾁｮｳ","pref":"島根県","city":"益田市","address":"神田町"},
{"zip_code":"6993764","kana_pref":"ｼﾏﾈｹﾝ","kana_city":"ﾏｽﾀﾞｼ","kana_address":"ｷｱﾐﾁｮｳ","pref":"島根県","city":"益田市","address":"喜阿弥町"},
{"zip_code":"6993502","kana_pref":"ｼﾏﾈｹﾝ","kana_city":"ﾏｽﾀﾞｼ","kana_address":"ｷﾍﾞﾁｮｳ","pref":"島根県","city":"益田市","address":"木部町"},
{"zip_code":"6993762","kana_pref":"ｼﾏﾈｹﾝ","kana_city":"ﾏｽﾀﾞｼ","kana_address":"ｺﾊﾏﾁｮｳ","pref":"島根県","city":"益田市","address":"小浜町"},
{"zip_code":"6993503","kana_pref":"ｼﾏﾈｹﾝ","kana_city":"ﾏｽﾀﾞｼ","kana_address":"ｼﾓﾀﾈﾁｮｳ","pref":"島根県","city":"益田市","address":"下種町"},
{"zip_code":"6995125","kana_pref":"ｼﾏﾈｹﾝ","kana_city":"ﾏｽﾀﾞｼ","kana_address":"ｼﾗｲﾜﾁｮｳ","pref":"島根県","city":"益田市","address":"白岩町"},
{"zip_code":"6995124","kana_pref":"ｼﾏﾈｹﾝ","kana_city":"ﾏｽﾀﾞｼ","kana_address":"ｽｽｷﾊﾞﾗﾁｮｳ","pref":"島根県","city":"益田市","address":"薄原町"},
{"zip_code":"6995126","kana_pref":"ｼﾏﾈｹﾝ","kana_city":"ﾏｽﾀﾞｼ","kana_address":"ｽﾐﾑﾗﾁｮｳ","pref":"島根県","city":"益田市","address":"隅村町"},
{"zip_code":"6993504","kana_pref":"ｼﾏﾈｹﾝ","kana_city":"ﾏｽﾀﾞｼ","kana_address":"ﾀﾈﾑﾗﾁｮｳ","pref":"島根県","city":"益田市","address":"種村町"},
{"zip_code":"6993671","kana_pref":"ｼﾏﾈｹﾝ","kana_city":"ﾏｽﾀﾞｼ","kana_address":"ﾂﾀﾞﾁｮｳ","pref":"島根県","city":"益田市","address":"津田町"},
{"zip_code":"6993505","kana_pref":"ｼﾏﾈｹﾝ","kana_city":"ﾏｽﾀﾞｼ","kana_address":"ﾂﾁﾀﾞﾁｮｳ","pref":"島根県","city":"益田市","address":"土田町"},
{"zip_code":"6993676","kana_pref":"ｼﾏﾈｹﾝ","kana_city":"ﾏｽﾀﾞｼ","kana_address":"ﾄｳﾀﾞﾁｮｳ","pref":"島根県","city":"益田市","address":"遠田町"},
{"zip_code":"6993763","kana_pref":"ｼﾏﾈｹﾝ","kana_city":"ﾏｽﾀﾞｼ","kana_address":"ﾄﾀﾞﾁｮｳ","pref":"島根県","city":"益田市","address":"戸田町"},
{"zip_code":"6993506","kana_pref":"ｼﾏﾈｹﾝ","kana_city":"ﾏｽﾀﾞｼ","kana_address":"ﾆｼﾋﾗﾊﾞﾗﾁｮｳ","pref":"島根県","city":"益田市","address":"西平原町"},
{"zip_code":"6995121","kana_pref":"ｼﾏﾈｹﾝ","kana_city":"ﾏｽﾀﾞｼ","kana_address":"ﾋﾀﾞﾘｶﾞﾔﾏﾁｮｳ","pref":"島根県","city":"益田市","address":"左ケ山町"},
{"zip_code":"6995122","kana_pref":"ｼﾏﾈｹﾝ","kana_city":"ﾏｽﾀﾞｼ","kana_address":"ﾎﾝﾏﾀｶﾞﾁｮｳ","pref":"島根県","city":"益田市","address":"本俣賀町"},
{"zip_code":"6993766","kana_pref":"ｼﾏﾈｹﾝ","kana_city":"ﾏｽﾀﾞｼ","kana_address":"ﾐﾉｼﾞﾁｮｳ","pref":"島根県","city":"益田市","address":"美濃地町"},
{"zip_code":"6995134","kana_pref":"ｼﾏﾈｹﾝ","kana_city":"ﾏｽﾀﾞｼ","kana_address":"ﾑｶｲﾖｺﾀﾁｮｳ","pref":"島根県","city":"益田市","address":"向横田町"},
{"zip_code":"6995131","kana_pref":"ｼﾏﾈｹﾝ","kana_city":"ﾏｽﾀﾞｼ","kana_address":"ﾔｽﾄﾞﾐﾁｮｳ","pref":"島根県","city":"益田市","address":"安富町"},
{"zip_code":"6993673","kana_pref":"ｼﾏﾈｹﾝ","kana_city":"ﾏｽﾀﾞｼ","kana_address":"ﾔﾏｵﾘﾁｮｳ","pref":"島根県","city":"益田市","address":"山折町"},
{"zip_code":"6995132","kana_pref":"ｼﾏﾈｹﾝ","kana_city":"ﾏｽﾀﾞｼ","kana_address":"ﾖｺﾀﾁｮｳ","pref":"島根県","city":"益田市","address":"横田町"},
{"zip_code":"6992213","kana_pref":"ｼﾏﾈｹﾝ","kana_city":"ｵｵﾀﾞｼ","kana_address":"ｱｻﾔﾏﾁｮｳｱｻｸﾗ","pref":"島根県","city":"大田市","address":"朝山町朝倉"},
{"zip_code":"6992212","kana_pref":"ｼﾏﾈｹﾝ","kana_city":"ｵｵﾀﾞｼ","kana_address":"ｱｻﾔﾏﾁｮｳｾﾝﾔﾏ","pref":"島根県","city":"大田市","address":"朝山町仙山"},
{"zip_code":"6992214","kana_pref":"ｼﾏﾈｹﾝ","kana_city":"ｵｵﾀﾞｼ","kana_address":"ﾄﾐﾔﾏﾁｮｳｶﾝﾊﾞﾗ","pref":"島根県","city":"大田市","address":"富山町神原"},
{"zip_code":"6992215","kana_pref":"ｼﾏﾈｹﾝ","kana_city":"ｵｵﾀﾞｼ","kana_address":"ﾄﾐﾔﾏﾁｮｳｻｲｻﾞｶ","pref":"島根県","city":"大田市","address":"富山町才坂"},
{"zip_code":"6992216","kana_pref":"ｼﾏﾈｹﾝ","kana_city":"ｵｵﾀﾞｼ","kana_address":"ﾄﾐﾔﾏﾁｮｳﾔﾏﾅｶ","pref":"島根県","city":"大田市","address":"富山町山中"},
{"zip_code":"6992305","kana_pref":"ｼﾏﾈｹﾝ","kana_city":"ｵｵﾀﾞｼ","kana_address":"ﾆﾏﾁｮｳｱﾏｺﾞｳﾁ","pref":"島根県","city":"大田市","address":"仁摩町天河内"},
{"zip_code":"6992303","kana_pref":"ｼﾏﾈｹﾝ","kana_city":"ｵｵﾀﾞｼ","kana_address":"ﾆﾏﾁｮｳｵｵｸﾞﾆ","pref":"島根県","city":"大田市","address":"仁摩町大国"},
{"zip_code":"6992302","kana_pref":"ｼﾏﾈｹﾝ","kana_city":"ｵｵﾀﾞｼ","kana_address":"ﾆﾏﾁｮｳﾀｸﾉ","pref":"島根県","city":"大田市","address":"仁摩町宅野"},
{"zip_code":"6992301","kana_pref":"ｼﾏﾈｹﾝ","kana_city":"ｵｵﾀﾞｼ","kana_address":"ﾆﾏﾁｮｳﾆﾏ","pref":"島根県","city":"大田市","address":"仁摩町仁万"},
{"zip_code":"6992304","kana_pref":"ｼﾏﾈｹﾝ","kana_city":"ｵｵﾀﾞｼ","kana_address":"ﾆﾏﾁｮｳﾏｼﾞ","pref":"島根県","city":"大田市","address":"仁摩町馬路"},
{"zip_code":"6992211","kana_pref":"ｼﾏﾈｹﾝ","kana_city":"ｵｵﾀﾞｼ","kana_address":"ﾊﾈﾁｮｳ","pref":"島根県","city":"大田市","address":"波根町"},
{"zip_code":"6992507","kana_pref":"ｼﾏﾈｹﾝ","kana_city":"ｵｵﾀﾞｼ","kana_address":"ﾕﾉﾂﾁｮｳｲﾀﾞ","pref":"島根県","city":"大田市","address":"温泉津町井田"},
{"zip_code":"6992515","kana_pref":"ｼﾏﾈｹﾝ","kana_city":"ｵｵﾀﾞｼ","kana_address":"ﾕﾉﾂﾁｮｳｲﾏｳﾗ","pref":"島根県","city":"大田市","address":"温泉津町今浦"},
{"zip_code":"6992505","kana_pref":"ｼﾏﾈｹﾝ","kana_city":"ｵｵﾀﾞｼ","kana_address":"ﾕﾉﾂﾁｮｳｵｵﾀ","pref":"島根県","city":"大田市","address":"温泉津町太田"},
{"zip_code":"6992504","kana_pref":"ｼﾏﾈｹﾝ","kana_city":"ｵｵﾀﾞｼ","kana_address":"ﾕﾉﾂﾁｮｳｵｷﾞﾑﾗ","pref":"島根県","city":"大田市","address":"温泉津町荻村"},
{"zip_code":"6992513","kana_pref":"ｼﾏﾈｹﾝ","kana_city":"ｵｵﾀﾞｼ","kana_address":"ﾕﾉﾂﾁｮｳｶﾐﾑﾗ","pref":"島根県","city":"大田市","address":"温泉津町上村"},
{"zip_code":"6992511","kana_pref":"ｼﾏﾈｹﾝ","kana_city":"ｵｵﾀﾞｼ","kana_address":"ﾕﾉﾂﾁｮｳｺﾊﾏ","pref":"島根県","city":"大田市","address":"温泉津町小浜"},
{"zip_code":"6992503","kana_pref":"ｼﾏﾈｹﾝ","kana_city":"ｵｵﾀﾞｼ","kana_address":"ﾕﾉﾂﾁｮｳﾆｼﾀ","pref":"島根県","city":"大田市","address":"温泉津町西田"},
{"zip_code":"6992512","kana_pref":"ｼﾏﾈｹﾝ","kana_city":"ｵｵﾀﾞｼ","kana_address":"ﾕﾉﾂﾁｮｳﾊﾝﾊﾞﾗ","pref":"島根県","city":"大田市","address":"温泉津町飯原"},
{"zip_code":"6992506","kana_pref":"ｼﾏﾈｹﾝ","kana_city":"ｵｵﾀﾞｼ","kana_address":"ﾕﾉﾂﾁｮｳﾌｸﾀﾞ","pref":"島根県","city":"大田市","address":"温泉津町福田"},
{"zip_code":"6992514","kana_pref":"ｼﾏﾈｹﾝ","kana_city":"ｵｵﾀﾞｼ","kana_address":"ﾕﾉﾂﾁｮｳﾌｸﾐﾂ","pref":"島根県","city":"大田市","address":"温泉津町福光"},
{"zip_code":"6992502","kana_pref":"ｼﾏﾈｹﾝ","kana_city":"ｵｵﾀﾞｼ","kana_address":"ﾕﾉﾂﾁｮｳﾕｻﾞﾄ","pref":"島根県","city":"大田市","address":"温泉津町湯里"},
{"zip_code":"6992501","kana_pref":"ｼﾏﾈｹﾝ","kana_city":"ｵｵﾀﾞｼ","kana_address":"ﾕﾉﾂﾁｮｳﾕﾉﾂ","pref":"島根県","city":"大田市","address":"温泉津町温泉津"},
{"zip_code":"6992516","kana_pref":"ｼﾏﾈｹﾝ","kana_city":"ｵｵﾀﾞｼ","kana_address":"ﾕﾉﾂﾁｮｳﾖｼｳﾗ","pref":"島根県","city":"大田市","address":"温泉津町吉浦"},
{"zip_code":"6992841","kana_pref":"ｼﾏﾈｹﾝ","kana_city":"ｺﾞｳﾂｼ","kana_address":"ｳｼﾛｼﾞﾁｮｳ","pref":"島根県","city":"江津市","address":"後地町"},
{"zip_code":"6993162","kana_pref":"ｼﾏﾈｹﾝ","kana_city":"ｺﾞｳﾂｼ","kana_address":"ｳﾔｶﾞﾜﾁｮｳ","pref":"島根県","city":"江津市","address":"敬川町"},
{"zip_code":"6992831","kana_pref":"ｼﾏﾈｹﾝ","kana_city":"ｺﾞｳﾂｼ","kana_address":"ｸﾛﾏﾂﾁｮｳ","pref":"島根県","city":"江津市","address":"黒松町"},
{"zip_code":"6994221","kana_pref":"ｼﾏﾈｹﾝ","kana_city":"ｺﾞｳﾂｼ","kana_address":"ｻｸﾗｴﾁｮｳｲﾁﾔﾏ","pref":"島根県","city":"江津市","address":"桜江町市山"},
{"zip_code":"6994222","kana_pref":"ｼﾏﾈｹﾝ","kana_city":"ｺﾞｳﾂｼ","kana_address":"ｻｸﾗｴﾁｮｳｲﾏﾀﾞ","pref":"島根県","city":"江津市","address":"桜江町今田"},
{"zip_code":"6994223","kana_pref":"ｼﾏﾈｹﾝ","kana_city":"ｺﾞｳﾂｼ","kana_address":"ｻｸﾗｴﾁｮｳｳｼﾛﾔﾏ","pref":"島根県","city":"江津市","address":"桜江町後山"},
{"zip_code":"6994224","kana_pref":"ｼﾏﾈｹﾝ","kana_city":"ｺﾞｳﾂｼ","kana_address":"ｻｸﾗｴﾁｮｳｴﾉｵ","pref":"島根県","city":"江津市","address":"桜江町江尾"},
{"zip_code":"6994504","kana_pref":"ｼﾏﾈｹﾝ","kana_city":"ｺﾞｳﾂｼ","kana_address":"ｻｸﾗｴﾁｮｳｵｵﾇｷ","pref":"島根県","city":"江津市","address":"桜江町大貫"},
{"zip_code":"6994225","kana_pref":"ｼﾏﾈｹﾝ","kana_city":"ｺﾞｳﾂｼ","kana_address":"ｻｸﾗｴﾁｮｳｵﾀﾞ","pref":"島根県","city":"江津市","address":"桜江町小田"},
{"zip_code":"6994502","kana_pref":"ｼﾏﾈｹﾝ","kana_city":"ｺﾞｳﾂｼ","kana_address":"ｻｸﾗｴﾁｮｳｶﾜｺﾞｴ","pref":"島根県","city":"江津市","address":"桜江町川越"},
{"zip_code":"6994226","kana_pref":"ｼﾏﾈｹﾝ","kana_city":"ｺﾞｳﾂｼ","kana_address":"ｻｸﾗｴﾁｮｳｶﾜﾄﾞ","pref":"島根県","city":"江津市","address":"桜江町川戸"},
{"zip_code":"6994505","kana_pref":"ｼﾏﾈｹﾝ","kana_city":"ｺﾞｳﾂｼ","kana_address":"ｻｸﾗｴﾁｮｳｻｶﾓﾄ","pref":"島根県","city":"江津市","address":"桜江町坂本"},
{"zip_code":"6994501","kana_pref":"ｼﾏﾈｹﾝ","kana_city":"ｺﾞｳﾂｼ","kana_address":"ｻｸﾗｴﾁｮｳｼｶｶﾞ","pref":"島根県","city":"江津市","address":"桜江町鹿賀"},
{"zip_code":"6994503","kana_pref":"ｼﾏﾈｹﾝ","kana_city":"ｺﾞｳﾂｼ","kana_address":"ｻｸﾗｴﾁｮｳﾀﾂﾞ","pref":"島根県","city":"江津市","address":"桜江町田津"},
{"zip_code":"6994111","kana_pref":"ｼﾏﾈｹﾝ","kana_city":"ｺﾞｳﾂｼ","kana_address":"ｻｸﾗｴﾁｮｳﾀﾆｼﾞｭｳｺﾞｳ","pref":"島根県","city":"江津市","address":"桜江町谷住郷"},
{"zip_code":"6994431","kana_pref":"ｼﾏﾈｹﾝ","kana_city":"ｺﾞｳﾂｼ","kana_address":"ｻｸﾗｴﾁｮｳﾅｶﾞﾀﾆ","pref":"島根県","city":"江津市","address":"桜江町長谷"},
{"zip_code":"6994432","kana_pref":"ｼﾏﾈｹﾝ","kana_city":"ｺﾞｳﾂｼ","kana_address":"ｻｸﾗｴﾁｮｳﾔﾄ","pref":"島根県","city":"江津市","address":"桜江町八戸"},
{"zip_code":"6992842","kana_pref":"ｼﾏﾈｹﾝ","kana_city":"ｺﾞｳﾂｼ","kana_address":"ﾂﾁﾁｮｳ","pref":"島根県","city":"江津市","address":"都治町"},
{"zip_code":"6993161","kana_pref":"ｼﾏﾈｹﾝ","kana_city":"ｺﾞｳﾂｼ","kana_address":"ﾊｼﾁｮｳ","pref":"島根県","city":"江津市","address":"波子町"},
{"zip_code":"6992833","kana_pref":"ｼﾏﾈｹﾝ","kana_city":"ｺﾞｳﾂｼ","kana_address":"ﾊﾂﾞﾐﾁｮｳﾎﾝｺﾞｳ","pref":"島根県","city":"江津市","address":"波積町本郷"},
{"zip_code":"6992834","kana_pref":"ｼﾏﾈｹﾝ","kana_city":"ｺﾞｳﾂｼ","kana_address":"ﾊﾂﾞﾐﾁｮｳﾐﾅﾐ","pref":"島根県","city":"江津市","address":"波積町南"},
{"zip_code":"6992832","kana_pref":"ｼﾏﾈｹﾝ","kana_city":"ｺﾞｳﾂｼ","kana_address":"ﾊﾂﾞﾐﾁｮｳｷﾀ","pref":"島根県","city":"江津市","address":"波積町北"},
{"zip_code":"6992837","kana_pref":"ｼﾏﾈｹﾝ","kana_city":"ｺﾞｳﾂｼ","kana_address":"ﾏﾂｶﾜﾁｮｳｶﾐｶﾜﾄﾞ","pref":"島根県","city":"江津市","address":"松川町上河戸"},
{"zip_code":"6992835","kana_pref":"ｼﾏﾈｹﾝ","kana_city":"ｺﾞｳﾂｼ","kana_address":"ﾏﾂｶﾜﾁｮｳｶﾝﾂﾞｲ","pref":"島根県","city":"江津市","address":"松川町上津井"},
{"zip_code":"6992836","kana_pref":"ｼﾏﾈｹﾝ","kana_city":"ｺﾞｳﾂｼ","kana_address":"ﾏﾂｶﾜﾁｮｳﾊﾀﾀﾞ","pref":"島根県","city":"江津市","address":"松川町畑田"},
{"zip_code":"6991114","kana_pref":"ｼﾏﾈｹﾝ","kana_city":"ｳﾝﾅﾝｼ","kana_address":"ｶﾓﾁｮｳｲﾉｵ","pref":"島根県","city":"雲南市","address":"加茂町猪尾"},
{"zip_code":"6991115","kana_pref":"ｼﾏﾈｹﾝ","kana_city":"ｳﾝﾅﾝｼ","kana_address":"ｶﾓﾁｮｳｲﾜｸﾗ","pref":"島根県","city":"雲南市","address":"加茂町岩倉"},
{"zip_code":"6991105","kana_pref":"ｼﾏﾈｹﾝ","kana_city":"ｳﾝﾅﾝｼ","kana_address":"ｶﾓﾁｮｳｳｼﾞ","pref":"島根県","city":"雲南市","address":"加茂町宇治"},
{"zip_code":"6991125","kana_pref":"ｼﾏﾈｹﾝ","kana_city":"ｳﾝﾅﾝｼ","kana_address":"ｶﾓﾁｮｳｵｵｻｷ","pref":"島根県","city":"雲南市","address":"加茂町大崎"},
{"zip_code":"6991123","kana_pref":"ｼﾏﾈｹﾝ","kana_city":"ｳﾝﾅﾝｼ","kana_address":"ｶﾓﾁｮｳｵｵﾀｹ","pref":"島根県","city":"雲南市","address":"加茂町大竹"},
{"zip_code":"6991106","kana_pref":"ｼﾏﾈｹﾝ","kana_city":"ｳﾝﾅﾝｼ","kana_address":"ｶﾓﾁｮｳｶﾓﾅｶ","pref":"島根県","city":"雲南市","address":"加茂町加茂中"},
{"zip_code":"6991121","kana_pref":"ｼﾏﾈｹﾝ","kana_city":"ｳﾝﾅﾝｼ","kana_address":"ｶﾓﾁｮｳｶﾝﾊﾞﾗ","pref":"島根県","city":"雲南市","address":"加茂町神原"},
{"zip_code":"6991112","kana_pref":"ｼﾏﾈｹﾝ","kana_city":"ｳﾝﾅﾝｼ","kana_address":"ｶﾓﾁｮｳｼﾝｸﾞｳ","pref":"島根県","city":"雲南市","address":"加茂町新宮"},
{"zip_code":"6991111","kana_pref":"ｼﾏﾈｹﾝ","kana_city":"ｳﾝﾅﾝｼ","kana_address":"ｶﾓﾁｮｳｽﾅｺﾞﾊﾗ","pref":"島根県","city":"雲南市","address":"加茂町砂子原"},
{"zip_code":"6991101","kana_pref":"ｼﾏﾈｹﾝ","kana_city":"ｳﾝﾅﾝｼ","kana_address":"ｶﾓﾁｮｳﾀﾞｲｻｲ","pref":"島根県","city":"雲南市","address":"加茂町大西"},
{"zip_code":"6991102","kana_pref":"ｼﾏﾈｹﾝ","kana_city":"ｳﾝﾅﾝｼ","kana_address":"ｶﾓﾁｮｳﾀﾁﾊﾞﾗ","pref":"島根県","city":"雲南市","address":"加茂町立原"},
{"zip_code":"6991103","kana_pref":"ｼﾏﾈｹﾝ","kana_city":"ｳﾝﾅﾝｼ","kana_address":"ｶﾓﾁｮｳﾁｶﾏﾂ","pref":"島根県","city":"雲南市","address":"加茂町近松"},
{"zip_code":"6991124","kana_pref":"ｼﾏﾈｹﾝ","kana_city":"ｳﾝﾅﾝｼ","kana_address":"ｶﾓﾁｮｳﾉﾌﾞﾉ","pref":"島根県","city":"雲南市","address":"加茂町延野"},
{"zip_code":"6991113","kana_pref":"ｼﾏﾈｹﾝ","kana_city":"ｳﾝﾅﾝｼ","kana_address":"ｶﾓﾁｮｳﾋｶﾞｼﾀﾞﾆ","pref":"島根県","city":"雲南市","address":"加茂町東谷"},
{"zip_code":"6991122","kana_pref":"ｼﾏﾈｹﾝ","kana_city":"ｳﾝﾅﾝｼ","kana_address":"ｶﾓﾁｮｳﾐｼﾞﾛ","pref":"島根県","city":"雲南市","address":"加茂町三代"},
{"zip_code":"6991104","kana_pref":"ｼﾏﾈｹﾝ","kana_city":"ｳﾝﾅﾝｼ","kana_address":"ｶﾓﾁｮｳﾐﾅﾐｶﾞﾓ","pref":"島根県","city":"雲南市","address":"加茂町南加茂"},
{"zip_code":"6991321","kana_pref":"ｼﾏﾈｹﾝ","kana_city":"ｳﾝﾅﾝｼ","kana_address":"ｷｽｷﾁｮｳｳﾀﾞﾆ","pref":"島根県","city":"雲南市","address":"木次町宇谷"},
{"zip_code":"6991331","kana_pref":"ｼﾏﾈｹﾝ","kana_city":"ｳﾝﾅﾝｼ","kana_address":"ｷｽｷﾁｮｳｶﾐｸﾏﾀﾆ","pref":"島根県","city":"雲南市","address":"木次町上熊谷"},
{"zip_code":"6991332","kana_pref":"ｼﾏﾈｹﾝ","kana_city":"ｳﾝﾅﾝｼ","kana_address":"ｷｽｷﾁｮｳｷｽｷ","pref":"島根県","city":"雲南市","address":"木次町木次"},
{"zip_code":"6991401","kana_pref":"ｼﾏﾈｹﾝ","kana_city":"ｳﾝﾅﾝｼ","kana_address":"ｷｽｷﾁｮｳｷﾀﾊﾗ","pref":"島根県","city":"雲南市","address":"木次町北原"},
{"zip_code":"6991341","kana_pref":"ｼﾏﾈｹﾝ","kana_city":"ｳﾝﾅﾝｼ","kana_address":"ｷｽｷﾁｮｳｷﾀﾊﾗ","pref":"島根県","city":"雲南市","address":"木次町北原"},
{"zip_code":"6991311","kana_pref":"ｼﾏﾈｹﾝ","kana_city":"ｳﾝﾅﾝｼ","kana_address":"ｷｽｷﾁｮｳｻﾄｶﾞﾀ","pref":"島根県","city":"雲南市","address":"木次町里方"},
{"zip_code":"6991333","kana_pref":"ｼﾏﾈｹﾝ","kana_city":"ｳﾝﾅﾝｼ","kana_address":"ｷｽｷﾁｮｳｼﾓｸﾏﾀﾆ","pref":"島根県","city":"雲南市","address":"木次町下熊谷"},
{"zip_code":"6991322","kana_pref":"ｼﾏﾈｹﾝ","kana_city":"ｳﾝﾅﾝｼ","kana_address":"ｷｽｷﾁｮｳｼﾞﾘｮｳ","pref":"島根県","city":"雲南市","address":"木次町寺領"},
{"zip_code":"6991334","kana_pref":"ｼﾏﾈｹﾝ","kana_city":"ｳﾝﾅﾝｼ","kana_address":"ｷｽｷﾁｮｳｼﾝｲﾁ","pref":"島根県","city":"雲南市","address":"木次町新市"},
{"zip_code":"6991324","kana_pref":"ｼﾏﾈｹﾝ","kana_city":"ｳﾝﾅﾝｼ","kana_address":"ｷｽｷﾁｮｳﾆｼﾋﾉﾎﾞﾘ","pref":"島根県","city":"雲南市","address":"木次町西日登"},
{"zip_code":"6991323","kana_pref":"ｼﾏﾈｹﾝ","kana_city":"ｳﾝﾅﾝｼ","kana_address":"ｷｽｷﾁｮｳﾋｶﾞｼﾋﾉﾎﾞﾘ","pref":"島根県","city":"雲南市","address":"木次町東日登"},
{"zip_code":"6991342","kana_pref":"ｼﾏﾈｹﾝ","kana_city":"ｳﾝﾅﾝｼ","kana_address":"ｷｽｷﾁｮｳﾋﾗﾀ","pref":"島根県","city":"雲南市","address":"木次町平田"},
{"zip_code":"6991312","kana_pref":"ｼﾏﾈｹﾝ","kana_city":"ｳﾝﾅﾝｼ","kana_address":"ｷｽｷﾁｮｳﾔﾏｶﾞﾀ","pref":"島根県","city":"雲南市","address":"木次町山方"},
{"zip_code":"6991343","kana_pref":"ｼﾏﾈｹﾝ","kana_city":"ｳﾝﾅﾝｼ","kana_address":"ｷｽｷﾁｮｳﾕﾑﾗ","pref":"島根県","city":"雲南市","address":"木次町湯村"},
{"zip_code":"6991221","kana_pref":"ｼﾏﾈｹﾝ","kana_city":"ｳﾝﾅﾝｼ","kana_address":"ﾀﾞｲﾄｳﾁｮｳｲｲﾀﾞ","pref":"島根県","city":"雲南市","address":"大東町飯田"},
{"zip_code":"6991231","kana_pref":"ｼﾏﾈｹﾝ","kana_city":"ｳﾝﾅﾝｼ","kana_address":"ﾀﾞｲﾄｳﾁｮｳｴﾝｼﾞｮ","pref":"島根県","city":"雲南市","address":"大東町遠所"},
{"zip_code":"6991213","kana_pref":"ｼﾏﾈｹﾝ","kana_city":"ｳﾝﾅﾝｼ","kana_address":"ﾀﾞｲﾄｳﾁｮｳｵｵｶﾀﾞﾆ","pref":"島根県","city":"雲南市","address":"大東町大ケ谷"},
{"zip_code":"6991221","kana_pref":"ｼﾏﾈｹﾝ","kana_city":"ｳﾝﾅﾝｼ","kana_address":"ﾀﾞｲﾄｳﾁｮｳｵｶﾑﾗ","pref":"島根県","city":"雲南市","address":"大東町岡村"},
{"zip_code":"6991201","kana_pref":"ｼﾏﾈｹﾝ","kana_city":"ｳﾝﾅﾝｼ","kana_address":"ﾀﾞｲﾄｳﾁｮｳｵｶﾞﾜｳﾁ","pref":"島根県","city":"雲南市","address":"大東町小河内"},
{"zip_code":"6991261","kana_pref":"ｼﾏﾈｹﾝ","kana_city":"ｳﾝﾅﾝｼ","kana_address":"ﾀﾞｲﾄｳﾁｮｳｶﾈﾅﾘ","pref":"島根県","city":"雲南市","address":"大東町金成"},
{"zip_code":"6991211","kana_pref":"ｼﾏﾈｹﾝ","kana_city":"ｳﾝﾅﾝｼ","kana_address":"ﾀﾞｲﾄｳﾁｮｳｶﾐｸﾉ","pref":"島根県","city":"雲南市","address":"大東町上久野"},
{"zip_code":"6991214","kana_pref":"ｼﾏﾈｹﾝ","kana_city":"ｳﾝﾅﾝｼ","kana_address":"ﾀﾞｲﾄｳﾁｮｳｶﾐｻﾞｾ","pref":"島根県","city":"雲南市","address":"大東町上佐世"},
{"zip_code":"6991202","kana_pref":"ｼﾏﾈｹﾝ","kana_city":"ｳﾝﾅﾝｼ","kana_address":"ﾀﾞｲﾄｳﾁｮｳｶﾘﾊﾀ","pref":"島根県","city":"雲南市","address":"大東町刈畑"},
{"zip_code":"6991222","kana_pref":"ｼﾏﾈｹﾝ","kana_city":"ｳﾝﾅﾝｼ","kana_address":"ﾀﾞｲﾄｳﾁｮｳｶﾜｲ","pref":"島根県","city":"雲南市","address":"大東町川井"},
{"zip_code":"6991203","kana_pref":"ｼﾏﾈｹﾝ","kana_city":"ｳﾝﾅﾝｼ","kana_address":"ﾀﾞｲﾄｳﾁｮｳｷﾀﾑﾗ","pref":"島根県","city":"雲南市","address":"大東町北村"},
{"zip_code":"6991204","kana_pref":"ｼﾏﾈｹﾝ","kana_city":"ｳﾝﾅﾝｼ","kana_address":"ﾀﾞｲﾄｳﾁｮｳｺﾓｻﾞﾜ","pref":"島根県","city":"雲南市","address":"大東町薦澤"},
{"zip_code":"6991241","kana_pref":"ｼﾏﾈｹﾝ","kana_city":"ｳﾝﾅﾝｼ","kana_address":"ﾀﾞｲﾄｳﾁｮｳｻﾝﾉｳｼﾞ","pref":"島根県","city":"雲南市","address":"大東町山王寺"},
{"zip_code":"6991262","kana_pref":"ｼﾏﾈｹﾝ","kana_city":"ｳﾝﾅﾝｼ","kana_address":"ﾀﾞｲﾄｳﾁｮｳｼｵﾀ","pref":"島根県","city":"雲南市","address":"大東町塩田"},
{"zip_code":"6991263","kana_pref":"ｼﾏﾈｹﾝ","kana_city":"ｳﾝﾅﾝｼ","kana_address":"ﾀﾞｲﾄｳﾁｮｳｼﾉﾌﾞﾁ","pref":"島根県","city":"雲南市","address":"大東町篠淵"},
{"zip_code":"6991223","kana_pref":"ｼﾏﾈｹﾝ","kana_city":"ｳﾝﾅﾝｼ","kana_address":"ﾀﾞｲﾄｳﾁｮｳｼﾓｱﾖｳ","pref":"島根県","city":"雲南市","address":"大東町下阿用"},
{"zip_code":"6991212","kana_pref":"ｼﾏﾈｹﾝ","kana_city":"ｳﾝﾅﾝｼ","kana_address":"ﾀﾞｲﾄｳﾁｮｳｼﾓｸﾉ","pref":"島根県","city":"雲南市","address":"大東町下久野"},
{"zip_code":"6991215","kana_pref":"ｼﾏﾈｹﾝ","kana_city":"ｳﾝﾅﾝｼ","kana_address":"ﾀﾞｲﾄｳﾁｮｳｼﾓｻﾞｾ","pref":"島根県","city":"雲南市","address":"大東町下佐世"},
{"zip_code":"6991251","kana_pref":"ｼﾏﾈｹﾝ","kana_city":"ｳﾝﾅﾝｼ","kana_address":"ﾀﾞｲﾄｳﾁｮｳｼﾝｼﾞｮｳ","pref":"島根県","city":"雲南市","address":"大東町新庄"},
{"zip_code":"6991205","kana_pref":"ｼﾏﾈｹﾝ","kana_city":"ｳﾝﾅﾝｼ","kana_address":"ﾀﾞｲﾄｳﾁｮｳｽｶﾞ","pref":"島根県","city":"雲南市","address":"大東町須賀"},
{"zip_code":"6991264","kana_pref":"ｼﾏﾈｹﾝ","kana_city":"ｳﾝﾅﾝｼ","kana_address":"ﾀﾞｲﾄｳﾁｮｳｾｲﾀﾞ","pref":"島根県","city":"雲南市","address":"大東町清田"},
{"zip_code":"6991251","kana_pref":"ｼﾏﾈｹﾝ","kana_city":"ｳﾝﾅﾝｼ","kana_address":"ﾀﾞｲﾄｳﾁｮｳﾀﾞｲﾄｳ","pref":"島根県","city":"雲南市","address":"大東町大東"},
{"zip_code":"6991242","kana_pref":"ｼﾏﾈｹﾝ","kana_city":"ｳﾝﾅﾝｼ","kana_address":"ﾀﾞｲﾄｳﾁｮｳﾀﾞｲﾄｳｼﾓﾌﾞﾝ","pref":"島根県","city":"雲南市","address":"大東町大東下分"},
{"zip_code":"6991252","kana_pref":"ｼﾏﾈｹﾝ","kana_city":"ｳﾝﾅﾝｼ","kana_address":"ﾀﾞｲﾄｳﾁｮｳﾀﾅｶ","pref":"島根県","city":"雲南市","address":"大東町田中"},
{"zip_code":"6991253","kana_pref":"ｼﾏﾈｹﾝ","kana_city":"ｳﾝﾅﾝｼ","kana_address":"ﾀﾞｲﾄｳﾁｮｳﾅｶﾕｲｼ","pref":"島根県","city":"雲南市","address":"大東町中湯石"},
{"zip_code":"6991216","kana_pref":"ｼﾏﾈｹﾝ","kana_city":"ｳﾝﾅﾝｼ","kana_address":"ﾀﾞｲﾄｳﾁｮｳﾆｼｱﾖｳ","pref":"島根県","city":"雲南市","address":"大東町西阿用"},
{"zip_code":"6991232","kana_pref":"ｼﾏﾈｹﾝ","kana_city":"ｳﾝﾅﾝｼ","kana_address":"ﾀﾞｲﾄｳﾁｮｳﾆﾝﾅｼﾞ","pref":"島根県","city":"雲南市","address":"大東町仁和寺"},
{"zip_code":"6991243","kana_pref":"ｼﾏﾈｹﾝ","kana_city":"ｳﾝﾅﾝｼ","kana_address":"ﾀﾞｲﾄｳﾁｮｳﾊﾀﾋﾖﾄﾞﾘ","pref":"島根県","city":"雲南市","address":"大東町畑鵯"},
{"zip_code":"6991233","kana_pref":"ｼﾏﾈｹﾝ","kana_city":"ｳﾝﾅﾝｼ","kana_address":"ﾀﾞｲﾄｳﾁｮｳﾊﾀﾔ","pref":"島根県","city":"雲南市","address":"大東町幡屋"},
{"zip_code":"6991224","kana_pref":"ｼﾏﾈｹﾝ","kana_city":"ｳﾝﾅﾝｼ","kana_address":"ﾀﾞｲﾄｳﾁｮｳﾋｶﾞｼｱﾖｳ","pref":"島根県","city":"雲南市","address":"大東町東阿用"},
{"zip_code":"6991234","kana_pref":"ｼﾏﾈｹﾝ","kana_city":"ｳﾝﾅﾝｼ","kana_address":"ﾀﾞｲﾄｳﾁｮｳﾏｴﾊﾞﾗ","pref":"島根県","city":"雲南市","address":"大東町前原"},
{"zip_code":"6991206","kana_pref":"ｼﾏﾈｹﾝ","kana_city":"ｳﾝﾅﾝｼ","kana_address":"ﾀﾞｲﾄｳﾁｮｳﾐﾅﾐﾑﾗ","pref":"島根県","city":"雲南市","address":"大東町南村"},
{"zip_code":"6991244","kana_pref":"ｼﾏﾈｹﾝ","kana_city":"ｳﾝﾅﾝｼ","kana_address":"ﾀﾞｲﾄｳﾁｮｳﾔﾏﾀﾞ","pref":"島根県","city":"雲南市","address":"大東町山田"},
{"zip_code":"6991245","kana_pref":"ｼﾏﾈｹﾝ","kana_city":"ｳﾝﾅﾝｼ","kana_address":"ﾀﾞｲﾄｳﾁｮｳﾖｳｶ","pref":"島根県","city":"雲南市","address":"大東町養賀"},
{"zip_code":"6991500","kana_pref":"ｼﾏﾈｹﾝ","kana_city":"ﾆﾀｸﾞﾝｵｸｲｽﾞﾓﾁｮｳ","kana_address":"","pref":"島根県","city":"仁多郡奥出雲町","address":""},
{"zip_code":"6991821","kana_pref":"ｼﾏﾈｹﾝ","kana_city":"ﾆﾀｸﾞﾝｵｸｲｽﾞﾓﾁｮｳ","kana_address":"ｲﾅﾊﾗ","pref":"島根県","city":"仁多郡奥出雲町","address":"稲原"},
{"zip_code":"6991812","kana_pref":"ｼﾏﾈｹﾝ","kana_city":"ﾆﾀｸﾞﾝｵｸｲｽﾞﾓﾁｮｳ","kana_address":"ｵｵﾀﾆ","pref":"島根県","city":"仁多郡奥出雲町","address":"大谷"},
{"zip_code":"6991941","kana_pref":"ｼﾏﾈｹﾝ","kana_city":"ﾆﾀｸﾞﾝｵｸｲｽﾞﾓﾁｮｳ","kana_address":"ｵｵﾏｷ","pref":"島根県","city":"仁多郡奥出雲町","address":"大馬木"},
{"zip_code":"6991802","kana_pref":"ｼﾏﾈｹﾝ","kana_city":"ﾆﾀｸﾞﾝｵｸｲｽﾞﾓﾁｮｳ","kana_address":"ｵｵﾛ","pref":"島根県","city":"仁多郡奥出雲町","address":"大呂"},
{"zip_code":"6991621","kana_pref":"ｼﾏﾈｹﾝ","kana_city":"ﾆﾀｸﾞﾝｵｸｲｽﾞﾓﾁｮｳ","kana_address":"ｶﾐｱｲ","pref":"島根県","city":"仁多郡奥出雲町","address":"上阿井"},
{"zip_code":"6991431","kana_pref":"ｼﾏﾈｹﾝ","kana_city":"ﾆﾀｸﾞﾝｵｸｲｽﾞﾓﾁｮｳ","kana_address":"ｶﾐﾐﾄｺﾛ","pref":"島根県","city":"仁多郡奥出雲町","address":"上三所"},
{"zip_code":"6991701","kana_pref":"ｼﾏﾈｹﾝ","kana_city":"ﾆﾀｸﾞﾝｵｸｲｽﾞﾓﾁｮｳ","kana_address":"ｶﾒﾀﾞｹ","pref":"島根県","city":"仁多郡奥出雲町","address":"亀嵩"},
{"zip_code":"6991515","kana_pref":"ｼﾏﾈｹﾝ","kana_city":"ﾆﾀｸﾞﾝｵｸｲｽﾞﾓﾁｮｳ","kana_address":"ｶﾓｸﾗ","pref":"島根県","city":"仁多郡奥出雲町","address":"鴨倉"},
{"zip_code":"6991514","kana_pref":"ｼﾏﾈｹﾝ","kana_city":"ﾆﾀｸﾞﾝｵｸｲｽﾞﾓﾁｮｳ","kana_address":"ｶﾜﾁ","pref":"島根県","city":"仁多郡奥出雲町","address":"河内"},
{"zip_code":"6991702","kana_pref":"ｼﾏﾈｹﾝ","kana_city":"ﾆﾀｸﾞﾝｵｸｲｽﾞﾓﾁｮｳ","kana_address":"ｺｵﾘ","pref":"島根県","city":"仁多郡奥出雲町","address":"郡"},
{"zip_code":"6991942","kana_pref":"ｼﾏﾈｹﾝ","kana_city":"ﾆﾀｸﾞﾝｵｸｲｽﾞﾓﾁｮｳ","kana_address":"ｺﾏｷ","pref":"島根県","city":"仁多郡奥出雲町","address":"小馬木"},
{"zip_code":"6991434","kana_pref":"ｼﾏﾈｹﾝ","kana_city":"ﾆﾀｸﾞﾝｵｸｲｽﾞﾓﾁｮｳ","kana_address":"ｻｼﾞﾛ","pref":"島根県","city":"仁多郡奥出雲町","address":"佐白"},
{"zip_code":"6991517","kana_pref":"ｼﾏﾈｹﾝ","kana_city":"ﾆﾀｸﾞﾝｵｸｲｽﾞﾓﾁｮｳ","kana_address":"ｼﾓｱｲ","pref":"島根県","city":"仁多郡奥出雲町","address":"下阿井"},
{"zip_code":"6991622","kana_pref":"ｼﾏﾈｹﾝ","kana_city":"ﾆﾀｸﾞﾝｵｸｲｽﾞﾓﾁｮｳ","kana_address":"ｼﾓｱｲ","pref":"島根県","city":"仁多郡奥出雲町","address":"下阿井"},
{"zip_code":"6991822","kana_pref":"ｼﾏﾈｹﾝ","kana_city":"ﾆﾀｸﾞﾝｵｸｲｽﾞﾓﾁｮｳ","kana_address":"ｼﾓﾖｺﾀ","pref":"島根県","city":"仁多郡奥出雲町","address":"下横田"},
{"zip_code":"6991512","kana_pref":"ｼﾏﾈｹﾝ","kana_city":"ﾆﾀｸﾞﾝｵｸｲｽﾞﾓﾁｮｳ","kana_address":"ﾀｶｵ","pref":"島根県","city":"仁多郡奥出雲町","address":"高尾"},
{"zip_code":"6991703","kana_pref":"ｼﾏﾈｹﾝ","kana_city":"ﾆﾀｸﾞﾝｵｸｲｽﾞﾓﾁｮｳ","kana_address":"ﾀｶﾀ","pref":"島根県","city":"仁多郡奥出雲町","address":"高田"},
{"zip_code":"6991801","kana_pref":"ｼﾏﾈｹﾝ","kana_city":"ﾆﾀｸﾞﾝｵｸｲｽﾞﾓﾁｮｳ","kana_address":"ﾀｹｻﾞｷ","pref":"島根県","city":"仁多郡奥出雲町","address":"竹崎"},
{"zip_code":"6991831","kana_pref":"ｼﾏﾈｹﾝ","kana_city":"ﾆﾀｸﾞﾝｵｸｲｽﾞﾓﾁｮｳ","kana_address":"ﾅｶﾑﾗ","pref":"島根県","city":"仁多郡奥出雲町","address":"中村"},
{"zip_code":"6991432","kana_pref":"ｼﾏﾈｹﾝ","kana_city":"ﾆﾀｸﾞﾝｵｸｲｽﾞﾓﾁｮｳ","kana_address":"ﾏﾊﾞｾ","pref":"島根県","city":"仁多郡奥出雲町","address":"馬馳"},
{"zip_code":"6991513","kana_pref":"ｼﾏﾈｹﾝ","kana_city":"ﾆﾀｸﾞﾝｵｸｲｽﾞﾓﾁｮｳ","kana_address":"ﾐｻﾞﾜ","pref":"島根県","city":"仁多郡奥出雲町","address":"三沢"},
{"zip_code":"6991516","kana_pref":"ｼﾏﾈｹﾝ","kana_city":"ﾆﾀｸﾞﾝｵｸｲｽﾞﾓﾁｮｳ","kana_address":"ﾐﾄｺﾛ","pref":"島根県","city":"仁多郡奥出雲町","address":"三所"},
{"zip_code":"6991511","kana_pref":"ｼﾏﾈｹﾝ","kana_city":"ﾆﾀｸﾞﾝｵｸｲｽﾞﾓﾁｮｳ","kana_address":"ﾐﾅﾘ","pref":"島根県","city":"仁多郡奥出雲町","address":"三成"},
{"zip_code":"6991811","kana_pref":"ｼﾏﾈｹﾝ","kana_city":"ﾆﾀｸﾞﾝｵｸｲｽﾞﾓﾁｮｳ","kana_address":"ﾔｶﾜ","pref":"島根県","city":"仁多郡奥出雲町","address":"八川"},
{"zip_code":"6991433","kana_pref":"ｼﾏﾈｹﾝ","kana_city":"ﾆﾀｸﾞﾝｵｸｲｽﾞﾓﾁｮｳ","kana_address":"ﾔｼﾛ","pref":"島根県","city":"仁多郡奥出雲町","address":"八代"},
{"zip_code":"6991832","kana_pref":"ｼﾏﾈｹﾝ","kana_city":"ﾆﾀｸﾞﾝｵｸｲｽﾞﾓﾁｮｳ","kana_address":"ﾖｺﾀ","pref":"島根県","city":"仁多郡奥出雲町","address":"横田"},
{"zip_code":"6994600","kana_pref":"ｼﾏﾈｹﾝ","kana_city":"ｵｵﾁｸﾞﾝﾐｻﾄﾁｮｳ","kana_address":"","pref":"島根県","city":"邑智郡美郷町","address":""},
{"zip_code":"6994624","kana_pref":"ｼﾏﾈｹﾝ","kana_city":"ｵｵﾁｸﾞﾝﾐｻﾄﾁｮｳ","kana_address":"ｱｶﾂｶ","pref":"島根県","city":"邑智郡美郷町","address":"明塚"},
{"zip_code":"6994627","kana_pref":"ｼﾏﾈｹﾝ","kana_city":"ｵｵﾁｸﾞﾝﾐｻﾄﾁｮｳ","kana_address":"ｱｺﾞｳ","pref":"島根県","city":"邑智郡美郷町","address":"吾郷"},
{"zip_code":"6994715","kana_pref":"ｼﾏﾈｹﾝ","kana_city":"ｵｵﾁｸﾞﾝﾐｻﾄﾁｮｳ","kana_address":"ｲｼﾊﾗ","pref":"島根県","city":"邑智郡美郷町","address":"石原"},
{"zip_code":"6994631","kana_pref":"ｼﾏﾈｹﾝ","kana_city":"ｵｵﾁｸﾞﾝﾐｻﾄﾁｮｳ","kana_address":"ｵｸﾔﾏ","pref":"島根県","city":"邑智郡美郷町","address":"奥山"},
{"zip_code":"6994626","kana_pref":"ｼﾏﾈｹﾝ","kana_city":"ｵｵﾁｸﾞﾝﾐｻﾄﾁｮｳ","kana_address":"ｵﾝﾊﾞﾗ","pref":"島根県","city":"邑智郡美郷町","address":"乙原"},
{"zip_code":"6994621","kana_pref":"ｼﾏﾈｹﾝ","kana_city":"ｵｵﾁｸﾞﾝﾐｻﾄﾁｮｳ","kana_address":"ｶｽﾌﾞﾁ","pref":"島根県","city":"邑智郡美郷町","address":"粕渕"},
{"zip_code":"6994714","kana_pref":"ｼﾏﾈｹﾝ","kana_city":"ｵｵﾁｸﾞﾝﾐｻﾄﾁｮｳ","kana_address":"ｶﾀﾔﾏ","pref":"島根県","city":"邑智郡美郷町","address":"片山"},
{"zip_code":"6994702","kana_pref":"ｼﾏﾈｹﾝ","kana_city":"ｵｵﾁｸﾞﾝﾐｻﾄﾁｮｳ","kana_address":"ｶﾐｶﾜﾄﾞ","pref":"島根県","city":"邑智郡美郷町","address":"上川戸"},
{"zip_code":"6994707","kana_pref":"ｼﾏﾈｹﾝ","kana_city":"ｵｵﾁｸﾞﾝﾐｻﾄﾁｮｳ","kana_address":"ｶﾒﾑﾗ","pref":"島根県","city":"邑智郡美郷町","address":"亀村"},
{"zip_code":"6994622","kana_pref":"ｼﾏﾈｹﾝ","kana_city":"ｵｵﾁｸﾞﾝﾐｻﾄﾁｮｳ","kana_address":"ｸﾎﾞ","pref":"島根県","city":"邑智郡美郷町","address":"久保"},
{"zip_code":"6994703","kana_pref":"ｼﾏﾈｹﾝ","kana_city":"ｵｵﾁｸﾞﾝﾐｻﾄﾁｮｳ","kana_address":"ｸﾏﾐ","pref":"島根県","city":"邑智郡美郷町","address":"熊見"},
{"zip_code":"6994712","kana_pref":"ｼﾏﾈｹﾝ","kana_city":"ｵｵﾁｸﾞﾝﾐｻﾄﾁｮｳ","kana_address":"ｺｺﾉｶｲﾁ","pref":"島根県","city":"邑智郡美郷町","address":"九日市"},
{"zip_code":"6994713","kana_pref":"ｼﾏﾈｹﾝ","kana_city":"ｵｵﾁｸﾞﾝﾐｻﾄﾁｮｳ","kana_address":"ｻｹﾀﾞﾆ","pref":"島根県","city":"邑智郡美郷町","address":"酒谷"},
{"zip_code":"6994704","kana_pref":"ｼﾏﾈｹﾝ","kana_city":"ｵｵﾁｸﾞﾝﾐｻﾄﾁｮｳ","kana_address":"ｼｷ","pref":"島根県","city":"邑智郡美郷町","address":"信喜"},
{"zip_code":"6994632","kana_pref":"ｼﾏﾈｹﾝ","kana_city":"ｵｵﾁｸﾞﾝﾐｻﾄﾁｮｳ","kana_address":"ﾀｶﾊﾀ","pref":"島根県","city":"邑智郡美郷町","address":"高畑"},
{"zip_code":"6994605","kana_pref":"ｼﾏﾈｹﾝ","kana_city":"ｵｵﾁｸﾞﾝﾐｻﾄﾁｮｳ","kana_address":"ﾀｶﾔﾏ","pref":"島根県","city":"邑智郡美郷町","address":"高山"},
{"zip_code":"6994706","kana_pref":"ｼﾏﾈｹﾝ","kana_city":"ｵｵﾁｸﾞﾝﾐｻﾄﾁｮｳ","kana_address":"ﾀｷﾊﾞﾗ","pref":"島根県","city":"邑智郡美郷町","address":"滝原"},
{"zip_code":"6994711","kana_pref":"ｼﾏﾈｹﾝ","kana_city":"ｵｵﾁｸﾞﾝﾐｻﾄﾁｮｳ","kana_address":"ﾁﾊﾗ","pref":"島根県","city":"邑智郡美郷町","address":"千原"},
{"zip_code":"6994623","kana_pref":"ｼﾏﾈｹﾝ","kana_city":"ｵｵﾁｸﾞﾝﾐｻﾄﾁｮｳ","kana_address":"ﾉｲ","pref":"島根県","city":"邑智郡美郷町","address":"野井"},
{"zip_code":"6994701","kana_pref":"ｼﾏﾈｹﾝ","kana_city":"ｵｵﾁｸﾞﾝﾐｻﾄﾁｮｳ","kana_address":"ﾊﾏﾊﾗ","pref":"島根県","city":"邑智郡美郷町","address":"浜原"},
{"zip_code":"6994625","kana_pref":"ｼﾏﾈｹﾝ","kana_city":"ｵｵﾁｸﾞﾝﾐｻﾄﾁｮｳ","kana_address":"ﾔﾅｾﾞ","pref":"島根県","city":"邑智郡美郷町","address":"簗瀬"},
{"zip_code":"6994633","kana_pref":"ｼﾏﾈｹﾝ","kana_city":"ｵｵﾁｸﾞﾝﾐｻﾄﾁｮｳ","kana_address":"ﾕｶﾞｶｲ","pref":"島根県","city":"邑智郡美郷町","address":"湯抱"},
{"zip_code":"6994311","kana_pref":"ｼﾏﾈｹﾝ","kana_city":"ｵｵﾁｸﾞﾝｵｵﾅﾝﾁｮｳ","kana_address":"ﾋﾇｲ","pref":"島根県","city":"邑智郡邑南町","address":"日貫"},
{"zip_code":"6995600","kana_pref":"ｼﾏﾈｹﾝ","kana_city":"ｶﾉｱｼｸﾞﾝﾂﾜﾉﾁｮｳ","kana_address":"","pref":"島根県","city":"鹿足郡津和野町","address":""},
{"zip_code":"6995211","kana_pref":"ｼﾏﾈｹﾝ","kana_city":"ｶﾉｱｼｸﾞﾝﾂﾜﾉﾁｮｳ","kana_address":"ｱｵﾊﾗ","pref":"島根県","city":"鹿足郡津和野町","address":"青原"},
{"zip_code":"6995201","kana_pref":"ｼﾏﾈｹﾝ","kana_city":"ｶﾉｱｼｸﾞﾝﾂﾜﾉﾁｮｳ","kana_address":"ｱｷﾝﾄﾞ","pref":"島根県","city":"鹿足郡津和野町","address":"商人"},
{"zip_code":"6995601","kana_pref":"ｼﾏﾈｹﾝ","kana_city":"ｶﾉｱｼｸﾞﾝﾂﾜﾉﾁｮｳ","kana_address":"ｱｷﾝﾄﾞ","pref":"島根県","city":"鹿足郡津和野町","address":"商人"},
{"zip_code":"6995216","kana_pref":"ｼﾏﾈｹﾝ","kana_city":"ｶﾉｱｼｸﾞﾝﾂﾜﾉﾁｮｳ","kana_address":"ｲｹﾑﾗ","pref":"島根県","city":"鹿足郡津和野町","address":"池村"},
{"zip_code":"6995605","kana_pref":"ｼﾏﾈｹﾝ","kana_city":"ｶﾉｱｼｸﾞﾝﾂﾜﾉﾁｮｳ","kana_address":"ｳｼﾛﾀﾞ","pref":"島根県","city":"鹿足郡津和野町","address":"後田"},
{"zip_code":"6995212","kana_pref":"ｼﾏﾈｹﾝ","kana_city":"ｶﾉｱｼｸﾞﾝﾂﾜﾉﾁｮｳ","kana_address":"ｶﾜﾑﾗ","pref":"島根県","city":"鹿足郡津和野町","address":"河村"},
{"zip_code":"6995607","kana_pref":"ｼﾏﾈｹﾝ","kana_city":"ｶﾉｱｼｸﾞﾝﾂﾜﾉﾁｮｳ","kana_address":"ｺｳﾀﾞ","pref":"島根県","city":"鹿足郡津和野町","address":"耕田"},
{"zip_code":"6995603","kana_pref":"ｼﾏﾈｹﾝ","kana_city":"ｶﾉｱｼｸﾞﾝﾂﾜﾉﾁｮｳ","kana_address":"ｻｻﾔﾏ","pref":"島根県","city":"鹿足郡津和野町","address":"笹山"},
{"zip_code":"6995202","kana_pref":"ｼﾏﾈｹﾝ","kana_city":"ｶﾉｱｼｸﾞﾝﾂﾜﾉﾁｮｳ","kana_address":"ｻﾌﾞﾐ","pref":"島根県","city":"鹿足郡津和野町","address":"左鐙"},
{"zip_code":"6995204","kana_pref":"ｼﾏﾈｹﾝ","kana_city":"ｶﾉｱｼｸﾞﾝﾂﾜﾉﾁｮｳ","kana_address":"ｽｶﾞﾜ","pref":"島根県","city":"鹿足郡津和野町","address":"須川"},
{"zip_code":"6995203","kana_pref":"ｼﾏﾈｹﾝ","kana_city":"ｶﾉｱｼｸﾞﾝﾂﾜﾉﾁｮｳ","kana_address":"ｽﾓｳｶﾞﾊﾗ","pref":"島根県","city":"鹿足郡津和野町","address":"相撲ケ原"},
{"zip_code":"6995213","kana_pref":"ｼﾏﾈｹﾝ","kana_city":"ｶﾉｱｼｸﾞﾝﾂﾜﾉﾁｮｳ","kana_address":"ｿｴﾀﾞﾆ","pref":"島根県","city":"鹿足郡津和野町","address":"添谷"},
{"zip_code":"6995614","kana_pref":"ｼﾏﾈｹﾝ","kana_city":"ｶﾉｱｼｸﾞﾝﾂﾜﾉﾁｮｳ","kana_address":"ﾀｶﾐﾈ","pref":"島根県","city":"鹿足郡津和野町","address":"高峯"},
{"zip_code":"6995205","kana_pref":"ｼﾏﾈｹﾝ","kana_city":"ｶﾉｱｼｸﾞﾝﾂﾜﾉﾁｮｳ","kana_address":"ﾀｷﾀﾞﾆ","pref":"島根県","city":"鹿足郡津和野町","address":"瀧谷"},
{"zip_code":"6995206","kana_pref":"ｼﾏﾈｹﾝ","kana_city":"ｶﾉｱｼｸﾞﾝﾂﾜﾉﾁｮｳ","kana_address":"ﾀｷﾓﾄ","pref":"島根県","city":"鹿足郡津和野町","address":"瀧元"},
{"zip_code":"6995602","kana_pref":"ｼﾏﾈｹﾝ","kana_city":"ｶﾉｱｼｸﾞﾝﾂﾜﾉﾁｮｳ","kana_address":"ﾀﾀﾞﾁ","pref":"島根県","city":"鹿足郡津和野町","address":"直地"},
{"zip_code":"6995617","kana_pref":"ｼﾏﾈｹﾝ","kana_city":"ｶﾉｱｼｸﾞﾝﾂﾜﾉﾁｮｳ","kana_address":"ﾀﾆﾎ","pref":"島根県","city":"鹿足郡津和野町","address":"田二穂"},
{"zip_code":"6995214","kana_pref":"ｼﾏﾈｹﾝ","kana_city":"ｶﾉｱｼｸﾞﾝﾂﾜﾉﾁｮｳ","kana_address":"ﾀﾆﾑﾗ","pref":"島根県","city":"鹿足郡津和野町","address":"溪村"},
{"zip_code":"6995606","kana_pref":"ｼﾏﾈｹﾝ","kana_city":"ｶﾉｱｼｸﾞﾝﾂﾜﾉﾁｮｳ","kana_address":"ﾃﾗﾀﾞ","pref":"島根県","city":"鹿足郡津和野町","address":"寺田"},
{"zip_code":"6995215","kana_pref":"ｼﾏﾈｹﾝ","kana_city":"ｶﾉｱｼｸﾞﾝﾂﾜﾉﾁｮｳ","kana_address":"ﾄﾐﾀ","pref":"島根県","city":"鹿足郡津和野町","address":"冨田"},
{"zip_code":"6995632","kana_pref":"ｼﾏﾈｹﾝ","kana_city":"ｶﾉｱｼｸﾞﾝﾂﾜﾉﾁｮｳ","kana_address":"ﾄﾖｶ","pref":"島根県","city":"鹿足郡津和野町","address":"豊稼"},
{"zip_code":"6995621","kana_pref":"ｼﾏﾈｹﾝ","kana_city":"ｶﾉｱｼｸﾞﾝﾂﾜﾉﾁｮｳ","kana_address":"ﾅｲﾐ","pref":"島根県","city":"鹿足郡津和野町","address":"内美"},
{"zip_code":"6995634","kana_pref":"ｼﾏﾈｹﾝ","kana_city":"ｶﾉｱｼｸﾞﾝﾂﾜﾉﾁｮｳ","kana_address":"ﾅｶｶﾞﾜ","pref":"島根県","city":"鹿足郡津和野町","address":"中川"},
{"zip_code":"6995612","kana_pref":"ｼﾏﾈｹﾝ","kana_city":"ｶﾉｱｼｸﾞﾝﾂﾜﾉﾁｮｳ","kana_address":"ﾅｶｻﾞ","pref":"島根県","city":"鹿足郡津和野町","address":"中座"},
{"zip_code":"6995636","kana_pref":"ｼﾏﾈｹﾝ","kana_city":"ｶﾉｱｼｸﾞﾝﾂﾜﾉﾁｮｳ","kana_address":"ﾅｶｿﾉ","pref":"島根県","city":"鹿足郡津和野町","address":"中曽野"},
{"zip_code":"6995631","kana_pref":"ｼﾏﾈｹﾝ","kana_city":"ｶﾉｱｼｸﾞﾝﾂﾜﾉﾁｮｳ","kana_address":"ﾅｶﾔﾏ","pref":"島根県","city":"鹿足郡津和野町","address":"中山"},
{"zip_code":"6995633","kana_pref":"ｼﾏﾈｹﾝ","kana_city":"ｶﾉｱｼｸﾞﾝﾂﾜﾉﾁｮｳ","kana_address":"ﾅｶﾞﾌｸ","pref":"島根県","city":"鹿足郡津和野町","address":"長福"},
{"zip_code":"6995615","kana_pref":"ｼﾏﾈｹﾝ","kana_city":"ｶﾉｱｼｸﾞﾝﾂﾜﾉﾁｮｳ","kana_address":"ﾅﾖｼ","pref":"島根県","city":"鹿足郡津和野町","address":"名賀"},
{"zip_code":"6995221","kana_pref":"ｼﾏﾈｹﾝ","kana_city":"ｶﾉｱｼｸﾞﾝﾂﾜﾉﾁｮｳ","kana_address":"ﾆﾁﾊﾗ","pref":"島根県","city":"鹿足郡津和野町","address":"日原"},
{"zip_code":"6995637","kana_pref":"ｼﾏﾈｹﾝ","kana_city":"ｶﾉｱｼｸﾞﾝﾂﾜﾉﾁｮｳ","kana_address":"ﾌｷﾉ","pref":"島根県","city":"鹿足郡津和野町","address":"吹野"},
{"zip_code":"6995616","kana_pref":"ｼﾏﾈｹﾝ","kana_city":"ｶﾉｱｼｸﾞﾝﾂﾜﾉﾁｮｳ","kana_address":"ﾌﾞｻｶ","pref":"島根県","city":"鹿足郡津和野町","address":"部栄"},
{"zip_code":"6995207","kana_pref":"ｼﾏﾈｹﾝ","kana_city":"ｶﾉｱｼｸﾞﾝﾂﾜﾉﾁｮｳ","kana_address":"ﾏｸﾗｾ","pref":"島根県","city":"鹿足郡津和野町","address":"枕瀬"},
{"zip_code":"6995611","kana_pref":"ｼﾏﾈｹﾝ","kana_city":"ｶﾉｱｼｸﾞﾝﾂﾜﾉﾁｮｳ","kana_address":"ﾏﾁﾀﾞ","pref":"島根県","city":"鹿足郡津和野町","address":"町田"},
{"zip_code":"6995622","kana_pref":"ｼﾏﾈｹﾝ","kana_city":"ｶﾉｱｼｸﾞﾝﾂﾜﾉﾁｮｳ","kana_address":"ﾑﾗｷ","pref":"島根県","city":"鹿足郡津和野町","address":"邑輝"},
{"zip_code":"6995604","kana_pref":"ｼﾏﾈｹﾝ","kana_city":"ｶﾉｱｼｸﾞﾝﾂﾜﾉﾁｮｳ","kana_address":"ﾓﾘﾑﾗ","pref":"島根県","city":"鹿足郡津和野町","address":"森村"},
{"zip_code":"6995217","kana_pref":"ｼﾏﾈｹﾝ","kana_city":"ｶﾉｱｼｸﾞﾝﾂﾜﾉﾁｮｳ","kana_address":"ﾔﾅｷﾞﾑﾗ","pref":"島根県","city":"鹿足郡津和野町","address":"柳村"},
{"zip_code":"6995635","kana_pref":"ｼﾏﾈｹﾝ","kana_city":"ｶﾉｱｼｸﾞﾝﾂﾜﾉﾁｮｳ","kana_address":"ﾔﾏｼﾀ","pref":"島根県","city":"鹿足郡津和野町","address":"山下"},
{"zip_code":"6995613","kana_pref":"ｼﾏﾈｹﾝ","kana_city":"ｶﾉｱｼｸﾞﾝﾂﾜﾉﾁｮｳ","kana_address":"ﾜｼﾊﾞﾗ","pref":"島根県","city":"鹿足郡津和野町","address":"鷲原"},
{"zip_code":"6995500","kana_pref":"ｼﾏﾈｹﾝ","kana_city":"ｶﾉｱｼｸﾞﾝﾖｼｶﾁｮｳ","kana_address":"","pref":"島根県","city":"鹿足郡吉賀町","address":""},
{"zip_code":"6995523","kana_pref":"ｼﾏﾈｹﾝ","kana_city":"ｶﾉｱｼｸﾞﾝﾖｼｶﾁｮｳ","kana_address":"ｱｻｸﾗ","pref":"島根県","city":"鹿足郡吉賀町","address":"朝倉"},
{"zip_code":"6995506","kana_pref":"ｼﾏﾈｹﾝ","kana_city":"ｶﾉｱｼｸﾞﾝﾖｼｶﾁｮｳ","kana_address":"ｱﾘｲ","pref":"島根県","city":"鹿足郡吉賀町","address":"有飯"},
{"zip_code":"6995306","kana_pref":"ｼﾏﾈｹﾝ","kana_city":"ｶﾉｱｼｸﾞﾝﾖｼｶﾁｮｳ","kana_address":"ｶｷﾉｷﾑﾗｵｵﾉﾊﾞﾗ","pref":"島根県","city":"鹿足郡吉賀町","address":"柿木村大野原"},
{"zip_code":"6995301","kana_pref":"ｼﾏﾈｹﾝ","kana_city":"ｶﾉｱｼｸﾞﾝﾖｼｶﾁｮｳ","kana_address":"ｶｷﾉｷﾑﾗｶｷﾉｷ","pref":"島根県","city":"鹿足郡吉賀町","address":"柿木村柿木"},
{"zip_code":"6995303","kana_pref":"ｼﾏﾈｹﾝ","kana_city":"ｶﾉｱｼｸﾞﾝﾖｼｶﾁｮｳ","kana_address":"ｶｷﾉｷﾑﾗｶﾊﾞﾀﾆ","pref":"島根県","city":"鹿足郡吉賀町","address":"柿木村椛谷"},
{"zip_code":"6995307","kana_pref":"ｼﾏﾈｹﾝ","kana_city":"ｶﾉｱｼｸﾞﾝﾖｼｶﾁｮｳ","kana_address":"ｶｷﾉｷﾑﾗｷﾍﾞﾀﾞﾆ","pref":"島根県","city":"鹿足郡吉賀町","address":"柿木村木部谷"},
{"zip_code":"6995305","kana_pref":"ｼﾏﾈｹﾝ","kana_city":"ｶﾉｱｼｸﾞﾝﾖｼｶﾁｮｳ","kana_address":"ｶｷﾉｷﾑﾗｼﾓｽ","pref":"島根県","city":"鹿足郡吉賀町","address":"柿木村下須"},
{"zip_code":"6995304","kana_pref":"ｼﾏﾈｹﾝ","kana_city":"ｶﾉｱｼｸﾞﾝﾖｼｶﾁｮｳ","kana_address":"ｶｷﾉｷﾑﾗｼﾗﾀﾆ","pref":"島根県","city":"鹿足郡吉賀町","address":"柿木村白谷"},
{"zip_code":"6995302","kana_pref":"ｼﾏﾈｹﾝ","kana_city":"ｶﾉｱｼｸﾞﾝﾖｼｶﾁｮｳ","kana_address":"ｶｷﾉｷﾑﾗﾌｸｶﾞﾜ","pref":"島根県","city":"鹿足郡吉賀町","address":"柿木村福川"},
{"zip_code":"6995501","kana_pref":"ｼﾏﾈｹﾝ","kana_city":"ｶﾉｱｼｸﾞﾝﾖｼｶﾁｮｳ","kana_address":"ｶﾐﾀｶｼﾞﾘ","pref":"島根県","city":"鹿足郡吉賀町","address":"上高尻"},
{"zip_code":"6995504","kana_pref":"ｼﾏﾈｹﾝ","kana_city":"ｶﾉｱｼｸﾞﾝﾖｼｶﾁｮｳ","kana_address":"ｸﾗｷﾞ","pref":"島根県","city":"鹿足郡吉賀町","address":"蔵木"},
{"zip_code":"6995505","kana_pref":"ｼﾏﾈｹﾝ","kana_city":"ｶﾉｱｼｸﾞﾝﾖｼｶﾁｮｳ","kana_address":"ｸﾛｳﾊﾞﾗ","pref":"島根県","city":"鹿足郡吉賀町","address":"九郎原"},
{"zip_code":"6995515","kana_pref":"ｼﾏﾈｹﾝ","kana_city":"ｶﾉｱｼｸﾞﾝﾖｼｶﾁｮｳ","kana_address":"ｺｳｼﾞ","pref":"島根県","city":"鹿足郡吉賀町","address":"幸地"},
{"zip_code":"6995521","kana_pref":"ｼﾏﾈｹﾝ","kana_city":"ｶﾉｱｼｸﾞﾝﾖｼｶﾁｮｳ","kana_address":"ｻﾅﾀﾞ","pref":"島根県","city":"鹿足郡吉賀町","address":"真田"},
{"zip_code":"6995516","kana_pref":"ｼﾏﾈｹﾝ","kana_city":"ｶﾉｱｼｸﾞﾝﾖｼｶﾁｮｳ","kana_address":"ｻﾜﾀﾞ","pref":"島根県","city":"鹿足郡吉賀町","address":"沢田"},
{"zip_code":"6995517","kana_pref":"ｼﾏﾈｹﾝ","kana_city":"ｶﾉｱｼｸﾞﾝﾖｼｶﾁｮｳ","kana_address":"ｼﾒｶﾞﾜ","pref":"島根県","city":"鹿足郡吉賀町","address":"注連川"},
{"zip_code":"6995507","kana_pref":"ｼﾏﾈｹﾝ","kana_city":"ｶﾉｱｼｸﾞﾝﾖｼｶﾁｮｳ","kana_address":"ｼﾓﾀｶｼﾞﾘ","pref":"島根県","city":"鹿足郡吉賀町","address":"下高尻"},
{"zip_code":"6995514","kana_pref":"ｼﾏﾈｹﾝ","kana_city":"ｶﾉｱｼｸﾞﾝﾖｼｶﾁｮｳ","kana_address":"ﾀﾁｺﾞｳﾁ","pref":"島根県","city":"鹿足郡吉賀町","address":"立河内"},
{"zip_code":"6995511","kana_pref":"ｼﾏﾈｹﾝ","kana_city":"ｶﾉｱｼｸﾞﾝﾖｼｶﾁｮｳ","kana_address":"ﾀﾁﾄﾞ","pref":"島根県","city":"鹿足郡吉賀町","address":"立戸"},
{"zip_code":"6995524","kana_pref":"ｼﾏﾈｹﾝ","kana_city":"ｶﾉｱｼｸﾞﾝﾖｼｶﾁｮｳ","kana_address":"ﾀﾃﾞﾉ","pref":"島根県","city":"鹿足郡吉賀町","address":"蓼野"},
{"zip_code":"6995502","kana_pref":"ｼﾏﾈｹﾝ","kana_city":"ｶﾉｱｼｸﾞﾝﾖｼｶﾁｮｳ","kana_address":"ﾀﾉﾊﾗ","pref":"島根県","city":"鹿足郡吉賀町","address":"田野原"},
{"zip_code":"6995522","kana_pref":"ｼﾏﾈｹﾝ","kana_city":"ｶﾉｱｼｸﾞﾝﾖｼｶﾁｮｳ","kana_address":"ﾅﾇｶｲﾁ","pref":"島根県","city":"鹿足郡吉賀町","address":"七日市"},
{"zip_code":"6995525","kana_pref":"ｼﾏﾈｹﾝ","kana_city":"ｶﾉｱｼｸﾞﾝﾖｼｶﾁｮｳ","kana_address":"ﾇｸﾂｷ","pref":"島根県","city":"鹿足郡吉賀町","address":"抜月"},
{"zip_code":"6995503","kana_pref":"ｼﾏﾈｹﾝ","kana_city":"ｶﾉｱｼｸﾞﾝﾖｼｶﾁｮｳ","kana_address":"ﾋｸﾞﾁ","pref":"島根県","city":"鹿足郡吉賀町","address":"樋口"},
{"zip_code":"6995512","kana_pref":"ｼﾏﾈｹﾝ","kana_city":"ｶﾉｱｼｸﾞﾝﾖｼｶﾁｮｳ","kana_address":"ﾋﾛｲｼ","pref":"島根県","city":"鹿足郡吉賀町","address":"広石"},
{"zip_code":"6995513","kana_pref":"ｼﾏﾈｹﾝ","kana_city":"ｶﾉｱｼｸﾞﾝﾖｼｶﾁｮｳ","kana_address":"ﾑｲｶｲﾁ","pref":"島根県","city":"鹿足郡吉賀町","address":"六日市"}]}