{"zip_code":[
{"zip_code":"7000000","kana_pref":"ｵｶﾔﾏｹﾝ","kana_city":"ｵｶﾔﾏｼｷﾀｸ","kana_address":"","pref":"岡山県","city":"岡山市北区","address":""},
{"zip_code":"7000045","kana_pref":"ｵｶﾔﾏｹﾝ","kana_city":"ｵｶﾔﾏｼｷﾀｸ","kana_address":"ｱｵｲﾁｮｳ","pref":"岡山県","city":"岡山市北区","address":"葵町"},
{"zip_code":"7000941","kana_pref":"ｵｶﾔﾏｹﾝ","kana_city":"ｵｶﾔﾏｼｷﾀｸ","kana_address":"ｱｵｴ","pref":"岡山県","city":"岡山市北区","address":"青江"},
{"zip_code":"7000865","kana_pref":"ｵｶﾔﾏｹﾝ","kana_city":"ｵｶﾔﾏｼｷﾀｸ","kana_address":"ｱｻﾋﾎﾝﾏﾁ","pref":"岡山県","city":"岡山市北区","address":"旭本町"},
{"zip_code":"7000864","kana_pref":"ｵｶﾔﾏｹﾝ","kana_city":"ｵｶﾔﾏｼｷﾀｸ","kana_address":"ｱｻﾋﾏﾁ","pref":"岡山県","city":"岡山市北区","address":"旭町"},
{"zip_code":"7000833","kana_pref":"ｵｶﾔﾏｹﾝ","kana_city":"ｵｶﾔﾏｼｷﾀｸ","kana_address":"ｱﾏｾ","pref":"岡山県","city":"岡山市北区","address":"天瀬"},
{"zip_code":"7000834","kana_pref":"ｵｶﾔﾏｹﾝ","kana_city":"ｵｶﾔﾏｼｷﾀｸ","kana_address":"ｱﾏｾﾐﾅﾐﾏﾁ","pref":"岡山県","city":"岡山市北区","address":"天瀬南町"},
{"zip_code":"7000813","kana_pref":"ｵｶﾔﾏｹﾝ","kana_city":"ｵｶﾔﾏｼｷﾀｸ","kana_address":"ｲｼｾﾞｷﾁｮｳ","pref":"岡山県","city":"岡山市北区","address":"石関町"},
{"zip_code":"7000017","kana_pref":"ｵｶﾔﾏｹﾝ","kana_city":"ｵｶﾔﾏｼｷﾀｸ","kana_address":"ｲｼﾏｷﾀﾏﾁ","pref":"岡山県","city":"岡山市北区","address":"伊島北町"},
{"zip_code":"7000016","kana_pref":"ｵｶﾔﾏｹﾝ","kana_city":"ｵｶﾔﾏｼｷﾀｸ","kana_address":"ｲｼﾏﾁｮｳ","pref":"岡山県","city":"岡山市北区","address":"伊島町"},
{"zip_code":"7000812","kana_pref":"ｵｶﾔﾏｹﾝ","kana_city":"ｵｶﾔﾏｼｷﾀｸ","kana_address":"ｲｽﾞｼﾁｮｳ","pref":"岡山県","city":"岡山市北区","address":"出石町"},
{"zip_code":"7000012","kana_pref":"ｵｶﾔﾏｹﾝ","kana_city":"ｵｶﾔﾏｼｷﾀｸ","kana_address":"ｲｽﾞﾐﾁｮｳ","pref":"岡山県","city":"岡山市北区","address":"いずみ町"},
{"zip_code":"7000013","kana_pref":"ｵｶﾔﾏｹﾝ","kana_city":"ｵｶﾔﾏｼｷﾀｸ","kana_address":"ｲﾌｸﾁｮｳ","pref":"岡山県","city":"岡山市北区","address":"伊福町"},
{"zip_code":"7000975","kana_pref":"ｵｶﾔﾏｹﾝ","kana_city":"ｵｶﾔﾏｼｷﾀｸ","kana_address":"ｲﾏ","pref":"岡山県","city":"岡山市北区","address":"今"},
{"zip_code":"7000974","kana_pref":"ｵｶﾔﾏｹﾝ","kana_city":"ｵｶﾔﾏｼｷﾀｸ","kana_address":"ｲﾏﾑﾗ","pref":"岡山県","city":"岡山市北区","address":"今村"},
{"zip_code":"7000046","kana_pref":"ｵｶﾔﾏｹﾝ","kana_city":"ｵｶﾔﾏｼｷﾀｸ","kana_address":"ｲﾜｲ","pref":"岡山県","city":"岡山市北区","address":"岩井"},
{"zip_code":"7000041","kana_pref":"ｵｶﾔﾏｹﾝ","kana_city":"ｵｶﾔﾏｼｷﾀｸ","kana_address":"ｲﾜｲﾐﾔｳﾗ","pref":"岡山県","city":"岡山市北区","address":"岩井宮裏"},
{"zip_code":"7000022","kana_pref":"ｵｶﾔﾏｹﾝ","kana_city":"ｵｶﾔﾏｼｷﾀｸ","kana_address":"ｲﾜﾀﾁｮｳ","pref":"岡山県","city":"岡山市北区","address":"岩田町"},
{"zip_code":"7000824","kana_pref":"ｵｶﾔﾏｹﾝ","kana_city":"ｵｶﾔﾏｼｷﾀｸ","kana_address":"ｳﾁｻﾝｹﾞ","pref":"岡山県","city":"岡山市北区","address":"内山下"},
{"zip_code":"7000023","kana_pref":"ｵｶﾔﾏｹﾝ","kana_city":"ｵｶﾔﾏｼｷﾀｸ","kana_address":"ｴｷﾏｴﾁｮｳ","pref":"岡山県","city":"岡山市北区","address":"駅前町"},
{"zip_code":"7000024","kana_pref":"ｵｶﾔﾏｹﾝ","kana_city":"ｵｶﾔﾏｼｷﾀｸ","kana_address":"ｴｷﾓﾄﾏﾁ","pref":"岡山県","city":"岡山市北区","address":"駅元町"},
{"zip_code":"7000028","kana_pref":"ｵｶﾔﾏｹﾝ","kana_city":"ｵｶﾔﾏｼｷﾀｸ","kana_address":"ｴｽﾞﾁｮｳ","pref":"岡山県","city":"岡山市北区","address":"絵図町"},
{"zip_code":"7000924","kana_pref":"ｵｶﾔﾏｹﾝ","kana_city":"ｵｶﾔﾏｼｷﾀｸ","kana_address":"ｵｵﾓﾄ","pref":"岡山県","city":"岡山市北区","address":"大元"},
{"zip_code":"7000923","kana_pref":"ｵｶﾔﾏｹﾝ","kana_city":"ｵｶﾔﾏｼｷﾀｸ","kana_address":"ｵｵﾓﾄｴｷﾏｴ","pref":"岡山県","city":"岡山市北区","address":"大元駅前"},
{"zip_code":"7000925","kana_pref":"ｵｶﾔﾏｹﾝ","kana_city":"ｵｶﾔﾏｼｷﾀｸ","kana_address":"ｵｵﾓﾄｶﾐﾏﾁ","pref":"岡山県","city":"岡山市北区","address":"大元上町"},
{"zip_code":"7000867","kana_pref":"ｵｶﾔﾏｹﾝ","kana_city":"ｵｶﾔﾏｼｷﾀｸ","kana_address":"ｵｶﾏﾁ","pref":"岡山県","city":"岡山市北区","address":"岡町"},
{"zip_code":"7000933","kana_pref":"ｵｶﾔﾏｹﾝ","kana_city":"ｵｶﾔﾏｼｷﾀｸ","kana_address":"ｵｸﾀﾞ","pref":"岡山県","city":"岡山市北区","address":"奥田"},
{"zip_code":"7000931","kana_pref":"ｵｶﾔﾏｹﾝ","kana_city":"ｵｶﾔﾏｼｷﾀｸ","kana_address":"ｵｸﾀﾞﾆｼﾏﾁ","pref":"岡山県","city":"岡山市北区","address":"奥田西町"},
{"zip_code":"7000932","kana_pref":"ｵｶﾔﾏｹﾝ","kana_city":"ｵｶﾔﾏｼｷﾀｸ","kana_address":"ｵｸﾀﾞﾎﾝﾏﾁ","pref":"岡山県","city":"岡山市北区","address":"奥田本町"},
{"zip_code":"7000934","kana_pref":"ｵｶﾔﾏｹﾝ","kana_city":"ｵｶﾔﾏｼｷﾀｸ","kana_address":"ｵｸﾀﾞﾐﾅﾐﾏﾁ","pref":"岡山県","city":"岡山市北区","address":"奥田南町"},
{"zip_code":"7000844","kana_pref":"ｵｶﾔﾏｹﾝ","kana_city":"ｵｶﾔﾏｼｷﾀｸ","kana_address":"ｵﾌﾅｲﾘﾁｮｳ","pref":"岡山県","city":"岡山市北区","address":"御舟入町"},
{"zip_code":"7000822","kana_pref":"ｵｶﾔﾏｹﾝ","kana_city":"ｵｶﾔﾏｼｷﾀｸ","kana_address":"ｵﾓﾃﾁｮｳ","pref":"岡山県","city":"岡山市北区","address":"表町"},
{"zip_code":"7000011","kana_pref":"ｵｶﾔﾏｹﾝ","kana_city":"ｵｶﾔﾏｼｷﾀｸ","kana_address":"ｶﾞｸﾅﾝﾁｮｳ","pref":"岡山県","city":"岡山市北区","address":"学南町"},
{"zip_code":"7000905","kana_pref":"ｵｶﾔﾏｹﾝ","kana_city":"ｵｶﾔﾏｼｷﾀｸ","kana_address":"ｶｽｶﾞﾁｮｳ","pref":"岡山県","city":"岡山市北区","address":"春日町"},
{"zip_code":"7000972","kana_pref":"ｵｶﾔﾏｹﾝ","kana_city":"ｵｶﾔﾏｼｷﾀｸ","kana_address":"ｶﾐﾅｶﾉ","pref":"岡山県","city":"岡山市北区","address":"上中野"},
{"zip_code":"7000047","kana_pref":"ｵｶﾔﾏｹﾝ","kana_city":"ｵｶﾔﾏｼｷﾀｸ","kana_address":"ｶﾝｾﾞｲﾁｮｳ","pref":"岡山県","city":"岡山市北区","address":"関西町"},
{"zip_code":"7000935","kana_pref":"ｵｶﾔﾏｹﾝ","kana_city":"ｵｶﾔﾏｼｷﾀｸ","kana_address":"ｶﾝﾀﾞﾁｮｳ","pref":"岡山県","city":"岡山市北区","address":"神田町"},
{"zip_code":"7000803","kana_pref":"ｵｶﾔﾏｹﾝ","kana_city":"ｵｶﾔﾏｼｷﾀｸ","kana_address":"ｷﾀｶﾞﾀ","pref":"岡山県","city":"岡山市北区","address":"北方"},
{"zip_code":"7000963","kana_pref":"ｵｶﾔﾏｹﾝ","kana_city":"ｵｶﾔﾏｼｷﾀｸ","kana_address":"ｷﾀﾅｶﾞｾ","pref":"岡山県","city":"岡山市北区","address":"北長瀬"},
{"zip_code":"7000962","kana_pref":"ｵｶﾔﾏｹﾝ","kana_city":"ｵｶﾔﾏｼｷﾀｸ","kana_address":"ｷﾀﾅｶﾞｾｵﾓﾃﾏﾁ","pref":"岡山県","city":"岡山市北区","address":"北長瀬表町"},
{"zip_code":"7000961","kana_pref":"ｵｶﾔﾏｹﾝ","kana_city":"ｵｶﾔﾏｼｷﾀｸ","kana_address":"ｷﾀﾅｶﾞｾﾎﾝﾏﾁ","pref":"岡山県","city":"岡山市北区","address":"北長瀬本町"},
{"zip_code":"7000831","kana_pref":"ｵｶﾔﾏｹﾝ","kana_city":"ｵｶﾔﾏｼｷﾀｸ","kana_address":"ｷｮｳﾊﾞｼﾁｮｳ","pref":"岡山県","city":"岡山市北区","address":"京橋町"},
{"zip_code":"7000832","kana_pref":"ｵｶﾔﾏｹﾝ","kana_city":"ｵｶﾔﾏｼｷﾀｸ","kana_address":"ｷｮｳﾊﾞｼﾐﾅﾐﾏﾁ","pref":"岡山県","city":"岡山市北区","address":"京橋南町"},
{"zip_code":"7000838","kana_pref":"ｵｶﾔﾏｹﾝ","kana_city":"ｵｶﾔﾏｼｷﾀｸ","kana_address":"ｷｮｳﾏﾁ","pref":"岡山県","city":"岡山市北区","address":"京町"},
{"zip_code":"7000015","kana_pref":"ｵｶﾔﾏｹﾝ","kana_city":"ｵｶﾔﾏｼｷﾀｸ","kana_address":"ｷｮｳﾔﾏ","pref":"岡山県","city":"岡山市北区","address":"京山"},
{"zip_code":"7000984","kana_pref":"ｵｶﾔﾏｹﾝ","kana_city":"ｵｶﾔﾏｼｷﾀｸ","kana_address":"ｸﾜﾀﾞﾁｮｳ","pref":"岡山県","city":"岡山市北区","address":"桑田町"},
{"zip_code":"7000985","kana_pref":"ｵｶﾔﾏｹﾝ","kana_city":"ｵｶﾔﾏｼｷﾀｸ","kana_address":"ｺｳｾｲﾁｮｳ","pref":"岡山県","city":"岡山市北区","address":"厚生町"},
{"zip_code":"7000866","kana_pref":"ｵｶﾔﾏｹﾝ","kana_city":"ｵｶﾔﾏｼｷﾀｸ","kana_address":"ｺｳﾅﾝﾁｮｳ","pref":"岡山県","city":"岡山市北区","address":"岡南町"},
{"zip_code":"7000021","kana_pref":"ｵｶﾔﾏｹﾝ","kana_city":"ｵｶﾔﾏｼｷﾀｸ","kana_address":"ｺｸﾀｲﾁｮｳ","pref":"岡山県","city":"岡山市北区","address":"国体町"},
{"zip_code":"7000025","kana_pref":"ｵｶﾔﾏｹﾝ","kana_city":"ｵｶﾔﾏｼｷﾀｸ","kana_address":"ｺﾄﾌﾞｷﾁｮｳ","pref":"岡山県","city":"岡山市北区","address":"寿町"},
{"zip_code":"7000903","kana_pref":"ｵｶﾔﾏｹﾝ","kana_city":"ｵｶﾔﾏｼｷﾀｸ","kana_address":"ｻｲﾜｲﾁｮｳ","pref":"岡山県","city":"岡山市北区","address":"幸町"},
{"zip_code":"7000914","kana_pref":"ｵｶﾔﾏｹﾝ","kana_city":"ｵｶﾔﾏｼｷﾀｸ","kana_address":"ｼｶﾀﾁｮｳ","pref":"岡山県","city":"岡山市北区","address":"鹿田町"},
{"zip_code":"7000915","kana_pref":"ｵｶﾔﾏｹﾝ","kana_city":"ｵｶﾔﾏｼｷﾀｸ","kana_address":"ｼｶﾀﾎﾝﾏﾁ","pref":"岡山県","city":"岡山市北区","address":"鹿田本町"},
{"zip_code":"7000033","kana_pref":"ｵｶﾔﾏｹﾝ","kana_city":"ｵｶﾔﾏｼｷﾀｸ","kana_address":"ｼﾏﾀﾞﾎﾝﾏﾁ","pref":"岡山県","city":"岡山市北区","address":"島田本町"},
{"zip_code":"7000907","kana_pref":"ｵｶﾔﾏｹﾝ","kana_city":"ｵｶﾔﾏｼｷﾀｸ","kana_address":"ｼﾓｲｼｲ","pref":"岡山県","city":"岡山市北区","address":"下石井"},
{"zip_code":"7000052","kana_pref":"ｵｶﾔﾏｹﾝ","kana_city":"ｵｶﾔﾏｼｷﾀｸ","kana_address":"ｼﾓｲﾌｸ","pref":"岡山県","city":"岡山市北区","address":"下伊福"},
{"zip_code":"7000051","kana_pref":"ｵｶﾔﾏｹﾝ","kana_city":"ｵｶﾔﾏｼｷﾀｸ","kana_address":"ｼﾓｲﾌｸｶﾐﾏﾁ","pref":"岡山県","city":"岡山市北区","address":"下伊福上町"},
{"zip_code":"7000054","kana_pref":"ｵｶﾔﾏｹﾝ","kana_city":"ｵｶﾔﾏｼｷﾀｸ","kana_address":"ｼﾓｲﾌｸﾆｼﾏﾁ","pref":"岡山県","city":"岡山市北区","address":"下伊福西町"},
{"zip_code":"7000053","kana_pref":"ｵｶﾔﾏｹﾝ","kana_city":"ｵｶﾔﾏｼｷﾀｸ","kana_address":"ｼﾓｲﾌｸﾎﾝﾏﾁ","pref":"岡山県","city":"岡山市北区","address":"下伊福本町"},
{"zip_code":"7000846","kana_pref":"ｵｶﾔﾏｹﾝ","kana_city":"ｵｶﾔﾏｼｷﾀｸ","kana_address":"ｼﾓｳﾁﾀﾞﾁｮｳ","pref":"岡山県","city":"岡山市北区","address":"下内田町"},
{"zip_code":"7000973","kana_pref":"ｵｶﾔﾏｹﾝ","kana_city":"ｵｶﾔﾏｼｷﾀｸ","kana_address":"ｼﾓﾅｶﾉ","pref":"岡山県","city":"岡山市北区","address":"下中野"},
{"zip_code":"7000001","kana_pref":"ｵｶﾔﾏｹﾝ","kana_city":"ｵｶﾔﾏｼｷﾀｸ","kana_address":"ｼｭｸ","pref":"岡山県","city":"岡山市北区","address":"宿"},
{"zip_code":"7000002","kana_pref":"ｵｶﾔﾏｹﾝ","kana_city":"ｵｶﾔﾏｼｷﾀｸ","kana_address":"ｼｭｸﾎﾝﾏﾁ","pref":"岡山県","city":"岡山市北区","address":"宿本町"},
{"zip_code":"7000032","kana_pref":"ｵｶﾔﾏｹﾝ","kana_city":"ｵｶﾔﾏｼｷﾀｸ","kana_address":"ｼｮｳﾜﾁｮｳ","pref":"岡山県","city":"岡山市北区","address":"昭和町"},
{"zip_code":"7000863","kana_pref":"ｵｶﾔﾏｹﾝ","kana_city":"ｵｶﾔﾏｼｷﾀｸ","kana_address":"ｼﾝﾐﾁ","pref":"岡山県","city":"岡山市北区","address":"新道"},
{"zip_code":"7000986","kana_pref":"ｵｶﾔﾏｹﾝ","kana_city":"ｵｶﾔﾏｼｷﾀｸ","kana_address":"ｼﾝﾔｼｷﾁｮｳ","pref":"岡山県","city":"岡山市北区","address":"新屋敷町"},
{"zip_code":"7000861","kana_pref":"ｵｶﾔﾏｹﾝ","kana_city":"ｵｶﾔﾏｼｷﾀｸ","kana_address":"ｾｲｷﾊﾞｼ","pref":"岡山県","city":"岡山市北区","address":"清輝橋"},
{"zip_code":"7000862","kana_pref":"ｵｶﾔﾏｹﾝ","kana_city":"ｵｶﾔﾏｼｷﾀｸ","kana_address":"ｾｲｷﾎﾝﾏﾁ","pref":"岡山県","city":"岡山市北区","address":"清輝本町"},
{"zip_code":"7000027","kana_pref":"ｵｶﾔﾏｹﾝ","kana_city":"ｵｶﾔﾏｼｷﾀｸ","kana_address":"ｾｲｼﾝﾁｮｳ","pref":"岡山県","city":"岡山市北区","address":"清心町"},
{"zip_code":"7000842","kana_pref":"ｵｶﾔﾏｹﾝ","kana_city":"ｵｶﾔﾏｼｷﾀｸ","kana_address":"ｾﾝﾄﾞｳﾁｮｳ","pref":"岡山県","city":"岡山市北区","address":"船頭町"},
{"zip_code":"7000062","kana_pref":"ｵｶﾔﾏｹﾝ","kana_city":"ｵｶﾔﾏｼｷﾀｸ","kana_address":"ﾀﾞｲｱﾝｼﾞﾅｶﾏﾁ","pref":"岡山県","city":"岡山市北区","address":"大安寺中町"},
{"zip_code":"7000061","kana_pref":"ｵｶﾔﾏｹﾝ","kana_city":"ｵｶﾔﾏｼｷﾀｸ","kana_address":"ﾀﾞｲｱﾝｼﾞﾆｼﾏﾁ","pref":"岡山県","city":"岡山市北区","address":"大安寺西町"},
{"zip_code":"7000063","kana_pref":"ｵｶﾔﾏｹﾝ","kana_city":"ｵｶﾔﾏｼｷﾀｸ","kana_address":"ﾀﾞｲｱﾝｼﾞﾋｶﾞｼﾏﾁ","pref":"岡山県","city":"岡山市北区","address":"大安寺東町"},
{"zip_code":"7000064","kana_pref":"ｵｶﾔﾏｹﾝ","kana_city":"ｵｶﾔﾏｼｷﾀｸ","kana_address":"ﾀﾞｲｱﾝｼﾞﾐﾅﾐﾏﾁ","pref":"岡山県","city":"岡山市北区","address":"大安寺南町"},
{"zip_code":"7000906","kana_pref":"ｵｶﾔﾏｹﾝ","kana_city":"ｵｶﾔﾏｼｷﾀｸ","kana_address":"ﾀﾞｲｶﾞｸﾁｮｳ","pref":"岡山県","city":"岡山市北区","address":"大学町"},
{"zip_code":"7000913","kana_pref":"ｵｶﾔﾏｹﾝ","kana_city":"ｵｶﾔﾏｼｷﾀｸ","kana_address":"ﾀﾞｲｸ","pref":"岡山県","city":"岡山市北区","address":"大供"},
{"zip_code":"7000912","kana_pref":"ｵｶﾔﾏｹﾝ","kana_city":"ｵｶﾔﾏｼｷﾀｸ","kana_address":"ﾀﾞｲｸｵﾓﾃﾏﾁ","pref":"岡山県","city":"岡山市北区","address":"大供表町"},
{"zip_code":"7000911","kana_pref":"ｵｶﾔﾏｹﾝ","kana_city":"ｵｶﾔﾏｼｷﾀｸ","kana_address":"ﾀﾞｲｸﾎﾝﾏﾁ","pref":"岡山県","city":"岡山市北区","address":"大供本町"},
{"zip_code":"7000035","kana_pref":"ｵｶﾔﾏｹﾝ","kana_city":"ｵｶﾔﾏｼｷﾀｸ","kana_address":"ﾀｶﾔﾅｷﾞﾆｼﾏﾁ","pref":"岡山県","city":"岡山市北区","address":"高柳西町"},
{"zip_code":"7000034","kana_pref":"ｵｶﾔﾏｹﾝ","kana_city":"ｵｶﾔﾏｼｷﾀｸ","kana_address":"ﾀｶﾔﾅｷﾞﾋｶﾞｼﾏﾁ","pref":"岡山県","city":"岡山市北区","address":"高柳東町"},
{"zip_code":"7000976","kana_pref":"ｵｶﾔﾏｹﾝ","kana_city":"ｵｶﾔﾏｼｷﾀｸ","kana_address":"ﾀﾂﾐ","pref":"岡山県","city":"岡山市北区","address":"辰巳"},
{"zip_code":"7000951","kana_pref":"ｵｶﾔﾏｹﾝ","kana_city":"ｵｶﾔﾏｼｷﾀｸ","kana_address":"ﾀﾅｶ","pref":"岡山県","city":"岡山市北区","address":"田中"},
{"zip_code":"7000071","kana_pref":"ｵｶﾔﾏｹﾝ","kana_city":"ｵｶﾔﾏｼｷﾀｸ","kana_address":"ﾀﾆﾏﾝﾅﾘ","pref":"岡山県","city":"岡山市北区","address":"谷万成"},
{"zip_code":"7000825","kana_pref":"ｵｶﾔﾏｹﾝ","kana_city":"ｵｶﾔﾏｼｷﾀｸ","kana_address":"ﾀﾏﾁ","pref":"岡山県","city":"岡山市北区","address":"田町"},
{"zip_code":"7000836","kana_pref":"ｵｶﾔﾏｹﾝ","kana_city":"ｵｶﾔﾏｼｷﾀｸ","kana_address":"ﾁｭｳｵｳﾁｮｳ","pref":"岡山県","city":"岡山市北区","address":"中央町"},
{"zip_code":"7000014","kana_pref":"ｵｶﾔﾏｹﾝ","kana_city":"ｵｶﾔﾏｼｷﾀｸ","kana_address":"ﾂｸﾗﾁｮｳ","pref":"岡山県","city":"岡山市北区","address":"津倉町"},
{"zip_code":"7000087","kana_pref":"ｵｶﾔﾏｹﾝ","kana_city":"ｵｶﾔﾏｼｷﾀｸ","kana_address":"ﾂｼﾏｷｮｳﾏﾁ","pref":"岡山県","city":"岡山市北区","address":"津島京町"},
{"zip_code":"7000084","kana_pref":"ｵｶﾔﾏｹﾝ","kana_city":"ｵｶﾔﾏｼｷﾀｸ","kana_address":"ﾂｼﾏｸﾜﾉｷﾁｮｳ","pref":"岡山県","city":"岡山市北区","address":"津島桑の木町"},
{"zip_code":"7000088","kana_pref":"ｵｶﾔﾏｹﾝ","kana_city":"ｵｶﾔﾏｼｷﾀｸ","kana_address":"ﾂｼﾏｻｻｶﾞｾ","pref":"岡山県","city":"岡山市北区","address":"津島笹が瀬"},
{"zip_code":"7000082","kana_pref":"ｵｶﾔﾏｹﾝ","kana_city":"ｵｶﾔﾏｼｷﾀｸ","kana_address":"ﾂｼﾏﾅｶ","pref":"岡山県","city":"岡山市北区","address":"津島中"},
{"zip_code":"7000083","kana_pref":"ｵｶﾔﾏｹﾝ","kana_city":"ｵｶﾔﾏｼｷﾀｸ","kana_address":"ﾂｼﾏﾆｲﾉ","pref":"岡山県","city":"岡山市北区","address":"津島新野"},
{"zip_code":"7000086","kana_pref":"ｵｶﾔﾏｹﾝ","kana_city":"ｵｶﾔﾏｼｷﾀｸ","kana_address":"ﾂｼﾏﾆｼｻﾞｶ","pref":"岡山県","city":"岡山市北区","address":"津島西坂"},
{"zip_code":"7000081","kana_pref":"ｵｶﾔﾏｹﾝ","kana_city":"ｵｶﾔﾏｼｷﾀｸ","kana_address":"ﾂｼﾏﾋｶﾞｼ","pref":"岡山県","city":"岡山市北区","address":"津島東"},
{"zip_code":"7000080","kana_pref":"ｵｶﾔﾏｹﾝ","kana_city":"ｵｶﾔﾏｼｷﾀｸ","kana_address":"ﾂｼﾏﾌｸｲ","pref":"岡山県","city":"岡山市北区","address":"津島福居"},
{"zip_code":"7000089","kana_pref":"ｵｶﾔﾏｹﾝ","kana_city":"ｵｶﾔﾏｼｷﾀｸ","kana_address":"ﾂｼﾏﾎﾝﾏﾁ","pref":"岡山県","city":"岡山市北区","address":"津島本町"},
{"zip_code":"7000085","kana_pref":"ｵｶﾔﾏｹﾝ","kana_city":"ｵｶﾔﾏｼｷﾀｸ","kana_address":"ﾂｼﾏﾐﾅﾐ","pref":"岡山県","city":"岡山市北区","address":"津島南"},
{"zip_code":"7000814","kana_pref":"ｵｶﾔﾏｹﾝ","kana_city":"ｵｶﾔﾏｼｷﾀｸ","kana_address":"ﾃﾝｼﾞﾝﾁｮｳ","pref":"岡山県","city":"岡山市北区","address":"天神町"},
{"zip_code":"7000977","kana_pref":"ｵｶﾔﾏｹﾝ","kana_city":"ｵｶﾔﾏｼｷﾀｸ","kana_address":"ﾄｲﾔﾁｮｳ","pref":"岡山県","city":"岡山市北区","address":"問屋町"},
{"zip_code":"7000855","kana_pref":"ｵｶﾔﾏｹﾝ","kana_city":"ｵｶﾔﾏｼｷﾀｸ","kana_address":"ﾄｳｶｲﾁﾅｶﾏﾁ","pref":"岡山県","city":"岡山市北区","address":"十日市中町"},
{"zip_code":"7000856","kana_pref":"ｵｶﾔﾏｹﾝ","kana_city":"ｵｶﾔﾏｼｷﾀｸ","kana_address":"ﾄｳｶｲﾁﾆｼﾏﾁ","pref":"岡山県","city":"岡山市北区","address":"十日市西町"},
{"zip_code":"7000854","kana_pref":"ｵｶﾔﾏｹﾝ","kana_city":"ｵｶﾔﾏｼｷﾀｸ","kana_address":"ﾄｳｶｲﾁﾋｶﾞｼﾏﾁ","pref":"岡山県","city":"岡山市北区","address":"十日市東町"},
{"zip_code":"7000826","kana_pref":"ｵｶﾔﾏｹﾝ","kana_city":"ｵｶﾔﾏｼｷﾀｸ","kana_address":"ﾄｷﾞﾔﾁｮｳ","pref":"岡山県","city":"岡山市北区","address":"磨屋町"},
{"zip_code":"7000936","kana_pref":"ｵｶﾔﾏｹﾝ","kana_city":"ｵｶﾔﾏｼｷﾀｸ","kana_address":"ﾄﾐﾀ","pref":"岡山県","city":"岡山市北区","address":"富田"},
{"zip_code":"7000031","kana_pref":"ｵｶﾔﾏｹﾝ","kana_city":"ｵｶﾔﾏｼｷﾀｸ","kana_address":"ﾄﾐﾏﾁ","pref":"岡山県","city":"岡山市北区","address":"富町"},
{"zip_code":"7000816","kana_pref":"ｵｶﾔﾏｹﾝ","kana_city":"ｵｶﾔﾏｼｷﾀｸ","kana_address":"ﾄﾝﾀﾞﾁｮｳ","pref":"岡山県","city":"岡山市北区","address":"富田町"},
{"zip_code":"7000804","kana_pref":"ｵｶﾔﾏｹﾝ","kana_city":"ｵｶﾔﾏｼｷﾀｸ","kana_address":"ﾅｶｲﾁｮｳ","pref":"岡山県","city":"岡山市北区","address":"中井町"},
{"zip_code":"7000821","kana_pref":"ｵｶﾔﾏｹﾝ","kana_city":"ｵｶﾔﾏｼｷﾀｸ","kana_address":"ﾅｶｻﾝｹﾞ","pref":"岡山県","city":"岡山市北区","address":"中山下"},
{"zip_code":"7000982","kana_pref":"ｵｶﾔﾏｹﾝ","kana_city":"ｵｶﾔﾏｼｷﾀｸ","kana_address":"ﾅｶｼﾏﾀﾞﾁｮｳ","pref":"岡山県","city":"岡山市北区","address":"中島田町"},
{"zip_code":"7000964","kana_pref":"ｵｶﾔﾏｹﾝ","kana_city":"ｵｶﾔﾏｼｷﾀｸ","kana_address":"ﾅｶｾﾝﾄﾞｳ","pref":"岡山県","city":"岡山市北区","address":"中仙道"},
{"zip_code":"7000851","kana_pref":"ｵｶﾔﾏｹﾝ","kana_city":"ｵｶﾔﾏｼｷﾀｸ","kana_address":"ﾅﾉｶｲﾁﾆｼﾏﾁ","pref":"岡山県","city":"岡山市北区","address":"七日市西町"},
{"zip_code":"7000852","kana_pref":"ｵｶﾔﾏｹﾝ","kana_city":"ｵｶﾔﾏｼｷﾀｸ","kana_address":"ﾅﾉｶｲﾁﾋｶﾞｼﾏﾁ","pref":"岡山県","city":"岡山市北区","address":"七日市東町"},
{"zip_code":"7000953","kana_pref":"ｵｶﾔﾏｹﾝ","kana_city":"ｵｶﾔﾏｼｷﾀｸ","kana_address":"ﾆｼｲﾁ","pref":"岡山県","city":"岡山市北区","address":"西市"},
{"zip_code":"7000902","kana_pref":"ｵｶﾔﾏｹﾝ","kana_city":"ｵｶﾔﾏｼｷﾀｸ","kana_address":"ﾆｼｷﾏﾁ","pref":"岡山県","city":"岡山市北区","address":"錦町"},
{"zip_code":"7000055","kana_pref":"ｵｶﾔﾏｹﾝ","kana_city":"ｵｶﾔﾏｼｷﾀｸ","kana_address":"ﾆｼｻﾞｷ","pref":"岡山県","city":"岡山市北区","address":"西崎"},
{"zip_code":"7000056","kana_pref":"ｵｶﾔﾏｹﾝ","kana_city":"ｵｶﾔﾏｼｷﾀｸ","kana_address":"ﾆｼｻﾞｷﾎﾝﾏﾁ","pref":"岡山県","city":"岡山市北区","address":"西崎本町"},
{"zip_code":"7000981","kana_pref":"ｵｶﾔﾏｹﾝ","kana_city":"ｵｶﾔﾏｼｷﾀｸ","kana_address":"ﾆｼｼﾏﾀﾞﾁｮｳ","pref":"岡山県","city":"岡山市北区","address":"西島田町"},
{"zip_code":"7000965","kana_pref":"ｵｶﾔﾏｹﾝ","kana_city":"ｵｶﾔﾏｼｷﾀｸ","kana_address":"ﾆｼﾅｶﾞｾ","pref":"岡山県","city":"岡山市北区","address":"西長瀬"},
{"zip_code":"7000916","kana_pref":"ｵｶﾔﾏｹﾝ","kana_city":"ｵｶﾔﾏｼｷﾀｸ","kana_address":"ﾆｼﾉﾁｮｳ","pref":"岡山県","city":"岡山市北区","address":"西之町"},
{"zip_code":"7000067","kana_pref":"ｵｶﾔﾏｹﾝ","kana_city":"ｵｶﾔﾏｼｷﾀｸ","kana_address":"ﾆｼﾉﾔﾏﾁｮｳ","pref":"岡山県","city":"岡山市北区","address":"西野山町"},
{"zip_code":"7000927","kana_pref":"ｵｶﾔﾏｹﾝ","kana_city":"ｵｶﾔﾏｼｷﾀｸ","kana_address":"ﾆｼﾌﾙﾏﾂ","pref":"岡山県","city":"岡山市北区","address":"西古松"},
{"zip_code":"7000926","kana_pref":"ｵｶﾔﾏｹﾝ","kana_city":"ｵｶﾔﾏｼｷﾀｸ","kana_address":"ﾆｼﾌﾙﾏﾂﾆｼﾏﾁ","pref":"岡山県","city":"岡山市北区","address":"西古松西町"},
{"zip_code":"7000971","kana_pref":"ｵｶﾔﾏｹﾝ","kana_city":"ｵｶﾔﾏｼｷﾀｸ","kana_address":"ﾉﾀﾞ","pref":"岡山県","city":"岡山市北区","address":"野田"},
{"zip_code":"7000815","kana_pref":"ｵｶﾔﾏｹﾝ","kana_city":"ｵｶﾔﾏｼｷﾀｸ","kana_address":"ﾉﾀﾞﾔﾁｮｳ","pref":"岡山県","city":"岡山市北区","address":"野田屋町"},
{"zip_code":"7000066","kana_pref":"ｵｶﾔﾏｹﾝ","kana_city":"ｵｶﾔﾏｼｷﾀｸ","kana_address":"ﾉﾄﾞﾉﾆｼﾏﾁ","pref":"岡山県","city":"岡山市北区","address":"野殿西町"},
{"zip_code":"7000065","kana_pref":"ｵｶﾔﾏｹﾝ","kana_city":"ｵｶﾔﾏｼｷﾀｸ","kana_address":"ﾉﾄﾞﾉﾋｶﾞｼﾏﾁ","pref":"岡山県","city":"岡山市北区","address":"野殿東町"},
{"zip_code":"7000818","kana_pref":"ｵｶﾔﾏｹﾝ","kana_city":"ｵｶﾔﾏｼｷﾀｸ","kana_address":"ﾊﾞﾝｻﾞﾝﾁｮｳ","pref":"岡山県","city":"岡山市北区","address":"蕃山町"},
{"zip_code":"7000003","kana_pref":"ｵｶﾔﾏｹﾝ","kana_city":"ｵｶﾔﾏｼｷﾀｸ","kana_address":"ﾊﾝﾀﾞﾁｮｳ","pref":"岡山県","city":"岡山市北区","address":"半田町"},
{"zip_code":"7000811","kana_pref":"ｵｶﾔﾏｹﾝ","kana_city":"ｵｶﾔﾏｼｷﾀｸ","kana_address":"ﾊﾞﾝﾁｮｳ","pref":"岡山県","city":"岡山市北区","address":"番町"},
{"zip_code":"7000983","kana_pref":"ｵｶﾔﾏｹﾝ","kana_city":"ｵｶﾔﾏｼｷﾀｸ","kana_address":"ﾋｶﾞｼｼﾏﾀﾞﾁｮｳ","pref":"岡山県","city":"岡山市北区","address":"東島田町"},
{"zip_code":"7000835","kana_pref":"ｵｶﾔﾏｹﾝ","kana_city":"ｵｶﾔﾏｼｷﾀｸ","kana_address":"ﾋｶﾞｼﾁｭｳｵｳﾁｮｳ","pref":"岡山県","city":"岡山市北区","address":"東中央町"},
{"zip_code":"7000068","kana_pref":"ｵｶﾔﾏｹﾝ","kana_city":"ｵｶﾔﾏｼｷﾀｸ","kana_address":"ﾋｶﾞｼﾉﾔﾏﾁｮｳ","pref":"岡山県","city":"岡山市北区","address":"東野山町"},
{"zip_code":"7000921","kana_pref":"ｵｶﾔﾏｹﾝ","kana_city":"ｵｶﾔﾏｼｷﾀｸ","kana_address":"ﾋｶﾞｼﾌﾙﾏﾂ","pref":"岡山県","city":"岡山市北区","address":"東古松"},
{"zip_code":"7000922","kana_pref":"ｵｶﾔﾏｹﾝ","kana_city":"ｵｶﾔﾏｼｷﾀｸ","kana_address":"ﾋｶﾞｼﾌﾙﾏﾂﾐﾅﾐﾏﾁ","pref":"岡山県","city":"岡山市北区","address":"東古松南町"},
{"zip_code":"7000966","kana_pref":"ｵｶﾔﾏｹﾝ","kana_city":"ｵｶﾔﾏｼｷﾀｸ","kana_address":"ﾋﾖｼﾁｮｳ","pref":"岡山県","city":"岡山市北区","address":"日吉町"},
{"zip_code":"7000952","kana_pref":"ｵｶﾔﾏｹﾝ","kana_city":"ｵｶﾔﾏｼｷﾀｸ","kana_address":"ﾋﾗﾀ","pref":"岡山県","city":"岡山市北区","address":"平田"},
{"zip_code":"7000806","kana_pref":"ｵｶﾔﾏｹﾝ","kana_city":"ｵｶﾔﾏｼｷﾀｸ","kana_address":"ﾋﾛｾﾁｮｳ","pref":"岡山県","city":"岡山市北区","address":"広瀬町"},
{"zip_code":"7000843","kana_pref":"ｵｶﾔﾏｹﾝ","kana_city":"ｵｶﾔﾏｼｷﾀｸ","kana_address":"ﾌﾂｶｲﾁﾏﾁ","pref":"岡山県","city":"岡山市北区","address":"二日市町"},
{"zip_code":"7000841","kana_pref":"ｵｶﾔﾏｹﾝ","kana_city":"ｵｶﾔﾏｼｷﾀｸ","kana_address":"ﾌﾅﾊﾞｼﾁｮｳ","pref":"岡山県","city":"岡山市北区","address":"舟橋町"},
{"zip_code":"7000805","kana_pref":"ｵｶﾔﾏｹﾝ","kana_city":"ｵｶﾔﾏｼｷﾀｸ","kana_address":"ﾍｲﾀﾞﾝ","pref":"岡山県","city":"岡山市北区","address":"兵団"},
{"zip_code":"7000827","kana_pref":"ｵｶﾔﾏｹﾝ","kana_city":"ｵｶﾔﾏｼｷﾀｸ","kana_address":"ﾍｲﾜﾁｮｳ","pref":"岡山県","city":"岡山市北区","address":"平和町"},
{"zip_code":"7000004","kana_pref":"ｵｶﾔﾏｹﾝ","kana_city":"ｵｶﾔﾏｼｷﾀｸ","kana_address":"ﾎｳｶｲｲﾝ","pref":"岡山県","city":"岡山市北区","address":"法界院"},
{"zip_code":"7000026","kana_pref":"ｵｶﾔﾏｹﾝ","kana_city":"ｵｶﾔﾏｼｷﾀｸ","kana_address":"ﾎｳｶﾝﾁｮｳ","pref":"岡山県","city":"岡山市北区","address":"奉還町"},
{"zip_code":"7000901","kana_pref":"ｵｶﾔﾏｹﾝ","kana_city":"ｵｶﾔﾏｼｷﾀｸ","kana_address":"ﾎﾝﾏﾁ","pref":"岡山県","city":"岡山市北区","address":"本町"},
{"zip_code":"7000823","kana_pref":"ｵｶﾔﾏｹﾝ","kana_city":"ｵｶﾔﾏｼｷﾀｸ","kana_address":"ﾏﾙﾉｳﾁ","pref":"岡山県","city":"岡山市北区","address":"丸の内"},
{"zip_code":"7000073","kana_pref":"ｵｶﾔﾏｹﾝ","kana_city":"ｵｶﾔﾏｼｷﾀｸ","kana_address":"ﾏﾝﾅﾘﾆｼﾏﾁ","pref":"岡山県","city":"岡山市北区","address":"万成西町"},
{"zip_code":"7000072","kana_pref":"ｵｶﾔﾏｹﾝ","kana_city":"ｵｶﾔﾏｼｷﾀｸ","kana_address":"ﾏﾝﾅﾘﾋｶﾞｼﾏﾁ","pref":"岡山県","city":"岡山市北区","address":"万成東町"},
{"zip_code":"7000043","kana_pref":"ｵｶﾔﾏｹﾝ","kana_city":"ｵｶﾔﾏｼｷﾀｸ","kana_address":"ﾐｶﾄﾞﾅｶﾏﾁ","pref":"岡山県","city":"岡山市北区","address":"三門中町"},
{"zip_code":"7000044","kana_pref":"ｵｶﾔﾏｹﾝ","kana_city":"ｵｶﾔﾏｼｷﾀｸ","kana_address":"ﾐｶﾄﾞﾆｼﾏﾁ","pref":"岡山県","city":"岡山市北区","address":"三門西町"},
{"zip_code":"7000042","kana_pref":"ｵｶﾔﾏｹﾝ","kana_city":"ｵｶﾔﾏｼｷﾀｸ","kana_address":"ﾐｶﾄﾞﾋｶﾞｼﾏﾁ","pref":"岡山県","city":"岡山市北区","address":"三門東町"},
{"zip_code":"7000807","kana_pref":"ｵｶﾔﾏｹﾝ","kana_city":"ｵｶﾔﾏｼｷﾀｸ","kana_address":"ﾐﾅﾐｶﾞﾀ","pref":"岡山県","city":"岡山市北区","address":"南方"},
{"zip_code":"7000837","kana_pref":"ｵｶﾔﾏｹﾝ","kana_city":"ｵｶﾔﾏｼｷﾀｸ","kana_address":"ﾐﾅﾐﾁｭｳｵｳﾁｮｳ","pref":"岡山県","city":"岡山市北区","address":"南中央町"},
{"zip_code":"7000802","kana_pref":"ｵｶﾔﾏｹﾝ","kana_city":"ｵｶﾔﾏｼｷﾀｸ","kana_address":"ﾐﾉ","pref":"岡山県","city":"岡山市北区","address":"三野"},
{"zip_code":"7000801","kana_pref":"ｵｶﾔﾏｹﾝ","kana_city":"ｵｶﾔﾏｼｷﾀｸ","kana_address":"ﾐﾉﾎﾝﾏﾁ","pref":"岡山県","city":"岡山市北区","address":"三野本町"},
{"zip_code":"7000076","kana_pref":"ｵｶﾔﾏｹﾝ","kana_city":"ｵｶﾔﾏｼｷﾀｸ","kana_address":"ﾔｻｶﾆｼﾏﾁ","pref":"岡山県","city":"岡山市北区","address":"矢坂西町"},
{"zip_code":"7000074","kana_pref":"ｵｶﾔﾏｹﾝ","kana_city":"ｵｶﾔﾏｼｷﾀｸ","kana_address":"ﾔｻｶﾋｶﾞｼﾏﾁ","pref":"岡山県","city":"岡山市北区","address":"矢坂東町"},
{"zip_code":"7000075","kana_pref":"ｵｶﾔﾏｹﾝ","kana_city":"ｵｶﾔﾏｼｷﾀｸ","kana_address":"ﾔｻｶﾎﾝﾏﾁ","pref":"岡山県","city":"岡山市北区","address":"矢坂本町"},
{"zip_code":"7000904","kana_pref":"ｵｶﾔﾏｹﾝ","kana_city":"ｵｶﾔﾏｼｷﾀｸ","kana_address":"ﾔﾅｷﾞﾏﾁ","pref":"岡山県","city":"岡山市北区","address":"柳町"},
{"zip_code":"7000847","kana_pref":"ｵｶﾔﾏｹﾝ","kana_city":"ｵｶﾔﾏｼｷﾀｸ","kana_address":"ﾔﾏｼﾅﾁｮｳ","pref":"岡山県","city":"岡山市北区","address":"山科町"},
{"zip_code":"7000808","kana_pref":"ｵｶﾔﾏｹﾝ","kana_city":"ｵｶﾔﾏｼｷﾀｸ","kana_address":"ﾔﾏﾄﾏﾁ","pref":"岡山県","city":"岡山市北区","address":"大和町"},
{"zip_code":"7000817","kana_pref":"ｵｶﾔﾏｹﾝ","kana_city":"ｵｶﾔﾏｼｷﾀｸ","kana_address":"ﾕﾐﾉﾁｮｳ","pref":"岡山県","city":"岡山市北区","address":"弓之町"},
{"zip_code":"7000005","kana_pref":"ｵｶﾔﾏｹﾝ","kana_city":"ｵｶﾔﾏｼｷﾀｸ","kana_address":"ﾘﾀﾞｲﾁｮｳ","pref":"岡山県","city":"岡山市北区","address":"理大町"},
{"zip_code":"7000000","kana_pref":"ｵｶﾔﾏｹﾝ","kana_city":"ｵｶﾔﾏｼﾅｶｸ","kana_address":"","pref":"岡山県","city":"岡山市中区","address":""},
{"zip_code":"7000000","kana_pref":"ｵｶﾔﾏｹﾝ","kana_city":"ｵｶﾔﾏｼﾋｶﾞｼｸ","kana_address":"","pref":"岡山県","city":"岡山市東区","address":""},
{"zip_code":"7000000","kana_pref":"ｵｶﾔﾏｹﾝ","kana_city":"ｵｶﾔﾏｼﾐﾅﾐｸ","kana_address":"","pref":"岡山県","city":"岡山市南区","address":""},
{"zip_code":"7000941","kana_pref":"ｵｶﾔﾏｹﾝ","kana_city":"ｵｶﾔﾏｼﾐﾅﾐｸ","kana_address":"ｱｵｴ","pref":"岡山県","city":"岡山市南区","address":"青江"},
{"zip_code":"7000944","kana_pref":"ｵｶﾔﾏｹﾝ","kana_city":"ｵｶﾔﾏｼﾐﾅﾐｸ","kana_address":"ｲｽﾞﾐﾀﾞ","pref":"岡山県","city":"岡山市南区","address":"泉田"},
{"zip_code":"7000973","kana_pref":"ｵｶﾔﾏｹﾝ","kana_city":"ｵｶﾔﾏｼﾐﾅﾐｸ","kana_address":"ｼﾓﾅｶﾉ","pref":"岡山県","city":"岡山市南区","address":"下中野"},
{"zip_code":"7000943","kana_pref":"ｵｶﾔﾏｹﾝ","kana_city":"ｵｶﾔﾏｼﾐﾅﾐｸ","kana_address":"ｼﾝﾌﾟｸ","pref":"岡山県","city":"岡山市南区","address":"新福"},
{"zip_code":"7000945","kana_pref":"ｵｶﾔﾏｹﾝ","kana_city":"ｵｶﾔﾏｼﾐﾅﾐｸ","kana_address":"ｼﾝﾎﾞｳ","pref":"岡山県","city":"岡山市南区","address":"新保"},
{"zip_code":"7000956","kana_pref":"ｵｶﾔﾏｹﾝ","kana_city":"ｵｶﾔﾏｼﾐﾅﾐｸ","kana_address":"ﾄｳｼﾝﾃﾞﾝ","pref":"岡山県","city":"岡山市南区","address":"当新田"},
{"zip_code":"7000942","kana_pref":"ｵｶﾔﾏｹﾝ","kana_city":"ｵｶﾔﾏｼﾐﾅﾐｸ","kana_address":"ﾄﾖﾅﾘ","pref":"岡山県","city":"岡山市南区","address":"豊成"},
{"zip_code":"7000853","kana_pref":"ｵｶﾔﾏｹﾝ","kana_city":"ｵｶﾔﾏｼﾐﾅﾐｸ","kana_address":"ﾄﾖﾊﾏﾁｮｳ","pref":"岡山県","city":"岡山市南区","address":"豊浜町"},
{"zip_code":"7000953","kana_pref":"ｵｶﾔﾏｹﾝ","kana_city":"ｵｶﾔﾏｼﾐﾅﾐｸ","kana_address":"ﾆｼｲﾁ","pref":"岡山県","city":"岡山市南区","address":"西市"},
{"zip_code":"7000845","kana_pref":"ｵｶﾔﾏｹﾝ","kana_city":"ｵｶﾔﾏｼﾐﾅﾐｸ","kana_address":"ﾊﾏﾉ","pref":"岡山県","city":"岡山市南区","address":"浜野"},
{"zip_code":"7000955","kana_pref":"ｵｶﾔﾏｹﾝ","kana_city":"ｵｶﾔﾏｼﾐﾅﾐｸ","kana_address":"ﾏﾝﾊﾞｲ","pref":"岡山県","city":"岡山市南区","address":"万倍"},
{"zip_code":"7000954","kana_pref":"ｵｶﾔﾏｹﾝ","kana_city":"ｵｶﾔﾏｼﾐﾅﾐｸ","kana_address":"ﾖﾈｸﾞﾗ","pref":"岡山県","city":"岡山市南区","address":"米倉"}]}