{"zip_code":[
{"zip_code":"7011463","kana_pref":"ｵｶﾔﾏｹﾝ","kana_city":"ｵｶﾔﾏｼｷﾀｸ","kana_address":"ｱｼﾓﾘ","pref":"岡山県","city":"岡山市北区","address":"足守"},
{"zip_code":"7011461","kana_pref":"ｵｶﾔﾏｹﾝ","kana_city":"ｵｶﾔﾏｼｷﾀｸ","kana_address":"ｱﾜｲ","pref":"岡山県","city":"岡山市北区","address":"粟井"},
{"zip_code":"7011527","kana_pref":"ｵｶﾔﾏｹﾝ","kana_city":"ｵｶﾔﾏｼｷﾀｸ","kana_address":"ｲｼﾂﾞﾏ","pref":"岡山県","city":"岡山市北区","address":"石妻"},
{"zip_code":"7011211","kana_pref":"ｵｶﾔﾏｹﾝ","kana_city":"ｵｶﾔﾏｼｷﾀｸ","kana_address":"ｲﾁﾉﾐﾔ","pref":"岡山県","city":"岡山市北区","address":"一宮"},
{"zip_code":"7011203","kana_pref":"ｵｶﾔﾏｹﾝ","kana_city":"ｵｶﾔﾏｼｷﾀｸ","kana_address":"ｲﾁﾉﾐﾔﾔﾏｻｷ","pref":"岡山県","city":"岡山市北区","address":"一宮山崎"},
{"zip_code":"7011204","kana_pref":"ｵｶﾔﾏｹﾝ","kana_city":"ｵｶﾔﾏｼｷﾀｸ","kana_address":"ｲﾏｵｶ","pref":"岡山県","city":"岡山市北区","address":"今岡"},
{"zip_code":"7010145","kana_pref":"ｵｶﾔﾏｹﾝ","kana_city":"ｵｶﾔﾏｼｷﾀｸ","kana_address":"ｲﾏﾎﾞｳ","pref":"岡山県","city":"岡山市北区","address":"今保"},
{"zip_code":"7011462","kana_pref":"ｵｶﾔﾏｹﾝ","kana_city":"ｵｶﾔﾏｼｷﾀｸ","kana_address":"ｵｵｲ","pref":"岡山県","city":"岡山市北区","address":"大井"},
{"zip_code":"7010165","kana_pref":"ｵｶﾔﾏｹﾝ","kana_city":"ｵｶﾔﾏｼｷﾀｸ","kana_address":"ｵｵｳﾁﾀﾞ","pref":"岡山県","city":"岡山市北区","address":"大内田"},
{"zip_code":"7011223","kana_pref":"ｵｶﾔﾏｹﾝ","kana_city":"ｵｶﾔﾏｼｷﾀｸ","kana_address":"ｵｵｸﾎﾞ","pref":"岡山県","city":"岡山市北区","address":"大窪"},
{"zip_code":"7011336","kana_pref":"ｵｶﾔﾏｹﾝ","kana_city":"ｵｶﾔﾏｼｷﾀｸ","kana_address":"ｵｵｻﾞｷ","pref":"岡山県","city":"岡山市北区","address":"大崎"},
{"zip_code":"7011212","kana_pref":"ｵｶﾔﾏｹﾝ","kana_city":"ｵｶﾔﾏｼｷﾀｸ","kana_address":"ｵﾉｳｴ","pref":"岡山県","city":"岡山市北区","address":"尾上"},
{"zip_code":"7011144","kana_pref":"ｵｶﾔﾏｹﾝ","kana_city":"ｵｶﾔﾏｼｷﾀｸ","kana_address":"ｶｲﾀﾞﾆ","pref":"岡山県","city":"岡山市北区","address":"栢谷"},
{"zip_code":"7011601","kana_pref":"ｵｶﾔﾏｹﾝ","kana_city":"ｵｶﾔﾏｼｷﾀｸ","kana_address":"ｶｹﾊﾀ","pref":"岡山県","city":"岡山市北区","address":"掛畑"},
{"zip_code":"7012151","kana_pref":"ｵｶﾔﾏｹﾝ","kana_city":"ｵｶﾔﾏｼｷﾀｸ","kana_address":"ｶﾅﾔﾏｼﾞ","pref":"岡山県","city":"岡山市北区","address":"金山寺"},
{"zip_code":"7011525","kana_pref":"ｵｶﾔﾏｹﾝ","kana_city":"ｵｶﾔﾏｼｷﾀｸ","kana_address":"ｶﾐﾀｶﾀﾞ","pref":"岡山県","city":"岡山市北区","address":"上高田"},
{"zip_code":"7011465","kana_pref":"ｵｶﾔﾏｹﾝ","kana_city":"ｵｶﾔﾏｼｷﾀｸ","kana_address":"ｶﾐﾂﾁﾀﾞ","pref":"岡山県","city":"岡山市北区","address":"上土田"},
{"zip_code":"7011342","kana_pref":"ｵｶﾔﾏｹﾝ","kana_city":"ｵｶﾔﾏｼｷﾀｸ","kana_address":"ｶﾓ","pref":"岡山県","city":"岡山市北区","address":"加茂"},
{"zip_code":"7011214","kana_pref":"ｵｶﾔﾏｹﾝ","kana_city":"ｵｶﾔﾏｼｷﾀｸ","kana_address":"ｶﾗｶﾜｲﾁﾊﾞ","pref":"岡山県","city":"岡山市北区","address":"辛川市場"},
{"zip_code":"7010161","kana_pref":"ｵｶﾔﾏｹﾝ","kana_city":"ｵｶﾔﾏｼｷﾀｸ","kana_address":"ｶﾜｲﾘ","pref":"岡山県","city":"岡山市北区","address":"川入"},
{"zip_code":"7011605","kana_pref":"ｵｶﾔﾏｹﾝ","kana_city":"ｵｶﾔﾏｼｷﾀｸ","kana_address":"ｶﾜﾊﾗ","pref":"岡山県","city":"岡山市北区","address":"河原"},
{"zip_code":"7011341","kana_pref":"ｵｶﾔﾏｹﾝ","kana_city":"ｵｶﾔﾏｼｷﾀｸ","kana_address":"ｷﾋﾞﾂ","pref":"岡山県","city":"岡山市北区","address":"吉備津"},
{"zip_code":"7010144","kana_pref":"ｵｶﾔﾏｹﾝ","kana_city":"ｵｶﾔﾏｼｷﾀｸ","kana_address":"ｸﾒ","pref":"岡山県","city":"岡山市北区","address":"久米"},
{"zip_code":"7011201","kana_pref":"ｵｶﾔﾏｹﾝ","kana_city":"ｵｶﾔﾏｼｷﾀｸ","kana_address":"ｺｳﾍﾞ","pref":"岡山県","city":"岡山市北区","address":"首部"},
{"zip_code":"7012152","kana_pref":"ｵｶﾔﾏｹﾝ","kana_city":"ｵｶﾔﾏｼｷﾀｸ","kana_address":"ｺｳﾔｼﾞﾘ","pref":"岡山県","city":"岡山市北区","address":"高野尻"},
{"zip_code":"7011604","kana_pref":"ｵｶﾔﾏｹﾝ","kana_city":"ｵｶﾔﾏｼｷﾀｸ","kana_address":"ｺｹﾔﾏ","pref":"岡山県","city":"岡山市北区","address":"苔山"},
{"zip_code":"7011352","kana_pref":"ｵｶﾔﾏｹﾝ","kana_city":"ｵｶﾔﾏｼｷﾀｸ","kana_address":"ｺﾔﾏ","pref":"岡山県","city":"岡山市北区","address":"小山"},
{"zip_code":"7011205","kana_pref":"ｵｶﾔﾏｹﾝ","kana_city":"ｵｶﾔﾏｼｷﾀｸ","kana_address":"ｻﾔﾏ","pref":"岡山県","city":"岡山市北区","address":"佐山"},
{"zip_code":"7011464","kana_pref":"ｵｶﾔﾏｹﾝ","kana_city":"ｵｶﾔﾏｼｷﾀｸ","kana_address":"ｼﾓｱｼﾓﾘ","pref":"岡山県","city":"岡山市北区","address":"下足守"},
{"zip_code":"7011524","kana_pref":"ｵｶﾔﾏｹﾝ","kana_city":"ｵｶﾔﾏｼｷﾀｸ","kana_address":"ｼﾓﾀｶﾀﾞ","pref":"岡山県","city":"岡山市北区","address":"下高田"},
{"zip_code":"7011356","kana_pref":"ｵｶﾔﾏｹﾝ","kana_city":"ｵｶﾔﾏｼｷﾀｸ","kana_address":"ｼﾓﾂﾁﾀﾞ","pref":"岡山県","city":"岡山市北区","address":"下土田"},
{"zip_code":"7012143","kana_pref":"ｵｶﾔﾏｹﾝ","kana_city":"ｵｶﾔﾏｼｷﾀｸ","kana_address":"ｼﾓﾏｷ","pref":"岡山県","city":"岡山市北区","address":"下牧"},
{"zip_code":"7011603","kana_pref":"ｵｶﾔﾏｹﾝ","kana_city":"ｵｶﾔﾏｼｷﾀｸ","kana_address":"ｼｮｳﾀﾞ","pref":"岡山県","city":"岡山市北区","address":"庄田"},
{"zip_code":"7010143","kana_pref":"ｵｶﾔﾏｹﾝ","kana_city":"ｵｶﾔﾏｼｷﾀｸ","kana_address":"ｼﾗｲｼ","pref":"岡山県","city":"岡山市北区","address":"白石"},
{"zip_code":"7010142","kana_pref":"ｵｶﾔﾏｹﾝ","kana_city":"ｵｶﾔﾏｼｷﾀｸ","kana_address":"ｼﾗｲｼﾆｼｼﾝﾏﾁ","pref":"岡山県","city":"岡山市北区","address":"白石西新町"},
{"zip_code":"7010141","kana_pref":"ｵｶﾔﾏｹﾝ","kana_city":"ｵｶﾔﾏｼｷﾀｸ","kana_address":"ｼﾗｲｼﾋｶﾞｼｼﾝﾏﾁ","pref":"岡山県","city":"岡山市北区","address":"白石東新町"},
{"zip_code":"7011345","kana_pref":"ｵｶﾔﾏｹﾝ","kana_city":"ｵｶﾔﾏｼｷﾀｸ","kana_address":"ｼﾝｼﾞｮｳｶﾐ","pref":"岡山県","city":"岡山市北区","address":"新庄上"},
{"zip_code":"7011344","kana_pref":"ｵｶﾔﾏｹﾝ","kana_city":"ｵｶﾔﾏｼｷﾀｸ","kana_address":"ｼﾝｼﾞｮｳｼﾓ","pref":"岡山県","city":"岡山市北区","address":"新庄下"},
{"zip_code":"7011141","kana_pref":"ｵｶﾔﾏｹﾝ","kana_city":"ｵｶﾔﾏｼｷﾀｸ","kana_address":"ｽｶﾞﾉ","pref":"岡山県","city":"岡山市北区","address":"菅野"},
{"zip_code":"7011522","kana_pref":"ｵｶﾔﾏｹﾝ","kana_city":"ｵｶﾔﾏｼｷﾀｸ","kana_address":"ｽｷﾞﾀﾆ","pref":"岡山県","city":"岡山市北区","address":"杉谷"},
{"zip_code":"7011343","kana_pref":"ｵｶﾔﾏｹﾝ","kana_city":"ｵｶﾔﾏｼｷﾀｸ","kana_address":"ｿｳﾂﾞﾒ","pref":"岡山県","city":"岡山市北区","address":"惣爪"},
{"zip_code":"7011354","kana_pref":"ｵｶﾔﾏｹﾝ","kana_city":"ｵｶﾔﾏｼｷﾀｸ","kana_address":"ﾀｶﾂｶ","pref":"岡山県","city":"岡山市北区","address":"高塚"},
{"zip_code":"7011142","kana_pref":"ｵｶﾔﾏｹﾝ","kana_city":"ｵｶﾔﾏｼｷﾀｸ","kana_address":"ﾀｶﾉ","pref":"岡山県","city":"岡山市北区","address":"高野"},
{"zip_code":"7011335","kana_pref":"ｵｶﾔﾏｹﾝ","kana_city":"ｵｶﾔﾏｼｷﾀｸ","kana_address":"ﾀｶﾏﾂ","pref":"岡山県","city":"岡山市北区","address":"高松"},
{"zip_code":"7011331","kana_pref":"ｵｶﾔﾏｹﾝ","kana_city":"ｵｶﾔﾏｼｷﾀｸ","kana_address":"ﾀｶﾏﾂｲﾅﾘ","pref":"岡山県","city":"岡山市北区","address":"高松稲荷"},
{"zip_code":"7011355","kana_pref":"ｵｶﾔﾏｹﾝ","kana_city":"ｵｶﾔﾏｼｷﾀｸ","kana_address":"ﾀｶﾏﾂﾀﾅｶ","pref":"岡山県","city":"岡山市北区","address":"高松田中"},
{"zip_code":"7011334","kana_pref":"ｵｶﾔﾏｹﾝ","kana_city":"ｵｶﾔﾏｼｷﾀｸ","kana_address":"ﾀｶﾏﾂﾊﾗｺｻｲ","pref":"岡山県","city":"岡山市北区","address":"高松原古才"},
{"zip_code":"7011333","kana_pref":"ｵｶﾔﾏｹﾝ","kana_city":"ｵｶﾔﾏｼｷﾀｸ","kana_address":"ﾀﾂﾀ","pref":"岡山県","city":"岡山市北区","address":"立田"},
{"zip_code":"7011132","kana_pref":"ｵｶﾔﾏｹﾝ","kana_city":"ｵｶﾔﾏｼｷﾀｸ","kana_address":"ﾀﾊﾞﾗ","pref":"岡山県","city":"岡山市北区","address":"田原"},
{"zip_code":"7012142","kana_pref":"ｵｶﾔﾏｹﾝ","kana_city":"ｵｶﾔﾏｼｷﾀｸ","kana_address":"ﾀﾏｶﾞｼ","pref":"岡山県","city":"岡山市北区","address":"玉柏"},
{"zip_code":"7011154","kana_pref":"ｵｶﾔﾏｹﾝ","kana_city":"ｵｶﾔﾏｼｷﾀｸ","kana_address":"ﾀﾏｽ","pref":"岡山県","city":"岡山市北区","address":"田益"},
{"zip_code":"7011152","kana_pref":"ｵｶﾔﾏｹﾝ","kana_city":"ｵｶﾔﾏｼｷﾀｸ","kana_address":"ﾂﾀﾞｶ","pref":"岡山県","city":"岡山市北区","address":"津高"},
{"zip_code":"7011151","kana_pref":"ｵｶﾔﾏｹﾝ","kana_city":"ｵｶﾔﾏｼｷﾀｸ","kana_address":"ﾂﾀﾞｶﾀﾞｲ","pref":"岡山県","city":"岡山市北区","address":"津高台"},
{"zip_code":"7011346","kana_pref":"ｵｶﾔﾏｹﾝ","kana_city":"ｵｶﾔﾏｼｷﾀｸ","kana_address":"ﾂﾃﾞﾗ","pref":"岡山県","city":"岡山市北区","address":"津寺"},
{"zip_code":"7011153","kana_pref":"ｵｶﾔﾏｹﾝ","kana_city":"ｵｶﾔﾏｼｷﾀｸ","kana_address":"ﾄﾐﾊﾗ","pref":"岡山県","city":"岡山市北区","address":"富原"},
{"zip_code":"7011133","kana_pref":"ｵｶﾔﾏｹﾝ","kana_city":"ｵｶﾔﾏｼｷﾀｸ","kana_address":"ﾄﾐﾖｼ","pref":"岡山県","city":"岡山市北区","address":"富吉"},
{"zip_code":"7010163","kana_pref":"ｵｶﾔﾏｹﾝ","kana_city":"ｵｶﾔﾏｼｷﾀｸ","kana_address":"ﾅｶﾅﾂｶﾜ","pref":"岡山県","city":"岡山市北区","address":"中撫川"},
{"zip_code":"7011224","kana_pref":"ｵｶﾔﾏｹﾝ","kana_city":"ｵｶﾔﾏｼｷﾀｸ","kana_address":"ﾅｶﾞﾉ","pref":"岡山県","city":"岡山市北区","address":"長野"},
{"zip_code":"7012155","kana_pref":"ｵｶﾔﾏｹﾝ","kana_city":"ｵｶﾔﾏｼｷﾀｸ","kana_address":"ﾅｶﾊﾗ","pref":"岡山県","city":"岡山市北区","address":"中原"},
{"zip_code":"7012144","kana_pref":"ｵｶﾔﾏｹﾝ","kana_city":"ｵｶﾔﾏｼｷﾀｸ","kana_address":"ﾅｶﾏｷ","pref":"岡山県","city":"岡山市北区","address":"中牧"},
{"zip_code":"7010164","kana_pref":"ｵｶﾔﾏｹﾝ","kana_city":"ｵｶﾔﾏｼｷﾀｸ","kana_address":"ﾅﾂｶﾜ","pref":"岡山県","city":"岡山市北区","address":"撫川"},
{"zip_code":"7011202","kana_pref":"ｵｶﾔﾏｹﾝ","kana_city":"ｵｶﾔﾏｼｷﾀｸ","kana_address":"ﾅﾗﾂﾞ","pref":"岡山県","city":"岡山市北区","address":"楢津"},
{"zip_code":"7011213","kana_pref":"ｵｶﾔﾏｹﾝ","kana_city":"ｵｶﾔﾏｼｷﾀｸ","kana_address":"ﾆｼｶﾗｶﾜ","pref":"岡山県","city":"岡山市北区","address":"西辛川"},
{"zip_code":"7010136","kana_pref":"ｵｶﾔﾏｹﾝ","kana_city":"ｵｶﾔﾏｼｷﾀｸ","kana_address":"ﾆｼﾊﾅｼﾞﾘ","pref":"岡山県","city":"岡山市北区","address":"西花尻"},
{"zip_code":"7011612","kana_pref":"ｵｶﾔﾏｹﾝ","kana_city":"ｵｶﾔﾏｼｷﾀｸ","kana_address":"ﾆｼﾔﾏﾉｳﾁ","pref":"岡山県","city":"岡山市北区","address":"西山内"},
{"zip_code":"7011131","kana_pref":"ｵｶﾔﾏｹﾝ","kana_city":"ｵｶﾔﾏｼｷﾀｸ","kana_address":"ﾆﾁｵｳｼﾞ","pref":"岡山県","city":"岡山市北区","address":"日応寺"},
{"zip_code":"7010153","kana_pref":"ｵｶﾔﾏｹﾝ","kana_city":"ｵｶﾔﾏｼｷﾀｸ","kana_address":"ﾆﾜｾ","pref":"岡山県","city":"岡山市北区","address":"庭瀬"},
{"zip_code":"7010162","kana_pref":"ｵｶﾔﾏｹﾝ","kana_city":"ｵｶﾔﾏｼｷﾀｸ","kana_address":"ﾉｳｿ","pref":"岡山県","city":"岡山市北区","address":"納所"},
{"zip_code":"7010152","kana_pref":"ｵｶﾔﾏｹﾝ","kana_city":"ｵｶﾔﾏｼｷﾀｸ","kana_address":"ﾉﾌﾞﾄﾓ","pref":"岡山県","city":"岡山市北区","address":"延友"},
{"zip_code":"7011221","kana_pref":"ｵｶﾔﾏｹﾝ","kana_city":"ｵｶﾔﾏｼｷﾀｸ","kana_address":"ﾊｶﾞ","pref":"岡山県","city":"岡山市北区","address":"芳賀"},
{"zip_code":"7012153","kana_pref":"ｵｶﾔﾏｹﾝ","kana_city":"ｵｶﾔﾏｼｷﾀｸ","kana_address":"ﾊﾀｱﾕ","pref":"岡山県","city":"岡山市北区","address":"畑鮎"},
{"zip_code":"7010134","kana_pref":"ｵｶﾔﾏｹﾝ","kana_city":"ｵｶﾔﾏｼｷﾀｸ","kana_address":"ﾊﾅｼﾞﾘ","pref":"岡山県","city":"岡山市北区","address":"花尻"},
{"zip_code":"7010133","kana_pref":"ｵｶﾔﾏｹﾝ","kana_city":"ｵｶﾔﾏｼｷﾀｸ","kana_address":"ﾊﾅｼﾞﾘｱｶﾈﾏﾁ","pref":"岡山県","city":"岡山市北区","address":"花尻あかね町"},
{"zip_code":"7010132","kana_pref":"ｵｶﾔﾏｹﾝ","kana_city":"ｵｶﾔﾏｼｷﾀｸ","kana_address":"ﾊﾅｼﾞﾘｷｷｮｳﾏﾁ","pref":"岡山県","city":"岡山市北区","address":"花尻ききょう町"},
{"zip_code":"7010131","kana_pref":"ｵｶﾔﾏｹﾝ","kana_city":"ｵｶﾔﾏｼｷﾀｸ","kana_address":"ﾊﾅｼﾞﾘﾐﾄﾞﾘﾏﾁ","pref":"岡山県","city":"岡山市北区","address":"花尻みどり町"},
{"zip_code":"7012154","kana_pref":"ｵｶﾔﾏｹﾝ","kana_city":"ｵｶﾔﾏｼｷﾀｸ","kana_address":"ﾊﾗ","pref":"岡山県","city":"岡山市北区","address":"原"},
{"zip_code":"7010135","kana_pref":"ｵｶﾔﾏｹﾝ","kana_city":"ｵｶﾔﾏｼｷﾀｸ","kana_address":"ﾋｶﾞｼﾊﾅｼﾞﾘ","pref":"岡山県","city":"岡山市北区","address":"東花尻"},
{"zip_code":"7011611","kana_pref":"ｵｶﾔﾏｹﾝ","kana_city":"ｵｶﾔﾏｼｷﾀｸ","kana_address":"ﾋｶﾞｼﾔﾏﾉｳﾁ","pref":"岡山県","city":"岡山市北区","address":"東山内"},
{"zip_code":"7011521","kana_pref":"ｵｶﾔﾏｹﾝ","kana_city":"ｵｶﾔﾏｼｷﾀｸ","kana_address":"ﾋｼﾞｶｲ","pref":"岡山県","city":"岡山市北区","address":"日近"},
{"zip_code":"7010151","kana_pref":"ｵｶﾔﾏｹﾝ","kana_city":"ｵｶﾔﾏｼｷﾀｸ","kana_address":"ﾋﾗﾉ","pref":"岡山県","city":"岡山市北区","address":"平野"},
{"zip_code":"7011332","kana_pref":"ｵｶﾔﾏｹﾝ","kana_city":"ｵｶﾔﾏｼｷﾀｸ","kana_address":"ﾋﾗﾔﾏ","pref":"岡山県","city":"岡山市北区","address":"平山"},
{"zip_code":"7011357","kana_pref":"ｵｶﾔﾏｹﾝ","kana_city":"ｵｶﾔﾏｼｷﾀｸ","kana_address":"ﾌｸｻﾞｷ","pref":"岡山県","city":"岡山市北区","address":"福崎"},
{"zip_code":"7011225","kana_pref":"ｵｶﾔﾏｹﾝ","kana_city":"ｵｶﾔﾏｼｷﾀｸ","kana_address":"ﾌｸﾀﾆ","pref":"岡山県","city":"岡山市北区","address":"福谷"},
{"zip_code":"7011613","kana_pref":"ｵｶﾔﾏｹﾝ","kana_city":"ｵｶﾔﾏｼｷﾀｸ","kana_address":"ﾏｸﾞﾗ","pref":"岡山県","city":"岡山市北区","address":"間倉"},
{"zip_code":"7011222","kana_pref":"ｵｶﾔﾏｹﾝ","kana_city":"ｵｶﾔﾏｼｷﾀｸ","kana_address":"ﾏﾂｵ","pref":"岡山県","city":"岡山市北区","address":"松尾"},
{"zip_code":"7011602","kana_pref":"ｵｶﾔﾏｹﾝ","kana_city":"ｵｶﾔﾏｼｷﾀｸ","kana_address":"ﾏﾅﾎﾞｼ","pref":"岡山県","city":"岡山市北区","address":"真星"},
{"zip_code":"7011353","kana_pref":"ｵｶﾔﾏｹﾝ","kana_city":"ｵｶﾔﾏｼｷﾀｸ","kana_address":"ﾐﾃ","pref":"岡山県","city":"岡山市北区","address":"三手"},
{"zip_code":"7011134","kana_pref":"ｵｶﾔﾏｹﾝ","kana_city":"ｵｶﾔﾏｼｷﾀｸ","kana_address":"ﾐﾄ","pref":"岡山県","city":"岡山市北区","address":"三和"},
{"zip_code":"7012141","kana_pref":"ｵｶﾔﾏｹﾝ","kana_city":"ｵｶﾔﾏｼｷﾀｸ","kana_address":"ﾑｻ","pref":"岡山県","city":"岡山市北区","address":"牟佐"},
{"zip_code":"7011351","kana_pref":"ｵｶﾔﾏｹﾝ","kana_city":"ｵｶﾔﾏｼｷﾀｸ","kana_address":"ﾓﾝｾﾞﾝ","pref":"岡山県","city":"岡山市北区","address":"門前"},
{"zip_code":"7011526","kana_pref":"ｵｶﾔﾏｹﾝ","kana_city":"ｵｶﾔﾏｼｷﾀｸ","kana_address":"ﾔﾏﾉｳｴ","pref":"岡山県","city":"岡山市北区","address":"山上"},
{"zip_code":"7011145","kana_pref":"ｵｶﾔﾏｹﾝ","kana_city":"ｵｶﾔﾏｼｷﾀｸ","kana_address":"ﾖｺｲｶﾐ","pref":"岡山県","city":"岡山市北区","address":"横井上"},
{"zip_code":"7011226","kana_pref":"ｵｶﾔﾏｹﾝ","kana_city":"ｵｶﾔﾏｼｷﾀｸ","kana_address":"ﾖｺｵ","pref":"岡山県","city":"岡山市北区","address":"横尾"},
{"zip_code":"7011523","kana_pref":"ｵｶﾔﾏｹﾝ","kana_city":"ｵｶﾔﾏｼｷﾀｸ","kana_address":"ﾖｼ","pref":"岡山県","city":"岡山市北区","address":"吉"},
{"zip_code":"7011143","kana_pref":"ｵｶﾔﾏｹﾝ","kana_city":"ｵｶﾔﾏｼｷﾀｸ","kana_address":"ﾖｼﾑﾈ","pref":"岡山県","city":"岡山市北区","address":"吉宗"},
{"zip_code":"7011337","kana_pref":"ｵｶﾔﾏｹﾝ","kana_city":"ｵｶﾔﾏｼｷﾀｸ","kana_address":"ﾜｲﾓﾄ","pref":"岡山県","city":"岡山市北区","address":"和井元"},
{"zip_code":"7010212","kana_pref":"ｵｶﾔﾏｹﾝ","kana_city":"ｵｶﾔﾏｼﾐﾅﾐｸ","kana_address":"ｳﾁｵ","pref":"岡山県","city":"岡山市南区","address":"内尾"},
{"zip_code":"7010204","kana_pref":"ｵｶﾔﾏｹﾝ","kana_city":"ｵｶﾔﾏｼﾐﾅﾐｸ","kana_address":"ｵｵﾌｸ","pref":"岡山県","city":"岡山市南区","address":"大福"},
{"zip_code":"7010203","kana_pref":"ｵｶﾔﾏｹﾝ","kana_city":"ｵｶﾔﾏｼﾐﾅﾐｸ","kana_address":"ｺｼﾝﾃﾞﾝ","pref":"岡山県","city":"岡山市南区","address":"古新田"},
{"zip_code":"7010205","kana_pref":"ｵｶﾔﾏｹﾝ","kana_city":"ｵｶﾔﾏｼﾐﾅﾐｸ","kana_address":"ｾﾉｵ","pref":"岡山県","city":"岡山市南区","address":"妹尾"},
{"zip_code":"7010201","kana_pref":"ｵｶﾔﾏｹﾝ","kana_city":"ｵｶﾔﾏｼﾐﾅﾐｸ","kana_address":"ｾﾉｵｻﾞｷ","pref":"岡山県","city":"岡山市南区","address":"妹尾崎"},
{"zip_code":"7010214","kana_pref":"ｵｶﾔﾏｹﾝ","kana_city":"ｵｶﾔﾏｼﾐﾅﾐｸ","kana_address":"ｿﾈ","pref":"岡山県","city":"岡山市南区","address":"曽根"},
{"zip_code":"7010213","kana_pref":"ｵｶﾔﾏｹﾝ","kana_city":"ｵｶﾔﾏｼﾐﾅﾐｸ","kana_address":"ﾅｶｳﾈ","pref":"岡山県","city":"岡山市南区","address":"中畦"},
{"zip_code":"7010215","kana_pref":"ｵｶﾔﾏｹﾝ","kana_city":"ｵｶﾔﾏｼﾐﾅﾐｸ","kana_address":"ﾆｼｳﾈ","pref":"岡山県","city":"岡山市南区","address":"西畦"},
{"zip_code":"7010211","kana_pref":"ｵｶﾔﾏｹﾝ","kana_city":"ｵｶﾔﾏｼﾐﾅﾐｸ","kana_address":"ﾋｶﾞｼｳﾈ","pref":"岡山県","city":"岡山市南区","address":"東畦"},
{"zip_code":"7010221","kana_pref":"ｵｶﾔﾏｹﾝ","kana_city":"ｵｶﾔﾏｼﾐﾅﾐｸ","kana_address":"ﾌｼﾞﾀ","pref":"岡山県","city":"岡山市南区","address":"藤田"},
{"zip_code":"7010206","kana_pref":"ｵｶﾔﾏｹﾝ","kana_city":"ｵｶﾔﾏｼﾐﾅﾐｸ","kana_address":"ﾐｼﾏ","pref":"岡山県","city":"岡山市南区","address":"箕島"},
{"zip_code":"7010202","kana_pref":"ｵｶﾔﾏｹﾝ","kana_city":"ｵｶﾔﾏｼﾐﾅﾐｸ","kana_address":"ﾔﾏﾀﾞ","pref":"岡山県","city":"岡山市南区","address":"山田"},
{"zip_code":"7010113","kana_pref":"ｵｶﾔﾏｹﾝ","kana_city":"ｸﾗｼｷｼ","kana_address":"ｸﾘｻｶ","pref":"岡山県","city":"倉敷市","address":"栗坂"},
{"zip_code":"7010112","kana_pref":"ｵｶﾔﾏｹﾝ","kana_city":"ｸﾗｼｷｼ","kana_address":"ｼﾓｼｮｳ","pref":"岡山県","city":"倉敷市","address":"下庄"},
{"zip_code":"7010102","kana_pref":"ｵｶﾔﾏｹﾝ","kana_city":"ｸﾗｼｷｼ","kana_address":"ｼｮｳｼﾝﾏﾁ","pref":"岡山県","city":"倉敷市","address":"庄新町"},
{"zip_code":"7010111","kana_pref":"ｵｶﾔﾏｹﾝ","kana_city":"ｸﾗｼｷｼ","kana_address":"ｼﾞｮｳﾄｳ","pref":"岡山県","city":"倉敷市","address":"上東"},
{"zip_code":"7010103","kana_pref":"ｵｶﾔﾏｹﾝ","kana_city":"ｸﾗｼｷｼ","kana_address":"ﾆｼｵ","pref":"岡山県","city":"倉敷市","address":"西尾"},
{"zip_code":"7010101","kana_pref":"ｵｶﾔﾏｹﾝ","kana_city":"ｸﾗｼｷｼ","kana_address":"ﾋﾊﾞﾀ","pref":"岡山県","city":"倉敷市","address":"日畑"},
{"zip_code":"7010115","kana_pref":"ｵｶﾔﾏｹﾝ","kana_city":"ｸﾗｼｷｼ","kana_address":"ﾌﾀｺﾞ","pref":"岡山県","city":"倉敷市","address":"二子"},
{"zip_code":"7010114","kana_pref":"ｵｶﾔﾏｹﾝ","kana_city":"ｸﾗｼｷｼ","kana_address":"ﾏﾂｼﾏ","pref":"岡山県","city":"倉敷市","address":"松島"},
{"zip_code":"7010105","kana_pref":"ｵｶﾔﾏｹﾝ","kana_city":"ｸﾗｼｷｼ","kana_address":"ﾔﾍﾞ","pref":"岡山県","city":"倉敷市","address":"矢部"},
{"zip_code":"7010104","kana_pref":"ｵｶﾔﾏｹﾝ","kana_city":"ｸﾗｼｷｼ","kana_address":"ﾔﾏｼﾞ","pref":"岡山県","city":"倉敷市","address":"山地"},
{"zip_code":"7013203","kana_pref":"ｵｶﾔﾏｹﾝ","kana_city":"ﾋﾞｾﾞﾝｼ","kana_address":"ﾋﾅｾﾁｮｳｵｵﾀﾌﾞ","pref":"岡山県","city":"備前市","address":"日生町大多府"},
{"zip_code":"7013202","kana_pref":"ｵｶﾔﾏｹﾝ","kana_city":"ﾋﾞｾﾞﾝｼ","kana_address":"ﾋﾅｾﾁｮｳｿｳｺﾞ","pref":"岡山県","city":"備前市","address":"日生町寒河"},
{"zip_code":"7013201","kana_pref":"ｵｶﾔﾏｹﾝ","kana_city":"ﾋﾞｾﾞﾝｼ","kana_address":"ﾋﾅｾﾁｮｳﾃﾗﾔﾏ","pref":"岡山県","city":"備前市","address":"日生町寺山"},
{"zip_code":"7013204","kana_pref":"ｵｶﾔﾏｹﾝ","kana_city":"ﾋﾞｾﾞﾝｼ","kana_address":"ﾋﾅｾﾁｮｳﾋﾅｾ","pref":"岡山県","city":"備前市","address":"日生町日生"},
{"zip_code":"7014200","kana_pref":"ｵｶﾔﾏｹﾝ","kana_city":"ｾﾄｳﾁｼ","kana_address":"","pref":"岡山県","city":"瀬戸内市","address":""},
{"zip_code":"7014302","kana_pref":"ｵｶﾔﾏｹﾝ","kana_city":"ｾﾄｳﾁｼ","kana_address":"ｳｼﾏﾄﾞﾁｮｳｳｼﾏﾄﾞ","pref":"岡山県","city":"瀬戸内市","address":"牛窓町牛窓"},
{"zip_code":"7014303","kana_pref":"ｵｶﾔﾏｹﾝ","kana_city":"ｾﾄｳﾁｼ","kana_address":"ｳｼﾏﾄﾞﾁｮｳｶｼﾉ","pref":"岡山県","city":"瀬戸内市","address":"牛窓町鹿忍"},
{"zip_code":"7014304","kana_pref":"ｵｶﾔﾏｹﾝ","kana_city":"ｾﾄｳﾁｼ","kana_address":"ｳｼﾏﾄﾞﾁｮｳｾﾝｽﾞ","pref":"岡山県","city":"瀬戸内市","address":"牛窓町千手"},
{"zip_code":"7014301","kana_pref":"ｵｶﾔﾏｹﾝ","kana_city":"ｾﾄｳﾁｼ","kana_address":"ｳｼﾏﾄﾞﾁｮｳﾅｶﾞﾊﾏ","pref":"岡山県","city":"瀬戸内市","address":"牛窓町長浜"},
{"zip_code":"7014231","kana_pref":"ｵｶﾔﾏｹﾝ","kana_city":"ｾﾄｳﾁｼ","kana_address":"ｵｸﾁｮｳｵｵｸﾎﾞ","pref":"岡山県","city":"瀬戸内市","address":"邑久町大窪"},
{"zip_code":"7014234","kana_pref":"ｵｶﾔﾏｹﾝ","kana_city":"ｾﾄｳﾁｼ","kana_address":"ｵｸﾁｮｳｵｵﾄﾞﾐ","pref":"岡山県","city":"瀬戸内市","address":"邑久町大富"},
{"zip_code":"7014221","kana_pref":"ｵｶﾔﾏｹﾝ","kana_city":"ｾﾄｳﾁｼ","kana_address":"ｵｸﾁｮｳｵﾜﾘ","pref":"岡山県","city":"瀬戸内市","address":"邑久町尾張"},
{"zip_code":"7014252","kana_pref":"ｵｶﾔﾏｹﾝ","kana_city":"ｾﾄｳﾁｼ","kana_address":"ｵｸﾁｮｳｶﾐｶﾞｻｶ","pref":"岡山県","city":"瀬戸内市","address":"邑久町上笠加"},
{"zip_code":"7014215","kana_pref":"ｵｶﾔﾏｹﾝ","kana_city":"ｾﾄｳﾁｼ","kana_address":"ｵｸﾁｮｳｶﾐﾔﾏﾀﾞ","pref":"岡山県","city":"瀬戸内市","address":"邑久町上山田"},
{"zip_code":"7014251","kana_pref":"ｵｶﾔﾏｹﾝ","kana_city":"ｾﾄｳﾁｼ","kana_address":"ｵｸﾁｮｳｷﾀｲｹ","pref":"岡山県","city":"瀬戸内市","address":"邑久町北池"},
{"zip_code":"7014232","kana_pref":"ｵｶﾔﾏｹﾝ","kana_city":"ｾﾄｳﾁｼ","kana_address":"ｵｸﾁｮｳｷﾀｼﾏ","pref":"岡山県","city":"瀬戸内市","address":"邑久町北島"},
{"zip_code":"7014247","kana_pref":"ｵｶﾔﾏｹﾝ","kana_city":"ｾﾄｳﾁｼ","kana_address":"ｵｸﾁｮｳｼﾓｶﾞｻｶ","pref":"岡山県","city":"瀬戸内市","address":"邑久町下笠加"},
{"zip_code":"7014216","kana_pref":"ｵｶﾔﾏｹﾝ","kana_city":"ｾﾄｳﾁｼ","kana_address":"ｵｸﾁｮｳｼﾓﾔﾏﾀﾞ","pref":"岡山県","city":"瀬戸内市","address":"邑久町下山田"},
{"zip_code":"7014211","kana_pref":"ｵｶﾔﾏｹﾝ","kana_city":"ｾﾄｳﾁｼ","kana_address":"ｵｸﾁｮｳｼｮｳﾀﾞ","pref":"岡山県","city":"瀬戸内市","address":"邑久町庄田"},
{"zip_code":"7014212","kana_pref":"ｵｶﾔﾏｹﾝ","kana_city":"ｾﾄｳﾁｼ","kana_address":"ｵｸﾁｮｳｼﾘﾐ","pref":"岡山県","city":"瀬戸内市","address":"邑久町尻海"},
{"zip_code":"7014243","kana_pref":"ｵｶﾔﾏｹﾝ","kana_city":"ｾﾄｳﾁｼ","kana_address":"ｵｸﾁｮｳｿｳｻﾝ","pref":"岡山県","city":"瀬戸内市","address":"邑久町宗三"},
{"zip_code":"7014223","kana_pref":"ｵｶﾔﾏｹﾝ","kana_city":"ｾﾄｳﾁｼ","kana_address":"ｵｸﾁｮｳﾄﾖﾊﾗ","pref":"岡山県","city":"瀬戸内市","address":"邑久町豊原"},
{"zip_code":"7014222","kana_pref":"ｵｶﾔﾏｹﾝ","kana_city":"ｾﾄｳﾁｼ","kana_address":"ｵｸﾁｮｳﾄﾖﾔｽ","pref":"岡山県","city":"瀬戸内市","address":"邑久町豊安"},
{"zip_code":"7014224","kana_pref":"ｵｶﾔﾏｹﾝ","kana_city":"ｾﾄｳﾁｼ","kana_address":"ｵｸﾁｮｳﾋｶﾞｼﾀﾞﾆ","pref":"岡山県","city":"瀬戸内市","address":"邑久町東谷"},
{"zip_code":"7014502","kana_pref":"ｵｶﾔﾏｹﾝ","kana_city":"ｾﾄｳﾁｼ","kana_address":"ｵｸﾁｮｳﾌｸﾀﾆ","pref":"岡山県","city":"瀬戸内市","address":"邑久町福谷"},
{"zip_code":"7014244","kana_pref":"ｵｶﾔﾏｹﾝ","kana_city":"ｾﾄｳﾁｼ","kana_address":"ｵｸﾁｮｳﾌｸﾅｶ","pref":"岡山県","city":"瀬戸内市","address":"邑久町福中"},
{"zip_code":"7014241","kana_pref":"ｵｶﾔﾏｹﾝ","kana_city":"ｾﾄｳﾁｼ","kana_address":"ｵｸﾁｮｳﾌｸﾓﾄ","pref":"岡山県","city":"瀬戸内市","address":"邑久町福元"},
{"zip_code":"7014245","kana_pref":"ｵｶﾔﾏｹﾝ","kana_city":"ｾﾄｳﾁｼ","kana_address":"ｵｸﾁｮｳﾌｸﾔﾏ","pref":"岡山県","city":"瀬戸内市","address":"邑久町福山"},
{"zip_code":"7014214","kana_pref":"ｵｶﾔﾏｹﾝ","kana_city":"ｾﾄｳﾁｼ","kana_address":"ｵｸﾁｮｳﾎﾝｼﾞｮｳ","pref":"岡山県","city":"瀬戸内市","address":"邑久町本庄"},
{"zip_code":"7014254","kana_pref":"ｵｶﾔﾏｹﾝ","kana_city":"ｾﾄｳﾁｼ","kana_address":"ｵｸﾁｮｳﾏﾒﾀﾞ","pref":"岡山県","city":"瀬戸内市","address":"邑久町豆田"},
{"zip_code":"7014253","kana_pref":"ｵｶﾔﾏｹﾝ","kana_city":"ｾﾄｳﾁｼ","kana_address":"ｵｸﾁｮｳﾐﾉﾜ","pref":"岡山県","city":"瀬戸内市","address":"邑久町箕輪"},
{"zip_code":"7014233","kana_pref":"ｵｶﾔﾏｹﾝ","kana_city":"ｾﾄｳﾁｼ","kana_address":"ｵｸﾁｮｳﾑｺｳﾔﾏ","pref":"岡山県","city":"瀬戸内市","address":"邑久町向山"},
{"zip_code":"7014501","kana_pref":"ｵｶﾔﾏｹﾝ","kana_city":"ｾﾄｳﾁｼ","kana_address":"ｵｸﾁｮｳﾑｼｱｹ","pref":"岡山県","city":"瀬戸内市","address":"邑久町虫明"},
{"zip_code":"7014248","kana_pref":"ｵｶﾔﾏｹﾝ","kana_city":"ｾﾄｳﾁｼ","kana_address":"ｵｸﾁｮｳﾓﾓﾀﾞ","pref":"岡山県","city":"瀬戸内市","address":"邑久町百田"},
{"zip_code":"7014246","kana_pref":"ｵｶﾔﾏｹﾝ","kana_city":"ｾﾄｳﾁｼ","kana_address":"ｵｸﾁｮｳﾔﾏﾀﾞﾉｼｮｳ","pref":"岡山県","city":"瀬戸内市","address":"邑久町山田庄"},
{"zip_code":"7014213","kana_pref":"ｵｶﾔﾏｹﾝ","kana_city":"ｾﾄｳﾁｼ","kana_address":"ｵｸﾁｮｳﾔﾏﾃ","pref":"岡山県","city":"瀬戸内市","address":"邑久町山手"},
{"zip_code":"7014261","kana_pref":"ｵｶﾔﾏｹﾝ","kana_city":"ｾﾄｳﾁｼ","kana_address":"ｵｻﾌﾈﾁｮｳｲｲ","pref":"岡山県","city":"瀬戸内市","address":"長船町飯井"},
{"zip_code":"7014273","kana_pref":"ｵｶﾔﾏｹﾝ","kana_city":"ｾﾄｳﾁｼ","kana_address":"ｵｻﾌﾈﾁｮｳｲｿｶﾐ","pref":"岡山県","city":"瀬戸内市","address":"長船町磯上"},
{"zip_code":"7014274","kana_pref":"ｵｶﾔﾏｹﾝ","kana_city":"ｾﾄｳﾁｼ","kana_address":"ｵｻﾌﾈﾁｮｳｳｼﾌﾐ","pref":"岡山県","city":"瀬戸内市","address":"長船町牛文"},
{"zip_code":"7014271","kana_pref":"ｵｶﾔﾏｹﾝ","kana_city":"ｾﾄｳﾁｼ","kana_address":"ｵｻﾌﾈﾁｮｳｵｻﾌﾈ","pref":"岡山県","city":"瀬戸内市","address":"長船町長船"},
{"zip_code":"7014263","kana_pref":"ｵｶﾔﾏｹﾝ","kana_city":"ｾﾄｳﾁｼ","kana_address":"ｵｻﾌﾈﾁｮｳﾆｼｽｴ","pref":"岡山県","city":"瀬戸内市","address":"長船町西須恵"},
{"zip_code":"7014264","kana_pref":"ｵｶﾔﾏｹﾝ","kana_city":"ｾﾄｳﾁｼ","kana_address":"ｵｻﾌﾈﾁｮｳﾊｼﾞ","pref":"岡山県","city":"瀬戸内市","address":"長船町土師"},
{"zip_code":"7014276","kana_pref":"ｵｶﾔﾏｹﾝ","kana_city":"ｾﾄｳﾁｼ","kana_address":"ｵｻﾌﾈﾁｮｳﾊｯﾄﾘ","pref":"岡山県","city":"瀬戸内市","address":"長船町服部"},
{"zip_code":"7014262","kana_pref":"ｵｶﾔﾏｹﾝ","kana_city":"ｾﾄｳﾁｼ","kana_address":"ｵｻﾌﾈﾁｮｳﾋｶﾞｼｽｴ","pref":"岡山県","city":"瀬戸内市","address":"長船町東須恵"},
{"zip_code":"7014265","kana_pref":"ｵｶﾔﾏｹﾝ","kana_city":"ｾﾄｳﾁｼ","kana_address":"ｵｻﾌﾈﾁｮｳﾌｸｵｶ","pref":"岡山県","city":"瀬戸内市","address":"長船町福岡"},
{"zip_code":"7014275","kana_pref":"ｵｶﾔﾏｹﾝ","kana_city":"ｾﾄｳﾁｼ","kana_address":"ｵｻﾌﾈﾁｮｳﾌｸｻﾄ","pref":"岡山県","city":"瀬戸内市","address":"長船町福里"},
{"zip_code":"7014272","kana_pref":"ｵｶﾔﾏｹﾝ","kana_city":"ｾﾄｳﾁｼ","kana_address":"ｵｻﾌﾈﾁｮｳﾖｳｶｲﾁ","pref":"岡山県","city":"瀬戸内市","address":"長船町八日市"},
{"zip_code":"7012443","kana_pref":"ｵｶﾔﾏｹﾝ","kana_city":"ｱｶｲﾜｼ","kana_address":"ｱｲﾀﾞ","pref":"岡山県","city":"赤磐市","address":"合田"},
{"zip_code":"7012514","kana_pref":"ｵｶﾔﾏｹﾝ","kana_city":"ｱｶｲﾜｼ","kana_address":"ｲｼ","pref":"岡山県","city":"赤磐市","address":"石"},
{"zip_code":"7012445","kana_pref":"ｵｶﾔﾏｹﾝ","kana_city":"ｱｶｲﾜｼ","kana_address":"ｲｼｶﾐ","pref":"岡山県","city":"赤磐市","address":"石上"},
{"zip_code":"7012511","kana_pref":"ｵｶﾔﾏｹﾝ","kana_city":"ｱｶｲﾜｼ","kana_address":"ｲﾅﾏｷ","pref":"岡山県","city":"赤磐市","address":"稲蒔"},
{"zip_code":"7012213","kana_pref":"ｵｶﾔﾏｹﾝ","kana_city":"ｱｶｲﾜｼ","kana_address":"ｲﾏｲ","pref":"岡山県","city":"赤磐市","address":"今井"},
{"zip_code":"7012221","kana_pref":"ｵｶﾔﾏｹﾝ","kana_city":"ｱｶｲﾜｼ","kana_address":"ｵｵｶﾝﾀﾞ","pref":"岡山県","city":"赤磐市","address":"大苅田"},
{"zip_code":"7012205","kana_pref":"ｵｶﾔﾏｹﾝ","kana_city":"ｱｶｲﾜｼ","kana_address":"ｵｵﾔ","pref":"岡山県","city":"赤磐市","address":"大屋"},
{"zip_code":"7012446","kana_pref":"ｵｶﾔﾏｹﾝ","kana_city":"ｱｶｲﾜｼ","kana_address":"ｵｶﾞﾓ","pref":"岡山県","city":"赤磐市","address":"小鎌"},
{"zip_code":"7012501","kana_pref":"ｵｶﾔﾏｹﾝ","kana_city":"ｱｶｲﾜｼ","kana_address":"ｶﾜﾗﾔ","pref":"岡山県","city":"赤磐市","address":"河原屋"},
{"zip_code":"7012211","kana_pref":"ｵｶﾔﾏｹﾝ","kana_city":"ｱｶｲﾜｼ","kana_address":"ｷﾀｻｺﾀﾞ","pref":"岡山県","city":"赤磐市","address":"北佐古田"},
{"zip_code":"7012502","kana_pref":"ｵｶﾔﾏｹﾝ","kana_city":"ｱｶｲﾜｼ","kana_address":"ｸｿｳ","pref":"岡山県","city":"赤磐市","address":"草生"},
{"zip_code":"7012512","kana_pref":"ｵｶﾔﾏｹﾝ","kana_city":"ｱｶｲﾜｼ","kana_address":"ｸﾚﾀﾞ","pref":"岡山県","city":"赤磐市","address":"暮田"},
{"zip_code":"7012522","kana_pref":"ｵｶﾔﾏｹﾝ","kana_city":"ｱｶｲﾜｼ","kana_address":"ｸﾛｻﾜ","pref":"岡山県","city":"赤磐市","address":"黒沢"},
{"zip_code":"7012521","kana_pref":"ｵｶﾔﾏｹﾝ","kana_city":"ｱｶｲﾜｼ","kana_address":"ｸﾛﾓﾄ","pref":"岡山県","city":"赤磐市","address":"黒本"},
{"zip_code":"7012515","kana_pref":"ｵｶﾔﾏｹﾝ","kana_city":"ｱｶｲﾜｼ","kana_address":"ｺｳｷ","pref":"岡山県","city":"赤磐市","address":"光木"},
{"zip_code":"7012201","kana_pref":"ｵｶﾔﾏｹﾝ","kana_city":"ｱｶｲﾜｼ","kana_address":"ｺﾊﾞﾗ","pref":"岡山県","city":"赤磐市","address":"小原"},
{"zip_code":"7012525","kana_pref":"ｵｶﾔﾏｹﾝ","kana_city":"ｱｶｲﾜｼ","kana_address":"ｺﾚｻﾄ","pref":"岡山県","city":"赤磐市","address":"是里"},
{"zip_code":"7012202","kana_pref":"ｵｶﾔﾏｹﾝ","kana_city":"ｱｶｲﾜｼ","kana_address":"ｻｶﾅﾍﾞ","pref":"岡山県","city":"赤磐市","address":"坂辺"},
{"zip_code":"7012432","kana_pref":"ｵｶﾔﾏｹﾝ","kana_city":"ｱｶｲﾜｼ","kana_address":"ｼｵｷﾞ","pref":"岡山県","city":"赤磐市","address":"塩木"},
{"zip_code":"7012503","kana_pref":"ｵｶﾔﾏｹﾝ","kana_city":"ｱｶｲﾜｼ","kana_address":"ｽｻｲ","pref":"岡山県","city":"赤磐市","address":"周匝"},
{"zip_code":"7012203","kana_pref":"ｵｶﾔﾏｹﾝ","kana_city":"ｱｶｲﾜｼ","kana_address":"ｿｳﾌﾞﾝ","pref":"岡山県","city":"赤磐市","address":"惣分"},
{"zip_code":"7012216","kana_pref":"ｵｶﾔﾏｹﾝ","kana_city":"ｱｶｲﾜｼ","kana_address":"ﾀｶﾞ","pref":"岡山県","city":"赤磐市","address":"多賀"},
{"zip_code":"7012524","kana_pref":"ｵｶﾔﾏｹﾝ","kana_city":"ｱｶｲﾜｼ","kana_address":"ﾀｷﾔﾏ","pref":"岡山県","city":"赤磐市","address":"滝山"},
{"zip_code":"7012431","kana_pref":"ｵｶﾔﾏｹﾝ","kana_city":"ｱｶｲﾜｼ","kana_address":"ﾄﾂﾉ","pref":"岡山県","city":"赤磐市","address":"戸津野"},
{"zip_code":"7012437","kana_pref":"ｵｶﾔﾏｹﾝ","kana_city":"ｱｶｲﾜｼ","kana_address":"ﾅｶｾｲｼﾞﾂ","pref":"岡山県","city":"赤磐市","address":"中勢実"},
{"zip_code":"7012444","kana_pref":"ｵｶﾔﾏｹﾝ","kana_city":"ｱｶｲﾜｼ","kana_address":"ﾅｶﾊﾀ","pref":"岡山県","city":"赤磐市","address":"中畑"},
{"zip_code":"7012523","kana_pref":"ｵｶﾔﾏｹﾝ","kana_city":"ｱｶｲﾜｼ","kana_address":"ﾅｶﾔﾏ","pref":"岡山県","city":"赤磐市","address":"中山"},
{"zip_code":"7012215","kana_pref":"ｵｶﾔﾏｹﾝ","kana_city":"ｱｶｲﾜｼ","kana_address":"ﾆｼｶﾙﾍﾞ","pref":"岡山県","city":"赤磐市","address":"西軽部"},
{"zip_code":"7012224","kana_pref":"ｵｶﾔﾏｹﾝ","kana_city":"ｱｶｲﾜｼ","kana_address":"ﾆｼｸﾎﾞﾀ","pref":"岡山県","city":"赤磐市","address":"西窪田"},
{"zip_code":"7012441","kana_pref":"ｵｶﾔﾏｹﾝ","kana_city":"ｱｶｲﾜｼ","kana_address":"ﾆｼｾｲｼﾞﾂ","pref":"岡山県","city":"赤磐市","address":"西勢実"},
{"zip_code":"7012435","kana_pref":"ｵｶﾔﾏｹﾝ","kana_city":"ｱｶｲﾜｼ","kana_address":"ﾆﾎﾞﾘﾅｶ","pref":"岡山県","city":"赤磐市","address":"仁堀中"},
{"zip_code":"7012436","kana_pref":"ｵｶﾔﾏｹﾝ","kana_city":"ｱｶｲﾜｼ","kana_address":"ﾆﾎﾞﾘﾆｼ","pref":"岡山県","city":"赤磐市","address":"仁堀西"},
{"zip_code":"7012434","kana_pref":"ｵｶﾔﾏｹﾝ","kana_city":"ｱｶｲﾜｼ","kana_address":"ﾆﾎﾞﾘﾋｶﾞｼ","pref":"岡山県","city":"赤磐市","address":"仁堀東"},
{"zip_code":"7012214","kana_pref":"ｵｶﾔﾏｹﾝ","kana_city":"ｱｶｲﾜｼ","kana_address":"ﾋｶﾞｼｶﾙﾍﾞ","pref":"岡山県","city":"赤磐市","address":"東軽部"},
{"zip_code":"7012223","kana_pref":"ｵｶﾔﾏｹﾝ","kana_city":"ｱｶｲﾜｼ","kana_address":"ﾋｶﾞｼｸﾎﾞﾀ","pref":"岡山県","city":"赤磐市","address":"東窪田"},
{"zip_code":"7012433","kana_pref":"ｵｶﾔﾏｹﾝ","kana_city":"ｱｶｲﾜｼ","kana_address":"ﾋﾗﾔﾏ","pref":"岡山県","city":"赤磐市","address":"平山"},
{"zip_code":"7012442","kana_pref":"ｵｶﾔﾏｹﾝ","kana_city":"ｱｶｲﾜｼ","kana_address":"ﾋﾛﾄﾞ","pref":"岡山県","city":"赤磐市","address":"広戸"},
{"zip_code":"7012504","kana_pref":"ｵｶﾔﾏｹﾝ","kana_city":"ｱｶｲﾜｼ","kana_address":"ﾌｸﾀﾞ","pref":"岡山県","city":"赤磐市","address":"福田"},
{"zip_code":"7012222","kana_pref":"ｵｶﾔﾏｹﾝ","kana_city":"ｱｶｲﾜｼ","kana_address":"ﾏﾁｶﾝﾀﾞ","pref":"岡山県","city":"赤磐市","address":"町苅田"},
{"zip_code":"7012212","kana_pref":"ｵｶﾔﾏｹﾝ","kana_city":"ｱｶｲﾜｼ","kana_address":"ﾐﾅﾐｻｺﾀﾞ","pref":"岡山県","city":"赤磐市","address":"南佐古田"},
{"zip_code":"7012513","kana_pref":"ｵｶﾔﾏｹﾝ","kana_city":"ｱｶｲﾜｼ","kana_address":"ﾔｼﾏﾀﾞ","pref":"岡山県","city":"赤磐市","address":"八島田"},
{"zip_code":"7012225","kana_pref":"ｵｶﾔﾏｹﾝ","kana_city":"ｱｶｲﾜｼ","kana_address":"ﾔﾏｸﾞﾁ","pref":"岡山県","city":"赤磐市","address":"山口"},
{"zip_code":"7012204","kana_pref":"ｵｶﾔﾏｹﾝ","kana_city":"ｱｶｲﾜｼ","kana_address":"ﾔﾏﾃ","pref":"岡山県","city":"赤磐市","address":"山手"},
{"zip_code":"7012226","kana_pref":"ｵｶﾔﾏｹﾝ","kana_city":"ｱｶｲﾜｼ","kana_address":"ﾕﾂﾞﾘ","pref":"岡山県","city":"赤磐市","address":"由津里"},
{"zip_code":"7012623","kana_pref":"ｵｶﾔﾏｹﾝ","kana_city":"ﾐﾏｻｶｼ","kana_address":"ｱｲﾀﾞｱｵﾉ","pref":"岡山県","city":"美作市","address":"英田青野"},
{"zip_code":"7012606","kana_pref":"ｵｶﾔﾏｹﾝ","kana_city":"ﾐﾏｻｶｼ","kana_address":"ｲｸﾞﾁ","pref":"岡山県","city":"美作市","address":"井口"},
{"zip_code":"7012614","kana_pref":"ｵｶﾔﾏｹﾝ","kana_city":"ﾐﾏｻｶｼ","kana_address":"ｳｴﾔﾏ","pref":"岡山県","city":"美作市","address":"上山"},
{"zip_code":"7012605","kana_pref":"ｵｶﾔﾏｹﾝ","kana_city":"ﾐﾏｻｶｼ","kana_address":"ｵｸ","pref":"岡山県","city":"美作市","address":"奥"},
{"zip_code":"7012601","kana_pref":"ｵｶﾔﾏｹﾝ","kana_city":"ﾐﾏｻｶｼ","kana_address":"ｵﾀﾆ","pref":"岡山県","city":"美作市","address":"尾谷"},
{"zip_code":"7012611","kana_pref":"ｵｶﾔﾏｹﾝ","kana_city":"ﾐﾏｻｶｼ","kana_address":"ｷﾀ","pref":"岡山県","city":"美作市","address":"北"},
{"zip_code":"7012621","kana_pref":"ｵｶﾔﾏｹﾝ","kana_city":"ﾐﾏｻｶｼ","kana_address":"ｼﾓﾔﾏ","pref":"岡山県","city":"美作市","address":"下山"},
{"zip_code":"7012625","kana_pref":"ｵｶﾔﾏｹﾝ","kana_city":"ﾐﾏｻｶｼ","kana_address":"ｼﾞｮｳﾃﾞﾝ","pref":"岡山県","city":"美作市","address":"城田"},
{"zip_code":"7012612","kana_pref":"ｵｶﾔﾏｹﾝ","kana_city":"ﾐﾏｻｶｼ","kana_address":"ﾀｷﾐﾔ","pref":"岡山県","city":"美作市","address":"滝宮"},
{"zip_code":"7012622","kana_pref":"ｵｶﾔﾏｹﾝ","kana_city":"ﾐﾏｻｶｼ","kana_address":"ﾄﾘﾌﾞﾁ","pref":"岡山県","city":"美作市","address":"鳥渕"},
{"zip_code":"7012615","kana_pref":"ｵｶﾔﾏｹﾝ","kana_city":"ﾐﾏｻｶｼ","kana_address":"ﾅｶｶﾞﾜ","pref":"岡山県","city":"美作市","address":"中川"},
{"zip_code":"7012624","kana_pref":"ｵｶﾔﾏｹﾝ","kana_city":"ﾐﾏｻｶｼ","kana_address":"ﾅｶｺﾞｳﾁ","pref":"岡山県","city":"美作市","address":"中河内"},
{"zip_code":"7012604","kana_pref":"ｵｶﾔﾏｹﾝ","kana_city":"ﾐﾏｻｶｼ","kana_address":"ﾌｸﾓﾄ","pref":"岡山県","city":"美作市","address":"福本"},
{"zip_code":"7012602","kana_pref":"ｵｶﾔﾏｹﾝ","kana_city":"ﾐﾏｻｶｼ","kana_address":"ﾏｶﾞﾐ","pref":"岡山県","city":"美作市","address":"真神"},
{"zip_code":"7012616","kana_pref":"ｵｶﾔﾏｹﾝ","kana_city":"ﾐﾏｻｶｼ","kana_address":"ﾐﾅﾐ","pref":"岡山県","city":"美作市","address":"南"},
{"zip_code":"7012603","kana_pref":"ｵｶﾔﾏｹﾝ","kana_city":"ﾐﾏｻｶｼ","kana_address":"ﾐﾎﾊﾞﾗ","pref":"岡山県","city":"美作市","address":"三保原"},
{"zip_code":"7012613","kana_pref":"ｵｶﾔﾏｹﾝ","kana_city":"ﾐﾏｻｶｼ","kana_address":"ﾖｺｵ","pref":"岡山県","city":"美作市","address":"横尾"},
{"zip_code":"7010300","kana_pref":"ｵｶﾔﾏｹﾝ","kana_city":"ﾂｸﾎﾞｸﾞﾝﾊﾔｼﾏﾁｮｳ","kana_address":"","pref":"岡山県","city":"都窪郡早島町","address":""},
{"zip_code":"7010304","kana_pref":"ｵｶﾔﾏｹﾝ","kana_city":"ﾂｸﾎﾞｸﾞﾝﾊﾔｼﾏﾁｮｳ","kana_address":"ﾊﾔｼﾏ","pref":"岡山県","city":"都窪郡早島町","address":"早島"},
{"zip_code":"7010303","kana_pref":"ｵｶﾔﾏｹﾝ","kana_city":"ﾂｸﾎﾞｸﾞﾝﾊﾔｼﾏﾁｮｳ","kana_address":"ﾏｴｶﾞﾀ","pref":"岡山県","city":"都窪郡早島町","address":"前潟"},
{"zip_code":"7010301","kana_pref":"ｵｶﾔﾏｹﾝ","kana_city":"ﾂｸﾎﾞｸﾞﾝﾊﾔｼﾏﾁｮｳ","kana_address":"ﾔｵ","pref":"岡山県","city":"都窪郡早島町","address":"矢尾"},
{"zip_code":"7010302","kana_pref":"ｵｶﾔﾏｹﾝ","kana_city":"ﾂｸﾎﾞｸﾞﾝﾊﾔｼﾏﾁｮｳ","kana_address":"ﾜｶﾐﾔ","pref":"岡山県","city":"都窪郡早島町","address":"若宮"}]}