{"zip_code":[
{"zip_code":"7028005","kana_pref":"ｵｶﾔﾏｹﾝ","kana_city":"ｵｶﾔﾏｼﾅｶｸ","kana_address":"ｴｻﾞｷ","pref":"岡山県","city":"岡山市中区","address":"江崎"},
{"zip_code":"7028004","kana_pref":"ｵｶﾔﾏｹﾝ","kana_city":"ｵｶﾔﾏｼﾅｶｸ","kana_address":"ｴﾅﾐ","pref":"岡山県","city":"岡山市中区","address":"江並"},
{"zip_code":"7028001","kana_pref":"ｵｶﾔﾏｹﾝ","kana_city":"ｵｶﾔﾏｼﾅｶｸ","kana_address":"ｵｷﾓﾄ","pref":"岡山県","city":"岡山市中区","address":"沖元"},
{"zip_code":"7028002","kana_pref":"ｵｶﾔﾏｹﾝ","kana_city":"ｵｶﾔﾏｼﾅｶｸ","kana_address":"ｸﾜﾉ","pref":"岡山県","city":"岡山市中区","address":"桑野"},
{"zip_code":"7028003","kana_pref":"ｵｶﾔﾏｹﾝ","kana_city":"ｵｶﾔﾏｼﾅｶｸ","kana_address":"ｼﾝﾁｯｺｳ","pref":"岡山県","city":"岡山市中区","address":"新築港"},
{"zip_code":"7028006","kana_pref":"ｵｶﾔﾏｹﾝ","kana_city":"ｵｶﾔﾏｼﾅｶｸ","kana_address":"ﾌｼﾞｻｷ","pref":"岡山県","city":"岡山市中区","address":"藤崎"},
{"zip_code":"7028013","kana_pref":"ｵｶﾔﾏｹﾝ","kana_city":"ｵｶﾔﾏｼﾐﾅﾐｸ","kana_address":"ｱｸﾗ","pref":"岡山県","city":"岡山市南区","address":"飽浦"},
{"zip_code":"7028057","kana_pref":"ｵｶﾔﾏｹﾝ","kana_city":"ｵｶﾔﾏｼﾐﾅﾐｸ","kana_address":"ｱｹﾎﾞﾉﾁｮｳ","pref":"岡山県","city":"岡山市南区","address":"あけぼの町"},
{"zip_code":"7028015","kana_pref":"ｵｶﾔﾏｹﾝ","kana_city":"ｵｶﾔﾏｼﾐﾅﾐｸ","kana_address":"ｱﾂ","pref":"岡山県","city":"岡山市南区","address":"阿津"},
{"zip_code":"7028025","kana_pref":"ｵｶﾔﾏｹﾝ","kana_city":"ｵｶﾔﾏｼﾐﾅﾐｸ","kana_address":"ｳﾗﾔｽﾆｼﾏﾁ","pref":"岡山県","city":"岡山市南区","address":"浦安西町"},
{"zip_code":"7028026","kana_pref":"ｵｶﾔﾏｹﾝ","kana_city":"ｵｶﾔﾏｼﾐﾅﾐｸ","kana_address":"ｳﾗﾔｽﾎﾝﾏﾁ","pref":"岡山県","city":"岡山市南区","address":"浦安本町"},
{"zip_code":"7028024","kana_pref":"ｵｶﾔﾏｹﾝ","kana_city":"ｵｶﾔﾏｼﾐﾅﾐｸ","kana_address":"ｳﾗﾔｽﾐﾅﾐﾏﾁ","pref":"岡山県","city":"岡山市南区","address":"浦安南町"},
{"zip_code":"7028045","kana_pref":"ｵｶﾔﾏｹﾝ","kana_city":"ｵｶﾔﾏｼﾐﾅﾐｸ","kana_address":"ｶｲｶﾞﾝﾄﾞｵﾘ","pref":"岡山県","city":"岡山市南区","address":"海岸通"},
{"zip_code":"7028012","kana_pref":"ｵｶﾔﾏｹﾝ","kana_city":"ｵｶﾔﾏｼﾐﾅﾐｸ","kana_address":"ｷﾀｳﾗ","pref":"岡山県","city":"岡山市南区","address":"北浦"},
{"zip_code":"7028011","kana_pref":"ｵｶﾔﾏｹﾝ","kana_city":"ｵｶﾔﾏｼﾐﾅﾐｸ","kana_address":"ｺｵﾘ","pref":"岡山県","city":"岡山市南区","address":"郡"},
{"zip_code":"7028016","kana_pref":"ｵｶﾔﾏｹﾝ","kana_city":"ｵｶﾔﾏｼﾐﾅﾐｸ","kana_address":"ｺｸﾞｼ","pref":"岡山県","city":"岡山市南区","address":"小串"},
{"zip_code":"7028052","kana_pref":"ｵｶﾔﾏｹﾝ","kana_city":"ｵｶﾔﾏｼﾐﾅﾐｸ","kana_address":"ｼｼﾞｮｳ","pref":"岡山県","city":"岡山市南区","address":"市場"},
{"zip_code":"7028042","kana_pref":"ｵｶﾔﾏｹﾝ","kana_city":"ｵｶﾔﾏｼﾐﾅﾐｸ","kana_address":"ｽｻﾞｷ","pref":"岡山県","city":"岡山市南区","address":"洲崎"},
{"zip_code":"7028046","kana_pref":"ｵｶﾔﾏｹﾝ","kana_city":"ｵｶﾔﾏｼﾐﾅﾐｸ","kana_address":"ﾀﾁｶﾜﾁｮｳ","pref":"岡山県","city":"岡山市南区","address":"立川町"},
{"zip_code":"7028053","kana_pref":"ｵｶﾔﾏｹﾝ","kana_city":"ｵｶﾔﾏｼﾐﾅﾐｸ","kana_address":"ﾁｯｺｳｻｶｴﾏﾁ","pref":"岡山県","city":"岡山市南区","address":"築港栄町"},
{"zip_code":"7028056","kana_pref":"ｵｶﾔﾏｹﾝ","kana_city":"ｵｶﾔﾏｼﾐﾅﾐｸ","kana_address":"ﾁｯｺｳｼﾝﾏﾁ","pref":"岡山県","city":"岡山市南区","address":"築港新町"},
{"zip_code":"7028054","kana_pref":"ｵｶﾔﾏｹﾝ","kana_city":"ｵｶﾔﾏｼﾐﾅﾐｸ","kana_address":"ﾁｯｺｳﾋｶﾘﾏﾁ","pref":"岡山県","city":"岡山市南区","address":"築港ひかり町"},
{"zip_code":"7028055","kana_pref":"ｵｶﾔﾏｹﾝ","kana_city":"ｵｶﾔﾏｼﾐﾅﾐｸ","kana_address":"ﾁｯｺｳﾐﾄﾞﾘﾏﾁ","pref":"岡山県","city":"岡山市南区","address":"築港緑町"},
{"zip_code":"7028051","kana_pref":"ｵｶﾔﾏｹﾝ","kana_city":"ｵｶﾔﾏｼﾐﾅﾐｸ","kana_address":"ﾁｯｺｳﾓﾄﾏﾁ","pref":"岡山県","city":"岡山市南区","address":"築港元町"},
{"zip_code":"7028037","kana_pref":"ｵｶﾔﾏｹﾝ","kana_city":"ｵｶﾔﾏｼﾐﾅﾐｸ","kana_address":"ﾁﾄﾞﾘﾁｮｳ","pref":"岡山県","city":"岡山市南区","address":"千鳥町"},
{"zip_code":"7028041","kana_pref":"ｵｶﾔﾏｹﾝ","kana_city":"ｵｶﾔﾏｼﾐﾅﾐｸ","kana_address":"ﾄﾐﾊﾏﾁｮｳ","pref":"岡山県","city":"岡山市南区","address":"富浜町"},
{"zip_code":"7028058","kana_pref":"ｵｶﾔﾏｹﾝ","kana_city":"ｵｶﾔﾏｼﾐﾅﾐｸ","kana_address":"ﾅﾐｷﾁｮｳ","pref":"岡山県","city":"岡山市南区","address":"並木町"},
{"zip_code":"7028023","kana_pref":"ｵｶﾔﾏｹﾝ","kana_city":"ｵｶﾔﾏｼﾐﾅﾐｸ","kana_address":"ﾅﾝｷ","pref":"岡山県","city":"岡山市南区","address":"南輝"},
{"zip_code":"7028043","kana_pref":"ｵｶﾔﾏｹﾝ","kana_city":"ｵｶﾔﾏｼﾐﾅﾐｸ","kana_address":"ﾋﾗﾌｸ","pref":"岡山県","city":"岡山市南区","address":"平福"},
{"zip_code":"7028044","kana_pref":"ｵｶﾔﾏｹﾝ","kana_city":"ｵｶﾔﾏｼﾐﾅﾐｸ","kana_address":"ﾌｸｼﾏ","pref":"岡山県","city":"岡山市南区","address":"福島"},
{"zip_code":"7028021","kana_pref":"ｵｶﾔﾏｹﾝ","kana_city":"ｵｶﾔﾏｼﾐﾅﾐｸ","kana_address":"ﾌｸﾀﾞ","pref":"岡山県","city":"岡山市南区","address":"福田"},
{"zip_code":"7028032","kana_pref":"ｵｶﾔﾏｹﾝ","kana_city":"ｵｶﾔﾏｼﾐﾅﾐｸ","kana_address":"ﾌｸﾄﾐﾅｶ","pref":"岡山県","city":"岡山市南区","address":"福富中"},
{"zip_code":"7028031","kana_pref":"ｵｶﾔﾏｹﾝ","kana_city":"ｵｶﾔﾏｼﾐﾅﾐｸ","kana_address":"ﾌｸﾄﾐﾆｼ","pref":"岡山県","city":"岡山市南区","address":"福富西"},
{"zip_code":"7028033","kana_pref":"ｵｶﾔﾏｹﾝ","kana_city":"ｵｶﾔﾏｼﾐﾅﾐｸ","kana_address":"ﾌｸﾄﾐﾋｶﾞｼ","pref":"岡山県","city":"岡山市南区","address":"福富東"},
{"zip_code":"7028022","kana_pref":"ｵｶﾔﾏｹﾝ","kana_city":"ｵｶﾔﾏｼﾐﾅﾐｸ","kana_address":"ﾌｸﾅﾘ","pref":"岡山県","city":"岡山市南区","address":"福成"},
{"zip_code":"7028035","kana_pref":"ｵｶﾔﾏｹﾝ","kana_city":"ｵｶﾔﾏｼﾐﾅﾐｸ","kana_address":"ﾌｸﾊﾏﾁｮｳ","pref":"岡山県","city":"岡山市南区","address":"福浜町"},
{"zip_code":"7028034","kana_pref":"ｵｶﾔﾏｹﾝ","kana_city":"ｵｶﾔﾏｼﾐﾅﾐｸ","kana_address":"ﾌｸﾊﾏﾆｼﾏﾁ","pref":"岡山県","city":"岡山市南区","address":"福浜西町"},
{"zip_code":"7028048","kana_pref":"ｵｶﾔﾏｹﾝ","kana_city":"ｵｶﾔﾏｼﾐﾅﾐｸ","kana_address":"ﾌｸﾖｼﾁｮｳ","pref":"岡山県","city":"岡山市南区","address":"福吉町"},
{"zip_code":"7028038","kana_pref":"ｵｶﾔﾏｹﾝ","kana_city":"ｵｶﾔﾏｼﾐﾅﾐｸ","kana_address":"ﾏﾂﾊﾏﾁｮｳ","pref":"岡山県","city":"岡山市南区","address":"松浜町"},
{"zip_code":"7028036","kana_pref":"ｵｶﾔﾏｹﾝ","kana_city":"ｵｶﾔﾏｼﾐﾅﾐｸ","kana_address":"ﾐﾊﾏﾁｮｳ","pref":"岡山県","city":"岡山市南区","address":"三浜町"},
{"zip_code":"7028014","kana_pref":"ｵｶﾔﾏｹﾝ","kana_city":"ｵｶﾔﾏｼﾐﾅﾐｸ","kana_address":"ﾐﾔｳﾗ","pref":"岡山県","city":"岡山市南区","address":"宮浦"},
{"zip_code":"7028047","kana_pref":"ｵｶﾔﾏｹﾝ","kana_city":"ｵｶﾔﾏｼﾐﾅﾐｸ","kana_address":"ﾜｶﾊﾞﾁｮｳ","pref":"岡山県","city":"岡山市南区","address":"若葉町"}]}