{"zip_code":[
{"zip_code":"7038207","kana_pref":"ｵｶﾔﾏｹﾝ","kana_city":"ｵｶﾔﾏｼｷﾀｸ","kana_address":"ｷﾞｵﾝ","pref":"岡山県","city":"岡山市北区","address":"祇園"},
{"zip_code":"7038257","kana_pref":"ｵｶﾔﾏｹﾝ","kana_city":"ｵｶﾔﾏｼｷﾀｸ","kana_address":"ｺｳﾗｸｴﾝ","pref":"岡山県","city":"岡山市北区","address":"後楽園"},
{"zip_code":"7038288","kana_pref":"ｵｶﾔﾏｹﾝ","kana_city":"ｵｶﾔﾏｼﾅｶｸ","kana_address":"ｱｶｻｶﾎﾝﾏﾁ","pref":"岡山県","city":"岡山市中区","address":"赤坂本町"},
{"zip_code":"7038283","kana_pref":"ｵｶﾔﾏｹﾝ","kana_city":"ｵｶﾔﾏｼﾅｶｸ","kana_address":"ｱｶｻｶﾐﾅﾐｼﾝﾏﾁ","pref":"岡山県","city":"岡山市中区","address":"赤坂南新町"},
{"zip_code":"7038287","kana_pref":"ｵｶﾔﾏｹﾝ","kana_city":"ｵｶﾔﾏｼﾅｶｸ","kana_address":"ｱｶｻｶﾀﾞｲ","pref":"岡山県","city":"岡山市中区","address":"赤坂台"},
{"zip_code":"7038231","kana_pref":"ｵｶﾔﾏｹﾝ","kana_city":"ｵｶﾔﾏｼﾅｶｸ","kana_address":"ｱｺﾀﾞ","pref":"岡山県","city":"岡山市中区","address":"赤田"},
{"zip_code":"7038284","kana_pref":"ｵｶﾔﾏｹﾝ","kana_city":"ｵｶﾔﾏｼﾅｶｸ","kana_address":"ｱﾐﾉﾊﾏ","pref":"岡山県","city":"岡山市中区","address":"網浜"},
{"zip_code":"7038208","kana_pref":"ｵｶﾔﾏｹﾝ","kana_city":"ｵｶﾔﾏｼﾅｶｸ","kana_address":"ｲﾏｻﾞｲｹ","pref":"岡山県","city":"岡山市中区","address":"今在家"},
{"zip_code":"7038226","kana_pref":"ｵｶﾔﾏｹﾝ","kana_city":"ｵｶﾔﾏｼﾅｶｸ","kana_address":"ｲﾏﾀﾞﾆ","pref":"岡山県","city":"岡山市中区","address":"今谷"},
{"zip_code":"7038272","kana_pref":"ｵｶﾔﾏｹﾝ","kana_city":"ｵｶﾔﾏｼﾅｶｸ","kana_address":"ｵｸｲﾁ","pref":"岡山県","city":"岡山市中区","address":"奥市"},
{"zip_code":"7038228","kana_pref":"ｵｶﾔﾏｹﾝ","kana_city":"ｵｶﾔﾏｼﾅｶｸ","kana_address":"ｵﾀﾐ","pref":"岡山県","city":"岡山市中区","address":"乙多見"},
{"zip_code":"7038277","kana_pref":"ｵｶﾔﾏｹﾝ","kana_city":"ｵｶﾔﾏｼﾅｶｸ","kana_address":"ｵﾅﾘﾁｮｳ","pref":"岡山県","city":"岡山市中区","address":"御成町"},
{"zip_code":"7038204","kana_pref":"ｵｶﾔﾏｹﾝ","kana_city":"ｵｶﾔﾏｼﾅｶｸ","kana_address":"ｵﾏﾁ","pref":"岡山県","city":"岡山市中区","address":"雄町"},
{"zip_code":"7038273","kana_pref":"ｵｶﾔﾏｹﾝ","kana_city":"ｵｶﾔﾏｼﾅｶｸ","kana_address":"ｶﾄﾞﾀﾌﾞﾝｶﾏﾁ","pref":"岡山県","city":"岡山市中区","address":"門田文化町"},
{"zip_code":"7038274","kana_pref":"ｵｶﾔﾏｹﾝ","kana_city":"ｵｶﾔﾏｼﾅｶｸ","kana_address":"ｶﾄﾞﾀﾎﾝﾏﾁ","pref":"岡山県","city":"岡山市中区","address":"門田本町"},
{"zip_code":"7038275","kana_pref":"ｵｶﾔﾏｹﾝ","kana_city":"ｵｶﾔﾏｼﾅｶｸ","kana_address":"ｶﾄﾞﾀﾔｼｷ","pref":"岡山県","city":"岡山市中区","address":"門田屋敷"},
{"zip_code":"7038276","kana_pref":"ｵｶﾔﾏｹﾝ","kana_city":"ｵｶﾔﾏｼﾅｶｸ","kana_address":"ｶﾄﾞﾀﾔｼｷﾎﾝﾏﾁ","pref":"岡山県","city":"岡山市中区","address":"門田屋敷本町"},
{"zip_code":"7038227","kana_pref":"ｵｶﾔﾏｹﾝ","kana_city":"ｵｶﾔﾏｼﾅｶｸ","kana_address":"ｶﾈﾓﾄ","pref":"岡山県","city":"岡山市中区","address":"兼基"},
{"zip_code":"7038207","kana_pref":"ｵｶﾔﾏｹﾝ","kana_city":"ｵｶﾔﾏｼﾅｶｸ","kana_address":"ｷﾞｵﾝ","pref":"岡山県","city":"岡山市中区","address":"祇園"},
{"zip_code":"7038286","kana_pref":"ｵｶﾔﾏｹﾝ","kana_city":"ｵｶﾔﾏｼﾅｶｸ","kana_address":"ｷｮｸﾄｳﾁｮｳ","pref":"岡山県","city":"岡山市中区","address":"旭東町"},
{"zip_code":"7038236","kana_pref":"ｵｶﾔﾏｹﾝ","kana_city":"ｵｶﾔﾏｼﾅｶｸ","kana_address":"ｸﾆﾄﾐ","pref":"岡山県","city":"岡山市中区","address":"国富"},
{"zip_code":"7038265","kana_pref":"ｵｶﾔﾏｹﾝ","kana_city":"ｵｶﾔﾏｼﾅｶｸ","kana_address":"ｸﾗﾀ","pref":"岡山県","city":"岡山市中区","address":"倉田"},
{"zip_code":"7038264","kana_pref":"ｵｶﾔﾏｹﾝ","kana_city":"ｵｶﾔﾏｼﾅｶｸ","kana_address":"ｸﾗﾄﾐ","pref":"岡山県","city":"岡山市中区","address":"倉富"},
{"zip_code":"7038263","kana_pref":"ｵｶﾔﾏｹﾝ","kana_city":"ｵｶﾔﾏｼﾅｶｸ","kana_address":"ｸﾗﾏｽ","pref":"岡山県","city":"岡山市中区","address":"倉益"},
{"zip_code":"7038225","kana_pref":"ｵｶﾔﾏｹﾝ","kana_city":"ｵｶﾔﾏｼﾅｶｸ","kana_address":"ｺｳｼﾀ","pref":"岡山県","city":"岡山市中区","address":"神下"},
{"zip_code":"7038203","kana_pref":"ｵｶﾔﾏｹﾝ","kana_city":"ｵｶﾔﾏｼﾅｶｸ","kana_address":"ｺｸﾌｲﾁﾊﾞ","pref":"岡山県","city":"岡山市中区","address":"国府市場"},
{"zip_code":"7038293","kana_pref":"ｵｶﾔﾏｹﾝ","kana_city":"ｵｶﾔﾏｼﾅｶｸ","kana_address":"ｺﾊﾞｼﾁｮｳ","pref":"岡山県","city":"岡山市中区","address":"小橋町"},
{"zip_code":"7038248","kana_pref":"ｵｶﾔﾏｹﾝ","kana_city":"ｵｶﾔﾏｼﾅｶｸ","kana_address":"ｻｲ","pref":"岡山県","city":"岡山市中区","address":"さい"},
{"zip_code":"7038247","kana_pref":"ｵｶﾔﾏｹﾝ","kana_city":"ｵｶﾔﾏｼﾅｶｸ","kana_address":"ｻｲﾋｶﾞｼﾏﾁ","pref":"岡山県","city":"岡山市中区","address":"さい東町"},
{"zip_code":"7038296","kana_pref":"ｵｶﾔﾏｹﾝ","kana_city":"ｵｶﾔﾏｼﾅｶｸ","kana_address":"ｻｸﾗｼﾞｭｳｻﾞ","pref":"岡山県","city":"岡山市中区","address":"さくら住座"},
{"zip_code":"7038285","kana_pref":"ｵｶﾔﾏｹﾝ","kana_city":"ｵｶﾔﾏｼﾅｶｸ","kana_address":"ｻｸﾗﾊﾞｼ","pref":"岡山県","city":"岡山市中区","address":"桜橋"},
{"zip_code":"7038234","kana_pref":"ｵｶﾔﾏｹﾝ","kana_city":"ｵｶﾔﾏｼﾅｶｸ","kana_address":"ｻﾜﾀﾞ","pref":"岡山県","city":"岡山市中区","address":"沢田"},
{"zip_code":"7038201","kana_pref":"ｵｶﾔﾏｹﾝ","kana_city":"ｵｶﾔﾏｼﾅｶｸ","kana_address":"ｼﾉｺﾞｾﾞ","pref":"岡山県","city":"岡山市中区","address":"四御神"},
{"zip_code":"7038243","kana_pref":"ｵｶﾔﾏｹﾝ","kana_city":"ｵｶﾔﾏｼﾅｶｸ","kana_address":"ｼﾐｽﾞ","pref":"岡山県","city":"岡山市中区","address":"清水"},
{"zip_code":"7038222","kana_pref":"ｵｶﾔﾏｹﾝ","kana_city":"ｵｶﾔﾏｼﾅｶｸ","kana_address":"ｼﾓ","pref":"岡山県","city":"岡山市中区","address":"下"},
{"zip_code":"7038206","kana_pref":"ｵｶﾔﾏｹﾝ","kana_city":"ｵｶﾔﾏｼﾅｶｸ","kana_address":"ｼｮｳﾀﾞ","pref":"岡山県","city":"岡山市中区","address":"賞田"},
{"zip_code":"7038294","kana_pref":"ｵｶﾔﾏｹﾝ","kana_city":"ｵｶﾔﾏｼﾅｶｸ","kana_address":"ｼﾝｷｮｳﾊﾞｼ","pref":"岡山県","city":"岡山市中区","address":"新京橋"},
{"zip_code":"7038238","kana_pref":"ｵｶﾔﾏｹﾝ","kana_city":"ｵｶﾔﾏｼﾅｶｸ","kana_address":"ｽﾐﾖｼﾁｮｳ","pref":"岡山県","city":"岡山市中区","address":"住吉町"},
{"zip_code":"7038232","kana_pref":"ｵｶﾔﾏｹﾝ","kana_city":"ｵｶﾔﾏｼﾅｶｸ","kana_address":"ｾｷ","pref":"岡山県","city":"岡山市中区","address":"関"},
{"zip_code":"7038242","kana_pref":"ｵｶﾔﾏｹﾝ","kana_city":"ｵｶﾔﾏｼﾅｶｸ","kana_address":"ﾀｶｼﾏ","pref":"岡山県","city":"岡山市中区","address":"高島"},
{"zip_code":"7038241","kana_pref":"ｵｶﾔﾏｹﾝ","kana_city":"ｵｶﾔﾏｼﾅｶｸ","kana_address":"ﾀｶｼﾏｼﾝﾔｼｷ","pref":"岡山県","city":"岡山市中区","address":"高島新屋敷"},
{"zip_code":"7038233","kana_pref":"ｵｶﾔﾏｹﾝ","kana_city":"ｵｶﾔﾏｼﾅｶｸ","kana_address":"ﾀｶﾔ","pref":"岡山県","city":"岡山市中区","address":"高屋"},
{"zip_code":"7038251","kana_pref":"ｵｶﾔﾏｹﾝ","kana_city":"ｵｶﾔﾏｼﾅｶｸ","kana_address":"ﾀｹﾀﾞ","pref":"岡山県","city":"岡山市中区","address":"竹田"},
{"zip_code":"7038292","kana_pref":"ｵｶﾔﾏｹﾝ","kana_city":"ｵｶﾔﾏｼﾅｶｸ","kana_address":"ﾁｭｳﾅｺﾞﾝﾁｮｳ","pref":"岡山県","city":"岡山市中区","address":"中納言町"},
{"zip_code":"7038217","kana_pref":"ｵｶﾔﾏｹﾝ","kana_city":"ｵｶﾔﾏｼﾅｶｸ","kana_address":"ﾂﾁﾀﾞ","pref":"岡山県","city":"岡山市中区","address":"土田"},
{"zip_code":"7038291","kana_pref":"ｵｶﾔﾏｹﾝ","kana_city":"ｵｶﾔﾏｼﾅｶｸ","kana_address":"ﾄｸﾖｼﾁｮｳ","pref":"岡山県","city":"岡山市中区","address":"徳吉町"},
{"zip_code":"7038205","kana_pref":"ｵｶﾔﾏｹﾝ","kana_city":"ｵｶﾔﾏｼﾅｶｸ","kana_address":"ﾅｶｲ","pref":"岡山県","city":"岡山市中区","address":"中井"},
{"zip_code":"7038221","kana_pref":"ｵｶﾔﾏｹﾝ","kana_city":"ｵｶﾔﾏｼﾅｶｸ","kana_address":"ﾅｶﾞｵｶ","pref":"岡山県","city":"岡山市中区","address":"長岡"},
{"zip_code":"7038252","kana_pref":"ｵｶﾔﾏｹﾝ","kana_city":"ｵｶﾔﾏｼﾅｶｸ","kana_address":"ﾅｶｼﾏ","pref":"岡山県","city":"岡山市中区","address":"中島"},
{"zip_code":"7038223","kana_pref":"ｵｶﾔﾏｹﾝ","kana_city":"ｵｶﾔﾏｼﾅｶｸ","kana_address":"ﾅｶﾞﾄｼ","pref":"岡山県","city":"岡山市中区","address":"長利"},
{"zip_code":"7038258","kana_pref":"ｵｶﾔﾏｹﾝ","kana_city":"ｵｶﾔﾏｼﾅｶｸ","kana_address":"ﾆｼｶﾞﾜﾗ","pref":"岡山県","city":"岡山市中区","address":"西川原"},
{"zip_code":"7038298","kana_pref":"ｵｶﾔﾏｹﾝ","kana_city":"ｵｶﾔﾏｼﾅｶｸ","kana_address":"ﾆｼﾅｶｼﾞﾏﾁｮｳ","pref":"岡山県","city":"岡山市中区","address":"西中島町"},
{"zip_code":"7038256","kana_pref":"ｵｶﾔﾏｹﾝ","kana_city":"ｵｶﾔﾏｼﾅｶｸ","kana_address":"ﾊﾏ","pref":"岡山県","city":"岡山市中区","address":"浜"},
{"zip_code":"7038235","kana_pref":"ｵｶﾔﾏｹﾝ","kana_city":"ｵｶﾔﾏｼﾅｶｸ","kana_address":"ﾊﾗｵｼﾏ","pref":"岡山県","city":"岡山市中区","address":"原尾島"},
{"zip_code":"7038255","kana_pref":"ｵｶﾔﾏｹﾝ","kana_city":"ｵｶﾔﾏｼﾅｶｸ","kana_address":"ﾋｶﾞｼｶﾞﾜﾗ","pref":"岡山県","city":"岡山市中区","address":"東川原"},
{"zip_code":"7038297","kana_pref":"ｵｶﾔﾏｹﾝ","kana_city":"ｵｶﾔﾏｼﾅｶｸ","kana_address":"ﾋｶﾞｼﾅｶｼﾞﾏﾁｮｳ","pref":"岡山県","city":"岡山市中区","address":"東中島町"},
{"zip_code":"7038281","kana_pref":"ｵｶﾔﾏｹﾝ","kana_city":"ｵｶﾔﾏｼﾅｶｸ","kana_address":"ﾋｶﾞｼﾔﾏ","pref":"岡山県","city":"岡山市中区","address":"東山"},
{"zip_code":"7038282","kana_pref":"ｵｶﾔﾏｹﾝ","kana_city":"ｵｶﾔﾏｼﾅｶｸ","kana_address":"ﾋﾗｲ","pref":"岡山県","city":"岡山市中区","address":"平井"},
{"zip_code":"7038262","kana_pref":"ｵｶﾔﾏｹﾝ","kana_city":"ｵｶﾔﾏｼﾅｶｸ","kana_address":"ﾌｸﾄﾞﾏﾘ","pref":"岡山県","city":"岡山市中区","address":"福泊"},
{"zip_code":"7038245","kana_pref":"ｵｶﾔﾏｹﾝ","kana_city":"ｵｶﾔﾏｼﾅｶｸ","kana_address":"ﾌｼﾞﾜﾗ","pref":"岡山県","city":"岡山市中区","address":"藤原"},
{"zip_code":"7038244","kana_pref":"ｵｶﾔﾏｹﾝ","kana_city":"ｵｶﾔﾏｼﾅｶｸ","kana_address":"ﾌｼﾞﾜﾗﾆｼﾏﾁ","pref":"岡山県","city":"岡山市中区","address":"藤原西町"},
{"zip_code":"7038246","kana_pref":"ｵｶﾔﾏｹﾝ","kana_city":"ｵｶﾔﾏｼﾅｶｸ","kana_address":"ﾌｼﾞﾜﾗﾋｶﾘﾏﾁ","pref":"岡山県","city":"岡山市中区","address":"藤原光町"},
{"zip_code":"7038278","kana_pref":"ｵｶﾔﾏｹﾝ","kana_city":"ｵｶﾔﾏｼﾅｶｸ","kana_address":"ﾌﾙｷﾞｮｳﾁｮｳ","pref":"岡山県","city":"岡山市中区","address":"古京町"},
{"zip_code":"7038271","kana_pref":"ｵｶﾔﾏｹﾝ","kana_city":"ｵｶﾔﾏｼﾅｶｸ","kana_address":"ﾏﾙﾔﾏ","pref":"岡山県","city":"岡山市中区","address":"円山"},
{"zip_code":"7038266","kana_pref":"ｵｶﾔﾏｹﾝ","kana_city":"ｵｶﾔﾏｼﾅｶｸ","kana_address":"ﾐﾅﾄ","pref":"岡山県","city":"岡山市中区","address":"湊"},
{"zip_code":"7038295","kana_pref":"ｵｶﾔﾏｹﾝ","kana_city":"ｵｶﾔﾏｼﾅｶｸ","kana_address":"ﾐﾕｷﾁｮｳ","pref":"岡山県","city":"岡山市中区","address":"御幸町"},
{"zip_code":"7038261","kana_pref":"ｵｶﾔﾏｹﾝ","kana_city":"ｵｶﾔﾏｼﾅｶｸ","kana_address":"ﾐﾖｼ","pref":"岡山県","city":"岡山市中区","address":"海吉"},
{"zip_code":"7038237","kana_pref":"ｵｶﾔﾏｹﾝ","kana_city":"ｵｶﾔﾏｼﾅｶｸ","kana_address":"ﾓﾘｼﾀﾁｮｳ","pref":"岡山県","city":"岡山市中区","address":"森下町"},
{"zip_code":"7038254","kana_pref":"ｵｶﾔﾏｹﾝ","kana_city":"ｵｶﾔﾏｼﾅｶｸ","kana_address":"ﾔﾊﾀ","pref":"岡山県","city":"岡山市中区","address":"八幡"},
{"zip_code":"7038253","kana_pref":"ｵｶﾔﾏｹﾝ","kana_city":"ｵｶﾔﾏｼﾅｶｸ","kana_address":"ﾔﾊﾀﾋｶﾞｼﾏﾁ","pref":"岡山県","city":"岡山市中区","address":"八幡東町"},
{"zip_code":"7038267","kana_pref":"ｵｶﾔﾏｹﾝ","kana_city":"ｵｶﾔﾏｼﾅｶｸ","kana_address":"ﾔﾏｻｷ","pref":"岡山県","city":"岡山市中区","address":"山崎"},
{"zip_code":"7038202","kana_pref":"ｵｶﾔﾏｹﾝ","kana_city":"ｵｶﾔﾏｼﾅｶｸ","kana_address":"ﾕﾊﾞ","pref":"岡山県","city":"岡山市中区","address":"湯迫"},
{"zip_code":"7038224","kana_pref":"ｵｶﾔﾏｹﾝ","kana_city":"ｵｶﾔﾏｼﾅｶｸ","kana_address":"ﾖﾈﾀﾞ","pref":"岡山県","city":"岡山市中区","address":"米田"},
{"zip_code":"7038214","kana_pref":"ｵｶﾔﾏｹﾝ","kana_city":"ｵｶﾔﾏｼﾋｶﾞｼｸ","kana_address":"ｸﾛｶﾞﾈ","pref":"岡山県","city":"岡山市東区","address":"鉄"},
{"zip_code":"7038212","kana_pref":"ｵｶﾔﾏｹﾝ","kana_city":"ｵｶﾔﾏｼﾋｶﾞｼｸ","kana_address":"ｺｽﾞｼｭｸ","pref":"岡山県","city":"岡山市東区","address":"古都宿"},
{"zip_code":"7038215","kana_pref":"ｵｶﾔﾏｹﾝ","kana_city":"ｵｶﾔﾏｼﾋｶﾞｼｸ","kana_address":"ｺｽﾞﾐﾅﾐｶﾞﾀ","pref":"岡山県","city":"岡山市東区","address":"古都南方"},
{"zip_code":"7038216","kana_pref":"ｵｶﾔﾏｹﾝ","kana_city":"ｵｶﾔﾏｼﾋｶﾞｼｸ","kana_address":"ｼｼﾞｶｲ","pref":"岡山県","city":"岡山市東区","address":"宍甘"},
{"zip_code":"7038213","kana_pref":"ｵｶﾔﾏｹﾝ","kana_city":"ｵｶﾔﾏｼﾋｶﾞｼｸ","kana_address":"ﾌｼﾞｲ","pref":"岡山県","city":"岡山市東区","address":"藤井"},
{"zip_code":"7038211","kana_pref":"ｵｶﾔﾏｹﾝ","kana_city":"ｵｶﾔﾏｼﾋｶﾞｼｸ","kana_address":"ﾔﾂﾞ","pref":"岡山県","city":"岡山市東区","address":"矢津"}]}