{"zip_code":[
{"zip_code":"7050000","kana_pref":"ｵｶﾔﾏｹﾝ","kana_city":"ﾋﾞｾﾞﾝｼ","kana_address":"","pref":"岡山県","city":"備前市","address":""},
{"zip_code":"7050032","kana_pref":"ｵｶﾔﾏｹﾝ","kana_city":"ﾋﾞｾﾞﾝｼ","kana_address":"ｱｿｳﾅ","pref":"岡山県","city":"備前市","address":"麻宇那"},
{"zip_code":"7050023","kana_pref":"ｵｶﾔﾏｹﾝ","kana_city":"ﾋﾞｾﾞﾝｼ","kana_address":"ｲﾘﾅｶ","pref":"岡山県","city":"備前市","address":"伊里中"},
{"zip_code":"7050001","kana_pref":"ｵｶﾔﾏｹﾝ","kana_city":"ﾋﾞｾﾞﾝｼ","kana_address":"ｲﾝﾍﾞ","pref":"岡山県","city":"備前市","address":"伊部"},
{"zip_code":"7050002","kana_pref":"ｵｶﾔﾏｹﾝ","kana_city":"ﾋﾞｾﾞﾝｼ","kana_address":"ｳﾗｲﾝﾍﾞ","pref":"岡山県","city":"備前市","address":"浦伊部"},
{"zip_code":"7050003","kana_pref":"ｵｶﾔﾏｹﾝ","kana_city":"ﾋﾞｾﾞﾝｼ","kana_address":"ｵｵﾁ","pref":"岡山県","city":"備前市","address":"大内"},
{"zip_code":"7050012","kana_pref":"ｵｶﾔﾏｹﾝ","kana_city":"ﾋﾞｾﾞﾝｼ","kana_address":"ｶｶﾞﾄﾓﾄ","pref":"岡山県","city":"備前市","address":"香登本"},
{"zip_code":"7050011","kana_pref":"ｵｶﾔﾏｹﾝ","kana_city":"ﾋﾞｾﾞﾝｼ","kana_address":"ｶｶﾞﾄﾆｼ","pref":"岡山県","city":"備前市","address":"香登西"},
{"zip_code":"7050035","kana_pref":"ｵｶﾔﾏｹﾝ","kana_city":"ﾋﾞｾﾞﾝｼ","kana_address":"ｷﾀﾞﾆ","pref":"岡山県","city":"備前市","address":"木谷"},
{"zip_code":"7050024","kana_pref":"ｵｶﾔﾏｹﾝ","kana_city":"ﾋﾞｾﾞﾝｼ","kana_address":"ｸｸﾞｲ","pref":"岡山県","city":"備前市","address":"久々井"},
{"zip_code":"7050016","kana_pref":"ｵｶﾔﾏｹﾝ","kana_city":"ﾋﾞｾﾞﾝｼ","kana_address":"ｻｶﾈ","pref":"岡山県","city":"備前市","address":"坂根"},
{"zip_code":"7050026","kana_pref":"ｵｶﾔﾏｹﾝ","kana_city":"ﾋﾞｾﾞﾝｼ","kana_address":"ｻﾔﾏ","pref":"岡山県","city":"備前市","address":"佐山"},
{"zip_code":"7050031","kana_pref":"ｵｶﾔﾏｹﾝ","kana_city":"ﾋﾞｾﾞﾝｼ","kana_address":"ｼｹﾞﾔﾏ","pref":"岡山県","city":"備前市","address":"蕃山"},
{"zip_code":"7050036","kana_pref":"ｵｶﾔﾏｹﾝ","kana_city":"ﾋﾞｾﾞﾝｼ","kana_address":"ｼｽﾞﾀﾆ","pref":"岡山県","city":"備前市","address":"閑谷"},
{"zip_code":"7050014","kana_pref":"ｵｶﾔﾏｹﾝ","kana_city":"ﾋﾞｾﾞﾝｼ","kana_address":"ｼﾝｼﾞｮｳ","pref":"岡山県","city":"備前市","address":"新庄"},
{"zip_code":"7050025","kana_pref":"ｵｶﾔﾏｹﾝ","kana_city":"ﾋﾞｾﾞﾝｼ","kana_address":"ﾂﾙﾐ","pref":"岡山県","city":"備前市","address":"鶴海"},
{"zip_code":"7050034","kana_pref":"ｵｶﾔﾏｹﾝ","kana_city":"ﾋﾞｾﾞﾝｼ","kana_address":"ﾄﾓﾉﾌﾞ","pref":"岡山県","city":"備前市","address":"友延"},
{"zip_code":"7050021","kana_pref":"ｵｶﾔﾏｹﾝ","kana_city":"ﾋﾞｾﾞﾝｼ","kana_address":"ﾆｼｶﾀｶﾐ","pref":"岡山県","city":"備前市","address":"西片上"},
{"zip_code":"7050131","kana_pref":"ｵｶﾔﾏｹﾝ","kana_city":"ﾋﾞｾﾞﾝｼ","kana_address":"ﾉﾀﾞﾆ","pref":"岡山県","city":"備前市","address":"野谷"},
{"zip_code":"7050015","kana_pref":"ｵｶﾔﾏｹﾝ","kana_city":"ﾋﾞｾﾞﾝｼ","kana_address":"ﾊﾀｹﾀﾞ","pref":"岡山県","city":"備前市","address":"畠田"},
{"zip_code":"7050022","kana_pref":"ｵｶﾔﾏｹﾝ","kana_city":"ﾋﾞｾﾞﾝｼ","kana_address":"ﾋｶﾞｼｶﾀｶﾐ","pref":"岡山県","city":"備前市","address":"東片上"},
{"zip_code":"7050013","kana_pref":"ｵｶﾔﾏｹﾝ","kana_city":"ﾋﾞｾﾞﾝｼ","kana_address":"ﾌｸﾀﾞ","pref":"岡山県","city":"備前市","address":"福田"},
{"zip_code":"7050033","kana_pref":"ｵｶﾔﾏｹﾝ","kana_city":"ﾋﾞｾﾞﾝｼ","kana_address":"ﾎﾅﾐ","pref":"岡山県","city":"備前市","address":"穂浪"},
{"zip_code":"7050132","kana_pref":"ｵｶﾔﾏｹﾝ","kana_city":"ﾋﾞｾﾞﾝｼ","kana_address":"ﾐﾂｲｼ","pref":"岡山県","city":"備前市","address":"三石"},
{"zip_code":"7050133","kana_pref":"ｵｶﾔﾏｹﾝ","kana_city":"ﾋﾞｾﾞﾝｼ","kana_address":"ﾔｷﾔﾏ","pref":"岡山県","city":"備前市","address":"八木山"}]}