{"zip_code":[
{"zip_code":"7080000","kana_pref":"ｵｶﾔﾏｹﾝ","kana_city":"ﾂﾔﾏｼ","kana_address":"","pref":"岡山県","city":"津山市","address":""},
{"zip_code":"7081104","kana_pref":"ｵｶﾔﾏｹﾝ","kana_city":"ﾂﾔﾏｼ","kana_address":"ｱﾔﾍﾞ","pref":"岡山県","city":"津山市","address":"綾部"},
{"zip_code":"7080852","kana_pref":"ｵｶﾔﾏｹﾝ","kana_city":"ﾂﾔﾏｼ","kana_address":"ｲｹｶﾞﾊﾗ","pref":"岡山県","city":"津山市","address":"池ケ原"},
{"zip_code":"7080815","kana_pref":"ｵｶﾔﾏｹﾝ","kana_city":"ﾂﾔﾏｼ","kana_address":"ｲﾁﾉﾐﾔ","pref":"岡山県","city":"津山市","address":"一宮"},
{"zip_code":"7081206","kana_pref":"ｵｶﾔﾏｹﾝ","kana_city":"ﾂﾔﾏｼ","kana_address":"ｲﾁﾊﾞ","pref":"岡山県","city":"津山市","address":"市場"},
{"zip_code":"7080883","kana_pref":"ｵｶﾔﾏｹﾝ","kana_city":"ﾂﾔﾏｼ","kana_address":"ｲｯﾎﾟｳ","pref":"岡山県","city":"津山市","address":"一方"},
{"zip_code":"7080885","kana_pref":"ｵｶﾔﾏｹﾝ","kana_city":"ﾂﾔﾏｼ","kana_address":"ｲﾉｸﾁ","pref":"岡山県","city":"津山市","address":"井口"},
{"zip_code":"7080014","kana_pref":"ｵｶﾔﾏｹﾝ","kana_city":"ﾂﾔﾏｼ","kana_address":"ｲﾝﾉｼｮｳ","pref":"岡山県","city":"津山市","address":"院庄"},
{"zip_code":"7080831","kana_pref":"ｵｶﾔﾏｹﾝ","kana_city":"ﾂﾔﾏｼ","kana_address":"ｳｴﾉﾁｮｳ","pref":"岡山県","city":"津山市","address":"上之町"},
{"zip_code":"7080844","kana_pref":"ｵｶﾔﾏｹﾝ","kana_city":"ﾂﾔﾏｼ","kana_address":"ｳﾘｭｳﾊﾞﾗ","pref":"岡山県","city":"津山市","address":"瓜生原"},
{"zip_code":"7081202","kana_pref":"ｵｶﾔﾏｹﾝ","kana_city":"ﾂﾔﾏｼ","kana_address":"ｵｵｲﾜ","pref":"岡山県","city":"津山市","address":"大岩"},
{"zip_code":"7080802","kana_pref":"ｵｶﾔﾏｹﾝ","kana_city":"ﾂﾔﾏｼ","kana_address":"ｵｵｻｻ","pref":"岡山県","city":"津山市","address":"大篠"},
{"zip_code":"7080882","kana_pref":"ｵｶﾔﾏｹﾝ","kana_city":"ﾂﾔﾏｼ","kana_address":"ｵｵﾀﾆ","pref":"岡山県","city":"津山市","address":"大谷"},
{"zip_code":"7080806","kana_pref":"ｵｶﾔﾏｹﾝ","kana_city":"ﾂﾔﾏｼ","kana_address":"ｵｵﾀﾞ","pref":"岡山県","city":"津山市","address":"大田"},
{"zip_code":"7080023","kana_pref":"ｵｶﾔﾏｹﾝ","kana_city":"ﾂﾔﾏｼ","kana_address":"ｵｵﾃﾏﾁ","pref":"岡山県","city":"津山市","address":"大手町"},
{"zip_code":"7081203","kana_pref":"ｵｶﾔﾏｹﾝ","kana_city":"ﾂﾔﾏｼ","kana_address":"ｵｵﾖｼ","pref":"岡山県","city":"津山市","address":"大吉"},
{"zip_code":"7081201","kana_pref":"ｵｶﾔﾏｹﾝ","kana_city":"ﾂﾔﾏｼ","kana_address":"ｵｸﾂｶﾞﾜ","pref":"岡山県","city":"津山市","address":"奥津川"},
{"zip_code":"7080066","kana_pref":"ｵｶﾔﾏｹﾝ","kana_city":"ﾂﾔﾏｼ","kana_address":"ｵｹﾔﾏﾁ","pref":"岡山県","city":"津山市","address":"桶屋町"},
{"zip_code":"7080863","kana_pref":"ｵｶﾔﾏｹﾝ","kana_city":"ﾂﾔﾏｼ","kana_address":"ｵｹﾞﾀ","pref":"岡山県","city":"津山市","address":"小桁"},
{"zip_code":"7081126","kana_pref":"ｵｶﾔﾏｹﾝ","kana_city":"ﾂﾔﾏｼ","kana_address":"ｵｼｲﾚ","pref":"岡山県","city":"津山市","address":"押入"},
{"zip_code":"7080865","kana_pref":"ｵｶﾔﾏｹﾝ","kana_city":"ﾂﾔﾏｼ","kana_address":"ｵｼﾌﾞﾁ","pref":"岡山県","city":"津山市","address":"押渕"},
{"zip_code":"7080006","kana_pref":"ｵｶﾔﾏｹﾝ","kana_city":"ﾂﾔﾏｼ","kana_address":"ｵﾀﾞﾅｶ","pref":"岡山県","city":"津山市","address":"小田中"},
{"zip_code":"7080001","kana_pref":"ｵｶﾔﾏｹﾝ","kana_city":"ﾂﾔﾏｼ","kana_address":"ｵﾊﾞﾗ","pref":"岡山県","city":"津山市","address":"小原"},
{"zip_code":"7080077","kana_pref":"ｵｶﾔﾏｹﾝ","kana_city":"ﾂﾔﾏｼ","kana_address":"ｶｼﾞﾏﾁ","pref":"岡山県","city":"津山市","address":"鍛治町"},
{"zip_code":"7080804","kana_pref":"ｵｶﾔﾏｹﾝ","kana_city":"ﾂﾔﾏｼ","kana_address":"ｶﾂﾍﾞ","pref":"岡山県","city":"津山市","address":"勝部"},
{"zip_code":"7080835","kana_pref":"ｵｶﾔﾏｹﾝ","kana_city":"ﾂﾔﾏｼ","kana_address":"ｶﾂﾏﾀﾞﾏﾁ","pref":"岡山県","city":"津山市","address":"勝間田町"},
{"zip_code":"7080855","kana_pref":"ｵｶﾔﾏｹﾝ","kana_city":"ﾂﾔﾏｼ","kana_address":"ｶﾅｲ","pref":"岡山県","city":"津山市","address":"金井"},
{"zip_code":"7080864","kana_pref":"ｵｶﾔﾏｹﾝ","kana_city":"ﾂﾔﾏｼ","kana_address":"ｶﾅﾔ","pref":"岡山県","city":"津山市","address":"金屋"},
{"zip_code":"7080002","kana_pref":"ｵｶﾔﾏｹﾝ","kana_city":"ﾂﾔﾏｼ","kana_address":"ｶﾐｶﾞﾜﾗ","pref":"岡山県","city":"津山市","address":"上河原"},
{"zip_code":"7080076","kana_pref":"ｵｶﾔﾏｹﾝ","kana_city":"ﾂﾔﾏｼ","kana_address":"ｶﾐｺｳﾔﾏﾁ","pref":"岡山県","city":"津山市","address":"上紺屋町"},
{"zip_code":"7081121","kana_pref":"ｵｶﾔﾏｹﾝ","kana_city":"ﾂﾔﾏｼ","kana_address":"ｶﾐﾀｶｸﾗ","pref":"岡山県","city":"津山市","address":"上高倉"},
{"zip_code":"7080011","kana_pref":"ｵｶﾔﾏｹﾝ","kana_city":"ﾂﾔﾏｼ","kana_address":"ｶﾐﾀﾉﾑﾗ","pref":"岡山県","city":"津山市","address":"上田邑"},
{"zip_code":"7081214","kana_pref":"ｵｶﾔﾏｹﾝ","kana_city":"ﾂﾔﾏｼ","kana_address":"ｶﾐﾉﾀﾞ","pref":"岡山県","city":"津山市","address":"上野田"},
{"zip_code":"7081224","kana_pref":"ｵｶﾔﾏｹﾝ","kana_city":"ﾂﾔﾏｼ","kana_address":"ｶﾐﾑﾗ","pref":"岡山県","city":"津山市","address":"上村"},
{"zip_code":"7080801","kana_pref":"ｵｶﾔﾏｹﾝ","kana_city":"ﾂﾔﾏｼ","kana_address":"ｶﾐﾖｺﾉ","pref":"岡山県","city":"津山市","address":"上横野"},
{"zip_code":"7081201","kana_pref":"ｵｶﾔﾏｹﾝ","kana_city":"ﾂﾔﾏｼ","kana_address":"ｶﾓﾁｮｳｼﾓﾂｶﾞﾜ","pref":"岡山県","city":"津山市","address":"加茂町下津川"},
{"zip_code":"7080043","kana_pref":"ｵｶﾔﾏｹﾝ","kana_city":"ﾂﾔﾏｼ","kana_address":"ｶﾔﾏﾁ","pref":"岡山県","city":"津山市","address":"茅町"},
{"zip_code":"7080841","kana_pref":"ｵｶﾔﾏｹﾝ","kana_city":"ﾂﾔﾏｼ","kana_address":"ｶﾜｻｷ","pref":"岡山県","city":"津山市","address":"川崎"},
{"zip_code":"7080842","kana_pref":"ｵｶﾔﾏｹﾝ","kana_city":"ﾂﾔﾏｼ","kana_address":"ｶﾜﾅﾍﾞ","pref":"岡山県","city":"津山市","address":"河辺"},
{"zip_code":"7080033","kana_pref":"ｵｶﾔﾏｹﾝ","kana_city":"ﾂﾔﾏｼ","kana_address":"ｶﾜﾗﾏﾁ","pref":"岡山県","city":"津山市","address":"河原町"},
{"zip_code":"7080003","kana_pref":"ｵｶﾔﾏｹﾝ","kana_city":"ﾂﾔﾏｼ","kana_address":"ｷﾀｿﾞﾉﾁｮｳ","pref":"岡山県","city":"津山市","address":"北園町"},
{"zip_code":"7080021","kana_pref":"ｵｶﾔﾏｹﾝ","kana_city":"ﾂﾔﾏｼ","kana_address":"ｷﾀﾏﾁ","pref":"岡山県","city":"津山市","address":"北町"},
{"zip_code":"7080062","kana_pref":"ｵｶﾔﾏｹﾝ","kana_city":"ﾂﾔﾏｼ","kana_address":"ｷｮｳﾏﾁ","pref":"岡山県","city":"津山市","address":"京町"},
{"zip_code":"7081117","kana_pref":"ｵｶﾔﾏｹﾝ","kana_city":"ﾂﾔﾏｼ","kana_address":"ｸｻｶﾍﾞ","pref":"岡山県","city":"津山市","address":"草加部"},
{"zip_code":"7080866","kana_pref":"ｵｶﾔﾏｹﾝ","kana_city":"ﾂﾔﾏｼ","kana_address":"ｺｳｼﾞﾝﾔﾏ","pref":"岡山県","city":"津山市","address":"荒神山"},
{"zip_code":"7081115","kana_pref":"ｵｶﾔﾏｹﾝ","kana_city":"ﾂﾔﾏｼ","kana_address":"ｺｳﾓ","pref":"岡山県","city":"津山市","address":"河面"},
{"zip_code":"7080843","kana_pref":"ｵｶﾔﾏｹﾝ","kana_city":"ﾂﾔﾏｼ","kana_address":"ｺｸﾌﾞﾝｼﾞ","pref":"岡山県","city":"津山市","address":"国分寺"},
{"zip_code":"7080063","kana_pref":"ｵｶﾔﾏｹﾝ","kana_city":"ﾂﾔﾏｼ","kana_address":"ｺｼｮｳﾏﾁ","pref":"岡山県","city":"津山市","address":"小性町"},
{"zip_code":"7080053","kana_pref":"ｵｶﾔﾏｹﾝ","kana_city":"ﾂﾔﾏｼ","kana_address":"ｻｲｸﾉﾁｮｳ","pref":"岡山県","city":"津山市","address":"細工町"},
{"zip_code":"7080031","kana_pref":"ｵｶﾔﾏｹﾝ","kana_city":"ﾂﾔﾏｼ","kana_address":"ｻﾞｲﾓｸﾏﾁ","pref":"岡山県","city":"津山市","address":"材木町"},
{"zip_code":"7080064","kana_pref":"ｵｶﾔﾏｹﾝ","kana_city":"ﾂﾔﾏｼ","kana_address":"ｻｶｲﾏﾁ","pref":"岡山県","city":"津山市","address":"堺町"},
{"zip_code":"7081223","kana_pref":"ｵｶﾔﾏｹﾝ","kana_city":"ﾂﾔﾏｼ","kana_address":"ｻｶｳｴ","pref":"岡山県","city":"津山市","address":"坂上"},
{"zip_code":"7080873","kana_pref":"ｵｶﾔﾏｹﾝ","kana_city":"ﾂﾔﾏｼ","kana_address":"ｻﾗ","pref":"岡山県","city":"津山市","address":"皿"},
{"zip_code":"7080022","kana_pref":"ｵｶﾔﾏｹﾝ","kana_city":"ﾂﾔﾏｼ","kana_address":"ｻﾝｹﾞ","pref":"岡山県","city":"津山市","address":"山下"},
{"zip_code":"7080825","kana_pref":"ｵｶﾔﾏｹﾝ","kana_city":"ﾂﾔﾏｼ","kana_address":"ｼﾄﾍﾞ","pref":"岡山県","city":"津山市","address":"志戸部"},
{"zip_code":"7080805","kana_pref":"ｵｶﾔﾏｹﾝ","kana_city":"ﾂﾔﾏｼ","kana_address":"ｼﾎﾞｲ","pref":"岡山県","city":"津山市","address":"紫保井"},
{"zip_code":"7080071","kana_pref":"ｵｶﾔﾏｹﾝ","kana_city":"ﾂﾔﾏｼ","kana_address":"ｼﾓｺｳﾔﾏﾁ","pref":"岡山県","city":"津山市","address":"下紺屋町"},
{"zip_code":"7081122","kana_pref":"ｵｶﾔﾏｹﾝ","kana_city":"ﾂﾔﾏｼ","kana_address":"ｼﾓﾀｶｸﾗﾋｶﾞｼ","pref":"岡山県","city":"津山市","address":"下高倉東"},
{"zip_code":"7081123","kana_pref":"ｵｶﾔﾏｹﾝ","kana_city":"ﾂﾔﾏｼ","kana_address":"ｼﾓﾀｶｸﾗﾆｼ","pref":"岡山県","city":"津山市","address":"下高倉西"},
{"zip_code":"7080012","kana_pref":"ｵｶﾔﾏｹﾝ","kana_city":"ﾂﾔﾏｼ","kana_address":"ｼﾓﾀﾉﾑﾗ","pref":"岡山県","city":"津山市","address":"下田邑"},
{"zip_code":"7081213","kana_pref":"ｵｶﾔﾏｹﾝ","kana_city":"ﾂﾔﾏｼ","kana_address":"ｼﾓﾉﾀﾞ","pref":"岡山県","city":"津山市","address":"下野田"},
{"zip_code":"7080807","kana_pref":"ｵｶﾔﾏｹﾝ","kana_city":"ﾂﾔﾏｼ","kana_address":"ｼﾓﾖｺﾉ","pref":"岡山県","city":"津山市","address":"下横野"},
{"zip_code":"7080005","kana_pref":"ｵｶﾔﾏｹﾝ","kana_city":"ﾂﾔﾏｼ","kana_address":"ｼﾞｮｳﾀﾞｲﾏﾁ","pref":"岡山県","city":"津山市","address":"城代町"},
{"zip_code":"7080886","kana_pref":"ｵｶﾔﾏｹﾝ","kana_city":"ﾂﾔﾏｼ","kana_address":"ｼｮｳﾜﾏﾁ","pref":"岡山県","city":"津山市","address":"昭和町"},
{"zip_code":"7080065","kana_pref":"ｵｶﾔﾏｹﾝ","kana_city":"ﾂﾔﾏｼ","kana_address":"ｼﾝｳｵﾏﾁ","pref":"岡山県","city":"津山市","address":"新魚町"},
{"zip_code":"7080042","kana_pref":"ｵｶﾔﾏｹﾝ","kana_city":"ﾂﾔﾏｼ","kana_address":"ｼﾝｶﾔﾏﾁ","pref":"岡山県","city":"津山市","address":"新茅町"},
{"zip_code":"7080015","kana_pref":"ｵｶﾔﾏｹﾝ","kana_city":"ﾂﾔﾏｼ","kana_address":"ｼﾞﾝｺﾞ","pref":"岡山県","city":"津山市","address":"神戸"},
{"zip_code":"7080067","kana_pref":"ｵｶﾔﾏｹﾝ","kana_city":"ﾂﾔﾏｼ","kana_address":"ｼﾝｼｮｸﾆﾝﾏﾁ","pref":"岡山県","city":"津山市","address":"新職人町"},
{"zip_code":"7081215","kana_pref":"ｵｶﾔﾏｹﾝ","kana_city":"ﾂﾔﾏｼ","kana_address":"ｽｷﾞﾉﾐﾔ","pref":"岡山県","city":"津山市","address":"杉宮"},
{"zip_code":"7080034","kana_pref":"ｵｶﾔﾏｹﾝ","kana_city":"ﾂﾔﾏｼ","kana_address":"ｾﾝﾄﾞｳﾏﾁ","pref":"岡山県","city":"津山市","address":"船頭町"},
{"zip_code":"7080007","kana_pref":"ｵｶﾔﾏｹﾝ","kana_city":"ﾂﾔﾏｼ","kana_address":"ｿｳｼﾞｬ","pref":"岡山県","city":"津山市","address":"総社"},
{"zip_code":"7080876","kana_pref":"ｵｶﾔﾏｹﾝ","kana_city":"ﾂﾔﾏｼ","kana_address":"ﾀｶｵ","pref":"岡山県","city":"津山市","address":"高尾"},
{"zip_code":"7081125","kana_pref":"ｵｶﾔﾏｹﾝ","kana_city":"ﾂﾔﾏｼ","kana_address":"ﾀｶﾉﾎﾝｺﾞｳ","pref":"岡山県","city":"津山市","address":"高野本郷"},
{"zip_code":"7081124","kana_pref":"ｵｶﾔﾏｹﾝ","kana_city":"ﾂﾔﾏｼ","kana_address":"ﾀｶﾉﾔﾏﾆｼ","pref":"岡山県","city":"津山市","address":"高野山西"},
{"zip_code":"7080874","kana_pref":"ｵｶﾔﾏｹﾝ","kana_city":"ﾂﾔﾏｼ","kana_address":"ﾀﾈ","pref":"岡山県","city":"津山市","address":"種"},
{"zip_code":"7081113","kana_pref":"ｵｶﾔﾏｹﾝ","kana_city":"ﾂﾔﾏｼ","kana_address":"ﾀﾉｸﾏ","pref":"岡山県","city":"津山市","address":"田熊"},
{"zip_code":"7080052","kana_pref":"ｵｶﾔﾏｹﾝ","kana_city":"ﾂﾔﾏｼ","kana_address":"ﾀﾏﾁ","pref":"岡山県","city":"津山市","address":"田町"},
{"zip_code":"7081112","kana_pref":"ｵｶﾔﾏｹﾝ","kana_city":"ﾂﾔﾏｼ","kana_address":"ﾁｶﾅｶﾞ","pref":"岡山県","city":"津山市","address":"近長"},
{"zip_code":"7080051","kana_pref":"ｵｶﾔﾏｹﾝ","kana_city":"ﾂﾔﾏｼ","kana_address":"ﾂﾊﾞｷｺｳｹﾞ","pref":"岡山県","city":"津山市","address":"椿高下"},
{"zip_code":"7080075","kana_pref":"ｵｶﾔﾏｹﾝ","kana_city":"ﾂﾔﾏｼ","kana_address":"ﾂﾎﾞｲﾏﾁ","pref":"岡山県","city":"津山市","address":"坪井町"},
{"zip_code":"7080884","kana_pref":"ｵｶﾔﾏｹﾝ","kana_city":"ﾂﾔﾏｼ","kana_address":"ﾂﾔﾏｸﾞﾁ","pref":"岡山県","city":"津山市","address":"津山口"},
{"zip_code":"7080041","kana_pref":"ｵｶﾔﾏｹﾝ","kana_city":"ﾂﾔﾏｼ","kana_address":"ﾃｯﾎﾟｳﾏﾁ","pref":"岡山県","city":"津山市","address":"鉄砲町"},
{"zip_code":"7080853","kana_pref":"ｵｶﾔﾏｹﾝ","kana_city":"ﾂﾔﾏｼ","kana_address":"ﾄﾞｳﾉｵ","pref":"岡山県","city":"津山市","address":"堂尾"},
{"zip_code":"7080037","kana_pref":"ｵｶﾔﾏｹﾝ","kana_city":"ﾂﾔﾏｼ","kana_address":"ﾄｶﾞﾜﾏﾁ","pref":"岡山県","city":"津山市","address":"戸川町"},
{"zip_code":"7080016","kana_pref":"ｵｶﾔﾏｹﾝ","kana_city":"ﾂﾔﾏｼ","kana_address":"ﾄｼﾏ","pref":"岡山県","city":"津山市","address":"戸島"},
{"zip_code":"7080871","kana_pref":"ｵｶﾔﾏｹﾝ","kana_city":"ﾂﾔﾏｼ","kana_address":"ﾅｶｼﾏ","pref":"岡山県","city":"津山市","address":"中島"},
{"zip_code":"7080834","kana_pref":"ｵｶﾔﾏｹﾝ","kana_city":"ﾂﾔﾏｼ","kana_address":"ﾅｶﾉﾁｮｳ","pref":"岡山県","city":"津山市","address":"中之町"},
{"zip_code":"7080854","kana_pref":"ｵｶﾔﾏｹﾝ","kana_city":"ﾂﾔﾏｼ","kana_address":"ﾅｶﾊﾞﾗ","pref":"岡山県","city":"津山市","address":"中原"},
{"zip_code":"7081216","kana_pref":"ｵｶﾔﾏｹﾝ","kana_city":"ﾂﾔﾏｼ","kana_address":"ﾅｶﾑﾗ","pref":"岡山県","city":"津山市","address":"中村"},
{"zip_code":"7081111","kana_pref":"ｵｶﾔﾏｹﾝ","kana_city":"ﾂﾔﾏｼ","kana_address":"ﾅﾗ","pref":"岡山県","city":"津山市","address":"楢"},
{"zip_code":"7080851","kana_pref":"ｵｶﾔﾏｹﾝ","kana_city":"ﾂﾔﾏｼ","kana_address":"ﾆｲﾀﾞ","pref":"岡山県","city":"津山市","address":"新田"},
{"zip_code":"7081205","kana_pref":"ｵｶﾔﾏｹﾝ","kana_city":"ﾂﾔﾏｼ","kana_address":"ﾆｲﾉﾋｶﾞｼ","pref":"岡山県","city":"津山市","address":"新野東"},
{"zip_code":"7081226","kana_pref":"ｵｶﾔﾏｹﾝ","kana_city":"ﾂﾔﾏｼ","kana_address":"ﾆｲﾉﾔﾏｶﾞﾀ","pref":"岡山県","city":"津山市","address":"新野山形"},
{"zip_code":"7080024","kana_pref":"ｵｶﾔﾏｹﾝ","kana_city":"ﾂﾔﾏｼ","kana_address":"ﾆｶｲﾏﾁ","pref":"岡山県","city":"津山市","address":"二階町"},
{"zip_code":"7080046","kana_pref":"ｵｶﾔﾏｹﾝ","kana_city":"ﾂﾔﾏｼ","kana_address":"ﾆｼｲﾏﾏﾁ","pref":"岡山県","city":"津山市","address":"西今町"},
{"zip_code":"7081221","kana_pref":"ｵｶﾔﾏｹﾝ","kana_city":"ﾂﾔﾏｼ","kana_address":"ﾆｼｶﾐ","pref":"岡山県","city":"津山市","address":"西上"},
{"zip_code":"7081225","kana_pref":"ｵｶﾔﾏｹﾝ","kana_city":"ﾂﾔﾏｼ","kana_address":"ﾆｼｼﾓ","pref":"岡山県","city":"津山市","address":"西下"},
{"zip_code":"7080833","kana_pref":"ｵｶﾔﾏｹﾝ","kana_city":"ﾂﾔﾏｼ","kana_address":"ﾆｼｼﾝﾏﾁ","pref":"岡山県","city":"津山市","address":"西新町"},
{"zip_code":"7080811","kana_pref":"ｵｶﾔﾏｹﾝ","kana_city":"ﾂﾔﾏｼ","kana_address":"ﾆｼﾀﾅﾍﾞ","pref":"岡山県","city":"津山市","address":"西田辺"},
{"zip_code":"7080045","kana_pref":"ｵｶﾔﾏｹﾝ","kana_city":"ﾂﾔﾏｼ","kana_address":"ﾆｼﾃﾗﾏﾁ","pref":"岡山県","city":"津山市","address":"西寺町"},
{"zip_code":"7081222","kana_pref":"ｵｶﾔﾏｹﾝ","kana_city":"ﾂﾔﾏｼ","kana_address":"ﾆｼﾅｶ","pref":"岡山県","city":"津山市","address":"西中"},
{"zip_code":"7080856","kana_pref":"ｵｶﾔﾏｹﾝ","kana_city":"ﾂﾔﾏｼ","kana_address":"ﾆｼﾖｼﾀﾞ","pref":"岡山県","city":"津山市","address":"西吉田"},
{"zip_code":"7080013","kana_pref":"ｵｶﾔﾏｹﾝ","kana_city":"ﾂﾔﾏｼ","kana_address":"ﾆﾉﾐﾔ","pref":"岡山県","city":"津山市","address":"二宮"},
{"zip_code":"7081204","kana_pref":"ｵｶﾔﾏｹﾝ","kana_city":"ﾂﾔﾏｼ","kana_address":"ﾆﾎﾝﾊﾞﾗ","pref":"岡山県","city":"津山市","address":"日本原"},
{"zip_code":"7080824","kana_pref":"ｵｶﾔﾏｹﾝ","kana_city":"ﾂﾔﾏｼ","kana_address":"ﾇﾏ","pref":"岡山県","city":"津山市","address":"沼"},
{"zip_code":"7080821","kana_pref":"ｵｶﾔﾏｹﾝ","kana_city":"ﾂﾔﾏｼ","kana_address":"ﾉｹﾀﾞ","pref":"岡山県","city":"津山市","address":"野介代"},
{"zip_code":"7081116","kana_pref":"ｵｶﾔﾏｹﾝ","kana_city":"ﾂﾔﾏｼ","kana_address":"ﾉﾑﾗ","pref":"岡山県","city":"津山市","address":"野村"},
{"zip_code":"7080822","kana_pref":"ｵｶﾔﾏｹﾝ","kana_city":"ﾂﾔﾏｼ","kana_address":"ﾊｲﾀﾞ","pref":"岡山県","city":"津山市","address":"林田"},
{"zip_code":"7080836","kana_pref":"ｵｶﾔﾏｹﾝ","kana_city":"ﾂﾔﾏｼ","kana_address":"ﾊｲﾀﾞﾏﾁ","pref":"岡山県","city":"津山市","address":"林田町"},
{"zip_code":"7080837","kana_pref":"ｵｶﾔﾏｹﾝ","kana_city":"ﾂﾔﾏｼ","kana_address":"ﾊｼﾓﾄﾏﾁ","pref":"岡山県","city":"津山市","address":"橋本町"},
{"zip_code":"7081211","kana_pref":"ｵｶﾔﾏｹﾝ","kana_city":"ﾂﾔﾏｼ","kana_address":"ﾊﾗ","pref":"岡山県","city":"津山市","address":"原"},
{"zip_code":"7080845","kana_pref":"ｵｶﾔﾏｹﾝ","kana_city":"ﾂﾔﾏｼ","kana_address":"ﾋｶﾐ","pref":"岡山県","city":"津山市","address":"日上"},
{"zip_code":"7080814","kana_pref":"ｵｶﾔﾏｹﾝ","kana_city":"ﾂﾔﾏｼ","kana_address":"ﾋｶﾞｼｲﾁﾉﾐﾔ","pref":"岡山県","city":"津山市","address":"東一宮"},
{"zip_code":"7080832","kana_pref":"ｵｶﾔﾏｹﾝ","kana_city":"ﾂﾔﾏｼ","kana_address":"ﾋｶﾞｼｼﾝﾏﾁ","pref":"岡山県","city":"津山市","address":"東新町"},
{"zip_code":"7080812","kana_pref":"ｵｶﾔﾏｹﾝ","kana_city":"ﾂﾔﾏｼ","kana_address":"ﾋｶﾞｼﾀﾅﾍﾞ","pref":"岡山県","city":"津山市","address":"東田辺"},
{"zip_code":"7080872","kana_pref":"ｵｶﾔﾏｹﾝ","kana_city":"ﾂﾔﾏｼ","kana_address":"ﾋﾗﾌｸ","pref":"岡山県","city":"津山市","address":"平福"},
{"zip_code":"7080035","kana_pref":"ｵｶﾔﾏｹﾝ","kana_city":"ﾂﾔﾏｼ","kana_address":"ﾌｷﾔﾏﾁ","pref":"岡山県","city":"津山市","address":"吹屋町"},
{"zip_code":"7081114","kana_pref":"ｵｶﾔﾏｹﾝ","kana_city":"ﾂﾔﾏｼ","kana_address":"ﾌｸｲ","pref":"岡山県","city":"津山市","address":"福井"},
{"zip_code":"7080875","kana_pref":"ｵｶﾔﾏｹﾝ","kana_city":"ﾂﾔﾏｼ","kana_address":"ﾌｸﾀﾞ","pref":"岡山県","city":"津山市","address":"福田"},
{"zip_code":"7080857","kana_pref":"ｵｶﾔﾏｹﾝ","kana_city":"ﾂﾔﾏｼ","kana_address":"ﾌｸﾘｷ","pref":"岡山県","city":"津山市","address":"福力"},
{"zip_code":"7080074","kana_pref":"ｵｶﾔﾏｹﾝ","kana_city":"ﾂﾔﾏｼ","kana_address":"ﾌｸﾜﾀﾘﾏﾁ","pref":"岡山県","city":"津山市","address":"福渡町"},
{"zip_code":"7080032","kana_pref":"ｵｶﾔﾏｹﾝ","kana_city":"ﾂﾔﾏｼ","kana_address":"ﾌｼﾐﾁｮｳ","pref":"岡山県","city":"津山市","address":"伏見町"},
{"zip_code":"7081103","kana_pref":"ｵｶﾔﾏｹﾝ","kana_city":"ﾂﾔﾏｼ","kana_address":"ﾎﾘｻｶ","pref":"岡山県","city":"津山市","address":"堀坂"},
{"zip_code":"7080073","kana_pref":"ｵｶﾔﾏｹﾝ","kana_city":"ﾂﾔﾏｼ","kana_address":"ﾎﾝﾏﾁ","pref":"岡山県","city":"津山市","address":"本町"},
{"zip_code":"7081101","kana_pref":"ｵｶﾔﾏｹﾝ","kana_city":"ﾂﾔﾏｼ","kana_address":"ﾐｳﾗ","pref":"岡山県","city":"津山市","address":"三浦"},
{"zip_code":"7080036","kana_pref":"ｵｶﾔﾏｹﾝ","kana_city":"ﾂﾔﾏｼ","kana_address":"ﾐﾅﾐｼﾝｻﾞ","pref":"岡山県","city":"津山市","address":"南新座"},
{"zip_code":"7080881","kana_pref":"ｵｶﾔﾏｹﾝ","kana_city":"ﾂﾔﾏｼ","kana_address":"ﾐﾅﾐﾏﾁ","pref":"岡山県","city":"津山市","address":"南町"},
{"zip_code":"7080072","kana_pref":"ｵｶﾔﾏｹﾝ","kana_city":"ﾂﾔﾏｼ","kana_address":"ﾐﾉﾏﾁ","pref":"岡山県","city":"津山市","address":"美濃町"},
{"zip_code":"7080047","kana_pref":"ｵｶﾔﾏｹﾝ","kana_city":"ﾂﾔﾏｼ","kana_address":"ﾐﾔﾜｷﾁｮｳ","pref":"岡山県","city":"津山市","address":"宮脇町"},
{"zip_code":"7081102","kana_pref":"ｵｶﾔﾏｹﾝ","kana_city":"ﾂﾔﾏｼ","kana_address":"ﾐｮｳﾊﾞﾗ","pref":"岡山県","city":"津山市","address":"妙原"},
{"zip_code":"7080061","kana_pref":"ｵｶﾔﾏｹﾝ","kana_city":"ﾂﾔﾏｼ","kana_address":"ﾓﾄｳｵﾏﾁ","pref":"岡山県","city":"津山市","address":"元魚町"},
{"zip_code":"7080803","kana_pref":"ｵｶﾔﾏｹﾝ","kana_city":"ﾂﾔﾏｼ","kana_address":"ﾓﾐﾎ","pref":"岡山県","city":"津山市","address":"籾保"},
{"zip_code":"7080861","kana_pref":"ｵｶﾔﾏｹﾝ","kana_city":"ﾂﾔﾏｼ","kana_address":"ﾔｲﾃﾞ","pref":"岡山県","city":"津山市","address":"八出"},
{"zip_code":"7081212","kana_pref":"ｵｶﾔﾏｹﾝ","kana_city":"ﾂﾔﾏｼ","kana_address":"ﾔｽｲ","pref":"岡山県","city":"津山市","address":"安井"},
{"zip_code":"7080044","kana_pref":"ｵｶﾔﾏｹﾝ","kana_city":"ﾂﾔﾏｼ","kana_address":"ﾔｽｵｶﾏﾁ","pref":"岡山県","city":"津山市","address":"安岡町"},
{"zip_code":"7080813","kana_pref":"ｵｶﾔﾏｹﾝ","kana_city":"ﾂﾔﾏｼ","kana_address":"ﾔﾏｶﾞﾀ","pref":"岡山県","city":"津山市","address":"山方"},
{"zip_code":"7080004","kana_pref":"ｵｶﾔﾏｹﾝ","kana_city":"ﾂﾔﾏｼ","kana_address":"ﾔﾏｷﾀ","pref":"岡山県","city":"津山市","address":"山北"},
{"zip_code":"7080823","kana_pref":"ｵｶﾔﾏｹﾝ","kana_city":"ﾂﾔﾏｼ","kana_address":"ﾔﾖｲﾁｮｳ","pref":"岡山県","city":"津山市","address":"弥生町"},
{"zip_code":"7080862","kana_pref":"ｵｶﾔﾏｹﾝ","kana_city":"ﾂﾔﾏｼ","kana_address":"ﾖｺﾔﾏ","pref":"岡山県","city":"津山市","address":"横山"},
{"zip_code":"7081105","kana_pref":"ｵｶﾔﾏｹﾝ","kana_city":"ﾂﾔﾏｼ","kana_address":"ﾖｼﾐ","pref":"岡山県","city":"津山市","address":"吉見"},
{"zip_code":"7080300","kana_pref":"ｵｶﾔﾏｹﾝ","kana_city":"ﾄﾏﾀｸﾞﾝｶｶﾞﾐﾉﾁｮｳ","kana_address":"","pref":"岡山県","city":"苫田郡鏡野町","address":""},
{"zip_code":"7080421","kana_pref":"ｵｶﾔﾏｹﾝ","kana_city":"ﾄﾏﾀｸﾞﾝｶｶﾞﾐﾉﾁｮｳ","kana_address":"ｲｻﾞｶ","pref":"岡山県","city":"苫田郡鏡野町","address":"井坂"},
{"zip_code":"7080315","kana_pref":"ｵｶﾔﾏｹﾝ","kana_city":"ﾄﾏﾀｸﾞﾝｶｶﾞﾐﾉﾁｮｳ","kana_address":"ｲﾁﾊﾞ","pref":"岡山県","city":"苫田郡鏡野町","address":"市場"},
{"zip_code":"7080351","kana_pref":"ｵｶﾔﾏｹﾝ","kana_city":"ﾄﾏﾀｸﾞﾝｶｶﾞﾐﾉﾁｮｳ","kana_address":"ｲﾘ","pref":"岡山県","city":"苫田郡鏡野町","address":"入"},
{"zip_code":"7080302","kana_pref":"ｵｶﾔﾏｹﾝ","kana_city":"ﾄﾏﾀｸﾞﾝｶｶﾞﾐﾉﾁｮｳ","kana_address":"ｲﾜﾔ","pref":"岡山県","city":"苫田郡鏡野町","address":"岩屋"},
{"zip_code":"7080321","kana_pref":"ｵｶﾔﾏｹﾝ","kana_city":"ﾄﾏﾀｸﾞﾝｶｶﾞﾐﾉﾁｮｳ","kana_address":"ｴﾝｼﾞｭｳｼﾞ","pref":"岡山県","city":"苫田郡鏡野町","address":"円宗寺"},
{"zip_code":"7080704","kana_pref":"ｵｶﾔﾏｹﾝ","kana_city":"ﾄﾏﾀｸﾞﾝｶｶﾞﾐﾉﾁｮｳ","kana_address":"ｵｵ","pref":"岡山県","city":"苫田郡鏡野町","address":"大"},
{"zip_code":"7080303","kana_pref":"ｵｶﾔﾏｹﾝ","kana_city":"ﾄﾏﾀｸﾞﾝｶｶﾞﾐﾉﾁｮｳ","kana_address":"ｵｵﾏﾁ","pref":"岡山県","city":"苫田郡鏡野町","address":"大町"},
{"zip_code":"7080322","kana_pref":"ｵｶﾔﾏｹﾝ","kana_city":"ﾄﾏﾀｸﾞﾝｶｶﾞﾐﾉﾁｮｳ","kana_address":"ｵｷ","pref":"岡山県","city":"苫田郡鏡野町","address":"沖"},
{"zip_code":"7080503","kana_pref":"ｵｶﾔﾏｹﾝ","kana_city":"ﾄﾏﾀｸﾞﾝｶｶﾞﾐﾉﾁｮｳ","kana_address":"ｵｸﾂ","pref":"岡山県","city":"苫田郡鏡野町","address":"奥津"},
{"zip_code":"7080504","kana_pref":"ｵｶﾔﾏｹﾝ","kana_city":"ﾄﾏﾀｸﾞﾝｶｶﾞﾐﾉﾁｮｳ","kana_address":"ｵｸﾂｶﾜﾆｼ","pref":"岡山県","city":"苫田郡鏡野町","address":"奥津川西"},
{"zip_code":"7080363","kana_pref":"ｵｶﾔﾏｹﾝ","kana_city":"ﾄﾏﾀｸﾞﾝｶｶﾞﾐﾉﾁｮｳ","kana_address":"ｵｻﾞ","pref":"岡山県","city":"苫田郡鏡野町","address":"小座"},
{"zip_code":"7080423","kana_pref":"ｵｶﾔﾏｹﾝ","kana_city":"ﾄﾏﾀｸﾞﾝｶｶﾞﾐﾉﾁｮｳ","kana_address":"ｵﾅﾊﾞﾗ","pref":"岡山県","city":"苫田郡鏡野町","address":"女原"},
{"zip_code":"7080312","kana_pref":"ｵｶﾔﾏｹﾝ","kana_city":"ﾄﾏﾀｸﾞﾝｶｶﾞﾐﾉﾁｮｳ","kana_address":"ｶｶﾞﾐ","pref":"岡山県","city":"苫田郡鏡野町","address":"香々美"},
{"zip_code":"7080601","kana_pref":"ｵｶﾔﾏｹﾝ","kana_city":"ﾄﾏﾀｸﾞﾝｶｶﾞﾐﾉﾁｮｳ","kana_address":"ｶﾐｻｲﾊﾞﾗ","pref":"岡山県","city":"苫田郡鏡野町","address":"上齋原"},
{"zip_code":"7080361","kana_pref":"ｵｶﾔﾏｹﾝ","kana_city":"ﾄﾏﾀｸﾞﾝｶｶﾞﾐﾉﾁｮｳ","kana_address":"ｶﾐﾓﾘﾊﾞﾗ","pref":"岡山県","city":"苫田郡鏡野町","address":"上森原"},
{"zip_code":"7080705","kana_pref":"ｵｶﾔﾏｹﾝ","kana_city":"ﾄﾏﾀｸﾞﾝｶｶﾞﾐﾉﾁｮｳ","kana_address":"ｸｽ","pref":"岡山県","city":"苫田郡鏡野町","address":"楠"},
{"zip_code":"7080432","kana_pref":"ｵｶﾔﾏｹﾝ","kana_city":"ﾄﾏﾀｸﾞﾝｶｶﾞﾐﾉﾁｮｳ","kana_address":"ｸﾀｶﾐﾉﾊﾗ","pref":"岡山県","city":"苫田郡鏡野町","address":"久田上原"},
{"zip_code":"7080433","kana_pref":"ｵｶﾔﾏｹﾝ","kana_city":"ﾄﾏﾀｸﾞﾝｶｶﾞﾐﾉﾁｮｳ","kana_address":"ｸﾀｼﾓﾉﾊﾗ","pref":"岡山県","city":"苫田郡鏡野町","address":"久田下原"},
{"zip_code":"7080313","kana_pref":"ｵｶﾔﾏｹﾝ","kana_city":"ﾄﾏﾀｸﾞﾝｶｶﾞﾐﾉﾁｮｳ","kana_address":"ｸﾎｳﾃﾞﾝ","pref":"岡山県","city":"苫田郡鏡野町","address":"公保田"},
{"zip_code":"7080435","kana_pref":"ｵｶﾔﾏｹﾝ","kana_city":"ﾄﾏﾀｸﾞﾝｶｶﾞﾐﾉﾁｮｳ","kana_address":"ｸﾛｷﾞ","pref":"岡山県","city":"苫田郡鏡野町","address":"黒木"},
{"zip_code":"7080431","kana_pref":"ｵｶﾔﾏｹﾝ","kana_city":"ﾄﾏﾀｸﾞﾝｶｶﾞﾐﾉﾁｮｳ","kana_address":"ｺｳﾁ","pref":"岡山県","city":"苫田郡鏡野町","address":"河内"},
{"zip_code":"7080343","kana_pref":"ｵｶﾔﾏｹﾝ","kana_city":"ﾄﾏﾀｸﾞﾝｶｶﾞﾐﾉﾁｮｳ","kana_address":"ｺｳﾓﾄ","pref":"岡山県","city":"苫田郡鏡野町","address":"河本"},
{"zip_code":"7080301","kana_pref":"ｵｶﾔﾏｹﾝ","kana_city":"ﾄﾏﾀｸﾞﾝｶｶﾞﾐﾉﾁｮｳ","kana_address":"ｺｼﾜﾀ","pref":"岡山県","city":"苫田郡鏡野町","address":"越畑"},
{"zip_code":"7080304","kana_pref":"ｵｶﾔﾏｹﾝ","kana_city":"ﾄﾏﾀｸﾞﾝｶｶﾞﾐﾉﾁｮｳ","kana_address":"ｻﾈﾂﾈ","pref":"岡山県","city":"苫田郡鏡野町","address":"真経"},
{"zip_code":"7080314","kana_pref":"ｵｶﾔﾏｹﾝ","kana_city":"ﾄﾏﾀｸﾞﾝｶｶﾞﾐﾉﾁｮｳ","kana_address":"ｻﾜﾀ","pref":"岡山県","city":"苫田郡鏡野町","address":"沢田"},
{"zip_code":"7080427","kana_pref":"ｵｶﾔﾏｹﾝ","kana_city":"ﾄﾏﾀｸﾞﾝｶｶﾞﾐﾉﾁｮｳ","kana_address":"ｼｺｳﾉ","pref":"岡山県","city":"苫田郡鏡野町","address":"至孝農"},
{"zip_code":"7080501","kana_pref":"ｵｶﾔﾏｹﾝ","kana_city":"ﾄﾏﾀｸﾞﾝｶｶﾞﾐﾉﾁｮｳ","kana_address":"ｼﾓｻｲﾊﾞﾗ","pref":"岡山県","city":"苫田郡鏡野町","address":"下斎原"},
{"zip_code":"7080341","kana_pref":"ｵｶﾔﾏｹﾝ","kana_city":"ﾄﾏﾀｸﾞﾝｶｶﾞﾐﾉﾁｮｳ","kana_address":"ｼﾓﾊﾞﾗ","pref":"岡山県","city":"苫田郡鏡野町","address":"下原"},
{"zip_code":"7080364","kana_pref":"ｵｶﾔﾏｹﾝ","kana_city":"ﾄﾏﾀｸﾞﾝｶｶﾞﾐﾉﾁｮｳ","kana_address":"ｼﾓﾓﾘﾊﾞﾗ","pref":"岡山県","city":"苫田郡鏡野町","address":"下森原"},
{"zip_code":"7080424","kana_pref":"ｵｶﾔﾏｹﾝ","kana_city":"ﾄﾏﾀｸﾞﾝｶｶﾞﾐﾉﾁｮｳ","kana_address":"ｽｷﾞ","pref":"岡山県","city":"苫田郡鏡野町","address":"杉"},
{"zip_code":"7080325","kana_pref":"ｵｶﾔﾏｹﾝ","kana_city":"ﾄﾏﾀｸﾞﾝｶｶﾞﾐﾉﾁｮｳ","kana_address":"ｾﾄ","pref":"岡山県","city":"苫田郡鏡野町","address":"瀬戸"},
{"zip_code":"7080345","kana_pref":"ｵｶﾔﾏｹﾝ","kana_city":"ﾄﾏﾀｸﾞﾝｶｶﾞﾐﾉﾁｮｳ","kana_address":"ﾀｶﾔﾏ","pref":"岡山県","city":"苫田郡鏡野町","address":"高山"},
{"zip_code":"7080342","kana_pref":"ｵｶﾔﾏｹﾝ","kana_city":"ﾄﾏﾀｸﾞﾝｶｶﾞﾐﾉﾁｮｳ","kana_address":"ﾀｷｷﾞﾓﾘﾊﾞﾗ","pref":"岡山県","city":"苫田郡鏡野町","address":"薪森原"},
{"zip_code":"7080324","kana_pref":"ｵｶﾔﾏｹﾝ","kana_city":"ﾄﾏﾀｸﾞﾝｶｶﾞﾐﾉﾁｮｳ","kana_address":"ﾀｹﾀﾞ","pref":"岡山県","city":"苫田郡鏡野町","address":"竹田"},
{"zip_code":"7080365","kana_pref":"ｵｶﾔﾏｹﾝ","kana_city":"ﾄﾏﾀｸﾞﾝｶｶﾞﾐﾉﾁｮｳ","kana_address":"ﾂｶﾀﾞﾆ","pref":"岡山県","city":"苫田郡鏡野町","address":"塚谷"},
{"zip_code":"7080362","kana_pref":"ｵｶﾔﾏｹﾝ","kana_city":"ﾄﾏﾀｸﾞﾝｶｶﾞﾐﾉﾁｮｳ","kana_address":"ﾃｴｼﾞ","pref":"岡山県","city":"苫田郡鏡野町","address":"貞永寺"},
{"zip_code":"7080323","kana_pref":"ｵｶﾔﾏｹﾝ","kana_city":"ﾄﾏﾀｸﾞﾝｶｶﾞﾐﾉﾁｮｳ","kana_address":"ﾃﾗﾓﾄ","pref":"岡山県","city":"苫田郡鏡野町","address":"寺元"},
{"zip_code":"7080311","kana_pref":"ｵｶﾔﾏｹﾝ","kana_city":"ﾄﾏﾀｸﾞﾝｶｶﾞﾐﾉﾁｮｳ","kana_address":"ﾃﾗﾜﾀﾞ","pref":"岡山県","city":"苫田郡鏡野町","address":"寺和田"},
{"zip_code":"7080317","kana_pref":"ｵｶﾔﾏｹﾝ","kana_city":"ﾄﾏﾀｸﾞﾝｶｶﾞﾐﾉﾁｮｳ","kana_address":"ﾄﾞｲ","pref":"岡山県","city":"苫田郡鏡野町","address":"土居"},
{"zip_code":"7080703","kana_pref":"ｵｶﾔﾏｹﾝ","kana_city":"ﾄﾏﾀｸﾞﾝｶｶﾞﾐﾉﾁｮｳ","kana_address":"ﾄﾐﾅｶﾏ","pref":"岡山県","city":"苫田郡鏡野町","address":"富仲間"},
{"zip_code":"7080701","kana_pref":"ｵｶﾔﾏｹﾝ","kana_city":"ﾄﾏﾀｸﾞﾝｶｶﾞﾐﾉﾁｮｳ","kana_address":"ﾄﾐﾆｼﾀﾞﾆ","pref":"岡山県","city":"苫田郡鏡野町","address":"富西谷"},
{"zip_code":"7080702","kana_pref":"ｵｶﾔﾏｹﾝ","kana_city":"ﾄﾏﾀｸﾞﾝｶｶﾞﾐﾉﾁｮｳ","kana_address":"ﾄﾐﾋｶﾞｼﾀﾞﾆ","pref":"岡山県","city":"苫田郡鏡野町","address":"富東谷"},
{"zip_code":"7080353","kana_pref":"ｵｶﾔﾏｹﾝ","kana_city":"ﾄﾏﾀｸﾞﾝｶｶﾞﾐﾉﾁｮｳ","kana_address":"ﾅｶﾀﾞﾆ","pref":"岡山県","city":"苫田郡鏡野町","address":"中谷"},
{"zip_code":"7080502","kana_pref":"ｵｶﾔﾏｹﾝ","kana_city":"ﾄﾏﾀｸﾞﾝｶｶﾞﾐﾉﾁｮｳ","kana_address":"ﾅｶﾞﾄｳ","pref":"岡山県","city":"苫田郡鏡野町","address":"長藤"},
{"zip_code":"7080426","kana_pref":"ｵｶﾔﾏｹﾝ","kana_city":"ﾄﾏﾀｸﾞﾝｶｶﾞﾐﾉﾁｮｳ","kana_address":"ﾆｼﾔ","pref":"岡山県","city":"苫田郡鏡野町","address":"西屋"},
{"zip_code":"7080331","kana_pref":"ｵｶﾔﾏｹﾝ","kana_city":"ﾄﾏﾀｸﾞﾝｶｶﾞﾐﾉﾁｮｳ","kana_address":"ﾇﾉﾊﾗ","pref":"岡山県","city":"苫田郡鏡野町","address":"布原"},
{"zip_code":"7080425","kana_pref":"ｵｶﾔﾏｹﾝ","kana_city":"ﾄﾏﾀｸﾞﾝｶｶﾞﾐﾉﾁｮｳ","kana_address":"ﾊｺ","pref":"岡山県","city":"苫田郡鏡野町","address":"箱"},
{"zip_code":"7080511","kana_pref":"ｵｶﾔﾏｹﾝ","kana_city":"ﾄﾏﾀｸﾞﾝｶｶﾞﾐﾉﾁｮｳ","kana_address":"ﾊﾃﾞ","pref":"岡山県","city":"苫田郡鏡野町","address":"羽出"},
{"zip_code":"7080512","kana_pref":"ｵｶﾔﾏｹﾝ","kana_city":"ﾄﾏﾀｸﾞﾝｶｶﾞﾐﾉﾁｮｳ","kana_address":"ﾊﾃﾞﾆｼﾀﾞﾆ","pref":"岡山県","city":"苫田郡鏡野町","address":"羽出西谷"},
{"zip_code":"7080366","kana_pref":"ｵｶﾔﾏｹﾝ","kana_city":"ﾄﾏﾀｸﾞﾝｶｶﾞﾐﾉﾁｮｳ","kana_address":"ﾊﾞﾊﾞ","pref":"岡山県","city":"苫田郡鏡野町","address":"馬場"},
{"zip_code":"7080434","kana_pref":"ｵｶﾔﾏｹﾝ","kana_city":"ﾄﾏﾀｸﾞﾝｶｶﾞﾐﾉﾁｮｳ","kana_address":"ﾊﾌﾞ","pref":"岡山県","city":"苫田郡鏡野町","address":"土生"},
{"zip_code":"7080344","kana_pref":"ｵｶﾔﾏｹﾝ","kana_city":"ﾄﾏﾀｸﾞﾝｶｶﾞﾐﾉﾁｮｳ","kana_address":"ﾊﾗ","pref":"岡山県","city":"苫田郡鏡野町","address":"原"},
{"zip_code":"7080333","kana_pref":"ｵｶﾔﾏｹﾝ","kana_city":"ﾄﾏﾀｸﾞﾝｶｶﾞﾐﾉﾁｮｳ","kana_address":"ﾌﾙｶﾜ","pref":"岡山県","city":"苫田郡鏡野町","address":"古川"},
{"zip_code":"7080335","kana_pref":"ｵｶﾔﾏｹﾝ","kana_city":"ﾄﾏﾀｸﾞﾝｶｶﾞﾐﾉﾁｮｳ","kana_address":"ﾏｶﾍﾞ","pref":"岡山県","city":"苫田郡鏡野町","address":"真加部"},
{"zip_code":"7080334","kana_pref":"ｵｶﾔﾏｹﾝ","kana_city":"ﾄﾏﾀｸﾞﾝｶｶﾞﾐﾉﾁｮｳ","kana_address":"ﾑﾈﾀﾞ","pref":"岡山県","city":"苫田郡鏡野町","address":"宗枝"},
{"zip_code":"7080305","kana_pref":"ｵｶﾔﾏｹﾝ","kana_city":"ﾄﾏﾀｸﾞﾝｶｶﾞﾐﾉﾁｮｳ","kana_address":"ﾓﾓﾀﾞﾆ","pref":"岡山県","city":"苫田郡鏡野町","address":"百谷"},
{"zip_code":"7080352","kana_pref":"ｵｶﾔﾏｹﾝ","kana_city":"ﾄﾏﾀｸﾞﾝｶｶﾞﾐﾉﾁｮｳ","kana_address":"ﾔﾏｼﾛ","pref":"岡山県","city":"苫田郡鏡野町","address":"山城"},
{"zip_code":"7080422","kana_pref":"ｵｶﾔﾏｹﾝ","kana_city":"ﾄﾏﾀｸﾞﾝｶｶﾞﾐﾉﾁｮｳ","kana_address":"ﾖｳﾉ","pref":"岡山県","city":"苫田郡鏡野町","address":"養野"},
{"zip_code":"7080332","kana_pref":"ｵｶﾔﾏｹﾝ","kana_city":"ﾄﾏﾀｸﾞﾝｶｶﾞﾐﾉﾁｮｳ","kana_address":"ﾖｼﾊﾗ","pref":"岡山県","city":"苫田郡鏡野町","address":"吉原"},
{"zip_code":"7080316","kana_pref":"ｵｶﾔﾏｹﾝ","kana_city":"ﾄﾏﾀｸﾞﾝｶｶﾞﾐﾉﾁｮｳ","kana_address":"ﾜﾀﾞ","pref":"岡山県","city":"苫田郡鏡野町","address":"和田"},
{"zip_code":"7081300","kana_pref":"ｵｶﾔﾏｹﾝ","kana_city":"ｶﾂﾀｸﾞﾝﾅｷﾞﾁｮｳ","kana_address":"","pref":"岡山県","city":"勝田郡奈義町","address":""},
{"zip_code":"7081314","kana_pref":"ｵｶﾔﾏｹﾝ","kana_city":"ｶﾂﾀｸﾞﾝﾅｷﾞﾁｮｳ","kana_address":"ｱﾗｳﾁﾆｼ","pref":"岡山県","city":"勝田郡奈義町","address":"荒内西"},
{"zip_code":"7081302","kana_pref":"ｵｶﾔﾏｹﾝ","kana_city":"ｶﾂﾀｸﾞﾝﾅｷﾞﾁｮｳ","kana_address":"ｵｻｶ","pref":"岡山県","city":"勝田郡奈義町","address":"小坂"},
{"zip_code":"7081312","kana_pref":"ｵｶﾔﾏｹﾝ","kana_city":"ｶﾂﾀｸﾞﾝﾅｷﾞﾁｮｳ","kana_address":"ｶｷ","pref":"岡山県","city":"勝田郡奈義町","address":"柿"},
{"zip_code":"7081326","kana_pref":"ｵｶﾔﾏｹﾝ","kana_city":"ｶﾂﾀｸﾞﾝﾅｷﾞﾁｮｳ","kana_address":"ｶﾐﾏﾁｶﾞﾜ","pref":"岡山県","city":"勝田郡奈義町","address":"上町川"},
{"zip_code":"7081305","kana_pref":"ｵｶﾔﾏｹﾝ","kana_city":"ｶﾂﾀｸﾞﾝﾅｷﾞﾁｮｳ","kana_address":"ｷﾞｮｳﾎｳ","pref":"岡山県","city":"勝田郡奈義町","address":"行方"},
{"zip_code":"7081307","kana_pref":"ｵｶﾔﾏｹﾝ","kana_city":"ｶﾂﾀｸﾞﾝﾅｷﾞﾁｮｳ","kana_address":"ｺｳｴﾝ","pref":"岡山県","city":"勝田郡奈義町","address":"高円"},
{"zip_code":"7081304","kana_pref":"ｵｶﾔﾏｹﾝ","kana_city":"ｶﾂﾀｸﾞﾝﾅｷﾞﾁｮｳ","kana_address":"ｾｷﾓﾄ","pref":"岡山県","city":"勝田郡奈義町","address":"関本"},
{"zip_code":"7081325","kana_pref":"ｵｶﾔﾏｹﾝ","kana_city":"ｶﾂﾀｸﾞﾝﾅｷﾞﾁｮｳ","kana_address":"ﾀｷﾓﾄ","pref":"岡山県","city":"勝田郡奈義町","address":"滝本"},
{"zip_code":"7081323","kana_pref":"ｵｶﾔﾏｹﾝ","kana_city":"ｶﾂﾀｸﾞﾝﾅｷﾞﾁｮｳ","kana_address":"ﾄﾖｻﾜ","pref":"岡山県","city":"勝田郡奈義町","address":"豊沢"},
{"zip_code":"7081313","kana_pref":"ｵｶﾔﾏｹﾝ","kana_city":"ｶﾂﾀｸﾞﾝﾅｷﾞﾁｮｳ","kana_address":"ﾅｶｼﾏﾋｶﾞｼ","pref":"岡山県","city":"勝田郡奈義町","address":"中島東"},
{"zip_code":"7081315","kana_pref":"ｵｶﾔﾏｹﾝ","kana_city":"ｶﾂﾀｸﾞﾝﾅｷﾞﾁｮｳ","kana_address":"ﾅｶｼﾏﾆｼ","pref":"岡山県","city":"勝田郡奈義町","address":"中島西"},
{"zip_code":"7081322","kana_pref":"ｵｶﾔﾏｹﾝ","kana_city":"ｶﾂﾀｸﾞﾝﾅｷﾞﾁｮｳ","kana_address":"ﾅﾘﾏﾂ","pref":"岡山県","city":"勝田郡奈義町","address":"成松"},
{"zip_code":"7081306","kana_pref":"ｵｶﾔﾏｹﾝ","kana_city":"ｶﾂﾀｸﾞﾝﾅｷﾞﾁｮｳ","kana_address":"ﾆｼﾊﾞﾗ","pref":"岡山県","city":"勝田郡奈義町","address":"西原"},
{"zip_code":"7081311","kana_pref":"ｵｶﾔﾏｹﾝ","kana_city":"ｶﾂﾀｸﾞﾝﾅｷﾞﾁｮｳ","kana_address":"ﾋｻﾂﾈ","pref":"岡山県","city":"勝田郡奈義町","address":"久常"},
{"zip_code":"7081324","kana_pref":"ｵｶﾔﾏｹﾝ","kana_city":"ｶﾂﾀｸﾞﾝﾅｷﾞﾁｮｳ","kana_address":"ﾋﾛｵｶ","pref":"岡山県","city":"勝田郡奈義町","address":"広岡"},
{"zip_code":"7081301","kana_pref":"ｵｶﾔﾏｹﾝ","kana_city":"ｶﾂﾀｸﾞﾝﾅｷﾞﾁｮｳ","kana_address":"ﾏｸﾞﾜ","pref":"岡山県","city":"勝田郡奈義町","address":"馬桑"},
{"zip_code":"7081303","kana_pref":"ｵｶﾔﾏｹﾝ","kana_city":"ｶﾂﾀｸﾞﾝﾅｷﾞﾁｮｳ","kana_address":"ﾐﾅｷﾞ","pref":"岡山県","city":"勝田郡奈義町","address":"皆木"},
{"zip_code":"7081321","kana_pref":"ｵｶﾔﾏｹﾝ","kana_city":"ｶﾂﾀｸﾞﾝﾅｷﾞﾁｮｳ","kana_address":"ﾐﾔｳﾁ","pref":"岡山県","city":"勝田郡奈義町","address":"宮内"},
{"zip_code":"7081506","kana_pref":"ｵｶﾔﾏｹﾝ","kana_city":"ｸﾒｸﾞﾝﾐｻｷﾁｮｳ","kana_address":"ｳﾜﾏ","pref":"岡山県","city":"久米郡美咲町","address":"上間"},
{"zip_code":"7081525","kana_pref":"ｵｶﾔﾏｹﾝ","kana_city":"ｸﾒｸﾞﾝﾐｻｷﾁｮｳ","kana_address":"ｵｵｼﾞ","pref":"岡山県","city":"久米郡美咲町","address":"王子"},
{"zip_code":"7081543","kana_pref":"ｵｶﾔﾏｹﾝ","kana_city":"ｸﾒｸﾞﾝﾐｻｷﾁｮｳ","kana_address":"ｶｲｿﾞｴ","pref":"岡山県","city":"久米郡美咲町","address":"書副"},
{"zip_code":"7081523","kana_pref":"ｵｶﾔﾏｹﾝ","kana_city":"ｸﾒｸﾞﾝﾐｻｷﾁｮｳ","kana_address":"ｷﾁｶﾞﾊﾗ","pref":"岡山県","city":"久米郡美咲町","address":"吉ケ原"},
{"zip_code":"7081531","kana_pref":"ｵｶﾔﾏｹﾝ","kana_city":"ｸﾒｸﾞﾝﾐｻｷﾁｮｳ","kana_address":"ｸﾘｺﾞ","pref":"岡山県","city":"久米郡美咲町","address":"栗子"},
{"zip_code":"7081526","kana_pref":"ｵｶﾔﾏｹﾝ","kana_city":"ｸﾒｸﾞﾝﾐｻｷﾁｮｳ","kana_address":"ｺｳｹﾞ","pref":"岡山県","city":"久米郡美咲町","address":"高下"},
{"zip_code":"7081532","kana_pref":"ｵｶﾔﾏｹﾝ","kana_city":"ｸﾒｸﾞﾝﾐｻｷﾁｮｳ","kana_address":"ｺｾ","pref":"岡山県","city":"久米郡美咲町","address":"小瀬"},
{"zip_code":"7081536","kana_pref":"ｵｶﾔﾏｹﾝ","kana_city":"ｸﾒｸﾞﾝﾐｻｷﾁｮｳ","kana_address":"ｻﾀﾞﾑﾈ","pref":"岡山県","city":"久米郡美咲町","address":"定宗"},
{"zip_code":"7081503","kana_pref":"ｵｶﾔﾏｹﾝ","kana_city":"ｸﾒｸﾞﾝﾐｻｷﾁｮｳ","kana_address":"ｼｵｹ","pref":"岡山県","city":"久米郡美咲町","address":"塩気"},
{"zip_code":"7081505","kana_pref":"ｵｶﾔﾏｹﾝ","kana_city":"ｸﾒｸﾞﾝﾐｻｷﾁｮｳ","kana_address":"ｼｹﾞﾄｳ","pref":"岡山県","city":"久米郡美咲町","address":"重藤"},
{"zip_code":"7081515","kana_pref":"ｵｶﾔﾏｹﾝ","kana_city":"ｸﾒｸﾞﾝﾐｻｷﾁｮｳ","kana_address":"ｼﾓﾀﾞﾆ","pref":"岡山県","city":"久米郡美咲町","address":"下谷"},
{"zip_code":"7081544","kana_pref":"ｵｶﾔﾏｹﾝ","kana_city":"ｸﾒｸﾞﾝﾐｻｷﾁｮｳ","kana_address":"ｽｻ","pref":"岡山県","city":"久米郡美咲町","address":"周佐"},
{"zip_code":"7081522","kana_pref":"ｵｶﾔﾏｹﾝ","kana_city":"ｸﾒｸﾞﾝﾐｻｷﾁｮｳ","kana_address":"ｿｳﾀﾞ","pref":"岡山県","city":"久米郡美咲町","address":"惣田"},
{"zip_code":"7081545","kana_pref":"ｵｶﾔﾏｹﾝ","kana_city":"ｸﾒｸﾞﾝﾐｻｷﾁｮｳ","kana_address":"ﾀﾞｲﾄｶﾐ","pref":"岡山県","city":"久米郡美咲町","address":"大戸上"},
{"zip_code":"7081546","kana_pref":"ｵｶﾔﾏｹﾝ","kana_city":"ｸﾒｸﾞﾝﾐｻｷﾁｮｳ","kana_address":"ﾀﾞｲﾄｼﾓ","pref":"岡山県","city":"久米郡美咲町","address":"大戸下"},
{"zip_code":"7081535","kana_pref":"ｵｶﾔﾏｹﾝ","kana_city":"ｸﾒｸﾞﾝﾐｻｷﾁｮｳ","kana_address":"ﾀｶｼﾛ","pref":"岡山県","city":"久米郡美咲町","address":"高城"},
{"zip_code":"7081541","kana_pref":"ｵｶﾔﾏｹﾝ","kana_city":"ｸﾒｸﾞﾝﾐｻｷﾁｮｳ","kana_address":"ﾂｶﾂﾉ","pref":"岡山県","city":"久米郡美咲町","address":"塚角"},
{"zip_code":"7081507","kana_pref":"ｵｶﾔﾏｹﾝ","kana_city":"ｸﾒｸﾞﾝﾐｻｷﾁｮｳ","kana_address":"ﾄﾞｳﾄﾞｳ","pref":"岡山県","city":"久米郡美咲町","address":"百々"},
{"zip_code":"7081547","kana_pref":"ｵｶﾔﾏｹﾝ","kana_city":"ｸﾒｸﾞﾝﾐｻｷﾁｮｳ","kana_address":"ﾈﾘｶﾞﾐ","pref":"岡山県","city":"久米郡美咲町","address":"八神"},
{"zip_code":"7081542","kana_pref":"ｵｶﾔﾏｹﾝ","kana_city":"ｸﾒｸﾞﾝﾐｻｷﾁｮｳ","kana_address":"ﾊﾆ","pref":"岡山県","city":"久米郡美咲町","address":"羽仁"},
{"zip_code":"7081533","kana_pref":"ｵｶﾔﾏｹﾝ","kana_city":"ｸﾒｸﾞﾝﾐｻｷﾁｮｳ","kana_address":"ﾋｻｷﾞ","pref":"岡山県","city":"久米郡美咲町","address":"久木"},
{"zip_code":"7081514","kana_pref":"ｵｶﾔﾏｹﾝ","kana_city":"ｸﾒｸﾞﾝﾐｻｷﾁｮｳ","kana_address":"ﾌｼﾞﾀｶﾐ","pref":"岡山県","city":"久米郡美咲町","address":"藤田上"},
{"zip_code":"7081513","kana_pref":"ｵｶﾔﾏｹﾝ","kana_city":"ｸﾒｸﾞﾝﾐｻｷﾁｮｳ","kana_address":"ﾌｼﾞﾀｼﾓ","pref":"岡山県","city":"久米郡美咲町","address":"藤田下"},
{"zip_code":"7081534","kana_pref":"ｵｶﾔﾏｹﾝ","kana_city":"ｸﾒｸﾞﾝﾐｻｷﾁｮｳ","kana_address":"ﾌｼﾞﾜﾗ","pref":"岡山県","city":"久米郡美咲町","address":"藤原"},
{"zip_code":"7081512","kana_pref":"ｵｶﾔﾏｹﾝ","kana_city":"ｸﾒｸﾞﾝﾐｻｷﾁｮｳ","kana_address":"ﾏﾂｵ","pref":"岡山県","city":"久米郡美咲町","address":"松尾"},
{"zip_code":"7081502","kana_pref":"ｵｶﾔﾏｹﾝ","kana_city":"ｸﾒｸﾞﾝﾐｻｷﾁｮｳ","kana_address":"ﾐﾔﾔﾏ","pref":"岡山県","city":"久米郡美咲町","address":"宮山"},
{"zip_code":"7081501","kana_pref":"ｵｶﾔﾏｹﾝ","kana_city":"ｸﾒｸﾞﾝﾐｻｷﾁｮｳ","kana_address":"ﾔｽｲ","pref":"岡山県","city":"久米郡美咲町","address":"安井"},
{"zip_code":"7081521","kana_pref":"ｵｶﾔﾏｹﾝ","kana_city":"ｸﾒｸﾞﾝﾐｻｷﾁｮｳ","kana_address":"ﾔｽﾐｲｼ","pref":"岡山県","city":"久米郡美咲町","address":"休石"},
{"zip_code":"7081527","kana_pref":"ｵｶﾔﾏｹﾝ","kana_city":"ｸﾒｸﾞﾝﾐｻｷﾁｮｳ","kana_address":"ﾔﾅﾊﾗ","pref":"岡山県","city":"久米郡美咲町","address":"柵原"},
{"zip_code":"7081524","kana_pref":"ｵｶﾔﾏｹﾝ","kana_city":"ｸﾒｸﾞﾝﾐｻｷﾁｮｳ","kana_address":"ﾕｳｶ","pref":"岡山県","city":"久米郡美咲町","address":"飯岡"},
{"zip_code":"7081511","kana_pref":"ｵｶﾔﾏｹﾝ","kana_city":"ｸﾒｸﾞﾝﾐｻｷﾁｮｳ","kana_address":"ﾕｷﾉﾌﾞ","pref":"岡山県","city":"久米郡美咲町","address":"行信"},
{"zip_code":"7081504","kana_pref":"ｵｶﾔﾏｹﾝ","kana_city":"ｸﾒｸﾞﾝﾐｻｷﾁｮｳ","kana_address":"ﾖｼﾄﾞﾒ","pref":"岡山県","city":"久米郡美咲町","address":"吉留"},
{"zip_code":"7081516","kana_pref":"ｵｶﾔﾏｹﾝ","kana_city":"ｸﾒｸﾞﾝﾐｻｷﾁｮｳ","kana_address":"ﾚﾝｼﾞｬｸ","pref":"岡山県","city":"久米郡美咲町","address":"連石"}]}