{"zip_code":[
{"zip_code":"7100151","kana_pref":"ｵｶﾔﾏｹﾝ","kana_city":"ｵｶﾔﾏｼﾐﾅﾐｸ","kana_address":"ｳｴﾏﾂ","pref":"岡山県","city":"岡山市南区","address":"植松"},
{"zip_code":"7100000","kana_pref":"ｵｶﾔﾏｹﾝ","kana_city":"ｸﾗｼｷｼ","kana_address":"","pref":"岡山県","city":"倉敷市","address":""},
{"zip_code":"7100064","kana_pref":"ｵｶﾔﾏｹﾝ","kana_city":"ｸﾗｼｷｼ","kana_address":"ｱｵｴ","pref":"岡山県","city":"倉敷市","address":"青江"},
{"zip_code":"7100007","kana_pref":"ｵｶﾔﾏｹﾝ","kana_city":"ｸﾗｼｷｼ","kana_address":"ｱｻﾊﾞﾗ","pref":"岡山県","city":"倉敷市","address":"浅原"},
{"zip_code":"7100055","kana_pref":"ｵｶﾔﾏｹﾝ","kana_city":"ｸﾗｼｷｼ","kana_address":"ｱﾁ","pref":"岡山県","city":"倉敷市","address":"阿知"},
{"zip_code":"7100131","kana_pref":"ｵｶﾔﾏｹﾝ","kana_city":"ｸﾗｼｷｼ","kana_address":"ｱﾏｷﾀﾞｲ","pref":"岡山県","city":"倉敷市","address":"天城台"},
{"zip_code":"7100031","kana_pref":"ｵｶﾔﾏｹﾝ","kana_city":"ｸﾗｼｷｼ","kana_address":"ｱﾙｷ","pref":"岡山県","city":"倉敷市","address":"有城"},
{"zip_code":"7100002","kana_pref":"ｵｶﾔﾏｹﾝ","kana_city":"ｸﾗｼｷｼ","kana_address":"ｲｸｻｶ","pref":"岡山県","city":"倉敷市","address":"生坂"},
{"zip_code":"7100041","kana_pref":"ｵｶﾔﾏｹﾝ","kana_city":"ｸﾗｼｷｼ","kana_address":"ｲﾂｶｲﾁ","pref":"岡山県","city":"倉敷市","address":"五日市"},
{"zip_code":"7100822","kana_pref":"ｵｶﾔﾏｹﾝ","kana_city":"ｸﾗｼｷｼ","kana_address":"ｲﾅﾘﾏﾁ","pref":"岡山県","city":"倉敷市","address":"稲荷町"},
{"zip_code":"7100814","kana_pref":"ｵｶﾔﾏｹﾝ","kana_city":"ｸﾗｼｷｼ","kana_address":"ｲﾜﾐﾁｮｳ","pref":"岡山県","city":"倉敷市","address":"石見町"},
{"zip_code":"7100843","kana_pref":"ｵｶﾔﾏｹﾝ","kana_city":"ｸﾗｼｷｼ","kana_address":"ｳﾗﾀﾞ","pref":"岡山県","city":"倉敷市","address":"浦田"},
{"zip_code":"7100826","kana_pref":"ｵｶﾔﾏｹﾝ","kana_city":"ｸﾗｼｷｼ","kana_address":"ｵｲﾏﾂﾁｮｳ","pref":"岡山県","city":"倉敷市","address":"老松町"},
{"zip_code":"7100817","kana_pref":"ｵｶﾔﾏｹﾝ","kana_city":"ｸﾗｼｷｼ","kana_address":"ｵｵｳﾁ","pref":"岡山県","city":"倉敷市","address":"大内"},
{"zip_code":"7100047","kana_pref":"ｵｶﾔﾏｹﾝ","kana_city":"ｸﾗｼｷｼ","kana_address":"ｵｵｼﾞﾏ","pref":"岡山県","city":"倉敷市","address":"大島"},
{"zip_code":"7100836","kana_pref":"ｵｶﾔﾏｹﾝ","kana_city":"ｸﾗｼｷｼ","kana_address":"ｵｷ","pref":"岡山県","city":"倉敷市","address":"沖"},
{"zip_code":"7100837","kana_pref":"ｵｶﾔﾏｹﾝ","kana_city":"ｸﾗｼｷｼ","kana_address":"ｵｷｼﾝﾏﾁ","pref":"岡山県","city":"倉敷市","address":"沖新町"},
{"zip_code":"7100144","kana_pref":"ｵｶﾔﾏｹﾝ","kana_city":"ｸﾗｼｷｼ","kana_address":"ｵﾊﾞﾗ","pref":"岡山県","city":"倉敷市","address":"尾原"},
{"zip_code":"7100023","kana_pref":"ｵｶﾔﾏｹﾝ","kana_city":"ｸﾗｼｷｼ","kana_address":"ｵﾋﾞﾀｶ","pref":"岡山県","city":"倉敷市","address":"帯高"},
{"zip_code":"7100026","kana_pref":"ｵｶﾔﾏｹﾝ","kana_city":"ｸﾗｼｷｼ","kana_address":"ｶｽﾔﾏ","pref":"岡山県","city":"倉敷市","address":"加須山"},
{"zip_code":"7100805","kana_pref":"ｵｶﾔﾏｹﾝ","kana_city":"ｸﾗｼｷｼ","kana_address":"ｶﾀｼﾏﾁｮｳ","pref":"岡山県","city":"倉敷市","address":"片島町"},
{"zip_code":"7100846","kana_pref":"ｵｶﾔﾏｹﾝ","kana_city":"ｸﾗｼｷｼ","kana_address":"ｶﾐﾄﾐｲ","pref":"岡山県","city":"倉敷市","address":"上富井"},
{"zip_code":"7100024","kana_pref":"ｵｶﾔﾏｹﾝ","kana_city":"ｸﾗｼｷｼ","kana_address":"ｶﾒﾔﾏ","pref":"岡山県","city":"倉敷市","address":"亀山"},
{"zip_code":"7100811","kana_pref":"ｵｶﾔﾏｹﾝ","kana_city":"ｸﾗｼｷｼ","kana_address":"ｶﾜｲﾘ","pref":"岡山県","city":"倉敷市","address":"川入"},
{"zip_code":"7100821","kana_pref":"ｵｶﾔﾏｹﾝ","kana_city":"ｸﾗｼｷｼ","kana_address":"ｶﾜﾆｼﾏﾁ","pref":"岡山県","city":"倉敷市","address":"川西町"},
{"zip_code":"7100812","kana_pref":"ｵｶﾔﾏｹﾝ","kana_city":"ｸﾗｼｷｼ","kana_address":"ｷﾀﾊﾏﾁｮｳ","pref":"岡山県","city":"倉敷市","address":"北浜町"},
{"zip_code":"7100143","kana_pref":"ｵｶﾔﾏｹﾝ","kana_city":"ｸﾗｼｷｼ","kana_address":"ｷﾐ","pref":"岡山県","city":"倉敷市","address":"木見"},
{"zip_code":"7100141","kana_pref":"ｵｶﾔﾏｹﾝ","kana_city":"ｸﾗｼｷｼ","kana_address":"ｸｼﾀﾞ","pref":"岡山県","city":"倉敷市","address":"串田"},
{"zip_code":"7100025","kana_pref":"ｵｶﾔﾏｹﾝ","kana_city":"ｸﾗｼｷｼ","kana_address":"ｸﾗｼｷﾊｲﾂ","pref":"岡山県","city":"倉敷市","address":"倉敷ハイツ"},
{"zip_code":"7100035","kana_pref":"ｵｶﾔﾏｹﾝ","kana_city":"ｸﾗｼｷｼ","kana_address":"ｸﾛｲｼ","pref":"岡山県","city":"倉敷市","address":"黒石"},
{"zip_code":"7100014","kana_pref":"ｵｶﾔﾏｹﾝ","kana_city":"ｸﾗｼｷｼ","kana_address":"ｸﾛｻｷ","pref":"岡山県","city":"倉敷市","address":"黒崎"},
{"zip_code":"7100813","kana_pref":"ｵｶﾔﾏｹﾝ","kana_city":"ｸﾗｼｷｼ","kana_address":"ｺﾄﾌﾞｷﾁｮｳ","pref":"岡山県","city":"倉敷市","address":"寿町"},
{"zip_code":"7100051","kana_pref":"ｵｶﾔﾏｹﾝ","kana_city":"ｸﾗｼｷｼ","kana_address":"ｻｲﾜｲﾁｮｳ","pref":"岡山県","city":"倉敷市","address":"幸町"},
{"zip_code":"7100801","kana_pref":"ｵｶﾔﾏｹﾝ","kana_city":"ｸﾗｼｷｼ","kana_address":"ｻｶﾂﾞ","pref":"岡山県","city":"倉敷市","address":"酒津"},
{"zip_code":"7100834","kana_pref":"ｵｶﾔﾏｹﾝ","kana_city":"ｸﾗｼｷｼ","kana_address":"ｻｻｵｷ","pref":"岡山県","city":"倉敷市","address":"笹沖"},
{"zip_code":"7100835","kana_pref":"ｵｶﾔﾏｹﾝ","kana_city":"ｸﾗｼｷｼ","kana_address":"ｼｼﾞｭｳｾ","pref":"岡山県","city":"倉敷市","address":"四十瀬"},
{"zip_code":"7100057","kana_pref":"ｵｶﾔﾏｹﾝ","kana_city":"ｸﾗｼｷｼ","kana_address":"ｼｮｳﾜ","pref":"岡山県","city":"倉敷市","address":"昭和"},
{"zip_code":"7100253","kana_pref":"ｵｶﾔﾏｹﾝ","kana_city":"ｸﾗｼｷｼ","kana_address":"ｼﾝｸﾗｼｷｴｷﾏｴ","pref":"岡山県","city":"倉敷市","address":"新倉敷駅前"},
{"zip_code":"7100038","kana_pref":"ｵｶﾔﾏｹﾝ","kana_city":"ｸﾗｼｷｼ","kana_address":"ｼﾝﾃﾞﾝ","pref":"岡山県","city":"倉敷市","address":"新田"},
{"zip_code":"7100006","kana_pref":"ｵｶﾔﾏｹﾝ","kana_city":"ｸﾗｼｷｼ","kana_address":"ｽｹﾔｽ","pref":"岡山県","city":"倉敷市","address":"祐安"},
{"zip_code":"7100146","kana_pref":"ｵｶﾔﾏｹﾝ","kana_city":"ｸﾗｼｷｼ","kana_address":"ｿﾊﾞﾗ","pref":"岡山県","city":"倉敷市","address":"曽原"},
{"zip_code":"7100021","kana_pref":"ｵｶﾔﾏｹﾝ","kana_city":"ｸﾗｼｷｼ","kana_address":"ﾀｶｽｶ","pref":"岡山県","city":"倉敷市","address":"高須賀"},
{"zip_code":"7100831","kana_pref":"ｵｶﾔﾏｹﾝ","kana_city":"ｸﾗｼｷｼ","kana_address":"ﾀﾉｳｴ","pref":"岡山県","city":"倉敷市","address":"田ノ上"},
{"zip_code":"7100832","kana_pref":"ｵｶﾔﾏｹﾝ","kana_city":"ｸﾗｼｷｼ","kana_address":"ﾀﾉｳｴｼﾝﾏﾁ","pref":"岡山県","city":"倉敷市","address":"田ノ上新町"},
{"zip_code":"7100252","kana_pref":"ｵｶﾔﾏｹﾝ","kana_city":"ｸﾗｼｷｼ","kana_address":"ﾀﾏｼﾏﾂﾏｻｷ","pref":"岡山県","city":"倉敷市","address":"玉島爪崎"},
{"zip_code":"7100251","kana_pref":"ｵｶﾔﾏｹﾝ","kana_city":"ｸﾗｼｷｼ","kana_address":"ﾀﾏｼﾏﾅｶﾞｵ","pref":"岡山県","city":"倉敷市","address":"玉島長尾"},
{"zip_code":"7101101","kana_pref":"ｵｶﾔﾏｹﾝ","kana_city":"ｸﾗｼｷｼ","kana_address":"ﾁｬﾔﾏﾁ","pref":"岡山県","city":"倉敷市","address":"茶屋町"},
{"zip_code":"7101102","kana_pref":"ｵｶﾔﾏｹﾝ","kana_city":"ｸﾗｼｷｼ","kana_address":"ﾁｬﾔﾏﾁﾊﾔｵｷ","pref":"岡山県","city":"倉敷市","address":"茶屋町早沖"},
{"zip_code":"7100046","kana_pref":"ｵｶﾔﾏｹﾝ","kana_city":"ｸﾗｼｷｼ","kana_address":"ﾁｭｳｵｳ","pref":"岡山県","city":"倉敷市","address":"中央"},
{"zip_code":"7100036","kana_pref":"ｵｶﾔﾏｹﾝ","kana_city":"ｸﾗｼｷｼ","kana_address":"ﾂﾌﾞｳﾗ","pref":"岡山県","city":"倉敷市","address":"粒浦"},
{"zip_code":"7100034","kana_pref":"ｵｶﾔﾏｹﾝ","kana_city":"ｸﾗｼｷｼ","kana_address":"ﾂﾌﾞｴ","pref":"岡山県","city":"倉敷市","address":"粒江"},
{"zip_code":"7100033","kana_pref":"ｵｶﾔﾏｹﾝ","kana_city":"ｸﾗｼｷｼ","kana_address":"ﾂﾌﾞｴﾀﾞﾝﾁ","pref":"岡山県","city":"倉敷市","address":"粒江団地"},
{"zip_code":"7100056","kana_pref":"ｵｶﾔﾏｹﾝ","kana_city":"ｸﾗｼｷｼ","kana_address":"ﾂﾙｶﾞﾀ","pref":"岡山県","city":"倉敷市","address":"鶴形"},
{"zip_code":"7100011","kana_pref":"ｵｶﾔﾏｹﾝ","kana_city":"ｸﾗｼｷｼ","kana_address":"ﾄｸﾎﾞｳ","pref":"岡山県","city":"倉敷市","address":"徳芳"},
{"zip_code":"7100012","kana_pref":"ｵｶﾔﾏｹﾝ","kana_city":"ｸﾗｼｷｼ","kana_address":"ﾄﾊﾞ","pref":"岡山県","city":"倉敷市","address":"鳥羽"},
{"zip_code":"7100013","kana_pref":"ｵｶﾔﾏｹﾝ","kana_city":"ｸﾗｼｷｼ","kana_address":"ﾅｶｵﾋﾞｴ","pref":"岡山県","city":"倉敷市","address":"中帯江"},
{"zip_code":"7100803","kana_pref":"ｵｶﾔﾏｹﾝ","kana_city":"ｸﾗｼｷｼ","kana_address":"ﾅｶｼﾏ","pref":"岡山県","city":"倉敷市","address":"中島"},
{"zip_code":"7100016","kana_pref":"ｵｶﾔﾏｹﾝ","kana_city":"ｸﾗｼｷｼ","kana_address":"ﾅｶｼｮｳ","pref":"岡山県","city":"倉敷市","address":"中庄"},
{"zip_code":"7100015","kana_pref":"ｵｶﾔﾏｹﾝ","kana_city":"ｸﾗｼｷｼ","kana_address":"ﾅｶｼｮｳﾀﾞﾝﾁ","pref":"岡山県","city":"倉敷市","address":"中庄団地"},
{"zip_code":"7100807","kana_pref":"ｵｶﾔﾏｹﾝ","kana_city":"ｸﾗｼｷｼ","kana_address":"ﾆｼｱﾁﾁｮｳ","pref":"岡山県","city":"倉敷市","address":"西阿知町"},
{"zip_code":"7100804","kana_pref":"ｵｶﾔﾏｹﾝ","kana_city":"ｸﾗｼｷｼ","kana_address":"ﾆｼｱﾁﾁｮｳｼﾝﾃﾞﾝ","pref":"岡山県","city":"倉敷市","address":"西阿知町新田"},
{"zip_code":"7100806","kana_pref":"ｵｶﾔﾏｹﾝ","kana_city":"ｸﾗｼｷｼ","kana_address":"ﾆｼｱﾁﾁｮｳﾆｼﾊﾞﾗ","pref":"岡山県","city":"倉敷市","address":"西阿知町西原"},
{"zip_code":"7100005","kana_pref":"ｵｶﾔﾏｹﾝ","kana_city":"ｸﾗｼｷｼ","kana_address":"ﾆｼｵｶ","pref":"岡山県","city":"倉敷市","address":"西岡"},
{"zip_code":"7100004","kana_pref":"ｵｶﾔﾏｹﾝ","kana_city":"ｸﾗｼｷｼ","kana_address":"ﾆｼｻﾞｶ","pref":"岡山県","city":"倉敷市","address":"西坂"},
{"zip_code":"7100027","kana_pref":"ｵｶﾔﾏｹﾝ","kana_city":"ｸﾗｼｷｼ","kana_address":"ﾆｼﾀﾞ","pref":"岡山県","city":"倉敷市","address":"西田"},
{"zip_code":"7100845","kana_pref":"ｵｶﾔﾏｹﾝ","kana_city":"ｸﾗｼｷｼ","kana_address":"ﾆｼﾄﾐｲ","pref":"岡山県","city":"倉敷市","address":"西富井"},
{"zip_code":"7100833","kana_pref":"ｵｶﾔﾏｹﾝ","kana_city":"ｸﾗｼｷｼ","kana_address":"ﾆｼﾅｶｼﾝﾃﾞﾝ","pref":"岡山県","city":"倉敷市","address":"西中新田"},
{"zip_code":"7100824","kana_pref":"ｵｶﾔﾏｹﾝ","kana_city":"ｸﾗｼｷｼ","kana_address":"ﾊﾞｸﾛﾁｮｳ","pref":"岡山県","city":"倉敷市","address":"白楽町"},
{"zip_code":"7100043","kana_pref":"ｵｶﾔﾏｹﾝ","kana_city":"ｸﾗｼｷｼ","kana_address":"ﾊｼﾏ","pref":"岡山県","city":"倉敷市","address":"羽島"},
{"zip_code":"7100816","kana_pref":"ｵｶﾔﾏｹﾝ","kana_city":"ｸﾗｼｷｼ","kana_address":"ﾊﾁｵｳｼﾞﾁｮｳ","pref":"岡山県","city":"倉敷市","address":"八王寺町"},
{"zip_code":"7100037","kana_pref":"ｵｶﾔﾏｹﾝ","kana_city":"ｸﾗｼｷｼ","kana_address":"ﾊﾁｹﾝﾔ","pref":"岡山県","city":"倉敷市","address":"八軒屋"},
{"zip_code":"7100061","kana_pref":"ｵｶﾔﾏｹﾝ","kana_city":"ｸﾗｼｷｼ","kana_address":"ﾊﾏﾉﾁｬﾔ","pref":"岡山県","city":"倉敷市","address":"浜ノ茶屋"},
{"zip_code":"7100062","kana_pref":"ｵｶﾔﾏｹﾝ","kana_city":"ｸﾗｼｷｼ","kana_address":"ﾊﾏﾏﾁ","pref":"岡山県","city":"倉敷市","address":"浜町"},
{"zip_code":"7100142","kana_pref":"ｵｶﾔﾏｹﾝ","kana_city":"ｸﾗｼｷｼ","kana_address":"ﾊﾔｼ","pref":"岡山県","city":"倉敷市","address":"林"},
{"zip_code":"7100022","kana_pref":"ｵｶﾔﾏｹﾝ","kana_city":"ｸﾗｼｷｼ","kana_address":"ﾊﾔﾀｶ","pref":"岡山県","city":"倉敷市","address":"早高"},
{"zip_code":"7100032","kana_pref":"ｵｶﾔﾏｹﾝ","kana_city":"ｸﾗｼｷｼ","kana_address":"ﾋｶﾞｼﾂﾌﾞｳﾗ","pref":"岡山県","city":"倉敷市","address":"東粒浦"},
{"zip_code":"7100847","kana_pref":"ｵｶﾔﾏｹﾝ","kana_city":"ｸﾗｼｷｼ","kana_address":"ﾋｶﾞｼﾄﾐｲ","pref":"岡山県","city":"倉敷市","address":"東富井"},
{"zip_code":"7100053","kana_pref":"ｵｶﾔﾏｹﾝ","kana_city":"ｸﾗｼｷｼ","kana_address":"ﾋｶﾞｼﾏﾁ","pref":"岡山県","city":"倉敷市","address":"東町"},
{"zip_code":"7100063","kana_pref":"ｵｶﾔﾏｹﾝ","kana_city":"ｸﾗｼｷｼ","kana_address":"ﾋﾉﾃﾞﾁｮｳ","pref":"岡山県","city":"倉敷市","address":"日ノ出町"},
{"zip_code":"7100815","kana_pref":"ｵｶﾔﾏｹﾝ","kana_city":"ｸﾗｼｷｼ","kana_address":"ﾋﾖｾﾁｮｳ","pref":"岡山県","city":"倉敷市","address":"日吉町"},
{"zip_code":"7100003","kana_pref":"ｵｶﾔﾏｹﾝ","kana_city":"ｸﾗｼｷｼ","kana_address":"ﾋﾗﾀ","pref":"岡山県","city":"倉敷市","address":"平田"},
{"zip_code":"7100844","kana_pref":"ｵｶﾔﾏｹﾝ","kana_city":"ｸﾗｼｷｼ","kana_address":"ﾌｸｲ","pref":"岡山県","city":"倉敷市","address":"福井"},
{"zip_code":"7100145","kana_pref":"ｵｶﾔﾏｹﾝ","kana_city":"ｸﾗｼｷｼ","kana_address":"ﾌｸｴ","pref":"岡山県","city":"倉敷市","address":"福江"},
{"zip_code":"7100048","kana_pref":"ｵｶﾔﾏｹﾝ","kana_city":"ｸﾗｼｷｼ","kana_address":"ﾌｸｼﾏ","pref":"岡山県","city":"倉敷市","address":"福島"},
{"zip_code":"7100132","kana_pref":"ｵｶﾔﾏｹﾝ","kana_city":"ｸﾗｼｷｼ","kana_address":"ﾌｼﾞﾄﾁｮｳｱﾏｷ","pref":"岡山県","city":"倉敷市","address":"藤戸町天城"},
{"zip_code":"7100133","kana_pref":"ｵｶﾔﾏｹﾝ","kana_city":"ｸﾗｼｷｼ","kana_address":"ﾌｼﾞﾄﾁｮｳﾌｼﾞﾄ","pref":"岡山県","city":"倉敷市","address":"藤戸町藤戸"},
{"zip_code":"7100042","kana_pref":"ｵｶﾔﾏｹﾝ","kana_city":"ｸﾗｼｷｼ","kana_address":"ﾌﾂｶｲﾁ","pref":"岡山県","city":"倉敷市","address":"二日市"},
{"zip_code":"7100261","kana_pref":"ｵｶﾔﾏｹﾝ","kana_city":"ｸﾗｼｷｼ","kana_address":"ﾌﾅｵﾁｮｳﾌﾅｵ","pref":"岡山県","city":"倉敷市","address":"船穂町船穂"},
{"zip_code":"7100262","kana_pref":"ｵｶﾔﾏｹﾝ","kana_city":"ｸﾗｼｷｼ","kana_address":"ﾌﾅｵﾁｮｳﾐｽﾞｴ","pref":"岡山県","city":"倉敷市","address":"船穂町水江"},
{"zip_code":"7100263","kana_pref":"ｵｶﾔﾏｹﾝ","kana_city":"ｸﾗｼｷｼ","kana_address":"ﾌﾅｵﾁｮｳﾔﾅｲﾊﾗ","pref":"岡山県","city":"倉敷市","address":"船穂町柳井原"},
{"zip_code":"7100045","kana_pref":"ｵｶﾔﾏｹﾝ","kana_city":"ｸﾗｼｷｼ","kana_address":"ﾌﾅｸﾞﾗﾁｮｳ","pref":"岡山県","city":"倉敷市","address":"船倉町"},
{"zip_code":"7100841","kana_pref":"ｵｶﾔﾏｹﾝ","kana_city":"ｸﾗｼｷｼ","kana_address":"ﾎﾘﾅﾝ","pref":"岡山県","city":"倉敷市","address":"堀南"},
{"zip_code":"7100054","kana_pref":"ｵｶﾔﾏｹﾝ","kana_city":"ｸﾗｼｷｼ","kana_address":"ﾎﾝﾏﾁ","pref":"岡山県","city":"倉敷市","address":"本町"},
{"zip_code":"7101306","kana_pref":"ｵｶﾔﾏｹﾝ","kana_city":"ｸﾗｼｷｼ","kana_address":"ﾏﾋﾞﾁｮｳｱﾘｲ","pref":"岡山県","city":"倉敷市","address":"真備町有井"},
{"zip_code":"7101305","kana_pref":"ｵｶﾔﾏｹﾝ","kana_city":"ｸﾗｼｷｼ","kana_address":"ﾏﾋﾞﾁｮｳｲﾁﾊﾞ","pref":"岡山県","city":"倉敷市","address":"真備町市場"},
{"zip_code":"7101311","kana_pref":"ｵｶﾔﾏｹﾝ","kana_city":"ｸﾗｼｷｼ","kana_address":"ﾏﾋﾞﾁｮｳｵｶﾀﾞ","pref":"岡山県","city":"倉敷市","address":"真備町岡田"},
{"zip_code":"7101304","kana_pref":"ｵｶﾔﾏｹﾝ","kana_city":"ｸﾗｼｷｼ","kana_address":"ﾏﾋﾞﾁｮｳｵｻｷ","pref":"岡山県","city":"倉敷市","address":"真備町尾崎"},
{"zip_code":"7101315","kana_pref":"ｵｶﾔﾏｹﾝ","kana_city":"ｸﾗｼｷｼ","kana_address":"ﾏﾋﾞﾁｮｳｶﾐﾆﾏ","pref":"岡山県","city":"倉敷市","address":"真備町上二万"},
{"zip_code":"7101313","kana_pref":"ｵｶﾔﾏｹﾝ","kana_city":"ｸﾗｼｷｼ","kana_address":"ﾏﾋﾞﾁｮｳｶﾜﾍﾞ","pref":"岡山県","city":"倉敷市","address":"真備町川辺"},
{"zip_code":"7101314","kana_pref":"ｵｶﾔﾏｹﾝ","kana_city":"ｸﾗｼｷｼ","kana_address":"ﾏﾋﾞﾁｮｳｼﾓﾆﾏ","pref":"岡山県","city":"倉敷市","address":"真備町下二万"},
{"zip_code":"7101303","kana_pref":"ｵｶﾔﾏｹﾝ","kana_city":"ｸﾗｼｷｼ","kana_address":"ﾏﾋﾞﾁｮｳｾ","pref":"岡山県","city":"倉敷市","address":"真備町妹"},
{"zip_code":"7101312","kana_pref":"ｵｶﾔﾏｹﾝ","kana_city":"ｸﾗｼｷｼ","kana_address":"ﾏﾋﾞﾁｮｳﾂｼﾞﾀ","pref":"岡山県","city":"倉敷市","address":"真備町辻田"},
{"zip_code":"7101302","kana_pref":"ｵｶﾔﾏｹﾝ","kana_city":"ｸﾗｼｷｼ","kana_address":"ﾏﾋﾞﾁｮｳﾊｯﾄﾘ","pref":"岡山県","city":"倉敷市","address":"真備町服部"},
{"zip_code":"7101301","kana_pref":"ｵｶﾔﾏｹﾝ","kana_city":"ｸﾗｼｷｼ","kana_address":"ﾏﾋﾞﾁｮｳﾔﾀ","pref":"岡山県","city":"倉敷市","address":"真備町箭田"},
{"zip_code":"7100802","kana_pref":"ｵｶﾔﾏｹﾝ","kana_city":"ｸﾗｼｷｼ","kana_address":"ﾐｽﾞｴ","pref":"岡山県","city":"倉敷市","address":"水江"},
{"zip_code":"7100001","kana_pref":"ｵｶﾔﾏｹﾝ","kana_city":"ｸﾗｼｷｼ","kana_address":"ﾐﾂﾀﾞ","pref":"岡山県","city":"倉敷市","address":"三田"},
{"zip_code":"7100823","kana_pref":"ｵｶﾔﾏｹﾝ","kana_city":"ｸﾗｼｷｼ","kana_address":"ﾐﾅﾐﾏﾁ","pref":"岡山県","city":"倉敷市","address":"南町"},
{"zip_code":"7100065","kana_pref":"ｵｶﾔﾏｹﾝ","kana_city":"ｸﾗｼｷｼ","kana_address":"ﾐﾔﾏｴ","pref":"岡山県","city":"倉敷市","address":"宮前"},
{"zip_code":"7100052","kana_pref":"ｵｶﾔﾏｹﾝ","kana_city":"ｸﾗｼｷｼ","kana_address":"ﾐﾜ","pref":"岡山県","city":"倉敷市","address":"美和"},
{"zip_code":"7100044","kana_pref":"ｵｶﾔﾏｹﾝ","kana_city":"ｸﾗｼｷｼ","kana_address":"ﾑｺｳﾔﾏ","pref":"岡山県","city":"倉敷市","address":"向山"},
{"zip_code":"7100825","kana_pref":"ｵｶﾔﾏｹﾝ","kana_city":"ｸﾗｼｷｼ","kana_address":"ﾔｽｴ","pref":"岡山県","city":"倉敷市","address":"安江"},
{"zip_code":"7100842","kana_pref":"ｵｶﾔﾏｹﾝ","kana_city":"ｸﾗｼｷｼ","kana_address":"ﾖｼｵｶ","pref":"岡山県","city":"倉敷市","address":"吉岡"},
{"zip_code":"7101201","kana_pref":"ｵｶﾔﾏｹﾝ","kana_city":"ｿｳｼﾞｬｼ","kana_address":"ｸｼﾛ","pref":"岡山県","city":"総社市","address":"久代"},
{"zip_code":"7101203","kana_pref":"ｵｶﾔﾏｹﾝ","kana_city":"ｿｳｼﾞｬｼ","kana_address":"ｼﾝﾎﾟﾝ","pref":"岡山県","city":"総社市","address":"新本"},
{"zip_code":"7101202","kana_pref":"ｵｶﾔﾏｹﾝ","kana_city":"ｿｳｼﾞｬｼ","kana_address":"ﾔﾏﾀﾞ","pref":"岡山県","city":"総社市","address":"山田"}]}