{"zip_code":[
{"zip_code":"7110924","kana_pref":"ｵｶﾔﾏｹﾝ","kana_city":"ｸﾗｼｷｼ","kana_address":"ｵｵﾊﾞﾀｹ","pref":"岡山県","city":"倉敷市","address":"大畠"},
{"zip_code":"7110931","kana_pref":"ｵｶﾔﾏｹﾝ","kana_city":"ｸﾗｼｷｼ","kana_address":"ｺｼﾞﾏｱｶｻｷ","pref":"岡山県","city":"倉敷市","address":"児島赤崎"},
{"zip_code":"7110913","kana_pref":"ｵｶﾔﾏｹﾝ","kana_city":"ｸﾗｼｷｼ","kana_address":"ｺｼﾞﾏｱｼﾞﾉ","pref":"岡山県","city":"倉敷市","address":"児島味野"},
{"zip_code":"7110917","kana_pref":"ｵｶﾔﾏｹﾝ","kana_city":"ｸﾗｼｷｼ","kana_address":"ｺｼﾞﾏｱｼﾞﾉｶﾐ","pref":"岡山県","city":"倉敷市","address":"児島味野上"},
{"zip_code":"7110916","kana_pref":"ｵｶﾔﾏｹﾝ","kana_city":"ｸﾗｼｷｼ","kana_address":"ｺｼﾞﾏｱｼﾞﾉｼﾛﾔﾏ","pref":"岡山県","city":"倉敷市","address":"児島味野城山"},
{"zip_code":"7110914","kana_pref":"ｵｶﾔﾏｹﾝ","kana_city":"ｸﾗｼｷｼ","kana_address":"ｺｼﾞﾏｱｼﾞﾉｼﾞｮｳ","pref":"岡山県","city":"倉敷市","address":"児島味野城"},
{"zip_code":"7110915","kana_pref":"ｵｶﾔﾏｹﾝ","kana_city":"ｸﾗｼｷｼ","kana_address":"ｺｼﾞﾏｱｼﾞﾉﾔﾏﾀﾞﾁｮｳ","pref":"岡山県","city":"倉敷市","address":"児島味野山田町"},
{"zip_code":"7110923","kana_pref":"ｵｶﾔﾏｹﾝ","kana_city":"ｸﾗｼｷｼ","kana_address":"ｺｼﾞﾏｱﾂ","pref":"岡山県","city":"倉敷市","address":"児島阿津"},
{"zip_code":"7110935","kana_pref":"ｵｶﾔﾏｹﾝ","kana_city":"ｸﾗｼｷｼ","kana_address":"ｺｼﾞﾏｳﾉﾂ","pref":"岡山県","city":"倉敷市","address":"児島宇野津"},
{"zip_code":"7110921","kana_pref":"ｵｶﾔﾏｹﾝ","kana_city":"ｸﾗｼｷｼ","kana_address":"ｺｼﾞﾏｴｷﾏｴ","pref":"岡山県","city":"倉敷市","address":"児島駅前"},
{"zip_code":"7110911","kana_pref":"ｵｶﾔﾏｹﾝ","kana_city":"ｸﾗｼｷｼ","kana_address":"ｺｼﾞﾏｵｶﾞﾜ","pref":"岡山県","city":"倉敷市","address":"児島小川"},
{"zip_code":"7110912","kana_pref":"ｵｶﾔﾏｹﾝ","kana_city":"ｸﾗｼｷｼ","kana_address":"ｺｼﾞﾏｵｶﾞﾜﾁｮｳ","pref":"岡山県","city":"倉敷市","address":"児島小川町"},
{"zip_code":"7110907","kana_pref":"ｵｶﾔﾏｹﾝ","kana_city":"ｸﾗｼｷｼ","kana_address":"ｺｼﾞﾏｶﾐﾉﾁｮｳ","pref":"岡山県","city":"倉敷市","address":"児島上の町"},
{"zip_code":"7110906","kana_pref":"ｵｶﾔﾏｹﾝ","kana_city":"ｸﾗｼｷｼ","kana_address":"ｺｼﾞﾏｼﾓﾉﾁｮｳ","pref":"岡山県","city":"倉敷市","address":"児島下の町"},
{"zip_code":"7110933","kana_pref":"ｵｶﾔﾏｹﾝ","kana_city":"ｸﾗｼｷｼ","kana_address":"ｺｼﾞﾏｶﾖｳ","pref":"岡山県","city":"倉敷市","address":"児島通生"},
{"zip_code":"7110904","kana_pref":"ｵｶﾔﾏｹﾝ","kana_city":"ｸﾗｼｷｼ","kana_address":"ｺｼﾞﾏｶﾗｺﾄ","pref":"岡山県","city":"倉敷市","address":"児島唐琴"},
{"zip_code":"7110905","kana_pref":"ｵｶﾔﾏｹﾝ","kana_city":"ｸﾗｼｷｼ","kana_address":"ｺｼﾞﾏｶﾗｺﾄﾁｮｳ","pref":"岡山県","city":"倉敷市","address":"児島唐琴町"},
{"zip_code":"7110934","kana_pref":"ｵｶﾔﾏｹﾝ","kana_city":"ｸﾗｼｷｼ","kana_address":"ｺｼﾞﾏｼｵﾅｽ","pref":"岡山県","city":"倉敷市","address":"児島塩生"},
{"zip_code":"7110902","kana_pref":"ｵｶﾔﾏｹﾝ","kana_city":"ｸﾗｼｷｼ","kana_address":"ｺｼﾞﾏｼﾛｵ","pref":"岡山県","city":"倉敷市","address":"児島白尾"},
{"zip_code":"7110903","kana_pref":"ｵｶﾔﾏｹﾝ","kana_city":"ｸﾗｼｷｼ","kana_address":"ｺｼﾞﾏﾀﾉｸﾁ","pref":"岡山県","city":"倉敷市","address":"児島田の口"},
{"zip_code":"7110937","kana_pref":"ｵｶﾔﾏｹﾝ","kana_city":"ｸﾗｼｷｼ","kana_address":"ｺｼﾞﾏﾋｴﾀﾞﾁｮｳ","pref":"岡山県","city":"倉敷市","address":"児島稗田町"},
{"zip_code":"7110922","kana_pref":"ｵｶﾔﾏｹﾝ","kana_city":"ｸﾗｼｷｼ","kana_address":"ｺｼﾞﾏﾓﾄﾊﾏﾁｮｳ","pref":"岡山県","city":"倉敷市","address":"児島元浜町"},
{"zip_code":"7110936","kana_pref":"ｵｶﾔﾏｹﾝ","kana_city":"ｸﾗｼｷｼ","kana_address":"ｺｼﾞﾏﾔﾅｲﾀﾞﾁｮｳ","pref":"岡山県","city":"倉敷市","address":"児島柳田町"},
{"zip_code":"7110901","kana_pref":"ｵｶﾔﾏｹﾝ","kana_city":"ｸﾗｼｷｼ","kana_address":"ｺｼﾞﾏﾕｶﾞ","pref":"岡山県","city":"倉敷市","address":"児島由加"},
{"zip_code":"7110932","kana_pref":"ｵｶﾔﾏｹﾝ","kana_city":"ｸﾗｼｷｼ","kana_address":"ｺﾓｲｹ","pref":"岡山県","city":"倉敷市","address":"菰池"},
{"zip_code":"7110927","kana_pref":"ｵｶﾔﾏｹﾝ","kana_city":"ｸﾗｼｷｼ","kana_address":"ｼﾓﾂｲ","pref":"岡山県","city":"倉敷市","address":"下津井"},
{"zip_code":"7110925","kana_pref":"ｵｶﾔﾏｹﾝ","kana_city":"ｸﾗｼｷｼ","kana_address":"ｼﾓﾂｲﾀﾉｳﾗ","pref":"岡山県","city":"倉敷市","address":"下津井田之浦"},
{"zip_code":"7110926","kana_pref":"ｵｶﾔﾏｹﾝ","kana_city":"ｸﾗｼｷｼ","kana_address":"ｼﾓﾂｲﾌｷｱｹﾞ","pref":"岡山県","city":"倉敷市","address":"下津井吹上"}]}