{"zip_code":[
{"zip_code":"7128054","kana_pref":"ｵｶﾔﾏｹﾝ","kana_city":"ｸﾗｼｷｼ","kana_address":"ｳｼｵﾄﾞｵﾘ","pref":"岡山県","city":"倉敷市","address":"潮通"},
{"zip_code":"7128013","kana_pref":"ｵｶﾔﾏｹﾝ","kana_city":"ｸﾗｼｷｼ","kana_address":"ｶﾒｼﾞﾏ","pref":"岡山県","city":"倉敷市","address":"亀島"},
{"zip_code":"7128061","kana_pref":"ｵｶﾔﾏｹﾝ","kana_city":"ｸﾗｼｷｼ","kana_address":"ｶﾝﾀﾞ","pref":"岡山県","city":"倉敷市","address":"神田"},
{"zip_code":"7128032","kana_pref":"ｵｶﾔﾏｹﾝ","kana_city":"ｸﾗｼｷｼ","kana_address":"ｷﾀｾ","pref":"岡山県","city":"倉敷市","address":"北畝"},
{"zip_code":"7128012","kana_pref":"ｵｶﾔﾏｹﾝ","kana_city":"ｸﾗｼｷｼ","kana_address":"ﾂﾗｼﾞﾏ","pref":"岡山県","city":"倉敷市","address":"連島"},
{"zip_code":"7128014","kana_pref":"ｵｶﾔﾏｹﾝ","kana_city":"ｸﾗｼｷｼ","kana_address":"ﾂﾗｼﾞﾏﾁｭｳｵｳ","pref":"岡山県","city":"倉敷市","address":"連島中央"},
{"zip_code":"7128002","kana_pref":"ｵｶﾔﾏｹﾝ","kana_city":"ｸﾗｼｷｼ","kana_address":"ﾂﾗｼﾞﾏﾁｮｳｶﾒｼﾞﾏｼﾝﾃﾞﾝ","pref":"岡山県","city":"倉敷市","address":"連島町亀島新田"},
{"zip_code":"7128011","kana_pref":"ｵｶﾔﾏｹﾝ","kana_city":"ｸﾗｼｷｼ","kana_address":"ﾂﾗｼﾞﾏﾁｮｳﾂﾗｼﾞﾏ","pref":"岡山県","city":"倉敷市","address":"連島町連島"},
{"zip_code":"7128006","kana_pref":"ｵｶﾔﾏｹﾝ","kana_city":"ｸﾗｼｷｼ","kana_address":"ﾂﾗｼﾞﾏﾁｮｳﾂﾙｼﾝﾃﾞﾝ","pref":"岡山県","city":"倉敷市","address":"連島町鶴新田"},
{"zip_code":"7128001","kana_pref":"ｵｶﾔﾏｹﾝ","kana_city":"ｸﾗｼｷｼ","kana_address":"ﾂﾗｼﾞﾏﾁｮｳﾆｼﾉｳﾗ","pref":"岡山県","city":"倉敷市","address":"連島町西之浦"},
{"zip_code":"7128015","kana_pref":"ｵｶﾔﾏｹﾝ","kana_city":"ｸﾗｼｷｼ","kana_address":"ﾂﾗｼﾞﾏﾁｮｳﾔｶﾞﾗ","pref":"岡山県","city":"倉敷市","address":"連島町矢柄"},
{"zip_code":"7128007","kana_pref":"ｵｶﾔﾏｹﾝ","kana_city":"ｸﾗｼｷｼ","kana_address":"ﾂﾙﾉｳﾗ","pref":"岡山県","city":"倉敷市","address":"鶴の浦"},
{"zip_code":"7128051","kana_pref":"ｵｶﾔﾏｹﾝ","kana_city":"ｸﾗｼｷｼ","kana_address":"ﾅｶｾ","pref":"岡山県","city":"倉敷市","address":"中畝"},
{"zip_code":"7128044","kana_pref":"ｵｶﾔﾏｹﾝ","kana_city":"ｸﾗｼｷｼ","kana_address":"ﾋｶﾞｼﾂﾞｶ","pref":"岡山県","city":"倉敷市","address":"東塚"},
{"zip_code":"7128043","kana_pref":"ｵｶﾔﾏｹﾝ","kana_city":"ｸﾗｼｷｼ","kana_address":"ﾋﾛｴ","pref":"岡山県","city":"倉敷市","address":"広江"},
{"zip_code":"7128031","kana_pref":"ｵｶﾔﾏｹﾝ","kana_city":"ｸﾗｼｷｼ","kana_address":"ﾌｸﾀﾞﾁｮｳｳﾗﾀﾞ","pref":"岡山県","city":"倉敷市","address":"福田町浦田"},
{"zip_code":"7128046","kana_pref":"ｵｶﾔﾏｹﾝ","kana_city":"ｸﾗｼｷｼ","kana_address":"ﾌｸﾀﾞﾁｮｳｺｼﾝﾃﾞﾝ","pref":"岡山県","city":"倉敷市","address":"福田町古新田"},
{"zip_code":"7128045","kana_pref":"ｵｶﾔﾏｹﾝ","kana_city":"ｸﾗｼｷｼ","kana_address":"ﾌｸﾀﾞﾁｮｳﾋｶﾞｼﾂﾞｶ","pref":"岡山県","city":"倉敷市","address":"福田町東塚"},
{"zip_code":"7128042","kana_pref":"ｵｶﾔﾏｹﾝ","kana_city":"ｸﾗｼｷｼ","kana_address":"ﾌｸﾀﾞﾁｮｳﾋﾛｴ","pref":"岡山県","city":"倉敷市","address":"福田町広江"},
{"zip_code":"7128041","kana_pref":"ｵｶﾔﾏｹﾝ","kana_city":"ｸﾗｼｷｼ","kana_address":"ﾌｸﾀﾞﾁｮｳﾌｸﾀﾞ","pref":"岡山県","city":"倉敷市","address":"福田町福田"},
{"zip_code":"7128052","kana_pref":"ｵｶﾔﾏｹﾝ","kana_city":"ｸﾗｼｷｼ","kana_address":"ﾏﾂｴ","pref":"岡山県","city":"倉敷市","address":"松江"},
{"zip_code":"7128039","kana_pref":"ｵｶﾔﾏｹﾝ","kana_city":"ｸﾗｼｷｼ","kana_address":"ﾐｽﾞｼﾏｱｲｵｲﾁｮｳ","pref":"岡山県","city":"倉敷市","address":"水島相生町"},
{"zip_code":"7128064","kana_pref":"ｵｶﾔﾏｹﾝ","kana_city":"ｸﾗｼｷｼ","kana_address":"ﾐｽﾞｼﾏｱｵﾊﾞﾁｮｳ","pref":"岡山県","city":"倉敷市","address":"水島青葉町"},
{"zip_code":"7128071","kana_pref":"ｵｶﾔﾏｹﾝ","kana_city":"ｸﾗｼｷｼ","kana_address":"ﾐｽﾞｼﾏｶｲｶﾞﾝﾄﾞｵﾘ","pref":"岡山県","city":"倉敷市","address":"水島海岸通"},
{"zip_code":"7128074","kana_pref":"ｵｶﾔﾏｹﾝ","kana_city":"ｸﾗｼｷｼ","kana_address":"ﾐｽﾞｼﾏｶﾜｻｷﾄﾞｵﾘ","pref":"岡山県","city":"倉敷市","address":"水島川崎通"},
{"zip_code":"7128066","kana_pref":"ｵｶﾔﾏｹﾝ","kana_city":"ｸﾗｼｷｼ","kana_address":"ﾐｽﾞｼﾏﾀｶｻｺﾞﾁｮｳ","pref":"岡山県","city":"倉敷市","address":"水島高砂町"},
{"zip_code":"7128072","kana_pref":"ｵｶﾔﾏｹﾝ","kana_city":"ｸﾗｼｷｼ","kana_address":"ﾐｽﾞｼﾏﾅｶﾄﾞｵﾘ","pref":"岡山県","city":"倉敷市","address":"水島中通"},
{"zip_code":"7128073","kana_pref":"ｵｶﾔﾏｹﾝ","kana_city":"ｸﾗｼｷｼ","kana_address":"ﾐｽﾞｼﾏﾆｼﾄﾞｵﾘ","pref":"岡山県","city":"倉敷市","address":"水島西通"},
{"zip_code":"7128021","kana_pref":"ｵｶﾔﾏｹﾝ","kana_city":"ｸﾗｼｷｼ","kana_address":"ﾐｽﾞｼﾏﾋｶﾞｼｶﾞﾜﾁｮｳ","pref":"岡山県","city":"倉敷市","address":"水島東川町"},
{"zip_code":"7128037","kana_pref":"ｵｶﾔﾏｹﾝ","kana_city":"ｸﾗｼｷｼ","kana_address":"ﾐｽﾞｼﾏﾋｶﾞｼｺﾄﾌﾞｷﾁｮｳ","pref":"岡山県","city":"倉敷市","address":"水島東寿町"},
{"zip_code":"7128038","kana_pref":"ｵｶﾔﾏｹﾝ","kana_city":"ｸﾗｼｷｼ","kana_address":"ﾐｽﾞｼﾏﾆｼｺﾄﾌﾞｷﾁｮｳ","pref":"岡山県","city":"倉敷市","address":"水島西寿町"},
{"zip_code":"7128033","kana_pref":"ｵｶﾔﾏｹﾝ","kana_city":"ｸﾗｼｷｼ","kana_address":"ﾐｽﾞｼﾏﾋｶﾞｼｻｶｴﾏﾁ","pref":"岡山県","city":"倉敷市","address":"水島東栄町"},
{"zip_code":"7128034","kana_pref":"ｵｶﾔﾏｹﾝ","kana_city":"ｸﾗｼｷｼ","kana_address":"ﾐｽﾞｼﾏﾆｼｻｶｴﾏﾁ","pref":"岡山県","city":"倉敷市","address":"水島西栄町"},
{"zip_code":"7128057","kana_pref":"ｵｶﾔﾏｹﾝ","kana_city":"ｸﾗｼｷｼ","kana_address":"ﾐｽﾞｼﾏﾋｶﾞｼﾁﾄﾞﾘﾁｮｳ","pref":"岡山県","city":"倉敷市","address":"水島東千鳥町"},
{"zip_code":"7128065","kana_pref":"ｵｶﾔﾏｹﾝ","kana_city":"ｸﾗｼｷｼ","kana_address":"ﾐｽﾞｼﾏﾆｼﾁﾄﾞﾘﾁｮｳ","pref":"岡山県","city":"倉敷市","address":"水島西千鳥町"},
{"zip_code":"7128058","kana_pref":"ｵｶﾔﾏｹﾝ","kana_city":"ｸﾗｼｷｼ","kana_address":"ﾐｽﾞｼﾏﾋｶﾞｼﾄｷﾜﾁｮｳ","pref":"岡山県","city":"倉敷市","address":"水島東常盤町"},
{"zip_code":"7128059","kana_pref":"ｵｶﾔﾏｹﾝ","kana_city":"ｸﾗｼｷｼ","kana_address":"ﾐｽﾞｼﾏﾆｼﾄｷﾜﾁｮｳ","pref":"岡山県","city":"倉敷市","address":"水島西常盤町"},
{"zip_code":"7128035","kana_pref":"ｵｶﾔﾏｹﾝ","kana_city":"ｸﾗｼｷｼ","kana_address":"ﾐｽﾞｼﾏﾋｶﾞｼﾔﾖｲﾁｮｳ","pref":"岡山県","city":"倉敷市","address":"水島東弥生町"},
{"zip_code":"7128036","kana_pref":"ｵｶﾔﾏｹﾝ","kana_city":"ｸﾗｼｷｼ","kana_address":"ﾐｽﾞｼﾏﾆｼﾔﾖｲﾁｮｳ","pref":"岡山県","city":"倉敷市","address":"水島西弥生町"},
{"zip_code":"7128056","kana_pref":"ｵｶﾔﾏｹﾝ","kana_city":"ｸﾗｼｷｼ","kana_address":"ﾐｽﾞｼﾏﾌｸｻｷﾁｮｳ","pref":"岡山県","city":"倉敷市","address":"水島福崎町"},
{"zip_code":"7128025","kana_pref":"ｵｶﾔﾏｹﾝ","kana_city":"ｸﾗｼｷｼ","kana_address":"ﾐｽﾞｼﾏﾐﾅﾐｶｽｶﾞﾁｮｳ","pref":"岡山県","city":"倉敷市","address":"水島南春日町"},
{"zip_code":"7128024","kana_pref":"ｵｶﾔﾏｹﾝ","kana_city":"ｸﾗｼｷｼ","kana_address":"ﾐｽﾞｼﾏｷﾀｶｽｶﾞﾁｮｳ","pref":"岡山県","city":"倉敷市","address":"水島北春日町"},
{"zip_code":"7128004","kana_pref":"ｵｶﾔﾏｹﾝ","kana_city":"ｸﾗｼｷｼ","kana_address":"ﾐｽﾞｼﾏﾐﾅﾐｶﾒｼﾞﾏﾁｮｳ","pref":"岡山県","city":"倉敷市","address":"水島南亀島町"},
{"zip_code":"7128005","kana_pref":"ｵｶﾔﾏｹﾝ","kana_city":"ｸﾗｼｷｼ","kana_address":"ﾐｽﾞｼﾏｷﾀｶﾒｼﾞﾏﾁｮｳ","pref":"岡山県","city":"倉敷市","address":"水島北亀島町"},
{"zip_code":"7128063","kana_pref":"ｵｶﾔﾏｹﾝ","kana_city":"ｸﾗｼｷｼ","kana_address":"ﾐｽﾞｼﾏﾐﾅﾐｻｲﾜｲﾁｮｳ","pref":"岡山県","city":"倉敷市","address":"水島南幸町"},
{"zip_code":"7128062","kana_pref":"ｵｶﾔﾏｹﾝ","kana_city":"ｸﾗｼｷｼ","kana_address":"ﾐｽﾞｼﾏｷﾀｻｲﾜｲﾁｮｳ","pref":"岡山県","city":"倉敷市","address":"水島北幸町"},
{"zip_code":"7128026","kana_pref":"ｵｶﾔﾏｹﾝ","kana_city":"ｸﾗｼｷｼ","kana_address":"ﾐｽﾞｼﾏﾐﾅﾐﾐｽﾞﾎﾁｮｳ","pref":"岡山県","city":"倉敷市","address":"水島南瑞穂町"},
{"zip_code":"7128027","kana_pref":"ｵｶﾔﾏｹﾝ","kana_city":"ｸﾗｼｷｼ","kana_address":"ﾐｽﾞｼﾏｷﾀﾐｽﾞﾎﾁｮｳ","pref":"岡山県","city":"倉敷市","address":"水島北瑞穂町"},
{"zip_code":"7128023","kana_pref":"ｵｶﾔﾏｹﾝ","kana_city":"ｸﾗｼｷｼ","kana_address":"ﾐｽﾞｼﾏﾐﾅﾐﾐﾄﾞﾘﾏﾁ","pref":"岡山県","city":"倉敷市","address":"水島南緑町"},
{"zip_code":"7128022","kana_pref":"ｵｶﾔﾏｹﾝ","kana_city":"ｸﾗｼｷｼ","kana_address":"ﾐｽﾞｼﾏｷﾀﾐﾄﾞﾘﾏﾁ","pref":"岡山県","city":"倉敷市","address":"水島北緑町"},
{"zip_code":"7128003","kana_pref":"ｵｶﾔﾏｹﾝ","kana_city":"ｸﾗｼｷｼ","kana_address":"ﾐｽﾞｼﾏﾐｮｳｼﾞﾝﾁｮｳ","pref":"岡山県","city":"倉敷市","address":"水島明神町"},
{"zip_code":"7128055","kana_pref":"ｵｶﾔﾏｹﾝ","kana_city":"ｸﾗｼｷｼ","kana_address":"ﾐﾅﾐｾ","pref":"岡山県","city":"倉敷市","address":"南畝"},
{"zip_code":"7128053","kana_pref":"ｵｶﾔﾏｹﾝ","kana_city":"ｸﾗｼｷｼ","kana_address":"ﾖﾋﾞﾏﾂ","pref":"岡山県","city":"倉敷市","address":"呼松"},
{"zip_code":"7128053","kana_pref":"ｵｶﾔﾏｹﾝ","kana_city":"ｸﾗｼｷｼ","kana_address":"ﾖﾋﾞﾏﾂﾁｮｳ","pref":"岡山県","city":"倉敷市","address":"呼松町"}]}