{"zip_code":[
{"zip_code":"7138102","kana_pref":"ｵｶﾔﾏｹﾝ","kana_city":"ｸﾗｼｷｼ","kana_address":"ﾀﾏｼﾏ","pref":"岡山県","city":"倉敷市","address":"玉島"},
{"zip_code":"7138121","kana_pref":"ｵｶﾔﾏｹﾝ","kana_city":"ｸﾗｼｷｼ","kana_address":"ﾀﾏｼﾏｱｶﾞｻｷ","pref":"岡山県","city":"倉敷市","address":"玉島阿賀崎"},
{"zip_code":"7138101","kana_pref":"ｵｶﾔﾏｹﾝ","kana_city":"ｸﾗｼｷｼ","kana_address":"ﾀﾏｼﾏｳﾜﾅﾘ","pref":"岡山県","city":"倉敷市","address":"玉島上成"},
{"zip_code":"7138103","kana_pref":"ｵｶﾔﾏｹﾝ","kana_city":"ｸﾗｼｷｼ","kana_address":"ﾀﾏｼﾏｵﾄｼﾏ","pref":"岡山県","city":"倉敷市","address":"玉島乙島"},
{"zip_code":"7138123","kana_pref":"ｵｶﾔﾏｹﾝ","kana_city":"ｸﾗｼｷｼ","kana_address":"ﾀﾏｼﾏｶｼﾜｼﾞﾏ","pref":"岡山県","city":"倉敷市","address":"玉島柏島"},
{"zip_code":"7138124","kana_pref":"ｵｶﾔﾏｹﾝ","kana_city":"ｸﾗｼｷｼ","kana_address":"ﾀﾏｼﾏｶｼﾜﾀﾞｲ","pref":"岡山県","city":"倉敷市","address":"玉島柏台"},
{"zip_code":"7138126","kana_pref":"ｵｶﾔﾏｹﾝ","kana_city":"ｸﾗｼｷｼ","kana_address":"ﾀﾏｼﾏｸﾛｻｷ","pref":"岡山県","city":"倉敷市","address":"玉島黒崎"},
{"zip_code":"7138127","kana_pref":"ｵｶﾔﾏｹﾝ","kana_city":"ｸﾗｼｷｼ","kana_address":"ﾀﾏｼﾏｸﾛｻｷｼﾝﾏﾁ","pref":"岡山県","city":"倉敷市","address":"玉島黒崎新町"},
{"zip_code":"7138112","kana_pref":"ｵｶﾔﾏｹﾝ","kana_city":"ｸﾗｼｷｼ","kana_address":"ﾀﾏｼﾏｽｴ","pref":"岡山県","city":"倉敷市","address":"玉島陶"},
{"zip_code":"7138122","kana_pref":"ｵｶﾔﾏｹﾝ","kana_city":"ｸﾗｼｷｼ","kana_address":"ﾀﾏｼﾏﾁｭｳｵｳﾁｮｳ","pref":"岡山県","city":"倉敷市","address":"玉島中央町"},
{"zip_code":"7138116","kana_pref":"ｵｶﾔﾏｹﾝ","kana_city":"ｸﾗｼｷｼ","kana_address":"ﾀﾏｼﾏﾄﾐ","pref":"岡山県","city":"倉敷市","address":"玉島富"},
{"zip_code":"7138111","kana_pref":"ｵｶﾔﾏｹﾝ","kana_city":"ｸﾗｼｷｼ","kana_address":"ﾀﾏｼﾏﾊｯﾄﾘ","pref":"岡山県","city":"倉敷市","address":"玉島服部"},
{"zip_code":"7138115","kana_pref":"ｵｶﾔﾏｹﾝ","kana_city":"ｸﾗｼｷｼ","kana_address":"ﾀﾏｼﾏﾐﾁｸﾞﾁ","pref":"岡山県","city":"倉敷市","address":"玉島道口"},
{"zip_code":"7138114","kana_pref":"ｵｶﾔﾏｹﾝ","kana_city":"ｸﾗｼｷｼ","kana_address":"ﾀﾏｼﾏﾐﾁｺﾞｴ","pref":"岡山県","city":"倉敷市","address":"玉島道越"},
{"zip_code":"7138113","kana_pref":"ｵｶﾔﾏｹﾝ","kana_city":"ｸﾗｼｷｼ","kana_address":"ﾀﾏｼﾏﾔｼﾏ","pref":"岡山県","city":"倉敷市","address":"玉島八島"},
{"zip_code":"7138125","kana_pref":"ｵｶﾔﾏｹﾝ","kana_city":"ｸﾗｼｷｼ","kana_address":"ﾀﾏｼﾏﾕｳｻﾞｷ","pref":"岡山県","city":"倉敷市","address":"玉島勇崎"}]}