{"zip_code":[
{"zip_code":"7140000","kana_pref":"ｵｶﾔﾏｹﾝ","kana_city":"ｶｻｵｶｼ","kana_address":"","pref":"岡山県","city":"笠岡市","address":""},
{"zip_code":"7140014","kana_pref":"ｵｶﾔﾏｹﾝ","kana_city":"ｶｻｵｶｼ","kana_address":"ｱｲｵｲ","pref":"岡山県","city":"笠岡市","address":"相生"},
{"zip_code":"7140056","kana_pref":"ｵｶﾔﾏｹﾝ","kana_city":"ｶｻｵｶｼ","kana_address":"ｱｻﾋｶﾞｵｶ","pref":"岡山県","city":"笠岡市","address":"旭が丘"},
{"zip_code":"7140075","kana_pref":"ｵｶﾔﾏｹﾝ","kana_city":"ｶｻｵｶｼ","kana_address":"ｱﾘﾀﾞ","pref":"岡山県","city":"笠岡市","address":"有田"},
{"zip_code":"7140082","kana_pref":"ｵｶﾔﾏｹﾝ","kana_city":"ｶｻｵｶｼ","kana_address":"ｲﾁﾊﾞﾝﾁｮｳ","pref":"岡山県","city":"笠岡市","address":"一番町"},
{"zip_code":"7140022","kana_pref":"ｵｶﾔﾏｹﾝ","kana_city":"ｶｻｵｶｼ","kana_address":"ｲﾏﾀﾞﾃ","pref":"岡山県","city":"笠岡市","address":"今立"},
{"zip_code":"7140041","kana_pref":"ｵｶﾔﾏｹﾝ","kana_city":"ｶｻｵｶｼ","kana_address":"ｲﾘｴ","pref":"岡山県","city":"笠岡市","address":"入江"},
{"zip_code":"7140091","kana_pref":"ｵｶﾔﾏｹﾝ","kana_city":"ｶｻｵｶｼ","kana_address":"ｴｼ","pref":"岡山県","city":"笠岡市","address":"絵師"},
{"zip_code":"7140055","kana_pref":"ｵｶﾔﾏｹﾝ","kana_city":"ｶｻｵｶｼ","kana_address":"ｵｴﾊﾏ","pref":"岡山県","city":"笠岡市","address":"生江浜"},
{"zip_code":"7140013","kana_pref":"ｵｶﾔﾏｹﾝ","kana_city":"ｶｻｵｶｼ","kana_address":"ｵｵｲﾐﾅﾐ","pref":"岡山県","city":"笠岡市","address":"大井南"},
{"zip_code":"7140061","kana_pref":"ｵｶﾔﾏｹﾝ","kana_city":"ｶｻｵｶｼ","kana_address":"ｵｵｹﾞ","pref":"岡山県","city":"笠岡市","address":"大げ"},
{"zip_code":"7140073","kana_pref":"ｵｶﾔﾏｹﾝ","kana_city":"ｶｻｵｶｼ","kana_address":"ｵｵｺｳ","pref":"岡山県","city":"笠岡市","address":"大河"},
{"zip_code":"7140033","kana_pref":"ｵｶﾔﾏｹﾝ","kana_city":"ｶｻｵｶｼ","kana_address":"ｵｵｼﾏﾅｶ","pref":"岡山県","city":"笠岡市","address":"大島中"},
{"zip_code":"7140003","kana_pref":"ｵｶﾔﾏｹﾝ","kana_city":"ｶｻｵｶｼ","kana_address":"ｵｻｶ","pref":"岡山県","city":"笠岡市","address":"尾坂"},
{"zip_code":"7140076","kana_pref":"ｵｶﾔﾏｹﾝ","kana_city":"ｶｻｵｶｼ","kana_address":"ｵｼﾅﾃﾞ","pref":"岡山県","city":"笠岡市","address":"押撫"},
{"zip_code":"7140012","kana_pref":"ｵｶﾔﾏｹﾝ","kana_city":"ｶｻｵｶｼ","kana_address":"ｵﾋﾞﾗｲ","pref":"岡山県","city":"笠岡市","address":"小平井"},
{"zip_code":"7140081","kana_pref":"ｵｶﾔﾏｹﾝ","kana_city":"ｶｻｵｶｼ","kana_address":"ｶｻｵｶ","pref":"岡山県","city":"笠岡市","address":"笠岡"},
{"zip_code":"7140025","kana_pref":"ｵｶﾔﾏｹﾝ","kana_city":"ｶｻｵｶｼ","kana_address":"ｶｽｶﾞﾀﾞｲ","pref":"岡山県","city":"笠岡市","address":"春日台"},
{"zip_code":"7140057","kana_pref":"ｵｶﾔﾏｹﾝ","kana_city":"ｶｻｵｶｼ","kana_address":"ｶﾅｳﾗ","pref":"岡山県","city":"笠岡市","address":"金浦"},
{"zip_code":"7140052","kana_pref":"ｵｶﾔﾏｹﾝ","kana_city":"ｶｻｵｶｼ","kana_address":"ｶﾌﾞﾄﾁｭｳｵｳﾁｮｳ","pref":"岡山県","city":"笠岡市","address":"カブト中央町"},
{"zip_code":"7140051","kana_pref":"ｵｶﾔﾏｹﾝ","kana_city":"ｶｻｵｶｼ","kana_address":"ｶﾌﾞﾄﾋｶﾞｼﾏﾁ","pref":"岡山県","city":"笠岡市","address":"カブト東町"},
{"zip_code":"7140053","kana_pref":"ｵｶﾔﾏｹﾝ","kana_city":"ｶｻｵｶｼ","kana_address":"ｶﾌﾞﾄﾆｼﾏﾁ","pref":"岡山県","city":"笠岡市","address":"カブト西町"},
{"zip_code":"7140046","kana_pref":"ｵｶﾔﾏｹﾝ","kana_city":"ｶｻｵｶｼ","kana_address":"ｶﾌﾞﾄﾐﾅﾐﾏﾁ","pref":"岡山県","city":"笠岡市","address":"カブト南町"},
{"zip_code":"7140301","kana_pref":"ｵｶﾔﾏｹﾝ","kana_city":"ｶｻｵｶｼ","kana_address":"ｷﾀｷﾞｼﾏﾁｮｳ","pref":"岡山県","city":"笠岡市","address":"北木島町"},
{"zip_code":"7140096","kana_pref":"ｵｶﾔﾏｹﾝ","kana_city":"ｶｻｵｶｼ","kana_address":"ｷｭｳﾊﾞﾝﾁｮｳ","pref":"岡山県","city":"笠岡市","address":"九番町"},
{"zip_code":"7140063","kana_pref":"ｵｶﾔﾏｹﾝ","kana_city":"ｶｻｵｶｼ","kana_address":"ｺｳｶﾝﾁｮｳ","pref":"岡山県","city":"笠岡市","address":"鋼管町"},
{"zip_code":"7140002","kana_pref":"ｵｶﾔﾏｹﾝ","kana_city":"ｶｻｵｶｼ","kana_address":"ｺｳﾉ","pref":"岡山県","city":"笠岡市","address":"甲弩"},
{"zip_code":"7140044","kana_pref":"ｵｶﾔﾏｹﾝ","kana_city":"ｶｻｵｶｼ","kana_address":"ｺｳﾉｼﾏ","pref":"岡山県","city":"笠岡市","address":"神島"},
{"zip_code":"7140034","kana_pref":"ｵｶﾔﾏｹﾝ","kana_city":"ｶｻｵｶｼ","kana_address":"ｺｳﾉｼﾏｿﾄｳﾗ","pref":"岡山県","city":"笠岡市","address":"神島外浦"},
{"zip_code":"7140086","kana_pref":"ｵｶﾔﾏｹﾝ","kana_city":"ｶｻｵｶｼ","kana_address":"ｺﾞﾊﾞﾝﾁｮｳ","pref":"岡山県","city":"笠岡市","address":"五番町"},
{"zip_code":"7140084","kana_pref":"ｵｶﾔﾏｹﾝ","kana_city":"ｶｻｵｶｼ","kana_address":"ｻﾝﾊﾞﾝﾁｮｳ","pref":"岡山県","city":"笠岡市","address":"三番町"},
{"zip_code":"7140077","kana_pref":"ｵｶﾔﾏｹﾝ","kana_city":"ｶｻｵｶｼ","kana_address":"ｼﾉｻｶ","pref":"岡山県","city":"笠岡市","address":"篠坂"},
{"zip_code":"7140036","kana_pref":"ｵｶﾔﾏｹﾝ","kana_city":"ｶｻｵｶｼ","kana_address":"ｼﾗｲｼｼﾞﾏ","pref":"岡山県","city":"笠岡市","address":"白石島"},
{"zip_code":"7140065","kana_pref":"ｵｶﾔﾏｹﾝ","kana_city":"ｶｻｵｶｼ","kana_address":"ｼﾛﾐﾀﾞｲ","pref":"岡山県","city":"笠岡市","address":"城見台"},
{"zip_code":"7140005","kana_pref":"ｵｶﾔﾏｹﾝ","kana_city":"ｶｻｵｶｼ","kana_address":"ｼﾝｶﾞ","pref":"岡山県","city":"笠岡市","address":"新賀"},
{"zip_code":"7140093","kana_pref":"ｵｶﾔﾏｹﾝ","kana_city":"ｶｻｵｶｼ","kana_address":"ｼﾝﾖｺｼﾏ","pref":"岡山県","city":"笠岡市","address":"新横島"},
{"zip_code":"7140097","kana_pref":"ｵｶﾔﾏｹﾝ","kana_city":"ｶｻｵｶｼ","kana_address":"ｼﾞｭｳﾊﾞﾝﾁｮｳ","pref":"岡山県","city":"笠岡市","address":"十番町"},
{"zip_code":"7140098","kana_pref":"ｵｶﾔﾏｹﾝ","kana_city":"ｶｻｵｶｼ","kana_address":"ｼﾞｭｳｲﾁﾊﾞﾝﾁｮｳ","pref":"岡山県","city":"笠岡市","address":"十一番町"},
{"zip_code":"7140004","kana_pref":"ｵｶﾔﾏｹﾝ","kana_city":"ｶｻｵｶｼ","kana_address":"ｾｷﾄﾞ","pref":"岡山県","city":"笠岡市","address":"関戸"},
{"zip_code":"7140021","kana_pref":"ｵｶﾔﾏｹﾝ","kana_city":"ｶｻｵｶｼ","kana_address":"ｿﾉｲ","pref":"岡山県","city":"笠岡市","address":"園井"},
{"zip_code":"7140035","kana_pref":"ｵｶﾔﾏｹﾝ","kana_city":"ｶｻｵｶｼ","kana_address":"ﾀｶｼﾏ","pref":"岡山県","city":"笠岡市","address":"高島"},
{"zip_code":"7140047","kana_pref":"ｵｶﾔﾏｹﾝ","kana_city":"ｶｻｵｶｼ","kana_address":"ﾀｸﾐﾁｮｳ","pref":"岡山県","city":"笠岡市","address":"拓海町"},
{"zip_code":"7140088","kana_pref":"ｵｶﾔﾏｹﾝ","kana_city":"ｶｻｵｶｼ","kana_address":"ﾁｭｳｵｳﾁｮｳ","pref":"岡山県","city":"笠岡市","address":"中央町"},
{"zip_code":"7140092","kana_pref":"ｵｶﾔﾏｹﾝ","kana_city":"ｶｻｵｶｼ","kana_address":"ﾄﾐｵｶ","pref":"岡山県","city":"笠岡市","address":"富岡"},
{"zip_code":"7140094","kana_pref":"ｵｶﾔﾏｹﾝ","kana_city":"ｶｻｵｶｼ","kana_address":"ﾅﾅﾊﾞﾝﾁｮｳ","pref":"岡山県","city":"笠岡市","address":"七番町"},
{"zip_code":"7140032","kana_pref":"ｵｶﾔﾏｹﾝ","kana_city":"ｶｻｵｶｼ","kana_address":"ﾆｼｵｵｼﾏ","pref":"岡山県","city":"笠岡市","address":"西大島"},
{"zip_code":"7140031","kana_pref":"ｵｶﾔﾏｹﾝ","kana_city":"ｶｻｵｶｼ","kana_address":"ﾆｼｵｵｼﾏｼﾝﾃﾞﾝ","pref":"岡山県","city":"笠岡市","address":"西大島新田"},
{"zip_code":"7140072","kana_pref":"ｵｶﾔﾏｹﾝ","kana_city":"ｶｻｵｶｼ","kana_address":"ﾆｼｵｵﾄﾞ","pref":"岡山県","city":"笠岡市","address":"西大戸"},
{"zip_code":"7140064","kana_pref":"ｵｶﾔﾏｹﾝ","kana_city":"ｶｻｵｶｼ","kana_address":"ﾆｼﾓﾋﾞﾗ","pref":"岡山県","city":"笠岡市","address":"西茂平"},
{"zip_code":"7140083","kana_pref":"ｵｶﾔﾏｹﾝ","kana_city":"ｶｻｵｶｼ","kana_address":"ﾆﾊﾞﾝﾁｮｳ","pref":"岡山県","city":"笠岡市","address":"二番町"},
{"zip_code":"7140078","kana_pref":"ｵｶﾔﾏｹﾝ","kana_city":"ｶｻｵｶｼ","kana_address":"ﾆｭｳﾀ","pref":"岡山県","city":"笠岡市","address":"入田"},
{"zip_code":"7140001","kana_pref":"ｵｶﾔﾏｹﾝ","kana_city":"ｶｻｵｶｼ","kana_address":"ﾊｼﾘﾃﾞ","pref":"岡山県","city":"笠岡市","address":"走出"},
{"zip_code":"7140095","kana_pref":"ｵｶﾔﾏｹﾝ","kana_city":"ｶｻｵｶｼ","kana_address":"ﾊﾁﾊﾞﾝﾁｮｳ","pref":"岡山県","city":"笠岡市","address":"八番町"},
{"zip_code":"7140071","kana_pref":"ｵｶﾔﾏｹﾝ","kana_city":"ｶｻｵｶｼ","kana_address":"ﾋｶﾞｼｵｵﾄﾞ","pref":"岡山県","city":"笠岡市","address":"東大戸"},
{"zip_code":"7140302","kana_pref":"ｵｶﾔﾏｹﾝ","kana_city":"ｶｻｵｶｼ","kana_address":"ﾋｼﾏ","pref":"岡山県","city":"笠岡市","address":"飛島"},
{"zip_code":"7140023","kana_pref":"ｵｶﾔﾏｹﾝ","kana_city":"ｶｻｵｶｼ","kana_address":"ﾋﾛﾊﾏ","pref":"岡山県","city":"笠岡市","address":"広浜"},
{"zip_code":"7140054","kana_pref":"ｵｶﾔﾏｹﾝ","kana_city":"ｶｻｵｶｼ","kana_address":"ﾍｲｾｲﾁｮｳ","pref":"岡山県","city":"笠岡市","address":"平成町"},
{"zip_code":"7140024","kana_pref":"ｵｶﾔﾏｹﾝ","kana_city":"ｶｻｵｶｼ","kana_address":"ﾏｶｲ","pref":"岡山県","city":"笠岡市","address":"馬飼"},
{"zip_code":"7140037","kana_pref":"ｵｶﾔﾏｹﾝ","kana_city":"ｶｻｵｶｼ","kana_address":"ﾏﾅﾍﾞｼﾏ","pref":"岡山県","city":"笠岡市","address":"真鍋島"},
{"zip_code":"7140048","kana_pref":"ｵｶﾔﾏｹﾝ","kana_city":"ｶｻｵｶｼ","kana_address":"ﾐﾄﾞﾘﾏﾁ","pref":"岡山県","city":"笠岡市","address":"緑町"},
{"zip_code":"7140045","kana_pref":"ｵｶﾔﾏｹﾝ","kana_city":"ｶｻｵｶｼ","kana_address":"ﾐﾅﾄﾁｮｳ","pref":"岡山県","city":"笠岡市","address":"港町"},
{"zip_code":"7140006","kana_pref":"ｵｶﾔﾏｹﾝ","kana_city":"ｶｻｵｶｼ","kana_address":"ﾐﾉｺｼ","pref":"岡山県","city":"笠岡市","address":"みの越"},
{"zip_code":"7140042","kana_pref":"ｵｶﾔﾏｹﾝ","kana_city":"ｶｻｵｶｼ","kana_address":"ﾐﾉﾊﾏ","pref":"岡山県","city":"笠岡市","address":"美の浜"},
{"zip_code":"7140038","kana_pref":"ｵｶﾔﾏｹﾝ","kana_city":"ｶｻｵｶｼ","kana_address":"ﾑｼﾏ","pref":"岡山県","city":"笠岡市","address":"六島"},
{"zip_code":"7140066","kana_pref":"ｵｶﾔﾏｹﾝ","kana_city":"ｶｻｵｶｼ","kana_address":"ﾓﾁﾉｴ","pref":"岡山県","city":"笠岡市","address":"用之江"},
{"zip_code":"7140062","kana_pref":"ｵｶﾔﾏｹﾝ","kana_city":"ｶｻｵｶｼ","kana_address":"ﾓﾋﾞﾗ","pref":"岡山県","city":"笠岡市","address":"茂平"},
{"zip_code":"7140007","kana_pref":"ｵｶﾔﾏｹﾝ","kana_city":"ｶｻｵｶｼ","kana_address":"ﾔﾏｸﾞﾁ","pref":"岡山県","city":"笠岡市","address":"山口"},
{"zip_code":"7140043","kana_pref":"ｵｶﾔﾏｹﾝ","kana_city":"ｶｻｵｶｼ","kana_address":"ﾖｺｼﾏ","pref":"岡山県","city":"笠岡市","address":"横島"},
{"zip_code":"7140011","kana_pref":"ｵｶﾔﾏｹﾝ","kana_city":"ｶｻｵｶｼ","kana_address":"ﾖｼﾀﾞ","pref":"岡山県","city":"笠岡市","address":"吉田"},
{"zip_code":"7140074","kana_pref":"ｵｶﾔﾏｹﾝ","kana_city":"ｶｻｵｶｼ","kana_address":"ﾖｼﾊﾏ","pref":"岡山県","city":"笠岡市","address":"吉浜"},
{"zip_code":"7140085","kana_pref":"ｵｶﾔﾏｹﾝ","kana_city":"ｶｻｵｶｼ","kana_address":"ﾖﾝﾊﾞﾝﾁｮｳ","pref":"岡山県","city":"笠岡市","address":"四番町"},
{"zip_code":"7140087","kana_pref":"ｵｶﾔﾏｹﾝ","kana_city":"ｶｻｵｶｼ","kana_address":"ﾛｸﾊﾞﾝﾁｮｳ","pref":"岡山県","city":"笠岡市","address":"六番町"},
{"zip_code":"7141405","kana_pref":"ｵｶﾔﾏｹﾝ","kana_city":"ｲﾊﾞﾗｼ","kana_address":"ﾋﾞｾｲﾁｮｳｳﾄ","pref":"岡山県","city":"井原市","address":"美星町宇戸"},
{"zip_code":"7141404","kana_pref":"ｵｶﾔﾏｹﾝ","kana_city":"ｲﾊﾞﾗｼ","kana_address":"ﾋﾞｾｲﾁｮｳｳﾄｳ","pref":"岡山県","city":"井原市","address":"美星町烏頭"},
{"zip_code":"7141402","kana_pref":"ｵｶﾔﾏｹﾝ","kana_city":"ｲﾊﾞﾗｼ","kana_address":"ﾋﾞｾｲﾁｮｳｳﾄﾀﾞﾆ","pref":"岡山県","city":"井原市","address":"美星町宇戸谷"},
{"zip_code":"7141411","kana_pref":"ｵｶﾔﾏｹﾝ","kana_city":"ｲﾊﾞﾗｼ","kana_address":"ﾋﾞｾｲﾁｮｳｵｵｸﾗ","pref":"岡山県","city":"井原市","address":"美星町大倉"},
{"zip_code":"7141403","kana_pref":"ｵｶﾔﾏｹﾝ","kana_city":"ｲﾊﾞﾗｼ","kana_address":"ﾋﾞｾｲﾁｮｳｶﾐｺｳｽﾞｴ","pref":"岡山県","city":"井原市","address":"美星町上高末"},
{"zip_code":"7141414","kana_pref":"ｵｶﾔﾏｹﾝ","kana_city":"ｲﾊﾞﾗｼ","kana_address":"ﾋﾞｾｲﾁｮｳｸﾛｷﾞ","pref":"岡山県","city":"井原市","address":"美星町黒木"},
{"zip_code":"7141407","kana_pref":"ｵｶﾔﾏｹﾝ","kana_city":"ｲﾊﾞﾗｼ","kana_address":"ﾋﾞｾｲﾁｮｳｸﾛﾀﾀﾞ","pref":"岡山県","city":"井原市","address":"美星町黒忠"},
{"zip_code":"7141413","kana_pref":"ｵｶﾔﾏｹﾝ","kana_city":"ｲﾊﾞﾗｼ","kana_address":"ﾋﾞｾｲﾁｮｳﾆｼﾐｽﾞｽﾅ","pref":"岡山県","city":"井原市","address":"美星町西水砂"},
{"zip_code":"7141412","kana_pref":"ｵｶﾔﾏｹﾝ","kana_city":"ｲﾊﾞﾗｼ","kana_address":"ﾋﾞｾｲﾁｮｳﾋｶﾞｼﾐｽﾞｽﾅ","pref":"岡山県","city":"井原市","address":"美星町東水砂"},
{"zip_code":"7141415","kana_pref":"ｵｶﾔﾏｹﾝ","kana_city":"ｲﾊﾞﾗｼ","kana_address":"ﾋﾞｾｲﾁｮｳﾎｼﾀﾞ","pref":"岡山県","city":"井原市","address":"美星町星田"},
{"zip_code":"7141406","kana_pref":"ｵｶﾔﾏｹﾝ","kana_city":"ｲﾊﾞﾗｼ","kana_address":"ﾋﾞｾｲﾁｮｳﾐﾔﾏ","pref":"岡山県","city":"井原市","address":"美星町三山"},
{"zip_code":"7141401","kana_pref":"ｵｶﾔﾏｹﾝ","kana_city":"ｲﾊﾞﾗｼ","kana_address":"ﾋﾞｾｲﾁｮｳﾒｲｼﾞ","pref":"岡山県","city":"井原市","address":"美星町明治"},
{"zip_code":"7142125","kana_pref":"ｵｶﾔﾏｹﾝ","kana_city":"ｲﾊﾞﾗｼ","kana_address":"ﾖｼｲﾁｮｳｲｹﾀﾞﾆ","pref":"岡山県","city":"井原市","address":"芳井町池谷"},
{"zip_code":"7142124","kana_pref":"ｵｶﾔﾏｹﾝ","kana_city":"ｲﾊﾞﾗｼ","kana_address":"ﾖｼｲﾁｮｳｲﾔﾏ","pref":"岡山県","city":"井原市","address":"芳井町井山"},
{"zip_code":"7142103","kana_pref":"ｵｶﾔﾏｹﾝ","kana_city":"ｲﾊﾞﾗｼ","kana_address":"ﾖｼｲﾁｮｳｳﾄｶﾞﾜ","pref":"岡山県","city":"井原市","address":"芳井町宇戸川"},
{"zip_code":"7142101","kana_pref":"ｵｶﾔﾏｹﾝ","kana_city":"ｲﾊﾞﾗｼ","kana_address":"ﾖｼｲﾁｮｳｶｼﾞｴ","pref":"岡山県","city":"井原市","address":"芳井町梶江"},
{"zip_code":"7142123","kana_pref":"ｵｶﾔﾏｹﾝ","kana_city":"ｲﾊﾞﾗｼ","kana_address":"ﾖｼｲﾁｮｳｶﾀﾂﾞｶ","pref":"岡山県","city":"井原市","address":"芳井町片塚"},
{"zip_code":"7142232","kana_pref":"ｵｶﾔﾏｹﾝ","kana_city":"ｲﾊﾞﾗｼ","kana_address":"ﾖｼｲﾁｮｳｶﾐｼｷﾞ","pref":"岡山県","city":"井原市","address":"芳井町上鴫"},
{"zip_code":"7142114","kana_pref":"ｵｶﾔﾏｹﾝ","kana_city":"ｲﾊﾞﾗｼ","kana_address":"ﾖｼｲﾁｮｳｶﾜｲ","pref":"岡山県","city":"井原市","address":"芳井町川相"},
{"zip_code":"7142121","kana_pref":"ｵｶﾔﾏｹﾝ","kana_city":"ｲﾊﾞﾗｼ","kana_address":"ﾖｼｲﾁｮｳｻﾔ","pref":"岡山県","city":"井原市","address":"芳井町佐屋"},
{"zip_code":"7142231","kana_pref":"ｵｶﾔﾏｹﾝ","kana_city":"ｲﾊﾞﾗｼ","kana_address":"ﾖｼｲﾁｮｳｼﾓｼｷﾞ","pref":"岡山県","city":"井原市","address":"芳井町下鴫"},
{"zip_code":"7142122","kana_pref":"ｵｶﾔﾏｹﾝ","kana_city":"ｲﾊﾞﾗｼ","kana_address":"ﾖｼｲﾁｮｳﾀﾈ","pref":"岡山県","city":"井原市","address":"芳井町種"},
{"zip_code":"7142113","kana_pref":"ｵｶﾔﾏｹﾝ","kana_city":"ｲﾊﾞﾗｼ","kana_address":"ﾖｼｲﾁｮｳﾃﾝｼﾞﾝﾔﾏ","pref":"岡山県","city":"井原市","address":"芳井町天神山"},
{"zip_code":"7142234","kana_pref":"ｵｶﾔﾏｹﾝ","kana_city":"ｲﾊﾞﾗｼ","kana_address":"ﾖｼｲﾁｮｳﾆｼﾐﾊﾗ","pref":"岡山県","city":"井原市","address":"芳井町西三原"},
{"zip_code":"7142104","kana_pref":"ｵｶﾔﾏｹﾝ","kana_city":"ｲﾊﾞﾗｼ","kana_address":"ﾖｼｲﾁｮｳﾊﾅﾀﾞｷ","pref":"岡山県","city":"井原市","address":"芳井町花滝"},
{"zip_code":"7142341","kana_pref":"ｵｶﾔﾏｹﾝ","kana_city":"ｲﾊﾞﾗｼ","kana_address":"ﾖｼｲﾁｮｳﾋｶﾞｼﾐﾊﾗ","pref":"岡山県","city":"井原市","address":"芳井町東三原"},
{"zip_code":"7142112","kana_pref":"ｵｶﾔﾏｹﾝ","kana_city":"ｲﾊﾞﾗｼ","kana_address":"ﾖｼｲﾁｮｳﾔﾅｾ","pref":"岡山県","city":"井原市","address":"芳井町簗瀬"},
{"zip_code":"7142233","kana_pref":"ｵｶﾔﾏｹﾝ","kana_city":"ｲﾊﾞﾗｼ","kana_address":"ﾖｼｲﾁｮｳﾔﾏﾑﾗ","pref":"岡山県","city":"井原市","address":"芳井町山村"},
{"zip_code":"7142102","kana_pref":"ｵｶﾔﾏｹﾝ","kana_city":"ｲﾊﾞﾗｼ","kana_address":"ﾖｼｲﾁｮｳﾖｲ","pref":"岡山県","city":"井原市","address":"芳井町与井"},
{"zip_code":"7142111","kana_pref":"ｵｶﾔﾏｹﾝ","kana_city":"ｲﾊﾞﾗｼ","kana_address":"ﾖｼｲﾁｮｳﾖｼｲ","pref":"岡山県","city":"井原市","address":"芳井町吉井"},
{"zip_code":"7140101","kana_pref":"ｵｶﾔﾏｹﾝ","kana_city":"ｱｻｸﾁｼ","kana_address":"ﾖﾘｼﾏﾁｮｳ","pref":"岡山県","city":"浅口市","address":"寄島町"},
{"zip_code":"7141200","kana_pref":"ｵｶﾔﾏｹﾝ","kana_city":"ｵﾀﾞｸﾞﾝﾔｶｹﾞﾁｮｳ","kana_address":"","pref":"岡山県","city":"小田郡矢掛町","address":""},
{"zip_code":"7141225","kana_pref":"ｵｶﾔﾏｹﾝ","kana_city":"ｵﾀﾞｸﾞﾝﾔｶｹﾞﾁｮｳ","kana_address":"ｱｽﾐ","pref":"岡山県","city":"小田郡矢掛町","address":"浅海"},
{"zip_code":"7141205","kana_pref":"ｵｶﾔﾏｹﾝ","kana_city":"ｵﾀﾞｸﾞﾝﾔｶｹﾞﾁｮｳ","kana_address":"ｳｽﾞﾐ","pref":"岡山県","city":"小田郡矢掛町","address":"宇角"},
{"zip_code":"7141206","kana_pref":"ｵｶﾔﾏｹﾝ","kana_city":"ｵﾀﾞｸﾞﾝﾔｶｹﾞﾁｮｳ","kana_address":"ｳﾁﾀﾞ","pref":"岡山県","city":"小田郡矢掛町","address":"内田"},
{"zip_code":"7141221","kana_pref":"ｵｶﾔﾏｹﾝ","kana_city":"ｵﾀﾞｸﾞﾝﾔｶｹﾞﾁｮｳ","kana_address":"ｳﾅｲ","pref":"岡山県","city":"小田郡矢掛町","address":"宇内"},
{"zip_code":"7141226","kana_pref":"ｵｶﾔﾏｹﾝ","kana_city":"ｵﾀﾞｸﾞﾝﾔｶｹﾞﾁｮｳ","kana_address":"ｴﾗ","pref":"岡山県","city":"小田郡矢掛町","address":"江良"},
{"zip_code":"7141227","kana_pref":"ｵｶﾔﾏｹﾝ","kana_city":"ｵﾀﾞｸﾞﾝﾔｶｹﾞﾁｮｳ","kana_address":"ｵﾀﾞ","pref":"岡山県","city":"小田郡矢掛町","address":"小田"},
{"zip_code":"7141202","kana_pref":"ｵｶﾔﾏｹﾝ","kana_city":"ｵﾀﾞｸﾞﾝﾔｶｹﾞﾁｮｳ","kana_address":"ｵﾊﾞﾔｼ","pref":"岡山県","city":"小田郡矢掛町","address":"小林"},
{"zip_code":"7141203","kana_pref":"ｵｶﾔﾏｹﾝ","kana_city":"ｵﾀﾞｸﾞﾝﾔｶｹﾞﾁｮｳ","kana_address":"ｶﾐｺｳｽﾞｴ","pref":"岡山県","city":"小田郡矢掛町","address":"上高末"},
{"zip_code":"7141213","kana_pref":"ｵｶﾔﾏｹﾝ","kana_city":"ｵﾀﾞｸﾞﾝﾔｶｹﾞﾁｮｳ","kana_address":"ｻﾄﾔﾏﾀﾞ","pref":"岡山県","city":"小田郡矢掛町","address":"里山田"},
{"zip_code":"7141204","kana_pref":"ｵｶﾔﾏｹﾝ","kana_city":"ｵﾀﾞｸﾞﾝﾔｶｹﾞﾁｮｳ","kana_address":"ｼﾓｺｳｽﾞｴ","pref":"岡山県","city":"小田郡矢掛町","address":"下高末"},
{"zip_code":"7141215","kana_pref":"ｵｶﾔﾏｹﾝ","kana_city":"ｵﾀﾞｸﾞﾝﾔｶｹﾞﾁｮｳ","kana_address":"ﾅｶ","pref":"岡山県","city":"小田郡矢掛町","address":"中"},
{"zip_code":"7141222","kana_pref":"ｵｶﾔﾏｹﾝ","kana_city":"ｵﾀﾞｸﾞﾝﾔｶｹﾞﾁｮｳ","kana_address":"ﾆｼｶﾜﾓ","pref":"岡山県","city":"小田郡矢掛町","address":"西川面"},
{"zip_code":"7141223","kana_pref":"ｵｶﾔﾏｹﾝ","kana_city":"ｵﾀﾞｸﾞﾝﾔｶｹﾞﾁｮｳ","kana_address":"ﾋｶﾞｼｶﾜﾓ","pref":"岡山県","city":"小田郡矢掛町","address":"東川面"},
{"zip_code":"7141211","kana_pref":"ｵｶﾔﾏｹﾝ","kana_city":"ｵﾀﾞｸﾞﾝﾔｶｹﾞﾁｮｳ","kana_address":"ﾋｶﾞｼﾐﾅﾘ","pref":"岡山県","city":"小田郡矢掛町","address":"東三成"},
{"zip_code":"7141214","kana_pref":"ｵｶﾔﾏｹﾝ","kana_city":"ｵﾀﾞｸﾞﾝﾔｶｹﾞﾁｮｳ","kana_address":"ﾐﾅﾐﾔﾏﾀﾞ","pref":"岡山県","city":"小田郡矢掛町","address":"南山田"},
{"zip_code":"7141224","kana_pref":"ｵｶﾔﾏｹﾝ","kana_city":"ｵﾀﾞｸﾞﾝﾔｶｹﾞﾁｮｳ","kana_address":"ﾓﾄﾎﾘ","pref":"岡山県","city":"小田郡矢掛町","address":"本堀"},
{"zip_code":"7141201","kana_pref":"ｵｶﾔﾏｹﾝ","kana_city":"ｵﾀﾞｸﾞﾝﾔｶｹﾞﾁｮｳ","kana_address":"ﾔｶｹﾞ","pref":"岡山県","city":"小田郡矢掛町","address":"矢掛"},
{"zip_code":"7141212","kana_pref":"ｵｶﾔﾏｹﾝ","kana_city":"ｵﾀﾞｸﾞﾝﾔｶｹﾞﾁｮｳ","kana_address":"ﾖｺﾀﾞﾆ","pref":"岡山県","city":"小田郡矢掛町","address":"横谷"}]}