{"zip_code":[
{"zip_code":"7160000","kana_pref":"ｵｶﾔﾏｹﾝ","kana_city":"ﾀｶﾊｼｼ","kana_address":"","pref":"岡山県","city":"高梁市","address":""},
{"zip_code":"7160009","kana_pref":"ｵｶﾔﾏｹﾝ","kana_city":"ﾀｶﾊｼｼ","kana_address":"ｱｲﾉﾏﾁ","pref":"岡山県","city":"高梁市","address":"間之町"},
{"zip_code":"7160039","kana_pref":"ｵｶﾔﾏｹﾝ","kana_city":"ﾀｶﾊｼｼ","kana_address":"ｱｻﾋﾏﾁ","pref":"岡山県","city":"高梁市","address":"旭町"},
{"zip_code":"7160018","kana_pref":"ｵｶﾔﾏｹﾝ","kana_city":"ﾀｶﾊｼｼ","kana_address":"ｲｶﾞﾏﾁ","pref":"岡山県","city":"高梁市","address":"伊賀町"},
{"zip_code":"7160015","kana_pref":"ｵｶﾔﾏｹﾝ","kana_city":"ﾀｶﾊｼｼ","kana_address":"ｲｼﾋﾞﾔﾁｮｳ","pref":"岡山県","city":"高梁市","address":"石火矢町"},
{"zip_code":"7161321","kana_pref":"ｵｶﾔﾏｹﾝ","kana_city":"ﾀｶﾊｼｼ","kana_address":"ｳｶﾝﾁｮｳｳｶﾝ","pref":"岡山県","city":"高梁市","address":"有漢町有漢"},
{"zip_code":"7161322","kana_pref":"ｵｶﾔﾏｹﾝ","kana_city":"ﾀｶﾊｼｼ","kana_address":"ｳｶﾝﾁｮｳｶﾐｳｶﾝ","pref":"岡山県","city":"高梁市","address":"有漢町上有漢"},
{"zip_code":"7160004","kana_pref":"ｵｶﾔﾏｹﾝ","kana_city":"ﾀｶﾊｼｼ","kana_address":"ｳﾁｻﾝｹﾞ","pref":"岡山県","city":"高梁市","address":"内山下"},
{"zip_code":"7160007","kana_pref":"ｵｶﾔﾏｹﾝ","kana_city":"ﾀｶﾊｼｼ","kana_address":"ｵｸﾏﾝﾀﾞﾁｮｳ","pref":"岡山県","city":"高梁市","address":"奥万田町"},
{"zip_code":"7160061","kana_pref":"ｵｶﾔﾏｹﾝ","kana_city":"ﾀｶﾊｼｼ","kana_address":"ｵﾁｱｲﾁｮｳｱﾍﾞ","pref":"岡山県","city":"高梁市","address":"落合町阿部"},
{"zip_code":"7160064","kana_pref":"ｵｶﾔﾏｹﾝ","kana_city":"ﾀｶﾊｼｼ","kana_address":"ｵﾁｱｲﾁｮｳｼﾛﾁ","pref":"岡山県","city":"高梁市","address":"落合町福地"},
{"zip_code":"7160062","kana_pref":"ｵｶﾔﾏｹﾝ","kana_city":"ﾀｶﾊｼｼ","kana_address":"ｵﾁｱｲﾁｮｳﾁｶﾉﾘ","pref":"岡山県","city":"高梁市","address":"落合町近似"},
{"zip_code":"7160063","kana_pref":"ｵｶﾔﾏｹﾝ","kana_city":"ﾀｶﾊｼｼ","kana_address":"ｵﾁｱｲﾁｮｳﾊﾗﾀﾞ","pref":"岡山県","city":"高梁市","address":"落合町原田"},
{"zip_code":"7160017","kana_pref":"ｵｶﾔﾏｹﾝ","kana_city":"ﾀｶﾊｼｼ","kana_address":"ｵﾝｻﾞｷﾁｮｳ","pref":"岡山県","city":"高梁市","address":"御前町"},
{"zip_code":"7160028","kana_pref":"ｵｶﾔﾏｹﾝ","kana_city":"ﾀｶﾊｼｼ","kana_address":"ｶｷﾉｷﾁｮｳ","pref":"岡山県","city":"高梁市","address":"柿木町"},
{"zip_code":"7160023","kana_pref":"ｵｶﾔﾏｹﾝ","kana_city":"ﾀｶﾊｼｼ","kana_address":"ｶｼﾞﾏﾁ","pref":"岡山県","city":"高梁市","address":"鍜冶町"},
{"zip_code":"7160013","kana_pref":"ｵｶﾔﾏｹﾝ","kana_city":"ﾀｶﾊｼｼ","kana_address":"ｶﾀﾊﾗﾁｮｳ","pref":"岡山県","city":"高梁市","address":"片原町"},
{"zip_code":"7160041","kana_pref":"ｵｶﾔﾏｹﾝ","kana_city":"ﾀｶﾊｼｼ","kana_address":"ｶﾐﾀﾞﾆﾁｮｳ","pref":"岡山県","city":"高梁市","address":"上谷町"},
{"zip_code":"7160222","kana_pref":"ｵｶﾔﾏｹﾝ","kana_city":"ﾀｶﾊｼｼ","kana_address":"ｶﾜｶﾐﾁｮｳｵｵﾊﾞﾗ","pref":"岡山県","city":"高梁市","address":"川上町大原"},
{"zip_code":"7160211","kana_pref":"ｵｶﾔﾏｹﾝ","kana_city":"ﾀｶﾊｼｼ","kana_address":"ｶﾜｶﾐﾁｮｳｶﾐｵｵﾀｹ","pref":"岡山県","city":"高梁市","address":"川上町上大竹"},
{"zip_code":"7160223","kana_pref":"ｵｶﾔﾏｹﾝ","kana_city":"ﾀｶﾊｼｼ","kana_address":"ｶﾜｶﾐﾁｮｳｺｳﾔﾏ","pref":"岡山県","city":"高梁市","address":"川上町高山"},
{"zip_code":"7160221","kana_pref":"ｵｶﾔﾏｹﾝ","kana_city":"ﾀｶﾊｼｼ","kana_address":"ｶﾜｶﾐﾁｮｳｺｳﾔﾏｲﾁ","pref":"岡山県","city":"高梁市","address":"川上町高山市"},
{"zip_code":"7160201","kana_pref":"ｵｶﾔﾏｹﾝ","kana_city":"ﾀｶﾊｼｼ","kana_address":"ｶﾜｶﾐﾁｮｳｼﾞﾄｳ","pref":"岡山県","city":"高梁市","address":"川上町地頭"},
{"zip_code":"7160212","kana_pref":"ｵｶﾔﾏｹﾝ","kana_city":"ﾀｶﾊｼｼ","kana_address":"ｶﾜｶﾐﾁｮｳｼﾓｵｵﾀｹ","pref":"岡山県","city":"高梁市","address":"川上町下大竹"},
{"zip_code":"7160205","kana_pref":"ｵｶﾔﾏｹﾝ","kana_city":"ﾀｶﾊｼｼ","kana_address":"ｶﾜｶﾐﾁｮｳｼﾜｽ","pref":"岡山県","city":"高梁市","address":"川上町臘数"},
{"zip_code":"7160202","kana_pref":"ｵｶﾔﾏｹﾝ","kana_city":"ﾀｶﾊｼｼ","kana_address":"ｶﾜｶﾐﾁｮｳﾅﾅﾁ","pref":"岡山県","city":"高梁市","address":"川上町七地"},
{"zip_code":"7160207","kana_pref":"ｵｶﾔﾏｹﾝ","kana_city":"ﾀｶﾊｼｼ","kana_address":"ｶﾜｶﾐﾁｮｳﾆｶ","pref":"岡山県","city":"高梁市","address":"川上町仁賀"},
{"zip_code":"7160203","kana_pref":"ｵｶﾔﾏｹﾝ","kana_city":"ﾀｶﾊｼｼ","kana_address":"ｶﾜｶﾐﾁｮｳﾐｻﾜ","pref":"岡山県","city":"高梁市","address":"川上町三沢"},
{"zip_code":"7160206","kana_pref":"ｵｶﾔﾏｹﾝ","kana_city":"ﾀｶﾊｼｼ","kana_address":"ｶﾜｶﾐﾁｮｳﾖｼｷﾞ","pref":"岡山県","city":"高梁市","address":"川上町吉木"},
{"zip_code":"7160204","kana_pref":"ｵｶﾔﾏｹﾝ","kana_city":"ﾀｶﾊｼｼ","kana_address":"ｶﾜｶﾐﾁｮｳﾘｮｳｹ","pref":"岡山県","city":"高梁市","address":"川上町領家"},
{"zip_code":"7160005","kana_pref":"ｵｶﾔﾏｹﾝ","kana_city":"ﾀｶﾊｼｼ","kana_address":"ｶﾜﾊﾞﾀﾁｮｳ","pref":"岡山県","city":"高梁市","address":"川端町"},
{"zip_code":"7160026","kana_pref":"ｵｶﾔﾏｹﾝ","kana_city":"ﾀｶﾊｼｼ","kana_address":"ｺｳｶﾞﾁｮｳ","pref":"岡山県","city":"高梁市","address":"甲賀町"},
{"zip_code":"7160025","kana_pref":"ｵｶﾔﾏｹﾝ","kana_city":"ﾀｶﾊｼｼ","kana_address":"ｺｳｼﾞﾝﾁｮｳ","pref":"岡山県","city":"高梁市","address":"荒神町"},
{"zip_code":"7160006","kana_pref":"ｵｶﾔﾏｹﾝ","kana_city":"ﾀｶﾊｼｼ","kana_address":"ｺｺｳｹﾞﾁｮｳ","pref":"岡山県","city":"高梁市","address":"小高下町"},
{"zip_code":"7161311","kana_pref":"ｵｶﾔﾏｹﾝ","kana_city":"ﾀｶﾊｼｼ","kana_address":"ｺｾﾁｮｳ","pref":"岡山県","city":"高梁市","address":"巨瀬町"},
{"zip_code":"7160035","kana_pref":"ｵｶﾔﾏｹﾝ","kana_city":"ﾀｶﾊｼｼ","kana_address":"ｻｶｴﾏﾁ","pref":"岡山県","city":"高梁市","address":"栄町"},
{"zip_code":"7160042","kana_pref":"ｵｶﾔﾏｹﾝ","kana_city":"ﾀｶﾊｼｼ","kana_address":"ｼﾓﾀﾞﾆﾁｮｳ","pref":"岡山県","city":"高梁市","address":"下谷町"},
{"zip_code":"7160022","kana_pref":"ｵｶﾔﾏｹﾝ","kana_city":"ﾀｶﾊｼｼ","kana_address":"ｼﾓﾏﾁ","pref":"岡山県","city":"高梁市","address":"下町"},
{"zip_code":"7160012","kana_pref":"ｵｶﾔﾏｹﾝ","kana_city":"ﾀｶﾊｼｼ","kana_address":"ｼﾝﾏﾁ","pref":"岡山県","city":"高梁市","address":"新町"},
{"zip_code":"7160003","kana_pref":"ｵｶﾔﾏｹﾝ","kana_city":"ﾀｶﾊｼｼ","kana_address":"ﾀｶｸﾗﾁｮｳｵｵｾｵﾅｶﾞ","pref":"岡山県","city":"高梁市","address":"高倉町大瀬八長"},
{"zip_code":"7160053","kana_pref":"ｵｶﾔﾏｹﾝ","kana_city":"ﾀｶﾊｼｼ","kana_address":"ﾀﾏｶﾞﾜﾁｮｳｼﾀｷﾞﾘ","pref":"岡山県","city":"高梁市","address":"玉川町下切"},
{"zip_code":"7160052","kana_pref":"ｵｶﾔﾏｹﾝ","kana_city":"ﾀｶﾊｼｼ","kana_address":"ﾀﾏｶﾞﾜﾁｮｳﾀﾏ","pref":"岡山県","city":"高梁市","address":"玉川町玉"},
{"zip_code":"7160054","kana_pref":"ｵｶﾔﾏｹﾝ","kana_city":"ﾀｶﾊｼｼ","kana_address":"ﾀﾏｶﾞﾜﾁｮｳﾏｼﾊﾗ","pref":"岡山県","city":"高梁市","address":"玉川町増原"},
{"zip_code":"7160024","kana_pref":"ｵｶﾔﾏｹﾝ","kana_city":"ﾀｶﾊｼｼ","kana_address":"ﾀﾞｲｸﾁｮｳ","pref":"岡山県","city":"高梁市","address":"大工町"},
{"zip_code":"7160047","kana_pref":"ｵｶﾔﾏｹﾝ","kana_city":"ﾀｶﾊｼｼ","kana_address":"ﾀﾞﾝﾁｮｳ","pref":"岡山県","city":"高梁市","address":"段町"},
{"zip_code":"7160021","kana_pref":"ｵｶﾔﾏｹﾝ","kana_city":"ﾀｶﾊｼｼ","kana_address":"ﾁｭｳｹﾞﾝﾏﾁ","pref":"岡山県","city":"高梁市","address":"中間町"},
{"zip_code":"7160002","kana_pref":"ｵｶﾔﾏｹﾝ","kana_city":"ﾀｶﾊｼｼ","kana_address":"ﾂｶﾞﾜﾁｮｳｲﾏﾂﾞ","pref":"岡山県","city":"高梁市","address":"津川町今津"},
{"zip_code":"7160001","kana_pref":"ｵｶﾔﾏｹﾝ","kana_city":"ﾀｶﾊｼｼ","kana_address":"ﾂｶﾞﾜﾁｮｳﾔｶﾞﾜ","pref":"岡山県","city":"高梁市","address":"津川町八川"},
{"zip_code":"7160031","kana_pref":"ｵｶﾔﾏｹﾝ","kana_city":"ﾀｶﾊｼｼ","kana_address":"ﾃｯﾎﾟｳﾁｮｳ","pref":"岡山県","city":"高梁市","address":"鉄砲町"},
{"zip_code":"7160019","kana_pref":"ｵｶﾔﾏｹﾝ","kana_city":"ﾀｶﾊｼｼ","kana_address":"ﾃﾗﾏﾁ","pref":"岡山県","city":"高梁市","address":"寺町"},
{"zip_code":"7160014","kana_pref":"ｵｶﾔﾏｹﾝ","kana_city":"ﾀｶﾊｼｼ","kana_address":"ﾅｶﾉﾁｮｳ","pref":"岡山県","city":"高梁市","address":"中之町"},
{"zip_code":"7160045","kana_pref":"ｵｶﾔﾏｹﾝ","kana_city":"ﾀｶﾊｼｼ","kana_address":"ﾅｶﾊﾞﾗﾁｮｳ","pref":"岡山県","city":"高梁市","address":"中原町"},
{"zip_code":"7160333","kana_pref":"ｵｶﾔﾏｹﾝ","kana_city":"ﾀｶﾊｼｼ","kana_address":"ﾅﾘﾜﾁｮｳｱｲｻｶ","pref":"岡山県","city":"高梁市","address":"成羽町相坂"},
{"zip_code":"7160334","kana_pref":"ｵｶﾔﾏｹﾝ","kana_city":"ﾀｶﾊｼｼ","kana_address":"ﾅﾘﾜﾁｮｳｵｻｼﾞ","pref":"岡山県","city":"高梁市","address":"成羽町長地"},
{"zip_code":"7160102","kana_pref":"ｵｶﾔﾏｹﾝ","kana_city":"ﾀｶﾊｼｼ","kana_address":"ﾅﾘﾜﾁｮｳｶﾐﾋﾅ","pref":"岡山県","city":"高梁市","address":"成羽町上日名"},
{"zip_code":"7160332","kana_pref":"ｵｶﾔﾏｹﾝ","kana_city":"ﾀｶﾊｼｼ","kana_address":"ﾅﾘﾜﾁｮｳｺｲｽﾞﾐ","pref":"岡山県","city":"高梁市","address":"成羽町小泉"},
{"zip_code":"7160113","kana_pref":"ｵｶﾔﾏｹﾝ","kana_city":"ﾀｶﾊｼｼ","kana_address":"ﾅﾘﾜﾁｮｳｻｻｷ","pref":"岡山県","city":"高梁市","address":"成羽町佐々木"},
{"zip_code":"7160111","kana_pref":"ｵｶﾔﾏｹﾝ","kana_city":"ﾀｶﾊｼｼ","kana_address":"ﾅﾘﾜﾁｮｳｼﾓﾊﾗ","pref":"岡山県","city":"高梁市","address":"成羽町下原"},
{"zip_code":"7160101","kana_pref":"ｵｶﾔﾏｹﾝ","kana_city":"ﾀｶﾊｼｼ","kana_address":"ﾅﾘﾜﾁｮｳｼﾓﾋﾅ","pref":"岡山県","city":"高梁市","address":"成羽町下日名"},
{"zip_code":"7160121","kana_pref":"ｵｶﾔﾏｹﾝ","kana_city":"ﾀｶﾊｼｼ","kana_address":"ﾅﾘﾜﾁｮｳﾅﾘﾜ","pref":"岡山県","city":"高梁市","address":"成羽町成羽"},
{"zip_code":"7160331","kana_pref":"ｵｶﾔﾏｹﾝ","kana_city":"ﾀｶﾊｼｼ","kana_address":"ﾅﾘﾜﾁｮｳﾊﾈ","pref":"岡山県","city":"高梁市","address":"成羽町羽根"},
{"zip_code":"7160122","kana_pref":"ｵｶﾔﾏｹﾝ","kana_city":"ﾀｶﾊｼｼ","kana_address":"ﾅﾘﾜﾁｮｳﾊﾔﾏ","pref":"岡山県","city":"高梁市","address":"成羽町羽山"},
{"zip_code":"7160335","kana_pref":"ｵｶﾔﾏｹﾝ","kana_city":"ﾀｶﾊｼｼ","kana_address":"ﾅﾘﾜﾁｮｳﾌﾖﾘ","pref":"岡山県","city":"高梁市","address":"成羽町布寄"},
{"zip_code":"7160112","kana_pref":"ｵｶﾔﾏｹﾝ","kana_city":"ﾀｶﾊｼｼ","kana_address":"ﾅﾘﾜﾁｮｳﾎｼﾊﾞﾗ","pref":"岡山県","city":"高梁市","address":"成羽町星原"},
{"zip_code":"7160038","kana_pref":"ｵｶﾔﾏｹﾝ","kana_city":"ﾀｶﾊｼｼ","kana_address":"ﾊﾏﾁｮｳ","pref":"岡山県","city":"高梁市","address":"浜町"},
{"zip_code":"7160044","kana_pref":"ｵｶﾔﾏｹﾝ","kana_city":"ﾀｶﾊｼｼ","kana_address":"ﾊﾗﾀﾞﾐﾅﾐﾁｮｳ","pref":"岡山県","city":"高梁市","address":"原田南町"},
{"zip_code":"7160043","kana_pref":"ｵｶﾔﾏｹﾝ","kana_city":"ﾀｶﾊｼｼ","kana_address":"ﾊﾗﾀﾞｷﾀﾁｮｳ","pref":"岡山県","city":"高梁市","address":"原田北町"},
{"zip_code":"7160034","kana_pref":"ｵｶﾔﾏｹﾝ","kana_city":"ﾀｶﾊｼｼ","kana_address":"ﾋｶﾞｼﾏﾁ","pref":"岡山県","city":"高梁市","address":"東町"},
{"zip_code":"7160301","kana_pref":"ｵｶﾔﾏｹﾝ","kana_city":"ﾀｶﾊｼｼ","kana_address":"ﾋﾞｯﾁｭｳﾁｮｳｼﾄｳﾖｳｾﾞ","pref":"岡山県","city":"高梁市","address":"備中町志藤用瀬"},
{"zip_code":"7160303","kana_pref":"ｵｶﾔﾏｹﾝ","kana_city":"ﾀｶﾊｼｼ","kana_address":"ﾋﾞｯﾁｭｳﾁｮｳﾅｶﾞﾔ","pref":"岡山県","city":"高梁市","address":"備中町長屋"},
{"zip_code":"7160323","kana_pref":"ｵｶﾔﾏｹﾝ","kana_city":"ﾀｶﾊｼｼ","kana_address":"ﾋﾞｯﾁｭｳﾁｮｳﾆｼﾔﾏ","pref":"岡山県","city":"高梁市","address":"備中町西山"},
{"zip_code":"7160322","kana_pref":"ｵｶﾔﾏｹﾝ","kana_city":"ﾀｶﾊｼｼ","kana_address":"ﾋﾞｯﾁｭｳﾁｮｳﾆｼﾕﾉ","pref":"岡山県","city":"高梁市","address":"備中町西油野"},
{"zip_code":"7160321","kana_pref":"ｵｶﾔﾏｹﾝ","kana_city":"ﾀｶﾊｼｼ","kana_address":"ﾋﾞｯﾁｭｳﾁｮｳﾋｶﾞｼﾕﾉ","pref":"岡山県","city":"高梁市","address":"備中町東油野"},
{"zip_code":"7160311","kana_pref":"ｵｶﾔﾏｹﾝ","kana_city":"ﾀｶﾊｼｼ","kana_address":"ﾋﾞｯﾁｭｳﾁｮｳﾋﾗｶﾜ","pref":"岡山県","city":"高梁市","address":"備中町平川"},
{"zip_code":"7160304","kana_pref":"ｵｶﾔﾏｹﾝ","kana_city":"ﾀｶﾊｼｼ","kana_address":"ﾋﾞｯﾁｭｳﾁｮｳﾌｶ","pref":"岡山県","city":"高梁市","address":"備中町布賀"},
{"zip_code":"7160302","kana_pref":"ｵｶﾔﾏｹﾝ","kana_city":"ﾀｶﾊｼｼ","kana_address":"ﾋﾞｯﾁｭｳﾁｮｳﾌｾ","pref":"岡山県","city":"高梁市","address":"備中町布瀬"},
{"zip_code":"7160011","kana_pref":"ｵｶﾔﾏｹﾝ","kana_city":"ﾀｶﾊｼｼ","kana_address":"ﾎﾝﾏﾁ","pref":"岡山県","city":"高梁市","address":"本町"},
{"zip_code":"7160037","kana_pref":"ｵｶﾔﾏｹﾝ","kana_city":"ﾀｶﾊｼｼ","kana_address":"ﾏｻﾑﾈﾁｮｳ","pref":"岡山県","city":"高梁市","address":"正宗町"},
{"zip_code":"7160065","kana_pref":"ｵｶﾔﾏｹﾝ","kana_city":"ﾀｶﾊｼｼ","kana_address":"ﾏﾂﾊﾞﾗﾁｮｳｵｵﾂﾞﾖﾘ","pref":"岡山県","city":"高梁市","address":"松原町大津寄"},
{"zip_code":"7160068","kana_pref":"ｵｶﾔﾏｹﾝ","kana_city":"ﾀｶﾊｼｼ","kana_address":"ﾏﾂﾊﾞﾗﾁｮｳｺｳﾊﾞﾗ","pref":"岡山県","city":"高梁市","address":"松原町神原"},
{"zip_code":"7160067","kana_pref":"ｵｶﾔﾏｹﾝ","kana_city":"ﾀｶﾊｼｼ","kana_address":"ﾏﾂﾊﾞﾗﾁｮｳﾊﾙｷ","pref":"岡山県","city":"高梁市","address":"松原町春木"},
{"zip_code":"7160066","kana_pref":"ｵｶﾔﾏｹﾝ","kana_city":"ﾀｶﾊｼｼ","kana_address":"ﾏﾂﾊﾞﾗﾁｮｳﾏﾂｵｶ","pref":"岡山県","city":"高梁市","address":"松原町松岡"},
{"zip_code":"7160036","kana_pref":"ｵｶﾔﾏｹﾝ","kana_city":"ﾀｶﾊｼｼ","kana_address":"ﾏﾂﾊﾞﾗﾄﾞｵﾘ","pref":"岡山県","city":"高梁市","address":"松原通"},
{"zip_code":"7160051","kana_pref":"ｵｶﾔﾏｹﾝ","kana_city":"ﾀｶﾊｼｼ","kana_address":"ﾏﾂﾔﾏ","pref":"岡山県","city":"高梁市","address":"松山"},
{"zip_code":"7160033","kana_pref":"ｵｶﾔﾏｹﾝ","kana_city":"ﾀｶﾊｼｼ","kana_address":"ﾐﾅﾐﾏﾁ","pref":"岡山県","city":"高梁市","address":"南町"},
{"zip_code":"7160029","kana_pref":"ｵｶﾔﾏｹﾝ","kana_city":"ﾀｶﾊｼｼ","kana_address":"ﾑｺｳﾁｮｳ","pref":"岡山県","city":"高梁市","address":"向町"},
{"zip_code":"7160027","kana_pref":"ｵｶﾔﾏｹﾝ","kana_city":"ﾀｶﾊｼｼ","kana_address":"ﾔﾊﾀﾁｮｳ","pref":"岡山県","city":"高梁市","address":"八幡町"},
{"zip_code":"7160032","kana_pref":"ｵｶﾔﾏｹﾝ","kana_city":"ﾀｶﾊｼｼ","kana_address":"ﾕﾐﾉﾁｮｳ","pref":"岡山県","city":"高梁市","address":"弓之町"},
{"zip_code":"7160046","kana_pref":"ｵｶﾔﾏｹﾝ","kana_city":"ﾀｶﾊｼｼ","kana_address":"ﾖｺﾁｮｳ","pref":"岡山県","city":"高梁市","address":"横町"},
{"zip_code":"7160016","kana_pref":"ｵｶﾔﾏｹﾝ","kana_city":"ﾀｶﾊｼｼ","kana_address":"ﾗｲｷｭｳｼﾞﾁｮｳ","pref":"岡山県","city":"高梁市","address":"頼久寺町"},
{"zip_code":"7160008","kana_pref":"ｵｶﾔﾏｹﾝ","kana_city":"ﾀｶﾊｼｼ","kana_address":"ﾜﾀﾞﾁｮｳ","pref":"岡山県","city":"高梁市","address":"和田町"},
{"zip_code":"7161431","kana_pref":"ｵｶﾔﾏｹﾝ","kana_city":"ﾏﾆﾜｼ","kana_address":"ｱｸﾁ","pref":"岡山県","city":"真庭市","address":"阿口"},
{"zip_code":"7161432","kana_pref":"ｵｶﾔﾏｹﾝ","kana_city":"ﾏﾆﾜｼ","kana_address":"ｶﾐｱｻﾞｴ","pref":"岡山県","city":"真庭市","address":"上呰部"},
{"zip_code":"7161422","kana_pref":"ｵｶﾔﾏｹﾝ","kana_city":"ﾏﾆﾜｼ","kana_address":"ｶﾐﾅｶﾂｲ","pref":"岡山県","city":"真庭市","address":"上中津井"},
{"zip_code":"7161411","kana_pref":"ｵｶﾔﾏｹﾝ","kana_city":"ﾏﾆﾜｼ","kana_address":"ｶﾐﾐｽﾞﾀ","pref":"岡山県","city":"真庭市","address":"上水田"},
{"zip_code":"7161401","kana_pref":"ｵｶﾔﾏｹﾝ","kana_city":"ﾏﾆﾜｼ","kana_address":"ｺﾞﾐｮｳ","pref":"岡山県","city":"真庭市","address":"五名"},
{"zip_code":"7161433","kana_pref":"ｵｶﾔﾏｹﾝ","kana_city":"ﾏﾆﾜｼ","kana_address":"ｼﾓｱｻﾞｴ","pref":"岡山県","city":"真庭市","address":"下呰部"},
{"zip_code":"7161421","kana_pref":"ｵｶﾔﾏｹﾝ","kana_city":"ﾏﾆﾜｼ","kana_address":"ｼﾓﾅｶﾂｲ","pref":"岡山県","city":"真庭市","address":"下中津井"},
{"zip_code":"7161403","kana_pref":"ｵｶﾔﾏｹﾝ","kana_city":"ﾏﾆﾜｼ","kana_address":"ﾐﾔｼﾞ","pref":"岡山県","city":"真庭市","address":"宮地"},
{"zip_code":"7161402","kana_pref":"ｵｶﾔﾏｹﾝ","kana_city":"ﾏﾆﾜｼ","kana_address":"ﾔﾏﾀﾞ","pref":"岡山県","city":"真庭市","address":"山田"},
{"zip_code":"7161100","kana_pref":"ｵｶﾔﾏｹﾝ","kana_city":"ｶｶﾞｸﾞﾝｷﾋﾞﾁｭｳｵｳﾁｮｳ","kana_address":"","pref":"岡山県","city":"加賀郡吉備中央町","address":""},
{"zip_code":"7161131","kana_pref":"ｵｶﾔﾏｹﾝ","kana_city":"ｶｶﾞｸﾞﾝｷﾋﾞﾁｭｳｵｳﾁｮｳ","kana_address":"ｶﾐﾀｹ","pref":"岡山県","city":"加賀郡吉備中央町","address":"上竹"},
{"zip_code":"7161551","kana_pref":"ｵｶﾔﾏｹﾝ","kana_city":"ｶｶﾞｸﾞﾝｷﾋﾞﾁｭｳｵｳﾁｮｳ","kana_address":"ｷﾀ","pref":"岡山県","city":"加賀郡吉備中央町","address":"北"},
{"zip_code":"7161102","kana_pref":"ｵｶﾔﾏｹﾝ","kana_city":"ｶｶﾞｸﾞﾝｷﾋﾞﾁｭｳｵｳﾁｮｳ","kana_address":"ｸﾛﾂﾁ","pref":"岡山県","city":"加賀郡吉備中央町","address":"黒土"},
{"zip_code":"7161242","kana_pref":"ｵｶﾔﾏｹﾝ","kana_city":"ｶｶﾞｸﾞﾝｷﾋﾞﾁｭｳｵｳﾁｮｳ","kana_address":"ｸﾛﾔﾏ","pref":"岡山県","city":"加賀郡吉備中央町","address":"黒山"},
{"zip_code":"7161552","kana_pref":"ｵｶﾔﾏｹﾝ","kana_city":"ｶｶﾞｸﾞﾝｷﾋﾞﾁｭｳｵｳﾁｮｳ","kana_address":"ｽﾜﾀﾆ","pref":"岡山県","city":"加賀郡吉備中央町","address":"岨谷"},
{"zip_code":"7161122","kana_pref":"ｵｶﾔﾏｹﾝ","kana_city":"ｶｶﾞｸﾞﾝｷﾋﾞﾁｭｳｵｳﾁｮｳ","kana_address":"ﾀｹｼｮｳ","pref":"岡山県","city":"加賀郡吉備中央町","address":"竹荘"},
{"zip_code":"7161111","kana_pref":"ｵｶﾔﾏｹﾝ","kana_city":"ｶｶﾞｸﾞﾝｷﾋﾞﾁｭｳｵｳﾁｮｳ","kana_address":"ﾀﾄﾞ","pref":"岡山県","city":"加賀郡吉備中央町","address":"田土"},
{"zip_code":"7161101","kana_pref":"ｵｶﾔﾏｹﾝ","kana_city":"ｶｶﾞｸﾞﾝｷﾋﾞﾁｭｳｵｳﾁｮｳ","kana_address":"ﾄﾖﾉ","pref":"岡山県","city":"加賀郡吉備中央町","address":"豊野"},
{"zip_code":"7161554","kana_pref":"ｵｶﾔﾏｹﾝ","kana_city":"ｶｶﾞｸﾞﾝｷﾋﾞﾁｭｳｵｳﾁｮｳ","kana_address":"ﾆｼ","pref":"岡山県","city":"加賀郡吉備中央町","address":"西"},
{"zip_code":"7161121","kana_pref":"ｵｶﾔﾏｹﾝ","kana_city":"ｶｶﾞｸﾞﾝｷﾋﾞﾁｭｳｵｳﾁｮｳ","kana_address":"ﾉｳﾁ","pref":"岡山県","city":"加賀郡吉備中央町","address":"納地"},
{"zip_code":"7161553","kana_pref":"ｵｶﾔﾏｹﾝ","kana_city":"ｶｶﾞｸﾞﾝｷﾋﾞﾁｭｳｵｳﾁｮｳ","kana_address":"ﾐﾔﾁ","pref":"岡山県","city":"加賀郡吉備中央町","address":"宮地"},
{"zip_code":"7161112","kana_pref":"ｵｶﾔﾏｹﾝ","kana_city":"ｶｶﾞｸﾞﾝｷﾋﾞﾁｭｳｵｳﾁｮｳ","kana_address":"ﾕﾔﾏ","pref":"岡山県","city":"加賀郡吉備中央町","address":"湯山"},
{"zip_code":"7161241","kana_pref":"ｵｶﾔﾏｹﾝ","kana_city":"ｶｶﾞｸﾞﾝｷﾋﾞﾁｭｳｵｳﾁｮｳ","kana_address":"ﾖｼｶﾜ","pref":"岡山県","city":"加賀郡吉備中央町","address":"吉川"}]}