{"zip_code":[
{"zip_code":"7221301","kana_pref":"ﾋﾛｼﾏｹﾝ","kana_city":"ﾐﾊﾗｼ","kana_address":"ｸｲﾁｮｳｱｿﾞｳﾊﾞﾗ","pref":"広島県","city":"三原市","address":"久井町莇原"},
{"zip_code":"7221411","kana_pref":"ﾋﾛｼﾏｹﾝ","kana_city":"ﾐﾊﾗｼ","kana_address":"ｸｲﾁｮｳｲｽﾞﾐ","pref":"広島県","city":"三原市","address":"久井町泉"},
{"zip_code":"7221304","kana_pref":"ﾋﾛｼﾏｹﾝ","kana_city":"ﾐﾊﾗｼ","kana_address":"ｸｲﾁｮｳｴｷﾞ","pref":"広島県","city":"三原市","address":"久井町江木"},
{"zip_code":"7221417","kana_pref":"ﾋﾛｼﾏｹﾝ","kana_city":"ﾐﾊﾗｼ","kana_address":"ｸｲﾁｮｳｺﾊﾞﾔｼ","pref":"広島県","city":"三原市","address":"久井町小林"},
{"zip_code":"7221414","kana_pref":"ﾋﾛｼﾏｹﾝ","kana_city":"ﾐﾊﾗｼ","kana_address":"ｸｲﾁｮｳｻｶｲﾊﾞﾗ","pref":"広島県","city":"三原市","address":"久井町坂井原"},
{"zip_code":"7221303","kana_pref":"ﾋﾛｼﾏｹﾝ","kana_city":"ﾐﾊﾗｼ","kana_address":"ｸｲﾁｮｳｼﾓﾂ","pref":"広島県","city":"三原市","address":"久井町下津"},
{"zip_code":"7221415","kana_pref":"ﾋﾛｼﾏｹﾝ","kana_city":"ﾐﾊﾗｼ","kana_address":"ｸｲﾁｮｳﾂﾁﾄﾘ","pref":"広島県","city":"三原市","address":"久井町土取"},
{"zip_code":"7221413","kana_pref":"ﾋﾛｼﾏｹﾝ","kana_city":"ﾐﾊﾗｼ","kana_address":"ｸｲﾁｮｳﾊｸﾞﾗ","pref":"広島県","city":"三原市","address":"久井町羽倉"},
{"zip_code":"7221416","kana_pref":"ﾋﾛｼﾏｹﾝ","kana_city":"ﾐﾊﾗｼ","kana_address":"ｸｲﾁｮｳﾔﾏﾅｶﾉ","pref":"広島県","city":"三原市","address":"久井町山中野"},
{"zip_code":"7221302","kana_pref":"ﾋﾛｼﾏｹﾝ","kana_city":"ﾐﾊﾗｼ","kana_address":"ｸｲﾁｮｳﾖｼﾀﾞ","pref":"広島県","city":"三原市","address":"久井町吉田"},
{"zip_code":"7221412","kana_pref":"ﾋﾛｼﾏｹﾝ","kana_city":"ﾐﾊﾗｼ","kana_address":"ｸｲﾁｮｳﾜｿｳ","pref":"広島県","city":"三原市","address":"久井町和草"},
{"zip_code":"7221401","kana_pref":"ﾋﾛｼﾏｹﾝ","kana_city":"ﾐﾊﾗｼ","kana_address":"ﾎﾝｺﾞｳﾁｮｳﾌﾅｷ","pref":"広島県","city":"三原市","address":"本郷町船木"},
{"zip_code":"7221501","kana_pref":"ﾋﾛｼﾏｹﾝ","kana_city":"ﾐﾊﾗｼ","kana_address":"ﾔﾊﾀﾁｮｳｶｲﾁ","pref":"広島県","city":"三原市","address":"八幡町垣内"},
{"zip_code":"7221511","kana_pref":"ﾋﾛｼﾏｹﾝ","kana_city":"ﾐﾊﾗｼ","kana_address":"ﾔﾊﾀﾁｮｳｶｶﾞﾘ","pref":"広島県","city":"三原市","address":"八幡町篝"},
{"zip_code":"7221512","kana_pref":"ﾋﾛｼﾏｹﾝ","kana_city":"ﾐﾊﾗｼ","kana_address":"ﾔﾊﾀﾁｮｳﾉｸﾞｼ","pref":"広島県","city":"三原市","address":"八幡町野串"},
{"zip_code":"7221516","kana_pref":"ﾋﾛｼﾏｹﾝ","kana_city":"ﾐﾊﾗｼ","kana_address":"ﾔﾊﾀﾁｮｳﾎﾝｼﾞｮｳ","pref":"広島県","city":"三原市","address":"八幡町本庄"},
{"zip_code":"7221515","kana_pref":"ﾋﾛｼﾏｹﾝ","kana_city":"ﾐﾊﾗｼ","kana_address":"ﾔﾊﾀﾁｮｳﾐﾉｳ","pref":"広島県","city":"三原市","address":"八幡町美生"},
{"zip_code":"7221513","kana_pref":"ﾋﾛｼﾏｹﾝ","kana_city":"ﾐﾊﾗｼ","kana_address":"ﾔﾊﾀﾁｮｳﾐﾔｳﾁ","pref":"広島県","city":"三原市","address":"八幡町宮内"},
{"zip_code":"7221514","kana_pref":"ﾋﾛｼﾏｹﾝ","kana_city":"ﾐﾊﾗｼ","kana_address":"ﾔﾊﾀﾁｮｳﾔﾅｶ","pref":"広島県","city":"三原市","address":"八幡町屋中"},
{"zip_code":"7220000","kana_pref":"ﾋﾛｼﾏｹﾝ","kana_city":"ｵﾉﾐﾁｼ","kana_address":"","pref":"広島県","city":"尾道市","address":""},
{"zip_code":"7222101","kana_pref":"ﾋﾛｼﾏｹﾝ","kana_city":"ｵﾉﾐﾁｼ","kana_address":"ｲﾝﾉｼﾏｵｵﾊﾏﾁｮｳ","pref":"広島県","city":"尾道市","address":"因島大浜町"},
{"zip_code":"7222212","kana_pref":"ﾋﾛｼﾏｹﾝ","kana_city":"ｵﾉﾐﾁｼ","kana_address":"ｲﾝﾉｼﾏｶｶﾞﾐｳﾗﾁｮｳ","pref":"広島県","city":"尾道市","address":"因島鏡浦町"},
{"zip_code":"7222102","kana_pref":"ﾋﾛｼﾏｹﾝ","kana_city":"ｵﾉﾐﾁｼ","kana_address":"ｲﾝﾉｼﾏｼｹﾞｲﾁｮｳ","pref":"広島県","city":"尾道市","address":"因島重井町"},
{"zip_code":"7222431","kana_pref":"ﾋﾛｼﾏｹﾝ","kana_city":"ｵﾉﾐﾁｼ","kana_address":"ｲﾝﾉｼﾏｽﾉｴﾁｮｳ","pref":"広島県","city":"尾道市","address":"因島洲江町"},
{"zip_code":"7222324","kana_pref":"ﾋﾛｼﾏｹﾝ","kana_city":"ｵﾉﾐﾁｼ","kana_address":"ｲﾝﾉｼﾏﾀｸﾏﾁｮｳ","pref":"広島県","city":"尾道市","address":"因島田熊町"},
{"zip_code":"7222213","kana_pref":"ﾋﾛｼﾏｹﾝ","kana_city":"ｵﾉﾐﾁｼ","kana_address":"ｲﾝﾉｼﾏﾄﾉｳﾗﾁｮｳ","pref":"広島県","city":"尾道市","address":"因島外浦町"},
{"zip_code":"7222211","kana_pref":"ﾋﾛｼﾏｹﾝ","kana_city":"ｵﾉﾐﾁｼ","kana_address":"ｲﾝﾉｼﾏﾅｶﾉｼｮｳﾁｮｳ","pref":"広島県","city":"尾道市","address":"因島中庄町"},
{"zip_code":"7222323","kana_pref":"ﾋﾛｼﾏｹﾝ","kana_city":"ｵﾉﾐﾁｼ","kana_address":"ｲﾝﾉｼﾏﾊﾌﾞﾁｮｳ","pref":"広島県","city":"尾道市","address":"因島土生町"},
{"zip_code":"7222432","kana_pref":"ﾋﾛｼﾏｹﾝ","kana_city":"ｵﾉﾐﾁｼ","kana_address":"ｲﾝﾉｼﾏﾊﾗﾁｮｳ","pref":"広島県","city":"尾道市","address":"因島原町"},
{"zip_code":"7222322","kana_pref":"ﾋﾛｼﾏｹﾝ","kana_city":"ｵﾉﾐﾁｼ","kana_address":"ｲﾝﾉｼﾏﾐﾂﾉｼｮｳﾁｮｳ","pref":"広島県","city":"尾道市","address":"因島三庄町"},
{"zip_code":"7222321","kana_pref":"ﾋﾛｼﾏｹﾝ","kana_city":"ｵﾉﾐﾁｼ","kana_address":"ｲﾝﾉｼﾏﾑｸﾉｳﾗﾁｮｳ","pref":"広島県","city":"尾道市","address":"因島椋浦町"},
{"zip_code":"7220006","kana_pref":"ﾋﾛｼﾏｹﾝ","kana_city":"ｵﾉﾐﾁｼ","kana_address":"ｵｷｶﾞﾜﾁｮｳ","pref":"広島県","city":"尾道市","address":"沖側町"},
{"zip_code":"7220053","kana_pref":"ﾋﾛｼﾏｹﾝ","kana_city":"ｵﾉﾐﾁｼ","kana_address":"ｵｻﾞｷﾁｮｳ","pref":"広島県","city":"尾道市","address":"尾崎町"},
{"zip_code":"7220054","kana_pref":"ﾋﾛｼﾏｹﾝ","kana_city":"ｵﾉﾐﾁｼ","kana_address":"ｵｻﾞｷﾎﾝﾏﾁ","pref":"広島県","city":"尾道市","address":"尾崎本町"},
{"zip_code":"7220016","kana_pref":"ﾋﾛｼﾏｹﾝ","kana_city":"ｵﾉﾐﾁｼ","kana_address":"ｶﾝﾀﾞﾁｮｳ","pref":"広島県","city":"尾道市","address":"神田町"},
{"zip_code":"7220233","kana_pref":"ﾋﾛｼﾏｹﾝ","kana_city":"ｵﾉﾐﾁｼ","kana_address":"ｷﾉｼｮｳﾁｮｳｲﾁﾊﾞﾗ","pref":"広島県","city":"尾道市","address":"木ノ庄町市原"},
{"zip_code":"7220234","kana_pref":"ﾋﾛｼﾏｹﾝ","kana_city":"ｵﾉﾐﾁｼ","kana_address":"ｷﾉｼｮｳﾁｮｳｷﾅｼ","pref":"広島県","city":"尾道市","address":"木ノ庄町木梨"},
{"zip_code":"7220235","kana_pref":"ﾋﾛｼﾏｹﾝ","kana_city":"ｵﾉﾐﾁｼ","kana_address":"ｷﾉｼｮｳﾁｮｳｷﾅｼﾔﾏｶﾞﾀ","pref":"広島県","city":"尾道市","address":"木ノ庄町木梨山方"},
{"zip_code":"7220232","kana_pref":"ﾋﾛｼﾏｹﾝ","kana_city":"ｵﾉﾐﾁｼ","kana_address":"ｷﾉｼｮｳﾁｮｳｷﾓﾝﾃﾞﾝ","pref":"広島県","city":"尾道市","address":"木ノ庄町木門田"},
{"zip_code":"7220231","kana_pref":"ﾋﾛｼﾏｹﾝ","kana_city":"ｵﾉﾐﾁｼ","kana_address":"ｷﾉｼｮｳﾁｮｳﾊﾀ","pref":"広島県","city":"尾道市","address":"木ノ庄町畑"},
{"zip_code":"7220045","kana_pref":"ﾋﾛｼﾏｹﾝ","kana_city":"ｵﾉﾐﾁｼ","kana_address":"ｸﾎﾞ","pref":"広島県","city":"尾道市","address":"久保"},
{"zip_code":"7220042","kana_pref":"ﾋﾛｼﾏｹﾝ","kana_city":"ｵﾉﾐﾁｼ","kana_address":"ｸﾎﾞﾁｮｳ","pref":"広島県","city":"尾道市","address":"久保町"},
{"zip_code":"7220025","kana_pref":"ﾋﾛｼﾏｹﾝ","kana_city":"ｵﾉﾐﾁｼ","kana_address":"ｸﾘﾊﾗﾋｶﾞｼ","pref":"広島県","city":"尾道市","address":"栗原東"},
{"zip_code":"7220026","kana_pref":"ﾋﾛｼﾏｹﾝ","kana_city":"ｵﾉﾐﾁｼ","kana_address":"ｸﾘﾊﾗﾆｼ","pref":"広島県","city":"尾道市","address":"栗原西"},
{"zip_code":"7220022","kana_pref":"ﾋﾛｼﾏｹﾝ","kana_city":"ｵﾉﾐﾁｼ","kana_address":"ｸﾘﾊﾗﾁｮｳ","pref":"広島県","city":"尾道市","address":"栗原町"},
{"zip_code":"7220002","kana_pref":"ﾋﾛｼﾏｹﾝ","kana_city":"ｵﾉﾐﾁｼ","kana_address":"ｺﾊﾏﾁｮｳ","pref":"広島県","city":"尾道市","address":"古浜町"},
{"zip_code":"7220011","kana_pref":"ﾋﾛｼﾏｹﾝ","kana_city":"ｵﾉﾐﾁｼ","kana_address":"ｻｸﾗﾏﾁ","pref":"広島県","city":"尾道市","address":"桜町"},
{"zip_code":"7220031","kana_pref":"ﾋﾛｼﾏｹﾝ","kana_city":"ｵﾉﾐﾁｼ","kana_address":"ｻﾝｹﾞﾝﾔﾁｮｳ","pref":"広島県","city":"尾道市","address":"三軒家町"},
{"zip_code":"7220052","kana_pref":"ﾋﾛｼﾏｹﾝ","kana_city":"ｵﾉﾐﾁｼ","kana_address":"ｻﾝﾊﾞﾁｮｳ","pref":"広島県","city":"尾道市","address":"山波町"},
{"zip_code":"7220012","kana_pref":"ﾋﾛｼﾏｹﾝ","kana_city":"ｵﾉﾐﾁｼ","kana_address":"ｼｵﾐﾁｮｳ","pref":"広島県","city":"尾道市","address":"潮見町"},
{"zip_code":"7220004","kana_pref":"ﾋﾛｼﾏｹﾝ","kana_city":"ｵﾉﾐﾁｼ","kana_address":"ｼｮｳﾄｸﾁｮｳ","pref":"広島県","city":"尾道市","address":"正徳町"},
{"zip_code":"7220055","kana_pref":"ﾋﾛｼﾏｹﾝ","kana_city":"ｵﾉﾐﾁｼ","kana_address":"ｼﾝﾀｶﾔﾏ","pref":"広島県","city":"尾道市","address":"新高山"},
{"zip_code":"7220014","kana_pref":"ﾋﾛｼﾏｹﾝ","kana_city":"ｵﾉﾐﾁｼ","kana_address":"ｼﾝﾊﾏ","pref":"広島県","city":"尾道市","address":"新浜"},
{"zip_code":"7222403","kana_pref":"ﾋﾛｼﾏｹﾝ","kana_city":"ｵﾉﾐﾁｼ","kana_address":"ｾﾄﾀﾞﾁｮｳｵｷﾞ","pref":"広島県","city":"尾道市","address":"瀬戸田町荻"},
{"zip_code":"7222412","kana_pref":"ﾋﾛｼﾏｹﾝ","kana_city":"ｵﾉﾐﾁｼ","kana_address":"ｾﾄﾀﾞﾁｮｳｺｳﾈ","pref":"広島県","city":"尾道市","address":"瀬戸田町高根"},
{"zip_code":"7222413","kana_pref":"ﾋﾛｼﾏｹﾝ","kana_city":"ｵﾉﾐﾁｼ","kana_address":"ｾﾄﾀﾞﾁｮｳｻﾜ","pref":"広島県","city":"尾道市","address":"瀬戸田町沢"},
{"zip_code":"7222414","kana_pref":"ﾋﾛｼﾏｹﾝ","kana_city":"ｵﾉﾐﾁｼ","kana_address":"ｾﾄﾀﾞﾁｮｳｼｶﾀﾊﾗ","pref":"広島県","city":"尾道市","address":"瀬戸田町鹿田原"},
{"zip_code":"7222411","kana_pref":"ﾋﾛｼﾏｹﾝ","kana_city":"ｵﾉﾐﾁｼ","kana_address":"ｾﾄﾀﾞﾁｮｳｾﾄﾀﾞ","pref":"広島県","city":"尾道市","address":"瀬戸田町瀬戸田"},
{"zip_code":"7222404","kana_pref":"ﾋﾛｼﾏｹﾝ","kana_city":"ｵﾉﾐﾁｼ","kana_address":"ｾﾄﾀﾞﾁｮｳﾀﾙﾐ","pref":"広島県","city":"尾道市","address":"瀬戸田町垂水"},
{"zip_code":"7222415","kana_pref":"ﾋﾛｼﾏｹﾝ","kana_city":"ｵﾉﾐﾁｼ","kana_address":"ｾﾄﾀﾞﾁｮｳﾅｶﾉ","pref":"広島県","city":"尾道市","address":"瀬戸田町中野"},
{"zip_code":"7222416","kana_pref":"ﾋﾛｼﾏｹﾝ","kana_city":"ｵﾉﾐﾁｼ","kana_address":"ｾﾄﾀﾞﾁｮｳﾊﾔｼ","pref":"広島県","city":"尾道市","address":"瀬戸田町林"},
{"zip_code":"7222405","kana_pref":"ﾋﾛｼﾏｹﾝ","kana_city":"ｵﾉﾐﾁｼ","kana_address":"ｾﾄﾀﾞﾁｮｳﾌｸﾀﾞ","pref":"広島県","city":"尾道市","address":"瀬戸田町福田"},
{"zip_code":"7222401","kana_pref":"ﾋﾛｼﾏｹﾝ","kana_city":"ｵﾉﾐﾁｼ","kana_address":"ｾﾄﾀﾞﾁｮｳﾐﾃﾗ","pref":"広島県","city":"尾道市","address":"瀬戸田町御寺"},
{"zip_code":"7222402","kana_pref":"ﾋﾛｼﾏｹﾝ","kana_city":"ｵﾉﾐﾁｼ","kana_address":"ｾﾄﾀﾞﾁｮｳﾐﾔﾊﾞﾗ","pref":"広島県","city":"尾道市","address":"瀬戸田町宮原"},
{"zip_code":"7222417","kana_pref":"ﾋﾛｼﾏｹﾝ","kana_city":"ｵﾉﾐﾁｼ","kana_address":"ｾﾄﾀﾞﾁｮｳﾐｮｳｶﾞ","pref":"広島県","city":"尾道市","address":"瀬戸田町名荷"},
{"zip_code":"7220221","kana_pref":"ﾋﾛｼﾏｹﾝ","kana_city":"ｵﾉﾐﾁｼ","kana_address":"ﾁｮｳｼﾞｬﾊﾞﾗ","pref":"広島県","city":"尾道市","address":"長者原"},
{"zip_code":"7220035","kana_pref":"ﾋﾛｼﾏｹﾝ","kana_city":"ｵﾉﾐﾁｼ","kana_address":"ﾂﾁﾄﾞｳ","pref":"広島県","city":"尾道市","address":"土堂"},
{"zip_code":"7220001","kana_pref":"ﾋﾛｼﾏｹﾝ","kana_city":"ｵﾉﾐﾁｼ","kana_address":"ﾃｻｷﾁｮｳ","pref":"広島県","city":"尾道市","address":"手崎町"},
{"zip_code":"7220038","kana_pref":"ﾋﾛｼﾏｹﾝ","kana_city":"ｵﾉﾐﾁｼ","kana_address":"ﾃﾝﾏﾁｮｳ","pref":"広島県","city":"尾道市","address":"天満町"},
{"zip_code":"7220047","kana_pref":"ﾋﾛｼﾏｹﾝ","kana_city":"ｵﾉﾐﾁｼ","kana_address":"ﾄﾖﾋﾁｮｳ","pref":"広島県","city":"尾道市","address":"十四日町"},
{"zip_code":"7220034","kana_pref":"ﾋﾛｼﾏｹﾝ","kana_city":"ｵﾉﾐﾁｼ","kana_address":"ﾄﾖﾋﾓﾄﾏﾁ","pref":"広島県","city":"尾道市","address":"十四日元町"},
{"zip_code":"7220046","kana_pref":"ﾋﾛｼﾏｹﾝ","kana_city":"ｵﾉﾐﾁｼ","kana_address":"ﾅｶﾞｴ","pref":"広島県","city":"尾道市","address":"長江"},
{"zip_code":"7220044","kana_pref":"ﾋﾛｼﾏｹﾝ","kana_city":"ｵﾉﾐﾁｼ","kana_address":"ﾆｼｸﾎﾞﾁｮｳ","pref":"広島県","city":"尾道市","address":"西久保町"},
{"zip_code":"7220037","kana_pref":"ﾋﾛｼﾏｹﾝ","kana_city":"ｵﾉﾐﾁｼ","kana_address":"ﾆｼｺﾞｼｮﾁｮｳ","pref":"広島県","city":"尾道市","address":"西御所町"},
{"zip_code":"7220032","kana_pref":"ﾋﾛｼﾏｹﾝ","kana_city":"ｵﾉﾐﾁｼ","kana_address":"ﾆｼﾂﾁﾄﾞｳﾁｮｳ","pref":"広島県","city":"尾道市","address":"西土堂町"},
{"zip_code":"7220024","kana_pref":"ﾋﾛｼﾏｹﾝ","kana_city":"ｵﾉﾐﾁｼ","kana_address":"ﾆｼﾉﾘｽｴﾁｮｳ","pref":"広島県","city":"尾道市","address":"西則末町"},
{"zip_code":"7220201","kana_pref":"ﾋﾛｼﾏｹﾝ","kana_city":"ｵﾉﾐﾁｼ","kana_address":"ﾊﾗﾀﾞﾁｮｳｵﾊﾞﾗ","pref":"広島県","city":"尾道市","address":"原田町小原"},
{"zip_code":"7220202","kana_pref":"ﾋﾛｼﾏｹﾝ","kana_city":"ｵﾉﾐﾁｼ","kana_address":"ﾊﾗﾀﾞﾁｮｳｶｼﾞﾔﾏﾀﾞ","pref":"広島県","city":"尾道市","address":"原田町梶山田"},
{"zip_code":"7220051","kana_pref":"ﾋﾛｼﾏｹﾝ","kana_city":"ｵﾉﾐﾁｼ","kana_address":"ﾋｶﾞｼｵﾉﾐﾁ","pref":"広島県","city":"尾道市","address":"東尾道"},
{"zip_code":"7220043","kana_pref":"ﾋﾛｼﾏｹﾝ","kana_city":"ｵﾉﾐﾁｼ","kana_address":"ﾋｶﾞｼｸﾎﾞﾁｮｳ","pref":"広島県","city":"尾道市","address":"東久保町"},
{"zip_code":"7220036","kana_pref":"ﾋﾛｼﾏｹﾝ","kana_city":"ｵﾉﾐﾁｼ","kana_address":"ﾋｶﾞｼｺﾞｼｮﾁｮｳ","pref":"広島県","city":"尾道市","address":"東御所町"},
{"zip_code":"7220033","kana_pref":"ﾋﾛｼﾏｹﾝ","kana_city":"ｵﾉﾐﾁｼ","kana_address":"ﾋｶﾞｼﾂﾁﾄﾞｳﾁｮｳ","pref":"広島県","city":"尾道市","address":"東土堂町"},
{"zip_code":"7220023","kana_pref":"ﾋﾛｼﾏｹﾝ","kana_city":"ｵﾉﾐﾁｼ","kana_address":"ﾋｶﾞｼﾉﾘｽｴﾁｮｳ","pref":"広島県","city":"尾道市","address":"東則末町"},
{"zip_code":"7220003","kana_pref":"ﾋﾛｼﾏｹﾝ","kana_city":"ｵﾉﾐﾁｼ","kana_address":"ﾋｶﾞｼﾓﾄﾏﾁ","pref":"広島県","city":"尾道市","address":"東元町"},
{"zip_code":"7220021","kana_pref":"ﾋﾛｼﾏｹﾝ","kana_city":"ｵﾉﾐﾁｼ","kana_address":"ﾋｻﾔﾏﾀﾞﾁｮｳ","pref":"広島県","city":"尾道市","address":"久山田町"},
{"zip_code":"7220013","kana_pref":"ﾋﾛｼﾏｹﾝ","kana_city":"ｵﾉﾐﾁｼ","kana_address":"ﾋﾋﾞｻﾞｷﾁｮｳ","pref":"広島県","city":"尾道市","address":"日比崎町"},
{"zip_code":"7220018","kana_pref":"ﾋﾛｼﾏｹﾝ","kana_city":"ｵﾉﾐﾁｼ","kana_address":"ﾋﾗﾊﾗ","pref":"広島県","city":"尾道市","address":"平原"},
{"zip_code":"7220005","kana_pref":"ﾋﾛｼﾏｹﾝ","kana_city":"ｵﾉﾐﾁｼ","kana_address":"ﾌｸﾁﾁｮｳ","pref":"広島県","city":"尾道市","address":"福地町"},
{"zip_code":"7220041","kana_pref":"ﾋﾛｼﾏｹﾝ","kana_city":"ｵﾉﾐﾁｼ","kana_address":"ﾎﾞｳｼﾞﾁｮｳ","pref":"広島県","city":"尾道市","address":"防地町"},
{"zip_code":"7220354","kana_pref":"ﾋﾛｼﾏｹﾝ","kana_city":"ｵﾉﾐﾁｼ","kana_address":"ﾐﾂｷﾞﾁｮｳｱﾔﾒ","pref":"広島県","city":"尾道市","address":"御調町綾目"},
{"zip_code":"7220311","kana_pref":"ﾋﾛｼﾏｹﾝ","kana_city":"ｵﾉﾐﾁｼ","kana_address":"ﾐﾂｷﾞﾁｮｳｲﾁ","pref":"広島県","city":"尾道市","address":"御調町市"},
{"zip_code":"7221564","kana_pref":"ﾋﾛｼﾏｹﾝ","kana_city":"ｵﾉﾐﾁｼ","kana_address":"ﾐﾂｷﾞﾁｮｳｲﾏﾀﾞ","pref":"広島県","city":"尾道市","address":"御調町今田"},
{"zip_code":"7220326","kana_pref":"ﾋﾛｼﾏｹﾝ","kana_city":"ｵﾉﾐﾁｼ","kana_address":"ﾐﾂｷﾞﾁｮｳｲﾜﾈ","pref":"広島県","city":"尾道市","address":"御調町岩根"},
{"zip_code":"7221563","kana_pref":"ﾋﾛｼﾏｹﾝ","kana_city":"ｵﾉﾐﾁｼ","kana_address":"ﾐﾂｷﾞﾁｮｳｳｴﾉ","pref":"広島県","city":"尾道市","address":"御調町植野"},
{"zip_code":"7220336","kana_pref":"ﾋﾛｼﾏｹﾝ","kana_city":"ｵﾉﾐﾁｼ","kana_address":"ﾐﾂｷﾞﾁｮｳｴﾀ","pref":"広島県","city":"尾道市","address":"御調町江田"},
{"zip_code":"7220342","kana_pref":"ﾋﾛｼﾏｹﾝ","kana_city":"ｵﾉﾐﾁｼ","kana_address":"ﾐﾂｷﾞﾁｮｳｵｵﾀﾞ","pref":"広島県","city":"尾道市","address":"御調町大田"},
{"zip_code":"7220351","kana_pref":"ﾋﾛｼﾏｹﾝ","kana_city":"ｵﾉﾐﾁｼ","kana_address":"ﾐﾂｷﾞﾁｮｳｵｵﾊﾞﾗ","pref":"広島県","city":"尾道市","address":"御調町大原"},
{"zip_code":"7220314","kana_pref":"ﾋﾛｼﾏｹﾝ","kana_city":"ｵﾉﾐﾁｼ","kana_address":"ﾐﾂｷﾞﾁｮｳｵｵﾏﾁ","pref":"広島県","city":"尾道市","address":"御調町大町"},
{"zip_code":"7220403","kana_pref":"ﾋﾛｼﾏｹﾝ","kana_city":"ｵﾉﾐﾁｼ","kana_address":"ﾐﾂｷﾞﾁｮｳｵｵﾔﾏﾀﾞ","pref":"広島県","city":"尾道市","address":"御調町大山田"},
{"zip_code":"7220312","kana_pref":"ﾋﾛｼﾏｹﾝ","kana_city":"ｵﾉﾐﾁｼ","kana_address":"ﾐﾂｷﾞﾁｮｳｶｲｶﾞﾊﾗ","pref":"広島県","city":"尾道市","address":"御調町貝ケ原"},
{"zip_code":"7220315","kana_pref":"ﾋﾛｼﾏｹﾝ","kana_city":"ｵﾉﾐﾁｼ","kana_address":"ﾐﾂｷﾞﾁｮｳｶﾏｸﾎﾞ","pref":"広島県","city":"尾道市","address":"御調町釜窪"},
{"zip_code":"7220341","kana_pref":"ﾋﾛｼﾏｹﾝ","kana_city":"ｵﾉﾐﾁｼ","kana_address":"ﾐﾂｷﾞﾁｮｳｶﾐ","pref":"広島県","city":"尾道市","address":"御調町神"},
{"zip_code":"7220335","kana_pref":"ﾋﾛｼﾏｹﾝ","kana_city":"ｵﾉﾐﾁｼ","kana_address":"ﾐﾂｷﾞﾁｮｳｸﾆﾓﾘ","pref":"広島県","city":"尾道市","address":"御調町国守"},
{"zip_code":"7220352","kana_pref":"ﾋﾛｼﾏｹﾝ","kana_city":"ｵﾉﾐﾁｼ","kana_address":"ﾐﾂｷﾞﾁｮｳｸﾓﾝ","pref":"広島県","city":"尾道市","address":"御調町公文"},
{"zip_code":"7220322","kana_pref":"ﾋﾛｼﾏｹﾝ","kana_city":"ｵﾉﾐﾁｼ","kana_address":"ﾐﾂｷﾞﾁｮｳｻﾌﾞﾛｳﾏﾙ","pref":"広島県","city":"尾道市","address":"御調町三郎丸"},
{"zip_code":"7220402","kana_pref":"ﾋﾛｼﾏｹﾝ","kana_city":"ｵﾉﾐﾁｼ","kana_address":"ﾐﾂｷﾞﾁｮｳｼﾓﾔﾏﾀﾞ","pref":"広島県","city":"尾道市","address":"御調町下山田"},
{"zip_code":"7220334","kana_pref":"ﾋﾛｼﾏｹﾝ","kana_city":"ｵﾉﾐﾁｼ","kana_address":"ﾐﾂｷﾞﾁｮｳｽｹﾞ","pref":"広島県","city":"尾道市","address":"御調町菅"},
{"zip_code":"7220401","kana_pref":"ﾋﾛｼﾏｹﾝ","kana_city":"ｵﾉﾐﾁｼ","kana_address":"ﾐﾂｷﾞﾁｮｳｾﾝﾄﾞｳ","pref":"広島県","city":"尾道市","address":"御調町千堂"},
{"zip_code":"7220323","kana_pref":"ﾋﾛｼﾏｹﾝ","kana_city":"ｵﾉﾐﾁｼ","kana_address":"ﾐﾂｷﾞﾁｮｳﾀﾞｲｿﾞｳ","pref":"広島県","city":"尾道市","address":"御調町大蔵"},
{"zip_code":"7220333","kana_pref":"ﾋﾛｼﾏｹﾝ","kana_city":"ｵﾉﾐﾁｼ","kana_address":"ﾐﾂｷﾞﾁｮｳﾀﾞｲﾄｳ","pref":"広島県","city":"尾道市","address":"御調町大塔"},
{"zip_code":"7220353","kana_pref":"ﾋﾛｼﾏｹﾝ","kana_city":"ｵﾉﾐﾁｼ","kana_address":"ﾐﾂｷﾞﾁｮｳﾀｶｵ","pref":"広島県","city":"尾道市","address":"御調町高尾"},
{"zip_code":"7221562","kana_pref":"ﾋﾛｼﾏｹﾝ","kana_city":"ｵﾉﾐﾁｼ","kana_address":"ﾐﾂｷﾞﾁｮｳﾂｶﾞﾆ","pref":"広島県","city":"尾道市","address":"御調町津蟹"},
{"zip_code":"7220345","kana_pref":"ﾋﾛｼﾏｹﾝ","kana_city":"ｵﾉﾐﾁｼ","kana_address":"ﾐﾂｷﾞﾁｮｳﾄｸﾅｶﾞ","pref":"広島県","city":"尾道市","address":"御調町徳永"},
{"zip_code":"7220325","kana_pref":"ﾋﾛｼﾏｹﾝ","kana_city":"ｵﾉﾐﾁｼ","kana_address":"ﾐﾂｷﾞﾁｮｳﾅｶﾊﾞﾗ","pref":"広島県","city":"尾道市","address":"御調町中原"},
{"zip_code":"7220331","kana_pref":"ﾋﾛｼﾏｹﾝ","kana_city":"ｵﾉﾐﾁｼ","kana_address":"ﾐﾂｷﾞﾁｮｳﾆﾉ","pref":"広島県","city":"尾道市","address":"御調町仁野"},
{"zip_code":"7221565","kana_pref":"ﾋﾛｼﾏｹﾝ","kana_city":"ｵﾉﾐﾁｼ","kana_address":"ﾐﾂｷﾞﾁｮｳﾉﾏ","pref":"広島県","city":"尾道市","address":"御調町野間"},
{"zip_code":"7220324","kana_pref":"ﾋﾛｼﾏｹﾝ","kana_city":"ｵﾉﾐﾁｼ","kana_address":"ﾐﾂｷﾞﾁｮｳﾊｶﾀ","pref":"広島県","city":"尾道市","address":"御調町白太"},
{"zip_code":"7220316","kana_pref":"ﾋﾛｼﾏｹﾝ","kana_city":"ｵﾉﾐﾁｼ","kana_address":"ﾐﾂｷﾞﾁｮｳﾊﾅｼﾞﾘ","pref":"広島県","city":"尾道市","address":"御調町花尻"},
{"zip_code":"7220313","kana_pref":"ﾋﾛｼﾏｹﾝ","kana_city":"ｵﾉﾐﾁｼ","kana_address":"ﾐﾂｷﾞﾁｮｳﾋﾗ","pref":"広島県","city":"尾道市","address":"御調町平"},
{"zip_code":"7220332","kana_pref":"ﾋﾛｼﾏｹﾝ","kana_city":"ｵﾉﾐﾁｼ","kana_address":"ﾐﾂｷﾞﾁｮｳﾋﾗｷﾞ","pref":"広島県","city":"尾道市","address":"御調町平木"},
{"zip_code":"7221561","kana_pref":"ﾋﾛｼﾏｹﾝ","kana_city":"ｵﾉﾐﾁｼ","kana_address":"ﾐﾂｷﾞﾁｮｳﾌｸｲ","pref":"広島県","city":"尾道市","address":"御調町福井"},
{"zip_code":"7220321","kana_pref":"ﾋﾛｼﾏｹﾝ","kana_city":"ｵﾉﾐﾁｼ","kana_address":"ﾐﾂｷﾞﾁｮｳﾎﾝ","pref":"広島県","city":"尾道市","address":"御調町本"},
{"zip_code":"7220343","kana_pref":"ﾋﾛｼﾏｹﾝ","kana_city":"ｵﾉﾐﾁｼ","kana_address":"ﾐﾂｷﾞﾁｮｳﾏﾙｶﾅﾝ","pref":"広島県","city":"尾道市","address":"御調町丸河南"},
{"zip_code":"7220344","kana_pref":"ﾋﾛｼﾏｹﾝ","kana_city":"ｵﾉﾐﾁｼ","kana_address":"ﾐﾂｷﾞﾁｮｳﾏﾙﾓﾝﾃﾞﾝ","pref":"広島県","city":"尾道市","address":"御調町丸門田"},
{"zip_code":"7220355","kana_pref":"ﾋﾛｼﾏｹﾝ","kana_city":"ｵﾉﾐﾁｼ","kana_address":"ﾐﾂｷﾞﾁｮｳﾔﾏｵｶ","pref":"広島県","city":"尾道市","address":"御調町山岡"},
{"zip_code":"7220214","kana_pref":"ﾋﾛｼﾏｹﾝ","kana_city":"ｵﾉﾐﾁｼ","kana_address":"ﾐﾉｺﾞｳﾁｮｳｲﾉｺｻﾞｺ","pref":"広島県","city":"尾道市","address":"美ノ郷町猪子迫"},
{"zip_code":"7220213","kana_pref":"ﾋﾛｼﾏｹﾝ","kana_city":"ｵﾉﾐﾁｼ","kana_address":"ﾐﾉｺﾞｳﾁｮｳｼﾛｴ","pref":"広島県","city":"尾道市","address":"美ノ郷町白江"},
{"zip_code":"7220211","kana_pref":"ﾋﾛｼﾏｹﾝ","kana_city":"ｵﾉﾐﾁｼ","kana_address":"ﾐﾉｺﾞｳﾁｮｳﾅｶﾉ","pref":"広島県","city":"尾道市","address":"美ノ郷町中野"},
{"zip_code":"7220212","kana_pref":"ﾋﾛｼﾏｹﾝ","kana_city":"ｵﾉﾐﾁｼ","kana_address":"ﾐﾉｺﾞｳﾁｮｳﾎﾝｺﾞｳ","pref":"広島県","city":"尾道市","address":"美ノ郷町本郷"},
{"zip_code":"7220215","kana_pref":"ﾋﾛｼﾏｹﾝ","kana_city":"ｵﾉﾐﾁｼ","kana_address":"ﾐﾉｺﾞｳﾁｮｳﾐﾅﾘ","pref":"広島県","city":"尾道市","address":"美ノ郷町三成"},
{"zip_code":"7220073","kana_pref":"ﾋﾛｼﾏｹﾝ","kana_city":"ｵﾉﾐﾁｼ","kana_address":"ﾑｶｲｼﾏﾁｮｳ","pref":"広島県","city":"尾道市","address":"向島町"},
{"zip_code":"7220072","kana_pref":"ﾋﾛｼﾏｹﾝ","kana_city":"ｵﾉﾐﾁｼ","kana_address":"ﾑｶｲｼﾏﾁｮｳｲﾜｼｼﾞﾏ","pref":"広島県","city":"尾道市","address":"向島町岩子島"},
{"zip_code":"7220071","kana_pref":"ﾋﾛｼﾏｹﾝ","kana_city":"ｵﾉﾐﾁｼ","kana_address":"ﾑｶｲｼﾏﾁｮｳﾀﾁﾊﾞﾅ","pref":"広島県","city":"尾道市","address":"向島町立花"},
{"zip_code":"7220062","kana_pref":"ﾋﾛｼﾏｹﾝ","kana_city":"ｵﾉﾐﾁｼ","kana_address":"ﾑｶｲﾋｶﾞｼﾁｮｳ","pref":"広島県","city":"尾道市","address":"向東町"},
{"zip_code":"7220061","kana_pref":"ﾋﾛｼﾏｹﾝ","kana_city":"ｵﾉﾐﾁｼ","kana_address":"ﾓﾓｼﾏﾁｮｳ","pref":"広島県","city":"尾道市","address":"百島町"},
{"zip_code":"7220017","kana_pref":"ﾋﾛｼﾏｹﾝ","kana_city":"ｵﾉﾐﾁｼ","kana_address":"ﾓﾝﾃﾞﾝﾁｮｳ","pref":"広島県","city":"尾道市","address":"門田町"},
{"zip_code":"7220015","kana_pref":"ﾋﾛｼﾏｹﾝ","kana_city":"ｵﾉﾐﾁｼ","kana_address":"ﾖｼｳﾗﾁｮｳ","pref":"広島県","city":"尾道市","address":"吉浦町"},
{"zip_code":"7220008","kana_pref":"ﾋﾛｼﾏｹﾝ","kana_city":"ｵﾉﾐﾁｼ","kana_address":"ﾖｼﾜﾁｮｳ","pref":"広島県","city":"尾道市","address":"吉和町"},
{"zip_code":"7220007","kana_pref":"ﾋﾛｼﾏｹﾝ","kana_city":"ｵﾉﾐﾁｼ","kana_address":"ﾖｼﾜﾆｼﾓﾄﾏﾁ","pref":"広島県","city":"尾道市","address":"吉和西元町"},
{"zip_code":"7222641","kana_pref":"ﾋﾛｼﾏｹﾝ","kana_city":"ﾌｸﾔﾏｼ","kana_address":"ｳﾂﾐﾁｮｳ","pref":"広島県","city":"福山市","address":"内海町"},
{"zip_code":"7222631","kana_pref":"ﾋﾛｼﾏｹﾝ","kana_city":"ﾌｸﾔﾏｼ","kana_address":"ｳﾂﾐﾁｮｳｲ","pref":"広島県","city":"福山市","address":"内海町イ"},
{"zip_code":"7222632","kana_pref":"ﾋﾛｼﾏｹﾝ","kana_city":"ﾌｸﾔﾏｼ","kana_address":"ｳﾂﾐﾁｮｳﾛ","pref":"広島県","city":"福山市","address":"内海町ロ"},
{"zip_code":"7222633","kana_pref":"ﾋﾛｼﾏｹﾝ","kana_city":"ﾌｸﾔﾏｼ","kana_address":"ｳﾂﾐﾁｮｳﾊ","pref":"広島県","city":"福山市","address":"内海町ハ"},
{"zip_code":"7220432","kana_pref":"ﾋﾛｼﾏｹﾝ","kana_city":"ﾌﾁｭｳｼ","kana_address":"ｵｸﾞﾆﾁｮｳ","pref":"広島県","city":"府中市","address":"小国町"},
{"zip_code":"7220431","kana_pref":"ﾋﾛｼﾏｹﾝ","kana_city":"ﾌﾁｭｳｼ","kana_address":"ﾓﾛｹﾁｮｳ","pref":"広島県","city":"府中市","address":"諸毛町"},
{"zip_code":"7221100","kana_pref":"ﾋﾛｼﾏｹﾝ","kana_city":"ｾﾗｸﾞﾝｾﾗﾁｮｳ","kana_address":"","pref":"広島県","city":"世羅郡世羅町","address":""},
{"zip_code":"7221627","kana_pref":"ﾋﾛｼﾏｹﾝ","kana_city":"ｾﾗｸﾞﾝｾﾗﾁｮｳ","kana_address":"ｱｵﾐｽﾞ","pref":"広島県","city":"世羅郡世羅町","address":"青水"},
{"zip_code":"7221116","kana_pref":"ﾋﾛｼﾏｹﾝ","kana_city":"ｾﾗｸﾞﾝｾﾗﾁｮｳ","kana_address":"ｱｵﾔﾏ","pref":"広島県","city":"世羅郡世羅町","address":"青山"},
{"zip_code":"7221113","kana_pref":"ﾋﾛｼﾏｹﾝ","kana_city":"ｾﾗｸﾞﾝｾﾗﾁｮｳ","kana_address":"ｲｵﾘ","pref":"広島県","city":"世羅郡世羅町","address":"井折"},
{"zip_code":"7220411","kana_pref":"ﾋﾛｼﾏｹﾝ","kana_city":"ｾﾗｸﾞﾝｾﾗﾁｮｳ","kana_address":"ｳﾂﾞﾄ","pref":"広島県","city":"世羅郡世羅町","address":"宇津戸"},
{"zip_code":"7221701","kana_pref":"ﾋﾛｼﾏｹﾝ","kana_city":"ｾﾗｸﾞﾝｾﾗﾁｮｳ","kana_address":"ｵｸﾞﾆ","pref":"広島県","city":"世羅郡世羅町","address":"小国"},
{"zip_code":"7221122","kana_pref":"ﾋﾛｼﾏｹﾝ","kana_city":"ｾﾗｸﾞﾝｾﾗﾁｮｳ","kana_address":"ｵｾﾞﾗ","pref":"広島県","city":"世羅郡世羅町","address":"小世良"},
{"zip_code":"7221626","kana_pref":"ﾋﾛｼﾏｹﾝ","kana_city":"ｾﾗｸﾞﾝｾﾗﾁｮｳ","kana_address":"ｶﾓ","pref":"広島県","city":"世羅郡世羅町","address":"賀茂"},
{"zip_code":"7221204","kana_pref":"ﾋﾛｼﾏｹﾝ","kana_city":"ｾﾗｸﾞﾝｾﾗﾁｮｳ","kana_address":"ｷｮｳﾏﾙ","pref":"広島県","city":"世羅郡世羅町","address":"京丸"},
{"zip_code":"7221621","kana_pref":"ﾋﾛｼﾏｹﾝ","kana_city":"ｾﾗｸﾞﾝｾﾗﾁｮｳ","kana_address":"ｷｮｳﾏﾙ","pref":"広島県","city":"世羅郡世羅町","address":"京丸"},
{"zip_code":"7221732","kana_pref":"ﾋﾛｼﾏｹﾝ","kana_city":"ｾﾗｸﾞﾝｾﾗﾁｮｳ","kana_address":"ｸﾛﾌﾞﾁ","pref":"広島県","city":"世羅郡世羅町","address":"黒渕"},
{"zip_code":"7221123","kana_pref":"ﾋﾛｼﾏｹﾝ","kana_city":"ｾﾗｸﾞﾝｾﾗﾁｮｳ","kana_address":"ｺｳｻﾞﾝ","pref":"広島県","city":"世羅郡世羅町","address":"甲山"},
{"zip_code":"7221117","kana_pref":"ﾋﾛｼﾏｹﾝ","kana_city":"ｾﾗｸﾞﾝｾﾗﾁｮｳ","kana_address":"ｻﾌﾞﾛｳﾏﾙ","pref":"広島県","city":"世羅郡世羅町","address":"三郎丸"},
{"zip_code":"7221625","kana_pref":"ﾋﾛｼﾏｹﾝ","kana_city":"ｾﾗｸﾞﾝｾﾗﾁｮｳ","kana_address":"ｼｹﾞﾅｶﾞ","pref":"広島県","city":"世羅郡世羅町","address":"重永"},
{"zip_code":"7221731","kana_pref":"ﾋﾛｼﾏｹﾝ","kana_city":"ｾﾗｸﾞﾝｾﾗﾁｮｳ","kana_address":"ﾂｸﾁ","pref":"広島県","city":"世羅郡世羅町","address":"津口"},
{"zip_code":"7221111","kana_pref":"ﾋﾛｼﾏｹﾝ","kana_city":"ｾﾗｸﾞﾝｾﾗﾁｮｳ","kana_address":"ﾃﾗﾏﾁ","pref":"広島県","city":"世羅郡世羅町","address":"寺町"},
{"zip_code":"7221624","kana_pref":"ﾋﾛｼﾏｹﾝ","kana_city":"ｾﾗｸﾞﾝｾﾗﾁｮｳ","kana_address":"ﾄｳﾁ","pref":"広島県","city":"世羅郡世羅町","address":"田打"},
{"zip_code":"7221203","kana_pref":"ﾋﾛｼﾏｹﾝ","kana_city":"ｾﾗｸﾞﾝｾﾗﾁｮｳ","kana_address":"ﾄｸｲﾁ","pref":"広島県","city":"世羅郡世羅町","address":"徳市"},
{"zip_code":"7221201","kana_pref":"ﾋﾛｼﾏｹﾝ","kana_city":"ｾﾗｸﾞﾝｾﾗﾁｮｳ","kana_address":"ﾄﾊﾞﾘ","pref":"広島県","city":"世羅郡世羅町","address":"戸張"},
{"zip_code":"7221623","kana_pref":"ﾋﾛｼﾏｹﾝ","kana_city":"ｾﾗｸﾞﾝｾﾗﾁｮｳ","kana_address":"ﾅｶﾊﾞﾗ","pref":"広島県","city":"世羅郡世羅町","address":"中原"},
{"zip_code":"7221121","kana_pref":"ﾋﾛｼﾏｹﾝ","kana_city":"ｾﾗｸﾞﾝｾﾗﾁｮｳ","kana_address":"ﾆｼｳｴﾊﾗ","pref":"広島県","city":"世羅郡世羅町","address":"西上原"},
{"zip_code":"7221115","kana_pref":"ﾋﾛｼﾏｹﾝ","kana_city":"ｾﾗｸﾞﾝｾﾗﾁｮｳ","kana_address":"ﾆｼｶﾝｻﾞｷ","pref":"広島県","city":"世羅郡世羅町","address":"西神崎"},
{"zip_code":"7221114","kana_pref":"ﾋﾛｼﾏｹﾝ","kana_city":"ｾﾗｸﾞﾝｾﾗﾁｮｳ","kana_address":"ﾋｶﾞｼｶﾝｻﾞｷ","pref":"広島県","city":"世羅郡世羅町","address":"東神崎"},
{"zip_code":"7221622","kana_pref":"ﾋﾛｼﾏｹﾝ","kana_city":"ｾﾗｸﾞﾝｾﾗﾁｮｳ","kana_address":"ﾎﾘｺｼ","pref":"広島県","city":"世羅郡世羅町","address":"堀越"},
{"zip_code":"7221112","kana_pref":"ﾋﾛｼﾏｹﾝ","kana_city":"ｾﾗｸﾞﾝｾﾗﾁｮｳ","kana_address":"ﾎﾝｺﾞｳ","pref":"広島県","city":"世羅郡世羅町","address":"本郷"},
{"zip_code":"7221202","kana_pref":"ﾋﾛｼﾏｹﾝ","kana_city":"ｾﾗｸﾞﾝｾﾗﾁｮｳ","kana_address":"ﾔｽﾀﾞ","pref":"広島県","city":"世羅郡世羅町","address":"安田"},
{"zip_code":"7221702","kana_pref":"ﾋﾛｼﾏｹﾝ","kana_city":"ｾﾗｸﾞﾝｾﾗﾁｮｳ","kana_address":"ﾔﾏﾅｶﾌｸﾀﾞ","pref":"広島県","city":"世羅郡世羅町","address":"山中福田"}]}