{"zip_code":[
{"zip_code":"7230000","kana_pref":"ﾋﾛｼﾏｹﾝ","kana_city":"ﾐﾊﾗｼ","kana_address":"","pref":"広島県","city":"三原市","address":""},
{"zip_code":"7230047","kana_pref":"ﾋﾛｼﾏｹﾝ","kana_city":"ﾐﾊﾗｼ","kana_address":"ｱｵﾊﾞﾀﾞｲ","pref":"広島県","city":"三原市","address":"青葉台"},
{"zip_code":"7230012","kana_pref":"ﾋﾛｼﾏｹﾝ","kana_city":"ﾐﾊﾗｼ","kana_address":"ｱｻﾋﾏﾁ","pref":"広島県","city":"三原市","address":"旭町"},
{"zip_code":"7230015","kana_pref":"ﾋﾛｼﾏｹﾝ","kana_city":"ﾐﾊﾗｼ","kana_address":"ｴﾝｲﾁﾁｮｳ","pref":"広島県","city":"三原市","address":"円一町"},
{"zip_code":"7230066","kana_pref":"ﾋﾛｼﾏｹﾝ","kana_city":"ﾐﾊﾗｼ","kana_address":"ｵｵﾊﾀﾁｮｳ","pref":"広島県","city":"三原市","address":"大畑町"},
{"zip_code":"7230033","kana_pref":"ﾋﾛｼﾏｹﾝ","kana_city":"ﾐﾊﾗｼ","kana_address":"ｵｷｳﾗﾁｮｳ","pref":"広島県","city":"三原市","address":"沖浦町"},
{"zip_code":"7230131","kana_pref":"ﾋﾛｼﾏｹﾝ","kana_city":"ﾐﾊﾗｼ","kana_address":"ｵｻｶﾁｮｳ","pref":"広島県","city":"三原市","address":"小坂町"},
{"zip_code":"7230043","kana_pref":"ﾋﾛｼﾏｹﾝ","kana_city":"ﾐﾊﾗｼ","kana_address":"ｶｲﾉﾁｮｳ","pref":"広島県","city":"三原市","address":"貝野町"},
{"zip_code":"7230053","kana_pref":"ﾋﾛｼﾏｹﾝ","kana_city":"ﾐﾊﾗｼ","kana_address":"ｶﾞｸｴﾝﾁｮｳ","pref":"広島県","city":"三原市","address":"学園町"},
{"zip_code":"7230013","kana_pref":"ﾋﾛｼﾏｹﾝ","kana_city":"ﾐﾊﾗｼ","kana_address":"ｺﾊﾏ","pref":"広島県","city":"三原市","address":"古浜"},
{"zip_code":"7230006","kana_pref":"ﾋﾛｼﾏｹﾝ","kana_city":"ﾐﾊﾗｼ","kana_address":"ｺﾏｶﾞﾊﾗﾁｮｳ","pref":"広島県","city":"三原市","address":"駒ケ原町"},
{"zip_code":"7230021","kana_pref":"ﾋﾛｼﾏｹﾝ","kana_city":"ﾐﾊﾗｼ","kana_address":"ｻｷﾞｳﾗﾁｮｳｽﾅﾐ","pref":"広島県","city":"三原市","address":"鷺浦町須波"},
{"zip_code":"7230022","kana_pref":"ﾋﾛｼﾏｹﾝ","kana_city":"ﾐﾊﾗｼ","kana_address":"ｻｷﾞｳﾗﾁｮｳﾑｺｳﾀﾉｳﾗ","pref":"広島県","city":"三原市","address":"鷺浦町向田野浦"},
{"zip_code":"7230005","kana_pref":"ﾋﾛｼﾏｹﾝ","kana_city":"ﾐﾊﾗｼ","kana_address":"ｻｸﾗﾔﾏﾁｮｳ","pref":"広島県","city":"三原市","address":"桜山町"},
{"zip_code":"7230014","kana_pref":"ﾋﾛｼﾏｹﾝ","kana_city":"ﾐﾊﾗｼ","kana_address":"ｼﾛﾏﾁ","pref":"広島県","city":"三原市","address":"城町"},
{"zip_code":"7230134","kana_pref":"ﾋﾛｼﾏｹﾝ","kana_city":"ﾐﾊﾗｼ","kana_address":"ｼﾝｸﾗ","pref":"広島県","city":"三原市","address":"新倉"},
{"zip_code":"7230134","kana_pref":"ﾋﾛｼﾏｹﾝ","kana_city":"ﾐﾊﾗｼ","kana_address":"ｼﾝｸﾗﾁｮｳ","pref":"広島県","city":"三原市","address":"新倉町"},
{"zip_code":"7230031","kana_pref":"ﾋﾛｼﾏｹﾝ","kana_city":"ﾐﾊﾗｼ","kana_address":"ｽﾅﾐ","pref":"広島県","city":"三原市","address":"須波"},
{"zip_code":"7230031","kana_pref":"ﾋﾛｼﾏｹﾝ","kana_city":"ﾐﾊﾗｼ","kana_address":"ｽﾅﾐﾁｮｳ","pref":"広島県","city":"三原市","address":"須波町"},
{"zip_code":"7230032","kana_pref":"ﾋﾛｼﾏｹﾝ","kana_city":"ﾐﾊﾗｼ","kana_address":"ｽﾅﾐﾆｼ","pref":"広島県","city":"三原市","address":"須波西"},
{"zip_code":"7230032","kana_pref":"ﾋﾛｼﾏｹﾝ","kana_city":"ﾐﾊﾗｼ","kana_address":"ｽﾅﾐﾆｼﾏﾁ","pref":"広島県","city":"三原市","address":"須波西町"},
{"zip_code":"7230035","kana_pref":"ﾋﾛｼﾏｹﾝ","kana_city":"ﾐﾊﾗｼ","kana_address":"ｽﾅﾐﾊｲﾂ","pref":"広島県","city":"三原市","address":"須波ハイツ"},
{"zip_code":"7230044","kana_pref":"ﾋﾛｼﾏｹﾝ","kana_city":"ﾐﾊﾗｼ","kana_address":"ｿｳｺﾞｳ","pref":"広島県","city":"三原市","address":"宗郷"},
{"zip_code":"7230045","kana_pref":"ﾋﾛｼﾏｹﾝ","kana_city":"ﾐﾊﾗｼ","kana_address":"ﾀﾉｳﾗ","pref":"広島県","city":"三原市","address":"田野浦"},
{"zip_code":"7230003","kana_pref":"ﾋﾛｼﾏｹﾝ","kana_city":"ﾐﾊﾗｼ","kana_address":"ﾅｶﾉﾁｮｳ","pref":"広島県","city":"三原市","address":"中之町"},
{"zip_code":"7230002","kana_pref":"ﾋﾛｼﾏｹﾝ","kana_city":"ﾐﾊﾗｼ","kana_address":"ﾅｶﾉﾁｮｳﾐﾅﾐ","pref":"広島県","city":"三原市","address":"中之町南"},
{"zip_code":"7230007","kana_pref":"ﾋﾛｼﾏｹﾝ","kana_city":"ﾐﾊﾗｼ","kana_address":"ﾅｶﾉﾁｮｳｷﾀ","pref":"広島県","city":"三原市","address":"中之町北"},
{"zip_code":"7230132","kana_pref":"ﾋﾛｼﾏｹﾝ","kana_city":"ﾐﾊﾗｼ","kana_address":"ﾅｶﾞﾀﾆ","pref":"広島県","city":"三原市","address":"長谷"},
{"zip_code":"7230132","kana_pref":"ﾋﾛｼﾏｹﾝ","kana_city":"ﾐﾊﾗｼ","kana_address":"ﾅｶﾞﾀﾆﾁｮｳ","pref":"広島県","city":"三原市","address":"長谷町"},
{"zip_code":"7230065","kana_pref":"ﾋﾛｼﾏｹﾝ","kana_city":"ﾐﾊﾗｼ","kana_address":"ﾆｼﾉ","pref":"広島県","city":"三原市","address":"西野"},
{"zip_code":"7230063","kana_pref":"ﾋﾛｼﾏｹﾝ","kana_city":"ﾐﾊﾗｼ","kana_address":"ﾆｼﾏﾁ","pref":"広島県","city":"三原市","address":"西町"},
{"zip_code":"7230064","kana_pref":"ﾋﾛｼﾏｹﾝ","kana_city":"ﾐﾊﾗｼ","kana_address":"ﾆｼﾐﾔ","pref":"広島県","city":"三原市","address":"西宮"},
{"zip_code":"7230133","kana_pref":"ﾋﾛｼﾏｹﾝ","kana_city":"ﾐﾊﾗｼ","kana_address":"ﾇﾀ","pref":"広島県","city":"三原市","address":"沼田"},
{"zip_code":"7230133","kana_pref":"ﾋﾛｼﾏｹﾝ","kana_city":"ﾐﾊﾗｼ","kana_address":"ﾇﾀﾁｮｳ","pref":"広島県","city":"三原市","address":"沼田町"},
{"zip_code":"7230145","kana_pref":"ﾋﾛｼﾏｹﾝ","kana_city":"ﾐﾊﾗｼ","kana_address":"ﾇﾀﾋｶﾞｼﾁｮｳｶﾀｼﾏ","pref":"広島県","city":"三原市","address":"沼田東町片島"},
{"zip_code":"7230143","kana_pref":"ﾋﾛｼﾏｹﾝ","kana_city":"ﾐﾊﾗｼ","kana_address":"ﾇﾀﾋｶﾞｼﾁｮｳｶﾏﾔﾏ","pref":"広島県","city":"三原市","address":"沼田東町釜山"},
{"zip_code":"7230148","kana_pref":"ﾋﾛｼﾏｹﾝ","kana_city":"ﾐﾊﾗｼ","kana_address":"ﾇﾀﾋｶﾞｼﾁｮｳｼｯﾎﾟｳ","pref":"広島県","city":"三原市","address":"沼田東町七宝"},
{"zip_code":"7230144","kana_pref":"ﾋﾛｼﾏｹﾝ","kana_city":"ﾐﾊﾗｼ","kana_address":"ﾇﾀﾋｶﾞｼﾁｮｳｽｴﾋﾛ","pref":"広島県","city":"三原市","address":"沼田東町末広"},
{"zip_code":"7230142","kana_pref":"ﾋﾛｼﾏｹﾝ","kana_city":"ﾐﾊﾗｼ","kana_address":"ﾇﾀﾋｶﾞｼﾁｮｳｽｴﾐﾂ","pref":"広島県","city":"三原市","address":"沼田東町末光"},
{"zip_code":"7230146","kana_pref":"ﾋﾛｼﾏｹﾝ","kana_city":"ﾐﾊﾗｼ","kana_address":"ﾇﾀﾋｶﾞｼﾁｮｳﾉｳｿ","pref":"広島県","city":"三原市","address":"沼田東町納所"},
{"zip_code":"7230147","kana_pref":"ﾋﾛｼﾏｹﾝ","kana_city":"ﾐﾊﾗｼ","kana_address":"ﾇﾀﾋｶﾞｼﾁｮｳﾎﾝｲﾁ","pref":"広島県","city":"三原市","address":"沼田東町本市"},
{"zip_code":"7230141","kana_pref":"ﾋﾛｼﾏｹﾝ","kana_city":"ﾐﾊﾗｼ","kana_address":"ﾇﾀﾋｶﾞｼﾁｮｳﾘｮｳﾐｮｳ","pref":"広島県","city":"三原市","address":"沼田東町両名"},
{"zip_code":"7230034","kana_pref":"ﾋﾛｼﾏｹﾝ","kana_city":"ﾐﾊﾗｼ","kana_address":"ﾉﾎﾞﾘﾁｮｳ","pref":"広島県","city":"三原市","address":"登町"},
{"zip_code":"7230011","kana_pref":"ﾋﾛｼﾏｹﾝ","kana_city":"ﾐﾊﾗｼ","kana_address":"ﾋｶﾞｼﾏﾁ","pref":"広島県","city":"三原市","address":"東町"},
{"zip_code":"7230001","kana_pref":"ﾋﾛｼﾏｹﾝ","kana_city":"ﾐﾊﾗｼ","kana_address":"ﾌｶﾏﾁ","pref":"広島県","city":"三原市","address":"深町"},
{"zip_code":"7230062","kana_pref":"ﾋﾛｼﾏｹﾝ","kana_city":"ﾐﾊﾗｼ","kana_address":"ﾎﾝﾏﾁ","pref":"広島県","city":"三原市","address":"本町"},
{"zip_code":"7230017","kana_pref":"ﾋﾛｼﾏｹﾝ","kana_city":"ﾐﾊﾗｼ","kana_address":"ﾐﾅﾄﾏﾁ","pref":"広島県","city":"三原市","address":"港町"},
{"zip_code":"7230052","kana_pref":"ﾋﾛｼﾏｹﾝ","kana_city":"ﾐﾊﾗｼ","kana_address":"ﾐﾅﾐ","pref":"広島県","city":"三原市","address":"皆実"},
{"zip_code":"7230051","kana_pref":"ﾋﾛｼﾏｹﾝ","kana_city":"ﾐﾊﾗｼ","kana_address":"ﾐﾔｳﾗ","pref":"広島県","city":"三原市","address":"宮浦"},
{"zip_code":"7230016","kana_pref":"ﾋﾛｼﾏｹﾝ","kana_city":"ﾐﾊﾗｼ","kana_address":"ﾐﾔｵｷ","pref":"広島県","city":"三原市","address":"宮沖"},
{"zip_code":"7230046","kana_pref":"ﾋﾛｼﾏｹﾝ","kana_city":"ﾐﾊﾗｼ","kana_address":"ﾐｮｳｼﾞﾝ","pref":"広島県","city":"三原市","address":"明神"},
{"zip_code":"7230004","kana_pref":"ﾋﾛｼﾏｹﾝ","kana_city":"ﾐﾊﾗｼ","kana_address":"ﾔｶﾀﾏﾁ","pref":"広島県","city":"三原市","address":"館町"},
{"zip_code":"7230061","kana_pref":"ﾋﾛｼﾏｹﾝ","kana_city":"ﾐﾊﾗｼ","kana_address":"ﾔｻｶﾁｮｳ","pref":"広島県","city":"三原市","address":"八坂町"},
{"zip_code":"7230054","kana_pref":"ﾋﾛｼﾏｹﾝ","kana_city":"ﾐﾊﾗｼ","kana_address":"ﾖﾘｶﾈ","pref":"広島県","city":"三原市","address":"頼兼"},
{"zip_code":"7230042","kana_pref":"ﾋﾛｼﾏｹﾝ","kana_city":"ﾐﾊﾗｼ","kana_address":"ﾜﾀﾞｵｷﾁｮｳ","pref":"広島県","city":"三原市","address":"和田沖町"},
{"zip_code":"7230041","kana_pref":"ﾋﾛｼﾏｹﾝ","kana_city":"ﾐﾊﾗｼ","kana_address":"ﾜﾀﾞ","pref":"広島県","city":"三原市","address":"和田"}]}