{"zip_code":[
{"zip_code":"7250000","kana_pref":"ﾋﾛｼﾏｹﾝ","kana_city":"ﾀｹﾊﾗｼ","kana_address":"","pref":"広島県","city":"竹原市","address":""},
{"zip_code":"7250011","kana_pref":"ﾋﾛｼﾏｹﾝ","kana_city":"ﾀｹﾊﾗｼ","kana_address":"ｵﾅｼﾁｮｳ","pref":"広島県","city":"竹原市","address":"小梨町"},
{"zip_code":"7250025","kana_pref":"ﾋﾛｼﾏｹﾝ","kana_city":"ﾀｹﾊﾗｼ","kana_address":"ｼｵﾏﾁ","pref":"広島県","city":"竹原市","address":"塩町"},
{"zip_code":"7250012","kana_pref":"ﾋﾛｼﾏｹﾝ","kana_city":"ﾀｹﾊﾗｼ","kana_address":"ｼﾓﾉﾁｮｳ","pref":"広島県","city":"竹原市","address":"下野町"},
{"zip_code":"7250003","kana_pref":"ﾋﾛｼﾏｹﾝ","kana_city":"ﾀｹﾊﾗｼ","kana_address":"ｼﾝｼﾞｮｳﾁｮｳ","pref":"広島県","city":"竹原市","address":"新庄町"},
{"zip_code":"7250021","kana_pref":"ﾋﾛｼﾏｹﾝ","kana_city":"ﾀｹﾊﾗｼ","kana_address":"ﾀｹﾊﾗﾁｮｳ","pref":"広島県","city":"竹原市","address":"竹原町"},
{"zip_code":"7250023","kana_pref":"ﾋﾛｼﾏｹﾝ","kana_city":"ﾀｹﾊﾗｼ","kana_address":"ﾀﾉｳﾗ","pref":"広島県","city":"竹原市","address":"田ノ浦"},
{"zip_code":"7250001","kana_pref":"ﾋﾛｼﾏｹﾝ","kana_city":"ﾀｹﾊﾗｼ","kana_address":"ﾀﾏﾘﾁｮｳ","pref":"広島県","city":"竹原市","address":"田万里町"},
{"zip_code":"7250026","kana_pref":"ﾋﾛｼﾏｹﾝ","kana_city":"ﾀｹﾊﾗｼ","kana_address":"ﾁｭｳｵｳ","pref":"広島県","city":"竹原市","address":"中央"},
{"zip_code":"7250005","kana_pref":"ﾋﾛｼﾏｹﾝ","kana_city":"ﾀｹﾊﾗｼ","kana_address":"ﾆｶﾁｮｳ","pref":"広島県","city":"竹原市","address":"仁賀町"},
{"zip_code":"7250002","kana_pref":"ﾋﾛｼﾏｹﾝ","kana_city":"ﾀｹﾊﾗｼ","kana_address":"ﾆｼﾉﾁｮｳ","pref":"広島県","city":"竹原市","address":"西野町"},
{"zip_code":"7250004","kana_pref":"ﾋﾛｼﾏｹﾝ","kana_city":"ﾀｹﾊﾗｼ","kana_address":"ﾋｶﾞｼﾉﾁｮｳ","pref":"広島県","city":"竹原市","address":"東野町"},
{"zip_code":"7250022","kana_pref":"ﾋﾛｼﾏｹﾝ","kana_city":"ﾀｹﾊﾗｼ","kana_address":"ﾎﾝﾏﾁ","pref":"広島県","city":"竹原市","address":"本町"},
{"zip_code":"7250024","kana_pref":"ﾋﾛｼﾏｹﾝ","kana_city":"ﾀｹﾊﾗｼ","kana_address":"ﾐﾅﾄﾏﾁ","pref":"広島県","city":"竹原市","address":"港町"},
{"zip_code":"7250013","kana_pref":"ﾋﾛｼﾏｹﾝ","kana_city":"ﾀｹﾊﾗｼ","kana_address":"ﾖｼﾅﾁｮｳ","pref":"広島県","city":"竹原市","address":"吉名町"},
{"zip_code":"7250200","kana_pref":"ﾋﾛｼﾏｹﾝ","kana_city":"ﾄﾖﾀｸﾞﾝｵｵｻｷｶﾐｼﾞﾏﾁｮｳ","kana_address":"","pref":"広島県","city":"豊田郡大崎上島町","address":""},
{"zip_code":"7250403","kana_pref":"ﾋﾛｼﾏｹﾝ","kana_city":"ﾄﾖﾀｸﾞﾝｵｵｻｷｶﾐｼﾞﾏﾁｮｳ","kana_address":"ｱｶｼ","pref":"広島県","city":"豊田郡大崎上島町","address":"明石"},
{"zip_code":"7250303","kana_pref":"ﾋﾛｼﾏｹﾝ","kana_city":"ﾄﾖﾀｸﾞﾝｵｵｻｷｶﾐｼﾞﾏﾁｮｳ","kana_address":"ｵｵｸｼ","pref":"広島県","city":"豊田郡大崎上島町","address":"大串"},
{"zip_code":"7250402","kana_pref":"ﾋﾛｼﾏｹﾝ","kana_city":"ﾄﾖﾀｸﾞﾝｵｵｻｷｶﾐｼﾞﾏﾁｮｳ","kana_address":"ｵｷｳﾗ","pref":"広島県","city":"豊田郡大崎上島町","address":"沖浦"},
{"zip_code":"7250401","kana_pref":"ﾋﾛｼﾏｹﾝ","kana_city":"ﾄﾖﾀｸﾞﾝｵｵｻｷｶﾐｼﾞﾏﾁｮｳ","kana_address":"ｷﾉｴ","pref":"広島県","city":"豊田郡大崎上島町","address":"木江"},
{"zip_code":"7250301","kana_pref":"ﾋﾛｼﾏｹﾝ","kana_city":"ﾄﾖﾀｸﾞﾝｵｵｻｷｶﾐｼﾞﾏﾁｮｳ","kana_address":"ﾅｶﾉ","pref":"広島県","city":"豊田郡大崎上島町","address":"中野"},
{"zip_code":"7250302","kana_pref":"ﾋﾛｼﾏｹﾝ","kana_city":"ﾄﾖﾀｸﾞﾝｵｵｻｷｶﾐｼﾞﾏﾁｮｳ","kana_address":"ﾊﾗﾀﾞ","pref":"広島県","city":"豊田郡大崎上島町","address":"原田"},
{"zip_code":"7250231","kana_pref":"ﾋﾛｼﾏｹﾝ","kana_city":"ﾄﾖﾀｸﾞﾝｵｵｻｷｶﾐｼﾞﾏﾁｮｳ","kana_address":"ﾋｶﾞｼﾉ","pref":"広島県","city":"豊田郡大崎上島町","address":"東野"}]}