{"zip_code":[
{"zip_code":"7260000","kana_pref":"ﾋﾛｼﾏｹﾝ","kana_city":"ﾌﾁｭｳｼ","kana_address":"","pref":"広島県","city":"府中市","address":""},
{"zip_code":"7260031","kana_pref":"ﾋﾛｼﾏｹﾝ","kana_city":"ﾌﾁｭｳｼ","kana_address":"ｱﾗﾀﾆﾁｮｳ","pref":"広島県","city":"府中市","address":"荒谷町"},
{"zip_code":"7260002","kana_pref":"ﾋﾛｼﾏｹﾝ","kana_city":"ﾌﾁｭｳｼ","kana_address":"ｳｶｲﾁｮｳ","pref":"広島県","city":"府中市","address":"鵜飼町"},
{"zip_code":"7260034","kana_pref":"ﾋﾛｼﾏｹﾝ","kana_city":"ﾌﾁｭｳｼ","kana_address":"ｳﾔﾏﾁｮｳ","pref":"広島県","city":"府中市","address":"上山町"},
{"zip_code":"7260025","kana_pref":"ﾋﾛｼﾏｹﾝ","kana_city":"ﾌﾁｭｳｼ","kana_address":"ｶﾅﾝﾁｮｳ","pref":"広島県","city":"府中市","address":"河南町"},
{"zip_code":"7260023","kana_pref":"ﾋﾛｼﾏｹﾝ","kana_city":"ﾌﾁｭｳｼ","kana_address":"ｸﾘｶﾞﾗﾁｮｳ","pref":"広島県","city":"府中市","address":"栗柄町"},
{"zip_code":"7260036","kana_pref":"ﾋﾛｼﾏｹﾝ","kana_city":"ﾌﾁｭｳｼ","kana_address":"ｺｳﾓﾁｮｳ","pref":"広島県","city":"府中市","address":"河面町"},
{"zip_code":"7260006","kana_pref":"ﾋﾛｼﾏｹﾝ","kana_city":"ﾌﾁｭｳｼ","kana_address":"ｻｸﾗｶﾞｵｶ","pref":"広島県","city":"府中市","address":"桜が丘"},
{"zip_code":"7260026","kana_pref":"ﾋﾛｼﾏｹﾝ","kana_city":"ﾌﾁｭｳｼ","kana_address":"ｻﾌﾞﾛｳﾏﾙﾁｮｳ","pref":"広島県","city":"府中市","address":"三郎丸町"},
{"zip_code":"7260027","kana_pref":"ﾋﾛｼﾏｹﾝ","kana_city":"ﾌﾁｭｳｼ","kana_address":"ｼﾉﾈﾁｮｳ","pref":"広島県","city":"府中市","address":"篠根町"},
{"zip_code":"7260024","kana_pref":"ﾋﾛｼﾏｹﾝ","kana_city":"ﾌﾁｭｳｼ","kana_address":"ｿｳﾄﾞﾉﾁｮｳ","pref":"広島県","city":"府中市","address":"僧殿町"},
{"zip_code":"7260013","kana_pref":"ﾋﾛｼﾏｹﾝ","kana_city":"ﾌﾁｭｳｼ","kana_address":"ﾀｶｷﾞﾁｮｳ","pref":"広島県","city":"府中市","address":"高木町"},
{"zip_code":"7260035","kana_pref":"ﾋﾛｼﾏｹﾝ","kana_city":"ﾌﾁｭｳｼ","kana_address":"ﾁｲｼﾁｮｳ","pref":"広島県","city":"府中市","address":"父石町"},
{"zip_code":"7260032","kana_pref":"ﾋﾛｼﾏｹﾝ","kana_city":"ﾌﾁｭｳｼ","kana_address":"ﾃﾞｸﾞﾁﾁｮｳ","pref":"広島県","city":"府中市","address":"出口町"},
{"zip_code":"7260012","kana_pref":"ﾋﾛｼﾏｹﾝ","kana_city":"ﾌﾁｭｳｼ","kana_address":"ﾅｶｽﾞﾁｮｳ","pref":"広島県","city":"府中市","address":"中須町"},
{"zip_code":"7260021","kana_pref":"ﾋﾛｼﾏｹﾝ","kana_city":"ﾌﾁｭｳｼ","kana_address":"ﾊﾌﾞﾁｮｳ","pref":"広島県","city":"府中市","address":"土生町"},
{"zip_code":"7260011","kana_pref":"ﾋﾛｼﾏｹﾝ","kana_city":"ﾌﾁｭｳｼ","kana_address":"ﾋﾛﾀﾆﾁｮｳ","pref":"広島県","city":"府中市","address":"広谷町"},
{"zip_code":"7260004","kana_pref":"ﾋﾛｼﾏｹﾝ","kana_city":"ﾌﾁｭｳｼ","kana_address":"ﾌｶﾜﾁｮｳ","pref":"広島県","city":"府中市","address":"府川町"},
{"zip_code":"7260005","kana_pref":"ﾋﾛｼﾏｹﾝ","kana_city":"ﾌﾁｭｳｼ","kana_address":"ﾌﾁｭｳﾁｮｳ","pref":"広島県","city":"府中市","address":"府中町"},
{"zip_code":"7260033","kana_pref":"ﾋﾛｼﾏｹﾝ","kana_city":"ﾌﾁｭｳｼ","kana_address":"ﾒｻｷﾁｮｳ","pref":"広島県","city":"府中市","address":"目崎町"},
{"zip_code":"7260003","kana_pref":"ﾋﾛｼﾏｹﾝ","kana_city":"ﾌﾁｭｳｼ","kana_address":"ﾓﾄﾏﾁ","pref":"広島県","city":"府中市","address":"元町"},
{"zip_code":"7260001","kana_pref":"ﾋﾛｼﾏｹﾝ","kana_city":"ﾌﾁｭｳｼ","kana_address":"ﾓﾄﾔﾏﾁｮｳ","pref":"広島県","city":"府中市","address":"本山町"},
{"zip_code":"7260022","kana_pref":"ﾋﾛｼﾏｹﾝ","kana_city":"ﾌﾁｭｳｼ","kana_address":"ﾖｳﾄﾞﾁｮｳ","pref":"広島県","city":"府中市","address":"用土町"}]}