{"zip_code":[
{"zip_code":"7270000","kana_pref":"ﾋﾛｼﾏｹﾝ","kana_city":"ｼｮｳﾊﾞﾗｼ","kana_address":"","pref":"広島県","city":"庄原市","address":""},
{"zip_code":"7270014","kana_pref":"ﾋﾛｼﾏｹﾝ","kana_city":"ｼｮｳﾊﾞﾗｼ","kana_address":"ｲﾀﾊﾞｼﾁｮｳ","pref":"広島県","city":"庄原市","address":"板橋町"},
{"zip_code":"7270025","kana_pref":"ﾋﾛｼﾏｹﾝ","kana_city":"ｼｮｳﾊﾞﾗｼ","kana_address":"ｲﾁﾏﾁ","pref":"広島県","city":"庄原市","address":"市町"},
{"zip_code":"7270624","kana_pref":"ﾋﾛｼﾏｹﾝ","kana_city":"ｼｮｳﾊﾞﾗｼ","kana_address":"ｳｴﾀﾞﾆﾁｮｳ","pref":"広島県","city":"庄原市","address":"上谷町"},
{"zip_code":"7270001","kana_pref":"ﾋﾛｼﾏｹﾝ","kana_city":"ｼｮｳﾊﾞﾗｼ","kana_address":"ｵｵｸﾎﾞﾁｮｳ","pref":"広島県","city":"庄原市","address":"大久保町"},
{"zip_code":"7270026","kana_pref":"ﾋﾛｼﾏｹﾝ","kana_city":"ｼｮｳﾊﾞﾗｼ","kana_address":"ｶｹﾀﾞﾁｮｳ","pref":"広島県","city":"庄原市","address":"掛田町"},
{"zip_code":"7270022","kana_pref":"ﾋﾛｼﾏｹﾝ","kana_city":"ｼｮｳﾊﾞﾗｼ","kana_address":"ｶﾐﾊﾗﾁｮｳ","pref":"広島県","city":"庄原市","address":"上原町"},
{"zip_code":"7270203","kana_pref":"ﾋﾛｼﾏｹﾝ","kana_city":"ｼｮｳﾊﾞﾗｼ","kana_address":"ｶﾜｷﾀﾁｮｳ","pref":"広島県","city":"庄原市","address":"川北町"},
{"zip_code":"7270005","kana_pref":"ﾋﾛｼﾏｹﾝ","kana_city":"ｼｮｳﾊﾞﾗｼ","kana_address":"ｶﾜﾃﾏﾁ","pref":"広島県","city":"庄原市","address":"川手町"},
{"zip_code":"7270112","kana_pref":"ﾋﾛｼﾏｹﾝ","kana_city":"ｼｮｳﾊﾞﾗｼ","kana_address":"ｸﾁﾜﾁｮｳｷﾝﾃﾞ","pref":"広島県","city":"庄原市","address":"口和町金田"},
{"zip_code":"7270113","kana_pref":"ﾋﾛｼﾏｹﾝ","kana_city":"ｼｮｳﾊﾞﾗｼ","kana_address":"ｸﾁﾜﾁｮｳﾂﾈｻﾀﾞ","pref":"広島県","city":"庄原市","address":"口和町常定"},
{"zip_code":"7270114","kana_pref":"ﾋﾛｼﾏｹﾝ","kana_city":"ｼｮｳﾊﾞﾗｼ","kana_address":"ｸﾁﾜﾁｮｳﾅｶﾞﾀ","pref":"広島県","city":"庄原市","address":"口和町永田"},
{"zip_code":"7270111","kana_pref":"ﾋﾛｼﾏｹﾝ","kana_city":"ｼｮｳﾊﾞﾗｼ","kana_address":"ｸﾁﾜﾁｮｳﾕｷ","pref":"広島県","city":"庄原市","address":"口和町湯木"},
{"zip_code":"7270003","kana_pref":"ﾋﾛｼﾏｹﾝ","kana_city":"ｼｮｳﾊﾞﾗｼ","kana_address":"ｺﾚﾏﾂﾁｮｳ","pref":"広島県","city":"庄原市","address":"是松町"},
{"zip_code":"7270015","kana_pref":"ﾋﾛｼﾏｹﾝ","kana_city":"ｼｮｳﾊﾞﾗｼ","kana_address":"ｻﾈﾄﾞﾒﾁｮｳ","pref":"広島県","city":"庄原市","address":"実留町"},
{"zip_code":"7270621","kana_pref":"ﾋﾛｼﾏｹﾝ","kana_city":"ｼｮｳﾊﾞﾗｼ","kana_address":"ｼｭﾝﾀﾞﾁｮｳ","pref":"広島県","city":"庄原市","address":"春田町"},
{"zip_code":"7270004","kana_pref":"ﾋﾛｼﾏｹﾝ","kana_city":"ｼｮｳﾊﾞﾗｼ","kana_address":"ｼﾝｼﾞｮｳﾁｮｳ","pref":"広島県","city":"庄原市","address":"新庄町"},
{"zip_code":"7270002","kana_pref":"ﾋﾛｼﾏｹﾝ","kana_city":"ｼｮｳﾊﾞﾗｼ","kana_address":"ﾀｶｶﾄﾞﾁｮｳ","pref":"広島県","city":"庄原市","address":"高門町"},
{"zip_code":"7270425","kana_pref":"ﾋﾛｼﾏｹﾝ","kana_city":"ｼｮｳﾊﾞﾗｼ","kana_address":"ﾀｶﾉﾁｮｳｱｶﾞﾘﾊﾗ","pref":"広島県","city":"庄原市","address":"高野町上里原"},
{"zip_code":"7270403","kana_pref":"ﾋﾛｼﾏｹﾝ","kana_city":"ｼｮｳﾊﾞﾗｼ","kana_address":"ﾀｶﾉﾁｮｳｵｶｵｵｳﾁ","pref":"広島県","city":"庄原市","address":"高野町岡大内"},
{"zip_code":"7270422","kana_pref":"ﾋﾛｼﾏｹﾝ","kana_city":"ｼｮｳﾊﾞﾗｼ","kana_address":"ﾀｶﾉﾁｮｳｵｸﾓﾝﾃﾞ","pref":"広島県","city":"庄原市","address":"高野町奥門田"},
{"zip_code":"7270411","kana_pref":"ﾋﾛｼﾏｹﾝ","kana_city":"ｼｮｳﾊﾞﾗｼ","kana_address":"ﾀｶﾉﾁｮｳｶﾐﾕｶﾜ","pref":"広島県","city":"庄原市","address":"高野町上湯川"},
{"zip_code":"7270424","kana_pref":"ﾋﾛｼﾏｹﾝ","kana_city":"ｼｮｳﾊﾞﾗｼ","kana_address":"ﾀｶﾉﾁｮｳｺｳﾎﾞ","pref":"広島県","city":"庄原市","address":"高野町高暮"},
{"zip_code":"7270412","kana_pref":"ﾋﾛｼﾏｹﾝ","kana_city":"ｼｮｳﾊﾞﾗｼ","kana_address":"ﾀｶﾉﾁｮｳｼﾓﾕｶﾜ","pref":"広島県","city":"庄原市","address":"高野町下湯川"},
{"zip_code":"7270423","kana_pref":"ﾋﾛｼﾏｹﾝ","kana_city":"ｼｮｳﾊﾞﾗｼ","kana_address":"ﾀｶﾉﾁｮｳｼﾓﾝﾃﾞ","pref":"広島県","city":"庄原市","address":"高野町下門田"},
{"zip_code":"7270402","kana_pref":"ﾋﾛｼﾏｹﾝ","kana_city":"ｼｮｳﾊﾞﾗｼ","kana_address":"ﾀｶﾉﾁｮｳｼﾝｲﾁ","pref":"広島県","city":"庄原市","address":"高野町新市"},
{"zip_code":"7270421","kana_pref":"ﾋﾛｼﾏｹﾝ","kana_city":"ｼｮｳﾊﾞﾗｼ","kana_address":"ﾀｶﾉﾁｮｳﾅｶﾓﾝﾃﾞ","pref":"広島県","city":"庄原市","address":"高野町中門田"},
{"zip_code":"7270413","kana_pref":"ﾋﾛｼﾏｹﾝ","kana_city":"ｼｮｳﾊﾞﾗｼ","kana_address":"ﾀｶﾉﾁｮｳﾐﾅﾐ","pref":"広島県","city":"庄原市","address":"高野町南"},
{"zip_code":"7270401","kana_pref":"ﾋﾛｼﾏｹﾝ","kana_city":"ｼｮｳﾊﾞﾗｼ","kana_address":"ﾀｶﾉﾁｮｳﾜﾅﾝﾊﾞﾗ","pref":"広島県","city":"庄原市","address":"高野町和南原"},
{"zip_code":"7270024","kana_pref":"ﾋﾛｼﾏｹﾝ","kana_city":"ｼｮｳﾊﾞﾗｼ","kana_address":"ﾀﾜﾗﾁｮｳ","pref":"広島県","city":"庄原市","address":"田原町"},
{"zip_code":"7270017","kana_pref":"ﾋﾛｼﾏｹﾝ","kana_city":"ｼｮｳﾊﾞﾗｼ","kana_address":"ﾄｺﾞｳﾁｮｳ","pref":"広島県","city":"庄原市","address":"戸郷町"},
{"zip_code":"7270008","kana_pref":"ﾋﾛｼﾏｹﾝ","kana_city":"ｼｮｳﾊﾞﾗｼ","kana_address":"ﾅｶﾞｽｴﾁｮｳ","pref":"広島県","city":"庄原市","address":"永末町"},
{"zip_code":"7270012","kana_pref":"ﾋﾛｼﾏｹﾝ","kana_city":"ｼｮｳﾊﾞﾗｼ","kana_address":"ﾅｶﾎﾝﾏﾁ","pref":"広島県","city":"庄原市","address":"中本町"},
{"zip_code":"7270023","kana_pref":"ﾋﾛｼﾏｹﾝ","kana_city":"ｼｮｳﾊﾞﾗｼ","kana_address":"ﾅﾅﾂｶﾁｮｳ","pref":"広島県","city":"庄原市","address":"七塚町"},
{"zip_code":"7270202","kana_pref":"ﾋﾛｼﾏｹﾝ","kana_city":"ｼｮｳﾊﾞﾗｼ","kana_address":"ﾆｺﾞﾘｶﾜﾁｮｳ","pref":"広島県","city":"庄原市","address":"濁川町"},
{"zip_code":"7270013","kana_pref":"ﾋﾛｼﾏｹﾝ","kana_city":"ｼｮｳﾊﾞﾗｼ","kana_address":"ﾆｼﾎﾝﾏﾁ","pref":"広島県","city":"庄原市","address":"西本町"},
{"zip_code":"7270011","kana_pref":"ﾋﾛｼﾏｹﾝ","kana_city":"ｼｮｳﾊﾞﾗｼ","kana_address":"ﾋｶﾞｼﾎﾝﾏﾁ","pref":"広島県","city":"庄原市","address":"東本町"},
{"zip_code":"7270016","kana_pref":"ﾋﾛｼﾏｹﾝ","kana_city":"ｼｮｳﾊﾞﾗｼ","kana_address":"ﾋﾄﾂｷﾞﾁｮｳ","pref":"広島県","city":"庄原市","address":"一木町"},
{"zip_code":"7270302","kana_pref":"ﾋﾛｼﾏｹﾝ","kana_city":"ｼｮｳﾊﾞﾗｼ","kana_address":"ﾋﾜﾁｮｳｺｺﾞﾛ","pref":"広島県","city":"庄原市","address":"比和町古頃"},
{"zip_code":"7270312","kana_pref":"ﾋﾛｼﾏｹﾝ","kana_city":"ｼｮｳﾊﾞﾗｼ","kana_address":"ﾋﾜﾁｮｳｺﾔﾊﾞﾗ","pref":"広島県","city":"庄原市","address":"比和町木屋原"},
{"zip_code":"7270301","kana_pref":"ﾋﾛｼﾏｹﾝ","kana_city":"ｼｮｳﾊﾞﾗｼ","kana_address":"ﾋﾜﾁｮｳﾋﾜ","pref":"広島県","city":"庄原市","address":"比和町比和"},
{"zip_code":"7270311","kana_pref":"ﾋﾛｼﾏｹﾝ","kana_city":"ｼｮｳﾊﾞﾗｼ","kana_address":"ﾋﾜﾁｮｳﾐﾂｶﾞｲﾁ","pref":"広島県","city":"庄原市","address":"比和町三河内"},
{"zip_code":"7270321","kana_pref":"ﾋﾛｼﾏｹﾝ","kana_city":"ｼｮｳﾊﾞﾗｼ","kana_address":"ﾋﾜﾁｮｳﾓﾘﾜｷ","pref":"広島県","city":"庄原市","address":"比和町森脇"},
{"zip_code":"7270006","kana_pref":"ﾋﾛｼﾏｹﾝ","kana_city":"ｼｮｳﾊﾞﾗｼ","kana_address":"ﾎﾝﾏﾁ","pref":"広島県","city":"庄原市","address":"本町"},
{"zip_code":"7270623","kana_pref":"ﾋﾛｼﾏｹﾝ","kana_city":"ｼｮｳﾊﾞﾗｼ","kana_address":"ﾎﾝﾑﾗﾁｮｳ","pref":"広島県","city":"庄原市","address":"本村町"},
{"zip_code":"7270021","kana_pref":"ﾋﾛｼﾏｹﾝ","kana_city":"ｼｮｳﾊﾞﾗｼ","kana_address":"ﾐｯｶｲﾁﾁｮｳ","pref":"広島県","city":"庄原市","address":"三日市町"},
{"zip_code":"7270622","kana_pref":"ﾋﾛｼﾏｹﾝ","kana_city":"ｼｮｳﾊﾞﾗｼ","kana_address":"ﾐﾈﾀﾁｮｳ","pref":"広島県","city":"庄原市","address":"峰田町"},
{"zip_code":"7270007","kana_pref":"ﾋﾛｼﾏｹﾝ","kana_city":"ｼｮｳﾊﾞﾗｼ","kana_address":"ﾐﾔｳﾁﾁｮｳ","pref":"広島県","city":"庄原市","address":"宮内町"},
{"zip_code":"7270201","kana_pref":"ﾋﾛｼﾏｹﾝ","kana_city":"ｼｮｳﾊﾞﾗｼ","kana_address":"ﾓﾝﾃﾞﾁｮｳ","pref":"広島県","city":"庄原市","address":"門田町"}]}