{"zip_code":[
{"zip_code":"7280000","kana_pref":"ﾋﾛｼﾏｹﾝ","kana_city":"ﾐﾖｼｼ","kana_address":"","pref":"広島県","city":"三次市","address":""},
{"zip_code":"7280024","kana_pref":"ﾋﾛｼﾏｹﾝ","kana_city":"ﾐﾖｼｼ","kana_address":"ｱｵｶﾞﾏﾁ","pref":"広島県","city":"三次市","address":"青河町"},
{"zip_code":"7280004","kana_pref":"ﾋﾛｼﾏｹﾝ","kana_city":"ﾐﾖｼｼ","kana_address":"ｱﾅｶﾞｻﾏﾁ","pref":"広島県","city":"三次市","address":"穴笠町"},
{"zip_code":"7280625","kana_pref":"ﾋﾛｼﾏｹﾝ","kana_city":"ﾐﾖｼｼ","kana_address":"ｱﾘﾊﾗﾏﾁ","pref":"広島県","city":"三次市","address":"有原町"},
{"zip_code":"7280025","kana_pref":"ﾋﾛｼﾏｹﾝ","kana_city":"ﾐﾖｼｼ","kana_address":"ｱﾜﾔﾏﾁ","pref":"広島県","city":"三次市","address":"粟屋町"},
{"zip_code":"7280623","kana_pref":"ﾋﾛｼﾏｹﾝ","kana_city":"ﾐﾖｼｼ","kana_address":"ｲｼﾊﾗﾏﾁ","pref":"広島県","city":"三次市","address":"石原町"},
{"zip_code":"7280624","kana_pref":"ﾋﾛｼﾏｹﾝ","kana_city":"ﾐﾖｼｼ","kana_address":"ｳｴﾀﾞﾏﾁ","pref":"広島県","city":"三次市","address":"上田町"},
{"zip_code":"7280005","kana_pref":"ﾋﾛｼﾏｹﾝ","kana_city":"ﾐﾖｼｼ","kana_address":"ｳｼﾛﾔﾏﾏﾁ","pref":"広島県","city":"三次市","address":"後山町"},
{"zip_code":"7280622","kana_pref":"ﾋﾛｼﾏｹﾝ","kana_city":"ﾐﾖｼｼ","kana_address":"ｳﾄﾏﾁ","pref":"広島県","city":"三次市","address":"海渡町"},
{"zip_code":"7280007","kana_pref":"ﾋﾛｼﾏｹﾝ","kana_city":"ﾐﾖｼｼ","kana_address":"ｵﾌﾞﾐﾏﾁ","pref":"広島県","city":"三次市","address":"小文町"},
{"zip_code":"7280404","kana_pref":"ﾋﾛｼﾏｹﾝ","kana_city":"ﾐﾖｼｼ","kana_address":"ｷﾐﾀﾁｮｳｲｼﾊﾗ","pref":"広島県","city":"三次市","address":"君田町石原"},
{"zip_code":"7280405","kana_pref":"ﾋﾛｼﾏｹﾝ","kana_city":"ﾐﾖｼｼ","kana_address":"ｷﾐﾀﾁｮｳｲｽﾞﾐﾖｼﾀﾞ","pref":"広島県","city":"三次市","address":"君田町泉吉田"},
{"zip_code":"7280402","kana_pref":"ﾋﾛｼﾏｹﾝ","kana_city":"ﾐﾖｼｼ","kana_address":"ｷﾐﾀﾁｮｳﾆｼｲﾘｷﾞﾐ","pref":"広島県","city":"三次市","address":"君田町西入君"},
{"zip_code":"7280401","kana_pref":"ﾋﾛｼﾏｹﾝ","kana_city":"ﾐﾖｼｼ","kana_address":"ｷﾐﾀﾁｮｳﾋｶﾞｼｲﾘｷﾞﾐ","pref":"広島県","city":"三次市","address":"君田町東入君"},
{"zip_code":"7280406","kana_pref":"ﾋﾛｼﾏｹﾝ","kana_city":"ﾐﾖｼｼ","kana_address":"ｷﾐﾀﾁｮｳﾋﾂﾀ","pref":"広島県","city":"三次市","address":"君田町櫃田"},
{"zip_code":"7280403","kana_pref":"ﾋﾛｼﾏｹﾝ","kana_city":"ﾐﾖｼｼ","kana_address":"ｷﾐﾀﾁｮｳﾌｼﾞｶﾈ","pref":"広島県","city":"三次市","address":"君田町藤兼"},
{"zip_code":"7280407","kana_pref":"ﾋﾛｼﾏｹﾝ","kana_city":"ﾐﾖｼｼ","kana_address":"ｷﾐﾀﾁｮｳﾓﾀﾞ","pref":"広島県","city":"三次市","address":"君田町茂田"},
{"zip_code":"7280111","kana_pref":"ﾋﾛｼﾏｹﾝ","kana_city":"ﾐﾖｼｼ","kana_address":"ｻｸｷﾞﾁｮｳｲｶﾜｼ","pref":"広島県","city":"三次市","address":"作木町伊賀和志"},
{"zip_code":"7280115","kana_pref":"ﾋﾛｼﾏｹﾝ","kana_city":"ﾐﾖｼｼ","kana_address":"ｻｸｷﾞﾁｮｳｵｵﾂ","pref":"広島県","city":"三次市","address":"作木町大津"},
{"zip_code":"7280121","kana_pref":"ﾋﾛｼﾏｹﾝ","kana_city":"ﾐﾖｼｼ","kana_address":"ｻｸｷﾞﾁｮｳｵｵﾊﾞﾀｹ","pref":"広島県","city":"三次市","address":"作木町大畠"},
{"zip_code":"7280132","kana_pref":"ﾋﾛｼﾏｹﾝ","kana_city":"ﾐﾖｼｼ","kana_address":"ｻｸｷﾞﾁｮｳｵｵﾔﾏ","pref":"広島県","city":"三次市","address":"作木町大山"},
{"zip_code":"7280101","kana_pref":"ﾋﾛｼﾏｹﾝ","kana_city":"ﾐﾖｼｼ","kana_address":"ｻｸｷﾞﾁｮｳｵｶﾐﾌﾞﾁ","pref":"広島県","city":"三次市","address":"作木町岡三渕"},
{"zip_code":"7280123","kana_pref":"ﾋﾛｼﾏｹﾝ","kana_city":"ﾐﾖｼｼ","kana_address":"ｻｸｷﾞﾁｮｳｶﾐｻｸｷﾞ","pref":"広島県","city":"三次市","address":"作木町上作木"},
{"zip_code":"7280131","kana_pref":"ﾋﾛｼﾏｹﾝ","kana_city":"ﾐﾖｼｼ","kana_address":"ｻｸｷﾞﾁｮｳｺｳﾖﾄﾞ","pref":"広島県","city":"三次市","address":"作木町香淀"},
{"zip_code":"7280124","kana_pref":"ﾋﾛｼﾏｹﾝ","kana_city":"ﾐﾖｼｼ","kana_address":"ｻｸｷﾞﾁｮｳｼﾓｻｸｷﾞ","pref":"広島県","city":"三次市","address":"作木町下作木"},
{"zip_code":"7280122","kana_pref":"ﾋﾛｼﾏｹﾝ","kana_city":"ﾐﾖｼｼ","kana_address":"ｻｸｷﾞﾁｮｳﾆｼﾉ","pref":"広島県","city":"三次市","address":"作木町西野"},
{"zip_code":"7280125","kana_pref":"ﾋﾛｼﾏｹﾝ","kana_city":"ﾐﾖｼｼ","kana_address":"ｻｸｷﾞﾁｮｳﾐﾂﾓﾘ","pref":"広島県","city":"三次市","address":"作木町光守"},
{"zip_code":"7280114","kana_pref":"ﾋﾛｼﾏｹﾝ","kana_city":"ﾐﾖｼｼ","kana_address":"ｻｸｷﾞﾁｮｳﾓﾘﾔﾏﾅｶ","pref":"広島県","city":"三次市","address":"作木町森山中"},
{"zip_code":"7280112","kana_pref":"ﾋﾛｼﾏｹﾝ","kana_city":"ﾐﾖｼｼ","kana_address":"ｻｸｷﾞﾁｮｳﾓﾘﾔﾏﾆｼ","pref":"広島県","city":"三次市","address":"作木町森山西"},
{"zip_code":"7280113","kana_pref":"ﾋﾛｼﾏｹﾝ","kana_city":"ﾐﾖｼｼ","kana_address":"ｻｸｷﾞﾁｮｳﾓﾘﾔﾏﾋｶﾞｼ","pref":"広島県","city":"三次市","address":"作木町森山東"},
{"zip_code":"7280133","kana_pref":"ﾋﾛｼﾏｹﾝ","kana_city":"ﾐﾖｼｼ","kana_address":"ｻｸｷﾞﾁｮｳﾓﾝﾃﾞ","pref":"広島県","city":"三次市","address":"作木町門田"},
{"zip_code":"7280016","kana_pref":"ﾋﾛｼﾏｹﾝ","kana_city":"ﾐﾖｼｼ","kana_address":"ｼｼﾞﾂｶﾝﾏﾁ","pref":"広島県","city":"三次市","address":"四拾貫町"},
{"zip_code":"7280012","kana_pref":"ﾋﾛｼﾏｹﾝ","kana_city":"ﾐﾖｼｼ","kana_address":"ﾄｵｶｲﾁﾅｶ","pref":"広島県","city":"三次市","address":"十日市中"},
{"zip_code":"7280013","kana_pref":"ﾋﾛｼﾏｹﾝ","kana_city":"ﾐﾖｼｼ","kana_address":"ﾄｵｶｲﾁﾋｶﾞｼ","pref":"広島県","city":"三次市","address":"十日市東"},
{"zip_code":"7280011","kana_pref":"ﾋﾛｼﾏｹﾝ","kana_city":"ﾐﾖｼｼ","kana_address":"ﾄｵｶｲﾁﾆｼ","pref":"広島県","city":"三次市","address":"十日市西"},
{"zip_code":"7280014","kana_pref":"ﾋﾛｼﾏｹﾝ","kana_city":"ﾐﾖｼｼ","kana_address":"ﾄｵｶｲﾁﾐﾅﾐ","pref":"広島県","city":"三次市","address":"十日市南"},
{"zip_code":"7280015","kana_pref":"ﾋﾛｼﾏｹﾝ","kana_city":"ﾐﾖｼｼ","kana_address":"ﾄｵｶｲﾁﾏﾁ","pref":"広島県","city":"三次市","address":"十日市町"},
{"zip_code":"7280002","kana_pref":"ﾋﾛｼﾏｹﾝ","kana_city":"ﾐﾖｼｼ","kana_address":"ﾆｼｺｳﾁﾏﾁ","pref":"広島県","city":"三次市","address":"西河内町"},
{"zip_code":"7280022","kana_pref":"ﾋﾛｼﾏｹﾝ","kana_city":"ﾐﾖｼｼ","kana_address":"ﾆｼｻｹﾔﾏﾁ","pref":"広島県","city":"三次市","address":"西酒屋町"},
{"zip_code":"7280006","kana_pref":"ﾋﾛｼﾏｹﾝ","kana_city":"ﾐﾖｼｼ","kana_address":"ﾊﾀｼﾞｷﾏﾁ","pref":"広島県","city":"三次市","address":"畠敷町"},
{"zip_code":"7280003","kana_pref":"ﾋﾛｼﾏｹﾝ","kana_city":"ﾐﾖｼｼ","kana_address":"ﾋｶﾞｼｺｳﾁﾏﾁ","pref":"広島県","city":"三次市","address":"東河内町"},
{"zip_code":"7280023","kana_pref":"ﾋﾛｼﾏｹﾝ","kana_city":"ﾐﾖｼｼ","kana_address":"ﾋｶﾞｼｻｹﾔﾏﾁ","pref":"広島県","city":"三次市","address":"東酒屋町"},
{"zip_code":"7280026","kana_pref":"ﾋﾛｼﾏｹﾝ","kana_city":"ﾐﾖｼｼ","kana_address":"ﾋｹﾞﾏﾁ","pref":"広島県","city":"三次市","address":"日下町"},
{"zip_code":"7280201","kana_pref":"ﾋﾛｼﾏｹﾝ","kana_city":"ﾐﾖｼｼ","kana_address":"ﾌﾉﾁｮｳｶﾐﾌﾉ","pref":"広島県","city":"三次市","address":"布野町上布野"},
{"zip_code":"7280202","kana_pref":"ﾋﾛｼﾏｹﾝ","kana_city":"ﾐﾖｼｼ","kana_address":"ﾌﾉﾁｮｳｼﾓﾌﾉ","pref":"広島県","city":"三次市","address":"布野町下布野"},
{"zip_code":"7280203","kana_pref":"ﾋﾛｼﾏｹﾝ","kana_city":"ﾐﾖｼｼ","kana_address":"ﾌﾉﾁｮｳﾄｺﾞｳﾁ","pref":"広島県","city":"三次市","address":"布野町戸河内"},
{"zip_code":"7280211","kana_pref":"ﾋﾛｼﾏｹﾝ","kana_city":"ﾐﾖｼｼ","kana_address":"ﾌﾉﾁｮｳﾖｺﾀﾆ","pref":"広島県","city":"三次市","address":"布野町横谷"},
{"zip_code":"7280017","kana_pref":"ﾋﾛｼﾏｹﾝ","kana_city":"ﾐﾖｼｼ","kana_address":"ﾐﾅﾐﾊﾀｼﾞｷﾏﾁ","pref":"広島県","city":"三次市","address":"南畑敷町"},
{"zip_code":"7280027","kana_pref":"ﾋﾛｼﾏｹﾝ","kana_city":"ﾐﾖｼｼ","kana_address":"ﾐﾊﾗﾏﾁ","pref":"広島県","city":"三次市","address":"三原町"},
{"zip_code":"7280021","kana_pref":"ﾋﾛｼﾏｹﾝ","kana_city":"ﾐﾖｼｼ","kana_address":"ﾐﾖｼﾏﾁ","pref":"広島県","city":"三次市","address":"三次町"},
{"zip_code":"7280621","kana_pref":"ﾋﾛｼﾏｹﾝ","kana_city":"ﾐﾖｼｼ","kana_address":"ﾐﾜｶﾏﾁ","pref":"広島県","city":"三次市","address":"三若町"},
{"zip_code":"7280001","kana_pref":"ﾋﾛｼﾏｹﾝ","kana_city":"ﾐﾖｼｼ","kana_address":"ﾔﾏｶﾞﾏﾁ","pref":"広島県","city":"三次市","address":"山家町"},
{"zip_code":"7280503","kana_pref":"ﾋﾛｼﾏｹﾝ","kana_city":"ｼｮｳﾊﾞﾗｼ","kana_address":"ｸﾁﾜﾁｮｳｵｵﾂｷ","pref":"広島県","city":"庄原市","address":"口和町大月"},
{"zip_code":"7280504","kana_pref":"ﾋﾛｼﾏｹﾝ","kana_city":"ｼｮｳﾊﾞﾗｼ","kana_address":"ｸﾁﾜﾁｮｳﾀｹﾁﾀﾞﾆ","pref":"広島県","city":"庄原市","address":"口和町竹地谷"},
{"zip_code":"7280501","kana_pref":"ﾋﾛｼﾏｹﾝ","kana_city":"ｼｮｳﾊﾞﾗｼ","kana_address":"ｸﾁﾜﾁｮｳﾐﾔｳﾁ","pref":"広島県","city":"庄原市","address":"口和町宮内"},
{"zip_code":"7280502","kana_pref":"ﾋﾛｼﾏｹﾝ","kana_city":"ｼｮｳﾊﾞﾗｼ","kana_address":"ｸﾁﾜﾁｮｳﾑｺｳｲｽﾞﾐ","pref":"広島県","city":"庄原市","address":"口和町向泉"}]}