{"zip_code":[
{"zip_code":"7300000","kana_pref":"ﾋﾛｼﾏｹﾝ","kana_city":"ﾋﾛｼﾏｼﾅｶｸ","kana_address":"","pref":"広島県","city":"広島市中区","address":""},
{"zip_code":"7300851","kana_pref":"ﾋﾛｼﾏｹﾝ","kana_city":"ﾋﾛｼﾏｼﾅｶｸ","kana_address":"ｴﾉﾏﾁ","pref":"広島県","city":"広島市中区","address":"榎町"},
{"zip_code":"7300837","kana_pref":"ﾋﾛｼﾏｹﾝ","kana_city":"ﾋﾛｼﾏｼﾅｶｸ","kana_address":"ｴﾊﾞｵｷﾏﾁ","pref":"広島県","city":"広島市中区","address":"江波沖町"},
{"zip_code":"7300836","kana_pref":"ﾋﾛｼﾏｹﾝ","kana_city":"ﾋﾛｼﾏｼﾅｶｸ","kana_address":"ｴﾊﾞｻｶｴﾏﾁ","pref":"広島県","city":"広島市中区","address":"江波栄町"},
{"zip_code":"7300834","kana_pref":"ﾋﾛｼﾏｹﾝ","kana_city":"ﾋﾛｼﾏｼﾅｶｸ","kana_address":"ｴﾊﾞﾆﾎﾝﾏﾂ","pref":"広島県","city":"広島市中区","address":"江波二本松"},
{"zip_code":"7300833","kana_pref":"ﾋﾛｼﾏｹﾝ","kana_city":"ﾋﾛｼﾏｼﾅｶｸ","kana_address":"ｴﾊﾞﾎﾝﾏﾁ","pref":"広島県","city":"広島市中区","address":"江波本町"},
{"zip_code":"7300832","kana_pref":"ﾋﾛｼﾏｹﾝ","kana_city":"ﾋﾛｼﾏｼﾅｶｸ","kana_address":"ｴﾊﾞﾋｶﾞｼ","pref":"広島県","city":"広島市中区","address":"江波東"},
{"zip_code":"7300831","kana_pref":"ﾋﾛｼﾏｹﾝ","kana_city":"ﾋﾛｼﾏｼﾅｶｸ","kana_address":"ｴﾊﾞﾆｼ","pref":"広島県","city":"広島市中区","address":"江波西"},
{"zip_code":"7300835","kana_pref":"ﾋﾛｼﾏｹﾝ","kana_city":"ﾋﾛｼﾏｼﾅｶｸ","kana_address":"ｴﾊﾞﾐﾅﾐ","pref":"広島県","city":"広島市中区","address":"江波南"},
{"zip_code":"7300021","kana_pref":"ﾋﾛｼﾏｹﾝ","kana_city":"ﾋﾛｼﾏｼﾅｶｸ","kana_address":"ｴﾋﾞｽﾁｮｳ","pref":"広島県","city":"広島市中区","address":"胡町"},
{"zip_code":"7300051","kana_pref":"ﾋﾛｼﾏｹﾝ","kana_city":"ﾋﾛｼﾏｼﾅｶｸ","kana_address":"ｵｵﾃﾏﾁ","pref":"広島県","city":"広島市中区","address":"大手町"},
{"zip_code":"7300812","kana_pref":"ﾋﾛｼﾏｹﾝ","kana_city":"ﾋﾛｼﾏｼﾅｶｸ","kana_address":"ｶｺﾏﾁ","pref":"広島県","city":"広島市中区","address":"加古町"},
{"zip_code":"7300022","kana_pref":"ﾋﾛｼﾏｹﾝ","kana_city":"ﾋﾛｼﾏｼﾅｶｸ","kana_address":"ｶﾅﾔﾏﾁｮｳ","pref":"広島県","city":"広島市中区","address":"銀山町"},
{"zip_code":"7300014","kana_pref":"ﾋﾛｼﾏｹﾝ","kana_city":"ﾋﾛｼﾏｼﾅｶｸ","kana_address":"ｶﾐﾉﾎﾞﾘﾁｮｳ","pref":"広島県","city":"広島市中区","address":"上幟町"},
{"zip_code":"7300012","kana_pref":"ﾋﾛｼﾏｹﾝ","kana_city":"ﾋﾛｼﾏｼﾅｶｸ","kana_address":"ｶﾐﾊｯﾁｮｳﾎﾞﾘ","pref":"広島県","city":"広島市中区","address":"上八丁堀"},
{"zip_code":"7300031","kana_pref":"ﾋﾛｼﾏｹﾝ","kana_city":"ﾋﾛｼﾏｼﾅｶｸ","kana_address":"ｶﾐﾔﾁｮｳ","pref":"広島県","city":"広島市中区","address":"紙屋町"},
{"zip_code":"7300856","kana_pref":"ﾋﾛｼﾏｹﾝ","kana_city":"ﾋﾛｼﾏｼﾅｶｸ","kana_address":"ｶﾜﾗﾏﾁ","pref":"広島県","city":"広島市中区","address":"河原町"},
{"zip_code":"7300855","kana_pref":"ﾋﾛｼﾏｹﾝ","kana_city":"ﾋﾛｼﾏｼﾅｶｸ","kana_address":"ｺｱﾐﾁｮｳ","pref":"広島県","city":"広島市中区","address":"小網町"},
{"zip_code":"7300825","kana_pref":"ﾋﾛｼﾏｹﾝ","kana_city":"ﾋﾛｼﾏｼﾅｶｸ","kana_address":"ｺｳﾅﾝ","pref":"広島県","city":"広島市中区","address":"光南"},
{"zip_code":"7300042","kana_pref":"ﾋﾛｼﾏｹﾝ","kana_city":"ﾋﾛｼﾏｼﾅｶｸ","kana_address":"ｺｸﾀｲｼﾞﾏﾁ","pref":"広島県","city":"広島市中区","address":"国泰寺町"},
{"zip_code":"7300041","kana_pref":"ﾋﾛｼﾏｹﾝ","kana_city":"ﾋﾛｼﾏｼﾅｶｸ","kana_address":"ｺﾏﾁ","pref":"広島県","city":"広島市中区","address":"小町"},
{"zip_code":"7300853","kana_pref":"ﾋﾛｼﾏｹﾝ","kana_city":"ﾋﾛｼﾏｼﾅｶｸ","kana_address":"ｻｶｲﾏﾁ","pref":"広島県","city":"広島市中区","address":"堺町"},
{"zip_code":"7300046","kana_pref":"ﾋﾛｼﾏｹﾝ","kana_city":"ﾋﾛｼﾏｼﾅｶｸ","kana_address":"ｼｮｳﾜﾏﾁ","pref":"広島県","city":"広島市中区","address":"昭和町"},
{"zip_code":"7300034","kana_pref":"ﾋﾛｼﾏｹﾝ","kana_city":"ﾋﾛｼﾏｼﾅｶｸ","kana_address":"ｼﾝﾃﾝﾁ","pref":"広島県","city":"広島市中区","address":"新天地"},
{"zip_code":"7300813","kana_pref":"ﾋﾛｼﾏｹﾝ","kana_city":"ﾋﾛｼﾏｼﾅｶｸ","kana_address":"ｽﾐﾖｼﾁｮｳ","pref":"広島県","city":"広島市中区","address":"住吉町"},
{"zip_code":"7300052","kana_pref":"ﾋﾛｼﾏｹﾝ","kana_city":"ﾋﾛｼﾏｼﾅｶｸ","kana_address":"ｾﾝﾀﾞﾏﾁ","pref":"広島県","city":"広島市中区","address":"千田町"},
{"zip_code":"7300044","kana_pref":"ﾋﾛｼﾏｹﾝ","kana_city":"ﾋﾛｼﾏｼﾅｶｸ","kana_address":"ﾀｶﾗﾏﾁ","pref":"広島県","city":"広島市中区","address":"宝町"},
{"zip_code":"7300048","kana_pref":"ﾋﾛｼﾏｹﾝ","kana_city":"ﾋﾛｼﾏｼﾅｶｸ","kana_address":"ﾀｹﾔﾁｮｳ","pref":"広島県","city":"広島市中区","address":"竹屋町"},
{"zip_code":"7300032","kana_pref":"ﾋﾛｼﾏｹﾝ","kana_city":"ﾋﾛｼﾏｼﾅｶｸ","kana_address":"ﾀﾃﾏﾁ","pref":"広島県","city":"広島市中区","address":"立町"},
{"zip_code":"7300026","kana_pref":"ﾋﾛｼﾏｹﾝ","kana_city":"ﾋﾛｼﾏｼﾅｶｸ","kana_address":"ﾀﾅｶﾏﾁ","pref":"広島県","city":"広島市中区","address":"田中町"},
{"zip_code":"7300045","kana_pref":"ﾋﾛｼﾏｹﾝ","kana_city":"ﾋﾛｼﾏｼﾅｶｸ","kana_address":"ﾂﾙﾐﾁｮｳ","pref":"広島県","city":"広島市中区","address":"鶴見町"},
{"zip_code":"7300017","kana_pref":"ﾋﾛｼﾏｹﾝ","kana_city":"ﾋﾛｼﾏｼﾅｶｸ","kana_address":"ﾃｯﾎﾟｳﾁｮｳ","pref":"広島県","city":"広島市中区","address":"鉄砲町"},
{"zip_code":"7300801","kana_pref":"ﾋﾛｼﾏｹﾝ","kana_city":"ﾋﾛｼﾏｼﾅｶｸ","kana_address":"ﾃﾗﾏﾁ","pref":"広島県","city":"広島市中区","address":"寺町"},
{"zip_code":"7300805","kana_pref":"ﾋﾛｼﾏｹﾝ","kana_city":"ﾋﾛｼﾏｼﾅｶｸ","kana_address":"ﾄｳｶｲﾁﾏﾁ","pref":"広島県","city":"広島市中区","address":"十日市町"},
{"zip_code":"7300854","kana_pref":"ﾋﾛｼﾏｹﾝ","kana_city":"ﾋﾛｼﾏｼﾅｶｸ","kana_address":"ﾄﾞﾊｼﾁｮｳ","pref":"広島県","city":"広島市中区","address":"土橋町"},
{"zip_code":"7300811","kana_pref":"ﾋﾛｼﾏｹﾝ","kana_city":"ﾋﾛｼﾏｼﾅｶｸ","kana_address":"ﾅｶｼﾞﾏﾁｮｳ","pref":"広島県","city":"広島市中区","address":"中島町"},
{"zip_code":"7300037","kana_pref":"ﾋﾛｼﾏｹﾝ","kana_city":"ﾋﾛｼﾏｼﾅｶｸ","kana_address":"ﾅｶﾏﾁ","pref":"広島県","city":"広島市中区","address":"中町"},
{"zip_code":"7300028","kana_pref":"ﾋﾛｼﾏｹﾝ","kana_city":"ﾋﾛｼﾏｼﾅｶｸ","kana_address":"ﾅｶﾞﾚｶﾜﾁｮｳ","pref":"広島県","city":"広島市中区","address":"流川町"},
{"zip_code":"7300846","kana_pref":"ﾋﾛｼﾏｹﾝ","kana_city":"ﾋﾛｼﾏｼﾅｶｸ","kana_address":"ﾆｼｶﾜｸﾞﾁﾁｮｳ","pref":"広島県","city":"広島市中区","address":"西川口町"},
{"zip_code":"7300806","kana_pref":"ﾋﾛｼﾏｹﾝ","kana_city":"ﾋﾛｼﾏｼﾅｶｸ","kana_address":"ﾆｼﾄｳｶｲﾁﾏﾁ","pref":"広島県","city":"広島市中区","address":"西十日市町"},
{"zip_code":"7300005","kana_pref":"ﾋﾛｼﾏｹﾝ","kana_city":"ﾋﾛｼﾏｼﾅｶｸ","kana_address":"ﾆｼﾊｸｼﾏﾁｮｳ","pref":"広島県","city":"広島市中区","address":"西白島町"},
{"zip_code":"7300024","kana_pref":"ﾋﾛｼﾏｹﾝ","kana_city":"ﾋﾛｼﾏｼﾅｶｸ","kana_address":"ﾆｼﾋﾗﾂｶﾁｮｳ","pref":"広島県","city":"広島市中区","address":"西平塚町"},
{"zip_code":"7300852","kana_pref":"ﾋﾛｼﾏｹﾝ","kana_city":"ﾋﾛｼﾏｼﾅｶｸ","kana_address":"ﾈｺﾔﾁｮｳ","pref":"広島県","city":"広島市中区","address":"猫屋町"},
{"zip_code":"7300016","kana_pref":"ﾋﾛｼﾏｹﾝ","kana_city":"ﾋﾛｼﾏｼﾅｶｸ","kana_address":"ﾉﾎﾞﾘﾁｮｳ","pref":"広島県","city":"広島市中区","address":"幟町"},
{"zip_code":"7300001","kana_pref":"ﾋﾛｼﾏｹﾝ","kana_city":"ﾋﾛｼﾏｼﾅｶｸ","kana_address":"ﾊｸｼﾏｷﾀﾏﾁ","pref":"広島県","city":"広島市中区","address":"白島北町"},
{"zip_code":"7300003","kana_pref":"ﾋﾛｼﾏｹﾝ","kana_city":"ﾋﾛｼﾏｼﾅｶｸ","kana_address":"ﾊｸｼﾏｸｹﾝﾁｮｳ","pref":"広島県","city":"広島市中区","address":"白島九軒町"},
{"zip_code":"7300002","kana_pref":"ﾋﾛｼﾏｹﾝ","kana_city":"ﾋﾛｼﾏｼﾅｶｸ","kana_address":"ﾊｸｼﾏﾅｶﾏﾁ","pref":"広島県","city":"広島市中区","address":"白島中町"},
{"zip_code":"7300814","kana_pref":"ﾋﾛｼﾏｹﾝ","kana_city":"ﾋﾛｼﾏｼﾅｶｸ","kana_address":"ﾊｺﾞﾛﾓﾁｮｳ","pref":"広島県","city":"広島市中区","address":"羽衣町"},
{"zip_code":"7300015","kana_pref":"ﾋﾛｼﾏｹﾝ","kana_city":"ﾋﾛｼﾏｼﾅｶｸ","kana_address":"ﾊｼﾓﾄﾁｮｳ","pref":"広島県","city":"広島市中区","address":"橋本町"},
{"zip_code":"7300013","kana_pref":"ﾋﾛｼﾏｹﾝ","kana_city":"ﾋﾛｼﾏｼﾅｶｸ","kana_address":"ﾊｯﾁｮｳﾎﾞﾘ","pref":"広島県","city":"広島市中区","address":"八丁堀"},
{"zip_code":"7300053","kana_pref":"ﾋﾛｼﾏｹﾝ","kana_city":"ﾋﾛｼﾏｼﾅｶｸ","kana_address":"ﾋｶﾞｼｾﾝﾀﾞﾏﾁ","pref":"広島県","city":"広島市中区","address":"東千田町"},
{"zip_code":"7300004","kana_pref":"ﾋﾛｼﾏｹﾝ","kana_city":"ﾋﾛｼﾏｼﾅｶｸ","kana_address":"ﾋｶﾞｼﾊｸｼﾏﾁｮｳ","pref":"広島県","city":"広島市中区","address":"東白島町"},
{"zip_code":"7300025","kana_pref":"ﾋﾛｼﾏｹﾝ","kana_city":"ﾋﾛｼﾏｼﾅｶｸ","kana_address":"ﾋｶﾞｼﾋﾗﾂｶﾁｮｳ","pref":"広島県","city":"広島市中区","address":"東平塚町"},
{"zip_code":"7300047","kana_pref":"ﾋﾛｼﾏｹﾝ","kana_city":"ﾋﾛｼﾏｼﾅｶｸ","kana_address":"ﾋﾗﾉﾏﾁ","pref":"広島県","city":"広島市中区","address":"平野町"},
{"zip_code":"7300803","kana_pref":"ﾋﾛｼﾏｹﾝ","kana_city":"ﾋﾛｼﾏｼﾅｶｸ","kana_address":"ﾋﾛｾｷﾀﾏﾁ","pref":"広島県","city":"広島市中区","address":"広瀬北町"},
{"zip_code":"7300804","kana_pref":"ﾋﾛｼﾏｹﾝ","kana_city":"ﾋﾛｼﾏｼﾅｶｸ","kana_address":"ﾋﾛｾﾏﾁ","pref":"広島県","city":"広島市中区","address":"広瀬町"},
{"zip_code":"7300036","kana_pref":"ﾋﾛｼﾏｹﾝ","kana_city":"ﾋﾛｼﾏｼﾅｶｸ","kana_address":"ﾌｸﾛﾏﾁ","pref":"広島県","city":"広島市中区","address":"袋町"},
{"zip_code":"7300043","kana_pref":"ﾋﾛｼﾏｹﾝ","kana_city":"ﾋﾛｼﾏｼﾅｶｸ","kana_address":"ﾌｼﾞﾐﾁｮｳ","pref":"広島県","city":"広島市中区","address":"富士見町"},
{"zip_code":"7300845","kana_pref":"ﾋﾛｼﾏｹﾝ","kana_city":"ﾋﾛｼﾏｼﾅｶｸ","kana_address":"ﾌﾅｲﾘｶﾜｸﾞﾁﾁｮｳ","pref":"広島県","city":"広島市中区","address":"舟入川口町"},
{"zip_code":"7300844","kana_pref":"ﾋﾛｼﾏｹﾝ","kana_city":"ﾋﾛｼﾏｼﾅｶｸ","kana_address":"ﾌﾅｲﾘｻｲﾜｲﾁｮｳ","pref":"広島県","city":"広島市中区","address":"舟入幸町"},
{"zip_code":"7300842","kana_pref":"ﾋﾛｼﾏｹﾝ","kana_city":"ﾋﾛｼﾏｼﾅｶｸ","kana_address":"ﾌﾅｲﾘﾅｶﾏﾁ","pref":"広島県","city":"広島市中区","address":"舟入中町"},
{"zip_code":"7300843","kana_pref":"ﾋﾛｼﾏｹﾝ","kana_city":"ﾋﾛｼﾏｼﾅｶｸ","kana_address":"ﾌﾅｲﾘﾎﾝﾏﾁ","pref":"広島県","city":"広島市中区","address":"舟入本町"},
{"zip_code":"7300847","kana_pref":"ﾋﾛｼﾏｹﾝ","kana_city":"ﾋﾛｼﾏｼﾅｶｸ","kana_address":"ﾌﾅｲﾘﾐﾅﾐ","pref":"広島県","city":"広島市中区","address":"舟入南"},
{"zip_code":"7300841","kana_pref":"ﾋﾛｼﾏｹﾝ","kana_city":"ﾋﾛｼﾏｼﾅｶｸ","kana_address":"ﾌﾅｲﾘﾏﾁ","pref":"広島県","city":"広島市中区","address":"舟入町"},
{"zip_code":"7300033","kana_pref":"ﾋﾛｼﾏｹﾝ","kana_city":"ﾋﾛｼﾏｼﾅｶｸ","kana_address":"ﾎﾘｶﾜﾁｮｳ","pref":"広島県","city":"広島市中区","address":"堀川町"},
{"zip_code":"7300802","kana_pref":"ﾋﾛｼﾏｹﾝ","kana_city":"ﾋﾛｼﾏｼﾅｶｸ","kana_address":"ﾎﾝｶﾜﾁｮｳ","pref":"広島県","city":"広島市中区","address":"本川町"},
{"zip_code":"7300035","kana_pref":"ﾋﾛｼﾏｹﾝ","kana_city":"ﾋﾛｼﾏｼﾅｶｸ","kana_address":"ﾎﾝﾄﾞｵﾘ","pref":"広島県","city":"広島市中区","address":"本通"},
{"zip_code":"7300029","kana_pref":"ﾋﾛｼﾏｹﾝ","kana_city":"ﾋﾛｼﾏｼﾅｶｸ","kana_address":"ﾐｶﾜﾁｮｳ","pref":"広島県","city":"広島市中区","address":"三川町"},
{"zip_code":"7300054","kana_pref":"ﾋﾛｼﾏｹﾝ","kana_city":"ﾋﾛｼﾏｼﾅｶｸ","kana_address":"ﾐﾅﾐｾﾝﾀﾞﾋｶﾞｼﾏﾁ","pref":"広島県","city":"広島市中区","address":"南千田東町"},
{"zip_code":"7300055","kana_pref":"ﾋﾛｼﾏｹﾝ","kana_city":"ﾋﾛｼﾏｼﾅｶｸ","kana_address":"ﾐﾅﾐｾﾝﾀﾞﾆｼﾏﾁ","pref":"広島県","city":"広島市中区","address":"南千田西町"},
{"zip_code":"7300049","kana_pref":"ﾋﾛｼﾏｹﾝ","kana_city":"ﾋﾛｼﾏｼﾅｶｸ","kana_address":"ﾐﾅﾐﾀｹﾔﾁｮｳ","pref":"広島県","city":"広島市中区","address":"南竹屋町"},
{"zip_code":"7300826","kana_pref":"ﾋﾛｼﾏｹﾝ","kana_city":"ﾋﾛｼﾏｼﾅｶｸ","kana_address":"ﾐﾅﾐﾖｼｼﾞﾏ","pref":"広島県","city":"広島市中区","address":"南吉島"},
{"zip_code":"7300011","kana_pref":"ﾋﾛｼﾏｹﾝ","kana_city":"ﾋﾛｼﾏｼﾅｶｸ","kana_address":"ﾓﾄﾏﾁ","pref":"広島県","city":"広島市中区","address":"基町"},
{"zip_code":"7300027","kana_pref":"ﾋﾛｼﾏｹﾝ","kana_city":"ﾋﾛｼﾏｼﾅｶｸ","kana_address":"ﾔｹﾞﾝﾎﾞﾘ","pref":"広島県","city":"広島市中区","address":"薬研堀"},
{"zip_code":"7300023","kana_pref":"ﾋﾛｼﾏｹﾝ","kana_city":"ﾋﾛｼﾏｼﾅｶｸ","kana_address":"ﾔﾖｲﾁｮｳ","pref":"広島県","city":"広島市中区","address":"弥生町"},
{"zip_code":"7300824","kana_pref":"ﾋﾛｼﾏｹﾝ","kana_city":"ﾋﾛｼﾏｼﾅｶｸ","kana_address":"ﾖｼｼﾞﾏｼﾝﾏﾁ","pref":"広島県","city":"広島市中区","address":"吉島新町"},
{"zip_code":"7300822","kana_pref":"ﾋﾛｼﾏｹﾝ","kana_city":"ﾋﾛｼﾏｼﾅｶｸ","kana_address":"ﾖｼｼﾞﾏﾋｶﾞｼ","pref":"広島県","city":"広島市中区","address":"吉島東"},
{"zip_code":"7300823","kana_pref":"ﾋﾛｼﾏｹﾝ","kana_city":"ﾋﾛｼﾏｼﾅｶｸ","kana_address":"ﾖｼｼﾞﾏﾆｼ","pref":"広島県","city":"広島市中区","address":"吉島西"},
{"zip_code":"7300821","kana_pref":"ﾋﾛｼﾏｹﾝ","kana_city":"ﾋﾛｼﾏｼﾅｶｸ","kana_address":"ﾖｼｼﾞﾏﾁｮｳ","pref":"広島県","city":"広島市中区","address":"吉島町"}]}