{"zip_code":[
{"zip_code":"7310100","kana_pref":"ﾋﾛｼﾏｹﾝ","kana_city":"ﾋﾛｼﾏｼｱｻﾐﾅﾐｸ","kana_address":"","pref":"広島県","city":"広島市安佐南区","address":""},
{"zip_code":"7310141","kana_pref":"ﾋﾛｼﾏｹﾝ","kana_city":"ﾋﾛｼﾏｼｱｻﾐﾅﾐｸ","kana_address":"ｱｲﾀ","pref":"広島県","city":"広島市安佐南区","address":"相田"},
{"zip_code":"7313166","kana_pref":"ﾋﾛｼﾏｹﾝ","kana_city":"ﾋﾛｼﾏｼｱｻﾐﾅﾐｸ","kana_address":"ｵｵﾂﾞｶﾋｶﾞｼ","pref":"広島県","city":"広島市安佐南区","address":"大塚東"},
{"zip_code":"7313167","kana_pref":"ﾋﾛｼﾏｹﾝ","kana_city":"ﾋﾛｼﾏｼｱｻﾐﾅﾐｸ","kana_address":"ｵｵﾂﾞｶﾆｼ","pref":"広島県","city":"広島市安佐南区","address":"大塚西"},
{"zip_code":"7310126","kana_pref":"ﾋﾛｼﾏｹﾝ","kana_city":"ﾋﾛｼﾏｼｱｻﾐﾅﾐｸ","kana_address":"ｵｵﾏﾁ","pref":"広島県","city":"広島市安佐南区","address":"大町"},
{"zip_code":"7310124","kana_pref":"ﾋﾛｼﾏｹﾝ","kana_city":"ﾋﾛｼﾏｼｱｻﾐﾅﾐｸ","kana_address":"ｵｵﾏﾁﾋｶﾞｼ","pref":"広島県","city":"広島市安佐南区","address":"大町東"},
{"zip_code":"7310125","kana_pref":"ﾋﾛｼﾏｹﾝ","kana_city":"ﾋﾛｼﾏｼｱｻﾐﾅﾐｸ","kana_address":"ｵｵﾏﾁﾆｼ","pref":"広島県","city":"広島市安佐南区","address":"大町西"},
{"zip_code":"7310154","kana_pref":"ﾋﾛｼﾏｹﾝ","kana_city":"ﾋﾛｼﾏｼｱｻﾐﾅﾐｸ","kana_address":"ｶﾐﾔｽ","pref":"広島県","city":"広島市安佐南区","address":"上安"},
{"zip_code":"7310154","kana_pref":"ﾋﾛｼﾏｹﾝ","kana_city":"ﾋﾛｼﾏｼｱｻﾐﾅﾐｸ","kana_address":"ｶﾐﾔｽﾁｮｳ","pref":"広島県","city":"広島市安佐南区","address":"上安町"},
{"zip_code":"7310102","kana_pref":"ﾋﾛｼﾏｹﾝ","kana_city":"ﾋﾛｼﾏｼｱｻﾐﾅﾐｸ","kana_address":"ｶﾜｳﾁ","pref":"広島県","city":"広島市安佐南区","address":"川内"},
{"zip_code":"7310138","kana_pref":"ﾋﾛｼﾏｹﾝ","kana_city":"ﾋﾛｼﾏｼｱｻﾐﾅﾐｸ","kana_address":"ｷﾞｵﾝ","pref":"広島県","city":"広島市安佐南区","address":"祇園"},
{"zip_code":"7310142","kana_pref":"ﾋﾛｼﾏｹﾝ","kana_city":"ﾋﾛｼﾏｼｱｻﾐﾅﾐｸ","kana_address":"ﾀｶﾄﾘﾐﾅﾐ","pref":"広島県","city":"広島市安佐南区","address":"高取南"},
{"zip_code":"7310142","kana_pref":"ﾋﾛｼﾏｹﾝ","kana_city":"ﾋﾛｼﾏｼｱｻﾐﾅﾐｸ","kana_address":"ﾀｶﾄﾘﾐﾅﾐﾏﾁ","pref":"広島県","city":"広島市安佐南区","address":"高取南町"},
{"zip_code":"7310144","kana_pref":"ﾋﾛｼﾏｹﾝ","kana_city":"ﾋﾛｼﾏｼｱｻﾐﾅﾐｸ","kana_address":"ﾀｶﾄﾘｷﾀ","pref":"広島県","city":"広島市安佐南区","address":"高取北"},
{"zip_code":"7310143","kana_pref":"ﾋﾛｼﾏｹﾝ","kana_city":"ﾋﾛｼﾏｼｱｻﾐﾅﾐｸ","kana_address":"ﾁｮｳﾗｸｼﾞ","pref":"広島県","city":"広島市安佐南区","address":"長楽寺"},
{"zip_code":"7310143","kana_pref":"ﾋﾛｼﾏｹﾝ","kana_city":"ﾋﾛｼﾏｼｱｻﾐﾅﾐｸ","kana_address":"ﾁｮｳﾗｸｼﾞﾁｮｳ","pref":"広島県","city":"広島市安佐南区","address":"長楽寺町"},
{"zip_code":"7313163","kana_pref":"ﾋﾛｼﾏｹﾝ","kana_city":"ﾋﾛｼﾏｼｱｻﾐﾅﾐｸ","kana_address":"ﾄﾓｷﾀ","pref":"広島県","city":"広島市安佐南区","address":"伴北"},
{"zip_code":"7313169","kana_pref":"ﾋﾛｼﾏｹﾝ","kana_city":"ﾋﾛｼﾏｼｱｻﾐﾅﾐｸ","kana_address":"ﾄﾓﾆｼ","pref":"広島県","city":"広島市安佐南区","address":"伴西"},
{"zip_code":"7313164","kana_pref":"ﾋﾛｼﾏｹﾝ","kana_city":"ﾋﾛｼﾏｼｱｻﾐﾅﾐｸ","kana_address":"ﾄﾓﾋｶﾞｼ","pref":"広島県","city":"広島市安佐南区","address":"伴東"},
{"zip_code":"7313168","kana_pref":"ﾋﾛｼﾏｹﾝ","kana_city":"ﾋﾛｼﾏｼｱｻﾐﾅﾐｸ","kana_address":"ﾄﾓﾐﾅﾐ","pref":"広島県","city":"広島市安佐南区","address":"伴南"},
{"zip_code":"7310121","kana_pref":"ﾋﾛｼﾏｹﾝ","kana_city":"ﾋﾛｼﾏｼｱｻﾐﾅﾐｸ","kana_address":"ﾅｶｽ","pref":"広島県","city":"広島市安佐南区","address":"中須"},
{"zip_code":"7310122","kana_pref":"ﾋﾛｼﾏｹﾝ","kana_city":"ﾋﾛｼﾏｼｱｻﾐﾅﾐｸ","kana_address":"ﾅｶｽｼﾞ","pref":"広島県","city":"広島市安佐南区","address":"中筋"},
{"zip_code":"7310135","kana_pref":"ﾋﾛｼﾏｹﾝ","kana_city":"ﾋﾛｼﾏｼｱｻﾐﾅﾐｸ","kana_address":"ﾅｶﾞﾂｶ","pref":"広島県","city":"広島市安佐南区","address":"長束"},
{"zip_code":"7310136","kana_pref":"ﾋﾛｼﾏｹﾝ","kana_city":"ﾋﾛｼﾏｼｱｻﾐﾅﾐｸ","kana_address":"ﾅｶﾞﾂｶﾆｼ","pref":"広島県","city":"広島市安佐南区","address":"長束西"},
{"zip_code":"7310113","kana_pref":"ﾋﾛｼﾏｹﾝ","kana_city":"ﾋﾛｼﾏｼｱｻﾐﾅﾐｸ","kana_address":"ﾆｼﾊﾗ","pref":"広島県","city":"広島市安佐南区","address":"西原"},
{"zip_code":"7313271","kana_pref":"ﾋﾛｼﾏｹﾝ","kana_city":"ﾋﾛｼﾏｼｱｻﾐﾅﾐｸ","kana_address":"ﾇﾏﾀﾁｮｳｱﾄ","pref":"広島県","city":"広島市安佐南区","address":"沼田町阿戸"},
{"zip_code":"7313162","kana_pref":"ﾋﾛｼﾏｹﾝ","kana_city":"ﾋﾛｼﾏｼｱｻﾐﾅﾐｸ","kana_address":"ﾇﾏﾀﾁｮｳｵｵﾂｶ","pref":"広島県","city":"広島市安佐南区","address":"沼田町大塚"},
{"zip_code":"7313161","kana_pref":"ﾋﾛｼﾏｹﾝ","kana_city":"ﾋﾛｼﾏｼｱｻﾐﾅﾐｸ","kana_address":"ﾇﾏﾀﾁｮｳﾄﾓ","pref":"広島県","city":"広島市安佐南区","address":"沼田町伴"},
{"zip_code":"7313272","kana_pref":"ﾋﾛｼﾏｹﾝ","kana_city":"ﾋﾛｼﾏｼｱｻﾐﾅﾐｸ","kana_address":"ﾇﾏﾀﾁｮｳﾖｼﾔﾏ","pref":"広島県","city":"広島市安佐南区","address":"沼田町吉山"},
{"zip_code":"7310111","kana_pref":"ﾋﾛｼﾏｹﾝ","kana_city":"ﾋﾛｼﾏｼｱｻﾐﾅﾐｸ","kana_address":"ﾋｶﾞｼﾉ","pref":"広島県","city":"広島市安佐南区","address":"東野"},
{"zip_code":"7310112","kana_pref":"ﾋﾛｼﾏｹﾝ","kana_city":"ﾋﾛｼﾏｼｱｻﾐﾅﾐｸ","kana_address":"ﾋｶﾞｼﾊﾗ","pref":"広島県","city":"広島市安佐南区","address":"東原"},
{"zip_code":"7310152","kana_pref":"ﾋﾛｼﾏｹﾝ","kana_city":"ﾋﾛｼﾏｼｱｻﾐﾅﾐｸ","kana_address":"ﾋﾞｼｬﾓﾝﾀﾞｲ","pref":"広島県","city":"広島市安佐南区","address":"毘沙門台"},
{"zip_code":"7310151","kana_pref":"ﾋﾛｼﾏｹﾝ","kana_city":"ﾋﾛｼﾏｼｱｻﾐﾅﾐｸ","kana_address":"ﾋﾞｼｬﾓﾝﾀﾞｲﾋｶﾞｼ","pref":"広島県","city":"広島市安佐南区","address":"毘沙門台東"},
{"zip_code":"7310123","kana_pref":"ﾋﾛｼﾏｹﾝ","kana_city":"ﾋﾛｼﾏｼｱｻﾐﾅﾐｸ","kana_address":"ﾌﾙｲﾁ","pref":"広島県","city":"広島市安佐南区","address":"古市"},
{"zip_code":"7310103","kana_pref":"ﾋﾛｼﾏｹﾝ","kana_city":"ﾋﾛｼﾏｼｱｻﾐﾅﾐｸ","kana_address":"ﾐﾄﾞﾘｲ","pref":"広島県","city":"広島市安佐南区","address":"緑井"},
{"zip_code":"7310101","kana_pref":"ﾋﾛｼﾏｹﾝ","kana_city":"ﾋﾛｼﾏｼｱｻﾐﾅﾐｸ","kana_address":"ﾔｷﾞ","pref":"広島県","city":"広島市安佐南区","address":"八木"},
{"zip_code":"7310101","kana_pref":"ﾋﾛｼﾏｹﾝ","kana_city":"ﾋﾛｼﾏｼｱｻﾐﾅﾐｸ","kana_address":"ﾔｷﾞﾁｮｳ","pref":"広島県","city":"広島市安佐南区","address":"八木町"},
{"zip_code":"7310153","kana_pref":"ﾋﾛｼﾏｹﾝ","kana_city":"ﾋﾛｼﾏｼｱｻﾐﾅﾐｸ","kana_address":"ﾔｽﾋｶﾞｼ","pref":"広島県","city":"広島市安佐南区","address":"安東"},
{"zip_code":"7310137","kana_pref":"ﾋﾛｼﾏｹﾝ","kana_city":"ﾋﾛｼﾏｼｱｻﾐﾅﾐｸ","kana_address":"ﾔﾏﾓﾄ","pref":"広島県","city":"広島市安佐南区","address":"山本"},
{"zip_code":"7310139","kana_pref":"ﾋﾛｼﾏｹﾝ","kana_city":"ﾋﾛｼﾏｼｱｻﾐﾅﾐｸ","kana_address":"ﾔﾏﾓﾄｼﾝﾏﾁ","pref":"広島県","city":"広島市安佐南区","address":"山本新町"},
{"zip_code":"7310137","kana_pref":"ﾋﾛｼﾏｹﾝ","kana_city":"ﾋﾛｼﾏｼｱｻﾐﾅﾐｸ","kana_address":"ﾔﾏﾓﾄﾁｮｳ","pref":"広島県","city":"広島市安佐南区","address":"山本町"},
{"zip_code":"7311142","kana_pref":"ﾋﾛｼﾏｹﾝ","kana_city":"ﾋﾛｼﾏｼｱｻｷﾀｸ","kana_address":"ｱｻﾁｮｳｲﾑﾛ","pref":"広島県","city":"広島市安佐北区","address":"安佐町飯室"},
{"zip_code":"7313352","kana_pref":"ﾋﾛｼﾏｹﾝ","kana_city":"ﾋﾛｼﾏｼｱｻｷﾀｸ","kana_address":"ｱｻﾁｮｳｳｼﾛﾔﾏ","pref":"広島県","city":"広島市安佐北区","address":"安佐町後山"},
{"zip_code":"7311171","kana_pref":"ﾋﾛｼﾏｹﾝ","kana_city":"ﾋﾛｼﾏｼｱｻｷﾀｸ","kana_address":"ｱｻﾁｮｳｵｶﾞｳﾁ","pref":"広島県","city":"広島市安佐北区","address":"安佐町小河内"},
{"zip_code":"7313363","kana_pref":"ﾋﾛｼﾏｹﾝ","kana_city":"ﾋﾛｼﾏｼｱｻｷﾀｸ","kana_address":"ｱｻﾁｮｳｸｽﾉｷﾀﾞｲ","pref":"広島県","city":"広島市安佐北区","address":"安佐町くすの木台"},
{"zip_code":"7313362","kana_pref":"ﾋﾛｼﾏｹﾝ","kana_city":"ﾋﾛｼﾏｼｱｻｷﾀｸ","kana_address":"ｱｻﾁｮｳｸﾁ","pref":"広島県","city":"広島市安佐北区","address":"安佐町久地"},
{"zip_code":"7313351","kana_pref":"ﾋﾛｼﾏｹﾝ","kana_city":"ﾋﾛｼﾏｼｱｻｷﾀｸ","kana_address":"ｱｻﾁｮｳｹｷﾞ","pref":"広島県","city":"広島市安佐北区","address":"安佐町毛木"},
{"zip_code":"7311141","kana_pref":"ﾋﾛｼﾏｹﾝ","kana_city":"ﾋﾛｼﾏｼｱｻｷﾀｸ","kana_address":"ｱｻﾁｮｳｽｽﾞﾊﾘ","pref":"広島県","city":"広島市安佐北区","address":"安佐町鈴張"},
{"zip_code":"7313354","kana_pref":"ﾋﾛｼﾏｹﾝ","kana_city":"ﾋﾛｼﾏｼｱｻｷﾀｸ","kana_address":"ｱｻﾁｮｳﾂﾂｾ","pref":"広島県","city":"広島市安佐北区","address":"安佐町筒瀬"},
{"zip_code":"7313355","kana_pref":"ﾋﾛｼﾏｹﾝ","kana_city":"ﾋﾛｼﾏｼｱｻｷﾀｸ","kana_address":"ｱｻﾁｮｳﾄﾞｳﾌﾞﾂｴﾝ","pref":"広島県","city":"広島市安佐北区","address":"安佐町動物園"},
{"zip_code":"7313353","kana_pref":"ﾋﾛｼﾏｹﾝ","kana_city":"ﾋﾛｼﾏｼｱｻｷﾀｸ","kana_address":"ｱｻﾁｮｳﾐﾔﾉ","pref":"広島県","city":"広島市安佐北区","address":"安佐町宮野"},
{"zip_code":"7313361","kana_pref":"ﾋﾛｼﾏｹﾝ","kana_city":"ﾋﾛｼﾏｼｱｻｷﾀｸ","kana_address":"ｱｻﾋｶﾞｵｶ","pref":"広島県","city":"広島市安佐北区","address":"あさひが丘"},
{"zip_code":"7310201","kana_pref":"ﾋﾛｼﾏｹﾝ","kana_city":"ﾋﾛｼﾏｼｱｻｷﾀｸ","kana_address":"ｵｵﾊﾞﾔｼ","pref":"広島県","city":"広島市安佐北区","address":"大林"},
{"zip_code":"7310202","kana_pref":"ﾋﾛｼﾏｹﾝ","kana_city":"ﾋﾛｼﾏｼｱｻｷﾀｸ","kana_address":"ｵｵﾊﾞﾔｼﾁｮｳ","pref":"広島県","city":"広島市安佐北区","address":"大林町"},
{"zip_code":"7310221","kana_pref":"ﾋﾛｼﾏｹﾝ","kana_city":"ﾋﾛｼﾏｼｱｻｷﾀｸ","kana_address":"ｶﾍﾞ","pref":"広島県","city":"広島市安佐北区","address":"可部"},
{"zip_code":"7310236","kana_pref":"ﾋﾛｼﾏｹﾝ","kana_city":"ﾋﾛｼﾏｼｱｻｷﾀｸ","kana_address":"ｶﾍﾞﾁｮｳｱﾔｶﾞﾀﾆ","pref":"広島県","city":"広島市安佐北区","address":"可部町綾ケ谷"},
{"zip_code":"7310234","kana_pref":"ﾋﾛｼﾏｹﾝ","kana_city":"ﾋﾛｼﾏｼｱｻｷﾀｸ","kana_address":"ｶﾍﾞﾁｮｳｲﾏｲﾀﾞ","pref":"広島県","city":"広島市安佐北区","address":"可部町今井田"},
{"zip_code":"7310225","kana_pref":"ﾋﾛｼﾏｹﾝ","kana_city":"ﾋﾛｼﾏｼｱｻｷﾀｸ","kana_address":"ｶﾍﾞﾁｮｳｳｴﾊﾞﾗ","pref":"広島県","city":"広島市安佐北区","address":"可部町上原"},
{"zip_code":"7310235","kana_pref":"ﾋﾛｼﾏｹﾝ","kana_city":"ﾋﾛｼﾏｼｱｻｷﾀｸ","kana_address":"ｶﾍﾞﾁｮｳｶﾂｷﾞ","pref":"広島県","city":"広島市安佐北区","address":"可部町勝木"},
{"zip_code":"7310216","kana_pref":"ﾋﾛｼﾏｹﾝ","kana_city":"ﾋﾛｼﾏｼｱｻｷﾀｸ","kana_address":"ｶﾍﾞﾁｮｳｶﾐﾏﾁﾔ","pref":"広島県","city":"広島市安佐北区","address":"可部町上町屋"},
{"zip_code":"7310217","kana_pref":"ﾋﾛｼﾏｹﾝ","kana_city":"ﾋﾛｼﾏｼｱｻｷﾀｸ","kana_address":"ｶﾍﾞﾁｮｳｼﾓﾏﾁﾔ","pref":"広島県","city":"広島市安佐北区","address":"可部町下町屋"},
{"zip_code":"7310214","kana_pref":"ﾋﾛｼﾏｹﾝ","kana_city":"ﾋﾛｼﾏｼｱｻｷﾀｸ","kana_address":"ｶﾍﾞﾁｮｳﾄｹﾞ","pref":"広島県","city":"広島市安佐北区","address":"可部町桐原"},
{"zip_code":"7310224","kana_pref":"ﾋﾛｼﾏｹﾝ","kana_city":"ﾋﾛｼﾏｼｱｻｷﾀｸ","kana_address":"ｶﾍﾞﾁｮｳﾅｶｼﾏ","pref":"広島県","city":"広島市安佐北区","address":"可部町中島"},
{"zip_code":"7310215","kana_pref":"ﾋﾛｼﾏｹﾝ","kana_city":"ﾋﾛｼﾏｼｱｻｷﾀｸ","kana_address":"ｶﾍﾞﾁｮｳﾅﾊﾞﾗ","pref":"広島県","city":"広島市安佐北区","address":"可部町南原"},
{"zip_code":"7310222","kana_pref":"ﾋﾛｼﾏｹﾝ","kana_city":"ﾋﾛｼﾏｼｱｻｷﾀｸ","kana_address":"ｶﾍﾞﾋｶﾞｼ","pref":"広島県","city":"広島市安佐北区","address":"可部東"},
{"zip_code":"7310223","kana_pref":"ﾋﾛｼﾏｹﾝ","kana_city":"ﾋﾛｼﾏｼｱｻｷﾀｸ","kana_address":"ｶﾍﾞﾐﾅﾐ","pref":"広島県","city":"広島市安佐北区","address":"可部南"},
{"zip_code":"7310231","kana_pref":"ﾋﾛｼﾏｹﾝ","kana_city":"ﾋﾛｼﾏｼｱｻｷﾀｸ","kana_address":"ｶﾒﾔﾏ","pref":"広島県","city":"広島市安佐北区","address":"亀山"},
{"zip_code":"7310233","kana_pref":"ﾋﾛｼﾏｹﾝ","kana_city":"ﾋﾛｼﾏｼｱｻｷﾀｸ","kana_address":"ｶﾒﾔﾏﾆｼ","pref":"広島県","city":"広島市安佐北区","address":"亀山西"},
{"zip_code":"7310232","kana_pref":"ﾋﾛｼﾏｹﾝ","kana_city":"ﾋﾛｼﾏｼｱｻｷﾀｸ","kana_address":"ｶﾒﾔﾏﾐﾅﾐ","pref":"広島県","city":"広島市安佐北区","address":"亀山南"},
{"zip_code":"7310211","kana_pref":"ﾋﾛｼﾏｹﾝ","kana_city":"ﾋﾛｼﾏｼｱｻｷﾀｸ","kana_address":"ﾐｲﾘ","pref":"広島県","city":"広島市安佐北区","address":"三入"},
{"zip_code":"7310212","kana_pref":"ﾋﾛｼﾏｹﾝ","kana_city":"ﾋﾛｼﾏｼｱｻｷﾀｸ","kana_address":"ﾐｲﾘﾋｶﾞｼ","pref":"広島県","city":"広島市安佐北区","address":"三入東"},
{"zip_code":"7310213","kana_pref":"ﾋﾛｼﾏｹﾝ","kana_city":"ﾋﾛｼﾏｼｱｻｷﾀｸ","kana_address":"ﾐｲﾘﾐﾅﾐ","pref":"広島県","city":"広島市安佐北区","address":"三入南"},
{"zip_code":"7314231","kana_pref":"ﾋﾛｼﾏｹﾝ","kana_city":"ﾋﾛｼﾏｼｱｷｸ","kana_address":"ｱﾄﾁｮｳ","pref":"広島県","city":"広島市安芸区","address":"阿戸町"},
{"zip_code":"7315100","kana_pref":"ﾋﾛｼﾏｹﾝ","kana_city":"ﾋﾛｼﾏｼｻｴｷｸ","kana_address":"","pref":"広島県","city":"広島市佐伯区","address":""},
{"zip_code":"7315133","kana_pref":"ﾋﾛｼﾏｹﾝ","kana_city":"ﾋﾛｼﾏｼｻｴｷｸ","kana_address":"ｱｻﾋｴﾝ","pref":"広島県","city":"広島市佐伯区","address":"旭園"},
{"zip_code":"7315107","kana_pref":"ﾋﾛｼﾏｹﾝ","kana_city":"ﾋﾛｼﾏｼｻｴｷｸ","kana_address":"ｲｼｳﾁｶﾐ","pref":"広島県","city":"広島市佐伯区","address":"石内上"},
{"zip_code":"7315109","kana_pref":"ﾋﾛｼﾏｹﾝ","kana_city":"ﾋﾛｼﾏｼｻｴｷｸ","kana_address":"ｲｼｳﾁｷﾀ","pref":"広島県","city":"広島市佐伯区","address":"石内北"},
{"zip_code":"7315108","kana_pref":"ﾋﾛｼﾏｹﾝ","kana_city":"ﾋﾛｼﾏｼｻｴｷｸ","kana_address":"ｲｼｳﾁﾐﾅﾐ","pref":"広島県","city":"広島市佐伯区","address":"石内南"},
{"zip_code":"7315127","kana_pref":"ﾋﾛｼﾏｹﾝ","kana_city":"ﾋﾛｼﾏｼｻｴｷｸ","kana_address":"ｲﾂｶｲﾁ","pref":"広島県","city":"広島市佐伯区","address":"五日市"},
{"zip_code":"7315125","kana_pref":"ﾋﾛｼﾏｹﾝ","kana_city":"ﾋﾛｼﾏｼｻｴｷｸ","kana_address":"ｲﾂｶｲﾁｴｷﾏｴ","pref":"広島県","city":"広島市佐伯区","address":"五日市駅前"},
{"zip_code":"7315161","kana_pref":"ﾋﾛｼﾏｹﾝ","kana_city":"ﾋﾛｼﾏｼｻｴｷｸ","kana_address":"ｲﾂｶｲﾁｺｳ","pref":"広島県","city":"広島市佐伯区","address":"五日市港"},
{"zip_code":"7315128","kana_pref":"ﾋﾛｼﾏｹﾝ","kana_city":"ﾋﾛｼﾏｼｻｴｷｸ","kana_address":"ｲﾂｶｲﾁﾁｭｳｵｳ","pref":"広島県","city":"広島市佐伯区","address":"五日市中央"},
{"zip_code":"7315102","kana_pref":"ﾋﾛｼﾏｹﾝ","kana_city":"ﾋﾛｼﾏｼｻｴｷｸ","kana_address":"ｲﾂｶｲﾁﾁｮｳｲｼｳﾁ","pref":"広島県","city":"広島市佐伯区","address":"五日市町石内"},
{"zip_code":"7315104","kana_pref":"ﾋﾛｼﾏｹﾝ","kana_city":"ﾋﾛｼﾏｼｻｴｷｸ","kana_address":"ｲﾂｶｲﾁﾁｮｳｶﾐｺﾌﾞｶﾜ","pref":"広島県","city":"広島市佐伯区","address":"五日市町上小深川"},
{"zip_code":"7315105","kana_pref":"ﾋﾛｼﾏｹﾝ","kana_city":"ﾋﾛｼﾏｼｻｴｷｸ","kana_address":"ｲﾂｶｲﾁﾁｮｳｼﾓｺﾌﾞｶﾜ","pref":"広島県","city":"広島市佐伯区","address":"五日市町下小深川"},
{"zip_code":"7315151","kana_pref":"ﾋﾛｼﾏｹﾝ","kana_city":"ﾋﾛｼﾏｼｻｴｷｸ","kana_address":"ｲﾂｶｲﾁﾁｮｳｶﾐｺﾞｳﾁ","pref":"広島県","city":"広島市佐伯区","address":"五日市町上河内"},
{"zip_code":"7315152","kana_pref":"ﾋﾛｼﾏｹﾝ","kana_city":"ﾋﾛｼﾏｼｻｴｷｸ","kana_address":"ｲﾂｶｲﾁﾁｮｳｼﾓｺﾞｳﾁ","pref":"広島県","city":"広島市佐伯区","address":"五日市町下河内"},
{"zip_code":"7315123","kana_pref":"ﾋﾛｼﾏｹﾝ","kana_city":"ﾋﾛｼﾏｼｻｴｷｸ","kana_address":"ｲﾂｶｲﾁﾁｮｳｼｮｳﾜﾀﾞｲ","pref":"広島県","city":"広島市佐伯区","address":"五日市町昭和台"},
{"zip_code":"7315116","kana_pref":"ﾋﾛｼﾏｹﾝ","kana_city":"ﾋﾛｼﾏｼｻｴｷｸ","kana_address":"ｲﾂｶｲﾁﾁｮｳﾃﾗﾀﾞ","pref":"広島県","city":"広島市佐伯区","address":"五日市町寺田"},
{"zip_code":"7315115","kana_pref":"ﾋﾛｼﾏｹﾝ","kana_city":"ﾋﾛｼﾏｼｻｴｷｸ","kana_address":"ｲﾂｶｲﾁﾁｮｳﾅｶｼﾞ","pref":"広島県","city":"広島市佐伯区","address":"五日市町中地"},
{"zip_code":"7315121","kana_pref":"ﾋﾛｼﾏｹﾝ","kana_city":"ﾋﾛｼﾏｼｻｴｷｸ","kana_address":"ｲﾂｶｲﾁﾁｮｳﾐｽｽﾞｴﾝ","pref":"広島県","city":"広島市佐伯区","address":"五日市町美鈴園"},
{"zip_code":"7315122","kana_pref":"ﾋﾛｼﾏｹﾝ","kana_city":"ﾋﾛｼﾏｼｻｴｷｸ","kana_address":"ｲﾂｶｲﾁﾁｮｳﾐﾅｶﾞ","pref":"広島県","city":"広島市佐伯区","address":"五日市町皆賀"},
{"zip_code":"7315135","kana_pref":"ﾋﾛｼﾏｹﾝ","kana_city":"ﾋﾛｼﾏｼｻｴｷｸ","kana_address":"ｶｲﾛｳｴﾝ","pref":"広島県","city":"広島市佐伯区","address":"海老園"},
{"zip_code":"7315134","kana_pref":"ﾋﾛｼﾏｹﾝ","kana_city":"ﾋﾛｼﾏｼｻｴｷｸ","kana_address":"ｶｲﾛｳﾔﾏﾁｮｳ","pref":"広島県","city":"広島市佐伯区","address":"海老山町"},
{"zip_code":"7315138","kana_pref":"ﾋﾛｼﾏｹﾝ","kana_city":"ﾋﾛｼﾏｼｻｴｷｸ","kana_address":"ｶｲﾛｳﾔﾏﾐﾅﾐ","pref":"広島県","city":"広島市佐伯区","address":"海老山南"},
{"zip_code":"7315157","kana_pref":"ﾋﾛｼﾏｹﾝ","kana_city":"ﾋﾛｼﾏｼｻｴｷｸ","kana_address":"ｶﾝﾉﾝﾀﾞｲ","pref":"広島県","city":"広島市佐伯区","address":"観音台"},
{"zip_code":"7315156","kana_pref":"ﾋﾛｼﾏｹﾝ","kana_city":"ﾋﾛｼﾏｼｻｴｷｸ","kana_address":"ｸﾗｼｹﾞ","pref":"広島県","city":"広島市佐伯区","address":"倉重"},
{"zip_code":"7315153","kana_pref":"ﾋﾛｼﾏｹﾝ","kana_city":"ﾋﾛｼﾏｼｻｴｷｸ","kana_address":"ｺｳﾁﾐﾅﾐ","pref":"広島県","city":"広島市佐伯区","address":"河内南"},
{"zip_code":"7315101","kana_pref":"ﾋﾛｼﾏｹﾝ","kana_city":"ﾋﾛｼﾏｼｻｴｷｸ","kana_address":"ｻﾂｷｶﾞｵｶ","pref":"広島県","city":"広島市佐伯区","address":"五月が丘"},
{"zip_code":"7315155","kana_pref":"ﾋﾛｼﾏｹﾝ","kana_city":"ﾋﾛｼﾏｼｻｴｷｸ","kana_address":"ｼﾞｮｳﾔﾏ","pref":"広島県","city":"広島市佐伯区","address":"城山"},
{"zip_code":"7315126","kana_pref":"ﾋﾛｼﾏｹﾝ","kana_city":"ﾋﾛｼﾏｼｻｴｷｸ","kana_address":"ｼﾝｸﾞｳｴﾝ","pref":"広島県","city":"広島市佐伯区","address":"新宮苑"},
{"zip_code":"7315145","kana_pref":"ﾋﾛｼﾏｹﾝ","kana_city":"ﾋﾛｼﾏｼｻｴｷｸ","kana_address":"ｽﾐﾉﾊﾏ","pref":"広島県","city":"広島市佐伯区","address":"隅の浜"},
{"zip_code":"7315141","kana_pref":"ﾋﾛｼﾏｹﾝ","kana_city":"ﾋﾛｼﾏｼｻｴｷｸ","kana_address":"ｾﾝﾄﾞｳ","pref":"広島県","city":"広島市佐伯区","address":"千同"},
{"zip_code":"7315142","kana_pref":"ﾋﾛｼﾏｹﾝ","kana_city":"ﾋﾛｼﾏｼｻｴｷｸ","kana_address":"ﾂﾎﾞｲ","pref":"広島県","city":"広島市佐伯区","address":"坪井"},
{"zip_code":"7315142","kana_pref":"ﾋﾛｼﾏｹﾝ","kana_city":"ﾋﾛｼﾏｼｻｴｷｸ","kana_address":"ﾂﾎﾞｲﾁｮｳ","pref":"広島県","city":"広島市佐伯区","address":"坪井町"},
{"zip_code":"7315131","kana_pref":"ﾋﾛｼﾏｹﾝ","kana_city":"ﾋﾛｼﾏｼｻｴｷｸ","kana_address":"ﾄｳｽｲｴﾝ","pref":"広島県","city":"広島市佐伯区","address":"藤垂園"},
{"zip_code":"7315106","kana_pref":"ﾋﾛｼﾏｹﾝ","kana_city":"ﾋﾛｼﾏｼｻｴｷｸ","kana_address":"ﾄｼﾏﾂ","pref":"広島県","city":"広島市佐伯区","address":"利松"},
{"zip_code":"7315103","kana_pref":"ﾋﾛｼﾏｹﾝ","kana_city":"ﾋﾛｼﾏｼｻｴｷｸ","kana_address":"ﾌｼﾞﾉｷ","pref":"広島県","city":"広島市佐伯区","address":"藤の木"},
{"zip_code":"7315144","kana_pref":"ﾋﾛｼﾏｹﾝ","kana_city":"ﾋﾛｼﾏｼｻｴｷｸ","kana_address":"ﾐｽｼﾞ","pref":"広島県","city":"広島市佐伯区","address":"三筋"},
{"zip_code":"7315113","kana_pref":"ﾋﾛｼﾏｹﾝ","kana_city":"ﾋﾛｼﾏｼｻｴｷｸ","kana_address":"ﾐｽｽﾞｶﾞｵｶﾐﾄﾞﾘ","pref":"広島県","city":"広島市佐伯区","address":"美鈴が丘緑"},
{"zip_code":"7315111","kana_pref":"ﾋﾛｼﾏｹﾝ","kana_city":"ﾋﾛｼﾏｼｻｴｷｸ","kana_address":"ﾐｽｽﾞｶﾞｵｶﾋｶﾞｼ","pref":"広島県","city":"広島市佐伯区","address":"美鈴が丘東"},
{"zip_code":"7315114","kana_pref":"ﾋﾛｼﾏｹﾝ","kana_city":"ﾋﾛｼﾏｼｻｴｷｸ","kana_address":"ﾐｽｽﾞｶﾞｵｶﾆｼ","pref":"広島県","city":"広島市佐伯区","address":"美鈴が丘西"},
{"zip_code":"7315112","kana_pref":"ﾋﾛｼﾏｹﾝ","kana_city":"ﾋﾛｼﾏｼｻｴｷｸ","kana_address":"ﾐｽｽﾞｶﾞｵｶﾐﾅﾐ","pref":"広島県","city":"広島市佐伯区","address":"美鈴が丘南"},
{"zip_code":"7315124","kana_pref":"ﾋﾛｼﾏｹﾝ","kana_city":"ﾋﾛｼﾏｼｻｴｷｸ","kana_address":"ﾐﾅｶﾞ","pref":"広島県","city":"広島市佐伯区","address":"皆賀"},
{"zip_code":"7315137","kana_pref":"ﾋﾛｼﾏｹﾝ","kana_city":"ﾋﾛｼﾏｼｻｴｷｸ","kana_address":"ﾐﾉﾘ","pref":"広島県","city":"広島市佐伯区","address":"美の里"},
{"zip_code":"7315143","kana_pref":"ﾋﾛｼﾏｹﾝ","kana_city":"ﾋﾛｼﾏｼｻｴｷｸ","kana_address":"ﾐﾔｹ","pref":"広島県","city":"広島市佐伯区","address":"三宅"},
{"zip_code":"7315143","kana_pref":"ﾋﾛｼﾏｹﾝ","kana_city":"ﾋﾛｼﾏｼｻｴｷｸ","kana_address":"ﾐﾔｹﾁｮｳ","pref":"広島県","city":"広島市佐伯区","address":"三宅町"},
{"zip_code":"7315154","kana_pref":"ﾋﾛｼﾏｹﾝ","kana_city":"ﾋﾛｼﾏｼｻｴｷｸ","kana_address":"ﾔｸｼｶﾞｵｶ","pref":"広島県","city":"広島市佐伯区","address":"薬師が丘"},
{"zip_code":"7315146","kana_pref":"ﾋﾛｼﾏｹﾝ","kana_city":"ﾋﾛｼﾏｼｻｴｷｸ","kana_address":"ﾔｼﾛ","pref":"広島県","city":"広島市佐伯区","address":"屋代"},
{"zip_code":"7315147","kana_pref":"ﾋﾛｼﾏｹﾝ","kana_city":"ﾋﾛｼﾏｼｻｴｷｸ","kana_address":"ﾔｼﾛﾁｮｳ","pref":"広島県","city":"広島市佐伯区","address":"屋代町"},
{"zip_code":"7315116","kana_pref":"ﾋﾛｼﾏｹﾝ","kana_city":"ﾋﾛｼﾏｼｻｴｷｸ","kana_address":"ﾔﾊﾀ","pref":"広島県","city":"広島市佐伯区","address":"八幡"},
{"zip_code":"7315117","kana_pref":"ﾋﾛｼﾏｹﾝ","kana_city":"ﾋﾛｼﾏｼｻｴｷｸ","kana_address":"ﾔﾊﾀｶﾞｵｶ","pref":"広島県","city":"広島市佐伯区","address":"八幡が丘"},
{"zip_code":"7315115","kana_pref":"ﾋﾛｼﾏｹﾝ","kana_city":"ﾋﾛｼﾏｼｻｴｷｸ","kana_address":"ﾔﾊﾀﾋｶﾞｼ","pref":"広島県","city":"広島市佐伯区","address":"八幡東"},
{"zip_code":"7315132","kana_pref":"ﾋﾛｼﾏｹﾝ","kana_city":"ﾋﾛｼﾏｼｻｴｷｸ","kana_address":"ﾖｼﾐｴﾝ","pref":"広島県","city":"広島市佐伯区","address":"吉見園"},
{"zip_code":"7315136","kana_pref":"ﾋﾛｼﾏｹﾝ","kana_city":"ﾋﾛｼﾏｼｻｴｷｸ","kana_address":"ﾗｸﾗｸｴﾝ","pref":"広島県","city":"広島市佐伯区","address":"楽々園"},
{"zip_code":"7310500","kana_pref":"ﾋﾛｼﾏｹﾝ","kana_city":"ｱｷﾀｶﾀｼ","kana_address":"","pref":"広島県","city":"安芸高田市","address":""},
{"zip_code":"7310703","kana_pref":"ﾋﾛｼﾏｹﾝ","kana_city":"ｱｷﾀｶﾀｼ","kana_address":"ﾐﾄﾞﾘﾁｮｳｲｹﾀﾞ","pref":"広島県","city":"安芸高田市","address":"美土里町生田"},
{"zip_code":"7310701","kana_pref":"ﾋﾛｼﾏｹﾝ","kana_city":"ｱｷﾀｶﾀｼ","kana_address":"ﾐﾄﾞﾘﾁｮｳｷﾀ","pref":"広島県","city":"安芸高田市","address":"美土里町北"},
{"zip_code":"7310702","kana_pref":"ﾋﾛｼﾏｹﾝ","kana_city":"ｱｷﾀｶﾀｼ","kana_address":"ﾐﾄﾞﾘﾁｮｳｸﾜﾀ","pref":"広島県","city":"安芸高田市","address":"美土里町桑田"},
{"zip_code":"7310612","kana_pref":"ﾋﾛｼﾏｹﾝ","kana_city":"ｱｷﾀｶﾀｼ","kana_address":"ﾐﾄﾞﾘﾁｮｳﾎﾝｺﾞｳ","pref":"広島県","city":"安芸高田市","address":"美土里町本郷"},
{"zip_code":"7310611","kana_pref":"ﾋﾛｼﾏｹﾝ","kana_city":"ｱｷﾀｶﾀｼ","kana_address":"ﾐﾄﾞﾘﾁｮｳﾖｺﾀ","pref":"広島県","city":"安芸高田市","address":"美土里町横田"},
{"zip_code":"7310302","kana_pref":"ﾋﾛｼﾏｹﾝ","kana_city":"ｱｷﾀｶﾀｼ","kana_address":"ﾔﾁﾖﾁｮｳｶｯﾀ","pref":"広島県","city":"安芸高田市","address":"八千代町勝田"},
{"zip_code":"7310305","kana_pref":"ﾋﾛｼﾏｹﾝ","kana_city":"ｱｷﾀｶﾀｼ","kana_address":"ﾔﾁﾖﾁｮｳｶﾐﾈ","pref":"広島県","city":"安芸高田市","address":"八千代町上根"},
{"zip_code":"7310303","kana_pref":"ﾋﾛｼﾏｹﾝ","kana_city":"ｱｷﾀｶﾀｼ","kana_address":"ﾔﾁﾖﾁｮｳｻｻｲ","pref":"広島県","city":"安芸高田市","address":"八千代町佐々井"},
{"zip_code":"7310304","kana_pref":"ﾋﾛｼﾏｹﾝ","kana_city":"ｱｷﾀｶﾀｼ","kana_address":"ﾔﾁﾖﾁｮｳｼﾓﾈ","pref":"広島県","city":"安芸高田市","address":"八千代町下根"},
{"zip_code":"7310301","kana_pref":"ﾋﾛｼﾏｹﾝ","kana_city":"ｱｷﾀｶﾀｼ","kana_address":"ﾔﾁﾖﾁｮｳﾊｼﾞ","pref":"広島県","city":"安芸高田市","address":"八千代町土師"},
{"zip_code":"7310306","kana_pref":"ﾋﾛｼﾏｹﾝ","kana_city":"ｱｷﾀｶﾀｼ","kana_address":"ﾔﾁﾖﾁｮｳﾑｶｲﾔﾏ","pref":"広島県","city":"安芸高田市","address":"八千代町向山"},
{"zip_code":"7310542","kana_pref":"ﾋﾛｼﾏｹﾝ","kana_city":"ｱｷﾀｶﾀｼ","kana_address":"ﾖｼﾀﾞﾁｮｳｱｲｵｳ","pref":"広島県","city":"安芸高田市","address":"吉田町相合"},
{"zip_code":"7310512","kana_pref":"ﾋﾛｼﾏｹﾝ","kana_city":"ｱｷﾀｶﾀｼ","kana_address":"ﾖｼﾀﾞﾁｮｳｵﾔﾏ","pref":"広島県","city":"安芸高田市","address":"吉田町小山"},
{"zip_code":"7310534","kana_pref":"ﾋﾛｼﾏｹﾝ","kana_city":"ｱｷﾀｶﾀｼ","kana_address":"ﾖｼﾀﾞﾁｮｳｶﾂﾗ","pref":"広島県","city":"安芸高田市","address":"吉田町桂"},
{"zip_code":"7310532","kana_pref":"ﾋﾛｼﾏｹﾝ","kana_city":"ｱｷﾀｶﾀｼ","kana_address":"ﾖｼﾀﾞﾁｮｳｶﾐｲﾘｴ","pref":"広島県","city":"安芸高田市","address":"吉田町上入江"},
{"zip_code":"7310524","kana_pref":"ﾋﾛｼﾏｹﾝ","kana_city":"ｱｷﾀｶﾀｼ","kana_address":"ﾖｼﾀﾞﾁｮｳｶﾜﾓﾄ","pref":"広島県","city":"安芸高田市","address":"吉田町川本"},
{"zip_code":"7310502","kana_pref":"ﾋﾛｼﾏｹﾝ","kana_city":"ｱｷﾀｶﾀｼ","kana_address":"ﾖｼﾀﾞﾁｮｳｸﾆｼ","pref":"広島県","city":"安芸高田市","address":"吉田町国司"},
{"zip_code":"7310535","kana_pref":"ﾋﾛｼﾏｹﾝ","kana_city":"ｱｷﾀｶﾀｼ","kana_address":"ﾖｼﾀﾞﾁｮｳｺｳﾔ","pref":"広島県","city":"安芸高田市","address":"吉田町高野"},
{"zip_code":"7310531","kana_pref":"ﾋﾛｼﾏｹﾝ","kana_city":"ｱｷﾀｶﾀｼ","kana_address":"ﾖｼﾀﾞﾁｮｳｼﾓｲﾘｴ","pref":"広島県","city":"安芸高田市","address":"吉田町下入江"},
{"zip_code":"7310522","kana_pref":"ﾋﾛｼﾏｹﾝ","kana_city":"ｱｷﾀｶﾀｼ","kana_address":"ﾖｼﾀﾞﾁｮｳｼﾞｮｳﾗｸｼﾞ","pref":"広島県","city":"安芸高田市","address":"吉田町常楽寺"},
{"zip_code":"7310511","kana_pref":"ﾋﾛｼﾏｹﾝ","kana_city":"ｱｷﾀｶﾀｼ","kana_address":"ﾖｼﾀﾞﾁｮｳﾀｹﾊﾗ","pref":"広島県","city":"安芸高田市","address":"吉田町竹原"},
{"zip_code":"7310544","kana_pref":"ﾋﾛｼﾏｹﾝ","kana_city":"ｱｷﾀｶﾀｼ","kana_address":"ﾖｼﾀﾞﾁｮｳﾀｼﾞﾋ","pref":"広島県","city":"安芸高田市","address":"吉田町多治比"},
{"zip_code":"7310525","kana_pref":"ﾋﾛｼﾏｹﾝ","kana_city":"ｱｷﾀｶﾀｼ","kana_address":"ﾖｼﾀﾞﾁｮｳﾁｭｳﾏ","pref":"広島県","city":"安芸高田市","address":"吉田町中馬"},
{"zip_code":"7310521","kana_pref":"ﾋﾛｼﾏｹﾝ","kana_city":"ｱｷﾀｶﾀｼ","kana_address":"ﾖｼﾀﾞﾁｮｳﾂﾈﾄﾓ","pref":"広島県","city":"安芸高田市","address":"吉田町常友"},
{"zip_code":"7310533","kana_pref":"ﾋﾛｼﾏｹﾝ","kana_city":"ｱｷﾀｶﾀｼ","kana_address":"ﾖｼﾀﾞﾁｮｳﾅｶﾞﾔ","pref":"広島県","city":"安芸高田市","address":"吉田町長屋"},
{"zip_code":"7310543","kana_pref":"ﾋﾛｼﾏｹﾝ","kana_city":"ｱｷﾀｶﾀｼ","kana_address":"ﾖｼﾀﾞﾁｮｳﾆｼｳﾗ","pref":"広島県","city":"安芸高田市","address":"吉田町西浦"},
{"zip_code":"7310513","kana_pref":"ﾋﾛｼﾏｹﾝ","kana_city":"ｱｷﾀｶﾀｼ","kana_address":"ﾖｼﾀﾞﾁｮｳﾌｸﾊﾞﾗ","pref":"広島県","city":"安芸高田市","address":"吉田町福原"},
{"zip_code":"7310523","kana_pref":"ﾋﾛｼﾏｹﾝ","kana_city":"ｱｷﾀｶﾀｼ","kana_address":"ﾖｼﾀﾞﾁｮｳﾔﾏﾃ","pref":"広島県","city":"安芸高田市","address":"吉田町山手"},
{"zip_code":"7310541","kana_pref":"ﾋﾛｼﾏｹﾝ","kana_city":"ｱｷﾀｶﾀｼ","kana_address":"ﾖｼﾀﾞﾁｮｳﾔﾝﾍﾞ","pref":"広島県","city":"安芸高田市","address":"吉田町山部"},
{"zip_code":"7310501","kana_pref":"ﾋﾛｼﾏｹﾝ","kana_city":"ｱｷﾀｶﾀｼ","kana_address":"ﾖｼﾀﾞﾁｮｳﾖｼﾀﾞ","pref":"広島県","city":"安芸高田市","address":"吉田町吉田"},
{"zip_code":"7314200","kana_pref":"ﾋﾛｼﾏｹﾝ","kana_city":"ｱｷｸﾞﾝｸﾏﾉﾁｮｳ","kana_address":"","pref":"広島県","city":"安芸郡熊野町","address":""},
{"zip_code":"7314225","kana_pref":"ﾋﾛｼﾏｹﾝ","kana_city":"ｱｷｸﾞﾝｸﾏﾉﾁｮｳ","kana_address":"ｲｼｶﾞﾐ","pref":"広島県","city":"安芸郡熊野町","address":"石神"},
{"zip_code":"7314228","kana_pref":"ﾋﾛｼﾏｹﾝ","kana_city":"ｱｷｸﾞﾝｸﾏﾉﾁｮｳ","kana_address":"ｶｷｻｺ","pref":"広島県","city":"安芸郡熊野町","address":"柿迫"},
{"zip_code":"7314223","kana_pref":"ﾋﾛｼﾏｹﾝ","kana_city":"ｱｷｸﾞﾝｸﾏﾉﾁｮｳ","kana_address":"ｶﾜｽﾐ","pref":"広島県","city":"安芸郡熊野町","address":"川角"},
{"zip_code":"7314224","kana_pref":"ﾋﾛｼﾏｹﾝ","kana_city":"ｱｷｸﾞﾝｸﾏﾉﾁｮｳ","kana_address":"ｶﾝﾀﾞ","pref":"広島県","city":"安芸郡熊野町","address":"神田"},
{"zip_code":"7314227","kana_pref":"ﾋﾛｼﾏｹﾝ","kana_city":"ｱｷｸﾞﾝｸﾏﾉﾁｮｳ","kana_address":"ｷﾌﾈ","pref":"広島県","city":"安芸郡熊野町","address":"貴船"},
{"zip_code":"7314222","kana_pref":"ﾋﾛｼﾏｹﾝ","kana_city":"ｱｷｸﾞﾝｸﾏﾉﾁｮｳ","kana_address":"ｸﾚｼﾞ","pref":"広島県","city":"安芸郡熊野町","address":"呉地"},
{"zip_code":"7314215","kana_pref":"ﾋﾛｼﾏｹﾝ","kana_city":"ｱｷｸﾞﾝｸﾏﾉﾁｮｳ","kana_address":"ｼﾞｮｳﾉﾎﾘ","pref":"広島県","city":"安芸郡熊野町","address":"城之堀"},
{"zip_code":"7314211","kana_pref":"ﾋﾛｼﾏｹﾝ","kana_city":"ｱｷｸﾞﾝｸﾏﾉﾁｮｳ","kana_address":"ｼﾝｸﾞｳ","pref":"広島県","city":"安芸郡熊野町","address":"新宮"},
{"zip_code":"7314221","kana_pref":"ﾋﾛｼﾏｹﾝ","kana_city":"ｱｷｸﾞﾝｸﾏﾉﾁｮｳ","kana_address":"ﾃﾞｷﾆﾜ","pref":"広島県","city":"安芸郡熊野町","address":"出来庭"},
{"zip_code":"7314214","kana_pref":"ﾋﾛｼﾏｹﾝ","kana_city":"ｱｷｸﾞﾝｸﾏﾉﾁｮｳ","kana_address":"ﾅｶﾐｿﾞ","pref":"広島県","city":"安芸郡熊野町","address":"中溝"},
{"zip_code":"7314213","kana_pref":"ﾋﾛｼﾏｹﾝ","kana_city":"ｱｷｸﾞﾝｸﾏﾉﾁｮｳ","kana_address":"ﾊｷﾞﾜﾗ","pref":"広島県","city":"安芸郡熊野町","address":"萩原"},
{"zip_code":"7314212","kana_pref":"ﾋﾛｼﾏｹﾝ","kana_city":"ｱｷｸﾞﾝｸﾏﾉﾁｮｳ","kana_address":"ﾊﾂｶﾐ","pref":"広島県","city":"安芸郡熊野町","address":"初神"},
{"zip_code":"7314226","kana_pref":"ﾋﾛｼﾏｹﾝ","kana_city":"ｱｷｸﾞﾝｸﾏﾉﾁｮｳ","kana_address":"ﾋｶﾞｼﾔﾏ","pref":"広島県","city":"安芸郡熊野町","address":"東山"},
{"zip_code":"7314229","kana_pref":"ﾋﾛｼﾏｹﾝ","kana_city":"ｱｷｸﾞﾝｸﾏﾉﾁｮｳ","kana_address":"ﾋﾗﾀﾞﾆ","pref":"広島県","city":"安芸郡熊野町","address":"平谷"},
{"zip_code":"7314300","kana_pref":"ﾋﾛｼﾏｹﾝ","kana_city":"ｱｷｸﾞﾝｻｶﾁｮｳ","kana_address":"","pref":"広島県","city":"安芸郡坂町","address":""},
{"zip_code":"7314301","kana_pref":"ﾋﾛｼﾏｹﾝ","kana_city":"ｱｷｸﾞﾝｻｶﾁｮｳ","kana_address":"ｻｶﾁｮｳﾉﾂｷﾞﾆﾊﾞﾝﾁｶﾞｸﾙﾊﾞｱｲ","pref":"広島県","city":"安芸郡坂町","address":"坂町の次に番地がくる場合"},
{"zip_code":"7314321","kana_pref":"ﾋﾛｼﾏｹﾝ","kana_city":"ｱｷｸﾞﾝｻｶﾁｮｳ","kana_address":"ｳｴﾀﾞ","pref":"広島県","city":"安芸郡坂町","address":"植田"},
{"zip_code":"7314311","kana_pref":"ﾋﾛｼﾏｹﾝ","kana_city":"ｱｷｸﾞﾝｻｶﾁｮｳ","kana_address":"ｷﾀｼﾝﾁ","pref":"広島県","city":"安芸郡坂町","address":"北新地"},
{"zip_code":"7314331","kana_pref":"ﾋﾛｼﾏｹﾝ","kana_city":"ｱｷｸﾞﾝｻｶﾁｮｳ","kana_address":"ｺﾔｳﾗ","pref":"広島県","city":"安芸郡坂町","address":"小屋浦"},
{"zip_code":"7314313","kana_pref":"ﾋﾛｼﾏｹﾝ","kana_city":"ｱｷｸﾞﾝｻｶﾁｮｳ","kana_address":"ｻｶﾋｶﾞｼ","pref":"広島県","city":"安芸郡坂町","address":"坂東"},
{"zip_code":"7314314","kana_pref":"ﾋﾛｼﾏｹﾝ","kana_city":"ｱｷｸﾞﾝｻｶﾁｮｳ","kana_address":"ｻｶﾆｼ","pref":"広島県","city":"安芸郡坂町","address":"坂西"},
{"zip_code":"7314325","kana_pref":"ﾋﾛｼﾏｹﾝ","kana_city":"ｱｷｸﾞﾝｻｶﾁｮｳ","kana_address":"ﾀｲﾋﾞ","pref":"広島県","city":"安芸郡坂町","address":"鯛尾"},
{"zip_code":"7314312","kana_pref":"ﾋﾛｼﾏｹﾝ","kana_city":"ｱｷｸﾞﾝｻｶﾁｮｳ","kana_address":"ﾍｲｾｲｶﾞﾊﾏ","pref":"広島県","city":"安芸郡坂町","address":"平成ケ浜"},
{"zip_code":"7314323","kana_pref":"ﾋﾛｼﾏｹﾝ","kana_city":"ｱｷｸﾞﾝｻｶﾁｮｳ","kana_address":"ﾖｺﾊﾏﾁｭｳｵｳ","pref":"広島県","city":"安芸郡坂町","address":"横浜中央"},
{"zip_code":"7314324","kana_pref":"ﾋﾛｼﾏｹﾝ","kana_city":"ｱｷｸﾞﾝｻｶﾁｮｳ","kana_address":"ﾖｺﾊﾏﾆｼ","pref":"広島県","city":"安芸郡坂町","address":"横浜西"},
{"zip_code":"7314322","kana_pref":"ﾋﾛｼﾏｹﾝ","kana_city":"ｱｷｸﾞﾝｻｶﾁｮｳ","kana_address":"ﾖｺﾊﾏﾋｶﾞｼ","pref":"広島県","city":"安芸郡坂町","address":"横浜東"},
{"zip_code":"7313500","kana_pref":"ﾋﾛｼﾏｹﾝ","kana_city":"ﾔﾏｶﾞﾀｸﾞﾝｱｷｵｵﾀﾁｮｳ","kana_address":"","pref":"広島県","city":"山県郡安芸太田町","address":""},
{"zip_code":"7313812","kana_pref":"ﾋﾛｼﾏｹﾝ","kana_city":"ﾔﾏｶﾞﾀｸﾞﾝｱｷｵｵﾀﾁｮｳ","kana_address":"ｱｿﾞｳﾀﾞﾆ","pref":"広島県","city":"山県郡安芸太田町","address":"遊谷"},
{"zip_code":"7313411","kana_pref":"ﾋﾛｼﾏｹﾝ","kana_city":"ﾔﾏｶﾞﾀｸﾞﾝｱｷｵｵﾀﾁｮｳ","kana_address":"ｱﾅ","pref":"広島県","city":"山県郡安芸太田町","address":"穴"},
{"zip_code":"7313833","kana_pref":"ﾋﾛｼﾏｹﾝ","kana_city":"ﾔﾏｶﾞﾀｸﾞﾝｱｷｵｵﾀﾁｮｳ","kana_address":"ｲﾀｶﾞﾀﾆ","pref":"広島県","city":"山県郡安芸太田町","address":"板ケ谷"},
{"zip_code":"7313551","kana_pref":"ﾋﾛｼﾏｹﾝ","kana_city":"ﾔﾏｶﾞﾀｸﾞﾝｱｷｵｵﾀﾁｮｳ","kana_address":"ｲﾉｼﾔﾏ","pref":"広島県","city":"山県郡安芸太田町","address":"猪山"},
{"zip_code":"7313844","kana_pref":"ﾋﾛｼﾏｹﾝ","kana_city":"ﾔﾏｶﾞﾀｸﾞﾝｱｷｵｵﾀﾁｮｳ","kana_address":"ｳﾂﾅｼ","pref":"広島県","city":"山県郡安芸太田町","address":"打梨"},
{"zip_code":"7313501","kana_pref":"ﾋﾛｼﾏｹﾝ","kana_city":"ﾔﾏｶﾞﾀｸﾞﾝｱｷｵｵﾀﾁｮｳ","kana_address":"ｶｹ","pref":"広島県","city":"山県郡安芸太田町","address":"加計"},
{"zip_code":"7313832","kana_pref":"ﾋﾛｼﾏｹﾝ","kana_city":"ﾔﾏｶﾞﾀｸﾞﾝｱｷｵｵﾀﾁｮｳ","kana_address":"ｶｼﾞﾉｷ","pref":"広島県","city":"山県郡安芸太田町","address":"梶ノ木"},
{"zip_code":"7313701","kana_pref":"ﾋﾛｼﾏｹﾝ","kana_city":"ﾔﾏｶﾞﾀｸﾞﾝｱｷｵｵﾀﾁｮｳ","kana_address":"ｶﾐﾂﾂｶﾞ","pref":"広島県","city":"山県郡安芸太田町","address":"上筒賀"},
{"zip_code":"7313664","kana_pref":"ﾋﾛｼﾏｹﾝ","kana_city":"ﾔﾏｶﾞﾀｸﾞﾝｱｷｵｵﾀﾁｮｳ","kana_address":"ｶﾐﾄﾉ","pref":"広島県","city":"山県郡安芸太田町","address":"上殿"},
{"zip_code":"7313831","kana_pref":"ﾋﾛｼﾏｹﾝ","kana_city":"ﾔﾏｶﾞﾀｸﾞﾝｱｷｵｵﾀﾁｮｳ","kana_address":"ｶﾜﾃ","pref":"広島県","city":"山県郡安芸太田町","address":"川手"},
{"zip_code":"7313503","kana_pref":"ﾋﾛｼﾏｹﾝ","kana_city":"ﾔﾏｶﾞﾀｸﾞﾝｱｷｵｵﾀﾁｮｳ","kana_address":"ｶﾝﾉﾝ","pref":"広島県","city":"山県郡安芸太田町","address":"観音"},
{"zip_code":"7313835","kana_pref":"ﾋﾛｼﾏｹﾝ","kana_city":"ﾔﾏｶﾞﾀｸﾞﾝｱｷｵｵﾀﾁｮｳ","kana_address":"ｺｲﾀ","pref":"広島県","city":"山県郡安芸太田町","address":"小板"},
{"zip_code":"7313621","kana_pref":"ﾋﾛｼﾏｹﾝ","kana_city":"ﾔﾏｶﾞﾀｸﾞﾝｱｷｵｵﾀﾁｮｳ","kana_address":"ｼﾓﾂﾂｶﾞ","pref":"広島県","city":"山県郡安芸太田町","address":"下筒賀"},
{"zip_code":"7313622","kana_pref":"ﾋﾛｼﾏｹﾝ","kana_city":"ﾔﾏｶﾞﾀｸﾞﾝｱｷｵｵﾀﾁｮｳ","kana_address":"ｼﾓﾄﾉｺﾞｳﾁ","pref":"広島県","city":"山県郡安芸太田町","address":"下殿河内"},
{"zip_code":"7313824","kana_pref":"ﾋﾛｼﾏｹﾝ","kana_city":"ﾔﾏｶﾞﾀｸﾞﾝｱｷｵｵﾀﾁｮｳ","kana_address":"ｼﾞﾘｮｳ","pref":"広島県","city":"山県郡安芸太田町","address":"寺領"},
{"zip_code":"7313813","kana_pref":"ﾋﾛｼﾏｹﾝ","kana_city":"ﾔﾏｶﾞﾀｸﾞﾝｱｷｵｵﾀﾁｮｳ","kana_address":"ｼﾜｷﾞ","pref":"広島県","city":"山県郡安芸太田町","address":"柴木"},
{"zip_code":"7313842","kana_pref":"ﾋﾛｼﾏｹﾝ","kana_city":"ﾔﾏｶﾞﾀｸﾞﾝｱｷｵｵﾀﾁｮｳ","kana_address":"ﾀﾌﾞｷ","pref":"広島県","city":"山県郡安芸太田町","address":"田吹"},
{"zip_code":"7313502","kana_pref":"ﾋﾛｼﾏｹﾝ","kana_city":"ﾔﾏｶﾞﾀｸﾞﾝｱｷｵｵﾀﾁｮｳ","kana_address":"ﾂﾅﾐ","pref":"広島県","city":"山県郡安芸太田町","address":"津浪"},
{"zip_code":"7313412","kana_pref":"ﾋﾛｼﾏｹﾝ","kana_city":"ﾔﾏｶﾞﾀｸﾞﾝｱｷｵｵﾀﾁｮｳ","kana_address":"ﾂﾎﾞﾉ","pref":"広島県","city":"山県郡安芸太田町","address":"坪野"},
{"zip_code":"7313821","kana_pref":"ﾋﾛｼﾏｹﾝ","kana_city":"ﾔﾏｶﾞﾀｸﾞﾝｱｷｵｵﾀﾁｮｳ","kana_address":"ﾄﾞｲ","pref":"広島県","city":"山県郡安芸太田町","address":"土居"},
{"zip_code":"7313810","kana_pref":"ﾋﾛｼﾏｹﾝ","kana_city":"ﾔﾏｶﾞﾀｸﾞﾝｱｷｵｵﾀﾁｮｳ","kana_address":"ﾄｺﾞｳﾁ","pref":"広島県","city":"山県郡安芸太田町","address":"戸河内"},
{"zip_code":"7313702","kana_pref":"ﾋﾛｼﾏｹﾝ","kana_city":"ﾔﾏｶﾞﾀｸﾞﾝｱｷｵｵﾀﾁｮｳ","kana_address":"ﾅｶﾂﾂｶﾞ","pref":"広島県","city":"山県郡安芸太田町","address":"中筒賀"},
{"zip_code":"7313845","kana_pref":"ﾋﾛｼﾏｹﾝ","kana_city":"ﾔﾏｶﾞﾀｸﾞﾝｱｷｵｵﾀﾁｮｳ","kana_address":"ﾅｽ","pref":"広島県","city":"山県郡安芸太田町","address":"那須"},
{"zip_code":"7313552","kana_pref":"ﾋﾛｼﾏｹﾝ","kana_city":"ﾔﾏｶﾞﾀｸﾞﾝｱｷｵｵﾀﾁｮｳ","kana_address":"ﾋﾗﾐﾀﾞﾆ","pref":"広島県","city":"山県郡安芸太田町","address":"平見谷"},
{"zip_code":"7313834","kana_pref":"ﾋﾛｼﾏｹﾝ","kana_city":"ﾔﾏｶﾞﾀｸﾞﾝｱｷｵｵﾀﾁｮｳ","kana_address":"ﾏﾂﾊﾞﾗ","pref":"広島県","city":"山県郡安芸太田町","address":"松原"},
{"zip_code":"7313801","kana_pref":"ﾋﾛｼﾏｹﾝ","kana_city":"ﾔﾏｶﾞﾀｸﾞﾝｱｷｵｵﾀﾁｮｳ","kana_address":"ﾖｺｺﾞｳ","pref":"広島県","city":"山県郡安芸太田町","address":"横川"},
{"zip_code":"7313843","kana_pref":"ﾋﾛｼﾏｹﾝ","kana_city":"ﾔﾏｶﾞﾀｸﾞﾝｱｷｵｵﾀﾁｮｳ","kana_address":"ﾖｼﾜｺﾞｳ","pref":"広島県","city":"山県郡安芸太田町","address":"吉和郷"},
{"zip_code":"7311500","kana_pref":"ﾋﾛｼﾏｹﾝ","kana_city":"ﾔﾏｶﾞﾀｸﾞﾝｷﾀﾋﾛｼﾏﾁｮｳ","kana_address":"","pref":"広島県","city":"山県郡北広島町","address":""},
{"zip_code":"7311222","kana_pref":"ﾋﾛｼﾏｹﾝ","kana_city":"ﾔﾏｶﾞﾀｸﾞﾝｷﾀﾋﾛｼﾏﾁｮｳ","kana_address":"ｱｻﾞｶ","pref":"広島県","city":"山県郡北広島町","address":"阿坂"},
{"zip_code":"7311533","kana_pref":"ﾋﾛｼﾏｹﾝ","kana_city":"ﾔﾏｶﾞﾀｸﾞﾝｷﾀﾋﾛｼﾏﾁｮｳ","kana_address":"ｱﾘﾀﾞ","pref":"広島県","city":"山県郡北広島町","address":"有田"},
{"zip_code":"7311503","kana_pref":"ﾋﾛｼﾏｹﾝ","kana_city":"ﾔﾏｶﾞﾀｸﾞﾝｷﾀﾋﾛｼﾏﾁｮｳ","kana_address":"ｱﾘﾏ","pref":"広島県","city":"山県郡北広島町","address":"有間"},
{"zip_code":"7312106","kana_pref":"ﾋﾛｼﾏｹﾝ","kana_city":"ﾔﾏｶﾞﾀｸﾞﾝｷﾀﾋﾛｼﾏﾁｮｳ","kana_address":"ｲｶﾀﾞﾂ","pref":"広島県","city":"山県郡北広島町","address":"筏津"},
{"zip_code":"7311525","kana_pref":"ﾋﾛｼﾏｹﾝ","kana_city":"ﾔﾏｶﾞﾀｸﾞﾝｷﾀﾋﾛｼﾏﾁｮｳ","kana_address":"ｲｼｲﾀﾞﾆ","pref":"広島県","city":"山県郡北広島町","address":"石井谷"},
{"zip_code":"7312321","kana_pref":"ﾋﾛｼﾏｹﾝ","kana_city":"ﾔﾏｶﾞﾀｸﾞﾝｷﾀﾋﾛｼﾏﾁｮｳ","kana_address":"ｲﾀﾑﾗ","pref":"広島県","city":"山県郡北広島町","address":"板村"},
{"zip_code":"7311535","kana_pref":"ﾋﾛｼﾏｹﾝ","kana_city":"ﾔﾏｶﾞﾀｸﾞﾝｷﾀﾋﾛｼﾏﾁｮｳ","kana_address":"ｲﾏﾀﾞ","pref":"広島県","city":"山県郡北広島町","address":"今田"},
{"zip_code":"7311221","kana_pref":"ﾋﾛｼﾏｹﾝ","kana_city":"ﾔﾏｶﾞﾀｸﾞﾝｷﾀﾋﾛｼﾏﾁｮｳ","kana_address":"ｲﾏﾖｼﾀﾞ","pref":"広島県","city":"山県郡北広島町","address":"今吉田"},
{"zip_code":"7312102","kana_pref":"ﾋﾛｼﾏｹﾝ","kana_city":"ﾔﾏｶﾞﾀｸﾞﾝｷﾀﾋﾛｼﾏﾁｮｳ","kana_address":"ｲﾜﾄﾞ","pref":"広島県","city":"山県郡北広島町","address":"岩戸"},
{"zip_code":"7311534","kana_pref":"ﾋﾛｼﾏｹﾝ","kana_city":"ﾔﾏｶﾞﾀｸﾞﾝｷﾀﾋﾛｼﾏﾁｮｳ","kana_address":"ｳｼﾛｱﾘﾀﾞ","pref":"広島県","city":"山県郡北広島町","address":"後有田"},
{"zip_code":"7312442","kana_pref":"ﾋﾛｼﾏｹﾝ","kana_city":"ﾔﾏｶﾞﾀｸﾞﾝｷﾀﾋﾛｼﾏﾁｮｳ","kana_address":"ｳｽﾞﾉｳ","pref":"広島県","city":"山県郡北広島町","address":"雲耕"},
{"zip_code":"7312206","kana_pref":"ﾋﾛｼﾏｹﾝ","kana_city":"ﾔﾏｶﾞﾀｸﾞﾝｷﾀﾋﾛｼﾏﾁｮｳ","kana_address":"ｳﾂﾉﾊﾗ","pref":"広島県","city":"山県郡北広島町","address":"移原"},
{"zip_code":"7312104","kana_pref":"ﾋﾛｼﾏｹﾝ","kana_city":"ﾔﾏｶﾞﾀｸﾞﾝｷﾀﾋﾛｼﾏﾁｮｳ","kana_address":"ｵｵｱｻ","pref":"広島県","city":"山県郡北広島町","address":"大朝"},
{"zip_code":"7312204","kana_pref":"ﾋﾛｼﾏｹﾝ","kana_city":"ﾔﾏｶﾞﾀｸﾞﾝｷﾀﾋﾛｼﾏﾁｮｳ","kana_address":"ｵｵｸﾞﾚ","pref":"広島県","city":"山県郡北広島町","address":"大暮"},
{"zip_code":"7312107","kana_pref":"ﾋﾛｼﾏｹﾝ","kana_city":"ﾔﾏｶﾞﾀｸﾞﾝｷﾀﾋﾛｼﾏﾁｮｳ","kana_address":"ｵｵﾂｶ","pref":"広島県","city":"山県郡北広島町","address":"大塚"},
{"zip_code":"7312315","kana_pref":"ﾋﾛｼﾏｹﾝ","kana_city":"ﾔﾏｶﾞﾀｸﾞﾝｷﾀﾋﾛｼﾏﾁｮｳ","kana_address":"ｵｵﾄｼﾊﾞﾗ","pref":"広島県","city":"山県郡北広島町","address":"大利原"},
{"zip_code":"7312437","kana_pref":"ﾋﾛｼﾏｹﾝ","kana_city":"ﾔﾏｶﾞﾀｸﾞﾝｷﾀﾋﾛｼﾏﾁｮｳ","kana_address":"ｵｵﾓﾄ","pref":"広島県","city":"山県郡北広島町","address":"大元"},
{"zip_code":"7312324","kana_pref":"ﾋﾛｼﾏｹﾝ","kana_city":"ﾔﾏｶﾞﾀｸﾞﾝｷﾀﾋﾛｼﾏﾁｮｳ","kana_address":"ｵｸﾅｶﾊﾞﾗ","pref":"広島県","city":"山県郡北広島町","address":"奥中原"},
{"zip_code":"7312312","kana_pref":"ﾋﾛｼﾏｹﾝ","kana_city":"ﾔﾏｶﾞﾀｸﾞﾝｷﾀﾋﾛｼﾏﾁｮｳ","kana_address":"ｵｸﾊﾗ","pref":"広島県","city":"山県郡北広島町","address":"奥原"},
{"zip_code":"7311703","kana_pref":"ﾋﾛｼﾏｹﾝ","kana_city":"ﾔﾏｶﾞﾀｸﾞﾝｷﾀﾋﾛｼﾏﾁｮｳ","kana_address":"ｶｲｵｳｼﾞ","pref":"広島県","city":"山県郡北広島町","address":"海応寺"},
{"zip_code":"7311702","kana_pref":"ﾋﾛｼﾏｹﾝ","kana_city":"ﾔﾏｶﾞﾀｸﾞﾝｷﾀﾋﾛｼﾏﾁｮｳ","kana_address":"ｶﾐｲｼ","pref":"広島県","city":"山県郡北広島町","address":"上石"},
{"zip_code":"7312317","kana_pref":"ﾋﾛｼﾏｹﾝ","kana_city":"ﾔﾏｶﾞﾀｸﾞﾝｷﾀﾋﾛｼﾏﾁｮｳ","kana_address":"ｶﾘﾔｶﾞﾀ","pref":"広島県","city":"山県郡北広島町","address":"苅屋形"},
{"zip_code":"7311513","kana_pref":"ﾋﾛｼﾏｹﾝ","kana_city":"ﾔﾏｶﾞﾀｸﾞﾝｷﾀﾋﾛｼﾏﾁｮｳ","kana_address":"ｶﾜｲ","pref":"広島県","city":"山県郡北広島町","address":"川井"},
{"zip_code":"7312323","kana_pref":"ﾋﾛｼﾏｹﾝ","kana_city":"ﾔﾏｶﾞﾀｸﾞﾝｷﾀﾋﾛｼﾏﾁｮｳ","kana_address":"ｶﾜｺﾀﾞ","pref":"広島県","city":"山県郡北広島町","address":"川小田"},
{"zip_code":"7311501","kana_pref":"ﾋﾛｼﾏｹﾝ","kana_city":"ﾔﾏｶﾞﾀｸﾞﾝｷﾀﾋﾛｼﾏﾁｮｳ","kana_address":"ｶﾜﾄﾞ","pref":"広島県","city":"山県郡北広島町","address":"川戸"},
{"zip_code":"7311516","kana_pref":"ﾋﾛｼﾏｹﾝ","kana_city":"ﾔﾏｶﾞﾀｸﾞﾝｷﾀﾋﾛｼﾏﾁｮｳ","kana_address":"ｶﾜﾆｼ","pref":"広島県","city":"山県郡北広島町","address":"川西"},
{"zip_code":"7311512","kana_pref":"ﾋﾛｼﾏｹﾝ","kana_city":"ﾔﾏｶﾞﾀｸﾞﾝｷﾀﾋﾛｼﾏﾁｮｳ","kana_address":"ｶﾜﾋｶﾞｼ","pref":"広島県","city":"山県郡北広島町","address":"川東"},
{"zip_code":"7311524","kana_pref":"ﾋﾛｼﾏｹﾝ","kana_city":"ﾔﾏｶﾞﾀｸﾞﾝｷﾀﾋﾛｼﾏﾁｮｳ","kana_address":"ｷﾂｷﾞ","pref":"広島県","city":"山県郡北広島町","address":"木次"},
{"zip_code":"7312313","kana_pref":"ﾋﾛｼﾏｹﾝ","kana_city":"ﾔﾏｶﾞﾀｸﾞﾝｷﾀﾋﾛｼﾏﾁｮｳ","kana_address":"ｸｻﾔｽ","pref":"広島県","city":"山県郡北広島町","address":"草安"},
{"zip_code":"7311502","kana_pref":"ﾋﾛｼﾏｹﾝ","kana_city":"ﾔﾏｶﾞﾀｸﾞﾝｷﾀﾋﾛｼﾏﾁｮｳ","kana_address":"ｸﾗｻﾞｺ","pref":"広島県","city":"山県郡北広島町","address":"蔵迫"},
{"zip_code":"7312431","kana_pref":"ﾋﾛｼﾏｹﾝ","kana_city":"ﾔﾏｶﾞﾀｸﾞﾝｷﾀﾋﾛｼﾏﾁｮｳ","kana_address":"ｺｳｼﾞﾝﾊﾞﾗ","pref":"広島県","city":"山県郡北広島町","address":"荒神原"},
{"zip_code":"7312203","kana_pref":"ﾋﾛｼﾏｹﾝ","kana_city":"ﾔﾏｶﾞﾀｸﾞﾝｷﾀﾋﾛｼﾏﾁｮｳ","kana_address":"ｺﾊﾞﾗ","pref":"広島県","city":"山県郡北広島町","address":"小原"},
{"zip_code":"7311532","kana_pref":"ﾋﾛｼﾏｹﾝ","kana_city":"ﾔﾏｶﾞﾀｸﾞﾝｷﾀﾋﾛｼﾏﾁｮｳ","kana_address":"ｺﾎﾘ","pref":"広島県","city":"山県郡北広島町","address":"古保利"},
{"zip_code":"7312314","kana_pref":"ﾋﾛｼﾏｹﾝ","kana_city":"ﾔﾏｶﾞﾀｸﾞﾝｷﾀﾋﾛｼﾏﾁｮｳ","kana_address":"ｻﾖｵﾄ","pref":"広島県","city":"山県郡北広島町","address":"才乙"},
{"zip_code":"7311701","kana_pref":"ﾋﾛｼﾏｹﾝ","kana_city":"ﾔﾏｶﾞﾀｸﾞﾝｷﾀﾋﾛｼﾏﾁｮｳ","kana_address":"ｼｼﾞﾊﾗ","pref":"広島県","city":"山県郡北広島町","address":"志路原"},
{"zip_code":"7311704","kana_pref":"ﾋﾛｼﾏｹﾝ","kana_city":"ﾔﾏｶﾞﾀｸﾞﾝｷﾀﾋﾛｼﾏﾁｮｳ","kana_address":"ｼﾓｲｼ","pref":"広島県","city":"山県郡北広島町","address":"下石"},
{"zip_code":"7311514","kana_pref":"ﾋﾛｼﾏｹﾝ","kana_city":"ﾔﾏｶﾞﾀｸﾞﾝｷﾀﾋﾛｼﾏﾁｮｳ","kana_address":"ｼﾝｳｼﾞｶﾞﾐ","pref":"広島県","city":"山県郡北広島町","address":"新氏神"},
{"zip_code":"7311522","kana_pref":"ﾋﾛｼﾏｹﾝ","kana_city":"ﾔﾏｶﾞﾀｸﾞﾝｷﾀﾋﾛｼﾏﾁｮｳ","kana_address":"ｼﾝｺﾞｳ","pref":"広島県","city":"山県郡北広島町","address":"新郷"},
{"zip_code":"7312103","kana_pref":"ﾋﾛｼﾏｹﾝ","kana_city":"ﾔﾏｶﾞﾀｸﾞﾝｷﾀﾋﾛｼﾏﾁｮｳ","kana_address":"ｼﾝｼﾞｮｳ","pref":"広島県","city":"山県郡北広島町","address":"新庄"},
{"zip_code":"7311511","kana_pref":"ﾋﾛｼﾏｹﾝ","kana_city":"ﾔﾏｶﾞﾀｸﾞﾝｷﾀﾋﾛｼﾏﾁｮｳ","kana_address":"ｿｳﾓﾘ","pref":"広島県","city":"山県郡北広島町","address":"惣森"},
{"zip_code":"7312435","kana_pref":"ﾋﾛｼﾏｹﾝ","kana_city":"ﾔﾏｶﾞﾀｸﾞﾝｷﾀﾋﾛｼﾏﾁｮｳ","kana_address":"ｿﾗｼﾞｮｳ","pref":"広島県","city":"山県郡北広島町","address":"空城"},
{"zip_code":"7312201","kana_pref":"ﾋﾛｼﾏｹﾝ","kana_city":"ﾔﾏｶﾞﾀｸﾞﾝｷﾀﾋﾛｼﾏﾁｮｳ","kana_address":"ﾀｶﾉ","pref":"広島県","city":"山県郡北広島町","address":"高野"},
{"zip_code":"7312105","kana_pref":"ﾋﾛｼﾏｹﾝ","kana_city":"ﾔﾏｶﾞﾀｸﾞﾝｷﾀﾋﾛｼﾏﾁｮｳ","kana_address":"ﾀﾜﾗ","pref":"広島県","city":"山県郡北広島町","address":"田原"},
{"zip_code":"7311712","kana_pref":"ﾋﾛｼﾏｹﾝ","kana_city":"ﾔﾏｶﾞﾀｸﾞﾝｷﾀﾋﾛｼﾏﾁｮｳ","kana_address":"ﾂｼﾐ","pref":"広島県","city":"山県郡北広島町","address":"都志見"},
{"zip_code":"7312311","kana_pref":"ﾋﾛｼﾏｹﾝ","kana_city":"ﾔﾏｶﾞﾀｸﾞﾝｷﾀﾋﾛｼﾏﾁｮｳ","kana_address":"ﾂﾁﾊｼ","pref":"広島県","city":"山県郡北広島町","address":"土橋"},
{"zip_code":"7311504","kana_pref":"ﾋﾛｼﾏｹﾝ","kana_city":"ﾔﾏｶﾞﾀｸﾞﾝｷﾀﾋﾛｼﾏﾁｮｳ","kana_address":"ﾃﾗﾊﾞﾗ","pref":"広島県","city":"山県郡北広島町","address":"寺原"},
{"zip_code":"7311711","kana_pref":"ﾋﾛｼﾏｹﾝ","kana_city":"ﾔﾏｶﾞﾀｸﾞﾝｷﾀﾋﾛｼﾏﾁｮｳ","kana_address":"ﾄﾀﾞﾆ","pref":"広島県","city":"山県郡北広島町","address":"戸谷"},
{"zip_code":"7311713","kana_pref":"ﾋﾛｼﾏｹﾝ","kana_city":"ﾔﾏｶﾞﾀｸﾞﾝｷﾀﾋﾛｼﾏﾁｮｳ","kana_address":"ﾅｶﾞｻｻ","pref":"広島県","city":"山県郡北広島町","address":"長笹"},
{"zip_code":"7312432","kana_pref":"ﾋﾛｼﾏｹﾝ","kana_city":"ﾔﾏｶﾞﾀｸﾞﾝｷﾀﾋﾛｼﾏﾁｮｳ","kana_address":"ﾅｶｿ","pref":"広島県","city":"山県郡北広島町","address":"中祖"},
{"zip_code":"7311706","kana_pref":"ﾋﾛｼﾏｹﾝ","kana_city":"ﾔﾏｶﾞﾀｸﾞﾝｷﾀﾋﾛｼﾏﾁｮｳ","kana_address":"ﾅｶﾊﾞﾗ","pref":"広島県","city":"山県郡北広島町","address":"中原"},
{"zip_code":"7311506","kana_pref":"ﾋﾛｼﾏｹﾝ","kana_city":"ﾔﾏｶﾞﾀｸﾞﾝｷﾀﾋﾛｼﾏﾁｮｳ","kana_address":"ﾅｶﾔﾏ","pref":"広島県","city":"山県郡北広島町","address":"中山"},
{"zip_code":"7312316","kana_pref":"ﾋﾛｼﾏｹﾝ","kana_city":"ﾔﾏｶﾞﾀｸﾞﾝｷﾀﾋﾛｼﾏﾁｮｳ","kana_address":"ﾅﾓﾝﾊﾞﾗ","pref":"広島県","city":"山県郡北広島町","address":"南門原"},
{"zip_code":"7311705","kana_pref":"ﾋﾛｼﾏｹﾝ","kana_city":"ﾔﾏｶﾞﾀｸﾞﾝｷﾀﾋﾛｼﾏﾁｮｳ","kana_address":"ﾆｼﾑﾈ","pref":"広島県","city":"山県郡北広島町","address":"西宗"},
{"zip_code":"7312552","kana_pref":"ﾋﾛｼﾏｹﾝ","kana_city":"ﾔﾏｶﾞﾀｸﾞﾝｷﾀﾋﾛｼﾏﾁｮｳ","kana_address":"ﾆｼﾔﾜﾀﾊﾗ","pref":"広島県","city":"山県郡北広島町","address":"西八幡原"},
{"zip_code":"7312434","kana_pref":"ﾋﾛｼﾏｹﾝ","kana_city":"ﾔﾏｶﾞﾀｸﾞﾝｷﾀﾋﾛｼﾏﾁｮｳ","kana_address":"ﾊｼﾔﾏ","pref":"広島県","city":"山県郡北広島町","address":"橋山"},
{"zip_code":"7311531","kana_pref":"ﾋﾛｼﾏｹﾝ","kana_city":"ﾔﾏｶﾞﾀｸﾞﾝｷﾀﾋﾛｼﾏﾁｮｳ","kana_address":"ﾊﾙｷ","pref":"広島県","city":"山県郡北広島町","address":"春木"},
{"zip_code":"7312551","kana_pref":"ﾋﾛｼﾏｹﾝ","kana_city":"ﾔﾏｶﾞﾀｸﾞﾝｷﾀﾋﾛｼﾏﾁｮｳ","kana_address":"ﾋｶﾞｼﾔﾜﾀﾊﾗ","pref":"広島県","city":"山県郡北広島町","address":"東八幡原"},
{"zip_code":"7313561","kana_pref":"ﾋﾛｼﾏｹﾝ","kana_city":"ﾔﾏｶﾞﾀｸﾞﾝｷﾀﾋﾛｼﾏﾁｮｳ","kana_address":"ﾎｿﾐ","pref":"広島県","city":"山県郡北広島町","address":"細見"},
{"zip_code":"7312322","kana_pref":"ﾋﾛｼﾏｹﾝ","kana_city":"ﾔﾏｶﾞﾀｸﾞﾝｷﾀﾋﾛｼﾏﾁｮｳ","kana_address":"ﾎｿﾐ","pref":"広島県","city":"山県郡北広島町","address":"細見"},
{"zip_code":"7311526","kana_pref":"ﾋﾛｼﾏｹﾝ","kana_city":"ﾔﾏｶﾞﾀｸﾞﾝｷﾀﾋﾛｼﾏﾁｮｳ","kana_address":"ﾎﾝｼﾞ","pref":"広島県","city":"山県郡北広島町","address":"本地"},
{"zip_code":"7312436","kana_pref":"ﾋﾛｼﾏｹﾝ","kana_city":"ﾔﾏｶﾞﾀｸﾞﾝｷﾀﾋﾛｼﾏﾁｮｳ","kana_address":"ﾏﾝﾄﾞｺﾛ","pref":"広島県","city":"山県郡北広島町","address":"政所"},
{"zip_code":"7312202","kana_pref":"ﾋﾛｼﾏｹﾝ","kana_city":"ﾔﾏｶﾞﾀｸﾞﾝｷﾀﾋﾛｼﾏﾁｮｳ","kana_address":"ﾐｿﾞｸﾞﾁ","pref":"広島県","city":"山県郡北広島町","address":"溝口"},
{"zip_code":"7311523","kana_pref":"ﾋﾛｼﾏｹﾝ","kana_city":"ﾔﾏｶﾞﾀｸﾞﾝｷﾀﾋﾛｼﾏﾁｮｳ","kana_address":"ﾐﾅﾐｶﾞﾀ","pref":"広島県","city":"山県郡北広島町","address":"南方"},
{"zip_code":"7311515","kana_pref":"ﾋﾛｼﾏｹﾝ","kana_city":"ﾔﾏｶﾞﾀｸﾞﾝｷﾀﾋﾛｼﾏﾁｮｳ","kana_address":"ﾐﾌﾞ","pref":"広島県","city":"山県郡北広島町","address":"壬生"},
{"zip_code":"7312101","kana_pref":"ﾋﾛｼﾏｹﾝ","kana_city":"ﾔﾏｶﾞﾀｸﾞﾝｷﾀﾋﾛｼﾏﾁｮｳ","kana_address":"ﾐﾔｻﾞｺ","pref":"広島県","city":"山県郡北広島町","address":"宮迫"},
{"zip_code":"7312441","kana_pref":"ﾋﾛｼﾏｹﾝ","kana_city":"ﾔﾏｶﾞﾀｸﾞﾝｷﾀﾋﾛｼﾏﾁｮｳ","kana_address":"ﾐﾔｼﾞ","pref":"広島県","city":"山県郡北広島町","address":"宮地"},
{"zip_code":"7311505","kana_pref":"ﾋﾛｼﾏｹﾝ","kana_city":"ﾔﾏｶﾞﾀｸﾞﾝｷﾀﾋﾛｼﾏﾁｮｳ","kana_address":"ﾓｳﾂﾅ","pref":"広島県","city":"山県郡北広島町","address":"舞綱"},
{"zip_code":"7311521","kana_pref":"ﾋﾛｼﾏｹﾝ","kana_city":"ﾔﾏｶﾞﾀｸﾞﾝｷﾀﾋﾛｼﾏﾁｮｳ","kana_address":"ﾖｵﾛﾎﾖﾊﾞﾗ","pref":"広島県","city":"山県郡北広島町","address":"丁保余原"},
{"zip_code":"7311714","kana_pref":"ﾋﾛｼﾏｹﾝ","kana_city":"ﾔﾏｶﾞﾀｸﾞﾝｷﾀﾋﾛｼﾏﾁｮｳ","kana_address":"ﾖｼｷ","pref":"広島県","city":"山県郡北広島町","address":"吉木"},
{"zip_code":"7311223","kana_pref":"ﾋﾛｼﾏｹﾝ","kana_city":"ﾔﾏｶﾞﾀｸﾞﾝｷﾀﾋﾛｼﾏﾁｮｳ","kana_address":"ﾖｼｷ","pref":"広島県","city":"山県郡北広島町","address":"吉木"},
{"zip_code":"7312433","kana_pref":"ﾋﾛｼﾏｹﾝ","kana_city":"ﾔﾏｶﾞﾀｸﾞﾝｷﾀﾋﾛｼﾏﾁｮｳ","kana_address":"ﾖｼﾐｻﾞｶ","pref":"広島県","city":"山県郡北広島町","address":"吉見坂"},
{"zip_code":"7312205","kana_pref":"ﾋﾛｼﾏｹﾝ","kana_city":"ﾔﾏｶﾞﾀｸﾞﾝｷﾀﾋﾛｼﾏﾁｮｳ","kana_address":"ﾖﾈｻﾞﾜ","pref":"広島県","city":"山県郡北広島町","address":"米沢"}]}