{"zip_code":[
{"zip_code":"7330000","kana_pref":"ﾋﾛｼﾏｹﾝ","kana_city":"ﾋﾛｼﾏｼﾆｼｸ","kana_address":"","pref":"広島県","city":"広島市西区","address":""},
{"zip_code":"7330845","kana_pref":"ﾋﾛｼﾏｹﾝ","kana_city":"ﾋﾛｼﾏｼﾆｼｸ","kana_address":"ｲﾉｸﾁﾁｮｳ","pref":"広島県","city":"広島市西区","address":"井口町"},
{"zip_code":"7330842","kana_pref":"ﾋﾛｼﾏｹﾝ","kana_city":"ﾋﾛｼﾏｼﾆｼｸ","kana_address":"ｲﾉｸﾁ","pref":"広島県","city":"広島市西区","address":"井口"},
{"zip_code":"7330843","kana_pref":"ﾋﾛｼﾏｹﾝ","kana_city":"ﾋﾛｼﾏｼﾆｼｸ","kana_address":"ｲﾉｸﾁｽｽﾞｶﾞﾀﾞｲ","pref":"広島県","city":"広島市西区","address":"井口鈴が台"},
{"zip_code":"7330841","kana_pref":"ﾋﾛｼﾏｹﾝ","kana_city":"ﾋﾛｼﾏｼﾆｼｸ","kana_address":"ｲﾉｸﾁﾐｮｳｼﾞﾝ","pref":"広島県","city":"広島市西区","address":"井口明神"},
{"zip_code":"7330844","kana_pref":"ﾋﾛｼﾏｹﾝ","kana_city":"ﾋﾛｼﾏｼﾆｼｸ","kana_address":"ｲﾉｸﾁﾀﾞｲ","pref":"広島県","city":"広島市西区","address":"井口台"},
{"zip_code":"7330004","kana_pref":"ﾋﾛｼﾏｹﾝ","kana_city":"ﾋﾛｼﾏｼﾆｼｸ","kana_address":"ｳﾁｺｼﾁｮｳ","pref":"広島県","city":"広島市西区","address":"打越町"},
{"zip_code":"7330831","kana_pref":"ﾋﾛｼﾏｹﾝ","kana_city":"ﾋﾛｼﾏｼﾆｼｸ","kana_address":"ｵｵｷﾞ","pref":"広島県","city":"広島市西区","address":"扇"},
{"zip_code":"7330001","kana_pref":"ﾋﾛｼﾏｹﾝ","kana_city":"ﾋﾛｼﾏｼﾆｼｸ","kana_address":"ｵｵｼﾊﾞ","pref":"広島県","city":"広島市西区","address":"大芝"},
{"zip_code":"7330007","kana_pref":"ﾋﾛｼﾏｹﾝ","kana_city":"ﾋﾛｼﾏｼﾆｼｸ","kana_address":"ｵｵﾐﾔ","pref":"広島県","city":"広島市西区","address":"大宮"},
{"zip_code":"7330025","kana_pref":"ﾋﾛｼﾏｹﾝ","kana_city":"ﾋﾛｼﾏｼﾆｼｸ","kana_address":"ｵｶﾞﾜﾁﾏﾁ","pref":"広島県","city":"広島市西区","address":"小河内町"},
{"zip_code":"7330021","kana_pref":"ﾋﾛｼﾏｹﾝ","kana_city":"ﾋﾛｼﾏｼﾆｼｸ","kana_address":"ｶﾐﾃﾝﾏﾁｮｳ","pref":"広島県","city":"広島市西区","address":"上天満町"},
{"zip_code":"7330036","kana_pref":"ﾋﾛｼﾏｹﾝ","kana_city":"ﾋﾛｼﾏｼﾆｼｸ","kana_address":"ｶﾝｵﾝｼﾝﾏﾁ","pref":"広島県","city":"広島市西区","address":"観音新町"},
{"zip_code":"7330033","kana_pref":"ﾋﾛｼﾏｹﾝ","kana_city":"ﾋﾛｼﾏｼﾆｼｸ","kana_address":"ｶﾝｵﾝﾎﾝﾏﾁ","pref":"広島県","city":"広島市西区","address":"観音本町"},
{"zip_code":"7330031","kana_pref":"ﾋﾛｼﾏｹﾝ","kana_city":"ﾋﾛｼﾏｼﾆｼｸ","kana_address":"ｶﾝｵﾝﾏﾁ","pref":"広島県","city":"広島市西区","address":"観音町"},
{"zip_code":"7330864","kana_pref":"ﾋﾛｼﾏｹﾝ","kana_city":"ﾋﾛｼﾏｼﾆｼｸ","kana_address":"ｸｻﾂｳﾒｶﾞﾀﾞｲ","pref":"広島県","city":"広島市西区","address":"草津梅が台"},
{"zip_code":"7330834","kana_pref":"ﾋﾛｼﾏｹﾝ","kana_city":"ﾋﾛｼﾏｼﾆｼｸ","kana_address":"ｸｻﾂｼﾝﾏﾁ","pref":"広島県","city":"広島市西区","address":"草津新町"},
{"zip_code":"7330862","kana_pref":"ﾋﾛｼﾏｹﾝ","kana_city":"ﾋﾛｼﾏｼﾆｼｸ","kana_address":"ｸｻﾂﾊﾏﾏﾁ","pref":"広島県","city":"広島市西区","address":"草津浜町"},
{"zip_code":"7330865","kana_pref":"ﾋﾛｼﾏｹﾝ","kana_city":"ﾋﾛｼﾏｼﾆｼｸ","kana_address":"ｸｻﾂﾎﾝﾏﾁ","pref":"広島県","city":"広島市西区","address":"草津本町"},
{"zip_code":"7330861","kana_pref":"ﾋﾛｼﾏｹﾝ","kana_city":"ﾋﾛｼﾏｼﾆｼｸ","kana_address":"ｸｻﾂﾋｶﾞｼ","pref":"広島県","city":"広島市西区","address":"草津東"},
{"zip_code":"7330863","kana_pref":"ﾋﾛｼﾏｹﾝ","kana_city":"ﾋﾛｼﾏｼﾆｼｸ","kana_address":"ｸｻﾂﾐﾅﾐ","pref":"広島県","city":"広島市西区","address":"草津南"},
{"zip_code":"7330832","kana_pref":"ﾋﾛｼﾏｹﾝ","kana_city":"ﾋﾛｼﾏｼﾆｼｸ","kana_address":"ｸｻﾂｺｳ","pref":"広島県","city":"広島市西区","address":"草津港"},
{"zip_code":"7330002","kana_pref":"ﾋﾛｼﾏｹﾝ","kana_city":"ﾋﾛｼﾏｼﾆｼｸ","kana_address":"ｸｽﾉｷﾁｮｳ","pref":"広島県","city":"広島市西区","address":"楠木町"},
{"zip_code":"7330815","kana_pref":"ﾋﾛｼﾏｹﾝ","kana_city":"ﾋﾛｼﾏｼﾆｼｸ","kana_address":"ｺｲｳｴ","pref":"広島県","city":"広島市西区","address":"己斐上"},
{"zip_code":"7330816","kana_pref":"ﾋﾛｼﾏｹﾝ","kana_city":"ﾋﾛｼﾏｼﾆｼｸ","kana_address":"ｺｲｵｵｻｺ","pref":"広島県","city":"広島市西区","address":"己斐大迫"},
{"zip_code":"7330813","kana_pref":"ﾋﾛｼﾏｹﾝ","kana_city":"ﾋﾛｼﾏｼﾆｼｸ","kana_address":"ｺｲﾅｶ","pref":"広島県","city":"広島市西区","address":"己斐中"},
{"zip_code":"7330814","kana_pref":"ﾋﾛｼﾏｹﾝ","kana_city":"ﾋﾛｼﾏｼﾆｼｸ","kana_address":"ｺｲﾆｼﾏﾁ","pref":"広島県","city":"広島市西区","address":"己斐西町"},
{"zip_code":"7330812","kana_pref":"ﾋﾛｼﾏｹﾝ","kana_city":"ﾋﾛｼﾏｼﾆｼｸ","kana_address":"ｺｲﾎﾝﾏﾁ","pref":"広島県","city":"広島市西区","address":"己斐本町"},
{"zip_code":"7330811","kana_pref":"ﾋﾛｼﾏｹﾝ","kana_city":"ﾋﾛｼﾏｼﾆｼｸ","kana_address":"ｺｲﾋｶﾞｼ","pref":"広島県","city":"広島市西区","address":"己斐東"},
{"zip_code":"7330822","kana_pref":"ﾋﾛｼﾏｹﾝ","kana_city":"ﾋﾛｼﾏｼﾆｼｸ","kana_address":"ｺｳｺﾞﾅｶ","pref":"広島県","city":"広島市西区","address":"庚午中"},
{"zip_code":"7330823","kana_pref":"ﾋﾛｼﾏｹﾝ","kana_city":"ﾋﾛｼﾏｼﾆｼｸ","kana_address":"ｺｳｺﾞﾐﾅﾐ","pref":"広島県","city":"広島市西区","address":"庚午南"},
{"zip_code":"7330821","kana_pref":"ﾋﾛｼﾏｹﾝ","kana_city":"ﾋﾛｼﾏｼﾆｼｸ","kana_address":"ｺｳｺﾞｷﾀ","pref":"広島県","city":"広島市西区","address":"庚午北"},
{"zip_code":"7330833","kana_pref":"ﾋﾛｼﾏｹﾝ","kana_city":"ﾋﾛｼﾏｼﾆｼｸ","kana_address":"ｼｮｳｺｳｾﾝﾀｰ","pref":"広島県","city":"広島市西区","address":"商工センター"},
{"zip_code":"7330801","kana_pref":"ﾋﾛｼﾏｹﾝ","kana_city":"ﾋﾛｼﾏｼﾆｼｸ","kana_address":"ｼﾝｼﾞｮｳﾁｮｳ","pref":"広島県","city":"広島市西区","address":"新庄町"},
{"zip_code":"7330852","kana_pref":"ﾋﾛｼﾏｹﾝ","kana_city":"ﾋﾛｼﾏｼﾆｼｸ","kana_address":"ｽｽﾞｶﾞﾐﾈﾁｮｳ","pref":"広島県","city":"広島市西区","address":"鈴が峰町"},
{"zip_code":"7330871","kana_pref":"ﾋﾛｼﾏｹﾝ","kana_city":"ﾋﾛｼﾏｼﾆｼｸ","kana_address":"ﾀｶｽ","pref":"広島県","city":"広島市西区","address":"高須"},
{"zip_code":"7330876","kana_pref":"ﾋﾛｼﾏｹﾝ","kana_city":"ﾋﾛｼﾏｼﾆｼｸ","kana_address":"ﾀｶｽﾀﾞｲ","pref":"広島県","city":"広島市西区","address":"高須台"},
{"zip_code":"7330851","kana_pref":"ﾋﾛｼﾏｹﾝ","kana_city":"ﾋﾛｼﾏｼﾆｼｸ","kana_address":"ﾀｶﾀ","pref":"広島県","city":"広島市西区","address":"田方"},
{"zip_code":"7330022","kana_pref":"ﾋﾛｼﾏｹﾝ","kana_city":"ﾋﾛｼﾏｼﾆｼｸ","kana_address":"ﾃﾝﾏﾁｮｳ","pref":"広島県","city":"広島市西区","address":"天満町"},
{"zip_code":"7330012","kana_pref":"ﾋﾛｼﾏｹﾝ","kana_city":"ﾋﾛｼﾏｼﾆｼｸ","kana_address":"ﾅｶﾋﾛﾏﾁ","pref":"広島県","city":"広島市西区","address":"中広町"},
{"zip_code":"7330037","kana_pref":"ﾋﾛｼﾏｹﾝ","kana_city":"ﾋﾛｼﾏｼﾆｼｸ","kana_address":"ﾆｼｶﾝｵﾝﾏﾁ","pref":"広島県","city":"広島市西区","address":"西観音町"},
{"zip_code":"7330032","kana_pref":"ﾋﾛｼﾏｹﾝ","kana_city":"ﾋﾛｼﾏｼﾆｼｸ","kana_address":"ﾋｶﾞｼｶﾝｵﾝﾏﾁ","pref":"広島県","city":"広島市西区","address":"東観音町"},
{"zip_code":"7330024","kana_pref":"ﾋﾛｼﾏｹﾝ","kana_city":"ﾋﾛｼﾏｼﾆｼｸ","kana_address":"ﾌｸｼﾏﾁｮｳ","pref":"広島県","city":"広島市西区","address":"福島町"},
{"zip_code":"7330875","kana_pref":"ﾋﾛｼﾏｹﾝ","kana_city":"ﾋﾛｼﾏｼﾆｼｸ","kana_address":"ﾌﾙｴｳｴ","pref":"広島県","city":"広島市西区","address":"古江上"},
{"zip_code":"7330873","kana_pref":"ﾋﾛｼﾏｹﾝ","kana_city":"ﾋﾛｼﾏｼﾆｼｸ","kana_address":"ﾌﾙｴｼﾝﾏﾁ","pref":"広島県","city":"広島市西区","address":"古江新町"},
{"zip_code":"7330872","kana_pref":"ﾋﾛｼﾏｹﾝ","kana_city":"ﾋﾛｼﾏｼﾆｼｸ","kana_address":"ﾌﾙｴﾋｶﾞｼﾏﾁ","pref":"広島県","city":"広島市西区","address":"古江東町"},
{"zip_code":"7330874","kana_pref":"ﾋﾛｼﾏｹﾝ","kana_city":"ﾋﾛｼﾏｼﾆｼｸ","kana_address":"ﾌﾙｴﾆｼﾏﾁ","pref":"広島県","city":"広島市西区","address":"古江西町"},
{"zip_code":"7330877","kana_pref":"ﾋﾛｼﾏｹﾝ","kana_city":"ﾋﾛｼﾏｼﾆｼｸ","kana_address":"ﾌﾙﾀﾀﾞｲ","pref":"広島県","city":"広島市西区","address":"古田台"},
{"zip_code":"7330006","kana_pref":"ﾋﾛｼﾏｹﾝ","kana_city":"ﾋﾛｼﾏｼﾆｼｸ","kana_address":"ﾐｻｻｷﾀﾏﾁ","pref":"広島県","city":"広島市西区","address":"三篠北町"},
{"zip_code":"7330003","kana_pref":"ﾋﾛｼﾏｹﾝ","kana_city":"ﾋﾛｼﾏｼﾆｼｸ","kana_address":"ﾐｻｻﾏﾁ","pref":"広島県","city":"広島市西区","address":"三篠町"},
{"zip_code":"7330802","kana_pref":"ﾋﾛｼﾏｹﾝ","kana_city":"ﾋﾛｼﾏｼﾆｼｸ","kana_address":"ﾐﾀｷﾎﾝﾏﾁ","pref":"広島県","city":"広島市西区","address":"三滝本町"},
{"zip_code":"7330005","kana_pref":"ﾋﾛｼﾏｹﾝ","kana_city":"ﾋﾛｼﾏｼﾆｼｸ","kana_address":"ﾐﾀｷﾏﾁ","pref":"広島県","city":"広島市西区","address":"三滝町"},
{"zip_code":"7330805","kana_pref":"ﾋﾛｼﾏｹﾝ","kana_city":"ﾋﾛｼﾏｼﾆｼｸ","kana_address":"ﾐﾀｷﾔﾏ","pref":"広島県","city":"広島市西区","address":"三滝山"},
{"zip_code":"7330035","kana_pref":"ﾋﾛｼﾏｹﾝ","kana_city":"ﾋﾛｼﾏｼﾆｼｸ","kana_address":"ﾐﾅﾐｶﾝｵﾝ","pref":"広島県","city":"広島市西区","address":"南観音"},
{"zip_code":"7330034","kana_pref":"ﾋﾛｼﾏｹﾝ","kana_city":"ﾋﾛｼﾏｼﾆｼｸ","kana_address":"ﾐﾅﾐｶﾝｵﾝﾏﾁ","pref":"広島県","city":"広島市西区","address":"南観音町"},
{"zip_code":"7330023","kana_pref":"ﾋﾛｼﾏｹﾝ","kana_city":"ﾋﾛｼﾏｼﾆｼｸ","kana_address":"ﾐﾔｺﾏﾁ","pref":"広島県","city":"広島市西区","address":"都町"},
{"zip_code":"7330853","kana_pref":"ﾋﾛｼﾏｹﾝ","kana_city":"ﾋﾛｼﾏｼﾆｼｸ","kana_address":"ﾔﾏﾀﾞｼﾝﾏﾁ","pref":"広島県","city":"広島市西区","address":"山田新町"},
{"zip_code":"7330854","kana_pref":"ﾋﾛｼﾏｹﾝ","kana_city":"ﾋﾛｼﾏｼﾆｼｸ","kana_address":"ﾔﾏﾀﾞﾁｮｳ","pref":"広島県","city":"広島市西区","address":"山田町"},
{"zip_code":"7330804","kana_pref":"ﾋﾛｼﾏｹﾝ","kana_city":"ﾋﾛｼﾏｼﾆｼｸ","kana_address":"ﾔﾏﾃﾁｮｳ","pref":"広島県","city":"広島市西区","address":"山手町"},
{"zip_code":"7330013","kana_pref":"ﾋﾛｼﾏｹﾝ","kana_city":"ﾋﾛｼﾏｼﾆｼｸ","kana_address":"ﾖｺｶﾞﾜｼﾝﾏﾁ","pref":"広島県","city":"広島市西区","address":"横川新町"},
{"zip_code":"7330011","kana_pref":"ﾋﾛｼﾏｹﾝ","kana_city":"ﾋﾛｼﾏｼﾆｼｸ","kana_address":"ﾖｺｶﾞﾜﾁｮｳ","pref":"広島県","city":"広島市西区","address":"横川町"},
{"zip_code":"7330803","kana_pref":"ﾋﾛｼﾏｹﾝ","kana_city":"ﾋﾛｼﾏｼﾆｼｸ","kana_address":"ﾘｭｳｵｳﾁｮｳ","pref":"広島県","city":"広島市西区","address":"竜王町"}]}