{"zip_code":[
{"zip_code":"7350000","kana_pref":"ﾋﾛｼﾏｹﾝ","kana_city":"ｱｷｸﾞﾝﾌﾁｭｳﾁｮｳ","kana_address":"","pref":"広島県","city":"安芸郡府中町","address":""},
{"zip_code":"7350016","kana_pref":"ﾋﾛｼﾏｹﾝ","kana_city":"ｱｷｸﾞﾝﾌﾁｭｳﾁｮｳ","kana_address":"ｱｵｻｷﾅｶ","pref":"広島県","city":"安芸郡府中町","address":"青崎中"},
{"zip_code":"7350015","kana_pref":"ﾋﾛｼﾏｹﾝ","kana_city":"ｱｷｸﾞﾝﾌﾁｭｳﾁｮｳ","kana_address":"ｱｵｻｷﾋｶﾞｼ","pref":"広島県","city":"安芸郡府中町","address":"青崎東"},
{"zip_code":"7350017","kana_pref":"ﾋﾛｼﾏｹﾝ","kana_city":"ｱｷｸﾞﾝﾌﾁｭｳﾁｮｳ","kana_address":"ｱｵｻｷﾐﾅﾐ","pref":"広島県","city":"安芸郡府中町","address":"青崎南"},
{"zip_code":"7350007","kana_pref":"ﾋﾛｼﾏｹﾝ","kana_city":"ｱｷｸﾞﾝﾌﾁｭｳﾁｮｳ","kana_address":"ｲｼｲｼﾞｮｳ","pref":"広島県","city":"安芸郡府中町","address":"石井城"},
{"zip_code":"7350021","kana_pref":"ﾋﾛｼﾏｹﾝ","kana_city":"ｱｷｸﾞﾝﾌﾁｭｳﾁｮｳ","kana_address":"ｵｵｽ","pref":"広島県","city":"安芸郡府中町","address":"大須"},
{"zip_code":"7350022","kana_pref":"ﾋﾛｼﾏｹﾝ","kana_city":"ｱｷｸﾞﾝﾌﾁｭｳﾁｮｳ","kana_address":"ｵｵﾄﾞｵﾘ","pref":"広島県","city":"安芸郡府中町","address":"大通"},
{"zip_code":"7350025","kana_pref":"ﾋﾛｼﾏｹﾝ","kana_city":"ｱｷｸﾞﾝﾌﾁｭｳﾁｮｳ","kana_address":"ｺｺﾞﾓﾘ","pref":"広島県","city":"安芸郡府中町","address":"鹿籠"},
{"zip_code":"7350001","kana_pref":"ﾋﾛｼﾏｹﾝ","kana_city":"ｱｷｸﾞﾝﾌﾁｭｳﾁｮｳ","kana_address":"ｻｸﾗｶﾞｵｶ","pref":"広島県","city":"安芸郡府中町","address":"桜ケ丘"},
{"zip_code":"7350002","kana_pref":"ﾋﾛｼﾏｹﾝ","kana_city":"ｱｷｸﾞﾝﾌﾁｭｳﾁｮｳ","kana_address":"ｼﾐｽﾞｶﾞｵｶ","pref":"広島県","city":"安芸郡府中町","address":"清水ケ丘"},
{"zip_code":"7350009","kana_pref":"ﾋﾛｼﾏｹﾝ","kana_city":"ｱｷｸﾞﾝﾌﾁｭｳﾁｮｳ","kana_address":"ｼﾞｮｳｶﾞｵｶ","pref":"広島県","city":"安芸郡府中町","address":"城ケ丘"},
{"zip_code":"7350028","kana_pref":"ﾋﾛｼﾏｹﾝ","kana_city":"ｱｷｸﾞﾝﾌﾁｭｳﾁｮｳ","kana_address":"ｼﾝﾁ","pref":"広島県","city":"安芸郡府中町","address":"新地"},
{"zip_code":"7350011","kana_pref":"ﾋﾛｼﾏｹﾝ","kana_city":"ｱｷｸﾞﾝﾌﾁｭｳﾁｮｳ","kana_address":"ｾﾄﾊｲﾑ","pref":"広島県","city":"安芸郡府中町","address":"瀬戸ハイム"},
{"zip_code":"7350027","kana_pref":"ﾋﾛｼﾏｹﾝ","kana_city":"ｱｷｸﾞﾝﾌﾁｭｳﾁｮｳ","kana_address":"ｾﾝﾀﾞｲ","pref":"広島県","city":"安芸郡府中町","address":"千代"},
{"zip_code":"7350008","kana_pref":"ﾋﾛｼﾏｹﾝ","kana_city":"ｱｷｸﾞﾝﾌﾁｭｳﾁｮｳ","kana_address":"ﾂﾙｴ","pref":"広島県","city":"安芸郡府中町","address":"鶴江"},
{"zip_code":"7350013","kana_pref":"ﾋﾛｼﾏｹﾝ","kana_city":"ｱｷｸﾞﾝﾌﾁｭｳﾁｮｳ","kana_address":"ﾊﾏﾀﾞ","pref":"広島県","city":"安芸郡府中町","address":"浜田"},
{"zip_code":"7350023","kana_pref":"ﾋﾛｼﾏｹﾝ","kana_city":"ｱｷｸﾞﾝﾌﾁｭｳﾁｮｳ","kana_address":"ﾊﾏﾀﾞﾎﾝﾏﾁ","pref":"広島県","city":"安芸郡府中町","address":"浜田本町"},
{"zip_code":"7350006","kana_pref":"ﾋﾛｼﾏｹﾝ","kana_city":"ｱｷｸﾞﾝﾌﾁｭｳﾁｮｳ","kana_address":"ﾎﾝﾏﾁ","pref":"広島県","city":"安芸郡府中町","address":"本町"},
{"zip_code":"7350003","kana_pref":"ﾋﾛｼﾏｹﾝ","kana_city":"ｱｷｸﾞﾝﾌﾁｭｳﾁｮｳ","kana_address":"ﾐｸﾏﾘ","pref":"広島県","city":"安芸郡府中町","address":"みくまり"},
{"zip_code":"7350024","kana_pref":"ﾋﾛｼﾏｹﾝ","kana_city":"ｱｷｸﾞﾝﾌﾁｭｳﾁｮｳ","kana_address":"ﾐﾄﾞﾘｶﾞｵｶ","pref":"広島県","city":"安芸郡府中町","address":"緑ケ丘"},
{"zip_code":"7350005","kana_pref":"ﾋﾛｼﾏｹﾝ","kana_city":"ｱｷｸﾞﾝﾌﾁｭｳﾁｮｳ","kana_address":"ﾐﾔﾉﾏﾁ","pref":"広島県","city":"安芸郡府中町","address":"宮の町"},
{"zip_code":"7350029","kana_pref":"ﾋﾛｼﾏｹﾝ","kana_city":"ｱｷｸﾞﾝﾌﾁｭｳﾁｮｳ","kana_address":"ﾓｶｹﾞ","pref":"広島県","city":"安芸郡府中町","address":"茂陰"},
{"zip_code":"7350026","kana_pref":"ﾋﾛｼﾏｹﾝ","kana_city":"ｱｷｸﾞﾝﾌﾁｭｳﾁｮｳ","kana_address":"ﾓﾓﾔﾏ","pref":"広島県","city":"安芸郡府中町","address":"桃山"},
{"zip_code":"7350014","kana_pref":"ﾋﾛｼﾏｹﾝ","kana_city":"ｱｷｸﾞﾝﾌﾁｭｳﾁｮｳ","kana_address":"ﾔﾅｷﾞｶﾞｵｶ","pref":"広島県","city":"安芸郡府中町","address":"柳ケ丘"},
{"zip_code":"7350012","kana_pref":"ﾋﾛｼﾏｹﾝ","kana_city":"ｱｷｸﾞﾝﾌﾁｭｳﾁｮｳ","kana_address":"ﾔﾊﾀ","pref":"広島県","city":"安芸郡府中町","address":"八幡"},
{"zip_code":"7350004","kana_pref":"ﾋﾛｼﾏｹﾝ","kana_city":"ｱｷｸﾞﾝﾌﾁｭｳﾁｮｳ","kana_address":"ﾔﾏﾀﾞ","pref":"広島県","city":"安芸郡府中町","address":"山田"}]}