{"zip_code":[
{"zip_code":"7360000","kana_pref":"ﾋﾛｼﾏｹﾝ","kana_city":"ﾋﾛｼﾏｼｱｷｸ","kana_address":"","pref":"広島県","city":"広島市安芸区","address":""},
{"zip_code":"7360088","kana_pref":"ﾋﾛｼﾏｹﾝ","kana_city":"ﾋﾛｼﾏｼｱｷｸ","kana_address":"ﾊﾀｶ","pref":"広島県","city":"広島市安芸区","address":"畑賀"},
{"zip_code":"7360089","kana_pref":"ﾋﾛｼﾏｹﾝ","kana_city":"ﾋﾛｼﾏｼｱｷｸ","kana_address":"ﾊﾀｶﾁｮｳ","pref":"広島県","city":"広島市安芸区","address":"畑賀町"},
{"zip_code":"7360081","kana_pref":"ﾋﾛｼﾏｹﾝ","kana_city":"ﾋﾛｼﾏｼｱｷｸ","kana_address":"ﾌﾅｺｼ","pref":"広島県","city":"広島市安芸区","address":"船越"},
{"zip_code":"7360082","kana_pref":"ﾋﾛｼﾏｹﾝ","kana_city":"ﾋﾛｼﾏｼｱｷｸ","kana_address":"ﾌﾅｺｼﾐﾅﾐ","pref":"広島県","city":"広島市安芸区","address":"船越南"},
{"zip_code":"7360084","kana_pref":"ﾋﾛｼﾏｹﾝ","kana_city":"ﾋﾛｼﾏｼｱｷｸ","kana_address":"ﾔﾉｼﾝﾏﾁ","pref":"広島県","city":"広島市安芸区","address":"矢野新町"},
{"zip_code":"7360087","kana_pref":"ﾋﾛｼﾏｹﾝ","kana_city":"ﾋﾛｼﾏｼｱｷｸ","kana_address":"ﾔﾉﾁｮｳ","pref":"広島県","city":"広島市安芸区","address":"矢野町"},
{"zip_code":"7360083","kana_pref":"ﾋﾛｼﾏｹﾝ","kana_city":"ﾋﾛｼﾏｼｱｷｸ","kana_address":"ﾔﾉﾋｶﾞｼ","pref":"広島県","city":"広島市安芸区","address":"矢野東"},
{"zip_code":"7360085","kana_pref":"ﾋﾛｼﾏｹﾝ","kana_city":"ﾋﾛｼﾏｼｱｷｸ","kana_address":"ﾔﾉﾆｼ","pref":"広島県","city":"広島市安芸区","address":"矢野西"},
{"zip_code":"7360086","kana_pref":"ﾋﾛｼﾏｹﾝ","kana_city":"ﾋﾛｼﾏｼｱｷｸ","kana_address":"ﾔﾉﾐﾅﾐ","pref":"広島県","city":"広島市安芸区","address":"矢野南"},
{"zip_code":"7360000","kana_pref":"ﾋﾛｼﾏｹﾝ","kana_city":"ｱｷｸﾞﾝｶｲﾀﾁｮｳ","kana_address":"","pref":"広島県","city":"安芸郡海田町","address":""},
{"zip_code":"7360031","kana_pref":"ﾋﾛｼﾏｹﾝ","kana_city":"ｱｷｸﾞﾝｶｲﾀﾁｮｳ","kana_address":"ｱｹﾎﾞﾉﾏﾁ","pref":"広島県","city":"安芸郡海田町","address":"曙町"},
{"zip_code":"7360004","kana_pref":"ﾋﾛｼﾏｹﾝ","kana_city":"ｱｷｸﾞﾝｶｲﾀﾁｮｳ","kana_address":"ｲｼﾊﾗ","pref":"広島県","city":"安芸郡海田町","address":"石原"},
{"zip_code":"7360012","kana_pref":"ﾋﾛｼﾏｹﾝ","kana_city":"ｱｷｸﾞﾝｶｲﾀﾁｮｳ","kana_address":"ｲﾅﾊﾞ","pref":"広島県","city":"安芸郡海田町","address":"稲葉"},
{"zip_code":"7360067","kana_pref":"ﾋﾛｼﾏｹﾝ","kana_city":"ｱｷｸﾞﾝｶｲﾀﾁｮｳ","kana_address":"ｲﾅﾘﾏﾁ","pref":"広島県","city":"安芸郡海田町","address":"稲荷町"},
{"zip_code":"7360005","kana_pref":"ﾋﾛｼﾏｹﾝ","kana_city":"ｱｷｸﾞﾝｶｲﾀﾁｮｳ","kana_address":"ｳﾈ","pref":"広島県","city":"安芸郡海田町","address":"畝"},
{"zip_code":"7360025","kana_pref":"ﾋﾛｼﾏｹﾝ","kana_city":"ｱｷｸﾞﾝｶｲﾀﾁｮｳ","kana_address":"ｵｵﾀﾞﾃﾏﾁ","pref":"広島県","city":"安芸郡海田町","address":"大立町"},
{"zip_code":"7360022","kana_pref":"ﾋﾛｼﾏｹﾝ","kana_city":"ｱｷｸﾞﾝｶｲﾀﾁｮｳ","kana_address":"ｶﾆﾊﾗ","pref":"広島県","city":"安芸郡海田町","address":"蟹原"},
{"zip_code":"7360061","kana_pref":"ﾋﾛｼﾏｹﾝ","kana_city":"ｱｷｸﾞﾝｶｲﾀﾁｮｳ","kana_address":"ｶﾐｲﾁ","pref":"広島県","city":"安芸郡海田町","address":"上市"},
{"zip_code":"7360002","kana_pref":"ﾋﾛｼﾏｹﾝ","kana_city":"ｱｷｸﾞﾝｶｲﾀﾁｮｳ","kana_address":"ｸﾆﾉﾌﾞ","pref":"広島県","city":"安芸郡海田町","address":"国信"},
{"zip_code":"7360046","kana_pref":"ﾋﾛｼﾏｹﾝ","kana_city":"ｱｷｸﾞﾝｶｲﾀﾁｮｳ","kana_address":"ｸﾎﾞﾏﾁ","pref":"広島県","city":"安芸郡海田町","address":"窪町"},
{"zip_code":"7360053","kana_pref":"ﾋﾛｼﾏｹﾝ","kana_city":"ｱｷｸﾞﾝｶｲﾀﾁｮｳ","kana_address":"ｺﾄﾌﾞｷﾏﾁ","pref":"広島県","city":"安芸郡海田町","address":"寿町"},
{"zip_code":"7360026","kana_pref":"ﾋﾛｼﾏｹﾝ","kana_city":"ｱｷｸﾞﾝｶｲﾀﾁｮｳ","kana_address":"ｻｲﾜｲﾏﾁ","pref":"広島県","city":"安芸郡海田町","address":"幸町"},
{"zip_code":"7360043","kana_pref":"ﾋﾛｼﾏｹﾝ","kana_city":"ｱｷｸﾞﾝｶｲﾀﾁｮｳ","kana_address":"ｻｶｴﾏﾁ","pref":"広島県","city":"安芸郡海田町","address":"栄町"},
{"zip_code":"7360064","kana_pref":"ﾋﾛｼﾏｹﾝ","kana_city":"ｱｷｸﾞﾝｶｲﾀﾁｮｳ","kana_address":"ｼｮｳﾜﾅｶﾏﾁ","pref":"広島県","city":"安芸郡海田町","address":"昭和中町"},
{"zip_code":"7360062","kana_pref":"ﾋﾛｼﾏｹﾝ","kana_city":"ｱｷｸﾞﾝｶｲﾀﾁｮｳ","kana_address":"ｼｮｳﾜﾏﾁ","pref":"広島県","city":"安芸郡海田町","address":"昭和町"},
{"zip_code":"7360068","kana_pref":"ﾋﾛｼﾏｹﾝ","kana_city":"ｱｷｸﾞﾝｶｲﾀﾁｮｳ","kana_address":"ｼﾝﾏﾁ","pref":"広島県","city":"安芸郡海田町","address":"新町"},
{"zip_code":"7360001","kana_pref":"ﾋﾛｼﾏｹﾝ","kana_city":"ｱｷｸﾞﾝｶｲﾀﾁｮｳ","kana_address":"ｽﾅﾊﾞｼﾘ","pref":"広島県","city":"安芸郡海田町","address":"砂走"},
{"zip_code":"7360003","kana_pref":"ﾋﾛｼﾏｹﾝ","kana_city":"ｱｷｸﾞﾝｶｲﾀﾁｮｳ","kana_address":"ｿﾀﾞ","pref":"広島県","city":"安芸郡海田町","address":"曽田"},
{"zip_code":"7360041","kana_pref":"ﾋﾛｼﾏｹﾝ","kana_city":"ｱｷｸﾞﾝｶｲﾀﾁｮｳ","kana_address":"ﾀｲｼｮｳﾏﾁ","pref":"広島県","city":"安芸郡海田町","address":"大正町"},
{"zip_code":"7360034","kana_pref":"ﾋﾛｼﾏｹﾝ","kana_city":"ｱｷｸﾞﾝｶｲﾀﾁｮｳ","kana_address":"ﾂｷﾐﾏﾁ","pref":"広島県","city":"安芸郡海田町","address":"月見町"},
{"zip_code":"7360051","kana_pref":"ﾋﾛｼﾏｹﾝ","kana_city":"ｱｷｸﾞﾝｶｲﾀﾁｮｳ","kana_address":"ﾂｸﾓﾏﾁ","pref":"広島県","city":"安芸郡海田町","address":"つくも町"},
{"zip_code":"7360011","kana_pref":"ﾋﾛｼﾏｹﾝ","kana_city":"ｱｷｸﾞﾝｶｲﾀﾁｮｳ","kana_address":"ﾃﾗｻｺ","pref":"広島県","city":"安芸郡海田町","address":"寺迫"},
{"zip_code":"7360066","kana_pref":"ﾋﾛｼﾏｹﾝ","kana_city":"ｱｷｸﾞﾝｶｲﾀﾁｮｳ","kana_address":"ﾅｶﾐｾ","pref":"広島県","city":"安芸郡海田町","address":"中店"},
{"zip_code":"7360021","kana_pref":"ﾋﾛｼﾏｹﾝ","kana_city":"ｱｷｸﾞﾝｶｲﾀﾁｮｳ","kana_address":"ﾅﾘﾓﾄ","pref":"広島県","city":"安芸郡海田町","address":"成本"},
{"zip_code":"7360024","kana_pref":"ﾋﾛｼﾏｹﾝ","kana_city":"ｱｷｸﾞﾝｶｲﾀﾁｮｳ","kana_address":"ﾆｼﾊﾏ","pref":"広島県","city":"安芸郡海田町","address":"西浜"},
{"zip_code":"7360054","kana_pref":"ﾋﾛｼﾏｹﾝ","kana_city":"ｱｷｸﾞﾝｶｲﾀﾁｮｳ","kana_address":"ﾆｼﾐｮｳｼﾞﾝﾏﾁ","pref":"広島県","city":"安芸郡海田町","address":"西明神町"},
{"zip_code":"7360023","kana_pref":"ﾋﾛｼﾏｹﾝ","kana_city":"ｱｷｸﾞﾝｶｲﾀﾁｮｳ","kana_address":"ﾊﾏｶﾄﾞ","pref":"広島県","city":"安芸郡海田町","address":"浜角"},
{"zip_code":"7360013","kana_pref":"ﾋﾛｼﾏｹﾝ","kana_city":"ｱｷｸﾞﾝｶｲﾀﾁｮｳ","kana_address":"ﾋｶﾞｼ","pref":"広島県","city":"安芸郡海田町","address":"東"},
{"zip_code":"7360071","kana_pref":"ﾋﾛｼﾏｹﾝ","kana_city":"ｱｷｸﾞﾝｶｲﾀﾁｮｳ","kana_address":"ﾋｶﾞｼｶｲﾀ","pref":"広島県","city":"安芸郡海田町","address":"東海田"},
{"zip_code":"7360063","kana_pref":"ﾋﾛｼﾏｹﾝ","kana_city":"ｱｷｸﾞﾝｶｲﾀﾁｮｳ","kana_address":"ﾋｶﾞｼｼｮｳﾜﾏﾁ","pref":"広島県","city":"安芸郡海田町","address":"東昭和町"},
{"zip_code":"7360035","kana_pref":"ﾋﾛｼﾏｹﾝ","kana_city":"ｱｷｸﾞﾝｶｲﾀﾁｮｳ","kana_address":"ﾋﾉﾃﾞﾏﾁ","pref":"広島県","city":"安芸郡海田町","address":"日の出町"},
{"zip_code":"7360045","kana_pref":"ﾋﾛｼﾏｹﾝ","kana_city":"ｱｷｸﾞﾝｶｲﾀﾁｮｳ","kana_address":"ﾎﾘｶﾜﾏﾁ","pref":"広島県","city":"安芸郡海田町","address":"堀川町"},
{"zip_code":"7360014","kana_pref":"ﾋﾛｼﾏｹﾝ","kana_city":"ｱｷｸﾞﾝｶｲﾀﾁｮｳ","kana_address":"ﾐｻｺ","pref":"広島県","city":"安芸郡海田町","address":"三迫"},
{"zip_code":"7360032","kana_pref":"ﾋﾛｼﾏｹﾝ","kana_city":"ｱｷｸﾞﾝｶｲﾀﾁｮｳ","kana_address":"ﾐﾅﾐｻｲﾜｲﾏﾁ","pref":"広島県","city":"安芸郡海田町","address":"南幸町"},
{"zip_code":"7360065","kana_pref":"ﾋﾛｼﾏｹﾝ","kana_city":"ｱｷｸﾞﾝｶｲﾀﾁｮｳ","kana_address":"ﾐﾅﾐｼｮｳﾜﾏﾁ","pref":"広島県","city":"安芸郡海田町","address":"南昭和町"},
{"zip_code":"7360042","kana_pref":"ﾋﾛｼﾏｹﾝ","kana_city":"ｱｷｸﾞﾝｶｲﾀﾁｮｳ","kana_address":"ﾐﾅﾐﾀｲｼｮｳﾏﾁ","pref":"広島県","city":"安芸郡海田町","address":"南大正町"},
{"zip_code":"7360052","kana_pref":"ﾋﾛｼﾏｹﾝ","kana_city":"ｱｷｸﾞﾝｶｲﾀﾁｮｳ","kana_address":"ﾐﾅﾐﾂｸﾓﾏﾁ","pref":"広島県","city":"安芸郡海田町","address":"南つくも町"},
{"zip_code":"7360044","kana_pref":"ﾋﾛｼﾏｹﾝ","kana_city":"ｱｷｸﾞﾝｶｲﾀﾁｮｳ","kana_address":"ﾐﾅﾐﾎﾘｶﾜﾏﾁ","pref":"広島県","city":"安芸郡海田町","address":"南堀川町"},
{"zip_code":"7360033","kana_pref":"ﾋﾛｼﾏｹﾝ","kana_city":"ｱｷｸﾞﾝｶｲﾀﾁｮｳ","kana_address":"ﾐﾅﾐﾎﾝﾏﾁ","pref":"広島県","city":"安芸郡海田町","address":"南本町"},
{"zip_code":"7360055","kana_pref":"ﾋﾛｼﾏｹﾝ","kana_city":"ｱｷｸﾞﾝｶｲﾀﾁｮｳ","kana_address":"ﾐﾅﾐﾐｮｳｼﾞﾝﾏﾁ","pref":"広島県","city":"安芸郡海田町","address":"南明神町"},
{"zip_code":"7360056","kana_pref":"ﾋﾛｼﾏｹﾝ","kana_city":"ｱｷｸﾞﾝｶｲﾀﾁｮｳ","kana_address":"ﾐｮｳｼﾞﾝﾏﾁ","pref":"広島県","city":"安芸郡海田町","address":"明神町"}]}