{"zip_code":[
{"zip_code":"7370000","kana_pref":"ﾋﾛｼﾏｹﾝ","kana_city":"ｸﾚｼ","kana_address":"","pref":"広島県","city":"呉市","address":""},
{"zip_code":"7370023","kana_pref":"ﾋﾛｼﾏｹﾝ","kana_city":"ｸﾚｼ","kana_address":"ｱｵﾔﾏﾁｮｳ","pref":"広島県","city":"呉市","address":"青山町"},
{"zip_code":"7370003","kana_pref":"ﾋﾛｼﾏｹﾝ","kana_city":"ｸﾚｼ","kana_address":"ｱｶﾞﾁｭｳｵｳ","pref":"広島県","city":"呉市","address":"阿賀中央"},
{"zip_code":"7370004","kana_pref":"ﾋﾛｼﾏｹﾝ","kana_city":"ｸﾚｼ","kana_address":"ｱｶﾞﾐﾅﾐ","pref":"広島県","city":"呉市","address":"阿賀南"},
{"zip_code":"7370001","kana_pref":"ﾋﾛｼﾏｹﾝ","kana_city":"ｸﾚｼ","kana_address":"ｱｶﾞｷﾀ","pref":"広島県","city":"呉市","address":"阿賀北"},
{"zip_code":"7370005","kana_pref":"ﾋﾛｼﾏｹﾝ","kana_city":"ｸﾚｼ","kana_address":"ｱｶﾞﾏﾁ","pref":"広島県","city":"呉市","address":"阿賀町"},
{"zip_code":"7370056","kana_pref":"ﾋﾛｼﾏｹﾝ","kana_city":"ｸﾚｼ","kana_address":"ｱｻﾋﾏﾁ","pref":"広島県","city":"呉市","address":"朝日町"},
{"zip_code":"7370076","kana_pref":"ﾋﾛｼﾏｹﾝ","kana_city":"ｸﾚｼ","kana_address":"ｱﾂﾞﾏ","pref":"広島県","city":"呉市","address":"吾妻"},
{"zip_code":"7370804","kana_pref":"ﾋﾛｼﾏｹﾝ","kana_city":"ｸﾚｼ","kana_address":"ｳﾁｶﾞﾐﾁｮｳ","pref":"広島県","city":"呉市","address":"内神町"},
{"zip_code":"7370061","kana_pref":"ﾋﾛｼﾏｹﾝ","kana_city":"ｸﾚｼ","kana_address":"ｳﾈﾊﾗﾁｮｳ","pref":"広島県","city":"呉市","address":"畝原町"},
{"zip_code":"7370872","kana_pref":"ﾋﾛｼﾏｹﾝ","kana_city":"ｸﾚｼ","kana_address":"ｳﾒｷﾁｮｳ","pref":"広島県","city":"呉市","address":"梅木町"},
{"zip_code":"7370807","kana_pref":"ﾋﾛｼﾏｹﾝ","kana_city":"ｸﾚｼ","kana_address":"ｴﾊﾞﾗﾁｮｳ","pref":"広島県","city":"呉市","address":"江原町"},
{"zip_code":"7370878","kana_pref":"ﾋﾛｼﾏｹﾝ","kana_city":"ｸﾚｼ","kana_address":"ｵｵﾔﾏﾁｮｳ","pref":"広島県","city":"呉市","address":"大山町"},
{"zip_code":"7370915","kana_pref":"ﾋﾛｼﾏｹﾝ","kana_city":"ｸﾚｼ","kana_address":"ｵｼｺﾞﾒ","pref":"広島県","city":"呉市","address":"押込"},
{"zip_code":"7370914","kana_pref":"ﾋﾛｼﾏｹﾝ","kana_city":"ｸﾚｼ","kana_address":"ｵｼｺﾞﾒﾆｼﾋﾗﾁｮｳ","pref":"広島県","city":"呉市","address":"押込西平町"},
{"zip_code":"7371212","kana_pref":"ﾋﾛｼﾏｹﾝ","kana_city":"ｸﾚｼ","kana_address":"ｵﾝﾄﾞﾁｮｳｱﾘｷﾖ","pref":"広島県","city":"呉市","address":"音戸町有清"},
{"zip_code":"7371203","kana_pref":"ﾋﾛｼﾏｹﾝ","kana_city":"ｸﾚｼ","kana_address":"ｵﾝﾄﾞﾁｮｳｲﾜｼﾊﾏ","pref":"広島県","city":"呉市","address":"音戸町鰯浜"},
{"zip_code":"7371204","kana_pref":"ﾋﾛｼﾏｹﾝ","kana_city":"ｸﾚｼ","kana_address":"ｵﾝﾄﾞﾁｮｳｷﾀｵﾝﾄﾞ","pref":"広島県","city":"呉市","address":"音戸町北隠渡"},
{"zip_code":"7371213","kana_pref":"ﾋﾛｼﾏｹﾝ","kana_city":"ｸﾚｼ","kana_address":"ｵﾝﾄﾞﾁｮｳｻｷｵｸ","pref":"広島県","city":"呉市","address":"音戸町先奥"},
{"zip_code":"7371206","kana_pref":"ﾋﾛｼﾏｹﾝ","kana_city":"ｸﾚｼ","kana_address":"ｵﾝﾄﾞﾁｮｳﾀｶｽ","pref":"広島県","city":"呉市","address":"音戸町高須"},
{"zip_code":"7371216","kana_pref":"ﾋﾛｼﾏｹﾝ","kana_city":"ｸﾚｼ","kana_address":"ｵﾝﾄﾞﾁｮｳﾀﾊﾗ","pref":"広島県","city":"呉市","address":"音戸町田原"},
{"zip_code":"7371201","kana_pref":"ﾋﾛｼﾏｹﾝ","kana_city":"ｸﾚｼ","kana_address":"ｵﾝﾄﾞﾁｮｳﾂﾎﾞｲ","pref":"広島県","city":"呉市","address":"音戸町坪井"},
{"zip_code":"7371217","kana_pref":"ﾋﾛｼﾏｹﾝ","kana_city":"ｸﾚｼ","kana_address":"ｵﾝﾄﾞﾁｮｳﾄﾉｺ","pref":"広島県","city":"呉市","address":"音戸町渡子"},
{"zip_code":"7371211","kana_pref":"ﾋﾛｼﾏｹﾝ","kana_city":"ｸﾚｼ","kana_address":"ｵﾝﾄﾞﾁｮｳﾊﾀ","pref":"広島県","city":"呉市","address":"音戸町畑"},
{"zip_code":"7371207","kana_pref":"ﾋﾛｼﾏｹﾝ","kana_city":"ｸﾚｼ","kana_address":"ｵﾝﾄﾞﾁｮｳﾊﾀﾐ","pref":"広島県","city":"呉市","address":"音戸町波多見"},
{"zip_code":"7371215","kana_pref":"ﾋﾛｼﾏｹﾝ","kana_city":"ｸﾚｼ","kana_address":"ｵﾝﾄﾞﾁｮｳﾊﾔｾ","pref":"広島県","city":"呉市","address":"音戸町早瀬"},
{"zip_code":"7371202","kana_pref":"ﾋﾛｼﾏｹﾝ","kana_city":"ｸﾚｼ","kana_address":"ｵﾝﾄﾞﾁｮｳﾋｷｼﾞ","pref":"広島県","city":"呉市","address":"音戸町引地"},
{"zip_code":"7371214","kana_pref":"ﾋﾛｼﾏｹﾝ","kana_city":"ｸﾚｼ","kana_address":"ｵﾝﾄﾞﾁｮｳﾌｼﾞﾉﾜｷ","pref":"広島県","city":"呉市","address":"音戸町藤脇"},
{"zip_code":"7371205","kana_pref":"ﾋﾛｼﾏｹﾝ","kana_city":"ｸﾚｼ","kana_address":"ｵﾝﾄﾞﾁｮｳﾐﾅﾐｵﾝﾄﾞ","pref":"広島県","city":"呉市","address":"音戸町南隠渡"},
{"zip_code":"7370823","kana_pref":"ﾋﾛｼﾏｹﾝ","kana_city":"ｸﾚｼ","kana_address":"ｶｲｶﾞﾝ","pref":"広島県","city":"呉市","address":"海岸"},
{"zip_code":"7370402","kana_pref":"ﾋﾛｼﾏｹﾝ","kana_city":"ｸﾚｼ","kana_address":"ｶﾏｶﾞﾘﾁｮｳｵｵｳﾗ","pref":"広島県","city":"呉市","address":"蒲刈町大浦"},
{"zip_code":"7370403","kana_pref":"ﾋﾛｼﾏｹﾝ","kana_city":"ｸﾚｼ","kana_address":"ｶﾏｶﾞﾘﾁｮｳﾀﾄﾞ","pref":"広島県","city":"呉市","address":"蒲刈町田戸"},
{"zip_code":"7370401","kana_pref":"ﾋﾛｼﾏｹﾝ","kana_city":"ｸﾚｼ","kana_address":"ｶﾏｶﾞﾘﾁｮｳﾐﾔｻﾞｶﾘ","pref":"広島県","city":"呉市","address":"蒲刈町宮盛"},
{"zip_code":"7370311","kana_pref":"ﾋﾛｼﾏｹﾝ","kana_city":"ｸﾚｼ","kana_address":"ｶﾏｶﾞﾘﾁｮｳﾑｶｲ","pref":"広島県","city":"呉市","address":"蒲刈町向"},
{"zip_code":"7370808","kana_pref":"ﾋﾛｼﾏｹﾝ","kana_city":"ｸﾚｼ","kana_address":"ｶﾐｳﾁｶﾞﾐﾁｮｳ","pref":"広島県","city":"呉市","address":"上内神町"},
{"zip_code":"7370031","kana_pref":"ﾋﾛｼﾏｹﾝ","kana_city":"ｸﾚｼ","kana_address":"ｶﾐﾅｶﾞｻｺﾁｮｳ","pref":"広島県","city":"呉市","address":"上長迫町"},
{"zip_code":"7370817","kana_pref":"ﾋﾛｼﾏｹﾝ","kana_city":"ｸﾚｼ","kana_address":"ｶﾐﾆｺｳﾁｮｳ","pref":"広島県","city":"呉市","address":"上二河町"},
{"zip_code":"7370071","kana_pref":"ﾋﾛｼﾏｹﾝ","kana_city":"ｸﾚｼ","kana_address":"ｶﾐﾊﾀﾁｮｳ","pref":"広島県","city":"呉市","address":"上畑町"},
{"zip_code":"7370079","kana_pref":"ﾋﾛｼﾏｹﾝ","kana_city":"ｸﾚｼ","kana_address":"ｶﾐﾋﾗﾊﾞﾗﾁｮｳ","pref":"広島県","city":"呉市","address":"上平原町"},
{"zip_code":"7370054","kana_pref":"ﾋﾛｼﾏｹﾝ","kana_city":"ｸﾚｼ","kana_address":"ｶﾐﾔﾏﾀﾞﾁｮｳ","pref":"広島県","city":"呉市","address":"上山田町"},
{"zip_code":"7370862","kana_pref":"ﾋﾛｼﾏｹﾝ","kana_city":"ｸﾚｼ","kana_address":"ｶﾙｶﾞﾁｮｳ","pref":"広島県","city":"呉市","address":"狩留賀町"},
{"zip_code":"7372631","kana_pref":"ﾋﾛｼﾏｹﾝ","kana_city":"ｸﾚｼ","kana_address":"ｶﾜｼﾞﾘﾁｮｳｲﾀﾔｽﾐ","pref":"広島県","city":"呉市","address":"川尻町板休"},
{"zip_code":"7372634","kana_pref":"ﾋﾛｼﾏｹﾝ","kana_city":"ｸﾚｼ","kana_address":"ｶﾜｼﾞﾘﾁｮｳｲﾜﾄﾞ","pref":"広島県","city":"呉市","address":"川尻町岩戸"},
{"zip_code":"7372637","kana_pref":"ﾋﾛｼﾏｹﾝ","kana_city":"ｸﾚｼ","kana_address":"ｶﾜｼﾞﾘﾁｮｳｳｼﾛｶﾞｹ","pref":"広島県","city":"呉市","address":"川尻町後懸"},
{"zip_code":"7372614","kana_pref":"ﾋﾛｼﾏｹﾝ","kana_city":"ｸﾚｼ","kana_address":"ｶﾜｼﾞﾘﾁｮｳｵｵﾊﾞﾗ","pref":"広島県","city":"呉市","address":"川尻町大原"},
{"zip_code":"7372633","kana_pref":"ﾋﾛｼﾏｹﾝ","kana_city":"ｸﾚｼ","kana_address":"ｶﾜｼﾞﾘﾁｮｳｵｷﾀﾞ","pref":"広島県","city":"呉市","address":"川尻町沖田"},
{"zip_code":"7372632","kana_pref":"ﾋﾛｼﾏｹﾝ","kana_city":"ｸﾚｼ","kana_address":"ｶﾜｼﾞﾘﾁｮｳｶﾝﾊﾞﾀ","pref":"広島県","city":"呉市","address":"川尻町上畑"},
{"zip_code":"7372606","kana_pref":"ﾋﾛｼﾏｹﾝ","kana_city":"ｸﾚｼ","kana_address":"ｶﾜｼﾞﾘﾁｮｳｸｽｼﾞ","pref":"広島県","city":"呉市","address":"川尻町久筋"},
{"zip_code":"7372605","kana_pref":"ﾋﾛｼﾏｹﾝ","kana_city":"ｸﾚｼ","kana_address":"ｶﾜｼﾞﾘﾁｮｳｸﾄﾞｼ","pref":"広島県","city":"呉市","address":"川尻町久俊"},
{"zip_code":"7372604","kana_pref":"ﾋﾛｼﾏｹﾝ","kana_city":"ｸﾚｼ","kana_address":"ｶﾜｼﾞﾘﾁｮｳｺﾆｶﾞﾀ","pref":"広島県","city":"呉市","address":"川尻町小仁方"},
{"zip_code":"7372617","kana_pref":"ﾋﾛｼﾏｹﾝ","kana_city":"ｸﾚｼ","kana_address":"ｶﾜｼﾞﾘﾁｮｳｺﾊﾞﾀ","pref":"広島県","city":"呉市","address":"川尻町小畑"},
{"zip_code":"7372608","kana_pref":"ﾋﾛｼﾏｹﾝ","kana_city":"ｸﾚｼ","kana_address":"ｶﾜｼﾞﾘﾁｮｳｺﾖｳ","pref":"広島県","city":"呉市","address":"川尻町小用"},
{"zip_code":"7372636","kana_pref":"ﾋﾛｼﾏｹﾝ","kana_city":"ｸﾚｼ","kana_address":"ｶﾜｼﾞﾘﾁｮｳｻｲﾉﾀﾆ","pref":"広島県","city":"呉市","address":"川尻町才野谷"},
{"zip_code":"7372615","kana_pref":"ﾋﾛｼﾏｹﾝ","kana_city":"ｸﾚｼ","kana_address":"ｶﾜｼﾞﾘﾁｮｳｼﾝｺｳﾁ","pref":"広島県","city":"呉市","address":"川尻町真光地"},
{"zip_code":"7372603","kana_pref":"ﾋﾛｼﾏｹﾝ","kana_city":"ｸﾚｼ","kana_address":"ｶﾜｼﾞﾘﾁｮｳﾆｼ","pref":"広島県","city":"呉市","address":"川尻町西"},
{"zip_code":"7372609","kana_pref":"ﾋﾛｼﾏｹﾝ","kana_city":"ｸﾚｼ","kana_address":"ｶﾜｼﾞﾘﾁｮｳﾉﾛｻﾝ","pref":"広島県","city":"呉市","address":"川尻町野呂山"},
{"zip_code":"7372601","kana_pref":"ﾋﾛｼﾏｹﾝ","kana_city":"ｸﾚｼ","kana_address":"ｶﾜｼﾞﾘﾁｮｳﾊﾗﾔﾏ","pref":"広島県","city":"呉市","address":"川尻町原山"},
{"zip_code":"7372607","kana_pref":"ﾋﾛｼﾏｹﾝ","kana_city":"ｸﾚｼ","kana_address":"ｶﾜｼﾞﾘﾁｮｳﾋｶﾞｼ","pref":"広島県","city":"呉市","address":"川尻町東"},
{"zip_code":"7372616","kana_pref":"ﾋﾛｼﾏｹﾝ","kana_city":"ｸﾚｼ","kana_address":"ｶﾜｼﾞﾘﾁｮｳﾐｽﾞｵﾁ","pref":"広島県","city":"呉市","address":"川尻町水落"},
{"zip_code":"7372602","kana_pref":"ﾋﾛｼﾏｹﾝ","kana_city":"ｸﾚｼ","kana_address":"ｶﾜｼﾞﾘﾁｮｳﾓﾘ","pref":"広島県","city":"呉市","address":"川尻町森"},
{"zip_code":"7372635","kana_pref":"ﾋﾛｼﾏｹﾝ","kana_city":"ｸﾚｼ","kana_address":"ｶﾜｼﾞﾘﾁｮｳﾔﾅｷﾞｻｺ","pref":"広島県","city":"呉市","address":"川尻町柳迫"},
{"zip_code":"7370026","kana_pref":"ﾋﾛｼﾏｹﾝ","kana_city":"ｸﾚｼ","kana_address":"ｶﾝﾊﾞﾗﾁｮｳ","pref":"広島県","city":"呉市","address":"神原町"},
{"zip_code":"7370836","kana_pref":"ﾋﾛｼﾏｹﾝ","kana_city":"ｸﾚｼ","kana_address":"ｷﾀｼｵﾔﾁｮｳ","pref":"広島県","city":"呉市","address":"北塩屋町"},
{"zip_code":"7371377","kana_pref":"ﾋﾛｼﾏｹﾝ","kana_city":"ｸﾚｼ","kana_address":"ｸﾗﾊｼﾁｮｳ","pref":"広島県","city":"呉市","address":"倉橋町"},
{"zip_code":"7370012","kana_pref":"ﾋﾛｼﾏｹﾝ","kana_city":"ｸﾚｼ","kana_address":"ｹｺﾞﾔ","pref":"広島県","city":"呉市","address":"警固屋"},
{"zip_code":"7370163","kana_pref":"ﾋﾛｼﾏｹﾝ","kana_city":"ｸﾚｼ","kana_address":"ｺﾞｳﾊﾗﾉﾛﾉｻﾄ","pref":"広島県","city":"呉市","address":"郷原野路の里"},
{"zip_code":"7370162","kana_pref":"ﾋﾛｼﾏｹﾝ","kana_city":"ｸﾚｼ","kana_address":"ｺﾞｳﾊﾗﾏﾅﾋﾞﾉｵｶ","pref":"広島県","city":"呉市","address":"郷原学びの丘"},
{"zip_code":"7370161","kana_pref":"ﾋﾛｼﾏｹﾝ","kana_city":"ｸﾚｼ","kana_address":"ｺﾞｳﾊﾗﾁｮｳ","pref":"広島県","city":"呉市","address":"郷原町"},
{"zip_code":"7370803","kana_pref":"ﾋﾛｼﾏｹﾝ","kana_city":"ｸﾚｼ","kana_address":"ｺﾞｳﾏﾁ","pref":"広島県","city":"呉市","address":"郷町"},
{"zip_code":"7370028","kana_pref":"ﾋﾛｼﾏｹﾝ","kana_city":"ｸﾚｼ","kana_address":"ｻｲﾜｲﾁｮｳ","pref":"広島県","city":"呉市","address":"幸町"},
{"zip_code":"7370821","kana_pref":"ﾋﾛｼﾏｹﾝ","kana_city":"ｸﾚｼ","kana_address":"ｻﾝｼﾞｮｳ","pref":"広島県","city":"呉市","address":"三条"},
{"zip_code":"7370021","kana_pref":"ﾋﾛｼﾏｹﾝ","kana_city":"ｸﾚｼ","kana_address":"ｻﾝﾜﾁｮｳ","pref":"広島県","city":"呉市","address":"三和町"},
{"zip_code":"7370873","kana_pref":"ﾋﾛｼﾏｹﾝ","kana_city":"ｸﾚｼ","kana_address":"ｼｵﾐﾁｮｳ","pref":"広島県","city":"呉市","address":"汐見町"},
{"zip_code":"7370022","kana_pref":"ﾋﾛｼﾏｹﾝ","kana_city":"ｸﾚｼ","kana_address":"ｼﾐｽﾞ","pref":"広島県","city":"呉市","address":"清水"},
{"zip_code":"7370302","kana_pref":"ﾋﾛｼﾏｹﾝ","kana_city":"ｸﾚｼ","kana_address":"ｼﾓｶﾏｶﾞﾘﾁｮｳｵｵｼﾞｿﾞｳ","pref":"広島県","city":"呉市","address":"下蒲刈町大地蔵"},
{"zip_code":"7370301","kana_pref":"ﾋﾛｼﾏｹﾝ","kana_city":"ｸﾚｼ","kana_address":"ｼﾓｶﾏｶﾞﾘﾁｮｳｻﾝﾉｾ","pref":"広島県","city":"呉市","address":"下蒲刈町三之瀬"},
{"zip_code":"7370303","kana_pref":"ﾋﾛｼﾏｹﾝ","kana_city":"ｸﾚｼ","kana_address":"ｼﾓｶﾏｶﾞﾘﾁｮｳｼﾓｼﾞﾏ","pref":"広島県","city":"呉市","address":"下蒲刈町下島"},
{"zip_code":"7370055","kana_pref":"ﾋﾛｼﾏｹﾝ","kana_city":"ｸﾚｼ","kana_address":"ｼﾓﾔﾏﾀﾞﾁｮｳ","pref":"広島県","city":"呉市","address":"下山田町"},
{"zip_code":"7370027","kana_pref":"ﾋﾛｼﾏｹﾝ","kana_city":"ｸﾚｼ","kana_address":"ｼｮｳﾜﾁｮｳ","pref":"広島県","city":"呉市","address":"昭和町"},
{"zip_code":"7370835","kana_pref":"ﾋﾛｼﾏｹﾝ","kana_city":"ｸﾚｼ","kana_address":"ｼﾝｸﾞｳﾁｮｳ","pref":"広島県","city":"呉市","address":"新宮町"},
{"zip_code":"7370923","kana_pref":"ﾋﾛｼﾏｹﾝ","kana_city":"ｸﾚｼ","kana_address":"ｼﾞﾝﾔﾏ","pref":"広島県","city":"呉市","address":"神山"},
{"zip_code":"7370834","kana_pref":"ﾋﾛｼﾏｹﾝ","kana_city":"ｸﾚｼ","kana_address":"ｾﾄﾐﾁｮｳ","pref":"広島県","city":"呉市","address":"瀬戸見町"},
{"zip_code":"7370815","kana_pref":"ﾋﾛｼﾏｹﾝ","kana_city":"ｸﾚｼ","kana_address":"ｿｳﾔﾏﾀﾞﾑﾗ","pref":"広島県","city":"呉市","address":"荘山田村"},
{"zip_code":"7370029","kana_pref":"ﾋﾛｼﾏｹﾝ","kana_city":"ｸﾚｼ","kana_address":"ﾀｶﾗﾏﾁ","pref":"広島県","city":"呉市","address":"宝町"},
{"zip_code":"7370051","kana_pref":"ﾋﾛｼﾏｹﾝ","kana_city":"ｸﾚｼ","kana_address":"ﾁｭｳｵｳ","pref":"広島県","city":"呉市","address":"中央"},
{"zip_code":"7370822","kana_pref":"ﾋﾛｼﾏｹﾝ","kana_city":"ｸﾚｼ","kana_address":"ﾂｷｼﾞﾁｮｳ","pref":"広島県","city":"呉市","address":"築地町"},
{"zip_code":"7370014","kana_pref":"ﾋﾛｼﾏｹﾝ","kana_city":"ｸﾚｼ","kana_address":"ﾂﾎﾞﾉｳﾁﾁｮｳ","pref":"広島県","city":"呉市","address":"坪ノ内町"},
{"zip_code":"7370033","kana_pref":"ﾋﾛｼﾏｹﾝ","kana_city":"ｸﾚｼ","kana_address":"ﾃﾗﾓﾄﾁｮｳ","pref":"広島県","city":"呉市","address":"寺本町"},
{"zip_code":"7370875","kana_pref":"ﾋﾛｼﾏｹﾝ","kana_city":"ｸﾚｼ","kana_address":"ﾃﾝﾉｳｵｵﾊﾏ","pref":"広島県","city":"呉市","address":"天応大浜"},
{"zip_code":"7370881","kana_pref":"ﾋﾛｼﾏｹﾝ","kana_city":"ｸﾚｼ","kana_address":"ﾃﾝﾉｳｼｵﾔﾁｮｳ","pref":"広島県","city":"呉市","address":"天応塩谷町"},
{"zip_code":"7370884","kana_pref":"ﾋﾛｼﾏｹﾝ","kana_city":"ｸﾚｼ","kana_address":"ﾃﾝﾉｳﾃﾞﾝｼﾞｭｳﾊﾞﾗﾁｮｳ","pref":"広島県","city":"呉市","address":"天応伝十原町"},
{"zip_code":"7370883","kana_pref":"ﾋﾛｼﾏｹﾝ","kana_city":"ｸﾚｼ","kana_address":"ﾃﾝﾉｳﾆｼｼﾞｮｳ","pref":"広島県","city":"呉市","address":"天応西条"},
{"zip_code":"7370882","kana_pref":"ﾋﾛｼﾏｹﾝ","kana_city":"ｸﾚｼ","kana_address":"ﾃﾝﾉｳﾋｶﾞｼｸﾎﾞ","pref":"広島県","city":"呉市","address":"天応東久保"},
{"zip_code":"7370885","kana_pref":"ﾋﾛｼﾏｹﾝ","kana_city":"ｸﾚｼ","kana_address":"ﾃﾝﾉｳﾌｸｳﾗﾁｮｳ","pref":"広島県","city":"呉市","address":"天応福浦町"},
{"zip_code":"7370874","kana_pref":"ﾋﾛｼﾏｹﾝ","kana_city":"ｸﾚｼ","kana_address":"ﾃﾝﾉｳﾐﾅﾐﾏﾁ","pref":"広島県","city":"呉市","address":"天応南町"},
{"zip_code":"7370876","kana_pref":"ﾋﾛｼﾏｹﾝ","kana_city":"ｸﾚｼ","kana_address":"ﾃﾝﾉｳﾐﾔﾏﾁ","pref":"広島県","city":"呉市","address":"天応宮町"},
{"zip_code":"7370922","kana_pref":"ﾋﾛｼﾏｹﾝ","kana_city":"ｸﾚｼ","kana_address":"ﾄﾁﾊﾞﾗﾁｮｳ","pref":"広島県","city":"呉市","address":"栃原町"},
{"zip_code":"7370921","kana_pref":"ﾋﾛｼﾏｹﾝ","kana_city":"ｸﾚｼ","kana_address":"ﾅｴｼﾛﾁｮｳ","pref":"広島県","city":"呉市","address":"苗代町"},
{"zip_code":"7370046","kana_pref":"ﾋﾛｼﾏｹﾝ","kana_city":"ｸﾚｼ","kana_address":"ﾅｶﾄﾞｵﾘ","pref":"広島県","city":"呉市","address":"中通"},
{"zip_code":"7370035","kana_pref":"ﾋﾛｼﾏｹﾝ","kana_city":"ｸﾚｼ","kana_address":"ﾅｶﾞｻｺﾁｮｳ","pref":"広島県","city":"呉市","address":"長迫町"},
{"zip_code":"7370871","kana_pref":"ﾋﾛｼﾏｹﾝ","kana_city":"ｸﾚｼ","kana_address":"ﾅｶﾞﾀﾆﾁｮｳ","pref":"広島県","city":"呉市","address":"長谷町"},
{"zip_code":"7370053","kana_pref":"ﾋﾛｼﾏｹﾝ","kana_city":"ｸﾚｼ","kana_address":"ﾅｶﾞﾉｷﾁｮｳ","pref":"広島県","city":"呉市","address":"長ノ木町"},
{"zip_code":"7370153","kana_pref":"ﾋﾛｼﾏｹﾝ","kana_city":"ｸﾚｼ","kana_address":"ﾆｶﾞﾀｵｵﾄｼﾁｮｳ","pref":"広島県","city":"呉市","address":"仁方大歳町"},
{"zip_code":"7370154","kana_pref":"ﾋﾛｼﾏｹﾝ","kana_city":"ｸﾚｼ","kana_address":"ﾆｶﾞﾀｻﾝﾊﾞｼﾄﾞｵﾘ","pref":"広島県","city":"呉市","address":"仁方桟橋通"},
{"zip_code":"7370151","kana_pref":"ﾋﾛｼﾏｹﾝ","kana_city":"ｸﾚｼ","kana_address":"ﾆｶﾞﾀﾅｶｽｼﾞﾁｮｳ","pref":"広島県","city":"呉市","address":"仁方中筋町"},
{"zip_code":"7370145","kana_pref":"ﾋﾛｼﾏｹﾝ","kana_city":"ｸﾚｼ","kana_address":"ﾆｶﾞﾀﾆｼｶﾞﾐﾁｮｳ","pref":"広島県","city":"呉市","address":"仁方西神町"},
{"zip_code":"7370155","kana_pref":"ﾋﾛｼﾏｹﾝ","kana_city":"ｸﾚｼ","kana_address":"ﾆｶﾞﾀﾆｼｷﾏﾁ","pref":"広島県","city":"呉市","address":"仁方錦町"},
{"zip_code":"7370152","kana_pref":"ﾋﾛｼﾏｹﾝ","kana_city":"ｸﾚｼ","kana_address":"ﾆｶﾞﾀﾎﾝﾏﾁ","pref":"広島県","city":"呉市","address":"仁方本町"},
{"zip_code":"7370156","kana_pref":"ﾋﾛｼﾏｹﾝ","kana_city":"ｸﾚｼ","kana_address":"ﾆｶﾞﾀﾐﾅﾐﾁｮｳ","pref":"広島県","city":"呉市","address":"仁方皆実町"},
{"zip_code":"7370146","kana_pref":"ﾋﾛｼﾏｹﾝ","kana_city":"ｸﾚｼ","kana_address":"ﾆｶﾞﾀﾐﾔｶﾞﾐﾁｮｳ","pref":"広島県","city":"呉市","address":"仁方宮上町"},
{"zip_code":"7372609","kana_pref":"ﾋﾛｼﾏｹﾝ","kana_city":"ｸﾚｼ","kana_address":"ﾆｶﾞﾀﾁｮｳ","pref":"広島県","city":"呉市","address":"仁方町"},
{"zip_code":"7370157","kana_pref":"ﾋﾛｼﾏｹﾝ","kana_city":"ｸﾚｼ","kana_address":"ﾆｶﾞﾀﾁｮｳ","pref":"広島県","city":"呉市","address":"仁方町"},
{"zip_code":"7370816","kana_pref":"ﾋﾛｼﾏｹﾝ","kana_city":"ｸﾚｼ","kana_address":"ﾆｺｳｷｮｳﾁｮｳ","pref":"広島県","city":"呉市","address":"二河峡町"},
{"zip_code":"7370818","kana_pref":"ﾋﾛｼﾏｹﾝ","kana_city":"ｸﾚｼ","kana_address":"ﾆｺｳﾁｮｳ","pref":"広島県","city":"呉市","address":"二河町"},
{"zip_code":"7370827","kana_pref":"ﾋﾛｼﾏｹﾝ","kana_city":"ｸﾚｼ","kana_address":"ﾆｼｱﾀｺﾞﾁｮｳ","pref":"広島県","city":"呉市","address":"西愛宕町"},
{"zip_code":"7370806","kana_pref":"ﾋﾛｼﾏｹﾝ","kana_city":"ｸﾚｼ","kana_address":"ﾆｼｶﾀﾔﾏﾁｮｳ","pref":"広島県","city":"呉市","address":"西片山町"},
{"zip_code":"7370825","kana_pref":"ﾋﾛｼﾏｹﾝ","kana_city":"ｸﾚｼ","kana_address":"ﾆｼｶﾜﾗｲｼﾁｮｳ","pref":"広島県","city":"呉市","address":"西川原石町"},
{"zip_code":"7370838","kana_pref":"ﾋﾛｼﾏｹﾝ","kana_city":"ｸﾚｼ","kana_address":"ﾆｼｼｵﾔﾁｮｳ","pref":"広島県","city":"呉市","address":"西塩屋町"},
{"zip_code":"7370074","kana_pref":"ﾋﾛｼﾏｹﾝ","kana_city":"ｸﾚｼ","kana_address":"ﾆｼｼｶﾀ","pref":"広島県","city":"呉市","address":"西鹿田"},
{"zip_code":"7370062","kana_pref":"ﾋﾛｼﾏｹﾝ","kana_city":"ｸﾚｼ","kana_address":"ﾆｼｿｳﾂﾞｹﾁｮｳ","pref":"広島県","city":"呉市","address":"西惣付町"},
{"zip_code":"7370809","kana_pref":"ﾋﾛｼﾏｹﾝ","kana_city":"ｸﾚｼ","kana_address":"ﾆｼﾀﾂｶﾜ","pref":"広島県","city":"呉市","address":"西辰川"},
{"zip_code":"7370064","kana_pref":"ﾋﾛｼﾏｹﾝ","kana_city":"ｸﾚｼ","kana_address":"ﾆｼﾀﾆﾁｮｳ","pref":"広島県","city":"呉市","address":"西谷町"},
{"zip_code":"7370811","kana_pref":"ﾋﾛｼﾏｹﾝ","kana_city":"ｸﾚｼ","kana_address":"ﾆｼﾁｭｳｵｳ","pref":"広島県","city":"呉市","address":"西中央"},
{"zip_code":"7370075","kana_pref":"ﾋﾛｼﾏｹﾝ","kana_city":"ｸﾚｼ","kana_address":"ﾆｼﾊﾀﾁｮｳ","pref":"広島県","city":"呉市","address":"西畑町"},
{"zip_code":"7370812","kana_pref":"ﾋﾛｼﾏｹﾝ","kana_city":"ｸﾚｼ","kana_address":"ﾆｼﾐﾂﾀﾁｮｳ","pref":"広島県","city":"呉市","address":"西三津田町"},
{"zip_code":"7372609","kana_pref":"ﾋﾛｼﾏｹﾝ","kana_city":"ｸﾚｼ","kana_address":"ﾉﾛｻﾝ","pref":"広島県","city":"呉市","address":"野呂山"},
{"zip_code":"7370833","kana_pref":"ﾋﾛｼﾏｹﾝ","kana_city":"ｸﾚｼ","kana_address":"ﾊﾙﾐﾁｮｳ","pref":"広島県","city":"呉市","address":"晴海町"},
{"zip_code":"7370831","kana_pref":"ﾋﾛｼﾏｹﾝ","kana_city":"ｸﾚｼ","kana_address":"ﾋｶﾘﾏﾁ","pref":"広島県","city":"呉市","address":"光町"},
{"zip_code":"7370828","kana_pref":"ﾋﾛｼﾏｹﾝ","kana_city":"ｸﾚｼ","kana_address":"ﾋｶﾞｼｱﾀｺﾞﾁｮｳ","pref":"広島県","city":"呉市","address":"東愛宕町"},
{"zip_code":"7370805","kana_pref":"ﾋﾛｼﾏｹﾝ","kana_city":"ｸﾚｼ","kana_address":"ﾋｶﾞｼｶﾀﾔﾏﾁｮｳ","pref":"広島県","city":"呉市","address":"東片山町"},
{"zip_code":"7370824","kana_pref":"ﾋﾛｼﾏｹﾝ","kana_city":"ｸﾚｼ","kana_address":"ﾋｶﾞｼｶﾜﾗｲｼﾁｮｳ","pref":"広島県","city":"呉市","address":"東川原石町"},
{"zip_code":"7370837","kana_pref":"ﾋﾛｼﾏｹﾝ","kana_city":"ｸﾚｼ","kana_address":"ﾋｶﾞｼｼｵﾔﾁｮｳ","pref":"広島県","city":"呉市","address":"東塩屋町"},
{"zip_code":"7370073","kana_pref":"ﾋﾛｼﾏｹﾝ","kana_city":"ｸﾚｼ","kana_address":"ﾋｶﾞｼｼｶﾀﾁｮｳ","pref":"広島県","city":"呉市","address":"東鹿田町"},
{"zip_code":"7370063","kana_pref":"ﾋﾛｼﾏｹﾝ","kana_city":"ｸﾚｼ","kana_address":"ﾋｶﾞｼｿｳﾂﾞｹﾁｮｳ","pref":"広島県","city":"呉市","address":"東惣付町"},
{"zip_code":"7370801","kana_pref":"ﾋﾛｼﾏｹﾝ","kana_city":"ｸﾚｼ","kana_address":"ﾋｶﾞｼﾀﾂｶﾜﾁｮｳ","pref":"広島県","city":"呉市","address":"東辰川町"},
{"zip_code":"7370052","kana_pref":"ﾋﾛｼﾏｹﾝ","kana_city":"ｸﾚｼ","kana_address":"ﾋｶﾞｼﾁｭｳｵｳ","pref":"広島県","city":"呉市","address":"東中央"},
{"zip_code":"7370072","kana_pref":"ﾋﾛｼﾏｹﾝ","kana_city":"ｸﾚｼ","kana_address":"ﾋｶﾞｼﾊﾀ","pref":"広島県","city":"呉市","address":"東畑"},
{"zip_code":"7370813","kana_pref":"ﾋﾛｼﾏｹﾝ","kana_city":"ｸﾚｼ","kana_address":"ﾋｶﾞｼﾐﾂﾀﾁｮｳ","pref":"広島県","city":"呉市","address":"東三津田町"},
{"zip_code":"7370078","kana_pref":"ﾋﾛｼﾏｹﾝ","kana_city":"ｸﾚｼ","kana_address":"ﾋﾗﾊﾞﾗﾁｮｳ","pref":"広島県","city":"呉市","address":"平原町"},
{"zip_code":"7370101","kana_pref":"ﾋﾛｼﾏｹﾝ","kana_city":"ｸﾚｼ","kana_address":"ﾋﾛｲｼｳﾁ","pref":"広島県","city":"呉市","address":"広石内"},
{"zip_code":"7370142","kana_pref":"ﾋﾛｼﾏｹﾝ","kana_city":"ｸﾚｼ","kana_address":"ﾋﾛｴｷﾏｴ","pref":"広島県","city":"呉市","address":"広駅前"},
{"zip_code":"7370138","kana_pref":"ﾋﾛｼﾏｹﾝ","kana_city":"ｸﾚｼ","kana_address":"ﾋﾛｵｳﾊﾞﾝﾁｮｳ","pref":"広島県","city":"呉市","address":"広黄幡町"},
{"zip_code":"7370141","kana_pref":"ﾋﾛｼﾏｹﾝ","kana_city":"ｸﾚｼ","kana_address":"ﾋﾛｵｵｼﾝｶﾞｲ","pref":"広島県","city":"呉市","address":"広大新開"},
{"zip_code":"7370111","kana_pref":"ﾋﾛｼﾏｹﾝ","kana_city":"ｸﾚｼ","kana_address":"ﾋﾛｵｵﾋﾞﾛ","pref":"広島県","city":"呉市","address":"広大広"},
{"zip_code":"7370122","kana_pref":"ﾋﾛｼﾏｹﾝ","kana_city":"ｸﾚｼ","kana_address":"ﾋﾛｸｲﾓﾄﾁｮｳ","pref":"広島県","city":"呉市","address":"広杭本町"},
{"zip_code":"7370112","kana_pref":"ﾋﾛｼﾏｹﾝ","kana_city":"ｸﾚｼ","kana_address":"ﾋﾛｺｼﾝｶﾞｲ","pref":"広島県","city":"呉市","address":"広古新開"},
{"zip_code":"7370137","kana_pref":"ﾋﾛｼﾏｹﾝ","kana_city":"ｸﾚｼ","kana_address":"ﾋﾛｺﾂﾎﾞ","pref":"広島県","city":"呉市","address":"広小坪"},
{"zip_code":"7370103","kana_pref":"ﾋﾛｼﾏｹﾝ","kana_city":"ｸﾚｼ","kana_address":"ﾋﾛｼﾔｹ","pref":"広島県","city":"呉市","address":"広塩焼"},
{"zip_code":"7370143","kana_pref":"ﾋﾛｼﾏｹﾝ","kana_city":"ｸﾚｼ","kana_address":"ﾋﾛｼﾗｲｼ","pref":"広島県","city":"呉市","address":"広白石"},
{"zip_code":"7370144","kana_pref":"ﾋﾛｼﾏｹﾝ","kana_city":"ｸﾚｼ","kana_address":"ﾋﾛｼﾗﾀｹ","pref":"広島県","city":"呉市","address":"広白岳"},
{"zip_code":"7370133","kana_pref":"ﾋﾛｼﾏｹﾝ","kana_city":"ｸﾚｼ","kana_address":"ﾋﾛｽｴﾋﾛ","pref":"広島県","city":"呉市","address":"広末広"},
{"zip_code":"7370134","kana_pref":"ﾋﾛｼﾏｹﾝ","kana_city":"ｸﾚｼ","kana_address":"ﾋﾛﾀｶﾞﾔ","pref":"広島県","city":"呉市","address":"広多賀谷"},
{"zip_code":"7370135","kana_pref":"ﾋﾛｼﾏｹﾝ","kana_city":"ｸﾚｼ","kana_address":"ﾋﾛﾂｸﾓﾁｮｳ","pref":"広島県","city":"呉市","address":"広津久茂町"},
{"zip_code":"7370102","kana_pref":"ﾋﾛｼﾏｹﾝ","kana_city":"ｸﾚｼ","kana_address":"ﾋﾛﾄｸﾏﾙﾁｮｳ","pref":"広島県","city":"呉市","address":"広徳丸町"},
{"zip_code":"7370105","kana_pref":"ﾋﾛｼﾏｹﾝ","kana_city":"ｸﾚｼ","kana_address":"ﾋﾛﾅｶｻｺﾁｮｳ","pref":"広島県","city":"呉市","address":"広中迫町"},
{"zip_code":"7370124","kana_pref":"ﾋﾛｼﾏｹﾝ","kana_city":"ｸﾚｼ","kana_address":"ﾋﾛﾅｶｼﾝｶﾞｲ","pref":"広島県","city":"呉市","address":"広中新開"},
{"zip_code":"7370131","kana_pref":"ﾋﾛｼﾏｹﾝ","kana_city":"ｸﾚｼ","kana_address":"ﾋﾛﾅｶﾁｮｳ","pref":"広島県","city":"呉市","address":"広中町"},
{"zip_code":"7370136","kana_pref":"ﾋﾛｼﾏｹﾝ","kana_city":"ｸﾚｼ","kana_address":"ﾋﾛﾅｶﾞﾊﾏ","pref":"広島県","city":"呉市","address":"広長浜"},
{"zip_code":"7370132","kana_pref":"ﾋﾛｼﾏｹﾝ","kana_city":"ｸﾚｼ","kana_address":"ﾋﾛﾅﾀﾞ","pref":"広島県","city":"呉市","address":"広名田"},
{"zip_code":"7370114","kana_pref":"ﾋﾛｼﾏｹﾝ","kana_city":"ｸﾚｼ","kana_address":"ﾋﾛﾌﾞﾝｶﾁｮｳ","pref":"広島県","city":"呉市","address":"広文化町"},
{"zip_code":"7370107","kana_pref":"ﾋﾛｼﾏｹﾝ","kana_city":"ｸﾚｼ","kana_address":"ﾋﾛﾍﾞﾝﾃﾝﾊﾞｼﾁｮｳ","pref":"広島県","city":"呉市","address":"広弁天橋町"},
{"zip_code":"7370125","kana_pref":"ﾋﾛｼﾏｹﾝ","kana_city":"ｸﾚｼ","kana_address":"ﾋﾛﾎﾝﾏﾁ","pref":"広島県","city":"呉市","address":"広本町"},
{"zip_code":"7372609","kana_pref":"ﾋﾛｼﾏｹﾝ","kana_city":"ｸﾚｼ","kana_address":"ﾋﾛﾏﾁ","pref":"広島県","city":"呉市","address":"広町"},
{"zip_code":"7370002","kana_pref":"ﾋﾛｼﾏｹﾝ","kana_city":"ｸﾚｼ","kana_address":"ﾋﾛﾏﾁ","pref":"広島県","city":"呉市","address":"広町"},
{"zip_code":"7370115","kana_pref":"ﾋﾛｼﾏｹﾝ","kana_city":"ｸﾚｼ","kana_address":"ﾋﾛﾏﾁ","pref":"広島県","city":"呉市","address":"広町"},
{"zip_code":"7370104","kana_pref":"ﾋﾛｼﾏｹﾝ","kana_city":"ｸﾚｼ","kana_address":"ﾋﾛﾏﾁﾀﾞ","pref":"広島県","city":"呉市","address":"広町田"},
{"zip_code":"7370106","kana_pref":"ﾋﾛｼﾏｹﾝ","kana_city":"ｸﾚｼ","kana_address":"ﾋﾛﾐｱｼ","pref":"広島県","city":"呉市","address":"広三芦"},
{"zip_code":"7370113","kana_pref":"ﾋﾛｼﾏｹﾝ","kana_city":"ｸﾚｼ","kana_address":"ﾋﾛﾖｺﾛ","pref":"広島県","city":"呉市","address":"広横路"},
{"zip_code":"7370121","kana_pref":"ﾋﾛｼﾏｹﾝ","kana_city":"ｸﾚｼ","kana_address":"ﾋﾛﾖｼﾏﾂ","pref":"広島県","city":"呉市","address":"広吉松"},
{"zip_code":"7370123","kana_pref":"ﾋﾛｼﾏｹﾝ","kana_city":"ｸﾚｼ","kana_address":"ﾋﾛﾘｮｳﾀﾆ","pref":"広島県","city":"呉市","address":"広両谷"},
{"zip_code":"7370077","kana_pref":"ﾋﾛｼﾏｹﾝ","kana_city":"ｸﾚｼ","kana_address":"ﾌｼﾊﾗ","pref":"広島県","city":"呉市","address":"伏原"},
{"zip_code":"7370015","kana_pref":"ﾋﾛｼﾏｹﾝ","kana_city":"ｸﾚｼ","kana_address":"ﾌﾅﾐﾁｮｳ","pref":"広島県","city":"呉市","address":"船見町"},
{"zip_code":"7370065","kana_pref":"ﾋﾛｼﾏｹﾝ","kana_city":"ｸﾚｼ","kana_address":"ﾎﾞｳｼﾞﾁｮｳ","pref":"広島県","city":"呉市","address":"望地町"},
{"zip_code":"7370045","kana_pref":"ﾋﾛｼﾏｹﾝ","kana_city":"ｸﾚｼ","kana_address":"ﾎﾝﾄﾞｵﾘ","pref":"広島県","city":"呉市","address":"本通"},
{"zip_code":"7370032","kana_pref":"ﾋﾛｼﾏｹﾝ","kana_city":"ｸﾚｼ","kana_address":"ﾎﾝﾏﾁ","pref":"広島県","city":"呉市","address":"本町"},
{"zip_code":"7370013","kana_pref":"ﾋﾛｼﾏｹﾝ","kana_city":"ｸﾚｼ","kana_address":"ﾏﾄﾊﾞ","pref":"広島県","city":"呉市","address":"的場"},
{"zip_code":"7370034","kana_pref":"ﾋﾛｼﾏｹﾝ","kana_city":"ｸﾚｼ","kana_address":"ﾐｿﾞﾛﾁｮｳ","pref":"広島県","city":"呉市","address":"溝路町"},
{"zip_code":"7370802","kana_pref":"ﾋﾛｼﾏｹﾝ","kana_city":"ｸﾚｼ","kana_address":"ﾐﾅﾐﾀﾂｶﾜﾁｮｳ","pref":"広島県","city":"呉市","address":"南辰川町"},
{"zip_code":"7370011","kana_pref":"ﾋﾛｼﾏｹﾝ","kana_city":"ｸﾚｼ","kana_address":"ﾐﾊﾗｼ","pref":"広島県","city":"呉市","address":"見晴"},
{"zip_code":"7370024","kana_pref":"ﾋﾛｼﾏｹﾝ","kana_city":"ｸﾚｼ","kana_address":"ﾐﾔﾊﾗ","pref":"広島県","city":"呉市","address":"宮原"},
{"zip_code":"7370025","kana_pref":"ﾋﾛｼﾏｹﾝ","kana_city":"ｸﾚｼ","kana_address":"ﾑﾛｾﾁｮｳ","pref":"広島県","city":"呉市","address":"室瀬町"},
{"zip_code":"7370904","kana_pref":"ﾋﾛｼﾏｹﾝ","kana_city":"ｸﾚｼ","kana_address":"ﾔｹﾔﾏ","pref":"広島県","city":"呉市","address":"焼山"},
{"zip_code":"7370913","kana_pref":"ﾋﾛｼﾏｹﾝ","kana_city":"ｸﾚｼ","kana_address":"ﾔｹﾔﾏｲｽﾞﾐｶﾞｵｶ","pref":"広島県","city":"呉市","address":"焼山泉ケ丘"},
{"zip_code":"7370902","kana_pref":"ﾋﾛｼﾏｹﾝ","kana_city":"ｸﾚｼ","kana_address":"ﾔｹﾔﾏｺﾉﾊﾗﾁｮｳ","pref":"広島県","city":"呉市","address":"焼山此原町"},
{"zip_code":"7370933","kana_pref":"ﾋﾛｼﾏｹﾝ","kana_city":"ｸﾚｼ","kana_address":"ﾔｹﾔﾏｻｸﾗｶﾞｵｶ","pref":"広島県","city":"呉市","address":"焼山桜ケ丘"},
{"zip_code":"7370935","kana_pref":"ﾋﾛｼﾏｹﾝ","kana_city":"ｸﾚｼ","kana_address":"ﾔｹﾔﾏﾁｭｳｵｳ","pref":"広島県","city":"呉市","address":"焼山中央"},
{"zip_code":"7370901","kana_pref":"ﾋﾛｼﾏｹﾝ","kana_city":"ｸﾚｼ","kana_address":"ﾔｹﾔﾏﾋﾊﾞﾘｶﾞｵｶﾁｮｳ","pref":"広島県","city":"呉市","address":"焼山ひばりケ丘町"},
{"zip_code":"7370912","kana_pref":"ﾋﾛｼﾏｹﾝ","kana_city":"ｸﾚｼ","kana_address":"ﾔｹﾔﾏﾎﾝｼﾞｮｳ","pref":"広島県","city":"呉市","address":"焼山本庄"},
{"zip_code":"7370934","kana_pref":"ﾋﾛｼﾏｹﾝ","kana_city":"ｸﾚｼ","kana_address":"ﾔｹﾔﾏﾏｻｳﾈ","pref":"広島県","city":"呉市","address":"焼山政畝"},
{"zip_code":"7370932","kana_pref":"ﾋﾛｼﾏｹﾝ","kana_city":"ｸﾚｼ","kana_address":"ﾔｹﾔﾏﾏﾂｶﾞｵｶ","pref":"広島県","city":"呉市","address":"焼山松ケ丘"},
{"zip_code":"7370931","kana_pref":"ﾋﾛｼﾏｹﾝ","kana_city":"ｸﾚｼ","kana_address":"ﾔｹﾔﾏﾐﾂｲｼﾁｮｳ","pref":"広島県","city":"呉市","address":"焼山三ツ石町"},
{"zip_code":"7370908","kana_pref":"ﾋﾛｼﾏｹﾝ","kana_city":"ｸﾚｼ","kana_address":"ﾔｹﾔﾏﾐﾔｶﾞｻｺ","pref":"広島県","city":"呉市","address":"焼山宮ケ迫"},
{"zip_code":"7370936","kana_pref":"ﾋﾛｼﾏｹﾝ","kana_city":"ｸﾚｼ","kana_address":"ﾔｹﾔﾏﾋｶﾞｼ","pref":"広島県","city":"呉市","address":"焼山東"},
{"zip_code":"7370903","kana_pref":"ﾋﾛｼﾏｹﾝ","kana_city":"ｸﾚｼ","kana_address":"ﾔｹﾔﾏﾆｼ","pref":"広島県","city":"呉市","address":"焼山西"},
{"zip_code":"7370924","kana_pref":"ﾋﾛｼﾏｹﾝ","kana_city":"ｸﾚｼ","kana_address":"ﾔｹﾔﾏﾐﾅﾐ","pref":"広島県","city":"呉市","address":"焼山南"},
{"zip_code":"7370911","kana_pref":"ﾋﾛｼﾏｹﾝ","kana_city":"ｸﾚｼ","kana_address":"ﾔｹﾔﾏｷﾀ","pref":"広島県","city":"呉市","address":"焼山北"},
{"zip_code":"7370906","kana_pref":"ﾋﾛｼﾏｹﾝ","kana_city":"ｸﾚｼ","kana_address":"ﾔｹﾔﾏﾁｮｳ","pref":"広島県","city":"呉市","address":"焼山町"},
{"zip_code":"7370905","kana_pref":"ﾋﾛｼﾏｹﾝ","kana_city":"ｸﾚｼ","kana_address":"ﾔｹﾔﾏﾁｮｳ","pref":"広島県","city":"呉市","address":"焼山町"},
{"zip_code":"7370907","kana_pref":"ﾋﾛｼﾏｹﾝ","kana_city":"ｸﾚｼ","kana_address":"ﾔｹﾔﾏﾁｮｳ","pref":"広島県","city":"呉市","address":"焼山町"},
{"zip_code":"7372511","kana_pref":"ﾋﾛｼﾏｹﾝ","kana_city":"ｸﾚｼ","kana_address":"ﾔｽｳﾗﾁｮｳｱｺｳｻﾞｶ","pref":"広島県","city":"呉市","address":"安浦町赤向坂"},
{"zip_code":"7372503","kana_pref":"ﾋﾛｼﾏｹﾝ","kana_city":"ｸﾚｼ","kana_address":"ﾔｽｳﾗﾁｮｳｱﾄ","pref":"広島県","city":"呉市","address":"安浦町安登"},
{"zip_code":"7372512","kana_pref":"ﾋﾛｼﾏｹﾝ","kana_city":"ｸﾚｼ","kana_address":"ﾔｽｳﾗﾁｮｳｱﾄﾆｼ","pref":"広島県","city":"呉市","address":"安浦町安登西"},
{"zip_code":"7372513","kana_pref":"ﾋﾛｼﾏｹﾝ","kana_city":"ｸﾚｼ","kana_address":"ﾔｽｳﾗﾁｮｳｱﾄﾋｶﾞｼ","pref":"広島県","city":"呉市","address":"安浦町安登東"},
{"zip_code":"7372507","kana_pref":"ﾋﾛｼﾏｹﾝ","kana_city":"ｸﾚｼ","kana_address":"ﾔｽｳﾗﾁｮｳｳﾁﾉｳﾐ","pref":"広島県","city":"呉市","address":"安浦町内海"},
{"zip_code":"7372518","kana_pref":"ﾋﾛｼﾏｹﾝ","kana_city":"ｸﾚｼ","kana_address":"ﾔｽｳﾗﾁｮｳｳﾁﾉｳﾐｷﾀ","pref":"広島県","city":"呉市","address":"安浦町内海北"},
{"zip_code":"7372519","kana_pref":"ﾋﾛｼﾏｹﾝ","kana_city":"ｸﾚｼ","kana_address":"ﾔｽｳﾗﾁｮｳｳﾁﾉｳﾐﾐﾅﾐ","pref":"広島県","city":"呉市","address":"安浦町内海南"},
{"zip_code":"7372505","kana_pref":"ﾋﾛｼﾏｹﾝ","kana_city":"ｸﾚｼ","kana_address":"ﾔｽｳﾗﾁｮｳｳﾁﾋﾗ","pref":"広島県","city":"呉市","address":"安浦町内平"},
{"zip_code":"7372501","kana_pref":"ﾋﾛｼﾏｹﾝ","kana_city":"ｸﾚｼ","kana_address":"ﾔｽｳﾗﾁｮｳｵﾅｺﾞﾊﾞﾀ","pref":"広島県","city":"呉市","address":"安浦町女子畑"},
{"zip_code":"7372509","kana_pref":"ﾋﾛｼﾏｹﾝ","kana_city":"ｸﾚｼ","kana_address":"ﾔｽｳﾗﾁｮｳｼﾓｶﾞｳﾁ","pref":"広島県","city":"呉市","address":"安浦町下垣内"},
{"zip_code":"7372516","kana_pref":"ﾋﾛｼﾏｹﾝ","kana_city":"ｸﾚｼ","kana_address":"ﾔｽｳﾗﾁｮｳﾁｭｳｵｳ","pref":"広島県","city":"呉市","address":"安浦町中央"},
{"zip_code":"7372515","kana_pref":"ﾋﾛｼﾏｹﾝ","kana_city":"ｸﾚｼ","kana_address":"ﾔｽｳﾗﾁｮｳﾁｭｳｵｳｷﾀ","pref":"広島県","city":"呉市","address":"安浦町中央北"},
{"zip_code":"7372514","kana_pref":"ﾋﾛｼﾏｹﾝ","kana_city":"ｸﾚｼ","kana_address":"ﾔｽｳﾗﾁｮｳﾁｭｳｵｳﾊｲﾂ","pref":"広島県","city":"呉市","address":"安浦町中央ハイツ"},
{"zip_code":"7372609","kana_pref":"ﾋﾛｼﾏｹﾝ","kana_city":"ｸﾚｼ","kana_address":"ﾔｽｳﾗﾁｮｳﾅｶｷﾞﾘ","pref":"広島県","city":"呉市","address":"安浦町中切"},
{"zip_code":"7372504","kana_pref":"ﾋﾛｼﾏｹﾝ","kana_city":"ｸﾚｼ","kana_address":"ﾔｽｳﾗﾁｮｳﾅｶｷﾞﾘ","pref":"広島県","city":"呉市","address":"安浦町中切"},
{"zip_code":"7372609","kana_pref":"ﾋﾛｼﾏｹﾝ","kana_city":"ｸﾚｼ","kana_address":"ﾔｽｳﾗﾁｮｳﾅｶﾊﾀ","pref":"広島県","city":"呉市","address":"安浦町中畑"},
{"zip_code":"7372609","kana_pref":"ﾋﾛｼﾏｹﾝ","kana_city":"ｸﾚｼ","kana_address":"ﾔｽｳﾗﾁｮｳﾅｶﾊﾀ","pref":"広島県","city":"呉市","address":"安浦町中畑"},
{"zip_code":"7372609","kana_pref":"ﾋﾛｼﾏｹﾝ","kana_city":"ｸﾚｼ","kana_address":"ﾔｽｳﾗﾁｮｳﾅｶﾊﾀ","pref":"広島県","city":"呉市","address":"安浦町中畑"},
{"zip_code":"7372508","kana_pref":"ﾋﾛｼﾏｹﾝ","kana_city":"ｸﾚｼ","kana_address":"ﾔｽｳﾗﾁｮｳﾅｶﾊﾀ","pref":"広島県","city":"呉市","address":"安浦町中畑"},
{"zip_code":"7372609","kana_pref":"ﾋﾛｼﾏｹﾝ","kana_city":"ｸﾚｼ","kana_address":"ﾔｽｳﾗﾁｮｳﾅｶﾊﾀ","pref":"広島県","city":"呉市","address":"安浦町中畑"},
{"zip_code":"7372609","kana_pref":"ﾋﾛｼﾏｹﾝ","kana_city":"ｸﾚｼ","kana_address":"ﾔｽｳﾗﾁｮｳﾅｶﾊﾀ","pref":"広島県","city":"呉市","address":"安浦町中畑"},
{"zip_code":"7372609","kana_pref":"ﾋﾛｼﾏｹﾝ","kana_city":"ｸﾚｼ","kana_address":"ﾔｽｳﾗﾁｮｳﾅｶﾊﾀ","pref":"広島県","city":"呉市","address":"安浦町中畑"},
{"zip_code":"7372609","kana_pref":"ﾋﾛｼﾏｹﾝ","kana_city":"ｸﾚｼ","kana_address":"ﾔｽｳﾗﾁｮｳﾉﾛｻﾝ","pref":"広島県","city":"呉市","address":"安浦町野呂山"},
{"zip_code":"7372506","kana_pref":"ﾋﾛｼﾏｹﾝ","kana_city":"ｸﾚｼ","kana_address":"ﾔｽｳﾗﾁｮｳﾊﾗﾊﾀ","pref":"広島県","city":"呉市","address":"安浦町原畑"},
{"zip_code":"7372517","kana_pref":"ﾋﾛｼﾏｹﾝ","kana_city":"ｸﾚｼ","kana_address":"ﾔｽｳﾗﾁｮｳﾐｽﾞｼﾘ","pref":"広島県","city":"呉市","address":"安浦町水尻"},
{"zip_code":"7372502","kana_pref":"ﾋﾛｼﾏｹﾝ","kana_city":"ｸﾚｼ","kana_address":"ﾔｽｳﾗﾁｮｳﾐﾂｸﾞﾁ","pref":"広島県","city":"呉市","address":"安浦町三津口"},
{"zip_code":"7370044","kana_pref":"ﾋﾛｼﾏｹﾝ","kana_city":"ｸﾚｼ","kana_address":"ﾔﾊﾀﾁｮｳ","pref":"広島県","city":"呉市","address":"八幡町"},
{"zip_code":"7370814","kana_pref":"ﾋﾛｼﾏｹﾝ","kana_city":"ｸﾚｼ","kana_address":"ﾔﾏﾃ","pref":"広島県","city":"呉市","address":"山手"},
{"zip_code":"7370877","kana_pref":"ﾋﾛｼﾏｹﾝ","kana_city":"ｸﾚｼ","kana_address":"ﾔﾖｲﾁｮｳ","pref":"広島県","city":"呉市","address":"弥生町"},
{"zip_code":"7370844","kana_pref":"ﾋﾛｼﾏｹﾝ","kana_city":"ｸﾚｼ","kana_address":"ﾖｼｳﾗｲｹﾉｳﾗﾁｮｳ","pref":"広島県","city":"呉市","address":"吉浦池ノ浦町"},
{"zip_code":"7370865","kana_pref":"ﾋﾛｼﾏｹﾝ","kana_city":"ｸﾚｼ","kana_address":"ﾖｼｳﾗｲﾜｶﾞﾐﾁｮｳ","pref":"広島県","city":"呉市","address":"吉浦岩神町"},
{"zip_code":"7370867","kana_pref":"ﾋﾛｼﾏｹﾝ","kana_city":"ｸﾚｼ","kana_address":"ﾖｼｳﾗｶﾐｼﾞｮｳﾁｮｳ","pref":"広島県","city":"呉市","address":"吉浦上城町"},
{"zip_code":"7370851","kana_pref":"ﾋﾛｼﾏｹﾝ","kana_city":"ｸﾚｼ","kana_address":"ﾖｼｳﾗｼﾝﾃﾞﾁｮｳ","pref":"広島県","city":"呉市","address":"吉浦新出町"},
{"zip_code":"7370845","kana_pref":"ﾋﾛｼﾏｹﾝ","kana_city":"ｸﾚｼ","kana_address":"ﾖｼｳﾗｼﾝﾏﾁ","pref":"広島県","city":"呉市","address":"吉浦新町"},
{"zip_code":"7370841","kana_pref":"ﾋﾛｼﾏｹﾝ","kana_city":"ｸﾚｼ","kana_address":"ﾖｼｳﾗｼﾞﾝｶﾞﾁｮｳ","pref":"広島県","city":"呉市","address":"吉浦神賀町"},
{"zip_code":"7370843","kana_pref":"ﾋﾛｼﾏｹﾝ","kana_city":"ｸﾚｼ","kana_address":"ﾖｼｳﾗﾀﾝｺﾁｮｳ","pref":"広島県","city":"呉市","address":"吉浦潭鼓町"},
{"zip_code":"7370853","kana_pref":"ﾋﾛｼﾏｹﾝ","kana_city":"ｸﾚｼ","kana_address":"ﾖｼｳﾗﾅｶﾏﾁ","pref":"広島県","city":"呉市","address":"吉浦中町"},
{"zip_code":"7370864","kana_pref":"ﾋﾛｼﾏｹﾝ","kana_city":"ｸﾚｼ","kana_address":"ﾖｼｳﾗﾆｼｼﾞｮｳﾁｮｳ","pref":"広島県","city":"呉市","address":"吉浦西城町"},
{"zip_code":"7370852","kana_pref":"ﾋﾛｼﾏｹﾝ","kana_city":"ｸﾚｼ","kana_address":"ﾖｼｳﾗﾋｶﾞｼﾎﾝﾏﾁ","pref":"広島県","city":"呉市","address":"吉浦東本町"},
{"zip_code":"7370842","kana_pref":"ﾋﾛｼﾏｹﾝ","kana_city":"ｸﾚｼ","kana_address":"ﾖｼｳﾗﾋｶﾞｼﾏﾁ","pref":"広島県","city":"呉市","address":"吉浦東町"},
{"zip_code":"7370861","kana_pref":"ﾋﾛｼﾏｹﾝ","kana_city":"ｸﾚｼ","kana_address":"ﾖｼｳﾗﾎﾝﾏﾁ","pref":"広島県","city":"呉市","address":"吉浦本町"},
{"zip_code":"7370866","kana_pref":"ﾋﾛｼﾏｹﾝ","kana_city":"ｸﾚｼ","kana_address":"ﾖｼｳﾗﾏﾂﾊﾞﾁｮｳ","pref":"広島県","city":"呉市","address":"吉浦松葉町"},
{"zip_code":"7370863","kana_pref":"ﾋﾛｼﾏｹﾝ","kana_city":"ｸﾚｼ","kana_address":"ﾖｼｳﾗﾐﾔﾊﾅﾁｮｳ","pref":"広島県","city":"呉市","address":"吉浦宮花町"},
{"zip_code":"7370846","kana_pref":"ﾋﾛｼﾏｹﾝ","kana_city":"ｸﾚｼ","kana_address":"ﾖｼｳﾗﾁｮｳ","pref":"広島県","city":"呉市","address":"吉浦町"},
{"zip_code":"7370854","kana_pref":"ﾋﾛｼﾏｹﾝ","kana_city":"ｸﾚｼ","kana_address":"ﾖｼｳﾗﾁｮｳ","pref":"広島県","city":"呉市","address":"吉浦町"},
{"zip_code":"7370826","kana_pref":"ﾋﾛｼﾏｹﾝ","kana_city":"ｸﾚｼ","kana_address":"ﾘｮｳｼﾞｮｳ","pref":"広島県","city":"呉市","address":"両城"},
{"zip_code":"7370832","kana_pref":"ﾋﾛｼﾏｹﾝ","kana_city":"ｸﾚｼ","kana_address":"ﾜｶﾊﾞﾁｮｳ","pref":"広島県","city":"呉市","address":"若葉町"},
{"zip_code":"7370041","kana_pref":"ﾋﾛｼﾏｹﾝ","kana_city":"ｸﾚｼ","kana_address":"ﾜｼｮｳ","pref":"広島県","city":"呉市","address":"和庄"},
{"zip_code":"7370043","kana_pref":"ﾋﾛｼﾏｹﾝ","kana_city":"ｸﾚｼ","kana_address":"ﾜｼｮｳﾉﾎﾞﾘﾏﾁ","pref":"広島県","city":"呉市","address":"和庄登町"},
{"zip_code":"7370042","kana_pref":"ﾋﾛｼﾏｹﾝ","kana_city":"ｸﾚｼ","kana_address":"ﾜｼｮｳﾎﾝﾏﾁ","pref":"広島県","city":"呉市","address":"和庄本町"},
{"zip_code":"7372100","kana_pref":"ﾋﾛｼﾏｹﾝ","kana_city":"ｴﾀｼﾞﾏｼ","kana_address":"","pref":"広島県","city":"江田島市","address":""},
{"zip_code":"7372131","kana_pref":"ﾋﾛｼﾏｹﾝ","kana_city":"ｴﾀｼﾞﾏｼ","kana_address":"ｴﾀｼﾞﾏﾁｮｳｱｷﾂﾞｷ","pref":"広島県","city":"江田島市","address":"江田島町秋月"},
{"zip_code":"7372113","kana_pref":"ﾋﾛｼﾏｹﾝ","kana_city":"ｴﾀｼﾞﾏｼ","kana_address":"ｴﾀｼﾞﾏﾁｮｳｵｵｽﾞ","pref":"広島県","city":"江田島市","address":"江田島町大須"},
{"zip_code":"7372125","kana_pref":"ﾋﾛｼﾏｹﾝ","kana_city":"ｴﾀｼﾞﾏｼ","kana_address":"ｴﾀｼﾞﾏﾁｮｳｵｵﾊﾗﾄｯｶﾘｼｭｸｼｬ","pref":"広島県","city":"江田島市","address":"江田島町大原特借宿舎"},
{"zip_code":"7372111","kana_pref":"ﾋﾛｼﾏｹﾝ","kana_city":"ｴﾀｼﾞﾏｼ","kana_address":"ｴﾀｼﾞﾏﾁｮｳｷﾘｸｼ","pref":"広島県","city":"江田島市","address":"江田島町切串"},
{"zip_code":"7372132","kana_pref":"ﾋﾛｼﾏｹﾝ","kana_city":"ｴﾀｼﾞﾏｼ","kana_address":"ｴﾀｼﾞﾏﾁｮｳｺｳﾅﾝ","pref":"広島県","city":"江田島市","address":"江田島町江南"},
{"zip_code":"7372112","kana_pref":"ﾋﾛｼﾏｹﾝ","kana_city":"ｴﾀｼﾞﾏｼ","kana_address":"ｴﾀｼﾞﾏﾁｮｳｺｳﾉｳﾗ","pref":"広島県","city":"江田島市","address":"江田島町幸之浦"},
{"zip_code":"7372123","kana_pref":"ﾋﾛｼﾏｹﾝ","kana_city":"ｴﾀｼﾞﾏｼ","kana_address":"ｴﾀｼﾞﾏﾁｮｳｺｸﾕｳﾑﾊﾞﾝﾁ","pref":"広島県","city":"江田島市","address":"江田島町国有無番地"},
{"zip_code":"7372121","kana_pref":"ﾋﾛｼﾏｹﾝ","kana_city":"ｴﾀｼﾞﾏｼ","kana_address":"ｴﾀｼﾞﾏﾁｮｳｺﾖｳ","pref":"広島県","city":"江田島市","address":"江田島町小用"},
{"zip_code":"7372122","kana_pref":"ﾋﾛｼﾏｹﾝ","kana_city":"ｴﾀｼﾞﾏｼ","kana_address":"ｴﾀｼﾞﾏﾁｮｳﾁｭｳｵｳ","pref":"広島県","city":"江田島市","address":"江田島町中央"},
{"zip_code":"7372126","kana_pref":"ﾋﾛｼﾏｹﾝ","kana_city":"ｴﾀｼﾞﾏｼ","kana_address":"ｴﾀｼﾞﾏﾁｮｳﾂｸﾓ","pref":"広島県","city":"江田島市","address":"江田島町津久茂"},
{"zip_code":"7372124","kana_pref":"ﾋﾛｼﾏｹﾝ","kana_city":"ｴﾀｼﾞﾏｼ","kana_address":"ｴﾀｼﾞﾏﾁｮｳﾐﾔﾉﾊﾗ","pref":"広島県","city":"江田島市","address":"江田島町宮ノ原"},
{"zip_code":"7372133","kana_pref":"ﾋﾛｼﾏｹﾝ","kana_city":"ｴﾀｼﾞﾏｼ","kana_address":"ｴﾀｼﾞﾏﾁｮｳﾜｼﾍﾞ","pref":"広島県","city":"江田島市","address":"江田島町鷲部"},
{"zip_code":"7372212","kana_pref":"ﾋﾛｼﾏｹﾝ","kana_city":"ｴﾀｼﾞﾏｼ","kana_address":"ｵｵｶﾞｷﾁｮｳｵｵｷﾐ","pref":"広島県","city":"江田島市","address":"大柿町大君"},
{"zip_code":"7372213","kana_pref":"ﾋﾛｼﾏｹﾝ","kana_city":"ｴﾀｼﾞﾏｼ","kana_address":"ｵｵｶﾞｷﾁｮｳｵｵﾊﾞﾗ","pref":"広島県","city":"江田島市","address":"大柿町大原"},
{"zip_code":"7372215","kana_pref":"ﾋﾛｼﾏｹﾝ","kana_city":"ｴﾀｼﾞﾏｼ","kana_address":"ｵｵｶﾞｷﾁｮｳｵﾌﾞﾚ","pref":"広島県","city":"江田島市","address":"大柿町小古江"},
{"zip_code":"7372211","kana_pref":"ﾋﾛｼﾏｹﾝ","kana_city":"ｴﾀｼﾞﾏｼ","kana_address":"ｵｵｶﾞｷﾁｮｳｶｷｳﾗ","pref":"広島県","city":"江田島市","address":"大柿町柿浦"},
{"zip_code":"7372101","kana_pref":"ﾋﾛｼﾏｹﾝ","kana_city":"ｴﾀｼﾞﾏｼ","kana_address":"ｵｵｶﾞｷﾁｮｳﾋﾄﾉｾ","pref":"広島県","city":"江田島市","address":"大柿町飛渡瀬"},
{"zip_code":"7372214","kana_pref":"ﾋﾛｼﾏｹﾝ","kana_city":"ｴﾀｼﾞﾏｼ","kana_address":"ｵｵｶﾞｷﾁｮｳﾌｶｴ","pref":"広島県","city":"江田島市","address":"大柿町深江"},
{"zip_code":"7372311","kana_pref":"ﾋﾛｼﾏｹﾝ","kana_city":"ｴﾀｼﾞﾏｼ","kana_address":"ｵｷﾐﾁｮｳｵｶﾀﾞｲｵｳ","pref":"広島県","city":"江田島市","address":"沖美町岡大王"},
{"zip_code":"7372315","kana_pref":"ﾋﾛｼﾏｹﾝ","kana_city":"ｴﾀｼﾞﾏｼ","kana_address":"ｵｷﾐﾁｮｳｺｳｿ","pref":"広島県","city":"江田島市","address":"沖美町高祖"},
{"zip_code":"7372313","kana_pref":"ﾋﾛｼﾏｹﾝ","kana_city":"ｴﾀｼﾞﾏｼ","kana_address":"ｵｷﾐﾁｮｳｺﾚﾅｶﾞ","pref":"広島県","city":"江田島市","address":"沖美町是長"},
{"zip_code":"7372312","kana_pref":"ﾋﾛｼﾏｹﾝ","kana_city":"ｴﾀｼﾞﾏｼ","kana_address":"ｵｷﾐﾁｮｳﾊﾀ","pref":"広島県","city":"江田島市","address":"沖美町畑"},
{"zip_code":"7372314","kana_pref":"ﾋﾛｼﾏｹﾝ","kana_city":"ｴﾀｼﾞﾏｼ","kana_address":"ｵｷﾐﾁｮｳﾐﾉｳ","pref":"広島県","city":"江田島市","address":"沖美町美能"},
{"zip_code":"7372316","kana_pref":"ﾋﾛｼﾏｹﾝ","kana_city":"ｴﾀｼﾞﾏｼ","kana_address":"ｵｷﾐﾁｮｳﾐﾖｼ","pref":"広島県","city":"江田島市","address":"沖美町三吉"},
{"zip_code":"7372302","kana_pref":"ﾋﾛｼﾏｹﾝ","kana_city":"ｴﾀｼﾞﾏｼ","kana_address":"ﾉｳﾐﾁｮｳｶﾉｶﾜ","pref":"広島県","city":"江田島市","address":"能美町鹿川"},
{"zip_code":"7372303","kana_pref":"ﾋﾛｼﾏｹﾝ","kana_city":"ｴﾀｼﾞﾏｼ","kana_address":"ﾉｳﾐﾁｮｳﾀｶﾀ","pref":"広島県","city":"江田島市","address":"能美町高田"},
{"zip_code":"7372301","kana_pref":"ﾋﾛｼﾏｹﾝ","kana_city":"ｴﾀｼﾞﾏｼ","kana_address":"ﾉｳﾐﾁｮｳﾅｶﾏﾁ","pref":"広島県","city":"江田島市","address":"能美町中町"}]}