{"zip_code":[
{"zip_code":"7380514","kana_pref":"ﾋﾛｼﾏｹﾝ","kana_city":"ﾋﾛｼﾏｼｻｴｷｸ","kana_address":"ｽｷﾞﾅﾐﾀﾞｲ","pref":"広島県","city":"広島市佐伯区","address":"杉並台"},
{"zip_code":"7380603","kana_pref":"ﾋﾛｼﾏｹﾝ","kana_city":"ﾋﾛｼﾏｼｻｴｷｸ","kana_address":"ﾕｷﾁｮｳｼﾓ","pref":"広島県","city":"広島市佐伯区","address":"湯来町下"},
{"zip_code":"7380512","kana_pref":"ﾋﾛｼﾏｹﾝ","kana_city":"ﾋﾛｼﾏｼｻｴｷｸ","kana_address":"ﾕｷﾁｮｳｼﾗｻｺﾞ","pref":"広島県","city":"広島市佐伯区","address":"湯来町白砂"},
{"zip_code":"7380513","kana_pref":"ﾋﾛｼﾏｹﾝ","kana_city":"ﾋﾛｼﾏｼｻｴｷｸ","kana_address":"ﾕｷﾁｮｳｽｶﾞｻﾜ","pref":"広島県","city":"広島市佐伯区","address":"湯来町菅沢"},
{"zip_code":"7380722","kana_pref":"ﾋﾛｼﾏｹﾝ","kana_city":"ﾋﾛｼﾏｼｻｴｷｸ","kana_address":"ﾕｷﾁｮｳｽｶﾞｻﾜ","pref":"広島県","city":"広島市佐伯区","address":"湯来町菅沢"},
{"zip_code":"7380721","kana_pref":"ﾋﾛｼﾏｹﾝ","kana_city":"ﾋﾛｼﾏｼｻｴｷｸ","kana_address":"ﾕｷﾁｮｳﾀﾀﾞ","pref":"広島県","city":"広島市佐伯区","address":"湯来町多田"},
{"zip_code":"7380511","kana_pref":"ﾋﾛｼﾏｹﾝ","kana_city":"ﾋﾛｼﾏｼｻｴｷｸ","kana_address":"ﾕｷﾁｮｳﾂﾂﾞﾗﾊﾗ","pref":"広島県","city":"広島市佐伯区","address":"湯来町葛原"},
{"zip_code":"7380513","kana_pref":"ﾋﾛｼﾏｹﾝ","kana_city":"ﾋﾛｼﾏｼｻｴｷｸ","kana_address":"ﾕｷﾁｮｳﾌｼﾀﾞﾆ","pref":"広島県","city":"広島市佐伯区","address":"湯来町伏谷"},
{"zip_code":"7380602","kana_pref":"ﾋﾛｼﾏｹﾝ","kana_city":"ﾋﾛｼﾏｼｻｴｷｸ","kana_address":"ﾕｷﾁｮｳﾑｷﾞﾀﾆ","pref":"広島県","city":"広島市佐伯区","address":"湯来町麦谷"},
{"zip_code":"7380601","kana_pref":"ﾋﾛｼﾏｹﾝ","kana_city":"ﾋﾛｼﾏｼｻｴｷｸ","kana_address":"ﾕｷﾁｮｳﾜﾀﾞ","pref":"広島県","city":"広島市佐伯区","address":"湯来町和田"},
{"zip_code":"7380000","kana_pref":"ﾋﾛｼﾏｹﾝ","kana_city":"ﾊﾂｶｲﾁｼ","kana_address":"","pref":"広島県","city":"廿日市市","address":""},
{"zip_code":"7380223","kana_pref":"ﾋﾛｼﾏｹﾝ","kana_city":"ﾊﾂｶｲﾁｼ","kana_address":"ｱｻﾊﾗ","pref":"広島県","city":"廿日市市","address":"浅原"},
{"zip_code":"7380054","kana_pref":"ﾋﾛｼﾏｹﾝ","kana_city":"ﾊﾂｶｲﾁｼ","kana_address":"ｱｼﾞﾅ","pref":"広島県","city":"廿日市市","address":"阿品"},
{"zip_code":"7380053","kana_pref":"ﾋﾛｼﾏｹﾝ","kana_city":"ﾊﾂｶｲﾁｼ","kana_address":"ｱｼﾞﾅﾀﾞｲ","pref":"広島県","city":"廿日市市","address":"阿品台"},
{"zip_code":"7380051","kana_pref":"ﾋﾛｼﾏｹﾝ","kana_city":"ﾊﾂｶｲﾁｼ","kana_address":"ｱｼﾞﾅﾀﾞｲｷﾀ","pref":"広島県","city":"廿日市市","address":"阿品台北"},
{"zip_code":"7380055","kana_pref":"ﾋﾛｼﾏｹﾝ","kana_city":"ﾊﾂｶｲﾁｼ","kana_address":"ｱｼﾞﾅﾀﾞｲﾆｼ","pref":"広島県","city":"廿日市市","address":"阿品台西"},
{"zip_code":"7380052","kana_pref":"ﾋﾛｼﾏｹﾝ","kana_city":"ﾊﾂｶｲﾁｼ","kana_address":"ｱｼﾞﾅﾀﾞｲﾋｶﾞｼ","pref":"広島県","city":"廿日市市","address":"阿品台東"},
{"zip_code":"7380056","kana_pref":"ﾋﾛｼﾏｹﾝ","kana_city":"ﾊﾂｶｲﾁｼ","kana_address":"ｱｼﾞﾅﾀﾞｲﾔﾏﾉﾃ","pref":"広島県","city":"廿日市市","address":"阿品台山の手"},
{"zip_code":"7380226","kana_pref":"ﾋﾛｼﾏｹﾝ","kana_city":"ﾊﾂｶｲﾁｼ","kana_address":"ｲｲﾉﾔﾏ","pref":"広島県","city":"廿日市市","address":"飯山"},
{"zip_code":"7380011","kana_pref":"ﾋﾛｼﾏｹﾝ","kana_city":"ﾊﾂｶｲﾁｼ","kana_address":"ｴｷﾏｴ","pref":"広島県","city":"廿日市市","address":"駅前"},
{"zip_code":"7380281","kana_pref":"ﾋﾛｼﾏｹﾝ","kana_city":"ﾊﾂｶｲﾁｼ","kana_address":"ｵｵﾉｶﾗｽｶﾞｵｶ","pref":"広島県","city":"廿日市市","address":"大野鴉ケ岡"},
{"zip_code":"7380282","kana_pref":"ﾋﾛｼﾏｹﾝ","kana_city":"ﾊﾂｶｲﾁｼ","kana_address":"ｵｵﾉﾜﾀﾉｾ","pref":"広島県","city":"廿日市市","address":"大野渡ノ瀬"},
{"zip_code":"7380006","kana_pref":"ﾋﾛｼﾏｹﾝ","kana_city":"ﾊﾂｶｲﾁｼ","kana_address":"ｵｵﾋｶﾞｼ","pref":"広島県","city":"廿日市市","address":"大東"},
{"zip_code":"7380016","kana_pref":"ﾋﾛｼﾏｹﾝ","kana_city":"ﾊﾂｶｲﾁｼ","kana_address":"ｶｱｲ","pref":"広島県","city":"廿日市市","address":"可愛"},
{"zip_code":"7380026","kana_pref":"ﾋﾛｼﾏｹﾝ","kana_city":"ﾊﾂｶｲﾁｼ","kana_address":"ｶﾐﾍﾗ","pref":"広島県","city":"廿日市市","address":"上平良"},
{"zip_code":"7380204","kana_pref":"ﾋﾛｼﾏｹﾝ","kana_city":"ﾊﾂｶｲﾁｼ","kana_address":"ｶﾜﾂﾞﾊﾗ","pref":"広島県","city":"廿日市市","address":"河津原"},
{"zip_code":"7380033","kana_pref":"ﾋﾛｼﾏｹﾝ","kana_city":"ﾊﾂｶｲﾁｼ","kana_address":"ｸｼﾄﾞ","pref":"広島県","city":"廿日市市","address":"串戸"},
{"zip_code":"7380205","kana_pref":"ﾋﾛｼﾏｹﾝ","kana_city":"ﾊﾂｶｲﾁｼ","kana_address":"ｸｼﾞﾏ","pref":"広島県","city":"廿日市市","address":"玖島"},
{"zip_code":"7380224","kana_pref":"ﾋﾛｼﾏｹﾝ","kana_city":"ﾊﾂｶｲﾁｼ","kana_address":"ｸﾘｽ","pref":"広島県","city":"廿日市市","address":"栗栖"},
{"zip_code":"7380001","kana_pref":"ﾋﾛｼﾏｹﾝ","kana_city":"ﾊﾂｶｲﾁｼ","kana_address":"ｻｶﾞﾀ","pref":"広島県","city":"廿日市市","address":"佐方"},
{"zip_code":"7380003","kana_pref":"ﾋﾛｼﾏｹﾝ","kana_city":"ﾊﾂｶｲﾁｼ","kana_address":"ｻｶﾞﾀﾎﾝﾏﾁ","pref":"広島県","city":"廿日市市","address":"佐方本町"},
{"zip_code":"7380004","kana_pref":"ﾋﾛｼﾏｹﾝ","kana_city":"ﾊﾂｶｲﾁｼ","kana_address":"ｻｸﾗｵ","pref":"広島県","city":"廿日市市","address":"桜尾"},
{"zip_code":"7380005","kana_pref":"ﾋﾛｼﾏｹﾝ","kana_city":"ﾊﾂｶｲﾁｼ","kana_address":"ｻｸﾗｵﾎﾝﾏﾁ","pref":"広島県","city":"廿日市市","address":"桜尾本町"},
{"zip_code":"7380002","kana_pref":"ﾋﾛｼﾏｹﾝ","kana_city":"ﾊﾂｶｲﾁｼ","kana_address":"ｻﾝﾖｳｴﾝ","pref":"広島県","city":"廿日市市","address":"山陽園"},
{"zip_code":"7380036","kana_pref":"ﾋﾛｼﾏｹﾝ","kana_city":"ﾊﾂｶｲﾁｼ","kana_address":"ｼｷｶﾞｵｶ","pref":"広島県","city":"廿日市市","address":"四季が丘"},
{"zip_code":"7380038","kana_pref":"ﾋﾛｼﾏｹﾝ","kana_city":"ﾊﾂｶｲﾁｼ","kana_address":"ｼｷｶﾞｵｶｶﾐ","pref":"広島県","city":"廿日市市","address":"四季が丘上"},
{"zip_code":"7380042","kana_pref":"ﾋﾛｼﾏｹﾝ","kana_city":"ﾊﾂｶｲﾁｼ","kana_address":"ｼﾞｺﾞｾﾞﾝ","pref":"広島県","city":"廿日市市","address":"地御前"},
{"zip_code":"7380043","kana_pref":"ﾋﾛｼﾏｹﾝ","kana_city":"ﾊﾂｶｲﾁｼ","kana_address":"ｼﾞｺﾞｾﾞﾝｷﾀ","pref":"広島県","city":"廿日市市","address":"地御前北"},
{"zip_code":"7380023","kana_pref":"ﾋﾛｼﾏｹﾝ","kana_city":"ﾊﾂｶｲﾁｼ","kana_address":"ｼﾓﾍﾗ","pref":"広島県","city":"廿日市市","address":"下平良"},
{"zip_code":"7380007","kana_pref":"ﾋﾛｼﾏｹﾝ","kana_city":"ﾊﾂｶｲﾁｼ","kana_address":"ｼﾞｮｳﾅｲ","pref":"広島県","city":"廿日市市","address":"城内"},
{"zip_code":"7380024","kana_pref":"ﾋﾛｼﾏｹﾝ","kana_city":"ﾊﾂｶｲﾁｼ","kana_address":"ｼﾝｸﾞｳ","pref":"広島県","city":"廿日市市","address":"新宮"},
{"zip_code":"7380017","kana_pref":"ﾋﾛｼﾏｹﾝ","kana_city":"ﾊﾂｶｲﾁｼ","kana_address":"ｽｶ","pref":"広島県","city":"廿日市市","address":"須賀"},
{"zip_code":"7380014","kana_pref":"ﾋﾛｼﾏｹﾝ","kana_city":"ﾊﾂｶｲﾁｼ","kana_address":"ｽﾐﾖｼ","pref":"広島県","city":"廿日市市","address":"住吉"},
{"zip_code":"7380222","kana_pref":"ﾋﾛｼﾏｹﾝ","kana_city":"ﾊﾂｶｲﾁｼ","kana_address":"ﾂﾀ","pref":"広島県","city":"廿日市市","address":"津田"},
{"zip_code":"7380012","kana_pref":"ﾋﾛｼﾏｹﾝ","kana_city":"ﾊﾂｶｲﾁｼ","kana_address":"ﾃﾝｼﾞﾝ","pref":"広島県","city":"廿日市市","address":"天神"},
{"zip_code":"7380202","kana_pref":"ﾋﾛｼﾏｹﾝ","kana_city":"ﾊﾂｶｲﾁｼ","kana_address":"ﾄｳｹﾞ","pref":"広島県","city":"廿日市市","address":"峠"},
{"zip_code":"7380203","kana_pref":"ﾋﾛｼﾏｹﾝ","kana_city":"ﾊﾂｶｲﾁｼ","kana_address":"ﾄﾓﾀ","pref":"広島県","city":"廿日市市","address":"友田"},
{"zip_code":"7380201","kana_pref":"ﾋﾛｼﾏｹﾝ","kana_city":"ﾊﾂｶｲﾁｼ","kana_address":"ﾅｶﾞﾊﾗ","pref":"広島県","city":"廿日市市","address":"永原"},
{"zip_code":"7380225","kana_pref":"ﾋﾛｼﾏｹﾝ","kana_city":"ﾊﾂｶｲﾁｼ","kana_address":"ﾅｶﾐﾁ","pref":"広島県","city":"廿日市市","address":"中道"},
{"zip_code":"7380013","kana_pref":"ﾋﾛｼﾏｹﾝ","kana_city":"ﾊﾂｶｲﾁｼ","kana_address":"ﾊﾂｶｲﾁ","pref":"広島県","city":"廿日市市","address":"廿日市"},
{"zip_code":"7380031","kana_pref":"ﾋﾛｼﾏｹﾝ","kana_city":"ﾊﾂｶｲﾁｼ","kana_address":"ﾊﾗ","pref":"広島県","city":"廿日市市","address":"原"},
{"zip_code":"7380025","kana_pref":"ﾋﾛｼﾏｹﾝ","kana_city":"ﾊﾂｶｲﾁｼ","kana_address":"ﾍﾗ","pref":"広島県","city":"廿日市市","address":"平良"},
{"zip_code":"7380027","kana_pref":"ﾋﾛｼﾏｹﾝ","kana_city":"ﾊﾂｶｲﾁｼ","kana_address":"ﾍﾗﾔﾏﾃ","pref":"広島県","city":"廿日市市","address":"平良山手"},
{"zip_code":"7380015","kana_pref":"ﾋﾛｼﾏｹﾝ","kana_city":"ﾊﾂｶｲﾁｼ","kana_address":"ﾎﾝﾏﾁ","pref":"広島県","city":"廿日市市","address":"本町"},
{"zip_code":"7380032","kana_pref":"ﾋﾛｼﾏｹﾝ","kana_city":"ﾊﾂｶｲﾁｼ","kana_address":"ﾐﾈﾀｶ","pref":"広島県","city":"廿日市市","address":"峰高"},
{"zip_code":"7380034","kana_pref":"ﾋﾛｼﾏｹﾝ","kana_city":"ﾊﾂｶｲﾁｼ","kana_address":"ﾐﾔｳﾁ","pref":"広島県","city":"廿日市市","address":"宮内"},
{"zip_code":"7380039","kana_pref":"ﾋﾛｼﾏｹﾝ","kana_city":"ﾊﾂｶｲﾁｼ","kana_address":"ﾐﾔｳﾁｺｳｷﾞｮｳﾀﾞﾝﾁ","pref":"広島県","city":"廿日市市","address":"宮内工業団地"},
{"zip_code":"7380035","kana_pref":"ﾋﾛｼﾏｹﾝ","kana_city":"ﾊﾂｶｲﾁｼ","kana_address":"ﾐﾔｿﾞﾉ","pref":"広島県","city":"廿日市市","address":"宮園"},
{"zip_code":"7380037","kana_pref":"ﾋﾛｼﾏｹﾝ","kana_city":"ﾊﾂｶｲﾁｼ","kana_address":"ﾐﾔｿﾞﾉｶﾐ","pref":"広島県","city":"廿日市市","address":"宮園上"},
{"zip_code":"7380221","kana_pref":"ﾋﾛｼﾏｹﾝ","kana_city":"ﾊﾂｶｲﾁｼ","kana_address":"ﾑｼﾄｺﾛﾔﾏ","pref":"広島県","city":"廿日市市","address":"虫所山"},
{"zip_code":"7380021","kana_pref":"ﾋﾛｼﾏｹﾝ","kana_city":"ﾊﾂｶｲﾁｼ","kana_address":"ﾓｸｻﾞｲｺｳｷﾀ","pref":"広島県","city":"廿日市市","address":"木材港北"},
{"zip_code":"7380022","kana_pref":"ﾋﾛｼﾏｹﾝ","kana_city":"ﾊﾂｶｲﾁｼ","kana_address":"ﾓｸｻﾞｲｺｳﾐﾅﾐ","pref":"広島県","city":"廿日市市","address":"木材港南"},
{"zip_code":"7380060","kana_pref":"ﾋﾛｼﾏｹﾝ","kana_city":"ﾊﾂｶｲﾁｼ","kana_address":"ﾖｳｺｳﾀﾞｲ","pref":"広島県","city":"廿日市市","address":"陽光台"},
{"zip_code":"7380301","kana_pref":"ﾋﾛｼﾏｹﾝ","kana_city":"ﾊﾂｶｲﾁｼ","kana_address":"ﾖｼﾜ","pref":"広島県","city":"廿日市市","address":"吉和"},
{"zip_code":"7380041","kana_pref":"ﾋﾛｼﾏｹﾝ","kana_city":"ﾊﾂｶｲﾁｼ","kana_address":"ﾛｯﾎﾟﾝﾏﾂ","pref":"広島県","city":"廿日市市","address":"六本松"}]}