{"zip_code":[
{"zip_code":"7391700","kana_pref":"ﾋﾛｼﾏｹﾝ","kana_city":"ﾋﾛｼﾏｼｱｻｷﾀｸ","kana_address":"","pref":"広島県","city":"広島市安佐北区","address":""},
{"zip_code":"7391754","kana_pref":"ﾋﾛｼﾏｹﾝ","kana_city":"ﾋﾛｼﾏｼｱｻｷﾀｸ","kana_address":"ｵｶﾞﾜﾗﾁｮｳ","pref":"広島県","city":"広島市安佐北区","address":"小河原町"},
{"zip_code":"7391731","kana_pref":"ﾋﾛｼﾏｹﾝ","kana_city":"ﾋﾛｼﾏｼｱｻｷﾀｸ","kana_address":"ｵﾁｱｲ","pref":"広島県","city":"広島市安佐北区","address":"落合"},
{"zip_code":"7391732","kana_pref":"ﾋﾛｼﾏｹﾝ","kana_city":"ﾋﾛｼﾏｼｱｻｷﾀｸ","kana_address":"ｵﾁｱｲﾐﾅﾐ","pref":"広島県","city":"広島市安佐北区","address":"落合南"},
{"zip_code":"7391732","kana_pref":"ﾋﾛｼﾏｹﾝ","kana_city":"ﾋﾛｼﾏｼｱｻｷﾀｸ","kana_address":"ｵﾁｱｲﾐﾅﾐﾏﾁ","pref":"広島県","city":"広島市安佐北区","address":"落合南町"},
{"zip_code":"7391752","kana_pref":"ﾋﾛｼﾏｹﾝ","kana_city":"ﾋﾛｼﾏｼｱｻｷﾀｸ","kana_address":"ｶﾐﾌｶﾜﾁｮｳ","pref":"広島県","city":"広島市安佐北区","address":"上深川町"},
{"zip_code":"7391742","kana_pref":"ﾋﾛｼﾏｹﾝ","kana_city":"ﾋﾛｼﾏｼｱｻｷﾀｸ","kana_address":"ｶﾒｻﾞｷ","pref":"広島県","city":"広島市安佐北区","address":"亀崎"},
{"zip_code":"7391753","kana_pref":"ﾋﾛｼﾏｹﾝ","kana_city":"ﾋﾛｼﾏｼｱｻｷﾀｸ","kana_address":"ｶﾙｶﾞﾁｮｳ","pref":"広島県","city":"広島市安佐北区","address":"狩留家町"},
{"zip_code":"7391734","kana_pref":"ﾋﾛｼﾏｹﾝ","kana_city":"ﾋﾛｼﾏｼｱｻｷﾀｸ","kana_address":"ｸﾁﾀ","pref":"広島県","city":"広島市安佐北区","address":"口田"},
{"zip_code":"7391734","kana_pref":"ﾋﾛｼﾏｹﾝ","kana_city":"ﾋﾛｼﾏｼｱｻｷﾀｸ","kana_address":"ｸﾁﾀﾁｮｳ","pref":"広島県","city":"広島市安佐北区","address":"口田町"},
{"zip_code":"7391733","kana_pref":"ﾋﾛｼﾏｹﾝ","kana_city":"ﾋﾛｼﾏｼｱｻｷﾀｸ","kana_address":"ｸﾁﾀﾐﾅﾐ","pref":"広島県","city":"広島市安佐北区","address":"口田南"},
{"zip_code":"7391733","kana_pref":"ﾋﾛｼﾏｹﾝ","kana_city":"ﾋﾛｼﾏｼｱｻｷﾀｸ","kana_address":"ｸﾁﾀﾐﾅﾐﾏﾁ","pref":"広島県","city":"広島市安佐北区","address":"口田南町"},
{"zip_code":"7391743","kana_pref":"ﾋﾛｼﾏｹﾝ","kana_city":"ﾋﾛｼﾏｼｱｻｷﾀｸ","kana_address":"ｸﾗｶｹ","pref":"広島県","city":"広島市安佐北区","address":"倉掛"},
{"zip_code":"7391414","kana_pref":"ﾋﾛｼﾏｹﾝ","kana_city":"ﾋﾛｼﾏｼｱｻｷﾀｸ","kana_address":"ｼﾗｷﾁｮｳｱｷﾔﾏ","pref":"広島県","city":"広島市安佐北区","address":"白木町秋山"},
{"zip_code":"7391413","kana_pref":"ﾋﾛｼﾏｹﾝ","kana_city":"ﾋﾛｼﾏｼｱｻｷﾀｸ","kana_address":"ｼﾗｷﾁｮｳｱﾘﾄﾞﾒ","pref":"広島県","city":"広島市安佐北区","address":"白木町有留"},
{"zip_code":"7391411","kana_pref":"ﾋﾛｼﾏｹﾝ","kana_city":"ﾋﾛｼﾏｼｱｻｷﾀｸ","kana_address":"ｼﾗｷﾁｮｳｲﾁｶﾜ","pref":"広島県","city":"広島市安佐北区","address":"白木町市川"},
{"zip_code":"7391301","kana_pref":"ﾋﾛｼﾏｹﾝ","kana_city":"ﾋﾛｼﾏｼｱｻｷﾀｸ","kana_address":"ｼﾗｷﾁｮｳｲﾊﾞﾗ","pref":"広島県","city":"広島市安佐北区","address":"白木町井原"},
{"zip_code":"7391412","kana_pref":"ﾋﾛｼﾏｹﾝ","kana_city":"ﾋﾛｼﾏｼｱｻｷﾀｸ","kana_address":"ｼﾗｷﾁｮｳｵｺｴ","pref":"広島県","city":"広島市安佐北区","address":"白木町小越"},
{"zip_code":"7391302","kana_pref":"ﾋﾛｼﾏｹﾝ","kana_city":"ﾋﾛｼﾏｼｱｻｷﾀｸ","kana_address":"ｼﾗｷﾁｮｳｺﾔ","pref":"広島県","city":"広島市安佐北区","address":"白木町古屋"},
{"zip_code":"7391303","kana_pref":"ﾋﾛｼﾏｹﾝ","kana_city":"ﾋﾛｼﾏｼｱｻｷﾀｸ","kana_address":"ｼﾗｷﾁｮｳｼｼﾞ","pref":"広島県","city":"広島市安佐北区","address":"白木町志路"},
{"zip_code":"7391521","kana_pref":"ﾋﾛｼﾏｹﾝ","kana_city":"ﾋﾛｼﾏｼｱｻｷﾀｸ","kana_address":"ｼﾗｷﾁｮｳﾐﾀ","pref":"広島県","city":"広島市安佐北区","address":"白木町三田"},
{"zip_code":"7391751","kana_pref":"ﾋﾛｼﾏｹﾝ","kana_city":"ﾋﾛｼﾏｼｱｻｷﾀｸ","kana_address":"ﾌｶﾜ","pref":"広島県","city":"広島市安佐北区","address":"深川"},
{"zip_code":"7391751","kana_pref":"ﾋﾛｼﾏｹﾝ","kana_city":"ﾋﾛｼﾏｼｱｻｷﾀｸ","kana_address":"ﾌｶﾜﾁｮｳ","pref":"広島県","city":"広島市安佐北区","address":"深川町"},
{"zip_code":"7391741","kana_pref":"ﾋﾛｼﾏｹﾝ","kana_city":"ﾋﾛｼﾏｼｱｻｷﾀｸ","kana_address":"ﾏｶﾞﾒ","pref":"広島県","city":"広島市安佐北区","address":"真亀"},
{"zip_code":"7390301","kana_pref":"ﾋﾛｼﾏｹﾝ","kana_city":"ﾋﾛｼﾏｼｱｷｸ","kana_address":"ｶﾐｾﾉ","pref":"広島県","city":"広島市安芸区","address":"上瀬野"},
{"zip_code":"7390302","kana_pref":"ﾋﾛｼﾏｹﾝ","kana_city":"ﾋﾛｼﾏｼｱｷｸ","kana_address":"ｶﾐｾﾉﾁｮｳ","pref":"広島県","city":"広島市安芸区","address":"上瀬野町"},
{"zip_code":"7390303","kana_pref":"ﾋﾛｼﾏｹﾝ","kana_city":"ﾋﾛｼﾏｼｱｷｸ","kana_address":"ｶﾐｾﾉﾐﾅﾐ","pref":"広島県","city":"広島市安芸区","address":"上瀬野南"},
{"zip_code":"7390311","kana_pref":"ﾋﾛｼﾏｹﾝ","kana_city":"ﾋﾛｼﾏｼｱｷｸ","kana_address":"ｾﾉ","pref":"広島県","city":"広島市安芸区","address":"瀬野"},
{"zip_code":"7390312","kana_pref":"ﾋﾛｼﾏｹﾝ","kana_city":"ﾋﾛｼﾏｼｱｷｸ","kana_address":"ｾﾉﾁｮｳ","pref":"広島県","city":"広島市安芸区","address":"瀬野町"},
{"zip_code":"7390315","kana_pref":"ﾋﾛｼﾏｹﾝ","kana_city":"ﾋﾛｼﾏｼｱｷｸ","kana_address":"ｾﾉﾐﾅﾐﾏﾁ","pref":"広島県","city":"広島市安芸区","address":"瀬野南町"},
{"zip_code":"7390313","kana_pref":"ﾋﾛｼﾏｹﾝ","kana_city":"ﾋﾛｼﾏｼｱｷｸ","kana_address":"ｾﾉﾆｼ","pref":"広島県","city":"広島市安芸区","address":"瀬野西"},
{"zip_code":"7390314","kana_pref":"ﾋﾛｼﾏｹﾝ","kana_city":"ﾋﾛｼﾏｼｱｷｸ","kana_address":"ｾﾉﾐﾅﾐ","pref":"広島県","city":"広島市安芸区","address":"瀬野南"},
{"zip_code":"7390321","kana_pref":"ﾋﾛｼﾏｹﾝ","kana_city":"ﾋﾛｼﾏｼｱｷｸ","kana_address":"ﾅｶﾉ","pref":"広島県","city":"広島市安芸区","address":"中野"},
{"zip_code":"7390322","kana_pref":"ﾋﾛｼﾏｹﾝ","kana_city":"ﾋﾛｼﾏｼｱｷｸ","kana_address":"ﾅｶﾉﾁｮｳ","pref":"広島県","city":"広島市安芸区","address":"中野町"},
{"zip_code":"7390324","kana_pref":"ﾋﾛｼﾏｹﾝ","kana_city":"ﾋﾛｼﾏｼｱｷｸ","kana_address":"ﾅｶﾉﾋｶﾞｼﾏﾁ","pref":"広島県","city":"広島市安芸区","address":"中野東町"},
{"zip_code":"7390323","kana_pref":"ﾋﾛｼﾏｹﾝ","kana_city":"ﾋﾛｼﾏｼｱｷｸ","kana_address":"ﾅｶﾉﾋｶﾞｼ","pref":"広島県","city":"広島市安芸区","address":"中野東"},
{"zip_code":"7390600","kana_pref":"ﾋﾛｼﾏｹﾝ","kana_city":"ｵｵﾀｹｼ","kana_address":"","pref":"広島県","city":"大竹市","address":""},
{"zip_code":"7390607","kana_pref":"ﾋﾛｼﾏｹﾝ","kana_city":"ｵｵﾀｹｼ","kana_address":"ｱﾀﾀ","pref":"広島県","city":"大竹市","address":"阿多田"},
{"zip_code":"7390634","kana_pref":"ﾋﾛｼﾏｹﾝ","kana_city":"ｵｵﾀｹｼ","kana_address":"ｱﾝｼﾞｮｳ","pref":"広島県","city":"大竹市","address":"安条"},
{"zip_code":"7390637","kana_pref":"ﾋﾛｼﾏｹﾝ","kana_city":"ｵｵﾀｹｼ","kana_address":"ｳｼﾛｲｲﾀﾆ","pref":"広島県","city":"大竹市","address":"後飯谷"},
{"zip_code":"7390623","kana_pref":"ﾋﾛｼﾏｹﾝ","kana_city":"ｵｵﾀｹｼ","kana_address":"ｵｶﾞﾀ","pref":"広島県","city":"大竹市","address":"小方"},
{"zip_code":"7390627","kana_pref":"ﾋﾛｼﾏｹﾝ","kana_city":"ｵｵﾀｹｼ","kana_address":"ｵｶﾞﾀﾁｮｳｵｶﾞﾀ","pref":"広島県","city":"大竹市","address":"小方町小方"},
{"zip_code":"7390654","kana_pref":"ﾋﾛｼﾏｹﾝ","kana_city":"ｵｵﾀｹｼ","kana_address":"ｵｶﾞﾀﾁｮｳｸﾛｶﾜ","pref":"広島県","city":"大竹市","address":"小方町黒川"},
{"zip_code":"7390632","kana_pref":"ﾋﾛｼﾏｹﾝ","kana_city":"ｵｵﾀｹｼ","kana_address":"ｵﾆﾊﾗ","pref":"広島県","city":"大竹市","address":"穂仁原"},
{"zip_code":"7390604","kana_pref":"ﾋﾛｼﾏｹﾝ","kana_city":"ｵｵﾀｹｼ","kana_address":"ｷﾀｻｶｴ","pref":"広島県","city":"大竹市","address":"北栄"},
{"zip_code":"7390651","kana_pref":"ﾋﾛｼﾏｹﾝ","kana_city":"ｵｵﾀｹｼ","kana_address":"ｸﾊﾞ","pref":"広島県","city":"大竹市","address":"玖波"},
{"zip_code":"7390656","kana_pref":"ﾋﾛｼﾏｹﾝ","kana_city":"ｵｵﾀｹｼ","kana_address":"ｸﾊﾞﾁｮｳ","pref":"広島県","city":"大竹市","address":"玖波町"},
{"zip_code":"7390644","kana_pref":"ﾋﾛｼﾏｹﾝ","kana_city":"ｵｵﾀｹｼ","kana_address":"ｸﾘﾀﾆﾁｮｳｳｼﾛﾊﾞﾗ","pref":"広島県","city":"大竹市","address":"栗谷町後原"},
{"zip_code":"7390646","kana_pref":"ﾋﾛｼﾏｹﾝ","kana_city":"ｵｵﾀｹｼ","kana_address":"ｸﾘﾀﾆﾁｮｳｵｵｸﾘﾊﾞﾔｼ","pref":"広島県","city":"大竹市","address":"栗谷町大栗林"},
{"zip_code":"7390642","kana_pref":"ﾋﾛｼﾏｹﾝ","kana_city":"ｵｵﾀｹｼ","kana_address":"ｸﾘﾀﾆﾁｮｳｵｸﾀﾆｼﾞﾘ","pref":"広島県","city":"大竹市","address":"栗谷町奥谷尻"},
{"zip_code":"7390645","kana_pref":"ﾋﾛｼﾏｹﾝ","kana_city":"ｵｵﾀｹｼ","kana_address":"ｸﾘﾀﾆﾁｮｳｺｸﾘﾊﾞﾔｼ","pref":"広島県","city":"大竹市","address":"栗谷町小栗林"},
{"zip_code":"7390643","kana_pref":"ﾋﾛｼﾏｹﾝ","kana_city":"ｵｵﾀｹｼ","kana_address":"ｸﾘﾀﾆﾁｮｳﾀﾆﾜ","pref":"広島県","city":"大竹市","address":"栗谷町谷和"},
{"zip_code":"7390641","kana_pref":"ﾋﾛｼﾏｹﾝ","kana_city":"ｵｵﾀｹｼ","kana_address":"ｸﾘﾀﾆﾁｮｳﾋﾛﾊﾗ","pref":"広島県","city":"大竹市","address":"栗谷町広原"},
{"zip_code":"7390653","kana_pref":"ﾋﾛｼﾏｹﾝ","kana_city":"ｵｵﾀｹｼ","kana_address":"ｸﾛｶﾜ","pref":"広島県","city":"大竹市","address":"黒川"},
{"zip_code":"7390616","kana_pref":"ﾋﾛｼﾏｹﾝ","kana_city":"ｵｵﾀｹｼ","kana_address":"ｺﾉ","pref":"広島県","city":"大竹市","address":"木野"},
{"zip_code":"7390614","kana_pref":"ﾋﾛｼﾏｹﾝ","kana_city":"ｵｵﾀｹｼ","kana_address":"ｼﾗｲｼ","pref":"広島県","city":"大竹市","address":"白石"},
{"zip_code":"7390611","kana_pref":"ﾋﾛｼﾏｹﾝ","kana_city":"ｵｵﾀｹｼ","kana_address":"ｼﾝﾏﾁ","pref":"広島県","city":"大竹市","address":"新町"},
{"zip_code":"7390605","kana_pref":"ﾋﾛｼﾏｹﾝ","kana_city":"ｵｵﾀｹｼ","kana_address":"ﾀﾁﾄﾞ","pref":"広島県","city":"大竹市","address":"立戸"},
{"zip_code":"7390603","kana_pref":"ﾋﾛｼﾏｹﾝ","kana_city":"ｵｵﾀｹｼ","kana_address":"ﾆｼｻｶｴ","pref":"広島県","city":"大竹市","address":"西栄"},
{"zip_code":"7390635","kana_pref":"ﾋﾛｼﾏｹﾝ","kana_city":"ｵｵﾀｹｼ","kana_address":"ﾊｯﾁｮｳ","pref":"広島県","city":"大竹市","address":"八丁"},
{"zip_code":"7390622","kana_pref":"ﾋﾛｼﾏｹﾝ","kana_city":"ｵｵﾀｹｼ","kana_address":"ﾊﾙﾐ","pref":"広島県","city":"大竹市","address":"晴海"},
{"zip_code":"7390601","kana_pref":"ﾋﾛｼﾏｹﾝ","kana_city":"ｵｵﾀｹｼ","kana_address":"ﾋｶﾞｼｻｶｴ","pref":"広島県","city":"大竹市","address":"東栄"},
{"zip_code":"7390633","kana_pref":"ﾋﾛｼﾏｹﾝ","kana_city":"ｵｵﾀｹｼ","kana_address":"ﾋｯﾂｸﾘ","pref":"広島県","city":"大竹市","address":"比作"},
{"zip_code":"7390631","kana_pref":"ﾋﾛｼﾏｹﾝ","kana_city":"ｵｵﾀｹｼ","kana_address":"ﾎﾞｳﾛｸ","pref":"広島県","city":"大竹市","address":"防鹿"},
{"zip_code":"7390613","kana_pref":"ﾋﾛｼﾏｹﾝ","kana_city":"ｵｵﾀｹｼ","kana_address":"ﾎﾝﾏﾁ","pref":"広島県","city":"大竹市","address":"本町"},
{"zip_code":"7390636","kana_pref":"ﾋﾛｼﾏｹﾝ","kana_city":"ｵｵﾀｹｼ","kana_address":"ﾏｴｲｲﾀﾆ","pref":"広島県","city":"大竹市","address":"前飯谷"},
{"zip_code":"7390657","kana_pref":"ﾋﾛｼﾏｹﾝ","kana_city":"ｵｵﾀｹｼ","kana_address":"ﾏﾂｶﾞﾊﾗﾁｮｳ","pref":"広島県","city":"大竹市","address":"松ケ原町"},
{"zip_code":"7390624","kana_pref":"ﾋﾛｼﾏｹﾝ","kana_city":"ｵｵﾀｹｼ","kana_address":"ﾐｿﾉ","pref":"広島県","city":"大竹市","address":"御園"},
{"zip_code":"7390625","kana_pref":"ﾋﾛｼﾏｹﾝ","kana_city":"ｵｵﾀｹｼ","kana_address":"ﾐｿﾉﾀﾞｲ","pref":"広島県","city":"大竹市","address":"御園台"},
{"zip_code":"7390626","kana_pref":"ﾋﾛｼﾏｹﾝ","kana_city":"ｵｵﾀｹｼ","kana_address":"ﾐﾂｲｼﾁｮｳ","pref":"広島県","city":"大竹市","address":"三ツ石町"},
{"zip_code":"7390621","kana_pref":"ﾋﾛｼﾏｹﾝ","kana_city":"ｵｵﾀｹｼ","kana_address":"ﾐﾅﾄﾏﾁ","pref":"広島県","city":"大竹市","address":"港町"},
{"zip_code":"7390602","kana_pref":"ﾋﾛｼﾏｹﾝ","kana_city":"ｵｵﾀｹｼ","kana_address":"ﾐﾅﾐｻｶｴ","pref":"広島県","city":"大竹市","address":"南栄"},
{"zip_code":"7390606","kana_pref":"ﾋﾛｼﾏｹﾝ","kana_city":"ｵｵﾀｹｼ","kana_address":"ﾐﾕｷﾁｮｳ","pref":"広島県","city":"大竹市","address":"御幸町"},
{"zip_code":"7390652","kana_pref":"ﾋﾛｼﾏｹﾝ","kana_city":"ｵｵﾀｹｼ","kana_address":"ﾒｲｼﾞｼﾝｶﾞｲ","pref":"広島県","city":"大竹市","address":"明治新開"},
{"zip_code":"7390615","kana_pref":"ﾋﾛｼﾏｹﾝ","kana_city":"ｵｵﾀｹｼ","kana_address":"ﾓﾄﾏﾁ","pref":"広島県","city":"大竹市","address":"元町"},
{"zip_code":"7390612","kana_pref":"ﾋﾛｼﾏｹﾝ","kana_city":"ｵｵﾀｹｼ","kana_address":"ﾕｳﾐ","pref":"広島県","city":"大竹市","address":"油見"},
{"zip_code":"7390655","kana_pref":"ﾋﾛｼﾏｹﾝ","kana_city":"ｵｵﾀｹｼ","kana_address":"ﾕﾌﾞﾈﾁｮｳ","pref":"広島県","city":"大竹市","address":"湯舟町"},
{"zip_code":"7390000","kana_pref":"ﾋﾛｼﾏｹﾝ","kana_city":"ﾋｶﾞｼﾋﾛｼﾏｼ","kana_address":"","pref":"広島県","city":"東広島市","address":""},
{"zip_code":"7392404","kana_pref":"ﾋﾛｼﾏｹﾝ","kana_city":"ﾋｶﾞｼﾋﾛｼﾏｼ","kana_address":"ｱｷﾂﾁｮｳｵｵﾀﾞ","pref":"広島県","city":"東広島市","address":"安芸津町大田"},
{"zip_code":"7392403","kana_pref":"ﾋﾛｼﾏｹﾝ","kana_city":"ﾋｶﾞｼﾋﾛｼﾏｼ","kana_address":"ｱｷﾂﾁｮｳｶｻﾞﾊﾔ","pref":"広島県","city":"東広島市","address":"安芸津町風早"},
{"zip_code":"7392401","kana_pref":"ﾋﾛｼﾏｹﾝ","kana_city":"ﾋｶﾞｼﾋﾛｼﾏｼ","kana_address":"ｱｷﾂﾁｮｳｷﾀﾞﾆ","pref":"広島県","city":"東広島市","address":"安芸津町木谷"},
{"zip_code":"7392405","kana_pref":"ﾋﾛｼﾏｹﾝ","kana_city":"ﾋｶﾞｼﾋﾛｼﾏｼ","kana_address":"ｱｷﾂﾁｮｳｺﾏﾂﾊﾞﾗ","pref":"広島県","city":"東広島市","address":"安芸津町小松原"},
{"zip_code":"7392402","kana_pref":"ﾋﾛｼﾏｹﾝ","kana_city":"ﾋｶﾞｼﾋﾛｼﾏｼ","kana_address":"ｱｷﾂﾁｮｳﾐﾂ","pref":"広島県","city":"東広島市","address":"安芸津町三津"},
{"zip_code":"7390046","kana_pref":"ﾋﾛｼﾏｹﾝ","kana_city":"ﾋｶﾞｼﾋﾛｼﾏｼ","kana_address":"ｶｶﾞﾐﾔﾏ","pref":"広島県","city":"東広島市","address":"鏡山"},
{"zip_code":"7390045","kana_pref":"ﾋﾛｼﾏｹﾝ","kana_city":"ﾋｶﾞｼﾋﾛｼﾏｼ","kana_address":"ｶｶﾞﾐﾔﾏｷﾀ","pref":"広島県","city":"東広島市","address":"鏡山北"},
{"zip_code":"7392631","kana_pref":"ﾋﾛｼﾏｹﾝ","kana_city":"ﾋｶﾞｼﾋﾛｼﾏｼ","kana_address":"ｸﾛｾｶﾞｸｴﾝﾀﾞｲ","pref":"広島県","city":"東広島市","address":"黒瀬学園台"},
{"zip_code":"7392615","kana_pref":"ﾋﾛｼﾏｹﾝ","kana_city":"ﾋｶﾞｼﾋﾛｼﾏｼ","kana_address":"ｸﾛｾｶｽｶﾞﾉ","pref":"広島県","city":"東広島市","address":"黒瀬春日野"},
{"zip_code":"7392619","kana_pref":"ﾋﾛｼﾏｹﾝ","kana_city":"ﾋｶﾞｼﾋﾛｼﾏｼ","kana_address":"ｸﾛｾｷﾘﾀｶﾞｵｶ","pref":"広島県","city":"東広島市","address":"黒瀬切田が丘"},
{"zip_code":"7392618","kana_pref":"ﾋﾛｼﾏｹﾝ","kana_city":"ﾋｶﾞｼﾋﾛｼﾏｼ","kana_address":"ｸﾛｾｻｸﾗｶﾞｵｶ","pref":"広島県","city":"東広島市","address":"黒瀬桜が丘"},
{"zip_code":"7392614","kana_pref":"ﾋﾛｼﾏｹﾝ","kana_city":"ﾋｶﾞｼﾋﾛｼﾏｼ","kana_address":"ｸﾛｾﾏﾂｶﾞｵｶ","pref":"広島県","city":"東広島市","address":"黒瀬松ケ丘"},
{"zip_code":"7392626","kana_pref":"ﾋﾛｼﾏｹﾝ","kana_city":"ﾋｶﾞｼﾋﾛｼﾏｼ","kana_address":"ｸﾛｾﾁｮｳｲﾁｲﾀﾞ","pref":"広島県","city":"東広島市","address":"黒瀬町市飯田"},
{"zip_code":"7392611","kana_pref":"ﾋﾛｼﾏｹﾝ","kana_city":"ﾋｶﾞｼﾋﾛｼﾏｼ","kana_address":"ｸﾛｾﾁｮｳｵｵﾀﾀﾞ","pref":"広島県","city":"東広島市","address":"黒瀬町大多田"},
{"zip_code":"7392501","kana_pref":"ﾋﾛｼﾏｹﾝ","kana_city":"ﾋｶﾞｼﾋﾛｼﾏｼ","kana_address":"ｸﾛｾﾁｮｳｵﾀﾀﾞ","pref":"広島県","city":"東広島市","address":"黒瀬町小多田"},
{"zip_code":"7392731","kana_pref":"ﾋﾛｼﾏｹﾝ","kana_city":"ﾋｶﾞｼﾋﾛｼﾏｼ","kana_address":"ｸﾛｾﾁｮｳｶﾈｻﾜ","pref":"広島県","city":"東広島市","address":"黒瀬町兼沢"},
{"zip_code":"7392616","kana_pref":"ﾋﾛｼﾏｹﾝ","kana_city":"ﾋｶﾞｼﾋﾛｼﾏｼ","kana_address":"ｸﾛｾﾁｮｳｶﾈﾋﾛ","pref":"広島県","city":"東広島市","address":"黒瀬町兼広"},
{"zip_code":"7392625","kana_pref":"ﾋﾛｼﾏｹﾝ","kana_city":"ﾋｶﾞｼﾋﾛｼﾏｼ","kana_address":"ｸﾛｾﾁｮｳｶﾐﾎﾞｳﾀﾞ","pref":"広島県","city":"東広島市","address":"黒瀬町上保田"},
{"zip_code":"7392623","kana_pref":"ﾋﾛｼﾏｹﾝ","kana_city":"ﾋｶﾞｼﾋﾛｼﾏｼ","kana_address":"ｸﾛｾﾁｮｳｶﾜｽﾐ","pref":"広島県","city":"東広島市","address":"黒瀬町川角"},
{"zip_code":"7392617","kana_pref":"ﾋﾛｼﾏｹﾝ","kana_city":"ﾋｶﾞｼﾋﾛｼﾏｼ","kana_address":"ｸﾛｾﾁｮｳｷﾘﾀ","pref":"広島県","city":"東広島市","address":"黒瀬町切田"},
{"zip_code":"7392502","kana_pref":"ﾋﾛｼﾏｹﾝ","kana_city":"ﾋｶﾞｼﾋﾛｼﾏｼ","kana_address":"ｸﾛｾﾁｮｳｸﾆﾁｶ","pref":"広島県","city":"東広島市","address":"黒瀬町国近"},
{"zip_code":"7392624","kana_pref":"ﾋﾛｼﾏｹﾝ","kana_city":"ﾋｶﾞｼﾋﾛｼﾏｼ","kana_address":"ｸﾛｾﾁｮｳｽｹﾞﾀ","pref":"広島県","city":"東広島市","address":"黒瀬町菅田"},
{"zip_code":"7392732","kana_pref":"ﾋﾛｼﾏｹﾝ","kana_city":"ﾋｶﾞｼﾋﾛｼﾏｼ","kana_address":"ｸﾛｾﾁｮｳﾂｴ","pref":"広島県","city":"東広島市","address":"黒瀬町津江"},
{"zip_code":"7392613","kana_pref":"ﾋﾛｼﾏｹﾝ","kana_city":"ﾋｶﾞｼﾋﾛｼﾏｼ","kana_address":"ｸﾛｾﾁｮｳﾅﾗﾊﾗ","pref":"広島県","city":"東広島市","address":"黒瀬町楢原"},
{"zip_code":"7392622","kana_pref":"ﾋﾛｼﾏｹﾝ","kana_city":"ﾋｶﾞｼﾋﾛｼﾏｼ","kana_address":"ｸﾛｾﾁｮｳﾉﾐﾉｵ","pref":"広島県","city":"東広島市","address":"黒瀬町乃美尾"},
{"zip_code":"7392612","kana_pref":"ﾋﾛｼﾏｹﾝ","kana_city":"ﾋｶﾞｼﾋﾛｼﾏｼ","kana_address":"ｸﾛｾﾁｮｳﾏﾙﾔﾏ","pref":"広島県","city":"東広島市","address":"黒瀬町丸山"},
{"zip_code":"7392503","kana_pref":"ﾋﾛｼﾏｹﾝ","kana_city":"ﾋｶﾞｼﾋﾛｼﾏｼ","kana_address":"ｸﾛｾﾁｮｳﾐﾅﾐｶﾞﾀ","pref":"広島県","city":"東広島市","address":"黒瀬町南方"},
{"zip_code":"7392621","kana_pref":"ﾋﾛｼﾏｹﾝ","kana_city":"ﾋｶﾞｼﾋﾛｼﾏｼ","kana_address":"ｸﾛｾﾁｮｳﾐﾅﾐｶﾞﾀ","pref":"広島県","city":"東広島市","address":"黒瀬町南方"},
{"zip_code":"7392504","kana_pref":"ﾋﾛｼﾏｹﾝ","kana_city":"ﾋｶﾞｼﾋﾛｼﾏｼ","kana_address":"ｸﾛｾﾁｮｳﾑﾈﾁｶﾔﾅｸﾆ","pref":"広島県","city":"東広島市","address":"黒瀬町宗近柳国"},
{"zip_code":"7392206","kana_pref":"ﾋﾛｼﾏｹﾝ","kana_city":"ﾋｶﾞｼﾋﾛｼﾏｼ","kana_address":"ｺｳﾁﾁｮｳｳﾔﾏ","pref":"広島県","city":"東広島市","address":"河内町宇山"},
{"zip_code":"7392207","kana_pref":"ﾋﾛｼﾏｹﾝ","kana_city":"ﾋｶﾞｼﾋﾛｼﾏｼ","kana_address":"ｺｳﾁﾁｮｳｵﾀﾞ","pref":"広島県","city":"東広島市","address":"河内町小田"},
{"zip_code":"7392203","kana_pref":"ﾋﾛｼﾏｹﾝ","kana_city":"ﾋｶﾞｼﾋﾛｼﾏｼ","kana_address":"ｺｳﾁﾁｮｳｶﾐｺﾞｳﾁ","pref":"広島県","city":"東広島市","address":"河内町上河内"},
{"zip_code":"7392204","kana_pref":"ﾋﾛｼﾏｹﾝ","kana_city":"ﾋｶﾞｼﾋﾛｼﾏｼ","kana_address":"ｺｳﾁﾁｮｳｺｳﾄﾞ","pref":"広島県","city":"東広島市","address":"河内町河戸"},
{"zip_code":"7392202","kana_pref":"ﾋﾛｼﾏｹﾝ","kana_city":"ﾋｶﾞｼﾋﾛｼﾏｼ","kana_address":"ｺｳﾁﾁｮｳｼﾓｺﾞｳﾁ","pref":"広島県","city":"東広島市","address":"河内町下河内"},
{"zip_code":"7392205","kana_pref":"ﾋﾛｼﾏｹﾝ","kana_city":"ﾋｶﾞｼﾋﾛｼﾏｼ","kana_address":"ｺｳﾁﾁｮｳﾄﾉ","pref":"広島県","city":"東広島市","address":"河内町戸野"},
{"zip_code":"7392201","kana_pref":"ﾋﾛｼﾏｹﾝ","kana_city":"ﾋｶﾞｼﾋﾛｼﾏｼ","kana_address":"ｺｳﾁﾁｮｳﾅｶｺﾞｳﾁ","pref":"広島県","city":"東広島市","address":"河内町中河内"},
{"zip_code":"7392208","kana_pref":"ﾋﾛｼﾏｹﾝ","kana_city":"ﾋｶﾞｼﾋﾛｼﾏｼ","kana_address":"ｺｳﾁﾁｮｳﾆｭｳﾉ","pref":"広島県","city":"東広島市","address":"河内町入野"},
{"zip_code":"7390012","kana_pref":"ﾋﾛｼﾏｹﾝ","kana_city":"ﾋｶﾞｼﾋﾛｼﾏｼ","kana_address":"ｻｲｼﾞｮｳｱｻﾋﾏﾁ","pref":"広島県","city":"東広島市","address":"西条朝日町"},
{"zip_code":"7390005","kana_pref":"ﾋﾛｼﾏｹﾝ","kana_city":"ﾋｶﾞｼﾋﾛｼﾏｼ","kana_address":"ｻｲｼﾞｮｳｵｵﾂﾎﾞﾁｮｳ","pref":"広島県","city":"東広島市","address":"西条大坪町"},
{"zip_code":"7390016","kana_pref":"ﾋﾛｼﾏｹﾝ","kana_city":"ﾋｶﾞｼﾋﾛｼﾏｼ","kana_address":"ｻｲｼﾞｮｳｵｶﾏﾁ","pref":"広島県","city":"東広島市","address":"西条岡町"},
{"zip_code":"7390006","kana_pref":"ﾋﾛｼﾏｹﾝ","kana_city":"ﾋｶﾞｼﾋﾛｼﾏｼ","kana_address":"ｻｲｼﾞｮｳｶﾐｲﾁﾁｮｳ","pref":"広島県","city":"東広島市","address":"西条上市町"},
{"zip_code":"7390013","kana_pref":"ﾋﾛｼﾏｹﾝ","kana_city":"ﾋｶﾞｼﾋﾛｼﾏｼ","kana_address":"ｻｲｼﾞｮｳｺﾞｼﾞｮｳﾁｮｳ","pref":"広島県","city":"東広島市","address":"西条御条町"},
{"zip_code":"7390015","kana_pref":"ﾋﾛｼﾏｹﾝ","kana_city":"ﾋｶﾞｼﾋﾛｼﾏｼ","kana_address":"ｻｲｼﾞｮｳｻｶｴﾏﾁ","pref":"広島県","city":"東広島市","address":"西条栄町"},
{"zip_code":"7390047","kana_pref":"ﾋﾛｼﾏｹﾝ","kana_city":"ﾋｶﾞｼﾋﾛｼﾏｼ","kana_address":"ｻｲｼﾞｮｳｼﾀﾐ","pref":"広島県","city":"東広島市","address":"西条下見"},
{"zip_code":"7390014","kana_pref":"ﾋﾛｼﾏｹﾝ","kana_city":"ﾋｶﾞｼﾋﾛｼﾏｼ","kana_address":"ｻｲｼﾞｮｳｼｮｳﾜﾏﾁ","pref":"広島県","city":"東広島市","address":"西条昭和町"},
{"zip_code":"7390004","kana_pref":"ﾋﾛｼﾏｹﾝ","kana_city":"ﾋｶﾞｼﾋﾛｼﾏｼ","kana_address":"ｻｲｼﾞｮｳｽｴﾋﾛﾁｮｳ","pref":"広島県","city":"東広島市","address":"西条末広町"},
{"zip_code":"7390025","kana_pref":"ﾋﾛｼﾏｹﾝ","kana_city":"ﾋｶﾞｼﾋﾛｼﾏｼ","kana_address":"ｻｲｼﾞｮｳﾁｭｳｵｳ","pref":"広島県","city":"東広島市","address":"西条中央"},
{"zip_code":"7390007","kana_pref":"ﾋﾛｼﾏｹﾝ","kana_city":"ﾋｶﾞｼﾋﾛｼﾏｼ","kana_address":"ｻｲｼﾞｮｳﾄﾞﾖﾏﾙ","pref":"広島県","city":"東広島市","address":"西条土与丸"},
{"zip_code":"7390043","kana_pref":"ﾋﾛｼﾏｹﾝ","kana_city":"ﾋｶﾞｼﾋﾛｼﾏｼ","kana_address":"ｻｲｼﾞｮｳﾆｼﾎﾝﾏﾁ","pref":"広島県","city":"東広島市","address":"西条西本町"},
{"zip_code":"7390048","kana_pref":"ﾋﾛｼﾏｹﾝ","kana_city":"ﾋｶﾞｼﾋﾛｼﾏｼ","kana_address":"ｻｲｼﾞｮｳﾋｶﾞｼｷﾀﾏﾁ","pref":"広島県","city":"東広島市","address":"西条東北町"},
{"zip_code":"7390011","kana_pref":"ﾋﾛｼﾏｹﾝ","kana_city":"ﾋｶﾞｼﾋﾛｼﾏｼ","kana_address":"ｻｲｼﾞｮｳﾎﾝﾏﾁ","pref":"広島県","city":"東広島市","address":"西条本町"},
{"zip_code":"7390008","kana_pref":"ﾋﾛｼﾏｹﾝ","kana_city":"ﾋｶﾞｼﾋﾛｼﾏｼ","kana_address":"ｻｲｼﾞｮｳﾖｼﾕｷﾋｶﾞｼ","pref":"広島県","city":"東広島市","address":"西条吉行東"},
{"zip_code":"7390033","kana_pref":"ﾋﾛｼﾏｹﾝ","kana_city":"ﾋｶﾞｼﾋﾛｼﾏｼ","kana_address":"ｻｲｼﾞｮｳﾁｮｳｳﾏｷ","pref":"広島県","city":"東広島市","address":"西条町馬木"},
{"zip_code":"7390034","kana_pref":"ﾋﾛｼﾏｹﾝ","kana_city":"ﾋｶﾞｼﾋﾛｼﾏｼ","kana_address":"ｻｲｼﾞｮｳﾁｮｳｵｵｻﾜ","pref":"広島県","city":"東広島市","address":"西条町大沢"},
{"zip_code":"7390022","kana_pref":"ﾋﾛｼﾏｹﾝ","kana_city":"ﾋｶﾞｼﾋﾛｼﾏｼ","kana_address":"ｻｲｼﾞｮｳﾁｮｳｶﾐﾐﾅｶﾞ","pref":"広島県","city":"東広島市","address":"西条町上三永"},
{"zip_code":"7390035","kana_pref":"ﾋﾛｼﾏｹﾝ","kana_city":"ﾋｶﾞｼﾋﾛｼﾏｼ","kana_address":"ｻｲｼﾞｮｳﾁｮｳｺﾞｳｿ","pref":"広島県","city":"東広島市","address":"西条町郷曽"},
{"zip_code":"7390001","kana_pref":"ﾋﾛｼﾏｹﾝ","kana_city":"ﾋｶﾞｼﾋﾛｼﾏｼ","kana_address":"ｻｲｼﾞｮｳﾁｮｳｻｲｼﾞｮｳ","pref":"広島県","city":"東広島市","address":"西条町西条"},
{"zip_code":"7390042","kana_pref":"ﾋﾛｼﾏｹﾝ","kana_city":"ﾋｶﾞｼﾋﾛｼﾏｼ","kana_address":"ｻｲｼﾞｮｳﾁｮｳｻｲｼﾞｮｳﾋｶﾞｼ","pref":"広島県","city":"東広島市","address":"西条町西条東"},
{"zip_code":"7390041","kana_pref":"ﾋﾛｼﾏｹﾝ","kana_city":"ﾋｶﾞｼﾋﾛｼﾏｼ","kana_address":"ｻｲｼﾞｮｳﾁｮｳｼﾞｹ","pref":"広島県","city":"東広島市","address":"西条町寺家"},
{"zip_code":"7390044","kana_pref":"ﾋﾛｼﾏｹﾝ","kana_city":"ﾋｶﾞｼﾋﾛｼﾏｼ","kana_address":"ｻｲｼﾞｮｳﾁｮｳｼﾀﾐ","pref":"広島県","city":"東広島市","address":"西条町下見"},
{"zip_code":"7390023","kana_pref":"ﾋﾛｼﾏｹﾝ","kana_city":"ﾋｶﾞｼﾋﾛｼﾏｼ","kana_address":"ｻｲｼﾞｮｳﾁｮｳｼﾓﾐﾅｶﾞ","pref":"広島県","city":"東広島市","address":"西条町下三永"},
{"zip_code":"7390021","kana_pref":"ﾋﾛｼﾏｹﾝ","kana_city":"ﾋｶﾞｼﾋﾛｼﾏｼ","kana_address":"ｻｲｼﾞｮｳﾁｮｳｽｹｻﾞﾈ","pref":"広島県","city":"東広島市","address":"西条町助実"},
{"zip_code":"7390036","kana_pref":"ﾋﾛｼﾏｹﾝ","kana_city":"ﾋｶﾞｼﾋﾛｼﾏｼ","kana_address":"ｻｲｼﾞｮｳﾁｮｳﾀｸﾞﾁ","pref":"広島県","city":"東広島市","address":"西条町田口"},
{"zip_code":"7390003","kana_pref":"ﾋﾛｼﾏｹﾝ","kana_city":"ﾋｶﾞｼﾋﾛｼﾏｼ","kana_address":"ｻｲｼﾞｮｳﾁｮｳﾄﾞﾖﾏﾙ","pref":"広島県","city":"東広島市","address":"西条町土与丸"},
{"zip_code":"7390031","kana_pref":"ﾋﾛｼﾏｹﾝ","kana_city":"ﾋｶﾞｼﾋﾛｼﾏｼ","kana_address":"ｻｲｼﾞｮｳﾁｮｳﾌｸﾓﾄ","pref":"広島県","city":"東広島市","address":"西条町福本"},
{"zip_code":"7390024","kana_pref":"ﾋﾛｼﾏｹﾝ","kana_city":"ﾋｶﾞｼﾋﾛｼﾏｼ","kana_address":"ｻｲｼﾞｮｳﾁｮｳﾐｿﾉｳ","pref":"広島県","city":"東広島市","address":"西条町御薗宇"},
{"zip_code":"7390032","kana_pref":"ﾋﾛｼﾏｹﾝ","kana_city":"ﾋｶﾞｼﾋﾛｼﾏｼ","kana_address":"ｻｲｼﾞｮｳﾁｮｳﾓﾘﾁｶ","pref":"広島県","city":"東広島市","address":"西条町森近"},
{"zip_code":"7390002","kana_pref":"ﾋﾛｼﾏｹﾝ","kana_city":"ﾋｶﾞｼﾋﾛｼﾏｼ","kana_address":"ｻｲｼﾞｮｳﾁｮｳﾖｼﾕｷ","pref":"広島県","city":"東広島市","address":"西条町吉行"},
{"zip_code":"7390263","kana_pref":"ﾋﾛｼﾏｹﾝ","kana_city":"ﾋｶﾞｼﾋﾛｼﾏｼ","kana_address":"ｼﾜﾘｭｳﾂｳ","pref":"広島県","city":"東広島市","address":"志和流通"},
{"zip_code":"7390261","kana_pref":"ﾋﾛｼﾏｹﾝ","kana_city":"ﾋｶﾞｼﾋﾛｼﾏｼ","kana_address":"ｼﾜﾁｮｳｳﾁ","pref":"広島県","city":"東広島市","address":"志和町内"},
{"zip_code":"7390266","kana_pref":"ﾋﾛｼﾏｹﾝ","kana_city":"ﾋｶﾞｼﾋﾛｼﾏｼ","kana_address":"ｼﾜﾁｮｳｵｸﾔ","pref":"広島県","city":"東広島市","address":"志和町奥屋"},
{"zip_code":"7390265","kana_pref":"ﾋﾛｼﾏｹﾝ","kana_city":"ﾋｶﾞｼﾋﾛｼﾏｼ","kana_address":"ｼﾜﾁｮｳｶﾝﾑﾘ","pref":"広島県","city":"東広島市","address":"志和町冠"},
{"zip_code":"7390264","kana_pref":"ﾋﾛｼﾏｹﾝ","kana_city":"ﾋｶﾞｼﾋﾛｼﾏｼ","kana_address":"ｼﾜﾁｮｳｼﾁｼﾞｮｳｶﾌﾞｻｶ","pref":"広島県","city":"東広島市","address":"志和町七条椛坂"},
{"zip_code":"7390268","kana_pref":"ﾋﾛｼﾏｹﾝ","kana_city":"ﾋｶﾞｼﾋﾛｼﾏｼ","kana_address":"ｼﾜﾁｮｳｼﾜﾆｼ","pref":"広島県","city":"東広島市","address":"志和町志和西"},
{"zip_code":"7390262","kana_pref":"ﾋﾛｼﾏｹﾝ","kana_city":"ﾋｶﾞｼﾋﾛｼﾏｼ","kana_address":"ｼﾜﾁｮｳｼﾜﾋｶﾞｼ","pref":"広島県","city":"東広島市","address":"志和町志和東"},
{"zip_code":"7390269","kana_pref":"ﾋﾛｼﾏｹﾝ","kana_city":"ﾋｶﾞｼﾋﾛｼﾏｼ","kana_address":"ｼﾜﾁｮｳｼﾜﾎﾘ","pref":"広島県","city":"東広島市","address":"志和町志和堀"},
{"zip_code":"7390267","kana_pref":"ﾋﾛｼﾏｹﾝ","kana_city":"ﾋｶﾞｼﾋﾛｼﾏｼ","kana_address":"ｼﾜﾁｮｳﾍﾞﾌ","pref":"広島県","city":"東広島市","address":"志和町別府"},
{"zip_code":"7392116","kana_pref":"ﾋﾛｼﾏｹﾝ","kana_city":"ﾋｶﾞｼﾋﾛｼﾏｼ","kana_address":"ﾀｶﾔｳﾒﾉﾍﾞ","pref":"広島県","city":"東広島市","address":"高屋うめの辺"},
{"zip_code":"7392115","kana_pref":"ﾋﾛｼﾏｹﾝ","kana_city":"ﾋｶﾞｼﾋﾛｼﾏｼ","kana_address":"ﾀｶﾔﾀｶﾐｶﾞｵｶ","pref":"広島県","city":"東広島市","address":"高屋高美が丘"},
{"zip_code":"7392117","kana_pref":"ﾋﾛｼﾏｹﾝ","kana_city":"ﾋｶﾞｼﾋﾛｼﾏｼ","kana_address":"ﾀｶﾔﾀﾞｲ","pref":"広島県","city":"東広島市","address":"高屋台"},
{"zip_code":"7392106","kana_pref":"ﾋﾛｼﾏｹﾝ","kana_city":"ﾋｶﾞｼﾋﾛｼﾏｼ","kana_address":"ﾀｶﾔﾁｮｳｲﾅｷ","pref":"広島県","city":"東広島市","address":"高屋町稲木"},
{"zip_code":"7392104","kana_pref":"ﾋﾛｼﾏｹﾝ","kana_city":"ﾋｶﾞｼﾋﾛｼﾏｼ","kana_address":"ﾀｶﾔﾁｮｳｵｵﾊﾞﾀｹ","pref":"広島県","city":"東広島市","address":"高屋町大畠"},
{"zip_code":"7392102","kana_pref":"ﾋﾛｼﾏｹﾝ","kana_city":"ﾋｶﾞｼﾋﾛｼﾏｼ","kana_address":"ﾀｶﾔﾁｮｳｷﾈﾊﾗ","pref":"広島県","city":"東広島市","address":"高屋町杵原"},
{"zip_code":"7392124","kana_pref":"ﾋﾛｼﾏｹﾝ","kana_city":"ﾋｶﾞｼﾋﾛｼﾏｼ","kana_address":"ﾀｶﾔﾁｮｳｺﾞｳ","pref":"広島県","city":"東広島市","address":"高屋町郷"},
{"zip_code":"7392121","kana_pref":"ﾋﾛｼﾏｹﾝ","kana_city":"ﾋｶﾞｼﾋﾛｼﾏｼ","kana_address":"ﾀｶﾔﾁｮｳｺﾀﾞﾆ","pref":"広島県","city":"東広島市","address":"高屋町小谷"},
{"zip_code":"7392112","kana_pref":"ﾋﾛｼﾏｹﾝ","kana_city":"ﾋｶﾞｼﾋﾛｼﾏｼ","kana_address":"ﾀｶﾔﾁｮｳｻﾀﾞｼｹﾞ","pref":"広島県","city":"東広島市","address":"高屋町貞重"},
{"zip_code":"7392122","kana_pref":"ﾋﾛｼﾏｹﾝ","kana_city":"ﾋｶﾞｼﾋﾛｼﾏｼ","kana_address":"ﾀｶﾔﾁｮｳｼｹﾞｶﾈ","pref":"広島県","city":"東広島市","address":"高屋町重兼"},
{"zip_code":"7392114","kana_pref":"ﾋﾛｼﾏｹﾝ","kana_city":"ﾋｶﾞｼﾋﾛｼﾏｼ","kana_address":"ﾀｶﾔﾁｮｳｼﾗｲﾁ","pref":"広島県","city":"東広島市","address":"高屋町白市"},
{"zip_code":"7392101","kana_pref":"ﾋﾛｼﾏｹﾝ","kana_city":"ﾋｶﾞｼﾋﾛｼﾏｼ","kana_address":"ﾀｶﾔﾁｮｳｿﾞｳｶ","pref":"広島県","city":"東広島市","address":"高屋町造賀"},
{"zip_code":"7392113","kana_pref":"ﾋﾛｼﾏｹﾝ","kana_city":"ﾋｶﾞｼﾋﾛｼﾏｼ","kana_address":"ﾀｶﾔﾁｮｳﾀｶﾔﾋｶﾞｼ","pref":"広島県","city":"東広島市","address":"高屋町高屋東"},
{"zip_code":"7392111","kana_pref":"ﾋﾛｼﾏｹﾝ","kana_city":"ﾋｶﾞｼﾋﾛｼﾏｼ","kana_address":"ﾀｶﾔﾁｮｳﾀｶﾔﾎﾘ","pref":"広島県","city":"東広島市","address":"高屋町高屋堀"},
{"zip_code":"7392125","kana_pref":"ﾋﾛｼﾏｹﾝ","kana_city":"ﾋｶﾞｼﾋﾛｼﾏｼ","kana_address":"ﾀｶﾔﾁｮｳﾅｶｼﾏ","pref":"広島県","city":"東広島市","address":"高屋町中島"},
{"zip_code":"7392105","kana_pref":"ﾋﾛｼﾏｹﾝ","kana_city":"ﾋｶﾞｼﾋﾛｼﾏｼ","kana_address":"ﾀｶﾔﾁｮｳﾋﾔﾏ","pref":"広島県","city":"東広島市","address":"高屋町檜山"},
{"zip_code":"7392123","kana_pref":"ﾋﾛｼﾏｹﾝ","kana_city":"ﾋｶﾞｼﾋﾛｼﾏｼ","kana_address":"ﾀｶﾔﾁｮｳﾐｿﾞｸﾞﾁ","pref":"広島県","city":"東広島市","address":"高屋町溝口"},
{"zip_code":"7392103","kana_pref":"ﾋﾛｼﾏｹﾝ","kana_city":"ﾋｶﾞｼﾋﾛｼﾏｼ","kana_address":"ﾀｶﾔﾁｮｳﾐﾔﾘｮｳ","pref":"広島県","city":"東広島市","address":"高屋町宮領"},
{"zip_code":"7390038","kana_pref":"ﾋﾛｼﾏｹﾝ","kana_city":"ﾋｶﾞｼﾋﾛｼﾏｼ","kana_address":"ﾀｸﾞﾁｹﾝｷｭｳﾀﾞﾝﾁ","pref":"広島県","city":"東広島市","address":"田口研究団地"},
{"zip_code":"7392316","kana_pref":"ﾋﾛｼﾏｹﾝ","kana_city":"ﾋｶﾞｼﾋﾛｼﾏｼ","kana_address":"ﾄﾖｻｶﾁｮｳｱｽｶ","pref":"広島県","city":"東広島市","address":"豊栄町安宿"},
{"zip_code":"7392314","kana_pref":"ﾋﾛｼﾏｹﾝ","kana_city":"ﾋｶﾞｼﾋﾛｼﾏｼ","kana_address":"ﾄﾖｻｶﾁｮｳｲｲﾀﾞ","pref":"広島県","city":"東広島市","address":"豊栄町飯田"},
{"zip_code":"7392317","kana_pref":"ﾋﾛｼﾏｹﾝ","kana_city":"ﾋｶﾞｼﾋﾛｼﾏｼ","kana_address":"ﾄﾖｻｶﾁｮｳｶｼﾞﾔ","pref":"広島県","city":"東広島市","address":"豊栄町鍛冶屋"},
{"zip_code":"7392313","kana_pref":"ﾋﾛｼﾏｹﾝ","kana_city":"ﾋｶﾞｼﾋﾛｼﾏｼ","kana_address":"ﾄﾖｻｶﾁｮｳｷﾖﾀｹ","pref":"広島県","city":"東広島市","address":"豊栄町清武"},
{"zip_code":"7392318","kana_pref":"ﾋﾛｼﾏｹﾝ","kana_city":"ﾋｶﾞｼﾋﾛｼﾏｼ","kana_address":"ﾄﾖｻｶﾁｮｳﾉｳﾗ","pref":"広島県","city":"東広島市","address":"豊栄町能良"},
{"zip_code":"7392311","kana_pref":"ﾋﾛｼﾏｹﾝ","kana_city":"ﾋｶﾞｼﾋﾛｼﾏｼ","kana_address":"ﾄﾖｻｶﾁｮｳﾉﾐ","pref":"広島県","city":"東広島市","address":"豊栄町乃美"},
{"zip_code":"7392312","kana_pref":"ﾋﾛｼﾏｹﾝ","kana_city":"ﾋｶﾞｼﾋﾛｼﾏｼ","kana_address":"ﾄﾖｻｶﾁｮｳﾍﾞﾌ","pref":"広島県","city":"東広島市","address":"豊栄町別府"},
{"zip_code":"7392315","kana_pref":"ﾋﾛｼﾏｹﾝ","kana_city":"ﾋｶﾞｼﾋﾛｼﾏｼ","kana_address":"ﾄﾖｻｶﾁｮｳﾖｼﾜﾗ","pref":"広島県","city":"東広島市","address":"豊栄町吉原"},
{"zip_code":"7390037","kana_pref":"ﾋﾛｼﾏｹﾝ","kana_city":"ﾋｶﾞｼﾋﾛｼﾏｼ","kana_address":"ﾆｼｵｵｻﾜ","pref":"広島県","city":"東広島市","address":"西大沢"},
{"zip_code":"7392209","kana_pref":"ﾋﾛｼﾏｹﾝ","kana_city":"ﾋｶﾞｼﾋﾛｼﾏｼ","kana_address":"ﾆｭｳﾉﾅｶﾔﾏﾀﾞｲ","pref":"広島県","city":"東広島市","address":"入野中山台"},
{"zip_code":"7390146","kana_pref":"ﾋﾛｼﾏｹﾝ","kana_city":"ﾋｶﾞｼﾋﾛｼﾏｼ","kana_address":"ﾊﾁﾎﾝﾏﾂｲｲﾀﾞ","pref":"広島県","city":"東広島市","address":"八本松飯田"},
{"zip_code":"7390147","kana_pref":"ﾋﾛｼﾏｹﾝ","kana_city":"ﾋｶﾞｼﾋﾛｼﾏｼ","kana_address":"ﾊﾁﾎﾝﾏﾂﾆｼ","pref":"広島県","city":"東広島市","address":"八本松西"},
{"zip_code":"7390142","kana_pref":"ﾋﾛｼﾏｹﾝ","kana_city":"ﾋｶﾞｼﾋﾛｼﾏｼ","kana_address":"ﾊﾁﾎﾝﾏﾂﾋｶﾞｼ","pref":"広島県","city":"東広島市","address":"八本松東"},
{"zip_code":"7390144","kana_pref":"ﾋﾛｼﾏｹﾝ","kana_city":"ﾋｶﾞｼﾋﾛｼﾏｼ","kana_address":"ﾊﾁﾎﾝﾏﾂﾐﾅﾐ","pref":"広島県","city":"東広島市","address":"八本松南"},
{"zip_code":"7390141","kana_pref":"ﾋﾛｼﾏｹﾝ","kana_city":"ﾋｶﾞｼﾋﾛｼﾏｼ","kana_address":"ﾊﾁﾎﾝﾏﾂﾁｮｳｲｲﾀﾞ","pref":"広島県","city":"東広島市","address":"八本松町飯田"},
{"zip_code":"7390131","kana_pref":"ﾋﾛｼﾏｹﾝ","kana_city":"ﾋｶﾞｼﾋﾛｼﾏｼ","kana_address":"ﾊﾁﾎﾝﾏﾂﾁｮｳｻｻ","pref":"広島県","city":"東広島市","address":"八本松町篠"},
{"zip_code":"7390132","kana_pref":"ﾋﾛｼﾏｹﾝ","kana_city":"ﾋｶﾞｼﾋﾛｼﾏｼ","kana_address":"ﾊﾁﾎﾝﾏﾂﾁｮｳｼｮｳﾘｷ","pref":"広島県","city":"東広島市","address":"八本松町正力"},
{"zip_code":"7390151","kana_pref":"ﾋﾛｼﾏｹﾝ","kana_city":"ﾋｶﾞｼﾋﾛｼﾏｼ","kana_address":"ﾊﾁﾎﾝﾏﾂﾁｮｳﾊﾗ","pref":"広島県","city":"東広島市","address":"八本松町原"},
{"zip_code":"7390145","kana_pref":"ﾋﾛｼﾏｹﾝ","kana_city":"ﾋｶﾞｼﾋﾛｼﾏｼ","kana_address":"ﾊﾁﾎﾝﾏﾂﾁｮｳﾑﾈﾖｼ","pref":"広島県","city":"東広島市","address":"八本松町宗吉"},
{"zip_code":"7390152","kana_pref":"ﾋﾛｼﾏｹﾝ","kana_city":"ﾋｶﾞｼﾋﾛｼﾏｼ","kana_address":"ﾊﾁﾎﾝﾏﾂﾁｮｳﾖｼｶﾜ","pref":"広島県","city":"東広島市","address":"八本松町吉川"},
{"zip_code":"7390133","kana_pref":"ﾋﾛｼﾏｹﾝ","kana_city":"ﾋｶﾞｼﾋﾛｼﾏｼ","kana_address":"ﾊﾁﾎﾝﾏﾂﾁｮｳﾖﾈﾐﾂ","pref":"広島県","city":"東広島市","address":"八本松町米満"},
{"zip_code":"7392301","kana_pref":"ﾋﾛｼﾏｹﾝ","kana_city":"ﾋｶﾞｼﾋﾛｼﾏｼ","kana_address":"ﾌｸﾄﾐﾁｮｳｶﾐﾀﾞｹﾆ","pref":"広島県","city":"東広島市","address":"福富町上竹仁"},
{"zip_code":"7392304","kana_pref":"ﾋﾛｼﾏｹﾝ","kana_city":"ﾋｶﾞｼﾋﾛｼﾏｼ","kana_address":"ﾌｸﾄﾐﾁｮｳｶﾐﾄﾉ","pref":"広島県","city":"東広島市","address":"福富町上戸野"},
{"zip_code":"7392303","kana_pref":"ﾋﾛｼﾏｹﾝ","kana_city":"ﾋｶﾞｼﾋﾛｼﾏｼ","kana_address":"ﾌｸﾄﾐﾁｮｳｸﾊﾞ","pref":"広島県","city":"東広島市","address":"福富町久芳"},
{"zip_code":"7392302","kana_pref":"ﾋﾛｼﾏｹﾝ","kana_city":"ﾋｶﾞｼﾋﾛｼﾏｼ","kana_address":"ﾌｸﾄﾐﾁｮｳｼﾓﾀﾞｹﾆ","pref":"広島県","city":"東広島市","address":"福富町下竹仁"},
{"zip_code":"7390026","kana_pref":"ﾋﾛｼﾏｹﾝ","kana_city":"ﾋｶﾞｼﾋﾛｼﾏｼ","kana_address":"ﾐﾅｶﾞ","pref":"広島県","city":"東広島市","address":"三永"},
{"zip_code":"7390153","kana_pref":"ﾋﾛｼﾏｹﾝ","kana_city":"ﾋｶﾞｼﾋﾛｼﾏｼ","kana_address":"ﾖｼｶﾜｺｳｷﾞｮｳﾀﾞﾝﾁ","pref":"広島県","city":"東広島市","address":"吉川工業団地"},
{"zip_code":"7390442","kana_pref":"ﾋﾛｼﾏｹﾝ","kana_city":"ﾊﾂｶｲﾁｼ","kana_address":"ｳﾒﾊﾗ","pref":"広島県","city":"廿日市市","address":"梅原"},
{"zip_code":"7390664","kana_pref":"ﾋﾛｼﾏｹﾝ","kana_city":"ﾊﾂｶｲﾁｼ","kana_address":"ｵｵﾉｱﾗｼﾀﾞﾆ","pref":"広島県","city":"廿日市市","address":"大野嵐谷"},
{"zip_code":"7390478","kana_pref":"ﾋﾛｼﾏｹﾝ","kana_city":"ﾊﾂｶｲﾁｼ","kana_address":"ｵｵﾉｲｶﾅﾂﾞ","pref":"広島県","city":"廿日市市","address":"大野筏津"},
{"zip_code":"7390479","kana_pref":"ﾋﾛｼﾏｹﾝ","kana_city":"ﾊﾂｶｲﾁｼ","kana_address":"ｵｵﾉｲｹﾀﾞ","pref":"広島県","city":"廿日市市","address":"大野池田"},
{"zip_code":"7390667","kana_pref":"ﾋﾛｼﾏｹﾝ","kana_city":"ﾊﾂｶｲﾁｼ","kana_address":"ｵｵﾉｲﾉｳﾂ","pref":"広島県","city":"廿日市市","address":"大野猪ノウツ"},
{"zip_code":"7390463","kana_pref":"ﾋﾛｼﾏｹﾝ","kana_city":"ﾊﾂｶｲﾁｼ","kana_address":"ｵｵﾉｵﾀﾞﾉｸﾁ","pref":"広島県","city":"廿日市市","address":"大野小田ノ口"},
{"zip_code":"7390456","kana_pref":"ﾋﾛｼﾏｹﾝ","kana_city":"ﾊﾂｶｲﾁｼ","kana_address":"ｵｵﾉｶｷﾉｳﾗ","pref":"広島県","city":"廿日市市","address":"大野垣ノ浦"},
{"zip_code":"7390423","kana_pref":"ﾋﾛｼﾏｹﾝ","kana_city":"ﾊﾂｶｲﾁｼ","kana_address":"ｵｵﾉｶﾞﾌﾞﾂ","pref":"広島県","city":"廿日市市","address":"大野賀撫津"},
{"zip_code":"7390407","kana_pref":"ﾋﾛｼﾏｹﾝ","kana_city":"ﾊﾂｶｲﾁｼ","kana_address":"ｵｵﾉｶﾐｻﾗｼﾞ","pref":"広島県","city":"廿日市市","address":"大野上更地"},
{"zip_code":"7390661","kana_pref":"ﾋﾛｼﾏｹﾝ","kana_city":"ﾊﾂｶｲﾁｼ","kana_address":"ｵｵﾉｷｮｳｺﾞﾔ","pref":"広島県","city":"廿日市市","address":"大野経小屋"},
{"zip_code":"7390461","kana_pref":"ﾋﾛｼﾏｹﾝ","kana_city":"ﾊﾂｶｲﾁｼ","kana_address":"ｵｵﾉｺﾞｳ","pref":"広島県","city":"廿日市市","address":"大野郷"},
{"zip_code":"7390446","kana_pref":"ﾋﾛｼﾏｹﾝ","kana_city":"ﾊﾂｶｲﾁｼ","kana_address":"ｵｵﾉｺﾔﾏ","pref":"広島県","city":"廿日市市","address":"大野小山"},
{"zip_code":"7390459","kana_pref":"ﾋﾛｼﾏｹﾝ","kana_city":"ﾊﾂｶｲﾁｼ","kana_address":"ｵｵﾉｼｼﾞｭｳﾊｯｻｶ","pref":"広島県","city":"廿日市市","address":"大野四十八坂"},
{"zip_code":"7390403","kana_pref":"ﾋﾛｼﾏｹﾝ","kana_city":"ﾊﾂｶｲﾁｼ","kana_address":"ｵｵﾉｼﾓｻﾗｼﾞ","pref":"広島県","city":"廿日市市","address":"大野下更地"},
{"zip_code":"7390457","kana_pref":"ﾋﾛｼﾏｹﾝ","kana_city":"ﾊﾂｶｲﾁｼ","kana_address":"ｵｵﾉｼﾓﾅﾀﾞ","pref":"広島県","city":"廿日市市","address":"大野下灘"},
{"zip_code":"7390404","kana_pref":"ﾋﾛｼﾏｹﾝ","kana_city":"ﾊﾂｶｲﾁｼ","kana_address":"ｵｵﾉｼﾞｭｳﾛｳﾊﾞﾗ","pref":"広島県","city":"廿日市市","address":"大野十郎原"},
{"zip_code":"7390462","kana_pref":"ﾋﾛｼﾏｹﾝ","kana_city":"ﾊﾂｶｲﾁｼ","kana_address":"ｵｵﾉｼﾞﾝﾊﾞ","pref":"広島県","city":"廿日市市","address":"大野陣場"},
{"zip_code":"7390422","kana_pref":"ﾋﾛｼﾏｹﾝ","kana_city":"ﾊﾂｶｲﾁｼ","kana_address":"ｵｵﾉｿｳﾄｷ","pref":"広島県","city":"廿日市市","address":"大野早時"},
{"zip_code":"7390408","kana_pref":"ﾋﾛｼﾏｹﾝ","kana_city":"ﾊﾂｶｲﾁｼ","kana_address":"ｵｵﾉﾀｲﾉﾊﾗ","pref":"広島県","city":"廿日市市","address":"大野鯛ノ原"},
{"zip_code":"7390475","kana_pref":"ﾋﾛｼﾏｹﾝ","kana_city":"ﾊﾂｶｲﾁｼ","kana_address":"ｵｵﾉﾀｶﾊﾞﾀｹ","pref":"広島県","city":"廿日市市","address":"大野高畑"},
{"zip_code":"7390476","kana_pref":"ﾋﾛｼﾏｹﾝ","kana_city":"ﾊﾂｶｲﾁｼ","kana_address":"ｵｵﾉﾀｶﾐ","pref":"広島県","city":"廿日市市","address":"大野高見"},
{"zip_code":"7390466","kana_pref":"ﾋﾛｼﾏｹﾝ","kana_city":"ﾊﾂｶｲﾁｼ","kana_address":"ｵｵﾉﾀｷﾉｼﾀ","pref":"広島県","city":"廿日市市","address":"大野滝ノ下"},
{"zip_code":"7390472","kana_pref":"ﾋﾛｼﾏｹﾝ","kana_city":"ﾊﾂｶｲﾁｼ","kana_address":"ｵｵﾉﾀﾅﾀﾞ","pref":"広島県","city":"廿日市市","address":"大野棚田"},
{"zip_code":"7390473","kana_pref":"ﾋﾛｼﾏｹﾝ","kana_city":"ﾊﾂｶｲﾁｼ","kana_address":"ｵｵﾉﾀﾔ","pref":"広島県","city":"廿日市市","address":"大野田屋"},
{"zip_code":"7390437","kana_pref":"ﾋﾛｼﾏｹﾝ","kana_city":"ﾊﾂｶｲﾁｼ","kana_address":"ｵｵﾉﾁｭｳｵｳ","pref":"広島県","city":"廿日市市","address":"大野中央"},
{"zip_code":"7390474","kana_pref":"ﾋﾛｼﾏｹﾝ","kana_city":"ﾊﾂｶｲﾁｼ","kana_address":"ｵｵﾉﾄﾞｲ","pref":"広島県","city":"廿日市市","address":"大野土井"},
{"zip_code":"7390405","kana_pref":"ﾋﾛｼﾏｹﾝ","kana_city":"ﾊﾂｶｲﾁｼ","kana_address":"ｵｵﾉﾄｲｼｶﾞﾜ","pref":"広島県","city":"廿日市市","address":"大野戸石川"},
{"zip_code":"7390467","kana_pref":"ﾋﾛｼﾏｹﾝ","kana_city":"ﾊﾂｶｲﾁｼ","kana_address":"ｵｵﾉﾅｶﾂｵｶ","pref":"広島県","city":"廿日市市","address":"大野中津岡"},
{"zip_code":"7390406","kana_pref":"ﾋﾛｼﾏｹﾝ","kana_city":"ﾊﾂｶｲﾁｼ","kana_address":"ｵｵﾉﾅｶﾔﾏ","pref":"広島県","city":"廿日市市","address":"大野中山"},
{"zip_code":"7390458","kana_pref":"ﾋﾛｼﾏｹﾝ","kana_city":"ﾊﾂｶｲﾁｼ","kana_address":"ｵｵﾉﾅﾙｶﾜ","pref":"広島県","city":"廿日市市","address":"大野鳴川"},
{"zip_code":"7390663","kana_pref":"ﾋﾛｼﾏｹﾝ","kana_city":"ﾊﾂｶｲﾁｼ","kana_address":"ｵｵﾉﾇﾒﾘﾀﾞﾆ","pref":"広島県","city":"廿日市市","address":"大野奴メリ谷"},
{"zip_code":"7390471","kana_pref":"ﾋﾛｼﾏｹﾝ","kana_city":"ﾊﾂｶｲﾁｼ","kana_address":"ｵｵﾉﾍﾞﾌ","pref":"広島県","city":"廿日市市","address":"大野別府"},
{"zip_code":"7390477","kana_pref":"ﾋﾛｼﾏｹﾝ","kana_city":"ﾊﾂｶｲﾁｼ","kana_address":"ｵｵﾉﾐｽﾞｸﾞﾁ","pref":"広島県","city":"廿日市市","address":"大野水口"},
{"zip_code":"7390464","kana_pref":"ﾋﾛｼﾏｹﾝ","kana_city":"ﾊﾂｶｲﾁｼ","kana_address":"ｵｵﾉﾐﾉｺｼ","pref":"広島県","city":"廿日市市","address":"大野水ノ越"},
{"zip_code":"7390665","kana_pref":"ﾋﾛｼﾏｹﾝ","kana_city":"ﾊﾂｶｲﾁｼ","kana_address":"ｵｵﾉﾖｺﾅﾃﾞ","pref":"広島県","city":"廿日市市","address":"大野横撫"},
{"zip_code":"7390434","kana_pref":"ﾋﾛｼﾏｹﾝ","kana_city":"ﾊﾂｶｲﾁｼ","kana_address":"ｵｵﾉ","pref":"広島県","city":"廿日市市","address":"大野"},
{"zip_code":"7390488","kana_pref":"ﾋﾛｼﾏｹﾝ","kana_city":"ﾊﾂｶｲﾁｼ","kana_address":"ｵｵﾉ","pref":"広島県","city":"廿日市市","address":"大野"},
{"zip_code":"7390441","kana_pref":"ﾋﾛｼﾏｹﾝ","kana_city":"ﾊﾂｶｲﾁｼ","kana_address":"ｵｵﾉﾊﾗ","pref":"広島県","city":"廿日市市","address":"大野原"},
{"zip_code":"7390443","kana_pref":"ﾋﾛｼﾏｹﾝ","kana_city":"ﾊﾂｶｲﾁｼ","kana_address":"ｵｷｼｵﾔ","pref":"広島県","city":"廿日市市","address":"沖塩屋"},
{"zip_code":"7390432","kana_pref":"ﾋﾛｼﾏｹﾝ","kana_city":"ﾊﾂｶｲﾁｼ","kana_address":"ｶﾐﾉﾊﾏ","pref":"広島県","city":"廿日市市","address":"上の浜"},
{"zip_code":"7390445","kana_pref":"ﾋﾛｼﾏｹﾝ","kana_city":"ﾊﾂｶｲﾁｼ","kana_address":"ｼｵﾔ","pref":"広島県","city":"廿日市市","address":"塩屋"},
{"zip_code":"7390433","kana_pref":"ﾋﾛｼﾏｹﾝ","kana_city":"ﾊﾂｶｲﾁｼ","kana_address":"ｼﾓﾉﾊﾏ","pref":"広島県","city":"廿日市市","address":"下の浜"},
{"zip_code":"7390402","kana_pref":"ﾋﾛｼﾏｹﾝ","kana_city":"ﾊﾂｶｲﾁｼ","kana_address":"ﾀｲｹﾞﾝｻﾞﾝ","pref":"広島県","city":"廿日市市","address":"対厳山"},
{"zip_code":"7390455","kana_pref":"ﾋﾛｼﾏｹﾝ","kana_city":"ﾊﾂｶｲﾁｼ","kana_address":"ﾊｯｻｶ","pref":"広島県","city":"廿日市市","address":"八坂"},
{"zip_code":"7390444","kana_pref":"ﾋﾛｼﾏｹﾝ","kana_city":"ﾊﾂｶｲﾁｼ","kana_address":"ﾊﾔｼｶﾞﾊﾗ","pref":"広島県","city":"廿日市市","address":"林が原"},
{"zip_code":"7390421","kana_pref":"ﾋﾛｼﾏｹﾝ","kana_city":"ﾊﾂｶｲﾁｼ","kana_address":"ﾌｶｴ","pref":"広島県","city":"廿日市市","address":"深江"},
{"zip_code":"7390401","kana_pref":"ﾋﾛｼﾏｹﾝ","kana_city":"ﾊﾂｶｲﾁｼ","kana_address":"ﾌｸﾒﾝ","pref":"広島県","city":"廿日市市","address":"福面"},
{"zip_code":"7390424","kana_pref":"ﾋﾛｼﾏｹﾝ","kana_city":"ﾊﾂｶｲﾁｼ","kana_address":"ﾏｴｿﾞﾗ","pref":"広島県","city":"廿日市市","address":"前空"},
{"zip_code":"7390452","kana_pref":"ﾋﾛｼﾏｹﾝ","kana_city":"ﾊﾂｶｲﾁｼ","kana_address":"ﾏﾙｲｼ","pref":"広島県","city":"廿日市市","address":"丸石"},
{"zip_code":"7390411","kana_pref":"ﾋﾛｼﾏｹﾝ","kana_city":"ﾊﾂｶｲﾁｼ","kana_address":"ﾐﾔｼﾞﾏｸﾞﾁ","pref":"広島県","city":"廿日市市","address":"宮島口"},
{"zip_code":"7390413","kana_pref":"ﾋﾛｼﾏｹﾝ","kana_city":"ﾊﾂｶｲﾁｼ","kana_address":"ﾐﾔｼﾞﾏｸﾞﾁｳｴ","pref":"広島県","city":"廿日市市","address":"宮島口上"},
{"zip_code":"7390412","kana_pref":"ﾋﾛｼﾏｹﾝ","kana_city":"ﾊﾂｶｲﾁｼ","kana_address":"ﾐﾔｼﾞﾏｸﾞﾁﾆｼ","pref":"広島県","city":"廿日市市","address":"宮島口西"},
{"zip_code":"7390414","kana_pref":"ﾋﾛｼﾏｹﾝ","kana_city":"ﾊﾂｶｲﾁｼ","kana_address":"ﾐﾔｼﾞﾏｸﾞﾁﾋｶﾞｼ","pref":"広島県","city":"廿日市市","address":"宮島口東"},
{"zip_code":"7390541","kana_pref":"ﾋﾛｼﾏｹﾝ","kana_city":"ﾊﾂｶｲﾁｼ","kana_address":"ﾐﾔｼﾞﾏﾁｮｳ","pref":"広島県","city":"廿日市市","address":"宮島町"},
{"zip_code":"7390511","kana_pref":"ﾋﾛｼﾏｹﾝ","kana_city":"ﾊﾂｶｲﾁｼ","kana_address":"ﾐﾔｼﾞﾏﾁｮｳ","pref":"広島県","city":"廿日市市","address":"宮島町"},
{"zip_code":"7390515","kana_pref":"ﾋﾛｼﾏｹﾝ","kana_city":"ﾊﾂｶｲﾁｼ","kana_address":"ﾐﾔｼﾞﾏﾁｮｳ","pref":"広島県","city":"廿日市市","address":"宮島町"},
{"zip_code":"7390505","kana_pref":"ﾋﾛｼﾏｹﾝ","kana_city":"ﾊﾂｶｲﾁｼ","kana_address":"ﾐﾔｼﾞﾏﾁｮｳ","pref":"広島県","city":"廿日市市","address":"宮島町"},
{"zip_code":"7390507","kana_pref":"ﾋﾛｼﾏｹﾝ","kana_city":"ﾊﾂｶｲﾁｼ","kana_address":"ﾐﾔｼﾞﾏﾁｮｳ","pref":"広島県","city":"廿日市市","address":"宮島町"},
{"zip_code":"7390521","kana_pref":"ﾋﾛｼﾏｹﾝ","kana_city":"ﾊﾂｶｲﾁｼ","kana_address":"ﾐﾔｼﾞﾏﾁｮｳ","pref":"広島県","city":"廿日市市","address":"宮島町"},
{"zip_code":"7390513","kana_pref":"ﾋﾛｼﾏｹﾝ","kana_city":"ﾊﾂｶｲﾁｼ","kana_address":"ﾐﾔｼﾞﾏﾁｮｳ","pref":"広島県","city":"廿日市市","address":"宮島町"},
{"zip_code":"7390531","kana_pref":"ﾋﾛｼﾏｹﾝ","kana_city":"ﾊﾂｶｲﾁｼ","kana_address":"ﾐﾔｼﾞﾏﾁｮｳ","pref":"広島県","city":"廿日市市","address":"宮島町"},
{"zip_code":"7390535","kana_pref":"ﾋﾛｼﾏｹﾝ","kana_city":"ﾊﾂｶｲﾁｼ","kana_address":"ﾐﾔｼﾞﾏﾁｮｳ","pref":"広島県","city":"廿日市市","address":"宮島町"},
{"zip_code":"7390552","kana_pref":"ﾋﾛｼﾏｹﾝ","kana_city":"ﾊﾂｶｲﾁｼ","kana_address":"ﾐﾔｼﾞﾏﾁｮｳ","pref":"広島県","city":"廿日市市","address":"宮島町"},
{"zip_code":"7390559","kana_pref":"ﾋﾛｼﾏｹﾝ","kana_city":"ﾊﾂｶｲﾁｼ","kana_address":"ﾐﾔｼﾞﾏﾁｮｳ","pref":"広島県","city":"廿日市市","address":"宮島町"},
{"zip_code":"7390551","kana_pref":"ﾋﾛｼﾏｹﾝ","kana_city":"ﾊﾂｶｲﾁｼ","kana_address":"ﾐﾔｼﾞﾏﾁｮｳ","pref":"広島県","city":"廿日市市","address":"宮島町"},
{"zip_code":"7390525","kana_pref":"ﾋﾛｼﾏｹﾝ","kana_city":"ﾊﾂｶｲﾁｼ","kana_address":"ﾐﾔｼﾞﾏﾁｮｳ","pref":"広島県","city":"廿日市市","address":"宮島町"},
{"zip_code":"7390555","kana_pref":"ﾋﾛｼﾏｹﾝ","kana_city":"ﾊﾂｶｲﾁｼ","kana_address":"ﾐﾔｼﾞﾏﾁｮｳ","pref":"広島県","city":"廿日市市","address":"宮島町"},
{"zip_code":"7390556","kana_pref":"ﾋﾛｼﾏｹﾝ","kana_city":"ﾊﾂｶｲﾁｼ","kana_address":"ﾐﾔｼﾞﾏﾁｮｳ","pref":"広島県","city":"廿日市市","address":"宮島町"},
{"zip_code":"7390554","kana_pref":"ﾋﾛｼﾏｹﾝ","kana_city":"ﾊﾂｶｲﾁｼ","kana_address":"ﾐﾔｼﾞﾏﾁｮｳ","pref":"広島県","city":"廿日市市","address":"宮島町"},
{"zip_code":"7390557","kana_pref":"ﾋﾛｼﾏｹﾝ","kana_city":"ﾊﾂｶｲﾁｼ","kana_address":"ﾐﾔｼﾞﾏﾁｮｳ","pref":"広島県","city":"廿日市市","address":"宮島町"},
{"zip_code":"7390516","kana_pref":"ﾋﾛｼﾏｹﾝ","kana_city":"ﾊﾂｶｲﾁｼ","kana_address":"ﾐﾔｼﾞﾏﾁｮｳ","pref":"広島県","city":"廿日市市","address":"宮島町"},
{"zip_code":"7390518","kana_pref":"ﾋﾛｼﾏｹﾝ","kana_city":"ﾊﾂｶｲﾁｼ","kana_address":"ﾐﾔｼﾞﾏﾁｮｳ","pref":"広島県","city":"廿日市市","address":"宮島町"},
{"zip_code":"7390536","kana_pref":"ﾋﾛｼﾏｹﾝ","kana_city":"ﾊﾂｶｲﾁｼ","kana_address":"ﾐﾔｼﾞﾏﾁｮｳ","pref":"広島県","city":"廿日市市","address":"宮島町"},
{"zip_code":"7390512","kana_pref":"ﾋﾛｼﾏｹﾝ","kana_city":"ﾊﾂｶｲﾁｼ","kana_address":"ﾐﾔｼﾞﾏﾁｮｳ","pref":"広島県","city":"廿日市市","address":"宮島町"},
{"zip_code":"7390501","kana_pref":"ﾋﾛｼﾏｹﾝ","kana_city":"ﾊﾂｶｲﾁｼ","kana_address":"ﾐﾔｼﾞﾏﾁｮｳ","pref":"広島県","city":"廿日市市","address":"宮島町"},
{"zip_code":"7390502","kana_pref":"ﾋﾛｼﾏｹﾝ","kana_city":"ﾊﾂｶｲﾁｼ","kana_address":"ﾐﾔｼﾞﾏﾁｮｳ","pref":"広島県","city":"廿日市市","address":"宮島町"},
{"zip_code":"7390524","kana_pref":"ﾋﾛｼﾏｹﾝ","kana_city":"ﾊﾂｶｲﾁｼ","kana_address":"ﾐﾔｼﾞﾏﾁｮｳ","pref":"広島県","city":"廿日市市","address":"宮島町"},
{"zip_code":"7390542","kana_pref":"ﾋﾛｼﾏｹﾝ","kana_city":"ﾊﾂｶｲﾁｼ","kana_address":"ﾐﾔｼﾞﾏﾁｮｳ","pref":"広島県","city":"廿日市市","address":"宮島町"},
{"zip_code":"7390523","kana_pref":"ﾋﾛｼﾏｹﾝ","kana_city":"ﾊﾂｶｲﾁｼ","kana_address":"ﾐﾔｼﾞﾏﾁｮｳ","pref":"広島県","city":"廿日市市","address":"宮島町"},
{"zip_code":"7390553","kana_pref":"ﾋﾛｼﾏｹﾝ","kana_city":"ﾊﾂｶｲﾁｼ","kana_address":"ﾐﾔｼﾞﾏﾁｮｳ","pref":"広島県","city":"廿日市市","address":"宮島町"},
{"zip_code":"7390558","kana_pref":"ﾋﾛｼﾏｹﾝ","kana_city":"ﾊﾂｶｲﾁｼ","kana_address":"ﾐﾔｼﾞﾏﾁｮｳ","pref":"広島県","city":"廿日市市","address":"宮島町"},
{"zip_code":"7390534","kana_pref":"ﾋﾛｼﾏｹﾝ","kana_city":"ﾊﾂｶｲﾁｼ","kana_address":"ﾐﾔｼﾞﾏﾁｮｳ","pref":"広島県","city":"廿日市市","address":"宮島町"},
{"zip_code":"7390550","kana_pref":"ﾋﾛｼﾏｹﾝ","kana_city":"ﾊﾂｶｲﾁｼ","kana_address":"ﾐﾔｼﾞﾏﾁｮｳ","pref":"広島県","city":"廿日市市","address":"宮島町"},
{"zip_code":"7390532","kana_pref":"ﾋﾛｼﾏｹﾝ","kana_city":"ﾊﾂｶｲﾁｼ","kana_address":"ﾐﾔｼﾞﾏﾁｮｳ","pref":"広島県","city":"廿日市市","address":"宮島町"},
{"zip_code":"7390514","kana_pref":"ﾋﾛｼﾏｹﾝ","kana_city":"ﾊﾂｶｲﾁｼ","kana_address":"ﾐﾔｼﾞﾏﾁｮｳ","pref":"広島県","city":"廿日市市","address":"宮島町"},
{"zip_code":"7390503","kana_pref":"ﾋﾛｼﾏｹﾝ","kana_city":"ﾊﾂｶｲﾁｼ","kana_address":"ﾐﾔｼﾞﾏﾁｮｳ","pref":"広島県","city":"廿日市市","address":"宮島町"},
{"zip_code":"7390506","kana_pref":"ﾋﾛｼﾏｹﾝ","kana_city":"ﾊﾂｶｲﾁｼ","kana_address":"ﾐﾔｼﾞﾏﾁｮｳ","pref":"広島県","city":"廿日市市","address":"宮島町"},
{"zip_code":"7390504","kana_pref":"ﾋﾛｼﾏｹﾝ","kana_city":"ﾊﾂｶｲﾁｼ","kana_address":"ﾐﾔｼﾞﾏﾁｮｳ","pref":"広島県","city":"廿日市市","address":"宮島町"},
{"zip_code":"7390533","kana_pref":"ﾋﾛｼﾏｹﾝ","kana_city":"ﾊﾂｶｲﾁｼ","kana_address":"ﾐﾔｼﾞﾏﾁｮｳ","pref":"広島県","city":"廿日市市","address":"宮島町"},
{"zip_code":"7390522","kana_pref":"ﾋﾛｼﾏｹﾝ","kana_city":"ﾊﾂｶｲﾁｼ","kana_address":"ﾐﾔｼﾞﾏﾁｮｳ","pref":"広島県","city":"廿日市市","address":"宮島町"},
{"zip_code":"7390543","kana_pref":"ﾋﾛｼﾏｹﾝ","kana_city":"ﾊﾂｶｲﾁｼ","kana_address":"ﾐﾔｼﾞﾏﾁｮｳ","pref":"広島県","city":"廿日市市","address":"宮島町"},
{"zip_code":"7390517","kana_pref":"ﾋﾛｼﾏｹﾝ","kana_city":"ﾊﾂｶｲﾁｼ","kana_address":"ﾐﾔｼﾞﾏﾁｮｳ","pref":"広島県","city":"廿日市市","address":"宮島町"},
{"zip_code":"7390588","kana_pref":"ﾋﾛｼﾏｹﾝ","kana_city":"ﾊﾂｶｲﾁｼ","kana_address":"ﾐﾔｼﾞﾏﾁｮｳ","pref":"広島県","city":"廿日市市","address":"宮島町"},
{"zip_code":"7390454","kana_pref":"ﾋﾛｼﾏｹﾝ","kana_city":"ﾊﾂｶｲﾁｼ","kana_address":"ﾐﾔﾊﾏｵﾝｾﾝ","pref":"広島県","city":"廿日市市","address":"宮浜温泉"},
{"zip_code":"7390425","kana_pref":"ﾋﾛｼﾏｹﾝ","kana_city":"ﾊﾂｶｲﾁｼ","kana_address":"ﾓﾉﾐﾆｼ","pref":"広島県","city":"廿日市市","address":"物見西"},
{"zip_code":"7390426","kana_pref":"ﾋﾛｼﾏｹﾝ","kana_city":"ﾊﾂｶｲﾁｼ","kana_address":"ﾓﾉﾐﾋｶﾞｼ","pref":"広島県","city":"廿日市市","address":"物見東"},
{"zip_code":"7391106","kana_pref":"ﾋﾛｼﾏｹﾝ","kana_city":"ｱｷﾀｶﾀｼ","kana_address":"ｺｳﾀﾞﾁｮｳｱｻﾂｶ","pref":"広島県","city":"安芸高田市","address":"甲田町浅塚"},
{"zip_code":"7391102","kana_pref":"ﾋﾛｼﾏｹﾝ","kana_city":"ｱｷﾀｶﾀｼ","kana_address":"ｺｳﾀﾞﾁｮｳｶﾐｵﾊﾞﾗ","pref":"広島県","city":"安芸高田市","address":"甲田町上小原"},
{"zip_code":"7391104","kana_pref":"ﾋﾛｼﾏｹﾝ","kana_city":"ｱｷﾀｶﾀｼ","kana_address":"ｺｳﾀﾞﾁｮｳｶﾐｺｳﾀﾁ","pref":"広島県","city":"安芸高田市","address":"甲田町上甲立"},
{"zip_code":"7391103","kana_pref":"ﾋﾛｼﾏｹﾝ","kana_city":"ｱｷﾀｶﾀｼ","kana_address":"ｺｳﾀﾞﾁｮｳｼﾓｵﾊﾞﾗ","pref":"広島県","city":"安芸高田市","address":"甲田町下小原"},
{"zip_code":"7391105","kana_pref":"ﾋﾛｼﾏｹﾝ","kana_city":"ｱｷﾀｶﾀｼ","kana_address":"ｺｳﾀﾞﾁｮｳｼﾓｺｳﾀﾁ","pref":"広島県","city":"安芸高田市","address":"甲田町下甲立"},
{"zip_code":"7391107","kana_pref":"ﾋﾛｼﾏｹﾝ","kana_city":"ｱｷﾀｶﾀｼ","kana_address":"ｺｳﾀﾞﾁｮｳｽｸﾓｼﾞ","pref":"広島県","city":"安芸高田市","address":"甲田町糘地"},
{"zip_code":"7391101","kana_pref":"ﾋﾛｼﾏｹﾝ","kana_city":"ｱｷﾀｶﾀｼ","kana_address":"ｺｳﾀﾞﾁｮｳﾀｶﾀﾊﾞﾗ","pref":"広島県","city":"安芸高田市","address":"甲田町高田原"},
{"zip_code":"7391108","kana_pref":"ﾋﾛｼﾏｹﾝ","kana_city":"ｱｷﾀｶﾀｼ","kana_address":"ｺｳﾀﾞﾁｮｳﾌｶｾ","pref":"広島県","city":"安芸高田市","address":"甲田町深瀬"},
{"zip_code":"7391801","kana_pref":"ﾋﾛｼﾏｹﾝ","kana_city":"ｱｷﾀｶﾀｼ","kana_address":"ﾀｶﾐﾔﾁｮｳｶﾜﾈ","pref":"広島県","city":"安芸高田市","address":"高宮町川根"},
{"zip_code":"7391806","kana_pref":"ﾋﾛｼﾏｹﾝ","kana_city":"ｱｷﾀｶﾀｼ","kana_address":"ﾀｶﾐﾔﾁｮｳｸﾙﾒｷﾞ","pref":"広島県","city":"安芸高田市","address":"高宮町来女木"},
{"zip_code":"7391802","kana_pref":"ﾋﾛｼﾏｹﾝ","kana_city":"ｱｷﾀｶﾀｼ","kana_address":"ﾀｶﾐﾔﾁｮｳｻｻﾍﾞ","pref":"広島県","city":"安芸高田市","address":"高宮町佐々部"},
{"zip_code":"7391807","kana_pref":"ﾋﾛｼﾏｹﾝ","kana_city":"ｱｷﾀｶﾀｼ","kana_address":"ﾀｶﾐﾔﾁｮｳﾊｻﾀﾞｹ","pref":"広島県","city":"安芸高田市","address":"高宮町羽佐竹"},
{"zip_code":"7391805","kana_pref":"ﾋﾛｼﾏｹﾝ","kana_city":"ｱｷﾀｶﾀｼ","kana_address":"ﾀｶﾐﾔﾁｮｳﾊﾗﾀﾞ","pref":"広島県","city":"安芸高田市","address":"高宮町原田"},
{"zip_code":"7391803","kana_pref":"ﾋﾛｼﾏｹﾝ","kana_city":"ｱｷﾀｶﾀｼ","kana_address":"ﾀｶﾐﾔﾁｮｳﾌﾅｷ","pref":"広島県","city":"安芸高田市","address":"高宮町船木"},
{"zip_code":"7391804","kana_pref":"ﾋﾛｼﾏｹﾝ","kana_city":"ｱｷﾀｶﾀｼ","kana_address":"ﾀｶﾐﾔﾁｮｳﾎﾞｳｺﾞ","pref":"広島県","city":"安芸高田市","address":"高宮町房後"},
{"zip_code":"7391204","kana_pref":"ﾋﾛｼﾏｹﾝ","kana_city":"ｱｷﾀｶﾀｼ","kana_address":"ﾑｶｲﾊﾗﾁｮｳｱﾘﾄﾞﾒ","pref":"広島県","city":"安芸高田市","address":"向原町有留"},
{"zip_code":"7391201","kana_pref":"ﾋﾛｼﾏｹﾝ","kana_city":"ｱｷﾀｶﾀｼ","kana_address":"ﾑｶｲﾊﾗﾁｮｳｻｶ","pref":"広島県","city":"安芸高田市","address":"向原町坂"},
{"zip_code":"7391202","kana_pref":"ﾋﾛｼﾏｹﾝ","kana_city":"ｱｷﾀｶﾀｼ","kana_address":"ﾑｶｲﾊﾗﾁｮｳﾄｼﾏ","pref":"広島県","city":"安芸高田市","address":"向原町戸島"},
{"zip_code":"7391203","kana_pref":"ﾋﾛｼﾏｹﾝ","kana_city":"ｱｷﾀｶﾀｼ","kana_address":"ﾑｶｲﾊﾗﾁｮｳﾅｶﾞﾀ","pref":"広島県","city":"安芸高田市","address":"向原町長田"},
{"zip_code":"7391205","kana_pref":"ﾋﾛｼﾏｹﾝ","kana_city":"ｱｷﾀｶﾀｼ","kana_address":"ﾑｶｲﾊﾗﾁｮｳﾎｶﾞｷ","pref":"広島県","city":"安芸高田市","address":"向原町保垣"}]}