{"zip_code":[
{"zip_code":"7400000","kana_pref":"ﾔﾏｸﾞﾁｹﾝ","kana_city":"ｲﾜｸﾆｼ","kana_address":"","pref":"山口県","city":"岩国市","address":""},
{"zip_code":"7400304","kana_pref":"ﾔﾏｸﾞﾁｹﾝ","kana_city":"ｲﾜｸﾆｼ","kana_address":"ｱｲﾉﾀﾆ","pref":"山口県","city":"岩国市","address":"相ノ谷"},
{"zip_code":"7400024","kana_pref":"ﾔﾏｸﾞﾁｹﾝ","kana_city":"ｲﾜｸﾆｼ","kana_address":"ｱｻﾋﾏﾁ","pref":"山口県","city":"岩国市","address":"旭町"},
{"zip_code":"7400003","kana_pref":"ﾔﾏｸﾞﾁｹﾝ","kana_city":"ｲﾜｸﾆｼ","kana_address":"ｲｲﾀﾞﾏﾁ","pref":"山口県","city":"岩国市","address":"飯田町"},
{"zip_code":"7400324","kana_pref":"ﾔﾏｸﾞﾁｹﾝ","kana_city":"ｲﾜｸﾆｼ","kana_address":"ｲﾌｻ","pref":"山口県","city":"岩国市","address":"伊房"},
{"zip_code":"7400017","kana_pref":"ﾔﾏｸﾞﾁｹﾝ","kana_city":"ｲﾜｸﾆｼ","kana_address":"ｲﾏﾂﾞﾏﾁ","pref":"山口県","city":"岩国市","address":"今津町"},
{"zip_code":"7400321","kana_pref":"ﾔﾏｸﾞﾁｹﾝ","kana_city":"ｲﾜｸﾆｼ","kana_address":"ｲﾘﾉ","pref":"山口県","city":"岩国市","address":"入野"},
{"zip_code":"7400317","kana_pref":"ﾔﾏｸﾞﾁｹﾝ","kana_city":"ｲﾜｸﾆｼ","kana_address":"ｳｴﾀﾞ","pref":"山口県","city":"岩国市","address":"上田"},
{"zip_code":"7400042","kana_pref":"ﾔﾏｸﾞﾁｹﾝ","kana_city":"ｲﾜｸﾆｼ","kana_address":"ｵｵｷﾞﾏﾁ","pref":"山口県","city":"岩国市","address":"青木町"},
{"zip_code":"7400323","kana_pref":"ﾔﾏｸﾞﾁｹﾝ","kana_city":"ｲﾜｸﾆｼ","kana_address":"ｵｵﾔﾏ","pref":"山口県","city":"岩国市","address":"大山"},
{"zip_code":"7400032","kana_pref":"ﾔﾏｸﾞﾁｹﾝ","kana_city":"ｲﾜｸﾆｼ","kana_address":"ｵﾂﾞﾏﾁ","pref":"山口県","city":"岩国市","address":"尾津町"},
{"zip_code":"7400013","kana_pref":"ﾔﾏｸﾞﾁｹﾝ","kana_city":"ｲﾜｸﾆｼ","kana_address":"ｶﾂﾗﾏﾁ","pref":"山口県","city":"岩国市","address":"桂町"},
{"zip_code":"7400015","kana_pref":"ﾔﾏｸﾞﾁｹﾝ","kana_city":"ｲﾜｸﾆｼ","kana_address":"ｶﾜｸﾞﾁﾏﾁ","pref":"山口県","city":"岩国市","address":"川口町"},
{"zip_code":"7400023","kana_pref":"ﾔﾏｸﾞﾁｹﾝ","kana_city":"ｲﾜｸﾆｼ","kana_address":"ｶﾜｼﾓﾏﾁ","pref":"山口県","city":"岩国市","address":"川下町"},
{"zip_code":"7400311","kana_pref":"ﾔﾏｸﾞﾁｹﾝ","kana_city":"ｲﾜｸﾆｼ","kana_address":"ｶﾜﾗﾀﾞﾆ","pref":"山口県","city":"岩国市","address":"瓦谷"},
{"zip_code":"7400303","kana_pref":"ﾔﾏｸﾞﾁｹﾝ","kana_city":"ｲﾜｸﾆｼ","kana_address":"ｸｲﾅ","pref":"山口県","city":"岩国市","address":"杭名"},
{"zip_code":"7400028","kana_pref":"ﾔﾏｸﾞﾁｹﾝ","kana_city":"ｲﾜｸﾆｼ","kana_address":"ｸｽﾉｷﾏﾁ","pref":"山口県","city":"岩国市","address":"楠町"},
{"zip_code":"7400026","kana_pref":"ﾔﾏｸﾞﾁｹﾝ","kana_city":"ｲﾜｸﾆｼ","kana_address":"ｸﾙﾏﾏﾁ","pref":"山口県","city":"岩国市","address":"車町"},
{"zip_code":"7400041","kana_pref":"ﾔﾏｸﾞﾁｹﾝ","kana_city":"ｲﾜｸﾆｼ","kana_address":"ｸﾛｲｿﾏﾁ","pref":"山口県","city":"岩国市","address":"黒磯町"},
{"zip_code":"7400302","kana_pref":"ﾔﾏｸﾞﾁｹﾝ","kana_city":"ｲﾜｸﾆｼ","kana_address":"ｼﾓ","pref":"山口県","city":"岩国市","address":"下"},
{"zip_code":"7400312","kana_pref":"ﾔﾏｸﾞﾁｹﾝ","kana_city":"ｲﾜｸﾆｼ","kana_address":"ｼｭｳﾁ","pref":"山口県","city":"岩国市","address":"守内"},
{"zip_code":"7400001","kana_pref":"ﾔﾏｸﾞﾁｹﾝ","kana_city":"ｲﾜｸﾆｼ","kana_address":"ｼｮｳｿﾞｸﾏﾁ","pref":"山口県","city":"岩国市","address":"装束町"},
{"zip_code":"7400004","kana_pref":"ﾔﾏｸﾞﾁｹﾝ","kana_city":"ｲﾜｸﾆｼ","kana_address":"ｼｮｳﾜﾏﾁ","pref":"山口県","city":"岩国市","address":"昭和町"},
{"zip_code":"7400002","kana_pref":"ﾔﾏｸﾞﾁｹﾝ","kana_city":"ｲﾜｸﾆｼ","kana_address":"ｼﾝﾐﾅﾄﾏﾁ","pref":"山口県","city":"岩国市","address":"新港町"},
{"zip_code":"7400019","kana_pref":"ﾔﾏｸﾞﾁｹﾝ","kana_city":"ｲﾜｸﾆｼ","kana_address":"ｽﾅﾔﾏﾏﾁ","pref":"山口県","city":"岩国市","address":"砂山町"},
{"zip_code":"7400327","kana_pref":"ﾔﾏｸﾞﾁｹﾝ","kana_city":"ｲﾜｸﾆｼ","kana_address":"ｽﾐ","pref":"山口県","city":"岩国市","address":"角"},
{"zip_code":"7400325","kana_pref":"ﾔﾏｸﾞﾁｹﾝ","kana_city":"ｲﾜｸﾆｼ","kana_address":"ﾀｹﾔｽ","pref":"山口県","city":"岩国市","address":"竹安"},
{"zip_code":"7400011","kana_pref":"ﾔﾏｸﾞﾁｹﾝ","kana_city":"ｲﾜｸﾆｼ","kana_address":"ﾀﾃｲｼﾏﾁ","pref":"山口県","city":"岩国市","address":"立石町"},
{"zip_code":"7400315","kana_pref":"ﾔﾏｸﾞﾁｹﾝ","kana_city":"ｲﾜｸﾆｼ","kana_address":"ﾁｶﾉﾌﾞ","pref":"山口県","city":"岩国市","address":"近延"},
{"zip_code":"7400044","kana_pref":"ﾔﾏｸﾞﾁｹﾝ","kana_city":"ｲﾜｸﾆｼ","kana_address":"ﾂﾂﾞ","pref":"山口県","city":"岩国市","address":"通津"},
{"zip_code":"7400314","kana_pref":"ﾔﾏｸﾞﾁｹﾝ","kana_city":"ｲﾜｸﾆｼ","kana_address":"ﾃﾗﾔﾏ","pref":"山口県","city":"岩国市","address":"寺山"},
{"zip_code":"7400306","kana_pref":"ﾔﾏｸﾞﾁｹﾝ","kana_city":"ｲﾜｸﾆｼ","kana_address":"ﾃﾝﾉｵ","pref":"山口県","city":"岩国市","address":"天尾"},
{"zip_code":"7400027","kana_pref":"ﾔﾏｸﾞﾁｹﾝ","kana_city":"ｲﾜｸﾆｼ","kana_address":"ﾅｶﾂﾞﾏﾁ","pref":"山口県","city":"岩国市","address":"中津町"},
{"zip_code":"7400045","kana_pref":"ﾔﾏｸﾞﾁｹﾝ","kana_city":"ｲﾜｸﾆｼ","kana_address":"ﾅｶﾞﾉ","pref":"山口県","city":"岩国市","address":"長野"},
{"zip_code":"7400033","kana_pref":"ﾔﾏｸﾞﾁｹﾝ","kana_city":"ｲﾜｸﾆｼ","kana_address":"ﾅﾀﾞﾏﾁ","pref":"山口県","city":"岩国市","address":"灘町"},
{"zip_code":"7400901","kana_pref":"ﾔﾏｸﾞﾁｹﾝ","kana_city":"ｲﾜｸﾆｼ","kana_address":"ﾆｼｷﾏﾁｳｻ","pref":"山口県","city":"岩国市","address":"錦町宇佐"},
{"zip_code":"7400904","kana_pref":"ﾔﾏｸﾞﾁｹﾝ","kana_city":"ｲﾜｸﾆｼ","kana_address":"ﾆｼｷﾏﾁｳｻｺﾞｳ","pref":"山口県","city":"岩国市","address":"錦町宇佐郷"},
{"zip_code":"7400902","kana_pref":"ﾔﾏｸﾞﾁｹﾝ","kana_city":"ｲﾜｸﾆｼ","kana_address":"ﾆｼｷﾏﾁｳｻｺﾞｳ","pref":"山口県","city":"岩国市","address":"錦町宇佐郷"},
{"zip_code":"7400721","kana_pref":"ﾔﾏｸﾞﾁｹﾝ","kana_city":"ｲﾜｸﾆｼ","kana_address":"ﾆｼｷﾏﾁｵｵﾉ","pref":"山口県","city":"岩国市","address":"錦町大野"},
{"zip_code":"7400903","kana_pref":"ﾔﾏｸﾞﾁｹﾝ","kana_city":"ｲﾜｸﾆｼ","kana_address":"ﾆｼｷﾏﾁｵｵﾊﾗ","pref":"山口県","city":"岩国市","address":"錦町大原"},
{"zip_code":"7400811","kana_pref":"ﾔﾏｸﾞﾁｹﾝ","kana_city":"ｲﾜｸﾆｼ","kana_address":"ﾆｼｷﾏﾁｽｶﾞﾜ","pref":"山口県","city":"岩国市","address":"錦町須川"},
{"zip_code":"7400722","kana_pref":"ﾔﾏｸﾞﾁｹﾝ","kana_city":"ｲﾜｸﾆｼ","kana_address":"ﾆｼｷﾏﾁﾅｶﾉｾ","pref":"山口県","city":"岩国市","address":"錦町中ノ瀬"},
{"zip_code":"7400725","kana_pref":"ﾔﾏｸﾞﾁｹﾝ","kana_city":"ｲﾜｸﾆｼ","kana_address":"ﾆｼｷﾏﾁﾉﾀﾆ","pref":"山口県","city":"岩国市","address":"錦町野谷"},
{"zip_code":"7400724","kana_pref":"ﾔﾏｸﾞﾁｹﾝ","kana_city":"ｲﾜｸﾆｼ","kana_address":"ﾆｼｷﾏﾁﾋﾛｾ","pref":"山口県","city":"岩国市","address":"錦町広瀬"},
{"zip_code":"7400812","kana_pref":"ﾔﾏｸﾞﾁｹﾝ","kana_city":"ｲﾜｸﾆｼ","kana_address":"ﾆｼｷﾏﾁﾌｶｶﾞﾜ","pref":"山口県","city":"岩国市","address":"錦町深川"},
{"zip_code":"7400723","kana_pref":"ﾔﾏｸﾞﾁｹﾝ","kana_city":"ｲﾜｸﾆｼ","kana_address":"ﾆｼｷﾏﾁﾌﾉﾀﾆ","pref":"山口県","city":"岩国市","address":"錦町府谷"},
{"zip_code":"7400051","kana_pref":"ﾔﾏｸﾞﾁｹﾝ","kana_city":"ｲﾜｸﾆｼ","kana_address":"ﾊｼﾗｼﾞﾏ","pref":"山口県","city":"岩国市","address":"柱島"},
{"zip_code":"7400322","kana_pref":"ﾔﾏｸﾞﾁｹﾝ","kana_city":"ｲﾜｸﾆｼ","kana_address":"ﾊﾀｷ","pref":"山口県","city":"岩国市","address":"廿木"},
{"zip_code":"7400326","kana_pref":"ﾔﾏｸﾞﾁｹﾝ","kana_city":"ｲﾜｸﾆｼ","kana_address":"ﾊﾌﾞ","pref":"山口県","city":"岩国市","address":"土生"},
{"zip_code":"7400014","kana_pref":"ﾔﾏｸﾞﾁｹﾝ","kana_city":"ｲﾜｸﾆｼ","kana_address":"ﾋﾉﾃﾞﾏﾁ","pref":"山口県","city":"岩国市","address":"日の出町"},
{"zip_code":"7400036","kana_pref":"ﾔﾏｸﾞﾁｹﾝ","kana_city":"ｲﾜｸﾆｼ","kana_address":"ﾌｼﾞｭｳﾏﾁ","pref":"山口県","city":"岩国市","address":"藤生町"},
{"zip_code":"7400305","kana_pref":"ﾔﾏｸﾞﾁｹﾝ","kana_city":"ｲﾜｸﾆｼ","kana_address":"ﾌﾀｼｶ","pref":"山口県","city":"岩国市","address":"二鹿"},
{"zip_code":"7400313","kana_pref":"ﾔﾏｸﾞﾁｹﾝ","kana_city":"ｲﾜｸﾆｼ","kana_address":"ﾎｳｷ","pref":"山口県","city":"岩国市","address":"保木"},
{"zip_code":"7400043","kana_pref":"ﾔﾏｸﾞﾁｹﾝ","kana_city":"ｲﾜｸﾆｼ","kana_address":"ﾎｳﾂﾞﾏﾁ","pref":"山口県","city":"岩国市","address":"保津町"},
{"zip_code":"7400604","kana_pref":"ﾔﾏｸﾞﾁｹﾝ","kana_city":"ｲﾜｸﾆｼ","kana_address":"ﾎﾝｺﾞｳﾏﾁｳﾂﾞｶ","pref":"山口県","city":"岩国市","address":"本郷町宇塚"},
{"zip_code":"7400605","kana_pref":"ﾔﾏｸﾞﾁｹﾝ","kana_city":"ｲﾜｸﾆｼ","kana_address":"ﾎﾝｺﾞｳﾏﾁﾆｼｸﾛｻﾞﾜ","pref":"山口県","city":"岩国市","address":"本郷町西黒沢"},
{"zip_code":"7400603","kana_pref":"ﾔﾏｸﾞﾁｹﾝ","kana_city":"ｲﾜｸﾆｼ","kana_address":"ﾎﾝｺﾞｳﾏﾁﾊﾉ","pref":"山口県","city":"岩国市","address":"本郷町波野"},
{"zip_code":"7400602","kana_pref":"ﾔﾏｸﾞﾁｹﾝ","kana_city":"ｲﾜｸﾆｼ","kana_address":"ﾎﾝｺﾞｳﾏﾁﾎﾝｺﾞｳ","pref":"山口県","city":"岩国市","address":"本郷町本郷"},
{"zip_code":"7400601","kana_pref":"ﾔﾏｸﾞﾁｹﾝ","kana_city":"ｲﾜｸﾆｼ","kana_address":"ﾎﾝｺﾞｳﾏﾁﾎﾝﾀﾞﾆ","pref":"山口県","city":"岩国市","address":"本郷町本谷"},
{"zip_code":"7400018","kana_pref":"ﾔﾏｸﾞﾁｹﾝ","kana_city":"ｲﾜｸﾆｼ","kana_address":"ﾏﾘﾌﾏﾁ","pref":"山口県","city":"岩国市","address":"麻里布町"},
{"zip_code":"7400016","kana_pref":"ﾔﾏｸﾞﾁｹﾝ","kana_city":"ｲﾜｸﾆｼ","kana_address":"ﾐｶｻﾏﾁ","pref":"山口県","city":"岩国市","address":"三笠町"},
{"zip_code":"7400501","kana_pref":"ﾔﾏｸﾞﾁｹﾝ","kana_city":"ｲﾜｸﾆｼ","kana_address":"ﾐｶﾜﾏﾁｺｶﾞﾜ","pref":"山口県","city":"岩国市","address":"美川町小川"},
{"zip_code":"7400502","kana_pref":"ﾔﾏｸﾞﾁｹﾝ","kana_city":"ｲﾜｸﾆｼ","kana_address":"ﾐｶﾜﾏﾁｼﾒｶﾞﾐ","pref":"山口県","city":"岩国市","address":"美川町四馬神"},
{"zip_code":"7400503","kana_pref":"ﾔﾏｸﾞﾁｹﾝ","kana_city":"ｲﾜｸﾆｼ","kana_address":"ﾐｶﾜﾏﾁｿｴﾀﾞﾆ","pref":"山口県","city":"岩国市","address":"美川町添谷"},
{"zip_code":"7400504","kana_pref":"ﾔﾏｸﾞﾁｹﾝ","kana_city":"ｲﾜｸﾆｼ","kana_address":"ﾐｶﾜﾏﾁﾅｸﾞﾜ","pref":"山口県","city":"岩国市","address":"美川町南桑"},
{"zip_code":"7400505","kana_pref":"ﾔﾏｸﾞﾁｹﾝ","kana_city":"ｲﾜｸﾆｼ","kana_address":"ﾐｶﾜﾏﾁﾈｶｻ","pref":"山口県","city":"岩国市","address":"美川町根笠"},
{"zip_code":"7400025","kana_pref":"ﾔﾏｸﾞﾁｹﾝ","kana_city":"ｲﾜｸﾆｼ","kana_address":"ﾐｽﾐﾏﾁ","pref":"山口県","city":"岩国市","address":"三角町"},
{"zip_code":"7400035","kana_pref":"ﾔﾏｸﾞﾁｹﾝ","kana_city":"ｲﾜｸﾆｼ","kana_address":"ﾐﾄﾞﾛﾏﾁ","pref":"山口県","city":"岩国市","address":"海土路町"},
{"zip_code":"7400034","kana_pref":"ﾔﾏｸﾞﾁｹﾝ","kana_city":"ｲﾜｸﾆｼ","kana_address":"ﾐﾅﾐｲﾜｸﾆﾏﾁ","pref":"山口県","city":"岩国市","address":"南岩国町"},
{"zip_code":"7401241","kana_pref":"ﾔﾏｸﾞﾁｹﾝ","kana_city":"ｲﾜｸﾆｼ","kana_address":"ﾐﾜﾏﾁｱｶ","pref":"山口県","city":"岩国市","address":"美和町阿賀"},
{"zip_code":"7401201","kana_pref":"ﾔﾏｸﾞﾁｹﾝ","kana_city":"ｲﾜｸﾆｼ","kana_address":"ﾐﾜﾏﾁｱｷｶﾞｹ","pref":"山口県","city":"岩国市","address":"美和町秋掛"},
{"zip_code":"7401231","kana_pref":"ﾔﾏｸﾞﾁｹﾝ","kana_city":"ｲﾜｸﾆｼ","kana_address":"ﾐﾜﾏﾁｲｷﾐ","pref":"山口県","city":"岩国市","address":"美和町生見"},
{"zip_code":"7401217","kana_pref":"ﾔﾏｸﾞﾁｹﾝ","kana_city":"ｲﾜｸﾆｼ","kana_address":"ﾐﾜﾏﾁｵｵﾈｶﾞﾜ","pref":"山口県","city":"岩国市","address":"美和町大根川"},
{"zip_code":"7401211","kana_pref":"ﾔﾏｸﾞﾁｹﾝ","kana_city":"ｲﾜｸﾆｼ","kana_address":"ﾐﾜﾏﾁｶﾏｶﾞﾊﾗ","pref":"山口県","city":"岩国市","address":"美和町釜ケ原"},
{"zip_code":"7401221","kana_pref":"ﾔﾏｸﾞﾁｹﾝ","kana_city":"ｲﾜｸﾆｼ","kana_address":"ﾐﾜﾏﾁｶﾐﾀﾞﾄｺ","pref":"山口県","city":"岩国市","address":"美和町上駄床"},
{"zip_code":"7401213","kana_pref":"ﾔﾏｸﾞﾁｹﾝ","kana_city":"ｲﾜｸﾆｼ","kana_address":"ﾐﾜﾏﾁｶﾞﾝﾈ","pref":"山口県","city":"岩国市","address":"美和町岸根"},
{"zip_code":"7401202","kana_pref":"ﾔﾏｸﾞﾁｹﾝ","kana_city":"ｲﾜｸﾆｼ","kana_address":"ﾐﾜﾏﾁｷﾀﾅｶﾔﾏ","pref":"山口県","city":"岩国市","address":"美和町北中山"},
{"zip_code":"7401212","kana_pref":"ﾔﾏｸﾞﾁｹﾝ","kana_city":"ｲﾜｸﾆｼ","kana_address":"ﾐﾜﾏﾁｸﾛｻﾜ","pref":"山口県","city":"岩国市","address":"美和町黒沢"},
{"zip_code":"7401224","kana_pref":"ﾔﾏｸﾞﾁｹﾝ","kana_city":"ｲﾜｸﾆｼ","kana_address":"ﾐﾜﾏﾁｻｻﾞｶ","pref":"山口県","city":"岩国市","address":"美和町佐坂"},
{"zip_code":"7401225","kana_pref":"ﾔﾏｸﾞﾁｹﾝ","kana_city":"ｲﾜｸﾆｼ","kana_address":"ﾐﾜﾏﾁｼﾌﾞｸﾏ","pref":"山口県","city":"岩国市","address":"美和町渋前"},
{"zip_code":"7401242","kana_pref":"ﾔﾏｸﾞﾁｹﾝ","kana_city":"ｲﾜｸﾆｼ","kana_address":"ﾐﾜﾏﾁｼﾓﾊﾞﾀ","pref":"山口県","city":"岩国市","address":"美和町下畑"},
{"zip_code":"7401219","kana_pref":"ﾔﾏｸﾞﾁｹﾝ","kana_city":"ｲﾜｸﾆｼ","kana_address":"ﾐﾜﾏﾁｾﾄﾉｳﾁ","pref":"山口県","city":"岩国市","address":"美和町瀬戸ノ内"},
{"zip_code":"7401222","kana_pref":"ﾔﾏｸﾞﾁｹﾝ","kana_city":"ｲﾜｸﾆｼ","kana_address":"ﾐﾜﾏﾁﾀﾉｸﾁ","pref":"山口県","city":"岩国市","address":"美和町田ノ口"},
{"zip_code":"7401218","kana_pref":"ﾔﾏｸﾞﾁｹﾝ","kana_city":"ｲﾜｸﾆｼ","kana_address":"ﾐﾜﾏﾁﾅｶｶﾞｳﾁ","pref":"山口県","city":"岩国市","address":"美和町中垣内"},
{"zip_code":"7401215","kana_pref":"ﾔﾏｸﾞﾁｹﾝ","kana_city":"ｲﾜｸﾆｼ","kana_address":"ﾐﾜﾏﾁﾅｶﾞﾀﾆ","pref":"山口県","city":"岩国市","address":"美和町長谷"},
{"zip_code":"7401223","kana_pref":"ﾔﾏｸﾞﾁｹﾝ","kana_city":"ｲﾜｸﾆｼ","kana_address":"ﾐﾜﾏﾁﾅﾒﾗ","pref":"山口県","city":"岩国市","address":"美和町滑"},
{"zip_code":"7401232","kana_pref":"ﾔﾏｸﾞﾁｹﾝ","kana_city":"ｲﾜｸﾆｼ","kana_address":"ﾐﾜﾏﾁﾆｼﾊﾞﾀ","pref":"山口県","city":"岩国市","address":"美和町西畑"},
{"zip_code":"7401216","kana_pref":"ﾔﾏｸﾞﾁｹﾝ","kana_city":"ｲﾜｸﾆｼ","kana_address":"ﾐﾜﾏﾁﾋﾅﾀ","pref":"山口県","city":"岩国市","address":"美和町日宛"},
{"zip_code":"7401214","kana_pref":"ﾔﾏｸﾞﾁｹﾝ","kana_city":"ｲﾜｸﾆｼ","kana_address":"ﾐﾜﾏﾁﾕﾘﾀﾆ","pref":"山口県","city":"岩国市","address":"美和町百合谷"},
{"zip_code":"7400021","kana_pref":"ﾔﾏｸﾞﾁｹﾝ","kana_city":"ｲﾜｸﾆｼ","kana_address":"ﾑﾛﾉｷﾏﾁ","pref":"山口県","city":"岩国市","address":"室の木町"},
{"zip_code":"7400012","kana_pref":"ﾔﾏｸﾞﾁｹﾝ","kana_city":"ｲﾜｸﾆｼ","kana_address":"ﾓﾄﾏﾁ","pref":"山口県","city":"岩国市","address":"元町"},
{"zip_code":"7400031","kana_pref":"ﾔﾏｸﾞﾁｹﾝ","kana_city":"ｲﾜｸﾆｼ","kana_address":"ﾓﾝｾﾞﾝﾏﾁ","pref":"山口県","city":"岩国市","address":"門前町"},
{"zip_code":"7400022","kana_pref":"ﾔﾏｸﾞﾁｹﾝ","kana_city":"ｲﾜｸﾆｼ","kana_address":"ﾔﾏﾃﾏﾁ","pref":"山口県","city":"岩国市","address":"山手町"},
{"zip_code":"7401455","kana_pref":"ﾔﾏｸﾞﾁｹﾝ","kana_city":"ｲﾜｸﾆｼ","kana_address":"ﾕｳﾏﾁｷﾀ","pref":"山口県","city":"岩国市","address":"由宇町北"},
{"zip_code":"7401432","kana_pref":"ﾔﾏｸﾞﾁｹﾝ","kana_city":"ｲﾜｸﾆｼ","kana_address":"ﾕｳﾏﾁｼﾝﾄｳ","pref":"山口県","city":"岩国市","address":"由宇町神東"},
{"zip_code":"7401441","kana_pref":"ﾔﾏｸﾞﾁｹﾝ","kana_city":"ｲﾜｸﾆｼ","kana_address":"ﾕｳﾏﾁﾁﾄﾞﾘｶﾞｵｶ","pref":"山口県","city":"岩国市","address":"由宇町千鳥ケ丘"},
{"zip_code":"7401428","kana_pref":"ﾔﾏｸﾞﾁｹﾝ","kana_city":"ｲﾜｸﾆｼ","kana_address":"ﾕｳﾏﾁﾁｭｳｵｳ","pref":"山口県","city":"岩国市","address":"由宇町中央"},
{"zip_code":"7401454","kana_pref":"ﾔﾏｸﾞﾁｹﾝ","kana_city":"ｲﾜｸﾆｼ","kana_address":"ﾕｳﾏﾁﾆｼ","pref":"山口県","city":"岩国市","address":"由宇町西"},
{"zip_code":"7401424","kana_pref":"ﾔﾏｸﾞﾁｹﾝ","kana_city":"ｲﾜｸﾆｼ","kana_address":"ﾕｳﾏﾁﾐﾅﾄ","pref":"山口県","city":"岩国市","address":"由宇町港"},
{"zip_code":"7401451","kana_pref":"ﾔﾏｸﾞﾁｹﾝ","kana_city":"ｲﾜｸﾆｼ","kana_address":"ﾕｳﾏﾁﾐﾅﾐ","pref":"山口県","city":"岩国市","address":"由宇町南"},
{"zip_code":"7401425","kana_pref":"ﾔﾏｸﾞﾁｹﾝ","kana_city":"ｲﾜｸﾆｼ","kana_address":"ﾕｳﾏﾁﾐﾅﾐｵｷ","pref":"山口県","city":"岩国市","address":"由宇町南沖"},
{"zip_code":"7401426","kana_pref":"ﾔﾏｸﾞﾁｹﾝ","kana_city":"ｲﾜｸﾆｼ","kana_address":"ﾕｳﾏﾁﾕｳｻｷ","pref":"山口県","city":"岩国市","address":"由宇町由宇崎"},
{"zip_code":"7401431","kana_pref":"ﾔﾏｸﾞﾁｹﾝ","kana_city":"ｲﾜｸﾆｼ","kana_address":"ﾕｳﾏﾁ","pref":"山口県","city":"岩国市","address":"由宇町"},
{"zip_code":"7401405","kana_pref":"ﾔﾏｸﾞﾁｹﾝ","kana_city":"ｲﾜｸﾆｼ","kana_address":"ﾕｳﾏﾁ","pref":"山口県","city":"岩国市","address":"由宇町"},
{"zip_code":"7401413","kana_pref":"ﾔﾏｸﾞﾁｹﾝ","kana_city":"ｲﾜｸﾆｼ","kana_address":"ﾕｳﾏﾁ","pref":"山口県","city":"岩国市","address":"由宇町"},
{"zip_code":"7401406","kana_pref":"ﾔﾏｸﾞﾁｹﾝ","kana_city":"ｲﾜｸﾆｼ","kana_address":"ﾕｳﾏﾁ","pref":"山口県","city":"岩国市","address":"由宇町"},
{"zip_code":"7401411","kana_pref":"ﾔﾏｸﾞﾁｹﾝ","kana_city":"ｲﾜｸﾆｼ","kana_address":"ﾕｳﾏﾁ","pref":"山口県","city":"岩国市","address":"由宇町"},
{"zip_code":"7401402","kana_pref":"ﾔﾏｸﾞﾁｹﾝ","kana_city":"ｲﾜｸﾆｼ","kana_address":"ﾕｳﾏﾁ","pref":"山口県","city":"岩国市","address":"由宇町"},
{"zip_code":"7401452","kana_pref":"ﾔﾏｸﾞﾁｹﾝ","kana_city":"ｲﾜｸﾆｼ","kana_address":"ﾕｳﾏﾁ","pref":"山口県","city":"岩国市","address":"由宇町"},
{"zip_code":"7401401","kana_pref":"ﾔﾏｸﾞﾁｹﾝ","kana_city":"ｲﾜｸﾆｼ","kana_address":"ﾕｳﾏﾁ","pref":"山口県","city":"岩国市","address":"由宇町"},
{"zip_code":"7401403","kana_pref":"ﾔﾏｸﾞﾁｹﾝ","kana_city":"ｲﾜｸﾆｼ","kana_address":"ﾕｳﾏﾁ","pref":"山口県","city":"岩国市","address":"由宇町"},
{"zip_code":"7401412","kana_pref":"ﾔﾏｸﾞﾁｹﾝ","kana_city":"ｲﾜｸﾆｼ","kana_address":"ﾕｳﾏﾁ","pref":"山口県","city":"岩国市","address":"由宇町"},
{"zip_code":"7401404","kana_pref":"ﾔﾏｸﾞﾁｹﾝ","kana_city":"ｲﾜｸﾆｼ","kana_address":"ﾕｳﾏﾁ","pref":"山口県","city":"岩国市","address":"由宇町"},
{"zip_code":"7401407","kana_pref":"ﾔﾏｸﾞﾁｹﾝ","kana_city":"ｲﾜｸﾆｼ","kana_address":"ﾕｳﾏﾁ","pref":"山口県","city":"岩国市","address":"由宇町"},
{"zip_code":"7401488","kana_pref":"ﾔﾏｸﾞﾁｹﾝ","kana_city":"ｲﾜｸﾆｼ","kana_address":"ﾕｳﾏﾁ","pref":"山口県","city":"岩国市","address":"由宇町"},
{"zip_code":"7400301","kana_pref":"ﾔﾏｸﾞﾁｹﾝ","kana_city":"ｲﾜｸﾆｼ","kana_address":"ﾕｶﾊﾞ","pref":"山口県","city":"岩国市","address":"行波"},
{"zip_code":"7400316","kana_pref":"ﾔﾏｸﾞﾁｹﾝ","kana_city":"ｲﾜｸﾆｼ","kana_address":"ﾕｷﾏｻ","pref":"山口県","city":"岩国市","address":"行正"},
{"zip_code":"7400000","kana_pref":"ﾔﾏｸﾞﾁｹﾝ","kana_city":"ｸｶﾞｸﾞﾝﾜｷﾁｮｳ","kana_address":"","pref":"山口県","city":"玖珂郡和木町","address":""},
{"zip_code":"7400063","kana_pref":"ﾔﾏｸﾞﾁｹﾝ","kana_city":"ｸｶﾞｸﾞﾝﾜｷﾁｮｳ","kana_address":"ｾｷｶﾞﾊﾏ","pref":"山口県","city":"玖珂郡和木町","address":"関ケ浜"},
{"zip_code":"7400062","kana_pref":"ﾔﾏｸﾞﾁｹﾝ","kana_city":"ｸｶﾞｸﾞﾝﾜｷﾁｮｳ","kana_address":"ｾﾀ","pref":"山口県","city":"玖珂郡和木町","address":"瀬田"},
{"zip_code":"7400061","kana_pref":"ﾔﾏｸﾞﾁｹﾝ","kana_city":"ｸｶﾞｸﾞﾝﾜｷﾁｮｳ","kana_address":"ﾜｷ","pref":"山口県","city":"玖珂郡和木町","address":"和木"}]}