{"zip_code":[
{"zip_code":"7410094","kana_pref":"ﾔﾏｸﾞﾁｹﾝ","kana_city":"ｲﾜｸﾆｼ","kana_address":"ｱｼﾞﾅ","pref":"山口県","city":"岩国市","address":"阿品"},
{"zip_code":"7410062","kana_pref":"ﾔﾏｸﾞﾁｹﾝ","kana_city":"ｲﾜｸﾆｼ","kana_address":"ｲﾜｸﾆ","pref":"山口県","city":"岩国市","address":"岩国"},
{"zip_code":"7410071","kana_pref":"ﾔﾏｸﾞﾁｹﾝ","kana_city":"ｲﾜｸﾆｼ","kana_address":"ｳｼﾉﾔﾏﾁ","pref":"山口県","city":"岩国市","address":"牛野谷町"},
{"zip_code":"7410084","kana_pref":"ﾔﾏｸﾞﾁｹﾝ","kana_city":"ｲﾜｸﾆｼ","kana_address":"ｵｵﾀﾆ","pref":"山口県","city":"岩国市","address":"大谷"},
{"zip_code":"7410091","kana_pref":"ﾔﾏｸﾞﾁｹﾝ","kana_city":"ｲﾜｸﾆｼ","kana_address":"ｵｾﾞ","pref":"山口県","city":"岩国市","address":"小瀬"},
{"zip_code":"7410075","kana_pref":"ﾔﾏｸﾞﾁｹﾝ","kana_city":"ｲﾜｸﾆｼ","kana_address":"ｶﾉｳｷﾞ","pref":"山口県","city":"岩国市","address":"叶木"},
{"zip_code":"7410082","kana_pref":"ﾔﾏｸﾞﾁｹﾝ","kana_city":"ｲﾜｸﾆｼ","kana_address":"ｶﾜﾆｼ","pref":"山口県","city":"岩国市","address":"川西"},
{"zip_code":"7410063","kana_pref":"ﾔﾏｸﾞﾁｹﾝ","kana_city":"ｲﾜｸﾆｼ","kana_address":"ｾｷﾄﾞ","pref":"山口県","city":"岩国市","address":"関戸"},
{"zip_code":"7410092","kana_pref":"ﾔﾏｸﾞﾁｹﾝ","kana_city":"ｲﾜｸﾆｼ","kana_address":"ﾀﾀﾞ","pref":"山口県","city":"岩国市","address":"多田"},
{"zip_code":"7410093","kana_pref":"ﾔﾏｸﾞﾁｹﾝ","kana_city":"ｲﾜｸﾆｼ","kana_address":"ﾀﾜﾗ","pref":"山口県","city":"岩国市","address":"田原"},
{"zip_code":"7410061","kana_pref":"ﾔﾏｸﾞﾁｹﾝ","kana_city":"ｲﾜｸﾆｼ","kana_address":"ﾆｼﾐ","pref":"山口県","city":"岩国市","address":"錦見"},
{"zip_code":"7410073","kana_pref":"ﾔﾏｸﾞﾁｹﾝ","kana_city":"ｲﾜｸﾆｼ","kana_address":"ﾊｼﾗﾉ","pref":"山口県","city":"岩国市","address":"柱野"},
{"zip_code":"7410072","kana_pref":"ﾔﾏｸﾞﾁｹﾝ","kana_city":"ｲﾜｸﾆｼ","kana_address":"ﾋﾗﾀ","pref":"山口県","city":"岩国市","address":"平田"},
{"zip_code":"7410083","kana_pref":"ﾔﾏｸﾞﾁｹﾝ","kana_city":"ｲﾜｸﾆｼ","kana_address":"ﾐｼｮｳ","pref":"山口県","city":"岩国市","address":"御庄"},
{"zip_code":"7410085","kana_pref":"ﾔﾏｸﾞﾁｹﾝ","kana_city":"ｲﾜｸﾆｼ","kana_address":"ﾓﾁｸﾆ","pref":"山口県","city":"岩国市","address":"持国"},
{"zip_code":"7410081","kana_pref":"ﾔﾏｸﾞﾁｹﾝ","kana_city":"ｲﾜｸﾆｼ","kana_address":"ﾖｺﾔﾏ","pref":"山口県","city":"岩国市","address":"横山"},
{"zip_code":"7410074","kana_pref":"ﾔﾏｸﾞﾁｹﾝ","kana_city":"ｲﾜｸﾆｼ","kana_address":"ﾛｸﾛｼ","pref":"山口県","city":"岩国市","address":"六呂師"}]}