{"zip_code":[
{"zip_code":"7420332","kana_pref":"ﾔﾏｸﾞﾁｹﾝ","kana_city":"ｲﾜｸﾆｼ","kana_address":"ｸｶﾞﾏﾁ","pref":"山口県","city":"岩国市","address":"玖珂町"},
{"zip_code":"7420338","kana_pref":"ﾔﾏｸﾞﾁｹﾝ","kana_city":"ｲﾜｸﾆｼ","kana_address":"ｸｶﾞﾏﾁ","pref":"山口県","city":"岩国市","address":"玖珂町"},
{"zip_code":"7420321","kana_pref":"ﾔﾏｸﾞﾁｹﾝ","kana_city":"ｲﾜｸﾆｼ","kana_address":"ｸｶﾞﾏﾁ","pref":"山口県","city":"岩国市","address":"玖珂町"},
{"zip_code":"7420334","kana_pref":"ﾔﾏｸﾞﾁｹﾝ","kana_city":"ｲﾜｸﾆｼ","kana_address":"ｸｶﾞﾏﾁ","pref":"山口県","city":"岩国市","address":"玖珂町"},
{"zip_code":"7420322","kana_pref":"ﾔﾏｸﾞﾁｹﾝ","kana_city":"ｲﾜｸﾆｼ","kana_address":"ｸｶﾞﾏﾁ","pref":"山口県","city":"岩国市","address":"玖珂町"},
{"zip_code":"7420324","kana_pref":"ﾔﾏｸﾞﾁｹﾝ","kana_city":"ｲﾜｸﾆｼ","kana_address":"ｸｶﾞﾏﾁ","pref":"山口県","city":"岩国市","address":"玖珂町"},
{"zip_code":"7420342","kana_pref":"ﾔﾏｸﾞﾁｹﾝ","kana_city":"ｲﾜｸﾆｼ","kana_address":"ｸｶﾞﾏﾁ","pref":"山口県","city":"岩国市","address":"玖珂町"},
{"zip_code":"7420312","kana_pref":"ﾔﾏｸﾞﾁｹﾝ","kana_city":"ｲﾜｸﾆｼ","kana_address":"ｸｶﾞﾏﾁ","pref":"山口県","city":"岩国市","address":"玖珂町"},
{"zip_code":"7420311","kana_pref":"ﾔﾏｸﾞﾁｹﾝ","kana_city":"ｲﾜｸﾆｼ","kana_address":"ｸｶﾞﾏﾁ","pref":"山口県","city":"岩国市","address":"玖珂町"},
{"zip_code":"7420337","kana_pref":"ﾔﾏｸﾞﾁｹﾝ","kana_city":"ｲﾜｸﾆｼ","kana_address":"ｸｶﾞﾏﾁ","pref":"山口県","city":"岩国市","address":"玖珂町"},
{"zip_code":"7420331","kana_pref":"ﾔﾏｸﾞﾁｹﾝ","kana_city":"ｲﾜｸﾆｼ","kana_address":"ｸｶﾞﾏﾁ","pref":"山口県","city":"岩国市","address":"玖珂町"},
{"zip_code":"7420313","kana_pref":"ﾔﾏｸﾞﾁｹﾝ","kana_city":"ｲﾜｸﾆｼ","kana_address":"ｸｶﾞﾏﾁ","pref":"山口県","city":"岩国市","address":"玖珂町"},
{"zip_code":"7420336","kana_pref":"ﾔﾏｸﾞﾁｹﾝ","kana_city":"ｲﾜｸﾆｼ","kana_address":"ｸｶﾞﾏﾁ","pref":"山口県","city":"岩国市","address":"玖珂町"},
{"zip_code":"7420335","kana_pref":"ﾔﾏｸﾞﾁｹﾝ","kana_city":"ｲﾜｸﾆｼ","kana_address":"ｸｶﾞﾏﾁ","pref":"山口県","city":"岩国市","address":"玖珂町"},
{"zip_code":"7420315","kana_pref":"ﾔﾏｸﾞﾁｹﾝ","kana_city":"ｲﾜｸﾆｼ","kana_address":"ｸｶﾞﾏﾁ","pref":"山口県","city":"岩国市","address":"玖珂町"},
{"zip_code":"7420333","kana_pref":"ﾔﾏｸﾞﾁｹﾝ","kana_city":"ｲﾜｸﾆｼ","kana_address":"ｸｶﾞﾏﾁ","pref":"山口県","city":"岩国市","address":"玖珂町"},
{"zip_code":"7420326","kana_pref":"ﾔﾏｸﾞﾁｹﾝ","kana_city":"ｲﾜｸﾆｼ","kana_address":"ｸｶﾞﾏﾁ","pref":"山口県","city":"岩国市","address":"玖珂町"},
{"zip_code":"7420314","kana_pref":"ﾔﾏｸﾞﾁｹﾝ","kana_city":"ｲﾜｸﾆｼ","kana_address":"ｸｶﾞﾏﾁ","pref":"山口県","city":"岩国市","address":"玖珂町"},
{"zip_code":"7420343","kana_pref":"ﾔﾏｸﾞﾁｹﾝ","kana_city":"ｲﾜｸﾆｼ","kana_address":"ｸｶﾞﾏﾁ","pref":"山口県","city":"岩国市","address":"玖珂町"},
{"zip_code":"7420344","kana_pref":"ﾔﾏｸﾞﾁｹﾝ","kana_city":"ｲﾜｸﾆｼ","kana_address":"ｸｶﾞﾏﾁ","pref":"山口県","city":"岩国市","address":"玖珂町"},
{"zip_code":"7420325","kana_pref":"ﾔﾏｸﾞﾁｹﾝ","kana_city":"ｲﾜｸﾆｼ","kana_address":"ｸｶﾞﾏﾁ","pref":"山口県","city":"岩国市","address":"玖珂町"},
{"zip_code":"7420323","kana_pref":"ﾔﾏｸﾞﾁｹﾝ","kana_city":"ｲﾜｸﾆｼ","kana_address":"ｸｶﾞﾏﾁ","pref":"山口県","city":"岩国市","address":"玖珂町"},
{"zip_code":"7420341","kana_pref":"ﾔﾏｸﾞﾁｹﾝ","kana_city":"ｲﾜｸﾆｼ","kana_address":"ｸｶﾞﾏﾁ","pref":"山口県","city":"岩国市","address":"玖珂町"},
{"zip_code":"7420411","kana_pref":"ﾔﾏｸﾞﾁｹﾝ","kana_city":"ｲﾜｸﾆｼ","kana_address":"ｼｭｳﾄｳﾏﾁｱｹﾐﾀﾞﾆ","pref":"山口県","city":"岩国市","address":"周東町明見谷"},
{"zip_code":"7420422","kana_pref":"ﾔﾏｸﾞﾁｹﾝ","kana_city":"ｲﾜｸﾆｼ","kana_address":"ｼｭｳﾄｳﾏﾁｵｿｺﾞｴ","pref":"山口県","city":"岩国市","address":"周東町獺越"},
{"zip_code":"7420413","kana_pref":"ﾔﾏｸﾞﾁｹﾝ","kana_city":"ｲﾜｸﾆｼ","kana_address":"ｼｭｳﾄｳﾏﾁｶﾐｸﾊﾞﾗ","pref":"山口県","city":"岩国市","address":"周東町上久原"},
{"zip_code":"7420426","kana_pref":"ﾔﾏｸﾞﾁｹﾝ","kana_city":"ｲﾜｸﾆｼ","kana_address":"ｼｭｳﾄｳﾏﾁｶﾐｽﾄﾞｵﾘ","pref":"山口県","city":"岩国市","address":"周東町上須通"},
{"zip_code":"7420412","kana_pref":"ﾔﾏｸﾞﾁｹﾝ","kana_city":"ｲﾜｸﾆｼ","kana_address":"ｼｭｳﾄｳﾏﾁｶﾜｶﾐ","pref":"山口県","city":"岩国市","address":"周東町川上"},
{"zip_code":"7420424","kana_pref":"ﾔﾏｸﾞﾁｹﾝ","kana_city":"ｲﾜｸﾆｼ","kana_address":"ｼｭｳﾄｳﾏﾁｻｽｶﾞﾜ","pref":"山口県","city":"岩国市","address":"周東町差川"},
{"zip_code":"7420421","kana_pref":"ﾔﾏｸﾞﾁｹﾝ","kana_city":"ｲﾜｸﾆｼ","kana_address":"ｼｭｳﾄｳﾏﾁｻﾝｾﾞｶﾞﾜ","pref":"山口県","city":"岩国市","address":"周東町三瀬川"},
{"zip_code":"7420417","kana_pref":"ﾔﾏｸﾞﾁｹﾝ","kana_city":"ｲﾜｸﾆｼ","kana_address":"ｼｭｳﾄｳﾏﾁｼﾓｸﾊﾞﾗ","pref":"山口県","city":"岩国市","address":"周東町下久原"},
{"zip_code":"7420423","kana_pref":"ﾔﾏｸﾞﾁｹﾝ","kana_city":"ｲﾜｸﾆｼ","kana_address":"ｼｭｳﾄｳﾏﾁｼﾓｽﾄﾞｵﾘ","pref":"山口県","city":"岩国市","address":"周東町下須通"},
{"zip_code":"7420301","kana_pref":"ﾔﾏｸﾞﾁｹﾝ","kana_city":"ｲﾜｸﾆｼ","kana_address":"ｼｭｳﾄｳﾏﾁｿｵ","pref":"山口県","city":"岩国市","address":"周東町祖生"},
{"zip_code":"7420414","kana_pref":"ﾔﾏｸﾞﾁｹﾝ","kana_city":"ｲﾜｸﾆｼ","kana_address":"ｼｭｳﾄｳﾏﾁﾀｼﾞﾘ","pref":"山口県","city":"岩国市","address":"周東町田尻"},
{"zip_code":"7420415","kana_pref":"ﾔﾏｸﾞﾁｹﾝ","kana_city":"ｲﾜｸﾆｼ","kana_address":"ｼｭｳﾄｳﾏﾁﾅｶﾔﾏ","pref":"山口県","city":"岩国市","address":"周東町中山"},
{"zip_code":"7420425","kana_pref":"ﾔﾏｸﾞﾁｹﾝ","kana_city":"ｲﾜｸﾆｼ","kana_address":"ｼｭｳﾄｳﾏﾁﾆｼﾅｶﾞﾉ","pref":"山口県","city":"岩国市","address":"周東町西長野"},
{"zip_code":"7420427","kana_pref":"ﾔﾏｸﾞﾁｹﾝ","kana_city":"ｲﾜｸﾆｼ","kana_address":"ｼｭｳﾄｳﾏﾁﾋﾖｼﾞ","pref":"山口県","city":"岩国市","address":"周東町樋余地"},
{"zip_code":"7420416","kana_pref":"ﾔﾏｸﾞﾁｹﾝ","kana_city":"ｲﾜｸﾆｼ","kana_address":"ｼｭｳﾄｳﾏﾁﾖｳﾀﾞ","pref":"山口県","city":"岩国市","address":"周東町用田"},
{"zip_code":"7420000","kana_pref":"ﾔﾏｸﾞﾁｹﾝ","kana_city":"ﾔﾅｲｼ","kana_address":"","pref":"山口県","city":"柳井市","address":""},
{"zip_code":"7421351","kana_pref":"ﾔﾏｸﾞﾁｹﾝ","kana_city":"ﾔﾅｲｼ","kana_address":"ｱｻﾋｶﾞｵｶ","pref":"山口県","city":"柳井市","address":"旭ケ丘"},
{"zip_code":"7421353","kana_pref":"ﾔﾏｸﾞﾁｹﾝ","kana_city":"ﾔﾅｲｼ","kana_address":"ｱﾂｷ","pref":"山口県","city":"柳井市","address":"阿月"},
{"zip_code":"7420201","kana_pref":"ﾔﾏｸﾞﾁｹﾝ","kana_city":"ﾔﾅｲｼ","kana_address":"ｲｶﾁ","pref":"山口県","city":"柳井市","address":"伊陸"},
{"zip_code":"7421352","kana_pref":"ﾔﾏｸﾞﾁｹﾝ","kana_city":"ﾔﾅｲｼ","kana_address":"ｲﾎﾉｼｮｳ","pref":"山口県","city":"柳井市","address":"伊保庄"},
{"zip_code":"7420036","kana_pref":"ﾔﾏｸﾞﾁｹﾝ","kana_city":"ﾔﾅｲｼ","kana_address":"ｴｷﾅﾝ","pref":"山口県","city":"柳井市","address":"駅南"},
{"zip_code":"7420003","kana_pref":"ﾔﾏｸﾞﾁｹﾝ","kana_city":"ﾔﾅｲｼ","kana_address":"ｶﾀﾉﾆｼ","pref":"山口県","city":"柳井市","address":"片野西"},
{"zip_code":"7420012","kana_pref":"ﾔﾏｸﾞﾁｹﾝ","kana_city":"ﾔﾅｲｼ","kana_address":"ｷﾀﾊﾏ","pref":"山口県","city":"柳井市","address":"北浜"},
{"zip_code":"7420032","kana_pref":"ﾔﾏｸﾞﾁｹﾝ","kana_city":"ﾔﾅｲｼ","kana_address":"ｺｶﾞｲｻｸ","pref":"山口県","city":"柳井市","address":"古開作"},
{"zip_code":"7420009","kana_pref":"ﾔﾏｸﾞﾁｹﾝ","kana_city":"ﾔﾅｲｼ","kana_address":"ｼﾝｲﾁ","pref":"山口県","city":"柳井市","address":"新市"},
{"zip_code":"7420011","kana_pref":"ﾔﾏｸﾞﾁｹﾝ","kana_city":"ﾔﾅｲｼ","kana_address":"ｼﾝｲﾁｵｷ","pref":"山口県","city":"柳井市","address":"新市沖"},
{"zip_code":"7420008","kana_pref":"ﾔﾏｸﾞﾁｹﾝ","kana_city":"ﾔﾅｲｼ","kana_address":"ｼﾝｲﾁｷﾀ","pref":"山口県","city":"柳井市","address":"新市北"},
{"zip_code":"7420010","kana_pref":"ﾔﾏｸﾞﾁｹﾝ","kana_city":"ﾔﾅｲｼ","kana_address":"ｼﾝｲﾁﾐﾅﾐ","pref":"山口県","city":"柳井市","address":"新市南"},
{"zip_code":"7420033","kana_pref":"ﾔﾏｸﾞﾁｹﾝ","kana_city":"ﾔﾅｲｼ","kana_address":"ｼﾝｼﾞｮｳ","pref":"山口県","city":"柳井市","address":"新庄"},
{"zip_code":"7420006","kana_pref":"ﾔﾏｸﾞﾁｹﾝ","kana_city":"ﾔﾅｲｼ","kana_address":"ｼﾝﾃﾝﾁ","pref":"山口県","city":"柳井市","address":"新天地"},
{"zip_code":"7420035","kana_pref":"ﾔﾏｸﾞﾁｹﾝ","kana_city":"ﾔﾅｲｼ","kana_address":"ﾁｭｳｵｳ","pref":"山口県","city":"柳井市","address":"中央"},
{"zip_code":"7420005","kana_pref":"ﾔﾏｸﾞﾁｹﾝ","kana_city":"ﾔﾅｲｼ","kana_address":"ﾃﾝｼﾞﾝ","pref":"山口県","city":"柳井市","address":"天神"},
{"zip_code":"7420004","kana_pref":"ﾔﾏｸﾞﾁｹﾝ","kana_city":"ﾔﾅｲｼ","kana_address":"ﾄﾞﾃﾏﾁ","pref":"山口県","city":"柳井市","address":"土手町"},
{"zip_code":"7420024","kana_pref":"ﾔﾏｸﾞﾁｹﾝ","kana_city":"ﾔﾅｲｼ","kana_address":"ﾆｭｰﾀｳﾝﾐﾅﾐﾏﾁ","pref":"山口県","city":"柳井市","address":"ニュータウン南町"},
{"zip_code":"7420007","kana_pref":"ﾔﾏｸﾞﾁｹﾝ","kana_city":"ﾔﾅｲｼ","kana_address":"ﾋｶﾞｼﾄﾞﾃ","pref":"山口県","city":"柳井市","address":"東土手"},
{"zip_code":"7420111","kana_pref":"ﾔﾏｸﾞﾁｹﾝ","kana_city":"ﾔﾅｲｼ","kana_address":"ﾋﾂﾞﾐ","pref":"山口県","city":"柳井市","address":"日積"},
{"zip_code":"7420001","kana_pref":"ﾔﾏｸﾞﾁｹﾝ","kana_city":"ﾔﾅｲｼ","kana_address":"ﾋﾒﾀﾞ","pref":"山口県","city":"柳井市","address":"姫田"},
{"zip_code":"7420041","kana_pref":"ﾔﾏｸﾞﾁｹﾝ","kana_city":"ﾔﾅｲｼ","kana_address":"ﾍｲｸﾞﾝ","pref":"山口県","city":"柳井市","address":"平郡"},
{"zip_code":"7420023","kana_pref":"ﾔﾏｸﾞﾁｹﾝ","kana_city":"ﾔﾅｲｼ","kana_address":"ﾐﾅﾐﾊﾏ","pref":"山口県","city":"柳井市","address":"南浜"},
{"zip_code":"7420031","kana_pref":"ﾔﾏｸﾞﾁｹﾝ","kana_city":"ﾔﾅｲｼ","kana_address":"ﾐﾅﾐﾏﾁ","pref":"山口県","city":"柳井市","address":"南町"},
{"zip_code":"7420021","kana_pref":"ﾔﾏｸﾞﾁｹﾝ","kana_city":"ﾔﾅｲｼ","kana_address":"ﾔﾅｲ","pref":"山口県","city":"柳井市","address":"柳井"},
{"zip_code":"7420022","kana_pref":"ﾔﾏｸﾞﾁｹﾝ","kana_city":"ﾔﾅｲｼ","kana_address":"ﾔﾅｲﾂ","pref":"山口県","city":"柳井市","address":"柳井津"},
{"zip_code":"7420002","kana_pref":"ﾔﾏｸﾞﾁｹﾝ","kana_city":"ﾔﾅｲｼ","kana_address":"ﾔﾏﾈ","pref":"山口県","city":"柳井市","address":"山根"},
{"zip_code":"7420034","kana_pref":"ﾔﾏｸﾞﾁｹﾝ","kana_city":"ﾔﾅｲｼ","kana_address":"ﾖﾀ","pref":"山口県","city":"柳井市","address":"余田"},
{"zip_code":"7422100","kana_pref":"ﾔﾏｸﾞﾁｹﾝ","kana_city":"ｵｵｼﾏｸﾞﾝｽｵｳｵｵｼﾏﾁｮｳ","kana_address":"","pref":"山口県","city":"大島郡周防大島町","address":""},
{"zip_code":"7422807","kana_pref":"ﾔﾏｸﾞﾁｹﾝ","kana_city":"ｵｵｼﾏｸﾞﾝｽｵｳｵｵｼﾏﾁｮｳ","kana_address":"ｱｷ","pref":"山口県","city":"大島郡周防大島町","address":"秋"},
{"zip_code":"7422712","kana_pref":"ﾔﾏｸﾞﾁｹﾝ","kana_city":"ｵｵｼﾏｸﾞﾝｽｵｳｵｵｼﾏﾁｮｳ","kana_address":"ｲｽﾞｲ","pref":"山口県","city":"大島郡周防大島町","address":"出井"},
{"zip_code":"7422601","kana_pref":"ﾔﾏｸﾞﾁｹﾝ","kana_city":"ｵｵｼﾏｸﾞﾝｽｵｳｵｵｼﾏﾁｮｳ","kana_address":"ｲﾎﾀ","pref":"山口県","city":"大島郡周防大島町","address":"伊保田"},
{"zip_code":"7422601","kana_pref":"ﾔﾏｸﾞﾁｹﾝ","kana_city":"ｵｵｼﾏｸﾞﾝｽｵｳｵｵｼﾏﾁｮｳ","kana_address":"ｲﾎﾀ","pref":"山口県","city":"大島郡周防大島町","address":"伊保田"},
{"zip_code":"7422601","kana_pref":"ﾔﾏｸﾞﾁｹﾝ","kana_city":"ｵｵｼﾏｸﾞﾝｽｵｳｵｵｼﾏﾁｮｳ","kana_address":"ｲﾎﾀ","pref":"山口県","city":"大島郡周防大島町","address":"伊保田"},
{"zip_code":"7422601","kana_pref":"ﾔﾏｸﾞﾁｹﾝ","kana_city":"ｵｵｼﾏｸﾞﾝｽｵｳｵｵｼﾏﾁｮｳ","kana_address":"ｲﾎﾀ","pref":"山口県","city":"大島郡周防大島町","address":"伊保田"},
{"zip_code":"7422601","kana_pref":"ﾔﾏｸﾞﾁｹﾝ","kana_city":"ｵｵｼﾏｸﾞﾝｽｵｳｵｵｼﾏﾁｮｳ","kana_address":"ｲﾎﾀ","pref":"山口県","city":"大島郡周防大島町","address":"伊保田"},
{"zip_code":"7422801","kana_pref":"ﾔﾏｸﾞﾁｹﾝ","kana_city":"ｵｵｼﾏｸﾞﾝｽｵｳｵｵｼﾏﾁｮｳ","kana_address":"ｳｶｼﾏ","pref":"山口県","city":"大島郡周防大島町","address":"浮島"},
{"zip_code":"7422515","kana_pref":"ﾔﾏｸﾞﾁｹﾝ","kana_city":"ｵｵｼﾏｸﾞﾝｽｵｳｵｵｼﾏﾁｮｳ","kana_address":"ｳﾁﾉﾆｭｳ","pref":"山口県","city":"大島郡周防大島町","address":"内入"},
{"zip_code":"7422922","kana_pref":"ﾔﾏｸﾞﾁｹﾝ","kana_city":"ｵｵｼﾏｸﾞﾝｽｵｳｵｵｼﾏﾁｮｳ","kana_address":"ｵｷｶﾑﾛｼﾞﾏ","pref":"山口県","city":"大島郡周防大島町","address":"沖家室島"},
{"zip_code":"7422108","kana_pref":"ﾔﾏｸﾞﾁｹﾝ","kana_city":"ｵｵｼﾏｸﾞﾝｽｵｳｵｵｼﾏﾁｮｳ","kana_address":"ｶｻｻｼﾞﾏ","pref":"山口県","city":"大島郡周防大島町","address":"笠佐島"},
{"zip_code":"7422511","kana_pref":"ﾔﾏｸﾞﾁｹﾝ","kana_city":"ｵｵｼﾏｸﾞﾝｽｵｳｵｵｼﾏﾁｮｳ","kana_address":"ｶﾀｿﾞｴ","pref":"山口県","city":"大島郡周防大島町","address":"片添"},
{"zip_code":"7422711","kana_pref":"ﾔﾏｸﾞﾁｹﾝ","kana_city":"ｵｵｼﾏｸﾞﾝｽｵｳｵｵｼﾏﾁｮｳ","kana_address":"ｶﾎﾞｳ","pref":"山口県","city":"大島郡周防大島町","address":"家房"},
{"zip_code":"7422301","kana_pref":"ﾔﾏｸﾞﾁｹﾝ","kana_city":"ｵｵｼﾏｸﾞﾝｽｵｳｵｵｼﾏﾁｮｳ","kana_address":"ｸｶ","pref":"山口県","city":"大島郡周防大島町","address":"久賀"},
{"zip_code":"7422514","kana_pref":"ﾔﾏｸﾞﾁｹﾝ","kana_city":"ｵｵｼﾏｸﾞﾝｽｵｳｵｵｼﾏﾁｮｳ","kana_address":"ｺｳﾉｳﾗ","pref":"山口県","city":"大島郡周防大島町","address":"神浦"},
{"zip_code":"7422517","kana_pref":"ﾔﾏｸﾞﾁｹﾝ","kana_city":"ｵｵｼﾏｸﾞﾝｽｵｳｵｵｼﾏﾁｮｳ","kana_address":"ｺﾄﾞﾏﾘ","pref":"山口県","city":"大島郡周防大島町","address":"小泊"},
{"zip_code":"7422106","kana_pref":"ﾔﾏｸﾞﾁｹﾝ","kana_city":"ｵｵｼﾏｸﾞﾝｽｵｳｵｵｼﾏﾁｮｳ","kana_address":"ｺﾏﾂ","pref":"山口県","city":"大島郡周防大島町","address":"小松"},
{"zip_code":"7422105","kana_pref":"ﾔﾏｸﾞﾁｹﾝ","kana_city":"ｵｵｼﾏｸﾞﾝｽｵｳｵｵｼﾏﾁｮｳ","kana_address":"ｺﾏﾂｶｲｻｸ","pref":"山口県","city":"大島郡周防大島町","address":"小松開作"},
{"zip_code":"7422923","kana_pref":"ﾔﾏｸﾞﾁｹﾝ","kana_city":"ｵｵｼﾏｸﾞﾝｽｵｳｵｵｼﾏﾁｮｳ","kana_address":"ｼﾞｶﾑﾛ","pref":"山口県","city":"大島郡周防大島町","address":"地家室"},
{"zip_code":"7422923","kana_pref":"ﾔﾏｸﾞﾁｹﾝ","kana_city":"ｵｵｼﾏｸﾞﾝｽｵｳｵｵｼﾏﾁｮｳ","kana_address":"ｼﾞｶﾑﾛ","pref":"山口県","city":"大島郡周防大島町","address":"地家室"},
{"zip_code":"7422104","kana_pref":"ﾔﾏｸﾞﾁｹﾝ","kana_city":"ｵｵｼﾏｸﾞﾝｽｵｳｵｵｼﾏﾁｮｳ","kana_address":"ｼｻ","pref":"山口県","city":"大島郡周防大島町","address":"志佐"},
{"zip_code":"7422713","kana_pref":"ﾔﾏｸﾞﾁｹﾝ","kana_city":"ｵｵｼﾏｸﾞﾝｽｵｳｵｵｼﾏﾁｮｳ","kana_address":"ﾂﾉｳｷﾞ","pref":"山口県","city":"大島郡周防大島町","address":"津海木"},
{"zip_code":"7422803","kana_pref":"ﾔﾏｸﾞﾁｹﾝ","kana_city":"ｵｵｼﾏｸﾞﾝｽｵｳｵｵｼﾏﾁｮｳ","kana_address":"ﾄﾞｲ","pref":"山口県","city":"大島郡周防大島町","address":"土居"},
{"zip_code":"7422924","kana_pref":"ﾔﾏｸﾞﾁｹﾝ","kana_city":"ｵｵｼﾏｸﾞﾝｽｵｳｵｵｼﾏﾁｮｳ","kana_address":"ﾄﾉﾆｭｳ","pref":"山口県","city":"大島郡周防大島町","address":"外入"},
{"zip_code":"7422924","kana_pref":"ﾔﾏｸﾞﾁｹﾝ","kana_city":"ｵｵｼﾏｸﾞﾝｽｵｳｵｵｼﾏﾁｮｳ","kana_address":"ﾄﾉﾆｭｳ","pref":"山口県","city":"大島郡周防大島町","address":"外入"},
{"zip_code":"7422806","kana_pref":"ﾔﾏｸﾞﾁｹﾝ","kana_city":"ｵｵｼﾏｸﾞﾝｽｵｳｵｵｼﾏﾁｮｳ","kana_address":"ﾆｼｱｹﾞﾉｼｮｳ","pref":"山口県","city":"大島郡周防大島町","address":"西安下庄"},
{"zip_code":"7422921","kana_pref":"ﾔﾏｸﾞﾁｹﾝ","kana_city":"ｵｵｼﾏｸﾞﾝｽｵｳｵｵｼﾏﾁｮｳ","kana_address":"ﾆｼｶﾞﾀ","pref":"山口県","city":"大島郡周防大島町","address":"西方"},
{"zip_code":"7422921","kana_pref":"ﾔﾏｸﾞﾁｹﾝ","kana_city":"ｵｵｼﾏｸﾞﾝｽｵｳｵｵｼﾏﾁｮｳ","kana_address":"ﾆｼｶﾞﾀ","pref":"山口県","city":"大島郡周防大島町","address":"西方"},
{"zip_code":"7422921","kana_pref":"ﾔﾏｸﾞﾁｹﾝ","kana_city":"ｵｵｼﾏｸﾞﾝｽｵｳｵｵｼﾏﾁｮｳ","kana_address":"ﾆｼｶﾞﾀ","pref":"山口県","city":"大島郡周防大島町","address":"西方"},
{"zip_code":"7422921","kana_pref":"ﾔﾏｸﾞﾁｹﾝ","kana_city":"ｵｵｼﾏｸﾞﾝｽｵｳｵｵｼﾏﾁｮｳ","kana_address":"ﾆｼｶﾞﾀ","pref":"山口県","city":"大島郡周防大島町","address":"西方"},
{"zip_code":"7422921","kana_pref":"ﾔﾏｸﾞﾁｹﾝ","kana_city":"ｵｵｼﾏｸﾞﾝｽｵｳｵｵｼﾏﾁｮｳ","kana_address":"ﾆｼｶﾞﾀ","pref":"山口県","city":"大島郡周防大島町","address":"西方"},
{"zip_code":"7422921","kana_pref":"ﾔﾏｸﾞﾁｹﾝ","kana_city":"ｵｵｼﾏｸﾞﾝｽｵｳｵｵｼﾏﾁｮｳ","kana_address":"ﾆｼｶﾞﾀ","pref":"山口県","city":"大島郡周防大島町","address":"西方"},
{"zip_code":"7422101","kana_pref":"ﾔﾏｸﾞﾁｹﾝ","kana_city":"ｵｵｼﾏｸﾞﾝｽｵｳｵｵｼﾏﾁｮｳ","kana_address":"ﾆｼﾐｶﾞﾏ","pref":"山口県","city":"大島郡周防大島町","address":"西三蒲"},
{"zip_code":"7422103","kana_pref":"ﾔﾏｸﾞﾁｹﾝ","kana_city":"ｵｵｼﾏｸﾞﾝｽｵｳｵｵｼﾏﾁｮｳ","kana_address":"ﾆｼﾔｼﾛ","pref":"山口県","city":"大島郡周防大島町","address":"西屋代"},
{"zip_code":"7422805","kana_pref":"ﾔﾏｸﾞﾁｹﾝ","kana_city":"ｵｵｼﾏｸﾞﾝｽｵｳｵｵｼﾏﾁｮｳ","kana_address":"ﾋｶﾞｼｱｹﾞﾉｼｮｳ","pref":"山口県","city":"大島郡周防大島町","address":"東安下庄"},
{"zip_code":"7422102","kana_pref":"ﾔﾏｸﾞﾁｹﾝ","kana_city":"ｵｵｼﾏｸﾞﾝｽｵｳｵｵｼﾏﾁｮｳ","kana_address":"ﾋｶﾞｼﾐｶﾞﾏ","pref":"山口県","city":"大島郡周防大島町","address":"東三蒲"},
{"zip_code":"7422107","kana_pref":"ﾔﾏｸﾞﾁｹﾝ","kana_city":"ｵｵｼﾏｸﾞﾝｽｵｳｵｵｼﾏﾁｮｳ","kana_address":"ﾋｶﾞｼﾔｼﾛ","pref":"山口県","city":"大島郡周防大島町","address":"東屋代"},
{"zip_code":"7422804","kana_pref":"ﾔﾏｸﾞﾁｹﾝ","kana_city":"ｵｵｼﾏｸﾞﾝｽｵｳｵｵｼﾏﾁｮｳ","kana_address":"ﾋｸﾏ","pref":"山口県","city":"大島郡周防大島町","address":"日前"},
{"zip_code":"7422716","kana_pref":"ﾔﾏｸﾞﾁｹﾝ","kana_city":"ｵｵｼﾏｸﾞﾝｽｵｳｵｵｼﾏﾁｮｳ","kana_address":"ﾋﾐ","pref":"山口県","city":"大島郡周防大島町","address":"日見"},
{"zip_code":"7422512","kana_pref":"ﾔﾏｸﾞﾁｹﾝ","kana_city":"ｵｵｼﾏｸﾞﾝｽｵｳｵｵｼﾏﾁｮｳ","kana_address":"ﾋﾗﾉ","pref":"山口県","city":"大島郡周防大島町","address":"平野"},
{"zip_code":"7422714","kana_pref":"ﾔﾏｸﾞﾁｹﾝ","kana_city":"ｵｵｼﾏｸﾞﾝｽｵｳｵｵｼﾏﾁｮｳ","kana_address":"ﾍﾀ","pref":"山口県","city":"大島郡周防大島町","address":"戸田"},
{"zip_code":"7422302","kana_pref":"ﾔﾏｸﾞﾁｹﾝ","kana_city":"ｵｵｼﾏｸﾞﾝｽｵｳｵｵｼﾏﾁｮｳ","kana_address":"ﾑｸﾉ","pref":"山口県","city":"大島郡周防大島町","address":"椋野"},
{"zip_code":"7422513","kana_pref":"ﾔﾏｸﾞﾁｹﾝ","kana_city":"ｵｵｼﾏｸﾞﾝｽｵｳｵｵｼﾏﾁｮｳ","kana_address":"ﾓﾘ","pref":"山口県","city":"大島郡周防大島町","address":"森"},
{"zip_code":"7422602","kana_pref":"ﾔﾏｸﾞﾁｹﾝ","kana_city":"ｵｵｼﾏｸﾞﾝｽｵｳｵｵｼﾏﾁｮｳ","kana_address":"ﾕｳ","pref":"山口県","city":"大島郡周防大島町","address":"油宇"},
{"zip_code":"7422602","kana_pref":"ﾔﾏｸﾞﾁｹﾝ","kana_city":"ｵｵｼﾏｸﾞﾝｽｵｳｵｵｼﾏﾁｮｳ","kana_address":"ﾕｳ","pref":"山口県","city":"大島郡周防大島町","address":"油宇"},
{"zip_code":"7422602","kana_pref":"ﾔﾏｸﾞﾁｹﾝ","kana_city":"ｵｵｼﾏｸﾞﾝｽｵｳｵｵｼﾏﾁｮｳ","kana_address":"ﾕｳ","pref":"山口県","city":"大島郡周防大島町","address":"油宇"},
{"zip_code":"7422802","kana_pref":"ﾔﾏｸﾞﾁｹﾝ","kana_city":"ｵｵｼﾏｸﾞﾝｽｵｳｵｵｼﾏﾁｮｳ","kana_address":"ﾕﾗ","pref":"山口県","city":"大島郡周防大島町","address":"油良"},
{"zip_code":"7422715","kana_pref":"ﾔﾏｸﾞﾁｹﾝ","kana_city":"ｵｵｼﾏｸﾞﾝｽｵｳｵｵｼﾏﾁｮｳ","kana_address":"ﾖｺﾐ","pref":"山口県","city":"大島郡周防大島町","address":"横見"},
{"zip_code":"7422518","kana_pref":"ﾔﾏｸﾞﾁｹﾝ","kana_city":"ｵｵｼﾏｸﾞﾝｽｵｳｵｵｼﾏﾁｮｳ","kana_address":"ﾜｻ","pref":"山口県","city":"大島郡周防大島町","address":"和佐"},
{"zip_code":"7422516","kana_pref":"ﾔﾏｸﾞﾁｹﾝ","kana_city":"ｵｵｼﾏｸﾞﾝｽｵｳｵｵｼﾏﾁｮｳ","kana_address":"ﾜﾀﾞ","pref":"山口県","city":"大島郡周防大島町","address":"和田"},
{"zip_code":"7421400","kana_pref":"ﾔﾏｸﾞﾁｹﾝ","kana_city":"ｸﾏｹﾞｸﾞﾝｶﾐﾉｾｷﾁｮｳ","kana_address":"","pref":"山口県","city":"熊毛郡上関町","address":""},
{"zip_code":"7421401","kana_pref":"ﾔﾏｸﾞﾁｹﾝ","kana_city":"ｸﾏｹﾞｸﾞﾝｶﾐﾉｾｷﾁｮｳ","kana_address":"ｲﾜｲｼﾏ","pref":"山口県","city":"熊毛郡上関町","address":"祝島"},
{"zip_code":"7421402","kana_pref":"ﾔﾏｸﾞﾁｹﾝ","kana_city":"ｸﾏｹﾞｸﾞﾝｶﾐﾉｾｷﾁｮｳ","kana_address":"ﾅｶﾞｼﾏ","pref":"山口県","city":"熊毛郡上関町","address":"長島"},
{"zip_code":"7421403","kana_pref":"ﾔﾏｸﾞﾁｹﾝ","kana_city":"ｸﾏｹﾞｸﾞﾝｶﾐﾉｾｷﾁｮｳ","kana_address":"ﾑﾛﾂ","pref":"山口県","city":"熊毛郡上関町","address":"室津"},
{"zip_code":"7421404","kana_pref":"ﾔﾏｸﾞﾁｹﾝ","kana_city":"ｸﾏｹﾞｸﾞﾝｶﾐﾉｾｷﾁｮｳ","kana_address":"ﾔｼﾏ","pref":"山口県","city":"熊毛郡上関町","address":"八島"},
{"zip_code":"7421500","kana_pref":"ﾔﾏｸﾞﾁｹﾝ","kana_city":"ｸﾏｹﾞｸﾞﾝﾀﾌﾞｾﾁｮｳ","kana_address":"","pref":"山口県","city":"熊毛郡田布施町","address":""},
{"zip_code":"7421516","kana_pref":"ﾔﾏｸﾞﾁｹﾝ","kana_city":"ｸﾏｹﾞｸﾞﾝﾀﾌﾞｾﾁｮｳ","kana_address":"ｳﾏｼﾏ","pref":"山口県","city":"熊毛郡田布施町","address":"馬島"},
{"zip_code":"7421501","kana_pref":"ﾔﾏｸﾞﾁｹﾝ","kana_city":"ｸﾏｹﾞｸﾞﾝﾀﾌﾞｾﾁｮｳ","kana_address":"ｵｵﾊﾉ","pref":"山口県","city":"熊毛郡田布施町","address":"大波野"},
{"zip_code":"7421513","kana_pref":"ﾔﾏｸﾞﾁｹﾝ","kana_city":"ｸﾏｹﾞｸﾞﾝﾀﾌﾞｾﾁｮｳ","kana_address":"ｵｺﾞｳ","pref":"山口県","city":"熊毛郡田布施町","address":"麻郷"},
{"zip_code":"7421512","kana_pref":"ﾔﾏｸﾞﾁｹﾝ","kana_city":"ｸﾏｹﾞｸﾞﾝﾀﾌﾞｾﾁｮｳ","kana_address":"ｵｺﾞｳｵｸ","pref":"山口県","city":"熊毛郡田布施町","address":"麻郷奥"},
{"zip_code":"7421513","kana_pref":"ﾔﾏｸﾞﾁｹﾝ","kana_city":"ｸﾏｹﾞｸﾞﾝﾀﾌﾞｾﾁｮｳ","kana_address":"ｵｺﾞｳﾀﾞﾝﾁ","pref":"山口県","city":"熊毛郡田布施町","address":"麻郷団地"},
{"zip_code":"7421515","kana_pref":"ﾔﾏｸﾞﾁｹﾝ","kana_city":"ｸﾏｹﾞｸﾞﾝﾀﾌﾞｾﾁｮｳ","kana_address":"ｶﾐﾀﾌﾞｾ","pref":"山口県","city":"熊毛郡田布施町","address":"上田布施"},
{"zip_code":"7421504","kana_pref":"ﾔﾏｸﾞﾁｹﾝ","kana_city":"ｸﾏｹﾞｸﾞﾝﾀﾌﾞｾﾁｮｳ","kana_address":"ｶﾜﾆｼ","pref":"山口県","city":"熊毛郡田布施町","address":"川西"},
{"zip_code":"7421511","kana_pref":"ﾔﾏｸﾞﾁｹﾝ","kana_city":"ｸﾏｹﾞｸﾞﾝﾀﾌﾞｾﾁｮｳ","kana_address":"ｼﾓﾀﾌﾞｾ","pref":"山口県","city":"熊毛郡田布施町","address":"下田布施"},
{"zip_code":"7421503","kana_pref":"ﾔﾏｸﾞﾁｹﾝ","kana_city":"ｸﾏｹﾞｸﾞﾝﾀﾌﾞｾﾁｮｳ","kana_address":"ｼｭｸｲ","pref":"山口県","city":"熊毛郡田布施町","address":"宿井"},
{"zip_code":"7421517","kana_pref":"ﾔﾏｸﾞﾁｹﾝ","kana_city":"ｸﾏｹﾞｸﾞﾝﾀﾌﾞｾﾁｮｳ","kana_address":"ﾁｭｳｵｳﾐﾅﾐ","pref":"山口県","city":"熊毛郡田布施町","address":"中央南"},
{"zip_code":"7421502","kana_pref":"ﾔﾏｸﾞﾁｹﾝ","kana_city":"ｸﾏｹﾞｸﾞﾝﾀﾌﾞｾﾁｮｳ","kana_address":"ﾊﾉ","pref":"山口県","city":"熊毛郡田布施町","address":"波野"},
{"zip_code":"7421514","kana_pref":"ﾔﾏｸﾞﾁｹﾝ","kana_city":"ｸﾏｹﾞｸﾞﾝﾀﾌﾞｾﾁｮｳ","kana_address":"ﾍﾞﾌ","pref":"山口県","city":"熊毛郡田布施町","address":"別府"},
{"zip_code":"7421100","kana_pref":"ﾔﾏｸﾞﾁｹﾝ","kana_city":"ｸﾏｹﾞｸﾞﾝﾋﾗｵﾁｮｳ","kana_address":"","pref":"山口県","city":"熊毛郡平生町","address":""},
{"zip_code":"7421104","kana_pref":"ﾔﾏｸﾞﾁｹﾝ","kana_city":"ｸﾏｹﾞｸﾞﾝﾋﾗｵﾁｮｳ","kana_address":"ｳｻﾅｷﾞ","pref":"山口県","city":"熊毛郡平生町","address":"宇佐木"},
{"zip_code":"7421106","kana_pref":"ﾔﾏｸﾞﾁｹﾝ","kana_city":"ｸﾏｹﾞｸﾞﾝﾋﾗｵﾁｮｳ","kana_address":"ｵｵﾉﾐﾅﾐ","pref":"山口県","city":"熊毛郡平生町","address":"大野南"},
{"zip_code":"7421105","kana_pref":"ﾔﾏｸﾞﾁｹﾝ","kana_city":"ｸﾏｹﾞｸﾞﾝﾋﾗｵﾁｮｳ","kana_address":"ｵｵﾉｷﾀ","pref":"山口県","city":"熊毛郡平生町","address":"大野北"},
{"zip_code":"7421113","kana_pref":"ﾔﾏｸﾞﾁｹﾝ","kana_city":"ｸﾏｹﾞｸﾞﾝﾋﾗｵﾁｮｳ","kana_address":"ｵｸﾆ","pref":"山口県","city":"熊毛郡平生町","address":"尾国"},
{"zip_code":"7421112","kana_pref":"ﾔﾏｸﾞﾁｹﾝ","kana_city":"ｸﾏｹﾞｸﾞﾝﾋﾗｵﾁｮｳ","kana_address":"ｵｸﾞﾆ","pref":"山口県","city":"熊毛郡平生町","address":"小郡"},
{"zip_code":"7421111","kana_pref":"ﾔﾏｸﾞﾁｹﾝ","kana_city":"ｸﾏｹﾞｸﾞﾝﾋﾗｵﾁｮｳ","kana_address":"ｻｶﾞ","pref":"山口県","city":"熊毛郡平生町","address":"佐賀"},
{"zip_code":"7421114","kana_pref":"ﾔﾏｸﾞﾁｹﾝ","kana_city":"ｸﾏｹﾞｸﾞﾝﾋﾗｵﾁｮｳ","kana_address":"ｻｺﾞｳｼﾞﾏ","pref":"山口県","city":"熊毛郡平生町","address":"佐合島"},
{"zip_code":"7421107","kana_pref":"ﾔﾏｸﾞﾁｹﾝ","kana_city":"ｸﾏｹﾞｸﾞﾝﾋﾗｵﾁｮｳ","kana_address":"ｿﾈ","pref":"山口県","city":"熊毛郡平生町","address":"曽根"},
{"zip_code":"7421103","kana_pref":"ﾔﾏｸﾞﾁｹﾝ","kana_city":"ｸﾏｹﾞｸﾞﾝﾋﾗｵﾁｮｳ","kana_address":"ﾀﾃｶﾞﾊﾏ","pref":"山口県","city":"熊毛郡平生町","address":"竪ケ浜"},
{"zip_code":"7421101","kana_pref":"ﾔﾏｸﾞﾁｹﾝ","kana_city":"ｸﾏｹﾞｸﾞﾝﾋﾗｵﾁｮｳ","kana_address":"ﾋﾗｵﾏﾁ","pref":"山口県","city":"熊毛郡平生町","address":"平生町"},
{"zip_code":"7421102","kana_pref":"ﾔﾏｸﾞﾁｹﾝ","kana_city":"ｸﾏｹﾞｸﾞﾝﾋﾗｵﾁｮｳ","kana_address":"ﾋﾗｵﾑﾗ","pref":"山口県","city":"熊毛郡平生町","address":"平生村"}]}