{"zip_code":[
{"zip_code":"7440000","kana_pref":"ﾔﾏｸﾞﾁｹﾝ","kana_city":"ｸﾀﾞﾏﾂｼ","kana_address":"","pref":"山口県","city":"下松市","address":""},
{"zip_code":"7440004","kana_pref":"ﾔﾏｸﾞﾁｹﾝ","kana_city":"ｸﾀﾞﾏﾂｼ","kana_address":"ｱｵﾔｷﾞ","pref":"山口県","city":"下松市","address":"青柳"},
{"zip_code":"7440031","kana_pref":"ﾔﾏｸﾞﾁｹﾝ","kana_city":"ｸﾀﾞﾏﾂｼ","kana_address":"ｲｸﾉﾔ","pref":"山口県","city":"下松市","address":"生野屋"},
{"zip_code":"7440031","kana_pref":"ﾔﾏｸﾞﾁｹﾝ","kana_city":"ｸﾀﾞﾏﾂｼ","kana_address":"ｲｸﾉﾔ","pref":"山口県","city":"下松市","address":"生野屋"},
{"zip_code":"7440031","kana_pref":"ﾔﾏｸﾞﾁｹﾝ","kana_city":"ｸﾀﾞﾏﾂｼ","kana_address":"ｲｸﾉﾔ","pref":"山口県","city":"下松市","address":"生野屋"},
{"zip_code":"7440031","kana_pref":"ﾔﾏｸﾞﾁｹﾝ","kana_city":"ｸﾀﾞﾏﾂｼ","kana_address":"ｲｸﾉﾔ","pref":"山口県","city":"下松市","address":"生野屋"},
{"zip_code":"7440031","kana_pref":"ﾔﾏｸﾞﾁｹﾝ","kana_city":"ｸﾀﾞﾏﾂｼ","kana_address":"ｲｸﾉﾔ","pref":"山口県","city":"下松市","address":"生野屋"},
{"zip_code":"7440031","kana_pref":"ﾔﾏｸﾞﾁｹﾝ","kana_city":"ｸﾀﾞﾏﾂｼ","kana_address":"ｲｸﾉﾔ","pref":"山口県","city":"下松市","address":"生野屋"},
{"zip_code":"7440031","kana_pref":"ﾔﾏｸﾞﾁｹﾝ","kana_city":"ｸﾀﾞﾏﾂｼ","kana_address":"ｲｸﾉﾔ","pref":"山口県","city":"下松市","address":"生野屋"},
{"zip_code":"7440031","kana_pref":"ﾔﾏｸﾞﾁｹﾝ","kana_city":"ｸﾀﾞﾏﾂｼ","kana_address":"ｲｸﾉﾔ","pref":"山口県","city":"下松市","address":"生野屋"},
{"zip_code":"7440031","kana_pref":"ﾔﾏｸﾞﾁｹﾝ","kana_city":"ｸﾀﾞﾏﾂｼ","kana_address":"ｲｸﾉﾔ","pref":"山口県","city":"下松市","address":"生野屋"},
{"zip_code":"7440031","kana_pref":"ﾔﾏｸﾞﾁｹﾝ","kana_city":"ｸﾀﾞﾏﾂｼ","kana_address":"ｲｸﾉﾔ","pref":"山口県","city":"下松市","address":"生野屋"},
{"zip_code":"7440031","kana_pref":"ﾔﾏｸﾞﾁｹﾝ","kana_city":"ｸﾀﾞﾏﾂｼ","kana_address":"ｲｸﾉﾔ","pref":"山口県","city":"下松市","address":"生野屋"},
{"zip_code":"7440031","kana_pref":"ﾔﾏｸﾞﾁｹﾝ","kana_city":"ｸﾀﾞﾏﾂｼ","kana_address":"ｲｸﾉﾔ","pref":"山口県","city":"下松市","address":"生野屋"},
{"zip_code":"7440031","kana_pref":"ﾔﾏｸﾞﾁｹﾝ","kana_city":"ｸﾀﾞﾏﾂｼ","kana_address":"ｲｸﾉﾔ","pref":"山口県","city":"下松市","address":"生野屋"},
{"zip_code":"7440031","kana_pref":"ﾔﾏｸﾞﾁｹﾝ","kana_city":"ｸﾀﾞﾏﾂｼ","kana_address":"ｲｸﾉﾔ","pref":"山口県","city":"下松市","address":"生野屋"},
{"zip_code":"7440031","kana_pref":"ﾔﾏｸﾞﾁｹﾝ","kana_city":"ｸﾀﾞﾏﾂｼ","kana_address":"ｲｸﾉﾔ","pref":"山口県","city":"下松市","address":"生野屋"},
{"zip_code":"7440031","kana_pref":"ﾔﾏｸﾞﾁｹﾝ","kana_city":"ｸﾀﾞﾏﾂｼ","kana_address":"ｲｸﾉﾔ","pref":"山口県","city":"下松市","address":"生野屋"},
{"zip_code":"7440031","kana_pref":"ﾔﾏｸﾞﾁｹﾝ","kana_city":"ｸﾀﾞﾏﾂｼ","kana_address":"ｲｸﾉﾔ","pref":"山口県","city":"下松市","address":"生野屋"},
{"zip_code":"7440031","kana_pref":"ﾔﾏｸﾞﾁｹﾝ","kana_city":"ｸﾀﾞﾏﾂｼ","kana_address":"ｲｸﾉﾔ","pref":"山口県","city":"下松市","address":"生野屋"},
{"zip_code":"7440031","kana_pref":"ﾔﾏｸﾞﾁｹﾝ","kana_city":"ｸﾀﾞﾏﾂｼ","kana_address":"ｲｸﾉﾔ","pref":"山口県","city":"下松市","address":"生野屋"},
{"zip_code":"7440031","kana_pref":"ﾔﾏｸﾞﾁｹﾝ","kana_city":"ｸﾀﾞﾏﾂｼ","kana_address":"ｲｸﾉﾔ","pref":"山口県","city":"下松市","address":"生野屋"},
{"zip_code":"7440032","kana_pref":"ﾔﾏｸﾞﾁｹﾝ","kana_city":"ｸﾀﾞﾏﾂｼ","kana_address":"ｲｸﾉﾔﾆｼ","pref":"山口県","city":"下松市","address":"生野屋西"},
{"zip_code":"7440033","kana_pref":"ﾔﾏｸﾞﾁｹﾝ","kana_city":"ｸﾀﾞﾏﾂｼ","kana_address":"ｲｸﾉﾔﾐﾅﾐ","pref":"山口県","city":"下松市","address":"生野屋南"},
{"zip_code":"7440015","kana_pref":"ﾔﾏｸﾞﾁｹﾝ","kana_city":"ｸﾀﾞﾏﾂｼ","kana_address":"ｵｵﾃﾏﾁ","pref":"山口県","city":"下松市","address":"大手町"},
{"zip_code":"7440272","kana_pref":"ﾔﾏｸﾞﾁｹﾝ","kana_city":"ｸﾀﾞﾏﾂｼ","kana_address":"ｵｵﾌｼﾞﾀﾞﾆ","pref":"山口県","city":"下松市","address":"大藤谷"},
{"zip_code":"7440001","kana_pref":"ﾔﾏｸﾞﾁｹﾝ","kana_city":"ｸﾀﾞﾏﾂｼ","kana_address":"ｶｻﾄﾞｼﾏ","pref":"山口県","city":"下松市","address":"笠戸島"},
{"zip_code":"7440001","kana_pref":"ﾔﾏｸﾞﾁｹﾝ","kana_city":"ｸﾀﾞﾏﾂｼ","kana_address":"ｶｻﾄﾞｼﾏ","pref":"山口県","city":"下松市","address":"笠戸島"},
{"zip_code":"7440001","kana_pref":"ﾔﾏｸﾞﾁｹﾝ","kana_city":"ｸﾀﾞﾏﾂｼ","kana_address":"ｶｻﾄﾞｼﾏ","pref":"山口県","city":"下松市","address":"笠戸島"},
{"zip_code":"7440001","kana_pref":"ﾔﾏｸﾞﾁｹﾝ","kana_city":"ｸﾀﾞﾏﾂｼ","kana_address":"ｶｻﾄﾞｼﾏ","pref":"山口県","city":"下松市","address":"笠戸島"},
{"zip_code":"7440001","kana_pref":"ﾔﾏｸﾞﾁｹﾝ","kana_city":"ｸﾀﾞﾏﾂｼ","kana_address":"ｶｻﾄﾞｼﾏ","pref":"山口県","city":"下松市","address":"笠戸島"},
{"zip_code":"7440001","kana_pref":"ﾔﾏｸﾞﾁｹﾝ","kana_city":"ｸﾀﾞﾏﾂｼ","kana_address":"ｶｻﾄﾞｼﾏ","pref":"山口県","city":"下松市","address":"笠戸島"},
{"zip_code":"7440001","kana_pref":"ﾔﾏｸﾞﾁｹﾝ","kana_city":"ｸﾀﾞﾏﾂｼ","kana_address":"ｶｻﾄﾞｼﾏ","pref":"山口県","city":"下松市","address":"笠戸島"},
{"zip_code":"7440001","kana_pref":"ﾔﾏｸﾞﾁｹﾝ","kana_city":"ｸﾀﾞﾏﾂｼ","kana_address":"ｶｻﾄﾞｼﾏ","pref":"山口県","city":"下松市","address":"笠戸島"},
{"zip_code":"7440001","kana_pref":"ﾔﾏｸﾞﾁｹﾝ","kana_city":"ｸﾀﾞﾏﾂｼ","kana_address":"ｶｻﾄﾞｼﾏ","pref":"山口県","city":"下松市","address":"笠戸島"},
{"zip_code":"7440071","kana_pref":"ﾔﾏｸﾞﾁｹﾝ","kana_city":"ｸﾀﾞﾏﾂｼ","kana_address":"ｷﾖｾﾁｮｳ","pref":"山口県","city":"下松市","address":"清瀬町"},
{"zip_code":"7440042","kana_pref":"ﾔﾏｸﾞﾁｹﾝ","kana_city":"ｸﾀﾞﾏﾂｼ","kana_address":"ｷﾘﾔﾏ","pref":"山口県","city":"下松市","address":"切山"},
{"zip_code":"7440042","kana_pref":"ﾔﾏｸﾞﾁｹﾝ","kana_city":"ｸﾀﾞﾏﾂｼ","kana_address":"ｷﾘﾔﾏ","pref":"山口県","city":"下松市","address":"切山"},
{"zip_code":"7440042","kana_pref":"ﾔﾏｸﾞﾁｹﾝ","kana_city":"ｸﾀﾞﾏﾂｼ","kana_address":"ｷﾘﾔﾏ","pref":"山口県","city":"下松市","address":"切山"},
{"zip_code":"7440042","kana_pref":"ﾔﾏｸﾞﾁｹﾝ","kana_city":"ｸﾀﾞﾏﾂｼ","kana_address":"ｷﾘﾔﾏ","pref":"山口県","city":"下松市","address":"切山"},
{"zip_code":"7440042","kana_pref":"ﾔﾏｸﾞﾁｹﾝ","kana_city":"ｸﾀﾞﾏﾂｼ","kana_address":"ｷﾘﾔﾏ","pref":"山口県","city":"下松市","address":"切山"},
{"zip_code":"7440029","kana_pref":"ﾔﾏｸﾞﾁｹﾝ","kana_city":"ｸﾀﾞﾏﾂｼ","kana_address":"ｸｽﾉｷﾁｮｳ","pref":"山口県","city":"下松市","address":"楠木町"},
{"zip_code":"7440271","kana_pref":"ﾔﾏｸﾞﾁｹﾝ","kana_city":"ｸﾀﾞﾏﾂｼ","kana_address":"ｸﾀﾞﾀﾆ","pref":"山口県","city":"下松市","address":"下谷"},
{"zip_code":"7440271","kana_pref":"ﾔﾏｸﾞﾁｹﾝ","kana_city":"ｸﾀﾞﾏﾂｼ","kana_address":"ｸﾀﾞﾀﾆ","pref":"山口県","city":"下松市","address":"下谷"},
{"zip_code":"7440271","kana_pref":"ﾔﾏｸﾞﾁｹﾝ","kana_city":"ｸﾀﾞﾏﾂｼ","kana_address":"ｸﾀﾞﾀﾆ","pref":"山口県","city":"下松市","address":"下谷"},
{"zip_code":"7440271","kana_pref":"ﾔﾏｸﾞﾁｹﾝ","kana_city":"ｸﾀﾞﾏﾂｼ","kana_address":"ｸﾀﾞﾀﾆ","pref":"山口県","city":"下松市","address":"下谷"},
{"zip_code":"7440271","kana_pref":"ﾔﾏｸﾞﾁｹﾝ","kana_city":"ｸﾀﾞﾏﾂｼ","kana_address":"ｸﾀﾞﾀﾆ","pref":"山口県","city":"下松市","address":"下谷"},
{"zip_code":"7440271","kana_pref":"ﾔﾏｸﾞﾁｹﾝ","kana_city":"ｸﾀﾞﾏﾂｼ","kana_address":"ｸﾀﾞﾀﾆ","pref":"山口県","city":"下松市","address":"下谷"},
{"zip_code":"7440271","kana_pref":"ﾔﾏｸﾞﾁｹﾝ","kana_city":"ｸﾀﾞﾏﾂｼ","kana_address":"ｸﾀﾞﾀﾆ","pref":"山口県","city":"下松市","address":"下谷"},
{"zip_code":"7440271","kana_pref":"ﾔﾏｸﾞﾁｹﾝ","kana_city":"ｸﾀﾞﾏﾂｼ","kana_address":"ｸﾀﾞﾀﾆ","pref":"山口県","city":"下松市","address":"下谷"},
{"zip_code":"7440271","kana_pref":"ﾔﾏｸﾞﾁｹﾝ","kana_city":"ｸﾀﾞﾏﾂｼ","kana_address":"ｸﾀﾞﾀﾆ","pref":"山口県","city":"下松市","address":"下谷"},
{"zip_code":"7440271","kana_pref":"ﾔﾏｸﾞﾁｹﾝ","kana_city":"ｸﾀﾞﾏﾂｼ","kana_address":"ｸﾀﾞﾀﾆ","pref":"山口県","city":"下松市","address":"下谷"},
{"zip_code":"7440051","kana_pref":"ﾔﾏｸﾞﾁｹﾝ","kana_city":"ｸﾀﾞﾏﾂｼ","kana_address":"ｸﾙﾏｷ","pref":"山口県","city":"下松市","address":"来巻"},
{"zip_code":"7440051","kana_pref":"ﾔﾏｸﾞﾁｹﾝ","kana_city":"ｸﾀﾞﾏﾂｼ","kana_address":"ｸﾙﾏｷ","pref":"山口県","city":"下松市","address":"来巻"},
{"zip_code":"7440051","kana_pref":"ﾔﾏｸﾞﾁｹﾝ","kana_city":"ｸﾀﾞﾏﾂｼ","kana_address":"ｸﾙﾏｷ","pref":"山口県","city":"下松市","address":"来巻"},
{"zip_code":"7440061","kana_pref":"ﾔﾏｸﾞﾁｹﾝ","kana_city":"ｸﾀﾞﾏﾂｼ","kana_address":"ｺｳﾁ","pref":"山口県","city":"下松市","address":"河内"},
{"zip_code":"7440061","kana_pref":"ﾔﾏｸﾞﾁｹﾝ","kana_city":"ｸﾀﾞﾏﾂｼ","kana_address":"ｺｳﾁ","pref":"山口県","city":"下松市","address":"河内"},
{"zip_code":"7440061","kana_pref":"ﾔﾏｸﾞﾁｹﾝ","kana_city":"ｸﾀﾞﾏﾂｼ","kana_address":"ｺｳﾁ","pref":"山口県","city":"下松市","address":"河内"},
{"zip_code":"7440061","kana_pref":"ﾔﾏｸﾞﾁｹﾝ","kana_city":"ｸﾀﾞﾏﾂｼ","kana_address":"ｺｳﾁ","pref":"山口県","city":"下松市","address":"河内"},
{"zip_code":"7440061","kana_pref":"ﾔﾏｸﾞﾁｹﾝ","kana_city":"ｸﾀﾞﾏﾂｼ","kana_address":"ｺｳﾁ","pref":"山口県","city":"下松市","address":"河内"},
{"zip_code":"7440061","kana_pref":"ﾔﾏｸﾞﾁｹﾝ","kana_city":"ｸﾀﾞﾏﾂｼ","kana_address":"ｺｳﾁ","pref":"山口県","city":"下松市","address":"河内"},
{"zip_code":"7440061","kana_pref":"ﾔﾏｸﾞﾁｹﾝ","kana_city":"ｸﾀﾞﾏﾂｼ","kana_address":"ｺｳﾁ","pref":"山口県","city":"下松市","address":"河内"},
{"zip_code":"7440061","kana_pref":"ﾔﾏｸﾞﾁｹﾝ","kana_city":"ｸﾀﾞﾏﾂｼ","kana_address":"ｺｳﾁ","pref":"山口県","city":"下松市","address":"河内"},
{"zip_code":"7440061","kana_pref":"ﾔﾏｸﾞﾁｹﾝ","kana_city":"ｸﾀﾞﾏﾂｼ","kana_address":"ｺｳﾁ","pref":"山口県","city":"下松市","address":"河内"},
{"zip_code":"7440061","kana_pref":"ﾔﾏｸﾞﾁｹﾝ","kana_city":"ｸﾀﾞﾏﾂｼ","kana_address":"ｺｳﾁ","pref":"山口県","city":"下松市","address":"河内"},
{"zip_code":"7440061","kana_pref":"ﾔﾏｸﾞﾁｹﾝ","kana_city":"ｸﾀﾞﾏﾂｼ","kana_address":"ｺｳﾁ","pref":"山口県","city":"下松市","address":"河内"},
{"zip_code":"7440061","kana_pref":"ﾔﾏｸﾞﾁｹﾝ","kana_city":"ｸﾀﾞﾏﾂｼ","kana_address":"ｺｳﾁ","pref":"山口県","city":"下松市","address":"河内"},
{"zip_code":"7440061","kana_pref":"ﾔﾏｸﾞﾁｹﾝ","kana_city":"ｸﾀﾞﾏﾂｼ","kana_address":"ｺｳﾁ","pref":"山口県","city":"下松市","address":"河内"},
{"zip_code":"7440061","kana_pref":"ﾔﾏｸﾞﾁｹﾝ","kana_city":"ｸﾀﾞﾏﾂｼ","kana_address":"ｺｳﾁ","pref":"山口県","city":"下松市","address":"河内"},
{"zip_code":"7440061","kana_pref":"ﾔﾏｸﾞﾁｹﾝ","kana_city":"ｸﾀﾞﾏﾂｼ","kana_address":"ｺｳﾁ","pref":"山口県","city":"下松市","address":"河内"},
{"zip_code":"7440061","kana_pref":"ﾔﾏｸﾞﾁｹﾝ","kana_city":"ｸﾀﾞﾏﾂｼ","kana_address":"ｺｳﾁ","pref":"山口県","city":"下松市","address":"河内"},
{"zip_code":"7440061","kana_pref":"ﾔﾏｸﾞﾁｹﾝ","kana_city":"ｸﾀﾞﾏﾂｼ","kana_address":"ｺｳﾁ","pref":"山口県","city":"下松市","address":"河内"},
{"zip_code":"7440061","kana_pref":"ﾔﾏｸﾞﾁｹﾝ","kana_city":"ｸﾀﾞﾏﾂｼ","kana_address":"ｺｳﾁ","pref":"山口県","city":"下松市","address":"河内"},
{"zip_code":"7440061","kana_pref":"ﾔﾏｸﾞﾁｹﾝ","kana_city":"ｸﾀﾞﾏﾂｼ","kana_address":"ｺｳﾁ","pref":"山口県","city":"下松市","address":"河内"},
{"zip_code":"7440061","kana_pref":"ﾔﾏｸﾞﾁｹﾝ","kana_city":"ｸﾀﾞﾏﾂｼ","kana_address":"ｺｳﾁ","pref":"山口県","city":"下松市","address":"河内"},
{"zip_code":"7440061","kana_pref":"ﾔﾏｸﾞﾁｹﾝ","kana_city":"ｸﾀﾞﾏﾂｼ","kana_address":"ｺｳﾁ","pref":"山口県","city":"下松市","address":"河内"},
{"zip_code":"7440061","kana_pref":"ﾔﾏｸﾞﾁｹﾝ","kana_city":"ｸﾀﾞﾏﾂｼ","kana_address":"ｺｳﾁ","pref":"山口県","city":"下松市","address":"河内"},
{"zip_code":"7440061","kana_pref":"ﾔﾏｸﾞﾁｹﾝ","kana_city":"ｸﾀﾞﾏﾂｼ","kana_address":"ｺｳﾁ","pref":"山口県","city":"下松市","address":"河内"},
{"zip_code":"7440061","kana_pref":"ﾔﾏｸﾞﾁｹﾝ","kana_city":"ｸﾀﾞﾏﾂｼ","kana_address":"ｺｳﾁ","pref":"山口県","city":"下松市","address":"河内"},
{"zip_code":"7440061","kana_pref":"ﾔﾏｸﾞﾁｹﾝ","kana_city":"ｸﾀﾞﾏﾂｼ","kana_address":"ｺｳﾁ","pref":"山口県","city":"下松市","address":"河内"},
{"zip_code":"7440003","kana_pref":"ﾔﾏｸﾞﾁｹﾝ","kana_city":"ｸﾀﾞﾏﾂｼ","kana_address":"ｺﾄﾋﾗﾁｮｳ","pref":"山口県","city":"下松市","address":"琴平町"},
{"zip_code":"7440013","kana_pref":"ﾔﾏｸﾞﾁｹﾝ","kana_city":"ｸﾀﾞﾏﾂｼ","kana_address":"ｻｶｴﾏﾁ","pref":"山口県","city":"下松市","address":"栄町"},
{"zip_code":"7440019","kana_pref":"ﾔﾏｸﾞﾁｹﾝ","kana_city":"ｸﾀﾞﾏﾂｼ","kana_address":"ｻｸﾗﾁｮｳ","pref":"山口県","city":"下松市","address":"桜町"},
{"zip_code":"7440074","kana_pref":"ﾔﾏｸﾞﾁｹﾝ","kana_city":"ｸﾀﾞﾏﾂｼ","kana_address":"ｼｵﾈﾁｮｳ","pref":"山口県","city":"下松市","address":"潮音町"},
{"zip_code":"7440062","kana_pref":"ﾔﾏｸﾞﾁｹﾝ","kana_city":"ｸﾀﾞﾏﾂｼ","kana_address":"ｼｮｳﾜﾏﾁ","pref":"山口県","city":"下松市","address":"昭和町"},
{"zip_code":"7440024","kana_pref":"ﾔﾏｸﾞﾁｹﾝ","kana_city":"ｸﾀﾞﾏﾂｼ","kana_address":"ｽｴﾀｹｶﾐ","pref":"山口県","city":"下松市","address":"末武上"},
{"zip_code":"7440024","kana_pref":"ﾔﾏｸﾞﾁｹﾝ","kana_city":"ｸﾀﾞﾏﾂｼ","kana_address":"ｽｴﾀｹｶﾐ","pref":"山口県","city":"下松市","address":"末武上"},
{"zip_code":"7440024","kana_pref":"ﾔﾏｸﾞﾁｹﾝ","kana_city":"ｸﾀﾞﾏﾂｼ","kana_address":"ｽｴﾀｹｶﾐ","pref":"山口県","city":"下松市","address":"末武上"},
{"zip_code":"7440024","kana_pref":"ﾔﾏｸﾞﾁｹﾝ","kana_city":"ｸﾀﾞﾏﾂｼ","kana_address":"ｽｴﾀｹｶﾐ","pref":"山口県","city":"下松市","address":"末武上"},
{"zip_code":"7440024","kana_pref":"ﾔﾏｸﾞﾁｹﾝ","kana_city":"ｸﾀﾞﾏﾂｼ","kana_address":"ｽｴﾀｹｶﾐ","pref":"山口県","city":"下松市","address":"末武上"},
{"zip_code":"7440024","kana_pref":"ﾔﾏｸﾞﾁｹﾝ","kana_city":"ｸﾀﾞﾏﾂｼ","kana_address":"ｽｴﾀｹｶﾐ","pref":"山口県","city":"下松市","address":"末武上"},
{"zip_code":"7440024","kana_pref":"ﾔﾏｸﾞﾁｹﾝ","kana_city":"ｸﾀﾞﾏﾂｼ","kana_address":"ｽｴﾀｹｶﾐ","pref":"山口県","city":"下松市","address":"末武上"},
{"zip_code":"7440024","kana_pref":"ﾔﾏｸﾞﾁｹﾝ","kana_city":"ｸﾀﾞﾏﾂｼ","kana_address":"ｽｴﾀｹｶﾐ","pref":"山口県","city":"下松市","address":"末武上"},
{"zip_code":"7440024","kana_pref":"ﾔﾏｸﾞﾁｹﾝ","kana_city":"ｸﾀﾞﾏﾂｼ","kana_address":"ｽｴﾀｹｶﾐ","pref":"山口県","city":"下松市","address":"末武上"},
{"zip_code":"7440024","kana_pref":"ﾔﾏｸﾞﾁｹﾝ","kana_city":"ｸﾀﾞﾏﾂｼ","kana_address":"ｽｴﾀｹｶﾐ","pref":"山口県","city":"下松市","address":"末武上"},
{"zip_code":"7440024","kana_pref":"ﾔﾏｸﾞﾁｹﾝ","kana_city":"ｸﾀﾞﾏﾂｼ","kana_address":"ｽｴﾀｹｶﾐ","pref":"山口県","city":"下松市","address":"末武上"},
{"zip_code":"7440024","kana_pref":"ﾔﾏｸﾞﾁｹﾝ","kana_city":"ｸﾀﾞﾏﾂｼ","kana_address":"ｽｴﾀｹｶﾐ","pref":"山口県","city":"下松市","address":"末武上"},
{"zip_code":"7440024","kana_pref":"ﾔﾏｸﾞﾁｹﾝ","kana_city":"ｸﾀﾞﾏﾂｼ","kana_address":"ｽｴﾀｹｶﾐ","pref":"山口県","city":"下松市","address":"末武上"},
{"zip_code":"7440024","kana_pref":"ﾔﾏｸﾞﾁｹﾝ","kana_city":"ｸﾀﾞﾏﾂｼ","kana_address":"ｽｴﾀｹｶﾐ","pref":"山口県","city":"下松市","address":"末武上"},
{"zip_code":"7440024","kana_pref":"ﾔﾏｸﾞﾁｹﾝ","kana_city":"ｸﾀﾞﾏﾂｼ","kana_address":"ｽｴﾀｹｶﾐ","pref":"山口県","city":"下松市","address":"末武上"},
{"zip_code":"7440022","kana_pref":"ﾔﾏｸﾞﾁｹﾝ","kana_city":"ｸﾀﾞﾏﾂｼ","kana_address":"ｽｴﾀｹｼﾓ","pref":"山口県","city":"下松市","address":"末武下"},
{"zip_code":"7440022","kana_pref":"ﾔﾏｸﾞﾁｹﾝ","kana_city":"ｸﾀﾞﾏﾂｼ","kana_address":"ｽｴﾀｹｼﾓ","pref":"山口県","city":"下松市","address":"末武下"},
{"zip_code":"7440022","kana_pref":"ﾔﾏｸﾞﾁｹﾝ","kana_city":"ｸﾀﾞﾏﾂｼ","kana_address":"ｽｴﾀｹｼﾓ","pref":"山口県","city":"下松市","address":"末武下"},
{"zip_code":"7440022","kana_pref":"ﾔﾏｸﾞﾁｹﾝ","kana_city":"ｸﾀﾞﾏﾂｼ","kana_address":"ｽｴﾀｹｼﾓ","pref":"山口県","city":"下松市","address":"末武下"},
{"zip_code":"7440022","kana_pref":"ﾔﾏｸﾞﾁｹﾝ","kana_city":"ｸﾀﾞﾏﾂｼ","kana_address":"ｽｴﾀｹｼﾓ","pref":"山口県","city":"下松市","address":"末武下"},
{"zip_code":"7440022","kana_pref":"ﾔﾏｸﾞﾁｹﾝ","kana_city":"ｸﾀﾞﾏﾂｼ","kana_address":"ｽｴﾀｹｼﾓ","pref":"山口県","city":"下松市","address":"末武下"},
{"zip_code":"7440022","kana_pref":"ﾔﾏｸﾞﾁｹﾝ","kana_city":"ｸﾀﾞﾏﾂｼ","kana_address":"ｽｴﾀｹｼﾓ","pref":"山口県","city":"下松市","address":"末武下"},
{"zip_code":"7440023","kana_pref":"ﾔﾏｸﾞﾁｹﾝ","kana_city":"ｸﾀﾞﾏﾂｼ","kana_address":"ｽｴﾀｹﾅｶ","pref":"山口県","city":"下松市","address":"末武中"},
{"zip_code":"7440023","kana_pref":"ﾔﾏｸﾞﾁｹﾝ","kana_city":"ｸﾀﾞﾏﾂｼ","kana_address":"ｽｴﾀｹﾅｶ","pref":"山口県","city":"下松市","address":"末武中"},
{"zip_code":"7440023","kana_pref":"ﾔﾏｸﾞﾁｹﾝ","kana_city":"ｸﾀﾞﾏﾂｼ","kana_address":"ｽｴﾀｹﾅｶ","pref":"山口県","city":"下松市","address":"末武中"},
{"zip_code":"7440023","kana_pref":"ﾔﾏｸﾞﾁｹﾝ","kana_city":"ｸﾀﾞﾏﾂｼ","kana_address":"ｽｴﾀｹﾅｶ","pref":"山口県","city":"下松市","address":"末武中"},
{"zip_code":"7440023","kana_pref":"ﾔﾏｸﾞﾁｹﾝ","kana_city":"ｸﾀﾞﾏﾂｼ","kana_address":"ｽｴﾀｹﾅｶ","pref":"山口県","city":"下松市","address":"末武中"},
{"zip_code":"7440023","kana_pref":"ﾔﾏｸﾞﾁｹﾝ","kana_city":"ｸﾀﾞﾏﾂｼ","kana_address":"ｽｴﾀｹﾅｶ","pref":"山口県","city":"下松市","address":"末武中"},
{"zip_code":"7440023","kana_pref":"ﾔﾏｸﾞﾁｹﾝ","kana_city":"ｸﾀﾞﾏﾂｼ","kana_address":"ｽｴﾀｹﾅｶ","pref":"山口県","city":"下松市","address":"末武中"},
{"zip_code":"7440023","kana_pref":"ﾔﾏｸﾞﾁｹﾝ","kana_city":"ｸﾀﾞﾏﾂｼ","kana_address":"ｽｴﾀｹﾅｶ","pref":"山口県","city":"下松市","address":"末武中"},
{"zip_code":"7440023","kana_pref":"ﾔﾏｸﾞﾁｹﾝ","kana_city":"ｸﾀﾞﾏﾂｼ","kana_address":"ｽｴﾀｹﾅｶ","pref":"山口県","city":"下松市","address":"末武中"},
{"zip_code":"7440273","kana_pref":"ﾔﾏｸﾞﾁｹﾝ","kana_city":"ｸﾀﾞﾏﾂｼ","kana_address":"ｾﾄ","pref":"山口県","city":"下松市","address":"瀬戸"},
{"zip_code":"7440273","kana_pref":"ﾔﾏｸﾞﾁｹﾝ","kana_city":"ｸﾀﾞﾏﾂｼ","kana_address":"ｾﾄ","pref":"山口県","city":"下松市","address":"瀬戸"},
{"zip_code":"7440273","kana_pref":"ﾔﾏｸﾞﾁｹﾝ","kana_city":"ｸﾀﾞﾏﾂｼ","kana_address":"ｾﾄ","pref":"山口県","city":"下松市","address":"瀬戸"},
{"zip_code":"7440273","kana_pref":"ﾔﾏｸﾞﾁｹﾝ","kana_city":"ｸﾀﾞﾏﾂｼ","kana_address":"ｾﾄ","pref":"山口県","city":"下松市","address":"瀬戸"},
{"zip_code":"7440273","kana_pref":"ﾔﾏｸﾞﾁｹﾝ","kana_city":"ｸﾀﾞﾏﾂｼ","kana_address":"ｾﾄ","pref":"山口県","city":"下松市","address":"瀬戸"},
{"zip_code":"7440025","kana_pref":"ﾔﾏｸﾞﾁｹﾝ","kana_city":"ｸﾀﾞﾏﾂｼ","kana_address":"ﾁｭｳｵｳﾁｮｳ","pref":"山口県","city":"下松市","address":"中央町"},
{"zip_code":"7440028","kana_pref":"ﾔﾏｸﾞﾁｹﾝ","kana_city":"ｸﾀﾞﾏﾂｼ","kana_address":"ﾄｳﾐﾂﾁｮｳ","pref":"山口県","city":"下松市","address":"藤光町"},
{"zip_code":"7440043","kana_pref":"ﾔﾏｸﾞﾁｹﾝ","kana_city":"ｸﾀﾞﾏﾂｼ","kana_address":"ﾄｳﾖｳ","pref":"山口県","city":"下松市","address":"東陽"},
{"zip_code":"7440053","kana_pref":"ﾔﾏｸﾞﾁｹﾝ","kana_city":"ｸﾀﾞﾏﾂｼ","kana_address":"ﾄｳﾜ","pref":"山口県","city":"下松市","address":"東和"},
{"zip_code":"7440014","kana_pref":"ﾔﾏｸﾞﾁｹﾝ","kana_city":"ｸﾀﾞﾏﾂｼ","kana_address":"ﾅｶｲﾁ","pref":"山口県","city":"下松市","address":"中市"},
{"zip_code":"7440275","kana_pref":"ﾔﾏｸﾞﾁｹﾝ","kana_city":"ｸﾀﾞﾏﾂｼ","kana_address":"ﾅｶｽﾐﾅﾐ","pref":"山口県","city":"下松市","address":"中須南"},
{"zip_code":"7440011","kana_pref":"ﾔﾏｸﾞﾁｹﾝ","kana_city":"ｸﾀﾞﾏﾂｼ","kana_address":"ﾆｼﾄﾖｲ","pref":"山口県","city":"下松市","address":"西豊井"},
{"zip_code":"7440011","kana_pref":"ﾔﾏｸﾞﾁｹﾝ","kana_city":"ｸﾀﾞﾏﾂｼ","kana_address":"ﾆｼﾄﾖｲ","pref":"山口県","city":"下松市","address":"西豊井"},
{"zip_code":"7440011","kana_pref":"ﾔﾏｸﾞﾁｹﾝ","kana_city":"ｸﾀﾞﾏﾂｼ","kana_address":"ﾆｼﾄﾖｲ","pref":"山口県","city":"下松市","address":"西豊井"},
{"zip_code":"7440011","kana_pref":"ﾔﾏｸﾞﾁｹﾝ","kana_city":"ｸﾀﾞﾏﾂｼ","kana_address":"ﾆｼﾄﾖｲ","pref":"山口県","city":"下松市","address":"西豊井"},
{"zip_code":"7440011","kana_pref":"ﾔﾏｸﾞﾁｹﾝ","kana_city":"ｸﾀﾞﾏﾂｼ","kana_address":"ﾆｼﾄﾖｲ","pref":"山口県","city":"下松市","address":"西豊井"},
{"zip_code":"7440011","kana_pref":"ﾔﾏｸﾞﾁｹﾝ","kana_city":"ｸﾀﾞﾏﾂｼ","kana_address":"ﾆｼﾄﾖｲ","pref":"山口県","city":"下松市","address":"西豊井"},
{"zip_code":"7440011","kana_pref":"ﾔﾏｸﾞﾁｹﾝ","kana_city":"ｸﾀﾞﾏﾂｼ","kana_address":"ﾆｼﾄﾖｲ","pref":"山口県","city":"下松市","address":"西豊井"},
{"zip_code":"7440011","kana_pref":"ﾔﾏｸﾞﾁｹﾝ","kana_city":"ｸﾀﾞﾏﾂｼ","kana_address":"ﾆｼﾄﾖｲ","pref":"山口県","city":"下松市","address":"西豊井"},
{"zip_code":"7440011","kana_pref":"ﾔﾏｸﾞﾁｹﾝ","kana_city":"ｸﾀﾞﾏﾂｼ","kana_address":"ﾆｼﾄﾖｲ","pref":"山口県","city":"下松市","address":"西豊井"},
{"zip_code":"7440011","kana_pref":"ﾔﾏｸﾞﾁｹﾝ","kana_city":"ｸﾀﾞﾏﾂｼ","kana_address":"ﾆｼﾄﾖｲ","pref":"山口県","city":"下松市","address":"西豊井"},
{"zip_code":"7440011","kana_pref":"ﾔﾏｸﾞﾁｹﾝ","kana_city":"ｸﾀﾞﾏﾂｼ","kana_address":"ﾆｼﾄﾖｲ","pref":"山口県","city":"下松市","address":"西豊井"},
{"zip_code":"7440011","kana_pref":"ﾔﾏｸﾞﾁｹﾝ","kana_city":"ｸﾀﾞﾏﾂｼ","kana_address":"ﾆｼﾄﾖｲ","pref":"山口県","city":"下松市","address":"西豊井"},
{"zip_code":"7440018","kana_pref":"ﾔﾏｸﾞﾁｹﾝ","kana_city":"ｸﾀﾞﾏﾂｼ","kana_address":"ﾆｼﾔﾅｷﾞ","pref":"山口県","city":"下松市","address":"西柳"},
{"zip_code":"7440274","kana_pref":"ﾔﾏｸﾞﾁｹﾝ","kana_city":"ｸﾀﾞﾏﾂｼ","kana_address":"ﾇｸﾐ","pref":"山口県","city":"下松市","address":"温見"},
{"zip_code":"7440274","kana_pref":"ﾔﾏｸﾞﾁｹﾝ","kana_city":"ｸﾀﾞﾏﾂｼ","kana_address":"ﾇｸﾐ","pref":"山口県","city":"下松市","address":"温見"},
{"zip_code":"7440274","kana_pref":"ﾔﾏｸﾞﾁｹﾝ","kana_city":"ｸﾀﾞﾏﾂｼ","kana_address":"ﾇｸﾐ","pref":"山口県","city":"下松市","address":"温見"},
{"zip_code":"7440072","kana_pref":"ﾔﾏｸﾞﾁｹﾝ","kana_city":"ｸﾀﾞﾏﾂｼ","kana_address":"ﾉｿﾞﾐﾁｮｳ","pref":"山口県","city":"下松市","address":"望町"},
{"zip_code":"7440006","kana_pref":"ﾔﾏｸﾞﾁｹﾝ","kana_city":"ｸﾀﾞﾏﾂｼ","kana_address":"ﾊﾀｵｶ","pref":"山口県","city":"下松市","address":"旗岡"},
{"zip_code":"7440002","kana_pref":"ﾔﾏｸﾞﾁｹﾝ","kana_city":"ｸﾀﾞﾏﾂｼ","kana_address":"ﾋｶﾞｼﾄﾖｲ","pref":"山口県","city":"下松市","address":"東豊井"},
{"zip_code":"7440002","kana_pref":"ﾔﾏｸﾞﾁｹﾝ","kana_city":"ｸﾀﾞﾏﾂｼ","kana_address":"ﾋｶﾞｼﾄﾖｲ","pref":"山口県","city":"下松市","address":"東豊井"},
{"zip_code":"7440002","kana_pref":"ﾔﾏｸﾞﾁｹﾝ","kana_city":"ｸﾀﾞﾏﾂｼ","kana_address":"ﾋｶﾞｼﾄﾖｲ","pref":"山口県","city":"下松市","address":"東豊井"},
{"zip_code":"7440002","kana_pref":"ﾔﾏｸﾞﾁｹﾝ","kana_city":"ｸﾀﾞﾏﾂｼ","kana_address":"ﾋｶﾞｼﾄﾖｲ","pref":"山口県","city":"下松市","address":"東豊井"},
{"zip_code":"7440002","kana_pref":"ﾔﾏｸﾞﾁｹﾝ","kana_city":"ｸﾀﾞﾏﾂｼ","kana_address":"ﾋｶﾞｼﾄﾖｲ","pref":"山口県","city":"下松市","address":"東豊井"},
{"zip_code":"7440002","kana_pref":"ﾔﾏｸﾞﾁｹﾝ","kana_city":"ｸﾀﾞﾏﾂｼ","kana_address":"ﾋｶﾞｼﾄﾖｲ","pref":"山口県","city":"下松市","address":"東豊井"},
{"zip_code":"7440002","kana_pref":"ﾔﾏｸﾞﾁｹﾝ","kana_city":"ｸﾀﾞﾏﾂｼ","kana_address":"ﾋｶﾞｼﾄﾖｲ","pref":"山口県","city":"下松市","address":"東豊井"},
{"zip_code":"7440002","kana_pref":"ﾔﾏｸﾞﾁｹﾝ","kana_city":"ｸﾀﾞﾏﾂｼ","kana_address":"ﾋｶﾞｼﾄﾖｲ","pref":"山口県","city":"下松市","address":"東豊井"},
{"zip_code":"7440002","kana_pref":"ﾔﾏｸﾞﾁｹﾝ","kana_city":"ｸﾀﾞﾏﾂｼ","kana_address":"ﾋｶﾞｼﾄﾖｲ","pref":"山口県","city":"下松市","address":"東豊井"},
{"zip_code":"7440002","kana_pref":"ﾔﾏｸﾞﾁｹﾝ","kana_city":"ｸﾀﾞﾏﾂｼ","kana_address":"ﾋｶﾞｼﾄﾖｲ","pref":"山口県","city":"下松市","address":"東豊井"},
{"zip_code":"7440002","kana_pref":"ﾔﾏｸﾞﾁｹﾝ","kana_city":"ｸﾀﾞﾏﾂｼ","kana_address":"ﾋｶﾞｼﾄﾖｲ","pref":"山口県","city":"下松市","address":"東豊井"},
{"zip_code":"7440002","kana_pref":"ﾔﾏｸﾞﾁｹﾝ","kana_city":"ｸﾀﾞﾏﾂｼ","kana_address":"ﾋｶﾞｼﾄﾖｲ","pref":"山口県","city":"下松市","address":"東豊井"},
{"zip_code":"7440002","kana_pref":"ﾔﾏｸﾞﾁｹﾝ","kana_city":"ｸﾀﾞﾏﾂｼ","kana_address":"ﾋｶﾞｼﾄﾖｲ","pref":"山口県","city":"下松市","address":"東豊井"},
{"zip_code":"7440002","kana_pref":"ﾔﾏｸﾞﾁｹﾝ","kana_city":"ｸﾀﾞﾏﾂｼ","kana_address":"ﾋｶﾞｼﾄﾖｲ","pref":"山口県","city":"下松市","address":"東豊井"},
{"zip_code":"7440002","kana_pref":"ﾔﾏｸﾞﾁｹﾝ","kana_city":"ｸﾀﾞﾏﾂｼ","kana_address":"ﾋｶﾞｼﾄﾖｲ","pref":"山口県","city":"下松市","address":"東豊井"},
{"zip_code":"7440002","kana_pref":"ﾔﾏｸﾞﾁｹﾝ","kana_city":"ｸﾀﾞﾏﾂｼ","kana_address":"ﾋｶﾞｼﾄﾖｲ","pref":"山口県","city":"下松市","address":"東豊井"},
{"zip_code":"7440017","kana_pref":"ﾔﾏｸﾞﾁｹﾝ","kana_city":"ｸﾀﾞﾏﾂｼ","kana_address":"ﾋｶﾞｼﾔﾅｷﾞ","pref":"山口県","city":"下松市","address":"東柳"},
{"zip_code":"7440016","kana_pref":"ﾔﾏｸﾞﾁｹﾝ","kana_city":"ｸﾀﾞﾏﾂｼ","kana_address":"ﾋﾉｳｴ","pref":"山口県","city":"下松市","address":"樋ノ上"},
{"zip_code":"7440021","kana_pref":"ﾔﾏｸﾞﾁｹﾝ","kana_city":"ｸﾀﾞﾏﾂｼ","kana_address":"ﾋﾗﾀ","pref":"山口県","city":"下松市","address":"平田"},
{"zip_code":"7440021","kana_pref":"ﾔﾏｸﾞﾁｹﾝ","kana_city":"ｸﾀﾞﾏﾂｼ","kana_address":"ﾋﾗﾀ","pref":"山口県","city":"下松市","address":"平田"},
{"zip_code":"7440021","kana_pref":"ﾔﾏｸﾞﾁｹﾝ","kana_city":"ｸﾀﾞﾏﾂｼ","kana_address":"ﾋﾗﾀ","pref":"山口県","city":"下松市","address":"平田"},
{"zip_code":"7440005","kana_pref":"ﾔﾏｸﾞﾁｹﾝ","kana_city":"ｸﾀﾞﾏﾂｼ","kana_address":"ﾌﾙｶﾜﾁｮｳ","pref":"山口県","city":"下松市","address":"古川町"},
{"zip_code":"7440012","kana_pref":"ﾔﾏｸﾞﾁｹﾝ","kana_city":"ｸﾀﾞﾏﾂｼ","kana_address":"ﾎｸﾄﾁｮｳ","pref":"山口県","city":"下松市","address":"北斗町"},
{"zip_code":"7440065","kana_pref":"ﾔﾏｸﾞﾁｹﾝ","kana_city":"ｸﾀﾞﾏﾂｼ","kana_address":"ﾎｼｶﾞｵｶ","pref":"山口県","city":"下松市","address":"星が丘"},
{"zip_code":"7440073","kana_pref":"ﾔﾏｸﾞﾁｹﾝ","kana_city":"ｸﾀﾞﾏﾂｼ","kana_address":"ﾐｻﾄﾁｮｳ","pref":"山口県","city":"下松市","address":"美里町"},
{"zip_code":"7440075","kana_pref":"ﾔﾏｸﾞﾁｹﾝ","kana_city":"ｸﾀﾞﾏﾂｼ","kana_address":"ﾐｽﾞﾎﾁｮｳ","pref":"山口県","city":"下松市","address":"瑞穂町"},
{"zip_code":"7440027","kana_pref":"ﾔﾏｸﾞﾁｹﾝ","kana_city":"ｸﾀﾞﾏﾂｼ","kana_address":"ﾐﾅﾐﾊﾅｵｶ","pref":"山口県","city":"下松市","address":"南花岡"},
{"zip_code":"7440052","kana_pref":"ﾔﾏｸﾞﾁｹﾝ","kana_city":"ｸﾀﾞﾏﾂｼ","kana_address":"ﾓﾓﾔﾏﾁｮｳ","pref":"山口県","city":"下松市","address":"桃山町"},
{"zip_code":"7440041","kana_pref":"ﾔﾏｸﾞﾁｹﾝ","kana_city":"ｸﾀﾞﾏﾂｼ","kana_address":"ﾔﾏﾀﾞ","pref":"山口県","city":"下松市","address":"山田"},
{"zip_code":"7440041","kana_pref":"ﾔﾏｸﾞﾁｹﾝ","kana_city":"ｸﾀﾞﾏﾂｼ","kana_address":"ﾔﾏﾀﾞ","pref":"山口県","city":"下松市","address":"山田"},
{"zip_code":"7440041","kana_pref":"ﾔﾏｸﾞﾁｹﾝ","kana_city":"ｸﾀﾞﾏﾂｼ","kana_address":"ﾔﾏﾀﾞ","pref":"山口県","city":"下松市","address":"山田"},
{"zip_code":"7440041","kana_pref":"ﾔﾏｸﾞﾁｹﾝ","kana_city":"ｸﾀﾞﾏﾂｼ","kana_address":"ﾔﾏﾀﾞ","pref":"山口県","city":"下松市","address":"山田"},
{"zip_code":"7440041","kana_pref":"ﾔﾏｸﾞﾁｹﾝ","kana_city":"ｸﾀﾞﾏﾂｼ","kana_address":"ﾔﾏﾀﾞ","pref":"山口県","city":"下松市","address":"山田"},
{"zip_code":"7440276","kana_pref":"ﾔﾏｸﾞﾁｹﾝ","kana_city":"ｸﾀﾞﾏﾂｼ","kana_address":"ﾖﾈｶﾞﾜ","pref":"山口県","city":"下松市","address":"米川"},
{"zip_code":"7440063","kana_pref":"ﾔﾏｸﾞﾁｹﾝ","kana_city":"ｸﾀﾞﾏﾂｼ","kana_address":"ﾜｶﾐﾔﾁｮｳ","pref":"山口県","city":"下松市","address":"若宮町"}]}