{"zip_code":[
{"zip_code":"7450000","kana_pref":"ﾔﾏｸﾞﾁｹﾝ","kana_city":"ｼｭｳﾅﾝｼ","kana_address":"","pref":"山口県","city":"周南市","address":""},
{"zip_code":"7450055","kana_pref":"ﾔﾏｸﾞﾁｹﾝ","kana_city":"ｼｭｳﾅﾝｼ","kana_address":"ｱｲｵｲﾁｮｳ","pref":"山口県","city":"周南市","address":"相生町"},
{"zip_code":"7450842","kana_pref":"ﾔﾏｸﾞﾁｹﾝ","kana_city":"ｼｭｳﾅﾝｼ","kana_address":"ｱｵﾔﾏﾁｮｳ","pref":"山口県","city":"周南市","address":"青山町"},
{"zip_code":"7450825","kana_pref":"ﾔﾏｸﾞﾁｹﾝ","kana_city":"ｼｭｳﾅﾝｼ","kana_address":"ｱｷﾂﾞｷ","pref":"山口県","city":"周南市","address":"秋月"},
{"zip_code":"7450821","kana_pref":"ﾔﾏｸﾞﾁｹﾝ","kana_city":"ｼｭｳﾅﾝｼ","kana_address":"ｱｹﾎﾞﾉﾁｮｳ","pref":"山口県","city":"周南市","address":"曙町"},
{"zip_code":"7450124","kana_pref":"ﾔﾏｸﾞﾁｹﾝ","kana_city":"ｼｭｳﾅﾝｼ","kana_address":"ｱﾄﾞｳｼﾞ","pref":"山口県","city":"周南市","address":"莇地"},
{"zip_code":"7450014","kana_pref":"ﾔﾏｸﾞﾁｹﾝ","kana_city":"ｼｭｳﾅﾝｼ","kana_address":"ｲｲｼﾞﾏﾁｮｳ","pref":"山口県","city":"周南市","address":"飯島町"},
{"zip_code":"7450833","kana_pref":"ﾔﾏｸﾞﾁｹﾝ","kana_city":"ｼｭｳﾅﾝｼ","kana_address":"ｲｽﾞﾐﾊﾞﾗﾁｮｳ","pref":"山口県","city":"周南市","address":"泉原町"},
{"zip_code":"7450882","kana_pref":"ﾔﾏｸﾞﾁｹﾝ","kana_city":"ｼｭｳﾅﾝｼ","kana_address":"ｲﾁﾉｲﾃﾞ","pref":"山口県","city":"周南市","address":"一の井手"},
{"zip_code":"7450872","kana_pref":"ﾔﾏｸﾞﾁｹﾝ","kana_city":"ｼｭｳﾅﾝｼ","kana_address":"ｲﾁﾊﾞﾝﾁｮｳ","pref":"山口県","city":"周南市","address":"一番町"},
{"zip_code":"7450074","kana_pref":"ﾔﾏｸﾞﾁｹﾝ","kana_city":"ｼｭｳﾅﾝｼ","kana_address":"ｲﾏｼﾞｭｸﾁｮｳ","pref":"山口県","city":"周南市","address":"今宿町"},
{"zip_code":"7450063","kana_pref":"ﾔﾏｸﾞﾁｹﾝ","kana_city":"ｼｭｳﾅﾝｼ","kana_address":"ｲﾏｽﾞﾐﾁｮｳ","pref":"山口県","city":"周南市","address":"今住町"},
{"zip_code":"7450047","kana_pref":"ﾔﾏｸﾞﾁｹﾝ","kana_city":"ｼｭｳﾅﾝｼ","kana_address":"ｲﾘﾌﾈﾁｮｳ","pref":"山口県","city":"周南市","address":"入船町"},
{"zip_code":"7450887","kana_pref":"ﾔﾏｸﾞﾁｹﾝ","kana_city":"ｼｭｳﾅﾝｼ","kana_address":"ｳﾏﾔ","pref":"山口県","city":"周南市","address":"馬屋"},
{"zip_code":"7450076","kana_pref":"ﾔﾏｸﾞﾁｹﾝ","kana_city":"ｼｭｳﾅﾝｼ","kana_address":"ｳﾒｿﾞﾉﾁｮｳ","pref":"山口県","city":"周南市","address":"梅園町"},
{"zip_code":"7450856","kana_pref":"ﾔﾏｸﾞﾁｹﾝ","kana_city":"ｼｭｳﾅﾝｼ","kana_address":"ｳﾗﾔﾏ","pref":"山口県","city":"周南市","address":"浦山"},
{"zip_code":"7450857","kana_pref":"ﾔﾏｸﾞﾁｹﾝ","kana_city":"ｼｭｳﾅﾝｼ","kana_address":"ｳﾗﾔﾏｶｲｻｸ","pref":"山口県","city":"周南市","address":"浦山開作"},
{"zip_code":"7450862","kana_pref":"ﾔﾏｸﾞﾁｹﾝ","kana_city":"ｼｭｳﾅﾝｼ","kana_address":"ｴｸﾞﾁ","pref":"山口県","city":"周南市","address":"江口"},
{"zip_code":"7450826","kana_pref":"ﾔﾏｸﾞﾁｹﾝ","kana_city":"ｼｭｳﾅﾝｼ","kana_address":"ｴﾉﾐﾔﾁｮｳ","pref":"山口県","city":"周南市","address":"江の宮町"},
{"zip_code":"7450041","kana_pref":"ﾔﾏｸﾞﾁｹﾝ","kana_city":"ｼｭｳﾅﾝｼ","kana_address":"ｴﾋﾞｽﾏﾁ","pref":"山口県","city":"周南市","address":"戎町"},
{"zip_code":"7450832","kana_pref":"ﾔﾏｸﾞﾁｹﾝ","kana_city":"ｼｭｳﾅﾝｼ","kana_address":"ｵｳｷﾞﾁｮｳ","pref":"山口県","city":"周南市","address":"扇町"},
{"zip_code":"7450824","kana_pref":"ﾔﾏｸﾞﾁｹﾝ","kana_city":"ｼｭｳﾅﾝｼ","kana_address":"ｵｵｳﾁﾁｮｳ","pref":"山口県","city":"周南市","address":"大内町"},
{"zip_code":"7450651","kana_pref":"ﾔﾏｸﾞﾁｹﾝ","kana_city":"ｼｭｳﾅﾝｼ","kana_address":"ｵｵｶﾜﾁ","pref":"山口県","city":"周南市","address":"大河内"},
{"zip_code":"7450301","kana_pref":"ﾔﾏｸﾞﾁｹﾝ","kana_city":"ｼｭｳﾅﾝｼ","kana_address":"ｵｵｼｵ","pref":"山口県","city":"周南市","address":"大潮"},
{"zip_code":"7450803","kana_pref":"ﾔﾏｸﾞﾁｹﾝ","kana_city":"ｼｭｳﾅﾝｼ","kana_address":"ｵｵｼﾏ","pref":"山口県","city":"周南市","address":"大島"},
{"zip_code":"7450057","kana_pref":"ﾔﾏｸﾞﾁｹﾝ","kana_city":"ｼｭｳﾅﾝｼ","kana_address":"ｵｵﾂﾞｼﾏ","pref":"山口県","city":"周南市","address":"大津島"},
{"zip_code":"7450242","kana_pref":"ﾔﾏｸﾞﾁｹﾝ","kana_city":"ｼｭｳﾅﾝｼ","kana_address":"ｵｵﾄﾞｳﾘ","pref":"山口県","city":"周南市","address":"大道理"},
{"zip_code":"7450241","kana_pref":"ﾔﾏｸﾞﾁｹﾝ","kana_city":"ｼｭｳﾅﾝｼ","kana_address":"ｵｵﾑｶｲ","pref":"山口県","city":"周南市","address":"大向"},
{"zip_code":"7450066","kana_pref":"ﾔﾏｸﾞﾁｹﾝ","kana_city":"ｼｭｳﾅﾝｼ","kana_address":"ｵｶﾀﾞﾁｮｳ","pref":"山口県","city":"周南市","address":"岡田町"},
{"zip_code":"7450051","kana_pref":"ﾔﾏｸﾞﾁｹﾝ","kana_city":"ｼｭｳﾅﾝｼ","kana_address":"ｵｷﾐﾁｮｳ","pref":"山口県","city":"周南市","address":"沖見町"},
{"zip_code":"7450611","kana_pref":"ﾔﾏｸﾞﾁｹﾝ","kana_city":"ｼｭｳﾅﾝｼ","kana_address":"ｵｸｾｷﾔ","pref":"山口県","city":"周南市","address":"奥関屋"},
{"zip_code":"7450871","kana_pref":"ﾔﾏｸﾞﾁｹﾝ","kana_city":"ｼｭｳﾅﾝｼ","kana_address":"ｵﾕﾐﾁｮｳ","pref":"山口県","city":"周南市","address":"御弓町"},
{"zip_code":"7450615","kana_pref":"ﾔﾏｸﾞﾁｹﾝ","kana_city":"ｼｭｳﾅﾝｼ","kana_address":"ｶﾂﾏｶﾞｵｶ","pref":"山口県","city":"周南市","address":"勝間ヶ丘"},
{"zip_code":"7450617","kana_pref":"ﾔﾏｸﾞﾁｹﾝ","kana_city":"ｼｭｳﾅﾝｼ","kana_address":"ｶﾂﾏﾊﾞﾗ","pref":"山口県","city":"周南市","address":"勝間原"},
{"zip_code":"7450302","kana_pref":"ﾔﾏｸﾞﾁｹﾝ","kana_city":"ｼｭｳﾅﾝｼ","kana_address":"ｶﾉｶﾐ","pref":"山口県","city":"周南市","address":"鹿野上"},
{"zip_code":"7450304","kana_pref":"ﾔﾏｸﾞﾁｹﾝ","kana_city":"ｼｭｳﾅﾝｼ","kana_address":"ｶﾉｼﾓ","pref":"山口県","city":"周南市","address":"鹿野下"},
{"zip_code":"7450303","kana_pref":"ﾔﾏｸﾞﾁｹﾝ","kana_city":"ｼｭｳﾅﾝｼ","kana_address":"ｶﾉﾅｶ","pref":"山口県","city":"周南市","address":"鹿野中"},
{"zip_code":"7450817","kana_pref":"ﾔﾏｸﾞﾁｹﾝ","kana_city":"ｼｭｳﾅﾝｼ","kana_address":"ｶﾐﾄｲｼﾁｮｳ","pref":"山口県","city":"周南市","address":"上遠石町"},
{"zip_code":"7450858","kana_pref":"ﾔﾏｸﾞﾁｹﾝ","kana_city":"ｼｭｳﾅﾝｼ","kana_address":"ｶﾖｳ","pref":"山口県","city":"周南市","address":"花陽"},
{"zip_code":"7450855","kana_pref":"ﾔﾏｸﾞﾁｹﾝ","kana_city":"ｼｭｳﾅﾝｼ","kana_address":"ｶﾜｶﾐ","pref":"山口県","city":"周南市","address":"川上"},
{"zip_code":"7450012","kana_pref":"ﾔﾏｸﾞﾁｹﾝ","kana_city":"ｼｭｳﾅﾝｼ","kana_address":"ｶﾜﾊﾞﾀﾁｮｳ","pref":"山口県","city":"周南市","address":"川端町"},
{"zip_code":"7450845","kana_pref":"ﾔﾏｸﾞﾁｹﾝ","kana_city":"ｼｭｳﾅﾝｼ","kana_address":"ｶﾜﾋｶﾞｼﾁｮｳ","pref":"山口県","city":"周南市","address":"河東町"},
{"zip_code":"7450852","kana_pref":"ﾔﾏｸﾞﾁｹﾝ","kana_city":"ｼｭｳﾅﾝｼ","kana_address":"ｶﾜﾏｶﾞﾘ","pref":"山口県","city":"周南市","address":"川曲"},
{"zip_code":"7450071","kana_pref":"ﾔﾏｸﾞﾁｹﾝ","kana_city":"ｼｭｳﾅﾝｼ","kana_address":"ｷｻﾝﾄﾞｵﾘ","pref":"山口県","city":"周南市","address":"岐山通り"},
{"zip_code":"7450864","kana_pref":"ﾔﾏｸﾞﾁｹﾝ","kana_city":"ｼｭｳﾅﾝｼ","kana_address":"ｷﾀﾔﾏ","pref":"山口県","city":"周南市","address":"北山"},
{"zip_code":"7450007","kana_pref":"ﾔﾏｸﾞﾁｹﾝ","kana_city":"ｼｭｳﾅﾝｼ","kana_address":"ｷﾅﾝﾁｮｳ","pref":"山口県","city":"周南市","address":"岐南町"},
{"zip_code":"7450032","kana_pref":"ﾔﾏｸﾞﾁｹﾝ","kana_city":"ｼｭｳﾅﾝｼ","kana_address":"ｷﾞﾝｻﾞ","pref":"山口県","city":"周南市","address":"銀座"},
{"zip_code":"7450031","kana_pref":"ﾔﾏｸﾞﾁｹﾝ","kana_city":"ｼｭｳﾅﾝｼ","kana_address":"ｷﾞﾝﾅﾝｶﾞｲ","pref":"山口県","city":"周南市","address":"銀南街"},
{"zip_code":"7450805","kana_pref":"ﾔﾏｸﾞﾁｹﾝ","kana_city":"ｼｭｳﾅﾝｼ","kana_address":"ｸｼｶﾞﾊﾏ","pref":"山口県","city":"周南市","address":"櫛ケ浜"},
{"zip_code":"7450831","kana_pref":"ﾔﾏｸﾞﾁｹﾝ","kana_city":"ｼｭｳﾅﾝｼ","kana_address":"ｸｽﾉｷ","pref":"山口県","city":"周南市","address":"楠木"},
{"zip_code":"7450663","kana_pref":"ﾔﾏｸﾞﾁｹﾝ","kana_city":"ｼｭｳﾅﾝｼ","kana_address":"ｸﾏｹﾞﾁｭｳｵｳﾁｮｳ","pref":"山口県","city":"周南市","address":"熊毛中央町"},
{"zip_code":"7450801","kana_pref":"ﾔﾏｸﾞﾁｹﾝ","kana_city":"ｼｭｳﾅﾝｼ","kana_address":"ｸﾒ","pref":"山口県","city":"周南市","address":"久米"},
{"zip_code":"7450802","kana_pref":"ﾔﾏｸﾞﾁｹﾝ","kana_city":"ｼｭｳﾅﾝｼ","kana_address":"ｸﾘﾔ","pref":"山口県","city":"周南市","address":"栗屋"},
{"zip_code":"7450886","kana_pref":"ﾔﾏｸﾞﾁｹﾝ","kana_city":"ｼｭｳﾅﾝｼ","kana_address":"ｸﾛｲﾜﾁｮｳ","pref":"山口県","city":"周南市","address":"黒岩町"},
{"zip_code":"7450836","kana_pref":"ﾔﾏｸﾞﾁｹﾝ","kana_city":"ｼｭｳﾅﾝｼ","kana_address":"ｹｲﾏﾝﾁｮｳ","pref":"山口県","city":"周南市","address":"慶万町"},
{"zip_code":"7450874","kana_pref":"ﾔﾏｸﾞﾁｹﾝ","kana_city":"ｼｭｳﾅﾝｼ","kana_address":"ｺｳｴﾝｸ","pref":"山口県","city":"周南市","address":"公園区"},
{"zip_code":"7450027","kana_pref":"ﾔﾏｸﾞﾁｹﾝ","kana_city":"ｼｭｳﾅﾝｼ","kana_address":"ｺｳｼﾞﾏﾁ","pref":"山口県","city":"周南市","address":"糀町"},
{"zip_code":"7450822","kana_pref":"ﾔﾏｸﾞﾁｹﾝ","kana_city":"ｼｭｳﾅﾝｼ","kana_address":"ｺｳﾀﾞﾁｮｳ","pref":"山口県","city":"周南市","address":"孝田町"},
{"zip_code":"7450878","kana_pref":"ﾔﾏｸﾞﾁｹﾝ","kana_city":"ｼｭｳﾅﾝｼ","kana_address":"ｺｳﾉﾀﾞｲ","pref":"山口県","city":"周南市","address":"幸の台"},
{"zip_code":"7450814","kana_pref":"ﾔﾏｸﾞﾁｹﾝ","kana_city":"ｼｭｳﾅﾝｼ","kana_address":"ｺｶｲ","pref":"山口県","city":"周南市","address":"鼓海"},
{"zip_code":"7450614","kana_pref":"ﾔﾏｸﾞﾁｹﾝ","kana_city":"ｼｭｳﾅﾝｼ","kana_address":"ｺﾞｼｮｵﾊﾞﾗ","pref":"山口県","city":"周南市","address":"御所尾原"},
{"zip_code":"7450005","kana_pref":"ﾔﾏｸﾞﾁｹﾝ","kana_city":"ｼｭｳﾅﾝｼ","kana_address":"ｺﾀﾞﾏﾁｮｳ","pref":"山口県","city":"周南市","address":"児玉町"},
{"zip_code":"7450641","kana_pref":"ﾔﾏｸﾞﾁｹﾝ","kana_city":"ｼｭｳﾅﾝｼ","kana_address":"ｺﾏﾂﾊﾞﾗ","pref":"山口県","city":"周南市","address":"小松原"},
{"zip_code":"7450046","kana_pref":"ﾔﾏｸﾞﾁｹﾝ","kana_city":"ｼｭｳﾅﾝｼ","kana_address":"ｺﾞﾝｹﾞﾝﾁｮｳ","pref":"山口県","city":"周南市","address":"権現町"},
{"zip_code":"7450883","kana_pref":"ﾔﾏｸﾞﾁｹﾝ","kana_city":"ｼｭｳﾅﾝｼ","kana_address":"ｻｶｴﾀﾞﾆ","pref":"山口県","city":"周南市","address":"栄谷"},
{"zip_code":"7450037","kana_pref":"ﾔﾏｸﾞﾁｹﾝ","kana_city":"ｼｭｳﾅﾝｼ","kana_address":"ｻｶｴﾏﾁ","pref":"山口県","city":"周南市","address":"栄町"},
{"zip_code":"7450806","kana_pref":"ﾔﾏｸﾞﾁｹﾝ","kana_city":"ｼｭｳﾅﾝｼ","kana_address":"ｻｸﾗｷﾞ","pref":"山口県","city":"周南市","address":"桜木"},
{"zip_code":"7450011","kana_pref":"ﾔﾏｸﾞﾁｹﾝ","kana_city":"ｼｭｳﾅﾝｼ","kana_address":"ｻｸﾗﾊﾞﾊﾞﾄﾞｵﾘ","pref":"山口県","city":"周南市","address":"桜馬場通り"},
{"zip_code":"7450652","kana_pref":"ﾔﾏｸﾞﾁｹﾝ","kana_city":"ｼｭｳﾅﾝｼ","kana_address":"ｻﾁｶﾞｵｶ","pref":"山口県","city":"周南市","address":"幸ケ丘"},
{"zip_code":"7450811","kana_pref":"ﾔﾏｸﾞﾁｹﾝ","kana_city":"ｼｭｳﾅﾝｼ","kana_address":"ｻﾂｷﾁｮｳ","pref":"山口県","city":"周南市","address":"五月町"},
{"zip_code":"7450003","kana_pref":"ﾔﾏｸﾞﾁｹﾝ","kana_city":"ｼｭｳﾅﾝｼ","kana_address":"ｻﾝﾊﾞﾝﾁｮｳ","pref":"山口県","city":"周南市","address":"三番町"},
{"zip_code":"7450834","kana_pref":"ﾔﾏｸﾞﾁｹﾝ","kana_city":"ｼｭｳﾅﾝｼ","kana_address":"ｼﾐｽﾞﾁｮｳ","pref":"山口県","city":"周南市","address":"清水町"},
{"zip_code":"7450654","kana_pref":"ﾔﾏｸﾞﾁｹﾝ","kana_city":"ｼｭｳﾅﾝｼ","kana_address":"ｼﾞﾕｳｶﾞｵｶ","pref":"山口県","city":"周南市","address":"自由ケ丘"},
{"zip_code":"7450823","kana_pref":"ﾔﾏｸﾞﾁｹﾝ","kana_city":"ｼｭｳﾅﾝｼ","kana_address":"ｼｭｳﾖｳ","pref":"山口県","city":"周南市","address":"周陽"},
{"zip_code":"7450807","kana_pref":"ﾔﾏｸﾞﾁｹﾝ","kana_city":"ｼｭｳﾅﾝｼ","kana_address":"ｼﾞｮｳｶﾞｵｶ","pref":"山口県","city":"周南市","address":"城ケ丘"},
{"zip_code":"7450853","kana_pref":"ﾔﾏｸﾞﾁｹﾝ","kana_city":"ｼｭｳﾅﾝｼ","kana_address":"ｼﾞｮｳｿﾝ","pref":"山口県","city":"周南市","address":"上村"},
{"zip_code":"7450061","kana_pref":"ﾔﾏｸﾞﾁｹﾝ","kana_city":"ｼｭｳﾅﾝｼ","kana_address":"ｼｮｳﾛｳﾁｮｳ","pref":"山口県","city":"周南市","address":"鐘楼町"},
{"zip_code":"7450013","kana_pref":"ﾔﾏｸﾞﾁｹﾝ","kana_city":"ｼｭｳﾅﾝｼ","kana_address":"ｼｮｳﾜﾄﾞｵﾘ","pref":"山口県","city":"周南市","address":"昭和通り"},
{"zip_code":"7450843","kana_pref":"ﾔﾏｸﾞﾁｹﾝ","kana_city":"ｼｭｳﾅﾝｼ","kana_address":"ｼﾝｸﾞｳﾁｮｳ","pref":"山口県","city":"周南市","address":"新宮町"},
{"zip_code":"7450056","kana_pref":"ﾔﾏｸﾞﾁｹﾝ","kana_city":"ｼｭｳﾅﾝｼ","kana_address":"ｼﾝｼﾞｭｸﾄﾞｵﾘ","pref":"山口県","city":"周南市","address":"新宿通"},
{"zip_code":"7450643","kana_pref":"ﾔﾏｸﾞﾁｹﾝ","kana_city":"ｼｭｳﾅﾝｼ","kana_address":"ｼﾝｾｲｺｳﾀﾞｲ","pref":"山口県","city":"周南市","address":"新清光台"},
{"zip_code":"7450861","kana_pref":"ﾔﾏｸﾞﾁｹﾝ","kana_city":"ｼｭｳﾅﾝｼ","kana_address":"ｼﾝﾁ","pref":"山口県","city":"周南市","address":"新地"},
{"zip_code":"7450867","kana_pref":"ﾔﾏｸﾞﾁｹﾝ","kana_city":"ｼｭｳﾅﾝｼ","kana_address":"ｼﾝﾎﾞﾘ","pref":"山口県","city":"周南市","address":"新堀"},
{"zip_code":"7450017","kana_pref":"ﾔﾏｸﾞﾁｹﾝ","kana_city":"ｼｭｳﾅﾝｼ","kana_address":"ｼﾝﾏﾁ","pref":"山口県","city":"周南市","address":"新町"},
{"zip_code":"7450804","kana_pref":"ﾔﾏｸﾞﾁｹﾝ","kana_city":"ｼｭｳﾅﾝｼ","kana_address":"ｽｸﾓｼﾞﾏ","pref":"山口県","city":"周南市","address":"粭島"},
{"zip_code":"7450121","kana_pref":"ﾔﾏｸﾞﾁｹﾝ","kana_city":"ｼｭｳﾅﾝｼ","kana_address":"ｽｽﾏｵｸ","pref":"山口県","city":"周南市","address":"須々万奥"},
{"zip_code":"7450122","kana_pref":"ﾔﾏｸﾞﾁｹﾝ","kana_city":"ｼｭｳﾅﾝｼ","kana_address":"ｽｽﾏﾎﾝｺﾞｳ","pref":"山口県","city":"周南市","address":"須々万本郷"},
{"zip_code":"7450401","kana_pref":"ﾔﾏｸﾞﾁｹﾝ","kana_city":"ｼｭｳﾅﾝｼ","kana_address":"ｽﾏ","pref":"山口県","city":"周南市","address":"須万"},
{"zip_code":"7450026","kana_pref":"ﾔﾏｸﾞﾁｹﾝ","kana_city":"ｼｭｳﾅﾝｼ","kana_address":"ｽﾐｻﾞｷﾁｮｳ","pref":"山口県","city":"周南市","address":"住崎町"},
{"zip_code":"7450064","kana_pref":"ﾔﾏｸﾞﾁｹﾝ","kana_city":"ｼｭｳﾅﾝｼ","kana_address":"ｽﾐﾖｼﾁｮｳ","pref":"山口県","city":"周南市","address":"住吉町"},
{"zip_code":"7450653","kana_pref":"ﾔﾏｸﾞﾁｹﾝ","kana_city":"ｼｭｳﾅﾝｼ","kana_address":"ｾｲｺｳﾀﾞｲﾁｮｳ","pref":"山口県","city":"周南市","address":"清光台町"},
{"zip_code":"7450623","kana_pref":"ﾔﾏｸﾞﾁｹﾝ","kana_city":"ｼｭｳﾅﾝｼ","kana_address":"ｾｲﾉｵ","pref":"山口県","city":"周南市","address":"清尾"},
{"zip_code":"7450827","kana_pref":"ﾔﾏｸﾞﾁｹﾝ","kana_city":"ｼｭｳﾅﾝｼ","kana_address":"ｾﾄﾐﾁｮｳ","pref":"山口県","city":"周南市","address":"瀬戸見町"},
{"zip_code":"7450885","kana_pref":"ﾔﾏｸﾞﾁｹﾝ","kana_city":"ｼｭｳﾅﾝｼ","kana_address":"ﾀｶｵﾀﾞﾝﾁ","pref":"山口県","city":"周南市","address":"高尾団地"},
{"zip_code":"7450662","kana_pref":"ﾔﾏｸﾞﾁｹﾝ","kana_city":"ｼｭｳﾅﾝｼ","kana_address":"ﾀｶﾐｽﾞﾊﾗ","pref":"山口県","city":"周南市","address":"高水原"},
{"zip_code":"7450025","kana_pref":"ﾔﾏｸﾞﾁｹﾝ","kana_city":"ｼｭｳﾅﾝｼ","kana_address":"ﾁｯｺｳﾁｮｳ","pref":"山口県","city":"周南市","address":"築港町"},
{"zip_code":"7450044","kana_pref":"ﾔﾏｸﾞﾁｹﾝ","kana_city":"ｼｭｳﾅﾝｼ","kana_address":"ﾁﾖﾀﾞﾁｮｳ","pref":"山口県","city":"周南市","address":"千代田町"},
{"zip_code":"7450062","kana_pref":"ﾔﾏｸﾞﾁｹﾝ","kana_city":"ｼｭｳﾅﾝｼ","kana_address":"ﾂｷｵｶﾁｮｳ","pref":"山口県","city":"周南市","address":"月丘町"},
{"zip_code":"7450001","kana_pref":"ﾔﾏｸﾞﾁｹﾝ","kana_city":"ｼｭｳﾅﾝｼ","kana_address":"ﾂｼﾞﾏﾁ","pref":"山口県","city":"周南市","address":"辻町"},
{"zip_code":"7450632","kana_pref":"ﾔﾏｸﾞﾁｹﾝ","kana_city":"ｼｭｳﾅﾝｼ","kana_address":"ﾂﾙﾐﾀﾞｲ","pref":"山口県","city":"周南市","address":"鶴見台"},
{"zip_code":"7450816","kana_pref":"ﾔﾏｸﾞﾁｹﾝ","kana_city":"ｼｭｳﾅﾝｼ","kana_address":"ﾄｲｼ","pref":"山口県","city":"周南市","address":"遠石"},
{"zip_code":"7450123","kana_pref":"ﾔﾏｸﾞﾁｹﾝ","kana_city":"ｼｭｳﾅﾝｼ","kana_address":"ﾄｸﾔﾏ","pref":"山口県","city":"周南市","address":"徳山"},
{"zip_code":"7450851","kana_pref":"ﾔﾏｸﾞﾁｹﾝ","kana_city":"ｼｭｳﾅﾝｼ","kana_address":"ﾄｸﾔﾏ","pref":"山口県","city":"周南市","address":"徳山"},
{"zip_code":"7450045","kana_pref":"ﾔﾏｸﾞﾁｹﾝ","kana_city":"ｼｭｳﾅﾝｼ","kana_address":"ﾄｸﾔﾏﾐﾅﾄﾏﾁ","pref":"山口県","city":"周南市","address":"徳山港町"},
{"zip_code":"7450876","kana_pref":"ﾔﾏｸﾞﾁｹﾝ","kana_city":"ｼｭｳﾅﾝｼ","kana_address":"ﾅｶｺﾝｺﾞｳｻﾞﾝ","pref":"山口県","city":"周南市","address":"中金剛山"},
{"zip_code":"7450511","kana_pref":"ﾔﾏｸﾞﾁｹﾝ","kana_city":"ｼｭｳﾅﾝｼ","kana_address":"ﾅｶｽﾞｷﾀ","pref":"山口県","city":"周南市","address":"中須北"},
{"zip_code":"7450512","kana_pref":"ﾔﾏｸﾞﾁｹﾝ","kana_city":"ｼｭｳﾅﾝｼ","kana_address":"ﾅｶｽﾞﾐﾅﾐ","pref":"山口県","city":"周南市","address":"中須南"},
{"zip_code":"7450854","kana_pref":"ﾔﾏｸﾞﾁｹﾝ","kana_city":"ｼｭｳﾅﾝｼ","kana_address":"ﾅｶﾉ","pref":"山口県","city":"周南市","address":"中野"},
{"zip_code":"7450125","kana_pref":"ﾔﾏｸﾞﾁｹﾝ","kana_city":"ｼｭｳﾅﾝｼ","kana_address":"ﾅｶﾞﾎ","pref":"山口県","city":"周南市","address":"長穂"},
{"zip_code":"7450642","kana_pref":"ﾔﾏｸﾞﾁｹﾝ","kana_city":"ｼｭｳﾅﾝｼ","kana_address":"ﾅｶﾑﾗ","pref":"山口県","city":"周南市","address":"中村"},
{"zip_code":"7450023","kana_pref":"ﾔﾏｸﾞﾁｹﾝ","kana_city":"ｼｭｳﾅﾝｼ","kana_address":"ﾅﾁﾁｮｳ","pref":"山口県","city":"周南市","address":"那智町"},
{"zip_code":"7450875","kana_pref":"ﾔﾏｸﾞﾁｹﾝ","kana_city":"ｼｭｳﾅﾝｼ","kana_address":"ﾆｼｺﾝｺﾞｳｻﾞﾝ","pref":"山口県","city":"周南市","address":"西金剛山"},
{"zip_code":"7450054","kana_pref":"ﾔﾏｸﾞﾁｹﾝ","kana_city":"ｼｭｳﾅﾝｼ","kana_address":"ﾆｼﾏﾂﾊﾞﾗ","pref":"山口県","city":"周南市","address":"西松原"},
{"zip_code":"7450884","kana_pref":"ﾔﾏｸﾞﾁｹﾝ","kana_city":"ｼｭｳﾅﾝｼ","kana_address":"ﾆﾉｲﾃﾞ","pref":"山口県","city":"周南市","address":"二の井手"},
{"zip_code":"7450002","kana_pref":"ﾔﾏｸﾞﾁｹﾝ","kana_city":"ｼｭｳﾅﾝｼ","kana_address":"ﾆﾊﾞﾝﾁｮｳ","pref":"山口県","city":"周南市","address":"二番町"},
{"zip_code":"7450042","kana_pref":"ﾔﾏｸﾞﾁｹﾝ","kana_city":"ｼｭｳﾅﾝｼ","kana_address":"ﾉｶﾞﾐﾁｮｳ","pref":"山口県","city":"周南市","address":"野上町"},
{"zip_code":"7450022","kana_pref":"ﾔﾏｸﾞﾁｹﾝ","kana_city":"ｼｭｳﾅﾝｼ","kana_address":"ﾊｼﾓﾄﾁｮｳ","pref":"山口県","city":"周南市","address":"橋本町"},
{"zip_code":"7450865","kana_pref":"ﾔﾏｸﾞﾁｹﾝ","kana_city":"ｼｭｳﾅﾝｼ","kana_address":"ﾊｽｶﾞｴｷ","pref":"山口県","city":"周南市","address":"蓮ケ浴"},
{"zip_code":"7450052","kana_pref":"ﾔﾏｸﾞﾁｹﾝ","kana_city":"ｼｭｳﾅﾝｼ","kana_address":"ﾊﾂﾈﾁｮｳ","pref":"山口県","city":"周南市","address":"初音町"},
{"zip_code":"7450006","kana_pref":"ﾔﾏｸﾞﾁｹﾝ","kana_city":"ｼｭｳﾅﾝｼ","kana_address":"ﾊﾅﾊﾞﾀｹﾁｮｳ","pref":"山口県","city":"周南市","address":"花畠町"},
{"zip_code":"7450844","kana_pref":"ﾔﾏｸﾞﾁｹﾝ","kana_city":"ｼｭｳﾅﾝｼ","kana_address":"ﾊﾔﾀﾏﾁｮｳ","pref":"山口県","city":"周南市","address":"速玉町"},
{"zip_code":"7450621","kana_pref":"ﾔﾏｸﾞﾁｹﾝ","kana_city":"ｼｭｳﾅﾝｼ","kana_address":"ﾊﾗ","pref":"山口県","city":"周南市","address":"原"},
{"zip_code":"7450065","kana_pref":"ﾔﾏｸﾞﾁｹﾝ","kana_city":"ｼｭｳﾅﾝｼ","kana_address":"ﾊﾗｼﾞｭｸﾁｮｳ","pref":"山口県","city":"周南市","address":"原宿町"},
{"zip_code":"7450024","kana_pref":"ﾔﾏｸﾞﾁｹﾝ","kana_city":"ｼｭｳﾅﾝｼ","kana_address":"ﾊﾙﾐﾁｮｳ","pref":"山口県","city":"周南市","address":"晴海町"},
{"zip_code":"7450877","kana_pref":"ﾔﾏｸﾞﾁｹﾝ","kana_city":"ｼｭｳﾅﾝｼ","kana_address":"ﾋｶﾞｼｺﾝｺﾞｳｻﾞﾝ","pref":"山口県","city":"周南市","address":"東金剛山"},
{"zip_code":"7450881","kana_pref":"ﾔﾏｸﾞﾁｹﾝ","kana_city":"ｼｭｳﾅﾝｼ","kana_address":"ﾋｶﾞｼﾂｼﾞ","pref":"山口県","city":"周南市","address":"東辻"},
{"zip_code":"7450846","kana_pref":"ﾔﾏｸﾞﾁｹﾝ","kana_city":"ｼｭｳﾅﾝｼ","kana_address":"ﾋｶﾞｼﾔﾏﾁｮｳ","pref":"山口県","city":"周南市","address":"東山町"},
{"zip_code":"7450622","kana_pref":"ﾔﾏｸﾞﾁｹﾝ","kana_city":"ｼｭｳﾅﾝｼ","kana_address":"ﾋｸﾞﾁ","pref":"山口県","city":"周南市","address":"樋口"},
{"zip_code":"7450866","kana_pref":"ﾔﾏｸﾞﾁｹﾝ","kana_city":"ｼｭｳﾅﾝｼ","kana_address":"ﾋｼﾞｺｼ","pref":"山口県","city":"周南市","address":"土越"},
{"zip_code":"7450808","kana_pref":"ﾔﾏｸﾞﾁｹﾝ","kana_city":"ｼｭｳﾅﾝｼ","kana_address":"ﾋﾗﾊﾞﾗﾁｮｳ","pref":"山口県","city":"周南市","address":"平原町"},
{"zip_code":"7450618","kana_pref":"ﾔﾏｸﾞﾁｹﾝ","kana_city":"ｼｭｳﾅﾝｼ","kana_address":"ﾌｼﾞｶﾞﾀﾞｲ","pref":"山口県","city":"周南市","address":"藤ヶ台"},
{"zip_code":"7450015","kana_pref":"ﾔﾏｸﾞﾁｹﾝ","kana_city":"ｼｭｳﾅﾝｼ","kana_address":"ﾍｲﾜﾄﾞｵﾘ","pref":"山口県","city":"周南市","address":"平和通り"},
{"zip_code":"7451131","kana_pref":"ﾔﾏｸﾞﾁｹﾝ","kana_city":"ｼｭｳﾅﾝｼ","kana_address":"ﾍﾀ","pref":"山口県","city":"周南市","address":"戸田"},
{"zip_code":"7450036","kana_pref":"ﾔﾏｸﾞﾁｹﾝ","kana_city":"ｼｭｳﾅﾝｼ","kana_address":"ﾎﾝﾏﾁ","pref":"山口県","city":"周南市","address":"本町"},
{"zip_code":"7450835","kana_pref":"ﾔﾏｸﾞﾁｹﾝ","kana_city":"ｼｭｳﾅﾝｼ","kana_address":"ﾏｲｸﾞﾙﾏﾁｮｳ","pref":"山口県","city":"周南市","address":"舞車町"},
{"zip_code":"7450847","kana_pref":"ﾔﾏｸﾞﾁｹﾝ","kana_city":"ｼｭｳﾅﾝｼ","kana_address":"ﾏﾂﾎﾁｮｳ","pref":"山口県","city":"周南市","address":"松保町"},
{"zip_code":"7450053","kana_pref":"ﾔﾏｸﾞﾁｹﾝ","kana_city":"ｼｭｳﾅﾝｼ","kana_address":"ﾐｶｹﾞﾁｮｳ","pref":"山口県","city":"周南市","address":"御影町"},
{"zip_code":"7450873","kana_pref":"ﾔﾏｸﾞﾁｹﾝ","kana_city":"ｼｭｳﾅﾝｼ","kana_address":"ﾐﾀｶﾞﾜ","pref":"山口県","city":"周南市","address":"三田川"},
{"zip_code":"7450402","kana_pref":"ﾔﾏｸﾞﾁｹﾝ","kana_city":"ｼｭｳﾅﾝｼ","kana_address":"ﾐﾀｹ","pref":"山口県","city":"周南市","address":"金峰"},
{"zip_code":"7450616","kana_pref":"ﾔﾏｸﾞﾁｹﾝ","kana_city":"ｼｭｳﾅﾝｼ","kana_address":"ﾐﾄﾞﾘｶﾞｵｶ","pref":"山口県","city":"周南市","address":"緑ケ丘"},
{"zip_code":"7450075","kana_pref":"ﾔﾏｸﾞﾁｹﾝ","kana_city":"ｼｭｳﾅﾝｼ","kana_address":"ﾐﾄﾞﾘﾏﾁ","pref":"山口県","city":"周南市","address":"緑町"},
{"zip_code":"7450868","kana_pref":"ﾔﾏｸﾞﾁｹﾝ","kana_city":"ｼｭｳﾅﾝｼ","kana_address":"ﾐﾅﾐｳﾗﾔﾏﾁｮｳ","pref":"山口県","city":"周南市","address":"南浦山町"},
{"zip_code":"7450033","kana_pref":"ﾔﾏｸﾞﾁｹﾝ","kana_city":"ｼｭｳﾅﾝｼ","kana_address":"ﾐﾅﾐｷﾞﾝｻﾞ","pref":"山口県","city":"周南市","address":"みなみ銀座"},
{"zip_code":"7450043","kana_pref":"ﾔﾏｸﾞﾁｹﾝ","kana_city":"ｼｭｳﾅﾝｼ","kana_address":"ﾐﾔｺﾏﾁ","pref":"山口県","city":"周南市","address":"都町"},
{"zip_code":"7450815","kana_pref":"ﾔﾏｸﾞﾁｹﾝ","kana_city":"ｼｭｳﾅﾝｼ","kana_address":"ﾐﾔﾏｴﾁｮｳ","pref":"山口県","city":"周南市","address":"宮前町"},
{"zip_code":"7450863","kana_pref":"ﾔﾏｸﾞﾁｹﾝ","kana_city":"ｼｭｳﾅﾝｼ","kana_address":"ﾐﾔﾏﾁｮｳ","pref":"山口県","city":"周南市","address":"御山町"},
{"zip_code":"7450034","kana_pref":"ﾔﾏｸﾞﾁｹﾝ","kana_city":"ｼｭｳﾅﾝｼ","kana_address":"ﾐﾕｷﾄﾞｵﾘ","pref":"山口県","city":"周南市","address":"御幸通り"},
{"zip_code":"7450004","kana_pref":"ﾔﾏｸﾞﾁｹﾝ","kana_city":"ｼｭｳﾅﾝｼ","kana_address":"ﾓｳﾘﾁｮｳ","pref":"山口県","city":"周南市","address":"毛利町"},
{"zip_code":"7450501","kana_pref":"ﾔﾏｸﾞﾁｹﾝ","kana_city":"ｼｭｳﾅﾝｼ","kana_address":"ﾔｼﾛ","pref":"山口県","city":"周南市","address":"八代"},
{"zip_code":"7450631","kana_pref":"ﾔﾏｸﾞﾁｹﾝ","kana_city":"ｼｭｳﾅﾝｼ","kana_address":"ﾔｽﾀﾞ","pref":"山口県","city":"周南市","address":"安田"},
{"zip_code":"7450021","kana_pref":"ﾔﾏｸﾞﾁｹﾝ","kana_city":"ｼｭｳﾅﾝｼ","kana_address":"ﾔﾅｷﾞﾏﾁ","pref":"山口県","city":"周南市","address":"柳町"},
{"zip_code":"7450072","kana_pref":"ﾔﾏｸﾞﾁｹﾝ","kana_city":"ｼｭｳﾅﾝｼ","kana_address":"ﾔﾖｲﾁｮｳ","pref":"山口県","city":"周南市","address":"弥生町"},
{"zip_code":"7450035","kana_pref":"ﾔﾏｸﾞﾁｹﾝ","kana_city":"ｼｭｳﾅﾝｼ","kana_address":"ﾕｳﾗｸﾁｮｳ","pref":"山口県","city":"周南市","address":"有楽町"},
{"zip_code":"7450813","kana_pref":"ﾔﾏｸﾞﾁｹﾝ","kana_city":"ｼｭｳﾅﾝｼ","kana_address":"ﾕｶﾁｮｳ","pref":"山口県","city":"周南市","address":"由加町"},
{"zip_code":"7450837","kana_pref":"ﾔﾏｸﾞﾁｹﾝ","kana_city":"ｼｭｳﾅﾝｼ","kana_address":"ﾕｽﾞﾘﾊ","pref":"山口県","city":"周南市","address":"譲羽"},
{"zip_code":"7451132","kana_pref":"ﾔﾏｸﾞﾁｹﾝ","kana_city":"ｼｭｳﾅﾝｼ","kana_address":"ﾕﾉ","pref":"山口県","city":"周南市","address":"湯野"},
{"zip_code":"7450613","kana_pref":"ﾔﾏｸﾞﾁｹﾝ","kana_city":"ｼｭｳﾅﾝｼ","kana_address":"ﾕﾒｶﾞｵｶ","pref":"山口県","city":"周南市","address":"夢ケ丘"},
{"zip_code":"7450812","kana_pref":"ﾔﾏｸﾞﾁｹﾝ","kana_city":"ｼｭｳﾅﾝｼ","kana_address":"ﾖｺﾊﾏﾁｮｳ","pref":"山口県","city":"周南市","address":"横浜町"},
{"zip_code":"7450612","kana_pref":"ﾔﾏｸﾞﾁｹﾝ","kana_city":"ｼｭｳﾅﾝｼ","kana_address":"ﾖﾋﾞｻｶ","pref":"山口県","city":"周南市","address":"呼坂"},
{"zip_code":"7450661","kana_pref":"ﾔﾏｸﾞﾁｹﾝ","kana_city":"ｼｭｳﾅﾝｼ","kana_address":"ﾖﾋﾞｻｶﾎﾝﾏﾁ","pref":"山口県","city":"周南市","address":"呼坂本町"},
{"zip_code":"7450073","kana_pref":"ﾔﾏｸﾞﾁｹﾝ","kana_city":"ｼｭｳﾅﾝｼ","kana_address":"ﾖﾖｷﾞﾄﾞｵﾘ","pref":"山口県","city":"周南市","address":"代々木通り"},
{"zip_code":"7450841","kana_pref":"ﾔﾏｸﾞﾁｹﾝ","kana_city":"ｼｭｳﾅﾝｼ","kana_address":"ﾜｶｸｻﾁｮｳ","pref":"山口県","city":"周南市","address":"若草町"},
{"zip_code":"7450016","kana_pref":"ﾔﾏｸﾞﾁｹﾝ","kana_city":"ｼｭｳﾅﾝｼ","kana_address":"ﾜｶﾐﾔﾁｮｳ","pref":"山口県","city":"周南市","address":"若宮町"}]}