{"zip_code":[
{"zip_code":"7471221","kana_pref":"ﾔﾏｸﾞﾁｹﾝ","kana_city":"ﾔﾏｸﾞﾁｼ","kana_address":"ｽｾﾞﾝｼﾞ","pref":"山口県","city":"山口市","address":"鋳銭司"},
{"zip_code":"7470232","kana_pref":"ﾔﾏｸﾞﾁｹﾝ","kana_city":"ﾔﾏｸﾞﾁｼ","kana_address":"ﾄｸﾁﾞｲｶｼﾞ","pref":"山口県","city":"山口市","address":"徳地伊賀地"},
{"zip_code":"7470234","kana_pref":"ﾔﾏｸﾞﾁｹﾝ","kana_city":"ﾔﾏｸﾞﾁｼ","kana_address":"ﾄｸﾁﾞｵｺﾞｿ","pref":"山口県","city":"山口市","address":"徳地小古祖"},
{"zip_code":"7470523","kana_pref":"ﾔﾏｸﾞﾁｹﾝ","kana_city":"ﾔﾏｸﾞﾁｼ","kana_address":"ﾄｸﾁﾞｶﾐﾑﾗ","pref":"山口県","city":"山口市","address":"徳地上村"},
{"zip_code":"7470233","kana_pref":"ﾔﾏｸﾞﾁｹﾝ","kana_city":"ﾔﾏｸﾞﾁｼ","kana_address":"ﾄｸﾁﾞｷｼﾐ","pref":"山口県","city":"山口市","address":"徳地岸見"},
{"zip_code":"7470612","kana_pref":"ﾔﾏｸﾞﾁｹﾝ","kana_city":"ﾔﾏｸﾞﾁｼ","kana_address":"ﾄｸﾁﾞｸｼ","pref":"山口県","city":"山口市","address":"徳地串"},
{"zip_code":"7470611","kana_pref":"ﾔﾏｸﾞﾁｹﾝ","kana_city":"ﾔﾏｸﾞﾁｼ","kana_address":"ﾄｸﾁﾞｻﾊﾞｺﾞｳﾁ","pref":"山口県","city":"山口市","address":"徳地鯖河内"},
{"zip_code":"7470522","kana_pref":"ﾔﾏｸﾞﾁｹﾝ","kana_city":"ﾔﾏｸﾞﾁｼ","kana_address":"ﾄｸﾁﾞｼﾏｼﾞ","pref":"山口県","city":"山口市","address":"徳地島地"},
{"zip_code":"7470401","kana_pref":"ﾔﾏｸﾞﾁｹﾝ","kana_city":"ﾔﾏｸﾞﾁｼ","kana_address":"ﾄｸﾁﾞﾉﾀﾆ","pref":"山口県","city":"山口市","address":"徳地野谷"},
{"zip_code":"7470341","kana_pref":"ﾔﾏｸﾞﾁｹﾝ","kana_city":"ﾔﾏｸﾞﾁｼ","kana_address":"ﾄｸﾁﾞﾋｸﾀﾆ","pref":"山口県","city":"山口市","address":"徳地引谷"},
{"zip_code":"7470235","kana_pref":"ﾔﾏｸﾞﾁｹﾝ","kana_city":"ﾔﾏｸﾞﾁｼ","kana_address":"ﾄｸﾁﾞﾌｶﾀﾞﾆ","pref":"山口県","city":"山口市","address":"徳地深谷"},
{"zip_code":"7470524","kana_pref":"ﾔﾏｸﾞﾁｹﾝ","kana_city":"ﾔﾏｸﾞﾁｼ","kana_address":"ﾄｸﾁﾞﾌｼﾞｷ","pref":"山口県","city":"山口市","address":"徳地藤木"},
{"zip_code":"7470342","kana_pref":"ﾔﾏｸﾞﾁｹﾝ","kana_city":"ﾔﾏｸﾞﾁｼ","kana_address":"ﾄｸﾁﾞﾌﾅｼﾞ","pref":"山口県","city":"山口市","address":"徳地船路"},
{"zip_code":"7470231","kana_pref":"ﾔﾏｸﾞﾁｹﾝ","kana_city":"ﾔﾏｸﾞﾁｼ","kana_address":"ﾄｸﾁﾞﾎﾘ","pref":"山口県","city":"山口市","address":"徳地堀"},
{"zip_code":"7470343","kana_pref":"ﾔﾏｸﾞﾁｹﾝ","kana_city":"ﾔﾏｸﾞﾁｼ","kana_address":"ﾄｸﾁﾞﾐﾀﾆ","pref":"山口県","city":"山口市","address":"徳地三谷"},
{"zip_code":"7470344","kana_pref":"ﾔﾏｸﾞﾁｹﾝ","kana_city":"ﾔﾏｸﾞﾁｼ","kana_address":"ﾄｸﾁﾞﾔｻｶ","pref":"山口県","city":"山口市","address":"徳地八坂"},
{"zip_code":"7470521","kana_pref":"ﾔﾏｸﾞﾁｹﾝ","kana_city":"ﾔﾏｸﾞﾁｼ","kana_address":"ﾄｸﾁﾞﾔﾏﾊﾀ","pref":"山口県","city":"山口市","address":"徳地山畑"},
{"zip_code":"7470402","kana_pref":"ﾔﾏｸﾞﾁｹﾝ","kana_city":"ﾔﾏｸﾞﾁｼ","kana_address":"ﾄｸﾁﾞﾕﾉｷ","pref":"山口県","city":"山口市","address":"徳地柚木"},
{"zip_code":"7470000","kana_pref":"ﾔﾏｸﾞﾁｹﾝ","kana_city":"ﾎｳﾌｼ","kana_address":"","pref":"山口県","city":"防府市","address":""},
{"zip_code":"7470846","kana_pref":"ﾔﾏｸﾞﾁｹﾝ","kana_city":"ﾎｳﾌｼ","kana_address":"ｲｻｴ","pref":"山口県","city":"防府市","address":"伊佐江"},
{"zip_code":"7470847","kana_pref":"ﾔﾏｸﾞﾁｹﾝ","kana_city":"ﾎｳﾌｼ","kana_address":"ｲｻｴﾁｮｳ","pref":"山口県","city":"防府市","address":"伊佐江町"},
{"zip_code":"7470806","kana_pref":"ﾔﾏｸﾞﾁｹﾝ","kana_city":"ﾎｳﾌｼ","kana_address":"ｲｼｶﾞｸﾞﾁ","pref":"山口県","city":"防府市","address":"石が口"},
{"zip_code":"7470051","kana_pref":"ﾔﾏｸﾞﾁｹﾝ","kana_city":"ﾎｳﾌｼ","kana_address":"ｲｽﾞﾐﾁｮｳ","pref":"山口県","city":"防府市","address":"泉町"},
{"zip_code":"7470042","kana_pref":"ﾔﾏｸﾞﾁｹﾝ","kana_city":"ﾎｳﾌｼ","kana_address":"ｲﾏｲﾁﾁｮｳ","pref":"山口県","city":"防府市","address":"今市町"},
{"zip_code":"7470812","kana_pref":"ﾔﾏｸﾞﾁｹﾝ","kana_city":"ﾎｳﾌｼ","kana_address":"ｲﾓｼﾞﾁｮｳ","pref":"山口県","city":"防府市","address":"鋳物師町"},
{"zip_code":"7470001","kana_pref":"ﾔﾏｸﾞﾁｹﾝ","kana_city":"ﾎｳﾌｼ","kana_address":"ｲﾜﾊﾞﾀｹ","pref":"山口県","city":"防府市","address":"岩畠"},
{"zip_code":"7470836","kana_pref":"ﾔﾏｸﾞﾁｹﾝ","kana_city":"ﾎｳﾌｼ","kana_address":"ｳｴﾏﾂ","pref":"山口県","city":"防府市","address":"植松"},
{"zip_code":"7470801","kana_pref":"ﾔﾏｸﾞﾁｹﾝ","kana_city":"ﾎｳﾌｼ","kana_address":"ｴｷﾐﾅﾐﾏﾁ","pref":"山口県","city":"防府市","address":"駅南町"},
{"zip_code":"7470014","kana_pref":"ﾔﾏｸﾞﾁｹﾝ","kana_city":"ﾎｳﾌｼ","kana_address":"ｴﾄﾞﾏﾘ","pref":"山口県","city":"防府市","address":"江泊"},
{"zip_code":"7470036","kana_pref":"ﾔﾏｸﾞﾁｹﾝ","kana_city":"ﾎｳﾌｼ","kana_address":"ｴﾋﾞｽﾏﾁ","pref":"山口県","city":"防府市","address":"戎町"},
{"zip_code":"7470065","kana_pref":"ﾔﾏｸﾞﾁｹﾝ","kana_city":"ﾎｳﾌｼ","kana_address":"ｵｵｻｷ","pref":"山口県","city":"防府市","address":"大崎"},
{"zip_code":"7470803","kana_pref":"ﾔﾏｸﾞﾁｹﾝ","kana_city":"ﾎｳﾌｼ","kana_address":"ｵｶﾑﾗﾁｮｳ","pref":"山口県","city":"防府市","address":"岡村町"},
{"zip_code":"7470013","kana_pref":"ﾔﾏｸﾞﾁｹﾝ","kana_city":"ﾎｳﾌｼ","kana_address":"ｵｷｲﾏｼﾞｭｸ","pref":"山口県","city":"防府市","address":"沖今宿"},
{"zip_code":"7470101","kana_pref":"ﾔﾏｸﾞﾁｹﾝ","kana_city":"ﾎｳﾌｼ","kana_address":"ｵｸﾊﾀ","pref":"山口県","city":"防府市","address":"奥畑"},
{"zip_code":"7470819","kana_pref":"ﾔﾏｸﾞﾁｹﾝ","kana_city":"ﾎｳﾌｼ","kana_address":"ｵﾁｬﾔﾏﾁ","pref":"山口県","city":"防府市","address":"お茶屋町"},
{"zip_code":"7470052","kana_pref":"ﾔﾏｸﾞﾁｹﾝ","kana_city":"ﾎｳﾌｼ","kana_address":"ｶｲﾃﾞ","pref":"山口県","city":"防府市","address":"開出"},
{"zip_code":"7470054","kana_pref":"ﾔﾏｸﾞﾁｹﾝ","kana_city":"ﾎｳﾌｼ","kana_address":"ｶｲﾃﾞﾆｼﾏﾁ","pref":"山口県","city":"防府市","address":"開出西町"},
{"zip_code":"7470053","kana_pref":"ﾔﾏｸﾞﾁｹﾝ","kana_city":"ﾎｳﾌｼ","kana_address":"ｶｲﾃﾞﾎﾝﾏﾁ","pref":"山口県","city":"防府市","address":"開出本町"},
{"zip_code":"7470822","kana_pref":"ﾔﾏｸﾞﾁｹﾝ","kana_city":"ﾎｳﾌｼ","kana_address":"ｶﾂﾏ","pref":"山口県","city":"防府市","address":"勝間"},
{"zip_code":"7470823","kana_pref":"ﾔﾏｸﾞﾁｹﾝ","kana_city":"ﾎｳﾌｼ","kana_address":"ｶﾈﾎﾞｳﾁｮｳ","pref":"山口県","city":"防府市","address":"鐘紡町"},
{"zip_code":"7470816","kana_pref":"ﾔﾏｸﾞﾁｹﾝ","kana_city":"ﾎｳﾌｼ","kana_address":"ｶﾎ","pref":"山口県","city":"防府市","address":"華浦"},
{"zip_code":"7470033","kana_pref":"ﾔﾏｸﾞﾁｹﾝ","kana_city":"ﾎｳﾌｼ","kana_address":"ｶﾐﾃﾝｼﾞﾝﾏﾁ","pref":"山口県","city":"防府市","address":"上天神町"},
{"zip_code":"7470062","kana_pref":"ﾔﾏｸﾞﾁｹﾝ","kana_city":"ﾎｳﾌｼ","kana_address":"ｶﾐﾐｷﾞﾀ","pref":"山口県","city":"防府市","address":"上右田"},
{"zip_code":"7470011","kana_pref":"ﾔﾏｸﾞﾁｹﾝ","kana_city":"ﾎｳﾌｼ","kana_address":"ｷｼﾂﾞ","pref":"山口県","city":"防府市","address":"岸津"},
{"zip_code":"7470815","kana_pref":"ﾔﾏｸﾞﾁｹﾝ","kana_city":"ﾎｳﾌｼ","kana_address":"ｷｮｳﾜﾁｮｳ","pref":"山口県","city":"防府市","address":"協和町"},
{"zip_code":"7471231","kana_pref":"ﾔﾏｸﾞﾁｹﾝ","kana_city":"ﾎｳﾌｼ","kana_address":"ｷﾘﾊﾀ","pref":"山口県","city":"防府市","address":"切畑"},
{"zip_code":"7470811","kana_pref":"ﾔﾏｸﾞﾁｹﾝ","kana_city":"ﾎｳﾌｼ","kana_address":"ｸﾙﾏﾂﾞｶﾁｮｳ","pref":"山口県","city":"防府市","address":"車塚町"},
{"zip_code":"7470808","kana_pref":"ﾔﾏｸﾞﾁｹﾝ","kana_city":"ﾎｳﾌｼ","kana_address":"ｸﾜﾉﾔﾏ","pref":"山口県","city":"防府市","address":"桑山"},
{"zip_code":"7470821","kana_pref":"ﾔﾏｸﾞﾁｹﾝ","kana_city":"ﾎｳﾌｼ","kana_address":"ｹｲｺﾞﾏﾁ","pref":"山口県","city":"防府市","address":"警固町"},
{"zip_code":"7470024","kana_pref":"ﾔﾏｸﾞﾁｹﾝ","kana_city":"ﾎｳﾌｼ","kana_address":"ｺｸｶﾞ","pref":"山口県","city":"防府市","address":"国衙"},
{"zip_code":"7470021","kana_pref":"ﾔﾏｸﾞﾁｹﾝ","kana_city":"ﾎｳﾌｼ","kana_address":"ｺｸﾌﾞﾝｼﾞﾁｮｳ","pref":"山口県","city":"防府市","address":"国分寺町"},
{"zip_code":"7470056","kana_pref":"ﾔﾏｸﾞﾁｹﾝ","kana_city":"ﾎｳﾌｼ","kana_address":"ｺｿﾊﾞﾗ","pref":"山口県","city":"防府市","address":"古祖原"},
{"zip_code":"7470809","kana_pref":"ﾔﾏｸﾞﾁｹﾝ","kana_city":"ﾎｳﾌｼ","kana_address":"ｺﾄﾌﾞｷﾁｮｳ","pref":"山口県","city":"防府市","address":"寿町"},
{"zip_code":"7470035","kana_pref":"ﾔﾏｸﾞﾁｹﾝ","kana_city":"ﾎｳﾌｼ","kana_address":"ｻｶｴﾏﾁ","pref":"山口県","city":"防府市","address":"栄町"},
{"zip_code":"7470067","kana_pref":"ﾔﾏｸﾞﾁｹﾝ","kana_city":"ﾎｳﾌｼ","kana_address":"ｻﾉ","pref":"山口県","city":"防府市","address":"佐野"},
{"zip_code":"7470044","kana_pref":"ﾔﾏｸﾞﾁｹﾝ","kana_city":"ﾎｳﾌｼ","kana_address":"ｻﾊﾞ","pref":"山口県","city":"防府市","address":"佐波"},
{"zip_code":"7470006","kana_pref":"ﾔﾏｸﾞﾁｹﾝ","kana_city":"ﾎｳﾌｼ","kana_address":"ｼｷﾔﾏﾁｮｳ","pref":"山口県","city":"防府市","address":"敷山町"},
{"zip_code":"7470842","kana_pref":"ﾔﾏｸﾞﾁｹﾝ","kana_city":"ﾎｳﾌｼ","kana_address":"ｼﾐｽﾞﾁｮｳ","pref":"山口県","city":"防府市","address":"清水町"},
{"zip_code":"7470063","kana_pref":"ﾔﾏｸﾞﾁｹﾝ","kana_city":"ﾎｳﾌｼ","kana_address":"ｼﾓﾐｷﾞﾀ","pref":"山口県","city":"防府市","address":"下右田"},
{"zip_code":"7470824","kana_pref":"ﾔﾏｸﾞﾁｹﾝ","kana_city":"ﾎｳﾌｼ","kana_address":"ｼﾝﾂｷｼﾞﾁｮｳ","pref":"山口県","city":"防府市","address":"新築地町"},
{"zip_code":"7470825","kana_pref":"ﾔﾏｸﾞﾁｹﾝ","kana_city":"ﾎｳﾌｼ","kana_address":"ｼﾝﾃﾞﾝ","pref":"山口県","city":"防府市","address":"新田"},
{"zip_code":"7470047","kana_pref":"ﾔﾏｸﾞﾁｹﾝ","kana_city":"ﾎｳﾌｼ","kana_address":"ｼﾝﾊﾞｼﾁｮｳ","pref":"山口県","city":"防府市","address":"新橋町"},
{"zip_code":"7470066","kana_pref":"ﾔﾏｸﾞﾁｹﾝ","kana_city":"ﾎｳﾌｼ","kana_address":"ｼﾞﾕｳｶﾞｵｶ","pref":"山口県","city":"防府市","address":"自由ケ丘"},
{"zip_code":"7470817","kana_pref":"ﾔﾏｸﾞﾁｹﾝ","kana_city":"ﾎｳﾌｼ","kana_address":"ｼﾞﾘｷﾁｮｳ","pref":"山口県","city":"防府市","address":"自力町"},
{"zip_code":"7470002","kana_pref":"ﾔﾏｸﾞﾁｹﾝ","kana_city":"ﾎｳﾌｼ","kana_address":"ｽｶﾞｲ","pref":"山口県","city":"防府市","address":"酢貝"},
{"zip_code":"7470105","kana_pref":"ﾔﾏｸﾞﾁｹﾝ","kana_city":"ﾎｳﾌｼ","kana_address":"ｽｽﾞﾔ","pref":"山口県","city":"防府市","address":"鈴屋"},
{"zip_code":"7470031","kana_pref":"ﾔﾏｸﾞﾁｹﾝ","kana_city":"ﾎｳﾌｼ","kana_address":"ｾﾊﾞﾄﾁｮｳ","pref":"山口県","city":"防府市","address":"迫戸町"},
{"zip_code":"7470046","kana_pref":"ﾔﾏｸﾞﾁｹﾝ","kana_city":"ﾎｳﾌｼ","kana_address":"ｾﾝﾆﾁ","pref":"山口県","city":"防府市","address":"千日"},
{"zip_code":"7470022","kana_pref":"ﾔﾏｸﾞﾁｹﾝ","kana_city":"ﾎｳﾌｼ","kana_address":"ｿｳｼｬﾁｮｳ","pref":"山口県","city":"防府市","address":"惣社町"},
{"zip_code":"7470807","kana_pref":"ﾔﾏｸﾞﾁｹﾝ","kana_city":"ﾎｳﾌｼ","kana_address":"ｿｳﾅﾝ","pref":"山口県","city":"防府市","address":"桑南"},
{"zip_code":"7471232","kana_pref":"ﾔﾏｸﾞﾁｹﾝ","kana_city":"ﾎｳﾌｼ","kana_address":"ﾀﾞｲﾄﾞｳ","pref":"山口県","city":"防府市","address":"台道"},
{"zip_code":"7470064","kana_pref":"ﾔﾏｸﾞﾁｹﾝ","kana_city":"ﾎｳﾌｼ","kana_address":"ﾀｶｲ","pref":"山口県","city":"防府市","address":"高井"},
{"zip_code":"7470045","kana_pref":"ﾔﾏｸﾞﾁｹﾝ","kana_city":"ﾎｳﾌｼ","kana_address":"ﾀｶｸﾗ","pref":"山口県","city":"防府市","address":"高倉"},
{"zip_code":"7470834","kana_pref":"ﾔﾏｸﾞﾁｹﾝ","kana_city":"ﾎｳﾌｼ","kana_address":"ﾀｼﾞﾏ","pref":"山口県","city":"防府市","address":"田島"},
{"zip_code":"7470023","kana_pref":"ﾔﾏｸﾞﾁｹﾝ","kana_city":"ﾎｳﾌｼ","kana_address":"ﾀﾀﾗ","pref":"山口県","city":"防府市","address":"多々良"},
{"zip_code":"7470802","kana_pref":"ﾔﾏｸﾞﾁｹﾝ","kana_city":"ﾎｳﾌｼ","kana_address":"ﾁｭｳｵｳﾁｮｳ","pref":"山口県","city":"防府市","address":"中央町"},
{"zip_code":"7470034","kana_pref":"ﾔﾏｸﾞﾁｹﾝ","kana_city":"ﾎｳﾌｼ","kana_address":"ﾃﾝｼﾞﾝ","pref":"山口県","city":"防府市","address":"天神"},
{"zip_code":"7471111","kana_pref":"ﾔﾏｸﾞﾁｹﾝ","kana_city":"ﾎｳﾌｼ","kana_address":"ﾄﾉﾐ","pref":"山口県","city":"防府市","address":"富海"},
{"zip_code":"7470055","kana_pref":"ﾔﾏｸﾞﾁｹﾝ","kana_city":"ﾎｳﾌｼ","kana_address":"ﾅｶｲｽﾞﾐﾁｮｳ","pref":"山口県","city":"防府市","address":"中泉町"},
{"zip_code":"7470005","kana_pref":"ﾔﾏｸﾞﾁｹﾝ","kana_city":"ﾎｳﾌｼ","kana_address":"ﾅｶﾆｼ","pref":"山口県","city":"防府市","address":"中西"},
{"zip_code":"7470107","kana_pref":"ﾔﾏｸﾞﾁｹﾝ","kana_city":"ﾎｳﾌｼ","kana_address":"ﾅｶﾔﾏ","pref":"山口県","city":"防府市","address":"中山"},
{"zip_code":"7470106","kana_pref":"ﾔﾏｸﾞﾁｹﾝ","kana_city":"ﾎｳﾌｼ","kana_address":"ﾅﾐ","pref":"山口県","city":"防府市","address":"奈美"},
{"zip_code":"7470845","kana_pref":"ﾔﾏｸﾞﾁｹﾝ","kana_city":"ﾎｳﾌｼ","kana_address":"ﾆｲﾘｮｳ","pref":"山口県","city":"防府市","address":"仁井令"},
{"zip_code":"7470841","kana_pref":"ﾔﾏｸﾞﾁｹﾝ","kana_city":"ﾎｳﾌｼ","kana_address":"ﾆｲﾘｮｳﾁｮｳ","pref":"山口県","city":"防府市","address":"仁井令町"},
{"zip_code":"7470849","kana_pref":"ﾔﾏｸﾞﾁｹﾝ","kana_city":"ﾎｳﾌｼ","kana_address":"ﾆｼﾆｲﾘｮｳ","pref":"山口県","city":"防府市","address":"西仁井令"},
{"zip_code":"7470835","kana_pref":"ﾔﾏｸﾞﾁｹﾝ","kana_city":"ﾎｳﾌｼ","kana_address":"ﾆｼﾉｳﾗ","pref":"山口県","city":"防府市","address":"西浦"},
{"zip_code":"7470832","kana_pref":"ﾔﾏｸﾞﾁｹﾝ","kana_city":"ﾎｳﾌｼ","kana_address":"ﾉｼﾏ","pref":"山口県","city":"防府市","address":"野島"},
{"zip_code":"7470037","kana_pref":"ﾔﾏｸﾞﾁｹﾝ","kana_city":"ﾎｳﾌｼ","kana_address":"ﾊﾁｵｳｼﾞ","pref":"山口県","city":"防府市","address":"八王子"},
{"zip_code":"7470848","kana_pref":"ﾔﾏｸﾞﾁｹﾝ","kana_city":"ﾎｳﾌｼ","kana_address":"ﾊﾅｷﾞﾁｭｳｵｳ","pref":"山口県","city":"防府市","address":"華城中央"},
{"zip_code":"7470844","kana_pref":"ﾔﾏｸﾞﾁｹﾝ","kana_city":"ﾎｳﾌｼ","kana_address":"ﾊﾅｿﾞﾉﾁｮｳ","pref":"山口県","city":"防府市","address":"華園町"},
{"zip_code":"7470833","kana_pref":"ﾔﾏｸﾞﾁｹﾝ","kana_city":"ﾎｳﾌｼ","kana_address":"ﾊﾏｶﾀ","pref":"山口県","city":"防府市","address":"浜方"},
{"zip_code":"7470061","kana_pref":"ﾔﾏｸﾞﾁｹﾝ","kana_city":"ﾎｳﾌｼ","kana_address":"ﾋｶﾞｼｻﾊﾞﾘｮｳ","pref":"山口県","city":"防府市","address":"東佐波令"},
{"zip_code":"7470843","kana_pref":"ﾔﾏｸﾞﾁｹﾝ","kana_city":"ﾎｳﾌｼ","kana_address":"ﾋｶﾞｼﾆｲﾘｮｳﾁｮｳ","pref":"山口県","city":"防府市","address":"東仁井令町"},
{"zip_code":"7470028","kana_pref":"ﾔﾏｸﾞﾁｹﾝ","kana_city":"ﾎｳﾌｼ","kana_address":"ﾋｶﾞｼﾏﾂｻﾞｷﾁｮｳ","pref":"山口県","city":"防府市","address":"東松崎町"},
{"zip_code":"7470813","kana_pref":"ﾔﾏｸﾞﾁｹﾝ","kana_city":"ﾎｳﾌｼ","kana_address":"ﾋｶﾞｼﾐﾀｼﾞﾘ","pref":"山口県","city":"防府市","address":"東三田尻"},
{"zip_code":"7470102","kana_pref":"ﾔﾏｸﾞﾁｹﾝ","kana_city":"ﾎｳﾌｼ","kana_address":"ﾋｻｶﾈ","pref":"山口県","city":"防府市","address":"久兼"},
{"zip_code":"7470043","kana_pref":"ﾔﾏｸﾞﾁｹﾝ","kana_city":"ﾎｳﾌｼ","kana_address":"ﾍｲﾜﾏﾁ","pref":"山口県","city":"防府市","address":"平和町"},
{"zip_code":"7470029","kana_pref":"ﾔﾏｸﾞﾁｹﾝ","kana_city":"ﾎｳﾌｼ","kana_address":"ﾏﾂｻﾞｷﾁｮｳ","pref":"山口県","city":"防府市","address":"松崎町"},
{"zip_code":"7470804","kana_pref":"ﾔﾏｸﾞﾁｹﾝ","kana_city":"ﾎｳﾌｼ","kana_address":"ﾏﾂﾊﾞﾗﾁｮｳ","pref":"山口県","city":"防府市","address":"松原町"},
{"zip_code":"7470104","kana_pref":"ﾔﾏｸﾞﾁｹﾝ","kana_city":"ﾎｳﾌｼ","kana_address":"ﾏﾅｵ","pref":"山口県","city":"防府市","address":"真尾"},
{"zip_code":"7470805","kana_pref":"ﾔﾏｸﾞﾁｹﾝ","kana_city":"ﾎｳﾌｼ","kana_address":"ﾏﾘﾌﾁｮｳ","pref":"山口県","city":"防府市","address":"鞠生町"},
{"zip_code":"7470814","kana_pref":"ﾔﾏｸﾞﾁｹﾝ","kana_city":"ﾎｳﾌｼ","kana_address":"ﾐﾀｼﾞﾘ","pref":"山口県","city":"防府市","address":"三田尻"},
{"zip_code":"7470818","kana_pref":"ﾔﾏｸﾞﾁｹﾝ","kana_city":"ﾎｳﾌｼ","kana_address":"ﾐﾀｼﾞﾘﾎﾝﾏﾁ","pref":"山口県","city":"防府市","address":"三田尻本町"},
{"zip_code":"7470026","kana_pref":"ﾔﾏｸﾞﾁｹﾝ","kana_city":"ﾎｳﾌｼ","kana_address":"ﾐﾄﾞﾘﾏﾁ","pref":"山口県","city":"防府市","address":"緑町"},
{"zip_code":"7470027","kana_pref":"ﾔﾏｸﾞﾁｹﾝ","kana_city":"ﾎｳﾌｼ","kana_address":"ﾐﾅﾐﾏﾂｻﾞｷﾁｮｳ","pref":"山口県","city":"防府市","address":"南松崎町"},
{"zip_code":"7470032","kana_pref":"ﾔﾏｸﾞﾁｹﾝ","kana_city":"ﾎｳﾌｼ","kana_address":"ﾐﾔﾁﾁｮｳ","pref":"山口県","city":"防府市","address":"宮市町"},
{"zip_code":"7470025","kana_pref":"ﾔﾏｸﾞﾁｹﾝ","kana_city":"ﾎｳﾌｼ","kana_address":"ﾐﾜﾁｮｳ","pref":"山口県","city":"防府市","address":"美和町"},
{"zip_code":"7470831","kana_pref":"ﾔﾏｸﾞﾁｹﾝ","kana_city":"ﾎｳﾌｼ","kana_address":"ﾑｺｳｼﾏ","pref":"山口県","city":"防府市","address":"向島"},
{"zip_code":"7470004","kana_pref":"ﾔﾏｸﾞﾁｹﾝ","kana_city":"ﾎｳﾌｼ","kana_address":"ﾑﾚ","pref":"山口県","city":"防府市","address":"牟礼"},
{"zip_code":"7470012","kana_pref":"ﾔﾏｸﾞﾁｹﾝ","kana_city":"ﾎｳﾌｼ","kana_address":"ﾑﾚｲﾏｼﾞｭｸ","pref":"山口県","city":"防府市","address":"牟礼今宿"},
{"zip_code":"7470003","kana_pref":"ﾔﾏｸﾞﾁｹﾝ","kana_city":"ﾎｳﾌｼ","kana_address":"ﾑﾚﾔﾅｷﾞ","pref":"山口県","city":"防府市","address":"牟礼柳"},
{"zip_code":"7470041","kana_pref":"ﾔﾏｸﾞﾁｹﾝ","kana_city":"ﾎｳﾌｼ","kana_address":"ﾓﾄﾊﾞｼﾁｮｳ","pref":"山口県","city":"防府市","address":"本橋町"},
{"zip_code":"7470103","kana_pref":"ﾔﾏｸﾞﾁｹﾝ","kana_city":"ﾎｳﾌｼ","kana_address":"ﾜｼﾞ","pref":"山口県","city":"防府市","address":"和字"},
{"zip_code":"7470621","kana_pref":"ﾔﾏｸﾞﾁｹﾝ","kana_city":"ｼｭｳﾅﾝｼ","kana_address":"ｽﾔﾏ","pref":"山口県","city":"周南市","address":"巣山"}]}