{"zip_code":[
{"zip_code":"7500000","kana_pref":"ﾔﾏｸﾞﾁｹﾝ","kana_city":"ｼﾓﾉｾｷｼ","kana_address":"","pref":"山口県","city":"下関市","address":""},
{"zip_code":"7500007","kana_pref":"ﾔﾏｸﾞﾁｹﾝ","kana_city":"ｼﾓﾉｾｷｼ","kana_address":"ｱｶﾏﾁｮｳ","pref":"山口県","city":"下関市","address":"赤間町"},
{"zip_code":"7500003","kana_pref":"ﾔﾏｸﾞﾁｹﾝ","kana_city":"ｼﾓﾉｾｷｼ","kana_address":"ｱﾐﾀﾞｲｼﾞﾁｮｳ","pref":"山口県","city":"下関市","address":"阿弥陀寺町"},
{"zip_code":"7500036","kana_pref":"ﾔﾏｸﾞﾁｹﾝ","kana_city":"ｼﾓﾉｾｷｼ","kana_address":"ｱﾙｶﾎﾟｰﾄ","pref":"山口県","city":"下関市","address":"あるかぽーと"},
{"zip_code":"7500065","kana_pref":"ﾔﾏｸﾞﾁｹﾝ","kana_city":"ｼﾓﾉｾｷｼ","kana_address":"ｲｻﾞｷﾁｮｳ","pref":"山口県","city":"下関市","address":"伊崎町"},
{"zip_code":"7500064","kana_pref":"ﾔﾏｸﾞﾁｹﾝ","kana_city":"ｼﾓﾉｾｷｼ","kana_address":"ｲﾏｳﾗﾁｮｳ","pref":"山口県","city":"下関市","address":"今浦町"},
{"zip_code":"7500013","kana_pref":"ﾔﾏｸﾞﾁｹﾝ","kana_city":"ｼﾓﾉｾｷｼ","kana_address":"ｲﾘｴﾁｮｳ","pref":"山口県","city":"下関市","address":"入江町"},
{"zip_code":"7500027","kana_pref":"ﾔﾏｸﾞﾁｹﾝ","kana_city":"ｼﾓﾉｾｷｼ","kana_address":"ｳｴｼﾞｮｳﾁｮｳ","pref":"山口県","city":"下関市","address":"上条町"},
{"zip_code":"7500251","kana_pref":"ﾔﾏｸﾞﾁｹﾝ","kana_city":"ｼﾓﾉｾｷｼ","kana_address":"ｳｴﾀﾞ","pref":"山口県","city":"下関市","address":"植田"},
{"zip_code":"7500252","kana_pref":"ﾔﾏｸﾞﾁｹﾝ","kana_city":"ｼﾓﾉｾｷｼ","kana_address":"ｳﾂｲｶﾐ","pref":"山口県","city":"下関市","address":"内日上"},
{"zip_code":"7500253","kana_pref":"ﾔﾏｸﾞﾁｹﾝ","kana_city":"ｼﾓﾉｾｷｼ","kana_address":"ｳﾂｲｼﾓ","pref":"山口県","city":"下関市","address":"内日下"},
{"zip_code":"7501111","kana_pref":"ﾔﾏｸﾞﾁｹﾝ","kana_city":"ｼﾓﾉｾｷｼ","kana_address":"ｳﾂﾞｲ","pref":"山口県","city":"下関市","address":"宇津井"},
{"zip_code":"7501115","kana_pref":"ﾔﾏｸﾞﾁｹﾝ","kana_city":"ｼﾓﾉｾｷｼ","kana_address":"ｵｳｷｳﾂﾞｲ","pref":"山口県","city":"下関市","address":"王喜宇津井"},
{"zip_code":"7501114","kana_pref":"ﾔﾏｸﾞﾁｹﾝ","kana_city":"ｼﾓﾉｾｷｼ","kana_address":"ｵｳｷﾎﾝﾏﾁ","pref":"山口県","city":"下関市","address":"王喜本町"},
{"zip_code":"7501171","kana_pref":"ﾔﾏｸﾞﾁｹﾝ","kana_city":"ｼﾓﾉｾｷｼ","kana_address":"ｵｳﾁ","pref":"山口県","city":"下関市","address":"阿内"},
{"zip_code":"7500051","kana_pref":"ﾔﾏｸﾞﾁｹﾝ","kana_city":"ｼﾓﾉｾｷｼ","kana_address":"ｵｵﾂﾎﾞﾎﾝﾏﾁ","pref":"山口県","city":"下関市","address":"大坪本町"},
{"zip_code":"7501147","kana_pref":"ﾔﾏｸﾞﾁｹﾝ","kana_city":"ｼﾓﾉｾｷｼ","kana_address":"ｵﾂﾞｷｲﾁﾊﾗﾁｮｳ","pref":"山口県","city":"下関市","address":"小月市原町"},
{"zip_code":"7501143","kana_pref":"ﾔﾏｸﾞﾁｹﾝ","kana_city":"ｼﾓﾉｾｷｼ","kana_address":"ｵﾂﾞｷｴｷﾏｴ","pref":"山口県","city":"下関市","address":"小月駅前"},
{"zip_code":"7501134","kana_pref":"ﾔﾏｸﾞﾁｹﾝ","kana_city":"ｼﾓﾉｾｷｼ","kana_address":"ｵﾂﾞｷｷｮｳﾄﾞﾏﾘ","pref":"山口県","city":"下関市","address":"小月京泊"},
{"zip_code":"7501146","kana_pref":"ﾔﾏｸﾞﾁｹﾝ","kana_city":"ｼﾓﾉｾｷｼ","kana_address":"ｵﾂﾞｷｺｳｴﾝﾁｮｳ","pref":"山口県","city":"下関市","address":"小月公園町"},
{"zip_code":"7501136","kana_pref":"ﾔﾏｸﾞﾁｹﾝ","kana_city":"ｼﾓﾉｾｷｼ","kana_address":"ｵﾂﾞｷｺｼﾞﾏ","pref":"山口県","city":"下関市","address":"小月小島"},
{"zip_code":"7501141","kana_pref":"ﾔﾏｸﾞﾁｹﾝ","kana_city":"ｼﾓﾉｾｷｼ","kana_address":"ｵﾂﾞｷｻｲﾜｲﾏﾁ","pref":"山口県","city":"下関市","address":"小月幸町"},
{"zip_code":"7501145","kana_pref":"ﾔﾏｸﾞﾁｹﾝ","kana_city":"ｼﾓﾉｾｷｼ","kana_address":"ｵﾂﾞｷｽｷﾞｻｺ","pref":"山口県","city":"下関市","address":"小月杉迫"},
{"zip_code":"7501133","kana_pref":"ﾔﾏｸﾞﾁｹﾝ","kana_city":"ｼﾓﾉｾｷｼ","kana_address":"ｵﾂﾞｷﾀｶｵﾁｮｳ","pref":"山口県","city":"下関市","address":"小月高雄町"},
{"zip_code":"7501144","kana_pref":"ﾔﾏｸﾞﾁｹﾝ","kana_city":"ｼﾓﾉｾｷｼ","kana_address":"ｵﾂﾞｷﾁｬﾔ","pref":"山口県","city":"下関市","address":"小月茶屋"},
{"zip_code":"7501131","kana_pref":"ﾔﾏｸﾞﾁｹﾝ","kana_city":"ｼﾓﾉｾｷｼ","kana_address":"ｵﾂﾞｷﾁｮｳ","pref":"山口県","city":"下関市","address":"小月町"},
{"zip_code":"7501135","kana_pref":"ﾔﾏｸﾞﾁｹﾝ","kana_city":"ｼﾓﾉｾｷｼ","kana_address":"ｵﾂﾞｷﾆｼﾉﾀﾞｲ","pref":"山口県","city":"下関市","address":"小月西の台"},
{"zip_code":"7501142","kana_pref":"ﾔﾏｸﾞﾁｹﾝ","kana_city":"ｼﾓﾉｾｷｼ","kana_address":"ｵﾂﾞｷﾎﾝﾏﾁ","pref":"山口県","city":"下関市","address":"小月本町"},
{"zip_code":"7501137","kana_pref":"ﾔﾏｸﾞﾁｹﾝ","kana_city":"ｼﾓﾉｾｷｼ","kana_address":"ｵﾂﾞｷﾐﾅﾐﾏﾁ","pref":"山口県","city":"下関市","address":"小月南町"},
{"zip_code":"7501132","kana_pref":"ﾔﾏｸﾞﾁｹﾝ","kana_city":"ｼﾓﾉｾｷｼ","kana_address":"ｵﾂﾞｷﾐﾔﾉﾏﾁ","pref":"山口県","city":"下関市","address":"小月宮の町"},
{"zip_code":"7500031","kana_pref":"ﾔﾏｸﾞﾁｹﾝ","kana_city":"ｼﾓﾉｾｷｼ","kana_address":"ｶｽｶﾞﾁｮｳ","pref":"山口県","city":"下関市","address":"春日町"},
{"zip_code":"7500061","kana_pref":"ﾔﾏｸﾞﾁｹﾝ","kana_city":"ｼﾓﾉｾｷｼ","kana_address":"ｶﾐｼﾝﾁﾁｮｳ","pref":"山口県","city":"下関市","address":"上新地町"},
{"zip_code":"7500009","kana_pref":"ﾔﾏｸﾞﾁｹﾝ","kana_city":"ｼﾓﾉｾｷｼ","kana_address":"ｶﾐﾀﾅｶﾏﾁ","pref":"山口県","city":"下関市","address":"上田中町"},
{"zip_code":"7500005","kana_pref":"ﾔﾏｸﾞﾁｹﾝ","kana_city":"ｼﾓﾉｾｷｼ","kana_address":"ｶﾗﾄﾁｮｳ","pref":"山口県","city":"下関市","address":"唐戸町"},
{"zip_code":"7500032","kana_pref":"ﾔﾏｸﾞﾁｹﾝ","kana_city":"ｼﾓﾉｾｷｼ","kana_address":"ｶﾝｾｲﾁｮｳ","pref":"山口県","city":"下関市","address":"関西町"},
{"zip_code":"7500022","kana_pref":"ﾔﾏｸﾞﾁｹﾝ","kana_city":"ｼﾓﾉｾｷｼ","kana_address":"ｶﾝｾｲﾎﾝﾏﾁ","pref":"山口県","city":"下関市","address":"関西本町"},
{"zip_code":"7500044","kana_pref":"ﾔﾏｸﾞﾁｹﾝ","kana_city":"ｼﾓﾉｾｷｼ","kana_address":"ｶﾝﾀﾞﾁｮｳ","pref":"山口県","city":"下関市","address":"神田町"},
{"zip_code":"7500012","kana_pref":"ﾔﾏｸﾞﾁｹﾝ","kana_city":"ｼﾓﾉｾｷｼ","kana_address":"ｶﾝﾉﾝｻﾞｷﾁｮｳ","pref":"山口県","city":"下関市","address":"観音崎町"},
{"zip_code":"7500311","kana_pref":"ﾔﾏｸﾞﾁｹﾝ","kana_city":"ｼﾓﾉｾｷｼ","kana_address":"ｷｸｶﾞﾜﾁｮｳｶﾐｵｵﾉ","pref":"山口県","city":"下関市","address":"菊川町上大野"},
{"zip_code":"7500321","kana_pref":"ﾔﾏｸﾞﾁｹﾝ","kana_city":"ｼﾓﾉｾｷｼ","kana_address":"ｷｸｶﾞﾜﾁｮｳｶﾐｵｶｴﾀﾞ","pref":"山口県","city":"下関市","address":"菊川町上岡枝"},
{"zip_code":"7500314","kana_pref":"ﾔﾏｸﾞﾁｹﾝ","kana_city":"ｼﾓﾉｾｷｼ","kana_address":"ｷｸｶﾞﾜﾁｮｳｶﾐﾀﾍﾞ","pref":"山口県","city":"下関市","address":"菊川町上田部"},
{"zip_code":"7500307","kana_pref":"ﾔﾏｸﾞﾁｹﾝ","kana_city":"ｼﾓﾉｾｷｼ","kana_address":"ｷｸｶﾞﾜﾁｮｳｶﾐﾎｷ","pref":"山口県","city":"下関市","address":"菊川町上保木"},
{"zip_code":"7500325","kana_pref":"ﾔﾏｸﾞﾁｹﾝ","kana_city":"ｼﾓﾉｾｷｼ","kana_address":"ｷｸｶﾞﾜﾁｮｳｷﾊﾞ","pref":"山口県","city":"下関市","address":"菊川町貴飯"},
{"zip_code":"7500305","kana_pref":"ﾔﾏｸﾞﾁｹﾝ","kana_city":"ｼﾓﾉｾｷｼ","kana_address":"ｷｸｶﾞﾜﾁｮｳｸﾂﾜｲ","pref":"山口県","city":"下関市","address":"菊川町轡井"},
{"zip_code":"7500324","kana_pref":"ﾔﾏｸﾞﾁｹﾝ","kana_city":"ｼﾓﾉｾｷｼ","kana_address":"ｷｸｶﾞﾜﾁｮｳｸﾉ","pref":"山口県","city":"下関市","address":"菊川町久野"},
{"zip_code":"7500312","kana_pref":"ﾔﾏｸﾞﾁｹﾝ","kana_city":"ｼﾓﾉｾｷｼ","kana_address":"ｷｸｶﾞﾜﾁｮｳｼﾓｵｵﾉ","pref":"山口県","city":"下関市","address":"菊川町下大野"},
{"zip_code":"7500317","kana_pref":"ﾔﾏｸﾞﾁｹﾝ","kana_city":"ｼﾓﾉｾｷｼ","kana_address":"ｷｸｶﾞﾜﾁｮｳｼﾓｵｶｴﾀﾞ","pref":"山口県","city":"下関市","address":"菊川町下岡枝"},
{"zip_code":"7500306","kana_pref":"ﾔﾏｸﾞﾁｹﾝ","kana_city":"ｼﾓﾉｾｷｼ","kana_address":"ｷｸｶﾞﾜﾁｮｳｼﾓﾎｷ","pref":"山口県","city":"下関市","address":"菊川町下保木"},
{"zip_code":"7500313","kana_pref":"ﾔﾏｸﾞﾁｹﾝ","kana_city":"ｼﾓﾉｾｷｼ","kana_address":"ｷｸｶﾞﾜﾁｮｳﾀﾍﾞ","pref":"山口県","city":"下関市","address":"菊川町田部"},
{"zip_code":"7500315","kana_pref":"ﾔﾏｸﾞﾁｹﾝ","kana_city":"ｼﾓﾉｾｷｼ","kana_address":"ｷｸｶﾞﾜﾁｮｳﾅﾅﾐ","pref":"山口県","city":"下関市","address":"菊川町七見"},
{"zip_code":"7500322","kana_pref":"ﾔﾏｸﾞﾁｹﾝ","kana_city":"ｼﾓﾉｾｷｼ","kana_address":"ｷｸｶﾞﾜﾁｮｳﾅﾗｻﾞｷ","pref":"山口県","city":"下関市","address":"菊川町楢崎"},
{"zip_code":"7500301","kana_pref":"ﾔﾏｸﾞﾁｹﾝ","kana_city":"ｼﾓﾉｾｷｼ","kana_address":"ｷｸｶﾞﾜﾁｮｳﾆｼﾅｶﾔﾏ","pref":"山口県","city":"下関市","address":"菊川町西中山"},
{"zip_code":"7500323","kana_pref":"ﾔﾏｸﾞﾁｹﾝ","kana_city":"ｼﾓﾉｾｷｼ","kana_address":"ｷｸｶﾞﾜﾁｮｳﾆｯｼﾝ","pref":"山口県","city":"下関市","address":"菊川町日新"},
{"zip_code":"7500302","kana_pref":"ﾔﾏｸﾞﾁｹﾝ","kana_city":"ｼﾓﾉｾｷｼ","kana_address":"ｷｸｶﾞﾜﾁｮｳﾋｶﾞｼﾅｶﾔﾏ","pref":"山口県","city":"下関市","address":"菊川町東中山"},
{"zip_code":"7500304","kana_pref":"ﾔﾏｸﾞﾁｹﾝ","kana_city":"ｼﾓﾉｾｷｼ","kana_address":"ｷｸｶﾞﾜﾁｮｳﾐﾁｲﾁ","pref":"山口県","city":"下関市","address":"菊川町道市"},
{"zip_code":"7500303","kana_pref":"ﾔﾏｸﾞﾁｹﾝ","kana_city":"ｼﾓﾉｾｷｼ","kana_address":"ｷｸｶﾞﾜﾁｮｳﾓﾐﾉｷ","pref":"山口県","city":"下関市","address":"菊川町樅ノ木"},
{"zip_code":"7500316","kana_pref":"ﾔﾏｸﾞﾁｹﾝ","kana_city":"ｼﾓﾉｾｷｼ","kana_address":"ｷｸｶﾞﾜﾁｮｳﾖｼｶ","pref":"山口県","city":"下関市","address":"菊川町吉賀"},
{"zip_code":"7501151","kana_pref":"ﾔﾏｸﾞﾁｹﾝ","kana_city":"ｼﾓﾉｾｷｼ","kana_address":"ｷﾖｽｴ","pref":"山口県","city":"下関市","address":"清末"},
{"zip_code":"7501156","kana_pref":"ﾔﾏｸﾞﾁｹﾝ","kana_city":"ｼﾓﾉｾｷｼ","kana_address":"ｷﾖｽｴﾋｶﾞｼﾏﾁ","pref":"山口県","city":"下関市","address":"清末東町"},
{"zip_code":"7501153","kana_pref":"ﾔﾏｸﾞﾁｹﾝ","kana_city":"ｼﾓﾉｾｷｼ","kana_address":"ｷﾖｽｴｸﾗﾏ","pref":"山口県","city":"下関市","address":"清末鞍馬"},
{"zip_code":"7501162","kana_pref":"ﾔﾏｸﾞﾁｹﾝ","kana_city":"ｼﾓﾉｾｷｼ","kana_address":"ｷﾖｽｴｺﾞﾓｳ","pref":"山口県","city":"下関市","address":"清末五毛"},
{"zip_code":"7501152","kana_pref":"ﾔﾏｸﾞﾁｹﾝ","kana_city":"ｼﾓﾉｾｷｼ","kana_address":"ｷﾖｽｴｼﾞﾝﾔ","pref":"山口県","city":"下関市","address":"清末陣屋"},
{"zip_code":"7501163","kana_pref":"ﾔﾏｸﾞﾁｹﾝ","kana_city":"ｼﾓﾉｾｷｼ","kana_address":"ｷﾖｽｴｾﾝﾎﾞｳ","pref":"山口県","city":"下関市","address":"清末千房"},
{"zip_code":"7501164","kana_pref":"ﾔﾏｸﾞﾁｹﾝ","kana_city":"ｼﾓﾉｾｷｼ","kana_address":"ｷﾖｽｴﾀﾞｲﾓﾝ","pref":"山口県","city":"下関市","address":"清末大門"},
{"zip_code":"7501155","kana_pref":"ﾔﾏｸﾞﾁｹﾝ","kana_city":"ｼﾓﾉｾｷｼ","kana_address":"ｷﾖｽｴﾅｶﾏﾁ","pref":"山口県","city":"下関市","address":"清末中町"},
{"zip_code":"7501161","kana_pref":"ﾔﾏｸﾞﾁｹﾝ","kana_city":"ｼﾓﾉｾｷｼ","kana_address":"ｷﾖｽｴﾆｼﾏﾁ","pref":"山口県","city":"下関市","address":"清末西町"},
{"zip_code":"7501154","kana_pref":"ﾔﾏｸﾞﾁｹﾝ","kana_city":"ｼﾓﾉｾｷｼ","kana_address":"ｷﾖｽｴﾎﾝﾏﾁ","pref":"山口県","city":"下関市","address":"清末本町"},
{"zip_code":"7500041","kana_pref":"ﾔﾏｸﾞﾁｹﾝ","kana_city":"ｼﾓﾉｾｷｼ","kana_address":"ｺｳﾖｳﾁｮｳ","pref":"山口県","city":"下関市","address":"向洋町"},
{"zip_code":"7501112","kana_pref":"ﾔﾏｸﾞﾁｹﾝ","kana_city":"ｼﾓﾉｾｷｼ","kana_address":"ｺﾔｶﾞﾜﾎﾝﾏﾁ","pref":"山口県","city":"下関市","address":"木屋川本町"},
{"zip_code":"7501113","kana_pref":"ﾔﾏｸﾞﾁｹﾝ","kana_city":"ｼﾓﾉｾｷｼ","kana_address":"ｺﾔｶﾞﾜﾐﾅﾐﾏﾁ","pref":"山口県","city":"下関市","address":"木屋川南町"},
{"zip_code":"7500058","kana_pref":"ﾔﾏｸﾞﾁｹﾝ","kana_city":"ｼﾓﾉｾｷｼ","kana_address":"ｺﾝﾋﾟﾗﾁｮｳ","pref":"山口県","city":"下関市","address":"金比羅町"},
{"zip_code":"7500001","kana_pref":"ﾔﾏｸﾞﾁｹﾝ","kana_city":"ｼﾓﾉｾｷｼ","kana_address":"ｻｲﾜｲﾏﾁ","pref":"山口県","city":"下関市","address":"幸町"},
{"zip_code":"7500049","kana_pref":"ﾔﾏｸﾞﾁｹﾝ","kana_city":"ｼﾓﾉｾｷｼ","kana_address":"ｻｶｴﾏﾁ","pref":"山口県","city":"下関市","address":"栄町"},
{"zip_code":"7500035","kana_pref":"ﾔﾏｸﾞﾁｹﾝ","kana_city":"ｼﾓﾉｾｷｼ","kana_address":"ｻｸﾗﾔﾏﾁｮｳ","pref":"山口県","city":"下関市","address":"桜山町"},
{"zip_code":"7500024","kana_pref":"ﾔﾏｸﾞﾁｹﾝ","kana_city":"ｼﾓﾉｾｷｼ","kana_address":"ｻｻﾔﾏﾁｮｳ","pref":"山口県","city":"下関市","address":"笹山町"},
{"zip_code":"7500059","kana_pref":"ﾔﾏｸﾞﾁｹﾝ","kana_city":"ｼﾓﾉｾｷｼ","kana_address":"ｼｵｲﾘﾁｮｳ","pref":"山口県","city":"下関市","address":"汐入町"},
{"zip_code":"7501116","kana_pref":"ﾔﾏｸﾞﾁｹﾝ","kana_city":"ｼﾓﾉｾｷｼ","kana_address":"ｼﾗｻｷ","pref":"山口県","city":"下関市","address":"白崎"},
{"zip_code":"7500063","kana_pref":"ﾔﾏｸﾞﾁｹﾝ","kana_city":"ｼﾓﾉｾｷｼ","kana_address":"ｼﾝﾁﾁｮｳ","pref":"山口県","city":"下関市","address":"新地町"},
{"zip_code":"7500062","kana_pref":"ﾔﾏｸﾞﾁｹﾝ","kana_city":"ｼﾓﾉｾｷｼ","kana_address":"ｼﾝﾁﾆｼﾏﾁ","pref":"山口県","city":"下関市","address":"新地西町"},
{"zip_code":"7500057","kana_pref":"ﾔﾏｸﾞﾁｹﾝ","kana_city":"ｼﾓﾉｾｷｼ","kana_address":"ｽｼﾞｶﾜﾁｮｳ","pref":"山口県","city":"下関市","address":"筋川町"},
{"zip_code":"7500056","kana_pref":"ﾔﾏｸﾞﾁｹﾝ","kana_city":"ｼﾓﾉｾｷｼ","kana_address":"ｽｼﾞｶﾞﾊﾏﾁｮｳ","pref":"山口県","city":"下関市","address":"筋ケ浜町"},
{"zip_code":"7500053","kana_pref":"ﾔﾏｸﾞﾁｹﾝ","kana_city":"ｼﾓﾉｾｷｼ","kana_address":"ﾀｲﾍｲﾁｮｳ","pref":"山口県","city":"下関市","address":"大平町"},
{"zip_code":"7500025","kana_pref":"ﾔﾏｸﾞﾁｹﾝ","kana_city":"ｼﾓﾉｾｷｼ","kana_address":"ﾀｹｻﾞｷﾁｮｳ","pref":"山口県","city":"下関市","address":"竹崎町"},
{"zip_code":"7500008","kana_pref":"ﾔﾏｸﾞﾁｹﾝ","kana_city":"ｼﾓﾉｾｷｼ","kana_address":"ﾀﾅｶﾏﾁ","pref":"山口県","city":"下関市","address":"田中町"},
{"zip_code":"7500042","kana_pref":"ﾔﾏｸﾞﾁｹﾝ","kana_city":"ｼﾓﾉｾｷｼ","kana_address":"ﾁｭｳｵｳﾁｮｳ","pref":"山口県","city":"下関市","address":"中央町"},
{"zip_code":"7500451","kana_pref":"ﾔﾏｸﾞﾁｹﾝ","kana_city":"ｼﾓﾉｾｷｼ","kana_address":"ﾄﾖﾀﾁｮｳｱｻﾞｶﾐ","pref":"山口県","city":"下関市","address":"豊田町阿座上"},
{"zip_code":"7500404","kana_pref":"ﾔﾏｸﾞﾁｹﾝ","kana_city":"ｼﾓﾉｾｷｼ","kana_address":"ﾄﾖﾀﾁｮｳｱﾗｷ","pref":"山口県","city":"下関市","address":"豊田町荒木"},
{"zip_code":"7500403","kana_pref":"ﾔﾏｸﾞﾁｹﾝ","kana_city":"ｼﾓﾉｾｷｼ","kana_address":"ﾄﾖﾀﾁｮｳｲﾁﾉﾏﾀ","pref":"山口県","city":"下関市","address":"豊田町一ノ俣"},
{"zip_code":"7500412","kana_pref":"ﾔﾏｸﾞﾁｹﾝ","kana_city":"ｼﾓﾉｾｷｼ","kana_address":"ﾄﾖﾀﾁｮｳｲﾅﾐ","pref":"山口県","city":"下関市","address":"豊田町稲見"},
{"zip_code":"7500442","kana_pref":"ﾔﾏｸﾞﾁｹﾝ","kana_city":"ｼﾓﾉｾｷｼ","kana_address":"ﾄﾖﾀﾁｮｳｲﾅﾐﾂ","pref":"山口県","city":"下関市","address":"豊田町稲光"},
{"zip_code":"7500431","kana_pref":"ﾔﾏｸﾞﾁｹﾝ","kana_city":"ｼﾓﾉｾｷｼ","kana_address":"ﾄﾖﾀﾁｮｳｲﾏﾃﾞ","pref":"山口県","city":"下関市","address":"豊田町今出"},
{"zip_code":"7500415","kana_pref":"ﾔﾏｸﾞﾁｹﾝ","kana_city":"ｼﾓﾉｾｷｼ","kana_address":"ﾄﾖﾀﾁｮｳｳｷｲｼ","pref":"山口県","city":"下関市","address":"豊田町浮石"},
{"zip_code":"7500411","kana_pref":"ﾔﾏｸﾞﾁｹﾝ","kana_city":"ｼﾓﾉｾｷｼ","kana_address":"ﾄﾖﾀﾁｮｳｳﾅｲ","pref":"山口県","city":"下関市","address":"豊田町宇内"},
{"zip_code":"7500452","kana_pref":"ﾔﾏｸﾞﾁｹﾝ","kana_city":"ｼﾓﾉｾｷｼ","kana_address":"ﾄﾖﾀﾁｮｳｴﾗ","pref":"山口県","city":"下関市","address":"豊田町江良"},
{"zip_code":"7500433","kana_pref":"ﾔﾏｸﾞﾁｹﾝ","kana_city":"ｼﾓﾉｾｷｼ","kana_address":"ﾄﾖﾀﾁｮｳｵｵｶﾜﾁ","pref":"山口県","city":"下関市","address":"豊田町大河内"},
{"zip_code":"7500455","kana_pref":"ﾔﾏｸﾞﾁｹﾝ","kana_city":"ｼﾓﾉｾｷｼ","kana_address":"ﾄﾖﾀﾁｮｳｷﾄﾞ","pref":"山口県","city":"下関市","address":"豊田町城戸"},
{"zip_code":"7500413","kana_pref":"ﾔﾏｸﾞﾁｹﾝ","kana_city":"ｼﾓﾉｾｷｼ","kana_address":"ﾄﾖﾀﾁｮｳｷﾝﾄﾞｳ","pref":"山口県","city":"下関市","address":"豊田町金道"},
{"zip_code":"7500402","kana_pref":"ﾔﾏｸﾞﾁｹﾝ","kana_city":"ｼﾓﾉｾｷｼ","kana_address":"ﾄﾖﾀﾁｮｳｻﾉ","pref":"山口県","city":"下関市","address":"豊田町佐野"},
{"zip_code":"7500432","kana_pref":"ﾔﾏｸﾞﾁｹﾝ","kana_city":"ｼﾓﾉｾｷｼ","kana_address":"ﾄﾖﾀﾁｮｳｼﾞﾖｼ","pref":"山口県","city":"下関市","address":"豊田町地吉"},
{"zip_code":"7500416","kana_pref":"ﾔﾏｸﾞﾁｹﾝ","kana_city":"ｼﾓﾉｾｷｼ","kana_address":"ﾄﾖﾀﾁｮｳﾀｶﾉｺ","pref":"山口県","city":"下関市","address":"豊田町鷹子"},
{"zip_code":"7500446","kana_pref":"ﾔﾏｸﾞﾁｹﾝ","kana_city":"ｼﾓﾉｾｷｼ","kana_address":"ﾄﾖﾀﾁｮｳﾀｶﾔﾏ","pref":"山口県","city":"下関市","address":"豊田町高山"},
{"zip_code":"7500453","kana_pref":"ﾔﾏｸﾞﾁｹﾝ","kana_city":"ｼﾓﾉｾｷｼ","kana_address":"ﾄﾖﾀﾁｮｳﾀﾗｲ","pref":"山口県","city":"下関市","address":"豊田町手洗"},
{"zip_code":"7500401","kana_pref":"ﾔﾏｸﾞﾁｹﾝ","kana_city":"ｼﾓﾉｾｷｼ","kana_address":"ﾄﾖﾀﾁｮｳﾄﾉｲ","pref":"山口県","city":"下関市","address":"豊田町殿居"},
{"zip_code":"7500421","kana_pref":"ﾔﾏｸﾞﾁｹﾝ","kana_city":"ｼﾓﾉｾｷｼ","kana_address":"ﾄﾖﾀﾁｮｳﾄﾉｼｷ","pref":"山口県","city":"下関市","address":"豊田町殿敷"},
{"zip_code":"7500441","kana_pref":"ﾔﾏｸﾞﾁｹﾝ","kana_city":"ｼﾓﾉｾｷｼ","kana_address":"ﾄﾖﾀﾁｮｳﾅｶﾑﾗ","pref":"山口県","city":"下関市","address":"豊田町中村"},
{"zip_code":"7500422","kana_pref":"ﾔﾏｸﾞﾁｹﾝ","kana_city":"ｼﾓﾉｾｷｼ","kana_address":"ﾄﾖﾀﾁｮｳﾅﾗﾜﾗ","pref":"山口県","city":"下関市","address":"豊田町楢原"},
{"zip_code":"7500423","kana_pref":"ﾔﾏｸﾞﾁｹﾝ","kana_city":"ｼﾓﾉｾｷｼ","kana_address":"ﾄﾖﾀﾁｮｳﾆｼｲﾁ","pref":"山口県","city":"下関市","address":"豊田町西市"},
{"zip_code":"7500454","kana_pref":"ﾔﾏｸﾞﾁｹﾝ","kana_city":"ｼﾓﾉｾｷｼ","kana_address":"ﾄﾖﾀﾁｮｳﾆｼﾅｶﾞﾉ","pref":"山口県","city":"下関市","address":"豊田町西長野"},
{"zip_code":"7500425","kana_pref":"ﾔﾏｸﾞﾁｹﾝ","kana_city":"ｼﾓﾉｾｷｼ","kana_address":"ﾄﾖﾀﾁｮｳﾆﾜﾀ","pref":"山口県","city":"下関市","address":"豊田町庭田"},
{"zip_code":"7500444","kana_pref":"ﾔﾏｸﾞﾁｹﾝ","kana_city":"ｼﾓﾉｾｷｼ","kana_address":"ﾄﾖﾀﾁｮｳﾊｷﾞﾜﾗ","pref":"山口県","city":"下関市","address":"豊田町萩原"},
{"zip_code":"7500445","kana_pref":"ﾔﾏｸﾞﾁｹﾝ","kana_city":"ｼﾓﾉｾｷｼ","kana_address":"ﾄﾖﾀﾁｮｳﾋｶﾞｼﾅｶﾞﾉ","pref":"山口県","city":"下関市","address":"豊田町東長野"},
{"zip_code":"7500443","kana_pref":"ﾔﾏｸﾞﾁｹﾝ","kana_city":"ｼﾓﾉｾｷｼ","kana_address":"ﾄﾖﾀﾁｮｳﾋﾉ","pref":"山口県","city":"下関市","address":"豊田町日野"},
{"zip_code":"7500405","kana_pref":"ﾔﾏｸﾞﾁｹﾝ","kana_city":"ｼﾓﾉｾｷｼ","kana_address":"ﾄﾖﾀﾁｮｳﾑｸﾛｳｼﾞ","pref":"山口県","city":"下関市","address":"豊田町杢路子"},
{"zip_code":"7500414","kana_pref":"ﾔﾏｸﾞﾁｹﾝ","kana_city":"ｼﾓﾉｾｷｼ","kana_address":"ﾄﾖﾀﾁｮｳﾔｼﾞ","pref":"山口県","city":"下関市","address":"豊田町八道"},
{"zip_code":"7500424","kana_pref":"ﾔﾏｸﾞﾁｹﾝ","kana_city":"ｼﾓﾉｾｷｼ","kana_address":"ﾄﾖﾀﾁｮｳﾔﾀ","pref":"山口県","city":"下関市","address":"豊田町矢田"},
{"zip_code":"7500004","kana_pref":"ﾔﾏｸﾞﾁｹﾝ","kana_city":"ｼﾓﾉｾｷｼ","kana_address":"ﾅｶﾉﾁｮｳ","pref":"山口県","city":"下関市","address":"中之町"},
{"zip_code":"7500023","kana_pref":"ﾔﾏｸﾞﾁｹﾝ","kana_city":"ｼﾓﾉｾｷｼ","kana_address":"ﾅｶﾞｻｷｼﾝﾏﾁ","pref":"山口県","city":"下関市","address":"長崎新町"},
{"zip_code":"7500021","kana_pref":"ﾔﾏｸﾞﾁｹﾝ","kana_city":"ｼﾓﾉｾｷｼ","kana_address":"ﾅｶﾞｻｷﾁｭｳｵｳﾁｮｳ","pref":"山口県","city":"下関市","address":"長崎中央町"},
{"zip_code":"7500028","kana_pref":"ﾔﾏｸﾞﾁｹﾝ","kana_city":"ｼﾓﾉｾｷｼ","kana_address":"ﾅｶﾞｻｷﾎﾝﾏﾁ","pref":"山口県","city":"下関市","address":"長崎本町"},
{"zip_code":"7500029","kana_pref":"ﾔﾏｸﾞﾁｹﾝ","kana_city":"ｼﾓﾉｾｷｼ","kana_address":"ﾅｶﾞｻｷﾁｮｳ","pref":"山口県","city":"下関市","address":"長崎町"},
{"zip_code":"7500026","kana_pref":"ﾔﾏｸﾞﾁｹﾝ","kana_city":"ｼﾓﾉｾｷｼ","kana_address":"ﾅｶﾞﾄﾏﾁ","pref":"山口県","city":"下関市","address":"長門町"},
{"zip_code":"7500006","kana_pref":"ﾔﾏｸﾞﾁｹﾝ","kana_city":"ｼﾓﾉｾｷｼ","kana_address":"ﾅﾍﾞﾁｮｳ","pref":"山口県","city":"下関市","address":"南部町"},
{"zip_code":"7500015","kana_pref":"ﾔﾏｸﾞﾁｹﾝ","kana_city":"ｼﾓﾉｾｷｼ","kana_address":"ﾆｼｲﾘｴﾁｮｳ","pref":"山口県","city":"下関市","address":"西入江町"},
{"zip_code":"7500054","kana_pref":"ﾔﾏｸﾞﾁｹﾝ","kana_city":"ｼﾓﾉｾｷｼ","kana_address":"ﾆｼｵｵﾂﾎﾞﾁｮｳ","pref":"山口県","city":"下関市","address":"西大坪町"},
{"zip_code":"7500034","kana_pref":"ﾔﾏｸﾞﾁｹﾝ","kana_city":"ｼﾓﾉｾｷｼ","kana_address":"ﾆｼｶﾝﾀﾞﾁｮｳ","pref":"山口県","city":"下関市","address":"西神田町"},
{"zip_code":"7500014","kana_pref":"ﾔﾏｸﾞﾁｹﾝ","kana_city":"ｼﾓﾉｾｷｼ","kana_address":"ﾊﾅﾉﾁｮｳ","pref":"山口県","city":"下関市","address":"岬之町"},
{"zip_code":"7500046","kana_pref":"ﾔﾏｸﾞﾁｹﾝ","kana_city":"ｼﾓﾉｾｷｼ","kana_address":"ﾊﾔﾏﾁｮｳ","pref":"山口県","city":"下関市","address":"羽山町"},
{"zip_code":"7500043","kana_pref":"ﾔﾏｸﾞﾁｹﾝ","kana_city":"ｼﾓﾉｾｷｼ","kana_address":"ﾋｶﾞｼｶﾝﾀﾞﾁｮｳ","pref":"山口県","city":"下関市","address":"東神田町"},
{"zip_code":"7500048","kana_pref":"ﾔﾏｸﾞﾁｹﾝ","kana_city":"ｼﾓﾉｾｷｼ","kana_address":"ﾋｶﾞｼﾑｶｲﾔﾏﾁｮｳ","pref":"山口県","city":"下関市","address":"東向山町"},
{"zip_code":"7500066","kana_pref":"ﾔﾏｸﾞﾁｹﾝ","kana_city":"ｼﾓﾉｾｷｼ","kana_address":"ﾋｶﾞｼﾔﾏﾄﾏﾁ","pref":"山口県","city":"下関市","address":"東大和町"},
{"zip_code":"7500071","kana_pref":"ﾔﾏｸﾞﾁｹﾝ","kana_city":"ｼﾓﾉｾｷｼ","kana_address":"ﾋｺｼﾏｱﾏﾉｺﾞｳﾁｮｳ","pref":"山口県","city":"下関市","address":"彦島海士郷町"},
{"zip_code":"7500075","kana_pref":"ﾔﾏｸﾞﾁｹﾝ","kana_city":"ｼﾓﾉｾｷｼ","kana_address":"ﾋｺｼﾏｴﾉｳﾗﾁｮｳ","pref":"山口県","city":"下関市","address":"彦島江の浦町"},
{"zip_code":"7500073","kana_pref":"ﾔﾏｸﾞﾁｹﾝ","kana_city":"ｼﾓﾉｾｷｼ","kana_address":"ﾋｺｼﾏｵｲﾉﾔﾏｺｳｴﾝ","pref":"山口県","city":"下関市","address":"彦島老の山公園"},
{"zip_code":"7500072","kana_pref":"ﾔﾏｸﾞﾁｹﾝ","kana_city":"ｼﾓﾉｾｷｼ","kana_address":"ﾋｺｼﾏｵｲﾏﾁ","pref":"山口県","city":"下関市","address":"彦島老町"},
{"zip_code":"7500083","kana_pref":"ﾔﾏｸﾞﾁｹﾝ","kana_city":"ｼﾓﾉｾｷｼ","kana_address":"ﾋｺｼﾏｻｸﾗｶﾞｵｶﾁｮｳ","pref":"山口県","city":"下関市","address":"彦島桜ケ丘町"},
{"zip_code":"7500092","kana_pref":"ﾔﾏｸﾞﾁｹﾝ","kana_city":"ｼﾓﾉｾｷｼ","kana_address":"ﾋｺｼﾏｻｺﾏﾁ","pref":"山口県","city":"下関市","address":"彦島迫町"},
{"zip_code":"7500086","kana_pref":"ﾔﾏｸﾞﾁｹﾝ","kana_city":"ｼﾓﾉｾｷｼ","kana_address":"ﾋｺｼﾏｼｵﾊﾏﾁｮｳ","pref":"山口県","city":"下関市","address":"彦島塩浜町"},
{"zip_code":"7500078","kana_pref":"ﾔﾏｸﾞﾁｹﾝ","kana_city":"ｼﾓﾉｾｷｼ","kana_address":"ﾋｺｼﾏｽｷﾞﾀﾁｮｳ","pref":"山口県","city":"下関市","address":"彦島杉田町"},
{"zip_code":"7500081","kana_pref":"ﾔﾏｸﾞﾁｹﾝ","kana_city":"ｼﾓﾉｾｷｼ","kana_address":"ﾋｺｼﾏｽﾏｸﾗﾁｮｳ","pref":"山口県","city":"下関市","address":"彦島角倉町"},
{"zip_code":"7500094","kana_pref":"ﾔﾏｸﾞﾁｹﾝ","kana_city":"ｼﾓﾉｾｷｼ","kana_address":"ﾋｺｼﾏﾀｹﾉｺｼﾞﾏﾁｮｳ","pref":"山口県","city":"下関市","address":"彦島竹ノ子島町"},
{"zip_code":"7500085","kana_pref":"ﾔﾏｸﾞﾁｹﾝ","kana_city":"ｼﾓﾉｾｷｼ","kana_address":"ﾋｺｼﾏﾀﾉｸﾋﾞﾁｮｳ","pref":"山口県","city":"下関市","address":"彦島田の首町"},
{"zip_code":"7500076","kana_pref":"ﾔﾏｸﾞﾁｹﾝ","kana_city":"ｼﾓﾉｾｷｼ","kana_address":"ﾋｺｼﾏﾃﾞｼﾏﾂﾁｮｳ","pref":"山口県","city":"下関市","address":"彦島弟子待町"},
{"zip_code":"7500077","kana_pref":"ﾔﾏｸﾞﾁｹﾝ","kana_city":"ｼﾓﾉｾｷｼ","kana_address":"ﾋｺｼﾏﾃﾞｼﾏﾂﾋｶﾞｼﾏﾁ","pref":"山口県","city":"下関市","address":"彦島弟子待東町"},
{"zip_code":"7500093","kana_pref":"ﾔﾏｸﾞﾁｹﾝ","kana_city":"ｼﾓﾉｾｷｼ","kana_address":"ﾋｺｼﾏﾆｼﾔﾏﾁｮｳ","pref":"山口県","city":"下関市","address":"彦島西山町"},
{"zip_code":"7500087","kana_pref":"ﾔﾏｸﾞﾁｹﾝ","kana_city":"ｼﾓﾉｾｷｼ","kana_address":"ﾋｺｼﾏﾌｸｳﾗﾁｮｳ","pref":"山口県","city":"下関市","address":"彦島福浦町"},
{"zip_code":"7500074","kana_pref":"ﾔﾏｸﾞﾁｹﾝ","kana_city":"ｼﾓﾉｾｷｼ","kana_address":"ﾋｺｼﾏﾎﾝﾑﾗﾁｮｳ","pref":"山口県","city":"下関市","address":"彦島本村町"},
{"zip_code":"7500091","kana_pref":"ﾔﾏｸﾞﾁｹﾝ","kana_city":"ｼﾓﾉｾｷｼ","kana_address":"ﾋｺｼﾏﾐﾄﾞﾘﾁｮｳ","pref":"山口県","city":"下関市","address":"彦島緑町"},
{"zip_code":"7500084","kana_pref":"ﾔﾏｸﾞﾁｹﾝ","kana_city":"ｼﾓﾉｾｷｼ","kana_address":"ﾋｺｼﾏﾑｶｲﾁｮｳ","pref":"山口県","city":"下関市","address":"彦島向井町"},
{"zip_code":"7500082","kana_pref":"ﾔﾏｸﾞﾁｹﾝ","kana_city":"ｼﾓﾉｾｷｼ","kana_address":"ﾋｺｼﾏﾔﾏﾅｶﾁｮｳ","pref":"山口県","city":"下関市","address":"彦島山中町"},
{"zip_code":"7500052","kana_pref":"ﾔﾏｸﾞﾁｹﾝ","kana_city":"ｼﾓﾉｾｷｼ","kana_address":"ﾌｼﾞﾂｸﾁｮｳ","pref":"山口県","city":"下関市","address":"藤附町"},
{"zip_code":"7500018","kana_pref":"ﾔﾏｸﾞﾁｹﾝ","kana_city":"ｼﾓﾉｾｷｼ","kana_address":"ﾌﾞｾﾞﾝﾀﾞﾁｮｳ","pref":"山口県","city":"下関市","address":"豊前田町"},
{"zip_code":"7500017","kana_pref":"ﾔﾏｸﾞﾁｹﾝ","kana_city":"ｼﾓﾉｾｷｼ","kana_address":"ﾎｿｴｼﾝﾏﾁ","pref":"山口県","city":"下関市","address":"細江新町"},
{"zip_code":"7500016","kana_pref":"ﾔﾏｸﾞﾁｹﾝ","kana_city":"ｼﾓﾉｾｷｼ","kana_address":"ﾎｿｴﾁｮｳ","pref":"山口県","city":"下関市","address":"細江町"},
{"zip_code":"7501121","kana_pref":"ﾔﾏｸﾞﾁｹﾝ","kana_city":"ｼﾓﾉｾｷｼ","kana_address":"ﾏﾂﾔ","pref":"山口県","city":"下関市","address":"松屋"},
{"zip_code":"7501122","kana_pref":"ﾔﾏｸﾞﾁｹﾝ","kana_city":"ｼﾓﾉｾｷｼ","kana_address":"ﾏﾂﾔｶﾐﾏﾁ","pref":"山口県","city":"下関市","address":"松屋上町"},
{"zip_code":"7501123","kana_pref":"ﾔﾏｸﾞﾁｹﾝ","kana_city":"ｼﾓﾉｾｷｼ","kana_address":"ﾏﾂﾔﾋｶﾞｼﾏﾁ","pref":"山口県","city":"下関市","address":"松屋東町"},
{"zip_code":"7501124","kana_pref":"ﾔﾏｸﾞﾁｹﾝ","kana_city":"ｼﾓﾉｾｷｼ","kana_address":"ﾏﾂﾔﾎﾝﾏﾁ","pref":"山口県","city":"下関市","address":"松屋本町"},
{"zip_code":"7500019","kana_pref":"ﾔﾏｸﾞﾁｹﾝ","kana_city":"ｼﾓﾉｾｷｼ","kana_address":"ﾏﾙﾔﾏﾁｮｳ","pref":"山口県","city":"下関市","address":"丸山町"},
{"zip_code":"7500055","kana_pref":"ﾔﾏｸﾞﾁｹﾝ","kana_city":"ｼﾓﾉｾｷｼ","kana_address":"ﾐﾅﾐｵｵﾂﾎﾞﾁｮｳ","pref":"山口県","city":"下関市","address":"南大坪町"},
{"zip_code":"7500002","kana_pref":"ﾔﾏｸﾞﾁｹﾝ","kana_city":"ｼﾓﾉｾｷｼ","kana_address":"ﾐﾔﾀﾞﾏﾁ","pref":"山口県","city":"下関市","address":"宮田町"},
{"zip_code":"7500047","kana_pref":"ﾔﾏｸﾞﾁｹﾝ","kana_city":"ｼﾓﾉｾｷｼ","kana_address":"ﾑｶｲﾔﾏﾁｮｳ","pref":"山口県","city":"下関市","address":"向山町"},
{"zip_code":"7500095","kana_pref":"ﾔﾏｸﾞﾁｹﾝ","kana_city":"ｼﾓﾉｾｷｼ","kana_address":"ﾑﾂﾚｼﾞﾏ","pref":"山口県","city":"下関市","address":"六連島"},
{"zip_code":"7500011","kana_pref":"ﾔﾏｸﾞﾁｹﾝ","kana_city":"ｼﾓﾉｾｷｼ","kana_address":"ﾒｲﾁﾁｮｳ","pref":"山口県","city":"下関市","address":"名池町"},
{"zip_code":"7500045","kana_pref":"ﾔﾏｸﾞﾁｹﾝ","kana_city":"ｼﾓﾉｾｷｼ","kana_address":"ﾓﾄﾏﾁ","pref":"山口県","city":"下関市","address":"元町"},
{"zip_code":"7500033","kana_pref":"ﾔﾏｸﾞﾁｹﾝ","kana_city":"ｼﾓﾉｾｷｼ","kana_address":"ﾔﾏﾃﾁｮｳ","pref":"山口県","city":"下関市","address":"山手町"},
{"zip_code":"7500067","kana_pref":"ﾔﾏｸﾞﾁｹﾝ","kana_city":"ｼﾓﾉｾｷｼ","kana_address":"ﾔﾏﾄﾏﾁ","pref":"山口県","city":"下関市","address":"大和町"},
{"zip_code":"7501101","kana_pref":"ﾔﾏｸﾞﾁｹﾝ","kana_city":"ｼﾓﾉｾｷｼ","kana_address":"ﾖｼﾀﾞ","pref":"山口県","city":"下関市","address":"吉田"},
{"zip_code":"7501102","kana_pref":"ﾔﾏｸﾞﾁｹﾝ","kana_city":"ｼﾓﾉｾｷｼ","kana_address":"ﾖｼﾀﾞｼﾞｶﾀ","pref":"山口県","city":"下関市","address":"吉田地方"},
{"zip_code":"7500601","kana_pref":"ﾔﾏｸﾞﾁｹﾝ","kana_city":"ﾐﾈｼ","kana_address":"ﾄﾖﾀﾏｴﾁｮｳｱｿｳｶﾐ","pref":"山口県","city":"美祢市","address":"豊田前町麻生上"},
{"zip_code":"7500602","kana_pref":"ﾔﾏｸﾞﾁｹﾝ","kana_city":"ﾐﾈｼ","kana_address":"ﾄﾖﾀﾏｴﾁｮｳｱｿｳｼﾓ","pref":"山口県","city":"美祢市","address":"豊田前町麻生下"},
{"zip_code":"7500603","kana_pref":"ﾔﾏｸﾞﾁｹﾝ","kana_city":"ﾐﾈｼ","kana_address":"ﾄﾖﾀﾏｴﾁｮｳｲﾏﾔﾏ","pref":"山口県","city":"美祢市","address":"豊田前町今山"},
{"zip_code":"7500606","kana_pref":"ﾔﾏｸﾞﾁｹﾝ","kana_city":"ﾐﾈｼ","kana_address":"ﾄﾖﾀﾏｴﾁｮｳﾀﾞｹ","pref":"山口県","city":"美祢市","address":"豊田前町嶽"},
{"zip_code":"7500605","kana_pref":"ﾔﾏｸﾞﾁｹﾝ","kana_city":"ﾐﾈｼ","kana_address":"ﾄﾖﾀﾏｴﾁｮｳﾌﾙｴﾎﾞｼ","pref":"山口県","city":"美祢市","address":"豊田前町古烏帽子"},
{"zip_code":"7500604","kana_pref":"ﾔﾏｸﾞﾁｹﾝ","kana_city":"ﾐﾈｼ","kana_address":"ﾄﾖﾀﾏｴﾁｮｳﾎｳﾎｳ","pref":"山口県","city":"美祢市","address":"豊田前町保々"}]}