{"zip_code":[
{"zip_code":"7530000","kana_pref":"ﾔﾏｸﾞﾁｹﾝ","kana_city":"ﾔﾏｸﾞﾁｼ","kana_address":"","pref":"山口県","city":"山口市","address":""},
{"zip_code":"7530821","kana_pref":"ﾔﾏｸﾞﾁｹﾝ","kana_city":"ﾔﾏｸﾞﾁｼ","kana_address":"ｱｵｲ","pref":"山口県","city":"山口市","address":"葵"},
{"zip_code":"7530012","kana_pref":"ﾔﾏｸﾞﾁｹﾝ","kana_city":"ﾔﾏｸﾞﾁｼ","kana_address":"ｱｵﾊﾞﾀﾞｲ","pref":"山口県","city":"山口市","address":"青葉台"},
{"zip_code":"7530067","kana_pref":"ﾔﾏｸﾞﾁｹﾝ","kana_city":"ﾔﾏｸﾞﾁｼ","kana_address":"ｱｶﾂﾞﾏﾁｮｳ","pref":"山口県","city":"山口市","address":"赤妻町"},
{"zip_code":"7530061","kana_pref":"ﾔﾏｸﾞﾁｹﾝ","kana_city":"ﾔﾏｸﾞﾁｼ","kana_address":"ｱｻｸﾗﾁｮｳ","pref":"山口県","city":"山口市","address":"朝倉町"},
{"zip_code":"7530871","kana_pref":"ﾔﾏｸﾞﾁｹﾝ","kana_city":"ﾔﾏｸﾞﾁｼ","kana_address":"ｱｻﾀﾞ","pref":"山口県","city":"山口市","address":"朝田"},
{"zip_code":"7530872","kana_pref":"ﾔﾏｸﾞﾁｹﾝ","kana_city":"ﾔﾏｸﾞﾁｼ","kana_address":"ｱｻﾀﾞﾘｭｳﾂｳｾﾝﾀｰ","pref":"山口県","city":"山口市","address":"朝田流通センター"},
{"zip_code":"7530051","kana_pref":"ﾔﾏｸﾞﾁｹﾝ","kana_city":"ﾔﾏｸﾞﾁｼ","kana_address":"ｱｻﾋﾄﾞｵﾘ","pref":"山口県","city":"山口市","address":"旭通り"},
{"zip_code":"7530038","kana_pref":"ﾔﾏｸﾞﾁｹﾝ","kana_city":"ﾔﾏｸﾞﾁｼ","kana_address":"ｲｼｶﾞﾝﾉﾝﾁｮｳ","pref":"山口県","city":"山口市","address":"石観音町"},
{"zip_code":"7530815","kana_pref":"ﾔﾏｸﾞﾁｹﾝ","kana_city":"ﾔﾏｸﾞﾁｼ","kana_address":"ｲｼﾝｺｳｴﾝ","pref":"山口県","city":"山口市","address":"維新公園"},
{"zip_code":"7530066","kana_pref":"ﾔﾏｸﾞﾁｹﾝ","kana_city":"ﾔﾏｸﾞﾁｼ","kana_address":"ｲｽﾞﾐﾁｮｳ","pref":"山口県","city":"山口市","address":"泉町"},
{"zip_code":"7530079","kana_pref":"ﾔﾏｸﾞﾁｹﾝ","kana_city":"ﾔﾏｸﾞﾁｼ","kana_address":"ｲﾄﾖﾈ","pref":"山口県","city":"山口市","address":"糸米"},
{"zip_code":"7530055","kana_pref":"ﾔﾏｸﾞﾁｹﾝ","kana_city":"ﾔﾏｸﾞﾁｼ","kana_address":"ｲﾏｲﾁｮｳ","pref":"山口県","city":"山口市","address":"今井町"},
{"zip_code":"7530083","kana_pref":"ﾔﾏｸﾞﾁｹﾝ","kana_city":"ﾔﾏｸﾞﾁｼ","kana_address":"ｳｼﾛｶﾞﾜﾗ","pref":"山口県","city":"山口市","address":"後河原"},
{"zip_code":"7530048","kana_pref":"ﾔﾏｸﾞﾁｹﾝ","kana_city":"ﾔﾏｸﾞﾁｼ","kana_address":"ｴｷﾄﾞｵﾘ","pref":"山口県","city":"山口市","address":"駅通り"},
{"zip_code":"7530017","kana_pref":"ﾔﾏｸﾞﾁｹﾝ","kana_city":"ﾔﾏｸﾞﾁｼ","kana_address":"ｴﾗ","pref":"山口県","city":"山口市","address":"江良"},
{"zip_code":"7530036","kana_pref":"ﾔﾏｸﾞﾁｹﾝ","kana_city":"ﾔﾏｸﾞﾁｼ","kana_address":"ｴﾝｾｲｼﾞ","pref":"山口県","city":"山口市","address":"円政寺"},
{"zip_code":"7530036","kana_pref":"ﾔﾏｸﾞﾁｹﾝ","kana_city":"ﾔﾏｸﾞﾁｼ","kana_address":"ｴﾝｾｲｼﾞﾁｮｳ","pref":"山口県","city":"山口市","address":"円政寺町"},
{"zip_code":"7530033","kana_pref":"ﾔﾏｸﾞﾁｹﾝ","kana_city":"ﾔﾏｸﾞﾁｼ","kana_address":"ｵｵｲﾁﾁｮｳ","pref":"山口県","city":"山口市","address":"大市町"},
{"zip_code":"7530211","kana_pref":"ﾔﾏｸﾞﾁｹﾝ","kana_city":"ﾔﾏｸﾞﾁｼ","kana_address":"ｵｵｳﾁﾅｶﾞﾉ","pref":"山口県","city":"山口市","address":"大内長野"},
{"zip_code":"7530214","kana_pref":"ﾔﾏｸﾞﾁｹﾝ","kana_city":"ﾔﾏｸﾞﾁｼ","kana_address":"ｵｵｳﾁﾐﾎﾘ","pref":"山口県","city":"山口市","address":"大内御堀"},
{"zip_code":"7530215","kana_pref":"ﾔﾏｸﾞﾁｹﾝ","kana_city":"ﾔﾏｸﾞﾁｼ","kana_address":"ｵｵｳﾁﾔﾀ","pref":"山口県","city":"山口市","address":"大内矢田"},
{"zip_code":"7530072","kana_pref":"ﾔﾏｸﾞﾁｹﾝ","kana_city":"ﾔﾏｸﾞﾁｼ","kana_address":"ｵｵﾃﾏﾁ","pref":"山口県","city":"山口市","address":"大手町"},
{"zip_code":"7530093","kana_pref":"ﾔﾏｸﾞﾁｹﾝ","kana_city":"ﾔﾏｸﾞﾁｼ","kana_address":"ｵｵﾄﾞﾉｵｵｼﾞ","pref":"山口県","city":"山口市","address":"大殿大路"},
{"zip_code":"7530062","kana_pref":"ﾔﾏｸﾞﾁｹﾝ","kana_city":"ﾔﾏｸﾞﾁｼ","kana_address":"ｵｷﾞﾁｮｳ","pref":"山口県","city":"山口市","address":"荻町"},
{"zip_code":"7530872","kana_pref":"ﾔﾏｸﾞﾁｹﾝ","kana_city":"ﾔﾏｸﾞﾁｼ","kana_address":"ｵｺﾞｵﾘｶﾐｺﾞｳﾘｭｳﾂｳｾﾝﾀｰ","pref":"山口県","city":"山口市","address":"小郡上郷流通センター"},
{"zip_code":"7530022","kana_pref":"ﾔﾏｸﾞﾁｹﾝ","kana_city":"ﾔﾏｸﾞﾁｼ","kana_address":"ｵﾘﾓﾄ","pref":"山口県","city":"山口市","address":"折本"},
{"zip_code":"7530073","kana_pref":"ﾔﾏｸﾞﾁｹﾝ","kana_city":"ﾔﾏｸﾞﾁｼ","kana_address":"ｶｽｶﾞﾁｮｳ","pref":"山口県","city":"山口市","address":"春日町"},
{"zip_code":"7530024","kana_pref":"ﾔﾏｸﾞﾁｹﾝ","kana_city":"ﾔﾏｸﾞﾁｼ","kana_address":"ｶﾅｺｿﾁｮｳ","pref":"山口県","city":"山口市","address":"金古曽町"},
{"zip_code":"7530091","kana_pref":"ﾔﾏｸﾞﾁｹﾝ","kana_city":"ﾔﾏｸﾞﾁｼ","kana_address":"ｶﾐｳﾉﾚｲ","pref":"山口県","city":"山口市","address":"上宇野令"},
{"zip_code":"7530213","kana_pref":"ﾔﾏｸﾞﾁｹﾝ","kana_city":"ﾔﾏｸﾞﾁｼ","kana_address":"ｶﾐｵｻﾊﾞ","pref":"山口県","city":"山口市","address":"上小鯖"},
{"zip_code":"7530035","kana_pref":"ﾔﾏｸﾞﾁｹﾝ","kana_city":"ﾔﾏｸﾞﾁｼ","kana_address":"ｶﾐﾀﾃｺｳｼﾞ","pref":"山口県","city":"山口市","address":"上竪小路"},
{"zip_code":"7530891","kana_pref":"ﾔﾏｸﾞﾁｹﾝ","kana_city":"ﾔﾏｸﾞﾁｼ","kana_address":"ｶﾐﾃﾝｹﾞﾏﾁ","pref":"山口県","city":"山口市","address":"上天花町"},
{"zip_code":"7530089","kana_pref":"ﾔﾏｸﾞﾁｹﾝ","kana_city":"ﾔﾏｸﾞﾁｼ","kana_address":"ｶﾒﾔﾏﾁｮｳ","pref":"山口県","city":"山口市","address":"亀山町"},
{"zip_code":"7530064","kana_pref":"ﾔﾏｸﾞﾁｹﾝ","kana_city":"ﾔﾏｸﾞﾁｼ","kana_address":"ｶﾝﾀﾞﾁｮｳ","pref":"山口県","city":"山口市","address":"神田町"},
{"zip_code":"7530095","kana_pref":"ﾔﾏｸﾞﾁｹﾝ","kana_city":"ﾔﾏｸﾞﾁｼ","kana_address":"ｷﾏﾁ","pref":"山口県","city":"山口市","address":"木町"},
{"zip_code":"7530065","kana_pref":"ﾔﾏｸﾞﾁｹﾝ","kana_city":"ﾔﾏｸﾞﾁｼ","kana_address":"ｸｽﾉｷﾁｮｳ","pref":"山口県","city":"山口市","address":"楠木町"},
{"zip_code":"7530084","kana_pref":"ﾔﾏｸﾞﾁｹﾝ","kana_city":"ﾔﾏｸﾞﾁｼ","kana_address":"ｸﾎﾞｼｮｳｼﾞ","pref":"山口県","city":"山口市","address":"久保小路"},
{"zip_code":"7530077","kana_pref":"ﾔﾏｸﾞﾁｹﾝ","kana_city":"ﾔﾏｸﾞﾁｼ","kana_address":"ｸﾏﾉﾁｮｳ","pref":"山口県","city":"山口市","address":"熊野町"},
{"zip_code":"7530851","kana_pref":"ﾔﾏｸﾞﾁｹﾝ","kana_city":"ﾔﾏｸﾞﾁｼ","kana_address":"ｸﾛｶﾜ","pref":"山口県","city":"山口市","address":"黒川"},
{"zip_code":"7530081","kana_pref":"ﾔﾏｸﾞﾁｹﾝ","kana_city":"ﾔﾏｸﾞﾁｼ","kana_address":"ｺｳｻﾞﾝﾁｮｳ","pref":"山口県","city":"山口市","address":"香山町"},
{"zip_code":"7530045","kana_pref":"ﾔﾏｸﾞﾁｹﾝ","kana_city":"ﾔﾏｸﾞﾁｼ","kana_address":"ｺｶﾞﾈﾁｮｳ","pref":"山口県","city":"山口市","address":"黄金町"},
{"zip_code":"7530087","kana_pref":"ﾔﾏｸﾞﾁｹﾝ","kana_city":"ﾔﾏｸﾞﾁｼ","kana_address":"ｺﾒﾔﾁｮｳ","pref":"山口県","city":"山口市","address":"米屋町"},
{"zip_code":"7530826","kana_pref":"ﾔﾏｸﾞﾁｹﾝ","kana_city":"ﾔﾏｸﾞﾁｼ","kana_address":"ｻｲﾜｲﾁｮｳ","pref":"山口県","city":"山口市","address":"幸町"},
{"zip_code":"7530021","kana_pref":"ﾔﾏｸﾞﾁｹﾝ","kana_city":"ﾔﾏｸﾞﾁｼ","kana_address":"ｻｸﾗﾊﾞﾀｹ","pref":"山口県","city":"山口市","address":"桜畠"},
{"zip_code":"7530023","kana_pref":"ﾔﾏｸﾞﾁｹﾝ","kana_city":"ﾔﾏｸﾞﾁｼ","kana_address":"ｻﾝﾉﾐﾔ","pref":"山口県","city":"山口市","address":"三の宮"},
{"zip_code":"7530052","kana_pref":"ﾔﾏｸﾞﾁｹﾝ","kana_city":"ﾔﾏｸﾞﾁｼ","kana_address":"ｻﾝﾜﾁｮｳ","pref":"山口県","city":"山口市","address":"三和町"},
{"zip_code":"7530025","kana_pref":"ﾔﾏｸﾞﾁｹﾝ","kana_city":"ﾔﾏｸﾞﾁｼ","kana_address":"ｼﾊﾞｻｷﾁｮｳ","pref":"山口県","city":"山口市","address":"芝崎町"},
{"zip_code":"7530058","kana_pref":"ﾔﾏｸﾞﾁｹﾝ","kana_city":"ﾔﾏｸﾞﾁｼ","kana_address":"ｼﾓｲﾁﾁｮｳ","pref":"山口県","city":"山口市","address":"下市町"},
{"zip_code":"7530212","kana_pref":"ﾔﾏｸﾞﾁｹﾝ","kana_city":"ﾔﾏｸﾞﾁｼ","kana_address":"ｼﾓｵｻﾊﾞ","pref":"山口県","city":"山口市","address":"下小鯖"},
{"zip_code":"7530034","kana_pref":"ﾔﾏｸﾞﾁｹﾝ","kana_city":"ﾔﾏｸﾞﾁｼ","kana_address":"ｼﾓﾀﾃｺｳｼﾞ","pref":"山口県","city":"山口市","address":"下竪小路"},
{"zip_code":"7530084","kana_pref":"ﾔﾏｸﾞﾁｹﾝ","kana_city":"ﾔﾏｸﾞﾁｼ","kana_address":"ｼｮｶﾞﾝｼｮｳｼﾞ","pref":"山口県","city":"山口市","address":"諸願小路"},
{"zip_code":"7530070","kana_pref":"ﾔﾏｸﾞﾁｹﾝ","kana_city":"ﾔﾏｸﾞﾁｼ","kana_address":"ｼﾗｲｼ","pref":"山口県","city":"山口市","address":"白石"},
{"zip_code":"7530085","kana_pref":"ﾔﾏｸﾞﾁｹﾝ","kana_city":"ﾔﾏｸﾞﾁｼ","kana_address":"ｼﾝﾊﾞﾊﾞ","pref":"山口県","city":"山口市","address":"新馬場"},
{"zip_code":"7530822","kana_pref":"ﾔﾏｸﾞﾁｹﾝ","kana_city":"ﾔﾏｸﾞﾁｼ","kana_address":"ｽﾌﾁｮｳ","pref":"山口県","city":"山口市","address":"周布町"},
{"zip_code":"7530084","kana_pref":"ﾔﾏｸﾞﾁｹﾝ","kana_city":"ﾔﾏｸﾞﾁｼ","kana_address":"ｾﾝﾄｳｼｮｳｼﾞ","pref":"山口県","city":"山口市","address":"銭湯小路"},
{"zip_code":"7530076","kana_pref":"ﾔﾏｸﾞﾁｹﾝ","kana_city":"ﾔﾏｸﾞﾁｼ","kana_address":"ｾﾝﾄﾁｮｳ","pref":"山口県","city":"山口市","address":"泉都町"},
{"zip_code":"7530042","kana_pref":"ﾔﾏｸﾞﾁｹﾝ","kana_city":"ﾔﾏｸﾞﾁｼ","kana_address":"ｿｳﾀﾞﾕｳﾁｮｳ","pref":"山口県","city":"山口市","address":"惣太夫町"},
{"zip_code":"7530812","kana_pref":"ﾔﾏｸﾞﾁｹﾝ","kana_city":"ﾔﾏｸﾞﾁｼ","kana_address":"ﾀｶﾗﾁｮｳ","pref":"山口県","city":"山口市","address":"宝町"},
{"zip_code":"7530071","kana_pref":"ﾔﾏｸﾞﾁｹﾝ","kana_city":"ﾔﾏｸﾞﾁｼ","kana_address":"ﾀｷﾏﾁ","pref":"山口県","city":"山口市","address":"滝町"},
{"zip_code":"7530074","kana_pref":"ﾔﾏｸﾞﾁｹﾝ","kana_city":"ﾔﾏｸﾞﾁｼ","kana_address":"ﾁｭｳｵｳ","pref":"山口県","city":"山口市","address":"中央"},
{"zip_code":"7530091","kana_pref":"ﾔﾏｸﾞﾁｹﾝ","kana_city":"ﾔﾏｸﾞﾁｼ","kana_address":"ﾃﾝｹﾞ","pref":"山口県","city":"山口市","address":"天花"},
{"zip_code":"7530047","kana_pref":"ﾔﾏｸﾞﾁｹﾝ","kana_city":"ﾔﾏｸﾞﾁｼ","kana_address":"ﾄﾞｳｼﾞｮｳﾓﾝｾﾞﾝ","pref":"山口県","city":"山口市","address":"道場門前"},
{"zip_code":"7530037","kana_pref":"ﾔﾏｸﾞﾁｹﾝ","kana_city":"ﾔﾏｸﾞﾁｼ","kana_address":"ﾄﾞｳｿﾁｮｳ","pref":"山口県","city":"山口市","address":"道祖町"},
{"zip_code":"7530032","kana_pref":"ﾔﾏｸﾞﾁｹﾝ","kana_city":"ﾔﾏｸﾞﾁｼ","kana_address":"ﾄﾞｳﾉﾏｴﾁｮｳ","pref":"山口県","city":"山口市","address":"堂の前町"},
{"zip_code":"7530054","kana_pref":"ﾔﾏｸﾞﾁｹﾝ","kana_city":"ﾔﾏｸﾞﾁｼ","kana_address":"ﾄﾐﾀﾊﾞﾗﾁｮｳ","pref":"山口県","city":"山口市","address":"富田原町"},
{"zip_code":"7530086","kana_pref":"ﾔﾏｸﾞﾁｹﾝ","kana_city":"ﾔﾏｸﾞﾁｼ","kana_address":"ﾅｶｲﾁﾁｮｳ","pref":"山口県","city":"山口市","address":"中市町"},
{"zip_code":"7530801","kana_pref":"ﾔﾏｸﾞﾁｹﾝ","kana_city":"ﾔﾏｸﾞﾁｼ","kana_address":"ﾅｶｵ","pref":"山口県","city":"山口市","address":"中尾"},
{"zip_code":"7530088","kana_pref":"ﾔﾏｸﾞﾁｹﾝ","kana_city":"ﾔﾏｸﾞﾁｼ","kana_address":"ﾅｶｶﾞﾜﾗ","pref":"山口県","city":"山口市","address":"中河原"},
{"zip_code":"7530088","kana_pref":"ﾔﾏｸﾞﾁｹﾝ","kana_city":"ﾔﾏｸﾞﾁｼ","kana_address":"ﾅｶｶﾞﾜﾗﾁｮｳ","pref":"山口県","city":"山口市","address":"中河原町"},
{"zip_code":"7530075","kana_pref":"ﾔﾏｸﾞﾁｹﾝ","kana_city":"ﾔﾏｸﾞﾁｼ","kana_address":"ﾅｶｿﾞﾉﾁｮｳ","pref":"山口県","city":"山口市","address":"中園町"},
{"zip_code":"7530018","kana_pref":"ﾔﾏｸﾞﾁｹﾝ","kana_city":"ﾔﾏｸﾞﾁｼ","kana_address":"ﾅﾅｵﾀﾞｲ","pref":"山口県","city":"山口市","address":"七尾台"},
{"zip_code":"7530068","kana_pref":"ﾔﾏｸﾞﾁｹﾝ","kana_city":"ﾔﾏｸﾞﾁｼ","kana_address":"ﾆｼｷﾁｮｳ","pref":"山口県","city":"山口市","address":"錦町"},
{"zip_code":"7530301","kana_pref":"ﾔﾏｸﾞﾁｹﾝ","kana_city":"ﾔﾏｸﾞﾁｼ","kana_address":"ﾆﾎｶﾐｺﾞｳ","pref":"山口県","city":"山口市","address":"仁保上郷"},
{"zip_code":"7530303","kana_pref":"ﾔﾏｸﾞﾁｹﾝ","kana_city":"ﾔﾏｸﾞﾁｼ","kana_address":"ﾆﾎｼﾓｺﾞｳ","pref":"山口県","city":"山口市","address":"仁保下郷"},
{"zip_code":"7530302","kana_pref":"ﾔﾏｸﾞﾁｹﾝ","kana_city":"ﾔﾏｸﾞﾁｼ","kana_address":"ﾆﾎﾅｶｺﾞｳ","pref":"山口県","city":"山口市","address":"仁保中郷"},
{"zip_code":"7530094","kana_pref":"ﾔﾏｸﾞﾁｹﾝ","kana_city":"ﾔﾏｸﾞﾁｼ","kana_address":"ﾉﾀﾞ","pref":"山口県","city":"山口市","address":"野田"},
{"zip_code":"7530041","kana_pref":"ﾔﾏｸﾞﾁｹﾝ","kana_city":"ﾔﾏｸﾞﾁｼ","kana_address":"ﾋｶﾞｼﾔﾏ","pref":"山口県","city":"山口市","address":"東山"},
{"zip_code":"7530831","kana_pref":"ﾔﾏｸﾞﾁｹﾝ","kana_city":"ﾔﾏｸﾞﾁｼ","kana_address":"ﾋﾗｲ","pref":"山口県","city":"山口市","address":"平井"},
{"zip_code":"7530015","kana_pref":"ﾔﾏｸﾞﾁｹﾝ","kana_city":"ﾔﾏｸﾞﾁｼ","kana_address":"ﾋﾗﾉ","pref":"山口県","city":"山口市","address":"平野"},
{"zip_code":"7530031","kana_pref":"ﾔﾏｸﾞﾁｹﾝ","kana_city":"ﾔﾏｸﾞﾁｼ","kana_address":"ﾌﾙｸﾏ","pref":"山口県","city":"山口市","address":"古熊"},
{"zip_code":"7530824","kana_pref":"ﾔﾏｸﾞﾁｹﾝ","kana_city":"ﾔﾏｸﾞﾁｼ","kana_address":"ﾎﾂﾞﾐﾁｮｳ","pref":"山口県","city":"山口市","address":"穂積町"},
{"zip_code":"7530046","kana_pref":"ﾔﾏｸﾞﾁｹﾝ","kana_city":"ﾔﾏｸﾞﾁｼ","kana_address":"ﾎﾝﾏﾁ","pref":"山口県","city":"山口市","address":"本町"},
{"zip_code":"7530057","kana_pref":"ﾔﾏｸﾞﾁｹﾝ","kana_city":"ﾔﾏｸﾞﾁｼ","kana_address":"ﾏｴﾏﾁ","pref":"山口県","city":"山口市","address":"前町"},
{"zip_code":"7530053","kana_pref":"ﾔﾏｸﾞﾁｹﾝ","kana_city":"ﾔﾏｸﾞﾁｼ","kana_address":"ﾏﾂﾐﾁｮｳ","pref":"山口県","city":"山口市","address":"松美町"},
{"zip_code":"7530082","kana_pref":"ﾔﾏｸﾞﾁｹﾝ","kana_city":"ﾔﾏｸﾞﾁｼ","kana_address":"ﾐｽﾞﾉｳｴﾁｮｳ","pref":"山口県","city":"山口市","address":"水の上町"},
{"zip_code":"7530016","kana_pref":"ﾔﾏｸﾞﾁｹﾝ","kana_city":"ﾔﾏｸﾞﾁｼ","kana_address":"ﾐﾄﾞﾘｶﾞｵｶ","pref":"山口県","city":"山口市","address":"緑ヶ丘"},
{"zip_code":"7530078","kana_pref":"ﾔﾏｸﾞﾁｹﾝ","kana_city":"ﾔﾏｸﾞﾁｼ","kana_address":"ﾐﾄﾞﾘﾁｮｳ","pref":"山口県","city":"山口市","address":"緑町"},
{"zip_code":"7530043","kana_pref":"ﾔﾏｸﾞﾁｹﾝ","kana_city":"ﾔﾏｸﾞﾁｼ","kana_address":"ﾐﾔｼﾞﾏﾁｮｳ","pref":"山口県","city":"山口市","address":"宮島町"},
{"zip_code":"7530001","kana_pref":"ﾔﾏｸﾞﾁｹﾝ","kana_city":"ﾔﾏｸﾞﾁｼ","kana_address":"ﾐﾔﾉｶﾐ","pref":"山口県","city":"山口市","address":"宮野上"},
{"zip_code":"7530011","kana_pref":"ﾔﾏｸﾞﾁｹﾝ","kana_city":"ﾔﾏｸﾞﾁｼ","kana_address":"ﾐﾔﾉｼﾓ","pref":"山口県","city":"山口市","address":"宮野下"},
{"zip_code":"7530063","kana_pref":"ﾔﾏｸﾞﾁｹﾝ","kana_city":"ﾔﾏｸﾞﾁｼ","kana_address":"ﾓﾄﾏﾁ","pref":"山口県","city":"山口市","address":"元町"},
{"zip_code":"7530861","kana_pref":"ﾔﾏｸﾞﾁｹﾝ","kana_city":"ﾔﾏｸﾞﾁｼ","kana_address":"ﾔﾊﾞﾗ","pref":"山口県","city":"山口市","address":"矢原"},
{"zip_code":"7530825","kana_pref":"ﾔﾏｸﾞﾁｹﾝ","kana_city":"ﾔﾏｸﾞﾁｼ","kana_address":"ﾔﾊﾞﾗﾁｮｳ","pref":"山口県","city":"山口市","address":"矢原町"},
{"zip_code":"7530872","kana_pref":"ﾔﾏｸﾞﾁｹﾝ","kana_city":"ﾔﾏｸﾞﾁｼ","kana_address":"ﾔﾏｸﾞﾁｹﾝﾘｭｳﾂｳｾﾝﾀｰ","pref":"山口県","city":"山口市","address":"山口県流通センター"},
{"zip_code":"7530092","kana_pref":"ﾔﾏｸﾞﾁｹﾝ","kana_city":"ﾔﾏｸﾞﾁｼ","kana_address":"ﾔﾜﾀﾉﾊﾞﾊﾞ","pref":"山口県","city":"山口市","address":"八幡馬場"},
{"zip_code":"7530056","kana_pref":"ﾔﾏｸﾞﾁｹﾝ","kana_city":"ﾔﾏｸﾞﾁｼ","kana_address":"ﾕﾀﾞｵﾝｾﾝ","pref":"山口県","city":"山口市","address":"湯田温泉"},
{"zip_code":"7530811","kana_pref":"ﾔﾏｸﾞﾁｹﾝ","kana_city":"ﾔﾏｸﾞﾁｼ","kana_address":"ﾖｼｷ","pref":"山口県","city":"山口市","address":"吉敷"},
{"zip_code":"7530817","kana_pref":"ﾔﾏｸﾞﾁｹﾝ","kana_city":"ﾔﾏｸﾞﾁｼ","kana_address":"ﾖｼｷｱｶﾀﾞ","pref":"山口県","city":"山口市","address":"吉敷赤田"},
{"zip_code":"7530818","kana_pref":"ﾔﾏｸﾞﾁｹﾝ","kana_city":"ﾔﾏｸﾞﾁｼ","kana_address":"ﾖｼｷｶﾐﾋｶﾞｼ","pref":"山口県","city":"山口市","address":"吉敷上東"},
{"zip_code":"7530816","kana_pref":"ﾔﾏｸﾞﾁｹﾝ","kana_city":"ﾔﾏｸﾞﾁｼ","kana_address":"ﾖｼｷｻﾊﾞﾀ","pref":"山口県","city":"山口市","address":"吉敷佐畑"},
{"zip_code":"7530814","kana_pref":"ﾔﾏｸﾞﾁｹﾝ","kana_city":"ﾔﾏｸﾞﾁｼ","kana_address":"ﾖｼｷｼﾓﾋｶﾞｼ","pref":"山口県","city":"山口市","address":"吉敷下東"},
{"zip_code":"7530813","kana_pref":"ﾔﾏｸﾞﾁｹﾝ","kana_city":"ﾔﾏｸﾞﾁｼ","kana_address":"ﾖｼｷﾅｶﾋｶﾞｼ","pref":"山口県","city":"山口市","address":"吉敷中東"},
{"zip_code":"7530841","kana_pref":"ﾔﾏｸﾞﾁｹﾝ","kana_city":"ﾔﾏｸﾞﾁｼ","kana_address":"ﾖｼﾀﾞ","pref":"山口県","city":"山口市","address":"吉田"},
{"zip_code":"7530823","kana_pref":"ﾔﾏｸﾞﾁｹﾝ","kana_city":"ﾔﾏｸﾞﾁｼ","kana_address":"ﾜｶﾐﾔﾁｮｳ","pref":"山口県","city":"山口市","address":"若宮町"},
{"zip_code":"7530044","kana_pref":"ﾔﾏｸﾞﾁｹﾝ","kana_city":"ﾔﾏｸﾞﾁｼ","kana_address":"ﾜﾆｲｼﾁｮｳ","pref":"山口県","city":"山口市","address":"鰐石町"},
{"zip_code":"7530101","kana_pref":"ﾔﾏｸﾞﾁｹﾝ","kana_city":"ﾊｷﾞｼ","kana_address":"ｻｻﾅﾐ","pref":"山口県","city":"萩市","address":"佐々並"}]}