{"zip_code":[
{"zip_code":"7541314","kana_pref":"ﾔﾏｸﾞﾁｹﾝ","kana_city":"ｳﾍﾞｼ","kana_address":"ｲﾁｲﾊﾞﾗ","pref":"山口県","city":"宇部市","address":"櫟原"},
{"zip_code":"7541312","kana_pref":"ﾔﾏｸﾞﾁｹﾝ","kana_city":"ｳﾍﾞｼ","kana_address":"ｳﾂｷﾞｵﾉ","pref":"山口県","city":"宇部市","address":"棯小野"},
{"zip_code":"7541311","kana_pref":"ﾔﾏｸﾞﾁｹﾝ","kana_city":"ｳﾍﾞｼ","kana_address":"ｵﾉ","pref":"山口県","city":"宇部市","address":"小野"},
{"zip_code":"7541315","kana_pref":"ﾔﾏｸﾞﾁｹﾝ","kana_city":"ｳﾍﾞｼ","kana_address":"ﾆｮｲｼﾞ","pref":"山口県","city":"宇部市","address":"如意寺"},
{"zip_code":"7541313","kana_pref":"ﾔﾏｸﾞﾁｹﾝ","kana_city":"ｳﾍﾞｼ","kana_address":"ﾌｼﾞｺﾞｳﾁ","pref":"山口県","city":"宇部市","address":"藤河内"},
{"zip_code":"7541102","kana_pref":"ﾔﾏｸﾞﾁｹﾝ","kana_city":"ﾔﾏｸﾞﾁｼ","kana_address":"ｱｲｵﾆｼ","pref":"山口県","city":"山口市","address":"秋穂西"},
{"zip_code":"7541101","kana_pref":"ﾔﾏｸﾞﾁｹﾝ","kana_city":"ﾔﾏｸﾞﾁｼ","kana_address":"ｱｲｵﾋｶﾞｼ","pref":"山口県","city":"山口市","address":"秋穂東"},
{"zip_code":"7540893","kana_pref":"ﾔﾏｸﾞﾁｹﾝ","kana_city":"ﾔﾏｸﾞﾁｼ","kana_address":"ｱｲｵﾌﾀｼﾞﾏ","pref":"山口県","city":"山口市","address":"秋穂二島"},
{"zip_code":"7541277","kana_pref":"ﾔﾏｸﾞﾁｹﾝ","kana_city":"ﾔﾏｸﾞﾁｼ","kana_address":"ｱｼﾞｽ","pref":"山口県","city":"山口市","address":"阿知須"},
{"zip_code":"7540896","kana_pref":"ﾔﾏｸﾞﾁｹﾝ","kana_city":"ﾔﾏｸﾞﾁｼ","kana_address":"ｴｻﾞｷ","pref":"山口県","city":"山口市","address":"江崎"},
{"zip_code":"7540029","kana_pref":"ﾔﾏｸﾞﾁｹﾝ","kana_city":"ﾔﾏｸﾞﾁｼ","kana_address":"ｵｺﾞｵﾘｲｼﾝﾏﾁ","pref":"山口県","city":"山口市","address":"小郡維新町"},
{"zip_code":"7540008","kana_pref":"ﾔﾏｸﾞﾁｹﾝ","kana_city":"ﾔﾏｸﾞﾁｼ","kana_address":"ｵｺﾞｵﾘｴﾝｻﾞﾆｼﾁｮｳ","pref":"山口県","city":"山口市","address":"小郡円座西町"},
{"zip_code":"7540007","kana_pref":"ﾔﾏｸﾞﾁｹﾝ","kana_city":"ﾔﾏｸﾞﾁｼ","kana_address":"ｵｺﾞｵﾘｴﾝｻﾞﾋｶﾞｼﾁｮｳ","pref":"山口県","city":"山口市","address":"小郡円座東町"},
{"zip_code":"7540015","kana_pref":"ﾔﾏｸﾞﾁｹﾝ","kana_city":"ﾔﾏｸﾞﾁｼ","kana_address":"ｵｺﾞｵﾘｵｵｴﾏﾁ","pref":"山口県","city":"山口市","address":"小郡大江町"},
{"zip_code":"7540006","kana_pref":"ﾔﾏｸﾞﾁｹﾝ","kana_city":"ﾔﾏｸﾞﾁｼ","kana_address":"ｵｺﾞｵﾘｵｻﾞｷﾁｮｳ","pref":"山口県","city":"山口市","address":"小郡尾崎町"},
{"zip_code":"7540004","kana_pref":"ﾔﾏｸﾞﾁｹﾝ","kana_city":"ﾔﾏｸﾞﾁｼ","kana_address":"ｵｺﾞｵﾘｶﾅﾎﾘﾁｮｳ","pref":"山口県","city":"山口市","address":"小郡金堀町"},
{"zip_code":"7540001","kana_pref":"ﾔﾏｸﾞﾁｹﾝ","kana_city":"ﾔﾏｸﾞﾁｼ","kana_address":"ｵｺﾞｵﾘｶﾐｺﾞｳ","pref":"山口県","city":"山口市","address":"小郡上郷"},
{"zip_code":"7540028","kana_pref":"ﾔﾏｸﾞﾁｹﾝ","kana_city":"ﾔﾏｸﾞﾁｼ","kana_address":"ｵｺﾞｵﾘｷｭｳﾘｮｳﾏﾁ","pref":"山口県","city":"山口市","address":"小郡給領町"},
{"zip_code":"7540021","kana_pref":"ﾔﾏｸﾞﾁｹﾝ","kana_city":"ﾔﾏｸﾞﾁｼ","kana_address":"ｵｺﾞｵﾘｺｶﾞﾈﾏﾁ","pref":"山口県","city":"山口市","address":"小郡黄金町"},
{"zip_code":"7540026","kana_pref":"ﾔﾏｸﾞﾁｹﾝ","kana_city":"ﾔﾏｸﾞﾁｼ","kana_address":"ｵｺﾞｵﾘｻｶｴﾏﾁ","pref":"山口県","city":"山口市","address":"小郡栄町"},
{"zip_code":"7540027","kana_pref":"ﾔﾏｸﾞﾁｹﾝ","kana_city":"ﾔﾏｸﾞﾁｼ","kana_address":"ｵｺﾞｵﾘｻﾝｹﾞﾝﾔﾏﾁ","pref":"山口県","city":"山口市","address":"小郡三軒屋町"},
{"zip_code":"7540002","kana_pref":"ﾔﾏｸﾞﾁｹﾝ","kana_city":"ﾔﾏｸﾞﾁｼ","kana_address":"ｵｺﾞｵﾘｼﾓｺﾞｳ","pref":"山口県","city":"山口市","address":"小郡下郷"},
{"zip_code":"7540014","kana_pref":"ﾔﾏｸﾞﾁｹﾝ","kana_city":"ﾔﾏｸﾞﾁｼ","kana_address":"ｵｺﾞｵﾘﾀｶｻｺﾞﾏﾁ","pref":"山口県","city":"山口市","address":"小郡高砂町"},
{"zip_code":"7540022","kana_pref":"ﾔﾏｸﾞﾁｹﾝ","kana_city":"ﾔﾏｸﾞﾁｼ","kana_address":"ｵｺﾞｵﾘﾊﾅｿﾞﾉﾏﾁ","pref":"山口県","city":"山口市","address":"小郡花園町"},
{"zip_code":"7540025","kana_pref":"ﾔﾏｸﾞﾁｹﾝ","kana_city":"ﾔﾏｸﾞﾁｼ","kana_address":"ｵｺﾞｵﾘﾋﾗｻﾏﾁ","pref":"山口県","city":"山口市","address":"小郡平砂町"},
{"zip_code":"7540012","kana_pref":"ﾔﾏｸﾞﾁｹﾝ","kana_city":"ﾔﾏｸﾞﾁｼ","kana_address":"ｵｺﾞｵﾘﾌﾅｸﾗﾏﾁ","pref":"山口県","city":"山口市","address":"小郡船倉町"},
{"zip_code":"7540020","kana_pref":"ﾔﾏｸﾞﾁｹﾝ","kana_city":"ﾔﾏｸﾞﾁｼ","kana_address":"ｵｺﾞｵﾘﾍｲｾｲﾏﾁ","pref":"山口県","city":"山口市","address":"小郡平成町"},
{"zip_code":"7540023","kana_pref":"ﾔﾏｸﾞﾁｹﾝ","kana_city":"ﾔﾏｸﾞﾁｼ","kana_address":"ｵｺﾞｵﾘﾏｴﾀﾞﾏﾁ","pref":"山口県","city":"山口市","address":"小郡前田町"},
{"zip_code":"7540003","kana_pref":"ﾔﾏｸﾞﾁｹﾝ","kana_city":"ﾔﾏｸﾞﾁｼ","kana_address":"ｵｺﾞｵﾘﾏﾅ","pref":"山口県","city":"山口市","address":"小郡真名"},
{"zip_code":"7540013","kana_pref":"ﾔﾏｸﾞﾁｹﾝ","kana_city":"ﾔﾏｸﾞﾁｼ","kana_address":"ｵｺﾞｵﾘﾐﾄﾞﾘﾏﾁ","pref":"山口県","city":"山口市","address":"小郡緑町"},
{"zip_code":"7540011","kana_pref":"ﾔﾏｸﾞﾁｹﾝ","kana_city":"ﾔﾏｸﾞﾁｼ","kana_address":"ｵｺﾞｵﾘﾐﾕｷﾏﾁ","pref":"山口県","city":"山口市","address":"小郡御幸町"},
{"zip_code":"7540005","kana_pref":"ﾔﾏｸﾞﾁｹﾝ","kana_city":"ﾔﾏｸﾞﾁｼ","kana_address":"ｵｺﾞｵﾘﾔﾏﾃｶﾐﾏﾁ","pref":"山口県","city":"山口市","address":"小郡山手上町"},
{"zip_code":"7540024","kana_pref":"ﾔﾏｸﾞﾁｹﾝ","kana_city":"ﾔﾏｸﾞﾁｼ","kana_address":"ｵｺﾞｵﾘﾜｶｸｻﾏﾁ","pref":"山口県","city":"山口市","address":"小郡若草町"},
{"zip_code":"7540897","kana_pref":"ﾔﾏｸﾞﾁｹﾝ","kana_city":"ﾔﾏｸﾞﾁｼ","kana_address":"ｶｶﾞﾜ","pref":"山口県","city":"山口市","address":"嘉川"},
{"zip_code":"7540894","kana_pref":"ﾔﾏｸﾞﾁｹﾝ","kana_city":"ﾔﾏｸﾞﾁｼ","kana_address":"ｻﾔﾏ","pref":"山口県","city":"山口市","address":"佐山"},
{"zip_code":"7540891","kana_pref":"ﾔﾏｸﾞﾁｹﾝ","kana_city":"ﾔﾏｸﾞﾁｼ","kana_address":"ｽｴ","pref":"山口県","city":"山口市","address":"陶"},
{"zip_code":"7540892","kana_pref":"ﾔﾏｸﾞﾁｹﾝ","kana_city":"ﾔﾏｸﾞﾁｼ","kana_address":"ﾅﾀｼﾞﾏ","pref":"山口県","city":"山口市","address":"名田島"},
{"zip_code":"7540895","kana_pref":"ﾔﾏｸﾞﾁｹﾝ","kana_city":"ﾔﾏｸﾞﾁｼ","kana_address":"ﾌｶﾐｿﾞ","pref":"山口県","city":"山口市","address":"深溝"},
{"zip_code":"7540411","kana_pref":"ﾔﾏｸﾞﾁｹﾝ","kana_city":"ﾊｷﾞｼ","kana_address":"ｱｷﾗｷﾞ","pref":"山口県","city":"萩市","address":"明木"},
{"zip_code":"7540602","kana_pref":"ﾔﾏｸﾞﾁｹﾝ","kana_city":"ﾐﾈｼ","kana_address":"ｼｭｳﾎｳﾁｮｳｱｵｶｹﾞ","pref":"山口県","city":"美祢市","address":"秋芳町青景"},
{"zip_code":"7540511","kana_pref":"ﾔﾏｸﾞﾁｹﾝ","kana_city":"ﾐﾈｼ","kana_address":"ｼｭｳﾎｳﾁｮｳｱｷﾖｼ","pref":"山口県","city":"美祢市","address":"秋芳町秋吉"},
{"zip_code":"7540513","kana_pref":"ﾔﾏｸﾞﾁｹﾝ","kana_city":"ﾐﾈｼ","kana_address":"ｼｭｳﾎｳﾁｮｳｲﾜﾅｶﾞｼﾓｺﾞｳ","pref":"山口県","city":"美祢市","address":"秋芳町岩永下郷"},
{"zip_code":"7540512","kana_pref":"ﾔﾏｸﾞﾁｹﾝ","kana_city":"ﾐﾈｼ","kana_address":"ｼｭｳﾎｳﾁｮｳｲﾜﾅｶﾞﾎﾝｺﾞｳ","pref":"山口県","city":"美祢市","address":"秋芳町岩永本郷"},
{"zip_code":"7540601","kana_pref":"ﾔﾏｸﾞﾁｹﾝ","kana_city":"ﾐﾈｼ","kana_address":"ｼｭｳﾎｳﾁｮｳｶﾏ","pref":"山口県","city":"美祢市","address":"秋芳町嘉万"},
{"zip_code":"7540603","kana_pref":"ﾔﾏｸﾞﾁｹﾝ","kana_city":"ﾐﾈｼ","kana_address":"ｼｭｳﾎｳﾁｮｳﾍﾞｯﾌﾟ","pref":"山口県","city":"美祢市","address":"秋芳町別府"},
{"zip_code":"7540514","kana_pref":"ﾔﾏｸﾞﾁｹﾝ","kana_city":"ﾐﾈｼ","kana_address":"ｼｭｳﾎｳﾁｮｳ","pref":"山口県","city":"美祢市","address":"秋芳町"},
{"zip_code":"7540302","kana_pref":"ﾔﾏｸﾞﾁｹﾝ","kana_city":"ﾐﾈｼ","kana_address":"ﾐﾄｳﾁｮｳｱｶ","pref":"山口県","city":"美祢市","address":"美東町赤"},
{"zip_code":"7540212","kana_pref":"ﾔﾏｸﾞﾁｹﾝ","kana_city":"ﾐﾈｼ","kana_address":"ﾐﾄｳﾁｮｳｱﾔｷﾞ","pref":"山口県","city":"美祢市","address":"美東町綾木"},
{"zip_code":"7540301","kana_pref":"ﾔﾏｸﾞﾁｹﾝ","kana_city":"ﾐﾈｼ","kana_address":"ﾐﾄｳﾁｮｳｴﾄﾞｳ","pref":"山口県","city":"美祢市","address":"美東町絵堂"},
{"zip_code":"7540211","kana_pref":"ﾔﾏｸﾞﾁｹﾝ","kana_city":"ﾐﾈｼ","kana_address":"ﾐﾄｳﾁｮｳｵｵﾀﾞ","pref":"山口県","city":"美祢市","address":"美東町大田"},
{"zip_code":"7540123","kana_pref":"ﾔﾏｸﾞﾁｹﾝ","kana_city":"ﾐﾈｼ","kana_address":"ﾐﾄｳﾁｮｳｵﾉ","pref":"山口県","city":"美祢市","address":"美東町小野"},
{"zip_code":"7540121","kana_pref":"ﾔﾏｸﾞﾁｹﾝ","kana_city":"ﾐﾈｼ","kana_address":"ﾐﾄｳﾁｮｳﾅｶﾞﾀ","pref":"山口県","city":"美祢市","address":"美東町長田"},
{"zip_code":"7540213","kana_pref":"ﾔﾏｸﾞﾁｹﾝ","kana_city":"ﾐﾈｼ","kana_address":"ﾐﾄｳﾁｮｳﾅｶﾞﾉﾎﾞﾘ","pref":"山口県","city":"美祢市","address":"美東町長登"},
{"zip_code":"7540122","kana_pref":"ﾔﾏｸﾞﾁｹﾝ","kana_city":"ﾐﾈｼ","kana_address":"ﾐﾄｳﾁｮｳﾏﾅ","pref":"山口県","city":"美祢市","address":"美東町真名"},
{"zip_code":"7540214","kana_pref":"ﾔﾏｸﾞﾁｹﾝ","kana_city":"ﾐﾈｼ","kana_address":"ﾐﾄｳﾁｮｳ","pref":"山口県","city":"美祢市","address":"美東町"}]}