{"zip_code":[
{"zip_code":"7550000","kana_pref":"ﾔﾏｸﾞﾁｹﾝ","kana_city":"ｳﾍﾞｼ","kana_address":"","pref":"山口県","city":"宇部市","address":""},
{"zip_code":"7550043","kana_pref":"ﾔﾏｸﾞﾁｹﾝ","kana_city":"ｳﾍﾞｼ","kana_address":"ｱｲｵｲﾁｮｳ","pref":"山口県","city":"宇部市","address":"相生町"},
{"zip_code":"7550801","kana_pref":"ﾔﾏｸﾞﾁｹﾝ","kana_city":"ｳﾍﾞｼ","kana_address":"ｱｹﾞｼﾞｮｳ","pref":"山口県","city":"宇部市","address":"上条"},
{"zip_code":"7550041","kana_pref":"ﾔﾏｸﾞﾁｹﾝ","kana_city":"ｳﾍﾞｼ","kana_address":"ｱｻﾋﾏﾁ","pref":"山口県","city":"宇部市","address":"朝日町"},
{"zip_code":"7550152","kana_pref":"ﾔﾏｸﾞﾁｹﾝ","kana_city":"ｳﾍﾞｼ","kana_address":"ｱｽﾄﾋﾟｱ","pref":"山口県","city":"宇部市","address":"あすとぴあ"},
{"zip_code":"7550055","kana_pref":"ﾔﾏｸﾞﾁｹﾝ","kana_city":"ｳﾍﾞｼ","kana_address":"ｲﾉｳﾁｮｳ","pref":"山口県","city":"宇部市","address":"居能町"},
{"zip_code":"7550155","kana_pref":"ﾔﾏｸﾞﾁｹﾝ","kana_city":"ｳﾍﾞｼ","kana_address":"ｲﾏﾑﾗｷﾀ","pref":"山口県","city":"宇部市","address":"今村北"},
{"zip_code":"7550154","kana_pref":"ﾔﾏｸﾞﾁｹﾝ","kana_city":"ｳﾍﾞｼ","kana_address":"ｲﾏﾑﾗﾐﾅﾐ","pref":"山口県","city":"宇部市","address":"今村南"},
{"zip_code":"7550810","kana_pref":"ﾔﾏｸﾞﾁｹﾝ","kana_city":"ｳﾍﾞｼ","kana_address":"ｲﾜﾊﾅﾁｮｳ","pref":"山口県","city":"宇部市","address":"岩鼻町"},
{"zip_code":"7550051","kana_pref":"ﾔﾏｸﾞﾁｹﾝ","kana_city":"ｳﾍﾞｼ","kana_address":"ｳｴﾏﾁ","pref":"山口県","city":"宇部市","address":"上町"},
{"zip_code":"7550062","kana_pref":"ﾔﾏｸﾞﾁｹﾝ","kana_city":"ｳﾍﾞｼ","kana_address":"ｳﾉｼﾏﾁｮｳ","pref":"山口県","city":"宇部市","address":"鵜の島町"},
{"zip_code":"7550076","kana_pref":"ﾔﾏｸﾞﾁｹﾝ","kana_city":"ｳﾍﾞｼ","kana_address":"ｵｵｼｮｳｼﾞ","pref":"山口県","city":"宇部市","address":"大小路"},
{"zip_code":"7550001","kana_pref":"ﾔﾏｸﾞﾁｹﾝ","kana_city":"ｳﾍﾞｼ","kana_address":"ｵｷｳﾍﾞ","pref":"山口県","city":"宇部市","address":"沖宇部"},
{"zip_code":"7550023","kana_pref":"ﾔﾏｸﾞﾁｹﾝ","kana_city":"ｳﾍﾞｼ","kana_address":"ｵﾝﾀﾞﾁｮｳ","pref":"山口県","city":"宇部市","address":"恩田町"},
{"zip_code":"7550038","kana_pref":"ﾔﾏｸﾞﾁｹﾝ","kana_city":"ｳﾍﾞｼ","kana_address":"ｶｲﾅﾝﾁｮｳ","pref":"山口県","city":"宇部市","address":"海南町"},
{"zip_code":"7550091","kana_pref":"ﾔﾏｸﾞﾁｹﾝ","kana_city":"ｳﾍﾞｼ","kana_address":"ｶﾐｳﾍﾞ","pref":"山口県","city":"宇部市","address":"上宇部"},
{"zip_code":"7550092","kana_pref":"ﾔﾏｸﾞﾁｹﾝ","kana_city":"ｳﾍﾞｼ","kana_address":"ｶﾐﾉﾅｶﾁｮｳ","pref":"山口県","city":"宇部市","address":"上野中町"},
{"zip_code":"7550022","kana_pref":"ﾔﾏｸﾞﾁｹﾝ","kana_city":"ｳﾍﾞｼ","kana_address":"ｶﾐﾊﾗﾁｮｳ","pref":"山口県","city":"宇部市","address":"神原町"},
{"zip_code":"7550002","kana_pref":"ﾔﾏｸﾞﾁｹﾝ","kana_city":"ｳﾍﾞｼ","kana_address":"ｶﾒｳﾗ","pref":"山口県","city":"宇部市","address":"亀浦"},
{"zip_code":"7550084","kana_pref":"ﾔﾏｸﾞﾁｹﾝ","kana_city":"ｳﾍﾞｼ","kana_address":"ｶﾜｶﾐ","pref":"山口県","city":"宇部市","address":"川上"},
{"zip_code":"7550074","kana_pref":"ﾔﾏｸﾞﾁｹﾝ","kana_city":"ｳﾍﾞｼ","kana_address":"ｶﾜｿﾞｴ","pref":"山口県","city":"宇部市","address":"川添"},
{"zip_code":"7550081","kana_pref":"ﾔﾏｸﾞﾁｹﾝ","kana_city":"ｳﾍﾞｼ","kana_address":"ｷﾀｵﾊﾞﾔﾏﾁｮｳ","pref":"山口県","city":"宇部市","address":"北小羽山町"},
{"zip_code":"7550036","kana_pref":"ﾔﾏｸﾞﾁｹﾝ","kana_city":"ｳﾍﾞｼ","kana_address":"ｷﾀｺﾄｼﾊﾞ","pref":"山口県","city":"宇部市","address":"北琴芝"},
{"zip_code":"7550093","kana_pref":"ﾔﾏｸﾞﾁｹﾝ","kana_city":"ｳﾍﾞｼ","kana_address":"ｷﾀｻｺｼﾝﾏﾁ","pref":"山口県","city":"宇部市","address":"北迫新町"},
{"zip_code":"7550802","kana_pref":"ﾔﾏｸﾞﾁｹﾝ","kana_city":"ｳﾍﾞｼ","kana_address":"ｷﾀｼﾞｮｳ","pref":"山口県","city":"宇部市","address":"北条"},
{"zip_code":"7550004","kana_pref":"ﾔﾏｸﾞﾁｹﾝ","kana_city":"ｳﾍﾞｼ","kana_address":"ｸｻｴ","pref":"山口県","city":"宇部市","address":"草江"},
{"zip_code":"7550067","kana_pref":"ﾔﾏｸﾞﾁｹﾝ","kana_city":"ｳﾍﾞｼ","kana_address":"ｺｸﾞｼ","pref":"山口県","city":"宇部市","address":"小串"},
{"zip_code":"7550005","kana_pref":"ﾔﾏｸﾞﾁｹﾝ","kana_city":"ｳﾍﾞｼ","kana_address":"ｺﾞｼﾞｭｳﾒﾔﾏﾁｮｳ","pref":"山口県","city":"宇部市","address":"五十目山町"},
{"zip_code":"7550075","kana_pref":"ﾔﾏｸﾞﾁｹﾝ","kana_city":"ｳﾍﾞｼ","kana_address":"ｺﾄｻﾞｷﾁｮｳ","pref":"山口県","city":"宇部市","address":"琴崎町"},
{"zip_code":"7550033","kana_pref":"ﾔﾏｸﾞﾁｹﾝ","kana_city":"ｳﾍﾞｼ","kana_address":"ｺﾄｼﾊﾞﾁｮｳ","pref":"山口県","city":"宇部市","address":"琴芝町"},
{"zip_code":"7550032","kana_pref":"ﾔﾏｸﾞﾁｹﾝ","kana_city":"ｳﾍﾞｼ","kana_address":"ｺﾄﾌﾞｷﾁｮｳ","pref":"山口県","city":"宇部市","address":"寿町"},
{"zip_code":"7550066","kana_pref":"ﾔﾏｸﾞﾁｹﾝ","kana_city":"ｳﾍﾞｼ","kana_address":"ｺﾏﾂﾊﾞﾗﾁｮｳ","pref":"山口県","city":"宇部市","address":"小松原町"},
{"zip_code":"7550012","kana_pref":"ﾔﾏｸﾞﾁｹﾝ","kana_city":"ｳﾍﾞｼ","kana_address":"ｻｲﾜｲﾏﾁ","pref":"山口県","city":"宇部市","address":"幸町"},
{"zip_code":"7550015","kana_pref":"ﾔﾏｸﾞﾁｹﾝ","kana_city":"ｳﾍﾞｼ","kana_address":"ｻｻﾔﾏﾁｮｳ","pref":"山口県","city":"宇部市","address":"笹山町"},
{"zip_code":"7550017","kana_pref":"ﾔﾏｸﾞﾁｹﾝ","kana_city":"ｳﾍﾞｼ","kana_address":"ｼﾊﾞﾅｶﾁｮｳ","pref":"山口県","city":"宇部市","address":"芝中町"},
{"zip_code":"7550047","kana_pref":"ﾔﾏｸﾞﾁｹﾝ","kana_city":"ｳﾍﾞｼ","kana_address":"ｼﾏ","pref":"山口県","city":"宇部市","address":"島"},
{"zip_code":"7550048","kana_pref":"ﾔﾏｸﾞﾁｹﾝ","kana_city":"ｳﾍﾞｼ","kana_address":"ｼﾓｼﾞｮｳ","pref":"山口県","city":"宇部市","address":"下条"},
{"zip_code":"7550011","kana_pref":"ﾔﾏｸﾞﾁｹﾝ","kana_city":"ｳﾍﾞｼ","kana_address":"ｼｮｳﾜﾁｮｳ","pref":"山口県","city":"宇部市","address":"昭和町"},
{"zip_code":"7550029","kana_pref":"ﾔﾏｸﾞﾁｹﾝ","kana_city":"ｳﾍﾞｼ","kana_address":"ｼﾝﾃﾝﾁｮｳ","pref":"山口県","city":"宇部市","address":"新天町"},
{"zip_code":"7550044","kana_pref":"ﾔﾏｸﾞﾁｹﾝ","kana_city":"ｳﾍﾞｼ","kana_address":"ｼﾝﾏﾁ","pref":"山口県","city":"宇部市","address":"新町"},
{"zip_code":"7550014","kana_pref":"ﾔﾏｸﾞﾁｹﾝ","kana_city":"ｳﾍﾞｼ","kana_address":"ｽｴﾋﾛﾁｮｳ","pref":"山口県","city":"宇部市","address":"末広町"},
{"zip_code":"7550054","kana_pref":"ﾔﾏｸﾞﾁｹﾝ","kana_city":"ｳﾍﾞｼ","kana_address":"ｽｹﾀﾞﾁｮｳ","pref":"山口県","city":"宇部市","address":"助田町"},
{"zip_code":"7550045","kana_pref":"ﾔﾏｸﾞﾁｹﾝ","kana_city":"ｳﾍﾞｼ","kana_address":"ﾁｭｳｵｳﾁｮｳ","pref":"山口県","city":"宇部市","address":"中央町"},
{"zip_code":"7550021","kana_pref":"ﾔﾏｸﾞﾁｹﾝ","kana_city":"ｳﾍﾞｼ","kana_address":"ﾂﾈﾌｼﾞﾁｮｳ","pref":"山口県","city":"宇部市","address":"常藤町"},
{"zip_code":"7550078","kana_pref":"ﾔﾏｸﾞﾁｹﾝ","kana_city":"ｳﾍﾞｼ","kana_address":"ﾃﾗﾉﾏｴﾁｮｳ","pref":"山口県","city":"宇部市","address":"寺の前町"},
{"zip_code":"7550097","kana_pref":"ﾔﾏｸﾞﾁｹﾝ","kana_city":"ｳﾍﾞｼ","kana_address":"ﾄｷﾜﾀﾞｲ","pref":"山口県","city":"宇部市","address":"常盤台"},
{"zip_code":"7550031","kana_pref":"ﾔﾏｸﾞﾁｹﾝ","kana_city":"ｳﾍﾞｼ","kana_address":"ﾄｷﾜﾁｮｳ","pref":"山口県","city":"宇部市","address":"常盤町"},
{"zip_code":"7550153","kana_pref":"ﾔﾏｸﾞﾁｹﾝ","kana_city":"ｳﾍﾞｼ","kana_address":"ﾄｺﾅﾐ","pref":"山口県","city":"宇部市","address":"床波"},
{"zip_code":"7550086","kana_pref":"ﾔﾏｸﾞﾁｹﾝ","kana_city":"ｳﾍﾞｼ","kana_address":"ﾅｶｳﾍﾞ","pref":"山口県","city":"宇部市","address":"中宇部"},
{"zip_code":"7550073","kana_pref":"ﾔﾏｸﾞﾁｹﾝ","kana_city":"ｳﾍﾞｼ","kana_address":"ﾅｶｵ","pref":"山口県","city":"宇部市","address":"中尾"},
{"zip_code":"7550072","kana_pref":"ﾔﾏｸﾞﾁｹﾝ","kana_city":"ｳﾍﾞｼ","kana_address":"ﾅｶﾑﾗ","pref":"山口県","city":"宇部市","address":"中村"},
{"zip_code":"7550058","kana_pref":"ﾔﾏｸﾞﾁｹﾝ","kana_city":"ｳﾍﾞｼ","kana_address":"ﾅｶﾔﾏ","pref":"山口県","city":"宇部市","address":"中山"},
{"zip_code":"7550064","kana_pref":"ﾔﾏｸﾞﾁｹﾝ","kana_city":"ｳﾍﾞｼ","kana_address":"ﾅﾍﾞｸﾗﾁｮｳ","pref":"山口県","city":"宇部市","address":"鍋倉町"},
{"zip_code":"7550037","kana_pref":"ﾔﾏｸﾞﾁｹﾝ","kana_city":"ｳﾍﾞｼ","kana_address":"ﾆｼｶｼﾞｶﾞｴｼ","pref":"山口県","city":"宇部市","address":"西梶返"},
{"zip_code":"7550018","kana_pref":"ﾔﾏｸﾞﾁｹﾝ","kana_city":"ｳﾍﾞｼ","kana_address":"ﾆｼｷﾁｮｳ","pref":"山口県","city":"宇部市","address":"錦町"},
{"zip_code":"7550151","kana_pref":"ﾔﾏｸﾞﾁｹﾝ","kana_city":"ｳﾍﾞｼ","kana_address":"ﾆｼｷﾜ","pref":"山口県","city":"宇部市","address":"西岐波"},
{"zip_code":"7550049","kana_pref":"ﾔﾏｸﾞﾁｹﾝ","kana_city":"ｳﾍﾞｼ","kana_address":"ﾆｼｺｸﾞｼ","pref":"山口県","city":"宇部市","address":"西小串"},
{"zip_code":"7550035","kana_pref":"ﾔﾏｸﾞﾁｹﾝ","kana_city":"ｳﾍﾞｼ","kana_address":"ﾆｼｺﾄｼﾊﾞ","pref":"山口県","city":"宇部市","address":"西琴芝"},
{"zip_code":"7550053","kana_pref":"ﾔﾏｸﾞﾁｹﾝ","kana_city":"ｳﾍﾞｼ","kana_address":"ﾆｼﾅｶﾁｮｳ","pref":"山口県","city":"宇部市","address":"西中町"},
{"zip_code":"7550808","kana_pref":"ﾔﾏｸﾞﾁｹﾝ","kana_city":"ｳﾍﾞｼ","kana_address":"ﾆｼﾋﾗﾊﾞﾗ","pref":"山口県","city":"宇部市","address":"西平原"},
{"zip_code":"7550052","kana_pref":"ﾔﾏｸﾞﾁｹﾝ","kana_city":"ｳﾍﾞｼ","kana_address":"ﾆｼﾎﾝﾏﾁ","pref":"山口県","city":"宇部市","address":"西本町"},
{"zip_code":"7550085","kana_pref":"ﾔﾏｸﾞﾁｹﾝ","kana_city":"ｳﾍﾞｼ","kana_address":"ﾇﾏ","pref":"山口県","city":"宇部市","address":"沼"},
{"zip_code":"7550025","kana_pref":"ﾔﾏｸﾞﾁｹﾝ","kana_city":"ｳﾍﾞｼ","kana_address":"ﾉﾅｶ","pref":"山口県","city":"宇部市","address":"野中"},
{"zip_code":"7550024","kana_pref":"ﾔﾏｸﾞﾁｹﾝ","kana_city":"ｳﾍﾞｼ","kana_address":"ﾉﾊﾞﾗ","pref":"山口県","city":"宇部市","address":"野原"},
{"zip_code":"7550003","kana_pref":"ﾔﾏｸﾞﾁｹﾝ","kana_city":"ｳﾍﾞｼ","kana_address":"ﾉﾘｻﾀﾞ","pref":"山口県","city":"宇部市","address":"則貞"},
{"zip_code":"7550007","kana_pref":"ﾔﾏｸﾞﾁｹﾝ","kana_city":"ｳﾍﾞｼ","kana_address":"ﾊﾁｵｳｼﾞﾁｮｳ","pref":"山口県","city":"宇部市","address":"八王子町"},
{"zip_code":"7550806","kana_pref":"ﾔﾏｸﾞﾁｹﾝ","kana_city":"ｳﾍﾞｼ","kana_address":"ﾊﾏﾀﾞ","pref":"山口県","city":"宇部市","address":"浜田"},
{"zip_code":"7550065","kana_pref":"ﾔﾏｸﾞﾁｹﾝ","kana_city":"ｳﾍﾞｼ","kana_address":"ﾊﾏﾁｮｳ","pref":"山口県","city":"宇部市","address":"浜町"},
{"zip_code":"7550082","kana_pref":"ﾔﾏｸﾞﾁｹﾝ","kana_city":"ｳﾍﾞｼ","kana_address":"ﾋｶﾞｼｵﾊﾞﾔﾏﾁｮｳ","pref":"山口県","city":"宇部市","address":"東小羽山町"},
{"zip_code":"7550039","kana_pref":"ﾔﾏｸﾞﾁｹﾝ","kana_city":"ｳﾍﾞｼ","kana_address":"ﾋｶﾞｼｶｼﾞｶﾞｴｼ","pref":"山口県","city":"宇部市","address":"東梶返"},
{"zip_code":"7550241","kana_pref":"ﾔﾏｸﾞﾁｹﾝ","kana_city":"ｳﾍﾞｼ","kana_address":"ﾋｶﾞｼｷﾜ","pref":"山口県","city":"宇部市","address":"東岐波"},
{"zip_code":"7550068","kana_pref":"ﾔﾏｸﾞﾁｹﾝ","kana_city":"ｳﾍﾞｼ","kana_address":"ﾋｶﾞｼｺｸﾞｼ","pref":"山口県","city":"宇部市","address":"東小串"},
{"zip_code":"7550034","kana_pref":"ﾔﾏｸﾞﾁｹﾝ","kana_city":"ｳﾍﾞｼ","kana_address":"ﾋｶﾞｼｺﾄｼﾊﾞ","pref":"山口県","city":"宇部市","address":"東琴芝"},
{"zip_code":"7550016","kana_pref":"ﾔﾏｸﾞﾁｹﾝ","kana_city":"ｳﾍﾞｼ","kana_address":"ﾋｶﾞｼｼﾊﾞﾅｶﾁｮｳ","pref":"山口県","city":"宇部市","address":"東芝中町"},
{"zip_code":"7550019","kana_pref":"ﾔﾏｸﾞﾁｹﾝ","kana_city":"ｳﾍﾞｼ","kana_address":"ﾋｶﾞｼｼﾝｶﾜﾁｮｳ","pref":"山口県","city":"宇部市","address":"東新川町"},
{"zip_code":"7550807","kana_pref":"ﾔﾏｸﾞﾁｹﾝ","kana_city":"ｳﾍﾞｼ","kana_address":"ﾋｶﾞｼﾋﾗﾊﾞﾗ","pref":"山口県","city":"宇部市","address":"東平原"},
{"zip_code":"7550803","kana_pref":"ﾔﾏｸﾞﾁｹﾝ","kana_city":"ｳﾍﾞｼ","kana_address":"ﾋｶﾞｼﾌｼﾞﾏｶﾞﾘ","pref":"山口県","city":"宇部市","address":"東藤曲"},
{"zip_code":"7550028","kana_pref":"ﾔﾏｸﾞﾁｹﾝ","kana_city":"ｳﾍﾞｼ","kana_address":"ﾋｶﾞｼﾎﾝﾏﾁ","pref":"山口県","city":"宇部市","address":"東本町"},
{"zip_code":"7550009","kana_pref":"ﾔﾏｸﾞﾁｹﾝ","kana_city":"ｳﾍﾞｼ","kana_address":"ﾋｶﾞｼﾐｿﾞﾒﾁｮｳ","pref":"山口県","city":"宇部市","address":"東見初町"},
{"zip_code":"7550096","kana_pref":"ﾔﾏｸﾞﾁｹﾝ","kana_city":"ｳﾍﾞｼ","kana_address":"ﾋﾗｷ","pref":"山口県","city":"宇部市","address":"開"},
{"zip_code":"7550094","kana_pref":"ﾔﾏｸﾞﾁｹﾝ","kana_city":"ｳﾍﾞｼ","kana_address":"ﾋﾗｷﾀﾞｲ","pref":"山口県","city":"宇部市","address":"ひらき台"},
{"zip_code":"7550057","kana_pref":"ﾔﾏｸﾞﾁｹﾝ","kana_city":"ｳﾍﾞｼ","kana_address":"ﾌｼﾞﾏｶﾞﾘ","pref":"山口県","city":"宇部市","address":"藤曲"},
{"zip_code":"7550095","kana_pref":"ﾔﾏｸﾞﾁｹﾝ","kana_city":"ｳﾍﾞｼ","kana_address":"ﾌﾛｶﾞｻｺﾁｮｳ","pref":"山口県","city":"宇部市","address":"風呂ケ迫町"},
{"zip_code":"7550805","kana_pref":"ﾔﾏｸﾞﾁｹﾝ","kana_city":"ｳﾍﾞｼ","kana_address":"ﾌﾞﾝｷｮｳﾀﾞｲ","pref":"山口県","city":"宇部市","address":"文京台"},
{"zip_code":"7550056","kana_pref":"ﾔﾏｸﾞﾁｹﾝ","kana_city":"ｳﾍﾞｼ","kana_address":"ﾌﾞﾝｷｮｳﾁｮｳ","pref":"山口県","city":"宇部市","address":"文京町"},
{"zip_code":"7550809","kana_pref":"ﾔﾏｸﾞﾁｹﾝ","kana_city":"ｳﾍﾞｼ","kana_address":"ﾏﾂｻﾞｷﾁｮｳ","pref":"山口県","city":"宇部市","address":"松崎町"},
{"zip_code":"7550042","kana_pref":"ﾔﾏｸﾞﾁｹﾝ","kana_city":"ｳﾍﾞｼ","kana_address":"ﾏﾂｼﾏﾁｮｳ","pref":"山口県","city":"宇部市","address":"松島町"},
{"zip_code":"7550026","kana_pref":"ﾔﾏｸﾞﾁｹﾝ","kana_city":"ｳﾍﾞｼ","kana_address":"ﾏﾂﾔﾏﾁｮｳ","pref":"山口県","city":"宇部市","address":"松山町"},
{"zip_code":"7550006","kana_pref":"ﾔﾏｸﾞﾁｹﾝ","kana_city":"ｳﾍﾞｼ","kana_address":"ﾐｻｷﾁｮｳ","pref":"山口県","city":"宇部市","address":"岬町"},
{"zip_code":"7550027","kana_pref":"ﾔﾏｸﾞﾁｹﾝ","kana_city":"ｳﾍﾞｼ","kana_address":"ﾐﾅﾄﾏﾁ","pref":"山口県","city":"宇部市","address":"港町"},
{"zip_code":"7550083","kana_pref":"ﾔﾏｸﾞﾁｹﾝ","kana_city":"ｳﾍﾞｼ","kana_address":"ﾐﾅﾐｵﾊﾞﾔﾏﾁｮｳ","pref":"山口県","city":"宇部市","address":"南小羽山町"},
{"zip_code":"7550046","kana_pref":"ﾔﾏｸﾞﾁｹﾝ","kana_city":"ｳﾍﾞｼ","kana_address":"ﾐﾅﾐｺｸﾞｼ","pref":"山口県","city":"宇部市","address":"南小串"},
{"zip_code":"7550804","kana_pref":"ﾔﾏｸﾞﾁｹﾝ","kana_city":"ｳﾍﾞｼ","kana_address":"ﾐﾅﾐﾅｶﾔﾏﾁｮｳ","pref":"山口県","city":"宇部市","address":"南中山町"},
{"zip_code":"7550063","kana_pref":"ﾔﾏｸﾞﾁｹﾝ","kana_city":"ｳﾍﾞｼ","kana_address":"ﾐﾅﾐﾊﾏﾁｮｳ","pref":"山口県","city":"宇部市","address":"南浜町"},
{"zip_code":"7550071","kana_pref":"ﾔﾏｸﾞﾁｹﾝ","kana_city":"ｳﾍﾞｼ","kana_address":"ﾐﾔｼﾞﾁｮｳ","pref":"山口県","city":"宇部市","address":"宮地町"},
{"zip_code":"7550008","kana_pref":"ﾔﾏｸﾞﾁｹﾝ","kana_city":"ｳﾍﾞｼ","kana_address":"ﾐｮｳｼﾞﾝﾁｮｳ","pref":"山口県","city":"宇部市","address":"明神町"},
{"zip_code":"7550013","kana_pref":"ﾔﾏｸﾞﾁｹﾝ","kana_city":"ｳﾍﾞｼ","kana_address":"ﾒｲｼﾞﾏﾁ","pref":"山口県","city":"宇部市","address":"明治町"},
{"zip_code":"7550077","kana_pref":"ﾔﾏｸﾞﾁｹﾝ","kana_city":"ｳﾍﾞｼ","kana_address":"ﾔﾏｶﾄﾞ","pref":"山口県","city":"宇部市","address":"山門"},
{"zip_code":"7550061","kana_pref":"ﾔﾏｸﾞﾁｹﾝ","kana_city":"ｳﾍﾞｼ","kana_address":"ﾜｶﾏﾂﾁｮｳ","pref":"山口県","city":"宇部市","address":"若松町"}]}