{"zip_code":[
{"zip_code":"7570211","kana_pref":"ﾔﾏｸﾞﾁｹﾝ","kana_city":"ｳﾍﾞｼ","kana_address":"ｱｼｶﾞﾜﾁ","pref":"山口県","city":"宇部市","address":"芦河内"},
{"zip_code":"7570212","kana_pref":"ﾔﾏｸﾞﾁｹﾝ","kana_city":"ｳﾍﾞｼ","kana_address":"ｲﾏﾄﾞﾐ","pref":"山口県","city":"宇部市","address":"今富"},
{"zip_code":"7570213","kana_pref":"ﾔﾏｸﾞﾁｹﾝ","kana_city":"ｳﾍﾞｼ","kana_address":"ｵｸﾏｸﾞﾗ","pref":"山口県","city":"宇部市","address":"奥万倉"},
{"zip_code":"7570402","kana_pref":"ﾔﾏｸﾞﾁｹﾝ","kana_city":"ｳﾍﾞｼ","kana_address":"ﾆｼｷﾍﾞ","pref":"山口県","city":"宇部市","address":"西吉部"},
{"zip_code":"7570214","kana_pref":"ﾔﾏｸﾞﾁｹﾝ","kana_city":"ｳﾍﾞｼ","kana_address":"ﾆｼﾏｸﾞﾗ","pref":"山口県","city":"宇部市","address":"西万倉"},
{"zip_code":"7570401","kana_pref":"ﾔﾏｸﾞﾁｹﾝ","kana_city":"ｳﾍﾞｼ","kana_address":"ﾋｶﾞｼｷﾍﾞ","pref":"山口県","city":"宇部市","address":"東吉部"},
{"zip_code":"7570215","kana_pref":"ﾔﾏｸﾞﾁｹﾝ","kana_city":"ｳﾍﾞｼ","kana_address":"ﾋｶﾞｼﾏｸﾞﾗ","pref":"山口県","city":"宇部市","address":"東万倉"},
{"zip_code":"7570216","kana_pref":"ﾔﾏｸﾞﾁｹﾝ","kana_city":"ｳﾍﾞｼ","kana_address":"ﾌﾅｷ","pref":"山口県","city":"宇部市","address":"船木"},
{"zip_code":"7570217","kana_pref":"ﾔﾏｸﾞﾁｹﾝ","kana_city":"ｳﾍﾞｼ","kana_address":"ﾔﾊｷﾞ","pref":"山口県","city":"宇部市","address":"矢矯"},
{"zip_code":"7570001","kana_pref":"ﾔﾏｸﾞﾁｹﾝ","kana_city":"ｻﾝﾖｳｵﾉﾀﾞｼ","kana_address":"ｱｻ","pref":"山口県","city":"山陽小野田市","address":"厚狭"},
{"zip_code":"7570005","kana_pref":"ﾔﾏｸﾞﾁｹﾝ","kana_city":"ｻﾝﾖｳｵﾉﾀﾞｼ","kana_address":"ｶﾓﾉｼｮｳ","pref":"山口県","city":"山陽小野田市","address":"鴨庄"},
{"zip_code":"7570002","kana_pref":"ﾔﾏｸﾞﾁｹﾝ","kana_city":"ｻﾝﾖｳｵﾉﾀﾞｼ","kana_address":"ｺｵﾘ","pref":"山口県","city":"山陽小野田市","address":"郡"},
{"zip_code":"7570006","kana_pref":"ﾔﾏｸﾞﾁｹﾝ","kana_city":"ｻﾝﾖｳｵﾉﾀﾞｼ","kana_address":"ｻｸﾗ","pref":"山口県","city":"山陽小野田市","address":"桜"},
{"zip_code":"7570011","kana_pref":"ﾔﾏｸﾞﾁｹﾝ","kana_city":"ｻﾝﾖｳｵﾉﾀﾞｼ","kana_address":"ﾂﾌﾞﾀ","pref":"山口県","city":"山陽小野田市","address":"津布田"},
{"zip_code":"7570012","kana_pref":"ﾔﾏｸﾞﾁｹﾝ","kana_city":"ｻﾝﾖｳｵﾉﾀﾞｼ","kana_address":"ﾊﾌﾞ","pref":"山口県","city":"山陽小野田市","address":"埴生"},
{"zip_code":"7570013","kana_pref":"ﾔﾏｸﾞﾁｹﾝ","kana_city":"ｻﾝﾖｳｵﾉﾀﾞｼ","kana_address":"ﾌｸﾀﾞ","pref":"山口県","city":"山陽小野田市","address":"福田"},
{"zip_code":"7570004","kana_pref":"ﾔﾏｸﾞﾁｹﾝ","kana_city":"ｻﾝﾖｳｵﾉﾀﾞｼ","kana_address":"ﾔﾏｶﾜ","pref":"山口県","city":"山陽小野田市","address":"山川"},
{"zip_code":"7570003","kana_pref":"ﾔﾏｸﾞﾁｹﾝ","kana_city":"ｻﾝﾖｳｵﾉﾀﾞｼ","kana_address":"ﾔﾏﾉｲ","pref":"山口県","city":"山陽小野田市","address":"山野井"}]}