{"zip_code":[
{"zip_code":"7580000","kana_pref":"ﾔﾏｸﾞﾁｹﾝ","kana_city":"ﾊｷﾞｼ","kana_address":"","pref":"山口県","city":"萩市","address":""},
{"zip_code":"7580001","kana_pref":"ﾔﾏｸﾞﾁｹﾝ","kana_city":"ﾊｷﾞｼ","kana_address":"ｱｲｼﾏ","pref":"山口県","city":"萩市","address":"相島"},
{"zip_code":"7580051","kana_pref":"ﾔﾏｸﾞﾁｹﾝ","kana_city":"ﾊｷﾞｼ","kana_address":"ｱﾌﾞﾗﾔﾁｮｳ","pref":"山口県","city":"萩市","address":"油屋町"},
{"zip_code":"7580052","kana_pref":"ﾔﾏｸﾞﾁｹﾝ","kana_city":"ﾊｷﾞｼ","kana_address":"ｲﾏｳｵﾉﾀﾅﾏﾁ","pref":"山口県","city":"萩市","address":"今魚店町"},
{"zip_code":"7580021","kana_pref":"ﾔﾏｸﾞﾁｹﾝ","kana_city":"ﾊｷﾞｼ","kana_address":"ｲﾏﾌﾙﾊｷﾞﾏﾁ","pref":"山口県","city":"萩市","address":"今古萩町"},
{"zip_code":"7580033","kana_pref":"ﾔﾏｸﾞﾁｹﾝ","kana_city":"ﾊｷﾞｼ","kana_address":"ｴﾋﾞｽﾁｮｳ","pref":"山口県","city":"萩市","address":"恵美須町"},
{"zip_code":"7580041","kana_pref":"ﾔﾏｸﾞﾁｹﾝ","kana_city":"ﾊｷﾞｼ","kana_address":"ｴﾑｶｲ","pref":"山口県","city":"萩市","address":"江向"},
{"zip_code":"7580003","kana_pref":"ﾔﾏｸﾞﾁｹﾝ","kana_city":"ﾊｷﾞｼ","kana_address":"ｵｵｼﾏ","pref":"山口県","city":"萩市","address":"大島"},
{"zip_code":"7580042","kana_pref":"ﾔﾏｸﾞﾁｹﾝ","kana_city":"ﾊｷﾞｼ","kana_address":"ｵﾓﾄﾏﾁ","pref":"山口県","city":"萩市","address":"御許町"},
{"zip_code":"7580301","kana_pref":"ﾔﾏｸﾞﾁｹﾝ","kana_city":"ﾊｷﾞｼ","kana_address":"ｶﾀﾏﾀ","pref":"山口県","city":"萩市","address":"片俣"},
{"zip_code":"7580043","kana_pref":"ﾔﾏｸﾞﾁｹﾝ","kana_city":"ﾊｷﾞｼ","kana_address":"ｶﾐｺﾞｹﾝﾏﾁ","pref":"山口県","city":"萩市","address":"上五間町"},
{"zip_code":"7580044","kana_pref":"ﾔﾏｸﾞﾁｹﾝ","kana_city":"ﾊｷﾞｼ","kana_address":"ｶﾗﾋﾏﾁ","pref":"山口県","city":"萩市","address":"唐樋町"},
{"zip_code":"7580141","kana_pref":"ﾔﾏｸﾞﾁｹﾝ","kana_city":"ﾊｷﾞｼ","kana_address":"ｶﾜｶﾐ","pref":"山口県","city":"萩市","address":"川上"},
{"zip_code":"7580031","kana_pref":"ﾔﾏｸﾞﾁｹﾝ","kana_city":"ﾊｷﾞｼ","kana_address":"ｶﾜｼﾏ","pref":"山口県","city":"萩市","address":"川島"},
{"zip_code":"7580071","kana_pref":"ﾔﾏｸﾞﾁｹﾝ","kana_city":"ﾊｷﾞｼ","kana_address":"ｶﾜﾗﾏﾁ","pref":"山口県","city":"萩市","address":"瓦町"},
{"zip_code":"7580053","kana_pref":"ﾔﾏｸﾞﾁｹﾝ","kana_city":"ﾊｷﾞｼ","kana_address":"ｷﾀｶﾀｶﾜﾏﾁ","pref":"山口県","city":"萩市","address":"北片河町"},
{"zip_code":"7580032","kana_pref":"ﾔﾏｸﾞﾁｹﾝ","kana_city":"ﾊｷﾞｼ","kana_address":"ｷﾀﾌﾙﾊｷﾞﾏﾁ","pref":"山口県","city":"萩市","address":"北古萩町"},
{"zip_code":"7580304","kana_pref":"ﾔﾏｸﾞﾁｹﾝ","kana_city":"ﾊｷﾞｼ","kana_address":"ｷﾍﾞｶﾐ","pref":"山口県","city":"萩市","address":"吉部上"},
{"zip_code":"7580305","kana_pref":"ﾔﾏｸﾞﾁｹﾝ","kana_city":"ﾊｷﾞｼ","kana_address":"ｷﾍﾞｼﾓ","pref":"山口県","city":"萩市","address":"吉部下"},
{"zip_code":"7580034","kana_pref":"ﾔﾏｸﾞﾁｹﾝ","kana_city":"ﾊｷﾞｼ","kana_address":"ｸﾏｶﾞﾔﾁｮｳ","pref":"山口県","city":"萩市","address":"熊谷町"},
{"zip_code":"7580213","kana_pref":"ﾔﾏｸﾞﾁｹﾝ","kana_city":"ﾊｷﾞｼ","kana_address":"ｸﾛｶﾞﾜ","pref":"山口県","city":"萩市","address":"黒川"},
{"zip_code":"7580073","kana_pref":"ﾔﾏｸﾞﾁｹﾝ","kana_city":"ﾊｷﾞｼ","kana_address":"ｺｳｿﾞｴ","pref":"山口県","city":"萩市","address":"河添"},
{"zip_code":"7580072","kana_pref":"ﾔﾏｸﾞﾁｹﾝ","kana_city":"ﾊｷﾞｼ","kana_address":"ｺﾞﾌｸﾏﾁ","pref":"山口県","city":"萩市","address":"呉服町"},
{"zip_code":"7580045","kana_pref":"ﾔﾏｸﾞﾁｹﾝ","kana_city":"ﾊｷﾞｼ","kana_address":"ｺﾒﾔﾁｮｳ","pref":"山口県","city":"萩市","address":"米屋町"},
{"zip_code":"7580035","kana_pref":"ﾔﾏｸﾞﾁｹﾝ","kana_city":"ﾊｷﾞｼ","kana_address":"ｻｲｸﾏﾁ","pref":"山口県","city":"萩市","address":"細工町"},
{"zip_code":"7580036","kana_pref":"ﾔﾏｸﾞﾁｹﾝ","kana_city":"ﾊｷﾞｼ","kana_address":"ｼｵﾔﾁｮｳ","pref":"山口県","city":"萩市","address":"塩屋町"},
{"zip_code":"7580501","kana_pref":"ﾔﾏｸﾞﾁｹﾝ","kana_city":"ﾊｷﾞｼ","kana_address":"ｼﾌﾞｷ","pref":"山口県","city":"萩市","address":"紫福"},
{"zip_code":"7580043","kana_pref":"ﾔﾏｸﾞﾁｹﾝ","kana_city":"ﾊｷﾞｼ","kana_address":"ｼﾓｺﾞｹﾝﾏﾁ","pref":"山口県","city":"萩市","address":"下五間町"},
{"zip_code":"7580302","kana_pref":"ﾔﾏｸﾞﾁｹﾝ","kana_city":"ﾊｷﾞｼ","kana_address":"ﾀｶｻｶﾐ","pref":"山口県","city":"萩市","address":"高佐上"},
{"zip_code":"7580303","kana_pref":"ﾔﾏｸﾞﾁｹﾝ","kana_city":"ﾊｷﾞｼ","kana_address":"ﾀｶｻｼﾓ","pref":"山口県","city":"萩市","address":"高佐下"},
{"zip_code":"7580054","kana_pref":"ﾔﾏｸﾞﾁｹﾝ","kana_city":"ﾊｷﾞｼ","kana_address":"ﾀﾙﾔﾁｮｳ","pref":"山口県","city":"萩市","address":"樽屋町"},
{"zip_code":"7580011","kana_pref":"ﾔﾏｸﾞﾁｹﾝ","kana_city":"ﾊｷﾞｼ","kana_address":"ﾁﾝﾄｳ","pref":"山口県","city":"萩市","address":"椿東"},
{"zip_code":"7580061","kana_pref":"ﾔﾏｸﾞﾁｹﾝ","kana_city":"ﾊｷﾞｼ","kana_address":"ﾂﾊﾞｷ","pref":"山口県","city":"萩市","address":"椿"},
{"zip_code":"7580037","kana_pref":"ﾔﾏｸﾞﾁｹﾝ","kana_city":"ﾊｷﾞｼ","kana_address":"ﾂﾓﾘﾁｮｳ","pref":"山口県","city":"萩市","address":"津守町"},
{"zip_code":"7580046","kana_pref":"ﾔﾏｸﾞﾁｹﾝ","kana_city":"ﾊｷﾞｼ","kana_address":"ﾆｼﾀﾏﾁ","pref":"山口県","city":"萩市","address":"西田町"},
{"zip_code":"7580062","kana_pref":"ﾔﾏｸﾞﾁｹﾝ","kana_city":"ﾊｷﾞｼ","kana_address":"ﾊｼﾓﾄﾏﾁ","pref":"山口県","city":"萩市","address":"橋本町"},
{"zip_code":"7580023","kana_pref":"ﾔﾏｸﾞﾁｹﾝ","kana_city":"ﾊｷﾞｼ","kana_address":"ﾊﾏｻｷｼﾝﾁｮｳ","pref":"山口県","city":"萩市","address":"浜崎新町"},
{"zip_code":"7580022","kana_pref":"ﾔﾏｸﾞﾁｹﾝ","kana_city":"ﾊｷﾞｼ","kana_address":"ﾊﾏｻｷﾏﾁ","pref":"山口県","city":"萩市","address":"浜崎町"},
{"zip_code":"7580055","kana_pref":"ﾔﾏｸﾞﾁｹﾝ","kana_city":"ﾊｷﾞｼ","kana_address":"ﾊﾙﾜｶﾁｮｳ","pref":"山口県","city":"萩市","address":"春若町"},
{"zip_code":"7580047","kana_pref":"ﾔﾏｸﾞﾁｹﾝ","kana_city":"ﾊｷﾞｼ","kana_address":"ﾋｶﾞｼﾀﾏﾁ","pref":"山口県","city":"萩市","address":"東田町"},
{"zip_code":"7580024","kana_pref":"ﾔﾏｸﾞﾁｹﾝ","kana_city":"ﾊｷﾞｼ","kana_address":"ﾋｶﾞｼﾊﾏｻｷﾏﾁ","pref":"山口県","city":"萩市","address":"東浜崎町"},
{"zip_code":"7580004","kana_pref":"ﾔﾏｸﾞﾁｹﾝ","kana_city":"ﾊｷﾞｼ","kana_address":"ﾋｼﾏ","pref":"山口県","city":"萩市","address":"肥島"},
{"zip_code":"7580025","kana_pref":"ﾔﾏｸﾞﾁｹﾝ","kana_city":"ﾊｷﾞｼ","kana_address":"ﾋｼﾞﾜﾗ","pref":"山口県","city":"萩市","address":"土原"},
{"zip_code":"7580002","kana_pref":"ﾔﾏｸﾞﾁｹﾝ","kana_city":"ﾊｷﾞｼ","kana_address":"ﾋﾂｼﾏ","pref":"山口県","city":"萩市","address":"櫃島"},
{"zip_code":"7580074","kana_pref":"ﾔﾏｸﾞﾁｹﾝ","kana_city":"ﾊｷﾞｼ","kana_address":"ﾋﾔｺﾏﾁ","pref":"山口県","city":"萩市","address":"平安古町"},
{"zip_code":"7580211","kana_pref":"ﾔﾏｸﾞﾁｹﾝ","kana_city":"ﾊｷﾞｼ","kana_address":"ﾌｸｲｶﾐ","pref":"山口県","city":"萩市","address":"福井上"},
{"zip_code":"7580212","kana_pref":"ﾔﾏｸﾞﾁｹﾝ","kana_city":"ﾊｷﾞｼ","kana_address":"ﾌｸｲｼﾓ","pref":"山口県","city":"萩市","address":"福井下"},
{"zip_code":"7580056","kana_pref":"ﾔﾏｸﾞﾁｹﾝ","kana_city":"ﾊｷﾞｼ","kana_address":"ﾌﾙｳｵﾉﾀﾅﾏﾁ","pref":"山口県","city":"萩市","address":"古魚店町"},
{"zip_code":"7580026","kana_pref":"ﾔﾏｸﾞﾁｹﾝ","kana_city":"ﾊｷﾞｼ","kana_address":"ﾌﾙﾊｷﾞﾏﾁ","pref":"山口県","city":"萩市","address":"古萩町"},
{"zip_code":"7580057","kana_pref":"ﾔﾏｸﾞﾁｹﾝ","kana_city":"ﾊｷﾞｼ","kana_address":"ﾎﾘｳﾁ","pref":"山口県","city":"萩市","address":"堀内"},
{"zip_code":"7580701","kana_pref":"ﾔﾏｸﾞﾁｹﾝ","kana_city":"ﾊｷﾞｼ","kana_address":"ﾐｼﾏ","pref":"山口県","city":"萩市","address":"見島"},
{"zip_code":"7580076","kana_pref":"ﾔﾏｸﾞﾁｹﾝ","kana_city":"ﾊｷﾞｼ","kana_address":"ﾐﾅﾐｶﾀｶﾜﾏﾁ","pref":"山口県","city":"萩市","address":"南片河町"},
{"zip_code":"7580077","kana_pref":"ﾔﾏｸﾞﾁｹﾝ","kana_city":"ﾊｷﾞｼ","kana_address":"ﾐﾅﾐﾌﾙﾊｷﾞﾏﾁ","pref":"山口県","city":"萩市","address":"南古萩町"},
{"zip_code":"7580063","kana_pref":"ﾔﾏｸﾞﾁｹﾝ","kana_city":"ﾊｷﾞｼ","kana_address":"ﾔﾏﾀﾞ","pref":"山口県","city":"萩市","address":"山田"},
{"zip_code":"7580027","kana_pref":"ﾔﾏｸﾞﾁｹﾝ","kana_city":"ﾊｷﾞｼ","kana_address":"ﾖｼﾀﾞﾁｮｳ","pref":"山口県","city":"萩市","address":"吉田町"},
{"zip_code":"7580613","kana_pref":"ﾔﾏｸﾞﾁｹﾝ","kana_city":"ｱﾌﾞｸﾞﾝｱﾌﾞﾁｮｳ","kana_address":"ｳﾌﾞｶ","pref":"山口県","city":"阿武郡阿武町","address":"宇生賀"},
{"zip_code":"7580612","kana_pref":"ﾔﾏｸﾞﾁｹﾝ","kana_city":"ｱﾌﾞｸﾞﾝｱﾌﾞﾁｮｳ","kana_address":"ﾌｸﾀﾞｶﾐ","pref":"山口県","city":"阿武郡阿武町","address":"福田上"},
{"zip_code":"7580611","kana_pref":"ﾔﾏｸﾞﾁｹﾝ","kana_city":"ｱﾌﾞｸﾞﾝｱﾌﾞﾁｮｳ","kana_address":"ﾌｸﾀﾞｼﾓ","pref":"山口県","city":"阿武郡阿武町","address":"福田下"}]}