{"zip_code":[
{"zip_code":"7596614","kana_pref":"ﾔﾏｸﾞﾁｹﾝ","kana_city":"ｼﾓﾉｾｷｼ","kana_address":"ｶｼﾞｸﾘﾁｮｳ","pref":"山口県","city":"下関市","address":"梶栗町"},
{"zip_code":"7596602","kana_pref":"ﾔﾏｸﾞﾁｹﾝ","kana_city":"ｼﾓﾉｾｷｼ","kana_address":"ｶﾓｳﾉ","pref":"山口県","city":"下関市","address":"蒲生野"},
{"zip_code":"7596613","kana_pref":"ﾔﾏｸﾞﾁｹﾝ","kana_city":"ｼﾓﾉｾｷｼ","kana_address":"ﾄﾐﾄｳﾁｮｳ","pref":"山口県","city":"下関市","address":"富任町"},
{"zip_code":"7596314","kana_pref":"ﾔﾏｸﾞﾁｹﾝ","kana_city":"ｼﾓﾉｾｷｼ","kana_address":"ﾄﾖｳﾗﾁｮｳｱﾂﾓｺﾞｳ","pref":"山口県","city":"下関市","address":"豊浦町厚母郷"},
{"zip_code":"7596303","kana_pref":"ﾔﾏｸﾞﾁｹﾝ","kana_city":"ｼﾓﾉｾｷｼ","kana_address":"ﾄﾖｳﾗﾁｮｳｳｶ","pref":"山口県","city":"下関市","address":"豊浦町宇賀"},
{"zip_code":"7596301","kana_pref":"ﾔﾏｸﾞﾁｹﾝ","kana_city":"ｼﾓﾉｾｷｼ","kana_address":"ﾄﾖｳﾗﾁｮｳｶﾜﾀﾅ","pref":"山口県","city":"下関市","address":"豊浦町川棚"},
{"zip_code":"7596312","kana_pref":"ﾔﾏｸﾞﾁｹﾝ","kana_city":"ｼﾓﾉｾｷｼ","kana_address":"ﾄﾖｳﾗﾁｮｳｸﾛｲ","pref":"山口県","city":"下関市","address":"豊浦町黒井"},
{"zip_code":"7596302","kana_pref":"ﾔﾏｸﾞﾁｹﾝ","kana_city":"ｼﾓﾉｾｷｼ","kana_address":"ﾄﾖｳﾗﾁｮｳｺｸﾞｼ","pref":"山口県","city":"下関市","address":"豊浦町小串"},
{"zip_code":"7596313","kana_pref":"ﾔﾏｸﾞﾁｹﾝ","kana_city":"ｼﾓﾉｾｷｼ","kana_address":"ﾄﾖｳﾗﾁｮｳﾎｳﾖｳﾀﾞｲ","pref":"山口県","city":"下関市","address":"豊浦町豊洋台"},
{"zip_code":"7596313","kana_pref":"ﾔﾏｸﾞﾁｹﾝ","kana_city":"ｼﾓﾉｾｷｼ","kana_address":"ﾄﾖｳﾗﾁｮｳﾎｳﾖｳﾀﾞｲｼﾝﾏﾁ","pref":"山口県","city":"下関市","address":"豊浦町豊洋台新町"},
{"zip_code":"7596315","kana_pref":"ﾔﾏｸﾞﾁｹﾝ","kana_city":"ｼﾓﾉｾｷｼ","kana_address":"ﾄﾖｳﾗﾁｮｳﾑﾛﾂｶﾐ","pref":"山口県","city":"下関市","address":"豊浦町室津上"},
{"zip_code":"7596316","kana_pref":"ﾔﾏｸﾞﾁｹﾝ","kana_city":"ｼﾓﾉｾｷｼ","kana_address":"ﾄﾖｳﾗﾁｮｳﾑﾛﾂｼﾓ","pref":"山口県","city":"下関市","address":"豊浦町室津下"},
{"zip_code":"7596311","kana_pref":"ﾔﾏｸﾞﾁｹﾝ","kana_city":"ｼﾓﾉｾｷｼ","kana_address":"ﾄﾖｳﾗﾁｮｳﾖｼﾅｶﾞ","pref":"山口県","city":"下関市","address":"豊浦町吉永"},
{"zip_code":"7596317","kana_pref":"ﾔﾏｸﾞﾁｹﾝ","kana_city":"ｼﾓﾉｾｷｼ","kana_address":"ﾄﾖｳﾗﾁｮｳﾜｲﾀｳｼﾛｼﾞ","pref":"山口県","city":"下関市","address":"豊浦町涌田後地"},
{"zip_code":"7596534","kana_pref":"ﾔﾏｸﾞﾁｹﾝ","kana_city":"ｼﾓﾉｾｷｼ","kana_address":"ﾅｶﾞﾀｺﾞｳ","pref":"山口県","city":"下関市","address":"永田郷"},
{"zip_code":"7596533","kana_pref":"ﾔﾏｸﾞﾁｹﾝ","kana_city":"ｼﾓﾉｾｷｼ","kana_address":"ﾅｶﾞﾀﾎﾝﾏﾁ","pref":"山口県","city":"下関市","address":"永田本町"},
{"zip_code":"7596601","kana_pref":"ﾔﾏｸﾞﾁｹﾝ","kana_city":"ｼﾓﾉｾｷｼ","kana_address":"ﾌｸｴ","pref":"山口県","city":"下関市","address":"福江"},
{"zip_code":"7596542","kana_pref":"ﾔﾏｸﾞﾁｹﾝ","kana_city":"ｼﾓﾉｾｷｼ","kana_address":"ﾌﾀｵｲｼﾞﾏ","pref":"山口県","city":"下関市","address":"蓋井島"},
{"zip_code":"7595241","kana_pref":"ﾔﾏｸﾞﾁｹﾝ","kana_city":"ｼﾓﾉｾｷｼ","kana_address":"ﾎｳﾎｸﾁｮｳｱｶﾞﾜ","pref":"山口県","city":"下関市","address":"豊北町阿川"},
{"zip_code":"7595101","kana_pref":"ﾔﾏｸﾞﾁｹﾝ","kana_city":"ｼﾓﾉｾｷｼ","kana_address":"ﾎｳﾎｸﾁｮｳｱﾜﾉ","pref":"山口県","city":"下関市","address":"豊北町粟野"},
{"zip_code":"7595331","kana_pref":"ﾔﾏｸﾞﾁｹﾝ","kana_city":"ｼﾓﾉｾｷｼ","kana_address":"ﾎｳﾎｸﾁｮｳｶﾝﾀﾞ","pref":"山口県","city":"下関市","address":"豊北町神田"},
{"zip_code":"7595513","kana_pref":"ﾔﾏｸﾞﾁｹﾝ","kana_city":"ｼﾓﾉｾｷｼ","kana_address":"ﾎｳﾎｸﾁｮｳｶﾝﾀﾞｶﾐ","pref":"山口県","city":"下関市","address":"豊北町神田上"},
{"zip_code":"7596121","kana_pref":"ﾔﾏｸﾞﾁｹﾝ","kana_city":"ｼﾓﾉｾｷｼ","kana_address":"ﾎｳﾎｸﾁｮｳｶﾝﾀﾞｶﾐ","pref":"山口県","city":"下関市","address":"豊北町神田上"},
{"zip_code":"7595513","kana_pref":"ﾔﾏｸﾞﾁｹﾝ","kana_city":"ｼﾓﾉｾｷｼ","kana_address":"ﾎｳﾎｸﾁｮｳｷﾀｳｶ","pref":"山口県","city":"下関市","address":"豊北町北宇賀"},
{"zip_code":"7595511","kana_pref":"ﾔﾏｸﾞﾁｹﾝ","kana_city":"ｼﾓﾉｾｷｼ","kana_address":"ﾎｳﾎｸﾁｮｳﾀｷﾍﾞ","pref":"山口県","city":"下関市","address":"豊北町滝部"},
{"zip_code":"7595512","kana_pref":"ﾔﾏｸﾞﾁｹﾝ","kana_city":"ｼﾓﾉｾｷｼ","kana_address":"ﾎｳﾎｸﾁｮｳﾀｽｷ","pref":"山口県","city":"下関市","address":"豊北町田耕"},
{"zip_code":"7595332","kana_pref":"ﾔﾏｸﾞﾁｹﾝ","kana_city":"ｼﾓﾉｾｷｼ","kana_address":"ﾎｳﾎｸﾁｮｳﾂﾉｼﾏ","pref":"山口県","city":"下関市","address":"豊北町角島"},
{"zip_code":"7596122","kana_pref":"ﾔﾏｸﾞﾁｹﾝ","kana_city":"ｼﾓﾉｾｷｼ","kana_address":"ﾎｳﾎｸﾁｮｳﾔﾀﾏ","pref":"山口県","city":"下関市","address":"豊北町矢玉"},
{"zip_code":"7596612","kana_pref":"ﾔﾏｸﾞﾁｹﾝ","kana_city":"ｼﾓﾉｾｷｼ","kana_address":"ﾔｽｵｶｴｷﾏｴ","pref":"山口県","city":"下関市","address":"安岡駅前"},
{"zip_code":"7596603","kana_pref":"ﾔﾏｸﾞﾁｹﾝ","kana_city":"ｼﾓﾉｾｷｼ","kana_address":"ﾔｽｵｶﾁｮｳ","pref":"山口県","city":"下関市","address":"安岡町"},
{"zip_code":"7596611","kana_pref":"ﾔﾏｸﾞﾁｹﾝ","kana_city":"ｼﾓﾉｾｷｼ","kana_address":"ﾔｽｵｶﾎﾝﾏﾁ","pref":"山口県","city":"下関市","address":"安岡本町"},
{"zip_code":"7596604","kana_pref":"ﾔﾏｸﾞﾁｹﾝ","kana_city":"ｼﾓﾉｾｷｼ","kana_address":"ﾖｺﾉﾁｮｳ","pref":"山口県","city":"下関市","address":"横野町"},
{"zip_code":"7596524","kana_pref":"ﾔﾏｸﾞﾁｹﾝ","kana_city":"ｼﾓﾉｾｷｼ","kana_address":"ﾖｼﾐｶﾐ","pref":"山口県","city":"下関市","address":"吉見上"},
{"zip_code":"7596523","kana_pref":"ﾔﾏｸﾞﾁｹﾝ","kana_city":"ｼﾓﾉｾｷｼ","kana_address":"ﾖｼﾐｼﾓ","pref":"山口県","city":"下関市","address":"吉見下"},
{"zip_code":"7596521","kana_pref":"ﾔﾏｸﾞﾁｹﾝ","kana_city":"ｼﾓﾉｾｷｼ","kana_address":"ﾖｼﾐｺｼﾞｭｸﾁｮｳ","pref":"山口県","city":"下関市","address":"吉見古宿町"},
{"zip_code":"7596525","kana_pref":"ﾔﾏｸﾞﾁｹﾝ","kana_city":"ｼﾓﾉｾｷｼ","kana_address":"ﾖｼﾐｻﾄﾏﾁ","pref":"山口県","city":"下関市","address":"吉見里町"},
{"zip_code":"7596532","kana_pref":"ﾔﾏｸﾞﾁｹﾝ","kana_city":"ｼﾓﾉｾｷｼ","kana_address":"ﾖｼﾐｼﾝﾏﾁ","pref":"山口県","city":"下関市","address":"吉見新町"},
{"zip_code":"7596531","kana_pref":"ﾔﾏｸﾞﾁｹﾝ","kana_city":"ｼﾓﾉｾｷｼ","kana_address":"ﾖｼﾐﾎﾝﾏﾁ","pref":"山口県","city":"下関市","address":"吉見本町"},
{"zip_code":"7596522","kana_pref":"ﾔﾏｸﾞﾁｹﾝ","kana_city":"ｼﾓﾉｾｷｼ","kana_address":"ﾖｼﾐﾘｭｳｵｳﾁｮｳ","pref":"山口県","city":"下関市","address":"吉見竜王町"},
{"zip_code":"7596541","kana_pref":"ﾔﾏｸﾞﾁｹﾝ","kana_city":"ｼﾓﾉｾｷｼ","kana_address":"ﾖｼﾓ","pref":"山口県","city":"下関市","address":"吉母"},
{"zip_code":"7590131","kana_pref":"ﾔﾏｸﾞﾁｹﾝ","kana_city":"ｳﾍﾞｼ","kana_address":"ｱﾗｾ","pref":"山口県","city":"宇部市","address":"荒瀬"},
{"zip_code":"7590135","kana_pref":"ﾔﾏｸﾞﾁｹﾝ","kana_city":"ｳﾍﾞｼ","kana_address":"ｳﾘｭｳﾉ","pref":"山口県","city":"宇部市","address":"瓜生野"},
{"zip_code":"7590202","kana_pref":"ﾔﾏｸﾞﾁｹﾝ","kana_city":"ｳﾍﾞｼ","kana_address":"ｵｷﾉﾀﾞﾝ","pref":"山口県","city":"宇部市","address":"沖ノ旦"},
{"zip_code":"7590136","kana_pref":"ﾔﾏｸﾞﾁｹﾝ","kana_city":"ｳﾍﾞｼ","kana_address":"ｷﾀﾞ","pref":"山口県","city":"宇部市","address":"木田"},
{"zip_code":"7590207","kana_pref":"ﾔﾏｸﾞﾁｹﾝ","kana_city":"ｳﾍﾞｼ","kana_address":"ｷﾜﾅﾐ","pref":"山口県","city":"宇部市","address":"際波"},
{"zip_code":"7590133","kana_pref":"ﾔﾏｸﾞﾁｹﾝ","kana_city":"ｳﾍﾞｼ","kana_address":"ｸﾙﾏｼﾞ","pref":"山口県","city":"宇部市","address":"車地"},
{"zip_code":"7590209","kana_pref":"ﾔﾏｸﾞﾁｹﾝ","kana_city":"ｳﾍﾞｼ","kana_address":"ｺｳﾅﾝｷﾀ","pref":"山口県","city":"宇部市","address":"厚南北"},
{"zip_code":"7590123","kana_pref":"ﾔﾏｸﾞﾁｹﾝ","kana_city":"ｳﾍﾞｼ","kana_address":"ｽｴﾉﾌﾞ","pref":"山口県","city":"宇部市","address":"末信"},
{"zip_code":"7590121","kana_pref":"ﾔﾏｸﾞﾁｹﾝ","kana_city":"ｳﾍﾞｼ","kana_address":"ﾀﾅｲ","pref":"山口県","city":"宇部市","address":"棚井"},
{"zip_code":"7590204","kana_pref":"ﾔﾏｸﾞﾁｹﾝ","kana_city":"ｳﾍﾞｼ","kana_address":"ﾂﾏｻﾞｷｶﾞｲｻｸ","pref":"山口県","city":"宇部市","address":"妻崎開作"},
{"zip_code":"7590203","kana_pref":"ﾔﾏｸﾞﾁｹﾝ","kana_city":"ｳﾍﾞｼ","kana_address":"ﾅｶﾉｶﾞｲｻｸ","pref":"山口県","city":"宇部市","address":"中野開作"},
{"zip_code":"7590211","kana_pref":"ﾔﾏｸﾞﾁｹﾝ","kana_city":"ｳﾍﾞｼ","kana_address":"ﾆｼｳﾍﾞｷﾀ","pref":"山口県","city":"宇部市","address":"西宇部北"},
{"zip_code":"7590208","kana_pref":"ﾔﾏｸﾞﾁｹﾝ","kana_city":"ｳﾍﾞｼ","kana_address":"ﾆｼｳﾍﾞﾐﾅﾐ","pref":"山口県","city":"宇部市","address":"西宇部南"},
{"zip_code":"7590205","kana_pref":"ﾔﾏｸﾞﾁｹﾝ","kana_city":"ｳﾍﾞｼ","kana_address":"ﾆｼｵｷﾉﾔﾏ","pref":"山口県","city":"宇部市","address":"西沖の山"},
{"zip_code":"7590206","kana_pref":"ﾔﾏｸﾞﾁｹﾝ","kana_city":"ｳﾍﾞｼ","kana_address":"ﾋｶﾞｼｽｴ","pref":"山口県","city":"宇部市","address":"東須恵"},
{"zip_code":"7590124","kana_pref":"ﾔﾏｸﾞﾁｹﾝ","kana_city":"ｳﾍﾞｼ","kana_address":"ﾋﾛｾ","pref":"山口県","city":"宇部市","address":"広瀬"},
{"zip_code":"7590132","kana_pref":"ﾔﾏｸﾞﾁｹﾝ","kana_city":"ｳﾍﾞｼ","kana_address":"ﾔﾏﾅｶ","pref":"山口県","city":"宇部市","address":"山中"},
{"zip_code":"7590201","kana_pref":"ﾔﾏｸﾞﾁｹﾝ","kana_city":"ｳﾍﾞｼ","kana_address":"ﾔﾏﾉﾃﾁｮｳ","pref":"山口県","city":"宇部市","address":"山の手町"},
{"zip_code":"7590122","kana_pref":"ﾔﾏｸﾞﾁｹﾝ","kana_city":"ｳﾍﾞｼ","kana_address":"ﾖｼﾐ","pref":"山口県","city":"宇部市","address":"吉見"},
{"zip_code":"7590134","kana_pref":"ﾔﾏｸﾞﾁｹﾝ","kana_city":"ｳﾍﾞｼ","kana_address":"ﾖｼﾜ","pref":"山口県","city":"宇部市","address":"善和"},
{"zip_code":"7591342","kana_pref":"ﾔﾏｸﾞﾁｹﾝ","kana_city":"ﾔﾏｸﾞﾁｼ","kana_address":"ｱﾄｳｲｸﾓﾅｶ","pref":"山口県","city":"山口市","address":"阿東生雲中"},
{"zip_code":"7591341","kana_pref":"ﾔﾏｸﾞﾁｹﾝ","kana_city":"ﾔﾏｸﾞﾁｼ","kana_address":"ｱﾄｳｲｸﾓﾆｼﾌﾞﾝ","pref":"山口県","city":"山口市","address":"阿東生雲西分"},
{"zip_code":"7591231","kana_pref":"ﾔﾏｸﾞﾁｹﾝ","kana_city":"ﾔﾏｸﾞﾁｼ","kana_address":"ｱﾄｳｲｸﾓﾋｶﾞｼﾌﾞﾝ","pref":"山口県","city":"山口市","address":"阿東生雲東分"},
{"zip_code":"7591601","kana_pref":"ﾔﾏｸﾞﾁｹﾝ","kana_city":"ﾔﾏｸﾞﾁｼ","kana_address":"ｱﾄｳｶﾈｶﾐ","pref":"山口県","city":"山口市","address":"阿東嘉年上"},
{"zip_code":"7591602","kana_pref":"ﾔﾏｸﾞﾁｹﾝ","kana_city":"ﾔﾏｸﾞﾁｼ","kana_address":"ｱﾄｳｶﾈｼﾓ","pref":"山口県","city":"山口市","address":"阿東嘉年下"},
{"zip_code":"7591232","kana_pref":"ﾔﾏｸﾞﾁｹﾝ","kana_city":"ﾔﾏｸﾞﾁｼ","kana_address":"ｱﾄｳｼﾉﾒ","pref":"山口県","city":"山口市","address":"阿東篠目"},
{"zip_code":"7591421","kana_pref":"ﾔﾏｸﾞﾁｹﾝ","kana_city":"ﾔﾏｸﾞﾁｼ","kana_address":"ｱﾄｳｼﾞﾌｸｶﾐ","pref":"山口県","city":"山口市","address":"阿東地福上"},
{"zip_code":"7591422","kana_pref":"ﾔﾏｸﾞﾁｹﾝ","kana_city":"ﾔﾏｸﾞﾁｼ","kana_address":"ｱﾄｳｼﾞﾌｸｼﾓ","pref":"山口県","city":"山口市","address":"阿東地福下"},
{"zip_code":"7591343","kana_pref":"ﾔﾏｸﾞﾁｹﾝ","kana_city":"ﾔﾏｸﾞﾁｼ","kana_address":"ｱﾄｳｿﾞｳﾒｷ","pref":"山口県","city":"山口市","address":"阿東蔵目喜"},
{"zip_code":"7591511","kana_pref":"ﾔﾏｸﾞﾁｹﾝ","kana_city":"ﾔﾏｸﾞﾁｼ","kana_address":"ｱﾄｳﾄｸｻｶﾐ","pref":"山口県","city":"山口市","address":"阿東徳佐上"},
{"zip_code":"7591513","kana_pref":"ﾔﾏｸﾞﾁｹﾝ","kana_city":"ﾔﾏｸﾞﾁｼ","kana_address":"ｱﾄｳﾄｸｻｼﾓ","pref":"山口県","city":"山口市","address":"阿東徳佐下"},
{"zip_code":"7591512","kana_pref":"ﾔﾏｸﾞﾁｹﾝ","kana_city":"ﾔﾏｸﾞﾁｼ","kana_address":"ｱﾄｳﾄｸｻﾅｶ","pref":"山口県","city":"山口市","address":"阿東徳佐中"},
{"zip_code":"7593113","kana_pref":"ﾔﾏｸﾞﾁｹﾝ","kana_city":"ﾊｷﾞｼ","kana_address":"ｴｻｷ","pref":"山口県","city":"萩市","address":"江崎"},
{"zip_code":"7593611","kana_pref":"ﾔﾏｸﾞﾁｹﾝ","kana_city":"ﾊｷﾞｼ","kana_address":"ｵｵｲ","pref":"山口県","city":"萩市","address":"大井"},
{"zip_code":"7593201","kana_pref":"ﾔﾏｸﾞﾁｹﾝ","kana_city":"ﾊｷﾞｼ","kana_address":"ｶﾐｵｶﾞﾜﾆｼﾌﾞﾝ","pref":"山口県","city":"萩市","address":"上小川西分"},
{"zip_code":"7593202","kana_pref":"ﾔﾏｸﾞﾁｹﾝ","kana_city":"ﾊｷﾞｼ","kana_address":"ｶﾐｵｶﾞﾜﾋｶﾞｼﾌﾞﾝ","pref":"山口県","city":"萩市","address":"上小川東分"},
{"zip_code":"7593111","kana_pref":"ﾔﾏｸﾞﾁｹﾝ","kana_city":"ﾊｷﾞｼ","kana_address":"ｶﾐﾀﾏ","pref":"山口県","city":"萩市","address":"上田万"},
{"zip_code":"7593721","kana_pref":"ﾔﾏｸﾞﾁｹﾝ","kana_city":"ﾊｷﾞｼ","kana_address":"ｻﾝﾐ","pref":"山口県","city":"萩市","address":"三見"},
{"zip_code":"7593204","kana_pref":"ﾔﾏｸﾞﾁｹﾝ","kana_city":"ﾊｷﾞｼ","kana_address":"ｼﾓｵｶﾞﾜ","pref":"山口県","city":"萩市","address":"下小川"},
{"zip_code":"7593112","kana_pref":"ﾔﾏｸﾞﾁｹﾝ","kana_city":"ﾊｷﾞｼ","kana_address":"ｼﾓﾀﾏ","pref":"山口県","city":"萩市","address":"下田万"},
{"zip_code":"7593411","kana_pref":"ﾔﾏｸﾞﾁｹﾝ","kana_city":"ﾊｷﾞｼ","kana_address":"ｽｻ","pref":"山口県","city":"萩市","address":"須佐"},
{"zip_code":"7593303","kana_pref":"ﾔﾏｸﾞﾁｹﾝ","kana_city":"ﾊｷﾞｼ","kana_address":"ｽｽﾞﾉｶﾞﾜ","pref":"山口県","city":"萩市","address":"鈴野川"},
{"zip_code":"7593203","kana_pref":"ﾔﾏｸﾞﾁｹﾝ","kana_city":"ﾊｷﾞｼ","kana_address":"ﾅｶｵｶﾞﾜ","pref":"山口県","city":"萩市","address":"中小川"},
{"zip_code":"7593301","kana_pref":"ﾔﾏｸﾞﾁｹﾝ","kana_city":"ﾊｷﾞｼ","kana_address":"ﾔﾄﾞﾐｶﾐ","pref":"山口県","city":"萩市","address":"弥富上"},
{"zip_code":"7593302","kana_pref":"ﾔﾏｸﾞﾁｹﾝ","kana_city":"ﾊｷﾞｼ","kana_address":"ﾔﾄﾞﾐｼﾓ","pref":"山口県","city":"萩市","address":"弥富下"},
{"zip_code":"7594100","kana_pref":"ﾔﾏｸﾞﾁｹﾝ","kana_city":"ﾅｶﾞﾄｼ","kana_address":"","pref":"山口県","city":"長門市","address":""},
{"zip_code":"7594107","kana_pref":"ﾔﾏｸﾞﾁｹﾝ","kana_city":"ﾅｶﾞﾄｼ","kana_address":"ｶﾖｲ","pref":"山口県","city":"長門市","address":"通"},
{"zip_code":"7594104","kana_pref":"ﾔﾏｸﾞﾁｹﾝ","kana_city":"ﾅｶﾞﾄｼ","kana_address":"ｼﾌﾞｷ","pref":"山口県","city":"長門市","address":"渋木"},
{"zip_code":"7594106","kana_pref":"ﾔﾏｸﾞﾁｹﾝ","kana_city":"ﾅｶﾞﾄｼ","kana_address":"ｾﾝｻﾞｷ","pref":"山口県","city":"長門市","address":"仙崎"},
{"zip_code":"7594211","kana_pref":"ﾔﾏｸﾞﾁｹﾝ","kana_city":"ﾅｶﾞﾄｼ","kana_address":"ﾀﾜﾗﾔﾏ","pref":"山口県","city":"長門市","address":"俵山"},
{"zip_code":"7594102","kana_pref":"ﾔﾏｸﾞﾁｹﾝ","kana_city":"ﾅｶﾞﾄｼ","kana_address":"ﾆｼﾌｶﾜ","pref":"山口県","city":"長門市","address":"西深川"},
{"zip_code":"7594101","kana_pref":"ﾔﾏｸﾞﾁｹﾝ","kana_city":"ﾅｶﾞﾄｼ","kana_address":"ﾋｶﾞｼﾌｶﾜ","pref":"山口県","city":"長門市","address":"東深川"},
{"zip_code":"7594103","kana_pref":"ﾔﾏｸﾞﾁｹﾝ","kana_city":"ﾅｶﾞﾄｼ","kana_address":"ﾌｶﾜﾕﾓﾄ","pref":"山口県","city":"長門市","address":"深川湯本"},
{"zip_code":"7594401","kana_pref":"ﾔﾏｸﾞﾁｹﾝ","kana_city":"ﾅｶﾞﾄｼ","kana_address":"ﾍｷｶﾐ","pref":"山口県","city":"長門市","address":"日置上"},
{"zip_code":"7594405","kana_pref":"ﾔﾏｸﾞﾁｹﾝ","kana_city":"ﾅｶﾞﾄｼ","kana_address":"ﾍｷｸﾗｵﾀﾞ","pref":"山口県","city":"長門市","address":"日置蔵小田"},
{"zip_code":"7594403","kana_pref":"ﾔﾏｸﾞﾁｹﾝ","kana_city":"ﾅｶﾞﾄｼ","kana_address":"ﾍｷｼﾓ","pref":"山口県","city":"長門市","address":"日置下"},
{"zip_code":"7594402","kana_pref":"ﾔﾏｸﾞﾁｹﾝ","kana_city":"ﾅｶﾞﾄｼ","kana_address":"ﾍｷﾅｶ","pref":"山口県","city":"長門市","address":"日置中"},
{"zip_code":"7594404","kana_pref":"ﾔﾏｸﾞﾁｹﾝ","kana_city":"ﾅｶﾞﾄｼ","kana_address":"ﾍｷﾉﾀﾞ","pref":"山口県","city":"長門市","address":"日置野田"},
{"zip_code":"7594105","kana_pref":"ﾔﾏｸﾞﾁｹﾝ","kana_city":"ﾅｶﾞﾄｼ","kana_address":"ﾏｷ","pref":"山口県","city":"長門市","address":"真木"},
{"zip_code":"7593801","kana_pref":"ﾔﾏｸﾞﾁｹﾝ","kana_city":"ﾅｶﾞﾄｼ","kana_address":"ﾐｽﾐｶﾐ","pref":"山口県","city":"長門市","address":"三隅上"},
{"zip_code":"7593803","kana_pref":"ﾔﾏｸﾞﾁｹﾝ","kana_city":"ﾅｶﾞﾄｼ","kana_address":"ﾐｽﾐｼﾓ","pref":"山口県","city":"長門市","address":"三隅下"},
{"zip_code":"7593802","kana_pref":"ﾔﾏｸﾞﾁｹﾝ","kana_city":"ﾅｶﾞﾄｼ","kana_address":"ﾐｽﾐﾅｶ","pref":"山口県","city":"長門市","address":"三隅中"},
{"zip_code":"7594505","kana_pref":"ﾔﾏｸﾞﾁｹﾝ","kana_city":"ﾅｶﾞﾄｼ","kana_address":"ﾕﾔｲｶﾞﾐ","pref":"山口県","city":"長門市","address":"油谷伊上"},
{"zip_code":"7594711","kana_pref":"ﾔﾏｸﾞﾁｹﾝ","kana_city":"ﾅｶﾞﾄｼ","kana_address":"ﾕﾔｳｼﾛﾊﾞﾀ","pref":"山口県","city":"長門市","address":"油谷後畑"},
{"zip_code":"7594713","kana_pref":"ﾔﾏｸﾞﾁｹﾝ","kana_city":"ﾅｶﾞﾄｼ","kana_address":"ﾕﾔｶﾄﾞﾔﾏ","pref":"山口県","city":"長門市","address":"油谷角山"},
{"zip_code":"7594621","kana_pref":"ﾔﾏｸﾞﾁｹﾝ","kana_city":"ﾅｶﾞﾄｼ","kana_address":"ﾕﾔｶﾜｼﾘ","pref":"山口県","city":"長門市","address":"油谷川尻"},
{"zip_code":"7594504","kana_pref":"ﾔﾏｸﾞﾁｹﾝ","kana_city":"ﾅｶﾞﾄｼ","kana_address":"ﾕﾔｶﾜﾗ","pref":"山口県","city":"長門市","address":"油谷河原"},
{"zip_code":"7594501","kana_pref":"ﾔﾏｸﾞﾁｹﾝ","kana_city":"ﾅｶﾞﾄｼ","kana_address":"ﾕﾔｸﾗｵﾀﾞ","pref":"山口県","city":"長門市","address":"油谷蔵小田"},
{"zip_code":"7594503","kana_pref":"ﾔﾏｸﾞﾁｹﾝ","kana_city":"ﾅｶﾞﾄｼ","kana_address":"ﾕﾔｼﾝﾍﾞﾂﾐｮｳ","pref":"山口県","city":"長門市","address":"油谷新別名"},
{"zip_code":"7594712","kana_pref":"ﾔﾏｸﾞﾁｹﾝ","kana_city":"ﾅｶﾞﾄｼ","kana_address":"ﾕﾔﾂｵｳ","pref":"山口県","city":"長門市","address":"油谷津黄"},
{"zip_code":"7594502","kana_pref":"ﾔﾏｸﾞﾁｹﾝ","kana_city":"ﾅｶﾞﾄｼ","kana_address":"ﾕﾔﾋｻﾄﾞﾐ","pref":"山口県","city":"長門市","address":"油谷久富"},
{"zip_code":"7594622","kana_pref":"ﾔﾏｸﾞﾁｹﾝ","kana_city":"ﾅｶﾞﾄｼ","kana_address":"ﾕﾔﾑｶﾂｸｶﾐ","pref":"山口県","city":"長門市","address":"油谷向津具上"},
{"zip_code":"7594623","kana_pref":"ﾔﾏｸﾞﾁｹﾝ","kana_city":"ﾅｶﾞﾄｼ","kana_address":"ﾕﾔﾑｶﾂｸｼﾓ","pref":"山口県","city":"長門市","address":"油谷向津具下"},
{"zip_code":"7594623","kana_pref":"ﾔﾏｸﾞﾁｹﾝ","kana_city":"ﾅｶﾞﾄｼ","kana_address":"ﾕﾔﾑｶﾂｸｼﾓ","pref":"山口県","city":"長門市","address":"油谷向津具下"},
{"zip_code":"7594623","kana_pref":"ﾔﾏｸﾞﾁｹﾝ","kana_city":"ﾅｶﾞﾄｼ","kana_address":"ﾕﾔﾑｶﾂｸｼﾓ","pref":"山口県","city":"長門市","address":"油谷向津具下"},
{"zip_code":"7592200","kana_pref":"ﾔﾏｸﾞﾁｹﾝ","kana_city":"ﾐﾈｼ","kana_address":"","pref":"山口県","city":"美祢市","address":""},
{"zip_code":"7592222","kana_pref":"ﾔﾏｸﾞﾁｹﾝ","kana_city":"ﾐﾈｼ","kana_address":"ｲｻﾁｮｳｲｻ","pref":"山口県","city":"美祢市","address":"伊佐町伊佐"},
{"zip_code":"7592223","kana_pref":"ﾔﾏｸﾞﾁｹﾝ","kana_city":"ﾐﾈｼ","kana_address":"ｲｻﾁｮｳｵｸﾏｸﾞﾗ","pref":"山口県","city":"美祢市","address":"伊佐町奥万倉"},
{"zip_code":"7592221","kana_pref":"ﾔﾏｸﾞﾁｹﾝ","kana_city":"ﾐﾈｼ","kana_address":"ｲｻﾁｮｳｶﾜﾗ","pref":"山口県","city":"美祢市","address":"伊佐町河原"},
{"zip_code":"7592131","kana_pref":"ﾔﾏｸﾞﾁｹﾝ","kana_city":"ﾐﾈｼ","kana_address":"ｲｻﾁｮｳﾎﾘｺｼ","pref":"山口県","city":"美祢市","address":"伊佐町堀越"},
{"zip_code":"7592214","kana_pref":"ﾔﾏｸﾞﾁｹﾝ","kana_city":"ﾐﾈｼ","kana_address":"ｵｵﾐﾈﾁｮｳｵｸﾌﾞﾝ","pref":"山口県","city":"美祢市","address":"大嶺町奥分"},
{"zip_code":"7592212","kana_pref":"ﾔﾏｸﾞﾁｹﾝ","kana_city":"ﾐﾈｼ","kana_address":"ｵｵﾐﾈﾁｮｳﾋｶﾞｼﾌﾞﾝ","pref":"山口県","city":"美祢市","address":"大嶺町東分"},
{"zip_code":"7592213","kana_pref":"ﾔﾏｸﾞﾁｹﾝ","kana_city":"ﾐﾈｼ","kana_address":"ｵｵﾐﾈﾁｮｳﾆｼﾌﾞﾝ","pref":"山口県","city":"美祢市","address":"大嶺町西分"},
{"zip_code":"7592211","kana_pref":"ﾔﾏｸﾞﾁｹﾝ","kana_city":"ﾐﾈｼ","kana_address":"ｵｵﾐﾈﾁｮｳｷﾀﾌﾞﾝ","pref":"山口県","city":"美祢市","address":"大嶺町北分"},
{"zip_code":"7592301","kana_pref":"ﾔﾏｸﾞﾁｹﾝ","kana_city":"ﾐﾈｼ","kana_address":"ｵﾌｸﾁｮｳｶﾐ(ｴｷﾏｴ","pref":"山口県","city":"美祢市","address":"於福町上（駅前"},
{"zip_code":"7592301","kana_pref":"ﾔﾏｸﾞﾁｹﾝ","kana_city":"ﾐﾈｼ","kana_address":"ｵｶﾀﾞ","pref":"山口県","city":"美祢市","address":"岡田"},
{"zip_code":"7592301","kana_pref":"ﾔﾏｸﾞﾁｹﾝ","kana_city":"ﾐﾈｼ","kana_address":"ｶﾐﾀｼﾛ","pref":"山口県","city":"美祢市","address":"上田代"},
{"zip_code":"7592301","kana_pref":"ﾔﾏｸﾞﾁｹﾝ","kana_city":"ﾐﾈｼ","kana_address":"ｸﾘｶﾞﾊﾗ","pref":"山口県","city":"美祢市","address":"栗ケ原"},
{"zip_code":"7592301","kana_pref":"ﾔﾏｸﾞﾁｹﾝ","kana_city":"ﾐﾈｼ","kana_address":"ｼﾓﾀｼﾛ","pref":"山口県","city":"美祢市","address":"下田代"},
{"zip_code":"7592301","kana_pref":"ﾔﾏｸﾞﾁｹﾝ","kana_city":"ﾐﾈｼ","kana_address":"ｼﾝﾘｭｳ","pref":"山口県","city":"美祢市","address":"神柳"},
{"zip_code":"7592301","kana_pref":"ﾔﾏｸﾞﾁｹﾝ","kana_city":"ﾐﾈｼ","kana_address":"ﾀｲﾒｲ","pref":"山口県","city":"美祢市","address":"大明"},
{"zip_code":"7592301","kana_pref":"ﾔﾏｸﾞﾁｹﾝ","kana_city":"ﾐﾈｼ","kana_address":"ﾀﾃｲｼ","pref":"山口県","city":"美祢市","address":"立石"},
{"zip_code":"7592301","kana_pref":"ﾔﾏｸﾞﾁｹﾝ","kana_city":"ﾐﾈｼ","kana_address":"ﾆｼﾃﾞﾗ","pref":"山口県","city":"美祢市","address":"西寺"},
{"zip_code":"7592301","kana_pref":"ﾔﾏｸﾞﾁｹﾝ","kana_city":"ﾐﾈｼ","kana_address":"","pref":"山口県","city":"美祢市","address":""},
{"zip_code":"7592301","kana_pref":"ﾔﾏｸﾞﾁｹﾝ","kana_city":"ﾐﾈｼ","kana_address":"ﾋﾗﾉ","pref":"山口県","city":"美祢市","address":"平野"},
{"zip_code":"7592301","kana_pref":"ﾔﾏｸﾞﾁｹﾝ","kana_city":"ﾐﾈｼ","kana_address":"ﾌﾙﾔ","pref":"山口県","city":"美祢市","address":"古屋"},
{"zip_code":"7592301","kana_pref":"ﾔﾏｸﾞﾁｹﾝ","kana_city":"ﾐﾈｼ","kana_address":"ﾑﾈｽﾞﾐ","pref":"山口県","city":"美祢市","address":"宗済"},
{"zip_code":"7592301","kana_pref":"ﾔﾏｸﾞﾁｹﾝ","kana_city":"ﾐﾈｼ","kana_address":"ﾖｺﾐﾁ","pref":"山口県","city":"美祢市","address":"横道"},
{"zip_code":"7592301","kana_pref":"ﾔﾏｸﾞﾁｹﾝ","kana_city":"ﾐﾈｼ","kana_address":"ﾘｭｳｹﾞﾝｼﾞ)","pref":"山口県","city":"美祢市","address":"竜現地）"},
{"zip_code":"7592302","kana_pref":"ﾔﾏｸﾞﾁｹﾝ","kana_city":"ﾐﾈｼ","kana_address":"ｵﾌｸﾁｮｳｼﾓ(ｲﾘﾐｽﾞ","pref":"山口県","city":"美祢市","address":"於福町下（入水"},
{"zip_code":"7592302","kana_pref":"ﾔﾏｸﾞﾁｹﾝ","kana_city":"ﾐﾈｼ","kana_address":"ｴﾉｷﾀﾞ","pref":"山口県","city":"美祢市","address":"榎田"},
{"zip_code":"7592302","kana_pref":"ﾔﾏｸﾞﾁｹﾝ","kana_city":"ﾐﾈｼ","kana_address":"ｶﾈﾔﾏ","pref":"山口県","city":"美祢市","address":"金山"},
{"zip_code":"7592302","kana_pref":"ﾔﾏｸﾞﾁｹﾝ","kana_city":"ﾐﾈｼ","kana_address":"ｺｽｷﾞ","pref":"山口県","city":"美祢市","address":"小杉"},
{"zip_code":"7592302","kana_pref":"ﾔﾏｸﾞﾁｹﾝ","kana_city":"ﾐﾈｼ","kana_address":"ｽﾅｼﾞ","pref":"山口県","city":"美祢市","address":"砂地"},
{"zip_code":"7592302","kana_pref":"ﾔﾏｸﾞﾁｹﾝ","kana_city":"ﾐﾈｼ","kana_address":"ﾀﾞｲ","pref":"山口県","city":"美祢市","address":"台"},
{"zip_code":"7592302","kana_pref":"ﾔﾏｸﾞﾁｹﾝ","kana_city":"ﾐﾈｼ","kana_address":"ﾆｼﾊﾞﾀ","pref":"山口県","city":"美祢市","address":"西畑"},
{"zip_code":"7592302","kana_pref":"ﾔﾏｸﾞﾁｹﾝ","kana_city":"ﾐﾈｼ","kana_address":"ﾊｷﾞﾜﾗ","pref":"山口県","city":"美祢市","address":"萩原"},
{"zip_code":"7592302","kana_pref":"ﾔﾏｸﾞﾁｹﾝ","kana_city":"ﾐﾈｼ","kana_address":"ﾋｶﾞｼﾅｶﾑﾗ","pref":"山口県","city":"美祢市","address":"東中村"},
{"zip_code":"7592302","kana_pref":"ﾔﾏｸﾞﾁｹﾝ","kana_city":"ﾐﾈｼ","kana_address":"","pref":"山口県","city":"美祢市","address":""},
{"zip_code":"7592302","kana_pref":"ﾔﾏｸﾞﾁｹﾝ","kana_city":"ﾐﾈｼ","kana_address":"ﾋﾗｸﾆｷﾞ","pref":"山口県","city":"美祢市","address":"平国木"},
{"zip_code":"7592302","kana_pref":"ﾔﾏｸﾞﾁｹﾝ","kana_city":"ﾐﾈｼ","kana_address":"ﾐﾄﾞﾘｶﾞｵｶ","pref":"山口県","city":"美祢市","address":"緑ケ丘"},
{"zip_code":"7592302","kana_pref":"ﾔﾏｸﾞﾁｹﾝ","kana_city":"ﾐﾈｼ","kana_address":"ﾐﾔﾉﾏｴ)","pref":"山口県","city":"美祢市","address":"宮の前）"},
{"zip_code":"7592152","kana_pref":"ﾔﾏｸﾞﾁｹﾝ","kana_city":"ﾐﾈｼ","kana_address":"ﾆｼｱﾂﾁｮｳﾊﾗ","pref":"山口県","city":"美祢市","address":"西厚保町原"},
{"zip_code":"7592151","kana_pref":"ﾔﾏｸﾞﾁｹﾝ","kana_city":"ﾐﾈｼ","kana_address":"ﾆｼｱﾂﾁｮｳﾎﾝｺﾞｳ","pref":"山口県","city":"美祢市","address":"西厚保町本郷"},
{"zip_code":"7592142","kana_pref":"ﾔﾏｸﾞﾁｹﾝ","kana_city":"ﾐﾈｼ","kana_address":"ﾋｶﾞｼｱﾂﾁｮｳｶﾜﾋｶﾞｼ","pref":"山口県","city":"美祢市","address":"東厚保町川東"},
{"zip_code":"7592141","kana_pref":"ﾔﾏｸﾞﾁｹﾝ","kana_city":"ﾐﾈｼ","kana_address":"ﾋｶﾞｼｱﾂﾁｮｳﾔﾏﾅｶ","pref":"山口県","city":"美祢市","address":"東厚保町山中"},
{"zip_code":"7593600","kana_pref":"ﾔﾏｸﾞﾁｹﾝ","kana_city":"ｱﾌﾞｸﾞﾝｱﾌﾞﾁｮｳ","kana_address":"","pref":"山口県","city":"阿武郡阿武町","address":""},
{"zip_code":"7593501","kana_pref":"ﾔﾏｸﾞﾁｹﾝ","kana_city":"ｱﾌﾞｸﾞﾝｱﾌﾞﾁｮｳ","kana_address":"ｳﾀ","pref":"山口県","city":"阿武郡阿武町","address":"宇田"},
{"zip_code":"7593621","kana_pref":"ﾔﾏｸﾞﾁｹﾝ","kana_city":"ｱﾌﾞｸﾞﾝｱﾌﾞﾁｮｳ","kana_address":"ｷﾖ","pref":"山口県","city":"阿武郡阿武町","address":"木与"},
{"zip_code":"7593502","kana_pref":"ﾔﾏｸﾞﾁｹﾝ","kana_city":"ｱﾌﾞｸﾞﾝｱﾌﾞﾁｮｳ","kana_address":"ｿｳｺﾞｳ","pref":"山口県","city":"阿武郡阿武町","address":"惣郷"},
{"zip_code":"7593622","kana_pref":"ﾔﾏｸﾞﾁｹﾝ","kana_city":"ｱﾌﾞｸﾞﾝｱﾌﾞﾁｮｳ","kana_address":"ﾅｺﾞ","pref":"山口県","city":"阿武郡阿武町","address":"奈古"}]}