{"zip_code":[
{"zip_code":"7600000","kana_pref":"ｶｶﾞﾜｹﾝ","kana_city":"ﾀｶﾏﾂｼ","kana_address":"","pref":"香川県","city":"高松市","address":""},
{"zip_code":"7600002","kana_pref":"ｶｶﾞﾜｹﾝ","kana_city":"ﾀｶﾏﾂｼ","kana_address":"ｱｶﾈﾁｮｳ","pref":"香川県","city":"高松市","address":"茜町"},
{"zip_code":"7600064","kana_pref":"ｶｶﾞﾜｹﾝ","kana_city":"ﾀｶﾏﾂｼ","kana_address":"ｱｻﾋｼﾝﾏﾁ","pref":"香川県","city":"高松市","address":"朝日新町"},
{"zip_code":"7600065","kana_pref":"ｶｶﾞﾜｹﾝ","kana_city":"ﾀｶﾏﾂｼ","kana_address":"ｱｻﾋﾏﾁ","pref":"香川県","city":"高松市","address":"朝日町"},
{"zip_code":"7600038","kana_pref":"ｶｶﾞﾜｹﾝ","kana_city":"ﾀｶﾏﾂｼ","kana_address":"ｲｸﾞﾁﾏﾁ","pref":"香川県","city":"高松市","address":"井口町"},
{"zip_code":"7600078","kana_pref":"ｶｶﾞﾜｹﾝ","kana_city":"ﾀｶﾏﾂｼ","kana_address":"ｲﾏｻﾞﾄﾁｮｳ","pref":"香川県","city":"高松市","address":"今里町"},
{"zip_code":"7600043","kana_pref":"ｶｶﾞﾜｹﾝ","kana_city":"ﾀｶﾏﾂｼ","kana_address":"ｲﾏｼﾞﾝﾏﾁ","pref":"香川県","city":"高松市","address":"今新町"},
{"zip_code":"7600034","kana_pref":"ｶｶﾞﾜｹﾝ","kana_city":"ﾀｶﾏﾂｼ","kana_address":"ｳﾁﾏﾁ","pref":"香川県","city":"高松市","address":"内町"},
{"zip_code":"7600013","kana_pref":"ｶｶﾞﾜｹﾝ","kana_city":"ﾀｶﾏﾂｼ","kana_address":"ｵｳｷﾞﾏﾁ","pref":"香川県","city":"高松市","address":"扇町"},
{"zip_code":"7600091","kana_pref":"ｶｶﾞﾜｹﾝ","kana_city":"ﾀｶﾏﾂｼ","kana_address":"ｵｷﾞﾁｮｳ","pref":"香川県","city":"高松市","address":"男木町"},
{"zip_code":"7600028","kana_pref":"ｶｶﾞﾜｹﾝ","kana_city":"ﾀｶﾏﾂｼ","kana_address":"ｶｼﾞﾔﾏﾁ","pref":"香川県","city":"高松市","address":"鍛冶屋町"},
{"zip_code":"7600040","kana_pref":"ｶｶﾞﾜｹﾝ","kana_city":"ﾀｶﾏﾂｼ","kana_address":"ｶﾀﾊﾗﾏﾁ","pref":"香川県","city":"高松市","address":"片原町"},
{"zip_code":"7600077","kana_pref":"ｶｶﾞﾜｹﾝ","kana_city":"ﾀｶﾏﾂｼ","kana_address":"ｶﾐﾌｸｵｶﾁｮｳ","pref":"香川県","city":"高松市","address":"上福岡町"},
{"zip_code":"7600050","kana_pref":"ｶｶﾞﾜｹﾝ","kana_city":"ﾀｶﾏﾂｼ","kana_address":"ｶﾒｲﾁｮｳ","pref":"香川県","city":"高松市","address":"亀井町"},
{"zip_code":"7600006","kana_pref":"ｶｶﾞﾜｹﾝ","kana_city":"ﾀｶﾏﾂｼ","kana_address":"ｶﾒｵｶﾁｮｳ","pref":"香川県","city":"高松市","address":"亀岡町"},
{"zip_code":"7600052","kana_pref":"ｶｶﾞﾜｹﾝ","kana_city":"ﾀｶﾏﾂｼ","kana_address":"ｶﾜﾗﾏﾁ","pref":"香川県","city":"高松市","address":"瓦町"},
{"zip_code":"7600076","kana_pref":"ｶｶﾞﾜｹﾝ","kana_city":"ﾀｶﾏﾂｼ","kana_address":"ｶﾝｺｳﾁｮｳ","pref":"香川県","city":"高松市","address":"観光町"},
{"zip_code":"7600055","kana_pref":"ｶｶﾞﾜｹﾝ","kana_city":"ﾀｶﾏﾂｼ","kana_address":"ｶﾝｺｳﾄﾞｵﾘ","pref":"香川県","city":"高松市","address":"観光通"},
{"zip_code":"7600080","kana_pref":"ｶｶﾞﾜｹﾝ","kana_city":"ﾀｶﾏﾂｼ","kana_address":"ｷﾀﾁｮｳ","pref":"香川県","city":"高松市","address":"木太町"},
{"zip_code":"7600031","kana_pref":"ｶｶﾞﾜｹﾝ","kana_city":"ﾀｶﾏﾂｼ","kana_address":"ｷﾀﾊﾏﾁｮｳ","pref":"香川県","city":"高松市","address":"北浜町"},
{"zip_code":"7600075","kana_pref":"ｶｶﾞﾜｹﾝ","kana_city":"ﾀｶﾏﾂｼ","kana_address":"ｸｽｶﾞﾐﾁｮｳ","pref":"香川県","city":"高松市","address":"楠上町"},
{"zip_code":"7600023","kana_pref":"ｶｶﾞﾜｹﾝ","kana_city":"ﾀｶﾏﾂｼ","kana_address":"ｺﾄﾌﾞｷﾁｮｳ","pref":"香川県","city":"高松市","address":"寿町"},
{"zip_code":"7600044","kana_pref":"ｶｶﾞﾜｹﾝ","kana_city":"ﾀｶﾏﾂｼ","kana_address":"ｺﾞﾎﾞｳﾏﾁ","pref":"香川県","city":"高松市","address":"御坊町"},
{"zip_code":"7600027","kana_pref":"ｶｶﾞﾜｹﾝ","kana_city":"ﾀｶﾏﾂｼ","kana_address":"ｺﾝﾔﾏﾁ","pref":"香川県","city":"高松市","address":"紺屋町"},
{"zip_code":"7600004","kana_pref":"ｶｶﾞﾜｹﾝ","kana_city":"ﾀｶﾏﾂｼ","kana_address":"ｻｲﾎｳﾁｮｳ","pref":"香川県","city":"高松市","address":"西宝町"},
{"zip_code":"7600016","kana_pref":"ｶｶﾞﾜｹﾝ","kana_city":"ﾀｶﾏﾂｼ","kana_address":"ｻｲﾜｲﾁｮｳ","pref":"香川県","city":"高松市","address":"幸町"},
{"zip_code":"7600074","kana_pref":"ｶｶﾞﾜｹﾝ","kana_city":"ﾀｶﾏﾂｼ","kana_address":"ｻｸﾗﾏﾁ","pref":"香川県","city":"高松市","address":"桜町"},
{"zip_code":"7600019","kana_pref":"ｶｶﾞﾜｹﾝ","kana_city":"ﾀｶﾏﾂｼ","kana_address":"ｻﾝﾎﾟｰﾄ","pref":"香川県","city":"高松市","address":"サンポート"},
{"zip_code":"7600015","kana_pref":"ｶｶﾞﾜｹﾝ","kana_city":"ﾀｶﾏﾂｼ","kana_address":"ｼｳﾝﾁｮｳ","pref":"香川県","city":"高松市","address":"紫雲町"},
{"zip_code":"7600062","kana_pref":"ｶｶﾞﾜｹﾝ","kana_city":"ﾀｶﾏﾂｼ","kana_address":"ｼｵｶﾞﾐﾁｮｳ","pref":"香川県","city":"高松市","address":"塩上町"},
{"zip_code":"7600047","kana_pref":"ｶｶﾞﾜｹﾝ","kana_city":"ﾀｶﾏﾂｼ","kana_address":"ｼｵﾔﾏﾁ","pref":"香川県","city":"高松市","address":"塩屋町"},
{"zip_code":"7600036","kana_pref":"ｶｶﾞﾜｹﾝ","kana_city":"ﾀｶﾏﾂｼ","kana_address":"ｼﾞｮｳﾄｳﾁｮｳ","pref":"香川県","city":"高松市","address":"城東町"},
{"zip_code":"7600014","kana_pref":"ｶｶﾞﾜｹﾝ","kana_city":"ﾀｶﾏﾂｼ","kana_address":"ｼｮｳﾜﾁｮｳ","pref":"香川県","city":"高松市","address":"昭和町"},
{"zip_code":"7600001","kana_pref":"ｶｶﾞﾜｹﾝ","kana_city":"ﾀｶﾏﾂｼ","kana_address":"ｼﾝｷﾀﾏﾁ","pref":"香川県","city":"高松市","address":"新北町"},
{"zip_code":"7600060","kana_pref":"ｶｶﾞﾜｹﾝ","kana_city":"ﾀｶﾏﾂｼ","kana_address":"ｽｴﾋﾛﾁｮｳ","pref":"香川県","city":"高松市","address":"末広町"},
{"zip_code":"7600012","kana_pref":"ｶｶﾞﾜｹﾝ","kana_city":"ﾀｶﾏﾂｼ","kana_address":"ｾﾄｳﾁﾁｮｳ","pref":"香川県","city":"高松市","address":"瀬戸内町"},
{"zip_code":"7600063","kana_pref":"ｶｶﾞﾜｹﾝ","kana_city":"ﾀｶﾏﾂｼ","kana_address":"ﾀｶﾞﾁｮｳ","pref":"香川県","city":"高松市","address":"多賀町"},
{"zip_code":"7600053","kana_pref":"ｶｶﾞﾜｹﾝ","kana_city":"ﾀｶﾏﾂｼ","kana_address":"ﾀﾏﾁ","pref":"香川県","city":"高松市","address":"田町"},
{"zip_code":"7600030","kana_pref":"ｶｶﾞﾜｹﾝ","kana_city":"ﾀｶﾏﾂｼ","kana_address":"ﾀﾏﾓﾁｮｳ","pref":"香川県","city":"高松市","address":"玉藻町"},
{"zip_code":"7600042","kana_pref":"ｶｶﾞﾜｹﾝ","kana_city":"ﾀｶﾏﾂｼ","kana_address":"ﾀﾞｲｸﾏﾁ","pref":"香川県","city":"高松市","address":"大工町"},
{"zip_code":"7600007","kana_pref":"ｶｶﾞﾜｹﾝ","kana_city":"ﾀｶﾏﾂｼ","kana_address":"ﾁｭｳｵｳﾁｮｳ","pref":"香川県","city":"高松市","address":"中央町"},
{"zip_code":"7600061","kana_pref":"ｶｶﾞﾜｹﾝ","kana_city":"ﾀｶﾏﾂｼ","kana_address":"ﾂｷｼﾞﾁｮｳ","pref":"香川県","city":"高松市","address":"築地町"},
{"zip_code":"7600093","kana_pref":"ｶｶﾞﾜｹﾝ","kana_city":"ﾀｶﾏﾂｼ","kana_address":"ﾂﾙｲﾁﾁｮｳ","pref":"香川県","city":"高松市","address":"鶴市町"},
{"zip_code":"7600035","kana_pref":"ｶｶﾞﾜｹﾝ","kana_city":"ﾀｶﾏﾂｼ","kana_address":"ﾂﾙﾔﾏﾁ","pref":"香川県","city":"高松市","address":"鶴屋町"},
{"zip_code":"7600018","kana_pref":"ｶｶﾞﾜｹﾝ","kana_city":"ﾀｶﾏﾂｼ","kana_address":"ﾃﾝｼﾞﾝﾏｴ","pref":"香川県","city":"高松市","address":"天神前"},
{"zip_code":"7600046","kana_pref":"ｶｶﾞﾜｹﾝ","kana_city":"ﾀｶﾏﾂｼ","kana_address":"ﾄｵﾘﾏﾁ","pref":"香川県","city":"高松市","address":"通町"},
{"zip_code":"7600054","kana_pref":"ｶｶﾞﾜｹﾝ","kana_city":"ﾀｶﾏﾂｼ","kana_address":"ﾄｷﾜﾁｮｳ","pref":"香川県","city":"高松市","address":"常磐町"},
{"zip_code":"7600026","kana_pref":"ｶｶﾞﾜｹﾝ","kana_city":"ﾀｶﾏﾂｼ","kana_address":"ﾄｷﾞﾔﾏﾁ","pref":"香川県","city":"高松市","address":"磨屋町"},
{"zip_code":"7600056","kana_pref":"ｶｶﾞﾜｹﾝ","kana_city":"ﾀｶﾏﾂｼ","kana_address":"ﾅｶｼﾞﾝﾁｮｳ","pref":"香川県","city":"高松市","address":"中新町"},
{"zip_code":"7600008","kana_pref":"ｶｶﾞﾜｹﾝ","kana_city":"ﾀｶﾏﾂｼ","kana_address":"ﾅｶﾉﾁｮｳ","pref":"香川県","city":"高松市","address":"中野町"},
{"zip_code":"7600022","kana_pref":"ｶｶﾞﾜｹﾝ","kana_city":"ﾀｶﾏﾂｼ","kana_address":"ﾆｼｳﾁﾏﾁ","pref":"香川県","city":"高松市","address":"西内町"},
{"zip_code":"7600020","kana_pref":"ｶｶﾞﾜｹﾝ","kana_city":"ﾀｶﾏﾂｼ","kana_address":"ﾆｼｷﾏﾁ","pref":"香川県","city":"高松市","address":"錦町"},
{"zip_code":"7600021","kana_pref":"ｶｶﾞﾜｹﾝ","kana_city":"ﾀｶﾏﾂｼ","kana_address":"ﾆｼﾉﾏﾙﾁｮｳ","pref":"香川県","city":"高松市","address":"西の丸町"},
{"zip_code":"7600003","kana_pref":"ｶｶﾞﾜｹﾝ","kana_city":"ﾀｶﾏﾂｼ","kana_address":"ﾆｼﾏﾁ","pref":"香川県","city":"高松市","address":"西町"},
{"zip_code":"7600057","kana_pref":"ｶｶﾞﾜｹﾝ","kana_city":"ﾀｶﾏﾂｼ","kana_address":"ﾊﾀｺﾞﾏﾁ","pref":"香川県","city":"高松市","address":"旅籠町"},
{"zip_code":"7600072","kana_pref":"ｶｶﾞﾜｹﾝ","kana_city":"ﾀｶﾏﾂｼ","kana_address":"ﾊﾅｿﾞﾉﾁｮｳ","pref":"香川県","city":"高松市","address":"花園町"},
{"zip_code":"7600011","kana_pref":"ｶｶﾞﾜｹﾝ","kana_city":"ﾀｶﾏﾂｼ","kana_address":"ﾊﾏﾉﾁｮｳ","pref":"香川県","city":"高松市","address":"浜ノ町"},
{"zip_code":"7600017","kana_pref":"ｶｶﾞﾜｹﾝ","kana_city":"ﾀｶﾏﾂｼ","kana_address":"ﾊﾞﾝﾁｮｳ","pref":"香川県","city":"高松市","address":"番町"},
{"zip_code":"7600058","kana_pref":"ｶｶﾞﾜｹﾝ","kana_city":"ﾀｶﾏﾂｼ","kana_address":"ﾋｶﾞｼﾀﾏﾁ","pref":"香川県","city":"高松市","address":"東田町"},
{"zip_code":"7600037","kana_pref":"ｶｶﾞﾜｹﾝ","kana_city":"ﾀｶﾏﾂｼ","kana_address":"ﾋｶﾞｼﾊﾏﾁｮｳ","pref":"香川県","city":"高松市","address":"東浜町"},
{"zip_code":"7600041","kana_pref":"ｶｶﾞﾜｹﾝ","kana_city":"ﾀｶﾏﾂｼ","kana_address":"ﾋｬﾂｹﾝﾏﾁ","pref":"香川県","city":"高松市","address":"百間町"},
{"zip_code":"7600024","kana_pref":"ｶｶﾞﾜｹﾝ","kana_city":"ﾀｶﾏﾂｼ","kana_address":"ﾋｮｳｺﾞﾏﾁ","pref":"香川県","city":"高松市","address":"兵庫町"},
{"zip_code":"7600066","kana_pref":"ｶｶﾞﾜｹﾝ","kana_city":"ﾀｶﾏﾂｼ","kana_address":"ﾌｸｵｶﾁｮｳ","pref":"香川県","city":"高松市","address":"福岡町"},
{"zip_code":"7600048","kana_pref":"ｶｶﾞﾜｹﾝ","kana_city":"ﾀｶﾏﾂｼ","kana_address":"ﾌｸﾀﾞﾏﾁ","pref":"香川県","city":"高松市","address":"福田町"},
{"zip_code":"7600071","kana_pref":"ｶｶﾞﾜｹﾝ","kana_city":"ﾀｶﾏﾂｼ","kana_address":"ﾌｼﾞﾂﾞｶﾁｮｳ","pref":"香川県","city":"高松市","address":"藤塚町"},
{"zip_code":"7600025","kana_pref":"ｶｶﾞﾜｹﾝ","kana_city":"ﾀｶﾏﾂｼ","kana_address":"ﾌﾙｼﾞﾝﾏﾁ","pref":"香川県","city":"高松市","address":"古新町"},
{"zip_code":"7600045","kana_pref":"ｶｶﾞﾜｹﾝ","kana_city":"ﾀｶﾏﾂｼ","kana_address":"ﾌﾙﾊﾞﾊﾞﾁｮｳ","pref":"香川県","city":"高松市","address":"古馬場町"},
{"zip_code":"7600032","kana_pref":"ｶｶﾞﾜｹﾝ","kana_city":"ﾀｶﾏﾂｼ","kana_address":"ﾎﾝﾏﾁ","pref":"香川県","city":"高松市","address":"本町"},
{"zip_code":"7600068","kana_pref":"ｶｶﾞﾜｹﾝ","kana_city":"ﾀｶﾏﾂｼ","kana_address":"ﾏﾂｼﾏﾁｮｳ","pref":"香川県","city":"高松市","address":"松島町"},
{"zip_code":"7600079","kana_pref":"ｶｶﾞﾜｹﾝ","kana_city":"ﾀｶﾏﾂｼ","kana_address":"ﾏﾂﾅﾜﾁｮｳ","pref":"香川県","city":"高松市","address":"松縄町"},
{"zip_code":"7600067","kana_pref":"ｶｶﾞﾜｹﾝ","kana_city":"ﾀｶﾏﾂｼ","kana_address":"ﾏﾂﾌｸﾁｮｳ","pref":"香川県","city":"高松市","address":"松福町"},
{"zip_code":"7600029","kana_pref":"ｶｶﾞﾜｹﾝ","kana_city":"ﾀｶﾏﾂｼ","kana_address":"ﾏﾙｶﾞﾒﾏﾁ","pref":"香川県","city":"高松市","address":"丸亀町"},
{"zip_code":"7600033","kana_pref":"ｶｶﾞﾜｹﾝ","kana_city":"ﾀｶﾏﾂｼ","kana_address":"ﾏﾙﾉｳﾁ","pref":"香川県","city":"高松市","address":"丸の内"},
{"zip_code":"7600051","kana_pref":"ｶｶﾞﾜｹﾝ","kana_city":"ﾀｶﾏﾂｼ","kana_address":"ﾐﾅﾐｼﾝﾏﾁ","pref":"香川県","city":"高松市","address":"南新町"},
{"zip_code":"7600009","kana_pref":"ｶｶﾞﾜｹﾝ","kana_city":"ﾀｶﾏﾂｼ","kana_address":"ﾐﾈﾔﾏﾁｮｳ","pref":"香川県","city":"高松市","address":"峰山町"},
{"zip_code":"7600005","kana_pref":"ｶｶﾞﾜｹﾝ","kana_city":"ﾀｶﾏﾂｼ","kana_address":"ﾐﾔﾜｷﾁｮｳ","pref":"香川県","city":"高松市","address":"宮脇町"},
{"zip_code":"7600092","kana_pref":"ｶｶﾞﾜｹﾝ","kana_city":"ﾀｶﾏﾂｼ","kana_address":"ﾒｷﾞﾁｮｳ","pref":"香川県","city":"高松市","address":"女木町"},
{"zip_code":"7600049","kana_pref":"ｶｶﾞﾜｹﾝ","kana_city":"ﾀｶﾏﾂｼ","kana_address":"ﾔｻｶﾏﾁ","pref":"香川県","city":"高松市","address":"八坂町"},
{"zip_code":"7600073","kana_pref":"ｶｶﾞﾜｹﾝ","kana_city":"ﾀｶﾏﾂｼ","kana_address":"ﾘﾂﾘﾝﾁｮｳ","pref":"香川県","city":"高松市","address":"栗林町"}]}