{"zip_code":[
{"zip_code":"7610130","kana_pref":"ｶｶﾞﾜｹﾝ","kana_city":"ﾀｶﾏﾂｼ","kana_address":"ｱｼﾞﾁｮｳ","pref":"香川県","city":"高松市","address":"庵治町"},
{"zip_code":"7618033","kana_pref":"ｶｶﾞﾜｹﾝ","kana_city":"ﾀｶﾏﾂｼ","kana_address":"ｲｲﾀﾞﾁｮｳ","pref":"香川県","city":"高松市","address":"飯田町"},
{"zip_code":"7618002","kana_pref":"ｶｶﾞﾜｹﾝ","kana_city":"ﾀｶﾏﾂｼ","kana_address":"ｲｸｼﾏﾁｮｳ","pref":"香川県","city":"高松市","address":"生島町"},
{"zip_code":"7610444","kana_pref":"ｶｶﾞﾜｹﾝ","kana_city":"ﾀｶﾏﾂｼ","kana_address":"ｲｹﾀﾞﾁｮｳ","pref":"香川県","city":"高松市","address":"池田町"},
{"zip_code":"7618084","kana_pref":"ｶｶﾞﾜｹﾝ","kana_city":"ﾀｶﾏﾂｼ","kana_address":"ｲﾁﾉﾐﾔﾁｮｳ","pref":"香川県","city":"高松市","address":"一宮町"},
{"zip_code":"7618005","kana_pref":"ｶｶﾞﾜｹﾝ","kana_city":"ﾀｶﾏﾂｼ","kana_address":"ｳｴﾏﾂﾁｮｳ","pref":"香川県","city":"高松市","address":"植松町"},
{"zip_code":"7618044","kana_pref":"ｶｶﾞﾜｹﾝ","kana_city":"ﾀｶﾏﾂｼ","kana_address":"ｴﾝｻﾞﾁｮｳ","pref":"香川県","city":"高松市","address":"円座町"},
{"zip_code":"7618074","kana_pref":"ｶｶﾞﾜｹﾝ","kana_city":"ﾀｶﾏﾂｼ","kana_address":"ｵｵﾀｶﾐﾏﾁ","pref":"香川県","city":"高松市","address":"太田上町"},
{"zip_code":"7618073","kana_pref":"ｶｶﾞﾜｹﾝ","kana_city":"ﾀｶﾏﾂｼ","kana_address":"ｵｵﾀｼﾓﾏﾁ","pref":"香川県","city":"高松市","address":"太田下町"},
{"zip_code":"7618047","kana_pref":"ｶｶﾞﾜｹﾝ","kana_city":"ﾀｶﾏﾂｼ","kana_address":"ｵｶﾓﾄﾁｮｳ","pref":"香川県","city":"高松市","address":"岡本町"},
{"zip_code":"7610431","kana_pref":"ｶｶﾞﾜｹﾝ","kana_city":"ﾀｶﾏﾂｼ","kana_address":"ｵﾓﾚﾁｮｳ","pref":"香川県","city":"高松市","address":"小村町"},
{"zip_code":"7611703","kana_pref":"ｶｶﾞﾜｹﾝ","kana_city":"ﾀｶﾏﾂｼ","kana_address":"ｶｶﾞﾜﾁｮｳｱｻﾉ","pref":"香川県","city":"高松市","address":"香川町浅野"},
{"zip_code":"7611701","kana_pref":"ｶｶﾞﾜｹﾝ","kana_city":"ﾀｶﾏﾂｼ","kana_address":"ｶｶﾞﾜﾁｮｳｵｵﾉ","pref":"香川県","city":"高松市","address":"香川町大野"},
{"zip_code":"7611704","kana_pref":"ｶｶﾞﾜｹﾝ","kana_city":"ﾀｶﾏﾂｼ","kana_address":"ｶｶﾞﾜﾁｮｳｶﾜﾅｲﾊﾗ","pref":"香川県","city":"高松市","address":"香川町川内原"},
{"zip_code":"7611706","kana_pref":"ｶｶﾞﾜｹﾝ","kana_city":"ﾀｶﾏﾂｼ","kana_address":"ｶｶﾞﾜﾁｮｳｶﾜﾋｶﾞｼｶﾐ","pref":"香川県","city":"高松市","address":"香川町川東上"},
{"zip_code":"7611705","kana_pref":"ｶｶﾞﾜｹﾝ","kana_city":"ﾀｶﾏﾂｼ","kana_address":"ｶｶﾞﾜﾁｮｳｶﾜﾋｶﾞｼｼﾓ","pref":"香川県","city":"高松市","address":"香川町川東下"},
{"zip_code":"7611702","kana_pref":"ｶｶﾞﾜｹﾝ","kana_city":"ﾀｶﾏﾂｼ","kana_address":"ｶｶﾞﾜﾁｮｳﾃﾗｲ","pref":"香川県","city":"高松市","address":"香川町寺井"},
{"zip_code":"7611707","kana_pref":"ｶｶﾞﾜｹﾝ","kana_city":"ﾀｶﾏﾂｼ","kana_address":"ｶｶﾞﾜﾁｮｳﾋｶﾞｼﾀﾆ","pref":"香川県","city":"高松市","address":"香川町東谷"},
{"zip_code":"7611708","kana_pref":"ｶｶﾞﾜｹﾝ","kana_city":"ﾀｶﾏﾂｼ","kana_address":"ｶｶﾞﾜﾁｮｳﾔｽﾊﾗｼﾓ","pref":"香川県","city":"高松市","address":"香川町安原下"},
{"zip_code":"7610101","kana_pref":"ｶｶﾞﾜｹﾝ","kana_city":"ﾀｶﾏﾂｼ","kana_address":"ｶｽｶﾞﾁｮｳ","pref":"香川県","city":"高松市","address":"春日町"},
{"zip_code":"7618082","kana_pref":"ｶｶﾞﾜｹﾝ","kana_city":"ﾀｶﾏﾂｼ","kana_address":"ｶﾉﾂﾉﾁｮｳ","pref":"香川県","city":"高松市","address":"鹿角町"},
{"zip_code":"7618056","kana_pref":"ｶｶﾞﾜｹﾝ","kana_city":"ﾀｶﾏﾂｼ","kana_address":"ｶﾐﾃﾝｼﾞﾝﾁｮｳ","pref":"香川県","city":"高松市","address":"上天神町"},
{"zip_code":"7618064","kana_pref":"ｶｶﾞﾜｹﾝ","kana_city":"ﾀｶﾏﾂｼ","kana_address":"ｶﾐﾉﾁｮｳ","pref":"香川県","city":"高松市","address":"上之町"},
{"zip_code":"7610302","kana_pref":"ｶｶﾞﾜｹﾝ","kana_city":"ﾀｶﾏﾂｼ","kana_address":"ｶﾐﾊﾔｼﾁｮｳ","pref":"香川県","city":"高松市","address":"上林町"},
{"zip_code":"7618055","kana_pref":"ｶｶﾞﾜｹﾝ","kana_city":"ﾀｶﾏﾂｼ","kana_address":"ｶﾐﾏﾁ","pref":"香川県","city":"高松市","address":"紙町"},
{"zip_code":"7610323","kana_pref":"ｶｶﾞﾜｹﾝ","kana_city":"ﾀｶﾏﾂｼ","kana_address":"ｶﾒﾀﾞﾁｮｳ","pref":"香川県","city":"高松市","address":"亀田町"},
{"zip_code":"7610432","kana_pref":"ｶｶﾞﾜｹﾝ","kana_city":"ﾀｶﾏﾂｼ","kana_address":"ｶﾒﾀﾞﾐﾅﾐﾏﾁ","pref":"香川県","city":"高松市","address":"亀田南町"},
{"zip_code":"7610443","kana_pref":"ｶｶﾞﾜｹﾝ","kana_city":"ﾀｶﾏﾂｼ","kana_address":"ｶﾜｼﾏﾋｶﾞｼﾏﾁ","pref":"香川県","city":"高松市","address":"川島東町"},
{"zip_code":"7610442","kana_pref":"ｶｶﾞﾜｹﾝ","kana_city":"ﾀｶﾏﾂｼ","kana_address":"ｶﾜｼﾏﾎﾝﾏﾁ","pref":"香川県","city":"高松市","address":"川島本町"},
{"zip_code":"7618046","kana_pref":"ｶｶﾞﾜｹﾝ","kana_city":"ﾀｶﾏﾂｼ","kana_address":"ｶﾜﾅﾍﾞﾁｮｳ","pref":"香川県","city":"高松市","address":"川部町"},
{"zip_code":"7618026","kana_pref":"ｶｶﾞﾜｹﾝ","kana_city":"ﾀｶﾏﾂｼ","kana_address":"ｷﾅｼﾁｮｳｷﾅｼ","pref":"香川県","city":"高松市","address":"鬼無町鬼無"},
{"zip_code":"7618021","kana_pref":"ｶｶﾞﾜｹﾝ","kana_city":"ﾀｶﾏﾂｼ","kana_address":"ｷﾅｼﾁｮｳｺﾚﾀｹ","pref":"香川県","city":"高松市","address":"鬼無町是竹"},
{"zip_code":"7618023","kana_pref":"ｶｶﾞﾜｹﾝ","kana_city":"ﾀｶﾏﾂｼ","kana_address":"ｷﾅｼﾁｮｳｻﾄｳ","pref":"香川県","city":"高松市","address":"鬼無町佐藤"},
{"zip_code":"7618022","kana_pref":"ｶｶﾞﾜｹﾝ","kana_city":"ﾀｶﾏﾂｼ","kana_address":"ｷﾅｼﾁｮｳｻﾘｮｳ","pref":"香川県","city":"高松市","address":"鬼無町佐料"},
{"zip_code":"7618024","kana_pref":"ｶｶﾞﾜｹﾝ","kana_city":"ﾀｶﾏﾂｼ","kana_address":"ｷﾅｼﾁｮｳﾌｼﾞｲ","pref":"香川県","city":"高松市","address":"鬼無町藤井"},
{"zip_code":"7618025","kana_pref":"ｶｶﾞﾜｹﾝ","kana_city":"ﾀｶﾏﾂｼ","kana_address":"ｷﾅｼﾁｮｳﾔﾏｸﾞﾁ","pref":"香川県","city":"高松市","address":"鬼無町山口"},
{"zip_code":"7618013","kana_pref":"ｶｶﾞﾜｹﾝ","kana_city":"ﾀｶﾏﾂｼ","kana_address":"ｺｳｻﾞｲﾋｶﾞｼﾏﾁ","pref":"香川県","city":"高松市","address":"香西東町"},
{"zip_code":"7618015","kana_pref":"ｶｶﾞﾜｹﾝ","kana_city":"ﾀｶﾏﾂｼ","kana_address":"ｺｳｻﾞｲﾆｼﾏﾁ","pref":"香川県","city":"高松市","address":"香西西町"},
{"zip_code":"7618014","kana_pref":"ｶｶﾞﾜｹﾝ","kana_city":"ﾀｶﾏﾂｼ","kana_address":"ｺｳｻﾞｲﾐﾅﾐﾏﾁ","pref":"香川県","city":"高松市","address":"香西南町"},
{"zip_code":"7618011","kana_pref":"ｶｶﾞﾜｹﾝ","kana_city":"ﾀｶﾏﾂｼ","kana_address":"ｺｳｻﾞｲｷﾀﾏﾁ","pref":"香川県","city":"高松市","address":"香西北町"},
{"zip_code":"7618012","kana_pref":"ｶｶﾞﾜｹﾝ","kana_city":"ﾀｶﾏﾂｼ","kana_address":"ｺｳｻﾞｲﾎﾝﾏﾁ","pref":"香川県","city":"高松市","address":"香西本町"},
{"zip_code":"7618031","kana_pref":"ｶｶﾞﾜｹﾝ","kana_city":"ﾀｶﾏﾂｼ","kana_address":"ｺﾞｳﾄｳﾁｮｳ","pref":"香川県","city":"高松市","address":"郷東町"},
{"zip_code":"7611405","kana_pref":"ｶｶﾞﾜｹﾝ","kana_city":"ﾀｶﾏﾂｼ","kana_address":"ｺｳﾅﾝﾁｮｳｲｹﾉｳﾁ","pref":"香川県","city":"高松市","address":"香南町池内"},
{"zip_code":"7611401","kana_pref":"ｶｶﾞﾜｹﾝ","kana_city":"ﾀｶﾏﾂｼ","kana_address":"ｺｳﾅﾝﾁｮｳｵｶ","pref":"香川県","city":"高松市","address":"香南町岡"},
{"zip_code":"7611406","kana_pref":"ｶｶﾞﾜｹﾝ","kana_city":"ﾀｶﾏﾂｼ","kana_address":"ｺｳﾅﾝﾁｮｳﾆｼﾉｼｮｳ","pref":"香川県","city":"高松市","address":"香南町西庄"},
{"zip_code":"7611402","kana_pref":"ｶｶﾞﾜｹﾝ","kana_city":"ﾀｶﾏﾂｼ","kana_address":"ｺｳﾅﾝﾁｮｳﾕｻ","pref":"香川県","city":"高松市","address":"香南町由佐"},
{"zip_code":"7611404","kana_pref":"ｶｶﾞﾜｹﾝ","kana_city":"ﾀｶﾏﾂｼ","kana_address":"ｺｳﾅﾝﾁｮｳﾖｺｲ","pref":"香川県","city":"高松市","address":"香南町横井"},
{"zip_code":"7611403","kana_pref":"ｶｶﾞﾜｹﾝ","kana_city":"ﾀｶﾏﾂｼ","kana_address":"ｺｳﾅﾝﾁｮｳﾖｼﾐﾂ","pref":"香川県","city":"高松市","address":"香南町吉光"},
{"zip_code":"7618072","kana_pref":"ｶｶﾞﾜｹﾝ","kana_city":"ﾀｶﾏﾂｼ","kana_address":"ｻﾝｼﾞｮｳﾁｮｳ","pref":"香川県","city":"高松市","address":"三条町"},
{"zip_code":"7618083","kana_pref":"ｶｶﾞﾜｹﾝ","kana_city":"ﾀｶﾏﾂｼ","kana_address":"ｻﾝﾐｮｳﾁｮｳ","pref":"香川県","city":"高松市","address":"三名町"},
{"zip_code":"7611614","kana_pref":"ｶｶﾞﾜｹﾝ","kana_city":"ﾀｶﾏﾂｼ","kana_address":"ｼｵﾉｴﾁｮｳｶﾐﾆｼｵﾂ","pref":"香川県","city":"高松市","address":"塩江町上西乙"},
{"zip_code":"7611613","kana_pref":"ｶｶﾞﾜｹﾝ","kana_city":"ﾀｶﾏﾂｼ","kana_address":"ｼｵﾉｴﾁｮｳｶﾐﾆｼｺｳ","pref":"香川県","city":"高松市","address":"塩江町上西甲"},
{"zip_code":"7611611","kana_pref":"ｶｶﾞﾜｹﾝ","kana_city":"ﾀｶﾏﾂｼ","kana_address":"ｼｵﾉｴﾁｮｳﾔｽﾊﾗｶﾐ","pref":"香川県","city":"高松市","address":"塩江町安原上"},
{"zip_code":"7611612","kana_pref":"ｶｶﾞﾜｹﾝ","kana_city":"ﾀｶﾏﾂｼ","kana_address":"ｼｵﾉｴﾁｮｳﾔｽﾊﾗｶﾐﾋｶﾞｼ","pref":"香川県","city":"高松市","address":"塩江町安原上東"},
{"zip_code":"7611615","kana_pref":"ｶｶﾞﾜｹﾝ","kana_city":"ﾀｶﾏﾂｼ","kana_address":"ｼｵﾉｴﾁｮｳﾔｽﾊﾗｼﾓ","pref":"香川県","city":"高松市","address":"塩江町安原下"},
{"zip_code":"7611615","kana_pref":"ｶｶﾞﾜｹﾝ","kana_city":"ﾀｶﾏﾂｼ","kana_address":"ｼｵﾉｴﾁｮｳﾔｽﾊﾗｼﾓ","pref":"香川県","city":"高松市","address":"塩江町安原下"},
{"zip_code":"7611501","kana_pref":"ｶｶﾞﾜｹﾝ","kana_city":"ﾀｶﾏﾂｼ","kana_address":"ｼｵﾉｴﾁｮｳﾔｽﾊﾗｼﾓ","pref":"香川県","city":"高松市","address":"塩江町安原下"},
{"zip_code":"7611502","kana_pref":"ｶｶﾞﾜｹﾝ","kana_city":"ﾀｶﾏﾂｼ","kana_address":"ｼｵﾉｴﾁｮｳﾔｽﾊﾗｼﾓ","pref":"香川県","city":"高松市","address":"塩江町安原下"},
{"zip_code":"7611503","kana_pref":"ｶｶﾞﾜｹﾝ","kana_city":"ﾀｶﾏﾂｼ","kana_address":"ｼｵﾉｴﾁｮｳﾔｽﾊﾗｼﾓ","pref":"香川県","city":"高松市","address":"塩江町安原下"},
{"zip_code":"7611504","kana_pref":"ｶｶﾞﾜｹﾝ","kana_city":"ﾀｶﾏﾂｼ","kana_address":"ｼｵﾉｴﾁｮｳﾔｽﾊﾗｼﾓ","pref":"香川県","city":"高松市","address":"塩江町安原下"},
{"zip_code":"7610313","kana_pref":"ｶｶﾞﾜｹﾝ","kana_city":"ﾀｶﾏﾂｼ","kana_address":"ｼﾓﾀｲﾁｮｳ","pref":"香川県","city":"高松市","address":"下田井町"},
{"zip_code":"7618077","kana_pref":"ｶｶﾞﾜｹﾝ","kana_city":"ﾀｶﾏﾂｼ","kana_address":"ｼｭﾂｻｸﾁｮｳ","pref":"香川県","city":"高松市","address":"出作町"},
{"zip_code":"7618003","kana_pref":"ｶｶﾞﾜｹﾝ","kana_city":"ﾀｶﾏﾂｼ","kana_address":"ｼﾝｻﾞｲｶﾜｸﾎﾞﾁｮｳ","pref":"香川県","city":"高松市","address":"神在川窪町"},
{"zip_code":"7610102","kana_pref":"ｶｶﾞﾜｹﾝ","kana_city":"ﾀｶﾏﾂｼ","kana_address":"ｼﾝﾃﾞﾝﾁｮｳｺｳ","pref":"香川県","city":"高松市","address":"新田町甲"},
{"zip_code":"7610103","kana_pref":"ｶｶﾞﾜｹﾝ","kana_city":"ﾀｶﾏﾂｼ","kana_address":"ｼﾝﾃﾞﾝﾁｮｳｵﾂ","pref":"香川県","city":"高松市","address":"新田町乙"},
{"zip_code":"7611616","kana_pref":"ｶｶﾞﾜｹﾝ","kana_city":"ﾀｶﾏﾂｼ","kana_address":"ｽｹﾞｻﾞﾜﾁｮｳ","pref":"香川県","city":"高松市","address":"菅沢町"},
{"zip_code":"7610434","kana_pref":"ｶｶﾞﾜｹﾝ","kana_city":"ﾀｶﾏﾂｼ","kana_address":"ｿｶﾞﾜﾋｶﾞｼﾏﾁ","pref":"香川県","city":"高松市","address":"十川東町"},
{"zip_code":"7610433","kana_pref":"ｶｶﾞﾜｹﾝ","kana_city":"ﾀｶﾏﾂｼ","kana_address":"ｿｶﾞﾜﾆｼﾏﾁ","pref":"香川県","city":"高松市","address":"十川西町"},
{"zip_code":"7610104","kana_pref":"ｶｶﾞﾜｹﾝ","kana_city":"ﾀｶﾏﾂｼ","kana_address":"ﾀｶﾏﾂﾁｮｳ","pref":"香川県","city":"高松市","address":"高松町"},
{"zip_code":"7618076","kana_pref":"ｶｶﾞﾜｹﾝ","kana_city":"ﾀｶﾏﾂｼ","kana_address":"ﾀﾋｶﾐﾏﾁ","pref":"香川県","city":"高松市","address":"多肥上町"},
{"zip_code":"7618075","kana_pref":"ｶｶﾞﾜｹﾝ","kana_city":"ﾀｶﾏﾂｼ","kana_address":"ﾀﾋｼﾓﾏﾁ","pref":"香川県","city":"高松市","address":"多肥下町"},
{"zip_code":"7618057","kana_pref":"ｶｶﾞﾜｹﾝ","kana_city":"ﾀｶﾏﾂｼ","kana_address":"ﾀﾑﾗﾁｮｳ","pref":"香川県","city":"高松市","address":"田村町"},
{"zip_code":"7618001","kana_pref":"ｶｶﾞﾜｹﾝ","kana_city":"ﾀｶﾏﾂｼ","kana_address":"ﾀﾙﾐﾁｮｳ","pref":"香川県","city":"高松市","address":"亀水町"},
{"zip_code":"7618041","kana_pref":"ｶｶﾞﾜｹﾝ","kana_city":"ﾀｶﾏﾂｼ","kana_address":"ﾀﾞﾝｼﾁｮｳ","pref":"香川県","city":"高松市","address":"檀紙町"},
{"zip_code":"7618058","kana_pref":"ｶｶﾞﾜｹﾝ","kana_city":"ﾀｶﾏﾂｼ","kana_address":"ﾁｮｸｼﾁｮｳ","pref":"香川県","city":"高松市","address":"勅使町"},
{"zip_code":"7618032","kana_pref":"ｶｶﾞﾜｹﾝ","kana_city":"ﾀｶﾏﾂｼ","kana_address":"ﾂﾙｲﾁﾁｮｳ","pref":"香川県","city":"高松市","address":"鶴市町"},
{"zip_code":"7618085","kana_pref":"ｶｶﾞﾜｹﾝ","kana_city":"ﾀｶﾏﾂｼ","kana_address":"ﾃﾗｲﾁｮｳ","pref":"香川県","city":"高松市","address":"寺井町"},
{"zip_code":"7618043","kana_pref":"ｶｶﾞﾜｹﾝ","kana_city":"ﾀｶﾏﾂｼ","kana_address":"ﾅｶﾂﾏﾁｮｳ","pref":"香川県","city":"高松市","address":"中間町"},
{"zip_code":"7618004","kana_pref":"ｶｶﾞﾜｹﾝ","kana_city":"ﾀｶﾏﾂｼ","kana_address":"ﾅｶﾔﾏﾁｮｳ","pref":"香川県","city":"高松市","address":"中山町"},
{"zip_code":"7618081","kana_pref":"ｶｶﾞﾜｹﾝ","kana_city":"ﾀｶﾏﾂｼ","kana_address":"ﾅﾘｱｲﾁｮｳ","pref":"香川県","city":"高松市","address":"成合町"},
{"zip_code":"7610445","kana_pref":"ｶｶﾞﾜｹﾝ","kana_city":"ﾀｶﾏﾂｼ","kana_address":"ﾆｼｳｴﾀﾁｮｳ","pref":"香川県","city":"高松市","address":"西植田町"},
{"zip_code":"7618051","kana_pref":"ｶｶﾞﾜｹﾝ","kana_city":"ﾀｶﾏﾂｼ","kana_address":"ﾆｼｶｽｶﾞﾁｮｳ","pref":"香川県","city":"高松市","address":"西春日町"},
{"zip_code":"7618053","kana_pref":"ｶｶﾞﾜｹﾝ","kana_city":"ﾀｶﾏﾂｼ","kana_address":"ﾆｼﾊｾﾞﾏﾁ","pref":"香川県","city":"高松市","address":"西ハゼ町"},
{"zip_code":"7618045","kana_pref":"ｶｶﾞﾜｹﾝ","kana_city":"ﾀｶﾏﾂｼ","kana_address":"ﾆｼﾔﾏｻｷﾁｮｳ","pref":"香川県","city":"高松市","address":"西山崎町"},
{"zip_code":"7618063","kana_pref":"ｶｶﾞﾜｹﾝ","kana_city":"ﾀｶﾏﾂｼ","kana_address":"ﾊﾅﾉﾐﾔﾁｮｳ","pref":"香川県","city":"高松市","address":"花ノ宮町"},
{"zip_code":"7610301","kana_pref":"ｶｶﾞﾜｹﾝ","kana_city":"ﾀｶﾏﾂｼ","kana_address":"ﾊﾔｼﾁｮｳ","pref":"香川県","city":"高松市","address":"林町"},
{"zip_code":"7610446","kana_pref":"ｶｶﾞﾜｹﾝ","kana_city":"ﾀｶﾏﾂｼ","kana_address":"ﾋｶﾞｼｳｴﾀﾁｮｳ","pref":"香川県","city":"高松市","address":"東植田町"},
{"zip_code":"7618054","kana_pref":"ｶｶﾞﾜｹﾝ","kana_city":"ﾀｶﾏﾂｼ","kana_address":"ﾋｶﾞｼﾊｾﾞﾏﾁ","pref":"香川県","city":"高松市","address":"東ハゼ町"},
{"zip_code":"7610312","kana_pref":"ｶｶﾞﾜｹﾝ","kana_city":"ﾀｶﾏﾂｼ","kana_address":"ﾋｶﾞｼﾔﾏｻｷﾁｮｳ","pref":"香川県","city":"高松市","address":"東山崎町"},
{"zip_code":"7618071","kana_pref":"ｶｶﾞﾜｹﾝ","kana_city":"ﾀｶﾏﾂｼ","kana_address":"ﾌｾｲｼﾁｮｳ","pref":"香川県","city":"高松市","address":"伏石町"},
{"zip_code":"7618078","kana_pref":"ｶｶﾞﾜｹﾝ","kana_city":"ﾀｶﾏﾂｼ","kana_address":"ﾌﾞｯｼｮｳｻﾞﾝﾁｮｳｺｳ","pref":"香川県","city":"高松市","address":"仏生山町甲"},
{"zip_code":"7618079","kana_pref":"ｶｶﾞﾜｹﾝ","kana_city":"ﾀｶﾏﾂｼ","kana_address":"ﾌﾞｯｼｮｳｻﾞﾝﾁｮｳｵﾂ","pref":"香川県","city":"高松市","address":"仏生山町乙"},
{"zip_code":"7610322","kana_pref":"ｶｶﾞﾜｹﾝ","kana_city":"ﾀｶﾏﾂｼ","kana_address":"ﾏｴﾀﾞﾋｶﾞｼﾏﾁ","pref":"香川県","city":"高松市","address":"前田東町"},
{"zip_code":"7610321","kana_pref":"ｶｶﾞﾜｹﾝ","kana_city":"ﾀｶﾏﾂｼ","kana_address":"ﾏｴﾀﾞﾆｼﾏﾁ","pref":"香川県","city":"高松市","address":"前田西町"},
{"zip_code":"7618052","kana_pref":"ｶｶﾞﾜｹﾝ","kana_city":"ﾀｶﾏﾂｼ","kana_address":"ﾏﾂﾅﾐﾁｮｳ","pref":"香川県","city":"高松市","address":"松並町"},
{"zip_code":"7610450","kana_pref":"ｶｶﾞﾜｹﾝ","kana_city":"ﾀｶﾏﾂｼ","kana_address":"ﾐﾀﾆﾁｮｳ","pref":"香川県","city":"高松市","address":"三谷町"},
{"zip_code":"7618042","kana_pref":"ｶｶﾞﾜｹﾝ","kana_city":"ﾀｶﾏﾂｼ","kana_address":"ﾐﾏﾔﾁｮｳ","pref":"香川県","city":"高松市","address":"御厩町"},
{"zip_code":"7610122","kana_pref":"ｶｶﾞﾜｹﾝ","kana_city":"ﾀｶﾏﾂｼ","kana_address":"ﾑﾚﾁｮｳｵｵﾏﾁ","pref":"香川県","city":"高松市","address":"牟礼町大町"},
{"zip_code":"7610123","kana_pref":"ｶｶﾞﾜｹﾝ","kana_city":"ﾀｶﾏﾂｼ","kana_address":"ﾑﾚﾁｮｳﾊﾗ","pref":"香川県","city":"高松市","address":"牟礼町原"},
{"zip_code":"7610121","kana_pref":"ｶｶﾞﾜｹﾝ","kana_city":"ﾀｶﾏﾂｼ","kana_address":"ﾑﾚﾁｮｳﾑﾚ","pref":"香川県","city":"高松市","address":"牟礼町牟礼"},
{"zip_code":"7618062","kana_pref":"ｶｶﾞﾜｹﾝ","kana_city":"ﾀｶﾏﾂｼ","kana_address":"ﾑﾛｼﾝﾏﾁ","pref":"香川県","city":"高松市","address":"室新町"},
{"zip_code":"7618061","kana_pref":"ｶｶﾞﾜｹﾝ","kana_city":"ﾀｶﾏﾂｼ","kana_address":"ﾑﾛﾏﾁ","pref":"香川県","city":"高松市","address":"室町"},
{"zip_code":"7610311","kana_pref":"ｶｶﾞﾜｹﾝ","kana_city":"ﾀｶﾏﾂｼ","kana_address":"ﾓﾄﾔﾏﾁｮｳ","pref":"香川県","city":"高松市","address":"元山町"},
{"zip_code":"7610112","kana_pref":"ｶｶﾞﾜｹﾝ","kana_city":"ﾀｶﾏﾂｼ","kana_address":"ﾔｼﾏﾅｶﾏﾁ","pref":"香川県","city":"高松市","address":"屋島中町"},
{"zip_code":"7610111","kana_pref":"ｶｶﾞﾜｹﾝ","kana_city":"ﾀｶﾏﾂｼ","kana_address":"ﾔｼﾏﾋｶﾞｼﾏﾁ","pref":"香川県","city":"高松市","address":"屋島東町"},
{"zip_code":"7610113","kana_pref":"ｶｶﾞﾜｹﾝ","kana_city":"ﾀｶﾏﾂｼ","kana_address":"ﾔｼﾏﾆｼﾏﾁ","pref":"香川県","city":"高松市","address":"屋島西町"},
{"zip_code":"7610441","kana_pref":"ｶｶﾞﾜｹﾝ","kana_city":"ﾀｶﾏﾂｼ","kana_address":"ﾕﾗﾁｮｳ","pref":"香川県","city":"高松市","address":"由良町"},
{"zip_code":"7610303","kana_pref":"ｶｶﾞﾜｹﾝ","kana_city":"ﾀｶﾏﾂｼ","kana_address":"ﾛｸｼﾞｮｳﾁｮｳ","pref":"香川県","city":"高松市","address":"六条町"},
{"zip_code":"7612401","kana_pref":"ｶｶﾞﾜｹﾝ","kana_city":"ﾏﾙｶﾞﾒｼ","kana_address":"ｱﾔｳﾀﾁｮｳｵｶﾀﾞｶﾐ","pref":"香川県","city":"丸亀市","address":"綾歌町岡田上"},
{"zip_code":"7612402","kana_pref":"ｶｶﾞﾜｹﾝ","kana_city":"ﾏﾙｶﾞﾒｼ","kana_address":"ｱﾔｳﾀﾁｮｳｵｶﾀﾞｼﾓ","pref":"香川県","city":"丸亀市","address":"綾歌町岡田下"},
{"zip_code":"7612404","kana_pref":"ｶｶﾞﾜｹﾝ","kana_city":"ﾏﾙｶﾞﾒｼ","kana_address":"ｱﾔｳﾀﾁｮｳｵｶﾀﾞﾋｶﾞｼ","pref":"香川県","city":"丸亀市","address":"綾歌町岡田東"},
{"zip_code":"7612403","kana_pref":"ｶｶﾞﾜｹﾝ","kana_city":"ﾏﾙｶﾞﾒｼ","kana_address":"ｱﾔｳﾀﾁｮｳｵｶﾀﾞﾆｼ","pref":"香川県","city":"丸亀市","address":"綾歌町岡田西"},
{"zip_code":"7612406","kana_pref":"ｶｶﾞﾜｹﾝ","kana_city":"ﾏﾙｶﾞﾒｼ","kana_address":"ｱﾔｳﾀﾁｮｳｸﾘｸﾏﾋｶﾞｼ","pref":"香川県","city":"丸亀市","address":"綾歌町栗熊東"},
{"zip_code":"7612405","kana_pref":"ｶｶﾞﾜｹﾝ","kana_city":"ﾏﾙｶﾞﾒｼ","kana_address":"ｱﾔｳﾀﾁｮｳｸﾘｸﾏﾆｼ","pref":"香川県","city":"丸亀市","address":"綾歌町栗熊西"},
{"zip_code":"7612408","kana_pref":"ｶｶﾞﾜｹﾝ","kana_city":"ﾏﾙｶﾞﾒｼ","kana_address":"ｱﾔｳﾀﾁｮｳﾄﾐｸﾏ","pref":"香川県","city":"丸亀市","address":"綾歌町富熊"},
{"zip_code":"7612407","kana_pref":"ｶｶﾞﾜｹﾝ","kana_city":"ﾏﾙｶﾞﾒｼ","kana_address":"ｱﾔｳﾀﾁｮｳﾄﾐｸﾏ","pref":"香川県","city":"丸亀市","address":"綾歌町富熊"},
{"zip_code":"7610904","kana_pref":"ｶｶﾞﾜｹﾝ","kana_city":"ｻﾇｷｼ","kana_address":"ｵｵｶﾜﾏﾁﾀﾂﾞﾗ","pref":"香川県","city":"さぬき市","address":"大川町田面"},
{"zip_code":"7610902","kana_pref":"ｶｶﾞﾜｹﾝ","kana_city":"ｻﾇｷｼ","kana_address":"ｵｵｶﾜﾏﾁﾄﾐﾀﾞﾅｶ","pref":"香川県","city":"さぬき市","address":"大川町富田中"},
{"zip_code":"7610901","kana_pref":"ｶｶﾞﾜｹﾝ","kana_city":"ｻﾇｷｼ","kana_address":"ｵｵｶﾜﾏﾁﾄﾐﾀﾞﾆｼ","pref":"香川県","city":"さぬき市","address":"大川町富田西"},
{"zip_code":"7610903","kana_pref":"ｶｶﾞﾜｹﾝ","kana_city":"ｻﾇｷｼ","kana_address":"ｵｵｶﾜﾏﾁﾄﾐﾀﾞﾋｶﾞｼ","pref":"香川県","city":"さぬき市","address":"大川町富田東"},
{"zip_code":"7610905","kana_pref":"ｶｶﾞﾜｹﾝ","kana_city":"ｻﾇｷｼ","kana_address":"ｵｵｶﾜﾏﾁﾐﾅﾐｶﾞﾜ","pref":"香川県","city":"さぬき市","address":"大川町南川"},
{"zip_code":"7614100","kana_pref":"ｶｶﾞﾜｹﾝ","kana_city":"ｼｮｳｽﾞｸﾞﾝﾄﾉｼｮｳﾁｮｳ","kana_address":"","pref":"香川県","city":"小豆郡土庄町","address":""},
{"zip_code":"7614664","kana_pref":"ｶｶﾞﾜｹﾝ","kana_city":"ｼｮｳｽﾞｸﾞﾝﾄﾉｼｮｳﾁｮｳ","kana_address":"ｲｷﾞｽｴ","pref":"香川県","city":"小豆郡土庄町","address":"伊喜末"},
{"zip_code":"7614131","kana_pref":"ｶｶﾞﾜｹﾝ","kana_city":"ｼｮｳｽﾞｸﾞﾝﾄﾉｼｮｳﾁｮｳ","kana_address":"ｲｷﾞｽｴ","pref":"香川県","city":"小豆郡土庄町","address":"伊喜末"},
{"zip_code":"7614141","kana_pref":"ｶｶﾞﾜｹﾝ","kana_city":"ｼｮｳｽﾞｸﾞﾝﾄﾉｼｮｳﾁｮｳ","kana_address":"ｳﾏｺﾞｴ","pref":"香川県","city":"小豆郡土庄町","address":"馬越"},
{"zip_code":"7614132","kana_pref":"ｶｶﾞﾜｹﾝ","kana_city":"ｼｮｳｽﾞｸﾞﾝﾄﾉｼｮｳﾁｮｳ","kana_address":"ｵｴ","pref":"香川県","city":"小豆郡土庄町","address":"小江"},
{"zip_code":"7614145","kana_pref":"ｶｶﾞﾜｹﾝ","kana_city":"ｼｮｳｽﾞｸﾞﾝﾄﾉｼｮｳﾁｮｳ","kana_address":"ｵｵﾍﾞ","pref":"香川県","city":"小豆郡土庄町","address":"大部"},
{"zip_code":"7614144","kana_pref":"ｶｶﾞﾜｹﾝ","kana_city":"ｼｮｳｽﾞｸﾞﾝﾄﾉｼｮｳﾁｮｳ","kana_address":"ｵﾐ","pref":"香川県","city":"小豆郡土庄町","address":"小海"},
{"zip_code":"7614154","kana_pref":"ｶｶﾞﾜｹﾝ","kana_city":"ｼｮｳｽﾞｸﾞﾝﾄﾉｼｮｳﾁｮｳ","kana_address":"ｶｻｶﾞﾀﾞｷ","pref":"香川県","city":"小豆郡土庄町","address":"笠滝"},
{"zip_code":"7614122","kana_pref":"ｶｶﾞﾜｹﾝ","kana_city":"ｼｮｳｽﾞｸﾞﾝﾄﾉｼｮｳﾁｮｳ","kana_address":"ｶﾐｼｮｳ","pref":"香川県","city":"小豆郡土庄町","address":"上庄"},
{"zip_code":"7614152","kana_pref":"ｶｶﾞﾜｹﾝ","kana_city":"ｼｮｳｽﾞｸﾞﾝﾄﾉｼｮｳﾁｮｳ","kana_address":"ｸﾛｲﾜ","pref":"香川県","city":"小豆郡土庄町","address":"黒岩"},
{"zip_code":"7614153","kana_pref":"ｶｶﾞﾜｹﾝ","kana_city":"ｼｮｳｽﾞｸﾞﾝﾄﾉｼｮｳﾁｮｳ","kana_address":"ｺｳﾏｺﾞｴ","pref":"香川県","city":"小豆郡土庄町","address":"小馬越"},
{"zip_code":"7614146","kana_pref":"ｶｶﾞﾜｹﾝ","kana_city":"ｼｮｳｽﾞｸﾞﾝﾄﾉｼｮｳﾁｮｳ","kana_address":"ｺﾍﾞ","pref":"香川県","city":"小豆郡土庄町","address":"小部"},
{"zip_code":"7614134","kana_pref":"ｶｶﾞﾜｹﾝ","kana_city":"ｼｮｳｽﾞｸﾞﾝﾄﾉｼｮｳﾁｮｳ","kana_address":"ﾀｷﾉﾐﾔ","pref":"香川県","city":"小豆郡土庄町","address":"滝宮"},
{"zip_code":"7614661","kana_pref":"ｶｶﾞﾜｹﾝ","kana_city":"ｼｮｳｽﾞｸﾞﾝﾄﾉｼｮｳﾁｮｳ","kana_address":"ﾃｼﾏｲｴｳﾗ","pref":"香川県","city":"小豆郡土庄町","address":"豊島家浦"},
{"zip_code":"7614662","kana_pref":"ｶｶﾞﾜｹﾝ","kana_city":"ｼｮｳｽﾞｸﾞﾝﾄﾉｼｮｳﾁｮｳ","kana_address":"ﾃｼﾏｶﾗﾄ","pref":"香川県","city":"小豆郡土庄町","address":"豊島唐櫃"},
{"zip_code":"7614663","kana_pref":"ｶｶﾞﾜｹﾝ","kana_city":"ｼｮｳｽﾞｸﾞﾝﾄﾉｼｮｳﾁｮｳ","kana_address":"ﾃｼﾏｺｳ","pref":"香川県","city":"小豆郡土庄町","address":"豊島甲生"},
{"zip_code":"7614133","kana_pref":"ｶｶﾞﾜｹﾝ","kana_city":"ｼｮｳｽﾞｸﾞﾝﾄﾉｼｮｳﾁｮｳ","kana_address":"ﾅｶﾞﾊﾏ","pref":"香川県","city":"小豆郡土庄町","address":"長浜"},
{"zip_code":"7614151","kana_pref":"ｶｶﾞﾜｹﾝ","kana_city":"ｼｮｳｽﾞｸﾞﾝﾄﾉｼｮｳﾁｮｳ","kana_address":"ﾋﾄﾔﾏ","pref":"香川県","city":"小豆郡土庄町","address":"肥土山"},
{"zip_code":"7614121","kana_pref":"ｶｶﾞﾜｹﾝ","kana_city":"ｼｮｳｽﾞｸﾞﾝﾄﾉｼｮｳﾁｮｳ","kana_address":"ﾌﾁｻﾞｷ","pref":"香川県","city":"小豆郡土庄町","address":"渕崎"},
{"zip_code":"7614143","kana_pref":"ｶｶﾞﾜｹﾝ","kana_city":"ｼｮｳｽﾞｸﾞﾝﾄﾉｼｮｳﾁｮｳ","kana_address":"ﾐﾒ","pref":"香川県","city":"小豆郡土庄町","address":"見目"},
{"zip_code":"7614142","kana_pref":"ｶｶﾞﾜｹﾝ","kana_city":"ｼｮｳｽﾞｸﾞﾝﾄﾉｼｮｳﾁｮｳ","kana_address":"ﾔｶﾀｻﾞｷ","pref":"香川県","city":"小豆郡土庄町","address":"屋形崎"},
{"zip_code":"7614103","kana_pref":"ｶｶﾞﾜｹﾝ","kana_city":"ｼｮｳｽﾞｸﾞﾝﾄﾉｼｮｳﾁｮｳ","kana_address":"ｺｳ","pref":"香川県","city":"小豆郡土庄町","address":"甲"},
{"zip_code":"7614103","kana_pref":"ｶｶﾞﾜｹﾝ","kana_city":"ｼｮｳｽﾞｸﾞﾝﾄﾉｼｮｳﾁｮｳ","kana_address":"ｵﾂ","pref":"香川県","city":"小豆郡土庄町","address":"乙"},
{"zip_code":"7614112","kana_pref":"ｶｶﾞﾜｹﾝ","kana_city":"ｼｮｳｽﾞｸﾞﾝﾄﾉｼｮｳﾁｮｳ","kana_address":"ｺｳ","pref":"香川県","city":"小豆郡土庄町","address":"甲"},
{"zip_code":"7614112","kana_pref":"ｶｶﾞﾜｹﾝ","kana_city":"ｼｮｳｽﾞｸﾞﾝﾄﾉｼｮｳﾁｮｳ","kana_address":"ｵﾂ","pref":"香川県","city":"小豆郡土庄町","address":"乙"},
{"zip_code":"7614115","kana_pref":"ｶｶﾞﾜｹﾝ","kana_city":"ｼｮｳｽﾞｸﾞﾝﾄﾉｼｮｳﾁｮｳ","kana_address":"ｺｳ","pref":"香川県","city":"小豆郡土庄町","address":"甲"},
{"zip_code":"7614115","kana_pref":"ｶｶﾞﾜｹﾝ","kana_city":"ｼｮｳｽﾞｸﾞﾝﾄﾉｼｮｳﾁｮｳ","kana_address":"ｵﾂ","pref":"香川県","city":"小豆郡土庄町","address":"乙"},
{"zip_code":"7614114","kana_pref":"ｶｶﾞﾜｹﾝ","kana_city":"ｼｮｳｽﾞｸﾞﾝﾄﾉｼｮｳﾁｮｳ","kana_address":"ｺｳ","pref":"香川県","city":"小豆郡土庄町","address":"甲"},
{"zip_code":"7614114","kana_pref":"ｶｶﾞﾜｹﾝ","kana_city":"ｼｮｳｽﾞｸﾞﾝﾄﾉｼｮｳﾁｮｳ","kana_address":"ｵﾂ","pref":"香川県","city":"小豆郡土庄町","address":"乙"},
{"zip_code":"7614105","kana_pref":"ｶｶﾞﾜｹﾝ","kana_city":"ｼｮｳｽﾞｸﾞﾝﾄﾉｼｮｳﾁｮｳ","kana_address":"ｺｳ","pref":"香川県","city":"小豆郡土庄町","address":"甲"},
{"zip_code":"7614105","kana_pref":"ｶｶﾞﾜｹﾝ","kana_city":"ｼｮｳｽﾞｸﾞﾝﾄﾉｼｮｳﾁｮｳ","kana_address":"ｵﾂ","pref":"香川県","city":"小豆郡土庄町","address":"乙"},
{"zip_code":"7614111","kana_pref":"ｶｶﾞﾜｹﾝ","kana_city":"ｼｮｳｽﾞｸﾞﾝﾄﾉｼｮｳﾁｮｳ","kana_address":"ｺｳ","pref":"香川県","city":"小豆郡土庄町","address":"甲"},
{"zip_code":"7614111","kana_pref":"ｶｶﾞﾜｹﾝ","kana_city":"ｼｮｳｽﾞｸﾞﾝﾄﾉｼｮｳﾁｮｳ","kana_address":"ｵﾂ","pref":"香川県","city":"小豆郡土庄町","address":"乙"},
{"zip_code":"7614106","kana_pref":"ｶｶﾞﾜｹﾝ","kana_city":"ｼｮｳｽﾞｸﾞﾝﾄﾉｼｮｳﾁｮｳ","kana_address":"ｺｳ","pref":"香川県","city":"小豆郡土庄町","address":"甲"},
{"zip_code":"7614106","kana_pref":"ｶｶﾞﾜｹﾝ","kana_city":"ｼｮｳｽﾞｸﾞﾝﾄﾉｼｮｳﾁｮｳ","kana_address":"ｵﾂ","pref":"香川県","city":"小豆郡土庄町","address":"乙"},
{"zip_code":"7614102","kana_pref":"ｶｶﾞﾜｹﾝ","kana_city":"ｼｮｳｽﾞｸﾞﾝﾄﾉｼｮｳﾁｮｳ","kana_address":"ｺｳ","pref":"香川県","city":"小豆郡土庄町","address":"甲"},
{"zip_code":"7614102","kana_pref":"ｶｶﾞﾜｹﾝ","kana_city":"ｼｮｳｽﾞｸﾞﾝﾄﾉｼｮｳﾁｮｳ","kana_address":"ｵﾂ","pref":"香川県","city":"小豆郡土庄町","address":"乙"},
{"zip_code":"7614113","kana_pref":"ｶｶﾞﾜｹﾝ","kana_city":"ｼｮｳｽﾞｸﾞﾝﾄﾉｼｮｳﾁｮｳ","kana_address":"ｺｳ","pref":"香川県","city":"小豆郡土庄町","address":"甲"},
{"zip_code":"7614113","kana_pref":"ｶｶﾞﾜｹﾝ","kana_city":"ｼｮｳｽﾞｸﾞﾝﾄﾉｼｮｳﾁｮｳ","kana_address":"ｵﾂ","pref":"香川県","city":"小豆郡土庄町","address":"乙"},
{"zip_code":"7614104","kana_pref":"ｶｶﾞﾜｹﾝ","kana_city":"ｼｮｳｽﾞｸﾞﾝﾄﾉｼｮｳﾁｮｳ","kana_address":"ｺｳ","pref":"香川県","city":"小豆郡土庄町","address":"甲"},
{"zip_code":"7614104","kana_pref":"ｶｶﾞﾜｹﾝ","kana_city":"ｼｮｳｽﾞｸﾞﾝﾄﾉｼｮｳﾁｮｳ","kana_address":"ｵﾂ","pref":"香川県","city":"小豆郡土庄町","address":"乙"},
{"zip_code":"7614101","kana_pref":"ｶｶﾞﾜｹﾝ","kana_city":"ｼｮｳｽﾞｸﾞﾝﾄﾉｼｮｳﾁｮｳ","kana_address":"ｺｳ","pref":"香川県","city":"小豆郡土庄町","address":"甲"},
{"zip_code":"7614101","kana_pref":"ｶｶﾞﾜｹﾝ","kana_city":"ｼｮｳｽﾞｸﾞﾝﾄﾉｼｮｳﾁｮｳ","kana_address":"ｵﾂ","pref":"香川県","city":"小豆郡土庄町","address":"乙"},
{"zip_code":"7614300","kana_pref":"ｶｶﾞﾜｹﾝ","kana_city":"ｼｮｳｽﾞｸﾞﾝｼｮｳﾄﾞｼﾏﾁｮｳ","kana_address":"","pref":"香川県","city":"小豆郡小豆島町","address":""},
{"zip_code":"7614403","kana_pref":"ｶｶﾞﾜｹﾝ","kana_city":"ｼｮｳｽﾞｸﾞﾝｼｮｳﾄﾞｼﾏﾁｮｳ","kana_address":"ｱﾃﾊﾏ","pref":"香川県","city":"小豆郡小豆島町","address":"当浜"},
{"zip_code":"7614301","kana_pref":"ｶｶﾞﾜｹﾝ","kana_city":"ｼｮｳｽﾞｸﾞﾝｼｮｳﾄﾞｼﾏﾁｮｳ","kana_address":"ｲｹﾀﾞ","pref":"香川県","city":"小豆郡小豆島町","address":"池田"},
{"zip_code":"7614404","kana_pref":"ｶｶﾞﾜｹﾝ","kana_city":"ｼｮｳｽﾞｸﾞﾝｼｮｳﾄﾞｼﾏﾁｮｳ","kana_address":"ｲﾜｶﾞﾀﾆ","pref":"香川県","city":"小豆郡小豆島町","address":"岩谷"},
{"zip_code":"7614426","kana_pref":"ｶｶﾞﾜｹﾝ","kana_city":"ｼｮｳｽﾞｸﾞﾝｼｮｳﾄﾞｼﾏﾁｮｳ","kana_address":"ｳﾏｷ","pref":"香川県","city":"小豆郡小豆島町","address":"馬木"},
{"zip_code":"7614431","kana_pref":"ｶｶﾞﾜｹﾝ","kana_city":"ｼｮｳｽﾞｸﾞﾝｼｮｳﾄﾞｼﾏﾁｮｳ","kana_address":"ｶﾀｼﾞｮｳ","pref":"香川県","city":"小豆郡小豆島町","address":"片城"},
{"zip_code":"7614307","kana_pref":"ｶｶﾞﾜｹﾝ","kana_city":"ｼｮｳｽﾞｸﾞﾝｼｮｳﾄﾞｼﾏﾁｮｳ","kana_address":"ｶﾏﾉ","pref":"香川県","city":"小豆郡小豆島町","address":"蒲野"},
{"zip_code":"7614302","kana_pref":"ｶｶﾞﾜｹﾝ","kana_city":"ｼｮｳｽﾞｸﾞﾝｼｮｳﾄﾞｼﾏﾁｮｳ","kana_address":"ｶﾓｳ","pref":"香川県","city":"小豆郡小豆島町","address":"蒲生"},
{"zip_code":"7614433","kana_pref":"ｶｶﾞﾜｹﾝ","kana_city":"ｼｮｳｽﾞｸﾞﾝｼｮｳﾄﾞｼﾏﾁｮｳ","kana_address":"ｶﾝｶｹﾄﾞｵﾘ","pref":"香川県","city":"小豆郡小豆島町","address":"神懸通"},
{"zip_code":"7614412","kana_pref":"ｶｶﾞﾜｹﾝ","kana_city":"ｼｮｳｽﾞｸﾞﾝｼｮｳﾄﾞｼﾏﾁｮｳ","kana_address":"ｷﾉｼｮｳ","pref":"香川県","city":"小豆郡小豆島町","address":"木庄"},
{"zip_code":"7614432","kana_pref":"ｶｶﾞﾜｹﾝ","kana_city":"ｼｮｳｽﾞｸﾞﾝｼｮｳﾄﾞｼﾏﾁｮｳ","kana_address":"ｸｻｶﾍﾞﾎﾝﾏﾁ","pref":"香川県","city":"小豆郡小豆島町","address":"草壁本町"},
{"zip_code":"7614308","kana_pref":"ｶｶﾞﾜｹﾝ","kana_city":"ｼｮｳｽﾞｸﾞﾝｼｮｳﾄﾞｼﾏﾁｮｳ","kana_address":"ｺｳﾉｳﾗ","pref":"香川県","city":"小豆郡小豆島町","address":"神浦"},
{"zip_code":"7614425","kana_pref":"ｶｶﾞﾜｹﾝ","kana_city":"ｼｮｳｽﾞｸﾞﾝｼｮｳﾄﾞｼﾏﾁｮｳ","kana_address":"ｻｶﾃ","pref":"香川県","city":"小豆郡小豆島町","address":"坂手"},
{"zip_code":"7614405","kana_pref":"ｶｶﾞﾜｹﾝ","kana_city":"ｼｮｳｽﾞｸﾞﾝｼｮｳﾄﾞｼﾏﾁｮｳ","kana_address":"ﾀﾁﾊﾞﾅ","pref":"香川県","city":"小豆郡小豆島町","address":"橘"},
{"zip_code":"7614424","kana_pref":"ｶｶﾞﾜｹﾝ","kana_city":"ｼｮｳｽﾞｸﾞﾝｼｮｳﾄﾞｼﾏﾁｮｳ","kana_address":"ﾀﾉｳﾗ","pref":"香川県","city":"小豆郡小豆島町","address":"田浦"},
{"zip_code":"7614155","kana_pref":"ｶｶﾞﾜｹﾝ","kana_city":"ｼｮｳｽﾞｸﾞﾝｼｮｳﾄﾞｼﾏﾁｮｳ","kana_address":"ﾅｶﾔﾏ","pref":"香川県","city":"小豆郡小豆島町","address":"中山"},
{"zip_code":"7614155","kana_pref":"ｶｶﾞﾜｹﾝ","kana_city":"ｼｮｳｽﾞｸﾞﾝｼｮｳﾄﾞｼﾏﾁｮｳ","kana_address":"ﾅｶﾔﾏ","pref":"香川県","city":"小豆郡小豆島町","address":"中山"},
{"zip_code":"7614303","kana_pref":"ｶｶﾞﾜｹﾝ","kana_city":"ｼｮｳｽﾞｸﾞﾝｼｮｳﾄﾞｼﾏﾁｮｳ","kana_address":"ﾅｶﾔﾏ","pref":"香川県","city":"小豆郡小豆島町","address":"中山"},
{"zip_code":"7614434","kana_pref":"ｶｶﾞﾜｹﾝ","kana_city":"ｼｮｳｽﾞｸﾞﾝｼｮｳﾄﾞｼﾏﾁｮｳ","kana_address":"ﾆｼﾑﾗ","pref":"香川県","city":"小豆郡小豆島町","address":"西村"},
{"zip_code":"7614421","kana_pref":"ｶｶﾞﾜｹﾝ","kana_city":"ｼｮｳｽﾞｸﾞﾝｼｮｳﾄﾞｼﾏﾁｮｳ","kana_address":"ﾉｳﾏ","pref":"香川県","city":"小豆郡小豆島町","address":"苗羽"},
{"zip_code":"7614402","kana_pref":"ｶｶﾞﾜｹﾝ","kana_city":"ｼｮｳｽﾞｸﾞﾝｼｮｳﾄﾞｼﾏﾁｮｳ","kana_address":"ﾌｸﾀﾞ","pref":"香川県","city":"小豆郡小豆島町","address":"福田"},
{"zip_code":"7614305","kana_pref":"ｶｶﾞﾜｹﾝ","kana_city":"ｼｮｳｽﾞｸﾞﾝｼｮｳﾄﾞｼﾏﾁｮｳ","kana_address":"ﾌﾀｵﾓﾃ","pref":"香川県","city":"小豆郡小豆島町","address":"二面"},
{"zip_code":"7614422","kana_pref":"ｶｶﾞﾜｹﾝ","kana_city":"ｼｮｳｽﾞｸﾞﾝｼｮｳﾄﾞｼﾏﾁｮｳ","kana_address":"ﾌﾙｴ","pref":"香川県","city":"小豆郡小豆島町","address":"古江"},
{"zip_code":"7614423","kana_pref":"ｶｶﾞﾜｹﾝ","kana_city":"ｼｮｳｽﾞｸﾞﾝｼｮｳﾄﾞｼﾏﾁｮｳ","kana_address":"ﾎﾘｺｼ","pref":"香川県","city":"小豆郡小豆島町","address":"堀越"},
{"zip_code":"7614304","kana_pref":"ｶｶﾞﾜｹﾝ","kana_city":"ｼｮｳｽﾞｸﾞﾝｼｮｳﾄﾞｼﾏﾁｮｳ","kana_address":"ﾑﾛｳ","pref":"香川県","city":"小豆郡小豆島町","address":"室生"},
{"zip_code":"7614411","kana_pref":"ｶｶﾞﾜｹﾝ","kana_city":"ｼｮｳｽﾞｸﾞﾝｼｮｳﾄﾞｼﾏﾁｮｳ","kana_address":"ﾔｽﾀﾞ","pref":"香川県","city":"小豆郡小豆島町","address":"安田"},
{"zip_code":"7614401","kana_pref":"ｶｶﾞﾜｹﾝ","kana_city":"ｼｮｳｽﾞｸﾞﾝｼｮｳﾄﾞｼﾏﾁｮｳ","kana_address":"ﾖｼﾀﾞ","pref":"香川県","city":"小豆郡小豆島町","address":"吉田"},
{"zip_code":"7614306","kana_pref":"ｶｶﾞﾜｹﾝ","kana_city":"ｼｮｳｽﾞｸﾞﾝｼｮｳﾄﾞｼﾏﾁｮｳ","kana_address":"ﾖｼﾉ","pref":"香川県","city":"小豆郡小豆島町","address":"吉野"},
{"zip_code":"7610700","kana_pref":"ｶｶﾞﾜｹﾝ","kana_city":"ｷﾀｸﾞﾝﾐｷﾁｮｳ","kana_address":"","pref":"香川県","city":"木田郡三木町","address":""},
{"zip_code":"7610614","kana_pref":"ｶｶﾞﾜｹﾝ","kana_city":"ｷﾀｸﾞﾝﾐｷﾁｮｳ","kana_address":"ｱｻｸﾗ","pref":"香川県","city":"木田郡三木町","address":"朝倉"},
{"zip_code":"7610701","kana_pref":"ｶｶﾞﾜｹﾝ","kana_city":"ｷﾀｸﾞﾝﾐｷﾁｮｳ","kana_address":"ｲｹﾉﾍﾞ","pref":"香川県","city":"木田郡三木町","address":"池戸"},
{"zip_code":"7610823","kana_pref":"ｶｶﾞﾜｹﾝ","kana_city":"ｷﾀｸﾞﾝﾐｷﾁｮｳ","kana_address":"ｲﾄﾞ","pref":"香川県","city":"木田郡三木町","address":"井戸"},
{"zip_code":"7610705","kana_pref":"ｶｶﾞﾜｹﾝ","kana_city":"ｷﾀｸﾞﾝﾐｷﾁｮｳ","kana_address":"ｲﾉｳｴ","pref":"香川県","city":"木田郡三木町","address":"井上"},
{"zip_code":"7610822","kana_pref":"ｶｶﾞﾜｹﾝ","kana_city":"ｷﾀｸﾞﾝﾐｷﾁｮｳ","kana_address":"ｵｸﾔﾏ","pref":"香川県","city":"木田郡三木町","address":"奥山"},
{"zip_code":"7610821","kana_pref":"ｶｶﾞﾜｹﾝ","kana_city":"ｷﾀｸﾞﾝﾐｷﾁｮｳ","kana_address":"ｶﾆﾜ","pref":"香川県","city":"木田郡三木町","address":"鹿庭"},
{"zip_code":"7610613","kana_pref":"ｶｶﾞﾜｹﾝ","kana_city":"ｷﾀｸﾞﾝﾐｷﾁｮｳ","kana_address":"ｶﾐﾀｶｵｶ","pref":"香川県","city":"木田郡三木町","address":"上高岡"},
{"zip_code":"7610615","kana_pref":"ｶｶﾞﾜｹﾝ","kana_city":"ｷﾀｸﾞﾝﾐｷﾁｮｳ","kana_address":"ｺﾐﾉ","pref":"香川県","city":"木田郡三木町","address":"小蓑"},
{"zip_code":"7610703","kana_pref":"ｶｶﾞﾜｹﾝ","kana_city":"ｷﾀｸﾞﾝﾐｷﾁｮｳ","kana_address":"ｼｼﾌﾞｾ","pref":"香川県","city":"木田郡三木町","address":"鹿伏"},
{"zip_code":"7610704","kana_pref":"ｶｶﾞﾜｹﾝ","kana_city":"ｷﾀｸﾞﾝﾐｷﾁｮｳ","kana_address":"ｼﾓﾀｶｵｶ","pref":"香川県","city":"木田郡三木町","address":"下高岡"},
{"zip_code":"7610611","kana_pref":"ｶｶﾞﾜｹﾝ","kana_city":"ｷﾀｸﾞﾝﾐｷﾁｮｳ","kana_address":"ﾀﾅｶ","pref":"香川県","city":"木田郡三木町","address":"田中"},
{"zip_code":"7610612","kana_pref":"ｶｶﾞﾜｹﾝ","kana_city":"ｷﾀｸﾞﾝﾐｷﾁｮｳ","kana_address":"ﾋｶﾐ","pref":"香川県","city":"木田郡三木町","address":"氷上"},
{"zip_code":"7610702","kana_pref":"ｶｶﾞﾜｹﾝ","kana_city":"ｷﾀｸﾞﾝﾐｷﾁｮｳ","kana_address":"ﾋﾗｷﾞ","pref":"香川県","city":"木田郡三木町","address":"平木"},
{"zip_code":"7613110","kana_pref":"ｶｶﾞﾜｹﾝ","kana_city":"ｶｶﾞﾜｸﾞﾝﾅｵｼﾏﾁｮｳ","kana_address":"ﾅｵｼﾏﾁｮｳｲﾁｴﾝ","pref":"香川県","city":"香川郡直島町","address":"直島町一円"},
{"zip_code":"7612300","kana_pref":"ｶｶﾞﾜｹﾝ","kana_city":"ｱﾔｳﾀｸﾞﾝｱﾔｶﾞﾜﾁｮｳ","kana_address":"","pref":"香川県","city":"綾歌郡綾川町","address":""},
{"zip_code":"7612208","kana_pref":"ｶｶﾞﾜｹﾝ","kana_city":"ｱﾔｳﾀｸﾞﾝｱﾔｶﾞﾜﾁｮｳ","kana_address":"ｳｼｶﾜ","pref":"香川県","city":"綾歌郡綾川町","address":"牛川"},
{"zip_code":"7612307","kana_pref":"ｶｶﾞﾜｹﾝ","kana_city":"ｱﾔｳﾀｸﾞﾝｱﾔｶﾞﾜﾁｮｳ","kana_address":"ｵﾉ","pref":"香川県","city":"綾歌郡綾川町","address":"小野"},
{"zip_code":"7612304","kana_pref":"ｶｶﾞﾜｹﾝ","kana_city":"ｱﾔｳﾀｸﾞﾝｱﾔｶﾞﾜﾁｮｳ","kana_address":"ｶﾔﾊﾗ","pref":"香川県","city":"綾歌郡綾川町","address":"萱原"},
{"zip_code":"7612306","kana_pref":"ｶｶﾞﾜｹﾝ","kana_city":"ｱﾔｳﾀｸﾞﾝｱﾔｶﾞﾜﾁｮｳ","kana_address":"ｷﾀ","pref":"香川県","city":"綾歌郡綾川町","address":"北"},
{"zip_code":"7612103","kana_pref":"ｶｶﾞﾜｹﾝ","kana_city":"ｱﾔｳﾀｸﾞﾝｱﾔｶﾞﾜﾁｮｳ","kana_address":"ｽｴ","pref":"香川県","city":"綾歌郡綾川町","address":"陶"},
{"zip_code":"7612102","kana_pref":"ｶｶﾞﾜｹﾝ","kana_city":"ｱﾔｳﾀｸﾞﾝｱﾔｶﾞﾜﾁｮｳ","kana_address":"ｾﾝﾋﾞｷ","pref":"香川県","city":"綾歌郡綾川町","address":"千疋"},
{"zip_code":"7612202","kana_pref":"ｶｶﾞﾜｹﾝ","kana_city":"ｱﾔｳﾀｸﾞﾝｱﾔｶﾞﾜﾁｮｳ","kana_address":"ｿｷﾞｼｮﾆｼ","pref":"香川県","city":"綾歌郡綾川町","address":"枌所西"},
{"zip_code":"7612201","kana_pref":"ｶｶﾞﾜｹﾝ","kana_city":"ｱﾔｳﾀｸﾞﾝｱﾔｶﾞﾜﾁｮｳ","kana_address":"ｿｷﾞｼｮﾋｶﾞｼ","pref":"香川県","city":"綾歌郡綾川町","address":"枌所東"},
{"zip_code":"7612305","kana_pref":"ｶｶﾞﾜｹﾝ","kana_city":"ｱﾔｳﾀｸﾞﾝｱﾔｶﾞﾜﾁｮｳ","kana_address":"ﾀｷﾉﾐﾔ","pref":"香川県","city":"綾歌郡綾川町","address":"滝宮"},
{"zip_code":"7612206","kana_pref":"ｶｶﾞﾜｹﾝ","kana_city":"ｱﾔｳﾀｸﾞﾝｱﾔｶﾞﾜﾁｮｳ","kana_address":"ﾆｼﾌﾞﾝ","pref":"香川県","city":"綾歌郡綾川町","address":"西分"},
{"zip_code":"7612101","kana_pref":"ｶｶﾞﾜｹﾝ","kana_city":"ｱﾔｳﾀｸﾞﾝｱﾔｶﾞﾜﾁｮｳ","kana_address":"ﾊﾀﾀﾞ","pref":"香川県","city":"綾歌郡綾川町","address":"畑田"},
{"zip_code":"7612207","kana_pref":"ｶｶﾞﾜｹﾝ","kana_city":"ｱﾔｳﾀｸﾞﾝｱﾔｶﾞﾜﾁｮｳ","kana_address":"ﾊﾕｶｶﾐ","pref":"香川県","city":"綾歌郡綾川町","address":"羽床上"},
{"zip_code":"7612308","kana_pref":"ｶｶﾞﾜｹﾝ","kana_city":"ｱﾔｳﾀｸﾞﾝｱﾔｶﾞﾜﾁｮｳ","kana_address":"ﾊﾕｶｼﾓ","pref":"香川県","city":"綾歌郡綾川町","address":"羽床下"},
{"zip_code":"7612205","kana_pref":"ｶｶﾞﾜｹﾝ","kana_city":"ｱﾔｳﾀｸﾞﾝｱﾔｶﾞﾜﾁｮｳ","kana_address":"ﾋｶﾞｼﾌﾞﾝ","pref":"香川県","city":"綾歌郡綾川町","address":"東分"},
{"zip_code":"7612203","kana_pref":"ｶｶﾞﾜｹﾝ","kana_city":"ｱﾔｳﾀｸﾞﾝｱﾔｶﾞﾜﾁｮｳ","kana_address":"ﾔﾏﾀﾞｶﾐ","pref":"香川県","city":"綾歌郡綾川町","address":"山田上"},
{"zip_code":"7612204","kana_pref":"ｶｶﾞﾜｹﾝ","kana_city":"ｱﾔｳﾀｸﾞﾝｱﾔｶﾞﾜﾁｮｳ","kana_address":"ﾔﾏﾀﾞｼﾓ","pref":"香川県","city":"綾歌郡綾川町","address":"山田下"}]}