{"zip_code":[
{"zip_code":"7630000","kana_pref":"ｶｶﾞﾜｹﾝ","kana_city":"ﾏﾙｶﾞﾒｼ","kana_address":"","pref":"香川県","city":"丸亀市","address":""},
{"zip_code":"7630084","kana_pref":"ｶｶﾞﾜｹﾝ","kana_city":"ﾏﾙｶﾞﾒｼ","kana_address":"ｲｲﾉﾁｮｳﾋｶﾞｼﾌﾀ","pref":"香川県","city":"丸亀市","address":"飯野町東二"},
{"zip_code":"7630085","kana_pref":"ｶｶﾞﾜｹﾝ","kana_city":"ﾏﾙｶﾞﾒｼ","kana_address":"ｲｲﾉﾁｮｳﾋｶﾞｼﾌﾞﾝ","pref":"香川県","city":"丸亀市","address":"飯野町東分"},
{"zip_code":"7630086","kana_pref":"ｶｶﾞﾜｹﾝ","kana_city":"ﾏﾙｶﾞﾒｼ","kana_address":"ｲｲﾉﾁｮｳﾆｼﾌﾞﾝ","pref":"香川県","city":"丸亀市","address":"飯野町西分"},
{"zip_code":"7630025","kana_pref":"ｶｶﾞﾜｹﾝ","kana_city":"ﾏﾙｶﾞﾒｼ","kana_address":"ｲﾁﾊﾞﾝﾁｮｳ","pref":"香川県","city":"丸亀市","address":"一番丁"},
{"zip_code":"7630051","kana_pref":"ｶｶﾞﾜｹﾝ","kana_city":"ﾏﾙｶﾞﾒｼ","kana_address":"ｲﾏﾂﾞﾁｮｳ","pref":"香川県","city":"丸亀市","address":"今津町"},
{"zip_code":"7630006","kana_pref":"ｶｶﾞﾜｹﾝ","kana_city":"ﾏﾙｶﾞﾒｼ","kana_address":"ｳｵﾔﾏﾁ","pref":"香川県","city":"丸亀市","address":"魚屋町"},
{"zip_code":"7630231","kana_pref":"ｶｶﾞﾜｹﾝ","kana_city":"ﾏﾙｶﾞﾒｼ","kana_address":"ｳｼｼﾞﾏ","pref":"香川県","city":"丸亀市","address":"牛島"},
{"zip_code":"7630034","kana_pref":"ｶｶﾞﾜｹﾝ","kana_city":"ﾏﾙｶﾞﾒｼ","kana_address":"ｵｵﾃﾁｮｳ","pref":"香川県","city":"丸亀市","address":"大手町"},
{"zip_code":"7630053","kana_pref":"ｶｶﾞﾜｹﾝ","kana_city":"ﾏﾙｶﾞﾒｼ","kana_address":"ｶﾅｸﾗﾁｮｳ","pref":"香川県","city":"丸亀市","address":"金倉町"},
{"zip_code":"7630003","kana_pref":"ｶｶﾞﾜｹﾝ","kana_city":"ﾏﾙｶﾞﾒｼ","kana_address":"ｶﾔﾏﾁ","pref":"香川県","city":"丸亀市","address":"葭町"},
{"zip_code":"7630092","kana_pref":"ｶｶﾞﾜｹﾝ","kana_city":"ﾏﾙｶﾞﾒｼ","kana_address":"ｶﾜﾆｼﾁｮｳﾐﾅﾐ","pref":"香川県","city":"丸亀市","address":"川西町南"},
{"zip_code":"7630091","kana_pref":"ｶｶﾞﾜｹﾝ","kana_city":"ﾏﾙｶﾞﾒｼ","kana_address":"ｶﾜﾆｼﾁｮｳｷﾀ","pref":"香川県","city":"丸亀市","address":"川西町北"},
{"zip_code":"7630002","kana_pref":"ｶｶﾞﾜｹﾝ","kana_city":"ﾏﾙｶﾞﾒｼ","kana_address":"ｶﾜﾗﾏﾁ","pref":"香川県","city":"丸亀市","address":"瓦町"},
{"zip_code":"7630015","kana_pref":"ｶｶﾞﾜｹﾝ","kana_city":"ﾏﾙｶﾞﾒｼ","kana_address":"ｷﾀﾋﾗﾔﾏﾁｮｳ","pref":"香川県","city":"丸亀市","address":"北平山町"},
{"zip_code":"7630073","kana_pref":"ｶｶﾞﾜｹﾝ","kana_city":"ﾏﾙｶﾞﾒｼ","kana_address":"ｸﾊﾞﾗﾁｮｳ","pref":"香川県","city":"丸亀市","address":"柞原町"},
{"zip_code":"7630029","kana_pref":"ｶｶﾞﾜｹﾝ","kana_city":"ﾏﾙｶﾞﾒｼ","kana_address":"ｸﾊﾞﾝﾁｮｳ","pref":"香川県","city":"丸亀市","address":"九番丁"},
{"zip_code":"7630093","kana_pref":"ｶｶﾞﾜｹﾝ","kana_city":"ﾏﾙｶﾞﾒｼ","kana_address":"ｸﾞﾝｹﾞﾁｮｳ","pref":"香川県","city":"丸亀市","address":"郡家町"},
{"zip_code":"7630014","kana_pref":"ｶｶﾞﾜｹﾝ","kana_city":"ﾏﾙｶﾞﾒｼ","kana_address":"ｺﾞﾌﾞｼｮﾁｮｳ","pref":"香川県","city":"丸亀市","address":"御供所町"},
{"zip_code":"7630004","kana_pref":"ｶｶﾞﾜｹﾝ","kana_city":"ﾏﾙｶﾞﾒｼ","kana_address":"ｺﾒﾔﾁｮｳ","pref":"香川県","city":"丸亀市","address":"米屋町"},
{"zip_code":"7630048","kana_pref":"ｶｶﾞﾜｹﾝ","kana_city":"ﾏﾙｶﾞﾒｼ","kana_address":"ｻｲﾜｲﾁｮｳ","pref":"香川県","city":"丸亀市","address":"幸町"},
{"zip_code":"7630094","kana_pref":"ｶｶﾞﾜｹﾝ","kana_city":"ﾏﾙｶﾞﾒｼ","kana_address":"ｻﾝｼﾞｮｳﾁｮｳ","pref":"香川県","city":"丸亀市","address":"三条町"},
{"zip_code":"7630065","kana_pref":"ｶｶﾞﾜｹﾝ","kana_city":"ﾏﾙｶﾞﾒｼ","kana_address":"ｼｵﾔﾁｮｳ","pref":"香川県","city":"丸亀市","address":"塩屋町"},
{"zip_code":"7630027","kana_pref":"ｶｶﾞﾜｹﾝ","kana_city":"ﾏﾙｶﾞﾒｼ","kana_address":"ｼﾁﾊﾞﾝﾁｮｳ","pref":"香川県","city":"丸亀市","address":"七番丁"},
{"zip_code":"7630030","kana_pref":"ｶｶﾞﾜｹﾝ","kana_city":"ﾏﾙｶﾞﾒｼ","kana_address":"ｼﾞｭｳﾊﾞﾝﾁｮｳ","pref":"香川県","city":"丸亀市","address":"十番丁"},
{"zip_code":"7630013","kana_pref":"ｶｶﾞﾜｹﾝ","kana_city":"ﾏﾙｶﾞﾒｼ","kana_address":"ｼﾞｮｳﾄｳﾁｮｳ","pref":"香川県","city":"丸亀市","address":"城東町"},
{"zip_code":"7630031","kana_pref":"ｶｶﾞﾜｹﾝ","kana_city":"ﾏﾙｶﾞﾒｼ","kana_address":"ｼﾞｮｳﾅﾝﾁｮｳ","pref":"香川県","city":"丸亀市","address":"城南町"},
{"zip_code":"7630032","kana_pref":"ｶｶﾞﾜｹﾝ","kana_city":"ﾏﾙｶﾞﾒｼ","kana_address":"ｼﾞｮｳｾｲﾁｮｳ","pref":"香川県","city":"丸亀市","address":"城西町"},
{"zip_code":"7630061","kana_pref":"ｶｶﾞﾜｹﾝ","kana_city":"ﾏﾙｶﾞﾒｼ","kana_address":"ｼｮｳﾜﾁｮｳ","pref":"香川県","city":"丸亀市","address":"昭和町"},
{"zip_code":"7630024","kana_pref":"ｶｶﾞﾜｹﾝ","kana_city":"ﾏﾙｶﾞﾒｼ","kana_address":"ｼﾜｸﾏﾁ","pref":"香川県","city":"丸亀市","address":"塩飽町"},
{"zip_code":"7630055","kana_pref":"ｶｶﾞﾜｹﾝ","kana_city":"ﾏﾙｶﾞﾒｼ","kana_address":"ｼﾝﾃﾞﾝﾁｮｳ","pref":"香川県","city":"丸亀市","address":"新田町"},
{"zip_code":"7630063","kana_pref":"ｶｶﾞﾜｹﾝ","kana_city":"ﾏﾙｶﾞﾒｼ","kana_address":"ｼﾝﾊﾏﾁｮｳ","pref":"香川県","city":"丸亀市","address":"新浜町"},
{"zip_code":"7630045","kana_pref":"ｶｶﾞﾜｹﾝ","kana_city":"ﾏﾙｶﾞﾒｼ","kana_address":"ｼﾝﾏﾁ","pref":"香川県","city":"丸亀市","address":"新町"},
{"zip_code":"7630007","kana_pref":"ｶｶﾞﾜｹﾝ","kana_city":"ﾏﾙｶﾞﾒｼ","kana_address":"ｿｳｺﾏﾁ","pref":"香川県","city":"丸亀市","address":"宗古町"},
{"zip_code":"7630071","kana_pref":"ｶｶﾞﾜｹﾝ","kana_city":"ﾏﾙｶﾞﾒｼ","kana_address":"ﾀﾑﾗﾁｮｳ","pref":"香川県","city":"丸亀市","address":"田村町"},
{"zip_code":"7630095","kana_pref":"ｶｶﾞﾜｹﾝ","kana_city":"ﾏﾙｶﾞﾒｼ","kana_address":"ﾀﾙﾐﾁｮｳ","pref":"香川県","city":"丸亀市","address":"垂水町"},
{"zip_code":"7630052","kana_pref":"ｶｶﾞﾜｹﾝ","kana_city":"ﾏﾙｶﾞﾒｼ","kana_address":"ﾂﾉﾓﾘﾁｮｳ","pref":"香川県","city":"丸亀市","address":"津森町"},
{"zip_code":"7630111","kana_pref":"ｶｶﾞﾜｹﾝ","kana_city":"ﾏﾙｶﾞﾒｼ","kana_address":"ﾃｼﾏﾁｮｳ","pref":"香川県","city":"丸亀市","address":"手島町"},
{"zip_code":"7630066","kana_pref":"ｶｶﾞﾜｹﾝ","kana_city":"ﾏﾙｶﾞﾒｼ","kana_address":"ﾃﾝﾏﾁｮｳ","pref":"香川県","city":"丸亀市","address":"天満町"},
{"zip_code":"7630043","kana_pref":"ｶｶﾞﾜｹﾝ","kana_city":"ﾏﾙｶﾞﾒｼ","kana_address":"ﾄｵﾘﾁｮｳ","pref":"香川県","city":"丸亀市","address":"通町"},
{"zip_code":"7630021","kana_pref":"ｶｶﾞﾜｹﾝ","kana_city":"ﾏﾙｶﾞﾒｼ","kana_address":"ﾄﾐﾔﾏﾁ","pref":"香川県","city":"丸亀市","address":"富屋町"},
{"zip_code":"7630012","kana_pref":"ｶｶﾞﾜｹﾝ","kana_city":"ﾏﾙｶﾞﾒｼ","kana_address":"ﾄﾞｲﾁｮｳ","pref":"香川県","city":"丸亀市","address":"土居町"},
{"zip_code":"7630082","kana_pref":"ｶｶﾞﾜｹﾝ","kana_city":"ﾏﾙｶﾞﾒｼ","kana_address":"ﾄﾞｷﾁｮｳﾋｶﾞｼ","pref":"香川県","city":"丸亀市","address":"土器町東"},
{"zip_code":"7630081","kana_pref":"ｶｶﾞﾜｹﾝ","kana_city":"ﾏﾙｶﾞﾒｼ","kana_address":"ﾄﾞｷﾁｮｳﾆｼ","pref":"香川県","city":"丸亀市","address":"土器町西"},
{"zip_code":"7630083","kana_pref":"ｶｶﾞﾜｹﾝ","kana_city":"ﾏﾙｶﾞﾒｼ","kana_address":"ﾄﾞｷﾁｮｳｷﾀ","pref":"香川県","city":"丸亀市","address":"土器町北"},
{"zip_code":"7630054","kana_pref":"ｶｶﾞﾜｹﾝ","kana_city":"ﾏﾙｶﾞﾒｼ","kana_address":"ﾅｶﾂﾞﾁｮｳ","pref":"香川県","city":"丸亀市","address":"中津町"},
{"zip_code":"7630033","kana_pref":"ｶｶﾞﾜｹﾝ","kana_city":"ﾏﾙｶﾞﾒｼ","kana_address":"ﾅｶﾌﾞﾁｮｳ","pref":"香川県","city":"丸亀市","address":"中府町"},
{"zip_code":"7630046","kana_pref":"ｶｶﾞﾜｹﾝ","kana_city":"ﾏﾙｶﾞﾒｼ","kana_address":"ﾅﾝｼﾞｮｳﾏﾁ","pref":"香川県","city":"丸亀市","address":"南条町"},
{"zip_code":"7630041","kana_pref":"ｶｶﾞﾜｹﾝ","kana_city":"ﾏﾙｶﾞﾒｼ","kana_address":"ﾆｼﾋﾗﾔﾏﾁｮｳ","pref":"香川県","city":"丸亀市","address":"西平山町"},
{"zip_code":"7630047","kana_pref":"ｶｶﾞﾜｹﾝ","kana_city":"ﾏﾙｶﾞﾒｼ","kana_address":"ﾆｼﾎﾝﾏﾁ","pref":"香川県","city":"丸亀市","address":"西本町"},
{"zip_code":"7630028","kana_pref":"ｶｶﾞﾜｹﾝ","kana_city":"ﾏﾙｶﾞﾒｼ","kana_address":"ﾊﾁﾊﾞﾝﾁｮｳ","pref":"香川県","city":"丸亀市","address":"八番丁"},
{"zip_code":"7630022","kana_pref":"ｶｶﾞﾜｹﾝ","kana_city":"ﾏﾙｶﾞﾒｼ","kana_address":"ﾊﾏﾏﾁ","pref":"香川県","city":"丸亀市","address":"浜町"},
{"zip_code":"7630075","kana_pref":"ｶｶﾞﾜｹﾝ","kana_city":"ﾏﾙｶﾞﾒｼ","kana_address":"ﾊﾗﾀﾞﾀﾞﾝﾁ","pref":"香川県","city":"丸亀市","address":"原田団地"},
{"zip_code":"7630074","kana_pref":"ｶｶﾞﾜｹﾝ","kana_city":"ﾏﾙｶﾞﾒｼ","kana_address":"ﾊﾗﾀﾞﾁｮｳ","pref":"香川県","city":"丸亀市","address":"原田町"},
{"zip_code":"7630105","kana_pref":"ｶｶﾞﾜｹﾝ","kana_city":"ﾏﾙｶﾞﾒｼ","kana_address":"ﾋﾛｼﾏﾁｮｳｱｵｷ","pref":"香川県","city":"丸亀市","address":"広島町青木"},
{"zip_code":"7630106","kana_pref":"ｶｶﾞﾜｹﾝ","kana_city":"ﾏﾙｶﾞﾒｼ","kana_address":"ﾋﾛｼﾏﾁｮｳｲﾁｲ","pref":"香川県","city":"丸亀市","address":"広島町市井"},
{"zip_code":"7630102","kana_pref":"ｶｶﾞﾜｹﾝ","kana_city":"ﾏﾙｶﾞﾒｼ","kana_address":"ﾋﾛｼﾏﾁｮｳｴﾉｳﾗ","pref":"香川県","city":"丸亀市","address":"広島町江の浦"},
{"zip_code":"7630108","kana_pref":"ｶｶﾞﾜｹﾝ","kana_city":"ﾏﾙｶﾞﾒｼ","kana_address":"ﾋﾛｼﾏﾁｮｳｵﾃｼﾏ","pref":"香川県","city":"丸亀市","address":"広島町小手島"},
{"zip_code":"7630103","kana_pref":"ｶｶﾞﾜｹﾝ","kana_city":"ﾏﾙｶﾞﾒｼ","kana_address":"ﾋﾛｼﾏﾁｮｳｶﾏﾉｺｼ","pref":"香川県","city":"丸亀市","address":"広島町釜の越"},
{"zip_code":"7630104","kana_pref":"ｶｶﾞﾜｹﾝ","kana_city":"ﾏﾙｶﾞﾒｼ","kana_address":"ﾋﾛｼﾏﾁｮｳｺｳﾛ","pref":"香川県","city":"丸亀市","address":"広島町甲路"},
{"zip_code":"7630101","kana_pref":"ｶｶﾞﾜｹﾝ","kana_city":"ﾏﾙｶﾞﾒｼ","kana_address":"ﾋﾛｼﾏﾁｮｳﾀﾃｲｼ","pref":"香川県","city":"丸亀市","address":"広島町立石"},
{"zip_code":"7630107","kana_pref":"ｶｶﾞﾜｹﾝ","kana_city":"ﾏﾙｶﾞﾒｼ","kana_address":"ﾋﾛｼﾏﾁｮｳﾓｳﾗ","pref":"香川県","city":"丸亀市","address":"広島町茂浦"},
{"zip_code":"7630044","kana_pref":"ｶｶﾞﾜｹﾝ","kana_city":"ﾏﾙｶﾞﾒｼ","kana_address":"ﾌｸｼﾏﾁｮｳ","pref":"香川県","city":"丸亀市","address":"福島町"},
{"zip_code":"7630011","kana_pref":"ｶｶﾞﾜｹﾝ","kana_city":"ﾏﾙｶﾞﾒｼ","kana_address":"ﾌｼﾞﾐﾁｮｳ","pref":"香川県","city":"丸亀市","address":"富士見町"},
{"zip_code":"7630001","kana_pref":"ｶｶﾞﾜｹﾝ","kana_city":"ﾏﾙｶﾞﾒｼ","kana_address":"ﾌﾙﾀｲﾏﾁ","pref":"香川県","city":"丸亀市","address":"風袋町"},
{"zip_code":"7630062","kana_pref":"ｶｶﾞﾜｹﾝ","kana_city":"ﾏﾙｶﾞﾒｼ","kana_address":"ﾎｳﾗｲﾁｮｳ","pref":"香川県","city":"丸亀市","address":"蓬莱町"},
{"zip_code":"7630225","kana_pref":"ｶｶﾞﾜｹﾝ","kana_city":"ﾏﾙｶﾞﾒｼ","kana_address":"ﾎﾝｼﾞﾏﾁｮｳｲｹﾉﾊﾏ","pref":"香川県","city":"丸亀市","address":"本島町生の浜"},
{"zip_code":"7630228","kana_pref":"ｶｶﾞﾜｹﾝ","kana_city":"ﾏﾙｶﾞﾒｼ","kana_address":"ﾎﾝｼﾞﾏﾁｮｳｵｵｳﾗ","pref":"香川県","city":"丸亀市","address":"本島町大浦"},
{"zip_code":"7630221","kana_pref":"ｶｶﾞﾜｹﾝ","kana_city":"ﾏﾙｶﾞﾒｼ","kana_address":"ﾎﾝｼﾞﾏﾁｮｳｶｻｼﾏ","pref":"香川県","city":"丸亀市","address":"本島町笠島"},
{"zip_code":"7630222","kana_pref":"ｶｶﾞﾜｹﾝ","kana_city":"ﾏﾙｶﾞﾒｼ","kana_address":"ﾎﾝｼﾞﾏﾁｮｳｺｳｼｮｳ","pref":"香川県","city":"丸亀市","address":"本島町甲生"},
{"zip_code":"7630224","kana_pref":"ｶｶﾞﾜｹﾝ","kana_city":"ﾏﾙｶﾞﾒｼ","kana_address":"ﾎﾝｼﾞﾏﾁｮｳｺｻｶ","pref":"香川県","city":"丸亀市","address":"本島町小阪"},
{"zip_code":"7630226","kana_pref":"ｶｶﾞﾜｹﾝ","kana_city":"ﾏﾙｶﾞﾒｼ","kana_address":"ﾎﾝｼﾞﾏﾁｮｳｼﾘﾊﾏ","pref":"香川県","city":"丸亀市","address":"本島町尻浜"},
{"zip_code":"7630223","kana_pref":"ｶｶﾞﾜｹﾝ","kana_city":"ﾏﾙｶﾞﾒｼ","kana_address":"ﾎﾝｼﾞﾏﾁｮｳﾄﾏﾘ","pref":"香川県","city":"丸亀市","address":"本島町泊"},
{"zip_code":"7630227","kana_pref":"ｶｶﾞﾜｹﾝ","kana_city":"ﾏﾙｶﾞﾒｼ","kana_address":"ﾎﾝｼﾞﾏﾁｮｳﾌｸﾀﾞ","pref":"香川県","city":"丸亀市","address":"本島町福田"},
{"zip_code":"7630023","kana_pref":"ｶｶﾞﾜｹﾝ","kana_city":"ﾏﾙｶﾞﾒｼ","kana_address":"ﾎﾝﾏﾁ","pref":"香川県","city":"丸亀市","address":"本町"},
{"zip_code":"7630064","kana_pref":"ｶｶﾞﾜｹﾝ","kana_city":"ﾏﾙｶﾞﾒｼ","kana_address":"ﾏｴｼﾞｵﾔﾁｮｳ","pref":"香川県","city":"丸亀市","address":"前塩屋町"},
{"zip_code":"7630005","kana_pref":"ｶｶﾞﾜｹﾝ","kana_city":"ﾏﾙｶﾞﾒｼ","kana_address":"ﾏﾂﾔﾁｮｳ","pref":"香川県","city":"丸亀市","address":"松屋町"},
{"zip_code":"7630042","kana_pref":"ｶｶﾞﾜｹﾝ","kana_city":"ﾏﾙｶﾞﾒｼ","kana_address":"ﾐﾅﾄﾏﾁ","pref":"香川県","city":"丸亀市","address":"港町"},
{"zip_code":"7630072","kana_pref":"ｶｶﾞﾜｹﾝ","kana_city":"ﾏﾙｶﾞﾒｼ","kana_address":"ﾔﾏﾉｷﾀﾁｮｳ","pref":"香川県","city":"丸亀市","address":"山北町"},
{"zip_code":"7630026","kana_pref":"ｶｶﾞﾜｹﾝ","kana_city":"ﾏﾙｶﾞﾒｼ","kana_address":"ﾛｸﾊﾞﾝﾁｮｳ","pref":"香川県","city":"丸亀市","address":"六番丁"}]}