{"zip_code":[
{"zip_code":"7640000","kana_pref":"ｶｶﾞﾜｹﾝ","kana_city":"ﾅｶﾀﾄﾞｸﾞﾝﾀﾄﾞﾂﾁｮｳ","kana_address":"","pref":"香川県","city":"仲多度郡多度津町","address":""},
{"zip_code":"7640033","kana_pref":"ｶｶﾞﾜｹﾝ","kana_city":"ﾅｶﾀﾄﾞｸﾞﾝﾀﾄﾞﾂﾁｮｳ","kana_address":"ｵｵｷﾞ","pref":"香川県","city":"仲多度郡多度津町","address":"青木"},
{"zip_code":"7640005","kana_pref":"ｶｶﾞﾜｹﾝ","kana_city":"ﾅｶﾀﾄﾞｸﾞﾝﾀﾄﾞﾂﾁｮｳ","kana_address":"ｵｵﾄﾞｵﾘ","pref":"香川県","city":"仲多度郡多度津町","address":"大通り"},
{"zip_code":"7640035","kana_pref":"ｶｶﾞﾜｹﾝ","kana_city":"ﾅｶﾀﾄﾞｸﾞﾝﾀﾄﾞﾂﾁｮｳ","kana_address":"ｵｸｼﾗｶﾀ","pref":"香川県","city":"仲多度郡多度津町","address":"奥白方"},
{"zip_code":"7640028","kana_pref":"ｶｶﾞﾜｹﾝ","kana_city":"ﾅｶﾀﾄﾞｸﾞﾝﾀﾄﾞﾂﾁｮｳ","kana_address":"ｶｽﾞﾊﾗ","pref":"香川県","city":"仲多度郡多度津町","address":"葛原"},
{"zip_code":"7640002","kana_pref":"ｶｶﾞﾜｹﾝ","kana_city":"ﾅｶﾀﾄﾞｸﾞﾝﾀﾄﾞﾂﾁｮｳ","kana_address":"ｶﾁｭｳ","pref":"香川県","city":"仲多度郡多度津町","address":"家中"},
{"zip_code":"7640022","kana_pref":"ｶｶﾞﾜｹﾝ","kana_city":"ﾅｶﾀﾄﾞｸﾞﾝﾀﾄﾞﾂﾁｮｳ","kana_address":"ｷﾀｶﾞﾓ","pref":"香川県","city":"仲多度郡多度津町","address":"北鴨"},
{"zip_code":"7640013","kana_pref":"ｶｶﾞﾜｹﾝ","kana_city":"ﾅｶﾀﾄﾞｸﾞﾝﾀﾄﾞﾂﾁｮｳ","kana_address":"ｷｮｳﾏﾁ","pref":"香川県","city":"仲多度郡多度津町","address":"京町"},
{"zip_code":"7640025","kana_pref":"ｶｶﾞﾜｹﾝ","kana_city":"ﾅｶﾀﾄﾞｸﾞﾝﾀﾄﾞﾂﾁｮｳ","kana_address":"ｺﾄﾌﾞｷﾁｮｳ","pref":"香川県","city":"仲多度郡多度津町","address":"寿町"},
{"zip_code":"7640024","kana_pref":"ｶｶﾞﾜｹﾝ","kana_city":"ﾅｶﾀﾄﾞｸﾞﾝﾀﾄﾞﾂﾁｮｳ","kana_address":"ｻｲﾜｲﾁｮｳ","pref":"香川県","city":"仲多度郡多度津町","address":"幸町"},
{"zip_code":"7640011","kana_pref":"ｶｶﾞﾜｹﾝ","kana_city":"ﾅｶﾀﾄﾞｸﾞﾝﾀﾄﾞﾂﾁｮｳ","kana_address":"ｻｶｴﾏﾁ","pref":"香川県","city":"仲多度郡多度津町","address":"栄町"},
{"zip_code":"7640012","kana_pref":"ｶｶﾞﾜｹﾝ","kana_city":"ﾅｶﾀﾄﾞｸﾞﾝﾀﾄﾞﾂﾁｮｳ","kana_address":"ｻｸﾗｶﾞﾜ","pref":"香川県","city":"仲多度郡多度津町","address":"桜川"},
{"zip_code":"7640040","kana_pref":"ｶｶﾞﾜｹﾝ","kana_city":"ﾅｶﾀﾄﾞｸﾞﾝﾀﾄﾞﾂﾁｮｳ","kana_address":"ｻﾅｷﾞ","pref":"香川県","city":"仲多度郡多度津町","address":"佐柳"},
{"zip_code":"7640031","kana_pref":"ｶｶﾞﾜｹﾝ","kana_city":"ﾅｶﾀﾄﾞｸﾞﾝﾀﾄﾞﾂﾁｮｳ","kana_address":"ｼｮｳ","pref":"香川県","city":"仲多度郡多度津町","address":"庄"},
{"zip_code":"7640050","kana_pref":"ｶｶﾞﾜｹﾝ","kana_city":"ﾅｶﾀﾄﾞｸﾞﾝﾀﾄﾞﾂﾁｮｳ","kana_address":"ﾀｶﾐ","pref":"香川県","city":"仲多度郡多度津町","address":"高見"},
{"zip_code":"7640027","kana_pref":"ｶｶﾞﾜｹﾝ","kana_city":"ﾅｶﾀﾄﾞｸﾞﾝﾀﾄﾞﾂﾁｮｳ","kana_address":"ﾄﾞｳﾌｸｼﾞ","pref":"香川県","city":"仲多度郡多度津町","address":"道福寺"},
{"zip_code":"7640004","kana_pref":"ｶｶﾞﾜｹﾝ","kana_city":"ﾅｶﾀﾄﾞｸﾞﾝﾀﾄﾞﾂﾁｮｳ","kana_address":"ﾅｶﾉﾁｮｳ","pref":"香川県","city":"仲多度郡多度津町","address":"仲ノ町"},
{"zip_code":"7640037","kana_pref":"ｶｶﾞﾜｹﾝ","kana_city":"ﾅｶﾀﾄﾞｸﾞﾝﾀﾄﾞﾂﾁｮｳ","kana_address":"ﾆｼｼﾗｶﾀ","pref":"香川県","city":"仲多度郡多度津町","address":"西白方"},
{"zip_code":"7640015","kana_pref":"ｶｶﾞﾜｹﾝ","kana_city":"ﾅｶﾀﾄﾞｸﾞﾝﾀﾄﾞﾂﾁｮｳ","kana_address":"ﾆｼﾊﾏ","pref":"香川県","city":"仲多度郡多度津町","address":"西浜"},
{"zip_code":"7640017","kana_pref":"ｶｶﾞﾜｹﾝ","kana_city":"ﾅｶﾀﾄﾞｸﾞﾝﾀﾄﾞﾂﾁｮｳ","kana_address":"ﾆｼﾐﾅﾄﾏﾁ","pref":"香川県","city":"仲多度郡多度津町","address":"西港町"},
{"zip_code":"7640038","kana_pref":"ｶｶﾞﾜｹﾝ","kana_city":"ﾅｶﾀﾄﾞｸﾞﾝﾀﾄﾞﾂﾁｮｳ","kana_address":"ﾋｶﾞｼｼﾗｶﾀ","pref":"香川県","city":"仲多度郡多度津町","address":"東白方"},
{"zip_code":"7640001","kana_pref":"ｶｶﾞﾜｹﾝ","kana_city":"ﾅｶﾀﾄﾞｸﾞﾝﾀﾄﾞﾂﾁｮｳ","kana_address":"ﾋｶﾞｼｼﾝﾏﾁ","pref":"香川県","city":"仲多度郡多度津町","address":"東新町"},
{"zip_code":"7640016","kana_pref":"ｶｶﾞﾜｹﾝ","kana_city":"ﾅｶﾀﾄﾞｸﾞﾝﾀﾄﾞﾂﾁｮｳ","kana_address":"ﾋｶﾞｼﾊﾏ","pref":"香川県","city":"仲多度郡多度津町","address":"東浜"},
{"zip_code":"7640018","kana_pref":"ｶｶﾞﾜｹﾝ","kana_city":"ﾅｶﾀﾄﾞｸﾞﾝﾀﾄﾞﾂﾁｮｳ","kana_address":"ﾋｶﾞｼﾐﾅﾄﾏﾁ","pref":"香川県","city":"仲多度郡多度津町","address":"東港町"},
{"zip_code":"7640006","kana_pref":"ｶｶﾞﾜｹﾝ","kana_city":"ﾅｶﾀﾄﾞｸﾞﾝﾀﾄﾞﾂﾁｮｳ","kana_address":"ﾋﾉﾃﾞﾁｮｳ","pref":"香川県","city":"仲多度郡多度津町","address":"日の出町"},
{"zip_code":"7640021","kana_pref":"ｶｶﾞﾜｹﾝ","kana_city":"ﾅｶﾀﾄﾞｸﾞﾝﾀﾄﾞﾂﾁｮｳ","kana_address":"ﾎﾘｴ","pref":"香川県","city":"仲多度郡多度津町","address":"堀江"},
{"zip_code":"7640014","kana_pref":"ｶｶﾞﾜｹﾝ","kana_city":"ﾅｶﾀﾄﾞｸﾞﾝﾀﾄﾞﾂﾁｮｳ","kana_address":"ﾎﾝﾄﾞｵﾘ","pref":"香川県","city":"仲多度郡多度津町","address":"本通"},
{"zip_code":"7640032","kana_pref":"ｶｶﾞﾜｹﾝ","kana_city":"ﾅｶﾀﾄﾞｸﾞﾝﾀﾄﾞﾂﾁｮｳ","kana_address":"ﾐｲ","pref":"香川県","city":"仲多度郡多度津町","address":"三井"},
{"zip_code":"7640036","kana_pref":"ｶｶﾞﾜｹﾝ","kana_city":"ﾅｶﾀﾄﾞｸﾞﾝﾀﾄﾞﾂﾁｮｳ","kana_address":"ﾐﾀﾁ","pref":"香川県","city":"仲多度郡多度津町","address":"見立"},
{"zip_code":"7640026","kana_pref":"ｶｶﾞﾜｹﾝ","kana_city":"ﾅｶﾀﾄﾞｸﾞﾝﾀﾄﾞﾂﾁｮｳ","kana_address":"ﾐﾅﾐｶﾞﾓ","pref":"香川県","city":"仲多度郡多度津町","address":"南鴨"},
{"zip_code":"7640003","kana_pref":"ｶｶﾞﾜｹﾝ","kana_city":"ﾅｶﾀﾄﾞｸﾞﾝﾀﾄﾞﾂﾁｮｳ","kana_address":"ﾓﾄﾏﾁ","pref":"香川県","city":"仲多度郡多度津町","address":"元町"},
{"zip_code":"7640034","kana_pref":"ｶｶﾞﾜｹﾝ","kana_city":"ﾅｶﾀﾄﾞｸﾞﾝﾀﾄﾞﾂﾁｮｳ","kana_address":"ﾔﾏｼﾅ","pref":"香川県","city":"仲多度郡多度津町","address":"山階"},
{"zip_code":"7640023","kana_pref":"ｶｶﾞﾜｹﾝ","kana_city":"ﾅｶﾀﾄﾞｸﾞﾝﾀﾄﾞﾂﾁｮｳ","kana_address":"ﾜｶﾊﾞﾁｮｳ","pref":"香川県","city":"仲多度郡多度津町","address":"若葉町"}]}