{"zip_code":[
{"zip_code":"7650000","kana_pref":"ｶｶﾞﾜｹﾝ","kana_city":"ｾﾞﾝﾂｳｼﾞｼ","kana_address":"","pref":"香川県","city":"善通寺市","address":""},
{"zip_code":"7650053","kana_pref":"ｶｶﾞﾜｹﾝ","kana_city":"ｾﾞﾝﾂｳｼﾞｼ","kana_address":"ｲｶﾉﾁｮｳ","pref":"香川県","city":"善通寺市","address":"生野町"},
{"zip_code":"7650014","kana_pref":"ｶｶﾞﾜｹﾝ","kana_city":"ｾﾞﾝﾂｳｼﾞｼ","kana_address":"ｲｶﾉﾎﾝﾏﾁ","pref":"香川県","city":"善通寺市","address":"生野本町"},
{"zip_code":"7650022","kana_pref":"ｶｶﾞﾜｹﾝ","kana_city":"ｾﾞﾝﾂｳｼﾞｼ","kana_address":"ｲﾅｷﾞﾁｮｳ","pref":"香川県","city":"善通寺市","address":"稲木町"},
{"zip_code":"7650052","kana_pref":"ｶｶﾞﾜｹﾝ","kana_city":"ｾﾞﾝﾂｳｼﾞｼ","kana_address":"ｵｵｻﾁｮｳ","pref":"香川県","city":"善通寺市","address":"大麻町"},
{"zip_code":"7650011","kana_pref":"ｶｶﾞﾜｹﾝ","kana_city":"ｾﾞﾝﾂｳｼﾞｼ","kana_address":"ｶﾐﾖｼﾀﾞﾁｮｳ","pref":"香川県","city":"善通寺市","address":"上吉田町"},
{"zip_code":"7650012","kana_pref":"ｶｶﾞﾜｹﾝ","kana_city":"ｾﾞﾝﾂｳｼﾞｼ","kana_address":"ｶﾐﾖｼﾀﾞﾁｮｳ","pref":"香川県","city":"善通寺市","address":"上吉田町"},
{"zip_code":"7650033","kana_pref":"ｶｶﾞﾜｹﾝ","kana_city":"ｾﾞﾝﾂｳｼﾞｼ","kana_address":"ｷﾄｸﾁｮｳ","pref":"香川県","city":"善通寺市","address":"木徳町"},
{"zip_code":"7650051","kana_pref":"ｶｶﾞﾜｹﾝ","kana_city":"ｾﾞﾝﾂｳｼﾞｼ","kana_address":"ｸｼﾅｼﾁｮｳ","pref":"香川県","city":"善通寺市","address":"櫛梨町"},
{"zip_code":"7650031","kana_pref":"ｶｶﾞﾜｹﾝ","kana_city":"ｾﾞﾝﾂｳｼﾞｼ","kana_address":"ｺﾝｿﾞｳｼﾞﾁｮｳ","pref":"香川県","city":"善通寺市","address":"金蔵寺町"},
{"zip_code":"7650021","kana_pref":"ｶｶﾞﾜｹﾝ","kana_city":"ｾﾞﾝﾂｳｼﾞｼ","kana_address":"ｼﾓﾖｼﾀﾞﾁｮｳ","pref":"香川県","city":"善通寺市","address":"下吉田町"},
{"zip_code":"7650003","kana_pref":"ｶｶﾞﾜｹﾝ","kana_city":"ｾﾞﾝﾂｳｼﾞｼ","kana_address":"ｾﾞﾝﾂｳｼﾞﾁｮｳ","pref":"香川県","city":"善通寺市","address":"善通寺町"},
{"zip_code":"7650004","kana_pref":"ｶｶﾞﾜｹﾝ","kana_city":"ｾﾞﾝﾂｳｼﾞｼ","kana_address":"ｾﾞﾝﾂｳｼﾞﾁｮｳ","pref":"香川県","city":"善通寺市","address":"善通寺町"},
{"zip_code":"7650001","kana_pref":"ｶｶﾞﾜｹﾝ","kana_city":"ｾﾞﾝﾂｳｼﾞｼ","kana_address":"ｾﾝﾕｳﾁｮｳ","pref":"香川県","city":"善通寺市","address":"仙遊町"},
{"zip_code":"7650072","kana_pref":"ｶｶﾞﾜｹﾝ","kana_city":"ｾﾞﾝﾂｳｼﾞｼ","kana_address":"ﾅｶﾑﾗﾁｮｳ","pref":"香川県","city":"善通寺市","address":"中村町"},
{"zip_code":"7650073","kana_pref":"ｶｶﾞﾜｹﾝ","kana_city":"ｾﾞﾝﾂｳｼﾞｼ","kana_address":"ﾅｶﾑﾗﾁｮｳ","pref":"香川県","city":"善通寺市","address":"中村町"},
{"zip_code":"7650032","kana_pref":"ｶｶﾞﾜｹﾝ","kana_city":"ｾﾞﾝﾂｳｼﾞｼ","kana_address":"ﾊﾗﾀﾞﾁｮｳ","pref":"香川県","city":"善通寺市","address":"原田町"},
{"zip_code":"7650062","kana_pref":"ｶｶﾞﾜｹﾝ","kana_city":"ｾﾞﾝﾂｳｼﾞｼ","kana_address":"ﾋﾄﾞﾉﾁｮｳ","pref":"香川県","city":"善通寺市","address":"碑殿町"},
{"zip_code":"7650071","kana_pref":"ｶｶﾞﾜｹﾝ","kana_city":"ｾﾞﾝﾂｳｼﾞｼ","kana_address":"ﾋﾛﾀﾁｮｳ","pref":"香川県","city":"善通寺市","address":"弘田町"},
{"zip_code":"7650013","kana_pref":"ｶｶﾞﾜｹﾝ","kana_city":"ｾﾞﾝﾂｳｼﾞｼ","kana_address":"ﾌﾞﾝｷｮｳﾁｮｳ","pref":"香川県","city":"善通寺市","address":"文京町"},
{"zip_code":"7650002","kana_pref":"ｶｶﾞﾜｹﾝ","kana_city":"ｾﾞﾝﾂｳｼﾞｼ","kana_address":"ﾐﾅﾐﾏﾁ","pref":"香川県","city":"善通寺市","address":"南町"},
{"zip_code":"7650040","kana_pref":"ｶｶﾞﾜｹﾝ","kana_city":"ｾﾞﾝﾂｳｼﾞｼ","kana_address":"ﾖｷﾞﾀﾁｮｳ","pref":"香川県","city":"善通寺市","address":"与北町"},
{"zip_code":"7650061","kana_pref":"ｶｶﾞﾜｹﾝ","kana_city":"ｾﾞﾝﾂｳｼﾞｼ","kana_address":"ﾖｼﾜﾗﾁｮｳ","pref":"香川県","city":"善通寺市","address":"吉原町"}]}