{"zip_code":[
{"zip_code":"7660000","kana_pref":"ｶｶﾞﾜｹﾝ","kana_city":"ﾅｶﾀﾄﾞｸﾞﾝｺﾄﾋﾗﾁｮｳ","kana_address":"","pref":"香川県","city":"仲多度郡琴平町","address":""},
{"zip_code":"7660004","kana_pref":"ｶｶﾞﾜｹﾝ","kana_city":"ﾅｶﾀﾄﾞｸﾞﾝｺﾄﾋﾗﾁｮｳ","kana_address":"ｴﾅｲ","pref":"香川県","city":"仲多度郡琴平町","address":"榎井"},
{"zip_code":"7660006","kana_pref":"ｶｶﾞﾜｹﾝ","kana_city":"ﾅｶﾀﾄﾞｸﾞﾝｺﾄﾋﾗﾁｮｳ","kana_address":"ｶﾐｸｼﾅｼ","pref":"香川県","city":"仲多度郡琴平町","address":"上櫛梨"},
{"zip_code":"7660002","kana_pref":"ｶｶﾞﾜｹﾝ","kana_city":"ﾅｶﾀﾄﾞｸﾞﾝｺﾄﾋﾗﾁｮｳ","kana_address":"ｺﾄﾋﾗﾁｮｳ","pref":"香川県","city":"仲多度郡琴平町","address":"琴平町"},
{"zip_code":"7660001","kana_pref":"ｶｶﾞﾜｹﾝ","kana_city":"ﾅｶﾀﾄﾞｸﾞﾝｺﾄﾋﾗﾁｮｳ","kana_address":"ｺﾄﾋﾗﾁｮｳ","pref":"香川県","city":"仲多度郡琴平町","address":"琴平町"},
{"zip_code":"7660003","kana_pref":"ｶｶﾞﾜｹﾝ","kana_city":"ﾅｶﾀﾄﾞｸﾞﾝｺﾄﾋﾗﾁｮｳ","kana_address":"ｺﾞｼﾞｮｳ","pref":"香川県","city":"仲多度郡琴平町","address":"五條"},
{"zip_code":"7660007","kana_pref":"ｶｶﾞﾜｹﾝ","kana_city":"ﾅｶﾀﾄﾞｸﾞﾝｺﾄﾋﾗﾁｮｳ","kana_address":"ｼﾓｸｼﾅｼ","pref":"香川県","city":"仲多度郡琴平町","address":"下櫛梨"},
{"zip_code":"7660005","kana_pref":"ｶｶﾞﾜｹﾝ","kana_city":"ﾅｶﾀﾄﾞｸﾞﾝｺﾄﾋﾗﾁｮｳ","kana_address":"ﾉｳﾀﾞ","pref":"香川県","city":"仲多度郡琴平町","address":"苗田"},
{"zip_code":"7660000","kana_pref":"ｶｶﾞﾜｹﾝ","kana_city":"ﾅｶﾀﾄﾞｸﾞﾝﾏﾝﾉｳﾁｮｳ","kana_address":"","pref":"香川県","city":"仲多度郡まんのう町","address":""},
{"zip_code":"7660204","kana_pref":"ｶｶﾞﾜｹﾝ","kana_city":"ﾅｶﾀﾄﾞｸﾞﾝﾏﾝﾉｳﾁｮｳ","kana_address":"ｶﾂｳﾗ","pref":"香川県","city":"仲多度郡まんのう町","address":"勝浦"},
{"zip_code":"7660203","kana_pref":"ｶｶﾞﾜｹﾝ","kana_city":"ﾅｶﾀﾄﾞｸﾞﾝﾏﾝﾉｳﾁｮｳ","kana_address":"ｶﾜﾋｶﾞｼ","pref":"香川県","city":"仲多度郡まんのう町","address":"川東"},
{"zip_code":"7660024","kana_pref":"ｶｶﾞﾜｹﾝ","kana_city":"ﾅｶﾀﾄﾞｸﾞﾝﾏﾝﾉｳﾁｮｳ","kana_address":"ｶﾝﾉ","pref":"香川県","city":"仲多度郡まんのう町","address":"神野"},
{"zip_code":"7660026","kana_pref":"ｶｶﾞﾜｹﾝ","kana_city":"ﾅｶﾀﾄﾞｸﾞﾝﾏﾝﾉｳﾁｮｳ","kana_address":"ｷｼﾉｳｴ","pref":"香川県","city":"仲多度郡まんのう町","address":"岸上"},
{"zip_code":"7660011","kana_pref":"ｶｶﾞﾜｹﾝ","kana_city":"ﾅｶﾀﾄﾞｸﾞﾝﾏﾝﾉｳﾁｮｳ","kana_address":"ｸﾓﾝ","pref":"香川県","city":"仲多度郡まんのう町","address":"公文"},
{"zip_code":"7660027","kana_pref":"ｶｶﾞﾜｹﾝ","kana_city":"ﾅｶﾀﾄﾞｸﾞﾝﾏﾝﾉｳﾁｮｳ","kana_address":"ｺﾞｼﾞｮｳ","pref":"香川県","city":"仲多度郡まんのう町","address":"五條"},
{"zip_code":"7660021","kana_pref":"ｶｶﾞﾜｹﾝ","kana_city":"ﾅｶﾀﾄﾞｸﾞﾝﾏﾝﾉｳﾁｮｳ","kana_address":"ｼｼﾞｮｳ","pref":"香川県","city":"仲多度郡まんのう町","address":"四條"},
{"zip_code":"7660017","kana_pref":"ｶｶﾞﾜｹﾝ","kana_city":"ﾅｶﾀﾄﾞｸﾞﾝﾏﾝﾉｳﾁｮｳ","kana_address":"ｽﾐｼｮﾆｼ","pref":"香川県","city":"仲多度郡まんのう町","address":"炭所西"},
{"zip_code":"7660016","kana_pref":"ｶｶﾞﾜｹﾝ","kana_city":"ﾅｶﾀﾄﾞｸﾞﾝﾏﾝﾉｳﾁｮｳ","kana_address":"ｽﾐｼｮﾋｶﾞｼ","pref":"香川県","city":"仲多度郡まんのう町","address":"炭所東"},
{"zip_code":"7660201","kana_pref":"ｶｶﾞﾜｹﾝ","kana_city":"ﾅｶﾀﾄﾞｸﾞﾝﾏﾝﾉｳﾁｮｳ","kana_address":"ｿｳﾀﾞ","pref":"香川県","city":"仲多度郡まんのう町","address":"造田"},
{"zip_code":"7660015","kana_pref":"ｶｶﾞﾜｹﾝ","kana_city":"ﾅｶﾀﾄﾞｸﾞﾝﾏﾝﾉｳﾁｮｳ","kana_address":"ﾅｶﾞｵ","pref":"香川県","city":"仲多度郡まんのう町","address":"長尾"},
{"zip_code":"7660202","kana_pref":"ｶｶﾞﾜｹﾝ","kana_city":"ﾅｶﾀﾄﾞｸﾞﾝﾏﾝﾉｳﾁｮｳ","kana_address":"ﾅｶﾄ","pref":"香川県","city":"仲多度郡まんのう町","address":"中通"},
{"zip_code":"7660012","kana_pref":"ｶｶﾞﾜｹﾝ","kana_city":"ﾅｶﾀﾄﾞｸﾞﾝﾏﾝﾉｳﾁｮｳ","kana_address":"ﾆｼﾀｶｼﾉ","pref":"香川県","city":"仲多度郡まんのう町","address":"西高篠"},
{"zip_code":"7660014","kana_pref":"ｶｶﾞﾜｹﾝ","kana_city":"ﾅｶﾀﾄﾞｸﾞﾝﾏﾝﾉｳﾁｮｳ","kana_address":"ﾊｻﾞﾏ","pref":"香川県","city":"仲多度郡まんのう町","address":"羽間"},
{"zip_code":"7660013","kana_pref":"ｶｶﾞﾜｹﾝ","kana_city":"ﾅｶﾀﾄﾞｸﾞﾝﾏﾝﾉｳﾁｮｳ","kana_address":"ﾋｶﾞｼﾀｶｼﾉ","pref":"香川県","city":"仲多度郡まんのう町","address":"東高篠"},
{"zip_code":"7660025","kana_pref":"ｶｶﾞﾜｹﾝ","kana_city":"ﾅｶﾀﾄﾞｸﾞﾝﾏﾝﾉｳﾁｮｳ","kana_address":"ﾏﾉ","pref":"香川県","city":"仲多度郡まんのう町","address":"真野"},
{"zip_code":"7660023","kana_pref":"ｶｶﾞﾜｹﾝ","kana_city":"ﾅｶﾀﾄﾞｸﾞﾝﾏﾝﾉｳﾁｮｳ","kana_address":"ﾖｼﾉ","pref":"香川県","city":"仲多度郡まんのう町","address":"吉野"},
{"zip_code":"7660022","kana_pref":"ｶｶﾞﾜｹﾝ","kana_city":"ﾅｶﾀﾄﾞｸﾞﾝﾏﾝﾉｳﾁｮｳ","kana_address":"ﾖｼﾉｼﾓ","pref":"香川県","city":"仲多度郡まんのう町","address":"吉野下"}]}