{"zip_code":[
{"zip_code":"7670000","kana_pref":"ｶｶﾞﾜｹﾝ","kana_city":"ﾐﾄﾖｼ","kana_address":"","pref":"香川県","city":"三豊市","address":""},
{"zip_code":"7670014","kana_pref":"ｶｶﾞﾜｹﾝ","kana_city":"ﾐﾄﾖｼ","kana_address":"ﾀｶｾﾁｮｳｶﾐｱｻ","pref":"香川県","city":"三豊市","address":"高瀬町上麻"},
{"zip_code":"7670012","kana_pref":"ｶｶﾞﾜｹﾝ","kana_city":"ﾐﾄﾖｼ","kana_address":"ﾀｶｾﾁｮｳｶﾐｶﾂﾏ","pref":"香川県","city":"三豊市","address":"高瀬町上勝間"},
{"zip_code":"7670001","kana_pref":"ｶｶﾞﾜｹﾝ","kana_city":"ﾐﾄﾖｼ","kana_address":"ﾀｶｾﾁｮｳｶﾐﾀｶｾ","pref":"香川県","city":"三豊市","address":"高瀬町上高瀬"},
{"zip_code":"7670021","kana_pref":"ｶｶﾞﾜｹﾝ","kana_city":"ﾐﾄﾖｼ","kana_address":"ﾀｶｾﾁｮｳｻﾏﾀ","pref":"香川県","city":"三豊市","address":"高瀬町佐股"},
{"zip_code":"7670013","kana_pref":"ｶｶﾞﾜｹﾝ","kana_city":"ﾐﾄﾖｼ","kana_address":"ﾀｶｾﾁｮｳｼﾓｱｻ","pref":"香川県","city":"三豊市","address":"高瀬町下麻"},
{"zip_code":"7670011","kana_pref":"ｶｶﾞﾜｹﾝ","kana_city":"ﾐﾄﾖｼ","kana_address":"ﾀｶｾﾁｮｳｼﾓｶﾂﾏ","pref":"香川県","city":"三豊市","address":"高瀬町下勝間"},
{"zip_code":"7670002","kana_pref":"ｶｶﾞﾜｹﾝ","kana_city":"ﾐﾄﾖｼ","kana_address":"ﾀｶｾﾁｮｳｼﾝﾐｮｳ","pref":"香川県","city":"三豊市","address":"高瀬町新名"},
{"zip_code":"7670022","kana_pref":"ｶｶﾞﾜｹﾝ","kana_city":"ﾐﾄﾖｼ","kana_address":"ﾀｶｾﾁｮｳﾊｶﾞﾀ","pref":"香川県","city":"三豊市","address":"高瀬町羽方"},
{"zip_code":"7670004","kana_pref":"ｶｶﾞﾜｹﾝ","kana_city":"ﾐﾄﾖｼ","kana_address":"ﾀｶｾﾁｮｳﾋｼﾞ","pref":"香川県","city":"三豊市","address":"高瀬町比地"},
{"zip_code":"7670003","kana_pref":"ｶｶﾞﾜｹﾝ","kana_city":"ﾐﾄﾖｼ","kana_address":"ﾀｶｾﾁｮｳﾋｼﾞﾅｶ","pref":"香川県","city":"三豊市","address":"高瀬町比地中"},
{"zip_code":"7670031","kana_pref":"ｶｶﾞﾜｹﾝ","kana_city":"ﾐﾄﾖｼ","kana_address":"ﾐﾉﾁｮｳｵｵﾐ","pref":"香川県","city":"三豊市","address":"三野町大見"},
{"zip_code":"7670032","kana_pref":"ｶｶﾞﾜｹﾝ","kana_city":"ﾐﾄﾖｼ","kana_address":"ﾐﾉﾁｮｳｼﾓﾀｶｾ","pref":"香川県","city":"三豊市","address":"三野町下高瀬"},
{"zip_code":"7670033","kana_pref":"ｶｶﾞﾜｹﾝ","kana_city":"ﾐﾄﾖｼ","kana_address":"ﾐﾉﾁｮｳﾖｼﾂﾞ","pref":"香川県","city":"三豊市","address":"三野町吉津"}]}