{"zip_code":[
{"zip_code":"7680000","kana_pref":"ｶｶﾞﾜｹﾝ","kana_city":"ｶﾝｵﾝｼﾞｼ","kana_address":"","pref":"香川県","city":"観音寺市","address":""},
{"zip_code":"7680062","kana_pref":"ｶｶﾞﾜｹﾝ","kana_city":"ｶﾝｵﾝｼﾞｼ","kana_address":"ｱﾘｱｹﾁｮｳ","pref":"香川県","city":"観音寺市","address":"有明町"},
{"zip_code":"7680052","kana_pref":"ｶｶﾞﾜｹﾝ","kana_city":"ｶﾝｵﾝｼﾞｼ","kana_address":"ｱﾜｲﾁｮｳ","pref":"香川県","city":"観音寺市","address":"粟井町"},
{"zip_code":"7680031","kana_pref":"ｶｶﾞﾜｹﾝ","kana_city":"ｶﾝｵﾝｼﾞｼ","kana_address":"ｲｹﾉｼﾘﾁｮｳ","pref":"香川県","city":"観音寺市","address":"池之尻町"},
{"zip_code":"7680071","kana_pref":"ｶｶﾞﾜｹﾝ","kana_city":"ｶﾝｵﾝｼﾞｼ","kana_address":"ｲﾌﾞｷﾁｮｳ","pref":"香川県","city":"観音寺市","address":"伊吹町"},
{"zip_code":"7680012","kana_pref":"ｶｶﾞﾜｹﾝ","kana_city":"ｶﾝｵﾝｼﾞｼ","kana_address":"ｳｴﾀﾞﾁｮｳ","pref":"香川県","city":"観音寺市","address":"植田町"},
{"zip_code":"7680060","kana_pref":"ｶｶﾞﾜｹﾝ","kana_city":"ｶﾝｵﾝｼﾞｼ","kana_address":"ｶﾝｵﾝｼﾞﾁｮｳ","pref":"香川県","city":"観音寺市","address":"観音寺町"},
{"zip_code":"7680051","kana_pref":"ｶｶﾞﾜｹﾝ","kana_city":"ｶﾝｵﾝｼﾞｼ","kana_address":"ｷﾉｺﾞｳﾁｮｳ","pref":"香川県","city":"観音寺市","address":"木之郷町"},
{"zip_code":"7680040","kana_pref":"ｶｶﾞﾜｹﾝ","kana_city":"ｶﾝｵﾝｼﾞｼ","kana_address":"ｸﾆﾀﾁｮｳ","pref":"香川県","city":"観音寺市","address":"柞田町"},
{"zip_code":"7680064","kana_pref":"ｶｶﾞﾜｹﾝ","kana_city":"ｶﾝｵﾝｼﾞｼ","kana_address":"ｺﾄﾅﾐﾁｮｳ","pref":"香川県","city":"観音寺市","address":"琴浪町"},
{"zip_code":"7680074","kana_pref":"ｶｶﾞﾜｹﾝ","kana_city":"ｶﾝｵﾝｼﾞｼ","kana_address":"ｻｲﾜｲﾁｮｳ","pref":"香川県","city":"観音寺市","address":"幸町"},
{"zip_code":"7680072","kana_pref":"ｶｶﾞﾜｹﾝ","kana_city":"ｶﾝｵﾝｼﾞｼ","kana_address":"ｻｶｴﾏﾁ","pref":"香川県","city":"観音寺市","address":"栄町"},
{"zip_code":"7680067","kana_pref":"ｶｶﾞﾜｹﾝ","kana_city":"ｶﾝｵﾝｼﾞｼ","kana_address":"ｻｶﾓﾄﾁｮｳ","pref":"香川県","city":"観音寺市","address":"坂本町"},
{"zip_code":"7680063","kana_pref":"ｶｶﾞﾜｹﾝ","kana_city":"ｶﾝｵﾝｼﾞｼ","kana_address":"ｻﾝﾎﾞﾝﾏﾂﾁｮｳ","pref":"香川県","city":"観音寺市","address":"三本松町"},
{"zip_code":"7680069","kana_pref":"ｶｶﾞﾜｹﾝ","kana_city":"ｶﾝｵﾝｼﾞｼ","kana_address":"ｼｹﾞｷﾁｮｳ","pref":"香川県","city":"観音寺市","address":"茂木町"},
{"zip_code":"7680073","kana_pref":"ｶｶﾞﾜｹﾝ","kana_city":"ｶﾝｵﾝｼﾞｼ","kana_address":"ｼｹﾞﾆｼﾁｮｳ","pref":"香川県","city":"観音寺市","address":"茂西町"},
{"zip_code":"7680011","kana_pref":"ｶｶﾞﾜｹﾝ","kana_city":"ｶﾝｵﾝｼﾞｼ","kana_address":"ｼｭﾂｻｸﾁｮｳ","pref":"香川県","city":"観音寺市","address":"出作町"},
{"zip_code":"7680066","kana_pref":"ｶｶﾞﾜｹﾝ","kana_city":"ｶﾝｵﾝｼﾞｼ","kana_address":"ｼｮｳﾜﾁｮｳ","pref":"香川県","city":"観音寺市","address":"昭和町"},
{"zip_code":"7680033","kana_pref":"ｶｶﾞﾜｹﾝ","kana_city":"ｶﾝｵﾝｼﾞｼ","kana_address":"ｼﾝﾃﾞﾝﾁｮｳ","pref":"香川県","city":"観音寺市","address":"新田町"},
{"zip_code":"7680065","kana_pref":"ｶｶﾞﾜｹﾝ","kana_city":"ｶﾝｵﾝｼﾞｼ","kana_address":"ｾﾄﾁｮｳ","pref":"香川県","city":"観音寺市","address":"瀬戸町"},
{"zip_code":"7680002","kana_pref":"ｶｶﾞﾜｹﾝ","kana_city":"ｶﾝｵﾝｼﾞｼ","kana_address":"ﾀｶﾔﾁｮｳ","pref":"香川県","city":"観音寺市","address":"高屋町"},
{"zip_code":"7680068","kana_pref":"ｶｶﾞﾜｹﾝ","kana_city":"ｶﾝｵﾝｼﾞｼ","kana_address":"ﾃﾝｼﾞﾝﾁｮｳ","pref":"香川県","city":"観音寺市","address":"天神町"},
{"zip_code":"7680024","kana_pref":"ｶｶﾞﾜｹﾝ","kana_city":"ｶﾝｵﾝｼﾞｼ","kana_address":"ﾅｶﾀﾞｲﾁｮｳ","pref":"香川県","city":"観音寺市","address":"中田井町"},
{"zip_code":"7680014","kana_pref":"ｶｶﾞﾜｹﾝ","kana_city":"ｶﾝｵﾝｼﾞｼ","kana_address":"ﾅｶﾞﾚｵｶﾁｮｳ","pref":"香川県","city":"観音寺市","address":"流岡町"},
{"zip_code":"7680032","kana_pref":"ｶｶﾞﾜｹﾝ","kana_city":"ｶﾝｵﾝｼﾞｼ","kana_address":"ﾊﾗﾁｮｳ","pref":"香川県","city":"観音寺市","address":"原町"},
{"zip_code":"7680023","kana_pref":"ｶｶﾞﾜｹﾝ","kana_city":"ｶﾝｵﾝｼﾞｼ","kana_address":"ﾌﾙｶﾜﾁｮｳ","pref":"香川県","city":"観音寺市","address":"古川町"},
{"zip_code":"7680070","kana_pref":"ｶｶﾞﾜｹﾝ","kana_city":"ｶﾝｵﾝｼﾞｼ","kana_address":"ﾐﾅﾐﾏﾁ","pref":"香川県","city":"観音寺市","address":"南町"},
{"zip_code":"7680013","kana_pref":"ｶｶﾞﾜｹﾝ","kana_city":"ｶﾝｵﾝｼﾞｼ","kana_address":"ﾑﾗｸﾞﾛﾁｮｳ","pref":"香川県","city":"観音寺市","address":"村黒町"},
{"zip_code":"7680001","kana_pref":"ｶｶﾞﾜｹﾝ","kana_city":"ｶﾝｵﾝｼﾞｼ","kana_address":"ﾑﾛﾓﾄﾁｮｳ","pref":"香川県","city":"観音寺市","address":"室本町"},
{"zip_code":"7680022","kana_pref":"ｶｶﾞﾜｹﾝ","kana_city":"ｶﾝｵﾝｼﾞｼ","kana_address":"ﾓﾄﾀﾞｲﾁｮｳ","pref":"香川県","city":"観音寺市","address":"本大町"},
{"zip_code":"7680061","kana_pref":"ｶｶﾞﾜｹﾝ","kana_city":"ｶﾝｵﾝｼﾞｼ","kana_address":"ﾔﾊﾀﾁｮｳ","pref":"香川県","city":"観音寺市","address":"八幡町"},
{"zip_code":"7680021","kana_pref":"ｶｶﾞﾜｹﾝ","kana_city":"ｶﾝｵﾝｼﾞｼ","kana_address":"ﾖｼｵｶﾁｮｳ","pref":"香川県","city":"観音寺市","address":"吉岡町"},
{"zip_code":"7680102","kana_pref":"ｶｶﾞﾜｹﾝ","kana_city":"ﾐﾄﾖｼ","kana_address":"ﾔﾏﾓﾄﾁｮｳｵｵﾉ","pref":"香川県","city":"三豊市","address":"山本町大野"},
{"zip_code":"7680104","kana_pref":"ｶｶﾞﾜｹﾝ","kana_city":"ﾐﾄﾖｼ","kana_address":"ﾔﾏﾓﾄﾁｮｳｺｳﾀﾞ","pref":"香川県","city":"三豊市","address":"山本町神田"},
{"zip_code":"7680105","kana_pref":"ｶｶﾞﾜｹﾝ","kana_city":"ﾐﾄﾖｼ","kana_address":"ﾔﾏﾓﾄﾁｮｳｺｳﾁ","pref":"香川県","city":"三豊市","address":"山本町河内"},
{"zip_code":"7680103","kana_pref":"ｶｶﾞﾜｹﾝ","kana_city":"ﾐﾄﾖｼ","kana_address":"ﾔﾏﾓﾄﾁｮｳｻｲﾀﾆｼ","pref":"香川県","city":"三豊市","address":"山本町財田西"},
{"zip_code":"7680101","kana_pref":"ｶｶﾞﾜｹﾝ","kana_city":"ﾐﾄﾖｼ","kana_address":"ﾔﾏﾓﾄﾁｮｳﾂｼﾞ","pref":"香川県","city":"三豊市","address":"山本町辻"}]}