{"zip_code":[
{"zip_code":"7690105","kana_pref":"ｶｶﾞﾜｹﾝ","kana_city":"ﾀｶﾏﾂｼ","kana_address":"ｺｸﾌﾞﾝｼﾞﾁｮｳｶｼﾊﾗ","pref":"香川県","city":"高松市","address":"国分寺町柏原"},
{"zip_code":"7690102","kana_pref":"ｶｶﾞﾜｹﾝ","kana_city":"ﾀｶﾏﾂｼ","kana_address":"ｺｸﾌﾞﾝｼﾞﾁｮｳｺｸﾌﾞ","pref":"香川県","city":"高松市","address":"国分寺町国分"},
{"zip_code":"7690104","kana_pref":"ｶｶﾞﾜｹﾝ","kana_city":"ﾀｶﾏﾂｼ","kana_address":"ｺｸﾌﾞﾝｼﾞﾁｮｳｼﾝﾐｮｳ","pref":"香川県","city":"高松市","address":"国分寺町新名"},
{"zip_code":"7690101","kana_pref":"ｶｶﾞﾜｹﾝ","kana_city":"ﾀｶﾏﾂｼ","kana_address":"ｺｸﾌﾞﾝｼﾞﾁｮｳﾆｲ","pref":"香川県","city":"高松市","address":"国分寺町新居"},
{"zip_code":"7690103","kana_pref":"ｶｶﾞﾜｹﾝ","kana_city":"ﾀｶﾏﾂｼ","kana_address":"ｺｸﾌﾞﾝｼﾞﾁｮｳﾌｹ","pref":"香川県","city":"高松市","address":"国分寺町福家"},
{"zip_code":"7691617","kana_pref":"ｶｶﾞﾜｹﾝ","kana_city":"ｶﾝｵﾝｼﾞｼ","kana_address":"ｵｵﾉﾊﾗﾁｮｳｱｵｵｶ","pref":"香川県","city":"観音寺市","address":"大野原町青岡"},
{"zip_code":"7691624","kana_pref":"ｶｶﾞﾜｹﾝ","kana_city":"ｶﾝｵﾝｼﾞｼ","kana_address":"ｵｵﾉﾊﾗﾁｮｳｱﾘｷ","pref":"香川県","city":"観音寺市","address":"大野原町有木"},
{"zip_code":"7691621","kana_pref":"ｶｶﾞﾜｹﾝ","kana_city":"ｶﾝｵﾝｼﾞｼ","kana_address":"ｵｵﾉﾊﾗﾁｮｳｲｾｷ","pref":"香川県","city":"観音寺市","address":"大野原町井関"},
{"zip_code":"7691622","kana_pref":"ｶｶﾞﾜｹﾝ","kana_city":"ｶﾝｵﾝｼﾞｼ","kana_address":"ｵｵﾉﾊﾗﾁｮｳｳﾁﾉﾉ","pref":"香川県","city":"観音寺市","address":"大野原町内野々"},
{"zip_code":"7691625","kana_pref":"ｶｶﾞﾜｹﾝ","kana_city":"ｶﾝｵﾝｼﾞｼ","kana_address":"ｵｵﾉﾊﾗﾁｮｳｴﾋﾞｽｸｲ","pref":"香川県","city":"観音寺市","address":"大野原町海老済"},
{"zip_code":"7691611","kana_pref":"ｶｶﾞﾜｹﾝ","kana_city":"ｶﾝｵﾝｼﾞｼ","kana_address":"ｵｵﾉﾊﾗﾁｮｳｵｵﾉﾊﾗ","pref":"香川県","city":"観音寺市","address":"大野原町大野原"},
{"zip_code":"7691623","kana_pref":"ｶｶﾞﾜｹﾝ","kana_city":"ｶﾝｵﾝｼﾞｼ","kana_address":"ｵｵﾉﾊﾗﾁｮｳﾀﾉﾉ","pref":"香川県","city":"観音寺市","address":"大野原町田野々"},
{"zip_code":"7691612","kana_pref":"ｶｶﾞﾜｹﾝ","kana_city":"ｶﾝｵﾝｼﾞｼ","kana_address":"ｵｵﾉﾊﾗﾁｮｳﾅｶﾋﾒ","pref":"香川県","city":"観音寺市","address":"大野原町中姫"},
{"zip_code":"7691614","kana_pref":"ｶｶﾞﾜｹﾝ","kana_city":"ｶﾝｵﾝｼﾞｼ","kana_address":"ｵｵﾉﾊﾗﾁｮｳﾊｷﾞﾜﾗ","pref":"香川県","city":"観音寺市","address":"大野原町萩原"},
{"zip_code":"7691613","kana_pref":"ｶｶﾞﾜｹﾝ","kana_city":"ｶﾝｵﾝｼﾞｼ","kana_address":"ｵｵﾉﾊﾗﾁｮｳﾊﾅｲﾅ","pref":"香川県","city":"観音寺市","address":"大野原町花稲"},
{"zip_code":"7691616","kana_pref":"ｶｶﾞﾜｹﾝ","kana_city":"ｶﾝｵﾝｼﾞｼ","kana_address":"ｵｵﾉﾊﾗﾁｮｳﾌｸﾀﾞﾊﾗ","pref":"香川県","city":"観音寺市","address":"大野原町福田原"},
{"zip_code":"7691615","kana_pref":"ｶｶﾞﾜｹﾝ","kana_city":"ｶﾝｵﾝｼﾞｼ","kana_address":"ｵｵﾉﾊﾗﾁｮｳﾏﾙｲ","pref":"香川県","city":"観音寺市","address":"大野原町丸井"},
{"zip_code":"7691601","kana_pref":"ｶｶﾞﾜｹﾝ","kana_city":"ｶﾝｵﾝｼﾞｼ","kana_address":"ﾄﾖﾊﾏﾁｮｳﾋﾒﾊﾏ","pref":"香川県","city":"観音寺市","address":"豊浜町姫浜"},
{"zip_code":"7691604","kana_pref":"ｶｶﾞﾜｹﾝ","kana_city":"ｶﾝｵﾝｼﾞｼ","kana_address":"ﾄﾖﾊﾏﾁｮｳﾐﾉｳﾗ","pref":"香川県","city":"観音寺市","address":"豊浜町箕浦"},
{"zip_code":"7691603","kana_pref":"ｶｶﾞﾜｹﾝ","kana_city":"ｶﾝｵﾝｼﾞｼ","kana_address":"ﾄﾖﾊﾏﾁｮｳﾜﾀﾞ","pref":"香川県","city":"観音寺市","address":"豊浜町和田"},
{"zip_code":"7691602","kana_pref":"ｶｶﾞﾜｹﾝ","kana_city":"ｶﾝｵﾝｼﾞｼ","kana_address":"ﾄﾖﾊﾏﾁｮｳﾜﾀﾞﾊﾏ","pref":"香川県","city":"観音寺市","address":"豊浜町和田浜"},
{"zip_code":"7692300","kana_pref":"ｶｶﾞﾜｹﾝ","kana_city":"ｻﾇｷｼ","kana_address":"","pref":"香川県","city":"さぬき市","address":""},
{"zip_code":"7692103","kana_pref":"ｶｶﾞﾜｹﾝ","kana_city":"ｻﾇｷｼ","kana_address":"ｵﾀﾞ","pref":"香川県","city":"さぬき市","address":"小田"},
{"zip_code":"7692104","kana_pref":"ｶｶﾞﾜｹﾝ","kana_city":"ｻﾇｷｼ","kana_address":"ｶﾍﾞ","pref":"香川県","city":"さぬき市","address":"鴨部"},
{"zip_code":"7692102","kana_pref":"ｶｶﾞﾜｹﾝ","kana_city":"ｻﾇｷｼ","kana_address":"ｶﾓｼｮｳ","pref":"香川県","city":"さぬき市","address":"鴨庄"},
{"zip_code":"7692322","kana_pref":"ｶｶﾞﾜｹﾝ","kana_city":"ｻﾇｷｼ","kana_address":"ｻﾝｶﾞﾜﾏﾁｲｼﾀﾞﾆｼ","pref":"香川県","city":"さぬき市","address":"寒川町石田西"},
{"zip_code":"7692321","kana_pref":"ｶｶﾞﾜｹﾝ","kana_city":"ｻﾇｷｼ","kana_address":"ｻﾝｶﾞﾜﾏﾁｲｼﾀﾞﾋｶﾞｼ","pref":"香川県","city":"さぬき市","address":"寒川町石田東"},
{"zip_code":"7692323","kana_pref":"ｶｶﾞﾜｹﾝ","kana_city":"ｻﾇｷｼ","kana_address":"ｻﾝｶﾞﾜﾏﾁｶﾝｻﾞｷ","pref":"香川県","city":"さぬき市","address":"寒川町神前"},
{"zip_code":"7692101","kana_pref":"ｶｶﾞﾜｹﾝ","kana_city":"ｻﾇｷｼ","kana_address":"ｼﾄﾞ","pref":"香川県","city":"さぬき市","address":"志度"},
{"zip_code":"7692304","kana_pref":"ｶｶﾞﾜｹﾝ","kana_city":"ｻﾇｷｼ","kana_address":"ｼｮｳﾜ","pref":"香川県","city":"さぬき市","address":"昭和"},
{"zip_code":"7692105","kana_pref":"ｶｶﾞﾜｹﾝ","kana_city":"ｻﾇｷｼ","kana_address":"ｽｴ","pref":"香川県","city":"さぬき市","address":"末"},
{"zip_code":"7692315","kana_pref":"ｶｶﾞﾜｹﾝ","kana_city":"ｻﾇｷｼ","kana_address":"ｿﾞｳﾀ","pref":"香川県","city":"さぬき市","address":"造田"},
{"zip_code":"7692314","kana_pref":"ｶｶﾞﾜｹﾝ","kana_city":"ｻﾇｷｼ","kana_address":"ｿﾞｳﾀｵﾄｲ","pref":"香川県","city":"さぬき市","address":"造田乙井"},
{"zip_code":"7692312","kana_pref":"ｶｶﾞﾜｹﾝ","kana_city":"ｻﾇｷｼ","kana_address":"ｿﾞｳﾀｺﾚﾋﾛ","pref":"香川県","city":"さぬき市","address":"造田是弘"},
{"zip_code":"7692313","kana_pref":"ｶｶﾞﾜｹﾝ","kana_city":"ｻﾇｷｼ","kana_address":"ｿﾞｳﾀﾉﾏﾀﾞ","pref":"香川県","city":"さぬき市","address":"造田野間田"},
{"zip_code":"7692311","kana_pref":"ｶｶﾞﾜｹﾝ","kana_city":"ｻﾇｷｼ","kana_address":"ｿﾞｳﾀﾐﾔﾆｼ","pref":"香川県","city":"さぬき市","address":"造田宮西"},
{"zip_code":"7692306","kana_pref":"ｶｶﾞﾜｹﾝ","kana_city":"ｻﾇｷｼ","kana_address":"ﾀﾜ","pref":"香川県","city":"さぬき市","address":"多和"},
{"zip_code":"7692401","kana_pref":"ｶｶﾞﾜｹﾝ","kana_city":"ｻﾇｷｼ","kana_address":"ﾂﾀﾞﾏﾁﾂﾀﾞ","pref":"香川県","city":"さぬき市","address":"津田町津田"},
{"zip_code":"7692402","kana_pref":"ｶｶﾞﾜｹﾝ","kana_city":"ｻﾇｷｼ","kana_address":"ﾂﾀﾞﾏﾁﾂﾙﾜ","pref":"香川県","city":"さぬき市","address":"津田町鶴羽"},
{"zip_code":"7692302","kana_pref":"ｶｶﾞﾜｹﾝ","kana_city":"ｻﾇｷｼ","kana_address":"ﾅｶﾞｵﾆｼ","pref":"香川県","city":"さぬき市","address":"長尾西"},
{"zip_code":"7692301","kana_pref":"ｶｶﾞﾜｹﾝ","kana_city":"ｻﾇｷｼ","kana_address":"ﾅｶﾞｵﾋｶﾞｼ","pref":"香川県","city":"さぬき市","address":"長尾東"},
{"zip_code":"7692303","kana_pref":"ｶｶﾞﾜｹﾝ","kana_city":"ｻﾇｷｼ","kana_address":"ﾅｶﾞｵﾐｮｳ","pref":"香川県","city":"さぬき市","address":"長尾名"},
{"zip_code":"7692305","kana_pref":"ｶｶﾞﾜｹﾝ","kana_city":"ｻﾇｷｼ","kana_address":"ﾏｴﾔﾏ","pref":"香川県","city":"さぬき市","address":"前山"},
{"zip_code":"7692700","kana_pref":"ｶｶﾞﾜｹﾝ","kana_city":"ﾋｶﾞｼｶｶﾞﾜｼ","kana_address":"","pref":"香川県","city":"東かがわ市","address":""},
{"zip_code":"7692703","kana_pref":"ｶｶﾞﾜｹﾝ","kana_city":"ﾋｶﾞｼｶｶﾞﾜｼ","kana_address":"ｲｻﾞ","pref":"香川県","city":"東かがわ市","address":"伊座"},
{"zip_code":"7692520","kana_pref":"ｶｶﾞﾜｹﾝ","kana_city":"ﾋｶﾞｼｶｶﾞﾜｼ","kana_address":"ｳﾏｼﾉ","pref":"香川県","city":"東かがわ市","address":"馬篠"},
{"zip_code":"7692902","kana_pref":"ｶｶﾞﾜｹﾝ","kana_city":"ﾋｶﾞｼｶｶﾞﾜｼ","kana_address":"ｳﾏﾔﾄﾞ","pref":"香川県","city":"東かがわ市","address":"馬宿"},
{"zip_code":"7692908","kana_pref":"ｶｶﾞﾜｹﾝ","kana_city":"ﾋｶﾞｼｶｶﾞﾜｼ","kana_address":"ｵｳﾐ","pref":"香川県","city":"東かがわ市","address":"小海"},
{"zip_code":"7692513","kana_pref":"ｶｶﾞﾜｹﾝ","kana_city":"ﾋｶﾞｼｶｶﾞﾜｼ","kana_address":"ｵｵﾀﾆ","pref":"香川県","city":"東かがわ市","address":"大谷"},
{"zip_code":"7692521","kana_pref":"ｶｶﾞﾜｹﾝ","kana_city":"ﾋｶﾞｼｶｶﾞﾜｼ","kana_address":"ｵｵﾁ","pref":"香川県","city":"東かがわ市","address":"大内"},
{"zip_code":"7692512","kana_pref":"ｶｶﾞﾜｹﾝ","kana_city":"ﾋｶﾞｼｶｶﾞﾜｼ","kana_address":"ｵﾁｱｲ","pref":"香川県","city":"東かがわ市","address":"落合"},
{"zip_code":"7692602","kana_pref":"ｶｶﾞﾜｹﾝ","kana_city":"ﾋｶﾞｼｶｶﾞﾜｼ","kana_address":"ｶﾜﾋｶﾞｼ","pref":"香川県","city":"東かがわ市","address":"川東"},
{"zip_code":"7692906","kana_pref":"ｶｶﾞﾜｹﾝ","kana_city":"ﾋｶﾞｼｶｶﾞﾜｼ","kana_address":"ｶﾜﾏﾀ","pref":"香川県","city":"東かがわ市","address":"川股"},
{"zip_code":"7692704","kana_pref":"ｶｶﾞﾜｹﾝ","kana_city":"ﾋｶﾞｼｶｶﾞﾜｼ","kana_address":"ｷﾗｲ","pref":"香川県","city":"東かがわ市","address":"帰来"},
{"zip_code":"7692905","kana_pref":"ｶｶﾞﾜｹﾝ","kana_city":"ﾋｶﾞｼｶｶﾞﾜｼ","kana_address":"ｸﾚﾊ","pref":"香川県","city":"東かがわ市","address":"黒羽"},
{"zip_code":"7692511","kana_pref":"ｶｶﾞﾜｹﾝ","kana_city":"ﾋｶﾞｼｶｶﾞﾜｼ","kana_address":"ｺｲｿ","pref":"香川県","city":"東かがわ市","address":"小磯"},
{"zip_code":"7692519","kana_pref":"ｶｶﾞﾜｹﾝ","kana_city":"ﾋｶﾞｼｶｶﾞﾜｼ","kana_address":"ｺｻﾞﾚ","pref":"香川県","city":"東かがわ市","address":"小砂"},
{"zip_code":"7692715","kana_pref":"ｶｶﾞﾜｹﾝ","kana_city":"ﾋｶﾞｼｶｶﾞﾜｼ","kana_address":"ｺﾞﾐｮｳ","pref":"香川県","city":"東かがわ市","address":"五名"},
{"zip_code":"7692904","kana_pref":"ｶｶﾞﾜｹﾝ","kana_city":"ﾋｶﾞｼｶｶﾞﾜｼ","kana_address":"ｻｶﾓﾄ","pref":"香川県","city":"東かがわ市","address":"坂元"},
{"zip_code":"7692601","kana_pref":"ｶｶﾞﾜｹﾝ","kana_city":"ﾋｶﾞｼｶｶﾞﾜｼ","kana_address":"ｻﾝﾎﾞﾝﾏﾂ","pref":"香川県","city":"東かがわ市","address":"三本松"},
{"zip_code":"7692705","kana_pref":"ｶｶﾞﾜｹﾝ","kana_city":"ﾋｶﾞｼｶｶﾞﾜｼ","kana_address":"ｼﾛﾄﾘ","pref":"香川県","city":"東かがわ市","address":"白鳥"},
{"zip_code":"7692516","kana_pref":"ｶｶﾞﾜｹﾝ","kana_city":"ﾋｶﾞｼｶｶﾞﾜｼ","kana_address":"ﾄﾞｲ","pref":"香川県","city":"東かがわ市","address":"土居"},
{"zip_code":"7692605","kana_pref":"ｶｶﾞﾜｹﾝ","kana_city":"ﾋｶﾞｼｶｶﾞﾜｼ","kana_address":"ﾅｶｽｼﾞ","pref":"香川県","city":"東かがわ市","address":"中筋"},
{"zip_code":"7692518","kana_pref":"ｶｶﾞﾜｹﾝ","kana_city":"ﾋｶﾞｼｶｶﾞﾜｼ","kana_address":"ﾅｶﾔﾏ","pref":"香川県","city":"東かがわ市","address":"中山"},
{"zip_code":"7692604","kana_pref":"ｶｶﾞﾜｹﾝ","kana_city":"ﾋｶﾞｼｶｶﾞﾜｼ","kana_address":"ﾆｼﾑﾗ","pref":"香川県","city":"東かがわ市","address":"西村"},
{"zip_code":"7692712","kana_pref":"ｶｶﾞﾜｹﾝ","kana_city":"ﾋｶﾞｼｶｶﾞﾜｼ","kana_address":"ﾆｼﾔﾏ","pref":"香川県","city":"東かがわ市","address":"西山"},
{"zip_code":"7692714","kana_pref":"ｶｶﾞﾜｹﾝ","kana_city":"ﾋｶﾞｼｶｶﾞﾜｼ","kana_address":"ﾆｭｳﾉﾔﾏ","pref":"香川県","city":"東かがわ市","address":"入野山"},
{"zip_code":"7692711","kana_pref":"ｶｶﾞﾜｹﾝ","kana_city":"ﾋｶﾞｼｶｶﾞﾜｼ","kana_address":"ﾋｶﾞｼﾔﾏ","pref":"香川県","city":"東かがわ市","address":"東山"},
{"zip_code":"7692901","kana_pref":"ｶｶﾞﾜｹﾝ","kana_city":"ﾋｶﾞｼｶｶﾞﾜｼ","kana_address":"ﾋｹﾀ","pref":"香川県","city":"東かがわ市","address":"引田"},
{"zip_code":"7692515","kana_pref":"ｶｶﾞﾜｹﾝ","kana_city":"ﾋｶﾞｼｶｶﾞﾜｼ","kana_address":"ﾏﾁﾀﾞ","pref":"香川県","city":"東かがわ市","address":"町田"},
{"zip_code":"7692514","kana_pref":"ｶｶﾞﾜｹﾝ","kana_city":"ﾋｶﾞｼｶｶﾞﾜｼ","kana_address":"ﾏﾂｻｷ","pref":"香川県","city":"東かがわ市","address":"松崎"},
{"zip_code":"7692702","kana_pref":"ｶｶﾞﾜｹﾝ","kana_city":"ﾋｶﾞｼｶｶﾞﾜｼ","kana_address":"ﾏﾂﾊﾞﾗ","pref":"香川県","city":"東かがわ市","address":"松原"},
{"zip_code":"7692606","kana_pref":"ｶｶﾞﾜｹﾝ","kana_city":"ﾋｶﾞｼｶｶﾞﾜｼ","kana_address":"ﾐｽﾞｼ","pref":"香川県","city":"東かがわ市","address":"水主"},
{"zip_code":"7692517","kana_pref":"ｶｶﾞﾜｹﾝ","kana_city":"ﾋｶﾞｼｶｶﾞﾜｼ","kana_address":"ﾐﾄﾞﾉ","pref":"香川県","city":"東かがわ市","address":"三殿"},
{"zip_code":"7692701","kana_pref":"ｶｶﾞﾜｹﾝ","kana_city":"ﾋｶﾞｼｶｶﾞﾜｼ","kana_address":"ﾐﾅﾄ","pref":"香川県","city":"東かがわ市","address":"湊"},
{"zip_code":"7692903","kana_pref":"ｶｶﾞﾜｹﾝ","kana_city":"ﾋｶﾞｼｶｶﾞﾜｼ","kana_address":"ﾐﾅﾐﾉ","pref":"香川県","city":"東かがわ市","address":"南野"},
{"zip_code":"7692603","kana_pref":"ｶｶﾞﾜｹﾝ","kana_city":"ﾋｶﾞｼｶｶﾞﾜｼ","kana_address":"ﾖｺｳﾁ","pref":"香川県","city":"東かがわ市","address":"横内"},
{"zip_code":"7692907","kana_pref":"ｶｶﾞﾜｹﾝ","kana_city":"ﾋｶﾞｼｶｶﾞﾜｼ","kana_address":"ﾖｼﾀﾞ","pref":"香川県","city":"東かがわ市","address":"吉田"},
{"zip_code":"7692713","kana_pref":"ｶｶﾞﾜｹﾝ","kana_city":"ﾋｶﾞｼｶｶﾞﾜｼ","kana_address":"ﾖﾀﾞﾔﾏ","pref":"香川県","city":"東かがわ市","address":"与田山"},
{"zip_code":"7690401","kana_pref":"ｶｶﾞﾜｹﾝ","kana_city":"ﾐﾄﾖｼ","kana_address":"ｻｲﾀﾁｮｳｻｲﾀｶﾐ","pref":"香川県","city":"三豊市","address":"財田町財田上"},
{"zip_code":"7690402","kana_pref":"ｶｶﾞﾜｹﾝ","kana_city":"ﾐﾄﾖｼ","kana_address":"ｻｲﾀﾁｮｳｻｲﾀﾅｶ","pref":"香川県","city":"三豊市","address":"財田町財田中"},
{"zip_code":"7691108","kana_pref":"ｶｶﾞﾜｹﾝ","kana_city":"ﾐﾄﾖｼ","kana_address":"ﾀｸﾏﾁｮｳｱﾜｼﾏ","pref":"香川県","city":"三豊市","address":"詫間町粟島"},
{"zip_code":"7691104","kana_pref":"ｶｶﾞﾜｹﾝ","kana_city":"ﾐﾄﾖｼ","kana_address":"ﾀｸﾏﾁｮｳｵｵﾊﾏ","pref":"香川県","city":"三豊市","address":"詫間町大浜"},
{"zip_code":"7691103","kana_pref":"ｶｶﾞﾜｹﾝ","kana_city":"ﾐﾄﾖｼ","kana_address":"ﾀｸﾏﾁｮｳｺｳﾀﾞ","pref":"香川県","city":"三豊市","address":"詫間町香田"},
{"zip_code":"7691109","kana_pref":"ｶｶﾞﾜｹﾝ","kana_city":"ﾐﾄﾖｼ","kana_address":"ﾀｸﾏﾁｮｳｼｼｼﾞﾏ","pref":"香川県","city":"三豊市","address":"詫間町志々島"},
{"zip_code":"7691101","kana_pref":"ｶｶﾞﾜｹﾝ","kana_city":"ﾐﾄﾖｼ","kana_address":"ﾀｸﾏﾁｮｳﾀｸﾏ","pref":"香川県","city":"三豊市","address":"詫間町詫間"},
{"zip_code":"7691105","kana_pref":"ｶｶﾞﾜｹﾝ","kana_city":"ﾐﾄﾖｼ","kana_address":"ﾀｸﾏﾁｮｳﾂﾑ","pref":"香川県","city":"三豊市","address":"詫間町積"},
{"zip_code":"7691107","kana_pref":"ｶｶﾞﾜｹﾝ","kana_city":"ﾐﾄﾖｼ","kana_address":"ﾀｸﾏﾁｮｳﾅﾏﾘ","pref":"香川県","city":"三豊市","address":"詫間町生里"},
{"zip_code":"7691106","kana_pref":"ｶｶﾞﾜｹﾝ","kana_city":"ﾐﾄﾖｼ","kana_address":"ﾀｸﾏﾁｮｳﾊｺ","pref":"香川県","city":"三豊市","address":"詫間町箱"},
{"zip_code":"7691102","kana_pref":"ｶｶﾞﾜｹﾝ","kana_city":"ﾐﾄﾖｼ","kana_address":"ﾀｸﾏﾁｮｳﾏﾂｻｷ","pref":"香川県","city":"三豊市","address":"詫間町松崎"},
{"zip_code":"7691507","kana_pref":"ｶｶﾞﾜｹﾝ","kana_city":"ﾐﾄﾖｼ","kana_address":"ﾄﾖﾅｶﾁｮｳｵｶﾓﾄ","pref":"香川県","city":"三豊市","address":"豊中町岡本"},
{"zip_code":"7691502","kana_pref":"ｶｶﾞﾜｹﾝ","kana_city":"ﾐﾄﾖｼ","kana_address":"ﾄﾖﾅｶﾁｮｳｶｻﾀﾞｶｻｵｶ","pref":"香川県","city":"三豊市","address":"豊中町笠田笠岡"},
{"zip_code":"7691503","kana_pref":"ｶｶﾞﾜｹﾝ","kana_city":"ﾐﾄﾖｼ","kana_address":"ﾄﾖﾅｶﾁｮｳｶｻﾀﾞﾀｹﾀﾞ","pref":"香川県","city":"三豊市","address":"豊中町笠田竹田"},
{"zip_code":"7691504","kana_pref":"ｶｶﾞﾜｹﾝ","kana_city":"ﾐﾄﾖｼ","kana_address":"ﾄﾖﾅｶﾁｮｳｶﾐﾀﾞｶﾉ","pref":"香川県","city":"三豊市","address":"豊中町上高野"},
{"zip_code":"7691508","kana_pref":"ｶｶﾞﾜｹﾝ","kana_city":"ﾐﾄﾖｼ","kana_address":"ﾄﾖﾅｶﾁｮｳｼﾓﾀﾞｶﾉ","pref":"香川県","city":"三豊市","address":"豊中町下高野"},
{"zip_code":"7691501","kana_pref":"ｶｶﾞﾜｹﾝ","kana_city":"ﾐﾄﾖｼ","kana_address":"ﾄﾖﾅｶﾁｮｳﾋｼﾞﾀﾞｲ","pref":"香川県","city":"三豊市","address":"豊中町比地大"},
{"zip_code":"7691505","kana_pref":"ｶｶﾞﾜｹﾝ","kana_city":"ﾐﾄﾖｼ","kana_address":"ﾄﾖﾅｶﾁｮｳﾓﾄﾔﾏｵﾂ","pref":"香川県","city":"三豊市","address":"豊中町本山乙"},
{"zip_code":"7691506","kana_pref":"ｶｶﾞﾜｹﾝ","kana_city":"ﾐﾄﾖｼ","kana_address":"ﾄﾖﾅｶﾁｮｳﾓﾄﾔﾏｺｳ","pref":"香川県","city":"三豊市","address":"豊中町本山甲"},
{"zip_code":"7691410","kana_pref":"ｶｶﾞﾜｹﾝ","kana_city":"ﾐﾄﾖｼ","kana_address":"ﾆｵﾁｮｳｲｴﾉｳﾗ","pref":"香川県","city":"三豊市","address":"仁尾町家の浦"},
{"zip_code":"7691404","kana_pref":"ｶｶﾞﾜｹﾝ","kana_city":"ﾐﾄﾖｼ","kana_address":"ﾆｵﾁｮｳﾆｵｵﾂ","pref":"香川県","city":"三豊市","address":"仁尾町仁尾乙"},
{"zip_code":"7691401","kana_pref":"ｶｶﾞﾜｹﾝ","kana_city":"ﾐﾄﾖｼ","kana_address":"ﾆｵﾁｮｳﾆｵｷ","pref":"香川県","city":"三豊市","address":"仁尾町仁尾己"},
{"zip_code":"7691408","kana_pref":"ｶｶﾞﾜｹﾝ","kana_city":"ﾐﾄﾖｼ","kana_address":"ﾆｵﾁｮｳﾆｵｺｳ","pref":"香川県","city":"三豊市","address":"仁尾町仁尾甲"},
{"zip_code":"7691405","kana_pref":"ｶｶﾞﾜｹﾝ","kana_city":"ﾐﾄﾖｼ","kana_address":"ﾆｵﾁｮｳﾆｵｺｳ","pref":"香川県","city":"三豊市","address":"仁尾町仁尾庚"},
{"zip_code":"7691406","kana_pref":"ｶｶﾞﾜｹﾝ","kana_city":"ﾐﾄﾖｼ","kana_address":"ﾆｵﾁｮｳﾆｵｼﾝ","pref":"香川県","city":"三豊市","address":"仁尾町仁尾辛"},
{"zip_code":"7691407","kana_pref":"ｶｶﾞﾜｹﾝ","kana_city":"ﾐﾄﾖｼ","kana_address":"ﾆｵﾁｮｳﾆｵﾃｲ","pref":"香川県","city":"三豊市","address":"仁尾町仁尾丁"},
{"zip_code":"7691403","kana_pref":"ｶｶﾞﾜｹﾝ","kana_city":"ﾐﾄﾖｼ","kana_address":"ﾆｵﾁｮｳﾆｵﾍｲ","pref":"香川県","city":"三豊市","address":"仁尾町仁尾丙"},
{"zip_code":"7691402","kana_pref":"ｶｶﾞﾜｹﾝ","kana_city":"ﾐﾄﾖｼ","kana_address":"ﾆｵﾁｮｳﾆｵﾎﾞ","pref":"香川県","city":"三豊市","address":"仁尾町仁尾戊"},
{"zip_code":"7690200","kana_pref":"ｶｶﾞﾜｹﾝ","kana_city":"ｱﾔｳﾀｸﾞﾝｳﾀﾂﾞﾁｮｳ","kana_address":"","pref":"香川県","city":"綾歌郡宇多津町","address":""},
{"zip_code":"7690210","kana_pref":"ｶｶﾞﾜｹﾝ","kana_city":"ｱﾔｳﾀｸﾞﾝｳﾀﾂﾞﾁｮｳ","kana_address":"ｳﾀﾂﾞﾁｮｳﾉﾂｷﾞﾆﾊﾞﾝﾁｶﾞｸﾙﾊﾞｱｲ","pref":"香川県","city":"綾歌郡宇多津町","address":"宇多津町の次に番地がくる場合"},
{"zip_code":"7690227","kana_pref":"ｶｶﾞﾜｹﾝ","kana_city":"ｱﾔｳﾀｸﾞﾝｳﾀﾂﾞﾁｮｳ","kana_address":"ｲﾜﾔ","pref":"香川県","city":"綾歌郡宇多津町","address":"岩屋"},
{"zip_code":"7690222","kana_pref":"ｶｶﾞﾜｹﾝ","kana_city":"ｱﾔｳﾀｸﾞﾝｳﾀﾂﾞﾁｮｳ","kana_address":"ｵｵﾊｼ","pref":"香川県","city":"綾歌郡宇多津町","address":"大橋"},
{"zip_code":"7690226","kana_pref":"ｶｶﾞﾜｹﾝ","kana_city":"ｱﾔｳﾀｸﾞﾝｳﾀﾂﾞﾁｮｳ","kana_address":"ｻｶｼﾀ","pref":"香川県","city":"綾歌郡宇多津町","address":"坂下"},
{"zip_code":"7690223","kana_pref":"ｶｶﾞﾜｹﾝ","kana_city":"ｱﾔｳﾀｸﾞﾝｳﾀﾂﾞﾁｮｳ","kana_address":"ｼﾝｶﾞｲ","pref":"香川県","city":"綾歌郡宇多津町","address":"新開"},
{"zip_code":"7690225","kana_pref":"ｶｶﾞﾜｹﾝ","kana_city":"ｱﾔｳﾀｸﾞﾝｳﾀﾂﾞﾁｮｳ","kana_address":"ｼﾝﾏﾁ","pref":"香川県","city":"綾歌郡宇多津町","address":"新町"},
{"zip_code":"7690211","kana_pref":"ｶｶﾞﾜｹﾝ","kana_city":"ｱﾔｳﾀｸﾞﾝｳﾀﾂﾞﾁｮｳ","kana_address":"ｼﾞｭｳﾗｸｼﾞ","pref":"香川県","city":"綾歌郡宇多津町","address":"十楽寺"},
{"zip_code":"7690212","kana_pref":"ｶｶﾞﾜｹﾝ","kana_city":"ｱﾔｳﾀｸﾞﾝｳﾀﾂﾞﾁｮｳ","kana_address":"ﾇﾏﾉｲｹ","pref":"香川県","city":"綾歌郡宇多津町","address":"沼ノ池"},
{"zip_code":"7690201","kana_pref":"ｶｶﾞﾜｹﾝ","kana_city":"ｱﾔｳﾀｸﾞﾝｳﾀﾂﾞﾁｮｳ","kana_address":"ﾊﾏ1ﾊﾞﾝﾁｮｳ","pref":"香川県","city":"綾歌郡宇多津町","address":"浜一番丁"},
{"zip_code":"7690202","kana_pref":"ｶｶﾞﾜｹﾝ","kana_city":"ｱﾔｳﾀｸﾞﾝｳﾀﾂﾞﾁｮｳ","kana_address":"ﾊﾏ2ﾊﾞﾝﾁｮｳ","pref":"香川県","city":"綾歌郡宇多津町","address":"浜二番丁"},
{"zip_code":"7690203","kana_pref":"ｶｶﾞﾜｹﾝ","kana_city":"ｱﾔｳﾀｸﾞﾝｳﾀﾂﾞﾁｮｳ","kana_address":"ﾊﾏ3ﾊﾞﾝﾁｮｳ","pref":"香川県","city":"綾歌郡宇多津町","address":"浜三番丁"},
{"zip_code":"7690204","kana_pref":"ｶｶﾞﾜｹﾝ","kana_city":"ｱﾔｳﾀｸﾞﾝｳﾀﾂﾞﾁｮｳ","kana_address":"ﾊﾏ4ﾊﾞﾝﾁｮｳ","pref":"香川県","city":"綾歌郡宇多津町","address":"浜四番丁"},
{"zip_code":"7690205","kana_pref":"ｶｶﾞﾜｹﾝ","kana_city":"ｱﾔｳﾀｸﾞﾝｳﾀﾂﾞﾁｮｳ","kana_address":"ﾊﾏ5ﾊﾞﾝﾁｮｳ","pref":"香川県","city":"綾歌郡宇多津町","address":"浜五番丁"},
{"zip_code":"7690206","kana_pref":"ｶｶﾞﾜｹﾝ","kana_city":"ｱﾔｳﾀｸﾞﾝｳﾀﾂﾞﾁｮｳ","kana_address":"ﾊﾏ6ﾊﾞﾝﾁｮｳ","pref":"香川県","city":"綾歌郡宇多津町","address":"浜六番丁"},
{"zip_code":"7690207","kana_pref":"ｶｶﾞﾜｹﾝ","kana_city":"ｱﾔｳﾀｸﾞﾝｳﾀﾂﾞﾁｮｳ","kana_address":"ﾊﾏ7ﾊﾞﾝﾁｮｳ","pref":"香川県","city":"綾歌郡宇多津町","address":"浜七番丁"},
{"zip_code":"7690208","kana_pref":"ｶｶﾞﾜｹﾝ","kana_city":"ｱﾔｳﾀｸﾞﾝｳﾀﾂﾞﾁｮｳ","kana_address":"ﾊﾏ8ﾊﾞﾝﾁｮｳ","pref":"香川県","city":"綾歌郡宇多津町","address":"浜八番丁"},
{"zip_code":"7690209","kana_pref":"ｶｶﾞﾜｹﾝ","kana_city":"ｱﾔｳﾀｸﾞﾝｳﾀﾂﾞﾁｮｳ","kana_address":"ﾊﾏ9ﾊﾞﾝﾁｮｳ","pref":"香川県","city":"綾歌郡宇多津町","address":"浜九番丁"},
{"zip_code":"7690213","kana_pref":"ｶｶﾞﾜｹﾝ","kana_city":"ｱﾔｳﾀｸﾞﾝｳﾀﾂﾞﾁｮｳ","kana_address":"ﾋｶﾞｼﾌﾞﾝ","pref":"香川県","city":"綾歌郡宇多津町","address":"東分"},
{"zip_code":"7690224","kana_pref":"ｶｶﾞﾜｹﾝ","kana_city":"ｱﾔｳﾀｸﾞﾝｳﾀﾂﾞﾁｮｳ","kana_address":"ﾋﾗﾔﾏ","pref":"香川県","city":"綾歌郡宇多津町","address":"平山"},
{"zip_code":"7690228","kana_pref":"ｶｶﾞﾜｹﾝ","kana_city":"ｱﾔｳﾀｸﾞﾝｳﾀﾂﾞﾁｮｳ","kana_address":"ﾑｶｳﾔﾏ","pref":"香川県","city":"綾歌郡宇多津町","address":"向山"},
{"zip_code":"7690221","kana_pref":"ｶｶﾞﾜｹﾝ","kana_city":"ｱﾔｳﾀｸﾞﾝｳﾀﾂﾞﾁｮｳ","kana_address":"ﾖｼﾀﾞ","pref":"香川県","city":"綾歌郡宇多津町","address":"吉田"},
{"zip_code":"7690313","kana_pref":"ｶｶﾞﾜｹﾝ","kana_city":"ﾅｶﾀﾄﾞｸﾞﾝﾏﾝﾉｳﾁｮｳ","kana_address":"ｲｶﾏ","pref":"香川県","city":"仲多度郡まんのう町","address":"生間"},
{"zip_code":"7690315","kana_pref":"ｶｶﾞﾜｹﾝ","kana_city":"ﾅｶﾀﾄﾞｸﾞﾝﾏﾝﾉｳﾁｮｳ","kana_address":"ｳｼﾛﾔﾏ","pref":"香川県","city":"仲多度郡まんのう町","address":"後山"},
{"zip_code":"7690319","kana_pref":"ｶｶﾞﾜｹﾝ","kana_city":"ﾅｶﾀﾄﾞｸﾞﾝﾏﾝﾉｳﾁｮｳ","kana_address":"ｵｲｱｹﾞ","pref":"香川県","city":"仲多度郡まんのう町","address":"追上"},
{"zip_code":"7690316","kana_pref":"ｶｶﾞﾜｹﾝ","kana_city":"ﾅｶﾀﾄﾞｸﾞﾝﾏﾝﾉｳﾁｮｳ","kana_address":"ｵｵｸﾁ","pref":"香川県","city":"仲多度郡まんのう町","address":"大口"},
{"zip_code":"7690311","kana_pref":"ｶｶﾞﾜｹﾝ","kana_city":"ﾅｶﾀﾄﾞｸﾞﾝﾏﾝﾉｳﾁｮｳ","kana_address":"ｶｲﾀ","pref":"香川県","city":"仲多度郡まんのう町","address":"買田"},
{"zip_code":"7690301","kana_pref":"ｶｶﾞﾜｹﾝ","kana_city":"ﾅｶﾀﾄﾞｸﾞﾝﾏﾝﾉｳﾁｮｳ","kana_address":"ｻﾌﾞﾐ","pref":"香川県","city":"仲多度郡まんのう町","address":"佐文"},
{"zip_code":"7690302","kana_pref":"ｶｶﾞﾜｹﾝ","kana_city":"ﾅｶﾀﾄﾞｸﾞﾝﾏﾝﾉｳﾁｮｳ","kana_address":"ｼｵｲﾘ","pref":"香川県","city":"仲多度郡まんのう町","address":"塩入"},
{"zip_code":"7690303","kana_pref":"ｶｶﾞﾜｹﾝ","kana_city":"ﾅｶﾀﾄﾞｸﾞﾝﾏﾝﾉｳﾁｮｳ","kana_address":"ｼﾁｶ","pref":"香川県","city":"仲多度郡まんのう町","address":"七箇"},
{"zip_code":"7690317","kana_pref":"ｶｶﾞﾜｹﾝ","kana_city":"ﾅｶﾀﾄﾞｸﾞﾝﾏﾝﾉｳﾁｮｳ","kana_address":"ｼﾝﾒ","pref":"香川県","city":"仲多度郡まんのう町","address":"新目"},
{"zip_code":"7690314","kana_pref":"ｶｶﾞﾜｹﾝ","kana_city":"ﾅｶﾀﾄﾞｸﾞﾝﾏﾝﾉｳﾁｮｳ","kana_address":"ﾎﾉﾔﾏ","pref":"香川県","city":"仲多度郡まんのう町","address":"帆山"},
{"zip_code":"7690312","kana_pref":"ｶｶﾞﾜｹﾝ","kana_city":"ﾅｶﾀﾄﾞｸﾞﾝﾏﾝﾉｳﾁｮｳ","kana_address":"ﾐﾔﾀﾞ","pref":"香川県","city":"仲多度郡まんのう町","address":"宮田"},
{"zip_code":"7690318","kana_pref":"ｶｶﾞﾜｹﾝ","kana_city":"ﾅｶﾀﾄﾞｸﾞﾝﾏﾝﾉｳﾁｮｳ","kana_address":"ﾔﾏﾜｷ","pref":"香川県","city":"仲多度郡まんのう町","address":"山脇"}]}