{"zip_code":[
{"zip_code":"7700000","kana_pref":"ﾄｸｼﾏｹﾝ","kana_city":"ﾄｸｼﾏｼ","kana_address":"","pref":"徳島県","city":"徳島市","address":""},
{"zip_code":"7700835","kana_pref":"ﾄｸｼﾏｹﾝ","kana_city":"ﾄｸｼﾏｼ","kana_address":"ｱｲﾊﾞﾁｮｳ","pref":"徳島県","city":"徳島市","address":"藍場町"},
{"zip_code":"7700934","kana_pref":"ﾄｸｼﾏｹﾝ","kana_city":"ﾄｸｼﾏｼ","kana_address":"ｱｷﾀﾏﾁ","pref":"徳島県","city":"徳島市","address":"秋田町"},
{"zip_code":"7700046","kana_pref":"ﾄｸｼﾏｹﾝ","kana_city":"ﾄｸｼﾏｼ","kana_address":"ｱｸｲﾁｮｳ","pref":"徳島県","city":"徳島市","address":"鮎喰町"},
{"zip_code":"7700863","kana_pref":"ﾄｸｼﾏｹﾝ","kana_city":"ﾄｸｼﾏｼ","kana_address":"ｱﾀｹ","pref":"徳島県","city":"徳島市","address":"安宅"},
{"zip_code":"7700926","kana_pref":"ﾄｸｼﾏｹﾝ","kana_city":"ﾄｸｼﾏｼ","kana_address":"ｲｶﾞﾁｮｳ","pref":"徳島県","city":"徳島市","address":"伊賀町"},
{"zip_code":"7700833","kana_pref":"ﾄｸｼﾏｹﾝ","kana_city":"ﾄｸｼﾏｼ","kana_address":"ｲﾁﾊﾞﾝﾁｮｳ","pref":"徳島県","city":"徳島市","address":"一番町"},
{"zip_code":"7700935","kana_pref":"ﾄｸｼﾏｹﾝ","kana_city":"ﾄｸｼﾏｼ","kana_address":"ｲﾂｷﾁｮｳ","pref":"徳島県","city":"徳島市","address":"伊月町"},
{"zip_code":"7708031","kana_pref":"ﾄｸｼﾏｹﾝ","kana_city":"ﾄｸｼﾏｼ","kana_address":"ｵｵﾀﾆﾁｮｳ","pref":"徳島県","city":"徳島市","address":"大谷町"},
{"zip_code":"7708012","kana_pref":"ﾄｸｼﾏｹﾝ","kana_city":"ﾄｸｼﾏｼ","kana_address":"ｵｵﾊﾞﾗﾁｮｳ","pref":"徳島県","city":"徳島市","address":"大原町"},
{"zip_code":"7708022","kana_pref":"ﾄｸｼﾏｹﾝ","kana_city":"ﾄｸｼﾏｼ","kana_address":"ｵｵﾏﾂﾁｮｳ","pref":"徳島県","city":"徳島市","address":"大松町"},
{"zip_code":"7700923","kana_pref":"ﾄｸｼﾏｹﾝ","kana_city":"ﾄｸｼﾏｼ","kana_address":"ｵｵﾐﾁ","pref":"徳島県","city":"徳島市","address":"大道"},
{"zip_code":"7708052","kana_pref":"ﾄｸｼﾏｹﾝ","kana_city":"ﾄｸｼﾏｼ","kana_address":"ｵｷﾉﾊﾏ","pref":"徳島県","city":"徳島市","address":"沖浜"},
{"zip_code":"7708051","kana_pref":"ﾄｸｼﾏｹﾝ","kana_city":"ﾄｸｼﾏｼ","kana_address":"ｵｷﾉﾊﾏﾁｮｳ","pref":"徳島県","city":"徳島市","address":"沖浜町"},
{"zip_code":"7708053","kana_pref":"ﾄｸｼﾏｹﾝ","kana_city":"ﾄｸｼﾏｼ","kana_address":"ｵｷﾉﾊﾏﾋｶﾞｼ","pref":"徳島県","city":"徳島市","address":"沖浜東"},
{"zip_code":"7700914","kana_pref":"ﾄｸｼﾏｹﾝ","kana_city":"ﾄｸｼﾏｼ","kana_address":"ｶｺﾞﾔﾏﾁ","pref":"徳島県","city":"徳島市","address":"籠屋町"},
{"zip_code":"7700002","kana_pref":"ﾄｸｼﾏｹﾝ","kana_city":"ﾄｸｼﾏｼ","kana_address":"ｶｽｶﾞ","pref":"徳島県","city":"徳島市","address":"春日"},
{"zip_code":"7700001","kana_pref":"ﾄｸｼﾏｹﾝ","kana_city":"ﾄｸｼﾏｼ","kana_address":"ｶｽｶﾞﾁｮｳ","pref":"徳島県","city":"徳島市","address":"春日町"},
{"zip_code":"7708033","kana_pref":"ﾄｸｼﾏｹﾝ","kana_city":"ﾄｸｼﾏｼ","kana_address":"ｶﾀﾉｶﾐﾁｮｳ","pref":"徳島県","city":"徳島市","address":"方上町"},
{"zip_code":"7700939","kana_pref":"ﾄｸｼﾏｹﾝ","kana_city":"ﾄｸｼﾏｼ","kana_address":"ｶﾁﾄﾞｷﾊﾞｼ","pref":"徳島県","city":"徳島市","address":"かちどき橋"},
{"zip_code":"7708023","kana_pref":"ﾄｸｼﾏｹﾝ","kana_city":"ﾄｸｼﾏｼ","kana_address":"ｶﾂﾗﾁｮｳ","pref":"徳島県","city":"徳島市","address":"勝占町"},
{"zip_code":"7700871","kana_pref":"ﾄｸｼﾏｹﾝ","kana_city":"ﾄｸｼﾏｼ","kana_address":"ｶﾅｻﾞﾜ","pref":"徳島県","city":"徳島市","address":"金沢"},
{"zip_code":"7700801","kana_pref":"ﾄｸｼﾏｹﾝ","kana_city":"ﾄｸｼﾏｼ","kana_address":"ｶﾐｽｹﾄｳﾁｮｳ","pref":"徳島県","city":"徳島市","address":"上助任町"},
{"zip_code":"7708041","kana_pref":"ﾄｸｼﾏｹﾝ","kana_city":"ﾄｸｼﾏｼ","kana_address":"ｶﾐﾊﾁﾏﾝﾁｮｳﾆｼﾔﾏ","pref":"徳島県","city":"徳島市","address":"上八万町西山"},
{"zip_code":"7708040","kana_pref":"ﾄｸｼﾏｹﾝ","kana_city":"ﾄｸｼﾏｼ","kana_address":"ｶﾐﾊﾁﾏﾝﾁｮｳ","pref":"徳島県","city":"徳島市","address":"上八万町"},
{"zip_code":"7700803","kana_pref":"ﾄｸｼﾏｹﾝ","kana_city":"ﾄｸｼﾏｼ","kana_address":"ｶﾐﾖｼﾉﾁｮｳ","pref":"徳島県","city":"徳島市","address":"上吉野町"},
{"zip_code":"7700048","kana_pref":"ﾄｸｼﾏｹﾝ","kana_city":"ﾄｸｼﾏｼ","kana_address":"ｶﾓﾅﾁｮｳ","pref":"徳島県","city":"徳島市","address":"加茂名町"},
{"zip_code":"7700872","kana_pref":"ﾄｸｼﾏｹﾝ","kana_city":"ﾄｸｼﾏｼ","kana_address":"ｷﾀｵｷﾉｽ","pref":"徳島県","city":"徳島市","address":"北沖洲"},
{"zip_code":"7700011","kana_pref":"ﾄｸｼﾏｹﾝ","kana_city":"ﾄｸｼﾏｼ","kana_address":"ｷﾀｻｺｲﾁﾊﾞﾝﾁｮｳ","pref":"徳島県","city":"徳島市","address":"北佐古一番町"},
{"zip_code":"7700012","kana_pref":"ﾄｸｼﾏｹﾝ","kana_city":"ﾄｸｼﾏｼ","kana_address":"ｷﾀｻｺﾆﾊﾞﾝﾁｮｳ","pref":"徳島県","city":"徳島市","address":"北佐古二番町"},
{"zip_code":"7700051","kana_pref":"ﾄｸｼﾏｹﾝ","kana_city":"ﾄｸｼﾏｼ","kana_address":"ｷﾀｼﾏﾀﾞﾁｮｳ","pref":"徳島県","city":"徳島市","address":"北島田町"},
{"zip_code":"7700812","kana_pref":"ﾄｸｼﾏｹﾝ","kana_city":"ﾄｸｼﾏｼ","kana_address":"ｷﾀｼﾞｮｳｻﾝｼﾞﾏﾁｮｳ","pref":"徳島県","city":"徳島市","address":"北常三島町"},
{"zip_code":"7700003","kana_pref":"ﾄｸｼﾏｹﾝ","kana_city":"ﾄｸｼﾏｼ","kana_address":"ｷﾀﾀﾐﾔ","pref":"徳島県","city":"徳島市","address":"北田宮"},
{"zip_code":"7700821","kana_pref":"ﾄｸｼﾏｹﾝ","kana_city":"ﾄｸｼﾏｼ","kana_address":"ｷﾀﾃﾞｷｼﾞﾏﾁｮｳ","pref":"徳島県","city":"徳島市","address":"北出来島町"},
{"zip_code":"7700806","kana_pref":"ﾄｸｼﾏｹﾝ","kana_city":"ﾄｸｼﾏｼ","kana_address":"ｷﾀﾏｴｶﾞﾜﾁｮｳ","pref":"徳島県","city":"徳島市","address":"北前川町"},
{"zip_code":"7700006","kana_pref":"ﾄｸｼﾏｹﾝ","kana_city":"ﾄｸｼﾏｼ","kana_address":"ｷﾀﾔｿﾁｮｳ","pref":"徳島県","city":"徳島市","address":"北矢三町"},
{"zip_code":"7708032","kana_pref":"ﾄｸｼﾏｹﾝ","kana_city":"ﾄｸｼﾏｼ","kana_address":"ｷﾀﾔﾏﾁｮｳ","pref":"徳島県","city":"徳島市","address":"北山町"},
{"zip_code":"7700916","kana_pref":"ﾄｸｼﾏｹﾝ","kana_city":"ﾄｸｼﾏｼ","kana_address":"ｷﾞﾝｻﾞ","pref":"徳島県","city":"徳島市","address":"銀座"},
{"zip_code":"7700042","kana_pref":"ﾄｸｼﾏｹﾝ","kana_city":"ﾄｸｼﾏｼ","kana_address":"ｸﾗﾓﾄﾁｮｳ","pref":"徳島県","city":"徳島市","address":"蔵本町"},
{"zip_code":"7700041","kana_pref":"ﾄｸｼﾏｹﾝ","kana_city":"ﾄｸｼﾏｼ","kana_address":"ｸﾗﾓﾄﾓﾄﾏﾁ","pref":"徳島県","city":"徳島市","address":"蔵本元町"},
{"zip_code":"7700918","kana_pref":"ﾄｸｼﾏｹﾝ","kana_city":"ﾄｸｼﾏｼ","kana_address":"ｺﾝﾔﾏﾁ","pref":"徳島県","city":"徳島市","address":"紺屋町"},
{"zip_code":"7708021","kana_pref":"ﾄｸｼﾏｹﾝ","kana_city":"ﾄｸｼﾏｼ","kana_address":"ｻｲｶﾁｮｳ","pref":"徳島県","city":"徳島市","address":"雑賀町"},
{"zip_code":"7700847","kana_pref":"ﾄｸｼﾏｹﾝ","kana_city":"ﾄｸｼﾏｼ","kana_address":"ｻｲﾜｲﾁｮｳ","pref":"徳島県","city":"徳島市","address":"幸町"},
{"zip_code":"7700921","kana_pref":"ﾄｸｼﾏｹﾝ","kana_city":"ﾄｸｼﾏｼ","kana_address":"ｻｶｴﾏﾁ","pref":"徳島県","city":"徳島市","address":"栄町"},
{"zip_code":"7700021","kana_pref":"ﾄｸｼﾏｹﾝ","kana_city":"ﾄｸｼﾏｼ","kana_address":"ｻｺ1ﾊﾞﾝﾁｮｳ","pref":"徳島県","city":"徳島市","address":"佐古一番町"},
{"zip_code":"7700022","kana_pref":"ﾄｸｼﾏｹﾝ","kana_city":"ﾄｸｼﾏｼ","kana_address":"ｻｺ2ﾊﾞﾝﾁｮｳ","pref":"徳島県","city":"徳島市","address":"佐古二番町"},
{"zip_code":"7700023","kana_pref":"ﾄｸｼﾏｹﾝ","kana_city":"ﾄｸｼﾏｼ","kana_address":"ｻｺ3ﾊﾞﾝﾁｮｳ","pref":"徳島県","city":"徳島市","address":"佐古三番町"},
{"zip_code":"7700024","kana_pref":"ﾄｸｼﾏｹﾝ","kana_city":"ﾄｸｼﾏｼ","kana_address":"ｻｺ4ﾊﾞﾝﾁｮｳ","pref":"徳島県","city":"徳島市","address":"佐古四番町"},
{"zip_code":"7700025","kana_pref":"ﾄｸｼﾏｹﾝ","kana_city":"ﾄｸｼﾏｼ","kana_address":"ｻｺ5ﾊﾞﾝﾁｮｳ","pref":"徳島県","city":"徳島市","address":"佐古五番町"},
{"zip_code":"7700026","kana_pref":"ﾄｸｼﾏｹﾝ","kana_city":"ﾄｸｼﾏｼ","kana_address":"ｻｺ6ﾊﾞﾝﾁｮｳ","pref":"徳島県","city":"徳島市","address":"佐古六番町"},
{"zip_code":"7700027","kana_pref":"ﾄｸｼﾏｹﾝ","kana_city":"ﾄｸｼﾏｼ","kana_address":"ｻｺ7ﾊﾞﾝﾁｮｳ","pref":"徳島県","city":"徳島市","address":"佐古七番町"},
{"zip_code":"7700028","kana_pref":"ﾄｸｼﾏｹﾝ","kana_city":"ﾄｸｼﾏｼ","kana_address":"ｻｺ8ﾊﾞﾝﾁｮｳ","pref":"徳島県","city":"徳島市","address":"佐古八番町"},
{"zip_code":"7700039","kana_pref":"ﾄｸｼﾏｹﾝ","kana_city":"ﾄｸｼﾏｼ","kana_address":"ｻｺﾔﾏﾁｮｳ","pref":"徳島県","city":"徳島市","address":"佐古山町"},
{"zip_code":"7708025","kana_pref":"ﾄｸｼﾏｹﾝ","kana_city":"ﾄｸｼﾏｼ","kana_address":"ｻﾝｹﾞﾝﾔﾁｮｳ","pref":"徳島県","city":"徳島市","address":"三軒屋町"},
{"zip_code":"7700805","kana_pref":"ﾄｸｼﾏｹﾝ","kana_city":"ﾄｸｼﾏｼ","kana_address":"ｼﾓｽｹﾄｳﾁｮｳ","pref":"徳島県","city":"徳島市","address":"下助任町"},
{"zip_code":"7700862","kana_pref":"ﾄｸｼﾏｹﾝ","kana_city":"ﾄｸｼﾏｼ","kana_address":"ｼﾞｮｳﾄｳﾁｮｳ","pref":"徳島県","city":"徳島市","address":"城東町"},
{"zip_code":"7708064","kana_pref":"ﾄｸｼﾏｹﾝ","kana_city":"ﾄｸｼﾏｼ","kana_address":"ｼﾞｮｳﾅﾝﾁｮｳ","pref":"徳島県","city":"徳島市","address":"城南町"},
{"zip_code":"7700044","kana_pref":"ﾄｸｼﾏｹﾝ","kana_city":"ﾄｸｼﾏｼ","kana_address":"ｼｮｳﾏﾁ","pref":"徳島県","city":"徳島市","address":"庄町"},
{"zip_code":"7700942","kana_pref":"ﾄｸｼﾏｹﾝ","kana_city":"ﾄｸｼﾏｼ","kana_address":"ｼｮｳﾜﾁｮｳ","pref":"徳島県","city":"徳島市","address":"昭和町"},
{"zip_code":"7700845","kana_pref":"ﾄｸｼﾏｹﾝ","kana_city":"ﾄｸｼﾏｼ","kana_address":"ｼﾝｳﾁﾏﾁ","pref":"徳島県","city":"徳島市","address":"新内町"},
{"zip_code":"7700855","kana_pref":"ﾄｸｼﾏｹﾝ","kana_city":"ﾄｸｼﾏｼ","kana_address":"ｼﾝｸﾗﾁｮｳ","pref":"徳島県","city":"徳島市","address":"新蔵町"},
{"zip_code":"7708006","kana_pref":"ﾄｸｼﾏｹﾝ","kana_city":"ﾄｸｼﾏｼ","kana_address":"ｼﾝﾊﾏﾁｮｳ","pref":"徳島県","city":"徳島市","address":"新浜町"},
{"zip_code":"7708007","kana_pref":"ﾄｸｼﾏｹﾝ","kana_city":"ﾄｸｼﾏｼ","kana_address":"ｼﾝﾊﾏﾎﾝﾁｮｳ","pref":"徳島県","city":"徳島市","address":"新浜本町"},
{"zip_code":"7700904","kana_pref":"ﾄｸｼﾏｹﾝ","kana_city":"ﾄｸｼﾏｼ","kana_address":"ｼﾝﾏﾁﾊﾞｼ","pref":"徳島県","city":"徳島市","address":"新町橋"},
{"zip_code":"7700867","kana_pref":"ﾄｸｼﾏｹﾝ","kana_city":"ﾄｸｼﾏｼ","kana_address":"ｼﾝﾐﾅﾐﾌｸｼﾏ","pref":"徳島県","city":"徳島市","address":"新南福島"},
{"zip_code":"7700866","kana_pref":"ﾄｸｼﾏｹﾝ","kana_city":"ﾄｸｼﾏｼ","kana_address":"ｽｴﾋﾛ","pref":"徳島県","city":"徳島市","address":"末広"},
{"zip_code":"7700815","kana_pref":"ﾄｸｼﾏｹﾝ","kana_city":"ﾄｸｼﾏｼ","kana_address":"ｽｹﾄｳﾊﾞｼ","pref":"徳島県","city":"徳島市","address":"助任橋"},
{"zip_code":"7700816","kana_pref":"ﾄｸｼﾏｹﾝ","kana_city":"ﾄｸｼﾏｼ","kana_address":"ｽｹﾄｳﾎﾝﾁｮｳ","pref":"徳島県","city":"徳島市","address":"助任本町"},
{"zip_code":"7700861","kana_pref":"ﾄｸｼﾏｹﾝ","kana_city":"ﾄｸｼﾏｼ","kana_address":"ｽﾐﾖｼ","pref":"徳島県","city":"徳島市","address":"住吉"},
{"zip_code":"7700927","kana_pref":"ﾄｸｼﾏｹﾝ","kana_city":"ﾄｸｼﾏｼ","kana_address":"ｾｲﾐﾁｮｳ","pref":"徳島県","city":"徳島市","address":"勢見町"},
{"zip_code":"7700922","kana_pref":"ﾄｸｼﾏｹﾝ","kana_city":"ﾄｸｼﾏｼ","kana_address":"ﾀｶｼﾞｮｳﾏﾁ","pref":"徳島県","city":"徳島市","address":"鷹匠町"},
{"zip_code":"7700936","kana_pref":"ﾄｸｼﾏｹﾝ","kana_city":"ﾄｸｼﾏｼ","kana_address":"ﾁｭｳｵｳﾄﾞｵﾘ","pref":"徳島県","city":"徳島市","address":"中央通"},
{"zip_code":"7708001","kana_pref":"ﾄｸｼﾏｹﾝ","kana_city":"ﾄｸｼﾏｼ","kana_address":"ﾂﾀﾞｶｲｶﾞﾝﾁｮｳ","pref":"徳島県","city":"徳島市","address":"津田海岸町"},
{"zip_code":"7708004","kana_pref":"ﾄｸｼﾏｹﾝ","kana_city":"ﾄｸｼﾏｼ","kana_address":"ﾂﾀﾞﾆｼﾏﾁ","pref":"徳島県","city":"徳島市","address":"津田西町"},
{"zip_code":"7708005","kana_pref":"ﾄｸｼﾏｹﾝ","kana_city":"ﾄｸｼﾏｼ","kana_address":"ﾂﾀﾞﾊﾏﾉﾁｮｳ","pref":"徳島県","city":"徳島市","address":"津田浜之町"},
{"zip_code":"7708003","kana_pref":"ﾄｸｼﾏｹﾝ","kana_city":"ﾄｸｼﾏｼ","kana_address":"ﾂﾀﾞﾎﾝﾁｮｳ","pref":"徳島県","city":"徳島市","address":"津田本町"},
{"zip_code":"7708002","kana_pref":"ﾄｸｼﾏｹﾝ","kana_city":"ﾄｸｼﾏｼ","kana_address":"ﾂﾀﾞﾁｮｳ","pref":"徳島県","city":"徳島市","address":"津田町"},
{"zip_code":"7700823","kana_pref":"ﾄｸｼﾏｹﾝ","kana_city":"ﾄｸｼﾏｼ","kana_address":"ﾃﾞｷｼﾞﾏﾎﾝﾁｮｳ","pref":"徳島県","city":"徳島市","address":"出来島本町"},
{"zip_code":"7700832","kana_pref":"ﾄｸｼﾏｹﾝ","kana_city":"ﾄｸｼﾏｼ","kana_address":"ﾃﾗｼﾏﾎﾝﾁｮｳﾋｶﾞｼ","pref":"徳島県","city":"徳島市","address":"寺島本町東"},
{"zip_code":"7700831","kana_pref":"ﾄｸｼﾏｹﾝ","kana_city":"ﾄｸｼﾏｼ","kana_address":"ﾃﾗｼﾏﾎﾝﾁｮｳﾆｼ","pref":"徳島県","city":"徳島市","address":"寺島本町西"},
{"zip_code":"7700909","kana_pref":"ﾄｸｼﾏｹﾝ","kana_city":"ﾄｸｼﾏｼ","kana_address":"ﾃﾗﾏﾁ","pref":"徳島県","city":"徳島市","address":"寺町"},
{"zip_code":"7708056","kana_pref":"ﾄｸｼﾏｹﾝ","kana_city":"ﾄｸｼﾏｼ","kana_address":"ﾄｲﾔﾏﾁ","pref":"徳島県","city":"徳島市","address":"問屋町"},
{"zip_code":"7700842","kana_pref":"ﾄｸｼﾏｹﾝ","kana_city":"ﾄｸｼﾏｼ","kana_address":"ﾄｵﾘﾏﾁ","pref":"徳島県","city":"徳島市","address":"通町"},
{"zip_code":"7700852","kana_pref":"ﾄｸｼﾏｹﾝ","kana_city":"ﾄｸｼﾏｼ","kana_address":"ﾄｸｼﾏﾁｮｳ","pref":"徳島県","city":"徳島市","address":"徳島町"},
{"zip_code":"7700851","kana_pref":"ﾄｸｼﾏｹﾝ","kana_city":"ﾄｸｼﾏｼ","kana_address":"ﾄｸｼﾏﾁｮｳｼﾞｮｳﾅｲ","pref":"徳島県","city":"徳島市","address":"徳島町城内"},
{"zip_code":"7700854","kana_pref":"ﾄｸｼﾏｹﾝ","kana_city":"ﾄｸｼﾏｼ","kana_address":"ﾄｸｼﾏﾎﾝﾁｮｳ","pref":"徳島県","city":"徳島市","address":"徳島本町"},
{"zip_code":"7700931","kana_pref":"ﾄｸｼﾏｹﾝ","kana_city":"ﾄｸｼﾏｼ","kana_address":"ﾄﾐﾀﾞﾊﾏ","pref":"徳島県","city":"徳島市","address":"富田浜"},
{"zip_code":"7700937","kana_pref":"ﾄｸｼﾏｹﾝ","kana_city":"ﾄｸｼﾏｼ","kana_address":"ﾄﾐﾀﾞﾊﾞｼ","pref":"徳島県","city":"徳島市","address":"富田橋"},
{"zip_code":"7700915","kana_pref":"ﾄｸｼﾏｹﾝ","kana_city":"ﾄｸｼﾏｼ","kana_address":"ﾄﾐﾀﾞﾏﾁ","pref":"徳島県","city":"徳島市","address":"富田町"},
{"zip_code":"7700052","kana_pref":"ﾄｸｼﾏｹﾝ","kana_city":"ﾄｸｼﾏｼ","kana_address":"ﾅｶｼﾏﾀﾞﾁｮｳ","pref":"徳島県","city":"徳島市","address":"中島田町"},
{"zip_code":"7700943","kana_pref":"ﾄｸｼﾏｹﾝ","kana_city":"ﾄｸｼﾏｼ","kana_address":"ﾅｶｼｮｳﾜﾁｮｳ","pref":"徳島県","city":"徳島市","address":"中昭和町"},
{"zip_code":"7700813","kana_pref":"ﾄｸｼﾏｹﾝ","kana_city":"ﾄｸｼﾏｼ","kana_address":"ﾅｶｼﾞｮｳｻﾝｼﾞﾏﾁｮｳ","pref":"徳島県","city":"徳島市","address":"中常三島町"},
{"zip_code":"7700856","kana_pref":"ﾄｸｼﾏｹﾝ","kana_city":"ﾄｸｼﾏｼ","kana_address":"ﾅｶｽﾞﾁｮｳ","pref":"徳島県","city":"徳島市","address":"中洲町"},
{"zip_code":"7700844","kana_pref":"ﾄｸｼﾏｹﾝ","kana_city":"ﾄｸｼﾏｼ","kana_address":"ﾅｶﾄｵﾘﾏﾁ","pref":"徳島県","city":"徳島市","address":"中通町"},
{"zip_code":"7700853","kana_pref":"ﾄｸｼﾏｹﾝ","kana_city":"ﾄｸｼﾏｼ","kana_address":"ﾅｶﾄｸｼﾏﾁｮｳ","pref":"徳島県","city":"徳島市","address":"中徳島町"},
{"zip_code":"7700932","kana_pref":"ﾄｸｼﾏｹﾝ","kana_city":"ﾄｸｼﾏｼ","kana_address":"ﾅｶﾉﾁｮｳ","pref":"徳島県","city":"徳島市","address":"仲之町"},
{"zip_code":"7700807","kana_pref":"ﾄｸｼﾏｹﾝ","kana_city":"ﾄｸｼﾏｼ","kana_address":"ﾅｶﾏｴｶﾞﾜﾁｮｳ","pref":"徳島県","city":"徳島市","address":"中前川町"},
{"zip_code":"7700804","kana_pref":"ﾄｸｼﾏｹﾝ","kana_city":"ﾄｸｼﾏｼ","kana_address":"ﾅｶﾖｼﾉﾁｮｳ","pref":"徳島県","city":"徳島市","address":"中吉野町"},
{"zip_code":"7700928","kana_pref":"ﾄｸｼﾏｹﾝ","kana_city":"ﾄｸｼﾏｼ","kana_address":"ﾆｹﾝﾔﾁｮｳ","pref":"徳島県","city":"徳島市","address":"二軒屋町"},
{"zip_code":"7708008","kana_pref":"ﾄｸｼﾏｹﾝ","kana_city":"ﾄｸｼﾏｼ","kana_address":"ﾆｼｼﾝﾊﾏﾁｮｳ","pref":"徳島県","city":"徳島市","address":"西新浜町"},
{"zip_code":"7700902","kana_pref":"ﾄｸｼﾏｹﾝ","kana_city":"ﾄｸｼﾏｼ","kana_address":"ﾆｼｼﾝﾏﾁ","pref":"徳島県","city":"徳島市","address":"西新町"},
{"zip_code":"7708024","kana_pref":"ﾄｸｼﾏｹﾝ","kana_city":"ﾄｸｼﾏｼ","kana_address":"ﾆｼｽﾞｶﾁｮｳ","pref":"徳島県","city":"徳島市","address":"西須賀町"},
{"zip_code":"7700901","kana_pref":"ﾄｸｼﾏｹﾝ","kana_city":"ﾄｸｼﾏｼ","kana_address":"ﾆｼｾﾝﾊﾞﾁｮｳ","pref":"徳島県","city":"徳島市","address":"西船場町"},
{"zip_code":"7700903","kana_pref":"ﾄｸｼﾏｹﾝ","kana_city":"ﾄｸｼﾏｼ","kana_address":"ﾆｼﾀﾞｲｸﾏﾁ","pref":"徳島県","city":"徳島市","address":"西大工町"},
{"zip_code":"7700929","kana_pref":"ﾄｸｼﾏｹﾝ","kana_city":"ﾄｸｼﾏｼ","kana_address":"ﾆｼﾄﾐﾀﾞﾁｮｳ","pref":"徳島県","city":"徳島市","address":"西富田町"},
{"zip_code":"7708061","kana_pref":"ﾄｸｼﾏｹﾝ","kana_city":"ﾄｸｼﾏｼ","kana_address":"ﾆｼﾆｹﾝﾔﾁｮｳ","pref":"徳島県","city":"徳島市","address":"西二軒屋町"},
{"zip_code":"7700907","kana_pref":"ﾄｸｼﾏｹﾝ","kana_city":"ﾄｸｼﾏｼ","kana_address":"ﾆｼﾔﾏﾃﾁｮｳ","pref":"徳島県","city":"徳島市","address":"西山手町"},
{"zip_code":"7700924","kana_pref":"ﾄｸｼﾏｹﾝ","kana_city":"ﾄｸｼﾏｼ","kana_address":"ﾉﾎﾞﾘﾁｮｳ","pref":"徳島県","city":"徳島市","address":"幟町"},
{"zip_code":"7708076","kana_pref":"ﾄｸｼﾏｹﾝ","kana_city":"ﾄｸｼﾏｼ","kana_address":"ﾊﾁﾏﾝﾁｮｳ","pref":"徳島県","city":"徳島市","address":"八万町"},
{"zip_code":"7708077","kana_pref":"ﾄｸｼﾏｹﾝ","kana_city":"ﾄｸｼﾏｼ","kana_address":"ﾊﾁﾏﾝﾁｮｳ","pref":"徳島県","city":"徳島市","address":"八万町"},
{"zip_code":"7708079","kana_pref":"ﾄｸｼﾏｹﾝ","kana_city":"ﾄｸｼﾏｼ","kana_address":"ﾊﾁﾏﾝﾁｮｳ","pref":"徳島県","city":"徳島市","address":"八万町"},
{"zip_code":"7708073","kana_pref":"ﾄｸｼﾏｹﾝ","kana_city":"ﾄｸｼﾏｼ","kana_address":"ﾊﾁﾏﾝﾁｮｳ","pref":"徳島県","city":"徳島市","address":"八万町"},
{"zip_code":"7708074","kana_pref":"ﾄｸｼﾏｹﾝ","kana_city":"ﾄｸｼﾏｼ","kana_address":"ﾊﾁﾏﾝﾁｮｳ","pref":"徳島県","city":"徳島市","address":"八万町"},
{"zip_code":"7708082","kana_pref":"ﾄｸｼﾏｹﾝ","kana_city":"ﾄｸｼﾏｼ","kana_address":"ﾊﾁﾏﾝﾁｮｳ","pref":"徳島県","city":"徳島市","address":"八万町"},
{"zip_code":"7708075","kana_pref":"ﾄｸｼﾏｹﾝ","kana_city":"ﾄｸｼﾏｼ","kana_address":"ﾊﾁﾏﾝﾁｮｳ","pref":"徳島県","city":"徳島市","address":"八万町"},
{"zip_code":"7708072","kana_pref":"ﾄｸｼﾏｹﾝ","kana_city":"ﾄｸｼﾏｼ","kana_address":"ﾊﾁﾏﾝﾁｮｳ","pref":"徳島県","city":"徳島市","address":"八万町"},
{"zip_code":"7708071","kana_pref":"ﾄｸｼﾏｹﾝ","kana_city":"ﾄｸｼﾏｼ","kana_address":"ﾊﾁﾏﾝﾁｮｳ","pref":"徳島県","city":"徳島市","address":"八万町"},
{"zip_code":"7708081","kana_pref":"ﾄｸｼﾏｹﾝ","kana_city":"ﾄｸｼﾏｼ","kana_address":"ﾊﾁﾏﾝﾁｮｳ","pref":"徳島県","city":"徳島市","address":"八万町"},
{"zip_code":"7708078","kana_pref":"ﾄｸｼﾏｹﾝ","kana_city":"ﾄｸｼﾏｼ","kana_address":"ﾊﾁﾏﾝﾁｮｳ","pref":"徳島県","city":"徳島市","address":"八万町"},
{"zip_code":"7708083","kana_pref":"ﾄｸｼﾏｹﾝ","kana_city":"ﾄｸｼﾏｼ","kana_address":"ﾊﾁﾏﾝﾁｮｳ","pref":"徳島県","city":"徳島市","address":"八万町"},
{"zip_code":"7708084","kana_pref":"ﾄｸｼﾏｹﾝ","kana_city":"ﾄｸｼﾏｼ","kana_address":"ﾊﾁﾏﾝﾁｮｳ","pref":"徳島県","city":"徳島市","address":"八万町"},
{"zip_code":"7708070","kana_pref":"ﾄｸｼﾏｹﾝ","kana_city":"ﾄｸｼﾏｼ","kana_address":"ﾊﾁﾏﾝﾁｮｳ","pref":"徳島県","city":"徳島市","address":"八万町"},
{"zip_code":"7700941","kana_pref":"ﾄｸｼﾏｹﾝ","kana_city":"ﾄｸｼﾏｼ","kana_address":"ﾊﾞﾝﾀﾞｲﾁｮｳ","pref":"徳島県","city":"徳島市","address":"万代町"},
{"zip_code":"7700873","kana_pref":"ﾄｸｼﾏｹﾝ","kana_city":"ﾄｸｼﾏｼ","kana_address":"ﾋｶﾞｼｵｷﾉｽ","pref":"徳島県","city":"徳島市","address":"東沖洲"},
{"zip_code":"7700912","kana_pref":"ﾄｸｼﾏｹﾝ","kana_city":"ﾄｸｼﾏｼ","kana_address":"ﾋｶﾞｼｼﾝﾏﾁ","pref":"徳島県","city":"徳島市","address":"東新町"},
{"zip_code":"7700911","kana_pref":"ﾄｸｼﾏｹﾝ","kana_city":"ﾄｸｼﾏｼ","kana_address":"ﾋｶﾞｼｾﾝﾊﾞﾁｮｳ","pref":"徳島県","city":"徳島市","address":"東船場町"},
{"zip_code":"7700905","kana_pref":"ﾄｸｼﾏｹﾝ","kana_city":"ﾄｸｼﾏｼ","kana_address":"ﾋｶﾞｼﾀﾞｲｸﾏﾁ","pref":"徳島県","city":"徳島市","address":"東大工町"},
{"zip_code":"7700822","kana_pref":"ﾄｸｼﾏｹﾝ","kana_city":"ﾄｸｼﾏｼ","kana_address":"ﾋｶﾞｼﾃﾞｷｼﾞﾏﾁｮｳ","pref":"徳島県","city":"徳島市","address":"東出来島町"},
{"zip_code":"7700906","kana_pref":"ﾄｸｼﾏｹﾝ","kana_city":"ﾄｸｼﾏｼ","kana_address":"ﾋｶﾞｼﾔﾏﾃﾁｮｳ","pref":"徳島県","city":"徳島市","address":"東山手町"},
{"zip_code":"7700811","kana_pref":"ﾄｸｼﾏｹﾝ","kana_city":"ﾄｸｼﾏｼ","kana_address":"ﾋｶﾞｼﾖｼﾉﾁｮｳ","pref":"徳島県","city":"徳島市","address":"東吉野町"},
{"zip_code":"7700908","kana_pref":"ﾄｸｼﾏｹﾝ","kana_city":"ﾄｸｼﾏｼ","kana_address":"ﾋﾞｻﾞﾝﾁｮｳ","pref":"徳島県","city":"徳島市","address":"眉山町"},
{"zip_code":"7700868","kana_pref":"ﾄｸｼﾏｹﾝ","kana_city":"ﾄｸｼﾏｼ","kana_address":"ﾌｸｼﾏ","pref":"徳島県","city":"徳島市","address":"福島"},
{"zip_code":"7700062","kana_pref":"ﾄｸｼﾏｹﾝ","kana_city":"ﾄｸｼﾏｼ","kana_address":"ﾌﾄﾞｳﾋｶﾞｼﾏﾁ","pref":"徳島県","city":"徳島市","address":"不動東町"},
{"zip_code":"7700064","kana_pref":"ﾄｸｼﾏｹﾝ","kana_city":"ﾄｸｼﾏｼ","kana_address":"ﾌﾄﾞｳﾆｼﾏﾁ","pref":"徳島県","city":"徳島市","address":"不動西町"},
{"zip_code":"7700061","kana_pref":"ﾄｸｼﾏｹﾝ","kana_city":"ﾄｸｼﾏｼ","kana_address":"ﾌﾄﾞｳｷﾀﾏﾁ","pref":"徳島県","city":"徳島市","address":"不動北町"},
{"zip_code":"7700063","kana_pref":"ﾄｸｼﾏｹﾝ","kana_city":"ﾄｸｼﾏｼ","kana_address":"ﾌﾄﾞｳﾎﾝﾁｮｳ","pref":"徳島県","city":"徳島市","address":"不動本町"},
{"zip_code":"7700846","kana_pref":"ﾄｸｼﾏｹﾝ","kana_city":"ﾄｸｼﾏｼ","kana_address":"ﾐﾅﾐｳﾁﾏﾁ","pref":"徳島県","city":"徳島市","address":"南内町"},
{"zip_code":"7700874","kana_pref":"ﾄｸｼﾏｹﾝ","kana_city":"ﾄｸｼﾏｼ","kana_address":"ﾐﾅﾐｵｷﾉｽ","pref":"徳島県","city":"徳島市","address":"南沖洲"},
{"zip_code":"7700043","kana_pref":"ﾄｸｼﾏｹﾝ","kana_city":"ﾄｸｼﾏｼ","kana_address":"ﾐﾅﾐｸﾗﾓﾄﾁｮｳ","pref":"徳島県","city":"徳島市","address":"南蔵本町"},
{"zip_code":"7700031","kana_pref":"ﾄｸｼﾏｹﾝ","kana_city":"ﾄｸｼﾏｼ","kana_address":"ﾐﾅﾐｻｺ1ﾊﾞﾝﾁｮｳ","pref":"徳島県","city":"徳島市","address":"南佐古一番町"},
{"zip_code":"7700032","kana_pref":"ﾄｸｼﾏｹﾝ","kana_city":"ﾄｸｼﾏｼ","kana_address":"ﾐﾅﾐｻｺ2ﾊﾞﾝﾁｮｳ","pref":"徳島県","city":"徳島市","address":"南佐古二番町"},
{"zip_code":"7700033","kana_pref":"ﾄｸｼﾏｹﾝ","kana_city":"ﾄｸｼﾏｼ","kana_address":"ﾐﾅﾐｻｺ3ﾊﾞﾝﾁｮｳ","pref":"徳島県","city":"徳島市","address":"南佐古三番町"},
{"zip_code":"7700034","kana_pref":"ﾄｸｼﾏｹﾝ","kana_city":"ﾄｸｼﾏｼ","kana_address":"ﾐﾅﾐｻｺ4ﾊﾞﾝﾁｮｳ","pref":"徳島県","city":"徳島市","address":"南佐古四番町"},
{"zip_code":"7700035","kana_pref":"ﾄｸｼﾏｹﾝ","kana_city":"ﾄｸｼﾏｼ","kana_address":"ﾐﾅﾐｻｺ5ﾊﾞﾝﾁｮｳ","pref":"徳島県","city":"徳島市","address":"南佐古五番町"},
{"zip_code":"7700036","kana_pref":"ﾄｸｼﾏｹﾝ","kana_city":"ﾄｸｼﾏｼ","kana_address":"ﾐﾅﾐｻｺ6ﾊﾞﾝﾁｮｳ","pref":"徳島県","city":"徳島市","address":"南佐古六番町"},
{"zip_code":"7700037","kana_pref":"ﾄｸｼﾏｹﾝ","kana_city":"ﾄｸｼﾏｼ","kana_address":"ﾐﾅﾐｻｺ7ﾊﾞﾝﾁｮｳ","pref":"徳島県","city":"徳島市","address":"南佐古七番町"},
{"zip_code":"7700038","kana_pref":"ﾄｸｼﾏｹﾝ","kana_city":"ﾄｸｼﾏｼ","kana_address":"ﾐﾅﾐｻｺ8ﾊﾞﾝﾁｮｳ","pref":"徳島県","city":"徳島市","address":"南佐古八番町"},
{"zip_code":"7700053","kana_pref":"ﾄｸｼﾏｹﾝ","kana_city":"ﾄｸｼﾏｼ","kana_address":"ﾐﾅﾐｼﾏﾀﾞﾁｮｳ","pref":"徳島県","city":"徳島市","address":"南島田町"},
{"zip_code":"7700045","kana_pref":"ﾄｸｼﾏｹﾝ","kana_city":"ﾄｸｼﾏｼ","kana_address":"ﾐﾅﾐｼｮｳﾏﾁ","pref":"徳島県","city":"徳島市","address":"南庄町"},
{"zip_code":"7700944","kana_pref":"ﾄｸｼﾏｹﾝ","kana_city":"ﾄｸｼﾏｼ","kana_address":"ﾐﾅﾐｼｮｳﾜﾁｮｳ","pref":"徳島県","city":"徳島市","address":"南昭和町"},
{"zip_code":"7700913","kana_pref":"ﾄｸｼﾏｹﾝ","kana_city":"ﾄｸｼﾏｼ","kana_address":"ﾐﾅﾐｼﾝﾏﾁ","pref":"徳島県","city":"徳島市","address":"南新町"},
{"zip_code":"7700814","kana_pref":"ﾄｸｼﾏｹﾝ","kana_city":"ﾄｸｼﾏｼ","kana_address":"ﾐﾅﾐｼﾞｮｳｻﾝｼﾞﾏﾁｮｳ","pref":"徳島県","city":"徳島市","address":"南常三島町"},
{"zip_code":"7700865","kana_pref":"ﾄｸｼﾏｹﾝ","kana_city":"ﾄｸｼﾏｼ","kana_address":"ﾐﾅﾐｽｴﾋﾛﾁｮｳ","pref":"徳島県","city":"徳島市","address":"南末広町"},
{"zip_code":"7700004","kana_pref":"ﾄｸｼﾏｹﾝ","kana_city":"ﾄｸｼﾏｼ","kana_address":"ﾐﾅﾐﾀﾐﾔ","pref":"徳島県","city":"徳島市","address":"南田宮"},
{"zip_code":"7700824","kana_pref":"ﾄｸｼﾏｹﾝ","kana_city":"ﾄｸｼﾏｼ","kana_address":"ﾐﾅﾐﾃﾞｷｼﾞﾏﾁｮｳ","pref":"徳島県","city":"徳島市","address":"南出来島町"},
{"zip_code":"7700933","kana_pref":"ﾄｸｼﾏｹﾝ","kana_city":"ﾄｸｼﾏｼ","kana_address":"ﾐﾅﾐﾅｶﾉﾁｮｳ","pref":"徳島県","city":"徳島市","address":"南仲之町"},
{"zip_code":"7708063","kana_pref":"ﾄｸｼﾏｹﾝ","kana_city":"ﾄｸｼﾏｼ","kana_address":"ﾐﾅﾐﾆｹﾝﾔﾁｮｳ","pref":"徳島県","city":"徳島市","address":"南二軒屋町"},
{"zip_code":"7700808","kana_pref":"ﾄｸｼﾏｹﾝ","kana_city":"ﾄｸｼﾏｼ","kana_address":"ﾐﾅﾐﾏｴｶﾞﾜﾁｮｳ","pref":"徳島県","city":"徳島市","address":"南前川町"},
{"zip_code":"7700005","kana_pref":"ﾄｸｼﾏｹﾝ","kana_city":"ﾄｸｼﾏｼ","kana_address":"ﾐﾅﾐﾔｿﾁｮｳ","pref":"徳島県","city":"徳島市","address":"南矢三町"},
{"zip_code":"7700938","kana_pref":"ﾄｸｼﾏｹﾝ","kana_city":"ﾄｸｼﾏｼ","kana_address":"ﾐｮｳｼﾞﾝﾁｮｳ","pref":"徳島県","city":"徳島市","address":"明神町"},
{"zip_code":"7700047","kana_pref":"ﾄｸｼﾏｹﾝ","kana_city":"ﾄｸｼﾏｼ","kana_address":"ﾐｮｳﾄﾞｳﾁｮｳ","pref":"徳島県","city":"徳島市","address":"名東町"},
{"zip_code":"7700834","kana_pref":"ﾄｸｼﾏｹﾝ","kana_city":"ﾄｸｼﾏｼ","kana_address":"ﾓﾄﾏﾁ","pref":"徳島県","city":"徳島市","address":"元町"},
{"zip_code":"7700841","kana_pref":"ﾄｸｼﾏｹﾝ","kana_city":"ﾄｸｼﾏｼ","kana_address":"ﾔｵﾔﾏﾁ","pref":"徳島県","city":"徳島市","address":"八百屋町"},
{"zip_code":"7708055","kana_pref":"ﾄｸｼﾏｹﾝ","kana_city":"ﾄｸｼﾏｼ","kana_address":"ﾔﾏｼﾛﾁｮｳ","pref":"徳島県","city":"徳島市","address":"山城町"},
{"zip_code":"7708054","kana_pref":"ﾄｸｼﾏｹﾝ","kana_city":"ﾄｸｼﾏｼ","kana_address":"ﾔﾏｼﾛﾆｼ","pref":"徳島県","city":"徳島市","address":"山城西"},
{"zip_code":"7700864","kana_pref":"ﾄｸｼﾏｹﾝ","kana_city":"ﾄｸｼﾏｼ","kana_address":"ﾔﾏﾄﾁｮｳ","pref":"徳島県","city":"徳島市","address":"大和町"},
{"zip_code":"7700925","kana_pref":"ﾄｸｼﾏｹﾝ","kana_city":"ﾄｸｼﾏｼ","kana_address":"ﾕﾐﾁｮｳ","pref":"徳島県","city":"徳島市","address":"弓町"},
{"zip_code":"7700802","kana_pref":"ﾄｸｼﾏｹﾝ","kana_city":"ﾄｸｼﾏｼ","kana_address":"ﾖｼﾉﾎﾝﾁｮｳ","pref":"徳島県","city":"徳島市","address":"吉野本町"},
{"zip_code":"7700917","kana_pref":"ﾄｸｼﾏｹﾝ","kana_city":"ﾄｸｼﾏｼ","kana_address":"ﾘｮｳｺﾞｸﾊﾞｼ","pref":"徳島県","city":"徳島市","address":"両国橋"},
{"zip_code":"7700843","kana_pref":"ﾄｸｼﾏｹﾝ","kana_city":"ﾄｸｼﾏｼ","kana_address":"ﾘｮｳｺﾞｸﾎﾝﾁｮｳ","pref":"徳島県","city":"徳島市","address":"両国本町"},
{"zip_code":"7708011","kana_pref":"ﾄｸｼﾏｹﾝ","kana_city":"ﾄｸｼﾏｼ","kana_address":"ﾛﾝﾃﾞﾝﾁｮｳ","pref":"徳島県","city":"徳島市","address":"論田町"}]}