{"zip_code":[
{"zip_code":"7714265","kana_pref":"ﾄｸｼﾏｹﾝ","kana_city":"ﾄｸｼﾏｼ","kana_address":"ｲｲﾀﾆﾁｮｳ","pref":"徳島県","city":"徳島市","address":"飯谷町"},
{"zip_code":"7711156","kana_pref":"ﾄｸｼﾏｹﾝ","kana_city":"ﾄｸｼﾏｼ","kana_address":"ｵｳｼﾞﾝﾁｮｳｵｳｼﾞﾝｻﾝｷﾞｮｳﾀﾞﾝﾁ","pref":"徳島県","city":"徳島市","address":"応神町応神産業団地"},
{"zip_code":"7711152","kana_pref":"ﾄｸｼﾏｹﾝ","kana_city":"ﾄｸｼﾏｼ","kana_address":"ｵｳｼﾞﾝﾁｮｳﾅｶﾊﾗ","pref":"徳島県","city":"徳島市","address":"応神町中原"},
{"zip_code":"7711154","kana_pref":"ﾄｸｼﾏｹﾝ","kana_city":"ﾄｸｼﾏｼ","kana_address":"ｵｳｼﾞﾝﾁｮｳﾋｶﾞｼｻﾀﾞｶﾀ","pref":"徳島県","city":"徳島市","address":"応神町東貞方"},
{"zip_code":"7711155","kana_pref":"ﾄｸｼﾏｹﾝ","kana_city":"ﾄｸｼﾏｼ","kana_address":"ｵｳｼﾞﾝﾁｮｳﾆｼｻﾀﾞｶﾀ","pref":"徳島県","city":"徳島市","address":"応神町西貞方"},
{"zip_code":"7711151","kana_pref":"ﾄｸｼﾏｹﾝ","kana_city":"ﾄｸｼﾏｼ","kana_address":"ｵｳｼﾞﾝﾁｮｳﾌﾙｶﾜ","pref":"徳島県","city":"徳島市","address":"応神町古川"},
{"zip_code":"7711153","kana_pref":"ﾄｸｼﾏｹﾝ","kana_city":"ﾄｸｼﾏｼ","kana_address":"ｵｳｼﾞﾝﾁｮｳﾖｼﾅﾘ","pref":"徳島県","city":"徳島市","address":"応神町吉成"},
{"zip_code":"7710101","kana_pref":"ﾄｸｼﾏｹﾝ","kana_city":"ﾄｸｼﾏｼ","kana_address":"ｶﾜｳﾁﾁｮｳ","pref":"徳島県","city":"徳島市","address":"川内町"},
{"zip_code":"7710144","kana_pref":"ﾄｸｼﾏｹﾝ","kana_city":"ﾄｸｼﾏｼ","kana_address":"ｶﾜｳﾁﾁｮｳ","pref":"徳島県","city":"徳島市","address":"川内町"},
{"zip_code":"7710131","kana_pref":"ﾄｸｼﾏｹﾝ","kana_city":"ﾄｸｼﾏｼ","kana_address":"ｶﾜｳﾁﾁｮｳ","pref":"徳島県","city":"徳島市","address":"川内町"},
{"zip_code":"7710142","kana_pref":"ﾄｸｼﾏｹﾝ","kana_city":"ﾄｸｼﾏｼ","kana_address":"ｶﾜｳﾁﾁｮｳ","pref":"徳島県","city":"徳島市","address":"川内町"},
{"zip_code":"7710130","kana_pref":"ﾄｸｼﾏｹﾝ","kana_city":"ﾄｸｼﾏｼ","kana_address":"ｶﾜｳﾁﾁｮｳ","pref":"徳島県","city":"徳島市","address":"川内町"},
{"zip_code":"7710125","kana_pref":"ﾄｸｼﾏｹﾝ","kana_city":"ﾄｸｼﾏｼ","kana_address":"ｶﾜｳﾁﾁｮｳ","pref":"徳島県","city":"徳島市","address":"川内町"},
{"zip_code":"7710126","kana_pref":"ﾄｸｼﾏｹﾝ","kana_city":"ﾄｸｼﾏｼ","kana_address":"ｶﾜｳﾁﾁｮｳ","pref":"徳島県","city":"徳島市","address":"川内町"},
{"zip_code":"7710127","kana_pref":"ﾄｸｼﾏｹﾝ","kana_city":"ﾄｸｼﾏｼ","kana_address":"ｶﾜｳﾁﾁｮｳ","pref":"徳島県","city":"徳島市","address":"川内町"},
{"zip_code":"7710128","kana_pref":"ﾄｸｼﾏｹﾝ","kana_city":"ﾄｸｼﾏｼ","kana_address":"ｶﾜｳﾁﾁｮｳ","pref":"徳島県","city":"徳島市","address":"川内町"},
{"zip_code":"7710129","kana_pref":"ﾄｸｼﾏｹﾝ","kana_city":"ﾄｸｼﾏｼ","kana_address":"ｶﾜｳﾁﾁｮｳ","pref":"徳島県","city":"徳島市","address":"川内町"},
{"zip_code":"7710103","kana_pref":"ﾄｸｼﾏｹﾝ","kana_city":"ﾄｸｼﾏｼ","kana_address":"ｶﾜｳﾁﾁｮｳ","pref":"徳島県","city":"徳島市","address":"川内町"},
{"zip_code":"7710104","kana_pref":"ﾄｸｼﾏｹﾝ","kana_city":"ﾄｸｼﾏｼ","kana_address":"ｶﾜｳﾁﾁｮｳ","pref":"徳島県","city":"徳島市","address":"川内町"},
{"zip_code":"7710102","kana_pref":"ﾄｸｼﾏｹﾝ","kana_city":"ﾄｸｼﾏｼ","kana_address":"ｶﾜｳﾁﾁｮｳ","pref":"徳島県","city":"徳島市","address":"川内町"},
{"zip_code":"7710106","kana_pref":"ﾄｸｼﾏｹﾝ","kana_city":"ﾄｸｼﾏｼ","kana_address":"ｶﾜｳﾁﾁｮｳ","pref":"徳島県","city":"徳島市","address":"川内町"},
{"zip_code":"7710105","kana_pref":"ﾄｸｼﾏｹﾝ","kana_city":"ﾄｸｼﾏｼ","kana_address":"ｶﾜｳﾁﾁｮｳ","pref":"徳島県","city":"徳島市","address":"川内町"},
{"zip_code":"7710121","kana_pref":"ﾄｸｼﾏｹﾝ","kana_city":"ﾄｸｼﾏｼ","kana_address":"ｶﾜｳﾁﾁｮｳ","pref":"徳島県","city":"徳島市","address":"川内町"},
{"zip_code":"7710122","kana_pref":"ﾄｸｼﾏｹﾝ","kana_city":"ﾄｸｼﾏｼ","kana_address":"ｶﾜｳﾁﾁｮｳ","pref":"徳島県","city":"徳島市","address":"川内町"},
{"zip_code":"7710124","kana_pref":"ﾄｸｼﾏｹﾝ","kana_city":"ﾄｸｼﾏｼ","kana_address":"ｶﾜｳﾁﾁｮｳ","pref":"徳島県","city":"徳島市","address":"川内町"},
{"zip_code":"7710123","kana_pref":"ﾄｸｼﾏｹﾝ","kana_city":"ﾄｸｼﾏｼ","kana_address":"ｶﾜｳﾁﾁｮｳ","pref":"徳島県","city":"徳島市","address":"川内町"},
{"zip_code":"7710141","kana_pref":"ﾄｸｼﾏｹﾝ","kana_city":"ﾄｸｼﾏｼ","kana_address":"ｶﾜｳﾁﾁｮｳ","pref":"徳島県","city":"徳島市","address":"川内町"},
{"zip_code":"7710117","kana_pref":"ﾄｸｼﾏｹﾝ","kana_city":"ﾄｸｼﾏｼ","kana_address":"ｶﾜｳﾁﾁｮｳ","pref":"徳島県","city":"徳島市","address":"川内町"},
{"zip_code":"7710111","kana_pref":"ﾄｸｼﾏｹﾝ","kana_city":"ﾄｸｼﾏｼ","kana_address":"ｶﾜｳﾁﾁｮｳ","pref":"徳島県","city":"徳島市","address":"川内町"},
{"zip_code":"7710112","kana_pref":"ﾄｸｼﾏｹﾝ","kana_city":"ﾄｸｼﾏｼ","kana_address":"ｶﾜｳﾁﾁｮｳ","pref":"徳島県","city":"徳島市","address":"川内町"},
{"zip_code":"7710143","kana_pref":"ﾄｸｼﾏｹﾝ","kana_city":"ﾄｸｼﾏｼ","kana_address":"ｶﾜｳﾁﾁｮｳ","pref":"徳島県","city":"徳島市","address":"川内町"},
{"zip_code":"7710132","kana_pref":"ﾄｸｼﾏｹﾝ","kana_city":"ﾄｸｼﾏｼ","kana_address":"ｶﾜｳﾁﾁｮｳ","pref":"徳島県","city":"徳島市","address":"川内町"},
{"zip_code":"7710133","kana_pref":"ﾄｸｼﾏｹﾝ","kana_city":"ﾄｸｼﾏｼ","kana_address":"ｶﾜｳﾁﾁｮｳ","pref":"徳島県","city":"徳島市","address":"川内町"},
{"zip_code":"7710136","kana_pref":"ﾄｸｼﾏｹﾝ","kana_city":"ﾄｸｼﾏｼ","kana_address":"ｶﾜｳﾁﾁｮｳ","pref":"徳島県","city":"徳島市","address":"川内町"},
{"zip_code":"7710134","kana_pref":"ﾄｸｼﾏｹﾝ","kana_city":"ﾄｸｼﾏｼ","kana_address":"ｶﾜｳﾁﾁｮｳ","pref":"徳島県","city":"徳島市","address":"川内町"},
{"zip_code":"7710138","kana_pref":"ﾄｸｼﾏｹﾝ","kana_city":"ﾄｸｼﾏｼ","kana_address":"ｶﾜｳﾁﾁｮｳ","pref":"徳島県","city":"徳島市","address":"川内町"},
{"zip_code":"7710135","kana_pref":"ﾄｸｼﾏｹﾝ","kana_city":"ﾄｸｼﾏｼ","kana_address":"ｶﾜｳﾁﾁｮｳ","pref":"徳島県","city":"徳島市","address":"川内町"},
{"zip_code":"7710137","kana_pref":"ﾄｸｼﾏｹﾝ","kana_city":"ﾄｸｼﾏｼ","kana_address":"ｶﾜｳﾁﾁｮｳ","pref":"徳島県","city":"徳島市","address":"川内町"},
{"zip_code":"7710113","kana_pref":"ﾄｸｼﾏｹﾝ","kana_city":"ﾄｸｼﾏｼ","kana_address":"ｶﾜｳﾁﾁｮｳ","pref":"徳島県","city":"徳島市","address":"川内町"},
{"zip_code":"7710116","kana_pref":"ﾄｸｼﾏｹﾝ","kana_city":"ﾄｸｼﾏｼ","kana_address":"ｶﾜｳﾁﾁｮｳ","pref":"徳島県","city":"徳島市","address":"川内町"},
{"zip_code":"7710115","kana_pref":"ﾄｸｼﾏｹﾝ","kana_city":"ﾄｸｼﾏｼ","kana_address":"ｶﾜｳﾁﾁｮｳ","pref":"徳島県","city":"徳島市","address":"川内町"},
{"zip_code":"7710114","kana_pref":"ﾄｸｼﾏｹﾝ","kana_city":"ﾄｸｼﾏｼ","kana_address":"ｶﾜｳﾁﾁｮｳ","pref":"徳島県","city":"徳島市","address":"川内町"},
{"zip_code":"7710139","kana_pref":"ﾄｸｼﾏｹﾝ","kana_city":"ﾄｸｼﾏｼ","kana_address":"ｶﾜｳﾁﾁｮｳ","pref":"徳島県","city":"徳島市","address":"川内町"},
{"zip_code":"7714267","kana_pref":"ﾄｸｼﾏｹﾝ","kana_city":"ﾄｸｼﾏｼ","kana_address":"ｼﾌﾞﾉﾁｮｳ","pref":"徳島県","city":"徳島市","address":"渋野町"},
{"zip_code":"7714263","kana_pref":"ﾄｸｼﾏｹﾝ","kana_city":"ﾄｸｼﾏｼ","kana_address":"ｼﾞｮｳﾛｸﾁｮｳ","pref":"徳島県","city":"徳島市","address":"丈六町"},
{"zip_code":"7714262","kana_pref":"ﾄｸｼﾏｹﾝ","kana_city":"ﾄｸｼﾏｼ","kana_address":"ｼﾞｮｳﾛｸﾁｮｳ","pref":"徳島県","city":"徳島市","address":"丈六町"},
{"zip_code":"7714261","kana_pref":"ﾄｸｼﾏｹﾝ","kana_city":"ﾄｸｼﾏｼ","kana_address":"ｼﾞｮｳﾛｸﾁｮｳ","pref":"徳島県","city":"徳島市","address":"丈六町"},
{"zip_code":"7714264","kana_pref":"ﾄｸｼﾏｹﾝ","kana_city":"ﾄｸｼﾏｼ","kana_address":"ﾀｶﾗﾁｮｳ","pref":"徳島県","city":"徳島市","address":"多家良町"},
{"zip_code":"7714266","kana_pref":"ﾄｸｼﾏｹﾝ","kana_city":"ﾄｸｼﾏｼ","kana_address":"ﾊﾀﾁｮｳ","pref":"徳島県","city":"徳島市","address":"八多町"},
{"zip_code":"7710372","kana_pref":"ﾄｸｼﾏｹﾝ","kana_city":"ﾅﾙﾄｼ","kana_address":"ｷﾀﾅﾀﾞﾁｮｳｱﾜﾀ","pref":"徳島県","city":"鳴門市","address":"北灘町粟田"},
{"zip_code":"7710373","kana_pref":"ﾄｸｼﾏｹﾝ","kana_city":"ﾅﾙﾄｼ","kana_address":"ｷﾀﾅﾀﾞﾁｮｳｵｵｳﾗ","pref":"徳島県","city":"鳴門市","address":"北灘町大浦"},
{"zip_code":"7710377","kana_pref":"ﾄｸｼﾏｹﾝ","kana_city":"ﾅﾙﾄｼ","kana_address":"ｷﾀﾅﾀﾞﾁｮｳｵｵｽﾞ","pref":"徳島県","city":"鳴門市","address":"北灘町大須"},
{"zip_code":"7710376","kana_pref":"ﾄｸｼﾏｹﾝ","kana_city":"ﾅﾙﾄｼ","kana_address":"ｷﾀﾅﾀﾞﾁｮｳｵﾘﾉ","pref":"徳島県","city":"鳴門市","address":"北灘町折野"},
{"zip_code":"7710371","kana_pref":"ﾄｸｼﾏｹﾝ","kana_city":"ﾅﾙﾄｼ","kana_address":"ｷﾀﾅﾀﾞﾁｮｳｸｼｷ","pref":"徳島県","city":"鳴門市","address":"北灘町櫛木"},
{"zip_code":"7710378","kana_pref":"ﾄｸｼﾏｹﾝ","kana_city":"ﾅﾙﾄｼ","kana_address":"ｷﾀﾅﾀﾞﾁｮｳｺﾞﾉｳﾗ","pref":"徳島県","city":"鳴門市","address":"北灘町碁浦"},
{"zip_code":"7710374","kana_pref":"ﾄｸｼﾏｹﾝ","kana_city":"ﾅﾙﾄｼ","kana_address":"ｷﾀﾅﾀﾞﾁｮｳｼｭｸﾓﾀﾞﾆ","pref":"徳島県","city":"鳴門市","address":"北灘町宿毛谷"},
{"zip_code":"7710375","kana_pref":"ﾄｸｼﾏｹﾝ","kana_city":"ﾅﾙﾄｼ","kana_address":"ｷﾀﾅﾀﾞﾁｮｳﾄﾘｶﾞﾏﾙ","pref":"徳島県","city":"鳴門市","address":"北灘町鳥ケ丸"},
{"zip_code":"7710360","kana_pref":"ﾄｸｼﾏｹﾝ","kana_city":"ﾅﾙﾄｼ","kana_address":"ｾﾄﾁｮｳｱｷﾉｶﾐ","pref":"徳島県","city":"鳴門市","address":"瀬戸町明神"},
{"zip_code":"7710362","kana_pref":"ﾄｸｼﾏｹﾝ","kana_city":"ﾅﾙﾄｼ","kana_address":"ｾﾄﾁｮｳｷﾀﾄﾞﾏﾘ","pref":"徳島県","city":"鳴門市","address":"瀬戸町北泊"},
{"zip_code":"7710364","kana_pref":"ﾄｸｼﾏｹﾝ","kana_city":"ﾅﾙﾄｼ","kana_address":"ｾﾄﾁｮｳｷﾀﾄﾞﾏﾘ","pref":"徳島県","city":"鳴門市","address":"瀬戸町北泊"},
{"zip_code":"7710367","kana_pref":"ﾄｸｼﾏｹﾝ","kana_city":"ﾅﾙﾄｼ","kana_address":"ｾﾄﾁｮｳｵｵｼﾏﾀﾞ","pref":"徳島県","city":"鳴門市","address":"瀬戸町大島田"},
{"zip_code":"7710366","kana_pref":"ﾄｸｼﾏｹﾝ","kana_city":"ﾅﾙﾄｼ","kana_address":"ｾﾄﾁｮｳﾅｶｼﾏﾀﾞ","pref":"徳島県","city":"鳴門市","address":"瀬戸町中島田"},
{"zip_code":"7710365","kana_pref":"ﾄｸｼﾏｹﾝ","kana_city":"ﾅﾙﾄｼ","kana_address":"ｾﾄﾁｮｳｺｼﾏﾀﾞ","pref":"徳島県","city":"鳴門市","address":"瀬戸町小島田"},
{"zip_code":"7710361","kana_pref":"ﾄｸｼﾏｹﾝ","kana_city":"ﾅﾙﾄｼ","kana_address":"ｾﾄﾁｮｳﾄﾞｳﾉｳﾗ","pref":"徳島県","city":"鳴門市","address":"瀬戸町堂浦"},
{"zip_code":"7710363","kana_pref":"ﾄｸｼﾏｹﾝ","kana_city":"ﾅﾙﾄｼ","kana_address":"ｾﾄﾁｮｳﾐﾅﾄﾀﾞﾆ","pref":"徳島県","city":"鳴門市","address":"瀬戸町湊谷"},
{"zip_code":"7710369","kana_pref":"ﾄｸｼﾏｹﾝ","kana_city":"ﾅﾙﾄｼ","kana_address":"ｾﾄﾁｮｳﾑｻ","pref":"徳島県","city":"鳴門市","address":"瀬戸町撫佐"},
{"zip_code":"7710368","kana_pref":"ﾄｸｼﾏｹﾝ","kana_city":"ﾅﾙﾄｼ","kana_address":"ｾﾄﾁｮｳﾑﾛ","pref":"徳島県","city":"鳴門市","address":"瀬戸町室"},
{"zip_code":"7715177","kana_pref":"ﾄｸｼﾏｹﾝ","kana_city":"ｱﾅﾝｼ","kana_address":"ｵｵｲﾁｮｳ","pref":"徳島県","city":"阿南市","address":"大井町"},
{"zip_code":"7715176","kana_pref":"ﾄｸｼﾏｹﾝ","kana_city":"ｱﾅﾝｼ","kana_address":"ｵｵﾀｲﾁｮｳ","pref":"徳島県","city":"阿南市","address":"大田井町"},
{"zip_code":"7715173","kana_pref":"ﾄｸｼﾏｹﾝ","kana_city":"ｱﾅﾝｼ","kana_address":"ｶﾓﾁｮｳ","pref":"徳島県","city":"阿南市","address":"加茂町"},
{"zip_code":"7715170","kana_pref":"ﾄｸｼﾏｹﾝ","kana_city":"ｱﾅﾝｼ","kana_address":"ｸｽﾈﾁｮｳ","pref":"徳島県","city":"阿南市","address":"楠根町"},
{"zip_code":"7715171","kana_pref":"ﾄｸｼﾏｹﾝ","kana_city":"ｱﾅﾝｼ","kana_address":"ｸﾏﾀﾞﾆﾁｮｳ","pref":"徳島県","city":"阿南市","address":"熊谷町"},
{"zip_code":"7715178","kana_pref":"ﾄｸｼﾏｹﾝ","kana_city":"ｱﾅﾝｼ","kana_address":"ｻｶﾘﾁｮｳ","pref":"徳島県","city":"阿南市","address":"十八女町"},
{"zip_code":"7715174","kana_pref":"ﾄｸｼﾏｹﾝ","kana_city":"ｱﾅﾝｼ","kana_address":"ｽｲｲﾁｮｳ","pref":"徳島県","city":"阿南市","address":"水井町"},
{"zip_code":"7715179","kana_pref":"ﾄｸｼﾏｹﾝ","kana_city":"ｱﾅﾝｼ","kana_address":"ﾌｶｾﾁｮｳ","pref":"徳島県","city":"阿南市","address":"深瀬町"},
{"zip_code":"7715175","kana_pref":"ﾄｸｼﾏｹﾝ","kana_city":"ｱﾅﾝｼ","kana_address":"ﾎｿﾉﾁｮｳ","pref":"徳島県","city":"阿南市","address":"細野町"},
{"zip_code":"7715172","kana_pref":"ﾄｸｼﾏｹﾝ","kana_city":"ｱﾅﾝｼ","kana_address":"ﾖｼｲﾁｮｳ","pref":"徳島県","city":"阿南市","address":"吉井町"},
{"zip_code":"7711700","kana_pref":"ﾄｸｼﾏｹﾝ","kana_city":"ｱﾜｼ","kana_address":"","pref":"徳島県","city":"阿波市","address":""},
{"zip_code":"7711705","kana_pref":"ﾄｸｼﾏｹﾝ","kana_city":"ｱﾜｼ","kana_address":"ｱﾜﾁｮｳｱｶｻｶ","pref":"徳島県","city":"阿波市","address":"阿波町赤坂"},
{"zip_code":"7711705","kana_pref":"ﾄｸｼﾏｹﾝ","kana_city":"ｱﾜｼ","kana_address":"ｱﾜﾁｮｳｲｵｳｼﾞ","pref":"徳島県","city":"阿波市","address":"阿波町医王寺"},
{"zip_code":"7711701","kana_pref":"ﾄｸｼﾏｹﾝ","kana_city":"ｱﾜｼ","kana_address":"ｱﾜﾁｮｳｲｻﾜｲﾁ","pref":"徳島県","city":"阿波市","address":"阿波町伊沢市"},
{"zip_code":"7711703","kana_pref":"ﾄｸｼﾏｹﾝ","kana_city":"ｱﾜｼ","kana_address":"ｱﾜﾁｮｳｲｻﾜﾀﾞ","pref":"徳島県","city":"阿波市","address":"阿波町伊沢田"},
{"zip_code":"7711704","kana_pref":"ﾄｸｼﾏｹﾝ","kana_city":"ｱﾜｼ","kana_address":"ｱﾜﾁｮｳｲｻﾜﾀﾞﾆﾋｶﾞｼﾍﾞﾘ","pref":"徳島県","city":"阿波市","address":"阿波町伊沢谷東縁"},
{"zip_code":"7711702","kana_pref":"ﾄｸｼﾏｹﾝ","kana_city":"ｱﾜｼ","kana_address":"ｱﾜﾁｮｳｲｾ","pref":"徳島県","city":"阿波市","address":"阿波町伊勢"},
{"zip_code":"7711702","kana_pref":"ﾄｸｼﾏｹﾝ","kana_city":"ｱﾜｼ","kana_address":"ｱﾜﾁｮｳｲﾃﾞｸﾞﾁ","pref":"徳島県","city":"阿波市","address":"阿波町井出口"},
{"zip_code":"7711704","kana_pref":"ﾄｸｼﾏｹﾝ","kana_city":"ｱﾜｼ","kana_address":"ｱﾜﾁｮｳｲﾄｶﾞ","pref":"徳島県","city":"阿波市","address":"阿波町糸下"},
{"zip_code":"7711702","kana_pref":"ﾄｸｼﾏｹﾝ","kana_city":"ｱﾜｼ","kana_address":"ｱﾜﾁｮｳｲﾅﾘ","pref":"徳島県","city":"阿波市","address":"阿波町稲荷"},
{"zip_code":"7711704","kana_pref":"ﾄｸｼﾏｹﾝ","kana_city":"ｱﾜｼ","kana_address":"ｱﾜﾁｮｳｲﾓﾊﾞ","pref":"徳島県","city":"阿波市","address":"阿波町芋場"},
{"zip_code":"7711705","kana_pref":"ﾄｸｼﾏｹﾝ","kana_city":"ｱﾜｼ","kana_address":"ｱﾜﾁｮｳｲﾔｼｷ","pref":"徳島県","city":"阿波市","address":"阿波町居屋敷"},
{"zip_code":"7711706","kana_pref":"ﾄｸｼﾏｹﾝ","kana_city":"ｱﾜｼ","kana_address":"ｱﾜﾁｮｳｲﾜﾂﾞ","pref":"徳島県","city":"阿波市","address":"阿波町岩津"},
{"zip_code":"7711706","kana_pref":"ﾄｸｼﾏｹﾝ","kana_city":"ｱﾜｼ","kana_address":"ｱﾜﾁｮｳｳｴｻﾞｸﾗ","pref":"徳島県","city":"阿波市","address":"阿波町植桜"},
{"zip_code":"7711705","kana_pref":"ﾄｸｼﾏｹﾝ","kana_city":"ｱﾜｼ","kana_address":"ｱﾜﾁｮｳｳﾒｶﾜｳﾁ","pref":"徳島県","city":"阿波市","address":"阿波町梅川内"},
{"zip_code":"7711704","kana_pref":"ﾄｸｼﾏｹﾝ","kana_city":"ｱﾜｼ","kana_address":"ｱﾜﾁｮｳｳﾒﾉｷﾊﾞﾗ","pref":"徳島県","city":"阿波市","address":"阿波町梅ノ木原"},
{"zip_code":"7711704","kana_pref":"ﾄｸｼﾏｹﾝ","kana_city":"ｱﾜｼ","kana_address":"ｱﾜﾁｮｳｳﾒﾉﾋｶﾞｼ","pref":"徳島県","city":"阿波市","address":"阿波町梅ノ東"},
{"zip_code":"7711701","kana_pref":"ﾄｸｼﾏｹﾝ","kana_city":"ｱﾜｼ","kana_address":"ｱﾜﾁｮｳｵｳｼﾞ","pref":"徳島県","city":"阿波市","address":"阿波町王地"},
{"zip_code":"7711705","kana_pref":"ﾄｸｼﾏｹﾝ","kana_city":"ｱﾜｼ","kana_address":"ｱﾜﾁｮｳｵｳｼﾞｶﾞﾜ","pref":"徳島県","city":"阿波市","address":"阿波町王子川"},
{"zip_code":"7711701","kana_pref":"ﾄｸｼﾏｹﾝ","kana_city":"ｱﾜｼ","kana_address":"ｱﾜﾁｮｳｵｳｼﾞﾐﾅﾐ","pref":"徳島県","city":"阿波市","address":"阿波町王地南"},
{"zip_code":"7711702","kana_pref":"ﾄｸｼﾏｹﾝ","kana_city":"ｱﾜｼ","kana_address":"ｱﾜﾁｮｳｵｵｸﾎﾞ","pref":"徳島県","city":"阿波市","address":"阿波町大久保"},
{"zip_code":"7711701","kana_pref":"ﾄｸｼﾏｹﾝ","kana_city":"ｱﾜｼ","kana_address":"ｱﾜﾁｮｳｵｵﾂﾎﾞ","pref":"徳島県","city":"阿波市","address":"阿波町大坪"},
{"zip_code":"7711701","kana_pref":"ﾄｸｼﾏｹﾝ","kana_city":"ｱﾜｼ","kana_address":"ｱﾜﾁｮｳｵｵﾊﾗ","pref":"徳島県","city":"阿波市","address":"阿波町大原"},
{"zip_code":"7711703","kana_pref":"ﾄｸｼﾏｹﾝ","kana_city":"ｱﾜｼ","kana_address":"ｱﾜﾁｮｳｵｵﾐﾁｷﾀ","pref":"徳島県","city":"阿波市","address":"阿波町大道北"},
{"zip_code":"7711701","kana_pref":"ﾄｸｼﾏｹﾝ","kana_city":"ｱﾜｼ","kana_address":"ｱﾜﾁｮｳｵｵﾐﾁﾐﾅﾐ","pref":"徳島県","city":"阿波市","address":"阿波町大道南"},
{"zip_code":"7711703","kana_pref":"ﾄｸｼﾏｹﾝ","kana_city":"ｱﾜｼ","kana_address":"ｱﾜﾁｮｳｵｶｼﾞ","pref":"徳島県","city":"阿波市","address":"阿波町岡地"},
{"zip_code":"7711704","kana_pref":"ﾄｸｼﾏｹﾝ","kana_city":"ｱﾜｼ","kana_address":"ｱﾜﾁｮｳｵｸﾞﾗ","pref":"徳島県","city":"阿波市","address":"阿波町小倉"},
{"zip_code":"7711706","kana_pref":"ﾄｸｼﾏｹﾝ","kana_city":"ｱﾜｼ","kana_address":"ｱﾜﾁｮｳｵﾂｲﾜﾂﾞ","pref":"徳島県","city":"阿波市","address":"阿波町乙岩津"},
{"zip_code":"7711702","kana_pref":"ﾄｸｼﾏｹﾝ","kana_city":"ｱﾜｼ","kana_address":"ｱﾜﾁｮｳｶｼﾜﾀﾞﾆｻﾕｳ","pref":"徳島県","city":"阿波市","address":"阿波町柏谷左右"},
{"zip_code":"7711701","kana_pref":"ﾄｸｼﾏｹﾝ","kana_city":"ｱﾜｼ","kana_address":"ｱﾜﾁｮｳｶﾂﾐｮｳ","pref":"徳島県","city":"阿波市","address":"阿波町勝命"},
{"zip_code":"7711701","kana_pref":"ﾄｸｼﾏｹﾝ","kana_city":"ｱﾜｼ","kana_address":"ｱﾜﾁｮｳｶﾂﾐｮｳｷﾀ","pref":"徳島県","city":"阿波市","address":"阿波町勝命北"},
{"zip_code":"7711704","kana_pref":"ﾄｸｼﾏｹﾝ","kana_city":"ｱﾜｼ","kana_address":"ｱﾜﾁｮｳｶﾒｿﾞｺ","pref":"徳島県","city":"阿波市","address":"阿波町亀底"},
{"zip_code":"7711705","kana_pref":"ﾄｸｼﾏｹﾝ","kana_city":"ｱﾜｼ","kana_address":"ｱﾜﾁｮｳｶﾜｸﾎﾞ","pref":"徳島県","city":"阿波市","address":"阿波町川久保"},
{"zip_code":"7711702","kana_pref":"ﾄｸｼﾏｹﾝ","kana_city":"ｱﾜｼ","kana_address":"ｱﾜﾁｮｳｶﾜｿﾞｴ","pref":"徳島県","city":"阿波市","address":"阿波町川添"},
{"zip_code":"7711706","kana_pref":"ﾄｸｼﾏｹﾝ","kana_city":"ｱﾜｼ","kana_address":"ｱﾜﾁｮｳｷﾀｵｶ","pref":"徳島県","city":"阿波市","address":"阿波町北岡"},
{"zip_code":"7711704","kana_pref":"ﾄｸｼﾏｹﾝ","kana_city":"ｱﾜｼ","kana_address":"ｱﾜﾁｮｳｷﾀｸﾎﾞ","pref":"徳島県","city":"阿波市","address":"阿波町北久保"},
{"zip_code":"7711704","kana_pref":"ﾄｸｼﾏｹﾝ","kana_city":"ｱﾜｼ","kana_address":"ｱﾜﾁｮｳｷﾀｺﾞﾐｼﾞﾘ","pref":"徳島県","city":"阿波市","address":"阿波町北五味知"},
{"zip_code":"7711703","kana_pref":"ﾄｸｼﾏｹﾝ","kana_city":"ｱﾜｼ","kana_address":"ｱﾜﾁｮｳｷﾀｼﾎﾞｳ","pref":"徳島県","city":"阿波市","address":"阿波町北柴生"},
{"zip_code":"7711705","kana_pref":"ﾄｸｼﾏｹﾝ","kana_city":"ｱﾜｼ","kana_address":"ｱﾜﾁｮｳｷﾀｾｲﾘ","pref":"徳島県","city":"阿波市","address":"阿波町北整理"},
{"zip_code":"7711706","kana_pref":"ﾄｸｼﾏｹﾝ","kana_city":"ｱﾜｼ","kana_address":"ｱﾜﾁｮｳｷﾀﾆｼﾀﾞﾆ","pref":"徳島県","city":"阿波市","address":"阿波町北西谷"},
{"zip_code":"7711702","kana_pref":"ﾄｸｼﾏｹﾝ","kana_city":"ｱﾜｼ","kana_address":"ｱﾜﾁｮｳｷﾀﾉﾐｮｳ","pref":"徳島県","city":"阿波市","address":"阿波町北ノ名"},
{"zip_code":"7711703","kana_pref":"ﾄｸｼﾏｹﾝ","kana_city":"ｱﾜｼ","kana_address":"ｱﾜﾁｮｳｷﾀﾊﾞﾗ","pref":"徳島県","city":"阿波市","address":"阿波町北原"},
{"zip_code":"7711704","kana_pref":"ﾄｸｼﾏｹﾝ","kana_city":"ｱﾜｼ","kana_address":"ｱﾜﾁｮｳｷﾀﾏｻﾋﾛ","pref":"徳島県","city":"阿波市","address":"阿波町北正広"},
{"zip_code":"7711705","kana_pref":"ﾄｸｼﾏｹﾝ","kana_city":"ｱﾜｼ","kana_address":"ｱﾜﾁｮｳｷﾀﾔﾏ","pref":"徳島県","city":"阿波市","address":"阿波町北山"},
{"zip_code":"7711701","kana_pref":"ﾄｸｼﾏｹﾝ","kana_city":"ｱﾜｼ","kana_address":"ｱﾜﾁｮｳｺｳｼﾝﾊﾞﾗ","pref":"徳島県","city":"阿波市","address":"阿波町庚申原"},
{"zip_code":"7711705","kana_pref":"ﾄｸｼﾏｹﾝ","kana_city":"ｱﾜｼ","kana_address":"ｱﾜﾁｮｳｺﾞﾐｮｳ","pref":"徳島県","city":"阿波市","address":"阿波町五明"},
{"zip_code":"7711705","kana_pref":"ﾄｸｼﾏｹﾝ","kana_city":"ｱﾜｼ","kana_address":"ｱﾜﾁｮｳｻｸﾗﾉｵｶ","pref":"徳島県","city":"阿波市","address":"阿波町桜ノ岡"},
{"zip_code":"7711705","kana_pref":"ﾄｸｼﾏｹﾝ","kana_city":"ｱﾜｼ","kana_address":"ｱﾜﾁｮｳｻﾑｶｾﾞ","pref":"徳島県","city":"阿波市","address":"阿波町寒風"},
{"zip_code":"7711702","kana_pref":"ﾄｸｼﾏｹﾝ","kana_city":"ｱﾜｼ","kana_address":"ｱﾜﾁｮｳｻﾝﾉｳ","pref":"徳島県","city":"阿波市","address":"阿波町山王"},
{"zip_code":"7711706","kana_pref":"ﾄｸｼﾏｹﾝ","kana_city":"ｱﾜｼ","kana_address":"ｱﾜﾁｮｳｻﾝﾎﾞﾝﾔﾅｷﾞ","pref":"徳島県","city":"阿波市","address":"阿波町三本柳"},
{"zip_code":"7711702","kana_pref":"ﾄｸｼﾏｹﾝ","kana_city":"ｱﾜｼ","kana_address":"ｱﾜﾁｮｳｼﾌﾞｲﾁ","pref":"徳島県","city":"阿波市","address":"阿波町四歩一"},
{"zip_code":"7711701","kana_pref":"ﾄｸｼﾏｹﾝ","kana_city":"ｱﾜｼ","kana_address":"ｱﾜﾁｮｳｼﾓｷﾞﾗｲ","pref":"徳島県","city":"阿波市","address":"阿波町下喜来"},
{"zip_code":"7711701","kana_pref":"ﾄｸｼﾏｹﾝ","kana_city":"ｱﾜｼ","kana_address":"ｱﾜﾁｮｳｼﾓｷﾞﾗｲﾐﾅﾐ","pref":"徳島県","city":"阿波市","address":"阿波町下喜来南"},
{"zip_code":"7711702","kana_pref":"ﾄｸｼﾏｹﾝ","kana_city":"ｱﾜｼ","kana_address":"ｱﾜﾁｮｳｼﾓﾊﾞﾗ","pref":"徳島県","city":"阿波市","address":"阿波町下原"},
{"zip_code":"7711705","kana_pref":"ﾄｸｼﾏｹﾝ","kana_city":"ｱﾜｼ","kana_address":"ｱﾜﾁｮｳｼﾞｭｳｾﾞﾝｼﾞ","pref":"徳島県","city":"阿波市","address":"阿波町十善地"},
{"zip_code":"7711701","kana_pref":"ﾄｸｼﾏｹﾝ","kana_city":"ｱﾜｼ","kana_address":"ｱﾜﾁｮｳｼﾝﾊﾞﾘ","pref":"徳島県","city":"阿波市","address":"阿波町新開"},
{"zip_code":"7711703","kana_pref":"ﾄｸｼﾏｹﾝ","kana_city":"ｱﾜｼ","kana_address":"ｱﾜﾁｮｳｼﾝﾌﾟｸｼﾞ","pref":"徳島県","city":"阿波市","address":"阿波町真福寺"},
{"zip_code":"7711701","kana_pref":"ﾄｸｼﾏｹﾝ","kana_city":"ｱﾜｼ","kana_address":"ｱﾜﾁｮｳｾｲﾊﾞﾗ","pref":"徳島県","city":"阿波市","address":"阿波町清原"},
{"zip_code":"7711705","kana_pref":"ﾄｸｼﾏｹﾝ","kana_city":"ｱﾜｼ","kana_address":"ｱﾜﾁｮｳｾﾞﾝｼﾞ","pref":"徳島県","city":"阿波市","address":"阿波町善地"},
{"zip_code":"7711702","kana_pref":"ﾄｸｼﾏｹﾝ","kana_city":"ｱﾜｼ","kana_address":"ｱﾜﾁｮｳﾀﾞｲｼﾞﾛｳ","pref":"徳島県","city":"阿波市","address":"阿波町大次郎"},
{"zip_code":"7711705","kana_pref":"ﾄｸｼﾏｹﾝ","kana_city":"ｱﾜｼ","kana_address":"ｱﾜﾁｮｳﾀｶｶﾞｷ","pref":"徳島県","city":"阿波市","address":"阿波町高垣"},
{"zip_code":"7711704","kana_pref":"ﾄｸｼﾏｹﾝ","kana_city":"ｱﾜｼ","kana_address":"ｱﾜﾁｮｳﾀﾃﾜﾘ","pref":"徳島県","city":"阿波市","address":"阿波町立割"},
{"zip_code":"7711702","kana_pref":"ﾄｸｼﾏｹﾝ","kana_city":"ｱﾜｼ","kana_address":"ｱﾜﾁｮｳﾀﾆｸﾞﾁ","pref":"徳島県","city":"阿波市","address":"阿波町谷口"},
{"zip_code":"7711701","kana_pref":"ﾄｸｼﾏｹﾝ","kana_city":"ｱﾜｼ","kana_address":"ｱﾜﾁｮｳﾀﾆｼﾞﾏ","pref":"徳島県","city":"阿波市","address":"阿波町谷島"},
{"zip_code":"7711701","kana_pref":"ﾄｸｼﾏｹﾝ","kana_city":"ｱﾜｼ","kana_address":"ｱﾜﾁｮｳﾀﾆｼﾞﾏｷﾀ","pref":"徳島県","city":"阿波市","address":"阿波町谷島北"},
{"zip_code":"7711703","kana_pref":"ﾄｸｼﾏｹﾝ","kana_city":"ｱﾜｼ","kana_address":"ｱﾜﾁｮｳﾂﾅｶｹ","pref":"徳島県","city":"阿波市","address":"阿波町綱懸"},
{"zip_code":"7711702","kana_pref":"ﾄｸｼﾏｹﾝ","kana_city":"ｱﾜｼ","kana_address":"ｱﾜﾁｮｳﾃﾗｻｺ","pref":"徳島県","city":"阿波市","address":"阿波町寺サコ"},
{"zip_code":"7711702","kana_pref":"ﾄｸｼﾏｹﾝ","kana_city":"ｱﾜｼ","kana_address":"ｱﾜﾁｮｳﾃﾝｻｲｻﾞﾝ","pref":"徳島県","city":"阿波市","address":"阿波町天西山"},
{"zip_code":"7711703","kana_pref":"ﾄｸｼﾏｹﾝ","kana_city":"ｱﾜｼ","kana_address":"ｱﾜﾁｮｳﾄｳｼﾞｮｳ","pref":"徳島県","city":"阿波市","address":"阿波町東条"},
{"zip_code":"7711705","kana_pref":"ﾄｸｼﾏｹﾝ","kana_city":"ｱﾜｼ","kana_address":"ｱﾜﾁｮｳﾄﾁｶﾞｸﾎﾞ","pref":"徳島県","city":"阿波市","address":"阿波町栩ケ窪"},
{"zip_code":"7711706","kana_pref":"ﾄｸｼﾏｹﾝ","kana_city":"ｱﾜｼ","kana_address":"ｱﾜﾁｮｳﾅｶｶﾞﾜﾊﾗ","pref":"徳島県","city":"阿波市","address":"阿波町中川原"},
{"zip_code":"7711706","kana_pref":"ﾄｸｼﾏｹﾝ","kana_city":"ｱﾜｼ","kana_address":"ｱﾜﾁｮｳﾅｶﾂﾎﾞ","pref":"徳島県","city":"阿波市","address":"阿波町中坪"},
{"zip_code":"7711706","kana_pref":"ﾄｸｼﾏｹﾝ","kana_city":"ｱﾜｼ","kana_address":"ｱﾜﾁｮｳﾅｶﾅｶﾞﾐﾈ","pref":"徳島県","city":"阿波市","address":"阿波町中長峰"},
{"zip_code":"7711703","kana_pref":"ﾄｸｼﾏｹﾝ","kana_city":"ｱﾜｼ","kana_address":"ｱﾜﾁｮｳﾅｶﾊﾗ","pref":"徳島県","city":"阿波市","address":"阿波町中原"},
{"zip_code":"7711703","kana_pref":"ﾄｸｼﾏｹﾝ","kana_city":"ｱﾜｼ","kana_address":"ｱﾜﾁｮｳﾆｼｼﾎﾞｳ","pref":"徳島県","city":"阿波市","address":"阿波町西柴生"},
{"zip_code":"7711706","kana_pref":"ﾄｸｼﾏｹﾝ","kana_city":"ｱﾜｼ","kana_address":"ｱﾜﾁｮｳﾆｼｼﾞﾏ","pref":"徳島県","city":"阿波市","address":"阿波町西島"},
{"zip_code":"7711701","kana_pref":"ﾄｸｼﾏｹﾝ","kana_city":"ｱﾜｼ","kana_address":"ｱﾜﾁｮｳﾆｼｾｲﾊﾞﾗ","pref":"徳島県","city":"阿波市","address":"阿波町西清原"},
{"zip_code":"7711706","kana_pref":"ﾄｸｼﾏｹﾝ","kana_city":"ｱﾜｼ","kana_address":"ｱﾜﾁｮｳﾆｼｾｲﾘ","pref":"徳島県","city":"阿波市","address":"阿波町西整理"},
{"zip_code":"7711706","kana_pref":"ﾄｸｼﾏｹﾝ","kana_city":"ｱﾜｼ","kana_address":"ｱﾜﾁｮｳﾆｼﾅｶﾞﾐﾈ","pref":"徳島県","city":"阿波市","address":"阿波町西長峰"},
{"zip_code":"7711702","kana_pref":"ﾄｸｼﾏｹﾝ","kana_city":"ｱﾜｼ","kana_address":"ｱﾜﾁｮｳﾆｼﾉｵｶ","pref":"徳島県","city":"阿波市","address":"阿波町西ノ岡"},
{"zip_code":"7711706","kana_pref":"ﾄｸｼﾏｹﾝ","kana_city":"ｱﾜｼ","kana_address":"ｱﾜﾁｮｳﾆｼﾊﾞﾔｼ","pref":"徳島県","city":"阿波市","address":"阿波町西林"},
{"zip_code":"7711703","kana_pref":"ﾄｸｼﾏｹﾝ","kana_city":"ｱﾜｼ","kana_address":"ｱﾜﾁｮｳﾆｼﾊﾞﾗ","pref":"徳島県","city":"阿波市","address":"阿波町西原"},
{"zip_code":"7711704","kana_pref":"ﾄｸｼﾏｹﾝ","kana_city":"ｱﾜｼ","kana_address":"ｱﾜﾁｮｳﾆｼﾏｻﾋﾛ","pref":"徳島県","city":"阿波市","address":"阿波町西正広"},
{"zip_code":"7711702","kana_pref":"ﾄｸｼﾏｹﾝ","kana_city":"ｱﾜｼ","kana_address":"ｱﾜﾁｮｳﾉｶﾞﾐ","pref":"徳島県","city":"阿波市","address":"阿波町野神"},
{"zip_code":"7711704","kana_pref":"ﾄｸｼﾏｹﾝ","kana_city":"ｱﾜｼ","kana_address":"ｱﾜﾁｮｳﾊｯﾁｮｳﾊﾞﾗ","pref":"徳島県","city":"阿波市","address":"阿波町八丁原"},
{"zip_code":"7711705","kana_pref":"ﾄｸｼﾏｹﾝ","kana_city":"ｱﾜｼ","kana_address":"ｱﾜﾁｮｳﾊﾞﾊﾞ","pref":"徳島県","city":"阿波市","address":"阿波町馬場"},
{"zip_code":"7711706","kana_pref":"ﾄｸｼﾏｹﾝ","kana_city":"ｱﾜｼ","kana_address":"ｱﾜﾁｮｳﾋｶﾞｼｶﾜﾊﾗ","pref":"徳島県","city":"阿波市","address":"阿波町東川原"},
{"zip_code":"7711703","kana_pref":"ﾄｸｼﾏｹﾝ","kana_city":"ｱﾜｼ","kana_address":"ｱﾜﾁｮｳﾋｶﾞｼｼﾎﾞｳ","pref":"徳島県","city":"阿波市","address":"阿波町東柴生"},
{"zip_code":"7711706","kana_pref":"ﾄｸｼﾏｹﾝ","kana_city":"ｱﾜｼ","kana_address":"ｱﾜﾁｮｳﾋｶﾞｼｼﾞﾏ","pref":"徳島県","city":"阿波市","address":"阿波町東島"},
{"zip_code":"7711706","kana_pref":"ﾄｸｼﾏｹﾝ","kana_city":"ｱﾜｼ","kana_address":"ｱﾜﾁｮｳﾋｶﾞｼｾｲﾘ","pref":"徳島県","city":"阿波市","address":"阿波町東整理"},
{"zip_code":"7711706","kana_pref":"ﾄｸｼﾏｹﾝ","kana_city":"ｱﾜｼ","kana_address":"ｱﾜﾁｮｳﾋｶﾞｼﾅｶﾞﾐﾈ","pref":"徳島県","city":"阿波市","address":"阿波町東長峰"},
{"zip_code":"7711703","kana_pref":"ﾄｸｼﾏｹﾝ","kana_city":"ｱﾜｼ","kana_address":"ｱﾜﾁｮｳﾋｶﾞｼﾊﾞﾗ","pref":"徳島県","city":"阿波市","address":"阿波町東原"},
{"zip_code":"7711704","kana_pref":"ﾄｸｼﾏｹﾝ","kana_city":"ｱﾜｼ","kana_address":"ｱﾜﾁｮｳﾋｶﾞｼﾏｻﾋﾛ","pref":"徳島県","city":"阿波市","address":"阿波町東正広"},
{"zip_code":"7711706","kana_pref":"ﾄｸｼﾏｹﾝ","kana_city":"ｱﾜｼ","kana_address":"ｱﾜﾁｮｳﾋｶﾞｼﾑﾗ","pref":"徳島県","city":"阿波市","address":"阿波町東村"},
{"zip_code":"7711704","kana_pref":"ﾄｸｼﾏｹﾝ","kana_city":"ｱﾜｼ","kana_address":"ｱﾜﾁｮｳﾋｷﾁ","pref":"徳島県","city":"阿波市","address":"阿波町引地"},
{"zip_code":"7711702","kana_pref":"ﾄｸｼﾏｹﾝ","kana_city":"ｱﾜｼ","kana_address":"ｱﾜﾁｮｳﾋｻﾊﾗ","pref":"徳島県","city":"阿波市","address":"阿波町久原"},
{"zip_code":"7711705","kana_pref":"ﾄｸｼﾏｹﾝ","kana_city":"ｱﾜｼ","kana_address":"ｱﾜﾁｮｳﾋﾖｼﾀﾞﾆ","pref":"徳島県","city":"阿波市","address":"阿波町日吉谷"},
{"zip_code":"7711704","kana_pref":"ﾄｸｼﾏｹﾝ","kana_city":"ｱﾜｼ","kana_address":"ｱﾜﾁｮｳﾋﾛﾉ","pref":"徳島県","city":"阿波市","address":"阿波町広野"},
{"zip_code":"7711701","kana_pref":"ﾄｸｼﾏｹﾝ","kana_city":"ｱﾜｼ","kana_address":"ｱﾜﾁｮｳﾍｲｶﾞﾜﾗｷﾀ","pref":"徳島県","city":"阿波市","address":"阿波町平川原北"},
{"zip_code":"7711701","kana_pref":"ﾄｸｼﾏｹﾝ","kana_city":"ｱﾜｼ","kana_address":"ｱﾜﾁｮｳﾍｲｶﾞﾜﾗﾐﾅﾐ","pref":"徳島県","city":"阿波市","address":"阿波町平川原南"},
{"zip_code":"7711702","kana_pref":"ﾄｸｼﾏｹﾝ","kana_city":"ｱﾜｼ","kana_address":"ｱﾜﾁｮｳﾎﾝﾏﾁ","pref":"徳島県","city":"阿波市","address":"阿波町本町"},
{"zip_code":"7711702","kana_pref":"ﾄｸｼﾏｹﾝ","kana_city":"ｱﾜｼ","kana_address":"ｱﾜﾁｮｳﾎﾝﾔｽ","pref":"徳島県","city":"阿波市","address":"阿波町本安"},
{"zip_code":"7711703","kana_pref":"ﾄｸｼﾏｹﾝ","kana_city":"ｱﾜｼ","kana_address":"ｱﾜﾁｮｳﾏｴｼﾞﾏ","pref":"徳島県","city":"阿波市","address":"阿波町前島"},
{"zip_code":"7711704","kana_pref":"ﾄｸｼﾏｹﾝ","kana_city":"ｱﾜｼ","kana_address":"ｱﾜﾁｮｳﾏｼｹﾞ","pref":"徳島県","city":"阿波市","address":"阿波町真重"},
{"zip_code":"7711705","kana_pref":"ﾄｸｼﾏｹﾝ","kana_city":"ｱﾜｼ","kana_address":"ｱﾜﾁｮｳﾏﾂｶﾜｳﾁ","pref":"徳島県","city":"阿波市","address":"阿波町松川内"},
{"zip_code":"7711703","kana_pref":"ﾄｸｼﾏｹﾝ","kana_city":"ｱﾜｼ","kana_address":"ｱﾜﾁｮｳﾏﾙﾔﾏ","pref":"徳島県","city":"阿波市","address":"阿波町丸山"},
{"zip_code":"7711706","kana_pref":"ﾄｸｼﾏｹﾝ","kana_city":"ｱﾜｼ","kana_address":"ｱﾜﾁｮｳﾐﾅﾐｶﾜﾊﾗ","pref":"徳島県","city":"阿波市","address":"阿波町南川原"},
{"zip_code":"7711704","kana_pref":"ﾄｸｼﾏｹﾝ","kana_city":"ｱﾜｼ","kana_address":"ｱﾜﾁｮｳﾐﾅﾐｺﾞﾐｼﾞﾘ","pref":"徳島県","city":"阿波市","address":"阿波町南五味知"},
{"zip_code":"7711703","kana_pref":"ﾄｸｼﾏｹﾝ","kana_city":"ｱﾜｼ","kana_address":"ｱﾜﾁｮｳﾐﾅﾐｼﾎﾞｳ","pref":"徳島県","city":"阿波市","address":"阿波町南柴生"},
{"zip_code":"7711706","kana_pref":"ﾄｸｼﾏｹﾝ","kana_city":"ｱﾜｼ","kana_address":"ｱﾜﾁｮｳﾐﾅﾐｾｲﾘ","pref":"徳島県","city":"阿波市","address":"阿波町南整理"},
{"zip_code":"7711701","kana_pref":"ﾄｸｼﾏｹﾝ","kana_city":"ｱﾜｼ","kana_address":"ｱﾜﾁｮｳﾐﾅﾐﾀﾆｼﾞﾏ","pref":"徳島県","city":"阿波市","address":"阿波町南谷島"},
{"zip_code":"7711706","kana_pref":"ﾄｸｼﾏｹﾝ","kana_city":"ｱﾜｼ","kana_address":"ｱﾜﾁｮｳﾐﾅﾐﾆｼﾀﾞﾆ","pref":"徳島県","city":"阿波市","address":"阿波町南西谷"},
{"zip_code":"7711704","kana_pref":"ﾄｸｼﾏｹﾝ","kana_city":"ｱﾜｼ","kana_address":"ｱﾜﾁｮｳﾓﾄﾏﾁ","pref":"徳島県","city":"阿波市","address":"阿波町元町"},
{"zip_code":"7711702","kana_pref":"ﾄｸｼﾏｹﾝ","kana_city":"ｱﾜｼ","kana_address":"ｱﾜﾁｮｳﾓﾘｻﾜ","pref":"徳島県","city":"阿波市","address":"阿波町森沢"},
{"zip_code":"7711702","kana_pref":"ﾄｸｼﾏｹﾝ","kana_city":"ｱﾜｼ","kana_address":"ｱﾜﾁｮｳﾔｽﾏｻ","pref":"徳島県","city":"阿波市","address":"阿波町安政"},
{"zip_code":"7711702","kana_pref":"ﾄｸｼﾏｹﾝ","kana_city":"ｱﾜｼ","kana_address":"ｱﾜﾁｮｳﾔﾏｼﾞﾘ","pref":"徳島県","city":"阿波市","address":"阿波町山尻"},
{"zip_code":"7711704","kana_pref":"ﾄｸｼﾏｹﾝ","kana_city":"ｱﾜｼ","kana_address":"ｱﾜﾁｮｳﾔﾏﾉｶﾐ","pref":"徳島県","city":"阿波市","address":"阿波町山ノ神"},
{"zip_code":"7711702","kana_pref":"ﾄｸｼﾏｹﾝ","kana_city":"ｱﾜｼ","kana_address":"ｱﾜﾁｮｳﾜｻﾀﾞ","pref":"徳島県","city":"阿波市","address":"阿波町早田"},
{"zip_code":"7711602","kana_pref":"ﾄｸｼﾏｹﾝ","kana_city":"ｱﾜｼ","kana_address":"ｲﾁﾊﾞﾁｮｳｲﾁﾊﾞ","pref":"徳島県","city":"阿波市","address":"市場町市場"},
{"zip_code":"7711603","kana_pref":"ﾄｸｼﾏｹﾝ","kana_city":"ｱﾜｼ","kana_address":"ｲﾁﾊﾞﾁｮｳｲﾁﾊﾞ","pref":"徳島県","city":"阿波市","address":"市場町市場"},
{"zip_code":"7711601","kana_pref":"ﾄｸｼﾏｹﾝ","kana_city":"ｱﾜｼ","kana_address":"ｲﾁﾊﾞﾁｮｳｲﾁﾊﾞ","pref":"徳島県","city":"阿波市","address":"市場町市場"},
{"zip_code":"7711604","kana_pref":"ﾄｸｼﾏｹﾝ","kana_city":"ｱﾜｼ","kana_address":"ｲﾁﾊﾞﾁｮｳｲﾁﾊﾞ","pref":"徳島県","city":"阿波市","address":"市場町市場"},
{"zip_code":"7711626","kana_pref":"ﾄｸｼﾏｹﾝ","kana_city":"ｱﾜｼ","kana_address":"ｲﾁﾊﾞﾁｮｳｲﾂｷ","pref":"徳島県","city":"阿波市","address":"市場町伊月"},
{"zip_code":"7711714","kana_pref":"ﾄｸｼﾏｹﾝ","kana_city":"ｱﾜｼ","kana_address":"ｲﾁﾊﾞﾁｮｳｲﾇﾉﾊｶ","pref":"徳島県","city":"阿波市","address":"市場町犬墓"},
{"zip_code":"7711614","kana_pref":"ﾄｸｼﾏｹﾝ","kana_city":"ｱﾜｼ","kana_address":"ｲﾁﾊﾞﾁｮｳｲﾇﾉﾊｶ","pref":"徳島県","city":"阿波市","address":"市場町犬墓"},
{"zip_code":"7711615","kana_pref":"ﾄｸｼﾏｹﾝ","kana_city":"ｱﾜｼ","kana_address":"ｲﾁﾊﾞﾁｮｳｵｵｶｹﾞ","pref":"徳島県","city":"阿波市","address":"市場町大影"},
{"zip_code":"7711627","kana_pref":"ﾄｸｼﾏｹﾝ","kana_city":"ｱﾜｼ","kana_address":"ｲﾁﾊﾞﾁｮｳｵｵﾉｼﾞﾏ","pref":"徳島県","city":"阿波市","address":"市場町大野島"},
{"zip_code":"7711613","kana_pref":"ﾄｸｼﾏｹﾝ","kana_city":"ｱﾜｼ","kana_address":"ｲﾁﾊﾞﾁｮｳｵｵﾏﾀ","pref":"徳島県","city":"阿波市","address":"市場町大俣"},
{"zip_code":"7711621","kana_pref":"ﾄｸｼﾏｹﾝ","kana_city":"ｱﾜｼ","kana_address":"ｲﾁﾊﾞﾁｮｳｵﾊﾞﾘ","pref":"徳島県","city":"阿波市","address":"市場町尾開"},
{"zip_code":"7711611","kana_pref":"ﾄｸｼﾏｹﾝ","kana_city":"ｱﾜｼ","kana_address":"ｲﾁﾊﾞﾁｮｳｶｶﾞﾐ","pref":"徳島県","city":"阿波市","address":"市場町香美"},
{"zip_code":"7711610","kana_pref":"ﾄｸｼﾏｹﾝ","kana_city":"ｱﾜｼ","kana_address":"ｲﾁﾊﾞﾁｮｳｶｶﾞﾐ","pref":"徳島県","city":"阿波市","address":"市場町香美"},
{"zip_code":"7711612","kana_pref":"ﾄｸｼﾏｹﾝ","kana_city":"ｱﾜｼ","kana_address":"ｲﾁﾊﾞﾁｮｳｶﾐｷﾞﾗｲ","pref":"徳島県","city":"阿波市","address":"市場町上喜来"},
{"zip_code":"7711623","kana_pref":"ﾄｸｼﾏｹﾝ","kana_city":"ｱﾜｼ","kana_address":"ｲﾁﾊﾞﾁｮｳｷﾘﾊﾀ","pref":"徳島県","city":"阿波市","address":"市場町切幡"},
{"zip_code":"7711622","kana_pref":"ﾄｸｼﾏｹﾝ","kana_city":"ｱﾜｼ","kana_address":"ｲﾁﾊﾞﾁｮｳｺｳｻﾞｷ","pref":"徳島県","city":"阿波市","address":"市場町興崎"},
{"zip_code":"7711616","kana_pref":"ﾄｸｼﾏｹﾝ","kana_city":"ｱﾜｼ","kana_address":"ｲﾁﾊﾞﾁｮｳﾋｶﾞｲﾀﾞﾆ","pref":"徳島県","city":"阿波市","address":"市場町日開谷"},
{"zip_code":"7711624","kana_pref":"ﾄｸｼﾏｹﾝ","kana_city":"ｱﾜｼ","kana_address":"ｲﾁﾊﾞﾁｮｳﾔﾏﾉｳｴ","pref":"徳島県","city":"阿波市","address":"市場町山野上"},
{"zip_code":"7711625","kana_pref":"ﾄｸｼﾏｹﾝ","kana_city":"ｱﾜｼ","kana_address":"ｲﾁﾊﾞﾁｮｳﾔﾜﾀ","pref":"徳島県","city":"阿波市","address":"市場町八幡"},
{"zip_code":"7711501","kana_pref":"ﾄｸｼﾏｹﾝ","kana_city":"ｱﾜｼ","kana_address":"ﾄﾞﾅﾘﾁｮｳｱｷﾂﾞｷ","pref":"徳島県","city":"阿波市","address":"土成町秋月"},
{"zip_code":"7711503","kana_pref":"ﾄｸｼﾏｹﾝ","kana_city":"ｱﾜｼ","kana_address":"ﾄﾞﾅﾘﾁｮｳｳﾗﾉｲｹ","pref":"徳島県","city":"阿波市","address":"土成町浦池"},
{"zip_code":"7711505","kana_pref":"ﾄｸｼﾏｹﾝ","kana_city":"ｱﾜｼ","kana_address":"ﾄﾞﾅﾘﾁｮｳｺｵﾘ","pref":"徳島県","city":"阿波市","address":"土成町郡"},
{"zip_code":"7711509","kana_pref":"ﾄｸｼﾏｹﾝ","kana_city":"ｱﾜｼ","kana_address":"ﾄﾞﾅﾘﾁｮｳﾀｶｵ","pref":"徳島県","city":"阿波市","address":"土成町高尾"},
{"zip_code":"7711506","kana_pref":"ﾄｸｼﾏｹﾝ","kana_city":"ｱﾜｼ","kana_address":"ﾄﾞﾅﾘﾁｮｳﾄﾞﾅﾘ","pref":"徳島県","city":"阿波市","address":"土成町土成"},
{"zip_code":"7711504","kana_pref":"ﾄｸｼﾏｹﾝ","kana_city":"ｱﾜｼ","kana_address":"ﾄﾞﾅﾘﾁｮｳﾅﾘﾄｳ","pref":"徳島県","city":"阿波市","address":"土成町成当"},
{"zip_code":"7711502","kana_pref":"ﾄｸｼﾏｹﾝ","kana_city":"ｱﾜｼ","kana_address":"ﾄﾞﾅﾘﾁｮｳﾐｽﾞﾀ","pref":"徳島県","city":"阿波市","address":"土成町水田"},
{"zip_code":"7711508","kana_pref":"ﾄｸｼﾏｹﾝ","kana_city":"ｱﾜｼ","kana_address":"ﾄﾞﾅﾘﾁｮｳﾐﾔｶﾞﾜｳﾁ","pref":"徳島県","city":"阿波市","address":"土成町宮川内"},
{"zip_code":"7711507","kana_pref":"ﾄｸｼﾏｹﾝ","kana_city":"ｱﾜｼ","kana_address":"ﾄﾞﾅﾘﾁｮｳﾖｼﾀﾞ","pref":"徳島県","city":"阿波市","address":"土成町吉田"},
{"zip_code":"7711401","kana_pref":"ﾄｸｼﾏｹﾝ","kana_city":"ｱﾜｼ","kana_address":"ﾖｼﾉﾁｮｳｶｷﾊﾗ","pref":"徳島県","city":"阿波市","address":"吉野町柿原"},
{"zip_code":"7711403","kana_pref":"ﾄｸｼﾏｹﾝ","kana_city":"ｱﾜｼ","kana_address":"ﾖｼﾉﾁｮｳｺﾞｼﾞｮｳ","pref":"徳島県","city":"阿波市","address":"吉野町五条"},
{"zip_code":"7711402","kana_pref":"ﾄｸｼﾏｹﾝ","kana_city":"ｱﾜｼ","kana_address":"ﾖｼﾉﾁｮｳｻｲｼﾞｮｳ","pref":"徳島県","city":"阿波市","address":"吉野町西条"},
{"zip_code":"7712107","kana_pref":"ﾄｸｼﾏｹﾝ","kana_city":"ﾐﾏｼ","kana_address":"ﾐﾏﾁｮｳ","pref":"徳島県","city":"美馬市","address":"美馬町"},
{"zip_code":"7712106","kana_pref":"ﾄｸｼﾏｹﾝ","kana_city":"ﾐﾏｼ","kana_address":"ﾐﾏﾁｮｳ(ｱﾗｶﾜ","pref":"徳島県","city":"美馬市","address":"美馬町（荒川"},
{"zip_code":"7712106","kana_pref":"ﾄｸｼﾏｹﾝ","kana_city":"ﾐﾏｼ","kana_address":"ｲﾃﾞﾍﾞﾘ","pref":"徳島県","city":"美馬市","address":"井出縁"},
{"zip_code":"7712106","kana_pref":"ﾄｸｼﾏｹﾝ","kana_city":"ﾐﾏｼ","kana_address":"ｲﾉｶﾐ","pref":"徳島県","city":"美馬市","address":"井ノ神"},
{"zip_code":"7712106","kana_pref":"ﾄｸｼﾏｹﾝ","kana_city":"ﾐﾏｼ","kana_address":"ｵｵｲｽﾞﾐ","pref":"徳島県","city":"美馬市","address":"大泉"},
{"zip_code":"7712106","kana_pref":"ﾄｸｼﾏｹﾝ","kana_city":"ﾐﾏｼ","kana_address":"ｵｵﾐﾔﾆｼ","pref":"徳島県","city":"美馬市","address":"大宮西"},
{"zip_code":"7712106","kana_pref":"ﾄｸｼﾏｹﾝ","kana_city":"ﾐﾏｼ","kana_address":"ｶﾐﾂｷﾀﾞｼ","pref":"徳島県","city":"美馬市","address":"上突出"},
{"zip_code":"7712106","kana_pref":"ﾄｸｼﾏｹﾝ","kana_city":"ﾐﾏｼ","kana_address":"ｷｼﾉｼﾀ","pref":"徳島県","city":"美馬市","address":"岸ノ下"},
{"zip_code":"7712106","kana_pref":"ﾄｸｼﾏｹﾝ","kana_city":"ﾐﾏｼ","kana_address":"ｷﾀﾋｶﾞｼﾊﾞﾗ","pref":"徳島県","city":"美馬市","address":"北東原"},
{"zip_code":"7712106","kana_pref":"ﾄｸｼﾏｹﾝ","kana_city":"ﾐﾏｼ","kana_address":"","pref":"徳島県","city":"美馬市","address":""},
{"zip_code":"7712106","kana_pref":"ﾄｸｼﾏｹﾝ","kana_city":"ﾐﾏｼ","kana_address":"ｷﾗｲｲﾁ","pref":"徳島県","city":"美馬市","address":"喜来市"},
{"zip_code":"7712106","kana_pref":"ﾄｸｼﾏｹﾝ","kana_city":"ﾐﾏｼ","kana_address":"ｻﾄﾋﾗﾉ","pref":"徳島県","city":"美馬市","address":"里平野"},
{"zip_code":"7712106","kana_pref":"ﾄｸｼﾏｹﾝ","kana_city":"ﾐﾏｼ","kana_address":"ｼﾓﾂｷﾀﾞｼ","pref":"徳島県","city":"美馬市","address":"下突出"},
{"zip_code":"7712106","kana_pref":"ﾄｸｼﾏｹﾝ","kana_city":"ﾐﾏｼ","kana_address":"ﾀﾆﾖﾘﾆｼ","pref":"徳島県","city":"美馬市","address":"谷ヨリ西"},
{"zip_code":"7712106","kana_pref":"ﾄｸｼﾏｹﾝ","kana_city":"ﾐﾏｼ","kana_address":"ﾁﾁﾉｷ","pref":"徳島県","city":"美馬市","address":"乳ノ木"},
{"zip_code":"7712106","kana_pref":"ﾄｸｼﾏｹﾝ","kana_city":"ﾐﾏｼ","kana_address":"ﾃﾗﾉｼﾀ","pref":"徳島県","city":"美馬市","address":"寺ノ下"},
{"zip_code":"7712106","kana_pref":"ﾄｸｼﾏｹﾝ","kana_city":"ﾐﾏｼ","kana_address":"ﾃﾝｼﾞﾝ","pref":"徳島県","city":"美馬市","address":"天神"},
{"zip_code":"7712106","kana_pref":"ﾄｸｼﾏｹﾝ","kana_city":"ﾐﾏｼ","kana_address":"ﾃﾝｼﾞﾝｷﾀ","pref":"徳島県","city":"美馬市","address":"天神北"},
{"zip_code":"7712106","kana_pref":"ﾄｸｼﾏｹﾝ","kana_city":"ﾐﾏｼ","kana_address":"ﾅｶﾋｶﾞｼﾊﾞﾗ","pref":"徳島県","city":"美馬市","address":"中東原"},
{"zip_code":"7712106","kana_pref":"ﾄｸｼﾏｹﾝ","kana_city":"ﾐﾏｼ","kana_address":"","pref":"徳島県","city":"美馬市","address":""},
{"zip_code":"7712106","kana_pref":"ﾄｸｼﾏｹﾝ","kana_city":"ﾐﾏｼ","kana_address":"ﾆｼｱﾗｶﾜ","pref":"徳島県","city":"美馬市","address":"西荒川"},
{"zip_code":"7712106","kana_pref":"ﾄｸｼﾏｹﾝ","kana_city":"ﾐﾏｼ","kana_address":"ﾇﾏﾀﾞｼﾞﾏ","pref":"徳島県","city":"美馬市","address":"沼田島"},
{"zip_code":"7712106","kana_pref":"ﾄｸｼﾏｹﾝ","kana_city":"ﾐﾏｼ","kana_address":"ﾋｶﾞｼｱﾗｶﾜ","pref":"徳島県","city":"美馬市","address":"東荒川"},
{"zip_code":"7712106","kana_pref":"ﾄｸｼﾏｹﾝ","kana_city":"ﾐﾏｼ","kana_address":"ﾐﾅﾐｱﾗｶﾜ","pref":"徳島県","city":"美馬市","address":"南荒川"},
{"zip_code":"7712106","kana_pref":"ﾄｸｼﾏｹﾝ","kana_city":"ﾐﾏｼ","kana_address":"ﾐﾅﾐﾋｶﾞｼﾊﾞﾗ","pref":"徳島県","city":"美馬市","address":"南東原"},
{"zip_code":"7712106","kana_pref":"ﾄｸｼﾏｹﾝ","kana_city":"ﾐﾏｼ","kana_address":"ﾐｮｳｹﾝ","pref":"徳島県","city":"美馬市","address":"妙見"},
{"zip_code":"7712106","kana_pref":"ﾄｸｼﾏｹﾝ","kana_city":"ﾐﾏｼ","kana_address":"ﾔﾏﾖﾒｻﾞｶ)","pref":"徳島県","city":"美馬市","address":"山嫁坂）"},
{"zip_code":"7712102","kana_pref":"ﾄｸｼﾏｹﾝ","kana_city":"ﾐﾏｼ","kana_address":"ﾐﾏﾁｮｳ(ｲｴﾉﾏｴ","pref":"徳島県","city":"美馬市","address":"美馬町（家ノ前"},
{"zip_code":"7712102","kana_pref":"ﾄｸｼﾏｹﾝ","kana_city":"ﾐﾏｼ","kana_address":"ｵｵｲｹ","pref":"徳島県","city":"美馬市","address":"大池"},
{"zip_code":"7712102","kana_pref":"ﾄｸｼﾏｹﾝ","kana_city":"ﾐﾏｼ","kana_address":"ｵｵｳｴ","pref":"徳島県","city":"美馬市","address":"大上"},
{"zip_code":"7712102","kana_pref":"ﾄｸｼﾏｹﾝ","kana_city":"ﾐﾏｼ","kana_address":"ｵｵｷﾀ","pref":"徳島県","city":"美馬市","address":"大北"},
{"zip_code":"7712102","kana_pref":"ﾄｸｼﾏｹﾝ","kana_city":"ﾐﾏｼ","kana_address":"ｵｵｻｺ","pref":"徳島県","city":"美馬市","address":"大佐古"},
{"zip_code":"7712102","kana_pref":"ﾄｸｼﾏｹﾝ","kana_city":"ﾐﾏｼ","kana_address":"ｵｵﾏｴ","pref":"徳島県","city":"美馬市","address":"大前"},
{"zip_code":"7712102","kana_pref":"ﾄｸｼﾏｹﾝ","kana_city":"ﾐﾏｼ","kana_address":"ｵｶﾉｳﾁ","pref":"徳島県","city":"美馬市","address":"岡ノ内"},
{"zip_code":"7712102","kana_pref":"ﾄｸｼﾏｹﾝ","kana_city":"ﾐﾏｼ","kana_address":"ｵｼｱｹﾞ","pref":"徳島県","city":"美馬市","address":"押上"},
{"zip_code":"7712102","kana_pref":"ﾄｸｼﾏｹﾝ","kana_city":"ﾐﾏｼ","kana_address":"ｶﾔﾊﾞﾗ","pref":"徳島県","city":"美馬市","address":"茅原"},
{"zip_code":"7712102","kana_pref":"ﾄｸｼﾏｹﾝ","kana_city":"ﾐﾏｼ","kana_address":"","pref":"徳島県","city":"美馬市","address":""},
{"zip_code":"7712102","kana_pref":"ﾄｸｼﾏｹﾝ","kana_city":"ﾐﾏｼ","kana_address":"ｶﾜﾉｳｴ","pref":"徳島県","city":"美馬市","address":"川ノ上"},
{"zip_code":"7712102","kana_pref":"ﾄｸｼﾏｹﾝ","kana_city":"ﾐﾏｼ","kana_address":"ｶﾝﾉﾝ","pref":"徳島県","city":"美馬市","address":"観音"},
{"zip_code":"7712102","kana_pref":"ﾄｸｼﾏｹﾝ","kana_city":"ﾐﾏｼ","kana_address":"ｸﾘﾊﾞﾔｼ","pref":"徳島県","city":"美馬市","address":"栗林"},
{"zip_code":"7712102","kana_pref":"ﾄｸｼﾏｹﾝ","kana_city":"ﾐﾏｼ","kana_address":"ｸﾛｽﾅ","pref":"徳島県","city":"美馬市","address":"黒砂"},
{"zip_code":"7712102","kana_pref":"ﾄｸｼﾏｹﾝ","kana_city":"ﾐﾏｼ","kana_address":"ｻﾙｶﾞｳﾁ","pref":"徳島県","city":"美馬市","address":"狙ケ内"},
{"zip_code":"7712102","kana_pref":"ﾄｸｼﾏｹﾝ","kana_city":"ﾐﾏｼ","kana_address":"ｻﾙｻｶ","pref":"徳島県","city":"美馬市","address":"猿坂"},
{"zip_code":"7712102","kana_pref":"ﾄｸｼﾏｹﾝ","kana_city":"ﾐﾏｼ","kana_address":"ｼﾓｼﾛｼﾞ","pref":"徳島県","city":"美馬市","address":"下白地"},
{"zip_code":"7712102","kana_pref":"ﾄｸｼﾏｹﾝ","kana_city":"ﾐﾏｼ","kana_address":"ｼﾛｼﾞ","pref":"徳島県","city":"美馬市","address":"白地"},
{"zip_code":"7712102","kana_pref":"ﾄｸｼﾏｹﾝ","kana_city":"ﾐﾏｼ","kana_address":"ｽﾐｶﾞﾏ","pref":"徳島県","city":"美馬市","address":"炭釜"},
{"zip_code":"7712102","kana_pref":"ﾄｸｼﾏｹﾝ","kana_city":"ﾐﾏｼ","kana_address":"ｾﾘｻﾞｺ","pref":"徳島県","city":"美馬市","address":"芹佐古"},
{"zip_code":"7712102","kana_pref":"ﾄｸｼﾏｹﾝ","kana_city":"ﾐﾏｼ","kana_address":"ｿｳｺﾞ","pref":"徳島県","city":"美馬市","address":"惣後"},
{"zip_code":"7712102","kana_pref":"ﾄｸｼﾏｹﾝ","kana_city":"ﾐﾏｼ","kana_address":"","pref":"徳島県","city":"美馬市","address":""},
{"zip_code":"7712102","kana_pref":"ﾄｸｼﾏｹﾝ","kana_city":"ﾐﾏｼ","kana_address":"ｿｳﾀﾞ","pref":"徳島県","city":"美馬市","address":"惣田"},
{"zip_code":"7712102","kana_pref":"ﾄｸｼﾏｹﾝ","kana_city":"ﾐﾏｼ","kana_address":"ｿﾄﾊﾞｶ","pref":"徳島県","city":"美馬市","address":"外墓"},
{"zip_code":"7712102","kana_pref":"ﾄｸｼﾏｹﾝ","kana_city":"ﾐﾏｼ","kana_address":"ﾀｷﾉｳｴ","pref":"徳島県","city":"美馬市","address":"滝ノ上"},
{"zip_code":"7712102","kana_pref":"ﾄｸｼﾏｹﾝ","kana_city":"ﾐﾏｼ","kana_address":"ﾀﾂﾐﾔﾏ","pref":"徳島県","city":"美馬市","address":"立見山"},
{"zip_code":"7712102","kana_pref":"ﾄｸｼﾏｹﾝ","kana_city":"ﾐﾏｼ","kana_address":"ﾀﾉｵｶ","pref":"徳島県","city":"美馬市","address":"田ノ岡"},
{"zip_code":"7712102","kana_pref":"ﾄｸｼﾏｹﾝ","kana_city":"ﾐﾏｼ","kana_address":"ﾀﾝｻﾞｶ","pref":"徳島県","city":"美馬市","address":"狙坂"},
{"zip_code":"7712102","kana_pref":"ﾄｸｼﾏｹﾝ","kana_city":"ﾐﾏｼ","kana_address":"ﾅｶｵｶ","pref":"徳島県","city":"美馬市","address":"中岡"},
{"zip_code":"7712102","kana_pref":"ﾄｸｼﾏｹﾝ","kana_city":"ﾐﾏｼ","kana_address":"ﾅｶﾉﾀﾉｲ","pref":"徳島県","city":"美馬市","address":"中野田ノ井"},
{"zip_code":"7712102","kana_pref":"ﾄｸｼﾏｹﾝ","kana_city":"ﾐﾏｼ","kana_address":"ﾅｶﾖｺｵ","pref":"徳島県","city":"美馬市","address":"中横尾"},
{"zip_code":"7712102","kana_pref":"ﾄｸｼﾏｹﾝ","kana_city":"ﾐﾏｼ","kana_address":"ﾅｶﾞｼﾞ","pref":"徳島県","city":"美馬市","address":"長地"},
{"zip_code":"7712102","kana_pref":"ﾄｸｼﾏｹﾝ","kana_city":"ﾐﾏｼ","kana_address":"","pref":"徳島県","city":"美馬市","address":""},
{"zip_code":"7712102","kana_pref":"ﾄｸｼﾏｹﾝ","kana_city":"ﾐﾏｼ","kana_address":"ﾆｼｳﾗ","pref":"徳島県","city":"美馬市","address":"西浦"},
{"zip_code":"7712102","kana_pref":"ﾄｸｼﾏｹﾝ","kana_city":"ﾐﾏｼ","kana_address":"ﾆｼﾉﾀﾆ","pref":"徳島県","city":"美馬市","address":"西ノ谷"},
{"zip_code":"7712102","kana_pref":"ﾄｸｼﾏｹﾝ","kana_city":"ﾐﾏｼ","kana_address":"ﾉﾀﾉｲ","pref":"徳島県","city":"美馬市","address":"野田ノ井"},
{"zip_code":"7712102","kana_pref":"ﾄｸｼﾏｹﾝ","kana_city":"ﾐﾏｼ","kana_address":"ﾊｼﾀﾞﾆ","pref":"徳島県","city":"美馬市","address":"橋谷"},
{"zip_code":"7712102","kana_pref":"ﾄｸｼﾏｹﾝ","kana_city":"ﾐﾏｼ","kana_address":"ﾊﾞｼﾄｺ","pref":"徳島県","city":"美馬市","address":"場シ所"},
{"zip_code":"7712102","kana_pref":"ﾄｸｼﾏｹﾝ","kana_city":"ﾐﾏｼ","kana_address":"ﾋｶﾞｼｽｼﾞ","pref":"徳島県","city":"美馬市","address":"東筋"},
{"zip_code":"7712102","kana_pref":"ﾄｸｼﾏｹﾝ","kana_city":"ﾐﾏｼ","kana_address":"ﾋﾗｵ","pref":"徳島県","city":"美馬市","address":"平尾"},
{"zip_code":"7712102","kana_pref":"ﾄｸｼﾏｹﾝ","kana_city":"ﾐﾏｼ","kana_address":"ﾋﾗﾉ","pref":"徳島県","city":"美馬市","address":"平野"},
{"zip_code":"7712102","kana_pref":"ﾄｸｼﾏｹﾝ","kana_city":"ﾐﾏｼ","kana_address":"ﾌｼﾞﾕｳ","pref":"徳島県","city":"美馬市","address":"藤宇"},
{"zip_code":"7712102","kana_pref":"ﾄｸｼﾏｹﾝ","kana_city":"ﾐﾏｼ","kana_address":"ﾏｴｻﾞｶ","pref":"徳島県","city":"美馬市","address":"前坂"},
{"zip_code":"7712102","kana_pref":"ﾄｸｼﾏｹﾝ","kana_city":"ﾐﾏｼ","kana_address":"","pref":"徳島県","city":"美馬市","address":""},
{"zip_code":"7712102","kana_pref":"ﾄｸｼﾏｹﾝ","kana_city":"ﾐﾏｼ","kana_address":"ﾐｽﾞﾉｵｶ","pref":"徳島県","city":"美馬市","address":"水ノ岡"},
{"zip_code":"7712102","kana_pref":"ﾄｸｼﾏｹﾝ","kana_city":"ﾐﾏｼ","kana_address":"ﾐｿｶﾞｸﾎﾞ","pref":"徳島県","city":"美馬市","address":"味噌ケ久保"},
{"zip_code":"7712102","kana_pref":"ﾄｸｼﾏｹﾝ","kana_city":"ﾐﾏｼ","kana_address":"ﾐﾁﾉｳｴ","pref":"徳島県","city":"美馬市","address":"道ノ上"},
{"zip_code":"7712102","kana_pref":"ﾄｸｼﾏｹﾝ","kana_city":"ﾐﾏｼ","kana_address":"ﾐﾔﾉｵｶ","pref":"徳島県","city":"美馬市","address":"宮ノ岡"},
{"zip_code":"7712102","kana_pref":"ﾄｸｼﾏｹﾝ","kana_city":"ﾐﾏｼ","kana_address":"ﾑﾅﾊﾞﾀ","pref":"徳島県","city":"美馬市","address":"南畠"},
{"zip_code":"7712102","kana_pref":"ﾄｸｼﾏｹﾝ","kana_city":"ﾐﾏｼ","kana_address":"ﾔｸｼｶﾞｸﾎﾞ","pref":"徳島県","city":"美馬市","address":"薬師ケ久保"},
{"zip_code":"7712102","kana_pref":"ﾄｸｼﾏｹﾝ","kana_city":"ﾐﾏｼ","kana_address":"ﾔﾏﾆｼﾔｼｷ","pref":"徳島県","city":"美馬市","address":"山西屋敷"},
{"zip_code":"7712102","kana_pref":"ﾄｸｼﾏｹﾝ","kana_city":"ﾐﾏｼ","kana_address":"","pref":"徳島県","city":"美馬市","address":""},
{"zip_code":"7712102","kana_pref":"ﾄｸｼﾏｹﾝ","kana_city":"ﾐﾏｼ","kana_address":"ﾔﾏﾊｼﾀﾞﾆ","pref":"徳島県","city":"美馬市","address":"山橋谷"},
{"zip_code":"7712102","kana_pref":"ﾄｸｼﾏｹﾝ","kana_city":"ﾐﾏｼ","kana_address":"ﾖｺｵ)","pref":"徳島県","city":"美馬市","address":"横尾）"},
{"zip_code":"7712105","kana_pref":"ﾄｸｼﾏｹﾝ","kana_city":"ﾐﾏｼ","kana_address":"ﾐﾏﾁｮｳ","pref":"徳島県","city":"美馬市","address":"美馬町"},
{"zip_code":"7712103","kana_pref":"ﾄｸｼﾏｹﾝ","kana_city":"ﾐﾏｼ","kana_address":"ﾐﾏﾁｮｳ(ｲﾁﾉﾐﾔ","pref":"徳島県","city":"美馬市","address":"美馬町（一ノ宮"},
{"zip_code":"7712103","kana_pref":"ﾄｸｼﾏｹﾝ","kana_city":"ﾐﾏｼ","kana_address":"ｳｼﾛﾀﾞﾆ","pref":"徳島県","city":"美馬市","address":"後谷"},
{"zip_code":"7712103","kana_pref":"ﾄｸｼﾏｹﾝ","kana_city":"ﾐﾏｼ","kana_address":"ｸﾗｵ","pref":"徳島県","city":"美馬市","address":"倉尾"},
{"zip_code":"7712103","kana_pref":"ﾄｸｼﾏｹﾝ","kana_city":"ﾐﾏｼ","kana_address":"ｻﾝﾄｳｻﾞﾝ","pref":"徳島県","city":"美馬市","address":"三頭山"},
{"zip_code":"7712103","kana_pref":"ﾄｸｼﾏｹﾝ","kana_city":"ﾐﾏｼ","kana_address":"ｼﾓｳｼﾛﾀﾞﾆ","pref":"徳島県","city":"美馬市","address":"下後谷"},
{"zip_code":"7712103","kana_pref":"ﾄｸｼﾏｹﾝ","kana_city":"ﾐﾏｼ","kana_address":"ﾀｶｿｳ","pref":"徳島県","city":"美馬市","address":"高惣"},
{"zip_code":"7712103","kana_pref":"ﾄｸｼﾏｹﾝ","kana_city":"ﾐﾏｼ","kana_address":"ﾀﾆｼﾞﾘ","pref":"徳島県","city":"美馬市","address":"谷尻"},
{"zip_code":"7712103","kana_pref":"ﾄｸｼﾏｹﾝ","kana_city":"ﾐﾏｼ","kana_address":"","pref":"徳島県","city":"美馬市","address":""},
{"zip_code":"7712103","kana_pref":"ﾄｸｼﾏｹﾝ","kana_city":"ﾐﾏｼ","kana_address":"ﾂﾕｸﾞﾁ","pref":"徳島県","city":"美馬市","address":"露口"},
{"zip_code":"7712103","kana_pref":"ﾄｸｼﾏｹﾝ","kana_city":"ﾐﾏｼ","kana_address":"ﾅｶﾇﾏﾀﾞ","pref":"徳島県","city":"美馬市","address":"中沼田"},
{"zip_code":"7712103","kana_pref":"ﾄｸｼﾏｹﾝ","kana_city":"ﾐﾏｼ","kana_address":"ﾅｶﾉ","pref":"徳島県","city":"美馬市","address":"中野"},
{"zip_code":"7712103","kana_pref":"ﾄｸｼﾏｹﾝ","kana_city":"ﾐﾏｼ","kana_address":"ﾅﾂﾔｷ","pref":"徳島県","city":"美馬市","address":"夏弥喜"},
{"zip_code":"7712103","kana_pref":"ﾄｸｼﾏｹﾝ","kana_city":"ﾐﾏｼ","kana_address":"ﾅﾛｵ","pref":"徳島県","city":"美馬市","address":"ナロヲ"},
{"zip_code":"7712103","kana_pref":"ﾄｸｼﾏｹﾝ","kana_city":"ﾐﾏｼ","kana_address":"ﾆｼｵｵｸﾎﾞ","pref":"徳島県","city":"美馬市","address":"西大久保"},
{"zip_code":"7712103","kana_pref":"ﾄｸｼﾏｹﾝ","kana_city":"ﾐﾏｼ","kana_address":"ﾆｼﾇﾏﾀﾞ","pref":"徳島県","city":"美馬市","address":"西沼田"},
{"zip_code":"7712103","kana_pref":"ﾄｸｼﾏｹﾝ","kana_city":"ﾐﾏｼ","kana_address":"ﾇﾏﾀﾞ","pref":"徳島県","city":"美馬市","address":"沼田"},
{"zip_code":"7712103","kana_pref":"ﾄｸｼﾏｹﾝ","kana_city":"ﾐﾏｼ","kana_address":"ﾊﾁﾉﾂﾎﾞ","pref":"徳島県","city":"美馬市","address":"八ノ坪"},
{"zip_code":"7712103","kana_pref":"ﾄｸｼﾏｹﾝ","kana_city":"ﾐﾏｼ","kana_address":"","pref":"徳島県","city":"美馬市","address":""},
{"zip_code":"7712103","kana_pref":"ﾄｸｼﾏｹﾝ","kana_city":"ﾐﾏｼ","kana_address":"ﾎﾞｳｶﾞﾀﾆ","pref":"徳島県","city":"美馬市","address":"坊ケ谷"},
{"zip_code":"7712103","kana_pref":"ﾄｸｼﾏｹﾝ","kana_city":"ﾐﾏｼ","kana_address":"ﾐｽﾞｸﾎﾞ","pref":"徳島県","city":"美馬市","address":"水久保"},
{"zip_code":"7712103","kana_pref":"ﾄｸｼﾏｹﾝ","kana_city":"ﾐﾏｼ","kana_address":"ﾑﾈﾉﾌﾞﾝ","pref":"徳島県","city":"美馬市","address":"宗ノ分"},
{"zip_code":"7712103","kana_pref":"ﾄｸｼﾏｹﾝ","kana_city":"ﾐﾏｼ","kana_address":"ﾔﾅｲ)","pref":"徳島県","city":"美馬市","address":"屋内）"},
{"zip_code":"7712101","kana_pref":"ﾄｸｼﾏｹﾝ","kana_city":"ﾐﾏｼ","kana_address":"ﾐﾏﾁｮｳ","pref":"徳島県","city":"美馬市","address":"美馬町"},
{"zip_code":"7712104","kana_pref":"ﾄｸｼﾏｹﾝ","kana_city":"ﾐﾏｼ","kana_address":"ﾐﾏﾁｮｳ(ｳｶﾞｲｸﾞﾁ","pref":"徳島県","city":"美馬市","address":"美馬町（鵜飼口"},
{"zip_code":"7712104","kana_pref":"ﾄｸｼﾏｹﾝ","kana_city":"ﾐﾏｼ","kana_address":"ｵｶ","pref":"徳島県","city":"美馬市","address":"岡"},
{"zip_code":"7712104","kana_pref":"ﾄｸｼﾏｹﾝ","kana_city":"ﾐﾏｼ","kana_address":"ｵﾊﾞｾ","pref":"徳島県","city":"美馬市","address":"小長谷"},
{"zip_code":"7712104","kana_pref":"ﾄｸｼﾏｹﾝ","kana_city":"ﾐﾏｼ","kana_address":"ｵﾊﾞｾﾊﾞﾀ","pref":"徳島県","city":"美馬市","address":"小長谷端"},
{"zip_code":"7712104","kana_pref":"ﾄｸｼﾏｹﾝ","kana_city":"ﾐﾏｼ","kana_address":"ｶｻﾎﾞﾄｹ","pref":"徳島県","city":"美馬市","address":"笠仏"},
{"zip_code":"7712104","kana_pref":"ﾄｸｼﾏｹﾝ","kana_city":"ﾐﾏｼ","kana_address":"ｶﾜﾍﾞﾘ","pref":"徳島県","city":"美馬市","address":"川縁"},
{"zip_code":"7712104","kana_pref":"ﾄｸｼﾏｹﾝ","kana_city":"ﾐﾏｼ","kana_address":"ｺｳｼﾞﾝ","pref":"徳島県","city":"美馬市","address":"荒神"},
{"zip_code":"7712104","kana_pref":"ﾄｸｼﾏｹﾝ","kana_city":"ﾐﾏｼ","kana_address":"ｽｹﾏﾂ","pref":"徳島県","city":"美馬市","address":"助松"},
{"zip_code":"7712104","kana_pref":"ﾄｸｼﾏｹﾝ","kana_city":"ﾐﾏｼ","kana_address":"ﾀｶﾊﾞﾀｹ","pref":"徳島県","city":"美馬市","address":"高畑"},
{"zip_code":"7712104","kana_pref":"ﾄｸｼﾏｹﾝ","kana_city":"ﾐﾏｼ","kana_address":"ﾀﾂｶｸ","pref":"徳島県","city":"美馬市","address":"辰角"},
{"zip_code":"7712104","kana_pref":"ﾄｸｼﾏｹﾝ","kana_city":"ﾐﾏｼ","kana_address":"","pref":"徳島県","city":"美馬市","address":""},
{"zip_code":"7712104","kana_pref":"ﾄｸｼﾏｹﾝ","kana_city":"ﾐﾏｼ","kana_address":"ﾀﾆｶﾞｼﾗ","pref":"徳島県","city":"美馬市","address":"谷頭"},
{"zip_code":"7712104","kana_pref":"ﾄｸｼﾏｹﾝ","kana_city":"ﾐﾏｼ","kana_address":"ﾀﾏﾌﾘﾏｴ","pref":"徳島県","city":"美馬市","address":"玉振前"},
{"zip_code":"7712104","kana_pref":"ﾄｸｼﾏｹﾝ","kana_city":"ﾐﾏｼ","kana_address":"ﾁｹﾞｼﾞ","pref":"徳島県","city":"美馬市","address":"チゲジ"},
{"zip_code":"7712104","kana_pref":"ﾄｸｼﾏｹﾝ","kana_city":"ﾐﾏｼ","kana_address":"ﾃﾝｼﾞﾝﾋｶﾞｼ","pref":"徳島県","city":"美馬市","address":"天神東"},
{"zip_code":"7712104","kana_pref":"ﾄｸｼﾏｹﾝ","kana_city":"ﾐﾏｼ","kana_address":"ﾄﾄﾞﾛｷ","pref":"徳島県","city":"美馬市","address":"轟"},
{"zip_code":"7712104","kana_pref":"ﾄｸｼﾏｹﾝ","kana_city":"ﾐﾏｼ","kana_address":"ﾅｶｸﾞﾛ","pref":"徳島県","city":"美馬市","address":"中黒"},
{"zip_code":"7712104","kana_pref":"ﾄｸｼﾏｹﾝ","kana_city":"ﾐﾏｼ","kana_address":"ﾅｶｽ","pref":"徳島県","city":"美馬市","address":"中須"},
{"zip_code":"7712104","kana_pref":"ﾄｸｼﾏｹﾝ","kana_city":"ﾐﾏｼ","kana_address":"ﾅｶﾐﾁｷﾀ","pref":"徳島県","city":"美馬市","address":"中道北"},
{"zip_code":"7712104","kana_pref":"ﾄｸｼﾏｹﾝ","kana_city":"ﾐﾏｼ","kana_address":"ﾅｶﾐﾁﾐﾅﾐ","pref":"徳島県","city":"美馬市","address":"中道南"},
{"zip_code":"7712104","kana_pref":"ﾄｸｼﾏｹﾝ","kana_city":"ﾐﾏｼ","kana_address":"ﾉﾂｺﾞ","pref":"徳島県","city":"美馬市","address":"ノツゴ"},
{"zip_code":"7712104","kana_pref":"ﾄｸｼﾏｹﾝ","kana_city":"ﾐﾏｼ","kana_address":"","pref":"徳島県","city":"美馬市","address":""},
{"zip_code":"7712104","kana_pref":"ﾄｸｼﾏｹﾝ","kana_city":"ﾐﾏｼ","kana_address":"ﾉﾘｺﾍ","pref":"徳島県","city":"美馬市","address":"ノリコヘ"},
{"zip_code":"7712104","kana_pref":"ﾄｸｼﾏｹﾝ","kana_city":"ﾐﾏｼ","kana_address":"ﾊｼﾉﾓﾄ","pref":"徳島県","city":"美馬市","address":"橋本"},
{"zip_code":"7712104","kana_pref":"ﾄｸｼﾏｹﾝ","kana_city":"ﾐﾏｼ","kana_address":"ﾋｶﾞｼｷｼﾉｼﾀ","pref":"徳島県","city":"美馬市","address":"東岸ノ下"},
{"zip_code":"7712104","kana_pref":"ﾄｸｼﾏｹﾝ","kana_city":"ﾐﾏｼ","kana_address":"ﾋｶﾞｼﾀﾞﾝ","pref":"徳島県","city":"美馬市","address":"東段"},
{"zip_code":"7712104","kana_pref":"ﾄｸｼﾏｹﾝ","kana_city":"ﾐﾏｼ","kana_address":"ﾋｶﾞｼﾑﾈｼｹﾞ","pref":"徳島県","city":"美馬市","address":"東宗重"},
{"zip_code":"7712104","kana_pref":"ﾄｸｼﾏｹﾝ","kana_city":"ﾐﾏｼ","kana_address":"ﾎﾞｳｿｳ","pref":"徳島県","city":"美馬市","address":"坊僧"},
{"zip_code":"7712104","kana_pref":"ﾄｸｼﾏｹﾝ","kana_city":"ﾐﾏｼ","kana_address":"ﾏﾙﾔﾏ","pref":"徳島県","city":"美馬市","address":"丸山"},
{"zip_code":"7712104","kana_pref":"ﾄｸｼﾏｹﾝ","kana_city":"ﾐﾏｼ","kana_address":"ﾐﾅﾐﾊﾗ","pref":"徳島県","city":"美馬市","address":"南原"},
{"zip_code":"7712104","kana_pref":"ﾄｸｼﾏｹﾝ","kana_city":"ﾐﾏｼ","kana_address":"ﾐｮｳｼﾞﾝﾊﾞﾗ","pref":"徳島県","city":"美馬市","address":"明神原"},
{"zip_code":"7712104","kana_pref":"ﾄｸｼﾏｹﾝ","kana_city":"ﾐﾏｼ","kana_address":"","pref":"徳島県","city":"美馬市","address":""},
{"zip_code":"7712104","kana_pref":"ﾄｸｼﾏｹﾝ","kana_city":"ﾐﾏｼ","kana_address":"ﾑﾈｼｹﾞ","pref":"徳島県","city":"美馬市","address":"宗重"},
{"zip_code":"7712104","kana_pref":"ﾄｸｼﾏｹﾝ","kana_city":"ﾐﾏｼ","kana_address":"ﾔｸｼ)","pref":"徳島県","city":"美馬市","address":"薬師）"},
{"zip_code":"7712302","kana_pref":"ﾄｸｼﾏｹﾝ","kana_city":"ﾐﾖｼｼ","kana_address":"ﾐﾉﾁｮｳｶﾓﾉﾐﾔ","pref":"徳島県","city":"三好市","address":"三野町加茂野宮"},
{"zip_code":"7712304","kana_pref":"ﾄｸｼﾏｹﾝ","kana_city":"ﾐﾖｼｼ","kana_address":"ﾐﾉﾁｮｳｼﾎﾞｳ","pref":"徳島県","city":"三好市","address":"三野町芝生"},
{"zip_code":"7712301","kana_pref":"ﾄｸｼﾏｹﾝ","kana_city":"ﾐﾖｼｼ","kana_address":"ﾐﾉﾁｮｳｼﾐｽﾞ","pref":"徳島県","city":"三好市","address":"三野町清水"},
{"zip_code":"7712303","kana_pref":"ﾄｸｼﾏｹﾝ","kana_city":"ﾐﾖｼｼ","kana_address":"ﾐﾉﾁｮｳｾｲﾘｷ","pref":"徳島県","city":"三好市","address":"三野町勢力"},
{"zip_code":"7712305","kana_pref":"ﾄｸｼﾏｹﾝ","kana_city":"ﾐﾖｼｼ","kana_address":"ﾐﾉﾁｮｳﾀﾁﾉ","pref":"徳島県","city":"三好市","address":"三野町太刀野"},
{"zip_code":"7712306","kana_pref":"ﾄｸｼﾏｹﾝ","kana_city":"ﾐﾖｼｼ","kana_address":"ﾐﾉﾁｮｳﾀﾁﾉﾔﾏ","pref":"徳島県","city":"三好市","address":"三野町太刀野山"},
{"zip_code":"7714300","kana_pref":"ﾄｸｼﾏｹﾝ","kana_city":"ｶﾂｳﾗｸﾞﾝｶﾂｳﾗﾁｮｳ","kana_address":"","pref":"徳島県","city":"勝浦郡勝浦町","address":""},
{"zip_code":"7714303","kana_pref":"ﾄｸｼﾏｹﾝ","kana_city":"ｶﾂｳﾗｸﾞﾝｶﾂｳﾗﾁｮｳ","kana_address":"ｲｸﾅ","pref":"徳島県","city":"勝浦郡勝浦町","address":"生名"},
{"zip_code":"7714308","kana_pref":"ﾄｸｼﾏｹﾝ","kana_city":"ｶﾂｳﾗｸﾞﾝｶﾂｳﾗﾁｮｳ","kana_address":"ｻｶﾓﾄ","pref":"徳島県","city":"勝浦郡勝浦町","address":"坂本"},
{"zip_code":"7714306","kana_pref":"ﾄｸｼﾏｹﾝ","kana_city":"ｶﾂｳﾗｸﾞﾝｶﾂｳﾗﾁｮｳ","kana_address":"ﾀﾅﾉ","pref":"徳島県","city":"勝浦郡勝浦町","address":"棚野"},
{"zip_code":"7714302","kana_pref":"ﾄｸｼﾏｹﾝ","kana_city":"ｶﾂｳﾗｸﾞﾝｶﾂｳﾗﾁｮｳ","kana_address":"ﾅｶﾂﾉ","pref":"徳島県","city":"勝浦郡勝浦町","address":"中角"},
{"zip_code":"7714301","kana_pref":"ﾄｸｼﾏｹﾝ","kana_city":"ｶﾂｳﾗｸﾞﾝｶﾂｳﾗﾁｮｳ","kana_address":"ﾇｴ","pref":"徳島県","city":"勝浦郡勝浦町","address":"沼江"},
{"zip_code":"7714305","kana_pref":"ﾄｸｼﾏｹﾝ","kana_city":"ｶﾂｳﾗｸﾞﾝｶﾂｳﾗﾁｮｳ","kana_address":"ﾋｻｸﾆ","pref":"徳島県","city":"勝浦郡勝浦町","address":"久国"},
{"zip_code":"7714304","kana_pref":"ﾄｸｼﾏｹﾝ","kana_city":"ｶﾂｳﾗｸﾞﾝｶﾂｳﾗﾁｮｳ","kana_address":"ﾎｼﾀﾆ","pref":"徳島県","city":"勝浦郡勝浦町","address":"星谷"},
{"zip_code":"7714307","kana_pref":"ﾄｸｼﾏｹﾝ","kana_city":"ｶﾂｳﾗｸﾞﾝｶﾂｳﾗﾁｮｳ","kana_address":"ﾐﾀﾆ","pref":"徳島県","city":"勝浦郡勝浦町","address":"三渓"},
{"zip_code":"7714500","kana_pref":"ﾄｸｼﾏｹﾝ","kana_city":"ｶﾂｳﾗｸﾞﾝｶﾐｶﾂﾁｮｳ","kana_address":"","pref":"徳島県","city":"勝浦郡上勝町","address":""},
{"zip_code":"7714502","kana_pref":"ﾄｸｼﾏｹﾝ","kana_city":"ｶﾂｳﾗｸﾞﾝｶﾐｶﾂﾁｮｳ","kana_address":"ｱｻﾋ","pref":"徳島県","city":"勝浦郡上勝町","address":"旭"},
{"zip_code":"7714503","kana_pref":"ﾄｸｼﾏｹﾝ","kana_city":"ｶﾂｳﾗｸﾞﾝｶﾐｶﾂﾁｮｳ","kana_address":"ｲｸﾐ","pref":"徳島県","city":"勝浦郡上勝町","address":"生実"},
{"zip_code":"7714501","kana_pref":"ﾄｸｼﾏｹﾝ","kana_city":"ｶﾂｳﾗｸﾞﾝｶﾐｶﾂﾁｮｳ","kana_address":"ﾌｸﾊﾗ","pref":"徳島県","city":"勝浦郡上勝町","address":"福原"},
{"zip_code":"7714504","kana_pref":"ﾄｸｼﾏｹﾝ","kana_city":"ｶﾂｳﾗｸﾞﾝｶﾐｶﾂﾁｮｳ","kana_address":"ﾎｳｼﾞ","pref":"徳島県","city":"勝浦郡上勝町","address":"傍示"},
{"zip_code":"7714505","kana_pref":"ﾄｸｼﾏｹﾝ","kana_city":"ｶﾂｳﾗｸﾞﾝｶﾐｶﾂﾁｮｳ","kana_address":"ﾏｻｷ","pref":"徳島県","city":"勝浦郡上勝町","address":"正木"},
{"zip_code":"7714100","kana_pref":"ﾄｸｼﾏｹﾝ","kana_city":"ﾐｮｳﾄﾞｳｸﾞﾝｻﾅｺﾞｳﾁｿﾝ","kana_address":"","pref":"徳島県","city":"名東郡佐那河内村","address":""},
{"zip_code":"7714102","kana_pref":"ﾄｸｼﾏｹﾝ","kana_city":"ﾐｮｳﾄﾞｳｸﾞﾝｻﾅｺﾞｳﾁｿﾝ","kana_address":"ｶﾐ","pref":"徳島県","city":"名東郡佐那河内村","address":"上"},
{"zip_code":"7714101","kana_pref":"ﾄｸｼﾏｹﾝ","kana_city":"ﾐｮｳﾄﾞｳｸﾞﾝｻﾅｺﾞｳﾁｿﾝ","kana_address":"ｼﾓ","pref":"徳島県","city":"名東郡佐那河内村","address":"下"},
{"zip_code":"7713200","kana_pref":"ﾄｸｼﾏｹﾝ","kana_city":"ﾐｮｳｻﾞｲｸﾞﾝｶﾐﾔﾏﾁｮｳ","kana_address":"","pref":"徳島県","city":"名西郡神山町","address":""},
{"zip_code":"7713202","kana_pref":"ﾄｸｼﾏｹﾝ","kana_city":"ﾐｮｳｻﾞｲｸﾞﾝｶﾐﾔﾏﾁｮｳ","kana_address":"ｱﾉ","pref":"徳島県","city":"名西郡神山町","address":"阿野"},
{"zip_code":"7713202","kana_pref":"ﾄｸｼﾏｹﾝ","kana_city":"ﾐｮｳｻﾞｲｸﾞﾝｶﾐﾔﾏﾁｮｳ","kana_address":"ｱﾉ","pref":"徳島県","city":"名西郡神山町","address":"阿野"},
{"zip_code":"7713202","kana_pref":"ﾄｸｼﾏｹﾝ","kana_city":"ﾐｮｳｻﾞｲｸﾞﾝｶﾐﾔﾏﾁｮｳ","kana_address":"ｱﾉ","pref":"徳島県","city":"名西郡神山町","address":"阿野"},
{"zip_code":"7713202","kana_pref":"ﾄｸｼﾏｹﾝ","kana_city":"ﾐｮｳｻﾞｲｸﾞﾝｶﾐﾔﾏﾁｮｳ","kana_address":"ｱﾉ","pref":"徳島県","city":"名西郡神山町","address":"阿野"},
{"zip_code":"7713202","kana_pref":"ﾄｸｼﾏｹﾝ","kana_city":"ﾐｮｳｻﾞｲｸﾞﾝｶﾐﾔﾏﾁｮｳ","kana_address":"ｱﾉ","pref":"徳島県","city":"名西郡神山町","address":"阿野"},
{"zip_code":"7713202","kana_pref":"ﾄｸｼﾏｹﾝ","kana_city":"ﾐｮｳｻﾞｲｸﾞﾝｶﾐﾔﾏﾁｮｳ","kana_address":"ｱﾉ","pref":"徳島県","city":"名西郡神山町","address":"阿野"},
{"zip_code":"7713202","kana_pref":"ﾄｸｼﾏｹﾝ","kana_city":"ﾐｮｳｻﾞｲｸﾞﾝｶﾐﾔﾏﾁｮｳ","kana_address":"ｱﾉ","pref":"徳島県","city":"名西郡神山町","address":"阿野"},
{"zip_code":"7713202","kana_pref":"ﾄｸｼﾏｹﾝ","kana_city":"ﾐｮｳｻﾞｲｸﾞﾝｶﾐﾔﾏﾁｮｳ","kana_address":"ｱﾉ","pref":"徳島県","city":"名西郡神山町","address":"阿野"},
{"zip_code":"7713202","kana_pref":"ﾄｸｼﾏｹﾝ","kana_city":"ﾐｮｳｻﾞｲｸﾞﾝｶﾐﾔﾏﾁｮｳ","kana_address":"ｱﾉ","pref":"徳島県","city":"名西郡神山町","address":"阿野"},
{"zip_code":"7713202","kana_pref":"ﾄｸｼﾏｹﾝ","kana_city":"ﾐｮｳｻﾞｲｸﾞﾝｶﾐﾔﾏﾁｮｳ","kana_address":"ｱﾉ","pref":"徳島県","city":"名西郡神山町","address":"阿野"},
{"zip_code":"7713202","kana_pref":"ﾄｸｼﾏｹﾝ","kana_city":"ﾐｮｳｻﾞｲｸﾞﾝｶﾐﾔﾏﾁｮｳ","kana_address":"ｱﾉ","pref":"徳島県","city":"名西郡神山町","address":"阿野"},
{"zip_code":"7713202","kana_pref":"ﾄｸｼﾏｹﾝ","kana_city":"ﾐｮｳｻﾞｲｸﾞﾝｶﾐﾔﾏﾁｮｳ","kana_address":"ｱﾉ","pref":"徳島県","city":"名西郡神山町","address":"阿野"},
{"zip_code":"7713202","kana_pref":"ﾄｸｼﾏｹﾝ","kana_city":"ﾐｮｳｻﾞｲｸﾞﾝｶﾐﾔﾏﾁｮｳ","kana_address":"ｱﾉ","pref":"徳島県","city":"名西郡神山町","address":"阿野"},
{"zip_code":"7713202","kana_pref":"ﾄｸｼﾏｹﾝ","kana_city":"ﾐｮｳｻﾞｲｸﾞﾝｶﾐﾔﾏﾁｮｳ","kana_address":"ｱﾉ","pref":"徳島県","city":"名西郡神山町","address":"阿野"},
{"zip_code":"7713202","kana_pref":"ﾄｸｼﾏｹﾝ","kana_city":"ﾐｮｳｻﾞｲｸﾞﾝｶﾐﾔﾏﾁｮｳ","kana_address":"ｱﾉ","pref":"徳島県","city":"名西郡神山町","address":"阿野"},
{"zip_code":"7713202","kana_pref":"ﾄｸｼﾏｹﾝ","kana_city":"ﾐｮｳｻﾞｲｸﾞﾝｶﾐﾔﾏﾁｮｳ","kana_address":"ｱﾉ","pref":"徳島県","city":"名西郡神山町","address":"阿野"},
{"zip_code":"7713202","kana_pref":"ﾄｸｼﾏｹﾝ","kana_city":"ﾐｮｳｻﾞｲｸﾞﾝｶﾐﾔﾏﾁｮｳ","kana_address":"ｱﾉ","pref":"徳島県","city":"名西郡神山町","address":"阿野"},
{"zip_code":"7713202","kana_pref":"ﾄｸｼﾏｹﾝ","kana_city":"ﾐｮｳｻﾞｲｸﾞﾝｶﾐﾔﾏﾁｮｳ","kana_address":"ｱﾉ","pref":"徳島県","city":"名西郡神山町","address":"阿野"},
{"zip_code":"7713202","kana_pref":"ﾄｸｼﾏｹﾝ","kana_city":"ﾐｮｳｻﾞｲｸﾞﾝｶﾐﾔﾏﾁｮｳ","kana_address":"ｱﾉ","pref":"徳島県","city":"名西郡神山町","address":"阿野"},
{"zip_code":"7713202","kana_pref":"ﾄｸｼﾏｹﾝ","kana_city":"ﾐｮｳｻﾞｲｸﾞﾝｶﾐﾔﾏﾁｮｳ","kana_address":"ｱﾉ","pref":"徳島県","city":"名西郡神山町","address":"阿野"},
{"zip_code":"7713202","kana_pref":"ﾄｸｼﾏｹﾝ","kana_city":"ﾐｮｳｻﾞｲｸﾞﾝｶﾐﾔﾏﾁｮｳ","kana_address":"ｱﾉ","pref":"徳島県","city":"名西郡神山町","address":"阿野"},
{"zip_code":"7713202","kana_pref":"ﾄｸｼﾏｹﾝ","kana_city":"ﾐｮｳｻﾞｲｸﾞﾝｶﾐﾔﾏﾁｮｳ","kana_address":"ｱﾉ","pref":"徳島県","city":"名西郡神山町","address":"阿野"},
{"zip_code":"7713202","kana_pref":"ﾄｸｼﾏｹﾝ","kana_city":"ﾐｮｳｻﾞｲｸﾞﾝｶﾐﾔﾏﾁｮｳ","kana_address":"ｱﾉ","pref":"徳島県","city":"名西郡神山町","address":"阿野"},
{"zip_code":"7713202","kana_pref":"ﾄｸｼﾏｹﾝ","kana_city":"ﾐｮｳｻﾞｲｸﾞﾝｶﾐﾔﾏﾁｮｳ","kana_address":"ｱﾉ","pref":"徳島県","city":"名西郡神山町","address":"阿野"},
{"zip_code":"7713201","kana_pref":"ﾄｸｼﾏｹﾝ","kana_city":"ﾐｮｳｻﾞｲｸﾞﾝｶﾐﾔﾏﾁｮｳ","kana_address":"ｱﾉ","pref":"徳島県","city":"名西郡神山町","address":"阿野"},
{"zip_code":"7713203","kana_pref":"ﾄｸｼﾏｹﾝ","kana_city":"ﾐｮｳｻﾞｲｸﾞﾝｶﾐﾔﾏﾁｮｳ","kana_address":"ｵﾛﾉ","pref":"徳島県","city":"名西郡神山町","address":"鬼籠野"},
{"zip_code":"7713422","kana_pref":"ﾄｸｼﾏｹﾝ","kana_city":"ﾐｮｳｻﾞｲｸﾞﾝｶﾐﾔﾏﾁｮｳ","kana_address":"ｶﾐﾌﾞﾝ","pref":"徳島県","city":"名西郡神山町","address":"上分"},
{"zip_code":"7713421","kana_pref":"ﾄｸｼﾏｹﾝ","kana_city":"ﾐｮｳｻﾞｲｸﾞﾝｶﾐﾔﾏﾁｮｳ","kana_address":"ｼﾓﾌﾞﾝ","pref":"徳島県","city":"名西郡神山町","address":"下分"},
{"zip_code":"7713311","kana_pref":"ﾄｸｼﾏｹﾝ","kana_city":"ﾐｮｳｻﾞｲｸﾞﾝｶﾐﾔﾏﾁｮｳ","kana_address":"ｼﾞﾝﾘｮｳ","pref":"徳島県","city":"名西郡神山町","address":"神領"},
{"zip_code":"7713311","kana_pref":"ﾄｸｼﾏｹﾝ","kana_city":"ﾐｮｳｻﾞｲｸﾞﾝｶﾐﾔﾏﾁｮｳ","kana_address":"ｼﾞﾝﾘｮｳ","pref":"徳島県","city":"名西郡神山町","address":"神領"},
{"zip_code":"7713311","kana_pref":"ﾄｸｼﾏｹﾝ","kana_city":"ﾐｮｳｻﾞｲｸﾞﾝｶﾐﾔﾏﾁｮｳ","kana_address":"ｼﾞﾝﾘｮｳ","pref":"徳島県","city":"名西郡神山町","address":"神領"},
{"zip_code":"7713311","kana_pref":"ﾄｸｼﾏｹﾝ","kana_city":"ﾐｮｳｻﾞｲｸﾞﾝｶﾐﾔﾏﾁｮｳ","kana_address":"ｼﾞﾝﾘｮｳ","pref":"徳島県","city":"名西郡神山町","address":"神領"},
{"zip_code":"7713311","kana_pref":"ﾄｸｼﾏｹﾝ","kana_city":"ﾐｮｳｻﾞｲｸﾞﾝｶﾐﾔﾏﾁｮｳ","kana_address":"ｼﾞﾝﾘｮｳ","pref":"徳島県","city":"名西郡神山町","address":"神領"},
{"zip_code":"7713311","kana_pref":"ﾄｸｼﾏｹﾝ","kana_city":"ﾐｮｳｻﾞｲｸﾞﾝｶﾐﾔﾏﾁｮｳ","kana_address":"ｼﾞﾝﾘｮｳ","pref":"徳島県","city":"名西郡神山町","address":"神領"},
{"zip_code":"7713311","kana_pref":"ﾄｸｼﾏｹﾝ","kana_city":"ﾐｮｳｻﾞｲｸﾞﾝｶﾐﾔﾏﾁｮｳ","kana_address":"ｼﾞﾝﾘｮｳ","pref":"徳島県","city":"名西郡神山町","address":"神領"},
{"zip_code":"7713310","kana_pref":"ﾄｸｼﾏｹﾝ","kana_city":"ﾐｮｳｻﾞｲｸﾞﾝｶﾐﾔﾏﾁｮｳ","kana_address":"ｼﾞﾝﾘｮｳ","pref":"徳島県","city":"名西郡神山町","address":"神領"},
{"zip_code":"7715200","kana_pref":"ﾄｸｼﾏｹﾝ","kana_city":"ﾅｶｸﾞﾝﾅｶﾁｮｳ","kana_address":"","pref":"徳島県","city":"那賀郡那賀町","address":""},
{"zip_code":"7715207","kana_pref":"ﾄｸｼﾏｹﾝ","kana_city":"ﾅｶｸﾞﾝﾅｶﾁｮｳ","kana_address":"ｱｲ","pref":"徳島県","city":"那賀郡那賀町","address":"阿井"},
{"zip_code":"7715403","kana_pref":"ﾄｸｼﾏｹﾝ","kana_city":"ﾅｶｸﾞﾝﾅｶﾁｮｳ","kana_address":"ｱｲｶﾜ","pref":"徳島県","city":"那賀郡那賀町","address":"鮎川"},
{"zip_code":"7715323","kana_pref":"ﾄｸｼﾏｹﾝ","kana_city":"ﾅｶｸﾞﾝﾅｶﾁｮｳ","kana_address":"ｱｲﾅ","pref":"徳島県","city":"那賀郡那賀町","address":"相名"},
{"zip_code":"7715401","kana_pref":"ﾄｸｼﾏｹﾝ","kana_city":"ﾅｶｸﾞﾝﾅｶﾁｮｳ","kana_address":"ｱｿｳ","pref":"徳島県","city":"那賀郡那賀町","address":"朝生"},
{"zip_code":"7716101","kana_pref":"ﾄｸｼﾏｹﾝ","kana_city":"ﾅｶｸﾞﾝﾅｶﾁｮｳ","kana_address":"ｱﾂﾞｴ","pref":"徳島県","city":"那賀郡那賀町","address":"阿津江"},
{"zip_code":"7716103","kana_pref":"ﾄｸｼﾏｹﾝ","kana_city":"ﾅｶｸﾞﾝﾅｶﾁｮｳ","kana_address":"ｲｽﾞﾘﾊ","pref":"徳島県","city":"那賀郡那賀町","address":"出羽"},
{"zip_code":"7715324","kana_pref":"ﾄｸｼﾏｹﾝ","kana_city":"ﾅｶｸﾞﾝﾅｶﾁｮｳ","kana_address":"ｲﾉﾀﾆ","pref":"徳島県","city":"那賀郡那賀町","address":"井ノ谷"},
{"zip_code":"7715405","kana_pref":"ﾄｸｼﾏｹﾝ","kana_city":"ﾅｶｸﾞﾝﾅｶﾁｮｳ","kana_address":"ｲﾘﾉ","pref":"徳島県","city":"那賀郡那賀町","address":"入野"},
{"zip_code":"7716118","kana_pref":"ﾄｸｼﾏｹﾝ","kana_city":"ﾅｶｸﾞﾝﾅｶﾁｮｳ","kana_address":"ｲﾜｸﾗ","pref":"徳島県","city":"那賀郡那賀町","address":"岩倉"},
{"zip_code":"7715328","kana_pref":"ﾄｸｼﾏｹﾝ","kana_city":"ﾅｶｸﾞﾝﾅｶﾁｮｳ","kana_address":"ｳｹﾉﾀﾆ","pref":"徳島県","city":"那賀郡那賀町","address":"請ノ谷"},
{"zip_code":"7715404","kana_pref":"ﾄｸｼﾏｹﾝ","kana_city":"ﾅｶｸﾞﾝﾅｶﾁｮｳ","kana_address":"ｳｼﾜ","pref":"徳島県","city":"那賀郡那賀町","address":"牛輪"},
{"zip_code":"7715504","kana_pref":"ﾄｸｼﾏｹﾝ","kana_city":"ﾅｶｸﾞﾝﾅｶﾁｮｳ","kana_address":"ｳｽｶﾞﾀﾆ","pref":"徳島県","city":"那賀郡那賀町","address":"臼ケ谷"},
{"zip_code":"7715326","kana_pref":"ﾄｸｼﾏｹﾝ","kana_city":"ﾅｶｸﾞﾝﾅｶﾁｮｳ","kana_address":"ｳﾁﾔﾏ","pref":"徳島県","city":"那賀郡那賀町","address":"内山"},
{"zip_code":"7715321","kana_pref":"ﾄｸｼﾏｹﾝ","kana_city":"ﾅｶｸﾞﾝﾅｶﾁｮｳ","kana_address":"ｳﾏｼﾞ","pref":"徳島県","city":"那賀郡那賀町","address":"馬路"},
{"zip_code":"7715320","kana_pref":"ﾄｸｼﾏｹﾝ","kana_city":"ﾅｶｸﾞﾝﾅｶﾁｮｳ","kana_address":"ｴﾉｷﾀﾞﾆ","pref":"徳島県","city":"那賀郡那賀町","address":"榎谷"},
{"zip_code":"7715410","kana_pref":"ﾄｸｼﾏｹﾝ","kana_city":"ﾅｶｸﾞﾝﾅｶﾁｮｳ","kana_address":"ｵｵｸﾎﾞ","pref":"徳島県","city":"那賀郡那賀町","address":"大久保"},
{"zip_code":"7715516","kana_pref":"ﾄｸｼﾏｹﾝ","kana_city":"ﾅｶｸﾞﾝﾅｶﾁｮｳ","kana_address":"ｵｵﾄ","pref":"徳島県","city":"那賀郡那賀町","address":"大戸"},
{"zip_code":"7716322","kana_pref":"ﾄｸｼﾏｹﾝ","kana_city":"ﾅｶｸﾞﾝﾅｶﾁｮｳ","kana_address":"ｵｵﾄﾉ","pref":"徳島県","city":"那賀郡那賀町","address":"大殿"},
{"zip_code":"7716115","kana_pref":"ﾄｸｼﾏｹﾝ","kana_city":"ﾅｶｸﾞﾝﾅｶﾁｮｳ","kana_address":"ｵﾊﾞﾀｹ","pref":"徳島県","city":"那賀郡那賀町","address":"小畠"},
{"zip_code":"7715501","kana_pref":"ﾄｸｼﾏｹﾝ","kana_city":"ﾅｶｸﾞﾝﾅｶﾁｮｳ","kana_address":"ｵﾝﾀﾞﾆ","pref":"徳島県","city":"那賀郡那賀町","address":"音谷"},
{"zip_code":"7715407","kana_pref":"ﾄｸｼﾏｹﾝ","kana_city":"ﾅｶｸﾞﾝﾅｶﾁｮｳ","kana_address":"ｵﾝﾄﾞﾘ","pref":"徳島県","city":"那賀郡那賀町","address":"雄"},
{"zip_code":"7716328","kana_pref":"ﾄｸｼﾏｹﾝ","kana_city":"ﾅｶｸﾞﾝﾅｶﾁｮｳ","kana_address":"ｶｲｶﾜ","pref":"徳島県","city":"那賀郡那賀町","address":"海川"},
{"zip_code":"7715413","kana_pref":"ﾄｸｼﾏｹﾝ","kana_city":"ﾅｶｸﾞﾝﾅｶﾁｮｳ","kana_address":"ｶｹﾞﾀﾞﾆ","pref":"徳島県","city":"那賀郡那賀町","address":"蔭谷"},
{"zip_code":"7716107","kana_pref":"ﾄｸｼﾏｹﾝ","kana_city":"ﾅｶｸﾞﾝﾅｶﾁｮｳ","kana_address":"ｶｹﾊﾞﾝ","pref":"徳島県","city":"那賀郡那賀町","address":"掛盤"},
{"zip_code":"7716117","kana_pref":"ﾄｸｼﾏｹﾝ","kana_city":"ﾅｶｸﾞﾝﾅｶﾁｮｳ","kana_address":"ｶﾜﾅﾘ","pref":"徳島県","city":"那賀郡那賀町","address":"川成"},
{"zip_code":"7715515","kana_pref":"ﾄｸｼﾏｹﾝ","kana_city":"ﾅｶｸﾞﾝﾅｶﾁｮｳ","kana_address":"ｶﾜﾏﾀ","pref":"徳島県","city":"那賀郡那賀町","address":"川俣"},
{"zip_code":"7716105","kana_pref":"ﾄｸｼﾏｹﾝ","kana_city":"ﾅｶｸﾞﾝﾅｶﾁｮｳ","kana_address":"ｷﾄｳ","pref":"徳島県","city":"那賀郡那賀町","address":"木頭"},
{"zip_code":"7716402","kana_pref":"ﾄｸｼﾏｹﾝ","kana_city":"ﾅｶｸﾞﾝﾅｶﾁｮｳ","kana_address":"ｷﾄｳｲｽﾞﾊﾗ","pref":"徳島県","city":"那賀郡那賀町","address":"木頭出原"},
{"zip_code":"7716511","kana_pref":"ﾄｸｼﾏｹﾝ","kana_city":"ﾅｶｸﾞﾝﾅｶﾁｮｳ","kana_address":"ｷﾄｳｵﾘｳ","pref":"徳島県","city":"那賀郡那賀町","address":"木頭折宇"},
{"zip_code":"7716512","kana_pref":"ﾄｸｼﾏｹﾝ","kana_city":"ﾅｶｸﾞﾝﾅｶﾁｮｳ","kana_address":"ｷﾄｳｷﾀｶﾞﾜ","pref":"徳島県","city":"那賀郡那賀町","address":"木頭北川"},
{"zip_code":"7716401","kana_pref":"ﾄｸｼﾏｹﾝ","kana_city":"ﾅｶｸﾞﾝﾅｶﾁｮｳ","kana_address":"ｷﾄｳｽｹ","pref":"徳島県","city":"那賀郡那賀町","address":"木頭助"},
{"zip_code":"7716405","kana_pref":"ﾄｸｼﾏｹﾝ","kana_city":"ﾅｶｸﾞﾝﾅｶﾁｮｳ","kana_address":"ｷﾄｳﾆｼｳ","pref":"徳島県","city":"那賀郡那賀町","address":"木頭西宇"},
{"zip_code":"7716404","kana_pref":"ﾄｸｼﾏｹﾝ","kana_city":"ﾅｶｸﾞﾝﾅｶﾁｮｳ","kana_address":"ｷﾄｳﾐﾅﾐｳ","pref":"徳島県","city":"那賀郡那賀町","address":"木頭南宇"},
{"zip_code":"7716403","kana_pref":"ﾄｸｼﾏｹﾝ","kana_city":"ﾅｶｸﾞﾝﾅｶﾁｮｳ","kana_address":"ｷﾄｳﾜﾑﾀﾞ","pref":"徳島県","city":"那賀郡那賀町","address":"木頭和無田"},
{"zip_code":"7716102","kana_pref":"ﾄｸｼﾏｹﾝ","kana_city":"ﾅｶｸﾞﾝﾅｶﾁｮｳ","kana_address":"ｷﾄｳﾐｮｳ","pref":"徳島県","city":"那賀郡那賀町","address":"木頭名"},
{"zip_code":"7716111","kana_pref":"ﾄｸｼﾏｹﾝ","kana_city":"ﾅｶｸﾞﾝﾅｶﾁｮｳ","kana_address":"ｺｲｽﾞﾐ","pref":"徳島県","city":"那賀郡那賀町","address":"小泉"},
{"zip_code":"7716324","kana_pref":"ﾄｸｼﾏｹﾝ","kana_city":"ﾅｶｸﾞﾝﾅｶﾁｮｳ","kana_address":"ｺﾞｼｮﾀﾞﾆ","pref":"徳島県","city":"那賀郡那賀町","address":"御所谷"},
{"zip_code":"7715209","kana_pref":"ﾄｸｼﾏｹﾝ","kana_city":"ﾅｶｸﾞﾝﾅｶﾁｮｳ","kana_address":"ｺﾆｳ","pref":"徳島県","city":"那賀郡那賀町","address":"小仁宇"},
{"zip_code":"7715512","kana_pref":"ﾄｸｼﾏｹﾝ","kana_city":"ﾅｶｸﾞﾝﾅｶﾁｮｳ","kana_address":"ｺﾊﾞｶﾘ","pref":"徳島県","city":"那賀郡那賀町","address":"小計"},
{"zip_code":"7715503","kana_pref":"ﾄｸｼﾏｹﾝ","kana_city":"ﾅｶｸﾞﾝﾅｶﾁｮｳ","kana_address":"ｺﾊﾏ","pref":"徳島県","city":"那賀郡那賀町","address":"小浜"},
{"zip_code":"7716106","kana_pref":"ﾄｸｼﾏｹﾝ","kana_city":"ﾅｶｸﾞﾝﾅｶﾁｮｳ","kana_address":"ｻｶｼｭｳ","pref":"徳島県","city":"那賀郡那賀町","address":"坂州"},
{"zip_code":"7715502","kana_pref":"ﾄｸｼﾏｹﾝ","kana_city":"ﾅｶｸﾞﾝﾅｶﾁｮｳ","kana_address":"ｻｸﾗﾀﾞﾆ","pref":"徳島県","city":"那賀郡那賀町","address":"桜谷"},
{"zip_code":"7716114","kana_pref":"ﾄｸｼﾏｹﾝ","kana_city":"ﾅｶｸﾞﾝﾅｶﾁｮｳ","kana_address":"ｻﾜﾀﾞﾆ","pref":"徳島県","city":"那賀郡那賀町","address":"沢谷"},
{"zip_code":"7716325","kana_pref":"ﾄｸｼﾏｹﾝ","kana_city":"ﾅｶｸﾞﾝﾅｶﾁｮｳ","kana_address":"ｼﾞｮｳｶﾞﾀﾆ","pref":"徳島県","city":"那賀郡那賀町","address":"丈ケ谷"},
{"zip_code":"7715507","kana_pref":"ﾄｸｼﾏｹﾝ","kana_city":"ﾅｶｸﾞﾝﾅｶﾁｮｳ","kana_address":"ｼｮｳﾌﾞ","pref":"徳島県","city":"那賀郡那賀町","address":"菖蒲"},
{"zip_code":"7716323","kana_pref":"ﾄｸｼﾏｹﾝ","kana_city":"ﾅｶｸﾞﾝﾅｶﾁｮｳ","kana_address":"ｼﾗｲｼ","pref":"徳島県","city":"那賀郡那賀町","address":"白石"},
{"zip_code":"7716112","kana_pref":"ﾄｸｼﾏｹﾝ","kana_city":"ﾅｶｸﾞﾝﾅｶﾁｮｳ","kana_address":"ﾀｶﾉ","pref":"徳島県","city":"那賀郡那賀町","address":"高野"},
{"zip_code":"7715329","kana_pref":"ﾄｸｼﾏｹﾝ","kana_city":"ﾅｶｸﾞﾝﾅｶﾁｮｳ","kana_address":"ﾀｹｶﾞﾀﾆ","pref":"徳島県","city":"那賀郡那賀町","address":"竹ケ谷"},
{"zip_code":"7715322","kana_pref":"ﾄｸｼﾏｹﾝ","kana_city":"ﾅｶｸﾞﾝﾅｶﾁｮｳ","kana_address":"ﾀﾆｳﾁ","pref":"徳島県","city":"那賀郡那賀町","address":"谷内"},
{"zip_code":"7716113","kana_pref":"ﾄｸｼﾏｹﾝ","kana_city":"ﾅｶｸﾞﾝﾅｶﾁｮｳ","kana_address":"ﾃﾗｳﾁ","pref":"徳島県","city":"那賀郡那賀町","address":"寺内"},
{"zip_code":"7716104","kana_pref":"ﾄｸｼﾏｹﾝ","kana_city":"ﾅｶｸﾞﾝﾅｶﾁｮｳ","kana_address":"ﾄｳﾔﾏ","pref":"徳島県","city":"那賀郡那賀町","address":"当山"},
{"zip_code":"7715202","kana_pref":"ﾄｸｼﾏｹﾝ","kana_city":"ﾅｶｸﾞﾝﾅｶﾁｮｳ","kana_address":"ﾄｻ","pref":"徳島県","city":"那賀郡那賀町","address":"土佐"},
{"zip_code":"7715505","kana_pref":"ﾄｸｼﾏｹﾝ","kana_city":"ﾅｶｸﾞﾝﾅｶﾁｮｳ","kana_address":"ﾅｶﾞﾔｽ","pref":"徳島県","city":"那賀郡那賀町","address":"長安"},
{"zip_code":"7715204","kana_pref":"ﾄｸｼﾏｹﾝ","kana_city":"ﾅｶｸﾞﾝﾅｶﾁｮｳ","kana_address":"ﾅｶﾔﾏ","pref":"徳島県","city":"那賀郡那賀町","address":"中山"},
{"zip_code":"7716327","kana_pref":"ﾄｸｼﾏｹﾝ","kana_city":"ﾅｶｸﾞﾝﾅｶﾁｮｳ","kana_address":"ﾅﾙｾ","pref":"徳島県","city":"那賀郡那賀町","address":"成瀬"},
{"zip_code":"7715208","kana_pref":"ﾄｸｼﾏｹﾝ","kana_city":"ﾅｶｸﾞﾝﾅｶﾁｮｳ","kana_address":"ﾆｳ","pref":"徳島県","city":"那賀郡那賀町","address":"仁宇"},
{"zip_code":"7715327","kana_pref":"ﾄｸｼﾏｹﾝ","kana_city":"ﾅｶｸﾞﾝﾅｶﾁｮｳ","kana_address":"ﾆｼﾉ","pref":"徳島県","city":"那賀郡那賀町","address":"西納"},
{"zip_code":"7715406","kana_pref":"ﾄｸｼﾏｹﾝ","kana_city":"ﾅｶｸﾞﾝﾅｶﾁｮｳ","kana_address":"ﾉﾌﾞﾉ","pref":"徳島県","city":"那賀郡那賀町","address":"延野"},
{"zip_code":"7715518","kana_pref":"ﾄｸｼﾏｹﾝ","kana_city":"ﾅｶｸﾞﾝﾅｶﾁｮｳ","kana_address":"ﾊｲｷﾞｭｳ","pref":"徳島県","city":"那賀郡那賀町","address":"拝宮"},
{"zip_code":"7715409","kana_pref":"ﾄｸｼﾏｹﾝ","kana_city":"ﾅｶｸﾞﾝﾅｶﾁｮｳ","kana_address":"ﾊﾁ","pref":"徳島県","city":"那賀郡那賀町","address":"鉢"},
{"zip_code":"7715532","kana_pref":"ﾄｸｼﾏｹﾝ","kana_city":"ﾅｶｸﾞﾝﾅｶﾁｮｳ","kana_address":"ﾊﾅｾﾞ","pref":"徳島県","city":"那賀郡那賀町","address":"花瀬"},
{"zip_code":"7715531","kana_pref":"ﾄｸｼﾏｹﾝ","kana_city":"ﾅｶｸﾞﾝﾅｶﾁｮｳ","kana_address":"ﾋｳﾗ","pref":"徳島県","city":"那賀郡那賀町","address":"日浦"},
{"zip_code":"7715508","kana_pref":"ﾄｸｼﾏｹﾝ","kana_city":"ﾅｶｸﾞﾝﾅｶﾁｮｳ","kana_address":"ﾋｶﾞｼｵ","pref":"徳島県","city":"那賀郡那賀町","address":"東尾"},
{"zip_code":"7715506","kana_pref":"ﾄｸｼﾏｹﾝ","kana_city":"ﾅｶｸﾞﾝﾅｶﾁｮｳ","kana_address":"ﾋｿﾈ","pref":"徳島県","city":"那賀郡那賀町","address":"桧曽根"},
{"zip_code":"7715517","kana_pref":"ﾄｸｼﾏｹﾝ","kana_city":"ﾅｶｸﾞﾝﾅｶﾁｮｳ","kana_address":"ﾋﾏ","pref":"徳島県","city":"那賀郡那賀町","address":"日真"},
{"zip_code":"7716321","kana_pref":"ﾄｸｼﾏｹﾝ","kana_city":"ﾅｶｸﾞﾝﾅｶﾁｮｳ","kana_address":"ﾋﾗﾀﾞﾆ","pref":"徳島県","city":"那賀郡那賀町","address":"平谷"},
{"zip_code":"7715325","kana_pref":"ﾄｸｼﾏｹﾝ","kana_city":"ﾅｶｸﾞﾝﾅｶﾁｮｳ","kana_address":"ﾋﾗﾉ","pref":"徳島県","city":"那賀郡那賀町","address":"平野"},
{"zip_code":"7715514","kana_pref":"ﾄｸｼﾏｹﾝ","kana_city":"ﾅｶｸﾞﾝﾅｶﾁｮｳ","kana_address":"ﾌｶﾓﾘ","pref":"徳島県","city":"那賀郡那賀町","address":"深森"},
{"zip_code":"7716326","kana_pref":"ﾄｸｼﾏｹﾝ","kana_city":"ﾅｶｸﾞﾝﾅｶﾁｮｳ","kana_address":"ﾌﾄﾞﾉ","pref":"徳島県","city":"那賀郡那賀町","address":"府殿"},
{"zip_code":"7715513","kana_pref":"ﾄｸｼﾏｹﾝ","kana_city":"ﾅｶｸﾞﾝﾅｶﾁｮｳ","kana_address":"ﾌﾙﾔ","pref":"徳島県","city":"那賀郡那賀町","address":"古屋"},
{"zip_code":"7715412","kana_pref":"ﾄｸｼﾏｹﾝ","kana_city":"ﾅｶｸﾞﾝﾅｶﾁｮｳ","kana_address":"ﾎｵﾉ","pref":"徳島県","city":"那賀郡那賀町","address":"朴野"},
{"zip_code":"7715511","kana_pref":"ﾄｸｼﾏｹﾝ","kana_city":"ﾅｶｸﾞﾝﾅｶﾁｮｳ","kana_address":"ﾐｻｷ","pref":"徳島県","city":"那賀郡那賀町","address":"水崎"},
{"zip_code":"7715206","kana_pref":"ﾄｸｼﾏｹﾝ","kana_city":"ﾅｶｸﾞﾝﾅｶﾁｮｳ","kana_address":"ﾓﾏｴ","pref":"徳島県","city":"那賀郡那賀町","address":"百合"},
{"zip_code":"7715205","kana_pref":"ﾄｸｼﾏｹﾝ","kana_city":"ﾅｶｸﾞﾝﾅｶﾁｮｳ","kana_address":"ﾓﾏｴﾀﾞﾆ","pref":"徳島県","city":"那賀郡那賀町","address":"百合谷"},
{"zip_code":"7715402","kana_pref":"ﾄｸｼﾏｹﾝ","kana_city":"ﾅｶｸﾞﾝﾅｶﾁｮｳ","kana_address":"ﾔﾅﾉｳｴ","pref":"徳島県","city":"那賀郡那賀町","address":"簗ノ上"},
{"zip_code":"7715411","kana_pref":"ﾄｸｼﾏｹﾝ","kana_city":"ﾅｶｸﾞﾝﾅｶﾁｮｳ","kana_address":"ﾖｺｲｼ","pref":"徳島県","city":"那賀郡那賀町","address":"横石"},
{"zip_code":"7716116","kana_pref":"ﾄｸｼﾏｹﾝ","kana_city":"ﾅｶｸﾞﾝﾅｶﾁｮｳ","kana_address":"ﾖｺﾀﾞﾆ","pref":"徳島県","city":"那賀郡那賀町","address":"横谷"},
{"zip_code":"7715408","kana_pref":"ﾄｸｼﾏｹﾝ","kana_city":"ﾅｶｸﾞﾝﾅｶﾁｮｳ","kana_address":"ﾖｼﾉ","pref":"徳島県","city":"那賀郡那賀町","address":"吉野"},
{"zip_code":"7715201","kana_pref":"ﾄｸｼﾏｹﾝ","kana_city":"ﾅｶｸﾞﾝﾅｶﾁｮｳ","kana_address":"ﾜｼﾞｷ","pref":"徳島県","city":"那賀郡那賀町","address":"和食"},
{"zip_code":"7715203","kana_pref":"ﾄｸｼﾏｹﾝ","kana_city":"ﾅｶｸﾞﾝﾅｶﾁｮｳ","kana_address":"ﾜｼﾞｷｺﾞｳ","pref":"徳島県","city":"那賀郡那賀町","address":"和食郷"},
{"zip_code":"7710200","kana_pref":"ﾄｸｼﾏｹﾝ","kana_city":"ｲﾀﾉｸﾞﾝﾏﾂｼｹﾞﾁｮｳ","kana_address":"","pref":"徳島県","city":"板野郡松茂町","address":""},
{"zip_code":"7710219","kana_pref":"ﾄｸｼﾏｹﾝ","kana_city":"ｲﾀﾉｸﾞﾝﾏﾂｼｹﾞﾁｮｳ","kana_address":"ｻｻｷﾞﾉ","pref":"徳島県","city":"板野郡松茂町","address":"笹木野"},
{"zip_code":"7710218","kana_pref":"ﾄｸｼﾏｹﾝ","kana_city":"ｲﾀﾉｸﾞﾝﾏﾂｼｹﾞﾁｮｳ","kana_address":"ｽﾐﾖｼ","pref":"徳島県","city":"板野郡松茂町","address":"住吉"},
{"zip_code":"7710215","kana_pref":"ﾄｸｼﾏｹﾝ","kana_city":"ｲﾀﾉｸﾞﾝﾏﾂｼｹﾞﾁｮｳ","kana_address":"ﾄﾖｵｶ","pref":"徳島県","city":"板野郡松茂町","address":"豊岡"},
{"zip_code":"7710217","kana_pref":"ﾄｸｼﾏｹﾝ","kana_city":"ｲﾀﾉｸﾞﾝﾏﾂｼｹﾞﾁｮｳ","kana_address":"ﾄﾖﾅｶ","pref":"徳島県","city":"板野郡松茂町","address":"豊中"},
{"zip_code":"7710213","kana_pref":"ﾄｸｼﾏｹﾝ","kana_city":"ｲﾀﾉｸﾞﾝﾏﾂｼｹﾞﾁｮｳ","kana_address":"ﾄﾖﾋｻ","pref":"徳島県","city":"板野郡松茂町","address":"豊久"},
{"zip_code":"7710212","kana_pref":"ﾄｸｼﾏｹﾝ","kana_city":"ｲﾀﾉｸﾞﾝﾏﾂｼｹﾞﾁｮｳ","kana_address":"ﾅｶｷﾞﾗｲ","pref":"徳島県","city":"板野郡松茂町","address":"中喜来"},
{"zip_code":"7710211","kana_pref":"ﾄｸｼﾏｹﾝ","kana_city":"ｲﾀﾉｸﾞﾝﾏﾂｼｹﾞﾁｮｳ","kana_address":"ﾅｶﾞｷﾞｼ","pref":"徳島県","city":"板野郡松茂町","address":"長岸"},
{"zip_code":"7710216","kana_pref":"ﾄｸｼﾏｹﾝ","kana_city":"ｲﾀﾉｸﾞﾝﾏﾂｼｹﾞﾁｮｳ","kana_address":"ﾅｶﾞﾊﾗ","pref":"徳島県","city":"板野郡松茂町","address":"長原"},
{"zip_code":"7710220","kana_pref":"ﾄｸｼﾏｹﾝ","kana_city":"ｲﾀﾉｸﾞﾝﾏﾂｼｹﾞﾁｮｳ","kana_address":"ﾋﾛｼﾏ","pref":"徳島県","city":"板野郡松茂町","address":"広島"},
{"zip_code":"7710214","kana_pref":"ﾄｸｼﾏｹﾝ","kana_city":"ｲﾀﾉｸﾞﾝﾏﾂｼｹﾞﾁｮｳ","kana_address":"ﾐﾂﾎ","pref":"徳島県","city":"板野郡松茂町","address":"満穂"},
{"zip_code":"7710200","kana_pref":"ﾄｸｼﾏｹﾝ","kana_city":"ｲﾀﾉｸﾞﾝｷﾀｼﾞﾏﾁｮｳ","kana_address":"","pref":"徳島県","city":"板野郡北島町","address":""},
{"zip_code":"7710205","kana_pref":"ﾄｸｼﾏｹﾝ","kana_city":"ｲﾀﾉｸﾞﾝｷﾀｼﾞﾏﾁｮｳ","kana_address":"ｴｼﾞﾘ","pref":"徳島県","city":"板野郡北島町","address":"江尻"},
{"zip_code":"7710201","kana_pref":"ﾄｸｼﾏｹﾝ","kana_city":"ｲﾀﾉｸﾞﾝｷﾀｼﾞﾏﾁｮｳ","kana_address":"ｷﾀﾑﾗ","pref":"徳島県","city":"板野郡北島町","address":"北村"},
{"zip_code":"7710207","kana_pref":"ﾄｸｼﾏｹﾝ","kana_city":"ｲﾀﾉｸﾞﾝｷﾀｼﾞﾏﾁｮｳ","kana_address":"ｼﾝｷﾗｲ","pref":"徳島県","city":"板野郡北島町","address":"新喜来"},
{"zip_code":"7710204","kana_pref":"ﾄｸｼﾏｹﾝ","kana_city":"ｲﾀﾉｸﾞﾝｷﾀｼﾞﾏﾁｮｳ","kana_address":"ﾀｲﾉﾊﾏ","pref":"徳島県","city":"板野郡北島町","address":"鯛浜"},
{"zip_code":"7710206","kana_pref":"ﾄｸｼﾏｹﾝ","kana_city":"ｲﾀﾉｸﾞﾝｷﾀｼﾞﾏﾁｮｳ","kana_address":"ﾀｶﾎﾞｳ","pref":"徳島県","city":"板野郡北島町","address":"高房"},
{"zip_code":"7710202","kana_pref":"ﾄｸｼﾏｹﾝ","kana_city":"ｲﾀﾉｸﾞﾝｷﾀｼﾞﾏﾁｮｳ","kana_address":"ﾀﾛｳﾊﾁｽﾞ","pref":"徳島県","city":"板野郡北島町","address":"太郎八須"},
{"zip_code":"7710203","kana_pref":"ﾄｸｼﾏｹﾝ","kana_city":"ｲﾀﾉｸﾞﾝｷﾀｼﾞﾏﾁｮｳ","kana_address":"ﾅｶﾑﾗ","pref":"徳島県","city":"板野郡北島町","address":"中村"},
{"zip_code":"7711200","kana_pref":"ﾄｸｼﾏｹﾝ","kana_city":"ｲﾀﾉｸﾞﾝｱｲｽﾞﾐﾁｮｳ","kana_address":"","pref":"徳島県","city":"板野郡藍住町","address":""},
{"zip_code":"7711202","kana_pref":"ﾄｸｼﾏｹﾝ","kana_city":"ｲﾀﾉｸﾞﾝｱｲｽﾞﾐﾁｮｳ","kana_address":"ｵｸﾉ","pref":"徳島県","city":"板野郡藍住町","address":"奥野"},
{"zip_code":"7711202","kana_pref":"ﾄｸｼﾏｹﾝ","kana_city":"ｲﾀﾉｸﾞﾝｱｲｽﾞﾐﾁｮｳ","kana_address":"ｵｸﾉ","pref":"徳島県","city":"板野郡藍住町","address":"奥野"},
{"zip_code":"7711202","kana_pref":"ﾄｸｼﾏｹﾝ","kana_city":"ｲﾀﾉｸﾞﾝｱｲｽﾞﾐﾁｮｳ","kana_address":"ｵｸﾉ","pref":"徳島県","city":"板野郡藍住町","address":"奥野"},
{"zip_code":"7711203","kana_pref":"ﾄｸｼﾏｹﾝ","kana_city":"ｲﾀﾉｸﾞﾝｱｲｽﾞﾐﾁｮｳ","kana_address":"ｵｸﾉ","pref":"徳島県","city":"板野郡藍住町","address":"奥野"},
{"zip_code":"7711202","kana_pref":"ﾄｸｼﾏｹﾝ","kana_city":"ｲﾀﾉｸﾞﾝｱｲｽﾞﾐﾁｮｳ","kana_address":"ｵｸﾉ","pref":"徳島県","city":"板野郡藍住町","address":"奥野"},
{"zip_code":"7711201","kana_pref":"ﾄｸｼﾏｹﾝ","kana_city":"ｲﾀﾉｸﾞﾝｱｲｽﾞﾐﾁｮｳ","kana_address":"ｵｸﾉ","pref":"徳島県","city":"板野郡藍住町","address":"奥野"},
{"zip_code":"7711240","kana_pref":"ﾄｸｼﾏｹﾝ","kana_city":"ｲﾀﾉｸﾞﾝｱｲｽﾞﾐﾁｮｳ","kana_address":"ｵﾄｾﾞ","pref":"徳島県","city":"板野郡藍住町","address":"乙瀬"},
{"zip_code":"7711262","kana_pref":"ﾄｸｼﾏｹﾝ","kana_city":"ｲﾀﾉｸﾞﾝｱｲｽﾞﾐﾁｮｳ","kana_address":"ｶｻｷﾞ","pref":"徳島県","city":"板野郡藍住町","address":"笠木"},
{"zip_code":"7711261","kana_pref":"ﾄｸｼﾏｹﾝ","kana_city":"ｲﾀﾉｸﾞﾝｱｲｽﾞﾐﾁｮｳ","kana_address":"ｶｻｷﾞ","pref":"徳島県","city":"板野郡藍住町","address":"笠木"},
{"zip_code":"7711262","kana_pref":"ﾄｸｼﾏｹﾝ","kana_city":"ｲﾀﾉｸﾞﾝｱｲｽﾞﾐﾁｮｳ","kana_address":"ｶｻｷﾞ","pref":"徳島県","city":"板野郡藍住町","address":"笠木"},
{"zip_code":"7711260","kana_pref":"ﾄｸｼﾏｹﾝ","kana_city":"ｲﾀﾉｸﾞﾝｱｲｽﾞﾐﾁｮｳ","kana_address":"ｶｻｷﾞ","pref":"徳島県","city":"板野郡藍住町","address":"笠木"},
{"zip_code":"7711271","kana_pref":"ﾄｸｼﾏｹﾝ","kana_city":"ｲﾀﾉｸﾞﾝｱｲｽﾞﾐﾁｮｳ","kana_address":"ｼｮｳｽﾞｲ","pref":"徳島県","city":"板野郡藍住町","address":"勝瑞"},
{"zip_code":"7711273","kana_pref":"ﾄｸｼﾏｹﾝ","kana_city":"ｲﾀﾉｸﾞﾝｱｲｽﾞﾐﾁｮｳ","kana_address":"ｼｮｳｽﾞｲ","pref":"徳島県","city":"板野郡藍住町","address":"勝瑞"},
{"zip_code":"7711272","kana_pref":"ﾄｸｼﾏｹﾝ","kana_city":"ｲﾀﾉｸﾞﾝｱｲｽﾞﾐﾁｮｳ","kana_address":"ｼｮｳｽﾞｲ","pref":"徳島県","city":"板野郡藍住町","address":"勝瑞"},
{"zip_code":"7711273","kana_pref":"ﾄｸｼﾏｹﾝ","kana_city":"ｲﾀﾉｸﾞﾝｱｲｽﾞﾐﾁｮｳ","kana_address":"ｼｮｳｽﾞｲ","pref":"徳島県","city":"板野郡藍住町","address":"勝瑞"},
{"zip_code":"7711270","kana_pref":"ﾄｸｼﾏｹﾝ","kana_city":"ｲﾀﾉｸﾞﾝｱｲｽﾞﾐﾁｮｳ","kana_address":"ｼｮｳｽﾞｲ","pref":"徳島県","city":"板野郡藍住町","address":"勝瑞"},
{"zip_code":"7711267","kana_pref":"ﾄｸｼﾏｹﾝ","kana_city":"ｲﾀﾉｸﾞﾝｱｲｽﾞﾐﾁｮｳ","kana_address":"ｽﾐﾖｼ","pref":"徳島県","city":"板野郡藍住町","address":"住吉"},
{"zip_code":"7711267","kana_pref":"ﾄｸｼﾏｹﾝ","kana_city":"ｲﾀﾉｸﾞﾝｱｲｽﾞﾐﾁｮｳ","kana_address":"ｽﾐﾖｼ","pref":"徳島県","city":"板野郡藍住町","address":"住吉"},
{"zip_code":"7711265","kana_pref":"ﾄｸｼﾏｹﾝ","kana_city":"ｲﾀﾉｸﾞﾝｱｲｽﾞﾐﾁｮｳ","kana_address":"ｽﾐﾖｼ","pref":"徳島県","city":"板野郡藍住町","address":"住吉"},
{"zip_code":"7711265","kana_pref":"ﾄｸｼﾏｹﾝ","kana_city":"ｲﾀﾉｸﾞﾝｱｲｽﾞﾐﾁｮｳ","kana_address":"ｽﾐﾖｼ","pref":"徳島県","city":"板野郡藍住町","address":"住吉"},
{"zip_code":"7711265","kana_pref":"ﾄｸｼﾏｹﾝ","kana_city":"ｲﾀﾉｸﾞﾝｱｲｽﾞﾐﾁｮｳ","kana_address":"ｽﾐﾖｼ","pref":"徳島県","city":"板野郡藍住町","address":"住吉"},
{"zip_code":"7711266","kana_pref":"ﾄｸｼﾏｹﾝ","kana_city":"ｲﾀﾉｸﾞﾝｱｲｽﾞﾐﾁｮｳ","kana_address":"ｽﾐﾖｼ","pref":"徳島県","city":"板野郡藍住町","address":"住吉"},
{"zip_code":"7711266","kana_pref":"ﾄｸｼﾏｹﾝ","kana_city":"ｲﾀﾉｸﾞﾝｱｲｽﾞﾐﾁｮｳ","kana_address":"ｽﾐﾖｼ","pref":"徳島県","city":"板野郡藍住町","address":"住吉"},
{"zip_code":"7711264","kana_pref":"ﾄｸｼﾏｹﾝ","kana_city":"ｲﾀﾉｸﾞﾝｱｲｽﾞﾐﾁｮｳ","kana_address":"ｽﾐﾖｼ","pref":"徳島県","city":"板野郡藍住町","address":"住吉"},
{"zip_code":"7711212","kana_pref":"ﾄｸｼﾏｹﾝ","kana_city":"ｲﾀﾉｸﾞﾝｱｲｽﾞﾐﾁｮｳ","kana_address":"ﾄｸﾒｲ","pref":"徳島県","city":"板野郡藍住町","address":"徳命"},
{"zip_code":"7711212","kana_pref":"ﾄｸｼﾏｹﾝ","kana_city":"ｲﾀﾉｸﾞﾝｱｲｽﾞﾐﾁｮｳ","kana_address":"ﾄｸﾒｲ","pref":"徳島県","city":"板野郡藍住町","address":"徳命"},
{"zip_code":"7711211","kana_pref":"ﾄｸｼﾏｹﾝ","kana_city":"ｲﾀﾉｸﾞﾝｱｲｽﾞﾐﾁｮｳ","kana_address":"ﾄｸﾒｲ","pref":"徳島県","city":"板野郡藍住町","address":"徳命"},
{"zip_code":"7711211","kana_pref":"ﾄｸｼﾏｹﾝ","kana_city":"ｲﾀﾉｸﾞﾝｱｲｽﾞﾐﾁｮｳ","kana_address":"ﾄｸﾒｲ","pref":"徳島県","city":"板野郡藍住町","address":"徳命"},
{"zip_code":"7711210","kana_pref":"ﾄｸｼﾏｹﾝ","kana_city":"ｲﾀﾉｸﾞﾝｱｲｽﾞﾐﾁｮｳ","kana_address":"ﾄｸﾒｲ","pref":"徳島県","city":"板野郡藍住町","address":"徳命"},
{"zip_code":"7711232","kana_pref":"ﾄｸｼﾏｹﾝ","kana_city":"ｲﾀﾉｸﾞﾝｱｲｽﾞﾐﾁｮｳ","kana_address":"ﾄﾐﾖｼ","pref":"徳島県","city":"板野郡藍住町","address":"富吉"},
{"zip_code":"7711231","kana_pref":"ﾄｸｼﾏｹﾝ","kana_city":"ｲﾀﾉｸﾞﾝｱｲｽﾞﾐﾁｮｳ","kana_address":"ﾄﾐﾖｼ","pref":"徳島県","city":"板野郡藍住町","address":"富吉"},
{"zip_code":"7711231","kana_pref":"ﾄｸｼﾏｹﾝ","kana_city":"ｲﾀﾉｸﾞﾝｱｲｽﾞﾐﾁｮｳ","kana_address":"ﾄﾐﾖｼ","pref":"徳島県","city":"板野郡藍住町","address":"富吉"},
{"zip_code":"7711231","kana_pref":"ﾄｸｼﾏｹﾝ","kana_city":"ｲﾀﾉｸﾞﾝｱｲｽﾞﾐﾁｮｳ","kana_address":"ﾄﾐﾖｼ","pref":"徳島県","city":"板野郡藍住町","address":"富吉"},
{"zip_code":"7711232","kana_pref":"ﾄｸｼﾏｹﾝ","kana_city":"ｲﾀﾉｸﾞﾝｱｲｽﾞﾐﾁｮｳ","kana_address":"ﾄﾐﾖｼ","pref":"徳島県","city":"板野郡藍住町","address":"富吉"},
{"zip_code":"7711230","kana_pref":"ﾄｸｼﾏｹﾝ","kana_city":"ｲﾀﾉｸﾞﾝｱｲｽﾞﾐﾁｮｳ","kana_address":"ﾄﾐﾖｼ","pref":"徳島県","city":"板野郡藍住町","address":"富吉"},
{"zip_code":"7711224","kana_pref":"ﾄｸｼﾏｹﾝ","kana_city":"ｲﾀﾉｸﾞﾝｱｲｽﾞﾐﾁｮｳ","kana_address":"ﾋｶﾞｼﾅｶﾄﾐ","pref":"徳島県","city":"板野郡藍住町","address":"東中富"},
{"zip_code":"7711222","kana_pref":"ﾄｸｼﾏｹﾝ","kana_city":"ｲﾀﾉｸﾞﾝｱｲｽﾞﾐﾁｮｳ","kana_address":"ﾋｶﾞｼﾅｶﾄﾐ","pref":"徳島県","city":"板野郡藍住町","address":"東中富"},
{"zip_code":"7711224","kana_pref":"ﾄｸｼﾏｹﾝ","kana_city":"ｲﾀﾉｸﾞﾝｱｲｽﾞﾐﾁｮｳ","kana_address":"ﾋｶﾞｼﾅｶﾄﾐ","pref":"徳島県","city":"板野郡藍住町","address":"東中富"},
{"zip_code":"7711223","kana_pref":"ﾄｸｼﾏｹﾝ","kana_city":"ｲﾀﾉｸﾞﾝｱｲｽﾞﾐﾁｮｳ","kana_address":"ﾋｶﾞｼﾅｶﾄﾐ","pref":"徳島県","city":"板野郡藍住町","address":"東中富"},
{"zip_code":"7711224","kana_pref":"ﾄｸｼﾏｹﾝ","kana_city":"ｲﾀﾉｸﾞﾝｱｲｽﾞﾐﾁｮｳ","kana_address":"ﾋｶﾞｼﾅｶﾄﾐ","pref":"徳島県","city":"板野郡藍住町","address":"東中富"},
{"zip_code":"7711223","kana_pref":"ﾄｸｼﾏｹﾝ","kana_city":"ｲﾀﾉｸﾞﾝｱｲｽﾞﾐﾁｮｳ","kana_address":"ﾋｶﾞｼﾅｶﾄﾐ","pref":"徳島県","city":"板野郡藍住町","address":"東中富"},
{"zip_code":"7711221","kana_pref":"ﾄｸｼﾏｹﾝ","kana_city":"ｲﾀﾉｸﾞﾝｱｲｽﾞﾐﾁｮｳ","kana_address":"ﾋｶﾞｼﾅｶﾄﾐ","pref":"徳島県","city":"板野郡藍住町","address":"東中富"},
{"zip_code":"7711224","kana_pref":"ﾄｸｼﾏｹﾝ","kana_city":"ｲﾀﾉｸﾞﾝｱｲｽﾞﾐﾁｮｳ","kana_address":"ﾋｶﾞｼﾅｶﾄﾐ","pref":"徳島県","city":"板野郡藍住町","address":"東中富"},
{"zip_code":"7711224","kana_pref":"ﾄｸｼﾏｹﾝ","kana_city":"ｲﾀﾉｸﾞﾝｱｲｽﾞﾐﾁｮｳ","kana_address":"ﾋｶﾞｼﾅｶﾄﾐ","pref":"徳島県","city":"板野郡藍住町","address":"東中富"},
{"zip_code":"7711224","kana_pref":"ﾄｸｼﾏｹﾝ","kana_city":"ｲﾀﾉｸﾞﾝｱｲｽﾞﾐﾁｮｳ","kana_address":"ﾋｶﾞｼﾅｶﾄﾐ","pref":"徳島県","city":"板野郡藍住町","address":"東中富"},
{"zip_code":"7711220","kana_pref":"ﾄｸｼﾏｹﾝ","kana_city":"ｲﾀﾉｸﾞﾝｱｲｽﾞﾐﾁｮｳ","kana_address":"ﾋｶﾞｼﾅｶﾄﾐ","pref":"徳島県","city":"板野郡藍住町","address":"東中富"},
{"zip_code":"7711253","kana_pref":"ﾄｸｼﾏｹﾝ","kana_city":"ｲﾀﾉｸﾞﾝｱｲｽﾞﾐﾁｮｳ","kana_address":"ﾔｶﾐ","pref":"徳島県","city":"板野郡藍住町","address":"矢上"},
{"zip_code":"7711252","kana_pref":"ﾄｸｼﾏｹﾝ","kana_city":"ｲﾀﾉｸﾞﾝｱｲｽﾞﾐﾁｮｳ","kana_address":"ﾔｶﾐ","pref":"徳島県","city":"板野郡藍住町","address":"矢上"},
{"zip_code":"7711252","kana_pref":"ﾄｸｼﾏｹﾝ","kana_city":"ｲﾀﾉｸﾞﾝｱｲｽﾞﾐﾁｮｳ","kana_address":"ﾔｶﾐ","pref":"徳島県","city":"板野郡藍住町","address":"矢上"},
{"zip_code":"7711251","kana_pref":"ﾄｸｼﾏｹﾝ","kana_city":"ｲﾀﾉｸﾞﾝｱｲｽﾞﾐﾁｮｳ","kana_address":"ﾔｶﾐ","pref":"徳島県","city":"板野郡藍住町","address":"矢上"},
{"zip_code":"7711251","kana_pref":"ﾄｸｼﾏｹﾝ","kana_city":"ｲﾀﾉｸﾞﾝｱｲｽﾞﾐﾁｮｳ","kana_address":"ﾔｶﾐ","pref":"徳島県","city":"板野郡藍住町","address":"矢上"},
{"zip_code":"7711253","kana_pref":"ﾄｸｼﾏｹﾝ","kana_city":"ｲﾀﾉｸﾞﾝｱｲｽﾞﾐﾁｮｳ","kana_address":"ﾔｶﾐ","pref":"徳島県","city":"板野郡藍住町","address":"矢上"},
{"zip_code":"7711250","kana_pref":"ﾄｸｼﾏｹﾝ","kana_city":"ｲﾀﾉｸﾞﾝｱｲｽﾞﾐﾁｮｳ","kana_address":"ﾔｶﾐ","pref":"徳島県","city":"板野郡藍住町","address":"矢上"},
{"zip_code":"7711300","kana_pref":"ﾄｸｼﾏｹﾝ","kana_city":"ｲﾀﾉｸﾞﾝｶﾐｲﾀﾁｮｳ","kana_address":"","pref":"徳島県","city":"板野郡上板町","address":""},
{"zip_code":"7711310","kana_pref":"ﾄｸｼﾏｹﾝ","kana_city":"ｲﾀﾉｸﾞﾝｶﾐｲﾀﾁｮｳ","kana_address":"ｲｽﾞﾐﾀﾞﾆ","pref":"徳島県","city":"板野郡上板町","address":"泉谷"},
{"zip_code":"7711301","kana_pref":"ﾄｸｼﾏｹﾝ","kana_city":"ｲﾀﾉｸﾞﾝｶﾐｲﾀﾁｮｳ","kana_address":"ｶｼﾞﾔﾊﾞﾗ","pref":"徳島県","city":"板野郡上板町","address":"鍛冶屋原"},
{"zip_code":"7711345","kana_pref":"ﾄｸｼﾏｹﾝ","kana_city":"ｲﾀﾉｸﾞﾝｶﾐｲﾀﾁｮｳ","kana_address":"ｶﾐﾛｸｼﾞｮｳ","pref":"徳島県","city":"板野郡上板町","address":"上六條"},
{"zip_code":"7711320","kana_pref":"ﾄｸｼﾏｹﾝ","kana_city":"ｲﾀﾉｸﾞﾝｶﾐｲﾀﾁｮｳ","kana_address":"ｶﾝﾔｹ","pref":"徳島県","city":"板野郡上板町","address":"神宅"},
{"zip_code":"7711342","kana_pref":"ﾄｸｼﾏｹﾝ","kana_city":"ｲﾀﾉｸﾞﾝｶﾐｲﾀﾁｮｳ","kana_address":"ｻﾄｳﾂﾞｶ","pref":"徳島県","city":"板野郡上板町","address":"佐藤塚"},
{"zip_code":"7711343","kana_pref":"ﾄｸｼﾏｹﾝ","kana_city":"ｲﾀﾉｸﾞﾝｶﾐｲﾀﾁｮｳ","kana_address":"ｼｲﾉﾓﾄ","pref":"徳島県","city":"板野郡上板町","address":"椎本"},
{"zip_code":"7711302","kana_pref":"ﾄｸｼﾏｹﾝ","kana_city":"ｲﾀﾉｸﾞﾝｶﾐｲﾀﾁｮｳ","kana_address":"ｼﾁｼﾞｮｳ","pref":"徳島県","city":"板野郡上板町","address":"七條"},
{"zip_code":"7711344","kana_pref":"ﾄｸｼﾏｹﾝ","kana_city":"ｲﾀﾉｸﾞﾝｶﾐｲﾀﾁｮｳ","kana_address":"ｼﾓﾛｸｼﾞｮｳ","pref":"徳島県","city":"板野郡上板町","address":"下六條"},
{"zip_code":"7711350","kana_pref":"ﾄｸｼﾏｹﾝ","kana_city":"ｲﾀﾉｸﾞﾝｶﾐｲﾀﾁｮｳ","kana_address":"ｾﾍﾞ","pref":"徳島県","city":"板野郡上板町","address":"瀬部"},
{"zip_code":"7711341","kana_pref":"ﾄｸｼﾏｹﾝ","kana_city":"ｲﾀﾉｸﾞﾝｶﾐｲﾀﾁｮｳ","kana_address":"ﾀﾞｲｼﾞｭｳｼﾝﾃﾞﾝ","pref":"徳島県","city":"板野郡上板町","address":"第十新田"},
{"zip_code":"7711346","kana_pref":"ﾄｸｼﾏｹﾝ","kana_city":"ｲﾀﾉｸﾞﾝｶﾐｲﾀﾁｮｳ","kana_address":"ﾀｶｲｿ","pref":"徳島県","city":"板野郡上板町","address":"高磯"},
{"zip_code":"7711347","kana_pref":"ﾄｸｼﾏｹﾝ","kana_city":"ｲﾀﾉｸﾞﾝｶﾐｲﾀﾁｮｳ","kana_address":"ﾀｶｾ","pref":"徳島県","city":"板野郡上板町","address":"高瀬"},
{"zip_code":"7711330","kana_pref":"ﾄｸｼﾏｹﾝ","kana_city":"ｲﾀﾉｸﾞﾝｶﾐｲﾀﾁｮｳ","kana_address":"ﾆｼﾌﾞﾝ","pref":"徳島県","city":"板野郡上板町","address":"西分"},
{"zip_code":"7711311","kana_pref":"ﾄｸｼﾏｹﾝ","kana_city":"ｲﾀﾉｸﾞﾝｶﾐｲﾀﾁｮｳ","kana_address":"ﾋｷﾉ","pref":"徳島県","city":"板野郡上板町","address":"引野"},
{"zip_code":"7712502","kana_pref":"ﾄｸｼﾏｹﾝ","kana_city":"ﾐﾖｼｸﾞﾝﾋｶﾞｼﾐﾖｼﾁｮｳ","kana_address":"ｱｼﾛ","pref":"徳島県","city":"三好郡東みよし町","address":"足代"},
{"zip_code":"7712503","kana_pref":"ﾄｸｼﾏｹﾝ","kana_city":"ﾐﾖｼｸﾞﾝﾋｶﾞｼﾐﾖｼﾁｮｳ","kana_address":"ﾋｶﾞｼﾔﾏ","pref":"徳島県","city":"三好郡東みよし町","address":"東山"},
{"zip_code":"7712501","kana_pref":"ﾄｸｼﾏｹﾝ","kana_city":"ﾐﾖｼｸﾞﾝﾋｶﾞｼﾐﾖｼﾁｮｳ","kana_address":"ﾋﾙﾏ","pref":"徳島県","city":"三好郡東みよし町","address":"昼間"}]}