{"zip_code":[
{"zip_code":"7740000","kana_pref":"ﾄｸｼﾏｹﾝ","kana_city":"ｱﾅﾝｼ","kana_address":"","pref":"徳島県","city":"阿南市","address":""},
{"zip_code":"7741760","kana_pref":"ﾄｸｼﾏｹﾝ","kana_city":"ｱﾅﾝｼ","kana_address":"ｲｼﾏﾁｮｳ","pref":"徳島県","city":"阿南市","address":"伊島町"},
{"zip_code":"7740022","kana_pref":"ﾄｸｼﾏｹﾝ","kana_city":"ｱﾅﾝｼ","kana_address":"ｵｵｶﾞﾀﾁｮｳ","pref":"徳島県","city":"阿南市","address":"大潟町"},
{"zip_code":"7740014","kana_pref":"ﾄｸｼﾏｹﾝ","kana_city":"ｱﾅﾝｼ","kana_address":"ｶﾞｸﾊﾞﾗﾁｮｳ","pref":"徳島県","city":"阿南市","address":"学原町"},
{"zip_code":"7740049","kana_pref":"ﾄｸｼﾏｹﾝ","kana_city":"ｱﾅﾝｼ","kana_address":"ｶﾐｵｵﾉﾁｮｳ","pref":"徳島県","city":"阿南市","address":"上大野町"},
{"zip_code":"7740044","kana_pref":"ﾄｸｼﾏｹﾝ","kana_city":"ｱﾅﾝｼ","kana_address":"ｶﾐﾅｶﾁｮｳ","pref":"徳島県","city":"阿南市","address":"上中町"},
{"zip_code":"7740006","kana_pref":"ﾄｸｼﾏｹﾝ","kana_city":"ｱﾅﾝｼ","kana_address":"ｸﾛﾂﾁﾁｮｳ","pref":"徳島県","city":"阿南市","address":"黒津地町"},
{"zip_code":"7740015","kana_pref":"ﾄｸｼﾏｹﾝ","kana_city":"ｱﾅﾝｼ","kana_address":"ｻｲﾐﾁｮｳ","pref":"徳島県","city":"阿南市","address":"才見町"},
{"zip_code":"7740009","kana_pref":"ﾄｸｼﾏｹﾝ","kana_city":"ｱﾅﾝｼ","kana_address":"ｻｲﾛﾐﾁｮｳ","pref":"徳島県","city":"阿南市","address":"西路見町"},
{"zip_code":"7740047","kana_pref":"ﾄｸｼﾏｹﾝ","kana_city":"ｱﾅﾝｼ","kana_address":"ｼﾓｵｵﾉﾁｮｳ","pref":"徳島県","city":"阿南市","address":"下大野町"},
{"zip_code":"7740041","kana_pref":"ﾄｸｼﾏｹﾝ","kana_city":"ｱﾅﾝｼ","kana_address":"ｽﾐﾖｼﾁｮｳ","pref":"徳島県","city":"阿南市","address":"住吉町"},
{"zip_code":"7740045","kana_pref":"ﾄｸｼﾏｹﾝ","kana_city":"ｱﾅﾝｼ","kana_address":"ﾀｶﾗﾀﾞﾁｮｳ","pref":"徳島県","city":"阿南市","address":"宝田町"},
{"zip_code":"7740023","kana_pref":"ﾄｸｼﾏｹﾝ","kana_city":"ｱﾅﾝｼ","kana_address":"ﾀﾁﾊﾞﾅﾁｮｳ","pref":"徳島県","city":"阿南市","address":"橘町"},
{"zip_code":"7740001","kana_pref":"ﾄｸｼﾏｹﾝ","kana_city":"ｱﾅﾝｼ","kana_address":"ﾀﾂﾐﾁｮｳ","pref":"徳島県","city":"阿南市","address":"辰巳町"},
{"zip_code":"7740021","kana_pref":"ﾄｸｼﾏｹﾝ","kana_city":"ｱﾅﾝｼ","kana_address":"ﾂﾉﾐﾈﾁｮｳ","pref":"徳島県","city":"阿南市","address":"津乃峰町"},
{"zip_code":"7740007","kana_pref":"ﾄｸｼﾏｹﾝ","kana_city":"ｱﾅﾝｼ","kana_address":"ﾃﾞｷﾏﾁ","pref":"徳島県","city":"阿南市","address":"出来町"},
{"zip_code":"7740030","kana_pref":"ﾄｸｼﾏｹﾝ","kana_city":"ｱﾅﾝｼ","kana_address":"ﾄﾐｵｶﾁｮｳ","pref":"徳島県","city":"阿南市","address":"富岡町"},
{"zip_code":"7740002","kana_pref":"ﾄｸｼﾏｹﾝ","kana_city":"ｱﾅﾝｼ","kana_address":"ﾄﾖﾏｽﾁｮｳ","pref":"徳島県","city":"阿南市","address":"豊益町"},
{"zip_code":"7740046","kana_pref":"ﾄｸｼﾏｹﾝ","kana_city":"ｱﾅﾝｼ","kana_address":"ﾅｶﾞｲｹﾁｮｳ","pref":"徳島県","city":"阿南市","address":"長生町"},
{"zip_code":"7740048","kana_pref":"ﾄｸｼﾏｹﾝ","kana_city":"ｱﾅﾝｼ","kana_address":"ﾅｶｵｵﾉﾁｮｳ","pref":"徳島県","city":"阿南市","address":"中大野町"},
{"zip_code":"7740016","kana_pref":"ﾄｸｼﾏｹﾝ","kana_city":"ｱﾅﾝｼ","kana_address":"ﾅｶﾊﾞﾔｼﾁｮｳ","pref":"徳島県","city":"阿南市","address":"中林町"},
{"zip_code":"7740012","kana_pref":"ﾄｸｼﾏｹﾝ","kana_city":"ｱﾅﾝｼ","kana_address":"ﾅﾅﾐﾁｮｳ","pref":"徳島県","city":"阿南市","address":"七見町"},
{"zip_code":"7740008","kana_pref":"ﾄｸｼﾏｹﾝ","kana_city":"ｱﾅﾝｼ","kana_address":"ﾊﾗｶﾞｻｷﾁｮｳ","pref":"徳島県","city":"阿南市","address":"原ケ崎町"},
{"zip_code":"7740003","kana_pref":"ﾄｸｼﾏｹﾝ","kana_city":"ｱﾅﾝｼ","kana_address":"ﾊﾘﾁｮｳ","pref":"徳島県","city":"阿南市","address":"畭町"},
{"zip_code":"7740013","kana_pref":"ﾄｸｼﾏｹﾝ","kana_city":"ｱﾅﾝｼ","kana_address":"ﾋｶﾞｲﾉﾁｮｳ","pref":"徳島県","city":"阿南市","address":"日開野町"},
{"zip_code":"7740004","kana_pref":"ﾄｸｼﾏｹﾝ","kana_city":"ｱﾅﾝｼ","kana_address":"ﾌｸﾑﾗﾁｮｳ","pref":"徳島県","city":"阿南市","address":"福村町"},
{"zip_code":"7740017","kana_pref":"ﾄｸｼﾏｹﾝ","kana_city":"ｱﾅﾝｼ","kana_address":"ﾐﾉﾊﾞﾔｼﾁｮｳ","pref":"徳島県","city":"阿南市","address":"見能林町"},
{"zip_code":"7740005","kana_pref":"ﾄｸｼﾏｹﾝ","kana_city":"ｱﾅﾝｼ","kana_address":"ﾑｶｲﾊﾞﾗﾁｮｳ","pref":"徳島県","city":"阿南市","address":"向原町"},
{"zip_code":"7740043","kana_pref":"ﾄｸｼﾏｹﾝ","kana_city":"ｱﾅﾝｼ","kana_address":"ﾔﾅｷﾞｼﾞﾏﾁｮｳ","pref":"徳島県","city":"阿南市","address":"柳島町"},
{"zip_code":"7740042","kana_pref":"ﾄｸｼﾏｹﾝ","kana_city":"ｱﾅﾝｼ","kana_address":"ﾖｺﾐﾁｮｳ","pref":"徳島県","city":"阿南市","address":"横見町"},
{"zip_code":"7740011","kana_pref":"ﾄｸｼﾏｹﾝ","kana_city":"ｱﾅﾝｼ","kana_address":"ﾘｮｳｹﾁｮｳ","pref":"徳島県","city":"阿南市","address":"領家町"}]}