{"zip_code":[
{"zip_code":"7750000","kana_pref":"ﾄｸｼﾏｹﾝ","kana_city":"ｶｲﾌｸﾞﾝﾑｷﾞﾁｮｳ","kana_address":"","pref":"徳島県","city":"海部郡牟岐町","address":""},
{"zip_code":"7750007","kana_pref":"ﾄｸｼﾏｹﾝ","kana_city":"ｶｲﾌｸﾞﾝﾑｷﾞﾁｮｳ","kana_address":"ｳﾁﾂﾞﾏ","pref":"徳島県","city":"海部郡牟岐町","address":"内妻"},
{"zip_code":"7750004","kana_pref":"ﾄｸｼﾏｹﾝ","kana_city":"ｶｲﾌｸﾞﾝﾑｷﾞﾁｮｳ","kana_address":"ｶﾜﾀｹ","pref":"徳島県","city":"海部郡牟岐町","address":"川長"},
{"zip_code":"7750001","kana_pref":"ﾄｸｼﾏｹﾝ","kana_city":"ｶｲﾌｸﾞﾝﾑｷﾞﾁｮｳ","kana_address":"ｺｳﾁ","pref":"徳島県","city":"海部郡牟岐町","address":"河内"},
{"zip_code":"7750002","kana_pref":"ﾄｸｼﾏｹﾝ","kana_city":"ｶｲﾌｸﾞﾝﾑｷﾞﾁｮｳ","kana_address":"ﾀﾁﾊﾞﾅ","pref":"徳島県","city":"海部郡牟岐町","address":"橘"},
{"zip_code":"7750006","kana_pref":"ﾄｸｼﾏｹﾝ","kana_city":"ｶｲﾌｸﾞﾝﾑｷﾞﾁｮｳ","kana_address":"ﾅｶﾑﾗ","pref":"徳島県","city":"海部郡牟岐町","address":"中村"},
{"zip_code":"7750005","kana_pref":"ﾄｸｼﾏｹﾝ","kana_city":"ｶｲﾌｸﾞﾝﾑｷﾞﾁｮｳ","kana_address":"ﾅﾀﾞ","pref":"徳島県","city":"海部郡牟岐町","address":"灘"},
{"zip_code":"7750003","kana_pref":"ﾄｸｼﾏｹﾝ","kana_city":"ｶｲﾌｸﾞﾝﾑｷﾞﾁｮｳ","kana_address":"ﾍｶﾞﾜ","pref":"徳島県","city":"海部郡牟岐町","address":"辺川"},
{"zip_code":"7750013","kana_pref":"ﾄｸｼﾏｹﾝ","kana_city":"ｶｲﾌｸﾞﾝﾑｷﾞﾁｮｳ","kana_address":"ﾑｷﾞｳﾗ","pref":"徳島県","city":"海部郡牟岐町","address":"牟岐浦"},
{"zip_code":"7750011","kana_pref":"ﾄｸｼﾏｹﾝ","kana_city":"ｶｲﾌｸﾞﾝﾑｷﾞﾁｮｳ","kana_address":"ﾑｷﾞｳﾗ","pref":"徳島県","city":"海部郡牟岐町","address":"牟岐浦"},
{"zip_code":"7750012","kana_pref":"ﾄｸｼﾏｹﾝ","kana_city":"ｶｲﾌｸﾞﾝﾑｷﾞﾁｮｳ","kana_address":"ﾑｷﾞｳﾗ","pref":"徳島県","city":"海部郡牟岐町","address":"牟岐浦"},
{"zip_code":"7750010","kana_pref":"ﾄｸｼﾏｹﾝ","kana_city":"ｶｲﾌｸﾞﾝﾑｷﾞﾁｮｳ","kana_address":"ﾑｷﾞｳﾗ","pref":"徳島県","city":"海部郡牟岐町","address":"牟岐浦"},
{"zip_code":"7750200","kana_pref":"ﾄｸｼﾏｹﾝ","kana_city":"ｶｲﾌｸﾞﾝｶｲﾖｳﾁｮｳ","kana_address":"","pref":"徳島県","city":"海部郡海陽町","address":""},
{"zip_code":"7750415","kana_pref":"ﾄｸｼﾏｹﾝ","kana_city":"ｶｲﾌｸﾞﾝｶｲﾖｳﾁｮｳ","kana_address":"ｱｲｶﾜ","pref":"徳島県","city":"海部郡海陽町","address":"相川"},
{"zip_code":"7750101","kana_pref":"ﾄｸｼﾏｹﾝ","kana_city":"ｶｲﾌｸﾞﾝｶｲﾖｳﾁｮｳ","kana_address":"ｱｻｶﾜ","pref":"徳島県","city":"海部郡海陽町","address":"浅川"},
{"zip_code":"7750310","kana_pref":"ﾄｸｼﾏｹﾝ","kana_city":"ｶｲﾌｸﾞﾝｶｲﾖｳﾁｮｳ","kana_address":"ｵｵｲ","pref":"徳島県","city":"海部郡海陽町","address":"大井"},
{"zip_code":"7750203","kana_pref":"ﾄｸｼﾏｹﾝ","kana_city":"ｶｲﾌｸﾞﾝｶｲﾖｳﾁｮｳ","kana_address":"ｵｵｻﾞﾄ","pref":"徳島県","city":"海部郡海陽町","address":"大里"},
{"zip_code":"7750412","kana_pref":"ﾄｸｼﾏｹﾝ","kana_city":"ｶｲﾌｸﾞﾝｶｲﾖｳﾁｮｳ","kana_address":"ｵｶﾞﾜ","pref":"徳島県","city":"海部郡海陽町","address":"小川"},
{"zip_code":"7750302","kana_pref":"ﾄｸｼﾏｹﾝ","kana_city":"ｶｲﾌｸﾞﾝｶｲﾖｳﾁｮｳ","kana_address":"ｵｸｳﾗ","pref":"徳島県","city":"海部郡海陽町","address":"奥浦"},
{"zip_code":"7750504","kana_pref":"ﾄｸｼﾏｹﾝ","kana_city":"ｶｲﾌｸﾞﾝｶｲﾖｳﾁｮｳ","kana_address":"ｵｻｷ","pref":"徳島県","city":"海部郡海陽町","address":"尾崎"},
{"zip_code":"7750506","kana_pref":"ﾄｸｼﾏｹﾝ","kana_city":"ｶｲﾌｸﾞﾝｶｲﾖｳﾁｮｳ","kana_address":"ｶｸｻｶ","pref":"徳島県","city":"海部郡海陽町","address":"角坂"},
{"zip_code":"7750511","kana_pref":"ﾄｸｼﾏｹﾝ","kana_city":"ｶｲﾌｸﾞﾝｶｲﾖｳﾁｮｳ","kana_address":"ｸｵ","pref":"徳島県","city":"海部郡海陽町","address":"久尾"},
{"zip_code":"7750505","kana_pref":"ﾄｸｼﾏｹﾝ","kana_city":"ｶｲﾌｸﾞﾝｶｲﾖｳﾁｮｳ","kana_address":"ｸｸﾞﾂｹ","pref":"徳島県","city":"海部郡海陽町","address":"芥附"},
{"zip_code":"7750306","kana_pref":"ﾄｸｼﾏｹﾝ","kana_city":"ｶｲﾌｸﾞﾝｶｲﾖｳﾁｮｳ","kana_address":"ｸｼｶﾜ","pref":"徳島県","city":"海部郡海陽町","address":"櫛川"},
{"zip_code":"7750502","kana_pref":"ﾄｸｼﾏｹﾝ","kana_city":"ｶｲﾌｸﾞﾝｶｲﾖｳﾁｮｳ","kana_address":"ｸﾎﾞ","pref":"徳島県","city":"海部郡海陽町","address":"久保"},
{"zip_code":"7750413","kana_pref":"ﾄｸｼﾏｹﾝ","kana_city":"ｶｲﾌｸﾞﾝｶｲﾖｳﾁｮｳ","kana_address":"ｺｳﾉ","pref":"徳島県","city":"海部郡海陽町","address":"神野"},
{"zip_code":"7750508","kana_pref":"ﾄｸｼﾏｹﾝ","kana_city":"ｶｲﾌｸﾞﾝｶｲﾖｳﾁｮｳ","kana_address":"ｺﾀﾞﾆ","pref":"徳島県","city":"海部郡海陽町","address":"小谷"},
{"zip_code":"7750509","kana_pref":"ﾄｸｼﾏｹﾝ","kana_city":"ｶｲﾌｸﾞﾝｶｲﾖｳﾁｮｳ","kana_address":"ｼｵﾌｶ","pref":"徳島県","city":"海部郡海陽町","address":"塩深"},
{"zip_code":"7750513","kana_pref":"ﾄｸｼﾏｹﾝ","kana_city":"ｶｲﾌｸﾞﾝｶｲﾖｳﾁｮｳ","kana_address":"ｼｼｸｲｳﾗ","pref":"徳島県","city":"海部郡海陽町","address":"宍喰浦"},
{"zip_code":"7750512","kana_pref":"ﾄｸｼﾏｹﾝ","kana_city":"ｶｲﾌｸﾞﾝｶｲﾖｳﾁｮｳ","kana_address":"ｼｼｸｲｳﾗ","pref":"徳島県","city":"海部郡海陽町","address":"宍喰浦"},
{"zip_code":"7750501","kana_pref":"ﾄｸｼﾏｹﾝ","kana_city":"ｶｲﾌｸﾞﾝｶｲﾖｳﾁｮｳ","kana_address":"ｼｼｸｲｳﾗ","pref":"徳島県","city":"海部郡海陽町","address":"宍喰浦"},
{"zip_code":"7750307","kana_pref":"ﾄｸｼﾏｹﾝ","kana_city":"ｶｲﾌｸﾞﾝｶｲﾖｳﾁｮｳ","kana_address":"ｼﾊﾞ","pref":"徳島県","city":"海部郡海陽町","address":"芝"},
{"zip_code":"7750202","kana_pref":"ﾄｸｼﾏｹﾝ","kana_city":"ｶｲﾌｸﾞﾝｶｲﾖｳﾁｮｳ","kana_address":"ｼﾎｳﾊﾗ","pref":"徳島県","city":"海部郡海陽町","address":"四方原"},
{"zip_code":"7750206","kana_pref":"ﾄｸｼﾏｹﾝ","kana_city":"ｶｲﾌｸﾞﾝｶｲﾖｳﾁｮｳ","kana_address":"ｽﾞｸﾀﾞ","pref":"徳島県","city":"海部郡海陽町","address":"熟田"},
{"zip_code":"7750303","kana_pref":"ﾄｸｼﾏｹﾝ","kana_city":"ｶｲﾌｸﾞﾝｶｲﾖｳﾁｮｳ","kana_address":"ﾀｶｿﾞﾉ","pref":"徳島県","city":"海部郡海陽町","address":"高園"},
{"zip_code":"7750204","kana_pref":"ﾄｸｼﾏｹﾝ","kana_city":"ｶｲﾌｸﾞﾝｶｲﾖｳﾁｮｳ","kana_address":"ﾀﾗ","pref":"徳島県","city":"海部郡海陽町","address":"多良"},
{"zip_code":"7750309","kana_pref":"ﾄｸｼﾏｹﾝ","kana_city":"ｶｲﾌｸﾞﾝｶｲﾖｳﾁｮｳ","kana_address":"ﾄﾐﾀﾞ","pref":"徳島県","city":"海部郡海陽町","address":"富田"},
{"zip_code":"7750301","kana_pref":"ﾄｸｼﾏｹﾝ","kana_city":"ｶｲﾌｸﾞﾝｶｲﾖｳﾁｮｳ","kana_address":"ﾄﾓｳﾗ","pref":"徳島県","city":"海部郡海陽町","address":"鞆浦"},
{"zip_code":"7750305","kana_pref":"ﾄｸｼﾏｹﾝ","kana_city":"ｶｲﾌｸﾞﾝｶｲﾖｳﾁｮｳ","kana_address":"ﾅｶﾔﾏ","pref":"徳島県","city":"海部郡海陽町","address":"中山"},
{"zip_code":"7750304","kana_pref":"ﾄｸｼﾏｹﾝ","kana_city":"ｶｲﾌｸﾞﾝｶｲﾖｳﾁｮｳ","kana_address":"ﾉｴ","pref":"徳島県","city":"海部郡海陽町","address":"野江"},
{"zip_code":"7750503","kana_pref":"ﾄｸｼﾏｹﾝ","kana_city":"ｶｲﾌｸﾞﾝｶｲﾖｳﾁｮｳ","kana_address":"ﾋﾋﾞﾊﾗ","pref":"徳島県","city":"海部郡海陽町","address":"日比原"},
{"zip_code":"7750411","kana_pref":"ﾄｸｼﾏｹﾝ","kana_city":"ｶｲﾌｸﾞﾝｶｲﾖｳﾁｮｳ","kana_address":"ﾋﾗｲ","pref":"徳島県","city":"海部郡海陽町","address":"平井"},
{"zip_code":"7750507","kana_pref":"ﾄｸｼﾏｹﾝ","kana_city":"ｶｲﾌｸﾞﾝｶｲﾖｳﾁｮｳ","kana_address":"ﾋﾛｵｶ","pref":"徳島県","city":"海部郡海陽町","address":"広岡"},
{"zip_code":"7750510","kana_pref":"ﾄｸｼﾏｹﾝ","kana_city":"ｶｲﾌｸﾞﾝｶｲﾖｳﾁｮｳ","kana_address":"ﾌﾅﾂ","pref":"徳島県","city":"海部郡海陽町","address":"船津"},
{"zip_code":"7750308","kana_pref":"ﾄｸｼﾏｹﾝ","kana_city":"ｶｲﾌｸﾞﾝｶｲﾖｳﾁｮｳ","kana_address":"ﾖｼﾀﾞ","pref":"徳島県","city":"海部郡海陽町","address":"吉田"},
{"zip_code":"7750205","kana_pref":"ﾄｸｼﾏｹﾝ","kana_city":"ｶｲﾌｸﾞﾝｶｲﾖｳﾁｮｳ","kana_address":"ﾖｼﾉ","pref":"徳島県","city":"海部郡海陽町","address":"吉野"},
{"zip_code":"7750414","kana_pref":"ﾄｸｼﾏｹﾝ","kana_city":"ｶｲﾌｸﾞﾝｶｲﾖｳﾁｮｳ","kana_address":"ﾜｶﾏﾂ","pref":"徳島県","city":"海部郡海陽町","address":"若松"}]}