{"zip_code":[
{"zip_code":"7760000","kana_pref":"ﾄｸｼﾏｹﾝ","kana_city":"ﾖｼﾉｶﾞﾜｼ","kana_address":"","pref":"徳島県","city":"吉野川市","address":""},
{"zip_code":"7760015","kana_pref":"ﾄｸｼﾏｹﾝ","kana_city":"ﾖｼﾉｶﾞﾜｼ","kana_address":"ｶﾓｼﾞﾏﾁｮｳｱﾜｼﾞﾏ","pref":"徳島県","city":"吉野川市","address":"鴨島町粟島"},
{"zip_code":"7760033","kana_pref":"ﾄｸｼﾏｹﾝ","kana_city":"ﾖｼﾉｶﾞﾜｼ","kana_address":"ｶﾓｼﾞﾏﾁｮｳｲﾉｵ","pref":"徳島県","city":"吉野川市","address":"鴨島町飯尾"},
{"zip_code":"7760001","kana_pref":"ﾄｸｼﾏｹﾝ","kana_city":"ﾖｼﾉｶﾞﾜｼ","kana_address":"ｶﾓｼﾞﾏﾁｮｳｳｼｼﾏ","pref":"徳島県","city":"吉野川市","address":"鴨島町牛島"},
{"zip_code":"7760003","kana_pref":"ﾄｸｼﾏｹﾝ","kana_city":"ﾖｼﾉｶﾞﾜｼ","kana_address":"ｶﾓｼﾞﾏﾁｮｳｳﾁﾊﾞﾗ","pref":"徳島県","city":"吉野川市","address":"鴨島町内原"},
{"zip_code":"7760002","kana_pref":"ﾄｸｼﾏｹﾝ","kana_city":"ﾖｼﾉｶﾞﾜｼ","kana_address":"ｶﾓｼﾞﾏﾁｮｳｵｴﾂﾞｶ","pref":"徳島県","city":"吉野川市","address":"鴨島町麻植塚"},
{"zip_code":"7760037","kana_pref":"ﾄｸｼﾏｹﾝ","kana_city":"ﾖｼﾉｶﾞﾜｼ","kana_address":"ｶﾓｼﾞﾏﾁｮｳｶﾐｳﾗ","pref":"徳島県","city":"吉野川市","address":"鴨島町上浦"},
{"zip_code":"7760010","kana_pref":"ﾄｸｼﾏｹﾝ","kana_city":"ﾖｼﾉｶﾞﾜｼ","kana_address":"ｶﾓｼﾞﾏﾁｮｳｶﾓｼﾞﾏ","pref":"徳島県","city":"吉野川市","address":"鴨島町鴨島"},
{"zip_code":"7760011","kana_pref":"ﾄｸｼﾏｹﾝ","kana_city":"ﾖｼﾉｶﾞﾜｼ","kana_address":"ｶﾓｼﾞﾏﾁｮｳｶﾓｼﾞﾏｺｳ","pref":"徳島県","city":"吉野川市","address":"鴨島町鴨島甲"},
{"zip_code":"7760012","kana_pref":"ﾄｸｼﾏｹﾝ","kana_city":"ﾖｼﾉｶﾞﾜｼ","kana_address":"ｶﾓｼﾞﾏﾁｮｳｶﾓｼﾞﾏｵﾂ","pref":"徳島県","city":"吉野川市","address":"鴨島町鴨島乙"},
{"zip_code":"7760005","kana_pref":"ﾄｸｼﾏｹﾝ","kana_city":"ﾖｼﾉｶﾞﾜｼ","kana_address":"ｶﾓｼﾞﾏﾁｮｳｷﾗｲ","pref":"徳島県","city":"吉野川市","address":"鴨島町喜来"},
{"zip_code":"7760006","kana_pref":"ﾄｸｼﾏｹﾝ","kana_city":"ﾖｼﾉｶﾞﾜｼ","kana_address":"ｶﾓｼﾞﾏﾁｮｳｷﾗｲｺｳ","pref":"徳島県","city":"吉野川市","address":"鴨島町喜来甲"},
{"zip_code":"7760007","kana_pref":"ﾄｸｼﾏｹﾝ","kana_city":"ﾖｼﾉｶﾞﾜｼ","kana_address":"ｶﾓｼﾞﾏﾁｮｳｷﾗｲｵﾂ","pref":"徳島県","city":"吉野川市","address":"鴨島町喜来乙"},
{"zip_code":"7760034","kana_pref":"ﾄｸｼﾏｹﾝ","kana_city":"ﾖｼﾉｶﾞﾜｼ","kana_address":"ｶﾓｼﾞﾏﾁｮｳｺﾞｷｮｳﾀﾞﾝﾁ","pref":"徳島県","city":"吉野川市","address":"鴨島町呉郷団地"},
{"zip_code":"7760036","kana_pref":"ﾄｸｼﾏｹﾝ","kana_city":"ﾖｼﾉｶﾞﾜｼ","kana_address":"ｶﾓｼﾞﾏﾁｮｳｻﾝｼﾞ","pref":"徳島県","city":"吉野川市","address":"鴨島町山路"},
{"zip_code":"7760031","kana_pref":"ﾄｸｼﾏｹﾝ","kana_city":"ﾖｼﾉｶﾞﾜｼ","kana_address":"ｶﾓｼﾞﾏﾁｮｳｼｷｼﾞ","pref":"徳島県","city":"吉野川市","address":"鴨島町敷地"},
{"zip_code":"7760013","kana_pref":"ﾄｸｼﾏｹﾝ","kana_city":"ﾖｼﾉｶﾞﾜｼ","kana_address":"ｶﾓｼﾞﾏﾁｮｳｼﾞｮｳｹﾞｼﾞﾏ","pref":"徳島県","city":"吉野川市","address":"鴨島町上下島"},
{"zip_code":"7760014","kana_pref":"ﾄｸｼﾏｹﾝ","kana_city":"ﾖｼﾉｶﾞﾜｼ","kana_address":"ｶﾓｼﾞﾏﾁｮｳﾁｴｼﾞﾏ","pref":"徳島県","city":"吉野川市","address":"鴨島町知恵島"},
{"zip_code":"7760004","kana_pref":"ﾄｸｼﾏｹﾝ","kana_city":"ﾖｼﾉｶﾞﾜｼ","kana_address":"ｶﾓｼﾞﾏﾁｮｳﾅｶｼﾞﾏ","pref":"徳島県","city":"吉野川市","address":"鴨島町中島"},
{"zip_code":"7760020","kana_pref":"ﾄｸｼﾏｹﾝ","kana_city":"ﾖｼﾉｶﾞﾜｼ","kana_address":"ｶﾓｼﾞﾏﾁｮｳﾆｼｵｴ","pref":"徳島県","city":"吉野川市","address":"鴨島町西麻植"},
{"zip_code":"7760032","kana_pref":"ﾄｸｼﾏｹﾝ","kana_city":"ﾖｼﾉｶﾞﾜｼ","kana_address":"ｶﾓｼﾞﾏﾁｮｳﾋﾔﾏｼﾞ","pref":"徳島県","city":"吉野川市","address":"鴨島町樋山地"},
{"zip_code":"7760035","kana_pref":"ﾄｸｼﾏｹﾝ","kana_city":"ﾖｼﾉｶﾞﾜｼ","kana_address":"ｶﾓｼﾞﾏﾁｮｳﾓﾘﾄｳ","pref":"徳島県","city":"吉野川市","address":"鴨島町森藤"}]}