{"zip_code":[
{"zip_code":"7770005","kana_pref":"ﾄｸｼﾏｹﾝ","kana_city":"ﾐﾏｼ","kana_address":"ｱﾅﾌﾞｷﾁｮｳｱﾅﾌﾞｷ","pref":"徳島県","city":"美馬市","address":"穴吹町穴吹"},
{"zip_code":"7770006","kana_pref":"ﾄｸｼﾏｹﾝ","kana_city":"ﾐﾏｼ","kana_address":"ｱﾅﾌﾞｷﾁｮｳｸﾁﾔﾏ","pref":"徳島県","city":"美馬市","address":"穴吹町口山"},
{"zip_code":"7770007","kana_pref":"ﾄｸｼﾏｹﾝ","kana_city":"ﾐﾏｼ","kana_address":"ｱﾅﾌﾞｷﾁｮｳﾌﾙﾐﾔ","pref":"徳島県","city":"美馬市","address":"穴吹町古宮"},
{"zip_code":"7770004","kana_pref":"ﾄｸｼﾏｹﾝ","kana_city":"ﾐﾏｼ","kana_address":"ｱﾅﾌﾞｷﾁｮｳﾐｼﾏ","pref":"徳島県","city":"美馬市","address":"穴吹町三島"},
{"zip_code":"7770001","kana_pref":"ﾄｸｼﾏｹﾝ","kana_city":"ﾐﾏｼ","kana_address":"ｱﾅﾌﾞｷﾁｮｳﾐｼﾏ","pref":"徳島県","city":"美馬市","address":"穴吹町三島"},
{"zip_code":"7770002","kana_pref":"ﾄｸｼﾏｹﾝ","kana_city":"ﾐﾏｼ","kana_address":"ｱﾅﾌﾞｷﾁｮｳﾐｼﾏ","pref":"徳島県","city":"美馬市","address":"穴吹町三島"},
{"zip_code":"7770003","kana_pref":"ﾄｸｼﾏｹﾝ","kana_city":"ﾐﾏｼ","kana_address":"ｱﾅﾌﾞｷﾁｮｳﾐｼﾏ","pref":"徳島県","city":"美馬市","address":"穴吹町三島"},
{"zip_code":"7770302","kana_pref":"ﾄｸｼﾏｹﾝ","kana_city":"ﾐﾏｼ","kana_address":"ｺﾔﾀﾞｲﾗ","pref":"徳島県","city":"美馬市","address":"木屋平"},
{"zip_code":"7770301","kana_pref":"ﾄｸｼﾏｹﾝ","kana_city":"ﾐﾏｼ","kana_address":"ｺﾔﾀﾞｲﾗ","pref":"徳島県","city":"美馬市","address":"木屋平"},
{"zip_code":"7770303","kana_pref":"ﾄｸｼﾏｹﾝ","kana_city":"ﾐﾏｼ","kana_address":"ｺﾔﾀﾞｲﾗ","pref":"徳島県","city":"美馬市","address":"木屋平"}]}