{"zip_code":[
{"zip_code":"7780000","kana_pref":"ﾄｸｼﾏｹﾝ","kana_city":"ﾐﾖｼｼ","kana_address":"","pref":"徳島県","city":"三好市","address":""},
{"zip_code":"7780012","kana_pref":"ﾄｸｼﾏｹﾝ","kana_city":"ﾐﾖｼｼ","kana_address":"ｲｹﾀﾞﾁｮｳｲｹﾐﾅﾐ","pref":"徳島県","city":"三好市","address":"池田町イケミナミ"},
{"zip_code":"7780014","kana_pref":"ﾄｸｼﾏｹﾝ","kana_city":"ﾐﾖｼｼ","kana_address":"ｲｹﾀﾞﾁｮｳｲﾀﾉ","pref":"徳島県","city":"三好市","address":"池田町イタノ"},
{"zip_code":"7780001","kana_pref":"ﾄｸｼﾏｹﾝ","kana_city":"ﾐﾖｼｼ","kana_address":"ｲｹﾀﾞﾁｮｳｳｴﾉ","pref":"徳島県","city":"三好市","address":"池田町ウエノ"},
{"zip_code":"7780010","kana_pref":"ﾄｸｼﾏｹﾝ","kana_city":"ﾐﾖｼｼ","kana_address":"ｲｹﾀﾞﾁｮｳｳｴﾏﾂ","pref":"徳島県","city":"三好市","address":"池田町ウエマツ"},
{"zip_code":"7785252","kana_pref":"ﾄｸｼﾏｹﾝ","kana_city":"ﾐﾖｼｼ","kana_address":"ｲｹﾀﾞﾁｮｳｳﾏｼﾞ","pref":"徳島県","city":"三好市","address":"池田町馬路"},
{"zip_code":"7780008","kana_pref":"ﾄｸｼﾏｹﾝ","kana_city":"ﾐﾖｼｼ","kana_address":"ｲｹﾀﾞﾁｮｳｸﾔｳｼﾞ","pref":"徳島県","city":"三好市","address":"池田町クヤウジ"},
{"zip_code":"7785253","kana_pref":"ﾄｸｼﾏｹﾝ","kana_city":"ﾐﾖｼｼ","kana_address":"ｲｹﾀﾞﾁｮｳｻﾉ","pref":"徳島県","city":"三好市","address":"池田町佐野"},
{"zip_code":"7780003","kana_pref":"ﾄｸｼﾏｹﾝ","kana_city":"ﾐﾖｼｼ","kana_address":"ｲｹﾀﾞﾁｮｳｻﾗﾀﾞ","pref":"徳島県","city":"三好市","address":"池田町サラダ"},
{"zip_code":"7780005","kana_pref":"ﾄｸｼﾏｹﾝ","kana_city":"ﾐﾖｼｼ","kana_address":"ｲｹﾀﾞﾁｮｳｼﾏ","pref":"徳島県","city":"三好市","address":"池田町シマ"},
{"zip_code":"7780020","kana_pref":"ﾄｸｼﾏｹﾝ","kana_city":"ﾐﾖｼｼ","kana_address":"ｲｹﾀﾞﾁｮｳｼｭｳﾂﾞ","pref":"徳島県","city":"三好市","address":"池田町州津"},
{"zip_code":"7780004","kana_pref":"ﾄｸｼﾏｹﾝ","kana_city":"ﾐﾖｼｼ","kana_address":"ｲｹﾀﾞﾁｮｳｼﾝﾏﾁ","pref":"徳島県","city":"三好市","address":"池田町シンマチ"},
{"zip_code":"7780013","kana_pref":"ﾄｸｼﾏｹﾝ","kana_city":"ﾐﾖｼｼ","kana_address":"ｲｹﾀﾞﾁｮｳｼﾝﾔﾏ","pref":"徳島県","city":"三好市","address":"池田町シンヤマ"},
{"zip_code":"7780006","kana_pref":"ﾄｸｼﾏｹﾝ","kana_city":"ﾐﾖｼｼ","kana_address":"ｲｹﾀﾞﾁｮｳﾄｳｹﾞ","pref":"徳島県","city":"三好市","address":"池田町トウゲ"},
{"zip_code":"7780031","kana_pref":"ﾄｸｼﾏｹﾝ","kana_city":"ﾐﾖｼｼ","kana_address":"ｲｹﾀﾞﾁｮｳﾆｼﾔﾏ","pref":"徳島県","city":"三好市","address":"池田町西山"},
{"zip_code":"7780031","kana_pref":"ﾄｸｼﾏｹﾝ","kana_city":"ﾐﾖｼｼ","kana_address":"ｲｹﾀﾞﾁｮｳﾆｼﾔﾏ","pref":"徳島県","city":"三好市","address":"池田町西山"},
{"zip_code":"7780032","kana_pref":"ﾄｸｼﾏｹﾝ","kana_city":"ﾐﾖｼｼ","kana_address":"ｲｹﾀﾞﾁｮｳﾆｼﾔﾏ","pref":"徳島県","city":"三好市","address":"池田町西山"},
{"zip_code":"7780032","kana_pref":"ﾄｸｼﾏｹﾝ","kana_city":"ﾐﾖｼｼ","kana_address":"ｲｹﾀﾞﾁｮｳﾆｼﾔﾏ","pref":"徳島県","city":"三好市","address":"池田町西山"},
{"zip_code":"7780031","kana_pref":"ﾄｸｼﾏｹﾝ","kana_city":"ﾐﾖｼｼ","kana_address":"ｲｹﾀﾞﾁｮｳﾆｼﾔﾏ","pref":"徳島県","city":"三好市","address":"池田町西山"},
{"zip_code":"7780032","kana_pref":"ﾄｸｼﾏｹﾝ","kana_city":"ﾐﾖｼｼ","kana_address":"ｲｹﾀﾞﾁｮｳﾆｼﾔﾏ","pref":"徳島県","city":"三好市","address":"池田町西山"},
{"zip_code":"7780032","kana_pref":"ﾄｸｼﾏｹﾝ","kana_city":"ﾐﾖｼｼ","kana_address":"ｲｹﾀﾞﾁｮｳﾆｼﾔﾏ","pref":"徳島県","city":"三好市","address":"池田町西山"},
{"zip_code":"7780032","kana_pref":"ﾄｸｼﾏｹﾝ","kana_city":"ﾐﾖｼｼ","kana_address":"ｲｹﾀﾞﾁｮｳﾆｼﾔﾏ","pref":"徳島県","city":"三好市","address":"池田町西山"},
{"zip_code":"7780031","kana_pref":"ﾄｸｼﾏｹﾝ","kana_city":"ﾐﾖｼｼ","kana_address":"ｲｹﾀﾞﾁｮｳﾆｼﾔﾏ","pref":"徳島県","city":"三好市","address":"池田町西山"},
{"zip_code":"7780032","kana_pref":"ﾄｸｼﾏｹﾝ","kana_city":"ﾐﾖｼｼ","kana_address":"ｲｹﾀﾞﾁｮｳﾆｼﾔﾏ","pref":"徳島県","city":"三好市","address":"池田町西山"},
{"zip_code":"7780032","kana_pref":"ﾄｸｼﾏｹﾝ","kana_city":"ﾐﾖｼｼ","kana_address":"ｲｹﾀﾞﾁｮｳﾆｼﾔﾏ","pref":"徳島県","city":"三好市","address":"池田町西山"},
{"zip_code":"7780031","kana_pref":"ﾄｸｼﾏｹﾝ","kana_city":"ﾐﾖｼｼ","kana_address":"ｲｹﾀﾞﾁｮｳﾆｼﾔﾏ","pref":"徳島県","city":"三好市","address":"池田町西山"},
{"zip_code":"7780031","kana_pref":"ﾄｸｼﾏｹﾝ","kana_city":"ﾐﾖｼｼ","kana_address":"ｲｹﾀﾞﾁｮｳﾆｼﾔﾏ","pref":"徳島県","city":"三好市","address":"池田町西山"},
{"zip_code":"7780031","kana_pref":"ﾄｸｼﾏｹﾝ","kana_city":"ﾐﾖｼｼ","kana_address":"ｲｹﾀﾞﾁｮｳﾆｼﾔﾏ","pref":"徳島県","city":"三好市","address":"池田町西山"},
{"zip_code":"7780032","kana_pref":"ﾄｸｼﾏｹﾝ","kana_city":"ﾐﾖｼｼ","kana_address":"ｲｹﾀﾞﾁｮｳﾆｼﾔﾏ","pref":"徳島県","city":"三好市","address":"池田町西山"},
{"zip_code":"7780032","kana_pref":"ﾄｸｼﾏｹﾝ","kana_city":"ﾐﾖｼｼ","kana_address":"ｲｹﾀﾞﾁｮｳﾆｼﾔﾏ","pref":"徳島県","city":"三好市","address":"池田町西山"},
{"zip_code":"7780031","kana_pref":"ﾄｸｼﾏｹﾝ","kana_city":"ﾐﾖｼｼ","kana_address":"ｲｹﾀﾞﾁｮｳﾆｼﾔﾏ","pref":"徳島県","city":"三好市","address":"池田町西山"},
{"zip_code":"7780032","kana_pref":"ﾄｸｼﾏｹﾝ","kana_city":"ﾐﾖｼｼ","kana_address":"ｲｹﾀﾞﾁｮｳﾆｼﾔﾏ","pref":"徳島県","city":"三好市","address":"池田町西山"},
{"zip_code":"7780031","kana_pref":"ﾄｸｼﾏｹﾝ","kana_city":"ﾐﾖｼｼ","kana_address":"ｲｹﾀﾞﾁｮｳﾆｼﾔﾏ","pref":"徳島県","city":"三好市","address":"池田町西山"},
{"zip_code":"7780032","kana_pref":"ﾄｸｼﾏｹﾝ","kana_city":"ﾐﾖｼｼ","kana_address":"ｲｹﾀﾞﾁｮｳﾆｼﾔﾏ","pref":"徳島県","city":"三好市","address":"池田町西山"},
{"zip_code":"7780032","kana_pref":"ﾄｸｼﾏｹﾝ","kana_city":"ﾐﾖｼｼ","kana_address":"ｲｹﾀﾞﾁｮｳﾆｼﾔﾏ","pref":"徳島県","city":"三好市","address":"池田町西山"},
{"zip_code":"7780031","kana_pref":"ﾄｸｼﾏｹﾝ","kana_city":"ﾐﾖｼｼ","kana_address":"ｲｹﾀﾞﾁｮｳﾆｼﾔﾏ","pref":"徳島県","city":"三好市","address":"池田町西山"},
{"zip_code":"7780040","kana_pref":"ﾄｸｼﾏｹﾝ","kana_city":"ﾐﾖｼｼ","kana_address":"ｲｹﾀﾞﾁｮｳﾆｼﾔﾏ","pref":"徳島県","city":"三好市","address":"池田町西山"},
{"zip_code":"7785251","kana_pref":"ﾄｸｼﾏｹﾝ","kana_city":"ﾐﾖｼｼ","kana_address":"ｲｹﾀﾞﾁｮｳﾊｸﾁ","pref":"徳島県","city":"三好市","address":"池田町白地"},
{"zip_code":"7780011","kana_pref":"ﾄｸｼﾏｹﾝ","kana_city":"ﾐﾖｼｼ","kana_address":"ｲｹﾀﾞﾁｮｳﾊﾔｼ","pref":"徳島県","city":"三好市","address":"池田町ハヤシ"},
{"zip_code":"7780002","kana_pref":"ﾄｸｼﾏｹﾝ","kana_city":"ﾐﾖｼｼ","kana_address":"ｲｹﾀﾞﾁｮｳﾏﾁ","pref":"徳島県","city":"三好市","address":"池田町マチ"},
{"zip_code":"7780165","kana_pref":"ﾄｸｼﾏｹﾝ","kana_city":"ﾐﾖｼｼ","kana_address":"ｲｹﾀﾞﾁｮｳﾏﾂｵ","pref":"徳島県","city":"三好市","address":"池田町松尾"},
{"zip_code":"7780009","kana_pref":"ﾄｸｼﾏｹﾝ","kana_city":"ﾐﾖｼｼ","kana_address":"ｲｹﾀﾞﾁｮｳﾔｻﾝ","pref":"徳島県","city":"三好市","address":"池田町ヤサン"},
{"zip_code":"7780007","kana_pref":"ﾄｸｼﾏｹﾝ","kana_city":"ﾐﾖｼｼ","kana_address":"ｲｹﾀﾞﾁｮｳﾔﾏﾀﾞ","pref":"徳島県","city":"三好市","address":"池田町ヤマダ"},
{"zip_code":"7780104","kana_pref":"ﾄｸｼﾏｹﾝ","kana_city":"ﾐﾖｼｼ","kana_address":"ﾆｼｲﾔﾔﾏﾑﾗｱﾊｼ","pref":"徳島県","city":"三好市","address":"西祖谷山村吾橋"},
{"zip_code":"7780103","kana_pref":"ﾄｸｼﾏｹﾝ","kana_city":"ﾐﾖｼｼ","kana_address":"ﾆｼｲﾔﾔﾏﾑﾗｱﾙｾ","pref":"徳島県","city":"三好市","address":"西祖谷山村有瀬"},
{"zip_code":"7780101","kana_pref":"ﾄｸｼﾏｹﾝ","kana_city":"ﾐﾖｼｼ","kana_address":"ﾆｼｲﾔﾔﾏﾑﾗｲﾁｳ","pref":"徳島県","city":"三好市","address":"西祖谷山村一宇"},
{"zip_code":"7780102","kana_pref":"ﾄｸｼﾏｹﾝ","kana_city":"ﾐﾖｼｼ","kana_address":"ﾆｼｲﾔﾔﾏﾑﾗｲﾏｸﾎﾞ","pref":"徳島県","city":"三好市","address":"西祖谷山村今久保"},
{"zip_code":"7780105","kana_pref":"ﾄｸｼﾏｹﾝ","kana_city":"ﾐﾖｼｼ","kana_address":"ﾆｼｲﾔﾔﾏﾑﾗｳｼﾛﾔﾏ","pref":"徳島県","city":"三好市","address":"西祖谷山村後山"},
{"zip_code":"7780105","kana_pref":"ﾄｸｼﾏｹﾝ","kana_city":"ﾐﾖｼｼ","kana_address":"ﾆｼｲﾔﾔﾏﾑﾗｳｼﾛﾔﾏﾆｼ","pref":"徳島県","city":"三好市","address":"西祖谷山村後山西"},
{"zip_code":"7780105","kana_pref":"ﾄｸｼﾏｹﾝ","kana_city":"ﾐﾖｼｼ","kana_address":"ﾆｼｲﾔﾔﾏﾑﾗｳｼﾛﾔﾏﾑｶｲ","pref":"徳島県","city":"三好市","address":"西祖谷山村後山向"},
{"zip_code":"7780104","kana_pref":"ﾄｸｼﾏｹﾝ","kana_city":"ﾐﾖｼｼ","kana_address":"ﾆｼｲﾔﾔﾏﾑﾗｴﾉｷ","pref":"徳島県","city":"三好市","address":"西祖谷山村榎"},
{"zip_code":"7780101","kana_pref":"ﾄｸｼﾏｹﾝ","kana_city":"ﾐﾖｼｼ","kana_address":"ﾆｼｲﾔﾔﾏﾑﾗｵｲﾉｳﾁ","pref":"徳島県","city":"三好市","address":"西祖谷山村尾井ノ内"},
{"zip_code":"7780104","kana_pref":"ﾄｸｼﾏｹﾝ","kana_city":"ﾐﾖｼｼ","kana_address":"ﾆｼｲﾔﾔﾏﾑﾗｶﾐｱﾊｼ","pref":"徳島県","city":"三好市","address":"西祖谷山村上吾橋"},
{"zip_code":"7780102","kana_pref":"ﾄｸｼﾏｹﾝ","kana_city":"ﾐﾖｼｼ","kana_address":"ﾆｼｲﾔﾔﾏﾑﾗｶﾝｼﾞｮｳ","pref":"徳島県","city":"三好市","address":"西祖谷山村閑定"},
{"zip_code":"7780101","kana_pref":"ﾄｸｼﾏｹﾝ","kana_city":"ﾐﾖｼｼ","kana_address":"ﾆｼｲﾔﾔﾏﾑﾗｼｹﾞｽｴ","pref":"徳島県","city":"三好市","address":"西祖谷山村重末"},
{"zip_code":"7780104","kana_pref":"ﾄｸｼﾏｹﾝ","kana_city":"ﾐﾖｼｼ","kana_address":"ﾆｼｲﾔﾔﾏﾑﾗｼﾓｱﾊｼ","pref":"徳島県","city":"三好市","address":"西祖谷山村下吾橋"},
{"zip_code":"7780102","kana_pref":"ﾄｸｼﾏｹﾝ","kana_city":"ﾐﾖｼｼ","kana_address":"ﾆｼｲﾔﾔﾏﾑﾗｾﾞﾝﾄｸ","pref":"徳島県","city":"三好市","address":"西祖谷山村善徳"},
{"zip_code":"7780101","kana_pref":"ﾄｸｼﾏｹﾝ","kana_city":"ﾐﾖｼｼ","kana_address":"ﾆｼｲﾔﾔﾏﾑﾗﾀﾉｳﾁ","pref":"徳島県","city":"三好市","address":"西祖谷山村田ノ内"},
{"zip_code":"7780104","kana_pref":"ﾄｸｼﾏｹﾝ","kana_city":"ﾐﾖｼｼ","kana_address":"ﾆｼｲﾔﾔﾏﾑﾗﾂﾁﾋｳﾗ","pref":"徳島県","city":"三好市","address":"西祖谷山村土日浦"},
{"zip_code":"7780105","kana_pref":"ﾄｸｼﾏｹﾝ","kana_city":"ﾐﾖｼｼ","kana_address":"ﾆｼｲﾔﾔﾏﾑﾗﾄｸｾﾞﾝ","pref":"徳島県","city":"三好市","address":"西祖谷山村徳善"},
{"zip_code":"7780105","kana_pref":"ﾄｸｼﾏｹﾝ","kana_city":"ﾐﾖｼｼ","kana_address":"ﾆｼｲﾔﾔﾏﾑﾗﾄｸｾﾞﾝｷﾀ","pref":"徳島県","city":"三好市","address":"西祖谷山村徳善北"},
{"zip_code":"7780105","kana_pref":"ﾄｸｼﾏｹﾝ","kana_city":"ﾐﾖｼｼ","kana_address":"ﾆｼｲﾔﾔﾏﾑﾗﾄｸｾﾞﾝﾆｼ","pref":"徳島県","city":"三好市","address":"西祖谷山村徳善西"},
{"zip_code":"7780101","kana_pref":"ﾄｸｼﾏｹﾝ","kana_city":"ﾐﾖｼｼ","kana_address":"ﾆｼｲﾔﾔﾏﾑﾗﾄﾉﾀﾆ","pref":"徳島県","city":"三好市","address":"西祖谷山村戸ノ谷"},
{"zip_code":"7780102","kana_pref":"ﾄｸｼﾏｹﾝ","kana_city":"ﾐﾖｼｼ","kana_address":"ﾆｼｲﾔﾔﾏﾑﾗﾅｶｵ","pref":"徳島県","city":"三好市","address":"西祖谷山村中尾"},
{"zip_code":"7780105","kana_pref":"ﾄｸｼﾏｹﾝ","kana_city":"ﾐﾖｼｼ","kana_address":"ﾆｼｲﾔﾔﾏﾑﾗﾆｼｵｶ","pref":"徳島県","city":"三好市","address":"西祖谷山村西岡"},
{"zip_code":"7780101","kana_pref":"ﾄｸｼﾏｹﾝ","kana_city":"ﾐﾖｼｼ","kana_address":"ﾆｼｲﾔﾔﾏﾑﾗﾈﾑﾘﾀﾞﾆ","pref":"徳島県","city":"三好市","address":"西祖谷山村眠谷"},
{"zip_code":"7780105","kana_pref":"ﾄｸｼﾏｹﾝ","kana_city":"ﾐﾖｼｼ","kana_address":"ﾆｼｲﾔﾔﾏﾑﾗﾋｶﾞｼﾆｼｵｶ","pref":"徳島県","city":"三好市","address":"西祖谷山村東西岡"},
{"zip_code":"7780104","kana_pref":"ﾄｸｼﾏｹﾝ","kana_city":"ﾐﾖｼｼ","kana_address":"ﾆｼｲﾔﾔﾏﾑﾗﾋｶﾞｼﾔﾏ","pref":"徳島県","city":"三好市","address":"西祖谷山村東山"},
{"zip_code":"7780104","kana_pref":"ﾄｸｼﾏｹﾝ","kana_city":"ﾐﾖｼｼ","kana_address":"ﾆｼｲﾔﾔﾏﾑﾗﾐﾅﾐﾔﾏ","pref":"徳島県","city":"三好市","address":"西祖谷山村南山"},
{"zip_code":"7780101","kana_pref":"ﾄｸｼﾏｹﾝ","kana_city":"ﾐﾖｼｼ","kana_address":"ﾆｼｲﾔﾔﾏﾑﾗﾐｮｳｼﾞ","pref":"徳島県","city":"三好市","address":"西祖谷山村冥地"},
{"zip_code":"7780205","kana_pref":"ﾄｸｼﾏｹﾝ","kana_city":"ﾐﾖｼｼ","kana_address":"ﾋｶﾞｼｲﾔｱｻ","pref":"徳島県","city":"三好市","address":"東祖谷阿佐"},
{"zip_code":"7780206","kana_pref":"ﾄｸｼﾏｹﾝ","kana_city":"ﾐﾖｼｼ","kana_address":"ﾋｶﾞｼｲﾔｲﾏｲ","pref":"徳島県","city":"三好市","address":"東祖谷今井"},
{"zip_code":"7780204","kana_pref":"ﾄｸｼﾏｹﾝ","kana_city":"ﾐﾖｼｼ","kana_address":"ﾋｶﾞｼｲﾔｵｵｴﾀﾞ","pref":"徳島県","city":"三好市","address":"東祖谷大枝"},
{"zip_code":"7780204","kana_pref":"ﾄｸｼﾏｹﾝ","kana_city":"ﾐﾖｼｼ","kana_address":"ﾋｶﾞｼｲﾔｵｵﾆｼ","pref":"徳島県","city":"三好市","address":"東祖谷大西"},
{"zip_code":"7780205","kana_pref":"ﾄｸｼﾏｹﾝ","kana_city":"ﾐﾖｼｼ","kana_address":"ﾋｶﾞｼｲﾔｵｶﾞﾜ","pref":"徳島県","city":"三好市","address":"東祖谷小川"},
{"zip_code":"7780203","kana_pref":"ﾄｸｼﾏｹﾝ","kana_city":"ﾐﾖｼｼ","kana_address":"ﾋｶﾞｼｲﾔｵｸﾉｲ","pref":"徳島県","city":"三好市","address":"東祖谷奥の井"},
{"zip_code":"7780206","kana_pref":"ﾄｸｼﾏｹﾝ","kana_city":"ﾐﾖｼｼ","kana_address":"ﾋｶﾞｼｲﾔｵｼﾏ","pref":"徳島県","city":"三好市","address":"東祖谷小島"},
{"zip_code":"7780202","kana_pref":"ﾄｸｼﾏｹﾝ","kana_city":"ﾐﾖｼｼ","kana_address":"ﾋｶﾞｼｲﾔｵﾁｱｲ","pref":"徳島県","city":"三好市","address":"東祖谷落合"},
{"zip_code":"7780205","kana_pref":"ﾄｸｼﾏｹﾝ","kana_city":"ﾐﾖｼｼ","kana_address":"ﾋｶﾞｼｲﾔｶｼｵ","pref":"徳島県","city":"三好市","address":"東祖谷樫尾"},
{"zip_code":"7780203","kana_pref":"ﾄｸｼﾏｹﾝ","kana_city":"ﾐﾖｼｼ","kana_address":"ﾋｶﾞｼｲﾔｶﾏｶﾞﾀﾆ","pref":"徳島県","city":"三好市","address":"東祖谷釜ケ谷"},
{"zip_code":"7780204","kana_pref":"ﾄｸｼﾏｹﾝ","kana_city":"ﾐﾖｼｼ","kana_address":"ﾋｶﾞｼｲﾔｷｮｳｼﾞｮｳ","pref":"徳島県","city":"三好市","address":"東祖谷京上"},
{"zip_code":"7780203","kana_pref":"ﾄｸｼﾏｹﾝ","kana_city":"ﾐﾖｼｼ","kana_address":"ﾋｶﾞｼｲﾔｸｷ","pref":"徳島県","city":"三好市","address":"東祖谷九鬼"},
{"zip_code":"7780202","kana_pref":"ﾄｸｼﾏｹﾝ","kana_city":"ﾐﾖｼｼ","kana_address":"ﾋｶﾞｼｲﾔｸﾎﾞ","pref":"徳島県","city":"三好市","address":"東祖谷久保"},
{"zip_code":"7780203","kana_pref":"ﾄｸｼﾏｹﾝ","kana_city":"ﾐﾖｼｼ","kana_address":"ﾋｶﾞｼｲﾔｸﾘｽﾄﾞ","pref":"徳島県","city":"三好市","address":"東祖谷栗枝渡"},
{"zip_code":"7780205","kana_pref":"ﾄｸｼﾏｹﾝ","kana_city":"ﾐﾖｼｼ","kana_address":"ﾋｶﾞｼｲﾔｺﾐ","pref":"徳島県","city":"三好市","address":"東祖谷古味"},
{"zip_code":"7780206","kana_pref":"ﾄｸｼﾏｹﾝ","kana_city":"ﾐﾖｼｼ","kana_address":"ﾋｶﾞｼｲﾔｻﾉ","pref":"徳島県","city":"三好市","address":"東祖谷佐野"},
{"zip_code":"7780203","kana_pref":"ﾄｸｼﾏｹﾝ","kana_city":"ﾐﾖｼｼ","kana_address":"ﾋｶﾞｼｲﾔｼﾓｾ","pref":"徳島県","city":"三好市","address":"東祖谷下瀬"},
{"zip_code":"7780201","kana_pref":"ﾄｸｼﾏｹﾝ","kana_city":"ﾐﾖｼｼ","kana_address":"ﾋｶﾞｼｲﾔｽｹﾞｵｲ","pref":"徳島県","city":"三好市","address":"東祖谷菅生"},
{"zip_code":"7780206","kana_pref":"ﾄｸｼﾏｹﾝ","kana_city":"ﾐﾖｼｼ","kana_address":"ﾋｶﾞｼｲﾔﾀｶﾉ","pref":"徳島県","city":"三好市","address":"東祖谷高野"},
{"zip_code":"7780206","kana_pref":"ﾄｸｼﾏｹﾝ","kana_city":"ﾐﾖｼｼ","kana_address":"ﾋｶﾞｼｲﾔﾂﾙｲ","pref":"徳島県","city":"三好市","address":"東祖谷釣井"},
{"zip_code":"7780203","kana_pref":"ﾄｸｼﾏｹﾝ","kana_city":"ﾐﾖｼｼ","kana_address":"ﾋｶﾞｼｲﾔﾅｶｳｴ","pref":"徳島県","city":"三好市","address":"東祖谷中上"},
{"zip_code":"7780205","kana_pref":"ﾄｸｼﾏｹﾝ","kana_city":"ﾐﾖｼｼ","kana_address":"ﾋｶﾞｼｲﾔﾆｲﾔ","pref":"徳島県","city":"三好市","address":"東祖谷新居屋"},
{"zip_code":"7780203","kana_pref":"ﾄｸｼﾏｹﾝ","kana_city":"ﾐﾖｼｼ","kana_address":"ﾋｶﾞｼｲﾔﾆｼﾔﾏ","pref":"徳島県","city":"三好市","address":"東祖谷西山"},
{"zip_code":"7780203","kana_pref":"ﾄｸｼﾏｹﾝ","kana_city":"ﾐﾖｼｼ","kana_address":"ﾋｶﾞｼｲﾔﾊﾔｼ","pref":"徳島県","city":"三好市","address":"東祖谷林"},
{"zip_code":"7780201","kana_pref":"ﾄｸｼﾏｹﾝ","kana_city":"ﾐﾖｼｼ","kana_address":"ﾋｶﾞｼｲﾔﾐﾉｺｼ","pref":"徳島県","city":"三好市","address":"東祖谷見ノ越"},
{"zip_code":"7780205","kana_pref":"ﾄｸｼﾏｹﾝ","kana_city":"ﾐﾖｼｼ","kana_address":"ﾋｶﾞｼｲﾔﾑｼﾞｭｳﾄ","pref":"徳島県","city":"三好市","address":"東祖谷麦生土"},
{"zip_code":"7780205","kana_pref":"ﾄｸｼﾏｹﾝ","kana_city":"ﾐﾖｼｼ","kana_address":"ﾋｶﾞｼｲﾔﾓｯﾄｲ","pref":"徳島県","city":"三好市","address":"東祖谷元井"},
{"zip_code":"7780204","kana_pref":"ﾄｸｼﾏｹﾝ","kana_city":"ﾐﾖｼｼ","kana_address":"ﾋｶﾞｼｲﾔﾜｶﾊﾞﾔｼ","pref":"徳島県","city":"三好市","address":"東祖谷若林"},
{"zip_code":"7780206","kana_pref":"ﾄｸｼﾏｹﾝ","kana_city":"ﾐﾖｼｼ","kana_address":"ﾋｶﾞｼｲﾔﾜﾀﾞ","pref":"徳島県","city":"三好市","address":"東祖谷和田"},
{"zip_code":"7785254","kana_pref":"ﾄｸｼﾏｹﾝ","kana_city":"ﾐﾖｼｼ","kana_address":"ﾔﾏｼﾛﾁｮｳｻﾚ","pref":"徳島県","city":"三好市","address":"山城町佐連"}]}