{"zip_code":[
{"zip_code":"7793132","kana_pref":"ﾄｸｼﾏｹﾝ","kana_city":"ﾄｸｼﾏｼ","kana_address":"ｲﾁﾉﾐﾔﾁｮｳ","pref":"徳島県","city":"徳島市","address":"一宮町"},
{"zip_code":"7793116","kana_pref":"ﾄｸｼﾏｹﾝ","kana_city":"ﾄｸｼﾏｼ","kana_address":"ｺｸﾌﾁｮｳｲｹｼﾞﾘ","pref":"徳島県","city":"徳島市","address":"国府町池尻"},
{"zip_code":"7793118","kana_pref":"ﾄｸｼﾏｹﾝ","kana_city":"ﾄｸｼﾏｼ","kana_address":"ｺｸﾌﾁｮｳｲﾄﾞ","pref":"徳島県","city":"徳島市","address":"国府町井戸"},
{"zip_code":"7793128","kana_pref":"ﾄｸｼﾏｹﾝ","kana_city":"ﾄｸｼﾏｼ","kana_address":"ｺｸﾌﾁｮｳｴﾝﾒｲ","pref":"徳島県","city":"徳島市","address":"国府町延命"},
{"zip_code":"7793113","kana_pref":"ﾄｸｼﾏｹﾝ","kana_city":"ﾄｸｼﾏｼ","kana_address":"ｺｸﾌﾁｮｳｶﾜﾗﾀﾞ","pref":"徳島県","city":"徳島市","address":"国府町川原田"},
{"zip_code":"7793123","kana_pref":"ﾄｸｼﾏｹﾝ","kana_city":"ﾄｸｼﾏｼ","kana_address":"ｺｸﾌﾁｮｳｶﾝﾉﾝｼﾞ","pref":"徳島県","city":"徳島市","address":"国府町観音寺"},
{"zip_code":"7793122","kana_pref":"ﾄｸｼﾏｹﾝ","kana_city":"ﾄｸｼﾏｼ","kana_address":"ｺｸﾌﾁｮｳｺｳ","pref":"徳島県","city":"徳島市","address":"国府町府中"},
{"zip_code":"7793114","kana_pref":"ﾄｸｼﾏｹﾝ","kana_city":"ﾄｸｼﾏｼ","kana_address":"ｺｸﾌﾁｮｳｻｸﾗﾏ","pref":"徳島県","city":"徳島市","address":"国府町桜間"},
{"zip_code":"7793101","kana_pref":"ﾄｸｼﾏｹﾝ","kana_city":"ﾄｸｼﾏｼ","kana_address":"ｺｸﾌﾁｮｳｻﾉﾂﾞｶ","pref":"徳島県","city":"徳島市","address":"国府町佐野塚"},
{"zip_code":"7793115","kana_pref":"ﾄｸｼﾏｹﾝ","kana_city":"ﾄｸｼﾏｼ","kana_address":"ｺｸﾌﾁｮｳｼｷｼﾞ","pref":"徳島県","city":"徳島市","address":"国府町敷地"},
{"zip_code":"7793112","kana_pref":"ﾄｸｼﾏｹﾝ","kana_city":"ﾄｸｼﾏｼ","kana_address":"ｺｸﾌﾁｮｳｼﾊﾞﾊﾗ","pref":"徳島県","city":"徳島市","address":"国府町芝原"},
{"zip_code":"7793124","kana_pref":"ﾄｸｼﾏｹﾝ","kana_city":"ﾄｸｼﾏｼ","kana_address":"ｺｸﾌﾁｮｳﾅｶ","pref":"徳島県","city":"徳島市","address":"国府町中"},
{"zip_code":"7793127","kana_pref":"ﾄｸｼﾏｹﾝ","kana_city":"ﾄｸｼﾏｼ","kana_address":"ｺｸﾌﾁｮｳﾆｼﾔﾉ","pref":"徳島県","city":"徳島市","address":"国府町西矢野"},
{"zip_code":"7793106","kana_pref":"ﾄｸｼﾏｹﾝ","kana_city":"ﾄｸｼﾏｼ","kana_address":"ｺｸﾌﾁｮｳﾊﾅｿﾞﾉ","pref":"徳島県","city":"徳島市","address":"国府町花園"},
{"zip_code":"7793125","kana_pref":"ﾄｸｼﾏｹﾝ","kana_city":"ﾄｸｼﾏｼ","kana_address":"ｺｸﾌﾁｮｳﾊﾔﾌﾞﾁ","pref":"徳島県","city":"徳島市","address":"国府町早淵"},
{"zip_code":"7793117","kana_pref":"ﾄｸｼﾏｹﾝ","kana_city":"ﾄｸｼﾏｼ","kana_address":"ｺｸﾌﾁｮｳﾋｶﾞｲ","pref":"徳島県","city":"徳島市","address":"国府町日開"},
{"zip_code":"7793103","kana_pref":"ﾄｸｼﾏｹﾝ","kana_city":"ﾄｸｼﾏｼ","kana_address":"ｺｸﾌﾁｮｳﾋｶﾞｼｸﾛﾀﾞ","pref":"徳島県","city":"徳島市","address":"国府町東黒田"},
{"zip_code":"7793102","kana_pref":"ﾄｸｼﾏｹﾝ","kana_city":"ﾄｸｼﾏｼ","kana_address":"ｺｸﾌﾁｮｳﾆｼｸﾛﾀﾞ","pref":"徳島県","city":"徳島市","address":"国府町西黒田"},
{"zip_code":"7793120","kana_pref":"ﾄｸｼﾏｹﾝ","kana_city":"ﾄｸｼﾏｼ","kana_address":"ｺｸﾌﾁｮｳﾐﾅﾐｲﾜﾉﾌﾞ","pref":"徳島県","city":"徳島市","address":"国府町南岩延"},
{"zip_code":"7793119","kana_pref":"ﾄｸｼﾏｹﾝ","kana_city":"ﾄｸｼﾏｼ","kana_address":"ｺｸﾌﾁｮｳｷﾀｲﾜﾉﾌﾞ","pref":"徳島県","city":"徳島市","address":"国府町北岩延"},
{"zip_code":"7793105","kana_pref":"ﾄｸｼﾏｹﾝ","kana_city":"ﾄｸｼﾏｼ","kana_address":"ｺｸﾌﾁｮｳﾋｶﾞｼﾀｶﾜ","pref":"徳島県","city":"徳島市","address":"国府町東高輪"},
{"zip_code":"7793104","kana_pref":"ﾄｸｼﾏｹﾝ","kana_city":"ﾄｸｼﾏｼ","kana_address":"ｺｸﾌﾁｮｳﾆｼﾀｶﾜ","pref":"徳島県","city":"徳島市","address":"国府町西高輪"},
{"zip_code":"7793126","kana_pref":"ﾄｸｼﾏｹﾝ","kana_city":"ﾄｸｼﾏｼ","kana_address":"ｺｸﾌﾁｮｳﾔﾉ","pref":"徳島県","city":"徳島市","address":"国府町矢野"},
{"zip_code":"7793111","kana_pref":"ﾄｸｼﾏｹﾝ","kana_city":"ﾄｸｼﾏｼ","kana_address":"ｺｸﾌﾁｮｳﾘｭｳｵｳ","pref":"徳島県","city":"徳島市","address":"国府町竜王"},
{"zip_code":"7793121","kana_pref":"ﾄｸｼﾏｹﾝ","kana_city":"ﾄｸｼﾏｼ","kana_address":"ｺｸﾌﾁｮｳﾜﾀﾞ","pref":"徳島県","city":"徳島市","address":"国府町和田"},
{"zip_code":"7793131","kana_pref":"ﾄｸｼﾏｹﾝ","kana_city":"ﾄｸｼﾏｼ","kana_address":"ｼﾓﾏﾁ","pref":"徳島県","city":"徳島市","address":"下町"},
{"zip_code":"7793133","kana_pref":"ﾄｸｼﾏｹﾝ","kana_city":"ﾄｸｼﾏｼ","kana_address":"ﾆｭｳﾀﾁｮｳ","pref":"徳島県","city":"徳島市","address":"入田町"},
{"zip_code":"7790303","kana_pref":"ﾄｸｼﾏｹﾝ","kana_city":"ﾅﾙﾄｼ","kana_address":"ｵｵｱｻﾁｮｳｲｹﾉﾀﾆ","pref":"徳島県","city":"鳴門市","address":"大麻町池谷"},
{"zip_code":"7790315","kana_pref":"ﾄｸｼﾏｹﾝ","kana_city":"ﾅﾙﾄｼ","kana_address":"ｵｵｱｻﾁｮｳｲﾁﾊﾞ","pref":"徳島県","city":"鳴門市","address":"大麻町市場"},
{"zip_code":"7790311","kana_pref":"ﾄｸｼﾏｹﾝ","kana_city":"ﾅﾙﾄｼ","kana_address":"ｵｵｱｻﾁｮｳｳｼﾔｼﾞﾏ","pref":"徳島県","city":"鳴門市","address":"大麻町牛屋島"},
{"zip_code":"7790302","kana_pref":"ﾄｸｼﾏｹﾝ","kana_city":"ﾅﾙﾄｼ","kana_address":"ｵｵｱｻﾁｮｳｵｵﾀﾆ","pref":"徳島県","city":"鳴門市","address":"大麻町大谷"},
{"zip_code":"7790223","kana_pref":"ﾄｸｼﾏｹﾝ","kana_city":"ﾅﾙﾄｼ","kana_address":"ｵｵｱｻﾁｮｳｶﾜｻｷ","pref":"徳島県","city":"鳴門市","address":"大麻町川崎"},
{"zip_code":"7790305","kana_pref":"ﾄｸｼﾏｹﾝ","kana_city":"ﾅﾙﾄｼ","kana_address":"ｵｵｱｻﾁｮｳﾀｶﾊﾞﾀｹ","pref":"徳島県","city":"鳴門市","address":"大麻町高畑"},
{"zip_code":"7790224","kana_pref":"ﾄｸｼﾏｹﾝ","kana_city":"ﾅﾙﾄｼ","kana_address":"ｵｵｱｻﾁｮｳﾂｼﾞ","pref":"徳島県","city":"鳴門市","address":"大麻町津慈"},
{"zip_code":"7790313","kana_pref":"ﾄｸｼﾏｹﾝ","kana_city":"ﾅﾙﾄｼ","kana_address":"ｵｵｱｻﾁｮｳﾅｶｳﾏﾂﾞﾒ","pref":"徳島県","city":"鳴門市","address":"大麻町中馬詰"},
{"zip_code":"7790314","kana_pref":"ﾄｸｼﾏｹﾝ","kana_city":"ﾅﾙﾄｼ","kana_address":"ｵｵｱｻﾁｮｳﾆｼｳﾏﾂﾞﾒ","pref":"徳島県","city":"鳴門市","address":"大麻町西馬詰"},
{"zip_code":"7790221","kana_pref":"ﾄｸｼﾏｹﾝ","kana_city":"ﾅﾙﾄｼ","kana_address":"ｵｵｱｻﾁｮｳﾊｷﾞﾜﾗ","pref":"徳島県","city":"鳴門市","address":"大麻町萩原"},
{"zip_code":"7790234","kana_pref":"ﾄｸｼﾏｹﾝ","kana_city":"ﾅﾙﾄｼ","kana_address":"ｵｵｱｻﾁｮｳﾊﾞﾝﾄﾞｳ","pref":"徳島県","city":"鳴門市","address":"大麻町板東"},
{"zip_code":"7790231","kana_pref":"ﾄｸｼﾏｹﾝ","kana_city":"ﾅﾙﾄｼ","kana_address":"ｵｵｱｻﾁｮｳﾊﾞﾝﾄﾞｳ","pref":"徳島県","city":"鳴門市","address":"大麻町板東"},
{"zip_code":"7790232","kana_pref":"ﾄｸｼﾏｹﾝ","kana_city":"ﾅﾙﾄｼ","kana_address":"ｵｵｱｻﾁｮｳﾊﾞﾝﾄﾞｳ","pref":"徳島県","city":"鳴門市","address":"大麻町板東"},
{"zip_code":"7790235","kana_pref":"ﾄｸｼﾏｹﾝ","kana_city":"ﾅﾙﾄｼ","kana_address":"ｵｵｱｻﾁｮｳﾊﾞﾝﾄﾞｳ","pref":"徳島県","city":"鳴門市","address":"大麻町板東"},
{"zip_code":"7790238","kana_pref":"ﾄｸｼﾏｹﾝ","kana_city":"ﾅﾙﾄｼ","kana_address":"ｵｵｱｻﾁｮｳﾊﾞﾝﾄﾞｳ","pref":"徳島県","city":"鳴門市","address":"大麻町板東"},
{"zip_code":"7790236","kana_pref":"ﾄｸｼﾏｹﾝ","kana_city":"ﾅﾙﾄｼ","kana_address":"ｵｵｱｻﾁｮｳﾊﾞﾝﾄﾞｳ","pref":"徳島県","city":"鳴門市","address":"大麻町板東"},
{"zip_code":"7790237","kana_pref":"ﾄｸｼﾏｹﾝ","kana_city":"ﾅﾙﾄｼ","kana_address":"ｵｵｱｻﾁｮｳﾊﾞﾝﾄﾞｳ","pref":"徳島県","city":"鳴門市","address":"大麻町板東"},
{"zip_code":"7790233","kana_pref":"ﾄｸｼﾏｹﾝ","kana_city":"ﾅﾙﾄｼ","kana_address":"ｵｵｱｻﾁｮｳﾊﾞﾝﾄﾞｳ","pref":"徳島県","city":"鳴門市","address":"大麻町板東"},
{"zip_code":"7790230","kana_pref":"ﾄｸｼﾏｹﾝ","kana_city":"ﾅﾙﾄｼ","kana_address":"ｵｵｱｻﾁｮｳﾊﾞﾝﾄﾞｳ","pref":"徳島県","city":"鳴門市","address":"大麻町板東"},
{"zip_code":"7790312","kana_pref":"ﾄｸｼﾏｹﾝ","kana_city":"ﾅﾙﾄｼ","kana_address":"ｵｵｱｻﾁｮｳﾋｶﾞｼｳﾏﾂﾞﾒ","pref":"徳島県","city":"鳴門市","address":"大麻町東馬詰"},
{"zip_code":"7790225","kana_pref":"ﾄｸｼﾏｹﾝ","kana_city":"ﾅﾙﾄｼ","kana_address":"ｵｵｱｻﾁｮｳﾋﾉｷ","pref":"徳島県","city":"鳴門市","address":"大麻町檜"},
{"zip_code":"7790301","kana_pref":"ﾄｸｼﾏｹﾝ","kana_city":"ﾅﾙﾄｼ","kana_address":"ｵｵｱｻﾁｮｳﾋﾒﾀﾞ","pref":"徳島県","city":"鳴門市","address":"大麻町姫田"},
{"zip_code":"7790304","kana_pref":"ﾄｸｼﾏｹﾝ","kana_city":"ﾅﾙﾄｼ","kana_address":"ｵｵｱｻﾁｮｳﾏﾂﾑﾗ","pref":"徳島県","city":"鳴門市","address":"大麻町松村"},
{"zip_code":"7790222","kana_pref":"ﾄｸｼﾏｹﾝ","kana_city":"ﾅﾙﾄｼ","kana_address":"ｵｵｱｻﾁｮｳﾐﾂﾏﾀ","pref":"徳島県","city":"鳴門市","address":"大麻町三俣"},
{"zip_code":"7791404","kana_pref":"ﾄｸｼﾏｹﾝ","kana_city":"ｱﾅﾝｼ","kana_address":"ｱｾﾋﾞﾁｮｳ","pref":"徳島県","city":"阿南市","address":"阿瀬比町"},
{"zip_code":"7791510","kana_pref":"ﾄｸｼﾏｹﾝ","kana_city":"ｱﾅﾝｼ","kana_address":"ｱﾗﾀﾉﾁｮｳ","pref":"徳島県","city":"阿南市","address":"新野町"},
{"zip_code":"7791401","kana_pref":"ﾄｸｼﾏｹﾝ","kana_city":"ｱﾅﾝｼ","kana_address":"ｳﾁﾜﾗﾁｮｳ","pref":"徳島県","city":"阿南市","address":"内原町"},
{"zip_code":"7791402","kana_pref":"ﾄｸｼﾏｹﾝ","kana_city":"ｱﾅﾝｼ","kana_address":"ｸﾜﾉﾁｮｳ","pref":"徳島県","city":"阿南市","address":"桑野町"},
{"zip_code":"7791631","kana_pref":"ﾄｸｼﾏｹﾝ","kana_city":"ｱﾅﾝｼ","kana_address":"ﾀﾁﾊﾞﾅﾁｮｳ","pref":"徳島県","city":"阿南市","address":"橘町"},
{"zip_code":"7791630","kana_pref":"ﾄｸｼﾏｹﾝ","kana_city":"ｱﾅﾝｼ","kana_address":"ﾀﾁﾊﾞﾅﾁｮｳ","pref":"徳島県","city":"阿南市","address":"橘町"},
{"zip_code":"7791750","kana_pref":"ﾄｸｼﾏｹﾝ","kana_city":"ｱﾅﾝｼ","kana_address":"ﾂﾊﾞｷﾁｮｳ","pref":"徳島県","city":"阿南市","address":"椿町"},
{"zip_code":"7791740","kana_pref":"ﾄｸｼﾏｹﾝ","kana_city":"ｱﾅﾝｼ","kana_address":"ﾂﾊﾞｷﾄﾞﾏﾘﾁｮｳ","pref":"徳島県","city":"阿南市","address":"椿泊町"},
{"zip_code":"7791242","kana_pref":"ﾄｸｼﾏｹﾝ","kana_city":"ｱﾅﾝｼ","kana_address":"ﾅｶｶﾞﾜﾁｮｳｱｶｲｹ","pref":"徳島県","city":"阿南市","address":"那賀川町赤池"},
{"zip_code":"7791114","kana_pref":"ﾄｸｼﾏｹﾝ","kana_city":"ｱﾅﾝｼ","kana_address":"ﾅｶｶﾞﾜﾁｮｳｲﾏﾂﾞｳﾗ","pref":"徳島県","city":"阿南市","address":"那賀川町今津浦"},
{"zip_code":"7791112","kana_pref":"ﾄｸｼﾏｹﾝ","kana_city":"ｱﾅﾝｼ","kana_address":"ﾅｶｶﾞﾜﾁｮｳｲﾛｶﾞｼﾏ","pref":"徳島県","city":"阿南市","address":"那賀川町色ケ島"},
{"zip_code":"7791111","kana_pref":"ﾄｸｼﾏｹﾝ","kana_city":"ｱﾅﾝｼ","kana_address":"ﾅｶｶﾞﾜﾁｮｳｴﾉｼﾏ","pref":"徳島県","city":"阿南市","address":"那賀川町江野島"},
{"zip_code":"7791243","kana_pref":"ﾄｸｼﾏｹﾝ","kana_city":"ｱﾅﾝｼ","kana_address":"ﾅｶｶﾞﾜﾁｮｳｶﾐﾌｸｲ","pref":"徳島県","city":"阿南市","address":"那賀川町上福井"},
{"zip_code":"7791235","kana_pref":"ﾄｸｼﾏｹﾝ","kana_city":"ｱﾅﾝｼ","kana_address":"ﾅｶｶﾞﾜﾁｮｳｶﾘﾔ","pref":"徳島県","city":"阿南市","address":"那賀川町苅屋"},
{"zip_code":"7791246","kana_pref":"ﾄｸｼﾏｹﾝ","kana_city":"ｱﾅﾝｼ","kana_address":"ﾅｶｶﾞﾜﾁｮｳｷﾀﾅｶｼﾏ","pref":"徳島県","city":"阿南市","address":"那賀川町北中島"},
{"zip_code":"7791121","kana_pref":"ﾄｸｼﾏｹﾝ","kana_city":"ｱﾅﾝｼ","kana_address":"ﾅｶｶﾞﾜﾁｮｳｸﾛｼﾞ","pref":"徳島県","city":"阿南市","address":"那賀川町黒地"},
{"zip_code":"7791116","kana_pref":"ﾄｸｼﾏｹﾝ","kana_city":"ｱﾅﾝｼ","kana_address":"ﾅｶｶﾞﾜﾁｮｳｺﾉﾌﾞ","pref":"徳島県","city":"阿南市","address":"那賀川町小延"},
{"zip_code":"7791115","kana_pref":"ﾄｸｼﾏｹﾝ","kana_city":"ｱﾅﾝｼ","kana_address":"ﾅｶｶﾞﾜﾁｮｳｼｷｼﾞ","pref":"徳島県","city":"阿南市","address":"那賀川町敷地"},
{"zip_code":"7791117","kana_pref":"ﾄｸｼﾏｹﾝ","kana_city":"ｱﾅﾝｼ","kana_address":"ﾅｶｶﾞﾜﾁｮｳｼﾏｼﾞﾘ","pref":"徳島県","city":"阿南市","address":"那賀川町島尻"},
{"zip_code":"7791233","kana_pref":"ﾄｸｼﾏｹﾝ","kana_city":"ｱﾅﾝｼ","kana_address":"ﾅｶｶﾞﾜﾁｮｳﾀﾞｲｷｮｳﾊﾞﾗ","pref":"徳島県","city":"阿南市","address":"那賀川町大京原"},
{"zip_code":"7791236","kana_pref":"ﾄｸｼﾏｹﾝ","kana_city":"ｱﾅﾝｼ","kana_address":"ﾅｶｶﾞﾜﾁｮｳﾀｸﾑｼﾞ","pref":"徳島県","city":"阿南市","address":"那賀川町工地"},
{"zip_code":"7791123","kana_pref":"ﾄｸｼﾏｹﾝ","kana_city":"ｱﾅﾝｼ","kana_address":"ﾅｶｶﾞﾜﾁｮｳﾃｼﾏ","pref":"徳島県","city":"阿南市","address":"那賀川町手島"},
{"zip_code":"7791245","kana_pref":"ﾄｸｼﾏｹﾝ","kana_city":"ｱﾅﾝｼ","kana_address":"ﾅｶｶﾞﾜﾁｮｳﾅｶｼﾏ","pref":"徳島県","city":"阿南市","address":"那賀川町中島"},
{"zip_code":"7791232","kana_pref":"ﾄｸｼﾏｹﾝ","kana_city":"ｱﾅﾝｼ","kana_address":"ﾅｶｶﾞﾜﾁｮｳﾆｼﾊﾗ","pref":"徳島県","city":"阿南市","address":"那賀川町西原"},
{"zip_code":"7791231","kana_pref":"ﾄｸｼﾏｹﾝ","kana_city":"ｱﾅﾝｼ","kana_address":"ﾅｶｶﾞﾜﾁｮｳﾊﾗ","pref":"徳島県","city":"阿南市","address":"那賀川町原"},
{"zip_code":"7791119","kana_pref":"ﾄｸｼﾏｹﾝ","kana_city":"ｱﾅﾝｼ","kana_address":"ﾅｶｶﾞﾜﾁｮｳﾋﾅﾀ","pref":"徳島県","city":"阿南市","address":"那賀川町日向"},
{"zip_code":"7791234","kana_pref":"ﾄｸｼﾏｹﾝ","kana_city":"ｱﾅﾝｼ","kana_address":"ﾅｶｶﾞﾜﾁｮｳﾌﾙﾂ","pref":"徳島県","city":"阿南市","address":"那賀川町古津"},
{"zip_code":"7791113","kana_pref":"ﾄｸｼﾏｹﾝ","kana_city":"ｱﾅﾝｼ","kana_address":"ﾅｶｶﾞﾜﾁｮｳﾎｳｻﾞｷ","pref":"徳島県","city":"阿南市","address":"那賀川町芳崎"},
{"zip_code":"7791241","kana_pref":"ﾄｸｼﾏｹﾝ","kana_city":"ｱﾅﾝｼ","kana_address":"ﾅｶｶﾞﾜﾁｮｳﾐｸﾞﾘｭｳ","pref":"徳島県","city":"阿南市","address":"那賀川町三栗"},
{"zip_code":"7791244","kana_pref":"ﾄｸｼﾏｹﾝ","kana_city":"ｱﾅﾝｼ","kana_address":"ﾅｶｶﾞﾜﾁｮｳﾐﾄﾞﾘﾀﾞｲ","pref":"徳島県","city":"阿南市","address":"那賀川町みどり台"},
{"zip_code":"7791122","kana_pref":"ﾄｸｼﾏｹﾝ","kana_city":"ｱﾅﾝｼ","kana_address":"ﾅｶｶﾞﾜﾁｮｳﾔﾜﾀ","pref":"徳島県","city":"阿南市","address":"那賀川町八幡"},
{"zip_code":"7791118","kana_pref":"ﾄｸｼﾏｹﾝ","kana_city":"ｱﾅﾝｼ","kana_address":"ﾅｶｶﾞﾜﾁｮｳﾕﾀｶﾉ","pref":"徳島県","city":"阿南市","address":"那賀川町豊香野"},
{"zip_code":"7791107","kana_pref":"ﾄｸｼﾏｹﾝ","kana_city":"ｱﾅﾝｼ","kana_address":"ﾊﾉｳﾗﾁｮｳｲﾜﾜｷ","pref":"徳島県","city":"阿南市","address":"羽ノ浦町岩脇"},
{"zip_code":"7791106","kana_pref":"ﾄｸｼﾏｹﾝ","kana_city":"ｱﾅﾝｼ","kana_address":"ﾊﾉｳﾗﾁｮｳｲﾜﾜｷ","pref":"徳島県","city":"阿南市","address":"羽ノ浦町岩脇"},
{"zip_code":"7791103","kana_pref":"ﾄｸｼﾏｹﾝ","kana_city":"ｱﾅﾝｼ","kana_address":"ﾊﾉｳﾗﾁｮｳｶｽｶﾞﾉ","pref":"徳島県","city":"阿南市","address":"羽ノ浦町春日野"},
{"zip_code":"7791109","kana_pref":"ﾄｸｼﾏｹﾝ","kana_city":"ｱﾅﾝｼ","kana_address":"ﾊﾉｳﾗﾁｮｳｺﾓｳ","pref":"徳島県","city":"阿南市","address":"羽ノ浦町古毛"},
{"zip_code":"7791101","kana_pref":"ﾄｸｼﾏｹﾝ","kana_city":"ｱﾅﾝｼ","kana_address":"ﾊﾉｳﾗﾁｮｳﾅｶﾉｼｮｳ","pref":"徳島県","city":"阿南市","address":"羽ノ浦町中庄"},
{"zip_code":"7791104","kana_pref":"ﾄｸｼﾏｹﾝ","kana_city":"ｱﾅﾝｼ","kana_address":"ﾊﾉｳﾗﾁｮｳﾆｼｶｽｶﾞﾉ","pref":"徳島県","city":"阿南市","address":"羽ノ浦町西春日野"},
{"zip_code":"7791105","kana_pref":"ﾄｸｼﾏｹﾝ","kana_city":"ｱﾅﾝｼ","kana_address":"ﾊﾉｳﾗﾁｮｳﾌﾙｼｮｳ","pref":"徳島県","city":"阿南市","address":"羽ノ浦町古庄"},
{"zip_code":"7791102","kana_pref":"ﾄｸｼﾏｹﾝ","kana_city":"ｱﾅﾝｼ","kana_address":"ﾊﾉｳﾗﾁｮｳﾐﾔｸﾞﾗ","pref":"徳島県","city":"阿南市","address":"羽ノ浦町宮倉"},
{"zip_code":"7791108","kana_pref":"ﾄｸｼﾏｹﾝ","kana_city":"ｱﾅﾝｼ","kana_address":"ﾊﾉｳﾗﾁｮｳﾐｮｳｹﾝ","pref":"徳島県","city":"阿南市","address":"羽ノ浦町明見"},
{"zip_code":"7791620","kana_pref":"ﾄｸｼﾏｹﾝ","kana_city":"ｱﾅﾝｼ","kana_address":"ﾌｸｲﾁｮｳ","pref":"徳島県","city":"阿南市","address":"福井町"},
{"zip_code":"7791403","kana_pref":"ﾄｸｼﾏｹﾝ","kana_city":"ｱﾅﾝｼ","kana_address":"ﾔﾏｸﾞﾁﾁｮｳ","pref":"徳島県","city":"阿南市","address":"山口町"},
{"zip_code":"7793306","kana_pref":"ﾄｸｼﾏｹﾝ","kana_city":"ﾖｼﾉｶﾞﾜｼ","kana_address":"ｶﾜｼﾏﾁｮｳｶﾞｸ","pref":"徳島県","city":"吉野川市","address":"川島町学"},
{"zip_code":"7793301","kana_pref":"ﾄｸｼﾏｹﾝ","kana_city":"ﾖｼﾉｶﾞﾜｼ","kana_address":"ｶﾜｼﾏﾁｮｳｶﾜｼﾏ","pref":"徳島県","city":"吉野川市","address":"川島町川島"},
{"zip_code":"7793303","kana_pref":"ﾄｸｼﾏｹﾝ","kana_city":"ﾖｼﾉｶﾞﾜｼ","kana_address":"ｶﾜｼﾏﾁｮｳｸﾜﾑﾗ","pref":"徳島県","city":"吉野川市","address":"川島町桑村"},
{"zip_code":"7793305","kana_pref":"ﾄｸｼﾏｹﾝ","kana_city":"ﾖｼﾉｶﾞﾜｼ","kana_address":"ｶﾜｼﾏﾁｮｳｺｼﾞﾏ","pref":"徳島県","city":"吉野川市","address":"川島町児島"},
{"zip_code":"7793307","kana_pref":"ﾄｸｼﾏｹﾝ","kana_city":"ﾖｼﾉｶﾞﾜｼ","kana_address":"ｶﾜｼﾏﾁｮｳﾐﾂｼﾞﾏ","pref":"徳島県","city":"吉野川市","address":"川島町三ツ島"},
{"zip_code":"7793304","kana_pref":"ﾄｸｼﾏｹﾝ","kana_city":"ﾖｼﾉｶﾞﾜｼ","kana_address":"ｶﾜｼﾏﾁｮｳﾐﾔﾉｼﾏ","pref":"徳島県","city":"吉野川市","address":"川島町宮島"},
{"zip_code":"7793302","kana_pref":"ﾄｸｼﾏｹﾝ","kana_city":"ﾖｼﾉｶﾞﾜｼ","kana_address":"ｶﾜｼﾏﾁｮｳﾔﾏﾀﾞ","pref":"徳島県","city":"吉野川市","address":"川島町山田"},
{"zip_code":"7793501","kana_pref":"ﾄｸｼﾏｹﾝ","kana_city":"ﾖｼﾉｶﾞﾜｼ","kana_address":"ﾐｻﾄｱｲｺﾞ","pref":"徳島県","city":"吉野川市","address":"美郷愛後"},
{"zip_code":"7793501","kana_pref":"ﾄｸｼﾏｹﾝ","kana_city":"ﾖｼﾉｶﾞﾜｼ","kana_address":"ﾐｻﾄｱﾅｼﾞ","pref":"徳島県","city":"吉野川市","address":"美郷穴地"},
{"zip_code":"7793501","kana_pref":"ﾄｸｼﾏｹﾝ","kana_city":"ﾖｼﾉｶﾞﾜｼ","kana_address":"ﾐｻﾄｲﾁﾉﾔﾏ","pref":"徳島県","city":"吉野川市","address":"美郷一野山"},
{"zip_code":"7793505","kana_pref":"ﾄｸｼﾏｹﾝ","kana_city":"ﾖｼﾉｶﾞﾜｼ","kana_address":"ﾐｻﾄｴﾋﾞｽ","pref":"徳島県","city":"吉野川市","address":"美郷恵美子"},
{"zip_code":"7793501","kana_pref":"ﾄｸｼﾏｹﾝ","kana_city":"ﾖｼﾉｶﾞﾜｼ","kana_address":"ﾐｻﾄｵｵｶﾞﾐ","pref":"徳島県","city":"吉野川市","address":"美郷大神"},
{"zip_code":"7793502","kana_pref":"ﾄｸｼﾏｹﾝ","kana_city":"ﾖｼﾉｶﾞﾜｼ","kana_address":"ﾐｻﾄｵｵｷﾞｼ","pref":"徳島県","city":"吉野川市","address":"美郷大岸"},
{"zip_code":"7793502","kana_pref":"ﾄｸｼﾏｹﾝ","kana_city":"ﾖｼﾉｶﾞﾜｼ","kana_address":"ﾐｻﾄｵｵｻﾞｺ","pref":"徳島県","city":"吉野川市","address":"美郷大佐古"},
{"zip_code":"7793505","kana_pref":"ﾄｸｼﾏｹﾝ","kana_city":"ﾖｼﾉｶﾞﾜｼ","kana_address":"ﾐｻﾄｵｵｼﾞｶ","pref":"徳島県","city":"吉野川市","address":"美郷大鹿"},
{"zip_code":"7793505","kana_pref":"ﾄｸｼﾏｹﾝ","kana_city":"ﾖｼﾉｶﾞﾜｼ","kana_address":"ﾐｻﾄｵｵﾉ","pref":"徳島県","city":"吉野川市","address":"美郷大野"},
{"zip_code":"7793501","kana_pref":"ﾄｸｼﾏｹﾝ","kana_city":"ﾖｼﾉｶﾞﾜｼ","kana_address":"ﾐｻﾄｵｵﾋﾗ","pref":"徳島県","city":"吉野川市","address":"美郷大平"},
{"zip_code":"7793502","kana_pref":"ﾄｸｼﾏｹﾝ","kana_city":"ﾖｼﾉｶﾞﾜｼ","kana_address":"ﾐｻﾄｵｸﾌﾞﾝ","pref":"徳島県","city":"吉野川市","address":"美郷奥分"},
{"zip_code":"7793505","kana_pref":"ﾄｸｼﾏｹﾝ","kana_city":"ﾖｼﾉｶﾞﾜｼ","kana_address":"ﾐｻﾄｵｸﾏﾙ","pref":"徳島県","city":"吉野川市","address":"美郷奥丸"},
{"zip_code":"7793501","kana_pref":"ﾄｸｼﾏｹﾝ","kana_city":"ﾖｼﾉｶﾞﾜｼ","kana_address":"ﾐｻﾄｶｷﾀﾞﾆ","pref":"徳島県","city":"吉野川市","address":"美郷柿谷"},
{"zip_code":"7793502","kana_pref":"ﾄｸｼﾏｹﾝ","kana_city":"ﾖｼﾉｶﾞﾜｼ","kana_address":"ﾐｻﾄｶｼﾀﾞｲﾗ","pref":"徳島県","city":"吉野川市","address":"美郷樫平"},
{"zip_code":"7793505","kana_pref":"ﾄｸｼﾏｹﾝ","kana_city":"ﾖｼﾉｶﾞﾜｼ","kana_address":"ﾐｻﾄｶﾐﾀﾞﾆ","pref":"徳島県","city":"吉野川市","address":"美郷上谷"},
{"zip_code":"7793503","kana_pref":"ﾄｸｼﾏｹﾝ","kana_city":"ﾖｼﾉｶﾞﾜｼ","kana_address":"ﾐｻﾄｶﾜﾏﾀ","pref":"徳島県","city":"吉野川市","address":"美郷川俣"},
{"zip_code":"7793502","kana_pref":"ﾄｸｼﾏｹﾝ","kana_city":"ﾖｼﾉｶﾞﾜｼ","kana_address":"ﾐｻﾄｶﾜﾑｶｲ","pref":"徳島県","city":"吉野川市","address":"美郷川向"},
{"zip_code":"7793502","kana_pref":"ﾄｸｼﾏｹﾝ","kana_city":"ﾖｼﾉｶﾞﾜｼ","kana_address":"ﾐｻﾄｷｼﾉﾑﾈ","pref":"徳島県","city":"吉野川市","address":"美郷岸宗"},
{"zip_code":"7793501","kana_pref":"ﾄｸｼﾏｹﾝ","kana_city":"ﾖｼﾉｶﾞﾜｼ","kana_address":"ﾐｻﾄｸﾗﾗ","pref":"徳島県","city":"吉野川市","address":"美郷倉羅"},
{"zip_code":"7793505","kana_pref":"ﾄｸｼﾏｹﾝ","kana_city":"ﾖｼﾉｶﾞﾜｼ","kana_address":"ﾐｻﾄｸﾘﾉｷ","pref":"徳島県","city":"吉野川市","address":"美郷栗木"},
{"zip_code":"7793505","kana_pref":"ﾄｸｼﾏｹﾝ","kana_city":"ﾖｼﾉｶﾞﾜｼ","kana_address":"ﾐｻﾄｸﾙﾐｻﾞｶ","pref":"徳島県","city":"吉野川市","address":"美郷来見坂"},
{"zip_code":"7793505","kana_pref":"ﾄｸｼﾏｹﾝ","kana_city":"ﾖｼﾉｶﾞﾜｼ","kana_address":"ﾐｻﾄｸﾚｲｼ","pref":"徳島県","city":"吉野川市","address":"美郷暮石"},
{"zip_code":"7793504","kana_pref":"ﾄｸｼﾏｹﾝ","kana_city":"ﾖｼﾉｶﾞﾜｼ","kana_address":"ﾐｻﾄｹﾅｼ","pref":"徳島県","city":"吉野川市","address":"美郷毛無"},
{"zip_code":"7793501","kana_pref":"ﾄｸｼﾏｹﾝ","kana_city":"ﾖｼﾉｶﾞﾜｼ","kana_address":"ﾐｻﾄｺｲ","pref":"徳島県","city":"吉野川市","address":"美郷古井"},
{"zip_code":"7793502","kana_pref":"ﾄｸｼﾏｹﾝ","kana_city":"ﾖｼﾉｶﾞﾜｼ","kana_address":"ﾐｻﾄｺﾀﾞｹ","pref":"徳島県","city":"吉野川市","address":"美郷小竹"},
{"zip_code":"7793505","kana_pref":"ﾄｸｼﾏｹﾝ","kana_city":"ﾖｼﾉｶﾞﾜｼ","kana_address":"ﾐｻﾄｺﾄﾞﾁ","pref":"徳島県","city":"吉野川市","address":"美郷古土地"},
{"zip_code":"7793505","kana_pref":"ﾄｸｼﾏｹﾝ","kana_city":"ﾖｼﾉｶﾞﾜｼ","kana_address":"ﾐｻﾄｺﾔﾉｳﾗ","pref":"徳島県","city":"吉野川市","address":"美郷木屋浦"},
{"zip_code":"7793505","kana_pref":"ﾄｸｼﾏｹﾝ","kana_city":"ﾖｼﾉｶﾞﾜｼ","kana_address":"ﾐｻﾄｻﾝﾉｳ","pref":"徳島県","city":"吉野川市","address":"美郷山王"},
{"zip_code":"7793501","kana_pref":"ﾄｸｼﾏｹﾝ","kana_city":"ﾖｼﾉｶﾞﾜｼ","kana_address":"ﾐｻﾄｼｹﾞﾉｵ","pref":"徳島県","city":"吉野川市","address":"美郷重野尾"},
{"zip_code":"7793503","kana_pref":"ﾄｸｼﾏｹﾝ","kana_city":"ﾖｼﾉｶﾞﾜｼ","kana_address":"ﾐｻﾄｼﾅﾉ","pref":"徳島県","city":"吉野川市","address":"美郷品野"},
{"zip_code":"7793501","kana_pref":"ﾄｸｼﾏｹﾝ","kana_city":"ﾖｼﾉｶﾞﾜｼ","kana_address":"ﾐｻﾄｼﾓｳﾗ","pref":"徳島県","city":"吉野川市","address":"美郷下浦"},
{"zip_code":"7793501","kana_pref":"ﾄｸｼﾏｹﾝ","kana_city":"ﾖｼﾉｶﾞﾜｼ","kana_address":"ﾐｻﾄｼﾓｼﾞｮｳﾄﾞ","pref":"徳島県","city":"吉野川市","address":"美郷下城戸"},
{"zip_code":"7793502","kana_pref":"ﾄｸｼﾏｹﾝ","kana_city":"ﾖｼﾉｶﾞﾜｼ","kana_address":"ﾐｻﾄｼﾓﾊﾀ","pref":"徳島県","city":"吉野川市","address":"美郷下畠"},
{"zip_code":"7793502","kana_pref":"ﾄｸｼﾏｹﾝ","kana_city":"ﾖｼﾉｶﾞﾜｼ","kana_address":"ﾐｻﾄｼﾓﾊﾞﾔｼ","pref":"徳島県","city":"吉野川市","address":"美郷下林"},
{"zip_code":"7793501","kana_pref":"ﾄｸｼﾏｹﾝ","kana_city":"ﾖｼﾉｶﾞﾜｼ","kana_address":"ﾐｻﾄｼﾞｮｳﾄﾞﾐﾈ","pref":"徳島県","city":"吉野川市","address":"美郷上戸峯"},
{"zip_code":"7793505","kana_pref":"ﾄｸｼﾏｹﾝ","kana_city":"ﾖｼﾉｶﾞﾜｼ","kana_address":"ﾐｻﾄｽｹﾞｿｳ","pref":"徳島県","city":"吉野川市","address":"美郷菅草"},
{"zip_code":"7793501","kana_pref":"ﾄｸｼﾏｹﾝ","kana_city":"ﾖｼﾉｶﾞﾜｼ","kana_address":"ﾐｻﾄﾀｲﾗ","pref":"徳島県","city":"吉野川市","address":"美郷平"},
{"zip_code":"7793503","kana_pref":"ﾄｸｼﾏｹﾝ","kana_city":"ﾖｼﾉｶﾞﾜｼ","kana_address":"ﾐｻﾄﾀｶﾉｵ","pref":"徳島県","city":"吉野川市","address":"美郷高野尾"},
{"zip_code":"7793501","kana_pref":"ﾄｸｼﾏｹﾝ","kana_city":"ﾖｼﾉｶﾞﾜｼ","kana_address":"ﾐｻﾄﾀｷｶﾞﾔﾏ","pref":"徳島県","city":"吉野川市","address":"美郷滝ケ山"},
{"zip_code":"7793502","kana_pref":"ﾄｸｼﾏｹﾝ","kana_city":"ﾖｼﾉｶﾞﾜｼ","kana_address":"ﾐｻﾄﾀｹﾔｼｷ","pref":"徳島県","city":"吉野川市","address":"美郷竹屋敷"},
{"zip_code":"7793501","kana_pref":"ﾄｸｼﾏｹﾝ","kana_city":"ﾖｼﾉｶﾞﾜｼ","kana_address":"ﾐｻﾄﾀﾀﾞｲﾗ","pref":"徳島県","city":"吉野川市","address":"美郷田平"},
{"zip_code":"7793502","kana_pref":"ﾄｸｼﾏｹﾝ","kana_city":"ﾖｼﾉｶﾞﾜｼ","kana_address":"ﾐｻﾄﾀﾃｲｼ","pref":"徳島県","city":"吉野川市","address":"美郷立石"},
{"zip_code":"7793502","kana_pref":"ﾄｸｼﾏｹﾝ","kana_city":"ﾖｼﾉｶﾞﾜｼ","kana_address":"ﾐｻﾄﾀﾆﾑｶｲ","pref":"徳島県","city":"吉野川市","address":"美郷谷向"},
{"zip_code":"7793505","kana_pref":"ﾄｸｼﾏｹﾝ","kana_city":"ﾖｼﾉｶﾞﾜｼ","kana_address":"ﾐｻﾄﾂｷﾉ","pref":"徳島県","city":"吉野川市","address":"美郷月野"},
{"zip_code":"7793501","kana_pref":"ﾄｸｼﾏｹﾝ","kana_city":"ﾖｼﾉｶﾞﾜｼ","kana_address":"ﾐｻﾄﾃﾗｵ","pref":"徳島県","city":"吉野川市","address":"美郷照尾"},
{"zip_code":"7793504","kana_pref":"ﾄｸｼﾏｹﾝ","kana_city":"ﾖｼﾉｶﾞﾜｼ","kana_address":"ﾐｻﾄﾄﾞｲﾉｵｸ","pref":"徳島県","city":"吉野川市","address":"美郷土井ノ奥"},
{"zip_code":"7793504","kana_pref":"ﾄｸｼﾏｹﾝ","kana_city":"ﾖｼﾉｶﾞﾜｼ","kana_address":"ﾐｻﾄﾄｳｹﾞ","pref":"徳島県","city":"吉野川市","address":"美郷峠"},
{"zip_code":"7793505","kana_pref":"ﾄｸｼﾏｹﾝ","kana_city":"ﾖｼﾉｶﾞﾜｼ","kana_address":"ﾐｻﾄﾄﾁﾀﾞﾆ","pref":"徳島県","city":"吉野川市","address":"美郷栩谷"},
{"zip_code":"7793505","kana_pref":"ﾄｸｼﾏｹﾝ","kana_city":"ﾖｼﾉｶﾞﾜｼ","kana_address":"ﾐｻﾄﾄﾉｶﾜ","pref":"徳島県","city":"吉野川市","address":"美郷殿河"},
{"zip_code":"7793505","kana_pref":"ﾄｸｼﾏｹﾝ","kana_city":"ﾖｼﾉｶﾞﾜｼ","kana_address":"ﾐｻﾄﾄﾞﾖｳｼﾞ","pref":"徳島県","city":"吉野川市","address":"美郷土用地"},
{"zip_code":"7793503","kana_pref":"ﾄｸｼﾏｹﾝ","kana_city":"ﾖｼﾉｶﾞﾜｼ","kana_address":"ﾐｻﾄﾅｶｽｼﾞ","pref":"徳島県","city":"吉野川市","address":"美郷中筋"},
{"zip_code":"7793505","kana_pref":"ﾄｸｼﾏｹﾝ","kana_city":"ﾖｼﾉｶﾞﾜｼ","kana_address":"ﾐｻﾄﾅｶﾉﾀﾆ","pref":"徳島県","city":"吉野川市","address":"美郷中谷"},
{"zip_code":"7793502","kana_pref":"ﾄｸｼﾏｹﾝ","kana_city":"ﾖｼﾉｶﾞﾜｼ","kana_address":"ﾐｻﾄﾅｶﾊﾀ","pref":"徳島県","city":"吉野川市","address":"美郷中畠"},
{"zip_code":"7793502","kana_pref":"ﾄｸｼﾏｹﾝ","kana_city":"ﾖｼﾉｶﾞﾜｼ","kana_address":"ﾐｻﾄﾅｶﾌﾞﾝ","pref":"徳島県","city":"吉野川市","address":"美郷中分"},
{"zip_code":"7793502","kana_pref":"ﾄｸｼﾏｹﾝ","kana_city":"ﾖｼﾉｶﾞﾜｼ","kana_address":"ﾐｻﾄﾅｶﾑﾗﾅｶｽｼﾞ","pref":"徳島県","city":"吉野川市","address":"美郷中村中筋"},
{"zip_code":"7793502","kana_pref":"ﾄｸｼﾏｹﾝ","kana_city":"ﾖｼﾉｶﾞﾜｼ","kana_address":"ﾐｻﾄﾆｼｼﾞｮｳ","pref":"徳島県","city":"吉野川市","address":"美郷西條"},
{"zip_code":"7793502","kana_pref":"ﾄｸｼﾏｹﾝ","kana_city":"ﾖｼﾉｶﾞﾜｼ","kana_address":"ﾐｻﾄﾆｼﾀﾆ","pref":"徳島県","city":"吉野川市","address":"美郷西谷"},
{"zip_code":"7793502","kana_pref":"ﾄｸｼﾏｹﾝ","kana_city":"ﾖｼﾉｶﾞﾜｼ","kana_address":"ﾐｻﾄﾆｼﾊﾀ","pref":"徳島県","city":"吉野川市","address":"美郷西畠"},
{"zip_code":"7793502","kana_pref":"ﾄｸｼﾏｹﾝ","kana_city":"ﾖｼﾉｶﾞﾜｼ","kana_address":"ﾐｻﾄﾆｼﾏｷﾔﾏ","pref":"徳島県","city":"吉野川市","address":"美郷西槇山"},
{"zip_code":"7793504","kana_pref":"ﾄｸｼﾏｹﾝ","kana_city":"ﾖｼﾉｶﾞﾜｼ","kana_address":"ﾐｻﾄﾊｹｲｼ","pref":"徳島県","city":"吉野川市","address":"美郷刷石"},
{"zip_code":"7793505","kana_pref":"ﾄｸｼﾏｹﾝ","kana_city":"ﾖｼﾉｶﾞﾜｼ","kana_address":"ﾐｻﾄﾊﾅｼﾞ","pref":"徳島県","city":"吉野川市","address":"美郷花地"},
{"zip_code":"7793501","kana_pref":"ﾄｸｼﾏｹﾝ","kana_city":"ﾖｼﾉｶﾞﾜｼ","kana_address":"ﾐｻﾄﾊﾘ","pref":"徳島県","city":"吉野川市","address":"美郷張"},
{"zip_code":"7793501","kana_pref":"ﾄｸｼﾏｹﾝ","kana_city":"ﾖｼﾉｶﾞﾜｼ","kana_address":"ﾐｻﾄﾊﾘﾐﾈ","pref":"徳島県","city":"吉野川市","address":"美郷張峯"},
{"zip_code":"7793502","kana_pref":"ﾄｸｼﾏｹﾝ","kana_city":"ﾖｼﾉｶﾞﾜｼ","kana_address":"ﾐｻﾄﾋｳﾗ","pref":"徳島県","city":"吉野川市","address":"美郷日浦"},
{"zip_code":"7793502","kana_pref":"ﾄｸｼﾏｹﾝ","kana_city":"ﾖｼﾉｶﾞﾜｼ","kana_address":"ﾐｻﾄﾋｶﾞｼ","pref":"徳島県","city":"吉野川市","address":"美郷東"},
{"zip_code":"7793502","kana_pref":"ﾄｸｼﾏｹﾝ","kana_city":"ﾖｼﾉｶﾞﾜｼ","kana_address":"ﾐｻﾄﾋｶﾞｼｼﾞｮｳ","pref":"徳島県","city":"吉野川市","address":"美郷東條"},
{"zip_code":"7793502","kana_pref":"ﾄｸｼﾏｹﾝ","kana_city":"ﾖｼﾉｶﾞﾜｼ","kana_address":"ﾐｻﾄﾋｶﾞｼﾏｷﾔﾏ","pref":"徳島県","city":"吉野川市","address":"美郷東槇山"},
{"zip_code":"7793505","kana_pref":"ﾄｸｼﾏｹﾝ","kana_city":"ﾖｼﾉｶﾞﾜｼ","kana_address":"ﾐｻﾄﾋｶﾞｼﾔﾏﾄｳｹﾞ","pref":"徳島県","city":"吉野川市","address":"美郷東山峠"},
{"zip_code":"7793502","kana_pref":"ﾄｸｼﾏｹﾝ","kana_city":"ﾖｼﾉｶﾞﾜｼ","kana_address":"ﾐｻﾄﾏｷﾔﾏ","pref":"徳島県","city":"吉野川市","address":"美郷槇山"},
{"zip_code":"7793502","kana_pref":"ﾄｸｼﾏｹﾝ","kana_city":"ﾖｼﾉｶﾞﾜｼ","kana_address":"ﾐｻﾄﾏﾂｵ","pref":"徳島県","city":"吉野川市","address":"美郷松尾"},
{"zip_code":"7793505","kana_pref":"ﾄｸｼﾏｹﾝ","kana_city":"ﾖｼﾉｶﾞﾜｼ","kana_address":"ﾐｻﾄﾏﾙﾔﾏ","pref":"徳島県","city":"吉野川市","address":"美郷丸山"},
{"zip_code":"7793501","kana_pref":"ﾄｸｼﾏｹﾝ","kana_city":"ﾖｼﾉｶﾞﾜｼ","kana_address":"ﾐｻﾄﾐﾔｸﾞﾗ","pref":"徳島県","city":"吉野川市","address":"美郷宮倉"},
{"zip_code":"7793501","kana_pref":"ﾄｸｼﾏｹﾝ","kana_city":"ﾖｼﾉｶﾞﾜｼ","kana_address":"ﾐｻﾄﾑﾈﾀﾞ","pref":"徳島県","city":"吉野川市","address":"美郷宗田"},
{"zip_code":"7793502","kana_pref":"ﾄｸｼﾏｹﾝ","kana_city":"ﾖｼﾉｶﾞﾜｼ","kana_address":"ﾐｻﾄﾔﾉﾏﾙ","pref":"徳島県","city":"吉野川市","address":"美郷矢ノ丸"},
{"zip_code":"7793505","kana_pref":"ﾄｸｼﾏｹﾝ","kana_city":"ﾖｼﾉｶﾞﾜｼ","kana_address":"ﾐｻﾄﾕｹﾞ","pref":"徳島県","city":"吉野川市","address":"美郷湯下"},
{"zip_code":"7793503","kana_pref":"ﾄｸｼﾏｹﾝ","kana_city":"ﾖｼﾉｶﾞﾜｼ","kana_address":"ﾐｻﾄﾕﾄﾞﾉ","pref":"徳島県","city":"吉野川市","address":"美郷湯殿"},
{"zip_code":"7793407","kana_pref":"ﾄｸｼﾏｹﾝ","kana_city":"ﾖｼﾉｶﾞﾜｼ","kana_address":"ﾔﾏｶﾜﾁｮｳｱｵｷﾞ","pref":"徳島県","city":"吉野川市","address":"山川町青木"},
{"zip_code":"7793407","kana_pref":"ﾄｸｼﾏｹﾝ","kana_city":"ﾖｼﾉｶﾞﾜｼ","kana_address":"ﾔﾏｶﾜﾁｮｳｱｶｲﾜ","pref":"徳島県","city":"吉野川市","address":"山川町赤岩"},
{"zip_code":"7793405","kana_pref":"ﾄｸｼﾏｹﾝ","kana_city":"ﾖｼﾉｶﾞﾜｼ","kana_address":"ﾔﾏｶﾜﾁｮｳｱｶﾊﾈ","pref":"徳島県","city":"吉野川市","address":"山川町赤刎"},
{"zip_code":"7793407","kana_pref":"ﾄｸｼﾏｹﾝ","kana_city":"ﾖｼﾉｶﾞﾜｼ","kana_address":"ﾔﾏｶﾜﾁｮｳｱｻﾋ","pref":"徳島県","city":"吉野川市","address":"山川町朝日"},
{"zip_code":"7793407","kana_pref":"ﾄｸｼﾏｹﾝ","kana_city":"ﾖｼﾉｶﾞﾜｼ","kana_address":"ﾔﾏｶﾜﾁｮｳｱﾝﾗｸｼﾞ","pref":"徳島県","city":"吉野川市","address":"山川町安楽寺"},
{"zip_code":"7793401","kana_pref":"ﾄｸｼﾏｹﾝ","kana_city":"ﾖｼﾉｶﾞﾜｼ","kana_address":"ﾔﾏｶﾜﾁｮｳｲｼﾄﾞｳ","pref":"徳島県","city":"吉野川市","address":"山川町石堂"},
{"zip_code":"7793405","kana_pref":"ﾄｸｼﾏｹﾝ","kana_city":"ﾖｼﾉｶﾞﾜｼ","kana_address":"ﾔﾏｶﾜﾁｮｳｲｽﾞﾎ","pref":"徳島県","city":"吉野川市","address":"山川町伊端穂"},
{"zip_code":"7793404","kana_pref":"ﾄｸｼﾏｹﾝ","kana_city":"ﾖｼﾉｶﾞﾜｼ","kana_address":"ﾔﾏｶﾜﾁｮｳｲﾁｸﾎﾞ","pref":"徳島県","city":"吉野川市","address":"山川町市久保"},
{"zip_code":"7793404","kana_pref":"ﾄｸｼﾏｹﾝ","kana_city":"ﾖｼﾉｶﾞﾜｼ","kana_address":"ﾔﾏｶﾜﾁｮｳｲﾁﾘﾂﾞｶ","pref":"徳島県","city":"吉野川市","address":"山川町一里塚"},
{"zip_code":"7793405","kana_pref":"ﾄｸｼﾏｹﾝ","kana_city":"ﾖｼﾉｶﾞﾜｼ","kana_address":"ﾔﾏｶﾜﾁｮｳｲﾉｳｴ","pref":"徳島県","city":"吉野川市","address":"山川町井上"},
{"zip_code":"7793405","kana_pref":"ﾄｸｼﾏｹﾝ","kana_city":"ﾖｼﾉｶﾞﾜｼ","kana_address":"ﾔﾏｶﾜﾁｮｳｲﾉｿﾊﾞ","pref":"徳島県","city":"吉野川市","address":"山川町井傍"},
{"zip_code":"7793402","kana_pref":"ﾄｸｼﾏｹﾝ","kana_city":"ﾖｼﾉｶﾞﾜｼ","kana_address":"ﾔﾏｶﾜﾁｮｳｲﾑﾍﾞ","pref":"徳島県","city":"吉野川市","address":"山川町忌部"},
{"zip_code":"7793402","kana_pref":"ﾄｸｼﾏｹﾝ","kana_city":"ﾖｼﾉｶﾞﾜｼ","kana_address":"ﾔﾏｶﾜﾁｮｳｲﾑﾍﾞﾔﾏ","pref":"徳島県","city":"吉野川市","address":"山川町忌部山"},
{"zip_code":"7793402","kana_pref":"ﾄｸｼﾏｹﾝ","kana_city":"ﾖｼﾉｶﾞﾜｼ","kana_address":"ﾔﾏｶﾜﾁｮｳｲﾜﾄ","pref":"徳島県","city":"吉野川市","address":"山川町岩戸"},
{"zip_code":"7793405","kana_pref":"ﾄｸｼﾏｹﾝ","kana_city":"ﾖｼﾉｶﾞﾜｼ","kana_address":"ﾔﾏｶﾜﾁｮｳｳｼﾉｺｵ","pref":"徳島県","city":"吉野川市","address":"山川町牛ノ子尾"},
{"zip_code":"7793407","kana_pref":"ﾄｸｼﾏｹﾝ","kana_city":"ﾖｼﾉｶﾞﾜｼ","kana_address":"ﾔﾏｶﾜﾁｮｳｳﾗﾔﾏ","pref":"徳島県","city":"吉野川市","address":"山川町浦山"},
{"zip_code":"7793401","kana_pref":"ﾄｸｼﾏｹﾝ","kana_city":"ﾖｼﾉｶﾞﾜｼ","kana_address":"ﾔﾏｶﾜﾁｮｳｴｹﾞ","pref":"徳島県","city":"吉野川市","address":"山川町恵下"},
{"zip_code":"7793406","kana_pref":"ﾄｸｼﾏｹﾝ","kana_city":"ﾖｼﾉｶﾞﾜｼ","kana_address":"ﾔﾏｶﾜﾁｮｳｴﾉｷﾀﾞﾆ","pref":"徳島県","city":"吉野川市","address":"山川町榎谷"},
{"zip_code":"7793406","kana_pref":"ﾄｸｼﾏｹﾝ","kana_city":"ﾖｼﾉｶﾞﾜｼ","kana_address":"ﾔﾏｶﾜﾁｮｳｵｵｳﾁ","pref":"徳島県","city":"吉野川市","address":"山川町大内"},
{"zip_code":"7793404","kana_pref":"ﾄｸｼﾏｹﾝ","kana_city":"ﾖｼﾉｶﾞﾜｼ","kana_address":"ﾔﾏｶﾜﾁｮｳｵｵｽｶ","pref":"徳島県","city":"吉野川市","address":"山川町大須賀"},
{"zip_code":"7793404","kana_pref":"ﾄｸｼﾏｹﾝ","kana_city":"ﾖｼﾉｶﾞﾜｼ","kana_address":"ﾔﾏｶﾜﾁｮｳｵｵﾂｶ","pref":"徳島県","city":"吉野川市","address":"山川町大塚"},
{"zip_code":"7793405","kana_pref":"ﾄｸｼﾏｹﾝ","kana_city":"ﾖｼﾉｶﾞﾜｼ","kana_address":"ﾔﾏｶﾜﾁｮｳｵｵﾄﾀﾞﾆ","pref":"徳島県","city":"吉野川市","address":"山川町大藤谷"},
{"zip_code":"7793405","kana_pref":"ﾄｸｼﾏｹﾝ","kana_city":"ﾖｼﾉｶﾞﾜｼ","kana_address":"ﾔﾏｶﾜﾁｮｳｵｵﾐﾈ","pref":"徳島県","city":"吉野川市","address":"山川町大峰"},
{"zip_code":"7793405","kana_pref":"ﾄｸｼﾏｹﾝ","kana_city":"ﾖｼﾉｶﾞﾜｼ","kana_address":"ﾔﾏｶﾜﾁｮｳｵｵﾑﾛ","pref":"徳島県","city":"吉野川市","address":"山川町大室"},
{"zip_code":"7793404","kana_pref":"ﾄｸｼﾏｹﾝ","kana_city":"ﾖｼﾉｶﾞﾜｼ","kana_address":"ﾔﾏｶﾜﾁｮｳｵｶｹ","pref":"徳島県","city":"吉野川市","address":"山川町麻掛"},
{"zip_code":"7793401","kana_pref":"ﾄｸｼﾏｹﾝ","kana_city":"ﾖｼﾉｶﾞﾜｼ","kana_address":"ﾔﾏｶﾜﾁｮｳｵｷﾀﾞｲ","pref":"徳島県","city":"吉野川市","address":"山川町翁喜台"},
{"zip_code":"7793406","kana_pref":"ﾄｸｼﾏｹﾝ","kana_city":"ﾖｼﾉｶﾞﾜｼ","kana_address":"ﾔﾏｶﾜﾁｮｳｵｸｶﾜﾀ","pref":"徳島県","city":"吉野川市","address":"山川町奥川田"},
{"zip_code":"7793406","kana_pref":"ﾄｸｼﾏｹﾝ","kana_city":"ﾖｼﾉｶﾞﾜｼ","kana_address":"ﾔﾏｶﾜﾁｮｳｵｸﾉｲ","pref":"徳島県","city":"吉野川市","address":"山川町奥野井"},
{"zip_code":"7793405","kana_pref":"ﾄｸｼﾏｹﾝ","kana_city":"ﾖｼﾉｶﾞﾜｼ","kana_address":"ﾔﾏｶﾜﾁｮｳｵｸﾊﾞﾗ","pref":"徳島県","city":"吉野川市","address":"山川町奥原"},
{"zip_code":"7793406","kana_pref":"ﾄｸｼﾏｹﾝ","kana_city":"ﾖｼﾉｶﾞﾜｼ","kana_address":"ﾔﾏｶﾜﾁｮｳｶｲｾﾞ","pref":"徳島県","city":"吉野川市","address":"山川町皆瀬"},
{"zip_code":"7793404","kana_pref":"ﾄｸｼﾏｹﾝ","kana_city":"ﾖｼﾉｶﾞﾜｼ","kana_address":"ﾔﾏｶﾜﾁｮｳｶｴｷﾊﾞﾗ","pref":"徳島県","city":"吉野川市","address":"山川町槻原"},
{"zip_code":"7793405","kana_pref":"ﾄｸｼﾏｹﾝ","kana_city":"ﾖｼﾉｶﾞﾜｼ","kana_address":"ﾔﾏｶﾜﾁｮｳｶｷﾉｷﾀﾞﾆ","pref":"徳島県","city":"吉野川市","address":"山川町柿木谷"},
{"zip_code":"7793405","kana_pref":"ﾄｸｼﾏｹﾝ","kana_city":"ﾖｼﾉｶﾞﾜｼ","kana_address":"ﾔﾏｶﾜﾁｮｳｶｼﾉﾓﾄ","pref":"徳島県","city":"吉野川市","address":"山川町楮本"},
{"zip_code":"7793403","kana_pref":"ﾄｸｼﾏｹﾝ","kana_city":"ﾖｼﾉｶﾞﾜｼ","kana_address":"ﾔﾏｶﾜﾁｮｳｶｽｶﾞ","pref":"徳島県","city":"吉野川市","address":"山川町春日"},
{"zip_code":"7793405","kana_pref":"ﾄｸｼﾏｹﾝ","kana_city":"ﾖｼﾉｶﾞﾜｼ","kana_address":"ﾔﾏｶﾜﾁｮｳｶﾀｷﾞｼ","pref":"徳島県","city":"吉野川市","address":"山川町片岸"},
{"zip_code":"7793404","kana_pref":"ﾄｸｼﾏｹﾝ","kana_city":"ﾖｼﾉｶﾞﾜｼ","kana_address":"ﾔﾏｶﾜﾁｮｳｶﾜﾀ","pref":"徳島県","city":"吉野川市","address":"山川町川田"},
{"zip_code":"7793404","kana_pref":"ﾄｸｼﾏｹﾝ","kana_city":"ﾖｼﾉｶﾞﾜｼ","kana_address":"ﾔﾏｶﾜﾁｮｳｶﾜﾀｲﾁ","pref":"徳島県","city":"吉野川市","address":"山川町川田市"},
{"zip_code":"7793404","kana_pref":"ﾄｸｼﾏｹﾝ","kana_city":"ﾖｼﾉｶﾞﾜｼ","kana_address":"ﾔﾏｶﾜﾁｮｳｶﾜﾀﾃﾝｼﾞﾝ","pref":"徳島県","city":"吉野川市","address":"山川町川田天神"},
{"zip_code":"7793405","kana_pref":"ﾄｸｼﾏｹﾝ","kana_city":"ﾖｼﾉｶﾞﾜｼ","kana_address":"ﾔﾏｶﾜﾁｮｳｶﾜﾀﾊﾁﾏﾝ","pref":"徳島県","city":"吉野川市","address":"山川町川田八幡"},
{"zip_code":"7793401","kana_pref":"ﾄｸｼﾏｹﾝ","kana_city":"ﾖｼﾉｶﾞﾜｼ","kana_address":"ﾔﾏｶﾜﾁｮｳｶﾜﾋｶﾞｼ","pref":"徳島県","city":"吉野川市","address":"山川町川東"},
{"zip_code":"7793407","kana_pref":"ﾄｸｼﾏｹﾝ","kana_city":"ﾖｼﾉｶﾞﾜｼ","kana_address":"ﾔﾏｶﾜﾁｮｳｷﾞｵﾝ","pref":"徳島県","city":"吉野川市","address":"山川町祗園"},
{"zip_code":"7793404","kana_pref":"ﾄｸｼﾏｹﾝ","kana_city":"ﾖｼﾉｶﾞﾜｼ","kana_address":"ﾔﾏｶﾜﾁｮｳｷﾀｼﾞﾏ","pref":"徳島県","city":"吉野川市","address":"山川町北島"},
{"zip_code":"7793403","kana_pref":"ﾄｸｼﾏｹﾝ","kana_city":"ﾖｼﾉｶﾞﾜｼ","kana_address":"ﾔﾏｶﾜﾁｮｳｷﾀｽｶﾞ","pref":"徳島県","city":"吉野川市","address":"山川町北須賀"},
{"zip_code":"7793405","kana_pref":"ﾄｸｼﾏｹﾝ","kana_city":"ﾖｼﾉｶﾞﾜｼ","kana_address":"ﾔﾏｶﾜﾁｮｳｷﾄﾞｸﾞﾁ","pref":"徳島県","city":"吉野川市","address":"山川町木戸口"},
{"zip_code":"7793406","kana_pref":"ﾄｸｼﾏｹﾝ","kana_city":"ﾖｼﾉｶﾞﾜｼ","kana_address":"ﾔﾏｶﾜﾁｮｳｸｽﾈｼﾞ","pref":"徳島県","city":"吉野川市","address":"山川町楠根地"},
{"zip_code":"7793402","kana_pref":"ﾄｸｼﾏｹﾝ","kana_city":"ﾖｼﾉｶﾞﾜｼ","kana_address":"ﾔﾏｶﾜﾁｮｳｸﾓﾐﾔ","pref":"徳島県","city":"吉野川市","address":"山川町雲宮"},
{"zip_code":"7793405","kana_pref":"ﾄｸｼﾏｹﾝ","kana_city":"ﾖｼﾉｶﾞﾜｼ","kana_address":"ﾔﾏｶﾜﾁｮｳｸﾛｲﾜ","pref":"徳島県","city":"吉野川市","address":"山川町黒岩"},
{"zip_code":"7793406","kana_pref":"ﾄｸｼﾏｹﾝ","kana_city":"ﾖｼﾉｶﾞﾜｼ","kana_address":"ﾔﾏｶﾜﾁｮｳｸﾜｳﾁ","pref":"徳島県","city":"吉野川市","address":"山川町桑内"},
{"zip_code":"7793405","kana_pref":"ﾄｸｼﾏｹﾝ","kana_city":"ﾖｼﾉｶﾞﾜｼ","kana_address":"ﾔﾏｶﾜﾁｮｳｸﾜﾉﾐﾈ","pref":"徳島県","city":"吉野川市","address":"山川町桑ノ峰"},
{"zip_code":"7793405","kana_pref":"ﾄｸｼﾏｹﾝ","kana_city":"ﾖｼﾉｶﾞﾜｼ","kana_address":"ﾔﾏｶﾜﾁｮｳｺｳｽﾞ","pref":"徳島県","city":"吉野川市","address":"山川町高頭"},
{"zip_code":"7793405","kana_pref":"ﾄｸｼﾏｹﾝ","kana_city":"ﾖｼﾉｶﾞﾜｼ","kana_address":"ﾔﾏｶﾜﾁｮｳｺﾞｾﾝﾒﾝ","pref":"徳島県","city":"吉野川市","address":"山川町御饌免"},
{"zip_code":"7793405","kana_pref":"ﾄｸｼﾏｹﾝ","kana_city":"ﾖｼﾉｶﾞﾜｼ","kana_address":"ﾔﾏｶﾜﾁｮｳｺﾞﾘｮｶﾝ","pref":"徳島県","city":"吉野川市","address":"山川町御旅館"},
{"zip_code":"7793405","kana_pref":"ﾄｸｼﾏｹﾝ","kana_city":"ﾖｼﾉｶﾞﾜｼ","kana_address":"ﾔﾏｶﾜﾁｮｳｺﾞﾝｹﾞﾝﾀﾞﾆ","pref":"徳島県","city":"吉野川市","address":"山川町権現谷"},
{"zip_code":"7793407","kana_pref":"ﾄｸｼﾏｹﾝ","kana_city":"ﾖｼﾉｶﾞﾜｼ","kana_address":"ﾔﾏｶﾜﾁｮｳｻｶｲﾀﾞﾆ","pref":"徳島県","city":"吉野川市","address":"山川町境谷"},
{"zip_code":"7793405","kana_pref":"ﾄｸｼﾏｹﾝ","kana_city":"ﾖｼﾉｶﾞﾜｼ","kana_address":"ﾔﾏｶﾜﾁｮｳｻｶｸﾞﾁ","pref":"徳島県","city":"吉野川市","address":"山川町坂口"},
{"zip_code":"7793407","kana_pref":"ﾄｸｼﾏｹﾝ","kana_city":"ﾖｼﾉｶﾞﾜｼ","kana_address":"ﾔﾏｶﾜﾁｮｳｻｶﾀ","pref":"徳島県","city":"吉野川市","address":"山川町坂田"},
{"zip_code":"7793405","kana_pref":"ﾄｸｼﾏｹﾝ","kana_city":"ﾖｼﾉｶﾞﾜｼ","kana_address":"ﾔﾏｶﾜﾁｮｳｻﾀﾞﾀ","pref":"徳島県","city":"吉野川市","address":"山川町貞田"},
{"zip_code":"7793405","kana_pref":"ﾄｸｼﾏｹﾝ","kana_city":"ﾖｼﾉｶﾞﾜｼ","kana_address":"ﾔﾏｶﾜﾁｮｳｼｮｳｼﾞ","pref":"徳島県","city":"吉野川市","address":"山川町小路"},
{"zip_code":"7793407","kana_pref":"ﾄｸｼﾏｹﾝ","kana_city":"ﾖｼﾉｶﾞﾜｼ","kana_address":"ﾔﾏｶﾜﾁｮｳｼﾝﾀﾀﾞﾆ","pref":"徳島県","city":"吉野川市","address":"山川町新田谷"},
{"zip_code":"7793407","kana_pref":"ﾄｸｼﾏｹﾝ","kana_city":"ﾖｼﾉｶﾞﾜｼ","kana_address":"ﾔﾏｶﾜﾁｮｳｽｴｸﾆ","pref":"徳島県","city":"吉野川市","address":"山川町季邦"},
{"zip_code":"7793401","kana_pref":"ﾄｸｼﾏｹﾝ","kana_city":"ﾖｼﾉｶﾞﾜｼ","kana_address":"ﾔﾏｶﾜﾁｮｳｽﾐﾖｼ","pref":"徳島県","city":"吉野川市","address":"山川町住吉"},
{"zip_code":"7793403","kana_pref":"ﾄｸｼﾏｹﾝ","kana_city":"ﾖｼﾉｶﾞﾜｼ","kana_address":"ﾔﾏｶﾜﾁｮｳｽﾜ","pref":"徳島県","city":"吉野川市","address":"山川町諏訪"},
{"zip_code":"7793405","kana_pref":"ﾄｸｼﾏｹﾝ","kana_city":"ﾖｼﾉｶﾞﾜｼ","kana_address":"ﾔﾏｶﾜﾁｮｳｾﾂﾞ","pref":"徳島県","city":"吉野川市","address":"山川町瀬津"},
{"zip_code":"7793401","kana_pref":"ﾄｸｼﾏｹﾝ","kana_city":"ﾖｼﾉｶﾞﾜｼ","kana_address":"ﾔﾏｶﾜﾁｮｳﾀﾃｲｼ","pref":"徳島県","city":"吉野川市","address":"山川町建石"},
{"zip_code":"7793405","kana_pref":"ﾄｸｼﾏｹﾝ","kana_city":"ﾖｼﾉｶﾞﾜｼ","kana_address":"ﾔﾏｶﾜﾁｮｳﾀﾉｳﾗ","pref":"徳島県","city":"吉野川市","address":"山川町田ノ浦"},
{"zip_code":"7793405","kana_pref":"ﾄｸｼﾏｹﾝ","kana_city":"ﾖｼﾉｶﾞﾜｼ","kana_address":"ﾔﾏｶﾜﾁｮｳﾂｶｱﾅ","pref":"徳島県","city":"吉野川市","address":"山川町塚穴"},
{"zip_code":"7793405","kana_pref":"ﾄｸｼﾏｹﾝ","kana_city":"ﾖｼﾉｶﾞﾜｼ","kana_address":"ﾔﾏｶﾜﾁｮｳﾂﾁﾎﾞﾄｹﾆｼﾑｶｲ","pref":"徳島県","city":"吉野川市","address":"山川町土仏西向"},
{"zip_code":"7793404","kana_pref":"ﾄｸｼﾏｹﾝ","kana_city":"ﾖｼﾉｶﾞﾜｼ","kana_address":"ﾔﾏｶﾜﾁｮｳﾂﾂﾐﾔﾏ","pref":"徳島県","city":"吉野川市","address":"山川町鼓山"},
{"zip_code":"7793407","kana_pref":"ﾄｸｼﾏｹﾝ","kana_city":"ﾖｼﾉｶﾞﾜｼ","kana_address":"ﾔﾏｶﾜﾁｮｳﾂﾕﾀﾞﾆ","pref":"徳島県","city":"吉野川市","address":"山川町津由谷"},
{"zip_code":"7793403","kana_pref":"ﾄｸｼﾏｹﾝ","kana_city":"ﾖｼﾉｶﾞﾜｼ","kana_address":"ﾔﾏｶﾜﾁｮｳﾃｲｶﾞｲ","pref":"徳島県","city":"吉野川市","address":"山川町堤外"},
{"zip_code":"7793402","kana_pref":"ﾄｸｼﾏｹﾝ","kana_city":"ﾖｼﾉｶﾞﾜｼ","kana_address":"ﾔﾏｶﾜﾁｮｳﾃｲﾅｲ","pref":"徳島県","city":"吉野川市","address":"山川町堤内"},
{"zip_code":"7793402","kana_pref":"ﾄｸｼﾏｹﾝ","kana_city":"ﾖｼﾉｶﾞﾜｼ","kana_address":"ﾔﾏｶﾜﾁｮｳﾃﾝｼﾞﾝ","pref":"徳島県","city":"吉野川市","address":"山川町天神"},
{"zip_code":"7793405","kana_pref":"ﾄｸｼﾏｹﾝ","kana_city":"ﾖｼﾉｶﾞﾜｼ","kana_address":"ﾔﾏｶﾜﾁｮｳﾃﾝｼﾞﾝｻｺ","pref":"徳島県","city":"吉野川市","address":"山川町天神佐古"},
{"zip_code":"7793405","kana_pref":"ﾄｸｼﾏｹﾝ","kana_city":"ﾖｼﾉｶﾞﾜｼ","kana_address":"ﾔﾏｶﾜﾁｮｳﾃﾝﾉｳﾊﾞﾗ","pref":"徳島県","city":"吉野川市","address":"山川町天王原"},
{"zip_code":"7793405","kana_pref":"ﾄｸｼﾏｹﾝ","kana_city":"ﾖｼﾉｶﾞﾜｼ","kana_address":"ﾔﾏｶﾜﾁｮｳﾄﾞﾊﾞｼ","pref":"徳島県","city":"吉野川市","address":"山川町土橋"},
{"zip_code":"7793405","kana_pref":"ﾄｸｼﾏｹﾝ","kana_city":"ﾖｼﾉｶﾞﾜｼ","kana_address":"ﾔﾏｶﾜﾁｮｳﾄﾞﾊﾞｼﾉｳｴ","pref":"徳島県","city":"吉野川市","address":"山川町土橋ノ上"},
{"zip_code":"7793402","kana_pref":"ﾄｸｼﾏｹﾝ","kana_city":"ﾖｼﾉｶﾞﾜｼ","kana_address":"ﾔﾏｶﾜﾁｮｳﾅｶｽｶ","pref":"徳島県","city":"吉野川市","address":"山川町中須賀"},
{"zip_code":"7793405","kana_pref":"ﾄｸｼﾏｹﾝ","kana_city":"ﾖｼﾉｶﾞﾜｼ","kana_address":"ﾔﾏｶﾜﾁｮｳﾅｶﾉｺﾞｳ","pref":"徳島県","city":"吉野川市","address":"山川町中ノ郷"},
{"zip_code":"7793402","kana_pref":"ﾄｸｼﾏｹﾝ","kana_city":"ﾖｼﾉｶﾞﾜｼ","kana_address":"ﾔﾏｶﾜﾁｮｳﾅｶﾞﾚ","pref":"徳島県","city":"吉野川市","address":"山川町流"},
{"zip_code":"7793405","kana_pref":"ﾄｸｼﾏｹﾝ","kana_city":"ﾖｼﾉｶﾞﾜｼ","kana_address":"ﾔﾏｶﾜﾁｮｳﾅﾍﾞｸﾗ","pref":"徳島県","city":"吉野川市","address":"山川町鍋倉"},
{"zip_code":"7793402","kana_pref":"ﾄｸｼﾏｹﾝ","kana_city":"ﾖｼﾉｶﾞﾜｼ","kana_address":"ﾔﾏｶﾜﾁｮｳﾆｼｸﾎﾞ","pref":"徳島県","city":"吉野川市","address":"山川町西久保"},
{"zip_code":"7793407","kana_pref":"ﾄｸｼﾏｹﾝ","kana_city":"ﾖｼﾉｶﾞﾜｼ","kana_address":"ﾔﾏｶﾜﾁｮｳﾆｼﾉﾊﾗ","pref":"徳島県","city":"吉野川市","address":"山川町西ノ原"},
{"zip_code":"7793406","kana_pref":"ﾄｸｼﾏｹﾝ","kana_city":"ﾖｼﾉｶﾞﾜｼ","kana_address":"ﾔﾏｶﾜﾁｮｳﾆｼﾉﾐﾈ","pref":"徳島県","city":"吉野川市","address":"山川町西野峰"},
{"zip_code":"7793402","kana_pref":"ﾄｸｼﾏｹﾝ","kana_city":"ﾖｼﾉｶﾞﾜｼ","kana_address":"ﾔﾏｶﾜﾁｮｳﾆｼﾌﾓﾄ","pref":"徳島県","city":"吉野川市","address":"山川町西麓"},
{"zip_code":"7793405","kana_pref":"ﾄｸｼﾏｹﾝ","kana_city":"ﾖｼﾉｶﾞﾜｼ","kana_address":"ﾔﾏｶﾜﾁｮｳﾉﾐﾔﾀﾞﾆ","pref":"徳島県","city":"吉野川市","address":"山川町野宮谷"},
{"zip_code":"7793407","kana_pref":"ﾄｸｼﾏｹﾝ","kana_city":"ﾖｼﾉｶﾞﾜｼ","kana_address":"ﾔﾏｶﾜﾁｮｳﾊﾀﾐ","pref":"徳島県","city":"吉野川市","address":"山川町旗見"},
{"zip_code":"7793405","kana_pref":"ﾄｸｼﾏｹﾝ","kana_city":"ﾖｼﾉｶﾞﾜｼ","kana_address":"ﾔﾏｶﾜﾁｮｳﾊﾁｶﾞｸﾎﾞ","pref":"徳島県","city":"吉野川市","address":"山川町八ケ久保"},
{"zip_code":"7793403","kana_pref":"ﾄｸｼﾏｹﾝ","kana_city":"ﾖｼﾉｶﾞﾜｼ","kana_address":"ﾔﾏｶﾜﾁｮｳﾊﾁﾏﾝ","pref":"徳島県","city":"吉野川市","address":"山川町八幡"},
{"zip_code":"7793405","kana_pref":"ﾄｸｼﾏｹﾝ","kana_city":"ﾖｼﾉｶﾞﾜｼ","kana_address":"ﾔﾏｶﾜﾁｮｳﾊﾘﾉｷﾊﾞﾗ","pref":"徳島県","city":"吉野川市","address":"山川町榛木原"},
{"zip_code":"7793402","kana_pref":"ﾄｸｼﾏｹﾝ","kana_city":"ﾖｼﾉｶﾞﾜｼ","kana_address":"ﾔﾏｶﾜﾁｮｳﾋｶﾞｼﾌﾓﾄ","pref":"徳島県","city":"吉野川市","address":"山川町東麓"},
{"zip_code":"7793407","kana_pref":"ﾄｸｼﾏｹﾝ","kana_city":"ﾖｼﾉｶﾞﾜｼ","kana_address":"ﾔﾏｶﾜﾁｮｳﾋｶﾞｼﾑｷﾞﾊﾗ","pref":"徳島県","city":"吉野川市","address":"山川町東麦原"},
{"zip_code":"7793404","kana_pref":"ﾄｸｼﾏｹﾝ","kana_city":"ﾖｼﾉｶﾞﾜｼ","kana_address":"ﾔﾏｶﾜﾁｮｳﾋｷﾁ","pref":"徳島県","city":"吉野川市","address":"山川町引地"},
{"zip_code":"7793406","kana_pref":"ﾄｸｼﾏｹﾝ","kana_city":"ﾖｼﾉｶﾞﾜｼ","kana_address":"ﾔﾏｶﾜﾁｮｳﾋｻﾑﾈ","pref":"徳島県","city":"吉野川市","address":"山川町久宗"},
{"zip_code":"7793404","kana_pref":"ﾄｸｼﾏｹﾝ","kana_city":"ﾖｼﾉｶﾞﾜｼ","kana_address":"ﾔﾏｶﾜﾁｮｳﾋﾁﾞﾘｺ","pref":"徳島県","city":"吉野川市","address":"山川町日知利子"},
{"zip_code":"7793405","kana_pref":"ﾄｸｼﾏｹﾝ","kana_city":"ﾖｼﾉｶﾞﾜｼ","kana_address":"ﾔﾏｶﾜﾁｮｳﾋﾄﾂｲｼ","pref":"徳島県","city":"吉野川市","address":"山川町一ツ石"},
{"zip_code":"7793405","kana_pref":"ﾄｸｼﾏｹﾝ","kana_city":"ﾖｼﾉｶﾞﾜｼ","kana_address":"ﾔﾏｶﾜﾁｮｳﾋﾗﾔﾏ","pref":"徳島県","city":"吉野川市","address":"山川町平山"},
{"zip_code":"7793405","kana_pref":"ﾄｸｼﾏｹﾝ","kana_city":"ﾖｼﾉｶﾞﾜｼ","kana_address":"ﾔﾏｶﾜﾁｮｳﾋﾜｼﾀﾞﾆ","pref":"徳島県","city":"吉野川市","address":"山川町日鷲谷"},
{"zip_code":"7793404","kana_pref":"ﾄｸｼﾏｹﾝ","kana_city":"ﾖｼﾉｶﾞﾜｼ","kana_address":"ﾔﾏｶﾜﾁｮｳﾌｼﾞｼｮｳ","pref":"徳島県","city":"吉野川市","address":"山川町藤生"},
{"zip_code":"7793404","kana_pref":"ﾄｸｼﾏｹﾝ","kana_city":"ﾖｼﾉｶﾞﾜｼ","kana_address":"ﾔﾏｶﾜﾁｮｳﾌﾅﾄ","pref":"徳島県","city":"吉野川市","address":"山川町舟戸"},
{"zip_code":"7793407","kana_pref":"ﾄｸｼﾏｹﾝ","kana_city":"ﾖｼﾉｶﾞﾜｼ","kana_address":"ﾔﾏｶﾜﾁｮｳﾌﾙｼﾛ","pref":"徳島県","city":"吉野川市","address":"山川町古城"},
{"zip_code":"7793403","kana_pref":"ﾄｸｼﾏｹﾝ","kana_city":"ﾖｼﾉｶﾞﾜｼ","kana_address":"ﾔﾏｶﾜﾁｮｳﾏｴｶﾞﾜ","pref":"徳島県","city":"吉野川市","address":"山川町前川"},
{"zip_code":"7793401","kana_pref":"ﾄｸｼﾏｹﾝ","kana_city":"ﾖｼﾉｶﾞﾜｼ","kana_address":"ﾔﾏｶﾜﾁｮｳﾏﾁ","pref":"徳島県","city":"吉野川市","address":"山川町町"},
{"zip_code":"7793406","kana_pref":"ﾄｸｼﾏｹﾝ","kana_city":"ﾖｼﾉｶﾞﾜｼ","kana_address":"ﾔﾏｶﾜﾁｮｳﾏﾐｵ","pref":"徳島県","city":"吉野川市","address":"山川町馬見尾"},
{"zip_code":"7793407","kana_pref":"ﾄｸｼﾏｹﾝ","kana_city":"ﾖｼﾉｶﾞﾜｼ","kana_address":"ﾔﾏｶﾜﾁｮｳﾏﾙﾔﾏ","pref":"徳島県","city":"吉野川市","address":"山川町丸山"},
{"zip_code":"7793403","kana_pref":"ﾄｸｼﾏｹﾝ","kana_city":"ﾖｼﾉｶﾞﾜｼ","kana_address":"ﾔﾏｶﾜﾁｮｳﾐｼﾏ","pref":"徳島県","city":"吉野川市","address":"山川町三島"},
{"zip_code":"7793402","kana_pref":"ﾄｸｼﾏｹﾝ","kana_city":"ﾖｼﾉｶﾞﾜｼ","kana_address":"ﾔﾏｶﾜﾁｮｳﾐﾔｷﾀ","pref":"徳島県","city":"吉野川市","address":"山川町宮北"},
{"zip_code":"7793407","kana_pref":"ﾄｸｼﾏｹﾝ","kana_city":"ﾖｼﾉｶﾞﾜｼ","kana_address":"ﾔﾏｶﾜﾁｮｳﾐﾔｼﾞ","pref":"徳島県","city":"吉野川市","address":"山川町宮地"},
{"zip_code":"7793402","kana_pref":"ﾄｸｼﾏｹﾝ","kana_city":"ﾖｼﾉｶﾞﾜｼ","kana_address":"ﾔﾏｶﾜﾁｮｳﾐﾔｼﾞﾏ","pref":"徳島県","city":"吉野川市","address":"山川町宮島"},
{"zip_code":"7793405","kana_pref":"ﾄｸｼﾏｹﾝ","kana_city":"ﾖｼﾉｶﾞﾜｼ","kana_address":"ﾔﾏｶﾜﾁｮｳﾐﾔﾀﾞﾆ","pref":"徳島県","city":"吉野川市","address":"山川町宮谷"},
{"zip_code":"7793407","kana_pref":"ﾄｸｼﾏｹﾝ","kana_city":"ﾖｼﾉｶﾞﾜｼ","kana_address":"ﾔﾏｶﾜﾁｮｳﾑｶｴｻﾞｶ","pref":"徳島県","city":"吉野川市","address":"山川町迎坂"},
{"zip_code":"7793407","kana_pref":"ﾄｸｼﾏｹﾝ","kana_city":"ﾖｼﾉｶﾞﾜｼ","kana_address":"ﾔﾏｶﾜﾁｮｳﾑｷﾞﾊﾗ","pref":"徳島県","city":"吉野川市","address":"山川町麦原"},
{"zip_code":"7793407","kana_pref":"ﾄｸｼﾏｹﾝ","kana_city":"ﾖｼﾉｶﾞﾜｼ","kana_address":"ﾔﾏｶﾜﾁｮｳﾑｺｳｻﾞｶ","pref":"徳島県","city":"吉野川市","address":"山川町向坂"},
{"zip_code":"7793405","kana_pref":"ﾄｸｼﾏｹﾝ","kana_city":"ﾖｼﾉｶﾞﾜｼ","kana_address":"ﾔﾏｶﾜﾁｮｳﾑﾗｸﾓ","pref":"徳島県","city":"吉野川市","address":"山川町村雲"},
{"zip_code":"7793405","kana_pref":"ﾄｸｼﾏｹﾝ","kana_city":"ﾖｼﾉｶﾞﾜｼ","kana_address":"ﾔﾏｶﾜﾁｮｳﾓｿｳ","pref":"徳島県","city":"吉野川市","address":"山川町茂草"},
{"zip_code":"7793405","kana_pref":"ﾄｸｼﾏｹﾝ","kana_city":"ﾖｼﾉｶﾞﾜｼ","kana_address":"ﾔﾏｶﾜﾁｮｳﾔｵﾁ","pref":"徳島県","city":"吉野川市","address":"山川町矢落"},
{"zip_code":"7793402","kana_pref":"ﾄｸｼﾏｹﾝ","kana_city":"ﾖｼﾉｶﾞﾜｼ","kana_address":"ﾔﾏｶﾜﾁｮｳﾔﾏｼﾞ","pref":"徳島県","city":"吉野川市","address":"山川町山路"},
{"zip_code":"7793407","kana_pref":"ﾄｸｼﾏｹﾝ","kana_city":"ﾖｼﾉｶﾞﾜｼ","kana_address":"ﾔﾏｶﾜﾁｮｳﾔﾏﾉｶﾐ","pref":"徳島県","city":"吉野川市","address":"山川町山ノ神"},
{"zip_code":"7793405","kana_pref":"ﾄｸｼﾏｹﾝ","kana_city":"ﾖｼﾉｶﾞﾜｼ","kana_address":"ﾔﾏｶﾜﾁｮｳﾕｳﾏﾔﾏ","pref":"徳島県","city":"吉野川市","address":"山川町木綿麻山"},
{"zip_code":"7793404","kana_pref":"ﾄｸｼﾏｹﾝ","kana_city":"ﾖｼﾉｶﾞﾜｼ","kana_address":"ﾔﾏｶﾜﾁｮｳﾕﾀﾞﾃ","pref":"徳島県","city":"吉野川市","address":"山川町湯立"},
{"zip_code":"7793407","kana_pref":"ﾄｸｼﾏｹﾝ","kana_city":"ﾖｼﾉｶﾞﾜｼ","kana_address":"ﾔﾏｶﾜﾁｮｳﾖｺﾊｼﾘ","pref":"徳島県","city":"吉野川市","address":"山川町横走"},
{"zip_code":"7793403","kana_pref":"ﾄｸｼﾏｹﾝ","kana_city":"ﾖｼﾉｶﾞﾜｼ","kana_address":"ﾔﾏｶﾜﾁｮｳﾜｶﾐﾔ","pref":"徳島県","city":"吉野川市","address":"山川町若宮"},
{"zip_code":"7793600","kana_pref":"ﾄｸｼﾏｹﾝ","kana_city":"ﾐﾏｼ","kana_address":"","pref":"徳島県","city":"美馬市","address":""},
{"zip_code":"7793604","kana_pref":"ﾄｸｼﾏｹﾝ","kana_city":"ﾐﾏｼ","kana_address":"ﾜｷﾏﾁｲﾉｼﾘ","pref":"徳島県","city":"美馬市","address":"脇町猪尻"},
{"zip_code":"7793603","kana_pref":"ﾄｸｼﾏｹﾝ","kana_city":"ﾐﾏｼ","kana_address":"ﾜｷﾏﾁｲﾉｼﾘ","pref":"徳島県","city":"美馬市","address":"脇町猪尻"},
{"zip_code":"7793602","kana_pref":"ﾄｸｼﾏｹﾝ","kana_city":"ﾐﾏｼ","kana_address":"ﾜｷﾏﾁｲﾉｼﾘ","pref":"徳島県","city":"美馬市","address":"脇町猪尻"},
{"zip_code":"7793620","kana_pref":"ﾄｸｼﾏｹﾝ","kana_city":"ﾐﾏｼ","kana_address":"ﾜｷﾏﾁｲﾜｸﾗ","pref":"徳島県","city":"美馬市","address":"脇町岩倉"},
{"zip_code":"7793620","kana_pref":"ﾄｸｼﾏｹﾝ","kana_city":"ﾐﾏｼ","kana_address":"ﾜｷﾏﾁｳｴﾉﾊﾗ","pref":"徳島県","city":"美馬市","address":"脇町上ノ原"},
{"zip_code":"7793620","kana_pref":"ﾄｸｼﾏｹﾝ","kana_city":"ﾐﾏｼ","kana_address":"ﾜｷﾏﾁｳﾏｷ","pref":"徳島県","city":"美馬市","address":"脇町馬木"},
{"zip_code":"7793610","kana_pref":"ﾄｸｼﾏｹﾝ","kana_city":"ﾐﾏｼ","kana_address":"ﾜｷﾏﾁﾜｷﾏﾁ","pref":"徳島県","city":"美馬市","address":"脇町脇町"},
{"zip_code":"7793620","kana_pref":"ﾄｸｼﾏｹﾝ","kana_city":"ﾐﾏｼ","kana_address":"ﾜｷﾏﾁｶﾜﾗﾏﾁ","pref":"徳島県","city":"美馬市","address":"脇町川原町"},
{"zip_code":"7793620","kana_pref":"ﾄｸｼﾏｹﾝ","kana_city":"ﾐﾏｼ","kana_address":"ﾜｷﾏﾁｷﾉｳﾁ","pref":"徳島県","city":"美馬市","address":"脇町木ノ内"},
{"zip_code":"7793620","kana_pref":"ﾄｸｼﾏｹﾝ","kana_city":"ﾐﾏｼ","kana_address":"ﾜｷﾏﾁｼﾝﾏﾁ","pref":"徳島県","city":"美馬市","address":"脇町新町"},
{"zip_code":"7793620","kana_pref":"ﾄｸｼﾏｹﾝ","kana_city":"ﾐﾏｼ","kana_address":"ﾜｷﾏﾁｽｹﾏﾂ","pref":"徳島県","city":"美馬市","address":"脇町助松"},
{"zip_code":"7793620","kana_pref":"ﾄｸｼﾏｹﾝ","kana_city":"ﾐﾏｼ","kana_address":"ﾜｷﾏﾁﾀﾈｴ","pref":"徳島県","city":"美馬市","address":"脇町田上"},
{"zip_code":"7793620","kana_pref":"ﾄｸｼﾏｹﾝ","kana_city":"ﾐﾏｼ","kana_address":"ﾜｷﾏﾁﾉﾑﾗ","pref":"徳島県","city":"美馬市","address":"脇町野村"},
{"zip_code":"7793620","kana_pref":"ﾄｸｼﾏｹﾝ","kana_city":"ﾐﾏｼ","kana_address":"ﾜｷﾏﾁﾍﾞｯｼｮ","pref":"徳島県","city":"美馬市","address":"脇町別所"},
{"zip_code":"7793633","kana_pref":"ﾄｸｼﾏｹﾝ","kana_city":"ﾐﾏｼ","kana_address":"ﾜｷﾏﾁ","pref":"徳島県","city":"美馬市","address":"脇町"},
{"zip_code":"7793632","kana_pref":"ﾄｸｼﾏｹﾝ","kana_city":"ﾐﾏｼ","kana_address":"ﾜｷﾏﾁ","pref":"徳島県","city":"美馬市","address":"脇町"},
{"zip_code":"7793636","kana_pref":"ﾄｸｼﾏｹﾝ","kana_city":"ﾐﾏｼ","kana_address":"ﾜｷﾏﾁ","pref":"徳島県","city":"美馬市","address":"脇町"},
{"zip_code":"7793639","kana_pref":"ﾄｸｼﾏｹﾝ","kana_city":"ﾐﾏｼ","kana_address":"ﾜｷﾏﾁ","pref":"徳島県","city":"美馬市","address":"脇町"},
{"zip_code":"7793638","kana_pref":"ﾄｸｼﾏｹﾝ","kana_city":"ﾐﾏｼ","kana_address":"ﾜｷﾏﾁ","pref":"徳島県","city":"美馬市","address":"脇町"},
{"zip_code":"7793637","kana_pref":"ﾄｸｼﾏｹﾝ","kana_city":"ﾐﾏｼ","kana_address":"ﾜｷﾏﾁ","pref":"徳島県","city":"美馬市","address":"脇町"},
{"zip_code":"7793635","kana_pref":"ﾄｸｼﾏｹﾝ","kana_city":"ﾐﾏｼ","kana_address":"ﾜｷﾏﾁ","pref":"徳島県","city":"美馬市","address":"脇町"},
{"zip_code":"7793604","kana_pref":"ﾄｸｼﾏｹﾝ","kana_city":"ﾐﾏｼ","kana_address":"ﾜｷﾏﾁ","pref":"徳島県","city":"美馬市","address":"脇町"},
{"zip_code":"7793625","kana_pref":"ﾄｸｼﾏｹﾝ","kana_city":"ﾐﾏｼ","kana_address":"ﾜｷﾏﾁ","pref":"徳島県","city":"美馬市","address":"脇町"},
{"zip_code":"7793634","kana_pref":"ﾄｸｼﾏｹﾝ","kana_city":"ﾐﾏｼ","kana_address":"ﾜｷﾏﾁ","pref":"徳島県","city":"美馬市","address":"脇町"},
{"zip_code":"7793631","kana_pref":"ﾄｸｼﾏｹﾝ","kana_city":"ﾐﾏｼ","kana_address":"ﾜｷﾏﾁ","pref":"徳島県","city":"美馬市","address":"脇町"},
{"zip_code":"7793741","kana_pref":"ﾄｸｼﾏｹﾝ","kana_city":"ﾐﾏｼ","kana_address":"ﾜｷﾏﾁ","pref":"徳島県","city":"美馬市","address":"脇町"},
{"zip_code":"7793742","kana_pref":"ﾄｸｼﾏｹﾝ","kana_city":"ﾐﾏｼ","kana_address":"ﾜｷﾏﾁ","pref":"徳島県","city":"美馬市","address":"脇町"},
{"zip_code":"7793744","kana_pref":"ﾄｸｼﾏｹﾝ","kana_city":"ﾐﾏｼ","kana_address":"ﾜｷﾏﾁ","pref":"徳島県","city":"美馬市","address":"脇町"},
{"zip_code":"7793601","kana_pref":"ﾄｸｼﾏｹﾝ","kana_city":"ﾐﾏｼ","kana_address":"ﾜｷﾏﾁ","pref":"徳島県","city":"美馬市","address":"脇町"},
{"zip_code":"7793743","kana_pref":"ﾄｸｼﾏｹﾝ","kana_city":"ﾐﾏｼ","kana_address":"ﾜｷﾏﾁ","pref":"徳島県","city":"美馬市","address":"脇町"},
{"zip_code":"7793745","kana_pref":"ﾄｸｼﾏｹﾝ","kana_city":"ﾐﾏｼ","kana_address":"ﾜｷﾏﾁ","pref":"徳島県","city":"美馬市","address":"脇町"},
{"zip_code":"7794801","kana_pref":"ﾄｸｼﾏｹﾝ","kana_city":"ﾐﾖｼｼ","kana_address":"ｲｶﾜﾁｮｳｱｻﾋﾏﾁ","pref":"徳島県","city":"三好市","address":"井川町旭町"},
{"zip_code":"7794805","kana_pref":"ﾄｸｼﾏｹﾝ","kana_city":"ﾐﾖｼｼ","kana_address":"ｲｶﾜﾁｮｳｲｳﾁﾆｼ","pref":"徳島県","city":"三好市","address":"井川町井内西"},
{"zip_code":"7794804","kana_pref":"ﾄｸｼﾏｹﾝ","kana_city":"ﾐﾖｼｼ","kana_address":"ｲｶﾜﾁｮｳｲｳﾁﾋｶﾞｼ","pref":"徳島県","city":"三好市","address":"井川町井内東"},
{"zip_code":"7794802","kana_pref":"ﾄｸｼﾏｹﾝ","kana_city":"ﾐﾖｼｼ","kana_address":"ｲｶﾜﾁｮｳｲｾﾞｷ","pref":"徳島県","city":"三好市","address":"井川町井関"},
{"zip_code":"7794801","kana_pref":"ﾄｸｼﾏｹﾝ","kana_city":"ﾐﾖｼｼ","kana_address":"ｲｶﾜﾁｮｳｵｵｻｺ","pref":"徳島県","city":"三好市","address":"井川町大佐古"},
{"zip_code":"7794802","kana_pref":"ﾄｸｼﾏｹﾝ","kana_city":"ﾐﾖｼｼ","kana_address":"ｲｶﾜﾁｮｳｵｶﾉﾏｴ","pref":"徳島県","city":"三好市","address":"井川町岡野前"},
{"zip_code":"7794801","kana_pref":"ﾄｸｼﾏｹﾝ","kana_city":"ﾐﾖｼｼ","kana_address":"ｲｶﾜﾁｮｳｶﾀﾔﾏ","pref":"徳島県","city":"三好市","address":"井川町片山"},
{"zip_code":"7794802","kana_pref":"ﾄｸｼﾏｹﾝ","kana_city":"ﾐﾖｼｼ","kana_address":"ｲｶﾜﾁｮｳｺﾞﾘｮｳﾃﾞﾝ","pref":"徳島県","city":"三好市","address":"井川町御領田"},
{"zip_code":"7794801","kana_pref":"ﾄｸｼﾏｹﾝ","kana_city":"ﾐﾖｼｼ","kana_address":"ｲｶﾜﾁｮｳｻｲﾊｾﾞ","pref":"徳島県","city":"三好市","address":"井川町才長谷"},
{"zip_code":"7794807","kana_pref":"ﾄｸｼﾏｹﾝ","kana_city":"ﾐﾖｼｼ","kana_address":"ｲｶﾜﾁｮｳｻﾄｶﾞﾜ","pref":"徳島県","city":"三好市","address":"井川町里川"},
{"zip_code":"7794803","kana_pref":"ﾄｸｼﾏｹﾝ","kana_city":"ﾐﾖｼｼ","kana_address":"ｲｶﾜﾁｮｳｼﾏ","pref":"徳島県","city":"三好市","address":"井川町島"},
{"zip_code":"7794801","kana_pref":"ﾄｸｼﾏｹﾝ","kana_city":"ﾐﾖｼｼ","kana_address":"ｲｶﾜﾁｮｳｼﾝﾏﾁ","pref":"徳島県","city":"三好市","address":"井川町新町"},
{"zip_code":"7794803","kana_pref":"ﾄｸｼﾏｹﾝ","kana_city":"ﾐﾖｼｼ","kana_address":"ｲｶﾜﾁｮｳﾀｸﾐﾀﾞ","pref":"徳島県","city":"三好市","address":"井川町タクミ田"},
{"zip_code":"7794803","kana_pref":"ﾄｸｼﾏｹﾝ","kana_city":"ﾐﾖｼｼ","kana_address":"ｲｶﾜﾁｮｳﾀﾅｶ","pref":"徳島県","city":"三好市","address":"井川町田中"},
{"zip_code":"7794801","kana_pref":"ﾄｸｼﾏｹﾝ","kana_city":"ﾐﾖｼｼ","kana_address":"ｲｶﾜﾁｮｳﾂｼﾞ","pref":"徳島県","city":"三好市","address":"井川町辻"},
{"zip_code":"7794803","kana_pref":"ﾄｸｼﾏｹﾝ","kana_city":"ﾐﾖｼｼ","kana_address":"ｲｶﾜﾁｮｳﾅｶｵｶ","pref":"徳島県","city":"三好市","address":"井川町中岡"},
{"zip_code":"7794801","kana_pref":"ﾄｸｼﾏｹﾝ","kana_city":"ﾐﾖｼｼ","kana_address":"ｲｶﾜﾁｮｳﾅｶﾉﾏﾁ","pref":"徳島県","city":"三好市","address":"井川町仲ノ町"},
{"zip_code":"7794803","kana_pref":"ﾄｸｼﾏｹﾝ","kana_city":"ﾐﾖｼｼ","kana_address":"ｲｶﾜﾁｮｳﾅｶﾑﾗﾆｼ","pref":"徳島県","city":"三好市","address":"井川町中村西"},
{"zip_code":"7794803","kana_pref":"ﾄｸｼﾏｹﾝ","kana_city":"ﾐﾖｼｼ","kana_address":"ｲｶﾜﾁｮｳﾅｶﾑﾗﾋｶﾞｼ","pref":"徳島県","city":"三好市","address":"井川町中村東"},
{"zip_code":"7794803","kana_pref":"ﾄｸｼﾏｹﾝ","kana_city":"ﾐﾖｼｼ","kana_address":"ｲｶﾜﾁｮｳﾅｶﾑﾗﾐﾅﾐ","pref":"徳島県","city":"三好市","address":"井川町中村南"},
{"zip_code":"7794802","kana_pref":"ﾄｸｼﾏｹﾝ","kana_city":"ﾐﾖｼｼ","kana_address":"ｲｶﾜﾁｮｳﾅｶﾞﾚﾄﾞｳ","pref":"徳島県","city":"三好市","address":"井川町流堂"},
{"zip_code":"7794806","kana_pref":"ﾄｸｼﾏｹﾝ","kana_city":"ﾐﾖｼｼ","kana_address":"ｲｶﾜﾁｮｳﾆｼｲｶﾜ","pref":"徳島県","city":"三好市","address":"井川町西井川"},
{"zip_code":"7794802","kana_pref":"ﾄｸｼﾏｹﾝ","kana_city":"ﾐﾖｼｼ","kana_address":"ｲｶﾜﾁｮｳﾉﾂｺﾞ","pref":"徳島県","city":"三好市","address":"井川町野津後"},
{"zip_code":"7794803","kana_pref":"ﾄｸｼﾏｹﾝ","kana_city":"ﾐﾖｼｼ","kana_address":"ｲｶﾜﾁｮｳﾉﾂｺﾞﾅｶﾞﾚ","pref":"徳島県","city":"三好市","address":"井川町野津後流"},
{"zip_code":"7794803","kana_pref":"ﾄｸｼﾏｹﾝ","kana_city":"ﾐﾖｼｼ","kana_address":"ｲｶﾜﾁｮｳﾊﾁﾏﾝ","pref":"徳島県","city":"三好市","address":"井川町八幡"},
{"zip_code":"7794801","kana_pref":"ﾄｸｼﾏｹﾝ","kana_city":"ﾐﾖｼｼ","kana_address":"ｲｶﾜﾁｮｳﾊﾏﾆｼ","pref":"徳島県","city":"三好市","address":"井川町浜西"},
{"zip_code":"7794801","kana_pref":"ﾄｸｼﾏｹﾝ","kana_city":"ﾐﾖｼｼ","kana_address":"ｲｶﾜﾁｮｳﾊﾏﾋｶﾞｼ","pref":"徳島県","city":"三好市","address":"井川町浜東"},
{"zip_code":"7794801","kana_pref":"ﾄｸｼﾏｹﾝ","kana_city":"ﾐﾖｼｼ","kana_address":"ｲｶﾜﾁｮｳﾎﾝﾏﾁ","pref":"徳島県","city":"三好市","address":"井川町本町"},
{"zip_code":"7794802","kana_pref":"ﾄｸｼﾏｹﾝ","kana_city":"ﾐﾖｼｼ","kana_address":"ｲｶﾜﾁｮｳﾑｺｳｻﾞｶ","pref":"徳島県","city":"三好市","address":"井川町向坂"},
{"zip_code":"7794803","kana_pref":"ﾄｸｼﾏｹﾝ","kana_city":"ﾐﾖｼｼ","kana_address":"ｲｶﾜﾁｮｳﾖｼｵｶ","pref":"徳島県","city":"三好市","address":"井川町吉岡"},
{"zip_code":"7795164","kana_pref":"ﾄｸｼﾏｹﾝ","kana_city":"ﾐﾖｼｼ","kana_address":"ｲｹﾀﾞﾁｮｳｵｵﾘ","pref":"徳島県","city":"三好市","address":"池田町大利"},
{"zip_code":"7795166","kana_pref":"ﾄｸｼﾏｹﾝ","kana_city":"ﾐﾖｼｼ","kana_address":"ｲｹﾀﾞﾁｮｳｶﾜｻｷ","pref":"徳島県","city":"三好市","address":"池田町川崎"},
{"zip_code":"7795162","kana_pref":"ﾄｸｼﾏｹﾝ","kana_city":"ﾐﾖｼｼ","kana_address":"ｲｹﾀﾞﾁｮｳｼﾂｶﾜ","pref":"徳島県","city":"三好市","address":"池田町漆川"},
{"zip_code":"7795163","kana_pref":"ﾄｸｼﾏｹﾝ","kana_city":"ﾐﾖｼｼ","kana_address":"ｲｹﾀﾞﾁｮｳﾅｶﾂｶﾞﾜ","pref":"徳島県","city":"三好市","address":"池田町中津川"},
{"zip_code":"7795161","kana_pref":"ﾄｸｼﾏｹﾝ","kana_city":"ﾐﾖｼｼ","kana_address":"ｲｹﾀﾞﾁｮｳﾅｶﾆｼ","pref":"徳島県","city":"三好市","address":"池田町中西"},
{"zip_code":"7795165","kana_pref":"ﾄｸｼﾏｹﾝ","kana_city":"ﾐﾖｼｼ","kana_address":"ｲｹﾀﾞﾁｮｳﾏﾂｵ","pref":"徳島県","city":"三好市","address":"池田町松尾"},
{"zip_code":"7795172","kana_pref":"ﾄｸｼﾏｹﾝ","kana_city":"ﾐﾖｼｼ","kana_address":"ﾆｼｲﾔﾔﾏﾑﾗｵｲﾔ","pref":"徳島県","city":"三好市","address":"西祖谷山村小祖谷"},
{"zip_code":"7795173","kana_pref":"ﾄｸｼﾏｹﾝ","kana_city":"ﾐﾖｼｼ","kana_address":"ﾆｼｲﾔﾔﾏﾑﾗｻｶｾ","pref":"徳島県","city":"三好市","address":"西祖谷山村坂瀬"},
{"zip_code":"7795171","kana_pref":"ﾄｸｼﾏｹﾝ","kana_city":"ﾐﾖｼｼ","kana_address":"ﾆｼｲﾔﾔﾏﾑﾗｼﾓﾐｮｳ","pref":"徳島県","city":"三好市","address":"西祖谷山村下名"},
{"zip_code":"7795307","kana_pref":"ﾄｸｼﾏｹﾝ","kana_city":"ﾐﾖｼｼ","kana_address":"ﾔﾏｼﾛﾁｮｳｱｲｶﾜ","pref":"徳島県","city":"三好市","address":"山城町相川"},
{"zip_code":"7795336","kana_pref":"ﾄｸｼﾏｹﾝ","kana_city":"ﾐﾖｼｼ","kana_address":"ﾔﾏｼﾛﾁｮｳｱｶﾀﾞﾆ","pref":"徳島県","city":"三好市","address":"山城町赤谷"},
{"zip_code":"7795328","kana_pref":"ﾄｸｼﾏｹﾝ","kana_city":"ﾐﾖｼｼ","kana_address":"ﾔﾏｼﾛﾁｮｳｱﾜﾔﾏ","pref":"徳島県","city":"三好市","address":"山城町粟山"},
{"zip_code":"7795314","kana_pref":"ﾄｸｼﾏｹﾝ","kana_city":"ﾐﾖｼｼ","kana_address":"ﾔﾏｼﾛﾁｮｳｲﾜﾄﾞ","pref":"徳島県","city":"三好市","address":"山城町岩戸"},
{"zip_code":"7795304","kana_pref":"ﾄｸｼﾏｹﾝ","kana_city":"ﾐﾖｼｼ","kana_address":"ﾔﾏｼﾛﾁｮｳｵｵｶﾜﾓﾁ","pref":"徳島県","city":"三好市","address":"山城町大川持"},
{"zip_code":"7795342","kana_pref":"ﾄｸｼﾏｹﾝ","kana_city":"ﾐﾖｼｼ","kana_address":"ﾔﾏｼﾛﾁｮｳｵｵﾀﾆ","pref":"徳島県","city":"三好市","address":"山城町大谷"},
{"zip_code":"7795347","kana_pref":"ﾄｸｼﾏｹﾝ","kana_city":"ﾐﾖｼｼ","kana_address":"ﾔﾏｼﾛﾁｮｳｵｵﾂｷ","pref":"徳島県","city":"三好市","address":"山城町大月"},
{"zip_code":"7795333","kana_pref":"ﾄｸｼﾏｹﾝ","kana_city":"ﾐﾖｼｼ","kana_address":"ﾔﾏｼﾛﾁｮｳｵｵﾉ","pref":"徳島県","city":"三好市","address":"山城町大野"},
{"zip_code":"7795332","kana_pref":"ﾄｸｼﾏｹﾝ","kana_city":"ﾐﾖｼｼ","kana_address":"ﾔﾏｼﾛﾁｮｳｵｶﾞﾜﾀﾞﾆ","pref":"徳島県","city":"三好市","address":"山城町小川谷"},
{"zip_code":"7795327","kana_pref":"ﾄｸｼﾏｹﾝ","kana_city":"ﾐﾖｼｼ","kana_address":"ﾔﾏｼﾛﾁｮｳｵﾏﾀ","pref":"徳島県","city":"三好市","address":"山城町尾又"},
{"zip_code":"7795452","kana_pref":"ﾄｸｼﾏｹﾝ","kana_city":"ﾐﾖｼｼ","kana_address":"ﾔﾏｼﾛﾁｮｳｶﾐﾐｮｳ","pref":"徳島県","city":"三好市","address":"山城町上名"},
{"zip_code":"7795305","kana_pref":"ﾄｸｼﾏｹﾝ","kana_city":"ﾐﾖｼｼ","kana_address":"ﾔﾏｼﾛﾁｮｳｶﾜｸﾞﾁ","pref":"徳島県","city":"三好市","address":"山城町川口"},
{"zip_code":"7795321","kana_pref":"ﾄｸｼﾏｹﾝ","kana_city":"ﾐﾖｼｼ","kana_address":"ﾔﾏｼﾛﾁｮｳｸﾆﾏｻ","pref":"徳島県","city":"三好市","address":"山城町国政"},
{"zip_code":"7795313","kana_pref":"ﾄｸｼﾏｹﾝ","kana_city":"ﾐﾖｼｼ","kana_address":"ﾔﾏｼﾛﾁｮｳｸﾛｶﾜ","pref":"徳島県","city":"三好市","address":"山城町黒川"},
{"zip_code":"7795341","kana_pref":"ﾄｸｼﾏｹﾝ","kana_city":"ﾐﾖｼｼ","kana_address":"ﾔﾏｼﾛﾁｮｳｻﾚ","pref":"徳島県","city":"三好市","address":"山城町佐連"},
{"zip_code":"7795422","kana_pref":"ﾄｸｼﾏｹﾝ","kana_city":"ﾐﾖｼｼ","kana_address":"ﾔﾏｼﾛﾁｮｳｼｹﾞｻﾞﾈ","pref":"徳島県","city":"三好市","address":"山城町重実"},
{"zip_code":"7795322","kana_pref":"ﾄｸｼﾏｹﾝ","kana_city":"ﾐﾖｼｼ","kana_address":"ﾔﾏｼﾛﾁｮｳｼｹﾞｻﾞﾈ","pref":"徳島県","city":"三好市","address":"山城町重実"},
{"zip_code":"7795343","kana_pref":"ﾄｸｼﾏｹﾝ","kana_city":"ﾐﾖｼｼ","kana_address":"ﾔﾏｼﾛﾁｮｳｼﾊﾞｶﾜ","pref":"徳島県","city":"三好市","address":"山城町柴川"},
{"zip_code":"7795303","kana_pref":"ﾄｸｼﾏｹﾝ","kana_city":"ﾐﾖｼｼ","kana_address":"ﾔﾏｼﾛﾁｮｳｼﾓｶﾜ","pref":"徳島県","city":"三好市","address":"山城町下川"},
{"zip_code":"7795453","kana_pref":"ﾄｸｼﾏｹﾝ","kana_city":"ﾐﾖｼｼ","kana_address":"ﾔﾏｼﾛﾁｮｳｼﾓﾐｮｳ","pref":"徳島県","city":"三好市","address":"山城町下名"},
{"zip_code":"7795324","kana_pref":"ﾄｸｼﾏｹﾝ","kana_city":"ﾐﾖｼｼ","kana_address":"ﾔﾏｼﾛﾁｮｳｼﾛｶﾜ","pref":"徳島県","city":"三好市","address":"山城町白川"},
{"zip_code":"7795316","kana_pref":"ﾄｸｼﾏｹﾝ","kana_city":"ﾐﾖｼｼ","kana_address":"ﾔﾏｼﾛﾁｮｳｽｴｻﾀﾞ","pref":"徳島県","city":"三好市","address":"山城町末貞"},
{"zip_code":"7795345","kana_pref":"ﾄｸｼﾏｹﾝ","kana_city":"ﾐﾖｼｼ","kana_address":"ﾔﾏｼﾛﾁｮｳｾｶﾞｲ","pref":"徳島県","city":"三好市","address":"山城町瀬貝"},
{"zip_code":"7795337","kana_pref":"ﾄｸｼﾏｹﾝ","kana_city":"ﾐﾖｼｼ","kana_address":"ﾔﾏｼﾛﾁｮｳﾀｲﾗﾉ","pref":"徳島県","city":"三好市","address":"山城町平野"},
{"zip_code":"7795306","kana_pref":"ﾄｸｼﾏｹﾝ","kana_city":"ﾐﾖｼｼ","kana_address":"ﾔﾏｼﾛﾁｮｳﾃﾗﾉ","pref":"徳島県","city":"三好市","address":"山城町寺野"},
{"zip_code":"7795323","kana_pref":"ﾄｸｼﾏｹﾝ","kana_city":"ﾐﾖｼｼ","kana_address":"ﾔﾏｼﾛﾁｮｳﾅｶﾉ","pref":"徳島県","city":"三好市","address":"山城町中野"},
{"zip_code":"7795311","kana_pref":"ﾄｸｼﾏｹﾝ","kana_city":"ﾐﾖｼｼ","kana_address":"ﾔﾏｼﾛﾁｮｳﾅｶﾉｾ","pref":"徳島県","city":"三好市","address":"山城町中ノ瀬"},
{"zip_code":"7795451","kana_pref":"ﾄｸｼﾏｹﾝ","kana_city":"ﾐﾖｼｼ","kana_address":"ﾔﾏｼﾛﾁｮｳﾆｼｳ","pref":"徳島県","city":"三好市","address":"山城町西宇"},
{"zip_code":"7795334","kana_pref":"ﾄｸｼﾏｹﾝ","kana_city":"ﾐﾖｼｼ","kana_address":"ﾔﾏｼﾛﾁｮｳﾉﾌﾞﾏｻ","pref":"徳島県","city":"三好市","address":"山城町信正"},
{"zip_code":"7795312","kana_pref":"ﾄｸｼﾏｹﾝ","kana_city":"ﾐﾖｼｼ","kana_address":"ﾔﾏｼﾛﾁｮｳﾊｯｾﾝﾎﾞｳ","pref":"徳島県","city":"三好市","address":"山城町八千坊"},
{"zip_code":"7795315","kana_pref":"ﾄｸｼﾏｹﾝ","kana_city":"ﾐﾖｼｼ","kana_address":"ﾔﾏｼﾛﾁｮｳﾋｷﾁ","pref":"徳島県","city":"三好市","address":"山城町引地"},
{"zip_code":"7795326","kana_pref":"ﾄｸｼﾏｹﾝ","kana_city":"ﾐﾖｼｼ","kana_address":"ﾔﾏｼﾛﾁｮｳﾌﾞｯｼ","pref":"徳島県","city":"三好市","address":"山城町仏子"},
{"zip_code":"7795344","kana_pref":"ﾄｸｼﾏｹﾝ","kana_city":"ﾐﾖｼｼ","kana_address":"ﾔﾏｼﾛﾁｮｳﾏｻﾄﾓ","pref":"徳島県","city":"三好市","address":"山城町政友"},
{"zip_code":"7795325","kana_pref":"ﾄｸｼﾏｹﾝ","kana_city":"ﾐﾖｼｼ","kana_address":"ﾔﾏｼﾛﾁｮｳﾐﾂｶﾈ","pref":"徳島県","city":"三好市","address":"山城町光兼"},
{"zip_code":"7795331","kana_pref":"ﾄｸｼﾏｹﾝ","kana_city":"ﾐﾖｼｼ","kana_address":"ﾔﾏｼﾛﾁｮｳﾓｼﾞ","pref":"徳島県","city":"三好市","address":"山城町茂地"},
{"zip_code":"7795301","kana_pref":"ﾄｸｼﾏｹﾝ","kana_city":"ﾐﾖｼｼ","kana_address":"ﾔﾏｼﾛﾁｮｳﾔﾏﾄｶﾞﾜ","pref":"徳島県","city":"三好市","address":"山城町大和川"},
{"zip_code":"7795335","kana_pref":"ﾄｸｼﾏｹﾝ","kana_city":"ﾐﾖｼｼ","kana_address":"ﾔﾏｼﾛﾁｮｳﾖﾘﾋﾛ","pref":"徳島県","city":"三好市","address":"山城町頼広"},
{"zip_code":"7795302","kana_pref":"ﾄｸｼﾏｹﾝ","kana_city":"ﾐﾖｼｼ","kana_address":"ﾔﾏｼﾛﾁｮｳﾜｶﾔﾏ","pref":"徳島県","city":"三好市","address":"山城町若山"},
{"zip_code":"7795346","kana_pref":"ﾄｸｼﾏｹﾝ","kana_city":"ﾐﾖｼｼ","kana_address":"ﾔﾏｼﾛﾁｮｳﾜｷ","pref":"徳島県","city":"三好市","address":"山城町脇"},
{"zip_code":"7793200","kana_pref":"ﾄｸｼﾏｹﾝ","kana_city":"ﾐｮｳｻﾞｲｸﾞﾝｲｼｲﾁｮｳ","kana_address":"","pref":"徳島県","city":"名西郡石井町","address":""},
{"zip_code":"7793213","kana_pref":"ﾄｸｼﾏｹﾝ","kana_city":"ﾐｮｳｻﾞｲｸﾞﾝｲｼｲﾁｮｳ","kana_address":"ｱｲﾊﾀ","pref":"徳島県","city":"名西郡石井町","address":"藍畑"},
{"zip_code":"7793214","kana_pref":"ﾄｸｼﾏｹﾝ","kana_city":"ﾐｮｳｻﾞｲｸﾞﾝｲｼｲﾁｮｳ","kana_address":"ｱｲﾊﾀ","pref":"徳島県","city":"名西郡石井町","address":"藍畑"},
{"zip_code":"7793212","kana_pref":"ﾄｸｼﾏｹﾝ","kana_city":"ﾐｮｳｻﾞｲｸﾞﾝｲｼｲﾁｮｳ","kana_address":"ｱｲﾊﾀ","pref":"徳島県","city":"名西郡石井町","address":"藍畑"},
{"zip_code":"7793211","kana_pref":"ﾄｸｼﾏｹﾝ","kana_city":"ﾐｮｳｻﾞｲｸﾞﾝｲｼｲﾁｮｳ","kana_address":"ｱｲﾊﾀ","pref":"徳島県","city":"名西郡石井町","address":"藍畑"},
{"zip_code":"7793215","kana_pref":"ﾄｸｼﾏｹﾝ","kana_city":"ﾐｮｳｻﾞｲｸﾞﾝｲｼｲﾁｮｳ","kana_address":"ｱｲﾊﾀ","pref":"徳島県","city":"名西郡石井町","address":"藍畑"},
{"zip_code":"7793233","kana_pref":"ﾄｸｼﾏｹﾝ","kana_city":"ﾐｮｳｻﾞｲｸﾞﾝｲｼｲﾁｮｳ","kana_address":"ｲｼｲ","pref":"徳島県","city":"名西郡石井町","address":"石井"},
{"zip_code":"7793236","kana_pref":"ﾄｸｼﾏｹﾝ","kana_city":"ﾐｮｳｻﾞｲｸﾞﾝｲｼｲﾁｮｳ","kana_address":"ｲｼｲ","pref":"徳島県","city":"名西郡石井町","address":"石井"},
{"zip_code":"7793231","kana_pref":"ﾄｸｼﾏｹﾝ","kana_city":"ﾐｮｳｻﾞｲｸﾞﾝｲｼｲﾁｮｳ","kana_address":"ｲｼｲ","pref":"徳島県","city":"名西郡石井町","address":"石井"},
{"zip_code":"7793234","kana_pref":"ﾄｸｼﾏｹﾝ","kana_city":"ﾐｮｳｻﾞｲｸﾞﾝｲｼｲﾁｮｳ","kana_address":"ｲｼｲ","pref":"徳島県","city":"名西郡石井町","address":"石井"},
{"zip_code":"7793232","kana_pref":"ﾄｸｼﾏｹﾝ","kana_city":"ﾐｮｳｻﾞｲｸﾞﾝｲｼｲﾁｮｳ","kana_address":"ｲｼｲ","pref":"徳島県","city":"名西郡石井町","address":"石井"},
{"zip_code":"7793235","kana_pref":"ﾄｸｼﾏｹﾝ","kana_city":"ﾐｮｳｻﾞｲｸﾞﾝｲｼｲﾁｮｳ","kana_address":"ｲｼｲ","pref":"徳島県","city":"名西郡石井町","address":"石井"},
{"zip_code":"7793245","kana_pref":"ﾄｸｼﾏｹﾝ","kana_city":"ﾐｮｳｻﾞｲｸﾞﾝｲｼｲﾁｮｳ","kana_address":"ｳﾗｼｮｳ","pref":"徳島県","city":"名西郡石井町","address":"浦庄"},
{"zip_code":"7793242","kana_pref":"ﾄｸｼﾏｹﾝ","kana_city":"ﾐｮｳｻﾞｲｸﾞﾝｲｼｲﾁｮｳ","kana_address":"ｳﾗｼｮｳ","pref":"徳島県","city":"名西郡石井町","address":"浦庄"},
{"zip_code":"7793244","kana_pref":"ﾄｸｼﾏｹﾝ","kana_city":"ﾐｮｳｻﾞｲｸﾞﾝｲｼｲﾁｮｳ","kana_address":"ｳﾗｼｮｳ","pref":"徳島県","city":"名西郡石井町","address":"浦庄"},
{"zip_code":"7793241","kana_pref":"ﾄｸｼﾏｹﾝ","kana_city":"ﾐｮｳｻﾞｲｸﾞﾝｲｼｲﾁｮｳ","kana_address":"ｳﾗｼｮｳ","pref":"徳島県","city":"名西郡石井町","address":"浦庄"},
{"zip_code":"7793243","kana_pref":"ﾄｸｼﾏｹﾝ","kana_city":"ﾐｮｳｻﾞｲｸﾞﾝｲｼｲﾁｮｳ","kana_address":"ｳﾗｼｮｳ","pref":"徳島県","city":"名西郡石井町","address":"浦庄"},
{"zip_code":"7793226","kana_pref":"ﾄｸｼﾏｹﾝ","kana_city":"ﾐｮｳｻﾞｲｸﾞﾝｲｼｲﾁｮｳ","kana_address":"ﾀｶｶﾞﾜﾗ","pref":"徳島県","city":"名西郡石井町","address":"高川原"},
{"zip_code":"7793224","kana_pref":"ﾄｸｼﾏｹﾝ","kana_city":"ﾐｮｳｻﾞｲｸﾞﾝｲｼｲﾁｮｳ","kana_address":"ﾀｶｶﾞﾜﾗ","pref":"徳島県","city":"名西郡石井町","address":"高川原"},
{"zip_code":"7793225","kana_pref":"ﾄｸｼﾏｹﾝ","kana_city":"ﾐｮｳｻﾞｲｸﾞﾝｲｼｲﾁｮｳ","kana_address":"ﾀｶｶﾞﾜﾗ","pref":"徳島県","city":"名西郡石井町","address":"高川原"},
{"zip_code":"7793223","kana_pref":"ﾄｸｼﾏｹﾝ","kana_city":"ﾐｮｳｻﾞｲｸﾞﾝｲｼｲﾁｮｳ","kana_address":"ﾀｶｶﾞﾜﾗ","pref":"徳島県","city":"名西郡石井町","address":"高川原"},
{"zip_code":"7793222","kana_pref":"ﾄｸｼﾏｹﾝ","kana_city":"ﾐｮｳｻﾞｲｸﾞﾝｲｼｲﾁｮｳ","kana_address":"ﾀｶｶﾞﾜﾗ","pref":"徳島県","city":"名西郡石井町","address":"高川原"},
{"zip_code":"7793221","kana_pref":"ﾄｸｼﾏｹﾝ","kana_city":"ﾐｮｳｻﾞｲｸﾞﾝｲｼｲﾁｮｳ","kana_address":"ﾀｶｶﾞﾜﾗ","pref":"徳島県","city":"名西郡石井町","address":"高川原"},
{"zip_code":"7793206","kana_pref":"ﾄｸｼﾏｹﾝ","kana_city":"ﾐｮｳｻﾞｲｸﾞﾝｲｼｲﾁｮｳ","kana_address":"ﾀｶﾊﾗ","pref":"徳島県","city":"名西郡石井町","address":"高原"},
{"zip_code":"7793207","kana_pref":"ﾄｸｼﾏｹﾝ","kana_city":"ﾐｮｳｻﾞｲｸﾞﾝｲｼｲﾁｮｳ","kana_address":"ﾀｶﾊﾗ","pref":"徳島県","city":"名西郡石井町","address":"高原"},
{"zip_code":"7793202","kana_pref":"ﾄｸｼﾏｹﾝ","kana_city":"ﾐｮｳｻﾞｲｸﾞﾝｲｼｲﾁｮｳ","kana_address":"ﾀｶﾊﾗ","pref":"徳島県","city":"名西郡石井町","address":"高原"},
{"zip_code":"7793208","kana_pref":"ﾄｸｼﾏｹﾝ","kana_city":"ﾐｮｳｻﾞｲｸﾞﾝｲｼｲﾁｮｳ","kana_address":"ﾀｶﾊﾗ","pref":"徳島県","city":"名西郡石井町","address":"高原"},
{"zip_code":"7793201","kana_pref":"ﾄｸｼﾏｹﾝ","kana_city":"ﾐｮｳｻﾞｲｸﾞﾝｲｼｲﾁｮｳ","kana_address":"ﾀｶﾊﾗ","pref":"徳島県","city":"名西郡石井町","address":"高原"},
{"zip_code":"7793205","kana_pref":"ﾄｸｼﾏｹﾝ","kana_city":"ﾐｮｳｻﾞｲｸﾞﾝｲｼｲﾁｮｳ","kana_address":"ﾀｶﾊﾗ","pref":"徳島県","city":"名西郡石井町","address":"高原"},
{"zip_code":"7793204","kana_pref":"ﾄｸｼﾏｹﾝ","kana_city":"ﾐｮｳｻﾞｲｸﾞﾝｲｼｲﾁｮｳ","kana_address":"ﾀｶﾊﾗ","pref":"徳島県","city":"名西郡石井町","address":"高原"},
{"zip_code":"7793203","kana_pref":"ﾄｸｼﾏｹﾝ","kana_city":"ﾐｮｳｻﾞｲｸﾞﾝｲｼｲﾁｮｳ","kana_address":"ﾀｶﾊﾗ","pref":"徳島県","city":"名西郡石井町","address":"高原"},
{"zip_code":"7792300","kana_pref":"ﾄｸｼﾏｹﾝ","kana_city":"ｶｲﾌｸﾞﾝﾐﾅﾐﾁｮｳ","kana_address":"","pref":"徳島県","city":"海部郡美波町","address":""},
{"zip_code":"7792301","kana_pref":"ﾄｸｼﾏｹﾝ","kana_city":"ｶｲﾌｸﾞﾝﾐﾅﾐﾁｮｳ","kana_address":"ｱｶﾏﾂ","pref":"徳島県","city":"海部郡美波町","address":"赤松"},
{"zip_code":"7792106","kana_pref":"ﾄｸｼﾏｹﾝ","kana_city":"ｶｲﾌｸﾞﾝﾐﾅﾐﾁｮｳ","kana_address":"ｱﾌﾞ","pref":"徳島県","city":"海部郡美波町","address":"阿部"},
{"zip_code":"7792107","kana_pref":"ﾄｸｼﾏｹﾝ","kana_city":"ｶｲﾌｸﾞﾝﾐﾅﾐﾁｮｳ","kana_address":"ｲｻﾞﾘ","pref":"徳島県","city":"海部郡美波町","address":"伊座利"},
{"zip_code":"7792303","kana_pref":"ﾄｸｼﾏｹﾝ","kana_city":"ｶｲﾌｸﾞﾝﾐﾅﾐﾁｮｳ","kana_address":"ｴﾋﾞｽﾊﾏ","pref":"徳島県","city":"海部郡美波町","address":"恵比須浜"},
{"zip_code":"7792305","kana_pref":"ﾄｸｼﾏｹﾝ","kana_city":"ｶｲﾌｸﾞﾝﾐﾅﾐﾁｮｳ","kana_address":"ｵｸｶﾞﾜｳﾁ","pref":"徳島県","city":"海部郡美波町","address":"奥河内"},
{"zip_code":"7792108","kana_pref":"ﾄｸｼﾏｹﾝ","kana_city":"ｶｲﾌｸﾞﾝﾐﾅﾐﾁｮｳ","kana_address":"ｷｷ","pref":"徳島県","city":"海部郡美波町","address":"木岐"},
{"zip_code":"7792302","kana_pref":"ﾄｸｼﾏｹﾝ","kana_city":"ｶｲﾌｸﾞﾝﾐﾅﾐﾁｮｳ","kana_address":"ｷﾀｶﾞﾜｳﾁ","pref":"徳島県","city":"海部郡美波町","address":"北河内"},
{"zip_code":"7792105","kana_pref":"ﾄｸｼﾏｹﾝ","kana_city":"ｶｲﾌｸﾞﾝﾐﾅﾐﾁｮｳ","kana_address":"ｼﾜｷﾞ","pref":"徳島県","city":"海部郡美波町","address":"志和岐"},
{"zip_code":"7792109","kana_pref":"ﾄｸｼﾏｹﾝ","kana_city":"ｶｲﾌｸﾞﾝﾐﾅﾐﾁｮｳ","kana_address":"ﾀｲ","pref":"徳島県","city":"海部郡美波町","address":"田井"},
{"zip_code":"7792306","kana_pref":"ﾄｸｼﾏｹﾝ","kana_city":"ｶｲﾌｸﾞﾝﾐﾅﾐﾁｮｳ","kana_address":"ﾆｼｶﾞﾜｳﾁ","pref":"徳島県","city":"海部郡美波町","address":"西河内"},
{"zip_code":"7792103","kana_pref":"ﾄｸｼﾏｹﾝ","kana_city":"ｶｲﾌｸﾞﾝﾐﾅﾐﾁｮｳ","kana_address":"ﾆｼﾉｼﾞ","pref":"徳島県","city":"海部郡美波町","address":"西の地"},
{"zip_code":"7792101","kana_pref":"ﾄｸｼﾏｹﾝ","kana_city":"ｶｲﾌｸﾞﾝﾐﾅﾐﾁｮｳ","kana_address":"ﾆｼﾕｷ","pref":"徳島県","city":"海部郡美波町","address":"西由岐"},
{"zip_code":"7792104","kana_pref":"ﾄｸｼﾏｹﾝ","kana_city":"ｶｲﾌｸﾞﾝﾐﾅﾐﾁｮｳ","kana_address":"ﾋｶﾞｼﾕｷ","pref":"徳島県","city":"海部郡美波町","address":"東由岐"},
{"zip_code":"7792304","kana_pref":"ﾄｸｼﾏｹﾝ","kana_city":"ｶｲﾌｸﾞﾝﾐﾅﾐﾁｮｳ","kana_address":"ﾋﾜｻｳﾗ","pref":"徳島県","city":"海部郡美波町","address":"日和佐浦"},
{"zip_code":"7792102","kana_pref":"ﾄｸｼﾏｹﾝ","kana_city":"ｶｲﾌｸﾞﾝﾐﾅﾐﾁｮｳ","kana_address":"ﾐﾅﾄﾏﾁ","pref":"徳島県","city":"海部郡美波町","address":"港町"},
{"zip_code":"7792307","kana_pref":"ﾄｸｼﾏｹﾝ","kana_city":"ｶｲﾌｸﾞﾝﾐﾅﾐﾁｮｳ","kana_address":"ﾔﾏｶﾞﾜｳﾁ","pref":"徳島県","city":"海部郡美波町","address":"山河内"},
{"zip_code":"7790100","kana_pref":"ﾄｸｼﾏｹﾝ","kana_city":"ｲﾀﾉｸﾞﾝｲﾀﾉﾁｮｳ","kana_address":"","pref":"徳島県","city":"板野郡板野町","address":""},
{"zip_code":"7790108","kana_pref":"ﾄｸｼﾏｹﾝ","kana_city":"ｲﾀﾉｸﾞﾝｲﾀﾉﾁｮｳ","kana_address":"ｲﾇﾌﾞｼ","pref":"徳島県","city":"板野郡板野町","address":"犬伏"},
{"zip_code":"7790101","kana_pref":"ﾄｸｼﾏｹﾝ","kana_city":"ｲﾀﾉｸﾞﾝｲﾀﾉﾁｮｳ","kana_address":"ｵｵｻｶ","pref":"徳島県","city":"板野郡板野町","address":"大坂"},
{"zip_code":"7790106","kana_pref":"ﾄｸｼﾏｹﾝ","kana_city":"ｲﾀﾉｸﾞﾝｲﾀﾉﾁｮｳ","kana_address":"ｵｵﾃﾗ","pref":"徳島県","city":"板野郡板野町","address":"大寺"},
{"zip_code":"7790105","kana_pref":"ﾄｸｼﾏｹﾝ","kana_city":"ｲﾀﾉｸﾞﾝｲﾀﾉﾁｮｳ","kana_address":"ｵｵﾃﾗ","pref":"徳島県","city":"板野郡板野町","address":"大寺"},
{"zip_code":"7790103","kana_pref":"ﾄｸｼﾏｹﾝ","kana_city":"ｲﾀﾉｸﾞﾝｲﾀﾉﾁｮｳ","kana_address":"ｶﾜﾊﾞﾀ","pref":"徳島県","city":"板野郡板野町","address":"川端"},
{"zip_code":"7790102","kana_pref":"ﾄｸｼﾏｹﾝ","kana_city":"ｲﾀﾉｸﾞﾝｲﾀﾉﾁｮｳ","kana_address":"ｶﾜﾊﾞﾀ","pref":"徳島県","city":"板野郡板野町","address":"川端"},
{"zip_code":"7790113","kana_pref":"ﾄｸｼﾏｹﾝ","kana_city":"ｲﾀﾉｸﾞﾝｲﾀﾉﾁｮｳ","kana_address":"ｸﾛﾀﾞﾆ","pref":"徳島県","city":"板野郡板野町","address":"黒谷"},
{"zip_code":"7790118","kana_pref":"ﾄｸｼﾏｹﾝ","kana_city":"ｲﾀﾉｸﾞﾝｲﾀﾉﾁｮｳ","kana_address":"ｼﾓﾉｼｮｳ","pref":"徳島県","city":"板野郡板野町","address":"下庄"},
{"zip_code":"7790116","kana_pref":"ﾄｸｼﾏｹﾝ","kana_city":"ｲﾀﾉｸﾞﾝｲﾀﾉﾁｮｳ","kana_address":"ﾄｳﾉｿ","pref":"徳島県","city":"板野郡板野町","address":"唐園"},
{"zip_code":"7790117","kana_pref":"ﾄｸｼﾏｹﾝ","kana_city":"ｲﾀﾉｸﾞﾝｲﾀﾉﾁｮｳ","kana_address":"ﾅｶｸﾎﾞ","pref":"徳島県","city":"板野郡板野町","address":"中久保"},
{"zip_code":"7790111","kana_pref":"ﾄｸｼﾏｹﾝ","kana_city":"ｲﾀﾉｸﾞﾝｲﾀﾉﾁｮｳ","kana_address":"ﾅﾄｳ","pref":"徳島県","city":"板野郡板野町","address":"那東"},
{"zip_code":"7790119","kana_pref":"ﾄｸｼﾏｹﾝ","kana_city":"ｲﾀﾉｸﾞﾝｲﾀﾉﾁｮｳ","kana_address":"ﾆｼﾅｶﾄﾐ","pref":"徳島県","city":"板野郡板野町","address":"西中富"},
{"zip_code":"7790104","kana_pref":"ﾄｸｼﾏｹﾝ","kana_city":"ｲﾀﾉｸﾞﾝｲﾀﾉﾁｮｳ","kana_address":"ﾌｷﾀ","pref":"徳島県","city":"板野郡板野町","address":"吹田"},
{"zip_code":"7790107","kana_pref":"ﾄｸｼﾏｹﾝ","kana_city":"ｲﾀﾉｸﾞﾝｲﾀﾉﾁｮｳ","kana_address":"ﾌﾙｼﾛ","pref":"徳島県","city":"板野郡板野町","address":"古城"},
{"zip_code":"7790112","kana_pref":"ﾄｸｼﾏｹﾝ","kana_city":"ｲﾀﾉｸﾞﾝｲﾀﾉﾁｮｳ","kana_address":"ﾏﾂﾀﾞﾆ","pref":"徳島県","city":"板野郡板野町","address":"松谷"},
{"zip_code":"7790115","kana_pref":"ﾄｸｼﾏｹﾝ","kana_city":"ｲﾀﾉｸﾞﾝｲﾀﾉﾁｮｳ","kana_address":"ﾔﾀｹ","pref":"徳島県","city":"板野郡板野町","address":"矢武"},
{"zip_code":"7790114","kana_pref":"ﾄｸｼﾏｹﾝ","kana_city":"ｲﾀﾉｸﾞﾝｲﾀﾉﾁｮｳ","kana_address":"ﾗｶﾝ","pref":"徳島県","city":"板野郡板野町","address":"羅漢"},
{"zip_code":"7794100","kana_pref":"ﾄｸｼﾏｹﾝ","kana_city":"ﾐﾏｸﾞﾝﾂﾙｷﾞﾁｮｳ","kana_address":"","pref":"徳島県","city":"美馬郡つるぎ町","address":""},
{"zip_code":"7794302","kana_pref":"ﾄｸｼﾏｹﾝ","kana_city":"ﾐﾏｸﾞﾝﾂﾙｷﾞﾁｮｳ","kana_address":"ｲﾁｳ","pref":"徳島県","city":"美馬郡つるぎ町","address":"一宇"},
{"zip_code":"7794305","kana_pref":"ﾄｸｼﾏｹﾝ","kana_city":"ﾐﾏｸﾞﾝﾂﾙｷﾞﾁｮｳ","kana_address":"ｲﾁｳ","pref":"徳島県","city":"美馬郡つるぎ町","address":"一宇"},
{"zip_code":"7794301","kana_pref":"ﾄｸｼﾏｹﾝ","kana_city":"ﾐﾏｸﾞﾝﾂﾙｷﾞﾁｮｳ","kana_address":"ｲﾁｳ","pref":"徳島県","city":"美馬郡つるぎ町","address":"一宇"},
{"zip_code":"7794304","kana_pref":"ﾄｸｼﾏｹﾝ","kana_city":"ﾐﾏｸﾞﾝﾂﾙｷﾞﾁｮｳ","kana_address":"ｲﾁｳ","pref":"徳島県","city":"美馬郡つるぎ町","address":"一宇"},
{"zip_code":"7794306","kana_pref":"ﾄｸｼﾏｹﾝ","kana_city":"ﾐﾏｸﾞﾝﾂﾙｷﾞﾁｮｳ","kana_address":"ｲﾁｳ","pref":"徳島県","city":"美馬郡つるぎ町","address":"一宇"},
{"zip_code":"7794307","kana_pref":"ﾄｸｼﾏｹﾝ","kana_city":"ﾐﾏｸﾞﾝﾂﾙｷﾞﾁｮｳ","kana_address":"ｲﾁｳ","pref":"徳島県","city":"美馬郡つるぎ町","address":"一宇"},
{"zip_code":"7794303","kana_pref":"ﾄｸｼﾏｹﾝ","kana_city":"ﾐﾏｸﾞﾝﾂﾙｷﾞﾁｮｳ","kana_address":"ｲﾁｳ","pref":"徳島県","city":"美馬郡つるぎ町","address":"一宇"},
{"zip_code":"7794101","kana_pref":"ﾄｸｼﾏｹﾝ","kana_city":"ﾐﾏｸﾞﾝﾂﾙｷﾞﾁｮｳ","kana_address":"ｻﾀﾞﾐﾂ","pref":"徳島県","city":"美馬郡つるぎ町","address":"貞光"},
{"zip_code":"7794105","kana_pref":"ﾄｸｼﾏｹﾝ","kana_city":"ﾐﾏｸﾞﾝﾂﾙｷﾞﾁｮｳ","kana_address":"ｻﾀﾞﾐﾂ","pref":"徳島県","city":"美馬郡つるぎ町","address":"貞光"},
{"zip_code":"7794103","kana_pref":"ﾄｸｼﾏｹﾝ","kana_city":"ﾐﾏｸﾞﾝﾂﾙｷﾞﾁｮｳ","kana_address":"ｻﾀﾞﾐﾂ","pref":"徳島県","city":"美馬郡つるぎ町","address":"貞光"},
{"zip_code":"7794106","kana_pref":"ﾄｸｼﾏｹﾝ","kana_city":"ﾐﾏｸﾞﾝﾂﾙｷﾞﾁｮｳ","kana_address":"ｻﾀﾞﾐﾂ","pref":"徳島県","city":"美馬郡つるぎ町","address":"貞光"},
{"zip_code":"7794104","kana_pref":"ﾄｸｼﾏｹﾝ","kana_city":"ﾐﾏｸﾞﾝﾂﾙｷﾞﾁｮｳ","kana_address":"ｻﾀﾞﾐﾂ","pref":"徳島県","city":"美馬郡つるぎ町","address":"貞光"},
{"zip_code":"7794108","kana_pref":"ﾄｸｼﾏｹﾝ","kana_city":"ﾐﾏｸﾞﾝﾂﾙｷﾞﾁｮｳ","kana_address":"ｻﾀﾞﾐﾂ","pref":"徳島県","city":"美馬郡つるぎ町","address":"貞光"},
{"zip_code":"7794109","kana_pref":"ﾄｸｼﾏｹﾝ","kana_city":"ﾐﾏｸﾞﾝﾂﾙｷﾞﾁｮｳ","kana_address":"ｻﾀﾞﾐﾂ","pref":"徳島県","city":"美馬郡つるぎ町","address":"貞光"},
{"zip_code":"7794107","kana_pref":"ﾄｸｼﾏｹﾝ","kana_city":"ﾐﾏｸﾞﾝﾂﾙｷﾞﾁｮｳ","kana_address":"ｻﾀﾞﾐﾂ","pref":"徳島県","city":"美馬郡つるぎ町","address":"貞光"},
{"zip_code":"7794102","kana_pref":"ﾄｸｼﾏｹﾝ","kana_city":"ﾐﾏｸﾞﾝﾂﾙｷﾞﾁｮｳ","kana_address":"ｻﾀﾞﾐﾂ","pref":"徳島県","city":"美馬郡つるぎ町","address":"貞光"},
{"zip_code":"7794404","kana_pref":"ﾄｸｼﾏｹﾝ","kana_city":"ﾐﾏｸﾞﾝﾂﾙｷﾞﾁｮｳ","kana_address":"ﾊﾝﾀﾞ","pref":"徳島県","city":"美馬郡つるぎ町","address":"半田"},
{"zip_code":"7794402","kana_pref":"ﾄｸｼﾏｹﾝ","kana_city":"ﾐﾏｸﾞﾝﾂﾙｷﾞﾁｮｳ","kana_address":"ﾊﾝﾀﾞ","pref":"徳島県","city":"美馬郡つるぎ町","address":"半田"},
{"zip_code":"7794401","kana_pref":"ﾄｸｼﾏｹﾝ","kana_city":"ﾐﾏｸﾞﾝﾂﾙｷﾞﾁｮｳ","kana_address":"ﾊﾝﾀﾞ","pref":"徳島県","city":"美馬郡つるぎ町","address":"半田"},
{"zip_code":"7794406","kana_pref":"ﾄｸｼﾏｹﾝ","kana_city":"ﾐﾏｸﾞﾝﾂﾙｷﾞﾁｮｳ","kana_address":"ﾊﾝﾀﾞ","pref":"徳島県","city":"美馬郡つるぎ町","address":"半田"},
{"zip_code":"7794405","kana_pref":"ﾄｸｼﾏｹﾝ","kana_city":"ﾐﾏｸﾞﾝﾂﾙｷﾞﾁｮｳ","kana_address":"ﾊﾝﾀﾞ","pref":"徳島県","city":"美馬郡つるぎ町","address":"半田"},
{"zip_code":"7794403","kana_pref":"ﾄｸｼﾏｹﾝ","kana_city":"ﾐﾏｸﾞﾝﾂﾙｷﾞﾁｮｳ","kana_address":"ﾊﾝﾀﾞ","pref":"徳島県","city":"美馬郡つるぎ町","address":"半田"},
{"zip_code":"7794407","kana_pref":"ﾄｸｼﾏｹﾝ","kana_city":"ﾐﾏｸﾞﾝﾂﾙｷﾞﾁｮｳ","kana_address":"ﾊﾝﾀﾞ","pref":"徳島県","city":"美馬郡つるぎ町","address":"半田"},
{"zip_code":"7794700","kana_pref":"ﾄｸｼﾏｹﾝ","kana_city":"ﾐﾖｼｸﾞﾝﾋｶﾞｼﾐﾖｼﾁｮｳ","kana_address":"","pref":"徳島県","city":"三好郡東みよし町","address":""},
{"zip_code":"7794701","kana_pref":"ﾄｸｼﾏｹﾝ","kana_city":"ﾐﾖｼｸﾞﾝﾋｶﾞｼﾐﾖｼﾁｮｳ","kana_address":"ｶﾓ","pref":"徳島県","city":"三好郡東みよし町","address":"加茂"},
{"zip_code":"7794707","kana_pref":"ﾄｸｼﾏｹﾝ","kana_city":"ﾐﾖｼｸﾞﾝﾋｶﾞｼﾐﾖｼﾁｮｳ","kana_address":"ｹﾀ","pref":"徳島県","city":"三好郡東みよし町","address":"毛田"},
{"zip_code":"7794706","kana_pref":"ﾄｸｼﾏｹﾝ","kana_city":"ﾐﾖｼｸﾞﾝﾋｶﾞｼﾐﾖｼﾁｮｳ","kana_address":"ｹﾀ","pref":"徳島県","city":"三好郡東みよし町","address":"毛田"},
{"zip_code":"7794705","kana_pref":"ﾄｸｼﾏｹﾝ","kana_city":"ﾐﾖｼｸﾞﾝﾋｶﾞｼﾐﾖｼﾁｮｳ","kana_address":"ｹﾀ","pref":"徳島県","city":"三好郡東みよし町","address":"毛田"},
{"zip_code":"7794704","kana_pref":"ﾄｸｼﾏｹﾝ","kana_city":"ﾐﾖｼｸﾞﾝﾋｶﾞｼﾐﾖｼﾁｮｳ","kana_address":"ﾅｶｼｮｳ","pref":"徳島県","city":"三好郡東みよし町","address":"中庄"},
{"zip_code":"7794703","kana_pref":"ﾄｸｼﾏｹﾝ","kana_city":"ﾐﾖｼｸﾞﾝﾋｶﾞｼﾐﾖｼﾁｮｳ","kana_address":"ﾅｶｼｮｳ","pref":"徳島県","city":"三好郡東みよし町","address":"中庄"},
{"zip_code":"7794702","kana_pref":"ﾄｸｼﾏｹﾝ","kana_city":"ﾐﾖｼｸﾞﾝﾋｶﾞｼﾐﾖｼﾁｮｳ","kana_address":"ﾆｼｼｮｳ","pref":"徳島県","city":"三好郡東みよし町","address":"西庄"}]}