{"zip_code":[
{"zip_code":"7810010","kana_pref":"ｺｳﾁｹﾝ","kana_city":"ｺｳﾁｼ","kana_address":"ｱｿﾞｳﾉ","pref":"高知県","city":"高知市","address":"薊野"},
{"zip_code":"7810013","kana_pref":"ｺｳﾁｹﾝ","kana_city":"ｺｳﾁｼ","kana_address":"ｱｿﾞｳﾉﾅｶﾏﾁ","pref":"高知県","city":"高知市","address":"薊野中町"},
{"zip_code":"7810012","kana_pref":"ｺｳﾁｹﾝ","kana_city":"ｺｳﾁｼ","kana_address":"ｱｿﾞｳﾉﾋｶﾞｼﾏﾁ","pref":"高知県","city":"高知市","address":"薊野東町"},
{"zip_code":"7810015","kana_pref":"ｺｳﾁｹﾝ","kana_city":"ｺｳﾁｼ","kana_address":"ｱｿﾞｳﾉﾆｼﾏﾁ","pref":"高知県","city":"高知市","address":"薊野西町"},
{"zip_code":"7810014","kana_pref":"ｺｳﾁｹﾝ","kana_city":"ｺｳﾁｼ","kana_address":"ｱｿﾞｳﾉﾐﾅﾐﾏﾁ","pref":"高知県","city":"高知市","address":"薊野南町"},
{"zip_code":"7810011","kana_pref":"ｺｳﾁｹﾝ","kana_city":"ｺｳﾁｼ","kana_address":"ｱｿﾞｳﾉｷﾀﾏﾁ","pref":"高知県","city":"高知市","address":"薊野北町"},
{"zip_code":"7810111","kana_pref":"ｺｳﾁｹﾝ","kana_city":"ｺｳﾁｼ","kana_address":"ｲｹ","pref":"高知県","city":"高知市","address":"池"},
{"zip_code":"7818130","kana_pref":"ｺｳﾁｹﾝ","kana_city":"ｺｳﾁｼ","kana_address":"ｲｯｸ","pref":"高知県","city":"高知市","address":"一宮"},
{"zip_code":"7818131","kana_pref":"ｺｳﾁｹﾝ","kana_city":"ｺｳﾁｼ","kana_address":"ｲｯｸｼﾅﾈ","pref":"高知県","city":"高知市","address":"一宮しなね"},
{"zip_code":"7818133","kana_pref":"ｺｳﾁｹﾝ","kana_city":"ｺｳﾁｼ","kana_address":"ｲｯｸﾄｸﾀﾞﾆ","pref":"高知県","city":"高知市","address":"一宮徳谷"},
{"zip_code":"7818134","kana_pref":"ｺｳﾁｹﾝ","kana_city":"ｺｳﾁｼ","kana_address":"ｲｯｸﾅｶﾏﾁ","pref":"高知県","city":"高知市","address":"一宮中町"},
{"zip_code":"7818136","kana_pref":"ｺｳﾁｹﾝ","kana_city":"ｺｳﾁｼ","kana_address":"ｲｯｸﾆｼﾏﾁ","pref":"高知県","city":"高知市","address":"一宮西町"},
{"zip_code":"7818132","kana_pref":"ｺｳﾁｹﾝ","kana_city":"ｺｳﾁｼ","kana_address":"ｲｯｸﾋｶﾞｼﾏﾁ","pref":"高知県","city":"高知市","address":"一宮東町"},
{"zip_code":"7818135","kana_pref":"ｺｳﾁｹﾝ","kana_city":"ｺｳﾁｼ","kana_address":"ｲｯｸﾐﾅﾐﾏﾁ","pref":"高知県","city":"高知市","address":"一宮南町"},
{"zip_code":"7810262","kana_pref":"ｺｳﾁｹﾝ","kana_city":"ｺｳﾁｼ","kana_address":"ｳﾗﾄﾞ","pref":"高知県","city":"高知市","address":"浦戸"},
{"zip_code":"7815102","kana_pref":"ｺｳﾁｹﾝ","kana_city":"ｺｳﾁｼ","kana_address":"ｵｵﾂｺｳ","pref":"高知県","city":"高知市","address":"大津甲"},
{"zip_code":"7815103","kana_pref":"ｺｳﾁｹﾝ","kana_city":"ｺｳﾁｼ","kana_address":"ｵｵﾂｵﾂ","pref":"高知県","city":"高知市","address":"大津乙"},
{"zip_code":"7813104","kana_pref":"ｺｳﾁｹﾝ","kana_city":"ｺｳﾁｼ","kana_address":"ｶｶﾞﾐｲﾏｲ","pref":"高知県","city":"高知市","address":"鏡今井"},
{"zip_code":"7813124","kana_pref":"ｺｳﾁｹﾝ","kana_city":"ｺｳﾁｼ","kana_address":"ｶｶﾞﾐｳﾒﾉｷ","pref":"高知県","city":"高知市","address":"鏡梅ノ木"},
{"zip_code":"7813101","kana_pref":"ｺｳﾁｹﾝ","kana_city":"ｺｳﾁｼ","kana_address":"ｶｶﾞﾐｵｵｶﾞﾁ","pref":"高知県","city":"高知市","address":"鏡大河内"},
{"zip_code":"7813103","kana_pref":"ｺｳﾁｹﾝ","kana_city":"ｺｳﾁｼ","kana_address":"ｶｶﾞﾐｵｵﾘ","pref":"高知県","city":"高知市","address":"鏡大利"},
{"zip_code":"7813115","kana_pref":"ｺｳﾁｹﾝ","kana_city":"ｺｳﾁｼ","kana_address":"ｶｶﾞﾐｶｷﾉﾏﾀ","pref":"高知県","city":"高知市","address":"鏡柿ノ又"},
{"zip_code":"7813123","kana_pref":"ｺｳﾁｹﾝ","kana_city":"ｺｳﾁｼ","kana_address":"ｶｶﾞﾐｶｽﾞﾗﾔﾏ","pref":"高知県","city":"高知市","address":"鏡葛山"},
{"zip_code":"7813107","kana_pref":"ｺｳﾁｹﾝ","kana_city":"ｺｳﾁｼ","kana_address":"ｶｶﾞﾐｶﾘﾔﾏ","pref":"高知県","city":"高知市","address":"鏡狩山"},
{"zip_code":"7813105","kana_pref":"ｺｳﾁｹﾝ","kana_city":"ｺｳﾁｼ","kana_address":"ｶｶﾞﾐｸｻﾐﾈ","pref":"高知県","city":"高知市","address":"鏡草峰"},
{"zip_code":"7813102","kana_pref":"ｺｳﾁｹﾝ","kana_city":"ｺｳﾁｼ","kana_address":"ｶｶﾞﾐｺﾊﾏ","pref":"高知県","city":"高知市","address":"鏡小浜"},
{"zip_code":"7813125","kana_pref":"ｺｳﾁｹﾝ","kana_city":"ｺｳﾁｼ","kana_address":"ｶｶﾞﾐｺﾔﾏ","pref":"高知県","city":"高知市","address":"鏡小山"},
{"zip_code":"7813112","kana_pref":"ｺｳﾁｹﾝ","kana_city":"ｺｳﾁｼ","kana_address":"ｶｶﾞﾐｻﾙｻｶ","pref":"高知県","city":"高知市","address":"鏡去坂"},
{"zip_code":"7813114","kana_pref":"ｺｳﾁｹﾝ","kana_city":"ｺｳﾁｼ","kana_address":"ｶｶﾞﾐｼｷﾉﾔﾏ","pref":"高知県","city":"高知市","address":"鏡敷ノ山"},
{"zip_code":"7813106","kana_pref":"ｺｳﾁｹﾝ","kana_city":"ｺｳﾁｼ","kana_address":"ｶｶﾞﾐｼﾛｲﾜ","pref":"高知県","city":"高知市","address":"鏡白岩"},
{"zip_code":"7813113","kana_pref":"ｺｳﾁｹﾝ","kana_city":"ｺｳﾁｼ","kana_address":"ｶｶﾞﾐﾀｹﾅﾛ","pref":"高知県","city":"高知市","address":"鏡竹奈路"},
{"zip_code":"7813122","kana_pref":"ｺｳﾁｹﾝ","kana_city":"ｺｳﾁｼ","kana_address":"ｶｶﾞﾐﾏｽﾊﾗ","pref":"高知県","city":"高知市","address":"鏡増原"},
{"zip_code":"7813111","kana_pref":"ｺｳﾁｹﾝ","kana_city":"ｺｳﾁｼ","kana_address":"ｶｶﾞﾐﾏﾄﾌﾞﾁ","pref":"高知県","city":"高知市","address":"鏡的渕"},
{"zip_code":"7813121","kana_pref":"ｺｳﾁｹﾝ","kana_city":"ｺｳﾁｼ","kana_address":"ｶｶﾞﾐﾖｺﾔ","pref":"高知県","city":"高知市","address":"鏡横矢"},
{"zip_code":"7813108","kana_pref":"ｺｳﾁｹﾝ","kana_city":"ｺｳﾁｼ","kana_address":"ｶｶﾞﾐﾖｼﾊﾗ","pref":"高知県","city":"高知市","address":"鏡吉原"},
{"zip_code":"7818121","kana_pref":"ｺｳﾁｹﾝ","kana_city":"ｺｳﾁｼ","kana_address":"ｶﾂﾞﾗｼﾏ","pref":"高知県","city":"高知市","address":"葛島"},
{"zip_code":"7818126","kana_pref":"ｺｳﾁｹﾝ","kana_city":"ｺｳﾁｼ","kana_address":"ｷﾞｭｳｺｳ","pref":"高知県","city":"高知市","address":"吸江"},
{"zip_code":"7815105","kana_pref":"ｺｳﾁｹﾝ","kana_city":"ｺｳﾁｼ","kana_address":"ｹﾗｺｳ","pref":"高知県","city":"高知市","address":"介良甲"},
{"zip_code":"7815106","kana_pref":"ｺｳﾁｹﾝ","kana_city":"ｺｳﾁｼ","kana_address":"ｹﾗｵﾂ","pref":"高知県","city":"高知市","address":"介良乙"},
{"zip_code":"7815107","kana_pref":"ｺｳﾁｹﾝ","kana_city":"ｺｳﾁｼ","kana_address":"ｹﾗﾍｲ","pref":"高知県","city":"高知市","address":"介良丙"},
{"zip_code":"7815104","kana_pref":"ｺｳﾁｹﾝ","kana_city":"ｺｳﾁｼ","kana_address":"ｹﾗ","pref":"高知県","city":"高知市","address":"介良"},
{"zip_code":"7818125","kana_pref":"ｺｳﾁｹﾝ","kana_city":"ｺｳﾁｼ","kana_address":"ｺﾞﾀﾞｲｻﾝ","pref":"高知県","city":"高知市","address":"五台山"},
{"zip_code":"7815108","kana_pref":"ｺｳﾁｹﾝ","kana_city":"ｺｳﾁｼ","kana_address":"ｼｵﾐﾀﾞｲ","pref":"高知県","city":"高知市","address":"潮見台"},
{"zip_code":"7810250","kana_pref":"ｺｳﾁｹﾝ","kana_city":"ｺｳﾁｼ","kana_address":"ｾﾄ","pref":"高知県","city":"高知市","address":"瀬戸"},
{"zip_code":"7810252","kana_pref":"ｺｳﾁｹﾝ","kana_city":"ｺｳﾁｼ","kana_address":"ｾﾄﾋｶﾞｼﾏﾁ","pref":"高知県","city":"高知市","address":"瀬戸東町"},
{"zip_code":"7810251","kana_pref":"ｺｳﾁｹﾝ","kana_city":"ｺｳﾁｼ","kana_address":"ｾﾄﾆｼﾏﾁ","pref":"高知県","city":"高知市","address":"瀬戸西町"},
{"zip_code":"7810253","kana_pref":"ｺｳﾁｹﾝ","kana_city":"ｺｳﾁｼ","kana_address":"ｾﾄﾐﾅﾐﾏﾁ","pref":"高知県","city":"高知市","address":"瀬戸南町"},
{"zip_code":"7818123","kana_pref":"ｺｳﾁｹﾝ","kana_city":"ｺｳﾁｼ","kana_address":"ﾀｶｽ","pref":"高知県","city":"高知市","address":"高須"},
{"zip_code":"7818104","kana_pref":"ｺｳﾁｹﾝ","kana_city":"ｺｳﾁｼ","kana_address":"ﾀｶｽ","pref":"高知県","city":"高知市","address":"高須"},
{"zip_code":"7818111","kana_pref":"ｺｳﾁｹﾝ","kana_city":"ｺｳﾁｼ","kana_address":"ﾀｶｽｵｵｼﾏ","pref":"高知県","city":"高知市","address":"高須大島"},
{"zip_code":"7818112","kana_pref":"ｺｳﾁｹﾝ","kana_city":"ｺｳﾁｼ","kana_address":"ﾀｶｽｵｵﾀﾆ","pref":"高知県","city":"高知市","address":"高須大谷"},
{"zip_code":"7818103","kana_pref":"ｺｳﾁｹﾝ","kana_city":"ｺｳﾁｼ","kana_address":"ﾀｶｽｼﾝｷﾞ","pref":"高知県","city":"高知市","address":"高須新木"},
{"zip_code":"7818122","kana_pref":"ｺｳﾁｹﾝ","kana_city":"ｺｳﾁｼ","kana_address":"ﾀｶｽｼﾝﾏﾁ","pref":"高知県","city":"高知市","address":"高須新町"},
{"zip_code":"7818101","kana_pref":"ｺｳﾁｹﾝ","kana_city":"ｺｳﾁｼ","kana_address":"ﾀｶｽｽﾅﾁﾞ","pref":"高知県","city":"高知市","address":"高須砂地"},
{"zip_code":"7818113","kana_pref":"ｺｳﾁｹﾝ","kana_city":"ｺｳﾁｼ","kana_address":"ﾀｶｽﾀﾙﾐ","pref":"高知県","city":"高知市","address":"高須絶海"},
{"zip_code":"7818114","kana_pref":"ｺｳﾁｹﾝ","kana_city":"ｺｳﾁｼ","kana_address":"ﾀｶｽﾆｼﾏﾁ","pref":"高知県","city":"高知市","address":"高須西町"},
{"zip_code":"7818105","kana_pref":"ｺｳﾁｹﾝ","kana_city":"ｺｳﾁｼ","kana_address":"ﾀｶｽﾋｶﾞｼﾏﾁ","pref":"高知県","city":"高知市","address":"高須東町"},
{"zip_code":"7818102","kana_pref":"ｺｳﾁｹﾝ","kana_city":"ｺｳﾁｼ","kana_address":"ﾀｶｽﾎﾝﾏﾁ","pref":"高知県","city":"高知市","address":"高須本町"},
{"zip_code":"7810113","kana_pref":"ｺｳﾁｹﾝ","kana_city":"ｺｳﾁｼ","kana_address":"ﾀﾈｻﾞｷ","pref":"高知県","city":"高知市","address":"種崎"},
{"zip_code":"7810114","kana_pref":"ｺｳﾁｹﾝ","kana_city":"ｺｳﾁｼ","kana_address":"ﾄｵｽﾞ","pref":"高知県","city":"高知市","address":"十津"},
{"zip_code":"7813201","kana_pref":"ｺｳﾁｹﾝ","kana_city":"ｺｳﾁｼ","kana_address":"ﾄｻﾔﾏ","pref":"高知県","city":"高知市","address":"土佐山"},
{"zip_code":"7813212","kana_pref":"ｺｳﾁｹﾝ","kana_city":"ｺｳﾁｼ","kana_address":"ﾄｻﾔﾏｶｼﾞﾀﾆ","pref":"高知県","city":"高知市","address":"土佐山梶谷"},
{"zip_code":"7813221","kana_pref":"ｺｳﾁｹﾝ","kana_city":"ｺｳﾁｼ","kana_address":"ﾄｻﾔﾏｸﾜｵ","pref":"高知県","city":"高知市","address":"土佐山桑尾"},
{"zip_code":"7813214","kana_pref":"ｺｳﾁｹﾝ","kana_city":"ｺｳﾁｼ","kana_address":"ﾄｻﾔﾏｼｮｳﾌﾞ","pref":"高知県","city":"高知市","address":"土佐山菖蒲"},
{"zip_code":"7813211","kana_pref":"ｺｳﾁｹﾝ","kana_city":"ｺｳﾁｼ","kana_address":"ﾄｻﾔﾏﾀｶｶﾜ","pref":"高知県","city":"高知市","address":"土佐山高川"},
{"zip_code":"7813202","kana_pref":"ｺｳﾁｹﾝ","kana_city":"ｺｳﾁｼ","kana_address":"ﾄｻﾔﾏﾂｱﾐ","pref":"高知県","city":"高知市","address":"土佐山都網"},
{"zip_code":"7813223","kana_pref":"ｺｳﾁｹﾝ","kana_city":"ｺｳﾁｼ","kana_address":"ﾄｻﾔﾏﾅｶｷﾞﾘ","pref":"高知県","city":"高知市","address":"土佐山中切"},
{"zip_code":"7813213","kana_pref":"ｺｳﾁｹﾝ","kana_city":"ｺｳﾁｼ","kana_address":"ﾄｻﾔﾏﾆｼｶﾞﾜ","pref":"高知県","city":"高知市","address":"土佐山西川"},
{"zip_code":"7813222","kana_pref":"ｺｳﾁｹﾝ","kana_city":"ｺｳﾁｼ","kana_address":"ﾄｻﾔﾏﾋｶﾞｼｶﾜ","pref":"高知県","city":"高知市","address":"土佐山東川"},
{"zip_code":"7813203","kana_pref":"ｺｳﾁｹﾝ","kana_city":"ｺｳﾁｼ","kana_address":"ﾄｻﾔﾏﾋﾛｾ","pref":"高知県","city":"高知市","address":"土佐山弘瀬"},
{"zip_code":"7810270","kana_pref":"ｺｳﾁｹﾝ","kana_city":"ｺｳﾁｼ","kana_address":"ﾅｶﾞﾊﾏ","pref":"高知県","city":"高知市","address":"長浜"},
{"zip_code":"7810245","kana_pref":"ｺｳﾁｹﾝ","kana_city":"ｺｳﾁｼ","kana_address":"ﾅｶﾞﾊﾏﾏｷｴﾀﾞｲ","pref":"高知県","city":"高知市","address":"長浜蒔絵台"},
{"zip_code":"7810271","kana_pref":"ｺｳﾁｹﾝ","kana_city":"ｺｳﾁｼ","kana_address":"ﾅｶﾞﾊﾏﾐﾔﾀ","pref":"高知県","city":"高知市","address":"長浜宮田"},
{"zip_code":"7810112","kana_pref":"ｺｳﾁｹﾝ","kana_city":"ｺｳﾁｼ","kana_address":"ﾆｲﾀﾞ","pref":"高知県","city":"高知市","address":"仁井田"},
{"zip_code":"7815101","kana_pref":"ｺｳﾁｹﾝ","kana_city":"ｺｳﾁｼ","kana_address":"ﾇﾉｼﾀﾞ","pref":"高知県","city":"高知市","address":"布師田"},
{"zip_code":"7810321","kana_pref":"ｺｳﾁｹﾝ","kana_city":"ｺｳﾁｼ","kana_address":"ﾊﾙﾉﾁｮｳｱｷﾔﾏ","pref":"高知県","city":"高知市","address":"春野町秋山"},
{"zip_code":"7810313","kana_pref":"ｺｳﾁｹﾝ","kana_city":"ｺｳﾁｼ","kana_address":"ﾊﾙﾉﾁｮｳｳﾁﾉﾀﾆ","pref":"高知県","city":"高知市","address":"春野町内ノ谷"},
{"zip_code":"7810322","kana_pref":"ｺｳﾁｹﾝ","kana_city":"ｺｳﾁｼ","kana_address":"ﾊﾙﾉﾁｮｳｺｳﾄﾞﾉ","pref":"高知県","city":"高知市","address":"春野町甲殿"},
{"zip_code":"7810324","kana_pref":"ｺｳﾁｹﾝ","kana_city":"ｺｳﾁｼ","kana_address":"ﾊﾙﾉﾁｮｳｻｲﾊﾞﾀ","pref":"高知県","city":"高知市","address":"春野町西畑"},
{"zip_code":"7810304","kana_pref":"ｺｳﾁｹﾝ","kana_city":"ｺｳﾁｼ","kana_address":"ﾊﾙﾉﾁｮｳﾆｼﾌﾞﾝ","pref":"高知県","city":"高知市","address":"春野町西分"},
{"zip_code":"7810316","kana_pref":"ｺｳﾁｹﾝ","kana_city":"ｺｳﾁｼ","kana_address":"ﾊﾙﾉﾁｮｳﾆｼﾓﾛｷﾞ","pref":"高知県","city":"高知市","address":"春野町西諸木"},
{"zip_code":"7810323","kana_pref":"ｺｳﾁｹﾝ","kana_city":"ｺｳﾁｼ","kana_address":"ﾊﾙﾉﾁｮｳﾆﾉ","pref":"高知県","city":"高知市","address":"春野町仁ノ"},
{"zip_code":"7810315","kana_pref":"ｺｳﾁｹﾝ","kana_city":"ｺｳﾁｼ","kana_address":"ﾊﾙﾉﾁｮｳﾋｶﾞｼﾓﾛｷﾞ","pref":"高知県","city":"高知市","address":"春野町東諸木"},
{"zip_code":"7810301","kana_pref":"ｺｳﾁｹﾝ","kana_city":"ｺｳﾁｼ","kana_address":"ﾊﾙﾉﾁｮｳﾋﾛｵｶｶﾐ","pref":"高知県","city":"高知市","address":"春野町弘岡上"},
{"zip_code":"7810303","kana_pref":"ｺｳﾁｹﾝ","kana_city":"ｺｳﾁｼ","kana_address":"ﾊﾙﾉﾁｮｳﾋﾛｵｶｼﾓ","pref":"高知県","city":"高知市","address":"春野町弘岡下"},
{"zip_code":"7810302","kana_pref":"ｺｳﾁｹﾝ","kana_city":"ｺｳﾁｼ","kana_address":"ﾊﾙﾉﾁｮｳﾋﾛｵｶﾅｶ","pref":"高知県","city":"高知市","address":"春野町弘岡中"},
{"zip_code":"7810312","kana_pref":"ｺｳﾁｹﾝ","kana_city":"ｺｳﾁｼ","kana_address":"ﾊﾙﾉﾁｮｳﾍｲﾜ","pref":"高知県","city":"高知市","address":"春野町平和"},
{"zip_code":"7810314","kana_pref":"ｺｳﾁｹﾝ","kana_city":"ｺｳﾁｼ","kana_address":"ﾊﾙﾉﾁｮｳﾐﾅﾐｶﾞｵｶ","pref":"高知県","city":"高知市","address":"春野町南ケ丘"},
{"zip_code":"7810325","kana_pref":"ｺｳﾁｹﾝ","kana_city":"ｺｳﾁｼ","kana_address":"ﾊﾙﾉﾁｮｳﾓﾘﾔﾏ","pref":"高知県","city":"高知市","address":"春野町森山"},
{"zip_code":"7810311","kana_pref":"ｺｳﾁｹﾝ","kana_city":"ｺｳﾁｼ","kana_address":"ﾊﾙﾉﾁｮｳﾖｼﾊﾗ","pref":"高知県","city":"高知市","address":"春野町芳原"},
{"zip_code":"7810261","kana_pref":"ｺｳﾁｹﾝ","kana_city":"ｺｳﾁｼ","kana_address":"ﾐﾏｾ","pref":"高知県","city":"高知市","address":"御畳瀬"},
{"zip_code":"7818124","kana_pref":"ｺｳﾁｹﾝ","kana_city":"ｺｳﾁｼ","kana_address":"ﾔｶﾞｼﾗ","pref":"高知県","city":"高知市","address":"屋頭"},
{"zip_code":"7810240","kana_pref":"ｺｳﾁｹﾝ","kana_city":"ｺｳﾁｼ","kana_address":"ﾖｺﾊﾏ","pref":"高知県","city":"高知市","address":"横浜"},
{"zip_code":"7810241","kana_pref":"ｺｳﾁｹﾝ","kana_city":"ｺｳﾁｼ","kana_address":"ﾖｺﾊﾏｼﾝﾏﾁ","pref":"高知県","city":"高知市","address":"横浜新町"},
{"zip_code":"7810242","kana_pref":"ｺｳﾁｹﾝ","kana_city":"ｺｳﾁｼ","kana_address":"ﾖｺﾊﾏﾆｼﾏﾁ","pref":"高知県","city":"高知市","address":"横浜西町"},
{"zip_code":"7810243","kana_pref":"ｺｳﾁｹﾝ","kana_city":"ｺｳﾁｼ","kana_address":"ﾖｺﾊﾏﾋｶﾞｼﾏﾁ","pref":"高知県","city":"高知市","address":"横浜東町"},
{"zip_code":"7810244","kana_pref":"ｺｳﾁｹﾝ","kana_city":"ｺｳﾁｼ","kana_address":"ﾖｺﾊﾏﾐﾅﾐﾏﾁ","pref":"高知県","city":"高知市","address":"横浜南町"},
{"zip_code":"7817100","kana_pref":"ｺｳﾁｹﾝ","kana_city":"ﾑﾛﾄｼ","kana_address":"","pref":"高知県","city":"室戸市","address":""},
{"zip_code":"7817103","kana_pref":"ｺｳﾁｹﾝ","kana_city":"ﾑﾛﾄｼ","kana_address":"ｳｷﾂ","pref":"高知県","city":"室戸市","address":"浮津"},
{"zip_code":"7817104","kana_pref":"ｺｳﾁｹﾝ","kana_city":"ﾑﾛﾄｼ","kana_address":"ｳｷﾂ1ﾊﾞﾝﾁｮｳ","pref":"高知県","city":"室戸市","address":"浮津一番町"},
{"zip_code":"7817105","kana_pref":"ｺｳﾁｹﾝ","kana_city":"ﾑﾛﾄｼ","kana_address":"ｳｷﾂ2ﾊﾞﾝﾁｮｳ","pref":"高知県","city":"室戸市","address":"浮津二番町"},
{"zip_code":"7817106","kana_pref":"ｺｳﾁｹﾝ","kana_city":"ﾑﾛﾄｼ","kana_address":"ｳｷﾂ3ﾊﾞﾝﾁｮｳ","pref":"高知県","city":"室戸市","address":"浮津三番町"},
{"zip_code":"7816832","kana_pref":"ｺｳﾁｹﾝ","kana_city":"ﾑﾛﾄｼ","kana_address":"ｷﾗｶﾞﾜﾁｮｳｺｳ","pref":"高知県","city":"室戸市","address":"吉良川町甲"},
{"zip_code":"7816831","kana_pref":"ｺｳﾁｹﾝ","kana_city":"ﾑﾛﾄｼ","kana_address":"ｷﾗｶﾞﾜﾁｮｳｵﾂ","pref":"高知県","city":"室戸市","address":"吉良川町乙"},
{"zip_code":"7816833","kana_pref":"ｺｳﾁｹﾝ","kana_city":"ﾑﾛﾄｼ","kana_address":"ｷﾗｶﾞﾜﾁｮｳﾍｲ","pref":"高知県","city":"室戸市","address":"吉良川町丙"},
{"zip_code":"7817220","kana_pref":"ｺｳﾁｹﾝ","kana_city":"ﾑﾛﾄｼ","kana_address":"ｻｷﾊﾏﾁｮｳ","pref":"高知県","city":"室戸市","address":"佐喜浜町"},
{"zip_code":"7816741","kana_pref":"ｺｳﾁｹﾝ","kana_city":"ﾑﾛﾄｼ","kana_address":"ﾊﾈﾁｮｳｺｳ","pref":"高知県","city":"室戸市","address":"羽根町甲"},
{"zip_code":"7816742","kana_pref":"ｺｳﾁｹﾝ","kana_city":"ﾑﾛﾄｼ","kana_address":"ﾊﾈﾁｮｳｵﾂ","pref":"高知県","city":"室戸市","address":"羽根町乙"},
{"zip_code":"7817102","kana_pref":"ｺｳﾁｹﾝ","kana_city":"ﾑﾛﾄｼ","kana_address":"ﾑﾛﾂ","pref":"高知県","city":"室戸市","address":"室津"},
{"zip_code":"7817101","kana_pref":"ｺｳﾁｹﾝ","kana_city":"ﾑﾛﾄｼ","kana_address":"ﾑﾛﾄﾐｻｷﾁｮｳ","pref":"高知県","city":"室戸市","address":"室戸岬町"},
{"zip_code":"7817107","kana_pref":"ｺｳﾁｹﾝ","kana_city":"ﾑﾛﾄｼ","kana_address":"ﾓﾄｺｳ","pref":"高知県","city":"室戸市","address":"元甲"},
{"zip_code":"7817108","kana_pref":"ｺｳﾁｹﾝ","kana_city":"ﾑﾛﾄｼ","kana_address":"ﾓﾄｵﾂ","pref":"高知県","city":"室戸市","address":"元乙"},
{"zip_code":"7817109","kana_pref":"ｺｳﾁｹﾝ","kana_city":"ﾑﾛﾄｼ","kana_address":"ﾘｮｳｹ","pref":"高知県","city":"室戸市","address":"領家"},
{"zip_code":"7811100","kana_pref":"ｺｳﾁｹﾝ","kana_city":"ﾄｻｼ","kana_address":"","pref":"高知県","city":"土佐市","address":""},
{"zip_code":"7811136","kana_pref":"ｺｳﾁｹﾝ","kana_city":"ﾄｻｼ","kana_address":"ｱｻﾞｲ","pref":"高知県","city":"土佐市","address":"浅井"},
{"zip_code":"7811134","kana_pref":"ｺｳﾁｹﾝ","kana_city":"ﾄｻｼ","kana_address":"ｲｴﾄｼ","pref":"高知県","city":"土佐市","address":"家俊"},
{"zip_code":"7811142","kana_pref":"ｺｳﾁｹﾝ","kana_city":"ﾄｻｼ","kana_address":"ｲｽﾞﾏ","pref":"高知県","city":"土佐市","address":"出間"},
{"zip_code":"7811132","kana_pref":"ｺｳﾁｹﾝ","kana_city":"ﾄｻｼ","kana_address":"ｲﾁﾉﾉ","pref":"高知県","city":"土佐市","address":"市野々"},
{"zip_code":"7811141","kana_pref":"ｺｳﾁｹﾝ","kana_city":"ﾄｻｼ","kana_address":"ｲﾜﾄ","pref":"高知県","city":"土佐市","address":"岩戸"},
{"zip_code":"7811164","kana_pref":"ｺｳﾁｹﾝ","kana_city":"ﾄｻｼ","kana_address":"ｳｻﾁｮｳｲｼﾞﾘ","pref":"高知県","city":"土佐市","address":"宇佐町井尻"},
{"zip_code":"7811162","kana_pref":"ｺｳﾁｹﾝ","kana_city":"ﾄｻｼ","kana_address":"ｳｻﾁｮｳｲﾊﾏ","pref":"高知県","city":"土佐市","address":"宇佐町渭浜"},
{"zip_code":"7811161","kana_pref":"ｺｳﾁｹﾝ","kana_city":"ﾄｻｼ","kana_address":"ｳｻﾁｮｳｳｻ","pref":"高知県","city":"土佐市","address":"宇佐町宇佐"},
{"zip_code":"7811163","kana_pref":"ｺｳﾁｹﾝ","kana_city":"ﾄｻｼ","kana_address":"ｳｻﾁｮｳﾌｸｼﾏ","pref":"高知県","city":"土佐市","address":"宇佐町福島"},
{"zip_code":"7811165","kana_pref":"ｺｳﾁｹﾝ","kana_city":"ﾄｻｼ","kana_address":"ｳｻﾁｮｳﾘｭｳ","pref":"高知県","city":"土佐市","address":"宇佐町竜"},
{"zip_code":"7811113","kana_pref":"ｺｳﾁｹﾝ","kana_city":"ﾄｻｼ","kana_address":"ｶﾝﾊﾞﾗ","pref":"高知県","city":"土佐市","address":"甲原"},
{"zip_code":"7811111","kana_pref":"ｺｳﾁｹﾝ","kana_city":"ﾄｻｼ","kana_address":"ｷﾀｼﾞ","pref":"高知県","city":"土佐市","address":"北地"},
{"zip_code":"7811125","kana_pref":"ｺｳﾁｹﾝ","kana_city":"ﾄｻｼ","kana_address":"ｼｬｸｾﾞﾝｼﾞ","pref":"高知県","city":"土佐市","address":"積善寺"},
{"zip_code":"7811101","kana_pref":"ｺｳﾁｹﾝ","kana_city":"ﾄｻｼ","kana_address":"ﾀｶｵｶﾁｮｳｺｳ","pref":"高知県","city":"土佐市","address":"高岡町甲"},
{"zip_code":"7811102","kana_pref":"ｺｳﾁｹﾝ","kana_city":"ﾄｻｼ","kana_address":"ﾀｶｵｶﾁｮｳｵﾂ","pref":"高知県","city":"土佐市","address":"高岡町乙"},
{"zip_code":"7811103","kana_pref":"ｺｳﾁｹﾝ","kana_city":"ﾄｻｼ","kana_address":"ﾀｶｵｶﾁｮｳﾍｲ","pref":"高知県","city":"土佐市","address":"高岡町丙"},
{"zip_code":"7811104","kana_pref":"ｺｳﾁｹﾝ","kana_city":"ﾄｻｼ","kana_address":"ﾀｶｵｶﾁｮｳﾃｲ","pref":"高知県","city":"土佐市","address":"高岡町丁"},
{"zip_code":"7811133","kana_pref":"ｺｳﾁｹﾝ","kana_city":"ﾄｻｼ","kana_address":"ﾀｶﾉｽ","pref":"高知県","city":"土佐市","address":"鷹ノ巣"},
{"zip_code":"7811135","kana_pref":"ｺｳﾁｹﾝ","kana_city":"ﾄｻｼ","kana_address":"ﾀﾛｳﾏﾙ","pref":"高知県","city":"土佐市","address":"太郎丸"},
{"zip_code":"7811153","kana_pref":"ｺｳﾁｹﾝ","kana_city":"ﾄｻｼ","kana_address":"ﾂｶｼﾞ","pref":"高知県","city":"土佐市","address":"塚地"},
{"zip_code":"7811151","kana_pref":"ｺｳﾁｹﾝ","kana_city":"ﾄｻｼ","kana_address":"ﾅｶｼﾞﾏ","pref":"高知県","city":"土佐市","address":"中島"},
{"zip_code":"7811131","kana_pref":"ｺｳﾁｹﾝ","kana_city":"ﾄｻｼ","kana_address":"ﾅｶﾞﾉ","pref":"高知県","city":"土佐市","address":"永野"},
{"zip_code":"7811154","kana_pref":"ｺｳﾁｹﾝ","kana_city":"ﾄｻｼ","kana_address":"ﾆｲ","pref":"高知県","city":"土佐市","address":"新居"},
{"zip_code":"7811123","kana_pref":"ｺｳﾁｹﾝ","kana_city":"ﾄｻｼ","kana_address":"ﾆｼｶﾓｼﾞ","pref":"高知県","city":"土佐市","address":"西鴨地"},
{"zip_code":"7811143","kana_pref":"ｺｳﾁｹﾝ","kana_city":"ﾄｻｼ","kana_address":"ﾊｹﾞ","pref":"高知県","city":"土佐市","address":"波介"},
{"zip_code":"7811105","kana_pref":"ｺｳﾁｹﾝ","kana_city":"ﾄｻｼ","kana_address":"ﾊｽｲｹ","pref":"高知県","city":"土佐市","address":"蓮池"},
{"zip_code":"7811121","kana_pref":"ｺｳﾁｹﾝ","kana_city":"ﾄｻｼ","kana_address":"ﾋｶﾞｼｶﾓｼﾞ","pref":"高知県","city":"土佐市","address":"東鴨地"},
{"zip_code":"7811112","kana_pref":"ｺｳﾁｹﾝ","kana_city":"ﾄｻｼ","kana_address":"ﾌｸﾀﾞ","pref":"高知県","city":"土佐市","address":"福田"},
{"zip_code":"7811122","kana_pref":"ｺｳﾁｹﾝ","kana_city":"ﾄｻｼ","kana_address":"ﾎﾝﾑﾗ","pref":"高知県","city":"土佐市","address":"本村"},
{"zip_code":"7811124","kana_pref":"ｺｳﾁｹﾝ","kana_city":"ﾄｻｼ","kana_address":"ﾐﾔﾉｳﾁ","pref":"高知県","city":"土佐市","address":"宮ノ内"},
{"zip_code":"7811152","kana_pref":"ｺｳﾁｹﾝ","kana_city":"ﾄｻｼ","kana_address":"ﾓﾁｲｼ","pref":"高知県","city":"土佐市","address":"用石"},
{"zip_code":"7811114","kana_pref":"ｺｳﾁｹﾝ","kana_city":"ﾄｻｼ","kana_address":"ﾔﾂｼﾞ","pref":"高知県","city":"土佐市","address":"谷地"},
{"zip_code":"7815200","kana_pref":"ｺｳﾁｹﾝ","kana_city":"ｺｳﾅﾝｼ","kana_address":"","pref":"高知県","city":"香南市","address":""},
{"zip_code":"7815310","kana_pref":"ｺｳﾁｹﾝ","kana_city":"ｺｳﾅﾝｼ","kana_address":"ｱｶｵｶﾁｮｳ","pref":"高知県","city":"香南市","address":"赤岡町"},
{"zip_code":"7815467","kana_pref":"ｺｳﾁｹﾝ","kana_city":"ｺｳﾅﾝｼ","kana_address":"ｶｶﾞﾐﾁｮｳｵｸﾆｼｶﾞﾜ","pref":"高知県","city":"香南市","address":"香我美町奥西川"},
{"zip_code":"7815451","kana_pref":"ｺｳﾁｹﾝ","kana_city":"ｺｳﾅﾝｼ","kana_address":"ｶｶﾞﾐﾁｮｳｶﾐﾌﾞﾝ","pref":"高知県","city":"香南市","address":"香我美町上分"},
{"zip_code":"7815331","kana_pref":"ｺｳﾁｹﾝ","kana_city":"ｺｳﾅﾝｼ","kana_address":"ｶｶﾞﾐﾁｮｳｷｼﾓﾄ","pref":"高知県","city":"香南市","address":"香我美町岸本"},
{"zip_code":"7815454","kana_pref":"ｺｳﾁｹﾝ","kana_city":"ｺｳﾅﾝｼ","kana_address":"ｶｶﾞﾐﾁｮｳｸﾁﾆｼｶﾞﾜ","pref":"高知県","city":"香南市","address":"香我美町口西川"},
{"zip_code":"7815452","kana_pref":"ｺｳﾁｹﾝ","kana_city":"ｺｳﾅﾝｼ","kana_address":"ｶｶﾞﾐﾁｮｳｼﾓﾌﾞﾝ","pref":"高知県","city":"香南市","address":"香我美町下分"},
{"zip_code":"7815464","kana_pref":"ｺｳﾁｹﾝ","kana_city":"ｺｳﾅﾝｼ","kana_address":"ｶｶﾞﾐﾁｮｳｽｴｷﾖ","pref":"高知県","city":"香南市","address":"香我美町末清"},
{"zip_code":"7815463","kana_pref":"ｺｳﾁｹﾝ","kana_city":"ｺｳﾅﾝｼ","kana_address":"ｶｶﾞﾐﾁｮｳｽｴﾉﾌﾞ","pref":"高知県","city":"香南市","address":"香我美町末延"},
{"zip_code":"7815332","kana_pref":"ｺｳﾁｹﾝ","kana_city":"ｺｳﾅﾝｼ","kana_address":"ｶｶﾞﾐﾁｮｳﾄｸｵｳｼﾞ","pref":"高知県","city":"香南市","address":"香我美町徳王子"},
{"zip_code":"7815455","kana_pref":"ｺｳﾁｹﾝ","kana_city":"ｺｳﾅﾝｼ","kana_address":"ｶｶﾞﾐﾁｮｳﾅｶﾆｼｶﾞﾜ","pref":"高知県","city":"香南市","address":"香我美町中西川"},
{"zip_code":"7815461","kana_pref":"ｺｳﾁｹﾝ","kana_city":"ｺｳﾅﾝｼ","kana_address":"ｶｶﾞﾐﾁｮｳﾌｸﾏﾝ","pref":"高知県","city":"香南市","address":"香我美町福万"},
{"zip_code":"7815466","kana_pref":"ｺｳﾁｹﾝ","kana_city":"ｺｳﾅﾝｼ","kana_address":"ｶｶﾞﾐﾁｮｳﾍﾞｯﾁｬｸ","pref":"高知県","city":"香南市","address":"香我美町別役"},
{"zip_code":"7815469","kana_pref":"ｺｳﾁｹﾝ","kana_city":"ｺｳﾅﾝｼ","kana_address":"ｶｶﾞﾐﾁｮｳﾏｲｶﾜ","pref":"高知県","city":"香南市","address":"香我美町舞川"},
{"zip_code":"7815465","kana_pref":"ｺｳﾁｹﾝ","kana_city":"ｺｳﾅﾝｼ","kana_address":"ｶｶﾞﾐﾁｮｳﾏｻﾉﾌﾞ","pref":"高知県","city":"香南市","address":"香我美町正延"},
{"zip_code":"7815468","kana_pref":"ｺｳﾁｹﾝ","kana_city":"ｺｳﾅﾝｼ","kana_address":"ｶｶﾞﾐﾁｮｳﾑｶﾞﾜ","pref":"高知県","city":"香南市","address":"香我美町撫川"},
{"zip_code":"7815462","kana_pref":"ｺｳﾁｹﾝ","kana_city":"ｺｳﾅﾝｼ","kana_address":"ｶｶﾞﾐﾁｮｳﾔﾏｶﾞﾜ","pref":"高知県","city":"香南市","address":"香我美町山川"},
{"zip_code":"7815453","kana_pref":"ｺｳﾁｹﾝ","kana_city":"ｺｳﾅﾝｼ","kana_address":"ｶｶﾞﾐﾁｮｳﾔﾏｷﾀ","pref":"高知県","city":"香南市","address":"香我美町山北"},
{"zip_code":"7815202","kana_pref":"ｺｳﾁｹﾝ","kana_city":"ｺｳﾅﾝｼ","kana_address":"ﾉｲﾁﾁｮｳｳｻｲﾀﾞ","pref":"高知県","city":"香南市","address":"野市町兎田"},
{"zip_code":"7815233","kana_pref":"ｺｳﾁｹﾝ","kana_city":"ｺｳﾅﾝｼ","kana_address":"ﾉｲﾁﾁｮｳｵｵﾀﾆ","pref":"高知県","city":"香南市","address":"野市町大谷"},
{"zip_code":"7815234","kana_pref":"ｺｳﾁｹﾝ","kana_city":"ｺｳﾅﾝｼ","kana_address":"ﾉｲﾁﾁｮｳｶﾐｵｶ","pref":"高知県","city":"香南市","address":"野市町上岡"},
{"zip_code":"7815235","kana_pref":"ｺｳﾁｹﾝ","kana_city":"ｺｳﾅﾝｼ","kana_address":"ﾉｲﾁﾁｮｳｼﾓｲ","pref":"高知県","city":"香南市","address":"野市町下井"},
{"zip_code":"7815204","kana_pref":"ｺｳﾁｹﾝ","kana_city":"ｺｳﾅﾝｼ","kana_address":"ﾉｲﾁﾁｮｳｼﾝｸﾞｳ","pref":"高知県","city":"香南市","address":"野市町新宮"},
{"zip_code":"7815212","kana_pref":"ｺｳﾁｹﾝ","kana_city":"ｺｳﾅﾝｼ","kana_address":"ﾉｲﾁﾁｮｳﾄﾞｲ","pref":"高知県","city":"香南市","address":"野市町土居"},
{"zip_code":"7815211","kana_pref":"ｺｳﾁｹﾝ","kana_city":"ｺｳﾅﾝｼ","kana_address":"ﾉｲﾁﾁｮｳﾅｶﾉﾑﾗ","pref":"高知県","city":"香南市","address":"野市町中ノ村"},
{"zip_code":"7815203","kana_pref":"ｺｳﾁｹﾝ","kana_city":"ｺｳﾅﾝｼ","kana_address":"ﾉｲﾁﾁｮｳﾅｶﾔﾏﾀﾞ","pref":"高知県","city":"香南市","address":"野市町中山田"},
{"zip_code":"7815223","kana_pref":"ｺｳﾁｹﾝ","kana_city":"ｺｳﾅﾝｼ","kana_address":"ﾉｲﾁﾁｮｳﾆｼｻｺ","pref":"高知県","city":"香南市","address":"野市町西佐古"},
{"zip_code":"7815232","kana_pref":"ｺｳﾁｹﾝ","kana_city":"ｺｳﾅﾝｼ","kana_address":"ﾉｲﾁﾁｮｳﾆｼﾉ","pref":"高知県","city":"香南市","address":"野市町西野"},
{"zip_code":"7815224","kana_pref":"ｺｳﾁｹﾝ","kana_city":"ｺｳﾅﾝｼ","kana_address":"ﾉｲﾁﾁｮｳﾋｶﾞｼｻｺ","pref":"高知県","city":"香南市","address":"野市町東佐古"},
{"zip_code":"7815213","kana_pref":"ｺｳﾁｹﾝ","kana_city":"ｺｳﾅﾝｼ","kana_address":"ﾉｲﾁﾁｮｳﾋｶﾞｼﾉ","pref":"高知県","city":"香南市","address":"野市町東野"},
{"zip_code":"7815231","kana_pref":"ｺｳﾁｹﾝ","kana_city":"ｺｳﾅﾝｼ","kana_address":"ﾉｲﾁﾁｮｳﾌｶﾌﾞﾁ","pref":"高知県","city":"香南市","address":"野市町深渕"},
{"zip_code":"7815221","kana_pref":"ｺｳﾁｹﾝ","kana_city":"ｺｳﾅﾝｼ","kana_address":"ﾉｲﾁﾁｮｳﾌﾞﾖｳｼﾞ","pref":"高知県","city":"香南市","address":"野市町父養寺"},
{"zip_code":"7815222","kana_pref":"ｺｳﾁｹﾝ","kana_city":"ｺｳﾅﾝｼ","kana_address":"ﾉｲﾁﾁｮｳﾎﾞﾀﾞｲｼﾞ","pref":"高知県","city":"香南市","address":"野市町母代寺"},
{"zip_code":"7815201","kana_pref":"ｺｳﾁｹﾝ","kana_city":"ｺｳﾅﾝｼ","kana_address":"ﾉｲﾁﾁｮｳﾎﾝﾑﾗ","pref":"高知県","city":"香南市","address":"野市町本村"},
{"zip_code":"7815206","kana_pref":"ｺｳﾁｹﾝ","kana_city":"ｺｳﾅﾝｼ","kana_address":"ﾉｲﾁﾁｮｳﾐﾄﾞﾘﾉ","pref":"高知県","city":"香南市","address":"野市町みどり野"},
{"zip_code":"7815205","kana_pref":"ｺｳﾁｹﾝ","kana_city":"ｺｳﾅﾝｼ","kana_address":"ﾉｲﾁﾁｮｳﾐﾄﾞﾘﾉﾋｶﾞｼ","pref":"高知県","city":"香南市","address":"野市町みどり野東"},
{"zip_code":"7815604","kana_pref":"ｺｳﾁｹﾝ","kana_city":"ｺｳﾅﾝｼ","kana_address":"ﾔｽﾁｮｳｲﾃﾞｸﾞﾁ","pref":"高知県","city":"香南市","address":"夜須町出口"},
{"zip_code":"7815606","kana_pref":"ｺｳﾁｹﾝ","kana_city":"ｺｳﾅﾝｼ","kana_address":"ﾔｽﾁｮｳｶﾐﾔｽ","pref":"高知県","city":"香南市","address":"夜須町上夜須"},
{"zip_code":"7815613","kana_pref":"ｺｳﾁｹﾝ","kana_city":"ｺｳﾅﾝｼ","kana_address":"ﾔｽﾁｮｳｸﾆﾐﾂ","pref":"高知県","city":"香南市","address":"夜須町国光"},
{"zip_code":"7815615","kana_pref":"ｺｳﾁｹﾝ","kana_city":"ｺｳﾅﾝｼ","kana_address":"ﾔｽﾁｮｳｻﾜﾀﾆ","pref":"高知県","city":"香南市","address":"夜須町沢谷"},
{"zip_code":"7815602","kana_pref":"ｺｳﾁｹﾝ","kana_city":"ｺｳﾅﾝｼ","kana_address":"ﾔｽﾁｮｳﾁｷﾞﾚ","pref":"高知県","city":"香南市","address":"夜須町千切"},
{"zip_code":"7815601","kana_pref":"ｺｳﾁｹﾝ","kana_city":"ｺｳﾅﾝｼ","kana_address":"ﾔｽﾁｮｳﾂﾎﾞｲ","pref":"高知県","city":"香南市","address":"夜須町坪井"},
{"zip_code":"7815621","kana_pref":"ｺｳﾁｹﾝ","kana_city":"ｺｳﾅﾝｼ","kana_address":"ﾔｽﾁｮｳﾃｲ","pref":"高知県","city":"香南市","address":"夜須町手結"},
{"zip_code":"7815622","kana_pref":"ｺｳﾁｹﾝ","kana_city":"ｺｳﾅﾝｼ","kana_address":"ﾔｽﾁｮｳﾃｲﾔﾏ","pref":"高知県","city":"香南市","address":"夜須町手結山"},
{"zip_code":"7815605","kana_pref":"ｺｳﾁｹﾝ","kana_city":"ｺｳﾅﾝｼ","kana_address":"ﾔｽﾁｮｳﾄｵﾉｷ","pref":"高知県","city":"香南市","address":"夜須町十ノ木"},
{"zip_code":"7815616","kana_pref":"ｺｳﾁｹﾝ","kana_city":"ｺｳﾅﾝｼ","kana_address":"ﾔｽﾁｮｳﾅｶｷﾞﾔ","pref":"高知県","city":"香南市","address":"夜須町仲木屋"},
{"zip_code":"7815603","kana_pref":"ｺｳﾁｹﾝ","kana_city":"ｺｳﾅﾝｼ","kana_address":"ﾔｽﾁｮｳﾆｼﾔﾏ","pref":"高知県","city":"香南市","address":"夜須町西山"},
{"zip_code":"7815614","kana_pref":"ｺｳﾁｹﾝ","kana_city":"ｺｳﾅﾝｼ","kana_address":"ﾔｽﾁｮｳﾊｵ","pref":"高知県","city":"香南市","address":"夜須町羽尾"},
{"zip_code":"7815612","kana_pref":"ｺｳﾁｹﾝ","kana_city":"ｺｳﾅﾝｼ","kana_address":"ﾔｽﾁｮｳﾎｿｶﾜ","pref":"高知県","city":"香南市","address":"夜須町細川"},
{"zip_code":"7815611","kana_pref":"ｺｳﾁｹﾝ","kana_city":"ｺｳﾅﾝｼ","kana_address":"ﾔｽﾁｮｳﾔｽｶﾞﾜ","pref":"高知県","city":"香南市","address":"夜須町夜須川"},
{"zip_code":"7815242","kana_pref":"ｺｳﾁｹﾝ","kana_city":"ｺｳﾅﾝｼ","kana_address":"ﾖｼｶﾜﾁｮｳﾌﾙｶﾜ","pref":"高知県","city":"香南市","address":"吉川町古川"},
{"zip_code":"7815241","kana_pref":"ｺｳﾁｹﾝ","kana_city":"ｺｳﾅﾝｼ","kana_address":"ﾖｼｶﾜﾁｮｳﾖｼﾊﾗ","pref":"高知県","city":"香南市","address":"吉川町吉原"},
{"zip_code":"7814223","kana_pref":"ｺｳﾁｹﾝ","kana_city":"ｶﾐｼ","kana_address":"ｶﾎｸﾁｮｳｱﾗｶﾜ","pref":"高知県","city":"香美市","address":"香北町有川"},
{"zip_code":"7814224","kana_pref":"ｺｳﾁｹﾝ","kana_city":"ｶﾐｼ","kana_address":"ｶﾎｸﾁｮｳｱﾗｾ","pref":"高知県","city":"香美市","address":"香北町有瀬"},
{"zip_code":"7814222","kana_pref":"ｺｳﾁｹﾝ","kana_city":"ｶﾐｼ","kana_address":"ｶﾎｸﾁｮｳｲｵﾛｲ","pref":"高知県","city":"香美市","address":"香北町五百蔵"},
{"zip_code":"7814247","kana_pref":"ｺｳﾁｹﾝ","kana_city":"ｶﾐｼ","kana_address":"ｶﾎｸﾁｮｳｲﾉﾉ","pref":"高知県","city":"香美市","address":"香北町猪野々"},
{"zip_code":"7814215","kana_pref":"ｺｳﾁｹﾝ","kana_city":"ｶﾐｼ","kana_address":"ｶﾎｸﾁｮｳｲﾜｶｲ","pref":"高知県","city":"香美市","address":"香北町岩改"},
{"zip_code":"7814243","kana_pref":"ｺｳﾁｹﾝ","kana_city":"ｶﾐｼ","kana_address":"ｶﾎｸﾁｮｳｳﾒﾉｸﾎﾞ","pref":"高知県","city":"香美市","address":"香北町梅久保"},
{"zip_code":"7814241","kana_pref":"ｺｳﾁｹﾝ","kana_city":"ｶﾐｼ","kana_address":"ｶﾎｸﾁｮｳｵｵｲﾀﾞｲﾗ","pref":"高知県","city":"香美市","address":"香北町大井平"},
{"zip_code":"7814242","kana_pref":"ｺｳﾁｹﾝ","kana_city":"ｶﾐｼ","kana_address":"ｶﾎｸﾁｮｳｵｵﾂｶ","pref":"高知県","city":"香美市","address":"香北町大束"},
{"zip_code":"7814206","kana_pref":"ｺｳﾁｹﾝ","kana_city":"ｶﾐｼ","kana_address":"ｶﾎｸﾁｮｳｵｶﾞﾜ","pref":"高知県","city":"香美市","address":"香北町小川"},
{"zip_code":"7814227","kana_pref":"ｺｳﾁｹﾝ","kana_city":"ｶﾐｼ","kana_address":"ｶﾎｸﾁｮｳｶﾜﾉｳﾁ","pref":"高知県","city":"香美市","address":"香北町川ノ内"},
{"zip_code":"7814226","kana_pref":"ｺｳﾁｹﾝ","kana_city":"ｶﾐｼ","kana_address":"ｶﾎｸﾁｮｳｺｳﾉ","pref":"高知県","city":"香美市","address":"香北町河野"},
{"zip_code":"7814213","kana_pref":"ｺｳﾁｹﾝ","kana_city":"ｶﾐｼ","kana_address":"ｶﾎｸﾁｮｳｼﾓﾉｼﾞﾘ","pref":"高知県","city":"香美市","address":"香北町下野尻"},
{"zip_code":"7814203","kana_pref":"ｺｳﾁｹﾝ","kana_city":"ｶﾐｼ","kana_address":"ｶﾎｸﾁｮｳｼﾗｲｼ","pref":"高知県","city":"香美市","address":"香北町白石"},
{"zip_code":"7814221","kana_pref":"ｺｳﾁｹﾝ","kana_city":"ｶﾐｼ","kana_address":"ｶﾎｸﾁｮｳｼﾗｶﾜ","pref":"高知県","city":"香美市","address":"香北町白川"},
{"zip_code":"7814245","kana_pref":"ｺｳﾁｹﾝ","kana_city":"ｶﾐｼ","kana_address":"ｶﾎｸﾁｮｳｾｲﾂﾞﾒ","pref":"高知県","city":"香美市","address":"香北町清爪"},
{"zip_code":"7814232","kana_pref":"ｺｳﾁｹﾝ","kana_city":"ｶﾐｼ","kana_address":"ｶﾎｸﾁｮｳﾀﾆｱｲ","pref":"高知県","city":"香美市","address":"香北町谷相"},
{"zip_code":"7814214","kana_pref":"ｺｳﾁｹﾝ","kana_city":"ｶﾐｼ","kana_address":"ｶﾎｸﾁｮｳﾀﾛﾏﾙ","pref":"高知県","city":"香美市","address":"香北町太郎丸"},
{"zip_code":"7814201","kana_pref":"ｺｳﾁｹﾝ","kana_city":"ｶﾐｼ","kana_address":"ｶﾎｸﾁｮｳﾅｶﾞｾ","pref":"高知県","city":"香美市","address":"香北町永瀬"},
{"zip_code":"7814233","kana_pref":"ｺｳﾁｹﾝ","kana_city":"ｶﾐｼ","kana_address":"ｶﾎｸﾁｮｳﾅｶﾀﾆ","pref":"高知県","city":"香美市","address":"香北町中谷"},
{"zip_code":"7814236","kana_pref":"ｺｳﾁｹﾝ","kana_city":"ｶﾐｼ","kana_address":"ｶﾎｸﾁｮｳﾅｶﾞﾉ","pref":"高知県","city":"香美市","address":"香北町永野"},
{"zip_code":"7814208","kana_pref":"ｺｳﾁｹﾝ","kana_city":"ｶﾐｼ","kana_address":"ｶﾎｸﾁｮｳﾆｼｶﾞﾜｺｳ","pref":"高知県","city":"香美市","address":"香北町西川甲"},
{"zip_code":"7814207","kana_pref":"ｺｳﾁｹﾝ","kana_city":"ｶﾐｼ","kana_address":"ｶﾎｸﾁｮｳﾆｼｶﾞﾜｵﾂ","pref":"高知県","city":"香美市","address":"香北町西川乙"},
{"zip_code":"7814225","kana_pref":"ｺｳﾁｹﾝ","kana_city":"ｶﾐｼ","kana_address":"ｶﾎｸﾁｮｳﾆｼﾉﾐﾈ","pref":"高知県","city":"香美市","address":"香北町西峯"},
{"zip_code":"7814211","kana_pref":"ｺｳﾁｹﾝ","kana_city":"ｶﾐｼ","kana_address":"ｶﾎｸﾁｮｳﾆﾛｳﾉ","pref":"高知県","city":"香美市","address":"香北町韮生野"},
{"zip_code":"7814204","kana_pref":"ｺｳﾁｹﾝ","kana_city":"ｶﾐｼ","kana_address":"ｶﾎｸﾁｮｳﾈｽﾞ","pref":"高知県","city":"香美市","address":"香北町根須"},
{"zip_code":"7814216","kana_pref":"ｺｳﾁｹﾝ","kana_city":"ｶﾐｼ","kana_address":"ｶﾎｸﾁｮｳﾊｷﾞﾉ","pref":"高知県","city":"香美市","address":"香北町萩野"},
{"zip_code":"7814217","kana_pref":"ｺｳﾁｹﾝ","kana_city":"ｶﾐｼ","kana_address":"ｶﾎｸﾁｮｳﾊｼｶﾜﾉ","pref":"高知県","city":"香美市","address":"香北町橋川野"},
{"zip_code":"7814244","kana_pref":"ｺｳﾁｹﾝ","kana_city":"ｶﾐｼ","kana_address":"ｶﾎｸﾁｮｳﾋｳﾗｺﾞﾐ","pref":"高知県","city":"香美市","address":"香北町日浦込"},
{"zip_code":"7814231","kana_pref":"ｺｳﾁｹﾝ","kana_city":"ｶﾐｼ","kana_address":"ｶﾎｸﾁｮｳﾋﾉﾐｺ","pref":"高知県","city":"香美市","address":"香北町日ノ御子"},
{"zip_code":"7814246","kana_pref":"ｺｳﾁｹﾝ","kana_city":"ｶﾐｼ","kana_address":"ｶﾎｸﾁｮｳﾋﾋﾞﾊﾗ","pref":"高知県","city":"香美市","address":"香北町日比原"},
{"zip_code":"7814212","kana_pref":"ｺｳﾁｹﾝ","kana_city":"ｶﾐｼ","kana_address":"ｶﾎｸﾁｮｳﾋﾞﾗﾌ","pref":"高知県","city":"香美市","address":"香北町美良布"},
{"zip_code":"7814235","kana_pref":"ｺｳﾁｹﾝ","kana_city":"ｶﾐｼ","kana_address":"ｶﾎｸﾁｮｳﾎｳﾉｷ","pref":"高知県","city":"香美市","address":"香北町朴ノ木"},
{"zip_code":"7814234","kana_pref":"ｺｳﾁｹﾝ","kana_city":"ｶﾐｼ","kana_address":"ｶﾎｸﾁｮｳﾖｺﾀﾆ","pref":"高知県","city":"香美市","address":"香北町横谷"},
{"zip_code":"7814205","kana_pref":"ｺｳﾁｹﾝ","kana_city":"ｶﾐｼ","kana_address":"ｶﾎｸﾁｮｳﾖｼﾉ","pref":"高知県","city":"香美市","address":"香北町吉野"},
{"zip_code":"7814202","kana_pref":"ｺｳﾁｹﾝ","kana_city":"ｶﾐｼ","kana_address":"ｶﾎｸﾁｮｳﾜﾗﾋﾞﾉ","pref":"高知県","city":"香美市","address":"香北町蕨野"},
{"zip_code":"7814643","kana_pref":"ｺｳﾁｹﾝ","kana_city":"ｶﾐｼ","kana_address":"ﾓﾉﾍﾞﾁｮｳｲﾁｳ","pref":"高知県","city":"香美市","address":"物部町市宇"},
{"zip_code":"7814401","kana_pref":"ｺｳﾁｹﾝ","kana_city":"ｶﾐｼ","kana_address":"ﾓﾉﾍﾞﾁｮｳｵｵﾄﾞﾁ","pref":"高知県","city":"香美市","address":"物部町大栃"},
{"zip_code":"7814528","kana_pref":"ｺｳﾁｹﾝ","kana_city":"ｶﾐｼ","kana_address":"ﾓﾉﾍﾞﾁｮｳｵｵﾆｼ","pref":"高知県","city":"香美市","address":"物部町大西"},
{"zip_code":"7814641","kana_pref":"ｺｳﾁｹﾝ","kana_city":"ｶﾐｼ","kana_address":"ﾓﾉﾍﾞﾁｮｳｵｶﾉｳﾁ","pref":"高知県","city":"香美市","address":"物部町岡ノ内"},
{"zip_code":"7814403","kana_pref":"ｺｳﾁｹﾝ","kana_city":"ｶﾐｼ","kana_address":"ﾓﾉﾍﾞﾁｮｳｵｽﾀﾞﾆ","pref":"高知県","city":"香美市","address":"物部町押谷"},
{"zip_code":"7814524","kana_pref":"ｺｳﾁｹﾝ","kana_city":"ｶﾐｼ","kana_address":"ﾓﾉﾍﾞﾁｮｳｶｼﾞｻｺ","pref":"高知県","city":"香美市","address":"物部町楮佐古"},
{"zip_code":"7814523","kana_pref":"ｺｳﾁｹﾝ","kana_city":"ｶﾐｼ","kana_address":"ﾓﾉﾍﾞﾁｮｳｶﾐｲｹ","pref":"高知県","city":"香美市","address":"物部町神池"},
{"zip_code":"7814531","kana_pref":"ｺｳﾁｹﾝ","kana_city":"ｶﾐｼ","kana_address":"ﾓﾉﾍﾞﾁｮｳｸﾎﾞ","pref":"高知県","city":"香美市","address":"物部町久保"},
{"zip_code":"7814522","kana_pref":"ｺｳﾁｹﾝ","kana_city":"ｶﾐｼ","kana_address":"ﾓﾉﾍﾞﾁｮｳｸﾛﾀﾞｲ","pref":"高知県","city":"香美市","address":"物部町黒代"},
{"zip_code":"7814526","kana_pref":"ｺｳﾁｹﾝ","kana_city":"ｶﾐｼ","kana_address":"ﾓﾉﾍﾞﾁｮｳｺﾞｵﾄﾞｳ","pref":"高知県","city":"香美市","address":"物部町五王堂"},
{"zip_code":"7814404","kana_pref":"ｺｳﾁｹﾝ","kana_city":"ｶﾐｼ","kana_address":"ﾓﾉﾍﾞﾁｮｳｺﾊﾏ","pref":"高知県","city":"香美市","address":"物部町小浜"},
{"zip_code":"7814530","kana_pref":"ｺｳﾁｹﾝ","kana_city":"ｶﾐｼ","kana_address":"ﾓﾉﾍﾞﾁｮｳｻｻ","pref":"高知県","city":"香美市","address":"物部町笹"},
{"zip_code":"7814413","kana_pref":"ｺｳﾁｹﾝ","kana_city":"ｶﾐｼ","kana_address":"ﾓﾉﾍﾞﾁｮｳｼｮｳﾀﾞﾆｱｲ","pref":"高知県","city":"香美市","address":"物部町庄谷相"},
{"zip_code":"7814406","kana_pref":"ｺｳﾁｹﾝ","kana_city":"ｶﾐｼ","kana_address":"ﾓﾉﾍﾞﾁｮｳｾﾝﾄﾞｳ","pref":"高知県","city":"香美市","address":"物部町仙頭"},
{"zip_code":"7814412","kana_pref":"ｺｳﾁｹﾝ","kana_city":"ｶﾐｼ","kana_address":"ﾓﾉﾍﾞﾁｮｳﾂﾌﾞｾ","pref":"高知県","city":"香美市","address":"物部町拓"},
{"zip_code":"7814414","kana_pref":"ｺｳﾁｹﾝ","kana_city":"ｶﾐｼ","kana_address":"ﾓﾉﾍﾞﾁｮｳﾄﾝｼﾞｮｳ","pref":"高知県","city":"香美市","address":"物部町頓定"},
{"zip_code":"7814529","kana_pref":"ｺｳﾁｹﾝ","kana_city":"ｶﾐｼ","kana_address":"ﾓﾉﾍﾞﾁｮｳﾅｶｳｴ","pref":"高知県","city":"香美市","address":"物部町中上"},
{"zip_code":"7814411","kana_pref":"ｺｳﾁｹﾝ","kana_city":"ｶﾐｼ","kana_address":"ﾓﾉﾍﾞﾁｮｳﾅｶﾀﾆｶﾞﾜ","pref":"高知県","city":"香美市","address":"物部町中谷川"},
{"zip_code":"7814405","kana_pref":"ｺｳﾁｹﾝ","kana_city":"ｶﾐｼ","kana_address":"ﾓﾉﾍﾞﾁｮｳﾈｷﾔ","pref":"高知県","city":"香美市","address":"物部町根木屋"},
{"zip_code":"7814642","kana_pref":"ｺｳﾁｹﾝ","kana_city":"ｶﾐｼ","kana_address":"ﾓﾉﾍﾞﾁｮｳﾍﾞｯﾁｬｸ","pref":"高知県","city":"香美市","address":"物部町別役"},
{"zip_code":"7814644","kana_pref":"ｺｳﾁｹﾝ","kana_city":"ｶﾐｼ","kana_address":"ﾓﾉﾍﾞﾁｮｳﾍﾞﾌ","pref":"高知県","city":"香美市","address":"物部町別府"},
{"zip_code":"7814415","kana_pref":"ｺｳﾁｹﾝ","kana_city":"ｶﾐｼ","kana_address":"ﾓﾉﾍﾞﾁｮｳﾏｲｶﾜ","pref":"高知県","city":"香美市","address":"物部町舞川"},
{"zip_code":"7814527","kana_pref":"ｺｳﾁｹﾝ","kana_city":"ｶﾐｼ","kana_address":"ﾓﾉﾍﾞﾁｮｳﾐﾅﾐｲｹ","pref":"高知県","city":"香美市","address":"物部町南池"},
{"zip_code":"7814521","kana_pref":"ｺｳﾁｹﾝ","kana_city":"ｶﾐｼ","kana_address":"ﾓﾉﾍﾞﾁｮｳﾔｽﾏﾙ","pref":"高知県","city":"香美市","address":"物部町安丸"},
{"zip_code":"7814525","kana_pref":"ｺｳﾁｹﾝ","kana_city":"ｶﾐｼ","kana_address":"ﾓﾉﾍﾞﾁｮｳﾔﾅｲｾ","pref":"高知県","city":"香美市","address":"物部町柳瀬"},
{"zip_code":"7814645","kana_pref":"ｺｳﾁｹﾝ","kana_city":"ｶﾐｼ","kana_address":"ﾓﾉﾍﾞﾁｮｳﾔﾏｻｷ","pref":"高知県","city":"香美市","address":"物部町山崎"},
{"zip_code":"7814402","kana_pref":"ｺｳﾁｹﾝ","kana_city":"ｶﾐｼ","kana_address":"ﾓﾉﾍﾞﾁｮｳﾔﾏｻｷ","pref":"高知県","city":"香美市","address":"物部町山崎"},
{"zip_code":"7817300","kana_pref":"ｺｳﾁｹﾝ","kana_city":"ｱｷｸﾞﾝﾄｳﾖｳﾁｮｳ","kana_address":"","pref":"高知県","city":"安芸郡東洋町","address":""},
{"zip_code":"7817414","kana_pref":"ｺｳﾁｹﾝ","kana_city":"ｱｷｸﾞﾝﾄｳﾖｳﾁｮｳ","kana_address":"ｲｸﾐ","pref":"高知県","city":"安芸郡東洋町","address":"生見"},
{"zip_code":"7817412","kana_pref":"ｺｳﾁｹﾝ","kana_city":"ｱｷｸﾞﾝﾄｳﾖｳﾁｮｳ","kana_address":"ｶﾜｳﾁ","pref":"高知県","city":"安芸郡東洋町","address":"河内"},
{"zip_code":"7817411","kana_pref":"ｺｳﾁｹﾝ","kana_city":"ｱｷｸﾞﾝﾄｳﾖｳﾁｮｳ","kana_address":"ｶﾝﾉｳﾗ","pref":"高知県","city":"安芸郡東洋町","address":"甲浦"},
{"zip_code":"7817413","kana_pref":"ｺｳﾁｹﾝ","kana_city":"ｱｷｸﾞﾝﾄｳﾖｳﾁｮｳ","kana_address":"ｼﾗﾊﾏ","pref":"高知県","city":"安芸郡東洋町","address":"白浜"},
{"zip_code":"7817302","kana_pref":"ｺｳﾁｹﾝ","kana_city":"ｱｷｸﾞﾝﾄｳﾖｳﾁｮｳ","kana_address":"ﾉﾈｺｳ","pref":"高知県","city":"安芸郡東洋町","address":"野根甲"},
{"zip_code":"7817304","kana_pref":"ｺｳﾁｹﾝ","kana_city":"ｱｷｸﾞﾝﾄｳﾖｳﾁｮｳ","kana_address":"ﾉﾈｵﾂ","pref":"高知県","city":"安芸郡東洋町","address":"野根乙"},
{"zip_code":"7817301","kana_pref":"ｺｳﾁｹﾝ","kana_city":"ｱｷｸﾞﾝﾄｳﾖｳﾁｮｳ","kana_address":"ﾉﾈﾍｲ","pref":"高知県","city":"安芸郡東洋町","address":"野根丙"},
{"zip_code":"7817303","kana_pref":"ｺｳﾁｹﾝ","kana_city":"ｱｷｸﾞﾝﾄｳﾖｳﾁｮｳ","kana_address":"ﾉﾈﾃｲ","pref":"高知県","city":"安芸郡東洋町","address":"野根丁"},
{"zip_code":"7816400","kana_pref":"ｺｳﾁｹﾝ","kana_city":"ｱｷｸﾞﾝﾅﾊﾘﾁｮｳ","kana_address":"","pref":"高知県","city":"安芸郡奈半利町","address":""},
{"zip_code":"7816401","kana_pref":"ｺｳﾁｹﾝ","kana_city":"ｱｷｸﾞﾝﾅﾊﾘﾁｮｳ","kana_address":"ｺｳ","pref":"高知県","city":"安芸郡奈半利町","address":"甲"},
{"zip_code":"7816402","kana_pref":"ｺｳﾁｹﾝ","kana_city":"ｱｷｸﾞﾝﾅﾊﾘﾁｮｳ","kana_address":"ｵﾂ","pref":"高知県","city":"安芸郡奈半利町","address":"乙"},
{"zip_code":"7816403","kana_pref":"ｺｳﾁｹﾝ","kana_city":"ｱｷｸﾞﾝﾅﾊﾘﾁｮｳ","kana_address":"ﾍｲ","pref":"高知県","city":"安芸郡奈半利町","address":"丙"},
{"zip_code":"7816410","kana_pref":"ｺｳﾁｹﾝ","kana_city":"ｱｷｸﾞﾝﾀﾉﾁｮｳ","kana_address":"ﾀﾉﾁｮｳｲﾁｴﾝ","pref":"高知県","city":"安芸郡田野町","address":"田野町一円"},
{"zip_code":"7816400","kana_pref":"ｺｳﾁｹﾝ","kana_city":"ｱｷｸﾞﾝﾔｽﾀﾞﾁｮｳ","kana_address":"","pref":"高知県","city":"安芸郡安田町","address":""},
{"zip_code":"7816438","kana_pref":"ｺｳﾁｹﾝ","kana_city":"ｱｷｸﾞﾝﾔｽﾀﾞﾁｮｳ","kana_address":"ｵｶﾞﾜ","pref":"高知県","city":"安芸郡安田町","address":"小川"},
{"zip_code":"7816436","kana_pref":"ｺｳﾁｹﾝ","kana_city":"ｱｷｸﾞﾝﾔｽﾀﾞﾁｮｳ","kana_address":"ｾｷﾞﾘ","pref":"高知県","city":"安芸郡安田町","address":"瀬切"},
{"zip_code":"7816424","kana_pref":"ｺｳﾁｹﾝ","kana_city":"ｱｷｸﾞﾝﾔｽﾀﾞﾁｮｳ","kana_address":"ﾀｶﾐ","pref":"高知県","city":"安芸郡安田町","address":"隆見"},
{"zip_code":"7816422","kana_pref":"ｺｳﾁｹﾝ","kana_city":"ｱｷｸﾞﾝﾔｽﾀﾞﾁｮｳ","kana_address":"ﾄｳﾉﾊﾏ","pref":"高知県","city":"安芸郡安田町","address":"唐浜"},
{"zip_code":"7816427","kana_pref":"ｺｳﾁｹﾝ","kana_city":"ｱｷｸﾞﾝﾔｽﾀﾞﾁｮｳ","kana_address":"ﾅｲｷｮｳﾎﾞｳ","pref":"高知県","city":"安芸郡安田町","address":"内京坊"},
{"zip_code":"7816437","kana_pref":"ｺｳﾁｹﾝ","kana_city":"ｱｷｸﾞﾝﾔｽﾀﾞﾁｮｳ","kana_address":"ﾅｶｻﾞﾄ","pref":"高知県","city":"安芸郡安田町","address":"中里"},
{"zip_code":"7816433","kana_pref":"ｺｳﾁｹﾝ","kana_city":"ｱｷｸﾞﾝﾔｽﾀﾞﾁｮｳ","kana_address":"ﾅｶﾉｶﾜ","pref":"高知県","city":"安芸郡安田町","address":"中ノ川"},
{"zip_code":"7816423","kana_pref":"ｺｳﾁｹﾝ","kana_city":"ｱｷｸﾞﾝﾔｽﾀﾞﾁｮｳ","kana_address":"ﾆｼｼﾞﾏ","pref":"高知県","city":"安芸郡安田町","address":"西島"},
{"zip_code":"7816432","kana_pref":"ｺｳﾁｹﾝ","kana_city":"ｱｷｸﾞﾝﾔｽﾀﾞﾁｮｳ","kana_address":"ﾆｼﾉｶﾜ","pref":"高知県","city":"安芸郡安田町","address":"西ノ川"},
{"zip_code":"7816425","kana_pref":"ｺｳﾁｹﾝ","kana_city":"ｱｷｸﾞﾝﾔｽﾀﾞﾁｮｳ","kana_address":"ﾋｶﾞｼｼﾞﾏ","pref":"高知県","city":"安芸郡安田町","address":"東島"},
{"zip_code":"7816439","kana_pref":"ｺｳﾁｹﾝ","kana_city":"ｱｷｸﾞﾝﾔｽﾀﾞﾁｮｳ","kana_address":"ﾋﾋﾞｲﾘ","pref":"高知県","city":"安芸郡安田町","address":"日々入"},
{"zip_code":"7816435","kana_pref":"ｺｳﾁｹﾝ","kana_city":"ｱｷｸﾞﾝﾔｽﾀﾞﾁｮｳ","kana_address":"ﾌﾅｸﾗ","pref":"高知県","city":"安芸郡安田町","address":"船倉"},
{"zip_code":"7816431","kana_pref":"ｺｳﾁｹﾝ","kana_city":"ｱｷｸﾞﾝﾔｽﾀﾞﾁｮｳ","kana_address":"ﾍﾞｯｼﾖ","pref":"高知県","city":"安芸郡安田町","address":"別所"},
{"zip_code":"7816426","kana_pref":"ｺｳﾁｹﾝ","kana_city":"ｱｷｸﾞﾝﾔｽﾀﾞﾁｮｳ","kana_address":"ﾏｹﾞ","pref":"高知県","city":"安芸郡安田町","address":"間下"},
{"zip_code":"7816430","kana_pref":"ｺｳﾁｹﾝ","kana_city":"ｱｷｸﾞﾝﾔｽﾀﾞﾁｮｳ","kana_address":"ﾏｻﾋﾛ","pref":"高知県","city":"安芸郡安田町","address":"正弘"},
{"zip_code":"7816421","kana_pref":"ｺｳﾁｹﾝ","kana_city":"ｱｷｸﾞﾝﾔｽﾀﾞﾁｮｳ","kana_address":"ﾔｽﾀﾞ","pref":"高知県","city":"安芸郡安田町","address":"安田"},
{"zip_code":"7816434","kana_pref":"ｺｳﾁｹﾝ","kana_city":"ｱｷｸﾞﾝﾔｽﾀﾞﾁｮｳ","kana_address":"ﾖﾄﾞｺ","pref":"高知県","city":"安芸郡安田町","address":"与床"},
{"zip_code":"7816400","kana_pref":"ｺｳﾁｹﾝ","kana_city":"ｱｷｸﾞﾝｷﾀｶﾞﾜﾑﾗ","kana_address":"","pref":"高知県","city":"安芸郡北川村","address":""},
{"zip_code":"7816458","kana_pref":"ｺｳﾁｹﾝ","kana_city":"ｱｷｸﾞﾝｷﾀｶﾞﾜﾑﾗ","kana_address":"ｱｸﾞﾗ","pref":"高知県","city":"安芸郡北川村","address":"安倉"},
{"zip_code":"7816449","kana_pref":"ｺｳﾁｹﾝ","kana_city":"ｱｷｸﾞﾝｷﾀｶﾞﾜﾑﾗ","kana_address":"ｶｼﾜｷﾞ","pref":"高知県","city":"安芸郡北川村","address":"柏木"},
{"zip_code":"7816443","kana_pref":"ｺｳﾁｹﾝ","kana_city":"ｱｷｸﾞﾝｷﾀｶﾞﾜﾑﾗ","kana_address":"ｶﾓ","pref":"高知県","city":"安芸郡北川村","address":"加茂"},
{"zip_code":"7816455","kana_pref":"ｺｳﾁｹﾝ","kana_city":"ｱｷｸﾞﾝｷﾀｶﾞﾜﾑﾗ","kana_address":"ｸｴﾉｳｴ","pref":"高知県","city":"安芸郡北川村","address":"久江ノ上"},
{"zip_code":"7816456","kana_pref":"ｺｳﾁｹﾝ","kana_city":"ｱｷｸﾞﾝｷﾀｶﾞﾜﾑﾗ","kana_address":"ｸｷ","pref":"高知県","city":"安芸郡北川村","address":"久木"},
{"zip_code":"7816451","kana_pref":"ｺｳﾁｹﾝ","kana_city":"ｱｷｸﾞﾝｷﾀｶﾞﾜﾑﾗ","kana_address":"ｺｼﾏ","pref":"高知県","city":"安芸郡北川村","address":"小島"},
{"zip_code":"7816447","kana_pref":"ｺｳﾁｹﾝ","kana_city":"ｱｷｸﾞﾝｷﾀｶﾞﾜﾑﾗ","kana_address":"ｺﾂﾓ","pref":"高知県","city":"安芸郡北川村","address":"木積"},
{"zip_code":"7816454","kana_pref":"ｺｳﾁｹﾝ","kana_city":"ｱｷｸﾞﾝｷﾀｶﾞﾜﾑﾗ","kana_address":"ｼﾏ","pref":"高知県","city":"安芸郡北川村","address":"島"},
{"zip_code":"7816459","kana_pref":"ｺｳﾁｹﾝ","kana_city":"ｱｷｸﾞﾝｷﾀｶﾞﾜﾑﾗ","kana_address":"ｽｹﾞﾉｳｴ","pref":"高知県","city":"安芸郡北川村","address":"菅ノ上"},
{"zip_code":"7816448","kana_pref":"ｺｳﾁｹﾝ","kana_city":"ｱｷｸﾞﾝｷﾀｶﾞﾜﾑﾗ","kana_address":"ｿｳﾉｳｴ","pref":"高知県","city":"安芸郡北川村","address":"宗ノ上"},
{"zip_code":"7816460","kana_pref":"ｺｳﾁｹﾝ","kana_city":"ｱｷｸﾞﾝｷﾀｶﾞﾜﾑﾗ","kana_address":"ﾀｹﾔｼｷ","pref":"高知県","city":"安芸郡北川村","address":"竹屋敷"},
{"zip_code":"7816445","kana_pref":"ｺｳﾁｹﾝ","kana_city":"ｱｷｸﾞﾝｷﾀｶﾞﾜﾑﾗ","kana_address":"ﾅｶﾞﾔﾏ","pref":"高知県","city":"安芸郡北川村","address":"長山"},
{"zip_code":"7816446","kana_pref":"ｺｳﾁｹﾝ","kana_city":"ｱｷｸﾞﾝｷﾀｶﾞﾜﾑﾗ","kana_address":"ﾆｼﾀﾞﾆ","pref":"高知県","city":"安芸郡北川村","address":"西谷"},
{"zip_code":"7816444","kana_pref":"ｺｳﾁｹﾝ","kana_city":"ｱｷｸﾞﾝｷﾀｶﾞﾜﾑﾗ","kana_address":"ﾉｶﾞﾜ","pref":"高知県","city":"安芸郡北川村","address":"野川"},
{"zip_code":"7816441","kana_pref":"ｺｳﾁｹﾝ","kana_city":"ｱｷｸﾞﾝｷﾀｶﾞﾜﾑﾗ","kana_address":"ﾉﾄﾓｺｳ","pref":"高知県","city":"安芸郡北川村","address":"野友甲"},
{"zip_code":"7816442","kana_pref":"ｺｳﾁｹﾝ","kana_city":"ｱｷｸﾞﾝｷﾀｶﾞﾜﾑﾗ","kana_address":"ﾉﾄﾓｵﾂ","pref":"高知県","city":"安芸郡北川村","address":"野友乙"},
{"zip_code":"7816452","kana_pref":"ｺｳﾁｹﾝ","kana_city":"ｱｷｸﾞﾝｷﾀｶﾞﾜﾑﾗ","kana_address":"ﾋﾗﾅﾍﾞ","pref":"高知県","city":"安芸郡北川村","address":"平鍋"},
{"zip_code":"7816457","kana_pref":"ｺｳﾁｹﾝ","kana_city":"ｱｷｸﾞﾝｷﾀｶﾞﾜﾑﾗ","kana_address":"ﾋﾛｾ","pref":"高知県","city":"安芸郡北川村","address":"弘瀬"},
{"zip_code":"7816453","kana_pref":"ｺｳﾁｹﾝ","kana_city":"ｱｷｸﾞﾝｷﾀｶﾞﾜﾑﾗ","kana_address":"ﾌﾀﾏﾀ","pref":"高知県","city":"安芸郡北川村","address":"二タ又"},
{"zip_code":"7816450","kana_pref":"ｺｳﾁｹﾝ","kana_city":"ｱｷｸﾞﾝｷﾀｶﾞﾜﾑﾗ","kana_address":"ﾜﾀﾞ","pref":"高知県","city":"安芸郡北川村","address":"和田"},
{"zip_code":"7816200","kana_pref":"ｺｳﾁｹﾝ","kana_city":"ｱｷｸﾞﾝｳﾏｼﾞﾑﾗ","kana_address":"","pref":"高知県","city":"安芸郡馬路村","address":""},
{"zip_code":"7816201","kana_pref":"ｺｳﾁｹﾝ","kana_city":"ｱｷｸﾞﾝｳﾏｼﾞﾑﾗ","kana_address":"ｳﾏｼﾞ","pref":"高知県","city":"安芸郡馬路村","address":"馬路"},
{"zip_code":"7816202","kana_pref":"ｺｳﾁｹﾝ","kana_city":"ｱｷｸﾞﾝｳﾏｼﾞﾑﾗ","kana_address":"ﾔﾅｾ","pref":"高知県","city":"安芸郡馬路村","address":"魚梁瀬"},
{"zip_code":"7815700","kana_pref":"ｺｳﾁｹﾝ","kana_city":"ｱｷｸﾞﾝｹﾞｲｾｲﾑﾗ","kana_address":"","pref":"高知県","city":"安芸郡芸西村","address":""},
{"zip_code":"7815705","kana_pref":"ｺｳﾁｹﾝ","kana_city":"ｱｷｸﾞﾝｹﾞｲｾｲﾑﾗ","kana_address":"ｳﾏﾉｳｴ","pref":"高知県","city":"安芸郡芸西村","address":"馬ノ上"},
{"zip_code":"7815708","kana_pref":"ｺｳﾁｹﾝ","kana_city":"ｱｷｸﾞﾝｹﾞｲｾｲﾑﾗ","kana_address":"ｸｴ","pref":"高知県","city":"安芸郡芸西村","address":"久重"},
{"zip_code":"7815707","kana_pref":"ｺｳﾁｹﾝ","kana_city":"ｱｷｸﾞﾝｹﾞｲｾｲﾑﾗ","kana_address":"ｸﾆﾐﾂ","pref":"高知県","city":"安芸郡芸西村","address":"国光"},
{"zip_code":"7815706","kana_pref":"ｺｳﾁｹﾝ","kana_city":"ｱｷｸﾞﾝｹﾞｲｾｲﾑﾗ","kana_address":"ﾄﾞｳｹ","pref":"高知県","city":"安芸郡芸西村","address":"道家"},
{"zip_code":"7815703","kana_pref":"ｺｳﾁｹﾝ","kana_city":"ｱｷｸﾞﾝｹﾞｲｾｲﾑﾗ","kana_address":"ﾆｼﾌﾞﾝｺｳ","pref":"高知県","city":"安芸郡芸西村","address":"西分甲"},
{"zip_code":"7815704","kana_pref":"ｺｳﾁｹﾝ","kana_city":"ｱｷｸﾞﾝｹﾞｲｾｲﾑﾗ","kana_address":"ﾆｼﾌﾞﾝｵﾂ","pref":"高知県","city":"安芸郡芸西村","address":"西分乙"},
{"zip_code":"7815701","kana_pref":"ｺｳﾁｹﾝ","kana_city":"ｱｷｸﾞﾝｹﾞｲｾｲﾑﾗ","kana_address":"ﾜｼﾞｷｺｳ","pref":"高知県","city":"安芸郡芸西村","address":"和食甲"},
{"zip_code":"7815702","kana_pref":"ｺｳﾁｹﾝ","kana_city":"ｱｷｸﾞﾝｹﾞｲｾｲﾑﾗ","kana_address":"ﾜｼﾞｷｵﾂ","pref":"高知県","city":"安芸郡芸西村","address":"和食乙"},
{"zip_code":"7813600","kana_pref":"ｺｳﾁｹﾝ","kana_city":"ﾅｶﾞｵｶｸﾞﾝﾓﾄﾔﾏﾁｮｳ","kana_address":"","pref":"高知県","city":"長岡郡本山町","address":""},
{"zip_code":"7813604","kana_pref":"ｺｳﾁｹﾝ","kana_city":"ﾅｶﾞｵｶｸﾞﾝﾓﾄﾔﾏﾁｮｳ","kana_address":"ｲﾉｸﾎﾞ","pref":"高知県","city":"長岡郡本山町","address":"井窪"},
{"zip_code":"7813623","kana_pref":"ｺｳﾁｹﾝ","kana_city":"ﾅｶﾞｵｶｸﾞﾝﾓﾄﾔﾏﾁｮｳ","kana_address":"ｳﾘｳﾉ","pref":"高知県","city":"長岡郡本山町","address":"瓜生野"},
{"zip_code":"7813602","kana_pref":"ｺｳﾁｹﾝ","kana_city":"ﾅｶﾞｵｶｸﾞﾝﾓﾄﾔﾏﾁｮｳ","kana_address":"ｵｵｲｼ","pref":"高知県","city":"長岡郡本山町","address":"大石"},
{"zip_code":"7813611","kana_pref":"ｺｳﾁｹﾝ","kana_city":"ﾅｶﾞｵｶｸﾞﾝﾓﾄﾔﾏﾁｮｳ","kana_address":"ｶﾐｾﾞｷｺｳ","pref":"高知県","city":"長岡郡本山町","address":"上関甲"},
{"zip_code":"7813612","kana_pref":"ｺｳﾁｹﾝ","kana_city":"ﾅｶﾞｵｶｸﾞﾝﾓﾄﾔﾏﾁｮｳ","kana_address":"ｶﾐｾﾞｷｵﾂ","pref":"高知県","city":"長岡郡本山町","address":"上関乙"},
{"zip_code":"7813613","kana_pref":"ｺｳﾁｹﾝ","kana_city":"ﾅｶﾞｵｶｸﾞﾝﾓﾄﾔﾏﾁｮｳ","kana_address":"ｷﾀﾔﾏｺｳ","pref":"高知県","city":"長岡郡本山町","address":"北山甲"},
{"zip_code":"7813614","kana_pref":"ｺｳﾁｹﾝ","kana_city":"ﾅｶﾞｵｶｸﾞﾝﾓﾄﾔﾏﾁｮｳ","kana_address":"ｷﾀﾔﾏｵﾂ","pref":"高知県","city":"長岡郡本山町","address":"北山乙"},
{"zip_code":"7813615","kana_pref":"ｺｳﾁｹﾝ","kana_city":"ﾅｶﾞｵｶｸﾞﾝﾓﾄﾔﾏﾁｮｳ","kana_address":"ｷﾀﾔﾏﾍｲ","pref":"高知県","city":"長岡郡本山町","address":"北山丙"},
{"zip_code":"7813608","kana_pref":"ｺｳﾁｹﾝ","kana_city":"ﾅｶﾞｵｶｸﾞﾝﾓﾄﾔﾏﾁｮｳ","kana_address":"ｷﾉｳﾂﾞ","pref":"高知県","city":"長岡郡本山町","address":"木能津"},
{"zip_code":"7813620","kana_pref":"ｺｳﾁｹﾝ","kana_city":"ﾅｶﾞｵｶｸﾞﾝﾓﾄﾔﾏﾁｮｳ","kana_address":"ｻｶﾓﾄ","pref":"高知県","city":"長岡郡本山町","address":"坂本"},
{"zip_code":"7813617","kana_pref":"ｺｳﾁｹﾝ","kana_city":"ﾅｶﾞｵｶｸﾞﾝﾓﾄﾔﾏﾁｮｳ","kana_address":"ｼﾞｹ","pref":"高知県","city":"長岡郡本山町","address":"寺家"},
{"zip_code":"7813610","kana_pref":"ｺｳﾁｹﾝ","kana_city":"ﾅｶﾞｵｶｸﾞﾝﾓﾄﾔﾏﾁｮｳ","kana_address":"ｼﾓｾﾞｷ","pref":"高知県","city":"長岡郡本山町","address":"下関"},
{"zip_code":"7813605","kana_pref":"ｺｳﾁｹﾝ","kana_city":"ﾅｶﾞｵｶｸﾞﾝﾓﾄﾔﾏﾁｮｳ","kana_address":"ｼﾓﾂﾉ","pref":"高知県","city":"長岡郡本山町","address":"下津野"},
{"zip_code":"7813609","kana_pref":"ｺｳﾁｹﾝ","kana_city":"ﾅｶﾞｵｶｸﾞﾝﾓﾄﾔﾏﾁｮｳ","kana_address":"ｽｹﾄｳ","pref":"高知県","city":"長岡郡本山町","address":"助藤"},
{"zip_code":"7813622","kana_pref":"ｺｳﾁｹﾝ","kana_city":"ﾅｶﾞｵｶｸﾞﾝﾓﾄﾔﾏﾁｮｳ","kana_address":"ｿｳｶﾞｳﾁ","pref":"高知県","city":"長岡郡本山町","address":"沢ケ内"},
{"zip_code":"7813606","kana_pref":"ｺｳﾁｹﾝ","kana_city":"ﾅｶﾞｵｶｸﾞﾝﾓﾄﾔﾏﾁｮｳ","kana_address":"ﾀｶﾂﾉ","pref":"高知県","city":"長岡郡本山町","address":"高角"},
{"zip_code":"7813619","kana_pref":"ｺｳﾁｹﾝ","kana_city":"ﾅｶﾞｵｶｸﾞﾝﾓﾄﾔﾏﾁｮｳ","kana_address":"ﾀﾁﾉ","pref":"高知県","city":"長岡郡本山町","address":"立野"},
{"zip_code":"7813624","kana_pref":"ｺｳﾁｹﾝ","kana_city":"ﾅｶﾞｵｶｸﾞﾝﾓﾄﾔﾏﾁｮｳ","kana_address":"ﾅﾅﾄ","pref":"高知県","city":"長岡郡本山町","address":"七戸"},
{"zip_code":"7813607","kana_pref":"ｺｳﾁｹﾝ","kana_city":"ﾅｶﾞｵｶｸﾞﾝﾓﾄﾔﾏﾁｮｳ","kana_address":"ﾌﾙﾀ","pref":"高知県","city":"長岡郡本山町","address":"古田"},
{"zip_code":"7813601","kana_pref":"ｺｳﾁｹﾝ","kana_city":"ﾅｶﾞｵｶｸﾞﾝﾓﾄﾔﾏﾁｮｳ","kana_address":"ﾓﾄﾔﾏ","pref":"高知県","city":"長岡郡本山町","address":"本山"},
{"zip_code":"7813621","kana_pref":"ｺｳﾁｹﾝ","kana_city":"ﾅｶﾞｵｶｸﾞﾝﾓﾄﾔﾏﾁｮｳ","kana_address":"ﾔﾄｺﾛ","pref":"高知県","city":"長岡郡本山町","address":"屋所"},
{"zip_code":"7813618","kana_pref":"ｺｳﾁｹﾝ","kana_city":"ﾅｶﾞｵｶｸﾞﾝﾓﾄﾔﾏﾁｮｳ","kana_address":"ﾖｼﾉ","pref":"高知県","city":"長岡郡本山町","address":"吉野"},
{"zip_code":"7813603","kana_pref":"ｺｳﾁｹﾝ","kana_city":"ﾅｶﾞｵｶｸﾞﾝﾓﾄﾔﾏﾁｮｳ","kana_address":"ﾖｼﾉﾌﾞ","pref":"高知県","city":"長岡郡本山町","address":"吉延"},
{"zip_code":"7813400","kana_pref":"ｺｳﾁｹﾝ","kana_city":"ﾄｻｸﾞﾝﾄｻﾁｮｳ","kana_address":"","pref":"高知県","city":"土佐郡土佐町","address":""},
{"zip_code":"7813408","kana_pref":"ｺｳﾁｹﾝ","kana_city":"ﾄｻｸﾞﾝﾄｻﾁｮｳ","kana_address":"ｱｲｶﾜ","pref":"高知県","city":"土佐郡土佐町","address":"相川"},
{"zip_code":"7813336","kana_pref":"ｺｳﾁｹﾝ","kana_city":"ﾄｻｸﾞﾝﾄｻﾁｮｳ","kana_address":"ｱｸﾀｶﾞﾜ","pref":"高知県","city":"土佐郡土佐町","address":"芥川"},
{"zip_code":"7813335","kana_pref":"ｺｳﾁｹﾝ","kana_city":"ﾄｻｸﾞﾝﾄｻﾁｮｳ","kana_address":"ｱﾘﾏ","pref":"高知県","city":"土佐郡土佐町","address":"有間"},
{"zip_code":"7813524","kana_pref":"ｺｳﾁｹﾝ","kana_city":"ﾄｻｸﾞﾝﾄｻﾁｮｳ","kana_address":"ｲｼﾞﾘ","pref":"高知県","city":"土佐郡土佐町","address":"井尻"},
{"zip_code":"7813522","kana_pref":"ｺｳﾁｹﾝ","kana_city":"ﾄｻｸﾞﾝﾄｻﾁｮｳ","kana_address":"ｵｵﾌﾞﾁ","pref":"高知県","city":"土佐郡土佐町","address":"大渕"},
{"zip_code":"7813407","kana_pref":"ｺｳﾁｹﾝ","kana_city":"ﾄｻｸﾞﾝﾄｻﾁｮｳ","kana_address":"ｶｼﾔﾏ","pref":"高知県","city":"土佐郡土佐町","address":"樫山"},
{"zip_code":"7813332","kana_pref":"ｺｳﾁｹﾝ","kana_city":"ﾄｻｸﾞﾝﾄｻﾁｮｳ","kana_address":"ｸﾘｷ","pref":"高知県","city":"土佐郡土佐町","address":"栗木"},
{"zip_code":"7813526","kana_pref":"ｺｳﾁｹﾝ","kana_city":"ﾄｻｸﾞﾝﾄｻﾁｮｳ","kana_address":"ｺｳﾂﾞｶﾜ","pref":"高知県","city":"土佐郡土佐町","address":"上津川"},
{"zip_code":"7813523","kana_pref":"ｺｳﾁｹﾝ","kana_city":"ﾄｻｸﾞﾝﾄｻﾁｮｳ","kana_address":"ｺﾐ","pref":"高知県","city":"土佐郡土佐町","address":"古味"},
{"zip_code":"7813402","kana_pref":"ｺｳﾁｹﾝ","kana_city":"ﾄｻｸﾞﾝﾄｻﾁｮｳ","kana_address":"ｻｶｲ","pref":"高知県","city":"土佐郡土佐町","address":"境"},
{"zip_code":"7813331","kana_pref":"ｺｳﾁｹﾝ","kana_city":"ﾄｻｸﾞﾝﾄｻﾁｮｳ","kana_address":"ｼﾞｿﾞｳｼﾞ","pref":"高知県","city":"土佐郡土佐町","address":"地蔵寺"},
{"zip_code":"7813525","kana_pref":"ｺｳﾁｹﾝ","kana_city":"ﾄｻｸﾞﾝﾄｻﾁｮｳ","kana_address":"ｼﾓｶﾜ","pref":"高知県","city":"土佐郡土佐町","address":"下川"},
{"zip_code":"7813337","kana_pref":"ｺｳﾁｹﾝ","kana_city":"ﾄｻｸﾞﾝﾄｻﾁｮｳ","kana_address":"ｾﾄﾞ","pref":"高知県","city":"土佐郡土佐町","address":"瀬戸"},
{"zip_code":"7813521","kana_pref":"ｺｳﾁｹﾝ","kana_city":"ﾄｻｸﾞﾝﾄｻﾁｮｳ","kana_address":"ﾀｲ","pref":"高知県","city":"土佐郡土佐町","address":"田井"},
{"zip_code":"7813406","kana_pref":"ｺｳﾁｹﾝ","kana_city":"ﾄｻｸﾞﾝﾄｻﾁｮｳ","kana_address":"ﾀｶｽ","pref":"高知県","city":"土佐郡土佐町","address":"高須"},
{"zip_code":"7813401","kana_pref":"ｺｳﾁｹﾝ","kana_city":"ﾄｻｸﾞﾝﾄｻﾁｮｳ","kana_address":"ﾄﾞｲ","pref":"高知県","city":"土佐郡土佐町","address":"土居"},
{"zip_code":"7813334","kana_pref":"ｺｳﾁｹﾝ","kana_city":"ﾄｻｸﾞﾝﾄｻﾁｮｳ","kana_address":"ﾆｼｲｼﾊﾗ","pref":"高知県","city":"土佐郡土佐町","address":"西石原"},
{"zip_code":"7813404","kana_pref":"ｺｳﾁｹﾝ","kana_city":"ﾄｻｸﾞﾝﾄｻﾁｮｳ","kana_address":"ﾇﾙｲ","pref":"高知県","city":"土佐郡土佐町","address":"溜井"},
{"zip_code":"7813333","kana_pref":"ｺｳﾁｹﾝ","kana_city":"ﾄｻｸﾞﾝﾄｻﾁｮｳ","kana_address":"ﾋｶﾞｼｲｼﾊﾗ","pref":"高知県","city":"土佐郡土佐町","address":"東石原"},
{"zip_code":"7813405","kana_pref":"ｺｳﾁｹﾝ","kana_city":"ﾄｻｸﾞﾝﾄｻﾁｮｳ","kana_address":"ﾐﾅｲｽﾞﾐ","pref":"高知県","city":"土佐郡土佐町","address":"南泉"},
{"zip_code":"7813742","kana_pref":"ｺｳﾁｹﾝ","kana_city":"ﾄｻｸﾞﾝﾄｻﾁｮｳ","kana_address":"ﾐﾅｶﾞﾜ","pref":"高知県","city":"土佐郡土佐町","address":"南川"},
{"zip_code":"7813403","kana_pref":"ｺｳﾁｹﾝ","kana_city":"ﾄｻｸﾞﾝﾄｻﾁｮｳ","kana_address":"ﾐﾔｺﾉ","pref":"高知県","city":"土佐郡土佐町","address":"宮古野"},
{"zip_code":"7813741","kana_pref":"ｺｳﾁｹﾝ","kana_city":"ﾄｻｸﾞﾝﾄｻﾁｮｳ","kana_address":"ﾕﾉｷ","pref":"高知県","city":"土佐郡土佐町","address":"柚ノ木"},
{"zip_code":"7813409","kana_pref":"ｺｳﾁｹﾝ","kana_city":"ﾄｻｸﾞﾝﾄｻﾁｮｳ","kana_address":"ﾜﾀﾞ","pref":"高知県","city":"土佐郡土佐町","address":"和田"},
{"zip_code":"7813700","kana_pref":"ｺｳﾁｹﾝ","kana_city":"ﾄｻｸﾞﾝｵｵｶﾜﾑﾗ","kana_address":"","pref":"高知県","city":"土佐郡大川村","address":""},
{"zip_code":"7813704","kana_pref":"ｺｳﾁｹﾝ","kana_city":"ﾄｻｸﾞﾝｵｵｶﾜﾑﾗ","kana_address":"ｱｻﾀﾆ","pref":"高知県","city":"土佐郡大川村","address":"朝谷"},
{"zip_code":"7813713","kana_pref":"ｺｳﾁｹﾝ","kana_city":"ﾄｻｸﾞﾝｵｵｶﾜﾑﾗ","kana_address":"ｲﾉｶﾜ","pref":"高知県","city":"土佐郡大川村","address":"井野川"},
{"zip_code":"7813705","kana_pref":"ｺｳﾁｹﾝ","kana_city":"ﾄｻｸﾞﾝｵｵｶﾜﾑﾗ","kana_address":"ｵｵｷﾀｶﾞﾜ","pref":"高知県","city":"土佐郡大川村","address":"大北川"},
{"zip_code":"7813714","kana_pref":"ｺｳﾁｹﾝ","kana_city":"ﾄｻｸﾞﾝｵｵｶﾜﾑﾗ","kana_address":"ｵｵﾋﾗ","pref":"高知県","city":"土佐郡大川村","address":"大平"},
{"zip_code":"7813717","kana_pref":"ｺｳﾁｹﾝ","kana_city":"ﾄｻｸﾞﾝｵｵｶﾜﾑﾗ","kana_address":"ｵｵﾔﾌﾞ","pref":"高知県","city":"土佐郡大川村","address":"大薮"},
{"zip_code":"7813723","kana_pref":"ｺｳﾁｹﾝ","kana_city":"ﾄｻｸﾞﾝｵｵｶﾜﾑﾗ","kana_address":"ｶﾐｵﾐﾅｶﾞﾜ","pref":"高知県","city":"土佐郡大川村","address":"上小南川"},
{"zip_code":"7813712","kana_pref":"ｺｳﾁｹﾝ","kana_city":"ﾄｻｸﾞﾝｵｵｶﾜﾑﾗ","kana_address":"ｶﾜｻｷ","pref":"高知県","city":"土佐郡大川村","address":"川崎"},
{"zip_code":"7813716","kana_pref":"ｺｳﾁｹﾝ","kana_city":"ﾄｻｸﾞﾝｵｵｶﾜﾑﾗ","kana_address":"ｺｷﾀｶﾞﾜ","pref":"高知県","city":"土佐郡大川村","address":"小北川"},
{"zip_code":"7813703","kana_pref":"ｺｳﾁｹﾝ","kana_city":"ﾄｻｸﾞﾝｵｵｶﾜﾑﾗ","kana_address":"ｺﾏﾂ","pref":"高知県","city":"土佐郡大川村","address":"小松"},
{"zip_code":"7813715","kana_pref":"ｺｳﾁｹﾝ","kana_city":"ﾄｻｸﾞﾝｵｵｶﾜﾑﾗ","kana_address":"ｺﾑｷﾞｳﾈ","pref":"高知県","city":"土佐郡大川村","address":"小麦畝"},
{"zip_code":"7813725","kana_pref":"ｺｳﾁｹﾝ","kana_city":"ﾄｻｸﾞﾝｵｵｶﾜﾑﾗ","kana_address":"ｼﾀｷﾞﾘ","pref":"高知県","city":"土佐郡大川村","address":"下切"},
{"zip_code":"7813722","kana_pref":"ｺｳﾁｹﾝ","kana_city":"ﾄｻｸﾞﾝｵｵｶﾜﾑﾗ","kana_address":"ｼﾓｵﾐﾅｶﾞﾜ","pref":"高知県","city":"土佐郡大川村","address":"下小南川"},
{"zip_code":"7813711","kana_pref":"ｺｳﾁｹﾝ","kana_city":"ﾄｻｸﾞﾝｵｵｶﾜﾑﾗ","kana_address":"ﾀｶﾉ","pref":"高知県","city":"土佐郡大川村","address":"高野"},
{"zip_code":"7813721","kana_pref":"ｺｳﾁｹﾝ","kana_city":"ﾄｻｸﾞﾝｵｵｶﾜﾑﾗ","kana_address":"ﾅｶｷﾞﾘ","pref":"高知県","city":"土佐郡大川村","address":"中切"},
{"zip_code":"7813702","kana_pref":"ｺｳﾁｹﾝ","kana_city":"ﾄｻｸﾞﾝｵｵｶﾜﾑﾗ","kana_address":"ﾌﾅﾄ","pref":"高知県","city":"土佐郡大川村","address":"船戸"},
{"zip_code":"7813701","kana_pref":"ｺｳﾁｹﾝ","kana_city":"ﾄｻｸﾞﾝｵｵｶﾜﾑﾗ","kana_address":"ﾌﾅﾄ","pref":"高知県","city":"土佐郡大川村","address":"船戸"},
{"zip_code":"7813724","kana_pref":"ｺｳﾁｹﾝ","kana_city":"ﾄｻｸﾞﾝｵｵｶﾜﾑﾗ","kana_address":"ﾐﾅﾐﾉﾔﾏ","pref":"高知県","city":"土佐郡大川村","address":"南野山"},
{"zip_code":"7812100","kana_pref":"ｺｳﾁｹﾝ","kana_city":"ｱｶﾞﾜｸﾞﾝｲﾉﾁｮｳ","kana_address":"","pref":"高知県","city":"吾川郡いの町","address":""},
{"zip_code":"7812110","kana_pref":"ｺｳﾁｹﾝ","kana_city":"ｱｶﾞﾜｸﾞﾝｲﾉﾁｮｳ","kana_address":"ｲﾉﾁｮｳﾉﾂｷﾞﾆﾊﾞﾝﾁｶﾞｸﾙﾊﾞｱｲ","pref":"高知県","city":"吾川郡いの町","address":"いの町の次に番地がくる場合"},
{"zip_code":"7812115","kana_pref":"ｺｳﾁｹﾝ","kana_city":"ｱｶﾞﾜｸﾞﾝｲﾉﾁｮｳ","kana_address":"ｱｻﾋﾏﾁ","pref":"高知県","city":"吾川郡いの町","address":"旭町"},
{"zip_code":"7812613","kana_pref":"ｺｳﾁｹﾝ","kana_city":"ｱｶﾞﾜｸﾞﾝｲﾉﾁｮｳ","kana_address":"ｱｼﾀﾞﾆ","pref":"高知県","city":"吾川郡いの町","address":"足谷"},
{"zip_code":"7812121","kana_pref":"ｺｳﾁｹﾝ","kana_city":"ｱｶﾞﾜｸﾞﾝｲﾉﾁｮｳ","kana_address":"ｲｹﾉｳﾁ","pref":"高知県","city":"吾川郡いの町","address":"池の内"},
{"zip_code":"7812119","kana_pref":"ｺｳﾁｹﾝ","kana_city":"ｱｶﾞﾜｸﾞﾝｲﾉﾁｮｳ","kana_address":"ｳﾂﾉｷﾀﾏﾁ","pref":"高知県","city":"吾川郡いの町","address":"内野北町"},
{"zip_code":"7812117","kana_pref":"ｺｳﾁｹﾝ","kana_city":"ｱｶﾞﾜｸﾞﾝｲﾉﾁｮｳ","kana_address":"ｳﾂﾉﾋｶﾞｼﾏﾁ","pref":"高知県","city":"吾川郡いの町","address":"内野東町"},
{"zip_code":"7812118","kana_pref":"ｺｳﾁｹﾝ","kana_city":"ｱｶﾞﾜｸﾞﾝｲﾉﾁｮｳ","kana_address":"ｳﾂﾉﾐﾅﾐﾏﾁ","pref":"高知県","city":"吾川郡いの町","address":"内野南町"},
{"zip_code":"7812108","kana_pref":"ｺｳﾁｹﾝ","kana_city":"ｱｶﾞﾜｸﾞﾝｲﾉﾁｮｳ","kana_address":"ｴｷﾋｶﾞｼﾏﾁ","pref":"高知県","city":"吾川郡いの町","address":"駅東町"},
{"zip_code":"7812107","kana_pref":"ｺｳﾁｹﾝ","kana_city":"ｱｶﾞﾜｸﾞﾝｲﾉﾁｮｳ","kana_address":"ｴｷﾏｴﾁｮｳ","pref":"高知県","city":"吾川郡いの町","address":"駅前町"},
{"zip_code":"7812106","kana_pref":"ｺｳﾁｹﾝ","kana_city":"ｱｶﾞﾜｸﾞﾝｲﾉﾁｮｳ","kana_address":"ｴｷﾐﾅﾐﾏﾁ","pref":"高知県","city":"吾川郡いの町","address":"駅南町"},
{"zip_code":"7812120","kana_pref":"ｺｳﾁｹﾝ","kana_city":"ｱｶﾞﾜｸﾞﾝｲﾉﾁｮｳ","kana_address":"ｴﾀﾞｶﾞﾜ","pref":"高知県","city":"吾川郡いの町","address":"枝川"},
{"zip_code":"7812604","kana_pref":"ｺｳﾁｹﾝ","kana_city":"ｱｶﾞﾜｸﾞﾝｲﾉﾁｮｳ","kana_address":"ｴﾘﾓﾝ","pref":"高知県","city":"吾川郡いの町","address":"越裏門"},
{"zip_code":"7812126","kana_pref":"ｺｳﾁｹﾝ","kana_city":"ｱｶﾞﾜｸﾞﾝｲﾉﾁｮｳ","kana_address":"ｵｵﾁ","pref":"高知県","city":"吾川郡いの町","address":"大内"},
{"zip_code":"7812603","kana_pref":"ｺｳﾁｹﾝ","kana_city":"ｱｶﾞﾜｸﾞﾝｲﾉﾁｮｳ","kana_address":"ｵｵﾓﾘ","pref":"高知県","city":"吾川郡いの町","address":"大森"},
{"zip_code":"7812136","kana_pref":"ｺｳﾁｹﾝ","kana_city":"ｱｶﾞﾜｸﾞﾝｲﾉﾁｮｳ","kana_address":"ｶｼｷ","pref":"高知県","city":"吾川郡いの町","address":"鹿敷"},
{"zip_code":"7812614","kana_pref":"ｺｳﾁｹﾝ","kana_city":"ｱｶﾞﾜｸﾞﾝｲﾉﾁｮｳ","kana_address":"ｶｽﾞﾗﾊﾗ","pref":"高知県","city":"吾川郡いの町","address":"葛原"},
{"zip_code":"7812133","kana_pref":"ｺｳﾁｹﾝ","kana_city":"ｱｶﾞﾜｸﾞﾝｲﾉﾁｮｳ","kana_address":"ｶﾀﾞ","pref":"高知県","city":"吾川郡いの町","address":"加田"},
{"zip_code":"7812127","kana_pref":"ｺｳﾁｹﾝ","kana_city":"ｱｶﾞﾜｸﾞﾝｲﾉﾁｮｳ","kana_address":"ｶﾏﾀﾞ","pref":"高知県","city":"吾川郡いの町","address":"鎌田"},
{"zip_code":"7812401","kana_pref":"ｺｳﾁｹﾝ","kana_city":"ｱｶﾞﾜｸﾞﾝｲﾉﾁｮｳ","kana_address":"ｶﾐﾔｶﾜｺｳ","pref":"高知県","city":"吾川郡いの町","address":"上八川甲"},
{"zip_code":"7812402","kana_pref":"ｺｳﾁｹﾝ","kana_city":"ｱｶﾞﾜｸﾞﾝｲﾉﾁｮｳ","kana_address":"ｶﾐﾔｶﾜﾍｲ","pref":"高知県","city":"吾川郡いの町","address":"上八川丙"},
{"zip_code":"7812114","kana_pref":"ｺｳﾁｹﾝ","kana_city":"ｱｶﾞﾜｸﾞﾝｲﾉﾁｮｳ","kana_address":"ｶﾓﾏﾁ","pref":"高知県","city":"吾川郡いの町","address":"加茂町"},
{"zip_code":"7812511","kana_pref":"ｺｳﾁｹﾝ","kana_city":"ｱｶﾞﾜｸﾞﾝｲﾉﾁｮｳ","kana_address":"ｷﾖﾐｽﾞｶﾐﾌﾞﾝ","pref":"高知県","city":"吾川郡いの町","address":"清水上分"},
{"zip_code":"7812512","kana_pref":"ｺｳﾁｹﾝ","kana_city":"ｱｶﾞﾜｸﾞﾝｲﾉﾁｮｳ","kana_address":"ｷﾖﾐｽﾞｼﾓﾌﾞﾝ","pref":"高知県","city":"吾川郡いの町","address":"清水下分"},
{"zip_code":"7812143","kana_pref":"ｺｳﾁｹﾝ","kana_city":"ｱｶﾞﾜｸﾞﾝｲﾉﾁｮｳ","kana_address":"ｸｽﾉｾ","pref":"高知県","city":"吾川郡いの町","address":"楠瀬"},
{"zip_code":"7812615","kana_pref":"ｺｳﾁｹﾝ","kana_city":"ｱｶﾞﾜｸﾞﾝｲﾉﾁｮｳ","kana_address":"ｸﾜｾﾞ","pref":"高知県","city":"吾川郡いの町","address":"桑瀬"},
{"zip_code":"7812102","kana_pref":"ｺｳﾁｹﾝ","kana_city":"ｱｶﾞﾜｸﾞﾝｲﾉﾁｮｳ","kana_address":"ｺｳｴﾝﾁｮｳ","pref":"高知県","city":"吾川郡いの町","address":"公園町"},
{"zip_code":"7812134","kana_pref":"ｺｳﾁｹﾝ","kana_city":"ｱｶﾞﾜｸﾞﾝｲﾉﾁｮｳ","kana_address":"ｺｳﾉﾀﾆ","pref":"高知県","city":"吾川郡いの町","address":"神谷"},
{"zip_code":"7812324","kana_pref":"ｺｳﾁｹﾝ","kana_city":"ｱｶﾞﾜｸﾞﾝｲﾉﾁｮｳ","kana_address":"ｺｶﾞﾜｼﾝﾍﾞﾂ","pref":"高知県","city":"吾川郡いの町","address":"小川新別"},
{"zip_code":"7812322","kana_pref":"ｺｳﾁｹﾝ","kana_city":"ｱｶﾞﾜｸﾞﾝｲﾉﾁｮｳ","kana_address":"ｺｶﾞﾜﾆｼﾂｶﾞｻｲ","pref":"高知県","city":"吾川郡いの町","address":"小川西津賀才"},
{"zip_code":"7812321","kana_pref":"ｺｳﾁｹﾝ","kana_city":"ｱｶﾞﾜｸﾞﾝｲﾉﾁｮｳ","kana_address":"ｺｶﾞﾜﾋｶﾞｼﾂｶﾞｻｲ","pref":"高知県","city":"吾川郡いの町","address":"小川東津賀才"},
{"zip_code":"7812323","kana_pref":"ｺｳﾁｹﾝ","kana_city":"ｱｶﾞﾜｸﾞﾝｲﾉﾁｮｳ","kana_address":"ｺｶﾞﾜﾓﾐﾉｷﾔﾏ","pref":"高知県","city":"吾川郡いの町","address":"小川樅ノ木山"},
{"zip_code":"7812325","kana_pref":"ｺｳﾁｹﾝ","kana_city":"ｱｶﾞﾜｸﾞﾝｲﾉﾁｮｳ","kana_address":"ｺｶﾞﾜﾔﾅｷﾞﾉ","pref":"高知県","city":"吾川郡いの町","address":"小川柳野"},
{"zip_code":"7812135","kana_pref":"ｺｳﾁｹﾝ","kana_city":"ｱｶﾞﾜｸﾞﾝｲﾉﾁｮｳ","kana_address":"ｺﾉ","pref":"高知県","city":"吾川郡いの町","address":"小野"},
{"zip_code":"7812103","kana_pref":"ｺｳﾁｹﾝ","kana_city":"ｱｶﾞﾜｸﾞﾝｲﾉﾁｮｳ","kana_address":"ｻｲﾜｲﾁｮｳ","pref":"高知県","city":"吾川郡いの町","address":"幸町"},
{"zip_code":"7812332","kana_pref":"ｺｳﾁｹﾝ","kana_city":"ｱｶﾞﾜｸﾞﾝｲﾉﾁｮｳ","kana_address":"ｼﾓﾔｶﾜｵﾂ","pref":"高知県","city":"吾川郡いの町","address":"下八川乙"},
{"zip_code":"7812331","kana_pref":"ｺｳﾁｹﾝ","kana_city":"ｱｶﾞﾜｸﾞﾝｲﾉﾁｮｳ","kana_address":"ｼﾓﾔｶﾜｺｳ","pref":"高知県","city":"吾川郡いの町","address":"下八川甲"},
{"zip_code":"7812334","kana_pref":"ｺｳﾁｹﾝ","kana_city":"ｱｶﾞﾜｸﾞﾝｲﾉﾁｮｳ","kana_address":"ｼﾓﾔｶﾜﾃｲ","pref":"高知県","city":"吾川郡いの町","address":"下八川丁"},
{"zip_code":"7812335","kana_pref":"ｺｳﾁｹﾝ","kana_city":"ｱｶﾞﾜｸﾞﾝｲﾉﾁｮｳ","kana_address":"ｼﾓﾔｶﾜﾄｵﾀﾞ","pref":"高知県","city":"吾川郡いの町","address":"下八川十田"},
{"zip_code":"7812333","kana_pref":"ｺｳﾁｹﾝ","kana_city":"ｱｶﾞﾜｸﾞﾝｲﾉﾁｮｳ","kana_address":"ｼﾓﾔｶﾜﾍｲ","pref":"高知県","city":"吾川郡いの町","address":"下八川丙"},
{"zip_code":"7812141","kana_pref":"ｺｳﾁｹﾝ","kana_city":"ｱｶﾞﾜｸﾞﾝｲﾉﾁｮｳ","kana_address":"ｼｮｳｶﾞｾ","pref":"高知県","city":"吾川郡いの町","address":"勝賀瀬"},
{"zip_code":"7812105","kana_pref":"ｺｳﾁｹﾝ","kana_city":"ｱｶﾞﾜｸﾞﾝｲﾉﾁｮｳ","kana_address":"ｼﾝﾏﾁ","pref":"高知県","city":"吾川郡いの町","address":"新町"},
{"zip_code":"7812101","kana_pref":"ｺｳﾁｹﾝ","kana_city":"ｱｶﾞﾜｸﾞﾝｲﾉﾁｮｳ","kana_address":"ﾀﾞｲｺｸﾁｮｳ","pref":"高知県","city":"吾川郡いの町","address":"大国町"},
{"zip_code":"7812612","kana_pref":"ｺｳﾁｹﾝ","kana_city":"ｱｶﾞﾜｸﾞﾝｲﾉﾁｮｳ","kana_address":"ﾀｶﾔﾌﾞ","pref":"高知県","city":"吾川郡いの町","address":"高薮"},
{"zip_code":"7812605","kana_pref":"ｺｳﾁｹﾝ","kana_city":"ｱｶﾞﾜｸﾞﾝｲﾉﾁｮｳ","kana_address":"ﾃﾗｶﾞﾜ","pref":"高知県","city":"吾川郡いの町","address":"寺川"},
{"zip_code":"7812122","kana_pref":"ｺｳﾁｹﾝ","kana_city":"ｱｶﾞﾜｸﾞﾝｲﾉﾁｮｳ","kana_address":"ﾃﾝﾉｳｷﾀ","pref":"高知県","city":"吾川郡いの町","address":"天王北"},
{"zip_code":"7812123","kana_pref":"ｺｳﾁｹﾝ","kana_city":"ｱｶﾞﾜｸﾞﾝｲﾉﾁｮｳ","kana_address":"ﾃﾝﾉｳﾐﾅﾐ","pref":"高知県","city":"吾川郡いの町","address":"天王南"},
{"zip_code":"7812602","kana_pref":"ｺｳﾁｹﾝ","kana_city":"ｱｶﾞﾜｸﾞﾝｲﾉﾁｮｳ","kana_address":"ﾄﾁｭｳ","pref":"高知県","city":"吾川郡いの町","address":"戸中"},
{"zip_code":"7812142","kana_pref":"ｺｳﾁｹﾝ","kana_city":"ｱｶﾞﾜｸﾞﾝｲﾉﾁｮｳ","kana_address":"ﾅｶｵｲ","pref":"高知県","city":"吾川郡いの町","address":"中追"},
{"zip_code":"7812601","kana_pref":"ｺｳﾁｹﾝ","kana_city":"ｱｶﾞﾜｸﾞﾝｲﾉﾁｮｳ","kana_address":"ﾅｶﾞｻﾜ","pref":"高知県","city":"吾川郡いの町","address":"長沢"},
{"zip_code":"7812616","kana_pref":"ｺｳﾁｹﾝ","kana_city":"ｱｶﾞﾜｸﾞﾝｲﾉﾁｮｳ","kana_address":"ﾅｶﾉｶﾜ","pref":"高知県","city":"吾川郡いの町","address":"中ノ川"},
{"zip_code":"7812132","kana_pref":"ｺｳﾁｹﾝ","kana_city":"ｱｶﾞﾜｸﾞﾝｲﾉﾁｮｳ","kana_address":"ﾅﾙﾔﾏ","pref":"高知県","city":"吾川郡いの町","address":"成山"},
{"zip_code":"7812112","kana_pref":"ｺｳﾁｹﾝ","kana_city":"ｱｶﾞﾜｸﾞﾝｲﾉﾁｮｳ","kana_address":"ﾆｼﾏﾁ","pref":"高知県","city":"吾川郡いの町","address":"西町"},
{"zip_code":"7812128","kana_pref":"ｺｳﾁｹﾝ","kana_city":"ｱｶﾞﾜｸﾞﾝｲﾉﾁｮｳ","kana_address":"ﾊｶﾜ","pref":"高知県","city":"吾川郡いの町","address":"波川"},
{"zip_code":"7812124","kana_pref":"ｺｳﾁｹﾝ","kana_city":"ｱｶﾞﾜｸﾞﾝｲﾉﾁｮｳ","kana_address":"ﾊﾀ","pref":"高知県","city":"吾川郡いの町","address":"八田"},
{"zip_code":"7812111","kana_pref":"ｺｳﾁｹﾝ","kana_city":"ｱｶﾞﾜｸﾞﾝｲﾉﾁｮｳ","kana_address":"ﾊﾈﾏﾁ","pref":"高知県","city":"吾川郡いの町","address":"羽根町"},
{"zip_code":"7812104","kana_pref":"ｺｳﾁｹﾝ","kana_city":"ｱｶﾞﾜｸﾞﾝｲﾉﾁｮｳ","kana_address":"ﾌｼﾞﾏﾁ","pref":"高知県","city":"吾川郡いの町","address":"藤町"},
{"zip_code":"7812131","kana_pref":"ｺｳﾁｹﾝ","kana_city":"ｱｶﾞﾜｸﾞﾝｲﾉﾁｮｳ","kana_address":"ﾏｷ","pref":"高知県","city":"吾川郡いの町","address":"槇"},
{"zip_code":"7812113","kana_pref":"ｺｳﾁｹﾝ","kana_city":"ｱｶﾞﾜｸﾞﾝｲﾉﾁｮｳ","kana_address":"ﾓﾄﾏﾁ","pref":"高知県","city":"吾川郡いの町","address":"元町"},
{"zip_code":"7812116","kana_pref":"ｺｳﾁｹﾝ","kana_city":"ｱｶﾞﾜｸﾞﾝｲﾉﾁｮｳ","kana_address":"ﾔﾅｷﾞﾏﾁ","pref":"高知県","city":"吾川郡いの町","address":"柳町"},
{"zip_code":"7812145","kana_pref":"ｺｳﾁｹﾝ","kana_city":"ｱｶﾞﾜｸﾞﾝｲﾉﾁｮｳ","kana_address":"ﾔﾅﾉｾｲｼﾐ","pref":"高知県","city":"吾川郡いの町","address":"柳瀬石見"},
{"zip_code":"7812146","kana_pref":"ｺｳﾁｹﾝ","kana_city":"ｱｶﾞﾜｸﾞﾝｲﾉﾁｮｳ","kana_address":"ﾔﾅﾉｾｶﾐﾌﾞﾝ","pref":"高知県","city":"吾川郡いの町","address":"柳瀬上分"},
{"zip_code":"7812144","kana_pref":"ｺｳﾁｹﾝ","kana_city":"ｱｶﾞﾜｸﾞﾝｲﾉﾁｮｳ","kana_address":"ﾔﾅﾉｾﾎﾝﾑﾗ","pref":"高知県","city":"吾川郡いの町","address":"柳瀬本村"},
{"zip_code":"7812611","kana_pref":"ｺｳﾁｹﾝ","kana_city":"ｱｶﾞﾜｸﾞﾝｲﾉﾁｮｳ","kana_address":"ﾜｷﾉﾔﾏ","pref":"高知県","city":"吾川郡いの町","address":"脇ノ山"},
{"zip_code":"7811500","kana_pref":"ｺｳﾁｹﾝ","kana_city":"ｱｶﾞﾜｸﾞﾝﾆﾖﾄﾞｶﾞﾜﾁｮｳ","kana_address":"","pref":"高知県","city":"吾川郡仁淀川町","address":""},
{"zip_code":"7811532","kana_pref":"ｺｳﾁｹﾝ","kana_city":"ｱｶﾞﾜｸﾞﾝﾆﾖﾄﾞｶﾞﾜﾁｮｳ","kana_address":"ｱｲﾉｳ","pref":"高知県","city":"吾川郡仁淀川町","address":"相能"},
{"zip_code":"7811612","kana_pref":"ｺｳﾁｹﾝ","kana_city":"ｱｶﾞﾜｸﾞﾝﾆﾖﾄﾞｶﾞﾜﾁｮｳ","kana_address":"ｲｹｶﾞﾜｵｵﾄﾞ","pref":"高知県","city":"吾川郡仁淀川町","address":"池川大渡"},
{"zip_code":"7811914","kana_pref":"ｺｳﾁｹﾝ","kana_city":"ｱｶﾞﾜｸﾞﾝﾆﾖﾄﾞｶﾞﾜﾁｮｳ","kana_address":"ｲｽﾞﾐ","pref":"高知県","city":"吾川郡仁淀川町","address":"泉"},
{"zip_code":"7811621","kana_pref":"ｺｳﾁｹﾝ","kana_city":"ｱｶﾞﾜｸﾞﾝﾆﾖﾄﾞｶﾞﾜﾁｮｳ","kana_address":"ｲﾘｴﾀﾞﾆ","pref":"高知県","city":"吾川郡仁淀川町","address":"入江谷"},
{"zip_code":"7811615","kana_pref":"ｺｳﾁｹﾝ","kana_city":"ｱｶﾞﾜｸﾞﾝﾆﾖﾄﾞｶﾞﾜﾁｮｳ","kana_address":"ｲﾜｶﾞﾗ","pref":"高知県","city":"吾川郡仁淀川町","address":"岩柄"},
{"zip_code":"7811512","kana_pref":"ｺｳﾁｹﾝ","kana_city":"ｱｶﾞﾜｸﾞﾝﾆﾖﾄﾞｶﾞﾜﾁｮｳ","kana_address":"ｲﾜﾄﾞ","pref":"高知県","city":"吾川郡仁淀川町","address":"岩戸"},
{"zip_code":"7811611","kana_pref":"ｺｳﾁｹﾝ","kana_city":"ｱｶﾞﾜｸﾞﾝﾆﾖﾄﾞｶﾞﾜﾁｮｳ","kana_address":"ｲﾜﾏﾙ","pref":"高知県","city":"吾川郡仁淀川町","address":"岩丸"},
{"zip_code":"7811514","kana_pref":"ｺｳﾁｹﾝ","kana_city":"ｱｶﾞﾜｸﾞﾝﾆﾖﾄﾞｶﾞﾜﾁｮｳ","kana_address":"ｵｵｲﾀ","pref":"高知県","city":"吾川郡仁淀川町","address":"大板"},
{"zip_code":"7811915","kana_pref":"ｺｳﾁｹﾝ","kana_city":"ｱｶﾞﾜｸﾞﾝﾆﾖﾄﾞｶﾞﾜﾁｮｳ","kana_address":"ｵｵｳｴ","pref":"高知県","city":"吾川郡仁淀川町","address":"大植"},
{"zip_code":"7811756","kana_pref":"ｺｳﾁｹﾝ","kana_city":"ｱｶﾞﾜｸﾞﾝﾆﾖﾄﾞｶﾞﾜﾁｮｳ","kana_address":"ｵｵｵ","pref":"高知県","city":"吾川郡仁淀川町","address":"大尾"},
{"zip_code":"7811501","kana_pref":"ｺｳﾁｹﾝ","kana_city":"ｱｶﾞﾜｸﾞﾝﾆﾖﾄﾞｶﾞﾜﾁｮｳ","kana_address":"ｵｵｻｷ","pref":"高知県","city":"吾川郡仁淀川町","address":"大崎"},
{"zip_code":"7811751","kana_pref":"ｺｳﾁｹﾝ","kana_city":"ｱｶﾞﾜｸﾞﾝﾆﾖﾄﾞｶﾞﾜﾁｮｳ","kana_address":"ｵｵﾄﾞ","pref":"高知県","city":"吾川郡仁淀川町","address":"大渡"},
{"zip_code":"7811614","kana_pref":"ｺｳﾁｹﾝ","kana_city":"ｱｶﾞﾜｸﾞﾝﾆﾖﾄﾞｶﾞﾜﾁｮｳ","kana_address":"ｵｵﾆｼ","pref":"高知県","city":"吾川郡仁淀川町","address":"大西"},
{"zip_code":"7811617","kana_pref":"ｺｳﾁｹﾝ","kana_city":"ｱｶﾞﾜｸﾞﾝﾆﾖﾄﾞｶﾞﾜﾁｮｳ","kana_address":"ｵｵﾉ","pref":"高知県","city":"吾川郡仁淀川町","address":"大野"},
{"zip_code":"7811601","kana_pref":"ｺｳﾁｹﾝ","kana_city":"ｱｶﾞﾜｸﾞﾝﾆﾖﾄﾞｶﾞﾜﾁｮｳ","kana_address":"ｵｵﾋﾗ","pref":"高知県","city":"吾川郡仁淀川町","address":"大平"},
{"zip_code":"7811628","kana_pref":"ｺｳﾁｹﾝ","kana_city":"ｱｶﾞﾜｸﾞﾝﾆﾖﾄﾞｶﾞﾜﾁｮｳ","kana_address":"ｵｵﾔ","pref":"高知県","city":"吾川郡仁淀川町","address":"大屋"},
{"zip_code":"7811520","kana_pref":"ｺｳﾁｹﾝ","kana_city":"ｱｶﾞﾜｸﾞﾝﾆﾖﾄﾞｶﾞﾜﾁｮｳ","kana_address":"ｵｵﾜﾗﾋﾞ","pref":"高知県","city":"吾川郡仁淀川町","address":"大蕨"},
{"zip_code":"7811534","kana_pref":"ｺｳﾁｹﾝ","kana_city":"ｱｶﾞﾜｸﾞﾝﾆﾖﾄﾞｶﾞﾜﾁｮｳ","kana_address":"ｵｿｺﾞｴ","pref":"高知県","city":"吾川郡仁淀川町","address":"遅越"},
{"zip_code":"7811518","kana_pref":"ｺｳﾁｹﾝ","kana_city":"ｱｶﾞﾜｸﾞﾝﾆﾖﾄﾞｶﾞﾜﾁｮｳ","kana_address":"ｶｴ","pref":"高知県","city":"吾川郡仁淀川町","address":"加枝"},
{"zip_code":"7811602","kana_pref":"ｺｳﾁｹﾝ","kana_city":"ｱｶﾞﾜｸﾞﾝﾆﾖﾄﾞｶﾞﾜﾁｮｳ","kana_address":"ｶｼﾞﾊﾗ","pref":"高知県","city":"吾川郡仁淀川町","address":"楮原"},
{"zip_code":"7811766","kana_pref":"ｺｳﾁｹﾝ","kana_city":"ｱｶﾞﾜｸﾞﾝﾆﾖﾄﾞｶﾞﾜﾁｮｳ","kana_address":"ｶﾐﾅﾉｶﾜ","pref":"高知県","city":"吾川郡仁淀川町","address":"上名野川"},
{"zip_code":"7811605","kana_pref":"ｺｳﾁｹﾝ","kana_city":"ｱｶﾞﾜｸﾞﾝﾆﾖﾄﾞｶﾞﾜﾁｮｳ","kana_address":"ｶﾜｳﾁﾀﾞﾆ","pref":"高知県","city":"吾川郡仁淀川町","address":"川内谷"},
{"zip_code":"7811502","kana_pref":"ｺｳﾁｹﾝ","kana_city":"ｱｶﾞﾜｸﾞﾝﾆﾖﾄﾞｶﾞﾜﾁｮｳ","kana_address":"ｶﾜｸﾞﾁ","pref":"高知県","city":"吾川郡仁淀川町","address":"川口"},
{"zip_code":"7811804","kana_pref":"ｺｳﾁｹﾝ","kana_city":"ｱｶﾞﾜｸﾞﾝﾆﾖﾄﾞｶﾞﾜﾁｮｳ","kana_address":"ｶﾜﾄﾞ","pref":"高知県","city":"吾川郡仁淀川町","address":"川渡"},
{"zip_code":"7811754","kana_pref":"ｺｳﾁｹﾝ","kana_city":"ｱｶﾞﾜｸﾞﾝﾆﾖﾄﾞｶﾞﾜﾁｮｳ","kana_address":"ｷﾀ","pref":"高知県","city":"吾川郡仁淀川町","address":"北"},
{"zip_code":"7811607","kana_pref":"ｺｳﾁｹﾝ","kana_city":"ｱｶﾞﾜｸﾞﾝﾆﾖﾄﾞｶﾞﾜﾁｮｳ","kana_address":"ｷﾀｳﾗ","pref":"高知県","city":"吾川郡仁淀川町","address":"北浦"},
{"zip_code":"7811746","kana_pref":"ｺｳﾁｹﾝ","kana_city":"ｱｶﾞﾜｸﾞﾝﾆﾖﾄﾞｶﾞﾜﾁｮｳ","kana_address":"ｷﾀｶﾞﾜ","pref":"高知県","city":"吾川郡仁淀川町","address":"北川"},
{"zip_code":"7811531","kana_pref":"ｺｳﾁｹﾝ","kana_city":"ｱｶﾞﾜｸﾞﾝﾆﾖﾄﾞｶﾞﾜﾁｮｳ","kana_address":"ｸｷ","pref":"高知県","city":"吾川郡仁淀川町","address":"久喜"},
{"zip_code":"7811517","kana_pref":"ｺｳﾁｹﾝ","kana_city":"ｱｶﾞﾜｸﾞﾝﾆﾖﾄﾞｶﾞﾜﾁｮｳ","kana_address":"ｸｽﾞﾜﾗ","pref":"高知県","city":"吾川郡仁淀川町","address":"葛原"},
{"zip_code":"7811608","kana_pref":"ｺｳﾁｹﾝ","kana_city":"ｱｶﾞﾜｸﾞﾝﾆﾖﾄﾞｶﾞﾜﾁｮｳ","kana_address":"ｻｶﾓﾄ","pref":"高知県","city":"吾川郡仁淀川町","address":"坂本"},
{"zip_code":"7811743","kana_pref":"ｺｳﾁｹﾝ","kana_city":"ｱｶﾞﾜｸﾞﾝﾆﾖﾄﾞｶﾞﾜﾁｮｳ","kana_address":"ｻｷﾉﾔﾏ","pref":"高知県","city":"吾川郡仁淀川町","address":"崎ノ山"},
{"zip_code":"7811505","kana_pref":"ｺｳﾁｹﾝ","kana_city":"ｱｶﾞﾜｸﾞﾝﾆﾖﾄﾞｶﾞﾜﾁｮｳ","kana_address":"ｻｸﾗ","pref":"高知県","city":"吾川郡仁淀川町","address":"桜"},
{"zip_code":"7811506","kana_pref":"ｺｳﾁｹﾝ","kana_city":"ｱｶﾞﾜｸﾞﾝﾆﾖﾄﾞｶﾞﾜﾁｮｳ","kana_address":"ｼｼﾓﾘ","pref":"高知県","city":"吾川郡仁淀川町","address":"鹿森"},
{"zip_code":"7811745","kana_pref":"ｺｳﾁｹﾝ","kana_city":"ｱｶﾞﾜｸﾞﾝﾆﾖﾄﾞｶﾞﾜﾁｮｳ","kana_address":"ｼﾓｷﾀｶﾞﾜ","pref":"高知県","city":"吾川郡仁淀川町","address":"下北川"},
{"zip_code":"7811762","kana_pref":"ｺｳﾁｹﾝ","kana_city":"ｱｶﾞﾜｸﾞﾝﾆﾖﾄﾞｶﾞﾜﾁｮｳ","kana_address":"ｼﾓﾅﾉｶﾜ","pref":"高知県","city":"吾川郡仁淀川町","address":"下名野川"},
{"zip_code":"7811523","kana_pref":"ｺｳﾁｹﾝ","kana_city":"ｱｶﾞﾜｸﾞﾝﾆﾖﾄﾞｶﾞﾜﾁｮｳ","kana_address":"ｿｳﾂﾞ","pref":"高知県","city":"吾川郡仁淀川町","address":"宗津"},
{"zip_code":"7811802","kana_pref":"ｺｳﾁｹﾝ","kana_city":"ｱｶﾞﾜｸﾞﾝﾆﾖﾄﾞｶﾞﾜﾁｮｳ","kana_address":"ﾀｶｾ","pref":"高知県","city":"吾川郡仁淀川町","address":"高瀬"},
{"zip_code":"7811610","kana_pref":"ｺｳﾁｹﾝ","kana_city":"ｱｶﾞﾜｸﾞﾝﾆﾖﾄﾞｶﾞﾜﾁｮｳ","kana_address":"ﾀｹﾉﾀﾆ","pref":"高知県","city":"吾川郡仁淀川町","address":"竹ノ谷"},
{"zip_code":"7811742","kana_pref":"ｺｳﾁｹﾝ","kana_city":"ｱｶﾞﾜｸﾞﾝﾆﾖﾄﾞｶﾞﾜﾁｮｳ","kana_address":"ﾀｹﾔｼｷ","pref":"高知県","city":"吾川郡仁淀川町","address":"竹屋敷"},
{"zip_code":"7811758","kana_pref":"ｺｳﾁｹﾝ","kana_city":"ｱｶﾞﾜｸﾞﾝﾆﾖﾄﾞｶﾞﾜﾁｮｳ","kana_address":"ﾀﾁﾊﾞﾅ","pref":"高知県","city":"吾川郡仁淀川町","address":"橘"},
{"zip_code":"7811503","kana_pref":"ｺｳﾁｹﾝ","kana_city":"ｱｶﾞﾜｸﾞﾝﾆﾖﾄﾞｶﾞﾜﾁｮｳ","kana_address":"ﾀﾁﾊﾞﾅﾀﾞﾆ","pref":"高知県","city":"吾川郡仁淀川町","address":"橘谷"},
{"zip_code":"7811522","kana_pref":"ｺｳﾁｹﾝ","kana_city":"ｱｶﾞﾜｸﾞﾝﾆﾖﾄﾞｶﾞﾜﾁｮｳ","kana_address":"ﾀﾑﾗ","pref":"高知県","city":"吾川郡仁淀川町","address":"田村"},
{"zip_code":"7811911","kana_pref":"ｺｳﾁｹﾝ","kana_city":"ｱｶﾞﾜｸﾞﾝﾆﾖﾄﾞｶﾞﾜﾁｮｳ","kana_address":"ﾁｮｳｼﾞｬｵﾂ","pref":"高知県","city":"吾川郡仁淀川町","address":"長者乙"},
{"zip_code":"7811912","kana_pref":"ｺｳﾁｹﾝ","kana_city":"ｱｶﾞﾜｸﾞﾝﾆﾖﾄﾞｶﾞﾜﾁｮｳ","kana_address":"ﾁｮｳｼﾞｬﾃｲ","pref":"高知県","city":"吾川郡仁淀川町","address":"長者丁"},
{"zip_code":"7811913","kana_pref":"ｺｳﾁｹﾝ","kana_city":"ｱｶﾞﾜｸﾞﾝﾆﾖﾄﾞｶﾞﾜﾁｮｳ","kana_address":"ﾁｮｳｼﾞｬﾍｲ","pref":"高知県","city":"吾川郡仁淀川町","address":"長者丙"},
{"zip_code":"7811765","kana_pref":"ｺｳﾁｹﾝ","kana_city":"ｱｶﾞﾜｸﾞﾝﾆﾖﾄﾞｶﾞﾜﾁｮｳ","kana_address":"ﾂｴ","pref":"高知県","city":"吾川郡仁淀川町","address":"津江"},
{"zip_code":"7811753","kana_pref":"ｺｳﾁｹﾝ","kana_city":"ｱｶﾞﾜｸﾞﾝﾆﾖﾄﾞｶﾞﾜﾁｮｳ","kana_address":"ﾂｴﾀﾞﾏﾘ","pref":"高知県","city":"吾川郡仁淀川町","address":"潰溜"},
{"zip_code":"7811618","kana_pref":"ｺｳﾁｹﾝ","kana_city":"ｱｶﾞﾜｸﾞﾝﾆﾖﾄﾞｶﾞﾜﾁｮｳ","kana_address":"ﾂﾊﾞﾔﾏ","pref":"高知県","city":"吾川郡仁淀川町","address":"椿山"},
{"zip_code":"7811626","kana_pref":"ｺｳﾁｹﾝ","kana_city":"ｱｶﾞﾜｸﾞﾝﾆﾖﾄﾞｶﾞﾜﾁｮｳ","kana_address":"ﾂﾎﾞｲｶﾞﾜ","pref":"高知県","city":"吾川郡仁淀川町","address":"坪井川"},
{"zip_code":"7811511","kana_pref":"ｺｳﾁｹﾝ","kana_city":"ｱｶﾞﾜｸﾞﾝﾆﾖﾄﾞｶﾞﾜﾁｮｳ","kana_address":"ﾃﾗﾑﾗ","pref":"高知県","city":"吾川郡仁淀川町","address":"寺村"},
{"zip_code":"7811624","kana_pref":"ｺｳﾁｹﾝ","kana_city":"ｱｶﾞﾜｸﾞﾝﾆﾖﾄﾞｶﾞﾜﾁｮｳ","kana_address":"ﾄﾞｲ","pref":"高知県","city":"吾川郡仁淀川町","address":"土居"},
{"zip_code":"7811606","kana_pref":"ｺｳﾁｹﾝ","kana_city":"ｱｶﾞﾜｸﾞﾝﾆﾖﾄﾞｶﾞﾜﾁｮｳ","kana_address":"ﾄﾞｲ","pref":"高知県","city":"吾川郡仁淀川町","address":"土居"},
{"zip_code":"7811752","kana_pref":"ｺｳﾁｹﾝ","kana_city":"ｱｶﾞﾜｸﾞﾝﾆﾖﾄﾞｶﾞﾜﾁｮｳ","kana_address":"ﾄｳﾉｺｴ","pref":"高知県","city":"吾川郡仁淀川町","address":"峠ノ越"},
{"zip_code":"7811763","kana_pref":"ｺｳﾁｹﾝ","kana_city":"ｱｶﾞﾜｸﾞﾝﾆﾖﾄﾞｶﾞﾜﾁｮｳ","kana_address":"ﾅｶ","pref":"高知県","city":"吾川郡仁淀川町","address":"中"},
{"zip_code":"7811764","kana_pref":"ｺｳﾁｹﾝ","kana_city":"ｱｶﾞﾜｸﾞﾝﾆﾖﾄﾞｶﾞﾜﾁｮｳ","kana_address":"ﾅｶﾞｻｶ","pref":"高知県","city":"吾川郡仁淀川町","address":"長坂"},
{"zip_code":"7811516","kana_pref":"ｺｳﾁｹﾝ","kana_city":"ｱｶﾞﾜｸﾞﾝﾆﾖﾄﾞｶﾞﾜﾁｮｳ","kana_address":"ﾅｶﾑﾗ","pref":"高知県","city":"吾川郡仁淀川町","address":"中村"},
{"zip_code":"7811524","kana_pref":"ｺｳﾁｹﾝ","kana_city":"ｱｶﾞﾜｸﾞﾝﾆﾖﾄﾞｶﾞﾜﾁｮｳ","kana_address":"ﾅｶﾞﾔ","pref":"高知県","city":"吾川郡仁淀川町","address":"長屋"},
{"zip_code":"7811741","kana_pref":"ｺｳﾁｹﾝ","kana_city":"ｱｶﾞﾜｸﾞﾝﾆﾖﾄﾞｶﾞﾜﾁｮｳ","kana_address":"ﾅﾉｶﾜ","pref":"高知県","city":"吾川郡仁淀川町","address":"名野川"},
{"zip_code":"7811744","kana_pref":"ｺｳﾁｹﾝ","kana_city":"ｱｶﾞﾜｸﾞﾝﾆﾖﾄﾞｶﾞﾜﾁｮｳ","kana_address":"ﾅﾉｶﾜｵｵﾋﾗ","pref":"高知県","city":"吾川郡仁淀川町","address":"名野川大平"},
{"zip_code":"7811622","kana_pref":"ｺｳﾁｹﾝ","kana_city":"ｱｶﾞﾜｸﾞﾝﾆﾖﾄﾞｶﾞﾜﾁｮｳ","kana_address":"ﾅﾙｶﾞﾜ","pref":"高知県","city":"吾川郡仁淀川町","address":"成川"},
{"zip_code":"7811761","kana_pref":"ｺｳﾁｹﾝ","kana_city":"ｱｶﾞﾜｸﾞﾝﾆﾖﾄﾞｶﾞﾜﾁｮｳ","kana_address":"ﾆﾉﾀｷ","pref":"高知県","city":"吾川郡仁淀川町","address":"二ノ滝"},
{"zip_code":"7811603","kana_pref":"ｺｳﾁｹﾝ","kana_city":"ｱｶﾞﾜｸﾞﾝﾆﾖﾄﾞｶﾞﾜﾁｮｳ","kana_address":"ﾋｳﾗ","pref":"高知県","city":"吾川郡仁淀川町","address":"日浦"},
{"zip_code":"7811533","kana_pref":"ｺｳﾁｹﾝ","kana_city":"ｱｶﾞﾜｸﾞﾝﾆﾖﾄﾞｶﾞﾜﾁｮｳ","kana_address":"ﾋｷﾁ","pref":"高知県","city":"吾川郡仁淀川町","address":"引地"},
{"zip_code":"7811504","kana_pref":"ｺｳﾁｹﾝ","kana_city":"ｱｶﾞﾜｸﾞﾝﾆﾖﾄﾞｶﾞﾜﾁｮｳ","kana_address":"ﾌｼﾞﾉﾉ","pref":"高知県","city":"吾川郡仁淀川町","address":"藤ノ野"},
{"zip_code":"7811535","kana_pref":"ｺｳﾁｹﾝ","kana_city":"ｱｶﾞﾜｸﾞﾝﾆﾖﾄﾞｶﾞﾜﾁｮｳ","kana_address":"ﾌﾀｺﾞﾉ","pref":"高知県","city":"吾川郡仁淀川町","address":"二子野"},
{"zip_code":"7811803","kana_pref":"ｺｳﾁｹﾝ","kana_city":"ｱｶﾞﾜｸﾞﾝﾆﾖﾄﾞｶﾞﾜﾁｮｳ","kana_address":"ﾍﾞｯｼ","pref":"高知県","city":"吾川郡仁淀川町","address":"別枝"},
{"zip_code":"7811521","kana_pref":"ｺｳﾁｹﾝ","kana_city":"ｱｶﾞﾜｸﾞﾝﾆﾖﾄﾞｶﾞﾜﾁｮｳ","kana_address":"ﾎﾝﾑﾗ","pref":"高知県","city":"吾川郡仁淀川町","address":"本村"},
{"zip_code":"7811513","kana_pref":"ｺｳﾁｹﾝ","kana_city":"ｱｶﾞﾜｸﾞﾝﾆﾖﾄﾞｶﾞﾜﾁｮｳ","kana_address":"ﾐﾈｲﾜﾄﾞ","pref":"高知県","city":"吾川郡仁淀川町","address":"峯岩戸"},
{"zip_code":"7811604","kana_pref":"ｺｳﾁｹﾝ","kana_city":"ｱｶﾞﾜｸﾞﾝﾆﾖﾄﾞｶﾞﾜﾁｮｳ","kana_address":"ﾐﾉｺｼ","pref":"高知県","city":"吾川郡仁淀川町","address":"見ノ越"},
{"zip_code":"7811627","kana_pref":"ｺｳﾁｹﾝ","kana_city":"ｱｶﾞﾜｸﾞﾝﾆﾖﾄﾞｶﾞﾜﾁｮｳ","kana_address":"ﾐﾔｶﾞﾋﾗ","pref":"高知県","city":"吾川郡仁淀川町","address":"宮ケ平"},
{"zip_code":"7811613","kana_pref":"ｺｳﾁｹﾝ","kana_city":"ｱｶﾞﾜｸﾞﾝﾆﾖﾄﾞｶﾞﾜﾁｮｳ","kana_address":"ﾐｮｳﾄｲﾜ","pref":"高知県","city":"吾川郡仁淀川町","address":"明戸岩"},
{"zip_code":"7811620","kana_pref":"ｺｳﾁｹﾝ","kana_city":"ｱｶﾞﾜｸﾞﾝﾆﾖﾄﾞｶﾞﾜﾁｮｳ","kana_address":"ﾓﾁｲｵﾂ","pref":"高知県","city":"吾川郡仁淀川町","address":"用居乙"},
{"zip_code":"7811619","kana_pref":"ｺｳﾁｹﾝ","kana_city":"ｱｶﾞﾜｸﾞﾝﾆﾖﾄﾞｶﾞﾜﾁｮｳ","kana_address":"ﾓﾁｲｺｳ","pref":"高知県","city":"吾川郡仁淀川町","address":"用居甲"},
{"zip_code":"7811616","kana_pref":"ｺｳﾁｹﾝ","kana_city":"ｱｶﾞﾜｸﾞﾝﾆﾖﾄﾞｶﾞﾜﾁｮｳ","kana_address":"ﾓﾓｶﾞﾜｳﾁ","pref":"高知県","city":"吾川郡仁淀川町","address":"百川内"},
{"zip_code":"7811801","kana_pref":"ｺｳﾁｹﾝ","kana_city":"ｱｶﾞﾜｸﾞﾝﾆﾖﾄﾞｶﾞﾜﾁｮｳ","kana_address":"ﾓﾘ","pref":"高知県","city":"吾川郡仁淀川町","address":"森"},
{"zip_code":"7811755","kana_pref":"ｺｳﾁｹﾝ","kana_city":"ｱｶﾞﾜｸﾞﾝﾆﾖﾄﾞｶﾞﾜﾁｮｳ","kana_address":"ﾓﾘﾔﾏ","pref":"高知県","city":"吾川郡仁淀川町","address":"森山"},
{"zip_code":"7811625","kana_pref":"ｺｳﾁｹﾝ","kana_city":"ｱｶﾞﾜｸﾞﾝﾆﾖﾄﾞｶﾞﾜﾁｮｳ","kana_address":"ﾖｼｶﾞﾅﾙ","pref":"高知県","city":"吾川郡仁淀川町","address":"吉ケ成"},
{"zip_code":"7811623","kana_pref":"ｺｳﾁｹﾝ","kana_city":"ｱｶﾞﾜｸﾞﾝﾆﾖﾄﾞｶﾞﾜﾁｮｳ","kana_address":"ﾖﾉｳ","pref":"高知県","city":"吾川郡仁淀川町","address":"余能"},
{"zip_code":"7811609","kana_pref":"ｺｳﾁｹﾝ","kana_city":"ｱｶﾞﾜｸﾞﾝﾆﾖﾄﾞｶﾞﾜﾁｮｳ","kana_address":"ﾖﾘｱｲ","pref":"高知県","city":"吾川郡仁淀川町","address":"寄合"},
{"zip_code":"7811757","kana_pref":"ｺｳﾁｹﾝ","kana_city":"ｱｶﾞﾜｸﾞﾝﾆﾖﾄﾞｶﾞﾜﾁｮｳ","kana_address":"ﾜｼﾉｽ","pref":"高知県","city":"吾川郡仁淀川町","address":"鷲ノ巣"},
{"zip_code":"7811515","kana_pref":"ｺｳﾁｹﾝ","kana_city":"ｱｶﾞﾜｸﾞﾝﾆﾖﾄﾞｶﾞﾜﾁｮｳ","kana_address":"ﾜﾗﾋﾞﾀﾞﾆ","pref":"高知県","city":"吾川郡仁淀川町","address":"蕨谷"},
{"zip_code":"7811300","kana_pref":"ｺｳﾁｹﾝ","kana_city":"ﾀｶｵｶｸﾞﾝｵﾁﾁｮｳ","kana_address":"","pref":"高知県","city":"高岡郡越知町","address":""},
{"zip_code":"7811325","kana_pref":"ｺｳﾁｹﾝ","kana_city":"ﾀｶｵｶｸﾞﾝｵﾁﾁｮｳ","kana_address":"ｱｿｵ","pref":"高知県","city":"高岡郡越知町","address":"浅尾"},
{"zip_code":"7811311","kana_pref":"ｺｳﾁｹﾝ","kana_city":"ﾀｶｵｶｸﾞﾝｵﾁﾁｮｳ","kana_address":"ｲﾏﾅﾘ","pref":"高知県","city":"高岡郡越知町","address":"今成"},
{"zip_code":"7811333","kana_pref":"ｺｳﾁｹﾝ","kana_city":"ﾀｶｵｶｸﾞﾝｵﾁﾁｮｳ","kana_address":"ｵｵﾋﾗ","pref":"高知県","city":"高岡郡越知町","address":"大平"},
{"zip_code":"7811301","kana_pref":"ｺｳﾁｹﾝ","kana_city":"ﾀｶｵｶｸﾞﾝｵﾁﾁｮｳ","kana_address":"ｵﾁｺｳ","pref":"高知県","city":"高岡郡越知町","address":"越知甲"},
{"zip_code":"7811302","kana_pref":"ｺｳﾁｹﾝ","kana_city":"ﾀｶｵｶｸﾞﾝｵﾁﾁｮｳ","kana_address":"ｵﾁｵﾂ","pref":"高知県","city":"高岡郡越知町","address":"越知乙"},
{"zip_code":"7811303","kana_pref":"ｺｳﾁｹﾝ","kana_city":"ﾀｶｵｶｸﾞﾝｵﾁﾁｮｳ","kana_address":"ｵﾁﾍｲ","pref":"高知県","city":"高岡郡越知町","address":"越知丙"},
{"zip_code":"7811304","kana_pref":"ｺｳﾁｹﾝ","kana_city":"ﾀｶｵｶｸﾞﾝｵﾁﾁｮｳ","kana_address":"ｵﾁﾃｲ","pref":"高知県","city":"高岡郡越知町","address":"越知丁"},
{"zip_code":"7811326","kana_pref":"ｺｳﾁｹﾝ","kana_city":"ﾀｶｵｶｸﾞﾝｵﾁﾁｮｳ","kana_address":"ｶﾀｵｶ","pref":"高知県","city":"高岡郡越知町","address":"片岡"},
{"zip_code":"7811322","kana_pref":"ｺｳﾁｹﾝ","kana_city":"ﾀｶｵｶｸﾞﾝｵﾁﾁｮｳ","kana_address":"ｶﾏｲﾀﾞｸﾔﾌﾞ","pref":"高知県","city":"高岡郡越知町","address":"鎌井田桑薮"},
{"zip_code":"7811324","kana_pref":"ｺｳﾁｹﾝ","kana_city":"ﾀｶｵｶｸﾞﾝｵﾁﾁｮｳ","kana_address":"ｶﾏｲﾀﾞｾｲｽｹ","pref":"高知県","city":"高岡郡越知町","address":"鎌井田清助"},
{"zip_code":"7811323","kana_pref":"ｺｳﾁｹﾝ","kana_city":"ﾀｶｵｶｸﾞﾝｵﾁﾁｮｳ","kana_address":"ｶﾏｲﾀﾞﾋﾉｳﾗ","pref":"高知県","city":"高岡郡越知町","address":"鎌井田日ノ浦"},
{"zip_code":"7811321","kana_pref":"ｺｳﾁｹﾝ","kana_city":"ﾀｶｵｶｸﾞﾝｵﾁﾁｮｳ","kana_address":"ｶﾏｲﾀﾞﾎﾝｿﾝ","pref":"高知県","city":"高岡郡越知町","address":"鎌井田本村"},
{"zip_code":"7811334","kana_pref":"ｺｳﾁｹﾝ","kana_city":"ﾀｶｵｶｸﾞﾝｵﾁﾁｮｳ","kana_address":"ｷﾘﾐｶﾞﾜ","pref":"高知県","city":"高岡郡越知町","address":"桐見川"},
{"zip_code":"7811327","kana_pref":"ｺｳﾁｹﾝ","kana_city":"ﾀｶｵｶｸﾞﾝｵﾁﾁｮｳ","kana_address":"ｸﾛｾ","pref":"高知県","city":"高岡郡越知町","address":"黒瀬"},
{"zip_code":"7811331","kana_pref":"ｺｳﾁｹﾝ","kana_city":"ﾀｶｵｶｸﾞﾝｵﾁﾁｮｳ","kana_address":"ｺﾞﾐ","pref":"高知県","city":"高岡郡越知町","address":"五味"},
{"zip_code":"7811337","kana_pref":"ｺｳﾁｹﾝ","kana_city":"ﾀｶｵｶｸﾞﾝｵﾁﾁｮｳ","kana_address":"ｻﾉｸﾆ","pref":"高知県","city":"高岡郡越知町","address":"佐之国"},
{"zip_code":"7811307","kana_pref":"ｺｳﾁｹﾝ","kana_city":"ﾀｶｵｶｸﾞﾝｵﾁﾁｮｳ","kana_address":"ｼﾎﾞｵ","pref":"高知県","city":"高岡郡越知町","address":"柴尾"},
{"zip_code":"7811335","kana_pref":"ｺｳﾁｹﾝ","kana_city":"ﾀｶｵｶｸﾞﾝｵﾁﾁｮｳ","kana_address":"ﾁｮｳｼﾞｬ","pref":"高知県","city":"高岡郡越知町","address":"長者"},
{"zip_code":"7811305","kana_pref":"ｺｳﾁｹﾝ","kana_city":"ﾀｶｵｶｸﾞﾝｵﾁﾁｮｳ","kana_address":"ﾄｺﾛﾔﾏ","pref":"高知県","city":"高岡郡越知町","address":"野老山"},
{"zip_code":"7811332","kana_pref":"ｺｳﾁｹﾝ","kana_city":"ﾀｶｵｶｸﾞﾝｵﾁﾁｮｳ","kana_address":"ﾅｶｵｵﾋﾗ","pref":"高知県","city":"高岡郡越知町","address":"中大平"},
{"zip_code":"7811328","kana_pref":"ｺｳﾁｹﾝ","kana_city":"ﾀｶｵｶｸﾞﾝｵﾁﾁｮｳ","kana_address":"ﾐﾅﾐｶﾀｵｶ","pref":"高知県","city":"高岡郡越知町","address":"南片岡"},
{"zip_code":"7811336","kana_pref":"ｺｳﾁｹﾝ","kana_city":"ﾀｶｵｶｸﾞﾝｵﾁﾁｮｳ","kana_address":"ﾐﾅﾐﾉｶﾜ","pref":"高知県","city":"高岡郡越知町","address":"南ノ川"},
{"zip_code":"7811338","kana_pref":"ｺｳﾁｹﾝ","kana_city":"ﾀｶｵｶｸﾞﾝｵﾁﾁｮｳ","kana_address":"ﾐﾈ","pref":"高知県","city":"高岡郡越知町","address":"峰"},
{"zip_code":"7811308","kana_pref":"ｺｳﾁｹﾝ","kana_city":"ﾀｶｵｶｸﾞﾝｵﾁﾁｮｳ","kana_address":"ﾐﾔｼﾞ","pref":"高知県","city":"高岡郡越知町","address":"宮地"},
{"zip_code":"7811306","kana_pref":"ｺｳﾁｹﾝ","kana_city":"ﾀｶｵｶｸﾞﾝｵﾁﾁｮｳ","kana_address":"ﾔﾏﾑﾛ","pref":"高知県","city":"高岡郡越知町","address":"山室"},
{"zip_code":"7811314","kana_pref":"ｺｳﾁｹﾝ","kana_city":"ﾀｶｵｶｸﾞﾝｵﾁﾁｮｳ","kana_address":"ﾖｺﾊﾞﾀｹﾅｶ","pref":"高知県","city":"高岡郡越知町","address":"横畠中"},
{"zip_code":"7811313","kana_pref":"ｺｳﾁｹﾝ","kana_city":"ﾀｶｵｶｸﾞﾝｵﾁﾁｮｳ","kana_address":"ﾖｺﾊﾞﾀｹﾋｶﾞｼ","pref":"高知県","city":"高岡郡越知町","address":"横畠東"},
{"zip_code":"7811312","kana_pref":"ｺｳﾁｹﾝ","kana_city":"ﾀｶｵｶｸﾞﾝｵﾁﾁｮｳ","kana_address":"ﾖｺﾊﾞﾀｹﾐﾅﾐ","pref":"高知県","city":"高岡郡越知町","address":"横畠南"},
{"zip_code":"7811315","kana_pref":"ｺｳﾁｹﾝ","kana_city":"ﾀｶｵｶｸﾞﾝｵﾁﾁｮｳ","kana_address":"ﾖｺﾊﾞﾀｹｷﾀ","pref":"高知県","city":"高岡郡越知町","address":"横畠北"},
{"zip_code":"7812100","kana_pref":"ｺｳﾁｹﾝ","kana_city":"ﾀｶｵｶｸﾞﾝﾋﾀﾞｶﾑﾗ","kana_address":"","pref":"高知県","city":"高岡郡日高村","address":""},
{"zip_code":"7812154","kana_pref":"ｺｳﾁｹﾝ","kana_city":"ﾀｶｵｶｸﾞﾝﾋﾀﾞｶﾑﾗ","kana_address":"ｲﾜﾒｼﾞ","pref":"高知県","city":"高岡郡日高村","address":"岩目地"},
{"zip_code":"7812163","kana_pref":"ｺｳﾁｹﾝ","kana_city":"ﾀｶｵｶｸﾞﾝﾋﾀﾞｶﾑﾗ","kana_address":"ｵｵﾊﾅ","pref":"高知県","city":"高岡郡日高村","address":"大花"},
{"zip_code":"7812152","kana_pref":"ｺｳﾁｹﾝ","kana_city":"ﾀｶｵｶｸﾞﾝﾋﾀﾞｶﾑﾗ","kana_address":"ｵｷﾅ","pref":"高知県","city":"高岡郡日高村","address":"沖名"},
{"zip_code":"7812167","kana_pref":"ｺｳﾁｹﾝ","kana_city":"ﾀｶｵｶｸﾞﾝﾋﾀﾞｶﾑﾗ","kana_address":"ｶﾓｼﾞ","pref":"高知県","city":"高岡郡日高村","address":"鴨地"},
{"zip_code":"7812155","kana_pref":"ｺｳﾁｹﾝ","kana_city":"ﾀｶｵｶｸﾞﾝﾋﾀﾞｶﾑﾗ","kana_address":"ｸｽﾞ","pref":"高知県","city":"高岡郡日高村","address":"九頭"},
{"zip_code":"7812151","kana_pref":"ｺｳﾁｹﾝ","kana_city":"ﾀｶｵｶｸﾞﾝﾋﾀﾞｶﾑﾗ","kana_address":"ｼﾓﾌﾞﾝ","pref":"高知県","city":"高岡郡日高村","address":"下分"},
{"zip_code":"7812166","kana_pref":"ｺｳﾁｹﾝ","kana_city":"ﾀｶｵｶｸﾞﾝﾋﾀﾞｶﾑﾗ","kana_address":"ﾅｶﾞﾊﾞﾀ","pref":"高知県","city":"高岡郡日高村","address":"長畑"},
{"zip_code":"7812162","kana_pref":"ｺｳﾁｹﾝ","kana_city":"ﾀｶｵｶｸﾞﾝﾋﾀﾞｶﾑﾗ","kana_address":"ﾅｺﾞﾔ","pref":"高知県","city":"高岡郡日高村","address":"名越屋"},
{"zip_code":"7812161","kana_pref":"ｺｳﾁｹﾝ","kana_city":"ﾀｶｵｶｸﾞﾝﾋﾀﾞｶﾑﾗ","kana_address":"ﾊｼﾗﾀﾆ","pref":"高知県","city":"高岡郡日高村","address":"柱谷"},
{"zip_code":"7812153","kana_pref":"ｺｳﾁｹﾝ","kana_city":"ﾀｶｵｶｸﾞﾝﾋﾀﾞｶﾑﾗ","kana_address":"ﾎﾝｺﾞｳ","pref":"高知県","city":"高岡郡日高村","address":"本郷"},
{"zip_code":"7812164","kana_pref":"ｺｳﾁｹﾝ","kana_city":"ﾀｶｵｶｸﾞﾝﾋﾀﾞｶﾑﾗ","kana_address":"ﾎﾝﾑﾗ","pref":"高知県","city":"高岡郡日高村","address":"本村"},
{"zip_code":"7812165","kana_pref":"ｺｳﾁｹﾝ","kana_city":"ﾀｶｵｶｸﾞﾝﾋﾀﾞｶﾑﾗ","kana_address":"ﾐﾔﾉﾀﾆ","pref":"高知県","city":"高岡郡日高村","address":"宮ノ谷"}]}