{"zip_code":[
{"zip_code":"7820000","kana_pref":"ｺｳﾁｹﾝ","kana_city":"ｶﾐｼ","kana_address":"","pref":"高知県","city":"香美市","address":""},
{"zip_code":"7820033","kana_pref":"ｺｳﾁｹﾝ","kana_city":"ｶﾐｼ","kana_address":"ﾄｻﾔﾏﾀﾞﾁｮｳｱｻﾋﾏﾁ","pref":"高知県","city":"香美市","address":"土佐山田町旭町"},
{"zip_code":"7820072","kana_pref":"ｺｳﾁｹﾝ","kana_city":"ｶﾐｼ","kana_address":"ﾄｻﾔﾏﾀﾞﾁｮｳｱﾗﾀﾆ","pref":"高知県","city":"香美市","address":"土佐山田町有谷"},
{"zip_code":"7820009","kana_pref":"ｺｳﾁｹﾝ","kana_city":"ｶﾐｼ","kana_address":"ﾄｻﾔﾏﾀﾞﾁｮｳｲｹﾞﾉｷ","pref":"高知県","city":"香美市","address":"土佐山田町神母ノ木"},
{"zip_code":"7820059","kana_pref":"ｺｳﾁｹﾝ","kana_city":"ｶﾐｼ","kana_address":"ﾄｻﾔﾏﾀﾞﾁｮｳｲﾘﾉ","pref":"高知県","city":"香美市","address":"土佐山田町入野"},
{"zip_code":"7820017","kana_pref":"ｺｳﾁｹﾝ","kana_city":"ｶﾐｼ","kana_address":"ﾄｻﾔﾏﾀﾞﾁｮｳｲﾜｽﾞﾐ","pref":"高知県","city":"香美市","address":"土佐山田町岩積"},
{"zip_code":"7820021","kana_pref":"ｺｳﾁｹﾝ","kana_city":"ｶﾐｼ","kana_address":"ﾄｻﾔﾏﾀﾞﾁｮｳｲﾜﾂｷﾞ","pref":"高知県","city":"香美市","address":"土佐山田町岩次"},
{"zip_code":"7820054","kana_pref":"ｺｳﾁｹﾝ","kana_city":"ｶﾐｼ","kana_address":"ﾄｻﾔﾏﾀﾞﾁｮｳｳｴ","pref":"高知県","city":"香美市","address":"土佐山田町植"},
{"zip_code":"7820074","kana_pref":"ｺｳﾁｹﾝ","kana_city":"ｶﾐｼ","kana_address":"ﾄｻﾔﾏﾀﾞﾁｮｳｵｵｺﾞｳﾆｭｳ","pref":"高知県","city":"香美市","address":"土佐山田町大後入"},
{"zip_code":"7820078","kana_pref":"ｺｳﾁｹﾝ","kana_city":"ｶﾐｼ","kana_address":"ﾄｻﾔﾏﾀﾞﾁｮｳｵｵﾋﾗ","pref":"高知県","city":"香美市","address":"土佐山田町大平"},
{"zip_code":"7820014","kana_pref":"ｺｳﾁｹﾝ","kana_city":"ｶﾐｼ","kana_address":"ﾄｻﾔﾏﾀﾞﾁｮｳｵﾀﾞｼﾞﾏ","pref":"高知県","city":"香美市","address":"土佐山田町小田島"},
{"zip_code":"7820006","kana_pref":"ｺｳﾁｹﾝ","kana_city":"ｶﾐｼ","kana_address":"ﾄｻﾔﾏﾀﾞﾁｮｳｶｹﾞﾔﾏ","pref":"高知県","city":"香美市","address":"土佐山田町影山"},
{"zip_code":"7820056","kana_pref":"ｺｳﾁｹﾝ","kana_city":"ｶﾐｼ","kana_address":"ﾄｻﾔﾏﾀﾞﾁｮｳｶﾐｶｲﾀﾞ","pref":"高知県","city":"香美市","address":"土佐山田町上改田"},
{"zip_code":"7820012","kana_pref":"ｺｳﾁｹﾝ","kana_city":"ｶﾐｼ","kana_address":"ﾄｻﾔﾏﾀﾞﾁｮｳｶﾓ","pref":"高知県","city":"香美市","address":"土佐山田町加茂"},
{"zip_code":"7820022","kana_pref":"ｺｳﾁｹﾝ","kana_city":"ｶﾐｼ","kana_address":"ﾄｻﾔﾏﾀﾞﾁｮｳｷｮｳﾃﾞﾝ","pref":"高知県","city":"香美市","address":"土佐山田町京田"},
{"zip_code":"7820023","kana_pref":"ｺｳﾁｹﾝ","kana_city":"ｶﾐｼ","kana_address":"ﾄｻﾔﾏﾀﾞﾁｮｳｷｮｳﾃﾞﾝ","pref":"高知県","city":"香美市","address":"土佐山田町京田"},
{"zip_code":"7820051","kana_pref":"ｺｳﾁｹﾝ","kana_city":"ｶﾐｼ","kana_address":"ﾄｻﾔﾏﾀﾞﾁｮｳｸｽﾞﾒ","pref":"高知県","city":"香美市","address":"土佐山田町楠目"},
{"zip_code":"7820039","kana_pref":"ｺｳﾁｹﾝ","kana_city":"ｶﾐｼ","kana_address":"ﾄｻﾔﾏﾀﾞﾁｮｳｻｶｴﾏﾁ","pref":"高知県","city":"香美市","address":"土佐山田町栄町"},
{"zip_code":"7820005","kana_pref":"ｺｳﾁｹﾝ","kana_city":"ｶﾐｼ","kana_address":"ﾄｻﾔﾏﾀﾞﾁｮｳｻｶｶﾜ","pref":"高知県","city":"香美市","address":"土佐山田町逆川"},
{"zip_code":"7820008","kana_pref":"ｺｳﾁｹﾝ","kana_city":"ｶﾐｼ","kana_address":"ﾄｻﾔﾏﾀﾞﾁｮｳｻｺﾔﾌﾞ","pref":"高知県","city":"香美市","address":"土佐山田町佐古薮"},
{"zip_code":"7820071","kana_pref":"ｺｳﾁｹﾝ","kana_city":"ｶﾐｼ","kana_address":"ﾄｻﾔﾏﾀﾞﾁｮｳｻﾀｹ","pref":"高知県","city":"香美市","address":"土佐山田町佐竹"},
{"zip_code":"7820077","kana_pref":"ｺｳﾁｹﾝ","kana_city":"ｶﾐｼ","kana_address":"ﾄｻﾔﾏﾀﾞﾁｮｳｻﾉ","pref":"高知県","city":"香美市","address":"土佐山田町佐野"},
{"zip_code":"7820079","kana_pref":"ｺｳﾁｹﾝ","kana_city":"ｶﾐｼ","kana_address":"ﾄｻﾔﾏﾀﾞﾁｮｳｻﾉ","pref":"高知県","city":"香美市","address":"土佐山田町佐野"},
{"zip_code":"7820015","kana_pref":"ｺｳﾁｹﾝ","kana_city":"ｶﾐｼ","kana_address":"ﾄｻﾔﾏﾀﾞﾁｮｳｼﾓﾉﾑﾗ","pref":"高知県","city":"香美市","address":"土佐山田町下ノ村"},
{"zip_code":"7820058","kana_pref":"ｺｳﾁｹﾝ","kana_city":"ｶﾐｼ","kana_address":"ﾄｻﾔﾏﾀﾞﾁｮｳｼﾝｶﾞｲ","pref":"高知県","city":"香美市","address":"土佐山田町新改"},
{"zip_code":"7820038","kana_pref":"ｺｳﾁｹﾝ","kana_city":"ｶﾐｼ","kana_address":"ﾄｻﾔﾏﾀﾞﾁｮｳｼﾞﾝｻﾞﾝﾁｮｳ","pref":"高知県","city":"香美市","address":"土佐山田町秦山町"},
{"zip_code":"7820024","kana_pref":"ｺｳﾁｹﾝ","kana_city":"ｶﾐｼ","kana_address":"ﾄｻﾔﾏﾀﾞﾁｮｳｼﾞﾝﾂｳｼﾞ","pref":"高知県","city":"香美市","address":"土佐山田町神通寺"},
{"zip_code":"7820001","kana_pref":"ｺｳﾁｹﾝ","kana_city":"ｶﾐｼ","kana_address":"ﾄｻﾔﾏﾀﾞﾁｮｳｽｲﾀ","pref":"高知県","city":"香美市","address":"土佐山田町杉田"},
{"zip_code":"7820055","kana_pref":"ｺｳﾁｹﾝ","kana_city":"ｶﾐｼ","kana_address":"ﾄｻﾔﾏﾀﾞﾁｮｳｽｴ","pref":"高知県","city":"香美市","address":"土佐山田町須江"},
{"zip_code":"7820061","kana_pref":"ｺｳﾁｹﾝ","kana_city":"ｶﾐｼ","kana_address":"ﾄｻﾔﾏﾀﾞﾁｮｳｿｶﾞﾍﾞｶﾞﾜ","pref":"高知県","city":"香美市","address":"土佐山田町曽我部川"},
{"zip_code":"7820064","kana_pref":"ｺｳﾁｹﾝ","kana_city":"ｶﾐｼ","kana_address":"ﾄｻﾔﾏﾀﾞﾁｮｳﾀﾞｲﾎｳｼﾞ","pref":"高知県","city":"香美市","address":"土佐山田町大法寺"},
{"zip_code":"7820034","kana_pref":"ｺｳﾁｹﾝ","kana_city":"ｶﾐｼ","kana_address":"ﾄｻﾔﾏﾀﾞﾁｮｳﾀｶﾗﾏﾁ","pref":"高知県","city":"香美市","address":"土佐山田町宝町"},
{"zip_code":"7820010","kana_pref":"ｺｳﾁｹﾝ","kana_city":"ｶﾐｼ","kana_address":"ﾄｻﾔﾏﾀﾞﾁｮｳﾃｸﾉﾊﾟｰｸ","pref":"高知県","city":"香美市","address":"土佐山田町テクノパーク"},
{"zip_code":"7820018","kana_pref":"ｺｳﾁｹﾝ","kana_city":"ｶﾐｼ","kana_address":"ﾄｻﾔﾏﾀﾞﾁｮｳﾄｲﾀｼﾞﾏ","pref":"高知県","city":"香美市","address":"土佐山田町戸板島"},
{"zip_code":"7820073","kana_pref":"ｺｳﾁｹﾝ","kana_city":"ｶﾐｼ","kana_address":"ﾄｻﾔﾏﾀﾞﾁｮｳﾅｶｺﾞｳﾆｭｳ","pref":"高知県","city":"香美市","address":"土佐山田町中後入"},
{"zip_code":"7820019","kana_pref":"ｺｳﾁｹﾝ","kana_city":"ｶﾐｼ","kana_address":"ﾄｻﾔﾏﾀﾞﾁｮｳﾅｶﾉ","pref":"高知県","city":"香美市","address":"土佐山田町中野"},
{"zip_code":"7820075","kana_pref":"ｺｳﾁｹﾝ","kana_city":"ｶﾐｼ","kana_address":"ﾄｻﾔﾏﾀﾞﾁｮｳﾆｼｺﾞﾆｭｳ","pref":"高知県","city":"香美市","address":"土佐山田町西後入"},
{"zip_code":"7820032","kana_pref":"ｺｳﾁｹﾝ","kana_city":"ｶﾐｼ","kana_address":"ﾄｻﾔﾏﾀﾞﾁｮｳﾆｼﾎﾝﾏﾁ","pref":"高知県","city":"香美市","address":"土佐山田町西本町"},
{"zip_code":"7820004","kana_pref":"ｺｳﾁｹﾝ","kana_city":"ｶﾐｼ","kana_address":"ﾄｻﾔﾏﾀﾞﾁｮｳﾊｻﾞﾏ","pref":"高知県","city":"香美市","address":"土佐山田町間"},
{"zip_code":"7820007","kana_pref":"ｺｳﾁｹﾝ","kana_city":"ｶﾐｼ","kana_address":"ﾄｻﾔﾏﾀﾞﾁｮｳﾊﾔｼﾀﾞ","pref":"高知県","city":"香美市","address":"土佐山田町林田"},
{"zip_code":"7820063","kana_pref":"ｺｳﾁｹﾝ","kana_city":"ｶﾐｼ","kana_address":"ﾄｻﾔﾏﾀﾞﾁｮｳﾋｶﾞｼｶﾞﾜ","pref":"高知県","city":"香美市","address":"土佐山田町東川"},
{"zip_code":"7820031","kana_pref":"ｺｳﾁｹﾝ","kana_city":"ｶﾐｼ","kana_address":"ﾄｻﾔﾏﾀﾞﾁｮｳﾋｶﾞｼﾎﾝﾏﾁ","pref":"高知県","city":"香美市","address":"土佐山田町東本町"},
{"zip_code":"7820057","kana_pref":"ｺｳﾁｹﾝ","kana_city":"ｶﾐｼ","kana_address":"ﾄｻﾔﾏﾀﾞﾁｮｳﾋｻﾂｷﾞ","pref":"高知県","city":"香美市","address":"土佐山田町久次"},
{"zip_code":"7820035","kana_pref":"ｺｳﾁｹﾝ","kana_city":"ｶﾐｼ","kana_address":"ﾄｻﾔﾏﾀﾞﾁｮｳﾋｬｯｺｸﾁｮｳ","pref":"高知県","city":"香美市","address":"土佐山田町百石町"},
{"zip_code":"7820062","kana_pref":"ｺｳﾁｹﾝ","kana_city":"ｶﾐｼ","kana_address":"ﾄｻﾔﾏﾀﾞﾁｮｳﾋﾗﾔﾏ","pref":"高知県","city":"香美市","address":"土佐山田町平山"},
{"zip_code":"7820002","kana_pref":"ｺｳﾁｹﾝ","kana_city":"ｶﾐｼ","kana_address":"ﾄｻﾔﾏﾀﾞﾁｮｳﾌﾅﾀﾞﾆ","pref":"高知県","city":"香美市","address":"土佐山田町船谷"},
{"zip_code":"7820076","kana_pref":"ｺｳﾁｹﾝ","kana_city":"ｶﾐｼ","kana_address":"ﾄｻﾔﾏﾀﾞﾁｮｳﾎﾝﾑﾗ","pref":"高知県","city":"香美市","address":"土佐山田町本村"},
{"zip_code":"7820013","kana_pref":"ｺｳﾁｹﾝ","kana_city":"ｶﾐｼ","kana_address":"ﾄｻﾔﾏﾀﾞﾁｮｳﾏﾁﾀﾞ","pref":"高知県","city":"香美市","address":"土佐山田町町田"},
{"zip_code":"7820025","kana_pref":"ｺｳﾁｹﾝ","kana_city":"ｶﾐｼ","kana_address":"ﾄｻﾔﾏﾀﾞﾁｮｳﾏﾂﾓﾄ","pref":"高知県","city":"香美市","address":"土佐山田町松本"},
{"zip_code":"7820003","kana_pref":"ｺｳﾁｹﾝ","kana_city":"ｶﾐｼ","kana_address":"ﾄｻﾔﾏﾀﾞﾁｮｳﾐﾔﾉｸﾁ","pref":"高知県","city":"香美市","address":"土佐山田町宮ノ口"},
{"zip_code":"7820037","kana_pref":"ｺｳﾁｹﾝ","kana_city":"ｶﾐｼ","kana_address":"ﾄｻﾔﾏﾀﾞﾁｮｳﾐﾔﾏｴﾁｮｳ","pref":"高知県","city":"香美市","address":"土佐山田町宮前町"},
{"zip_code":"7820016","kana_pref":"ｺｳﾁｹﾝ","kana_city":"ｶﾐｼ","kana_address":"ﾄｻﾔﾏﾀﾞﾁｮｳﾔﾏﾀﾞ","pref":"高知県","city":"香美市","address":"土佐山田町山田"},
{"zip_code":"7820011","kana_pref":"ｺｳﾁｹﾝ","kana_city":"ｶﾐｼ","kana_address":"ﾄｻﾔﾏﾀﾞﾁｮｳﾔﾏﾀﾞｼﾞﾏ","pref":"高知県","city":"香美市","address":"土佐山田町山田島"},
{"zip_code":"7820043","kana_pref":"ｺｳﾁｹﾝ","kana_city":"ｶﾐｼ","kana_address":"ﾄｻﾔﾏﾀﾞﾁｮｳ","pref":"高知県","city":"香美市","address":"土佐山田町"},
{"zip_code":"7820041","kana_pref":"ｺｳﾁｹﾝ","kana_city":"ｶﾐｼ","kana_address":"ﾄｻﾔﾏﾀﾞﾁｮｳ","pref":"高知県","city":"香美市","address":"土佐山田町"},
{"zip_code":"7820045","kana_pref":"ｺｳﾁｹﾝ","kana_city":"ｶﾐｼ","kana_address":"ﾄｻﾔﾏﾀﾞﾁｮｳ","pref":"高知県","city":"香美市","address":"土佐山田町"},
{"zip_code":"7820044","kana_pref":"ｺｳﾁｹﾝ","kana_city":"ｶﾐｼ","kana_address":"ﾄｻﾔﾏﾀﾞﾁｮｳ","pref":"高知県","city":"香美市","address":"土佐山田町"},
{"zip_code":"7820036","kana_pref":"ｺｳﾁｹﾝ","kana_city":"ｶﾐｼ","kana_address":"ﾄｻﾔﾏﾀﾞﾁｮｳ","pref":"高知県","city":"香美市","address":"土佐山田町"},
{"zip_code":"7820042","kana_pref":"ｺｳﾁｹﾝ","kana_city":"ｶﾐｼ","kana_address":"ﾄｻﾔﾏﾀﾞﾁｮｳ","pref":"高知県","city":"香美市","address":"土佐山田町"},
{"zip_code":"7820046","kana_pref":"ｺｳﾁｹﾝ","kana_city":"ｶﾐｼ","kana_address":"ﾄｻﾔﾏﾀﾞﾁｮｳ","pref":"高知県","city":"香美市","address":"土佐山田町"},
{"zip_code":"7820047","kana_pref":"ｺｳﾁｹﾝ","kana_city":"ｶﾐｼ","kana_address":"ﾄｻﾔﾏﾀﾞﾁｮｳ","pref":"高知県","city":"香美市","address":"土佐山田町"}]}