{"zip_code":[
{"zip_code":"7860000","kana_pref":"ｺｳﾁｹﾝ","kana_city":"ﾀｶｵｶｸﾞﾝｼﾏﾝﾄﾁｮｳ","kana_address":"","pref":"高知県","city":"高岡郡四万十町","address":""},
{"zip_code":"7860327","kana_pref":"ｺｳﾁｹﾝ","kana_city":"ﾀｶｵｶｸﾞﾝｼﾏﾝﾄﾁｮｳ","kana_address":"ｱｲｻﾞﾚ","pref":"高知県","city":"高岡郡四万十町","address":"相去"},
{"zip_code":"7860075","kana_pref":"ｺｳﾁｹﾝ","kana_city":"ﾀｶｵｶｸﾞﾝｼﾏﾝﾄﾁｮｳ","kana_address":"ｱｷﾏﾙ","pref":"高知県","city":"高岡郡四万十町","address":"秋丸"},
{"zip_code":"7860064","kana_pref":"ｺｳﾁｹﾝ","kana_city":"ﾀｶｵｶｸﾞﾝｼﾏﾝﾄﾁｮｳ","kana_address":"ｲｴｼﾞｶﾞﾜ","pref":"高知県","city":"高岡郡四万十町","address":"家地川"},
{"zip_code":"7860533","kana_pref":"ｺｳﾁｹﾝ","kana_city":"ﾀｶｵｶｸﾞﾝｼﾏﾝﾄﾁｮｳ","kana_address":"ｲｻｷ","pref":"高知県","city":"高岡郡四万十町","address":"井崎"},
{"zip_code":"7860088","kana_pref":"ｺｳﾁｹﾝ","kana_city":"ﾀｶｵｶｸﾞﾝｼﾏﾝﾄﾁｮｳ","kana_address":"ｲﾁｳﾊﾞﾗ","pref":"高知県","city":"高岡郡四万十町","address":"市生原"},
{"zip_code":"7860325","kana_pref":"ｺｳﾁｹﾝ","kana_city":"ﾀｶｵｶｸﾞﾝｼﾏﾝﾄﾁｮｳ","kana_address":"ｲﾁﾉﾏﾀ","pref":"高知県","city":"高岡郡四万十町","address":"市ノ又"},
{"zip_code":"7860094","kana_pref":"ｺｳﾁｹﾝ","kana_city":"ﾀｶｵｶｸﾞﾝｼﾏﾝﾄﾁｮｳ","kana_address":"ｲｯﾄﾋｮｳ","pref":"高知県","city":"高岡郡四万十町","address":"一斗俵"},
{"zip_code":"7860037","kana_pref":"ｺｳﾁｹﾝ","kana_city":"ﾀｶｵｶｸﾞﾝｼﾏﾝﾄﾁｮｳ","kana_address":"ｳｵﾉｶﾜ","pref":"高知県","city":"高岡郡四万十町","address":"魚の川"},
{"zip_code":"7860322","kana_pref":"ｺｳﾁｹﾝ","kana_city":"ﾀｶｵｶｸﾞﾝｼﾏﾝﾄﾁｮｳ","kana_address":"ｳﾂｲｶﾞﾜ","pref":"高知県","city":"高岡郡四万十町","address":"打井川"},
{"zip_code":"7860523","kana_pref":"ｺｳﾁｹﾝ","kana_city":"ﾀｶｵｶｸﾞﾝｼﾏﾝﾄﾁｮｳ","kana_address":"ｳﾗｺﾞｼ","pref":"高知県","city":"高岡郡四万十町","address":"浦越"},
{"zip_code":"7860307","kana_pref":"ｺｳﾁｹﾝ","kana_city":"ﾀｶｵｶｸﾞﾝｼﾏﾝﾄﾁｮｳ","kana_address":"ｴｼ","pref":"高知県","city":"高岡郡四万十町","address":"江師"},
{"zip_code":"7860532","kana_pref":"ｺｳﾁｹﾝ","kana_city":"ﾀｶｵｶｸﾞﾝｼﾏﾝﾄﾁｮｳ","kana_address":"ｵｵｲｶﾞﾜ","pref":"高知県","city":"高岡郡四万十町","address":"大井川"},
{"zip_code":"7860016","kana_pref":"ｺｳﾁｹﾝ","kana_city":"ﾀｶｵｶｸﾞﾝｼﾏﾝﾄﾁｮｳ","kana_address":"ｵｵｲﾉ","pref":"高知県","city":"高岡郡四万十町","address":"大井野"},
{"zip_code":"7860058","kana_pref":"ｺｳﾁｹﾝ","kana_city":"ﾀｶｵｶｸﾞﾝｼﾏﾝﾄﾁｮｳ","kana_address":"ｵｵﾂﾙﾂ","pref":"高知県","city":"高岡郡四万十町","address":"大鶴津"},
{"zip_code":"7860067","kana_pref":"ｺｳﾁｹﾝ","kana_city":"ﾀｶｵｶｸﾞﾝｼﾏﾝﾄﾁｮｳ","kana_address":"ｵｵﾑｶｲ","pref":"高知県","city":"高岡郡四万十町","address":"大向"},
{"zip_code":"7860045","kana_pref":"ｺｳﾁｹﾝ","kana_city":"ﾀｶｵｶｸﾞﾝｼﾏﾝﾄﾁｮｳ","kana_address":"ｵｷﾂ","pref":"高知県","city":"高岡郡四万十町","address":"興津"},
{"zip_code":"7860046","kana_pref":"ｺｳﾁｹﾝ","kana_city":"ﾀｶｵｶｸﾞﾝｼﾏﾝﾄﾁｮｳ","kana_address":"ｵｷﾂ","pref":"高知県","city":"高岡郡四万十町","address":"興津"},
{"zip_code":"7860517","kana_pref":"ｺｳﾁｹﾝ","kana_city":"ﾀｶｵｶｸﾞﾝｼﾏﾝﾄﾁｮｳ","kana_address":"ｵｸｵｵﾄﾞｳ","pref":"高知県","city":"高岡郡四万十町","address":"奥大道"},
{"zip_code":"7860038","kana_pref":"ｺｳﾁｹﾝ","kana_city":"ﾀｶｵｶｸﾞﾝｼﾏﾝﾄﾁｮｳ","kana_address":"ｵｸｸﾚｼﾞ","pref":"高知県","city":"高岡郡四万十町","address":"奥呉地"},
{"zip_code":"7860071","kana_pref":"ｺｳﾁｹﾝ","kana_city":"ﾀｶｵｶｸﾞﾝｼﾏﾝﾄﾁｮｳ","kana_address":"ｵｸｺﾞｳﾉｶﾜ","pref":"高知県","city":"高岡郡四万十町","address":"奥神ノ川"},
{"zip_code":"7860531","kana_pref":"ｺｳﾁｹﾝ","kana_city":"ﾀｶｵｶｸﾞﾝｼﾏﾝﾄﾁｮｳ","kana_address":"ｵﾉ","pref":"高知県","city":"高岡郡四万十町","address":"小野"},
{"zip_code":"7860048","kana_pref":"ｺｳﾁｹﾝ","kana_city":"ﾀｶｵｶｸﾞﾝｼﾏﾝﾄﾁｮｳ","kana_address":"ｵﾔｶﾞｳﾁ","pref":"高知県","city":"高岡郡四万十町","address":"親ケ内"},
{"zip_code":"7860078","kana_pref":"ｺｳﾁｹﾝ","kana_city":"ﾀｶｵｶｸﾞﾝｼﾏﾝﾄﾁｮｳ","kana_address":"ｵﾚｱｲ","pref":"高知県","city":"高岡郡四万十町","address":"折合"},
{"zip_code":"7860034","kana_pref":"ｺｳﾁｹﾝ","kana_city":"ﾀｶｵｶｸﾞﾝｼﾏﾝﾄﾁｮｳ","kana_address":"ｶｴｻﾞｶﾓﾄ","pref":"高知県","city":"高岡郡四万十町","address":"替坂本"},
{"zip_code":"7860011","kana_pref":"ｺｳﾁｹﾝ","kana_city":"ﾀｶｵｶｸﾞﾝｼﾏﾝﾄﾁｮｳ","kana_address":"ｶｹﾞﾂｶﾞｵｶ","pref":"高知県","city":"高岡郡四万十町","address":"香月が丘"},
{"zip_code":"7860032","kana_pref":"ｺｳﾁｹﾝ","kana_city":"ﾀｶｵｶｸﾞﾝｼﾏﾝﾄﾁｮｳ","kana_address":"ｶｹﾞﾉ","pref":"高知県","city":"高岡郡四万十町","address":"影野"},
{"zip_code":"7860049","kana_pref":"ｺｳﾁｹﾝ","kana_city":"ﾀｶｵｶｸﾞﾝｼﾏﾝﾄﾁｮｳ","kana_address":"ｶｽﾞｺｳ","pref":"高知県","city":"高岡郡四万十町","address":"数神"},
{"zip_code":"7860098","kana_pref":"ｺｳﾁｹﾝ","kana_city":"ﾀｶｵｶｸﾞﾝｼﾏﾝﾄﾁｮｳ","kana_address":"ｶﾐｱｷﾏﾙ","pref":"高知県","city":"高岡郡四万十町","address":"上秋丸"},
{"zip_code":"7860305","kana_pref":"ｺｳﾁｹﾝ","kana_city":"ﾀｶｵｶｸﾞﾝｼﾏﾝﾄﾁｮｳ","kana_address":"ｶﾐｵｶ","pref":"高知県","city":"高岡郡四万十町","address":"上岡"},
{"zip_code":"7860522","kana_pref":"ｺｳﾁｹﾝ","kana_city":"ﾀｶｵｶｸﾞﾝｼﾏﾝﾄﾁｮｳ","kana_address":"ｶﾔﾌﾞｸﾃ","pref":"高知県","city":"高岡郡四万十町","address":"茅吹手"},
{"zip_code":"7860326","kana_pref":"ｺｳﾁｹﾝ","kana_city":"ﾀｶｵｶｸﾞﾝｼﾏﾝﾄﾁｮｳ","kana_address":"ｶﾗｽﾃﾞ","pref":"高知県","city":"高岡郡四万十町","address":"烏手"},
{"zip_code":"7860514","kana_pref":"ｺｳﾁｹﾝ","kana_city":"ﾀｶｵｶｸﾞﾝｼﾏﾝﾄﾁｮｳ","kana_address":"ｶﾜｳﾁ","pref":"高知県","city":"高岡郡四万十町","address":"河内"},
{"zip_code":"7860091","kana_pref":"ｺｳﾁｹﾝ","kana_city":"ﾀｶｵｶｸﾞﾝｼﾏﾝﾄﾁｮｳ","kana_address":"ｶﾜﾉｳﾁ","pref":"高知県","city":"高岡郡四万十町","address":"川ノ内"},
{"zip_code":"7860012","kana_pref":"ｺｳﾁｹﾝ","kana_city":"ﾀｶｵｶｸﾞﾝｼﾏﾝﾄﾁｮｳ","kana_address":"ｷﾀｺﾄﾋﾗﾏﾁ","pref":"高知県","city":"高岡郡四万十町","address":"北琴平町"},
{"zip_code":"7860303","kana_pref":"ｺｳﾁｹﾝ","kana_city":"ﾀｶｵｶｸﾞﾝｼﾏﾝﾄﾁｮｳ","kana_address":"ｷﾉｶﾜ","pref":"高知県","city":"高岡郡四万十町","address":"希ノ川"},
{"zip_code":"7860003","kana_pref":"ｺｳﾁｹﾝ","kana_city":"ﾀｶｵｶｸﾞﾝｼﾏﾝﾄﾁｮｳ","kana_address":"ｷﾝｼﾞｮｳﾉ","pref":"高知県","city":"高岡郡四万十町","address":"金上野"},
{"zip_code":"7860516","kana_pref":"ｺｳﾁｹﾝ","kana_city":"ﾀｶｵｶｸﾞﾝｼﾏﾝﾄﾁｮｳ","kana_address":"ｸﾁｵｵﾄﾞｳ","pref":"高知県","city":"高岡郡四万十町","address":"口大道"},
{"zip_code":"7860073","kana_pref":"ｺｳﾁｹﾝ","kana_city":"ﾀｶｵｶｸﾞﾝｼﾏﾝﾄﾁｮｳ","kana_address":"ｸﾁｺﾞｳﾉｶﾜ","pref":"高知県","city":"高岡郡四万十町","address":"口神ノ川"},
{"zip_code":"7860010","kana_pref":"ｺｳﾁｹﾝ","kana_city":"ﾀｶｵｶｸﾞﾝｼﾏﾝﾄﾁｮｳ","kana_address":"ｸﾎﾞｶﾜ","pref":"高知県","city":"高岡郡四万十町","address":"窪川"},
{"zip_code":"7860515","kana_pref":"ｺｳﾁｹﾝ","kana_city":"ﾀｶｵｶｸﾞﾝｼﾏﾝﾄﾁｮｳ","kana_address":"ｸﾎﾞｶﾜ","pref":"高知県","city":"高岡郡四万十町","address":"久保川"},
{"zip_code":"7860096","kana_pref":"ｺｳﾁｹﾝ","kana_city":"ﾀｶｵｶｸﾞﾝｼﾏﾝﾄﾁｮｳ","kana_address":"ｸﾎﾞｶﾜﾅｶﾂｶﾞﾜ","pref":"高知県","city":"高岡郡四万十町","address":"窪川中津川"},
{"zip_code":"7860042","kana_pref":"ｺｳﾁｹﾝ","kana_city":"ﾀｶｵｶｸﾞﾝｼﾏﾝﾄﾁｮｳ","kana_address":"ｸﾛｲｼ","pref":"高知県","city":"高岡郡四万十町","address":"黒石"},
{"zip_code":"7860306","kana_pref":"ｺｳﾁｹﾝ","kana_city":"ﾀｶｵｶｸﾞﾝｼﾏﾝﾄﾁｮｳ","kana_address":"ｺｲｼ","pref":"高知県","city":"高岡郡四万十町","address":"小石"},
{"zip_code":"7860017","kana_pref":"ｺｳﾁｹﾝ","kana_city":"ﾀｶｵｶｸﾞﾝｼﾏﾝﾄﾁｮｳ","kana_address":"ｺｳﾉｻｲ","pref":"高知県","city":"高岡郡四万十町","address":"神ノ西"},
{"zip_code":"7860502","kana_pref":"ｺｳﾁｹﾝ","kana_city":"ﾀｶｵｶｸﾞﾝｼﾏﾝﾄﾁｮｳ","kana_address":"ｺｼﾞｮｳ","pref":"高知県","city":"高岡郡四万十町","address":"古城"},
{"zip_code":"7860057","kana_pref":"ｺｳﾁｹﾝ","kana_city":"ﾀｶｵｶｸﾞﾝｼﾏﾝﾄﾁｮｳ","kana_address":"ｺﾂﾞﾙﾂ","pref":"高知県","city":"高岡郡四万十町","address":"小鶴津"},
{"zip_code":"7860013","kana_pref":"ｺｳﾁｹﾝ","kana_city":"ﾀｶｵｶｸﾞﾝｼﾏﾝﾄﾁｮｳ","kana_address":"ｺﾄﾋﾗﾏﾁ","pref":"高知県","city":"高岡郡四万十町","address":"琴平町"},
{"zip_code":"7860022","kana_pref":"ｺｳﾁｹﾝ","kana_city":"ﾀｶｵｶｸﾞﾝｼﾏﾝﾄﾁｮｳ","kana_address":"ｺﾑｶｲ","pref":"高知県","city":"高岡郡四万十町","address":"小向"},
{"zip_code":"7860313","kana_pref":"ｺｳﾁｹﾝ","kana_city":"ﾀｶｵｶｸﾞﾝｼﾏﾝﾄﾁｮｳ","kana_address":"ｺﾔｶﾞｳﾁ","pref":"高知県","city":"高岡郡四万十町","address":"木屋ケ内"},
{"zip_code":"7860028","kana_pref":"ｺｳﾁｹﾝ","kana_city":"ﾀｶｵｶｸﾞﾝｼﾏﾝﾄﾁｮｳ","kana_address":"ｺﾞﾝｹﾞﾝﾊﾞﾗ","pref":"高知県","city":"高岡郡四万十町","address":"根元原"},
{"zip_code":"7860015","kana_pref":"ｺｳﾁｹﾝ","kana_city":"ﾀｶｵｶｸﾞﾝｼﾏﾝﾄﾁｮｳ","kana_address":"ｻｲﾊﾞﾗ","pref":"高知県","city":"高岡郡四万十町","address":"西原"},
{"zip_code":"7860008","kana_pref":"ｺｳﾁｹﾝ","kana_city":"ﾀｶｵｶｸﾞﾝｼﾏﾝﾄﾁｮｳ","kana_address":"ｻｶｷﾔﾏﾁｮｳ","pref":"高知県","city":"高岡郡四万十町","address":"榊山町"},
{"zip_code":"7860087","kana_pref":"ｺｳﾁｹﾝ","kana_city":"ﾀｶｵｶｸﾞﾝｼﾏﾝﾄﾁｮｳ","kana_address":"ｻｸﾔ","pref":"高知県","city":"高岡郡四万十町","address":"作屋"},
{"zip_code":"7860524","kana_pref":"ｺｳﾁｹﾝ","kana_city":"ﾀｶｵｶｸﾞﾝｼﾏﾝﾄﾁｮｳ","kana_address":"ｻﾄｶﾜ","pref":"高知県","city":"高岡郡四万十町","address":"里川"},
{"zip_code":"7860004","kana_pref":"ｺｳﾁｹﾝ","kana_city":"ﾀｶｵｶｸﾞﾝｼﾏﾝﾄﾁｮｳ","kana_address":"ｼｹﾞｸｼﾁｮｳ","pref":"高知県","city":"高岡郡四万十町","address":"茂串町"},
{"zip_code":"7860018","kana_pref":"ｺｳﾁｹﾝ","kana_city":"ﾀｶｵｶｸﾞﾝｼﾏﾝﾄﾁｮｳ","kana_address":"ｼﾃﾞﾊﾗ","pref":"高知県","city":"高岡郡四万十町","address":"仕出原"},
{"zip_code":"7860304","kana_pref":"ｺｳﾁｹﾝ","kana_city":"ﾀｶｵｶｸﾞﾝｼﾏﾝﾄﾁｮｳ","kana_address":"ｼﾓｵｶ","pref":"高知県","city":"高岡郡四万十町","address":"下岡"},
{"zip_code":"7860036","kana_pref":"ｺｳﾁｹﾝ","kana_city":"ﾀｶｵｶｸﾞﾝｼﾏﾝﾄﾁｮｳ","kana_address":"ｼﾓｸﾚｼﾞ","pref":"高知県","city":"高岡郡四万十町","address":"下呉地"},
{"zip_code":"7860315","kana_pref":"ｺｳﾁｹﾝ","kana_city":"ﾀｶｵｶｸﾞﾝｼﾏﾝﾄﾁｮｳ","kana_address":"ｼﾓﾂｲ","pref":"高知県","city":"高岡郡四万十町","address":"下津井"},
{"zip_code":"7860314","kana_pref":"ｺｳﾁｹﾝ","kana_city":"ﾀｶｵｶｸﾞﾝｼﾏﾝﾄﾁｮｳ","kana_address":"ｼﾓﾄﾞｳ","pref":"高知県","city":"高岡郡四万十町","address":"下道"},
{"zip_code":"7860092","kana_pref":"ｺｳﾁｹﾝ","kana_city":"ﾀｶｵｶｸﾞﾝｼﾏﾝﾄﾁｮｳ","kana_address":"ｼｮｳｶﾞﾉ","pref":"高知県","city":"高岡郡四万十町","address":"勝賀野"},
{"zip_code":"7860323","kana_pref":"ｺｳﾁｹﾝ","kana_city":"ﾀｶｵｶｸﾞﾝｼﾏﾝﾄﾁｮｳ","kana_address":"ｼﾞｮｳｸﾞｳ","pref":"高知県","city":"高岡郡四万十町","address":"上宮"},
{"zip_code":"7860513","kana_pref":"ｺｳﾁｹﾝ","kana_city":"ﾀｶｵｶｸﾞﾝｼﾏﾝﾄﾁｮｳ","kana_address":"ｼｮｳﾜｵﾂ","pref":"高知県","city":"高岡郡四万十町","address":"昭和乙"},
{"zip_code":"7860512","kana_pref":"ｺｳﾁｹﾝ","kana_city":"ﾀｶｵｶｸﾞﾝｼﾏﾝﾄﾁｮｳ","kana_address":"ｼｮｳﾜｺｳ","pref":"高知県","city":"高岡郡四万十町","address":"昭和甲"},
{"zip_code":"7860511","kana_pref":"ｺｳﾁｹﾝ","kana_city":"ﾀｶｵｶｸﾞﾝｼﾏﾝﾄﾁｮｳ","kana_address":"ｼｮｳﾜ","pref":"高知県","city":"高岡郡四万十町","address":"昭和"},
{"zip_code":"7860501","kana_pref":"ｺｳﾁｹﾝ","kana_city":"ﾀｶｵｶｸﾞﾝｼﾏﾝﾄﾁｮｳ","kana_address":"ｼﾞﾖｼ","pref":"高知県","city":"高岡郡四万十町","address":"地吉"},
{"zip_code":"7860056","kana_pref":"ｺｳﾁｹﾝ","kana_city":"ﾀｶｵｶｸﾞﾝｼﾏﾝﾄﾁｮｳ","kana_address":"ｼﾜ","pref":"高知県","city":"高岡郡四万十町","address":"志和"},
{"zip_code":"7860055","kana_pref":"ｺｳﾁｹﾝ","kana_city":"ﾀｶｵｶｸﾞﾝｼﾏﾝﾄﾁｮｳ","kana_address":"ｼﾜﾐﾈ","pref":"高知県","city":"高岡郡四万十町","address":"志和峰"},
{"zip_code":"7860014","kana_pref":"ｺｳﾁｹﾝ","kana_city":"ﾀｶｵｶｸﾞﾝｼﾏﾝﾄﾁｮｳ","kana_address":"ｼﾝｶﾞｲﾁｮｳ","pref":"高知県","city":"高岡郡四万十町","address":"新開町"},
{"zip_code":"7860302","kana_pref":"ｺｳﾁｹﾝ","kana_city":"ﾀｶｵｶｸﾞﾝｼﾏﾝﾄﾁｮｳ","kana_address":"ｾﾘ","pref":"高知県","city":"高岡郡四万十町","address":"瀬里"},
{"zip_code":"7860066","kana_pref":"ｺｳﾁｹﾝ","kana_city":"ﾀｶｵｶｸﾞﾝｼﾏﾝﾄﾁｮｳ","kana_address":"ｿﾗﾉｶﾜ","pref":"高知県","city":"高岡郡四万十町","address":"天の川"},
{"zip_code":"7860301","kana_pref":"ｺｳﾁｹﾝ","kana_city":"ﾀｶｵｶｸﾞﾝｼﾏﾝﾄﾁｮｳ","kana_address":"ﾀｲｼｮｳ","pref":"高知県","city":"高岡郡四万十町","address":"大正"},
{"zip_code":"7860312","kana_pref":"ｺｳﾁｹﾝ","kana_city":"ﾀｶｵｶｸﾞﾝｼﾏﾝﾄﾁｮｳ","kana_address":"ﾀｲｼｮｳｵｵﾅﾛ","pref":"高知県","city":"高岡郡四万十町","address":"大正大奈路"},
{"zip_code":"7860321","kana_pref":"ｺｳﾁｹﾝ","kana_city":"ﾀｶｵｶｸﾞﾝｼﾏﾝﾄﾁｮｳ","kana_address":"ﾀｲｼｮｳｷﾀﾉｶﾜ","pref":"高知県","city":"高岡郡四万十町","address":"大正北ノ川"},
{"zip_code":"7860316","kana_pref":"ｺｳﾁｹﾝ","kana_city":"ﾀｶｵｶｸﾞﾝｼﾏﾝﾄﾁｮｳ","kana_address":"ﾀｲｼｮｳﾅｶﾂｶﾜ","pref":"高知県","city":"高岡郡四万十町","address":"大正中津川"},
{"zip_code":"7860063","kana_pref":"ｺｳﾁｹﾝ","kana_city":"ﾀｶｵｶｸﾞﾝｼﾏﾝﾄﾁｮｳ","kana_address":"ﾀｶﾉ","pref":"高知県","city":"高岡郡四万十町","address":"高野"},
{"zip_code":"7860521","kana_pref":"ｺｳﾁｹﾝ","kana_city":"ﾀｶｵｶｸﾞﾝｼﾏﾝﾄﾁｮｳ","kana_address":"ﾂｶﾞ","pref":"高知県","city":"高岡郡四万十町","address":"津賀"},
{"zip_code":"7860076","kana_pref":"ｺｳﾁｹﾝ","kana_city":"ﾀｶｵｶｸﾞﾝｼﾏﾝﾄﾁｮｳ","kana_address":"ﾃﾗﾉ","pref":"高知県","city":"高岡郡四万十町","address":"寺野"},
{"zip_code":"7860052","kana_pref":"ｺｳﾁｹﾝ","kana_city":"ﾀｶｵｶｸﾞﾝｼﾏﾝﾄﾁｮｳ","kana_address":"ﾄﾞｲ","pref":"高知県","city":"高岡郡四万十町","address":"土居"},
{"zip_code":"7860033","kana_pref":"ｺｳﾁｹﾝ","kana_city":"ﾀｶｵｶｸﾞﾝｼﾏﾝﾄﾁｮｳ","kana_address":"ﾄﾞｳﾄｸ","pref":"高知県","city":"高岡郡四万十町","address":"道徳"},
{"zip_code":"7860504","kana_pref":"ｺｳﾁｹﾝ","kana_city":"ﾀｶｵｶｸﾞﾝｼﾏﾝﾄﾁｮｳ","kana_address":"ﾄｵｶﾜ","pref":"高知県","city":"高岡郡四万十町","address":"十川"},
{"zip_code":"7860535","kana_pref":"ｺｳﾁｹﾝ","kana_city":"ﾀｶｵｶｸﾞﾝｼﾏﾝﾄﾁｮｳ","kana_address":"ﾄｵﾜｶﾜｸﾞﾁ","pref":"高知県","city":"高岡郡四万十町","address":"十和川口"},
{"zip_code":"7860503","kana_pref":"ｺｳﾁｹﾝ","kana_city":"ﾀｶｵｶｸﾞﾝｼﾏﾝﾄﾁｮｳ","kana_address":"ﾄｶﾞﾜ","pref":"高知県","city":"高岡郡四万十町","address":"戸川"},
{"zip_code":"7860031","kana_pref":"ｺｳﾁｹﾝ","kana_city":"ﾀｶｵｶｸﾞﾝｼﾏﾝﾄﾁｮｳ","kana_address":"ﾄｺﾅﾍﾞ","pref":"高知県","city":"高岡郡四万十町","address":"床鍋"},
{"zip_code":"7860025","kana_pref":"ｺｳﾁｹﾝ","kana_city":"ﾀｶｵｶｸﾞﾝｼﾏﾝﾄﾁｮｳ","kana_address":"ﾄﾐｵｶ","pref":"高知県","city":"高岡郡四万十町","address":"富岡"},
{"zip_code":"7860072","kana_pref":"ｺｳﾁｹﾝ","kana_city":"ﾀｶｵｶｸﾞﾝｼﾏﾝﾄﾁｮｳ","kana_address":"ﾅｶｺﾞｳﾉｶﾜ","pref":"高知県","city":"高岡郡四万十町","address":"中神ノ川"},
{"zip_code":"7860023","kana_pref":"ｺｳﾁｹﾝ","kana_city":"ﾀｶｵｶｸﾞﾝｼﾏﾝﾄﾁｮｳ","kana_address":"ﾅｶﾉｺｴ","pref":"高知県","city":"高岡郡四万十町","address":"中ノ越"},
{"zip_code":"7860081","kana_pref":"ｺｳﾁｹﾝ","kana_city":"ﾀｶｵｶｸﾞﾝｼﾏﾝﾄﾁｮｳ","kana_address":"ﾅｶﾑﾗ","pref":"高知県","city":"高岡郡四万十町","address":"中村"},
{"zip_code":"7860082","kana_pref":"ｺｳﾁｹﾝ","kana_city":"ﾀｶｵｶｸﾞﾝｼﾏﾝﾄﾁｮｳ","kana_address":"ﾅﾅｻﾄ","pref":"高知県","city":"高岡郡四万十町","address":"七里"},
{"zip_code":"7860041","kana_pref":"ｺｳﾁｹﾝ","kana_city":"ﾀｶｵｶｸﾞﾝｼﾏﾝﾄﾁｮｳ","kana_address":"ﾅﾛ","pref":"高知県","city":"高岡郡四万十町","address":"奈路"},
{"zip_code":"7860021","kana_pref":"ｺｳﾁｹﾝ","kana_city":"ﾀｶｵｶｸﾞﾝｼﾏﾝﾄﾁｮｳ","kana_address":"ﾆｲﾀﾞ","pref":"高知県","city":"高岡郡四万十町","address":"仁井田"},
{"zip_code":"7860083","kana_pref":"ｺｳﾁｹﾝ","kana_city":"ﾀｶｵｶｸﾞﾝｼﾏﾝﾄﾁｮｳ","kana_address":"ﾆｼｶﾜﾂﾞﾉ","pref":"高知県","city":"高岡郡四万十町","address":"西川角"},
{"zip_code":"7860311","kana_pref":"ｺｳﾁｹﾝ","kana_city":"ﾀｶｵｶｸﾞﾝｼﾏﾝﾄﾁｮｳ","kana_address":"ﾆｼﾉｶﾜ","pref":"高知県","city":"高岡郡四万十町","address":"西ノ川"},
{"zip_code":"7860085","kana_pref":"ｺｳﾁｹﾝ","kana_city":"ﾀｶｵｶｸﾞﾝｼﾏﾝﾄﾁｮｳ","kana_address":"ﾈﾈｻﾞｷ","pref":"高知県","city":"高岡郡四万十町","address":"根々崎"},
{"zip_code":"7860065","kana_pref":"ｺｳﾁｹﾝ","kana_city":"ﾀｶｵｶｸﾞﾝｼﾏﾝﾄﾁｮｳ","kana_address":"ﾉｼﾞ","pref":"高知県","city":"高岡郡四万十町","address":"野地"},
{"zip_code":"7860525","kana_pref":"ｺｳﾁｹﾝ","kana_city":"ﾀｶｵｶｸﾞﾝｼﾏﾝﾄﾁｮｳ","kana_address":"ﾉﾉｶﾞﾜ","pref":"高知県","city":"高岡郡四万十町","address":"野々川"},
{"zip_code":"7860047","kana_pref":"ｺｳﾁｹﾝ","kana_city":"ﾀｶｵｶｸﾞﾝｼﾏﾝﾄﾁｮｳ","kana_address":"ﾊｯｾﾝｽﾞ","pref":"高知県","city":"高岡郡四万十町","address":"八千数"},
{"zip_code":"7860054","kana_pref":"ｺｳﾁｹﾝ","kana_city":"ﾀｶｵｶｸﾞﾝｼﾏﾝﾄﾁｮｳ","kana_address":"ﾊﾝﾉｶﾜ","pref":"高知県","city":"高岡郡四万十町","address":"飯ノ川"},
{"zip_code":"7860027","kana_pref":"ｺｳﾁｹﾝ","kana_city":"ﾀｶｵｶｸﾞﾝｼﾏﾝﾄﾁｮｳ","kana_address":"ﾋｶﾞｼｵｵﾅﾛ","pref":"高知県","city":"高岡郡四万十町","address":"東大奈路"},
{"zip_code":"7860084","kana_pref":"ｺｳﾁｹﾝ","kana_city":"ﾀｶｵｶｸﾞﾝｼﾏﾝﾄﾁｮｳ","kana_address":"ﾋｶﾞｼｶﾜﾂﾞﾉ","pref":"高知県","city":"高岡郡四万十町","address":"東川角"},
{"zip_code":"7860093","kana_pref":"ｺｳﾁｹﾝ","kana_city":"ﾀｶｵｶｸﾞﾝｼﾏﾝﾄﾁｮｳ","kana_address":"ﾋｶﾞｼｷﾀﾉｶﾜ","pref":"高知県","city":"高岡郡四万十町","address":"東北ノ川"},
{"zip_code":"7860006","kana_pref":"ｺｳﾁｹﾝ","kana_city":"ﾀｶｵｶｸﾞﾝｼﾏﾝﾄﾁｮｳ","kana_address":"ﾋｶﾞｼﾏﾁ","pref":"高知県","city":"高岡郡四万十町","address":"東町"},
{"zip_code":"7860077","kana_pref":"ｺｳﾁｹﾝ","kana_city":"ﾀｶｵｶｸﾞﾝｼﾏﾝﾄﾁｮｳ","kana_address":"ﾋｻﾊﾗ","pref":"高知県","city":"高岡郡四万十町","address":"桧生原"},
{"zip_code":"7860097","kana_pref":"ｺｳﾁｹﾝ","kana_city":"ﾀｶｵｶｸﾞﾝｼﾏﾝﾄﾁｮｳ","kana_address":"ﾋﾉｼﾞ","pref":"高知県","city":"高岡郡四万十町","address":"日野地"},
{"zip_code":"7860026","kana_pref":"ｺｳﾁｹﾝ","kana_city":"ﾀｶｵｶｸﾞﾝｼﾏﾝﾄﾁｮｳ","kana_address":"ﾋﾗｸﾞｼ","pref":"高知県","city":"高岡郡四万十町","address":"平串"},
{"zip_code":"7860051","kana_pref":"ｺｳﾁｹﾝ","kana_city":"ﾀｶｵｶｸﾞﾝｼﾏﾝﾄﾁｮｳ","kana_address":"ﾋﾗﾉ","pref":"高知県","city":"高岡郡四万十町","address":"平野"},
{"zip_code":"7860324","kana_pref":"ｺｳﾁｹﾝ","kana_city":"ﾀｶｵｶｸﾞﾝｼﾏﾝﾄﾁｮｳ","kana_address":"ﾋﾛｾ","pref":"高知県","city":"高岡郡四万十町","address":"弘瀬"},
{"zip_code":"7860534","kana_pref":"ｺｳﾁｹﾝ","kana_city":"ﾀｶｵｶｸﾞﾝｼﾏﾝﾄﾁｮｳ","kana_address":"ﾋﾛｾ","pref":"高知県","city":"高岡郡四万十町","address":"広瀬"},
{"zip_code":"7860053","kana_pref":"ｺｳﾁｹﾝ","kana_city":"ﾀｶｵｶｸﾞﾝｼﾏﾝﾄﾁｮｳ","kana_address":"ﾋﾛﾐ","pref":"高知県","city":"高岡郡四万十町","address":"弘見"},
{"zip_code":"7860001","kana_pref":"ｺｳﾁｹﾝ","kana_city":"ﾀｶｵｶｸﾞﾝｼﾏﾝﾄﾁｮｳ","kana_address":"ﾌｼﾞﾉｶﾞﾜ","pref":"高知県","city":"高岡郡四万十町","address":"藤ノ川"},
{"zip_code":"7860007","kana_pref":"ｺｳﾁｹﾝ","kana_city":"ﾀｶｵｶｸﾞﾝｼﾏﾝﾄﾁｮｳ","kana_address":"ﾌﾙｲﾁﾏﾁ","pref":"高知県","city":"高岡郡四万十町","address":"古市町"},
{"zip_code":"7860043","kana_pref":"ｺｳﾁｹﾝ","kana_city":"ﾀｶｵｶｸﾞﾝｼﾏﾝﾄﾁｮｳ","kana_address":"ﾎﾝﾄﾞｳ","pref":"高知県","city":"高岡郡四万十町","address":"本堂"},
{"zip_code":"7860005","kana_pref":"ｺｳﾁｹﾝ","kana_city":"ﾀｶｵｶｸﾞﾝｼﾏﾝﾄﾁｮｳ","kana_address":"ﾎﾝﾏﾁ","pref":"高知県","city":"高岡郡四万十町","address":"本町"},
{"zip_code":"7860002","kana_pref":"ｺｳﾁｹﾝ","kana_city":"ﾀｶｵｶｸﾞﾝｼﾏﾝﾄﾁｮｳ","kana_address":"ﾐﾂｹ","pref":"高知県","city":"高岡郡四万十町","address":"見付"},
{"zip_code":"7860074","kana_pref":"ｺｳﾁｹﾝ","kana_city":"ﾀｶｵｶｸﾞﾝｼﾏﾝﾄﾁｮｳ","kana_address":"ﾐﾅﾐｶﾜｸﾞﾁ","pref":"高知県","city":"高岡郡四万十町","address":"南川口"},
{"zip_code":"7860061","kana_pref":"ｺｳﾁｹﾝ","kana_city":"ﾀｶｵｶｸﾞﾝｼﾏﾝﾄﾁｮｳ","kana_address":"ﾐﾈﾉｳｴ","pref":"高知県","city":"高岡郡四万十町","address":"峰ノ上"},
{"zip_code":"7860086","kana_pref":"ｺｳﾁｹﾝ","kana_city":"ﾀｶｵｶｸﾞﾝｼﾏﾝﾄﾁｮｳ","kana_address":"ﾐﾔｳﾁ","pref":"高知県","city":"高岡郡四万十町","address":"宮内"},
{"zip_code":"7860024","kana_pref":"ｺｳﾁｹﾝ","kana_city":"ﾀｶｵｶｸﾞﾝｼﾏﾝﾄﾁｮｳ","kana_address":"ﾑｶｲｶﾞﾜ","pref":"高知県","city":"高岡郡四万十町","address":"向川"},
{"zip_code":"7860308","kana_pref":"ｺｳﾁｹﾝ","kana_city":"ﾀｶｵｶｸﾞﾝｼﾏﾝﾄﾁｮｳ","kana_address":"ﾖｼｶﾜ","pref":"高知県","city":"高岡郡四万十町","address":"芳川"},
{"zip_code":"7860044","kana_pref":"ｺｳﾁｹﾝ","kana_city":"ﾀｶｵｶｸﾞﾝｼﾏﾝﾄﾁｮｳ","kana_address":"ﾖﾂｼﾞ","pref":"高知県","city":"高岡郡四万十町","address":"与津地"},
{"zip_code":"7860095","kana_pref":"ｺｳﾁｹﾝ","kana_city":"ﾀｶｵｶｸﾞﾝｼﾏﾝﾄﾁｮｳ","kana_address":"ﾖﾈｵｸ","pref":"高知県","city":"高岡郡四万十町","address":"米奥"},
{"zip_code":"7860035","kana_pref":"ｺｳﾁｹﾝ","kana_city":"ﾀｶｵｶｸﾞﾝｼﾏﾝﾄﾁｮｳ","kana_address":"ﾛｸﾀﾝｼﾞ","pref":"高知県","city":"高岡郡四万十町","address":"六反地"},
{"zip_code":"7860068","kana_pref":"ｺｳﾁｹﾝ","kana_city":"ﾀｶｵｶｸﾞﾝｼﾏﾝﾄﾁｮｳ","kana_address":"ﾜｶｲ","pref":"高知県","city":"高岡郡四万十町","address":"若井"},
{"zip_code":"7860062","kana_pref":"ｺｳﾁｹﾝ","kana_city":"ﾀｶｵｶｸﾞﾝｼﾏﾝﾄﾁｮｳ","kana_address":"ﾜｶｲｶﾞﾜ","pref":"高知県","city":"高岡郡四万十町","address":"若井川"}]}