{"zip_code":[
{"zip_code":"7880000","kana_pref":"ｺｳﾁｹﾝ","kana_city":"ｽｸﾓｼ","kana_address":"","pref":"高知県","city":"宿毛市","address":""},
{"zip_code":"7880021","kana_pref":"ｺｳﾁｹﾝ","kana_city":"ｽｸﾓｼ","kana_address":"ｲｹｼﾏ","pref":"高知県","city":"宿毛市","address":"池島"},
{"zip_code":"7880023","kana_pref":"ｺｳﾁｹﾝ","kana_city":"ｽｸﾓｼ","kana_address":"ｳｽｽｷ","pref":"高知県","city":"宿毛市","address":"宇須々木"},
{"zip_code":"7880010","kana_pref":"ｺｳﾁｹﾝ","kana_city":"ｽｸﾓｼ","kana_address":"ｴｷﾏｴﾁｮｳ","pref":"高知県","city":"宿毛市","address":"駅前町"},
{"zip_code":"7880014","kana_pref":"ｺｳﾁｹﾝ","kana_city":"ｽｸﾓｼ","kana_address":"ｵｵｼﾏ","pref":"高知県","city":"宿毛市","address":"大島"},
{"zip_code":"7880034","kana_pref":"ｺｳﾁｹﾝ","kana_city":"ｽｸﾓｼ","kana_address":"ｵｵﾌﾞｶｳﾗ","pref":"高知県","city":"宿毛市","address":"大深浦"},
{"zip_code":"7880679","kana_pref":"ｺｳﾁｹﾝ","kana_city":"ｽｸﾓｼ","kana_address":"ｵｷﾉｼﾏﾁｮｳｳｸﾞﾙｼﾏ","pref":"高知県","city":"宿毛市","address":"沖の島町鵜来島"},
{"zip_code":"7880678","kana_pref":"ｺｳﾁｹﾝ","kana_city":"ｽｸﾓｼ","kana_address":"ｵｷﾉｼﾏﾁｮｳﾋﾛｾ","pref":"高知県","city":"宿毛市","address":"沖の島町弘瀬"},
{"zip_code":"7880677","kana_pref":"ｺｳﾁｹﾝ","kana_city":"ｽｸﾓｼ","kana_address":"ｵｷﾉｼﾏﾁｮｳﾓｼﾏ","pref":"高知県","city":"宿毛市","address":"沖の島町母島"},
{"zip_code":"7880051","kana_pref":"ｺｳﾁｹﾝ","kana_city":"ｽｸﾓｼ","kana_address":"ｵｼﾉｶﾜ","pref":"高知県","city":"宿毛市","address":"押ノ川"},
{"zip_code":"7880031","kana_pref":"ｺｳﾁｹﾝ","kana_city":"ｽｸﾓｼ","kana_address":"ｶｲﾂﾞｶ","pref":"高知県","city":"宿毛市","address":"貝塚"},
{"zip_code":"7880013","kana_pref":"ｺｳﾁｹﾝ","kana_city":"ｽｸﾓｼ","kana_address":"ｶﾀｼﾏ","pref":"高知県","city":"宿毛市","address":"片島"},
{"zip_code":"7880024","kana_pref":"ｺｳﾁｹﾝ","kana_city":"ｽｸﾓｼ","kana_address":"ｶﾊﾞ","pref":"高知県","city":"宿毛市","address":"樺"},
{"zip_code":"7880035","kana_pref":"ｺｳﾁｹﾝ","kana_city":"ｽｸﾓｼ","kana_address":"ｸｻｷﾞﾔﾌﾞ","pref":"高知県","city":"宿毛市","address":"草木薮"},
{"zip_code":"7880027","kana_pref":"ｺｳﾁｹﾝ","kana_city":"ｽｸﾓｼ","kana_address":"ｺｳﾅﾝﾀﾞｲ","pref":"高知県","city":"宿毛市","address":"港南台"},
{"zip_code":"7880272","kana_pref":"ｺｳﾁｹﾝ","kana_city":"ｽｸﾓｼ","kana_address":"ｺﾂﾞｸｼﾁｮｳｲｼﾊﾗ","pref":"高知県","city":"宿毛市","address":"小筑紫町石原"},
{"zip_code":"7880267","kana_pref":"ｺｳﾁｹﾝ","kana_city":"ｽｸﾓｼ","kana_address":"ｺﾂﾞｸｼﾁｮｳｲﾖﾉ","pref":"高知県","city":"宿毛市","address":"小筑紫町伊与野"},
{"zip_code":"7880266","kana_pref":"ｺｳﾁｹﾝ","kana_city":"ｽｸﾓｼ","kana_address":"ｺﾂﾞｸｼﾁｮｳｵｵﾐ","pref":"高知県","city":"宿毛市","address":"小筑紫町大海"},
{"zip_code":"7880262","kana_pref":"ｺｳﾁｹﾝ","kana_city":"ｽｸﾓｼ","kana_address":"ｺﾂﾞｸｼﾁｮｳｺｳﾗ","pref":"高知県","city":"宿毛市","address":"小筑紫町小浦"},
{"zip_code":"7880271","kana_pref":"ｺｳﾁｹﾝ","kana_city":"ｽｸﾓｼ","kana_address":"ｺﾂﾞｸｼﾁｮｳｺﾂﾞｸｼ","pref":"高知県","city":"宿毛市","address":"小筑紫町小筑紫"},
{"zip_code":"7880274","kana_pref":"ｺｳﾁｹﾝ","kana_city":"ｽｸﾓｼ","kana_address":"ｺﾂﾞｸｼﾁｮｳｻｶｷ","pref":"高知県","city":"宿毛市","address":"小筑紫町栄喜"},
{"zip_code":"7880261","kana_pref":"ｺｳﾁｹﾝ","kana_city":"ｽｸﾓｼ","kana_address":"ｺﾂﾞｸｼﾁｮｳﾀﾉｳﾗ","pref":"高知県","city":"宿毛市","address":"小筑紫町田ノ浦"},
{"zip_code":"7880268","kana_pref":"ｺｳﾁｹﾝ","kana_city":"ｽｸﾓｼ","kana_address":"ｺﾂﾞｸｼﾁｮｳﾂｶﾞﾉｶﾞﾜ","pref":"高知県","city":"宿毛市","address":"小筑紫町都賀ノ川"},
{"zip_code":"7880263","kana_pref":"ｺｳﾁｹﾝ","kana_city":"ｽｸﾓｼ","kana_address":"ｺﾂﾞｸｼﾁｮｳﾅｲｶﾞｲﾉｳﾗ","pref":"高知県","city":"宿毛市","address":"小筑紫町内外ノ浦"},
{"zip_code":"7880273","kana_pref":"ｺｳﾁｹﾝ","kana_city":"ｽｸﾓｼ","kana_address":"ｺﾂﾞｸｼﾁｮｳﾌｸﾗ","pref":"高知県","city":"宿毛市","address":"小筑紫町福良"},
{"zip_code":"7880265","kana_pref":"ｺｳﾁｹﾝ","kana_city":"ｽｸﾓｼ","kana_address":"ｺﾂﾞｸｼﾁｮｳﾐﾅﾄ","pref":"高知県","city":"宿毛市","address":"小筑紫町湊"},
{"zip_code":"7880264","kana_pref":"ｺｳﾁｹﾝ","kana_city":"ｽｸﾓｼ","kana_address":"ｺﾂﾞｸｼﾁｮｳﾖﾋﾞｻｷ","pref":"高知県","city":"宿毛市","address":"小筑紫町呼崎"},
{"zip_code":"7880033","kana_pref":"ｺｳﾁｹﾝ","kana_city":"ｽｸﾓｼ","kana_address":"ｺﾌﾞｶｳﾗ","pref":"高知県","city":"宿毛市","address":"小深浦"},
{"zip_code":"7880003","kana_pref":"ｺｳﾁｹﾝ","kana_city":"ｽｸﾓｼ","kana_address":"ｻｲﾜｲﾁｮｳ","pref":"高知県","city":"宿毛市","address":"幸町"},
{"zip_code":"7880053","kana_pref":"ｺｳﾁｹﾝ","kana_city":"ｽｸﾓｼ","kana_address":"ｻｶﾉｼﾀ","pref":"高知県","city":"宿毛市","address":"坂ノ下"},
{"zip_code":"7880054","kana_pref":"ｺｳﾁｹﾝ","kana_city":"ｽｸﾓｼ","kana_address":"ｻｸﾗｶﾞｵｶ","pref":"高知県","city":"宿毛市","address":"さくらが丘"},
{"zip_code":"7880006","kana_pref":"ｺｳﾁｹﾝ","kana_city":"ｽｸﾓｼ","kana_address":"ｻｸﾗﾏﾁ","pref":"高知県","city":"宿毛市","address":"桜町"},
{"zip_code":"7880030","kana_pref":"ｺｳﾁｹﾝ","kana_city":"ｽｸﾓｼ","kana_address":"ｼｷﾉｵｶ","pref":"高知県","city":"宿毛市","address":"四季の丘"},
{"zip_code":"7880026","kana_pref":"ｺｳﾁｹﾝ","kana_city":"ｽｸﾓｼ","kana_address":"ｼﾞﾕｳｶﾞｵｶ","pref":"高知県","city":"宿毛市","address":"自由ケ丘"},
{"zip_code":"7880028","kana_pref":"ｺｳﾁｹﾝ","kana_city":"ｽｸﾓｼ","kana_address":"ｼﾝｺｳ","pref":"高知県","city":"宿毛市","address":"新港"},
{"zip_code":"7880011","kana_pref":"ｺｳﾁｹﾝ","kana_city":"ｽｸﾓｼ","kana_address":"ｼﾝﾃﾞﾝ","pref":"高知県","city":"宿毛市","address":"新田"},
{"zip_code":"7880012","kana_pref":"ｺｳﾁｹﾝ","kana_city":"ｽｸﾓｼ","kana_address":"ﾀｶｻｺﾞ","pref":"高知県","city":"宿毛市","address":"高砂"},
{"zip_code":"7880001","kana_pref":"ｺｳﾁｹﾝ","kana_city":"ｽｸﾓｼ","kana_address":"ﾁｭｳｵｳ","pref":"高知県","city":"宿毛市","address":"中央"},
{"zip_code":"7880039","kana_pref":"ｺｳﾁｹﾝ","kana_city":"ｽｸﾓｼ","kana_address":"ﾅｶﾂﾉ","pref":"高知県","city":"宿毛市","address":"中角"},
{"zip_code":"7880004","kana_pref":"ｺｳﾁｹﾝ","kana_city":"ｽｸﾓｼ","kana_address":"ﾅｶﾞﾀﾁｮｳ","pref":"高知県","city":"宿毛市","address":"長田町"},
{"zip_code":"7880015","kana_pref":"ｺｳﾁｹﾝ","kana_city":"ｽｸﾓｼ","kana_address":"ﾆｼｶﾀｼﾏ","pref":"高知県","city":"宿毛市","address":"西片島"},
{"zip_code":"7880032","kana_pref":"ｺｳﾁｹﾝ","kana_city":"ｽｸﾓｼ","kana_address":"ﾆｼｷ","pref":"高知県","city":"宿毛市","address":"錦"},
{"zip_code":"7880025","kana_pref":"ｺｳﾁｹﾝ","kana_city":"ｽｸﾓｼ","kana_address":"ﾆｼﾏﾁ","pref":"高知県","city":"宿毛市","address":"西町"},
{"zip_code":"7880038","kana_pref":"ｺｳﾁｹﾝ","kana_city":"ｽｸﾓｼ","kana_address":"ﾆﾉﾐﾔ","pref":"高知県","city":"宿毛市","address":"二ノ宮"},
{"zip_code":"7880036","kana_pref":"ｺｳﾁｹﾝ","kana_city":"ｽｸﾓｼ","kana_address":"ﾉｼﾞ","pref":"高知県","city":"宿毛市","address":"野地"},
{"zip_code":"7880005","kana_pref":"ｺｳﾁｹﾝ","kana_city":"ｽｸﾓｼ","kana_address":"ﾊｷﾞﾜﾗ","pref":"高知県","city":"宿毛市","address":"萩原"},
{"zip_code":"7880041","kana_pref":"ｺｳﾁｹﾝ","kana_city":"ｽｸﾓｼ","kana_address":"ﾊｼｶﾐﾁｮｳｲﾃﾞｲ","pref":"高知県","city":"宿毛市","address":"橋上町出井"},
{"zip_code":"7880045","kana_pref":"ｺｳﾁｹﾝ","kana_city":"ｽｸﾓｼ","kana_address":"ﾊｼｶﾐﾁｮｳｵｸﾅﾛ","pref":"高知県","city":"宿毛市","address":"橋上町奥奈路"},
{"zip_code":"7880044","kana_pref":"ｺｳﾁｹﾝ","kana_city":"ｽｸﾓｼ","kana_address":"ﾊｼｶﾐﾁｮｳｶﾐｱﾘ","pref":"高知県","city":"宿毛市","address":"橋上町神有"},
{"zip_code":"7880048","kana_pref":"ｺｳﾁｹﾝ","kana_city":"ｽｸﾓｼ","kana_address":"ﾊｼｶﾐﾁｮｳｷｮｳﾎｳ","pref":"高知県","city":"宿毛市","address":"橋上町京法"},
{"zip_code":"7880042","kana_pref":"ｺｳﾁｹﾝ","kana_city":"ｽｸﾓｼ","kana_address":"ﾊｼｶﾐﾁｮｳｸｽﾔﾏ","pref":"高知県","city":"宿毛市","address":"橋上町楠山"},
{"zip_code":"7880049","kana_pref":"ｺｳﾁｹﾝ","kana_city":"ｽｸﾓｼ","kana_address":"ﾊｼｶﾐﾁｮｳｹﾞﾝｼﾞｭﾔﾌﾞ","pref":"高知県","city":"宿毛市","address":"橋上町還住薮"},
{"zip_code":"7880043","kana_pref":"ｺｳﾁｹﾝ","kana_city":"ｽｸﾓｼ","kana_address":"ﾊｼｶﾐﾁｮｳｻｶﾓﾄ","pref":"高知県","city":"宿毛市","address":"橋上町坂本"},
{"zip_code":"7880046","kana_pref":"ｺｳﾁｹﾝ","kana_city":"ｽｸﾓｼ","kana_address":"ﾊｼｶﾐﾁｮｳﾊｼｶﾐ","pref":"高知県","city":"宿毛市","address":"橋上町橋上"},
{"zip_code":"7880047","kana_pref":"ｺｳﾁｹﾝ","kana_city":"ｽｸﾓｼ","kana_address":"ﾊｼｶﾐﾁｮｳﾋﾗﾉ","pref":"高知県","city":"宿毛市","address":"橋上町平野"},
{"zip_code":"7880781","kana_pref":"ｺｳﾁｹﾝ","kana_city":"ｽｸﾓｼ","kana_address":"ﾋﾗﾀﾁｮｳｸﾛｶﾜ","pref":"高知県","city":"宿毛市","address":"平田町黒川"},
{"zip_code":"7880782","kana_pref":"ｺｳﾁｹﾝ","kana_city":"ｽｸﾓｼ","kana_address":"ﾋﾗﾀﾁｮｳﾅｶﾔﾏ","pref":"高知県","city":"宿毛市","address":"平田町中山"},
{"zip_code":"7880786","kana_pref":"ｺｳﾁｹﾝ","kana_city":"ｽｸﾓｼ","kana_address":"ﾋﾗﾀﾁｮｳﾋｶﾞｼﾀﾞｲﾗ","pref":"高知県","city":"宿毛市","address":"平田町東平"},
{"zip_code":"7880783","kana_pref":"ｺｳﾁｹﾝ","kana_city":"ｽｸﾓｼ","kana_address":"ﾋﾗﾀﾁｮｳﾍﾅｲ","pref":"高知県","city":"宿毛市","address":"平田町戸内"},
{"zip_code":"7880007","kana_pref":"ｺｳﾁｹﾝ","kana_city":"ｽｸﾓｼ","kana_address":"ﾏﾂﾀﾞﾏﾁ","pref":"高知県","city":"宿毛市","address":"松田町"},
{"zip_code":"7880002","kana_pref":"ｺｳﾁｹﾝ","kana_city":"ｽｸﾓｼ","kana_address":"ﾐﾅﾐｵｷｽｶﾞ","pref":"高知県","city":"宿毛市","address":"南沖須賀"},
{"zip_code":"7880022","kana_pref":"ｺｳﾁｹﾝ","kana_city":"ｽｸﾓｼ","kana_address":"ﾑｸﾂﾞ","pref":"高知県","city":"宿毛市","address":"藻津"},
{"zip_code":"7880037","kana_pref":"ｺｳﾁｹﾝ","kana_city":"ｽｸﾓｼ","kana_address":"ﾔﾏｷﾀ","pref":"高知県","city":"宿毛市","address":"山北"},
{"zip_code":"7880784","kana_pref":"ｺｳﾁｹﾝ","kana_city":"ｽｸﾓｼ","kana_address":"ﾔﾏﾅﾁｮｳﾔﾏﾀﾞ","pref":"高知県","city":"宿毛市","address":"山奈町山田"},
{"zip_code":"7880785","kana_pref":"ｺｳﾁｹﾝ","kana_city":"ｽｸﾓｼ","kana_address":"ﾔﾏﾅﾁｮｳﾖｼﾅ","pref":"高知県","city":"宿毛市","address":"山奈町芳奈"},
{"zip_code":"7880008","kana_pref":"ｺｳﾁｹﾝ","kana_city":"ｽｸﾓｼ","kana_address":"ﾖｲﾁﾐｮｳ","pref":"高知県","city":"宿毛市","address":"与市明"},
{"zip_code":"7880052","kana_pref":"ｺｳﾁｹﾝ","kana_city":"ｽｸﾓｼ","kana_address":"ﾜﾀﾞ","pref":"高知県","city":"宿毛市","address":"和田"},
{"zip_code":"7880300","kana_pref":"ｺｳﾁｹﾝ","kana_city":"ﾊﾀｸﾞﾝｵｵﾂｷﾁｮｳ","kana_address":"","pref":"高知県","city":"幡多郡大月町","address":""},
{"zip_code":"7880332","kana_pref":"ｺｳﾁｹﾝ","kana_city":"ﾊﾀｸﾞﾝｵｵﾂｷﾁｮｳ","kana_address":"ｱｶﾄﾞﾏﾘ","pref":"高知県","city":"幡多郡大月町","address":"赤泊"},
{"zip_code":"7880351","kana_pref":"ｺｳﾁｹﾝ","kana_city":"ﾊﾀｸﾞﾝｵｵﾂｷﾁｮｳ","kana_address":"ｱﾏｼﾞ","pref":"高知県","city":"幡多郡大月町","address":"安満地"},
{"zip_code":"7880342","kana_pref":"ｺｳﾁｹﾝ","kana_city":"ﾊﾀｸﾞﾝｵｵﾂｷﾁｮｳ","kana_address":"ｲｯｻｲ","pref":"高知県","city":"幡多郡大月町","address":"一切"},
{"zip_code":"7880324","kana_pref":"ｺｳﾁｹﾝ","kana_city":"ﾊﾀｸﾞﾝｵｵﾂｷﾁｮｳ","kana_address":"ｵｵｳﾗ","pref":"高知県","city":"幡多郡大月町","address":"大浦"},
{"zip_code":"7880334","kana_pref":"ｺｳﾁｹﾝ","kana_city":"ﾊﾀｸﾞﾝｵｵﾂｷﾁｮｳ","kana_address":"ｶｼﾉｳﾗ","pref":"高知県","city":"幡多郡大月町","address":"樫ノ浦"},
{"zip_code":"7880314","kana_pref":"ｺｳﾁｹﾝ","kana_city":"ﾊﾀｸﾞﾝｵｵﾂｷﾁｮｳ","kana_address":"ｶｼﾗﾂﾄﾞｲ","pref":"高知県","city":"幡多郡大月町","address":"頭集"},
{"zip_code":"7880343","kana_pref":"ｺｳﾁｹﾝ","kana_city":"ﾊﾀｸﾞﾝｵｵﾂｷﾁｮｳ","kana_address":"ｶｼﾜｼﾞﾏ","pref":"高知県","city":"幡多郡大月町","address":"柏島"},
{"zip_code":"7880335","kana_pref":"ｺｳﾁｹﾝ","kana_city":"ﾊﾀｸﾞﾝｵｵﾂｷﾁｮｳ","kana_address":"ｶﾗｲﾜ","pref":"高知県","city":"幡多郡大月町","address":"唐岩"},
{"zip_code":"7880331","kana_pref":"ｺｳﾁｹﾝ","kana_city":"ﾊﾀｸﾞﾝｵｵﾂｷﾁｮｳ","kana_address":"ｸﾁﾒﾂﾞｶ","pref":"高知県","city":"幡多郡大月町","address":"口目塚"},
{"zip_code":"7880322","kana_pref":"ｺｳﾁｹﾝ","kana_city":"ﾊﾀｸﾞﾝｵｵﾂｷﾁｮｳ","kana_address":"ｺｻｲﾂﾉ","pref":"高知県","city":"幡多郡大月町","address":"小才角"},
{"zip_code":"7880315","kana_pref":"ｺｳﾁｹﾝ","kana_city":"ﾊﾀｸﾞﾝｵｵﾂｷﾁｮｳ","kana_address":"ｺﾏﾒ","pref":"高知県","city":"幡多郡大月町","address":"古満目"},
{"zip_code":"7880323","kana_pref":"ｺｳﾁｹﾝ","kana_city":"ﾊﾀｸﾞﾝｵｵﾂｷﾁｮｳ","kana_address":"ｻｲﾂﾉ","pref":"高知県","city":"幡多郡大月町","address":"才角"},
{"zip_code":"7880313","kana_pref":"ｺｳﾁｹﾝ","kana_city":"ﾊﾀｸﾞﾝｵｵﾂｷﾁｮｳ","kana_address":"ｽﾎﾞｳｶﾞﾀ","pref":"高知県","city":"幡多郡大月町","address":"周防形"},
{"zip_code":"7880312","kana_pref":"ｺｳﾁｹﾝ","kana_city":"ﾊﾀｸﾞﾝｵｵﾂｷﾁｮｳ","kana_address":"ｾｲｵｳ","pref":"高知県","city":"幡多郡大月町","address":"清王"},
{"zip_code":"7880363","kana_pref":"ｺｳﾁｹﾝ","kana_city":"ﾊﾀｸﾞﾝｵｵﾂｷﾁｮｳ","kana_address":"ｿｲﾉｶﾜ","pref":"高知県","city":"幡多郡大月町","address":"添ノ川"},
{"zip_code":"7880352","kana_pref":"ｺｳﾁｹﾝ","kana_city":"ﾊﾀｸﾞﾝｵｵﾂｷﾁｮｳ","kana_address":"ﾀﾁﾊﾞﾅｳﾗ","pref":"高知県","city":"幡多郡大月町","address":"橘浦"},
{"zip_code":"7880361","kana_pref":"ｺｳﾁｹﾝ","kana_city":"ﾊﾀｸﾞﾝｵｵﾂｷﾁｮｳ","kana_address":"ﾀﾂｶﾞｻｺ","pref":"高知県","city":"幡多郡大月町","address":"龍ケ迫"},
{"zip_code":"7880325","kana_pref":"ｺｳﾁｹﾝ","kana_city":"ﾊﾀｸﾞﾝｵｵﾂｷﾁｮｳ","kana_address":"ﾂｷｶﾞｵｶ","pref":"高知県","city":"幡多郡大月町","address":"月ケ丘"},
{"zip_code":"7880353","kana_pref":"ｺｳﾁｹﾝ","kana_city":"ﾊﾀｸﾞﾝｵｵﾂｷﾁｮｳ","kana_address":"ﾄﾏﾘｳﾗ","pref":"高知県","city":"幡多郡大月町","address":"泊浦"},
{"zip_code":"7880333","kana_pref":"ｺｳﾁｹﾝ","kana_city":"ﾊﾀｸﾞﾝｵｵﾂｷﾁｮｳ","kana_address":"ﾆｼﾄﾞﾏﾘ","pref":"高知県","city":"幡多郡大月町","address":"西泊"},
{"zip_code":"7880321","kana_pref":"ｺｳﾁｹﾝ","kana_city":"ﾊﾀｸﾞﾝｵｵﾂｷﾁｮｳ","kana_address":"ﾊﾙﾄﾞｵ","pref":"高知県","city":"幡多郡大月町","address":"春遠"},
{"zip_code":"7880331","kana_pref":"ｺｳﾁｹﾝ","kana_city":"ﾊﾀｸﾞﾝｵｵﾂｷﾁｮｳ","kana_address":"ﾋﾒﾉｲ","pref":"高知県","city":"幡多郡大月町","address":"姫ノ井"},
{"zip_code":"7880341","kana_pref":"ｺｳﾁｹﾝ","kana_city":"ﾊﾀｸﾞﾝｵｵﾂｷﾁｮｳ","kana_address":"ﾋﾗﾔﾏ","pref":"高知県","city":"幡多郡大月町","address":"平山"},
{"zip_code":"7880302","kana_pref":"ｺｳﾁｹﾝ","kana_city":"ﾊﾀｸﾞﾝｵｵﾂｷﾁｮｳ","kana_address":"ﾋﾛﾐ","pref":"高知県","city":"幡多郡大月町","address":"弘見"},
{"zip_code":"7880311","kana_pref":"ｺｳﾁｹﾝ","kana_city":"ﾊﾀｸﾞﾝｵｵﾂｷﾁｮｳ","kana_address":"ﾎｺﾂﾁ","pref":"高知県","city":"幡多郡大月町","address":"鉾土"},
{"zip_code":"7880362","kana_pref":"ｺｳﾁｹﾝ","kana_city":"ﾊﾀｸﾞﾝｵｵﾂｷﾁｮｳ","kana_address":"ﾖｼﾉｻﾜ","pref":"高知県","city":"幡多郡大月町","address":"芳ノ沢"}]}