{"zip_code":[
{"zip_code":"7890582","kana_pref":"ｺｳﾁｹﾝ","kana_city":"ｶﾐｼ","kana_address":"ﾄｻﾔﾏﾀﾞﾁｮｳｶｸﾓﾀﾞﾆ","pref":"高知県","city":"香美市","address":"土佐山田町角茂谷"},
{"zip_code":"7890586","kana_pref":"ｺｳﾁｹﾝ","kana_city":"ｶﾐｼ","kana_address":"ﾄｻﾔﾏﾀﾞﾁｮｳｶｼﾉﾀﾆ","pref":"高知県","city":"香美市","address":"土佐山田町樫谷"},
{"zip_code":"7890587","kana_pref":"ｺｳﾁｹﾝ","kana_city":"ｶﾐｼ","kana_address":"ﾄｻﾔﾏﾀﾞﾁｮｳｶﾐｱﾅﾅｲ","pref":"高知県","city":"香美市","address":"土佐山田町上穴内"},
{"zip_code":"7890584","kana_pref":"ｺｳﾁｹﾝ","kana_city":"ｶﾐｼ","kana_address":"ﾄｻﾔﾏﾀﾞﾁｮｳｷﾀﾀｷﾓﾄ","pref":"高知県","city":"香美市","address":"土佐山田町北滝本"},
{"zip_code":"7890585","kana_pref":"ｺｳﾁｹﾝ","kana_city":"ｶﾐｼ","kana_address":"ﾄｻﾔﾏﾀﾞﾁｮｳｼｹﾞﾄｳ","pref":"高知県","city":"香美市","address":"土佐山田町繁藤"},
{"zip_code":"7890581","kana_pref":"ｺｳﾁｹﾝ","kana_city":"ｶﾐｼ","kana_address":"ﾄｻﾔﾏﾀﾞﾁｮｳﾆｼﾏﾀ","pref":"高知県","city":"香美市","address":"土佐山田町西又"},
{"zip_code":"7890583","kana_pref":"ｺｳﾁｹﾝ","kana_city":"ｶﾐｼ","kana_address":"ﾄｻﾔﾏﾀﾞﾁｮｳﾋﾗﾔﾏ","pref":"高知県","city":"香美市","address":"土佐山田町平山"},
{"zip_code":"7890300","kana_pref":"ｺｳﾁｹﾝ","kana_city":"ﾅｶﾞｵｶｸﾞﾝｵｵﾄﾖﾁｮｳ","kana_address":"","pref":"高知県","city":"長岡郡大豊町","address":""},
{"zip_code":"7890167","kana_pref":"ｺｳﾁｹﾝ","kana_city":"ﾅｶﾞｵｶｸﾞﾝｵｵﾄﾖﾁｮｳ","kana_address":"ｱｵｳ","pref":"高知県","city":"長岡郡大豊町","address":"粟生"},
{"zip_code":"7890307","kana_pref":"ｺｳﾁｹﾝ","kana_city":"ﾅｶﾞｵｶｸﾞﾝｵｵﾄﾖﾁｮｳ","kana_address":"ｱﾅﾅｲ","pref":"高知県","city":"長岡郡大豊町","address":"穴内"},
{"zip_code":"7890237","kana_pref":"ｺｳﾁｹﾝ","kana_city":"ﾅｶﾞｵｶｸﾞﾝｵｵﾄﾖﾁｮｳ","kana_address":"ｲｵﾉﾀﾆ","pref":"高知県","city":"長岡郡大豊町","address":"庵谷"},
{"zip_code":"7890157","kana_pref":"ｺｳﾁｹﾝ","kana_city":"ﾅｶﾞｵｶｸﾞﾝｵｵﾄﾖﾁｮｳ","kana_address":"ｲｶﾀﾞｷﾞ","pref":"高知県","city":"長岡郡大豊町","address":"筏木"},
{"zip_code":"7890233","kana_pref":"ｺｳﾁｹﾝ","kana_city":"ﾅｶﾞｵｶｸﾞﾝｵｵﾄﾖﾁｮｳ","kana_address":"ｲｿﾀﾞﾆ","pref":"高知県","city":"長岡郡大豊町","address":"磯谷"},
{"zip_code":"7890158","kana_pref":"ｺｳﾁｹﾝ","kana_city":"ﾅｶﾞｵｶｸﾞﾝｵｵﾄﾖﾁｮｳ","kana_address":"ｲﾜﾊﾗ","pref":"高知県","city":"長岡郡大豊町","address":"岩原"},
{"zip_code":"7890323","kana_pref":"ｺｳﾁｹﾝ","kana_city":"ﾅｶﾞｵｶｸﾞﾝｵｵﾄﾖﾁｮｳ","kana_address":"ｳﾏｾﾞ","pref":"高知県","city":"長岡郡大豊町","address":"馬瀬"},
{"zip_code":"7890306","kana_pref":"ｺｳﾁｹﾝ","kana_city":"ﾅｶﾞｵｶｸﾞﾝｵｵﾄﾖﾁｮｳ","kana_address":"ｵｳ","pref":"高知県","city":"長岡郡大豊町","address":"尾生"},
{"zip_code":"7890248","kana_pref":"ｺｳﾁｹﾝ","kana_city":"ﾅｶﾞｵｶｸﾞﾝｵｵﾄﾖﾁｮｳ","kana_address":"ｵｵｸﾎﾞ","pref":"高知県","city":"長岡郡大豊町","address":"大久保"},
{"zip_code":"7890247","kana_pref":"ｺｳﾁｹﾝ","kana_city":"ﾅｶﾞｵｶｸﾞﾝｵｵﾄﾖﾁｮｳ","kana_address":"ｵｵｽﾅｺﾞ","pref":"高知県","city":"長岡郡大豊町","address":"大砂子"},
{"zip_code":"7890173","kana_pref":"ｺｳﾁｹﾝ","kana_city":"ﾅｶﾞｵｶｸﾞﾝｵｵﾄﾖﾁｮｳ","kana_address":"ｵｵﾀﾞｲﾗ","pref":"高知県","city":"長岡郡大豊町","address":"大平"},
{"zip_code":"7890169","kana_pref":"ｺｳﾁｹﾝ","kana_city":"ﾅｶﾞｵｶｸﾞﾝｵｵﾄﾖﾁｮｳ","kana_address":"ｵｵﾀﾞｲﾗ","pref":"高知県","city":"長岡郡大豊町","address":"大平"},
{"zip_code":"7890170","kana_pref":"ｺｳﾁｹﾝ","kana_city":"ﾅｶﾞｵｶｸﾞﾝｵｵﾄﾖﾁｮｳ","kana_address":"ｵｵﾀﾞｷ","pref":"高知県","city":"長岡郡大豊町","address":"大滝"},
{"zip_code":"7890171","kana_pref":"ｺｳﾁｹﾝ","kana_city":"ﾅｶﾞｵｶｸﾞﾝｵｵﾄﾖﾁｮｳ","kana_address":"ｵｵﾀﾞｷ","pref":"高知県","city":"長岡郡大豊町","address":"大滝"},
{"zip_code":"7890316","kana_pref":"ｺｳﾁｹﾝ","kana_city":"ﾅｶﾞｵｶｸﾞﾝｵｵﾄﾖﾁｮｳ","kana_address":"ｵｶﾞﾜ","pref":"高知県","city":"長岡郡大豊町","address":"小川"},
{"zip_code":"7890231","kana_pref":"ｺｳﾁｹﾝ","kana_city":"ﾅｶﾞｵｶｸﾞﾝｵｵﾄﾖﾁｮｳ","kana_address":"ｵｸｵｵﾀ","pref":"高知県","city":"長岡郡大豊町","address":"奥大田"},
{"zip_code":"7890321","kana_pref":"ｺｳﾁｹﾝ","kana_city":"ﾅｶﾞｵｶｸﾞﾝｵｵﾄﾖﾁｮｳ","kana_address":"ｶｸﾓﾀﾞﾆ","pref":"高知県","city":"長岡郡大豊町","address":"角茂谷"},
{"zip_code":"7890232","kana_pref":"ｺｳﾁｹﾝ","kana_city":"ﾅｶﾞｵｶｸﾞﾝｵｵﾄﾖﾁｮｳ","kana_address":"ｶｼﾞｶﾞｳﾁ","pref":"高知県","city":"長岡郡大豊町","address":"梶ケ内"},
{"zip_code":"7890428","kana_pref":"ｺｳﾁｹﾝ","kana_city":"ﾅｶﾞｵｶｸﾞﾝｵｵﾄﾖﾁｮｳ","kana_address":"ｶｽﾞﾗﾜﾗ","pref":"高知県","city":"長岡郡大豊町","address":"葛原"},
{"zip_code":"7890302","kana_pref":"ｺｳﾁｹﾝ","kana_city":"ﾅｶﾞｵｶｸﾞﾝｵｵﾄﾖﾁｮｳ","kana_address":"ｶｽﾞﾗﾜﾗ","pref":"高知県","city":"長岡郡大豊町","address":"葛原"},
{"zip_code":"7890252","kana_pref":"ｺｳﾁｹﾝ","kana_city":"ﾅｶﾞｵｶｸﾞﾝｵｵﾄﾖﾁｮｳ","kana_address":"ｶﾐﾋｶﾞｼ","pref":"高知県","city":"長岡郡大豊町","address":"上東"},
{"zip_code":"7890172","kana_pref":"ｺｳﾁｹﾝ","kana_city":"ﾅｶﾞｵｶｸﾞﾝｵｵﾄﾖﾁｮｳ","kana_address":"ｶﾜｲ","pref":"高知県","city":"長岡郡大豊町","address":"川井"},
{"zip_code":"7890303","kana_pref":"ｺｳﾁｹﾝ","kana_city":"ﾅｶﾞｵｶｸﾞﾝｵｵﾄﾖﾁｮｳ","kana_address":"ｶﾜｸﾞﾁ","pref":"高知県","city":"長岡郡大豊町","address":"川口"},
{"zip_code":"7890313","kana_pref":"ｺｳﾁｹﾝ","kana_city":"ﾅｶﾞｵｶｸﾞﾝｵｵﾄﾖﾁｮｳ","kana_address":"ｶﾜｸﾞﾁﾐﾅﾐ","pref":"高知県","city":"長岡郡大豊町","address":"川口南"},
{"zip_code":"7890241","kana_pref":"ｺｳﾁｹﾝ","kana_city":"ﾅｶﾞｵｶｸﾞﾝｵｵﾄﾖﾁｮｳ","kana_address":"ｶﾜﾄﾞ","pref":"高知県","city":"長岡郡大豊町","address":"川戸"},
{"zip_code":"7890325","kana_pref":"ｺｳﾁｹﾝ","kana_city":"ﾅｶﾞｵｶｸﾞﾝｵｵﾄﾖﾁｮｳ","kana_address":"ｷﾀｶﾞﾜ","pref":"高知県","city":"長岡郡大豊町","address":"北川"},
{"zip_code":"7890324","kana_pref":"ｺｳﾁｹﾝ","kana_city":"ﾅｶﾞｵｶｸﾞﾝｵｵﾄﾖﾁｮｳ","kana_address":"ｸｽﾉｷ","pref":"高知県","city":"長岡郡大豊町","address":"久寿軒"},
{"zip_code":"7890250","kana_pref":"ｺｳﾁｹﾝ","kana_city":"ﾅｶﾞｵｶｸﾞﾝｵｵﾄﾖﾁｮｳ","kana_address":"ｸﾛｲｼ","pref":"高知県","city":"長岡郡大豊町","address":"黒石"},
{"zip_code":"7890255","kana_pref":"ｺｳﾁｹﾝ","kana_city":"ﾅｶﾞｵｶｸﾞﾝｵｵﾄﾖﾁｮｳ","kana_address":"ｻｶﾞﾔﾏ","pref":"高知県","city":"長岡郡大豊町","address":"佐賀山"},
{"zip_code":"7890305","kana_pref":"ｺｳﾁｹﾝ","kana_city":"ﾅｶﾞｵｶｸﾞﾝｵｵﾄﾖﾁｮｳ","kana_address":"ｼｷﾉｲﾜ","pref":"高知県","city":"長岡郡大豊町","address":"式岩"},
{"zip_code":"7890311","kana_pref":"ｺｳﾁｹﾝ","kana_city":"ﾅｶﾞｵｶｸﾞﾝｵｵﾄﾖﾁｮｳ","kana_address":"ｽｷﾞ","pref":"高知県","city":"長岡郡大豊町","address":"杉"},
{"zip_code":"7890312","kana_pref":"ｺｳﾁｹﾝ","kana_city":"ﾅｶﾞｵｶｸﾞﾝｵｵﾄﾖﾁｮｳ","kana_address":"ﾀｶｽﾞ","pref":"高知県","city":"長岡郡大豊町","address":"高須"},
{"zip_code":"7890426","kana_pref":"ｺｳﾁｹﾝ","kana_city":"ﾅｶﾞｵｶｸﾞﾝｵｵﾄﾖﾁｮｳ","kana_address":"ﾀｼﾞｶﾜｶﾐﾐｮｳ","pref":"高知県","city":"長岡郡大豊町","address":"立川上名"},
{"zip_code":"7890427","kana_pref":"ｺｳﾁｹﾝ","kana_city":"ﾅｶﾞｵｶｸﾞﾝｵｵﾄﾖﾁｮｳ","kana_address":"ﾀｼﾞｶﾜｼﾓﾐｮｳ","pref":"高知県","city":"長岡郡大豊町","address":"立川下名"},
{"zip_code":"7890168","kana_pref":"ｺｳﾁｹﾝ","kana_city":"ﾅｶﾞｵｶｸﾞﾝｵｵﾄﾖﾁｮｳ","kana_address":"ﾀﾂﾉ","pref":"高知県","city":"長岡郡大豊町","address":"立野"},
{"zip_code":"7890304","kana_pref":"ｺｳﾁｹﾝ","kana_city":"ﾅｶﾞｵｶｸﾞﾝｵｵﾄﾖﾁｮｳ","kana_address":"ﾀﾆ","pref":"高知県","city":"長岡郡大豊町","address":"谷"},
{"zip_code":"7890301","kana_pref":"ｺｳﾁｹﾝ","kana_city":"ﾅｶﾞｵｶｸﾞﾝｵｵﾄﾖﾁｮｳ","kana_address":"ﾂｹﾞ","pref":"高知県","city":"長岡郡大豊町","address":"津家"},
{"zip_code":"7890242","kana_pref":"ｺｳﾁｹﾝ","kana_city":"ﾅｶﾞｵｶｸﾞﾝｵｵﾄﾖﾁｮｳ","kana_address":"ﾂﾚﾋﾞ","pref":"高知県","city":"長岡郡大豊町","address":"連火"},
{"zip_code":"7890234","kana_pref":"ｺｳﾁｹﾝ","kana_city":"ﾅｶﾞｵｶｸﾞﾝｵｵﾄﾖﾁｮｳ","kana_address":"ﾃﾗｳﾁ","pref":"高知県","city":"長岡郡大豊町","address":"寺内"},
{"zip_code":"7890322","kana_pref":"ｺｳﾁｹﾝ","kana_city":"ﾅｶﾞｵｶｸﾞﾝｵｵﾄﾖﾁｮｳ","kana_address":"ﾄﾃﾞﾉ","pref":"高知県","city":"長岡郡大豊町","address":"戸手野"},
{"zip_code":"7890174","kana_pref":"ｺｳﾁｹﾝ","kana_city":"ﾅｶﾞｵｶｸﾞﾝｵｵﾄﾖﾁｮｳ","kana_address":"ﾅｶｳﾁ","pref":"高知県","city":"長岡郡大豊町","address":"中内"},
{"zip_code":"7890315","kana_pref":"ｺｳﾁｹﾝ","kana_city":"ﾅｶﾞｵｶｸﾞﾝｵｵﾄﾖﾁｮｳ","kana_address":"ﾅｶﾑﾗﾀﾞｲｵｳ","pref":"高知県","city":"長岡郡大豊町","address":"中村大王"},
{"zip_code":"7890251","kana_pref":"ｺｳﾁｹﾝ","kana_city":"ﾅｶﾞｵｶｸﾞﾝｵｵﾄﾖﾁｮｳ","kana_address":"ﾅｶﾔ","pref":"高知県","city":"長岡郡大豊町","address":"中屋"},
{"zip_code":"7890245","kana_pref":"ｺｳﾁｹﾝ","kana_city":"ﾅｶﾞｵｶｸﾞﾝｵｵﾄﾖﾁｮｳ","kana_address":"ﾅｶﾞﾌﾁ","pref":"高知県","city":"長岡郡大豊町","address":"永淵"},
{"zip_code":"7890165","kana_pref":"ｺｳﾁｹﾝ","kana_city":"ﾅｶﾞｵｶｸﾞﾝｵｵﾄﾖﾁｮｳ","kana_address":"ﾆｼｶﾞﾜ","pref":"高知県","city":"長岡郡大豊町","address":"西川"},
{"zip_code":"7890243","kana_pref":"ｺｳﾁｹﾝ","kana_city":"ﾅｶﾞｵｶｸﾞﾝｵｵﾄﾖﾁｮｳ","kana_address":"ﾆｼｸﾎﾞ","pref":"高知県","city":"長岡郡大豊町","address":"西久保"},
{"zip_code":"7890254","kana_pref":"ｺｳﾁｹﾝ","kana_city":"ﾅｶﾞｵｶｸﾞﾝｵｵﾄﾖﾁｮｳ","kana_address":"ﾆｼﾄﾞｲ","pref":"高知県","city":"長岡郡大豊町","address":"西土居"},
{"zip_code":"7890159","kana_pref":"ｺｳﾁｹﾝ","kana_city":"ﾅｶﾞｵｶｸﾞﾝｵｵﾄﾖﾁｮｳ","kana_address":"ﾆｼﾐﾈ","pref":"高知県","city":"長岡郡大豊町","address":"西峰"},
{"zip_code":"7890160","kana_pref":"ｺｳﾁｹﾝ","kana_city":"ﾅｶﾞｵｶｸﾞﾝｵｵﾄﾖﾁｮｳ","kana_address":"ﾆｼﾐﾈ","pref":"高知県","city":"長岡郡大豊町","address":"西峰"},
{"zip_code":"7890162","kana_pref":"ｺｳﾁｹﾝ","kana_city":"ﾅｶﾞｵｶｸﾞﾝｵｵﾄﾖﾁｮｳ","kana_address":"ﾇﾀ","pref":"高知県","city":"長岡郡大豊町","address":"怒田"},
{"zip_code":"7890314","kana_pref":"ｺｳﾁｹﾝ","kana_city":"ﾅｶﾞｵｶｸﾞﾝｵｵﾄﾖﾁｮｳ","kana_address":"ﾋｳﾗ","pref":"高知県","city":"長岡郡大豊町","address":"日浦"},
{"zip_code":"7890166","kana_pref":"ｺｳﾁｹﾝ","kana_city":"ﾅｶﾞｵｶｸﾞﾝｵｵﾄﾖﾁｮｳ","kana_address":"ﾋｶﾞｼﾄﾞｲ","pref":"高知県","city":"長岡郡大豊町","address":"東土居"},
{"zip_code":"7890235","kana_pref":"ｺｳﾁｹﾝ","kana_city":"ﾅｶﾞｵｶｸﾞﾝｵｵﾄﾖﾁｮｳ","kana_address":"ﾌﾅﾄ","pref":"高知県","city":"長岡郡大豊町","address":"船戸"},
{"zip_code":"7890163","kana_pref":"ｺｳﾁｹﾝ","kana_city":"ﾅｶﾞｵｶｸﾞﾝｵｵﾄﾖﾁｮｳ","kana_address":"ﾐﾅﾐﾀﾞｲｵｳ","pref":"高知県","city":"長岡郡大豊町","address":"南大王"},
{"zip_code":"7890244","kana_pref":"ｺｳﾁｹﾝ","kana_city":"ﾅｶﾞｵｶｸﾞﾝｵｵﾄﾖﾁｮｳ","kana_address":"ﾓﾓﾊﾗ","pref":"高知県","city":"長岡郡大豊町","address":"桃原"},
{"zip_code":"7890156","kana_pref":"ｺｳﾁｹﾝ","kana_city":"ﾅｶﾞｵｶｸﾞﾝｵｵﾄﾖﾁｮｳ","kana_address":"ﾔｶﾜ","pref":"高知県","city":"長岡郡大豊町","address":"八川"},
{"zip_code":"7890253","kana_pref":"ｺｳﾁｹﾝ","kana_city":"ﾅｶﾞｵｶｸﾞﾝｵｵﾄﾖﾁｮｳ","kana_address":"ﾔｽﾉﾉ","pref":"高知県","city":"長岡郡大豊町","address":"安野々"},
{"zip_code":"7890246","kana_pref":"ｺｳﾁｹﾝ","kana_city":"ﾅｶﾞｵｶｸﾞﾝｵｵﾄﾖﾁｮｳ","kana_address":"ﾔﾅｷﾞﾉ","pref":"高知県","city":"長岡郡大豊町","address":"柳野"},
{"zip_code":"7890161","kana_pref":"ｺｳﾁｹﾝ","kana_city":"ﾅｶﾞｵｶｸﾞﾝｵｵﾄﾖﾁｮｳ","kana_address":"ﾕﾉｷ","pref":"高知県","city":"長岡郡大豊町","address":"柚木"},
{"zip_code":"7890164","kana_pref":"ｺｳﾁｹﾝ","kana_city":"ﾅｶﾞｵｶｸﾞﾝｵｵﾄﾖﾁｮｳ","kana_address":"ﾖｳﾈ","pref":"高知県","city":"長岡郡大豊町","address":"八畝"},
{"zip_code":"7890236","kana_pref":"ｺｳﾁｹﾝ","kana_city":"ﾅｶﾞｵｶｸﾞﾝｵｵﾄﾖﾁｮｳ","kana_address":"ﾜﾀﾞ","pref":"高知県","city":"長岡郡大豊町","address":"和田"},
{"zip_code":"7891300","kana_pref":"ｺｳﾁｹﾝ","kana_city":"ﾀｶｵｶｸﾞﾝﾅｶﾄｻﾁｮｳ","kana_address":"","pref":"高知県","city":"高岡郡中土佐町","address":""},
{"zip_code":"7891413","kana_pref":"ｺｳﾁｹﾝ","kana_city":"ﾀｶｵｶｸﾞﾝﾅｶﾄｻﾁｮｳ","kana_address":"ｵｵﾉﾐｱﾗｾ","pref":"高知県","city":"高岡郡中土佐町","address":"大野見荒瀬"},
{"zip_code":"7891414","kana_pref":"ｺｳﾁｹﾝ","kana_city":"ﾀｶｵｶｸﾞﾝﾅｶﾄｻﾁｮｳ","kana_address":"ｵｵﾉﾐｲｹﾞﾉ","pref":"高知県","city":"高岡郡中土佐町","address":"大野見神母野"},
{"zip_code":"7891405","kana_pref":"ｺｳﾁｹﾝ","kana_city":"ﾀｶｵｶｸﾞﾝﾅｶﾄｻﾁｮｳ","kana_address":"ｵｵﾉﾐｲｾｶﾞﾜ","pref":"高知県","city":"高岡郡中土佐町","address":"大野見伊勢川"},
{"zip_code":"7891418","kana_pref":"ｺｳﾁｹﾝ","kana_city":"ﾀｶｵｶｸﾞﾝﾅｶﾄｻﾁｮｳ","kana_address":"ｵｵﾉﾐｵｵﾏﾀ","pref":"高知県","city":"高岡郡中土佐町","address":"大野見大股"},
{"zip_code":"7891412","kana_pref":"ｺｳﾁｹﾝ","kana_city":"ﾀｶｵｶｸﾞﾝﾅｶﾄｻﾁｮｳ","kana_address":"ｵｵﾉﾐｶﾜｵｸ","pref":"高知県","city":"高岡郡中土佐町","address":"大野見川奥"},
{"zip_code":"7891416","kana_pref":"ｺｳﾁｹﾝ","kana_city":"ﾀｶｵｶｸﾞﾝﾅｶﾄｻﾁｮｳ","kana_address":"ｵｵﾉﾐｸﾀﾞﾙｶﾜ","pref":"高知県","city":"高岡郡中土佐町","address":"大野見下ル川"},
{"zip_code":"7891403","kana_pref":"ｺｳﾁｹﾝ","kana_city":"ﾀｶｵｶｸﾞﾝﾅｶﾄｻﾁｮｳ","kana_address":"ｵｵﾉﾐｸﾏｱｷ","pref":"高知県","city":"高岡郡中土佐町","address":"大野見久万秋"},
{"zip_code":"7891419","kana_pref":"ｺｳﾁｹﾝ","kana_city":"ﾀｶｵｶｸﾞﾝﾅｶﾄｻﾁｮｳ","kana_address":"ｵｵﾉﾐｼﾏﾉｶﾞﾜ","pref":"高知県","city":"高岡郡中土佐町","address":"大野見島ノ川"},
{"zip_code":"7891409","kana_pref":"ｺｳﾁｹﾝ","kana_city":"ﾀｶｵｶｸﾞﾝﾅｶﾄｻﾁｮｳ","kana_address":"ｵｵﾉﾐﾀｹﾊﾗ","pref":"高知県","city":"高岡郡中土佐町","address":"大野見竹原"},
{"zip_code":"7891410","kana_pref":"ｺｳﾁｹﾝ","kana_city":"ﾀｶｵｶｸﾞﾝﾅｶﾄｻﾁｮｳ","kana_address":"ｵｵﾉﾐﾂｶﾞﾉｶﾜ","pref":"高知県","city":"高岡郡中土佐町","address":"大野見栂ノ川"},
{"zip_code":"7891415","kana_pref":"ｺｳﾁｹﾝ","kana_city":"ﾀｶｵｶｸﾞﾝﾅｶﾄｻﾁｮｳ","kana_address":"ｵｵﾉﾐﾃﾗﾉ","pref":"高知県","city":"高岡郡中土佐町","address":"大野見寺野"},
{"zip_code":"7891411","kana_pref":"ｺｳﾁｹﾝ","kana_city":"ﾀｶｵｶｸﾞﾝﾅｶﾄｻﾁｮｳ","kana_address":"ｵｵﾉﾐﾄｺﾛﾉ","pref":"高知県","city":"高岡郡中土佐町","address":"大野見野老野"},
{"zip_code":"7891408","kana_pref":"ｺｳﾁｹﾝ","kana_city":"ﾀｶｵｶｸﾞﾝﾅｶﾄｻﾁｮｳ","kana_address":"ｵｵﾉﾐﾅｶﾞﾉ","pref":"高知県","city":"高岡郡中土佐町","address":"大野見長野"},
{"zip_code":"7891404","kana_pref":"ｺｳﾁｹﾝ","kana_city":"ﾀｶｵｶｸﾞﾝﾅｶﾄｻﾁｮｳ","kana_address":"ｵｵﾉﾐﾅﾛ","pref":"高知県","city":"高岡郡中土佐町","address":"大野見奈路"},
{"zip_code":"7891417","kana_pref":"ｺｳﾁｹﾝ","kana_city":"ﾀｶｵｶｸﾞﾝﾅｶﾄｻﾁｮｳ","kana_address":"ｵｵﾉﾐﾊｷﾞﾅｶ","pref":"高知県","city":"高岡郡中土佐町","address":"大野見萩中"},
{"zip_code":"7891402","kana_pref":"ｺｳﾁｹﾝ","kana_city":"ﾀｶｵｶｸﾞﾝﾅｶﾄｻﾁｮｳ","kana_address":"ｵｵﾉﾐﾊｼﾀﾞﾆ","pref":"高知県","city":"高岡郡中土佐町","address":"大野見橋谷"},
{"zip_code":"7891406","kana_pref":"ｺｳﾁｹﾝ","kana_city":"ﾀｶｵｶｸﾞﾝﾅｶﾄｻﾁｮｳ","kana_address":"ｵｵﾉﾐﾏｷﾉﾉ","pref":"高知県","city":"高岡郡中土佐町","address":"大野見槇野々"},
{"zip_code":"7891407","kana_pref":"ｺｳﾁｹﾝ","kana_city":"ﾀｶｵｶｸﾞﾝﾅｶﾄｻﾁｮｳ","kana_address":"ｵｵﾉﾐﾐﾂﾏﾀ","pref":"高知県","city":"高岡郡中土佐町","address":"大野見三ツ又"},
{"zip_code":"7891401","kana_pref":"ｺｳﾁｹﾝ","kana_city":"ﾀｶｵｶｸﾞﾝﾅｶﾄｻﾁｮｳ","kana_address":"ｵｵﾉﾐﾖｼﾉ","pref":"高知県","city":"高岡郡中土佐町","address":"大野見吉野"},
{"zip_code":"7891302","kana_pref":"ｺｳﾁｹﾝ","kana_city":"ﾀｶｵｶｸﾞﾝﾅｶﾄｻﾁｮｳ","kana_address":"ｶﾐﾉｶｴ","pref":"高知県","city":"高岡郡中土佐町","address":"上ノ加江"},
{"zip_code":"7891301","kana_pref":"ｺｳﾁｹﾝ","kana_city":"ﾀｶｵｶｸﾞﾝﾅｶﾄｻﾁｮｳ","kana_address":"ｸﾚ","pref":"高知県","city":"高岡郡中土佐町","address":"久礼"},
{"zip_code":"7891304","kana_pref":"ｺｳﾁｹﾝ","kana_city":"ﾀｶｵｶｸﾞﾝﾅｶﾄｻﾁｮｳ","kana_address":"ﾔｲｶｵﾂ","pref":"高知県","city":"高岡郡中土佐町","address":"矢井賀乙"},
{"zip_code":"7891303","kana_pref":"ｺｳﾁｹﾝ","kana_city":"ﾀｶｵｶｸﾞﾝﾅｶﾄｻﾁｮｳ","kana_address":"ﾔｲｶｺｳ","pref":"高知県","city":"高岡郡中土佐町","address":"矢井賀甲"},
{"zip_code":"7891200","kana_pref":"ｺｳﾁｹﾝ","kana_city":"ﾀｶｵｶｸﾞﾝｻｶﾜﾁｮｳ","kana_address":"","pref":"高知県","city":"高岡郡佐川町","address":""},
{"zip_code":"7891217","kana_pref":"ｺｳﾁｹﾝ","kana_city":"ﾀｶｵｶｸﾞﾝｻｶﾜﾁｮｳ","kana_address":"ｵｵﾀｶﾜ","pref":"高知県","city":"高岡郡佐川町","address":"大田川"},
{"zip_code":"7891202","kana_pref":"ｺｳﾁｹﾝ","kana_city":"ﾀｶｵｶｸﾞﾝｻｶﾜﾁｮｳ","kana_address":"ｵﾂ","pref":"高知県","city":"高岡郡佐川町","address":"乙"},
{"zip_code":"7891204","kana_pref":"ｺｳﾁｹﾝ","kana_city":"ﾀｶｵｶｸﾞﾝｻｶﾜﾁｮｳ","kana_address":"ｶﾓ","pref":"高知県","city":"高岡郡佐川町","address":"加茂"},
{"zip_code":"7891235","kana_pref":"ｺｳﾁｹﾝ","kana_city":"ﾀｶｵｶｸﾞﾝｻｶﾜﾁｮｳ","kana_address":"ｶﾜﾉｳﾁｸﾞﾐ","pref":"高知県","city":"高岡郡佐川町","address":"川ノ内組"},
{"zip_code":"7891211","kana_pref":"ｺｳﾁｹﾝ","kana_city":"ﾀｶｵｶｸﾞﾝｻｶﾜﾁｮｳ","kana_address":"ｸﾛﾊﾗ","pref":"高知県","city":"高岡郡佐川町","address":"黒原"},
{"zip_code":"7891201","kana_pref":"ｺｳﾁｹﾝ","kana_city":"ﾀｶｵｶｸﾞﾝｻｶﾜﾁｮｳ","kana_address":"ｺｳ","pref":"高知県","city":"高岡郡佐川町","address":"甲"},
{"zip_code":"7891216","kana_pref":"ｺｳﾁｹﾝ","kana_city":"ﾀｶｵｶｸﾞﾝｻｶﾜﾁｮｳ","kana_address":"ｼｮｳﾀﾞ","pref":"高知県","city":"高岡郡佐川町","address":"庄田"},
{"zip_code":"7891215","kana_pref":"ｺｳﾁｹﾝ","kana_city":"ﾀｶｵｶｸﾞﾝｻｶﾜﾁｮｳ","kana_address":"ｽﾞｲｵｳ","pref":"高知県","city":"高岡郡佐川町","address":"瑞応"},
{"zip_code":"7891233","kana_pref":"ｺｳﾁｹﾝ","kana_city":"ﾀｶｵｶｸﾞﾝｻｶﾜﾁｮｳ","kana_address":"ﾅｶｸﾞﾐ","pref":"高知県","city":"高岡郡佐川町","address":"中組"},
{"zip_code":"7891214","kana_pref":"ｺｳﾁｹﾝ","kana_city":"ﾀｶｵｶｸﾞﾝｻｶﾜﾁｮｳ","kana_address":"ﾅｶﾉ","pref":"高知県","city":"高岡郡佐川町","address":"中野"},
{"zip_code":"7891231","kana_pref":"ｺｳﾁｹﾝ","kana_city":"ﾀｶｵｶｸﾞﾝｻｶﾜﾁｮｳ","kana_address":"ﾅｶﾞﾉ","pref":"高知県","city":"高岡郡佐川町","address":"永野"},
{"zip_code":"7891234","kana_pref":"ｺｳﾁｹﾝ","kana_city":"ﾀｶｵｶｸﾞﾝｻｶﾜﾁｮｳ","kana_address":"ﾆｼｸﾞﾐ","pref":"高知県","city":"高岡郡佐川町","address":"西組"},
{"zip_code":"7891222","kana_pref":"ｺｳﾁｹﾝ","kana_city":"ﾀｶｵｶｸﾞﾝｻｶﾜﾁｮｳ","kana_address":"ﾆｼﾔﾏｸﾞﾐ","pref":"高知県","city":"高岡郡佐川町","address":"西山組"},
{"zip_code":"7891223","kana_pref":"ｺｳﾁｹﾝ","kana_city":"ﾀｶｵｶｸﾞﾝｻｶﾜﾁｮｳ","kana_address":"ﾆｼﾔﾏｺｳ","pref":"高知県","city":"高岡郡佐川町","address":"西山耕"},
{"zip_code":"7891232","kana_pref":"ｺｳﾁｹﾝ","kana_city":"ﾀｶｵｶｸﾞﾝｻｶﾜﾁｮｳ","kana_address":"ﾋｶﾞｼｸﾞﾐ","pref":"高知県","city":"高岡郡佐川町","address":"東組"},
{"zip_code":"7891218","kana_pref":"ｺｳﾁｹﾝ","kana_city":"ﾀｶｵｶｸﾞﾝｻｶﾜﾁｮｳ","kana_address":"ﾋﾗﾉ","pref":"高知県","city":"高岡郡佐川町","address":"平野"},
{"zip_code":"7891213","kana_pref":"ｺｳﾁｹﾝ","kana_city":"ﾀｶｵｶｸﾞﾝｻｶﾜﾁｮｳ","kana_address":"ﾌﾀﾂﾉ","pref":"高知県","city":"高岡郡佐川町","address":"二ツ野"},
{"zip_code":"7891224","kana_pref":"ｺｳﾁｹﾝ","kana_city":"ﾀｶｵｶｸﾞﾝｻｶﾜﾁｮｳ","kana_address":"ﾌﾙﾊﾀｺｳ","pref":"高知県","city":"高岡郡佐川町","address":"古畑耕"},
{"zip_code":"7891203","kana_pref":"ｺｳﾁｹﾝ","kana_city":"ﾀｶｵｶｸﾞﾝｻｶﾜﾁｮｳ","kana_address":"ﾍｲ","pref":"高知県","city":"高岡郡佐川町","address":"丙"},
{"zip_code":"7891221","kana_pref":"ｺｳﾁｹﾝ","kana_city":"ﾀｶｵｶｸﾞﾝｻｶﾜﾁｮｳ","kana_address":"ﾎﾝｺﾞｳｺｳ","pref":"高知県","city":"高岡郡佐川町","address":"本郷耕"},
{"zip_code":"7891225","kana_pref":"ｺｳﾁｹﾝ","kana_city":"ﾀｶｵｶｸﾞﾝｻｶﾜﾁｮｳ","kana_address":"ﾐﾈｺｳ","pref":"高知県","city":"高岡郡佐川町","address":"峰耕"},
{"zip_code":"7891205","kana_pref":"ｺｳﾁｹﾝ","kana_city":"ﾀｶｵｶｸﾞﾝｻｶﾜﾁｮｳ","kana_address":"ﾑﾛﾊﾗ","pref":"高知県","city":"高岡郡佐川町","address":"室原"},
{"zip_code":"7891212","kana_pref":"ｺｳﾁｹﾝ","kana_city":"ﾀｶｵｶｸﾞﾝｻｶﾜﾁｮｳ","kana_address":"ﾖﾂｼﾞﾛ","pref":"高知県","city":"高岡郡佐川町","address":"四ツ白"},
{"zip_code":"7891900","kana_pref":"ｺｳﾁｹﾝ","kana_city":"ﾊﾀｸﾞﾝｸﾛｼｵﾁｮｳ","kana_address":"","pref":"高知県","city":"幡多郡黒潮町","address":""},
{"zip_code":"7891903","kana_pref":"ｺｳﾁｹﾝ","kana_city":"ﾊﾀｸﾞﾝｸﾛｼｵﾁｮｳ","kana_address":"ｱﾘｲｶﾞﾜ","pref":"高知県","city":"幡多郡黒潮町","address":"有井川"},
{"zip_code":"7891904","kana_pref":"ｺｳﾁｹﾝ","kana_city":"ﾊﾀｸﾞﾝｸﾛｼｵﾁｮｳ","kana_address":"ｲﾀﾞ","pref":"高知県","city":"幡多郡黒潮町","address":"伊田"},
{"zip_code":"7891701","kana_pref":"ｺｳﾁｹﾝ","kana_city":"ﾊﾀｸﾞﾝｸﾛｼｵﾁｮｳ","kana_address":"ｲﾁﾉｾ","pref":"高知県","city":"幡多郡黒潮町","address":"市野瀬"},
{"zip_code":"7891711","kana_pref":"ｺｳﾁｹﾝ","kana_city":"ﾊﾀｸﾞﾝｸﾛｼｵﾁｮｳ","kana_address":"ｲﾁﾉﾉｶﾞﾜ","pref":"高知県","city":"幡多郡黒潮町","address":"市野々川"},
{"zip_code":"7891934","kana_pref":"ｺｳﾁｹﾝ","kana_city":"ﾊﾀｸﾞﾝｸﾛｼｵﾁｮｳ","kana_address":"ｲﾃﾞｸﾞﾁ","pref":"高知県","city":"幡多郡黒潮町","address":"出口"},
{"zip_code":"7891713","kana_pref":"ｺｳﾁｹﾝ","kana_city":"ﾊﾀｸﾞﾝｸﾛｼｵﾁｮｳ","kana_address":"ｲﾖｷ","pref":"高知県","city":"幡多郡黒潮町","address":"伊与喜"},
{"zip_code":"7891931","kana_pref":"ｺｳﾁｹﾝ","kana_city":"ﾊﾀｸﾞﾝｸﾛｼｵﾁｮｳ","kana_address":"ｲﾘﾉ","pref":"高知県","city":"幡多郡黒潮町","address":"入野"},
{"zip_code":"7891911","kana_pref":"ｺｳﾁｹﾝ","kana_city":"ﾊﾀｸﾞﾝｸﾛｼｵﾁｮｳ","kana_address":"ｳｷﾌﾞﾁ","pref":"高知県","city":"幡多郡黒潮町","address":"浮鞭"},
{"zip_code":"7891924","kana_pref":"ｺｳﾁｹﾝ","kana_city":"ﾊﾀｸﾞﾝｸﾛｼｵﾁｮｳ","kana_address":"ｳﾏﾆ","pref":"高知県","city":"幡多郡黒潮町","address":"馬荷"},
{"zip_code":"7891923","kana_pref":"ｺｳﾁｹﾝ","kana_city":"ﾊﾀｸﾞﾝｸﾛｼｵﾁｮｳ","kana_address":"ｵｵｲｶﾞﾜ","pref":"高知県","city":"幡多郡黒潮町","address":"大井川"},
{"zip_code":"7891925","kana_pref":"ｺｳﾁｹﾝ","kana_city":"ﾊﾀｸﾞﾝｸﾛｼｵﾁｮｳ","kana_address":"ｵｵｶﾞﾀﾀﾁﾊﾞﾅｶﾞﾜ","pref":"高知県","city":"幡多郡黒潮町","address":"大方橘川"},
{"zip_code":"7891913","kana_pref":"ｺｳﾁｹﾝ","kana_city":"ﾊﾀｸﾞﾝｸﾛｼｵﾁｮｳ","kana_address":"ｵｸﾐﾅﾄｶﾞﾜ","pref":"高知県","city":"幡多郡黒潮町","address":"奥湊川"},
{"zip_code":"7891936","kana_pref":"ｺｳﾁｹﾝ","kana_city":"ﾊﾀｸﾞﾝｸﾛｼｵﾁｮｳ","kana_address":"ｵﾝﾎﾞｳﾊﾞﾀ","pref":"高知県","city":"幡多郡黒潮町","address":"御坊畑"},
{"zip_code":"7891705","kana_pref":"ｺｳﾁｹﾝ","kana_city":"ﾊﾀｸﾞﾝｸﾛｼｵﾁｮｳ","kana_address":"ｶｲﾅ","pref":"高知県","city":"幡多郡黒潮町","address":"荷稲"},
{"zip_code":"7891901","kana_pref":"ｺｳﾁｹﾝ","kana_city":"ﾊﾀｸﾞﾝｸﾛｼｵﾁｮｳ","kana_address":"ｶﾐｶﾜｸﾞﾁ","pref":"高知県","city":"幡多郡黒潮町","address":"上川口"},
{"zip_code":"7891935","kana_pref":"ｺｳﾁｹﾝ","kana_city":"ﾊﾀｸﾞﾝｸﾛｼｵﾁｮｳ","kana_address":"ｶﾐﾀﾉｸﾁ","pref":"高知県","city":"幡多郡黒潮町","address":"上田の口"},
{"zip_code":"7891921","kana_pref":"ｺｳﾁｹﾝ","kana_city":"ﾊﾀｸﾞﾝｸﾛｼｵﾁｮｳ","kana_address":"ｶﾓﾁ","pref":"高知県","city":"幡多郡黒潮町","address":"加持"},
{"zip_code":"7891922","kana_pref":"ｺｳﾁｹﾝ","kana_city":"ﾊﾀｸﾞﾝｸﾛｼｵﾁｮｳ","kana_address":"ｶﾓﾁｶﾞﾜ","pref":"高知県","city":"幡多郡黒潮町","address":"加持川"},
{"zip_code":"7891704","kana_pref":"ｺｳﾁｹﾝ","kana_city":"ﾊﾀｸﾞﾝｸﾛｼｵﾁｮｳ","kana_address":"ｶﾜｵｸ","pref":"高知県","city":"幡多郡黒潮町","address":"川奥"},
{"zip_code":"7891912","kana_pref":"ｺｳﾁｹﾝ","kana_city":"ﾊﾀｸﾞﾝｸﾛｼｵﾁｮｳ","kana_address":"ｸﾁﾐﾅﾄｶﾞﾜ","pref":"高知県","city":"幡多郡黒潮町","address":"口湊川"},
{"zip_code":"7891715","kana_pref":"ｺｳﾁｹﾝ","kana_city":"ﾊﾀｸﾞﾝｸﾛｼｵﾁｮｳ","kana_address":"ｸﾏｲ","pref":"高知県","city":"幡多郡黒潮町","address":"熊井"},
{"zip_code":"7891716","kana_pref":"ｺｳﾁｹﾝ","kana_city":"ﾊﾀｸﾞﾝｸﾛｼｵﾁｮｳ","kana_address":"ｸﾏﾉｳﾗ","pref":"高知県","city":"幡多郡黒潮町","address":"熊野浦"},
{"zip_code":"7891706","kana_pref":"ｺｳﾁｹﾝ","kana_city":"ﾊﾀｸﾞﾝｸﾛｼｵﾁｮｳ","kana_address":"ｺｸﾞﾛﾉｶﾜ","pref":"高知県","city":"幡多郡黒潮町","address":"小黒ノ川"},
{"zip_code":"7891703","kana_pref":"ｺｳﾁｹﾝ","kana_city":"ﾊﾀｸﾞﾝｸﾛｼｵﾁｮｳ","kana_address":"ｺﾌﾞｼﾉｶﾜ","pref":"高知県","city":"幡多郡黒潮町","address":"拳ノ川"},
{"zip_code":"7891723","kana_pref":"ｺｳﾁｹﾝ","kana_city":"ﾊﾀｸﾞﾝｸﾛｼｵﾁｮｳ","kana_address":"ｻｶﾞ","pref":"高知県","city":"幡多郡黒潮町","address":"佐賀"},
{"zip_code":"7891722","kana_pref":"ｺｳﾁｹﾝ","kana_city":"ﾊﾀｸﾞﾝｸﾛｼｵﾁｮｳ","kana_address":"ｻｶﾞ","pref":"高知県","city":"幡多郡黒潮町","address":"佐賀"},
{"zip_code":"7891721","kana_pref":"ｺｳﾁｹﾝ","kana_city":"ﾊﾀｸﾞﾝｸﾛｼｵﾁｮｳ","kana_address":"ｻｶﾞ","pref":"高知県","city":"幡多郡黒潮町","address":"佐賀"},
{"zip_code":"7891724","kana_pref":"ｺｳﾁｹﾝ","kana_city":"ﾊﾀｸﾞﾝｸﾛｼｵﾁｮｳ","kana_address":"ｻｶﾞ","pref":"高知県","city":"幡多郡黒潮町","address":"佐賀"},
{"zip_code":"7891720","kana_pref":"ｺｳﾁｹﾝ","kana_city":"ﾊﾀｸﾞﾝｸﾛｼｵﾁｮｳ","kana_address":"ｻｶﾞ","pref":"高知県","city":"幡多郡黒潮町","address":"佐賀"},
{"zip_code":"7891702","kana_pref":"ｺｳﾁｹﾝ","kana_city":"ﾊﾀｸﾞﾝｸﾛｼｵﾁｮｳ","kana_address":"ｻｶﾞﾀﾁﾊﾞﾅｶﾞﾜ","pref":"高知県","city":"幡多郡黒潮町","address":"佐賀橘川"},
{"zip_code":"7891932","kana_pref":"ｺｳﾁｹﾝ","kana_city":"ﾊﾀｸﾞﾝｸﾛｼｵﾁｮｳ","kana_address":"ｼﾓﾀﾉｸﾁ","pref":"高知県","city":"幡多郡黒潮町","address":"下田の口"},
{"zip_code":"7891725","kana_pref":"ｺｳﾁｹﾝ","kana_city":"ﾊﾀｸﾞﾝｸﾛｼｵﾁｮｳ","kana_address":"ｼﾗﾊﾏ","pref":"高知県","city":"幡多郡黒潮町","address":"白浜"},
{"zip_code":"7891708","kana_pref":"ｺｳﾁｹﾝ","kana_city":"ﾊﾀｸﾞﾝｸﾛｼｵﾁｮｳ","kana_address":"ｽｽﾞ","pref":"高知県","city":"幡多郡黒潮町","address":"鈴"},
{"zip_code":"7891933","kana_pref":"ｺｳﾁｹﾝ","kana_city":"ﾊﾀｸﾞﾝｸﾛｼｵﾁｮｳ","kana_address":"ﾀﾉｳﾗ","pref":"高知県","city":"幡多郡黒潮町","address":"田野浦"},
{"zip_code":"7891707","kana_pref":"ｺｳﾁｹﾝ","kana_city":"ﾊﾀｸﾞﾝｸﾛｼｵﾁｮｳ","kana_address":"ﾅｶﾉｶﾜ","pref":"高知県","city":"幡多郡黒潮町","address":"中ノ川"},
{"zip_code":"7891905","kana_pref":"ｺｳﾁｹﾝ","kana_city":"ﾊﾀｸﾞﾝｸﾛｼｵﾁｮｳ","kana_address":"ﾅﾀﾞ","pref":"高知県","city":"幡多郡黒潮町","address":"灘"},
{"zip_code":"7891714","kana_pref":"ｺｳﾁｹﾝ","kana_city":"ﾊﾀｸﾞﾝｸﾛｼｵﾁｮｳ","kana_address":"ﾌｼﾞﾅﾜ","pref":"高知県","city":"幡多郡黒潮町","address":"藤縄"},
{"zip_code":"7891712","kana_pref":"ｺｳﾁｹﾝ","kana_city":"ﾊﾀｸﾞﾝｸﾛｼｵﾁｮｳ","kana_address":"ﾌﾊﾞﾊﾗ","pref":"高知県","city":"幡多郡黒潮町","address":"不破原"},
{"zip_code":"7891902","kana_pref":"ｺｳﾁｹﾝ","kana_city":"ﾊﾀｸﾞﾝｸﾛｼｵﾁｮｳ","kana_address":"ﾐﾅｶﾞﾜ","pref":"高知県","city":"幡多郡黒潮町","address":"蜷川"}]}