{"zip_code":[
{"zip_code":"7900064","kana_pref":"ｴﾋﾒｹﾝ","kana_city":"ﾏﾂﾔﾏｼ","kana_address":"ｱｲｺｳﾁｮｳ","pref":"愛媛県","city":"松山市","address":"愛光町"},
{"zip_code":"7900876","kana_pref":"ｴﾋﾒｹﾝ","kana_city":"ﾏﾂﾔﾏｼ","kana_address":"ｱｻﾋﾏﾁ","pref":"愛媛県","city":"松山市","address":"旭町"},
{"zip_code":"7900952","kana_pref":"ｴﾋﾒｹﾝ","kana_city":"ﾏﾂﾔﾏｼ","kana_address":"ｱｿﾀﾞﾏﾁ","pref":"愛媛県","city":"松山市","address":"朝生田町"},
{"zip_code":"7900951","kana_pref":"ｴﾋﾒｹﾝ","kana_city":"ﾏﾂﾔﾏｼ","kana_address":"ｱﾏﾔﾏ","pref":"愛媛県","city":"松山市","address":"天山"},
{"zip_code":"7900951","kana_pref":"ｴﾋﾒｹﾝ","kana_city":"ﾏﾂﾔﾏｼ","kana_address":"ｱﾏﾔﾏﾏﾁ","pref":"愛媛県","city":"松山市","address":"天山町"},
{"zip_code":"7900934","kana_pref":"ｴﾋﾒｹﾝ","kana_city":"ﾏﾂﾔﾏｼ","kana_address":"ｲｱｲ","pref":"愛媛県","city":"松山市","address":"居相"},
{"zip_code":"7900051","kana_pref":"ｴﾋﾒｹﾝ","kana_city":"ﾏﾂﾔﾏｼ","kana_address":"ｲｸｼﾏﾁ","pref":"愛媛県","city":"松山市","address":"生石町"},
{"zip_code":"7900852","kana_pref":"ｴﾋﾒｹﾝ","kana_city":"ﾏﾂﾔﾏｼ","kana_address":"ｲｼﾃ","pref":"愛媛県","city":"松山市","address":"石手"},
{"zip_code":"7900902","kana_pref":"ｴﾋﾒｹﾝ","kana_city":"ﾏﾂﾔﾏｼ","kana_address":"ｲｼﾃｼﾗｲｼ","pref":"愛媛県","city":"松山市","address":"石手白石"},
{"zip_code":"7900025","kana_pref":"ｴﾋﾒｹﾝ","kana_city":"ﾏﾂﾔﾏｼ","kana_address":"ｲｽﾞﾐﾏﾁ","pref":"愛媛県","city":"松山市","address":"泉町"},
{"zip_code":"7900941","kana_pref":"ｴﾋﾒｹﾝ","kana_city":"ﾏﾂﾔﾏｼ","kana_address":"ｲｽﾞﾐﾐﾅﾐ","pref":"愛媛県","city":"松山市","address":"和泉南"},
{"zip_code":"7900038","kana_pref":"ｴﾋﾒｹﾝ","kana_city":"ﾏﾂﾔﾏｼ","kana_address":"ｲｽﾞﾐｷﾀ","pref":"愛媛県","city":"松山市","address":"和泉北"},
{"zip_code":"7900948","kana_pref":"ｴﾋﾒｹﾝ","kana_city":"ﾏﾂﾔﾏｼ","kana_address":"ｲﾁﾂﾎﾞﾆｼﾏﾁ","pref":"愛媛県","city":"松山市","address":"市坪西町"},
{"zip_code":"7900947","kana_pref":"ｴﾋﾒｹﾝ","kana_city":"ﾏﾂﾔﾏｼ","kana_address":"ｲﾁﾂﾎﾞﾐﾅﾐ","pref":"愛媛県","city":"松山市","address":"市坪南"},
{"zip_code":"7900946","kana_pref":"ｴﾋﾒｹﾝ","kana_city":"ﾏﾂﾔﾏｼ","kana_address":"ｲﾁﾂﾎﾞｷﾀ","pref":"愛媛県","city":"松山市","address":"市坪北"},
{"zip_code":"7900001","kana_pref":"ｴﾋﾒｹﾝ","kana_city":"ﾏﾂﾔﾏｼ","kana_address":"ｲﾁﾊﾞﾝﾁｮｳ","pref":"愛媛県","city":"松山市","address":"一番町"},
{"zip_code":"7900833","kana_pref":"ｴﾋﾒｹﾝ","kana_city":"ﾏﾂﾔﾏｼ","kana_address":"ｲﾜｲﾀﾞﾆ","pref":"愛媛県","city":"松山市","address":"祝谷"},
{"zip_code":"7900835","kana_pref":"ｴﾋﾒｹﾝ","kana_city":"ﾏﾂﾔﾏｼ","kana_address":"ｲﾜｲﾀﾞﾆﾋｶﾞｼﾏﾁ","pref":"愛媛県","city":"松山市","address":"祝谷東町"},
{"zip_code":"7900832","kana_pref":"ｴﾋﾒｹﾝ","kana_city":"ﾏﾂﾔﾏｼ","kana_address":"ｲﾜｲﾀﾞﾆﾆｼﾏﾁ","pref":"愛媛県","city":"松山市","address":"祝谷西町"},
{"zip_code":"7900834","kana_pref":"ｴﾋﾒｹﾝ","kana_city":"ﾏﾂﾔﾏｼ","kana_address":"ｲﾜｲﾀﾞﾆﾏﾁ","pref":"愛媛県","city":"松山市","address":"祝谷町"},
{"zip_code":"7900854","kana_pref":"ｴﾋﾒｹﾝ","kana_city":"ﾏﾂﾔﾏｼ","kana_address":"ｲﾜｻｷﾏﾁ","pref":"愛媛県","city":"松山市","address":"岩崎町"},
{"zip_code":"7900022","kana_pref":"ｴﾋﾒｹﾝ","kana_city":"ﾏﾂﾔﾏｼ","kana_address":"ｴｲﾀﾞｲﾏﾁ","pref":"愛媛県","city":"松山市","address":"永代町"},
{"zip_code":"7900962","kana_pref":"ｴﾋﾒｹﾝ","kana_city":"ﾏﾂﾔﾏｼ","kana_address":"ｴﾀﾞﾏﾂ","pref":"愛媛県","city":"松山市","address":"枝松"},
{"zip_code":"7900004","kana_pref":"ｴﾋﾒｹﾝ","kana_city":"ﾏﾂﾔﾏｼ","kana_address":"ｵｵｶｲﾄﾞｳ","pref":"愛媛県","city":"松山市","address":"大街道"},
{"zip_code":"7900067","kana_pref":"ｴﾋﾒｹﾝ","kana_city":"ﾏﾂﾔﾏｼ","kana_address":"ｵｵﾃﾏﾁ","pref":"愛媛県","city":"松山市","address":"大手町"},
{"zip_code":"7900036","kana_pref":"ｴﾋﾒｹﾝ","kana_city":"ﾏﾂﾔﾏｼ","kana_address":"ｵｸﾞﾘ","pref":"愛媛県","city":"松山市","address":"小栗"},
{"zip_code":"7900037","kana_pref":"ｴﾋﾒｹﾝ","kana_city":"ﾏﾂﾔﾏｼ","kana_address":"ｵｸﾞﾘﾏﾁ","pref":"愛媛県","city":"松山市","address":"小栗町"},
{"zip_code":"7900933","kana_pref":"ｴﾋﾒｹﾝ","kana_city":"ﾏﾂﾔﾏｼ","kana_address":"ｵﾁ","pref":"愛媛県","city":"松山市","address":"越智"},
{"zip_code":"7900024","kana_pref":"ｴﾋﾒｹﾝ","kana_city":"ﾏﾂﾔﾏｼ","kana_address":"ｶｽｶﾞﾏﾁ","pref":"愛媛県","city":"松山市","address":"春日町"},
{"zip_code":"7900801","kana_pref":"ｴﾋﾒｹﾝ","kana_city":"ﾏﾂﾔﾏｼ","kana_address":"ｶﾁﾏﾁ","pref":"愛媛県","city":"松山市","address":"歩行町"},
{"zip_code":"7900878","kana_pref":"ｴﾋﾒｹﾝ","kana_city":"ﾏﾂﾔﾏｼ","kana_address":"ｶﾂﾔﾏﾁｮｳ","pref":"愛媛県","city":"松山市","address":"勝山町"},
{"zip_code":"7900853","kana_pref":"ｴﾋﾒｹﾝ","kana_city":"ﾏﾂﾔﾏｼ","kana_address":"ｶﾐｲﾁ","pref":"愛媛県","city":"松山市","address":"上市"},
{"zip_code":"7900813","kana_pref":"ｴﾋﾒｹﾝ","kana_city":"ﾏﾂﾔﾏｼ","kana_address":"ｶﾔﾏﾁ","pref":"愛媛県","city":"松山市","address":"萱町"},
{"zip_code":"7900013","kana_pref":"ｴﾋﾒｹﾝ","kana_city":"ﾏﾂﾔﾏｼ","kana_address":"ｶﾜﾗﾏﾁ","pref":"愛媛県","city":"松山市","address":"河原町"},
{"zip_code":"7900965","kana_pref":"ｴﾋﾒｹﾝ","kana_city":"ﾏﾂﾔﾏｼ","kana_address":"ｷﾞｵﾝﾏﾁ","pref":"愛媛県","city":"松山市","address":"祇園町"},
{"zip_code":"7900923","kana_pref":"ｴﾋﾒｹﾝ","kana_city":"ﾏﾂﾔﾏｼ","kana_address":"ｷﾀｸﾒﾏﾁ","pref":"愛媛県","city":"松山市","address":"北久米町"},
{"zip_code":"7900867","kana_pref":"ｴﾋﾒｹﾝ","kana_city":"ﾏﾂﾔﾏｼ","kana_address":"ｷﾀﾀﾁﾊﾞﾅﾏﾁ","pref":"愛媛県","city":"松山市","address":"北立花町"},
{"zip_code":"7900033","kana_pref":"ｴﾋﾒｹﾝ","kana_city":"ﾏﾂﾔﾏｼ","kana_address":"ｷﾀﾌｼﾞﾜﾗﾏﾁ","pref":"愛媛県","city":"松山市","address":"北藤原町"},
{"zip_code":"7900873","kana_pref":"ｴﾋﾒｹﾝ","kana_city":"ﾏﾂﾔﾏｼ","kana_address":"ｷﾀﾓﾁﾀﾞﾏﾁ","pref":"愛媛県","city":"松山市","address":"北持田町"},
{"zip_code":"7900821","kana_pref":"ｴﾋﾒｹﾝ","kana_city":"ﾏﾂﾔﾏｼ","kana_address":"ｷﾔﾁｮｳ","pref":"愛媛県","city":"松山市","address":"木屋町"},
{"zip_code":"7900802","kana_pref":"ｴﾋﾒｹﾝ","kana_city":"ﾏﾂﾔﾏｼ","kana_address":"ｷﾖﾏﾁ","pref":"愛媛県","city":"松山市","address":"喜与町"},
{"zip_code":"7900054","kana_pref":"ｴﾋﾒｹﾝ","kana_city":"ﾏﾂﾔﾏｼ","kana_address":"ｸｳｺｳﾄﾞｵﾘ","pref":"愛媛県","city":"松山市","address":"空港通"},
{"zip_code":"7900911","kana_pref":"ｴﾋﾒｹﾝ","kana_city":"ﾏﾂﾔﾏｼ","kana_address":"ｸﾜﾊﾞﾗ","pref":"愛媛県","city":"松山市","address":"桑原"},
{"zip_code":"7900963","kana_pref":"ｴﾋﾒｹﾝ","kana_city":"ﾏﾂﾔﾏｼ","kana_address":"ｺｻｶ","pref":"愛媛県","city":"松山市","address":"小坂"},
{"zip_code":"7900863","kana_pref":"ｴﾋﾒｹﾝ","kana_city":"ﾏﾂﾔﾏｼ","kana_address":"ｺﾉﾊﾅﾏﾁ","pref":"愛媛県","city":"松山市","address":"此花町"},
{"zip_code":"7900838","kana_pref":"ｴﾋﾒｹﾝ","kana_city":"ﾏﾂﾔﾏｼ","kana_address":"ｻｸﾗﾀﾞﾆﾁｮｳ","pref":"愛媛県","city":"松山市","address":"桜谷町"},
{"zip_code":"7900914","kana_pref":"ｴﾋﾒｹﾝ","kana_city":"ﾏﾂﾔﾏｼ","kana_address":"ｻﾝﾁｮｳ","pref":"愛媛県","city":"松山市","address":"三町"},
{"zip_code":"7900003","kana_pref":"ｴﾋﾒｹﾝ","kana_city":"ﾏﾂﾔﾏｼ","kana_address":"ｻﾝﾊﾞﾝﾁｮｳ","pref":"愛媛県","city":"松山市","address":"三番町"},
{"zip_code":"7900803","kana_pref":"ｴﾋﾒｹﾝ","kana_city":"ﾏﾂﾔﾏｼ","kana_address":"ｼﾉﾉﾒﾁｮｳ","pref":"愛媛県","city":"松山市","address":"東雲町"},
{"zip_code":"7900823","kana_pref":"ｴﾋﾒｹﾝ","kana_city":"ﾏﾂﾔﾏｼ","kana_address":"ｼﾐｽﾞﾏﾁ","pref":"愛媛県","city":"松山市","address":"清水町"},
{"zip_code":"7900904","kana_pref":"ｴﾋﾒｹﾝ","kana_city":"ﾏﾂﾔﾏｼ","kana_address":"ｼｮｳｴﾝｼﾞ","pref":"愛媛県","city":"松山市","address":"正円寺"},
{"zip_code":"7900851","kana_pref":"ｴﾋﾒｹﾝ","kana_city":"ﾏﾂﾔﾏｼ","kana_address":"ｼﾞｮｳｺｳｼﾞﾁｮｳ","pref":"愛媛県","city":"松山市","address":"常光寺町"},
{"zip_code":"7900872","kana_pref":"ｴﾋﾒｹﾝ","kana_city":"ﾏﾂﾔﾏｼ","kana_address":"ｼｮｳﾜﾏﾁ","pref":"愛媛県","city":"松山市","address":"昭和町"},
{"zip_code":"7900901","kana_pref":"ｴﾋﾒｹﾝ","kana_city":"ﾏﾂﾔﾏｼ","kana_address":"ｼﾝｲｼﾃ","pref":"愛媛県","city":"松山市","address":"新石手"},
{"zip_code":"7900865","kana_pref":"ｴﾋﾒｹﾝ","kana_city":"ﾏﾂﾔﾏｼ","kana_address":"ｼﾝﾀﾞﾃﾏﾁ","pref":"愛媛県","city":"松山市","address":"新立町"},
{"zip_code":"7900023","kana_pref":"ｴﾋﾒｹﾝ","kana_city":"ﾏﾂﾔﾏｼ","kana_address":"ｽｴﾋﾛﾏﾁ","pref":"愛媛県","city":"松山市","address":"末広町"},
{"zip_code":"7900822","kana_pref":"ｴﾋﾒｹﾝ","kana_city":"ﾏﾂﾔﾏｼ","kana_address":"ﾀｶｻｺﾞﾏﾁ","pref":"愛媛県","city":"松山市","address":"高砂町"},
{"zip_code":"7900925","kana_pref":"ｴﾋﾒｹﾝ","kana_city":"ﾏﾂﾔﾏｼ","kana_address":"ﾀｶﾉｺﾏﾁ","pref":"愛媛県","city":"松山市","address":"鷹子町"},
{"zip_code":"7900967","kana_pref":"ｴﾋﾒｹﾝ","kana_city":"ﾏﾂﾔﾏｼ","kana_address":"ﾀｸｾﾝﾁｮｳ","pref":"愛媛県","city":"松山市","address":"拓川町"},
{"zip_code":"7900053","kana_pref":"ｴﾋﾒｹﾝ","kana_city":"ﾏﾂﾔﾏｼ","kana_address":"ﾀｹﾜﾗ","pref":"愛媛県","city":"松山市","address":"竹原"},
{"zip_code":"7900052","kana_pref":"ｴﾋﾒｹﾝ","kana_city":"ﾏﾂﾔﾏｼ","kana_address":"ﾀｹﾜﾗﾏﾁ","pref":"愛媛県","city":"松山市","address":"竹原町"},
{"zip_code":"7900966","kana_pref":"ｴﾋﾒｹﾝ","kana_city":"ﾏﾂﾔﾏｼ","kana_address":"ﾀﾁﾊﾞﾅ","pref":"愛媛県","city":"松山市","address":"立花"},
{"zip_code":"7900905","kana_pref":"ｴﾋﾒｹﾝ","kana_city":"ﾏﾂﾔﾏｼ","kana_address":"ﾀﾙﾐ","pref":"愛媛県","city":"松山市","address":"樽味"},
{"zip_code":"7900011","kana_pref":"ｴﾋﾒｹﾝ","kana_city":"ﾏﾂﾔﾏｼ","kana_address":"ﾁﾌﾈﾏﾁ","pref":"愛媛県","city":"松山市","address":"千舟町"},
{"zip_code":"7900916","kana_pref":"ｴﾋﾒｹﾝ","kana_city":"ﾏﾂﾔﾏｼ","kana_address":"ﾂｶﾓﾄ","pref":"愛媛県","city":"松山市","address":"束本"},
{"zip_code":"7900864","kana_pref":"ｴﾋﾒｹﾝ","kana_city":"ﾏﾂﾔﾏｼ","kana_address":"ﾂｷﾔﾏﾁｮｳ","pref":"愛媛県","city":"松山市","address":"築山町"},
{"zip_code":"7900063","kana_pref":"ｴﾋﾒｹﾝ","kana_city":"ﾏﾂﾔﾏｼ","kana_address":"ﾂｼﾞﾏﾁ","pref":"愛媛県","city":"松山市","address":"辻町"},
{"zip_code":"7900048","kana_pref":"ｴﾋﾒｹﾝ","kana_city":"ﾏﾂﾔﾏｼ","kana_address":"ﾃﾞｱｲ","pref":"愛媛県","city":"松山市","address":"出合"},
{"zip_code":"7900827","kana_pref":"ｴﾋﾒｹﾝ","kana_city":"ﾏﾂﾔﾏｼ","kana_address":"ﾃｯﾎﾟｳﾁｮｳ","pref":"愛媛県","city":"松山市","address":"鉄砲町"},
{"zip_code":"7900056","kana_pref":"ｴﾋﾒｹﾝ","kana_city":"ﾏﾂﾔﾏｼ","kana_address":"ﾄﾞｲﾀﾞﾏﾁ","pref":"愛媛県","city":"松山市","address":"土居田町"},
{"zip_code":"7900844","kana_pref":"ｴﾋﾒｹﾝ","kana_city":"ﾏﾂﾔﾏｼ","kana_address":"ﾄﾞｳｺﾞｲﾁﾏﾝ","pref":"愛媛県","city":"松山市","address":"道後一万"},
{"zip_code":"7900845","kana_pref":"ｴﾋﾒｹﾝ","kana_city":"ﾏﾂﾔﾏｼ","kana_address":"ﾄﾞｳｺﾞｲﾏｲﾁ","pref":"愛媛県","city":"松山市","address":"道後今市"},
{"zip_code":"7900846","kana_pref":"ｴﾋﾒｹﾝ","kana_city":"ﾏﾂﾔﾏｼ","kana_address":"ﾄﾞｳｺﾞｷﾀｼﾛ","pref":"愛媛県","city":"松山市","address":"道後北代"},
{"zip_code":"7900848","kana_pref":"ｴﾋﾒｹﾝ","kana_city":"ﾏﾂﾔﾏｼ","kana_address":"ﾄﾞｳｺﾞｷﾀﾏﾁ","pref":"愛媛県","city":"松山市","address":"道後喜多町"},
{"zip_code":"7900857","kana_pref":"ｴﾋﾒｹﾝ","kana_city":"ﾏﾂﾔﾏｼ","kana_address":"ﾄﾞｳｺﾞｺｳｴﾝ","pref":"愛媛県","city":"松山市","address":"道後公園"},
{"zip_code":"7900836","kana_pref":"ｴﾋﾒｹﾝ","kana_city":"ﾏﾂﾔﾏｼ","kana_address":"ﾄﾞｳｺﾞｻｷﾞﾀﾞﾆﾁｮｳ","pref":"愛媛県","city":"松山市","address":"道後鷺谷町"},
{"zip_code":"7900841","kana_pref":"ｴﾋﾒｹﾝ","kana_city":"ﾏﾂﾔﾏｼ","kana_address":"ﾄﾞｳｺﾞﾀｺｳﾁｮｳ","pref":"愛媛県","city":"松山市","address":"道後多幸町"},
{"zip_code":"7900825","kana_pref":"ｴﾋﾒｹﾝ","kana_city":"ﾏﾂﾔﾏｼ","kana_address":"ﾄﾞｳｺﾞﾋﾏﾀ","pref":"愛媛県","city":"松山市","address":"道後樋又"},
{"zip_code":"7900858","kana_pref":"ｴﾋﾒｹﾝ","kana_city":"ﾏﾂﾔﾏｼ","kana_address":"ﾄﾞｳｺﾞﾋﾒﾂﾞｶ","pref":"愛媛県","city":"松山市","address":"道後姫塚"},
{"zip_code":"7900847","kana_pref":"ｴﾋﾒｹﾝ","kana_city":"ﾏﾂﾔﾏｼ","kana_address":"ﾄﾞｳｺﾞﾐﾄﾞﾘﾀﾞｲ","pref":"愛媛県","city":"松山市","address":"道後緑台"},
{"zip_code":"7900837","kana_pref":"ｴﾋﾒｹﾝ","kana_city":"ﾏﾂﾔﾏｼ","kana_address":"ﾄﾞｳｺﾞﾕﾂﾞｷﾁｮｳ","pref":"愛媛県","city":"松山市","address":"道後湯月町"},
{"zip_code":"7900842","kana_pref":"ｴﾋﾒｹﾝ","kana_city":"ﾏﾂﾔﾏｼ","kana_address":"ﾄﾞｳｺﾞﾕﾉﾏﾁ","pref":"愛媛県","city":"松山市","address":"道後湯之町"},
{"zip_code":"7900843","kana_pref":"ｴﾋﾒｹﾝ","kana_city":"ﾏﾂﾔﾏｼ","kana_address":"ﾄﾞｳｺﾞﾏﾁ","pref":"愛媛県","city":"松山市","address":"道後町"},
{"zip_code":"7900032","kana_pref":"ｴﾋﾒｹﾝ","kana_city":"ﾏﾂﾔﾏｼ","kana_address":"ﾄﾞﾊﾞｼﾏﾁ","pref":"愛媛県","city":"松山市","address":"土橋町"},
{"zip_code":"7900804","kana_pref":"ｴﾋﾒｹﾝ","kana_city":"ﾏﾂﾔﾏｼ","kana_address":"ﾅｶｲﾁﾏﾝﾏﾁ","pref":"愛媛県","city":"松山市","address":"中一万町"},
{"zip_code":"7900964","kana_pref":"ｴﾋﾒｹﾝ","kana_city":"ﾏﾂﾔﾏｼ","kana_address":"ﾅｶﾑﾗ","pref":"愛媛県","city":"松山市","address":"中村"},
{"zip_code":"7900866","kana_pref":"ｴﾋﾒｹﾝ","kana_city":"ﾏﾂﾔﾏｼ","kana_address":"ﾅｶﾞｷﾏﾁ","pref":"愛媛県","city":"松山市","address":"永木町"},
{"zip_code":"7900931","kana_pref":"ｴﾋﾒｹﾝ","kana_city":"ﾏﾂﾔﾏｼ","kana_address":"ﾆｼｲｼｲ","pref":"愛媛県","city":"松山市","address":"西石井"},
{"zip_code":"7900805","kana_pref":"ｴﾋﾒｹﾝ","kana_city":"ﾏﾂﾔﾏｼ","kana_address":"ﾆｼｲﾁﾏﾝﾏﾁ","pref":"愛媛県","city":"松山市","address":"西一万町"},
{"zip_code":"7900877","kana_pref":"ｴﾋﾒｹﾝ","kana_city":"ﾏﾂﾔﾏｼ","kana_address":"ﾆｼｷﾏﾁ","pref":"愛媛県","city":"松山市","address":"錦町"},
{"zip_code":"7900002","kana_pref":"ｴﾋﾒｹﾝ","kana_city":"ﾏﾂﾔﾏｼ","kana_address":"ﾆﾊﾞﾝﾁｮｳ","pref":"愛媛県","city":"松山市","address":"二番町"},
{"zip_code":"7900913","kana_pref":"ｴﾋﾒｹﾝ","kana_city":"ﾏﾂﾔﾏｼ","kana_address":"ﾊﾀﾃﾞﾗ","pref":"愛媛県","city":"松山市","address":"畑寺"},
{"zip_code":"7900912","kana_pref":"ｴﾋﾒｹﾝ","kana_city":"ﾏﾂﾔﾏｼ","kana_address":"ﾊﾀﾃﾞﾗﾏﾁ","pref":"愛媛県","city":"松山市","address":"畑寺町"},
{"zip_code":"7900005","kana_pref":"ｴﾋﾒｹﾝ","kana_city":"ﾏﾂﾔﾏｼ","kana_address":"ﾊﾅｿﾞﾉﾏﾁ","pref":"愛媛県","city":"松山市","address":"花園町"},
{"zip_code":"7900055","kana_pref":"ｴﾋﾒｹﾝ","kana_city":"ﾏﾂﾔﾏｼ","kana_address":"ﾊﾘﾀﾏﾁ","pref":"愛媛県","city":"松山市","address":"針田町"},
{"zip_code":"7900932","kana_pref":"ｴﾋﾒｹﾝ","kana_city":"ﾏﾂﾔﾏｼ","kana_address":"ﾋｶﾞｼｲｼｲ","pref":"愛媛県","city":"松山市","address":"東石井"},
{"zip_code":"7900871","kana_pref":"ｴﾋﾒｹﾝ","kana_city":"ﾏﾂﾔﾏｼ","kana_address":"ﾋｶﾞｼｲﾁﾏﾝﾏﾁ","pref":"愛媛県","city":"松山市","address":"東一万町"},
{"zip_code":"7900903","kana_pref":"ｴﾋﾒｹﾝ","kana_city":"ﾏﾂﾔﾏｼ","kana_address":"ﾋｶﾞｼﾉ","pref":"愛媛県","city":"松山市","address":"東野"},
{"zip_code":"7900961","kana_pref":"ｴﾋﾒｹﾝ","kana_city":"ﾏﾂﾔﾏｼ","kana_address":"ﾋﾉﾃﾞﾏﾁ","pref":"愛媛県","city":"松山市","address":"日の出町"},
{"zip_code":"7900921","kana_pref":"ｴﾋﾒｹﾝ","kana_city":"ﾏﾂﾔﾏｼ","kana_address":"ﾌｸｵﾝｼﾞﾏﾁ","pref":"愛媛県","city":"松山市","address":"福音寺町"},
{"zip_code":"7900035","kana_pref":"ｴﾋﾒｹﾝ","kana_city":"ﾏﾂﾔﾏｼ","kana_address":"ﾌｼﾞﾜﾗ","pref":"愛媛県","city":"松山市","address":"藤原"},
{"zip_code":"7900034","kana_pref":"ｴﾋﾒｹﾝ","kana_city":"ﾏﾂﾔﾏｼ","kana_address":"ﾌｼﾞﾜﾗﾏﾁ","pref":"愛媛県","city":"松山市","address":"藤原町"},
{"zip_code":"7900945","kana_pref":"ｴﾋﾒｹﾝ","kana_city":"ﾏﾂﾔﾏｼ","kana_address":"ﾌﾙｶﾜﾏﾁ","pref":"愛媛県","city":"松山市","address":"古川町"},
{"zip_code":"7900944","kana_pref":"ｴﾋﾒｹﾝ","kana_city":"ﾏﾂﾔﾏｼ","kana_address":"ﾌﾙｶﾜﾆｼ","pref":"愛媛県","city":"松山市","address":"古川西"},
{"zip_code":"7900943","kana_pref":"ｴﾋﾒｹﾝ","kana_city":"ﾏﾂﾔﾏｼ","kana_address":"ﾌﾙｶﾜﾐﾅﾐ","pref":"愛媛県","city":"松山市","address":"古川南"},
{"zip_code":"7900942","kana_pref":"ｴﾋﾒｹﾝ","kana_city":"ﾏﾂﾔﾏｼ","kana_address":"ﾌﾙｶﾜｷﾀ","pref":"愛媛県","city":"松山市","address":"古川北"},
{"zip_code":"7900826","kana_pref":"ｴﾋﾒｹﾝ","kana_city":"ﾏﾂﾔﾏｼ","kana_address":"ﾌﾞﾝｷｮｳﾁｮｳ","pref":"愛媛県","city":"松山市","address":"文京町"},
{"zip_code":"7900807","kana_pref":"ｴﾋﾒｹﾝ","kana_city":"ﾏﾂﾔﾏｼ","kana_address":"ﾍｲﾜﾄﾞｵﾘ","pref":"愛媛県","city":"松山市","address":"平和通"},
{"zip_code":"7900041","kana_pref":"ｴﾋﾒｹﾝ","kana_city":"ﾏﾂﾔﾏｼ","kana_address":"ﾎｳﾒﾝｶﾐ","pref":"愛媛県","city":"松山市","address":"保免上"},
{"zip_code":"7900042","kana_pref":"ｴﾋﾒｹﾝ","kana_city":"ﾏﾂﾔﾏｼ","kana_address":"ﾎｳﾒﾝﾅｶ","pref":"愛媛県","city":"松山市","address":"保免中"},
{"zip_code":"7900043","kana_pref":"ｴﾋﾒｹﾝ","kana_city":"ﾏﾂﾔﾏｼ","kana_address":"ﾎｳﾒﾝﾆｼ","pref":"愛媛県","city":"松山市","address":"保免西"},
{"zip_code":"7900922","kana_pref":"ｴﾋﾒｹﾝ","kana_city":"ﾏﾂﾔﾏｼ","kana_address":"ﾎｼｵｶ","pref":"愛媛県","city":"松山市","address":"星岡"},
{"zip_code":"7900922","kana_pref":"ｴﾋﾒｹﾝ","kana_city":"ﾏﾂﾔﾏｼ","kana_address":"ﾎｼｵｶﾏﾁ","pref":"愛媛県","city":"松山市","address":"星岡町"},
{"zip_code":"7900007","kana_pref":"ｴﾋﾒｹﾝ","kana_city":"ﾏﾂﾔﾏｼ","kana_address":"ﾎﾘﾉｳﾁ","pref":"愛媛県","city":"松山市","address":"堀之内"},
{"zip_code":"7900811","kana_pref":"ｴﾋﾒｹﾝ","kana_city":"ﾏﾂﾔﾏｼ","kana_address":"ﾎﾝﾏﾁ","pref":"愛媛県","city":"松山市","address":"本町"},
{"zip_code":"7900812","kana_pref":"ｴﾋﾒｹﾝ","kana_city":"ﾏﾂﾔﾏｼ","kana_address":"ﾏｻｷﾏﾁ","pref":"愛媛県","city":"松山市","address":"松前町"},
{"zip_code":"7900021","kana_pref":"ｴﾋﾒｹﾝ","kana_city":"ﾏﾂﾔﾏｼ","kana_address":"ﾏｻｺﾞﾁｮｳ","pref":"愛媛県","city":"松山市","address":"真砂町"},
{"zip_code":"7900915","kana_pref":"ｴﾋﾒｹﾝ","kana_city":"ﾏﾂﾔﾏｼ","kana_address":"ﾏﾂｽｴ","pref":"愛媛県","city":"松山市","address":"松末"},
{"zip_code":"7900008","kana_pref":"ｴﾋﾒｹﾝ","kana_city":"ﾏﾂﾔﾏｼ","kana_address":"ﾏﾙﾉｳﾁ","pref":"愛媛県","city":"松山市","address":"丸之内"},
{"zip_code":"7900814","kana_pref":"ｴﾋﾒｹﾝ","kana_city":"ﾏﾂﾔﾏｼ","kana_address":"ﾐｻｹﾏﾁ","pref":"愛媛県","city":"松山市","address":"味酒町"},
{"zip_code":"7900875","kana_pref":"ｴﾋﾒｹﾝ","kana_city":"ﾏﾂﾔﾏｼ","kana_address":"ﾐﾀｶﾗﾏﾁ","pref":"愛媛県","city":"松山市","address":"御宝町"},
{"zip_code":"7900806","kana_pref":"ｴﾋﾒｹﾝ","kana_city":"ﾏﾂﾔﾏｼ","kana_address":"ﾐﾄﾞﾘﾏﾁ","pref":"愛媛県","city":"松山市","address":"緑町"},
{"zip_code":"7900012","kana_pref":"ｴﾋﾒｹﾝ","kana_city":"ﾏﾂﾔﾏｼ","kana_address":"ﾐﾅﾄﾏﾁ","pref":"愛媛県","city":"松山市","address":"湊町"},
{"zip_code":"7900062","kana_pref":"ｴﾋﾒｹﾝ","kana_city":"ﾏﾂﾔﾏｼ","kana_address":"ﾐﾅﾐｴﾄﾞ","pref":"愛媛県","city":"松山市","address":"南江戸"},
{"zip_code":"7900061","kana_pref":"ｴﾋﾒｹﾝ","kana_city":"ﾏﾂﾔﾏｼ","kana_address":"ﾐﾅﾐｴﾄﾞﾏﾁ","pref":"愛媛県","city":"松山市","address":"南江戸町"},
{"zip_code":"7900924","kana_pref":"ｴﾋﾒｹﾝ","kana_city":"ﾏﾂﾔﾏｼ","kana_address":"ﾐﾅﾐｸﾒﾏﾁ","pref":"愛媛県","city":"松山市","address":"南久米町"},
{"zip_code":"7900006","kana_pref":"ｴﾋﾒｹﾝ","kana_city":"ﾏﾂﾔﾏｼ","kana_address":"ﾐﾅﾐﾎﾘﾊﾞﾀﾁｮｳ","pref":"愛媛県","city":"松山市","address":"南堀端町"},
{"zip_code":"7900856","kana_pref":"ｴﾋﾒｹﾝ","kana_city":"ﾏﾂﾔﾏｼ","kana_address":"ﾐﾅﾐﾏﾁ","pref":"愛媛県","city":"松山市","address":"南町"},
{"zip_code":"7900874","kana_pref":"ｴﾋﾒｹﾝ","kana_city":"ﾏﾂﾔﾏｼ","kana_address":"ﾐﾅﾐﾓﾁﾀﾞﾏﾁ","pref":"愛媛県","city":"松山市","address":"南持田町"},
{"zip_code":"7900066","kana_pref":"ｴﾋﾒｹﾝ","kana_city":"ﾏﾂﾔﾏｼ","kana_address":"ﾐﾔﾀﾏﾁ","pref":"愛媛県","city":"松山市","address":"宮田町"},
{"zip_code":"7900065","kana_pref":"ｴﾋﾒｹﾝ","kana_city":"ﾏﾂﾔﾏｼ","kana_address":"ﾐﾔﾆｼ","pref":"愛媛県","city":"松山市","address":"宮西"},
{"zip_code":"7900824","kana_pref":"ｴﾋﾒｹﾝ","kana_city":"ﾏﾂﾔﾏｼ","kana_address":"ﾐﾕｷ","pref":"愛媛県","city":"松山市","address":"御幸"},
{"zip_code":"7900026","kana_pref":"ｴﾋﾒｹﾝ","kana_city":"ﾏﾂﾔﾏｼ","kana_address":"ﾑﾛﾏﾁ","pref":"愛媛県","city":"松山市","address":"室町"},
{"zip_code":"7900855","kana_pref":"ｴﾋﾒｹﾝ","kana_city":"ﾏﾂﾔﾏｼ","kana_address":"ﾓﾁﾀﾞﾏﾁ","pref":"愛媛県","city":"松山市","address":"持田町"},
{"zip_code":"7900861","kana_pref":"ｴﾋﾒｹﾝ","kana_city":"ﾏﾂﾔﾏｼ","kana_address":"ﾓﾐｼﾞﾏﾁ","pref":"愛媛県","city":"松山市","address":"紅葉町"},
{"zip_code":"7900014","kana_pref":"ｴﾋﾒｹﾝ","kana_city":"ﾏﾂﾔﾏｼ","kana_address":"ﾔﾅｲﾏﾁ","pref":"愛媛県","city":"松山市","address":"柳井町"},
{"zip_code":"7900831","kana_pref":"ｴﾋﾒｹﾝ","kana_city":"ﾏﾂﾔﾏｼ","kana_address":"ﾔﾏﾀﾞﾁｮｳ","pref":"愛媛県","city":"松山市","address":"山田町"},
{"zip_code":"7900031","kana_pref":"ｴﾋﾒｹﾝ","kana_city":"ﾏﾂﾔﾏｼ","kana_address":"ﾕｳｸﾞﾝ","pref":"愛媛県","city":"松山市","address":"雄郡"},
{"zip_code":"7900862","kana_pref":"ｴﾋﾒｹﾝ","kana_city":"ﾏﾂﾔﾏｼ","kana_address":"ﾕﾜﾀﾘﾏﾁ","pref":"愛媛県","city":"松山市","address":"湯渡町"},
{"zip_code":"7900045","kana_pref":"ｴﾋﾒｹﾝ","kana_city":"ﾏﾂﾔﾏｼ","kana_address":"ﾖｳｺﾞﾅｶ","pref":"愛媛県","city":"松山市","address":"余戸中"},
{"zip_code":"7900044","kana_pref":"ｴﾋﾒｹﾝ","kana_city":"ﾏﾂﾔﾏｼ","kana_address":"ﾖｳｺﾞﾋｶﾞｼ","pref":"愛媛県","city":"松山市","address":"余戸東"},
{"zip_code":"7900046","kana_pref":"ｴﾋﾒｹﾝ","kana_city":"ﾏﾂﾔﾏｼ","kana_address":"ﾖｳｺﾞﾆｼ","pref":"愛媛県","city":"松山市","address":"余戸西"},
{"zip_code":"7900047","kana_pref":"ｴﾋﾒｹﾝ","kana_city":"ﾏﾂﾔﾏｼ","kana_address":"ﾖｳｺﾞﾐﾅﾐ","pref":"愛媛県","city":"松山市","address":"余戸南"},
{"zip_code":"7900808","kana_pref":"ｴﾋﾒｹﾝ","kana_city":"ﾏﾂﾔﾏｼ","kana_address":"ﾜｶｸｻﾁｮｳ","pref":"愛媛県","city":"松山市","address":"若草町"}]}