{"zip_code":[
{"zip_code":"7930000","kana_pref":"ｴﾋﾒｹﾝ","kana_city":"ｻｲｼﾞｮｳｼ","kana_address":"","pref":"愛媛県","city":"西条市","address":""},
{"zip_code":"7930023","kana_pref":"ｴﾋﾒｹﾝ","kana_city":"ｻｲｼﾞｮｳｼ","kana_address":"ｱｹﾔｼｷ","pref":"愛媛県","city":"西条市","address":"明屋敷"},
{"zip_code":"7930103","kana_pref":"ｴﾋﾒｹﾝ","kana_city":"ｻｲｼﾞｮｳｼ","kana_address":"ｱﾗｶﾜ","pref":"愛媛県","city":"西条市","address":"荒川"},
{"zip_code":"7930051","kana_pref":"ｴﾋﾒｹﾝ","kana_city":"ｻｲｼﾞｮｳｼ","kana_address":"ｱﾝｼﾞｭｳ","pref":"愛媛県","city":"西条市","address":"安知生"},
{"zip_code":"7930010","kana_pref":"ｴﾋﾒｹﾝ","kana_city":"ｻｲｼﾞｮｳｼ","kana_address":"ｲｲｵｶ","pref":"愛媛県","city":"西条市","address":"飯岡"},
{"zip_code":"7930037","kana_pref":"ｴﾋﾒｹﾝ","kana_city":"ｻｲｼﾞｮｳｼ","kana_address":"ｲﾁﾉｶﾜ","pref":"愛媛県","city":"西条市","address":"市之川"},
{"zip_code":"7930016","kana_pref":"ｴﾋﾒｹﾝ","kana_city":"ｻｲｼﾞｮｳｼ","kana_address":"ｵｵﾊﾏ","pref":"愛媛県","city":"西条市","address":"大浜"},
{"zip_code":"7930211","kana_pref":"ｴﾋﾒｹﾝ","kana_city":"ｻｲｼﾞｮｳｼ","kana_address":"ｵｵﾌｷ","pref":"愛媛県","city":"西条市","address":"大保木"},
{"zip_code":"7930030","kana_pref":"ｴﾋﾒｹﾝ","kana_city":"ｻｲｼﾞｮｳｼ","kana_address":"ｵｵﾏﾁ","pref":"愛媛県","city":"西条市","address":"大町"},
{"zip_code":"7930041","kana_pref":"ｴﾋﾒｹﾝ","kana_city":"ｻｲｼﾞｮｳｼ","kana_address":"ｶﾝﾊﾞｲｺｳ","pref":"愛媛県","city":"西条市","address":"神拝甲"},
{"zip_code":"7930021","kana_pref":"ｴﾋﾒｹﾝ","kana_city":"ｻｲｼﾞｮｳｼ","kana_address":"ｶﾝﾊﾞｲｵﾂ","pref":"愛媛県","city":"西条市","address":"神拝乙"},
{"zip_code":"7930042","kana_pref":"ｴﾋﾒｹﾝ","kana_city":"ｻｲｼﾞｮｳｼ","kana_address":"ｷﾀｶﾞﾜ","pref":"愛媛県","city":"西条市","address":"喜多川"},
{"zip_code":"7930212","kana_pref":"ｴﾋﾒｹﾝ","kana_city":"ｻｲｼﾞｮｳｼ","kana_address":"ｸﾛｾ","pref":"愛媛県","city":"西条市","address":"黒瀬"},
{"zip_code":"7930025","kana_pref":"ｴﾋﾒｹﾝ","kana_city":"ｻｲｼﾞｮｳｼ","kana_address":"ｻｶｴﾏﾁ","pref":"愛媛県","city":"西条市","address":"栄町"},
{"zip_code":"7930067","kana_pref":"ｴﾋﾒｹﾝ","kana_city":"ｻｲｼﾞｮｳｼ","kana_address":"ｻｶﾓﾄｺｳ","pref":"愛媛県","city":"西条市","address":"坂元甲"},
{"zip_code":"7930006","kana_pref":"ｴﾋﾒｹﾝ","kana_city":"ｻｲｼﾞｮｳｼ","kana_address":"ｼﾓｼﾏﾔﾏｺｳ","pref":"愛媛県","city":"西条市","address":"下島山甲"},
{"zip_code":"7930007","kana_pref":"ｴﾋﾒｹﾝ","kana_city":"ｻｲｼﾞｮｳｼ","kana_address":"ｼﾓｼﾏﾔﾏｵﾂ","pref":"愛媛県","city":"西条市","address":"下島山乙"},
{"zip_code":"7930028","kana_pref":"ｴﾋﾒｹﾝ","kana_city":"ｻｲｼﾞｮｳｼ","kana_address":"ｼﾝﾃﾞﾝ","pref":"愛媛県","city":"西条市","address":"新田"},
{"zip_code":"7930053","kana_pref":"ｴﾋﾒｹﾝ","kana_city":"ｻｲｼﾞｮｳｼ","kana_address":"ｽﾉｳﾁｺｳ","pref":"愛媛県","city":"西条市","address":"洲之内甲"},
{"zip_code":"7930101","kana_pref":"ｴﾋﾒｹﾝ","kana_city":"ｻｲｼﾞｮｳｼ","kana_address":"ｾﾝｼﾞｮｳ","pref":"愛媛県","city":"西条市","address":"千町"},
{"zip_code":"7930024","kana_pref":"ｴﾋﾒｹﾝ","kana_city":"ｻｲｼﾞｮｳｼ","kana_address":"ﾀﾞｲｼﾏﾁ","pref":"愛媛県","city":"西条市","address":"大師町"},
{"zip_code":"7930001","kana_pref":"ｴﾋﾒｹﾝ","kana_city":"ｻｲｼﾞｮｳｼ","kana_address":"ﾀﾏﾂ","pref":"愛媛県","city":"西条市","address":"玉津"},
{"zip_code":"7930027","kana_pref":"ｴﾋﾒｹﾝ","kana_city":"ｻｲｼﾞｮｳｼ","kana_address":"ﾂｲﾀﾁ","pref":"愛媛県","city":"西条市","address":"朔日市"},
{"zip_code":"7930057","kana_pref":"ｴﾋﾒｹﾝ","kana_city":"ｻｲｼﾞｮｳｼ","kana_address":"ﾂｺﾞｴ","pref":"愛媛県","city":"西条市","address":"津越"},
{"zip_code":"7930061","kana_pref":"ｴﾋﾒｹﾝ","kana_city":"ｻｲｼﾞｮｳｼ","kana_address":"ﾃｲｽﾞｲ","pref":"愛媛県","city":"西条市","address":"禎瑞"},
{"zip_code":"7930002","kana_pref":"ｴﾋﾒｹﾝ","kana_city":"ｻｲｼﾞｮｳｼ","kana_address":"ﾃﾝｼﾞﾝ","pref":"愛媛県","city":"西条市","address":"天神"},
{"zip_code":"7930213","kana_pref":"ｴﾋﾒｹﾝ","kana_city":"ｻｲｼﾞｮｳｼ","kana_address":"ﾄﾉﾔﾏ","pref":"愛媛県","city":"西条市","address":"兎之山"},
{"zip_code":"7930214","kana_pref":"ｴﾋﾒｹﾝ","kana_city":"ｻｲｼﾞｮｳｼ","kana_address":"ﾅｶｵｸ","pref":"愛媛県","city":"西条市","address":"中奥"},
{"zip_code":"7930052","kana_pref":"ｴﾋﾒｹﾝ","kana_city":"ｻｲｼﾞｮｳｼ","kana_address":"ﾅｶﾆｼ","pref":"愛媛県","city":"西条市","address":"中西"},
{"zip_code":"7930054","kana_pref":"ｴﾋﾒｹﾝ","kana_city":"ｻｲｼﾞｮｳｼ","kana_address":"ﾅｶﾉｺｳ","pref":"愛媛県","city":"西条市","address":"中野甲"},
{"zip_code":"7930055","kana_pref":"ｴﾋﾒｹﾝ","kana_city":"ｻｲｼﾞｮｳｼ","kana_address":"ﾅｶﾉｵﾂ","pref":"愛媛県","city":"西条市","address":"中野乙"},
{"zip_code":"7930056","kana_pref":"ｴﾋﾒｹﾝ","kana_city":"ｻｲｼﾞｮｳｼ","kana_address":"ﾅｶﾉﾍｲ","pref":"愛媛県","city":"西条市","address":"中野丙"},
{"zip_code":"7930065","kana_pref":"ｴﾋﾒｹﾝ","kana_city":"ｻｲｼﾞｮｳｼ","kana_address":"ﾅﾗﾉｷ","pref":"愛媛県","city":"西条市","address":"楢木"},
{"zip_code":"7930063","kana_pref":"ｴﾋﾒｹﾝ","kana_city":"ｻｲｼﾞｮｳｼ","kana_address":"ﾆｼｲｽﾞﾐｺｳ","pref":"愛媛県","city":"西条市","address":"西泉甲"},
{"zip_code":"7930064","kana_pref":"ｴﾋﾒｹﾝ","kana_city":"ｻｲｼﾞｮｳｼ","kana_address":"ﾆｼｲｽﾞﾐｵﾂ","pref":"愛媛県","city":"西条市","address":"西泉乙"},
{"zip_code":"7930062","kana_pref":"ｴﾋﾒｹﾝ","kana_city":"ｻｲｼﾞｮｳｼ","kana_address":"ﾆｼﾀﾞｺｳ","pref":"愛媛県","city":"西条市","address":"西田甲"},
{"zip_code":"7930215","kana_pref":"ｴﾋﾒｹﾝ","kana_city":"ｻｲｼﾞｮｳｼ","kana_address":"ﾆｼﾉｶﾜ","pref":"愛媛県","city":"西条市","address":"西之川"},
{"zip_code":"7930066","kana_pref":"ｴﾋﾒｹﾝ","kana_city":"ｻｲｼﾞｮｳｼ","kana_address":"ﾉﾉｲﾁ","pref":"愛媛県","city":"西条市","address":"野々市"},
{"zip_code":"7930017","kana_pref":"ｴﾋﾒｹﾝ","kana_city":"ｻｲｼﾞｮｳｼ","kana_address":"ﾊｲｶﾞﾜ","pref":"愛媛県","city":"西条市","address":"早川"},
{"zip_code":"7930003","kana_pref":"ｴﾋﾒｹﾝ","kana_city":"ｻｲｼﾞｮｳｼ","kana_address":"ﾋｳﾁ","pref":"愛媛県","city":"西条市","address":"ひうち"},
{"zip_code":"7930216","kana_pref":"ｴﾋﾒｹﾝ","kana_city":"ｻｲｼﾞｮｳｼ","kana_address":"ﾋｶﾞｼﾉｶﾜ","pref":"愛媛県","city":"西条市","address":"東之川"},
{"zip_code":"7930026","kana_pref":"ｴﾋﾒｹﾝ","kana_city":"ｻｲｼﾞｮｳｼ","kana_address":"ﾋｶﾞｼﾏﾁ","pref":"愛媛県","city":"西条市","address":"東町"},
{"zip_code":"7930043","kana_pref":"ｴﾋﾒｹﾝ","kana_city":"ｻｲｼﾞｮｳｼ","kana_address":"ﾋﾉｸﾁ","pref":"愛媛県","city":"西条市","address":"樋之口"},
{"zip_code":"7930071","kana_pref":"ｴﾋﾒｹﾝ","kana_city":"ｻｲｼﾞｮｳｼ","kana_address":"ﾋﾐｺｳ","pref":"愛媛県","city":"西条市","address":"氷見甲"},
{"zip_code":"7930072","kana_pref":"ｴﾋﾒｹﾝ","kana_city":"ｻｲｼﾞｮｳｼ","kana_address":"ﾋﾐｵﾂ","pref":"愛媛県","city":"西条市","address":"氷見乙"},
{"zip_code":"7930073","kana_pref":"ｴﾋﾒｹﾝ","kana_city":"ｻｲｼﾞｮｳｼ","kana_address":"ﾋﾐﾍｲ","pref":"愛媛県","city":"西条市","address":"氷見丙"},
{"zip_code":"7930074","kana_pref":"ｴﾋﾒｹﾝ","kana_city":"ｻｲｼﾞｮｳｼ","kana_address":"ﾋﾐﾃｲ","pref":"愛媛県","city":"西条市","address":"氷見丁"},
{"zip_code":"7930075","kana_pref":"ｴﾋﾒｹﾝ","kana_city":"ｻｲｼﾞｮｳｼ","kana_address":"ﾋﾐﾎﾞ","pref":"愛媛県","city":"西条市","address":"氷見戊"},
{"zip_code":"7930035","kana_pref":"ｴﾋﾒｹﾝ","kana_city":"ｻｲｼﾞｮｳｼ","kana_address":"ﾌｸﾀｹｺｳ","pref":"愛媛県","city":"西条市","address":"福武甲"},
{"zip_code":"7930036","kana_pref":"ｴﾋﾒｹﾝ","kana_city":"ｻｲｼﾞｮｳｼ","kana_address":"ﾌｸﾀｹｵﾂ","pref":"愛媛県","city":"西条市","address":"福武乙"},
{"zip_code":"7930102","kana_pref":"ｴﾋﾒｹﾝ","kana_city":"ｻｲｼﾞｮｳｼ","kana_address":"ﾌｼﾞﾉｲｼ","pref":"愛媛県","city":"西条市","address":"藤之石"},
{"zip_code":"7930004","kana_pref":"ｴﾋﾒｹﾝ","kana_city":"ｻｲｼﾞｮｳｼ","kana_address":"ﾌﾅﾔｺｳ","pref":"愛媛県","city":"西条市","address":"船屋甲"},
{"zip_code":"7930005","kana_pref":"ｴﾋﾒｹﾝ","kana_city":"ｻｲｼﾞｮｳｼ","kana_address":"ﾌﾅﾔｵﾂ","pref":"愛媛県","city":"西条市","address":"船屋乙"},
{"zip_code":"7930044","kana_pref":"ｴﾋﾒｹﾝ","kana_city":"ｻｲｼﾞｮｳｼ","kana_address":"ﾌﾙｶﾜｺｳ","pref":"愛媛県","city":"西条市","address":"古川甲"},
{"zip_code":"7930045","kana_pref":"ｴﾋﾒｹﾝ","kana_city":"ｻｲｼﾞｮｳｼ","kana_address":"ﾌﾙｶﾜｵﾂ","pref":"愛媛県","city":"西条市","address":"古川乙"},
{"zip_code":"7930039","kana_pref":"ｴﾋﾒｹﾝ","kana_city":"ｻｲｼﾞｮｳｼ","kana_address":"ﾎｳﾉ","pref":"愛媛県","city":"西条市","address":"保野"},
{"zip_code":"7930022","kana_pref":"ｴﾋﾒｹﾝ","kana_city":"ｻｲｼﾞｮｳｼ","kana_address":"ﾎﾝﾏﾁ","pref":"愛媛県","city":"西条市","address":"本町"},
{"zip_code":"7930038","kana_pref":"ｴﾋﾒｹﾝ","kana_city":"ｻｲｼﾞｮｳｼ","kana_address":"ﾏﾙﾉ","pref":"愛媛県","city":"西条市","address":"丸野"},
{"zip_code":"7930046","kana_pref":"ｴﾋﾒｹﾝ","kana_city":"ｻｲｼﾞｮｳｼ","kana_address":"ﾐﾅﾄ","pref":"愛媛県","city":"西条市","address":"港"},
{"zip_code":"7930034","kana_pref":"ｴﾋﾒｹﾝ","kana_city":"ｻｲｼﾞｮｳｼ","kana_address":"ﾐｮｳｼﾞﾝｷﾞ","pref":"愛媛県","city":"西条市","address":"明神木"}]}