{"zip_code":[
{"zip_code":"7940000","kana_pref":"ｴﾋﾒｹﾝ","kana_city":"ｲﾏﾊﾞﾘｼ","kana_address":"","pref":"愛媛県","city":"今治市","address":""},
{"zip_code":"7940081","kana_pref":"ｴﾋﾒｹﾝ","kana_city":"ｲﾏﾊﾞﾘｼ","kana_address":"ｱｶﾞﾀ","pref":"愛媛県","city":"今治市","address":"阿方"},
{"zip_code":"7940042","kana_pref":"ｴﾋﾒｹﾝ","kana_city":"ｲﾏﾊﾞﾘｼ","kana_address":"ｱｻﾋﾏﾁ","pref":"愛媛県","city":"今治市","address":"旭町"},
{"zip_code":"7940861","kana_pref":"ｴﾋﾒｹﾝ","kana_city":"ｲﾏﾊﾞﾘｼ","kana_address":"ｲｶﾅｼ","pref":"愛媛県","city":"今治市","address":"五十嵐"},
{"zip_code":"7940085","kana_pref":"ｴﾋﾒｹﾝ","kana_city":"ｲﾏﾊﾞﾘｼ","kana_address":"ｲｺｲﾉｵｶ","pref":"愛媛県","city":"今治市","address":"いこいの丘"},
{"zip_code":"7940006","kana_pref":"ｴﾋﾒｹﾝ","kana_city":"ｲﾏﾊﾞﾘｼ","kana_address":"ｲｼｲﾁｮｳ","pref":"愛媛県","city":"今治市","address":"石井町"},
{"zip_code":"7940824","kana_pref":"ｴﾋﾒｹﾝ","kana_city":"ｲﾏﾊﾞﾘｼ","kana_address":"ｲｼﾊﾞｼﾁｮｳ","pref":"愛媛県","city":"今治市","address":"石橋町"},
{"zip_code":"7940057","kana_pref":"ｴﾋﾒｹﾝ","kana_city":"ｲﾏﾊﾞﾘｼ","kana_address":"ｲｽﾞﾐｶﾞﾜﾁｮｳ","pref":"愛媛県","city":"今治市","address":"泉川町"},
{"zip_code":"7940014","kana_pref":"ｴﾋﾒｹﾝ","kana_city":"ｲﾏﾊﾞﾘｼ","kana_address":"ｲﾏﾊﾞﾘﾑﾗ","pref":"愛媛県","city":"今治市","address":"今治村"},
{"zip_code":"7940062","kana_pref":"ｴﾋﾒｹﾝ","kana_city":"ｲﾏﾊﾞﾘｼ","kana_address":"ｳﾏｺﾞｴﾁｮｳ","pref":"愛媛県","city":"今治市","address":"馬越町"},
{"zip_code":"7940061","kana_pref":"ｴﾋﾒｹﾝ","kana_city":"ｲﾏﾊﾞﾘｼ","kana_address":"ｳﾏｺﾞｴﾆﾊﾞﾝｺｳﾁ","pref":"愛媛県","city":"今治市","address":"馬越二番耕地"},
{"zip_code":"7940035","kana_pref":"ｴﾋﾒｹﾝ","kana_city":"ｲﾏﾊﾞﾘｼ","kana_address":"ｴﾀﾞﾎﾞﾘﾁｮｳ","pref":"愛媛県","city":"今治市","address":"枝堀町"},
{"zip_code":"7940031","kana_pref":"ｴﾋﾒｹﾝ","kana_city":"ｲﾏﾊﾞﾘｼ","kana_address":"ｴﾋﾞｽﾁｮｳ","pref":"愛媛県","city":"今治市","address":"恵美須町"},
{"zip_code":"7940084","kana_pref":"ｴﾋﾒｹﾝ","kana_city":"ｲﾏﾊﾞﾘｼ","kana_address":"ｴﾝｷﾞ","pref":"愛媛県","city":"今治市","address":"延喜"},
{"zip_code":"7940005","kana_pref":"ｴﾋﾒｹﾝ","kana_city":"ｲﾏﾊﾞﾘｼ","kana_address":"ｵｵｼﾝﾃﾞﾝﾁｮｳ","pref":"愛媛県","city":"今治市","address":"大新田町"},
{"zip_code":"7940002","kana_pref":"ｴﾋﾒｹﾝ","kana_city":"ｲﾏﾊﾞﾘｼ","kana_address":"ｵｵﾊﾏﾁｮｳ","pref":"愛媛県","city":"今治市","address":"大浜町"},
{"zip_code":"7941303","kana_pref":"ｴﾋﾒｹﾝ","kana_city":"ｲﾏﾊﾞﾘｼ","kana_address":"ｵｵﾐｼﾏﾁｮｳｱｹﾋﾞ","pref":"愛媛県","city":"今治市","address":"大三島町明日"},
{"zip_code":"7941305","kana_pref":"ｴﾋﾒｹﾝ","kana_city":"ｲﾏﾊﾞﾘｼ","kana_address":"ｵｵﾐｼﾏﾁｮｳｳﾃﾅ","pref":"愛媛県","city":"今治市","address":"大三島町台"},
{"zip_code":"7941308","kana_pref":"ｴﾋﾒｹﾝ","kana_city":"ｲﾏﾊﾞﾘｼ","kana_address":"ｵｵﾐｼﾏﾁｮｳｳﾗﾄﾞ","pref":"愛媛県","city":"今治市","address":"大三島町浦戸"},
{"zip_code":"7941302","kana_pref":"ｴﾋﾒｹﾝ","kana_city":"ｲﾏﾊﾞﾘｼ","kana_address":"ｵｵﾐｼﾏﾁｮｳｵｵﾐ","pref":"愛媛県","city":"今治市","address":"大三島町大見"},
{"zip_code":"7941307","kana_pref":"ｴﾋﾒｹﾝ","kana_city":"ｲﾏﾊﾞﾘｼ","kana_address":"ｵｵﾐｼﾏﾁｮｳｸﾁｽﾎﾞ","pref":"愛媛県","city":"今治市","address":"大三島町口総"},
{"zip_code":"7941306","kana_pref":"ｴﾋﾒｹﾝ","kana_city":"ｲﾏﾊﾞﾘｼ","kana_address":"ｵｵﾐｼﾏﾁｮｳﾉﾉｴ","pref":"愛媛県","city":"今治市","address":"大三島町野々江"},
{"zip_code":"7941301","kana_pref":"ｴﾋﾒｹﾝ","kana_city":"ｲﾏﾊﾞﾘｼ","kana_address":"ｵｵﾐｼﾏﾁｮｳﾋｶﾞｲ","pref":"愛媛県","city":"今治市","address":"大三島町肥海"},
{"zip_code":"7941304","kana_pref":"ｴﾋﾒｹﾝ","kana_city":"ｲﾏﾊﾞﾘｼ","kana_address":"ｵｵﾐｼﾏﾁｮｳﾐﾔｳﾗ","pref":"愛媛県","city":"今治市","address":"大三島町宮浦"},
{"zip_code":"7941309","kana_pref":"ｴﾋﾒｹﾝ","kana_city":"ｲﾏﾊﾞﾘｼ","kana_address":"ｵｵﾐｼﾏﾁｮｳﾑﾅｶﾞﾀ","pref":"愛媛県","city":"今治市","address":"大三島町宗方"},
{"zip_code":"7940017","kana_pref":"ｴﾋﾒｹﾝ","kana_city":"ｲﾏﾊﾞﾘｼ","kana_address":"ｶｻﾞﾊﾔﾁｮｳ","pref":"愛媛県","city":"今治市","address":"風早町"},
{"zip_code":"7940013","kana_pref":"ｴﾋﾒｹﾝ","kana_city":"ｲﾏﾊﾞﾘｼ","kana_address":"ｶﾀﾊﾗﾁｮｳ","pref":"愛媛県","city":"今治市","address":"片原町"},
{"zip_code":"7940063","kana_pref":"ｴﾋﾒｹﾝ","kana_city":"ｲﾏﾊﾞﾘｼ","kana_address":"ｶﾀﾔﾏ","pref":"愛媛県","city":"今治市","address":"片山"},
{"zip_code":"7940822","kana_pref":"ｴﾋﾒｹﾝ","kana_city":"ｲﾏﾊﾞﾘｼ","kana_address":"ｶﾅﾝﾁｮｳ","pref":"愛媛県","city":"今治市","address":"河南町"},
{"zip_code":"7940004","kana_pref":"ｴﾋﾒｹﾝ","kana_city":"ｲﾏﾊﾞﾘｼ","kana_address":"ｶﾈﾊﾞﾁｮｳ","pref":"愛媛県","city":"今治市","address":"鐘場町"},
{"zip_code":"7941403","kana_pref":"ｴﾋﾒｹﾝ","kana_city":"ｲﾏﾊﾞﾘｼ","kana_address":"ｶﾐｳﾗﾁｮｳｱﾏｻﾞｷ","pref":"愛媛県","city":"今治市","address":"上浦町甘崎"},
{"zip_code":"7941402","kana_pref":"ｴﾋﾒｹﾝ","kana_city":"ｲﾏﾊﾞﾘｼ","kana_address":"ｶﾐｳﾗﾁｮｳｲﾉｸﾁ","pref":"愛媛県","city":"今治市","address":"上浦町井口"},
{"zip_code":"7941401","kana_pref":"ｴﾋﾒｹﾝ","kana_city":"ｲﾏﾊﾞﾘｼ","kana_address":"ｶﾐｳﾗﾁｮｳｻｶﾘ","pref":"愛媛県","city":"今治市","address":"上浦町盛"},
{"zip_code":"7941404","kana_pref":"ｴﾋﾒｹﾝ","kana_city":"ｲﾏﾊﾞﾘｼ","kana_address":"ｶﾐｳﾗﾁｮｳｾﾄ","pref":"愛媛県","city":"今治市","address":"上浦町瀬戸"},
{"zip_code":"7940074","kana_pref":"ｴﾋﾒｹﾝ","kana_city":"ｲﾏﾊﾞﾘｼ","kana_address":"ｶﾝﾉﾐﾔ","pref":"愛媛県","city":"今治市","address":"神宮"},
{"zip_code":"7940804","kana_pref":"ｴﾋﾒｹﾝ","kana_city":"ｲﾏﾊﾞﾘｼ","kana_address":"ｷﾞｵﾝﾁｮｳ","pref":"愛媛県","city":"今治市","address":"祇園町"},
{"zip_code":"7940812","kana_pref":"ｴﾋﾒｹﾝ","kana_city":"ｲﾏﾊﾞﾘｼ","kana_address":"ｷﾀｺｳｹﾞﾁｮｳ","pref":"愛媛県","city":"今治市","address":"北高下町"},
{"zip_code":"7940803","kana_pref":"ｴﾋﾒｹﾝ","kana_city":"ｲﾏﾊﾞﾘｼ","kana_address":"ｷﾀﾄﾘｳﾁｮｳ","pref":"愛媛県","city":"今治市","address":"北鳥生町"},
{"zip_code":"7940011","kana_pref":"ｴﾋﾒｹﾝ","kana_city":"ｲﾏﾊﾞﾘｼ","kana_address":"ｷﾀﾊﾏﾁｮｳ","pref":"愛媛県","city":"今治市","address":"北浜町"},
{"zip_code":"7940054","kana_pref":"ｴﾋﾒｹﾝ","kana_city":"ｲﾏﾊﾞﾘｼ","kana_address":"ｷﾀﾋﾖｼﾁｮｳ","pref":"愛媛県","city":"今治市","address":"北日吉町"},
{"zip_code":"7940028","kana_pref":"ｴﾋﾒｹﾝ","kana_city":"ｲﾏﾊﾞﾘｼ","kana_address":"ｷﾀﾎｳﾗｲﾁｮｳ","pref":"愛媛県","city":"今治市","address":"北宝来町"},
{"zip_code":"7940813","kana_pref":"ｴﾋﾒｹﾝ","kana_city":"ｲﾏﾊﾞﾘｼ","kana_address":"ｷﾇﾎﾞｼﾁｮｳ","pref":"愛媛県","city":"今治市","address":"衣干町"},
{"zip_code":"7940024","kana_pref":"ｴﾋﾒｹﾝ","kana_city":"ｲﾏﾊﾞﾘｼ","kana_address":"ｷｮｳｴｲﾁｮｳ","pref":"愛媛県","city":"今治市","address":"共栄町"},
{"zip_code":"7940044","kana_pref":"ｴﾋﾒｹﾝ","kana_city":"ｲﾏﾊﾞﾘｼ","kana_address":"ｸﾗｼｷﾁｮｳ","pref":"愛媛県","city":"今治市","address":"蔵敷町"},
{"zip_code":"7940059","kana_pref":"ｴﾋﾒｹﾝ","kana_city":"ｲﾏﾊﾞﾘｼ","kana_address":"ｺｲｹﾁｮｳ","pref":"愛媛県","city":"今治市","address":"鯉池町"},
{"zip_code":"7940064","kana_pref":"ｴﾋﾒｹﾝ","kana_city":"ｲﾏﾊﾞﾘｼ","kana_address":"ｺｲｽﾞﾐ","pref":"愛媛県","city":"今治市","address":"小泉"},
{"zip_code":"7940826","kana_pref":"ｴﾋﾒｹﾝ","kana_city":"ｲﾏﾊﾞﾘｼ","kana_address":"ｺﾞｳｼﾝﾔｼｷﾁｮｳ","pref":"愛媛県","city":"今治市","address":"郷新屋敷町"},
{"zip_code":"7940823","kana_pref":"ｴﾋﾒｹﾝ","kana_city":"ｲﾏﾊﾞﾘｼ","kana_address":"ｺﾞｳﾎﾝﾁｮｳ","pref":"愛媛県","city":"今治市","address":"郷本町"},
{"zip_code":"7940825","kana_pref":"ｴﾋﾒｹﾝ","kana_city":"ｲﾏﾊﾞﾘｼ","kana_address":"ｺﾞｳﾛｸｶﾞｳﾁﾁｮｳ","pref":"愛媛県","city":"今治市","address":"郷六ケ内町"},
{"zip_code":"7940805","kana_pref":"ｴﾋﾒｹﾝ","kana_city":"ｲﾏﾊﾞﾘｼ","kana_address":"ｺｳｼﾞｮｳｼﾞﾁｮｳ","pref":"愛媛県","city":"今治市","address":"広紹寺町"},
{"zip_code":"7940051","kana_pref":"ｴﾋﾒｹﾝ","kana_city":"ｲﾏﾊﾞﾘｼ","kana_address":"ｺｳﾁﾁｮｳ","pref":"愛媛県","city":"今治市","address":"高地町"},
{"zip_code":"7940037","kana_pref":"ｴﾋﾒｹﾝ","kana_city":"ｲﾏﾊﾞﾘｼ","kana_address":"ｺｶﾞﾈﾁｮｳ","pref":"愛媛県","city":"今治市","address":"黄金町"},
{"zip_code":"7940021","kana_pref":"ｴﾋﾒｹﾝ","kana_city":"ｲﾏﾊﾞﾘｼ","kana_address":"ｺﾒﾔﾏﾁ","pref":"愛媛県","city":"今治市","address":"米屋町"},
{"zip_code":"7940023","kana_pref":"ｴﾋﾒｹﾝ","kana_city":"ｲﾏﾊﾞﾘｼ","kana_address":"ｻｶｴﾏﾁ","pref":"愛媛県","city":"今治市","address":"栄町"},
{"zip_code":"7940086","kana_pref":"ｴﾋﾒｹﾝ","kana_city":"ｲﾏﾊﾞﾘｼ","kana_address":"ｼﾏﾅﾐﾉﾓﾘ","pref":"愛媛県","city":"今治市","address":"しまなみの杜"},
{"zip_code":"7940087","kana_pref":"ｴﾋﾒｹﾝ","kana_city":"ｲﾏﾊﾞﾘｼ","kana_address":"ｼﾏﾅﾐﾋﾙｽﾞ","pref":"愛媛県","city":"今治市","address":"しまなみヒルズ"},
{"zip_code":"7940038","kana_pref":"ｴﾋﾒｹﾝ","kana_city":"ｲﾏﾊﾞﾘｼ","kana_address":"ｽｴﾋﾛﾁｮｳ","pref":"愛媛県","city":"今治市","address":"末広町"},
{"zip_code":"7940001","kana_pref":"ｴﾋﾒｹﾝ","kana_city":"ｲﾏﾊﾞﾘｼ","kana_address":"ｽﾅﾊﾞﾁｮｳ","pref":"愛媛県","city":"今治市","address":"砂場町"},
{"zip_code":"7941103","kana_pref":"ｴﾋﾒｹﾝ","kana_city":"ｲﾏﾊﾞﾘｼ","kana_address":"ｾｷｾﾞﾝｵｵｹﾞ","pref":"愛媛県","city":"今治市","address":"関前大下"},
{"zip_code":"7941101","kana_pref":"ｴﾋﾒｹﾝ","kana_city":"ｲﾏﾊﾞﾘｼ","kana_address":"ｾｷｾﾞﾝｵｶﾑﾗ","pref":"愛媛県","city":"今治市","address":"関前岡村"},
{"zip_code":"7941102","kana_pref":"ｴﾋﾒｹﾝ","kana_city":"ｲﾏﾊﾞﾘｼ","kana_address":"ｾｷｾﾞﾝｺｵｹﾞ","pref":"愛媛県","city":"今治市","address":"関前小大下"},
{"zip_code":"7940058","kana_pref":"ｴﾋﾒｹﾝ","kana_city":"ｲﾏﾊﾞﾘｼ","kana_address":"ｿｳｼｬﾁｮｳ","pref":"愛媛県","city":"今治市","address":"蒼社町"},
{"zip_code":"7940025","kana_pref":"ｴﾋﾒｹﾝ","kana_city":"ｲﾏﾊﾞﾘｼ","kana_address":"ﾀｲｼｮｳﾁｮｳ","pref":"愛媛県","city":"今治市","address":"大正町"},
{"zip_code":"7940066","kana_pref":"ｴﾋﾒｹﾝ","kana_city":"ｲﾏﾊﾞﾘｼ","kana_address":"ﾀｶﾊｼ","pref":"愛媛県","city":"今治市","address":"高橋"},
{"zip_code":"7940083","kana_pref":"ｴﾋﾒｹﾝ","kana_city":"ｲﾏﾊﾞﾘｼ","kana_address":"ﾀｸﾏ","pref":"愛媛県","city":"今治市","address":"宅間"},
{"zip_code":"7940821","kana_pref":"ｴﾋﾒｹﾝ","kana_city":"ｲﾏﾊﾞﾘｼ","kana_address":"ﾀﾁﾊﾞﾅﾁｮｳ","pref":"愛媛県","city":"今治市","address":"立花町"},
{"zip_code":"7940102","kana_pref":"ｴﾋﾒｹﾝ","kana_city":"ｲﾏﾊﾞﾘｼ","kana_address":"ﾀﾏｶﾞﾜﾁｮｳｵｵﾉ","pref":"愛媛県","city":"今治市","address":"玉川町大野"},
{"zip_code":"7940117","kana_pref":"ｴﾋﾒｹﾝ","kana_city":"ｲﾏﾊﾞﾘｼ","kana_address":"ﾀﾏｶﾞﾜﾁｮｳｵﾆﾊﾞﾗ","pref":"愛媛県","city":"今治市","address":"玉川町鬼原"},
{"zip_code":"7940125","kana_pref":"ｴﾋﾒｹﾝ","kana_city":"ｲﾏﾊﾞﾘｼ","kana_address":"ﾀﾏｶﾞﾜﾁｮｳｶｽﾞﾗﾀﾆ","pref":"愛媛県","city":"今治市","address":"玉川町葛谷"},
{"zip_code":"7940107","kana_pref":"ｴﾋﾒｹﾝ","kana_city":"ｲﾏﾊﾞﾘｼ","kana_address":"ﾀﾏｶﾞﾜﾁｮｳｶﾂﾗ","pref":"愛媛県","city":"今治市","address":"玉川町桂"},
{"zip_code":"7940122","kana_pref":"ｴﾋﾒｹﾝ","kana_city":"ｲﾏﾊﾞﾘｼ","kana_address":"ﾀﾏｶﾞﾜﾁｮｳｷｼﾞ","pref":"愛媛県","city":"今治市","address":"玉川町木地"},
{"zip_code":"7940115","kana_pref":"ｴﾋﾒｹﾝ","kana_city":"ｲﾏﾊﾞﾘｼ","kana_address":"ﾀﾏｶﾞﾜﾁｮｳｺｳﾔ","pref":"愛媛県","city":"今治市","address":"玉川町高野"},
{"zip_code":"7940112","kana_pref":"ｴﾋﾒｹﾝ","kana_city":"ｲﾏﾊﾞﾘｼ","kana_address":"ﾀﾏｶﾞﾜﾁｮｳｺｶﾝﾍﾞ","pref":"愛媛県","city":"今治市","address":"玉川町小鴨部"},
{"zip_code":"7940101","kana_pref":"ｴﾋﾒｹﾝ","kana_city":"ｲﾏﾊﾞﾘｼ","kana_address":"ﾀﾏｶﾞﾜﾁｮｳｻﾝﾀﾞﾝｼﾞ","pref":"愛媛県","city":"今治市","address":"玉川町三反地"},
{"zip_code":"7940104","kana_pref":"ｴﾋﾒｹﾝ","kana_city":"ｲﾏﾊﾞﾘｼ","kana_address":"ﾀﾏｶﾞﾜﾁｮｳｽﾙｷﾞ","pref":"愛媛県","city":"今治市","address":"玉川町摺木"},
{"zip_code":"7940109","kana_pref":"ｴﾋﾒｹﾝ","kana_city":"ｲﾏﾊﾞﾘｼ","kana_address":"ﾀﾏｶﾞﾜﾁｮｳﾅｶﾞﾀﾆ","pref":"愛媛県","city":"今治市","address":"玉川町長谷"},
{"zip_code":"7940111","kana_pref":"ｴﾋﾒｹﾝ","kana_city":"ｲﾏﾊﾞﾘｼ","kana_address":"ﾀﾏｶﾞﾜﾁｮｳﾅｶﾑﾗ","pref":"愛媛県","city":"今治市","address":"玉川町中村"},
{"zip_code":"7940106","kana_pref":"ｴﾋﾒｹﾝ","kana_city":"ｲﾏﾊﾞﾘｼ","kana_address":"ﾀﾏｶﾞﾜﾁｮｳﾅﾍﾞｼﾞ","pref":"愛媛県","city":"今治市","address":"玉川町鍋地"},
{"zip_code":"7940121","kana_pref":"ｴﾋﾒｹﾝ","kana_city":"ｲﾏﾊﾞﾘｼ","kana_address":"ﾀﾏｶﾞﾜﾁｮｳﾆﾌﾞｶﾜ","pref":"愛媛県","city":"今治市","address":"玉川町鈍川"},
{"zip_code":"7940116","kana_pref":"ｴﾋﾒｹﾝ","kana_city":"ｲﾏﾊﾞﾘｼ","kana_address":"ﾀﾏｶﾞﾜﾁｮｳﾊﾀﾃﾞﾗ","pref":"愛媛県","city":"今治市","address":"玉川町畑寺"},
{"zip_code":"7940113","kana_pref":"ｴﾋﾒｹﾝ","kana_city":"ｲﾏﾊﾞﾘｼ","kana_address":"ﾀﾏｶﾞﾜﾁｮｳﾍﾞｯｼｮ","pref":"愛媛県","city":"今治市","address":"玉川町別所"},
{"zip_code":"7940103","kana_pref":"ｴﾋﾒｹﾝ","kana_city":"ｲﾏﾊﾞﾘｼ","kana_address":"ﾀﾏｶﾞﾜﾁｮｳﾎｳｶｲｼﾞ","pref":"愛媛県","city":"今治市","address":"玉川町法界寺"},
{"zip_code":"7940108","kana_pref":"ｴﾋﾒｹﾝ","kana_city":"ｲﾏﾊﾞﾘｼ","kana_address":"ﾀﾏｶﾞﾜﾁｮｳﾐﾏﾔ","pref":"愛媛県","city":"今治市","address":"玉川町御厩"},
{"zip_code":"7940114","kana_pref":"ｴﾋﾒｹﾝ","kana_city":"ｲﾏﾊﾞﾘｼ","kana_address":"ﾀﾏｶﾞﾜﾁｮｳﾔﾜﾀ","pref":"愛媛県","city":"今治市","address":"玉川町八幡"},
{"zip_code":"7940105","kana_pref":"ｴﾋﾒｹﾝ","kana_city":"ｲﾏﾊﾞﾘｼ","kana_address":"ﾀﾏｶﾞﾜﾁｮｳﾖﾜｷﾞ","pref":"愛媛県","city":"今治市","address":"玉川町與和木"},
{"zip_code":"7940124","kana_pref":"ｴﾋﾒｹﾝ","kana_city":"ｲﾏﾊﾞﾘｼ","kana_address":"ﾀﾏｶﾞﾜﾁｮｳﾘｭｳｵｶｶﾐ","pref":"愛媛県","city":"今治市","address":"玉川町龍岡上"},
{"zip_code":"7940123","kana_pref":"ｴﾋﾒｹﾝ","kana_city":"ｲﾏﾊﾞﾘｼ","kana_address":"ﾀﾏｶﾞﾜﾁｮｳﾘｭｳｵｶｼﾓ","pref":"愛媛県","city":"今治市","address":"玉川町龍岡下"},
{"zip_code":"7940007","kana_pref":"ｴﾋﾒｹﾝ","kana_city":"ｲﾏﾊﾞﾘｼ","kana_address":"ﾁｶﾐﾁｮｳ","pref":"愛媛県","city":"今治市","address":"近見町"},
{"zip_code":"7940827","kana_pref":"ｴﾋﾒｹﾝ","kana_city":"ｲﾏﾊﾞﾘｼ","kana_address":"ﾂｼﾞﾄﾞｳ","pref":"愛媛県","city":"今治市","address":"辻堂"},
{"zip_code":"7940815","kana_pref":"ｴﾋﾒｹﾝ","kana_city":"ｲﾏﾊﾞﾘｼ","kana_address":"ﾂﾁﾊﾞｼﾁｮｳ","pref":"愛媛県","city":"今治市","address":"土橋町"},
{"zip_code":"7940032","kana_pref":"ｴﾋﾒｹﾝ","kana_city":"ｲﾏﾊﾞﾘｼ","kana_address":"ﾃﾝﾎﾟｳｻﾞﾝﾁｮｳ","pref":"愛媛県","city":"今治市","address":"天保山町"},
{"zip_code":"7940036","kana_pref":"ｴﾋﾒｹﾝ","kana_city":"ｲﾏﾊﾞﾘｼ","kana_address":"ﾄｵﾘﾁｮｳ","pref":"愛媛県","city":"今治市","address":"通町"},
{"zip_code":"7940015","kana_pref":"ｴﾋﾒｹﾝ","kana_city":"ｲﾏﾊﾞﾘｼ","kana_address":"ﾄｷﾜﾁｮｳ","pref":"愛媛県","city":"今治市","address":"常盤町"},
{"zip_code":"7940863","kana_pref":"ｴﾋﾒｹﾝ","kana_city":"ｲﾏﾊﾞﾘｼ","kana_address":"ﾄｸｼｹﾞ","pref":"愛媛県","city":"今治市","address":"徳重"},
{"zip_code":"7940840","kana_pref":"ｴﾋﾒｹﾝ","kana_city":"ｲﾏﾊﾞﾘｼ","kana_address":"ﾅｶﾃﾞﾗ","pref":"愛媛県","city":"今治市","address":"中寺"},
{"zip_code":"7940016","kana_pref":"ｴﾋﾒｹﾝ","kana_city":"ｲﾏﾊﾞﾘｼ","kana_address":"ﾅｶﾊﾞﾏﾁｮｳ","pref":"愛媛県","city":"今治市","address":"中浜町"},
{"zip_code":"7940055","kana_pref":"ｴﾋﾒｹﾝ","kana_city":"ｲﾏﾊﾞﾘｼ","kana_address":"ﾅｶﾋﾖｼﾁｮｳ","pref":"愛媛県","city":"今治市","address":"中日吉町"},
{"zip_code":"7940850","kana_pref":"ｴﾋﾒｹﾝ","kana_city":"ｲﾏﾊﾞﾘｼ","kana_address":"ﾆﾔ","pref":"愛媛県","city":"今治市","address":"新谷"},
{"zip_code":"7940082","kana_pref":"ｴﾋﾒｹﾝ","kana_city":"ｲﾏﾊﾞﾘｼ","kana_address":"ﾉﾏ","pref":"愛媛県","city":"今治市","address":"野間"},
{"zip_code":"7942301","kana_pref":"ｴﾋﾒｹﾝ","kana_city":"ｲﾏﾊﾞﾘｼ","kana_address":"ﾊｶﾀﾁｮｳｱﾛｳﾂﾞ","pref":"愛媛県","city":"今治市","address":"伯方町有津"},
{"zip_code":"7942303","kana_pref":"ｴﾋﾒｹﾝ","kana_city":"ｲﾏﾊﾞﾘｼ","kana_address":"ﾊｶﾀﾁｮｳｲｶﾀ","pref":"愛媛県","city":"今治市","address":"伯方町伊方"},
{"zip_code":"7942302","kana_pref":"ｴﾋﾒｹﾝ","kana_city":"ｲﾏﾊﾞﾘｼ","kana_address":"ﾊｶﾀﾁｮｳｶﾉｳﾗ","pref":"愛媛県","city":"今治市","address":"伯方町叶浦"},
{"zip_code":"7942304","kana_pref":"ｴﾋﾒｹﾝ","kana_city":"ｲﾏﾊﾞﾘｼ","kana_address":"ﾊｶﾀﾁｮｳｷﾀｳﾗ","pref":"愛媛県","city":"今治市","address":"伯方町北浦"},
{"zip_code":"7942305","kana_pref":"ｴﾋﾒｹﾝ","kana_city":"ｲﾏﾊﾞﾘｼ","kana_address":"ﾊｶﾀﾁｮｳｷﾉｳﾗ","pref":"愛媛県","city":"今治市","address":"伯方町木浦"},
{"zip_code":"7940831","kana_pref":"ｴﾋﾒｹﾝ","kana_city":"ｲﾏﾊﾞﾘｼ","kana_address":"ﾊｯﾁｮｳﾋｶﾞｼ","pref":"愛媛県","city":"今治市","address":"八町東"},
{"zip_code":"7940832","kana_pref":"ｴﾋﾒｹﾝ","kana_city":"ｲﾏﾊﾞﾘｼ","kana_address":"ﾊｯﾁｮｳﾆｼ","pref":"愛媛県","city":"今治市","address":"八町西"},
{"zip_code":"7940801","kana_pref":"ｴﾋﾒｹﾝ","kana_city":"ｲﾏﾊﾞﾘｼ","kana_address":"ﾋｶﾞｼﾄﾘｳﾁｮｳ","pref":"愛媛県","city":"今治市","address":"東鳥生町"},
{"zip_code":"7940033","kana_pref":"ｴﾋﾒｹﾝ","kana_city":"ｲﾏﾊﾞﾘｼ","kana_address":"ﾋｶﾞｼﾓﾝﾁｮｳ","pref":"愛媛県","city":"今治市","address":"東門町"},
{"zip_code":"7940026","kana_pref":"ｴﾋﾒｹﾝ","kana_city":"ｲﾏﾊﾞﾘｼ","kana_address":"ﾍﾞｯｸﾁｮｳ","pref":"愛媛県","city":"今治市","address":"別宮町"},
{"zip_code":"7940065","kana_pref":"ｴﾋﾒｹﾝ","kana_city":"ｲﾏﾊﾞﾘｼ","kana_address":"ﾍﾞﾂﾐｮｳ","pref":"愛媛県","city":"今治市","address":"別名"},
{"zip_code":"7940018","kana_pref":"ｴﾋﾒｹﾝ","kana_city":"ｲﾏﾊﾞﾘｼ","kana_address":"ﾎﾝﾏﾁ","pref":"愛媛県","city":"今治市","address":"本町"},
{"zip_code":"7940041","kana_pref":"ｴﾋﾒｹﾝ","kana_city":"ｲﾏﾊﾞﾘｼ","kana_address":"ﾏﾂﾓﾄﾁｮｳ","pref":"愛媛県","city":"今治市","address":"松本町"},
{"zip_code":"7940034","kana_pref":"ｴﾋﾒｹﾝ","kana_city":"ｲﾏﾊﾞﾘｼ","kana_address":"ﾐｽｶﾁｮｳ","pref":"愛媛県","city":"今治市","address":"美須賀町"},
{"zip_code":"7940003","kana_pref":"ｴﾋﾒｹﾝ","kana_city":"ｲﾏﾊﾞﾘｼ","kana_address":"ﾐﾅﾄﾁｮｳ","pref":"愛媛県","city":"今治市","address":"湊町"},
{"zip_code":"7940811","kana_pref":"ｴﾋﾒｹﾝ","kana_city":"ｲﾏﾊﾞﾘｼ","kana_address":"ﾐﾅﾐｺｳｹﾞﾁｮｳ","pref":"愛媛県","city":"今治市","address":"南高下町"},
{"zip_code":"7940027","kana_pref":"ｴﾋﾒｹﾝ","kana_city":"ｲﾏﾊﾞﾘｼ","kana_address":"ﾐﾅﾐﾀﾞｲﾓﾝﾁｮｳ","pref":"愛媛県","city":"今治市","address":"南大門町"},
{"zip_code":"7940802","kana_pref":"ｴﾋﾒｹﾝ","kana_city":"ｲﾏﾊﾞﾘｼ","kana_address":"ﾐﾅﾐﾄﾘｳﾁｮｳ","pref":"愛媛県","city":"今治市","address":"南鳥生町"},
{"zip_code":"7940056","kana_pref":"ｴﾋﾒｹﾝ","kana_city":"ｲﾏﾊﾞﾘｼ","kana_address":"ﾐﾅﾐﾋﾖｼﾁｮｳ","pref":"愛媛県","city":"今治市","address":"南日吉町"},
{"zip_code":"7940043","kana_pref":"ｴﾋﾒｹﾝ","kana_city":"ｲﾏﾊﾞﾘｼ","kana_address":"ﾐﾅﾐﾎｳﾗｲﾁｮｳ","pref":"愛媛県","city":"今治市","address":"南宝来町"},
{"zip_code":"7940012","kana_pref":"ｴﾋﾒｹﾝ","kana_city":"ｲﾏﾊﾞﾘｼ","kana_address":"ﾐﾎﾁｮｳ","pref":"愛媛県","city":"今治市","address":"美保町"},
{"zip_code":"7942204","kana_pref":"ｴﾋﾒｹﾝ","kana_city":"ｲﾏﾊﾞﾘｼ","kana_address":"ﾐﾔｸﾎﾞﾁｮｳﾄﾓｳﾗ","pref":"愛媛県","city":"今治市","address":"宮窪町友浦"},
{"zip_code":"7942201","kana_pref":"ｴﾋﾒｹﾝ","kana_city":"ｲﾏﾊﾞﾘｼ","kana_address":"ﾐﾔｸﾎﾞﾁｮｳﾊﾔｶﾜ","pref":"愛媛県","city":"今治市","address":"宮窪町早川"},
{"zip_code":"7942203","kana_pref":"ｴﾋﾒｹﾝ","kana_city":"ｲﾏﾊﾞﾘｼ","kana_address":"ﾐﾔｸﾎﾞﾁｮｳﾐﾔｸﾎﾞ","pref":"愛媛県","city":"今治市","address":"宮窪町宮窪"},
{"zip_code":"7942202","kana_pref":"ｴﾋﾒｹﾝ","kana_city":"ｲﾏﾊﾞﾘｼ","kana_address":"ﾐﾔｸﾎﾞﾁｮｳﾖｿｸﾆ","pref":"愛媛県","city":"今治市","address":"宮窪町余所国"},
{"zip_code":"7940052","kana_pref":"ｴﾋﾒｹﾝ","kana_city":"ｲﾏﾊﾞﾘｼ","kana_address":"ﾐﾔｼﾀﾁｮｳ","pref":"愛媛県","city":"今治市","address":"宮下町"},
{"zip_code":"7940022","kana_pref":"ｴﾋﾒｹﾝ","kana_city":"ｲﾏﾊﾞﾘｼ","kana_address":"ﾑﾛﾔﾁｮｳ","pref":"愛媛県","city":"今治市","address":"室屋町"},
{"zip_code":"7940073","kana_pref":"ｴﾋﾒｹﾝ","kana_city":"ｲﾏﾊﾞﾘｼ","kana_address":"ﾔﾀ","pref":"愛媛県","city":"今治市","address":"矢田"},
{"zip_code":"7940053","kana_pref":"ｴﾋﾒｹﾝ","kana_city":"ｲﾏﾊﾞﾘｼ","kana_address":"ﾔﾏｶﾀﾁｮｳ","pref":"愛媛県","city":"今治市","address":"山方町"},
{"zip_code":"7940072","kana_pref":"ｴﾋﾒｹﾝ","kana_city":"ｲﾏﾊﾞﾘｼ","kana_address":"ﾔﾏｼﾞ","pref":"愛媛県","city":"今治市","address":"山路"},
{"zip_code":"7940071","kana_pref":"ｴﾋﾒｹﾝ","kana_city":"ｲﾏﾊﾞﾘｼ","kana_address":"ﾔﾏｼﾞﾁｮｳ","pref":"愛媛県","city":"今治市","address":"山路町"},
{"zip_code":"7940814","kana_pref":"ｴﾋﾒｹﾝ","kana_city":"ｲﾏﾊﾞﾘｼ","kana_address":"ﾖｺﾀﾁｮｳ","pref":"愛媛県","city":"今治市","address":"横田町"},
{"zip_code":"7942111","kana_pref":"ｴﾋﾒｹﾝ","kana_city":"ｲﾏﾊﾞﾘｼ","kana_address":"ﾖｼｳﾐﾁｮｳｻｲﾜｲｼﾝﾃﾞﾝ","pref":"愛媛県","city":"今治市","address":"吉海町幸新田"},
{"zip_code":"7942117","kana_pref":"ｴﾋﾒｹﾝ","kana_city":"ｲﾏﾊﾞﾘｼ","kana_address":"ﾖｼｳﾐﾁｮｳｼｮｳﾐ","pref":"愛媛県","city":"今治市","address":"吉海町正味"},
{"zip_code":"7942101","kana_pref":"ｴﾋﾒｹﾝ","kana_city":"ｲﾏﾊﾞﾘｼ","kana_address":"ﾖｼｳﾐﾁｮｳﾀﾉｳﾗ","pref":"愛媛県","city":"今治市","address":"吉海町田浦"},
{"zip_code":"7942119","kana_pref":"ｴﾋﾒｹﾝ","kana_city":"ｲﾏﾊﾞﾘｼ","kana_address":"ﾖｼｳﾐﾁｮｳﾂｼﾏ","pref":"愛媛県","city":"今治市","address":"吉海町津島"},
{"zip_code":"7942102","kana_pref":"ｴﾋﾒｹﾝ","kana_city":"ｲﾏﾊﾞﾘｼ","kana_address":"ﾖｼｳﾐﾁｮｳﾄﾏﾘ","pref":"愛媛県","city":"今治市","address":"吉海町泊"},
{"zip_code":"7942116","kana_pref":"ｴﾋﾒｹﾝ","kana_city":"ｲﾏﾊﾞﾘｼ","kana_address":"ﾖｼｳﾐﾁｮｳﾅｺﾞﾏ","pref":"愛媛県","city":"今治市","address":"吉海町名駒"},
{"zip_code":"7942104","kana_pref":"ｴﾋﾒｹﾝ","kana_city":"ｲﾏﾊﾞﾘｼ","kana_address":"ﾖｼｳﾐﾁｮｳﾆｴ","pref":"愛媛県","city":"今治市","address":"吉海町仁江"},
{"zip_code":"7942103","kana_pref":"ｴﾋﾒｹﾝ","kana_city":"ｲﾏﾊﾞﾘｼ","kana_address":"ﾖｼｳﾐﾁｮｳﾌｸﾀﾞ","pref":"愛媛県","city":"今治市","address":"吉海町福田"},
{"zip_code":"7942118","kana_pref":"ｴﾋﾒｹﾝ","kana_city":"ｲﾏﾊﾞﾘｼ","kana_address":"ﾖｼｳﾐﾁｮｳﾌｽﾏ","pref":"愛媛県","city":"今治市","address":"吉海町臥間"},
{"zip_code":"7942112","kana_pref":"ｴﾋﾒｹﾝ","kana_city":"ｲﾏﾊﾞﾘｼ","kana_address":"ﾖｼｳﾐﾁｮｳﾎﾝｼﾞｮｳ","pref":"愛媛県","city":"今治市","address":"吉海町本庄"},
{"zip_code":"7942115","kana_pref":"ｴﾋﾒｹﾝ","kana_city":"ｲﾏﾊﾞﾘｼ","kana_address":"ﾖｼｳﾐﾁｮｳﾐﾅﾐｳﾗ","pref":"愛媛県","city":"今治市","address":"吉海町南浦"},
{"zip_code":"7942114","kana_pref":"ｴﾋﾒｹﾝ","kana_city":"ｲﾏﾊﾞﾘｼ","kana_address":"ﾖｼｳﾐﾁｮｳﾐｮｳ","pref":"愛媛県","city":"今治市","address":"吉海町名"},
{"zip_code":"7942113","kana_pref":"ｴﾋﾒｹﾝ","kana_city":"ｲﾏﾊﾞﾘｼ","kana_address":"ﾖｼｳﾐﾁｮｳﾑｸﾅ","pref":"愛媛県","city":"今治市","address":"吉海町椋名"},
{"zip_code":"7942110","kana_pref":"ｴﾋﾒｹﾝ","kana_city":"ｲﾏﾊﾞﾘｼ","kana_address":"ﾖｼｳﾐﾁｮｳﾔﾜﾀ","pref":"愛媛県","city":"今治市","address":"吉海町八幡"},
{"zip_code":"7940862","kana_pref":"ｴﾋﾒｹﾝ","kana_city":"ｲﾏﾊﾞﾘｼ","kana_address":"ﾖﾑﾗ","pref":"愛媛県","city":"今治市","address":"四村"},
{"zip_code":"7942500","kana_pref":"ｴﾋﾒｹﾝ","kana_city":"ｵﾁｸﾞﾝｶﾐｼﾞﾏﾁｮｳ","kana_address":"","pref":"愛媛県","city":"越智郡上島町","address":""},
{"zip_code":"7942550","kana_pref":"ｴﾋﾒｹﾝ","kana_city":"ｵﾁｸﾞﾝｶﾐｼﾞﾏﾁｮｳ","kana_address":"ｲｷﾅ","pref":"愛媛県","city":"越智郡上島町","address":"生名"},
{"zip_code":"7942410","kana_pref":"ｴﾋﾒｹﾝ","kana_city":"ｵﾁｸﾞﾝｶﾐｼﾞﾏﾁｮｳ","kana_address":"ｲﾜｷﾞ","pref":"愛媛県","city":"越智郡上島町","address":"岩城"},
{"zip_code":"7942540","kana_pref":"ｴﾋﾒｹﾝ","kana_city":"ｵﾁｸﾞﾝｶﾐｼﾞﾏﾁｮｳ","kana_address":"ｳｵｼﾏｲﾁﾊﾞﾝｺｳﾁ","pref":"愛媛県","city":"越智郡上島町","address":"魚島一番耕地"},
{"zip_code":"7942541","kana_pref":"ｴﾋﾒｹﾝ","kana_city":"ｵﾁｸﾞﾝｶﾐｼﾞﾏﾁｮｳ","kana_address":"ｳｵｼﾏﾆﾊﾞﾝｺｳﾁ","pref":"愛媛県","city":"越智郡上島町","address":"魚島二番耕地"},
{"zip_code":"7942542","kana_pref":"ｴﾋﾒｹﾝ","kana_city":"ｵﾁｸﾞﾝｶﾐｼﾞﾏﾁｮｳ","kana_address":"ｳｵｼﾏｻﾝﾊﾞﾝｺｳﾁ","pref":"愛媛県","city":"越智郡上島町","address":"魚島三番耕地"},
{"zip_code":"7942508","kana_pref":"ｴﾋﾒｹﾝ","kana_city":"ｵﾁｸﾞﾝｶﾐｼﾞﾏﾁｮｳ","kana_address":"ﾕｹﾞｵｵﾀ","pref":"愛媛県","city":"越智郡上島町","address":"弓削太田"},
{"zip_code":"7942513","kana_pref":"ｴﾋﾒｹﾝ","kana_city":"ｵﾁｸﾞﾝｶﾐｼﾞﾏﾁｮｳ","kana_address":"ﾕｹﾞｵｵﾀﾆ","pref":"愛媛県","city":"越智郡上島町","address":"弓削大谷"},
{"zip_code":"7942510","kana_pref":"ｴﾋﾒｹﾝ","kana_city":"ｵﾁｸﾞﾝｶﾐｼﾞﾏﾁｮｳ","kana_address":"ﾕｹﾞｶﾏﾀﾞ","pref":"愛媛県","city":"越智郡上島町","address":"弓削鎌田"},
{"zip_code":"7942503","kana_pref":"ｴﾋﾒｹﾝ","kana_city":"ｵﾁｸﾞﾝｶﾐｼﾞﾏﾁｮｳ","kana_address":"ﾕｹﾞｶﾐﾕｹﾞ","pref":"愛媛県","city":"越智郡上島町","address":"弓削上弓削"},
{"zip_code":"7942512","kana_pref":"ｴﾋﾒｹﾝ","kana_city":"ｵﾁｸﾞﾝｶﾐｼﾞﾏﾁｮｳ","kana_address":"ﾕｹﾞｶﾘｵ","pref":"愛媛県","city":"越智郡上島町","address":"弓削狩尾"},
{"zip_code":"7942501","kana_pref":"ｴﾋﾒｹﾝ","kana_city":"ｵﾁｸﾞﾝｶﾐｼﾞﾏﾁｮｳ","kana_address":"ﾕｹﾞｸｼﾞｳﾗ","pref":"愛媛県","city":"越智郡上島町","address":"弓削久司浦"},
{"zip_code":"7942520","kana_pref":"ｴﾋﾒｹﾝ","kana_city":"ｵﾁｸﾞﾝｶﾐｼﾞﾏﾁｮｳ","kana_address":"ﾕｹﾞｻｼﾏ","pref":"愛媛県","city":"越智郡上島町","address":"弓削佐島"},
{"zip_code":"7942502","kana_pref":"ｴﾋﾒｹﾝ","kana_city":"ｵﾁｸﾞﾝｶﾐｼﾞﾏﾁｮｳ","kana_address":"ﾕｹﾞｻﾜﾂﾞ","pref":"愛媛県","city":"越智郡上島町","address":"弓削沢津"},
{"zip_code":"7942506","kana_pref":"ｴﾋﾒｹﾝ","kana_city":"ｵﾁｸﾞﾝｶﾐｼﾞﾏﾁｮｳ","kana_address":"ﾕｹﾞｼﾓﾕｹﾞ","pref":"愛媛県","city":"越智郡上島町","address":"弓削下弓削"},
{"zip_code":"7942530","kana_pref":"ｴﾋﾒｹﾝ","kana_city":"ｵﾁｸﾞﾝｶﾐｼﾞﾏﾁｮｳ","kana_address":"ﾕｹﾞﾄﾖｼﾏ","pref":"愛媛県","city":"越智郡上島町","address":"弓削豊島"},
{"zip_code":"7942509","kana_pref":"ｴﾋﾒｹﾝ","kana_city":"ｵﾁｸﾞﾝｶﾐｼﾞﾏﾁｮｳ","kana_address":"ﾕｹﾞﾊﾌﾞ","pref":"愛媛県","city":"越智郡上島町","address":"弓削土生"},
{"zip_code":"7942504","kana_pref":"ｴﾋﾒｹﾝ","kana_city":"ｵﾁｸﾞﾝｶﾐｼﾞﾏﾁｮｳ","kana_address":"ﾕｹﾞﾋｷﾉ","pref":"愛媛県","city":"越智郡上島町","address":"弓削引野"},
{"zip_code":"7942511","kana_pref":"ｴﾋﾒｹﾝ","kana_city":"ｵﾁｸﾞﾝｶﾐｼﾞﾏﾁｮｳ","kana_address":"ﾕｹﾞﾋﾋﾞ","pref":"愛媛県","city":"越智郡上島町","address":"弓削日比"},
{"zip_code":"7942503","kana_pref":"ｴﾋﾒｹﾝ","kana_city":"ｵﾁｸﾞﾝｶﾐｼﾞﾏﾁｮｳ","kana_address":"ﾕｹﾞﾋｬｯｶﾝ","pref":"愛媛県","city":"越智郡上島町","address":"弓削百貫"},
{"zip_code":"7942507","kana_pref":"ｴﾋﾒｹﾝ","kana_city":"ｵﾁｸﾞﾝｶﾐｼﾞﾏﾁｮｳ","kana_address":"ﾕｹﾞﾌｼﾞﾀﾆ","pref":"愛媛県","city":"越智郡上島町","address":"弓削藤谷"},
{"zip_code":"7942505","kana_pref":"ｴﾋﾒｹﾝ","kana_city":"ｵﾁｸﾞﾝｶﾐｼﾞﾏﾁｮｳ","kana_address":"ﾕｹﾞﾐｮｳｼﾞﾝ","pref":"愛媛県","city":"越智郡上島町","address":"弓削明神"}]}