{"zip_code":[
{"zip_code":"7992433","kana_pref":"ｴﾋﾒｹﾝ","kana_city":"ﾏﾂﾔﾏｼ","kana_address":"ｱｲｼﾞﾏ","pref":"愛媛県","city":"松山市","address":"安居島"},
{"zip_code":"7992401","kana_pref":"ｴﾋﾒｹﾝ","kana_city":"ﾏﾂﾔﾏｼ","kana_address":"ｱｻﾅﾐﾊﾗ","pref":"愛媛県","city":"松山市","address":"浅海原"},
{"zip_code":"7992402","kana_pref":"ｴﾋﾒｹﾝ","kana_city":"ﾏﾂﾔﾏｼ","kana_address":"ｱｻﾅﾐﾎﾝﾀﾞﾆ","pref":"愛媛県","city":"松山市","address":"浅海本谷"},
{"zip_code":"7992463","kana_pref":"ｴﾋﾒｹﾝ","kana_city":"ﾏﾂﾔﾏｼ","kana_address":"ｱﾜｲｶﾜﾗ","pref":"愛媛県","city":"松山市","address":"粟井河原"},
{"zip_code":"7992467","kana_pref":"ｴﾋﾒｹﾝ","kana_city":"ﾏﾂﾔﾏｼ","kana_address":"ｲｿｺｳﾁ","pref":"愛媛県","city":"松山市","address":"磯河内"},
{"zip_code":"7992416","kana_pref":"ｴﾋﾒｹﾝ","kana_city":"ﾏﾂﾔﾏｼ","kana_address":"ｲﾉｷ","pref":"愛媛県","city":"松山市","address":"猪木"},
{"zip_code":"7992423","kana_pref":"ｴﾋﾒｹﾝ","kana_city":"ﾏﾂﾔﾏｼ","kana_address":"ｲﾝﾅｲ","pref":"愛媛県","city":"松山市","address":"院内"},
{"zip_code":"7992446","kana_pref":"ｴﾋﾒｹﾝ","kana_city":"ﾏﾂﾔﾏｼ","kana_address":"ｳｼﾀﾞﾆ","pref":"愛媛県","city":"松山市","address":"牛谷"},
{"zip_code":"7992654","kana_pref":"ｴﾋﾒｹﾝ","kana_city":"ﾏﾂﾔﾏｼ","kana_address":"ｳﾁﾐﾔﾁｮｳ","pref":"愛媛県","city":"松山市","address":"内宮町"},
{"zip_code":"7992655","kana_pref":"ｴﾋﾒｹﾝ","kana_city":"ﾏﾂﾔﾏｼ","kana_address":"ｳﾏｷﾁｮｳ","pref":"愛媛県","city":"松山市","address":"馬木町"},
{"zip_code":"7992643","kana_pref":"ｴﾋﾒｹﾝ","kana_city":"ﾏﾂﾔﾏｼ","kana_address":"ｳﾒｷﾏﾁ","pref":"愛媛県","city":"松山市","address":"梅木町"},
{"zip_code":"7992408","kana_pref":"ｴﾋﾒｹﾝ","kana_city":"ﾏﾂﾔﾏｼ","kana_address":"ｵｵｳﾗ","pref":"愛媛県","city":"松山市","address":"大浦"},
{"zip_code":"7992458","kana_pref":"ｴﾋﾒｹﾝ","kana_city":"ﾏﾂﾔﾏｼ","kana_address":"ｵｵﾆｼﾀﾞﾆ","pref":"愛媛県","city":"松山市","address":"大西谷"},
{"zip_code":"7992468","kana_pref":"ｴﾋﾒｹﾝ","kana_city":"ﾏﾂﾔﾏｼ","kana_address":"ｵｶﾞﾜ","pref":"愛媛県","city":"松山市","address":"小川"},
{"zip_code":"7992418","kana_pref":"ｴﾋﾒｹﾝ","kana_city":"ﾏﾂﾔﾏｼ","kana_address":"ｵｷﾞﾊﾗ","pref":"愛媛県","city":"松山市","address":"尾儀原"},
{"zip_code":"7992410","kana_pref":"ｴﾋﾒｹﾝ","kana_city":"ﾏﾂﾔﾏｼ","kana_address":"ｵﾔﾏﾀﾞ","pref":"愛媛県","city":"松山市","address":"小山田"},
{"zip_code":"7992642","kana_pref":"ｴﾋﾒｹﾝ","kana_city":"ﾏﾂﾔﾏｼ","kana_address":"ｵﾝｼﾞﾏﾁ","pref":"愛媛県","city":"松山市","address":"恩地町"},
{"zip_code":"7992644","kana_pref":"ｴﾋﾒｹﾝ","kana_city":"ﾏﾂﾔﾏｼ","kana_address":"ｶｽﾞｻﾏﾁ","pref":"愛媛県","city":"松山市","address":"上総町"},
{"zip_code":"7992439","kana_pref":"ｴﾋﾒｹﾝ","kana_city":"ﾏﾂﾔﾏｼ","kana_address":"ｶﾀﾔﾏ","pref":"愛媛県","city":"松山市","address":"片山"},
{"zip_code":"7992661","kana_pref":"ｴﾋﾒｹﾝ","kana_city":"ﾏﾂﾔﾏｼ","kana_address":"ｶﾂｵｶﾁｮｳ","pref":"愛媛県","city":"松山市","address":"勝岡町"},
{"zip_code":"7992461","kana_pref":"ｴﾋﾒｹﾝ","kana_city":"ﾏﾂﾔﾏｼ","kana_address":"ｶﾉﾐﾈ","pref":"愛媛県","city":"松山市","address":"鹿峰"},
{"zip_code":"7992405","kana_pref":"ｴﾋﾒｹﾝ","kana_city":"ﾏﾂﾔﾏｼ","kana_address":"ｶﾐﾅﾝﾊﾞ","pref":"愛媛県","city":"松山市","address":"上難波"},
{"zip_code":"7992466","kana_pref":"ｴﾋﾒｹﾝ","kana_city":"ﾏﾂﾔﾏｼ","kana_address":"ｶﾓﾉｲｹ","pref":"愛媛県","city":"松山市","address":"鴨之池"},
{"zip_code":"7992411","kana_pref":"ｴﾋﾒｹﾝ","kana_city":"ﾏﾂﾔﾏｼ","kana_address":"ｷﾞｼｷ","pref":"愛媛県","city":"松山市","address":"儀式"},
{"zip_code":"7992454","kana_pref":"ｴﾋﾒｹﾝ","kana_city":"ﾏﾂﾔﾏｼ","kana_address":"ｷｬｸ","pref":"愛媛県","city":"松山市","address":"客"},
{"zip_code":"7992462","kana_pref":"ｴﾋﾒｹﾝ","kana_city":"ﾏﾂﾔﾏｼ","kana_address":"ｸﾎﾞ","pref":"愛媛県","city":"松山市","address":"久保"},
{"zip_code":"7992445","kana_pref":"ｴﾋﾒｹﾝ","kana_city":"ﾏﾂﾔﾏｼ","kana_address":"ｺｳﾉｺﾔﾏ","pref":"愛媛県","city":"松山市","address":"河野高山"},
{"zip_code":"7992438","kana_pref":"ｴﾋﾒｹﾝ","kana_city":"ﾏﾂﾔﾏｼ","kana_address":"ｺｳﾉﾅｶｽｶﾞ","pref":"愛媛県","city":"松山市","address":"河野中須賀"},
{"zip_code":"7992436","kana_pref":"ｴﾋﾒｹﾝ","kana_city":"ﾏﾂﾔﾏｼ","kana_address":"ｺｳﾉﾍﾞｯﾌﾟ","pref":"愛媛県","city":"松山市","address":"河野別府"},
{"zip_code":"7992469","kana_pref":"ｴﾋﾒｹﾝ","kana_city":"ﾏﾂﾔﾏｼ","kana_address":"ｺｳﾖｳﾀﾞｲ","pref":"愛媛県","city":"松山市","address":"光洋台"},
{"zip_code":"7992451","kana_pref":"ｴﾋﾒｹﾝ","kana_city":"ﾏﾂﾔﾏｼ","kana_address":"ｺｶﾞﾀﾞﾆ","pref":"愛媛県","city":"松山市","address":"小川谷"},
{"zip_code":"7992645","kana_pref":"ｴﾋﾒｹﾝ","kana_city":"ﾏﾂﾔﾏｼ","kana_address":"ｺﾔﾏﾁ","pref":"愛媛県","city":"松山市","address":"小屋町"},
{"zip_code":"7992653","kana_pref":"ｴﾋﾒｹﾝ","kana_city":"ﾏﾂﾔﾏｼ","kana_address":"ｺﾞﾝｹﾞﾝﾁｮｳ","pref":"愛媛県","city":"松山市","address":"権現町"},
{"zip_code":"7992417","kana_pref":"ｴﾋﾒｹﾝ","kana_city":"ﾏﾂﾔﾏｼ","kana_address":"ｻｲﾉﾊﾗ","pref":"愛媛県","city":"松山市","address":"才之原"},
{"zip_code":"7992447","kana_pref":"ｴﾋﾒｹﾝ","kana_city":"ﾏﾂﾔﾏｼ","kana_address":"ｻｺ","pref":"愛媛県","city":"松山市","address":"佐古"},
{"zip_code":"7992415","kana_pref":"ｴﾋﾒｹﾝ","kana_city":"ﾏﾂﾔﾏｼ","kana_address":"ｻﾙｶﾜ","pref":"愛媛県","city":"松山市","address":"猿川"},
{"zip_code":"7992419","kana_pref":"ｴﾋﾒｹﾝ","kana_city":"ﾏﾂﾔﾏｼ","kana_address":"ｻﾙｶﾜﾊﾞﾗ","pref":"愛媛県","city":"松山市","address":"猿川原"},
{"zip_code":"7992407","kana_pref":"ｴﾋﾒｹﾝ","kana_city":"ﾏﾂﾔﾏｼ","kana_address":"ｼﾓﾅﾝﾊﾞ","pref":"愛媛県","city":"松山市","address":"下難波"},
{"zip_code":"7992404","kana_pref":"ｴﾋﾒｹﾝ","kana_city":"ﾏﾂﾔﾏｼ","kana_address":"ｼｮｳ","pref":"愛媛県","city":"松山市","address":"庄"},
{"zip_code":"7992647","kana_pref":"ｴﾋﾒｹﾝ","kana_city":"ﾏﾂﾔﾏｼ","kana_address":"ｼﾞｮｳｻﾞﾝﾏﾁ","pref":"愛媛県","city":"松山市","address":"城山町"},
{"zip_code":"7992412","kana_pref":"ｴﾋﾒｹﾝ","kana_city":"ﾏﾂﾔﾏｼ","kana_address":"ｼｮｳﾌﾞ","pref":"愛媛県","city":"松山市","address":"庄府"},
{"zip_code":"7992442","kana_pref":"ｴﾋﾒｹﾝ","kana_city":"ﾏﾂﾔﾏｼ","kana_address":"ｼﾞｮｳﾎｳﾒﾝ","pref":"愛媛県","city":"松山市","address":"常保免"},
{"zip_code":"7992646","kana_pref":"ｴﾋﾒｹﾝ","kana_city":"ﾏﾂﾔﾏｼ","kana_address":"ｼﾞﾝｼﾞﾛｳﾏﾁ","pref":"愛媛県","city":"松山市","address":"神次郎町"},
{"zip_code":"7992648","kana_pref":"ｴﾋﾒｹﾝ","kana_city":"ﾏﾂﾔﾏｼ","kana_address":"ｽｹﾞｻﾞﾜﾏﾁ","pref":"愛媛県","city":"松山市","address":"菅沢町"},
{"zip_code":"7992460","kana_pref":"ｴﾋﾒｹﾝ","kana_city":"ﾏﾂﾔﾏｼ","kana_address":"ｽﾎﾞｷ","pref":"愛媛県","city":"松山市","address":"苞木"},
{"zip_code":"7992443","kana_pref":"ｴﾋﾒｹﾝ","kana_city":"ﾏﾂﾔﾏｼ","kana_address":"ｾﾞﾝｵｳｼﾞ","pref":"愛媛県","city":"松山市","address":"善応寺"},
{"zip_code":"7992662","kana_pref":"ｴﾋﾒｹﾝ","kana_city":"ﾏﾂﾔﾏｼ","kana_address":"ﾀｲｻﾝｼﾞﾁｮｳ","pref":"愛媛県","city":"松山市","address":"太山寺町"},
{"zip_code":"7992422","kana_pref":"ｴﾋﾒｹﾝ","kana_city":"ﾏﾂﾔﾏｼ","kana_address":"ﾀｶﾀ","pref":"愛媛県","city":"松山市","address":"高田"},
{"zip_code":"7992416","kana_pref":"ｴﾋﾒｹﾝ","kana_city":"ﾏﾂﾔﾏｼ","kana_address":"ﾀｷﾓﾄ","pref":"愛媛県","city":"松山市","address":"滝本"},
{"zip_code":"7992413","kana_pref":"ｴﾋﾒｹﾝ","kana_city":"ﾏﾂﾔﾏｼ","kana_address":"ﾀﾃｲﾜｺﾒﾉﾉ","pref":"愛媛県","city":"松山市","address":"立岩米之野"},
{"zip_code":"7992414","kana_pref":"ｴﾋﾒｹﾝ","kana_city":"ﾏﾂﾔﾏｼ","kana_address":"ﾀﾃｲﾜﾅｶﾑﾗ","pref":"愛媛県","city":"松山市","address":"立岩中村"},
{"zip_code":"7992455","kana_pref":"ｴﾋﾒｹﾝ","kana_city":"ﾏﾂﾔﾏｼ","kana_address":"ﾂﾈﾀｹ","pref":"愛媛県","city":"松山市","address":"常竹"},
{"zip_code":"7992432","kana_pref":"ｴﾋﾒｹﾝ","kana_city":"ﾏﾂﾔﾏｼ","kana_address":"ﾄﾞﾃｳﾁ","pref":"愛媛県","city":"松山市","address":"土手内"},
{"zip_code":"7992406","kana_pref":"ｴﾋﾒｹﾝ","kana_city":"ﾏﾂﾔﾏｼ","kana_address":"ﾅｶﾄﾞｵﾘ","pref":"愛媛県","city":"松山市","address":"中通"},
{"zip_code":"7992426","kana_pref":"ｴﾋﾒｹﾝ","kana_city":"ﾏﾂﾔﾏｼ","kana_address":"ﾅｶﾆｼｳﾁ","pref":"愛媛県","city":"松山市","address":"中西内"},
{"zip_code":"7992425","kana_pref":"ｴﾋﾒｹﾝ","kana_city":"ﾏﾂﾔﾏｼ","kana_address":"ﾅｶﾆｼｿﾄ","pref":"愛媛県","city":"松山市","address":"中西外"},
{"zip_code":"7992437","kana_pref":"ｴﾋﾒｹﾝ","kana_city":"ﾏﾂﾔﾏｼ","kana_address":"ﾅﾂﾒ","pref":"愛媛県","city":"松山市","address":"夏目"},
{"zip_code":"7992457","kana_pref":"ｴﾋﾒｹﾝ","kana_city":"ﾏﾂﾔﾏｼ","kana_address":"ﾆｼﾀﾞﾆ","pref":"愛媛県","city":"松山市","address":"西谷"},
{"zip_code":"7992403","kana_pref":"ｴﾋﾒｹﾝ","kana_city":"ﾏﾂﾔﾏｼ","kana_address":"ﾊｷﾞﾜﾗ","pref":"愛媛県","city":"松山市","address":"萩原"},
{"zip_code":"7992424","kana_pref":"ｴﾋﾒｹﾝ","kana_city":"ﾏﾂﾔﾏｼ","kana_address":"ﾊｯﾀﾝｼﾞ","pref":"愛媛県","city":"松山市","address":"八反地"},
{"zip_code":"7992649","kana_pref":"ｴﾋﾒｹﾝ","kana_city":"ﾏﾂﾔﾏｼ","kana_address":"ﾋｶﾞｼｵｵｸﾞﾘﾁｮｳ","pref":"愛媛県","city":"松山市","address":"東大栗町"},
{"zip_code":"7992452","kana_pref":"ｴﾋﾒｹﾝ","kana_city":"ﾏﾂﾔﾏｼ","kana_address":"ﾋﾗﾊﾞﾔｼ","pref":"愛媛県","city":"松山市","address":"平林"},
{"zip_code":"7992652","kana_pref":"ｴﾋﾒｹﾝ","kana_city":"ﾏﾂﾔﾏｼ","kana_address":"ﾌｸｽﾞﾐﾁｮｳ","pref":"愛媛県","city":"松山市","address":"福角町"},
{"zip_code":"7992435","kana_pref":"ｴﾋﾒｹﾝ","kana_city":"ﾏﾂﾔﾏｼ","kana_address":"ﾌﾁｭｳ","pref":"愛媛県","city":"松山市","address":"府中"},
{"zip_code":"7992453","kana_pref":"ｴﾋﾒｹﾝ","kana_city":"ﾏﾂﾔﾏｼ","kana_address":"ﾌﾓﾄ","pref":"愛媛県","city":"松山市","address":"麓"},
{"zip_code":"7992431","kana_pref":"ｴﾋﾒｹﾝ","kana_city":"ﾏﾂﾔﾏｼ","kana_address":"ﾎｳｼﾞｮｳ","pref":"愛媛県","city":"松山市","address":"北条"},
{"zip_code":"7992430","kana_pref":"ｴﾋﾒｹﾝ","kana_city":"ﾏﾂﾔﾏｼ","kana_address":"ﾎｳｼﾞｮｳﾂｼﾞ","pref":"愛媛県","city":"松山市","address":"北条辻"},
{"zip_code":"7992651","kana_pref":"ｴﾋﾒｹﾝ","kana_city":"ﾏﾂﾔﾏｼ","kana_address":"ﾎﾘｴﾁｮｳ","pref":"愛媛県","city":"松山市","address":"堀江町"},
{"zip_code":"7992456","kana_pref":"ｴﾋﾒｹﾝ","kana_city":"ﾏﾂﾔﾏｼ","kana_address":"ﾎﾝﾀﾞﾆ","pref":"愛媛県","city":"松山市","address":"本谷"},
{"zip_code":"7992421","kana_pref":"ｴﾋﾒｹﾝ","kana_city":"ﾏﾂﾔﾏｼ","kana_address":"ﾏｻｵｶｶﾝﾀﾞ","pref":"愛媛県","city":"松山市","address":"正岡神田"},
{"zip_code":"7992441","kana_pref":"ｴﾋﾒｹﾝ","kana_city":"ﾏﾂﾔﾏｼ","kana_address":"ﾐﾔｳﾁ","pref":"愛媛県","city":"松山市","address":"宮内"},
{"zip_code":"7992464","kana_pref":"ｴﾋﾒｹﾝ","kana_city":"ﾏﾂﾔﾏｼ","kana_address":"ﾔｽｵｶ","pref":"愛媛県","city":"松山市","address":"安岡"},
{"zip_code":"7992641","kana_pref":"ｴﾋﾒｹﾝ","kana_city":"ﾏﾂﾔﾏｼ","kana_address":"ﾔﾅｲﾀﾞﾆﾏﾁ","pref":"愛媛県","city":"松山市","address":"柳谷町"},
{"zip_code":"7992434","kana_pref":"ｴﾋﾒｹﾝ","kana_city":"ﾏﾂﾔﾏｼ","kana_address":"ﾔﾅｷﾞﾊﾗ","pref":"愛媛県","city":"松山市","address":"柳原"},
{"zip_code":"7992444","kana_pref":"ｴﾋﾒｹﾝ","kana_city":"ﾏﾂﾔﾏｼ","kana_address":"ﾖｺﾀﾞﾆ","pref":"愛媛県","city":"松山市","address":"横谷"},
{"zip_code":"7992656","kana_pref":"ｴﾋﾒｹﾝ","kana_city":"ﾏﾂﾔﾏｼ","kana_address":"ﾜｹﾏﾁ","pref":"愛媛県","city":"松山市","address":"和気町"},
{"zip_code":"7992465","kana_pref":"ｴﾋﾒｹﾝ","kana_city":"ﾏﾂﾔﾏｼ","kana_address":"ﾜﾀﾞ","pref":"愛媛県","city":"松山市","address":"和田"},
{"zip_code":"7991607","kana_pref":"ｴﾋﾒｹﾝ","kana_city":"ｲﾏﾊﾞﾘｼ","kana_address":"ｱｻｸﾗｶﾐ","pref":"愛媛県","city":"今治市","address":"朝倉上"},
{"zip_code":"7991604","kana_pref":"ｴﾋﾒｹﾝ","kana_city":"ｲﾏﾊﾞﾘｼ","kana_address":"ｱｻｸﾗｷﾀ","pref":"愛媛県","city":"今治市","address":"朝倉北"},
{"zip_code":"7991603","kana_pref":"ｴﾋﾒｹﾝ","kana_city":"ｲﾏﾊﾞﾘｼ","kana_address":"ｱｻｸﾗｼﾓ","pref":"愛媛県","city":"今治市","address":"朝倉下"},
{"zip_code":"7991606","kana_pref":"ｴﾋﾒｹﾝ","kana_city":"ｲﾏﾊﾞﾘｼ","kana_address":"ｱｻｸﾗﾐﾅﾐｵﾂ","pref":"愛媛県","city":"今治市","address":"朝倉南乙"},
{"zip_code":"7991605","kana_pref":"ｴﾋﾒｹﾝ","kana_city":"ｲﾏﾊﾞﾘｼ","kana_address":"ｱｻｸﾗﾐﾅﾐｺｳ","pref":"愛媛県","city":"今治市","address":"朝倉南甲"},
{"zip_code":"7992116","kana_pref":"ｴﾋﾒｹﾝ","kana_city":"ｲﾏﾊﾞﾘｼ","kana_address":"ｳﾁﾎﾞﾘ","pref":"愛媛県","city":"今治市","address":"内堀"},
{"zip_code":"7992123","kana_pref":"ｴﾋﾒｹﾝ","kana_city":"ｲﾏﾊﾞﾘｼ","kana_address":"ｳﾏｼﾏ","pref":"愛媛県","city":"今治市","address":"馬島"},
{"zip_code":"7992204","kana_pref":"ｴﾋﾒｹﾝ","kana_city":"ｲﾏﾊﾞﾘｼ","kana_address":"ｵｵﾆｼﾁｮｳｵｵｲﾊﾏ","pref":"愛媛県","city":"今治市","address":"大西町大井浜"},
{"zip_code":"7992201","kana_pref":"ｴﾋﾒｹﾝ","kana_city":"ｲﾏﾊﾞﾘｼ","kana_address":"ｵｵﾆｼﾁｮｳｸｵｳ","pref":"愛媛県","city":"今治市","address":"大西町九王"},
{"zip_code":"7992202","kana_pref":"ｴﾋﾒｹﾝ","kana_city":"ｲﾏﾊﾞﾘｼ","kana_address":"ｵｵﾆｼﾁｮｳｺﾝﾊﾞﾗ","pref":"愛媛県","city":"今治市","address":"大西町紺原"},
{"zip_code":"7992203","kana_pref":"ｴﾋﾒｹﾝ","kana_city":"ｲﾏﾊﾞﾘｼ","kana_address":"ｵｵﾆｼﾁｮｳｼﾝﾁｮｳ","pref":"愛媛県","city":"今治市","address":"大西町新町"},
{"zip_code":"7992209","kana_pref":"ｴﾋﾒｹﾝ","kana_city":"ｲﾏﾊﾞﾘｼ","kana_address":"ｵｵﾆｼﾁｮｳﾍﾞﾌ","pref":"愛媛県","city":"今治市","address":"大西町別府"},
{"zip_code":"7992208","kana_pref":"ｴﾋﾒｹﾝ","kana_city":"ｲﾏﾊﾞﾘｼ","kana_address":"ｵｵﾆｼﾁｮｳﾎｼﾉｳﾗ","pref":"愛媛県","city":"今治市","address":"大西町星浦"},
{"zip_code":"7992205","kana_pref":"ｴﾋﾒｹﾝ","kana_city":"ｲﾏﾊﾞﾘｼ","kana_address":"ｵｵﾆｼﾁｮｳﾐﾔﾜｷ","pref":"愛媛県","city":"今治市","address":"大西町宮脇"},
{"zip_code":"7992207","kana_pref":"ｴﾋﾒｹﾝ","kana_city":"ｲﾏﾊﾞﾘｼ","kana_address":"ｵｵﾆｼﾁｮｳﾔﾏﾉｳﾁ","pref":"愛媛県","city":"今治市","address":"大西町山之内"},
{"zip_code":"7992206","kana_pref":"ｴﾋﾒｹﾝ","kana_city":"ｲﾏﾊﾞﾘｼ","kana_address":"ｵｵﾆｼﾁｮｳﾜｷ","pref":"愛媛県","city":"今治市","address":"大西町脇"},
{"zip_code":"7991511","kana_pref":"ｴﾋﾒｹﾝ","kana_city":"ｲﾏﾊﾞﾘｼ","kana_address":"ｶﾐﾄｸ","pref":"愛媛県","city":"今治市","address":"上徳"},
{"zip_code":"7991531","kana_pref":"ｴﾋﾒｹﾝ","kana_city":"ｲﾏﾊﾞﾘｼ","kana_address":"ｶﾗｺﾀﾞｲﾋｶﾞｼ","pref":"愛媛県","city":"今治市","address":"唐子台東"},
{"zip_code":"7991532","kana_pref":"ｴﾋﾒｹﾝ","kana_city":"ｲﾏﾊﾞﾘｼ","kana_address":"ｶﾗｺﾀﾞｲﾆｼ","pref":"愛媛県","city":"今治市","address":"唐子台西"},
{"zip_code":"7992304","kana_pref":"ｴﾋﾒｹﾝ","kana_city":"ｲﾏﾊﾞﾘｼ","kana_address":"ｷｸﾏﾁｮｳｲｹﾉﾊﾗ","pref":"愛媛県","city":"今治市","address":"菊間町池原"},
{"zip_code":"7992307","kana_pref":"ｴﾋﾒｹﾝ","kana_city":"ｲﾏﾊﾞﾘｼ","kana_address":"ｷｸﾏﾁｮｳｶﾜｶﾐ","pref":"愛媛県","city":"今治市","address":"菊間町川上"},
{"zip_code":"7992306","kana_pref":"ｴﾋﾒｹﾝ","kana_city":"ｲﾏﾊﾞﾘｼ","kana_address":"ｷｸﾏﾁｮｳｶﾜﾉｳﾁ","pref":"愛媛県","city":"今治市","address":"菊間町河之内"},
{"zip_code":"7992309","kana_pref":"ｴﾋﾒｹﾝ","kana_city":"ｲﾏﾊﾞﾘｼ","kana_address":"ｷｸﾏﾁｮｳｺｳﾀﾞ","pref":"愛媛県","city":"今治市","address":"菊間町高田"},
{"zip_code":"7992301","kana_pref":"ｴﾋﾒｹﾝ","kana_city":"ｲﾏﾊﾞﾘｼ","kana_address":"ｷｸﾏﾁｮｳｻｶﾞﾀ","pref":"愛媛県","city":"今治市","address":"菊間町佐方"},
{"zip_code":"7992302","kana_pref":"ｴﾋﾒｹﾝ","kana_city":"ｲﾏﾊﾞﾘｼ","kana_address":"ｷｸﾏﾁｮｳﾀﾈ","pref":"愛媛県","city":"今治市","address":"菊間町種"},
{"zip_code":"7992312","kana_pref":"ｴﾋﾒｹﾝ","kana_city":"ｲﾏﾊﾞﾘｼ","kana_address":"ｷｸﾏﾁｮｳﾀﾉｼﾘ","pref":"愛媛県","city":"今治市","address":"菊間町田之尻"},
{"zip_code":"7992310","kana_pref":"ｴﾋﾒｹﾝ","kana_city":"ｲﾏﾊﾞﾘｼ","kana_address":"ｷｸﾏﾁｮｳﾅｶﾞｻｶ","pref":"愛媛県","city":"今治市","address":"菊間町長坂"},
{"zip_code":"7992308","kana_pref":"ｴﾋﾒｹﾝ","kana_city":"ｲﾏﾊﾞﾘｼ","kana_address":"ｷｸﾏﾁｮｳﾅｶﾉｶﾜ","pref":"愛媛県","city":"今治市","address":"菊間町中川"},
{"zip_code":"7992311","kana_pref":"ｴﾋﾒｹﾝ","kana_city":"ｲﾏﾊﾞﾘｼ","kana_address":"ｷｸﾏﾁｮｳﾆｼﾔﾏ","pref":"愛媛県","city":"今治市","address":"菊間町西山"},
{"zip_code":"7992303","kana_pref":"ｴﾋﾒｹﾝ","kana_city":"ｲﾏﾊﾞﾘｼ","kana_address":"ｷｸﾏﾁｮｳﾊﾏ","pref":"愛媛県","city":"今治市","address":"菊間町浜"},
{"zip_code":"7992305","kana_pref":"ｴﾋﾒｹﾝ","kana_city":"ｲﾏﾊﾞﾘｼ","kana_address":"ｷｸﾏﾁｮｳﾏﾂｵ","pref":"愛媛県","city":"今治市","address":"菊間町松尾"},
{"zip_code":"7991502","kana_pref":"ｴﾋﾒｹﾝ","kana_city":"ｲﾏﾊﾞﾘｼ","kana_address":"ｷﾀﾑﾗ","pref":"愛媛県","city":"今治市","address":"喜田村"},
{"zip_code":"7991501","kana_pref":"ｴﾋﾒｹﾝ","kana_city":"ｲﾏﾊﾞﾘｼ","kana_address":"ｷﾀﾑﾗ","pref":"愛媛県","city":"今治市","address":"喜田村"},
{"zip_code":"7992122","kana_pref":"ｴﾋﾒｹﾝ","kana_city":"ｲﾏﾊﾞﾘｼ","kana_address":"ｸﾙｼﾏ","pref":"愛媛県","city":"今治市","address":"来島"},
{"zip_code":"7992121","kana_pref":"ｴﾋﾒｹﾝ","kana_city":"ｲﾏﾊﾞﾘｼ","kana_address":"ｸﾙｼﾏ","pref":"愛媛県","city":"今治市","address":"来島"},
{"zip_code":"7991523","kana_pref":"ｴﾋﾒｹﾝ","kana_city":"ｲﾏﾊﾞﾘｼ","kana_address":"ｺﾞｳｻﾞｸﾗｲ","pref":"愛媛県","city":"今治市","address":"郷桜井"},
{"zip_code":"7992111","kana_pref":"ｴﾋﾒｹﾝ","kana_city":"ｲﾏﾊﾞﾘｼ","kana_address":"ｺｳﾗﾁｮｳ","pref":"愛媛県","city":"今治市","address":"小浦町"},
{"zip_code":"7991533","kana_pref":"ｴﾋﾒｹﾝ","kana_city":"ｲﾏﾊﾞﾘｼ","kana_address":"ｺｸﾌﾞ","pref":"愛媛県","city":"今治市","address":"国分"},
{"zip_code":"7991601","kana_pref":"ｴﾋﾒｹﾝ","kana_city":"ｲﾏﾊﾞﾘｼ","kana_address":"ｺﾔ","pref":"愛媛県","city":"今治市","address":"古谷"},
{"zip_code":"7991522","kana_pref":"ｴﾋﾒｹﾝ","kana_city":"ｲﾏﾊﾞﾘｼ","kana_address":"ｻｸﾗｲ","pref":"愛媛県","city":"今治市","address":"桜井"},
{"zip_code":"7991524","kana_pref":"ｴﾋﾒｹﾝ","kana_city":"ｲﾏﾊﾞﾘｼ","kana_address":"ｻｸﾗｲ","pref":"愛媛県","city":"今治市","address":"桜井"},
{"zip_code":"7991534","kana_pref":"ｴﾋﾒｹﾝ","kana_city":"ｲﾏﾊﾞﾘｼ","kana_address":"ｻｸﾗｲﾀﾞﾝﾁ","pref":"愛媛県","city":"今治市","address":"桜井団地"},
{"zip_code":"7992117","kana_pref":"ｴﾋﾒｹﾝ","kana_city":"ｲﾏﾊﾞﾘｼ","kana_address":"ｼﾞﾎﾞﾘ","pref":"愛媛県","city":"今治市","address":"地堀"},
{"zip_code":"7992114","kana_pref":"ｴﾋﾒｹﾝ","kana_city":"ｲﾏﾊﾞﾘｼ","kana_address":"ｿﾏﾀﾞ","pref":"愛媛県","city":"今治市","address":"杣田"},
{"zip_code":"7991512","kana_pref":"ｴﾋﾒｹﾝ","kana_city":"ｲﾏﾊﾞﾘｼ","kana_address":"ﾀｶｲﾁ","pref":"愛媛県","city":"今治市","address":"高市"},
{"zip_code":"7992113","kana_pref":"ｴﾋﾒｹﾝ","kana_city":"ｲﾏﾊﾞﾘｼ","kana_address":"ﾀｶﾍﾞ","pref":"愛媛県","city":"今治市","address":"高部"},
{"zip_code":"7991536","kana_pref":"ｴﾋﾒｹﾝ","kana_city":"ｲﾏﾊﾞﾘｼ","kana_address":"ﾀﾞﾝ","pref":"愛媛県","city":"今治市","address":"旦"},
{"zip_code":"7991503","kana_pref":"ｴﾋﾒｹﾝ","kana_city":"ｲﾏﾊﾞﾘｼ","kana_address":"ﾄﾐﾀｼﾝﾐﾅﾄ","pref":"愛媛県","city":"今治市","address":"富田新港"},
{"zip_code":"7991527","kana_pref":"ｴﾋﾒｹﾝ","kana_city":"ｲﾏﾊﾞﾘｼ","kana_address":"ﾅｶﾞｻﾜ","pref":"愛媛県","city":"今治市","address":"長沢"},
{"zip_code":"7992115","kana_pref":"ｴﾋﾒｹﾝ","kana_city":"ｲﾏﾊﾞﾘｼ","kana_address":"ﾅｶﾎﾞﾘ","pref":"愛媛県","city":"今治市","address":"中堀"},
{"zip_code":"7992110","kana_pref":"ｴﾋﾒｹﾝ","kana_city":"ｲﾏﾊﾞﾘｼ","kana_address":"ﾅﾐｶﾀﾁｮｳｵｵｳﾗ","pref":"愛媛県","city":"今治市","address":"波方町大浦"},
{"zip_code":"7992108","kana_pref":"ｴﾋﾒｹﾝ","kana_city":"ｲﾏﾊﾞﾘｼ","kana_address":"ﾅﾐｶﾀﾁｮｳｵｶ","pref":"愛媛県","city":"今治市","address":"波方町岡"},
{"zip_code":"7992103","kana_pref":"ｴﾋﾒｹﾝ","kana_city":"ｲﾏﾊﾞﾘｼ","kana_address":"ﾅﾐｶﾀﾁｮｳｵﾍﾞ","pref":"愛媛県","city":"今治市","address":"波方町小部"},
{"zip_code":"7992110","kana_pref":"ｴﾋﾒｹﾝ","kana_city":"ｲﾏﾊﾞﾘｼ","kana_address":"ﾅﾐｶﾀﾁｮｳｺﾞｳ","pref":"愛媛県","city":"今治市","address":"波方町郷"},
{"zip_code":"7992101","kana_pref":"ｴﾋﾒｹﾝ","kana_city":"ｲﾏﾊﾞﾘｼ","kana_address":"ﾅﾐｶﾀﾁｮｳﾅﾐｶﾀ","pref":"愛媛県","city":"今治市","address":"波方町波方"},
{"zip_code":"7992107","kana_pref":"ｴﾋﾒｹﾝ","kana_city":"ｲﾏﾊﾞﾘｼ","kana_address":"ﾅﾐｶﾀﾁｮｳﾆｼｳﾗ","pref":"愛媛県","city":"今治市","address":"波方町西浦"},
{"zip_code":"7992102","kana_pref":"ｴﾋﾒｹﾝ","kana_city":"ｲﾏﾊﾞﾘｼ","kana_address":"ﾅﾐｶﾀﾁｮｳﾋﾉｸﾁ","pref":"愛媛県","city":"今治市","address":"波方町樋口"},
{"zip_code":"7992105","kana_pref":"ｴﾋﾒｹﾝ","kana_city":"ｲﾏﾊﾞﾘｼ","kana_address":"ﾅﾐｶﾀﾁｮｳﾏﾃｶﾞﾀ","pref":"愛媛県","city":"今治市","address":"波方町馬刀潟"},
{"zip_code":"7992104","kana_pref":"ｴﾋﾒｹﾝ","kana_city":"ｲﾏﾊﾞﾘｼ","kana_address":"ﾅﾐｶﾀﾁｮｳﾐﾔｻﾞｷ","pref":"愛媛県","city":"今治市","address":"波方町宮崎"},
{"zip_code":"7992106","kana_pref":"ｴﾋﾒｹﾝ","kana_city":"ｲﾏﾊﾞﾘｼ","kana_address":"ﾅﾐｶﾀﾁｮｳﾓﾘｱｹﾞ","pref":"愛媛県","city":"今治市","address":"波方町森上"},
{"zip_code":"7992109","kana_pref":"ｴﾋﾒｹﾝ","kana_city":"ｲﾏﾊﾞﾘｼ","kana_address":"ﾅﾐｶﾀﾁｮｳﾖｳﾛｳ","pref":"愛媛県","city":"今治市","address":"波方町養老"},
{"zip_code":"7991535","kana_pref":"ｴﾋﾒｹﾝ","kana_city":"ｲﾏﾊﾞﾘｼ","kana_address":"ﾉﾎﾞﾘﾊﾞﾀ","pref":"愛媛県","city":"今治市","address":"登畑"},
{"zip_code":"7991504","kana_pref":"ｴﾋﾒｹﾝ","kana_city":"ｲﾏﾊﾞﾘｼ","kana_address":"ﾊｲｼ","pref":"愛媛県","city":"今治市","address":"拝志"},
{"zip_code":"7992112","kana_pref":"ｴﾋﾒｹﾝ","kana_city":"ｲﾏﾊﾞﾘｼ","kana_address":"ﾊｼﾊﾏ","pref":"愛媛県","city":"今治市","address":"波止浜"},
{"zip_code":"7992118","kana_pref":"ｴﾋﾒｹﾝ","kana_city":"ｲﾏﾊﾞﾘｼ","kana_address":"ﾊｼﾊﾏ","pref":"愛媛県","city":"今治市","address":"波止浜"},
{"zip_code":"7991506","kana_pref":"ｴﾋﾒｹﾝ","kana_city":"ｲﾏﾊﾞﾘｼ","kana_address":"ﾋｶﾞｼﾑﾗ","pref":"愛媛県","city":"今治市","address":"東村"},
{"zip_code":"7991505","kana_pref":"ｴﾋﾒｹﾝ","kana_city":"ｲﾏﾊﾞﾘｼ","kana_address":"ﾋｶﾞｼﾑﾗ","pref":"愛媛県","city":"今治市","address":"東村"},
{"zip_code":"7991507","kana_pref":"ｴﾋﾒｹﾝ","kana_city":"ｲﾏﾊﾞﾘｼ","kana_address":"ﾋｶﾞｼﾑﾗﾐﾅﾐ","pref":"愛媛県","city":"今治市","address":"東村南"},
{"zip_code":"7991521","kana_pref":"ｴﾋﾒｹﾝ","kana_city":"ｲﾏﾊﾞﾘｼ","kana_address":"ﾌﾙｺｸﾌﾞ","pref":"愛媛県","city":"今治市","address":"古国分"},
{"zip_code":"7991526","kana_pref":"ｴﾋﾒｹﾝ","kana_city":"ｲﾏﾊﾞﾘｼ","kana_address":"ﾏｺﾞﾍﾞｴｻｸ","pref":"愛媛県","city":"今治市","address":"孫兵衛作"},
{"zip_code":"7991514","kana_pref":"ｴﾋﾒｹﾝ","kana_city":"ｲﾏﾊﾞﾘｼ","kana_address":"ﾏﾁﾔ","pref":"愛媛県","city":"今治市","address":"町谷"},
{"zip_code":"7991513","kana_pref":"ｴﾋﾒｹﾝ","kana_city":"ｲﾏﾊﾞﾘｼ","kana_address":"ﾏﾂｷﾞ","pref":"愛媛県","city":"今治市","address":"松木"},
{"zip_code":"7991537","kana_pref":"ｴﾋﾒｹﾝ","kana_city":"ｲﾏﾊﾞﾘｼ","kana_address":"ﾐﾔｶﾞｻﾞｷ","pref":"愛媛県","city":"今治市","address":"宮ケ崎"},
{"zip_code":"7991602","kana_pref":"ｴﾋﾒｹﾝ","kana_city":"ｲﾏﾊﾞﾘｼ","kana_address":"ﾔﾏｸﾞﾁ","pref":"愛媛県","city":"今治市","address":"山口"},
{"zip_code":"7991525","kana_pref":"ｴﾋﾒｹﾝ","kana_city":"ｲﾏﾊﾞﾘｼ","kana_address":"ﾕﾉｳﾗ","pref":"愛媛県","city":"今治市","address":"湯ノ浦"},
{"zip_code":"7993763","kana_pref":"ｴﾋﾒｹﾝ","kana_city":"ｳﾜｼﾞﾏｼ","kana_address":"ﾖｼﾀﾞﾁｮｳｱｻｶﾜ","pref":"愛媛県","city":"宇和島市","address":"吉田町浅川"},
{"zip_code":"7993704","kana_pref":"ｴﾋﾒｹﾝ","kana_city":"ｳﾜｼﾞﾏｼ","kana_address":"ﾖｼﾀﾞﾁｮｳｳｵﾀﾅ","pref":"愛媛県","city":"宇和島市","address":"吉田町魚棚"},
{"zip_code":"7993706","kana_pref":"ｴﾋﾒｹﾝ","kana_city":"ｳﾜｼﾞﾏｼ","kana_address":"ﾖｼﾀﾞﾁｮｳｳﾗﾏﾁ","pref":"愛媛県","city":"宇和島市","address":"吉田町裡町"},
{"zip_code":"7993751","kana_pref":"ｴﾋﾒｹﾝ","kana_city":"ｳﾜｼﾞﾏｼ","kana_address":"ﾖｼﾀﾞﾁｮｳｵｷﾑﾗ","pref":"愛媛県","city":"宇和島市","address":"吉田町沖村"},
{"zip_code":"7993772","kana_pref":"ｴﾋﾒｹﾝ","kana_city":"ｳﾜｼﾞﾏｼ","kana_address":"ﾖｼﾀﾞﾁｮｳｵｸｳﾗ","pref":"愛媛県","city":"宇和島市","address":"吉田町奥浦"},
{"zip_code":"7993752","kana_pref":"ｴﾋﾒｹﾝ","kana_city":"ｳﾜｼﾞﾏｼ","kana_address":"ﾖｼﾀﾞﾁｮｳｶﾜﾁ","pref":"愛媛県","city":"宇和島市","address":"吉田町河内"},
{"zip_code":"7993701","kana_pref":"ｴﾋﾒｹﾝ","kana_city":"ｳﾜｼﾞﾏｼ","kana_address":"ﾖｼﾀﾞﾁｮｳｷﾀｺｳｼﾞ","pref":"愛媛県","city":"宇和島市","address":"吉田町北小路"},
{"zip_code":"7993741","kana_pref":"ｴﾋﾒｹﾝ","kana_city":"ｳﾜｼﾞﾏｼ","kana_address":"ﾖｼﾀﾞﾁｮｳｼﾛｳﾗ","pref":"愛媛県","city":"宇和島市","address":"吉田町白浦"},
{"zip_code":"7993730","kana_pref":"ｴﾋﾒｹﾝ","kana_city":"ｳﾜｼﾞﾏｼ","kana_address":"ﾖｼﾀﾞﾁｮｳﾀﾁﾏ","pref":"愛媛県","city":"宇和島市","address":"吉田町立間"},
{"zip_code":"7993710","kana_pref":"ｴﾋﾒｹﾝ","kana_city":"ｳﾜｼﾞﾏｼ","kana_address":"ﾖｼﾀﾞﾁｮｳﾀﾁﾏｼﾞﾘ","pref":"愛媛県","city":"宇和島市","address":"吉田町立間尻"},
{"zip_code":"7993720","kana_pref":"ｴﾋﾒｹﾝ","kana_city":"ｳﾜｼﾞﾏｼ","kana_address":"ﾖｼﾀﾞﾁｮｳﾁﾅｶﾞ","pref":"愛媛県","city":"宇和島市","address":"吉田町知永"},
{"zip_code":"7993707","kana_pref":"ｴﾋﾒｹﾝ","kana_city":"ｳﾜｼﾞﾏｼ","kana_address":"ﾖｼﾀﾞﾁｮｳﾂﾙﾏ","pref":"愛媛県","city":"宇和島市","address":"吉田町鶴間"},
{"zip_code":"7993762","kana_pref":"ｴﾋﾒｹﾝ","kana_city":"ｳﾜｼﾞﾏｼ","kana_address":"ﾖｼﾀﾞﾁｮｳﾂﾙﾏ","pref":"愛媛県","city":"宇和島市","address":"吉田町鶴間"},
{"zip_code":"7993761","kana_pref":"ｴﾋﾒｹﾝ","kana_city":"ｳﾜｼﾞﾏｼ","kana_address":"ﾖｼﾀﾞﾁｮｳﾂﾙﾏ","pref":"愛媛県","city":"宇和島市","address":"吉田町鶴間"},
{"zip_code":"7993771","kana_pref":"ｴﾋﾒｹﾝ","kana_city":"ｳﾜｼﾞﾏｼ","kana_address":"ﾖｼﾀﾞﾁｮｳﾅｷﾞﾐ","pref":"愛媛県","city":"宇和島市","address":"吉田町南君"},
{"zip_code":"7993702","kana_pref":"ｴﾋﾒｹﾝ","kana_city":"ｳﾜｼﾞﾏｼ","kana_address":"ﾖｼﾀﾞﾁｮｳﾆｼｺｳｼﾞ","pref":"愛媛県","city":"宇和島市","address":"吉田町西小路"},
{"zip_code":"7993703","kana_pref":"ｴﾋﾒｹﾝ","kana_city":"ｳﾜｼﾞﾏｼ","kana_address":"ﾖｼﾀﾞﾁｮｳﾋｶﾞｼｺｳｼﾞ","pref":"愛媛県","city":"宇和島市","address":"吉田町東小路"},
{"zip_code":"7993743","kana_pref":"ｴﾋﾒｹﾝ","kana_city":"ｳﾜｼﾞﾏｼ","kana_address":"ﾖｼﾀﾞﾁｮｳﾌｶｳﾗ","pref":"愛媛県","city":"宇和島市","address":"吉田町深浦"},
{"zip_code":"7993742","kana_pref":"ｴﾋﾒｹﾝ","kana_city":"ｳﾜｼﾞﾏｼ","kana_address":"ﾖｼﾀﾞﾁｮｳﾎｹﾂﾞ","pref":"愛媛県","city":"宇和島市","address":"吉田町法花津"},
{"zip_code":"7993705","kana_pref":"ｴﾋﾒｹﾝ","kana_city":"ｳﾜｼﾞﾏｼ","kana_address":"ﾖｼﾀﾞﾁｮｳﾎﾝﾏﾁ","pref":"愛媛県","city":"宇和島市","address":"吉田町本町"},
{"zip_code":"7990650","kana_pref":"ｴﾋﾒｹﾝ","kana_city":"ﾆｲﾊﾏｼ","kana_address":"ﾍﾞｯｼﾔﾏ","pref":"愛媛県","city":"新居浜市","address":"別子山"},
{"zip_code":"7991345","kana_pref":"ｴﾋﾒｹﾝ","kana_city":"ｻｲｼﾞｮｳｼ","kana_address":"ｱｶﾘｶﾞﾜ","pref":"愛媛県","city":"西条市","address":"明理川"},
{"zip_code":"7991364","kana_pref":"ｴﾋﾒｹﾝ","kana_city":"ｻｲｼﾞｮｳｼ","kana_address":"ｲｼﾀﾞ","pref":"愛媛県","city":"西条市","address":"石田"},
{"zip_code":"7991335","kana_pref":"ｴﾋﾒｹﾝ","kana_city":"ｻｲｼﾞｮｳｼ","kana_address":"ｲｼﾉﾍﾞ","pref":"愛媛県","city":"西条市","address":"石延"},
{"zip_code":"7991362","kana_pref":"ｴﾋﾒｹﾝ","kana_city":"ｻｲｼﾞｮｳｼ","kana_address":"ｲﾏｻﾞｲｹ","pref":"愛媛県","city":"西条市","address":"今在家"},
{"zip_code":"7991344","kana_pref":"ｴﾋﾒｹﾝ","kana_city":"ｻｲｼﾞｮｳｼ","kana_address":"ｴﾝｶｲｼﾞ","pref":"愛媛県","city":"西条市","address":"円海寺"},
{"zip_code":"7991342","kana_pref":"ｴﾋﾒｹﾝ","kana_city":"ｻｲｼﾞｮｳｼ","kana_address":"ｵｵｼﾝﾃﾞﾝ","pref":"愛媛県","city":"西条市","address":"大新田"},
{"zip_code":"7991312","kana_pref":"ｴﾋﾒｹﾝ","kana_city":"ｻｲｼﾞｮｳｼ","kana_address":"ｵｵﾉ","pref":"愛媛県","city":"西条市","address":"大野"},
{"zip_code":"7991336","kana_pref":"ｴﾋﾒｹﾝ","kana_city":"ｻｲｼﾞｮｳｼ","kana_address":"ｶﾐｲﾁ","pref":"愛媛県","city":"西条市","address":"上市"},
{"zip_code":"7991314","kana_pref":"ｴﾋﾒｹﾝ","kana_city":"ｻｲｼﾞｮｳｼ","kana_address":"ｶﾜﾉｳﾁ","pref":"愛媛県","city":"西条市","address":"河之内"},
{"zip_code":"7991303","kana_pref":"ｴﾋﾒｹﾝ","kana_city":"ｻｲｼﾞｮｳｼ","kana_address":"ｶﾜﾗﾂﾞ","pref":"愛媛県","city":"西条市","address":"河原津"},
{"zip_code":"7991304","kana_pref":"ｴﾋﾒｹﾝ","kana_city":"ｻｲｼﾞｮｳｼ","kana_address":"ｶﾜﾗﾂﾞｼﾝﾃﾞﾝ","pref":"愛媛県","city":"西条市","address":"河原津新田"},
{"zip_code":"7991343","kana_pref":"ｴﾋﾒｹﾝ","kana_city":"ｻｲｼﾞｮｳｼ","kana_address":"ｷﾀﾀﾞｲ","pref":"愛媛県","city":"西条市","address":"喜多台"},
{"zip_code":"7991302","kana_pref":"ｴﾋﾒｹﾝ","kana_city":"ｻｲｼﾞｮｳｼ","kana_address":"ｸｽ","pref":"愛媛県","city":"西条市","address":"楠"},
{"zip_code":"7991322","kana_pref":"ｴﾋﾒｹﾝ","kana_city":"ｻｲｼﾞｮｳｼ","kana_address":"ｸﾆﾔｽ","pref":"愛媛県","city":"西条市","address":"国安"},
{"zip_code":"7991315","kana_pref":"ｴﾋﾒｹﾝ","kana_city":"ｻｲｼﾞｮｳｼ","kana_address":"ｸﾛﾀﾞﾆ","pref":"愛媛県","city":"西条市","address":"黒谷"},
{"zip_code":"7991323","kana_pref":"ｴﾋﾒｹﾝ","kana_city":"ｻｲｼﾞｮｳｼ","kana_address":"ｸﾜﾑﾗ","pref":"愛媛県","city":"西条市","address":"桑村"},
{"zip_code":"7991107","kana_pref":"ｴﾋﾒｹﾝ","kana_city":"ｻｲｼﾞｮｳｼ","kana_address":"ｺﾏﾂﾁｮｳｱｶｵ","pref":"愛媛県","city":"西条市","address":"小松町明穂"},
{"zip_code":"7991111","kana_pref":"ｴﾋﾒｹﾝ","kana_city":"ｻｲｼﾞｮｳｼ","kana_address":"ｺﾏﾂﾁｮｳｲｼﾂﾞﾁ","pref":"愛媛県","city":"西条市","address":"小松町石鎚"},
{"zip_code":"7991112","kana_pref":"ｴﾋﾒｹﾝ","kana_city":"ｻｲｼﾞｮｳｼ","kana_address":"ｺﾏﾂﾁｮｳｲｼﾂﾞﾁ","pref":"愛媛県","city":"西条市","address":"小松町石鎚"},
{"zip_code":"7991105","kana_pref":"ｴﾋﾒｹﾝ","kana_city":"ｻｲｼﾞｮｳｼ","kana_address":"ｺﾏﾂﾁｮｳｵｵｺﾞ","pref":"愛媛県","city":"西条市","address":"小松町大郷"},
{"zip_code":"7991106","kana_pref":"ｴﾋﾒｹﾝ","kana_city":"ｻｲｼﾞｮｳｼ","kana_address":"ｺﾏﾂﾁｮｳｵｵﾄ","pref":"愛媛県","city":"西条市","address":"小松町大頭"},
{"zip_code":"7991103","kana_pref":"ｴﾋﾒｹﾝ","kana_city":"ｻｲｼﾞｮｳｼ","kana_address":"ｺﾏﾂﾁｮｳｷﾀｶﾞﾜ","pref":"愛媛県","city":"西条市","address":"小松町北川"},
{"zip_code":"7991101","kana_pref":"ｴﾋﾒｹﾝ","kana_city":"ｻｲｼﾞｮｳｼ","kana_address":"ｺﾏﾂﾁｮｳｼﾝﾔｼｷ","pref":"愛媛県","city":"西条市","address":"小松町新屋敷"},
{"zip_code":"7991102","kana_pref":"ｴﾋﾒｹﾝ","kana_city":"ｻｲｼﾞｮｳｼ","kana_address":"ｺﾏﾂﾁｮｳﾐﾅﾐｶﾞﾜ","pref":"愛媛県","city":"西条市","address":"小松町南川"},
{"zip_code":"7991104","kana_pref":"ｴﾋﾒｹﾝ","kana_city":"ｻｲｼﾞｮｳｼ","kana_address":"ｺﾏﾂﾁｮｳﾐｮｳｸﾞﾁ","pref":"愛媛県","city":"西条市","address":"小松町妙口"},
{"zip_code":"7991108","kana_pref":"ｴﾋﾒｹﾝ","kana_city":"ｻｲｼﾞｮｳｼ","kana_address":"ｺﾏﾂﾁｮｳﾔｽｲ","pref":"愛媛県","city":"西条市","address":"小松町安井"},
{"zip_code":"7991317","kana_pref":"ｴﾋﾒｹﾝ","kana_city":"ｻｲｼﾞｮｳｼ","kana_address":"ｼﾞﾂﾎﾟｳｼﾞ","pref":"愛媛県","city":"西条市","address":"実報寺"},
{"zip_code":"7991371","kana_pref":"ｴﾋﾒｹﾝ","kana_city":"ｻｲｼﾞｮｳｼ","kana_address":"ｼｭｳ","pref":"愛媛県","city":"西条市","address":"周布"},
{"zip_code":"7991325","kana_pref":"ｴﾋﾒｹﾝ","kana_city":"ｻｲｼﾞｮｳｼ","kana_address":"ｼﾝｲﾁ","pref":"愛媛県","city":"西条市","address":"新市"},
{"zip_code":"7991331","kana_pref":"ｴﾋﾒｹﾝ","kana_city":"ｻｲｼﾞｮｳｼ","kana_address":"ｼﾝﾏﾁ","pref":"愛媛県","city":"西条市","address":"新町"},
{"zip_code":"7991324","kana_pref":"ｴﾋﾒｹﾝ","kana_city":"ｻｲｼﾞｮｳｼ","kana_address":"ﾀｶﾀ","pref":"愛媛県","city":"西条市","address":"高田"},
{"zip_code":"7991321","kana_pref":"ｴﾋﾒｹﾝ","kana_city":"ｻｲｼﾞｮｳｼ","kana_address":"ﾀｶﾀ","pref":"愛媛県","city":"西条市","address":"高田"},
{"zip_code":"7991363","kana_pref":"ｴﾋﾒｹﾝ","kana_city":"ｻｲｼﾞｮｳｼ","kana_address":"ﾀﾏﾉｴ","pref":"愛媛県","city":"西条市","address":"玉之江"},
{"zip_code":"7991313","kana_pref":"ｴﾋﾒｹﾝ","kana_city":"ｻｲｼﾞｮｳｼ","kana_address":"ﾀﾞﾝﾉｳｴ","pref":"愛媛県","city":"西条市","address":"旦之上"},
{"zip_code":"7991341","kana_pref":"ｴﾋﾒｹﾝ","kana_city":"ｻｲｼﾞｮｳｼ","kana_address":"ﾆｭｳｶﾞﾜ","pref":"愛媛県","city":"西条市","address":"壬生川"},
{"zip_code":"7991361","kana_pref":"ｴﾋﾒｹﾝ","kana_city":"ｻｲｼﾞｮｳｼ","kana_address":"ﾋﾛｴ","pref":"愛媛県","city":"西条市","address":"広江"},
{"zip_code":"7991334","kana_pref":"ｴﾋﾒｹﾝ","kana_city":"ｻｲｼﾞｮｳｼ","kana_address":"ﾋﾛｵｶ","pref":"愛媛県","city":"西条市","address":"広岡"},
{"zip_code":"7991316","kana_pref":"ｴﾋﾒｹﾝ","kana_city":"ｻｲｼﾞｮｳｼ","kana_address":"ﾌｸｼﾞｮｳｼﾞ","pref":"愛媛県","city":"西条市","address":"福成寺"},
{"zip_code":"7991354","kana_pref":"ｴﾋﾒｹﾝ","kana_city":"ｻｲｼﾞｮｳｼ","kana_address":"ﾎｳｼﾞｮｳ","pref":"愛媛県","city":"西条市","address":"北条"},
{"zip_code":"7991351","kana_pref":"ｴﾋﾒｹﾝ","kana_city":"ｻｲｼﾞｮｳｼ","kana_address":"ﾐﾂﾔ","pref":"愛媛県","city":"西条市","address":"三津屋"},
{"zip_code":"7991352","kana_pref":"ｴﾋﾒｹﾝ","kana_city":"ｻｲｼﾞｮｳｼ","kana_address":"ﾐﾂﾔﾋｶﾞｼ","pref":"愛媛県","city":"西条市","address":"三津屋東"},
{"zip_code":"7991353","kana_pref":"ｴﾋﾒｹﾝ","kana_city":"ｻｲｼﾞｮｳｼ","kana_address":"ﾐﾂﾔﾐﾅﾐ","pref":"愛媛県","city":"西条市","address":"三津屋南"},
{"zip_code":"7991311","kana_pref":"ｴﾋﾒｹﾝ","kana_city":"ｻｲｼﾞｮｳｼ","kana_address":"ﾐﾔﾉｳﾁ","pref":"愛媛県","city":"西条市","address":"宮之内"},
{"zip_code":"7991301","kana_pref":"ｴﾋﾒｹﾝ","kana_city":"ｻｲｼﾞｮｳｼ","kana_address":"ﾐﾖｼ","pref":"愛媛県","city":"西条市","address":"三芳"},
{"zip_code":"7991333","kana_pref":"ｴﾋﾒｹﾝ","kana_city":"ｻｲｼﾞｮｳｼ","kana_address":"ﾔｽﾓﾁ","pref":"愛媛県","city":"西条市","address":"安用"},
{"zip_code":"7991332","kana_pref":"ｴﾋﾒｹﾝ","kana_city":"ｻｲｼﾞｮｳｼ","kana_address":"ﾔｽﾓﾁﾃﾞｻｸ","pref":"愛媛県","city":"西条市","address":"安用出作"},
{"zip_code":"7991372","kana_pref":"ｴﾋﾒｹﾝ","kana_city":"ｻｲｼﾞｮｳｼ","kana_address":"ﾖｼﾀﾞ","pref":"愛媛県","city":"西条市","address":"吉田"},
{"zip_code":"7993421","kana_pref":"ｴﾋﾒｹﾝ","kana_city":"ｵｵｽﾞｼ","kana_address":"ｶｲｶﾜｺｳ","pref":"愛媛県","city":"大洲市","address":"戒川甲"},
{"zip_code":"7993433","kana_pref":"ｴﾋﾒｹﾝ","kana_city":"ｵｵｽﾞｼ","kana_address":"ｼﾊﾞｵﾂ","pref":"愛媛県","city":"大洲市","address":"柴乙"},
{"zip_code":"7993432","kana_pref":"ｴﾋﾒｹﾝ","kana_city":"ｵｵｽﾞｼ","kana_address":"ｼﾊﾞｺｳ","pref":"愛媛県","city":"大洲市","address":"柴甲"},
{"zip_code":"7993431","kana_pref":"ｴﾋﾒｹﾝ","kana_city":"ｵｵｽﾞｼ","kana_address":"ｼﾗﾀｷｺｳ","pref":"愛媛県","city":"大洲市","address":"白滝甲"},
{"zip_code":"7993462","kana_pref":"ｴﾋﾒｹﾝ","kana_city":"ｵｵｽﾞｼ","kana_address":"ﾄﾖｼｹﾞｵﾂ","pref":"愛媛県","city":"大洲市","address":"豊茂乙"},
{"zip_code":"7993461","kana_pref":"ｴﾋﾒｹﾝ","kana_city":"ｵｵｽﾞｼ","kana_address":"ﾄﾖｼｹﾞｺｳ","pref":"愛媛県","city":"大洲市","address":"豊茂甲"},
{"zip_code":"7993464","kana_pref":"ｴﾋﾒｹﾝ","kana_city":"ｵｵｽﾞｼ","kana_address":"ﾄﾖｼｹﾞﾃｲ","pref":"愛媛県","city":"大洲市","address":"豊茂丁"},
{"zip_code":"7993463","kana_pref":"ｴﾋﾒｹﾝ","kana_city":"ｵｵｽﾞｼ","kana_address":"ﾄﾖｼｹﾞﾍｲ","pref":"愛媛県","city":"大洲市","address":"豊茂丙"},
{"zip_code":"7993402","kana_pref":"ｴﾋﾒｹﾝ","kana_city":"ｵｵｽﾞｼ","kana_address":"ﾅｶﾞﾊﾏｵﾂ","pref":"愛媛県","city":"大洲市","address":"長浜乙"},
{"zip_code":"7993401","kana_pref":"ｴﾋﾒｹﾝ","kana_city":"ｵｵｽﾞｼ","kana_address":"ﾅｶﾞﾊﾏｺｳ","pref":"愛媛県","city":"大洲市","address":"長浜甲"},
{"zip_code":"7993470","kana_pref":"ｴﾋﾒｹﾝ","kana_city":"ｵｵｽﾞｼ","kana_address":"ﾅｶﾞﾊﾏﾁｮｳｱｵｼﾏ","pref":"愛媛県","city":"大洲市","address":"長浜町青島"},
{"zip_code":"7993456","kana_pref":"ｴﾋﾒｹﾝ","kana_city":"ｵｵｽﾞｼ","kana_address":"ﾅｶﾞﾊﾏﾁｮｳｲｽﾞﾐｵﾂ","pref":"愛媛県","city":"大洲市","address":"長浜町出海乙"},
{"zip_code":"7993455","kana_pref":"ｴﾋﾒｹﾝ","kana_city":"ｵｵｽﾞｼ","kana_address":"ﾅｶﾞﾊﾏﾁｮｳｲｽﾞﾐｺｳ","pref":"愛媛県","city":"大洲市","address":"長浜町出海甲"},
{"zip_code":"7993422","kana_pref":"ｴﾋﾒｹﾝ","kana_city":"ｵｵｽﾞｼ","kana_address":"ﾅｶﾞﾊﾏﾁｮｳｵｵｺﾞｼｺｳ","pref":"愛媛県","city":"大洲市","address":"長浜町大越甲"},
{"zip_code":"7993405","kana_pref":"ｴﾋﾒｹﾝ","kana_city":"ｵｵｽﾞｼ","kana_address":"ﾅｶﾞﾊﾏﾁｮｳｵｷｳﾗｵﾂ","pref":"愛媛県","city":"大洲市","address":"長浜町沖浦乙"},
{"zip_code":"7993404","kana_pref":"ｴﾋﾒｹﾝ","kana_city":"ｵｵｽﾞｼ","kana_address":"ﾅｶﾞﾊﾏﾁｮｳｵｷｳﾗｺｳ","pref":"愛媛県","city":"大洲市","address":"長浜町沖浦甲"},
{"zip_code":"7993406","kana_pref":"ｴﾋﾒｹﾝ","kana_city":"ｵｵｽﾞｼ","kana_address":"ﾅｶﾞﾊﾏﾁｮｳｵｷｳﾗﾍｲ","pref":"愛媛県","city":"大洲市","address":"長浜町沖浦丙"},
{"zip_code":"7993453","kana_pref":"ｴﾋﾒｹﾝ","kana_city":"ｵｵｽﾞｼ","kana_address":"ﾅｶﾞﾊﾏﾁｮｳｸｼｭｳｵﾂ","pref":"愛媛県","city":"大洲市","address":"長浜町櫛生乙"},
{"zip_code":"7993452","kana_pref":"ｴﾋﾒｹﾝ","kana_city":"ｵｵｽﾞｼ","kana_address":"ﾅｶﾞﾊﾏﾁｮｳｸｼｭｳｺｳ","pref":"愛媛県","city":"大洲市","address":"長浜町櫛生甲"},
{"zip_code":"7993454","kana_pref":"ｴﾋﾒｹﾝ","kana_city":"ｵｵｽﾞｼ","kana_address":"ﾅｶﾞﾊﾏﾁｮｳｸｼｭｳﾍｲ","pref":"愛媛県","city":"大洲市","address":"長浜町櫛生丙"},
{"zip_code":"7993407","kana_pref":"ｴﾋﾒｹﾝ","kana_city":"ｵｵｽﾞｼ","kana_address":"ﾅｶﾞﾊﾏﾁｮｳｸﾛﾝﾀｺｳ","pref":"愛媛県","city":"大洲市","address":"長浜町黒田甲"},
{"zip_code":"7993411","kana_pref":"ｴﾋﾒｹﾝ","kana_city":"ｵｵｽﾞｼ","kana_address":"ﾅｶﾞﾊﾏﾁｮｳｺﾝﾎﾞｳｺｳ","pref":"愛媛県","city":"大洲市","address":"長浜町今坊甲"},
{"zip_code":"7993441","kana_pref":"ｴﾋﾒｹﾝ","kana_city":"ｵｵｽﾞｼ","kana_address":"ﾅｶﾞﾊﾏﾁｮｳｼﾓｽｶｲｺｳ","pref":"愛媛県","city":"大洲市","address":"長浜町下須戒甲"},
{"zip_code":"7993444","kana_pref":"ｴﾋﾒｹﾝ","kana_city":"ｵｵｽﾞｼ","kana_address":"ﾅｶﾞﾊﾏﾁｮｳｼﾞｮﾛﾏﾂｺｳ","pref":"愛媛県","city":"大洲市","address":"長浜町上老松甲"},
{"zip_code":"7993451","kana_pref":"ｴﾋﾒｹﾝ","kana_city":"ｵｵｽﾞｼ","kana_address":"ﾅｶﾞﾊﾏﾁｮｳｽｻﾜﾍｲ","pref":"愛媛県","city":"大洲市","address":"長浜町須沢丙"},
{"zip_code":"7993413","kana_pref":"ｴﾋﾒｹﾝ","kana_city":"ｵｵｽﾞｼ","kana_address":"ﾅｶﾞﾊﾏﾁｮｳﾀｸﾐ","pref":"愛媛県","city":"大洲市","address":"長浜町拓海"},
{"zip_code":"7993403","kana_pref":"ｴﾋﾒｹﾝ","kana_city":"ｵｵｽﾞｼ","kana_address":"ﾅｶﾞﾊﾏﾁｮｳﾆｷﾞｭｳｺｳ","pref":"愛媛県","city":"大洲市","address":"長浜町仁久甲"},
{"zip_code":"7993412","kana_pref":"ｴﾋﾒｹﾝ","kana_city":"ｵｵｽﾞｼ","kana_address":"ﾅｶﾞﾊﾏﾁｮｳﾊﾙﾐ","pref":"愛媛県","city":"大洲市","address":"長浜町晴海"},
{"zip_code":"7993442","kana_pref":"ｴﾋﾒｹﾝ","kana_city":"ｵｵｽﾞｼ","kana_address":"ﾅｶﾞﾊﾏﾁｮｳﾎｽﾞﾐｺｳ","pref":"愛媛県","city":"大洲市","address":"長浜町穂積甲"},
{"zip_code":"7993443","kana_pref":"ｴﾋﾒｹﾝ","kana_city":"ｵｵｽﾞｼ","kana_address":"ﾅｶﾞﾊﾏﾁｮｳﾎﾂﾞﾐｵﾂ","pref":"愛媛県","city":"大洲市","address":"長浜町穂積乙"},
{"zip_code":"7993100","kana_pref":"ｴﾋﾒｹﾝ","kana_city":"ｲﾖｼ","kana_address":"","pref":"愛媛県","city":"伊予市","address":""},
{"zip_code":"7993122","kana_pref":"ｴﾋﾒｹﾝ","kana_city":"ｲﾖｼ","kana_address":"ｲﾁﾊﾞ","pref":"愛媛県","city":"伊予市","address":"市場"},
{"zip_code":"7993121","kana_pref":"ｴﾋﾒｹﾝ","kana_city":"ｲﾖｼ","kana_address":"ｲﾅﾘ","pref":"愛媛県","city":"伊予市","address":"稲荷"},
{"zip_code":"7993103","kana_pref":"ｴﾋﾒｹﾝ","kana_city":"ｲﾖｼ","kana_address":"ｳｴﾉ","pref":"愛媛県","city":"伊予市","address":"上野"},
{"zip_code":"7993136","kana_pref":"ｴﾋﾒｹﾝ","kana_city":"ｲﾖｼ","kana_address":"ｳﾉｻｷ","pref":"愛媛県","city":"伊予市","address":"鵜崎"},
{"zip_code":"7993131","kana_pref":"ｴﾋﾒｹﾝ","kana_city":"ｲﾖｼ","kana_address":"ｵｵﾋﾗ","pref":"愛媛県","city":"伊予市","address":"大平"},
{"zip_code":"7993127","kana_pref":"ｴﾋﾒｹﾝ","kana_city":"ｲﾖｼ","kana_address":"ｵｻｷ","pref":"愛媛県","city":"伊予市","address":"尾崎"},
{"zip_code":"7993112","kana_pref":"ｴﾋﾒｹﾝ","kana_city":"ｲﾖｼ","kana_address":"ｶﾐｱｶﾞﾜ","pref":"愛媛県","city":"伊予市","address":"上吾川"},
{"zip_code":"7993134","kana_pref":"ｴﾋﾒｹﾝ","kana_city":"ｲﾖｼ","kana_address":"ｶﾐｶﾗｶﾜ","pref":"愛媛県","city":"伊予市","address":"上唐川"},
{"zip_code":"7993104","kana_pref":"ｴﾋﾒｹﾝ","kana_city":"ｲﾖｼ","kana_address":"ｶﾐﾐﾀﾆ","pref":"愛媛県","city":"伊予市","address":"上三谷"},
{"zip_code":"7993113","kana_pref":"ｴﾋﾒｹﾝ","kana_city":"ｲﾖｼ","kana_address":"ｺﾐﾅﾄ","pref":"愛媛県","city":"伊予市","address":"米湊"},
{"zip_code":"7993111","kana_pref":"ｴﾋﾒｹﾝ","kana_city":"ｲﾖｼ","kana_address":"ｼﾓｱｶﾞﾜ","pref":"愛媛県","city":"伊予市","address":"下吾川"},
{"zip_code":"7993133","kana_pref":"ｴﾋﾒｹﾝ","kana_city":"ｲﾖｼ","kana_address":"ｼﾓｶﾗｶﾜ","pref":"愛媛県","city":"伊予市","address":"下唐川"},
{"zip_code":"7993105","kana_pref":"ｴﾋﾒｹﾝ","kana_city":"ｲﾖｼ","kana_address":"ｼﾓﾐﾀﾆ","pref":"愛媛県","city":"伊予市","address":"下三谷"},
{"zip_code":"7993123","kana_pref":"ｴﾋﾒｹﾝ","kana_city":"ｲﾖｼ","kana_address":"ﾅｶﾑﾗ","pref":"愛媛県","city":"伊予市","address":"中村"},
{"zip_code":"7993114","kana_pref":"ｴﾋﾒｹﾝ","kana_city":"ｲﾖｼ","kana_address":"ﾅﾀﾞﾏﾁ","pref":"愛媛県","city":"伊予市","address":"灘町"},
{"zip_code":"7993132","kana_pref":"ｴﾋﾒｹﾝ","kana_city":"ｲﾖｼ","kana_address":"ﾋﾗｵｶ","pref":"愛媛県","city":"伊予市","address":"平岡"},
{"zip_code":"7993311","kana_pref":"ｴﾋﾒｹﾝ","kana_city":"ｲﾖｼ","kana_address":"ﾌﾀﾐﾁｮｳｵｵｸﾎﾞ","pref":"愛媛県","city":"伊予市","address":"双海町大久保"},
{"zip_code":"7993202","kana_pref":"ｴﾋﾒｹﾝ","kana_city":"ｲﾖｼ","kana_address":"ﾌﾀﾐﾁｮｳｶﾐﾅﾀﾞ","pref":"愛媛県","city":"伊予市","address":"双海町上灘"},
{"zip_code":"7993313","kana_pref":"ｴﾋﾒｹﾝ","kana_city":"ｲﾖｼ","kana_address":"ﾌﾀﾐﾁｮｳｸｼ","pref":"愛媛県","city":"伊予市","address":"双海町串"},
{"zip_code":"7993314","kana_pref":"ｴﾋﾒｹﾝ","kana_city":"ｲﾖｼ","kana_address":"ﾌﾀﾐﾁｮｳｸｼ","pref":"愛媛県","city":"伊予市","address":"双海町串"},
{"zip_code":"7993312","kana_pref":"ｴﾋﾒｹﾝ","kana_city":"ｲﾖｼ","kana_address":"ﾌﾀﾐﾁｮｳｸｼ","pref":"愛媛県","city":"伊予市","address":"双海町串"},
{"zip_code":"7993201","kana_pref":"ｴﾋﾒｹﾝ","kana_city":"ｲﾖｼ","kana_address":"ﾌﾀﾐﾁｮｳｺｳﾉｶﾜ","pref":"愛媛県","city":"伊予市","address":"双海町高野川"},
{"zip_code":"7993207","kana_pref":"ｴﾋﾒｹﾝ","kana_city":"ｲﾖｼ","kana_address":"ﾌﾀﾐﾁｮｳﾀｶｷﾞｼ","pref":"愛媛県","city":"伊予市","address":"双海町高岸"},
{"zip_code":"7993126","kana_pref":"ｴﾋﾒｹﾝ","kana_city":"ｲﾖｼ","kana_address":"ﾎﾝｸﾞ","pref":"愛媛県","city":"伊予市","address":"本郡"},
{"zip_code":"7993124","kana_pref":"ｴﾋﾒｹﾝ","kana_city":"ｲﾖｼ","kana_address":"ﾐｱｷ","pref":"愛媛県","city":"伊予市","address":"三秋"},
{"zip_code":"7993128","kana_pref":"ｴﾋﾒｹﾝ","kana_city":"ｲﾖｼ","kana_address":"ﾐｼﾏﾏﾁ","pref":"愛媛県","city":"伊予市","address":"三島町"},
{"zip_code":"7993115","kana_pref":"ｴﾋﾒｹﾝ","kana_city":"ｲﾖｼ","kana_address":"ﾐﾅﾄﾏﾁ","pref":"愛媛県","city":"伊予市","address":"湊町"},
{"zip_code":"7993102","kana_pref":"ｴﾋﾒｹﾝ","kana_city":"ｲﾖｼ","kana_address":"ﾐﾔｼﾀ","pref":"愛媛県","city":"伊予市","address":"宮下"},
{"zip_code":"7993125","kana_pref":"ｴﾋﾒｹﾝ","kana_city":"ｲﾖｼ","kana_address":"ﾓﾘ","pref":"愛媛県","city":"伊予市","address":"森"},
{"zip_code":"7993101","kana_pref":"ｴﾋﾒｹﾝ","kana_city":"ｲﾖｼ","kana_address":"ﾔｸﾗ","pref":"愛媛県","city":"伊予市","address":"八倉"},
{"zip_code":"7993135","kana_pref":"ｴﾋﾒｹﾝ","kana_city":"ｲﾖｼ","kana_address":"ﾘｮｳｻﾞﾜ","pref":"愛媛県","city":"伊予市","address":"両沢"},
{"zip_code":"7990400","kana_pref":"ｴﾋﾒｹﾝ","kana_city":"ｼｺｸﾁｭｳｵｳｼ","kana_address":"","pref":"愛媛県","city":"四国中央市","address":""},
{"zip_code":"7990123","kana_pref":"ｴﾋﾒｹﾝ","kana_city":"ｼｺｸﾁｭｳｵｳｼ","kana_address":"ｶﾅﾀﾞﾁｮｳｶﾅｶﾞﾜ","pref":"愛媛県","city":"四国中央市","address":"金田町金川"},
{"zip_code":"7990124","kana_pref":"ｴﾋﾒｹﾝ","kana_city":"ｼｺｸﾁｭｳｵｳｼ","kana_address":"ｶﾅﾀﾞﾁｮｳｻﾝｶｸｼﾞ","pref":"愛媛県","city":"四国中央市","address":"金田町三角寺"},
{"zip_code":"7990122","kana_pref":"ｴﾋﾒｹﾝ","kana_city":"ｼｺｸﾁｭｳｵｳｼ","kana_address":"ｶﾅﾀﾞﾁｮｳﾊﾝﾀﾞ","pref":"愛媛県","city":"四国中央市","address":"金田町半田"},
{"zip_code":"7990412","kana_pref":"ｴﾋﾒｹﾝ","kana_city":"ｼｺｸﾁｭｳｵｳｼ","kana_address":"ｶﾐｶﾞｼﾜﾁｮｳ","pref":"愛媛県","city":"四国中央市","address":"上柏町"},
{"zip_code":"7990121","kana_pref":"ｴﾋﾒｹﾝ","kana_city":"ｼｺｸﾁｭｳｵｳｼ","kana_address":"ｶﾐﾌﾞﾝﾁｮｳ","pref":"愛媛県","city":"四国中央市","address":"上分町"},
{"zip_code":"7990127","kana_pref":"ｴﾋﾒｹﾝ","kana_city":"ｼｺｸﾁｭｳｵｳｼ","kana_address":"ｶﾜﾀｷﾁｮｳｼﾓﾔﾏ","pref":"愛媛県","city":"四国中央市","address":"川滝町下山"},
{"zip_code":"7990128","kana_pref":"ｴﾋﾒｹﾝ","kana_city":"ｼｺｸﾁｭｳｵｳｼ","kana_address":"ｶﾜﾀｷﾁｮｳﾘｮｳｹ","pref":"愛媛県","city":"四国中央市","address":"川滝町領家"},
{"zip_code":"7990101","kana_pref":"ｴﾋﾒｹﾝ","kana_city":"ｼｺｸﾁｭｳｵｳｼ","kana_address":"ｶﾜﾉｴﾁｮｳ","pref":"愛媛県","city":"四国中央市","address":"川之江町"},
{"zip_code":"7990102","kana_pref":"ｴﾋﾒｹﾝ","kana_city":"ｼｺｸﾁｭｳｵｳｼ","kana_address":"ｶﾜﾉｴﾁｮｳﾅｶﾞｽ","pref":"愛媛県","city":"四国中央市","address":"川之江町長須"},
{"zip_code":"7990103","kana_pref":"ｴﾋﾒｹﾝ","kana_city":"ｼｺｸﾁｭｳｵｳｼ","kana_address":"ｶﾜﾉｴﾁｮｳﾖｷ","pref":"愛媛県","city":"四国中央市","address":"川之江町余木"},
{"zip_code":"7990641","kana_pref":"ｴﾋﾒｹﾝ","kana_city":"ｼｺｸﾁｭｳｵｳｼ","kana_address":"ｷﾝｼｬﾁｮｳｵｶﾞﾜﾔﾏ","pref":"愛媛県","city":"四国中央市","address":"金砂町小川山"},
{"zip_code":"7990642","kana_pref":"ｴﾋﾒｹﾝ","kana_city":"ｼｺｸﾁｭｳｵｳｼ","kana_address":"ｷﾝｼｬﾁｮｳﾋﾗﾉﾔﾏ","pref":"愛媛県","city":"四国中央市","address":"金砂町平野山"},
{"zip_code":"7990111","kana_pref":"ｴﾋﾒｹﾝ","kana_city":"ｼｺｸﾁｭｳｵｳｼ","kana_address":"ｷﾝｾｲﾁｮｳｼﾓﾌﾞﾝ","pref":"愛媛県","city":"四国中央市","address":"金生町下分"},
{"zip_code":"7990112","kana_pref":"ｴﾋﾒｹﾝ","kana_city":"ｼｺｸﾁｭｳｵｳｼ","kana_address":"ｷﾝｾｲﾁｮｳﾔﾏﾀﾞｲ","pref":"愛媛県","city":"四国中央市","address":"金生町山田井"},
{"zip_code":"7990423","kana_pref":"ｴﾋﾒｹﾝ","kana_city":"ｼｺｸﾁｭｳｵｳｼ","kana_address":"ｸﾞｼﾞｮｳﾁｮｳ","pref":"愛媛県","city":"四国中央市","address":"具定町"},
{"zip_code":"7990431","kana_pref":"ｴﾋﾒｹﾝ","kana_city":"ｼｺｸﾁｭｳｵｳｼ","kana_address":"ｻﾝｶﾞﾜﾁｮｳ","pref":"愛媛県","city":"四国中央市","address":"寒川町"},
{"zip_code":"7990125","kana_pref":"ｴﾋﾒｹﾝ","kana_city":"ｼｺｸﾁｭｳｵｳｼ","kana_address":"ｼﾎﾞｳﾁｮｳ","pref":"愛媛県","city":"四国中央市","address":"柴生町"},
{"zip_code":"7990411","kana_pref":"ｴﾋﾒｹﾝ","kana_city":"ｼｺｸﾁｭｳｵｳｼ","kana_address":"ｼﾓｶﾞｼﾜﾁｮｳ","pref":"愛媛県","city":"四国中央市","address":"下柏町"},
{"zip_code":"7990126","kana_pref":"ｴﾋﾒｹﾝ","kana_city":"ｼｺｸﾁｭｳｵｳｼ","kana_address":"ｼﾓｶﾜﾁｮｳ","pref":"愛媛県","city":"四国中央市","address":"下川町"},
{"zip_code":"7990301","kana_pref":"ｴﾋﾒｹﾝ","kana_city":"ｼｺｸﾁｭｳｵｳｼ","kana_address":"ｼﾝｸﾞｳﾁｮｳｳﾏﾀﾃ","pref":"愛媛県","city":"四国中央市","address":"新宮町馬立"},
{"zip_code":"7990302","kana_pref":"ｴﾋﾒｹﾝ","kana_city":"ｼｺｸﾁｭｳｵｳｼ","kana_address":"ｼﾝｸﾞｳﾁｮｳｶﾐﾔﾏ","pref":"愛媛県","city":"四国中央市","address":"新宮町上山"},
{"zip_code":"7990303","kana_pref":"ｴﾋﾒｹﾝ","kana_city":"ｼｺｸﾁｭｳｵｳｼ","kana_address":"ｼﾝｸﾞｳﾁｮｳｼﾝｸﾞｳ","pref":"愛媛県","city":"四国中央市","address":"新宮町新宮"},
{"zip_code":"7990304","kana_pref":"ｴﾋﾒｹﾝ","kana_city":"ｼｺｸﾁｭｳｵｳｼ","kana_address":"ｼﾝｸﾞｳﾁｮｳｼﾝｾｶﾞﾜ","pref":"愛媛県","city":"四国中央市","address":"新宮町新瀬川"},
{"zip_code":"7990712","kana_pref":"ｴﾋﾒｹﾝ","kana_city":"ｼｺｸﾁｭｳｵｳｼ","kana_address":"ﾄﾞｲﾁｮｳｲﾘﾉ","pref":"愛媛県","city":"四国中央市","address":"土居町入野"},
{"zip_code":"7990721","kana_pref":"ｴﾋﾒｹﾝ","kana_city":"ｼｺｸﾁｭｳｵｳｼ","kana_address":"ﾄﾞｲﾁｮｳｳｴﾉ","pref":"愛媛県","city":"四国中央市","address":"土居町上野"},
{"zip_code":"7990713","kana_pref":"ｴﾋﾒｹﾝ","kana_city":"ｼｺｸﾁｭｳｵｳｼ","kana_address":"ﾄﾞｲﾁｮｳｳﾗﾔﾏ","pref":"愛媛県","city":"四国中央市","address":"土居町浦山"},
{"zip_code":"7990724","kana_pref":"ｴﾋﾒｹﾝ","kana_city":"ｼｺｸﾁｭｳｵｳｼ","kana_address":"ﾄﾞｲﾁｮｳｶﾌﾞﾗｻｷ","pref":"愛媛県","city":"四国中央市","address":"土居町蕪崎"},
{"zip_code":"7990722","kana_pref":"ｴﾋﾒｹﾝ","kana_city":"ｼｺｸﾁｭｳｵｳｼ","kana_address":"ﾄﾞｲﾁｮｳｷﾀﾉ","pref":"愛媛県","city":"四国中央市","address":"土居町北野"},
{"zip_code":"7990702","kana_pref":"ｴﾋﾒｹﾝ","kana_city":"ｼｺｸﾁｭｳｵｳｼ","kana_address":"ﾄﾞｲﾁｮｳｺﾊﾞﾔｼ","pref":"愛媛県","city":"四国中央市","address":"土居町小林"},
{"zip_code":"7990704","kana_pref":"ｴﾋﾒｹﾝ","kana_city":"ｼｺｸﾁｭｳｵｳｼ","kana_address":"ﾄﾞｲﾁｮｳﾂﾈ","pref":"愛媛県","city":"四国中央市","address":"土居町津根"},
{"zip_code":"7990723","kana_pref":"ｴﾋﾒｹﾝ","kana_city":"ｼｺｸﾁｭｳｵｳｼ","kana_address":"ﾄﾞｲﾁｮｳﾃﾝﾏ","pref":"愛媛県","city":"四国中央市","address":"土居町天満"},
{"zip_code":"7990711","kana_pref":"ｴﾋﾒｹﾝ","kana_city":"ｼｺｸﾁｭｳｵｳｼ","kana_address":"ﾄﾞｲﾁｮｳﾄﾞｲ","pref":"愛媛県","city":"四国中央市","address":"土居町土居"},
{"zip_code":"7990701","kana_pref":"ｴﾋﾒｹﾝ","kana_city":"ｼｺｸﾁｭｳｵｳｼ","kana_address":"ﾄﾞｲﾁｮｳﾅｶﾑﾗ","pref":"愛媛県","city":"四国中央市","address":"土居町中村"},
{"zip_code":"7990705","kana_pref":"ｴﾋﾒｹﾝ","kana_city":"ｼｺｸﾁｭｳｵｳｼ","kana_address":"ﾄﾞｲﾁｮｳﾉﾀﾞ","pref":"愛媛県","city":"四国中央市","address":"土居町野田"},
{"zip_code":"7990714","kana_pref":"ｴﾋﾒｹﾝ","kana_city":"ｼｺｸﾁｭｳｵｳｼ","kana_address":"ﾄﾞｲﾁｮｳﾊﾀﾉ","pref":"愛媛県","city":"四国中央市","address":"土居町畑野"},
{"zip_code":"7990703","kana_pref":"ｴﾋﾒｹﾝ","kana_city":"ｼｺｸﾁｭｳｵｳｼ","kana_address":"ﾄﾞｲﾁｮｳﾌｼﾞﾜﾗ","pref":"愛媛県","city":"四国中央市","address":"土居町藤原"},
{"zip_code":"7990643","kana_pref":"ｴﾋﾒｹﾝ","kana_city":"ｼｺｸﾁｭｳｵｳｼ","kana_address":"ﾄﾐｻﾄﾁｮｳｻﾝｶﾞﾜﾔﾏ","pref":"愛媛県","city":"四国中央市","address":"富郷町寒川山"},
{"zip_code":"7990645","kana_pref":"ｴﾋﾒｹﾝ","kana_city":"ｼｺｸﾁｭｳｵｳｼ","kana_address":"ﾄﾐｻﾄﾁｮｳﾂﾈﾔﾏ","pref":"愛媛県","city":"四国中央市","address":"富郷町津根山"},
{"zip_code":"7990644","kana_pref":"ｴﾋﾒｹﾝ","kana_city":"ｼｺｸﾁｭｳｵｳｼ","kana_address":"ﾄﾐｻﾄﾁｮｳﾄﾖｻｶ","pref":"愛媛県","city":"四国中央市","address":"富郷町豊坂"},
{"zip_code":"7990434","kana_pref":"ｴﾋﾒｹﾝ","kana_city":"ｼｺｸﾁｭｳｵｳｼ","kana_address":"ﾄﾖｵｶﾁｮｳｲﾗﾉ","pref":"愛媛県","city":"四国中央市","address":"豊岡町五良野"},
{"zip_code":"7990432","kana_pref":"ｴﾋﾒｹﾝ","kana_city":"ｼｺｸﾁｭｳｵｳｼ","kana_address":"ﾄﾖｵｶﾁｮｳｵｵﾏﾁ","pref":"愛媛県","city":"四国中央市","address":"豊岡町大町"},
{"zip_code":"7990436","kana_pref":"ｴﾋﾒｹﾝ","kana_city":"ｼｺｸﾁｭｳｵｳｼ","kana_address":"ﾄﾖｵｶﾁｮｳｵｶﾄﾞｳ","pref":"愛媛県","city":"四国中央市","address":"豊岡町岡銅"},
{"zip_code":"7990435","kana_pref":"ｴﾋﾒｹﾝ","kana_city":"ｼｺｸﾁｭｳｵｳｼ","kana_address":"ﾄﾖｵｶﾁｮｳｵｻﾀﾞ","pref":"愛媛県","city":"四国中央市","address":"豊岡町長田"},
{"zip_code":"7990433","kana_pref":"ｴﾋﾒｹﾝ","kana_city":"ｼｺｸﾁｭｳｵｳｼ","kana_address":"ﾄﾖｵｶﾁｮｳﾄﾖﾀﾞ","pref":"愛媛県","city":"四国中央市","address":"豊岡町豊田"},
{"zip_code":"7990413","kana_pref":"ｴﾋﾒｹﾝ","kana_city":"ｼｺｸﾁｭｳｵｳｼ","kana_address":"ﾅｶｿﾞﾈﾁｮｳ","pref":"愛媛県","city":"四国中央市","address":"中曽根町"},
{"zip_code":"7990422","kana_pref":"ｴﾋﾒｹﾝ","kana_city":"ｼｺｸﾁｭｳｵｳｼ","kana_address":"ﾅｶﾉｼｮｳﾁｮｳ","pref":"愛媛県","city":"四国中央市","address":"中之庄町"},
{"zip_code":"7990403","kana_pref":"ｴﾋﾒｹﾝ","kana_city":"ｼｺｸﾁｭｳｵｳｼ","kana_address":"ﾐｼﾏｱｻﾋ","pref":"愛媛県","city":"四国中央市","address":"三島朝日"},
{"zip_code":"7990421","kana_pref":"ｴﾋﾒｹﾝ","kana_city":"ｼｺｸﾁｭｳｵｳｼ","kana_address":"ﾐｼﾏｶﾈｺ","pref":"愛媛県","city":"四国中央市","address":"三島金子"},
{"zip_code":"7990402","kana_pref":"ｴﾋﾒｹﾝ","kana_city":"ｼｺｸﾁｭｳｵｳｼ","kana_address":"ﾐｼﾏｶﾐﾔﾁｮｳ","pref":"愛媛県","city":"四国中央市","address":"三島紙屋町"},
{"zip_code":"7990405","kana_pref":"ｴﾋﾒｹﾝ","kana_city":"ｼｺｸﾁｭｳｵｳｼ","kana_address":"ﾐｼﾏﾁｭｳｵｳ","pref":"愛媛県","city":"四国中央市","address":"三島中央"},
{"zip_code":"7990404","kana_pref":"ｴﾋﾒｹﾝ","kana_city":"ｼｺｸﾁｭｳｵｳｼ","kana_address":"ﾐｼﾏﾐﾔｶﾞﾜ","pref":"愛媛県","city":"四国中央市","address":"三島宮川"},
{"zip_code":"7990401","kana_pref":"ｴﾋﾒｹﾝ","kana_city":"ｼｺｸﾁｭｳｵｳｼ","kana_address":"ﾑﾗﾏﾂﾁｮｳ","pref":"愛媛県","city":"四国中央市","address":"村松町"},
{"zip_code":"7990113","kana_pref":"ｴﾋﾒｹﾝ","kana_city":"ｼｺｸﾁｭｳｵｳｼ","kana_address":"ﾒﾝﾄﾞﾘﾁｮｳ","pref":"愛媛県","city":"四国中央市","address":"妻鳥町"}]}