{"zip_code":[
{"zip_code":"8000000","kana_pref":"ﾌｸｵｶｹﾝ","kana_city":"ｷﾀｷｭｳｼｭｳｼﾓｼﾞｸ","kana_address":"","pref":"福岡県","city":"北九州市門司区","address":""},
{"zip_code":"8000045","kana_pref":"ﾌｸｵｶｹﾝ","kana_city":"ｷﾀｷｭｳｼｭｳｼﾓｼﾞｸ","kana_address":"ｱｵﾊﾞﾀﾞｲ","pref":"福岡県","city":"北九州市門司区","address":"青葉台"},
{"zip_code":"8000101","kana_pref":"ﾌｸｵｶｹﾝ","kana_city":"ｷﾀｷｭｳｼｭｳｼﾓｼﾞｸ","kana_address":"ｲｶﾜ","pref":"福岡県","city":"北九州市門司区","address":"伊川"},
{"zip_code":"8000041","kana_pref":"ﾌｸｵｶｹﾝ","kana_city":"ｷﾀｷｭｳｼｭｳｼﾓｼﾞｸ","kana_address":"ｲｽﾞﾐｶﾞｵｶ","pref":"福岡県","city":"北九州市門司区","address":"泉ケ丘"},
{"zip_code":"8000048","kana_pref":"ﾌｸｵｶｹﾝ","kana_city":"ｷﾀｷｭｳｼｭｳｼﾓｼﾞｸ","kana_address":"ｲﾅﾂﾞﾐ","pref":"福岡県","city":"北九州市門司区","address":"稲積"},
{"zip_code":"8000111","kana_pref":"ﾌｸｵｶｹﾝ","kana_city":"ｷﾀｷｭｳｼｭｳｼﾓｼﾞｸ","kana_address":"ｲﾏﾂﾞ","pref":"福岡県","city":"北九州市門司区","address":"今津"},
{"zip_code":"8000026","kana_pref":"ﾌｸｵｶｹﾝ","kana_city":"ｷﾀｷｭｳｼｭｳｼﾓｼﾞｸ","kana_address":"ｳﾒﾉｷﾁｮｳ","pref":"福岡県","city":"北九州市門司区","address":"梅ノ木町"},
{"zip_code":"8000011","kana_pref":"ﾌｸｵｶｹﾝ","kana_city":"ｷﾀｷｭｳｼｭｳｼﾓｼﾞｸ","kana_address":"ｵｸﾀﾞ","pref":"福岡県","city":"北九州市門司区","address":"奥田"},
{"zip_code":"8000001","kana_pref":"ﾌｸｵｶｹﾝ","kana_city":"ｷﾀｷｭｳｼｭｳｼﾓｼﾞｸ","kana_address":"ｶｻﾞｼ","pref":"福岡県","city":"北九州市門司区","address":"風師"},
{"zip_code":"8000061","kana_pref":"ﾌｸｵｶｹﾝ","kana_city":"ｷﾀｷｭｳｼｭｳｼﾓｼﾞｸ","kana_address":"ｶﾀｶﾞﾐｶｲｶﾞﾝ","pref":"福岡県","city":"北九州市門司区","address":"片上海岸"},
{"zip_code":"8000003","kana_pref":"ﾌｸｵｶｹﾝ","kana_city":"ｷﾀｷｭｳｼｭｳｼﾓｼﾞｸ","kana_address":"ｶﾀｶﾞﾐﾏﾁ","pref":"福岡県","city":"北九州市門司区","address":"片上町"},
{"zip_code":"8000016","kana_pref":"ﾌｸｵｶｹﾝ","kana_city":"ｷﾀｷｭｳｼｭｳｼﾓｼﾞｸ","kana_address":"ｶﾐﾆｼﾞｯﾁｮｳ","pref":"福岡県","city":"北九州市門司区","address":"上二十町"},
{"zip_code":"8000044","kana_pref":"ﾌｸｵｶｹﾝ","kana_city":"ｷﾀｷｭｳｼｭｳｼﾓｼﾞｸ","kana_address":"ｶﾐﾌｼﾞﾏﾂ","pref":"福岡県","city":"北九州市門司区","address":"上藤松"},
{"zip_code":"8000042","kana_pref":"ﾌｸｵｶｹﾝ","kana_city":"ｷﾀｷｭｳｼｭｳｼﾓｼﾞｸ","kana_address":"ｶﾐﾏｲｿｳ","pref":"福岡県","city":"北九州市門司区","address":"上馬寄"},
{"zip_code":"8000114","kana_pref":"ﾌｸｵｶｹﾝ","kana_city":"ｷﾀｷｭｳｼｭｳｼﾓｼﾞｸ","kana_address":"ｷｼ","pref":"福岡県","city":"北九州市門司区","address":"吉志"},
{"zip_code":"8000118","kana_pref":"ﾌｸｵｶｹﾝ","kana_city":"ｷﾀｷｭｳｼｭｳｼﾓｼﾞｸ","kana_address":"ｷｼｼﾝﾏﾁ","pref":"福岡県","city":"北九州市門司区","address":"吉志新町"},
{"zip_code":"8000004","kana_pref":"ﾌｸｵｶｹﾝ","kana_city":"ｷﾀｷｭｳｼｭｳｼﾓｼﾞｸ","kana_address":"ｷﾀｶﾞﾜﾏﾁ","pref":"福岡県","city":"北九州市門司区","address":"北川町"},
{"zip_code":"8000008","kana_pref":"ﾌｸｵｶｹﾝ","kana_city":"ｷﾀｷｭｳｼｭｳｼﾓｼﾞｸ","kana_address":"ｸｽﾞﾊ","pref":"福岡県","city":"北九州市門司区","address":"葛葉"},
{"zip_code":"8000027","kana_pref":"ﾌｸｵｶｹﾝ","kana_city":"ｷﾀｷｭｳｼｭｳｼﾓｼﾞｸ","kana_address":"ｺｶﾞﾈﾏﾁ","pref":"福岡県","city":"北九州市門司区","address":"黄金町"},
{"zip_code":"8000034","kana_pref":"ﾌｸｵｶｹﾝ","kana_city":"ｷﾀｷｭｳｼｭｳｼﾓｼﾞｸ","kana_address":"ｺﾏﾂﾁｮｳ","pref":"福岡県","city":"北九州市門司区","address":"小松町"},
{"zip_code":"8000007","kana_pref":"ﾌｸｵｶｹﾝ","kana_city":"ｷﾀｷｭｳｼｭｳｼﾓｼﾞｸ","kana_address":"ｺﾓﾘｴ","pref":"福岡県","city":"北九州市門司区","address":"小森江"},
{"zip_code":"8000102","kana_pref":"ﾌｸｵｶｹﾝ","kana_city":"ｷﾀｷｭｳｼｭｳｼﾓｼﾞｸ","kana_address":"ｻﾙﾊﾐ","pref":"福岡県","city":"北九州市門司区","address":"猿喰"},
{"zip_code":"8000015","kana_pref":"ﾌｸｵｶｹﾝ","kana_city":"ｷﾀｷｭｳｼｭｳｼﾓｼﾞｸ","kana_address":"ｼﾞﾅｲ","pref":"福岡県","city":"北九州市門司区","address":"寺内"},
{"zip_code":"8000028","kana_pref":"ﾌｸｵｶｹﾝ","kana_city":"ｷﾀｷｭｳｼｭｳｼﾓｼﾞｸ","kana_address":"ｼﾓﾆｼﾞｯﾁｮｳ","pref":"福岡県","city":"北九州市門司区","address":"下二十町"},
{"zip_code":"8000051","kana_pref":"ﾌｸｵｶｹﾝ","kana_city":"ｷﾀｷｭｳｼｭｳｼﾓｼﾞｸ","kana_address":"ｼﾓﾏｲｿｳ","pref":"福岡県","city":"北九州市門司区","address":"下馬寄"},
{"zip_code":"8000054","kana_pref":"ﾌｸｵｶｹﾝ","kana_city":"ｷﾀｷｭｳｼｭｳｼﾓｼﾞｸ","kana_address":"ｼｬﾉｷ","pref":"福岡県","city":"北九州市門司区","address":"社ノ木"},
{"zip_code":"8000013","kana_pref":"ﾌｸｵｶｹﾝ","kana_city":"ｷﾀｷｭｳｼｭｳｼﾓｼﾞｸ","kana_address":"ｼﾛﾔﾏﾁｮｳ","pref":"福岡県","city":"北九州市門司区","address":"城山町"},
{"zip_code":"8000053","kana_pref":"ﾌｸｵｶｹﾝ","kana_city":"ｷﾀｷｭｳｼｭｳｼﾓｼﾞｸ","kana_address":"ｼﾝﾊﾗﾏﾁ","pref":"福岡県","city":"北九州市門司区","address":"新原町"},
{"zip_code":"8000115","kana_pref":"ﾌｸｵｶｹﾝ","kana_city":"ｷﾀｷｭｳｼｭｳｼﾓｼﾞｸ","kana_address":"ｼﾝﾓｼﾞ","pref":"福岡県","city":"北九州市門司区","address":"新門司"},
{"zip_code":"8000113","kana_pref":"ﾌｸｵｶｹﾝ","kana_city":"ｷﾀｷｭｳｼｭｳｼﾓｼﾞｸ","kana_address":"ｼﾝﾓｼﾞｷﾀ","pref":"福岡県","city":"北九州市門司区","address":"新門司北"},
{"zip_code":"8000014","kana_pref":"ﾌｸｵｶｹﾝ","kana_city":"ｷﾀｷｭｳｼｭｳｼﾓｼﾞｸ","kana_address":"ﾀﾞｲﾘ","pref":"福岡県","city":"北九州市門司区","address":"大里"},
{"zip_code":"8000018","kana_pref":"ﾌｸｵｶｹﾝ","kana_city":"ｷﾀｷｭｳｼｭｳｼﾓｼﾞｸ","kana_address":"ﾀﾞｲﾘｻｸﾗｶﾞｵｶ","pref":"福岡県","city":"北九州市門司区","address":"大里桜ケ丘"},
{"zip_code":"8000057","kana_pref":"ﾌｸｵｶｹﾝ","kana_city":"ｷﾀｷｭｳｼｭｳｼﾓｼﾞｸ","kana_address":"ﾀﾞｲﾘｼﾝﾏﾁ","pref":"福岡県","city":"北九州市門司区","address":"大里新町"},
{"zip_code":"8000024","kana_pref":"ﾌｸｵｶｹﾝ","kana_city":"ｷﾀｷｭｳｼｭｳｼﾓｼﾞｸ","kana_address":"ﾀﾞｲﾘﾄﾉｳｴ","pref":"福岡県","city":"北九州市門司区","address":"大里戸ノ上"},
{"zip_code":"8000038","kana_pref":"ﾌｸｵｶｹﾝ","kana_city":"ｷﾀｷｭｳｼｭｳｼﾓｼﾞｸ","kana_address":"ﾀﾞｲﾘﾊﾗﾏﾁ","pref":"福岡県","city":"北九州市門司区","address":"大里原町"},
{"zip_code":"8000022","kana_pref":"ﾌｸｵｶｹﾝ","kana_city":"ｷﾀｷｭｳｼｭｳｼﾓｼﾞｸ","kana_address":"ﾀﾞｲﾘﾋｶﾞｼ","pref":"福岡県","city":"北九州市門司区","address":"大里東"},
{"zip_code":"8000029","kana_pref":"ﾌｸｵｶｹﾝ","kana_city":"ｷﾀｷｭｳｼｭｳｼﾓｼﾞｸ","kana_address":"ﾀﾞｲﾘﾋｶﾞｼｸﾞﾁ","pref":"福岡県","city":"北九州市門司区","address":"大里東口"},
{"zip_code":"8000063","kana_pref":"ﾌｸｵｶｹﾝ","kana_city":"ｷﾀｷｭｳｼｭｳｼﾓｼﾞｸ","kana_address":"ﾀﾞｲﾘﾎﾝﾏﾁ","pref":"福岡県","city":"北九州市門司区","address":"大里本町"},
{"zip_code":"8000062","kana_pref":"ﾌｸｵｶｹﾝ","kana_city":"ｷﾀｷｭｳｼｭｳｼﾓｼﾞｸ","kana_address":"ﾀﾞｲﾘﾓﾄﾏﾁ","pref":"福岡県","city":"北九州市門司区","address":"大里元町"},
{"zip_code":"8000033","kana_pref":"ﾌｸｵｶｹﾝ","kana_city":"ｷﾀｷｭｳｼｭｳｼﾓｼﾞｸ","kana_address":"ﾀﾞｲﾘﾓﾓﾔﾏﾁｮｳ","pref":"福岡県","city":"北九州市門司区","address":"大里桃山町"},
{"zip_code":"8000031","kana_pref":"ﾌｸｵｶｹﾝ","kana_city":"ｷﾀｷｭｳｼｭｳｼﾓｼﾞｸ","kana_address":"ﾀｶﾀﾞ","pref":"福岡県","city":"北九州市門司区","address":"高田"},
{"zip_code":"8000117","kana_pref":"ﾌｸｵｶｹﾝ","kana_city":"ｷﾀｷｭｳｼｭｳｼﾓｼﾞｸ","kana_address":"ﾂﾈﾐ","pref":"福岡県","city":"北九州市門司区","address":"恒見"},
{"zip_code":"8000116","kana_pref":"ﾌｸｵｶｹﾝ","kana_city":"ｷﾀｷｭｳｼｭｳｼﾓｼﾞｸ","kana_address":"ﾂﾈﾐﾏﾁ","pref":"福岡県","city":"北九州市門司区","address":"恒見町"},
{"zip_code":"8000023","kana_pref":"ﾌｸｵｶｹﾝ","kana_city":"ｷﾀｷｭｳｼｭｳｼﾓｼﾞｸ","kana_address":"ﾅｶﾆｼﾞｯﾁｮｳ","pref":"福岡県","city":"北九州市門司区","address":"中二十町"},
{"zip_code":"8000039","kana_pref":"ﾌｸｵｶｹﾝ","kana_city":"ｷﾀｷｭｳｼｭｳｼﾓｼﾞｸ","kana_address":"ﾅｶﾏﾁ","pref":"福岡県","city":"北九州市門司区","address":"中町"},
{"zip_code":"8000017","kana_pref":"ﾌｸｵｶｹﾝ","kana_city":"ｷﾀｷｭｳｼｭｳｼﾓｼﾞｸ","kana_address":"ﾅｶﾞｸﾞﾛ","pref":"福岡県","city":"北九州市門司区","address":"永黒"},
{"zip_code":"8000056","kana_pref":"ﾌｸｵｶｹﾝ","kana_city":"ｷﾀｷｭｳｼｭｳｼﾓｼﾞｸ","kana_address":"ﾆｼｼﾝﾏﾁ","pref":"福岡県","city":"北九州市門司区","address":"西新町"},
{"zip_code":"8000112","kana_pref":"ﾌｸｵｶｹﾝ","kana_city":"ｷﾀｷｭｳｼｭｳｼﾓｼﾞｸ","kana_address":"ﾊﾀ","pref":"福岡県","city":"北九州市門司区","address":"畑"},
{"zip_code":"8000005","kana_pref":"ﾌｸｵｶｹﾝ","kana_city":"ｷﾀｷｭｳｼｭｳｼﾓｼﾞｸ","kana_address":"ﾊﾔﾏ","pref":"福岡県","city":"北九州市門司区","address":"羽山"},
{"zip_code":"8000037","kana_pref":"ﾌｸｵｶｹﾝ","kana_city":"ｷﾀｷｭｳｼｭｳｼﾓｼﾞｸ","kana_address":"ﾊﾗﾏﾁﾍﾞﾂｲﾝ","pref":"福岡県","city":"北九州市門司区","address":"原町別院"},
{"zip_code":"8000046","kana_pref":"ﾌｸｵｶｹﾝ","kana_city":"ｷﾀｷｭｳｼｭｳｼﾓｼﾞｸ","kana_address":"ﾋｶﾘﾏﾁ","pref":"福岡県","city":"北九州市門司区","address":"光町"},
{"zip_code":"8000055","kana_pref":"ﾌｸｵｶｹﾝ","kana_city":"ｷﾀｷｭｳｼｭｳｼﾓｼﾞｸ","kana_address":"ﾋｶﾞｼｼﾝﾏﾁ","pref":"福岡県","city":"北九州市門司区","address":"東新町"},
{"zip_code":"8000052","kana_pref":"ﾌｸｵｶｹﾝ","kana_city":"ｷﾀｷｭｳｼｭｳｼﾓｼﾞｸ","kana_address":"ﾋｶﾞｼﾏｲｿｳ","pref":"福岡県","city":"北九州市門司区","address":"東馬寄"},
{"zip_code":"8000047","kana_pref":"ﾌｸｵｶｹﾝ","kana_city":"ｷﾀｷｭｳｼｭｳｼﾓｼﾞｸ","kana_address":"ﾌｼﾞﾏﾂ","pref":"福岡県","city":"北九州市門司区","address":"藤松"},
{"zip_code":"8000002","kana_pref":"ﾌｸｵｶｹﾝ","kana_city":"ｷﾀｷｭｳｼｭｳｼﾓｼﾞｸ","kana_address":"ﾌﾀﾏﾂﾁｮｳ","pref":"福岡県","city":"北九州市門司区","address":"二タ松町"},
{"zip_code":"8000032","kana_pref":"ﾌｸｵｶｹﾝ","kana_city":"ｷﾀｷｭｳｼｭｳｼﾓｼﾞｸ","kana_address":"ﾌﾛｳﾁｮｳ","pref":"福岡県","city":"北九州市門司区","address":"不老町"},
{"zip_code":"8000035","kana_pref":"ﾌｸｵｶｹﾝ","kana_city":"ｷﾀｷｭｳｼｭｳｼﾓｼﾞｸ","kana_address":"ﾍﾞﾂｲﾝ","pref":"福岡県","city":"北九州市門司区","address":"別院"},
{"zip_code":"8000012","kana_pref":"ﾌｸｵｶｹﾝ","kana_city":"ｷﾀｷｭｳｼｭｳｼﾓｼﾞｸ","kana_address":"ﾏﾂｻﾞｷﾁｮｳ","pref":"福岡県","city":"北九州市門司区","address":"松崎町"},
{"zip_code":"8000064","kana_pref":"ﾌｸｵｶｹﾝ","kana_city":"ｷﾀｷｭｳｼｭｳｼﾓｼﾞｸ","kana_address":"ﾏﾂﾊﾞﾗ","pref":"福岡県","city":"北九州市門司区","address":"松原"},
{"zip_code":"8000043","kana_pref":"ﾌｸｵｶｹﾝ","kana_city":"ｷﾀｷｭｳｼｭｳｼﾓｼﾞｸ","kana_address":"ﾐﾄﾞﾘｶﾞｵｶ","pref":"福岡県","city":"北九州市門司区","address":"緑ケ丘"},
{"zip_code":"8000021","kana_pref":"ﾌｸｵｶｹﾝ","kana_city":"ｷﾀｷｭｳｼｭｳｼﾓｼﾞｸ","kana_address":"ﾐﾅﾐﾎﾝﾏﾁ","pref":"福岡県","city":"北九州市門司区","address":"南本町"},
{"zip_code":"8000030","kana_pref":"ﾌｸｵｶｹﾝ","kana_city":"ｷﾀｷｭｳｼｭｳｼﾓｼﾞｸ","kana_address":"ﾓﾓﾔﾏﾀﾞｲ","pref":"福岡県","city":"北九州市門司区","address":"桃山台"},
{"zip_code":"8000036","kana_pref":"ﾌｸｵｶｹﾝ","kana_city":"ｷﾀｷｭｳｼｭｳｼﾓｼﾞｸ","kana_address":"ﾔﾅｷﾞﾊﾗﾏﾁ","pref":"福岡県","city":"北九州市門司区","address":"柳原町"},
{"zip_code":"8000025","kana_pref":"ﾌｸｵｶｹﾝ","kana_city":"ｷﾀｷｭｳｼｭｳｼﾓｼﾞｸ","kana_address":"ﾔﾅｷﾞﾏﾁ","pref":"福岡県","city":"北九州市門司区","address":"柳町"},
{"zip_code":"8000006","kana_pref":"ﾌｸｵｶｹﾝ","kana_city":"ｷﾀｷｭｳｼｭｳｼﾓｼﾞｸ","kana_address":"ﾔﾊｽﾞﾏﾁ","pref":"福岡県","city":"北九州市門司区","address":"矢筈町"},
{"zip_code":"8000258","kana_pref":"ﾌｸｵｶｹﾝ","kana_city":"ｷﾀｷｭｳｼｭｳｼｺｸﾗﾐﾅﾐｸ","kana_address":"ｱﾍﾞﾔﾏ","pref":"福岡県","city":"北九州市小倉南区","address":"安部山"},
{"zip_code":"8000255","kana_pref":"ﾌｸｵｶｹﾝ","kana_city":"ｷﾀｷｭｳｼｭｳｼｺｸﾗﾐﾅﾐｸ","kana_address":"ｶﾐｸｽﾞﾊﾗ","pref":"福岡県","city":"北九州市小倉南区","address":"上葛原"},
{"zip_code":"8000223","kana_pref":"ﾌｸｵｶｹﾝ","kana_city":"ｷﾀｷｭｳｼｭｳｼｺｸﾗﾐﾅﾐｸ","kana_address":"ｶﾐｿﾈ","pref":"福岡県","city":"北九州市小倉南区","address":"上曽根"},
{"zip_code":"8000215","kana_pref":"ﾌｸｵｶｹﾝ","kana_city":"ｷﾀｷｭｳｼｭｳｼｺｸﾗﾐﾅﾐｸ","kana_address":"ｶﾐｿﾈｼﾝﾏﾁ","pref":"福岡県","city":"北九州市小倉南区","address":"上曽根新町"},
{"zip_code":"8000244","kana_pref":"ﾌｸｵｶｹﾝ","kana_city":"ｷﾀｷｭｳｼｭｳｼｺｸﾗﾐﾅﾐｸ","kana_address":"ｶﾐﾇｷ","pref":"福岡県","city":"北九州市小倉南区","address":"上貫"},
{"zip_code":"8000201","kana_pref":"ﾌｸｵｶｹﾝ","kana_city":"ｷﾀｷｭｳｼｭｳｼｺｸﾗﾐﾅﾐｸ","kana_address":"ｶﾐﾖｼﾀﾞ","pref":"福岡県","city":"北九州市小倉南区","address":"上吉田"},
{"zip_code":"8000306","kana_pref":"ﾌｸｵｶｹﾝ","kana_city":"ｷﾀｷｭｳｼｭｳｼｺｸﾗﾐﾅﾐｸ","kana_address":"ｸｳｺｳｷﾀﾏﾁ","pref":"福岡県","city":"北九州市小倉南区","address":"空港北町"},
{"zip_code":"8000231","kana_pref":"ﾌｸｵｶｹﾝ","kana_city":"ｷﾀｷｭｳｼｭｳｼｺｸﾗﾐﾅﾐｸ","kana_address":"ｸｻﾐ","pref":"福岡県","city":"北九州市小倉南区","address":"朽網"},
{"zip_code":"8000232","kana_pref":"ﾌｸｵｶｹﾝ","kana_city":"ｷﾀｷｭｳｼｭｳｼｺｸﾗﾐﾅﾐｸ","kana_address":"ｸｻﾐﾋｶﾞｼ","pref":"福岡県","city":"北九州市小倉南区","address":"朽網東"},
{"zip_code":"8000233","kana_pref":"ﾌｸｵｶｹﾝ","kana_city":"ｷﾀｷｭｳｼｭｳｼｺｸﾗﾐﾅﾐｸ","kana_address":"ｸｻﾐﾆｼ","pref":"福岡県","city":"北九州市小倉南区","address":"朽網西"},
{"zip_code":"8000251","kana_pref":"ﾌｸｵｶｹﾝ","kana_city":"ｷﾀｷｭｳｼｭｳｼｺｸﾗﾐﾅﾐｸ","kana_address":"ｸｽﾞﾊﾗ","pref":"福岡県","city":"北九州市小倉南区","address":"葛原"},
{"zip_code":"8000252","kana_pref":"ﾌｸｵｶｹﾝ","kana_city":"ｷﾀｷｭｳｼｭｳｼｺｸﾗﾐﾅﾐｸ","kana_address":"ｸｽﾞﾊﾗﾀｶﾏﾂ","pref":"福岡県","city":"北九州市小倉南区","address":"葛原高松"},
{"zip_code":"8000253","kana_pref":"ﾌｸｵｶｹﾝ","kana_city":"ｷﾀｷｭｳｼｭｳｼｺｸﾗﾐﾅﾐｸ","kana_address":"ｸｽﾞﾊﾗﾎﾝﾏﾁ","pref":"福岡県","city":"北九州市小倉南区","address":"葛原本町"},
{"zip_code":"8000254","kana_pref":"ﾌｸｵｶｹﾝ","kana_city":"ｷﾀｷｭｳｼｭｳｼｺｸﾗﾐﾅﾐｸ","kana_address":"ｸｽﾞﾊﾗﾓﾄﾏﾁ","pref":"福岡県","city":"北九州市小倉南区","address":"葛原元町"},
{"zip_code":"8000206","kana_pref":"ﾌｸｵｶｹﾝ","kana_city":"ｷﾀｷｭｳｼｭｳｼｺｸﾗﾐﾅﾐｸ","kana_address":"ｸｽﾞﾊﾗﾋｶﾞｼ","pref":"福岡県","city":"北九州市小倉南区","address":"葛原東"},
{"zip_code":"8000217","kana_pref":"ﾌｸｵｶｹﾝ","kana_city":"ｷﾀｷｭｳｼｭｳｼｺｸﾗﾐﾅﾐｸ","kana_address":"ｼﾓｿﾈ","pref":"福岡県","city":"北九州市小倉南区","address":"下曽根"},
{"zip_code":"8000221","kana_pref":"ﾌｸｵｶｹﾝ","kana_city":"ｷﾀｷｭｳｼｭｳｼｺｸﾗﾐﾅﾐｸ","kana_address":"ｼﾓｿﾈｼﾝﾏﾁ","pref":"福岡県","city":"北九州市小倉南区","address":"下曽根新町"},
{"zip_code":"8000236","kana_pref":"ﾌｸｵｶｹﾝ","kana_city":"ｷﾀｷｭｳｼｭｳｼｺｸﾗﾐﾅﾐｸ","kana_address":"ｼﾓﾇｷ","pref":"福岡県","city":"北九州市小倉南区","address":"下貫"},
{"zip_code":"8000203","kana_pref":"ﾌｸｵｶｹﾝ","kana_city":"ｷﾀｷｭｳｼｭｳｼｺｸﾗﾐﾅﾐｸ","kana_address":"ｼﾓﾖｼﾀﾞ","pref":"福岡県","city":"北九州市小倉南区","address":"下吉田"},
{"zip_code":"8000211","kana_pref":"ﾌｸｵｶｹﾝ","kana_city":"ｷﾀｷｭｳｼｭｳｼｺｸﾗﾐﾅﾐｸ","kana_address":"ｼﾝｿﾈ","pref":"福岡県","city":"北九州市小倉南区","address":"新曽根"},
{"zip_code":"8000212","kana_pref":"ﾌｸｵｶｹﾝ","kana_city":"ｷﾀｷｭｳｼｭｳｼｺｸﾗﾐﾅﾐｸ","kana_address":"ｿﾈ","pref":"福岡県","city":"北九州市小倉南区","address":"曽根"},
{"zip_code":"8000229","kana_pref":"ﾌｸｵｶｹﾝ","kana_city":"ｷﾀｷｭｳｼｭｳｼｺｸﾗﾐﾅﾐｸ","kana_address":"ｿﾈｷﾀﾏﾁ","pref":"福岡県","city":"北九州市小倉南区","address":"曽根北町"},
{"zip_code":"8000214","kana_pref":"ﾌｸｵｶｹﾝ","kana_city":"ｷﾀｷｭｳｼｭｳｼｺｸﾗﾐﾅﾐｸ","kana_address":"ｿﾈｼﾝﾃﾞﾝ","pref":"福岡県","city":"北九州市小倉南区","address":"曽根新田"},
{"zip_code":"8000220","kana_pref":"ﾌｸｵｶｹﾝ","kana_city":"ｷﾀｷｭｳｼｭｳｼｺｸﾗﾐﾅﾐｸ","kana_address":"ｿﾈｼﾝﾃﾞﾝﾐﾅﾐ","pref":"福岡県","city":"北九州市小倉南区","address":"曽根新田南"},
{"zip_code":"8000219","kana_pref":"ﾌｸｵｶｹﾝ","kana_city":"ｷﾀｷｭｳｼｭｳｼｺｸﾗﾐﾅﾐｸ","kana_address":"ｿﾈｼﾝﾃﾞﾝｷﾀ","pref":"福岡県","city":"北九州市小倉南区","address":"曽根新田北"},
{"zip_code":"8000225","kana_pref":"ﾌｸｵｶｹﾝ","kana_city":"ｷﾀｷｭｳｼｭｳｼｺｸﾗﾐﾅﾐｸ","kana_address":"ﾀﾊﾗ","pref":"福岡県","city":"北九州市小倉南区","address":"田原"},
{"zip_code":"8000226","kana_pref":"ﾌｸｵｶｹﾝ","kana_city":"ｷﾀｷｭｳｼｭｳｼｺｸﾗﾐﾅﾐｸ","kana_address":"ﾀﾊﾗｼﾝﾏﾁ","pref":"福岡県","city":"北九州市小倉南区","address":"田原新町"},
{"zip_code":"8000242","kana_pref":"ﾌｸｵｶｹﾝ","kana_city":"ｷﾀｷｭｳｼｭｳｼｺｸﾗﾐﾅﾐｸ","kana_address":"ﾂﾀﾞ","pref":"福岡県","city":"北九州市小倉南区","address":"津田"},
{"zip_code":"8000227","kana_pref":"ﾌｸｵｶｹﾝ","kana_city":"ｷﾀｷｭｳｼｭｳｼｺｸﾗﾐﾅﾐｸ","kana_address":"ﾂﾀﾞｼﾝﾏﾁ","pref":"福岡県","city":"北九州市小倉南区","address":"津田新町"},
{"zip_code":"8000248","kana_pref":"ﾌｸｵｶｹﾝ","kana_city":"ｷﾀｷｭｳｼｭｳｼｺｸﾗﾐﾅﾐｸ","kana_address":"ﾂﾀﾞﾐﾅﾐﾏﾁ","pref":"福岡県","city":"北九州市小倉南区","address":"津田南町"},
{"zip_code":"8000222","kana_pref":"ﾌｸｵｶｹﾝ","kana_city":"ｷﾀｷｭｳｼｭｳｼｺｸﾗﾐﾅﾐｸ","kana_address":"ﾅｶｿﾈ","pref":"福岡県","city":"北九州市小倉南区","address":"中曽根"},
{"zip_code":"8000216","kana_pref":"ﾌｸｵｶｹﾝ","kana_city":"ｷﾀｷｭｳｼｭｳｼｺｸﾗﾐﾅﾐｸ","kana_address":"ﾅｶｿﾈｼﾝﾏﾁ","pref":"福岡県","city":"北九州市小倉南区","address":"中曽根新町"},
{"zip_code":"8000213","kana_pref":"ﾌｸｵｶｹﾝ","kana_city":"ｷﾀｷｭｳｼｭｳｼｺｸﾗﾐﾅﾐｸ","kana_address":"ﾅｶｿﾈﾋｶﾞｼ","pref":"福岡県","city":"北九州市小倉南区","address":"中曽根東"},
{"zip_code":"8000237","kana_pref":"ﾌｸｵｶｹﾝ","kana_city":"ｷﾀｷｭｳｼｭｳｼｺｸﾗﾐﾅﾐｸ","kana_address":"ﾅｶﾇｷ","pref":"福岡県","city":"北九州市小倉南区","address":"中貫"},
{"zip_code":"8000235","kana_pref":"ﾌｸｵｶｹﾝ","kana_city":"ｷﾀｷｭｳｼｭｳｼｺｸﾗﾐﾅﾐｸ","kana_address":"ﾅｶﾇｷﾎﾝﾏﾁ","pref":"福岡県","city":"北九州市小倉南区","address":"中貫本町"},
{"zip_code":"8000204","kana_pref":"ﾌｸｵｶｹﾝ","kana_city":"ｷﾀｷｭｳｼｭｳｼｺｸﾗﾐﾅﾐｸ","kana_address":"ﾅｶﾖｼﾀﾞ","pref":"福岡県","city":"北九州市小倉南区","address":"中吉田"},
{"zip_code":"8000228","kana_pref":"ﾌｸｵｶｹﾝ","kana_city":"ｷﾀｷｭｳｼｭｳｼｺｸﾗﾐﾅﾐｸ","kana_address":"ﾅｶﾞﾉ","pref":"福岡県","city":"北九州市小倉南区","address":"長野"},
{"zip_code":"8000246","kana_pref":"ﾌｸｵｶｹﾝ","kana_city":"ｷﾀｷｭｳｼｭｳｼｺｸﾗﾐﾅﾐｸ","kana_address":"ﾅｶﾞﾉ","pref":"福岡県","city":"北九州市小倉南区","address":"長野"},
{"zip_code":"8000247","kana_pref":"ﾌｸｵｶｹﾝ","kana_city":"ｷﾀｷｭｳｼｭｳｼｺｸﾗﾐﾅﾐｸ","kana_address":"ﾅｶﾞﾉﾋｶﾞｼﾏﾁ","pref":"福岡県","city":"北九州市小倉南区","address":"長野東町"},
{"zip_code":"8000241","kana_pref":"ﾌｸｵｶｹﾝ","kana_city":"ｷﾀｷｭｳｼｭｳｼｺｸﾗﾐﾅﾐｸ","kana_address":"ﾅｶﾞﾉﾎﾝﾏﾁ","pref":"福岡県","city":"北九州市小倉南区","address":"長野本町"},
{"zip_code":"8000243","kana_pref":"ﾌｸｵｶｹﾝ","kana_city":"ｷﾀｷｭｳｼｭｳｼｺｸﾗﾐﾅﾐｸ","kana_address":"ﾆｼﾇｷ","pref":"福岡県","city":"北九州市小倉南区","address":"西貫"},
{"zip_code":"8000245","kana_pref":"ﾌｸｵｶｹﾝ","kana_city":"ｷﾀｷｭｳｼｭｳｼｺｸﾗﾐﾅﾐｸ","kana_address":"ﾇｷ","pref":"福岡県","city":"北九州市小倉南区","address":"貫"},
{"zip_code":"8000234","kana_pref":"ﾌｸｵｶｹﾝ","kana_city":"ｷﾀｷｭｳｼｭｳｼｺｸﾗﾐﾅﾐｸ","kana_address":"ﾇｷﾔﾖｲｶﾞｵｶ","pref":"福岡県","city":"北九州市小倉南区","address":"貫弥生が丘"},
{"zip_code":"8000209","kana_pref":"ﾌｸｵｶｹﾝ","kana_city":"ｷﾀｷｭｳｼｭｳｼｺｸﾗﾐﾅﾐｸ","kana_address":"ﾇﾏ","pref":"福岡県","city":"北九州市小倉南区","address":"沼"},
{"zip_code":"8000218","kana_pref":"ﾌｸｵｶｹﾝ","kana_city":"ｷﾀｷｭｳｼｭｳｼｺｸﾗﾐﾅﾐｸ","kana_address":"ﾇﾏｼﾝﾏﾁ","pref":"福岡県","city":"北九州市小倉南区","address":"沼新町"},
{"zip_code":"8000208","kana_pref":"ﾌｸｵｶｹﾝ","kana_city":"ｷﾀｷｭｳｼｭｳｼｺｸﾗﾐﾅﾐｸ","kana_address":"ﾇﾏﾎﾝﾏﾁ","pref":"福岡県","city":"北九州市小倉南区","address":"沼本町"},
{"zip_code":"8000207","kana_pref":"ﾌｸｵｶｹﾝ","kana_city":"ｷﾀｷｭｳｼｭｳｼｺｸﾗﾐﾅﾐｸ","kana_address":"ﾇﾏﾐﾄﾞﾘﾏﾁ","pref":"福岡県","city":"北九州市小倉南区","address":"沼緑町"},
{"zip_code":"8000205","kana_pref":"ﾌｸｵｶｹﾝ","kana_city":"ｷﾀｷｭｳｼｭｳｼｺｸﾗﾐﾅﾐｸ","kana_address":"ﾇﾏﾐﾅﾐﾏﾁ","pref":"福岡県","city":"北九州市小倉南区","address":"沼南町"},
{"zip_code":"8000224","kana_pref":"ﾌｸｵｶｹﾝ","kana_city":"ｷﾀｷｭｳｼｭｳｼｺｸﾗﾐﾅﾐｸ","kana_address":"ﾋｶﾞｼﾇｷ","pref":"福岡県","city":"北九州市小倉南区","address":"東貫"},
{"zip_code":"8000257","kana_pref":"ﾌｸｵｶｹﾝ","kana_city":"ｷﾀｷｭｳｼｭｳｼｺｸﾗﾐﾅﾐｸ","kana_address":"ﾕｶﾞﾜ","pref":"福岡県","city":"北九州市小倉南区","address":"湯川"},
{"zip_code":"8000256","kana_pref":"ﾌｸｵｶｹﾝ","kana_city":"ｷﾀｷｭｳｼｭｳｼｺｸﾗﾐﾅﾐｸ","kana_address":"ﾕｶﾞﾜｼﾝﾏﾁ","pref":"福岡県","city":"北九州市小倉南区","address":"湯川新町"},
{"zip_code":"8000202","kana_pref":"ﾌｸｵｶｹﾝ","kana_city":"ｷﾀｷｭｳｼｭｳｼｺｸﾗﾐﾅﾐｸ","kana_address":"ﾖｼﾀﾞ","pref":"福岡県","city":"北九州市小倉南区","address":"吉田"},
{"zip_code":"8000210","kana_pref":"ﾌｸｵｶｹﾝ","kana_city":"ｷﾀｷｭｳｼｭｳｼｺｸﾗﾐﾅﾐｸ","kana_address":"ﾖｼﾀﾞﾆﾚﾉｷｻﾞｶ","pref":"福岡県","city":"北九州市小倉南区","address":"吉田にれの木坂"},
{"zip_code":"8000300","kana_pref":"ﾌｸｵｶｹﾝ","kana_city":"ﾐﾔｺｸﾞﾝｶﾝﾀﾞﾏﾁ","kana_address":"","pref":"福岡県","city":"京都郡苅田町","address":""},
{"zip_code":"8000354","kana_pref":"ﾌｸｵｶｹﾝ","kana_city":"ﾐﾔｺｸﾞﾝｶﾝﾀﾞﾏﾁ","kana_address":"ｱﾂﾏﾘ","pref":"福岡県","city":"京都郡苅田町","address":"集"},
{"zip_code":"8000366","kana_pref":"ﾌｸｵｶｹﾝ","kana_city":"ﾐﾔｺｸﾞﾝｶﾝﾀﾞﾏﾁ","kana_address":"ｱﾏｸﾎﾞ","pref":"福岡県","city":"京都郡苅田町","address":"雨窪"},
{"zip_code":"8000344","kana_pref":"ﾌｸｵｶｹﾝ","kana_city":"ﾐﾔｺｸﾞﾝｶﾝﾀﾞﾏﾁ","kana_address":"ｱﾗﾂ","pref":"福岡県","city":"京都郡苅田町","address":"新津"},
{"zip_code":"8000313","kana_pref":"ﾌｸｵｶｹﾝ","kana_city":"ﾐﾔｺｸﾞﾝｶﾝﾀﾞﾏﾁ","kana_address":"ｲｿﾊﾏﾁｮｳ","pref":"福岡県","city":"京都郡苅田町","address":"磯浜町"},
{"zip_code":"8000337","kana_pref":"ﾌｸｵｶｹﾝ","kana_city":"ﾐﾔｺｸﾞﾝｶﾝﾀﾞﾏﾁ","kana_address":"ｲﾅﾐﾂ","pref":"福岡県","city":"京都郡苅田町","address":"稲光"},
{"zip_code":"8000331","kana_pref":"ﾌｸｵｶｹﾝ","kana_city":"ﾐﾔｺｸﾞﾝｶﾝﾀﾞﾏﾁ","kana_address":"ｵｶｻﾞｷ","pref":"福岡県","city":"京都郡苅田町","address":"岡崎"},
{"zip_code":"8000353","kana_pref":"ﾌｸｵｶｹﾝ","kana_city":"ﾐﾔｺｸﾞﾝｶﾝﾀﾞﾏﾁ","kana_address":"ｵｸﾞﾗ","pref":"福岡県","city":"京都郡苅田町","address":"尾倉"},
{"zip_code":"8000345","kana_pref":"ﾌｸｵｶｹﾝ","kana_city":"ﾐﾔｺｸﾞﾝｶﾝﾀﾞﾏﾁ","kana_address":"ｵﾊﾞｾ","pref":"福岡県","city":"京都郡苅田町","address":"小波瀬"},
{"zip_code":"8000343","kana_pref":"ﾌｸｵｶｹﾝ","kana_city":"ﾐﾔｺｸﾞﾝｶﾝﾀﾞﾏﾁ","kana_address":"ｶﾐｶﾀｼﾏ","pref":"福岡県","city":"京都郡苅田町","address":"上片島"},
{"zip_code":"8000365","kana_pref":"ﾌｸｵｶｹﾝ","kana_city":"ﾐﾔｺｸﾞﾝｶﾝﾀﾞﾏﾁ","kana_address":"ｶﾝﾀﾞ","pref":"福岡県","city":"京都郡苅田町","address":"苅田"},
{"zip_code":"8000351","kana_pref":"ﾌｸｵｶｹﾝ","kana_city":"ﾐﾔｺｸﾞﾝｶﾝﾀﾞﾏﾁ","kana_address":"ｷｮｳﾏﾁ","pref":"福岡県","city":"京都郡苅田町","address":"京町"},
{"zip_code":"8000305","kana_pref":"ﾌｸｵｶｹﾝ","kana_city":"ﾐﾔｺｸﾞﾝｶﾝﾀﾞﾏﾁ","kana_address":"ｸｳｺｳﾐﾅﾐﾏﾁ","pref":"福岡県","city":"京都郡苅田町","address":"空港南町"},
{"zip_code":"8000338","kana_pref":"ﾌｸｵｶｹﾝ","kana_city":"ﾐﾔｺｸﾞﾝｶﾝﾀﾞﾏﾁ","kana_address":"ｸｽﾞｶﾞﾜ","pref":"福岡県","city":"京都郡苅田町","address":"葛川"},
{"zip_code":"8000333","kana_pref":"ﾌｸｵｶｹﾝ","kana_city":"ﾐﾔｺｸﾞﾝｶﾝﾀﾞﾏﾁ","kana_address":"ｸﾛｿﾞｴ","pref":"福岡県","city":"京都郡苅田町","address":"黒添"},
{"zip_code":"8000356","kana_pref":"ﾌｸｵｶｹﾝ","kana_city":"ﾐﾔｺｸﾞﾝｶﾝﾀﾞﾏﾁ","kana_address":"ｺﾉｴｶﾞｵｶ","pref":"福岡県","city":"京都郡苅田町","address":"近衛ケ丘"},
{"zip_code":"8000314","kana_pref":"ﾌｸｵｶｹﾝ","kana_city":"ﾐﾔｺｸﾞﾝｶﾝﾀﾞﾏﾁ","kana_address":"ｻｲﾜｲﾏﾁ","pref":"福岡県","city":"京都郡苅田町","address":"幸町"},
{"zip_code":"8000357","kana_pref":"ﾌｸｵｶｹﾝ","kana_city":"ﾐﾔｺｸﾞﾝｶﾝﾀﾞﾏﾁ","kana_address":"ｻｸﾗｶﾞｵｶ","pref":"福岡県","city":"京都郡苅田町","address":"桜ケ丘"},
{"zip_code":"8000341","kana_pref":"ﾌｸｵｶｹﾝ","kana_city":"ﾐﾔｺｸﾞﾝｶﾝﾀﾞﾏﾁ","kana_address":"ｼﾓｱﾗﾂ","pref":"福岡県","city":"京都郡苅田町","address":"下新津"},
{"zip_code":"8000342","kana_pref":"ﾌｸｵｶｹﾝ","kana_city":"ﾐﾔｺｸﾞﾝｶﾝﾀﾞﾏﾁ","kana_address":"ｼﾓｶﾀｼﾏ","pref":"福岡県","city":"京都郡苅田町","address":"下片島"},
{"zip_code":"8000361","kana_pref":"ﾌｸｵｶｹﾝ","kana_city":"ﾐﾔｺｸﾞﾝｶﾝﾀﾞﾏﾁ","kana_address":"ｼﾞﾝﾃﾞﾝﾁｮｳ","pref":"福岡県","city":"京都郡苅田町","address":"神田町"},
{"zip_code":"8000321","kana_pref":"ﾌｸｵｶｹﾝ","kana_city":"ﾐﾔｺｸﾞﾝｶﾝﾀﾞﾏﾁ","kana_address":"ｼﾝﾊﾏﾁｮｳ","pref":"福岡県","city":"京都郡苅田町","address":"新浜町"},
{"zip_code":"8000332","kana_pref":"ﾌｸｵｶｹﾝ","kana_city":"ﾐﾔｺｸﾞﾝｶﾝﾀﾞﾏﾁ","kana_address":"ｽｷｻﾞｷ","pref":"福岡県","city":"京都郡苅田町","address":"鋤崎"},
{"zip_code":"8000335","kana_pref":"ﾌｸｵｶｹﾝ","kana_city":"ﾐﾔｺｸﾞﾝｶﾝﾀﾞﾏﾁ","kana_address":"ﾀﾆ","pref":"福岡県","city":"京都郡苅田町","address":"谷"},
{"zip_code":"8000312","kana_pref":"ﾌｸｵｶｹﾝ","kana_city":"ﾐﾔｺｸﾞﾝｶﾝﾀﾞﾏﾁ","kana_address":"ﾄﾉｶﾞﾜﾁｮｳ","pref":"福岡県","city":"京都郡苅田町","address":"殿川町"},
{"zip_code":"8000352","kana_pref":"ﾌｸｵｶｹﾝ","kana_city":"ﾐﾔｺｸﾞﾝｶﾝﾀﾞﾏﾁ","kana_address":"ﾄﾐﾋｻﾁｮｳ","pref":"福岡県","city":"京都郡苅田町","address":"富久町"},
{"zip_code":"8000304","kana_pref":"ﾌｸｵｶｹﾝ","kana_city":"ﾐﾔｺｸﾞﾝｶﾝﾀﾞﾏﾁ","kana_address":"ﾄﾘｺﾞｴﾁｮｳ","pref":"福岡県","city":"京都郡苅田町","address":"鳥越町"},
{"zip_code":"8000311","kana_pref":"ﾌｸｵｶｹﾝ","kana_city":"ﾐﾔｺｸﾞﾝｶﾝﾀﾞﾏﾁ","kana_address":"ﾅｶﾞﾊﾏﾁｮｳ","pref":"福岡県","city":"京都郡苅田町","address":"長浜町"},
{"zip_code":"8000362","kana_pref":"ﾌｸｵｶｹﾝ","kana_city":"ﾐﾔｺｸﾞﾝｶﾝﾀﾞﾏﾁ","kana_address":"ﾊﾞﾊﾞ","pref":"福岡県","city":"京都郡苅田町","address":"馬場"},
{"zip_code":"8000324","kana_pref":"ﾌｸｵｶｹﾝ","kana_city":"ﾐﾔｺｸﾞﾝｶﾝﾀﾞﾏﾁ","kana_address":"ﾊﾏﾏﾁ","pref":"福岡県","city":"京都郡苅田町","address":"浜町"},
{"zip_code":"8000364","kana_pref":"ﾌｸｵｶｹﾝ","kana_city":"ﾐﾔｺｸﾞﾝｶﾝﾀﾞﾏﾁ","kana_address":"ﾋｻｹﾞ","pref":"福岡県","city":"京都郡苅田町","address":"提"},
{"zip_code":"8000322","kana_pref":"ﾌｸｵｶｹﾝ","kana_city":"ﾐﾔｺｸﾞﾝｶﾝﾀﾞﾏﾁ","kana_address":"ﾌﾀｻﾞｷ","pref":"福岡県","city":"京都郡苅田町","address":"二崎"},
{"zip_code":"8000334","kana_pref":"ﾌｸｵｶｹﾝ","kana_city":"ﾐﾔｺｸﾞﾝｶﾝﾀﾞﾏﾁ","kana_address":"ﾎｳｼｮｳｼﾞ","pref":"福岡県","city":"京都郡苅田町","address":"法正寺"},
{"zip_code":"8000301","kana_pref":"ﾌｸｵｶｹﾝ","kana_city":"ﾐﾔｺｸﾞﾝｶﾝﾀﾞﾏﾁ","kana_address":"ﾏﾂﾊﾞﾗﾁｮｳ","pref":"福岡県","city":"京都郡苅田町","address":"松原町"},
{"zip_code":"8000303","kana_pref":"ﾌｸｵｶｹﾝ","kana_city":"ﾐﾔｺｸﾞﾝｶﾝﾀﾞﾏﾁ","kana_address":"ﾏﾂﾔﾏ","pref":"福岡県","city":"京都郡苅田町","address":"松山"},
{"zip_code":"8000363","kana_pref":"ﾌｸｵｶｹﾝ","kana_city":"ﾐﾔｺｸﾞﾝｶﾝﾀﾞﾏﾁ","kana_address":"ﾐﾂｸﾆ","pref":"福岡県","city":"京都郡苅田町","address":"光国"},
{"zip_code":"8000315","kana_pref":"ﾌｸｵｶｹﾝ","kana_city":"ﾐﾔｺｸﾞﾝｶﾝﾀﾞﾏﾁ","kana_address":"ﾐﾅﾄﾏﾁ","pref":"福岡県","city":"京都郡苅田町","address":"港町"},
{"zip_code":"8000355","kana_pref":"ﾌｸｵｶｹﾝ","kana_city":"ﾐﾔｺｸﾞﾝｶﾝﾀﾞﾏﾁ","kana_address":"ﾐﾅﾐﾊﾞﾙ","pref":"福岡県","city":"京都郡苅田町","address":"南原"},
{"zip_code":"8000336","kana_pref":"ﾌｸｵｶｹﾝ","kana_city":"ﾐﾔｺｸﾞﾝｶﾝﾀﾞﾏﾁ","kana_address":"ﾔﾏｸﾞﾁ","pref":"福岡県","city":"京都郡苅田町","address":"山口"},
{"zip_code":"8000323","kana_pref":"ﾌｸｵｶｹﾝ","kana_city":"ﾐﾔｺｸﾞﾝｶﾝﾀﾞﾏﾁ","kana_address":"ﾖﾊﾞﾙ","pref":"福岡県","city":"京都郡苅田町","address":"与原"},
{"zip_code":"8000302","kana_pref":"ﾌｸｵｶｹﾝ","kana_city":"ﾐﾔｺｸﾞﾝｶﾝﾀﾞﾏﾁ","kana_address":"ﾜｶﾋｻﾁｮｳ","pref":"福岡県","city":"京都郡苅田町","address":"若久町"}]}