{"zip_code":[
{"zip_code":"8010864","kana_pref":"ﾌｸｵｶｹﾝ","kana_city":"ｷﾀｷｭｳｼｭｳｼﾓｼﾞｸ","kana_address":"ｵｲﾏﾂﾁｮｳ","pref":"福岡県","city":"北九州市門司区","address":"老松町"},
{"zip_code":"8010883","kana_pref":"ﾌｸｵｶｹﾝ","kana_city":"ｷﾀｷｭｳｼｭｳｼﾓｼﾞｸ","kana_address":"ｵｵｸﾎﾞ","pref":"福岡県","city":"北九州市門司区","address":"大久保"},
{"zip_code":"8010811","kana_pref":"ﾌｸｵｶｹﾝ","kana_city":"ｷﾀｷｭｳｼｭｳｼﾓｼﾞｸ","kana_address":"ｵｵﾂﾐ","pref":"福岡県","city":"北九州市門司区","address":"大積"},
{"zip_code":"8010876","kana_pref":"ﾌｸｵｶｹﾝ","kana_city":"ｷﾀｷｭｳｼｭｳｼﾓｼﾞｸ","kana_address":"ｶｹﾞﾂｴﾝ","pref":"福岡県","city":"北九州市門司区","address":"花月園"},
{"zip_code":"8010801","kana_pref":"ﾌｸｵｶｹﾝ","kana_city":"ｷﾀｷｭｳｼｭｳｼﾓｼﾞｸ","kana_address":"ｶｻﾞｼ","pref":"福岡県","city":"北九州市門司区","address":"風師"},
{"zip_code":"8010823","kana_pref":"ﾌｸｵｶｹﾝ","kana_city":"ｷﾀｷｭｳｼｭｳｼﾓｼﾞｸ","kana_address":"ｶｽｶﾞﾏﾁ","pref":"福岡県","city":"北九州市門司区","address":"春日町"},
{"zip_code":"8010871","kana_pref":"ﾌｸｵｶｹﾝ","kana_city":"ｷﾀｷｭｳｼｭｳｼﾓｼﾞｸ","kana_address":"ｶﾐﾎﾝﾏﾁ","pref":"福岡県","city":"北九州市門司区","address":"上本町"},
{"zip_code":"8010812","kana_pref":"ﾌｸｵｶｹﾝ","kana_city":"ｷﾀｷｭｳｼｭｳｼﾓｼﾞｸ","kana_address":"ｷﾀｸ","pref":"福岡県","city":"北九州市門司区","address":"喜多久"},
{"zip_code":"8010854","kana_pref":"ﾌｸｵｶｹﾝ","kana_city":"ｷﾀｷｭｳｼｭｳｼﾓｼﾞｸ","kana_address":"ｷｭｳﾓｼﾞ","pref":"福岡県","city":"北九州市門司区","address":"旧門司"},
{"zip_code":"8010833","kana_pref":"ﾌｸｵｶｹﾝ","kana_city":"ｷﾀｷｭｳｼｭｳｼﾓｼﾞｸ","kana_address":"ｷﾖﾀｷ","pref":"福岡県","city":"北九州市門司区","address":"清滝"},
{"zip_code":"8010882","kana_pref":"ﾌｸｵｶｹﾝ","kana_city":"ｷﾀｷｭｳｼｭｳｼﾓｼﾞｸ","kana_address":"ｷﾖﾐ","pref":"福岡県","city":"北九州市門司区","address":"清見"},
{"zip_code":"8010886","kana_pref":"ﾌｸｵｶｹﾝ","kana_city":"ｷﾀｷｭｳｼｭｳｼﾓｼﾞｸ","kana_address":"ｷﾖﾐｻﾔﾏﾁ","pref":"福岡県","city":"北九州市門司区","address":"清見佐夜町"},
{"zip_code":"8010808","kana_pref":"ﾌｸｵｶｹﾝ","kana_city":"ｷﾀｷｭｳｼｭｳｼﾓｼﾞｸ","kana_address":"ｸｽﾞﾊ","pref":"福岡県","city":"北九州市門司区","address":"葛葉"},
{"zip_code":"8010821","kana_pref":"ﾌｸｵｶｹﾝ","kana_city":"ｷﾀｷｭｳｼｭｳｼﾓｼﾞｸ","kana_address":"ｸﾛｶﾞﾜ","pref":"福岡県","city":"北九州市門司区","address":"黒川"},
{"zip_code":"8010826","kana_pref":"ﾌｸｵｶｹﾝ","kana_city":"ｷﾀｷｭｳｼｭｳｼﾓｼﾞｸ","kana_address":"ｸﾛｶﾞﾜﾋｶﾞｼ","pref":"福岡県","city":"北九州市門司区","address":"黒川東"},
{"zip_code":"8010825","kana_pref":"ﾌｸｵｶｹﾝ","kana_city":"ｷﾀｷｭｳｼｭｳｼﾓｼﾞｸ","kana_address":"ｸﾛｶﾞﾜﾆｼ","pref":"福岡県","city":"北九州市門司区","address":"黒川西"},
{"zip_code":"8010863","kana_pref":"ﾌｸｵｶｹﾝ","kana_city":"ｷﾀｷｭｳｼｭｳｼﾓｼﾞｸ","kana_address":"ｻｶｴﾏﾁ","pref":"福岡県","city":"北九州市門司区","address":"栄町"},
{"zip_code":"8010865","kana_pref":"ﾌｸｵｶｹﾝ","kana_city":"ｷﾀｷｭｳｼｭｳｼﾓｼﾞｸ","kana_address":"ｼｮｳｼﾞﾏﾁ","pref":"福岡県","city":"北九州市門司区","address":"庄司町"},
{"zip_code":"8010802","kana_pref":"ﾌｸｵｶｹﾝ","kana_city":"ｷﾀｷｭｳｼｭｳｼﾓｼﾞｸ","kana_address":"ｼﾗﾉｴ","pref":"福岡県","city":"北九州市門司区","address":"白野江"},
{"zip_code":"8010885","kana_pref":"ﾌｸｵｶｹﾝ","kana_city":"ｷﾀｷｭｳｼｭｳｼﾓｼﾞｸ","kana_address":"ｼﾝｶｲ","pref":"福岡県","city":"北九州市門司区","address":"新開"},
{"zip_code":"8010884","kana_pref":"ﾌｸｵｶｹﾝ","kana_city":"ｷﾀｷｭｳｼｭｳｼﾓｼﾞｸ","kana_address":"ｾﾄﾏﾁ","pref":"福岡県","city":"北九州市門司区","address":"瀬戸町"},
{"zip_code":"8010822","kana_pref":"ﾌｸｵｶｹﾝ","kana_city":"ｷﾀｷｭｳｼｭｳｼﾓｼﾞｸ","kana_address":"ﾀｶｻｺﾞﾏﾁ","pref":"福岡県","city":"北九州市門司区","address":"高砂町"},
{"zip_code":"8010805","kana_pref":"ﾌｸｵｶｹﾝ","kana_city":"ｷﾀｷｭｳｼｭｳｼﾓｼﾞｸ","kana_address":"ﾀﾁﾉｳﾗｶｲｶﾞﾝ","pref":"福岡県","city":"北九州市門司区","address":"太刀浦海岸"},
{"zip_code":"8010872","kana_pref":"ﾌｸｵｶｹﾝ","kana_city":"ｷﾀｷｭｳｼｭｳｼﾓｼﾞｸ","kana_address":"ﾀﾆﾏﾁ","pref":"福岡県","city":"北九州市門司区","address":"谷町"},
{"zip_code":"8010803","kana_pref":"ﾌｸｵｶｹﾝ","kana_city":"ｷﾀｷｭｳｼｭｳｼﾓｼﾞｸ","kana_address":"ﾀﾉｳﾗ","pref":"福岡県","city":"北九州市門司区","address":"田野浦"},
{"zip_code":"8010804","kana_pref":"ﾌｸｵｶｹﾝ","kana_city":"ｷﾀｷｭｳｼｭｳｼﾓｼﾞｸ","kana_address":"ﾀﾉｳﾗｶｲｶﾞﾝ","pref":"福岡県","city":"北九州市門司区","address":"田野浦海岸"},
{"zip_code":"8010861","kana_pref":"ﾌｸｵｶｹﾝ","kana_city":"ｷﾀｷｭｳｼｭｳｼﾓｼﾞｸ","kana_address":"ﾅｶﾞﾀﾆ","pref":"福岡県","city":"北九州市門司区","address":"長谷"},
{"zip_code":"8010881","kana_pref":"ﾌｸｵｶｹﾝ","kana_city":"ｷﾀｷｭｳｼｭｳｼﾓｼﾞｸ","kana_address":"ﾅﾙﾀｹ","pref":"福岡県","city":"北九州市門司区","address":"鳴竹"},
{"zip_code":"8010841","kana_pref":"ﾌｸｵｶｹﾝ","kana_city":"ｷﾀｷｭｳｼｭｳｼﾓｼﾞｸ","kana_address":"ﾆｼｶｲｶﾞﾝ","pref":"福岡県","city":"北九州市門司区","address":"西海岸"},
{"zip_code":"8010862","kana_pref":"ﾌｸｵｶｹﾝ","kana_city":"ｷﾀｷｭｳｼｭｳｼﾓｼﾞｸ","kana_address":"ﾆｼｷﾏﾁ","pref":"福岡県","city":"北九州市門司区","address":"錦町"},
{"zip_code":"8010874","kana_pref":"ﾌｸｵｶｹﾝ","kana_city":"ｷﾀｷｭｳｼｭｳｼﾓｼﾞｸ","kana_address":"ﾊﾀｹﾀﾞﾏﾁ","pref":"福岡県","city":"北九州市門司区","address":"畑田町"},
{"zip_code":"8010856","kana_pref":"ﾌｸｵｶｹﾝ","kana_city":"ｷﾀｷｭｳｼｭｳｼﾓｼﾞｸ","kana_address":"ﾊﾏﾏﾁ","pref":"福岡県","city":"北九州市門司区","address":"浜町"},
{"zip_code":"8010851","kana_pref":"ﾌｸｵｶｹﾝ","kana_city":"ｷﾀｷｭｳｼｭｳｼﾓｼﾞｸ","kana_address":"ﾋｶﾞｼﾎﾝﾏﾁ","pref":"福岡県","city":"北九州市門司区","address":"東本町"},
{"zip_code":"8010853","kana_pref":"ﾌｸｵｶｹﾝ","kana_city":"ｷﾀｷｭｳｼｭｳｼﾓｼﾞｸ","kana_address":"ﾋｶﾞｼﾐﾅﾄﾏﾁ","pref":"福岡県","city":"北九州市門司区","address":"東港町"},
{"zip_code":"8010873","kana_pref":"ﾌｸｵｶｹﾝ","kana_city":"ｷﾀｷｭｳｼｭｳｼﾓｼﾞｸ","kana_address":"ﾋｶﾞｼﾓｼﾞ","pref":"福岡県","city":"北九州市門司区","address":"東門司"},
{"zip_code":"8010813","kana_pref":"ﾌｸｵｶｹﾝ","kana_city":"ｷﾀｷｭｳｼｭｳｼﾓｼﾞｸ","kana_address":"ﾋｼｬｸﾀﾞ","pref":"福岡県","city":"北九州市門司区","address":"柄杓田"},
{"zip_code":"8010814","kana_pref":"ﾌｸｵｶｹﾝ","kana_city":"ｷﾀｷｭｳｼｭｳｼﾓｼﾞｸ","kana_address":"ﾋｼｬｸﾀﾞﾏﾁ","pref":"福岡県","city":"北九州市門司区","address":"柄杓田町"},
{"zip_code":"8010842","kana_pref":"ﾌｸｵｶｹﾝ","kana_city":"ｷﾀｷｭｳｼｭｳｼﾓｼﾞｸ","kana_address":"ﾋﾛｲｼ","pref":"福岡県","city":"北九州市門司区","address":"広石"},
{"zip_code":"8010875","kana_pref":"ﾌｸｵｶｹﾝ","kana_city":"ｷﾀｷｭｳｼｭｳｼﾓｼﾞｸ","kana_address":"ﾎｳｼｱﾝ","pref":"福岡県","city":"北九州市門司区","address":"法師庵"},
{"zip_code":"8010834","kana_pref":"ﾌｸｵｶｹﾝ","kana_city":"ｷﾀｷｭｳｼｭｳｼﾓｼﾞｸ","kana_address":"ﾎﾝﾏﾁ","pref":"福岡県","city":"北九州市門司区","address":"本町"},
{"zip_code":"8010831","kana_pref":"ﾌｸｵｶｹﾝ","kana_city":"ｷﾀｷｭｳｼｭｳｼﾓｼﾞｸ","kana_address":"ﾏﾙﾔﾏ","pref":"福岡県","city":"北九州市門司区","address":"丸山"},
{"zip_code":"8010824","kana_pref":"ﾌｸｵｶｹﾝ","kana_city":"ｷﾀｷｭｳｼｭｳｼﾓｼﾞｸ","kana_address":"ﾏﾙﾔﾏﾖｼﾉﾏﾁ","pref":"福岡県","city":"北九州市門司区","address":"丸山吉野町"},
{"zip_code":"8010852","kana_pref":"ﾌｸｵｶｹﾝ","kana_city":"ｷﾀｷｭｳｼｭｳｼﾓｼﾞｸ","kana_address":"ﾐﾅﾄﾏﾁ","pref":"福岡県","city":"北九州市門司区","address":"港町"},
{"zip_code":"8010855","kana_pref":"ﾌｸｵｶｹﾝ","kana_city":"ｷﾀｷｭｳｼｭｳｼﾓｼﾞｸ","kana_address":"ﾓｼﾞ","pref":"福岡県","city":"北九州市門司区","address":"門司"},
{"zip_code":"8010832","kana_pref":"ﾌｸｵｶｹﾝ","kana_city":"ｷﾀｷｭｳｼｭｳｼﾓｼﾞｸ","kana_address":"ﾓﾄｷﾖﾀｷ","pref":"福岡県","city":"北九州市門司区","address":"元清滝"}]}