{"zip_code":[
{"zip_code":"8020000","kana_pref":"ﾌｸｵｶｹﾝ","kana_city":"ｷﾀｷｭｳｼｭｳｼｺｸﾗｷﾀｸ","kana_address":"","pref":"福岡県","city":"北九州市小倉北区","address":""},
{"zip_code":"8020091","kana_pref":"ﾌｸｵｶｹﾝ","kana_city":"ｷﾀｷｭｳｼｭｳｼｺｸﾗｷﾀｸ","kana_address":"ｱｲﾉｼﾏ","pref":"福岡県","city":"北九州市小倉北区","address":"藍島"},
{"zip_code":"8020032","kana_pref":"ﾌｸｵｶｹﾝ","kana_city":"ｷﾀｷｭｳｼｭｳｼｺｸﾗｷﾀｸ","kana_address":"ｱｶｻｶ","pref":"福岡県","city":"北九州市小倉北区","address":"赤坂"},
{"zip_code":"8020031","kana_pref":"ﾌｸｵｶｹﾝ","kana_city":"ｷﾀｷｭｳｼｭｳｼｺｸﾗｷﾀｸ","kana_address":"ｱｶｻｶｶｲｶﾞﾝ","pref":"福岡県","city":"北九州市小倉北区","address":"赤坂海岸"},
{"zip_code":"8020001","kana_pref":"ﾌｸｵｶｹﾝ","kana_city":"ｷﾀｷｭｳｼｭｳｼｺｸﾗｷﾀｸ","kana_address":"ｱｻﾉ","pref":"福岡県","city":"北九州市小倉北区","address":"浅野"},
{"zip_code":"8020043","kana_pref":"ﾌｸｵｶｹﾝ","kana_city":"ｷﾀｷｭｳｼｭｳｼｺｸﾗｷﾀｸ","kana_address":"ｱｼﾊﾗ","pref":"福岡県","city":"北九州市小倉北区","address":"足原"},
{"zip_code":"8020042","kana_pref":"ﾌｸｵｶｹﾝ","kana_city":"ｷﾀｷｭｳｼｭｳｼｺｸﾗｷﾀｸ","kana_address":"ｱﾀﾞﾁ","pref":"福岡県","city":"北九州市小倉北区","address":"足立"},
{"zip_code":"8020006","kana_pref":"ﾌｸｵｶｹﾝ","kana_city":"ｷﾀｷｭｳｼｭｳｼｺｸﾗｷﾀｸ","kana_address":"ｳｵﾏﾁ","pref":"福岡県","city":"北九州市小倉北区","address":"魚町"},
{"zip_code":"8020016","kana_pref":"ﾌｸｵｶｹﾝ","kana_city":"ｷﾀｷｭｳｼｭｳｼｺｸﾗｷﾀｸ","kana_address":"ｳｻﾏﾁ","pref":"福岡県","city":"北九州市小倉北区","address":"宇佐町"},
{"zip_code":"8020092","kana_pref":"ﾌｸｵｶｹﾝ","kana_city":"ｷﾀｷｭｳｼｭｳｼｺｸﾗｷﾀｸ","kana_address":"ｳﾏｼﾏ","pref":"福岡県","city":"北九州市小倉北区","address":"馬島"},
{"zip_code":"8020083","kana_pref":"ﾌｸｵｶｹﾝ","kana_city":"ｷﾀｷｭｳｼｭｳｼｺｸﾗｷﾀｸ","kana_address":"ｴﾅﾐﾁｮｳ","pref":"福岡県","city":"北九州市小倉北区","address":"江南町"},
{"zip_code":"8020015","kana_pref":"ﾌｸｵｶｹﾝ","kana_city":"ｷﾀｷｭｳｼｭｳｼｺｸﾗｷﾀｸ","kana_address":"ｵｵﾀﾏﾁ","pref":"福岡県","city":"北九州市小倉北区","address":"大田町"},
{"zip_code":"8020026","kana_pref":"ﾌｸｵｶｹﾝ","kana_city":"ｷﾀｷｭｳｼｭｳｼｺｸﾗｷﾀｸ","kana_address":"ｵｵﾊﾞﾀｹ","pref":"福岡県","city":"北九州市小倉北区","address":"大畠"},
{"zip_code":"8020004","kana_pref":"ﾌｸｵｶｹﾝ","kana_city":"ｷﾀｷｭｳｼｭｳｼｺｸﾗｷﾀｸ","kana_address":"ｶｼﾞﾏﾁ","pref":"福岡県","city":"北九州市小倉北区","address":"鍛冶町"},
{"zip_code":"8020064","kana_pref":"ﾌｸｵｶｹﾝ","kana_city":"ｷﾀｷｭｳｼｭｳｼｺｸﾗｷﾀｸ","kana_address":"ｶﾀﾉ","pref":"福岡県","city":"北九州市小倉北区","address":"片野"},
{"zip_code":"8020062","kana_pref":"ﾌｸｵｶｹﾝ","kana_city":"ｷﾀｷｭｳｼｭｳｼｺｸﾗｷﾀｸ","kana_address":"ｶﾀﾉｼﾝﾏﾁ","pref":"福岡県","city":"北九州市小倉北区","address":"片野新町"},
{"zip_code":"8020022","kana_pref":"ﾌｸｵｶｹﾝ","kana_city":"ｷﾀｷｭｳｼｭｳｼｺｸﾗｷﾀｸ","kana_address":"ｶﾐﾄﾐﾉ","pref":"福岡県","city":"北九州市小倉北区","address":"上富野"},
{"zip_code":"8020084","kana_pref":"ﾌｸｵｶｹﾝ","kana_city":"ｷﾀｷｭｳｼｭｳｼｺｸﾗｷﾀｸ","kana_address":"ｶﾜﾗｸﾞﾁ","pref":"福岡県","city":"北九州市小倉北区","address":"香春口"},
{"zip_code":"8020045","kana_pref":"ﾌｸｵｶｹﾝ","kana_city":"ｷﾀｷｭｳｼｭｳｼｺｸﾗｷﾀｸ","kana_address":"ｶﾝﾀｹ","pref":"福岡県","city":"北九州市小倉北区","address":"神岳"},
{"zip_code":"8020073","kana_pref":"ﾌｸｵｶｹﾝ","kana_city":"ｷﾀｷｭｳｼｭｳｼｺｸﾗｷﾀｸ","kana_address":"ｷﾌﾈﾏﾁ","pref":"福岡県","city":"北九州市小倉北区","address":"貴船町"},
{"zip_code":"8020002","kana_pref":"ﾌｸｵｶｹﾝ","kana_city":"ｷﾀｷｭｳｼｭｳｼｺｸﾗｷﾀｸ","kana_address":"ｷｮｳﾏﾁ","pref":"福岡県","city":"北九州市小倉北区","address":"京町"},
{"zip_code":"8020052","kana_pref":"ﾌｸｵｶｹﾝ","kana_city":"ｷﾀｷｭｳｼｭｳｼｺｸﾗｷﾀｸ","kana_address":"ｷﾘｶﾞｵｶ","pref":"福岡県","city":"北九州市小倉北区","address":"霧ケ丘"},
{"zip_code":"8020044","kana_pref":"ﾌｸｵｶｹﾝ","kana_city":"ｷﾀｷｭｳｼｭｳｼｺｸﾗｷﾀｸ","kana_address":"ｸﾏﾓﾄ","pref":"福岡県","city":"北九州市小倉北区","address":"熊本"},
{"zip_code":"8020056","kana_pref":"ﾌｸｵｶｹﾝ","kana_city":"ｷﾀｷｭｳｼｭｳｼｺｸﾗｷﾀｸ","kana_address":"ｸﾛｽﾞﾐﾁｮｳ","pref":"福岡県","city":"北九州市小倉北区","address":"黒住町"},
{"zip_code":"8020051","kana_pref":"ﾌｸｵｶｹﾝ","kana_city":"ｷﾀｷｭｳｼｭｳｼｺｸﾗｷﾀｸ","kana_address":"ｸﾛﾊﾞﾙ","pref":"福岡県","city":"北九州市小倉北区","address":"黒原"},
{"zip_code":"8020071","kana_pref":"ﾌｸｵｶｹﾝ","kana_city":"ｷﾀｷｭｳｼｭｳｼｺｸﾗｷﾀｸ","kana_address":"ｺｶﾞﾈ","pref":"福岡県","city":"北九州市小倉北区","address":"黄金"},
{"zip_code":"8020003","kana_pref":"ﾌｸｵｶｹﾝ","kana_city":"ｷﾀｷｭｳｼｭｳｼｺｸﾗｷﾀｸ","kana_address":"ｺﾒﾏﾁ","pref":"福岡県","city":"北九州市小倉北区","address":"米町"},
{"zip_code":"8020037","kana_pref":"ﾌｸｵｶｹﾝ","kana_city":"ｷﾀｷｭｳｼｭｳｼｺｸﾗｷﾀｸ","kana_address":"ｺﾓﾝｼﾞ","pref":"福岡県","city":"北九州市小倉北区","address":"小文字"},
{"zip_code":"8020081","kana_pref":"ﾌｸｵｶｹﾝ","kana_city":"ｷﾀｷｭｳｼｭｳｼｺｸﾗｷﾀｸ","kana_address":"ｺﾝﾔﾏﾁ","pref":"福岡県","city":"北九州市小倉北区","address":"紺屋町"},
{"zip_code":"8020005","kana_pref":"ﾌｸｵｶｹﾝ","kana_city":"ｷﾀｷｭｳｼｭｳｼｺｸﾗｷﾀｸ","kana_address":"ｻｶｲﾏﾁ","pref":"福岡県","city":"北九州市小倉北区","address":"堺町"},
{"zip_code":"8020061","kana_pref":"ﾌｸｵｶｹﾝ","kana_city":"ｷﾀｷｭｳｼｭｳｼｺｸﾗｷﾀｸ","kana_address":"ｻﾌﾞﾛｳﾏﾙ","pref":"福岡県","city":"北九州市小倉北区","address":"三郎丸"},
{"zip_code":"8020024","kana_pref":"ﾌｸｵｶｹﾝ","kana_city":"ｷﾀｷｭｳｼｭｳｼｺｸﾗｷﾀｸ","kana_address":"ｻﾝﾓﾝﾁｮｳ","pref":"福岡県","city":"北九州市小倉北区","address":"山門町"},
{"zip_code":"8020011","kana_pref":"ﾌｸｵｶｹﾝ","kana_city":"ｷﾀｷｭｳｼｭｳｼｺｸﾗｷﾀｸ","kana_address":"ｼｹﾞｽﾞﾐ","pref":"福岡県","city":"北九州市小倉北区","address":"重住"},
{"zip_code":"8020023","kana_pref":"ﾌｸｵｶｹﾝ","kana_city":"ｷﾀｷｭｳｼｭｳｼｺｸﾗｷﾀｸ","kana_address":"ｼﾓﾄﾐﾉ","pref":"福岡県","city":"北九州市小倉北区","address":"下富野"},
{"zip_code":"8020025","kana_pref":"ﾌｸｵｶｹﾝ","kana_city":"ｷﾀｷｭｳｼｭｳｼｺｸﾗｷﾀｸ","kana_address":"ｼﾞｭｻﾞﾝﾁｮｳ","pref":"福岡県","city":"北九州市小倉北区","address":"寿山町"},
{"zip_code":"8020055","kana_pref":"ﾌｸｵｶｹﾝ","kana_city":"ｷﾀｷｭｳｼｭｳｼｺｸﾗｷﾀｸ","kana_address":"ｼﾞｮｳﾉﾀﾞﾝﾁ","pref":"福岡県","city":"北九州市小倉北区","address":"城野団地"},
{"zip_code":"8020075","kana_pref":"ﾌｸｵｶｹﾝ","kana_city":"ｷﾀｷｭｳｼｭｳｼｺｸﾗｷﾀｸ","kana_address":"ｼｮｳﾜﾏﾁ","pref":"福岡県","city":"北九州市小倉北区","address":"昭和町"},
{"zip_code":"8020074","kana_pref":"ﾌｸｵｶｹﾝ","kana_city":"ｷﾀｷｭｳｼｭｳｼｺｸﾗｷﾀｸ","kana_address":"ｼﾗｶﾞﾈ","pref":"福岡県","city":"北九州市小倉北区","address":"白銀"},
{"zip_code":"8020038","kana_pref":"ﾌｸｵｶｹﾝ","kana_city":"ｷﾀｷｭｳｼｭｳｼｺｸﾗｷﾀｸ","kana_address":"ｼﾝｺｳﾁｮｳ","pref":"福岡県","city":"北九州市小倉北区","address":"神幸町"},
{"zip_code":"8020012","kana_pref":"ﾌｸｵｶｹﾝ","kana_city":"ｷﾀｷｭｳｼｭｳｼｺｸﾗｷﾀｸ","kana_address":"ｽｴﾋﾛ","pref":"福岡県","city":"北九州市小倉北区","address":"末広"},
{"zip_code":"8020034","kana_pref":"ﾌｸｵｶｹﾝ","kana_city":"ｷﾀｷｭｳｼｭｳｼｺｸﾗｷﾀｸ","kana_address":"ｽｶﾞﾏﾁ","pref":"福岡県","city":"北九州市小倉北区","address":"須賀町"},
{"zip_code":"8020014","kana_pref":"ﾌｸｵｶｹﾝ","kana_city":"ｷﾀｷｭｳｼｭｳｼｺｸﾗｷﾀｸ","kana_address":"ｽﾅﾂ","pref":"福岡県","city":"北九州市小倉北区","address":"砂津"},
{"zip_code":"8020008","kana_pref":"ﾌｸｵｶｹﾝ","kana_city":"ｷﾀｷｭｳｼｭｳｼｺｸﾗｷﾀｸ","kana_address":"ｾﾝﾄﾞｳﾏﾁ","pref":"福岡県","city":"北九州市小倉北区","address":"船頭町"},
{"zip_code":"8020007","kana_pref":"ﾌｸｵｶｹﾝ","kana_city":"ｷﾀｷｭｳｼｭｳｼｺｸﾗｷﾀｸ","kana_address":"ｾﾝﾊﾞﾏﾁ","pref":"福岡県","city":"北九州市小倉北区","address":"船場町"},
{"zip_code":"8020021","kana_pref":"ﾌｸｵｶｹﾝ","kana_city":"ｷﾀｷｭｳｼｭｳｼｺｸﾗｷﾀｸ","kana_address":"ﾀｶﾊﾏ","pref":"福岡県","city":"北九州市小倉北区","address":"高浜"},
{"zip_code":"8020053","kana_pref":"ﾌｸｵｶｹﾝ","kana_city":"ｷﾀｷｭｳｼｭｳｼｺｸﾗｷﾀｸ","kana_address":"ﾀｶﾎﾞｳ","pref":"福岡県","city":"北九州市小倉北区","address":"高坊"},
{"zip_code":"8020035","kana_pref":"ﾌｸｵｶｹﾝ","kana_city":"ｷﾀｷｭｳｼｭｳｼｺｸﾗｷﾀｸ","kana_address":"ﾄｷﾜﾏﾁ","pref":"福岡県","city":"北九州市小倉北区","address":"常盤町"},
{"zip_code":"8020036","kana_pref":"ﾌｸｵｶｹﾝ","kana_city":"ｷﾀｷｭｳｼｭｳｼｺｸﾗｷﾀｸ","kana_address":"ﾄﾐﾉ","pref":"福岡県","city":"北九州市小倉北区","address":"富野"},
{"zip_code":"8020033","kana_pref":"ﾌｸｵｶｹﾝ","kana_city":"ｷﾀｷｭｳｼｭｳｼｺｸﾗｷﾀｸ","kana_address":"ﾄﾐﾉﾀﾞｲ","pref":"福岡県","city":"北九州市小倉北区","address":"富野台"},
{"zip_code":"8020076","kana_pref":"ﾌｸｵｶｹﾝ","kana_city":"ｷﾀｷｭｳｼｭｳｼｺｸﾗｷﾀｸ","kana_address":"ﾅｶｼﾏ","pref":"福岡県","city":"北九州市小倉北区","address":"中島"},
{"zip_code":"8020018","kana_pref":"ﾌｸｵｶｹﾝ","kana_city":"ｷﾀｷｭｳｼｭｳｼｺｸﾗｷﾀｸ","kana_address":"ﾅｶﾂｸﾞﾁ","pref":"福岡県","city":"北九州市小倉北区","address":"中津口"},
{"zip_code":"8020013","kana_pref":"ﾌｸｵｶｹﾝ","kana_city":"ｷﾀｷｭｳｼｭｳｼｺｸﾗｷﾀｸ","kana_address":"ﾅｶﾞﾊﾏﾏﾁ","pref":"福岡県","city":"北九州市小倉北区","address":"長浜町"},
{"zip_code":"8020066","kana_pref":"ﾌｸｵｶｹﾝ","kana_city":"ｷﾀｷｭｳｼｭｳｼｺｸﾗｷﾀｸ","kana_address":"ﾊｷﾞｻﾞｷﾏﾁ","pref":"福岡県","city":"北九州市小倉北区","address":"萩崎町"},
{"zip_code":"8020077","kana_pref":"ﾌｸｵｶｹﾝ","kana_city":"ｷﾀｷｭｳｼｭｳｼｺｸﾗｷﾀｸ","kana_address":"ﾊﾞｼｬｸ","pref":"福岡県","city":"北九州市小倉北区","address":"馬借"},
{"zip_code":"8020072","kana_pref":"ﾌｸｵｶｹﾝ","kana_city":"ｷﾀｷｭｳｼｭｳｼｺｸﾗｷﾀｸ","kana_address":"ﾋｶﾞｼｼﾉｻﾞｷ","pref":"福岡県","city":"北九州市小倉北区","address":"東篠崎"},
{"zip_code":"8020054","kana_pref":"ﾌｸｵｶｹﾝ","kana_city":"ｷﾀｷｭｳｼｭｳｼｺｸﾗｷﾀｸ","kana_address":"ﾋｶﾞｼｼﾞｮｳﾉﾏﾁ","pref":"福岡県","city":"北九州市小倉北区","address":"東城野町"},
{"zip_code":"8020082","kana_pref":"ﾌｸｵｶｹﾝ","kana_city":"ｷﾀｷｭｳｼｭｳｼｺｸﾗｷﾀｸ","kana_address":"ﾌﾙｾﾝﾊﾞﾏﾁ","pref":"福岡県","city":"北九州市小倉北区","address":"古船場町"},
{"zip_code":"8020065","kana_pref":"ﾌｸｵｶｹﾝ","kana_city":"ｷﾀｷｭｳｼｭｳｼｺｸﾗｷﾀｸ","kana_address":"ﾐﾊｷﾞﾉ","pref":"福岡県","city":"北九州市小倉北区","address":"三萩野"},
{"zip_code":"8020041","kana_pref":"ﾌｸｵｶｹﾝ","kana_city":"ｷﾀｷｭｳｼｭｳｼｺｸﾗｷﾀｸ","kana_address":"ﾐｮｳｹﾝﾁｮｳ","pref":"福岡県","city":"北九州市小倉北区","address":"妙見町"},
{"zip_code":"8020017","kana_pref":"ﾌｸｵｶｹﾝ","kana_city":"ｷﾀｷｭｳｼｭｳｼｺｸﾗｷﾀｸ","kana_address":"ﾒｲﾜﾏﾁ","pref":"福岡県","city":"北九州市小倉北区","address":"明和町"},
{"zip_code":"8020085","kana_pref":"ﾌｸｵｶｹﾝ","kana_city":"ｷﾀｷｭｳｼｭｳｼｺｸﾗｷﾀｸ","kana_address":"ﾖｼﾉﾏﾁ","pref":"福岡県","city":"北九州市小倉北区","address":"吉野町"},
{"zip_code":"8020063","kana_pref":"ﾌｸｵｶｹﾝ","kana_city":"ｷﾀｷｭｳｼｭｳｼｺｸﾗｷﾀｸ","kana_address":"ﾜｶﾌｼﾞﾁｮｳ","pref":"福岡県","city":"北九州市小倉北区","address":"若富士町"},
{"zip_code":"8020000","kana_pref":"ﾌｸｵｶｹﾝ","kana_city":"ｷﾀｷｭｳｼｭｳｼｺｸﾗﾐﾅﾐｸ","kana_address":"","pref":"福岡県","city":"北九州市小倉南区","address":""},
{"zip_code":"8020838","kana_pref":"ﾌｸｵｶｹﾝ","kana_city":"ｷﾀｷｭｳｼｭｳｼｺｸﾗﾐﾅﾐｸ","kana_address":"ｲｼﾀﾞﾏﾁ","pref":"福岡県","city":"北九州市小倉南区","address":"石田町"},
{"zip_code":"8020836","kana_pref":"ﾌｸｵｶｹﾝ","kana_city":"ｷﾀｷｭｳｼｭｳｼｺｸﾗﾐﾅﾐｸ","kana_address":"ｲｼﾀﾞﾐﾅﾐ","pref":"福岡県","city":"北九州市小倉南区","address":"石田南"},
{"zip_code":"8020834","kana_pref":"ﾌｸｵｶｹﾝ","kana_city":"ｷﾀｷｭｳｼｭｳｼｺｸﾗﾐﾅﾐｸ","kana_address":"ｶｸﾚﾐﾉ","pref":"福岡県","city":"北九州市小倉南区","address":"隠蓑"},
{"zip_code":"8020833","kana_pref":"ﾌｸｵｶｹﾝ","kana_city":"ｷﾀｷｭｳｼｭｳｼｺｸﾗﾐﾅﾐｸ","kana_address":"ｶﾐｲｼﾀﾞ","pref":"福岡県","city":"北九州市小倉南区","address":"上石田"},
{"zip_code":"8020978","kana_pref":"ﾌｸｵｶｹﾝ","kana_city":"ｷﾀｷｭｳｼｭｳｼｺｸﾗﾐﾅﾐｸ","kana_address":"ｶﾞﾓｳ","pref":"福岡県","city":"北九州市小倉南区","address":"蒲生"},
{"zip_code":"8020981","kana_pref":"ﾌｸｵｶｹﾝ","kana_city":"ｷﾀｷｭｳｼｭｳｼｺｸﾗﾐﾅﾐｸ","kana_address":"ｷｸｶﾞｵｶ","pref":"福岡県","city":"北九州市小倉南区","address":"企救丘"},
{"zip_code":"8020841","kana_pref":"ﾌｸｵｶｹﾝ","kana_city":"ｷﾀｷｭｳｼｭｳｼｺｸﾗﾐﾅﾐｸ","kana_address":"ｷﾀｶﾞﾀ","pref":"福岡県","city":"北九州市小倉南区","address":"北方"},
{"zip_code":"8020985","kana_pref":"ﾌｸｵｶｹﾝ","kana_city":"ｷﾀｷｭｳｼｭｳｼｺｸﾗﾐﾅﾐｸ","kana_address":"ｼｲ","pref":"福岡県","city":"北九州市小倉南区","address":"志井"},
{"zip_code":"8020984","kana_pref":"ﾌｸｵｶｹﾝ","kana_city":"ｷﾀｷｭｳｼｭｳｼｺｸﾗﾐﾅﾐｸ","kana_address":"ｼｲｺｳｴﾝ","pref":"福岡県","city":"北九州市小倉南区","address":"志井公園"},
{"zip_code":"8020986","kana_pref":"ﾌｸｵｶｹﾝ","kana_city":"ｷﾀｷｭｳｼｭｳｼｺｸﾗﾐﾅﾐｸ","kana_address":"ｼｲﾀｶﾊﾀﾞｲ","pref":"福岡県","city":"北九州市小倉南区","address":"志井鷹羽台"},
{"zip_code":"8020811","kana_pref":"ﾌｸｵｶｹﾝ","kana_city":"ｷﾀｷｭｳｼｭｳｼｺｸﾗﾐﾅﾐｸ","kana_address":"ｼｹﾞｽﾞﾐ","pref":"福岡県","city":"北九州市小倉南区","address":"重住"},
{"zip_code":"8020983","kana_pref":"ﾌｸｵｶｹﾝ","kana_city":"ｷﾀｷｭｳｼｭｳｼｺｸﾗﾐﾅﾐｸ","kana_address":"ｼﾄｸ","pref":"福岡県","city":"北九州市小倉南区","address":"志徳"},
{"zip_code":"8020832","kana_pref":"ﾌｸｵｶｹﾝ","kana_city":"ｷﾀｷｭｳｼｭｳｼｺｸﾗﾐﾅﾐｸ","kana_address":"ｼﾓｲｼﾀﾞ","pref":"福岡県","city":"北九州市小倉南区","address":"下石田"},
{"zip_code":"8020804","kana_pref":"ﾌｸｵｶｹﾝ","kana_city":"ｷﾀｷｭｳｼｭｳｼｺｸﾗﾐﾅﾐｸ","kana_address":"ｼﾓｼﾞｮｳﾉ","pref":"福岡県","city":"北九州市小倉南区","address":"下城野"},
{"zip_code":"8020977","kana_pref":"ﾌｸｵｶｹﾝ","kana_city":"ｷﾀｷｭｳｼｭｳｼｺｸﾗﾐﾅﾐｸ","kana_address":"ｼﾓﾐﾅﾐｶﾞﾀ","pref":"福岡県","city":"北九州市小倉南区","address":"下南方"},
{"zip_code":"8020802","kana_pref":"ﾌｸｵｶｹﾝ","kana_city":"ｷﾀｷｭｳｼｭｳｼｺｸﾗﾐﾅﾐｸ","kana_address":"ｼﾞｮｳﾉ","pref":"福岡県","city":"北九州市小倉南区","address":"城野"},
{"zip_code":"8020973","kana_pref":"ﾌｸｵｶｹﾝ","kana_city":"ｷﾀｷｭｳｼｭｳｼｺｸﾗﾐﾅﾐｸ","kana_address":"ｾｲﾜﾀﾞｲ","pref":"福岡県","city":"北九州市小倉南区","address":"星和台"},
{"zip_code":"8020974","kana_pref":"ﾌｸｵｶｹﾝ","kana_city":"ｷﾀｷｭｳｼｭｳｼｺｸﾗﾐﾅﾐｸ","kana_address":"ﾄｸﾘｷ","pref":"福岡県","city":"北九州市小倉南区","address":"徳力"},
{"zip_code":"8020979","kana_pref":"ﾌｸｵｶｹﾝ","kana_city":"ｷﾀｷｭｳｼｭｳｼｺｸﾗﾐﾅﾐｸ","kana_address":"ﾄｸﾘｷｼﾝﾏﾁ","pref":"福岡県","city":"北九州市小倉南区","address":"徳力新町"},
{"zip_code":"8020975","kana_pref":"ﾌｸｵｶｹﾝ","kana_city":"ｷﾀｷｭｳｼｭｳｼｺｸﾗﾐﾅﾐｸ","kana_address":"ﾄｸﾘｷﾀﾞﾝﾁ","pref":"福岡県","city":"北九州市小倉南区","address":"徳力団地"},
{"zip_code":"8020812","kana_pref":"ﾌｸｵｶｹﾝ","kana_city":"ｷﾀｷｭｳｼｭｳｼｺｸﾗﾐﾅﾐｸ","kana_address":"ﾆｼﾐｽﾞﾏﾁ","pref":"福岡県","city":"北九州市小倉南区","address":"西水町"},
{"zip_code":"8020814","kana_pref":"ﾌｸｵｶｹﾝ","kana_city":"ｷﾀｷｭｳｼｭｳｼｺｸﾗﾐﾅﾐｸ","kana_address":"ﾆﾅﾀﾜｶｿﾞﾉ","pref":"福岡県","city":"北九州市小倉南区","address":"蜷田若園"},
{"zip_code":"8020805","kana_pref":"ﾌｸｵｶｹﾝ","kana_city":"ｷﾀｷｭｳｼｭｳｼｺｸﾗﾐﾅﾐｸ","kana_address":"ﾊﾁﾏﾝﾁｮｳ","pref":"福岡県","city":"北九州市小倉南区","address":"八幡町"},
{"zip_code":"8020837","kana_pref":"ﾌｸｵｶｹﾝ","kana_city":"ｷﾀｷｭｳｼｭｳｼｺｸﾗﾐﾅﾐｸ","kana_address":"ﾊﾔﾏﾁｮｳ","pref":"福岡県","city":"北九州市小倉南区","address":"葉山町"},
{"zip_code":"8020803","kana_pref":"ﾌｸｵｶｹﾝ","kana_city":"ｷﾀｷｭｳｼｭｳｼｺｸﾗﾐﾅﾐｸ","kana_address":"ﾊﾙｶﾞｵｶ","pref":"福岡県","city":"北九州市小倉南区","address":"春ケ丘"},
{"zip_code":"8020813","kana_pref":"ﾌｸｵｶｹﾝ","kana_city":"ｷﾀｷｭｳｼｭｳｼｺｸﾗﾐﾅﾐｸ","kana_address":"ﾋｶﾞｼﾐｽﾞﾏﾁ","pref":"福岡県","city":"北九州市小倉南区","address":"東水町"},
{"zip_code":"8020842","kana_pref":"ﾌｸｵｶｹﾝ","kana_city":"ｷﾀｷｭｳｼｭｳｼｺｸﾗﾐﾅﾐｸ","kana_address":"ﾋﾉﾃﾞﾏﾁ","pref":"福岡県","city":"北九州市小倉南区","address":"日の出町"},
{"zip_code":"8020801","kana_pref":"ﾌｸｵｶｹﾝ","kana_city":"ｷﾀｷｭｳｼｭｳｼｺｸﾗﾐﾅﾐｸ","kana_address":"ﾌｼﾞﾐ","pref":"福岡県","city":"北九州市小倉南区","address":"富士見"},
{"zip_code":"8020835","kana_pref":"ﾌｸｵｶｹﾝ","kana_city":"ｷﾀｷｭｳｼｭｳｼｺｸﾗﾐﾅﾐｸ","kana_address":"ﾎﾘｺｼ","pref":"福岡県","city":"北九州市小倉南区","address":"堀越"},
{"zip_code":"8020823","kana_pref":"ﾌｸｵｶｹﾝ","kana_city":"ｷﾀｷｭｳｼｭｳｼｺｸﾗﾐﾅﾐｸ","kana_address":"ﾏｲｶﾞｵｶ","pref":"福岡県","city":"北九州市小倉南区","address":"舞ケ丘"},
{"zip_code":"8020976","kana_pref":"ﾌｸｵｶｹﾝ","kana_city":"ｷﾀｷｭｳｼｭｳｼｺｸﾗﾐﾅﾐｸ","kana_address":"ﾐﾅﾐｶﾞﾀ","pref":"福岡県","city":"北九州市小倉南区","address":"南方"},
{"zip_code":"8020815","kana_pref":"ﾌｸｵｶｹﾝ","kana_city":"ｷﾀｷｭｳｼｭｳｼｺｸﾗﾐﾅﾐｸ","kana_address":"ﾐﾅﾐﾜｶｿﾞﾉﾏﾁ","pref":"福岡県","city":"北九州市小倉南区","address":"南若園町"},
{"zip_code":"8020972","kana_pref":"ﾌｸｵｶｹﾝ","kana_city":"ｷﾀｷｭｳｼｭｳｼｺｸﾗﾐﾅﾐｸ","kana_address":"ﾓﾘﾂﾈ","pref":"福岡県","city":"北九州市小倉南区","address":"守恒"},
{"zip_code":"8020971","kana_pref":"ﾌｸｵｶｹﾝ","kana_city":"ｷﾀｷｭｳｼｭｳｼｺｸﾗﾐﾅﾐｸ","kana_address":"ﾓﾘﾂﾈﾎﾝﾏﾁ","pref":"福岡県","city":"北九州市小倉南区","address":"守恒本町"},
{"zip_code":"8020831","kana_pref":"ﾌｸｵｶｹﾝ","kana_city":"ｷﾀｷｭｳｼｭｳｼｺｸﾗﾐﾅﾐｸ","kana_address":"ﾔｴｽﾏﾁ","pref":"福岡県","city":"北九州市小倉南区","address":"八重洲町"},
{"zip_code":"8020982","kana_pref":"ﾌｸｵｶｹﾝ","kana_city":"ｷﾀｷｭｳｼｭｳｼｺｸﾗﾐﾅﾐｸ","kana_address":"ﾔﾏﾃ","pref":"福岡県","city":"北九州市小倉南区","address":"山手"},
{"zip_code":"8020824","kana_pref":"ﾌｸｵｶｹﾝ","kana_city":"ｷﾀｷｭｳｼｭｳｼｺｸﾗﾐﾅﾐｸ","kana_address":"ﾖｺｼﾛ","pref":"福岡県","city":"北九州市小倉南区","address":"横代"},
{"zip_code":"8020825","kana_pref":"ﾌｸｵｶｹﾝ","kana_city":"ｷﾀｷｭｳｼｭｳｼｺｸﾗﾐﾅﾐｸ","kana_address":"ﾖｺｼﾛﾊﾔﾏ","pref":"福岡県","city":"北九州市小倉南区","address":"横代葉山"},
{"zip_code":"8020822","kana_pref":"ﾌｸｵｶｹﾝ","kana_city":"ｷﾀｷｭｳｼｭｳｼｺｸﾗﾐﾅﾐｸ","kana_address":"ﾖｺｼﾛﾋｶﾞｼﾏﾁ","pref":"福岡県","city":"北九州市小倉南区","address":"横代東町"},
{"zip_code":"8020826","kana_pref":"ﾌｸｵｶｹﾝ","kana_city":"ｷﾀｷｭｳｼｭｳｼｺｸﾗﾐﾅﾐｸ","kana_address":"ﾖｺｼﾛﾐﾅﾐﾏﾁ","pref":"福岡県","city":"北九州市小倉南区","address":"横代南町"},
{"zip_code":"8020821","kana_pref":"ﾌｸｵｶｹﾝ","kana_city":"ｷﾀｷｭｳｼｭｳｼｺｸﾗﾐﾅﾐｸ","kana_address":"ﾖｺｼﾛｷﾀﾏﾁ","pref":"福岡県","city":"北九州市小倉南区","address":"横代北町"},
{"zip_code":"8020816","kana_pref":"ﾌｸｵｶｹﾝ","kana_city":"ｷﾀｷｭｳｼｭｳｼｺｸﾗﾐﾅﾐｸ","kana_address":"ﾜｶｿﾞﾉ","pref":"福岡県","city":"北九州市小倉南区","address":"若園"}]}