{"zip_code":[
{"zip_code":"8030822","kana_pref":"ﾌｸｵｶｹﾝ","kana_city":"ｷﾀｷｭｳｼｭｳｼｺｸﾗｷﾀｸ","kana_address":"ｱｵﾊﾞ","pref":"福岡県","city":"北九州市小倉北区","address":"青葉"},
{"zip_code":"8030833","kana_pref":"ﾌｸｵｶｹﾝ","kana_city":"ｷﾀｷｭｳｼｭｳｼｺｸﾗｷﾀｸ","kana_address":"ｱｻﾋｶﾞｵｶ","pref":"福岡県","city":"北九州市小倉北区","address":"朝日ケ丘"},
{"zip_code":"8030828","kana_pref":"ﾌｸｵｶｹﾝ","kana_city":"ｷﾀｷｭｳｼｭｳｼｺｸﾗｷﾀｸ","kana_address":"ｱﾀｺﾞ","pref":"福岡県","city":"北九州市小倉北区","address":"愛宕"},
{"zip_code":"8030842","kana_pref":"ﾌｸｵｶｹﾝ","kana_city":"ｷﾀｷｭｳｼｭｳｼｺｸﾗｷﾀｸ","kana_address":"ｲｽﾞﾐﾀﾞｲ","pref":"福岡県","city":"北九州市小倉北区","address":"泉台"},
{"zip_code":"8030824","kana_pref":"ﾌｸｵｶｹﾝ","kana_city":"ｷﾀｷｭｳｼｭｳｼｺｸﾗｷﾀｸ","kana_address":"ｲﾀﾋﾞﾂﾏﾁ","pref":"福岡県","city":"北九州市小倉北区","address":"板櫃町"},
{"zip_code":"8030835","kana_pref":"ﾌｸｵｶｹﾝ","kana_city":"ｷﾀｷｭｳｼｭｳｼｺｸﾗｷﾀｸ","kana_address":"ｲﾎﾞﾘ","pref":"福岡県","city":"北九州市小倉北区","address":"井堀"},
{"zip_code":"8030862","kana_pref":"ﾌｸｵｶｹﾝ","kana_city":"ｷﾀｷｭｳｼｭｳｼｺｸﾗｷﾀｸ","kana_address":"ｲﾏﾏﾁ","pref":"福岡県","city":"北九州市小倉北区","address":"今町"},
{"zip_code":"8030821","kana_pref":"ﾌｸｵｶｹﾝ","kana_city":"ｷﾀｷｭｳｼｭｳｼｺｸﾗｷﾀｸ","kana_address":"ｲﾓｼﾞﾏﾁ","pref":"福岡県","city":"北九州市小倉北区","address":"鋳物師町"},
{"zip_code":"8030814","kana_pref":"ﾌｸｵｶｹﾝ","kana_city":"ｷﾀｷｭｳｼｭｳｼｺｸﾗｷﾀｸ","kana_address":"ｵｵﾃﾏﾁ","pref":"福岡県","city":"北九州市小倉北区","address":"大手町"},
{"zip_code":"8030816","kana_pref":"ﾌｸｵｶｹﾝ","kana_city":"ｷﾀｷｭｳｼｭｳｼｺｸﾗｷﾀｸ","kana_address":"ｶﾅﾀﾞ","pref":"福岡県","city":"北九州市小倉北区","address":"金田"},
{"zip_code":"8030845","kana_pref":"ﾌｸｵｶｹﾝ","kana_city":"ｷﾀｷｭｳｼｭｳｼｺｸﾗｷﾀｸ","kana_address":"ｶﾐｲﾄｳﾂﾞ","pref":"福岡県","city":"北九州市小倉北区","address":"上到津"},
{"zip_code":"8030851","kana_pref":"ﾌｸｵｶｹﾝ","kana_city":"ｷﾀｷｭｳｼｭｳｼｺｸﾗｷﾀｸ","kana_address":"ｷﾏﾁ","pref":"福岡県","city":"北九州市小倉北区","address":"木町"},
{"zip_code":"8030841","kana_pref":"ﾌｸｵｶｹﾝ","kana_city":"ｷﾀｷｭｳｼｭｳｼｺｸﾗｷﾀｸ","kana_address":"ｷﾖﾐｽﾞ","pref":"福岡県","city":"北九州市小倉北区","address":"清水"},
{"zip_code":"8030843","kana_pref":"ﾌｸｵｶｹﾝ","kana_city":"ｷﾀｷｭｳｼｭｳｼｺｸﾗｷﾀｸ","kana_address":"ｷﾝｹｲﾁｮｳ","pref":"福岡県","city":"北九州市小倉北区","address":"金鶏町"},
{"zip_code":"8030864","kana_pref":"ﾌｸｵｶｹﾝ","kana_city":"ｷﾀｷｭｳｼｭｳｼｺｸﾗｷﾀｸ","kana_address":"ｸﾏｶﾞｲ","pref":"福岡県","city":"北九州市小倉北区","address":"熊谷"},
{"zip_code":"8030803","kana_pref":"ﾌｸｵｶｹﾝ","kana_city":"ｷﾀｷｭｳｼｭｳｼｺｸﾗｷﾀｸ","kana_address":"ｺﾉﾐﾏﾁ","pref":"福岡県","city":"北九州市小倉北区","address":"許斐町"},
{"zip_code":"8030823","kana_pref":"ﾌｸｵｶｹﾝ","kana_city":"ｷﾀｷｭｳｼｭｳｼｺｸﾗｷﾀｸ","kana_address":"ｻｴﾝﾊﾞ","pref":"福岡県","city":"北九州市小倉北区","address":"菜園場"},
{"zip_code":"8030854","kana_pref":"ﾌｸｵｶｹﾝ","kana_city":"ｷﾀｷｭｳｼｭｳｼｺｸﾗｷﾀｸ","kana_address":"ｻﾗﾔﾏﾏﾁ","pref":"福岡県","city":"北九州市小倉北区","address":"皿山町"},
{"zip_code":"8030861","kana_pref":"ﾌｸｵｶｹﾝ","kana_city":"ｷﾀｷｭｳｼｭｳｼｺｸﾗｷﾀｸ","kana_address":"ｼﾉｻﾞｷ","pref":"福岡県","city":"北九州市小倉北区","address":"篠崎"},
{"zip_code":"8030846","kana_pref":"ﾌｸｵｶｹﾝ","kana_city":"ｷﾀｷｭｳｼｭｳｼｺｸﾗｷﾀｸ","kana_address":"ｼﾓｲﾄｳﾂﾞ","pref":"福岡県","city":"北九州市小倉北区","address":"下到津"},
{"zip_code":"8030813","kana_pref":"ﾌｸｵｶｹﾝ","kana_city":"ｷﾀｷｭｳｼｭｳｼｺｸﾗｷﾀｸ","kana_address":"ｼﾞｮｳﾅｲ","pref":"福岡県","city":"北九州市小倉北区","address":"城内"},
{"zip_code":"8030825","kana_pref":"ﾌｸｵｶｹﾝ","kana_city":"ｷﾀｷｭｳｼｭｳｼｺｸﾗｷﾀｸ","kana_address":"ｼﾗﾊｷﾞﾏﾁ","pref":"福岡県","city":"北九州市小倉北区","address":"白萩町"},
{"zip_code":"8030852","kana_pref":"ﾌｸｵｶｹﾝ","kana_city":"ｷﾀｷｭｳｼｭｳｼｺｸﾗｷﾀｸ","kana_address":"ｼﾝﾀｶﾀﾞ","pref":"福岡県","city":"北九州市小倉北区","address":"新高田"},
{"zip_code":"8030805","kana_pref":"ﾌｸｵｶｹﾝ","kana_city":"ｷﾀｷｭｳｼｭｳｼｺｸﾗｷﾀｸ","kana_address":"ｼﾝﾜﾏﾁ","pref":"福岡県","city":"北九州市小倉北区","address":"親和町"},
{"zip_code":"8030811","kana_pref":"ﾌｸｵｶｹﾝ","kana_city":"ｷﾀｷｭｳｼｭｳｼｺｸﾗｷﾀｸ","kana_address":"ﾀﾞｲﾓﾝ","pref":"福岡県","city":"北九州市小倉北区","address":"大門"},
{"zip_code":"8030853","kana_pref":"ﾌｸｵｶｹﾝ","kana_city":"ｷﾀｷｭｳｼｭｳｼｺｸﾗｷﾀｸ","kana_address":"ﾀｶｵ","pref":"福岡県","city":"北九州市小倉北区","address":"高尾"},
{"zip_code":"8030838","kana_pref":"ﾌｸｵｶｹﾝ","kana_city":"ｷﾀｷｭｳｼｭｳｼｺｸﾗｷﾀｸ","kana_address":"ﾀｶﾐﾀﾞｲ","pref":"福岡県","city":"北九州市小倉北区","address":"高見台"},
{"zip_code":"8030826","kana_pref":"ﾌｸｵｶｹﾝ","kana_city":"ｷﾀｷｭｳｼｭｳｼｺｸﾗｷﾀｸ","kana_address":"ﾀｶﾐﾈﾁｮｳ","pref":"福岡県","city":"北九州市小倉北区","address":"高峰町"},
{"zip_code":"8030855","kana_pref":"ﾌｸｵｶｹﾝ","kana_city":"ｷﾀｷｭｳｼｭｳｼｺｸﾗｷﾀｸ","kana_address":"ﾀﾃﾊﾞﾔｼﾏﾁ","pref":"福岡県","city":"北九州市小倉北区","address":"竪林町"},
{"zip_code":"8030818","kana_pref":"ﾌｸｵｶｹﾝ","kana_city":"ｷﾀｷｭｳｼｭｳｼｺｸﾗｷﾀｸ","kana_address":"ﾀﾃﾏﾁ","pref":"福岡県","city":"北九州市小倉北区","address":"竪町"},
{"zip_code":"8030817","kana_pref":"ﾌｸｵｶｹﾝ","kana_city":"ｷﾀｷｭｳｼｭｳｼｺｸﾗｷﾀｸ","kana_address":"ﾀﾏﾁ","pref":"福岡県","city":"北九州市小倉北区","address":"田町"},
{"zip_code":"8030836","kana_pref":"ﾌｸｵｶｹﾝ","kana_city":"ｷﾀｷｭｳｼｭｳｼｺｸﾗｷﾀｸ","kana_address":"ﾅｶｲ","pref":"福岡県","city":"北九州市小倉北区","address":"中井"},
{"zip_code":"8030837","kana_pref":"ﾌｸｵｶｹﾝ","kana_city":"ｷﾀｷｭｳｼｭｳｼｺｸﾗｷﾀｸ","kana_address":"ﾅｶｲｸﾞﾁ","pref":"福岡県","city":"北九州市小倉北区","address":"中井口"},
{"zip_code":"8030804","kana_pref":"ﾌｸｵｶｹﾝ","kana_city":"ｷﾀｷｭｳｼｭｳｼｺｸﾗｷﾀｸ","kana_address":"ﾅｶｲﾊﾏ","pref":"福岡県","city":"北九州市小倉北区","address":"中井浜"},
{"zip_code":"8030801","kana_pref":"ﾌｸｵｶｹﾝ","kana_city":"ｷﾀｷｭｳｼｭｳｼｺｸﾗｷﾀｸ","kana_address":"ﾆｼﾐﾅﾄﾏﾁ","pref":"福岡県","city":"北九州市小倉北区","address":"西港町"},
{"zip_code":"8030815","kana_pref":"ﾌｸｵｶｹﾝ","kana_city":"ｷﾀｷｭｳｼｭｳｼｺｸﾗｷﾀｸ","kana_address":"ﾊﾗﾏﾁ","pref":"福岡県","city":"北九州市小倉北区","address":"原町"},
{"zip_code":"8030831","kana_pref":"ﾌｸｵｶｹﾝ","kana_city":"ｷﾀｷｭｳｼｭｳｼｺｸﾗｷﾀｸ","kana_address":"ﾋｱｶﾞﾘ","pref":"福岡県","city":"北九州市小倉北区","address":"日明"},
{"zip_code":"8030802","kana_pref":"ﾌｸｵｶｹﾝ","kana_city":"ｷﾀｷｭｳｼｭｳｼｺｸﾗｷﾀｸ","kana_address":"ﾋｶﾞｼﾐﾅﾄ","pref":"福岡県","city":"北九州市小倉北区","address":"東港"},
{"zip_code":"8030832","kana_pref":"ﾌｸｵｶｹﾝ","kana_city":"ｷﾀｷｭｳｼｭｳｼｺｸﾗｷﾀｸ","kana_address":"ﾋﾗﾏﾂﾏﾁ","pref":"福岡県","city":"北九州市小倉北区","address":"平松町"},
{"zip_code":"8030856","kana_pref":"ﾌｸｵｶｹﾝ","kana_city":"ｷﾀｷｭｳｼｭｳｼｺｸﾗｷﾀｸ","kana_address":"ﾍﾞﾝﾃﾝﾏﾁ","pref":"福岡県","city":"北九州市小倉北区","address":"弁天町"},
{"zip_code":"8030844","kana_pref":"ﾌｸｵｶｹﾝ","kana_city":"ｷﾀｷｭｳｼｭｳｼｺｸﾗｷﾀｸ","kana_address":"ﾏﾅﾂﾞﾙ","pref":"福岡県","city":"北九州市小倉北区","address":"真鶴"},
{"zip_code":"8030827","kana_pref":"ﾌｸｵｶｹﾝ","kana_city":"ｷﾀｷｭｳｼｭｳｼｺｸﾗｷﾀｸ","kana_address":"ﾐﾄﾞﾘｶﾞｵｶ","pref":"福岡県","city":"北九州市小倉北区","address":"緑ケ丘"},
{"zip_code":"8030863","kana_pref":"ﾌｸｵｶｹﾝ","kana_city":"ｷﾀｷｭｳｼｭｳｼｺｸﾗｷﾀｸ","kana_address":"ﾐﾅﾐｶﾞｵｶ","pref":"福岡県","city":"北九州市小倉北区","address":"南丘"},
{"zip_code":"8030834","kana_pref":"ﾌｸｵｶｹﾝ","kana_city":"ｷﾀｷｭｳｼｭｳｼｺｸﾗｷﾀｸ","kana_address":"ﾐﾔｺ","pref":"福岡県","city":"北九州市小倉北区","address":"都"},
{"zip_code":"8030812","kana_pref":"ﾌｸｵｶｹﾝ","kana_city":"ｷﾀｷｭｳｼｭｳｼｺｸﾗｷﾀｸ","kana_address":"ﾑﾛﾏﾁ","pref":"福岡県","city":"北九州市小倉北区","address":"室町"},
{"zip_code":"8030865","kana_pref":"ﾌｸｵｶｹﾝ","kana_city":"ｷﾀｷｭｳｼｭｳｼｺｸﾗｷﾀｸ","kana_address":"ﾔﾏﾀﾞﾏﾁ","pref":"福岡県","city":"北九州市小倉北区","address":"山田町"},
{"zip_code":"8030185","kana_pref":"ﾌｸｵｶｹﾝ","kana_city":"ｷﾀｷｭｳｼｭｳｼｺｸﾗﾐﾅﾐｸ","kana_address":"ｲｼﾊﾗﾏﾁ","pref":"福岡県","city":"北九州市小倉南区","address":"石原町"},
{"zip_code":"8030183","kana_pref":"ﾌｸｵｶｹﾝ","kana_city":"ｷﾀｷｭｳｼｭｳｼｺｸﾗﾐﾅﾐｸ","kana_address":"ｲﾁﾏﾙ","pref":"福岡県","city":"北九州市小倉南区","address":"市丸"},
{"zip_code":"8030189","kana_pref":"ﾌｸｵｶｹﾝ","kana_city":"ｷﾀｷｭｳｼｭｳｼｺｸﾗﾐﾅﾐｸ","kana_address":"ｲﾃﾞｳﾗ","pref":"福岡県","city":"北九州市小倉南区","address":"井手浦"},
{"zip_code":"8030261","kana_pref":"ﾌｸｵｶｹﾝ","kana_city":"ｷﾀｷｭｳｼｭｳｼｺｸﾗﾐﾅﾐｸ","kana_address":"ｵｳﾏ","pref":"福岡県","city":"北九州市小倉南区","address":"合馬"},
{"zip_code":"8030271","kana_pref":"ﾌｸｵｶｹﾝ","kana_city":"ｷﾀｷｭｳｼｭｳｼｺｸﾗﾐﾅﾐｸ","kana_address":"ｵｻﾕｷ","pref":"福岡県","city":"北九州市小倉南区","address":"長行"},
{"zip_code":"8030273","kana_pref":"ﾌｸｵｶｹﾝ","kana_city":"ｷﾀｷｭｳｼｭｳｼｺｸﾗﾐﾅﾐｸ","kana_address":"ｵｻﾕｷﾋｶﾞｼ","pref":"福岡県","city":"北九州市小倉南区","address":"長行東"},
{"zip_code":"8030272","kana_pref":"ﾌｸｵｶｹﾝ","kana_city":"ｷﾀｷｭｳｼｭｳｼｺｸﾗﾐﾅﾐｸ","kana_address":"ｵｻﾕｷﾆｼ","pref":"福岡県","city":"北九州市小倉南区","address":"長行西"},
{"zip_code":"8030267","kana_pref":"ﾌｸｵｶｹﾝ","kana_city":"ｷﾀｷｭｳｼｭｳｼｺｸﾗﾐﾅﾐｸ","kana_address":"ｶｸﾞﾒﾖｼ","pref":"福岡県","city":"北九州市小倉南区","address":"頂吉"},
{"zip_code":"8030184","kana_pref":"ﾌｸｵｶｹﾝ","kana_city":"ｷﾀｷｭｳｼｭｳｼｺｸﾗﾐﾅﾐｸ","kana_address":"ｷﾉｼﾀ","pref":"福岡県","city":"北九州市小倉南区","address":"木下"},
{"zip_code":"8030182","kana_pref":"ﾌｸｵｶｹﾝ","kana_city":"ｷﾀｷｭｳｼｭｳｼｺｸﾗﾐﾅﾐｸ","kana_address":"ｺﾓﾘ","pref":"福岡県","city":"北九州市小倉南区","address":"小森"},
{"zip_code":"8030186","kana_pref":"ﾌｸｵｶｹﾝ","kana_city":"ｷﾀｷｭｳｼｭｳｼｺｸﾗﾐﾅﾐｸ","kana_address":"ｼﾝﾄﾞｳｼﾞ","pref":"福岡県","city":"北九州市小倉南区","address":"新道寺"},
{"zip_code":"8030268","kana_pref":"ﾌｸｵｶｹﾝ","kana_city":"ｷﾀｷｭｳｼｭｳｼｺｸﾗﾐﾅﾐｸ","kana_address":"ﾀｶﾂｵ","pref":"福岡県","city":"北九州市小倉南区","address":"高津尾"},
{"zip_code":"8030275","kana_pref":"ﾌｸｵｶｹﾝ","kana_city":"ｷﾀｷｭｳｼｭｳｼｺｸﾗﾐﾅﾐｸ","kana_address":"ﾀｶﾉ","pref":"福岡県","city":"北九州市小倉南区","address":"高野"},
{"zip_code":"8030262","kana_pref":"ﾌｸｵｶｹﾝ","kana_city":"ｷﾀｷｭｳｼｭｳｼｺｸﾗﾐﾅﾐｸ","kana_address":"ﾀｼﾛ","pref":"福岡県","city":"北九州市小倉南区","address":"田代"},
{"zip_code":"8030263","kana_pref":"ﾌｸｵｶｹﾝ","kana_city":"ｷﾀｷｭｳｼｭｳｼｺｸﾗﾐﾅﾐｸ","kana_address":"ﾂｼﾞﾐﾂ","pref":"福岡県","city":"北九州市小倉南区","address":"辻三"},
{"zip_code":"8030266","kana_pref":"ﾌｸｵｶｹﾝ","kana_city":"ｷﾀｷｭｳｼｭｳｼｺｸﾗﾐﾅﾐｸ","kana_address":"ﾄﾞｳﾊﾞﾙ","pref":"福岡県","city":"北九州市小倉南区","address":"道原"},
{"zip_code":"8030276","kana_pref":"ﾌｸｵｶｹﾝ","kana_city":"ｷﾀｷｭｳｼｭｳｼｺｸﾗﾐﾅﾐｸ","kana_address":"ﾄｸﾖｼ","pref":"福岡県","city":"北九州市小倉南区","address":"徳吉"},
{"zip_code":"8030277","kana_pref":"ﾌｸｵｶｹﾝ","kana_city":"ｷﾀｷｭｳｼｭｳｼｺｸﾗﾐﾅﾐｸ","kana_address":"ﾄｸﾖｼﾋｶﾞｼ","pref":"福岡県","city":"北九州市小倉南区","address":"徳吉東"},
{"zip_code":"8030278","kana_pref":"ﾌｸｵｶｹﾝ","kana_city":"ｷﾀｷｭｳｼｭｳｼｺｸﾗﾐﾅﾐｸ","kana_address":"ﾄｸﾖｼﾆｼ","pref":"福岡県","city":"北九州市小倉南区","address":"徳吉西"},
{"zip_code":"8030279","kana_pref":"ﾌｸｵｶｹﾝ","kana_city":"ｷﾀｷｭｳｼｭｳｼｺｸﾗﾐﾅﾐｸ","kana_address":"ﾄｸﾖｼﾐﾅﾐ","pref":"福岡県","city":"北九州市小倉南区","address":"徳吉南"},
{"zip_code":"8030274","kana_pref":"ﾌｸｵｶｹﾝ","kana_city":"ｷﾀｷｭｳｼｭｳｼｺｸﾗﾐﾅﾐｸ","kana_address":"ﾅｶﾞｵ","pref":"福岡県","city":"北九州市小倉南区","address":"長尾"},
{"zip_code":"8030265","kana_pref":"ﾌｸｵｶｹﾝ","kana_city":"ｷﾀｷｭｳｼｭｳｼｺｸﾗﾐﾅﾐｸ","kana_address":"ﾊﾙﾖｼ","pref":"福岡県","city":"北九州市小倉南区","address":"春吉"},
{"zip_code":"8030180","kana_pref":"ﾌｸｵｶｹﾝ","kana_city":"ｷﾀｷｭｳｼｭｳｼｺｸﾗﾐﾅﾐｸ","kana_address":"ﾋﾗｵﾀﾞｲ","pref":"福岡県","city":"北九州市小倉南区","address":"平尾台"},
{"zip_code":"8030187","kana_pref":"ﾌｸｵｶｹﾝ","kana_city":"ｷﾀｷｭｳｼｭｳｼｺｸﾗﾐﾅﾐｸ","kana_address":"ﾓﾊﾗ","pref":"福岡県","city":"北九州市小倉南区","address":"母原"},
{"zip_code":"8030188","kana_pref":"ﾌｸｵｶｹﾝ","kana_city":"ｷﾀｷｭｳｼｭｳｼｺｸﾗﾐﾅﾐｸ","kana_address":"ﾓﾊﾗ","pref":"福岡県","city":"北九州市小倉南区","address":"母原"},
{"zip_code":"8030264","kana_pref":"ﾌｸｵｶｹﾝ","kana_city":"ｷﾀｷｭｳｼｭｳｼｺｸﾗﾐﾅﾐｸ","kana_address":"ﾔﾏﾓﾄ","pref":"福岡県","city":"北九州市小倉南区","address":"山本"},
{"zip_code":"8030181","kana_pref":"ﾌｸｵｶｹﾝ","kana_city":"ｷﾀｷｭｳｼｭｳｼｺｸﾗﾐﾅﾐｸ","kana_address":"ﾖﾌﾞﾉ","pref":"福岡県","city":"北九州市小倉南区","address":"呼野"}]}