{"zip_code":[
{"zip_code":"8040000","kana_pref":"ﾌｸｵｶｹﾝ","kana_city":"ｷﾀｷｭｳｼｭｳｼﾄﾊﾞﾀｸ","kana_address":"","pref":"福岡県","city":"北九州市戸畑区","address":""},
{"zip_code":"8040083","kana_pref":"ﾌｸｵｶｹﾝ","kana_city":"ｷﾀｷｭｳｼｭｳｼﾄﾊﾞﾀｸ","kana_address":"ｱｻﾋﾏﾁ","pref":"福岡県","city":"北九州市戸畑区","address":"旭町"},
{"zip_code":"8040062","kana_pref":"ﾌｸｵｶｹﾝ","kana_city":"ｷﾀｷｭｳｼｭｳｼﾄﾊﾞﾀｸ","kana_address":"ｱｿｳ","pref":"福岡県","city":"北九州市戸畑区","address":"浅生"},
{"zip_code":"8040021","kana_pref":"ﾌｸｵｶｹﾝ","kana_city":"ｷﾀｷｭｳｼｭｳｼﾄﾊﾞﾀｸ","kana_address":"ｲﾁｴﾀﾞ","pref":"福岡県","city":"北九州市戸畑区","address":"一枝"},
{"zip_code":"8040064","kana_pref":"ﾌｸｵｶｹﾝ","kana_city":"ｷﾀｷｭｳｼｭｳｼﾄﾊﾞﾀｸ","kana_address":"ｵｷﾀﾞｲ","pref":"福岡県","city":"北九州市戸畑区","address":"沖台"},
{"zip_code":"8040071","kana_pref":"ﾌｸｵｶｹﾝ","kana_city":"ｷﾀｷｭｳｼｭｳｼﾄﾊﾞﾀｸ","kana_address":"ｶﾜｼﾛ","pref":"福岡県","city":"北九州市戸畑区","address":"川代"},
{"zip_code":"8040043","kana_pref":"ﾌｸｵｶｹﾝ","kana_city":"ｷﾀｷｭｳｼｭｳｼﾄﾊﾞﾀｸ","kana_address":"ｶﾝﾉﾝｼﾞﾁｮｳ","pref":"福岡県","city":"北九州市戸畑区","address":"観音寺町"},
{"zip_code":"8040075","kana_pref":"ﾌｸｵｶｹﾝ","kana_city":"ｷﾀｷｭｳｼｭｳｼﾄﾊﾞﾀｸ","kana_address":"ｷﾀﾄﾘﾊﾀﾏﾁ","pref":"福岡県","city":"北九州市戸畑区","address":"北鳥旗町"},
{"zip_code":"8040076","kana_pref":"ﾌｸｵｶｹﾝ","kana_city":"ｷﾀｷｭｳｼｭｳｼﾄﾊﾞﾀｸ","kana_address":"ｷﾞﾝｻﾞ","pref":"福岡県","city":"北九州市戸畑区","address":"銀座"},
{"zip_code":"8040092","kana_pref":"ﾌｸｵｶｹﾝ","kana_city":"ｷﾀｷｭｳｼｭｳｼﾄﾊﾞﾀｸ","kana_address":"ｺｼﾊﾞ","pref":"福岡県","city":"北九州市戸畑区","address":"小芝"},
{"zip_code":"8040022","kana_pref":"ﾌｸｵｶｹﾝ","kana_city":"ｷﾀｷｭｳｼｭｳｼﾄﾊﾞﾀｸ","kana_address":"ｺﾝﾋﾟﾗﾁｮｳ","pref":"福岡県","city":"北九州市戸畑区","address":"金比羅町"},
{"zip_code":"8040084","kana_pref":"ﾌｸｵｶｹﾝ","kana_city":"ｷﾀｷｭｳｼｭｳｼﾄﾊﾞﾀｸ","kana_address":"ｻｲﾜｲﾏﾁ","pref":"福岡県","city":"北九州市戸畑区","address":"幸町"},
{"zip_code":"8040013","kana_pref":"ﾌｸｵｶｹﾝ","kana_city":"ｷﾀｷｭｳｼｭｳｼﾄﾊﾞﾀｸ","kana_address":"ｻｶｲｶﾞﾜ","pref":"福岡県","city":"北九州市戸畑区","address":"境川"},
{"zip_code":"8040093","kana_pref":"ﾌｸｵｶｹﾝ","kana_city":"ｷﾀｷｭｳｼｭｳｼﾄﾊﾞﾀｸ","kana_address":"ｻﾜﾐ","pref":"福岡県","city":"北九州市戸畑区","address":"沢見"},
{"zip_code":"8040091","kana_pref":"ﾌｸｵｶｹﾝ","kana_city":"ｷﾀｷｭｳｼｭｳｼﾄﾊﾞﾀｸ","kana_address":"ｻﾝﾛｸﾏﾁ","pref":"福岡県","city":"北九州市戸畑区","address":"三六町"},
{"zip_code":"8040033","kana_pref":"ﾌｸｵｶｹﾝ","kana_city":"ｷﾀｷｭｳｼｭｳｼﾄﾊﾞﾀｸ","kana_address":"ｼｲﾉｷﾁｮｳ","pref":"福岡県","city":"北九州市戸畑区","address":"椎ノ木町"},
{"zip_code":"8040067","kana_pref":"ﾌｸｵｶｹﾝ","kana_city":"ｷﾀｷｭｳｼｭｳｼﾄﾊﾞﾀｸ","kana_address":"ｼｵｲﾏﾁ","pref":"福岡県","city":"北九州市戸畑区","address":"汐井町"},
{"zip_code":"8040063","kana_pref":"ﾌｸｵｶｹﾝ","kana_city":"ｷﾀｷｭｳｼｭｳｼﾄﾊﾞﾀｸ","kana_address":"ｼｮｳﾂﾞﾏﾁ","pref":"福岡県","city":"北九州市戸畑区","address":"正津町"},
{"zip_code":"8040082","kana_pref":"ﾌｸｵｶｹﾝ","kana_city":"ｷﾀｷｭｳｼｭｳｼﾄﾊﾞﾀｸ","kana_address":"ｼﾝｲｹ","pref":"福岡県","city":"北九州市戸畑区","address":"新池"},
{"zip_code":"8040065","kana_pref":"ﾌｸｵｶｹﾝ","kana_city":"ｷﾀｷｭｳｼｭｳｼﾄﾊﾞﾀｸ","kana_address":"ｼﾝｶﾜﾏﾁ","pref":"福岡県","city":"北九州市戸畑区","address":"新川町"},
{"zip_code":"8040044","kana_pref":"ﾌｸｵｶｹﾝ","kana_city":"ｷﾀｷｭｳｼｭｳｼﾄﾊﾞﾀｸ","kana_address":"ｽｶﾞﾜﾗ","pref":"福岡県","city":"北九州市戸畑区","address":"菅原"},
{"zip_code":"8040015","kana_pref":"ﾌｸｵｶｹﾝ","kana_city":"ｷﾀｷｭｳｼｭｳｼﾄﾊﾞﾀｸ","kana_address":"ｾﾝｽｲﾁｮｳ","pref":"福岡県","city":"北九州市戸畑区","address":"仙水町"},
{"zip_code":"8040081","kana_pref":"ﾌｸｵｶｹﾝ","kana_city":"ｷﾀｷｭｳｼｭｳｼﾄﾊﾞﾀｸ","kana_address":"ｾﾝﾎﾞｳ","pref":"福岡県","city":"北九州市戸畑区","address":"千防"},
{"zip_code":"8040051","kana_pref":"ﾌｸｵｶｹﾝ","kana_city":"ｷﾀｷｭｳｼｭｳｼﾄﾊﾞﾀｸ","kana_address":"ﾀｶﾐﾈ","pref":"福岡県","city":"北九州市戸畑区","address":"高峰"},
{"zip_code":"8040014","kana_pref":"ﾌｸｵｶｹﾝ","kana_city":"ｷﾀｷｭｳｼｭｳｼﾄﾊﾞﾀｸ","kana_address":"ﾂﾁﾄﾘﾏﾁ","pref":"福岡県","city":"北九州市戸畑区","address":"土取町"},
{"zip_code":"8040094","kana_pref":"ﾌｸｵｶｹﾝ","kana_city":"ｷﾀｷｭｳｼｭｳｼﾄﾊﾞﾀｸ","kana_address":"ﾃﾝｼﾞﾝ","pref":"福岡県","city":"北九州市戸畑区","address":"天神"},
{"zip_code":"8040041","kana_pref":"ﾌｸｵｶｹﾝ","kana_city":"ｷﾀｷｭｳｼｭｳｼﾄﾊﾞﾀｸ","kana_address":"ﾃﾝﾗｲｼﾞ","pref":"福岡県","city":"北九州市戸畑区","address":"天籟寺"},
{"zip_code":"8040004","kana_pref":"ﾌｸｵｶｹﾝ","kana_city":"ｷﾀｷｭｳｼｭｳｼﾄﾊﾞﾀｸ","kana_address":"ﾄﾊﾞﾀ","pref":"福岡県","city":"北九州市戸畑区","address":"戸畑"},
{"zip_code":"8040001","kana_pref":"ﾌｸｵｶｹﾝ","kana_city":"ｷﾀｷｭｳｼｭｳｼﾄﾊﾞﾀｸ","kana_address":"ﾄﾋﾞﾊﾀﾁｮｳ","pref":"福岡県","city":"北九州市戸畑区","address":"飛幡町"},
{"zip_code":"8040002","kana_pref":"ﾌｸｵｶｹﾝ","kana_city":"ｷﾀｷｭｳｼｭｳｼﾄﾊﾞﾀｸ","kana_address":"ﾅｶﾊﾞﾙ","pref":"福岡県","city":"北九州市戸畑区","address":"中原"},
{"zip_code":"8040003","kana_pref":"ﾌｸｵｶｹﾝ","kana_city":"ｷﾀｷｭｳｼｭｳｼﾄﾊﾞﾀｸ","kana_address":"ﾅｶﾊﾞﾙｼﾝﾏﾁ","pref":"福岡県","city":"北九州市戸畑区","address":"中原新町"},
{"zip_code":"8040012","kana_pref":"ﾌｸｵｶｹﾝ","kana_city":"ｷﾀｷｭｳｼｭｳｼﾄﾊﾞﾀｸ","kana_address":"ﾅｶﾊﾞﾙﾋｶﾞｼ","pref":"福岡県","city":"北九州市戸畑区","address":"中原東"},
{"zip_code":"8040011","kana_pref":"ﾌｸｵｶｹﾝ","kana_city":"ｷﾀｷｭｳｼｭｳｼﾄﾊﾞﾀｸ","kana_address":"ﾅｶﾊﾞﾙﾆｼ","pref":"福岡県","city":"北九州市戸畑区","address":"中原西"},
{"zip_code":"8040061","kana_pref":"ﾌｸｵｶｹﾝ","kana_city":"ｷﾀｷｭｳｼｭｳｼﾄﾊﾞﾀｸ","kana_address":"ﾅｶﾎﾝﾏﾁ","pref":"福岡県","city":"北九州市戸畑区","address":"中本町"},
{"zip_code":"8040032","kana_pref":"ﾌｸｵｶｹﾝ","kana_city":"ｷﾀｷｭｳｼｭｳｼﾄﾊﾞﾀｸ","kana_address":"ﾆｼｵｵﾀﾆ","pref":"福岡県","city":"北九州市戸畑区","address":"西大谷"},
{"zip_code":"8040024","kana_pref":"ﾌｸｵｶｹﾝ","kana_city":"ｷﾀｷｭｳｼｭｳｼﾄﾊﾞﾀｸ","kana_address":"ﾆｼｻﾔｶﾞﾀﾆﾏﾁ","pref":"福岡県","city":"北九州市戸畑区","address":"西鞘ケ谷町"},
{"zip_code":"8040066","kana_pref":"ﾌｸｵｶｹﾝ","kana_city":"ｷﾀｷｭｳｼｭｳｼﾄﾊﾞﾀｸ","kana_address":"ﾊﾂﾈﾁｮｳ","pref":"福岡県","city":"北九州市戸畑区","address":"初音町"},
{"zip_code":"8040031","kana_pref":"ﾌｸｵｶｹﾝ","kana_city":"ｷﾀｷｭｳｼｭｳｼﾄﾊﾞﾀｸ","kana_address":"ﾋｶﾞｼｵｵﾀﾆ","pref":"福岡県","city":"北九州市戸畑区","address":"東大谷"},
{"zip_code":"8040023","kana_pref":"ﾌｸｵｶｹﾝ","kana_city":"ｷﾀｷｭｳｼｭｳｼﾄﾊﾞﾀｸ","kana_address":"ﾋｶﾞｼｻﾔｶﾞﾀﾆﾏﾁ","pref":"福岡県","city":"北九州市戸畑区","address":"東鞘ケ谷町"},
{"zip_code":"8040025","kana_pref":"ﾌｸｵｶｹﾝ","kana_city":"ｷﾀｷｭｳｼｭｳｼﾄﾊﾞﾀｸ","kana_address":"ﾌｸﾘｭｳｷﾞ","pref":"福岡県","city":"北九州市戸畑区","address":"福柳木"},
{"zip_code":"8040053","kana_pref":"ﾌｸｵｶｹﾝ","kana_city":"ｷﾀｷｭｳｼｭｳｼﾄﾊﾞﾀｸ","kana_address":"ﾏｷﾔﾏ","pref":"福岡県","city":"北九州市戸畑区","address":"牧山"},
{"zip_code":"8040077","kana_pref":"ﾌｸｵｶｹﾝ","kana_city":"ｷﾀｷｭｳｼｭｳｼﾄﾊﾞﾀｸ","kana_address":"ﾏｷﾔﾏｶｲｶﾞﾝ","pref":"福岡県","city":"北九州市戸畑区","address":"牧山海岸"},
{"zip_code":"8040054","kana_pref":"ﾌｸｵｶｹﾝ","kana_city":"ｷﾀｷｭｳｼｭｳｼﾄﾊﾞﾀｸ","kana_address":"ﾏｷﾔﾏｼﾝﾏﾁ","pref":"福岡県","city":"北九州市戸畑区","address":"牧山新町"},
{"zip_code":"8040052","kana_pref":"ﾌｸｵｶｹﾝ","kana_city":"ｷﾀｷｭｳｼｭｳｼﾄﾊﾞﾀｸ","kana_address":"ﾏﾙﾏﾁ","pref":"福岡県","city":"北九州市戸畑区","address":"丸町"},
{"zip_code":"8040074","kana_pref":"ﾌｸｵｶｹﾝ","kana_city":"ｷﾀｷｭｳｼｭｳｼﾄﾊﾞﾀｸ","kana_address":"ﾐﾅﾐﾄﾘﾊﾀﾏﾁ","pref":"福岡県","city":"北九州市戸畑区","address":"南鳥旗町"},
{"zip_code":"8040073","kana_pref":"ﾌｸｵｶｹﾝ","kana_city":"ｷﾀｷｭｳｼｭｳｼﾄﾊﾞﾀｸ","kana_address":"ﾒｲｼﾞﾏﾁ","pref":"福岡県","city":"北九州市戸畑区","address":"明治町"},
{"zip_code":"8040072","kana_pref":"ﾌｸｵｶｹﾝ","kana_city":"ｷﾀｷｭｳｼｭｳｼﾄﾊﾞﾀｸ","kana_address":"ﾓﾄﾐﾔﾏﾁ","pref":"福岡県","city":"北九州市戸畑区","address":"元宮町"},
{"zip_code":"8040042","kana_pref":"ﾌｸｵｶｹﾝ","kana_city":"ｷﾀｷｭｳｼｭｳｼﾄﾊﾞﾀｸ","kana_address":"ﾖﾐﾔ","pref":"福岡県","city":"北九州市戸畑区","address":"夜宮"}]}