{"zip_code":[
{"zip_code":"8060000","kana_pref":"ﾌｸｵｶｹﾝ","kana_city":"ｷﾀｷｭｳｼｭｳｼﾔﾊﾀﾆｼｸ","kana_address":"","pref":"福岡県","city":"北九州市八幡西区","address":""},
{"zip_code":"8060044","kana_pref":"ﾌｸｵｶｹﾝ","kana_city":"ｷﾀｷｭｳｼｭｳｼﾔﾊﾀﾆｼｸ","kana_address":"ｱｲｵｲﾁｮｳ","pref":"福岡県","city":"北九州市八幡西区","address":"相生町"},
{"zip_code":"8060043","kana_pref":"ﾌｸｵｶｹﾝ","kana_city":"ｷﾀｷｭｳｼｭｳｼﾔﾊﾀﾆｼｸ","kana_address":"ｱｵﾔﾏ","pref":"福岡県","city":"北九州市八幡西区","address":"青山"},
{"zip_code":"8060049","kana_pref":"ﾌｸｵｶｹﾝ","kana_city":"ｷﾀｷｭｳｼｭｳｼﾔﾊﾀﾆｼｸ","kana_address":"ｱﾉｵ","pref":"福岡県","city":"北九州市八幡西区","address":"穴生"},
{"zip_code":"8060063","kana_pref":"ﾌｸｵｶｹﾝ","kana_city":"ｷﾀｷｭｳｼｭｳｼﾔﾊﾀﾆｼｸ","kana_address":"ｲﾁﾉｾ","pref":"福岡県","city":"北九州市八幡西区","address":"市瀬"},
{"zip_code":"8060053","kana_pref":"ﾌｸｵｶｹﾝ","kana_city":"ｷﾀｷｭｳｼｭｳｼﾔﾊﾀﾆｼｸ","kana_address":"ｵｵﾊﾀﾏﾁ","pref":"福岡県","city":"北九州市八幡西区","address":"大畑町"},
{"zip_code":"8060033","kana_pref":"ﾌｸｵｶｹﾝ","kana_city":"ｷﾀｷｭｳｼｭｳｼﾔﾊﾀﾆｼｸ","kana_address":"ｵｶﾀﾞﾏﾁ","pref":"福岡県","city":"北九州市八幡西区","address":"岡田町"},
{"zip_code":"8060034","kana_pref":"ﾌｸｵｶｹﾝ","kana_city":"ｷﾀｷｭｳｼｭｳｼﾔﾊﾀﾆｼｸ","kana_address":"ｷｼﾉｳﾗ","pref":"福岡県","city":"北九州市八幡西区","address":"岸の浦"},
{"zip_code":"8060061","kana_pref":"ﾌｸｵｶｹﾝ","kana_city":"ｷﾀｷｭｳｼｭｳｼﾔﾊﾀﾆｼｸ","kana_address":"ｷｮｳﾗｷﾞﾏﾁ","pref":"福岡県","city":"北九州市八幡西区","address":"京良城町"},
{"zip_code":"8060028","kana_pref":"ﾌｸｵｶｹﾝ","kana_city":"ｷﾀｷｭｳｼｭｳｼﾔﾊﾀﾆｼｸ","kana_address":"ｸﾏﾃﾞ","pref":"福岡県","city":"北九州市八幡西区","address":"熊手"},
{"zip_code":"8060031","kana_pref":"ﾌｸｵｶｹﾝ","kana_city":"ｷﾀｷｭｳｼｭｳｼﾔﾊﾀﾆｼｸ","kana_address":"ｸﾏﾆｼ","pref":"福岡県","city":"北九州市八幡西区","address":"熊西"},
{"zip_code":"8060021","kana_pref":"ﾌｸｵｶｹﾝ","kana_city":"ｷﾀｷｭｳｼｭｳｼﾔﾊﾀﾆｼｸ","kana_address":"ｸﾛｻｷ","pref":"福岡県","city":"北九州市八幡西区","address":"黒崎"},
{"zip_code":"8060004","kana_pref":"ﾌｸｵｶｹﾝ","kana_city":"ｷﾀｷｭｳｼｭｳｼﾔﾊﾀﾆｼｸ","kana_address":"ｸﾛｻｷｼﾛｲｼ","pref":"福岡県","city":"北九州市八幡西区","address":"黒崎城石"},
{"zip_code":"8060041","kana_pref":"ﾌｸｵｶｹﾝ","kana_city":"ｷﾀｷｭｳｼｭｳｼﾔﾊﾀﾆｼｸ","kana_address":"ｺｳｶﾞｻｷﾏﾁ","pref":"福岡県","city":"北九州市八幡西区","address":"皇后崎町"},
{"zip_code":"8060016","kana_pref":"ﾌｸｵｶｹﾝ","kana_city":"ｷﾀｷｭｳｼｭｳｼﾔﾊﾀﾆｼｸ","kana_address":"ｺｳﾄｳﾏﾁ","pref":"福岡県","city":"北九州市八幡西区","address":"河桃町"},
{"zip_code":"8060011","kana_pref":"ﾌｸｵｶｹﾝ","kana_city":"ｷﾀｷｭｳｼｭｳｼﾔﾊﾀﾆｼｸ","kana_address":"ｺｳﾊﾞｲ","pref":"福岡県","city":"北九州市八幡西区","address":"紅梅"},
{"zip_code":"8060056","kana_pref":"ﾌｸｵｶｹﾝ","kana_city":"ｷﾀｷｭｳｼｭｳｼﾔﾊﾀﾆｼｸ","kana_address":"ｺｻｷﾞﾀﾞﾏﾁ","pref":"福岡県","city":"北九州市八幡西区","address":"小鷺田町"},
{"zip_code":"8060055","kana_pref":"ﾌｸｵｶｹﾝ","kana_city":"ｷﾀｷｭｳｼｭｳｼﾔﾊﾀﾆｼｸ","kana_address":"ｻｲﾉｶﾐ","pref":"福岡県","city":"北九州市八幡西区","address":"幸神"},
{"zip_code":"8060042","kana_pref":"ﾌｸｵｶｹﾝ","kana_city":"ｷﾀｷｭｳｼｭｳｼﾔﾊﾀﾆｼｸ","kana_address":"ｻｸﾗｶﾞｵｶﾏﾁ","pref":"福岡県","city":"北九州市八幡西区","address":"桜ケ丘町"},
{"zip_code":"8060012","kana_pref":"ﾌｸｵｶｹﾝ","kana_city":"ｷﾀｷｭｳｼｭｳｼﾔﾊﾀﾆｼｸ","kana_address":"ｼﾞﾝﾔﾏ","pref":"福岡県","city":"北九州市八幡西区","address":"陣山"},
{"zip_code":"8060027","kana_pref":"ﾌｸｵｶｹﾝ","kana_city":"ｷﾀｷｭｳｼｭｳｼﾔﾊﾀﾆｼｸ","kana_address":"ｽｶﾞﾜﾗﾏﾁ","pref":"福岡県","city":"北九州市八幡西区","address":"菅原町"},
{"zip_code":"8060013","kana_pref":"ﾌｸｵｶｹﾝ","kana_city":"ｷﾀｷｭｳｼｭｳｼﾔﾊﾀﾆｼｸ","kana_address":"ｾｲﾉｳ","pref":"福岡県","city":"北九州市八幡西区","address":"清納"},
{"zip_code":"8060047","kana_pref":"ﾌｸｵｶｹﾝ","kana_city":"ｷﾀｷｭｳｼｭｳｼﾔﾊﾀﾆｼｸ","kana_address":"ﾀｶﾉｽ","pref":"福岡県","city":"北九州市八幡西区","address":"鷹の巣"},
{"zip_code":"8060045","kana_pref":"ﾌｸｵｶｹﾝ","kana_city":"ｷﾀｷｭｳｼｭｳｼﾔﾊﾀﾆｼｸ","kana_address":"ﾀｹｽｴ","pref":"福岡県","city":"北九州市八幡西区","address":"竹末"},
{"zip_code":"8060003","kana_pref":"ﾌｸｵｶｹﾝ","kana_city":"ｷﾀｷｭｳｼｭｳｼﾔﾊﾀﾆｼｸ","kana_address":"ﾀﾏﾁ","pref":"福岡県","city":"北九州市八幡西区","address":"田町"},
{"zip_code":"8060069","kana_pref":"ﾌｸｵｶｹﾝ","kana_city":"ｷﾀｷｭｳｼｭｳｼﾔﾊﾀﾆｼｸ","kana_address":"ﾁｬｳﾘﾏﾁ","pref":"福岡県","city":"北九州市八幡西区","address":"茶売町"},
{"zip_code":"8060001","kana_pref":"ﾌｸｵｶｹﾝ","kana_city":"ｷﾀｷｭｳｼｭｳｼﾔﾊﾀﾆｼｸ","kana_address":"ﾂｷｼﾞﾏﾁ","pref":"福岡県","city":"北九州市八幡西区","address":"築地町"},
{"zip_code":"8060032","kana_pref":"ﾌｸｵｶｹﾝ","kana_city":"ｷﾀｷｭｳｼｭｳｼﾔﾊﾀﾆｼｸ","kana_address":"ﾂﾂｲﾏﾁ","pref":"福岡県","city":"北九州市八幡西区","address":"筒井町"},
{"zip_code":"8060057","kana_pref":"ﾌｸｵｶｹﾝ","kana_city":"ｷﾀｷｭｳｼｭｳｼﾔﾊﾀﾆｼｸ","kana_address":"ﾃﾂｵｳ","pref":"福岡県","city":"北九州市八幡西区","address":"鉄王"},
{"zip_code":"8060058","kana_pref":"ﾌｸｵｶｹﾝ","kana_city":"ｷﾀｷｭｳｼｭｳｼﾔﾊﾀﾆｼｸ","kana_address":"ﾃﾂﾘｭｳ","pref":"福岡県","city":"北九州市八幡西区","address":"鉄竜"},
{"zip_code":"8060052","kana_pref":"ﾌｸｵｶｹﾝ","kana_city":"ｷﾀｷｭｳｼｭｳｼﾔﾊﾀﾆｼｸ","kana_address":"ﾅﾙﾐｽﾞﾏﾁ","pref":"福岡県","city":"北九州市八幡西区","address":"鳴水町"},
{"zip_code":"8060039","kana_pref":"ﾌｸｵｶｹﾝ","kana_city":"ｷﾀｷｭｳｼｭｳｼﾔﾊﾀﾆｼｸ","kana_address":"ﾆｼｵｳｼﾞﾏﾁ","pref":"福岡県","city":"北九州市八幡西区","address":"西王子町"},
{"zip_code":"8060017","kana_pref":"ﾌｸｵｶｹﾝ","kana_city":"ｷﾀｷｭｳｼｭｳｼﾔﾊﾀﾆｼｸ","kana_address":"ﾆｼｶﾜｶﾞｼﾗﾏﾁ","pref":"福岡県","city":"北九州市八幡西区","address":"西川頭町"},
{"zip_code":"8060026","kana_pref":"ﾌｸｵｶｹﾝ","kana_city":"ｷﾀｷｭｳｼｭｳｼﾔﾊﾀﾆｼｸ","kana_address":"ﾆｼｶﾝﾊﾞﾗﾏﾁ","pref":"福岡県","city":"北九州市八幡西区","address":"西神原町"},
{"zip_code":"8060054","kana_pref":"ﾌｸｵｶｹﾝ","kana_city":"ｷﾀｷｭｳｼｭｳｼﾔﾊﾀﾆｼｸ","kana_address":"ﾆｼﾅﾙﾐｽﾞ","pref":"福岡県","city":"北九州市八幡西区","address":"西鳴水"},
{"zip_code":"8060036","kana_pref":"ﾌｸｵｶｹﾝ","kana_city":"ｷﾀｷｭｳｼｭｳｼﾔﾊﾀﾆｼｸ","kana_address":"ﾆｼﾏｶﾞﾘﾏﾁ","pref":"福岡県","city":"北九州市八幡西区","address":"西曲里町"},
{"zip_code":"8060059","kana_pref":"ﾌｸｵｶｹﾝ","kana_city":"ｷﾀｷｭｳｼｭｳｼﾔﾊﾀﾆｼｸ","kana_address":"ﾊｷﾞﾜﾗ","pref":"福岡県","city":"北九州市八幡西区","address":"萩原"},
{"zip_code":"8060037","kana_pref":"ﾌｸｵｶｹﾝ","kana_city":"ｷﾀｷｭｳｼｭｳｼﾔﾊﾀﾆｼｸ","kana_address":"ﾋｶﾞｼｵｳｼﾞﾏﾁ","pref":"福岡県","city":"北九州市八幡西区","address":"東王子町"},
{"zip_code":"8060014","kana_pref":"ﾌｸｵｶｹﾝ","kana_city":"ｷﾀｷｭｳｼｭｳｼﾔﾊﾀﾆｼｸ","kana_address":"ﾋｶﾞｼｶﾜｶﾞｼﾗﾏﾁ","pref":"福岡県","city":"北九州市八幡西区","address":"東川頭町"},
{"zip_code":"8060025","kana_pref":"ﾌｸｵｶｹﾝ","kana_city":"ｷﾀｷｭｳｼｭｳｼﾔﾊﾀﾆｼｸ","kana_address":"ﾋｶﾞｼｶﾝﾊﾞﾗﾏﾁ","pref":"福岡県","city":"北九州市八幡西区","address":"東神原町"},
{"zip_code":"8060051","kana_pref":"ﾌｸｵｶｹﾝ","kana_city":"ｷﾀｷｭｳｼｭｳｼﾔﾊﾀﾆｼｸ","kana_address":"ﾋｶﾞｼﾅﾙﾐｽﾞ","pref":"福岡県","city":"北九州市八幡西区","address":"東鳴水"},
{"zip_code":"8060002","kana_pref":"ﾌｸｵｶｹﾝ","kana_city":"ｷﾀｷｭｳｼｭｳｼﾔﾊﾀﾆｼｸ","kana_address":"ﾋｶﾞｼﾊﾏﾏﾁ","pref":"福岡県","city":"北九州市八幡西区","address":"東浜町"},
{"zip_code":"8060035","kana_pref":"ﾌｸｵｶｹﾝ","kana_city":"ｷﾀｷｭｳｼｭｳｼﾔﾊﾀﾆｼｸ","kana_address":"ﾋｶﾞｼﾏｶﾞﾘﾏﾁ","pref":"福岡県","city":"北九州市八幡西区","address":"東曲里町"},
{"zip_code":"8060067","kana_pref":"ﾌｸｵｶｹﾝ","kana_city":"ｷﾀｷｭｳｼｭｳｼﾔﾊﾀﾆｼｸ","kana_address":"ﾋｷﾉ","pref":"福岡県","city":"北九州市八幡西区","address":"引野"},
{"zip_code":"8060048","kana_pref":"ﾌｸｵｶｹﾝ","kana_city":"ｷﾀｷｭｳｼｭｳｼﾔﾊﾀﾆｼｸ","kana_address":"ﾋｸﾞﾁﾏﾁ","pref":"福岡県","city":"北九州市八幡西区","address":"樋口町"},
{"zip_code":"8060018","kana_pref":"ﾌｸｵｶｹﾝ","kana_city":"ｷﾀｷｭｳｼｭｳｼﾔﾊﾀﾆｼｸ","kana_address":"ﾋﾗｵﾏﾁ","pref":"福岡県","city":"北九州市八幡西区","address":"平尾町"},
{"zip_code":"8060022","kana_pref":"ﾌｸｵｶｹﾝ","kana_city":"ｷﾀｷｭｳｼｭｳｼﾔﾊﾀﾆｼｸ","kana_address":"ﾌｼﾞﾀ","pref":"福岡県","city":"北九州市八幡西区","address":"藤田"},
{"zip_code":"8060005","kana_pref":"ﾌｸｵｶｹﾝ","kana_city":"ｷﾀｷｭｳｼｭｳｼﾔﾊﾀﾆｼｸ","kana_address":"ﾌﾅﾏﾁ","pref":"福岡県","city":"北九州市八幡西区","address":"舟町"},
{"zip_code":"8060068","kana_pref":"ﾌｸｵｶｹﾝ","kana_city":"ｷﾀｷｭｳｼｭｳｼﾔﾊﾀﾆｼｸ","kana_address":"ﾍﾞｯｼｮﾏﾁ","pref":"福岡県","city":"北九州市八幡西区","address":"別所町"},
{"zip_code":"8060062","kana_pref":"ﾌｸｵｶｹﾝ","kana_city":"ｷﾀｷｭｳｼｭｳｼﾔﾊﾀﾆｼｸ","kana_address":"ﾍﾞｯﾄｳﾏﾁ","pref":"福岡県","city":"北九州市八幡西区","address":"別当町"},
{"zip_code":"8060038","kana_pref":"ﾌｸｵｶｹﾝ","kana_city":"ｷﾀｷｭｳｼｭｳｼﾔﾊﾀﾆｼｸ","kana_address":"ﾐﾅﾐｵｳｼﾞﾏﾁ","pref":"福岡県","city":"北九州市八幡西区","address":"南王子町"},
{"zip_code":"8060024","kana_pref":"ﾌｸｵｶｹﾝ","kana_city":"ｷﾀｷｭｳｼｭｳｼﾔﾊﾀﾆｼｸ","kana_address":"ﾐﾅﾐﾔﾁﾖﾏﾁ","pref":"福岡県","city":"北九州市八幡西区","address":"南八千代町"},
{"zip_code":"8060015","kana_pref":"ﾌｸｵｶｹﾝ","kana_city":"ｷﾀｷｭｳｼｭｳｼﾔﾊﾀﾆｼｸ","kana_address":"ﾓﾄｼﾛﾏﾁ","pref":"福岡県","city":"北九州市八幡西区","address":"元城町"},
{"zip_code":"8060046","kana_pref":"ﾌｸｵｶｹﾝ","kana_city":"ｷﾀｷｭｳｼｭｳｼﾔﾊﾀﾆｼｸ","kana_address":"ﾓﾘｼﾀﾏﾁ","pref":"福岡県","city":"北九州市八幡西区","address":"森下町"},
{"zip_code":"8060006","kana_pref":"ﾌｸｵｶｹﾝ","kana_city":"ｷﾀｷｭｳｼｭｳｼﾔﾊﾀﾆｼｸ","kana_address":"ﾔｼｷ","pref":"福岡県","city":"北九州市八幡西区","address":"屋敷"},
{"zip_code":"8060023","kana_pref":"ﾌｸｵｶｹﾝ","kana_city":"ｷﾀｷｭｳｼｭｳｼﾔﾊﾀﾆｼｸ","kana_address":"ﾔﾁﾖﾏﾁ","pref":"福岡県","city":"北九州市八幡西区","address":"八千代町"},
{"zip_code":"8060030","kana_pref":"ﾌｸｵｶｹﾝ","kana_city":"ｷﾀｷｭｳｼｭｳｼﾔﾊﾀﾆｼｸ","kana_address":"ﾔﾏﾃﾞﾗﾏﾁ","pref":"福岡県","city":"北九州市八幡西区","address":"山寺町"},
{"zip_code":"8060065","kana_pref":"ﾌｸｵｶｹﾝ","kana_city":"ｷﾀｷｭｳｼｭｳｼﾔﾊﾀﾆｼｸ","kana_address":"ﾖｳﾌｸｼﾞﾏﾁ","pref":"福岡県","city":"北九州市八幡西区","address":"養福寺町"},
{"zip_code":"8060066","kana_pref":"ﾌｸｵｶｹﾝ","kana_city":"ｷﾀｷｭｳｼｭｳｼﾔﾊﾀﾆｼｸ","kana_address":"ﾜｶﾊﾞ","pref":"福岡県","city":"北九州市八幡西区","address":"若葉"},
{"zip_code":"8060064","kana_pref":"ﾌｸｵｶｹﾝ","kana_city":"ｷﾀｷｭｳｼｭｳｼﾔﾊﾀﾆｼｸ","kana_address":"ﾜﾘｺｶﾞﾜ","pref":"福岡県","city":"北九州市八幡西区","address":"割子川"}]}