{"zip_code":[
{"zip_code":"8070872","kana_pref":"ﾌｸｵｶｹﾝ","kana_city":"ｷﾀｷｭｳｼｭｳｼﾔﾊﾀﾆｼｸ","kana_address":"ｱｻｶﾜ","pref":"福岡県","city":"北九州市八幡西区","address":"浅川"},
{"zip_code":"8070877","kana_pref":"ﾌｸｵｶｹﾝ","kana_city":"ｷﾀｷｭｳｼｭｳｼﾔﾊﾀﾆｼｸ","kana_address":"ｱｻｶﾜ","pref":"福岡県","city":"北九州市八幡西区","address":"浅川"},
{"zip_code":"8070871","kana_pref":"ﾌｸｵｶｹﾝ","kana_city":"ｷﾀｷｭｳｼｭｳｼﾔﾊﾀﾆｼｸ","kana_address":"ｱｻｶﾜｶﾞｸｴﾝﾀﾞｲ","pref":"福岡県","city":"北九州市八幡西区","address":"浅川学園台"},
{"zip_code":"8070875","kana_pref":"ﾌｸｵｶｹﾝ","kana_city":"ｷﾀｷｭｳｼｭｳｼﾔﾊﾀﾆｼｸ","kana_address":"ｱｻｶﾜﾀﾞｲ","pref":"福岡県","city":"北九州市八幡西区","address":"浅川台"},
{"zip_code":"8070876","kana_pref":"ﾌｸｵｶｹﾝ","kana_city":"ｷﾀｷｭｳｼｭｳｼﾔﾊﾀﾆｼｸ","kana_address":"ｱｻｶﾜﾋﾉﾐﾈ","pref":"福岡県","city":"北九州市八幡西区","address":"浅川日の峯"},
{"zip_code":"8070879","kana_pref":"ﾌｸｵｶｹﾝ","kana_city":"ｷﾀｷｭｳｼｭｳｼﾔﾊﾀﾆｼｸ","kana_address":"ｱｻｶﾜﾏﾁ","pref":"福岡県","city":"北九州市八幡西区","address":"浅川町"},
{"zip_code":"8071125","kana_pref":"ﾌｸｵｶｹﾝ","kana_city":"ｷﾀｷｭｳｼｭｳｼﾔﾊﾀﾆｼｸ","kana_address":"ｲｹﾀﾞ","pref":"福岡県","city":"北九州市八幡西区","address":"池田"},
{"zip_code":"8071121","kana_pref":"ﾌｸｵｶｹﾝ","kana_city":"ｷﾀｷｭｳｼｭｳｼﾔﾊﾀﾆｼｸ","kana_address":"ｲｼｻｶ","pref":"福岡県","city":"北九州市八幡西区","address":"石坂"},
{"zip_code":"8070854","kana_pref":"ﾌｸｵｶｹﾝ","kana_city":"ｷﾀｷｭｳｼｭｳｼﾔﾊﾀﾆｼｸ","kana_address":"ｲｽﾞﾐｶﾞｳﾗ","pref":"福岡県","city":"北九州市八幡西区","address":"泉ケ浦"},
{"zip_code":"8070804","kana_pref":"ﾌｸｵｶｹﾝ","kana_city":"ｷﾀｷｭｳｼｭｳｼﾔﾊﾀﾆｼｸ","kana_address":"ｲｾｲｶﾞｵｶ","pref":"福岡県","city":"北九州市八幡西区","address":"医生ケ丘"},
{"zip_code":"8071153","kana_pref":"ﾌｸｵｶｹﾝ","kana_city":"ｷﾀｷｭｳｼｭｳｼﾔﾊﾀﾆｼｸ","kana_address":"ｲﾜｻｷ","pref":"福岡県","city":"北九州市八幡西区","address":"岩崎"},
{"zip_code":"8070071","kana_pref":"ﾌｸｵｶｹﾝ","kana_city":"ｷﾀｷｭｳｼｭｳｼﾔﾊﾀﾆｼｸ","kana_address":"ｳｴﾉﾊﾙ","pref":"福岡県","city":"北九州市八幡西区","address":"上の原"},
{"zip_code":"8070851","kana_pref":"ﾌｸｵｶｹﾝ","kana_city":"ｷﾀｷｭｳｼｭｳｼﾔﾊﾀﾆｼｸ","kana_address":"ｴｲﾉﾏﾙ","pref":"福岡県","city":"北九州市八幡西区","address":"永犬丸"},
{"zip_code":"8070842","kana_pref":"ﾌｸｵｶｹﾝ","kana_city":"ｷﾀｷｭｳｼｭｳｼﾔﾊﾀﾆｼｸ","kana_address":"ｴｲﾉﾏﾙﾋｶﾞｼﾏﾁ","pref":"福岡県","city":"北九州市八幡西区","address":"永犬丸東町"},
{"zip_code":"8070852","kana_pref":"ﾌｸｵｶｹﾝ","kana_city":"ｷﾀｷｭｳｼｭｳｼﾔﾊﾀﾆｼｸ","kana_address":"ｴｲﾉﾏﾙﾆｼﾏﾁ","pref":"福岡県","city":"北九州市八幡西区","address":"永犬丸西町"},
{"zip_code":"8070845","kana_pref":"ﾌｸｵｶｹﾝ","kana_city":"ｷﾀｷｭｳｼｭｳｼﾔﾊﾀﾆｼｸ","kana_address":"ｴｲﾉﾏﾙﾐﾅﾐﾏﾁ","pref":"福岡県","city":"北九州市八幡西区","address":"永犬丸南町"},
{"zip_code":"8070874","kana_pref":"ﾌｸｵｶｹﾝ","kana_city":"ｷﾀｷｭｳｼｭｳｼﾔﾊﾀﾆｼｸ","kana_address":"ｵｵｳﾗ","pref":"福岡県","city":"北九州市八幡西区","address":"大浦"},
{"zip_code":"8070083","kana_pref":"ﾌｸｵｶｹﾝ","kana_city":"ｷﾀｷｭｳｼｭｳｼﾔﾊﾀﾆｼｸ","kana_address":"ｵｵﾋﾗ","pref":"福岡県","city":"北九州市八幡西区","address":"大平"},
{"zip_code":"8070084","kana_pref":"ﾌｸｵｶｹﾝ","kana_city":"ｷﾀｷｭｳｼｭｳｼﾔﾊﾀﾆｼｸ","kana_address":"ｵｵﾋﾗﾀﾞｲ","pref":"福岡県","city":"北九州市八幡西区","address":"大平台"},
{"zip_code":"8070077","kana_pref":"ﾌｸｵｶｹﾝ","kana_city":"ｷﾀｷｭｳｼｭｳｼﾔﾊﾀﾆｼｸ","kana_address":"ｵｷﾀ","pref":"福岡県","city":"北九州市八幡西区","address":"沖田"},
{"zip_code":"8070806","kana_pref":"ﾌｸｵｶｹﾝ","kana_city":"ｷﾀｷｭｳｼｭｳｼﾔﾊﾀﾆｼｸ","kana_address":"ｵﾋﾗｷ","pref":"福岡県","city":"北九州市八幡西区","address":"御開"},
{"zip_code":"8070825","kana_pref":"ﾌｸｵｶｹﾝ","kana_city":"ｷﾀｷｭｳｼｭｳｼﾔﾊﾀﾆｼｸ","kana_address":"ｵﾘｵ","pref":"福岡県","city":"北九州市八幡西区","address":"折尾"},
{"zip_code":"8070864","kana_pref":"ﾌｸｵｶｹﾝ","kana_city":"ｷﾀｷｭｳｼｭｳｼﾔﾊﾀﾆｼｸ","kana_address":"ｵﾘｵ","pref":"福岡県","city":"北九州市八幡西区","address":"折尾"},
{"zip_code":"8070844","kana_pref":"ﾌｸｵｶｹﾝ","kana_city":"ｷﾀｷｭｳｼｭｳｼﾔﾊﾀﾆｼｸ","kana_address":"ｶｽｶﾞﾀﾞｲ","pref":"福岡県","city":"北九州市八幡西区","address":"春日台"},
{"zip_code":"8071102","kana_pref":"ﾌｸｵｶｹﾝ","kana_city":"ｷﾀｷｭｳｼｭｳｼﾔﾊﾀﾆｼｸ","kana_address":"ｶﾂｷﾁｭｳｵｳ","pref":"福岡県","city":"北九州市八幡西区","address":"香月中央"},
{"zip_code":"8071103","kana_pref":"ﾌｸｵｶｹﾝ","kana_city":"ｷﾀｷｭｳｼｭｳｼﾔﾊﾀﾆｼｸ","kana_address":"ｶﾂｷﾆｼ","pref":"福岡県","city":"北九州市八幡西区","address":"香月西"},
{"zip_code":"8071101","kana_pref":"ﾌｸｵｶｹﾝ","kana_city":"ｷﾀｷｭｳｼｭｳｼﾔﾊﾀﾆｼｸ","kana_address":"ｶﾐｶﾂｷ","pref":"福岡県","city":"北九州市八幡西区","address":"上香月"},
{"zip_code":"8070072","kana_pref":"ﾌｸｵｶｹﾝ","kana_city":"ｷﾀｷｭｳｼｭｳｼﾔﾊﾀﾆｼｸ","kana_address":"ｶﾐｺｳｼﾞｬｸ","pref":"福岡県","city":"北九州市八幡西区","address":"上上津役"},
{"zip_code":"8070834","kana_pref":"ﾌｸｵｶｹﾝ","kana_city":"ｷﾀｷｭｳｼｭｳｼﾔﾊﾀﾆｼｸ","kana_address":"ｷﾀﾀｶﾐﾏﾁ","pref":"福岡県","city":"北九州市八幡西区","address":"北鷹見町"},
{"zip_code":"8071114","kana_pref":"ﾌｸｵｶｹﾝ","kana_city":"ｷﾀｷｭｳｼｭｳｼﾔﾊﾀﾆｼｸ","kana_address":"ｷｯｼｮｳｼﾞﾏﾁ","pref":"福岡県","city":"北九州市八幡西区","address":"吉祥寺町"},
{"zip_code":"8070814","kana_pref":"ﾌｸｵｶｹﾝ","kana_city":"ｷﾀｷｭｳｼｭｳｼﾔﾊﾀﾆｼｸ","kana_address":"ｷﾌﾈﾀﾞｲ","pref":"福岡県","city":"北九州市八幡西区","address":"貴船台"},
{"zip_code":"8070812","kana_pref":"ﾌｸｵｶｹﾝ","kana_city":"ｷﾀｷｭｳｼｭｳｼﾔﾊﾀﾆｼｸ","kana_address":"ｸｷﾅﾐﾏﾁ","pref":"福岡県","city":"北九州市八幡西区","address":"洞南町"},
{"zip_code":"8071154","kana_pref":"ﾌｸｵｶｹﾝ","kana_city":"ｷﾀｷｭｳｼｭｳｼﾔﾊﾀﾆｼｸ","kana_address":"ｸｽｷﾀ","pref":"福岡県","city":"北九州市八幡西区","address":"楠北"},
{"zip_code":"8070827","kana_pref":"ﾌｸｵｶｹﾝ","kana_city":"ｷﾀｷｭｳｼｭｳｼﾔﾊﾀﾆｼｸ","kana_address":"ｸｽﾉｷ","pref":"福岡県","city":"北九州市八幡西区","address":"楠木"},
{"zip_code":"8071151","kana_pref":"ﾌｸｵｶｹﾝ","kana_city":"ｷﾀｷｭｳｼｭｳｼﾔﾊﾀﾆｼｸ","kana_address":"ｸｽﾊﾞｼ","pref":"福岡県","city":"北九州市八幡西区","address":"楠橋"},
{"zip_code":"8071141","kana_pref":"ﾌｸｵｶｹﾝ","kana_city":"ｷﾀｷｭｳｼｭｳｼﾔﾊﾀﾆｼｸ","kana_address":"ｸｽﾊﾞｼｶﾐｶﾀ","pref":"福岡県","city":"北九州市八幡西区","address":"楠橋上方"},
{"zip_code":"8071146","kana_pref":"ﾌｸｵｶｹﾝ","kana_city":"ｷﾀｷｭｳｼｭｳｼﾔﾊﾀﾆｼｸ","kana_address":"ｸｽﾊﾞｼｼﾓｶﾀ","pref":"福岡県","city":"北九州市八幡西区","address":"楠橋下方"},
{"zip_code":"8071142","kana_pref":"ﾌｸｵｶｹﾝ","kana_city":"ｷﾀｷｭｳｼｭｳｼﾔﾊﾀﾆｼｸ","kana_address":"ｸｽﾊﾞｼﾋｶﾞｼ","pref":"福岡県","city":"北九州市八幡西区","address":"楠橋東"},
{"zip_code":"8071145","kana_pref":"ﾌｸｵｶｹﾝ","kana_city":"ｷﾀｷｭｳｼｭｳｼﾔﾊﾀﾆｼｸ","kana_address":"ｸｽﾊﾞｼﾆｼ","pref":"福岡県","city":"北九州市八幡西区","address":"楠橋西"},
{"zip_code":"8071143","kana_pref":"ﾌｸｵｶｹﾝ","kana_city":"ｷﾀｷｭｳｼｭｳｼﾔﾊﾀﾆｼｸ","kana_address":"ｸｽﾊﾞｼﾐﾅﾐ","pref":"福岡県","city":"北九州市八幡西区","address":"楠橋南"},
{"zip_code":"8070824","kana_pref":"ﾌｸｵｶｹﾝ","kana_city":"ｷﾀｷｭｳｼｭｳｼﾔﾊﾀﾆｼｸ","kana_address":"ｺｳﾐｮｳ","pref":"福岡県","city":"北九州市八幡西区","address":"光明"},
{"zip_code":"8070081","kana_pref":"ﾌｸｵｶｹﾝ","kana_city":"ｷﾀｷｭｳｼｭｳｼﾔﾊﾀﾆｼｸ","kana_address":"ｺﾐﾈ","pref":"福岡県","city":"北九州市八幡西区","address":"小嶺"},
{"zip_code":"8070082","kana_pref":"ﾌｸｵｶｹﾝ","kana_city":"ｷﾀｷｭｳｼｭｳｼﾔﾊﾀﾆｼｸ","kana_address":"ｺﾐﾈﾀﾞｲ","pref":"福岡県","city":"北九州市八幡西区","address":"小嶺台"},
{"zip_code":"8071261","kana_pref":"ﾌｸｵｶｹﾝ","kana_city":"ｷﾀｷｭｳｼｭｳｼﾔﾊﾀﾆｼｸ","kana_address":"ｺﾔﾉｾ","pref":"福岡県","city":"北九州市八幡西区","address":"木屋瀬"},
{"zip_code":"8071263","kana_pref":"ﾌｸｵｶｹﾝ","kana_city":"ｷﾀｷｭｳｼｭｳｼﾔﾊﾀﾆｼｸ","kana_address":"ｺﾝｺﾞｳ","pref":"福岡県","city":"北九州市八幡西区","address":"金剛"},
{"zip_code":"8071265","kana_pref":"ﾌｸｵｶｹﾝ","kana_city":"ｷﾀｷｭｳｼｭｳｼﾔﾊﾀﾆｼｸ","kana_address":"ｻｻﾀﾞ","pref":"福岡県","city":"北九州市八幡西区","address":"笹田"},
{"zip_code":"8070868","kana_pref":"ﾌｸｵｶｹﾝ","kana_city":"ｷﾀｷｭｳｼｭｳｼﾔﾊﾀﾆｼｸ","kana_address":"ｻﾂｷﾀﾞｲ","pref":"福岡県","city":"北九州市八幡西区","address":"さつき台"},
{"zip_code":"8070846","kana_pref":"ﾌｸｵｶｹﾝ","kana_city":"ｷﾀｷｭｳｼｭｳｼﾔﾊﾀﾆｼｸ","kana_address":"ｻﾄﾅｶ","pref":"福岡県","city":"北九州市八幡西区","address":"里中"},
{"zip_code":"8070843","kana_pref":"ﾌｸｵｶｹﾝ","kana_city":"ｷﾀｷｭｳｼｭｳｼﾔﾊﾀﾆｼｸ","kana_address":"ｻﾝｶﾞﾓﾘ","pref":"福岡県","city":"北九州市八幡西区","address":"三ケ森"},
{"zip_code":"8070075","kana_pref":"ﾌｸｵｶｹﾝ","kana_city":"ｷﾀｷｭｳｼｭｳｼﾔﾊﾀﾆｼｸ","kana_address":"ｼﾓｺｳｼﾞｬｸ","pref":"福岡県","city":"北九州市八幡西区","address":"下上津役"},
{"zip_code":"8070076","kana_pref":"ﾌｸｵｶｹﾝ","kana_city":"ｷﾀｷｭｳｼｭｳｼﾔﾊﾀﾆｼｸ","kana_address":"ｼﾓｺｳｼﾞｬｸﾓﾄﾏﾁ","pref":"福岡県","city":"北九州市八幡西区","address":"下上津役元町"},
{"zip_code":"8071123","kana_pref":"ﾌｸｵｶｹﾝ","kana_city":"ｷﾀｷｭｳｼｭｳｼﾔﾊﾀﾆｼｸ","kana_address":"ｼﾓﾊﾀﾏﾁ","pref":"福岡県","city":"北九州市八幡西区","address":"下畑町"},
{"zip_code":"8070867","kana_pref":"ﾌｸｵｶｹﾝ","kana_city":"ｷﾀｷｭｳｼｭｳｼﾔﾊﾀﾆｼｸ","kana_address":"ｼﾞﾕｳｶﾞｵｶ","pref":"福岡県","city":"北九州市八幡西区","address":"自由ケ丘"},
{"zip_code":"8070855","kana_pref":"ﾌｸｵｶｹﾝ","kana_city":"ｷﾀｷｭｳｼｭｳｼﾔﾊﾀﾆｼｸ","kana_address":"ｼｮｳｼﾞｭｻﾝ","pref":"福岡県","city":"北九州市八幡西区","address":"松寿山"},
{"zip_code":"8071113","kana_pref":"ﾌｸｵｶｹﾝ","kana_city":"ｷﾀｷｭｳｼｭｳｼﾔﾊﾀﾆｼｸ","kana_address":"ｼﾗｲﾜﾏﾁ","pref":"福岡県","city":"北九州市八幡西区","address":"白岩町"},
{"zip_code":"8070821","kana_pref":"ﾌｸｵｶｹﾝ","kana_city":"ｷﾀｷｭｳｼｭｳｼﾔﾊﾀﾆｼｸ","kana_address":"ｼﾞﾝﾉﾊﾙ","pref":"福岡県","city":"北九州市八幡西区","address":"陣原"},
{"zip_code":"8070822","kana_pref":"ﾌｸｵｶｹﾝ","kana_city":"ｷﾀｷｭｳｼｭｳｼﾔﾊﾀﾆｼｸ","kana_address":"ｾｲﾀ","pref":"福岡県","city":"北九州市八幡西区","address":"瀬板"},
{"zip_code":"8070829","kana_pref":"ﾌｸｵｶｹﾝ","kana_city":"ｷﾀｷｭｳｼｭｳｼﾔﾊﾀﾆｼｸ","kana_address":"ｾｲﾜﾏﾁ","pref":"福岡県","city":"北九州市八幡西区","address":"星和町"},
{"zip_code":"8070863","kana_pref":"ﾌｸｵｶｹﾝ","kana_city":"ｷﾀｷｭｳｼｭｳｼﾔﾊﾀﾆｼｸ","kana_address":"ﾀﾞｲｾﾞﾝ","pref":"福岡県","city":"北九州市八幡西区","address":"大膳"},
{"zip_code":"8071152","kana_pref":"ﾌｸｵｶｹﾝ","kana_city":"ｷﾀｷｭｳｼｭｳｼﾔﾊﾀﾆｼｸ","kana_address":"ﾀｶｴ","pref":"福岡県","city":"北九州市八幡西区","address":"高江"},
{"zip_code":"8070853","kana_pref":"ﾌｸｵｶｹﾝ","kana_city":"ｷﾀｷｭｳｼｭｳｼﾔﾊﾀﾆｼｸ","kana_address":"ﾀｶﾐﾀﾞｲ","pref":"福岡県","city":"北九州市八幡西区","address":"鷹見台"},
{"zip_code":"8071134","kana_pref":"ﾌｸｵｶｹﾝ","kana_city":"ｷﾀｷｭｳｼｭｳｼﾔﾊﾀﾆｼｸ","kana_address":"ﾁｬﾔﾉﾊﾙ","pref":"福岡県","city":"北九州市八幡西区","address":"茶屋の原"},
{"zip_code":"8071112","kana_pref":"ﾌｸｵｶｹﾝ","kana_city":"ｷﾀｷｭｳｼｭｳｼﾔﾊﾀﾆｼｸ","kana_address":"ﾁﾖ","pref":"福岡県","city":"北九州市八幡西区","address":"千代"},
{"zip_code":"8070803","kana_pref":"ﾌｸｵｶｹﾝ","kana_city":"ｷﾀｷｭｳｼｭｳｼﾔﾊﾀﾆｼｸ","kana_address":"ﾁﾖｶﾞｻｷ","pref":"福岡県","city":"北九州市八幡西区","address":"千代ケ崎"},
{"zip_code":"8070832","kana_pref":"ﾌｸｵｶｹﾝ","kana_city":"ｷﾀｷｭｳｼｭｳｼﾔﾊﾀﾆｼｸ","kana_address":"ﾄｳﾁｸ","pref":"福岡県","city":"北九州市八幡西区","address":"東筑"},
{"zip_code":"8070085","kana_pref":"ﾌｸｵｶｹﾝ","kana_city":"ｷﾀｷｭｳｼｭｳｼﾔﾊﾀﾆｼｸ","kana_address":"ﾄｳﾉ","pref":"福岡県","city":"北九州市八幡西区","address":"塔野"},
{"zip_code":"8070811","kana_pref":"ﾌｸｵｶｹﾝ","kana_city":"ｷﾀｷｭｳｼｭｳｼﾔﾊﾀﾆｼｸ","kana_address":"ﾄﾞｳﾎｸﾏﾁ","pref":"福岡県","city":"北九州市八幡西区","address":"洞北町"},
{"zip_code":"8070828","kana_pref":"ﾌｸｵｶｹﾝ","kana_city":"ｷﾀｷｭｳｼｭｳｼﾔﾊﾀﾆｼｸ","kana_address":"ﾄﾓﾀﾞ","pref":"福岡県","city":"北九州市八幡西区","address":"友田"},
{"zip_code":"8070823","kana_pref":"ﾌｸｵｶｹﾝ","kana_city":"ｷﾀｷｭｳｼｭｳｼﾔﾊﾀﾆｼｸ","kana_address":"ﾅｶｽ","pref":"福岡県","city":"北九州市八幡西区","address":"中須"},
{"zip_code":"8070078","kana_pref":"ﾌｸｵｶｹﾝ","kana_city":"ｷﾀｷｭｳｼｭｳｼﾔﾊﾀﾆｼｸ","kana_address":"ﾅｶﾉﾊﾙ","pref":"福岡県","city":"北九州市八幡西区","address":"中の原"},
{"zip_code":"8070836","kana_pref":"ﾌｸｵｶｹﾝ","kana_city":"ｷﾀｷｭｳｼｭｳｼﾔﾊﾀﾆｼｸ","kana_address":"ﾅｶﾞｻｷﾏﾁ","pref":"福岡県","city":"北九州市八幡西区","address":"長崎町"},
{"zip_code":"8070862","kana_pref":"ﾌｸｵｶｹﾝ","kana_city":"ｷﾀｷｭｳｼｭｳｼﾔﾊﾀﾆｼｸ","kana_address":"ﾆｼｵﾘｵﾏﾁ","pref":"福岡県","city":"北九州市八幡西区","address":"西折尾町"},
{"zip_code":"8071262","kana_pref":"ﾌｸｵｶｹﾝ","kana_city":"ｷﾀｷｭｳｼｭｳｼﾔﾊﾀﾆｼｸ","kana_address":"ﾉﾌﾞ","pref":"福岡県","city":"北九州市八幡西区","address":"野面"},
{"zip_code":"8070831","kana_pref":"ﾌｸｵｶｹﾝ","kana_city":"ｷﾀｷｭｳｼｭｳｼﾔﾊﾀﾆｼｸ","kana_address":"ﾉﾘﾏﾂ","pref":"福岡県","city":"北九州市八幡西区","address":"則松"},
{"zip_code":"8071124","kana_pref":"ﾌｸｵｶｹﾝ","kana_city":"ｷﾀｷｭｳｼｭｳｼﾔﾊﾀﾆｼｸ","kana_address":"ﾊﾀ","pref":"福岡県","city":"北九州市八幡西区","address":"畑"},
{"zip_code":"8071136","kana_pref":"ﾌｸｵｶｹﾝ","kana_city":"ｷﾀｷｭｳｼｭｳｼﾔﾊﾀﾆｼｸ","kana_address":"ﾊﾞﾊﾞﾔﾏ","pref":"福岡県","city":"北九州市八幡西区","address":"馬場山"},
{"zip_code":"8071135","kana_pref":"ﾌｸｵｶｹﾝ","kana_city":"ｷﾀｷｭｳｼｭｳｼﾔﾊﾀﾆｼｸ","kana_address":"ﾊﾞﾊﾞﾔﾏﾊﾗ","pref":"福岡県","city":"北九州市八幡西区","address":"馬場山原"},
{"zip_code":"8071131","kana_pref":"ﾌｸｵｶｹﾝ","kana_city":"ｷﾀｷｭｳｼｭｳｼﾔﾊﾀﾆｼｸ","kana_address":"ﾊﾞﾊﾞﾔﾏﾋｶﾞｼ","pref":"福岡県","city":"北九州市八幡西区","address":"馬場山東"},
{"zip_code":"8071132","kana_pref":"ﾌｸｵｶｹﾝ","kana_city":"ｷﾀｷｭｳｼｭｳｼﾔﾊﾀﾆｼｸ","kana_address":"ﾊﾞﾊﾞﾔﾏﾆｼ","pref":"福岡県","city":"北九州市八幡西区","address":"馬場山西"},
{"zip_code":"8071133","kana_pref":"ﾌｸｵｶｹﾝ","kana_city":"ｷﾀｷｭｳｼｭｳｼﾔﾊﾀﾆｼｸ","kana_address":"ﾊﾞﾊﾞﾔﾏﾐﾄﾞﾘ","pref":"福岡県","city":"北九州市八幡西区","address":"馬場山緑"},
{"zip_code":"8071122","kana_pref":"ﾌｸｵｶｹﾝ","kana_city":"ｷﾀｷｭｳｼｭｳｼﾔﾊﾀﾆｼｸ","kana_address":"ﾋｶﾞｼｲｼｻﾞｶﾏﾁ","pref":"福岡県","city":"北九州市八幡西区","address":"東石坂町"},
{"zip_code":"8070835","kana_pref":"ﾌｸｵｶｹﾝ","kana_city":"ｷﾀｷｭｳｼｭｳｼﾔﾊﾀﾆｼｸ","kana_address":"ﾋｶﾞｼｵﾘｵﾏﾁ","pref":"福岡県","city":"北九州市八幡西区","address":"東折尾町"},
{"zip_code":"8070866","kana_pref":"ﾌｸｵｶｹﾝ","kana_city":"ｷﾀｷｭｳｼｭｳｼﾔﾊﾀﾆｼｸ","kana_address":"ﾋﾖｼﾀﾞｲ","pref":"福岡県","city":"北九州市八幡西区","address":"日吉台"},
{"zip_code":"8070873","kana_pref":"ﾌｸｵｶｹﾝ","kana_city":"ｷﾀｷｭｳｼｭｳｼﾔﾊﾀﾆｼｸ","kana_address":"ﾌｼﾞﾜﾗ","pref":"福岡県","city":"北九州市八幡西区","address":"藤原"},
{"zip_code":"8071111","kana_pref":"ﾌｸｵｶｹﾝ","kana_city":"ｷﾀｷｭｳｼｭｳｼﾔﾊﾀﾆｼｸ","kana_address":"ﾌﾅｺｼ","pref":"福岡県","city":"北九州市八幡西区","address":"船越"},
{"zip_code":"8070857","kana_pref":"ﾌｸｵｶｹﾝ","kana_city":"ｷﾀｷｭｳｼｭｳｼﾔﾊﾀﾆｼｸ","kana_address":"ﾎｸﾁｸ","pref":"福岡県","city":"北九州市八幡西区","address":"北筑"},
{"zip_code":"8071264","kana_pref":"ﾌｸｵｶｹﾝ","kana_city":"ｷﾀｷｭｳｼｭｳｼﾔﾊﾀﾆｼｸ","kana_address":"ﾎｼｶﾞｵｶ","pref":"福岡県","city":"北九州市八幡西区","address":"星ケ丘"},
{"zip_code":"8070861","kana_pref":"ﾌｸｵｶｹﾝ","kana_city":"ｷﾀｷｭｳｼｭｳｼﾔﾊﾀﾆｼｸ","kana_address":"ﾎﾘｶﾜﾏﾁ","pref":"福岡県","city":"北九州市八幡西区","address":"堀川町"},
{"zip_code":"8070801","kana_pref":"ﾌｸｵｶｹﾝ","kana_city":"ｷﾀｷｭｳｼｭｳｼﾔﾊﾀﾆｼｸ","kana_address":"ﾎﾝｼﾞｮｳ","pref":"福岡県","city":"北九州市八幡西区","address":"本城"},
{"zip_code":"8070807","kana_pref":"ﾌｸｵｶｹﾝ","kana_city":"ｷﾀｷｭｳｼｭｳｼﾔﾊﾀﾆｼｸ","kana_address":"ﾎﾝｼﾞｮｳｶﾞｯｹﾝﾀﾞｲ","pref":"福岡県","city":"北九州市八幡西区","address":"本城学研台"},
{"zip_code":"8070815","kana_pref":"ﾌｸｵｶｹﾝ","kana_city":"ｷﾀｷｭｳｼｭｳｼﾔﾊﾀﾆｼｸ","kana_address":"ﾎﾝｼﾞｮｳﾋｶﾞｼ","pref":"福岡県","city":"北九州市八幡西区","address":"本城東"},
{"zip_code":"8070073","kana_pref":"ﾌｸｵｶｹﾝ","kana_city":"ｷﾀｷｭｳｼｭｳｼﾔﾊﾀﾆｼｸ","kana_address":"ﾏﾁｺｳｼﾞｬｸﾋｶﾞｼ","pref":"福岡県","city":"北九州市八幡西区","address":"町上津役東"},
{"zip_code":"8070074","kana_pref":"ﾌｸｵｶｹﾝ","kana_city":"ｷﾀｷｭｳｼｭｳｼﾔﾊﾀﾆｼｸ","kana_address":"ﾏﾁｺｳｼﾞｬｸﾆｼ","pref":"福岡県","city":"北九州市八幡西区","address":"町上津役西"},
{"zip_code":"8070841","kana_pref":"ﾌｸｵｶｹﾝ","kana_city":"ｷﾀｷｭｳｼｭｳｼﾔﾊﾀﾆｼｸ","kana_address":"ﾏﾄﾊﾞﾏﾁ","pref":"福岡県","city":"北九州市八幡西区","address":"的場町"},
{"zip_code":"8071144","kana_pref":"ﾌｸｵｶｹﾝ","kana_city":"ｷﾀｷｭｳｼｭｳｼﾔﾊﾀﾆｼｸ","kana_address":"ﾏﾅｺﾞ","pref":"福岡県","city":"北九州市八幡西区","address":"真名子"},
{"zip_code":"8070826","kana_pref":"ﾌｸｵｶｹﾝ","kana_city":"ｷﾀｷｭｳｼｭｳｼﾔﾊﾀﾆｼｸ","kana_address":"ﾏﾙｵﾏﾁ","pref":"福岡県","city":"北九州市八幡西区","address":"丸尾町"},
{"zip_code":"8070878","kana_pref":"ﾌｸｵｶｹﾝ","kana_city":"ｷﾀｷｭｳｼｭｳｼﾔﾊﾀﾆｼｸ","kana_address":"ﾐﾂｶﾞｼﾗ","pref":"福岡県","city":"北九州市八幡西区","address":"三ツ頭"},
{"zip_code":"8070805","kana_pref":"ﾌｸｵｶｹﾝ","kana_city":"ｷﾀｷｭｳｼｭｳｼﾔﾊﾀﾆｼｸ","kana_address":"ﾐﾂｻﾀﾞﾀﾞｲ","pref":"福岡県","city":"北九州市八幡西区","address":"光貞台"},
{"zip_code":"8070833","kana_pref":"ﾌｸｵｶｹﾝ","kana_city":"ｷﾀｷｭｳｼｭｳｼﾔﾊﾀﾆｼｸ","kana_address":"ﾐﾅﾐﾀｶﾐﾏﾁ","pref":"福岡県","city":"北九州市八幡西区","address":"南鷹見町"},
{"zip_code":"8070847","kana_pref":"ﾌｸｵｶｹﾝ","kana_city":"ｷﾀｷｭｳｼｭｳｼﾔﾊﾀﾆｼｸ","kana_address":"ﾐﾊﾗﾏﾁ","pref":"福岡県","city":"北九州市八幡西区","address":"美原町"},
{"zip_code":"8070865","kana_pref":"ﾌｸｵｶｹﾝ","kana_city":"ｷﾀｷｭｳｼｭｳｼﾔﾊﾀﾆｼｸ","kana_address":"ﾐﾖｼﾉﾏﾁ","pref":"福岡県","city":"北九州市八幡西区","address":"美吉野町"},
{"zip_code":"8071115","kana_pref":"ﾌｸｵｶｹﾝ","kana_city":"ｷﾀｷｭｳｼｭｳｼﾔﾊﾀﾆｼｸ","kana_address":"ﾑｸｴﾀﾞ","pref":"福岡県","city":"北九州市八幡西区","address":"椋枝"},
{"zip_code":"8070856","kana_pref":"ﾌｸｵｶｹﾝ","kana_city":"ｷﾀｷｭｳｼｭｳｼﾔﾊﾀﾆｼｸ","kana_address":"ﾔﾂｴ","pref":"福岡県","city":"北九州市八幡西区","address":"八枝"},
{"zip_code":"8070813","kana_pref":"ﾌｸｵｶｹﾝ","kana_city":"ｷﾀｷｭｳｼｭｳｼﾔﾊﾀﾆｼｸ","kana_address":"ﾕｳﾊﾞﾙﾏﾁ","pref":"福岡県","city":"北九州市八幡西区","address":"夕原町"},
{"zip_code":"8070802","kana_pref":"ﾌｸｵｶｹﾝ","kana_city":"ｷﾀｷｭｳｼｭｳｼﾔﾊﾀﾆｼｸ","kana_address":"ﾘｷﾏﾙﾏﾁ","pref":"福岡県","city":"北九州市八幡西区","address":"力丸町"},
{"zip_code":"8070100","kana_pref":"ﾌｸｵｶｹﾝ","kana_city":"ｵﾝｶﾞｸﾞﾝｱｼﾔﾏﾁ","kana_address":"","pref":"福岡県","city":"遠賀郡芦屋町","address":""},
{"zip_code":"8070133","kana_pref":"ﾌｸｵｶｹﾝ","kana_city":"ｵﾝｶﾞｸﾞﾝｱｼﾔﾏﾁ","kana_address":"ｱｼﾔ","pref":"福岡県","city":"遠賀郡芦屋町","address":"芦屋"},
{"zip_code":"8070142","kana_pref":"ﾌｸｵｶｹﾝ","kana_city":"ｵﾝｶﾞｸﾞﾝｱｼﾔﾏﾁ","kana_address":"ｴｶﾞﾜﾀﾞｲ","pref":"福岡県","city":"遠賀郡芦屋町","address":"江川台"},
{"zip_code":"8070123","kana_pref":"ﾌｸｵｶｹﾝ","kana_city":"ｵﾝｶﾞｸﾞﾝｱｼﾔﾏﾁ","kana_address":"ｷﾞｵﾝﾏﾁ","pref":"福岡県","city":"遠賀郡芦屋町","address":"祇園町"},
{"zip_code":"8070101","kana_pref":"ﾌｸｵｶｹﾝ","kana_city":"ｵﾝｶﾞｸﾞﾝｱｼﾔﾏﾁ","kana_address":"ｻｲﾜｲﾏﾁ","pref":"福岡県","city":"遠賀郡芦屋町","address":"幸町"},
{"zip_code":"8070111","kana_pref":"ﾌｸｵｶｹﾝ","kana_city":"ｵﾝｶﾞｸﾞﾝｱｼﾔﾏﾁ","kana_address":"ｼﾗﾊﾏﾏﾁ","pref":"福岡県","city":"遠賀郡芦屋町","address":"白浜町"},
{"zip_code":"8070112","kana_pref":"ﾌｸｵｶｹﾝ","kana_city":"ｵﾝｶﾞｸﾞﾝｱｼﾔﾏﾁ","kana_address":"ｾｲﾓﾝﾏﾁ","pref":"福岡県","city":"遠賀郡芦屋町","address":"正門町"},
{"zip_code":"8070121","kana_pref":"ﾌｸｵｶｹﾝ","kana_city":"ｵﾝｶﾞｸﾞﾝｱｼﾔﾏﾁ","kana_address":"ｾﾝﾄﾞｳﾏﾁ","pref":"福岡県","city":"遠賀郡芦屋町","address":"船頭町"},
{"zip_code":"8070122","kana_pref":"ﾌｸｵｶｹﾝ","kana_city":"ｵﾝｶﾞｸﾞﾝｱｼﾔﾏﾁ","kana_address":"ﾀｶﾊﾏﾏﾁ","pref":"福岡県","city":"遠賀郡芦屋町","address":"高浜町"},
{"zip_code":"8070113","kana_pref":"ﾌｸｵｶｹﾝ","kana_city":"ｵﾝｶﾞｸﾞﾝｱｼﾔﾏﾁ","kana_address":"ﾅｶﾉﾊﾏ","pref":"福岡県","city":"遠賀郡芦屋町","address":"中ノ浜"},
{"zip_code":"8070102","kana_pref":"ﾌｸｵｶｹﾝ","kana_city":"ｵﾝｶﾞｸﾞﾝｱｼﾔﾏﾁ","kana_address":"ﾆｼﾊﾏﾏﾁ","pref":"福岡県","city":"遠賀郡芦屋町","address":"西浜町"},
{"zip_code":"8070143","kana_pref":"ﾌｸｵｶｹﾝ","kana_city":"ｵﾝｶﾞｸﾞﾝｱｼﾔﾏﾁ","kana_address":"ﾊﾅﾐｻﾞｶ","pref":"福岡県","city":"遠賀郡芦屋町","address":"花美坂"},
{"zip_code":"8070132","kana_pref":"ﾌｸｵｶｹﾝ","kana_city":"ｵﾝｶﾞｸﾞﾝｱｼﾔﾏﾁ","kana_address":"ﾊﾏｸﾞﾁﾏﾁ","pref":"福岡県","city":"遠賀郡芦屋町","address":"浜口町"},
{"zip_code":"8070131","kana_pref":"ﾌｸｵｶｹﾝ","kana_city":"ｵﾝｶﾞｸﾞﾝｱｼﾔﾏﾁ","kana_address":"ﾐﾄﾞﾘｶﾞｵｶ","pref":"福岡県","city":"遠賀郡芦屋町","address":"緑ケ丘"},
{"zip_code":"8070141","kana_pref":"ﾌｸｵｶｹﾝ","kana_city":"ｵﾝｶﾞｸﾞﾝｱｼﾔﾏﾁ","kana_address":"ﾔﾏｶﾞ","pref":"福岡県","city":"遠賀郡芦屋町","address":"山鹿"},
{"zip_code":"8070000","kana_pref":"ﾌｸｵｶｹﾝ","kana_city":"ｵﾝｶﾞｸﾞﾝﾐｽﾞﾏｷﾏﾁ","kana_address":"","pref":"福岡県","city":"遠賀郡水巻町","address":""},
{"zip_code":"8070056","kana_pref":"ﾌｸｵｶｹﾝ","kana_city":"ｵﾝｶﾞｸﾞﾝﾐｽﾞﾏｷﾏﾁ","kana_address":"ｲｻｻﾞ","pref":"福岡県","city":"遠賀郡水巻町","address":"伊左座"},
{"zip_code":"8070001","kana_pref":"ﾌｸｵｶｹﾝ","kana_city":"ｵﾝｶﾞｸﾞﾝﾐｽﾞﾏｷﾏﾁ","kana_address":"ｲﾉｸﾏ","pref":"福岡県","city":"遠賀郡水巻町","address":"猪熊"},
{"zip_code":"8070006","kana_pref":"ﾌｸｵｶｹﾝ","kana_city":"ｵﾝｶﾞｸﾞﾝﾐｽﾞﾏｷﾏﾁ","kana_address":"ｳﾒﾉｷﾀﾞﾝﾁ","pref":"福岡県","city":"遠賀郡水巻町","address":"梅ノ木団地"},
{"zip_code":"8070031","kana_pref":"ﾌｸｵｶｹﾝ","kana_city":"ｵﾝｶﾞｸﾞﾝﾐｽﾞﾏｷﾏﾁ","kana_address":"ｴﾌﾞﾘ","pref":"福岡県","city":"遠賀郡水巻町","address":"杁"},
{"zip_code":"8070003","kana_pref":"ﾌｸｵｶｹﾝ","kana_city":"ｵﾝｶﾞｸﾞﾝﾐｽﾞﾏｷﾏﾁ","kana_address":"ｵｶﾉﾀﾞｲ","pref":"福岡県","city":"遠賀郡水巻町","address":"おかの台"},
{"zip_code":"8070047","kana_pref":"ﾌｸｵｶｹﾝ","kana_city":"ｵﾝｶﾞｸﾞﾝﾐｽﾞﾏｷﾏﾁ","kana_address":"ｺｲｸﾞﾁ","pref":"福岡県","city":"遠賀郡水巻町","address":"鯉口"},
{"zip_code":"8070012","kana_pref":"ﾌｸｵｶｹﾝ","kana_city":"ｵﾝｶﾞｸﾞﾝﾐｽﾞﾏｷﾏﾁ","kana_address":"ｺｶﾞ","pref":"福岡県","city":"遠賀郡水巻町","address":"古賀"},
{"zip_code":"8070021","kana_pref":"ﾌｸｵｶｹﾝ","kana_city":"ｵﾝｶﾞｸﾞﾝﾐｽﾞﾏｷﾏﾁ","kana_address":"ｺﾛｽｴ","pref":"福岡県","city":"遠賀郡水巻町","address":"頃末"},
{"zip_code":"8070022","kana_pref":"ﾌｸｵｶｹﾝ","kana_city":"ｵﾝｶﾞｸﾞﾝﾐｽﾞﾏｷﾏﾁ","kana_address":"ｺﾛｽｴｷﾀ","pref":"福岡県","city":"遠賀郡水巻町","address":"頃末北"},
{"zip_code":"8070025","kana_pref":"ﾌｸｵｶｹﾝ","kana_city":"ｵﾝｶﾞｸﾞﾝﾐｽﾞﾏｷﾏﾁ","kana_address":"ｺﾛｽｴﾐﾅﾐ","pref":"福岡県","city":"遠賀郡水巻町","address":"頃末南"},
{"zip_code":"8070043","kana_pref":"ﾌｸｵｶｹﾝ","kana_city":"ｵﾝｶﾞｸﾞﾝﾐｽﾞﾏｷﾏﾁ","kana_address":"ｼﾓﾌﾀ","pref":"福岡県","city":"遠賀郡水巻町","address":"下二"},
{"zip_code":"8070053","kana_pref":"ﾌｸｵｶｹﾝ","kana_city":"ｵﾝｶﾞｸﾞﾝﾐｽﾞﾏｷﾏﾁ","kana_address":"ｼﾓﾌﾀﾋｶﾞｼ","pref":"福岡県","city":"遠賀郡水巻町","address":"下二東"},
{"zip_code":"8070052","kana_pref":"ﾌｸｵｶｹﾝ","kana_city":"ｵﾝｶﾞｸﾞﾝﾐｽﾞﾏｷﾏﾁ","kana_address":"ｼﾓﾌﾀﾆｼ","pref":"福岡県","city":"遠賀郡水巻町","address":"下二西"},
{"zip_code":"8070024","kana_pref":"ﾌｸｵｶｹﾝ","kana_city":"ｵﾝｶﾞｸﾞﾝﾐｽﾞﾏｷﾏﾁ","kana_address":"ﾀｶｵ","pref":"福岡県","city":"遠賀郡水巻町","address":"高尾"},
{"zip_code":"8070005","kana_pref":"ﾌｸｵｶｹﾝ","kana_city":"ｵﾝｶﾞｸﾞﾝﾐｽﾞﾏｷﾏﾁ","kana_address":"ﾀｶﾏﾂ","pref":"福岡県","city":"遠賀郡水巻町","address":"高松"},
{"zip_code":"8070051","kana_pref":"ﾌｸｵｶｹﾝ","kana_city":"ｵﾝｶﾞｸﾞﾝﾐｽﾞﾏｷﾏﾁ","kana_address":"ﾀﾃﾔｼｷ","pref":"福岡県","city":"遠賀郡水巻町","address":"立屋敷"},
{"zip_code":"8070023","kana_pref":"ﾌｸｵｶｹﾝ","kana_city":"ｵﾝｶﾞｸﾞﾝﾐｽﾞﾏｷﾏﾁ","kana_address":"ﾁｭｳｵｳ","pref":"福岡県","city":"遠賀郡水巻町","address":"中央"},
{"zip_code":"8070002","kana_pref":"ﾌｸｵｶｹﾝ","kana_city":"ｵﾝｶﾞｸﾞﾝﾐｽﾞﾏｷﾏﾁ","kana_address":"ﾋｸﾞﾁ","pref":"福岡県","city":"遠賀郡水巻町","address":"樋口"},
{"zip_code":"8070004","kana_pref":"ﾌｸｵｶｹﾝ","kana_city":"ｵﾝｶﾞｸﾞﾝﾐｽﾞﾏｷﾏﾁ","kana_address":"ﾋｸﾞﾁﾋｶﾞｼ","pref":"福岡県","city":"遠賀郡水巻町","address":"樋口東"},
{"zip_code":"8070054","kana_pref":"ﾌｸｵｶｹﾝ","kana_city":"ｵﾝｶﾞｸﾞﾝﾐｽﾞﾏｷﾏﾁ","kana_address":"ﾌﾀﾋｶﾞｼ","pref":"福岡県","city":"遠賀郡水巻町","address":"二東"},
{"zip_code":"8070055","kana_pref":"ﾌｸｵｶｹﾝ","kana_city":"ｵﾝｶﾞｸﾞﾝﾐｽﾞﾏｷﾏﾁ","kana_address":"ﾌﾀﾆｼ","pref":"福岡県","city":"遠賀郡水巻町","address":"二西"},
{"zip_code":"8070011","kana_pref":"ﾌｸｵｶｹﾝ","kana_city":"ｵﾝｶﾞｸﾞﾝﾐｽﾞﾏｷﾏﾁ","kana_address":"ﾐﾄﾞﾘｶﾞｵｶ","pref":"福岡県","city":"遠賀郡水巻町","address":"緑ケ丘"},
{"zip_code":"8070041","kana_pref":"ﾌｸｵｶｹﾝ","kana_city":"ｵﾝｶﾞｸﾞﾝﾐｽﾞﾏｷﾏﾁ","kana_address":"ﾐﾔｵﾀﾞｲ","pref":"福岡県","city":"遠賀郡水巻町","address":"宮尾台"},
{"zip_code":"8070044","kana_pref":"ﾌｸｵｶｹﾝ","kana_city":"ｵﾝｶﾞｸﾞﾝﾐｽﾞﾏｷﾏﾁ","kana_address":"ﾐﾖｼﾉ","pref":"福岡県","city":"遠賀郡水巻町","address":"美吉野"},
{"zip_code":"8070007","kana_pref":"ﾌｸｵｶｹﾝ","kana_city":"ｵﾝｶﾞｸﾞﾝﾐｽﾞﾏｷﾏﾁ","kana_address":"ﾑﾀ","pref":"福岡県","city":"遠賀郡水巻町","address":"牟田"},
{"zip_code":"8070042","kana_pref":"ﾌｸｵｶｹﾝ","kana_city":"ｵﾝｶﾞｸﾞﾝﾐｽﾞﾏｷﾏﾁ","kana_address":"ﾖｼﾀﾞ","pref":"福岡県","city":"遠賀郡水巻町","address":"吉田"},
{"zip_code":"8070042","kana_pref":"ﾌｸｵｶｹﾝ","kana_city":"ｵﾝｶﾞｸﾞﾝﾐｽﾞﾏｷﾏﾁ","kana_address":"ﾖｼﾀﾞﾀﾞﾝﾁ","pref":"福岡県","city":"遠賀郡水巻町","address":"吉田団地"},
{"zip_code":"8070046","kana_pref":"ﾌｸｵｶｹﾝ","kana_city":"ｵﾝｶﾞｸﾞﾝﾐｽﾞﾏｷﾏﾁ","kana_address":"ﾖｼﾀﾞﾆｼ","pref":"福岡県","city":"遠賀郡水巻町","address":"吉田西"},
{"zip_code":"8070045","kana_pref":"ﾌｸｵｶｹﾝ","kana_city":"ｵﾝｶﾞｸﾞﾝﾐｽﾞﾏｷﾏﾁ","kana_address":"ﾖｼﾀﾞﾋｶﾞｼ","pref":"福岡県","city":"遠賀郡水巻町","address":"吉田東"},
{"zip_code":"8070048","kana_pref":"ﾌｸｵｶｹﾝ","kana_city":"ｵﾝｶﾞｸﾞﾝﾐｽﾞﾏｷﾏﾁ","kana_address":"ﾖｼﾀﾞﾐﾅﾐ","pref":"福岡県","city":"遠賀郡水巻町","address":"吉田南"},
{"zip_code":"8071300","kana_pref":"ﾌｸｵｶｹﾝ","kana_city":"ｸﾗﾃｸﾞﾝｸﾗﾃﾏﾁ","kana_address":"","pref":"福岡県","city":"鞍手郡鞍手町","address":""},
{"zip_code":"8071301","kana_pref":"ﾌｸｵｶｹﾝ","kana_city":"ｸﾗﾃｸﾞﾝｸﾗﾃﾏﾁ","kana_address":"ｲﾉｸﾗ","pref":"福岡県","city":"鞍手郡鞍手町","address":"猪倉"},
{"zip_code":"8071311","kana_pref":"ﾌｸｵｶｹﾝ","kana_city":"ｸﾗﾃｸﾞﾝｸﾗﾃﾏﾁ","kana_address":"ｵﾏｷ","pref":"福岡県","city":"鞍手郡鞍手町","address":"小牧"},
{"zip_code":"8071302","kana_pref":"ﾌｸｵｶｹﾝ","kana_city":"ｸﾗﾃｸﾞﾝｸﾗﾃﾏﾁ","kana_address":"ｶﾐｷﾂﾞｷ","pref":"福岡県","city":"鞍手郡鞍手町","address":"上木月"},
{"zip_code":"8071303","kana_pref":"ﾌｸｵｶｹﾝ","kana_city":"ｸﾗﾃｸﾞﾝｸﾗﾃﾏﾁ","kana_address":"ｷﾂﾞｷ","pref":"福岡県","city":"鞍手郡鞍手町","address":"木月"},
{"zip_code":"8071312","kana_pref":"ﾌｸｵｶｹﾝ","kana_city":"ｸﾗﾃｸﾞﾝｸﾗﾃﾏﾁ","kana_address":"ﾅｶﾔﾏ","pref":"福岡県","city":"鞍手郡鞍手町","address":"中山"},
{"zip_code":"8071304","kana_pref":"ﾌｸｵｶｹﾝ","kana_city":"ｸﾗﾃｸﾞﾝｸﾗﾃﾏﾁ","kana_address":"ﾅｶﾞﾀﾆ","pref":"福岡県","city":"鞍手郡鞍手町","address":"永谷"},
{"zip_code":"8071313","kana_pref":"ﾌｸｵｶｹﾝ","kana_city":"ｸﾗﾃｸﾞﾝｸﾗﾃﾏﾁ","kana_address":"ﾆｷﾞﾀ","pref":"福岡県","city":"鞍手郡鞍手町","address":"新北"},
{"zip_code":"8071305","kana_pref":"ﾌｸｵｶｹﾝ","kana_city":"ｸﾗﾃｸﾞﾝｸﾗﾃﾏﾁ","kana_address":"ﾆﾉﾌﾞ","pref":"福岡県","city":"鞍手郡鞍手町","address":"新延"},
{"zip_code":"8071314","kana_pref":"ﾌｸｵｶｹﾝ","kana_city":"ｸﾗﾃｸﾞﾝｸﾗﾃﾏﾁ","kana_address":"ﾊｾ","pref":"福岡県","city":"鞍手郡鞍手町","address":"長谷"},
{"zip_code":"8071306","kana_pref":"ﾌｸｵｶｹﾝ","kana_city":"ｸﾗﾃｸﾞﾝｸﾗﾃﾏﾁ","kana_address":"ﾌﾙﾓﾝ","pref":"福岡県","city":"鞍手郡鞍手町","address":"古門"},
{"zip_code":"8071307","kana_pref":"ﾌｸｵｶｹﾝ","kana_city":"ｸﾗﾃｸﾞﾝｸﾗﾃﾏﾁ","kana_address":"ﾑﾛｷ","pref":"福岡県","city":"鞍手郡鞍手町","address":"室木"},
{"zip_code":"8071308","kana_pref":"ﾌｸｵｶｹﾝ","kana_city":"ｸﾗﾃｸﾞﾝｸﾗﾃﾏﾁ","kana_address":"ﾔﾋﾛ","pref":"福岡県","city":"鞍手郡鞍手町","address":"八尋"},
{"zip_code":"8071315","kana_pref":"ﾌｸｵｶｹﾝ","kana_city":"ｸﾗﾃｸﾞﾝｸﾗﾃﾏﾁ","kana_address":"ﾔﾖｲ","pref":"福岡県","city":"鞍手郡鞍手町","address":"弥生"}]}