{"zip_code":[
{"zip_code":"8080000","kana_pref":"ﾌｸｵｶｹﾝ","kana_city":"ｷﾀｷｭｳｼｭｳｼﾜｶﾏﾂｸ","kana_address":"","pref":"福岡県","city":"北九州市若松区","address":""},
{"zip_code":"8080141","kana_pref":"ﾌｸｵｶｹﾝ","kana_city":"ｷﾀｷｭｳｼｭｳｼﾜｶﾏﾂｸ","kana_address":"ｱｵﾊﾞﾀﾞｲﾋｶﾞｼ","pref":"福岡県","city":"北九州市若松区","address":"青葉台東"},
{"zip_code":"8080143","kana_pref":"ﾌｸｵｶｹﾝ","kana_city":"ｷﾀｷｭｳｼｭｳｼﾜｶﾏﾂｸ","kana_address":"ｱｵﾊﾞﾀﾞｲﾆｼ","pref":"福岡県","city":"北九州市若松区","address":"青葉台西"},
{"zip_code":"8080142","kana_pref":"ﾌｸｵｶｹﾝ","kana_city":"ｷﾀｷｭｳｼｭｳｼﾜｶﾏﾂｸ","kana_address":"ｱｵﾊﾞﾀﾞｲﾐﾅﾐ","pref":"福岡県","city":"北九州市若松区","address":"青葉台南"},
{"zip_code":"8080175","kana_pref":"ﾌｸｵｶｹﾝ","kana_city":"ｷﾀｷｭｳｼｭｳｼﾜｶﾏﾂｸ","kana_address":"ｱｶｲﾜﾏﾁ","pref":"福岡県","city":"北九州市若松区","address":"赤岩町"},
{"zip_code":"8080075","kana_pref":"ﾌｸｵｶｹﾝ","kana_city":"ｷﾀｷｭｳｼｭｳｼﾜｶﾏﾂｸ","kana_address":"ｱｶｲﾜﾏﾁ","pref":"福岡県","city":"北九州市若松区","address":"赤岩町"},
{"zip_code":"8080003","kana_pref":"ﾌｸｵｶｹﾝ","kana_city":"ｷﾀｷｭｳｼｭｳｼﾜｶﾏﾂｸ","kana_address":"ｱｶｻｷﾏﾁ","pref":"福岡県","city":"北九州市若松区","address":"赤崎町"},
{"zip_code":"8080073","kana_pref":"ﾌｸｵｶｹﾝ","kana_city":"ｷﾀｷｭｳｼｭｳｼﾜｶﾏﾂｸ","kana_address":"ｱｶｼﾏﾏﾁ","pref":"福岡県","city":"北九州市若松区","address":"赤島町"},
{"zip_code":"8080122","kana_pref":"ﾌｸｵｶｹﾝ","kana_city":"ｷﾀｷｭｳｼｭｳｼﾜｶﾏﾂｸ","kana_address":"ｱﾏｽﾐ","pref":"福岡県","city":"北九州市若松区","address":"蜑住"},
{"zip_code":"8080123","kana_pref":"ﾌｸｵｶｹﾝ","kana_city":"ｷﾀｷｭｳｼｭｳｼﾜｶﾏﾂｸ","kana_address":"ｱﾘｹﾞ","pref":"福岡県","city":"北九州市若松区","address":"有毛"},
{"zip_code":"8080022","kana_pref":"ﾌｸｵｶｹﾝ","kana_city":"ｷﾀｷｭｳｼｭｳｼﾜｶﾏﾂｸ","kana_address":"ｱﾝｾ","pref":"福岡県","city":"北九州市若松区","address":"安瀬"},
{"zip_code":"8080124","kana_pref":"ﾌｸｵｶｹﾝ","kana_city":"ｷﾀｷｭｳｼｭｳｼﾜｶﾏﾂｸ","kana_address":"ｱﾝﾔ","pref":"福岡県","city":"北九州市若松区","address":"安屋"},
{"zip_code":"8080071","kana_pref":"ﾌｸｵｶｹﾝ","kana_city":"ｷﾀｷｭｳｼｭｳｼﾜｶﾏﾂｸ","kana_address":"ｲﾏﾐﾂ","pref":"福岡県","city":"北九州市若松区","address":"今光"},
{"zip_code":"8080014","kana_pref":"ﾌｸｵｶｹﾝ","kana_city":"ｷﾀｷｭｳｼｭｳｼﾜｶﾏﾂｸ","kana_address":"ｴｲｾｲｶﾞﾜﾏﾁ","pref":"福岡県","city":"北九州市若松区","address":"栄盛川町"},
{"zip_code":"8080032","kana_pref":"ﾌｸｵｶｹﾝ","kana_city":"ｷﾀｷｭｳｼｭｳｼﾜｶﾏﾂｸ","kana_address":"ｵｲﾏﾂ","pref":"福岡県","city":"北九州市若松区","address":"老松"},
{"zip_code":"8080061","kana_pref":"ﾌｸｵｶｹﾝ","kana_city":"ｷﾀｷｭｳｼｭｳｼﾜｶﾏﾂｸ","kana_address":"ｵｵｲｹﾏﾁ","pref":"福岡県","city":"北九州市若松区","address":"大池町"},
{"zip_code":"8080033","kana_pref":"ﾌｸｵｶｹﾝ","kana_city":"ｷﾀｷｭｳｼｭｳｼﾜｶﾏﾂｸ","kana_address":"ｵｵｲﾄﾞﾏﾁ","pref":"福岡県","city":"北九州市若松区","address":"大井戸町"},
{"zip_code":"8080051","kana_pref":"ﾌｸｵｶｹﾝ","kana_city":"ｷﾀｷｭｳｼｭｳｼﾜｶﾏﾂｸ","kana_address":"ｵｵﾀﾆﾏﾁ","pref":"福岡県","city":"北九州市若松区","address":"大谷町"},
{"zip_code":"8080133","kana_pref":"ﾌｸｵｶｹﾝ","kana_city":"ｷﾀｷｭｳｼｭｳｼﾜｶﾏﾂｸ","kana_address":"ｵｵﾄﾘｲ","pref":"福岡県","city":"北九州市若松区","address":"大鳥居"},
{"zip_code":"8080008","kana_pref":"ﾌｸｵｶｹﾝ","kana_city":"ｷﾀｷｭｳｼｭｳｼﾜｶﾏﾂｸ","kana_address":"ｵﾀﾞｹ(1-1953","pref":"福岡県","city":"北九州市若松区","address":"小竹（１〜１９５３"},
{"zip_code":"8080008","kana_pref":"ﾌｸｵｶｹﾝ","kana_city":"ｷﾀｷｭｳｼｭｳｼﾜｶﾏﾂｸ","kana_address":"3006-3008ﾊﾞﾝﾁ","pref":"福岡県","city":"北九州市若松区","address":"３００６〜３００８番地"},
{"zip_code":"8080008","kana_pref":"ﾌｸｵｶｹﾝ","kana_city":"ｷﾀｷｭｳｼｭｳｼﾜｶﾏﾂｸ","kana_address":"ｱｲｶﾜ","pref":"福岡県","city":"北九州市若松区","address":"相川"},
{"zip_code":"8080008","kana_pref":"ﾌｸｵｶｹﾝ","kana_city":"ｷﾀｷｭｳｼｭｳｼﾜｶﾏﾂｸ","kana_address":"ｵﾆｶﾞｻｶ","pref":"福岡県","city":"北九州市若松区","address":"鬼ケ坂"},
{"zip_code":"8080008","kana_pref":"ﾌｸｵｶｹﾝ","kana_city":"ｷﾀｷｭｳｼｭｳｼﾜｶﾏﾂｸ","kana_address":"ｶﾗｷ","pref":"福岡県","city":"北九州市若松区","address":"唐木"},
{"zip_code":"8080008","kana_pref":"ﾌｸｵｶｹﾝ","kana_city":"ｷﾀｷｭｳｼｭｳｼﾜｶﾏﾂｸ","kana_address":"","pref":"福岡県","city":"北九州市若松区","address":""},
{"zip_code":"8080008","kana_pref":"ﾌｸｵｶｹﾝ","kana_city":"ｷﾀｷｭｳｼｭｳｼﾜｶﾏﾂｸ","kana_address":"ﾂﾊﾞｷ","pref":"福岡県","city":"北九州市若松区","address":"椿"},
{"zip_code":"8080008","kana_pref":"ﾌｸｵｶｹﾝ","kana_city":"ｷﾀｷｭｳｼｭｳｼﾜｶﾏﾂｸ","kana_address":"ﾜｷﾉｳﾗ)","pref":"福岡県","city":"北九州市若松区","address":"脇ノ浦）"},
{"zip_code":"8080108","kana_pref":"ﾌｸｵｶｹﾝ","kana_city":"ｷﾀｷｭｳｼｭｳｼﾜｶﾏﾂｸ","kana_address":"ｵﾀﾞｹ","pref":"福岡県","city":"北九州市若松区","address":"小竹"},
{"zip_code":"8080134","kana_pref":"ﾌｸｵｶｹﾝ","kana_city":"ｷﾀｷｭｳｼｭｳｼﾜｶﾏﾂｸ","kana_address":"ｵﾄﾏﾙ","pref":"福岡県","city":"北九州市若松区","address":"乙丸"},
{"zip_code":"8080106","kana_pref":"ﾌｸｵｶｹﾝ","kana_city":"ｷﾀｷｭｳｼｭｳｼﾜｶﾏﾂｸ","kana_address":"ｶﾀﾔﾏ","pref":"福岡県","city":"北九州市若松区","address":"片山"},
{"zip_code":"8080015","kana_pref":"ﾌｸｵｶｹﾝ","kana_city":"ｷﾀｷｭｳｼｭｳｼﾜｶﾏﾂｸ","kana_address":"ｶﾐﾊﾗﾏﾁ","pref":"福岡県","city":"北九州市若松区","address":"上原町"},
{"zip_code":"8080105","kana_pref":"ﾌｸｵｶｹﾝ","kana_city":"ｷﾀｷｭｳｼｭｳｼﾜｶﾏﾂｸ","kana_address":"ｶﾓｵﾀﾞ","pref":"福岡県","city":"北九州市若松区","address":"鴨生田"},
{"zip_code":"8080023","kana_pref":"ﾌｸｵｶｹﾝ","kana_city":"ｷﾀｷｭｳｼｭｳｼﾜｶﾏﾂｸ","kana_address":"ｷﾀﾊﾏ","pref":"福岡県","city":"北九州市若松区","address":"北浜"},
{"zip_code":"8080027","kana_pref":"ﾌｸｵｶｹﾝ","kana_city":"ｷﾀｷｭｳｼｭｳｼﾜｶﾏﾂｸ","kana_address":"ｷﾀﾐﾅﾄﾏﾁ","pref":"福岡県","city":"北九州市若松区","address":"北湊町"},
{"zip_code":"8080011","kana_pref":"ﾌｸｵｶｹﾝ","kana_city":"ｷﾀｷｭｳｼｭｳｼﾜｶﾏﾂｸ","kana_address":"ｷｮｳﾅﾝﾏﾁ","pref":"福岡県","city":"北九州市若松区","address":"響南町"},
{"zip_code":"8080054","kana_pref":"ﾌｸｵｶｹﾝ","kana_city":"ｷﾀｷｭｳｼｭｳｼﾜｶﾏﾂｸ","kana_address":"ｸｷﾉﾊﾏ","pref":"福岡県","city":"北九州市若松区","address":"久岐の浜"},
{"zip_code":"8080007","kana_pref":"ﾌｸｵｶｹﾝ","kana_city":"ｷﾀｷｭｳｼｭｳｼﾜｶﾏﾂｸ","kana_address":"ｺｲｼ","pref":"福岡県","city":"北九州市若松区","address":"小石"},
{"zip_code":"8080001","kana_pref":"ﾌｸｵｶｹﾝ","kana_city":"ｷﾀｷｭｳｼｭｳｼﾜｶﾏﾂｸ","kana_address":"ｺｲｼﾎﾝﾑﾗﾏﾁ","pref":"福岡県","city":"北九州市若松区","address":"小石本村町"},
{"zip_code":"8080046","kana_pref":"ﾌｸｵｶｹﾝ","kana_city":"ｷﾀｷｭｳｼｭｳｼﾜｶﾏﾂｸ","kana_address":"ｺｲﾄﾏﾁ","pref":"福岡県","city":"北九州市若松区","address":"小糸町"},
{"zip_code":"8080002","kana_pref":"ﾌｸｵｶｹﾝ","kana_city":"ｷﾀｷｭｳｼｭｳｼﾜｶﾏﾂｸ","kana_address":"ｺｳﾖｳﾏﾁ","pref":"福岡県","city":"北九州市若松区","address":"向洋町"},
{"zip_code":"8080132","kana_pref":"ﾌｸｵｶｹﾝ","kana_city":"ｷﾀｷｭｳｼｭｳｼﾜｶﾏﾂｸ","kana_address":"ｺｼｷ","pref":"福岡県","city":"北九州市若松区","address":"小敷"},
{"zip_code":"8080139","kana_pref":"ﾌｸｵｶｹﾝ","kana_city":"ｷﾀｷｭｳｼｭｳｼﾜｶﾏﾂｸ","kana_address":"ｺｼｷﾋﾋﾞｷﾉ","pref":"福岡県","city":"北九州市若松区","address":"小敷ひびきの"},
{"zip_code":"8080026","kana_pref":"ﾌｸｵｶｹﾝ","kana_city":"ｷﾀｷｭｳｼｭｳｼﾜｶﾏﾂｸ","kana_address":"ｻｸﾗﾏﾁ","pref":"福岡県","city":"北九州市若松区","address":"桜町"},
{"zip_code":"8080041","kana_pref":"ﾌｸｵｶｹﾝ","kana_city":"ｷﾀｷｭｳｼｭｳｼﾜｶﾏﾂｸ","kana_address":"ｻｺﾀﾞﾏﾁ","pref":"福岡県","city":"北九州市若松区","address":"迫田町"},
{"zip_code":"8080131","kana_pref":"ﾌｸｵｶｹﾝ","kana_city":"ｷﾀｷｭｳｼｭｳｼﾜｶﾏﾂｸ","kana_address":"ｼｵﾔ","pref":"福岡県","city":"北九州市若松区","address":"塩屋"},
{"zip_code":"8080005","kana_pref":"ﾌｸｵｶｹﾝ","kana_city":"ｷﾀｷｭｳｼｭｳｼﾜｶﾏﾂｸ","kana_address":"ｼﾓﾊﾗﾏﾁ","pref":"福岡県","city":"北九州市若松区","address":"下原町"},
{"zip_code":"8080052","kana_pref":"ﾌｸｵｶｹﾝ","kana_city":"ｷﾀｷｭｳｼｭｳｼﾜｶﾏﾂｸ","kana_address":"ｼﾝｵｵﾀﾆﾏﾁ","pref":"福岡県","city":"北九州市若松区","address":"新大谷町"},
{"zip_code":"8080053","kana_pref":"ﾌｸｵｶｹﾝ","kana_city":"ｷﾀｷｭｳｼｭｳｼﾜｶﾏﾂｸ","kana_address":"ｽﾀﾗ","pref":"福岡県","city":"北九州市若松区","address":"修多羅"},
{"zip_code":"8080148","kana_pref":"ﾌｸｵｶｹﾝ","kana_city":"ｷﾀｷｭｳｼｭｳｼﾜｶﾏﾂｸ","kana_address":"ﾀｶｽ","pref":"福岡県","city":"北九州市若松区","address":"高須"},
{"zip_code":"8080144","kana_pref":"ﾌｸｵｶｹﾝ","kana_city":"ｷﾀｷｭｳｼｭｳｼﾜｶﾏﾂｸ","kana_address":"ﾀｶｽﾋｶﾞｼ","pref":"福岡県","city":"北九州市若松区","address":"高須東"},
{"zip_code":"8080146","kana_pref":"ﾌｸｵｶｹﾝ","kana_city":"ｷﾀｷｭｳｼｭｳｼﾜｶﾏﾂｸ","kana_address":"ﾀｶｽﾆｼ","pref":"福岡県","city":"北九州市若松区","address":"高須西"},
{"zip_code":"8080145","kana_pref":"ﾌｸｵｶｹﾝ","kana_city":"ｷﾀｷｭｳｼｭｳｼﾜｶﾏﾂｸ","kana_address":"ﾀｶｽﾐﾅﾐ","pref":"福岡県","city":"北九州市若松区","address":"高須南"},
{"zip_code":"8080147","kana_pref":"ﾌｸｵｶｹﾝ","kana_city":"ｷﾀｷｭｳｼｭｳｼﾜｶﾏﾂｸ","kana_address":"ﾀｶｽｷﾀ","pref":"福岡県","city":"北九州市若松区","address":"高須北"},
{"zip_code":"8080121","kana_pref":"ﾌｸｵｶｹﾝ","kana_city":"ｷﾀｷｭｳｼｭｳｼﾜｶﾏﾂｸ","kana_address":"ﾀｹﾅﾐ","pref":"福岡県","city":"北九州市若松区","address":"竹並"},
{"zip_code":"8080042","kana_pref":"ﾌｸｵｶｹﾝ","kana_city":"ｷﾀｷｭｳｼｭｳｼﾜｶﾏﾂｸ","kana_address":"ﾀﾅﾀﾞﾏﾁ","pref":"福岡県","city":"北九州市若松区","address":"棚田町"},
{"zip_code":"8080076","kana_pref":"ﾌｸｵｶｹﾝ","kana_city":"ｷﾀｷｭｳｼｭｳｼﾜｶﾏﾂｸ","kana_address":"ﾄﾞｳｼﾞﾏﾙ","pref":"福岡県","city":"北九州市若松区","address":"童子丸"},
{"zip_code":"8080112","kana_pref":"ﾌｸｵｶｹﾝ","kana_city":"ｷﾀｷｭｳｼｭｳｼﾜｶﾏﾂｸ","kana_address":"ﾄﾝﾀﾞ","pref":"福岡県","city":"北九州市若松区","address":"頓田"},
{"zip_code":"8080025","kana_pref":"ﾌｸｵｶｹﾝ","kana_city":"ｷﾀｷｭｳｼｭｳｼﾜｶﾏﾂｸ","kana_address":"ﾅｶｶﾞﾜﾏﾁ","pref":"福岡県","city":"北九州市若松区","address":"中川町"},
{"zip_code":"8080047","kana_pref":"ﾌｸｵｶｹﾝ","kana_city":"ｷﾀｷｭｳｼｭｳｼﾜｶﾏﾂｸ","kana_address":"ﾅｶﾊﾀﾏﾁ","pref":"福岡県","city":"北九州市若松区","address":"中畑町"},
{"zip_code":"8080013","kana_pref":"ﾌｸｵｶｹﾝ","kana_city":"ｷﾀｷｭｳｼｭｳｼﾜｶﾏﾂｸ","kana_address":"ﾅﾐｳﾁﾏﾁ","pref":"福岡県","city":"北九州市若松区","address":"波打町"},
{"zip_code":"8080004","kana_pref":"ﾌｸｵｶｹﾝ","kana_city":"ｷﾀｷｭｳｼｭｳｼﾜｶﾏﾂｸ","kana_address":"ﾆｼｺｲｼﾏﾁ","pref":"福岡県","city":"北九州市若松区","address":"西小石町"},
{"zip_code":"8080031","kana_pref":"ﾌｸｵｶｹﾝ","kana_city":"ｷﾀｷｭｳｼｭｳｼﾜｶﾏﾂｸ","kana_address":"ﾆｼｿﾞﾉﾏﾁ","pref":"福岡県","city":"北九州市若松区","address":"西園町"},
{"zip_code":"8080101","kana_pref":"ﾌｸｵｶｹﾝ","kana_city":"ｷﾀｷｭｳｼｭｳｼﾜｶﾏﾂｸ","kana_address":"ﾆｼﾃﾝｼﾞﾝﾏﾁ","pref":"福岡県","city":"北九州市若松区","address":"西天神町"},
{"zip_code":"8080043","kana_pref":"ﾌｸｵｶｹﾝ","kana_city":"ｷﾀｷｭｳｼｭｳｼﾜｶﾏﾂｸ","kana_address":"ﾆｼﾊﾀﾏﾁ","pref":"福岡県","city":"北九州市若松区","address":"西畑町"},
{"zip_code":"8080035","kana_pref":"ﾌｸｵｶｹﾝ","kana_city":"ｷﾀｷｭｳｼｭｳｼﾜｶﾏﾂｸ","kana_address":"ﾊｸｻﾝ","pref":"福岡県","city":"北九州市若松区","address":"白山"},
{"zip_code":"8080104","kana_pref":"ﾌｸｵｶｹﾝ","kana_city":"ｷﾀｷｭｳｼｭｳｼﾜｶﾏﾂｸ","kana_address":"ﾊﾀｹﾀﾞ","pref":"福岡県","city":"北九州市若松区","address":"畠田"},
{"zip_code":"8080055","kana_pref":"ﾌｸｵｶｹﾝ","kana_city":"ｷﾀｷｭｳｼｭｳｼﾜｶﾏﾂｸ","kana_address":"ﾊﾀﾀﾞﾆﾏﾁ","pref":"福岡県","city":"北九州市若松区","address":"畑谷町"},
{"zip_code":"8080136","kana_pref":"ﾌｸｵｶｹﾝ","kana_city":"ｷﾀｷｭｳｼｭｳｼﾜｶﾏﾂｸ","kana_address":"ﾊﾅﾉｼﾞ","pref":"福岡県","city":"北九州市若松区","address":"花野路"},
{"zip_code":"8080024","kana_pref":"ﾌｸｵｶｹﾝ","kana_city":"ｷﾀｷｭｳｼｭｳｼﾜｶﾏﾂｸ","kana_address":"ﾊﾏﾏﾁ","pref":"福岡県","city":"北九州市若松区","address":"浜町"},
{"zip_code":"8080113","kana_pref":"ﾌｸｵｶｹﾝ","kana_city":"ｷﾀｷｭｳｼｭｳｼﾜｶﾏﾂｸ","kana_address":"ﾊﾗｲｶﾞﾜ","pref":"福岡県","city":"北九州市若松区","address":"払川"},
{"zip_code":"8080016","kana_pref":"ﾌｸｵｶｹﾝ","kana_city":"ｷﾀｷｭｳｼｭｳｼﾜｶﾏﾂｸ","kana_address":"ﾊﾗﾏﾁ","pref":"福岡県","city":"北九州市若松区","address":"原町"},
{"zip_code":"8080017","kana_pref":"ﾌｸｵｶｹﾝ","kana_city":"ｷﾀｷｭｳｼｭｳｼﾜｶﾏﾂｸ","kana_address":"ﾋｶﾞｼｺｲｼﾏﾁ","pref":"福岡県","city":"北九州市若松区","address":"東小石町"},
{"zip_code":"8080044","kana_pref":"ﾌｸｵｶｹﾝ","kana_city":"ｷﾀｷｭｳｼｭｳｼﾜｶﾏﾂｸ","kana_address":"ﾋｶﾞｼﾊﾀﾏﾁ","pref":"福岡県","city":"北九州市若松区","address":"東畑町"},
{"zip_code":"8080102","kana_pref":"ﾌｸｵｶｹﾝ","kana_city":"ｷﾀｷｭｳｼｭｳｼﾜｶﾏﾂｸ","kana_address":"ﾋｶﾞｼﾌﾀｼﾞﾏ","pref":"福岡県","city":"北九州市若松区","address":"東二島"},
{"zip_code":"8080135","kana_pref":"ﾌｸｵｶｹﾝ","kana_city":"ｷﾀｷｭｳｼｭｳｼﾜｶﾏﾂｸ","kana_address":"ﾋﾋﾞｷﾉ","pref":"福岡県","city":"北九州市若松区","address":"ひびきの"},
{"zip_code":"8080138","kana_pref":"ﾌｸｵｶｹﾝ","kana_city":"ｷﾀｷｭｳｼｭｳｼﾜｶﾏﾂｸ","kana_address":"ﾋﾋﾞｷﾉｷﾀ","pref":"福岡県","city":"北九州市若松区","address":"ひびきの北"},
{"zip_code":"8080137","kana_pref":"ﾌｸｵｶｹﾝ","kana_city":"ｷﾀｷｭｳｼｭｳｼﾜｶﾏﾂｸ","kana_address":"ﾋﾋﾞｷﾉﾐﾅﾐ","pref":"福岡県","city":"北九州市若松区","address":"ひびきの南"},
{"zip_code":"8080021","kana_pref":"ﾌｸｵｶｹﾝ","kana_city":"ｷﾀｷｭｳｼｭｳｼﾜｶﾏﾂｸ","kana_address":"ﾋﾋﾞｷﾏﾁ","pref":"福岡県","city":"北九州市若松区","address":"響町"},
{"zip_code":"8080012","kana_pref":"ﾌｸｵｶｹﾝ","kana_city":"ｷﾀｷｭｳｼｭｳｼﾜｶﾏﾂｸ","kana_address":"ﾌｶﾏﾁ","pref":"福岡県","city":"北九州市若松区","address":"深町"},
{"zip_code":"8080065","kana_pref":"ﾌｸｵｶｹﾝ","kana_city":"ｷﾀｷｭｳｼｭｳｼﾜｶﾏﾂｸ","kana_address":"ﾌｼﾞﾉｷ","pref":"福岡県","city":"北九州市若松区","address":"藤木"},
{"zip_code":"8080074","kana_pref":"ﾌｸｵｶｹﾝ","kana_city":"ｷﾀｷｭｳｼｭｳｼﾜｶﾏﾂｸ","kana_address":"ﾌｼﾞﾉｷ","pref":"福岡県","city":"北九州市若松区","address":"藤ノ木"},
{"zip_code":"8080103","kana_pref":"ﾌｸｵｶｹﾝ","kana_city":"ｷﾀｷｭｳｼｭｳｼﾜｶﾏﾂｸ","kana_address":"ﾌﾀｼﾞﾏ","pref":"福岡県","city":"北九州市若松区","address":"二島"},
{"zip_code":"8080062","kana_pref":"ﾌｸｵｶｹﾝ","kana_city":"ｷﾀｷｭｳｼｭｳｼﾜｶﾏﾂｸ","kana_address":"ﾌﾙﾏｴ","pref":"福岡県","city":"北九州市若松区","address":"古前"},
{"zip_code":"8080034","kana_pref":"ﾌｸｵｶｹﾝ","kana_city":"ｷﾀｷｭｳｼｭｳｼﾜｶﾏﾂｸ","kana_address":"ﾎﾝﾏﾁ","pref":"福岡県","city":"北九州市若松区","address":"本町"},
{"zip_code":"8080109","kana_pref":"ﾌｸｵｶｹﾝ","kana_city":"ｷﾀｷｭｳｼｭｳｼﾜｶﾏﾂｸ","kana_address":"ﾐﾅﾐﾌﾀｼﾞﾏ","pref":"福岡県","city":"北九州市若松区","address":"南二島"},
{"zip_code":"8080006","kana_pref":"ﾌｸｵｶｹﾝ","kana_city":"ｷﾀｷｭｳｼｭｳｼﾜｶﾏﾂｸ","kana_address":"ﾐﾔﾏｴﾏﾁ","pref":"福岡県","city":"北九州市若松区","address":"宮前町"},
{"zip_code":"8080064","kana_pref":"ﾌｸｵｶｹﾝ","kana_city":"ｷﾀｷｭｳｼｭｳｼﾜｶﾏﾂｸ","kana_address":"ﾐﾔﾏﾙ","pref":"福岡県","city":"北九州市若松区","address":"宮丸"},
{"zip_code":"8080111","kana_pref":"ﾌｸｵｶｹﾝ","kana_city":"ｷﾀｷｭｳｼｭｳｼﾜｶﾏﾂｸ","kana_address":"ﾔﾅｶﾞｻｷﾏﾁ","pref":"福岡県","city":"北九州市若松区","address":"柳崎町"},
{"zip_code":"8080036","kana_pref":"ﾌｸｵｶｹﾝ","kana_city":"ｷﾀｷｭｳｼｭｳｼﾜｶﾏﾂｸ","kana_address":"ﾔﾏﾃﾏﾁ","pref":"福岡県","city":"北九州市若松区","address":"山手町"},
{"zip_code":"8080045","kana_pref":"ﾌｸｵｶｹﾝ","kana_city":"ｷﾀｷｭｳｼｭｳｼﾜｶﾏﾂｸ","kana_address":"ﾔﾏﾉﾄﾞｳﾏﾁ","pref":"福岡県","city":"北九州市若松区","address":"山ノ堂町"},
{"zip_code":"8080072","kana_pref":"ﾌｸｵｶｹﾝ","kana_city":"ｷﾀｷｭｳｼｭｳｼﾜｶﾏﾂｸ","kana_address":"ﾕﾘﾉﾏﾁ","pref":"福岡県","city":"北九州市若松区","address":"百合野町"},
{"zip_code":"8080077","kana_pref":"ﾌｸｵｶｹﾝ","kana_city":"ｷﾀｷｭｳｼｭｳｼﾜｶﾏﾂｸ","kana_address":"ﾖｳｼﾞｬｸﾏﾁ","pref":"福岡県","city":"北九州市若松区","address":"用勺町"},
{"zip_code":"8080063","kana_pref":"ﾌｸｵｶｹﾝ","kana_city":"ｷﾀｷｭｳｼｭｳｼﾜｶﾏﾂｸ","kana_address":"ﾜﾀﾞﾏﾁ","pref":"福岡県","city":"北九州市若松区","address":"和田町"}]}