{"zip_code":[
{"zip_code":"8090000","kana_pref":"ﾌｸｵｶｹﾝ","kana_city":"ﾅｶﾏｼ","kana_address":"","pref":"福岡県","city":"中間市","address":""},
{"zip_code":"8090021","kana_pref":"ﾌｸｵｶｹﾝ","kana_city":"ﾅｶﾏｼ","kana_address":"ｱｻｷﾞﾘ","pref":"福岡県","city":"中間市","address":"朝霧"},
{"zip_code":"8090024","kana_pref":"ﾌｸｵｶｹﾝ","kana_city":"ﾅｶﾏｼ","kana_address":"ｲｹﾀﾞ","pref":"福岡県","city":"中間市","address":"池田"},
{"zip_code":"8090011","kana_pref":"ﾌｸｵｶｹﾝ","kana_city":"ﾅｶﾏｼ","kana_address":"ｲﾜｾ","pref":"福岡県","city":"中間市","address":"岩瀬"},
{"zip_code":"8090041","kana_pref":"ﾌｸｵｶｹﾝ","kana_city":"ﾅｶﾏｼ","kana_address":"ｲﾜｾﾆｼﾏﾁ","pref":"福岡県","city":"中間市","address":"岩瀬西町"},
{"zip_code":"8090023","kana_pref":"ﾌｸｵｶｹﾝ","kana_city":"ﾅｶﾏｼ","kana_address":"ｵｳｷﾞｶﾞｳﾗ","pref":"福岡県","city":"中間市","address":"扇ケ浦"},
{"zip_code":"8090026","kana_pref":"ﾌｸｵｶｹﾝ","kana_city":"ﾅｶﾏｼ","kana_address":"ｵｵﾂｼﾞﾏﾁ","pref":"福岡県","city":"中間市","address":"大辻町"},
{"zip_code":"8090039","kana_pref":"ﾌｸｵｶｹﾝ","kana_city":"ﾅｶﾏｼ","kana_address":"ｵｵﾈﾄ","pref":"福岡県","city":"中間市","address":"大根土"},
{"zip_code":"8090031","kana_pref":"ﾌｸｵｶｹﾝ","kana_city":"ﾅｶﾏｼ","kana_address":"ｵﾀﾞｶﾞｳﾗ","pref":"福岡県","city":"中間市","address":"小田ケ浦"},
{"zip_code":"8090003","kana_pref":"ﾌｸｵｶｹﾝ","kana_city":"ﾅｶﾏｼ","kana_address":"ｶﾐｿｺｲﾉ","pref":"福岡県","city":"中間市","address":"上底井野"},
{"zip_code":"8090013","kana_pref":"ﾌｸｵｶｹﾝ","kana_city":"ﾅｶﾏｼ","kana_address":"ｶﾐﾚﾝｹﾞｼﾞ","pref":"福岡県","city":"中間市","address":"上蓮花寺"},
{"zip_code":"8090017","kana_pref":"ﾌｸｵｶｹﾝ","kana_city":"ﾅｶﾏｼ","kana_address":"ｻｸﾗﾀﾞｲ","pref":"福岡県","city":"中間市","address":"桜台"},
{"zip_code":"8090004","kana_pref":"ﾌｸｵｶｹﾝ","kana_city":"ﾅｶﾏｼ","kana_address":"ｼﾓｵｵｸﾏ","pref":"福岡県","city":"中間市","address":"下大隈"},
{"zip_code":"8090012","kana_pref":"ﾌｸｵｶｹﾝ","kana_city":"ﾅｶﾏｼ","kana_address":"ｼﾓﾚﾝｹﾞｼﾞ","pref":"福岡県","city":"中間市","address":"下蓮花寺"},
{"zip_code":"8090038","kana_pref":"ﾌｸｵｶｹﾝ","kana_city":"ﾅｶﾏｼ","kana_address":"ｼﾞｮｳｶﾏﾁ","pref":"福岡県","city":"中間市","address":"浄花町"},
{"zip_code":"8090015","kana_pref":"ﾌｸｵｶｹﾝ","kana_city":"ﾅｶﾏｼ","kana_address":"ﾀｶﾞ","pref":"福岡県","city":"中間市","address":"太賀"},
{"zip_code":"8090030","kana_pref":"ﾌｸｵｶｹﾝ","kana_city":"ﾅｶﾏｼ","kana_address":"ﾁｭｳｵｳ","pref":"福岡県","city":"中間市","address":"中央"},
{"zip_code":"8090018","kana_pref":"ﾌｸｵｶｹﾝ","kana_city":"ﾅｶﾏｼ","kana_address":"ﾄｵﾘﾀﾆ","pref":"福岡県","city":"中間市","address":"通谷"},
{"zip_code":"8090033","kana_pref":"ﾌｸｵｶｹﾝ","kana_city":"ﾅｶﾏｼ","kana_address":"ﾄﾞﾃﾉｳﾁ","pref":"福岡県","city":"中間市","address":"土手ノ内"},
{"zip_code":"8090032","kana_pref":"ﾌｸｵｶｹﾝ","kana_city":"ﾅｶﾏｼ","kana_address":"ﾅｶｵ","pref":"福岡県","city":"中間市","address":"中尾"},
{"zip_code":"8090002","kana_pref":"ﾌｸｵｶｹﾝ","kana_city":"ﾅｶﾏｼ","kana_address":"ﾅｶｿｺｲﾉ","pref":"福岡県","city":"中間市","address":"中底井野"},
{"zip_code":"8090036","kana_pref":"ﾌｸｵｶｹﾝ","kana_city":"ﾅｶﾏｼ","kana_address":"ﾅｶﾞﾂ","pref":"福岡県","city":"中間市","address":"長津"},
{"zip_code":"8090037","kana_pref":"ﾌｸｵｶｹﾝ","kana_city":"ﾅｶﾏｼ","kana_address":"ﾅｶﾂﾞﾙ","pref":"福岡県","city":"中間市","address":"中鶴"},
{"zip_code":"8090034","kana_pref":"ﾌｸｵｶｹﾝ","kana_city":"ﾅｶﾏｼ","kana_address":"ﾅｶﾏ","pref":"福岡県","city":"中間市","address":"中間"},
{"zip_code":"8090027","kana_pref":"ﾌｸｵｶｹﾝ","kana_city":"ﾅｶﾏｼ","kana_address":"ﾅﾅｴﾏﾁ","pref":"福岡県","city":"中間市","address":"七重町"},
{"zip_code":"8090022","kana_pref":"ﾌｸｵｶｹﾝ","kana_city":"ﾅｶﾏｼ","kana_address":"ﾅﾍﾞﾔﾏﾏﾁ","pref":"福岡県","city":"中間市","address":"鍋山町"},
{"zip_code":"8090001","kana_pref":"ﾌｸｵｶｹﾝ","kana_city":"ﾅｶﾏｼ","kana_address":"ﾊﾌﾞ","pref":"福岡県","city":"中間市","address":"垣生"},
{"zip_code":"8090019","kana_pref":"ﾌｸｵｶｹﾝ","kana_city":"ﾅｶﾏｼ","kana_address":"ﾋｶﾞｼﾅｶﾏ","pref":"福岡県","city":"中間市","address":"東中間"},
{"zip_code":"8090025","kana_pref":"ﾌｸｵｶｹﾝ","kana_city":"ﾅｶﾏｼ","kana_address":"ﾌｶｻｶ","pref":"福岡県","city":"中間市","address":"深坂"},
{"zip_code":"8090016","kana_pref":"ﾌｸｵｶｹﾝ","kana_city":"ﾅｶﾏｼ","kana_address":"ﾎｼｶﾞｵｶ","pref":"福岡県","city":"中間市","address":"星ケ丘"},
{"zip_code":"8090035","kana_pref":"ﾌｸｵｶｹﾝ","kana_city":"ﾅｶﾏｼ","kana_address":"ﾏﾂｶﾞｵｶ","pref":"福岡県","city":"中間市","address":"松ケ岡"},
{"zip_code":"8090028","kana_pref":"ﾌｸｵｶｹﾝ","kana_city":"ﾅｶﾏｼ","kana_address":"ﾔﾖｲ","pref":"福岡県","city":"中間市","address":"弥生"},
{"zip_code":"8090014","kana_pref":"ﾌｸｵｶｹﾝ","kana_city":"ﾅｶﾏｼ","kana_address":"ﾚﾝｹﾞｼﾞ","pref":"福岡県","city":"中間市","address":"蓮花寺"}]}