{"zip_code":[
{"zip_code":"8150000","kana_pref":"ﾌｸｵｶｹﾝ","kana_city":"ﾌｸｵｶｼﾐﾅﾐｸ","kana_address":"","pref":"福岡県","city":"福岡市南区","address":""},
{"zip_code":"8150084","kana_pref":"ﾌｸｵｶｹﾝ","kana_city":"ﾌｸｵｶｼﾐﾅﾐｸ","kana_address":"ｲﾁｻﾞｷ","pref":"福岡県","city":"福岡市南区","address":"市崎"},
{"zip_code":"8150073","kana_pref":"ﾌｸｵｶｹﾝ","kana_city":"ﾌｸｵｶｼﾐﾅﾐｸ","kana_address":"ｵｵｲｹ","pref":"福岡県","city":"福岡市南区","address":"大池"},
{"zip_code":"8150082","kana_pref":"ﾌｸｵｶｹﾝ","kana_city":"ﾌｸｵｶｼﾐﾅﾐｸ","kana_address":"ｵｵｸﾞｽ","pref":"福岡県","city":"福岡市南区","address":"大楠"},
{"zip_code":"8150033","kana_pref":"ﾌｸｵｶｹﾝ","kana_city":"ﾌｸｵｶｼﾐﾅﾐｸ","kana_address":"ｵｵﾊｼ","pref":"福岡県","city":"福岡市南区","address":"大橋"},
{"zip_code":"8150038","kana_pref":"ﾌｸｵｶｹﾝ","kana_city":"ﾌｸｵｶｼﾐﾅﾐｸ","kana_address":"ｵｵﾊｼﾀﾞﾝﾁ","pref":"福岡県","city":"福岡市南区","address":"大橋団地"},
{"zip_code":"8150001","kana_pref":"ﾌｸｵｶｹﾝ","kana_city":"ﾌｸｵｶｼﾐﾅﾐｸ","kana_address":"ｺﾞｼﾞｯｶﾜ","pref":"福岡県","city":"福岡市南区","address":"五十川"},
{"zip_code":"8150032","kana_pref":"ﾌｸｵｶｹﾝ","kana_city":"ﾌｸｵｶｼﾐﾅﾐｸ","kana_address":"ｼｵﾊﾞﾙ","pref":"福岡県","city":"福岡市南区","address":"塩原"},
{"zip_code":"8150031","kana_pref":"ﾌｸｵｶｹﾝ","kana_city":"ﾌｸｵｶｼﾐﾅﾐｸ","kana_address":"ｼﾐｽﾞ","pref":"福岡県","city":"福岡市南区","address":"清水"},
{"zip_code":"8150004","kana_pref":"ﾌｸｵｶｹﾝ","kana_city":"ﾌｸｵｶｼﾐﾅﾐｸ","kana_address":"ﾀｶｷ","pref":"福岡県","city":"福岡市南区","address":"高木"},
{"zip_code":"8150083","kana_pref":"ﾌｸｵｶｹﾝ","kana_city":"ﾌｸｵｶｼﾐﾅﾐｸ","kana_address":"ﾀｶﾐﾔ","pref":"福岡県","city":"福岡市南区","address":"高宮"},
{"zip_code":"8150072","kana_pref":"ﾌｸｵｶｹﾝ","kana_city":"ﾌｸｵｶｼﾐﾅﾐｸ","kana_address":"ﾀｶﾞ","pref":"福岡県","city":"福岡市南区","address":"多賀"},
{"zip_code":"8150037","kana_pref":"ﾌｸｵｶｹﾝ","kana_city":"ﾌｸｵｶｼﾐﾅﾐｸ","kana_address":"ﾀﾏｶﾞﾜﾏﾁ","pref":"福岡県","city":"福岡市南区","address":"玉川町"},
{"zip_code":"8150036","kana_pref":"ﾌｸｵｶｹﾝ","kana_city":"ﾌｸｵｶｼﾐﾅﾐｸ","kana_address":"ﾁｸｼｶﾞｵｶ","pref":"福岡県","city":"福岡市南区","address":"筑紫丘"},
{"zip_code":"8150074","kana_pref":"ﾌｸｵｶｹﾝ","kana_city":"ﾌｸｵｶｼﾐﾅﾐｸ","kana_address":"ﾃﾗﾂﾞｶ","pref":"福岡県","city":"福岡市南区","address":"寺塚"},
{"zip_code":"8150075","kana_pref":"ﾌｸｵｶｹﾝ","kana_city":"ﾌｸｵｶｼﾐﾅﾐｸ","kana_address":"ﾅｶﾞｵｶ","pref":"福岡県","city":"福岡市南区","address":"長丘"},
{"zip_code":"8150081","kana_pref":"ﾌｸｵｶｹﾝ","kana_city":"ﾌｸｵｶｼﾐﾅﾐｸ","kana_address":"ﾅﾉｶﾜ","pref":"福岡県","city":"福岡市南区","address":"那の川"},
{"zip_code":"8150041","kana_pref":"ﾌｸｵｶｹﾝ","kana_city":"ﾌｸｵｶｼﾐﾅﾐｸ","kana_address":"ﾉﾏ","pref":"福岡県","city":"福岡市南区","address":"野間"},
{"zip_code":"8150071","kana_pref":"ﾌｸｵｶｹﾝ","kana_city":"ﾌｸｵｶｼﾐﾅﾐｸ","kana_address":"ﾍｲﾜ","pref":"福岡県","city":"福岡市南区","address":"平和"},
{"zip_code":"8150034","kana_pref":"ﾌｸｵｶｹﾝ","kana_city":"ﾌｸｵｶｼﾐﾅﾐｸ","kana_address":"ﾐﾅﾐｵｵﾊｼ","pref":"福岡県","city":"福岡市南区","address":"南大橋"},
{"zip_code":"8150035","kana_pref":"ﾌｸｵｶｹﾝ","kana_city":"ﾌｸｵｶｼﾐﾅﾐｸ","kana_address":"ﾑｶｲﾉ","pref":"福岡県","city":"福岡市南区","address":"向野"},
{"zip_code":"8150063","kana_pref":"ﾌｸｵｶｹﾝ","kana_city":"ﾌｸｵｶｼﾐﾅﾐｸ","kana_address":"ﾔﾅｺﾞｳﾁ","pref":"福岡県","city":"福岡市南区","address":"柳河内"},
{"zip_code":"8150042","kana_pref":"ﾌｸｵｶｹﾝ","kana_city":"ﾌｸｵｶｼﾐﾅﾐｸ","kana_address":"ﾜｶﾋｻ","pref":"福岡県","city":"福岡市南区","address":"若久"},
{"zip_code":"8150048","kana_pref":"ﾌｸｵｶｹﾝ","kana_city":"ﾌｸｵｶｼﾐﾅﾐｸ","kana_address":"ﾜｶﾋｻﾀﾞﾝﾁ","pref":"福岡県","city":"福岡市南区","address":"若久団地"}]}