{"zip_code":[
{"zip_code":"8170000","kana_pref":"ﾅｶﾞｻｷｹﾝ","kana_city":"ﾂｼﾏｼ","kana_address":"","pref":"長崎県","city":"対馬市","address":""},
{"zip_code":"8170034","kana_pref":"ﾅｶﾞｻｷｹﾝ","kana_city":"ﾂｼﾏｼ","kana_address":"ｲﾂﾞﾊﾗﾏﾁｱｶﾞﾐ","pref":"長崎県","city":"対馬市","address":"厳原町安神"},
{"zip_code":"8170153","kana_pref":"ﾅｶﾞｻｷｹﾝ","kana_city":"ﾂｼﾏｼ","kana_address":"ｲﾂﾞﾊﾗﾏﾁｱｻﾞﾓ","pref":"長崎県","city":"対馬市","address":"厳原町浅藻"},
{"zip_code":"8170241","kana_pref":"ﾅｶﾞｻｷｹﾝ","kana_city":"ﾂｼﾏｼ","kana_address":"ｲﾂﾞﾊﾗﾏﾁｱﾚ","pref":"長崎県","city":"対馬市","address":"厳原町阿連"},
{"zip_code":"8170021","kana_pref":"ﾅｶﾞｻｷｹﾝ","kana_city":"ﾂｼﾏｼ","kana_address":"ｲﾂﾞﾊﾗﾏﾁｲﾏﾔｼｷ","pref":"長崎県","city":"対馬市","address":"厳原町今屋敷"},
{"zip_code":"8170157","kana_pref":"ﾅｶﾞｻｷｹﾝ","kana_city":"ﾂｼﾏｼ","kana_address":"ｲﾂﾞﾊﾗﾏﾁｳﾁﾔﾏ","pref":"長崎県","city":"対馬市","address":"厳原町内山"},
{"zip_code":"8170033","kana_pref":"ﾅｶﾞｻｷｹﾝ","kana_city":"ﾂｼﾏｼ","kana_address":"ｲﾂﾞﾊﾗﾏﾁｵｳﾗ","pref":"長崎県","city":"対馬市","address":"厳原町尾浦"},
{"zip_code":"8170024","kana_pref":"ﾅｶﾞｻｷｹﾝ","kana_city":"ﾂｼﾏｼ","kana_address":"ｲﾂﾞﾊﾗﾏﾁｵｵﾃﾊﾞｼ","pref":"長崎県","city":"対馬市","address":"厳原町大手橋"},
{"zip_code":"8170243","kana_pref":"ﾅｶﾞｻｷｹﾝ","kana_city":"ﾂｼﾏｼ","kana_address":"ｲﾂﾞﾊﾗﾏﾁｶｼﾈ","pref":"長崎県","city":"対馬市","address":"厳原町樫根"},
{"zip_code":"8170006","kana_pref":"ﾅｶﾞｻｷｹﾝ","kana_city":"ﾂｼﾏｼ","kana_address":"ｲﾂﾞﾊﾗﾏﾁｷﾀｻﾞﾄ","pref":"長崎県","city":"対馬市","address":"厳原町北里"},
{"zip_code":"8170032","kana_pref":"ﾅｶﾞｻｷｹﾝ","kana_city":"ﾂｼﾏｼ","kana_address":"ｲﾂﾞﾊﾗﾏﾁｸﾀ","pref":"長崎県","city":"対馬市","address":"厳原町久田"},
{"zip_code":"8170031","kana_pref":"ﾅｶﾞｻｷｹﾝ","kana_city":"ﾂｼﾏｼ","kana_address":"ｲﾂﾞﾊﾗﾏﾁｸﾀﾐﾁ","pref":"長崎県","city":"対馬市","address":"厳原町久田道"},
{"zip_code":"8170245","kana_pref":"ﾅｶﾞｻｷｹﾝ","kana_city":"ﾂｼﾏｼ","kana_address":"ｲﾂﾞﾊﾗﾏﾁｸﾈｲﾅｶ","pref":"長崎県","city":"対馬市","address":"厳原町久根田舎"},
{"zip_code":"8170244","kana_pref":"ﾅｶﾞｻｷｹﾝ","kana_city":"ﾂｼﾏｼ","kana_address":"ｲﾂﾞﾊﾗﾏﾁｸﾈﾊﾏ","pref":"長崎県","city":"対馬市","address":"厳原町久根浜"},
{"zip_code":"8170035","kana_pref":"ﾅｶﾞｻｷｹﾝ","kana_city":"ﾂｼﾏｼ","kana_address":"ｲﾂﾞﾊﾗﾏﾁｸﾜ","pref":"長崎県","city":"対馬市","address":"厳原町久和"},
{"zip_code":"8170246","kana_pref":"ﾅｶﾞｻｷｹﾝ","kana_city":"ﾂｼﾏｼ","kana_address":"ｲﾂﾞﾊﾗﾏﾁｺｳﾂｷ","pref":"長崎県","city":"対馬市","address":"厳原町上槻"},
{"zip_code":"8170001","kana_pref":"ﾅｶﾞｻｷｹﾝ","kana_city":"ﾂｼﾏｼ","kana_address":"ｲﾂﾞﾊﾗﾏﾁｺｳﾗ","pref":"長崎県","city":"対馬市","address":"厳原町小浦"},
{"zip_code":"8170022","kana_pref":"ﾅｶﾞｻｷｹﾝ","kana_city":"ﾂｼﾏｼ","kana_address":"ｲﾂﾞﾊﾗﾏﾁｺｸﾌﾞ","pref":"長崎県","city":"対馬市","address":"厳原町国分"},
{"zip_code":"8170248","kana_pref":"ﾅｶﾞｻｷｹﾝ","kana_city":"ﾂｼﾏｼ","kana_address":"ｲﾂﾞﾊﾗﾏﾁｺﾓﾀﾞ","pref":"長崎県","city":"対馬市","address":"厳原町小茂田"},
{"zip_code":"8170005","kana_pref":"ﾅｶﾞｻｷｹﾝ","kana_city":"ﾂｼﾏｼ","kana_address":"ｲﾂﾞﾊﾗﾏﾁｻｼﾞｷﾊﾞﾗ","pref":"長崎県","city":"対馬市","address":"厳原町桟原"},
{"zip_code":"8170156","kana_pref":"ﾅｶﾞｻｷｹﾝ","kana_city":"ﾂｼﾏｼ","kana_address":"ｲﾂﾞﾊﾗﾏﾁｻｽｾ","pref":"長崎県","city":"対馬市","address":"厳原町佐須瀬"},
{"zip_code":"8170247","kana_pref":"ﾅｶﾞｻｷｹﾝ","kana_city":"ﾂｼﾏｼ","kana_address":"ｲﾂﾞﾊﾗﾏﾁｼｲﾈ","pref":"長崎県","city":"対馬市","address":"厳原町椎根"},
{"zip_code":"8170242","kana_pref":"ﾅｶﾞｻｷｹﾝ","kana_city":"ﾂｼﾏｼ","kana_address":"ｲﾂﾞﾊﾗﾏﾁｼﾓﾊﾞﾙ","pref":"長崎県","city":"対馬市","address":"厳原町下原"},
{"zip_code":"8170023","kana_pref":"ﾅｶﾞｻｷｹﾝ","kana_city":"ﾂｼﾏｼ","kana_address":"ｲﾂﾞﾊﾗﾏﾁﾀﾌﾞﾁ","pref":"長崎県","city":"対馬市","address":"厳原町田渕"},
{"zip_code":"8170154","kana_pref":"ﾅｶﾞｻｷｹﾝ","kana_city":"ﾂｼﾏｼ","kana_address":"ｲﾂﾞﾊﾗﾏﾁﾂﾂ","pref":"長崎県","city":"対馬市","address":"厳原町豆酘"},
{"zip_code":"8170155","kana_pref":"ﾅｶﾞｻｷｹﾝ","kana_city":"ﾂｼﾏｼ","kana_address":"ｲﾂﾞﾊﾗﾏﾁﾂﾂｾ","pref":"長崎県","city":"対馬市","address":"厳原町豆酘瀬"},
{"zip_code":"8170152","kana_pref":"ﾅｶﾞｻｷｹﾝ","kana_city":"ﾂｼﾏｼ","kana_address":"ｲﾂﾞﾊﾗﾏﾁﾂﾂﾅｲｲﾝ","pref":"長崎県","city":"対馬市","address":"厳原町豆酘内院"},
{"zip_code":"8170014","kana_pref":"ﾅｶﾞｻｷｹﾝ","kana_city":"ﾂｼﾏｼ","kana_address":"ｲﾂﾞﾊﾗﾏﾁﾃﾝﾄﾞｳｼｹﾞ","pref":"長崎県","city":"対馬市","address":"厳原町天道茂"},
{"zip_code":"8170013","kana_pref":"ﾅｶﾞｻｷｹﾝ","kana_city":"ﾂｼﾏｼ","kana_address":"ｲﾂﾞﾊﾗﾏﾁﾅｶﾑﾗ","pref":"長崎県","city":"対馬市","address":"厳原町中村"},
{"zip_code":"8170003","kana_pref":"ﾅｶﾞｻｷｹﾝ","kana_city":"ﾂｼﾏｼ","kana_address":"ｲﾂﾞﾊﾗﾏﾁﾅﾑﾛ","pref":"長崎県","city":"対馬市","address":"厳原町南室"},
{"zip_code":"8170015","kana_pref":"ﾅｶﾞｻｷｹﾝ","kana_city":"ﾂｼﾏｼ","kana_address":"ｲﾂﾞﾊﾗﾏﾁﾆｼｻﾞﾄ","pref":"長崎県","city":"対馬市","address":"厳原町西里"},
{"zip_code":"8170016","kana_pref":"ﾅｶﾞｻｷｹﾝ","kana_city":"ﾂｼﾏｼ","kana_address":"ｲﾂﾞﾊﾗﾏﾁﾋｶﾞｼｻﾞﾄ","pref":"長崎県","city":"対馬市","address":"厳原町東里"},
{"zip_code":"8170012","kana_pref":"ﾅｶﾞｻｷｹﾝ","kana_city":"ﾂｼﾏｼ","kana_address":"ｲﾂﾞﾊﾗﾏﾁﾋﾖｼ","pref":"長崎県","city":"対馬市","address":"厳原町日吉"},
{"zip_code":"8170002","kana_pref":"ﾅｶﾞｻｷｹﾝ","kana_city":"ﾂｼﾏｼ","kana_address":"ｲﾂﾞﾊﾗﾏﾁﾏｶﾞﾘ","pref":"長崎県","city":"対馬市","address":"厳原町曲"},
{"zip_code":"8170011","kana_pref":"ﾅｶﾞｻｷｹﾝ","kana_city":"ﾂｼﾏｼ","kana_address":"ｲﾂﾞﾊﾗﾏﾁﾐﾔﾀﾞﾆ","pref":"長崎県","city":"対馬市","address":"厳原町宮谷"},
{"zip_code":"8170151","kana_pref":"ﾅｶﾞｻｷｹﾝ","kana_city":"ﾂｼﾏｼ","kana_address":"ｲﾂﾞﾊﾗﾏﾁﾖﾗﾅｲｲﾝ","pref":"長崎県","city":"対馬市","address":"厳原町与良内院"},
{"zip_code":"8171532","kana_pref":"ﾅｶﾞｻｷｹﾝ","kana_city":"ﾂｼﾏｼ","kana_address":"ｶﾐｱｶﾞﾀﾏﾁｲﾅ","pref":"長崎県","city":"対馬市","address":"上県町伊奈"},
{"zip_code":"8171524","kana_pref":"ﾅｶﾞｻｷｹﾝ","kana_city":"ﾂｼﾏｼ","kana_address":"ｶﾐｱｶﾞﾀﾏﾁｲﾇｶﾞｳﾗ","pref":"長崎県","city":"対馬市","address":"上県町犬ケ浦"},
{"zip_code":"8171513","kana_pref":"ﾅｶﾞｻｷｹﾝ","kana_city":"ﾂｼﾏｼ","kana_address":"ｶﾐｱｶﾞﾀﾏﾁｳﾅﾂﾗ","pref":"長崎県","city":"対馬市","address":"上県町女連"},
{"zip_code":"8171521","kana_pref":"ﾅｶﾞｻｷｹﾝ","kana_city":"ﾂｼﾏｼ","kana_address":"ｶﾐｱｶﾞﾀﾏﾁｶｲﾄﾞｺﾛ","pref":"長崎県","city":"対馬市","address":"上県町飼所"},
{"zip_code":"8171522","kana_pref":"ﾅｶﾞｻｷｹﾝ","kana_city":"ﾂｼﾏｼ","kana_address":"ｶﾐｱｶﾞﾀﾏﾁｶｼﾀｷ","pref":"長崎県","city":"対馬市","address":"上県町樫滝"},
{"zip_code":"8171512","kana_pref":"ﾅｶﾞｻｷｹﾝ","kana_city":"ﾂｼﾏｼ","kana_address":"ｶﾐｱｶﾞﾀﾏﾁｸﾊﾞﾗ","pref":"長崎県","city":"対馬市","address":"上県町久原"},
{"zip_code":"8171531","kana_pref":"ﾅｶﾞｻｷｹﾝ","kana_city":"ﾂｼﾏｼ","kana_address":"ｶﾐｱｶﾞﾀﾏﾁｺｼﾀｶ","pref":"長崎県","city":"対馬市","address":"上県町越高"},
{"zip_code":"8171603","kana_pref":"ﾅｶﾞｻｷｹﾝ","kana_city":"ﾂｼﾏｼ","kana_address":"ｶﾐｱｶﾞﾀﾏﾁｻｺﾞ","pref":"長崎県","city":"対馬市","address":"上県町佐護"},
{"zip_code":"8171602","kana_pref":"ﾅｶﾞｻｷｹﾝ","kana_city":"ﾂｼﾏｼ","kana_address":"ｶﾐｱｶﾞﾀﾏﾁｻｽﾅ","pref":"長崎県","city":"対馬市","address":"上県町佐須奈"},
{"zip_code":"8171511","kana_pref":"ﾅｶﾞｻｷｹﾝ","kana_city":"ﾂｼﾏｼ","kana_address":"ｶﾐｱｶﾞﾀﾏﾁｼｼﾐ","pref":"長崎県","city":"対馬市","address":"上県町鹿見"},
{"zip_code":"8171533","kana_pref":"ﾅｶﾞｻｷｹﾝ","kana_city":"ﾂｼﾏｼ","kana_address":"ｶﾐｱｶﾞﾀﾏﾁｼﾀﾙ","pref":"長崎県","city":"対馬市","address":"上県町志多留"},
{"zip_code":"8171523","kana_pref":"ﾅｶﾞｻｷｹﾝ","kana_city":"ﾂｼﾏｼ","kana_address":"ｶﾐｱｶﾞﾀﾏﾁｾﾀ","pref":"長崎県","city":"対馬市","address":"上県町瀬田"},
{"zip_code":"8171601","kana_pref":"ﾅｶﾞｻｷｹﾝ","kana_city":"ﾂｼﾏｼ","kana_address":"ｶﾐｱｶﾞﾀﾏﾁﾆｼﾂﾔ","pref":"長崎県","city":"対馬市","address":"上県町西津屋"},
{"zip_code":"8171525","kana_pref":"ﾅｶﾞｻｷｹﾝ","kana_city":"ﾂｼﾏｼ","kana_address":"ｶﾐｱｶﾞﾀﾏﾁﾐｿ","pref":"長崎県","city":"対馬市","address":"上県町御園"},
{"zip_code":"8172243","kana_pref":"ﾅｶﾞｻｷｹﾝ","kana_city":"ﾂｼﾏｼ","kana_address":"ｶﾐﾂｼﾏﾏﾁｱｼﾐ","pref":"長崎県","city":"対馬市","address":"上対馬町芦見"},
{"zip_code":"8171704","kana_pref":"ﾅｶﾞｻｷｹﾝ","kana_city":"ﾂｼﾏｼ","kana_address":"ｶﾐﾂｼﾏﾏﾁｱｼﾞﾛ","pref":"長崎県","city":"対馬市","address":"上対馬町網代"},
{"zip_code":"8171725","kana_pref":"ﾅｶﾞｻｷｹﾝ","kana_city":"ﾂｼﾏｼ","kana_address":"ｶﾐﾂｼﾏﾏﾁｲｽﾞﾐ","pref":"長崎県","city":"対馬市","address":"上対馬町泉"},
{"zip_code":"8171722","kana_pref":"ﾅｶﾞｻｷｹﾝ","kana_city":"ﾂｼﾏｼ","kana_address":"ｶﾐﾂｼﾏﾏﾁｵｵｳﾗ","pref":"長崎県","city":"対馬市","address":"上対馬町大浦"},
{"zip_code":"8171715","kana_pref":"ﾅｶﾞｻｷｹﾝ","kana_city":"ﾂｼﾏｼ","kana_address":"ｶﾐﾂｼﾏﾏﾁｵｵﾏｽ","pref":"長崎県","city":"対馬市","address":"上対馬町大増"},
{"zip_code":"8172241","kana_pref":"ﾅｶﾞｻｷｹﾝ","kana_city":"ﾂｼﾏｼ","kana_address":"ｶﾐﾂｼﾏﾏﾁｵｼｶ","pref":"長崎県","city":"対馬市","address":"上対馬町小鹿"},
{"zip_code":"8171721","kana_pref":"ﾅｶﾞｻｷｹﾝ","kana_city":"ﾂｼﾏｼ","kana_address":"ｶﾐﾂｼﾏﾏﾁｶﾜﾁ","pref":"長崎県","city":"対馬市","address":"上対馬町河内"},
{"zip_code":"8172331","kana_pref":"ﾅｶﾞｻｷｹﾝ","kana_city":"ﾂｼﾏｼ","kana_address":"ｶﾐﾂｼﾏﾏﾁｷﾝ","pref":"長崎県","city":"対馬市","address":"上対馬町琴"},
{"zip_code":"8171714","kana_pref":"ﾅｶﾞｻｷｹﾝ","kana_city":"ﾂｼﾏｼ","kana_address":"ｶﾐﾂｼﾏﾏﾁｸｽ","pref":"長崎県","city":"対馬市","address":"上対馬町玖須"},
{"zip_code":"8172332","kana_pref":"ﾅｶﾞｻｷｹﾝ","kana_city":"ﾂｼﾏｼ","kana_address":"ｶﾐﾂｼﾏﾏﾁｺﾞﾈｵ","pref":"長崎県","city":"対馬市","address":"上対馬町五根緒"},
{"zip_code":"8172333","kana_pref":"ﾅｶﾞｻｷｹﾝ","kana_city":"ﾂｼﾏｼ","kana_address":"ｶﾐﾂｼﾏﾏﾁｼｭｳｼ","pref":"長崎県","city":"対馬市","address":"上対馬町舟志"},
{"zip_code":"8171712","kana_pref":"ﾅｶﾞｻｷｹﾝ","kana_city":"ﾂｼﾏｼ","kana_address":"ｶﾐﾂｼﾏﾏﾁﾄｳｼﾞｭｳｼ","pref":"長崎県","city":"対馬市","address":"上対馬町唐舟志"},
{"zip_code":"8171711","kana_pref":"ﾅｶﾞｻｷｹﾝ","kana_city":"ﾂｼﾏｼ","kana_address":"ｶﾐﾂｼﾏﾏﾁﾄﾐｶﾞｳﾗ","pref":"長崎県","city":"対馬市","address":"上対馬町冨浦"},
{"zip_code":"8171724","kana_pref":"ﾅｶﾞｻｷｹﾝ","kana_city":"ﾂｼﾏｼ","kana_address":"ｶﾐﾂｼﾏﾏﾁﾄﾖ","pref":"長崎県","city":"対馬市","address":"上対馬町豊"},
{"zip_code":"8171703","kana_pref":"ﾅｶﾞｻｷｹﾝ","kana_city":"ﾂｼﾏｼ","kana_address":"ｶﾐﾂｼﾏﾏﾁﾆｼﾄﾞﾏﾘ","pref":"長崎県","city":"対馬市","address":"上対馬町西泊"},
{"zip_code":"8171713","kana_pref":"ﾅｶﾞｻｷｹﾝ","kana_city":"ﾂｼﾏｼ","kana_address":"ｶﾐﾂｼﾏﾏﾁﾊﾏｸﾞｽ","pref":"長崎県","city":"対馬市","address":"上対馬町浜久須"},
{"zip_code":"8171701","kana_pref":"ﾅｶﾞｻｷｹﾝ","kana_city":"ﾂｼﾏｼ","kana_address":"ｶﾐﾂｼﾏﾏﾁﾋﾀｶﾂ","pref":"長崎県","city":"対馬市","address":"上対馬町比田勝"},
{"zip_code":"8172242","kana_pref":"ﾅｶﾞｻｷｹﾝ","kana_city":"ﾂｼﾏｼ","kana_address":"ｶﾐﾂｼﾏﾏﾁﾋﾄｴ","pref":"長崎県","city":"対馬市","address":"上対馬町一重"},
{"zip_code":"8171702","kana_pref":"ﾅｶﾞｻｷｹﾝ","kana_city":"ﾂｼﾏｼ","kana_address":"ｶﾐﾂｼﾏﾏﾁﾌﾙｻﾄ","pref":"長崎県","city":"対馬市","address":"上対馬町古里"},
{"zip_code":"8171723","kana_pref":"ﾅｶﾞｻｷｹﾝ","kana_city":"ﾂｼﾏｼ","kana_address":"ｶﾐﾂｼﾏﾏﾁﾜﾆｳﾗ","pref":"長崎県","city":"対馬市","address":"上対馬町鰐浦"},
{"zip_code":"8171231","kana_pref":"ﾅｶﾞｻｷｹﾝ","kana_city":"ﾂｼﾏｼ","kana_address":"ﾄﾖﾀﾏﾏﾁｲﾄｾ","pref":"長崎県","city":"対馬市","address":"豊玉町糸瀬"},
{"zip_code":"8171253","kana_pref":"ﾅｶﾞｻｷｹﾝ","kana_city":"ﾂｼﾏｼ","kana_address":"ﾄﾖﾀﾏﾏﾁｳﾑｷﾞ","pref":"長崎県","city":"対馬市","address":"豊玉町卯麦"},
{"zip_code":"8171252","kana_pref":"ﾅｶﾞｻｷｹﾝ","kana_city":"ﾂｼﾏｼ","kana_address":"ﾄﾖﾀﾏﾏﾁｵｵﾂﾅ","pref":"長崎県","city":"対馬市","address":"豊玉町大綱"},
{"zip_code":"8171241","kana_pref":"ﾅｶﾞｻｷｹﾝ","kana_city":"ﾂｼﾏｼ","kana_address":"ﾄﾖﾀﾏﾏﾁｶｲｸﾞﾁ","pref":"長崎県","city":"対馬市","address":"豊玉町貝口"},
{"zip_code":"8171233","kana_pref":"ﾅｶﾞｻｷｹﾝ","kana_city":"ﾂｼﾏｼ","kana_address":"ﾄﾖﾀﾏﾏﾁｶｲﾌﾅ","pref":"長崎県","city":"対馬市","address":"豊玉町貝鮒"},
{"zip_code":"8171245","kana_pref":"ﾅｶﾞｻｷｹﾝ","kana_city":"ﾂｼﾏｼ","kana_address":"ﾄﾖﾀﾏﾏﾁｶﾗｽ","pref":"長崎県","city":"対馬市","address":"豊玉町唐洲"},
{"zip_code":"8171256","kana_pref":"ﾅｶﾞｻｷｹﾝ","kana_city":"ﾂｼﾏｼ","kana_address":"ﾄﾖﾀﾏﾏﾁｺﾂﾞﾅ","pref":"長崎県","city":"対馬市","address":"豊玉町小綱"},
{"zip_code":"8171232","kana_pref":"ﾅｶﾞｻｷｹﾝ","kana_city":"ﾂｼﾏｼ","kana_address":"ﾄﾖﾀﾏﾏﾁｻｶﾞ","pref":"長崎県","city":"対馬市","address":"豊玉町嵯峨"},
{"zip_code":"8171234","kana_pref":"ﾅｶﾞｻｷｹﾝ","kana_city":"ﾂｼﾏｼ","kana_address":"ﾄﾖﾀﾏﾏﾁｻｼｶ","pref":"長崎県","city":"対馬市","address":"豊玉町佐志賀"},
{"zip_code":"8171254","kana_pref":"ﾅｶﾞｻｷｹﾝ","kana_city":"ﾂｼﾏｼ","kana_address":"ﾄﾖﾀﾏﾏﾁｻﾎ","pref":"長崎県","city":"対馬市","address":"豊玉町佐保"},
{"zip_code":"8171255","kana_pref":"ﾅｶﾞｻｷｹﾝ","kana_city":"ﾂｼﾏｼ","kana_address":"ﾄﾖﾀﾏﾏﾁｼﾀﾉｳﾗ","pref":"長崎県","city":"対馬市","address":"豊玉町志多浦"},
{"zip_code":"8171212","kana_pref":"ﾅｶﾞｻｷｹﾝ","kana_city":"ﾂｼﾏｼ","kana_address":"ﾄﾖﾀﾏﾏﾁｿ","pref":"長崎県","city":"対馬市","address":"豊玉町曽"},
{"zip_code":"8171251","kana_pref":"ﾅｶﾞｻｷｹﾝ","kana_city":"ﾂｼﾏｼ","kana_address":"ﾄﾖﾀﾏﾏﾁﾀ","pref":"長崎県","city":"対馬市","address":"豊玉町田"},
{"zip_code":"8171213","kana_pref":"ﾅｶﾞｻｷｹﾝ","kana_city":"ﾂｼﾏｼ","kana_address":"ﾄﾖﾀﾏﾏﾁﾁﾛﾓ","pref":"長崎県","city":"対馬市","address":"豊玉町千尋藻"},
{"zip_code":"8171201","kana_pref":"ﾅｶﾞｻｷｹﾝ","kana_city":"ﾂｼﾏｼ","kana_address":"ﾄﾖﾀﾏﾏﾁﾆｲ","pref":"長崎県","city":"対馬市","address":"豊玉町仁位"},
{"zip_code":"8171246","kana_pref":"ﾅｶﾞｻｷｹﾝ","kana_city":"ﾂｼﾏｼ","kana_address":"ﾄﾖﾀﾏﾏﾁﾏﾜﾘ","pref":"長崎県","city":"対馬市","address":"豊玉町廻"},
{"zip_code":"8171257","kana_pref":"ﾅｶﾞｻｷｹﾝ","kana_city":"ﾂｼﾏｼ","kana_address":"ﾄﾖﾀﾏﾏﾁﾒｲ","pref":"長崎県","city":"対馬市","address":"豊玉町銘"},
{"zip_code":"8171214","kana_pref":"ﾅｶﾞｻｷｹﾝ","kana_city":"ﾂｼﾏｼ","kana_address":"ﾄﾖﾀﾏﾏﾁﾔﾘｶﾜ","pref":"長崎県","city":"対馬市","address":"豊玉町鑓川"},
{"zip_code":"8171223","kana_pref":"ﾅｶﾞｻｷｹﾝ","kana_city":"ﾂｼﾏｼ","kana_address":"ﾄﾖﾀﾏﾏﾁﾖｺｳﾗ","pref":"長崎県","city":"対馬市","address":"豊玉町横浦"},
{"zip_code":"8171202","kana_pref":"ﾅｶﾞｻｷｹﾝ","kana_city":"ﾂｼﾏｼ","kana_address":"ﾄﾖﾀﾏﾏﾁﾜｲﾀ","pref":"長崎県","city":"対馬市","address":"豊玉町和板"},
{"zip_code":"8171106","kana_pref":"ﾅｶﾞｻｷｹﾝ","kana_city":"ﾂｼﾏｼ","kana_address":"ﾐﾂｼﾏﾏﾁｲﾇﾎﾞｴ","pref":"長崎県","city":"対馬市","address":"美津島町犬吠"},
{"zip_code":"8170432","kana_pref":"ﾅｶﾞｻｷｹﾝ","kana_city":"ﾂｼﾏｼ","kana_address":"ﾐﾂｼﾏﾏﾁｲﾏｻﾞﾄ","pref":"長崎県","city":"対馬市","address":"美津島町今里"},
{"zip_code":"8170323","kana_pref":"ﾅｶﾞｻｷｹﾝ","kana_city":"ﾂｼﾏｼ","kana_address":"ﾐﾂｼﾏﾏﾁｵｵﾌﾅｺｼ","pref":"長崎県","city":"対馬市","address":"美津島町大船越"},
{"zip_code":"8170325","kana_pref":"ﾅｶﾞｻｷｹﾝ","kana_city":"ﾂｼﾏｼ","kana_address":"ﾐﾂｼﾏﾏﾁｵｶﾀ","pref":"長崎県","city":"対馬市","address":"美津島町緒方"},
{"zip_code":"8170431","kana_pref":"ﾅｶﾞｻｷｹﾝ","kana_city":"ﾂｼﾏｼ","kana_address":"ﾐﾂｼﾏﾏﾁｵｻｷ","pref":"長崎県","city":"対馬市","address":"美津島町尾崎"},
{"zip_code":"8171105","kana_pref":"ﾅｶﾞｻｷｹﾝ","kana_city":"ﾂｼﾏｼ","kana_address":"ﾐﾂｼﾏﾏﾁｵﾔﾏ","pref":"長崎県","city":"対馬市","address":"美津島町大山"},
{"zip_code":"8170433","kana_pref":"ﾅｶﾞｻｷｹﾝ","kana_city":"ﾂｼﾏｼ","kana_address":"ﾐﾂｼﾏﾏﾁｶｼ","pref":"長崎県","city":"対馬市","address":"美津島町加志"},
{"zip_code":"8171107","kana_pref":"ﾅｶﾞｻｷｹﾝ","kana_city":"ﾂｼﾏｼ","kana_address":"ﾐﾂｼﾏﾏﾁｶﾓｲｾ","pref":"長崎県","city":"対馬市","address":"美津島町鴨居瀬"},
{"zip_code":"8171103","kana_pref":"ﾅｶﾞｻｷｹﾝ","kana_city":"ﾂｼﾏｼ","kana_address":"ﾐﾂｼﾏﾏﾁｶﾞﾔ","pref":"長崎県","city":"対馬市","address":"美津島町賀谷"},
{"zip_code":"8170324","kana_pref":"ﾅｶﾞｻｷｹﾝ","kana_city":"ﾂｼﾏｼ","kana_address":"ﾐﾂｼﾏﾏﾁｸｽﾎﾞ","pref":"長崎県","city":"対馬市","address":"美津島町久須保"},
{"zip_code":"8170512","kana_pref":"ﾅｶﾞｻｷｹﾝ","kana_city":"ﾂｼﾏｼ","kana_address":"ﾐﾂｼﾏﾏﾁｸﾛｾ","pref":"長崎県","city":"対馬市","address":"美津島町黒瀬"},
{"zip_code":"8170322","kana_pref":"ﾅｶﾞｻｷｹﾝ","kana_city":"ﾂｼﾏｼ","kana_address":"ﾐﾂｼﾏﾏﾁｹﾁ","pref":"長崎県","city":"対馬市","address":"美津島町鶏知"},
{"zip_code":"8171101","kana_pref":"ﾅｶﾞｻｷｹﾝ","kana_city":"ﾂｼﾏｼ","kana_address":"ﾐﾂｼﾏﾏﾁｺﾌﾅｺｼ","pref":"長崎県","city":"対馬市","address":"美津島町小船越"},
{"zip_code":"8170514","kana_pref":"ﾅｶﾞｻｷｹﾝ","kana_city":"ﾂｼﾏｼ","kana_address":"ﾐﾂｼﾏﾏﾁｼﾏﾔﾏ","pref":"長崎県","city":"対馬市","address":"美津島町島山"},
{"zip_code":"8170321","kana_pref":"ﾅｶﾞｻｷｹﾝ","kana_city":"ﾂｼﾏｼ","kana_address":"ﾐﾂｼﾏﾏﾁｽﾓ","pref":"長崎県","city":"対馬市","address":"美津島町洲藻"},
{"zip_code":"8170511","kana_pref":"ﾅｶﾞｻｷｹﾝ","kana_city":"ﾂｼﾏｼ","kana_address":"ﾐﾂｼﾏﾏﾁﾀｹｼｷ","pref":"長崎県","city":"対馬市","address":"美津島町竹敷"},
{"zip_code":"8170326","kana_pref":"ﾅｶﾞｻｷｹﾝ","kana_city":"ﾂｼﾏｼ","kana_address":"ﾐﾂｼﾏﾏﾁﾈｵ","pref":"長崎県","city":"対馬市","address":"美津島町根緒"},
{"zip_code":"8171104","kana_pref":"ﾅｶﾞｻｷｹﾝ","kana_city":"ﾂｼﾏｼ","kana_address":"ﾐﾂｼﾏﾏﾁﾉﾌﾞ","pref":"長崎県","city":"対馬市","address":"美津島町濃部"},
{"zip_code":"8170513","kana_pref":"ﾅｶﾞｻｷｹﾝ","kana_city":"ﾂｼﾏｼ","kana_address":"ﾐﾂｼﾏﾏﾁﾋﾙｶﾞｳﾗ","pref":"長崎県","city":"対馬市","address":"美津島町昼ケ浦"},
{"zip_code":"8170434","kana_pref":"ﾅｶﾞｻｷｹﾝ","kana_city":"ﾂｼﾏｼ","kana_address":"ﾐﾂｼﾏﾏﾁﾌｸｻﾞｷ","pref":"長崎県","city":"対馬市","address":"美津島町吹崎"},
{"zip_code":"8170435","kana_pref":"ﾅｶﾞｻｷｹﾝ","kana_city":"ﾂｼﾏｼ","kana_address":"ﾐﾂｼﾏﾏﾁﾐｶﾀ","pref":"長崎県","city":"対馬市","address":"美津島町箕形"},
{"zip_code":"8171102","kana_pref":"ﾅｶﾞｻｷｹﾝ","kana_city":"ﾂｼﾏｼ","kana_address":"ﾐﾂｼﾏﾏﾁﾖｼｶﾞｳﾗ","pref":"長崎県","city":"対馬市","address":"美津島町芦浦"},
{"zip_code":"8171304","kana_pref":"ﾅｶﾞｻｷｹﾝ","kana_city":"ﾂｼﾏｼ","kana_address":"ﾐﾈﾏﾁｵｳﾐ","pref":"長崎県","city":"対馬市","address":"峰町青海"},
{"zip_code":"8171307","kana_pref":"ﾅｶﾞｻｷｹﾝ","kana_city":"ﾂｼﾏｼ","kana_address":"ﾐﾈﾏﾁｶｻ","pref":"長崎県","city":"対馬市","address":"峰町賀佐"},
{"zip_code":"8171302","kana_pref":"ﾅｶﾞｻｷｹﾝ","kana_city":"ﾂｼﾏｼ","kana_address":"ﾐﾈﾏﾁｶﾘｵ","pref":"長崎県","city":"対馬市","address":"峰町狩尾"},
{"zip_code":"8171303","kana_pref":"ﾅｶﾞｻｷｹﾝ","kana_city":"ﾂｼﾏｼ","kana_address":"ﾐﾈﾏﾁｷｻｶ","pref":"長崎県","city":"対馬市","address":"峰町木坂"},
{"zip_code":"8171411","kana_pref":"ﾅｶﾞｻｷｹﾝ","kana_city":"ﾂｼﾏｼ","kana_address":"ﾐﾈﾏﾁｸｼ","pref":"長崎県","city":"対馬市","address":"峰町櫛"},
{"zip_code":"8171412","kana_pref":"ﾅｶﾞｻｷｹﾝ","kana_city":"ﾂｼﾏｼ","kana_address":"ﾐﾈﾏﾁｻｶ","pref":"長崎県","city":"対馬市","address":"峰町佐賀"},
{"zip_code":"8171413","kana_pref":"ﾅｶﾞｻｷｹﾝ","kana_city":"ﾂｼﾏｼ","kana_address":"ﾐﾈﾏﾁｼﾀｶ","pref":"長崎県","city":"対馬市","address":"峰町志多賀"},
{"zip_code":"8171305","kana_pref":"ﾅｶﾞｻｷｹﾝ","kana_city":"ﾂｼﾏｼ","kana_address":"ﾐﾈﾏﾁﾂﾔﾅｷﾞ","pref":"長崎県","city":"対馬市","address":"峰町津柳"},
{"zip_code":"8171301","kana_pref":"ﾅｶﾞｻｷｹﾝ","kana_city":"ﾂｼﾏｼ","kana_address":"ﾐﾈﾏﾁﾐﾈ","pref":"長崎県","city":"対馬市","address":"峰町三根"},
{"zip_code":"8171306","kana_pref":"ﾅｶﾞｻｷｹﾝ","kana_city":"ﾂｼﾏｼ","kana_address":"ﾐﾈﾏﾁﾖｼﾀﾞ","pref":"長崎県","city":"対馬市","address":"峰町吉田"}]}