{"zip_code":[
{"zip_code":"8190000","kana_pref":"ﾌｸｵｶｹﾝ","kana_city":"ﾌｸｵｶｼﾆｼｸ","kana_address":"","pref":"福岡県","city":"福岡市西区","address":""},
{"zip_code":"8190015","kana_pref":"ﾌｸｵｶｹﾝ","kana_city":"ﾌｸｵｶｼﾆｼｸ","kana_address":"ｱﾀｺﾞ","pref":"福岡県","city":"福岡市西区","address":"愛宕"},
{"zip_code":"8190013","kana_pref":"ﾌｸｵｶｹﾝ","kana_city":"ﾌｸｵｶｼﾆｼｸ","kana_address":"ｱﾀｺﾞﾊﾏ","pref":"福岡県","city":"福岡市西区","address":"愛宕浜"},
{"zip_code":"8190007","kana_pref":"ﾌｸｵｶｹﾝ","kana_city":"ﾌｸｵｶｼﾆｼｸ","kana_address":"ｱﾀｺﾞﾐﾅﾐ","pref":"福岡県","city":"福岡市西区","address":"愛宕南"},
{"zip_code":"8190371","kana_pref":"ﾌｸｵｶｹﾝ","kana_city":"ﾌｸｵｶｼﾆｼｸ","kana_address":"ｲｲｼﾞ","pref":"福岡県","city":"福岡市西区","address":"飯氏"},
{"zip_code":"8190037","kana_pref":"ﾌｸｵｶｹﾝ","kana_city":"ﾌｸｵｶｼﾆｼｸ","kana_address":"ｲｲﾓﾘ","pref":"福岡県","city":"福岡市西区","address":"飯盛"},
{"zip_code":"8190042","kana_pref":"ﾌｸｵｶｹﾝ","kana_city":"ﾌｸｵｶｼﾆｼｸ","kana_address":"ｲｷﾀﾞﾝﾁ","pref":"福岡県","city":"福岡市西区","address":"壱岐団地"},
{"zip_code":"8190055","kana_pref":"ﾌｸｵｶｹﾝ","kana_city":"ﾌｸｵｶｼﾆｼｸ","kana_address":"ｲｷﾉﾏﾂﾊﾞﾗ","pref":"福岡県","city":"福岡市西区","address":"生の松原"},
{"zip_code":"8190044","kana_pref":"ﾌｸｵｶｹﾝ","kana_city":"ﾌｸｵｶｼﾆｼｸ","kana_address":"ｲｷﾏﾂﾀﾞｲ","pref":"福岡県","city":"福岡市西区","address":"生松台"},
{"zip_code":"8190025","kana_pref":"ﾌｸｵｶｹﾝ","kana_city":"ﾌｸｵｶｼﾆｼｸ","kana_address":"ｲｼﾏﾙ","pref":"福岡県","city":"福岡市西区","address":"石丸"},
{"zip_code":"8190381","kana_pref":"ﾌｸｵｶｹﾝ","kana_city":"ﾌｸｵｶｼﾆｼｸ","kana_address":"ｲｽﾞﾐ","pref":"福岡県","city":"福岡市西区","address":"泉"},
{"zip_code":"8190167","kana_pref":"ﾌｸｵｶｹﾝ","kana_city":"ﾌｸｵｶｼﾆｼｸ","kana_address":"ｲﾏｼﾞｭｸ","pref":"福岡県","city":"福岡市西区","address":"今宿"},
{"zip_code":"8190162","kana_pref":"ﾌｸｵｶｹﾝ","kana_city":"ﾌｸｵｶｼﾆｼｸ","kana_address":"ｲﾏｼﾞｭｸｱｵｷ","pref":"福岡県","city":"福岡市西区","address":"今宿青木"},
{"zip_code":"8190168","kana_pref":"ﾌｸｵｶｹﾝ","kana_city":"ﾌｸｵｶｼﾆｼｸ","kana_address":"ｲﾏｼﾞｭｸｴｷﾏｴ","pref":"福岡県","city":"福岡市西区","address":"今宿駅前"},
{"zip_code":"8190163","kana_pref":"ﾌｸｵｶｹﾝ","kana_city":"ﾌｸｵｶｼﾆｼｸ","kana_address":"ｲﾏｼﾞｭｸｶﾐﾉﾊﾙ","pref":"福岡県","city":"福岡市西区","address":"今宿上ノ原"},
{"zip_code":"8190164","kana_pref":"ﾌｸｵｶｹﾝ","kana_city":"ﾌｸｵｶｼﾆｼｸ","kana_address":"ｲﾏｼﾞｭｸﾏﾁ","pref":"福岡県","city":"福岡市西区","address":"今宿町"},
{"zip_code":"8190161","kana_pref":"ﾌｸｵｶｹﾝ","kana_city":"ﾌｸｵｶｼﾆｼｸ","kana_address":"ｲﾏｼﾞｭｸﾋｶﾞｼ","pref":"福岡県","city":"福岡市西区","address":"今宿東"},
{"zip_code":"8190165","kana_pref":"ﾌｸｵｶｹﾝ","kana_city":"ﾌｸｵｶｼﾆｼｸ","kana_address":"ｲﾏﾂﾞ","pref":"福岡県","city":"福岡市西区","address":"今津"},
{"zip_code":"8190372","kana_pref":"ﾌｸｵｶｹﾝ","kana_city":"ﾌｸｵｶｼﾆｼｸ","kana_address":"ｳﾀﾞｶﾞﾜﾗ","pref":"福岡県","city":"福岡市西区","address":"宇田川原"},
{"zip_code":"8190005","kana_pref":"ﾌｸｵｶｹﾝ","kana_city":"ﾌｸｵｶｼﾆｼｸ","kana_address":"ｳﾁﾊﾏ","pref":"福岡県","city":"福岡市西区","address":"内浜"},
{"zip_code":"8190021","kana_pref":"ﾌｸｵｶｹﾝ","kana_city":"ﾌｸｵｶｼﾆｼｸ","kana_address":"ｵｵﾏﾁﾀﾞﾝﾁ","pref":"福岡県","city":"福岡市西区","address":"大町団地"},
{"zip_code":"8190001","kana_pref":"ﾌｸｵｶｹﾝ","kana_city":"ﾌｸｵｶｼﾆｼｸ","kana_address":"ｵﾄﾞ","pref":"福岡県","city":"福岡市西区","address":"小戸"},
{"zip_code":"8190011","kana_pref":"ﾌｸｵｶｹﾝ","kana_city":"ﾌｸｵｶｼﾆｼｸ","kana_address":"ｵﾛﾉｼﾏ","pref":"福岡県","city":"福岡市西区","address":"小呂島"},
{"zip_code":"8190035","kana_pref":"ﾌｸｵｶｹﾝ","kana_city":"ﾌｸｵｶｼﾆｼｸ","kana_address":"ｶﾅﾀｹ","pref":"福岡県","city":"福岡市西区","address":"金武"},
{"zip_code":"8190054","kana_pref":"ﾌｸｵｶｹﾝ","kana_city":"ﾌｸｵｶｼﾆｼｸ","kana_address":"ｶﾐﾔﾏﾄ","pref":"福岡県","city":"福岡市西区","address":"上山門"},
{"zip_code":"8190204","kana_pref":"ﾌｸｵｶｹﾝ","kana_city":"ﾌｸｵｶｼﾆｼｸ","kana_address":"ｸｻﾊﾞ","pref":"福岡県","city":"福岡市西区","address":"草場"},
{"zip_code":"8190382","kana_pref":"ﾌｸｵｶｹﾝ","kana_city":"ﾌｸｵｶｼﾆｼｸ","kana_address":"ｸﾜﾊﾞﾗ","pref":"福岡県","city":"福岡市西区","address":"桑原"},
{"zip_code":"8190205","kana_pref":"ﾌｸｵｶｹﾝ","kana_city":"ﾌｸｵｶｼﾆｼｸ","kana_address":"ｹﾞﾝｶｲｼﾏ","pref":"福岡県","city":"福岡市西区","address":"玄界島"},
{"zip_code":"8190203","kana_pref":"ﾌｸｵｶｹﾝ","kana_city":"ﾌｸｵｶｼﾆｼｸ","kana_address":"ｺﾀ","pref":"福岡県","city":"福岡市西区","address":"小田"},
{"zip_code":"8190052","kana_pref":"ﾌｸｵｶｹﾝ","kana_city":"ﾌｸｵｶｼﾆｼｸ","kana_address":"ｼﾓﾔﾏﾄ","pref":"福岡県","city":"福岡市西区","address":"下山門"},
{"zip_code":"8190051","kana_pref":"ﾌｸｵｶｹﾝ","kana_city":"ﾌｸｵｶｼﾆｼｸ","kana_address":"ｼﾓﾔﾏﾄﾀﾞﾝﾁ","pref":"福岡県","city":"福岡市西区","address":"下山門団地"},
{"zip_code":"8190024","kana_pref":"ﾌｸｵｶｹﾝ","kana_city":"ﾌｸｵｶｼﾆｼｸ","kana_address":"ｼﾞｭｳﾛｳｶﾞﾜﾀﾞﾝﾁ","pref":"福岡県","city":"福岡市西区","address":"十郎川団地"},
{"zip_code":"8190041","kana_pref":"ﾌｸｵｶｹﾝ","kana_city":"ﾌｸｵｶｼﾆｼｸ","kana_address":"ｼﾞｭｳﾛｸﾁｮｳ","pref":"福岡県","city":"福岡市西区","address":"拾六町"},
{"zip_code":"8190045","kana_pref":"ﾌｸｵｶｹﾝ","kana_city":"ﾌｸｵｶｼﾆｼｸ","kana_address":"ｼﾞｭｳﾛｸﾁｮｳﾀﾞﾝﾁ","pref":"福岡県","city":"福岡市西区","address":"拾六町団地"},
{"zip_code":"8190053","kana_pref":"ﾌｸｵｶｹﾝ","kana_city":"ﾌｸｵｶｼﾆｼｸ","kana_address":"ｼﾞｮｳﾉﾊﾙﾀﾞﾝﾁ","pref":"福岡県","city":"福岡市西区","address":"城の原団地"},
{"zip_code":"8190373","kana_pref":"ﾌｸｵｶｹﾝ","kana_city":"ﾌｸｵｶｼﾆｼｸ","kana_address":"ｽｾﾝｼﾞ","pref":"福岡県","city":"福岡市西区","address":"周船寺"},
{"zip_code":"8190374","kana_pref":"ﾌｸｵｶｹﾝ","kana_city":"ﾌｸｵｶｼﾆｼｸ","kana_address":"ｾﾝﾘ","pref":"福岡県","city":"福岡市西区","address":"千里"},
{"zip_code":"8190034","kana_pref":"ﾌｸｵｶｹﾝ","kana_city":"ﾌｸｵｶｼﾆｼｸ","kana_address":"ﾀ","pref":"福岡県","city":"福岡市西区","address":"田"},
{"zip_code":"8190383","kana_pref":"ﾌｸｵｶｹﾝ","kana_city":"ﾌｸｵｶｼﾆｼｸ","kana_address":"ﾀｼﾞﾘ","pref":"福岡県","city":"福岡市西区","address":"田尻"},
{"zip_code":"8190384","kana_pref":"ﾌｸｵｶｹﾝ","kana_city":"ﾌｸｵｶｼﾆｼｸ","kana_address":"ﾀﾛｳﾏﾙ","pref":"福岡県","city":"福岡市西区","address":"太郎丸"},
{"zip_code":"8190032","kana_pref":"ﾌｸｵｶｹﾝ","kana_city":"ﾌｸｵｶｼﾆｼｸ","kana_address":"ﾄｷﾞﾚ","pref":"福岡県","city":"福岡市西区","address":"戸切"},
{"zip_code":"8190375","kana_pref":"ﾌｸｵｶｹﾝ","kana_city":"ﾌｸｵｶｼﾆｼｸ","kana_address":"ﾄｸﾅｶﾞ","pref":"福岡県","city":"福岡市西区","address":"徳永"},
{"zip_code":"8190014","kana_pref":"ﾌｸｵｶｹﾝ","kana_city":"ﾌｸｵｶｼﾆｼｸ","kana_address":"ﾄﾖﾊﾏ","pref":"福岡県","city":"福岡市西区","address":"豊浜"},
{"zip_code":"8190039","kana_pref":"ﾌｸｵｶｹﾝ","kana_city":"ﾌｸｵｶｼﾆｼｸ","kana_address":"ﾆｼｲﾘﾍﾞ","pref":"福岡県","city":"福岡市西区","address":"西入部"},
{"zip_code":"8190202","kana_pref":"ﾌｸｵｶｹﾝ","kana_city":"ﾌｸｵｶｼﾆｼｸ","kana_address":"ﾆｼﾉｳﾗ","pref":"福岡県","city":"福岡市西区","address":"西浦"},
{"zip_code":"8190046","kana_pref":"ﾌｸｵｶｹﾝ","kana_city":"ﾌｸｵｶｼﾆｼｸ","kana_address":"ﾆｼﾉｵｶ","pref":"福岡県","city":"福岡市西区","address":"西の丘"},
{"zip_code":"8190043","kana_pref":"ﾌｸｵｶｹﾝ","kana_city":"ﾌｸｵｶｼﾆｼｸ","kana_address":"ﾉｶﾀ","pref":"福岡県","city":"福岡市西区","address":"野方"},
{"zip_code":"8190012","kana_pref":"ﾌｸｵｶｹﾝ","kana_city":"ﾌｸｵｶｼﾆｼｸ","kana_address":"ﾉｺ","pref":"福岡県","city":"福岡市西区","address":"能古"},
{"zip_code":"8190033","kana_pref":"ﾌｸｵｶｹﾝ","kana_city":"ﾌｸｵｶｼﾆｼｸ","kana_address":"ﾊｼﾓﾄ","pref":"福岡県","city":"福岡市西区","address":"橋本"},
{"zip_code":"8190031","kana_pref":"ﾌｸｵｶｹﾝ","kana_city":"ﾌｸｵｶｼﾆｼｸ","kana_address":"ﾊｼﾓﾄ","pref":"福岡県","city":"福岡市西区","address":"橋本"},
{"zip_code":"8190038","kana_pref":"ﾌｸｵｶｹﾝ","kana_city":"ﾌｸｵｶｼﾆｼｸ","kana_address":"ﾊﾈﾄﾞ","pref":"福岡県","city":"福岡市西区","address":"羽根戸"},
{"zip_code":"8190022","kana_pref":"ﾌｸｵｶｹﾝ","kana_city":"ﾌｸｵｶｼﾆｼｸ","kana_address":"ﾌｸｼｹﾞ","pref":"福岡県","city":"福岡市西区","address":"福重"},
{"zip_code":"8190023","kana_pref":"ﾌｸｵｶｹﾝ","kana_city":"ﾌｸｵｶｼﾆｼｸ","kana_address":"ﾌｸｼｹﾞﾀﾞﾝﾁ","pref":"福岡県","city":"福岡市西区","address":"福重団地"},
{"zip_code":"8190387","kana_pref":"ﾌｸｵｶｹﾝ","kana_city":"ﾌｸｵｶｼﾆｼｸ","kana_address":"ﾌｼﾞﾐ","pref":"福岡県","city":"福岡市西区","address":"富士見"},
{"zip_code":"8190201","kana_pref":"ﾌｸｵｶｹﾝ","kana_city":"ﾌｸｵｶｼﾆｼｸ","kana_address":"ﾐﾔﾉｳﾗ","pref":"福岡県","city":"福岡市西区","address":"宮浦"},
{"zip_code":"8190376","kana_pref":"ﾌｸｵｶｹﾝ","kana_city":"ﾌｸｵｶｼﾆｼｸ","kana_address":"ﾐｮｳﾊﾞﾙ","pref":"福岡県","city":"福岡市西区","address":"女原"},
{"zip_code":"8190030","kana_pref":"ﾌｸｵｶｹﾝ","kana_city":"ﾌｸｵｶｼﾆｼｸ","kana_address":"ﾑﾛﾐｶﾞｵｶ","pref":"福岡県","city":"福岡市西区","address":"室見が丘"},
{"zip_code":"8190002","kana_pref":"ﾌｸｵｶｹﾝ","kana_city":"ﾌｸｵｶｼﾆｼｸ","kana_address":"ﾒｲﾉﾊﾏ","pref":"福岡県","city":"福岡市西区","address":"姪の浜"},
{"zip_code":"8190006","kana_pref":"ﾌｸｵｶｹﾝ","kana_city":"ﾌｸｵｶｼﾆｼｸ","kana_address":"ﾒｲﾉﾊﾏｴｷﾐﾅﾐ","pref":"福岡県","city":"福岡市西区","address":"姪浜駅南"},
{"zip_code":"8190385","kana_pref":"ﾌｸｵｶｹﾝ","kana_city":"ﾌｸｵｶｼﾆｼｸ","kana_address":"ﾓﾄｵｶ","pref":"福岡県","city":"福岡市西区","address":"元岡"},
{"zip_code":"8190386","kana_pref":"ﾌｸｵｶｹﾝ","kana_city":"ﾌｸｵｶｼﾆｼｸ","kana_address":"ﾓﾄﾊﾏ","pref":"福岡県","city":"福岡市西区","address":"元浜"},
{"zip_code":"8190166","kana_pref":"ﾌｸｵｶｹﾝ","kana_city":"ﾌｸｵｶｼﾆｼｸ","kana_address":"ﾖｺﾊﾏ","pref":"福岡県","city":"福岡市西区","address":"横浜"},
{"zip_code":"8190366","kana_pref":"ﾌｸｵｶｹﾝ","kana_city":"ﾌｸｵｶｼﾆｼｸ","kana_address":"ﾖｺﾊﾏ","pref":"福岡県","city":"福岡市西区","address":"横浜"},
{"zip_code":"8190036","kana_pref":"ﾌｸｵｶｹﾝ","kana_city":"ﾌｸｵｶｼﾆｼｸ","kana_address":"ﾖｼﾀｹ","pref":"福岡県","city":"福岡市西区","address":"吉武"},
{"zip_code":"8191100","kana_pref":"ﾌｸｵｶｹﾝ","kana_city":"ｲﾄｼﾏｼ","kana_address":"","pref":"福岡県","city":"糸島市","address":""},
{"zip_code":"8191132","kana_pref":"ﾌｸｵｶｹﾝ","kana_city":"ｲﾄｼﾏｼ","kana_address":"ｱﾘﾀ","pref":"福岡県","city":"糸島市","address":"有田"},
{"zip_code":"8191127","kana_pref":"ﾌｸｵｶｹﾝ","kana_city":"ｲﾄｼﾏｼ","kana_address":"ｱﾘﾀﾁｭｳｵｳ","pref":"福岡県","city":"糸島市","address":"有田中央"},
{"zip_code":"8191152","kana_pref":"ﾌｸｵｶｹﾝ","kana_city":"ｲﾄｼﾏｼ","kana_address":"ｲｲﾊﾞﾙ","pref":"福岡県","city":"糸島市","address":"飯原"},
{"zip_code":"8191103","kana_pref":"ﾌｸｵｶｹﾝ","kana_city":"ｲﾄｼﾏｼ","kana_address":"ｲｹﾀﾞ","pref":"福岡県","city":"糸島市","address":"池田"},
{"zip_code":"8191562","kana_pref":"ﾌｸｵｶｹﾝ","kana_city":"ｲﾄｼﾏｼ","kana_address":"ｲﾀ","pref":"福岡県","city":"糸島市","address":"井田"},
{"zip_code":"8191101","kana_pref":"ﾌｸｵｶｹﾝ","kana_city":"ｲﾄｼﾏｼ","kana_address":"ｲﾀﾓﾁ","pref":"福岡県","city":"糸島市","address":"板持"},
{"zip_code":"8191126","kana_pref":"ﾌｸｵｶｹﾝ","kana_city":"ｲﾄｼﾏｼ","kana_address":"ｲﾜﾓﾄ","pref":"福岡県","city":"糸島市","address":"岩本"},
{"zip_code":"8191582","kana_pref":"ﾌｸｵｶｹﾝ","kana_city":"ｲﾄｼﾏｼ","kana_address":"ｲﾜﾗ","pref":"福岡県","city":"糸島市","address":"井原"},
{"zip_code":"8191112","kana_pref":"ﾌｸｵｶｹﾝ","kana_city":"ｲﾄｼﾏｼ","kana_address":"ｳﾗｼ","pref":"福岡県","city":"糸島市","address":"浦志"},
{"zip_code":"8191105","kana_pref":"ﾌｸｵｶｹﾝ","kana_city":"ｲﾄｼﾏｼ","kana_address":"ｳﾙｳ","pref":"福岡県","city":"糸島市","address":"潤"},
{"zip_code":"8191573","kana_pref":"ﾌｸｵｶｹﾝ","kana_city":"ｲﾄｼﾏｼ","kana_address":"ｵｳﾏﾙ","pref":"福岡県","city":"糸島市","address":"王丸"},
{"zip_code":"8191135","kana_pref":"ﾌｸｵｶｹﾝ","kana_city":"ｲﾄｼﾏｼ","kana_address":"ｵｵｳﾗ","pref":"福岡県","city":"糸島市","address":"大浦"},
{"zip_code":"8191121","kana_pref":"ﾌｸｵｶｹﾝ","kana_city":"ｲﾄｼﾏｼ","kana_address":"ｵｷﾞﾉｳﾗ","pref":"福岡県","city":"糸島市","address":"荻浦"},
{"zip_code":"8191124","kana_pref":"ﾌｸｵｶｹﾝ","kana_city":"ｲﾄｼﾏｼ","kana_address":"ｶﾌﾘ","pref":"福岡県","city":"糸島市","address":"加布里"},
{"zip_code":"8191123","kana_pref":"ﾌｸｵｶｹﾝ","kana_city":"ｲﾄｼﾏｼ","kana_address":"ｶﾐｱﾘ","pref":"福岡県","city":"糸島市","address":"神在"},
{"zip_code":"8191155","kana_pref":"ﾌｸｵｶｹﾝ","kana_city":"ｲﾄｼﾏｼ","kana_address":"ｶﾜﾂｷ","pref":"福岡県","city":"糸島市","address":"川付"},
{"zip_code":"8191574","kana_pref":"ﾌｸｵｶｹﾝ","kana_city":"ｲﾄｼﾏｼ","kana_address":"ｶﾜﾊﾞﾙ","pref":"福岡県","city":"糸島市","address":"川原"},
{"zip_code":"8191141","kana_pref":"ﾌｸｵｶｹﾝ","kana_city":"ｲﾄｼﾏｼ","kana_address":"ｸﾗﾓﾁ","pref":"福岡県","city":"糸島市","address":"蔵持"},
{"zip_code":"8191563","kana_pref":"ﾌｸｵｶｹﾝ","kana_city":"ｲﾄｼﾏｼ","kana_address":"ｺｳﾗｲｼﾞ","pref":"福岡県","city":"糸島市","address":"高来寺"},
{"zip_code":"8191147","kana_pref":"ﾌｸｵｶｹﾝ","kana_city":"ｲﾄｼﾏｼ","kana_address":"ｺｳﾘｷ","pref":"福岡県","city":"糸島市","address":"香力"},
{"zip_code":"8191106","kana_pref":"ﾌｸｵｶｹﾝ","kana_city":"ｲﾄｼﾏｼ","kana_address":"ｼﾄ","pref":"福岡県","city":"糸島市","address":"志登"},
{"zip_code":"8191131","kana_pref":"ﾌｸｵｶｹﾝ","kana_city":"ｲﾄｼﾏｼ","kana_address":"ｼﾉﾜﾗ","pref":"福岡県","city":"糸島市","address":"篠原"},
{"zip_code":"8191129","kana_pref":"ﾌｸｵｶｹﾝ","kana_city":"ｲﾄｼﾏｼ","kana_address":"ｼﾉﾜﾗﾆｼ","pref":"福岡県","city":"糸島市","address":"篠原西"},
{"zip_code":"8191128","kana_pref":"ﾌｸｵｶｹﾝ","kana_city":"ｲﾄｼﾏｼ","kana_address":"ｼﾉﾜﾗﾋｶﾞｼ","pref":"福岡県","city":"糸島市","address":"篠原東"},
{"zip_code":"8191301","kana_pref":"ﾌｸｵｶｹﾝ","kana_city":"ｲﾄｼﾏｼ","kana_address":"ｼﾏｲﾀﾞﾊﾗ","pref":"福岡県","city":"糸島市","address":"志摩井田原"},
{"zip_code":"8191313","kana_pref":"ﾌｸｵｶｹﾝ","kana_city":"ｲﾄｼﾏｼ","kana_address":"ｼﾏｲﾅﾄﾞﾒ","pref":"福岡県","city":"糸島市","address":"志摩稲留"},
{"zip_code":"8191315","kana_pref":"ﾌｸｵｶｹﾝ","kana_city":"ｲﾄｼﾏｼ","kana_address":"ｼﾏｲﾅﾊﾞ","pref":"福岡県","city":"糸島市","address":"志摩稲葉"},
{"zip_code":"8191334","kana_pref":"ﾌｸｵｶｹﾝ","kana_city":"ｲﾄｼﾏｼ","kana_address":"ｼﾏｷｼ","pref":"福岡県","city":"糸島市","address":"志摩岐志"},
{"zip_code":"8191331","kana_pref":"ﾌｸｵｶｹﾝ","kana_city":"ｲﾄｼﾏｼ","kana_address":"ｼﾏｸｶﾞ","pref":"福岡県","city":"糸島市","address":"志摩久家"},
{"zip_code":"8191335","kana_pref":"ﾌｸｵｶｹﾝ","kana_city":"ｲﾄｼﾏｼ","kana_address":"ｼﾏｹﾔ","pref":"福岡県","city":"糸島市","address":"志摩芥屋"},
{"zip_code":"8191323","kana_pref":"ﾌｸｵｶｹﾝ","kana_city":"ｲﾄｼﾏｼ","kana_address":"ｼﾏｺｶﾞﾈﾏﾙ","pref":"福岡県","city":"糸島市","address":"志摩小金丸"},
{"zip_code":"8191321","kana_pref":"ﾌｸｵｶｹﾝ","kana_city":"ｲﾄｼﾏｼ","kana_address":"ｼﾏｺﾌｼﾞ","pref":"福岡県","city":"糸島市","address":"志摩小富士"},
{"zip_code":"8191304","kana_pref":"ﾌｸｵｶｹﾝ","kana_city":"ｲﾄｼﾏｼ","kana_address":"ｼﾏｻｸﾗｲ","pref":"福岡県","city":"糸島市","address":"志摩桜井"},
{"zip_code":"8191333","kana_pref":"ﾌｸｵｶｹﾝ","kana_city":"ｲﾄｼﾏｼ","kana_address":"ｼﾏｼﾝﾏﾁ","pref":"福岡県","city":"糸島市","address":"志摩新町"},
{"zip_code":"8191311","kana_pref":"ﾌｸｵｶｹﾝ","kana_city":"ｲﾄｼﾏｼ","kana_address":"ｼﾏﾂﾜｻﾞｷ","pref":"福岡県","city":"糸島市","address":"志摩津和崎"},
{"zip_code":"8191325","kana_pref":"ﾌｸｵｶｹﾝ","kana_city":"ｲﾄｼﾏｼ","kana_address":"ｼﾏﾆｼｶｲﾂﾞｶ","pref":"福岡県","city":"糸島市","address":"志摩西貝塚"},
{"zip_code":"8191303","kana_pref":"ﾌｸｵｶｹﾝ","kana_city":"ｲﾄｼﾏｼ","kana_address":"ｼﾏﾉｷﾞﾀ","pref":"福岡県","city":"糸島市","address":"志摩野北"},
{"zip_code":"8191312","kana_pref":"ﾌｸｵｶｹﾝ","kana_city":"ｲﾄｼﾏｼ","kana_address":"ｼﾏﾊﾂ","pref":"福岡県","city":"糸島市","address":"志摩初"},
{"zip_code":"8191305","kana_pref":"ﾌｸｵｶｹﾝ","kana_city":"ｲﾄｼﾏｼ","kana_address":"ｼﾏﾊﾞﾊﾞ","pref":"福岡県","city":"糸島市","address":"志摩馬場"},
{"zip_code":"8191324","kana_pref":"ﾌｸｵｶｹﾝ","kana_city":"ｲﾄｼﾏｼ","kana_address":"ｼﾏﾋｶﾞｼｶｲﾂﾞｶ","pref":"福岡県","city":"糸島市","address":"志摩東貝塚"},
{"zip_code":"8191336","kana_pref":"ﾌｸｵｶｹﾝ","kana_city":"ｲﾄｼﾏｼ","kana_address":"ｼﾏﾋﾒｼﾏ","pref":"福岡県","city":"糸島市","address":"志摩姫島"},
{"zip_code":"8191332","kana_pref":"ﾌｸｵｶｹﾝ","kana_city":"ｲﾄｼﾏｼ","kana_address":"ｼﾏﾌﾅｺｼ","pref":"福岡県","city":"糸島市","address":"志摩船越"},
{"zip_code":"8191306","kana_pref":"ﾌｸｵｶｹﾝ","kana_city":"ｲﾄｼﾏｼ","kana_address":"ｼﾏﾏﾂｸﾞﾏ","pref":"福岡県","city":"糸島市","address":"志摩松隈"},
{"zip_code":"8191322","kana_pref":"ﾌｸｵｶｹﾝ","kana_city":"ｲﾄｼﾏｼ","kana_address":"ｼﾏﾐﾄｺ","pref":"福岡県","city":"糸島市","address":"志摩御床"},
{"zip_code":"8191314","kana_pref":"ﾌｸｵｶｹﾝ","kana_city":"ｲﾄｼﾏｼ","kana_address":"ｼﾏﾓﾛﾖｼ","pref":"福岡県","city":"糸島市","address":"志摩師吉"},
{"zip_code":"8191302","kana_pref":"ﾌｸｵｶｹﾝ","kana_city":"ｲﾄｼﾏｼ","kana_address":"ｼﾏﾖｼﾀﾞ","pref":"福岡県","city":"糸島市","address":"志摩吉田"},
{"zip_code":"8191154","kana_pref":"ﾌｸｵｶｹﾝ","kana_city":"ｲﾄｼﾏｼ","kana_address":"ｼﾗｲﾄ","pref":"福岡県","city":"糸島市","address":"白糸"},
{"zip_code":"8191114","kana_pref":"ﾌｸｵｶｹﾝ","kana_city":"ｲﾄｼﾏｼ","kana_address":"ｼﾝﾃﾞﾝ","pref":"福岡県","city":"糸島市","address":"新田"},
{"zip_code":"8191581","kana_pref":"ﾌｸｵｶｹﾝ","kana_city":"ｲﾄｼﾏｼ","kana_address":"ｽﾞｲﾊﾞｲｼﾞ","pref":"福岡県","city":"糸島市","address":"瑞梅寺"},
{"zip_code":"8191572","kana_pref":"ﾌｸｵｶｹﾝ","kana_city":"ｲﾄｼﾏｼ","kana_address":"ｽｴﾅｶﾞ","pref":"福岡県","city":"糸島市","address":"末永"},
{"zip_code":"8191156","kana_pref":"ﾌｸｵｶｹﾝ","kana_city":"ｲﾄｼﾏｼ","kana_address":"ｾﾄ","pref":"福岡県","city":"糸島市","address":"瀬戸"},
{"zip_code":"8191561","kana_pref":"ﾌｸｵｶｹﾝ","kana_city":"ｲﾄｼﾏｼ","kana_address":"ｿﾈ","pref":"福岡県","city":"糸島市","address":"曽根"},
{"zip_code":"8191564","kana_pref":"ﾌｸｵｶｹﾝ","kana_city":"ｲﾄｼﾏｼ","kana_address":"ﾀﾞｲﾓﾝ","pref":"福岡県","city":"糸島市","address":"大門"},
{"zip_code":"8191143","kana_pref":"ﾌｸｵｶｹﾝ","kana_city":"ｲﾄｼﾏｼ","kana_address":"ﾀｶｳｴ","pref":"福岡県","city":"糸島市","address":"高上"},
{"zip_code":"8191571","kana_pref":"ﾌｸｵｶｹﾝ","kana_city":"ｲﾄｼﾏｼ","kana_address":"ﾀｶｽ","pref":"福岡県","city":"糸島市","address":"高祖"},
{"zip_code":"8191102","kana_pref":"ﾌｸｵｶｹﾝ","kana_city":"ｲﾄｼﾏｼ","kana_address":"ﾀｶﾀ","pref":"福岡県","city":"糸島市","address":"高田"},
{"zip_code":"8191134","kana_pref":"ﾌｸｵｶｹﾝ","kana_city":"ｲﾄｼﾏｼ","kana_address":"ﾀｸ","pref":"福岡県","city":"糸島市","address":"多久"},
{"zip_code":"8191125","kana_pref":"ﾌｸｵｶｹﾝ","kana_city":"ｲﾄｼﾏｼ","kana_address":"ﾁﾊﾔｼﾝﾃﾞﾝ","pref":"福岡県","city":"糸島市","address":"千早新田"},
{"zip_code":"8191111","kana_pref":"ﾌｸｵｶｹﾝ","kana_city":"ｲﾄｼﾏｼ","kana_address":"ﾄﾏﾘ","pref":"福岡県","city":"糸島市","address":"泊"},
{"zip_code":"8191133","kana_pref":"ﾌｸｵｶｹﾝ","kana_city":"ｲﾄｼﾏｼ","kana_address":"ﾄﾐ","pref":"福岡県","city":"糸島市","address":"富"},
{"zip_code":"8191153","kana_pref":"ﾌｸｵｶｹﾝ","kana_city":"ｲﾄｼﾏｼ","kana_address":"ﾅｶﾞﾉ","pref":"福岡県","city":"糸島市","address":"長野"},
{"zip_code":"8191575","kana_pref":"ﾌｸｵｶｹﾝ","kana_city":"ｲﾄｼﾏｼ","kana_address":"ﾆｼﾉﾄﾞｳ","pref":"福岡県","city":"糸島市","address":"西堂"},
{"zip_code":"8191622","kana_pref":"ﾌｸｵｶｹﾝ","kana_city":"ｲﾄｼﾏｼ","kana_address":"ﾆｼﾞｮｳｲｷｻﾝ","pref":"福岡県","city":"糸島市","address":"二丈一貴山"},
{"zip_code":"8191623","kana_pref":"ﾌｸｵｶｹﾝ","kana_city":"ｲﾄｼﾏｼ","kana_address":"ﾆｼﾞｮｳｲｼｻﾞｷ","pref":"福岡県","city":"糸島市","address":"二丈石崎"},
{"zip_code":"8191611","kana_pref":"ﾌｸｵｶｹﾝ","kana_city":"ｲﾄｼﾏｼ","kana_address":"ﾆｼﾞｮｳｶﾀﾔﾏ","pref":"福岡県","city":"糸島市","address":"二丈片山"},
{"zip_code":"8191621","kana_pref":"ﾌｸｵｶｹﾝ","kana_city":"ｲﾄｼﾏｼ","kana_address":"ﾆｼﾞｮｳｶﾐﾌｶｴ","pref":"福岡県","city":"糸島市","address":"二丈上深江"},
{"zip_code":"8191642","kana_pref":"ﾌｸｵｶｹﾝ","kana_city":"ｲﾄｼﾏｼ","kana_address":"ﾆｼﾞｮｳｼｶｶ","pref":"福岡県","city":"糸島市","address":"二丈鹿家"},
{"zip_code":"8191616","kana_pref":"ﾌｸｵｶｹﾝ","kana_city":"ｲﾄｼﾏｼ","kana_address":"ﾆｼﾞｮｳﾀｹ","pref":"福岡県","city":"糸島市","address":"二丈武"},
{"zip_code":"8191615","kana_pref":"ﾌｸｵｶｹﾝ","kana_city":"ｲﾄｼﾏｼ","kana_address":"ﾆｼﾞｮｳﾀﾅｶ","pref":"福岡県","city":"糸島市","address":"二丈田中"},
{"zip_code":"8191625","kana_pref":"ﾌｸｵｶｹﾝ","kana_city":"ｲﾄｼﾏｼ","kana_address":"ﾆｼﾞｮｳﾅｶﾞｲｼ","pref":"福岡県","city":"糸島市","address":"二丈長石"},
{"zip_code":"8191614","kana_pref":"ﾌｸｵｶｹﾝ","kana_city":"ｲﾄｼﾏｼ","kana_address":"ﾆｼﾞｮｳﾊﾏｸﾎﾞ","pref":"福岡県","city":"糸島市","address":"二丈浜窪"},
{"zip_code":"8191626","kana_pref":"ﾌｸｵｶｹﾝ","kana_city":"ｲﾄｼﾏｼ","kana_address":"ﾆｼﾞｮｳﾊﾛ","pref":"福岡県","city":"糸島市","address":"二丈波呂"},
{"zip_code":"8191601","kana_pref":"ﾌｸｵｶｹﾝ","kana_city":"ｲﾄｼﾏｼ","kana_address":"ﾆｼﾞｮｳﾌｶｴ","pref":"福岡県","city":"糸島市","address":"二丈深江"},
{"zip_code":"8191631","kana_pref":"ﾌｸｵｶｹﾝ","kana_city":"ｲﾄｼﾏｼ","kana_address":"ﾆｼﾞｮｳﾌｸｲ","pref":"福岡県","city":"糸島市","address":"二丈福井"},
{"zip_code":"8191612","kana_pref":"ﾌｸｵｶｹﾝ","kana_city":"ｲﾄｼﾏｼ","kana_address":"ﾆｼﾞｮｳﾏｽｴ","pref":"福岡県","city":"糸島市","address":"二丈松末"},
{"zip_code":"8191613","kana_pref":"ﾌｸｵｶｹﾝ","kana_city":"ｲﾄｼﾏｼ","kana_address":"ﾆｼﾞｮｳﾏｽｴ","pref":"福岡県","city":"糸島市","address":"二丈松末"},
{"zip_code":"8191627","kana_pref":"ﾌｸｵｶｹﾝ","kana_city":"ｲﾄｼﾏｼ","kana_address":"ﾆｼﾞｮｳﾏﾂｸﾆ","pref":"福岡県","city":"糸島市","address":"二丈松国"},
{"zip_code":"8191624","kana_pref":"ﾌｸｵｶｹﾝ","kana_city":"ｲﾄｼﾏｼ","kana_address":"ﾆｼﾞｮｳﾐﾂﾖｼ","pref":"福岡県","city":"糸島市","address":"二丈満吉"},
{"zip_code":"8191641","kana_pref":"ﾌｸｵｶｹﾝ","kana_city":"ｲﾄｼﾏｼ","kana_address":"ﾆｼﾞｮｳﾖｼｲ","pref":"福岡県","city":"糸島市","address":"二丈吉井"},
{"zip_code":"8191104","kana_pref":"ﾌｸｵｶｹﾝ","kana_city":"ｲﾄｼﾏｼ","kana_address":"ﾊﾀｴ","pref":"福岡県","city":"糸島市","address":"波多江"},
{"zip_code":"8191107","kana_pref":"ﾌｸｵｶｹﾝ","kana_city":"ｲﾄｼﾏｼ","kana_address":"ﾊﾀｴｴｷｷﾀ","pref":"福岡県","city":"糸島市","address":"波多江駅北"},
{"zip_code":"8191108","kana_pref":"ﾌｸｵｶｹﾝ","kana_city":"ｲﾄｼﾏｼ","kana_address":"ﾊﾀｴｴｷﾐﾅﾐ","pref":"福岡県","city":"糸島市","address":"波多江駅南"},
{"zip_code":"8191122","kana_pref":"ﾌｸｵｶｹﾝ","kana_city":"ｲﾄｼﾏｼ","kana_address":"ﾋｶﾞｼ","pref":"福岡県","city":"糸島市","address":"東"},
{"zip_code":"8191151","kana_pref":"ﾌｸｵｶｹﾝ","kana_city":"ｲﾄｼﾏｼ","kana_address":"ﾎﾝ","pref":"福岡県","city":"糸島市","address":"本"},
{"zip_code":"8191113","kana_pref":"ﾌｸｵｶｹﾝ","kana_city":"ｲﾄｼﾏｼ","kana_address":"ﾏｴﾊﾞﾙ","pref":"福岡県","city":"糸島市","address":"前原"},
{"zip_code":"8191138","kana_pref":"ﾌｸｵｶｹﾝ","kana_city":"ｲﾄｼﾏｼ","kana_address":"ﾏｴﾊﾞﾙｴｷﾐﾅﾐ","pref":"福岡県","city":"糸島市","address":"前原駅南"},
{"zip_code":"8191118","kana_pref":"ﾌｸｵｶｹﾝ","kana_city":"ｲﾄｼﾏｼ","kana_address":"ﾏｴﾊﾞﾙｷﾀ","pref":"福岡県","city":"糸島市","address":"前原北"},
{"zip_code":"8191116","kana_pref":"ﾌｸｵｶｹﾝ","kana_city":"ｲﾄｼﾏｼ","kana_address":"ﾏｴﾊﾞﾙﾁｭｳｵｳ","pref":"福岡県","city":"糸島市","address":"前原中央"},
{"zip_code":"8191117","kana_pref":"ﾌｸｵｶｹﾝ","kana_city":"ｲﾄｼﾏｼ","kana_address":"ﾏｴﾊﾞﾙﾆｼ","pref":"福岡県","city":"糸島市","address":"前原西"},
{"zip_code":"8191119","kana_pref":"ﾌｸｵｶｹﾝ","kana_city":"ｲﾄｼﾏｼ","kana_address":"ﾏｴﾊﾞﾙﾋｶﾞｼ","pref":"福岡県","city":"糸島市","address":"前原東"},
{"zip_code":"8191139","kana_pref":"ﾌｸｵｶｹﾝ","kana_city":"ｲﾄｼﾏｼ","kana_address":"ﾏｴﾊﾞﾙﾐﾅﾐ","pref":"福岡県","city":"糸島市","address":"前原南"},
{"zip_code":"8191583","kana_pref":"ﾌｸｵｶｹﾝ","kana_city":"ｲﾄｼﾏｼ","kana_address":"ﾐｸﾓ","pref":"福岡県","city":"糸島市","address":"三雲"},
{"zip_code":"8191146","kana_pref":"ﾌｸｵｶｹﾝ","kana_city":"ｲﾄｼﾏｼ","kana_address":"ﾐｻｶ","pref":"福岡県","city":"糸島市","address":"三坂"},
{"zip_code":"8191136","kana_pref":"ﾌｸｵｶｹﾝ","kana_city":"ｲﾄｼﾏｼ","kana_address":"ﾐｻｷｶﾞｵｶ","pref":"福岡県","city":"糸島市","address":"美咲が丘"},
{"zip_code":"8191137","kana_pref":"ﾌｸｵｶｹﾝ","kana_city":"ｲﾄｼﾏｼ","kana_address":"ﾐﾅｶｾﾞﾀﾞｲ","pref":"福岡県","city":"糸島市","address":"南風台"},
{"zip_code":"8191142","kana_pref":"ﾌｸｵｶｹﾝ","kana_city":"ｲﾄｼﾏｼ","kana_address":"ﾔｼﾏ","pref":"福岡県","city":"糸島市","address":"八島"},
{"zip_code":"8191144","kana_pref":"ﾌｸｵｶｹﾝ","kana_city":"ｲﾄｼﾏｼ","kana_address":"ﾔﾏｷﾞﾀ","pref":"福岡県","city":"糸島市","address":"山北"},
{"zip_code":"8191115","kana_pref":"ﾌｸｵｶｹﾝ","kana_city":"ｲﾄｼﾏｼ","kana_address":"ﾕﾋﾞ","pref":"福岡県","city":"糸島市","address":"油比"},
{"zip_code":"8191145","kana_pref":"ﾌｸｵｶｹﾝ","kana_city":"ｲﾄｼﾏｼ","kana_address":"ﾗｲｻﾞﾝ","pref":"福岡県","city":"糸島市","address":"雷山"}]}