{"zip_code":[
{"zip_code":"8200000","kana_pref":"ﾌｸｵｶｹﾝ","kana_city":"ｲｲﾂﾞｶｼ","kana_address":"","pref":"福岡県","city":"飯塚市","address":""},
{"zip_code":"8200052","kana_pref":"ﾌｸｵｶｹﾝ","kana_city":"ｲｲﾂﾞｶｼ","kana_address":"ｱｲﾀﾞ","pref":"福岡県","city":"飯塚市","address":"相田"},
{"zip_code":"8200704","kana_pref":"ﾌｸｵｶｹﾝ","kana_city":"ｲｲﾂﾞｶｼ","kana_address":"ｱｴ","pref":"福岡県","city":"飯塚市","address":"阿恵"},
{"zip_code":"8200106","kana_pref":"ﾌｸｵｶｹﾝ","kana_city":"ｲｲﾂﾞｶｼ","kana_address":"ｱｶｻｶ","pref":"福岡県","city":"飯塚市","address":"赤坂"},
{"zip_code":"8200083","kana_pref":"ﾌｸｵｶｹﾝ","kana_city":"ｲｲﾂﾞｶｼ","kana_address":"ｱｷﾏﾂ","pref":"福岡県","city":"飯塚市","address":"秋松"},
{"zip_code":"8200112","kana_pref":"ﾌｸｵｶｹﾝ","kana_city":"ｲｲﾂﾞｶｼ","kana_address":"ｱﾘｲ","pref":"福岡県","city":"飯塚市","address":"有井"},
{"zip_code":"8200111","kana_pref":"ﾌｸｵｶｹﾝ","kana_city":"ｲｲﾂﾞｶｼ","kana_address":"ｱﾘﾔｽ","pref":"福岡県","city":"飯塚市","address":"有安"},
{"zip_code":"8200041","kana_pref":"ﾌｸｵｶｹﾝ","kana_city":"ｲｲﾂﾞｶｼ","kana_address":"ｲｲﾂﾞｶ","pref":"福岡県","city":"飯塚市","address":"飯塚"},
{"zip_code":"8200054","kana_pref":"ﾌｸｵｶｹﾝ","kana_city":"ｲｲﾂﾞｶｼ","kana_address":"ｲｶﾜ","pref":"福岡県","city":"飯塚市","address":"伊川"},
{"zip_code":"8200053","kana_pref":"ﾌｸｵｶｹﾝ","kana_city":"ｲｲﾂﾞｶｼ","kana_address":"ｲｷﾞｽ","pref":"福岡県","city":"飯塚市","address":"伊岐須"},
{"zip_code":"8200103","kana_pref":"ﾌｸｵｶｹﾝ","kana_city":"ｲｲﾂﾞｶｼ","kana_address":"ｲﾘﾐｽﾞ","pref":"福岡県","city":"飯塚市","address":"入水"},
{"zip_code":"8200706","kana_pref":"ﾌｸｵｶｹﾝ","kana_city":"ｲｲﾂﾞｶｼ","kana_address":"ｳﾁﾉ","pref":"福岡県","city":"飯塚市","address":"内野"},
{"zip_code":"8200021","kana_pref":"ﾌｸｵｶｹﾝ","kana_city":"ｲｲﾂﾞｶｼ","kana_address":"ｳﾙﾉ","pref":"福岡県","city":"飯塚市","address":"潤野"},
{"zip_code":"8200081","kana_pref":"ﾌｸｵｶｹﾝ","kana_city":"ｲｲﾂﾞｶｼ","kana_address":"ｴﾀﾞｸﾆ","pref":"福岡県","city":"飯塚市","address":"枝国"},
{"zip_code":"8200114","kana_pref":"ﾌｸｵｶｹﾝ","kana_city":"ｲｲﾂﾞｶｼ","kana_address":"ｵｵｶﾄﾞ","pref":"福岡県","city":"飯塚市","address":"大門"},
{"zip_code":"8200089","kana_pref":"ﾌｸｵｶｹﾝ","kana_city":"ｲｲﾂﾞｶｼ","kana_address":"ｵﾊﾞｻ","pref":"福岡県","city":"飯塚市","address":"小正"},
{"zip_code":"8201112","kana_pref":"ﾌｸｵｶｹﾝ","kana_city":"ｲｲﾂﾞｶｼ","kana_address":"ｶｹﾉｳﾏ","pref":"福岡県","city":"飯塚市","address":"鹿毛馬"},
{"zip_code":"8200068","kana_pref":"ﾌｸｵｶｹﾝ","kana_city":"ｲｲﾂﾞｶｼ","kana_address":"ｶﾀｼﾏ","pref":"福岡県","city":"飯塚市","address":"片島"},
{"zip_code":"8200013","kana_pref":"ﾌｸｵｶｹﾝ","kana_city":"ｲｲﾂﾞｶｼ","kana_address":"ｶﾐﾐｵ","pref":"福岡県","city":"飯塚市","address":"上三緒"},
{"zip_code":"8200011","kana_pref":"ﾌｸｵｶｹﾝ","kana_city":"ｲｲﾂﾞｶｼ","kana_address":"ｶﾔﾉﾓﾘ","pref":"福岡県","city":"飯塚市","address":"柏の森"},
{"zip_code":"8200002","kana_pref":"ﾌｸｵｶｹﾝ","kana_city":"ｲｲﾂﾞｶｼ","kana_address":"ｶﾜｼﾏ","pref":"福岡県","city":"飯塚市","address":"川島"},
{"zip_code":"8200067","kana_pref":"ﾌｸｵｶｹﾝ","kana_city":"ｲｲﾂﾞｶｼ","kana_address":"ｶﾜﾂﾞ","pref":"福岡県","city":"飯塚市","address":"川津"},
{"zip_code":"8200703","kana_pref":"ﾌｸｵｶｹﾝ","kana_city":"ｲｲﾂﾞｶｼ","kana_address":"ｷﾀｺｶﾞ","pref":"福岡県","city":"飯塚市","address":"北古賀"},
{"zip_code":"8201114","kana_pref":"ﾌｸｵｶｹﾝ","kana_city":"ｲｲﾂﾞｶｼ","kana_address":"ｸﾁﾉﾊﾗ","pref":"福岡県","city":"飯塚市","address":"口原"},
{"zip_code":"8200078","kana_pref":"ﾌｸｵｶｹﾝ","kana_city":"ｲｲﾂﾞｶｼ","kana_address":"ｸﾎﾞｼﾛ","pref":"福岡県","city":"飯塚市","address":"久保白"},
{"zip_code":"8200707","kana_pref":"ﾌｸｵｶｹﾝ","kana_city":"ｲｲﾂﾞｶｼ","kana_address":"ｸﾜﾏｶﾞﾘ","pref":"福岡県","city":"飯塚市","address":"桑曲"},
{"zip_code":"8200049","kana_pref":"ﾌｸｵｶｹﾝ","kana_city":"ｲｲﾂﾞｶｼ","kana_address":"ｹﾝｹﾞｲｼﾞ","pref":"福岡県","city":"飯塚市","address":"建花寺"},
{"zip_code":"8200066","kana_pref":"ﾌｸｵｶｹﾝ","kana_city":"ｲｲﾂﾞｶｼ","kana_address":"ｺｳﾌﾞｸﾛ","pref":"福岡県","city":"飯塚市","address":"幸袋"},
{"zip_code":"8200015","kana_pref":"ﾌｸｵｶｹﾝ","kana_city":"ｲｲﾂﾞｶｼ","kana_address":"ｺﾓﾀﾞ","pref":"福岡県","city":"飯塚市","address":"菰田"},
{"zip_code":"8200016","kana_pref":"ﾌｸｵｶｹﾝ","kana_city":"ｲｲﾂﾞｶｼ","kana_address":"ｺﾓﾀﾞﾋｶﾞｼ","pref":"福岡県","city":"飯塚市","address":"菰田東"},
{"zip_code":"8200017","kana_pref":"ﾌｸｵｶｹﾝ","kana_city":"ｲｲﾂﾞｶｼ","kana_address":"ｺﾓﾀﾞﾆｼ","pref":"福岡県","city":"飯塚市","address":"菰田西"},
{"zip_code":"8201113","kana_pref":"ﾌｸｵｶｹﾝ","kana_city":"ｲｲﾂﾞｶｼ","kana_address":"ｻﾖ","pref":"福岡県","city":"飯塚市","address":"佐與"},
{"zip_code":"8200012","kana_pref":"ﾌｸｵｶｹﾝ","kana_city":"ｲｲﾂﾞｶｼ","kana_address":"ｼﾓﾐｵ","pref":"福岡県","city":"飯塚市","address":"下三緒"},
{"zip_code":"8200062","kana_pref":"ﾌｸｵｶｹﾝ","kana_city":"ｲｲﾂﾞｶｼ","kana_address":"ｼｬｶﾉｵ","pref":"福岡県","city":"飯塚市","address":"目尾"},
{"zip_code":"8200087","kana_pref":"ﾌｸｵｶｹﾝ","kana_city":"ｲｲﾂﾞｶｼ","kana_address":"ｼｬﾘｸﾗ","pref":"福岡県","city":"飯塚市","address":"舎利蔵"},
{"zip_code":"8200051","kana_pref":"ﾌｸｵｶｹﾝ","kana_city":"ｲｲﾂﾞｶｼ","kana_address":"ｼｮｳｼ","pref":"福岡県","city":"飯塚市","address":"庄司"},
{"zip_code":"8200113","kana_pref":"ﾌｸｵｶｹﾝ","kana_city":"ｲｲﾂﾞｶｼ","kana_address":"ｼｮｳﾅｲﾓﾄﾖｼ","pref":"福岡県","city":"飯塚市","address":"庄内元吉"},
{"zip_code":"8200005","kana_pref":"ﾌｸｵｶｹﾝ","kana_city":"ｲｲﾂﾞｶｼ","kana_address":"ｼﾝｲｲﾂﾞｶ","pref":"福岡県","city":"飯塚市","address":"新飯塚"},
{"zip_code":"8200004","kana_pref":"ﾌｸｵｶｹﾝ","kana_city":"ｲｲﾂﾞｶｼ","kana_address":"ｼﾝﾀﾃｲﾜ","pref":"福岡県","city":"飯塚市","address":"新立岩"},
{"zip_code":"8201111","kana_pref":"ﾌｸｵｶｹﾝ","kana_city":"ｲｲﾂﾞｶｼ","kana_address":"ｾｲﾀ","pref":"福岡県","city":"飯塚市","address":"勢田"},
{"zip_code":"8200046","kana_pref":"ﾌｸｵｶｹﾝ","kana_city":"ｲｲﾂﾞｶｼ","kana_address":"ﾀﾞｲﾆﾁｼﾞ","pref":"福岡県","city":"飯塚市","address":"大日寺"},
{"zip_code":"8200712","kana_pref":"ﾌｸｵｶｹﾝ","kana_city":"ｲｲﾂﾞｶｼ","kana_address":"ﾀﾞｲﾌﾞ","pref":"福岡県","city":"飯塚市","address":"大分"},
{"zip_code":"8200104","kana_pref":"ﾌｸｵｶｹﾝ","kana_city":"ｲｲﾂﾞｶｼ","kana_address":"ﾀｶｸﾗ","pref":"福岡県","city":"飯塚市","address":"高倉"},
{"zip_code":"8200079","kana_pref":"ﾌｸｵｶｹﾝ","kana_city":"ｲｲﾂﾞｶｼ","kana_address":"ﾀｶﾀ","pref":"福岡県","city":"飯塚市","address":"高田"},
{"zip_code":"8200116","kana_pref":"ﾌｸｵｶｹﾝ","kana_city":"ｲｲﾂﾞｶｼ","kana_address":"ﾀﾀﾞ","pref":"福岡県","city":"飯塚市","address":"多田"},
{"zip_code":"8200071","kana_pref":"ﾌｸｵｶｹﾝ","kana_city":"ｲｲﾂﾞｶｼ","kana_address":"ﾀﾀﾞｸﾏ","pref":"福岡県","city":"飯塚市","address":"忠隈"},
{"zip_code":"8200003","kana_pref":"ﾌｸｵｶｹﾝ","kana_city":"ｲｲﾂﾞｶｼ","kana_address":"ﾀﾃｲﾜ","pref":"福岡県","city":"飯塚市","address":"立岩"},
{"zip_code":"8200076","kana_pref":"ﾌｸｵｶｹﾝ","kana_city":"ｲｲﾂﾞｶｼ","kana_address":"ﾀﾛｳﾏﾙ","pref":"福岡県","city":"飯塚市","address":"太郎丸"},
{"zip_code":"8200705","kana_pref":"ﾌｸｵｶｹﾝ","kana_city":"ｲｲﾂﾞｶｼ","kana_address":"ﾁｸﾎﾓﾄﾖｼ","pref":"福岡県","city":"飯塚市","address":"筑穂元吉"},
{"zip_code":"8200064","kana_pref":"ﾌｸｵｶｹﾝ","kana_city":"ｲｲﾂﾞｶｼ","kana_address":"ﾂｼﾏ","pref":"福岡県","city":"飯塚市","address":"津島"},
{"zip_code":"8200105","kana_pref":"ﾌｸｵｶｹﾝ","kana_city":"ｲｲﾂﾞｶｼ","kana_address":"ﾂﾂﾉ","pref":"福岡県","city":"飯塚市","address":"筒野"},
{"zip_code":"8200101","kana_pref":"ﾌｸｵｶｹﾝ","kana_city":"ｲｲﾂﾞｶｼ","kana_address":"ﾂﾅﾜｷ","pref":"福岡県","city":"飯塚市","address":"綱分"},
{"zip_code":"8200084","kana_pref":"ﾌｸｵｶｹﾝ","kana_city":"ｲｲﾂﾞｶｼ","kana_address":"ﾂﾊﾞｷ","pref":"福岡県","city":"飯塚市","address":"椿"},
{"zip_code":"8200014","kana_pref":"ﾌｸｵｶｹﾝ","kana_city":"ｲｲﾂﾞｶｼ","kana_address":"ﾂﾙﾐｵ","pref":"福岡県","city":"飯塚市","address":"鶴三緒"},
{"zip_code":"8200086","kana_pref":"ﾌｸｵｶｹﾝ","kana_city":"ｲｲﾂﾞｶｼ","kana_address":"ﾂﾜﾗ","pref":"福岡県","city":"飯塚市","address":"津原"},
{"zip_code":"8200075","kana_pref":"ﾌｸｵｶｹﾝ","kana_city":"ｲｲﾂﾞｶｼ","kana_address":"ﾃﾝﾄｳ","pref":"福岡県","city":"飯塚市","address":"天道"},
{"zip_code":"8200033","kana_pref":"ﾌｸｵｶｹﾝ","kana_city":"ｲｲﾂﾞｶｼ","kana_address":"ﾄｸｾﾞﾝ","pref":"福岡県","city":"飯塚市","address":"徳前"},
{"zip_code":"8200713","kana_pref":"ﾌｸｵｶｹﾝ","kana_city":"ｲｲﾂﾞｶｼ","kana_address":"ﾅｲｼﾞｭｳ","pref":"福岡県","city":"飯塚市","address":"内住"},
{"zip_code":"8200065","kana_pref":"ﾌｸｵｶｹﾝ","kana_city":"ｲｲﾂﾞｶｼ","kana_address":"ﾅｶ","pref":"福岡県","city":"飯塚市","address":"中"},
{"zip_code":"8200701","kana_pref":"ﾌｸｵｶｹﾝ","kana_city":"ｲｲﾂﾞｶｼ","kana_address":"ﾅｶﾞｵ","pref":"福岡県","city":"飯塚市","address":"長尾"},
{"zip_code":"8200001","kana_pref":"ﾌｸｵｶｹﾝ","kana_city":"ｲｲﾂﾞｶｼ","kana_address":"ﾅﾏｽﾞﾀ","pref":"福岡県","city":"飯塚市","address":"鯰田"},
{"zip_code":"8200031","kana_pref":"ﾌｸｵｶｹﾝ","kana_city":"ｲｲﾂﾞｶｼ","kana_address":"ﾆｼﾄｸｾﾞﾝ","pref":"福岡県","city":"飯塚市","address":"西徳前"},
{"zip_code":"8200043","kana_pref":"ﾌｸｵｶｹﾝ","kana_city":"ｲｲﾂﾞｶｼ","kana_address":"ﾆｼﾏﾁ","pref":"福岡県","city":"飯塚市","address":"西町"},
{"zip_code":"8200115","kana_pref":"ﾌｸｵｶｹﾝ","kana_city":"ｲｲﾂﾞｶｼ","kana_address":"ﾆﾎ","pref":"福岡県","city":"飯塚市","address":"仁保"},
{"zip_code":"8200045","kana_pref":"ﾌｸｵｶｹﾝ","kana_city":"ｲｲﾂﾞｶｼ","kana_address":"ﾊﾅｾ","pref":"福岡県","city":"飯塚市","address":"花瀬"},
{"zip_code":"8200032","kana_pref":"ﾌｸｵｶｹﾝ","kana_city":"ｲｲﾂﾞｶｼ","kana_address":"ﾋｶﾞｼﾄｸｾﾞﾝ","pref":"福岡県","city":"飯塚市","address":"東徳前"},
{"zip_code":"8200702","kana_pref":"ﾌｸｵｶｹﾝ","kana_city":"ｲｲﾂﾞｶｼ","kana_address":"ﾋﾗﾂｶ","pref":"福岡県","city":"飯塚市","address":"平塚"},
{"zip_code":"8200073","kana_pref":"ﾌｸｵｶｹﾝ","kana_city":"ｲｲﾂﾞｶｼ","kana_address":"ﾋﾗﾂﾈ","pref":"福岡県","city":"飯塚市","address":"平恒"},
{"zip_code":"8200088","kana_pref":"ﾌｸｵｶｹﾝ","kana_city":"ｲｲﾂﾞｶｼ","kana_address":"ﾍﾞﾝﾌﾞﾝ","pref":"福岡県","city":"飯塚市","address":"弁分"},
{"zip_code":"8200070","kana_pref":"ﾌｸｵｶｹﾝ","kana_city":"ｲｲﾂﾞｶｼ","kana_address":"ﾎﾘｲｹ","pref":"福岡県","city":"飯塚市","address":"堀池"},
{"zip_code":"8200042","kana_pref":"ﾌｸｵｶｹﾝ","kana_city":"ｲｲﾂﾞｶｼ","kana_address":"ﾎﾝﾏﾁ","pref":"福岡県","city":"飯塚市","address":"本町"},
{"zip_code":"8200709","kana_pref":"ﾌｸｵｶｹﾝ","kana_city":"ｲｲﾂﾞｶｼ","kana_address":"ﾏｼｷ","pref":"福岡県","city":"飯塚市","address":"馬敷"},
{"zip_code":"8200072","kana_pref":"ﾌｸｵｶｹﾝ","kana_city":"ｲｲﾂﾞｶｼ","kana_address":"ﾐﾅﾐｵ","pref":"福岡県","city":"飯塚市","address":"南尾"},
{"zip_code":"8200069","kana_pref":"ﾌｸｵｶｹﾝ","kana_city":"ｲｲﾂﾞｶｼ","kana_address":"ﾐﾔﾏﾁ","pref":"福岡県","city":"飯塚市","address":"宮町"},
{"zip_code":"8200022","kana_pref":"ﾌｸｵｶｹﾝ","kana_city":"ｲｲﾂﾞｶｼ","kana_address":"ﾐｮｳｼﾞｮｳｼﾞ","pref":"福岡県","city":"飯塚市","address":"明星寺"},
{"zip_code":"8200077","kana_pref":"ﾌｸｵｶｹﾝ","kana_city":"ｲｲﾂﾞｶｼ","kana_address":"ﾑｸﾓﾄ","pref":"福岡県","city":"飯塚市","address":"椋本"},
{"zip_code":"8200047","kana_pref":"ﾌｸｵｶｹﾝ","kana_city":"ｲｲﾂﾞｶｼ","kana_address":"ﾔｷﾔﾏ","pref":"福岡県","city":"飯塚市","address":"八木山"},
{"zip_code":"8200085","kana_pref":"ﾌｸｵｶｹﾝ","kana_city":"ｲｲﾂﾞｶｼ","kana_address":"ﾔｽﾂﾈ","pref":"福岡県","city":"飯塚市","address":"安恒"},
{"zip_code":"8200063","kana_pref":"ﾌｸｵｶｹﾝ","kana_city":"ｲｲﾂﾞｶｼ","kana_address":"ﾔﾅｷﾞﾊﾞｼ","pref":"福岡県","city":"飯塚市","address":"柳橋"},
{"zip_code":"8200711","kana_pref":"ﾌｸｵｶｹﾝ","kana_city":"ｲｲﾂﾞｶｼ","kana_address":"ﾔﾏｸﾞﾁ","pref":"福岡県","city":"飯塚市","address":"山口"},
{"zip_code":"8200102","kana_pref":"ﾌｸｵｶｹﾝ","kana_city":"ｲｲﾂﾞｶｼ","kana_address":"ﾔﾏｸﾗ","pref":"福岡県","city":"飯塚市","address":"山倉"},
{"zip_code":"8200708","kana_pref":"ﾌｸｵｶｹﾝ","kana_city":"ｲｲﾂﾞｶｼ","kana_address":"ﾔﾔﾏ","pref":"福岡県","city":"飯塚市","address":"弥山"},
{"zip_code":"8200044","kana_pref":"ﾌｸｵｶｹﾝ","kana_city":"ｲｲﾂﾞｶｼ","kana_address":"ﾖｺﾀ","pref":"福岡県","city":"飯塚市","address":"横田"},
{"zip_code":"8200018","kana_pref":"ﾌｸｵｶｹﾝ","kana_city":"ｲｲﾂﾞｶｼ","kana_address":"ﾖｼｵﾏﾁ","pref":"福岡県","city":"飯塚市","address":"芳雄町"},
{"zip_code":"8200040","kana_pref":"ﾌｸｵｶｹﾝ","kana_city":"ｲｲﾂﾞｶｼ","kana_address":"ﾖｼﾊﾗﾏﾁ","pref":"福岡県","city":"飯塚市","address":"吉原町"},
{"zip_code":"8200061","kana_pref":"ﾌｸｵｶｹﾝ","kana_city":"ｲｲﾂﾞｶｼ","kana_address":"ﾖｼｷﾀ","pref":"福岡県","city":"飯塚市","address":"吉北"},
{"zip_code":"8200074","kana_pref":"ﾌｸｵｶｹﾝ","kana_city":"ｲｲﾂﾞｶｼ","kana_address":"ﾗｸｲﾁ","pref":"福岡県","city":"飯塚市","address":"楽市"},
{"zip_code":"8200048","kana_pref":"ﾌｸｵｶｹﾝ","kana_city":"ｲｲﾂﾞｶｼ","kana_address":"ﾚﾝﾀﾞｲｼﾞ","pref":"福岡県","city":"飯塚市","address":"蓮台寺"},
{"zip_code":"8200082","kana_pref":"ﾌｸｵｶｹﾝ","kana_city":"ｲｲﾂﾞｶｼ","kana_address":"ﾜｶﾅ","pref":"福岡県","city":"飯塚市","address":"若菜"},
{"zip_code":"8200200","kana_pref":"ﾌｸｵｶｹﾝ","kana_city":"ｶﾏｼ","kana_address":"","pref":"福岡県","city":"嘉麻市","address":""},
{"zip_code":"8200331","kana_pref":"ﾌｸｵｶｹﾝ","kana_city":"ｶﾏｼ","kana_address":"ｱｸﾀﾀﾞ","pref":"福岡県","city":"嘉麻市","address":"芥田"},
{"zip_code":"8200501","kana_pref":"ﾌｸｵｶｹﾝ","kana_city":"ｶﾏｼ","kana_address":"ｲｲﾀﾞ","pref":"福岡県","city":"嘉麻市","address":"飯田"},
{"zip_code":"8200334","kana_pref":"ﾌｸｵｶｹﾝ","kana_city":"ｶﾏｼ","kana_address":"ｲｽﾞﾐｺｳﾁ","pref":"福岡県","city":"嘉麻市","address":"泉河内"},
{"zip_code":"8200204","kana_pref":"ﾌｸｵｶｹﾝ","kana_city":"ｶﾏｼ","kana_address":"ｲﾅﾂｷｻｲﾀﾞ","pref":"福岡県","city":"嘉麻市","address":"稲築才田"},
{"zip_code":"8200205","kana_pref":"ﾌｸｵｶｹﾝ","kana_city":"ｶﾏｼ","kana_address":"ｲﾜｻｷ","pref":"福岡県","city":"嘉麻市","address":"岩崎"},
{"zip_code":"8200301","kana_pref":"ﾌｸｵｶｹﾝ","kana_city":"ｶﾏｼ","kana_address":"ｳｼｸﾏ","pref":"福岡県","city":"嘉麻市","address":"牛隈"},
{"zip_code":"8200321","kana_pref":"ﾌｸｵｶｹﾝ","kana_city":"ｶﾏｼ","kana_address":"ｳﾏﾐ","pref":"福岡県","city":"嘉麻市","address":"馬見"},
{"zip_code":"8200201","kana_pref":"ﾌｸｵｶｹﾝ","kana_city":"ｶﾏｼ","kana_address":"ｳﾙｼｵ","pref":"福岡県","city":"嘉麻市","address":"漆生"},
{"zip_code":"8200304","kana_pref":"ﾌｸｵｶｹﾝ","kana_city":"ｶﾏｼ","kana_address":"ｵｵｸﾏ","pref":"福岡県","city":"嘉麻市","address":"大隈"},
{"zip_code":"8200302","kana_pref":"ﾌｸｵｶｹﾝ","kana_city":"ｶﾏｼ","kana_address":"ｵｵｸﾏﾏﾁ","pref":"福岡県","city":"嘉麻市","address":"大隈町"},
{"zip_code":"8200314","kana_pref":"ﾌｸｵｶｹﾝ","kana_city":"ｶﾏｼ","kana_address":"ｵﾉﾀﾞﾆ","pref":"福岡県","city":"嘉麻市","address":"小野谷"},
{"zip_code":"8200336","kana_pref":"ﾌｸｵｶｹﾝ","kana_city":"ｶﾏｼ","kana_address":"ｶﾎｻｲﾀ","pref":"福岡県","city":"嘉麻市","address":"嘉穂才田"},
{"zip_code":"8200311","kana_pref":"ﾌｸｵｶｹﾝ","kana_city":"ｶﾏｼ","kana_address":"ｶﾐ","pref":"福岡県","city":"嘉麻市","address":"上"},
{"zip_code":"8200502","kana_pref":"ﾌｸｵｶｹﾝ","kana_city":"ｶﾏｼ","kana_address":"ｶﾐｳｽｲ","pref":"福岡県","city":"嘉麻市","address":"上臼井"},
{"zip_code":"8200306","kana_pref":"ﾌｸｵｶｹﾝ","kana_city":"ｶﾏｼ","kana_address":"ｶﾐｻｲｺﾞｳ","pref":"福岡県","city":"嘉麻市","address":"上西郷"},
{"zip_code":"8200206","kana_pref":"ﾌｸｵｶｹﾝ","kana_city":"ｶﾏｼ","kana_address":"ｶﾓｵ","pref":"福岡県","city":"嘉麻市","address":"鴨生"},
{"zip_code":"8200207","kana_pref":"ﾌｸｵｶｹﾝ","kana_city":"ｶﾏｼ","kana_address":"ｸﾁﾉﾊﾙ","pref":"福岡県","city":"嘉麻市","address":"口春"},
{"zip_code":"8200337","kana_pref":"ﾌｸｵｶｹﾝ","kana_city":"ｶﾏｼ","kana_address":"ｸﾛｳﾊﾞﾙ","pref":"福岡県","city":"嘉麻市","address":"九郎原"},
{"zip_code":"8200313","kana_pref":"ﾌｸｵｶｹﾝ","kana_city":"ｶﾏｼ","kana_address":"ｸﾜﾉ","pref":"福岡県","city":"嘉麻市","address":"桑野"},
{"zip_code":"8200503","kana_pref":"ﾌｸｵｶｹﾝ","kana_city":"ｶﾏｼ","kana_address":"ｺｳﾀﾞｲ","pref":"福岡県","city":"嘉麻市","address":"光代"},
{"zip_code":"8200305","kana_pref":"ﾌｸｵｶｹﾝ","kana_city":"ｶﾏｼ","kana_address":"ｻﾀﾞﾂｷ","pref":"福岡県","city":"嘉麻市","address":"貞月"},
{"zip_code":"8200323","kana_pref":"ﾌｸｵｶｹﾝ","kana_city":"ｶﾏｼ","kana_address":"ｼｲﾉｷ","pref":"福岡県","city":"嘉麻市","address":"椎木"},
{"zip_code":"8200504","kana_pref":"ﾌｸｵｶｹﾝ","kana_city":"ｶﾏｼ","kana_address":"ｼﾓｳｽｲ","pref":"福岡県","city":"嘉麻市","address":"下臼井"},
{"zip_code":"8200332","kana_pref":"ﾌｸｵｶｹﾝ","kana_city":"ｶﾏｼ","kana_address":"ｾﾝｽﾞ","pref":"福岡県","city":"嘉麻市","address":"千手"},
{"zip_code":"8200333","kana_pref":"ﾌｸｵｶｹﾝ","kana_city":"ｶﾏｼ","kana_address":"ﾀﾞｲﾘｷ","pref":"福岡県","city":"嘉麻市","address":"大力"},
{"zip_code":"8200303","kana_pref":"ﾌｸｵｶｹﾝ","kana_city":"ｶﾏｼ","kana_address":"ﾅｶﾏｽ","pref":"福岡県","city":"嘉麻市","address":"中益"},
{"zip_code":"8200505","kana_pref":"ﾌｸｵｶｹﾝ","kana_city":"ｶﾏｼ","kana_address":"ﾆｼﾉｺﾞｳ","pref":"福岡県","city":"嘉麻市","address":"西郷"},
{"zip_code":"8200335","kana_pref":"ﾌｸｵｶｹﾝ","kana_city":"ｶﾏｼ","kana_address":"ﾋｶﾞｼﾊﾀ","pref":"福岡県","city":"嘉麻市","address":"東畑"},
{"zip_code":"8200203","kana_pref":"ﾌｸｵｶｹﾝ","kana_city":"ｶﾏｼ","kana_address":"ﾋﾗ","pref":"福岡県","city":"嘉麻市","address":"平"},
{"zip_code":"8200506","kana_pref":"ﾌｸｵｶｹﾝ","kana_city":"ｶﾏｼ","kana_address":"ﾋﾗﾔﾏ","pref":"福岡県","city":"嘉麻市","address":"平山"},
{"zip_code":"8200322","kana_pref":"ﾌｸｵｶｹﾝ","kana_city":"ｶﾏｼ","kana_address":"ﾍｲ","pref":"福岡県","city":"嘉麻市","address":"屏"},
{"zip_code":"8200312","kana_pref":"ﾌｸｵｶｹﾝ","kana_city":"ｶﾏｼ","kana_address":"ﾐﾔﾖｼ","pref":"福岡県","city":"嘉麻市","address":"宮吉"},
{"zip_code":"8200202","kana_pref":"ﾌｸｵｶｹﾝ","kana_city":"ｶﾏｼ","kana_address":"ﾔﾏﾉ","pref":"福岡県","city":"嘉麻市","address":"山野"},
{"zip_code":"8201100","kana_pref":"ﾌｸｵｶｹﾝ","kana_city":"ｸﾗﾃｸﾞﾝｺﾀｹﾏﾁ","kana_address":"","pref":"福岡県","city":"鞍手郡小竹町","address":""},
{"zip_code":"8201102","kana_pref":"ﾌｸｵｶｹﾝ","kana_city":"ｸﾗﾃｸﾞﾝｺﾀｹﾏﾁ","kana_address":"ｱｶｼﾞ","pref":"福岡県","city":"鞍手郡小竹町","address":"赤地"},
{"zip_code":"8201103","kana_pref":"ﾌｸｵｶｹﾝ","kana_city":"ｸﾗﾃｸﾞﾝｺﾀｹﾏﾁ","kana_address":"ｶﾂﾉ","pref":"福岡県","city":"鞍手郡小竹町","address":"勝野"},
{"zip_code":"8201101","kana_pref":"ﾌｸｵｶｹﾝ","kana_city":"ｸﾗﾃｸﾞﾝｺﾀｹﾏﾁ","kana_address":"ｺﾞﾄｸ","pref":"福岡県","city":"鞍手郡小竹町","address":"御徳"},
{"zip_code":"8201105","kana_pref":"ﾌｸｵｶｹﾝ","kana_city":"ｸﾗﾃｸﾞﾝｺﾀｹﾏﾁ","kana_address":"ｼﾝﾔﾏｻﾞｷ","pref":"福岡県","city":"鞍手郡小竹町","address":"新山崎"},
{"zip_code":"8201106","kana_pref":"ﾌｸｵｶｹﾝ","kana_city":"ｸﾗﾃｸﾞﾝｺﾀｹﾏﾁ","kana_address":"ﾅﾗﾂﾞ","pref":"福岡県","city":"鞍手郡小竹町","address":"南良津"},
{"zip_code":"8201104","kana_pref":"ﾌｸｵｶｹﾝ","kana_city":"ｸﾗﾃｸﾞﾝｺﾀｹﾏﾁ","kana_address":"ﾆｲﾀﾞ","pref":"福岡県","city":"鞍手郡小竹町","address":"新多"},
{"zip_code":"8200600","kana_pref":"ﾌｸｵｶｹﾝ","kana_city":"ｶﾎｸﾞﾝｹｲｾﾝﾏﾁ","kana_address":"","pref":"福岡県","city":"嘉穂郡桂川町","address":""},
{"zip_code":"8200601","kana_pref":"ﾌｸｵｶｹﾝ","kana_city":"ｶﾎｸﾞﾝｹｲｾﾝﾏﾁ","kana_address":"ｳﾁﾔﾏﾀﾞ","pref":"福岡県","city":"嘉穂郡桂川町","address":"内山田"},
{"zip_code":"8200602","kana_pref":"ﾌｸｵｶｹﾝ","kana_city":"ｶﾎｸﾞﾝｹｲｾﾝﾏﾁ","kana_address":"ｸﾛｳﾏﾙ","pref":"福岡県","city":"嘉穂郡桂川町","address":"九郎丸"},
{"zip_code":"8200603","kana_pref":"ﾌｸｵｶｹﾝ","kana_city":"ｶﾎｸﾞﾝｹｲｾﾝﾏﾁ","kana_address":"ｼﾞｭﾒｲ","pref":"福岡県","city":"嘉穂郡桂川町","address":"寿命"},
{"zip_code":"8200604","kana_pref":"ﾌｸｵｶｹﾝ","kana_city":"ｶﾎｸﾞﾝｹｲｾﾝﾏﾁ","kana_address":"ｾﾄ","pref":"福岡県","city":"嘉穂郡桂川町","address":"瀬戸"},
{"zip_code":"8200605","kana_pref":"ﾌｸｵｶｹﾝ","kana_city":"ｶﾎｸﾞﾝｹｲｾﾝﾏﾁ","kana_address":"ﾁｭｳﾔ","pref":"福岡県","city":"嘉穂郡桂川町","address":"中屋"},
{"zip_code":"8200606","kana_pref":"ﾌｸｵｶｹﾝ","kana_city":"ｶﾎｸﾞﾝｹｲｾﾝﾏﾁ","kana_address":"ﾄｲ","pref":"福岡県","city":"嘉穂郡桂川町","address":"土居"},
{"zip_code":"8200607","kana_pref":"ﾌｸｵｶｹﾝ","kana_city":"ｶﾎｸﾞﾝｹｲｾﾝﾏﾁ","kana_address":"ﾊｼﾞ","pref":"福岡県","city":"嘉穂郡桂川町","address":"土師"},
{"zip_code":"8200608","kana_pref":"ﾌｸｵｶｹﾝ","kana_city":"ｶﾎｸﾞﾝｹｲｾﾝﾏﾁ","kana_address":"ﾏﾒﾀﾞ","pref":"福岡県","city":"嘉穂郡桂川町","address":"豆田"},
{"zip_code":"8200609","kana_pref":"ﾌｸｵｶｹﾝ","kana_city":"ｶﾎｸﾞﾝｹｲｾﾝﾏﾁ","kana_address":"ﾖｼｸﾏ","pref":"福岡県","city":"嘉穂郡桂川町","address":"吉隈"}]}