{"zip_code":[
{"zip_code":"8220000","kana_pref":"ﾌｸｵｶｹﾝ","kana_city":"ﾉｵｶﾞﾀｼ","kana_address":"","pref":"福岡県","city":"直方市","address":""},
{"zip_code":"8220012","kana_pref":"ﾌｸｵｶｹﾝ","kana_city":"ﾉｵｶﾞﾀｼ","kana_address":"ｱｶｼﾞ","pref":"福岡県","city":"直方市","address":"赤地"},
{"zip_code":"8220031","kana_pref":"ﾌｸｵｶｹﾝ","kana_city":"ﾉｵｶﾞﾀｼ","kana_address":"ｳｴｷ","pref":"福岡県","city":"直方市","address":"植木"},
{"zip_code":"8220005","kana_pref":"ﾌｸｵｶｹﾝ","kana_city":"ﾉｵｶﾞﾀｼ","kana_address":"ｴｲﾏﾝｼﾞ","pref":"福岡県","city":"直方市","address":"永満寺"},
{"zip_code":"8220006","kana_pref":"ﾌｸｵｶｹﾝ","kana_city":"ﾉｵｶﾞﾀｼ","kana_address":"ｶﾐｻﾞｶｲ","pref":"福岡県","city":"直方市","address":"上境"},
{"zip_code":"8220033","kana_pref":"ﾌｸｵｶｹﾝ","kana_city":"ﾉｵｶﾞﾀｼ","kana_address":"ｶﾐｼﾝﾆｭｳ","pref":"福岡県","city":"直方市","address":"上新入"},
{"zip_code":"8220003","kana_pref":"ﾌｸｵｶｹﾝ","kana_city":"ﾉｵｶﾞﾀｼ","kana_address":"ｶﾐﾄﾝﾉ","pref":"福岡県","city":"直方市","address":"上頓野"},
{"zip_code":"8220001","kana_pref":"ﾌｸｵｶｹﾝ","kana_city":"ﾉｵｶﾞﾀｼ","kana_address":"ｶﾞﾝﾀﾞ","pref":"福岡県","city":"直方市","address":"感田"},
{"zip_code":"8220007","kana_pref":"ﾌｸｵｶｹﾝ","kana_city":"ﾉｵｶﾞﾀｼ","kana_address":"ｼﾓｻﾞｶｲ","pref":"福岡県","city":"直方市","address":"下境"},
{"zip_code":"8220032","kana_pref":"ﾌｸｵｶｹﾝ","kana_city":"ﾉｵｶﾞﾀｼ","kana_address":"ｼﾓｼﾝﾆｭｳ","pref":"福岡県","city":"直方市","address":"下新入"},
{"zip_code":"8220023","kana_pref":"ﾌｸｵｶｹﾝ","kana_city":"ﾉｵｶﾞﾀｼ","kana_address":"ｼﾝｾｲﾏﾁ","pref":"福岡県","city":"直方市","address":"神正町"},
{"zip_code":"8220021","kana_pref":"ﾌｸｵｶｹﾝ","kana_city":"ﾉｵｶﾞﾀｼ","kana_address":"ｼﾝﾁﾏﾁ","pref":"福岡県","city":"直方市","address":"新知町"},
{"zip_code":"8220015","kana_pref":"ﾌｸｵｶｹﾝ","kana_city":"ﾉｵｶﾞﾀｼ","kana_address":"ｼﾝﾏﾁ","pref":"福岡県","city":"直方市","address":"新町"},
{"zip_code":"8220024","kana_pref":"ﾌｸｵｶｹﾝ","kana_city":"ﾉｵｶﾞﾀｼ","kana_address":"ｽｻｷﾏﾁ","pref":"福岡県","city":"直方市","address":"須崎町"},
{"zip_code":"8220022","kana_pref":"ﾌｸｵｶｹﾝ","kana_city":"ﾉｵｶﾞﾀｼ","kana_address":"ﾁｺ","pref":"福岡県","city":"直方市","address":"知古"},
{"zip_code":"8220026","kana_pref":"ﾌｸｵｶｹﾝ","kana_city":"ﾉｵｶﾞﾀｼ","kana_address":"ﾂﾀﾞﾏﾁ","pref":"福岡県","city":"直方市","address":"津田町"},
{"zip_code":"8220017","kana_pref":"ﾌｸｵｶｹﾝ","kana_city":"ﾉｵｶﾞﾀｼ","kana_address":"ﾄﾉﾏﾁ","pref":"福岡県","city":"直方市","address":"殿町"},
{"zip_code":"8220002","kana_pref":"ﾌｸｵｶｹﾝ","kana_city":"ﾉｵｶﾞﾀｼ","kana_address":"ﾄﾝﾉ","pref":"福岡県","city":"直方市","address":"頓野"},
{"zip_code":"8220011","kana_pref":"ﾌｸｵｶｹﾝ","kana_city":"ﾉｵｶﾞﾀｼ","kana_address":"ﾅｶｲｽﾞﾐ","pref":"福岡県","city":"直方市","address":"中泉"},
{"zip_code":"8220016","kana_pref":"ﾌｸｵｶｹﾝ","kana_city":"ﾉｵｶﾞﾀｼ","kana_address":"ﾉｵｶﾞﾀ","pref":"福岡県","city":"直方市","address":"直方"},
{"zip_code":"8220004","kana_pref":"ﾌｸｵｶｹﾝ","kana_city":"ﾉｵｶﾞﾀｼ","kana_address":"ﾊﾀ","pref":"福岡県","city":"直方市","address":"畑"},
{"zip_code":"8220025","kana_pref":"ﾌｸｵｶｹﾝ","kana_city":"ﾉｵｶﾞﾀｼ","kana_address":"ﾋﾖｼﾏﾁ","pref":"福岡県","city":"直方市","address":"日吉町"},
{"zip_code":"8220027","kana_pref":"ﾌｸｵｶｹﾝ","kana_city":"ﾉｵｶﾞﾀｼ","kana_address":"ﾌﾙﾏﾁ","pref":"福岡県","city":"直方市","address":"古町"},
{"zip_code":"8220014","kana_pref":"ﾌｸｵｶｹﾝ","kana_city":"ﾉｵｶﾞﾀｼ","kana_address":"ﾏﾙﾔﾏﾏﾁ","pref":"福岡県","city":"直方市","address":"丸山町"},
{"zip_code":"8220013","kana_pref":"ﾌｸｵｶｹﾝ","kana_city":"ﾉｵｶﾞﾀｼ","kana_address":"ﾐｿﾞﾎﾘ","pref":"福岡県","city":"直方市","address":"溝堀"},
{"zip_code":"8220034","kana_pref":"ﾌｸｵｶｹﾝ","kana_city":"ﾉｵｶﾞﾀｼ","kana_address":"ﾔﾏﾍﾞ","pref":"福岡県","city":"直方市","address":"山部"},
{"zip_code":"8220008","kana_pref":"ﾌｸｵｶｹﾝ","kana_city":"ﾉｵｶﾞﾀｼ","kana_address":"ﾕﾉﾊﾗ","pref":"福岡県","city":"直方市","address":"湯野原"},
{"zip_code":"8220144","kana_pref":"ﾌｸｵｶｹﾝ","kana_city":"ﾐﾔﾜｶｼ","kana_address":"ｲﾅﾐﾂ","pref":"福岡県","city":"宮若市","address":"稲光"},
{"zip_code":"8220134","kana_pref":"ﾌｸｵｶｹﾝ","kana_city":"ﾐﾔﾜｶｼ","kana_address":"ｲﾇﾅｷ","pref":"福岡県","city":"宮若市","address":"犬鳴"},
{"zip_code":"8220131","kana_pref":"ﾌｸｵｶｹﾝ","kana_city":"ﾐﾔﾜｶｼ","kana_address":"ｵﾄﾉ","pref":"福岡県","city":"宮若市","address":"乙野"},
{"zip_code":"8220111","kana_pref":"ﾌｸｵｶｹﾝ","kana_city":"ﾐﾔﾜｶｼ","kana_address":"ｶﾅﾏﾙ","pref":"福岡県","city":"宮若市","address":"金丸"},
{"zip_code":"8220113","kana_pref":"ﾌｸｵｶｹﾝ","kana_city":"ﾐﾔﾜｶｼ","kana_address":"ｶﾉｳ","pref":"福岡県","city":"宮若市","address":"金生"},
{"zip_code":"8220146","kana_pref":"ﾌｸｵｶｹﾝ","kana_city":"ﾐﾔﾜｶｼ","kana_address":"ｸﾛﾏﾙ","pref":"福岡県","city":"宮若市","address":"黒丸"},
{"zip_code":"8220132","kana_pref":"ﾌｸｵｶｹﾝ","kana_city":"ﾐﾔﾜｶｼ","kana_address":"ｺﾌﾞｼ","pref":"福岡県","city":"宮若市","address":"小伏"},
{"zip_code":"8220123","kana_pref":"ﾌｸｵｶｹﾝ","kana_city":"ﾐﾔﾜｶｼ","kana_address":"ｻﾝｶﾞﾊﾀ","pref":"福岡県","city":"宮若市","address":"三ケ畑"},
{"zip_code":"8220122","kana_pref":"ﾌｸｵｶｹﾝ","kana_city":"ﾐﾔﾜｶｼ","kana_address":"ｼﾓ","pref":"福岡県","city":"宮若市","address":"下"},
{"zip_code":"8220141","kana_pref":"ﾌｸｵｶｹﾝ","kana_city":"ﾐﾔﾜｶｼ","kana_address":"ﾀｲﾗ","pref":"福岡県","city":"宮若市","address":"平"},
{"zip_code":"8220143","kana_pref":"ﾌｸｵｶｹﾝ","kana_city":"ﾐﾔﾜｶｼ","kana_address":"ﾀｶﾉ","pref":"福岡県","city":"宮若市","address":"高野"},
{"zip_code":"8220142","kana_pref":"ﾌｸｵｶｹﾝ","kana_city":"ﾐﾔﾜｶｼ","kana_address":"ﾀｹﾊﾗ","pref":"福岡県","city":"宮若市","address":"竹原"},
{"zip_code":"8220152","kana_pref":"ﾌｸｵｶｹﾝ","kana_city":"ﾐﾔﾜｶｼ","kana_address":"ﾇﾏｸﾞﾁ","pref":"福岡県","city":"宮若市","address":"沼口"},
{"zip_code":"8220112","kana_pref":"ﾌｸｵｶｹﾝ","kana_city":"ﾐﾔﾜｶｼ","kana_address":"ﾊﾗﾀﾞ","pref":"福岡県","city":"宮若市","address":"原田"},
{"zip_code":"8220101","kana_pref":"ﾌｸｵｶｹﾝ","kana_city":"ﾐﾔﾜｶｼ","kana_address":"ﾌｸﾏﾙ","pref":"福岡県","city":"宮若市","address":"福丸"},
{"zip_code":"8220124","kana_pref":"ﾌｸｵｶｹﾝ","kana_city":"ﾐﾔﾜｶｼ","kana_address":"ﾍﾘﾔﾏﾊﾀ","pref":"福岡県","city":"宮若市","address":"縁山畑"},
{"zip_code":"8220151","kana_pref":"ﾌｸｵｶｹﾝ","kana_city":"ﾐﾔﾜｶｼ","kana_address":"ﾐｽﾞﾊﾗ","pref":"福岡県","city":"宮若市","address":"水原"},
{"zip_code":"8220145","kana_pref":"ﾌｸｵｶｹﾝ","kana_city":"ﾐﾔﾜｶｼ","kana_address":"ﾐﾔﾅｶﾞ","pref":"福岡県","city":"宮若市","address":"宮永"},
{"zip_code":"8220153","kana_pref":"ﾌｸｵｶｹﾝ","kana_city":"ﾐﾔﾜｶｼ","kana_address":"ﾔﾏｸﾞﾁ","pref":"福岡県","city":"宮若市","address":"山口"},
{"zip_code":"8220121","kana_pref":"ﾌｸｵｶｹﾝ","kana_city":"ﾐﾔﾜｶｼ","kana_address":"ﾕﾊﾞﾙ","pref":"福岡県","city":"宮若市","address":"湯原"},
{"zip_code":"8220133","kana_pref":"ﾌｸｵｶｹﾝ","kana_city":"ﾐﾔﾜｶｼ","kana_address":"ﾜｷﾀ","pref":"福岡県","city":"宮若市","address":"脇田"},
{"zip_code":"8221400","kana_pref":"ﾌｸｵｶｹﾝ","kana_city":"ﾀｶﾞﾜｸﾞﾝｶﾜﾗﾏﾁ","kana_address":"","pref":"福岡県","city":"田川郡香春町","address":""},
{"zip_code":"8221402","kana_pref":"ﾌｸｵｶｹﾝ","kana_city":"ﾀｶﾞﾜｸﾞﾝｶﾜﾗﾏﾁ","kana_address":"ｶｶﾞﾐﾔﾏ","pref":"福岡県","city":"田川郡香春町","address":"鏡山"},
{"zip_code":"8221404","kana_pref":"ﾌｸｵｶｹﾝ","kana_city":"ﾀｶﾞﾜｸﾞﾝｶﾜﾗﾏﾁ","kana_address":"ｶｷｼﾀ","pref":"福岡県","city":"田川郡香春町","address":"柿下"},
{"zip_code":"8221406","kana_pref":"ﾌｸｵｶｹﾝ","kana_city":"ﾀｶﾞﾜｸﾞﾝｶﾜﾗﾏﾁ","kana_address":"ｶﾜﾗ","pref":"福岡県","city":"田川郡香春町","address":"香春"},
{"zip_code":"8221401","kana_pref":"ﾌｸｵｶｹﾝ","kana_city":"ﾀｶﾞﾜｸﾞﾝｶﾜﾗﾏﾁ","kana_address":"ｻｲﾄﾞｳｼｮ","pref":"福岡県","city":"田川郡香春町","address":"採銅所"},
{"zip_code":"8221403","kana_pref":"ﾌｸｵｶｹﾝ","kana_city":"ﾀｶﾞﾜｸﾞﾝｶﾜﾗﾏﾁ","kana_address":"ﾀｶﾉ","pref":"福岡県","city":"田川郡香春町","address":"高野"},
{"zip_code":"8221405","kana_pref":"ﾌｸｵｶｹﾝ","kana_city":"ﾀｶﾞﾜｸﾞﾝｶﾜﾗﾏﾁ","kana_address":"ﾅｶﾂﾊﾞﾙ","pref":"福岡県","city":"田川郡香春町","address":"中津原"},
{"zip_code":"8221300","kana_pref":"ﾌｸｵｶｹﾝ","kana_city":"ﾀｶﾞﾜｸﾞﾝｲﾄﾀﾞﾏﾁ","kana_address":"","pref":"福岡県","city":"田川郡糸田町","address":""},
{"zip_code":"8221324","kana_pref":"ﾌｸｵｶｹﾝ","kana_city":"ﾀｶﾞﾜｸﾞﾝｲﾄﾀﾞﾏﾁ","kana_address":"ｱｻﾋｶﾞｵｶ","pref":"福岡県","city":"田川郡糸田町","address":"旭ケ丘"},
{"zip_code":"8221313","kana_pref":"ﾌｸｵｶｹﾝ","kana_city":"ﾀｶﾞﾜｸﾞﾝｲﾄﾀﾞﾏﾁ","kana_address":"ｳﾁｺｼ","pref":"福岡県","city":"田川郡糸田町","address":"打越"},
{"zip_code":"8221302","kana_pref":"ﾌｸｵｶｹﾝ","kana_city":"ﾀｶﾞﾜｸﾞﾝｲﾄﾀﾞﾏﾁ","kana_address":"ｵｵｸﾏ","pref":"福岡県","city":"田川郡糸田町","address":"大熊"},
{"zip_code":"8221316","kana_pref":"ﾌｸｵｶｹﾝ","kana_city":"ﾀｶﾞﾜｸﾞﾝｲﾄﾀﾞﾏﾁ","kana_address":"ｶﾐｲﾄﾀﾞ","pref":"福岡県","city":"田川郡糸田町","address":"上糸田"},
{"zip_code":"8221311","kana_pref":"ﾌｸｵｶｹﾝ","kana_city":"ﾀｶﾞﾜｸﾞﾝｲﾄﾀﾞﾏﾁ","kana_address":"ｷﾀｸ","pref":"福岡県","city":"田川郡糸田町","address":"北区"},
{"zip_code":"8221306","kana_pref":"ﾌｸｵｶｹﾝ","kana_city":"ﾀｶﾞﾜｸﾞﾝｲﾄﾀﾞﾏﾁ","kana_address":"ｷﾌﾈ","pref":"福岡県","city":"田川郡糸田町","address":"貴船"},
{"zip_code":"8221322","kana_pref":"ﾌｸｵｶｹﾝ","kana_city":"ﾀｶﾞﾜｸﾞﾝｲﾄﾀﾞﾏﾁ","kana_address":"ｻｲﾌﾞ","pref":"福岡県","city":"田川郡糸田町","address":"西部"},
{"zip_code":"8221312","kana_pref":"ﾌｸｵｶｹﾝ","kana_city":"ﾀｶﾞﾜｸﾞﾝｲﾄﾀﾞﾏﾁ","kana_address":"ｼﾓｲﾄﾀﾞ","pref":"福岡県","city":"田川郡糸田町","address":"下糸田"},
{"zip_code":"8221304","kana_pref":"ﾌｸｵｶｹﾝ","kana_city":"ﾀｶﾞﾜｸﾞﾝｲﾄﾀﾞﾏﾁ","kana_address":"ｼﾞﾕｳｶﾞｵｶ","pref":"福岡県","city":"田川郡糸田町","address":"自由ケ丘"},
{"zip_code":"8221323","kana_pref":"ﾌｸｵｶｹﾝ","kana_city":"ﾀｶﾞﾜｸﾞﾝｲﾄﾀﾞﾏﾁ","kana_address":"ｼﾝｵｶ","pref":"福岡県","city":"田川郡糸田町","address":"真岡"},
{"zip_code":"8221314","kana_pref":"ﾌｸｵｶｹﾝ","kana_city":"ﾀｶﾞﾜｸﾞﾝｲﾄﾀﾞﾏﾁ","kana_address":"ﾅｶｲﾄﾀﾞ","pref":"福岡県","city":"田川郡糸田町","address":"中糸田"},
{"zip_code":"8221326","kana_pref":"ﾌｸｵｶｹﾝ","kana_city":"ﾀｶﾞﾜｸﾞﾝｲﾄﾀﾞﾏﾁ","kana_address":"ﾈｽﾞｶﾞｲｹ","pref":"福岡県","city":"田川郡糸田町","address":"鼡ケ池"},
{"zip_code":"8221318","kana_pref":"ﾌｸｵｶｹﾝ","kana_city":"ﾀｶﾞﾜｸﾞﾝｲﾄﾀﾞﾏﾁ","kana_address":"ﾊﾙ","pref":"福岡県","city":"田川郡糸田町","address":"原"},
{"zip_code":"8221301","kana_pref":"ﾌｸｵｶｹﾝ","kana_city":"ﾀｶﾞﾜｸﾞﾝｲﾄﾀﾞﾏﾁ","kana_address":"ﾎﾘｶﾜ","pref":"福岡県","city":"田川郡糸田町","address":"堀川"},
{"zip_code":"8221325","kana_pref":"ﾌｸｵｶｹﾝ","kana_city":"ﾀｶﾞﾜｸﾞﾝｲﾄﾀﾞﾏﾁ","kana_address":"ﾐﾅﾐｲﾄﾀﾞ","pref":"福岡県","city":"田川郡糸田町","address":"南糸田"},
{"zip_code":"8221317","kana_pref":"ﾌｸｵｶｹﾝ","kana_city":"ﾀｶﾞﾜｸﾞﾝｲﾄﾀﾞﾏﾁ","kana_address":"ﾐﾔｶﾞﾜ1","pref":"福岡県","city":"田川郡糸田町","address":"宮川一"},
{"zip_code":"8221315","kana_pref":"ﾌｸｵｶｹﾝ","kana_city":"ﾀｶﾞﾜｸﾞﾝｲﾄﾀﾞﾏﾁ","kana_address":"ﾐﾔｶﾞﾜ2","pref":"福岡県","city":"田川郡糸田町","address":"宮川二"},
{"zip_code":"8221321","kana_pref":"ﾌｸｵｶｹﾝ","kana_city":"ﾀｶﾞﾜｸﾞﾝｲﾄﾀﾞﾏﾁ","kana_address":"ﾐﾔﾀﾆ","pref":"福岡県","city":"田川郡糸田町","address":"宮谷"},
{"zip_code":"8221307","kana_pref":"ﾌｸｵｶｹﾝ","kana_city":"ﾀｶﾞﾜｸﾞﾝｲﾄﾀﾞﾏﾁ","kana_address":"ﾐﾔﾄｺ","pref":"福岡県","city":"田川郡糸田町","address":"宮床"},
{"zip_code":"8221305","kana_pref":"ﾌｸｵｶｹﾝ","kana_city":"ﾀｶﾞﾜｸﾞﾝｲﾄﾀﾞﾏﾁ","kana_address":"ﾐﾔﾄｺﾀﾞﾝﾁ","pref":"福岡県","city":"田川郡糸田町","address":"宮床団地"},
{"zip_code":"8221303","kana_pref":"ﾌｸｵｶｹﾝ","kana_city":"ﾀｶﾞﾜｸﾞﾝｲﾄﾀﾞﾏﾁ","kana_address":"ﾓﾓﾔﾏ","pref":"福岡県","city":"田川郡糸田町","address":"桃山"},
{"zip_code":"8221200","kana_pref":"ﾌｸｵｶｹﾝ","kana_city":"ﾀｶﾞﾜｸﾞﾝﾌｸﾁﾏﾁ","kana_address":"","pref":"福岡県","city":"田川郡福智町","address":""},
{"zip_code":"8221101","kana_pref":"ﾌｸｵｶｹﾝ","kana_city":"ﾀｶﾞﾜｸﾞﾝﾌｸﾁﾏﾁ","kana_address":"ｱｶｲｹ","pref":"福岡県","city":"田川郡福智町","address":"赤池"},
{"zip_code":"8221102","kana_pref":"ﾌｸｵｶｹﾝ","kana_city":"ﾀｶﾞﾜｸﾞﾝﾌｸﾁﾏﾁ","kana_address":"ｱｶﾞﾉ","pref":"福岡県","city":"田川郡福智町","address":"上野"},
{"zip_code":"8221211","kana_pref":"ﾌｸｵｶｹﾝ","kana_city":"ﾀｶﾞﾜｸﾞﾝﾌｸﾁﾏﾁ","kana_address":"ｲｶﾀ","pref":"福岡県","city":"田川郡福智町","address":"伊方"},
{"zip_code":"8221103","kana_pref":"ﾌｸｵｶｹﾝ","kana_city":"ﾀｶﾞﾜｸﾞﾝﾌｸﾁﾏﾁ","kana_address":"ｲﾁﾊﾞ","pref":"福岡県","city":"田川郡福智町","address":"市場"},
{"zip_code":"8221201","kana_pref":"ﾌｸｵｶｹﾝ","kana_city":"ﾀｶﾞﾜｸﾞﾝﾌｸﾁﾏﾁ","kana_address":"ｶﾅﾀﾞ","pref":"福岡県","city":"田川郡福智町","address":"金田"},
{"zip_code":"8221202","kana_pref":"ﾌｸｵｶｹﾝ","kana_city":"ﾀｶﾞﾜｸﾞﾝﾌｸﾁﾏﾁ","kana_address":"ｺｳｻﾞｷ","pref":"福岡県","city":"田川郡福智町","address":"神崎"},
{"zip_code":"8221212","kana_pref":"ﾌｸｵｶｹﾝ","kana_city":"ﾀｶﾞﾜｸﾞﾝﾌｸﾁﾏﾁ","kana_address":"ﾍﾞﾝｼﾞｮｳ","pref":"福岡県","city":"田川郡福智町","address":"弁城"}]}