{"zip_code":[
{"zip_code":"8230000","kana_pref":"ﾌｸｵｶｹﾝ","kana_city":"ﾐﾔﾜｶｼ","kana_address":"","pref":"福岡県","city":"宮若市","address":""},
{"zip_code":"8230004","kana_pref":"ﾌｸｵｶｹﾝ","kana_city":"ﾐﾔﾜｶｼ","kana_address":"ｲｿﾐﾂ","pref":"福岡県","city":"宮若市","address":"磯光"},
{"zip_code":"8230015","kana_pref":"ﾌｸｵｶｹﾝ","kana_city":"ﾐﾔﾜｶｼ","kana_address":"ｶﾐｱﾙｷ","pref":"福岡県","city":"宮若市","address":"上有木"},
{"zip_code":"8230005","kana_pref":"ﾌｸｵｶｹﾝ","kana_city":"ﾐﾔﾜｶｼ","kana_address":"ｶﾐｵｵｸﾏ","pref":"福岡県","city":"宮若市","address":"上大隈"},
{"zip_code":"8230017","kana_pref":"ﾌｸｵｶｹﾝ","kana_city":"ﾐﾔﾜｶｼ","kana_address":"ｸﾗﾋｻ","pref":"福岡県","city":"宮若市","address":"倉久"},
{"zip_code":"8230014","kana_pref":"ﾌｸｵｶｹﾝ","kana_city":"ﾐﾔﾜｶｼ","kana_address":"ｼﾓｱﾙｷ","pref":"福岡県","city":"宮若市","address":"下有木"},
{"zip_code":"8230016","kana_pref":"ﾌｸｵｶｹﾝ","kana_city":"ﾐﾔﾜｶｼ","kana_address":"ｼﾛｳﾏﾙ","pref":"福岡県","city":"宮若市","address":"四郎丸"},
{"zip_code":"8230013","kana_pref":"ﾌｸｵｶｹﾝ","kana_city":"ﾐﾔﾜｶｼ","kana_address":"ｾﾘﾀﾞ","pref":"福岡県","city":"宮若市","address":"芹田"},
{"zip_code":"8230002","kana_pref":"ﾌｸｵｶｹﾝ","kana_city":"ﾐﾔﾜｶｼ","kana_address":"ﾂﾙﾀﾞ","pref":"福岡県","city":"宮若市","address":"鶴田"},
{"zip_code":"8230012","kana_pref":"ﾌｸｵｶｹﾝ","kana_city":"ﾐﾔﾜｶｼ","kana_address":"ﾅｶﾞｲﾂﾞﾙ","pref":"福岡県","city":"宮若市","address":"長井鶴"},
{"zip_code":"8230003","kana_pref":"ﾌｸｵｶｹﾝ","kana_city":"ﾐﾔﾜｶｼ","kana_address":"ﾎﾝｼﾞｮｳ","pref":"福岡県","city":"宮若市","address":"本城"},
{"zip_code":"8230011","kana_pref":"ﾌｸｵｶｹﾝ","kana_city":"ﾐﾔﾜｶｼ","kana_address":"ﾐﾔﾀ","pref":"福岡県","city":"宮若市","address":"宮田"},
{"zip_code":"8230001","kana_pref":"ﾌｸｵｶｹﾝ","kana_city":"ﾐﾔﾜｶｼ","kana_address":"ﾘｭｳﾄｸ","pref":"福岡県","city":"宮若市","address":"龍徳"}]}