{"zip_code":[
{"zip_code":"8240000","kana_pref":"ﾌｸｵｶｹﾝ","kana_city":"ﾕｸﾊｼｼ","kana_address":"","pref":"福岡県","city":"行橋市","address":""},
{"zip_code":"8240044","kana_pref":"ﾌｸｵｶｹﾝ","kana_city":"ﾕｸﾊｼｼ","kana_address":"ｱﾓｳﾀﾞ","pref":"福岡県","city":"行橋市","address":"天生田"},
{"zip_code":"8240034","kana_pref":"ﾌｸｵｶｹﾝ","kana_city":"ﾕｸﾊｼｼ","kana_address":"ｲｽﾞﾐﾁｭｳｵｳ","pref":"福岡県","city":"行橋市","address":"泉中央"},
{"zip_code":"8240022","kana_pref":"ﾌｸｵｶｹﾝ","kana_city":"ﾕｸﾊｼｼ","kana_address":"ｲﾅﾄﾞｳ","pref":"福岡県","city":"行橋市","address":"稲童"},
{"zip_code":"8240018","kana_pref":"ﾌｸｵｶｹﾝ","kana_city":"ﾕｸﾊｼｼ","kana_address":"ｲﾏｲ","pref":"福岡県","city":"行橋市","address":"今井"},
{"zip_code":"8240045","kana_pref":"ﾌｸｵｶｹﾝ","kana_city":"ﾕｸﾊｼｼ","kana_address":"ｵｵﾀﾆ","pref":"福岡県","city":"行橋市","address":"大谷"},
{"zip_code":"8240041","kana_pref":"ﾌｸｵｶｹﾝ","kana_city":"ﾕｸﾊｼｼ","kana_address":"ｵｵﾉｲ","pref":"福岡県","city":"行橋市","address":"大野井"},
{"zip_code":"8240003","kana_pref":"ﾌｸｵｶｹﾝ","kana_city":"ﾕｸﾊｼｼ","kana_address":"ｵｵﾊｼ","pref":"福岡県","city":"行橋市","address":"大橋"},
{"zip_code":"8240058","kana_pref":"ﾌｸｵｶｹﾝ","kana_city":"ﾕｸﾊｼｼ","kana_address":"ｵｻｷﾞ","pref":"福岡県","city":"行橋市","address":"長木"},
{"zip_code":"8240004","kana_pref":"ﾌｸｵｶｹﾝ","kana_city":"ﾕｸﾊｼｼ","kana_address":"ｶﾅﾔ","pref":"福岡県","city":"行橋市","address":"金屋"},
{"zip_code":"8240052","kana_pref":"ﾌｸｵｶｹﾝ","kana_city":"ﾕｸﾊｼｼ","kana_address":"ｶﾐｹﾝｼﾞ","pref":"福岡県","city":"行橋市","address":"上検地"},
{"zip_code":"8240064","kana_pref":"ﾌｸｵｶｹﾝ","kana_city":"ﾕｸﾊｼｼ","kana_address":"ｶﾐﾂﾞｸﾏ","pref":"福岡県","city":"行橋市","address":"上津熊"},
{"zip_code":"8240055","kana_pref":"ﾌｸｵｶｹﾝ","kana_city":"ﾕｸﾊｼｼ","kana_address":"ｶﾐﾋｴﾀﾞ","pref":"福岡県","city":"行橋市","address":"上稗田"},
{"zip_code":"8240033","kana_pref":"ﾌｸｵｶｹﾝ","kana_city":"ﾕｸﾊｼｼ","kana_address":"ｷﾀｲｽﾞﾐ","pref":"福岡県","city":"行橋市","address":"北泉"},
{"zip_code":"8240001","kana_pref":"ﾌｸｵｶｹﾝ","kana_city":"ﾕｸﾊｼｼ","kana_address":"ｷﾞｮｳｼﾞ","pref":"福岡県","city":"行橋市","address":"行事"},
{"zip_code":"8240061","kana_pref":"ﾌｸｵｶｹﾝ","kana_city":"ﾕｸﾊｼｼ","kana_address":"ｸｻﾉ","pref":"福岡県","city":"行橋市","address":"草野"},
{"zip_code":"8240013","kana_pref":"ﾌｸｵｶｹﾝ","kana_city":"ﾕｸﾊｼｼ","kana_address":"ｸﾂｵ","pref":"福岡県","city":"行橋市","address":"沓尾"},
{"zip_code":"8240051","kana_pref":"ﾌｸｵｶｹﾝ","kana_city":"ﾕｸﾊｼｼ","kana_address":"ｼﾓｹﾝｼﾞ","pref":"福岡県","city":"行橋市","address":"下検地"},
{"zip_code":"8240076","kana_pref":"ﾌｸｵｶｹﾝ","kana_city":"ﾕｸﾊｼｼ","kana_address":"ｼﾓｻｷ","pref":"福岡県","city":"行橋市","address":"下崎"},
{"zip_code":"8240062","kana_pref":"ﾌｸｵｶｹﾝ","kana_city":"ﾕｸﾊｼｼ","kana_address":"ｼﾓﾂﾞｸﾏ","pref":"福岡県","city":"行橋市","address":"下津熊"},
{"zip_code":"8240054","kana_pref":"ﾌｸｵｶｹﾝ","kana_city":"ﾕｸﾊｼｼ","kana_address":"ｼﾓﾋｴﾀﾞ","pref":"福岡県","city":"行橋市","address":"下稗田"},
{"zip_code":"8240007","kana_pref":"ﾌｸｵｶｹﾝ","kana_city":"ﾕｸﾊｼｼ","kana_address":"ｼﾞﾝﾃﾞﾝﾏﾁ","pref":"福岡県","city":"行橋市","address":"神田町"},
{"zip_code":"8240072","kana_pref":"ﾌｸｵｶｹﾝ","kana_city":"ﾕｸﾊｼｼ","kana_address":"ｽﾏｿﾞﾉ","pref":"福岡県","city":"行橋市","address":"須磨園"},
{"zip_code":"8240078","kana_pref":"ﾌｸｵｶｹﾝ","kana_city":"ﾕｸﾊｼｼ","kana_address":"ﾀｶｸ","pref":"福岡県","city":"行橋市","address":"高来"},
{"zip_code":"8240027","kana_pref":"ﾌｸｵｶｹﾝ","kana_city":"ﾕｸﾊｼｼ","kana_address":"ﾀｶｾ","pref":"福岡県","city":"行橋市","address":"高瀬"},
{"zip_code":"8240048","kana_pref":"ﾌｸｵｶｹﾝ","kana_city":"ﾕｸﾊｼｼ","kana_address":"ﾀｶﾗﾔﾏ","pref":"福岡県","city":"行橋市","address":"宝山"},
{"zip_code":"8240005","kana_pref":"ﾌｸｵｶｹﾝ","kana_city":"ﾕｸﾊｼｼ","kana_address":"ﾁｭｳｵｳ","pref":"福岡県","city":"行橋市","address":"中央"},
{"zip_code":"8240065","kana_pref":"ﾌｸｵｶｹﾝ","kana_city":"ﾕｸﾊｼｼ","kana_address":"ﾁｮｳｵﾝｼﾞ","pref":"福岡県","city":"行橋市","address":"長音寺"},
{"zip_code":"8240028","kana_pref":"ﾌｸｵｶｹﾝ","kana_city":"ﾕｸﾊｼｼ","kana_address":"ﾂｼﾞｶｷ","pref":"福岡県","city":"行橋市","address":"辻垣"},
{"zip_code":"8240047","kana_pref":"ﾌｸｵｶｹﾝ","kana_city":"ﾕｸﾊｼｼ","kana_address":"ﾂﾂﾐ","pref":"福岡県","city":"行橋市","address":"津積"},
{"zip_code":"8240074","kana_pref":"ﾌｸｵｶｹﾝ","kana_city":"ﾕｸﾊｼｼ","kana_address":"ﾂﾈﾏﾂ","pref":"福岡県","city":"行橋市","address":"常松"},
{"zip_code":"8240016","kana_pref":"ﾌｸｵｶｹﾝ","kana_city":"ﾕｸﾊｼｼ","kana_address":"ﾂﾙ","pref":"福岡県","city":"行橋市","address":"津留"},
{"zip_code":"8240042","kana_pref":"ﾌｸｵｶｹﾝ","kana_city":"ﾕｸﾊｼｼ","kana_address":"ﾃﾗﾅﾜﾃ","pref":"福岡県","city":"行橋市","address":"寺畔"},
{"zip_code":"8240026","kana_pref":"ﾌｸｵｶｹﾝ","kana_city":"ﾕｸﾊｼｼ","kana_address":"ﾄﾞｳｼﾞｮｳｼﾞ","pref":"福岡県","city":"行橋市","address":"道場寺"},
{"zip_code":"8240071","kana_pref":"ﾌｸｵｶｹﾝ","kana_city":"ﾕｸﾊｼｼ","kana_address":"ﾄｸﾅｶﾞ","pref":"福岡県","city":"行橋市","address":"徳永"},
{"zip_code":"8240053","kana_pref":"ﾌｸｵｶｹﾝ","kana_city":"ﾕｸﾊｼｼ","kana_address":"ﾅｶｶﾞﾜ","pref":"福岡県","city":"行橋市","address":"中川"},
{"zip_code":"8240063","kana_pref":"ﾌｸｵｶｹﾝ","kana_city":"ﾕｸﾊｼｼ","kana_address":"ﾅｶﾂﾞｸﾏ","pref":"福岡県","city":"行橋市","address":"中津熊"},
{"zip_code":"8240014","kana_pref":"ﾌｸｵｶｹﾝ","kana_city":"ﾕｸﾊｼｼ","kana_address":"ﾅｶﾞｲ","pref":"福岡県","city":"行橋市","address":"長井"},
{"zip_code":"8240075","kana_pref":"ﾌｸｵｶｹﾝ","kana_city":"ﾕｸﾊｼｼ","kana_address":"ﾅｶﾞｵ","pref":"福岡県","city":"行橋市","address":"長尾"},
{"zip_code":"8240038","kana_pref":"ﾌｸｵｶｹﾝ","kana_city":"ﾕｸﾊｼｼ","kana_address":"ﾆｼｲｽﾞﾐ","pref":"福岡県","city":"行橋市","address":"西泉"},
{"zip_code":"8240046","kana_pref":"ﾌｸｵｶｹﾝ","kana_city":"ﾕｸﾊｼｼ","kana_address":"ﾆｼﾀﾆ","pref":"福岡県","city":"行橋市","address":"西谷"},
{"zip_code":"8240031","kana_pref":"ﾌｸｵｶｹﾝ","kana_city":"ﾕｸﾊｼｼ","kana_address":"ﾆｼﾐﾔｲﾁ","pref":"福岡県","city":"行橋市","address":"西宮市"},
{"zip_code":"8240077","kana_pref":"ﾌｸｵｶｹﾝ","kana_city":"ﾕｸﾊｼｼ","kana_address":"ﾆｭｳｶﾞｸ","pref":"福岡県","city":"行橋市","address":"入覚"},
{"zip_code":"8240068","kana_pref":"ﾌｸｵｶｹﾝ","kana_city":"ﾕｸﾊｼｼ","kana_address":"ﾉﾌﾞﾅｶﾞ","pref":"福岡県","city":"行橋市","address":"延永"},
{"zip_code":"8240021","kana_pref":"ﾌｸｵｶｹﾝ","kana_city":"ﾕｸﾊｼｼ","kana_address":"ﾊﾞﾊﾞ","pref":"福岡県","city":"行橋市","address":"馬場"},
{"zip_code":"8240035","kana_pref":"ﾌｸｵｶｹﾝ","kana_city":"ﾕｸﾊｼｼ","kana_address":"ﾋｶﾞｼｲｽﾞﾐ","pref":"福岡県","city":"行橋市","address":"東泉"},
{"zip_code":"8240002","kana_pref":"ﾌｸｵｶｹﾝ","kana_city":"ﾕｸﾊｼｼ","kana_address":"ﾋｶﾞｼｵｵﾊｼ","pref":"福岡県","city":"行橋市","address":"東大橋"},
{"zip_code":"8240025","kana_pref":"ﾌｸｵｶｹﾝ","kana_city":"ﾕｸﾊｼｼ","kana_address":"ﾋｶﾞｼﾄｸﾅｶﾞ","pref":"福岡県","city":"行橋市","address":"東徳永"},
{"zip_code":"8240049","kana_pref":"ﾌｸｵｶｹﾝ","kana_city":"ﾕｸﾊｼｼ","kana_address":"ﾌｸﾊﾞﾙ","pref":"福岡県","city":"行橋市","address":"福原"},
{"zip_code":"8240073","kana_pref":"ﾌｸｵｶｹﾝ","kana_city":"ﾕｸﾊｼｼ","kana_address":"ﾌｸﾏﾙ","pref":"福岡県","city":"行橋市","address":"福丸"},
{"zip_code":"8240024","kana_pref":"ﾌｸｵｶｹﾝ","kana_city":"ﾕｸﾊｼｼ","kana_address":"ﾌｸﾛｻｺ","pref":"福岡県","city":"行橋市","address":"袋迫"},
{"zip_code":"8240067","kana_pref":"ﾌｸｵｶｹﾝ","kana_city":"ﾕｸﾊｼｼ","kana_address":"ﾌﾀﾂﾞｶ","pref":"福岡県","city":"行橋市","address":"二塚"},
{"zip_code":"8240012","kana_pref":"ﾌｸｵｶｹﾝ","kana_city":"ﾕｸﾊｼｼ","kana_address":"ﾌﾞﾝｷｭｳ","pref":"福岡県","city":"行橋市","address":"文久"},
{"zip_code":"8240056","kana_pref":"ﾌｸｵｶｹﾝ","kana_city":"ﾕｸﾊｼｼ","kana_address":"ﾏｴﾀﾞ","pref":"福岡県","city":"行橋市","address":"前田"},
{"zip_code":"8240017","kana_pref":"ﾌｸｵｶｹﾝ","kana_city":"ﾕｸﾊｼｼ","kana_address":"ﾏｺﾓ","pref":"福岡県","city":"行橋市","address":"真菰"},
{"zip_code":"8240023","kana_pref":"ﾌｸｵｶｹﾝ","kana_city":"ﾕｸﾊｼｼ","kana_address":"ﾏﾂﾊﾞﾗ","pref":"福岡県","city":"行橋市","address":"松原"},
{"zip_code":"8240036","kana_pref":"ﾌｸｵｶｹﾝ","kana_city":"ﾕｸﾊｼｼ","kana_address":"ﾐﾅﾐｲｽﾞﾐ","pref":"福岡県","city":"行橋市","address":"南泉"},
{"zip_code":"8240032","kana_pref":"ﾌｸｵｶｹﾝ","kana_city":"ﾕｸﾊｼｼ","kana_address":"ﾐﾅﾐｵｵﾊｼ","pref":"福岡県","city":"行橋市","address":"南大橋"},
{"zip_code":"8240011","kana_pref":"ﾌｸｵｶｹﾝ","kana_city":"ﾕｸﾊｼｼ","kana_address":"ﾐﾉｼﾏ","pref":"福岡県","city":"行橋市","address":"蓑島"},
{"zip_code":"8240008","kana_pref":"ﾌｸｵｶｹﾝ","kana_city":"ﾕｸﾊｼｼ","kana_address":"ﾐﾔｲﾁﾏﾁ","pref":"福岡県","city":"行橋市","address":"宮市町"},
{"zip_code":"8240057","kana_pref":"ﾌｸｵｶｹﾝ","kana_city":"ﾕｸﾊｼｼ","kana_address":"ﾐﾔﾉﾓﾘ","pref":"福岡県","city":"行橋市","address":"宮の杜"},
{"zip_code":"8240015","kana_pref":"ﾌｸｵｶｹﾝ","kana_city":"ﾕｸﾊｼｼ","kana_address":"ﾓﾄﾅｶﾞ","pref":"福岡県","city":"行橋市","address":"元永"},
{"zip_code":"8240006","kana_pref":"ﾌｸｵｶｹﾝ","kana_city":"ﾕｸﾊｼｼ","kana_address":"ﾓﾝﾋﾟﾏﾁ","pref":"福岡県","city":"行橋市","address":"門樋町"},
{"zip_code":"8240037","kana_pref":"ﾌｸｵｶｹﾝ","kana_city":"ﾕｸﾊｼｼ","kana_address":"ﾔﾄﾞﾐ","pref":"福岡県","city":"行橋市","address":"矢留"},
{"zip_code":"8240079","kana_pref":"ﾌｸｵｶｹﾝ","kana_city":"ﾕｸﾊｼｼ","kana_address":"ﾔﾔﾏ","pref":"福岡県","city":"行橋市","address":"矢山"},
{"zip_code":"8240066","kana_pref":"ﾌｸｵｶｹﾝ","kana_city":"ﾕｸﾊｼｼ","kana_address":"ﾖｼｸﾆ","pref":"福岡県","city":"行橋市","address":"吉国"},
{"zip_code":"8240043","kana_pref":"ﾌｸｵｶｹﾝ","kana_city":"ﾕｸﾊｼｼ","kana_address":"ﾘｭｳﾏﾂ","pref":"福岡県","city":"行橋市","address":"流末"},
{"zip_code":"8240600","kana_pref":"ﾌｸｵｶｹﾝ","kana_city":"ﾀｶﾞﾜｸﾞﾝｿｴﾀﾞﾏﾁ","kana_address":"","pref":"福岡県","city":"田川郡添田町","address":""},
{"zip_code":"8240722","kana_pref":"ﾌｸｵｶｹﾝ","kana_city":"ﾀｶﾞﾜｸﾞﾝｿｴﾀﾞﾏﾁ","kana_address":"ｵﾁｱｲ","pref":"福岡県","city":"田川郡添田町","address":"落合"},
{"zip_code":"8240601","kana_pref":"ﾌｸｵｶｹﾝ","kana_city":"ﾀｶﾞﾜｸﾞﾝｿｴﾀﾞﾏﾁ","kana_address":"ｼｮｳ","pref":"福岡県","city":"田川郡添田町","address":"庄"},
{"zip_code":"8240602","kana_pref":"ﾌｸｵｶｹﾝ","kana_city":"ﾀｶﾞﾜｸﾞﾝｿｴﾀﾞﾏﾁ","kana_address":"ｿｴﾀﾞ","pref":"福岡県","city":"田川郡添田町","address":"添田"},
{"zip_code":"8240603","kana_pref":"ﾌｸｵｶｹﾝ","kana_city":"ﾀｶﾞﾜｸﾞﾝｿｴﾀﾞﾏﾁ","kana_address":"ﾁｭｳｶﾞﾝｼﾞ","pref":"福岡県","city":"田川郡添田町","address":"中元寺"},
{"zip_code":"8240411","kana_pref":"ﾌｸｵｶｹﾝ","kana_city":"ﾀｶﾞﾜｸﾞﾝｿｴﾀﾞﾏﾁ","kana_address":"ﾂﾉ","pref":"福岡県","city":"田川郡添田町","address":"津野"},
{"zip_code":"8240604","kana_pref":"ﾌｸｵｶｹﾝ","kana_city":"ﾀｶﾞﾜｸﾞﾝｿｴﾀﾞﾏﾁ","kana_address":"ﾉﾀﾞ","pref":"福岡県","city":"田川郡添田町","address":"野田"},
{"zip_code":"8240721","kana_pref":"ﾌｸｵｶｹﾝ","kana_city":"ﾀｶﾞﾜｸﾞﾝｿｴﾀﾞﾏﾁ","kana_address":"ﾋｺｻﾝ","pref":"福岡県","city":"田川郡添田町","address":"英彦山"},
{"zip_code":"8240723","kana_pref":"ﾌｸｵｶｹﾝ","kana_city":"ﾀｶﾞﾜｸﾞﾝｿｴﾀﾞﾏﾁ","kana_address":"ﾏｽﾀﾞ","pref":"福岡県","city":"田川郡添田町","address":"桝田"},
{"zip_code":"8240500","kana_pref":"ﾌｸｵｶｹﾝ","kana_city":"ﾀｶﾞﾜｸﾞﾝｵｵﾄｳﾏﾁ","kana_address":"","pref":"福岡県","city":"田川郡大任町","address":""},
{"zip_code":"8240511","kana_pref":"ﾌｸｵｶｹﾝ","kana_city":"ﾀｶﾞﾜｸﾞﾝｵｵﾄｳﾏﾁ","kana_address":"ｲﾏﾄｳﾊﾞﾙ","pref":"福岡県","city":"田川郡大任町","address":"今任原"},
{"zip_code":"8240512","kana_pref":"ﾌｸｵｶｹﾝ","kana_city":"ﾀｶﾞﾜｸﾞﾝｵｵﾄｳﾏﾁ","kana_address":"ﾀﾞｲｷﾞｮｳｼﾞ","pref":"福岡県","city":"田川郡大任町","address":"大行事"},
{"zip_code":"8240400","kana_pref":"ﾌｸｵｶｹﾝ","kana_city":"ﾀｶﾞﾜｸﾞﾝｱｶﾑﾗ","kana_address":"","pref":"福岡県","city":"田川郡赤村","address":""},
{"zip_code":"8240431","kana_pref":"ﾌｸｵｶｹﾝ","kana_city":"ﾀｶﾞﾜｸﾞﾝｱｶﾑﾗ","kana_address":"ｱｶ","pref":"福岡県","city":"田川郡赤村","address":"赤"},
{"zip_code":"8240432","kana_pref":"ﾌｸｵｶｹﾝ","kana_city":"ﾀｶﾞﾜｸﾞﾝｱｶﾑﾗ","kana_address":"ｳﾁﾀﾞ","pref":"福岡県","city":"田川郡赤村","address":"内田"},
{"zip_code":"8240800","kana_pref":"ﾌｸｵｶｹﾝ","kana_city":"ﾐﾔｺｸﾞﾝﾐﾔｺﾏﾁ","kana_address":"","pref":"福岡県","city":"京都郡みやこ町","address":""},
{"zip_code":"8240102","kana_pref":"ﾌｸｵｶｹﾝ","kana_city":"ﾐﾔｺｸﾞﾝﾐﾔｺﾏﾁ","kana_address":"ｱｻﾞﾐ","pref":"福岡県","city":"京都郡みやこ町","address":"呰見"},
{"zip_code":"8240104","kana_pref":"ﾌｸｵｶｹﾝ","kana_city":"ﾐﾔｺｸﾞﾝﾐﾔｺﾏﾁ","kana_address":"ｱﾔﾉ","pref":"福岡県","city":"京都郡みやこ町","address":"綾野"},
{"zip_code":"8240106","kana_pref":"ﾌｸｵｶｹﾝ","kana_city":"ﾐﾔｺｸﾞﾝﾐﾔｺﾏﾁ","kana_address":"ｱﾘﾋｻ","pref":"福岡県","city":"京都郡みやこ町","address":"有久"},
{"zip_code":"8240211","kana_pref":"ﾌｸｵｶｹﾝ","kana_city":"ﾐﾔｺｸﾞﾝﾐﾔｺﾏﾁ","kana_address":"ｲﾏｻﾄ","pref":"福岡県","city":"京都郡みやこ町","address":"今里"},
{"zip_code":"8240818","kana_pref":"ﾌｸｵｶｹﾝ","kana_city":"ﾐﾔｺｸﾞﾝﾐﾔｺﾏﾁ","kana_address":"ｶﾂﾔﾏｲｹﾀﾞ","pref":"福岡県","city":"京都郡みやこ町","address":"勝山池田"},
{"zip_code":"8240817","kana_pref":"ﾌｸｵｶｹﾝ","kana_city":"ﾐﾔｺｸﾞﾝﾐﾔｺﾏﾁ","kana_address":"ｶﾂﾔﾏｲﾜｸﾞﾏ","pref":"福岡県","city":"京都郡みやこ町","address":"勝山岩熊"},
{"zip_code":"8240821","kana_pref":"ﾌｸｵｶｹﾝ","kana_city":"ﾐﾔｺｸﾞﾝﾐﾔｺﾏﾁ","kana_address":"ｶﾂﾔﾏｳｴﾀﾞ","pref":"福岡県","city":"京都郡みやこ町","address":"勝山上田"},
{"zip_code":"8240814","kana_pref":"ﾌｸｵｶｹﾝ","kana_city":"ﾐﾔｺｸﾞﾝﾐﾔｺﾏﾁ","kana_address":"ｶﾂﾔﾏｳﾗｶﾞﾜﾁ","pref":"福岡県","city":"京都郡みやこ町","address":"勝山浦河内"},
{"zip_code":"8240801","kana_pref":"ﾌｸｵｶｹﾝ","kana_city":"ﾐﾔｺｸﾞﾝﾐﾔｺﾏﾁ","kana_address":"ｶﾂﾔﾏｵｵｸﾎﾞ","pref":"福岡県","city":"京都郡みやこ町","address":"勝山大久保"},
{"zip_code":"8240815","kana_pref":"ﾌｸｵｶｹﾝ","kana_city":"ﾐﾔｺｸﾞﾝﾐﾔｺﾏﾁ","kana_address":"ｶﾂﾔﾏｶﾐﾔﾔﾏ","pref":"福岡県","city":"京都郡みやこ町","address":"勝山上矢山"},
{"zip_code":"8240822","kana_pref":"ﾌｸｵｶｹﾝ","kana_city":"ﾐﾔｺｸﾞﾝﾐﾔｺﾏﾁ","kana_address":"ｶﾂﾔﾏｸﾛﾀﾞ","pref":"福岡県","city":"京都郡みやこ町","address":"勝山黒田"},
{"zip_code":"8240812","kana_pref":"ﾌｸｵｶｹﾝ","kana_city":"ﾐﾔｺｸﾞﾝﾐﾔｺﾏﾁ","kana_address":"ｶﾂﾔﾏﾅｶﾞﾜ","pref":"福岡県","city":"京都郡みやこ町","address":"勝山長川"},
{"zip_code":"8240802","kana_pref":"ﾌｸｵｶｹﾝ","kana_city":"ﾐﾔｺｸﾞﾝﾐﾔｺﾏﾁ","kana_address":"ｶﾂﾔﾏﾏﾂﾀﾞ","pref":"福岡県","city":"京都郡みやこ町","address":"勝山松田"},
{"zip_code":"8240811","kana_pref":"ﾌｸｵｶｹﾝ","kana_city":"ﾐﾔｺｸﾞﾝﾐﾔｺﾏﾁ","kana_address":"ｶﾂﾔﾏﾐﾀﾞ","pref":"福岡県","city":"京都郡みやこ町","address":"勝山箕田"},
{"zip_code":"8240813","kana_pref":"ﾌｸｵｶｹﾝ","kana_city":"ﾐﾔｺｸﾞﾝﾐﾔｺﾏﾁ","kana_address":"ｶﾂﾔﾏﾐﾔﾊﾞﾙ","pref":"福岡県","city":"京都郡みやこ町","address":"勝山宮原"},
{"zip_code":"8240816","kana_pref":"ﾌｸｵｶｹﾝ","kana_city":"ﾐﾔｺｸﾞﾝﾐﾔｺﾏﾁ","kana_address":"ｶﾂﾔﾏﾔﾔﾏ","pref":"福岡県","city":"京都郡みやこ町","address":"勝山矢山"},
{"zip_code":"8240111","kana_pref":"ﾌｸｵｶｹﾝ","kana_city":"ﾐﾔｺｸﾞﾝﾐﾔｺﾏﾁ","kana_address":"ｶﾐｻｶ","pref":"福岡県","city":"京都郡みやこ町","address":"上坂"},
{"zip_code":"8240112","kana_pref":"ﾌｸｵｶｹﾝ","kana_city":"ﾐﾔｺｸﾞﾝﾐﾔｺﾏﾁ","kana_address":"ｶﾝﾊﾞﾙ","pref":"福岡県","city":"京都郡みやこ町","address":"上原"},
{"zip_code":"8240207","kana_pref":"ﾌｸｵｶｹﾝ","kana_city":"ﾐﾔｺｸﾞﾝﾐﾔｺﾏﾁ","kana_address":"ｸﾗﾓﾁ","pref":"福岡県","city":"京都郡みやこ町","address":"蔵持"},
{"zip_code":"8240122","kana_pref":"ﾌｸｵｶｹﾝ","kana_city":"ﾐﾔｺｸﾞﾝﾐﾔｺﾏﾁ","kana_address":"ｹﾝﾄﾞｸ","pref":"福岡県","city":"京都郡みやこ町","address":"彦徳"},
{"zip_code":"8240125","kana_pref":"ﾌｸｵｶｹﾝ","kana_city":"ﾐﾔｺｸﾞﾝﾐﾔｺﾏﾁ","kana_address":"ｺｸｻｸ","pref":"福岡県","city":"京都郡みやこ町","address":"国作"},
{"zip_code":"8240123","kana_pref":"ﾌｸｵｶｹﾝ","kana_city":"ﾐﾔｺｸﾞﾝﾐﾔｺﾏﾁ","kana_address":"ｺｸﾌﾞ","pref":"福岡県","city":"京都郡みやこ町","address":"国分"},
{"zip_code":"8240214","kana_pref":"ﾌｸｵｶｹﾝ","kana_city":"ﾐﾔｺｸﾞﾝﾐﾔｺﾏﾁ","kana_address":"ｻｲｶﾞﾜｱﾌﾞﾐﾊﾀ","pref":"福岡県","city":"京都郡みやこ町","address":"犀川鐙畑"},
{"zip_code":"8240242","kana_pref":"ﾌｸｵｶｹﾝ","kana_city":"ﾐﾔｺｸﾞﾝﾐﾔｺﾏﾁ","kana_address":"ｻｲｶﾞﾜｲﾇﾏﾙ","pref":"福岡県","city":"京都郡みやこ町","address":"犀川犬丸"},
{"zip_code":"8240241","kana_pref":"ﾌｸｵｶｹﾝ","kana_city":"ﾐﾔｺｸﾞﾝﾐﾔｺﾏﾁ","kana_address":"ｻｲｶﾞﾜｳﾁｶﾞｷ","pref":"福岡県","city":"京都郡みやこ町","address":"犀川内垣"},
{"zip_code":"8240215","kana_pref":"ﾌｸｵｶｹﾝ","kana_city":"ﾐﾔｺｸﾞﾝﾐﾔｺﾏﾁ","kana_address":"ｻｲｶﾞﾜｵｲﾀﾂ","pref":"福岡県","city":"京都郡みやこ町","address":"犀川生立"},
{"zip_code":"8240254","kana_pref":"ﾌｸｵｶｹﾝ","kana_city":"ﾐﾔｺｸﾞﾝﾐﾔｺﾏﾁ","kana_address":"ｻｲｶﾞﾜｵｳｷﾞﾀﾞﾆ","pref":"福岡県","city":"京都郡みやこ町","address":"犀川扇谷"},
{"zip_code":"8240212","kana_pref":"ﾌｸｵｶｹﾝ","kana_city":"ﾐﾔｺｸﾞﾝﾐﾔｺﾏﾁ","kana_address":"ｻｲｶﾞﾜｵｵｸﾏ","pref":"福岡県","city":"京都郡みやこ町","address":"犀川大熊"},
{"zip_code":"8240225","kana_pref":"ﾌｸｵｶｹﾝ","kana_city":"ﾐﾔｺｸﾞﾝﾐﾔｺﾏﾁ","kana_address":"ｻｲｶﾞﾜｵｵｻｶ","pref":"福岡県","city":"京都郡みやこ町","address":"犀川大坂"},
{"zip_code":"8240222","kana_pref":"ﾌｸｵｶｹﾝ","kana_city":"ﾐﾔｺｸﾞﾝﾐﾔｺﾏﾁ","kana_address":"ｻｲｶﾞﾜｵｵﾑﾗ","pref":"福岡県","city":"京都郡みやこ町","address":"犀川大村"},
{"zip_code":"8240252","kana_pref":"ﾌｸｵｶｹﾝ","kana_city":"ﾐﾔｺｸﾞﾝﾐﾔｺﾏﾁ","kana_address":"ｻｲｶﾞﾜｶﾐｲﾗﾊﾗ","pref":"福岡県","city":"京都郡みやこ町","address":"犀川上伊良原"},
{"zip_code":"8240202","kana_pref":"ﾌｸｵｶｹﾝ","kana_city":"ﾐﾔｺｸﾞﾝﾐﾔｺﾏﾁ","kana_address":"ｻｲｶﾞﾜｶﾐﾀｶﾔ","pref":"福岡県","city":"京都郡みやこ町","address":"犀川上高屋"},
{"zip_code":"8240243","kana_pref":"ﾌｸｵｶｹﾝ","kana_city":"ﾐﾔｺｸﾞﾝﾐﾔｺﾏﾁ","kana_address":"ｻｲｶﾞﾜｷｲﾊﾞﾊﾞ","pref":"福岡県","city":"京都郡みやこ町","address":"犀川木井馬場"},
{"zip_code":"8240213","kana_pref":"ﾌｸｵｶｹﾝ","kana_city":"ﾐﾔｺｸﾞﾝﾐﾔｺﾏﾁ","kana_address":"ｻｲｶﾞﾜｷﾀﾗ","pref":"福岡県","city":"京都郡みやこ町","address":"犀川喜多良"},
{"zip_code":"8240235","kana_pref":"ﾌｸｵｶｹﾝ","kana_city":"ﾐﾔｺｸﾞﾝﾐﾔｺﾏﾁ","kana_address":"ｻｲｶﾞﾜｷﾔﾏ","pref":"福岡県","city":"京都郡みやこ町","address":"犀川木山"},
{"zip_code":"8240224","kana_pref":"ﾌｸｵｶｹﾝ","kana_city":"ﾐﾔｺｸﾞﾝﾐﾔｺﾏﾁ","kana_address":"ｻｲｶﾞﾜｻｷﾔﾏ","pref":"福岡県","city":"京都郡みやこ町","address":"犀川崎山"},
{"zip_code":"8240251","kana_pref":"ﾌｸｵｶｹﾝ","kana_city":"ﾐﾔｺｸﾞﾝﾐﾔｺﾏﾁ","kana_address":"ｻｲｶﾞﾜｼﾓｲﾗﾊﾗ","pref":"福岡県","city":"京都郡みやこ町","address":"犀川下伊良原"},
{"zip_code":"8240201","kana_pref":"ﾌｸｵｶｹﾝ","kana_city":"ﾐﾔｺｸﾞﾝﾐﾔｺﾏﾁ","kana_address":"ｻｲｶﾞﾜｼﾓﾀｶﾔ","pref":"福岡県","city":"京都郡みやこ町","address":"犀川下高屋"},
{"zip_code":"8240204","kana_pref":"ﾌｸｵｶｹﾝ","kana_city":"ﾐﾔｺｸﾞﾝﾐﾔｺﾏﾁ","kana_address":"ｻｲｶﾞﾜｽｴ","pref":"福岡県","city":"京都郡みやこ町","address":"犀川末江"},
{"zip_code":"8240203","kana_pref":"ﾌｸｵｶｹﾝ","kana_city":"ﾐﾔｺｸﾞﾝﾐﾔｺﾏﾁ","kana_address":"ｻｲｶﾞﾜｿﾞｸﾐｮｳｲﾝ","pref":"福岡県","city":"京都郡みやこ町","address":"犀川続命院"},
{"zip_code":"8240216","kana_pref":"ﾌｸｵｶｹﾝ","kana_city":"ﾐﾔｺｸﾞﾝﾐﾔｺﾏﾁ","kana_address":"ｻｲｶﾞﾜﾀﾆｸﾞﾁ","pref":"福岡県","city":"京都郡みやこ町","address":"犀川谷口"},
{"zip_code":"8240233","kana_pref":"ﾌｸｵｶｹﾝ","kana_city":"ﾐﾔｺｸﾞﾝﾐﾔｺﾏﾁ","kana_address":"ｻｲｶﾞﾜﾊﾅｸﾞﾏ","pref":"福岡県","city":"京都郡みやこ町","address":"犀川花熊"},
{"zip_code":"8240205","kana_pref":"ﾌｸｵｶｹﾝ","kana_city":"ﾐﾔｺｸﾞﾝﾐﾔｺﾏﾁ","kana_address":"ｻｲｶﾞﾜﾋｻﾄﾞﾐ","pref":"福岡県","city":"京都郡みやこ町","address":"犀川久冨"},
{"zip_code":"8240217","kana_pref":"ﾌｸｵｶｹﾝ","kana_city":"ﾐﾔｺｸﾞﾝﾐﾔｺﾏﾁ","kana_address":"ｻｲｶﾞﾜﾌﾙｶﾜ","pref":"福岡県","city":"京都郡みやこ町","address":"犀川古川"},
{"zip_code":"8240253","kana_pref":"ﾌｸｵｶｹﾝ","kana_city":"ﾐﾔｺｸﾞﾝﾐﾔｺﾏﾁ","kana_address":"ｻｲｶﾞﾜﾎﾊﾞｼﾗ","pref":"福岡県","city":"京都郡みやこ町","address":"犀川帆柱"},
{"zip_code":"8240231","kana_pref":"ﾌｸｵｶｹﾝ","kana_city":"ﾐﾔｺｸﾞﾝﾐﾔｺﾏﾁ","kana_address":"ｻｲｶﾞﾜﾎﾝｼﾞｮｳ","pref":"福岡県","city":"京都郡みやこ町","address":"犀川本庄"},
{"zip_code":"8240206","kana_pref":"ﾌｸｵｶｹﾝ","kana_city":"ﾐﾔｺｸﾞﾝﾐﾔｺﾏﾁ","kana_address":"ｻｲｶﾞﾜﾔﾂﾐｿﾞ","pref":"福岡県","city":"京都郡みやこ町","address":"犀川八ツ溝"},
{"zip_code":"8240223","kana_pref":"ﾌｸｵｶｹﾝ","kana_city":"ﾐﾔｺｸﾞﾝﾐﾔｺﾏﾁ","kana_address":"ｻｲｶﾞﾜﾔﾅｾ","pref":"福岡県","city":"京都郡みやこ町","address":"犀川柳瀬"},
{"zip_code":"8240221","kana_pref":"ﾌｸｵｶｹﾝ","kana_city":"ﾐﾔｺｸﾞﾝﾐﾔｺﾏﾁ","kana_address":"ｻｲｶﾞﾜﾔﾏｶﾞ","pref":"福岡県","city":"京都郡みやこ町","address":"犀川山鹿"},
{"zip_code":"8240244","kana_pref":"ﾌｸｵｶｹﾝ","kana_city":"ﾐﾔｺｸﾞﾝﾐﾔｺﾏﾁ","kana_address":"ｻｲｶﾞﾜﾖｺｾ","pref":"福岡県","city":"京都郡みやこ町","address":"犀川横瀬"},
{"zip_code":"8240232","kana_pref":"ﾌｸｵｶｹﾝ","kana_city":"ﾐﾔｺｸﾞﾝﾐﾔｺﾏﾁ","kana_address":"ｻｸﾗﾀﾞｲ","pref":"福岡県","city":"京都郡みやこ町","address":"桜台"},
{"zip_code":"8240234","kana_pref":"ﾌｸｵｶｹﾝ","kana_city":"ﾐﾔｺｸﾞﾝﾐﾔｺﾏﾁ","kana_address":"ｼﾓﾀｶﾔﾀﾞﾝﾁ","pref":"福岡県","city":"京都郡みやこ町","address":"下高屋団地"},
{"zip_code":"8240103","kana_pref":"ﾌｸｵｶｹﾝ","kana_city":"ﾐﾔｺｸﾞﾝﾐﾔｺﾏﾁ","kana_address":"ｼﾓﾊﾞﾙ","pref":"福岡県","city":"京都郡みやこ町","address":"下原"},
{"zip_code":"8240114","kana_pref":"ﾌｸｵｶｹﾝ","kana_city":"ﾐﾔｺｸﾞﾝﾐﾔｺﾏﾁ","kana_address":"ｾﾂﾏﾙ","pref":"福岡県","city":"京都郡みやこ町","address":"節丸"},
{"zip_code":"8240124","kana_pref":"ﾌｸｵｶｹﾝ","kana_city":"ﾐﾔｺｸﾞﾝﾐﾔｺﾏﾁ","kana_address":"ｿｳｼｬ","pref":"福岡県","city":"京都郡みやこ町","address":"惣社"},
{"zip_code":"8240107","kana_pref":"ﾌｸｵｶｹﾝ","kana_city":"ﾐﾔｺｸﾞﾝﾐﾔｺﾏﾁ","kana_address":"ﾀﾅｶ","pref":"福岡県","city":"京都郡みやこ町","address":"田中"},
{"zip_code":"8240105","kana_pref":"ﾌｸｵｶｹﾝ","kana_city":"ﾐﾔｺｸﾞﾝﾐﾔｺﾏﾁ","kana_address":"ﾄｸｾｲ","pref":"福岡県","city":"京都郡みやこ町","address":"徳政"},
{"zip_code":"8240101","kana_pref":"ﾌｸｵｶｹﾝ","kana_city":"ﾐﾔｺｸﾞﾝﾐﾔｺﾏﾁ","kana_address":"ﾄｸﾅｶﾞ","pref":"福岡県","city":"京都郡みやこ町","address":"徳永"},
{"zip_code":"8240121","kana_pref":"ﾌｸｵｶｹﾝ","kana_city":"ﾐﾔｺｸﾞﾝﾐﾔｺﾏﾁ","kana_address":"ﾄﾖﾂ","pref":"福岡県","city":"京都郡みやこ町","address":"豊津"},
{"zip_code":"8240226","kana_pref":"ﾌｸｵｶｹﾝ","kana_city":"ﾐﾔｺｸﾞﾝﾐﾔｺﾏﾁ","kana_address":"ﾏﾂｻｶ","pref":"福岡県","city":"京都郡みやこ町","address":"松坂"},
{"zip_code":"8240115","kana_pref":"ﾌｸｵｶｹﾝ","kana_city":"ﾐﾔｺｸﾞﾝﾐﾔｺﾏﾁ","kana_address":"ﾐﾂﾄﾞﾐ","pref":"福岡県","city":"京都郡みやこ町","address":"光冨"},
{"zip_code":"8240113","kana_pref":"ﾌｸｵｶｹﾝ","kana_city":"ﾐﾔｺｸﾞﾝﾐﾔｺﾏﾁ","kana_address":"ﾖｼｵｶ","pref":"福岡県","city":"京都郡みやこ町","address":"吉岡"}]}