{"zip_code":[
{"zip_code":"8250000","kana_pref":"ﾌｸｵｶｹﾝ","kana_city":"ﾀｶﾞﾜｼ","kana_address":"","pref":"福岡県","city":"田川市","address":""},
{"zip_code":"8250001","kana_pref":"ﾌｸｵｶｹﾝ","kana_city":"ﾀｶﾞﾜｼ","kana_address":"ｲｶﾘ","pref":"福岡県","city":"田川市","address":"伊加利"},
{"zip_code":"8250002","kana_pref":"ﾌｸｵｶｹﾝ","kana_city":"ﾀｶﾞﾜｼ","kana_address":"ｲﾀ","pref":"福岡県","city":"田川市","address":"伊田"},
{"zip_code":"8250015","kana_pref":"ﾌｸｵｶｹﾝ","kana_city":"ﾀｶﾞﾜｼ","kana_address":"ｲﾀﾏﾁ","pref":"福岡県","city":"田川市","address":"伊田町"},
{"zip_code":"8250014","kana_pref":"ﾌｸｵｶｹﾝ","kana_city":"ﾀｶﾞﾜｼ","kana_address":"ｳｵﾏﾁ","pref":"福岡県","city":"田川市","address":"魚町"},
{"zip_code":"8250017","kana_pref":"ﾌｸｵｶｹﾝ","kana_city":"ﾀｶﾞﾜｼ","kana_address":"ｺﾄﾌﾞｷﾏﾁ","pref":"福岡県","city":"田川市","address":"寿町"},
{"zip_code":"8250011","kana_pref":"ﾌｸｵｶｹﾝ","kana_city":"ﾀｶﾞﾜｼ","kana_address":"ｻｶｴﾏﾁ","pref":"福岡県","city":"田川市","address":"栄町"},
{"zip_code":"8250003","kana_pref":"ﾌｸｵｶｹﾝ","kana_city":"ﾀｶﾞﾜｼ","kana_address":"ｼﾗﾄﾘﾏﾁ","pref":"福岡県","city":"田川市","address":"白鳥町"},
{"zip_code":"8250016","kana_pref":"ﾌｸｵｶｹﾝ","kana_city":"ﾀｶﾞﾜｼ","kana_address":"ｼﾝﾏﾁ","pref":"福岡県","city":"田川市","address":"新町"},
{"zip_code":"8250013","kana_pref":"ﾌｸｵｶｹﾝ","kana_city":"ﾀｶﾞﾜｼ","kana_address":"ﾁｭｳｵｳﾏﾁ","pref":"福岡県","city":"田川市","address":"中央町"},
{"zip_code":"8250004","kana_pref":"ﾌｸｵｶｹﾝ","kana_city":"ﾀｶﾞﾜｼ","kana_address":"ﾅﾂﾖｼ","pref":"福岡県","city":"田川市","address":"夏吉"},
{"zip_code":"8250018","kana_pref":"ﾌｸｵｶｹﾝ","kana_city":"ﾀｶﾞﾜｼ","kana_address":"ﾊﾞﾝﾀﾞﾏﾁ","pref":"福岡県","city":"田川市","address":"番田町"},
{"zip_code":"8250012","kana_pref":"ﾌｸｵｶｹﾝ","kana_city":"ﾀｶﾞﾜｼ","kana_address":"ﾋﾉﾃﾞﾏﾁ","pref":"福岡県","city":"田川市","address":"日の出町"},
{"zip_code":"8250005","kana_pref":"ﾌｸｵｶｹﾝ","kana_city":"ﾀｶﾞﾜｼ","kana_address":"ﾎｼｲ","pref":"福岡県","city":"田川市","address":"糒"}]}