{"zip_code":[
{"zip_code":"8260044","kana_pref":"ﾌｸｵｶｹﾝ","kana_city":"ﾀｶﾞﾜｼ","kana_address":"ｲﾄｳ","pref":"福岡県","city":"田川市","address":"位登"},
{"zip_code":"8260045","kana_pref":"ﾌｸｵｶｹﾝ","kana_city":"ﾀｶﾞﾜｼ","kana_address":"ｲﾉｸﾆ","pref":"福岡県","city":"田川市","address":"猪国"},
{"zip_code":"8260026","kana_pref":"ﾌｸｵｶｹﾝ","kana_city":"ﾀｶﾞﾜｼ","kana_address":"ｶｽｶﾞﾏﾁ","pref":"福岡県","city":"田川市","address":"春日町"},
{"zip_code":"8260023","kana_pref":"ﾌｸｵｶｹﾝ","kana_city":"ﾀｶﾞﾜｼ","kana_address":"ｶﾐﾎﾝﾏﾁ","pref":"福岡県","city":"田川市","address":"上本町"},
{"zip_code":"8260042","kana_pref":"ﾌｸｵｶｹﾝ","kana_city":"ﾀｶﾞﾜｼ","kana_address":"ｶﾜﾐﾔ","pref":"福岡県","city":"田川市","address":"川宮"},
{"zip_code":"8260021","kana_pref":"ﾌｸｵｶｹﾝ","kana_city":"ﾀｶﾞﾜｼ","kana_address":"ｻｸﾗﾏﾁ","pref":"福岡県","city":"田川市","address":"桜町"},
{"zip_code":"8260025","kana_pref":"ﾌｸｵｶｹﾝ","kana_city":"ﾀｶﾞﾜｼ","kana_address":"ﾀﾞｲｺｸﾏﾁ","pref":"福岡県","city":"田川市","address":"大黒町"},
{"zip_code":"8260031","kana_pref":"ﾌｸｵｶｹﾝ","kana_city":"ﾀｶﾞﾜｼ","kana_address":"ﾁﾖﾏﾁ","pref":"福岡県","city":"田川市","address":"千代町"},
{"zip_code":"8260043","kana_pref":"ﾌｸｵｶｹﾝ","kana_city":"ﾀｶﾞﾜｼ","kana_address":"ﾅﾗ(ｱｵﾊﾞﾁｮｳ","pref":"福岡県","city":"田川市","address":"奈良（青葉町"},
{"zip_code":"8260043","kana_pref":"ﾌｸｵｶｹﾝ","kana_city":"ﾀｶﾞﾜｼ","kana_address":"ｵｵｳﾗ","pref":"福岡県","city":"田川市","address":"大浦"},
{"zip_code":"8260043","kana_pref":"ﾌｸｵｶｹﾝ","kana_city":"ﾀｶﾞﾜｼ","kana_address":"ｶｲｼｬﾏﾁ","pref":"福岡県","city":"田川市","address":"会社町"},
{"zip_code":"8260043","kana_pref":"ﾌｸｵｶｹﾝ","kana_city":"ﾀｶﾞﾜｼ","kana_address":"ｶｽﾐｶﾞｵｶ","pref":"福岡県","city":"田川市","address":"霞ケ丘"},
{"zip_code":"8260043","kana_pref":"ﾌｸｵｶｹﾝ","kana_city":"ﾀｶﾞﾜｼ","kana_address":"ｺﾞﾄｳｼﾞﾆｼﾀﾞﾝﾁ","pref":"福岡県","city":"田川市","address":"後藤寺西団地"},
{"zip_code":"8260043","kana_pref":"ﾌｸｵｶｹﾝ","kana_city":"ﾀｶﾞﾜｼ","kana_address":"ｺﾞﾄｳｼﾞﾋｶﾞｼﾀﾞﾝﾁ","pref":"福岡県","city":"田川市","address":"後藤寺東団地"},
{"zip_code":"8260043","kana_pref":"ﾌｸｵｶｹﾝ","kana_city":"ﾀｶﾞﾜｼ","kana_address":"ﾉｿﾞﾐｶﾞｵｶ","pref":"福岡県","city":"田川市","address":"希望ケ丘"},
{"zip_code":"8260043","kana_pref":"ﾌｸｵｶｹﾝ","kana_city":"ﾀｶﾞﾜｼ","kana_address":"","pref":"福岡県","city":"田川市","address":""},
{"zip_code":"8260043","kana_pref":"ﾌｸｵｶｹﾝ","kana_city":"ﾀｶﾞﾜｼ","kana_address":"ﾏﾂﾉｷ","pref":"福岡県","city":"田川市","address":"松の木"},
{"zip_code":"8260043","kana_pref":"ﾌｸｵｶｹﾝ","kana_city":"ﾀｶﾞﾜｼ","kana_address":"ﾐﾂｲｺﾞﾄｳｼﾞ","pref":"福岡県","city":"田川市","address":"三井後藤寺"},
{"zip_code":"8260043","kana_pref":"ﾌｸｵｶｹﾝ","kana_city":"ﾀｶﾞﾜｼ","kana_address":"ﾐﾄﾞﾘﾏﾁ","pref":"福岡県","city":"田川市","address":"緑町"},
{"zip_code":"8260043","kana_pref":"ﾌｸｵｶｹﾝ","kana_city":"ﾀｶﾞﾜｼ","kana_address":"ﾂｷﾐｶﾞｵｶ)","pref":"福岡県","city":"田川市","address":"月見ケ丘）"},
{"zip_code":"8260024","kana_pref":"ﾌｸｵｶｹﾝ","kana_city":"ﾀｶﾞﾜｼ","kana_address":"ﾆｼﾎﾝﾏﾁ","pref":"福岡県","city":"田川市","address":"西本町"},
{"zip_code":"8260032","kana_pref":"ﾌｸｵｶｹﾝ","kana_city":"ﾀｶﾞﾜｼ","kana_address":"ﾋﾗﾏﾂﾏﾁ","pref":"福岡県","city":"田川市","address":"平松町"},
{"zip_code":"8260022","kana_pref":"ﾌｸｵｶｹﾝ","kana_city":"ﾀｶﾞﾜｼ","kana_address":"ﾎﾝﾏﾁ","pref":"福岡県","city":"田川市","address":"本町"},
{"zip_code":"8260033","kana_pref":"ﾌｸｵｶｹﾝ","kana_city":"ﾀｶﾞﾜｼ","kana_address":"ﾏﾙﾔﾏﾏﾁ","pref":"福岡県","city":"田川市","address":"丸山町"},
{"zip_code":"8260027","kana_pref":"ﾌｸｵｶｹﾝ","kana_city":"ﾀｶﾞﾜｼ","kana_address":"ﾐﾔｵﾏﾁ","pref":"福岡県","city":"田川市","address":"宮尾町"},
{"zip_code":"8260041","kana_pref":"ﾌｸｵｶｹﾝ","kana_city":"ﾀｶﾞﾜｼ","kana_address":"ﾕｹﾞﾀ","pref":"福岡県","city":"田川市","address":"弓削田"},
{"zip_code":"8260002","kana_pref":"ﾌｸｵｶｹﾝ","kana_city":"ﾀｶﾞﾜｸﾞﾝｶﾜｻｷﾏﾁ","kana_address":"ｲｹｼﾞﾘ","pref":"福岡県","city":"田川郡川崎町","address":"池尻"}]}