{"zip_code":[
{"zip_code":"8290100","kana_pref":"ﾌｸｵｶｹﾝ","kana_city":"ﾁｸｼﾞｮｳｸﾞﾝﾁｸｼﾞｮｳﾏﾁ","kana_address":"","pref":"福岡県","city":"築上郡築上町","address":""},
{"zip_code":"8290112","kana_pref":"ﾌｸｵｶｹﾝ","kana_city":"ﾁｸｼﾞｮｳｸﾞﾝﾁｸｼﾞｮｳﾏﾁ","kana_address":"ｱｶﾊﾀ","pref":"福岡県","city":"築上郡築上町","address":"赤幡"},
{"zip_code":"8290315","kana_pref":"ﾌｸｵｶｹﾝ","kana_city":"ﾁｸｼﾞｮｳｸﾞﾝﾁｸｼﾞｮｳﾏﾁ","kana_address":"ｱｶﾞﾘﾏﾂ","pref":"福岡県","city":"築上郡築上町","address":"上り松"},
{"zip_code":"8290313","kana_pref":"ﾌｸｵｶｹﾝ","kana_city":"ﾁｸｼﾞｮｳｸﾞﾝﾁｸｼﾞｮｳﾏﾁ","kana_address":"ｱﾘﾔｽ","pref":"福岡県","city":"築上郡築上町","address":"有安"},
{"zip_code":"8290312","kana_pref":"ﾌｸｵｶｹﾝ","kana_city":"ﾁｸｼﾞｮｳｸﾞﾝﾁｸｼﾞｮｳﾏﾁ","kana_address":"ｲｼﾄﾞｳ","pref":"福岡県","city":"築上郡築上町","address":"石堂"},
{"zip_code":"8290124","kana_pref":"ﾌｸｵｶｹﾝ","kana_city":"ﾁｸｼﾞｮｳｸﾞﾝﾁｸｼﾞｮｳﾏﾁ","kana_address":"ｲﾁｷﾞﾊﾞﾙ","pref":"福岡県","city":"築上郡築上町","address":"櫟原"},
{"zip_code":"8290335","kana_pref":"ﾌｸｵｶｹﾝ","kana_city":"ﾁｸｼﾞｮｳｸﾞﾝﾁｸｼﾞｮｳﾏﾁ","kana_address":"ｲﾜﾏﾙ","pref":"福岡県","city":"築上郡築上町","address":"岩丸"},
{"zip_code":"8290314","kana_pref":"ﾌｸｵｶｹﾝ","kana_city":"ﾁｸｼﾞｮｳｸﾞﾝﾁｸｼﾞｮｳﾏﾁ","kana_address":"ｳｴﾉｶﾜﾁ","pref":"福岡県","city":"築上郡築上町","address":"上ノ河内"},
{"zip_code":"8290302","kana_pref":"ﾌｸｵｶｹﾝ","kana_city":"ﾁｸｼﾞｮｳｸﾞﾝﾁｸｼﾞｮｳﾏﾁ","kana_address":"ｳｽﾀﾞ","pref":"福岡県","city":"築上郡築上町","address":"臼田"},
{"zip_code":"8290341","kana_pref":"ﾌｸｵｶｹﾝ","kana_city":"ﾁｸｼﾞｮｳｸﾞﾝﾁｸｼﾞｮｳﾏﾁ","kana_address":"ｳﾙﾂﾞ","pref":"福岡県","city":"築上郡築上町","address":"宇留津"},
{"zip_code":"8290304","kana_pref":"ﾌｸｵｶｹﾝ","kana_city":"ﾁｸｼﾞｮｳｸﾞﾝﾁｸｼﾞｮｳﾏﾁ","kana_address":"ｵﾊﾞﾗ","pref":"福岡県","city":"築上郡築上町","address":"小原"},
{"zip_code":"8290104","kana_pref":"ﾌｸｵｶｹﾝ","kana_city":"ﾁｸｼﾞｮｳｸﾞﾝﾁｸｼﾞｮｳﾏﾁ","kana_address":"ｵﾔﾏﾀﾞ","pref":"福岡県","city":"築上郡築上町","address":"小山田"},
{"zip_code":"8290114","kana_pref":"ﾌｸｵｶｹﾝ","kana_city":"ﾁｸｼﾞｮｳｸﾞﾝﾁｸｼﾞｮｳﾏﾁ","kana_address":"ｶﾐｺｳﾗｸ","pref":"福岡県","city":"築上郡築上町","address":"上香楽"},
{"zip_code":"8290115","kana_pref":"ﾌｸｵｶｹﾝ","kana_city":"ﾁｸｼﾞｮｳｸﾞﾝﾁｸｼﾞｮｳﾏﾁ","kana_address":"ｶﾐﾌｶﾉ","pref":"福岡県","city":"築上郡築上町","address":"上深野"},
{"zip_code":"8290105","kana_pref":"ﾌｸｵｶｹﾝ","kana_city":"ﾁｸｼﾞｮｳｸﾞﾝﾁｸｼﾞｮｳﾏﾁ","kana_address":"ｶﾐﾍﾞﾌ","pref":"福岡県","city":"築上郡築上町","address":"上別府"},
{"zip_code":"8290117","kana_pref":"ﾌｸｵｶｹﾝ","kana_city":"ﾁｸｼﾞｮｳｸﾞﾝﾁｸｼﾞｮｳﾏﾁ","kana_address":"ｹｻﾏﾙ","pref":"福岡県","city":"築上郡築上町","address":"袈裟丸"},
{"zip_code":"8290332","kana_pref":"ﾌｸｵｶｹﾝ","kana_city":"ﾁｸｼﾞｮｳｸﾞﾝﾁｸｼﾞｮｳﾏﾁ","kana_address":"ｺｲｼﾞ","pref":"福岡県","city":"築上郡築上町","address":"越路"},
{"zip_code":"8290323","kana_pref":"ﾌｸｵｶｹﾝ","kana_city":"ﾁｸｼﾞｮｳｸﾞﾝﾁｸｼﾞｮｳﾏﾁ","kana_address":"ｺﾞｸﾗｸｼﾞ","pref":"福岡県","city":"築上郡築上町","address":"極楽寺"},
{"zip_code":"8290321","kana_pref":"ﾌｸｵｶｹﾝ","kana_city":"ﾁｸｼﾞｮｳｸﾞﾝﾁｸｼﾞｮｳﾏﾁ","kana_address":"ｻｶﾓﾄ","pref":"福岡県","city":"築上郡築上町","address":"坂本"},
{"zip_code":"8290125","kana_pref":"ﾌｸｵｶｹﾝ","kana_city":"ﾁｸｼﾞｮｳｸﾞﾝﾁｸｼﾞｮｳﾏﾁ","kana_address":"ｻﾜﾀﾞ","pref":"福岡県","city":"築上郡築上町","address":"寒田"},
{"zip_code":"8290301","kana_pref":"ﾌｸｵｶｹﾝ","kana_city":"ﾁｸｼﾞｮｳｸﾞﾝﾁｸｼﾞｮｳﾏﾁ","kana_address":"ｼｲﾀﾞ","pref":"福岡県","city":"築上郡築上町","address":"椎田"},
{"zip_code":"8290113","kana_pref":"ﾌｸｵｶｹﾝ","kana_city":"ﾁｸｼﾞｮｳｸﾞﾝﾁｸｼﾞｮｳﾏﾁ","kana_address":"ｼﾓｺｳﾗｸ","pref":"福岡県","city":"築上郡築上町","address":"下香楽"},
{"zip_code":"8290116","kana_pref":"ﾌｸｵｶｹﾝ","kana_city":"ﾁｸｼﾞｮｳｸﾞﾝﾁｸｼﾞｮｳﾏﾁ","kana_address":"ｼﾓﾌｶﾉ","pref":"福岡県","city":"築上郡築上町","address":"下深野"},
{"zip_code":"8290108","kana_pref":"ﾌｸｵｶｹﾝ","kana_city":"ﾁｸｼﾞｮｳｸﾞﾝﾁｸｼﾞｮｳﾏﾁ","kana_address":"ｼﾓﾍﾞﾌ","pref":"福岡県","city":"築上郡築上町","address":"下別府"},
{"zip_code":"8290305","kana_pref":"ﾌｸｵｶｹﾝ","kana_city":"ﾁｸｼﾞｮｳｸﾞﾝﾁｸｼﾞｮｳﾏﾁ","kana_address":"ｼﾝﾆｮｳｼﾞ","pref":"福岡県","city":"築上郡築上町","address":"真如寺"},
{"zip_code":"8290331","kana_pref":"ﾌｸｵｶｹﾝ","kana_city":"ﾁｸｼﾞｮｳｸﾞﾝﾁｸｼﾞｮｳﾏﾁ","kana_address":"ﾀｶﾂｶ","pref":"福岡県","city":"築上郡築上町","address":"高塚"},
{"zip_code":"8290102","kana_pref":"ﾌｸｵｶｹﾝ","kana_city":"ﾁｸｼﾞｮｳｸﾞﾝﾁｸｼﾞｮｳﾏﾁ","kana_address":"ﾂｲｷ","pref":"福岡県","city":"築上郡築上町","address":"築城"},
{"zip_code":"8290122","kana_pref":"ﾌｸｵｶｹﾝ","kana_city":"ﾁｸｼﾞｮｳｸﾞﾝﾁｸｼﾞｮｳﾏﾁ","kana_address":"ﾃﾞﾝﾎﾞｳｼﾞ","pref":"福岡県","city":"築上郡築上町","address":"伝法寺"},
{"zip_code":"8290334","kana_pref":"ﾌｸｵｶｹﾝ","kana_city":"ﾁｸｼﾞｮｳｸﾞﾝﾁｸｼﾞｮｳﾏﾁ","kana_address":"ﾅｺﾞ","pref":"福岡県","city":"築上郡築上町","address":"奈古"},
{"zip_code":"8290151","kana_pref":"ﾌｸｵｶｹﾝ","kana_city":"ﾁｸｼﾞｮｳｸﾞﾝﾁｸｼﾞｮｳﾏﾁ","kana_address":"ﾆｼﾊｯﾀ","pref":"福岡県","city":"築上郡築上町","address":"西八田"},
{"zip_code":"8290343","kana_pref":"ﾌｸｵｶｹﾝ","kana_city":"ﾁｸｼﾞｮｳｸﾞﾝﾁｸｼﾞｮｳﾏﾁ","kana_address":"ﾆｼﾊｯﾀ","pref":"福岡県","city":"築上郡築上町","address":"西八田"},
{"zip_code":"8290101","kana_pref":"ﾌｸｵｶｹﾝ","kana_city":"ﾁｸｼﾞｮｳｸﾞﾝﾁｸｼﾞｮｳﾏﾁ","kana_address":"ﾋｶﾞｼﾂｲｷ","pref":"福岡県","city":"築上郡築上町","address":"東築城"},
{"zip_code":"8290342","kana_pref":"ﾌｸｵｶｹﾝ","kana_city":"ﾁｸｼﾞｮｳｸﾞﾝﾁｸｼﾞｮｳﾏﾁ","kana_address":"ﾋｶﾞｼﾊｯﾀ","pref":"福岡県","city":"築上郡築上町","address":"東八田"},
{"zip_code":"8290322","kana_pref":"ﾌｸｵｶｹﾝ","kana_city":"ﾁｸｼﾞｮｳｸﾞﾝﾁｸｼﾞｮｳﾏﾁ","kana_address":"ﾋﾅｺﾞ","pref":"福岡県","city":"築上郡築上町","address":"日奈古"},
{"zip_code":"8290103","kana_pref":"ﾌｸｵｶｹﾝ","kana_city":"ﾁｸｼﾞｮｳｸﾞﾝﾁｸｼﾞｮｳﾏﾁ","kana_address":"ﾋﾛｽｴ","pref":"福岡県","city":"築上郡築上町","address":"広末"},
{"zip_code":"8290106","kana_pref":"ﾌｸｵｶｹﾝ","kana_city":"ﾁｸｼﾞｮｳｸﾞﾝﾁｸｼﾞｮｳﾏﾁ","kana_address":"ﾌﾅｻｺ","pref":"福岡県","city":"築上郡築上町","address":"船迫"},
{"zip_code":"8290123","kana_pref":"ﾌｸｵｶｹﾝ","kana_city":"ﾁｸｼﾞｮｳｸﾞﾝﾁｸｼﾞｮｳﾏﾁ","kana_address":"ﾎﾝｼﾞｮｳ","pref":"福岡県","city":"築上郡築上町","address":"本庄"},
{"zip_code":"8290121","kana_pref":"ﾌｸｵｶｹﾝ","kana_city":"ﾁｸｼﾞｮｳｸﾞﾝﾁｸｼﾞｮｳﾏﾁ","kana_address":"ﾏﾂﾏﾙ","pref":"福岡県","city":"築上郡築上町","address":"松丸"},
{"zip_code":"8290333","kana_pref":"ﾌｸｵｶｹﾝ","kana_city":"ﾁｸｼﾞｮｳｸﾞﾝﾁｸｼﾞｮｳﾏﾁ","kana_address":"ﾐｽﾞﾊﾗ","pref":"福岡県","city":"築上郡築上町","address":"水原"},
{"zip_code":"8290311","kana_pref":"ﾌｸｵｶｹﾝ","kana_city":"ﾁｸｼﾞｮｳｸﾞﾝﾁｸｼﾞｮｳﾏﾁ","kana_address":"ﾐﾅﾄ","pref":"福岡県","city":"築上郡築上町","address":"湊"},
{"zip_code":"8290111","kana_pref":"ﾌｸｵｶｹﾝ","kana_city":"ﾁｸｼﾞｮｳｸﾞﾝﾁｸｼﾞｮｳﾏﾁ","kana_address":"ﾔｽﾀｹ","pref":"福岡県","city":"築上郡築上町","address":"安武"},
{"zip_code":"8290303","kana_pref":"ﾌｸｵｶｹﾝ","kana_city":"ﾁｸｼﾞｮｳｸﾞﾝﾁｸｼﾞｮｳﾏﾁ","kana_address":"ﾔﾏﾓﾄ","pref":"福岡県","city":"築上郡築上町","address":"山本"},
{"zip_code":"8290107","kana_pref":"ﾌｸｵｶｹﾝ","kana_city":"ﾁｸｼﾞｮｳｸﾞﾝﾁｸｼﾞｮｳﾏﾁ","kana_address":"ﾕﾐﾉｼ","pref":"福岡県","city":"築上郡築上町","address":"弓の師"}]}