{"zip_code":[
{"zip_code":"8300011","kana_pref":"ﾌｸｵｶｹﾝ","kana_city":"ｸﾙﾒｼ","kana_address":"ｱｻﾋﾏﾁ","pref":"福岡県","city":"久留米市","address":"旭町"},
{"zip_code":"8300029","kana_pref":"ﾌｸｵｶｹﾝ","kana_city":"ｸﾙﾒｼ","kana_address":"ｱﾗｲﾏﾁ","pref":"福岡県","city":"久留米市","address":"洗町"},
{"zip_code":"8300063","kana_pref":"ﾌｸｵｶｹﾝ","kana_city":"ｸﾙﾒｼ","kana_address":"ｱﾗｷﾏﾁｱﾗｷ","pref":"福岡県","city":"久留米市","address":"荒木町荒木"},
{"zip_code":"8300065","kana_pref":"ﾌｸｵｶｹﾝ","kana_city":"ｸﾙﾒｼ","kana_address":"ｱﾗｷﾏﾁｲﾏ","pref":"福岡県","city":"久留米市","address":"荒木町今"},
{"zip_code":"8300066","kana_pref":"ﾌｸｵｶｹﾝ","kana_city":"ｸﾙﾒｼ","kana_address":"ｱﾗｷﾏﾁｼﾓｱﾗｷ","pref":"福岡県","city":"久留米市","address":"荒木町下荒木"},
{"zip_code":"8300062","kana_pref":"ﾌｸｵｶｹﾝ","kana_city":"ｸﾙﾒｼ","kana_address":"ｱﾗｷﾏﾁｼﾗｸﾁ","pref":"福岡県","city":"久留米市","address":"荒木町白口"},
{"zip_code":"8300064","kana_pref":"ﾌｸｵｶｹﾝ","kana_city":"ｸﾙﾒｼ","kana_address":"ｱﾗｷﾏﾁﾌｼﾞﾀ","pref":"福岡県","city":"久留米市","address":"荒木町藤田"},
{"zip_code":"8300048","kana_pref":"ﾌｸｵｶｹﾝ","kana_city":"ｸﾙﾒｼ","kana_address":"ｳﾒﾐﾂﾏﾁ","pref":"福岡県","city":"久留米市","address":"梅満町"},
{"zip_code":"8300059","kana_pref":"ﾌｸｵｶｹﾝ","kana_city":"ｸﾙﾒｼ","kana_address":"ｴﾄﾞﾔｼｷ","pref":"福岡県","city":"久留米市","address":"江戸屋敷"},
{"zip_code":"8300049","kana_pref":"ﾌｸｵｶｹﾝ","kana_city":"ｸﾙﾒｼ","kana_address":"ｵｵｲｼﾏﾁ","pref":"福岡県","city":"久留米市","address":"大石町"},
{"zip_code":"8300034","kana_pref":"ﾌｸｵｶｹﾝ","kana_city":"ｸﾙﾒｼ","kana_address":"ｵｵﾃﾏﾁ","pref":"福岡県","city":"久留米市","address":"大手町"},
{"zip_code":"8300055","kana_pref":"ﾌｸｵｶｹﾝ","kana_city":"ｸﾙﾒｼ","kana_address":"ｶﾐﾂ","pref":"福岡県","city":"久留米市","address":"上津"},
{"zip_code":"8300052","kana_pref":"ﾌｸｵｶｹﾝ","kana_city":"ｸﾙﾒｼ","kana_address":"ｶﾐﾂﾏﾁ","pref":"福岡県","city":"久留米市","address":"上津町"},
{"zip_code":"8301127","kana_pref":"ﾌｸｵｶｹﾝ","kana_city":"ｸﾙﾒｼ","kana_address":"ｷﾀﾉﾏﾁｱｶｼ","pref":"福岡県","city":"久留米市","address":"北野町赤司"},
{"zip_code":"8301116","kana_pref":"ﾌｸｵｶｹﾝ","kana_city":"ｸﾙﾒｼ","kana_address":"ｷﾀﾉﾏﾁｲｼｻﾞｷ","pref":"福岡県","city":"久留米市","address":"北野町石崎"},
{"zip_code":"8301126","kana_pref":"ﾌｸｵｶｹﾝ","kana_city":"ｸﾙﾒｼ","kana_address":"ｷﾀﾉﾏﾁｲﾅｶｽﾞ","pref":"福岡県","city":"久留米市","address":"北野町稲数"},
{"zip_code":"8301122","kana_pref":"ﾌｸｵｶｹﾝ","kana_city":"ｸﾙﾒｼ","kana_address":"ｷﾀﾉﾏﾁｲﾏﾔﾏ","pref":"福岡県","city":"久留米市","address":"北野町今山"},
{"zip_code":"8301104","kana_pref":"ﾌｸｵｶｹﾝ","kana_city":"ｸﾙﾒｼ","kana_address":"ｷﾀﾉﾏﾁｵｵｷ","pref":"福岡県","city":"久留米市","address":"北野町大城"},
{"zip_code":"8301125","kana_pref":"ﾌｸｵｶｹﾝ","kana_city":"ｸﾙﾒｼ","kana_address":"ｷﾀﾉﾏﾁｵﾄﾏﾙ","pref":"福岡県","city":"久留米市","address":"北野町乙丸"},
{"zip_code":"8301124","kana_pref":"ﾌｸｵｶｹﾝ","kana_city":"ｸﾙﾒｼ","kana_address":"ｷﾀﾉﾏﾁｵﾄﾖｼ","pref":"福岡県","city":"久留米市","address":"北野町乙吉"},
{"zip_code":"8301103","kana_pref":"ﾌｸｵｶｹﾝ","kana_city":"ｸﾙﾒｼ","kana_address":"ｷﾀﾉﾏﾁｶﾈｼﾏ","pref":"福岡県","city":"久留米市","address":"北野町金島"},
{"zip_code":"8301117","kana_pref":"ﾌｸｵｶｹﾝ","kana_city":"ｸﾙﾒｼ","kana_address":"ｷﾀﾉﾏﾁｶﾐﾕｹﾞ","pref":"福岡県","city":"久留米市","address":"北野町上弓削"},
{"zip_code":"8301114","kana_pref":"ﾌｸｵｶｹﾝ","kana_city":"ｸﾙﾒｼ","kana_address":"ｷﾀﾉﾏﾁｺｳﾗ","pref":"福岡県","city":"久留米市","address":"北野町高良"},
{"zip_code":"8301121","kana_pref":"ﾌｸｵｶｹﾝ","kana_city":"ｸﾙﾒｼ","kana_address":"ｷﾀﾉﾏﾁｼﾞｭｳﾛｳﾏﾙ","pref":"福岡県","city":"久留米市","address":"北野町十郎丸"},
{"zip_code":"8301112","kana_pref":"ﾌｸｵｶｹﾝ","kana_city":"ｸﾙﾒｼ","kana_address":"ｷﾀﾉﾏﾁｼﾞﾝﾔ","pref":"福岡県","city":"久留米市","address":"北野町陣屋"},
{"zip_code":"8301111","kana_pref":"ﾌｸｵｶｹﾝ","kana_city":"ｸﾙﾒｼ","kana_address":"ｷﾀﾉﾏﾁﾁﾖｼﾞﾏ","pref":"福岡県","city":"久留米市","address":"北野町千代島"},
{"zip_code":"8301107","kana_pref":"ﾌｸｵｶｹﾝ","kana_city":"ｸﾙﾒｼ","kana_address":"ｷﾀﾉﾏﾁﾂｶｼﾞﾏ","pref":"福岡県","city":"久留米市","address":"北野町塚島"},
{"zip_code":"8301123","kana_pref":"ﾌｸｵｶｹﾝ","kana_city":"ｸﾙﾒｼ","kana_address":"ｷﾀﾉﾏﾁﾄﾐﾀ","pref":"福岡県","city":"久留米市","address":"北野町冨多"},
{"zip_code":"8301115","kana_pref":"ﾌｸｵｶｹﾝ","kana_city":"ｸﾙﾒｼ","kana_address":"ｷﾀﾉﾏﾁﾄﾘｽ","pref":"福岡県","city":"久留米市","address":"北野町鳥巣"},
{"zip_code":"8301113","kana_pref":"ﾌｸｵｶｹﾝ","kana_city":"ｸﾙﾒｼ","kana_address":"ｷﾀﾉﾏﾁﾅｶ","pref":"福岡県","city":"久留米市","address":"北野町中"},
{"zip_code":"8301101","kana_pref":"ﾌｸｵｶｹﾝ","kana_city":"ｸﾙﾒｼ","kana_address":"ｷﾀﾉﾏﾁﾅｶｶﾞﾜ","pref":"福岡県","city":"久留米市","address":"北野町中川"},
{"zip_code":"8301105","kana_pref":"ﾌｸｵｶｹﾝ","kana_city":"ｸﾙﾒｼ","kana_address":"ｷﾀﾉﾏﾁﾅｶｼﾏ","pref":"福岡県","city":"久留米市","address":"北野町中島"},
{"zip_code":"8301106","kana_pref":"ﾌｸｵｶｹﾝ","kana_city":"ｸﾙﾒｼ","kana_address":"ｷﾀﾉﾏﾁﾆｵｳﾏﾙ","pref":"福岡県","city":"久留米市","address":"北野町仁王丸"},
{"zip_code":"8301102","kana_pref":"ﾌｸｵｶｹﾝ","kana_city":"ｸﾙﾒｼ","kana_address":"ｷﾀﾉﾏﾁﾔｴｶﾞﾒ","pref":"福岡県","city":"久留米市","address":"北野町八重亀"},
{"zip_code":"8300028","kana_pref":"ﾌｸｵｶｹﾝ","kana_city":"ｸﾙﾒｼ","kana_address":"ｷｮｳﾏﾁ","pref":"福岡県","city":"久留米市","address":"京町"},
{"zip_code":"8300013","kana_pref":"ﾌｸｵｶｹﾝ","kana_city":"ｸﾙﾒｼ","kana_address":"ｸｼﾊﾗﾏﾁ","pref":"福岡県","city":"久留米市","address":"櫛原町"},
{"zip_code":"8300045","kana_pref":"ﾌｸｵｶｹﾝ","kana_city":"ｸﾙﾒｼ","kana_address":"ｺｶﾞｼﾗﾏﾁ","pref":"福岡県","city":"久留米市","address":"小頭町"},
{"zip_code":"8300001","kana_pref":"ﾌｸｵｶｹﾝ","kana_city":"ｸﾙﾒｼ","kana_address":"ｺﾓﾘﾉ","pref":"福岡県","city":"久留米市","address":"小森野"},
{"zip_code":"8300021","kana_pref":"ﾌｸｵｶｹﾝ","kana_city":"ｸﾙﾒｼ","kana_address":"ｻｻﾔﾏﾏﾁ","pref":"福岡県","city":"久留米市","address":"篠山町"},
{"zip_code":"8300036","kana_pref":"ﾌｸｵｶｹﾝ","kana_city":"ｸﾙﾒｼ","kana_address":"ｼﾉﾊﾗﾏﾁ","pref":"福岡県","city":"久留米市","address":"篠原町"},
{"zip_code":"8300042","kana_pref":"ﾌｸｵｶｹﾝ","kana_city":"ｸﾙﾒｼ","kana_address":"ｼｮｳｼﾞﾏﾏﾁ","pref":"福岡県","city":"久留米市","address":"荘島町"},
{"zip_code":"8300222","kana_pref":"ﾌｸｵｶｹﾝ","kana_city":"ｸﾙﾒｼ","kana_address":"ｼﾞｮｳｼﾞﾏﾏﾁｱｵｷｼﾏ","pref":"福岡県","city":"久留米市","address":"城島町青木島"},
{"zip_code":"8300201","kana_pref":"ﾌｸｵｶｹﾝ","kana_city":"ｸﾙﾒｼ","kana_address":"ｼﾞｮｳｼﾞﾏﾏﾁｱｼﾂﾞｶ","pref":"福岡県","city":"久留米市","address":"城島町芦塚"},
{"zip_code":"8300221","kana_pref":"ﾌｸｵｶｹﾝ","kana_city":"ｸﾙﾒｼ","kana_address":"ｼﾞｮｳｼﾞﾏﾏﾁｳｷｼﾏ","pref":"福岡県","city":"久留米市","address":"城島町浮島"},
{"zip_code":"8300204","kana_pref":"ﾌｸｵｶｹﾝ","kana_city":"ｸﾙﾒｼ","kana_address":"ｼﾞｮｳｼﾞﾏﾏﾁｳﾁﾉ","pref":"福岡県","city":"久留米市","address":"城島町内野"},
{"zip_code":"8300213","kana_pref":"ﾌｸｵｶｹﾝ","kana_city":"ｸﾙﾒｼ","kana_address":"ｼﾞｮｳｼﾞﾏﾏﾁｴｶﾞﾐ","pref":"福岡県","city":"久留米市","address":"城島町江上"},
{"zip_code":"8300212","kana_pref":"ﾌｸｵｶｹﾝ","kana_city":"ｸﾙﾒｼ","kana_address":"ｼﾞｮｳｼﾞﾏﾏﾁｴｶﾞﾐｶﾐ","pref":"福岡県","city":"久留米市","address":"城島町江上上"},
{"zip_code":"8300214","kana_pref":"ﾌｸｵｶｹﾝ","kana_city":"ｸﾙﾒｼ","kana_address":"ｼﾞｮｳｼﾞﾏﾏﾁｴｶﾞﾐﾎﾝ","pref":"福岡県","city":"久留米市","address":"城島町江上本"},
{"zip_code":"8300216","kana_pref":"ﾌｸｵｶｹﾝ","kana_city":"ｸﾙﾒｼ","kana_address":"ｼﾞｮｳｼﾞﾏﾏﾁｴｼﾏ","pref":"福岡県","city":"久留米市","address":"城島町江島"},
{"zip_code":"8300205","kana_pref":"ﾌｸｵｶｹﾝ","kana_city":"ｸﾙﾒｼ","kana_address":"ｼﾞｮｳｼﾞﾏﾏﾁｵｵﾖﾘ","pref":"福岡県","city":"久留米市","address":"城島町大依"},
{"zip_code":"8300224","kana_pref":"ﾌｸｵｶｹﾝ","kana_city":"ｸﾙﾒｼ","kana_address":"ｼﾞｮｳｼﾞﾏﾏﾁｶﾐｱｵｷ","pref":"福岡県","city":"久留米市","address":"城島町上青木"},
{"zip_code":"8300225","kana_pref":"ﾌｸｵｶｹﾝ","kana_city":"ｸﾙﾒｼ","kana_address":"ｼﾞｮｳｼﾞﾏﾏﾁｼﾓｱｵｷ","pref":"福岡県","city":"久留米市","address":"城島町下青木"},
{"zip_code":"8300202","kana_pref":"ﾌｸｵｶｹﾝ","kana_city":"ｸﾙﾒｼ","kana_address":"ｼﾞｮｳｼﾞﾏﾏﾁｼﾓﾀﾞ","pref":"福岡県","city":"久留米市","address":"城島町下田"},
{"zip_code":"8300207","kana_pref":"ﾌｸｵｶｹﾝ","kana_city":"ｸﾙﾒｼ","kana_address":"ｼﾞｮｳｼﾞﾏﾏﾁｼﾞｮｳｼﾞﾏ","pref":"福岡県","city":"久留米市","address":"城島町城島"},
{"zip_code":"8300223","kana_pref":"ﾌｸｵｶｹﾝ","kana_city":"ｸﾙﾒｼ","kana_address":"ｼﾞｮｳｼﾞﾏﾏﾁｼﾛｳﾏﾙ","pref":"福岡県","city":"久留米市","address":"城島町四郎丸"},
{"zip_code":"8300211","kana_pref":"ﾌｸｵｶｹﾝ","kana_city":"ｸﾙﾒｼ","kana_address":"ｼﾞｮｳｼﾞﾏﾏﾁﾅﾗﾂ","pref":"福岡県","city":"久留米市","address":"城島町楢津"},
{"zip_code":"8300226","kana_pref":"ﾌｸｵｶｹﾝ","kana_city":"ｸﾙﾒｼ","kana_address":"ｼﾞｮｳｼﾞﾏﾏﾁﾆｼｱｵｷ","pref":"福岡県","city":"久留米市","address":"城島町西青木"},
{"zip_code":"8300203","kana_pref":"ﾌｸｵｶｹﾝ","kana_city":"ｸﾙﾒｼ","kana_address":"ｼﾞｮｳｼﾞﾏﾏﾁﾊﾏ","pref":"福岡県","city":"久留米市","address":"城島町浜"},
{"zip_code":"8300215","kana_pref":"ﾌｸｵｶｹﾝ","kana_city":"ｸﾙﾒｼ","kana_address":"ｼﾞｮｳｼﾞﾏﾏﾁﾊﾗﾅｶﾑﾀ","pref":"福岡県","city":"久留米市","address":"城島町原中牟田"},
{"zip_code":"8300206","kana_pref":"ﾌｸｵｶｹﾝ","kana_city":"ｸﾙﾒｼ","kana_address":"ｼﾞｮｳｼﾞﾏﾏﾁﾛｸﾁｮｳﾊﾞﾙ","pref":"福岡県","city":"久留米市","address":"城島町六町原"},
{"zip_code":"8300022","kana_pref":"ﾌｸｵｶｹﾝ","kana_city":"ｸﾙﾒｼ","kana_address":"ｼﾞｮｳﾅﾝﾏﾁ","pref":"福岡県","city":"久留米市","address":"城南町"},
{"zip_code":"8300041","kana_pref":"ﾌｸｵｶｹﾝ","kana_city":"ｸﾙﾒｼ","kana_address":"ｼﾗﾔﾏﾏﾁ","pref":"福岡県","city":"久留米市","address":"白山町"},
{"zip_code":"8300037","kana_pref":"ﾌｸｵｶｹﾝ","kana_city":"ｸﾙﾒｼ","kana_address":"ｽﾜﾉﾏﾁ","pref":"福岡県","city":"久留米市","address":"諏訪野町"},
{"zip_code":"8300025","kana_pref":"ﾌｸｵｶｹﾝ","kana_city":"ｸﾙﾒｼ","kana_address":"ｾﾉｼﾀﾏﾁ","pref":"福岡県","city":"久留米市","address":"瀬下町"},
{"zip_code":"8300079","kana_pref":"ﾌｸｵｶｹﾝ","kana_city":"ｸﾙﾒｼ","kana_address":"ﾀﾞｲｾﾞﾝｼﾞｵｵﾊｼ","pref":"福岡県","city":"久留米市","address":"大善寺大橋"},
{"zip_code":"8300075","kana_pref":"ﾌｸｵｶｹﾝ","kana_city":"ｸﾙﾒｼ","kana_address":"ﾀﾞｲｾﾞﾝｼﾞﾏﾁｸﾛﾀﾞ","pref":"福岡県","city":"久留米市","address":"大善寺町黒田"},
{"zip_code":"8300077","kana_pref":"ﾌｸｵｶｹﾝ","kana_city":"ｸﾙﾒｼ","kana_address":"ﾀﾞｲｾﾞﾝｼﾞﾏﾁﾅｶﾂ","pref":"福岡県","city":"久留米市","address":"大善寺町中津"},
{"zip_code":"8300076","kana_pref":"ﾌｸｵｶｹﾝ","kana_city":"ｸﾙﾒｼ","kana_address":"ﾀﾞｲｾﾞﾝｼﾞﾏﾁﾌｼﾞﾖｼ","pref":"福岡県","city":"久留米市","address":"大善寺町藤吉"},
{"zip_code":"8300073","kana_pref":"ﾌｸｵｶｹﾝ","kana_city":"ｸﾙﾒｼ","kana_address":"ﾀﾞｲｾﾞﾝｼﾞﾏﾁﾐﾔﾓﾄ","pref":"福岡県","city":"久留米市","address":"大善寺町宮本"},
{"zip_code":"8300074","kana_pref":"ﾌｸｵｶｹﾝ","kana_city":"ｸﾙﾒｼ","kana_address":"ﾀﾞｲｾﾞﾝｼﾞﾏﾁﾖｱｹ","pref":"福岡県","city":"久留米市","address":"大善寺町夜明"},
{"zip_code":"8300070","kana_pref":"ﾌｸｵｶｹﾝ","kana_city":"ｸﾙﾒｼ","kana_address":"ﾀﾞｲｾﾞﾝｼﾞﾐﾅﾐ","pref":"福岡県","city":"久留米市","address":"大善寺南"},
{"zip_code":"8300002","kana_pref":"ﾌｸｵｶｹﾝ","kana_city":"ｸﾙﾒｼ","kana_address":"ﾀｶﾉ","pref":"福岡県","city":"久留米市","address":"高野"},
{"zip_code":"8300023","kana_pref":"ﾌｸｵｶｹﾝ","kana_city":"ｸﾙﾒｼ","kana_address":"ﾁｭｳｵｳﾏﾁ","pref":"福岡県","city":"久留米市","address":"中央町"},
{"zip_code":"8300061","kana_pref":"ﾌｸｵｶｹﾝ","kana_city":"ｸﾙﾒｼ","kana_address":"ﾂﾌﾞｸｲﾏﾏﾁ","pref":"福岡県","city":"久留米市","address":"津福今町"},
{"zip_code":"8300047","kana_pref":"ﾌｸｵｶｹﾝ","kana_city":"ｸﾙﾒｼ","kana_address":"ﾂﾌﾞｸﾎﾝﾏﾁ","pref":"福岡県","city":"久留米市","address":"津福本町"},
{"zip_code":"8300014","kana_pref":"ﾌｸｵｶｹﾝ","kana_city":"ｸﾙﾒｼ","kana_address":"ﾃﾗﾏﾁ","pref":"福岡県","city":"久留米市","address":"寺町"},
{"zip_code":"8300033","kana_pref":"ﾌｸｵｶｹﾝ","kana_city":"ｸﾙﾒｼ","kana_address":"ﾃﾝｼﾞﾝﾏﾁ","pref":"福岡県","city":"久留米市","address":"天神町"},
{"zip_code":"8300035","kana_pref":"ﾌｸｵｶｹﾝ","kana_city":"ｸﾙﾒｼ","kana_address":"ﾄｳﾜﾏﾁ","pref":"福岡県","city":"久留米市","address":"東和町"},
{"zip_code":"8300016","kana_pref":"ﾌｸｵｶｹﾝ","kana_city":"ｸﾙﾒｼ","kana_address":"ﾄｵﾘﾋｶﾞｼﾏﾁ","pref":"福岡県","city":"久留米市","address":"通東町"},
{"zip_code":"8300005","kana_pref":"ﾌｸｵｶｹﾝ","kana_city":"ｸﾙﾒｼ","kana_address":"ﾄｵﾘﾎｶﾏﾁ","pref":"福岡県","city":"久留米市","address":"通外町"},
{"zip_code":"8300018","kana_pref":"ﾌｸｵｶｹﾝ","kana_city":"ｸﾙﾒｼ","kana_address":"ﾄｵﾘﾏﾁ","pref":"福岡県","city":"久留米市","address":"通町"},
{"zip_code":"8300027","kana_pref":"ﾌｸｵｶｹﾝ","kana_city":"ｸﾙﾒｼ","kana_address":"ﾅｶﾞﾄｲｼ","pref":"福岡県","city":"久留米市","address":"長門石"},
{"zip_code":"8300026","kana_pref":"ﾌｸｵｶｹﾝ","kana_city":"ｸﾙﾒｼ","kana_address":"ﾅｶﾞﾄｲｼﾏﾁ","pref":"福岡県","city":"久留米市","address":"長門石町"},
{"zip_code":"8300024","kana_pref":"ﾌｸｵｶｹﾝ","kana_city":"ｸﾙﾒｼ","kana_address":"ﾅﾜﾃﾏﾁ","pref":"福岡県","city":"久留米市","address":"縄手町"},
{"zip_code":"8300006","kana_pref":"ﾌｸｵｶｹﾝ","kana_city":"ｸﾙﾒｼ","kana_address":"ﾅﾝｸﾝﾆｼﾏﾁ","pref":"福岡県","city":"久留米市","address":"南薫西町"},
{"zip_code":"8300004","kana_pref":"ﾌｸｵｶｹﾝ","kana_city":"ｸﾙﾒｼ","kana_address":"ﾅﾝｸﾝﾏﾁ","pref":"福岡県","city":"久留米市","address":"南薫町"},
{"zip_code":"8300038","kana_pref":"ﾌｸｵｶｹﾝ","kana_city":"ｸﾙﾒｼ","kana_address":"ﾆｼﾏﾁ","pref":"福岡県","city":"久留米市","address":"西町"},
{"zip_code":"8300058","kana_pref":"ﾌｸｵｶｹﾝ","kana_city":"ｸﾙﾒｼ","kana_address":"ﾉﾌﾞｽﾏ","pref":"福岡県","city":"久留米市","address":"野伏間"},
{"zip_code":"8300039","kana_pref":"ﾌｸｵｶｹﾝ","kana_city":"ｸﾙﾒｼ","kana_address":"ﾊﾅﾊﾞﾀｹ","pref":"福岡県","city":"久留米市","address":"花畑"},
{"zip_code":"8300046","kana_pref":"ﾌｸｵｶｹﾝ","kana_city":"ｸﾙﾒｼ","kana_address":"ﾊﾗﾝｺｶﾞﾏﾁ","pref":"福岡県","city":"久留米市","address":"原古賀町"},
{"zip_code":"8300003","kana_pref":"ﾌｸｵｶｹﾝ","kana_city":"ｸﾙﾒｼ","kana_address":"ﾋｶﾞｼｸｼﾊﾗﾏﾁ","pref":"福岡県","city":"久留米市","address":"東櫛原町"},
{"zip_code":"8300032","kana_pref":"ﾌｸｵｶｹﾝ","kana_city":"ｸﾙﾒｼ","kana_address":"ﾋｶﾞｼﾏﾁ","pref":"福岡県","city":"久留米市","address":"東町"},
{"zip_code":"8300012","kana_pref":"ﾌｸｵｶｹﾝ","kana_city":"ｸﾙﾒｼ","kana_address":"ﾋﾉﾃﾞﾏﾁ","pref":"福岡県","city":"久留米市","address":"日ノ出町"},
{"zip_code":"8300017","kana_pref":"ﾌｸｵｶｹﾝ","kana_city":"ｸﾙﾒｼ","kana_address":"ﾋﾖｼﾏﾁ","pref":"福岡県","city":"久留米市","address":"日吉町"},
{"zip_code":"8300057","kana_pref":"ﾌｸｵｶｹﾝ","kana_city":"ｸﾙﾒｼ","kana_address":"ﾌｼﾞﾐﾂ","pref":"福岡県","city":"久留米市","address":"藤光"},
{"zip_code":"8300054","kana_pref":"ﾌｸｵｶｹﾝ","kana_city":"ｸﾙﾒｼ","kana_address":"ﾌｼﾞﾐﾂﾏﾁ","pref":"福岡県","city":"久留米市","address":"藤光町"},
{"zip_code":"8300053","kana_pref":"ﾌｸｵｶｹﾝ","kana_city":"ｸﾙﾒｼ","kana_address":"ﾌｼﾞﾔﾏﾏﾁ","pref":"福岡県","city":"久留米市","address":"藤山町"},
{"zip_code":"8300015","kana_pref":"ﾌｸｵｶｹﾝ","kana_city":"ｸﾙﾒｼ","kana_address":"ﾎﾀﾙｶﾞﾜﾏﾁ","pref":"福岡県","city":"久留米市","address":"螢川町"},
{"zip_code":"8300044","kana_pref":"ﾌｸｵｶｹﾝ","kana_city":"ｸﾙﾒｼ","kana_address":"ﾎﾝﾏﾁ","pref":"福岡県","city":"久留米市","address":"本町"},
{"zip_code":"8300043","kana_pref":"ﾌｸｵｶｹﾝ","kana_city":"ｸﾙﾒｼ","kana_address":"ﾏﾂｶﾞｴﾏﾁ","pref":"福岡県","city":"久留米市","address":"松ケ枝町"},
{"zip_code":"8300113","kana_pref":"ﾌｸｵｶｹﾝ","kana_city":"ｸﾙﾒｼ","kana_address":"ﾐﾂﾞﾏﾏﾁｲｷｲﾜ","pref":"福岡県","city":"久留米市","address":"三潴町生岩"},
{"zip_code":"8300115","kana_pref":"ﾌｸｵｶｹﾝ","kana_city":"ｸﾙﾒｼ","kana_address":"ﾐﾂﾞﾏﾏﾁｲｯﾁｮｳﾊﾞﾙ","pref":"福岡県","city":"久留米市","address":"三潴町壱町原"},
{"zip_code":"8300116","kana_pref":"ﾌｸｵｶｹﾝ","kana_city":"ｸﾙﾒｼ","kana_address":"ﾐﾂﾞﾏﾏﾁｷﾖﾏﾂ","pref":"福岡県","city":"久留米市","address":"三潴町清松"},
{"zip_code":"8300105","kana_pref":"ﾌｸｵｶｹﾝ","kana_city":"ｸﾙﾒｼ","kana_address":"ﾐﾂﾞﾏﾏﾁｸｻﾊﾞ","pref":"福岡県","city":"久留米市","address":"三潴町草場"},
{"zip_code":"8300103","kana_pref":"ﾌｸｵｶｹﾝ","kana_city":"ｸﾙﾒｼ","kana_address":"ﾐﾂﾞﾏﾏﾁﾀｶﾐｽﾞﾏ","pref":"福岡県","city":"久留米市","address":"三潴町高三潴"},
{"zip_code":"8300102","kana_pref":"ﾌｸｵｶｹﾝ","kana_city":"ｸﾙﾒｼ","kana_address":"ﾐﾂﾞﾏﾏﾁﾀｶﾞﾜ","pref":"福岡県","city":"久留米市","address":"三潴町田川"},
{"zip_code":"8300112","kana_pref":"ﾌｸｵｶｹﾝ","kana_city":"ｸﾙﾒｼ","kana_address":"ﾐﾂﾞﾏﾏﾁﾀﾏﾐﾂ","pref":"福岡県","city":"久留米市","address":"三潴町玉満"},
{"zip_code":"8300111","kana_pref":"ﾌｸｵｶｹﾝ","kana_city":"ｸﾙﾒｼ","kana_address":"ﾐﾂﾞﾏﾏﾁﾆｼﾑﾀ","pref":"福岡県","city":"久留米市","address":"三潴町西牟田"},
{"zip_code":"8300101","kana_pref":"ﾌｸｵｶｹﾝ","kana_city":"ｸﾙﾒｼ","kana_address":"ﾐﾂﾞﾏﾏﾁﾊﾔﾂｻﾞｷ","pref":"福岡県","city":"久留米市","address":"三潴町早津崎"},
{"zip_code":"8300104","kana_pref":"ﾌｸｵｶｹﾝ","kana_city":"ｸﾙﾒｼ","kana_address":"ﾐﾂﾞﾏﾏﾁﾊﾙﾀﾞ","pref":"福岡県","city":"久留米市","address":"三潴町原田"},
{"zip_code":"8300114","kana_pref":"ﾌｸｵｶｹﾝ","kana_city":"ｸﾙﾒｼ","kana_address":"ﾐﾂﾞﾏﾏﾁﾌｸﾐﾂ","pref":"福岡県","city":"久留米市","address":"三潴町福光"},
{"zip_code":"8300051","kana_pref":"ﾌｸｵｶｹﾝ","kana_city":"ｸﾙﾒｼ","kana_address":"ﾐﾅﾐ","pref":"福岡県","city":"久留米市","address":"南"},
{"zip_code":"8300031","kana_pref":"ﾌｸｵｶｹﾝ","kana_city":"ｸﾙﾒｼ","kana_address":"ﾑﾂﾓﾝﾏﾁ","pref":"福岡県","city":"久留米市","address":"六ツ門町"},
{"zip_code":"8300056","kana_pref":"ﾌｸｵｶｹﾝ","kana_city":"ｸﾙﾒｼ","kana_address":"ﾓﾄﾔﾏ","pref":"福岡県","city":"久留米市","address":"本山"},
{"zip_code":"8300078","kana_pref":"ﾌｸｵｶｹﾝ","kana_city":"ｸﾙﾒｼ","kana_address":"ﾔｽﾀｹﾏﾁｽﾐﾖｼ","pref":"福岡県","city":"久留米市","address":"安武町住吉"},
{"zip_code":"8300071","kana_pref":"ﾌｸｵｶｹﾝ","kana_city":"ｸﾙﾒｼ","kana_address":"ﾔｽﾀｹﾏﾁﾀｹｼﾏ","pref":"福岡県","city":"久留米市","address":"安武町武島"},
{"zip_code":"8300072","kana_pref":"ﾌｸｵｶｹﾝ","kana_city":"ｸﾙﾒｼ","kana_address":"ﾔｽﾀｹﾏﾁﾔｽﾀｹﾎﾝ","pref":"福岡県","city":"久留米市","address":"安武町安武本"},
{"zip_code":"8301200","kana_pref":"ﾌｸｵｶｹﾝ","kana_city":"ﾐｲｸﾞﾝﾀﾁｱﾗｲﾏﾁ","kana_address":"","pref":"福岡県","city":"三井郡大刀洗町","address":""},
{"zip_code":"8301223","kana_pref":"ﾌｸｵｶｹﾝ","kana_city":"ﾐｲｸﾞﾝﾀﾁｱﾗｲﾏﾁ","kana_address":"ｲﾏ","pref":"福岡県","city":"三井郡大刀洗町","address":"今"},
{"zip_code":"8301224","kana_pref":"ﾌｸｵｶｹﾝ","kana_city":"ﾐｲｸﾞﾝﾀﾁｱﾗｲﾏﾁ","kana_address":"ｳﾉｷ","pref":"福岡県","city":"三井郡大刀洗町","address":"鵜木"},
{"zip_code":"8301213","kana_pref":"ﾌｸｵｶｹﾝ","kana_city":"ﾐｲｸﾞﾝﾀﾁｱﾗｲﾏﾁ","kana_address":"ｶｽｶﾞ","pref":"福岡県","city":"三井郡大刀洗町","address":"春日"},
{"zip_code":"8301222","kana_pref":"ﾌｸｵｶｹﾝ","kana_city":"ﾐｲｸﾞﾝﾀﾁｱﾗｲﾏﾁ","kana_address":"ｶﾐﾀｶﾊｼ","pref":"福岡県","city":"三井郡大刀洗町","address":"上高橋"},
{"zip_code":"8301212","kana_pref":"ﾌｸｵｶｹﾝ","kana_city":"ﾐｲｸﾞﾝﾀﾁｱﾗｲﾏﾁ","kana_address":"ｺｳﾁｮｳ","pref":"福岡県","city":"三井郡大刀洗町","address":"甲条"},
{"zip_code":"8301214","kana_pref":"ﾌｸｵｶｹﾝ","kana_city":"ﾐｲｸﾞﾝﾀﾁｱﾗｲﾏﾁ","kana_address":"ｻｶｴﾀﾞ","pref":"福岡県","city":"三井郡大刀洗町","address":"栄田"},
{"zip_code":"8301225","kana_pref":"ﾌｸｵｶｹﾝ","kana_city":"ﾐｲｸﾞﾝﾀﾁｱﾗｲﾏﾁ","kana_address":"ｼﾓﾀｶﾊｼ","pref":"福岡県","city":"三井郡大刀洗町","address":"下高橋"},
{"zip_code":"8301202","kana_pref":"ﾌｸｵｶｹﾝ","kana_city":"ﾐｲｸﾞﾝﾀﾁｱﾗｲﾏﾁ","kana_address":"ｽｶﾞﾉ","pref":"福岡県","city":"三井郡大刀洗町","address":"菅野"},
{"zip_code":"8301221","kana_pref":"ﾌｸｵｶｹﾝ","kana_city":"ﾐｲｸﾞﾝﾀﾁｱﾗｲﾏﾁ","kana_address":"ﾀｶｴ","pref":"福岡県","city":"三井郡大刀洗町","address":"高樋"},
{"zip_code":"8301201","kana_pref":"ﾌｸｵｶｹﾝ","kana_city":"ﾐｲｸﾞﾝﾀﾁｱﾗｲﾏﾁ","kana_address":"ﾄﾐﾀ","pref":"福岡県","city":"三井郡大刀洗町","address":"冨多"},
{"zip_code":"8301206","kana_pref":"ﾌｸｵｶｹﾝ","kana_city":"ﾐｲｸﾞﾝﾀﾁｱﾗｲﾏﾁ","kana_address":"ﾅｶｶﾞﾜ","pref":"福岡県","city":"三井郡大刀洗町","address":"中川"},
{"zip_code":"8301204","kana_pref":"ﾌｸｵｶｹﾝ","kana_city":"ﾐｲｸﾞﾝﾀﾁｱﾗｲﾏﾁ","kana_address":"ﾆｼﾊﾞﾙ","pref":"福岡県","city":"三井郡大刀洗町","address":"西原"},
{"zip_code":"8301211","kana_pref":"ﾌｸｵｶｹﾝ","kana_city":"ﾐｲｸﾞﾝﾀﾁｱﾗｲﾏﾁ","kana_address":"ﾎﾝｺﾞｳ","pref":"福岡県","city":"三井郡大刀洗町","address":"本郷"},
{"zip_code":"8301203","kana_pref":"ﾌｸｵｶｹﾝ","kana_city":"ﾐｲｸﾞﾝﾀﾁｱﾗｲﾏﾁ","kana_address":"ﾐｶﾜ","pref":"福岡県","city":"三井郡大刀洗町","address":"三川"},
{"zip_code":"8301205","kana_pref":"ﾌｸｵｶｹﾝ","kana_city":"ﾐｲｸﾞﾝﾀﾁｱﾗｲﾏﾁ","kana_address":"ﾓﾙﾍﾞ","pref":"福岡県","city":"三井郡大刀洗町","address":"守部"},
{"zip_code":"8301226","kana_pref":"ﾌｸｵｶｹﾝ","kana_city":"ﾐｲｸﾞﾝﾀﾁｱﾗｲﾏﾁ","kana_address":"ﾔﾏｸﾞﾏ","pref":"福岡県","city":"三井郡大刀洗町","address":"山隈"},
{"zip_code":"8300400","kana_pref":"ﾌｸｵｶｹﾝ","kana_city":"ﾐｽﾞﾏｸﾞﾝｵｵｷﾏﾁ","kana_address":"","pref":"福岡県","city":"三潴郡大木町","address":""},
{"zip_code":"8300425","kana_pref":"ﾌｸｵｶｹﾝ","kana_city":"ﾐｽﾞﾏｸﾞﾝｵｵｷﾏﾁ","kana_address":"ｲｶﾀﾞﾐｿﾞ","pref":"福岡県","city":"三潴郡大木町","address":"筏溝"},
{"zip_code":"8300415","kana_pref":"ﾌｸｵｶｹﾝ","kana_city":"ﾐｽﾞﾏｸﾞﾝｵｵｷﾏﾁ","kana_address":"ｴｹﾞｺｶﾞ","pref":"福岡県","city":"三潴郡大木町","address":"絵下古賀"},
{"zip_code":"8300403","kana_pref":"ﾌｸｵｶｹﾝ","kana_city":"ﾐｽﾞﾏｸﾞﾝｵｵｷﾏﾁ","kana_address":"ｵｵｽﾞﾐ","pref":"福岡県","city":"三潴郡大木町","address":"大角"},
{"zip_code":"8300423","kana_pref":"ﾌｸｵｶｹﾝ","kana_city":"ﾐｽﾞﾏｸﾞﾝｵｵｷﾏﾁ","kana_address":"ｵｵﾔﾌﾞ","pref":"福岡県","city":"三潴郡大木町","address":"大藪"},
{"zip_code":"8300421","kana_pref":"ﾌｸｵｶｹﾝ","kana_city":"ﾐｽﾞﾏｸﾞﾝｵｵｷﾏﾁ","kana_address":"ｵｸﾑﾀ","pref":"福岡県","city":"三潴郡大木町","address":"奥牟田"},
{"zip_code":"8300414","kana_pref":"ﾌｸｵｶｹﾝ","kana_city":"ﾐｽﾞﾏｸﾞﾝｵｵｷﾏﾁ","kana_address":"ｶﾐｷｻｷ","pref":"福岡県","city":"三潴郡大木町","address":"上木佐木"},
{"zip_code":"8300404","kana_pref":"ﾌｸｵｶｹﾝ","kana_city":"ﾐｽﾞﾏｸﾞﾝｵｵｷﾏﾁ","kana_address":"ｶﾐｼﾗｶｷ","pref":"福岡県","city":"三潴郡大木町","address":"上白垣"},
{"zip_code":"8300417","kana_pref":"ﾌｸｵｶｹﾝ","kana_city":"ﾐｽﾞﾏｸﾞﾝｵｵｷﾏﾁ","kana_address":"ｶﾐﾊﾁｲﾝ","pref":"福岡県","city":"三潴郡大木町","address":"上八院"},
{"zip_code":"8300413","kana_pref":"ﾌｸｵｶｹﾝ","kana_city":"ﾐｽﾞﾏｸﾞﾝｵｵｷﾏﾁ","kana_address":"ｶﾐﾑﾀｸﾞﾁ","pref":"福岡県","city":"三潴郡大木町","address":"上牟田口"},
{"zip_code":"8300401","kana_pref":"ﾌｸｵｶｹﾝ","kana_city":"ﾐｽﾞﾏｸﾞﾝｵｵｷﾏﾁ","kana_address":"ｻｻﾌﾞﾁ","pref":"福岡県","city":"三潴郡大木町","address":"笹渕"},
{"zip_code":"8300412","kana_pref":"ﾌｸｵｶｹﾝ","kana_city":"ﾐｽﾞﾏｸﾞﾝｵｵｷﾏﾁ","kana_address":"ｻﾑﾗｲｼﾞﾏ","pref":"福岡県","city":"三潴郡大木町","address":"侍島"},
{"zip_code":"8300422","kana_pref":"ﾌｸｵｶｹﾝ","kana_city":"ﾐｽﾞﾏｸﾞﾝｵｵｷﾏﾁ","kana_address":"ﾀｶﾊｼ","pref":"福岡県","city":"三潴郡大木町","address":"高橋"},
{"zip_code":"8300416","kana_pref":"ﾌｸｵｶｹﾝ","kana_city":"ﾐｽﾞﾏｸﾞﾝｵｵｷﾏﾁ","kana_address":"ﾊｯﾁｮｳﾑﾀ","pref":"福岡県","city":"三潴郡大木町","address":"八町牟田"},
{"zip_code":"8300411","kana_pref":"ﾌｸｵｶｹﾝ","kana_city":"ﾐｽﾞﾏｸﾞﾝｵｵｷﾏﾁ","kana_address":"ﾋﾙｲｹ","pref":"福岡県","city":"三潴郡大木町","address":"蛭池"},
{"zip_code":"8300402","kana_pref":"ﾌｸｵｶｹﾝ","kana_city":"ﾐｽﾞﾏｸﾞﾝｵｵｷﾏﾁ","kana_address":"ﾌｸﾄﾞ","pref":"福岡県","city":"三潴郡大木町","address":"福土"},
{"zip_code":"8300406","kana_pref":"ﾌｸｵｶｹﾝ","kana_city":"ﾐｽﾞﾏｸﾞﾝｵｵｷﾏﾁ","kana_address":"ﾏｴﾑﾀ","pref":"福岡県","city":"三潴郡大木町","address":"前牟田"},
{"zip_code":"8300424","kana_pref":"ﾌｸｵｶｹﾝ","kana_city":"ﾐｽﾞﾏｸﾞﾝｵｵｷﾏﾁ","kana_address":"ﾐﾔﾏﾂ","pref":"福岡県","city":"三潴郡大木町","address":"三八松"},
{"zip_code":"8300405","kana_pref":"ﾌｸｵｶｹﾝ","kana_city":"ﾐｽﾞﾏｸﾞﾝｵｵｷﾏﾁ","kana_address":"ﾖｺﾐｿﾞ","pref":"福岡県","city":"三潴郡大木町","address":"横溝"}]}