{"zip_code":[
{"zip_code":"8310000","kana_pref":"ﾌｸｵｶｹﾝ","kana_city":"ｵｵｶﾜｼ","kana_address":"","pref":"福岡県","city":"大川市","address":""},
{"zip_code":"8310031","kana_pref":"ﾌｸｵｶｹﾝ","kana_city":"ｵｵｶﾜｼ","kana_address":"ｱｹﾞﾏｷ","pref":"福岡県","city":"大川市","address":"上巻"},
{"zip_code":"8310004","kana_pref":"ﾌｸｵｶｹﾝ","kana_city":"ｵｵｶﾜｼ","kana_address":"ｴﾉｷﾂﾞ","pref":"福岡県","city":"大川市","address":"榎津"},
{"zip_code":"8310045","kana_pref":"ﾌｸｵｶｹﾝ","kana_city":"ｵｵｶﾜｼ","kana_address":"ｵｵﾉｼﾏ","pref":"福岡県","city":"大川市","address":"大野島"},
{"zip_code":"8310021","kana_pref":"ﾌｸｵｶｹﾝ","kana_city":"ｵｵｶﾜｼ","kana_address":"ｵｵﾊｼ","pref":"福岡県","city":"大川市","address":"大橋"},
{"zip_code":"8310027","kana_pref":"ﾌｸｵｶｹﾝ","kana_city":"ｵｵｶﾜｼ","kana_address":"ｵｷﾞｼﾏ","pref":"福岡県","city":"大川市","address":"荻島"},
{"zip_code":"8310024","kana_pref":"ﾌｸｵｶｹﾝ","kana_city":"ｵｵｶﾜｼ","kana_address":"ｵﾆｺｶﾞ","pref":"福岡県","city":"大川市","address":"鬼古賀"},
{"zip_code":"8310008","kana_pref":"ﾌｸｵｶｹﾝ","kana_city":"ｵｵｶﾜｼ","kana_address":"ｶﾈｶﾞｴ","pref":"福岡県","city":"大川市","address":"鐘ケ江"},
{"zip_code":"8310012","kana_pref":"ﾌｸｵｶｹﾝ","kana_city":"ｵｵｶﾜｼ","kana_address":"ｶﾐｼﾗｶｷ","pref":"福岡県","city":"大川市","address":"上白垣"},
{"zip_code":"8310032","kana_pref":"ﾌｸｵｶｹﾝ","kana_city":"ｵｵｶﾜｼ","kana_address":"ｷﾀｺｶﾞ","pref":"福岡県","city":"大川市","address":"北古賀"},
{"zip_code":"8310042","kana_pref":"ﾌｸｵｶｹﾝ","kana_city":"ｵｵｶﾜｼ","kana_address":"ｸｱﾐ","pref":"福岡県","city":"大川市","address":"九網"},
{"zip_code":"8310002","kana_pref":"ﾌｸｵｶｹﾝ","kana_city":"ｵｵｶﾜｼ","kana_address":"ｹﾞﾊﾞﾔｼ","pref":"福岡県","city":"大川市","address":"下林"},
{"zip_code":"8310028","kana_pref":"ﾌｸｵｶｹﾝ","kana_city":"ｵｵｶﾜｼ","kana_address":"ｺﾞｳﾊﾞﾙ","pref":"福岡県","city":"大川市","address":"郷原"},
{"zip_code":"8310041","kana_pref":"ﾌｸｵｶｹﾝ","kana_city":"ｵｵｶﾜｼ","kana_address":"ｺﾎﾞ","pref":"福岡県","city":"大川市","address":"小保"},
{"zip_code":"8310025","kana_pref":"ﾌｸｵｶｹﾝ","kana_city":"ｵｵｶﾜｼ","kana_address":"ｻｶｲ","pref":"福岡県","city":"大川市","address":"坂井"},
{"zip_code":"8310016","kana_pref":"ﾌｸｵｶｹﾝ","kana_city":"ｵｵｶﾜｼ","kana_address":"ｻｹﾐ","pref":"福岡県","city":"大川市","address":"酒見"},
{"zip_code":"8310001","kana_pref":"ﾌｸｵｶｹﾝ","kana_city":"ｵｵｶﾜｼ","kana_address":"ｼﾓｱｵｷ","pref":"福岡県","city":"大川市","address":"下青木"},
{"zip_code":"8310022","kana_pref":"ﾌｸｵｶｹﾝ","kana_city":"ｵｵｶﾜｼ","kana_address":"ｼﾓｷｻｷ","pref":"福岡県","city":"大川市","address":"下木佐木"},
{"zip_code":"8310011","kana_pref":"ﾌｸｵｶｹﾝ","kana_city":"ｵｵｶﾜｼ","kana_address":"ｼﾓｼﾗｶｷ","pref":"福岡県","city":"大川市","address":"下白垣"},
{"zip_code":"8310017","kana_pref":"ﾌｸｵｶｹﾝ","kana_city":"ｵｵｶﾜｼ","kana_address":"ｼﾓﾊﾁｲﾝ","pref":"福岡県","city":"大川市","address":"下八院"},
{"zip_code":"8310023","kana_pref":"ﾌｸｵｶｹﾝ","kana_city":"ｵｵｶﾜｼ","kana_address":"ｼﾓﾑﾀｸﾞﾁ","pref":"福岡県","city":"大川市","address":"下牟田口"},
{"zip_code":"8310043","kana_pref":"ﾌｸｵｶｹﾝ","kana_city":"ｵｵｶﾜｼ","kana_address":"ｼﾝﾃﾞﾝ","pref":"福岡県","city":"大川市","address":"新田"},
{"zip_code":"8310035","kana_pref":"ﾌｸｵｶｹﾝ","kana_city":"ｵｵｶﾜｼ","kana_address":"ﾂ","pref":"福岡県","city":"大川市","address":"津"},
{"zip_code":"8310007","kana_pref":"ﾌｸｵｶｹﾝ","kana_city":"ｵｵｶﾜｼ","kana_address":"ﾄﾞｳｶｲｼﾞﾏ","pref":"福岡県","city":"大川市","address":"道海島"},
{"zip_code":"8310014","kana_pref":"ﾌｸｵｶｹﾝ","kana_city":"ｵｵｶﾜｼ","kana_address":"ﾅｶｷﾑﾛ","pref":"福岡県","city":"大川市","address":"中木室"},
{"zip_code":"8310006","kana_pref":"ﾌｸｵｶｹﾝ","kana_city":"ｵｵｶﾜｼ","kana_address":"ﾅｶｺｶﾞ","pref":"福岡県","city":"大川市","address":"中古賀"},
{"zip_code":"8310013","kana_pref":"ﾌｸｵｶｹﾝ","kana_city":"ｵｵｶﾜｼ","kana_address":"ﾅｶﾊﾁｲﾝ","pref":"福岡県","city":"大川市","address":"中八院"},
{"zip_code":"8310033","kana_pref":"ﾌｸｵｶｹﾝ","kana_city":"ｵｵｶﾜｼ","kana_address":"ﾊﾀﾎ","pref":"福岡県","city":"大川市","address":"幡保"},
{"zip_code":"8310034","kana_pref":"ﾌｸｵｶｹﾝ","kana_city":"ｵｵｶﾜｼ","kana_address":"ﾋﾄﾂｷ","pref":"福岡県","city":"大川市","address":"一木"},
{"zip_code":"8310044","kana_pref":"ﾌｸｵｶｹﾝ","kana_city":"ｵｵｶﾜｼ","kana_address":"ﾍﾞﾆﾔ","pref":"福岡県","city":"大川市","address":"紅粉屋"},
{"zip_code":"8310015","kana_pref":"ﾌｸｵｶｹﾝ","kana_city":"ｵｵｶﾜｼ","kana_address":"ﾎﾝｷﾞﾑﾛ","pref":"福岡県","city":"大川市","address":"本木室"},
{"zip_code":"8310026","kana_pref":"ﾌｸｵｶｹﾝ","kana_city":"ｵｵｶﾜｼ","kana_address":"ﾐﾂﾏﾙ","pref":"福岡県","city":"大川市","address":"三丸"},
{"zip_code":"8310005","kana_pref":"ﾌｸｵｶｹﾝ","kana_city":"ｵｵｶﾜｼ","kana_address":"ﾑｶｲｼﾞﾏ","pref":"福岡県","city":"大川市","address":"向島"},
{"zip_code":"8310003","kana_pref":"ﾌｸｵｶｹﾝ","kana_city":"ｵｵｶﾜｼ","kana_address":"ﾓﾛﾄﾞﾐ","pref":"福岡県","city":"大川市","address":"諸富"}]}