{"zip_code":[
{"zip_code":"8320000","kana_pref":"ﾌｸｵｶｹﾝ","kana_city":"ﾔﾅｶﾞﾜｼ","kana_address":"","pref":"福岡県","city":"柳川市","address":""},
{"zip_code":"8320026","kana_pref":"ﾌｸｵｶｹﾝ","kana_city":"ﾔﾅｶﾞﾜｼ","kana_address":"ｱｹﾎﾞﾉﾏﾁ","pref":"福岡県","city":"柳川市","address":"曙町"},
{"zip_code":"8320022","kana_pref":"ﾌｸｵｶｹﾝ","kana_city":"ﾔﾅｶﾞﾜｼ","kana_address":"ｱｻﾋﾏﾁ","pref":"福岡県","city":"柳川市","address":"旭町"},
{"zip_code":"8320054","kana_pref":"ﾌｸｵｶｹﾝ","kana_city":"ﾔﾅｶﾞﾜｼ","kana_address":"ｱﾘｱｹﾏﾁ","pref":"福岡県","city":"柳川市","address":"有明町"},
{"zip_code":"8320042","kana_pref":"ﾌｸｵｶｹﾝ","kana_city":"ﾔﾅｶﾞﾜｼ","kana_address":"ｲｯｼﾝﾏﾁ","pref":"福岡県","city":"柳川市","address":"一新町"},
{"zip_code":"8320066","kana_pref":"ﾌｸｵｶｹﾝ","kana_city":"ﾔﾅｶﾞﾜｼ","kana_address":"ｲﾅﾘﾏﾁ","pref":"福岡県","city":"柳川市","address":"稲荷町"},
{"zip_code":"8320025","kana_pref":"ﾌｸｵｶｹﾝ","kana_city":"ﾔﾅｶﾞﾜｼ","kana_address":"ｴﾋﾞｽﾏﾁ","pref":"福岡県","city":"柳川市","address":"恵美須町"},
{"zip_code":"8320046","kana_pref":"ﾌｸｵｶｹﾝ","kana_city":"ﾔﾅｶﾞﾜｼ","kana_address":"ｵｳｼｭｳﾏﾁ","pref":"福岡県","city":"柳川市","address":"奥州町"},
{"zip_code":"8320053","kana_pref":"ﾌｸｵｶｹﾝ","kana_city":"ﾔﾅｶﾞﾜｼ","kana_address":"ｵｵﾊﾏﾏﾁ","pref":"福岡県","city":"柳川市","address":"大浜町"},
{"zip_code":"8320065","kana_pref":"ﾌｸｵｶｹﾝ","kana_city":"ﾔﾅｶﾞﾜｼ","kana_address":"ｵｷﾉﾊﾀﾏﾁ","pref":"福岡県","city":"柳川市","address":"沖端町"},
{"zip_code":"8320067","kana_pref":"ﾌｸｵｶｹﾝ","kana_city":"ﾔﾅｶﾞﾜｼ","kana_address":"ｵﾝﾄﾞｳﾏﾁ","pref":"福岡県","city":"柳川市","address":"鬼童町"},
{"zip_code":"8320073","kana_pref":"ﾌｸｵｶｹﾝ","kana_city":"ﾔﾅｶﾞﾜｼ","kana_address":"ｶｼﾞﾔﾏﾁ","pref":"福岡県","city":"柳川市","address":"鍛冶屋町"},
{"zip_code":"8320041","kana_pref":"ﾌｸｵｶｹﾝ","kana_city":"ﾔﾅｶﾞﾜｼ","kana_address":"ｶﾀﾊﾗﾏﾁ","pref":"福岡県","city":"柳川市","address":"片原町"},
{"zip_code":"8320016","kana_pref":"ﾌｸｵｶｹﾝ","kana_city":"ﾔﾅｶﾞﾜｼ","kana_address":"ｶﾆﾏﾁ","pref":"福岡県","city":"柳川市","address":"蟹町"},
{"zip_code":"8320013","kana_pref":"ﾌｸｵｶｹﾝ","kana_city":"ﾔﾅｶﾞﾜｼ","kana_address":"ｶﾐﾏﾁ","pref":"福岡県","city":"柳川市","address":"上町"},
{"zip_code":"8320058","kana_pref":"ﾌｸｵｶｹﾝ","kana_city":"ﾔﾅｶﾞﾜｼ","kana_address":"ｶﾐﾐﾔﾅｶﾞﾏﾁ","pref":"福岡県","city":"柳川市","address":"上宮永町"},
{"zip_code":"8320007","kana_pref":"ﾌｸｵｶｹﾝ","kana_city":"ﾔﾅｶﾞﾜｼ","kana_address":"ｶﾝﾉ","pref":"福岡県","city":"柳川市","address":"金納"},
{"zip_code":"8320001","kana_pref":"ﾌｸｵｶｹﾝ","kana_city":"ﾔﾅｶﾞﾜｼ","kana_address":"ｶﾞﾓｳ","pref":"福岡県","city":"柳川市","address":"蒲生"},
{"zip_code":"8320034","kana_pref":"ﾌｸｵｶｹﾝ","kana_city":"ﾔﾅｶﾞﾜｼ","kana_address":"ｷﾀﾅｶﾞｴﾏﾁ","pref":"福岡県","city":"柳川市","address":"北長柄町"},
{"zip_code":"8320023","kana_pref":"ﾌｸｵｶｹﾝ","kana_city":"ﾔﾅｶﾞﾜｼ","kana_address":"ｷｮｳﾏﾁ","pref":"福岡県","city":"柳川市","address":"京町"},
{"zip_code":"8320086","kana_pref":"ﾌｸｵｶｹﾝ","kana_city":"ﾔﾅｶﾞﾜｼ","kana_address":"ｸｸﾊﾗ","pref":"福岡県","city":"柳川市","address":"久々原"},
{"zip_code":"8320072","kana_pref":"ﾌｸｵｶｹﾝ","kana_city":"ﾔﾅｶﾞﾜｼ","kana_address":"ｺｳｼﾞﾔﾏﾁ","pref":"福岡県","city":"柳川市","address":"糀屋町"},
{"zip_code":"8320082","kana_pref":"ﾌｸｵｶｹﾝ","kana_city":"ﾔﾅｶﾞﾜｼ","kana_address":"ｺｶﾞ","pref":"福岡県","city":"柳川市","address":"古賀"},
{"zip_code":"8320036","kana_pref":"ﾌｸｵｶｹﾝ","kana_city":"ﾔﾅｶﾞﾜｼ","kana_address":"ｺﾄﾞｳｸﾞﾏﾁ","pref":"福岡県","city":"柳川市","address":"小道具町"},
{"zip_code":"8320037","kana_pref":"ﾌｸｵｶｹﾝ","kana_city":"ﾔﾅｶﾞﾜｼ","kana_address":"ｻｲｸﾏﾁ","pref":"福岡県","city":"柳川市","address":"細工町"},
{"zip_code":"8320017","kana_pref":"ﾌｸｵｶｹﾝ","kana_city":"ﾔﾅｶﾞﾜｼ","kana_address":"ｻﾞｲﾓｸﾏﾁ","pref":"福岡県","city":"柳川市","address":"材木町"},
{"zip_code":"8320076","kana_pref":"ﾌｸｵｶｹﾝ","kana_city":"ﾔﾅｶﾞﾜｼ","kana_address":"ｻｶﾓﾄﾏﾁ","pref":"福岡県","city":"柳川市","address":"坂本町"},
{"zip_code":"8320059","kana_pref":"ﾌｸｵｶｹﾝ","kana_city":"ﾔﾅｶﾞﾜｼ","kana_address":"ｼﾓﾐﾔﾅｶﾞﾏﾁ","pref":"福岡県","city":"柳川市","address":"下宮永町"},
{"zip_code":"8320068","kana_pref":"ﾌｸｵｶｹﾝ","kana_city":"ﾔﾅｶﾞﾜｼ","kana_address":"ｼﾞｮｳｸﾞｳﾏﾁ","pref":"福岡県","city":"柳川市","address":"城隅町"},
{"zip_code":"8320084","kana_pref":"ﾌｸｵｶｹﾝ","kana_city":"ﾔﾅｶﾞﾜｼ","kana_address":"ｼｮｳﾅﾝﾏﾁ","pref":"福岡県","city":"柳川市","address":"昭南町"},
{"zip_code":"8320062","kana_pref":"ﾌｸｵｶｹﾝ","kana_city":"ﾔﾅｶﾞﾜｼ","kana_address":"ｼﾞｮｳﾅﾝﾏﾁ","pref":"福岡県","city":"柳川市","address":"城南町"},
{"zip_code":"8320071","kana_pref":"ﾌｸｵｶｹﾝ","kana_city":"ﾔﾅｶﾞﾜｼ","kana_address":"ｼﾝﾌﾅﾂﾏﾁ","pref":"福岡県","city":"柳川市","address":"新船津町"},
{"zip_code":"8320069","kana_pref":"ﾌｸｵｶｹﾝ","kana_city":"ﾔﾅｶﾞﾜｼ","kana_address":"ｼﾝﾎｶﾏﾁ","pref":"福岡県","city":"柳川市","address":"新外町"},
{"zip_code":"8320032","kana_pref":"ﾌｸｵｶｹﾝ","kana_city":"ﾔﾅｶﾞﾜｼ","kana_address":"ｼﾝﾏﾁ","pref":"福岡県","city":"柳川市","address":"新町"},
{"zip_code":"8320021","kana_pref":"ﾌｸｵｶｹﾝ","kana_city":"ﾔﾅｶﾞﾜｼ","kana_address":"ｽﾐﾏﾁ","pref":"福岡県","city":"柳川市","address":"隅町"},
{"zip_code":"8320002","kana_pref":"ﾌｸｵｶｹﾝ","kana_city":"ﾔﾅｶﾞﾜｼ","kana_address":"ﾀｶｼﾏ","pref":"福岡県","city":"柳川市","address":"高島"},
{"zip_code":"8320003","kana_pref":"ﾌｸｵｶｹﾝ","kana_city":"ﾔﾅｶﾞﾜｼ","kana_address":"ﾀﾃｲｼ","pref":"福岡県","city":"柳川市","address":"立石"},
{"zip_code":"8320089","kana_pref":"ﾌｸｵｶｹﾝ","kana_city":"ﾔﾅｶﾞﾜｼ","kana_address":"ﾀﾜｷ","pref":"福岡県","city":"柳川市","address":"田脇"},
{"zip_code":"8320077","kana_pref":"ﾌｸｵｶｹﾝ","kana_city":"ﾔﾅｶﾞﾜｼ","kana_address":"ﾁｸｼﾏﾁ","pref":"福岡県","city":"柳川市","address":"筑紫町"},
{"zip_code":"8320051","kana_pref":"ﾌｸｵｶｹﾝ","kana_city":"ﾔﾅｶﾞﾜｼ","kana_address":"ﾂｸﾀﾞﾏﾁ","pref":"福岡県","city":"柳川市","address":"佃町"},
{"zip_code":"8320024","kana_pref":"ﾌｸｵｶｹﾝ","kana_city":"ﾔﾅｶﾞﾜｼ","kana_address":"ﾂｼﾞﾏﾁ","pref":"福岡県","city":"柳川市","address":"辻町"},
{"zip_code":"8320031","kana_pref":"ﾌｸｵｶｹﾝ","kana_city":"ﾔﾅｶﾞﾜｼ","kana_address":"ﾂﾊﾞﾊﾗﾏﾁ","pref":"福岡県","city":"柳川市","address":"椿原町"},
{"zip_code":"8320043","kana_pref":"ﾌｸｵｶｹﾝ","kana_city":"ﾔﾅｶﾞﾜｼ","kana_address":"ﾃﾞｷﾏﾁ","pref":"福岡県","city":"柳川市","address":"出来町"},
{"zip_code":"8320028","kana_pref":"ﾌｸｵｶｹﾝ","kana_city":"ﾔﾅｶﾞﾜｼ","kana_address":"ﾄｷﾜﾏﾁ","pref":"福岡県","city":"柳川市","address":"常盤町"},
{"zip_code":"8320012","kana_pref":"ﾌｸｵｶｹﾝ","kana_city":"ﾔﾅｶﾞﾜｼ","kana_address":"ﾅｶﾏﾁ","pref":"福岡県","city":"柳川市","address":"中町"},
{"zip_code":"8320087","kana_pref":"ﾌｸｵｶｹﾝ","kana_city":"ﾔﾅｶﾞﾜｼ","kana_address":"ﾅﾅﾂｴ","pref":"福岡県","city":"柳川市","address":"七ツ家"},
{"zip_code":"8320015","kana_pref":"ﾌｸｵｶｹﾝ","kana_city":"ﾔﾅｶﾞﾜｼ","kana_address":"ﾆｼｳｵﾔﾏﾁ","pref":"福岡県","city":"柳川市","address":"西魚屋町"},
{"zip_code":"8320005","kana_pref":"ﾌｸｵｶｹﾝ","kana_city":"ﾔﾅｶﾞﾜｼ","kana_address":"ﾆｼｶﾏﾁ","pref":"福岡県","city":"柳川市","address":"西蒲池"},
{"zip_code":"8320081","kana_pref":"ﾌｸｵｶｹﾝ","kana_city":"ﾔﾅｶﾞﾜｼ","kana_address":"ﾆｼﾊﾏﾀｹ","pref":"福岡県","city":"柳川市","address":"西浜武"},
{"zip_code":"8320088","kana_pref":"ﾌｸｵｶｹﾝ","kana_city":"ﾔﾅｶﾞﾜｼ","kana_address":"ﾊｻﾏ","pref":"福岡県","city":"柳川市","address":"間"},
{"zip_code":"8320052","kana_pref":"ﾌｸｵｶｹﾝ","kana_city":"ﾔﾅｶﾞﾜｼ","kana_address":"ﾊｼﾓﾄﾏﾁ","pref":"福岡県","city":"柳川市","address":"橋本町"},
{"zip_code":"8320029","kana_pref":"ﾌｸｵｶｹﾝ","kana_city":"ﾔﾅｶﾞﾜｼ","kana_address":"ﾊﾁｹﾝﾏﾁ","pref":"福岡県","city":"柳川市","address":"八軒町"},
{"zip_code":"8320035","kana_pref":"ﾌｸｵｶｹﾝ","kana_city":"ﾔﾅｶﾞﾜｼ","kana_address":"ﾋｶﾞｼｳｵﾔﾏﾁ","pref":"福岡県","city":"柳川市","address":"東魚屋町"},
{"zip_code":"8320006","kana_pref":"ﾌｸｵｶｹﾝ","kana_city":"ﾔﾅｶﾞﾜｼ","kana_address":"ﾋｶﾞｼｶﾏﾁ","pref":"福岡県","city":"柳川市","address":"東蒲池"},
{"zip_code":"8320044","kana_pref":"ﾌｸｵｶｹﾝ","kana_city":"ﾔﾅｶﾞﾜｼ","kana_address":"ﾌｸﾛﾏﾁ","pref":"福岡県","city":"柳川市","address":"袋町"},
{"zip_code":"8320011","kana_pref":"ﾌｸｵｶｹﾝ","kana_city":"ﾔﾅｶﾞﾜｼ","kana_address":"ﾎｶﾏﾁ","pref":"福岡県","city":"柳川市","address":"保加町"},
{"zip_code":"8320061","kana_pref":"ﾌｸｵｶｹﾝ","kana_city":"ﾔﾅｶﾞﾜｼ","kana_address":"ﾎﾝｼﾞｮｳﾏﾁ","pref":"福岡県","city":"柳川市","address":"本城町"},
{"zip_code":"8320045","kana_pref":"ﾌｸｵｶｹﾝ","kana_city":"ﾔﾅｶﾞﾜｼ","kana_address":"ﾎﾝﾏﾁ","pref":"福岡県","city":"柳川市","address":"本町"},
{"zip_code":"8320805","kana_pref":"ﾌｸｵｶｹﾝ","kana_city":"ﾔﾅｶﾞﾜｼ","kana_address":"ﾐﾂﾊｼﾏﾁｲｿﾄﾞﾘ","pref":"福岡県","city":"柳川市","address":"三橋町磯鳥"},
{"zip_code":"8320823","kana_pref":"ﾌｸｵｶｹﾝ","kana_city":"ﾔﾅｶﾞﾜｼ","kana_address":"ﾐﾂﾊｼﾏﾁｲﾏｺｶﾞ","pref":"福岡県","city":"柳川市","address":"三橋町今古賀"},
{"zip_code":"8320807","kana_pref":"ﾌｸｵｶｹﾝ","kana_city":"ﾔﾅｶﾞﾜｼ","kana_address":"ﾐﾂﾊｼﾏﾁｴﾀﾞﾐﾂ","pref":"福岡県","city":"柳川市","address":"三橋町枝光"},
{"zip_code":"8320825","kana_pref":"ﾌｸｵｶｹﾝ","kana_city":"ﾔﾅｶﾞﾜｼ","kana_address":"ﾐﾂﾊｼﾏﾁｴﾏｶﾞﾘ","pref":"福岡県","city":"柳川市","address":"三橋町江曲"},
{"zip_code":"8320801","kana_pref":"ﾌｸｵｶｹﾝ","kana_city":"ﾔﾅｶﾞﾜｼ","kana_address":"ﾐﾂﾊｼﾏﾁｵｷﾀﾞ","pref":"福岡県","city":"柳川市","address":"三橋町起田"},
{"zip_code":"8320827","kana_pref":"ﾌｸｵｶｹﾝ","kana_city":"ﾔﾅｶﾞﾜｼ","kana_address":"ﾐﾂﾊｼﾏﾁｶﾏﾌﾅﾂ","pref":"福岡県","city":"柳川市","address":"三橋町蒲船津"},
{"zip_code":"8320804","kana_pref":"ﾌｸｵｶｹﾝ","kana_city":"ﾔﾅｶﾞﾜｼ","kana_address":"ﾐﾂﾊｼﾏﾁｷﾉﾓﾄ","pref":"福岡県","city":"柳川市","address":"三橋町木元"},
{"zip_code":"8320812","kana_pref":"ﾌｸｵｶｹﾝ","kana_city":"ﾔﾅｶﾞﾜｼ","kana_address":"ﾐﾂﾊｼﾏﾁｺﾞｼﾞｯﾁｮｳ","pref":"福岡県","city":"柳川市","address":"三橋町五拾町"},
{"zip_code":"8320822","kana_pref":"ﾌｸｵｶｹﾝ","kana_city":"ﾔﾅｶﾞﾜｼ","kana_address":"ﾐﾂﾊｼﾏﾁｼﾓﾋｬｸﾁｮｳ","pref":"福岡県","city":"柳川市","address":"三橋町下百町"},
{"zip_code":"8320815","kana_pref":"ﾌｸｵｶｹﾝ","kana_city":"ﾔﾅｶﾞﾜｼ","kana_address":"ﾐﾂﾊｼﾏﾁｼﾗﾄﾘ","pref":"福岡県","city":"柳川市","address":"三橋町白鳥"},
{"zip_code":"8320826","kana_pref":"ﾌｸｵｶｹﾝ","kana_city":"ﾔﾅｶﾞﾜｼ","kana_address":"ﾐﾂﾊｼﾏﾁﾀｶﾊﾀｹ","pref":"福岡県","city":"柳川市","address":"三橋町高畑"},
{"zip_code":"8320813","kana_pref":"ﾌｸｵｶｹﾝ","kana_city":"ﾔﾅｶﾞﾜｼ","kana_address":"ﾐﾂﾊｼﾏﾁﾀﾉﾏﾁ","pref":"福岡県","city":"柳川市","address":"三橋町棚町"},
{"zip_code":"8320814","kana_pref":"ﾌｸｵｶｹﾝ","kana_city":"ﾔﾅｶﾞﾜｼ","kana_address":"ﾐﾂﾊｼﾏﾁﾀﾙﾐ","pref":"福岡県","city":"柳川市","address":"三橋町垂見"},
{"zip_code":"8320811","kana_pref":"ﾌｸｵｶｹﾝ","kana_city":"ﾔﾅｶﾞﾜｼ","kana_address":"ﾐﾂﾊｼﾏﾁﾅｶﾔﾏ","pref":"福岡県","city":"柳川市","address":"三橋町中山"},
{"zip_code":"8320816","kana_pref":"ﾌｸｵｶｹﾝ","kana_city":"ﾔﾅｶﾞﾜｼ","kana_address":"ﾐﾂﾊｼﾏﾁﾋｻｽｴ","pref":"福岡県","city":"柳川市","address":"三橋町久末"},
{"zip_code":"8320821","kana_pref":"ﾌｸｵｶｹﾝ","kana_city":"ﾔﾅｶﾞﾜｼ","kana_address":"ﾐﾂﾊｼﾏﾁﾋｬｸﾁｮｳ","pref":"福岡県","city":"柳川市","address":"三橋町百町"},
{"zip_code":"8320824","kana_pref":"ﾌｸｵｶｹﾝ","kana_city":"ﾔﾅｶﾞﾜｼ","kana_address":"ﾐﾂﾊｼﾏﾁﾌｼﾞﾖｼ","pref":"福岡県","city":"柳川市","address":"三橋町藤吉"},
{"zip_code":"8320828","kana_pref":"ﾌｸｵｶｹﾝ","kana_city":"ﾔﾅｶﾞﾜｼ","kana_address":"ﾐﾂﾊｼﾏﾁﾏｻﾕｷ","pref":"福岡県","city":"柳川市","address":"三橋町正行"},
{"zip_code":"8320803","kana_pref":"ﾌｸｵｶｹﾝ","kana_city":"ﾔﾅｶﾞﾜｼ","kana_address":"ﾐﾂﾊｼﾏﾁﾐﾑﾗ","pref":"福岡県","city":"柳川市","address":"三橋町新村"},
{"zip_code":"8320806","kana_pref":"ﾌｸｵｶｹﾝ","kana_city":"ﾔﾅｶﾞﾜｼ","kana_address":"ﾐﾂﾊｼﾏﾁﾔﾅｶﾞﾜ","pref":"福岡県","city":"柳川市","address":"三橋町柳河"},
{"zip_code":"8320802","kana_pref":"ﾌｸｵｶｹﾝ","kana_city":"ﾔﾅｶﾞﾜｼ","kana_address":"ﾐﾂﾊｼﾏﾁﾖｼｶﾞｲ","pref":"福岡県","city":"柳川市","address":"三橋町吉開"},
{"zip_code":"8320033","kana_pref":"ﾌｸｵｶｹﾝ","kana_city":"ﾔﾅｶﾞﾜｼ","kana_address":"ﾐﾅﾐﾅｶﾞｴﾏﾁ","pref":"福岡県","city":"柳川市","address":"南長柄町"},
{"zip_code":"8320083","kana_pref":"ﾌｸｵｶｹﾝ","kana_city":"ﾔﾅｶﾞﾜｼ","kana_address":"ﾐﾅﾐﾊﾏﾀｹ","pref":"福岡県","city":"柳川市","address":"南浜武"},
{"zip_code":"8320064","kana_pref":"ﾌｸｵｶｹﾝ","kana_city":"ﾔﾅｶﾞﾜｼ","kana_address":"ﾐﾔﾅｶﾞﾏﾁ","pref":"福岡県","city":"柳川市","address":"宮永町"},
{"zip_code":"8320063","kana_pref":"ﾌｸｵｶｹﾝ","kana_city":"ﾔﾅｶﾞﾜｼ","kana_address":"ﾓｱﾝﾏﾁ","pref":"福岡県","city":"柳川市","address":"茂庵町"},
{"zip_code":"8320018","kana_pref":"ﾌｸｵｶｹﾝ","kana_city":"ﾔﾅｶﾞﾜｼ","kana_address":"ﾓﾄﾌﾅﾂﾏﾁ","pref":"福岡県","city":"柳川市","address":"本船津町"},
{"zip_code":"8320074","kana_pref":"ﾌｸｵｶｹﾝ","kana_city":"ﾔﾅｶﾞﾜｼ","kana_address":"ﾓﾄﾏﾁ","pref":"福岡県","city":"柳川市","address":"元町"},
{"zip_code":"8320014","kana_pref":"ﾌｸｵｶｹﾝ","kana_city":"ﾔﾅｶﾞﾜｼ","kana_address":"ﾔｵﾔﾏﾁ","pref":"福岡県","city":"柳川市","address":"八百屋町"},
{"zip_code":"8320004","kana_pref":"ﾌｸｵｶｹﾝ","kana_city":"ﾔﾅｶﾞﾜｼ","kana_address":"ﾔｶﾍﾞ","pref":"福岡県","city":"柳川市","address":"矢加部"},
{"zip_code":"8320057","kana_pref":"ﾌｸｵｶｹﾝ","kana_city":"ﾔﾅｶﾞﾜｼ","kana_address":"ﾔｼﾛｳﾏﾁ","pref":"福岡県","city":"柳川市","address":"弥四郎町"},
{"zip_code":"8320056","kana_pref":"ﾌｸｵｶｹﾝ","kana_city":"ﾔﾅｶﾞﾜｼ","kana_address":"ﾔﾄﾞﾐﾎﾝﾏﾁ","pref":"福岡県","city":"柳川市","address":"矢留本町"},
{"zip_code":"8320050","kana_pref":"ﾌｸｵｶｹﾝ","kana_city":"ﾔﾅｶﾞﾜｼ","kana_address":"ﾔﾄﾞﾐﾏﾁ","pref":"福岡県","city":"柳川市","address":"矢留町"},
{"zip_code":"8320075","kana_pref":"ﾌｸｵｶｹﾝ","kana_city":"ﾔﾅｶﾞﾜｼ","kana_address":"ﾔﾅｷﾞﾏﾁ","pref":"福岡県","city":"柳川市","address":"柳町"},
{"zip_code":"8320027","kana_pref":"ﾌｸｵｶｹﾝ","kana_city":"ﾔﾅｶﾞﾜｼ","kana_address":"ﾖｺﾔﾏﾏﾁ","pref":"福岡県","city":"柳川市","address":"横山町"},
{"zip_code":"8320055","kana_pref":"ﾌｸｵｶｹﾝ","kana_city":"ﾔﾅｶﾞﾜｼ","kana_address":"ﾖｼﾄﾐﾏﾁ","pref":"福岡県","city":"柳川市","address":"吉富町"},
{"zip_code":"8320085","kana_pref":"ﾌｸｵｶｹﾝ","kana_city":"ﾔﾅｶﾞﾜｼ","kana_address":"ﾖｼﾊﾗ","pref":"福岡県","city":"柳川市","address":"吉原"}]}