{"zip_code":[
{"zip_code":"8330000","kana_pref":"ﾌｸｵｶｹﾝ","kana_city":"ﾁｸｺﾞｼ","kana_address":"","pref":"福岡県","city":"筑後市","address":""},
{"zip_code":"8330041","kana_pref":"ﾌｸｵｶｹﾝ","kana_city":"ﾁｸｺﾞｼ","kana_address":"ｲｽﾞﾐ","pref":"福岡県","city":"筑後市","address":"和泉"},
{"zip_code":"8330001","kana_pref":"ﾌｸｵｶｹﾝ","kana_city":"ﾁｸｺﾞｼ","kana_address":"ｲﾁｼﾞｮｳ","pref":"福岡県","city":"筑後市","address":"一条"},
{"zip_code":"8330046","kana_pref":"ﾌｸｵｶｹﾝ","kana_city":"ﾁｸｺﾞｼ","kana_address":"ｴｸﾞﾁ","pref":"福岡県","city":"筑後市","address":"江口"},
{"zip_code":"8330014","kana_pref":"ﾌｸｵｶｹﾝ","kana_city":"ﾁｸｺﾞｼ","kana_address":"ｵｼﾏ","pref":"福岡県","city":"筑後市","address":"尾島"},
{"zip_code":"8330026","kana_pref":"ﾌｸｵｶｹﾝ","kana_city":"ﾁｸｺﾞｼ","kana_address":"ｵﾘｼﾞ","pref":"福岡県","city":"筑後市","address":"折地"},
{"zip_code":"8330033","kana_pref":"ﾌｸｵｶｹﾝ","kana_city":"ﾁｸｺﾞｼ","kana_address":"ｶﾐｷﾀｼﾞﾏ","pref":"福岡県","city":"筑後市","address":"上北島"},
{"zip_code":"8330013","kana_pref":"ﾌｸｵｶｹﾝ","kana_city":"ﾁｸｺﾞｼ","kana_address":"ｷﾀﾅｶﾞﾀ","pref":"福岡県","city":"筑後市","address":"北長田"},
{"zip_code":"8330011","kana_pref":"ﾌｸｵｶｹﾝ","kana_city":"ﾁｸｺﾞｼ","kana_address":"ｸｴ","pref":"福岡県","city":"筑後市","address":"久恵"},
{"zip_code":"8330055","kana_pref":"ﾌｸｵｶｹﾝ","kana_city":"ﾁｸｺﾞｼ","kana_address":"ｸﾏﾉ","pref":"福岡県","city":"筑後市","address":"熊野"},
{"zip_code":"8330054","kana_pref":"ﾌｸｵｶｹﾝ","kana_city":"ﾁｸｺﾞｼ","kana_address":"ｸﾗｶｽﾞ","pref":"福岡県","city":"筑後市","address":"蔵数"},
{"zip_code":"8330035","kana_pref":"ﾌｸｵｶｹﾝ","kana_city":"ﾁｸｺﾞｼ","kana_address":"ｺｼﾞﾏ","pref":"福岡県","city":"筑後市","address":"古島"},
{"zip_code":"8330045","kana_pref":"ﾌｸｵｶｹﾝ","kana_city":"ﾁｸｺﾞｼ","kana_address":"ｼｶｼｮ","pref":"福岡県","city":"筑後市","address":"四ケ所"},
{"zip_code":"8330037","kana_pref":"ﾌｸｵｶｹﾝ","kana_city":"ﾁｸｺﾞｼ","kana_address":"ｼﾏﾀﾞ","pref":"福岡県","city":"筑後市","address":"島田"},
{"zip_code":"8330017","kana_pref":"ﾌｸｵｶｹﾝ","kana_city":"ﾁｸｺﾞｼ","kana_address":"ｼﾑﾗ","pref":"福岡県","city":"筑後市","address":"志"},
{"zip_code":"8330034","kana_pref":"ﾌｸｵｶｹﾝ","kana_city":"ﾁｸｺﾞｼ","kana_address":"ｼﾓｷﾀｼﾞﾏ","pref":"福岡県","city":"筑後市","address":"下北島"},
{"zip_code":"8330021","kana_pref":"ﾌｸｵｶｹﾝ","kana_city":"ﾁｸｺﾞｼ","kana_address":"ｼﾓﾂﾏ","pref":"福岡県","city":"筑後市","address":"下妻"},
{"zip_code":"8330043","kana_pref":"ﾌｸｵｶｹﾝ","kana_city":"ﾁｸｺﾞｼ","kana_address":"ｼｮｳｼﾞﾏ","pref":"福岡県","city":"筑後市","address":"庄島"},
{"zip_code":"8330006","kana_pref":"ﾌｸｵｶｹﾝ","kana_city":"ﾁｸｺﾞｼ","kana_address":"ｼﾝﾐｿﾞ","pref":"福岡県","city":"筑後市","address":"新溝"},
{"zip_code":"8330036","kana_pref":"ﾌｸｵｶｹﾝ","kana_city":"ﾁｸｺﾞｼ","kana_address":"ｾｲﾃﾞﾝ","pref":"福岡県","city":"筑後市","address":"井田"},
{"zip_code":"8330052","kana_pref":"ﾌｸｵｶｹﾝ","kana_city":"ﾁｸｺﾞｼ","kana_address":"ﾀｶｴ","pref":"福岡県","city":"筑後市","address":"高江"},
{"zip_code":"8330015","kana_pref":"ﾌｸｵｶｹﾝ","kana_city":"ﾁｸｺﾞｼ","kana_address":"ﾂｼﾏ","pref":"福岡県","city":"筑後市","address":"津島"},
{"zip_code":"8330016","kana_pref":"ﾌｸｵｶｹﾝ","kana_city":"ﾁｸｺﾞｼ","kana_address":"ﾂﾈﾓﾁ","pref":"福岡県","city":"筑後市","address":"常用"},
{"zip_code":"8330007","kana_pref":"ﾌｸｵｶｹﾝ","kana_city":"ﾁｸｺﾞｼ","kana_address":"ﾂﾙﾀﾞ","pref":"福岡県","city":"筑後市","address":"鶴田"},
{"zip_code":"8330004","kana_pref":"ﾌｸｵｶｹﾝ","kana_city":"ﾁｸｺﾞｼ","kana_address":"ﾄｸﾋｻ","pref":"福岡県","city":"筑後市","address":"徳久"},
{"zip_code":"8330051","kana_pref":"ﾌｸｵｶｹﾝ","kana_city":"ﾁｸｺﾞｼ","kana_address":"ﾄﾐｼｹﾞ","pref":"福岡県","city":"筑後市","address":"富重"},
{"zip_code":"8330044","kana_pref":"ﾌｸｵｶｹﾝ","kana_city":"ﾁｸｺﾞｼ","kana_address":"ﾄﾐﾋｻ","pref":"福岡県","city":"筑後市","address":"富久"},
{"zip_code":"8330022","kana_pref":"ﾌｸｵｶｹﾝ","kana_city":"ﾁｸｺﾞｼ","kana_address":"ﾄﾐﾔｽ","pref":"福岡県","city":"筑後市","address":"富安"},
{"zip_code":"8330025","kana_pref":"ﾌｸｵｶｹﾝ","kana_city":"ﾁｸｺﾞｼ","kana_address":"ﾅｶｵﾘｼﾞ","pref":"福岡県","city":"筑後市","address":"中折地"},
{"zip_code":"8330024","kana_pref":"ﾌｸｵｶｹﾝ","kana_city":"ﾁｸｺﾞｼ","kana_address":"ﾅｶﾑﾀ","pref":"福岡県","city":"筑後市","address":"中牟田"},
{"zip_code":"8330042","kana_pref":"ﾌｸｵｶｹﾝ","kana_city":"ﾁｸｺﾞｼ","kana_address":"ﾅｶﾞｻｷ","pref":"福岡県","city":"筑後市","address":"長崎"},
{"zip_code":"8330005","kana_pref":"ﾌｸｵｶｹﾝ","kana_city":"ﾁｸｺﾞｼ","kana_address":"ﾅｶﾞﾊﾏ","pref":"福岡県","city":"筑後市","address":"長浜"},
{"zip_code":"8330053","kana_pref":"ﾌｸｵｶｹﾝ","kana_city":"ﾁｸｺﾞｼ","kana_address":"ﾆｼﾑﾀ","pref":"福岡県","city":"筑後市","address":"西牟田"},
{"zip_code":"8330032","kana_pref":"ﾌｸｵｶｹﾝ","kana_city":"ﾁｸｺﾞｼ","kana_address":"ﾉﾏﾁ","pref":"福岡県","city":"筑後市","address":"野町"},
{"zip_code":"8330003","kana_pref":"ﾌｸｵｶｹﾝ","kana_city":"ﾁｸｺﾞｼ","kana_address":"ﾊｲﾇﾂﾞｶ","pref":"福岡県","city":"筑後市","address":"羽犬塚"},
{"zip_code":"8330056","kana_pref":"ﾌｸｵｶｹﾝ","kana_city":"ﾁｸｺﾞｼ","kana_address":"ﾋｻﾄﾞﾐ","pref":"福岡県","city":"筑後市","address":"久富"},
{"zip_code":"8330002","kana_pref":"ﾌｸｵｶｹﾝ","kana_city":"ﾁｸｺﾞｼ","kana_address":"ﾏｴﾂﾞ","pref":"福岡県","city":"筑後市","address":"前津"},
{"zip_code":"8330023","kana_pref":"ﾌｸｵｶｹﾝ","kana_city":"ﾁｸｺﾞｼ","kana_address":"ﾏﾏﾀﾞ","pref":"福岡県","city":"筑後市","address":"馬間田"},
{"zip_code":"8330027","kana_pref":"ﾌｸｵｶｹﾝ","kana_city":"ﾁｸｺﾞｼ","kana_address":"ﾐｽﾞﾀ","pref":"福岡県","city":"筑後市","address":"水田"},
{"zip_code":"8330012","kana_pref":"ﾌｸｵｶｹﾝ","kana_city":"ﾁｸｺﾞｼ","kana_address":"ﾐｿﾞｸﾁ","pref":"福岡県","city":"筑後市","address":"溝口"},
{"zip_code":"8330031","kana_pref":"ﾌｸｵｶｹﾝ","kana_city":"ﾁｸｺﾞｼ","kana_address":"ﾔﾏﾉｲ","pref":"福岡県","city":"筑後市","address":"山ノ井"},
{"zip_code":"8330047","kana_pref":"ﾌｸｵｶｹﾝ","kana_city":"ﾁｸｺﾞｼ","kana_address":"ﾜｶﾅ","pref":"福岡県","city":"筑後市","address":"若菜"}]}