{"zip_code":[
{"zip_code":"8340000","kana_pref":"ﾌｸｵｶｹﾝ","kana_city":"ﾔﾒｼ","kana_address":"","pref":"福岡県","city":"八女市","address":""},
{"zip_code":"8340047","kana_pref":"ﾌｸｵｶｹﾝ","kana_city":"ﾔﾒｼ","kana_address":"ｲﾅﾄﾞﾐ","pref":"福岡県","city":"八女市","address":"稲富"},
{"zip_code":"8340026","kana_pref":"ﾌｸｵｶｹﾝ","kana_city":"ﾔﾒｼ","kana_address":"ｲﾉﾌﾞ","pref":"福岡県","city":"八女市","address":"井延"},
{"zip_code":"8340061","kana_pref":"ﾌｸｵｶｹﾝ","kana_city":"ﾔﾒｼ","kana_address":"ｲﾏﾌﾞｸ","pref":"福岡県","city":"八女市","address":"今福"},
{"zip_code":"8340062","kana_pref":"ﾌｸｵｶｹﾝ","kana_city":"ﾔﾒｼ","kana_address":"ｲﾜｻｷ","pref":"福岡県","city":"八女市","address":"岩崎"},
{"zip_code":"8340055","kana_pref":"ﾌｸｵｶｹﾝ","kana_city":"ﾔﾒｼ","kana_address":"ｳﾉｲｹ","pref":"福岡県","city":"八女市","address":"鵜池"},
{"zip_code":"8340013","kana_pref":"ﾌｸｵｶｹﾝ","kana_city":"ﾔﾒｼ","kana_address":"ｵｵｺﾞﾓﾘ","pref":"福岡県","city":"八女市","address":"大籠"},
{"zip_code":"8340005","kana_pref":"ﾌｸｵｶｹﾝ","kana_city":"ﾔﾒｼ","kana_address":"ｵｵｼﾞﾏ","pref":"福岡県","city":"八女市","address":"大島"},
{"zip_code":"8340041","kana_pref":"ﾌｸｵｶｹﾝ","kana_city":"ﾔﾒｼ","kana_address":"ｵﾀﾞﾏ","pref":"福岡県","city":"八女市","address":"緒玉"},
{"zip_code":"8340064","kana_pref":"ﾌｸｵｶｹﾝ","kana_city":"ﾔﾒｼ","kana_address":"ｶﾏﾊﾗ","pref":"福岡県","city":"八女市","address":"蒲原"},
{"zip_code":"8340065","kana_pref":"ﾌｸｵｶｹﾝ","kana_city":"ﾔﾒｼ","kana_address":"ｶﾒﾉｺｳ","pref":"福岡県","city":"八女市","address":"亀甲"},
{"zip_code":"8340053","kana_pref":"ﾌｸｵｶｹﾝ","kana_city":"ﾔﾒｼ","kana_address":"ｶﾜｲﾇ","pref":"福岡県","city":"八女市","address":"川犬"},
{"zip_code":"8340021","kana_pref":"ﾌｸｵｶｹﾝ","kana_city":"ﾔﾒｼ","kana_address":"ｷﾀﾀｶﾞﾀ","pref":"福岡県","city":"八女市","address":"北田形"},
{"zip_code":"8340025","kana_pref":"ﾌｸｵｶｹﾝ","kana_city":"ﾔﾒｼ","kana_address":"ｷﾄｳｲﾝ","pref":"福岡県","city":"八女市","address":"祈祷院"},
{"zip_code":"8340046","kana_pref":"ﾌｸｵｶｹﾝ","kana_city":"ﾔﾒｼ","kana_address":"ｸﾆﾀｹ","pref":"福岡県","city":"八女市","address":"国武"},
{"zip_code":"8341221","kana_pref":"ﾌｸｵｶｹﾝ","kana_city":"ﾔﾒｼ","kana_address":"ｸﾛｷﾞﾏﾁｲﾏ","pref":"福岡県","city":"八女市","address":"黒木町今"},
{"zip_code":"8341202","kana_pref":"ﾌｸｵｶｹﾝ","kana_city":"ﾔﾒｼ","kana_address":"ｸﾛｷﾞﾏﾁｵｵﾌﾞﾁ","pref":"福岡県","city":"八女市","address":"黒木町大淵"},
{"zip_code":"8341212","kana_pref":"ﾌｸｵｶｹﾝ","kana_city":"ﾔﾒｼ","kana_address":"ｸﾛｷﾞﾏﾁｶｺｵ","pref":"福岡県","city":"八女市","address":"黒木町鹿子生"},
{"zip_code":"8341222","kana_pref":"ﾌｸｵｶｹﾝ","kana_city":"ﾔﾒｼ","kana_address":"ｸﾛｷﾞﾏﾁｶｻﾊﾗ","pref":"福岡県","city":"八女市","address":"黒木町笠原"},
{"zip_code":"8341201","kana_pref":"ﾌｸｵｶｹﾝ","kana_city":"ﾔﾒｼ","kana_address":"ｸﾛｷﾞﾏﾁｷﾀｵｵﾌﾞﾁ","pref":"福岡県","city":"八女市","address":"黒木町北大淵"},
{"zip_code":"8341203","kana_pref":"ﾌｸｵｶｹﾝ","kana_city":"ﾔﾒｼ","kana_address":"ｸﾛｷﾞﾏﾁｷﾀｺﾞﾔ","pref":"福岡県","city":"八女市","address":"黒木町北木屋"},
{"zip_code":"8341217","kana_pref":"ﾌｸｵｶｹﾝ","kana_city":"ﾔﾒｼ","kana_address":"ｸﾛｷﾞﾏﾁｸﾛｷﾞ","pref":"福岡県","city":"八女市","address":"黒木町黒木"},
{"zip_code":"8341216","kana_pref":"ﾌｸｵｶｹﾝ","kana_city":"ﾔﾒｼ","kana_address":"ｸﾛｷﾞﾏﾁｸﾜﾊﾗ","pref":"福岡県","city":"八女市","address":"黒木町桑原"},
{"zip_code":"8341204","kana_pref":"ﾌｸｵｶｹﾝ","kana_city":"ﾔﾒｼ","kana_address":"ｸﾛｷﾞﾏﾁｺﾔ","pref":"福岡県","city":"八女市","address":"黒木町木屋"},
{"zip_code":"8341205","kana_pref":"ﾌｸｵｶｹﾝ","kana_city":"ﾔﾒｼ","kana_address":"ｸﾛｷﾞﾏﾁﾀｼﾛ","pref":"福岡県","city":"八女市","address":"黒木町田代"},
{"zip_code":"8341214","kana_pref":"ﾌｸｵｶｹﾝ","kana_city":"ﾔﾒｼ","kana_address":"ｸﾛｷﾞﾏﾁﾀﾓﾄ","pref":"福岡県","city":"八女市","address":"黒木町田本"},
{"zip_code":"8341211","kana_pref":"ﾌｸｵｶｹﾝ","kana_city":"ﾔﾒｼ","kana_address":"ｸﾛｷﾞﾏﾁﾂﾁｸﾎﾞ","pref":"福岡県","city":"八女市","address":"黒木町土窪"},
{"zip_code":"8341213","kana_pref":"ﾌｸｵｶｹﾝ","kana_city":"ﾔﾒｼ","kana_address":"ｸﾛｷﾞﾏﾁﾎﾝﾌﾞﾝ","pref":"福岡県","city":"八女市","address":"黒木町本分"},
{"zip_code":"8341215","kana_pref":"ﾌｸｵｶｹﾝ","kana_city":"ﾔﾒｼ","kana_address":"ｸﾛｷﾞﾏﾁﾕﾍﾞﾀ","pref":"福岡県","city":"八女市","address":"黒木町湯辺田"},
{"zip_code":"8340002","kana_pref":"ﾌｸｵｶｹﾝ","kana_city":"ﾔﾒｼ","kana_address":"ｸﾛﾂﾁ","pref":"福岡県","city":"八女市","address":"黒土"},
{"zip_code":"8340042","kana_pref":"ﾌｸｵｶｹﾝ","kana_city":"ﾔﾒｼ","kana_address":"ｻｶｲﾀﾞ","pref":"福岡県","city":"八女市","address":"酒井田"},
{"zip_code":"8341101","kana_pref":"ﾌｸｵｶｹﾝ","kana_city":"ﾔﾒｼ","kana_address":"ｼﾞｮｳﾖｳﾏﾁｶﾐﾖｺﾔﾏ","pref":"福岡県","city":"八女市","address":"上陽町上横山"},
{"zip_code":"8341102","kana_pref":"ﾌｸｵｶｹﾝ","kana_city":"ﾔﾒｼ","kana_address":"ｼﾞｮｳﾖｳﾏﾁｷﾀｶﾜｳﾁ","pref":"福岡県","city":"八女市","address":"上陽町北川内"},
{"zip_code":"8341103","kana_pref":"ﾌｸｵｶｹﾝ","kana_city":"ﾔﾒｼ","kana_address":"ｼﾞｮｳﾖｳﾏﾁｸｷﾊﾗ","pref":"福岡県","city":"八女市","address":"上陽町久木原"},
{"zip_code":"8341104","kana_pref":"ﾌｸｵｶｹﾝ","kana_city":"ﾔﾒｼ","kana_address":"ｼﾞｮｳﾖｳﾏﾁｼﾓﾖｺﾔﾏ","pref":"福岡県","city":"八女市","address":"上陽町下横山"},
{"zip_code":"8340052","kana_pref":"ﾌｸｵｶｹﾝ","kana_city":"ﾔﾒｼ","kana_address":"ｼﾝｼﾞｮｳ","pref":"福岡県","city":"八女市","address":"新庄"},
{"zip_code":"8340045","kana_pref":"ﾌｸｵｶｹﾝ","kana_city":"ﾔﾒｼ","kana_address":"ﾀｲﾗ","pref":"福岡県","city":"八女市","address":"平"},
{"zip_code":"8340034","kana_pref":"ﾌｸｵｶｹﾝ","kana_city":"ﾔﾒｼ","kana_address":"ﾀｶﾂｶ","pref":"福岡県","city":"八女市","address":"高塚"},
{"zip_code":"8340001","kana_pref":"ﾌｸｵｶｹﾝ","kana_city":"ﾔﾒｼ","kana_address":"ﾀｸﾏﾀﾞ","pref":"福岡県","city":"八女市","address":"宅間田"},
{"zip_code":"8340014","kana_pref":"ﾌｸｵｶｹﾝ","kana_city":"ﾔﾒｼ","kana_address":"ﾀﾀﾞﾐ","pref":"福岡県","city":"八女市","address":"忠見"},
{"zip_code":"8340082","kana_pref":"ﾌｸｵｶｹﾝ","kana_city":"ﾔﾒｼ","kana_address":"ﾀﾁﾊﾞﾅﾏﾁｶﾈﾏﾂ","pref":"福岡県","city":"八女市","address":"立花町兼松"},
{"zip_code":"8340083","kana_pref":"ﾌｸｵｶｹﾝ","kana_city":"ﾔﾒｼ","kana_address":"ﾀﾁﾊﾞﾅﾏﾁｶﾐﾍﾊﾞﾙ","pref":"福岡県","city":"八女市","address":"立花町上辺春"},
{"zip_code":"8340085","kana_pref":"ﾌｸｵｶｹﾝ","kana_city":"ﾔﾒｼ","kana_address":"ﾀﾁﾊﾞﾅﾏﾁｷﾀﾔﾏ","pref":"福岡県","city":"八女市","address":"立花町北山"},
{"zip_code":"8340073","kana_pref":"ﾌｸｵｶｹﾝ","kana_city":"ﾔﾒｼ","kana_address":"ﾀﾁﾊﾞﾅﾏﾁｼﾓﾍﾊﾞﾙ","pref":"福岡県","city":"八女市","address":"立花町下辺春"},
{"zip_code":"8340084","kana_pref":"ﾌｸｵｶｹﾝ","kana_city":"ﾔﾒｼ","kana_address":"ﾀﾁﾊﾞﾅﾏﾁｼﾗｷ","pref":"福岡県","city":"八女市","address":"立花町白木"},
{"zip_code":"8340071","kana_pref":"ﾌｸｵｶｹﾝ","kana_city":"ﾔﾒｼ","kana_address":"ﾀﾁﾊﾞﾅﾏﾁﾀｶﾞﾀ","pref":"福岡県","city":"八女市","address":"立花町田形"},
{"zip_code":"8340074","kana_pref":"ﾌｸｵｶｹﾝ","kana_city":"ﾔﾒｼ","kana_address":"ﾀﾁﾊﾞﾅﾏﾁﾀﾆｶﾞﾜ","pref":"福岡県","city":"八女市","address":"立花町谷川"},
{"zip_code":"8340072","kana_pref":"ﾌｸｵｶｹﾝ","kana_city":"ﾔﾒｼ","kana_address":"ﾀﾁﾊﾞﾅﾏﾁﾄｵｸﾀﾞﾆ","pref":"福岡県","city":"八女市","address":"立花町遠久谷"},
{"zip_code":"8340075","kana_pref":"ﾌｸｵｶｹﾝ","kana_city":"ﾔﾒｼ","kana_address":"ﾀﾁﾊﾞﾅﾏﾁﾊﾙｼﾞﾏ","pref":"福岡県","city":"八女市","address":"立花町原島"},
{"zip_code":"8340081","kana_pref":"ﾌｸｵｶｹﾝ","kana_city":"ﾔﾒｼ","kana_address":"ﾀﾁﾊﾞﾅﾏﾁﾔﾏｻｷ","pref":"福岡県","city":"八女市","address":"立花町山崎"},
{"zip_code":"8340067","kana_pref":"ﾌｸｵｶｹﾝ","kana_city":"ﾔﾒｼ","kana_address":"ﾀﾂｶﾞﾊﾗ","pref":"福岡県","city":"八女市","address":"龍ケ原"},
{"zip_code":"8340051","kana_pref":"ﾌｸｵｶｹﾝ","kana_city":"ﾔﾒｼ","kana_address":"ﾀﾃﾉ","pref":"福岡県","city":"八女市","address":"立野"},
{"zip_code":"8340024","kana_pref":"ﾌｸｵｶｹﾝ","kana_city":"ﾔﾒｼ","kana_address":"ﾂﾉｴ","pref":"福岡県","city":"八女市","address":"津江"},
{"zip_code":"8340016","kana_pref":"ﾌｸｵｶｹﾝ","kana_city":"ﾔﾒｼ","kana_address":"ﾄﾖﾌﾞｸ","pref":"福岡県","city":"八女市","address":"豊福"},
{"zip_code":"8340011","kana_pref":"ﾌｸｵｶｹﾝ","kana_city":"ﾔﾒｼ","kana_address":"ﾅｶﾞﾉ","pref":"福岡県","city":"八女市","address":"長野"},
{"zip_code":"8340004","kana_pref":"ﾌｸｵｶｹﾝ","kana_city":"ﾔﾒｼ","kana_address":"ﾉｳｿ","pref":"福岡県","city":"八女市","address":"納楚"},
{"zip_code":"8340023","kana_pref":"ﾌｸｵｶｹﾝ","kana_city":"ﾔﾒｼ","kana_address":"ﾊﾞﾊﾞ","pref":"福岡県","city":"八女市","address":"馬場"},
{"zip_code":"8340043","kana_pref":"ﾌｸｵｶｹﾝ","kana_city":"ﾔﾒｼ","kana_address":"ﾋｶﾘ","pref":"福岡県","city":"八女市","address":"光"},
{"zip_code":"8340003","kana_pref":"ﾌｸｵｶｹﾝ","kana_city":"ﾔﾒｼ","kana_address":"ﾋﾗﾀ","pref":"福岡県","city":"八女市","address":"平田"},
{"zip_code":"8340201","kana_pref":"ﾌｸｵｶｹﾝ","kana_city":"ﾔﾒｼ","kana_address":"ﾎｼﾉﾑﾗ","pref":"福岡県","city":"八女市","address":"星野村"},
{"zip_code":"8340015","kana_pref":"ﾌｸｵｶｹﾝ","kana_city":"ﾔﾒｼ","kana_address":"ﾎﾝ","pref":"福岡県","city":"八女市","address":"本"},
{"zip_code":"8340054","kana_pref":"ﾌｸｵｶｹﾝ","kana_city":"ﾔﾒｼ","kana_address":"ﾏｴｺｶﾞ","pref":"福岡県","city":"八女市","address":"前古賀"},
{"zip_code":"8340032","kana_pref":"ﾌｸｵｶｹﾝ","kana_city":"ﾔﾒｼ","kana_address":"ﾐﾔﾉ","pref":"福岡県","city":"八女市","address":"宮野"},
{"zip_code":"8340066","kana_pref":"ﾌｸｵｶｹﾝ","kana_city":"ﾔﾒｼ","kana_address":"ﾑﾛｵｶ","pref":"福岡県","city":"八女市","address":"室岡"},
{"zip_code":"8340031","kana_pref":"ﾌｸｵｶｹﾝ","kana_city":"ﾔﾒｼ","kana_address":"ﾓﾄﾏﾁ","pref":"福岡県","city":"八女市","address":"本町"},
{"zip_code":"8340063","kana_pref":"ﾌｸｵｶｹﾝ","kana_city":"ﾔﾒｼ","kana_address":"ﾓﾄﾑﾗ","pref":"福岡県","city":"八女市","address":"本村"},
{"zip_code":"8340022","kana_pref":"ﾌｸｵｶｹﾝ","kana_city":"ﾔﾒｼ","kana_address":"ﾔﾅｼﾞﾏ","pref":"福岡県","city":"八女市","address":"柳島"},
{"zip_code":"8340033","kana_pref":"ﾌｸｵｶｹﾝ","kana_city":"ﾔﾒｼ","kana_address":"ﾔﾅｾﾞ","pref":"福岡県","city":"八女市","address":"柳瀬"},
{"zip_code":"8340044","kana_pref":"ﾌｸｵｶｹﾝ","kana_city":"ﾔﾒｼ","kana_address":"ﾔﾊﾞﾗ","pref":"福岡県","city":"八女市","address":"矢原"},
{"zip_code":"8341401","kana_pref":"ﾌｸｵｶｹﾝ","kana_city":"ﾔﾒｼ","kana_address":"ﾔﾍﾞﾑﾗｷﾀﾔﾍﾞ","pref":"福岡県","city":"八女市","address":"矢部村北矢部"},
{"zip_code":"8341402","kana_pref":"ﾌｸｵｶｹﾝ","kana_city":"ﾔﾒｼ","kana_address":"ﾔﾍﾞﾑﾗﾔﾍﾞ","pref":"福岡県","city":"八女市","address":"矢部村矢部"},
{"zip_code":"8340012","kana_pref":"ﾌｸｵｶｹﾝ","kana_city":"ﾔﾒｼ","kana_address":"ﾔﾏｳﾁ","pref":"福岡県","city":"八女市","address":"山内"},
{"zip_code":"8340006","kana_pref":"ﾌｸｵｶｹﾝ","kana_city":"ﾔﾒｼ","kana_address":"ﾖｼﾀﾞ","pref":"福岡県","city":"八女市","address":"吉田"},
{"zip_code":"8340100","kana_pref":"ﾌｸｵｶｹﾝ","kana_city":"ﾔﾒｸﾞﾝﾋﾛｶﾜﾏﾁ","kana_address":"","pref":"福岡県","city":"八女郡広川町","address":""},
{"zip_code":"8340122","kana_pref":"ﾌｸｵｶｹﾝ","kana_city":"ﾔﾒｸﾞﾝﾋﾛｶﾜﾏﾁ","kana_address":"ｲﾁｼﾞｮｳ","pref":"福岡県","city":"八女郡広川町","address":"一條"},
{"zip_code":"8340114","kana_pref":"ﾌｸｵｶｹﾝ","kana_city":"ﾔﾒｸﾞﾝﾋﾛｶﾜﾏﾁ","kana_address":"ｵｵﾀ","pref":"福岡県","city":"八女郡広川町","address":"太田"},
{"zip_code":"8340113","kana_pref":"ﾌｸｵｶｹﾝ","kana_city":"ﾔﾒｸﾞﾝﾋﾛｶﾜﾏﾁ","kana_address":"ｶﾜｶﾐ","pref":"福岡県","city":"八女郡広川町","address":"川上"},
{"zip_code":"8340101","kana_pref":"ﾌｸｵｶｹﾝ","kana_city":"ﾔﾒｸﾞﾝﾋﾛｶﾜﾏﾁ","kana_address":"ｺｼﾞｵ","pref":"福岡県","city":"八女郡広川町","address":"小椎尾"},
{"zip_code":"8340105","kana_pref":"ﾌｸｵｶｹﾝ","kana_city":"ﾔﾒｸﾞﾝﾋﾛｶﾜﾏﾁ","kana_address":"ﾅｶﾞﾉﾌﾞ","pref":"福岡県","city":"八女郡広川町","address":"長延"},
{"zip_code":"8340115","kana_pref":"ﾌｸｵｶｹﾝ","kana_city":"ﾔﾒｸﾞﾝﾋﾛｶﾜﾏﾁ","kana_address":"ﾆｲｼﾛ","pref":"福岡県","city":"八女郡広川町","address":"新代"},
{"zip_code":"8340112","kana_pref":"ﾌｸｵｶｹﾝ","kana_city":"ﾔﾒｸﾞﾝﾋﾛｶﾜﾏﾁ","kana_address":"ﾋｻｲｽﾞﾐ","pref":"福岡県","city":"八女郡広川町","address":"久泉"},
{"zip_code":"8340111","kana_pref":"ﾌｸｵｶｹﾝ","kana_city":"ﾔﾒｸﾞﾝﾋﾛｶﾜﾏﾁ","kana_address":"ﾋﾖｼ","pref":"福岡県","city":"八女郡広川町","address":"日吉"},
{"zip_code":"8340121","kana_pref":"ﾌｸｵｶｹﾝ","kana_city":"ﾔﾒｸﾞﾝﾋﾛｶﾜﾏﾁ","kana_address":"ﾋﾛｶﾜ","pref":"福岡県","city":"八女郡広川町","address":"広川"},
{"zip_code":"8340123","kana_pref":"ﾌｸｵｶｹﾝ","kana_city":"ﾔﾒｸﾞﾝﾋﾛｶﾜﾏﾁ","kana_address":"ﾌｼﾞﾀ","pref":"福岡県","city":"八女郡広川町","address":"藤田"},
{"zip_code":"8340102","kana_pref":"ﾌｸｵｶｹﾝ","kana_city":"ﾔﾒｸﾞﾝﾋﾛｶﾜﾏﾁ","kana_address":"ﾐｽﾞﾊﾗ","pref":"福岡県","city":"八女郡広川町","address":"水原"},
{"zip_code":"8340104","kana_pref":"ﾌｸｵｶｹﾝ","kana_city":"ﾔﾒｸﾞﾝﾋﾛｶﾜﾏﾁ","kana_address":"ﾖｼﾂﾈ","pref":"福岡県","city":"八女郡広川町","address":"吉常"},
{"zip_code":"8340103","kana_pref":"ﾌｸｵｶｹﾝ","kana_city":"ﾔﾒｸﾞﾝﾋﾛｶﾜﾏﾁ","kana_address":"ﾛｸﾀ","pref":"福岡県","city":"八女郡広川町","address":"六田"}]}