{"zip_code":[
{"zip_code":"8350000","kana_pref":"ﾌｸｵｶｹﾝ","kana_city":"ﾐﾔﾏｼ","kana_address":"","pref":"福岡県","city":"みやま市","address":""},
{"zip_code":"8350022","kana_pref":"ﾌｸｵｶｹﾝ","kana_city":"ﾐﾔﾏｼ","kana_address":"ｾﾀｶﾏﾁｱﾔﾋﾛ","pref":"福岡県","city":"みやま市","address":"瀬高町文廣"},
{"zip_code":"8350019","kana_pref":"ﾌｸｵｶｹﾝ","kana_city":"ﾐﾔﾏｼ","kana_address":"ｾﾀｶﾏﾁｵｵｴ","pref":"福岡県","city":"みやま市","address":"瀬高町大江"},
{"zip_code":"8350013","kana_pref":"ﾌｸｵｶｹﾝ","kana_city":"ﾐﾔﾏｼ","kana_address":"ｾﾀｶﾏﾁｵｵｶﾞ","pref":"福岡県","city":"みやま市","address":"瀬高町太神"},
{"zip_code":"8350005","kana_pref":"ﾌｸｵｶｹﾝ","kana_city":"ﾐﾔﾏｼ","kana_address":"ｾﾀｶﾏﾁｵｵｸｻ","pref":"福岡県","city":"みやま市","address":"瀬高町大草"},
{"zip_code":"8350012","kana_pref":"ﾌｸｵｶｹﾝ","kana_city":"ﾐﾔﾏｼ","kana_address":"ｾﾀｶﾏﾁｵｵﾋﾛｿﾞﾉ","pref":"福岡県","city":"みやま市","address":"瀬高町大廣園"},
{"zip_code":"8350023","kana_pref":"ﾌｸｵｶｹﾝ","kana_city":"ﾐﾔﾏｼ","kana_address":"ｾﾀｶﾏﾁｵｶﾞﾜ","pref":"福岡県","city":"みやま市","address":"瀬高町小川"},
{"zip_code":"8350002","kana_pref":"ﾌｸｵｶｹﾝ","kana_city":"ﾐﾔﾏｼ","kana_address":"ｾﾀｶﾏﾁｵﾀﾞ","pref":"福岡県","city":"みやま市","address":"瀬高町小田"},
{"zip_code":"8350025","kana_pref":"ﾌｸｵｶｹﾝ","kana_city":"ﾐﾔﾏｼ","kana_address":"ｾﾀｶﾏﾁｶﾐﾉｼｮｳ","pref":"福岡県","city":"みやま市","address":"瀬高町上庄"},
{"zip_code":"8350014","kana_pref":"ﾌｸｵｶｹﾝ","kana_city":"ﾐﾔﾏｼ","kana_address":"ｾﾀｶﾏﾁｶﾜﾁ","pref":"福岡県","city":"みやま市","address":"瀬高町河内"},
{"zip_code":"8350006","kana_pref":"ﾌｸｵｶｹﾝ","kana_city":"ﾐﾔﾏｼ","kana_address":"ｾﾀｶﾏﾁｻｶﾀ","pref":"福岡県","city":"みやま市","address":"瀬高町坂田"},
{"zip_code":"8350024","kana_pref":"ﾌｸｵｶｹﾝ","kana_city":"ﾐﾔﾏｼ","kana_address":"ｾﾀｶﾏﾁｼﾓﾉｼｮｳ","pref":"福岡県","city":"みやま市","address":"瀬高町下庄"},
{"zip_code":"8350015","kana_pref":"ﾌｸｵｶｹﾝ","kana_city":"ﾐﾔﾏｼ","kana_address":"ｾﾀｶﾏﾁﾀｲｾﾝｼﾞ","pref":"福岡県","city":"みやま市","address":"瀬高町泰仙寺"},
{"zip_code":"8350018","kana_pref":"ﾌｸｵｶｹﾝ","kana_city":"ﾐﾔﾏｼ","kana_address":"ｾﾀｶﾏﾁﾀｶﾔﾅｷﾞ","pref":"福岡県","city":"みやま市","address":"瀬高町高柳"},
{"zip_code":"8350007","kana_pref":"ﾌｸｵｶｹﾝ","kana_city":"ﾐﾔﾏｼ","kana_address":"ｾﾀｶﾏﾁﾅｶﾞﾀ","pref":"福岡県","city":"みやま市","address":"瀬高町長田"},
{"zip_code":"8350016","kana_pref":"ﾌｸｵｶｹﾝ","kana_city":"ﾐﾔﾏｼ","kana_address":"ｾﾀｶﾏﾁﾊﾏﾀﾞ","pref":"福岡県","city":"みやま市","address":"瀬高町濱田"},
{"zip_code":"8350017","kana_pref":"ﾌｸｵｶｹﾝ","kana_city":"ﾐﾔﾏｼ","kana_address":"ｾﾀｶﾏﾁﾋｶﾞｼﾂﾙ","pref":"福岡県","city":"みやま市","address":"瀬高町東津留"},
{"zip_code":"8350001","kana_pref":"ﾌｸｵｶｹﾝ","kana_city":"ﾐﾔﾏｼ","kana_address":"ｾﾀｶﾏﾁﾋﾛｾ","pref":"福岡県","city":"みやま市","address":"瀬高町廣瀬"},
{"zip_code":"8350021","kana_pref":"ﾌｸｵｶｹﾝ","kana_city":"ﾐﾔﾏｼ","kana_address":"ｾﾀｶﾏﾁﾎﾝｺﾞｳ","pref":"福岡県","city":"みやま市","address":"瀬高町本郷"},
{"zip_code":"8350011","kana_pref":"ﾌｸｵｶｹﾝ","kana_city":"ﾐﾔﾏｼ","kana_address":"ｾﾀｶﾏﾁﾏﾂﾀﾞ","pref":"福岡県","city":"みやま市","address":"瀬高町松田"},
{"zip_code":"8350003","kana_pref":"ﾌｸｵｶｹﾝ","kana_city":"ﾐﾔﾏｼ","kana_address":"ｾﾀｶﾏﾁﾓﾄﾖｼ","pref":"福岡県","city":"みやま市","address":"瀬高町本吉"},
{"zip_code":"8350004","kana_pref":"ﾌｸｵｶｹﾝ","kana_city":"ﾐﾔﾏｼ","kana_address":"ｾﾀｶﾏﾁﾔﾏﾄ","pref":"福岡県","city":"みやま市","address":"瀬高町山門"},
{"zip_code":"8350136","kana_pref":"ﾌｸｵｶｹﾝ","kana_city":"ﾐﾔﾏｼ","kana_address":"ﾀｶﾀﾏﾁｶｲﾂﾞ","pref":"福岡県","city":"みやま市","address":"高田町海津"},
{"zip_code":"8350132","kana_pref":"ﾌｸｵｶｹﾝ","kana_city":"ﾐﾔﾏｼ","kana_address":"ﾀｶﾀﾏﾁｶﾒﾀﾆ","pref":"福岡県","city":"みやま市","address":"高田町亀谷"},
{"zip_code":"8350135","kana_pref":"ﾌｸｵｶｹﾝ","kana_city":"ﾐﾔﾏｼ","kana_address":"ﾀｶﾀﾏﾁﾀｹｲ","pref":"福岡県","city":"みやま市","address":"高田町竹飯"},
{"zip_code":"8350133","kana_pref":"ﾌｸｵｶｹﾝ","kana_city":"ﾐﾔﾏｼ","kana_address":"ﾀｶﾀﾏﾁﾀﾉｳﾗ","pref":"福岡県","city":"みやま市","address":"高田町田浦"},
{"zip_code":"8350134","kana_pref":"ﾌｸｵｶｹﾝ","kana_city":"ﾐﾔﾏｼ","kana_address":"ﾀｶﾀﾏﾁﾊｴ","pref":"福岡県","city":"みやま市","address":"高田町飯江"},
{"zip_code":"8350131","kana_pref":"ﾌｸｵｶｹﾝ","kana_city":"ﾐﾔﾏｼ","kana_address":"ﾀｶﾀﾏﾁﾏｲﾂﾞﾙ","pref":"福岡県","city":"みやま市","address":"高田町舞鶴"},
{"zip_code":"8350102","kana_pref":"ﾌｸｵｶｹﾝ","kana_city":"ﾐﾔﾏｼ","kana_address":"ﾔﾏｶﾜﾏﾁｵﾉ","pref":"福岡県","city":"みやま市","address":"山川町尾野"},
{"zip_code":"8350104","kana_pref":"ﾌｸｵｶｹﾝ","kana_city":"ﾐﾔﾏｼ","kana_address":"ﾔﾏｶﾜﾏﾁｶﾜﾊﾗｳﾁ","pref":"福岡県","city":"みやま市","address":"山川町河原内"},
{"zip_code":"8350112","kana_pref":"ﾌｸｵｶｹﾝ","kana_city":"ﾐﾔﾏｼ","kana_address":"ﾔﾏｶﾜﾏﾁｷﾀﾉｾｷ","pref":"福岡県","city":"みやま市","address":"山川町北関"},
{"zip_code":"8350114","kana_pref":"ﾌｸｵｶｹﾝ","kana_city":"ﾐﾔﾏｼ","kana_address":"ﾔﾏｶﾜﾏﾁｺｳﾀﾞ","pref":"福岡県","city":"みやま市","address":"山川町甲田"},
{"zip_code":"8350113","kana_pref":"ﾌｸｵｶｹﾝ","kana_city":"ﾐﾔﾏｼ","kana_address":"ﾔﾏｶﾜﾏﾁｼｹﾞﾄﾐ","pref":"福岡県","city":"みやま市","address":"山川町重冨"},
{"zip_code":"8350103","kana_pref":"ﾌｸｵｶｹﾝ","kana_city":"ﾐﾔﾏｼ","kana_address":"ﾔﾏｶﾜﾏﾁｼﾐｽﾞ","pref":"福岡県","city":"みやま市","address":"山川町清水"},
{"zip_code":"8350101","kana_pref":"ﾌｸｵｶｹﾝ","kana_city":"ﾐﾔﾏｼ","kana_address":"ﾔﾏｶﾜﾏﾁﾀﾁﾔﾏ","pref":"福岡県","city":"みやま市","address":"山川町立山"},
{"zip_code":"8350115","kana_pref":"ﾌｸｵｶｹﾝ","kana_city":"ﾐﾔﾏｼ","kana_address":"ﾔﾏｶﾜﾏﾁﾊﾗﾏﾁ","pref":"福岡県","city":"みやま市","address":"山川町原町"},
{"zip_code":"8350111","kana_pref":"ﾌｸｵｶｹﾝ","kana_city":"ﾐﾔﾏｼ","kana_address":"ﾔﾏｶﾜﾏﾁﾏﾕﾐ","pref":"福岡県","city":"みやま市","address":"山川町真弓"}]}