{"zip_code":[
{"zip_code":"8360000","kana_pref":"ﾌｸｵｶｹﾝ","kana_city":"ｵｵﾑﾀｼ","kana_address":"","pref":"福岡県","city":"大牟田市","address":""},
{"zip_code":"8360897","kana_pref":"ﾌｸｵｶｹﾝ","kana_city":"ｵｵﾑﾀｼ","kana_address":"ｱｵﾊﾞﾏﾁ","pref":"福岡県","city":"大牟田市","address":"青葉町"},
{"zip_code":"8360852","kana_pref":"ﾌｸｵｶｹﾝ","kana_city":"ｵｵﾑﾀｼ","kana_address":"ｱｹﾎﾞﾉﾏﾁ","pref":"福岡県","city":"大牟田市","address":"曙町"},
{"zip_code":"8360807","kana_pref":"ﾌｸｵｶｹﾝ","kana_city":"ｵｵﾑﾀｼ","kana_address":"ｱｻﾋﾏﾁ","pref":"福岡県","city":"大牟田市","address":"旭町"},
{"zip_code":"8360817","kana_pref":"ﾌｸｵｶｹﾝ","kana_city":"ｵｵﾑﾀｼ","kana_address":"ｱｻﾑﾀﾏﾁ","pref":"福岡県","city":"大牟田市","address":"浅牟田町"},
{"zip_code":"8360087","kana_pref":"ﾌｸｵｶｹﾝ","kana_city":"ｵｵﾑﾀｼ","kana_address":"ｲｲﾀﾞﾏﾁ","pref":"福岡県","city":"大牟田市","address":"飯田町"},
{"zip_code":"8360831","kana_pref":"ﾌｸｵｶｹﾝ","kana_city":"ｵｵﾑﾀｼ","kana_address":"ｲｽﾞﾐﾏﾁ","pref":"福岡県","city":"大牟田市","address":"泉町"},
{"zip_code":"8360854","kana_pref":"ﾌｸｵｶｹﾝ","kana_city":"ｵｵﾑﾀｼ","kana_address":"ｲｽﾞﾓﾏﾁ","pref":"福岡県","city":"大牟田市","address":"出雲町"},
{"zip_code":"8360893","kana_pref":"ﾌｸｵｶｹﾝ","kana_city":"ｵｵﾑﾀｼ","kana_address":"ｲﾁﾉ","pref":"福岡県","city":"大牟田市","address":"櫟野"},
{"zip_code":"8360863","kana_pref":"ﾌｸｵｶｹﾝ","kana_city":"ｵｵﾑﾀｼ","kana_address":"ｲﾁﾉｳﾗﾏﾁ","pref":"福岡県","city":"大牟田市","address":"一浦町"},
{"zip_code":"8360085","kana_pref":"ﾌｸｵｶｹﾝ","kana_city":"ｵｵﾑﾀｼ","kana_address":"ｲﾁﾌﾞﾏﾁ","pref":"福岡県","city":"大牟田市","address":"一部町"},
{"zip_code":"8360834","kana_pref":"ﾌｸｵｶｹﾝ","kana_city":"ｵｵﾑﾀｼ","kana_address":"ｲｯﾎﾟﾝﾏﾁ","pref":"福岡県","city":"大牟田市","address":"一本町"},
{"zip_code":"8360063","kana_pref":"ﾌｸｵｶｹﾝ","kana_city":"ｵｵﾑﾀｼ","kana_address":"ｲﾘﾌﾈﾏﾁ","pref":"福岡県","city":"大牟田市","address":"入船町"},
{"zip_code":"8360846","kana_pref":"ﾌｸｵｶｹﾝ","kana_city":"ｵｵﾑﾀｼ","kana_address":"ｳｷｮｳﾏﾁ","pref":"福岡県","city":"大牟田市","address":"右京町"},
{"zip_code":"8360882","kana_pref":"ﾌｸｵｶｹﾝ","kana_city":"ｵｵﾑﾀｼ","kana_address":"ｳｽｲｼﾝﾏﾁ","pref":"福岡県","city":"大牟田市","address":"臼井新町"},
{"zip_code":"8360094","kana_pref":"ﾌｸｵｶｹﾝ","kana_city":"ｵｵﾑﾀｼ","kana_address":"ｳｽｲﾏﾁ","pref":"福岡県","city":"大牟田市","address":"臼井町"},
{"zip_code":"8360014","kana_pref":"ﾌｸｵｶｹﾝ","kana_city":"ｵｵﾑﾀｼ","kana_address":"ｴﾋﾞｽﾏﾁ","pref":"福岡県","city":"大牟田市","address":"恵比須町"},
{"zip_code":"8360877","kana_pref":"ﾌｸｵｶｹﾝ","kana_city":"ｵｵﾑﾀｼ","kana_address":"ｴﾝﾒｲｼﾞﾏﾁ","pref":"福岡県","city":"大牟田市","address":"延命寺町"},
{"zip_code":"8360824","kana_pref":"ﾌｸｵｶｹﾝ","kana_city":"ｵｵﾑﾀｼ","kana_address":"ｵｵｳﾗﾏﾁ","pref":"福岡県","city":"大牟田市","address":"大浦町"},
{"zip_code":"8360036","kana_pref":"ﾌｸｵｶｹﾝ","kana_city":"ｵｵﾑﾀｼ","kana_address":"ｵｶﾞﾜﾏﾁ","pref":"福岡県","city":"大牟田市","address":"小川町"},
{"zip_code":"8360091","kana_pref":"ﾌｸｵｶｹﾝ","kana_city":"ｵｵﾑﾀｼ","kana_address":"ｵｷﾀﾏﾁ","pref":"福岡県","city":"大牟田市","address":"沖田町"},
{"zip_code":"8360801","kana_pref":"ﾌｸｵｶｹﾝ","kana_city":"ｵｵﾑﾀｼ","kana_address":"ｶｷｿﾞﾉﾏﾁ","pref":"福岡県","city":"大牟田市","address":"柿園町"},
{"zip_code":"8360082","kana_pref":"ﾌｸｵｶｹﾝ","kana_city":"ｵｵﾑﾀｼ","kana_address":"ｶﾀﾋﾗﾏﾁ","pref":"福岡県","city":"大牟田市","address":"片平町"},
{"zip_code":"8360886","kana_pref":"ﾌｸｵｶｹﾝ","kana_city":"ｵｵﾑﾀｼ","kana_address":"ｶﾂﾀﾞﾁ","pref":"福岡県","city":"大牟田市","address":"勝立"},
{"zip_code":"8360071","kana_pref":"ﾌｸｵｶｹﾝ","kana_city":"ｵｵﾑﾀｼ","kana_address":"ｶﾉｳﾏﾁ","pref":"福岡県","city":"大牟田市","address":"加納町"},
{"zip_code":"8360853","kana_pref":"ﾌｸｵｶｹﾝ","kana_city":"ｵｵﾑﾀｼ","kana_address":"ｶﾐﾏﾁ","pref":"福岡県","city":"大牟田市","address":"上町"},
{"zip_code":"8360072","kana_pref":"ﾌｸｵｶｹﾝ","kana_city":"ｵｵﾑﾀｼ","kana_address":"ｶﾐﾔｼｷﾏﾁ","pref":"福岡県","city":"大牟田市","address":"上屋敷町"},
{"zip_code":"8360823","kana_pref":"ﾌｸｵｶｹﾝ","kana_city":"ｵｵﾑﾀｼ","kana_address":"ｶﾒﾀﾆﾏﾁ","pref":"福岡県","city":"大牟田市","address":"亀谷町"},
{"zip_code":"8360812","kana_pref":"ﾌｸｵｶｹﾝ","kana_city":"ｵｵﾑﾀｼ","kana_address":"ｶﾒﾉｺﾏﾁ","pref":"福岡県","city":"大牟田市","address":"亀甲町"},
{"zip_code":"8360815","kana_pref":"ﾌｸｵｶｹﾝ","kana_city":"ｵｵﾑﾀｼ","kana_address":"ｶﾜﾗﾏﾁ","pref":"福岡県","city":"大牟田市","address":"瓦町"},
{"zip_code":"8360093","kana_pref":"ﾌｸｵｶｹﾝ","kana_city":"ｵｵﾑﾀｼ","kana_address":"ｶﾝﾀﾞﾏﾁ","pref":"福岡県","city":"大牟田市","address":"神田町"},
{"zip_code":"8360016","kana_pref":"ﾌｸｵｶｹﾝ","kana_city":"ｵｵﾑﾀｼ","kana_address":"ｷﾀｲｿﾏﾁ","pref":"福岡県","city":"大牟田市","address":"北磯町"},
{"zip_code":"8360894","kana_pref":"ﾌｸｵｶｹﾝ","kana_city":"ｵｵﾑﾀｼ","kana_address":"ｷｮｳﾗｷﾞ","pref":"福岡県","city":"大牟田市","address":"教楽来"},
{"zip_code":"8360045","kana_pref":"ﾌｸｵｶｹﾝ","kana_city":"ｵｵﾑﾀｼ","kana_address":"ｸﾎﾞﾀﾏﾁ","pref":"福岡県","city":"大牟田市","address":"久保田町"},
{"zip_code":"8360011","kana_pref":"ﾌｸｵｶｹﾝ","kana_city":"ｵｵﾑﾀｼ","kana_address":"ｹﾝﾛｳﾏﾁ","pref":"福岡県","city":"大牟田市","address":"健老町"},
{"zip_code":"8360891","kana_pref":"ﾌｸｵｶｹﾝ","kana_city":"ｵｵﾑﾀｼ","kana_address":"ｺﾞｳｾｲﾏﾁ","pref":"福岡県","city":"大牟田市","address":"合成町"},
{"zip_code":"8360872","kana_pref":"ﾌｸｵｶｹﾝ","kana_city":"ｵｵﾑﾀｼ","kana_address":"ｺｶﾞﾈﾏﾁ","pref":"福岡県","city":"大牟田市","address":"黄金町"},
{"zip_code":"8360034","kana_pref":"ﾌｸｵｶｹﾝ","kana_city":"ｵｵﾑﾀｼ","kana_address":"ｺﾊﾏﾏﾁ","pref":"福岡県","city":"大牟田市","address":"小浜町"},
{"zip_code":"8360042","kana_pref":"ﾌｸｵｶｹﾝ","kana_city":"ｵｵﾑﾀｼ","kana_address":"ｻｶｴﾏﾁ","pref":"福岡県","city":"大牟田市","address":"栄町"},
{"zip_code":"8360092","kana_pref":"ﾌｸｵｶｹﾝ","kana_city":"ｵｵﾑﾀｼ","kana_address":"ｻｸﾗﾏﾁ","pref":"福岡県","city":"大牟田市","address":"桜町"},
{"zip_code":"8360836","kana_pref":"ﾌｸｵｶｹﾝ","kana_city":"ｵｵﾑﾀｼ","kana_address":"ｻｺﾏﾁ","pref":"福岡県","city":"大牟田市","address":"左古町"},
{"zip_code":"8360884","kana_pref":"ﾌｸｵｶｹﾝ","kana_city":"ｵｵﾑﾀｼ","kana_address":"ｻｻﾊﾗﾏﾁ","pref":"福岡県","city":"大牟田市","address":"笹原町"},
{"zip_code":"8360851","kana_pref":"ﾌｸｵｶｹﾝ","kana_city":"ｵｵﾑﾀｼ","kana_address":"ｻｻﾊﾞﾔｼﾏﾁ","pref":"福岡県","city":"大牟田市","address":"笹林町"},
{"zip_code":"8360825","kana_pref":"ﾌｸｵｶｹﾝ","kana_city":"ｵｵﾑﾀｼ","kana_address":"ｻﾝｺｳﾏﾁ","pref":"福岡県","city":"大牟田市","address":"三坑町"},
{"zip_code":"8360057","kana_pref":"ﾌｸｵｶｹﾝ","kana_city":"ｵｵﾑﾀｼ","kana_address":"ｼｵﾔﾏﾁ","pref":"福岡県","city":"大牟田市","address":"汐屋町"},
{"zip_code":"8360885","kana_pref":"ﾌｸｵｶｹﾝ","kana_city":"ｵｵﾑﾀｼ","kana_address":"ｼﾓｲｹﾏﾁ","pref":"福岡県","city":"大牟田市","address":"下池町"},
{"zip_code":"8360866","kana_pref":"ﾌｸｵｶｹﾝ","kana_city":"ｵｵﾑﾀｼ","kana_address":"ｼﾞｮｳｶﾝﾏﾁ","pref":"福岡県","city":"大牟田市","address":"上官町"},
{"zip_code":"8360845","kana_pref":"ﾌｸｵｶｹﾝ","kana_city":"ｵｵﾑﾀｼ","kana_address":"ｼｮｳｻﾞﾝﾏﾁ","pref":"福岡県","city":"大牟田市","address":"正山町"},
{"zip_code":"8360844","kana_pref":"ﾌｸｵｶｹﾝ","kana_city":"ｵｵﾑﾀｼ","kana_address":"ｼﾞｮｳｼﾝﾏﾁ","pref":"福岡県","city":"大牟田市","address":"浄真町"},
{"zip_code":"8360001","kana_pref":"ﾌｸｵｶｹﾝ","kana_city":"ｵｵﾑﾀｼ","kana_address":"ｼｮｳﾜﾋﾞﾗｷ","pref":"福岡県","city":"大牟田市","address":"昭和開"},
{"zip_code":"8360871","kana_pref":"ﾌｸｵｶｹﾝ","kana_city":"ｵｵﾑﾀｼ","kana_address":"ｼｮｳﾜﾏﾁ","pref":"福岡県","city":"大牟田市","address":"昭和町"},
{"zip_code":"8360052","kana_pref":"ﾌｸｵｶｹﾝ","kana_city":"ｵｵﾑﾀｼ","kana_address":"ｼﾗｶﾞﾈﾏﾁ","pref":"福岡県","city":"大牟田市","address":"白金町"},
{"zip_code":"8360843","kana_pref":"ﾌｸｵｶｹﾝ","kana_city":"ｵｵﾑﾀｼ","kana_address":"ｼﾗﾇﾋﾏﾁ","pref":"福岡県","city":"大牟田市","address":"不知火町"},
{"zip_code":"8360007","kana_pref":"ﾌｸｵｶｹﾝ","kana_city":"ｵｵﾑﾀｼ","kana_address":"ｼﾛﾏﾁ","pref":"福岡県","city":"大牟田市","address":"城町"},
{"zip_code":"8360017","kana_pref":"ﾌｸｵｶｹﾝ","kana_city":"ｵｵﾑﾀｼ","kana_address":"ｼﾝｶｲﾏﾁ","pref":"福岡県","city":"大牟田市","address":"新開町"},
{"zip_code":"8360895","kana_pref":"ﾌｸｵｶｹﾝ","kana_city":"ｵｵﾑﾀｼ","kana_address":"ｼﾝｶﾂﾀﾞﾁﾏﾁ","pref":"福岡県","city":"大牟田市","address":"新勝立町"},
{"zip_code":"8360061","kana_pref":"ﾌｸｵｶｹﾝ","kana_city":"ｵｵﾑﾀｼ","kana_address":"ｼﾝｺｳﾏﾁ","pref":"福岡県","city":"大牟田市","address":"新港町"},
{"zip_code":"8360041","kana_pref":"ﾌｸｵｶｹﾝ","kana_city":"ｵｵﾑﾀｼ","kana_address":"ｼﾝｻｶｴﾏﾁ","pref":"福岡県","city":"大牟田市","address":"新栄町"},
{"zip_code":"8360032","kana_pref":"ﾌｸｵｶｹﾝ","kana_city":"ｵｵﾑﾀｼ","kana_address":"ｼﾝﾁﾏﾁ","pref":"福岡県","city":"大牟田市","address":"新地町"},
{"zip_code":"8360864","kana_pref":"ﾌｸｵｶｹﾝ","kana_city":"ｵｵﾑﾀｼ","kana_address":"ｼﾝﾄﾞｳｼﾞﾏﾁ","pref":"福岡県","city":"大牟田市","address":"真道寺町"},
{"zip_code":"8360874","kana_pref":"ﾌｸｵｶｹﾝ","kana_city":"ｵｵﾑﾀｼ","kana_address":"ｽｴﾋﾛﾏﾁ","pref":"福岡県","city":"大牟田市","address":"末広町"},
{"zip_code":"8360024","kana_pref":"ﾌｸｵｶｹﾝ","kana_city":"ｵｵﾑﾀｼ","kana_address":"ｽﾐﾖｼﾏﾁ","pref":"福岡県","city":"大牟田市","address":"住吉町"},
{"zip_code":"8360051","kana_pref":"ﾌｸｵｶｹﾝ","kana_city":"ｵｵﾑﾀｼ","kana_address":"ｽﾜﾏﾁ","pref":"福岡県","city":"大牟田市","address":"諏訪町"},
{"zip_code":"8360077","kana_pref":"ﾌｸｵｶｹﾝ","kana_city":"ｵｵﾑﾀｼ","kana_address":"ｿﾞｳﾒｷﾏﾁ","pref":"福岡県","city":"大牟田市","address":"早米来町"},
{"zip_code":"8360006","kana_pref":"ﾌｸｵｶｹﾝ","kana_city":"ｵｵﾑﾀｼ","kana_address":"ﾀﾞｲｺｸﾏﾁ","pref":"福岡県","city":"大牟田市","address":"大黒町"},
{"zip_code":"8360047","kana_pref":"ﾌｸｵｶｹﾝ","kana_city":"ｵｵﾑﾀｼ","kana_address":"ﾀｲｼｮｳﾏﾁ","pref":"福岡県","city":"大牟田市","address":"大正町"},
{"zip_code":"8360064","kana_pref":"ﾌｸｵｶｹﾝ","kana_city":"ｵｵﾑﾀｼ","kana_address":"ﾀｶｻｺﾞﾏﾁ","pref":"福岡県","city":"大牟田市","address":"高砂町"},
{"zip_code":"8360861","kana_pref":"ﾌｸｵｶｹﾝ","kana_city":"ｵｵﾑﾀｼ","kana_address":"ﾀｶﾗｻﾞｶﾏﾁ","pref":"福岡県","city":"大牟田市","address":"宝坂町"},
{"zip_code":"8360837","kana_pref":"ﾌｸｵｶｹﾝ","kana_city":"ｵｵﾑﾀｼ","kana_address":"ﾀﾆﾏﾁ","pref":"福岡県","city":"大牟田市","address":"谷町"},
{"zip_code":"8360081","kana_pref":"ﾌｸｵｶｹﾝ","kana_city":"ｵｵﾑﾀｼ","kana_address":"ﾀﾊﾞﾀﾏﾁ","pref":"福岡県","city":"大牟田市","address":"田端町"},
{"zip_code":"8360841","kana_pref":"ﾌｸｵｶｹﾝ","kana_city":"ｵｵﾑﾀｼ","kana_address":"ﾁｸﾏﾁ","pref":"福岡県","city":"大牟田市","address":"築町"},
{"zip_code":"8360035","kana_pref":"ﾌｸｵｶｹﾝ","kana_city":"ｵｵﾑﾀｼ","kana_address":"ﾁﾖﾏﾁ","pref":"福岡県","city":"大牟田市","address":"千代町"},
{"zip_code":"8360005","kana_pref":"ﾌｸｵｶｹﾝ","kana_city":"ｵｵﾑﾀｼ","kana_address":"ﾂﾊﾞｸﾛﾏﾁ","pref":"福岡県","city":"大牟田市","address":"椿黒町"},
{"zip_code":"8360004","kana_pref":"ﾌｸｵｶｹﾝ","kana_city":"ｵｵﾑﾀｼ","kana_address":"ﾃｶﾞﾏ","pref":"福岡県","city":"大牟田市","address":"手鎌"},
{"zip_code":"8360015","kana_pref":"ﾌｸｵｶｹﾝ","kana_city":"ｵｵﾑﾀｼ","kana_address":"ﾃﾝｼﾞﾝﾏﾁ","pref":"福岡県","city":"大牟田市","address":"天神町"},
{"zip_code":"8360896","kana_pref":"ﾌｸｵｶｹﾝ","kana_city":"ｵｵﾑﾀｼ","kana_address":"ﾃﾝﾄﾞｳﾏﾁ","pref":"福岡県","city":"大牟田市","address":"天道町"},
{"zip_code":"8360054","kana_pref":"ﾌｸｵｶｹﾝ","kana_city":"ｵｵﾑﾀｼ","kana_address":"ﾃﾝﾘｮｳﾏﾁ","pref":"福岡県","city":"大牟田市","address":"天領町"},
{"zip_code":"8360822","kana_pref":"ﾌｸｵｶｹﾝ","kana_city":"ｵｵﾑﾀｼ","kana_address":"ﾄｳｶﾏﾁ","pref":"福岡県","city":"大牟田市","address":"稲荷町"},
{"zip_code":"8360003","kana_pref":"ﾌｸｵｶｹﾝ","kana_city":"ｵｵﾑﾀｼ","kana_address":"ﾄｳｾﾝ","pref":"福岡県","city":"大牟田市","address":"唐船"},
{"zip_code":"8360805","kana_pref":"ﾌｸｵｶｹﾝ","kana_city":"ｵｵﾑﾀｼ","kana_address":"ﾄｵﾘﾁｮｳ","pref":"福岡県","city":"大牟田市","address":"通町"},
{"zip_code":"8360832","kana_pref":"ﾌｸｵｶｹﾝ","kana_city":"ｵｵﾑﾀｼ","kana_address":"ﾄｷﾜﾏﾁ","pref":"福岡県","city":"大牟田市","address":"常盤町"},
{"zip_code":"8360803","kana_pref":"ﾌｸｵｶｹﾝ","kana_city":"ｵｵﾑﾀｼ","kana_address":"ﾄﾘﾂｶﾏﾁ","pref":"福岡県","city":"大牟田市","address":"鳥塚町"},
{"zip_code":"8360023","kana_pref":"ﾌｸｵｶｹﾝ","kana_city":"ｵｵﾑﾀｼ","kana_address":"ﾅｶｼﾏﾏﾁ","pref":"福岡県","city":"大牟田市","address":"中島町"},
{"zip_code":"8360025","kana_pref":"ﾌｸｵｶｹﾝ","kana_city":"ｵｵﾑﾀｼ","kana_address":"ﾅｶﾄﾓﾏﾁ","pref":"福岡県","city":"大牟田市","address":"中友町"},
{"zip_code":"8360013","kana_pref":"ﾌｸｵｶｹﾝ","kana_city":"ｵｵﾑﾀｼ","kana_address":"ﾅｶﾏﾁ","pref":"福岡県","city":"大牟田市","address":"中町"},
{"zip_code":"8360083","kana_pref":"ﾌｸｵｶｹﾝ","kana_city":"ｵｵﾑﾀｼ","kana_address":"ﾅｶﾞﾀﾏﾁ","pref":"福岡県","city":"大牟田市","address":"長田町"},
{"zip_code":"8360804","kana_pref":"ﾌｸｵｶｹﾝ","kana_city":"ｵｵﾑﾀｼ","kana_address":"ﾅｶﾞﾐｿﾞﾏﾁ","pref":"福岡県","city":"大牟田市","address":"長溝町"},
{"zip_code":"8360865","kana_pref":"ﾌｸｵｶｹﾝ","kana_city":"ｵｵﾑﾀｼ","kana_address":"ﾅﾅｳﾗﾏﾁ","pref":"福岡県","city":"大牟田市","address":"七浦町"},
{"zip_code":"8360066","kana_pref":"ﾌｸｵｶｹﾝ","kana_city":"ｵｵﾑﾀｼ","kana_address":"ﾅﾆﾜﾏﾁ","pref":"福岡県","city":"大牟田市","address":"浪花町"},
{"zip_code":"8360031","kana_pref":"ﾌｸｵｶｹﾝ","kana_city":"ｵｵﾑﾀｼ","kana_address":"ﾆｼｼﾝﾏﾁ","pref":"福岡県","city":"大牟田市","address":"西新町"},
{"zip_code":"8360027","kana_pref":"ﾌｸｵｶｹﾝ","kana_city":"ｵｵﾑﾀｼ","kana_address":"ﾆｼﾊﾏﾀﾞﾏﾁ","pref":"福岡県","city":"大牟田市","address":"西浜田町"},
{"zip_code":"8360062","kana_pref":"ﾌｸｵｶｹﾝ","kana_city":"ｵｵﾑﾀｼ","kana_address":"ﾆｼﾐﾅﾄﾏﾁ","pref":"福岡県","city":"大牟田市","address":"西港町"},
{"zip_code":"8360835","kana_pref":"ﾌｸｵｶｹﾝ","kana_city":"ｵｵﾑﾀｼ","kana_address":"ﾆｼﾐﾔｳﾗﾏﾁ","pref":"福岡県","city":"大牟田市","address":"西宮浦町"},
{"zip_code":"8360095","kana_pref":"ﾌｸｵｶｹﾝ","kana_city":"ｵｵﾑﾀｼ","kana_address":"ﾉｿﾞｴﾏﾁ","pref":"福岡県","city":"大牟田市","address":"野添町"},
{"zip_code":"8360096","kana_pref":"ﾌｸｵｶｹﾝ","kana_city":"ｵｵﾑﾀｼ","kana_address":"ﾊｷﾞｵﾏﾁ","pref":"福岡県","city":"大牟田市","address":"萩尾町"},
{"zip_code":"8360043","kana_pref":"ﾌｸｵｶｹﾝ","kana_city":"ｵｵﾑﾀｼ","kana_address":"ﾊｼｸﾞﾁﾏﾁ","pref":"福岡県","city":"大牟田市","address":"橋口町"},
{"zip_code":"8360811","kana_pref":"ﾌｸｵｶｹﾝ","kana_city":"ｵｵﾑﾀｼ","kana_address":"ﾊﾁｼﾞﾘﾏﾁ","pref":"福岡県","city":"大牟田市","address":"八尻町"},
{"zip_code":"8360816","kana_pref":"ﾌｸｵｶｹﾝ","kana_city":"ｵｵﾑﾀｼ","kana_address":"ﾊﾁﾎﾝﾏﾁ","pref":"福岡県","city":"大牟田市","address":"八本町"},
{"zip_code":"8360867","kana_pref":"ﾌｸｵｶｹﾝ","kana_city":"ｵｵﾑﾀｼ","kana_address":"ﾊﾅｿﾞﾉﾏﾁ","pref":"福岡県","city":"大牟田市","address":"花園町"},
{"zip_code":"8360084","kana_pref":"ﾌｸｵｶｹﾝ","kana_city":"ｵｵﾑﾀｼ","kana_address":"ﾊﾞﾊﾞﾏﾁ","pref":"福岡県","city":"大牟田市","address":"馬場町"},
{"zip_code":"8360026","kana_pref":"ﾌｸｵｶｹﾝ","kana_city":"ｵｵﾑﾀｼ","kana_address":"ﾊﾏﾀﾞﾏﾁ","pref":"福岡県","city":"大牟田市","address":"浜田町"},
{"zip_code":"8360021","kana_pref":"ﾌｸｵｶｹﾝ","kana_city":"ｵｵﾑﾀｼ","kana_address":"ﾊﾏﾏﾁ","pref":"福岡県","city":"大牟田市","address":"浜町"},
{"zip_code":"8360892","kana_pref":"ﾌｸｵｶｹﾝ","kana_city":"ｵｵﾑﾀｼ","kana_address":"ﾊﾔｶﾞﾈﾏﾁ","pref":"福岡県","city":"大牟田市","address":"早鐘町"},
{"zip_code":"8360873","kana_pref":"ﾌｸｵｶｹﾝ","kana_city":"ｵｵﾑﾀｼ","kana_address":"ﾊﾔﾒﾏﾁ","pref":"福岡県","city":"大牟田市","address":"駛馬町"},
{"zip_code":"8360862","kana_pref":"ﾌｸｵｶｹﾝ","kana_city":"ｵｵﾑﾀｼ","kana_address":"ﾊﾗﾔﾏﾏﾁ","pref":"福岡県","city":"大牟田市","address":"原山町"},
{"zip_code":"8360821","kana_pref":"ﾌｸｵｶｹﾝ","kana_city":"ｵｵﾑﾀｼ","kana_address":"ﾋｶﾞｼｲｽﾞﾐﾏﾁ","pref":"福岡県","city":"大牟田市","address":"東泉町"},
{"zip_code":"8360806","kana_pref":"ﾌｸｵｶｹﾝ","kana_city":"ｵｵﾑﾀｼ","kana_address":"ﾋｶﾞｼｼﾝﾏﾁ","pref":"福岡県","city":"大牟田市","address":"東新町"},
{"zip_code":"8360097","kana_pref":"ﾌｸｵｶｹﾝ","kana_city":"ｵｵﾑﾀｼ","kana_address":"ﾋｶﾞｼﾊｷﾞｵﾏﾁ","pref":"福岡県","city":"大牟田市","address":"東萩尾町"},
{"zip_code":"8360827","kana_pref":"ﾌｸｵｶｹﾝ","kana_city":"ｵｵﾑﾀｼ","kana_address":"ﾋｶﾞｼﾐﾔｳﾗﾏﾁ","pref":"福岡県","city":"大牟田市","address":"東宮浦町"},
{"zip_code":"8360055","kana_pref":"ﾌｸｵｶｹﾝ","kana_city":"ｵｵﾑﾀｼ","kana_address":"ﾋｸﾞﾁﾏﾁ","pref":"福岡県","city":"大牟田市","address":"樋口町"},
{"zip_code":"8360802","kana_pref":"ﾌｸｵｶｹﾝ","kana_city":"ｵｵﾑﾀｼ","kana_address":"ﾋﾉﾃﾞﾏﾁ","pref":"福岡県","city":"大牟田市","address":"日出町"},
{"zip_code":"8360056","kana_pref":"ﾌｸｵｶｹﾝ","kana_city":"ｵｵﾑﾀｼ","kana_address":"ﾋﾒｼﾏﾏﾁ","pref":"福岡県","city":"大牟田市","address":"姫島町"},
{"zip_code":"8360813","kana_pref":"ﾌｸｵｶｹﾝ","kana_city":"ｵｵﾑﾀｼ","kana_address":"ﾋﾗﾊﾞﾙﾏﾁ","pref":"福岡県","city":"大牟田市","address":"平原町"},
{"zip_code":"8360074","kana_pref":"ﾌｸｵｶｹﾝ","kana_city":"ｵｵﾑﾀｼ","kana_address":"ﾌｼﾞﾀﾏﾁ","pref":"福岡県","city":"大牟田市","address":"藤田町"},
{"zip_code":"8360073","kana_pref":"ﾌｸｵｶｹﾝ","kana_city":"ｵｵﾑﾀｼ","kana_address":"ﾌﾅﾂﾏﾁ","pref":"福岡県","city":"大牟田市","address":"船津町"},
{"zip_code":"8360044","kana_pref":"ﾌｸｵｶｹﾝ","kana_city":"ｵｵﾑﾀｼ","kana_address":"ﾌﾙﾏﾁ","pref":"福岡県","city":"大牟田市","address":"古町"},
{"zip_code":"8360046","kana_pref":"ﾌｸｵｶｹﾝ","kana_city":"ｵｵﾑﾀｼ","kana_address":"ﾎﾝﾏﾁ","pref":"福岡県","city":"大牟田市","address":"本町"},
{"zip_code":"8360086","kana_pref":"ﾌｸｵｶｹﾝ","kana_city":"ｵｵﾑﾀｼ","kana_address":"ﾏｺﾞﾒﾏﾁ","pref":"福岡県","city":"大牟田市","address":"馬込町"},
{"zip_code":"8360855","kana_pref":"ﾌｸｵｶｹﾝ","kana_city":"ｵｵﾑﾀｼ","kana_address":"ﾏﾂｳﾗﾏﾁ","pref":"福岡県","city":"大牟田市","address":"松浦町"},
{"zip_code":"8360033","kana_pref":"ﾌｸｵｶｹﾝ","kana_city":"ｵｵﾑﾀｼ","kana_address":"ﾏﾂﾊﾞﾗﾏﾁ","pref":"福岡県","city":"大牟田市","address":"松原町"},
{"zip_code":"8360883","kana_pref":"ﾌｸｵｶｹﾝ","kana_city":"ｵｵﾑﾀｼ","kana_address":"ﾏﾜﾀﾘﾏﾁ","pref":"福岡県","city":"大牟田市","address":"馬渡町"},
{"zip_code":"8360065","kana_pref":"ﾌｸｵｶｹﾝ","kana_city":"ｵｵﾑﾀｼ","kana_address":"ﾐｶﾜﾏﾁ","pref":"福岡県","city":"大牟田市","address":"三川町"},
{"zip_code":"8360002","kana_pref":"ﾌｸｵｶｹﾝ","kana_city":"ｵｵﾑﾀｼ","kana_address":"ﾐｻｷ","pref":"福岡県","city":"大牟田市","address":"岬"},
{"zip_code":"8360037","kana_pref":"ﾌｸｵｶｹﾝ","kana_city":"ｵｵﾑﾀｼ","kana_address":"ﾐｻｷﾏﾁ","pref":"福岡県","city":"大牟田市","address":"岬町"},
{"zip_code":"8360076","kana_pref":"ﾌｸｵｶｹﾝ","kana_city":"ｵｵﾑﾀｼ","kana_address":"ﾐｻﾄﾏﾁ","pref":"福岡県","city":"大牟田市","address":"三里町"},
{"zip_code":"8360022","kana_pref":"ﾌｸｵｶｹﾝ","kana_city":"ｵｵﾑﾀｼ","kana_address":"ﾐﾅﾄﾏﾁ","pref":"福岡県","city":"大牟田市","address":"港町"},
{"zip_code":"8360075","kana_pref":"ﾌｸｵｶｹﾝ","kana_city":"ｵｵﾑﾀｼ","kana_address":"ﾐﾅﾐﾌﾅﾂﾏﾁ","pref":"福岡県","city":"大牟田市","address":"南船津町"},
{"zip_code":"8360856","kana_pref":"ﾌｸｵｶｹﾝ","kana_city":"ｵｵﾑﾀｼ","kana_address":"ﾐﾔｻｶﾏﾁ","pref":"福岡県","city":"大牟田市","address":"宮坂町"},
{"zip_code":"8360875","kana_pref":"ﾌｸｵｶｹﾝ","kana_city":"ｵｵﾑﾀｼ","kana_address":"ﾐﾔﾊﾗﾏﾁ","pref":"福岡県","city":"大牟田市","address":"宮原町"},
{"zip_code":"8360857","kana_pref":"ﾌｸｵｶｹﾝ","kana_city":"ｵｵﾑﾀｼ","kana_address":"ﾐﾔﾔﾏﾏﾁ","pref":"福岡県","city":"大牟田市","address":"宮山町"},
{"zip_code":"8360012","kana_pref":"ﾌｸｵｶｹﾝ","kana_city":"ｵｵﾑﾀｼ","kana_address":"ﾒｲｼﾞﾏﾁ","pref":"福岡県","city":"大牟田市","address":"明治町"},
{"zip_code":"8360826","kana_pref":"ﾌｸｵｶｹﾝ","kana_city":"ｵｵﾑﾀｼ","kana_address":"ﾔｹｲｼﾏﾁ","pref":"福岡県","city":"大牟田市","address":"焼石町"},
{"zip_code":"8360847","kana_pref":"ﾌｸｵｶｹﾝ","kana_city":"ｵｵﾑﾀｼ","kana_address":"ﾔﾂｴﾏﾁ","pref":"福岡県","city":"大牟田市","address":"八江町"},
{"zip_code":"8360053","kana_pref":"ﾌｸｵｶｹﾝ","kana_city":"ｵｵﾑﾀｼ","kana_address":"ﾔﾏｼﾀﾏﾁ","pref":"福岡県","city":"大牟田市","address":"山下町"},
{"zip_code":"8360833","kana_pref":"ﾌｸｵｶｹﾝ","kana_city":"ｵｵﾑﾀｼ","kana_address":"ﾔﾏﾉｳｴﾏﾁ","pref":"福岡県","city":"大牟田市","address":"山上町"},
{"zip_code":"8360842","kana_pref":"ﾌｸｵｶｹﾝ","kana_city":"ｵｵﾑﾀｼ","kana_address":"ﾕｳﾒｲﾏﾁ","pref":"福岡県","city":"大牟田市","address":"有明町"},
{"zip_code":"8360067","kana_pref":"ﾌｸｵｶｹﾝ","kana_city":"ｵｵﾑﾀｼ","kana_address":"ﾖﾂﾔﾏﾏﾁ","pref":"福岡県","city":"大牟田市","address":"四山町"},
{"zip_code":"8360881","kana_pref":"ﾌｸｵｶｹﾝ","kana_city":"ｵｵﾑﾀｼ","kana_address":"ﾖﾈｵﾏﾁ","pref":"福岡県","city":"大牟田市","address":"米生町"},
{"zip_code":"8360814","kana_pref":"ﾌｸｵｶｹﾝ","kana_city":"ｵｵﾑﾀｼ","kana_address":"ﾘｭｳｺﾞｾﾞﾏﾁ","pref":"福岡県","city":"大牟田市","address":"龍湖瀬町"},
{"zip_code":"8360876","kana_pref":"ﾌｸｵｶｹﾝ","kana_city":"ｵｵﾑﾀｼ","kana_address":"ﾜｶﾐﾔﾏﾁ","pref":"福岡県","city":"大牟田市","address":"若宮町"}]}