{"zip_code":[
{"zip_code":"8370905","kana_pref":"ﾌｸｵｶｹﾝ","kana_city":"ｵｵﾑﾀｼ","kana_address":"ｱﾏｷﾞ","pref":"福岡県","city":"大牟田市","address":"甘木"},
{"zip_code":"8370922","kana_pref":"ﾌｸｵｶｹﾝ","kana_city":"ｵｵﾑﾀｼ","kana_address":"ｲﾏﾔﾏ","pref":"福岡県","city":"大牟田市","address":"今山"},
{"zip_code":"8370913","kana_pref":"ﾌｸｵｶｹﾝ","kana_city":"ｵｵﾑﾀｼ","kana_address":"ｲﾜﾓﾄ","pref":"福岡県","city":"大牟田市","address":"岩本"},
{"zip_code":"8370902","kana_pref":"ﾌｸｵｶｹﾝ","kana_city":"ｵｵﾑﾀｼ","kana_address":"ｶﾐｳﾁ","pref":"福岡県","city":"大牟田市","address":"上内"},
{"zip_code":"8370926","kana_pref":"ﾌｸｵｶｹﾝ","kana_city":"ｵｵﾑﾀｼ","kana_address":"ｶﾐｼﾗｶﾜﾏﾁ","pref":"福岡県","city":"大牟田市","address":"上白川町"},
{"zip_code":"8370917","kana_pref":"ﾌｸｵｶｹﾝ","kana_city":"ｵｵﾑﾀｼ","kana_address":"ｸｻｷﾞ","pref":"福岡県","city":"大牟田市","address":"草木"},
{"zip_code":"8370924","kana_pref":"ﾌｸｵｶｹﾝ","kana_city":"ｵｵﾑﾀｼ","kana_address":"ｸﾇｷﾞ","pref":"福岡県","city":"大牟田市","address":"歴木"},
{"zip_code":"8370915","kana_pref":"ﾌｸｵｶｹﾝ","kana_city":"ｵｵﾑﾀｼ","kana_address":"ｸﾌﾞｷ","pref":"福岡県","city":"大牟田市","address":"久福木"},
{"zip_code":"8370906","kana_pref":"ﾌｸｵｶｹﾝ","kana_city":"ｵｵﾑﾀｼ","kana_address":"ｸﾗﾅｶﾞ","pref":"福岡県","city":"大牟田市","address":"倉永"},
{"zip_code":"8370901","kana_pref":"ﾌｸｵｶｹﾝ","kana_city":"ｵｵﾑﾀｼ","kana_address":"ｼｶ","pref":"福岡県","city":"大牟田市","address":"四ケ"},
{"zip_code":"8370907","kana_pref":"ﾌｸｵｶｹﾝ","kana_city":"ｵｵﾑﾀｼ","kana_address":"ｼｶｼﾝﾏﾁ","pref":"福岡県","city":"大牟田市","address":"四箇新町"},
{"zip_code":"8370928","kana_pref":"ﾌｸｵｶｹﾝ","kana_city":"ｵｵﾑﾀｼ","kana_address":"ｼﾓｼﾗｶﾜﾏﾁ","pref":"福岡県","city":"大牟田市","address":"下白川町"},
{"zip_code":"8370925","kana_pref":"ﾌｸｵｶｹﾝ","kana_city":"ｵｵﾑﾀｼ","kana_address":"ｼﾗｶﾜ","pref":"福岡県","city":"大牟田市","address":"白川"},
{"zip_code":"8370912","kana_pref":"ﾌｸｵｶｹﾝ","kana_city":"ｵｵﾑﾀｼ","kana_address":"ｼﾗｶﾞﾈ","pref":"福岡県","city":"大牟田市","address":"白銀"},
{"zip_code":"8370923","kana_pref":"ﾌｸｵｶｹﾝ","kana_city":"ｵｵﾑﾀｼ","kana_address":"ｼﾝﾏﾁ","pref":"福岡県","city":"大牟田市","address":"新町"},
{"zip_code":"8370916","kana_pref":"ﾌｸｵｶｹﾝ","kana_city":"ｵｵﾑﾀｼ","kana_address":"ﾀｸﾏ","pref":"福岡県","city":"大牟田市","address":"田隈"},
{"zip_code":"8370911","kana_pref":"ﾌｸｵｶｹﾝ","kana_city":"ｵｵﾑﾀｼ","kana_address":"ﾀﾁﾊﾞﾅ","pref":"福岡県","city":"大牟田市","address":"橘"},
{"zip_code":"8370927","kana_pref":"ﾌｸｵｶｹﾝ","kana_city":"ｵｵﾑﾀｼ","kana_address":"ﾅｶｼﾗｶﾜﾏﾁ","pref":"福岡県","city":"大牟田市","address":"中白川町"},
{"zip_code":"8370921","kana_pref":"ﾌｸｵｶｹﾝ","kana_city":"ｵｵﾑﾀｼ","kana_address":"ﾐｲｹ","pref":"福岡県","city":"大牟田市","address":"三池"},
{"zip_code":"8370903","kana_pref":"ﾌｸｵｶｹﾝ","kana_city":"ｵｵﾑﾀｼ","kana_address":"ﾐﾔｻﾞｷ","pref":"福岡県","city":"大牟田市","address":"宮崎"},
{"zip_code":"8370914","kana_pref":"ﾌｸｵｶｹﾝ","kana_city":"ｵｵﾑﾀｼ","kana_address":"ﾐﾔﾍﾞ","pref":"福岡県","city":"大牟田市","address":"宮部"},
{"zip_code":"8370904","kana_pref":"ﾌｸｵｶｹﾝ","kana_city":"ｵｵﾑﾀｼ","kana_address":"ﾖｼﾉ","pref":"福岡県","city":"大牟田市","address":"吉野"}]}