{"zip_code":[
{"zip_code":"8390000","kana_pref":"ﾌｸｵｶｹﾝ","kana_city":"ｸﾙﾒｼ","kana_address":"","pref":"福岡県","city":"久留米市","address":""},
{"zip_code":"8390861","kana_pref":"ﾌｸｵｶｹﾝ","kana_city":"ｸﾙﾒｼ","kana_address":"ｱｲｶﾜﾏﾁ","pref":"福岡県","city":"久留米市","address":"合川町"},
{"zip_code":"8390843","kana_pref":"ﾌｸｵｶｹﾝ","kana_city":"ｸﾙﾒｼ","kana_address":"ｱｻﾂﾞﾏﾏﾁ","pref":"福岡県","city":"久留米市","address":"朝妻町"},
{"zip_code":"8390832","kana_pref":"ﾌｸｵｶｹﾝ","kana_city":"ｸﾙﾒｼ","kana_address":"ｵｵﾊｼﾏﾁｱｲﾗｸ","pref":"福岡県","city":"久留米市","address":"大橋町合楽"},
{"zip_code":"8390833","kana_pref":"ﾌｸｵｶｹﾝ","kana_city":"ｸﾙﾒｼ","kana_address":"ｵｵﾊｼﾏﾁﾂﾈﾓﾁ","pref":"福岡県","city":"久留米市","address":"大橋町常持"},
{"zip_code":"8390831","kana_pref":"ﾌｸｵｶｹﾝ","kana_city":"ｸﾙﾒｼ","kana_address":"ｵｵﾊｼﾏﾁﾆﾅｶﾞﾜ","pref":"福岡県","city":"久留米市","address":"大橋町蜷川"},
{"zip_code":"8390835","kana_pref":"ﾌｸｵｶｹﾝ","kana_city":"ｸﾙﾒｼ","kana_address":"ｸｻﾉﾏﾁｸｻﾉ","pref":"福岡県","city":"久留米市","address":"草野町草野"},
{"zip_code":"8390834","kana_pref":"ﾌｸｵｶｹﾝ","kana_city":"ｸﾙﾒｼ","kana_address":"ｸｻﾉﾏﾁｺﾄﾊﾞﾔｼ","pref":"福岡県","city":"久留米市","address":"草野町紅桃林"},
{"zip_code":"8390837","kana_pref":"ﾌｸｵｶｹﾝ","kana_city":"ｸﾙﾒｼ","kana_address":"ｸｻﾉﾏﾁﾔﾊｷﾞ","pref":"福岡県","city":"久留米市","address":"草野町矢作"},
{"zip_code":"8390836","kana_pref":"ﾌｸｵｶｹﾝ","kana_city":"ｸﾙﾒｼ","kana_address":"ｸｻﾉﾏﾁﾖｼｷ","pref":"福岡県","city":"久留米市","address":"草野町吉木"},
{"zip_code":"8390852","kana_pref":"ﾌｸｵｶｹﾝ","kana_city":"ｸﾙﾒｼ","kana_address":"ｺｳﾗｳﾁﾏﾁ","pref":"福岡県","city":"久留米市","address":"高良内町"},
{"zip_code":"8390863","kana_pref":"ﾌｸｵｶｹﾝ","kana_city":"ｸﾙﾒｼ","kana_address":"ｺｸﾌﾞﾏﾁ","pref":"福岡県","city":"久留米市","address":"国分町"},
{"zip_code":"8390865","kana_pref":"ﾌｸｵｶｹﾝ","kana_city":"ｸﾙﾒｼ","kana_address":"ｼﾝｱｲｶﾜ","pref":"福岡県","city":"久留米市","address":"新合川"},
{"zip_code":"8390853","kana_pref":"ﾌｸｵｶｹﾝ","kana_city":"ｸﾙﾒｼ","kana_address":"ｾｲﾎｳ","pref":"福岡県","city":"久留米市","address":"青峰"},
{"zip_code":"8390824","kana_pref":"ﾌｸｵｶｹﾝ","kana_city":"ｸﾙﾒｼ","kana_address":"ｾﾞﾝﾄﾞｳｼﾞﾏﾁｲｲﾀﾞ","pref":"福岡県","city":"久留米市","address":"善導寺町飯田"},
{"zip_code":"8390822","kana_pref":"ﾌｸｵｶｹﾝ","kana_city":"ｸﾙﾒｼ","kana_address":"ｾﾞﾝﾄﾞｳｼﾞﾏﾁｷﾂﾞｶ","pref":"福岡県","city":"久留米市","address":"善導寺町木塚"},
{"zip_code":"8390825","kana_pref":"ﾌｸｵｶｹﾝ","kana_city":"ｸﾙﾒｼ","kana_address":"ｾﾞﾝﾄﾞｳｼﾞﾏﾁｼﾏ","pref":"福岡県","city":"久留米市","address":"善導寺町島"},
{"zip_code":"8390823","kana_pref":"ﾌｸｵｶｹﾝ","kana_city":"ｸﾙﾒｼ","kana_address":"ｾﾞﾝﾄﾞｳｼﾞﾏﾁﾖﾀﾞ","pref":"福岡県","city":"久留米市","address":"善導寺町与田"},
{"zip_code":"8390821","kana_pref":"ﾌｸｵｶｹﾝ","kana_city":"ｸﾙﾒｼ","kana_address":"ﾀﾞｲﾛﾊﾞﾙﾏﾁ","pref":"福岡県","city":"久留米市","address":"太郎原町"},
{"zip_code":"8391203","kana_pref":"ﾌｸｵｶｹﾝ","kana_city":"ｸﾙﾒｼ","kana_address":"ﾀﾇｼﾏﾙﾏﾁｱｷﾅﾘ","pref":"福岡県","city":"久留米市","address":"田主丸町秋成"},
{"zip_code":"8391227","kana_pref":"ﾌｸｵｶｹﾝ","kana_city":"ｸﾙﾒｼ","kana_address":"ﾀﾇｼﾏﾙﾏﾁｱｻﾓﾘ","pref":"福岡県","city":"久留米市","address":"田主丸町朝森"},
{"zip_code":"8391212","kana_pref":"ﾌｸｵｶｹﾝ","kana_city":"ｸﾙﾒｼ","kana_address":"ﾀﾇｼﾏﾙﾏﾁｲｼｶｷ","pref":"福岡県","city":"久留米市","address":"田主丸町石垣"},
{"zip_code":"8391223","kana_pref":"ﾌｸｵｶｹﾝ","kana_city":"ｸﾙﾒｼ","kana_address":"ﾀﾇｼﾏﾙﾏﾁｲﾏｴ","pref":"福岡県","city":"久留米市","address":"田主丸町以真恵"},
{"zip_code":"8391228","kana_pref":"ﾌｸｵｶｹﾝ","kana_city":"ｸﾙﾒｼ","kana_address":"ﾀﾇｼﾏﾙﾏﾁｴﾘ","pref":"福岡県","city":"久留米市","address":"田主丸町恵利"},
{"zip_code":"8391221","kana_pref":"ﾌｸｵｶｹﾝ","kana_city":"ｸﾙﾒｼ","kana_address":"ﾀﾇｼﾏﾙﾏﾁｶﾐﾊﾙ","pref":"福岡県","city":"久留米市","address":"田主丸町上原"},
{"zip_code":"8391222","kana_pref":"ﾌｸｵｶｹﾝ","kana_city":"ｸﾙﾒｼ","kana_address":"ﾀﾇｼﾏﾙﾏﾁｼﾂｶｼﾏ","pref":"福岡県","city":"久留米市","address":"田主丸町志塚島"},
{"zip_code":"8391225","kana_pref":"ﾌｸｵｶｹﾝ","kana_city":"ｸﾙﾒｼ","kana_address":"ﾀﾇｼﾏﾙﾏﾁｽｶﾞﾊﾗ","pref":"福岡県","city":"久留米市","address":"田主丸町菅原"},
{"zip_code":"8391202","kana_pref":"ﾌｸｵｶｹﾝ","kana_city":"ｸﾙﾒｼ","kana_address":"ﾀﾇｼﾏﾙﾏﾁﾀｶﾄﾘ","pref":"福岡県","city":"久留米市","address":"田主丸町鷹取"},
{"zip_code":"8391215","kana_pref":"ﾌｸｵｶｹﾝ","kana_city":"ｸﾙﾒｼ","kana_address":"ﾀﾇｼﾏﾙﾏﾁﾀｹﾉ","pref":"福岡県","city":"久留米市","address":"田主丸町竹野"},
{"zip_code":"8391233","kana_pref":"ﾌｸｵｶｹﾝ","kana_city":"ｸﾙﾒｼ","kana_address":"ﾀﾇｼﾏﾙﾏﾁﾀﾇｼﾏﾙ","pref":"福岡県","city":"久留米市","address":"田主丸町田主丸"},
{"zip_code":"8391214","kana_pref":"ﾌｸｵｶｹﾝ","kana_city":"ｸﾙﾒｼ","kana_address":"ﾀﾇｼﾏﾙﾏﾁﾁﾄｸ","pref":"福岡県","city":"久留米市","address":"田主丸町地徳"},
{"zip_code":"8391232","kana_pref":"ﾌｸｵｶｹﾝ","kana_city":"ｸﾙﾒｼ","kana_address":"ﾀﾇｼﾏﾙﾏﾁﾄｷﾜ","pref":"福岡県","city":"久留米市","address":"田主丸町常盤"},
{"zip_code":"8391234","kana_pref":"ﾌｸｵｶｹﾝ","kana_city":"ｸﾙﾒｼ","kana_address":"ﾀﾇｼﾏﾙﾏﾁﾄﾖｷ","pref":"福岡県","city":"久留米市","address":"田主丸町豊城"},
{"zip_code":"8391216","kana_pref":"ﾌｸｵｶｹﾝ","kana_city":"ｸﾙﾒｼ","kana_address":"ﾀﾇｼﾏﾙﾏﾁﾅｶｵ","pref":"福岡県","city":"久留米市","address":"田主丸町中尾"},
{"zip_code":"8391201","kana_pref":"ﾌｸｵｶｹﾝ","kana_city":"ｸﾙﾒｼ","kana_address":"ﾀﾇｼﾏﾙﾏﾁﾅｶﾞｽ","pref":"福岡県","city":"久留米市","address":"田主丸町長栖"},
{"zip_code":"8391231","kana_pref":"ﾌｸｵｶｹﾝ","kana_city":"ｸﾙﾒｼ","kana_address":"ﾀﾇｼﾏﾙﾏﾁﾉﾀﾞ","pref":"福岡県","city":"久留米市","address":"田主丸町野田"},
{"zip_code":"8391204","kana_pref":"ﾌｸｵｶｹﾝ","kana_city":"ｸﾙﾒｼ","kana_address":"ﾀﾇｼﾏﾙﾏﾁﾌｴｷ","pref":"福岡県","city":"久留米市","address":"田主丸町殖木"},
{"zip_code":"8391205","kana_pref":"ﾌｸｵｶｹﾝ","kana_city":"ｸﾙﾒｼ","kana_address":"ﾀﾇｼﾏﾙﾏﾁﾌﾅｺﾞｼ","pref":"福岡県","city":"久留米市","address":"田主丸町船越"},
{"zip_code":"8391224","kana_pref":"ﾌｸｵｶｹﾝ","kana_city":"ｸﾙﾒｼ","kana_address":"ﾀﾇｼﾏﾙﾏﾁﾏｷ","pref":"福岡県","city":"久留米市","address":"田主丸町牧"},
{"zip_code":"8391213","kana_pref":"ﾌｸｵｶｹﾝ","kana_city":"ｸﾙﾒｼ","kana_address":"ﾀﾇｼﾏﾙﾏﾁﾏｽｵﾀﾞ","pref":"福岡県","city":"久留米市","address":"田主丸町益生田"},
{"zip_code":"8391211","kana_pref":"ﾌｸｵｶｹﾝ","kana_city":"ｸﾙﾒｼ","kana_address":"ﾀﾇｼﾏﾙﾏﾁﾓﾘﾍﾞ","pref":"福岡県","city":"久留米市","address":"田主丸町森部"},
{"zip_code":"8391226","kana_pref":"ﾌｸｵｶｹﾝ","kana_city":"ｸﾙﾒｼ","kana_address":"ﾀﾇｼﾏﾙﾏﾁﾔﾊﾀ","pref":"福岡県","city":"久留米市","address":"田主丸町八幡"},
{"zip_code":"8391206","kana_pref":"ﾌｸｵｶｹﾝ","kana_city":"ｸﾙﾒｼ","kana_address":"ﾀﾇｼﾏﾙﾏﾁﾖｼﾓﾄ","pref":"福岡県","city":"久留米市","address":"田主丸町吉本"},
{"zip_code":"8390862","kana_pref":"ﾌｸｵｶｹﾝ","kana_city":"ｸﾙﾒｼ","kana_address":"ﾉﾅｶﾏﾁ","pref":"福岡県","city":"久留米市","address":"野中町"},
{"zip_code":"8390809","kana_pref":"ﾌｸｵｶｹﾝ","kana_city":"ｸﾙﾒｼ","kana_address":"ﾋｶﾞｼｱｲｶﾜ","pref":"福岡県","city":"久留米市","address":"東合川"},
{"zip_code":"8390808","kana_pref":"ﾌｸｵｶｹﾝ","kana_city":"ｸﾙﾒｼ","kana_address":"ﾋｶﾞｼｱｲｶﾜｼﾝﾏﾁ","pref":"福岡県","city":"久留米市","address":"東合川新町"},
{"zip_code":"8390806","kana_pref":"ﾌｸｵｶｹﾝ","kana_city":"ｸﾙﾒｼ","kana_address":"ﾋｶﾞｼｱｲｶﾜﾋｲﾃﾞﾏﾁ","pref":"福岡県","city":"久留米市","address":"東合川干出町"},
{"zip_code":"8390807","kana_pref":"ﾌｸｵｶｹﾝ","kana_city":"ｸﾙﾒｼ","kana_address":"ﾋｶﾞｼｱｲｶﾜﾏﾁ","pref":"福岡県","city":"久留米市","address":"東合川町"},
{"zip_code":"8390864","kana_pref":"ﾌｸｵｶｹﾝ","kana_city":"ｸﾙﾒｼ","kana_address":"ﾋｬｸﾈﾝｺｳｴﾝ","pref":"福岡県","city":"久留米市","address":"百年公園"},
{"zip_code":"8390842","kana_pref":"ﾌｸｵｶｹﾝ","kana_city":"ｸﾙﾒｼ","kana_address":"ﾐｲｱｻﾂﾞﾏ","pref":"福岡県","city":"久留米市","address":"御井朝妻"},
{"zip_code":"8390841","kana_pref":"ﾌｸｵｶｹﾝ","kana_city":"ｸﾙﾒｼ","kana_address":"ﾐｲﾊﾀｻﾞｷ","pref":"福岡県","city":"久留米市","address":"御井旗崎"},
{"zip_code":"8390851","kana_pref":"ﾌｸｵｶｹﾝ","kana_city":"ｸﾙﾒｼ","kana_address":"ﾐｲﾏﾁ","pref":"福岡県","city":"久留米市","address":"御井町"},
{"zip_code":"8390801","kana_pref":"ﾌｸｵｶｹﾝ","kana_city":"ｸﾙﾒｼ","kana_address":"ﾐﾔﾉｼﾞﾝ","pref":"福岡県","city":"久留米市","address":"宮ノ陣"},
{"zip_code":"8390803","kana_pref":"ﾌｸｵｶｹﾝ","kana_city":"ｸﾙﾒｼ","kana_address":"ﾐﾔﾉｼﾞﾝﾏﾁｵｵﾄ","pref":"福岡県","city":"久留米市","address":"宮ノ陣町大杜"},
{"zip_code":"8390802","kana_pref":"ﾌｸｵｶｹﾝ","kana_city":"ｸﾙﾒｼ","kana_address":"ﾐﾔﾉｼﾞﾝﾏﾁｺﾞﾛｳﾏﾙ","pref":"福岡県","city":"久留米市","address":"宮ノ陣町五郎丸"},
{"zip_code":"8390805","kana_pref":"ﾌｸｵｶｹﾝ","kana_city":"ｸﾙﾒｼ","kana_address":"ﾐﾔﾉｼﾞﾝﾏﾁﾊｯﾁｮｳｼﾞﾏ","pref":"福岡県","city":"久留米市","address":"宮ノ陣町八丁島"},
{"zip_code":"8390804","kana_pref":"ﾌｸｵｶｹﾝ","kana_city":"ｸﾙﾒｼ","kana_address":"ﾐﾔﾉｼﾞﾝﾏﾁﾜｶﾏﾂ","pref":"福岡県","city":"久留米市","address":"宮ノ陣町若松"},
{"zip_code":"8390812","kana_pref":"ﾌｸｵｶｹﾝ","kana_city":"ｸﾙﾒｼ","kana_address":"ﾔﾏｶﾜｱｲﾉ","pref":"福岡県","city":"久留米市","address":"山川安居野"},
{"zip_code":"8390813","kana_pref":"ﾌｸｵｶｹﾝ","kana_city":"ｸﾙﾒｼ","kana_address":"ﾔﾏｶﾜｲﾁﾉｳｴﾏﾁ","pref":"福岡県","city":"久留米市","address":"山川市ノ上町"},
{"zip_code":"8390814","kana_pref":"ﾌｸｵｶｹﾝ","kana_city":"ｸﾙﾒｼ","kana_address":"ﾔﾏｶﾜｵｲﾜｹ","pref":"福岡県","city":"久留米市","address":"山川追分"},
{"zip_code":"8390815","kana_pref":"ﾌｸｵｶｹﾝ","kana_city":"ｸﾙﾒｼ","kana_address":"ﾔﾏｶﾜｸﾂｶﾞﾀﾏﾁ","pref":"福岡県","city":"久留米市","address":"山川沓形町"},
{"zip_code":"8390811","kana_pref":"ﾌｸｵｶｹﾝ","kana_city":"ｸﾙﾒｼ","kana_address":"ﾔﾏｶﾜｸﾏｼﾛ","pref":"福岡県","city":"久留米市","address":"山川神代"},
{"zip_code":"8390816","kana_pref":"ﾌｸｵｶｹﾝ","kana_city":"ｸﾙﾒｼ","kana_address":"ﾔﾏｶﾜﾉｸﾞﾁﾏﾁ","pref":"福岡県","city":"久留米市","address":"山川野口町"},
{"zip_code":"8390817","kana_pref":"ﾌｸｵｶｹﾝ","kana_city":"ｸﾙﾒｼ","kana_address":"ﾔﾏｶﾜﾏﾁ","pref":"福岡県","city":"久留米市","address":"山川町"},
{"zip_code":"8390827","kana_pref":"ﾌｸｵｶｹﾝ","kana_city":"ｸﾙﾒｼ","kana_address":"ﾔﾏﾓﾄﾏﾁﾄﾖﾀﾞ","pref":"福岡県","city":"久留米市","address":"山本町豊田"},
{"zip_code":"8390826","kana_pref":"ﾌｸｵｶｹﾝ","kana_city":"ｸﾙﾒｼ","kana_address":"ﾔﾏﾓﾄﾏﾁﾐﾉｳ","pref":"福岡県","city":"久留米市","address":"山本町耳納"},
{"zip_code":"8390251","kana_pref":"ﾌｸｵｶｹﾝ","kana_city":"ﾔﾅｶﾞﾜｼ","kana_address":"ﾔﾏﾄﾏﾁｱｹﾉ","pref":"福岡県","city":"柳川市","address":"大和町明野"},
{"zip_code":"8390263","kana_pref":"ﾌｸｵｶｹﾝ","kana_city":"ﾔﾅｶﾞﾜｼ","kana_address":"ﾔﾏﾄﾏﾁｵｵﾂﾎﾞ","pref":"福岡県","city":"柳川市","address":"大和町大坪"},
{"zip_code":"8390252","kana_pref":"ﾌｸｵｶｹﾝ","kana_city":"ﾔﾅｶﾞﾜｼ","kana_address":"ﾔﾏﾄﾏﾁｻｶｴ","pref":"福岡県","city":"柳川市","address":"大和町栄"},
{"zip_code":"8390261","kana_pref":"ﾌｸｵｶｹﾝ","kana_city":"ﾔﾅｶﾞﾜｼ","kana_address":"ﾔﾏﾄﾏﾁｻﾗｶｷﾋﾞﾗｷ","pref":"福岡県","city":"柳川市","address":"大和町皿垣開"},
{"zip_code":"8390243","kana_pref":"ﾌｸｵｶｹﾝ","kana_city":"ﾔﾅｶﾞﾜｼ","kana_address":"ﾔﾏﾄﾏﾁｼｵﾂｶ","pref":"福岡県","city":"柳川市","address":"大和町塩塚"},
{"zip_code":"8390253","kana_pref":"ﾌｸｵｶｹﾝ","kana_city":"ﾔﾅｶﾞﾜｼ","kana_address":"ﾔﾏﾄﾏﾁﾀｶﾉｵ","pref":"福岡県","city":"柳川市","address":"大和町鷹ノ尾"},
{"zip_code":"8390264","kana_pref":"ﾌｸｵｶｹﾝ","kana_city":"ﾔﾅｶﾞﾜｼ","kana_address":"ﾔﾏﾄﾏﾁﾀﾆｶﾞｷ","pref":"福岡県","city":"柳川市","address":"大和町谷垣"},
{"zip_code":"8390241","kana_pref":"ﾌｸｵｶｹﾝ","kana_city":"ﾔﾅｶﾞﾜｼ","kana_address":"ﾔﾏﾄﾏﾁﾄｸﾏｽ","pref":"福岡県","city":"柳川市","address":"大和町徳益"},
{"zip_code":"8390242","kana_pref":"ﾌｸｵｶｹﾝ","kana_city":"ﾔﾅｶﾞﾜｼ","kana_address":"ﾔﾏﾄﾏﾁﾄﾖﾊﾗ","pref":"福岡県","city":"柳川市","address":"大和町豊原"},
{"zip_code":"8390254","kana_pref":"ﾌｸｵｶｹﾝ","kana_city":"ﾔﾅｶﾞﾜｼ","kana_address":"ﾔﾏﾄﾏﾁﾅｶｼﾏ","pref":"福岡県","city":"柳川市","address":"大和町中島"},
{"zip_code":"8390262","kana_pref":"ﾌｸｵｶｹﾝ","kana_city":"ﾔﾅｶﾞﾜｼ","kana_address":"ﾔﾏﾄﾏﾁﾅｶﾞﾀﾋﾞﾗｷ","pref":"福岡県","city":"柳川市","address":"大和町永田開"},
{"zip_code":"8390244","kana_pref":"ﾌｸｵｶｹﾝ","kana_city":"ﾔﾅｶﾞﾜｼ","kana_address":"ﾔﾏﾄﾏﾁﾛｸｺﾞｳ","pref":"福岡県","city":"柳川市","address":"大和町六合"},
{"zip_code":"8391400","kana_pref":"ﾌｸｵｶｹﾝ","kana_city":"ｳｷﾊｼ","kana_address":"","pref":"福岡県","city":"うきは市","address":""},
{"zip_code":"8391401","kana_pref":"ﾌｸｵｶｹﾝ","kana_city":"ｳｷﾊｼ","kana_address":"ｳｷﾊﾏﾁｱｻﾀﾞ","pref":"福岡県","city":"うきは市","address":"浮羽町朝田"},
{"zip_code":"8391415","kana_pref":"ﾌｸｵｶｹﾝ","kana_city":"ｳｷﾊｼ","kana_address":"ｳｷﾊﾏﾁｲﾓｶﾞﾜ","pref":"福岡県","city":"うきは市","address":"浮羽町妹川"},
{"zip_code":"8391402","kana_pref":"ﾌｸｵｶｹﾝ","kana_city":"ｳｷﾊｼ","kana_address":"ｳｷﾊﾏﾁｳｷﾊ","pref":"福岡県","city":"うきは市","address":"浮羽町浮羽"},
{"zip_code":"8391412","kana_pref":"ﾌｸｵｶｹﾝ","kana_city":"ｳｷﾊｼ","kana_address":"ｳｷﾊﾏﾁｺｼﾞｵ","pref":"福岡県","city":"うきは市","address":"浮羽町小塩"},
{"zip_code":"8391406","kana_pref":"ﾌｸｵｶｹﾝ","kana_city":"ｳｷﾊｼ","kana_address":"ｳｷﾊﾏﾁﾀｶﾐ","pref":"福岡県","city":"うきは市","address":"浮羽町高見"},
{"zip_code":"8391414","kana_pref":"ﾌｸｵｶｹﾝ","kana_city":"ｳｷﾊｼ","kana_address":"ｳｷﾊﾏﾁﾀｺﾞﾓﾘ","pref":"福岡県","city":"うきは市","address":"浮羽町田篭"},
{"zip_code":"8391411","kana_pref":"ﾌｸｵｶｹﾝ","kana_city":"ｳｷﾊｼ","kana_address":"ｳｷﾊﾏﾁﾅｶﾞﾚｶﾜ","pref":"福岡県","city":"うきは市","address":"浮羽町流川"},
{"zip_code":"8391413","kana_pref":"ﾌｸｵｶｹﾝ","kana_city":"ｳｷﾊｼ","kana_address":"ｳｷﾊﾏﾁﾆｲｶﾜ","pref":"福岡県","city":"うきは市","address":"浮羽町新川"},
{"zip_code":"8391404","kana_pref":"ﾌｸｵｶｹﾝ","kana_city":"ｳｷﾊｼ","kana_address":"ｳｷﾊﾏﾁﾆｼｸﾏﾉｳｴ","pref":"福岡県","city":"うきは市","address":"浮羽町西隈上"},
{"zip_code":"8391403","kana_pref":"ﾌｸｵｶｹﾝ","kana_city":"ｳｷﾊｼ","kana_address":"ｳｷﾊﾏﾁﾋｶﾞｼｸﾏﾉｳｴ","pref":"福岡県","city":"うきは市","address":"浮羽町東隈上"},
{"zip_code":"8391405","kana_pref":"ﾌｸｵｶｹﾝ","kana_city":"ｳｷﾊｼ","kana_address":"ｳｷﾊﾏﾁﾌﾙｶﾜ","pref":"福岡県","city":"うきは市","address":"浮羽町古川"},
{"zip_code":"8391407","kana_pref":"ﾌｸｵｶｹﾝ","kana_city":"ｳｷﾊｼ","kana_address":"ｳｷﾊﾏﾁﾐﾊﾙ","pref":"福岡県","city":"うきは市","address":"浮羽町三春"},
{"zip_code":"8391408","kana_pref":"ﾌｸｵｶｹﾝ","kana_city":"ｳｷﾊｼ","kana_address":"ｳｷﾊﾏﾁﾔﾏｷﾀ","pref":"福岡県","city":"うきは市","address":"浮羽町山北"},
{"zip_code":"8391321","kana_pref":"ﾌｸｵｶｹﾝ","kana_city":"ｳｷﾊｼ","kana_address":"ﾖｼｲﾏﾁ","pref":"福岡県","city":"うきは市","address":"吉井町"},
{"zip_code":"8391342","kana_pref":"ﾌｸｵｶｹﾝ","kana_city":"ｳｷﾊｼ","kana_address":"ﾖｼｲﾏﾁｲｸﾊ","pref":"福岡県","city":"うきは市","address":"吉井町生葉"},
{"zip_code":"8391341","kana_pref":"ﾌｸｵｶｹﾝ","kana_city":"ｳｷﾊｼ","kana_address":"ﾖｼｲﾏﾁｴﾅﾐ","pref":"福岡県","city":"うきは市","address":"吉井町江南"},
{"zip_code":"8391312","kana_pref":"ﾌｸｵｶｹﾝ","kana_city":"ｳｷﾊｼ","kana_address":"ﾖｼｲﾏﾁｷﾖｾ","pref":"福岡県","city":"うきは市","address":"吉井町清瀬"},
{"zip_code":"8391301","kana_pref":"ﾌｸｵｶｹﾝ","kana_city":"ｳｷﾊｼ","kana_address":"ﾖｼｲﾏﾁｻｸﾗｲ","pref":"福岡県","city":"うきは市","address":"吉井町桜井"},
{"zip_code":"8391343","kana_pref":"ﾌｸｵｶｹﾝ","kana_city":"ｳｷﾊｼ","kana_address":"ﾖｼｲﾏﾁﾀｶﾄﾘ","pref":"福岡県","city":"うきは市","address":"吉井町鷹取"},
{"zip_code":"8391307","kana_pref":"ﾌｸｵｶｹﾝ","kana_city":"ｳｷﾊｼ","kana_address":"ﾖｼｲﾏﾁﾀﾁﾊﾞﾅﾀﾞ","pref":"福岡県","city":"うきは市","address":"吉井町橘田"},
{"zip_code":"8391304","kana_pref":"ﾌｸｵｶｹﾝ","kana_city":"ｳｷﾊｼ","kana_address":"ﾖｼｲﾏﾁﾁﾄｾ","pref":"福岡県","city":"うきは市","address":"吉井町千年"},
{"zip_code":"8391302","kana_pref":"ﾌｸｵｶｹﾝ","kana_city":"ｳｷﾊｼ","kana_address":"ﾖｼｲﾏﾁﾄｸﾏﾙ","pref":"福岡県","city":"うきは市","address":"吉井町徳丸"},
{"zip_code":"8391333","kana_pref":"ﾌｸｵｶｹﾝ","kana_city":"ｳｷﾊｼ","kana_address":"ﾖｼｲﾏﾁﾄﾐﾅｶﾞ","pref":"福岡県","city":"うきは市","address":"吉井町富永"},
{"zip_code":"8391344","kana_pref":"ﾌｸｵｶｹﾝ","kana_city":"ｳｷﾊｼ","kana_address":"ﾖｼｲﾏﾁﾅｶﾞｽ","pref":"福岡県","city":"うきは市","address":"吉井町長栖"},
{"zip_code":"8391306","kana_pref":"ﾌｸｵｶｹﾝ","kana_city":"ｳｷﾊｼ","kana_address":"ﾖｼｲﾏﾁﾆｲﾊﾙ","pref":"福岡県","city":"うきは市","address":"吉井町新治"},
{"zip_code":"8391305","kana_pref":"ﾌｸｵｶｹﾝ","kana_city":"ｳｷﾊｼ","kana_address":"ﾖｼｲﾏﾁﾌｸﾅｶﾞ","pref":"福岡県","city":"うきは市","address":"吉井町福永"},
{"zip_code":"8391332","kana_pref":"ﾌｸｵｶｹﾝ","kana_city":"ｳｷﾊｼ","kana_address":"ﾖｼｲﾏﾁﾌｸﾏｽ","pref":"福岡県","city":"うきは市","address":"吉井町福益"},
{"zip_code":"8391303","kana_pref":"ﾌｸｵｶｹﾝ","kana_city":"ｳｷﾊｼ","kana_address":"ﾖｼｲﾏﾁﾐﾔﾀﾞ","pref":"福岡県","city":"うきは市","address":"吉井町宮田"},
{"zip_code":"8391331","kana_pref":"ﾌｸｵｶｹﾝ","kana_city":"ｳｷﾊｼ","kana_address":"ﾖｼｲﾏﾁﾔﾍﾞ","pref":"福岡県","city":"うきは市","address":"吉井町屋部"},
{"zip_code":"8391308","kana_pref":"ﾌｸｵｶｹﾝ","kana_city":"ｳｷﾊｼ","kana_address":"ﾖｼｲﾏﾁﾔﾜﾀ","pref":"福岡県","city":"うきは市","address":"吉井町八和田"},
{"zip_code":"8391311","kana_pref":"ﾌｸｵｶｹﾝ","kana_city":"ｳｷﾊｼ","kana_address":"ﾖｼｲﾏﾁﾜｶﾐﾔ","pref":"福岡県","city":"うきは市","address":"吉井町若宮"},
{"zip_code":"8390214","kana_pref":"ﾌｸｵｶｹﾝ","kana_city":"ﾐﾔﾏｼ","kana_address":"ﾀｶﾀﾏﾁｲﾏﾌﾞｸ","pref":"福岡県","city":"みやま市","address":"高田町今福"},
{"zip_code":"8390223","kana_pref":"ﾌｸｵｶｹﾝ","kana_city":"ﾐﾔﾏｼ","kana_address":"ﾀｶﾀﾏﾁｲﾜﾂ","pref":"福岡県","city":"みやま市","address":"高田町岩津"},
{"zip_code":"8390202","kana_pref":"ﾌｸｵｶｹﾝ","kana_city":"ﾐﾔﾏｼ","kana_address":"ﾀｶﾀﾏﾁｴｲｼﾞ","pref":"福岡県","city":"みやま市","address":"高田町永治"},
{"zip_code":"8390213","kana_pref":"ﾌｸｵｶｹﾝ","kana_city":"ﾐﾔﾏｼ","kana_address":"ﾀｶﾀﾏﾁｴﾉｳﾗ","pref":"福岡県","city":"みやま市","address":"高田町江浦"},
{"zip_code":"8390212","kana_pref":"ﾌｸｵｶｹﾝ","kana_city":"ﾐﾔﾏｼ","kana_address":"ﾀｶﾀﾏﾁｴﾉｳﾗﾏﾁ","pref":"福岡県","city":"みやま市","address":"高田町江浦町"},
{"zip_code":"8390225","kana_pref":"ﾌｸｵｶｹﾝ","kana_city":"ﾐﾔﾏｼ","kana_address":"ﾀｶﾀﾏﾁｶﾐｸｽﾀﾞ","pref":"福岡県","city":"みやま市","address":"高田町上楠田"},
{"zip_code":"8390204","kana_pref":"ﾌｸｵｶｹﾝ","kana_city":"ﾐﾔﾏｼ","kana_address":"ﾀｶﾀﾏﾁｷﾀｼﾝｶﾞｲ","pref":"福岡県","city":"みやま市","address":"高田町北新開"},
{"zip_code":"8390203","kana_pref":"ﾌｸｵｶｹﾝ","kana_city":"ﾐﾔﾏｼ","kana_address":"ﾀｶﾀﾏﾁｸﾛｻｷﾋﾞﾗｷ","pref":"福岡県","city":"みやま市","address":"高田町黒崎開"},
{"zip_code":"8390221","kana_pref":"ﾌｸｵｶｹﾝ","kana_city":"ﾐﾔﾏｼ","kana_address":"ﾀｶﾀﾏﾁｼﾓｸｽﾀﾞ","pref":"福岡県","city":"みやま市","address":"高田町下楠田"},
{"zip_code":"8390201","kana_pref":"ﾌｸｵｶｹﾝ","kana_city":"ﾐﾔﾏｼ","kana_address":"ﾀｶﾀﾏﾁｼｮｳﾜﾋﾞﾗｷ","pref":"福岡県","city":"みやま市","address":"高田町昭和開"},
{"zip_code":"8390224","kana_pref":"ﾌｸｵｶｹﾝ","kana_city":"ﾐﾔﾏｼ","kana_address":"ﾀｶﾀﾏﾁﾀｼﾞﾘ","pref":"福岡県","city":"みやま市","address":"高田町田尻"},
{"zip_code":"8390211","kana_pref":"ﾌｸｵｶｹﾝ","kana_city":"ﾐﾔﾏｼ","kana_address":"ﾀｶﾀﾏﾁﾄｸｼﾏ","pref":"福岡県","city":"みやま市","address":"高田町徳島"},
{"zip_code":"8390215","kana_pref":"ﾌｸｵｶｹﾝ","kana_city":"ﾐﾔﾏｼ","kana_address":"ﾀｶﾀﾏﾁﾉｾ","pref":"福岡県","city":"みやま市","address":"高田町濃施"},
{"zip_code":"8390222","kana_pref":"ﾌｸｵｶｹﾝ","kana_city":"ﾐﾔﾏｼ","kana_address":"ﾀｶﾀﾏﾁﾊﾙ","pref":"福岡県","city":"みやま市","address":"高田町原"},
{"zip_code":"8390205","kana_pref":"ﾌｸｵｶｹﾝ","kana_city":"ﾐﾔﾏｼ","kana_address":"ﾀｶﾀﾏﾁﾐﾅﾐｼﾝｶﾞｲ","pref":"福岡県","city":"みやま市","address":"高田町南新開"},
{"zip_code":"8391421","kana_pref":"ｵｵｲﾀｹﾝ","kana_city":"ﾋﾀｼ","kana_address":"ﾏｴﾂｴﾏﾁﾕｳｷﾞ","pref":"大分県","city":"日田市","address":"前津江町柚木"}]}