{"zip_code":[
{"zip_code":"8400812","kana_pref":"ｻｶﾞｹﾝ","kana_city":"ｻｶﾞｼ","kana_address":"ｱｲｹｲﾁｮｳ","pref":"佐賀県","city":"佐賀市","address":"愛敬町"},
{"zip_code":"8400042","kana_pref":"ｻｶﾞｹﾝ","kana_city":"ｻｶﾞｼ","kana_address":"ｱｶﾏﾂﾏﾁ","pref":"佐賀県","city":"佐賀市","address":"赤松町"},
{"zip_code":"8400053","kana_pref":"ｻｶﾞｹﾝ","kana_city":"ｻｶﾞｼ","kana_address":"ｱｻﾋﾏﾁ","pref":"佐賀県","city":"佐賀市","address":"朝日町"},
{"zip_code":"8400844","kana_pref":"ｻｶﾞｹﾝ","kana_city":"ｻｶﾞｼ","kana_address":"ｲｾﾏﾁ","pref":"佐賀県","city":"佐賀市","address":"伊勢町"},
{"zip_code":"8400052","kana_pref":"ｻｶﾞｹﾝ","kana_city":"ｻｶﾞｼ","kana_address":"ｲﾏｼｭｸﾏﾁ","pref":"佐賀県","city":"佐賀市","address":"今宿町"},
{"zip_code":"8400801","kana_pref":"ｻｶﾞｹﾝ","kana_city":"ｻｶﾞｼ","kana_address":"ｴｷﾏｴﾁｭｳｵｳ","pref":"佐賀県","city":"佐賀市","address":"駅前中央"},
{"zip_code":"8400816","kana_pref":"ｻｶﾞｹﾝ","kana_city":"ｻｶﾞｼ","kana_address":"ｴｷﾐﾅﾐﾎﾝﾏﾁ","pref":"佐賀県","city":"佐賀市","address":"駅南本町"},
{"zip_code":"8400811","kana_pref":"ｻｶﾞｹﾝ","kana_city":"ｻｶﾞｼ","kana_address":"ｵｵﾀｶﾗ","pref":"佐賀県","city":"佐賀市","address":"大財"},
{"zip_code":"8400802","kana_pref":"ｻｶﾞｹﾝ","kana_city":"ｻｶﾞｼ","kana_address":"ｵｵﾀｶﾗｷﾀﾏﾁ","pref":"佐賀県","city":"佐賀市","address":"大財北町"},
{"zip_code":"8400021","kana_pref":"ｻｶﾞｹﾝ","kana_city":"ｻｶﾞｼ","kana_address":"ｵﾆﾏﾙﾁｮｳ","pref":"佐賀県","city":"佐賀市","address":"鬼丸町"},
{"zip_code":"8400862","kana_pref":"ｻｶﾞｹﾝ","kana_city":"ｻｶﾞｼ","kana_address":"ｶｾﾏﾁｵｳｷﾞﾏﾁ","pref":"佐賀県","city":"佐賀市","address":"嘉瀬町扇町"},
{"zip_code":"8400864","kana_pref":"ｻｶﾞｹﾝ","kana_city":"ｻｶﾞｼ","kana_address":"ｶｾﾏﾁｵｷﾞﾉ","pref":"佐賀県","city":"佐賀市","address":"嘉瀬町荻野"},
{"zip_code":"8400863","kana_pref":"ｻｶﾞｹﾝ","kana_city":"ｻｶﾞｼ","kana_address":"ｶｾﾏﾁｼﾞｭｳｺﾞ","pref":"佐賀県","city":"佐賀市","address":"嘉瀬町十五"},
{"zip_code":"8400861","kana_pref":"ｻｶﾞｹﾝ","kana_city":"ｻｶﾞｼ","kana_address":"ｶｾﾏﾁﾅｶﾊﾞﾙ","pref":"佐賀県","city":"佐賀市","address":"嘉瀬町中原"},
{"zip_code":"8400806","kana_pref":"ｻｶﾞｹﾝ","kana_city":"ｻｶﾞｼ","kana_address":"ｶﾐｿﾞﾉ","pref":"佐賀県","city":"佐賀市","address":"神園"},
{"zip_code":"8402212","kana_pref":"ｻｶﾞｹﾝ","kana_city":"ｻｶﾞｼ","kana_address":"ｶﾜｿｴﾏﾁｲﾇｲﾄﾞｳ","pref":"佐賀県","city":"佐賀市","address":"川副町犬井道"},
{"zip_code":"8402211","kana_pref":"ｻｶﾞｹﾝ","kana_city":"ｻｶﾞｼ","kana_address":"ｶﾜｿｴﾏﾁｵｵﾀﾞｸﾏ","pref":"佐賀県","city":"佐賀市","address":"川副町大詫間"},
{"zip_code":"8402213","kana_pref":"ｻｶﾞｹﾝ","kana_city":"ｻｶﾞｼ","kana_address":"ｶﾜｿｴﾏﾁｶﾉｴ","pref":"佐賀県","city":"佐賀市","address":"川副町鹿江"},
{"zip_code":"8402214","kana_pref":"ｻｶﾞｹﾝ","kana_city":"ｻｶﾞｼ","kana_address":"ｶﾜｿｴﾏﾁｺｺﾞﾓﾘ","pref":"佐賀県","city":"佐賀市","address":"川副町小々森"},
{"zip_code":"8402205","kana_pref":"ｻｶﾞｹﾝ","kana_city":"ｻｶﾞｼ","kana_address":"ｶﾜｿｴﾏﾁﾅﾝﾘ","pref":"佐賀県","city":"佐賀市","address":"川副町南里"},
{"zip_code":"8402204","kana_pref":"ｻｶﾞｹﾝ","kana_city":"ｻｶﾞｼ","kana_address":"ｶﾜｿｴﾏﾁﾆｼｺｶﾞ","pref":"佐賀県","city":"佐賀市","address":"川副町西古賀"},
{"zip_code":"8402203","kana_pref":"ｻｶﾞｹﾝ","kana_city":"ｻｶﾞｼ","kana_address":"ｶﾜｿｴﾏﾁﾊﾔﾂｴ","pref":"佐賀県","city":"佐賀市","address":"川副町早津江"},
{"zip_code":"8402202","kana_pref":"ｻｶﾞｹﾝ","kana_city":"ｻｶﾞｼ","kana_address":"ｶﾜｿｴﾏﾁﾊﾔﾂｴﾂ","pref":"佐賀県","city":"佐賀市","address":"川副町早津江津"},
{"zip_code":"8402201","kana_pref":"ｻｶﾞｹﾝ","kana_city":"ｻｶﾞｼ","kana_address":"ｶﾜｿｴﾏﾁﾌｸﾄﾞﾐ","pref":"佐賀県","city":"佐賀市","address":"川副町福富"},
{"zip_code":"8400843","kana_pref":"ｻｶﾞｹﾝ","kana_city":"ｻｶﾞｼ","kana_address":"ｶﾜﾊﾗﾏﾁ","pref":"佐賀県","city":"佐賀市","address":"川原町"},
{"zip_code":"8400011","kana_pref":"ｻｶﾞｹﾝ","kana_city":"ｻｶﾞｼ","kana_address":"ｷﾀｶﾜｿｴﾏﾁｴｶﾞﾐ","pref":"佐賀県","city":"佐賀市","address":"北川副町江上"},
{"zip_code":"8400013","kana_pref":"ｻｶﾞｹﾝ","kana_city":"ｻｶﾞｼ","kana_address":"ｷﾀｶﾜｿｴﾏﾁｼﾝｺﾞｳ","pref":"佐賀県","city":"佐賀市","address":"北川副町新郷"},
{"zip_code":"8400012","kana_pref":"ｻｶﾞｹﾝ","kana_city":"ｻｶﾞｼ","kana_address":"ｷﾀｶﾜｿｴﾏﾁﾐﾂﾉﾘ","pref":"佐賀県","city":"佐賀市","address":"北川副町光法"},
{"zip_code":"8400015","kana_pref":"ｻｶﾞｹﾝ","kana_city":"ｻｶﾞｼ","kana_address":"ｷﾊﾗ","pref":"佐賀県","city":"佐賀市","address":"木原"},
{"zip_code":"8400804","kana_pref":"ｻｶﾞｹﾝ","kana_city":"ｻｶﾞｼ","kana_address":"ｺｳﾉﾋｶﾞｼ","pref":"佐賀県","city":"佐賀市","address":"神野東"},
{"zip_code":"8400805","kana_pref":"ｻｶﾞｹﾝ","kana_city":"ｻｶﾞｼ","kana_address":"ｺｳﾉﾆｼ","pref":"佐賀県","city":"佐賀市","address":"神野西"},
{"zip_code":"8400008","kana_pref":"ｻｶﾞｹﾝ","kana_city":"ｻｶﾞｼ","kana_address":"ｺｾﾏﾁｳｼｼﾞﾏ","pref":"佐賀県","city":"佐賀市","address":"巨勢町牛島"},
{"zip_code":"8400007","kana_pref":"ｻｶﾞｹﾝ","kana_city":"ｻｶﾞｼ","kana_address":"ｺｾﾏﾁﾀｶｵ","pref":"佐賀県","city":"佐賀市","address":"巨勢町高尾"},
{"zip_code":"8400001","kana_pref":"ｻｶﾞｹﾝ","kana_city":"ｻｶﾞｼ","kana_address":"ｺｾﾏﾁｼｭﾘﾀ","pref":"佐賀県","city":"佐賀市","address":"巨勢町修理田"},
{"zip_code":"8400006","kana_pref":"ｻｶﾞｹﾝ","kana_city":"ｻｶﾞｼ","kana_address":"ｺｾﾏﾁﾄｳｻﾞｲ","pref":"佐賀県","city":"佐賀市","address":"巨勢町東西"},
{"zip_code":"8400824","kana_pref":"ｻｶﾞｹﾝ","kana_city":"ｻｶﾞｼ","kana_address":"ｺﾞﾌｸﾓﾄﾏﾁ","pref":"佐賀県","city":"佐賀市","address":"呉服元町"},
{"zip_code":"8400056","kana_pref":"ｻｶﾞｹﾝ","kana_city":"ｻｶﾞｼ","kana_address":"ｺﾝﾔﾏﾁ","pref":"佐賀県","city":"佐賀市","address":"紺屋町"},
{"zip_code":"8400055","kana_pref":"ｻｶﾞｹﾝ","kana_city":"ｻｶﾞｼ","kana_address":"ｻﾞｲﾓｸ","pref":"佐賀県","city":"佐賀市","address":"材木"},
{"zip_code":"8400803","kana_pref":"ｻｶﾞｹﾝ","kana_city":"ｻｶﾞｼ","kana_address":"ｻｶｴﾏﾁ","pref":"佐賀県","city":"佐賀市","address":"栄町"},
{"zip_code":"8400044","kana_pref":"ｻｶﾞｹﾝ","kana_city":"ｻｶﾞｼ","kana_address":"ｻﾔﾉﾓﾄﾏﾁ","pref":"佐賀県","city":"佐賀市","address":"道祖元町"},
{"zip_code":"8400031","kana_pref":"ｻｶﾞｹﾝ","kana_city":"ｻｶﾞｼ","kana_address":"ｼﾓﾀﾞﾏﾁ","pref":"佐賀県","city":"佐賀市","address":"下田町"},
{"zip_code":"8400855","kana_pref":"ｻｶﾞｹﾝ","kana_city":"ｻｶﾞｼ","kana_address":"ｼｮｳｴｲﾏﾁ","pref":"佐賀県","city":"佐賀市","address":"昭栄町"},
{"zip_code":"8400041","kana_pref":"ｻｶﾞｹﾝ","kana_city":"ｻｶﾞｼ","kana_address":"ｼﾞｮｳﾅｲ","pref":"佐賀県","city":"佐賀市","address":"城内"},
{"zip_code":"8400043","kana_pref":"ｻｶﾞｹﾝ","kana_city":"ｻｶﾞｼ","kana_address":"ｼﾗｹﾞﾏﾁ","pref":"佐賀県","city":"佐賀市","address":"精町"},
{"zip_code":"8400826","kana_pref":"ｻｶﾞｹﾝ","kana_city":"ｻｶﾞｼ","kana_address":"ｼﾗﾔﾏ","pref":"佐賀県","city":"佐賀市","address":"白山"},
{"zip_code":"8400859","kana_pref":"ｻｶﾞｹﾝ","kana_city":"ｻｶﾞｼ","kana_address":"ｼﾝｴｲﾆｼ","pref":"佐賀県","city":"佐賀市","address":"新栄西"},
{"zip_code":"8400850","kana_pref":"ｻｶﾞｹﾝ","kana_city":"ｻｶﾞｼ","kana_address":"ｼﾝｴｲﾋｶﾞｼ","pref":"佐賀県","city":"佐賀市","address":"新栄東"},
{"zip_code":"8400017","kana_pref":"ｻｶﾞｹﾝ","kana_city":"ｻｶﾞｼ","kana_address":"ｼﾝｺﾞｳﾎﾝﾏﾁ","pref":"佐賀県","city":"佐賀市","address":"新郷本町"},
{"zip_code":"8400856","kana_pref":"ｻｶﾞｹﾝ","kana_city":"ｻｶﾞｼ","kana_address":"ｼﾝｾｲﾏﾁ","pref":"佐賀県","city":"佐賀市","address":"新生町"},
{"zip_code":"8400032","kana_pref":"ｻｶﾞｹﾝ","kana_city":"ｻｶﾞｼ","kana_address":"ｽｴﾋﾛ","pref":"佐賀県","city":"佐賀市","address":"末広"},
{"zip_code":"8400814","kana_pref":"ｻｶﾞｹﾝ","kana_city":"ｻｶﾞｼ","kana_address":"ｾｲｼｮｳﾏﾁ","pref":"佐賀県","city":"佐賀市","address":"成章町"},
{"zip_code":"8400822","kana_pref":"ｻｶﾞｹﾝ","kana_city":"ｻｶﾞｼ","kana_address":"ﾀｶｷﾞﾏﾁ","pref":"佐賀県","city":"佐賀市","address":"高木町"},
{"zip_code":"8400051","kana_pref":"ｻｶﾞｹﾝ","kana_city":"ｻｶﾞｼ","kana_address":"ﾀｼﾛ","pref":"佐賀県","city":"佐賀市","address":"田代"},
{"zip_code":"8400842","kana_pref":"ｻｶﾞｹﾝ","kana_city":"ｻｶﾞｼ","kana_address":"ﾀﾌｾ","pref":"佐賀県","city":"佐賀市","address":"多布施"},
{"zip_code":"8400825","kana_pref":"ｻｶﾞｹﾝ","kana_city":"ｻｶﾞｼ","kana_address":"ﾁｭｳｵｳﾎﾝﾏﾁ","pref":"佐賀県","city":"佐賀市","address":"中央本町"},
{"zip_code":"8400815","kana_pref":"ｻｶﾞｹﾝ","kana_city":"ｻｶﾞｼ","kana_address":"ﾃﾝｼﾞﾝ","pref":"佐賀県","city":"佐賀市","address":"天神"},
{"zip_code":"8400851","kana_pref":"ｻｶﾞｹﾝ","kana_city":"ｻｶﾞｼ","kana_address":"ﾃﾝﾕｳ","pref":"佐賀県","city":"佐賀市","address":"天祐"},
{"zip_code":"8400858","kana_pref":"ｻｶﾞｹﾝ","kana_city":"ｻｶﾞｼ","kana_address":"ﾃﾝﾕｳﾀﾞﾝﾁ","pref":"佐賀県","city":"佐賀市","address":"天祐団地"},
{"zip_code":"8400813","kana_pref":"ｻｶﾞｹﾝ","kana_city":"ｻｶﾞｼ","kana_address":"ﾄｳｼﾞﾝ","pref":"佐賀県","city":"佐賀市","address":"唐人"},
{"zip_code":"8400852","kana_pref":"ｻｶﾞｹﾝ","kana_city":"ｻｶﾞｼ","kana_address":"ﾅｶｵﾚﾏﾁ","pref":"佐賀県","city":"佐賀市","address":"中折町"},
{"zip_code":"8400833","kana_pref":"ｻｶﾞｹﾝ","kana_city":"ｻｶﾞｼ","kana_address":"ﾅｶﾉｺｳｼﾞ","pref":"佐賀県","city":"佐賀市","address":"中の小路"},
{"zip_code":"8400022","kana_pref":"ｻｶﾞｹﾝ","kana_city":"ｻｶﾞｼ","kana_address":"ﾅｶﾉﾀﾃﾏﾁ","pref":"佐賀県","city":"佐賀市","address":"中の館町"},
{"zip_code":"8400853","kana_pref":"ｻｶﾞｹﾝ","kana_city":"ｻｶﾞｼ","kana_address":"ﾅｶﾞｾﾏﾁ","pref":"佐賀県","city":"佐賀市","address":"長瀬町"},
{"zip_code":"8400857","kana_pref":"ｻｶﾞｹﾝ","kana_city":"ｻｶﾞｼ","kana_address":"ﾅﾍﾞｼﾏﾏﾁﾔｴ","pref":"佐賀県","city":"佐賀市","address":"鍋島町八戸"},
{"zip_code":"8400046","kana_pref":"ｻｶﾞｹﾝ","kana_city":"ｻｶﾞｼ","kana_address":"ﾆｼｳｵﾏﾁ","pref":"佐賀県","city":"佐賀市","address":"西魚町"},
{"zip_code":"8400045","kana_pref":"ｻｶﾞｹﾝ","kana_city":"ｻｶﾞｼ","kana_address":"ﾆｼﾀｼﾛ","pref":"佐賀県","city":"佐賀市","address":"西田代"},
{"zip_code":"8400035","kana_pref":"ｻｶﾞｹﾝ","kana_city":"ｻｶﾞｼ","kana_address":"ﾆｼﾖｶﾏﾁｲﾏﾂﾞ","pref":"佐賀県","city":"佐賀市","address":"西与賀町今津"},
{"zip_code":"8400037","kana_pref":"ｻｶﾞｹﾝ","kana_city":"ｻｶﾞｼ","kana_address":"ﾆｼﾖｶﾏﾁｿｳｵｳﾂ","pref":"佐賀県","city":"佐賀市","address":"西与賀町相応津"},
{"zip_code":"8400034","kana_pref":"ｻｶﾞｹﾝ","kana_city":"ｻｶﾞｼ","kana_address":"ﾆｼﾖｶﾏﾁﾘﾝｹﾞ","pref":"佐賀県","city":"佐賀市","address":"西与賀町厘外"},
{"zip_code":"8400036","kana_pref":"ｻｶﾞｹﾝ","kana_city":"ｻｶﾞｼ","kana_address":"ﾆｼﾖｶﾏﾁﾀｶﾀﾛｳ","pref":"佐賀県","city":"佐賀市","address":"西与賀町高太郎"},
{"zip_code":"8400005","kana_pref":"ｻｶﾞｹﾝ","kana_city":"ｻｶﾞｼ","kana_address":"ﾊｽｲｹﾏﾁﾊｽｲｹ","pref":"佐賀県","city":"佐賀市","address":"蓮池町蓮池"},
{"zip_code":"8400003","kana_pref":"ｻｶﾞｹﾝ","kana_city":"ｻｶﾞｼ","kana_address":"ﾊｽｲｹﾏﾁｺｶﾞ","pref":"佐賀県","city":"佐賀市","address":"蓮池町古賀"},
{"zip_code":"8400004","kana_pref":"ｻｶﾞｹﾝ","kana_city":"ｻｶﾞｼ","kana_address":"ﾊｽｲｹﾏﾁｺﾏﾂ","pref":"佐賀県","city":"佐賀市","address":"蓮池町小松"},
{"zip_code":"8400002","kana_pref":"ｻｶﾞｹﾝ","kana_city":"ｻｶﾞｼ","kana_address":"ﾊｽｲｹﾏﾁﾐｼﾏ","pref":"佐賀県","city":"佐賀市","address":"蓮池町見島"},
{"zip_code":"8400834","kana_pref":"ｻｶﾞｹﾝ","kana_city":"ｻｶﾞｼ","kana_address":"ﾊﾁﾏﾝｺｳｼﾞ","pref":"佐賀県","city":"佐賀市","address":"八幡小路"},
{"zip_code":"8400033","kana_pref":"ｻｶﾞｹﾝ","kana_city":"ｻｶﾞｼ","kana_address":"ﾋｶﾘ","pref":"佐賀県","city":"佐賀市","address":"光"},
{"zip_code":"8400821","kana_pref":"ｻｶﾞｹﾝ","kana_city":"ｻｶﾞｼ","kana_address":"ﾋｶﾞｼｻｶﾞﾏﾁ","pref":"佐賀県","city":"佐賀市","address":"東佐賀町"},
{"zip_code":"8402223","kana_pref":"ｻｶﾞｹﾝ","kana_city":"ｻｶﾞｼ","kana_address":"ﾋｶﾞｼﾖｶﾁｮｳｲｻｶﾞｲ","pref":"佐賀県","city":"佐賀市","address":"東与賀町飯盛"},
{"zip_code":"8402221","kana_pref":"ｻｶﾞｹﾝ","kana_city":"ｻｶﾞｼ","kana_address":"ﾋｶﾞｼﾖｶﾁｮｳｼﾓｺｶﾞ","pref":"佐賀県","city":"佐賀市","address":"東与賀町下古賀"},
{"zip_code":"8402222","kana_pref":"ｻｶﾞｹﾝ","kana_city":"ｻｶﾞｼ","kana_address":"ﾋｶﾞｼﾖｶﾁｮｳﾀﾅｶ","pref":"佐賀県","city":"佐賀市","address":"東与賀町田中"},
{"zip_code":"8400503","kana_pref":"ｻｶﾞｹﾝ","kana_city":"ｻｶﾞｼ","kana_address":"ﾌｼﾞﾁｮｳｲﾁｶﾜ","pref":"佐賀県","city":"佐賀市","address":"富士町市川"},
{"zip_code":"8400514","kana_pref":"ｻｶﾞｹﾝ","kana_city":"ｻｶﾞｼ","kana_address":"ﾌｼﾞﾁｮｳｳﾁﾉ","pref":"佐賀県","city":"佐賀市","address":"富士町内野"},
{"zip_code":"8400516","kana_pref":"ｻｶﾞｹﾝ","kana_city":"ｻｶﾞｼ","kana_address":"ﾌｼﾞﾁｮｳｳﾒﾉ","pref":"佐賀県","city":"佐賀市","address":"富士町梅野"},
{"zip_code":"8400533","kana_pref":"ｻｶﾞｹﾝ","kana_city":"ｻｶﾞｼ","kana_address":"ﾌｼﾞﾁｮｳｵｵｸｼ","pref":"佐賀県","city":"佐賀市","address":"富士町大串"},
{"zip_code":"8400532","kana_pref":"ｻｶﾞｹﾝ","kana_city":"ｻｶﾞｼ","kana_address":"ﾌｼﾞﾁｮｳｵｵﾉ","pref":"佐賀県","city":"佐賀市","address":"富士町大野"},
{"zip_code":"8400521","kana_pref":"ｻｶﾞｹﾝ","kana_city":"ｻｶﾞｼ","kana_address":"ﾌｼﾞﾁｮｳｵｿｴｶﾞﾜ","pref":"佐賀県","city":"佐賀市","address":"富士町小副川"},
{"zip_code":"8400511","kana_pref":"ｻｶﾞｹﾝ","kana_city":"ｻｶﾞｼ","kana_address":"ﾌｼﾞﾁｮｳｶﾏﾊﾞﾙ","pref":"佐賀県","city":"佐賀市","address":"富士町鎌原"},
{"zip_code":"8400545","kana_pref":"ｻｶﾞｹﾝ","kana_city":"ｻｶﾞｼ","kana_address":"ﾌｼﾞﾁｮｳｶﾐｵｵｾ","pref":"佐賀県","city":"佐賀市","address":"富士町上合瀬"},
{"zip_code":"8400512","kana_pref":"ｻｶﾞｹﾝ","kana_city":"ｻｶﾞｼ","kana_address":"ﾌｼﾞﾁｮｳｶﾐｸﾏｶﾜ","pref":"佐賀県","city":"佐賀市","address":"富士町上熊川"},
{"zip_code":"8400536","kana_pref":"ｻｶﾞｹﾝ","kana_city":"ｻｶﾞｼ","kana_address":"ﾌｼﾞﾁｮｳｶﾐﾑﾂﾛ","pref":"佐賀県","city":"佐賀市","address":"富士町上無津呂"},
{"zip_code":"8400531","kana_pref":"ｻｶﾞｹﾝ","kana_city":"ｻｶﾞｼ","kana_address":"ﾌｼﾞﾁｮｳｸﾘﾅﾐ","pref":"佐賀県","city":"佐賀市","address":"富士町栗並"},
{"zip_code":"8400543","kana_pref":"ｻｶﾞｹﾝ","kana_city":"ｻｶﾞｼ","kana_address":"ﾌｼﾞﾁｮｳｺﾊﾞ","pref":"佐賀県","city":"佐賀市","address":"富士町古場"},
{"zip_code":"8400544","kana_pref":"ｻｶﾞｹﾝ","kana_city":"ｻｶﾞｼ","kana_address":"ﾌｼﾞﾁｮｳｼﾓｵｵｾ","pref":"佐賀県","city":"佐賀市","address":"富士町下合瀬"},
{"zip_code":"8400513","kana_pref":"ｻｶﾞｹﾝ","kana_city":"ｻｶﾞｼ","kana_address":"ﾌｼﾞﾁｮｳｼﾓｸﾏｶﾜ","pref":"佐賀県","city":"佐賀市","address":"富士町下熊川"},
{"zip_code":"8400535","kana_pref":"ｻｶﾞｹﾝ","kana_city":"ｻｶﾞｼ","kana_address":"ﾌｼﾞﾁｮｳｼﾓﾑﾂﾛ","pref":"佐賀県","city":"佐賀市","address":"富士町下無津呂"},
{"zip_code":"8400502","kana_pref":"ｻｶﾞｹﾝ","kana_city":"ｻｶﾞｼ","kana_address":"ﾌｼﾞﾁｮｳｽｷﾞﾔﾏ","pref":"佐賀県","city":"佐賀市","address":"富士町杉山"},
{"zip_code":"8400541","kana_pref":"ｻｶﾞｹﾝ","kana_city":"ｻｶﾞｼ","kana_address":"ﾌｼﾞﾁｮｳｾｷﾔ","pref":"佐賀県","city":"佐賀市","address":"富士町関屋"},
{"zip_code":"8400504","kana_pref":"ｻｶﾞｹﾝ","kana_city":"ｻｶﾞｼ","kana_address":"ﾌｼﾞﾁｮｳﾁｬﾉｷ","pref":"佐賀県","city":"佐賀市","address":"富士町苣木"},
{"zip_code":"8400534","kana_pref":"ｻｶﾞｹﾝ","kana_city":"ｻｶﾞｼ","kana_address":"ﾌｼﾞﾁｮｳﾅｶﾊﾞﾙ","pref":"佐賀県","city":"佐賀市","address":"富士町中原"},
{"zip_code":"8400522","kana_pref":"ｻｶﾞｹﾝ","kana_city":"ｻｶﾞｼ","kana_address":"ﾌｼﾞﾁｮｳﾊﾀｾ","pref":"佐賀県","city":"佐賀市","address":"富士町畑瀬"},
{"zip_code":"8400542","kana_pref":"ｻｶﾞｹﾝ","kana_city":"ｻｶﾞｼ","kana_address":"ﾌｼﾞﾁｮｳﾌｼﾞｾ","pref":"佐賀県","city":"佐賀市","address":"富士町藤瀬"},
{"zip_code":"8400501","kana_pref":"ｻｶﾞｹﾝ","kana_city":"ｻｶﾞｼ","kana_address":"ﾌｼﾞﾁｮｳﾌﾙﾕ","pref":"佐賀県","city":"佐賀市","address":"富士町古湯"},
{"zip_code":"8400515","kana_pref":"ｻｶﾞｹﾝ","kana_city":"ｻｶﾞｼ","kana_address":"ﾌｼﾞﾁｮｳﾏﾂｾ","pref":"佐賀県","city":"佐賀市","address":"富士町松瀬"},
{"zip_code":"8400537","kana_pref":"ｻｶﾞｹﾝ","kana_city":"ｻｶﾞｼ","kana_address":"ﾌｼﾞﾁｮｳﾏﾅｺﾞ","pref":"佐賀県","city":"佐賀市","address":"富士町麻那古"},
{"zip_code":"8400832","kana_pref":"ｻｶﾞｹﾝ","kana_city":"ｻｶﾞｼ","kana_address":"ﾎﾘｶﾜﾁｮｳ","pref":"佐賀県","city":"佐賀市","address":"堀川町"},
{"zip_code":"8400025","kana_pref":"ｻｶﾞｹﾝ","kana_city":"ｻｶﾞｼ","kana_address":"ﾎﾝｼﾞｮｳﾏﾁｶﾉｺ","pref":"佐賀県","city":"佐賀市","address":"本庄町鹿子"},
{"zip_code":"8400027","kana_pref":"ｻｶﾞｹﾝ","kana_city":"ｻｶﾞｼ","kana_address":"ﾎﾝｼﾞｮｳﾏﾁﾎﾝｼﾞｮｳ","pref":"佐賀県","city":"佐賀市","address":"本庄町本庄"},
{"zip_code":"8400026","kana_pref":"ｻｶﾞｹﾝ","kana_city":"ｻｶﾞｼ","kana_address":"ﾎﾝｼﾞｮｳﾏﾁｼｮｳﾘ","pref":"佐賀県","city":"佐賀市","address":"本庄町正里"},
{"zip_code":"8400024","kana_pref":"ｻｶﾞｹﾝ","kana_city":"ｻｶﾞｼ","kana_address":"ﾎﾝｼﾞｮｳﾏﾁｽｴﾂｸﾞ","pref":"佐賀県","city":"佐賀市","address":"本庄町末次"},
{"zip_code":"8400023","kana_pref":"ｻｶﾞｹﾝ","kana_city":"ｻｶﾞｼ","kana_address":"ﾎﾝｼﾞｮｳﾏﾁﾌｸﾛ","pref":"佐賀県","city":"佐賀市","address":"本庄町袋"},
{"zip_code":"8400831","kana_pref":"ｻｶﾞｹﾝ","kana_city":"ｻｶﾞｼ","kana_address":"ﾏﾂﾊﾞﾗ","pref":"佐賀県","city":"佐賀市","address":"松原"},
{"zip_code":"8400054","kana_pref":"ｻｶﾞｹﾝ","kana_city":"ｻｶﾞｼ","kana_address":"ﾐｽﾞｶﾞｴ","pref":"佐賀県","city":"佐賀市","address":"水ケ江"},
{"zip_code":"8400841","kana_pref":"ｻｶﾞｹﾝ","kana_city":"ｻｶﾞｼ","kana_address":"ﾐﾄﾞﾘｺｳｼﾞ","pref":"佐賀県","city":"佐賀市","address":"緑小路"},
{"zip_code":"8400016","kana_pref":"ｻｶﾞｹﾝ","kana_city":"ｻｶﾞｼ","kana_address":"ﾐﾅﾐｻｶﾞ","pref":"佐賀県","city":"佐賀市","address":"南佐賀"},
{"zip_code":"8402101","kana_pref":"ｻｶﾞｹﾝ","kana_city":"ｻｶﾞｼ","kana_address":"ﾓﾛﾄﾞﾐﾁｮｳｵｵﾄﾞｳ","pref":"佐賀県","city":"佐賀市","address":"諸富町大堂"},
{"zip_code":"8402102","kana_pref":"ｻｶﾞｹﾝ","kana_city":"ｻｶﾞｼ","kana_address":"ﾓﾛﾄﾞﾐﾁｮｳﾀﾒｼｹﾞ","pref":"佐賀県","city":"佐賀市","address":"諸富町為重"},
{"zip_code":"8402103","kana_pref":"ｻｶﾞｹﾝ","kana_city":"ｻｶﾞｼ","kana_address":"ﾓﾛﾄﾞﾐﾁｮｳﾃﾗｲﾂ","pref":"佐賀県","city":"佐賀市","address":"諸富町寺井津"},
{"zip_code":"8402104","kana_pref":"ｻｶﾞｹﾝ","kana_city":"ｻｶﾞｼ","kana_address":"ﾓﾛﾄﾞﾐﾁｮｳﾄｸﾄﾞﾐ","pref":"佐賀県","city":"佐賀市","address":"諸富町徳富"},
{"zip_code":"8402105","kana_pref":"ｻｶﾞｹﾝ","kana_city":"ｻｶﾞｼ","kana_address":"ﾓﾛﾄﾞﾐﾁｮｳﾓﾛﾄﾞﾐﾂ","pref":"佐賀県","city":"佐賀市","address":"諸富町諸富津"},
{"zip_code":"8402106","kana_pref":"ｻｶﾞｹﾝ","kana_city":"ｻｶﾞｼ","kana_address":"ﾓﾛﾄﾞﾐﾁｮｳﾔﾏﾘｮｳ","pref":"佐賀県","city":"佐賀市","address":"諸富町山領"},
{"zip_code":"8400854","kana_pref":"ｻｶﾞｹﾝ","kana_city":"ｻｶﾞｼ","kana_address":"ﾔｴ","pref":"佐賀県","city":"佐賀市","address":"八戸"},
{"zip_code":"8400823","kana_pref":"ｻｶﾞｹﾝ","kana_city":"ｻｶﾞｼ","kana_address":"ﾔﾅｷﾞﾏﾁ","pref":"佐賀県","city":"佐賀市","address":"柳町"},
{"zip_code":"8400212","kana_pref":"ｻｶﾞｹﾝ","kana_city":"ｻｶﾞｼ","kana_address":"ﾔﾏﾄﾁｮｳｲｹﾉｳｴ","pref":"佐賀県","city":"佐賀市","address":"大和町池上"},
{"zip_code":"8400203","kana_pref":"ｻｶﾞｹﾝ","kana_city":"ｻｶﾞｼ","kana_address":"ﾔﾏﾄﾁｮｳｳﾒﾉ","pref":"佐賀県","city":"佐賀市","address":"大和町梅野"},
{"zip_code":"8400214","kana_pref":"ｻｶﾞｹﾝ","kana_city":"ｻｶﾞｼ","kana_address":"ﾔﾏﾄﾁｮｳｶﾜｶﾐ","pref":"佐賀県","city":"佐賀市","address":"大和町川上"},
{"zip_code":"8400202","kana_pref":"ｻｶﾞｹﾝ","kana_city":"ｻｶﾞｼ","kana_address":"ﾔﾏﾄﾁｮｳｸﾁｲ","pref":"佐賀県","city":"佐賀市","address":"大和町久池井"},
{"zip_code":"8400213","kana_pref":"ｻｶﾞｹﾝ","kana_city":"ｻｶﾞｼ","kana_address":"ﾔﾏﾄﾁｮｳｸﾙﾏ","pref":"佐賀県","city":"佐賀市","address":"大和町久留間"},
{"zip_code":"8400205","kana_pref":"ｻｶﾞｹﾝ","kana_city":"ｻｶﾞｼ","kana_address":"ﾔﾏﾄﾁｮｳﾅｵ","pref":"佐賀県","city":"佐賀市","address":"大和町名尾"},
{"zip_code":"8400201","kana_pref":"ｻｶﾞｹﾝ","kana_city":"ｻｶﾞｼ","kana_address":"ﾔﾏﾄﾁｮｳﾆｲｼﾞ","pref":"佐賀県","city":"佐賀市","address":"大和町尼寺"},
{"zip_code":"8400215","kana_pref":"ｻｶﾞｹﾝ","kana_city":"ｻｶﾞｼ","kana_address":"ﾔﾏﾄﾁｮｳﾊｯﾀﾊﾞﾙ","pref":"佐賀県","city":"佐賀市","address":"大和町八反原"},
{"zip_code":"8400211","kana_pref":"ｻｶﾞｹﾝ","kana_city":"ｻｶﾞｼ","kana_address":"ﾔﾏﾄﾁｮｳﾋｶﾞｼﾔﾏﾀﾞ","pref":"佐賀県","city":"佐賀市","address":"大和町東山田"},
{"zip_code":"8400204","kana_pref":"ｻｶﾞｹﾝ","kana_city":"ｻｶﾞｼ","kana_address":"ﾔﾏﾄﾁｮｳﾏﾂｾ","pref":"佐賀県","city":"佐賀市","address":"大和町松瀬"},
{"zip_code":"8400047","kana_pref":"ｻｶﾞｹﾝ","kana_city":"ｻｶﾞｼ","kana_address":"ﾖｶﾏﾁ","pref":"佐賀県","city":"佐賀市","address":"与賀町"},
{"zip_code":"8400845","kana_pref":"ｻｶﾞｹﾝ","kana_city":"ｻｶﾞｼ","kana_address":"ﾛｸｻﾞﾏﾁ","pref":"佐賀県","city":"佐賀市","address":"六座町"},
{"zip_code":"8401106","kana_pref":"ｻｶﾞｹﾝ","kana_city":"ﾐﾔｷｸﾞﾝﾐﾔｷﾁｮｳ","kana_address":"ｲﾁﾀｹ","pref":"佐賀県","city":"三養基郡みやき町","address":"市武"},
{"zip_code":"8401103","kana_pref":"ｻｶﾞｹﾝ","kana_city":"ﾐﾔｷｸﾞﾝﾐﾔｷﾁｮｳ","kana_address":"ｻｶｸﾞﾁ","pref":"佐賀県","city":"三養基郡みやき町","address":"坂口"},
{"zip_code":"8401102","kana_pref":"ｻｶﾞｹﾝ","kana_city":"ﾐﾔｷｸﾞﾝﾐﾔｷﾁｮｳ","kana_address":"ﾃﾝｹﾝｼﾞ","pref":"佐賀県","city":"三養基郡みやき町","address":"天建寺"},
{"zip_code":"8401101","kana_pref":"ｻｶﾞｹﾝ","kana_city":"ﾐﾔｷｸﾞﾝﾐﾔｷﾁｮｳ","kana_address":"ﾆｼｼﾞﾏ","pref":"佐賀県","city":"三養基郡みやき町","address":"西島"},
{"zip_code":"8401104","kana_pref":"ｻｶﾞｹﾝ","kana_city":"ﾐﾔｷｸﾞﾝﾐﾔｷﾁｮｳ","kana_address":"ﾋｶﾞｼﾂ","pref":"佐賀県","city":"三養基郡みやき町","address":"東津"},
{"zip_code":"8401105","kana_pref":"ｻｶﾞｹﾝ","kana_city":"ﾐﾔｷｸﾞﾝﾐﾔｷﾁｮｳ","kana_address":"ﾖﾘｳﾄ","pref":"佐賀県","city":"三養基郡みやき町","address":"寄人"}]}