{"zip_code":[
{"zip_code":"8410000","kana_pref":"ｻｶﾞｹﾝ","kana_city":"ﾄｽｼ","kana_address":"","pref":"佐賀県","city":"鳥栖市","address":""},
{"zip_code":"8410036","kana_pref":"ｻｶﾞｹﾝ","kana_city":"ﾄｽｼ","kana_address":"ｱｷﾊﾞﾏﾁ","pref":"佐賀県","city":"鳥栖市","address":"秋葉町"},
{"zip_code":"8410082","kana_pref":"ｻｶﾞｹﾝ","kana_city":"ﾄｽｼ","kana_address":"ｱｻｲﾏﾁ","pref":"佐賀県","city":"鳥栖市","address":"浅井町"},
{"zip_code":"8410068","kana_pref":"ｻｶﾞｹﾝ","kana_city":"ﾄｽｼ","kana_address":"ｱｻﾋｼﾝﾏﾁ","pref":"佐賀県","city":"鳥栖市","address":"あさひ新町"},
{"zip_code":"8410045","kana_pref":"ｻｶﾞｹﾝ","kana_city":"ﾄｽｼ","kana_address":"ｱﾝﾗｸｼﾞﾏﾁ","pref":"佐賀県","city":"鳥栖市","address":"安楽寺町"},
{"zip_code":"8410022","kana_pref":"ｻｶﾞｹﾝ","kana_city":"ﾄｽｼ","kana_address":"ｲｲﾀﾞﾏﾁ","pref":"佐賀県","city":"鳥栖市","address":"飯田町"},
{"zip_code":"8410047","kana_pref":"ｻｶﾞｹﾝ","kana_city":"ﾄｽｼ","kana_address":"ｲﾏｲｽﾞﾐﾏﾁ","pref":"佐賀県","city":"鳥栖市","address":"今泉町"},
{"zip_code":"8410001","kana_pref":"ｻｶﾞｹﾝ","kana_city":"ﾄｽｼ","kana_address":"ｲﾏﾏﾁ","pref":"佐賀県","city":"鳥栖市","address":"今町"},
{"zip_code":"8410086","kana_pref":"ｻｶﾞｹﾝ","kana_city":"ﾄｽｼ","kana_address":"ｳｼﾜﾗﾏﾁ","pref":"佐賀県","city":"鳥栖市","address":"牛原町"},
{"zip_code":"8410073","kana_pref":"ｻｶﾞｹﾝ","kana_city":"ﾄｽｼ","kana_address":"ｴｼﾞﾏﾏﾁ","pref":"佐賀県","city":"鳥栖市","address":"江島町"},
{"zip_code":"8410003","kana_pref":"ｻｶﾞｹﾝ","kana_city":"ﾄｽｼ","kana_address":"ｶﾄｳﾀﾞﾏﾁ","pref":"佐賀県","city":"鳥栖市","address":"加藤田町"},
{"zip_code":"8410081","kana_pref":"ｻｶﾞｹﾝ","kana_city":"ﾄｽｼ","kana_address":"ｶﾔｶﾀﾏﾁ","pref":"佐賀県","city":"鳥栖市","address":"萱方町"},
{"zip_code":"8410087","kana_pref":"ｻｶﾞｹﾝ","kana_city":"ﾄｽｼ","kana_address":"ｶﾜﾁﾏﾁ","pref":"佐賀県","city":"鳥栖市","address":"河内町"},
{"zip_code":"8410066","kana_pref":"ｻｶﾞｹﾝ","kana_city":"ﾄｽｼ","kana_address":"ｷﾞﾄｸﾏﾁ","pref":"佐賀県","city":"鳥栖市","address":"儀徳町"},
{"zip_code":"8410034","kana_pref":"ｻｶﾞｹﾝ","kana_city":"ﾄｽｼ","kana_address":"ｷｮｳﾏﾁ","pref":"佐賀県","city":"鳥栖市","address":"京町"},
{"zip_code":"8410056","kana_pref":"ｻｶﾞｹﾝ","kana_city":"ﾄｽｼ","kana_address":"ｸﾗﾉｳｴ","pref":"佐賀県","city":"鳥栖市","address":"蔵上"},
{"zip_code":"8410054","kana_pref":"ｻｶﾞｹﾝ","kana_city":"ﾄｽｼ","kana_address":"ｸﾗﾉｳｴﾏﾁ","pref":"佐賀県","city":"鳥栖市","address":"蔵上町"},
{"zip_code":"8410004","kana_pref":"ｻｶﾞｹﾝ","kana_city":"ﾄｽｼ","kana_address":"ｺｳﾉｴﾏﾁ","pref":"佐賀県","city":"鳥栖市","address":"神辺町"},
{"zip_code":"8410083","kana_pref":"ｻｶﾞｹﾝ","kana_city":"ﾄｽｼ","kana_address":"ｺｶﾞﾏﾁ","pref":"佐賀県","city":"鳥栖市","address":"古賀町"},
{"zip_code":"8410062","kana_pref":"ｻｶﾞｹﾝ","kana_city":"ﾄｽｼ","kana_address":"ｻｲﾂﾏﾁ","pref":"佐賀県","city":"鳥栖市","address":"幸津町"},
{"zip_code":"8410041","kana_pref":"ｻｶﾞｹﾝ","kana_city":"ﾄｽｼ","kana_address":"ｻｶｲﾋｶﾞｼﾏﾁ","pref":"佐賀県","city":"鳥栖市","address":"酒井東町"},
{"zip_code":"8410042","kana_pref":"ｻｶﾞｹﾝ","kana_city":"ﾄｽｼ","kana_address":"ｻｶｲﾆｼﾏﾁ","pref":"佐賀県","city":"鳥栖市","address":"酒井西町"},
{"zip_code":"8410088","kana_pref":"ｻｶﾞｹﾝ","kana_city":"ﾄｽｼ","kana_address":"ｻｸﾗｶﾞｵｶﾏﾁ","pref":"佐賀県","city":"鳥栖市","address":"桜ケ丘町"},
{"zip_code":"8410014","kana_pref":"ｻｶﾞｹﾝ","kana_city":"ﾄｽｼ","kana_address":"ｻｸﾗﾏﾁ","pref":"佐賀県","city":"鳥栖市","address":"桜町"},
{"zip_code":"8410063","kana_pref":"ｻｶﾞｹﾝ","kana_city":"ﾄｽｼ","kana_address":"ｼﾓﾉﾏﾁ","pref":"佐賀県","city":"鳥栖市","address":"下野町"},
{"zip_code":"8410052","kana_pref":"ｻｶﾞｹﾝ","kana_city":"ﾄｽｼ","kana_address":"ｼｭｸﾏﾁ","pref":"佐賀県","city":"鳥栖市","address":"宿町"},
{"zip_code":"8410025","kana_pref":"ｻｶﾞｹﾝ","kana_city":"ﾄｽｼ","kana_address":"ｿﾈｻﾞｷﾏﾁ","pref":"佐賀県","city":"鳥栖市","address":"曽根崎町"},
{"zip_code":"8410032","kana_pref":"ｻｶﾞｹﾝ","kana_city":"ﾄｽｼ","kana_address":"ﾀｲｼｮｳﾏﾁ","pref":"佐賀県","city":"鳥栖市","address":"大正町"},
{"zip_code":"8410044","kana_pref":"ｻｶﾞｹﾝ","kana_city":"ﾄｽｼ","kana_address":"ﾀｶﾀﾏﾁ","pref":"佐賀県","city":"鳥栖市","address":"高田町"},
{"zip_code":"8410015","kana_pref":"ｻｶﾞｹﾝ","kana_city":"ﾄｽｼ","kana_address":"ﾀｼﾛｶﾝﾏﾁ","pref":"佐賀県","city":"鳥栖市","address":"田代上町"},
{"zip_code":"8410012","kana_pref":"ｻｶﾞｹﾝ","kana_city":"ﾄｽｼ","kana_address":"ﾀｼﾛｼｮｳﾏﾁ","pref":"佐賀県","city":"鳥栖市","address":"田代昌町"},
{"zip_code":"8410013","kana_pref":"ｻｶﾞｹﾝ","kana_city":"ﾄｽｼ","kana_address":"ﾀｼﾛｼﾝﾏﾁ","pref":"佐賀県","city":"鳥栖市","address":"田代新町"},
{"zip_code":"8410017","kana_pref":"ｻｶﾞｹﾝ","kana_city":"ﾄｽｼ","kana_address":"ﾀｼﾛﾀﾞｲｶﾝﾏﾁ","pref":"佐賀県","city":"鳥栖市","address":"田代大官町"},
{"zip_code":"8410016","kana_pref":"ｻｶﾞｹﾝ","kana_city":"ﾄｽｼ","kana_address":"ﾀｼﾛﾎｶﾏﾁ","pref":"佐賀県","city":"鳥栖市","address":"田代外町"},
{"zip_code":"8410018","kana_pref":"ｻｶﾞｹﾝ","kana_city":"ﾄｽｼ","kana_address":"ﾀｼﾛﾎﾝﾏﾁ","pref":"佐賀県","city":"鳥栖市","address":"田代本町"},
{"zip_code":"8410075","kana_pref":"ｻｶﾞｹﾝ","kana_city":"ﾄｽｼ","kana_address":"ﾀﾃｲｼﾏﾁ","pref":"佐賀県","city":"鳥栖市","address":"立石町"},
{"zip_code":"8410039","kana_pref":"ｻｶﾞｹﾝ","kana_city":"ﾄｽｼ","kana_address":"ﾄﾞｲﾏﾁ","pref":"佐賀県","city":"鳥栖市","address":"土井町"},
{"zip_code":"8410061","kana_pref":"ｻｶﾞｹﾝ","kana_city":"ﾄｽｼ","kana_address":"ﾄﾄﾞﾛｷﾏﾁ","pref":"佐賀県","city":"鳥栖市","address":"轟木町"},
{"zip_code":"8410011","kana_pref":"ｻｶﾞｹﾝ","kana_city":"ﾄｽｼ","kana_address":"ﾅｶﾞﾖｼﾏﾁ","pref":"佐賀県","city":"鳥栖市","address":"永吉町"},
{"zip_code":"8410074","kana_pref":"ｻｶﾞｹﾝ","kana_city":"ﾄｽｼ","kana_address":"ﾆｼｼﾝﾏﾁ","pref":"佐賀県","city":"鳥栖市","address":"西新町"},
{"zip_code":"8410067","kana_pref":"ｻｶﾞｹﾝ","kana_city":"ﾄｽｼ","kana_address":"ﾆｼﾀﾞﾏﾁ","pref":"佐賀県","city":"鳥栖市","address":"西田町"},
{"zip_code":"8410089","kana_pref":"ｻｶﾞｹﾝ","kana_city":"ﾄｽｼ","kana_address":"ﾆｼﾞｶﾞｵｶﾏﾁ","pref":"佐賀県","city":"鳥栖市","address":"虹ケ丘町"},
{"zip_code":"8410021","kana_pref":"ｻｶﾞｹﾝ","kana_city":"ﾄｽｼ","kana_address":"ﾊﾀｻﾞｷﾏﾁ","pref":"佐賀県","city":"鳥栖市","address":"幡崎町"},
{"zip_code":"8410071","kana_pref":"ｻｶﾞｹﾝ","kana_city":"ﾄｽｼ","kana_address":"ﾊﾗｺｶﾞﾏﾁ","pref":"佐賀県","city":"鳥栖市","address":"原古賀町"},
{"zip_code":"8410024","kana_pref":"ｻｶﾞｹﾝ","kana_city":"ﾄｽｼ","kana_address":"ﾊﾙﾏﾁ","pref":"佐賀県","city":"鳥栖市","address":"原町"},
{"zip_code":"8410035","kana_pref":"ｻｶﾞｹﾝ","kana_city":"ﾄｽｼ","kana_address":"ﾋｶﾞｼﾏﾁ","pref":"佐賀県","city":"鳥栖市","address":"東町"},
{"zip_code":"8410023","kana_pref":"ｻｶﾞｹﾝ","kana_city":"ﾄｽｼ","kana_address":"ﾋﾒｶﾀﾏﾁ","pref":"佐賀県","city":"鳥栖市","address":"姫方町"},
{"zip_code":"8410076","kana_pref":"ｻｶﾞｹﾝ","kana_city":"ﾄｽｼ","kana_address":"ﾋﾗﾀﾏﾁ","pref":"佐賀県","city":"鳥栖市","address":"平田町"},
{"zip_code":"8410048","kana_pref":"ｻｶﾞｹﾝ","kana_city":"ﾄｽｼ","kana_address":"ﾌｼﾞﾉｷﾏﾁ","pref":"佐賀県","city":"鳥栖市","address":"藤木町"},
{"zip_code":"8410053","kana_pref":"ｻｶﾞｹﾝ","kana_city":"ﾄｽｼ","kana_address":"ﾌﾂﾊﾗﾏﾁ","pref":"佐賀県","city":"鳥栖市","address":"布津原町"},
{"zip_code":"8410038","kana_pref":"ｻｶﾞｹﾝ","kana_city":"ﾄｽｼ","kana_address":"ﾌﾙﾉﾏﾁ","pref":"佐賀県","city":"鳥栖市","address":"古野町"},
{"zip_code":"8410033","kana_pref":"ｻｶﾞｹﾝ","kana_city":"ﾄｽｼ","kana_address":"ﾎﾝﾄﾞｵﾘﾏﾁ","pref":"佐賀県","city":"鳥栖市","address":"本通町"},
{"zip_code":"8410026","kana_pref":"ｻｶﾞｹﾝ","kana_city":"ﾄｽｼ","kana_address":"ﾎﾝﾄﾞｽﾏﾁ","pref":"佐賀県","city":"鳥栖市","address":"本鳥栖町"},
{"zip_code":"8410037","kana_pref":"ｻｶﾞｹﾝ","kana_city":"ﾄｽｼ","kana_address":"ﾎﾝﾏﾁ","pref":"佐賀県","city":"鳥栖市","address":"本町"},
{"zip_code":"8410065","kana_pref":"ｻｶﾞｹﾝ","kana_city":"ﾄｽｼ","kana_address":"ﾏｴﾀﾞﾏﾁ","pref":"佐賀県","city":"鳥栖市","address":"前田町"},
{"zip_code":"8410046","kana_pref":"ｻｶﾞｹﾝ","kana_city":"ﾄｽｼ","kana_address":"ﾏｷﾏﾁ","pref":"佐賀県","city":"鳥栖市","address":"真木町"},
{"zip_code":"8410027","kana_pref":"ｻｶﾞｹﾝ","kana_city":"ﾄｽｼ","kana_address":"ﾏﾂﾊﾞﾗﾏﾁ","pref":"佐賀県","city":"鳥栖市","address":"松原町"},
{"zip_code":"8410064","kana_pref":"ｻｶﾞｹﾝ","kana_city":"ﾄｽｼ","kana_address":"ﾐｼﾏﾏﾁ","pref":"佐賀県","city":"鳥栖市","address":"三島町"},
{"zip_code":"8410043","kana_pref":"ｻｶﾞｹﾝ","kana_city":"ﾄｽｼ","kana_address":"ﾐｽﾞﾔﾏﾁ","pref":"佐賀県","city":"鳥栖市","address":"水屋町"},
{"zip_code":"8410072","kana_pref":"ｻｶﾞｹﾝ","kana_city":"ﾄｽｼ","kana_address":"ﾑﾗﾀﾏﾁ","pref":"佐賀県","city":"鳥栖市","address":"村田町"},
{"zip_code":"8410051","kana_pref":"ｻｶﾞｹﾝ","kana_city":"ﾄｽｼ","kana_address":"ﾓﾄﾏﾁ","pref":"佐賀県","city":"鳥栖市","address":"元町"},
{"zip_code":"8410055","kana_pref":"ｻｶﾞｹﾝ","kana_city":"ﾄｽｼ","kana_address":"ﾔﾌﾞﾏﾁ","pref":"佐賀県","city":"鳥栖市","address":"養父町"},
{"zip_code":"8410084","kana_pref":"ｻｶﾞｹﾝ","kana_city":"ﾄｽｼ","kana_address":"ﾔﾏｳﾗﾏﾁ","pref":"佐賀県","city":"鳥栖市","address":"山浦町"},
{"zip_code":"8410085","kana_pref":"ｻｶﾞｹﾝ","kana_city":"ﾄｽｼ","kana_address":"ﾔﾏﾄﾏﾁ","pref":"佐賀県","city":"鳥栖市","address":"山都町"},
{"zip_code":"8410005","kana_pref":"ｻｶﾞｹﾝ","kana_city":"ﾄｽｼ","kana_address":"ﾔﾖｲｶﾞｵｶ","pref":"佐賀県","city":"鳥栖市","address":"弥生が丘"},
{"zip_code":"8410031","kana_pref":"ｻｶﾞｹﾝ","kana_city":"ﾄｽｼ","kana_address":"ﾔﾘﾀﾏﾁ","pref":"佐賀県","city":"鳥栖市","address":"鎗田町"},
{"zip_code":"8410002","kana_pref":"ｻｶﾞｹﾝ","kana_city":"ﾄｽｼ","kana_address":"ﾕﾋﾞﾏﾁ","pref":"佐賀県","city":"鳥栖市","address":"柚比町"},
{"zip_code":"8410200","kana_pref":"ｻｶﾞｹﾝ","kana_city":"ﾐﾔｷｸﾞﾝｷﾔﾏﾁｮｳ","kana_address":"","pref":"佐賀県","city":"三養基郡基山町","address":""},
{"zip_code":"8410205","kana_pref":"ｻｶﾞｹﾝ","kana_city":"ﾐﾔｷｸﾞﾝｷﾔﾏﾁｮｳ","kana_address":"ｹﾔｷﾀﾞｲ","pref":"佐賀県","city":"三養基郡基山町","address":"けやき台"},
{"zip_code":"8410201","kana_pref":"ｻｶﾞｹﾝ","kana_city":"ﾐﾔｷｸﾞﾝｷﾔﾏﾁｮｳ","kana_address":"ｺｸﾗ","pref":"佐賀県","city":"三養基郡基山町","address":"小倉"},
{"zip_code":"8410203","kana_pref":"ｻｶﾞｹﾝ","kana_city":"ﾐﾔｷｸﾞﾝｷﾔﾏﾁｮｳ","kana_address":"ｿﾉﾍﾞ","pref":"佐賀県","city":"三養基郡基山町","address":"園部"},
{"zip_code":"8410202","kana_pref":"ｻｶﾞｹﾝ","kana_city":"ﾐﾔｷｸﾞﾝｷﾔﾏﾁｮｳ","kana_address":"ﾅｶﾞﾉ","pref":"佐賀県","city":"三養基郡基山町","address":"長野"},
{"zip_code":"8410204","kana_pref":"ｻｶﾞｹﾝ","kana_city":"ﾐﾔｷｸﾞﾝｷﾔﾏﾁｮｳ","kana_address":"ﾐﾔｳﾗ","pref":"佐賀県","city":"三養基郡基山町","address":"宮浦"}]}