{"zip_code":[
{"zip_code":"8420302","kana_pref":"ｻｶﾞｹﾝ","kana_city":"ｻｶﾞｼ","kana_address":"ﾐﾂｾﾑﾗﾌｼﾞﾊﾞﾙ","pref":"佐賀県","city":"佐賀市","address":"三瀬村藤原"},
{"zip_code":"8420301","kana_pref":"ｻｶﾞｹﾝ","kana_city":"ｻｶﾞｼ","kana_address":"ﾐﾂｾﾑﾗﾐﾂｾ","pref":"佐賀県","city":"佐賀市","address":"三瀬村三瀬"},
{"zip_code":"8420303","kana_pref":"ｻｶﾞｹﾝ","kana_city":"ｻｶﾞｼ","kana_address":"ﾐﾂｾﾑﾗﾕｽﾞﾘﾊ","pref":"佐賀県","city":"佐賀市","address":"三瀬村杠"},
{"zip_code":"8420000","kana_pref":"ｻｶﾞｹﾝ","kana_city":"ｶﾝｻﾞｷｼ","kana_address":"","pref":"佐賀県","city":"神埼市","address":""},
{"zip_code":"8420014","kana_pref":"ｻｶﾞｹﾝ","kana_city":"ｶﾝｻﾞｷｼ","kana_address":"ｶﾝｻﾞｷﾏﾁｱﾈｶﾞﾜ","pref":"佐賀県","city":"神埼市","address":"神埼町姉川"},
{"zip_code":"8420123","kana_pref":"ｻｶﾞｹﾝ","kana_city":"ｶﾝｻﾞｷｼ","kana_address":"ｶﾝｻﾞｷﾏﾁｲｸﾜ","pref":"佐賀県","city":"神埼市","address":"神埼町的"},
{"zip_code":"8420006","kana_pref":"ｻｶﾞｹﾝ","kana_city":"ｶﾝｻﾞｷｼ","kana_address":"ｶﾝｻﾞｷﾏﾁｴﾀﾞｶﾞﾘ","pref":"佐賀県","city":"神埼市","address":"神埼町枝ケ里"},
{"zip_code":"8420015","kana_pref":"ｻｶﾞｹﾝ","kana_city":"ｶﾝｻﾞｷｼ","kana_address":"ｶﾝｻﾞｷﾏﾁｵｻｷ","pref":"佐賀県","city":"神埼市","address":"神埼町尾崎"},
{"zip_code":"8420001","kana_pref":"ｻｶﾞｹﾝ","kana_city":"ｶﾝｻﾞｷｼ","kana_address":"ｶﾝｻﾞｷﾏﾁｶﾝｻﾞｷ","pref":"佐賀県","city":"神埼市","address":"神埼町神埼"},
{"zip_code":"8420122","kana_pref":"ｻｶﾞｹﾝ","kana_city":"ｶﾝｻﾞｷｼ","kana_address":"ｶﾝｻﾞｷﾏﾁｼﾞｮｳﾊﾞﾙ","pref":"佐賀県","city":"神埼市","address":"神埼町城原"},
{"zip_code":"8420121","kana_pref":"ｻｶﾞｹﾝ","kana_city":"ｶﾝｻﾞｷｼ","kana_address":"ｶﾝｻﾞｷﾏﾁｼﾜﾔ","pref":"佐賀県","city":"神埼市","address":"神埼町志波屋"},
{"zip_code":"8420011","kana_pref":"ｻｶﾞｹﾝ","kana_city":"ｶﾝｻﾞｷｼ","kana_address":"ｶﾝｻﾞｷﾏﾁﾀｹ","pref":"佐賀県","city":"神埼市","address":"神埼町竹"},
{"zip_code":"8420002","kana_pref":"ｻｶﾞｹﾝ","kana_city":"ｶﾝｻﾞｷｼ","kana_address":"ｶﾝｻﾞｷﾏﾁﾀﾐﾁｶﾞﾘ","pref":"佐賀県","city":"神埼市","address":"神埼町田道ケ里"},
{"zip_code":"8420107","kana_pref":"ｻｶﾞｹﾝ","kana_city":"ｶﾝｻﾞｷｼ","kana_address":"ｶﾝｻﾞｷﾏﾁﾂﾙ","pref":"佐賀県","city":"神埼市","address":"神埼町鶴"},
{"zip_code":"8420007","kana_pref":"ｻｶﾞｹﾝ","kana_city":"ｶﾝｻﾞｷｼ","kana_address":"ｶﾝｻﾞｷﾏﾁﾂﾙ","pref":"佐賀県","city":"神埼市","address":"神埼町鶴"},
{"zip_code":"8420004","kana_pref":"ｻｶﾞｹﾝ","kana_city":"ｶﾝｻﾞｷｼ","kana_address":"ｶﾝｻﾞｷﾏﾁﾅｶﾞｳﾀ","pref":"佐賀県","city":"神埼市","address":"神埼町永歌"},
{"zip_code":"8420005","kana_pref":"ｻｶﾞｹﾝ","kana_city":"ｶﾝｻﾞｷｼ","kana_address":"ｶﾝｻﾞｷﾏﾁﾆｼｵﾂﾞｶﾞﾘ","pref":"佐賀県","city":"神埼市","address":"神埼町西小津ケ里"},
{"zip_code":"8420013","kana_pref":"ｻｶﾞｹﾝ","kana_city":"ｶﾝｻﾞｷｼ","kana_address":"ｶﾝｻﾞｷﾏﾁﾓﾄｵﾘﾑﾀ","pref":"佐賀県","city":"神埼市","address":"神埼町本告牟田"},
{"zip_code":"8420003","kana_pref":"ｻｶﾞｹﾝ","kana_city":"ｶﾝｻﾞｷｼ","kana_address":"ｶﾝｻﾞｷﾏﾁﾓﾄﾎﾘ","pref":"佐賀県","city":"神埼市","address":"神埼町本堀"},
{"zip_code":"8420012","kana_pref":"ｻｶﾞｹﾝ","kana_city":"ｶﾝｻﾞｷｼ","kana_address":"ｶﾝｻﾞｷﾏﾁﾖｺﾀｹ","pref":"佐賀県","city":"神埼市","address":"神埼町横武"},
{"zip_code":"8420203","kana_pref":"ｻｶﾞｹﾝ","kana_city":"ｶﾝｻﾞｷｼ","kana_address":"ｾﾌﾘﾏﾁﾊﾗﾏｷ","pref":"佐賀県","city":"神埼市","address":"脊振町服巻"},
{"zip_code":"8420201","kana_pref":"ｻｶﾞｹﾝ","kana_city":"ｶﾝｻﾞｷｼ","kana_address":"ｾﾌﾘﾏﾁﾋﾛﾀｷ","pref":"佐賀県","city":"神埼市","address":"脊振町広滝"},
{"zip_code":"8420202","kana_pref":"ｻｶﾞｹﾝ","kana_city":"ｶﾝｻﾞｷｼ","kana_address":"ｾﾌﾘﾏﾁﾛｸﾛ","pref":"佐賀県","city":"神埼市","address":"脊振町鹿路"},
{"zip_code":"8420052","kana_pref":"ｻｶﾞｹﾝ","kana_city":"ｶﾝｻﾞｷｼ","kana_address":"ﾁﾖﾀﾞﾁｮｳｱﾈ","pref":"佐賀県","city":"神埼市","address":"千代田町姉"},
{"zip_code":"8420054","kana_pref":"ｻｶﾞｹﾝ","kana_city":"ｶﾝｻﾞｷｼ","kana_address":"ﾁﾖﾀﾞﾁｮｳｱﾏﾘｴ","pref":"佐賀県","city":"神埼市","address":"千代田町餘江"},
{"zip_code":"8420067","kana_pref":"ｻｶﾞｹﾝ","kana_city":"ｶﾝｻﾞｷｼ","kana_address":"ﾁﾖﾀﾞﾁｮｳｶﾉｳ","pref":"佐賀県","city":"神埼市","address":"千代田町嘉納"},
{"zip_code":"8420051","kana_pref":"ｻｶﾞｹﾝ","kana_city":"ｶﾝｻﾞｷｼ","kana_address":"ﾁﾖﾀﾞﾁｮｳｸﾛｲ","pref":"佐賀県","city":"神埼市","address":"千代田町黒井"},
{"zip_code":"8420056","kana_pref":"ｻｶﾞｹﾝ","kana_city":"ｶﾝｻﾞｷｼ","kana_address":"ﾁﾖﾀﾞﾁｮｳｻｶｲﾊﾞﾙ","pref":"佐賀県","city":"神埼市","address":"千代田町境原"},
{"zip_code":"8420065","kana_pref":"ｻｶﾞｹﾝ","kana_city":"ｶﾝｻﾞｷｼ","kana_address":"ﾁﾖﾀﾞﾁｮｳｻｷﾑﾗ","pref":"佐賀県","city":"神埼市","address":"千代田町崎村"},
{"zip_code":"8420068","kana_pref":"ｻｶﾞｹﾝ","kana_city":"ｶﾝｻﾞｷｼ","kana_address":"ﾁﾖﾀﾞﾁｮｳｼﾓｲﾀ","pref":"佐賀県","city":"神埼市","address":"千代田町下板"},
{"zip_code":"8420055","kana_pref":"ｻｶﾞｹﾝ","kana_city":"ｶﾝｻﾞｷｼ","kana_address":"ﾁﾖﾀﾞﾁｮｳｼﾓｻｲ","pref":"佐賀県","city":"神埼市","address":"千代田町下西"},
{"zip_code":"8420061","kana_pref":"ｻｶﾞｹﾝ","kana_city":"ｶﾝｻﾞｷｼ","kana_address":"ﾁﾖﾀﾞﾁｮｳﾀｸﾀ","pref":"佐賀県","city":"神埼市","address":"千代田町詫田"},
{"zip_code":"8420053","kana_pref":"ｻｶﾞｹﾝ","kana_city":"ｶﾝｻﾞｷｼ","kana_address":"ﾁﾖﾀﾞﾁｮｳﾅｵﾄﾘ","pref":"佐賀県","city":"神埼市","address":"千代田町直鳥"},
{"zip_code":"8420063","kana_pref":"ｻｶﾞｹﾝ","kana_city":"ｶﾝｻﾞｷｼ","kana_address":"ﾁﾖﾀﾞﾁｮｳﾑｶｲｼﾏ","pref":"佐賀県","city":"神埼市","address":"千代田町迎島"},
{"zip_code":"8420062","kana_pref":"ｻｶﾞｹﾝ","kana_city":"ｶﾝｻﾞｷｼ","kana_address":"ﾁﾖﾀﾞﾁｮｳﾔﾅｷﾞｼﾏ","pref":"佐賀県","city":"神埼市","address":"千代田町柳島"},
{"zip_code":"8420066","kana_pref":"ｻｶﾞｹﾝ","kana_city":"ｶﾝｻﾞｷｼ","kana_address":"ﾁﾖﾀﾞﾁｮｳﾖｳｻｸ","pref":"佐賀県","city":"神埼市","address":"千代田町用作"},
{"zip_code":"8420064","kana_pref":"ｻｶﾞｹﾝ","kana_city":"ｶﾝｻﾞｷｼ","kana_address":"ﾁﾖﾀﾞﾁｮｳﾜﾀｾﾞ","pref":"佐賀県","city":"神埼市","address":"千代田町渡瀬"},
{"zip_code":"8420000","kana_pref":"ｻｶﾞｹﾝ","kana_city":"ｶﾝｻﾞｷｸﾞﾝﾖｼﾉｶﾞﾘﾁｮｳ","kana_address":"","pref":"佐賀県","city":"神埼郡吉野ヶ里町","address":""},
{"zip_code":"8420102","kana_pref":"ｻｶﾞｹﾝ","kana_city":"ｶﾝｻﾞｷｸﾞﾝﾖｼﾉｶﾞﾘﾁｮｳ","kana_address":"ｲｼﾅﾘ","pref":"佐賀県","city":"神埼郡吉野ヶ里町","address":"石動"},
{"zip_code":"8420103","kana_pref":"ｻｶﾞｹﾝ","kana_city":"ｶﾝｻﾞｷｸﾞﾝﾖｼﾉｶﾞﾘﾁｮｳ","kana_address":"ｵｵﾏｶﾞﾘ","pref":"佐賀県","city":"神埼郡吉野ヶ里町","address":"大曲"},
{"zip_code":"8420035","kana_pref":"ｻｶﾞｹﾝ","kana_city":"ｶﾝｻﾞｷｸﾞﾝﾖｼﾉｶﾞﾘﾁｮｳ","kana_address":"ﾀﾃﾞ","pref":"佐賀県","city":"神埼郡吉野ヶ里町","address":"田手"},
{"zip_code":"8420032","kana_pref":"ｻｶﾞｹﾝ","kana_city":"ｶﾝｻﾞｷｸﾞﾝﾖｼﾉｶﾞﾘﾁｮｳ","kana_address":"ﾀﾃﾉ","pref":"佐賀県","city":"神埼郡吉野ヶ里町","address":"立野"},
{"zip_code":"8420034","kana_pref":"ｻｶﾞｹﾝ","kana_city":"ｶﾝｻﾞｷｸﾞﾝﾖｼﾉｶﾞﾘﾁｮｳ","kana_address":"ﾊｺｶﾞﾜ","pref":"佐賀県","city":"神埼郡吉野ヶ里町","address":"箱川"},
{"zip_code":"8420101","kana_pref":"ｻｶﾞｹﾝ","kana_city":"ｶﾝｻﾞｷｸﾞﾝﾖｼﾉｶﾞﾘﾁｮｳ","kana_address":"ﾏﾂｸﾞﾏ","pref":"佐賀県","city":"神埼郡吉野ヶ里町","address":"松隈"},
{"zip_code":"8420033","kana_pref":"ｻｶﾞｹﾝ","kana_city":"ｶﾝｻﾞｷｸﾞﾝﾖｼﾉｶﾞﾘﾁｮｳ","kana_address":"ﾏﾒﾀﾞ","pref":"佐賀県","city":"神埼郡吉野ヶ里町","address":"豆田"},
{"zip_code":"8420104","kana_pref":"ｻｶﾞｹﾝ","kana_city":"ｶﾝｻﾞｷｸﾞﾝﾖｼﾉｶﾞﾘﾁｮｳ","kana_address":"ﾐﾂ","pref":"佐賀県","city":"神埼郡吉野ヶ里町","address":"三津"},
{"zip_code":"8420031","kana_pref":"ｻｶﾞｹﾝ","kana_city":"ｶﾝｻﾞｷｸﾞﾝﾖｼﾉｶﾞﾘﾁｮｳ","kana_address":"ﾖｼﾀﾞ","pref":"佐賀県","city":"神埼郡吉野ヶ里町","address":"吉田"}]}