{"zip_code":[
{"zip_code":"8430000","kana_pref":"ｻｶﾞｹﾝ","kana_city":"ﾀｹｵｼ","kana_address":"","pref":"佐賀県","city":"武雄市","address":""},
{"zip_code":"8430003","kana_pref":"ｻｶﾞｹﾝ","kana_city":"ﾀｹｵｼ","kana_address":"ｱｻﾋﾁｮｳｱｼﾊﾗ","pref":"佐賀県","city":"武雄市","address":"朝日町芦原"},
{"zip_code":"8430001","kana_pref":"ｻｶﾞｹﾝ","kana_city":"ﾀｹｵｼ","kana_address":"ｱｻﾋﾁｮｳｱﾏｸﾞ","pref":"佐賀県","city":"武雄市","address":"朝日町甘久"},
{"zip_code":"8430002","kana_pref":"ｻｶﾞｹﾝ","kana_city":"ﾀｹｵｼ","kana_address":"ｱｻﾋﾁｮｳﾅｶﾉ","pref":"佐賀県","city":"武雄市","address":"朝日町中野"},
{"zip_code":"8430023","kana_pref":"ｻｶﾞｹﾝ","kana_city":"ﾀｹｵｼ","kana_address":"ﾀｹｵﾁｮｳｼｮｳﾜ","pref":"佐賀県","city":"武雄市","address":"武雄町昭和"},
{"zip_code":"8430022","kana_pref":"ｻｶﾞｹﾝ","kana_city":"ﾀｹｵｼ","kana_address":"ﾀｹｵﾁｮｳﾀｹｵ","pref":"佐賀県","city":"武雄市","address":"武雄町武雄"},
{"zip_code":"8430024","kana_pref":"ｻｶﾞｹﾝ","kana_city":"ﾀｹｵｼ","kana_address":"ﾀｹｵﾁｮｳﾄﾐｵｶ","pref":"佐賀県","city":"武雄市","address":"武雄町富岡"},
{"zip_code":"8430021","kana_pref":"ｻｶﾞｹﾝ","kana_city":"ﾀｹｵｼ","kana_address":"ﾀｹｵﾁｮｳﾅｶﾞｼﾏ","pref":"佐賀県","city":"武雄市","address":"武雄町永島"},
{"zip_code":"8430011","kana_pref":"ｻｶﾞｹﾝ","kana_city":"ﾀｹｵｼ","kana_address":"ﾀﾁﾊﾞﾅﾁｮｳｱｼﾊﾗ","pref":"佐賀県","city":"武雄市","address":"橘町芦原"},
{"zip_code":"8430012","kana_pref":"ｻｶﾞｹﾝ","kana_city":"ﾀｹｵｼ","kana_address":"ﾀﾁﾊﾞﾅﾁｮｳｶﾀｼﾞﾛ","pref":"佐賀県","city":"武雄市","address":"橘町片白"},
{"zip_code":"8430013","kana_pref":"ｻｶﾞｹﾝ","kana_city":"ﾀｹｵｼ","kana_address":"ﾀﾁﾊﾞﾅﾁｮｳﾀﾞｲﾆﾁ","pref":"佐賀県","city":"武雄市","address":"橘町大日"},
{"zip_code":"8430014","kana_pref":"ｻｶﾞｹﾝ","kana_city":"ﾀｹｵｼ","kana_address":"ﾀﾁﾊﾞﾅﾁｮｳﾅｶﾞｼﾏ","pref":"佐賀県","city":"武雄市","address":"橘町永島"},
{"zip_code":"8430231","kana_pref":"ｻｶﾞｹﾝ","kana_city":"ﾀｹｵｼ","kana_address":"ﾆｼｶﾜﾉﾎﾞﾘﾁｮｳｺﾀｼﾞ","pref":"佐賀県","city":"武雄市","address":"西川登町小田志"},
{"zip_code":"8430232","kana_pref":"ｻｶﾞｹﾝ","kana_city":"ﾀｹｵｼ","kana_address":"ﾆｼｶﾜﾉﾎﾞﾘﾁｮｳｼﾞﾝﾛｸ","pref":"佐賀県","city":"武雄市","address":"西川登町神六"},
{"zip_code":"8430233","kana_pref":"ｻｶﾞｹﾝ","kana_city":"ﾀｹｵｼ","kana_address":"ﾋｶﾞｼｶﾜﾉﾎﾞﾘﾁｮｳﾅｶﾞﾉ","pref":"佐賀県","city":"武雄市","address":"東川登町永野"},
{"zip_code":"8430234","kana_pref":"ｻｶﾞｹﾝ","kana_city":"ﾀｹｵｼ","kana_address":"ﾋｶﾞｼｶﾜﾉﾎﾞﾘﾁｮｳﾊｶﾏﾉ","pref":"佐賀県","city":"武雄市","address":"東川登町袴野"},
{"zip_code":"8430151","kana_pref":"ｻｶﾞｹﾝ","kana_city":"ﾀｹｵｼ","kana_address":"ﾜｶｷﾁｮｳｶﾜｺﾞ","pref":"佐賀県","city":"武雄市","address":"若木町川古"},
{"zip_code":"8430152","kana_pref":"ｻｶﾞｹﾝ","kana_city":"ﾀｹｵｼ","kana_address":"ﾜｶｷﾁｮｳﾓﾄﾍﾞ","pref":"佐賀県","city":"武雄市","address":"若木町本部"},
{"zip_code":"8430153","kana_pref":"ｻｶﾞｹﾝ","kana_city":"ﾀｹｵｼ","kana_address":"ﾜｶｷﾁｮｳﾓﾓﾉｶﾜ","pref":"佐賀県","city":"武雄市","address":"若木町桃川"},
{"zip_code":"8430300","kana_pref":"ｻｶﾞｹﾝ","kana_city":"ｳﾚｼﾉｼ","kana_address":"","pref":"佐賀県","city":"嬉野市","address":""},
{"zip_code":"8430304","kana_pref":"ｻｶﾞｹﾝ","kana_city":"ｳﾚｼﾉｼ","kana_address":"ｳﾚｼﾉﾏﾁｲﾜﾔｶﾞﾜﾁ","pref":"佐賀県","city":"嬉野市","address":"嬉野町岩屋川内"},
{"zip_code":"8430301","kana_pref":"ｻｶﾞｹﾝ","kana_city":"ｳﾚｼﾉｼ","kana_address":"ｳﾚｼﾉﾏﾁｼﾓｼﾞｭｸ","pref":"佐賀県","city":"嬉野市","address":"嬉野町下宿"},
{"zip_code":"8430302","kana_pref":"ｻｶﾞｹﾝ","kana_city":"ｳﾚｼﾉｼ","kana_address":"ｳﾚｼﾉﾏﾁｼﾓﾉ","pref":"佐賀県","city":"嬉野市","address":"嬉野町下野"},
{"zip_code":"8430305","kana_pref":"ｻｶﾞｹﾝ","kana_city":"ｳﾚｼﾉｼ","kana_address":"ｳﾚｼﾉﾏﾁﾌﾄﾞｳﾔﾏ","pref":"佐賀県","city":"嬉野市","address":"嬉野町不動山"},
{"zip_code":"8430303","kana_pref":"ｻｶﾞｹﾝ","kana_city":"ｳﾚｼﾉｼ","kana_address":"ｳﾚｼﾉﾏﾁﾖｼﾀﾞ","pref":"佐賀県","city":"嬉野市","address":"嬉野町吉田"}]}