{"zip_code":[
{"zip_code":"8440000","kana_pref":"ｻｶﾞｹﾝ","kana_city":"ﾆｼﾏﾂｳﾗｸﾞﾝｱﾘﾀﾁｮｳ","kana_address":"","pref":"佐賀県","city":"西松浦郡有田町","address":""},
{"zip_code":"8440006","kana_pref":"ｻｶﾞｹﾝ","kana_city":"ﾆｼﾏﾂｳﾗｸﾞﾝｱﾘﾀﾁｮｳ","kana_address":"ｱｶｴﾏﾁ","pref":"佐賀県","city":"西松浦郡有田町","address":"赤絵町"},
{"zip_code":"8440024","kana_pref":"ｻｶﾞｹﾝ","kana_city":"ﾆｼﾏﾂｳﾗｸﾞﾝｱﾘﾀﾁｮｳ","kana_address":"ｱｶｻｶ","pref":"佐賀県","city":"西松浦郡有田町","address":"赤坂"},
{"zip_code":"8440001","kana_pref":"ｻｶﾞｹﾝ","kana_city":"ﾆｼﾏﾂｳﾗｸﾞﾝｱﾘﾀﾁｮｳ","kana_address":"ｲｽﾞﾐﾔﾏ","pref":"佐賀県","city":"西松浦郡有田町","address":"泉山"},
{"zip_code":"8440011","kana_pref":"ｻｶﾞｹﾝ","kana_city":"ﾆｼﾏﾂｳﾗｸﾞﾝｱﾘﾀﾁｮｳ","kana_address":"ｲﾜﾀﾆｶﾞﾜﾁ","pref":"佐賀県","city":"西松浦郡有田町","address":"岩谷川内"},
{"zip_code":"8440021","kana_pref":"ｻｶﾞｹﾝ","kana_city":"ﾆｼﾏﾂｳﾗｸﾞﾝｱﾘﾀﾁｮｳ","kana_address":"ｵｳﾎﾞｳ","pref":"佐賀県","city":"西松浦郡有田町","address":"応法"},
{"zip_code":"8440004","kana_pref":"ｻｶﾞｹﾝ","kana_city":"ﾆｼﾏﾂｳﾗｸﾞﾝｱﾘﾀﾁｮｳ","kana_address":"ｵｵﾀﾞﾙ","pref":"佐賀県","city":"西松浦郡有田町","address":"大樽"},
{"zip_code":"8440013","kana_pref":"ｻｶﾞｹﾝ","kana_city":"ﾆｼﾏﾂｳﾗｸﾞﾝｱﾘﾀﾁｮｳ","kana_address":"ｵｵﾉ","pref":"佐賀県","city":"西松浦郡有田町","address":"大野"},
{"zip_code":"8440003","kana_pref":"ｻｶﾞｹﾝ","kana_city":"ﾆｼﾏﾂｳﾗｸﾞﾝｱﾘﾀﾁｮｳ","kana_address":"ｶﾐｺｳﾋﾗ","pref":"佐賀県","city":"西松浦郡有田町","address":"上幸平"},
{"zip_code":"8440022","kana_pref":"ｻｶﾞｹﾝ","kana_city":"ﾆｼﾏﾂｳﾗｸﾞﾝｱﾘﾀﾁｮｳ","kana_address":"ｸﾛﾑﾀ","pref":"佐賀県","city":"西松浦郡有田町","address":"黒牟田"},
{"zip_code":"8440012","kana_pref":"ｻｶﾞｹﾝ","kana_city":"ﾆｼﾏﾂｳﾗｸﾞﾝｱﾘﾀﾁｮｳ","kana_address":"ｸﾜｺﾊﾞ","pref":"佐賀県","city":"西松浦郡有田町","address":"桑古場"},
{"zip_code":"8440005","kana_pref":"ｻｶﾞｹﾝ","kana_city":"ﾆｼﾏﾂｳﾗｸﾞﾝｱﾘﾀﾁｮｳ","kana_address":"ｺｳﾋﾞﾗ","pref":"佐賀県","city":"西松浦郡有田町","address":"幸平"},
{"zip_code":"8440016","kana_pref":"ｻｶﾞｹﾝ","kana_city":"ﾆｼﾏﾂｳﾗｸﾞﾝｱﾘﾀﾁｮｳ","kana_address":"ｻｶｲﾉ","pref":"佐賀県","city":"西松浦郡有田町","address":"境野"},
{"zip_code":"8440007","kana_pref":"ｻｶﾞｹﾝ","kana_city":"ﾆｼﾏﾂｳﾗｸﾞﾝｱﾘﾀﾁｮｳ","kana_address":"ｼﾗｶﾜ","pref":"佐賀県","city":"西松浦郡有田町","address":"白川"},
{"zip_code":"8440017","kana_pref":"ｻｶﾞｹﾝ","kana_city":"ﾆｼﾏﾂｳﾗｸﾞﾝｱﾘﾀﾁｮｳ","kana_address":"ﾄｼｬｸ","pref":"佐賀県","city":"西松浦郡有田町","address":"戸杓"},
{"zip_code":"8440014","kana_pref":"ｻｶﾞｹﾝ","kana_city":"ﾆｼﾏﾂｳﾗｸﾞﾝｱﾘﾀﾁｮｳ","kana_address":"ﾄﾔ","pref":"佐賀県","city":"西松浦郡有田町","address":"戸矢"},
{"zip_code":"8440002","kana_pref":"ｻｶﾞｹﾝ","kana_city":"ﾆｼﾏﾂｳﾗｸﾞﾝｱﾘﾀﾁｮｳ","kana_address":"ﾅｶﾀﾞﾙ","pref":"佐賀県","city":"西松浦郡有田町","address":"中樽"},
{"zip_code":"8440009","kana_pref":"ｻｶﾞｹﾝ","kana_city":"ﾆｼﾏﾂｳﾗｸﾞﾝｱﾘﾀﾁｮｳ","kana_address":"ﾅｶﾉﾊﾗ","pref":"佐賀県","city":"西松浦郡有田町","address":"中の原"},
{"zip_code":"8440028","kana_pref":"ｻｶﾞｹﾝ","kana_city":"ﾆｼﾏﾂｳﾗｸﾞﾝｱﾘﾀﾁｮｳ","kana_address":"ﾅﾝｻﾞﾝ","pref":"佐賀県","city":"西松浦郡有田町","address":"南山"},
{"zip_code":"8440027","kana_pref":"ｻｶﾞｹﾝ","kana_city":"ﾆｼﾏﾂｳﾗｸﾞﾝｱﾘﾀﾁｮｳ","kana_address":"ﾅﾝﾊﾞﾙ","pref":"佐賀県","city":"西松浦郡有田町","address":"南原"},
{"zip_code":"8440008","kana_pref":"ｻｶﾞｹﾝ","kana_city":"ﾆｼﾏﾂｳﾗｸﾞﾝｱﾘﾀﾁｮｳ","kana_address":"ﾋｴｺﾊﾞ","pref":"佐賀県","city":"西松浦郡有田町","address":"稗古場"},
{"zip_code":"8440015","kana_pref":"ｻｶﾞｹﾝ","kana_city":"ﾆｼﾏﾂｳﾗｸﾞﾝｱﾘﾀﾁｮｳ","kana_address":"ﾌﾙｺﾊﾞ","pref":"佐賀県","city":"西松浦郡有田町","address":"古木場"},
{"zip_code":"8440026","kana_pref":"ｻｶﾞｹﾝ","kana_city":"ﾆｼﾏﾂｳﾗｸﾞﾝｱﾘﾀﾁｮｳ","kana_address":"ﾎｶｵﾏﾁ","pref":"佐賀県","city":"西松浦郡有田町","address":"外尾町"},
{"zip_code":"8440025","kana_pref":"ｻｶﾞｹﾝ","kana_city":"ﾆｼﾏﾂｳﾗｸﾞﾝｱﾘﾀﾁｮｳ","kana_address":"ﾎｶｵﾔﾏ","pref":"佐賀県","city":"西松浦郡有田町","address":"外尾山"},
{"zip_code":"8440018","kana_pref":"ｻｶﾞｹﾝ","kana_city":"ﾆｼﾏﾂｳﾗｸﾞﾝｱﾘﾀﾁｮｳ","kana_address":"ﾎﾝﾏﾁ","pref":"佐賀県","city":"西松浦郡有田町","address":"本町"},
{"zip_code":"8440023","kana_pref":"ｻｶﾞｹﾝ","kana_city":"ﾆｼﾏﾂｳﾗｸﾞﾝｱﾘﾀﾁｮｳ","kana_address":"ﾏﾙｵ","pref":"佐賀県","city":"西松浦郡有田町","address":"丸尾"}]}