{"zip_code":[
{"zip_code":"8450000","kana_pref":"ｻｶﾞｹﾝ","kana_city":"ｵｷﾞｼ","kana_address":"","pref":"佐賀県","city":"小城市","address":""},
{"zip_code":"8450001","kana_pref":"ｻｶﾞｹﾝ","kana_city":"ｵｷﾞｼ","kana_address":"ｵｷﾞﾏﾁ","pref":"佐賀県","city":"小城市","address":"小城町"},
{"zip_code":"8450012","kana_pref":"ｻｶﾞｹﾝ","kana_city":"ｵｷﾞｼ","kana_address":"ｵｷﾞﾏﾁｲｹﾉｳｴ","pref":"佐賀県","city":"小城市","address":"小城町池上"},
{"zip_code":"8450003","kana_pref":"ｻｶﾞｹﾝ","kana_city":"ｵｷﾞｼ","kana_address":"ｵｷﾞﾏﾁｲﾜｸﾗ","pref":"佐賀県","city":"小城市","address":"小城町岩蔵"},
{"zip_code":"8450013","kana_pref":"ｻｶﾞｹﾝ","kana_city":"ｵｷﾞｼ","kana_address":"ｵｷﾞﾏﾁｸﾘﾊﾗ","pref":"佐賀県","city":"小城市","address":"小城町栗原"},
{"zip_code":"8450002","kana_pref":"ｻｶﾞｹﾝ","kana_city":"ｵｷﾞｼ","kana_address":"ｵｷﾞﾏﾁﾊﾀｹﾀﾞ","pref":"佐賀県","city":"小城市","address":"小城町畑田"},
{"zip_code":"8450014","kana_pref":"ｻｶﾞｹﾝ","kana_city":"ｵｷﾞｼ","kana_address":"ｵｷﾞﾏﾁﾊﾙｹ","pref":"佐賀県","city":"小城市","address":"小城町晴気"},
{"zip_code":"8450005","kana_pref":"ｻｶﾞｹﾝ","kana_city":"ｵｷﾞｼ","kana_address":"ｵｷﾞﾏﾁﾋｶﾞｼｼﾝﾏﾁ","pref":"佐賀県","city":"小城市","address":"小城町東新町"},
{"zip_code":"8450011","kana_pref":"ｻｶﾞｹﾝ","kana_city":"ｵｷﾞｼ","kana_address":"ｵｷﾞﾏﾁﾌﾅﾀﾞ","pref":"佐賀県","city":"小城市","address":"小城町船田"},
{"zip_code":"8450004","kana_pref":"ｻｶﾞｹﾝ","kana_city":"ｵｷﾞｼ","kana_address":"ｵｷﾞﾏﾁﾏﾂｵ","pref":"佐賀県","city":"小城市","address":"小城町松尾"},
{"zip_code":"8450035","kana_pref":"ｻｶﾞｹﾝ","kana_city":"ｵｷﾞｼ","kana_address":"ﾐｶﾂｷﾁｮｳｲｼｷ","pref":"佐賀県","city":"小城市","address":"三日月町石木"},
{"zip_code":"8450023","kana_pref":"ｻｶﾞｹﾝ","kana_city":"ｵｷﾞｼ","kana_address":"ﾐｶﾂｷﾁｮｳｵﾘｼﾏ","pref":"佐賀県","city":"小城市","address":"三日月町織島"},
{"zip_code":"8450032","kana_pref":"ｻｶﾞｹﾝ","kana_city":"ｵｷﾞｼ","kana_address":"ﾐｶﾂｷﾁｮｳｶﾅﾀﾞ","pref":"佐賀県","city":"小城市","address":"三日月町金田"},
{"zip_code":"8450022","kana_pref":"ｻｶﾞｹﾝ","kana_city":"ｵｷﾞｼ","kana_address":"ﾐｶﾂｷﾁｮｳｸﾒ","pref":"佐賀県","city":"小城市","address":"三日月町久米"},
{"zip_code":"8450034","kana_pref":"ｻｶﾞｹﾝ","kana_city":"ｵｷﾞｼ","kana_address":"ﾐｶﾂｷﾁｮｳｺｳﾔﾅｷﾞﾊﾗ","pref":"佐賀県","city":"小城市","address":"三日月町甲柳原"},
{"zip_code":"8450021","kana_pref":"ｻｶﾞｹﾝ","kana_city":"ｵｷﾞｼ","kana_address":"ﾐｶﾂｷﾁｮｳﾁｮｳｶﾝﾀﾞ","pref":"佐賀県","city":"小城市","address":"三日月町長神田"},
{"zip_code":"8450033","kana_pref":"ｻｶﾞｹﾝ","kana_city":"ｵｷﾞｼ","kana_address":"ﾐｶﾂｷﾁｮｳﾋｸﾞﾁ","pref":"佐賀県","city":"小城市","address":"三日月町樋口"},
{"zip_code":"8450031","kana_pref":"ｻｶﾞｹﾝ","kana_city":"ｵｷﾞｼ","kana_address":"ﾐｶﾂｷﾁｮｳﾎﾘｴ","pref":"佐賀県","city":"小城市","address":"三日月町堀江"},
{"zip_code":"8450025","kana_pref":"ｻｶﾞｹﾝ","kana_city":"ｵｷﾞｼ","kana_address":"ﾐｶﾂｷﾁｮｳﾐｶｼﾏ","pref":"佐賀県","city":"小城市","address":"三日月町三ケ島"},
{"zip_code":"8450024","kana_pref":"ｻｶﾞｹﾝ","kana_city":"ｵｷﾞｼ","kana_address":"ﾐｶﾂｷﾁｮｳﾐﾁﾍﾞ","pref":"佐賀県","city":"小城市","address":"三日月町道辺"}]}