{"zip_code":[
{"zip_code":"8460000","kana_pref":"ｻｶﾞｹﾝ","kana_city":"ﾀｸｼ","kana_address":"","pref":"佐賀県","city":"多久市","address":""},
{"zip_code":"8460001","kana_pref":"ｻｶﾞｹﾝ","kana_city":"ﾀｸｼ","kana_address":"ｷﾀﾀｸﾏﾁ","pref":"佐賀県","city":"多久市","address":"北多久町"},
{"zip_code":"8460006","kana_pref":"ｻｶﾞｹﾝ","kana_city":"ﾀｸｼ","kana_address":"ｷﾀﾀｸﾏﾁｱｻﾞﾐﾊﾞﾙ","pref":"佐賀県","city":"多久市","address":"北多久町莇原"},
{"zip_code":"8460002","kana_pref":"ｻｶﾞｹﾝ","kana_city":"ﾀｸｼ","kana_address":"ｷﾀﾀｸﾏﾁｺｻﾑﾗｲ","pref":"佐賀県","city":"多久市","address":"北多久町小侍"},
{"zip_code":"8460005","kana_pref":"ｻｶﾞｹﾝ","kana_city":"ﾀｸｼ","kana_address":"ｷﾀﾀｸﾏﾁｽﾅﾊﾗ","pref":"佐賀県","city":"多久市","address":"北多久町砂原"},
{"zip_code":"8460003","kana_pref":"ｻｶﾞｹﾝ","kana_city":"ﾀｸｼ","kana_address":"ｷﾀﾀｸﾏﾁﾀｸﾊﾞﾙ","pref":"佐賀県","city":"多久市","address":"北多久町多久原"},
{"zip_code":"8460004","kana_pref":"ｻｶﾞｹﾝ","kana_city":"ﾀｸｼ","kana_address":"ｷﾀﾀｸﾏﾁﾅｶﾀｸ","pref":"佐賀県","city":"多久市","address":"北多久町中多久"},
{"zip_code":"8460007","kana_pref":"ｻｶﾞｹﾝ","kana_city":"ﾀｸｼ","kana_address":"ｷﾀﾀｸﾏﾁﾒｲﾌﾟﾙﾀｳﾝ","pref":"佐賀県","city":"多久市","address":"北多久町メイプルタウン"},
{"zip_code":"8460031","kana_pref":"ｻｶﾞｹﾝ","kana_city":"ﾀｸｼ","kana_address":"ﾀｸﾏﾁ","pref":"佐賀県","city":"多久市","address":"多久町"},
{"zip_code":"8460041","kana_pref":"ｻｶﾞｹﾝ","kana_city":"ﾀｸｼ","kana_address":"ﾆｼﾀｸﾏﾁ","pref":"佐賀県","city":"多久市","address":"西多久町"},
{"zip_code":"8460011","kana_pref":"ｻｶﾞｹﾝ","kana_city":"ﾀｸｼ","kana_address":"ﾋｶﾞｼﾀｸﾏﾁ","pref":"佐賀県","city":"多久市","address":"東多久町"},
{"zip_code":"8460013","kana_pref":"ｻｶﾞｹﾝ","kana_city":"ﾀｸｼ","kana_address":"ﾋｶﾞｼﾀｸﾏﾁｺｶﾞ","pref":"佐賀県","city":"多久市","address":"東多久町古賀"},
{"zip_code":"8460014","kana_pref":"ｻｶﾞｹﾝ","kana_city":"ﾀｸｼ","kana_address":"ﾋｶﾞｼﾀｸﾏﾁﾉｳｿ","pref":"佐賀県","city":"多久市","address":"東多久町納所"},
{"zip_code":"8460012","kana_pref":"ｻｶﾞｹﾝ","kana_city":"ﾀｸｼ","kana_address":"ﾋｶﾞｼﾀｸﾏﾁﾍﾞﾌ","pref":"佐賀県","city":"多久市","address":"東多久町別府"},
{"zip_code":"8460021","kana_pref":"ｻｶﾞｹﾝ","kana_city":"ﾀｸｼ","kana_address":"ﾐﾅﾐﾀｸﾏﾁ","pref":"佐賀県","city":"多久市","address":"南多久町"},
{"zip_code":"8460022","kana_pref":"ｻｶﾞｹﾝ","kana_city":"ﾀｸｼ","kana_address":"ﾐﾅﾐﾀｸﾏﾁｲｽﾞﾐﾏﾁ","pref":"佐賀県","city":"多久市","address":"南多久町泉町"},
{"zip_code":"8460024","kana_pref":"ｻｶﾞｹﾝ","kana_city":"ﾀｸｼ","kana_address":"ﾐﾅﾐﾀｸﾏﾁｼﾓﾀｸ","pref":"佐賀県","city":"多久市","address":"南多久町下多久"},
{"zip_code":"8460023","kana_pref":"ｻｶﾞｹﾝ","kana_city":"ﾀｸｼ","kana_address":"ﾐﾅﾐﾀｸﾏﾁﾅｶﾞｵ","pref":"佐賀県","city":"多久市","address":"南多久町長尾"},
{"zip_code":"8460025","kana_pref":"ｻｶﾞｹﾝ","kana_city":"ﾀｸｼ","kana_address":"ﾐﾅﾐﾀｸﾏﾁﾊﾅﾏﾂﾘ","pref":"佐賀県","city":"多久市","address":"南多久町花祭"}]}