{"zip_code":[
{"zip_code":"8480000","kana_pref":"ｻｶﾞｹﾝ","kana_city":"ｲﾏﾘｼ","kana_address":"","pref":"佐賀県","city":"伊万里市","address":""},
{"zip_code":"8480047","kana_pref":"ｻｶﾞｹﾝ","kana_city":"ｲﾏﾘｼ","kana_address":"ｲﾏﾘﾁｮｳｺｳ","pref":"佐賀県","city":"伊万里市","address":"伊万里町甲"},
{"zip_code":"8480046","kana_pref":"ｻｶﾞｹﾝ","kana_city":"ｲﾏﾘｼ","kana_address":"ｲﾏﾘﾁｮｳｵﾂ","pref":"佐賀県","city":"伊万里市","address":"伊万里町乙"},
{"zip_code":"8480024","kana_pref":"ｻｶﾞｹﾝ","kana_city":"ｲﾏﾘｼ","kana_address":"ｵｵｶﾜﾁﾁｮｳｺｳ","pref":"佐賀県","city":"伊万里市","address":"大川内町甲"},
{"zip_code":"8480025","kana_pref":"ｻｶﾞｹﾝ","kana_city":"ｲﾏﾘｼ","kana_address":"ｵｵｶﾜﾁﾁｮｳｵﾂ","pref":"佐賀県","city":"伊万里市","address":"大川内町乙"},
{"zip_code":"8480026","kana_pref":"ｻｶﾞｹﾝ","kana_city":"ｲﾏﾘｼ","kana_address":"ｵｵｶﾜﾁﾁｮｳﾍｲ","pref":"佐賀県","city":"伊万里市","address":"大川内町丙"},
{"zip_code":"8480021","kana_pref":"ｻｶﾞｹﾝ","kana_city":"ｲﾏﾘｼ","kana_address":"ｵｵﾂﾎﾞﾁｮｳｺｳ","pref":"佐賀県","city":"伊万里市","address":"大坪町甲"},
{"zip_code":"8480022","kana_pref":"ｻｶﾞｹﾝ","kana_city":"ｲﾏﾘｼ","kana_address":"ｵｵﾂﾎﾞﾁｮｳｵﾂ","pref":"佐賀県","city":"伊万里市","address":"大坪町乙"},
{"zip_code":"8480023","kana_pref":"ｻｶﾞｹﾝ","kana_city":"ｲﾏﾘｼ","kana_address":"ｵｵﾂﾎﾞﾁｮｳﾍｲ","pref":"佐賀県","city":"伊万里市","address":"大坪町丙"},
{"zip_code":"8480044","kana_pref":"ｻｶﾞｹﾝ","kana_city":"ｲﾏﾘｼ","kana_address":"ｷｽﾁｮｳ","pref":"佐賀県","city":"伊万里市","address":"木須町"},
{"zip_code":"8480124","kana_pref":"ｻｶﾞｹﾝ","kana_city":"ｲﾏﾘｼ","kana_address":"ｸﾛｶﾞﾜﾁｮｳ","pref":"佐賀県","city":"伊万里市","address":"黒川町"},
{"zip_code":"8480123","kana_pref":"ｻｶﾞｹﾝ","kana_city":"ｲﾏﾘｼ","kana_address":"ｸﾛｶﾞﾜﾁｮｳｵｵｸﾛｶﾞﾜ","pref":"佐賀県","city":"伊万里市","address":"黒川町大黒川"},
{"zip_code":"8480146","kana_pref":"ｻｶﾞｹﾝ","kana_city":"ｲﾏﾘｼ","kana_address":"ｸﾛｶﾞﾜﾁｮｳｸﾛｼｵ","pref":"佐賀県","city":"伊万里市","address":"黒川町黒塩"},
{"zip_code":"8480125","kana_pref":"ｻｶﾞｹﾝ","kana_city":"ｲﾏﾘｼ","kana_address":"ｸﾛｶﾞﾜﾁｮｳｺｸﾛｶﾞﾜ","pref":"佐賀県","city":"伊万里市","address":"黒川町小黒川"},
{"zip_code":"8480121","kana_pref":"ｻｶﾞｹﾝ","kana_city":"ｲﾏﾘｼ","kana_address":"ｸﾛｶﾞﾜﾁｮｳｼｵﾔ","pref":"佐賀県","city":"伊万里市","address":"黒川町塩屋"},
{"zip_code":"8480141","kana_pref":"ｻｶﾞｹﾝ","kana_city":"ｲﾏﾘｼ","kana_address":"ｸﾛｶﾞﾜﾁｮｳｼﾐｽﾞ","pref":"佐賀県","city":"伊万里市","address":"黒川町清水"},
{"zip_code":"8480142","kana_pref":"ｻｶﾞｹﾝ","kana_city":"ｲﾏﾘｼ","kana_address":"ｸﾛｶﾞﾜﾁｮｳﾀﾁﾒ","pref":"佐賀県","city":"伊万里市","address":"黒川町立目"},
{"zip_code":"8480145","kana_pref":"ｻｶﾞｹﾝ","kana_city":"ｲﾏﾘｼ","kana_address":"ｸﾛｶﾞﾜﾁｮｳﾂﾊﾞｷﾊﾗ","pref":"佐賀県","city":"伊万里市","address":"黒川町椿原"},
{"zip_code":"8480132","kana_pref":"ｻｶﾞｹﾝ","kana_city":"ｲﾏﾘｼ","kana_address":"ｸﾛｶﾞﾜﾁｮｳﾅｶﾞｵ","pref":"佐賀県","city":"伊万里市","address":"黒川町長尾"},
{"zip_code":"8480131","kana_pref":"ｻｶﾞｹﾝ","kana_city":"ｲﾏﾘｼ","kana_address":"ｸﾛｶﾞﾜﾁｮｳﾊﾀｶﾞﾜﾁ","pref":"佐賀県","city":"伊万里市","address":"黒川町畑川内"},
{"zip_code":"8480134","kana_pref":"ｻｶﾞｹﾝ","kana_city":"ｲﾏﾘｼ","kana_address":"ｸﾛｶﾞﾜﾁｮｳﾊﾅﾌﾞｻ","pref":"佐賀県","city":"伊万里市","address":"黒川町花房"},
{"zip_code":"8480122","kana_pref":"ｻｶﾞｹﾝ","kana_city":"ｲﾏﾘｼ","kana_address":"ｸﾛｶﾞﾜﾁｮｳﾌｸﾀﾞ","pref":"佐賀県","city":"伊万里市","address":"黒川町福田"},
{"zip_code":"8480133","kana_pref":"ｻｶﾞｹﾝ","kana_city":"ｲﾏﾘｼ","kana_address":"ｸﾛｶﾞﾜﾁｮｳﾏﾃﾉ","pref":"佐賀県","city":"伊万里市","address":"黒川町真手野"},
{"zip_code":"8480143","kana_pref":"ｻｶﾞｹﾝ","kana_city":"ｲﾏﾘｼ","kana_address":"ｸﾛｶﾞﾜﾁｮｳﾑﾀ","pref":"佐賀県","city":"伊万里市","address":"黒川町牟田"},
{"zip_code":"8480144","kana_pref":"ｻｶﾞｹﾝ","kana_city":"ｲﾏﾘｼ","kana_address":"ｸﾛｶﾞﾜﾁｮｳﾖｺﾉ","pref":"佐賀県","city":"伊万里市","address":"黒川町横野"},
{"zip_code":"8480041","kana_pref":"ｻｶﾞｹﾝ","kana_city":"ｲﾏﾘｼ","kana_address":"ｼﾝﾃﾝﾁｮｳ","pref":"佐賀県","city":"伊万里市","address":"新天町"},
{"zip_code":"8480043","kana_pref":"ｻｶﾞｹﾝ","kana_city":"ｲﾏﾘｼ","kana_address":"ｾﾄﾁｮｳ","pref":"佐賀県","city":"伊万里市","address":"瀬戸町"},
{"zip_code":"8480027","kana_pref":"ｻｶﾞｹﾝ","kana_city":"ｲﾏﾘｼ","kana_address":"ﾀﾁﾊﾞﾅﾁｮｳ","pref":"佐賀県","city":"伊万里市","address":"立花町"},
{"zip_code":"8480032","kana_pref":"ｻｶﾞｹﾝ","kana_city":"ｲﾏﾘｼ","kana_address":"ﾆﾘﾁｮｳｵｵｻﾞﾄｺｳ","pref":"佐賀県","city":"伊万里市","address":"二里町大里甲"},
{"zip_code":"8480035","kana_pref":"ｻｶﾞｹﾝ","kana_city":"ｲﾏﾘｼ","kana_address":"ﾆﾘﾁｮｳｵｵｻﾞﾄｵﾂ","pref":"佐賀県","city":"伊万里市","address":"二里町大里乙"},
{"zip_code":"8480034","kana_pref":"ｻｶﾞｹﾝ","kana_city":"ｲﾏﾘｼ","kana_address":"ﾆﾘﾁｮｳﾅｶｻﾞﾄｺｳ","pref":"佐賀県","city":"伊万里市","address":"二里町中里甲"},
{"zip_code":"8480033","kana_pref":"ｻｶﾞｹﾝ","kana_city":"ｲﾏﾘｼ","kana_address":"ﾆﾘﾁｮｳﾅｶｻﾞﾄｵﾂ","pref":"佐賀県","city":"伊万里市","address":"二里町中里乙"},
{"zip_code":"8480031","kana_pref":"ｻｶﾞｹﾝ","kana_city":"ｲﾏﾘｼ","kana_address":"ﾆﾘﾁｮｳﾊﾁﾔｶﾞﾗﾐ","pref":"佐賀県","city":"伊万里市","address":"二里町八谷搦"},
{"zip_code":"8480042","kana_pref":"ｻｶﾞｹﾝ","kana_city":"ｲﾏﾘｼ","kana_address":"ﾊｽｲｹﾁｮｳ","pref":"佐賀県","city":"伊万里市","address":"蓮池町"},
{"zip_code":"8480113","kana_pref":"ｻｶﾞｹﾝ","kana_city":"ｲﾏﾘｼ","kana_address":"ﾊﾀﾂﾁｮｳｲﾀｷﾞ","pref":"佐賀県","city":"伊万里市","address":"波多津町板木"},
{"zip_code":"8480116","kana_pref":"ｻｶﾞｹﾝ","kana_city":"ｲﾏﾘｼ","kana_address":"ﾊﾀﾂﾁｮｳｲﾉｵ","pref":"佐賀県","city":"伊万里市","address":"波多津町井野尾"},
{"zip_code":"8480103","kana_pref":"ｻｶﾞｹﾝ","kana_city":"ｲﾏﾘｼ","kana_address":"ﾊﾀﾂﾁｮｳｳﾁﾉ","pref":"佐賀県","city":"伊万里市","address":"波多津町内野"},
{"zip_code":"8480111","kana_pref":"ｻｶﾞｹﾝ","kana_city":"ｲﾏﾘｼ","kana_address":"ﾊﾀﾂﾁｮｳｺﾊﾞ","pref":"佐賀県","city":"伊万里市","address":"波多津町木場"},
{"zip_code":"8480104","kana_pref":"ｻｶﾞｹﾝ","kana_city":"ｲﾏﾘｼ","kana_address":"ﾊﾀﾂﾁｮｳｽｽﾔ","pref":"佐賀県","city":"伊万里市","address":"波多津町煤屋"},
{"zip_code":"8480112","kana_pref":"ｻｶﾞｹﾝ","kana_city":"ｲﾏﾘｼ","kana_address":"ﾊﾀﾂﾁｮｳﾀｼﾛ","pref":"佐賀県","city":"伊万里市","address":"波多津町田代"},
{"zip_code":"8480101","kana_pref":"ｻｶﾞｹﾝ","kana_city":"ｲﾏﾘｼ","kana_address":"ﾊﾀﾂﾁｮｳﾂｼﾞ","pref":"佐賀県","city":"伊万里市","address":"波多津町辻"},
{"zip_code":"8480117","kana_pref":"ｻｶﾞｹﾝ","kana_city":"ｲﾏﾘｼ","kana_address":"ﾊﾀﾂﾁｮｳﾂﾂｲ","pref":"佐賀県","city":"伊万里市","address":"波多津町筒井"},
{"zip_code":"8480114","kana_pref":"ｻｶﾞｹﾝ","kana_city":"ｲﾏﾘｼ","kana_address":"ﾊﾀﾂﾁｮｳﾂﾙﾇｼﾔ","pref":"佐賀県","city":"伊万里市","address":"波多津町津留主屋"},
{"zip_code":"8480115","kana_pref":"ｻｶﾞｹﾝ","kana_city":"ｲﾏﾘｼ","kana_address":"ﾊﾀﾂﾁｮｳﾅｶﾔﾏ","pref":"佐賀県","city":"伊万里市","address":"波多津町中山"},
{"zip_code":"8480102","kana_pref":"ｻｶﾞｹﾝ","kana_city":"ｲﾏﾘｼ","kana_address":"ﾊﾀﾂﾁｮｳﾊﾀﾂ","pref":"佐賀県","city":"伊万里市","address":"波多津町畑津"},
{"zip_code":"8480105","kana_pref":"ｻｶﾞｹﾝ","kana_city":"ｲﾏﾘｼ","kana_address":"ﾊﾀﾂﾁｮｳﾏﾃｶﾞﾀ","pref":"佐賀県","city":"伊万里市","address":"波多津町馬蛤潟"},
{"zip_code":"8480045","kana_pref":"ｻｶﾞｹﾝ","kana_city":"ｲﾏﾘｼ","kana_address":"ﾏﾂｼﾏﾁｮｳ","pref":"佐賀県","city":"伊万里市","address":"松島町"},
{"zip_code":"8480007","kana_pref":"ｻｶﾞｹﾝ","kana_city":"ｲﾏﾘｼ","kana_address":"ﾐﾅﾐﾊﾀﾁｮｳｲﾃﾞﾉ","pref":"佐賀県","city":"伊万里市","address":"南波多町井手野"},
{"zip_code":"8480011","kana_pref":"ｻｶﾞｹﾝ","kana_city":"ｲﾏﾘｼ","kana_address":"ﾐﾅﾐﾊﾀﾁｮｳｵｵｶﾜﾊﾞﾙ","pref":"佐賀県","city":"伊万里市","address":"南波多町大川原"},
{"zip_code":"8480005","kana_pref":"ｻｶﾞｹﾝ","kana_city":"ｲﾏﾘｼ","kana_address":"ﾐﾅﾐﾊﾀﾁｮｳｵｵﾏｶﾞﾘ","pref":"佐賀県","city":"伊万里市","address":"南波多町大曲"},
{"zip_code":"8480013","kana_pref":"ｻｶﾞｹﾝ","kana_city":"ｲﾏﾘｼ","kana_address":"ﾐﾅﾐﾊﾀﾁｮｳｶｻｼﾞ","pref":"佐賀県","city":"伊万里市","address":"南波多町笠椎"},
{"zip_code":"8480014","kana_pref":"ｻｶﾞｹﾝ","kana_city":"ｲﾏﾘｼ","kana_address":"ﾐﾅﾐﾊﾀﾁｮｳｺﾑｷﾞﾊﾙ","pref":"佐賀県","city":"伊万里市","address":"南波多町小麦原"},
{"zip_code":"8480001","kana_pref":"ｻｶﾞｹﾝ","kana_city":"ｲﾏﾘｼ","kana_address":"ﾐﾅﾐﾊﾀﾁｮｳｼﾞｭｳﾊﾞｼ","pref":"佐賀県","city":"伊万里市","address":"南波多町重橋"},
{"zip_code":"8480006","kana_pref":"ｻｶﾞｹﾝ","kana_city":"ｲﾏﾘｼ","kana_address":"ﾐﾅﾐﾊﾀﾁｮｳﾀｶｾﾞ","pref":"佐賀県","city":"伊万里市","address":"南波多町高瀬"},
{"zip_code":"8480002","kana_pref":"ｻｶﾞｹﾝ","kana_city":"ｲﾏﾘｼ","kana_address":"ﾐﾅﾐﾊﾀﾁｮｳﾀﾆｸﾞﾁ","pref":"佐賀県","city":"伊万里市","address":"南波多町谷口"},
{"zip_code":"8480004","kana_pref":"ｻｶﾞｹﾝ","kana_city":"ｲﾏﾘｼ","kana_address":"ﾐﾅﾐﾊﾀﾁｮｳﾂﾂﾞﾐ","pref":"佐賀県","city":"伊万里市","address":"南波多町水留"},
{"zip_code":"8480016","kana_pref":"ｻｶﾞｹﾝ","kana_city":"ｲﾏﾘｼ","kana_address":"ﾐﾅﾐﾊﾀﾁｮｳﾊﾗﾔｼｷ","pref":"佐賀県","city":"伊万里市","address":"南波多町原屋敷"},
{"zip_code":"8480015","kana_pref":"ｻｶﾞｹﾝ","kana_city":"ｲﾏﾘｼ","kana_address":"ﾐﾅﾐﾊﾀﾁｮｳﾌﾏﾈｷ","pref":"佐賀県","city":"伊万里市","address":"南波多町府招"},
{"zip_code":"8480012","kana_pref":"ｻｶﾞｹﾝ","kana_city":"ｲﾏﾘｼ","kana_address":"ﾐﾅﾐﾊﾀﾁｮｳﾌﾙｺ","pref":"佐賀県","city":"伊万里市","address":"南波多町古川"},
{"zip_code":"8480003","kana_pref":"ｻｶﾞｹﾝ","kana_city":"ｲﾏﾘｼ","kana_address":"ﾐﾅﾐﾊﾀﾁｮｳﾌﾙｻﾄ","pref":"佐賀県","city":"伊万里市","address":"南波多町古里"},
{"zip_code":"8480028","kana_pref":"ｻｶﾞｹﾝ","kana_city":"ｲﾏﾘｼ","kana_address":"ﾜｷﾀﾞﾁｮｳ","pref":"佐賀県","city":"伊万里市","address":"脇田町"},
{"zip_code":"8480404","kana_pref":"ﾅｶﾞｻｷｹﾝ","kana_city":"ﾏﾂｳﾗｼ","kana_address":"ﾌｸｼﾏﾁｮｳｱｻｶﾞｲﾒﾝ","pref":"長崎県","city":"松浦市","address":"福島町浅谷免"},
{"zip_code":"8480401","kana_pref":"ﾅｶﾞｻｷｹﾝ","kana_city":"ﾏﾂｳﾗｼ","kana_address":"ﾌｸｼﾏﾁｮｳｷﾅｲｾﾒﾝ","pref":"長崎県","city":"松浦市","address":"福島町喜内瀬免"},
{"zip_code":"8480408","kana_pref":"ﾅｶﾞｻｷｹﾝ","kana_city":"ﾏﾂｳﾗｼ","kana_address":"ﾌｸｼﾏﾁｮｳｻﾄﾒﾝ","pref":"長崎県","city":"松浦市","address":"福島町里免"},
{"zip_code":"8480403","kana_pref":"ﾅｶﾞｻｷｹﾝ","kana_city":"ﾏﾂｳﾗｼ","kana_address":"ﾌｸｼﾏﾁｮｳｼｵﾊﾏﾒﾝ","pref":"長崎県","city":"松浦市","address":"福島町塩浜免"},
{"zip_code":"8480405","kana_pref":"ﾅｶﾞｻｷｹﾝ","kana_city":"ﾏﾂｳﾗｼ","kana_address":"ﾌｸｼﾏﾁｮｳﾄﾞﾔﾒﾝ","pref":"長崎県","city":"松浦市","address":"福島町土谷免"},
{"zip_code":"8480407","kana_pref":"ﾅｶﾞｻｷｹﾝ","kana_city":"ﾏﾂｳﾗｼ","kana_address":"ﾌｸｼﾏﾁｮｳﾅﾍﾞｸﾞｼﾒﾝ","pref":"長崎県","city":"松浦市","address":"福島町鍋串免"},
{"zip_code":"8480402","kana_pref":"ﾅｶﾞｻｷｹﾝ","kana_city":"ﾏﾂｳﾗｼ","kana_address":"ﾌｸｼﾏﾁｮｳﾊｼﾒﾝ","pref":"長崎県","city":"松浦市","address":"福島町端免"},
{"zip_code":"8480406","kana_pref":"ﾅｶﾞｻｷｹﾝ","kana_city":"ﾏﾂｳﾗｼ","kana_address":"ﾌｸｼﾏﾁｮｳﾊﾙﾒﾝ","pref":"長崎県","city":"松浦市","address":"福島町原免"}]}