{"zip_code":[
{"zip_code":"8500000","kana_pref":"ﾅｶﾞｻｷｹﾝ","kana_city":"ﾅｶﾞｻｷｼ","kana_address":"","pref":"長崎県","city":"長崎市","address":""},
{"zip_code":"8500922","kana_pref":"ﾅｶﾞｻｷｹﾝ","kana_city":"ﾅｶﾞｻｷｼ","kana_address":"ｱｲｵｲﾏﾁ","pref":"長崎県","city":"長崎市","address":"相生町"},
{"zip_code":"8500064","kana_pref":"ﾅｶﾞｻｷｹﾝ","kana_city":"ﾅｶﾞｻｷｼ","kana_address":"ｱｷﾂﾞｷﾏﾁ","pref":"長崎県","city":"長崎市","address":"秋月町"},
{"zip_code":"8500063","kana_pref":"ﾅｶﾞｻｷｹﾝ","kana_city":"ﾅｶﾞｻｷｼ","kana_address":"ｱｸﾉｳﾗﾏﾁ","pref":"長崎県","city":"長崎市","address":"飽の浦町"},
{"zip_code":"8500822","kana_pref":"ﾅｶﾞｻｷｹﾝ","kana_city":"ﾅｶﾞｻｷｼ","kana_address":"ｱﾀｺﾞ","pref":"長崎県","city":"長崎市","address":"愛宕"},
{"zip_code":"8500832","kana_pref":"ﾅｶﾞｻｷｹﾝ","kana_city":"ﾅｶﾞｻｷｼ","kana_address":"ｱﾌﾞﾗﾔﾏﾁ","pref":"長崎県","city":"長崎市","address":"油屋町"},
{"zip_code":"8500924","kana_pref":"ﾅｶﾞｻｷｹﾝ","kana_city":"ﾅｶﾞｻｷｼ","kana_address":"ｲｽﾞﾓ","pref":"長崎県","city":"長崎市","address":"出雲"},
{"zip_code":"8500018","kana_pref":"ﾅｶﾞｻｷｹﾝ","kana_city":"ﾅｶﾞｻｷｼ","kana_address":"ｲｾﾏﾁ","pref":"長崎県","city":"長崎市","address":"伊勢町"},
{"zip_code":"8500971","kana_pref":"ﾅｶﾞｻｷｹﾝ","kana_city":"ﾅｶﾞｻｷｼ","kana_address":"ｲｿﾐﾁﾏﾁ","pref":"長崎県","city":"長崎市","address":"磯道町"},
{"zip_code":"8500907","kana_pref":"ﾅｶﾞｻｷｹﾝ","kana_city":"ﾅｶﾞｻｷｼ","kana_address":"ｲﾅﾀﾞﾏﾁ","pref":"長崎県","city":"長崎市","address":"稲田町"},
{"zip_code":"8500025","kana_pref":"ﾅｶﾞｻｷｹﾝ","kana_city":"ﾅｶﾞｻｷｼ","kana_address":"ｲﾏﾊｶﾀﾏﾁ","pref":"長崎県","city":"長崎市","address":"今博多町"},
{"zip_code":"8500802","kana_pref":"ﾅｶﾞｻｷｹﾝ","kana_city":"ﾅｶﾞｻｷｼ","kana_address":"ｲﾗﾊﾞﾔｼ","pref":"長崎県","city":"長崎市","address":"伊良林"},
{"zip_code":"8500065","kana_pref":"ﾅｶﾞｻｷｹﾝ","kana_city":"ﾅｶﾞｻｷｼ","kana_address":"ｲﾘﾌﾈﾏﾁ","pref":"長崎県","city":"長崎市","address":"入船町"},
{"zip_code":"8500072","kana_pref":"ﾅｶﾞｻｷｹﾝ","kana_city":"ﾅｶﾞｻｷｼ","kana_address":"ｲﾜｾﾄﾞｳﾏﾁ","pref":"長崎県","city":"長崎市","address":"岩瀬道町"},
{"zip_code":"8500923","kana_pref":"ﾅｶﾞｻｷｹﾝ","kana_city":"ﾅｶﾞｻｷｼ","kana_address":"ｳｴﾀﾞﾏﾁ","pref":"長崎県","city":"長崎市","address":"上田町"},
{"zip_code":"8500874","kana_pref":"ﾅｶﾞｻｷｹﾝ","kana_city":"ﾅｶﾞｻｷｼ","kana_address":"ｳｵﾉﾏﾁ","pref":"長崎県","city":"長崎市","address":"魚の町"},
{"zip_code":"8500022","kana_pref":"ﾅｶﾞｻｷｹﾝ","kana_city":"ﾅｶﾞｻｷｼ","kana_address":"ｳﾏﾏﾁ","pref":"長崎県","city":"長崎市","address":"馬町"},
{"zip_code":"8500909","kana_pref":"ﾅｶﾞｻｷｹﾝ","kana_city":"ﾅｶﾞｻｷｼ","kana_address":"ｳﾒｶﾞｻｷﾏﾁ","pref":"長崎県","city":"長崎市","address":"梅香崎町"},
{"zip_code":"8500054","kana_pref":"ﾅｶﾞｻｷｹﾝ","kana_city":"ﾅｶﾞｻｷｼ","kana_address":"ｳﾜﾏﾁ","pref":"長崎県","city":"長崎市","address":"上町"},
{"zip_code":"8500992","kana_pref":"ﾅｶﾞｻｷｹﾝ","kana_city":"ﾅｶﾞｻｷｼ","kana_address":"ｴｶﾞﾜﾏﾁ","pref":"長崎県","city":"長崎市","address":"江川町"},
{"zip_code":"8500861","kana_pref":"ﾅｶﾞｻｷｹﾝ","kana_city":"ﾅｶﾞｻｷｼ","kana_address":"ｴﾄﾞﾏﾁ","pref":"長崎県","city":"長崎市","address":"江戸町"},
{"zip_code":"8500056","kana_pref":"ﾅｶﾞｻｷｹﾝ","kana_city":"ﾅｶﾞｻｷｼ","kana_address":"ｴﾋﾞｽﾏﾁ","pref":"長崎県","city":"長崎市","address":"恵美須町"},
{"zip_code":"8500024","kana_pref":"ﾅｶﾞｻｷｹﾝ","kana_city":"ﾅｶﾞｻｷｼ","kana_address":"ｵｵｲﾃﾞﾏﾁ","pref":"長崎県","city":"長崎市","address":"大井手町"},
{"zip_code":"8500916","kana_pref":"ﾅｶﾞｻｷｹﾝ","kana_city":"ﾅｶﾞｻｷｼ","kana_address":"ｵｵｳﾗﾋｶﾞｼﾏﾁ","pref":"長崎県","city":"長崎市","address":"大浦東町"},
{"zip_code":"8500918","kana_pref":"ﾅｶﾞｻｷｹﾝ","kana_city":"ﾅｶﾞｻｷｼ","kana_address":"ｵｵｳﾗﾏﾁ","pref":"長崎県","city":"長崎市","address":"大浦町"},
{"zip_code":"8500062","kana_pref":"ﾅｶﾞｻｷｹﾝ","kana_city":"ﾅｶﾞｻｷｼ","kana_address":"ｵｵﾀﾆﾏﾁ","pref":"長崎県","city":"長崎市","address":"大谷町"},
{"zip_code":"8500066","kana_pref":"ﾅｶﾞｻｷｹﾝ","kana_city":"ﾅｶﾞｻｷｼ","kana_address":"ｵｵﾊﾏﾏﾁ","pref":"長崎県","city":"長崎市","address":"大浜町"},
{"zip_code":"8500964","kana_pref":"ﾅｶﾞｻｷｹﾝ","kana_city":"ﾅｶﾞｻｷｼ","kana_address":"ｵｵﾔﾏﾏﾁ","pref":"長崎県","city":"長崎市","address":"大山町"},
{"zip_code":"8500027","kana_pref":"ﾅｶﾞｻｷｹﾝ","kana_city":"ﾅｶﾞｻｷｼ","kana_address":"ｵｹﾔﾏﾁ","pref":"長崎県","city":"長崎市","address":"桶屋町"},
{"zip_code":"8500058","kana_pref":"ﾅｶﾞｻｷｹﾝ","kana_city":"ﾅｶﾞｻｷｼ","kana_address":"ｵﾉｳｴﾏﾁ","pref":"長崎県","city":"長崎市","address":"尾上町"},
{"zip_code":"8500042","kana_pref":"ﾅｶﾞｻｷｹﾝ","kana_city":"ﾅｶﾞｻｷｼ","kana_address":"ｵﾌﾅｸﾞﾗﾏﾁ","pref":"長崎県","city":"長崎市","address":"御船蔵町"},
{"zip_code":"8500905","kana_pref":"ﾅｶﾞｻｷｹﾝ","kana_city":"ﾅｶﾞｻｷｼ","kana_address":"ｶｺﾞﾏﾁ","pref":"長崎県","city":"長崎市","address":"籠町"},
{"zip_code":"8500803","kana_pref":"ﾅｶﾞｻｷｹﾝ","kana_city":"ﾅｶﾞｻｷｼ","kana_address":"ｶｻﾞｶﾞｼﾗﾏﾁ","pref":"長崎県","city":"長崎市","address":"風頭町"},
{"zip_code":"8500831","kana_pref":"ﾅｶﾞｻｷｹﾝ","kana_city":"ﾅｶﾞｻｷｼ","kana_address":"ｶｼﾞﾔﾏﾁ","pref":"長崎県","city":"長崎市","address":"鍛冶屋町"},
{"zip_code":"8500003","kana_pref":"ﾅｶﾞｻｷｹﾝ","kana_city":"ﾅｶﾞｻｷｼ","kana_address":"ｶﾀﾌﾁ","pref":"長崎県","city":"長崎市","address":"片淵"},
{"zip_code":"8500028","kana_pref":"ﾅｶﾞｻｷｹﾝ","kana_city":"ﾅｶﾞｻｷｼ","kana_address":"ｶﾂﾔﾏﾏﾁ","pref":"長崎県","city":"長崎市","address":"勝山町"},
{"zip_code":"8500037","kana_pref":"ﾅｶﾞｻｷｹﾝ","kana_city":"ﾅｶﾞｻｷｼ","kana_address":"ｶﾅﾔﾏﾁ","pref":"長崎県","city":"長崎市","address":"金屋町"},
{"zip_code":"8500973","kana_pref":"ﾅｶﾞｻｷｹﾝ","kana_city":"ﾅｶﾞｻｷｼ","kana_address":"ｶﾉｵﾏﾁ","pref":"長崎県","city":"長崎市","address":"鹿尾町"},
{"zip_code":"8500034","kana_pref":"ﾅｶﾞｻｷｹﾝ","kana_city":"ﾅｶﾞｻｷｼ","kana_address":"ｶﾊﾞｼﾏﾏﾁ","pref":"長崎県","city":"長崎市","address":"樺島町"},
{"zip_code":"8500834","kana_pref":"ﾅｶﾞｻｷｹﾝ","kana_city":"ﾅｶﾞｻｷｼ","kana_address":"ｶﾐｺｼﾏ","pref":"長崎県","city":"長崎市","address":"上小島"},
{"zip_code":"8500048","kana_pref":"ﾅｶﾞｻｷｹﾝ","kana_city":"ﾅｶﾞｻｷｼ","kana_address":"ｶﾐｾﾞﾝｻﾞﾏﾁ","pref":"長崎県","city":"長崎市","address":"上銭座町"},
{"zip_code":"8500953","kana_pref":"ﾅｶﾞｻｷｹﾝ","kana_city":"ﾅｶﾞｻｷｼ","kana_address":"ｶﾐﾄﾏﾁ","pref":"長崎県","city":"長崎市","address":"上戸町"},
{"zip_code":"8500006","kana_pref":"ﾅｶﾞｻｷｹﾝ","kana_city":"ﾅｶﾞｻｷｼ","kana_address":"ｶﾐﾆｼﾔﾏﾏﾁ","pref":"長崎県","city":"長崎市","address":"上西山町"},
{"zip_code":"8500078","kana_pref":"ﾅｶﾞｻｷｹﾝ","kana_city":"ﾅｶﾞｻｷｼ","kana_address":"ｶﾐﾉｼﾏﾏﾁ","pref":"長崎県","city":"長崎市","address":"神ノ島町"},
{"zip_code":"8500946","kana_pref":"ﾅｶﾞｻｷｹﾝ","kana_city":"ﾅｶﾞｻｷｼ","kana_address":"ｶﾜｶﾐﾏﾁ","pref":"長崎県","city":"長崎市","address":"川上町"},
{"zip_code":"8500906","kana_pref":"ﾅｶﾞｻｷｹﾝ","kana_city":"ﾅｶﾞｻｷｼ","kana_address":"ｶﾝﾅｲﾏﾁ","pref":"長崎県","city":"長崎市","address":"館内町"},
{"zip_code":"8500076","kana_pref":"ﾅｶﾞｻｷｹﾝ","kana_city":"ﾅｶﾞｻｷｼ","kana_address":"ｷﾊﾞﾁﾏﾁ","pref":"長崎県","city":"長崎市","address":"木鉢町"},
{"zip_code":"8500974","kana_pref":"ﾅｶﾞｻｷｹﾝ","kana_city":"ﾅｶﾞｻｷｼ","kana_address":"ｷｮｳﾀﾛｳﾏﾁ","pref":"長崎県","city":"長崎市","address":"京太郎町"},
{"zip_code":"8500854","kana_pref":"ﾅｶﾞｻｷｹﾝ","kana_city":"ﾅｶﾞｻｷｼ","kana_address":"ｷﾞﾝﾔﾏﾁ","pref":"長崎県","city":"長崎市","address":"銀屋町"},
{"zip_code":"8500981","kana_pref":"ﾅｶﾞｻｷｹﾝ","kana_city":"ﾅｶﾞｻｷｼ","kana_address":"ｸｻｽﾞﾐﾏﾁ","pref":"長崎県","city":"長崎市","address":"草住町"},
{"zip_code":"8500976","kana_pref":"ﾅｶﾞｻｷｹﾝ","kana_city":"ﾅｶﾞｻｷｼ","kana_address":"ｹｲｸﾋﾞﾏﾁ","pref":"長崎県","city":"長崎市","address":"毛井首町"},
{"zip_code":"8500871","kana_pref":"ﾅｶﾞｻｷｹﾝ","kana_city":"ﾅｶﾞｻｷｼ","kana_address":"ｺｳｼﾞﾔﾏﾁ","pref":"長崎県","city":"長崎市","address":"麹屋町"},
{"zip_code":"8500032","kana_pref":"ﾅｶﾞｻｷｹﾝ","kana_city":"ﾅｶﾞｻｷｼ","kana_address":"ｺｳｾﾞﾝﾏﾁ","pref":"長崎県","city":"長崎市","address":"興善町"},
{"zip_code":"8500067","kana_pref":"ﾅｶﾞｻｷｹﾝ","kana_city":"ﾅｶﾞｻｷｼ","kana_address":"ｺｳﾗﾏﾁ","pref":"長崎県","city":"長崎市","address":"小浦町"},
{"zip_code":"8500961","kana_pref":"ﾅｶﾞｻｷｹﾝ","kana_city":"ﾅｶﾞｻｷｼ","kana_address":"ｺｶﾞｸﾗﾏﾁ","pref":"長崎県","city":"長崎市","address":"小ケ倉町"},
{"zip_code":"8500951","kana_pref":"ﾅｶﾞｻｷｹﾝ","kana_city":"ﾅｶﾞｻｷｼ","kana_address":"ｺｸﾌﾞﾏﾁ","pref":"長崎県","city":"長崎市","address":"国分町"},
{"zip_code":"8500934","kana_pref":"ﾅｶﾞｻｷｹﾝ","kana_city":"ﾅｶﾞｻｷｼ","kana_address":"ｺｽｹﾞﾏﾁ","pref":"長崎県","city":"長崎市","address":"小菅町"},
{"zip_code":"8500077","kana_pref":"ﾅｶﾞｻｷｹﾝ","kana_city":"ﾅｶﾞｻｷｼ","kana_address":"ｺｾﾄﾞﾏﾁ","pref":"長崎県","city":"長崎市","address":"小瀬戸町"},
{"zip_code":"8500937","kana_pref":"ﾅｶﾞｻｷｹﾝ","kana_city":"ﾅｶﾞｻｷｼ","kana_address":"ｺｿﾞﾈﾏﾁ","pref":"長崎県","city":"長崎市","address":"小曽根町"},
{"zip_code":"8500036","kana_pref":"ﾅｶﾞｻｷｹﾝ","kana_city":"ﾅｶﾞｻｷｼ","kana_address":"ｺﾞﾄｳﾏﾁ","pref":"長崎県","city":"長崎市","address":"五島町"},
{"zip_code":"8500002","kana_pref":"ﾅｶﾞｻｷｹﾝ","kana_city":"ﾅｶﾞｻｷｼ","kana_address":"ｺﾊﾞﾏﾁ","pref":"長崎県","city":"長崎市","address":"木場町"},
{"zip_code":"8500983","kana_pref":"ﾅｶﾞｻｷｹﾝ","kana_city":"ﾅｶﾞｻｷｼ","kana_address":"ｺﾒﾉﾔﾏﾏﾁ","pref":"長崎県","city":"長崎市","address":"米山町"},
{"zip_code":"8500046","kana_pref":"ﾅｶﾞｻｷｹﾝ","kana_city":"ﾅｶﾞｻｷｼ","kana_address":"ｻｲﾜｲﾏﾁ","pref":"長崎県","city":"長崎市","address":"幸町"},
{"zip_code":"8500994","kana_pref":"ﾅｶﾞｻｷｹﾝ","kana_city":"ﾅｶﾞｻｷｼ","kana_address":"ｻｵﾉｳﾗﾏﾁ","pref":"長崎県","city":"長崎市","address":"竿浦町"},
{"zip_code":"8500875","kana_pref":"ﾅｶﾞｻｷｹﾝ","kana_city":"ﾅｶﾞｻｷｼ","kana_address":"ｻｶｴﾏﾁ","pref":"長崎県","city":"長崎市","address":"栄町"},
{"zip_code":"8500835","kana_pref":"ﾅｶﾞｻｷｹﾝ","kana_city":"ﾅｶﾞｻｷｼ","kana_address":"ｻｸﾗｷﾞﾏﾁ","pref":"長崎県","city":"長崎市","address":"桜木町"},
{"zip_code":"8500015","kana_pref":"ﾅｶﾞｻｷｹﾝ","kana_city":"ﾅｶﾞｻｷｼ","kana_address":"ｻｸﾗﾊﾞﾊﾞ","pref":"長崎県","city":"長崎市","address":"桜馬場"},
{"zip_code":"8500031","kana_pref":"ﾅｶﾞｻｷｹﾝ","kana_city":"ﾅｶﾞｻｷｼ","kana_address":"ｻｸﾗﾏﾁ","pref":"長崎県","city":"長崎市","address":"桜町"},
{"zip_code":"8500824","kana_pref":"ﾅｶﾞｻｷｹﾝ","kana_city":"ﾅｶﾞｻｷｼ","kana_address":"ｻﾝｹｲﾀﾞｲﾏﾁ","pref":"長崎県","city":"長崎市","address":"三景台町"},
{"zip_code":"8500975","kana_pref":"ﾅｶﾞｻｷｹﾝ","kana_city":"ﾅｶﾞｻｷｼ","kana_address":"ｻﾝﾜﾏﾁ","pref":"長崎県","city":"長崎市","address":"三和町"},
{"zip_code":"8500947","kana_pref":"ﾅｶﾞｻｷｹﾝ","kana_city":"ﾅｶﾞｻｷｼ","kana_address":"ｼｲﾉｷﾏﾁ","pref":"長崎県","city":"長崎市","address":"椎の木町"},
{"zip_code":"8500071","kana_pref":"ﾅｶﾞｻｷｹﾝ","kana_city":"ﾅｶﾞｻｷｼ","kana_address":"ｼｵﾊﾏﾏﾁ","pref":"長崎県","city":"長崎市","address":"塩浜町"},
{"zip_code":"8500917","kana_pref":"ﾅｶﾞｻｷｹﾝ","kana_city":"ﾅｶﾞｻｷｼ","kana_address":"ｼﾀﾏﾁ","pref":"長崎県","city":"長崎市","address":"下町"},
{"zip_code":"8500004","kana_pref":"ﾅｶﾞｻｷｹﾝ","kana_city":"ﾅｶﾞｻｷｼ","kana_address":"ｼﾓﾆｼﾔﾏﾏﾁ","pref":"長崎県","city":"長崎市","address":"下西山町"},
{"zip_code":"8500908","kana_pref":"ﾅｶﾞｻｷｹﾝ","kana_city":"ﾅｶﾞｻｷｼ","kana_address":"ｼﾞｭｳﾆﾝﾏﾁ","pref":"長崎県","city":"長崎市","address":"十人町"},
{"zip_code":"8500812","kana_pref":"ﾅｶﾞｻｷｹﾝ","kana_city":"ﾅｶﾞｻｷｼ","kana_address":"ｼﾛｷﾏﾁ","pref":"長崎県","city":"長崎市","address":"白木町"},
{"zip_code":"8500962","kana_pref":"ﾅｶﾞｻｷｹﾝ","kana_city":"ﾅｶﾞｻｷｼ","kana_address":"ｼﾝｺｶﾞｸﾗ","pref":"長崎県","city":"長崎市","address":"新小が倉"},
{"zip_code":"8500017","kana_pref":"ﾅｶﾞｻｷｹﾝ","kana_city":"ﾅｶﾞｻｷｼ","kana_address":"ｼﾝﾀﾞｲｸﾏﾁ","pref":"長崎県","city":"長崎市","address":"新大工町"},
{"zip_code":"8500842","kana_pref":"ﾅｶﾞｻｷｹﾝ","kana_city":"ﾅｶﾞｻｷｼ","kana_address":"ｼﾝﾁﾏﾁ","pref":"長崎県","city":"長崎市","address":"新地町"},
{"zip_code":"8500954","kana_pref":"ﾅｶﾞｻｷｹﾝ","kana_city":"ﾅｶﾞｻｷｼ","kana_address":"ｼﾝﾄﾏﾁ","pref":"長崎県","city":"長崎市","address":"新戸町"},
{"zip_code":"8500014","kana_pref":"ﾅｶﾞｻｷｹﾝ","kana_city":"ﾅｶﾞｻｷｼ","kana_address":"ｼﾝﾅｶｶﾞﾜﾏﾁ","pref":"長崎県","city":"長崎市","address":"新中川町"},
{"zip_code":"8500991","kana_pref":"ﾅｶﾞｻｷｹﾝ","kana_city":"ﾅｶﾞｻｷｼ","kana_address":"ｽｴｲｼﾏﾁ","pref":"長崎県","city":"長崎市","address":"末石町"},
{"zip_code":"8500873","kana_pref":"ﾅｶﾞｻｷｹﾝ","kana_city":"ﾅｶﾞｻｷｼ","kana_address":"ｽﾜﾏﾁ","pref":"長崎県","city":"長崎市","address":"諏訪町"},
{"zip_code":"8500047","kana_pref":"ﾅｶﾞｻｷｹﾝ","kana_city":"ﾅｶﾞｻｷｼ","kana_address":"ｾﾞﾝｻﾞﾏﾁ","pref":"長崎県","city":"長崎市","address":"銭座町"},
{"zip_code":"8500057","kana_pref":"ﾅｶﾞｻｷｹﾝ","kana_city":"ﾅｶﾞｻｷｼ","kana_address":"ﾀﾞｲｺｸﾏﾁ","pref":"長崎県","city":"長崎市","address":"大黒町"},
{"zip_code":"8500963","kana_pref":"ﾅｶﾞｻｷｹﾝ","kana_city":"ﾅｶﾞｻｷｼ","kana_address":"ﾀﾞｲﾔﾗﾝﾄﾞ","pref":"長崎県","city":"長崎市","address":"ダイヤランド"},
{"zip_code":"8500941","kana_pref":"ﾅｶﾞｻｷｹﾝ","kana_city":"ﾅｶﾞｻｷｼ","kana_address":"ﾀｶｵｶ","pref":"長崎県","city":"長崎市","address":"高丘"},
{"zip_code":"8500821","kana_pref":"ﾅｶﾞｻｷｹﾝ","kana_city":"ﾅｶﾞｻｷｼ","kana_address":"ﾀｶﾋﾗﾏﾁ","pref":"長崎県","city":"長崎市","address":"高平町"},
{"zip_code":"8500045","kana_pref":"ﾅｶﾞｻｷｹﾝ","kana_city":"ﾅｶﾞｻｷｼ","kana_address":"ﾀｶﾗﾏﾁ","pref":"長崎県","city":"長崎市","address":"宝町"},
{"zip_code":"8500007","kana_pref":"ﾅｶﾞｻｷｹﾝ","kana_city":"ﾅｶﾞｻｷｼ","kana_address":"ﾀﾃﾔﾏ","pref":"長崎県","city":"長崎市","address":"立山"},
{"zip_code":"8500053","kana_pref":"ﾅｶﾞｻｷｹﾝ","kana_city":"ﾅｶﾞｻｷｼ","kana_address":"ﾀﾏｿﾞﾉﾏﾁ","pref":"長崎県","city":"長崎市","address":"玉園町"},
{"zip_code":"8500052","kana_pref":"ﾅｶﾞｻｷｹﾝ","kana_city":"ﾅｶﾞｻｷｼ","kana_address":"ﾁｸｺﾞﾏﾁ","pref":"長崎県","city":"長崎市","address":"筑後町"},
{"zip_code":"8500877","kana_pref":"ﾅｶﾞｻｷｹﾝ","kana_city":"ﾅｶﾞｻｷｼ","kana_address":"ﾂｷﾏﾁ","pref":"長崎県","city":"長崎市","address":"築町"},
{"zip_code":"8500984","kana_pref":"ﾅｶﾞｻｷｹﾝ","kana_city":"ﾅｶﾞｻｷｼ","kana_address":"ﾂﾙﾐﾀﾞｲ","pref":"長崎県","city":"長崎市","address":"鶴見台"},
{"zip_code":"8500023","kana_pref":"ﾅｶﾞｻｷｹﾝ","kana_city":"ﾅｶﾞｻｷｼ","kana_address":"ﾃﾞｷﾀﾞｲｸﾏﾁ","pref":"長崎県","city":"長崎市","address":"出来大工町"},
{"zip_code":"8500862","kana_pref":"ﾅｶﾞｻｷｹﾝ","kana_city":"ﾅｶﾞｻｷｼ","kana_address":"ﾃﾞｼﾞﾏﾏﾁ","pref":"長崎県","city":"長崎市","address":"出島町"},
{"zip_code":"8500872","kana_pref":"ﾅｶﾞｻｷｹﾝ","kana_city":"ﾅｶﾞｻｷｼ","kana_address":"ﾃﾗﾏﾁ","pref":"長崎県","city":"長崎市","address":"寺町"},
{"zip_code":"8500044","kana_pref":"ﾅｶﾞｻｷｹﾝ","kana_city":"ﾅｶﾞｻｷｼ","kana_address":"ﾃﾝｼﾞﾝﾏﾁ","pref":"長崎県","city":"長崎市","address":"天神町"},
{"zip_code":"8500977","kana_pref":"ﾅｶﾞｻｷｹﾝ","kana_city":"ﾅｶﾞｻｷｼ","kana_address":"ﾄﾞｲﾉｸﾋﾞﾏﾁ","pref":"長崎県","city":"長崎市","address":"土井首町"},
{"zip_code":"8500841","kana_pref":"ﾅｶﾞｻｷｹﾝ","kana_city":"ﾅｶﾞｻｷｼ","kana_address":"ﾄﾞｳｻﾞﾏﾁ","pref":"長崎県","city":"長崎市","address":"銅座町"},
{"zip_code":"8500843","kana_pref":"ﾅｶﾞｻｷｹﾝ","kana_city":"ﾅｶﾞｻｷｼ","kana_address":"ﾄｷﾜﾏﾁ","pref":"長崎県","city":"長崎市","address":"常盤町"},
{"zip_code":"8500952","kana_pref":"ﾅｶﾞｻｷｹﾝ","kana_city":"ﾅｶﾞｻｷｼ","kana_address":"ﾄﾏﾁ","pref":"長崎県","city":"長崎市","address":"戸町"},
{"zip_code":"8500013","kana_pref":"ﾅｶﾞｻｷｹﾝ","kana_city":"ﾅｶﾞｻｷｼ","kana_address":"ﾅｶｶﾞﾜ","pref":"長崎県","city":"長崎市","address":"中川"},
{"zip_code":"8500836","kana_pref":"ﾅｶﾞｻｷｹﾝ","kana_city":"ﾅｶﾞｻｷｼ","kana_address":"ﾅｶｺｼﾏ","pref":"長崎県","city":"長崎市","address":"中小島"},
{"zip_code":"8500912","kana_pref":"ﾅｶﾞｻｷｹﾝ","kana_city":"ﾅｶﾞｻｷｼ","kana_address":"ﾅｶｼﾝﾏﾁ","pref":"長崎県","city":"長崎市","address":"中新町"},
{"zip_code":"8500055","kana_pref":"ﾅｶﾞｻｷｹﾝ","kana_city":"ﾅｶﾞｻｷｼ","kana_address":"ﾅｶﾏﾁ","pref":"長崎県","city":"長崎市","address":"中町"},
{"zip_code":"8500936","kana_pref":"ﾅｶﾞｻｷｹﾝ","kana_city":"ﾅｶﾞｻｷｼ","kana_address":"ﾅﾐﾉﾋﾗﾏﾁ","pref":"長崎県","city":"長崎市","address":"浪の平町"},
{"zip_code":"8500011","kana_pref":"ﾅｶﾞｻｷｹﾝ","kana_city":"ﾅｶﾞｻｷｼ","kana_address":"ﾅﾙﾀｷ","pref":"長崎県","city":"長崎市","address":"鳴滝"},
{"zip_code":"8500876","kana_pref":"ﾅｶﾞｻｷｹﾝ","kana_city":"ﾅｶﾞｻｷｼ","kana_address":"ﾆｷﾞﾜｲﾏﾁ","pref":"長崎県","city":"長崎市","address":"賑町"},
{"zip_code":"8500837","kana_pref":"ﾅｶﾞｻｷｹﾝ","kana_city":"ﾅｶﾞｻｷｼ","kana_address":"ﾆｼｺｼﾏ","pref":"長崎県","city":"長崎市","address":"西小島"},
{"zip_code":"8500933","kana_pref":"ﾅｶﾞｻｷｹﾝ","kana_city":"ﾅｶﾞｻｷｼ","kana_address":"ﾆｼｺﾄﾋﾗﾏﾁ","pref":"長崎県","city":"長崎市","address":"西琴平町"},
{"zip_code":"8500051","kana_pref":"ﾅｶﾞｻｷｹﾝ","kana_city":"ﾅｶﾞｻｷｼ","kana_address":"ﾆｼｻﾞｶﾏﾁ","pref":"長崎県","city":"長崎市","address":"西坂町"},
{"zip_code":"8500074","kana_pref":"ﾅｶﾞｻｷｹﾝ","kana_city":"ﾅｶﾞｻｷｼ","kana_address":"ﾆｼﾀﾃｶﾞﾐﾏﾁ","pref":"長崎県","city":"長崎市","address":"西立神町"},
{"zip_code":"8500075","kana_pref":"ﾅｶﾞｻｷｹﾝ","kana_city":"ﾅｶﾞｻｷｼ","kana_address":"ﾆｼﾄﾞﾏﾘﾏﾁ","pref":"長崎県","city":"長崎市","address":"西泊町"},
{"zip_code":"8500001","kana_pref":"ﾅｶﾞｻｷｹﾝ","kana_city":"ﾅｶﾞｻｷｼ","kana_address":"ﾆｼﾔﾏ","pref":"長崎県","city":"長崎市","address":"西山"},
{"zip_code":"8500005","kana_pref":"ﾅｶﾞｻｷｹﾝ","kana_city":"ﾅｶﾞｻｷｼ","kana_address":"ﾆｼﾔﾏﾎﾝﾏﾁ","pref":"長崎県","city":"長崎市","address":"西山本町"},
{"zip_code":"8500993","kana_pref":"ﾅｶﾞｻｷｹﾝ","kana_city":"ﾅｶﾞｻｷｼ","kana_address":"ﾊﾁﾛｳﾀﾞｹﾏﾁ","pref":"長崎県","city":"長崎市","address":"八郎岳町"},
{"zip_code":"8500944","kana_pref":"ﾅｶﾞｻｷｹﾝ","kana_city":"ﾅｶﾞｻｷｼ","kana_address":"ﾊｯｹｲﾏﾁ","pref":"長崎県","city":"長崎市","address":"八景町"},
{"zip_code":"8500041","kana_pref":"ﾅｶﾞｻｷｹﾝ","kana_city":"ﾅｶﾞｻｷｼ","kana_address":"ﾊﾏﾋﾗ","pref":"長崎県","city":"長崎市","address":"浜平"},
{"zip_code":"8500853","kana_pref":"ﾅｶﾞｻｷｹﾝ","kana_city":"ﾅｶﾞｻｷｼ","kana_address":"ﾊﾏﾏﾁ","pref":"長崎県","city":"長崎市","address":"浜町"},
{"zip_code":"8500833","kana_pref":"ﾅｶﾞｻｷｹﾝ","kana_city":"ﾅｶﾞｻｷｼ","kana_address":"ﾋｶﾞｼｺｼﾏﾏﾁ","pref":"長崎県","city":"長崎市","address":"東小島町"},
{"zip_code":"8500932","kana_pref":"ﾅｶﾞｻｷｹﾝ","kana_city":"ﾅｶﾞｻｷｼ","kana_address":"ﾋｶﾞｼｺﾄﾋﾗ","pref":"長崎県","city":"長崎市","address":"東琴平"},
{"zip_code":"8500073","kana_pref":"ﾅｶﾞｻｷｹﾝ","kana_city":"ﾅｶﾞｻｷｼ","kana_address":"ﾋｶﾞｼﾀﾃｶﾞﾐﾏﾁ","pref":"長崎県","city":"長崎市","address":"東立神町"},
{"zip_code":"8500855","kana_pref":"ﾅｶﾞｻｷｹﾝ","kana_city":"ﾅｶﾞｻｷｼ","kana_address":"ﾋｶﾞｼﾌﾙｶﾜﾏﾁ","pref":"長崎県","city":"長崎市","address":"東古川町"},
{"zip_code":"8500911","kana_pref":"ﾅｶﾞｻｷｹﾝ","kana_city":"ﾅｶﾞｻｷｼ","kana_address":"ﾋｶﾞｼﾔﾏﾃﾏﾁ","pref":"長崎県","city":"長崎市","address":"東山手町"},
{"zip_code":"8500915","kana_pref":"ﾅｶﾞｻｷｹﾝ","kana_city":"ﾅｶﾞｻｷｼ","kana_address":"ﾋｶﾞｼﾔﾏﾏﾁ","pref":"長崎県","city":"長崎市","address":"東山町"},
{"zip_code":"8500804","kana_pref":"ﾅｶﾞｻｷｹﾝ","kana_city":"ﾅｶﾞｻｷｼ","kana_address":"ﾋｺﾐﾏﾁ","pref":"長崎県","city":"長崎市","address":"彦見町"},
{"zip_code":"8500914","kana_pref":"ﾅｶﾞｻｷｹﾝ","kana_city":"ﾅｶﾞｻｷｼ","kana_address":"ﾋﾉﾃﾞﾏﾁ","pref":"長崎県","city":"長崎市","address":"日の出町"},
{"zip_code":"8500985","kana_pref":"ﾅｶﾞｻｷｹﾝ","kana_city":"ﾅｶﾞｻｷｼ","kana_address":"ﾋﾗｾﾏﾁ","pref":"長崎県","city":"長崎市","address":"平瀬町"},
{"zip_code":"8500996","kana_pref":"ﾅｶﾞｻｷｹﾝ","kana_city":"ﾅｶﾞｻｷｼ","kana_address":"ﾋﾗﾔﾏﾀﾞｲ","pref":"長崎県","city":"長崎市","address":"平山台"},
{"zip_code":"8500995","kana_pref":"ﾅｶﾞｻｷｹﾝ","kana_city":"ﾅｶﾞｻｷｼ","kana_address":"ﾋﾗﾔﾏﾏﾁ","pref":"長崎県","city":"長崎市","address":"平山町"},
{"zip_code":"8500016","kana_pref":"ﾅｶﾞｻｷｹﾝ","kana_city":"ﾅｶﾞｻｷｼ","kana_address":"ﾌｳﾌｶﾞﾜﾏﾁ","pref":"長崎県","city":"長崎市","address":"夫婦川町"},
{"zip_code":"8500068","kana_pref":"ﾅｶﾞｻｷｹﾝ","kana_city":"ﾅｶﾞｻｷｼ","kana_address":"ﾌｸﾀﾞﾎﾝﾏﾁ","pref":"長崎県","city":"長崎市","address":"福田本町"},
{"zip_code":"8500904","kana_pref":"ﾅｶﾞｻｷｹﾝ","kana_city":"ﾅｶﾞｻｷｼ","kana_address":"ﾌﾅﾀﾞｲｸﾏﾁ","pref":"長崎県","city":"長崎市","address":"船大工町"},
{"zip_code":"8500851","kana_pref":"ﾅｶﾞｻｷｹﾝ","kana_city":"ﾅｶﾞｻｷｼ","kana_address":"ﾌﾙｶﾜﾏﾁ","pref":"長崎県","city":"長崎市","address":"古川町"},
{"zip_code":"8500935","kana_pref":"ﾅｶﾞｻｷｹﾝ","kana_city":"ﾅｶﾞｻｷｼ","kana_address":"ﾌﾙｺﾏﾁ","pref":"長崎県","city":"長崎市","address":"古河町"},
{"zip_code":"8500026","kana_pref":"ﾅｶﾞｻｷｹﾝ","kana_city":"ﾅｶﾞｻｷｼ","kana_address":"ﾌﾙﾏﾁ","pref":"長崎県","city":"長崎市","address":"古町"},
{"zip_code":"8500972","kana_pref":"ﾅｶﾞｻｷｹﾝ","kana_city":"ﾅｶﾞｻｷｼ","kana_address":"ﾌﾙﾐﾁﾏﾁ","pref":"長崎県","city":"長崎市","address":"古道町"},
{"zip_code":"8500945","kana_pref":"ﾅｶﾞｻｷｹﾝ","kana_city":"ﾅｶﾞｻｷｼ","kana_address":"ﾎｼﾄﾘ","pref":"長崎県","city":"長崎市","address":"星取"},
{"zip_code":"8500012","kana_pref":"ﾅｶﾞｻｷｹﾝ","kana_city":"ﾅｶﾞｻｷｼ","kana_address":"ﾎﾝｺﾞｳﾁ","pref":"長崎県","city":"長崎市","address":"本河内"},
{"zip_code":"8500921","kana_pref":"ﾅｶﾞｻｷｹﾝ","kana_city":"ﾅｶﾞｻｷｼ","kana_address":"ﾏﾂｶﾞｴﾏﾁ","pref":"長崎県","city":"長崎市","address":"松が枝町"},
{"zip_code":"8500902","kana_pref":"ﾅｶﾞｻｷｹﾝ","kana_city":"ﾅｶﾞｻｷｼ","kana_address":"ﾏﾙﾔﾏﾏﾁ","pref":"長崎県","city":"長崎市","address":"丸山町"},
{"zip_code":"8500033","kana_pref":"ﾅｶﾞｻｷｹﾝ","kana_city":"ﾅｶﾞｻｷｼ","kana_address":"ﾏﾝｻﾞｲﾏﾁ","pref":"長崎県","city":"長崎市","address":"万才町"},
{"zip_code":"8500061","kana_pref":"ﾅｶﾞｻｷｹﾝ","kana_city":"ﾅｶﾞｻｷｼ","kana_address":"ﾐｽﾞﾉｳﾗﾏﾁ","pref":"長崎県","city":"長崎市","address":"水の浦町"},
{"zip_code":"8500079","kana_pref":"ﾅｶﾞｻｷｹﾝ","kana_city":"ﾅｶﾞｻｷｼ","kana_address":"ﾐﾅﾄｻﾞｶ","pref":"長崎県","city":"長崎市","address":"みなと坂"},
{"zip_code":"8500943","kana_pref":"ﾅｶﾞｻｷｹﾝ","kana_city":"ﾅｶﾞｻｷｼ","kana_address":"ﾐﾅﾐｶﾞｵｶﾏﾁ","pref":"長崎県","city":"長崎市","address":"南が丘町"},
{"zip_code":"8500942","kana_pref":"ﾅｶﾞｻｷｹﾝ","kana_city":"ﾅｶﾞｻｷｼ","kana_address":"ﾐﾅﾐﾏﾁ","pref":"長崎県","city":"長崎市","address":"南町"},
{"zip_code":"8500931","kana_pref":"ﾅｶﾞｻｷｹﾝ","kana_city":"ﾅｶﾞｻｷｼ","kana_address":"ﾐﾅﾐﾔﾏﾃﾏﾁ","pref":"長崎県","city":"長崎市","address":"南山手町"},
{"zip_code":"8500901","kana_pref":"ﾅｶﾞｻｷｹﾝ","kana_city":"ﾅｶﾞｻｷｼ","kana_address":"ﾓﾄｼｯｸｲﾏﾁ","pref":"長崎県","city":"長崎市","address":"本石灰町"},
{"zip_code":"8500035","kana_pref":"ﾅｶﾞｻｷｹﾝ","kana_city":"ﾅｶﾞｻｷｼ","kana_address":"ﾓﾄﾌﾅﾏﾁ","pref":"長崎県","city":"長崎市","address":"元船町"},
{"zip_code":"8500913","kana_pref":"ﾅｶﾞｻｷｹﾝ","kana_city":"ﾅｶﾞｻｷｼ","kana_address":"ﾓﾄﾏﾁ","pref":"長崎県","city":"長崎市","address":"元町"},
{"zip_code":"8500029","kana_pref":"ﾅｶﾞｻｷｹﾝ","kana_city":"ﾅｶﾞｻｷｼ","kana_address":"ﾔｵﾔﾏﾁ","pref":"長崎県","city":"長崎市","address":"八百屋町"},
{"zip_code":"8500043","kana_pref":"ﾅｶﾞｻｷｹﾝ","kana_city":"ﾅｶﾞｻｷｼ","kana_address":"ﾔﾁﾖﾏﾁ","pref":"長崎県","city":"長崎市","address":"八千代町"},
{"zip_code":"8500813","kana_pref":"ﾅｶﾞｻｷｹﾝ","kana_city":"ﾅｶﾞｻｷｼ","kana_address":"ﾔﾂｵﾏﾁ","pref":"長崎県","city":"長崎市","address":"八つ尾町"},
{"zip_code":"8500982","kana_pref":"ﾅｶﾞｻｷｹﾝ","kana_city":"ﾅｶﾞｻｷｼ","kana_address":"ﾔﾅｷﾞﾀﾞﾏﾁ","pref":"長崎県","city":"長崎市","address":"柳田町"},
{"zip_code":"8500811","kana_pref":"ﾅｶﾞｻｷｹﾝ","kana_city":"ﾅｶﾞｻｷｼ","kana_address":"ﾔﾉﾋﾗ","pref":"長崎県","city":"長崎市","address":"矢の平"},
{"zip_code":"8500801","kana_pref":"ﾅｶﾞｻｷｹﾝ","kana_city":"ﾅｶﾞｻｷｼ","kana_address":"ﾔﾊﾀﾏﾁ","pref":"長崎県","city":"長崎市","address":"八幡町"},
{"zip_code":"8500823","kana_pref":"ﾅｶﾞｻｷｹﾝ","kana_city":"ﾅｶﾞｻｷｼ","kana_address":"ﾔﾖｲﾏﾁ","pref":"長崎県","city":"長崎市","address":"弥生町"},
{"zip_code":"8500903","kana_pref":"ﾅｶﾞｻｷｹﾝ","kana_city":"ﾅｶﾞｻｷｼ","kana_address":"ﾖﾘｱｲﾏﾁ","pref":"長崎県","city":"長崎市","address":"寄合町"},
{"zip_code":"8500852","kana_pref":"ﾅｶﾞｻｷｹﾝ","kana_city":"ﾅｶﾞｻｷｼ","kana_address":"ﾖﾛｽﾞﾔﾏﾁ","pref":"長崎県","city":"長崎市","address":"万屋町"},
{"zip_code":"8500021","kana_pref":"ﾅｶﾞｻｷｹﾝ","kana_city":"ﾅｶﾞｻｷｼ","kana_address":"ﾛｶｽﾏﾁ","pref":"長崎県","city":"長崎市","address":"炉粕町"}]}