{"zip_code":[
{"zip_code":"8511122","kana_pref":"ﾅｶﾞｻｷｹﾝ","kana_city":"ﾅｶﾞｻｷｼ","kana_address":"ｱｲｶﾞﾜﾏﾁ","pref":"長崎県","city":"長崎市","address":"相川町"},
{"zip_code":"8512321","kana_pref":"ﾅｶﾞｻｷｹﾝ","kana_city":"ﾅｶﾞｻｷｼ","kana_address":"ｱｶｸﾋﾞﾏﾁ","pref":"長崎県","city":"長崎市","address":"赤首町"},
{"zip_code":"8512212","kana_pref":"ﾅｶﾞｻｷｹﾝ","kana_city":"ﾅｶﾞｻｷｼ","kana_address":"ｱｾﾞｶﾘﾏﾁ","pref":"長崎県","city":"長崎市","address":"畝刈町"},
{"zip_code":"8512201","kana_pref":"ﾅｶﾞｻｷｹﾝ","kana_city":"ﾅｶﾞｻｷｼ","kana_address":"ｱｾﾞﾏﾁ","pref":"長崎県","city":"長崎市","address":"畦町"},
{"zip_code":"8510123","kana_pref":"ﾅｶﾞｻｷｹﾝ","kana_city":"ﾅｶﾞｻｷｼ","kana_address":"ｱﾊﾞﾏﾁ","pref":"長崎県","city":"長崎市","address":"網場町"},
{"zip_code":"8511201","kana_pref":"ﾅｶﾞｻｷｹﾝ","kana_city":"ﾅｶﾞｻｷｼ","kana_address":"ｲｵｳｼﾞﾏﾏﾁ","pref":"長崎県","city":"長崎市","address":"伊王島町"},
{"zip_code":"8510254","kana_pref":"ﾅｶﾞｻｷｹﾝ","kana_city":"ﾅｶﾞｻｷｼ","kana_address":"ｲｶﾉｳﾗﾏﾁ","pref":"長崎県","city":"長崎市","address":"飯香浦町"},
{"zip_code":"8510502","kana_pref":"ﾅｶﾞｻｷｹﾝ","kana_city":"ﾅｶﾞｻｷｼ","kana_address":"ｲｶﾞﾔﾄﾞﾏﾁ","pref":"長崎県","city":"長崎市","address":"以下宿町"},
{"zip_code":"8510135","kana_pref":"ﾅｶﾞｻｷｹﾝ","kana_city":"ﾅｶﾞｻｷｼ","kana_address":"ｳﾂﾂｶﾞﾜﾏﾁ","pref":"長崎県","city":"長崎市","address":"現川町"},
{"zip_code":"8510302","kana_pref":"ﾅｶﾞｻｷｹﾝ","kana_city":"ﾅｶﾞｻｷｼ","kana_address":"ｵｵｺﾞﾓﾘﾏﾁ","pref":"長崎県","city":"長崎市","address":"大籠町"},
{"zip_code":"8510244","kana_pref":"ﾅｶﾞｻｷｹﾝ","kana_city":"ﾅｶﾞｻｷｼ","kana_address":"ｵｵｻｷﾏﾁ","pref":"長崎県","city":"長崎市","address":"大崎町"},
{"zip_code":"8510255","kana_pref":"ﾅｶﾞｻｷｹﾝ","kana_city":"ﾅｶﾞｻｷｼ","kana_address":"ｵｵﾀｵﾏﾁ","pref":"長崎県","city":"長崎市","address":"太田尾町"},
{"zip_code":"8510115","kana_pref":"ﾅｶﾞｻｷｹﾝ","kana_city":"ﾅｶﾞｻｷｼ","kana_address":"ｶｷﾄﾞｳ","pref":"長崎県","city":"長崎市","address":"かき道"},
{"zip_code":"8511134","kana_pref":"ﾅｶﾞｻｷｹﾝ","kana_city":"ﾅｶﾞｻｷｼ","kana_address":"ｶｷﾄﾞﾏﾘﾏﾁ","pref":"長崎県","city":"長崎市","address":"柿泊町"},
{"zip_code":"8512202","kana_pref":"ﾅｶﾞｻｷｹﾝ","kana_city":"ﾅｶﾞｻｷｼ","kana_address":"ｶｼﾔﾏﾏﾁ","pref":"長崎県","city":"長崎市","address":"樫山町"},
{"zip_code":"8510124","kana_pref":"ﾅｶﾞｻｷｹﾝ","kana_city":"ﾅｶﾞｻｷｼ","kana_address":"ｶｽｶﾞﾏﾁ","pref":"長崎県","city":"長崎市","address":"春日町"},
{"zip_code":"8511131","kana_pref":"ﾅｶﾞｻｷｹﾝ","kana_city":"ﾅｶﾞｻｷｼ","kana_address":"ｶﾐｳﾗﾏﾁ","pref":"長崎県","city":"長崎市","address":"上浦町"},
{"zip_code":"8512426","kana_pref":"ﾅｶﾞｻｷｹﾝ","kana_city":"ﾅｶﾞｻｷｼ","kana_address":"ｶﾐｵｵﾉﾏﾁ","pref":"長崎県","city":"長崎市","address":"上大野町"},
{"zip_code":"8512324","kana_pref":"ﾅｶﾞｻｷｹﾝ","kana_city":"ﾅｶﾞｻｷｼ","kana_address":"ｶﾐｸﾛｻｷﾏﾁ","pref":"長崎県","city":"長崎市","address":"上黒崎町"},
{"zip_code":"8510111","kana_pref":"ﾅｶﾞｻｷｹﾝ","kana_city":"ﾅｶﾞｻｷｼ","kana_address":"ｶﾐﾄｲｼﾏﾁ","pref":"長崎県","city":"長崎市","address":"上戸石町"},
{"zip_code":"8510401","kana_pref":"ﾅｶﾞｻｷｹﾝ","kana_city":"ﾅｶﾞｻｷｼ","kana_address":"ｶﾔｷﾏﾁ","pref":"長崎県","city":"長崎市","address":"蚊焼町"},
{"zip_code":"8510112","kana_pref":"ﾅｶﾞｻｷｹﾝ","kana_city":"ﾅｶﾞｻｷｼ","kana_address":"ｶﾜｳﾁﾏﾁ","pref":"長崎県","city":"長崎市","address":"川内町"},
{"zip_code":"8510407","kana_pref":"ﾅｶﾞｻｷｹﾝ","kana_city":"ﾅｶﾞｻｷｼ","kana_address":"ｶﾜﾗﾏﾁ","pref":"長崎県","city":"長崎市","address":"川原町"},
{"zip_code":"8510242","kana_pref":"ﾅｶﾞｻｷｹﾝ","kana_city":"ﾅｶﾞｻｷｼ","kana_address":"ｷﾀｳﾗﾏﾁ","pref":"長崎県","city":"長崎市","address":"北浦町"},
{"zip_code":"8512211","kana_pref":"ﾅｶﾞｻｷｹﾝ","kana_city":"ﾅｶﾞｻｷｼ","kana_address":"ｷｮｳﾄﾞﾏﾘ","pref":"長崎県","city":"長崎市","address":"京泊"},
{"zip_code":"8513214","kana_pref":"ﾅｶﾞｻｷｹﾝ","kana_city":"ﾅｶﾞｻｷｼ","kana_address":"ｷﾝｶｲｵｵﾋﾗﾏﾁ","pref":"長崎県","city":"長崎市","address":"琴海大平町"},
{"zip_code":"8513215","kana_pref":"ﾅｶﾞｻｷｹﾝ","kana_city":"ﾅｶﾞｻｷｼ","kana_address":"ｷﾝｶｲｵﾄﾞﾏﾁ","pref":"長崎県","city":"長崎市","address":"琴海尾戸町"},
{"zip_code":"8513213","kana_pref":"ﾅｶﾞｻｷｹﾝ","kana_city":"ﾅｶﾞｻｷｼ","kana_address":"ｷﾝｶｲｶﾀｶﾞﾐﾏﾁ","pref":"長崎県","city":"長崎市","address":"琴海形上町"},
{"zip_code":"8513211","kana_pref":"ﾅｶﾞｻｷｹﾝ","kana_city":"ﾅｶﾞｻｷｼ","kana_address":"ｷﾝｶｲﾄﾈﾊﾗﾏﾁ","pref":"長崎県","city":"長崎市","address":"琴海戸根原町"},
{"zip_code":"8513103","kana_pref":"ﾅｶﾞｻｷｹﾝ","kana_city":"ﾅｶﾞｻｷｼ","kana_address":"ｷﾝｶｲﾄﾈﾏﾁ","pref":"長崎県","city":"長崎市","address":"琴海戸根町"},
{"zip_code":"8513102","kana_pref":"ﾅｶﾞｻｷｹﾝ","kana_city":"ﾅｶﾞｻｷｼ","kana_address":"ｷﾝｶｲﾑﾗﾏﾂﾏﾁ","pref":"長崎県","city":"長崎市","address":"琴海村松町"},
{"zip_code":"8510501","kana_pref":"ﾅｶﾞｻｷｹﾝ","kana_city":"ﾅｶﾞｻｷｼ","kana_address":"ｸﾛﾊﾏﾏﾁ","pref":"長崎県","city":"長崎市","address":"黒浜町"},
{"zip_code":"8512403","kana_pref":"ﾅｶﾞｻｷｹﾝ","kana_city":"ﾅｶﾞｻｷｼ","kana_address":"ｺｳﾉｳﾗｴｶﾞﾜﾏﾁ","pref":"長崎県","city":"長崎市","address":"神浦江川町"},
{"zip_code":"8512411","kana_pref":"ﾅｶﾞｻｷｹﾝ","kana_city":"ﾅｶﾞｻｷｼ","kana_address":"ｺｳﾉｳﾗｵｵｷﾞﾔﾏﾏﾁ","pref":"長崎県","city":"長崎市","address":"神浦扇山町"},
{"zip_code":"8512422","kana_pref":"ﾅｶﾞｻｷｹﾝ","kana_city":"ﾅｶﾞｻｷｼ","kana_address":"ｺｳﾉｳﾗｶﾐｵｵﾅｶｵﾏﾁ","pref":"長崎県","city":"長崎市","address":"神浦上大中尾町"},
{"zip_code":"8512424","kana_pref":"ﾅｶﾞｻｷｹﾝ","kana_city":"ﾅｶﾞｻｷｼ","kana_address":"ｺｳﾉｳﾗｶﾐﾄﾞｳﾄｸﾏﾁ","pref":"長崎県","city":"長崎市","address":"神浦上道徳町"},
{"zip_code":"8512421","kana_pref":"ﾅｶﾞｻｷｹﾝ","kana_city":"ﾅｶﾞｻｷｼ","kana_address":"ｺｳﾉｳﾗｷﾀｵｵﾅｶｵﾏﾁ","pref":"長崎県","city":"長崎市","address":"神浦北大中尾町"},
{"zip_code":"8512401","kana_pref":"ﾅｶﾞｻｷｹﾝ","kana_city":"ﾅｶﾞｻｷｼ","kana_address":"ｺｳﾉｳﾗｸﾁﾌﾞｸﾏﾁ","pref":"長崎県","city":"長崎市","address":"神浦口福町"},
{"zip_code":"8512423","kana_pref":"ﾅｶﾞｻｷｹﾝ","kana_city":"ﾅｶﾞｻｷｼ","kana_address":"ｺｳﾉｳﾗｼﾓｵｵﾅｶｵﾏﾁ","pref":"長崎県","city":"長崎市","address":"神浦下大中尾町"},
{"zip_code":"8512425","kana_pref":"ﾅｶﾞｻｷｹﾝ","kana_city":"ﾅｶﾞｻｷｼ","kana_address":"ｺｳﾉｳﾗｼﾓﾄﾞｳﾄｸﾏﾁ","pref":"長崎県","city":"長崎市","address":"神浦下道徳町"},
{"zip_code":"8512413","kana_pref":"ﾅｶﾞｻｷｹﾝ","kana_city":"ﾅｶﾞｻｷｼ","kana_address":"ｺｳﾉｳﾗﾅﾂｲﾏﾁ","pref":"長崎県","city":"長崎市","address":"神浦夏井町"},
{"zip_code":"8512404","kana_pref":"ﾅｶﾞｻｷｹﾝ","kana_city":"ﾅｶﾞｻｷｼ","kana_address":"ｺｳﾉｳﾗﾏﾙｵﾏﾁ","pref":"長崎県","city":"長崎市","address":"神浦丸尾町"},
{"zip_code":"8512405","kana_pref":"ﾅｶﾞｻｷｹﾝ","kana_city":"ﾅｶﾞｻｷｼ","kana_address":"ｺｳﾉｳﾗﾑｶｲﾏﾁ","pref":"長崎県","city":"長崎市","address":"神浦向町"},
{"zip_code":"8510310","kana_pref":"ﾅｶﾞｻｷｹﾝ","kana_city":"ﾅｶﾞｻｷｼ","kana_address":"ｺｳﾔｷﾞﾏﾁ","pref":"長崎県","city":"長崎市","address":"香焼町"},
{"zip_code":"8511132","kana_pref":"ﾅｶﾞｻｷｹﾝ","kana_city":"ﾅｶﾞｻｷｼ","kana_address":"ｺｴﾊﾞﾙ","pref":"長崎県","city":"長崎市","address":"小江原"},
{"zip_code":"8511133","kana_pref":"ﾅｶﾞｻｷｹﾝ","kana_city":"ﾅｶﾞｻｷｼ","kana_address":"ｺｴﾏﾁ","pref":"長崎県","city":"長崎市","address":"小江町"},
{"zip_code":"8510101","kana_pref":"ﾅｶﾞｻｷｹﾝ","kana_city":"ﾅｶﾞｻｷｼ","kana_address":"ｺｶﾞﾏﾁ","pref":"長崎県","city":"長崎市","address":"古賀町"},
{"zip_code":"8510122","kana_pref":"ﾅｶﾞｻｷｹﾝ","kana_city":"ﾅｶﾞｻｷｼ","kana_address":"ｻｶｲ","pref":"長崎県","city":"長崎市","address":"界"},
{"zip_code":"8512207","kana_pref":"ﾅｶﾞｻｷｹﾝ","kana_city":"ﾅｶﾞｻｷｼ","kana_address":"ｻｸﾗﾉｻﾄ","pref":"長崎県","city":"長崎市","address":"さくらの里"},
{"zip_code":"8512206","kana_pref":"ﾅｶﾞｻｷｹﾝ","kana_city":"ﾅｶﾞｻｷｼ","kana_address":"ｻﾝｷｮｳﾏﾁ","pref":"長崎県","city":"長崎市","address":"三京町"},
{"zip_code":"8510125","kana_pref":"ﾅｶﾞｻｷｹﾝ","kana_city":"ﾅｶﾞｻｷｼ","kana_address":"ｼｵﾐﾏﾁ","pref":"長崎県","city":"長崎市","address":"潮見町"},
{"zip_code":"8511137","kana_pref":"ﾅｶﾞｻｷｹﾝ","kana_city":"ﾅｶﾞｻｷｼ","kana_address":"ｼｷﾐﾏﾁ","pref":"長崎県","city":"長崎市","address":"式見町"},
{"zip_code":"8512427","kana_pref":"ﾅｶﾞｻｷｹﾝ","kana_city":"ﾅｶﾞｻｷｼ","kana_address":"ｼﾓｵｵﾉﾏﾁ","pref":"長崎県","city":"長崎市","address":"下大野町"},
{"zip_code":"8512326","kana_pref":"ﾅｶﾞｻｷｹﾝ","kana_city":"ﾅｶﾞｻｷｼ","kana_address":"ｼﾓｸﾛｻｷﾏﾁ","pref":"長崎県","city":"長崎市","address":"下黒崎町"},
{"zip_code":"8510121","kana_pref":"ﾅｶﾞｻｷｹﾝ","kana_city":"ﾅｶﾞｻｷｼ","kana_address":"ｼｭｸﾏﾁ","pref":"長崎県","city":"長崎市","address":"宿町"},
{"zip_code":"8512323","kana_pref":"ﾅｶﾞｻｷｹﾝ","kana_city":"ﾅｶﾞｻｷｼ","kana_address":"ｼﾝﾏｷﾉﾏﾁ","pref":"長崎県","city":"長崎市","address":"新牧野町"},
{"zip_code":"8510126","kana_pref":"ﾅｶﾞｻｷｹﾝ","kana_city":"ﾅｶﾞｻｷｼ","kana_address":"ｽｽｷﾂﾞｶﾏﾁ","pref":"長崎県","city":"長崎市","address":"芒塚町"},
{"zip_code":"8511125","kana_pref":"ﾅｶﾞｻｷｹﾝ","kana_city":"ﾅｶﾞｻｷｼ","kana_address":"ｿﾉﾀﾞﾏﾁ","pref":"長崎県","city":"長崎市","address":"園田町"},
{"zip_code":"8512213","kana_pref":"ﾅｶﾞｻｷｹﾝ","kana_city":"ﾅｶﾞｻｷｼ","kana_address":"ﾀｲﾗﾏﾁ","pref":"長崎県","city":"長崎市","address":"多以良町"},
{"zip_code":"8511315","kana_pref":"ﾅｶﾞｻｷｹﾝ","kana_city":"ﾅｶﾞｻｷｼ","kana_address":"ﾀｶｼﾏﾏﾁ","pref":"長崎県","city":"長崎市","address":"高島町"},
{"zip_code":"8510137","kana_pref":"ﾅｶﾞｻｷｹﾝ","kana_city":"ﾅｶﾞｻｷｼ","kana_address":"ﾀｶｼﾛﾀﾞｲ","pref":"長崎県","city":"長崎市","address":"高城台"},
{"zip_code":"8510503","kana_pref":"ﾅｶﾞｻｷｹﾝ","kana_city":"ﾅｶﾞｻｷｼ","kana_address":"ﾀｶﾊﾏﾏﾁ","pref":"長崎県","city":"長崎市","address":"高浜町"},
{"zip_code":"8510251","kana_pref":"ﾅｶﾞｻｷｹﾝ","kana_city":"ﾅｶﾞｻｷｼ","kana_address":"ﾀｶﾞﾐ","pref":"長崎県","city":"長崎市","address":"田上"},
{"zip_code":"8510252","kana_pref":"ﾅｶﾞｻｷｹﾝ","kana_city":"ﾅｶﾞｻｷｼ","kana_address":"ﾀﾃﾞﾜﾗﾏﾁ","pref":"長崎県","city":"長崎市","address":"田手原町"},
{"zip_code":"8510134","kana_pref":"ﾅｶﾞｻｷｹﾝ","kana_city":"ﾅｶﾞｻｷｼ","kana_address":"ﾀﾅｶﾏﾁ","pref":"長崎県","city":"長崎市","address":"田中町"},
{"zip_code":"8510405","kana_pref":"ﾅｶﾞｻｷｹﾝ","kana_city":"ﾅｶﾞｻｷｼ","kana_address":"ﾀﾒｼﾏﾁ","pref":"長崎県","city":"長崎市","address":"為石町"},
{"zip_code":"8510245","kana_pref":"ﾅｶﾞｻｷｹﾝ","kana_city":"ﾅｶﾞｻｷｼ","kana_address":"ﾁﾁﾞﾏﾁ","pref":"長崎県","city":"長崎市","address":"千々町"},
{"zip_code":"8510102","kana_pref":"ﾅｶﾞｻｷｹﾝ","kana_city":"ﾅｶﾞｻｷｼ","kana_address":"ﾂﾂｼﾞｶﾞｵｶ","pref":"長崎県","city":"長崎市","address":"つつじが丘"},
{"zip_code":"8510406","kana_pref":"ﾅｶﾞｻｷｹﾝ","kana_city":"ﾅｶﾞｻｷｼ","kana_address":"ﾂﾊﾞｷｶﾞｵｶﾏﾁ","pref":"長崎県","city":"長崎市","address":"椿が丘町"},
{"zip_code":"8510132","kana_pref":"ﾅｶﾞｻｷｹﾝ","kana_city":"ﾅｶﾞｻｷｼ","kana_address":"ﾂﾙﾉｵﾏﾁ","pref":"長崎県","city":"長崎市","address":"鶴の尾町"},
{"zip_code":"8511135","kana_pref":"ﾅｶﾞｻｷｹﾝ","kana_city":"ﾅｶﾞｻｷｼ","kana_address":"ﾃｸﾞﾏﾏﾁ","pref":"長崎県","city":"長崎市","address":"手熊町"},
{"zip_code":"8510113","kana_pref":"ﾅｶﾞｻｷｹﾝ","kana_city":"ﾅｶﾞｻｷｼ","kana_address":"ﾄｲｼﾏﾁ","pref":"長崎県","city":"長崎市","address":"戸石町"},
{"zip_code":"8510404","kana_pref":"ﾅｶﾞｻｷｹﾝ","kana_city":"ﾅｶﾞｻｷｼ","kana_address":"ﾄｳﾀﾞｵﾏﾁ","pref":"長崎県","city":"長崎市","address":"藤田尾町"},
{"zip_code":"8513212","kana_pref":"ﾅｶﾞｻｷｹﾝ","kana_city":"ﾅｶﾞｻｷｼ","kana_address":"ﾅｶﾞｳﾗﾏﾁ","pref":"長崎県","city":"長崎市","address":"長浦町"},
{"zip_code":"8510103","kana_pref":"ﾅｶﾞｻｷｹﾝ","kana_city":"ﾅｶﾞｻｷｼ","kana_address":"ﾅｶｻﾞﾄﾏﾁ","pref":"長崎県","city":"長崎市","address":"中里町"},
{"zip_code":"8512325","kana_pref":"ﾅｶﾞｻｷｹﾝ","kana_city":"ﾅｶﾞｻｷｼ","kana_address":"ﾅｶﾞﾀﾏﾁ","pref":"長崎県","city":"長崎市","address":"永田町"},
{"zip_code":"8512215","kana_pref":"ﾅｶﾞｻｷｹﾝ","kana_city":"ﾅｶﾞｻｷｼ","kana_address":"ﾅﾙﾐﾀﾞｲ","pref":"長崎県","city":"長崎市","address":"鳴見台"},
{"zip_code":"8512214","kana_pref":"ﾅｶﾞｻｷｹﾝ","kana_city":"ﾅｶﾞｻｷｼ","kana_address":"ﾅﾙﾐﾏﾁ","pref":"長崎県","city":"長崎市","address":"鳴見町"},
{"zip_code":"8510504","kana_pref":"ﾅｶﾞｻｷｹﾝ","kana_city":"ﾅｶﾞｻｷｼ","kana_address":"ﾅﾝｺﾞｼﾏﾁ","pref":"長崎県","city":"長崎市","address":"南越町"},
{"zip_code":"8513101","kana_pref":"ﾅｶﾞｻｷｹﾝ","kana_city":"ﾅｶﾞｻｷｼ","kana_address":"ﾆｼｳﾐﾏﾁ","pref":"長崎県","city":"長崎市","address":"西海町"},
{"zip_code":"8512322","kana_pref":"ﾅｶﾞｻｷｹﾝ","kana_city":"ﾅｶﾞｻｷｼ","kana_address":"ﾆｼｼﾂﾏﾁ","pref":"長崎県","city":"長崎市","address":"西出津町"},
{"zip_code":"8510403","kana_pref":"ﾅｶﾞｻｷｹﾝ","kana_city":"ﾅｶﾞｻｷｼ","kana_address":"ﾇﾉﾏｷﾏﾁ","pref":"長崎県","city":"長崎市","address":"布巻町"},
{"zip_code":"8510507","kana_pref":"ﾅｶﾞｻｷｹﾝ","kana_city":"ﾅｶﾞｻｷｼ","kana_address":"ﾉﾓｻﾞｷｶﾊﾞｼﾏﾏﾁ","pref":"長崎県","city":"長崎市","address":"野母崎樺島町"},
{"zip_code":"8510505","kana_pref":"ﾅｶﾞｻｷｹﾝ","kana_city":"ﾅｶﾞｻｷｼ","kana_address":"ﾉﾓﾏﾁ","pref":"長崎県","city":"長崎市","address":"野母町"},
{"zip_code":"8510253","kana_pref":"ﾅｶﾞｻｷｹﾝ","kana_city":"ﾅｶﾞｻｷｼ","kana_address":"ﾊﾔｻｶﾏﾁ","pref":"長崎県","city":"長崎市","address":"早坂町"},
{"zip_code":"8510402","kana_pref":"ﾅｶﾞｻｷｹﾝ","kana_city":"ﾅｶﾞｻｷｼ","kana_address":"ﾊﾙﾐﾀﾞｲﾏﾁ","pref":"長崎県","city":"長崎市","address":"晴海台町"},
{"zip_code":"8512327","kana_pref":"ﾅｶﾞｻｷｹﾝ","kana_city":"ﾅｶﾞｻｷｼ","kana_address":"ﾋｶﾞｼｼﾂﾏﾁ","pref":"長崎県","city":"長崎市","address":"東出津町"},
{"zip_code":"8510116","kana_pref":"ﾅｶﾞｻｷｹﾝ","kana_city":"ﾅｶﾞｻｷｼ","kana_address":"ﾋｶﾞｼﾏﾁ","pref":"長崎県","city":"長崎市","address":"東町"},
{"zip_code":"8510136","kana_pref":"ﾅｶﾞｻｷｹﾝ","kana_city":"ﾅｶﾞｻｷｼ","kana_address":"ﾋﾗﾏﾏﾁ","pref":"長崎県","city":"長崎市","address":"平間町"},
{"zip_code":"8510301","kana_pref":"ﾅｶﾞｻｷｹﾝ","kana_city":"ﾅｶﾞｻｷｼ","kana_address":"ﾌｶﾎﾘﾏﾁ","pref":"長崎県","city":"長崎市","address":"深堀町"},
{"zip_code":"8510104","kana_pref":"ﾅｶﾞｻｷｹﾝ","kana_city":"ﾅｶﾞｻｷｼ","kana_address":"ﾌﾅｲｼﾏﾁ","pref":"長崎県","city":"長崎市","address":"船石町"},
{"zip_code":"8512216","kana_pref":"ﾅｶﾞｻｷｹﾝ","kana_city":"ﾅｶﾞｻｷｼ","kana_address":"ﾎｳﾖｳﾀﾞｲ","pref":"長崎県","city":"長崎市","address":"豊洋台"},
{"zip_code":"8510114","kana_pref":"ﾅｶﾞｻｷｹﾝ","kana_city":"ﾅｶﾞｻｷｼ","kana_address":"ﾏｷｼﾏﾏﾁ","pref":"長崎県","city":"長崎市","address":"牧島町"},
{"zip_code":"8511124","kana_pref":"ﾅｶﾞｻｷｹﾝ","kana_city":"ﾅｶﾞｻｷｼ","kana_address":"ﾏｷﾉﾏﾁ","pref":"長崎県","city":"長崎市","address":"牧野町"},
{"zip_code":"8512205","kana_pref":"ﾅｶﾞｻｷｹﾝ","kana_city":"ﾅｶﾞｻｷｼ","kana_address":"ﾏﾂｻﾞｷﾏﾁ","pref":"長崎県","city":"長崎市","address":"松崎町"},
{"zip_code":"8510131","kana_pref":"ﾅｶﾞｻｷｹﾝ","kana_city":"ﾅｶﾞｻｷｼ","kana_address":"ﾏﾂﾊﾞﾗﾏﾁ","pref":"長崎県","city":"長崎市","address":"松原町"},
{"zip_code":"8512203","kana_pref":"ﾅｶﾞｻｷｹﾝ","kana_city":"ﾅｶﾞｻｷｼ","kana_address":"ﾐｴﾀﾞﾏﾁ","pref":"長崎県","city":"長崎市","address":"三重田町"},
{"zip_code":"8512204","kana_pref":"ﾅｶﾞｻｷｹﾝ","kana_city":"ﾅｶﾞｻｷｼ","kana_address":"ﾐｴﾏﾁ","pref":"長崎県","city":"長崎市","address":"三重町"},
{"zip_code":"8511121","kana_pref":"ﾅｶﾞｻｷｹﾝ","kana_city":"ﾅｶﾞｻｷｼ","kana_address":"ﾐｻｷﾏﾁ","pref":"長崎県","city":"長崎市","address":"見崎町"},
{"zip_code":"8510408","kana_pref":"ﾅｶﾞｻｷｹﾝ","kana_city":"ﾅｶﾞｻｷｼ","kana_address":"ﾐﾔｻﾞｷﾏﾁ","pref":"長崎県","city":"長崎市","address":"宮崎町"},
{"zip_code":"8510243","kana_pref":"ﾅｶﾞｻｷｹﾝ","kana_city":"ﾅｶﾞｻｷｼ","kana_address":"ﾐﾔｽﾞﾘﾏﾁ","pref":"長崎県","city":"長崎市","address":"宮摺町"},
{"zip_code":"8511136","kana_pref":"ﾅｶﾞｻｷｹﾝ","kana_city":"ﾅｶﾞｻｷｼ","kana_address":"ﾑｶｴﾏﾁ","pref":"長崎県","city":"長崎市","address":"向町"},
{"zip_code":"8510241","kana_pref":"ﾅｶﾞｻｷｹﾝ","kana_city":"ﾅｶﾞｻｷｼ","kana_address":"ﾓｷﾞﾏﾁ","pref":"長崎県","city":"長崎市","address":"茂木町"},
{"zip_code":"8510133","kana_pref":"ﾅｶﾞｻｷｹﾝ","kana_city":"ﾅｶﾞｻｷｼ","kana_address":"ﾔｶﾞﾐﾏﾁ","pref":"長崎県","city":"長崎市","address":"矢上町"},
{"zip_code":"8511123","kana_pref":"ﾅｶﾞｻｷｹﾝ","kana_city":"ﾅｶﾞｻｷｼ","kana_address":"ﾖﾂｴﾏﾁ","pref":"長崎県","city":"長崎市","address":"四杖町"},
{"zip_code":"8510506","kana_pref":"ﾅｶﾞｻｷｹﾝ","kana_city":"ﾅｶﾞｻｷｼ","kana_address":"ﾜｷﾐｻｷﾏﾁ","pref":"長崎県","city":"長崎市","address":"脇岬町"},
{"zip_code":"8513500","kana_pref":"ﾅｶﾞｻｷｹﾝ","kana_city":"ｻｲｶｲｼ","kana_address":"","pref":"長崎県","city":"西海市","address":""},
{"zip_code":"8513507","kana_pref":"ﾅｶﾞｻｷｹﾝ","kana_city":"ｻｲｶｲｼ","kana_address":"ｻｲｶｲﾁｮｳｱﾏｸﾎﾞｺﾞｳ","pref":"長崎県","city":"西海市","address":"西海町天久保郷"},
{"zip_code":"8513503","kana_pref":"ﾅｶﾞｻｷｹﾝ","kana_city":"ｻｲｶｲｼ","kana_address":"ｻｲｶｲﾁｮｳｵｵﾀﾊﾗｺﾞｳ","pref":"長崎県","city":"西海市","address":"西海町太田原郷"},
{"zip_code":"8513505","kana_pref":"ﾅｶﾞｻｷｹﾝ","kana_city":"ｻｲｶｲｼ","kana_address":"ｻｲｶｲﾁｮｳｵｵﾀﾜｺﾞｳ","pref":"長崎県","city":"西海市","address":"西海町太田和郷"},
{"zip_code":"8513508","kana_pref":"ﾅｶﾞｻｷｹﾝ","kana_city":"ｻｲｶｲｼ","kana_address":"ｻｲｶｲﾁｮｳｵﾓﾀﾞｶｺﾞｳ","pref":"長崎県","city":"西海市","address":"西海町面高郷"},
{"zip_code":"8513502","kana_pref":"ﾅｶﾞｻｷｹﾝ","kana_city":"ｻｲｶｲｼ","kana_address":"ｻｲｶｲﾁｮｳｶﾜﾁｺﾞｳ","pref":"長崎県","city":"西海市","address":"西海町川内郷"},
{"zip_code":"8513506","kana_pref":"ﾅｶﾞｻｷｹﾝ","kana_city":"ｻｲｶｲｼ","kana_address":"ｻｲｶｲﾁｮｳｸﾛｸﾁｺﾞｳ","pref":"長崎県","city":"西海市","address":"西海町黒口郷"},
{"zip_code":"8513504","kana_pref":"ﾅｶﾞｻｷｹﾝ","kana_city":"ｻｲｶｲｼ","kana_address":"ｻｲｶｲﾁｮｳｺﾊﾞｺﾞｳ","pref":"長崎県","city":"西海市","address":"西海町木場郷"},
{"zip_code":"8513501","kana_pref":"ﾅｶﾞｻｷｹﾝ","kana_city":"ｻｲｶｲｼ","kana_address":"ｻｲｶｲﾁｮｳﾀﾝﾉｳｺﾞｳ","pref":"長崎県","city":"西海市","address":"西海町丹納郷"},
{"zip_code":"8513511","kana_pref":"ﾅｶﾞｻｷｹﾝ","kana_city":"ｻｲｶｲｼ","kana_address":"ｻｲｶｲﾁｮｳﾐｽﾞﾉｳﾗｺﾞｳ","pref":"長崎県","city":"西海市","address":"西海町水浦郷"},
{"zip_code":"8513509","kana_pref":"ﾅｶﾞｻｷｹﾝ","kana_city":"ｻｲｶｲｼ","kana_address":"ｻｲｶｲﾁｮｳﾖｺｾｺﾞｳ","pref":"長崎県","city":"西海市","address":"西海町横瀬郷"},
{"zip_code":"8513421","kana_pref":"ﾅｶﾞｻｷｹﾝ","kana_city":"ｻｲｶｲｼ","kana_address":"ｾｲﾋﾁｮｳｲﾉｳﾗｺﾞｳ","pref":"長崎県","city":"西海市","address":"西彼町伊ノ浦郷"},
{"zip_code":"8513424","kana_pref":"ﾅｶﾞｻｷｹﾝ","kana_city":"ｻｲｶｲｼ","kana_address":"ｾｲﾋﾁｮｳｵｵｸｼｺﾞｳ","pref":"長崎県","city":"西海市","address":"西彼町大串郷"},
{"zip_code":"8513313","kana_pref":"ﾅｶﾞｻｷｹﾝ","kana_city":"ｻｲｶｲｼ","kana_address":"ｾｲﾋﾁｮｳｶｻﾞﾊﾔｺﾞｳ","pref":"長崎県","city":"西海市","address":"西彼町風早郷"},
{"zip_code":"8513304","kana_pref":"ﾅｶﾞｻｷｹﾝ","kana_city":"ｻｲｶｲｼ","kana_address":"ｾｲﾋﾁｮｳｶﾐﾀﾞｹｺﾞｳ","pref":"長崎県","city":"西海市","address":"西彼町上岳郷"},
{"zip_code":"8513303","kana_pref":"ﾅｶﾞｻｷｹﾝ","kana_city":"ｻｲｶｲｼ","kana_address":"ｾｲﾋﾁｮｳｶﾒｳﾗｺﾞｳ","pref":"長崎県","city":"西海市","address":"西彼町亀浦郷"},
{"zip_code":"8513422","kana_pref":"ﾅｶﾞｻｷｹﾝ","kana_city":"ｻｲｶｲｼ","kana_address":"ｾｲﾋﾁｮｳｺﾑｶｴｺﾞｳ","pref":"長崎県","city":"西海市","address":"西彼町小迎郷"},
{"zip_code":"8513305","kana_pref":"ﾅｶﾞｻｷｹﾝ","kana_city":"ｻｲｶｲｼ","kana_address":"ｾｲﾋﾁｮｳｼﾞｷﾊﾞｺﾞｳ","pref":"長崎県","city":"西海市","address":"西彼町喰場郷"},
{"zip_code":"8513311","kana_pref":"ﾅｶﾞｻｷｹﾝ","kana_city":"ｻｲｶｲｼ","kana_address":"ｾｲﾋﾁｮｳｼﾓﾀｹｺﾞｳ","pref":"長崎県","city":"西海市","address":"西彼町下岳郷"},
{"zip_code":"8513314","kana_pref":"ﾅｶﾞｻｷｹﾝ","kana_city":"ｻｲｶｲｼ","kana_address":"ｾｲﾋﾁｮｳｼﾗﾆﾀｺﾞｳ","pref":"長崎県","city":"西海市","address":"西彼町白似田郷"},
{"zip_code":"8513312","kana_pref":"ﾅｶﾞｻｷｹﾝ","kana_city":"ｻｲｶｲｼ","kana_address":"ｾｲﾋﾁｮｳｼﾛｻｷｺﾞｳ","pref":"長崎県","city":"西海市","address":"西彼町白崎郷"},
{"zip_code":"8513306","kana_pref":"ﾅｶﾞｻｷｹﾝ","kana_city":"ｻｲｶｲｼ","kana_address":"ｾｲﾋﾁｮｳﾄﾘｶｺﾞｳ","pref":"長崎県","city":"西海市","address":"西彼町鳥加郷"},
{"zip_code":"8513406","kana_pref":"ﾅｶﾞｻｷｹﾝ","kana_city":"ｻｲｶｲｼ","kana_address":"ｾｲﾋﾁｮｳﾄﾘｶｺﾞｳ","pref":"長崎県","city":"西海市","address":"西彼町鳥加郷"},
{"zip_code":"8513302","kana_pref":"ﾅｶﾞｻｷｹﾝ","kana_city":"ｻｲｶｲｼ","kana_address":"ｾｲﾋﾁｮｳﾅｶﾔﾏｺﾞｳ","pref":"長崎県","city":"西海市","address":"西彼町中山郷"},
{"zip_code":"8513315","kana_pref":"ﾅｶﾞｻｷｹﾝ","kana_city":"ｻｲｶｲｼ","kana_address":"ｾｲﾋﾁｮｳﾋﾗﾊﾞﾙｺﾞｳ","pref":"長崎県","city":"西海市","address":"西彼町平原郷"},
{"zip_code":"8513425","kana_pref":"ﾅｶﾞｻｷｹﾝ","kana_city":"ｻｲｶｲｼ","kana_address":"ｾｲﾋﾁｮｳﾋﾗﾔﾏｺﾞｳ","pref":"長崎県","city":"西海市","address":"西彼町平山郷"},
{"zip_code":"8513301","kana_pref":"ﾅｶﾞｻｷｹﾝ","kana_city":"ｻｲｶｲｼ","kana_address":"ｾｲﾋﾁｮｳﾐﾔｳﾗｺﾞｳ","pref":"長崎県","city":"西海市","address":"西彼町宮浦郷"},
{"zip_code":"8513423","kana_pref":"ﾅｶﾞｻｷｹﾝ","kana_city":"ｻｲｶｲｼ","kana_address":"ｾｲﾋﾁｮｳﾔｷﾊﾗｺﾞｳ","pref":"長崎県","city":"西海市","address":"西彼町八木原郷"},
{"zip_code":"8512100","kana_pref":"ﾅｶﾞｻｷｹﾝ","kana_city":"ﾆｼｿﾉｷﾞｸﾞﾝﾅｶﾞﾖﾁｮｳ","kana_address":"","pref":"長崎県","city":"西彼杵郡長与町","address":""},
{"zip_code":"8512128","kana_pref":"ﾅｶﾞｻｷｹﾝ","kana_city":"ﾆｼｿﾉｷﾞｸﾞﾝﾅｶﾞﾖﾁｮｳ","kana_address":"ｳﾚﾘｺﾞｳ","pref":"長崎県","city":"西彼杵郡長与町","address":"嬉里郷"},
{"zip_code":"8512121","kana_pref":"ﾅｶﾞｻｷｹﾝ","kana_city":"ﾆｼｿﾉｷﾞｸﾞﾝﾅｶﾞﾖﾁｮｳ","kana_address":"ｵｶｺﾞｳ","pref":"長崎県","city":"西彼杵郡長与町","address":"岡郷"},
{"zip_code":"8512127","kana_pref":"ﾅｶﾞｻｷｹﾝ","kana_city":"ﾆｼｿﾉｷﾞｸﾞﾝﾅｶﾞﾖﾁｮｳ","kana_address":"ｺｳﾀﾞｺﾞｳ","pref":"長崎県","city":"西彼杵郡長与町","address":"高田郷"},
{"zip_code":"8512129","kana_pref":"ﾅｶﾞｻｷｹﾝ","kana_city":"ﾆｼｿﾉｷﾞｸﾞﾝﾅｶﾞﾖﾁｮｳ","kana_address":"ｻｲﾄｳｺﾞｳ","pref":"長崎県","city":"西彼杵郡長与町","address":"斉藤郷"},
{"zip_code":"8512123","kana_pref":"ﾅｶﾞｻｷｹﾝ","kana_city":"ﾆｼｿﾉｷﾞｸﾞﾝﾅｶﾞﾖﾁｮｳ","kana_address":"ﾋﾗｺﾊﾞｺﾞｳ","pref":"長崎県","city":"西彼杵郡長与町","address":"平木場郷"},
{"zip_code":"8512122","kana_pref":"ﾅｶﾞｻｷｹﾝ","kana_city":"ﾆｼｿﾉｷﾞｸﾞﾝﾅｶﾞﾖﾁｮｳ","kana_address":"ﾎﾝｶﾞﾜﾁｺﾞｳ","pref":"長崎県","city":"西彼杵郡長与町","address":"本川内郷"},
{"zip_code":"8512130","kana_pref":"ﾅｶﾞｻｷｹﾝ","kana_city":"ﾆｼｿﾉｷﾞｸﾞﾝﾅｶﾞﾖﾁｮｳ","kana_address":"ﾏﾅﾋﾞﾉ","pref":"長崎県","city":"西彼杵郡長与町","address":"まなび野"},
{"zip_code":"8512124","kana_pref":"ﾅｶﾞｻｷｹﾝ","kana_city":"ﾆｼｿﾉｷﾞｸﾞﾝﾅｶﾞﾖﾁｮｳ","kana_address":"ﾏﾙﾀｺﾞｳ","pref":"長崎県","city":"西彼杵郡長与町","address":"丸田郷"},
{"zip_code":"8512125","kana_pref":"ﾅｶﾞｻｷｹﾝ","kana_city":"ﾆｼｿﾉｷﾞｸﾞﾝﾅｶﾞﾖﾁｮｳ","kana_address":"ﾐﾈｺﾞｳ","pref":"長崎県","city":"西彼杵郡長与町","address":"三根郷"},
{"zip_code":"8512126","kana_pref":"ﾅｶﾞｻｷｹﾝ","kana_city":"ﾆｼｿﾉｷﾞｸﾞﾝﾅｶﾞﾖﾁｮｳ","kana_address":"ﾖｼﾑﾀｺﾞｳ","pref":"長崎県","city":"西彼杵郡長与町","address":"吉無田郷"},
{"zip_code":"8512100","kana_pref":"ﾅｶﾞｻｷｹﾝ","kana_city":"ﾆｼｿﾉｷﾞｸﾞﾝﾄｷﾞﾂﾁｮｳ","kana_address":"","pref":"長崎県","city":"西彼杵郡時津町","address":""},
{"zip_code":"8512105","kana_pref":"ﾅｶﾞｻｷｹﾝ","kana_city":"ﾆｼｿﾉｷﾞｸﾞﾝﾄｷﾞﾂﾁｮｳ","kana_address":"ｳﾗｺﾞｳ","pref":"長崎県","city":"西彼杵郡時津町","address":"浦郷"},
{"zip_code":"8512107","kana_pref":"ﾅｶﾞｻｷｹﾝ","kana_city":"ﾆｼｿﾉｷﾞｸﾞﾝﾄｷﾞﾂﾁｮｳ","kana_address":"ｸﾙﾘｺﾞｳ","pref":"長崎県","city":"西彼杵郡時津町","address":"久留里郷"},
{"zip_code":"8512106","kana_pref":"ﾅｶﾞｻｷｹﾝ","kana_city":"ﾆｼｿﾉｷﾞｸﾞﾝﾄｷﾞﾂﾁｮｳ","kana_address":"ｻｿｺｺﾞｳ","pref":"長崎県","city":"西彼杵郡時津町","address":"左底郷"},
{"zip_code":"8512111","kana_pref":"ﾅｶﾞｻｷｹﾝ","kana_city":"ﾆｼｿﾉｷﾞｸﾞﾝﾄｷﾞﾂﾁｮｳ","kana_address":"ｼｼｶﾞﾜｺﾞｳ","pref":"長崎県","city":"西彼杵郡時津町","address":"子々川郷"},
{"zip_code":"8512101","kana_pref":"ﾅｶﾞｻｷｹﾝ","kana_city":"ﾆｼｿﾉｷﾞｸﾞﾝﾄｷﾞﾂﾁｮｳ","kana_address":"ﾆｼﾄｷﾞﾂｺﾞｳ","pref":"長崎県","city":"西彼杵郡時津町","address":"西時津郷"},
{"zip_code":"8512104","kana_pref":"ﾅｶﾞｻｷｹﾝ","kana_city":"ﾆｼｿﾉｷﾞｸﾞﾝﾄｷﾞﾂﾁｮｳ","kana_address":"ﾉﾀﾞｺﾞｳ","pref":"長崎県","city":"西彼杵郡時津町","address":"野田郷"},
{"zip_code":"8512102","kana_pref":"ﾅｶﾞｻｷｹﾝ","kana_city":"ﾆｼｿﾉｷﾞｸﾞﾝﾄｷﾞﾂﾁｮｳ","kana_address":"ﾊﾏﾀﾞｺﾞｳ","pref":"長崎県","city":"西彼杵郡時津町","address":"浜田郷"},
{"zip_code":"8512108","kana_pref":"ﾅｶﾞｻｷｹﾝ","kana_city":"ﾆｼｿﾉｷﾞｸﾞﾝﾄｷﾞﾂﾁｮｳ","kana_address":"ﾋﾅﾐｺﾞｳ","pref":"長崎県","city":"西彼杵郡時津町","address":"日並郷"},
{"zip_code":"8512103","kana_pref":"ﾅｶﾞｻｷｹﾝ","kana_city":"ﾆｼｿﾉｷﾞｸﾞﾝﾄｷﾞﾂﾁｮｳ","kana_address":"ﾓﾄﾑﾗｺﾞｳ","pref":"長崎県","city":"西彼杵郡時津町","address":"元村郷"}]}