{"zip_code":[
{"zip_code":"8528036","kana_pref":"ﾅｶﾞｻｷｹﾝ","kana_city":"ﾅｶﾞｻｷｼ","kana_address":"ｱｵﾔﾏﾏﾁ","pref":"長崎県","city":"長崎市","address":"青山町"},
{"zip_code":"8528156","kana_pref":"ﾅｶﾞｻｷｹﾝ","kana_city":"ﾅｶﾞｻｷｼ","kana_address":"ｱｶｻｺ","pref":"長崎県","city":"長崎市","address":"赤迫"},
{"zip_code":"8528008","kana_pref":"ﾅｶﾞｻｷｹﾝ","kana_city":"ﾅｶﾞｻｷｼ","kana_address":"ｱｹﾎﾞﾉﾏﾁ","pref":"長崎県","city":"長崎市","address":"曙町"},
{"zip_code":"8528003","kana_pref":"ﾅｶﾞｻｷｹﾝ","kana_city":"ﾅｶﾞｻｷｼ","kana_address":"ｱｻﾋﾏﾁ","pref":"長崎県","city":"長崎市","address":"旭町"},
{"zip_code":"8528141","kana_pref":"ﾅｶﾞｻｷｹﾝ","kana_city":"ﾅｶﾞｻｷｼ","kana_address":"ｱｾﾞﾍﾞﾂﾄｳﾏﾁ","pref":"長崎県","city":"長崎市","address":"畦別当町"},
{"zip_code":"8528035","kana_pref":"ﾅｶﾞｻｷｹﾝ","kana_city":"ﾅｶﾞｻｷｼ","kana_address":"ｱﾌﾞﾗｷﾞﾏﾁ","pref":"長崎県","city":"長崎市","address":"油木町"},
{"zip_code":"8528136","kana_pref":"ﾅｶﾞｻｷｹﾝ","kana_city":"ﾅｶﾞｻｷｼ","kana_address":"ｲｴﾉﾏﾁ","pref":"長崎県","city":"長崎市","address":"家野町"},
{"zip_code":"8528126","kana_pref":"ﾅｶﾞｻｷｹﾝ","kana_city":"ﾅｶﾞｻｷｼ","kana_address":"ｲｼｶﾞﾐﾏﾁ","pref":"長崎県","city":"長崎市","address":"石神町"},
{"zip_code":"8528151","kana_pref":"ﾅｶﾞｻｷｹﾝ","kana_city":"ﾅｶﾞｻｷｼ","kana_address":"ｲｽﾞﾐ","pref":"長崎県","city":"長崎市","address":"泉"},
{"zip_code":"8528157","kana_pref":"ﾅｶﾞｻｷｹﾝ","kana_city":"ﾅｶﾞｻｷｼ","kana_address":"ｲｽﾞﾐﾏﾁ","pref":"長崎県","city":"長崎市","address":"泉町"},
{"zip_code":"8528011","kana_pref":"ﾅｶﾞｻｷｹﾝ","kana_city":"ﾅｶﾞｻｷｼ","kana_address":"ｲﾅｻﾏﾁ","pref":"長崎県","city":"長崎市","address":"稲佐町"},
{"zip_code":"8528106","kana_pref":"ﾅｶﾞｻｷｹﾝ","kana_city":"ﾅｶﾞｻｷｼ","kana_address":"ｲﾜｶﾜﾏﾁ","pref":"長崎県","city":"長崎市","address":"岩川町"},
{"zip_code":"8528017","kana_pref":"ﾅｶﾞｻｷｹﾝ","kana_city":"ﾅｶﾞｻｷｼ","kana_address":"ｲﾜﾐﾏﾁ","pref":"長崎県","city":"長崎市","address":"岩見町"},
{"zip_code":"8528052","kana_pref":"ﾅｶﾞｻｷｹﾝ","kana_city":"ﾅｶﾞｻｷｼ","kana_address":"ｲﾜﾔﾏﾁ","pref":"長崎県","city":"長崎市","address":"岩屋町"},
{"zip_code":"8528113","kana_pref":"ﾅｶﾞｻｷｹﾝ","kana_city":"ﾅｶﾞｻｷｼ","kana_address":"ｳｴﾉﾏﾁ","pref":"長崎県","city":"長崎市","address":"上野町"},
{"zip_code":"8528007","kana_pref":"ﾅｶﾞｻｷｹﾝ","kana_city":"ﾅｶﾞｻｷｼ","kana_address":"ｴﾉｳﾗﾏﾁ","pref":"長崎県","city":"長崎市","address":"江の浦町"},
{"zip_code":"8528101","kana_pref":"ﾅｶﾞｻｷｹﾝ","kana_city":"ﾅｶﾞｻｷｼ","kana_address":"ｴﾋﾞﾗ","pref":"長崎県","city":"長崎市","address":"江平"},
{"zip_code":"8528054","kana_pref":"ﾅｶﾞｻｷｹﾝ","kana_city":"ﾅｶﾞｻｷｼ","kana_address":"ｴﾐﾈﾝﾄﾊﾔﾏﾏﾁ","pref":"長崎県","city":"長崎市","address":"エミネント葉山町"},
{"zip_code":"8528032","kana_pref":"ﾅｶﾞｻｷｹﾝ","kana_city":"ﾅｶﾞｻｷｼ","kana_address":"ｴﾘﾏﾁ","pref":"長崎県","city":"長崎市","address":"江里町"},
{"zip_code":"8528132","kana_pref":"ﾅｶﾞｻｷｹﾝ","kana_city":"ﾅｶﾞｻｷｼ","kana_address":"ｵｳｷﾞﾏﾁ","pref":"長崎県","city":"長崎市","address":"扇町"},
{"zip_code":"8528062","kana_pref":"ﾅｶﾞｻｷｹﾝ","kana_city":"ﾅｶﾞｻｷｼ","kana_address":"ｵｵｿﾞﾉﾏﾁ","pref":"長崎県","city":"長崎市","address":"大園町"},
{"zip_code":"8528127","kana_pref":"ﾅｶﾞｻｷｹﾝ","kana_city":"ﾅｶﾞｻｷｼ","kana_address":"ｵｵﾃ","pref":"長崎県","city":"長崎市","address":"大手"},
{"zip_code":"8528005","kana_pref":"ﾅｶﾞｻｷｹﾝ","kana_city":"ﾅｶﾞｻｷｼ","kana_address":"ｵｵﾄﾘﾏﾁ","pref":"長崎県","city":"長崎市","address":"大鳥町"},
{"zip_code":"8528134","kana_pref":"ﾅｶﾞｻｷｹﾝ","kana_city":"ﾅｶﾞｻｷｼ","kana_address":"ｵｵﾊｼﾏﾁ","pref":"長崎県","city":"長崎市","address":"大橋町"},
{"zip_code":"8528056","kana_pref":"ﾅｶﾞｻｷｹﾝ","kana_city":"ﾅｶﾞｻｷｼ","kana_address":"ｵｵﾐﾔﾏﾁ","pref":"長崎県","city":"長崎市","address":"大宮町"},
{"zip_code":"8528115","kana_pref":"ﾅｶﾞｻｷｹﾝ","kana_city":"ﾅｶﾞｻｷｼ","kana_address":"ｵｶﾏﾁ","pref":"長崎県","city":"長崎市","address":"岡町"},
{"zip_code":"8528044","kana_pref":"ﾅｶﾞｻｷｹﾝ","kana_city":"ﾅｶﾞｻｷｼ","kana_address":"ｵﾄﾅｼﾏﾁ","pref":"長崎県","city":"長崎市","address":"音無町"},
{"zip_code":"8528026","kana_pref":"ﾅｶﾞｻｷｹﾝ","kana_city":"ﾅｶﾞｻｷｼ","kana_address":"ｶﾅﾎﾘﾏﾁ","pref":"長崎県","city":"長崎市","address":"金堀町"},
{"zip_code":"8528108","kana_pref":"ﾅｶﾞｻｷｹﾝ","kana_city":"ﾅｶﾞｻｷｼ","kana_address":"ｶﾜｸﾞﾁﾏﾁ","pref":"長崎県","city":"長崎市","address":"川口町"},
{"zip_code":"8528143","kana_pref":"ﾅｶﾞｻｷｹﾝ","kana_city":"ﾅｶﾞｻｷｼ","kana_address":"ｶﾜﾋﾗﾏﾁ","pref":"長崎県","city":"長崎市","address":"川平町"},
{"zip_code":"8528146","kana_pref":"ﾅｶﾞｻｷｹﾝ","kana_city":"ﾅｶﾞｻｷｼ","kana_address":"ｹﾔｷﾀﾞｲﾏﾁ","pref":"長崎県","city":"長崎市","address":"けやき台町"},
{"zip_code":"8528125","kana_pref":"ﾅｶﾞｻｷｹﾝ","kana_city":"ﾅｶﾞｻｷｼ","kana_address":"ｺﾐﾈﾏﾁ","pref":"長崎県","city":"長崎市","address":"小峰町"},
{"zip_code":"8528102","kana_pref":"ﾅｶﾞｻｷｹﾝ","kana_city":"ﾅｶﾞｻｷｼ","kana_address":"ｻｶﾓﾄ","pref":"長崎県","city":"長崎市","address":"坂本"},
{"zip_code":"8528041","kana_pref":"ﾅｶﾞｻｷｹﾝ","kana_city":"ﾅｶﾞｻｷｼ","kana_address":"ｼﾐｽﾞﾏﾁ","pref":"長崎県","city":"長崎市","address":"清水町"},
{"zip_code":"8528034","kana_pref":"ﾅｶﾞｻｷｹﾝ","kana_city":"ﾅｶﾞｻｷｼ","kana_address":"ｼﾞｮｳｴｲﾏﾁ","pref":"長崎県","city":"長崎市","address":"城栄町"},
{"zip_code":"8528145","kana_pref":"ﾅｶﾞｻｷｹﾝ","kana_city":"ﾅｶﾞｻｷｼ","kana_address":"ｼｮｳﾜ","pref":"長崎県","city":"長崎市","address":"昭和"},
{"zip_code":"8528042","kana_pref":"ﾅｶﾞｻｷｹﾝ","kana_city":"ﾅｶﾞｻｷｼ","kana_address":"ｼﾗﾄﾘﾏﾁ","pref":"長崎県","city":"長崎市","address":"白鳥町"},
{"zip_code":"8528027","kana_pref":"ﾅｶﾞｻｷｹﾝ","kana_city":"ﾅｶﾞｻｷｼ","kana_address":"ｼﾛﾔﾏﾀﾞｲ","pref":"長崎県","city":"長崎市","address":"城山台"},
{"zip_code":"8528021","kana_pref":"ﾅｶﾞｻｷｹﾝ","kana_city":"ﾅｶﾞｻｷｼ","kana_address":"ｼﾛﾔﾏﾏﾁ","pref":"長崎県","city":"長崎市","address":"城山町"},
{"zip_code":"8528152","kana_pref":"ﾅｶﾞｻｷｹﾝ","kana_city":"ﾅｶﾞｻｷｼ","kana_address":"ｽﾐﾖｼﾀﾞｲﾏﾁ","pref":"長崎県","city":"長崎市","address":"住吉台町"},
{"zip_code":"8528154","kana_pref":"ﾅｶﾞｻｷｹﾝ","kana_city":"ﾅｶﾞｻｷｼ","kana_address":"ｽﾐﾖｼﾏﾁ","pref":"長崎県","city":"長崎市","address":"住吉町"},
{"zip_code":"8528111","kana_pref":"ﾅｶﾞｻｷｹﾝ","kana_city":"ﾅｶﾞｻｷｼ","kana_address":"ﾀｶｵﾏﾁ","pref":"長崎県","city":"長崎市","address":"高尾町"},
{"zip_code":"8528014","kana_pref":"ﾅｶﾞｻｷｹﾝ","kana_city":"ﾅｶﾞｻｷｼ","kana_address":"ﾀｹﾉｸﾎﾞﾏﾁ","pref":"長崎県","city":"長崎市","address":"竹の久保町"},
{"zip_code":"8528025","kana_pref":"ﾅｶﾞｻｷｹﾝ","kana_city":"ﾅｶﾞｻｷｼ","kana_address":"ﾀﾃｲﾜﾏﾁ","pref":"長崎県","city":"長崎市","address":"立岩町"},
{"zip_code":"8528135","kana_pref":"ﾅｶﾞｻｷｹﾝ","kana_city":"ﾅｶﾞｻｷｼ","kana_address":"ﾁﾄｾﾏﾁ","pref":"長崎県","city":"長崎市","address":"千歳町"},
{"zip_code":"8528124","kana_pref":"ﾅｶﾞｻｷｹﾝ","kana_city":"ﾅｶﾞｻｷｼ","kana_address":"ﾂｼﾞﾏﾁ","pref":"長崎県","city":"長崎市","address":"辻町"},
{"zip_code":"8528155","kana_pref":"ﾅｶﾞｻｷｹﾝ","kana_city":"ﾅｶﾞｻｷｼ","kana_address":"ﾅｶｿﾞﾉﾏﾁ","pref":"長崎県","city":"長崎市","address":"中園町"},
{"zip_code":"8528061","kana_pref":"ﾅｶﾞｻｷｹﾝ","kana_city":"ﾅｶﾞｻｷｼ","kana_address":"ﾅﾒｼ","pref":"長崎県","city":"長崎市","address":"滑石"},
{"zip_code":"8528055","kana_pref":"ﾅｶﾞｻｷｹﾝ","kana_city":"ﾅｶﾞｻｷｼ","kana_address":"ﾆｼﾞｶﾞｵｶﾏﾁ","pref":"長崎県","city":"長崎市","address":"虹が丘町"},
{"zip_code":"8528051","kana_pref":"ﾅｶﾞｻｷｹﾝ","kana_city":"ﾅｶﾞｻｷｼ","kana_address":"ﾆｼｷﾀﾏﾁ","pref":"長崎県","city":"長崎市","address":"西北町"},
{"zip_code":"8528045","kana_pref":"ﾅｶﾞｻｷｹﾝ","kana_city":"ﾅｶﾞｻｷｼ","kana_address":"ﾆｼｷ","pref":"長崎県","city":"長崎市","address":"錦"},
{"zip_code":"8528043","kana_pref":"ﾅｶﾞｻｷｹﾝ","kana_city":"ﾅｶﾞｻｷｼ","kana_address":"ﾆｼﾏﾁ","pref":"長崎県","city":"長崎市","address":"西町"},
{"zip_code":"8528122","kana_pref":"ﾅｶﾞｻｷｹﾝ","kana_city":"ﾅｶﾞｻｷｼ","kana_address":"ﾆｼﾔﾏﾀﾞｲ","pref":"長崎県","city":"長崎市","address":"西山台"},
{"zip_code":"8528114","kana_pref":"ﾅｶﾞｻｷｹﾝ","kana_city":"ﾅｶﾞｻｷｼ","kana_address":"ﾊｼｸﾞﾁﾏﾁ","pref":"長崎県","city":"長崎市","address":"橋口町"},
{"zip_code":"8528153","kana_pref":"ﾅｶﾞｻｷｹﾝ","kana_city":"ﾅｶﾞｻｷｼ","kana_address":"ﾊﾅｵｶﾏﾁ","pref":"長崎県","city":"長崎市","address":"花丘町"},
{"zip_code":"8528024","kana_pref":"ﾅｶﾞｻｷｹﾝ","kana_city":"ﾅｶﾞｻｷｼ","kana_address":"ﾊﾅｿﾞﾉﾏﾁ","pref":"長崎県","city":"長崎市","address":"花園町"},
{"zip_code":"8528107","kana_pref":"ﾅｶﾞｻｷｹﾝ","kana_city":"ﾅｶﾞｻｷｼ","kana_address":"ﾊﾏｸﾞﾁﾏﾁ","pref":"長崎県","city":"長崎市","address":"浜口町"},
{"zip_code":"8528053","kana_pref":"ﾅｶﾞｻｷｹﾝ","kana_city":"ﾅｶﾞｻｷｼ","kana_address":"ﾊﾔﾏ","pref":"長崎県","city":"長崎市","address":"葉山"},
{"zip_code":"8528015","kana_pref":"ﾅｶﾞｻｷｹﾝ","kana_city":"ﾅｶﾞｻｷｼ","kana_address":"ﾊﾙｷﾏﾁ","pref":"長崎県","city":"長崎市","address":"春木町"},
{"zip_code":"8528001","kana_pref":"ﾅｶﾞｻｷｹﾝ","kana_city":"ﾅｶﾞｻｷｼ","kana_address":"ﾋｶﾘﾏﾁ","pref":"長崎県","city":"長崎市","address":"光町"},
{"zip_code":"8528006","kana_pref":"ﾅｶﾞｻｷｹﾝ","kana_city":"ﾅｶﾞｻｷｼ","kana_address":"ﾋﾗﾄﾞｺﾞﾔﾏﾁ","pref":"長崎県","city":"長崎市","address":"平戸小屋町"},
{"zip_code":"8528117","kana_pref":"ﾅｶﾞｻｷｹﾝ","kana_city":"ﾅｶﾞｻｷｼ","kana_address":"ﾋﾗﾉﾏﾁ","pref":"長崎県","city":"長崎市","address":"平野町"},
{"zip_code":"8528022","kana_pref":"ﾅｶﾞｻｷｹﾝ","kana_city":"ﾅｶﾞｻｷｼ","kana_address":"ﾌｼﾞﾐﾏﾁ","pref":"長崎県","city":"長崎市","address":"富士見町"},
{"zip_code":"8528012","kana_pref":"ﾅｶﾞｻｷｹﾝ","kana_city":"ﾅｶﾞｻｷｼ","kana_address":"ﾌﾁﾏﾁ","pref":"長崎県","city":"長崎市","address":"淵町"},
{"zip_code":"8528131","kana_pref":"ﾅｶﾞｻｷｹﾝ","kana_city":"ﾅｶﾞｻｷｼ","kana_address":"ﾌﾞﾝｷｮｳﾏﾁ","pref":"長崎県","city":"長崎市","address":"文教町"},
{"zip_code":"8528116","kana_pref":"ﾅｶﾞｻｷｹﾝ","kana_city":"ﾅｶﾞｻｷｼ","kana_address":"ﾍｲﾜﾏﾁ","pref":"長崎県","city":"長崎市","address":"平和町"},
{"zip_code":"8528002","kana_pref":"ﾅｶﾞｻｷｹﾝ","kana_city":"ﾅｶﾞｻｷｼ","kana_address":"ﾍﾞﾝﾃﾝﾏﾁ","pref":"長崎県","city":"長崎市","address":"弁天町"},
{"zip_code":"8528016","kana_pref":"ﾅｶﾞｻｷｹﾝ","kana_city":"ﾅｶﾞｻｷｼ","kana_address":"ﾎｳｴｲﾏﾁ","pref":"長崎県","city":"長崎市","address":"宝栄町"},
{"zip_code":"8528063","kana_pref":"ﾅｶﾞｻｷｹﾝ","kana_city":"ﾅｶﾞｻｷｼ","kana_address":"ﾎｸｴｲﾏﾁ","pref":"長崎県","city":"長崎市","address":"北栄町"},
{"zip_code":"8528064","kana_pref":"ﾅｶﾞｻｷｹﾝ","kana_city":"ﾅｶﾞｻｷｼ","kana_address":"ﾎｸﾖｳﾏﾁ","pref":"長崎県","city":"長崎市","address":"北陽町"},
{"zip_code":"8528118","kana_pref":"ﾅｶﾞｻｷｹﾝ","kana_city":"ﾅｶﾞｻｷｼ","kana_address":"ﾏﾂﾔﾏﾏﾁ","pref":"長崎県","city":"長崎市","address":"松山町"},
{"zip_code":"8528004","kana_pref":"ﾅｶﾞｻｷｹﾝ","kana_city":"ﾅｶﾞｻｷｼ","kana_address":"ﾏﾙｵﾏﾁ","pref":"長崎県","city":"長崎市","address":"丸尾町"},
{"zip_code":"8528121","kana_pref":"ﾅｶﾞｻｷｹﾝ","kana_city":"ﾅｶﾞｻｷｼ","kana_address":"ﾐｶﾜﾏﾁ","pref":"長崎県","city":"長崎市","address":"三川町"},
{"zip_code":"8528142","kana_pref":"ﾅｶﾞｻｷｹﾝ","kana_city":"ﾅｶﾞｻｷｼ","kana_address":"ﾐﾂﾔﾏﾏﾁ","pref":"長崎県","city":"長崎市","address":"三ツ山町"},
{"zip_code":"8528033","kana_pref":"ﾅｶﾞｻｷｹﾝ","kana_city":"ﾅｶﾞｻｷｼ","kana_address":"ﾐﾄﾞﾘｶﾞｵｶﾏﾁ","pref":"長崎県","city":"長崎市","address":"緑が丘町"},
{"zip_code":"8528103","kana_pref":"ﾅｶﾞｻｷｹﾝ","kana_city":"ﾅｶﾞｻｷｼ","kana_address":"ﾐﾄﾞﾘﾏﾁ","pref":"長崎県","city":"長崎市","address":"緑町"},
{"zip_code":"8528123","kana_pref":"ﾅｶﾞｻｷｹﾝ","kana_city":"ﾅｶﾞｻｷｼ","kana_address":"ﾐﾊﾗ","pref":"長崎県","city":"長崎市","address":"三原"},
{"zip_code":"8528031","kana_pref":"ﾅｶﾞｻｷｹﾝ","kana_city":"ﾅｶﾞｻｷｼ","kana_address":"ﾐﾖｼﾏﾁ","pref":"長崎県","city":"長崎市","address":"三芳町"},
{"zip_code":"8528105","kana_pref":"ﾅｶﾞｻｷｹﾝ","kana_city":"ﾅｶﾞｻｷｼ","kana_address":"ﾒｻﾞﾒﾏﾁ","pref":"長崎県","city":"長崎市","address":"目覚町"},
{"zip_code":"8528144","kana_pref":"ﾅｶﾞｻｷｹﾝ","kana_city":"ﾅｶﾞｻｷｼ","kana_address":"ﾒﾉﾄ","pref":"長崎県","city":"長崎市","address":"女の都"},
{"zip_code":"8528112","kana_pref":"ﾅｶﾞｻｷｹﾝ","kana_city":"ﾅｶﾞｻｷｼ","kana_address":"ﾓﾄｵﾏﾁ","pref":"長崎県","city":"長崎市","address":"本尾町"},
{"zip_code":"8528133","kana_pref":"ﾅｶﾞｻｷｹﾝ","kana_city":"ﾅｶﾞｻｷｼ","kana_address":"ﾓﾄﾊﾗﾏﾁ","pref":"長崎県","city":"長崎市","address":"本原町"},
{"zip_code":"8528104","kana_pref":"ﾅｶﾞｻｷｹﾝ","kana_city":"ﾅｶﾞｻｷｼ","kana_address":"ﾓﾘﾏﾁ","pref":"長崎県","city":"長崎市","address":"茂里町"},
{"zip_code":"8528013","kana_pref":"ﾅｶﾞｻｷｹﾝ","kana_city":"ﾅｶﾞｻｷｼ","kana_address":"ﾔﾅｶﾞﾜﾏﾁ","pref":"長崎県","city":"長崎市","address":"梁川町"},
{"zip_code":"8528046","kana_pref":"ﾅｶﾞｻｷｹﾝ","kana_city":"ﾅｶﾞｻｷｼ","kana_address":"ﾔﾅｷﾞﾀﾞﾆﾏﾁ","pref":"長崎県","city":"長崎市","address":"柳谷町"},
{"zip_code":"8528065","kana_pref":"ﾅｶﾞｻｷｹﾝ","kana_city":"ﾅｶﾞｻｷｼ","kana_address":"ﾖｺｵ","pref":"長崎県","city":"長崎市","address":"横尾"},
{"zip_code":"8528023","kana_pref":"ﾅｶﾞｻｷｹﾝ","kana_city":"ﾅｶﾞｻｷｼ","kana_address":"ﾜｶｸｻﾏﾁ","pref":"長崎県","city":"長崎市","address":"若草町"},
{"zip_code":"8528047","kana_pref":"ﾅｶﾞｻｷｹﾝ","kana_city":"ﾅｶﾞｻｷｼ","kana_address":"ﾜｶﾀｹﾏﾁ","pref":"長崎県","city":"長崎市","address":"若竹町"},
{"zip_code":"8528137","kana_pref":"ﾅｶﾞｻｷｹﾝ","kana_city":"ﾅｶﾞｻｷｼ","kana_address":"ﾜｶﾊﾞﾏﾁ","pref":"長崎県","city":"長崎市","address":"若葉町"}]}