{"zip_code":[
{"zip_code":"8530000","kana_pref":"ﾅｶﾞｻｷｹﾝ","kana_city":"ｺﾞﾄｳｼ","kana_address":"","pref":"長崎県","city":"五島市","address":""},
{"zip_code":"8530062","kana_pref":"ﾅｶﾞｻｷｹﾝ","kana_city":"ｺﾞﾄｳｼ","kana_address":"ｱｶｼﾏﾁｮｳ","pref":"長崎県","city":"五島市","address":"赤島町"},
{"zip_code":"8530018","kana_pref":"ﾅｶﾞｻｷｹﾝ","kana_city":"ｺﾞﾄｳｼ","kana_address":"ｲｹﾀﾞﾏﾁ","pref":"長崎県","city":"五島市","address":"池田町"},
{"zip_code":"8532174","kana_pref":"ﾅｶﾞｻｷｹﾝ","kana_city":"ｺﾞﾄｳｼ","kana_address":"ｲﾉｷﾁｮｳ","pref":"長崎県","city":"五島市","address":"猪之木町"},
{"zip_code":"8532481","kana_pref":"ﾅｶﾞｻｷｹﾝ","kana_city":"ｺﾞﾄｳｼ","kana_address":"ｲﾌｷﾁｮｳ","pref":"長崎県","city":"五島市","address":"伊福貴町"},
{"zip_code":"8530006","kana_pref":"ﾅｶﾞｻｷｹﾝ","kana_city":"ｺﾞﾄｳｼ","kana_address":"ｴｶﾞﾜﾏﾁ","pref":"長崎県","city":"五島市","address":"江川町"},
{"zip_code":"8530061","kana_pref":"ﾅｶﾞｻｷｹﾝ","kana_city":"ｺﾞﾄｳｼ","kana_address":"ｵｳｼﾏﾁｮｳ","pref":"長崎県","city":"五島市","address":"黄島町"},
{"zip_code":"8530032","kana_pref":"ﾅｶﾞｻｷｹﾝ","kana_city":"ｺﾞﾄｳｼ","kana_address":"ｵｵｱﾚﾁｮｳ","pref":"長崎県","city":"五島市","address":"大荒町"},
{"zip_code":"8530053","kana_pref":"ﾅｶﾞｻｷｹﾝ","kana_city":"ｺﾞﾄｳｼ","kana_address":"ｵｸｳﾗﾁｮｳ","pref":"長崎県","city":"五島市","address":"奥浦町"},
{"zip_code":"8530025","kana_pref":"ﾅｶﾞｻｷｹﾝ","kana_city":"ｺﾞﾄｳｼ","kana_address":"ｵﾄﾞﾏﾘﾁｮｳ","pref":"長崎県","city":"五島市","address":"小泊町"},
{"zip_code":"8530013","kana_pref":"ﾅｶﾞｻｷｹﾝ","kana_city":"ｺﾞﾄｳｼ","kana_address":"ｶﾐｵｵﾂﾞﾁｮｳ","pref":"長崎県","city":"五島市","address":"上大津町"},
{"zip_code":"8530023","kana_pref":"ﾅｶﾞｻｷｹﾝ","kana_city":"ｺﾞﾄｳｼ","kana_address":"ｶﾐｻｷﾔﾏﾁｮｳ","pref":"長崎県","city":"五島市","address":"上崎山町"},
{"zip_code":"8530702","kana_pref":"ﾅｶﾞｻｷｹﾝ","kana_city":"ｺﾞﾄｳｼ","kana_address":"ｷｼｸﾏﾁｶﾜﾗ","pref":"長崎県","city":"五島市","address":"岐宿町川原"},
{"zip_code":"8530701","kana_pref":"ﾅｶﾞｻｷｹﾝ","kana_city":"ｺﾞﾄｳｼ","kana_address":"ｷｼｸﾏﾁｷｼｸ","pref":"長崎県","city":"五島市","address":"岐宿町岐宿"},
{"zip_code":"8530703","kana_pref":"ﾅｶﾞｻｷｹﾝ","kana_city":"ｺﾞﾄｳｼ","kana_address":"ｷｼｸﾏﾁｸｽﾊﾗ","pref":"長崎県","city":"五島市","address":"岐宿町楠原"},
{"zip_code":"8530704","kana_pref":"ﾅｶﾞｻｷｹﾝ","kana_city":"ｺﾞﾄｳｼ","kana_address":"ｷｼｸﾏﾁｺｳﾑ","pref":"長崎県","city":"五島市","address":"岐宿町河務"},
{"zip_code":"8530706","kana_pref":"ﾅｶﾞｻｷｹﾝ","kana_city":"ｺﾞﾄｳｼ","kana_address":"ｷｼｸﾏﾁﾄｳｾﾝﾉｳﾗ","pref":"長崎県","city":"五島市","address":"岐宿町唐船ノ浦"},
{"zip_code":"8530705","kana_pref":"ﾅｶﾞｻｷｹﾝ","kana_city":"ｺﾞﾄｳｼ","kana_address":"ｷｼｸﾏﾁﾄｷﾞﾉｸﾋﾞ","pref":"長崎県","city":"五島市","address":"岐宿町戸岐ノ首"},
{"zip_code":"8530312","kana_pref":"ﾅｶﾞｻｷｹﾝ","kana_city":"ｺﾞﾄｳｼ","kana_address":"ｷｼｸﾏﾁﾅｶﾀﾞｹ","pref":"長崎県","city":"五島市","address":"岐宿町中嶽"},
{"zip_code":"8530311","kana_pref":"ﾅｶﾞｻｷｹﾝ","kana_city":"ｺﾞﾄｳｼ","kana_address":"ｷｼｸﾏﾁﾆﾎﾝｸﾞｽ","pref":"長崎県","city":"五島市","address":"岐宿町二本楠"},
{"zip_code":"8530313","kana_pref":"ﾅｶﾞｻｷｹﾝ","kana_city":"ｺﾞﾄｳｼ","kana_address":"ｷｼｸﾏﾁﾏﾂﾔﾏ","pref":"長崎県","city":"五島市","address":"岐宿町松山"},
{"zip_code":"8530043","kana_pref":"ﾅｶﾞｻｷｹﾝ","kana_city":"ｺﾞﾄｳｼ","kana_address":"ｺｳﾀﾞﾁｮｳ","pref":"長崎県","city":"五島市","address":"高田町"},
{"zip_code":"8530033","kana_pref":"ﾅｶﾞｻｷｹﾝ","kana_city":"ｺﾞﾄｳｼ","kana_address":"ｺﾊﾞﾁｮｳ","pref":"長崎県","city":"五島市","address":"木場町"},
{"zip_code":"8530041","kana_pref":"ﾅｶﾞｻｷｹﾝ","kana_city":"ｺﾞﾄｳｼ","kana_address":"ｺﾓﾘﾌﾞﾁﾁｮｳ","pref":"長崎県","city":"五島市","address":"籠淵町"},
{"zip_code":"8530016","kana_pref":"ﾅｶﾞｻｷｹﾝ","kana_city":"ｺﾞﾄｳｼ","kana_address":"ｺﾝﾔﾏﾁ","pref":"長崎県","city":"五島市","address":"紺屋町"},
{"zip_code":"8530004","kana_pref":"ﾅｶﾞｻｷｹﾝ","kana_city":"ｺﾞﾄｳｼ","kana_address":"ｻｲﾜｲﾏﾁ","pref":"長崎県","city":"五島市","address":"幸町"},
{"zip_code":"8530001","kana_pref":"ﾅｶﾞｻｷｹﾝ","kana_city":"ｺﾞﾄｳｼ","kana_address":"ｻｶｴﾏﾁ","pref":"長崎県","city":"五島市","address":"栄町"},
{"zip_code":"8530065","kana_pref":"ﾅｶﾞｻｷｹﾝ","kana_city":"ｺﾞﾄｳｼ","kana_address":"ｻｶﾉｳｴ","pref":"長崎県","city":"五島市","address":"坂の上"},
{"zip_code":"8530011","kana_pref":"ﾅｶﾞｻｷｹﾝ","kana_city":"ｺﾞﾄｳｼ","kana_address":"ｼﾓｵｵﾂﾞﾁｮｳ","pref":"長崎県","city":"五島市","address":"下大津町"},
{"zip_code":"8530021","kana_pref":"ﾅｶﾞｻｷｹﾝ","kana_city":"ｺﾞﾄｳｼ","kana_address":"ｼﾓｻｷﾔﾏﾁｮｳ","pref":"長崎県","city":"五島市","address":"下崎山町"},
{"zip_code":"8530063","kana_pref":"ﾅｶﾞｻｷｹﾝ","kana_city":"ｺﾞﾄｳｼ","kana_address":"ｼﾝﾐﾅﾄﾏﾁ","pref":"長崎県","city":"五島市","address":"新港町"},
{"zip_code":"8530005","kana_pref":"ﾅｶﾞｻｷｹﾝ","kana_city":"ｺﾞﾄｳｼ","kana_address":"ｽｴﾋﾛﾏﾁ","pref":"長崎県","city":"五島市","address":"末広町"},
{"zip_code":"8530066","kana_pref":"ﾅｶﾞｻｷｹﾝ","kana_city":"ｺﾞﾄｳｼ","kana_address":"ﾀﾞｲｴﾝｼﾞﾁｮｳ","pref":"長崎県","city":"五島市","address":"大円寺町"},
{"zip_code":"8532173","kana_pref":"ﾅｶﾞｻｷｹﾝ","kana_city":"ｺﾞﾄｳｼ","kana_address":"ﾀﾉｳﾗﾁｮｳ","pref":"長崎県","city":"五島市","address":"田ノ浦町"},
{"zip_code":"8530501","kana_pref":"ﾅｶﾞｻｷｹﾝ","kana_city":"ｺﾞﾄｳｼ","kana_address":"ﾀﾏﾉｳﾗﾏﾁｱﾗｶﾜ","pref":"長崎県","city":"五島市","address":"玉之浦町荒川"},
{"zip_code":"8530502","kana_pref":"ﾅｶﾞｻｷｹﾝ","kana_city":"ｺﾞﾄｳｼ","kana_address":"ﾀﾏﾉｳﾗﾏﾁｲﾂｸﾔﾏ","pref":"長崎県","city":"五島市","address":"玉之浦町幾久山"},
{"zip_code":"8530503","kana_pref":"ﾅｶﾞｻｷｹﾝ","kana_city":"ｺﾞﾄｳｼ","kana_address":"ﾀﾏﾉｳﾗﾏﾁｵｶﾞﾜ","pref":"長崎県","city":"五島市","address":"玉之浦町小川"},
{"zip_code":"8530506","kana_pref":"ﾅｶﾞｻｷｹﾝ","kana_city":"ｺﾞﾄｳｼ","kana_address":"ﾀﾏﾉｳﾗﾏﾁｶﾐﾉﾋﾗ","pref":"長崎県","city":"五島市","address":"玉之浦町上の平"},
{"zip_code":"8530413","kana_pref":"ﾅｶﾞｻｷｹﾝ","kana_city":"ｺﾞﾄｳｼ","kana_address":"ﾀﾏﾉｳﾗﾏﾁﾀﾞｲﾎｳ","pref":"長崎県","city":"五島市","address":"玉之浦町大宝"},
{"zip_code":"8530412","kana_pref":"ﾅｶﾞｻｷｹﾝ","kana_city":"ｺﾞﾄｳｼ","kana_address":"ﾀﾏﾉｳﾗﾏﾁﾀﾁﾔ","pref":"長崎県","city":"五島市","address":"玉之浦町立谷"},
{"zip_code":"8530411","kana_pref":"ﾅｶﾞｻｷｹﾝ","kana_city":"ｺﾞﾄｳｼ","kana_address":"ﾀﾏﾉｳﾗﾏﾁﾀﾏﾉｳﾗ","pref":"長崎県","city":"五島市","address":"玉之浦町玉之浦"},
{"zip_code":"8530504","kana_pref":"ﾅｶﾞｻｷｹﾝ","kana_city":"ｺﾞﾄｳｼ","kana_address":"ﾀﾏﾉｳﾗﾏﾁﾀﾝﾅ","pref":"長崎県","city":"五島市","address":"玉之浦町丹奈"},
{"zip_code":"8530507","kana_pref":"ﾅｶﾞｻｷｹﾝ","kana_city":"ｺﾞﾄｳｼ","kana_address":"ﾀﾏﾉｳﾗﾏﾁﾄﾝﾄﾏﾘ","pref":"長崎県","city":"五島市","address":"玉之浦町頓泊"},
{"zip_code":"8530505","kana_pref":"ﾅｶﾞｻｷｹﾝ","kana_city":"ｺﾞﾄｳｼ","kana_address":"ﾀﾏﾉｳﾗﾏﾁﾅｶｽ","pref":"長崎県","city":"五島市","address":"玉之浦町中須"},
{"zip_code":"8530508","kana_pref":"ﾅｶﾞｻｷｹﾝ","kana_city":"ｺﾞﾄｳｼ","kana_address":"ﾀﾏﾉｳﾗﾏﾁﾇﾉｳﾗ","pref":"長崎県","city":"五島市","address":"玉之浦町布浦"},
{"zip_code":"8530002","kana_pref":"ﾅｶﾞｻｷｹﾝ","kana_city":"ｺﾞﾄｳｼ","kana_address":"ﾁｭｳｵｳﾏﾁ","pref":"長崎県","city":"五島市","address":"中央町"},
{"zip_code":"8530044","kana_pref":"ﾅｶﾞｻｷｹﾝ","kana_city":"ｺﾞﾄｳｼ","kana_address":"ﾂﾂﾐﾁｮｳ","pref":"長崎県","city":"五島市","address":"堤町"},
{"zip_code":"8530054","kana_pref":"ﾅｶﾞｻｷｹﾝ","kana_city":"ｺﾞﾄｳｼ","kana_address":"ﾄｷﾞﾁｮｳ","pref":"長崎県","city":"五島市","address":"戸岐町"},
{"zip_code":"8530205","kana_pref":"ﾅｶﾞｻｷｹﾝ","kana_city":"ｺﾞﾄｳｼ","kana_address":"ﾄﾐｴﾏﾁｶﾘﾀﾃ","pref":"長崎県","city":"五島市","address":"富江町狩立"},
{"zip_code":"8530208","kana_pref":"ﾅｶﾞｻｷｹﾝ","kana_city":"ｺﾞﾄｳｼ","kana_address":"ﾄﾐｴﾏﾁｸﾛｼﾏ","pref":"長崎県","city":"五島市","address":"富江町黒島"},
{"zip_code":"8530211","kana_pref":"ﾅｶﾞｻｷｹﾝ","kana_city":"ｺﾞﾄｳｼ","kana_address":"ﾄﾐｴﾏﾁｸﾛｾ","pref":"長崎県","city":"五島市","address":"富江町黒瀬"},
{"zip_code":"8530204","kana_pref":"ﾅｶﾞｻｷｹﾝ","kana_city":"ｺﾞﾄｳｼ","kana_address":"ﾄﾐｴﾏﾁｼｹﾞｼﾞｷ","pref":"長崎県","city":"五島市","address":"富江町繁敷"},
{"zip_code":"8530215","kana_pref":"ﾅｶﾞｻｷｹﾝ","kana_city":"ｺﾞﾄｳｼ","kana_address":"ﾄﾐｴﾏﾁｼｮｸﾆﾝ","pref":"長崎県","city":"五島市","address":"富江町職人"},
{"zip_code":"8530203","kana_pref":"ﾅｶﾞｻｷｹﾝ","kana_city":"ｺﾞﾄｳｼ","kana_address":"ﾄﾐｴﾏﾁﾀｵ","pref":"長崎県","city":"五島市","address":"富江町田尾"},
{"zip_code":"8530213","kana_pref":"ﾅｶﾞｻｷｹﾝ","kana_city":"ｺﾞﾄｳｼ","kana_address":"ﾄﾐｴﾏﾁﾀｹ","pref":"長崎県","city":"五島市","address":"富江町岳"},
{"zip_code":"8530214","kana_pref":"ﾅｶﾞｻｷｹﾝ","kana_city":"ｺﾞﾄｳｼ","kana_address":"ﾄﾐｴﾏﾁﾂﾁﾄﾘ","pref":"長崎県","city":"五島市","address":"富江町土取"},
{"zip_code":"8530201","kana_pref":"ﾅｶﾞｻｷｹﾝ","kana_city":"ｺﾞﾄｳｼ","kana_address":"ﾄﾐｴﾏﾁﾄﾐｴ","pref":"長崎県","city":"五島市","address":"富江町富江"},
{"zip_code":"8530207","kana_pref":"ﾅｶﾞｻｷｹﾝ","kana_city":"ｺﾞﾄｳｼ","kana_address":"ﾄﾐｴﾏﾁﾅｶﾞﾐﾈ","pref":"長崎県","city":"五島市","address":"富江町長峰"},
{"zip_code":"8530202","kana_pref":"ﾅｶﾞｻｷｹﾝ","kana_city":"ｺﾞﾄｳｼ","kana_address":"ﾄﾐｴﾏﾁﾏﾂｵ","pref":"長崎県","city":"五島市","address":"富江町松尾"},
{"zip_code":"8530212","kana_pref":"ﾅｶﾞｻｷｹﾝ","kana_city":"ｺﾞﾄｳｼ","kana_address":"ﾄﾐｴﾏﾁﾔﾏｼﾀ","pref":"長崎県","city":"五島市","address":"富江町山下"},
{"zip_code":"8530206","kana_pref":"ﾅｶﾞｻｷｹﾝ","kana_city":"ｺﾞﾄｳｼ","kana_address":"ﾄﾐｴﾏﾁﾔﾏﾃ","pref":"長崎県","city":"五島市","address":"富江町山手"},
{"zip_code":"8530012","kana_pref":"ﾅｶﾞｻｷｹﾝ","kana_city":"ｺﾞﾄｳｼ","kana_address":"ﾅｶﾞﾃﾁｮｳ","pref":"長崎県","city":"五島市","address":"長手町"},
{"zip_code":"8532201","kana_pref":"ﾅｶﾞｻｷｹﾝ","kana_city":"ｺﾞﾄｳｼ","kana_address":"ﾅﾙﾏﾁｳﾗ","pref":"長崎県","city":"五島市","address":"奈留町浦"},
{"zip_code":"8532202","kana_pref":"ﾅｶﾞｻｷｹﾝ","kana_city":"ｺﾞﾄｳｼ","kana_address":"ﾅﾙﾏﾁｵｵｸｼ","pref":"長崎県","city":"五島市","address":"奈留町大串"},
{"zip_code":"8532203","kana_pref":"ﾅｶﾞｻｷｹﾝ","kana_city":"ｺﾞﾄｳｼ","kana_address":"ﾅﾙﾏﾁﾄﾏﾘ","pref":"長崎県","city":"五島市","address":"奈留町泊"},
{"zip_code":"8532204","kana_pref":"ﾅｶﾞｻｷｹﾝ","kana_city":"ｺﾞﾄｳｼ","kana_address":"ﾅﾙﾏﾁﾌﾅﾏﾜﾘ","pref":"長崎県","city":"五島市","address":"奈留町船廻"},
{"zip_code":"8530003","kana_pref":"ﾅｶﾞｻｷｹﾝ","kana_city":"ｺﾞﾄｳｼ","kana_address":"ﾆｼｷﾏﾁ","pref":"長崎県","city":"五島市","address":"錦町"},
{"zip_code":"8530024","kana_pref":"ﾅｶﾞｻｷｹﾝ","kana_city":"ｺﾞﾄｳｼ","kana_address":"ﾉﾉｷﾚﾁｮｳ","pref":"長崎県","city":"五島市","address":"野々切町"},
{"zip_code":"8530026","kana_pref":"ﾅｶﾞｻｷｹﾝ","kana_city":"ｺﾞﾄｳｼ","kana_address":"ﾊﾏﾁｮｳ","pref":"長崎県","city":"五島市","address":"浜町"},
{"zip_code":"8530015","kana_pref":"ﾅｶﾞｻｷｹﾝ","kana_city":"ｺﾞﾄｳｼ","kana_address":"ﾋｶﾞｼﾊﾏﾏﾁ","pref":"長崎県","city":"五島市","address":"東浜町"},
{"zip_code":"8532171","kana_pref":"ﾅｶﾞｻｷｹﾝ","kana_city":"ｺﾞﾄｳｼ","kana_address":"ﾋｻｶﾁｮｳ","pref":"長崎県","city":"五島市","address":"久賀町"},
{"zip_code":"8530051","kana_pref":"ﾅｶﾞｻｷｹﾝ","kana_city":"ｺﾞﾄｳｼ","kana_address":"ﾋﾗｿﾞｳﾁｮｳ","pref":"長崎県","city":"五島市","address":"平蔵町"},
{"zip_code":"8530007","kana_pref":"ﾅｶﾞｻｷｹﾝ","kana_city":"ｺﾞﾄｳｼ","kana_address":"ﾌｸｴﾁｮｳ","pref":"長崎県","city":"五島市","address":"福江町"},
{"zip_code":"8530017","kana_pref":"ﾅｶﾞｻｷｹﾝ","kana_city":"ｺﾞﾄｳｼ","kana_address":"ﾌﾞｹﾔｼｷ","pref":"長崎県","city":"五島市","address":"武家屋敷"},
{"zip_code":"8530027","kana_pref":"ﾅｶﾞｻｷｹﾝ","kana_city":"ｺﾞﾄｳｼ","kana_address":"ﾏｽﾀﾞﾁｮｳ","pref":"長崎県","city":"五島市","address":"増田町"},
{"zip_code":"8530052","kana_pref":"ﾅｶﾞｻｷｹﾝ","kana_city":"ｺﾞﾄｳｼ","kana_address":"ﾏﾂﾔﾏﾁｮｳ","pref":"長崎県","city":"五島市","address":"松山町"},
{"zip_code":"8530606","kana_pref":"ﾅｶﾞｻｷｹﾝ","kana_city":"ｺﾞﾄｳｼ","kana_address":"ﾐｲﾗｸﾏﾁｳｼﾉｳﾗ","pref":"長崎県","city":"五島市","address":"三井楽町丑ノ浦"},
{"zip_code":"8530602","kana_pref":"ﾅｶﾞｻｷｹﾝ","kana_city":"ｺﾞﾄｳｼ","kana_address":"ﾐｲﾗｸﾏﾁｵｵｶﾜ","pref":"長崎県","city":"五島市","address":"三井楽町大川"},
{"zip_code":"8530604","kana_pref":"ﾅｶﾞｻｷｹﾝ","kana_city":"ｺﾞﾄｳｼ","kana_address":"ﾐｲﾗｸﾏﾁｶｲﾂ","pref":"長崎県","city":"五島市","address":"三井楽町貝津"},
{"zip_code":"8530603","kana_pref":"ﾅｶﾞｻｷｹﾝ","kana_city":"ｺﾞﾄｳｼ","kana_address":"ﾐｲﾗｸﾏﾁｶｼﾜ","pref":"長崎県","city":"五島市","address":"三井楽町柏"},
{"zip_code":"8530611","kana_pref":"ﾅｶﾞｻｷｹﾝ","kana_city":"ｺﾞﾄｳｼ","kana_address":"ﾐｲﾗｸﾏﾁｻｶﾞﾉｼﾏ","pref":"長崎県","city":"五島市","address":"三井楽町嵯峨島"},
{"zip_code":"8530613","kana_pref":"ﾅｶﾞｻｷｹﾝ","kana_city":"ｺﾞﾄｳｼ","kana_address":"ﾐｲﾗｸﾏﾁｼｵﾐｽﾞ","pref":"長崎県","city":"五島市","address":"三井楽町塩水"},
{"zip_code":"8530612","kana_pref":"ﾅｶﾞｻｷｹﾝ","kana_city":"ｺﾞﾄｳｼ","kana_address":"ﾐｲﾗｸﾏﾁﾀｶｻｷ","pref":"長崎県","city":"五島市","address":"三井楽町高崎"},
{"zip_code":"8530607","kana_pref":"ﾅｶﾞｻｷｹﾝ","kana_city":"ｺﾞﾄｳｼ","kana_address":"ﾐｲﾗｸﾏﾁﾀｹ","pref":"長崎県","city":"五島市","address":"三井楽町嶽"},
{"zip_code":"8530608","kana_pref":"ﾅｶﾞｻｷｹﾝ","kana_city":"ｺﾞﾄｳｼ","kana_address":"ﾐｲﾗｸﾏﾁﾊｻﾏ","pref":"長崎県","city":"五島市","address":"三井楽町波砂間"},
{"zip_code":"8530605","kana_pref":"ﾅｶﾞｻｷｹﾝ","kana_city":"ｺﾞﾄｳｼ","kana_address":"ﾐｲﾗｸﾏﾁﾊﾏｻｺ","pref":"長崎県","city":"五島市","address":"三井楽町濱窄"},
{"zip_code":"8530601","kana_pref":"ﾅｶﾞｻｷｹﾝ","kana_city":"ｺﾞﾄｳｼ","kana_address":"ﾐｲﾗｸﾏﾁﾊﾏﾉｸﾘ","pref":"長崎県","city":"五島市","address":"三井楽町濱ノ畔"},
{"zip_code":"8530609","kana_pref":"ﾅｶﾞｻｷｹﾝ","kana_city":"ｺﾞﾄｳｼ","kana_address":"ﾐｲﾗｸﾏﾁﾌﾁﾉﾓﾄ","pref":"長崎県","city":"五島市","address":"三井楽町渕ノ元"},
{"zip_code":"8530064","kana_pref":"ﾅｶﾞｻｷｹﾝ","kana_city":"ｺﾞﾄｳｼ","kana_address":"ﾐｵﾉ","pref":"長崎県","city":"五島市","address":"三尾野"},
{"zip_code":"8530014","kana_pref":"ﾅｶﾞｻｷｹﾝ","kana_city":"ｺﾞﾄｳｼ","kana_address":"ﾐｵﾉﾁｮｳ","pref":"長崎県","city":"五島市","address":"三尾野町"},
{"zip_code":"8530022","kana_pref":"ﾅｶﾞｻｷｹﾝ","kana_city":"ｺﾞﾄｳｼ","kana_address":"ﾑｶｴﾁｮｳ","pref":"長崎県","city":"五島市","address":"向町"},
{"zip_code":"8532482","kana_pref":"ﾅｶﾞｻｷｹﾝ","kana_city":"ｺﾞﾄｳｼ","kana_address":"ﾓﾄｶﾞﾏﾁｮｳ","pref":"長崎県","city":"五島市","address":"本窯町"},
{"zip_code":"8530031","kana_pref":"ﾅｶﾞｻｷｹﾝ","kana_city":"ｺﾞﾄｳｼ","kana_address":"ﾖｼｸｷﾞﾁｮｳ","pref":"長崎県","city":"五島市","address":"吉久木町"},
{"zip_code":"8530042","kana_pref":"ﾅｶﾞｻｷｹﾝ","kana_city":"ｺﾞﾄｳｼ","kana_address":"ﾖｼﾀﾞﾁｮｳ","pref":"長崎県","city":"五島市","address":"吉田町"},
{"zip_code":"8532172","kana_pref":"ﾅｶﾞｻｷｹﾝ","kana_city":"ｺﾞﾄｳｼ","kana_address":"ﾜﾗﾋﾞﾁｮｳ","pref":"長崎県","city":"五島市","address":"蕨町"},
{"zip_code":"8533322","kana_pref":"ﾅｶﾞｻｷｹﾝ","kana_city":"ﾐﾅﾐﾏﾂｳﾗｸﾞﾝｼﾝｶﾐｺﾞﾄｳﾁｮｳ","kana_address":"ｱｾﾞﾂｺﾞｳ","pref":"長崎県","city":"南松浦郡新上五島町","address":"阿瀬津郷"},
{"zip_code":"8532304","kana_pref":"ﾅｶﾞｻｷｹﾝ","kana_city":"ﾐﾅﾐﾏﾂｳﾗｸﾞﾝｼﾝｶﾐｺﾞﾄｳﾁｮｳ","kana_address":"ｱﾗｶﾜｺﾞｳ","pref":"長崎県","city":"南松浦郡新上五島町","address":"荒川郷"},
{"zip_code":"8532313","kana_pref":"ﾅｶﾞｻｷｹﾝ","kana_city":"ﾐﾅﾐﾏﾂｳﾗｸﾞﾝｼﾝｶﾐｺﾞﾄｳﾁｮｳ","kana_address":"ｱﾘﾌｸｺﾞｳ","pref":"長崎県","city":"南松浦郡新上五島町","address":"有福郷"},
{"zip_code":"8533102","kana_pref":"ﾅｶﾞｻｷｹﾝ","kana_city":"ﾐﾅﾐﾏﾂｳﾗｸﾞﾝｼﾝｶﾐｺﾞﾄｳﾁｮｳ","kana_address":"ｲﾜｾｳﾗｺﾞｳ","pref":"長崎県","city":"南松浦郡新上五島町","address":"岩瀬浦郷"},
{"zip_code":"8532302","kana_pref":"ﾅｶﾞｻｷｹﾝ","kana_city":"ﾐﾅﾐﾏﾂｳﾗｸﾞﾝｼﾝｶﾐｺﾞﾄｳﾁｮｳ","kana_address":"ｷﾘﾌﾙｻﾄｺﾞｳ","pref":"長崎県","city":"南松浦郡新上五島町","address":"桐古里郷"},
{"zip_code":"8532311","kana_pref":"ﾅｶﾞｻｷｹﾝ","kana_city":"ﾐﾅﾐﾏﾂｳﾗｸﾞﾝｼﾝｶﾐｺﾞﾄｳﾁｮｳ","kana_address":"ｻｶｷﾉｳﾗｺﾞｳ","pref":"長崎県","city":"南松浦郡新上五島町","address":"榊ノ浦郷"},
{"zip_code":"8532303","kana_pref":"ﾅｶﾞｻｷｹﾝ","kana_city":"ﾐﾅﾐﾏﾂｳﾗｸﾞﾝｼﾝｶﾐｺﾞﾄｳﾁｮｳ","kana_address":"ｼｭｸﾉｳﾗｺﾞｳ","pref":"長崎県","city":"南松浦郡新上五島町","address":"宿ノ浦郷"},
{"zip_code":"8533321","kana_pref":"ﾅｶﾞｻｷｹﾝ","kana_city":"ﾐﾅﾐﾏﾂｳﾗｸﾞﾝｼﾝｶﾐｺﾞﾄｳﾁｮｳ","kana_address":"ﾀｲﾉｳﾗｺﾞｳ","pref":"長崎県","city":"南松浦郡新上五島町","address":"鯛ノ浦郷"},
{"zip_code":"8533101","kana_pref":"ﾅｶﾞｻｷｹﾝ","kana_city":"ﾐﾅﾐﾏﾂｳﾗｸﾞﾝｼﾝｶﾐｺﾞﾄｳﾁｮｳ","kana_address":"ﾅﾗｵｺﾞｳ","pref":"長崎県","city":"南松浦郡新上五島町","address":"奈良尾郷"},
{"zip_code":"8532305","kana_pref":"ﾅｶﾞｻｷｹﾝ","kana_city":"ﾐﾅﾐﾏﾂｳﾗｸﾞﾝｼﾝｶﾐｺﾞﾄｳﾁｮｳ","kana_address":"ﾆｼｺｳﾉｳﾗｺﾞｳ","pref":"長崎県","city":"南松浦郡新上五島町","address":"西神ノ浦郷"},
{"zip_code":"8533323","kana_pref":"ﾅｶﾞｻｷｹﾝ","kana_city":"ﾐﾅﾐﾏﾂｳﾗｸﾞﾝｼﾝｶﾐｺﾞﾄｳﾁｮｳ","kana_address":"ﾋｶﾞｼｺｳﾉｳﾗｺﾞｳ","pref":"長崎県","city":"南松浦郡新上五島町","address":"東神ノ浦郷"},
{"zip_code":"8532312","kana_pref":"ﾅｶﾞｻｷｹﾝ","kana_city":"ﾐﾅﾐﾏﾂｳﾗｸﾞﾝｼﾝｶﾐｺﾞﾄｳﾁｮｳ","kana_address":"ﾋﾉｼﾏｺﾞｳ","pref":"長崎県","city":"南松浦郡新上五島町","address":"日島郷"},
{"zip_code":"8532315","kana_pref":"ﾅｶﾞｻｷｹﾝ","kana_city":"ﾐﾅﾐﾏﾂｳﾗｸﾞﾝｼﾝｶﾐｺﾞﾄｳﾁｮｳ","kana_address":"ﾏﾌﾞｼｺﾞｳ","pref":"長崎県","city":"南松浦郡新上五島町","address":"間伏郷"},
{"zip_code":"8532314","kana_pref":"ﾅｶﾞｻｷｹﾝ","kana_city":"ﾐﾅﾐﾏﾂｳﾗｸﾞﾝｼﾝｶﾐｺﾞﾄｳﾁｮｳ","kana_address":"ﾘｮｳｾｳﾗｺﾞｳ","pref":"長崎県","city":"南松浦郡新上五島町","address":"漁生浦郷"},
{"zip_code":"8532301","kana_pref":"ﾅｶﾞｻｷｹﾝ","kana_city":"ﾐﾅﾐﾏﾂｳﾗｸﾞﾝｼﾝｶﾐｺﾞﾄｳﾁｮｳ","kana_address":"ﾜｶﾏﾂｺﾞｳ","pref":"長崎県","city":"南松浦郡新上五島町","address":"若松郷"}]}