{"zip_code":[
{"zip_code":"8540000","kana_pref":"ﾅｶﾞｻｷｹﾝ","kana_city":"ｲｻﾊﾔｼ","kana_address":"","pref":"長崎県","city":"諫早市","address":""},
{"zip_code":"8540068","kana_pref":"ﾅｶﾞｻｷｹﾝ","kana_city":"ｲｻﾊﾔｼ","kana_address":"ｱｵﾊﾞﾀﾞｲ","pref":"長崎県","city":"諫早市","address":"青葉台"},
{"zip_code":"8540032","kana_pref":"ﾅｶﾞｻｷｹﾝ","kana_city":"ｲｻﾊﾔｼ","kana_address":"ｱｶｻｷﾏﾁ","pref":"長崎県","city":"諫早市","address":"赤崎町"},
{"zip_code":"8540027","kana_pref":"ﾅｶﾞｻｷｹﾝ","kana_city":"ｲｻﾊﾔｼ","kana_address":"ｱｻﾋﾏﾁ","pref":"長崎県","city":"諫早市","address":"旭町"},
{"zip_code":"8541125","kana_pref":"ﾅｶﾞｻｷｹﾝ","kana_city":"ｲｻﾊﾔｼ","kana_address":"ｲｲﾓﾘﾁｮｳｲｹｼﾓ","pref":"長崎県","city":"諫早市","address":"飯盛町池下"},
{"zip_code":"8541104","kana_pref":"ﾅｶﾞｻｷｹﾝ","kana_city":"ｲｻﾊﾔｼ","kana_address":"ｲｲﾓﾘﾁｮｳｳｴﾊﾗ","pref":"長崎県","city":"諫早市","address":"飯盛町上原"},
{"zip_code":"8541105","kana_pref":"ﾅｶﾞｻｷｹﾝ","kana_city":"ｲｻﾊﾔｼ","kana_address":"ｲｲﾓﾘﾁｮｳｳｼﾛﾀﾞ","pref":"長崎県","city":"諫早市","address":"飯盛町後田"},
{"zip_code":"8541124","kana_pref":"ﾅｶﾞｻｷｹﾝ","kana_city":"ｲｻﾊﾔｼ","kana_address":"ｲｲﾓﾘﾁｮｳｶﾜｼﾓ","pref":"長崎県","city":"諫早市","address":"飯盛町川下"},
{"zip_code":"8541114","kana_pref":"ﾅｶﾞｻｷｹﾝ","kana_city":"ｲｻﾊﾔｼ","kana_address":"ｲｲﾓﾘﾁｮｳｸﾎﾞ","pref":"長崎県","city":"諫早市","address":"飯盛町久保"},
{"zip_code":"8541121","kana_pref":"ﾅｶﾞｻｷｹﾝ","kana_city":"ｲｻﾊﾔｼ","kana_address":"ｲｲﾓﾘﾁｮｳｺﾊﾞ","pref":"長崎県","city":"諫早市","address":"飯盛町古場"},
{"zip_code":"8541122","kana_pref":"ﾅｶﾞｻｷｹﾝ","kana_city":"ｲｻﾊﾔｼ","kana_address":"ｲｲﾓﾘﾁｮｳｻﾀﾞ","pref":"長崎県","city":"諫早市","address":"飯盛町佐田"},
{"zip_code":"8541123","kana_pref":"ﾅｶﾞｻｷｹﾝ","kana_city":"ｲｻﾊﾔｼ","kana_address":"ｲｲﾓﾘﾁｮｳｻﾄ","pref":"長崎県","city":"諫早市","address":"飯盛町里"},
{"zip_code":"8541113","kana_pref":"ﾅｶﾞｻｷｹﾝ","kana_city":"ｲｻﾊﾔｼ","kana_address":"ｲｲﾓﾘﾁｮｳｼﾓｶﾞﾏ","pref":"長崎県","city":"諫早市","address":"飯盛町下釜"},
{"zip_code":"8541103","kana_pref":"ﾅｶﾞｻｷｹﾝ","kana_city":"ｲｻﾊﾔｼ","kana_address":"ｲｲﾓﾘﾁｮｳﾅｶﾔﾏ","pref":"長崎県","city":"諫早市","address":"飯盛町中山"},
{"zip_code":"8541101","kana_pref":"ﾅｶﾞｻｷｹﾝ","kana_city":"ｲｻﾊﾔｼ","kana_address":"ｲｲﾓﾘﾁｮｳﾉﾅｶ","pref":"長崎県","city":"諫早市","address":"飯盛町野中"},
{"zip_code":"8541112","kana_pref":"ﾅｶﾞｻｷｹﾝ","kana_city":"ｲｻﾊﾔｼ","kana_address":"ｲｲﾓﾘﾁｮｳﾋﾗｷ","pref":"長崎県","city":"諫早市","address":"飯盛町開"},
{"zip_code":"8541111","kana_pref":"ﾅｶﾞｻｷｹﾝ","kana_city":"ｲｻﾊﾔｼ","kana_address":"ｲｲﾓﾘﾁｮｳﾋﾗｺﾊﾞ","pref":"長崎県","city":"諫早市","address":"飯盛町平古場"},
{"zip_code":"8541102","kana_pref":"ﾅｶﾞｻｷｹﾝ","kana_city":"ｲｻﾊﾔｼ","kana_address":"ｲｲﾓﾘﾁｮｳﾔﾏｸﾞﾁ","pref":"長崎県","city":"諫早市","address":"飯盛町山口"},
{"zip_code":"8540003","kana_pref":"ﾅｶﾞｻｷｹﾝ","kana_city":"ｲｻﾊﾔｼ","kana_address":"ｲｽﾞﾐﾁｮｳ","pref":"長崎県","city":"諫早市","address":"泉町"},
{"zip_code":"8540042","kana_pref":"ﾅｶﾞｻｷｹﾝ","kana_city":"ｲｻﾊﾔｼ","kana_address":"ｳｴﾉﾏﾁ","pref":"長崎県","city":"諫早市","address":"上野町"},
{"zip_code":"8540121","kana_pref":"ﾅｶﾞｻｷｹﾝ","kana_city":"ｲｻﾊﾔｼ","kana_address":"ｳｷﾏﾁ","pref":"長崎県","city":"諫早市","address":"有喜町"},
{"zip_code":"8540061","kana_pref":"ﾅｶﾞｻｷｹﾝ","kana_city":"ｲｻﾊﾔｼ","kana_address":"ｳﾂﾞﾏﾁ","pref":"長崎県","city":"諫早市","address":"宇都町"},
{"zip_code":"8540071","kana_pref":"ﾅｶﾞｻｷｹﾝ","kana_city":"ｲｻﾊﾔｼ","kana_address":"ｴｲｼｮｳﾋｶﾞｼﾏﾁ","pref":"長崎県","city":"諫早市","address":"永昌東町"},
{"zip_code":"8540072","kana_pref":"ﾅｶﾞｻｷｹﾝ","kana_city":"ｲｻﾊﾔｼ","kana_address":"ｴｲｼｮｳﾏﾁ","pref":"長崎県","city":"諫早市","address":"永昌町"},
{"zip_code":"8540081","kana_pref":"ﾅｶﾞｻｷｹﾝ","kana_city":"ｲｻﾊﾔｼ","kana_address":"ｴｲﾀﾞﾏﾁ","pref":"長崎県","city":"諫早市","address":"栄田町"},
{"zip_code":"8540087","kana_pref":"ﾅｶﾞｻｷｹﾝ","kana_city":"ｲｻﾊﾔｼ","kana_address":"ｵｵｻｺﾏﾁ","pref":"長崎県","city":"諫早市","address":"大さこ町"},
{"zip_code":"8540053","kana_pref":"ﾅｶﾞｻｷｹﾝ","kana_city":"ｲｻﾊﾔｼ","kana_address":"ｵｶﾞﾜﾏﾁ","pref":"長崎県","city":"諫早市","address":"小川町"},
{"zip_code":"8540031","kana_pref":"ﾅｶﾞｻｷｹﾝ","kana_city":"ｲｻﾊﾔｼ","kana_address":"ｵﾉｼﾞﾏﾏﾁ","pref":"長崎県","city":"諫早市","address":"小野島町"},
{"zip_code":"8540034","kana_pref":"ﾅｶﾞｻｷｹﾝ","kana_city":"ｲｻﾊﾔｼ","kana_address":"ｵﾉﾏﾁ","pref":"長崎県","city":"諫早市","address":"小野町"},
{"zip_code":"8540062","kana_pref":"ﾅｶﾞｻｷｹﾝ","kana_city":"ｲｻﾊﾔｼ","kana_address":"ｵﾌﾞﾅｺｼﾏﾁ","pref":"長崎県","city":"諫早市","address":"小船越町"},
{"zip_code":"8540063","kana_pref":"ﾅｶﾞｻｷｹﾝ","kana_city":"ｲｻﾊﾔｼ","kana_address":"ｶｲﾂﾞﾏﾁ","pref":"長崎県","city":"諫早市","address":"貝津町"},
{"zip_code":"8540004","kana_pref":"ﾅｶﾞｻｷｹﾝ","kana_city":"ｲｻﾊﾔｼ","kana_address":"ｶﾅﾔﾏﾁ","pref":"長崎県","city":"諫早市","address":"金谷町"},
{"zip_code":"8540095","kana_pref":"ﾅｶﾞｻｷｹﾝ","kana_city":"ｲｻﾊﾔｼ","kana_address":"ｶﾐｵｵﾜﾀﾉﾏﾁ","pref":"長崎県","city":"諫早市","address":"上大渡野町"},
{"zip_code":"8540024","kana_pref":"ﾅｶﾞｻｷｹﾝ","kana_city":"ｲｻﾊﾔｼ","kana_address":"ｶﾐﾏﾁ","pref":"長崎県","city":"諫早市","address":"上町"},
{"zip_code":"8540037","kana_pref":"ﾅｶﾞｻｷｹﾝ","kana_city":"ｲｻﾊﾔｼ","kana_address":"ｶﾜﾁﾏﾁ","pref":"長崎県","city":"諫早市","address":"川内町"},
{"zip_code":"8540052","kana_pref":"ﾅｶﾞｻｷｹﾝ","kana_city":"ｲｻﾊﾔｼ","kana_address":"ｶﾜﾄｺﾏﾁ","pref":"長崎県","city":"諫早市","address":"川床町"},
{"zip_code":"8540067","kana_pref":"ﾅｶﾞｻｷｹﾝ","kana_city":"ｲｻﾊﾔｼ","kana_address":"ｸﾔﾏﾀﾞｲ","pref":"長崎県","city":"諫早市","address":"久山台"},
{"zip_code":"8540066","kana_pref":"ﾅｶﾞｻｷｹﾝ","kana_city":"ｲｻﾊﾔｼ","kana_address":"ｸﾔﾏﾏﾁ","pref":"長崎県","city":"諫早市","address":"久山町"},
{"zip_code":"8540055","kana_pref":"ﾅｶﾞｻｷｹﾝ","kana_city":"ｲｻﾊﾔｼ","kana_address":"ｸﾚﾓﾏﾁ","pref":"長崎県","city":"諫早市","address":"栗面町"},
{"zip_code":"8540033","kana_pref":"ﾅｶﾞｻｷｹﾝ","kana_city":"ｲｻﾊﾔｼ","kana_address":"ｸﾛｻｷﾏﾁ","pref":"長崎県","city":"諫早市","address":"黒崎町"},
{"zip_code":"8540023","kana_pref":"ﾅｶﾞｻｷｹﾝ","kana_city":"ｲｻﾊﾔｼ","kana_address":"ｺｳｾｲﾏﾁ","pref":"長崎県","city":"諫早市","address":"厚生町"},
{"zip_code":"8540054","kana_pref":"ﾅｶﾞｻｷｹﾝ","kana_city":"ｲｻﾊﾔｼ","kana_address":"ｺｶﾞｸﾗﾏﾁ","pref":"長崎県","city":"諫早市","address":"小ケ倉町"},
{"zip_code":"8540022","kana_pref":"ﾅｶﾞｻｷｹﾝ","kana_city":"ｲｻﾊﾔｼ","kana_address":"ｻｲﾜｲﾏﾁ","pref":"長崎県","city":"諫早市","address":"幸町"},
{"zip_code":"8540013","kana_pref":"ﾅｶﾞｻｷｹﾝ","kana_city":"ｲｻﾊﾔｼ","kana_address":"ｻｶｴﾏﾁ","pref":"長崎県","city":"諫早市","address":"栄町"},
{"zip_code":"8540096","kana_pref":"ﾅｶﾞｻｷｹﾝ","kana_city":"ｲｻﾊﾔｼ","kana_address":"ｼﾓｵｵﾜﾀﾉﾏﾁ","pref":"長崎県","city":"諫早市","address":"下大渡野町"},
{"zip_code":"8540077","kana_pref":"ﾅｶﾞｻｷｹﾝ","kana_city":"ｲｻﾊﾔｼ","kana_address":"ｼﾗｲﾜﾏﾁ","pref":"長崎県","city":"諫早市","address":"白岩町"},
{"zip_code":"8540005","kana_pref":"ﾅｶﾞｻｷｹﾝ","kana_city":"ｲｻﾊﾔｼ","kana_address":"ｼﾛﾐﾏﾁ","pref":"長崎県","city":"諫早市","address":"城見町"},
{"zip_code":"8540045","kana_pref":"ﾅｶﾞｻｷｹﾝ","kana_city":"ｲｻﾊﾔｼ","kana_address":"ｼﾝﾐﾁﾏﾁ","pref":"長崎県","city":"諫早市","address":"新道町"},
{"zip_code":"8540016","kana_pref":"ﾅｶﾞｻｷｹﾝ","kana_city":"ｲｻﾊﾔｼ","kana_address":"ﾀｶｼﾛﾏﾁ","pref":"長崎県","city":"諫早市","address":"高城町"},
{"zip_code":"8540043","kana_pref":"ﾅｶﾞｻｷｹﾝ","kana_city":"ｲｻﾊﾔｼ","kana_address":"ﾀﾃｲｼﾏﾁ","pref":"長崎県","city":"諫早市","address":"立石町"},
{"zip_code":"8540038","kana_pref":"ﾅｶﾞｻｷｹﾝ","kana_city":"ｲｻﾊﾔｼ","kana_address":"ﾁｭｳｵｳｶﾝﾀｸ","pref":"長崎県","city":"諫早市","address":"中央干拓"},
{"zip_code":"8540065","kana_pref":"ﾅｶﾞｻｷｹﾝ","kana_city":"ｲｻﾊﾔｼ","kana_address":"ﾂｸﾊﾞﾏﾁ","pref":"長崎県","city":"諫早市","address":"津久葉町"},
{"zip_code":"8540083","kana_pref":"ﾅｶﾞｻｷｹﾝ","kana_city":"ｲｻﾊﾔｼ","kana_address":"ﾂﾐｽﾞﾏﾁ","pref":"長崎県","city":"諫早市","address":"津水町"},
{"zip_code":"8540122","kana_pref":"ﾅｶﾞｻｷｹﾝ","kana_city":"ｲｻﾊﾔｼ","kana_address":"ﾂﾙﾀﾏﾁ","pref":"長崎県","city":"諫早市","address":"鶴田町"},
{"zip_code":"8540123","kana_pref":"ﾅｶﾞｻｷｹﾝ","kana_city":"ｲｻﾊﾔｼ","kana_address":"ﾃﾝｼﾞﾝﾏﾁ","pref":"長崎県","city":"諫早市","address":"天神町"},
{"zip_code":"8540006","kana_pref":"ﾅｶﾞｻｷｹﾝ","kana_city":"ｲｻﾊﾔｼ","kana_address":"ﾃﾝﾏﾝﾏﾁ","pref":"長崎県","city":"諫早市","address":"天満町"},
{"zip_code":"8540076","kana_pref":"ﾅｶﾞｻｷｹﾝ","kana_city":"ｲｻﾊﾔｼ","kana_address":"ﾄﾞｳｻﾞｷﾏﾁ","pref":"長崎県","city":"諫早市","address":"堂崎町"},
{"zip_code":"8540091","kana_pref":"ﾅｶﾞｻｷｹﾝ","kana_city":"ｲｻﾊﾔｼ","kana_address":"ﾄﾐｶﾞﾜﾏﾁ","pref":"長崎県","city":"諫早市","address":"富川町"},
{"zip_code":"8540021","kana_pref":"ﾅｶﾞｻｷｹﾝ","kana_city":"ｲｻﾊﾔｼ","kana_address":"ﾅｶｵｷﾏﾁ","pref":"長崎県","city":"諫早市","address":"仲沖町"},
{"zip_code":"8540073","kana_pref":"ﾅｶﾞｻｷｹﾝ","kana_city":"ｲｻﾊﾔｼ","kana_address":"ﾅｶｵﾏﾁ","pref":"長崎県","city":"諫早市","address":"中尾町"},
{"zip_code":"8540124","kana_pref":"ﾅｶﾞｻｷｹﾝ","kana_city":"ｲｻﾊﾔｼ","kana_address":"ﾅｶﾄﾞｵﾘﾏﾁ","pref":"長崎県","city":"諫早市","address":"中通町"},
{"zip_code":"8540036","kana_pref":"ﾅｶﾞｻｷｹﾝ","kana_city":"ｲｻﾊﾔｼ","kana_address":"ﾅｶﾞﾉﾏﾁ","pref":"長崎県","city":"諫早市","address":"長野町"},
{"zip_code":"8540082","kana_pref":"ﾅｶﾞｻｷｹﾝ","kana_city":"ｲｻﾊﾔｼ","kana_address":"ﾆｼｴｲﾀﾞﾏﾁ","pref":"長崎県","city":"諫早市","address":"西栄田町"},
{"zip_code":"8540015","kana_pref":"ﾅｶﾞｻｷｹﾝ","kana_city":"ｲｻﾊﾔｼ","kana_address":"ﾆｼｺｳｼﾞﾏﾁ","pref":"長崎県","city":"諫早市","address":"西小路町"},
{"zip_code":"8540044","kana_pref":"ﾅｶﾞｻｷｹﾝ","kana_city":"ｲｻﾊﾔｼ","kana_address":"ﾆｼｺﾞｳﾏﾁ","pref":"長崎県","city":"諫早市","address":"西郷町"},
{"zip_code":"8540047","kana_pref":"ﾅｶﾞｻｷｹﾝ","kana_city":"ｲｻﾊﾔｼ","kana_address":"ﾉﾅｶﾏﾁ","pref":"長崎県","city":"諫早市","address":"野中町"},
{"zip_code":"8540056","kana_pref":"ﾅｶﾞｻｷｹﾝ","kana_city":"ｲｻﾊﾔｼ","kana_address":"ﾊｼﾞﾉｵﾏﾁ","pref":"長崎県","city":"諫早市","address":"土師野尾町"},
{"zip_code":"8540011","kana_pref":"ﾅｶﾞｻｷｹﾝ","kana_city":"ｲｻﾊﾔｼ","kana_address":"ﾊｯﾃﾝﾏﾁ","pref":"長崎県","city":"諫早市","address":"八天町"},
{"zip_code":"8540125","kana_pref":"ﾅｶﾞｻｷｹﾝ","kana_city":"ｲｻﾊﾔｼ","kana_address":"ﾊﾔﾐﾏﾁ","pref":"長崎県","city":"諫早市","address":"早見町"},
{"zip_code":"8540046","kana_pref":"ﾅｶﾞｻｷｹﾝ","kana_city":"ｲｻﾊﾔｼ","kana_address":"ﾊﾗｸﾞﾁﾏﾁ","pref":"長崎県","city":"諫早市","address":"原口町"},
{"zip_code":"8540014","kana_pref":"ﾅｶﾞｻｷｹﾝ","kana_city":"ｲｻﾊﾔｼ","kana_address":"ﾋｶﾞｼｺｳｼﾞﾏﾁ","pref":"長崎県","city":"諫早市","address":"東小路町"},
{"zip_code":"8540026","kana_pref":"ﾅｶﾞｻｷｹﾝ","kana_city":"ｲｻﾊﾔｼ","kana_address":"ﾋｶﾞｼﾎﾝﾏﾁ","pref":"長崎県","city":"諫早市","address":"東本町"},
{"zip_code":"8540002","kana_pref":"ﾅｶﾞｻｷｹﾝ","kana_city":"ｲｻﾊﾔｼ","kana_address":"ﾋﾉﾃﾞﾏﾁ","pref":"長崎県","city":"諫早市","address":"日の出町"},
{"zip_code":"8540057","kana_pref":"ﾅｶﾞｻｷｹﾝ","kana_city":"ｲｻﾊﾔｼ","kana_address":"ﾋﾗﾔﾏﾏﾁ","pref":"長崎県","city":"諫早市","address":"平山町"},
{"zip_code":"8540001","kana_pref":"ﾅｶﾞｻｷｹﾝ","kana_city":"ｲｻﾊﾔｼ","kana_address":"ﾌｸﾀﾞﾏﾁ","pref":"長崎県","city":"諫早市","address":"福田町"},
{"zip_code":"8540041","kana_pref":"ﾅｶﾞｻｷｹﾝ","kana_city":"ｲｻﾊﾔｼ","kana_address":"ﾌﾅｺｼﾏﾁ","pref":"長崎県","city":"諫早市","address":"船越町"},
{"zip_code":"8540086","kana_pref":"ﾅｶﾞｻｷｹﾝ","kana_city":"ｲｻﾊﾔｼ","kana_address":"ﾎﾘﾉｳﾁﾏﾁ","pref":"長崎県","city":"諫早市","address":"堀の内町"},
{"zip_code":"8540012","kana_pref":"ﾅｶﾞｻｷｹﾝ","kana_city":"ｲｻﾊﾔｼ","kana_address":"ﾎﾝﾏﾁ","pref":"長崎県","city":"諫早市","address":"本町"},
{"zip_code":"8540094","kana_pref":"ﾅｶﾞｻｷｹﾝ","kana_city":"ｲｻﾊﾔｼ","kana_address":"ﾎﾝﾐｮｳﾏﾁ","pref":"長崎県","city":"諫早市","address":"本明町"},
{"zip_code":"8540084","kana_pref":"ﾅｶﾞｻｷｹﾝ","kana_city":"ｲｻﾊﾔｼ","kana_address":"ﾏｻｷﾏﾁ","pref":"長崎県","city":"諫早市","address":"真崎町"},
{"zip_code":"8540126","kana_pref":"ﾅｶﾞｻｷｹﾝ","kana_city":"ｲｻﾊﾔｼ","kana_address":"ﾏﾂｻﾞﾄﾏﾁ","pref":"長崎県","city":"諫早市","address":"松里町"},
{"zip_code":"8540075","kana_pref":"ﾅｶﾞｻｷｹﾝ","kana_city":"ｲｻﾊﾔｼ","kana_address":"ﾏﾜﾀﾘﾏﾁ","pref":"長崎県","city":"諫早市","address":"馬渡町"},
{"zip_code":"8540035","kana_pref":"ﾅｶﾞｻｷｹﾝ","kana_city":"ｲｻﾊﾔｼ","kana_address":"ﾑﾅｶﾀﾏﾁ","pref":"長崎県","city":"諫早市","address":"宗方町"},
{"zip_code":"8540007","kana_pref":"ﾅｶﾞｻｷｹﾝ","kana_city":"ｲｻﾊﾔｼ","kana_address":"ﾒｼﾛﾏﾁ","pref":"長崎県","city":"諫早市","address":"目代町"},
{"zip_code":"8540093","kana_pref":"ﾅｶﾞｻｷｹﾝ","kana_city":"ｲｻﾊﾔｼ","kana_address":"ﾓﾄﾉﾏﾁ","pref":"長崎県","city":"諫早市","address":"本野町"},
{"zip_code":"8540209","kana_pref":"ﾅｶﾞｻｷｹﾝ","kana_city":"ｲｻﾊﾔｼ","kana_address":"ﾓﾘﾔﾏﾁｮｳｶﾐｲﾑﾀ","pref":"長崎県","city":"諫早市","address":"森山町上井牟田"},
{"zip_code":"8540206","kana_pref":"ﾅｶﾞｻｷｹﾝ","kana_city":"ｲｻﾊﾔｼ","kana_address":"ﾓﾘﾔﾏﾁｮｳｶﾗｺｷﾀ","pref":"長崎県","city":"諫早市","address":"森山町唐比北"},
{"zip_code":"8540208","kana_pref":"ﾅｶﾞｻｷｹﾝ","kana_city":"ｲｻﾊﾔｼ","kana_address":"ﾓﾘﾔﾏﾁｮｳｶﾗｺﾆｼ","pref":"長崎県","city":"諫早市","address":"森山町唐比西"},
{"zip_code":"8540207","kana_pref":"ﾅｶﾞｻｷｹﾝ","kana_city":"ｲｻﾊﾔｼ","kana_address":"ﾓﾘﾔﾏﾁｮｳｶﾗｺﾋｶﾞｼ","pref":"長崎県","city":"諫早市","address":"森山町唐比東"},
{"zip_code":"8540202","kana_pref":"ﾅｶﾞｻｷｹﾝ","kana_city":"ｲｻﾊﾔｼ","kana_address":"ﾓﾘﾔﾏﾁｮｳｹｲｼﾉ","pref":"長崎県","city":"諫早市","address":"森山町慶師野"},
{"zip_code":"8540201","kana_pref":"ﾅｶﾞｻｷｹﾝ","kana_city":"ｲｻﾊﾔｼ","kana_address":"ﾓﾘﾔﾏﾁｮｳｼﾓｲﾑﾀ","pref":"長崎県","city":"諫早市","address":"森山町下井牟田"},
{"zip_code":"8540205","kana_pref":"ﾅｶﾞｻｷｹﾝ","kana_city":"ｲｻﾊﾔｼ","kana_address":"ﾓﾘﾔﾏﾁｮｳｽｷﾞﾀﾆ","pref":"長崎県","city":"諫早市","address":"森山町杉谷"},
{"zip_code":"8540204","kana_pref":"ﾅｶﾞｻｷｹﾝ","kana_city":"ｲｻﾊﾔｼ","kana_address":"ﾓﾘﾔﾏﾁｮｳﾀｼﾘ","pref":"長崎県","city":"諫早市","address":"森山町田尻"},
{"zip_code":"8540203","kana_pref":"ﾅｶﾞｻｷｹﾝ","kana_city":"ｲｻﾊﾔｼ","kana_address":"ﾓﾘﾔﾏﾁｮｳﾎﾝﾑﾗ","pref":"長崎県","city":"諫早市","address":"森山町本村"},
{"zip_code":"8540025","kana_pref":"ﾅｶﾞｻｷｹﾝ","kana_city":"ｲｻﾊﾔｼ","kana_address":"ﾔｻｶﾏﾁ","pref":"長崎県","city":"諫早市","address":"八坂町"},
{"zip_code":"8540074","kana_pref":"ﾅｶﾞｻｷｹﾝ","kana_city":"ｲｻﾊﾔｼ","kana_address":"ﾔﾏｶﾜﾏﾁ","pref":"長崎県","city":"諫早市","address":"山川町"},
{"zip_code":"8540092","kana_pref":"ﾅｶﾞｻｷｹﾝ","kana_city":"ｲｻﾊﾔｼ","kana_address":"ﾕﾉｵﾏﾁ","pref":"長崎県","city":"諫早市","address":"湯野尾町"},
{"zip_code":"8540064","kana_pref":"ﾅｶﾞｻｷｹﾝ","kana_city":"ｲｻﾊﾔｼ","kana_address":"ﾜｶﾊﾞﾏﾁ","pref":"長崎県","city":"諫早市","address":"若葉町"},
{"zip_code":"8540051","kana_pref":"ﾅｶﾞｻｷｹﾝ","kana_city":"ｲｻﾊﾔｼ","kana_address":"ﾜｼｻﾞｷﾏﾁ","pref":"長崎県","city":"諫早市","address":"鷲崎町"},
{"zip_code":"8540085","kana_pref":"ﾅｶﾞｻｷｹﾝ","kana_city":"ｲｻﾊﾔｼ","kana_address":"ﾜﾘｺﾞｲﾏﾁ","pref":"長崎県","city":"諫早市","address":"破籠井町"},
{"zip_code":"8540500","kana_pref":"ﾅｶﾞｻｷｹﾝ","kana_city":"ｳﾝｾﾞﾝｼ","kana_address":"","pref":"長崎県","city":"雲仙市","address":""},
{"zip_code":"8540302","kana_pref":"ﾅｶﾞｻｷｹﾝ","kana_city":"ｳﾝｾﾞﾝｼ","kana_address":"ｱｲﾉﾏﾁｵﾂ","pref":"長崎県","city":"雲仙市","address":"愛野町乙"},
{"zip_code":"8540301","kana_pref":"ﾅｶﾞｻｷｹﾝ","kana_city":"ｳﾝｾﾞﾝｼ","kana_address":"ｱｲﾉﾏﾁｺｳ","pref":"長崎県","city":"雲仙市","address":"愛野町甲"},
{"zip_code":"8540621","kana_pref":"ﾅｶﾞｻｷｹﾝ","kana_city":"ｳﾝｾﾞﾝｼ","kana_address":"ｵﾊﾞﾏﾁｮｳｳﾝｾﾞﾝ","pref":"長崎県","city":"雲仙市","address":"小浜町雲仙"},
{"zip_code":"8540501","kana_pref":"ﾅｶﾞｻｷｹﾝ","kana_city":"ｳﾝｾﾞﾝｼ","kana_address":"ｵﾊﾞﾏﾁｮｳｵｵｶﾒ","pref":"長崎県","city":"雲仙市","address":"小浜町大亀"},
{"zip_code":"8540504","kana_pref":"ﾅｶﾞｻｷｹﾝ","kana_city":"ｳﾝｾﾞﾝｼ","kana_address":"ｵﾊﾞﾏﾁｮｳｶﾅﾊﾏ","pref":"長崎県","city":"雲仙市","address":"小浜町金浜"},
{"zip_code":"8540512","kana_pref":"ﾅｶﾞｻｷｹﾝ","kana_city":"ｳﾝｾﾞﾝｼ","kana_address":"ｵﾊﾞﾏﾁｮｳｷﾀｷｻｼ","pref":"長崎県","city":"雲仙市","address":"小浜町北木指"},
{"zip_code":"8540515","kana_pref":"ﾅｶﾞｻｷｹﾝ","kana_city":"ｳﾝｾﾞﾝｼ","kana_address":"ｵﾊﾞﾏﾁｮｳｷﾀﾉ","pref":"長崎県","city":"雲仙市","address":"小浜町北野"},
{"zip_code":"8540514","kana_pref":"ﾅｶﾞｻｷｹﾝ","kana_city":"ｳﾝｾﾞﾝｼ","kana_address":"ｵﾊﾞﾏﾁｮｳｷﾀﾎﾝﾏﾁ","pref":"長崎県","city":"雲仙市","address":"小浜町北本町"},
{"zip_code":"8540505","kana_pref":"ﾅｶﾞｻｷｹﾝ","kana_city":"ｳﾝｾﾞﾝｼ","kana_address":"ｵﾊﾞﾏﾁｮｳｺﾊﾞ","pref":"長崎県","city":"雲仙市","address":"小浜町木場"},
{"zip_code":"8540503","kana_pref":"ﾅｶﾞｻｷｹﾝ","kana_city":"ｳﾝｾﾞﾝｼ","kana_address":"ｵﾊﾞﾏﾁｮｳﾄﾋﾞｺ","pref":"長崎県","city":"雲仙市","address":"小浜町飛子"},
{"zip_code":"8540516","kana_pref":"ﾅｶﾞｻｷｹﾝ","kana_city":"ｳﾝｾﾞﾝｼ","kana_address":"ｵﾊﾞﾏﾁｮｳﾄﾐﾂ","pref":"長崎県","city":"雲仙市","address":"小浜町富津"},
{"zip_code":"8540517","kana_pref":"ﾅｶﾞｻｷｹﾝ","kana_city":"ｳﾝｾﾞﾝｼ","kana_address":"ｵﾊﾞﾏﾁｮｳﾏﾘｰﾅ","pref":"長崎県","city":"雲仙市","address":"小浜町マリーナ"},
{"zip_code":"8540511","kana_pref":"ﾅｶﾞｻｷｹﾝ","kana_city":"ｳﾝｾﾞﾝｼ","kana_address":"ｵﾊﾞﾏﾁｮｳﾐﾅﾐｷｻｼ","pref":"長崎県","city":"雲仙市","address":"小浜町南木指"},
{"zip_code":"8540513","kana_pref":"ﾅｶﾞｻｷｹﾝ","kana_city":"ｳﾝｾﾞﾝｼ","kana_address":"ｵﾊﾞﾏﾁｮｳﾐﾅﾐﾎﾝﾏﾁ","pref":"長崎県","city":"雲仙市","address":"小浜町南本町"},
{"zip_code":"8540502","kana_pref":"ﾅｶﾞｻｷｹﾝ","kana_city":"ｳﾝｾﾞﾝｼ","kana_address":"ｵﾊﾞﾏﾁｮｳﾔﾏﾊﾀ","pref":"長崎県","city":"雲仙市","address":"小浜町山畑"},
{"zip_code":"8540402","kana_pref":"ﾅｶﾞｻｷｹﾝ","kana_city":"ｳﾝｾﾞﾝｼ","kana_address":"ﾁﾁﾞﾜﾁｮｳｵﾂ","pref":"長崎県","city":"雲仙市","address":"千々石町乙"},
{"zip_code":"8540406","kana_pref":"ﾅｶﾞｻｷｹﾝ","kana_city":"ｳﾝｾﾞﾝｼ","kana_address":"ﾁﾁﾞﾜﾁｮｳｷ","pref":"長崎県","city":"雲仙市","address":"千々石町己"},
{"zip_code":"8540401","kana_pref":"ﾅｶﾞｻｷｹﾝ","kana_city":"ｳﾝｾﾞﾝｼ","kana_address":"ﾁﾁﾞﾜﾁｮｳｺｳ","pref":"長崎県","city":"雲仙市","address":"千々石町甲"},
{"zip_code":"8540407","kana_pref":"ﾅｶﾞｻｷｹﾝ","kana_city":"ｳﾝｾﾞﾝｼ","kana_address":"ﾁﾁﾞﾜﾁｮｳｺｳ","pref":"長崎県","city":"雲仙市","address":"千々石町庚"},
{"zip_code":"8540404","kana_pref":"ﾅｶﾞｻｷｹﾝ","kana_city":"ｳﾝｾﾞﾝｼ","kana_address":"ﾁﾁﾞﾜﾁｮｳﾃｲ","pref":"長崎県","city":"雲仙市","address":"千々石町丁"},
{"zip_code":"8540403","kana_pref":"ﾅｶﾞｻｷｹﾝ","kana_city":"ｳﾝｾﾞﾝｼ","kana_address":"ﾁﾁﾞﾜﾁｮｳﾍｲ","pref":"長崎県","city":"雲仙市","address":"千々石町丙"},
{"zip_code":"8540405","kana_pref":"ﾅｶﾞｻｷｹﾝ","kana_city":"ｳﾝｾﾞﾝｼ","kana_address":"ﾁﾁﾞﾜﾁｮｳﾎﾞ","pref":"長崎県","city":"雲仙市","address":"千々石町戊"},
{"zip_code":"8540702","kana_pref":"ﾅｶﾞｻｷｹﾝ","kana_city":"ｳﾝｾﾞﾝｼ","kana_address":"ﾐﾅﾐｸｼﾔﾏﾁｮｳｵﾂ","pref":"長崎県","city":"雲仙市","address":"南串山町乙"},
{"zip_code":"8540701","kana_pref":"ﾅｶﾞｻｷｹﾝ","kana_city":"ｳﾝｾﾞﾝｼ","kana_address":"ﾐﾅﾐｸｼﾔﾏﾁｮｳｺｳ","pref":"長崎県","city":"雲仙市","address":"南串山町甲"},
{"zip_code":"8540703","kana_pref":"ﾅｶﾞｻｷｹﾝ","kana_city":"ｳﾝｾﾞﾝｼ","kana_address":"ﾐﾅﾐｸｼﾔﾏﾁｮｳﾍｲ","pref":"長崎県","city":"雲仙市","address":"南串山町丙"}]}