{"zip_code":[
{"zip_code":"8560000","kana_pref":"ﾅｶﾞｻｷｹﾝ","kana_city":"ｵｵﾑﾗｼ","kana_address":"","pref":"長崎県","city":"大村市","address":""},
{"zip_code":"8560048","kana_pref":"ﾅｶﾞｻｷｹﾝ","kana_city":"ｵｵﾑﾗｼ","kana_address":"ｱｶｻｺﾏﾁ","pref":"長崎県","city":"大村市","address":"赤佐古町"},
{"zip_code":"8560017","kana_pref":"ﾅｶﾞｻｷｹﾝ","kana_city":"ｵｵﾑﾗｼ","kana_address":"ｱﾗｾﾏﾁ","pref":"長崎県","city":"大村市","address":"荒瀬町"},
{"zip_code":"8560033","kana_pref":"ﾅｶﾞｻｷｹﾝ","kana_city":"ｵｵﾑﾗｼ","kana_address":"ｱﾗﾋﾗﾏﾁ","pref":"長崎県","city":"大村市","address":"荒平町"},
{"zip_code":"8560026","kana_pref":"ﾅｶﾞｻｷｹﾝ","kana_city":"ｵｵﾑﾗｼ","kana_address":"ｲｹﾀﾞ","pref":"長崎県","city":"大村市","address":"池田"},
{"zip_code":"8560029","kana_pref":"ﾅｶﾞｻｷｹﾝ","kana_city":"ｵｵﾑﾗｼ","kana_address":"ｲｹﾀﾞｼﾝﾏﾁ","pref":"長崎県","city":"大村市","address":"池田新町"},
{"zip_code":"8560823","kana_pref":"ﾅｶﾞｻｷｹﾝ","kana_city":"ｵｵﾑﾗｼ","kana_address":"ｲﾇｲﾊﾞﾊﾞﾏﾁ","pref":"長崎県","city":"大村市","address":"乾馬場町"},
{"zip_code":"8560818","kana_pref":"ﾅｶﾞｻｷｹﾝ","kana_city":"ｵｵﾑﾗｼ","kana_address":"ｲﾏﾂﾞﾏﾁ","pref":"長崎県","city":"大村市","address":"今津町"},
{"zip_code":"8560018","kana_pref":"ﾅｶﾞｻｷｹﾝ","kana_city":"ｵｵﾑﾗｼ","kana_address":"ｲﾏﾄﾐﾏﾁ","pref":"長崎県","city":"大村市","address":"今富町"},
{"zip_code":"8560843","kana_pref":"ﾅｶﾞｻｷｹﾝ","kana_city":"ｵｵﾑﾗｼ","kana_address":"ｲﾏﾑﾗﾏﾁ","pref":"長崎県","city":"大村市","address":"今村町"},
{"zip_code":"8560044","kana_pref":"ﾅｶﾞｻｷｹﾝ","kana_city":"ｵｵﾑﾗｼ","kana_address":"ｲﾜﾏﾂﾏﾁ","pref":"長崎県","city":"大村市","address":"岩松町"},
{"zip_code":"8560027","kana_pref":"ﾅｶﾞｻｷｹﾝ","kana_city":"ｵｵﾑﾗｼ","kana_address":"ｳｴﾏﾂ","pref":"長崎県","city":"大村市","address":"植松"},
{"zip_code":"8560804","kana_pref":"ﾅｶﾞｻｷｹﾝ","kana_city":"ｵｵﾑﾗｼ","kana_address":"ｵｵｶﾜﾀﾞﾏﾁ","pref":"長崎県","city":"大村市","address":"大川田町"},
{"zip_code":"8560845","kana_pref":"ﾅｶﾞｻｷｹﾝ","kana_city":"ｵｵﾑﾗｼ","kana_address":"ｵｵｻﾞﾄﾏﾁ","pref":"長崎県","city":"大村市","address":"大里町"},
{"zip_code":"8560043","kana_pref":"ﾅｶﾞｻｷｹﾝ","kana_city":"ｵｵﾑﾗｼ","kana_address":"ｵｶﾞﾜｳﾁﾏﾁ","pref":"長崎県","city":"大村市","address":"小川内町"},
{"zip_code":"8560809","kana_pref":"ﾅｶﾞｻｷｹﾝ","kana_city":"ｵｵﾑﾗｼ","kana_address":"ｵｷﾀﾏﾁ","pref":"長崎県","city":"大村市","address":"沖田町"},
{"zip_code":"8560021","kana_pref":"ﾅｶﾞｻｷｹﾝ","kana_city":"ｵｵﾑﾗｼ","kana_address":"ｵﾆﾊﾞｼﾏﾁ","pref":"長崎県","city":"大村市","address":"鬼橋町"},
{"zip_code":"8560020","kana_pref":"ﾅｶﾞｻｷｹﾝ","kana_city":"ｵｵﾑﾗｼ","kana_address":"ｵﾛｸﾞﾁﾎﾝﾏﾁ","pref":"長崎県","city":"大村市","address":"小路口本町"},
{"zip_code":"8560025","kana_pref":"ﾅｶﾞｻｷｹﾝ","kana_city":"ｵｵﾑﾗｼ","kana_address":"ｵﾛｸﾞﾁﾏﾁ","pref":"長崎県","city":"大村市","address":"小路口町"},
{"zip_code":"8560802","kana_pref":"ﾅｶﾞｻｷｹﾝ","kana_city":"ｵｵﾑﾗｼ","kana_address":"ｶｲﾄﾞｳﾏﾁ","pref":"長崎県","city":"大村市","address":"皆同町"},
{"zip_code":"8560841","kana_pref":"ﾅｶﾞｻｷｹﾝ","kana_city":"ｵｵﾑﾗｼ","kana_address":"ｶｹﾞﾋﾗﾏﾁ","pref":"長崎県","city":"大村市","address":"陰平町"},
{"zip_code":"8560827","kana_pref":"ﾅｶﾞｻｷｹﾝ","kana_city":"ｵｵﾑﾗｼ","kana_address":"ｶｺﾏﾁ","pref":"長崎県","city":"大村市","address":"水主町"},
{"zip_code":"8560833","kana_pref":"ﾅｶﾞｻｷｹﾝ","kana_city":"ｵｵﾑﾗｼ","kana_address":"ｶﾀﾏﾁ","pref":"長崎県","city":"大村市","address":"片町"},
{"zip_code":"8560023","kana_pref":"ﾅｶﾞｻｷｹﾝ","kana_city":"ｵｵﾑﾗｼ","kana_address":"ｶﾐｽﾜﾏﾁ","pref":"長崎県","city":"大村市","address":"上諏訪町"},
{"zip_code":"8560820","kana_pref":"ﾅｶﾞｻｷｹﾝ","kana_city":"ｵｵﾑﾗｼ","kana_address":"ｷｮｳﾜﾏﾁ","pref":"長崎県","city":"大村市","address":"協和町"},
{"zip_code":"8560828","kana_pref":"ﾅｶﾞｻｷｹﾝ","kana_city":"ｵｵﾑﾗｼ","kana_address":"ｸｲﾃﾞﾂ","pref":"長崎県","city":"大村市","address":"杭出津"},
{"zip_code":"8560007","kana_pref":"ﾅｶﾞｻｷｹﾝ","kana_city":"ｵｵﾑﾗｼ","kana_address":"ｸｻﾊﾞﾏﾁ","pref":"長崎県","city":"大村市","address":"草場町"},
{"zip_code":"8560834","kana_pref":"ﾅｶﾞｻｷｹﾝ","kana_city":"ｵｵﾑﾗｼ","kana_address":"ｸｼﾏ","pref":"長崎県","city":"大村市","address":"玖島"},
{"zip_code":"8560835","kana_pref":"ﾅｶﾞｻｷｹﾝ","kana_city":"ｵｵﾑﾗｼ","kana_address":"ｸﾊﾞﾗ","pref":"長崎県","city":"大村市","address":"久原"},
{"zip_code":"8560012","kana_pref":"ﾅｶﾞｻｷｹﾝ","kana_city":"ｵｵﾑﾗｼ","kana_address":"ｸﾛｷﾏﾁ","pref":"長崎県","city":"大村市","address":"黒木町"},
{"zip_code":"8560808","kana_pref":"ﾅｶﾞｻｷｹﾝ","kana_city":"ｵｵﾑﾗｼ","kana_address":"ｸﾛﾏﾙﾏﾁ","pref":"長崎県","city":"大村市","address":"黒丸町"},
{"zip_code":"8560817","kana_pref":"ﾅｶﾞｻｷｹﾝ","kana_city":"ｵｵﾑﾗｼ","kana_address":"ｺｶﾞｼﾏﾏﾁ","pref":"長崎県","city":"大村市","address":"古賀島町"},
{"zip_code":"8560046","kana_pref":"ﾅｶﾞｻｷｹﾝ","kana_city":"ｵｵﾑﾗｼ","kana_address":"ｺﾊﾞ","pref":"長崎県","city":"大村市","address":"木場"},
{"zip_code":"8560836","kana_pref":"ﾅｶﾞｻｷｹﾝ","kana_city":"ｵｵﾑﾗｼ","kana_address":"ｻｲﾜｲﾏﾁ","pref":"長崎県","city":"大村市","address":"幸町"},
{"zip_code":"8560028","kana_pref":"ﾅｶﾞｻｷｹﾝ","kana_city":"ｵｵﾑﾗｼ","kana_address":"ｻｶｸﾞﾁﾏﾁ","pref":"長崎県","city":"大村市","address":"坂口町"},
{"zip_code":"8560812","kana_pref":"ﾅｶﾞｻｷｹﾝ","kana_city":"ｵｵﾑﾗｼ","kana_address":"ｻｸﾗﾊﾞﾊﾞ","pref":"長崎県","city":"大村市","address":"桜馬場"},
{"zip_code":"8560031","kana_pref":"ﾅｶﾞｻｷｹﾝ","kana_city":"ｵｵﾑﾗｼ","kana_address":"ｻﾝｼﾞｮｳﾁｮｳ","pref":"長崎県","city":"大村市","address":"三城町"},
{"zip_code":"8560011","kana_pref":"ﾅｶﾞｻｷｹﾝ","kana_city":"ｵｵﾑﾗｼ","kana_address":"ｼｹﾞｲﾀﾞﾏﾁ","pref":"長崎県","city":"大村市","address":"重井田町"},
{"zip_code":"8560801","kana_pref":"ﾅｶﾞｻｷｹﾝ","kana_city":"ｵｵﾑﾗｼ","kana_address":"ｽｺﾏﾁ","pref":"長崎県","city":"大村市","address":"寿古町"},
{"zip_code":"8560047","kana_pref":"ﾅｶﾞｻｷｹﾝ","kana_city":"ｵｵﾑﾗｼ","kana_address":"ｽﾀﾞﾉｷﾏﾁ","pref":"長崎県","city":"大村市","address":"須田ノ木町"},
{"zip_code":"8560024","kana_pref":"ﾅｶﾞｻｷｹﾝ","kana_city":"ｵｵﾑﾗｼ","kana_address":"ｽﾜ","pref":"長崎県","city":"大村市","address":"諏訪"},
{"zip_code":"8560847","kana_pref":"ﾅｶﾞｻｷｹﾝ","kana_city":"ｵｵﾑﾗｼ","kana_address":"ｾｲﾌﾞﾏﾁ","pref":"長崎県","city":"大村市","address":"西部町"},
{"zip_code":"8560035","kana_pref":"ﾅｶﾞｻｷｹﾝ","kana_city":"ｵｵﾑﾗｼ","kana_address":"ﾀｹﾍﾞﾏﾁ","pref":"長崎県","city":"大村市","address":"武部町"},
{"zip_code":"8560805","kana_pref":"ﾅｶﾞｻｷｹﾝ","kana_city":"ｵｵﾑﾗｼ","kana_address":"ﾀｹﾏﾂﾎﾝﾏﾁ","pref":"長崎県","city":"大村市","address":"竹松本町"},
{"zip_code":"8560803","kana_pref":"ﾅｶﾞｻｷｹﾝ","kana_city":"ｵｵﾑﾗｼ","kana_address":"ﾀｹﾏﾂﾏﾁ","pref":"長崎県","city":"大村市","address":"竹松町"},
{"zip_code":"8560014","kana_pref":"ﾅｶﾞｻｷｹﾝ","kana_city":"ｵｵﾑﾗｼ","kana_address":"ﾀｼﾞﾓﾏﾁ","pref":"長崎県","city":"大村市","address":"田下町"},
{"zip_code":"8560041","kana_pref":"ﾅｶﾞｻｷｹﾝ","kana_city":"ｵｵﾑﾗｼ","kana_address":"ﾄｸｾﾝｶﾞﾜﾁﾏﾁ","pref":"長崎県","city":"大村市","address":"徳泉川内町"},
{"zip_code":"8560806","kana_pref":"ﾅｶﾞｻｷｹﾝ","kana_city":"ｵｵﾑﾗｼ","kana_address":"ﾄﾐﾉﾊﾗ","pref":"長崎県","city":"大村市","address":"富の原"},
{"zip_code":"8560842","kana_pref":"ﾅｶﾞｻｷｹﾝ","kana_city":"ｵｵﾑﾗｼ","kana_address":"ﾅｶｻﾞﾄﾏﾁ","pref":"長崎県","city":"大村市","address":"中里町"},
{"zip_code":"8560013","kana_pref":"ﾅｶﾞｻｷｹﾝ","kana_city":"ｵｵﾑﾗｼ","kana_address":"ﾅｶﾀﾞｹﾏﾁ","pref":"長崎県","city":"大村市","address":"中岳町"},
{"zip_code":"8560821","kana_pref":"ﾅｶﾞｻｷｹﾝ","kana_city":"ｵｵﾑﾗｼ","kana_address":"ﾆｼｲﾇｲﾊﾞﾊﾞﾏﾁ","pref":"長崎県","city":"大村市","address":"西乾馬場町"},
{"zip_code":"8560813","kana_pref":"ﾅｶﾞｻｷｹﾝ","kana_city":"ｵｵﾑﾗｼ","kana_address":"ﾆｼｵｵﾑﾗﾎﾝﾏﾁ","pref":"長崎県","city":"大村市","address":"西大村本町"},
{"zip_code":"8560825","kana_pref":"ﾅｶﾞｻｷｹﾝ","kana_city":"ｵｵﾑﾗｼ","kana_address":"ﾆｼｻﾝｼﾞｮｳﾁｮｳ","pref":"長崎県","city":"大村市","address":"西三城町"},
{"zip_code":"8560837","kana_pref":"ﾅｶﾞｻｷｹﾝ","kana_city":"ｵｵﾑﾗｼ","kana_address":"ﾆｼﾎﾝﾏﾁ","pref":"長崎県","city":"大村市","address":"西本町"},
{"zip_code":"8560003","kana_pref":"ﾅｶﾞｻｷｹﾝ","kana_city":"ｵｵﾑﾗｼ","kana_address":"ﾉﾀﾞｹﾏﾁ","pref":"長崎県","city":"大村市","address":"野岳町"},
{"zip_code":"8560019","kana_pref":"ﾅｶﾞｻｷｹﾝ","kana_city":"ｵｵﾑﾗｼ","kana_address":"ﾉﾀﾞﾏﾁ","pref":"長崎県","city":"大村市","address":"野田町"},
{"zip_code":"8560811","kana_pref":"ﾅｶﾞｻｷｹﾝ","kana_city":"ｵｵﾑﾗｼ","kana_address":"ﾊﾗｸﾞﾁﾏﾁ","pref":"長崎県","city":"大村市","address":"原口町"},
{"zip_code":"8560016","kana_pref":"ﾅｶﾞｻｷｹﾝ","kana_city":"ｵｵﾑﾗｼ","kana_address":"ﾊﾗﾏﾁ","pref":"長崎県","city":"大村市","address":"原町"},
{"zip_code":"8560032","kana_pref":"ﾅｶﾞｻｷｹﾝ","kana_city":"ｵｵﾑﾗｼ","kana_address":"ﾋｶﾞｼｵｵﾑﾗ","pref":"長崎県","city":"大村市","address":"東大村"},
{"zip_code":"8560826","kana_pref":"ﾅｶﾞｻｷｹﾝ","kana_city":"ｵｵﾑﾗｼ","kana_address":"ﾋｶﾞｼｻﾝｼﾞｮｳﾁｮｳ","pref":"長崎県","city":"大村市","address":"東三城町"},
{"zip_code":"8560002","kana_pref":"ﾅｶﾞｻｷｹﾝ","kana_city":"ｵｵﾑﾗｼ","kana_address":"ﾋｶﾞｼﾉﾀﾞｹﾏﾁ","pref":"長崎県","city":"大村市","address":"東野岳町"},
{"zip_code":"8560831","kana_pref":"ﾅｶﾞｻｷｹﾝ","kana_city":"ｵｵﾑﾗｼ","kana_address":"ﾋｶﾞｼﾎﾝﾏﾁ","pref":"長崎県","city":"大村市","address":"東本町"},
{"zip_code":"8560846","kana_pref":"ﾅｶﾞｻｷｹﾝ","kana_city":"ｵｵﾑﾗｼ","kana_address":"ﾋﾄﾞﾏﾙﾏﾁ","pref":"長崎県","city":"大村市","address":"日泊町"},
{"zip_code":"8560042","kana_pref":"ﾅｶﾞｻｷｹﾝ","kana_city":"ｵｵﾑﾗｼ","kana_address":"ﾋﾗﾏﾁ","pref":"長崎県","city":"大村市","address":"平町"},
{"zip_code":"8560006","kana_pref":"ﾅｶﾞｻｷｹﾝ","kana_city":"ｵｵﾑﾗｼ","kana_address":"ﾌｸｼｹﾞﾏﾁ","pref":"長崎県","city":"大村市","address":"福重町"},
{"zip_code":"8560822","kana_pref":"ﾅｶﾞｻｷｹﾝ","kana_city":"ｵｵﾑﾗｼ","kana_address":"ﾌﾙﾏﾁ","pref":"長崎県","city":"大村市","address":"古町"},
{"zip_code":"8560832","kana_pref":"ﾅｶﾞｻｷｹﾝ","kana_city":"ｵｵﾑﾗｼ","kana_address":"ﾎﾝﾏﾁ","pref":"長崎県","city":"大村市","address":"本町"},
{"zip_code":"8560022","kana_pref":"ﾅｶﾞｻｷｹﾝ","kana_city":"ｵｵﾑﾗｼ","kana_address":"ﾏｽﾗｶﾞﾊﾗﾏﾁ","pref":"長崎県","city":"大村市","address":"雄ケ原町"},
{"zip_code":"8560814","kana_pref":"ﾅｶﾞｻｷｹﾝ","kana_city":"ｵｵﾑﾗｼ","kana_address":"ﾏﾂﾅﾐ","pref":"長崎県","city":"大村市","address":"松並"},
{"zip_code":"8560008","kana_pref":"ﾅｶﾞｻｷｹﾝ","kana_city":"ｵｵﾑﾗｼ","kana_address":"ﾏﾂﾊﾞﾗ","pref":"長崎県","city":"大村市","address":"松原"},
{"zip_code":"8560009","kana_pref":"ﾅｶﾞｻｷｹﾝ","kana_city":"ｵｵﾑﾗｼ","kana_address":"ﾏﾂﾊﾞﾗﾎﾝﾏﾁ","pref":"長崎県","city":"大村市","address":"松原本町"},
{"zip_code":"8560829","kana_pref":"ﾅｶﾞｻｷｹﾝ","kana_city":"ｵｵﾑﾗｼ","kana_address":"ﾏﾂﾔﾏﾏﾁ","pref":"長崎県","city":"大村市","address":"松山町"},
{"zip_code":"8560816","kana_pref":"ﾅｶﾞｻｷｹﾝ","kana_city":"ｵｵﾑﾗｼ","kana_address":"ﾐｼﾏﾏﾁ","pref":"長崎県","city":"大村市","address":"箕島町"},
{"zip_code":"8560824","kana_pref":"ﾅｶﾞｻｷｹﾝ","kana_city":"ｵｵﾑﾗｼ","kana_address":"ﾐｽﾞﾀﾏﾁ","pref":"長崎県","city":"大村市","address":"水田町"},
{"zip_code":"8560034","kana_pref":"ﾅｶﾞｻｷｹﾝ","kana_city":"ｵｵﾑﾗｼ","kana_address":"ﾐｽﾞﾊｶﾘﾏﾁ","pref":"長崎県","city":"大村市","address":"水計町"},
{"zip_code":"8560844","kana_pref":"ﾅｶﾞｻｷｹﾝ","kana_city":"ｵｵﾑﾗｼ","kana_address":"ﾐｿﾞﾛｸﾏﾁ","pref":"長崎県","city":"大村市","address":"溝陸町"},
{"zip_code":"8560807","kana_pref":"ﾅｶﾞｻｷｹﾝ","kana_city":"ｵｵﾑﾗｼ","kana_address":"ﾐﾔｼｮｳｼﾞ","pref":"長崎県","city":"大村市","address":"宮小路"},
{"zip_code":"8560015","kana_pref":"ﾅｶﾞｻｷｹﾝ","kana_city":"ｵｵﾑﾗｼ","kana_address":"ﾐﾔﾀﾞｲﾏﾁ","pref":"長崎県","city":"大村市","address":"宮代町"},
{"zip_code":"8560005","kana_pref":"ﾅｶﾞｻｷｹﾝ","kana_city":"ｵｵﾑﾗｼ","kana_address":"ﾐﾛｸｼﾞﾏﾁ","pref":"長崎県","city":"大村市","address":"弥勒寺町"},
{"zip_code":"8560045","kana_pref":"ﾅｶﾞｻｷｹﾝ","kana_city":"ｵｵﾑﾗｼ","kana_address":"ﾑｶｲｺﾊﾞﾏﾁ","pref":"長崎県","city":"大村市","address":"向木場町"},
{"zip_code":"8560001","kana_pref":"ﾅｶﾞｻｷｹﾝ","kana_city":"ｵｵﾑﾗｼ","kana_address":"ﾑﾙﾛﾏﾁ","pref":"長崎県","city":"大村市","address":"武留路町"},
{"zip_code":"8560815","kana_pref":"ﾅｶﾞｻｷｹﾝ","kana_city":"ｵｵﾑﾗｼ","kana_address":"ﾓﾘｿﾞﾉﾏﾁ","pref":"長崎県","city":"大村市","address":"森園町"},
{"zip_code":"8560004","kana_pref":"ﾅｶﾞｻｷｹﾝ","kana_city":"ｵｵﾑﾗｼ","kana_address":"ﾘﾌｸｼﾞﾏﾁ","pref":"長崎県","city":"大村市","address":"立福寺町"}]}