{"zip_code":[
{"zip_code":"8570071","kana_pref":"ﾅｶﾞｻｷｹﾝ","kana_city":"ﾅｶﾞｻｷｼ","kana_address":"ｲｹｼﾏﾏﾁ","pref":"長崎県","city":"長崎市","address":"池島町"},
{"zip_code":"8570000","kana_pref":"ﾅｶﾞｻｷｹﾝ","kana_city":"ｻｾﾎﾞｼ","kana_address":"","pref":"長崎県","city":"佐世保市","address":""},
{"zip_code":"8570044","kana_pref":"ﾅｶﾞｻｷｹﾝ","kana_city":"ｻｾﾎﾞｼ","kana_address":"ｱｲｵｲﾁｮｳ","pref":"長崎県","city":"佐世保市","address":"相生町"},
{"zip_code":"8570013","kana_pref":"ﾅｶﾞｻｷｹﾝ","kana_city":"ｻｾﾎﾞｼ","kana_address":"ｱｶｷﾞﾁｮｳ","pref":"長崎県","city":"佐世保市","address":"赤木町"},
{"zip_code":"8570064","kana_pref":"ﾅｶﾞｻｷｹﾝ","kana_city":"ｻｾﾎﾞｼ","kana_address":"ｱｶｻｷﾁｮｳ","pref":"長崎県","city":"佐世保市","address":"赤崎町"},
{"zip_code":"8570431","kana_pref":"ﾅｶﾞｻｷｹﾝ","kana_city":"ｻｾﾎﾞｼ","kana_address":"ｱｻｺﾞﾁｮｳ","pref":"長崎県","city":"佐世保市","address":"浅子町"},
{"zip_code":"8571233","kana_pref":"ﾅｶﾞｻｷｹﾝ","kana_city":"ｻｾﾎﾞｼ","kana_address":"ｲｵﾉｳﾗﾁｮｳ","pref":"長崎県","city":"佐世保市","address":"庵浦町"},
{"zip_code":"8570037","kana_pref":"ﾅｶﾞｻｷｹﾝ","kana_city":"ｻｾﾎﾞｼ","kana_address":"ｲｼｻﾞｶﾁｮｳ","pref":"長崎県","city":"佐世保市","address":"石坂町"},
{"zip_code":"8570057","kana_pref":"ﾅｶﾞｻｷｹﾝ","kana_city":"ｻｾﾎﾞｼ","kana_address":"ｲｽﾞﾐﾁｮｳ","pref":"長崎県","city":"佐世保市","address":"泉町"},
{"zip_code":"8570851","kana_pref":"ﾅｶﾞｻｷｹﾝ","kana_city":"ｻｾﾎﾞｼ","kana_address":"ｲﾅﾘﾁｮｳ","pref":"長崎県","city":"佐世保市","address":"稲荷町"},
{"zip_code":"8570061","kana_pref":"ﾅｶﾞｻｷｹﾝ","kana_city":"ｻｾﾎﾞｼ","kana_address":"ｲﾏﾌﾞｸﾁｮｳ","pref":"長崎県","city":"佐世保市","address":"今福町"},
{"zip_code":"8574813","kana_pref":"ﾅｶﾞｻｷｹﾝ","kana_city":"ｻｾﾎﾞｼ","kana_address":"ｳｸﾏﾁｲｲﾗ","pref":"長崎県","city":"佐世保市","address":"宇久町飯良"},
{"zip_code":"8574815","kana_pref":"ﾅｶﾞｻｷｹﾝ","kana_city":"ｻｾﾎﾞｼ","kana_address":"ｳｸﾏﾁｵｵｸﾎﾞ","pref":"長崎県","city":"佐世保市","address":"宇久町大久保"},
{"zip_code":"8574903","kana_pref":"ﾅｶﾞｻｷｹﾝ","kana_city":"ｻｾﾎﾞｼ","kana_address":"ｳｸﾏﾁｵｵﾀﾞｴ","pref":"長崎県","city":"佐世保市","address":"宇久町太田江"},
{"zip_code":"8574812","kana_pref":"ﾅｶﾞｻｷｹﾝ","kana_city":"ｻｾﾎﾞｼ","kana_address":"ｳｸﾏﾁｵﾊﾞﾏ","pref":"長崎県","city":"佐世保市","address":"宇久町小浜"},
{"zip_code":"8574811","kana_pref":"ﾅｶﾞｻｷｹﾝ","kana_city":"ｻｾﾎﾞｼ","kana_address":"ｳｸﾏﾁｺｳﾉｳﾗ","pref":"長崎県","city":"佐世保市","address":"宇久町神浦"},
{"zip_code":"8574904","kana_pref":"ﾅｶﾞｻｷｹﾝ","kana_city":"ｻｾﾎﾞｼ","kana_address":"ｳｸﾏﾁｺﾊﾞ","pref":"長崎県","city":"佐世保市","address":"宇久町木場"},
{"zip_code":"8574901","kana_pref":"ﾅｶﾞｻｷｹﾝ","kana_city":"ｻｾﾎﾞｼ","kana_address":"ｳｸﾏﾁﾀｲﾗ","pref":"長崎県","city":"佐世保市","address":"宇久町平"},
{"zip_code":"8574816","kana_pref":"ﾅｶﾞｻｷｹﾝ","kana_city":"ｻｾﾎﾞｼ","kana_address":"ｳｸﾏﾁﾃﾗｼﾏ","pref":"長崎県","city":"佐世保市","address":"宇久町寺島"},
{"zip_code":"8574902","kana_pref":"ﾅｶﾞｻｷｹﾝ","kana_city":"ｻｾﾎﾞｼ","kana_address":"ｳｸﾏﾁﾉｶﾞﾀ","pref":"長崎県","city":"佐世保市","address":"宇久町野方"},
{"zip_code":"8574814","kana_pref":"ﾅｶﾞｻｷｹﾝ","kana_city":"ｻｾﾎﾞｼ","kana_address":"ｳｸﾏﾁﾓﾄｲｲﾗ","pref":"長崎県","city":"佐世保市","address":"宇久町本飯良"},
{"zip_code":"8570069","kana_pref":"ﾅｶﾞｻｷｹﾝ","kana_city":"ｻｾﾎﾞｼ","kana_address":"ｳﾄﾞｺﾞｴﾁｮｳ","pref":"長崎県","city":"佐世保市","address":"鵜渡越町"},
{"zip_code":"8570017","kana_pref":"ﾅｶﾞｻｷｹﾝ","kana_city":"ｻｾﾎﾞｼ","kana_address":"ｳﾒﾀﾞﾏﾁ","pref":"長崎県","city":"佐世保市","address":"梅田町"},
{"zip_code":"8570058","kana_pref":"ﾅｶﾞｻｷｹﾝ","kana_city":"ｻｾﾎﾞｼ","kana_address":"ｳﾜﾏﾁ","pref":"長崎県","city":"佐世保市","address":"上町"},
{"zip_code":"8570001","kana_pref":"ﾅｶﾞｻｷｹﾝ","kana_city":"ｻｾﾎﾞｼ","kana_address":"ｴﾎﾞｼﾁｮｳ","pref":"長崎県","city":"佐世保市","address":"烏帽子町"},
{"zip_code":"8571163","kana_pref":"ﾅｶﾞｻｷｹﾝ","kana_city":"ｻｾﾎﾞｼ","kana_address":"ｵｵﾀｹﾀﾞｲﾏﾁ","pref":"長崎県","city":"佐世保市","address":"大岳台町"},
{"zip_code":"8570131","kana_pref":"ﾅｶﾞｻｷｹﾝ","kana_city":"ｻｾﾎﾞｼ","kana_address":"ｵｵﾉﾁｮｳ","pref":"長崎県","city":"佐世保市","address":"大野町"},
{"zip_code":"8570841","kana_pref":"ﾅｶﾞｻｷｹﾝ","kana_city":"ｻｾﾎﾞｼ","kana_address":"ｵｵﾐﾔﾁｮｳ","pref":"長崎県","city":"佐世保市","address":"大宮町"},
{"zip_code":"8570146","kana_pref":"ﾅｶﾞｻｷｹﾝ","kana_city":"ｻｾﾎﾞｼ","kana_address":"ｵｶﾞﾜﾁﾁｮｳ","pref":"長崎県","city":"佐世保市","address":"小川内町"},
{"zip_code":"8571171","kana_pref":"ﾅｶﾞｻｷｹﾝ","kana_city":"ｻｾﾎﾞｼ","kana_address":"ｵｷｼﾝﾏﾁ","pref":"長崎県","city":"佐世保市","address":"沖新町"},
{"zip_code":"8570065","kana_pref":"ﾅｶﾞｻｷｹﾝ","kana_city":"ｻｾﾎﾞｼ","kana_address":"ｵﾉﾁｮｳ","pref":"長崎県","city":"佐世保市","address":"小野町"},
{"zip_code":"8570021","kana_pref":"ﾅｶﾞｻｷｹﾝ","kana_city":"ｻｾﾎﾞｼ","kana_address":"ｵﾘﾊｼﾁｮｳ","pref":"長崎県","city":"佐世保市","address":"折橋町"},
{"zip_code":"8571162","kana_pref":"ﾅｶﾞｻｷｹﾝ","kana_city":"ｻｾﾎﾞｼ","kana_address":"ｵﾛｼﾎﾝﾏﾁ","pref":"長崎県","city":"佐世保市","address":"卸本町"},
{"zip_code":"8570144","kana_pref":"ﾅｶﾞｻｷｹﾝ","kana_city":"ｻｾﾎﾞｼ","kana_address":"ｶｲｾﾞﾁｮｳ","pref":"長崎県","city":"佐世保市","address":"皆瀬町"},
{"zip_code":"8570011","kana_pref":"ﾅｶﾞｻｷｹﾝ","kana_city":"ｻｾﾎﾞｼ","kana_address":"ｶｽｶﾞﾁｮｳ","pref":"長崎県","city":"佐世保市","address":"春日町"},
{"zip_code":"8570803","kana_pref":"ﾅｶﾞｻｷｹﾝ","kana_city":"ｻｾﾎﾞｼ","kana_address":"ｶﾂﾄﾐﾁｮｳ","pref":"長崎県","city":"佐世保市","address":"勝富町"},
{"zip_code":"8570872","kana_pref":"ﾅｶﾞｻｷｹﾝ","kana_city":"ｻｾﾎﾞｼ","kana_address":"ｶﾐｷｮｳﾏﾁ","pref":"長崎県","city":"佐世保市","address":"上京町"},
{"zip_code":"8570067","kana_pref":"ﾅｶﾞｻｷｹﾝ","kana_city":"ｻｾﾎﾞｼ","kana_address":"ｶﾐｼﾏﾁｮｳ","pref":"長崎県","city":"佐世保市","address":"神島町"},
{"zip_code":"8570126","kana_pref":"ﾅｶﾞｻｷｹﾝ","kana_city":"ｻｾﾎﾞｼ","kana_address":"ｶﾐﾕﾉｷﾁｮｳ","pref":"長崎県","city":"佐世保市","address":"上柚木町"},
{"zip_code":"8570123","kana_pref":"ﾅｶﾞｻｷｹﾝ","kana_city":"ｻｾﾎﾞｼ","kana_address":"ｶﾜﾀﾆﾁｮｳ","pref":"長崎県","city":"佐世保市","address":"川谷町"},
{"zip_code":"8570801","kana_pref":"ﾅｶﾞｻｷｹﾝ","kana_city":"ｻｾﾎﾞｼ","kana_address":"ｷﾞｵﾝﾁｮｳ","pref":"長崎県","city":"佐世保市","address":"祗園町"},
{"zip_code":"8571166","kana_pref":"ﾅｶﾞｻｷｹﾝ","kana_city":"ｻｾﾎﾞｼ","kana_address":"ｷｶｾﾞﾁｮｳ","pref":"長崎県","city":"佐世保市","address":"木風町"},
{"zip_code":"8570874","kana_pref":"ﾅｶﾞｻｷｹﾝ","kana_city":"ｻｾﾎﾞｼ","kana_address":"ｷｮｳﾉﾂﾎﾞﾁｮｳ","pref":"長崎県","city":"佐世保市","address":"京坪町"},
{"zip_code":"8570121","kana_pref":"ﾅｶﾞｻｷｹﾝ","kana_city":"ｻｾﾎﾞｼ","kana_address":"ｸｸﾞﾙｷﾞﾁｮｳ","pref":"長崎県","city":"佐世保市","address":"潜木町"},
{"zip_code":"8570104","kana_pref":"ﾅｶﾞｻｷｹﾝ","kana_city":"ｻｾﾎﾞｼ","kana_address":"ｸｽﾉｷﾁｮｳ","pref":"長崎県","city":"佐世保市","address":"楠木町"},
{"zip_code":"8570025","kana_pref":"ﾅｶﾞｻｷｹﾝ","kana_city":"ｻｾﾎﾞｼ","kana_address":"ｸﾏﾉﾁｮｳ","pref":"長崎県","city":"佐世保市","address":"熊野町"},
{"zip_code":"8571152","kana_pref":"ﾅｶﾞｻｷｹﾝ","kana_city":"ｻｾﾎﾞｼ","kana_address":"ｸﾛｶﾐﾁｮｳ","pref":"長崎県","city":"佐世保市","address":"黒髪町"},
{"zip_code":"8573271","kana_pref":"ﾅｶﾞｻｷｹﾝ","kana_city":"ｻｾﾎﾞｼ","kana_address":"ｸﾛｼﾏﾁｮｳ","pref":"長崎県","city":"佐世保市","address":"黒島町"},
{"zip_code":"8570805","kana_pref":"ﾅｶﾞｻｷｹﾝ","kana_city":"ｻｾﾎﾞｼ","kana_address":"ｺｳｹﾞﾂﾁｮｳ","pref":"長崎県","city":"佐世保市","address":"光月町"},
{"zip_code":"8570802","kana_pref":"ﾅｶﾞｻｷｹﾝ","kana_city":"ｻｾﾎﾞｼ","kana_address":"ｺｳﾃﾝﾁｮｳ","pref":"長崎県","city":"佐世保市","address":"高天町"},
{"zip_code":"8570403","kana_pref":"ﾅｶﾞｻｷｹﾝ","kana_city":"ｻｾﾎﾞｼ","kana_address":"ｺｻｻﾞﾁｮｳｳｽﾉｳﾗ","pref":"長崎県","city":"佐世保市","address":"小佐々町臼ノ浦"},
{"zip_code":"8570413","kana_pref":"ﾅｶﾞｻｷｹﾝ","kana_city":"ｻｾﾎﾞｼ","kana_address":"ｺｻｻﾞﾁｮｳｸｽﾄﾞﾏﾘ","pref":"長崎県","city":"佐世保市","address":"小佐々町楠泊"},
{"zip_code":"8570401","kana_pref":"ﾅｶﾞｻｷｹﾝ","kana_city":"ｻｾﾎﾞｼ","kana_address":"ｺｻｻﾞﾁｮｳｸﾛｲｼ","pref":"長崎県","city":"佐世保市","address":"小佐々町黒石"},
{"zip_code":"8570402","kana_pref":"ﾅｶﾞｻｷｹﾝ","kana_city":"ｻｾﾎﾞｼ","kana_address":"ｺｻｻﾞﾁｮｳｺｻｶ","pref":"長崎県","city":"佐世保市","address":"小佐々町小坂"},
{"zip_code":"8570411","kana_pref":"ﾅｶﾞｻｷｹﾝ","kana_city":"ｻｾﾎﾞｼ","kana_address":"ｺｻｻﾞﾁｮｳﾀｹﾉｺﾊﾞ","pref":"長崎県","city":"佐世保市","address":"小佐々町岳ノ木場"},
{"zip_code":"8570404","kana_pref":"ﾅｶﾞｻｷｹﾝ","kana_city":"ｻｾﾎﾞｼ","kana_address":"ｺｻｻﾞﾁｮｳﾀﾊﾞﾙ","pref":"長崎県","city":"佐世保市","address":"小佐々町田原"},
{"zip_code":"8570405","kana_pref":"ﾅｶﾞｻｷｹﾝ","kana_city":"ｻｾﾎﾞｼ","kana_address":"ｺｻｻﾞﾁｮｳﾂﾂﾞﾗ","pref":"長崎県","city":"佐世保市","address":"小佐々町葛籠"},
{"zip_code":"8570412","kana_pref":"ﾅｶﾞｻｷｹﾝ","kana_city":"ｻｾﾎﾞｼ","kana_address":"ｺｻｻﾞﾁｮｳﾆｼｶﾜｳﾁ","pref":"長崎県","city":"佐世保市","address":"小佐々町西川内"},
{"zip_code":"8570406","kana_pref":"ﾅｶﾞｻｷｹﾝ","kana_city":"ｻｾﾎﾞｼ","kana_address":"ｺｻｻﾞﾁｮｳﾋﾗﾊﾞﾙ","pref":"長崎県","city":"佐世保市","address":"小佐々町平原"},
{"zip_code":"8570414","kana_pref":"ﾅｶﾞｻｷｹﾝ","kana_city":"ｻｾﾎﾞｼ","kana_address":"ｺｻｻﾞﾁｮｳﾔﾀﾞｹ","pref":"長崎県","city":"佐世保市","address":"小佐々町矢岳"},
{"zip_code":"8570813","kana_pref":"ﾅｶﾞｻｷｹﾝ","kana_city":"ｻｾﾎﾞｼ","kana_address":"ｺｻｾﾎﾞﾁｮｳ","pref":"長崎県","city":"佐世保市","address":"小佐世保町"},
{"zip_code":"8570066","kana_pref":"ﾅｶﾞｻｷｹﾝ","kana_city":"ｻｾﾎﾞｼ","kana_address":"ｺｼﾞﾏﾁｮｳ","pref":"長崎県","city":"佐世保市","address":"小島町"},
{"zip_code":"8570041","kana_pref":"ﾅｶﾞｻｷｹﾝ","kana_city":"ｻｾﾎﾞｼ","kana_address":"ｺﾊﾞﾀﾁｮｳ","pref":"長崎県","city":"佐世保市","address":"木場田町"},
{"zip_code":"8570114","kana_pref":"ﾅｶﾞｻｷｹﾝ","kana_city":"ｻｾﾎﾞｼ","kana_address":"ｺﾌﾈﾁｮｳ","pref":"長崎県","city":"佐世保市","address":"小舟町"},
{"zip_code":"8570106","kana_pref":"ﾅｶﾞｻｷｹﾝ","kana_city":"ｻｾﾎﾞｼ","kana_address":"ｺﾓﾀﾞﾁｮｳ","pref":"長崎県","city":"佐世保市","address":"菰田町"},
{"zip_code":"8570062","kana_pref":"ﾅｶﾞｻｷｹﾝ","kana_city":"ｻｾﾎﾞｼ","kana_address":"ｺﾝﾋﾟﾗﾁｮｳ","pref":"長崎県","city":"佐世保市","address":"金比良町"},
{"zip_code":"8570054","kana_pref":"ﾅｶﾞｻｷｹﾝ","kana_city":"ｻｾﾎﾞｼ","kana_address":"ｻｶｴﾏﾁ","pref":"長崎県","city":"佐世保市","address":"栄町"},
{"zip_code":"8571176","kana_pref":"ﾅｶﾞｻｷｹﾝ","kana_city":"ｻｾﾎﾞｼ","kana_address":"ｻｷﾍﾞﾁｮｳ","pref":"長崎県","city":"佐世保市","address":"崎辺町"},
{"zip_code":"8570012","kana_pref":"ﾅｶﾞｻｷｹﾝ","kana_city":"ｻｾﾎﾞｼ","kana_address":"ｻｸﾗｷﾞﾁｮｳ","pref":"長崎県","city":"佐世保市","address":"桜木町"},
{"zip_code":"8570122","kana_pref":"ﾅｶﾞｻｷｹﾝ","kana_city":"ｻｾﾎﾞｼ","kana_address":"ｻﾄﾖｼﾁｮｳ","pref":"長崎県","city":"佐世保市","address":"里美町"},
{"zip_code":"8570876","kana_pref":"ﾅｶﾞｻｷｹﾝ","kana_city":"ｻｾﾎﾞｼ","kana_address":"ｼｵﾊﾏﾁｮｳ","pref":"長崎県","city":"佐世保市","address":"塩浜町"},
{"zip_code":"8570834","kana_pref":"ﾅｶﾞｻｷｹﾝ","kana_city":"ｻｾﾎﾞｼ","kana_address":"ｼｵﾐﾁｮｳ","pref":"長崎県","city":"佐世保市","address":"潮見町"},
{"zip_code":"8570806","kana_pref":"ﾅｶﾞｻｷｹﾝ","kana_city":"ｻｾﾎﾞｼ","kana_address":"ｼﾏﾉｾﾁｮｳ","pref":"長崎県","city":"佐世保市","address":"島瀬町"},
{"zip_code":"8570879","kana_pref":"ﾅｶﾞｻｷｹﾝ","kana_city":"ｻｾﾎﾞｼ","kana_address":"ｼﾏﾝｼﾞﾁｮｳ","pref":"長崎県","city":"佐世保市","address":"島地町"},
{"zip_code":"8570036","kana_pref":"ﾅｶﾞｻｷｹﾝ","kana_city":"ｻｾﾎﾞｼ","kana_address":"ｼﾐｽﾞﾁｮｳ","pref":"長崎県","city":"佐世保市","address":"清水町"},
{"zip_code":"8570113","kana_pref":"ﾅｶﾞｻｷｹﾝ","kana_city":"ｻｾﾎﾞｼ","kana_address":"ｼﾓｳﾄﾞﾁｮｳ","pref":"長崎県","city":"佐世保市","address":"下宇戸町"},
{"zip_code":"8570875","kana_pref":"ﾅｶﾞｻｷｹﾝ","kana_city":"ｻｾﾎﾞｼ","kana_address":"ｼﾓｷｮｳﾏﾁ","pref":"長崎県","city":"佐世保市","address":"下京町"},
{"zip_code":"8571232","kana_pref":"ﾅｶﾞｻｷｹﾝ","kana_city":"ｻｾﾎﾞｼ","kana_address":"ｼﾓﾌﾅｺｼﾁｮｳ","pref":"長崎県","city":"佐世保市","address":"下船越町"},
{"zip_code":"8571173","kana_pref":"ﾅｶﾞｻｷｹﾝ","kana_city":"ｻｾﾎﾞｼ","kana_address":"ｼﾞｭｳﾛｳｼﾝﾏﾁ","pref":"長崎県","city":"佐世保市","address":"十郎新町"},
{"zip_code":"8570821","kana_pref":"ﾅｶﾞｻｷｹﾝ","kana_city":"ｻｾﾎﾞｼ","kana_address":"ｼﾗｷﾁｮｳ","pref":"長崎県","city":"佐世保市","address":"白木町"},
{"zip_code":"8571164","kana_pref":"ﾅｶﾞｻｷｹﾝ","kana_city":"ｻｾﾎﾞｼ","kana_address":"ｼﾗﾀｹﾁｮｳ","pref":"長崎県","city":"佐世保市","address":"白岳町"},
{"zip_code":"8570105","kana_pref":"ﾅｶﾞｻｷｹﾝ","kana_city":"ｻｾﾎﾞｼ","kana_address":"ｼﾗﾆﾀﾁｮｳ","pref":"長崎県","city":"佐世保市","address":"白仁田町"},
{"zip_code":"8570862","kana_pref":"ﾅｶﾞｻｷｹﾝ","kana_city":"ｻｾﾎﾞｼ","kana_address":"ｼﾗﾊｴﾁｮｳ","pref":"長崎県","city":"佐世保市","address":"白南風町"},
{"zip_code":"8570033","kana_pref":"ﾅｶﾞｻｷｹﾝ","kana_city":"ｻｾﾎﾞｼ","kana_address":"ｼﾛﾔﾏﾁｮｳ","pref":"長崎県","city":"佐世保市","address":"城山町"},
{"zip_code":"8570855","kana_pref":"ﾅｶﾞｻｷｹﾝ","kana_city":"ｻｾﾎﾞｼ","kana_address":"ｼﾝﾐﾅﾄﾏﾁ","pref":"長崎県","city":"佐世保市","address":"新港町"},
{"zip_code":"8570812","kana_pref":"ﾅｶﾞｻｷｹﾝ","kana_city":"ｻｾﾎﾞｼ","kana_address":"ｽｻﾏﾁ","pref":"長崎県","city":"佐世保市","address":"須佐町"},
{"zip_code":"8570831","kana_pref":"ﾅｶﾞｻｷｹﾝ","kana_city":"ｻｾﾎﾞｼ","kana_address":"ｽﾀﾞｵﾁｮｳ","pref":"長崎県","city":"佐世保市","address":"須田尾町"},
{"zip_code":"8570134","kana_pref":"ﾅｶﾞｻｷｹﾝ","kana_city":"ｻｾﾎﾞｼ","kana_address":"ｾﾄｺﾞｴ","pref":"長崎県","city":"佐世保市","address":"瀬戸越"},
{"zip_code":"8570135","kana_pref":"ﾅｶﾞｻｷｹﾝ","kana_city":"ｻｾﾎﾞｼ","kana_address":"ｾﾄｺﾞｴﾁｮｳ","pref":"長崎県","city":"佐世保市","address":"瀬戸越町"},
{"zip_code":"8570045","kana_pref":"ﾅｶﾞｻｷｹﾝ","kana_city":"ｻｾﾎﾞｼ","kana_address":"ｿﾉﾀﾞﾏﾁ","pref":"長崎県","city":"佐世保市","address":"園田町"},
{"zip_code":"8570843","kana_pref":"ﾅｶﾞｻｷｹﾝ","kana_city":"ｻｾﾎﾞｼ","kana_address":"ﾀﾞｲｺｸﾁｮｳ","pref":"長崎県","city":"佐世保市","address":"大黒町"},
{"zip_code":"8571161","kana_pref":"ﾅｶﾞｻｷｹﾝ","kana_city":"ｻｾﾎﾞｼ","kana_address":"ﾀﾞｲﾄｳﾁｮｳ","pref":"長崎県","city":"佐世保市","address":"大塔町"},
{"zip_code":"8570042","kana_pref":"ﾅｶﾞｻｷｹﾝ","kana_city":"ｻｾﾎﾞｼ","kana_address":"ﾀｶｻｺﾞﾁｮｳ","pref":"長崎県","city":"佐世保市","address":"高砂町"},
{"zip_code":"8570811","kana_pref":"ﾅｶﾞｻｷｹﾝ","kana_city":"ｻｾﾎﾞｼ","kana_address":"ﾀｶﾅｼﾁｮｳ","pref":"長崎県","city":"佐世保市","address":"高梨町"},
{"zip_code":"8570125","kana_pref":"ﾅｶﾞｻｷｹﾝ","kana_city":"ｻｾﾎﾞｼ","kana_address":"ﾀｶﾊﾅﾁｮｳ","pref":"長崎県","city":"佐世保市","address":"高花町"},
{"zip_code":"8570014","kana_pref":"ﾅｶﾞｻｷｹﾝ","kana_city":"ｻｾﾎﾞｼ","kana_address":"ﾀｼﾛﾁｮｳ","pref":"長崎県","city":"佐世保市","address":"田代町"},
{"zip_code":"8570063","kana_pref":"ﾅｶﾞｻｷｹﾝ","kana_city":"ｻｾﾎﾞｼ","kana_address":"ﾀﾃｶﾞﾐﾁｮｳ","pref":"長崎県","city":"佐世保市","address":"立神町"},
{"zip_code":"8570027","kana_pref":"ﾅｶﾞｻｷｹﾝ","kana_city":"ｻｾﾎﾞｼ","kana_address":"ﾀﾆｺﾞｳﾁｮｳ","pref":"長崎県","city":"佐世保市","address":"谷郷町"},
{"zip_code":"8570136","kana_pref":"ﾅｶﾞｻｷｹﾝ","kana_city":"ｻｾﾎﾞｼ","kana_address":"ﾀﾊﾞﾙﾁｮｳ","pref":"長崎県","city":"佐世保市","address":"田原町"},
{"zip_code":"8571235","kana_pref":"ﾅｶﾞｻｷｹﾝ","kana_city":"ｻｾﾎﾞｼ","kana_address":"ﾀﾜﾗｶﾞｳﾗﾁｮｳ","pref":"長崎県","city":"佐世保市","address":"俵ケ浦町"},
{"zip_code":"8570016","kana_pref":"ﾅｶﾞｻｷｹﾝ","kana_city":"ｻｾﾎﾞｼ","kana_address":"ﾀﾜﾗﾏﾁ","pref":"長崎県","city":"佐世保市","address":"俵町"},
{"zip_code":"8570101","kana_pref":"ﾅｶﾞｻｷｹﾝ","kana_city":"ｻｾﾎﾞｼ","kana_address":"ﾁｹﾝｼﾞﾁｮｳ","pref":"長崎県","city":"佐世保市","address":"知見寺町"},
{"zip_code":"8570111","kana_pref":"ﾅｶﾞｻｷｹﾝ","kana_city":"ｻｾﾎﾞｼ","kana_address":"ﾂﾂｲﾁｮｳ","pref":"長崎県","city":"佐世保市","address":"筒井町"},
{"zip_code":"8571174","kana_pref":"ﾅｶﾞｻｷｹﾝ","kana_city":"ｻｾﾎﾞｼ","kana_address":"ﾃﾝｼﾞﾝ","pref":"長崎県","city":"佐世保市","address":"天神"},
{"zip_code":"8571175","kana_pref":"ﾅｶﾞｻｷｹﾝ","kana_city":"ｻｾﾎﾞｼ","kana_address":"ﾃﾝｼﾞﾝﾁｮｳ","pref":"長崎県","city":"佐世保市","address":"天神町"},
{"zip_code":"8570043","kana_pref":"ﾅｶﾞｻｷｹﾝ","kana_city":"ｻｾﾎﾞｼ","kana_address":"ﾃﾝﾏﾁｮｳ","pref":"長崎県","city":"佐世保市","address":"天満町"},
{"zip_code":"8570124","kana_pref":"ﾅｶﾞｻｷｹﾝ","kana_city":"ｻｾﾎﾞｼ","kana_address":"ﾄｶﾞｸﾗﾁｮｳ","pref":"長崎県","city":"佐世保市","address":"戸ケ倉町"},
{"zip_code":"8570053","kana_pref":"ﾅｶﾞｻｷｹﾝ","kana_city":"ｻｾﾎﾞｼ","kana_address":"ﾄｷﾜﾁｮｳ","pref":"長崎県","city":"佐世保市","address":"常盤町"},
{"zip_code":"8570864","kana_pref":"ﾅｶﾞｻｷｹﾝ","kana_city":"ｻｾﾎﾞｼ","kana_address":"ﾄﾉｵﾁｮｳ","pref":"長崎県","city":"佐世保市","address":"戸尾町"},
{"zip_code":"8570141","kana_pref":"ﾅｶﾞｻｷｹﾝ","kana_city":"ｻｾﾎﾞｼ","kana_address":"ﾄﾓﾝﾉﾁｮｳ","pref":"長崎県","city":"佐世保市","address":"十文野町"},
{"zip_code":"8570046","kana_pref":"ﾅｶﾞｻｷｹﾝ","kana_city":"ｻｾﾎﾞｼ","kana_address":"ﾅｶﾞｵﾁｮｳ","pref":"長崎県","city":"佐世保市","address":"長尾町"},
{"zip_code":"8570038","kana_pref":"ﾅｶﾞｻｷｹﾝ","kana_city":"ｻｾﾎﾞｼ","kana_address":"ﾅｶﾄﾞｵﾘﾁｮｳ","pref":"長崎県","city":"佐世保市","address":"中通町"},
{"zip_code":"8570023","kana_pref":"ﾅｶﾞｻｷｹﾝ","kana_city":"ｻｾﾎﾞｼ","kana_address":"ﾅｷﾘﾁｮｳ","pref":"長崎県","city":"佐世保市","address":"名切町"},
{"zip_code":"8570048","kana_pref":"ﾅｶﾞｻｷｹﾝ","kana_city":"ｻｾﾎﾞｼ","kana_address":"ﾆｼｵｵｸﾎﾞﾁｮｳ","pref":"長崎県","city":"佐世保市","address":"西大久保町"},
{"zip_code":"8571234","kana_pref":"ﾅｶﾞｻｷｹﾝ","kana_city":"ｻｾﾎﾞｼ","kana_address":"ﾉｻﾞｷﾁｮｳ","pref":"長崎県","city":"佐世保市","address":"野崎町"},
{"zip_code":"8570142","kana_pref":"ﾅｶﾞｻｷｹﾝ","kana_city":"ｻｾﾎﾞｼ","kana_address":"ﾉﾅｶﾁｮｳ","pref":"長崎県","city":"佐世保市","address":"野中町"},
{"zip_code":"8570028","kana_pref":"ﾅｶﾞｻｷｹﾝ","kana_city":"ｻｾﾎﾞｼ","kana_address":"ﾊﾁﾏﾝﾁｮｳ","pref":"長崎県","city":"佐世保市","address":"八幡町"},
{"zip_code":"8570024","kana_pref":"ﾅｶﾞｻｷｹﾝ","kana_city":"ｻｾﾎﾞｼ","kana_address":"ﾊﾅｿﾞﾉﾁｮｳ","pref":"長崎県","city":"佐世保市","address":"花園町"},
{"zip_code":"8570051","kana_pref":"ﾅｶﾞｻｷｹﾝ","kana_city":"ｻｾﾎﾞｼ","kana_address":"ﾊﾏﾀﾞﾏﾁ","pref":"長崎県","city":"佐世保市","address":"浜田町"},
{"zip_code":"8570103","kana_pref":"ﾅｶﾞｻｷｹﾝ","kana_city":"ｻｾﾎﾞｼ","kana_address":"ﾊﾙﾌﾞﾝﾁｮｳ","pref":"長崎県","city":"佐世保市","address":"原分町"},
{"zip_code":"8571151","kana_pref":"ﾅｶﾞｻｷｹﾝ","kana_city":"ｻｾﾎﾞｼ","kana_address":"ﾋｳﾁｮｳ","pref":"長崎県","city":"佐世保市","address":"日宇町"},
{"zip_code":"8570049","kana_pref":"ﾅｶﾞｻｷｹﾝ","kana_city":"ｻｾﾎﾞｼ","kana_address":"ﾋｶﾞｼｵｵｸﾎﾞﾁｮｳ","pref":"長崎県","city":"佐世保市","address":"東大久保町"},
{"zip_code":"8571172","kana_pref":"ﾅｶﾞｻｷｹﾝ","kana_city":"ｻｾﾎﾞｼ","kana_address":"ﾋｶﾞｼﾊﾏﾁｮｳ","pref":"長崎県","city":"佐世保市","address":"東浜町"},
{"zip_code":"8570842","kana_pref":"ﾅｶﾞｻｷｹﾝ","kana_city":"ｻｾﾎﾞｼ","kana_address":"ﾋｶﾞｼﾔﾏﾁｮｳ","pref":"長崎県","city":"佐世保市","address":"東山町"},
{"zip_code":"8570852","kana_pref":"ﾅｶﾞｻｷｹﾝ","kana_city":"ｻｾﾎﾞｼ","kana_address":"ﾋﾂﾞｸｼﾏﾁ","pref":"長崎県","city":"佐世保市","address":"干尽町"},
{"zip_code":"8570056","kana_pref":"ﾅｶﾞｻｷｹﾝ","kana_city":"ｻｾﾎﾞｼ","kana_address":"ﾋﾗｾﾁｮｳ","pref":"長崎県","city":"佐世保市","address":"平瀬町"},
{"zip_code":"8570040","kana_pref":"ﾅｶﾞｻｷｹﾝ","kana_city":"ｻｾﾎﾞｼ","kana_address":"ﾋﾗﾏﾁ","pref":"長崎県","city":"佐世保市","address":"比良町"},
{"zip_code":"8570854","kana_pref":"ﾅｶﾞｻｷｹﾝ","kana_city":"ｻｾﾎﾞｼ","kana_address":"ﾌｸｲｼﾁｮｳ","pref":"長崎県","city":"佐世保市","address":"福石町"},
{"zip_code":"8570035","kana_pref":"ﾅｶﾞｻｷｹﾝ","kana_city":"ｻｾﾎﾞｼ","kana_address":"ﾌｸﾀﾞﾏﾁ","pref":"長崎県","city":"佐世保市","address":"福田町"},
{"zip_code":"8570832","kana_pref":"ﾅｶﾞｻｷｹﾝ","kana_city":"ｻｾﾎﾞｼ","kana_address":"ﾌｼﾞﾜﾗﾁｮｳ","pref":"長崎県","city":"佐世保市","address":"藤原町"},
{"zip_code":"8571231","kana_pref":"ﾅｶﾞｻｷｹﾝ","kana_city":"ｻｾﾎﾞｼ","kana_address":"ﾌﾅｺｼﾁｮｳ","pref":"長崎県","city":"佐世保市","address":"船越町"},
{"zip_code":"8570031","kana_pref":"ﾅｶﾞｻｷｹﾝ","kana_city":"ｻｾﾎﾞｼ","kana_address":"ﾎﾀﾃﾁｮｳ","pref":"長崎県","city":"佐世保市","address":"保立町"},
{"zip_code":"8570853","kana_pref":"ﾅｶﾞｻｷｹﾝ","kana_city":"ｻｾﾎﾞｼ","kana_address":"ﾏｴﾊﾀﾁｮｳ","pref":"長崎県","city":"佐世保市","address":"前畑町"},
{"zip_code":"8570145","kana_pref":"ﾅｶﾞｻｷｹﾝ","kana_city":"ｻｾﾎﾞｼ","kana_address":"ﾏｷﾉｼﾞﾁｮｳ","pref":"長崎県","city":"佐世保市","address":"牧の地町"},
{"zip_code":"8570052","kana_pref":"ﾅｶﾞｻｷｹﾝ","kana_city":"ｻｾﾎﾞｼ","kana_address":"ﾏﾂｳﾗﾁｮｳ","pref":"長崎県","city":"佐世保市","address":"松浦町"},
{"zip_code":"8570804","kana_pref":"ﾅｶﾞｻｷｹﾝ","kana_city":"ｻｾﾎﾞｼ","kana_address":"ﾏﾂｶﾜﾁｮｳ","pref":"長崎県","city":"佐世保市","address":"松川町"},
{"zip_code":"8570102","kana_pref":"ﾅｶﾞｻｷｹﾝ","kana_city":"ｻｾﾎﾞｼ","kana_address":"ﾏﾂｾﾁｮｳ","pref":"長崎県","city":"佐世保市","address":"松瀬町"},
{"zip_code":"8570132","kana_pref":"ﾅｶﾞｻｷｹﾝ","kana_city":"ｻｾﾎﾞｼ","kana_address":"ﾏﾂﾊﾞﾗﾁｮｳ","pref":"長崎県","city":"佐世保市","address":"松原町"},
{"zip_code":"8570015","kana_pref":"ﾅｶﾞｻｷｹﾝ","kana_city":"ｻｾﾎﾞｼ","kana_address":"ﾏﾂﾔﾏﾁｮｳ","pref":"長崎県","city":"佐世保市","address":"松山町"},
{"zip_code":"8570034","kana_pref":"ﾅｶﾞｻｷｹﾝ","kana_city":"ｻｾﾎﾞｼ","kana_address":"ﾏﾝﾄｸﾁｮｳ","pref":"長崎県","city":"佐世保市","address":"万徳町"},
{"zip_code":"8570863","kana_pref":"ﾅｶﾞｻｷｹﾝ","kana_city":"ｻｾﾎﾞｼ","kana_address":"ﾐｳﾗﾁｮｳ","pref":"長崎県","city":"佐世保市","address":"三浦町"},
{"zip_code":"8570055","kana_pref":"ﾅｶﾞｻｷｹﾝ","kana_city":"ｻｾﾎﾞｼ","kana_address":"ﾐﾅﾄﾏﾁ","pref":"長崎県","city":"佐世保市","address":"湊町"},
{"zip_code":"8570861","kana_pref":"ﾅｶﾞｻｷｹﾝ","kana_city":"ｻｾﾎﾞｼ","kana_address":"ﾐﾈﾉｻｶﾁｮｳ","pref":"長崎県","city":"佐世保市","address":"峰坂町"},
{"zip_code":"8570068","kana_pref":"ﾅｶﾞｻｷｹﾝ","kana_city":"ｻｾﾎﾞｼ","kana_address":"ﾐﾌﾈﾁｮｳ","pref":"長崎県","city":"佐世保市","address":"御船町"},
{"zip_code":"8570873","kana_pref":"ﾅｶﾞｻｷｹﾝ","kana_city":"ｻｾﾎﾞｼ","kana_address":"ﾐﾔｻﾞｷﾁｮｳ","pref":"長崎県","city":"佐世保市","address":"宮崎町"},
{"zip_code":"8570026","kana_pref":"ﾅｶﾞｻｷｹﾝ","kana_city":"ｻｾﾎﾞｼ","kana_address":"ﾐﾔｼﾞﾁｮｳ","pref":"長崎県","city":"佐世保市","address":"宮地町"},
{"zip_code":"8570032","kana_pref":"ﾅｶﾞｻｷｹﾝ","kana_city":"ｻｾﾎﾞｼ","kana_address":"ﾐﾔﾀﾞﾏﾁ","pref":"長崎県","city":"佐世保市","address":"宮田町"},
{"zip_code":"8570871","kana_pref":"ﾅｶﾞｻｷｹﾝ","kana_city":"ｻｾﾎﾞｼ","kana_address":"ﾓﾄｼﾏﾁｮｳ","pref":"長崎県","city":"佐世保市","address":"本島町"},
{"zip_code":"8570059","kana_pref":"ﾅｶﾞｻｷｹﾝ","kana_city":"ｻｾﾎﾞｼ","kana_address":"ﾓﾄﾏﾁ","pref":"長崎県","city":"佐世保市","address":"元町"},
{"zip_code":"8571153","kana_pref":"ﾅｶﾞｻｷｹﾝ","kana_city":"ｻｾﾎﾞｼ","kana_address":"ﾓﾐｼﾞｶﾞｵｶﾏﾁ","pref":"長崎県","city":"佐世保市","address":"もみじが丘町"},
{"zip_code":"8570047","kana_pref":"ﾅｶﾞｻｷｹﾝ","kana_city":"ｻｾﾎﾞｼ","kana_address":"ﾔﾀｹﾁｮｳ","pref":"長崎県","city":"佐世保市","address":"矢岳町"},
{"zip_code":"8570878","kana_pref":"ﾅｶﾞｻｷｹﾝ","kana_city":"ｻｾﾎﾞｼ","kana_address":"ﾔﾏｶﾞﾀﾁｮｳ","pref":"長崎県","city":"佐世保市","address":"山県町"},
{"zip_code":"8570822","kana_pref":"ﾅｶﾞｻｷｹﾝ","kana_city":"ｻｾﾎﾞｼ","kana_address":"ﾔﾏｽﾞﾐﾁｮｳ","pref":"長崎県","city":"佐世保市","address":"山祗町"},
{"zip_code":"8570022","kana_pref":"ﾅｶﾞｻｷｹﾝ","kana_city":"ｻｾﾎﾞｼ","kana_address":"ﾔﾏﾃﾁｮｳ","pref":"長崎県","city":"佐世保市","address":"山手町"},
{"zip_code":"8571165","kana_pref":"ﾅｶﾞｻｷｹﾝ","kana_city":"ｻｾﾎﾞｼ","kana_address":"ﾔﾏﾄﾁｮｳ","pref":"長崎県","city":"佐世保市","address":"大和町"},
{"zip_code":"8570133","kana_pref":"ﾅｶﾞｻｷｹﾝ","kana_city":"ｻｾﾎﾞｼ","kana_address":"ﾔﾐﾈﾁｮｳ","pref":"長崎県","city":"佐世保市","address":"矢峰町"},
{"zip_code":"8570112","kana_pref":"ﾅｶﾞｻｷｹﾝ","kana_city":"ｻｾﾎﾞｼ","kana_address":"ﾕﾉｷﾁｮｳ","pref":"長崎県","city":"佐世保市","address":"柚木町"},
{"zip_code":"8570115","kana_pref":"ﾅｶﾞｻｷｹﾝ","kana_city":"ｻｾﾎﾞｼ","kana_address":"ﾕﾉｷﾓﾄﾏﾁ","pref":"長崎県","city":"佐世保市","address":"柚木元町"},
{"zip_code":"8570018","kana_pref":"ﾅｶﾞｻｷｹﾝ","kana_city":"ｻｾﾎﾞｼ","kana_address":"ﾖｺｵﾁｮｳ","pref":"長崎県","city":"佐世保市","address":"横尾町"},
{"zip_code":"8570143","kana_pref":"ﾅｶﾞｻｷｹﾝ","kana_city":"ｻｾﾎﾞｼ","kana_address":"ﾖｼｵｶﾁｮｳ","pref":"長崎県","city":"佐世保市","address":"吉岡町"},
{"zip_code":"8570877","kana_pref":"ﾅｶﾞｻｷｹﾝ","kana_city":"ｻｾﾎﾞｼ","kana_address":"ﾖﾛﾂﾞﾁｮｳ","pref":"長崎県","city":"佐世保市","address":"万津町"},
{"zip_code":"8570833","kana_pref":"ﾅｶﾞｻｷｹﾝ","kana_city":"ｻｾﾎﾞｼ","kana_address":"ﾜｶﾊﾞﾁｮｳ","pref":"長崎県","city":"佐世保市","address":"若葉町"},
{"zip_code":"8572427","kana_pref":"ﾅｶﾞｻｷｹﾝ","kana_city":"ｻｲｶｲｼ","kana_address":"ｵｵｼﾏﾁｮｳﾉﾂｷﾞﾆﾊﾞﾝﾁｶﾞｸﾙﾊﾞｱｲ","pref":"長崎県","city":"西海市","address":"大島町の次に番地がくる場合"},
{"zip_code":"8572402","kana_pref":"ﾅｶﾞｻｷｹﾝ","kana_city":"ｻｲｶｲｼ","kana_address":"ｵｵｼﾏﾁｮｳｳﾁｳﾗﾁｸ","pref":"長崎県","city":"西海市","address":"大島町内浦地区"},
{"zip_code":"8572426","kana_pref":"ﾅｶﾞｻｷｹﾝ","kana_city":"ｻｲｶｲｼ","kana_address":"ｵｵｼﾏﾁｮｳｵｵｼﾞﾏ","pref":"長崎県","city":"西海市","address":"大島町大島"},
{"zip_code":"8572422","kana_pref":"ﾅｶﾞｻｷｹﾝ","kana_city":"ｻｲｶｲｼ","kana_address":"ｵｵｼﾏﾁｮｳｵｵﾀﾞｵ","pref":"長崎県","city":"西海市","address":"大島町太田尾"},
{"zip_code":"8572401","kana_pref":"ﾅｶﾞｻｷｹﾝ","kana_city":"ｻｲｶｲｼ","kana_address":"ｵｵｼﾏﾁｮｳｸﾛｾ","pref":"長崎県","city":"西海市","address":"大島町黒瀬"},
{"zip_code":"8572424","kana_pref":"ﾅｶﾞｻｷｹﾝ","kana_city":"ｻｲｶｲｼ","kana_address":"ｵｵｼﾏﾁｮｳｼｵﾀﾞ","pref":"長崎県","city":"西海市","address":"大島町塩田"},
{"zip_code":"8572425","kana_pref":"ﾅｶﾞｻｷｹﾝ","kana_city":"ｻｲｶｲｼ","kana_address":"ｵｵｼﾏﾁｮｳﾀﾉｳﾗ","pref":"長崎県","city":"西海市","address":"大島町田浦"},
{"zip_code":"8572405","kana_pref":"ﾅｶﾞｻｷｹﾝ","kana_city":"ｻｲｶｲｼ","kana_address":"ｵｵｼﾏﾁｮｳﾁｭｳｵｳﾁｸ","pref":"長崎県","city":"西海市","address":"大島町中央地区"},
{"zip_code":"8572411","kana_pref":"ﾅｶﾞｻｷｹﾝ","kana_city":"ｻｲｶｲｼ","kana_address":"ｵｵｼﾏﾁｮｳﾃﾗｼﾏ","pref":"長崎県","city":"西海市","address":"大島町寺島"},
{"zip_code":"8572423","kana_pref":"ﾅｶﾞｻｷｹﾝ","kana_city":"ｻｲｶｲｼ","kana_address":"ｵｵｼﾏﾁｮｳﾄｵﾉｵ","pref":"長崎県","city":"西海市","address":"大島町塔尾"},
{"zip_code":"8572418","kana_pref":"ﾅｶﾞｻｷｹﾝ","kana_city":"ｻｲｶｲｼ","kana_address":"ｵｵｼﾏﾁｮｳﾄｸﾏﾝ","pref":"長崎県","city":"西海市","address":"大島町徳万"},
{"zip_code":"8572421","kana_pref":"ﾅｶﾞｻｷｹﾝ","kana_city":"ｻｲｶｲｼ","kana_address":"ｵｵｼﾏﾁｮｳﾅｶﾄ","pref":"長崎県","city":"西海市","address":"大島町中戸"},
{"zip_code":"8572419","kana_pref":"ﾅｶﾞｻｷｹﾝ","kana_city":"ｻｲｶｲｼ","kana_address":"ｵｵｼﾏﾁｮｳﾊﾏｸﾞﾘ","pref":"長崎県","city":"西海市","address":"大島町蛤"},
{"zip_code":"8572403","kana_pref":"ﾅｶﾞｻｷｹﾝ","kana_city":"ｻｲｶｲｼ","kana_address":"ｵｵｼﾏﾁｮｳﾏｺﾞﾒ","pref":"長崎県","city":"西海市","address":"大島町馬込"},
{"zip_code":"8572412","kana_pref":"ﾅｶﾞｻｷｹﾝ","kana_city":"ｻｲｶｲｼ","kana_address":"ｵｵｼﾏﾁｮｳﾏｻｺﾞ","pref":"長崎県","city":"西海市","address":"大島町真砂"},
{"zip_code":"8572413","kana_pref":"ﾅｶﾞｻｷｹﾝ","kana_city":"ｻｲｶｲｼ","kana_address":"ｵｵｼﾏﾁｮｳﾏｾﾞ","pref":"長崎県","city":"西海市","address":"大島町間瀬"},
{"zip_code":"8572417","kana_pref":"ﾅｶﾞｻｷｹﾝ","kana_city":"ｻｲｶｲｼ","kana_address":"ｵｵｼﾏﾁｮｳﾕﾘｶﾞｵｶ","pref":"長崎県","city":"西海市","address":"大島町百合が丘"},
{"zip_code":"8572301","kana_pref":"ﾅｶﾞｻｷｹﾝ","kana_city":"ｻｲｶｲｼ","kana_address":"ｵｵｾﾄﾁｮｳｾﾄｲﾀﾉｳﾗｺﾞｳ","pref":"長崎県","city":"西海市","address":"大瀬戸町瀬戸板浦郷"},
{"zip_code":"8572302","kana_pref":"ﾅｶﾞｻｷｹﾝ","kana_city":"ｻｲｶｲｼ","kana_address":"ｵｵｾﾄﾁｮｳｾﾄｶｼﾉｳﾗｺﾞｳ","pref":"長崎県","city":"西海市","address":"大瀬戸町瀬戸樫浦郷"},
{"zip_code":"8572304","kana_pref":"ﾅｶﾞｻｷｹﾝ","kana_city":"ｻｲｶｲｼ","kana_address":"ｵｵｾﾄﾁｮｳｾﾄｼﾀﾔﾏｺﾞｳ","pref":"長崎県","city":"西海市","address":"大瀬戸町瀬戸下山郷"},
{"zip_code":"8572303","kana_pref":"ﾅｶﾞｻｷｹﾝ","kana_city":"ｻｲｶｲｼ","kana_address":"ｵｵｾﾄﾁｮｳｾﾄﾆｼﾊﾏｺﾞｳ","pref":"長崎県","city":"西海市","address":"大瀬戸町瀬戸西濱郷"},
{"zip_code":"8572305","kana_pref":"ﾅｶﾞｻｷｹﾝ","kana_city":"ｻｲｶｲｼ","kana_address":"ｵｵｾﾄﾁｮｳｾﾄﾊﾃﾞｶﾞﾜｺﾞｳ","pref":"長崎県","city":"西海市","address":"大瀬戸町瀬戸羽出川郷"},
{"zip_code":"8572306","kana_pref":"ﾅｶﾞｻｷｹﾝ","kana_city":"ｻｲｶｲｼ","kana_address":"ｵｵｾﾄﾁｮｳｾﾄﾋｶﾞｼﾊﾏｺﾞｳ","pref":"長崎県","city":"西海市","address":"大瀬戸町瀬戸東濱郷"},
{"zip_code":"8572307","kana_pref":"ﾅｶﾞｻｷｹﾝ","kana_city":"ｻｲｶｲｼ","kana_address":"ｵｵｾﾄﾁｮｳｾﾄﾌｸｼﾏｺﾞｳ","pref":"長崎県","city":"西海市","address":"大瀬戸町瀬戸福島郷"},
{"zip_code":"8572312","kana_pref":"ﾅｶﾞｻｷｹﾝ","kana_city":"ｻｲｶｲｼ","kana_address":"ｵｵｾﾄﾁｮｳﾀｲﾗｳﾁｺﾞｳ","pref":"長崎県","city":"西海市","address":"大瀬戸町多以良内郷"},
{"zip_code":"8572311","kana_pref":"ﾅｶﾞｻｷｹﾝ","kana_city":"ｻｲｶｲｼ","kana_address":"ｵｵｾﾄﾁｮｳﾀｲﾗｿﾄｺﾞｳ","pref":"長崎県","city":"西海市","address":"大瀬戸町多以良外郷"},
{"zip_code":"8572531","kana_pref":"ﾅｶﾞｻｷｹﾝ","kana_city":"ｻｲｶｲｼ","kana_address":"ｵｵｾﾄﾁｮｳﾏﾂｼﾏｳﾁｺﾞｳ","pref":"長崎県","city":"西海市","address":"大瀬戸町松島内郷"},
{"zip_code":"8572532","kana_pref":"ﾅｶﾞｻｷｹﾝ","kana_city":"ｻｲｶｲｼ","kana_address":"ｵｵｾﾄﾁｮｳﾏﾂｼﾏｿﾄｺﾞｳ","pref":"長崎県","city":"西海市","address":"大瀬戸町松島外郷"},
{"zip_code":"8572324","kana_pref":"ﾅｶﾞｻｷｹﾝ","kana_city":"ｻｲｶｲｼ","kana_address":"ｵｵｾﾄﾁｮｳﾕｷﾉｳﾗｵｸｳﾗｺﾞｳ","pref":"長崎県","city":"西海市","address":"大瀬戸町雪浦奥浦郷"},
{"zip_code":"8572327","kana_pref":"ﾅｶﾞｻｷｹﾝ","kana_city":"ｻｲｶｲｼ","kana_address":"ｵｵｾﾄﾁｮｳﾕｷﾉｳﾗｶﾐｺﾞｳ","pref":"長崎県","city":"西海市","address":"大瀬戸町雪浦上郷"},
{"zip_code":"8572322","kana_pref":"ﾅｶﾞｻｷｹﾝ","kana_city":"ｻｲｶｲｼ","kana_address":"ｵｵｾﾄﾁｮｳﾕｷﾉｳﾗｷｭｳﾗｷﾞｺﾞｳ","pref":"長崎県","city":"西海市","address":"大瀬戸町雪浦久良木郷"},
{"zip_code":"8572323","kana_pref":"ﾅｶﾞｻｷｹﾝ","kana_city":"ｻｲｶｲｼ","kana_address":"ｵｵｾﾄﾁｮｳﾕｷﾉｳﾗｺﾞｳﾂｳｺﾞｳ","pref":"長崎県","city":"西海市","address":"大瀬戸町雪浦河通郷"},
{"zip_code":"8572321","kana_pref":"ﾅｶﾞｻｷｹﾝ","kana_city":"ｻｲｶｲｼ","kana_address":"ｵｵｾﾄﾁｮｳﾕｷﾉｳﾗｺｳﾌﾞﾂｺﾞｳ","pref":"長崎県","city":"西海市","address":"大瀬戸町雪浦幸物郷"},
{"zip_code":"8572325","kana_pref":"ﾅｶﾞｻｷｹﾝ","kana_city":"ｻｲｶｲｼ","kana_address":"ｵｵｾﾄﾁｮｳﾕｷﾉｳﾗｺﾏﾂｺﾞｳ","pref":"長崎県","city":"西海市","address":"大瀬戸町雪浦小松郷"},
{"zip_code":"8572326","kana_pref":"ﾅｶﾞｻｷｹﾝ","kana_city":"ｻｲｶｲｼ","kana_address":"ｵｵｾﾄﾁｮｳﾕｷﾉｳﾗｼﾓｺﾞｳ","pref":"長崎県","city":"西海市","address":"大瀬戸町雪浦下郷"},
{"zip_code":"8572328","kana_pref":"ﾅｶﾞｻｷｹﾝ","kana_city":"ｻｲｶｲｼ","kana_address":"ｵｵｾﾄﾁｮｳﾕｷﾉｳﾗｼﾓﾉｶﾏｺﾞｳ","pref":"長崎県","city":"西海市","address":"大瀬戸町雪浦下釜郷"},
{"zip_code":"8572222","kana_pref":"ﾅｶﾞｻｷｹﾝ","kana_city":"ｻｲｶｲｼ","kana_address":"ｻｲｶｲﾁｮｳﾅｶｳﾗｷﾀｺﾞｳ","pref":"長崎県","city":"西海市","address":"西海町中浦北郷"},
{"zip_code":"8572221","kana_pref":"ﾅｶﾞｻｷｹﾝ","kana_city":"ｻｲｶｲｼ","kana_address":"ｻｲｶｲﾁｮｳﾅｶｳﾗﾐﾅﾐｺﾞｳ","pref":"長崎県","city":"西海市","address":"西海町中浦南郷"},
{"zip_code":"8572223","kana_pref":"ﾅｶﾞｻｷｹﾝ","kana_city":"ｻｲｶｲｼ","kana_address":"ｻｲｶｲﾁｮｳﾅﾅﾂｶﾞﾏｺﾞｳ","pref":"長崎県","city":"西海市","address":"西海町七釜郷"},
{"zip_code":"8573103","kana_pref":"ﾅｶﾞｻｷｹﾝ","kana_city":"ｻｲｶｲｼ","kana_address":"ｻｷﾄﾁｮｳｴﾉｼﾏ","pref":"長崎県","city":"西海市","address":"崎戸町江島"},
{"zip_code":"8573101","kana_pref":"ﾅｶﾞｻｷｹﾝ","kana_city":"ｻｲｶｲｼ","kana_address":"ｻｷﾄﾁｮｳｶｷﾉｳﾗｺﾞｳ","pref":"長崎県","city":"西海市","address":"崎戸町蠣浦郷"},
{"zip_code":"8573311","kana_pref":"ﾅｶﾞｻｷｹﾝ","kana_city":"ｻｲｶｲｼ","kana_address":"ｻｷﾄﾁｮｳﾋﾗｼﾏ","pref":"長崎県","city":"西海市","address":"崎戸町平島"},
{"zip_code":"8573102","kana_pref":"ﾅｶﾞｻｷｹﾝ","kana_city":"ｻｲｶｲｼ","kana_address":"ｻｷﾄﾁｮｳﾎﾝｺﾞｳ","pref":"長崎県","city":"西海市","address":"崎戸町本郷"},
{"zip_code":"8574700","kana_pref":"ﾅｶﾞｻｷｹﾝ","kana_city":"ｷﾀﾏﾂｳﾗｸﾞﾝｵﾁﾞｶﾁｮｳ","kana_address":"","pref":"長崎県","city":"北松浦郡小値賀町","address":""},
{"zip_code":"8574708","kana_pref":"ﾅｶﾞｻｷｹﾝ","kana_city":"ｷﾀﾏﾂｳﾗｸﾞﾝｵﾁﾞｶﾁｮｳ","kana_address":"ｵｵｼﾏｺﾞｳ","pref":"長崎県","city":"北松浦郡小値賀町","address":"大島郷"},
{"zip_code":"8574706","kana_pref":"ﾅｶﾞｻｷｹﾝ","kana_city":"ｷﾀﾏﾂｳﾗｸﾞﾝｵﾁﾞｶﾁｮｳ","kana_address":"ｸﾛｼﾏｺﾞｳ","pref":"長崎県","city":"北松浦郡小値賀町","address":"黒島郷"},
{"zip_code":"8574703","kana_pref":"ﾅｶﾞｻｷｹﾝ","kana_city":"ｷﾀﾏﾂｳﾗｸﾞﾝｵﾁﾞｶﾁｮｳ","kana_address":"ﾅｶﾑﾗｺﾞｳ","pref":"長崎県","city":"北松浦郡小値賀町","address":"中村郷"},
{"zip_code":"8574711","kana_pref":"ﾅｶﾞｻｷｹﾝ","kana_city":"ｷﾀﾏﾂｳﾗｸﾞﾝｵﾁﾞｶﾁｮｳ","kana_address":"ﾉｳｼﾏｺﾞｳ","pref":"長崎県","city":"北松浦郡小値賀町","address":"納島郷"},
{"zip_code":"8574709","kana_pref":"ﾅｶﾞｻｷｹﾝ","kana_city":"ｷﾀﾏﾂｳﾗｸﾞﾝｵﾁﾞｶﾁｮｳ","kana_address":"ﾉｻﾞｷｺﾞｳ","pref":"長崎県","city":"北松浦郡小値賀町","address":"野崎郷"},
{"zip_code":"8574705","kana_pref":"ﾅｶﾞｻｷｹﾝ","kana_city":"ｷﾀﾏﾂｳﾗｸﾞﾝｵﾁﾞｶﾁｮｳ","kana_address":"ﾊﾏﾂﾞｺﾞｳ","pref":"長崎県","city":"北松浦郡小値賀町","address":"浜津郷"},
{"zip_code":"8574701","kana_pref":"ﾅｶﾞｻｷｹﾝ","kana_city":"ｷﾀﾏﾂｳﾗｸﾞﾝｵﾁﾞｶﾁｮｳ","kana_address":"ﾌｴﾌｷｺﾞｳ","pref":"長崎県","city":"北松浦郡小値賀町","address":"笛吹郷"},
{"zip_code":"8574702","kana_pref":"ﾅｶﾞｻｷｹﾝ","kana_city":"ｷﾀﾏﾂｳﾗｸﾞﾝｵﾁﾞｶﾁｮｳ","kana_address":"ﾏｴｶﾞﾀｺﾞｳ","pref":"長崎県","city":"北松浦郡小値賀町","address":"前方郷"},
{"zip_code":"8574707","kana_pref":"ﾅｶﾞｻｷｹﾝ","kana_city":"ｷﾀﾏﾂｳﾗｸﾞﾝｵﾁﾞｶﾁｮｳ","kana_address":"ﾏﾀﾞﾗｼﾏｺﾞｳ","pref":"長崎県","city":"北松浦郡小値賀町","address":"班島郷"},
{"zip_code":"8574712","kana_pref":"ﾅｶﾞｻｷｹﾝ","kana_city":"ｷﾀﾏﾂｳﾗｸﾞﾝｵﾁﾞｶﾁｮｳ","kana_address":"ﾑｼﾏｺﾞｳ","pref":"長崎県","city":"北松浦郡小値賀町","address":"六島郷"},
{"zip_code":"8574704","kana_pref":"ﾅｶﾞｻｷｹﾝ","kana_city":"ｷﾀﾏﾂｳﾗｸﾞﾝｵﾁﾞｶﾁｮｳ","kana_address":"ﾔﾅｷﾞｺﾞｳ","pref":"長崎県","city":"北松浦郡小値賀町","address":"柳郷"},
{"zip_code":"8570300","kana_pref":"ﾅｶﾞｻｷｹﾝ","kana_city":"ｷﾀﾏﾂｳﾗｸﾞﾝｻｻﾞﾁｮｳ","kana_address":"","pref":"長崎県","city":"北松浦郡佐々町","address":""},
{"zip_code":"8570334","kana_pref":"ﾅｶﾞｻｷｹﾝ","kana_city":"ｷﾀﾏﾂｳﾗｸﾞﾝｻｻﾞﾁｮｳ","kana_address":"ｲｼｺﾊﾞﾒﾝ","pref":"長崎県","city":"北松浦郡佐々町","address":"石木場免"},
{"zip_code":"8570321","kana_pref":"ﾅｶﾞｻｷｹﾝ","kana_city":"ｷﾀﾏﾂｳﾗｸﾞﾝｻｻﾞﾁｮｳ","kana_address":"ｲﾁﾉｾﾒﾝ","pref":"長崎県","city":"北松浦郡佐々町","address":"市瀬免"},
{"zip_code":"8570312","kana_pref":"ﾅｶﾞｻｷｹﾝ","kana_city":"ｷﾀﾏﾂｳﾗｸﾞﾝｻｻﾞﾁｮｳ","kana_address":"ｲﾁﾊﾞﾒﾝ","pref":"長崎県","city":"北松浦郡佐々町","address":"市場免"},
{"zip_code":"8570323","kana_pref":"ﾅｶﾞｻｷｹﾝ","kana_city":"ｷﾀﾏﾂｳﾗｸﾞﾝｻｻﾞﾁｮｳ","kana_address":"ｴﾘﾒﾝ","pref":"長崎県","city":"北松浦郡佐々町","address":"江里免"},
{"zip_code":"8570324","kana_pref":"ﾅｶﾞｻｷｹﾝ","kana_city":"ｷﾀﾏﾂｳﾗｸﾞﾝｻｻﾞﾁｮｳ","kana_address":"ｵｵｼｹﾞﾒﾝ","pref":"長崎県","city":"北松浦郡佐々町","address":"大茂免"},
{"zip_code":"8570353","kana_pref":"ﾅｶﾞｻｷｹﾝ","kana_city":"ｷﾀﾏﾂｳﾗｸﾞﾝｻｻﾞﾁｮｳ","kana_address":"ｵｷﾀﾒﾝ","pref":"長崎県","city":"北松浦郡佐々町","address":"沖田免"},
{"zip_code":"8570335","kana_pref":"ﾅｶﾞｻｷｹﾝ","kana_city":"ｷﾀﾏﾂｳﾗｸﾞﾝｻｻﾞﾁｮｳ","kana_address":"ｶｲｾﾞﾒﾝ","pref":"長崎県","city":"北松浦郡佐々町","address":"皆瀬免"},
{"zip_code":"8570313","kana_pref":"ﾅｶﾞｻｷｹﾝ","kana_city":"ｷﾀﾏﾂｳﾗｸﾞﾝｻｻﾞﾁｮｳ","kana_address":"ｶﾓｶﾞﾜﾒﾝ","pref":"長崎県","city":"北松浦郡佐々町","address":"鴨川免"},
{"zip_code":"8570352","kana_pref":"ﾅｶﾞｻｷｹﾝ","kana_city":"ｷﾀﾏﾂｳﾗｸﾞﾝｻｻﾞﾁｮｳ","kana_address":"ｸﾁｲｼﾒﾝ","pref":"長崎県","city":"北松浦郡佐々町","address":"口石免"},
{"zip_code":"8570332","kana_pref":"ﾅｶﾞｻｷｹﾝ","kana_city":"ｷﾀﾏﾂｳﾗｸﾞﾝｻｻﾞﾁｮｳ","kana_address":"ｸﾘﾊﾞﾔｼﾒﾝ","pref":"長崎県","city":"北松浦郡佐々町","address":"栗林免"},
{"zip_code":"8570336","kana_pref":"ﾅｶﾞｻｷｹﾝ","kana_city":"ｷﾀﾏﾂｳﾗｸﾞﾝｻｻﾞﾁｮｳ","kana_address":"ｺｳﾀﾞﾒﾝ","pref":"長崎県","city":"北松浦郡佐々町","address":"神田免"},
{"zip_code":"8570361","kana_pref":"ﾅｶﾞｻｷｹﾝ","kana_city":"ｷﾀﾏﾂｳﾗｸﾞﾝｻｻﾞﾁｮｳ","kana_address":"ｺｳﾗﾒﾝ","pref":"長崎県","city":"北松浦郡佐々町","address":"小浦免"},
{"zip_code":"8570343","kana_pref":"ﾅｶﾞｻｷｹﾝ","kana_city":"ｷﾀﾏﾂｳﾗｸﾞﾝｻｻﾞﾁｮｳ","kana_address":"ｺﾊﾞﾒﾝ","pref":"長崎県","city":"北松浦郡佐々町","address":"木場免"},
{"zip_code":"8570315","kana_pref":"ﾅｶﾞｻｷｹﾝ","kana_city":"ｷﾀﾏﾂｳﾗｸﾞﾝｻｻﾞﾁｮｳ","kana_address":"ｼｶﾀﾒﾝ","pref":"長崎県","city":"北松浦郡佐々町","address":"志方免"},
{"zip_code":"8570351","kana_pref":"ﾅｶﾞｻｷｹﾝ","kana_city":"ｷﾀﾏﾂｳﾗｸﾞﾝｻｻﾞﾁｮｳ","kana_address":"ｽｻｷﾒﾝ","pref":"長崎県","city":"北松浦郡佐々町","address":"須崎免"},
{"zip_code":"8570338","kana_pref":"ﾅｶﾞｻｷｹﾝ","kana_city":"ｷﾀﾏﾂｳﾗｸﾞﾝｻｻﾞﾁｮｳ","kana_address":"ﾂﾉﾔﾏﾒﾝ","pref":"長崎県","city":"北松浦郡佐々町","address":"角山免"},
{"zip_code":"8570333","kana_pref":"ﾅｶﾞｻｷｹﾝ","kana_city":"ｷﾀﾏﾂｳﾗｸﾞﾝｻｻﾞﾁｮｳ","kana_address":"ﾅｶｶﾞﾜﾗﾒﾝ","pref":"長崎県","city":"北松浦郡佐々町","address":"中川原免"},
{"zip_code":"8570331","kana_pref":"ﾅｶﾞｻｷｹﾝ","kana_city":"ｷﾀﾏﾂｳﾗｸﾞﾝｻｻﾞﾁｮｳ","kana_address":"ﾉﾖﾘﾒﾝ","pref":"長崎県","city":"北松浦郡佐々町","address":"野寄免"},
{"zip_code":"8570341","kana_pref":"ﾅｶﾞｻｷｹﾝ","kana_city":"ｷﾀﾏﾂｳﾗｸﾞﾝｻｻﾞﾁｮｳ","kana_address":"ﾊｽﾜﾒﾝ","pref":"長崎県","city":"北松浦郡佐々町","address":"羽須和免"},
{"zip_code":"8570342","kana_pref":"ﾅｶﾞｻｷｹﾝ","kana_city":"ｷﾀﾏﾂｳﾗｸﾞﾝｻｻﾞﾁｮｳ","kana_address":"ﾋﾗﾉﾒﾝ","pref":"長崎県","city":"北松浦郡佐々町","address":"平野免"},
{"zip_code":"8570314","kana_pref":"ﾅｶﾞｻｷｹﾝ","kana_city":"ｷﾀﾏﾂｳﾗｸﾞﾝｻｻﾞﾁｮｳ","kana_address":"ﾌﾙｶﾜﾒﾝ","pref":"長崎県","city":"北松浦郡佐々町","address":"古川免"},
{"zip_code":"8570311","kana_pref":"ﾅｶﾞｻｷｹﾝ","kana_city":"ｷﾀﾏﾂｳﾗｸﾞﾝｻｻﾞﾁｮｳ","kana_address":"ﾎﾝﾀﾊﾞﾙﾒﾝ","pref":"長崎県","city":"北松浦郡佐々町","address":"本田原免"},
{"zip_code":"8570322","kana_pref":"ﾅｶﾞｻｷｹﾝ","kana_city":"ｷﾀﾏﾂｳﾗｸﾞﾝｻｻﾞﾁｮｳ","kana_address":"ﾏﾂｾﾒﾝ","pref":"長崎県","city":"北松浦郡佐々町","address":"松瀬免"},
{"zip_code":"8570344","kana_pref":"ﾅｶﾞｻｷｹﾝ","kana_city":"ｷﾀﾏﾂｳﾗｸﾞﾝｻｻﾞﾁｮｳ","kana_address":"ﾑｶｴｺﾊﾞﾒﾝ","pref":"長崎県","city":"北松浦郡佐々町","address":"迎木場免"},
{"zip_code":"8570337","kana_pref":"ﾅｶﾞｻｷｹﾝ","kana_city":"ｷﾀﾏﾂｳﾗｸﾞﾝｻｻﾞﾁｮｳ","kana_address":"ﾔｸﾁﾒﾝ","pref":"長崎県","city":"北松浦郡佐々町","address":"八口免"},
{"zip_code":"8574400","kana_pref":"ﾅｶﾞｻｷｹﾝ","kana_city":"ﾐﾅﾐﾏﾂｳﾗｸﾞﾝｼﾝｶﾐｺﾞﾄｳﾁｮｳ","kana_address":"","pref":"長崎県","city":"南松浦郡新上五島町","address":""},
{"zip_code":"8574411","kana_pref":"ﾅｶﾞｻｷｹﾝ","kana_city":"ﾐﾅﾐﾏﾂｳﾗｸﾞﾝｼﾝｶﾐｺﾞﾄｳﾁｮｳ","kana_address":"ｱｲｺｺﾞｳ","pref":"長崎県","city":"南松浦郡新上五島町","address":"相河郷"},
{"zip_code":"8574404","kana_pref":"ﾅｶﾞｻｷｹﾝ","kana_city":"ﾐﾅﾐﾏﾂｳﾗｸﾞﾝｼﾝｶﾐｺﾞﾄｳﾁｮｳ","kana_address":"ｱｵｶﾀｺﾞｳ","pref":"長崎県","city":"南松浦郡新上五島町","address":"青方郷"},
{"zip_code":"8574101","kana_pref":"ﾅｶﾞｻｷｹﾝ","kana_city":"ﾐﾅﾐﾏﾂｳﾗｸﾞﾝｼﾝｶﾐｺﾞﾄｳﾁｮｳ","kana_address":"ｱｶｵｺﾞｳ","pref":"長崎県","city":"南松浦郡新上五島町","address":"赤尾郷"},
{"zip_code":"8574401","kana_pref":"ﾅｶﾞｻｷｹﾝ","kana_city":"ﾐﾅﾐﾏﾂｳﾗｸﾞﾝｼﾝｶﾐｺﾞﾄｳﾁｮｳ","kana_address":"ｱﾐｱｹﾞｺﾞｳ","pref":"長崎県","city":"南松浦郡新上五島町","address":"網上郷"},
{"zip_code":"8574211","kana_pref":"ﾅｶﾞｻｷｹﾝ","kana_city":"ﾐﾅﾐﾏﾂｳﾗｸﾞﾝｼﾝｶﾐｺﾞﾄｳﾁｮｳ","kana_address":"ｱﾘｶﾜｺﾞｳ","pref":"長崎県","city":"南松浦郡新上五島町","address":"有川郷"},
{"zip_code":"8574414","kana_pref":"ﾅｶﾞｻｷｹﾝ","kana_city":"ﾐﾅﾐﾏﾂｳﾗｸﾞﾝｼﾝｶﾐｺﾞﾄｳﾁｮｳ","kana_address":"ｲﾉｾﾄﾞｺﾞｳ","pref":"長崎県","city":"南松浦郡新上五島町","address":"飯ノ瀬戸郷"},
{"zip_code":"8574413","kana_pref":"ﾅｶﾞｻｷｹﾝ","kana_city":"ﾐﾅﾐﾏﾂｳﾗｸﾞﾝｼﾝｶﾐｺﾞﾄｳﾁｮｳ","kana_address":"ｲﾏｻﾞﾄｺﾞｳ","pref":"長崎県","city":"南松浦郡新上五島町","address":"今里郷"},
{"zip_code":"8574511","kana_pref":"ﾅｶﾞｻｷｹﾝ","kana_city":"ﾐﾅﾐﾏﾂｳﾗｸﾞﾝｼﾝｶﾐｺﾞﾄｳﾁｮｳ","kana_address":"ｳﾗｸﾜｺﾞｳ","pref":"長崎県","city":"南松浦郡新上五島町","address":"浦桑郷"},
{"zip_code":"8574512","kana_pref":"ﾅｶﾞｻｷｹﾝ","kana_city":"ﾐﾅﾐﾏﾂｳﾗｸﾞﾝｼﾝｶﾐｺﾞﾄｳﾁｮｳ","kana_address":"ｴﾉｷﾂﾞｺﾞｳ","pref":"長崎県","city":"南松浦郡新上五島町","address":"榎津郷"},
{"zip_code":"8574103","kana_pref":"ﾅｶﾞｻｷｹﾝ","kana_city":"ﾐﾅﾐﾏﾂｳﾗｸﾞﾝｼﾝｶﾐｺﾞﾄｳﾁｮｳ","kana_address":"ｴﾉﾊﾏｺﾞｳ","pref":"長崎県","city":"南松浦郡新上五島町","address":"江ノ浜郷"},
{"zip_code":"8574213","kana_pref":"ﾅｶﾞｻｷｹﾝ","kana_city":"ﾐﾅﾐﾏﾂｳﾗｸﾞﾝｼﾝｶﾐｺﾞﾄｳﾁｮｳ","kana_address":"ｵｵﾀｺﾞｳ","pref":"長崎県","city":"南松浦郡新上五島町","address":"太田郷"},
{"zip_code":"8574212","kana_pref":"ﾅｶﾞｻｷｹﾝ","kana_city":"ﾐﾅﾐﾏﾂｳﾗｸﾞﾝｼﾝｶﾐｺﾞﾄｳﾁｮｳ","kana_address":"ｵｶﾞﾜﾗｺﾞｳ","pref":"長崎県","city":"南松浦郡新上五島町","address":"小河原郷"},
{"zip_code":"8574601","kana_pref":"ﾅｶﾞｻｷｹﾝ","kana_city":"ﾐﾅﾐﾏﾂｳﾗｸﾞﾝｼﾝｶﾐｺﾞﾄｳﾁｮｳ","kana_address":"ｺｸﾞｼｺﾞｳ","pref":"長崎県","city":"南松浦郡新上五島町","address":"小串郷"},
{"zip_code":"8574602","kana_pref":"ﾅｶﾞｻｷｹﾝ","kana_city":"ﾐﾅﾐﾏﾂｳﾗｸﾞﾝｼﾝｶﾐｺﾞﾄｳﾁｮｳ","kana_address":"ｿﾈｺﾞｳ","pref":"長崎県","city":"南松浦郡新上五島町","address":"曽根郷"},
{"zip_code":"8574603","kana_pref":"ﾅｶﾞｻｷｹﾝ","kana_city":"ﾐﾅﾐﾏﾂｳﾗｸﾞﾝｼﾝｶﾐｺﾞﾄｳﾁｮｳ","kana_address":"ﾀﾃｸｼｺﾞｳ","pref":"長崎県","city":"南松浦郡新上五島町","address":"立串郷"},
{"zip_code":"8574415","kana_pref":"ﾅｶﾞｻｷｹﾝ","kana_city":"ﾐﾅﾐﾏﾂｳﾗｸﾞﾝｼﾝｶﾐｺﾞﾄｳﾁｮｳ","kana_address":"ﾂﾂﾞｷﾊﾏﾉｳﾗｺﾞｳ","pref":"長崎県","city":"南松浦郡新上五島町","address":"続浜ノ浦郷"},
{"zip_code":"8574604","kana_pref":"ﾅｶﾞｻｷｹﾝ","kana_city":"ﾐﾅﾐﾏﾂｳﾗｸﾞﾝｼﾝｶﾐｺﾞﾄｳﾁｮｳ","kana_address":"ﾂﾜｻﾞｷｺﾞｳ","pref":"長崎県","city":"南松浦郡新上五島町","address":"津和崎郷"},
{"zip_code":"8574102","kana_pref":"ﾅｶﾞｻｷｹﾝ","kana_city":"ﾐﾅﾐﾏﾂｳﾗｸﾞﾝｼﾝｶﾐｺﾞﾄｳﾁｮｳ","kana_address":"ﾄﾓｽﾐｺﾞｳ","pref":"長崎県","city":"南松浦郡新上五島町","address":"友住郷"},
{"zip_code":"8574214","kana_pref":"ﾅｶﾞｻｷｹﾝ","kana_city":"ﾐﾅﾐﾏﾂｳﾗｸﾞﾝｼﾝｶﾐｺﾞﾄｳﾁｮｳ","kana_address":"ﾅﾅﾒｺﾞｳ","pref":"長崎県","city":"南松浦郡新上五島町","address":"七目郷"},
{"zip_code":"8574402","kana_pref":"ﾅｶﾞｻｷｹﾝ","kana_city":"ﾐﾅﾐﾏﾂｳﾗｸﾞﾝｼﾝｶﾐｺﾞﾄｳﾁｮｳ","kana_address":"ﾅﾏｺﾞｳ","pref":"長崎県","city":"南松浦郡新上五島町","address":"奈摩郷"},
{"zip_code":"8574514","kana_pref":"ﾅｶﾞｻｷｹﾝ","kana_city":"ﾐﾅﾐﾏﾂｳﾗｸﾞﾝｼﾝｶﾐｺﾞﾄｳﾁｮｳ","kana_address":"ﾆﾀｸﾋﾞｺﾞｳ","pref":"長崎県","city":"南松浦郡新上五島町","address":"似首郷"},
{"zip_code":"8574405","kana_pref":"ﾅｶﾞｻｷｹﾝ","kana_city":"ﾐﾅﾐﾏﾂｳﾗｸﾞﾝｼﾝｶﾐｺﾞﾄｳﾁｮｳ","kana_address":"ﾌﾅｻｷｺﾞｳ","pref":"長崎県","city":"南松浦郡新上五島町","address":"船崎郷"},
{"zip_code":"8574513","kana_pref":"ﾅｶﾞｻｷｹﾝ","kana_city":"ﾐﾅﾐﾏﾂｳﾗｸﾞﾝｼﾝｶﾐｺﾞﾄｳﾁｮｳ","kana_address":"ﾏﾙｵｺﾞｳ","pref":"長崎県","city":"南松浦郡新上五島町","address":"丸尾郷"},
{"zip_code":"8574412","kana_pref":"ﾅｶﾞｻｷｹﾝ","kana_city":"ﾐﾅﾐﾏﾂｳﾗｸﾞﾝｼﾝｶﾐｺﾞﾄｳﾁｮｳ","kana_address":"ﾐｶﾉｳﾗｺﾞｳ","pref":"長崎県","city":"南松浦郡新上五島町","address":"三日ノ浦郷"},
{"zip_code":"8574416","kana_pref":"ﾅｶﾞｻｷｹﾝ","kana_city":"ﾐﾅﾐﾏﾂｳﾗｸﾞﾝｼﾝｶﾐｺﾞﾄｳﾁｮｳ","kana_address":"ﾐﾁﾄﾞｲｺﾞｳ","pref":"長崎県","city":"南松浦郡新上五島町","address":"道土井郷"}]}