{"zip_code":[
{"zip_code":"8580918","kana_pref":"ﾅｶﾞｻｷｹﾝ","kana_city":"ｻｾﾎﾞｼ","kana_address":"ｱｲﾉｳﾗﾁｮｳ","pref":"長崎県","city":"佐世保市","address":"相浦町"},
{"zip_code":"8580917","kana_pref":"ﾅｶﾞｻｷｹﾝ","kana_city":"ｻｾﾎﾞｼ","kana_address":"ｱﾀｺﾞﾁｮｳ","pref":"長崎県","city":"佐世保市","address":"愛宕町"},
{"zip_code":"8580926","kana_pref":"ﾅｶﾞｻｷｹﾝ","kana_city":"ｻｾﾎﾞｼ","kana_address":"ｵｵｶﾞﾀﾁｮｳ","pref":"長崎県","city":"佐世保市","address":"大潟町"},
{"zip_code":"8580902","kana_pref":"ﾅｶﾞｻｷｹﾝ","kana_city":"ｻｾﾎﾞｼ","kana_address":"ｵﾄﾞﾘｲｼﾁｮｳ","pref":"長崎県","city":"佐世保市","address":"踊石町"},
{"zip_code":"8580965","kana_pref":"ﾅｶﾞｻｷｹﾝ","kana_city":"ｻｾﾎﾞｼ","kana_address":"ｵﾉﾁｮｳ","pref":"長崎県","city":"佐世保市","address":"小野町"},
{"zip_code":"8580922","kana_pref":"ﾅｶﾞｻｷｹﾝ","kana_city":"ｻｾﾎﾞｼ","kana_address":"ｶｼﾏｴﾁｮｳ","pref":"長崎県","city":"佐世保市","address":"鹿子前町"},
{"zip_code":"8580915","kana_pref":"ﾅｶﾞｻｷｹﾝ","kana_city":"ｻｾﾎﾞｼ","kana_address":"ｶﾐｱｲﾉｳﾗﾁｮｳ","pref":"長崎県","city":"佐世保市","address":"上相浦町"},
{"zip_code":"8580903","kana_pref":"ﾅｶﾞｻｷｹﾝ","kana_city":"ｻｾﾎﾞｼ","kana_address":"ｶﾐﾓﾄﾔﾏﾁｮｳ","pref":"長崎県","city":"佐世保市","address":"上本山町"},
{"zip_code":"8580914","kana_pref":"ﾅｶﾞｻｷｹﾝ","kana_city":"ｻｾﾎﾞｼ","kana_address":"ｶﾜｼﾓﾁｮｳ","pref":"長崎県","city":"佐世保市","address":"川下町"},
{"zip_code":"8580916","kana_pref":"ﾅｶﾞｻｷｹﾝ","kana_city":"ｻｾﾎﾞｼ","kana_address":"ｷﾉﾐﾔﾁｮｳ","pref":"長崎県","city":"佐世保市","address":"木宮町"},
{"zip_code":"8580925","kana_pref":"ﾅｶﾞｻｷｹﾝ","kana_city":"ｻｾﾎﾞｼ","kana_address":"ｼｲﾉｷﾁｮｳ","pref":"長崎県","city":"佐世保市","address":"椎木町"},
{"zip_code":"8580905","kana_pref":"ﾅｶﾞｻｷｹﾝ","kana_city":"ｻｾﾎﾞｼ","kana_address":"ｼﾓﾓﾄﾔﾏﾁｮｳ","pref":"長崎県","city":"佐世保市","address":"下本山町"},
{"zip_code":"8580913","kana_pref":"ﾅｶﾞｻｷｹﾝ","kana_city":"ｻｾﾎﾞｼ","kana_address":"ｼﾝﾃﾞﾝﾁｮｳ","pref":"長崎県","city":"佐世保市","address":"新田町"},
{"zip_code":"8580924","kana_pref":"ﾅｶﾞｻｷｹﾝ","kana_city":"ｻｾﾎﾞｼ","kana_address":"ｾｲﾜﾀﾞｲﾏﾁ","pref":"長崎県","city":"佐世保市","address":"星和台町"},
{"zip_code":"8580931","kana_pref":"ﾅｶﾞｻｷｹﾝ","kana_city":"ｻｾﾎﾞｼ","kana_address":"ﾀｶｼﾏﾁｮｳ","pref":"長崎県","city":"佐世保市","address":"高島町"},
{"zip_code":"8580901","kana_pref":"ﾅｶﾞｻｷｹﾝ","kana_city":"ｻｾﾎﾞｼ","kana_address":"ﾀｹﾉﾁｮｳ","pref":"長崎県","city":"佐世保市","address":"岳野町"},
{"zip_code":"8580911","kana_pref":"ﾅｶﾞｻｷｹﾝ","kana_city":"ｻｾﾎﾞｼ","kana_address":"ﾀｹﾍﾞﾁｮｳ","pref":"長崎県","city":"佐世保市","address":"竹辺町"},
{"zip_code":"8580907","kana_pref":"ﾅｶﾞｻｷｹﾝ","kana_city":"ｻｾﾎﾞｼ","kana_address":"ﾀﾅｶﾞﾀﾁｮｳ","pref":"長崎県","city":"佐世保市","address":"棚方町"},
{"zip_code":"8580921","kana_pref":"ﾅｶﾞｻｷｹﾝ","kana_city":"ｻｾﾎﾞｼ","kana_address":"ﾅｶﾞｻｶﾁｮｳ","pref":"長崎県","city":"佐世保市","address":"長坂町"},
{"zip_code":"8580904","kana_pref":"ﾅｶﾞｻｷｹﾝ","kana_city":"ｻｾﾎﾞｼ","kana_address":"ﾅｶｻﾞﾄﾁｮｳ","pref":"長崎県","city":"佐世保市","address":"中里町"},
{"zip_code":"8580906","kana_pref":"ﾅｶﾞｻｷｹﾝ","kana_city":"ｻｾﾎﾞｼ","kana_address":"ﾊﾁﾉｸﾎﾞﾁｮｳ","pref":"長崎県","city":"佐世保市","address":"八の久保町"},
{"zip_code":"8580908","kana_pref":"ﾅｶﾞｻｷｹﾝ","kana_city":"ｻｾﾎﾞｼ","kana_address":"ﾋｶﾘﾏﾁ","pref":"長崎県","city":"佐世保市","address":"光町"},
{"zip_code":"8580923","kana_pref":"ﾅｶﾞｻｷｹﾝ","kana_city":"ｻｾﾎﾞｼ","kana_address":"ﾋﾉﾁｮｳ","pref":"長崎県","city":"佐世保市","address":"日野町"},
{"zip_code":"8580912","kana_pref":"ﾅｶﾞｻｷｹﾝ","kana_city":"ｻｾﾎﾞｼ","kana_address":"ﾎｳｶﾞｳﾗﾁｮｳ","pref":"長崎県","city":"佐世保市","address":"母ケ浦町"}]}