{"zip_code":[
{"zip_code":"8600801","kana_pref":"ｸﾏﾓﾄｹﾝ","kana_city":"ｸﾏﾓﾄｼﾁｭｳｵｳｸ","kana_address":"ｱﾝｾｲﾏﾁ","pref":"熊本県","city":"熊本市中央区","address":"安政町"},
{"zip_code":"8600841","kana_pref":"ｸﾏﾓﾄｹﾝ","kana_city":"ｸﾏﾓﾄｼﾁｭｳｵｳｸ","kana_address":"ｲｶﾞﾜﾌﾞﾁﾏﾁ","pref":"熊本県","city":"熊本市中央区","address":"井川淵町"},
{"zip_code":"8600043","kana_pref":"ｸﾏﾓﾄｹﾝ","kana_city":"ｸﾏﾓﾄｼﾁｭｳｵｳｸ","kana_address":"ｲﾀﾔﾏﾁ","pref":"熊本県","city":"熊本市中央区","address":"板屋町"},
{"zip_code":"8600031","kana_pref":"ｸﾏﾓﾄｹﾝ","kana_city":"ｸﾏﾓﾄｼﾁｭｳｵｳｸ","kana_address":"ｳｵﾔﾏﾁ","pref":"熊本県","city":"熊本市中央区","address":"魚屋町"},
{"zip_code":"8600077","kana_pref":"ｸﾏﾓﾄｹﾝ","kana_city":"ｸﾏﾓﾄｼﾁｭｳｵｳｸ","kana_address":"ｳﾁﾂﾎﾞｲﾏﾁ","pref":"熊本県","city":"熊本市中央区","address":"内坪井町"},
{"zip_code":"8600026","kana_pref":"ｸﾏﾓﾄｹﾝ","kana_city":"ｸﾏﾓﾄｼﾁｭｳｵｳｸ","kana_address":"ｶｼﾞﾔﾏﾁ","pref":"熊本県","city":"熊本市中央区","address":"鍛冶屋町"},
{"zip_code":"8600021","kana_pref":"ｸﾏﾓﾄｹﾝ","kana_city":"ｸﾏﾓﾄｼﾁｭｳｵｳｸ","kana_address":"ｶﾐｶｼﾞﾔﾏﾁ","pref":"熊本県","city":"熊本市中央区","address":"上鍛冶屋町"},
{"zip_code":"8600845","kana_pref":"ｸﾏﾓﾄｹﾝ","kana_city":"ｸﾏﾓﾄｼﾁｭｳｵｳｸ","kana_address":"ｶﾐﾄｵﾘﾁｮｳ","pref":"熊本県","city":"熊本市中央区","address":"上通町"},
{"zip_code":"8600847","kana_pref":"ｸﾏﾓﾄｹﾝ","kana_city":"ｸﾏﾓﾄｼﾁｭｳｵｳｸ","kana_address":"ｶﾐﾊﾞﾔｼﾏﾁ","pref":"熊本県","city":"熊本市中央区","address":"上林町"},
{"zip_code":"8600804","kana_pref":"ｸﾏﾓﾄｹﾝ","kana_city":"ｸﾏﾓﾄｼﾁｭｳｵｳｸ","kana_address":"ｶﾗｼﾏﾁｮｳ","pref":"熊本県","city":"熊本市中央区","address":"辛島町"},
{"zip_code":"8600039","kana_pref":"ｸﾏﾓﾄｹﾝ","kana_city":"ｸﾏﾓﾄｼﾁｭｳｵｳｸ","kana_address":"ｶﾜﾊﾞﾀﾏﾁ","pref":"熊本県","city":"熊本市中央区","address":"川端町"},
{"zip_code":"8600023","kana_pref":"ｸﾏﾓﾄｹﾝ","kana_city":"ｸﾏﾓﾄｼﾁｭｳｵｳｸ","kana_address":"ｶﾜﾗﾏﾁ","pref":"熊本県","city":"熊本市中央区","address":"河原町"},
{"zip_code":"8600855","kana_pref":"ｸﾏﾓﾄｹﾝ","kana_city":"ｸﾏﾓﾄｼﾁｭｳｵｳｸ","kana_address":"ｷﾀｾﾝﾀﾞﾝﾊﾞﾀﾏﾁ","pref":"熊本県","city":"熊本市中央区","address":"北千反畑町"},
{"zip_code":"8600078","kana_pref":"ｸﾏﾓﾄｹﾝ","kana_city":"ｸﾏﾓﾄｼﾁｭｳｵｳｸ","kana_address":"ｷｮｳﾏﾁ","pref":"熊本県","city":"熊本市中央区","address":"京町"},
{"zip_code":"8600081","kana_pref":"ｸﾏﾓﾄｹﾝ","kana_city":"ｸﾏﾓﾄｼﾁｭｳｵｳｸ","kana_address":"ｷｮｳﾏﾁﾎﾝﾁｮｳ","pref":"熊本県","city":"熊本市中央区","address":"京町本丁"},
{"zip_code":"8600843","kana_pref":"ｸﾏﾓﾄｹﾝ","kana_city":"ｸﾏﾓﾄｼﾁｭｳｵｳｸ","kana_address":"ｸｻﾊﾞﾁｮｳ","pref":"熊本県","city":"熊本市中央区","address":"草葉町"},
{"zip_code":"8600862","kana_pref":"ｸﾏﾓﾄｹﾝ","kana_city":"ｸﾏﾓﾄｼﾁｭｳｵｳｸ","kana_address":"ｸﾛｶﾐ","pref":"熊本県","city":"熊本市中央区","address":"黒髪"},
{"zip_code":"8600014","kana_pref":"ｸﾏﾓﾄｹﾝ","kana_city":"ｸﾏﾓﾄｼﾁｭｳｵｳｸ","kana_address":"ｹｲﾄｸﾎﾞﾘﾏﾁ","pref":"熊本県","city":"熊本市中央区","address":"慶徳堀町"},
{"zip_code":"8600033","kana_pref":"ｸﾏﾓﾄｹﾝ","kana_city":"ｸﾏﾓﾄｼﾁｭｳｵｳｸ","kana_address":"ｺｳﾔｱﾐﾀﾞｼﾞﾏﾁ","pref":"熊本県","city":"熊本市中央区","address":"紺屋阿弥陀寺町"},
{"zip_code":"8600012","kana_pref":"ｸﾏﾓﾄｹﾝ","kana_city":"ｸﾏﾓﾄｼﾁｭｳｵｳｸ","kana_address":"ｺｳﾔｲﾏﾏﾁ","pref":"熊本県","city":"熊本市中央区","address":"紺屋今町"},
{"zip_code":"8600025","kana_pref":"ｸﾏﾓﾄｹﾝ","kana_city":"ｸﾏﾓﾄｼﾁｭｳｵｳｸ","kana_address":"ｺｳﾔﾏﾁ","pref":"熊本県","city":"熊本市中央区","address":"紺屋町"},
{"zip_code":"8600851","kana_pref":"ｸﾏﾓﾄｹﾝ","kana_city":"ｸﾏﾓﾄｼﾁｭｳｵｳｸ","kana_address":"ｺｶｲﾎﾝﾏﾁ","pref":"熊本県","city":"熊本市中央区","address":"子飼本町"},
{"zip_code":"8600042","kana_pref":"ｸﾏﾓﾄｹﾝ","kana_city":"ｸﾏﾓﾄｼﾁｭｳｵｳｸ","kana_address":"ｺｻﾞﾜﾏﾁ","pref":"熊本県","city":"熊本市中央区","address":"小沢町"},
{"zip_code":"8600003","kana_pref":"ｸﾏﾓﾄｹﾝ","kana_city":"ｸﾏﾓﾄｼﾁｭｳｵｳｸ","kana_address":"ｺｼﾞｮｳﾏﾁ","pref":"熊本県","city":"熊本市中央区","address":"古城町"},
{"zip_code":"8600076","kana_pref":"ｸﾏﾓﾄｹﾝ","kana_city":"ｸﾏﾓﾄｼﾁｭｳｵｳｸ","kana_address":"ｺｾﾝ","pref":"熊本県","city":"熊本市中央区","address":"壺川"},
{"zip_code":"8600813","kana_pref":"ｸﾏﾓﾄｹﾝ","kana_city":"ｸﾏﾓﾄｼﾁｭｳｵｳｸ","kana_address":"ｺﾄﾋﾗ","pref":"熊本県","city":"熊本市中央区","address":"琴平"},
{"zip_code":"8600814","kana_pref":"ｸﾏﾓﾄｹﾝ","kana_city":"ｸﾏﾓﾄｼﾁｭｳｵｳｸ","kana_address":"ｺﾄﾋﾗﾎﾝﾏﾁ","pref":"熊本県","city":"熊本市中央区","address":"琴平本町"},
{"zip_code":"8600035","kana_pref":"ｸﾏﾓﾄｹﾝ","kana_city":"ｸﾏﾓﾄｼﾁｭｳｵｳｸ","kana_address":"ｺﾞﾌｸﾏﾁ","pref":"熊本県","city":"熊本市中央区","address":"呉服町"},
{"zip_code":"8600029","kana_pref":"ｸﾏﾓﾄｹﾝ","kana_city":"ｸﾏﾓﾄｼﾁｭｳｵｳｸ","kana_address":"ｺﾒﾔﾏﾁ","pref":"熊本県","city":"熊本市中央区","address":"米屋町"},
{"zip_code":"8600041","kana_pref":"ｸﾏﾓﾄｹﾝ","kana_city":"ｸﾏﾓﾄｼﾁｭｳｵｳｸ","kana_address":"ｻｲｸﾏﾁ","pref":"熊本県","city":"熊本市中央区","address":"細工町"},
{"zip_code":"8600805","kana_pref":"ｸﾏﾓﾄｹﾝ","kana_city":"ｸﾏﾓﾄｼﾁｭｳｵｳｸ","kana_address":"ｻｸﾗﾏﾁ","pref":"熊本県","city":"熊本市中央区","address":"桜町"},
{"zip_code":"8600073","kana_pref":"ｸﾏﾓﾄｹﾝ","kana_city":"ｸﾏﾓﾄｼﾁｭｳｵｳｸ","kana_address":"ｼﾏｻｷ","pref":"熊本県","city":"熊本市中央区","address":"島崎"},
{"zip_code":"8600807","kana_pref":"ｸﾏﾓﾄｹﾝ","kana_city":"ｸﾏﾓﾄｼﾁｭｳｵｳｸ","kana_address":"ｼﾓﾄｵﾘ","pref":"熊本県","city":"熊本市中央区","address":"下通"},
{"zip_code":"8600824","kana_pref":"ｸﾏﾓﾄｹﾝ","kana_city":"ｸﾏﾓﾄｼﾁｭｳｵｳｸ","kana_address":"ｼﾞｭｳｾﾞﾝｼﾞ","pref":"熊本県","city":"熊本市中央区","address":"十禅寺"},
{"zip_code":"8600825","kana_pref":"ｸﾏﾓﾄｹﾝ","kana_city":"ｸﾏﾓﾄｼﾁｭｳｵｳｸ","kana_address":"ｼﾞｭｳｾﾞﾝｼﾞﾏﾁ","pref":"熊本県","city":"熊本市中央区","address":"十禅寺町"},
{"zip_code":"8600846","kana_pref":"ｸﾏﾓﾄｹﾝ","kana_city":"ｸﾏﾓﾄｼﾁｭｳｵｳｸ","kana_address":"ｼﾞｮｳﾄｳﾏﾁ","pref":"熊本県","city":"熊本市中央区","address":"城東町"},
{"zip_code":"8600011","kana_pref":"ｸﾏﾓﾄｹﾝ","kana_city":"ｸﾏﾓﾄｼﾁｭｳｵｳｸ","kana_address":"ｼﾝｶｼﾞﾔﾏﾁ","pref":"熊本県","city":"熊本市中央区","address":"新鍛冶屋町"},
{"zip_code":"8600803","kana_pref":"ｸﾏﾓﾄｹﾝ","kana_city":"ｸﾏﾓﾄｼﾁｭｳｵｳｸ","kana_address":"ｼﾝｼｶﾞｲ","pref":"熊本県","city":"熊本市中央区","address":"新市街"},
{"zip_code":"8600004","kana_pref":"ｸﾏﾓﾄｹﾝ","kana_city":"ｸﾏﾓﾄｼﾁｭｳｵｳｸ","kana_address":"ｼﾝﾏﾁ","pref":"熊本県","city":"熊本市中央区","address":"新町"},
{"zip_code":"8600844","kana_pref":"ｸﾏﾓﾄｹﾝ","kana_city":"ｸﾏﾓﾄｼﾁｭｳｵｳｸ","kana_address":"ｽｲﾄﾞｳﾁｮｳ","pref":"熊本県","city":"熊本市中央区","address":"水道町"},
{"zip_code":"8600019","kana_pref":"ｸﾏﾓﾄｹﾝ","kana_city":"ｸﾏﾓﾄｼﾁｭｳｵｳｸ","kana_address":"ｾﾝﾊﾞﾏﾁ","pref":"熊本県","city":"熊本市中央区","address":"船場町"},
{"zip_code":"8600018","kana_pref":"ｸﾏﾓﾄｹﾝ","kana_city":"ｸﾏﾓﾄｼﾁｭｳｵｳｸ","kana_address":"ｾﾝﾊﾞﾏﾁｼﾓ","pref":"熊本県","city":"熊本市中央区","address":"船場町下"},
{"zip_code":"8600006","kana_pref":"ｸﾏﾓﾄｹﾝ","kana_city":"ｸﾏﾓﾄｼﾁｭｳｵｳｸ","kana_address":"ﾀﾞﾆﾔﾏﾎﾝﾏﾁ","pref":"熊本県","city":"熊本市中央区","address":"段山本町"},
{"zip_code":"8600001","kana_pref":"ｸﾏﾓﾄｹﾝ","kana_city":"ｸﾏﾓﾄｼﾁｭｳｵｳｸ","kana_address":"ﾁﾊﾞｼﾞｮｳﾏﾁ","pref":"熊本県","city":"熊本市中央区","address":"千葉城町"},
{"zip_code":"8600802","kana_pref":"ｸﾏﾓﾄｹﾝ","kana_city":"ｸﾏﾓﾄｼﾁｭｳｵｳｸ","kana_address":"ﾁｭｳｵｳｶﾞｲ","pref":"熊本県","city":"熊本市中央区","address":"中央街"},
{"zip_code":"8600863","kana_pref":"ｸﾏﾓﾄｹﾝ","kana_city":"ｸﾏﾓﾄｼﾁｭｳｵｳｸ","kana_address":"ﾂﾎﾞｲ","pref":"熊本県","city":"熊本市中央区","address":"坪井"},
{"zip_code":"8600808","kana_pref":"ｸﾏﾓﾄｹﾝ","kana_city":"ｸﾏﾓﾄｼﾁｭｳｵｳｸ","kana_address":"ﾃﾄﾘﾎﾝﾁｮｳ","pref":"熊本県","city":"熊本市中央区","address":"手取本町"},
{"zip_code":"8600013","kana_pref":"ｸﾏﾓﾄｹﾝ","kana_city":"ｸﾏﾓﾄｼﾁｭｳｵｳｸ","kana_address":"ﾄｵﾘﾁｮｳ","pref":"熊本県","city":"熊本市中央区","address":"通町"},
{"zip_code":"8600028","kana_pref":"ｸﾏﾓﾄｹﾝ","kana_city":"ｸﾏﾓﾄｼﾁｭｳｵｳｸ","kana_address":"ﾅｶﾄｳｼﾞﾝﾏﾁ","pref":"熊本県","city":"熊本市中央区","address":"中唐人町"},
{"zip_code":"8600037","kana_pref":"ｸﾏﾓﾄｹﾝ","kana_city":"ｸﾏﾓﾄｼﾁｭｳｵｳｸ","kana_address":"ﾆｼｱﾐﾀﾞｼﾞﾏﾁ","pref":"熊本県","city":"熊本市中央区","address":"西阿弥陀寺町"},
{"zip_code":"8600853","kana_pref":"ｸﾏﾓﾄｹﾝ","kana_city":"ｸﾏﾓﾄｼﾁｭｳｵｳｸ","kana_address":"ﾆｼｺｶｲﾏﾁ","pref":"熊本県","city":"熊本市中央区","address":"西子飼町"},
{"zip_code":"8600027","kana_pref":"ｸﾏﾓﾄｹﾝ","kana_city":"ｸﾏﾓﾄｼﾁｭｳｵｳｸ","kana_address":"ﾆｼﾄｳｼﾞﾝﾏﾁ","pref":"熊本県","city":"熊本市中央区","address":"西唐人町"},
{"zip_code":"8600008","kana_pref":"ｸﾏﾓﾄｹﾝ","kana_city":"ｸﾏﾓﾄｼﾁｭｳｵｳｸ","kana_address":"ﾆﾉﾏﾙ","pref":"熊本県","city":"熊本市中央区","address":"二の丸"},
{"zip_code":"8600832","kana_pref":"ｸﾏﾓﾄｹﾝ","kana_city":"ｸﾏﾓﾄｼﾁｭｳｵｳｸ","kana_address":"ﾊｷﾞﾜﾗﾏﾁ","pref":"熊本県","city":"熊本市中央区","address":"萩原町"},
{"zip_code":"8600831","kana_pref":"ｸﾏﾓﾄｹﾝ","kana_city":"ｸﾏﾓﾄｼﾁｭｳｵｳｸ","kana_address":"ﾊﾁｵｳｼﾞﾏﾁ","pref":"熊本県","city":"熊本市中央区","address":"八王寺町"},
{"zip_code":"8600806","kana_pref":"ｸﾏﾓﾄｹﾝ","kana_city":"ｸﾏﾓﾄｼﾁｭｳｵｳｸ","kana_address":"ﾊﾅﾊﾞﾀﾁｮｳ","pref":"熊本県","city":"熊本市中央区","address":"花畑町"},
{"zip_code":"8600815","kana_pref":"ｸﾏﾓﾄｹﾝ","kana_city":"ｸﾏﾓﾄｼﾁｭｳｵｳｸ","kana_address":"ﾊﾙﾀｹﾏﾁ","pref":"熊本県","city":"熊本市中央区","address":"春竹町"},
{"zip_code":"8600034","kana_pref":"ｸﾏﾓﾄｹﾝ","kana_city":"ｸﾏﾓﾄｼﾁｭｳｵｳｸ","kana_address":"ﾋｶﾞｼｱﾐﾀﾞｼﾞﾏﾁ","pref":"熊本県","city":"熊本市中央区","address":"東阿弥陀寺町"},
{"zip_code":"8600854","kana_pref":"ｸﾏﾓﾄｹﾝ","kana_city":"ｸﾏﾓﾄｼﾁｭｳｵｳｸ","kana_address":"ﾋｶﾞｼｺｶｲﾏﾁ","pref":"熊本県","city":"熊本市中央区","address":"東子飼町"},
{"zip_code":"8600038","kana_pref":"ｸﾏﾓﾄｹﾝ","kana_city":"ｸﾏﾓﾄｼﾁｭｳｵｳｸ","kana_address":"ﾌﾙｵｹﾔﾏﾁ","pref":"熊本県","city":"熊本市中央区","address":"古桶屋町"},
{"zip_code":"8600015","kana_pref":"ｸﾏﾓﾄｹﾝ","kana_city":"ｸﾏﾓﾄｼﾁｭｳｵｳｸ","kana_address":"ﾌﾙｶﾜﾏﾁ","pref":"熊本県","city":"熊本市中央区","address":"古川町"},
{"zip_code":"8600007","kana_pref":"ｸﾏﾓﾄｹﾝ","kana_city":"ｸﾏﾓﾄｼﾁｭｳｵｳｸ","kana_address":"ﾌﾙｷｮｳﾏﾁ","pref":"熊本県","city":"熊本市中央区","address":"古京町"},
{"zip_code":"8600036","kana_pref":"ｸﾏﾓﾄｹﾝ","kana_city":"ｸﾏﾓﾄｼﾁｭｳｵｳｸ","kana_address":"ﾌﾙﾀﾞｲｸﾏﾁ","pref":"熊本県","city":"熊本市中央区","address":"古大工町"},
{"zip_code":"8600833","kana_pref":"ｸﾏﾓﾄｹﾝ","kana_city":"ｸﾏﾓﾄｼﾁｭｳｵｳｸ","kana_address":"ﾍｲｾｲ","pref":"熊本県","city":"熊本市中央区","address":"平成"},
{"zip_code":"8600811","kana_pref":"ｸﾏﾓﾄｹﾝ","kana_city":"ｸﾏﾓﾄｼﾁｭｳｵｳｸ","kana_address":"ﾎﾝｼﾞｮｳ","pref":"熊本県","city":"熊本市中央区","address":"本荘"},
{"zip_code":"8600816","kana_pref":"ｸﾏﾓﾄｹﾝ","kana_city":"ｸﾏﾓﾄｼﾁｭｳｵｳｸ","kana_address":"ﾎﾝｼﾞｮｳﾏﾁ","pref":"熊本県","city":"熊本市中央区","address":"本荘町"},
{"zip_code":"8600002","kana_pref":"ｸﾏﾓﾄｹﾝ","kana_city":"ｸﾏﾓﾄｼﾁｭｳｵｳｸ","kana_address":"ﾎﾝﾏﾙ","pref":"熊本県","city":"熊本市中央区","address":"本丸"},
{"zip_code":"8600024","kana_pref":"ｸﾏﾓﾄｹﾝ","kana_city":"ｸﾏﾓﾄｼﾁｭｳｵｳｸ","kana_address":"ﾏﾂﾊﾞﾗﾏﾁ","pref":"熊本県","city":"熊本市中央区","address":"松原町"},
{"zip_code":"8600812","kana_pref":"ｸﾏﾓﾄｹﾝ","kana_city":"ｸﾏﾓﾄｼﾁｭｳｵｳｸ","kana_address":"ﾐﾅﾐｸﾏﾓﾄ","pref":"熊本県","city":"熊本市中央区","address":"南熊本"},
{"zip_code":"8600842","kana_pref":"ｸﾏﾓﾄｹﾝ","kana_city":"ｸﾏﾓﾄｼﾁｭｳｵｳｸ","kana_address":"ﾐﾅﾐｾﾝﾀﾞﾝﾊﾞﾀﾏﾁ","pref":"熊本県","city":"熊本市中央区","address":"南千反畑町"},
{"zip_code":"8600848","kana_pref":"ｸﾏﾓﾄｹﾝ","kana_city":"ｸﾏﾓﾄｼﾁｭｳｵｳｸ","kana_address":"ﾐﾅﾐﾂﾎﾞｲﾏﾁ","pref":"熊本県","city":"熊本市中央区","address":"南坪井町"},
{"zip_code":"8600005","kana_pref":"ｸﾏﾓﾄｹﾝ","kana_city":"ｸﾏﾓﾄｼﾁｭｳｵｳｸ","kana_address":"ﾐﾔｳﾁ","pref":"熊本県","city":"熊本市中央区","address":"宮内"},
{"zip_code":"8600856","kana_pref":"ｸﾏﾓﾄｹﾝ","kana_city":"ｸﾏﾓﾄｼﾁｭｳｵｳｸ","kana_address":"ﾐｮｳﾀｲｼﾞﾏﾁ","pref":"熊本県","city":"熊本市中央区","address":"妙体寺町"},
{"zip_code":"8600817","kana_pref":"ｸﾏﾓﾄｹﾝ","kana_city":"ｸﾏﾓﾄｼﾁｭｳｵｳｸ","kana_address":"ﾑｶｴﾏﾁ","pref":"熊本県","city":"熊本市中央区","address":"迎町"},
{"zip_code":"8600821","kana_pref":"ｸﾏﾓﾄｹﾝ","kana_city":"ｸﾏﾓﾄｼﾁｭｳｵｳｸ","kana_address":"ﾓﾄﾔﾏ","pref":"熊本県","city":"熊本市中央区","address":"本山"},
{"zip_code":"8600822","kana_pref":"ｸﾏﾓﾄｹﾝ","kana_city":"ｸﾏﾓﾄｼﾁｭｳｵｳｸ","kana_address":"ﾓﾄﾔﾏﾏﾁ","pref":"熊本県","city":"熊本市中央区","address":"本山町"},
{"zip_code":"8600852","kana_pref":"ｸﾏﾓﾄｹﾝ","kana_city":"ｸﾏﾓﾄｼﾁｭｳｵｳｸ","kana_address":"ﾔｸｴﾝﾁｮｳ","pref":"熊本県","city":"熊本市中央区","address":"薬園町"},
{"zip_code":"8600016","kana_pref":"ｸﾏﾓﾄｹﾝ","kana_city":"ｸﾏﾓﾄｼﾁｭｳｵｳｸ","kana_address":"ﾔﾏｻｷﾏﾁ","pref":"熊本県","city":"熊本市中央区","address":"山崎町"},
{"zip_code":"8600818","kana_pref":"ｸﾏﾓﾄｹﾝ","kana_city":"ｸﾏﾓﾄｼﾁｭｳｵｳｸ","kana_address":"ﾔﾖｲﾁｮｳ","pref":"熊本県","city":"熊本市中央区","address":"弥生町"},
{"zip_code":"8600022","kana_pref":"ｸﾏﾓﾄｹﾝ","kana_city":"ｸﾏﾓﾄｼﾁｭｳｵｳｸ","kana_address":"ﾖｺｺｳﾔﾏﾁ","pref":"熊本県","city":"熊本市中央区","address":"横紺屋町"},
{"zip_code":"8600046","kana_pref":"ｸﾏﾓﾄｹﾝ","kana_city":"ｸﾏﾓﾄｼﾁｭｳｵｳｸ","kana_address":"ﾖｺﾃ","pref":"熊本県","city":"熊本市中央区","address":"横手"},
{"zip_code":"8600823","kana_pref":"ｸﾏﾓﾄｹﾝ","kana_city":"ｸﾏﾓﾄｼﾁｭｳｵｳｸ","kana_address":"ﾖﾔｽﾏﾁ","pref":"熊本県","city":"熊本市中央区","address":"世安町"},
{"zip_code":"8600032","kana_pref":"ｸﾏﾓﾄｹﾝ","kana_city":"ｸﾏﾓﾄｼﾁｭｳｵｳｸ","kana_address":"ﾖﾛｽﾞﾏﾁ","pref":"熊本県","city":"熊本市中央区","address":"万町"},
{"zip_code":"8600017","kana_pref":"ｸﾏﾓﾄｹﾝ","kana_city":"ｸﾏﾓﾄｼﾁｭｳｵｳｸ","kana_address":"ﾚﾝﾍﾟｲﾁｮｳ","pref":"熊本県","city":"熊本市中央区","address":"練兵町"},
{"zip_code":"8600071","kana_pref":"ｸﾏﾓﾄｹﾝ","kana_city":"ｸﾏﾓﾄｼﾆｼｸ","kana_address":"ｲｹｶﾞﾒﾏﾁ","pref":"熊本県","city":"熊本市西区","address":"池亀町"},
{"zip_code":"8600082","kana_pref":"ｸﾏﾓﾄｹﾝ","kana_city":"ｸﾏﾓﾄｼﾆｼｸ","kana_address":"ｲｹﾀﾞ","pref":"熊本県","city":"熊本市西区","address":"池田"},
{"zip_code":"8600048","kana_pref":"ｸﾏﾓﾄｹﾝ","kana_city":"ｸﾏﾓﾄｼﾆｼｸ","kana_address":"ｲｹﾉｳｴﾏﾁ","pref":"熊本県","city":"熊本市西区","address":"池上町"},
{"zip_code":"8600047","kana_pref":"ｸﾏﾓﾄｹﾝ","kana_city":"ｸﾏﾓﾄｼﾆｼｸ","kana_address":"ｶｽｶﾞ","pref":"熊本県","city":"熊本市西区","address":"春日"},
{"zip_code":"8600079","kana_pref":"ｸﾏﾓﾄｹﾝ","kana_city":"ｸﾏﾓﾄｼﾆｼｸ","kana_address":"ｶﾐｸﾏﾓﾄ","pref":"熊本県","city":"熊本市西区","address":"上熊本"},
{"zip_code":"8600068","kana_pref":"ｸﾏﾓﾄｹﾝ","kana_city":"ｸﾏﾓﾄｼﾆｼｸ","kana_address":"ｶﾐﾀﾞｲ","pref":"熊本県","city":"熊本市西区","address":"上代"},
{"zip_code":"8600061","kana_pref":"ｸﾏﾓﾄｹﾝ","kana_city":"ｸﾏﾓﾄｼﾆｼｸ","kana_address":"ｶﾐﾀｶﾊｼ","pref":"熊本県","city":"熊本市西区","address":"上高橋"},
{"zip_code":"8600081","kana_pref":"ｸﾏﾓﾄｹﾝ","kana_city":"ｸﾏﾓﾄｼﾆｼｸ","kana_address":"ｷｮｳﾏﾁﾎﾝﾁｮｳ","pref":"熊本県","city":"熊本市西区","address":"京町本丁"},
{"zip_code":"8600073","kana_pref":"ｸﾏﾓﾄｹﾝ","kana_city":"ｸﾏﾓﾄｼﾆｼｸ","kana_address":"ｼﾏｻｷ","pref":"熊本県","city":"熊本市西区","address":"島崎"},
{"zip_code":"8600067","kana_pref":"ｸﾏﾓﾄｹﾝ","kana_city":"ｸﾏﾓﾄｼﾆｼｸ","kana_address":"ｼﾞｮｳｻﾞﾝｵｵﾄﾞﾓ","pref":"熊本県","city":"熊本市西区","address":"城山大塘"},
{"zip_code":"8600063","kana_pref":"ｸﾏﾓﾄｹﾝ","kana_city":"ｸﾏﾓﾄｼﾆｼｸ","kana_address":"ｼﾞｮｳｻﾞﾝｶﾐﾀﾞｲﾏﾁ","pref":"熊本県","city":"熊本市西区","address":"城山上代町"},
{"zip_code":"8600066","kana_pref":"ｸﾏﾓﾄｹﾝ","kana_city":"ｸﾏﾓﾄｼﾆｼｸ","kana_address":"ｼﾞｮｳｻﾞﾝｼﾓﾀﾞｲ","pref":"熊本県","city":"熊本市西区","address":"城山下代"},
{"zip_code":"8600064","kana_pref":"ｸﾏﾓﾄｹﾝ","kana_city":"ｸﾏﾓﾄｼﾆｼｸ","kana_address":"ｼﾞｮｳｻﾞﾝﾊﾝﾀﾞ","pref":"熊本県","city":"熊本市西区","address":"城山半田"},
{"zip_code":"8600065","kana_pref":"ｸﾏﾓﾄｹﾝ","kana_city":"ｸﾏﾓﾄｼﾆｼｸ","kana_address":"ｼﾞｮｳｻﾞﾝﾔｸｼ","pref":"熊本県","city":"熊本市西区","address":"城山薬師"},
{"zip_code":"8600056","kana_pref":"ｸﾏﾓﾄｹﾝ","kana_city":"ｸﾏﾓﾄｼﾆｼｸ","kana_address":"ｼﾝﾄｶﾞﾜﾗ","pref":"熊本県","city":"熊本市西区","address":"新土河原"},
{"zip_code":"8600062","kana_pref":"ｸﾏﾓﾄｹﾝ","kana_city":"ｸﾏﾓﾄｼﾆｼｸ","kana_address":"ﾀｶﾊｼﾏﾁ","pref":"熊本県","city":"熊本市西区","address":"高橋町"},
{"zip_code":"8600053","kana_pref":"ｸﾏﾓﾄｹﾝ","kana_city":"ｸﾏﾓﾄｼﾆｼｸ","kana_address":"ﾀｻｷ","pref":"熊本県","city":"熊本市西区","address":"田崎"},
{"zip_code":"8600052","kana_pref":"ｸﾏﾓﾄｹﾝ","kana_city":"ｸﾏﾓﾄｼﾆｼｸ","kana_address":"ﾀｻｷﾎﾝﾏﾁ","pref":"熊本県","city":"熊本市西区","address":"田崎本町"},
{"zip_code":"8600058","kana_pref":"ｸﾏﾓﾄｹﾝ","kana_city":"ｸﾏﾓﾄｼﾆｼｸ","kana_address":"ﾀｻｷﾏﾁ","pref":"熊本県","city":"熊本市西区","address":"田崎町"},
{"zip_code":"8600044","kana_pref":"ｸﾏﾓﾄｹﾝ","kana_city":"ｸﾏﾓﾄｼﾆｼｸ","kana_address":"ﾀﾆｵｻﾞｷﾏﾁ","pref":"熊本県","city":"熊本市西区","address":"谷尾崎町"},
{"zip_code":"8600088","kana_pref":"ｸﾏﾓﾄｹﾝ","kana_city":"ｸﾏﾓﾄｼﾆｼｸ","kana_address":"ﾂﾉｳﾗﾏﾁ","pref":"熊本県","city":"熊本市西区","address":"津浦町"},
{"zip_code":"8600074","kana_pref":"ｸﾏﾓﾄｹﾝ","kana_city":"ｸﾏﾓﾄｼﾆｼｸ","kana_address":"ﾃﾞﾏﾁ","pref":"熊本県","city":"熊本市西区","address":"出町"},
{"zip_code":"8600045","kana_pref":"ｸﾏﾓﾄｹﾝ","kana_city":"ｸﾏﾓﾄｼﾆｼｸ","kana_address":"ﾄｻｶﾏﾁ","pref":"熊本県","city":"熊本市西区","address":"戸坂町"},
{"zip_code":"8600051","kana_pref":"ｸﾏﾓﾄｹﾝ","kana_city":"ｸﾏﾓﾄｼﾆｼｸ","kana_address":"ﾆﾎﾝｷﾞ","pref":"熊本県","city":"熊本市西区","address":"二本木"},
{"zip_code":"8600059","kana_pref":"ｸﾏﾓﾄｹﾝ","kana_city":"ｸﾏﾓﾄｼﾆｼｸ","kana_address":"ﾉﾅｶ","pref":"熊本県","city":"熊本市西区","address":"野中"},
{"zip_code":"8600072","kana_pref":"ｸﾏﾓﾄｹﾝ","kana_city":"ｸﾏﾓﾄｼﾆｼｸ","kana_address":"ﾊﾅｿﾞﾉ","pref":"熊本県","city":"熊本市西区","address":"花園"},
{"zip_code":"8600075","kana_pref":"ｸﾏﾓﾄｹﾝ","kana_city":"ｸﾏﾓﾄｼﾆｼｸ","kana_address":"ﾋｴﾀﾞﾏﾁ","pref":"熊本県","city":"熊本市西区","address":"稗田町"},
{"zip_code":"8600054","kana_pref":"ｸﾏﾓﾄｹﾝ","kana_city":"ｸﾏﾓﾄｼﾆｼｸ","kana_address":"ﾔｼﾏ","pref":"熊本県","city":"熊本市西区","address":"八島"},
{"zip_code":"8600057","kana_pref":"ｸﾏﾓﾄｹﾝ","kana_city":"ｸﾏﾓﾄｼﾆｼｸ","kana_address":"ﾔｼﾏﾏﾁ","pref":"熊本県","city":"熊本市西区","address":"八島町"},
{"zip_code":"8600046","kana_pref":"ｸﾏﾓﾄｹﾝ","kana_city":"ｸﾏﾓﾄｼﾆｼｸ","kana_address":"ﾖｺﾃ","pref":"熊本県","city":"熊本市西区","address":"横手"},
{"zip_code":"8600055","kana_pref":"ｸﾏﾓﾄｹﾝ","kana_city":"ｸﾏﾓﾄｼﾆｼｸ","kana_address":"ﾚﾝﾀﾞｲｼﾞ","pref":"熊本県","city":"熊本市西区","address":"蓮台寺"},
{"zip_code":"8600834","kana_pref":"ｸﾏﾓﾄｹﾝ","kana_city":"ｸﾏﾓﾄｼﾐﾅﾐｸ","kana_address":"ｴｺﾞｴ","pref":"熊本県","city":"熊本市南区","address":"江越"},
{"zip_code":"8600824","kana_pref":"ｸﾏﾓﾄｹﾝ","kana_city":"ｸﾏﾓﾄｼﾐﾅﾐｸ","kana_address":"ｼﾞｭｳｾﾞﾝｼﾞ","pref":"熊本県","city":"熊本市南区","address":"十禅寺"},
{"zip_code":"8600831","kana_pref":"ｸﾏﾓﾄｹﾝ","kana_city":"ｸﾏﾓﾄｼﾐﾅﾐｸ","kana_address":"ﾊﾁｵｳｼﾞﾏﾁ","pref":"熊本県","city":"熊本市南区","address":"八王寺町"},
{"zip_code":"8600826","kana_pref":"ｸﾏﾓﾄｹﾝ","kana_city":"ｸﾏﾓﾄｼﾐﾅﾐｸ","kana_address":"ﾋﾗﾀ","pref":"熊本県","city":"熊本市南区","address":"平田"},
{"zip_code":"8600833","kana_pref":"ｸﾏﾓﾄｹﾝ","kana_city":"ｸﾏﾓﾄｼﾐﾅﾐｸ","kana_address":"ﾍｲｾｲ","pref":"熊本県","city":"熊本市南区","address":"平成"},
{"zip_code":"8600082","kana_pref":"ｸﾏﾓﾄｹﾝ","kana_city":"ｸﾏﾓﾄｼｷﾀｸ","kana_address":"ｲｹﾀﾞ","pref":"熊本県","city":"熊本市北区","address":"池田"},
{"zip_code":"8600086","kana_pref":"ｸﾏﾓﾄｹﾝ","kana_city":"ｸﾏﾓﾄｼｷﾀｸ","kana_address":"ｳﾁｺﾞｼﾏﾁ","pref":"熊本県","city":"熊本市北区","address":"打越町"},
{"zip_code":"8600083","kana_pref":"ｸﾏﾓﾄｹﾝ","kana_city":"ｸﾏﾓﾄｼｷﾀｸ","kana_address":"ｵｵｸﾎﾞ","pref":"熊本県","city":"熊本市北区","address":"大窪"},
{"zip_code":"8600862","kana_pref":"ｸﾏﾓﾄｹﾝ","kana_city":"ｸﾏﾓﾄｼｷﾀｸ","kana_address":"ｸﾛｶﾐ","pref":"熊本県","city":"熊本市北区","address":"黒髪"},
{"zip_code":"8600861","kana_pref":"ｸﾏﾓﾄｹﾝ","kana_city":"ｸﾏﾓﾄｼｷﾀｸ","kana_address":"ｸﾛｶﾐﾏﾁﾂﾎﾞｲ","pref":"熊本県","city":"熊本市北区","address":"黒髪町坪井"},
{"zip_code":"8600087","kana_pref":"ｸﾏﾓﾄｹﾝ","kana_city":"ｸﾏﾓﾄｼｷﾀｸ","kana_address":"ｼﾐｽﾞﾏﾁｳﾁｺﾞｼ","pref":"熊本県","city":"熊本市北区","address":"清水町打越"},
{"zip_code":"8600085","kana_pref":"ｸﾏﾓﾄｹﾝ","kana_city":"ｸﾏﾓﾄｼｷﾀｸ","kana_address":"ﾀｶﾋﾗ","pref":"熊本県","city":"熊本市北区","address":"高平"},
{"zip_code":"8600088","kana_pref":"ｸﾏﾓﾄｹﾝ","kana_city":"ｸﾏﾓﾄｼｷﾀｸ","kana_address":"ﾂﾉｳﾗﾏﾁ","pref":"熊本県","city":"熊本市北区","address":"津浦町"},
{"zip_code":"8600084","kana_pref":"ｸﾏﾓﾄｹﾝ","kana_city":"ｸﾏﾓﾄｼｷﾀｸ","kana_address":"ﾔﾏﾑﾛ","pref":"熊本県","city":"熊本市北区","address":"山室"}]}