{"zip_code":[
{"zip_code":"8610000","kana_pref":"ｸﾏﾓﾄｹﾝ","kana_city":"ｸﾏﾓﾄｼﾁｭｳｵｳｸ","kana_address":"","pref":"熊本県","city":"熊本市中央区","address":""},
{"zip_code":"8618072","kana_pref":"ｸﾏﾓﾄｹﾝ","kana_city":"ｸﾏﾓﾄｼﾁｭｳｵｳｸ","kana_address":"ﾑﾛｿﾞﾉﾏﾁ","pref":"熊本県","city":"熊本市中央区","address":"室園町"},
{"zip_code":"8610000","kana_pref":"ｸﾏﾓﾄｹﾝ","kana_city":"ｸﾏﾓﾄｼﾋｶﾞｼｸ","kana_address":"","pref":"熊本県","city":"熊本市東区","address":""},
{"zip_code":"8612104","kana_pref":"ｸﾏﾓﾄｹﾝ","kana_city":"ｸﾏﾓﾄｼﾋｶﾞｼｸ","kana_address":"ｱｷﾂ","pref":"熊本県","city":"熊本市東区","address":"秋津"},
{"zip_code":"8612107","kana_pref":"ｸﾏﾓﾄｹﾝ","kana_city":"ｸﾏﾓﾄｼﾋｶﾞｼｸ","kana_address":"ｱｷﾂｼﾝﾏﾁ","pref":"熊本県","city":"熊本市東区","address":"秋津新町"},
{"zip_code":"8612105","kana_pref":"ｸﾏﾓﾄｹﾝ","kana_city":"ｸﾏﾓﾄｼﾋｶﾞｼｸ","kana_address":"ｱｷﾂﾏﾁｱｷﾀ","pref":"熊本県","city":"熊本市東区","address":"秋津町秋田"},
{"zip_code":"8618046","kana_pref":"ｸﾏﾓﾄｹﾝ","kana_city":"ｸﾏﾓﾄｼﾋｶﾞｼｸ","kana_address":"ｲｼﾜﾗ","pref":"熊本県","city":"熊本市東区","address":"石原"},
{"zip_code":"8618014","kana_pref":"ｸﾏﾓﾄｹﾝ","kana_city":"ｸﾏﾓﾄｼﾋｶﾞｼｸ","kana_address":"ｲｼﾜﾗﾏﾁ","pref":"熊本県","city":"熊本市東区","address":"石原町"},
{"zip_code":"8618045","kana_pref":"ｸﾏﾓﾄｹﾝ","kana_city":"ｸﾏﾓﾄｼﾋｶﾞｼｸ","kana_address":"ｵﾔﾏ","pref":"熊本県","city":"熊本市東区","address":"小山"},
{"zip_code":"8618030","kana_pref":"ｸﾏﾓﾄｹﾝ","kana_city":"ｸﾏﾓﾄｼﾋｶﾞｼｸ","kana_address":"ｵﾔﾏﾏﾁ","pref":"熊本県","city":"熊本市東区","address":"小山町"},
{"zip_code":"8618011","kana_pref":"ｸﾏﾓﾄｹﾝ","kana_city":"ｸﾏﾓﾄｼﾋｶﾞｼｸ","kana_address":"ｶｷｾﾞﾏﾁ","pref":"熊本県","city":"熊本市東区","address":"鹿帰瀬町"},
{"zip_code":"8618010","kana_pref":"ｸﾏﾓﾄｹﾝ","kana_city":"ｸﾏﾓﾄｼﾋｶﾞｼｸ","kana_address":"ｶﾐﾅﾍﾞ","pref":"熊本県","city":"熊本市東区","address":"上南部"},
{"zip_code":"8618017","kana_pref":"ｸﾏﾓﾄｹﾝ","kana_city":"ｸﾏﾓﾄｼﾋｶﾞｼｸ","kana_address":"ｶﾐﾅﾍﾞﾏﾁ","pref":"熊本県","city":"熊本市東区","address":"上南部町"},
{"zip_code":"8618044","kana_pref":"ｸﾏﾓﾄｹﾝ","kana_city":"ｸﾏﾓﾄｼﾋｶﾞｼｸ","kana_address":"ｺｳｿﾞﾉ","pref":"熊本県","city":"熊本市東区","address":"神園"},
{"zip_code":"8618035","kana_pref":"ｸﾏﾓﾄｹﾝ","kana_city":"ｸﾏﾓﾄｼﾋｶﾞｼｸ","kana_address":"ｺﾞﾘｮｳ","pref":"熊本県","city":"熊本市東区","address":"御領"},
{"zip_code":"8612101","kana_pref":"ｸﾏﾓﾄｹﾝ","kana_city":"ｸﾏﾓﾄｼﾋｶﾞｼｸ","kana_address":"ｻｸﾗｷﾞ","pref":"熊本県","city":"熊本市東区","address":"桜木"},
{"zip_code":"8618019","kana_pref":"ｸﾏﾓﾄｹﾝ","kana_city":"ｸﾏﾓﾄｼﾋｶﾞｼｸ","kana_address":"ｼﾓﾅﾍﾞ","pref":"熊本県","city":"熊本市東区","address":"下南部"},
{"zip_code":"8612108","kana_pref":"ｸﾏﾓﾄｹﾝ","kana_city":"ｸﾏﾓﾄｼﾋｶﾞｼｸ","kana_address":"ｼｮｳﾜﾏﾁ","pref":"熊本県","city":"熊本市東区","address":"昭和町"},
{"zip_code":"8618028","kana_pref":"ｸﾏﾓﾄｹﾝ","kana_city":"ｸﾏﾓﾄｼﾋｶﾞｼｸ","kana_address":"ｼﾝﾅﾍﾞ","pref":"熊本県","city":"熊本市東区","address":"新南部"},
{"zip_code":"8618041","kana_pref":"ｸﾏﾓﾄｹﾝ","kana_city":"ｸﾏﾓﾄｼﾋｶﾞｼｸ","kana_address":"ﾄｼﾏ","pref":"熊本県","city":"熊本市東区","address":"戸島"},
{"zip_code":"8618043","kana_pref":"ｸﾏﾓﾄｹﾝ","kana_city":"ｸﾏﾓﾄｼﾋｶﾞｼｸ","kana_address":"ﾄｼﾏﾆｼ","pref":"熊本県","city":"熊本市東区","address":"戸島西"},
{"zip_code":"8618042","kana_pref":"ｸﾏﾓﾄｹﾝ","kana_city":"ｸﾏﾓﾄｼﾋｶﾞｼｸ","kana_address":"ﾄｼﾏﾎﾝﾏﾁ","pref":"熊本県","city":"熊本市東区","address":"戸島本町"},
{"zip_code":"8618031","kana_pref":"ｸﾏﾓﾄｹﾝ","kana_city":"ｸﾏﾓﾄｼﾋｶﾞｼｸ","kana_address":"ﾄｼﾏﾏﾁ","pref":"熊本県","city":"熊本市東区","address":"戸島町"},
{"zip_code":"8618015","kana_pref":"ｸﾏﾓﾄｹﾝ","kana_city":"ｸﾏﾓﾄｼﾋｶﾞｼｸ","kana_address":"ﾅｶｴﾏﾁ","pref":"熊本県","city":"熊本市東区","address":"中江町"},
{"zip_code":"8618037","kana_pref":"ｸﾏﾓﾄｹﾝ","kana_city":"ｸﾏﾓﾄｼﾋｶﾞｼｸ","kana_address":"ﾅｶﾞﾐﾈﾆｼ","pref":"熊本県","city":"熊本市東区","address":"長嶺西"},
{"zip_code":"8618038","kana_pref":"ｸﾏﾓﾄｹﾝ","kana_city":"ｸﾏﾓﾄｼﾋｶﾞｼｸ","kana_address":"ﾅｶﾞﾐﾈﾋｶﾞｼ","pref":"熊本県","city":"熊本市東区","address":"長嶺東"},
{"zip_code":"8618039","kana_pref":"ｸﾏﾓﾄｹﾝ","kana_city":"ｸﾏﾓﾄｼﾋｶﾞｼｸ","kana_address":"ﾅｶﾞﾐﾈﾐﾅﾐ","pref":"熊本県","city":"熊本市東区","address":"長嶺南"},
{"zip_code":"8618029","kana_pref":"ｸﾏﾓﾄｹﾝ","kana_city":"ｸﾏﾓﾄｼﾋｶﾞｼｸ","kana_address":"ﾆｼﾊﾞﾙ","pref":"熊本県","city":"熊本市東区","address":"西原"},
{"zip_code":"8612102","kana_pref":"ｸﾏﾓﾄｹﾝ","kana_city":"ｸﾏﾓﾄｼﾋｶﾞｼｸ","kana_address":"ﾇﾔﾏﾂﾞ","pref":"熊本県","city":"熊本市東区","address":"沼山津"},
{"zip_code":"8618034","kana_pref":"ｸﾏﾓﾄｹﾝ","kana_city":"ｸﾏﾓﾄｼﾋｶﾞｼｸ","kana_address":"ﾊｯﾀﾝﾀﾞ","pref":"熊本県","city":"熊本市東区","address":"八反田"},
{"zip_code":"8612118","kana_pref":"ｸﾏﾓﾄｹﾝ","kana_city":"ｸﾏﾓﾄｼﾋｶﾞｼｸ","kana_address":"ﾊﾅﾀﾃ","pref":"熊本県","city":"熊本市東区","address":"花立"},
{"zip_code":"8612106","kana_pref":"ｸﾏﾓﾄｹﾝ","kana_city":"ｸﾏﾓﾄｼﾋｶﾞｼｸ","kana_address":"ﾋｶﾞｼﾉ","pref":"熊本県","city":"熊本市東区","address":"東野"},
{"zip_code":"8618012","kana_pref":"ｸﾏﾓﾄｹﾝ","kana_city":"ｸﾏﾓﾄｼﾋｶﾞｼｸ","kana_address":"ﾋﾗﾔﾏﾏﾁ","pref":"熊本県","city":"熊本市東区","address":"平山町"},
{"zip_code":"8618013","kana_pref":"ｸﾏﾓﾄｹﾝ","kana_city":"ｸﾏﾓﾄｼﾋｶﾞｼｸ","kana_address":"ﾕｹﾞﾏﾁ","pref":"熊本県","city":"熊本市東区","address":"弓削町"},
{"zip_code":"8618016","kana_pref":"ｸﾏﾓﾄｹﾝ","kana_city":"ｸﾏﾓﾄｼﾋｶﾞｼｸ","kana_address":"ﾖｼﾜﾗﾏﾁ","pref":"熊本県","city":"熊本市東区","address":"吉原町"},
{"zip_code":"8612103","kana_pref":"ｸﾏﾓﾄｹﾝ","kana_city":"ｸﾏﾓﾄｼﾋｶﾞｼｸ","kana_address":"ﾜｶﾊﾞ","pref":"熊本県","city":"熊本市東区","address":"若葉"},
{"zip_code":"8610000","kana_pref":"ｸﾏﾓﾄｹﾝ","kana_city":"ｸﾏﾓﾄｼﾆｼｸ","kana_address":"","pref":"熊本県","city":"熊本市西区","address":""},
{"zip_code":"8615273","kana_pref":"ｸﾏﾓﾄｹﾝ","kana_city":"ｸﾏﾓﾄｼﾆｼｸ","kana_address":"ｵｷｼﾝﾏﾁ","pref":"熊本県","city":"熊本市西区","address":"沖新町"},
{"zip_code":"8615287","kana_pref":"ｸﾏﾓﾄｹﾝ","kana_city":"ｸﾏﾓﾄｼﾆｼｸ","kana_address":"ｵｼﾏ","pref":"熊本県","city":"熊本市西区","address":"小島"},
{"zip_code":"8615285","kana_pref":"ｸﾏﾓﾄｹﾝ","kana_city":"ｸﾏﾓﾄｼﾆｼｸ","kana_address":"ｵｼﾏｶﾐﾏﾁ","pref":"熊本県","city":"熊本市西区","address":"小島上町"},
{"zip_code":"8615284","kana_pref":"ｸﾏﾓﾄｹﾝ","kana_city":"ｸﾏﾓﾄｼﾆｼｸ","kana_address":"ｵｼﾏｼﾓﾏﾁ","pref":"熊本県","city":"熊本市西区","address":"小島下町"},
{"zip_code":"8615341","kana_pref":"ｸﾏﾓﾄｹﾝ","kana_city":"ｸﾏﾓﾄｼﾆｼｸ","kana_address":"ｶﾜﾁﾏﾁｵｵﾀｵ","pref":"熊本県","city":"熊本市西区","address":"河内町大多尾"},
{"zip_code":"8615345","kana_pref":"ｸﾏﾓﾄｹﾝ","kana_city":"ｸﾏﾓﾄｼﾆｼｸ","kana_address":"ｶﾜﾁﾏﾁｵﾓﾉｷﾞ","pref":"熊本県","city":"熊本市西区","address":"河内町面木"},
{"zip_code":"8615346","kana_pref":"ｸﾏﾓﾄｹﾝ","kana_city":"ｸﾏﾓﾄｼﾆｼｸ","kana_address":"ｶﾜﾁﾏﾁｶﾜﾁ","pref":"熊本県","city":"熊本市西区","address":"河内町河内"},
{"zip_code":"8615348","kana_pref":"ｸﾏﾓﾄｹﾝ","kana_city":"ｸﾏﾓﾄｼﾆｼｸ","kana_address":"ｶﾜﾁﾏﾁｼﾗﾊﾏ","pref":"熊本県","city":"熊本市西区","address":"河内町白浜"},
{"zip_code":"8615344","kana_pref":"ｸﾏﾓﾄｹﾝ","kana_city":"ｸﾏﾓﾄｼﾆｼｸ","kana_address":"ｶﾜﾁﾏﾁﾀｹ","pref":"熊本県","city":"熊本市西区","address":"河内町岳"},
{"zip_code":"8615342","kana_pref":"ｸﾏﾓﾄｹﾝ","kana_city":"ｸﾏﾓﾄｼﾆｼｸ","kana_address":"ｶﾜﾁﾏﾁﾄｳﾓﾝｼﾞ","pref":"熊本県","city":"熊本市西区","address":"河内町東門寺"},
{"zip_code":"8615343","kana_pref":"ｸﾏﾓﾄｹﾝ","kana_city":"ｸﾏﾓﾄｼﾆｼｸ","kana_address":"ｶﾜﾁﾏﾁﾉｲﾃﾞ","pref":"熊本県","city":"熊本市西区","address":"河内町野出"},
{"zip_code":"8615347","kana_pref":"ｸﾏﾓﾄｹﾝ","kana_city":"ｸﾏﾓﾄｼﾆｼｸ","kana_address":"ｶﾜﾁﾏﾁﾌﾅﾂ","pref":"熊本県","city":"熊本市西区","address":"河内町船津"},
{"zip_code":"8615274","kana_pref":"ｸﾏﾓﾄｹﾝ","kana_city":"ｸﾏﾓﾄｼﾆｼｸ","kana_address":"ｼﾝﾐﾅﾄ","pref":"熊本県","city":"熊本市西区","address":"新港"},
{"zip_code":"8615272","kana_pref":"ｸﾏﾓﾄｹﾝ","kana_city":"ｸﾏﾓﾄｼﾆｼｸ","kana_address":"ﾅｶｼﾏﾏﾁ","pref":"熊本県","city":"熊本市西区","address":"中島町"},
{"zip_code":"8615271","kana_pref":"ｸﾏﾓﾄｹﾝ","kana_city":"ｸﾏﾓﾄｼﾆｼｸ","kana_address":"ﾅｶﾊﾗﾏﾁ","pref":"熊本県","city":"熊本市西区","address":"中原町"},
{"zip_code":"8615283","kana_pref":"ｸﾏﾓﾄｹﾝ","kana_city":"ｸﾏﾓﾄｼﾆｼｸ","kana_address":"ﾏﾂｵﾏﾁｶﾐﾏﾂｵ","pref":"熊本県","city":"熊本市西区","address":"松尾町上松尾"},
{"zip_code":"8615281","kana_pref":"ｸﾏﾓﾄｹﾝ","kana_city":"ｸﾏﾓﾄｼﾆｼｸ","kana_address":"ﾏﾂｵﾏﾁﾁｺｳﾂﾞ","pref":"熊本県","city":"熊本市西区","address":"松尾町近津"},
{"zip_code":"8615282","kana_pref":"ｸﾏﾓﾄｹﾝ","kana_city":"ｸﾏﾓﾄｼﾆｼｸ","kana_address":"ﾏﾂｵﾏﾁﾋﾗﾔﾏ","pref":"熊本県","city":"熊本市西区","address":"松尾町平山"},
{"zip_code":"8610000","kana_pref":"ｸﾏﾓﾄｹﾝ","kana_city":"ｸﾏﾓﾄｼﾐﾅﾐｸ","kana_address":"","pref":"熊本県","city":"熊本市南区","address":""},
{"zip_code":"8614121","kana_pref":"ｸﾏﾓﾄｹﾝ","kana_city":"ｸﾏﾓﾄｼﾐﾅﾐｸ","kana_address":"ｱｲﾄﾞﾐﾏﾁ","pref":"熊本県","city":"熊本市南区","address":"会富町"},
{"zip_code":"8614136","kana_pref":"ｸﾏﾓﾄｹﾝ","kana_city":"ｸﾏﾓﾄｼﾐﾅﾐｸ","kana_address":"ｱﾗｵ","pref":"熊本県","city":"熊本市南区","address":"荒尾"},
{"zip_code":"8614136","kana_pref":"ｸﾏﾓﾄｹﾝ","kana_city":"ｸﾏﾓﾄｼﾐﾅﾐｸ","kana_address":"ｱﾗｵﾏﾁ","pref":"熊本県","city":"熊本市南区","address":"荒尾町"},
{"zip_code":"8615251","kana_pref":"ｸﾏﾓﾄｹﾝ","kana_city":"ｸﾏﾓﾄｼﾐﾅﾐｸ","kana_address":"ｲﾏﾏﾁ","pref":"熊本県","city":"熊本市南区","address":"今町"},
{"zip_code":"8614124","kana_pref":"ｸﾏﾓﾄｹﾝ","kana_city":"ｸﾏﾓﾄｼﾐﾅﾐｸ","kana_address":"ｳｼﾞｸﾞﾁﾏﾁ","pref":"熊本県","city":"熊本市南区","address":"海路口町"},
{"zip_code":"8614131","kana_pref":"ｸﾏﾓﾄｹﾝ","kana_city":"ｸﾏﾓﾄｼﾐﾅﾐｸ","kana_address":"ｳｽﾊﾞ","pref":"熊本県","city":"熊本市南区","address":"薄場"},
{"zip_code":"8614131","kana_pref":"ｸﾏﾓﾄｹﾝ","kana_city":"ｸﾏﾓﾄｼﾐﾅﾐｸ","kana_address":"ｳｽﾊﾞﾏﾁ","pref":"熊本県","city":"熊本市南区","address":"薄場町"},
{"zip_code":"8614127","kana_pref":"ｸﾏﾓﾄｹﾝ","kana_city":"ｸﾏﾓﾄｼﾐﾅﾐｸ","kana_address":"ｳﾁﾀﾞﾏﾁ","pref":"熊本県","city":"熊本市南区","address":"内田町"},
{"zip_code":"8614125","kana_pref":"ｸﾏﾓﾄｹﾝ","kana_city":"ｸﾏﾓﾄｼﾐﾅﾐｸ","kana_address":"ｵｸｺｶﾞﾏﾁ","pref":"熊本県","city":"熊本市南区","address":"奥古閑町"},
{"zip_code":"8614132","kana_pref":"ｸﾏﾓﾄｹﾝ","kana_city":"ｸﾏﾓﾄｼﾐﾅﾐｸ","kana_address":"ｶﾐﾉｺﾞｳ","pref":"熊本県","city":"熊本市南区","address":"上ノ郷"},
{"zip_code":"8614134","kana_pref":"ｸﾏﾓﾄｹﾝ","kana_city":"ｸﾏﾓﾄｼﾐﾅﾐｸ","kana_address":"ｶﾘｸｻ","pref":"熊本県","city":"熊本市南区","address":"刈草"},
{"zip_code":"8614123","kana_pref":"ｸﾏﾓﾄｹﾝ","kana_city":"ｸﾏﾓﾄｼﾐﾅﾐｸ","kana_address":"ｶﾜｸﾞﾁﾏﾁ","pref":"熊本県","city":"熊本市南区","address":"川口町"},
{"zip_code":"8614115","kana_pref":"ｸﾏﾓﾄｹﾝ","kana_city":"ｸﾏﾓﾄｼﾐﾅﾐｸ","kana_address":"ｶﾜｼﾘ","pref":"熊本県","city":"熊本市南区","address":"川尻"},
{"zip_code":"8614111","kana_pref":"ｸﾏﾓﾄｹﾝ","kana_city":"ｸﾏﾓﾄｼﾐﾅﾐｸ","kana_address":"ｺﾞｳｼ","pref":"熊本県","city":"熊本市南区","address":"合志"},
{"zip_code":"8614108","kana_pref":"ｸﾏﾓﾄｹﾝ","kana_city":"ｸﾏﾓﾄｼﾐﾅﾐｸ","kana_address":"ｺｳﾀﾞ","pref":"熊本県","city":"熊本市南区","address":"幸田"},
{"zip_code":"8614117","kana_pref":"ｸﾏﾓﾄｹﾝ","kana_city":"ｸﾏﾓﾄｼﾐﾅﾐｸ","kana_address":"ｺﾞﾝﾄﾞｳﾏﾁ","pref":"熊本県","city":"熊本市南区","address":"護藤町"},
{"zip_code":"8614133","kana_pref":"ｸﾏﾓﾄｹﾝ","kana_city":"ｸﾏﾓﾄｼﾐﾅﾐｸ","kana_address":"ｼﾏﾏﾁ","pref":"熊本県","city":"熊本市南区","address":"島町"},
{"zip_code":"8614231","kana_pref":"ｸﾏﾓﾄｹﾝ","kana_city":"ｸﾏﾓﾄｼﾐﾅﾐｸ","kana_address":"ｼﾞｮｳﾅﾝﾏﾁｱｶﾐ","pref":"熊本県","city":"熊本市南区","address":"城南町赤見"},
{"zip_code":"8614224","kana_pref":"ｸﾏﾓﾄｹﾝ","kana_city":"ｸﾏﾓﾄｼﾐﾅﾐｸ","kana_address":"ｼﾞｮｳﾅﾝﾏﾁｱﾀﾞｶ","pref":"熊本県","city":"熊本市南区","address":"城南町阿高"},
{"zip_code":"8614205","kana_pref":"ｸﾏﾓﾄｹﾝ","kana_city":"ｸﾏﾓﾄｼﾐﾅﾐｸ","kana_address":"ｼﾞｮｳﾅﾝﾏﾁｲｶﾘ","pref":"熊本県","city":"熊本市南区","address":"城南町碇"},
{"zip_code":"8614213","kana_pref":"ｸﾏﾓﾄｹﾝ","kana_city":"ｸﾏﾓﾄｼﾐﾅﾐｸ","kana_address":"ｼﾞｮｳﾅﾝﾏﾁｲｽﾞﾐ","pref":"熊本県","city":"熊本市南区","address":"城南町出水"},
{"zip_code":"8614211","kana_pref":"ｸﾏﾓﾄｹﾝ","kana_city":"ｸﾏﾓﾄｼﾐﾅﾐｸ","kana_address":"ｼﾞｮｳﾅﾝﾏﾁｲﾏﾖｼﾉ","pref":"熊本県","city":"熊本市南区","address":"城南町今吉野"},
{"zip_code":"8614203","kana_pref":"ｸﾏﾓﾄｹﾝ","kana_city":"ｸﾏﾓﾄｼﾐﾅﾐｸ","kana_address":"ｼﾞｮｳﾅﾝﾏﾁｸﾏﾉｼｮｳ","pref":"熊本県","city":"熊本市南区","address":"城南町隈庄"},
{"zip_code":"8614201","kana_pref":"ｸﾏﾓﾄｹﾝ","kana_city":"ｸﾏﾓﾄｼﾐﾅﾐｸ","kana_address":"ｼﾞｮｳﾅﾝﾏﾁｻｶﾉ","pref":"熊本県","city":"熊本市南区","address":"城南町坂野"},
{"zip_code":"8614215","kana_pref":"ｸﾏﾓﾄｹﾝ","kana_city":"ｸﾏﾓﾄｼﾐﾅﾐｸ","kana_address":"ｼﾞｮｳﾅﾝﾏﾁｼｽﾞﾒ","pref":"熊本県","city":"熊本市南区","address":"城南町沈目"},
{"zip_code":"8614236","kana_pref":"ｸﾏﾓﾄｹﾝ","kana_city":"ｸﾏﾓﾄｼﾐﾅﾐｸ","kana_address":"ｼﾞｮｳﾅﾝﾏﾁｼﾏﾀﾞ","pref":"熊本県","city":"熊本市南区","address":"城南町島田"},
{"zip_code":"8614204","kana_pref":"ｸﾏﾓﾄｹﾝ","kana_city":"ｸﾏﾓﾄｼﾐﾅﾐｸ","kana_address":"ｼﾞｮｳﾅﾝﾏﾁｼﾓﾐﾔｼﾞ","pref":"熊本県","city":"熊本市南区","address":"城南町下宮地"},
{"zip_code":"8614221","kana_pref":"ｸﾏﾓﾄｹﾝ","kana_city":"ｸﾏﾓﾄｼﾐﾅﾐｸ","kana_address":"ｼﾞｮｳﾅﾝﾏﾁｼﾞﾝﾅｲ","pref":"熊本県","city":"熊本市南区","address":"城南町陳内"},
{"zip_code":"8614232","kana_pref":"ｸﾏﾓﾄｹﾝ","kana_city":"ｸﾏﾓﾄｼﾐﾅﾐｸ","kana_address":"ｼﾞｮｳﾅﾝﾏﾁﾀｶ","pref":"熊本県","city":"熊本市南区","address":"城南町高"},
{"zip_code":"8614235","kana_pref":"ｸﾏﾓﾄｹﾝ","kana_city":"ｸﾏﾓﾄｼﾐﾅﾐｸ","kana_address":"ｼﾞｮｳﾅﾝﾏﾁﾁﾏﾁ","pref":"熊本県","city":"熊本市南区","address":"城南町千町"},
{"zip_code":"8614212","kana_pref":"ｸﾏﾓﾄｹﾝ","kana_city":"ｸﾏﾓﾄｼﾐﾅﾐｸ","kana_address":"ｼﾞｮｳﾅﾝﾏﾁﾂｲｼﾞ","pref":"熊本県","city":"熊本市南区","address":"城南町築地"},
{"zip_code":"8614226","kana_pref":"ｸﾏﾓﾄｹﾝ","kana_city":"ｸﾏﾓﾄｼﾐﾅﾐｸ","kana_address":"ｼﾞｮｳﾅﾝﾏﾁﾂｶﾜﾗ","pref":"熊本県","city":"熊本市南区","address":"城南町塚原"},
{"zip_code":"8614234","kana_pref":"ｸﾏﾓﾄｹﾝ","kana_city":"ｸﾏﾓﾄｼﾐﾅﾐｸ","kana_address":"ｼﾞｮｳﾅﾝﾏﾁﾅｶﾞ","pref":"熊本県","city":"熊本市南区","address":"城南町永"},
{"zip_code":"8614233","kana_pref":"ｸﾏﾓﾄｹﾝ","kana_city":"ｸﾏﾓﾄｼﾐﾅﾐｸ","kana_address":"ｼﾞｮｳﾅﾝﾏﾁﾆｳﾉﾐﾔ","pref":"熊本県","city":"熊本市南区","address":"城南町丹生宮"},
{"zip_code":"8614225","kana_pref":"ｸﾏﾓﾄｹﾝ","kana_city":"ｸﾏﾓﾄｼﾐﾅﾐｸ","kana_address":"ｼﾞｮｳﾅﾝﾏﾁﾋｶﾞｼｱﾀﾞｶ","pref":"熊本県","city":"熊本市南区","address":"城南町東阿高"},
{"zip_code":"8614223","kana_pref":"ｸﾏﾓﾄｹﾝ","kana_city":"ｸﾏﾓﾄｼﾐﾅﾐｸ","kana_address":"ｼﾞｮｳﾅﾝﾏﾁﾌｼﾞﾔﾏ","pref":"熊本県","city":"熊本市南区","address":"城南町藤山"},
{"zip_code":"8614214","kana_pref":"ｸﾏﾓﾄｹﾝ","kana_city":"ｸﾏﾓﾄｼﾐﾅﾐｸ","kana_address":"ｼﾞｮｳﾅﾝﾏﾁﾏｲﾉﾊﾗ","pref":"熊本県","city":"熊本市南区","address":"城南町舞原"},
{"zip_code":"8614202","kana_pref":"ｸﾏﾓﾄｹﾝ","kana_city":"ｸﾏﾓﾄｼﾐﾅﾐｸ","kana_address":"ｼﾞｮｳﾅﾝﾏﾁﾐﾔｼﾞ","pref":"熊本県","city":"熊本市南区","address":"城南町宮地"},
{"zip_code":"8614237","kana_pref":"ｸﾏﾓﾄｹﾝ","kana_city":"ｸﾏﾓﾄｼﾐﾅﾐｸ","kana_address":"ｼﾞｮｳﾅﾝﾏﾁﾛｸﾀ","pref":"熊本県","city":"熊本市南区","address":"城南町六田"},
{"zip_code":"8614222","kana_pref":"ｸﾏﾓﾄｹﾝ","kana_city":"ｸﾏﾓﾄｼﾐﾅﾐｸ","kana_address":"ｼﾞｮｳﾅﾝﾏﾁﾜﾆｾﾞ","pref":"熊本県","city":"熊本市南区","address":"城南町鰐瀬"},
{"zip_code":"8614112","kana_pref":"ｸﾏﾓﾄｹﾝ","kana_city":"ｸﾏﾓﾄｼﾐﾅﾐｸ","kana_address":"ｼﾗﾌｼﾞ","pref":"熊本県","city":"熊本市南区","address":"白藤"},
{"zip_code":"8615264","kana_pref":"ｸﾏﾓﾄｹﾝ","kana_city":"ｸﾏﾓﾄｼﾐﾅﾐｸ","kana_address":"ｼﾛｲｼﾏﾁ","pref":"熊本県","city":"熊本市南区","address":"白石町"},
{"zip_code":"8615255","kana_pref":"ｸﾏﾓﾄｹﾝ","kana_city":"ｸﾏﾓﾄｼﾐﾅﾐｸ","kana_address":"ｽﾅﾊﾗﾏﾁ","pref":"熊本県","city":"熊本市南区","address":"砂原町"},
{"zip_code":"8614126","kana_pref":"ｸﾏﾓﾄｹﾝ","kana_city":"ｸﾏﾓﾄｼﾐﾅﾐｸ","kana_address":"ｾﾞﾝﾄﾞﾓﾏﾁ","pref":"熊本県","city":"熊本市南区","address":"銭塘町"},
{"zip_code":"8614101","kana_pref":"ｸﾏﾓﾄｹﾝ","kana_city":"ｸﾏﾓﾄｼﾐﾅﾐｸ","kana_address":"ﾁｶﾐ","pref":"熊本県","city":"熊本市南区","address":"近見"},
{"zip_code":"8615252","kana_pref":"ｸﾏﾓﾄｹﾝ","kana_city":"ｸﾏﾓﾄｼﾐﾅﾐｸ","kana_address":"ﾄｶﾞﾜﾗﾏﾁ","pref":"熊本県","city":"熊本市南区","address":"土河原町"},
{"zip_code":"8614135","kana_pref":"ｸﾏﾓﾄｹﾝ","kana_city":"ｸﾏﾓﾄｼﾐﾅﾐｸ","kana_address":"ﾄﾋﾞﾏﾁ","pref":"熊本県","city":"熊本市南区","address":"鳶町"},
{"zip_code":"8614146","kana_pref":"ｸﾏﾓﾄｹﾝ","kana_city":"ｸﾏﾓﾄｼﾐﾅﾐｸ","kana_address":"ﾄﾐｱｲﾏﾁｴﾉｷﾂﾞ","pref":"熊本県","city":"熊本市南区","address":"富合町榎津"},
{"zip_code":"8614145","kana_pref":"ｸﾏﾓﾄｹﾝ","kana_city":"ｸﾏﾓﾄｼﾐﾅﾐｸ","kana_address":"ﾄﾐｱｲﾏﾁｵｵﾏﾁ","pref":"熊本県","city":"熊本市南区","address":"富合町大町"},
{"zip_code":"8614141","kana_pref":"ｸﾏﾓﾄｹﾝ","kana_city":"ｸﾏﾓﾄｼﾐﾅﾐｸ","kana_address":"ﾄﾐｱｲﾏﾁｵﾌﾅﾃ","pref":"熊本県","city":"熊本市南区","address":"富合町御船手"},
{"zip_code":"8614165","kana_pref":"ｸﾏﾓﾄｹﾝ","kana_city":"ｸﾏﾓﾄｼﾐﾅﾐｸ","kana_address":"ﾄﾐｱｲﾏﾁｶｷﾉｴ","pref":"熊本県","city":"熊本市南区","address":"富合町硴江"},
{"zip_code":"8614143","kana_pref":"ｸﾏﾓﾄｹﾝ","kana_city":"ｸﾏﾓﾄｼﾐﾅﾐｸ","kana_address":"ﾄﾐｱｲﾏﾁｶﾐｽｷﾞ","pref":"熊本県","city":"熊本市南区","address":"富合町上杉"},
{"zip_code":"8614151","kana_pref":"ｸﾏﾓﾄｹﾝ","kana_city":"ｸﾏﾓﾄｼﾐﾅﾐｸ","kana_address":"ﾄﾐｱｲﾏﾁｷﾖﾌｼﾞ","pref":"熊本県","city":"熊本市南区","address":"富合町清藤"},
{"zip_code":"8614153","kana_pref":"ｸﾏﾓﾄｹﾝ","kana_city":"ｸﾏﾓﾄｼﾐﾅﾐｸ","kana_address":"ﾄﾐｱｲﾏﾁｷﾜﾗ","pref":"熊本県","city":"熊本市南区","address":"富合町木原"},
{"zip_code":"8614161","kana_pref":"ｸﾏﾓﾄｹﾝ","kana_city":"ｸﾏﾓﾄｼﾐﾅﾐｸ","kana_address":"ﾄﾐｱｲﾏﾁｺｲﾜｾ","pref":"熊本県","city":"熊本市南区","address":"富合町小岩瀬"},
{"zip_code":"8614166","kana_pref":"ｸﾏﾓﾄｹﾝ","kana_city":"ｸﾏﾓﾄｼﾐﾅﾐｸ","kana_address":"ﾄﾐｱｲﾏﾁｺｳｻﾞｷ","pref":"熊本県","city":"熊本市南区","address":"富合町莎崎"},
{"zip_code":"8614157","kana_pref":"ｸﾏﾓﾄｹﾝ","kana_city":"ｸﾏﾓﾄｼﾐﾅﾐｸ","kana_address":"ﾄﾐｱｲﾏﾁｺｶﾞ","pref":"熊本県","city":"熊本市南区","address":"富合町古閑"},
{"zip_code":"8614162","kana_pref":"ｸﾏﾓﾄｹﾝ","kana_city":"ｸﾏﾓﾄｼﾐﾅﾐｸ","kana_address":"ﾄﾐｱｲﾏﾁｺｸﾁｮｳ","pref":"熊本県","city":"熊本市南区","address":"富合町国町"},
{"zip_code":"8614167","kana_pref":"ｸﾏﾓﾄｹﾝ","kana_city":"ｸﾏﾓﾄｼﾐﾅﾐｸ","kana_address":"ﾄﾐｱｲﾏﾁｺﾓﾉｴ","pref":"熊本県","city":"熊本市南区","address":"富合町菰江"},
{"zip_code":"8614163","kana_pref":"ｸﾏﾓﾄｹﾝ","kana_city":"ｸﾏﾓﾄｼﾐﾅﾐｸ","kana_address":"ﾄﾐｱｲﾏﾁｼｼﾞﾐｽﾞ","pref":"熊本県","city":"熊本市南区","address":"富合町志々水"},
{"zip_code":"8614144","kana_pref":"ｸﾏﾓﾄｹﾝ","kana_city":"ｸﾏﾓﾄｼﾐﾅﾐｸ","kana_address":"ﾄﾐｱｲﾏﾁｼｬｶﾄﾞｳ","pref":"熊本県","city":"熊本市南区","address":"富合町釈迦堂"},
{"zip_code":"8614152","kana_pref":"ｸﾏﾓﾄｹﾝ","kana_city":"ｸﾏﾓﾄｼﾐﾅﾐｸ","kana_address":"ﾄﾐｱｲﾏﾁｼﾝ","pref":"熊本県","city":"熊本市南区","address":"富合町新"},
{"zip_code":"8614142","kana_pref":"ｸﾏﾓﾄｹﾝ","kana_city":"ｸﾏﾓﾄｼﾐﾅﾐｸ","kana_address":"ﾄﾐｱｲﾏﾁｽｷﾞｼﾞﾏ","pref":"熊本県","city":"熊本市南区","address":"富合町杉島"},
{"zip_code":"8614156","kana_pref":"ｸﾏﾓﾄｹﾝ","kana_city":"ｸﾏﾓﾄｼﾐﾅﾐｸ","kana_address":"ﾄﾐｱｲﾏﾁﾀﾉｼﾘ","pref":"熊本県","city":"熊本市南区","address":"富合町田尻"},
{"zip_code":"8614164","kana_pref":"ｸﾏﾓﾄｹﾝ","kana_city":"ｸﾏﾓﾄｼﾐﾅﾐｸ","kana_address":"ﾄﾐｱｲﾏﾁﾆｼﾀﾉｼﾘ","pref":"熊本県","city":"熊本市南区","address":"富合町西田尻"},
{"zip_code":"8614154","kana_pref":"ｸﾏﾓﾄｹﾝ","kana_city":"ｸﾏﾓﾄｼﾐﾅﾐｸ","kana_address":"ﾄﾐｱｲﾏﾁﾋﾗﾊﾞﾙ","pref":"熊本県","city":"熊本市南区","address":"富合町平原"},
{"zip_code":"8614147","kana_pref":"ｸﾏﾓﾄｹﾝ","kana_city":"ｸﾏﾓﾄｼﾐﾅﾐｸ","kana_address":"ﾄﾐｱｲﾏﾁﾏｲﾉｴ","pref":"熊本県","city":"熊本市南区","address":"富合町廻江"},
{"zip_code":"8614155","kana_pref":"ｸﾏﾓﾄｹﾝ","kana_city":"ｸﾏﾓﾄｼﾐﾅﾐｸ","kana_address":"ﾄﾐｱｲﾏﾁﾐﾅﾐﾀﾉｼﾘ","pref":"熊本県","city":"熊本市南区","address":"富合町南田尻"},
{"zip_code":"8614116","kana_pref":"ｸﾏﾓﾄｹﾝ","kana_city":"ｸﾏﾓﾄｼﾐﾅﾐｸ","kana_address":"ﾅｶﾑﾀﾏﾁ","pref":"熊本県","city":"熊本市南区","address":"中無田町"},
{"zip_code":"8615263","kana_pref":"ｸﾏﾓﾄｹﾝ","kana_city":"ｸﾏﾓﾄｼﾐﾅﾐｸ","kana_address":"ﾅﾐﾀﾃﾏﾁ","pref":"熊本県","city":"熊本市南区","address":"並建町"},
{"zip_code":"8614137","kana_pref":"ｸﾏﾓﾄｹﾝ","kana_city":"ｸﾏﾓﾄｼﾐﾅﾐｸ","kana_address":"ﾉｸﾞﾁ","pref":"熊本県","city":"熊本市南区","address":"野口"},
{"zip_code":"8614137","kana_pref":"ｸﾏﾓﾄｹﾝ","kana_city":"ｸﾏﾓﾄｼﾐﾅﾐｸ","kana_address":"ﾉｸﾞﾁﾏﾁ","pref":"熊本県","city":"熊本市南区","address":"野口町"},
{"zip_code":"8614114","kana_pref":"ｸﾏﾓﾄｹﾝ","kana_city":"ｸﾏﾓﾄｼﾐﾅﾐｸ","kana_address":"ﾉﾀﾞ","pref":"熊本県","city":"熊本市南区","address":"野田"},
{"zip_code":"8615265","kana_pref":"ｸﾏﾓﾄｹﾝ","kana_city":"ｸﾏﾓﾄｼﾐﾅﾐｸ","kana_address":"ﾊﾀｸﾞﾁﾏﾁ","pref":"熊本県","city":"熊本市南区","address":"畠口町"},
{"zip_code":"8615253","kana_pref":"ｸﾏﾓﾄｹﾝ","kana_city":"ｸﾏﾓﾄｼﾐﾅﾐｸ","kana_address":"ﾊﾌｼﾞﾏﾁ","pref":"熊本県","city":"熊本市南区","address":"八分字町"},
{"zip_code":"8615262","kana_pref":"ｸﾏﾓﾄｹﾝ","kana_city":"ｸﾏﾓﾄｼﾐﾅﾐｸ","kana_address":"ﾊﾏｸﾞﾁﾏﾁ","pref":"熊本県","city":"熊本市南区","address":"浜口町"},
{"zip_code":"8614109","kana_pref":"ｸﾏﾓﾄｹﾝ","kana_city":"ｸﾏﾓﾄｼﾐﾅﾐｸ","kana_address":"ﾋﾖｼ","pref":"熊本県","city":"熊本市南区","address":"日吉"},
{"zip_code":"8615254","kana_pref":"ｸﾏﾓﾄｹﾝ","kana_city":"ｸﾏﾓﾄｼﾐﾅﾐｸ","kana_address":"ﾏｺﾞﾀﾞｲﾏﾁ","pref":"熊本県","city":"熊本市南区","address":"孫代町"},
{"zip_code":"8614122","kana_pref":"ｸﾏﾓﾄｹﾝ","kana_city":"ｸﾏﾓﾄｼﾐﾅﾐｸ","kana_address":"ﾐﾄﾞﾘﾏﾁ","pref":"熊本県","city":"熊本市南区","address":"美登里町"},
{"zip_code":"8614106","kana_pref":"ｸﾏﾓﾄｹﾝ","kana_city":"ｸﾏﾓﾄｼﾐﾅﾐｸ","kana_address":"ﾐﾅﾐﾀｶｴ","pref":"熊本県","city":"熊本市南区","address":"南高江"},
{"zip_code":"8614104","kana_pref":"ｸﾏﾓﾄｹﾝ","kana_city":"ｸﾏﾓﾄｼﾐﾅﾐｸ","kana_address":"ﾐﾕｷｷﾍﾞﾏﾁ","pref":"熊本県","city":"熊本市南区","address":"御幸木部町"},
{"zip_code":"8614102","kana_pref":"ｸﾏﾓﾄｹﾝ","kana_city":"ｸﾏﾓﾄｼﾐﾅﾐｸ","kana_address":"ﾐﾕｷﾆｼﾑﾀﾏﾁ","pref":"熊本県","city":"熊本市南区","address":"御幸西無田町"},
{"zip_code":"8614103","kana_pref":"ｸﾏﾓﾄｹﾝ","kana_city":"ｸﾏﾓﾄｼﾐﾅﾐｸ","kana_address":"ﾐﾕｷﾌｴﾀﾞﾏﾁ","pref":"熊本県","city":"熊本市南区","address":"御幸笛田町"},
{"zip_code":"8614173","kana_pref":"ｸﾏﾓﾄｹﾝ","kana_city":"ｸﾏﾓﾄｼﾐﾅﾐｸ","kana_address":"ﾐﾕｷｷﾍﾞ","pref":"熊本県","city":"熊本市南区","address":"御幸木部"},
{"zip_code":"8614171","kana_pref":"ｸﾏﾓﾄｹﾝ","kana_city":"ｸﾏﾓﾄｼﾐﾅﾐｸ","kana_address":"ﾐﾕｷﾆｼ","pref":"熊本県","city":"熊本市南区","address":"御幸西"},
{"zip_code":"8614172","kana_pref":"ｸﾏﾓﾄｹﾝ","kana_city":"ｸﾏﾓﾄｼﾐﾅﾐｸ","kana_address":"ﾐﾕｷﾌｴﾀﾞ","pref":"熊本県","city":"熊本市南区","address":"御幸笛田"},
{"zip_code":"8615261","kana_pref":"ｸﾏﾓﾄｹﾝ","kana_city":"ｸﾏﾓﾄｼﾐﾅﾐｸ","kana_address":"ﾑﾀｸﾞﾁﾏﾁ","pref":"熊本県","city":"熊本市南区","address":"無田口町"},
{"zip_code":"8614105","kana_pref":"ｸﾏﾓﾄｹﾝ","kana_city":"ｸﾏﾓﾄｼﾐﾅﾐｸ","kana_address":"ﾓﾄﾐﾏﾁ","pref":"熊本県","city":"熊本市南区","address":"元三町"},
{"zip_code":"8614113","kana_pref":"ｸﾏﾓﾄｹﾝ","kana_city":"ｸﾏﾓﾄｼﾐﾅﾐｸ","kana_address":"ﾔﾊﾀ","pref":"熊本県","city":"熊本市南区","address":"八幡"},
{"zip_code":"8610000","kana_pref":"ｸﾏﾓﾄｹﾝ","kana_city":"ｸﾏﾓﾄｼｷﾀｸ","kana_address":"","pref":"熊本県","city":"熊本市北区","address":""},
{"zip_code":"8618081","kana_pref":"ｸﾏﾓﾄｹﾝ","kana_city":"ｸﾏﾓﾄｼｷﾀｸ","kana_address":"ｱｿｳﾀﾞ","pref":"熊本県","city":"熊本市北区","address":"麻生田"},
{"zip_code":"8615501","kana_pref":"ｸﾏﾓﾄｹﾝ","kana_city":"ｸﾏﾓﾄｼｷﾀｸ","kana_address":"ｱﾗｷﾏﾁ","pref":"熊本県","city":"熊本市北区","address":"改寄町"},
{"zip_code":"8615533","kana_pref":"ｸﾏﾓﾄｹﾝ","kana_city":"ｸﾏﾓﾄｼｷﾀｸ","kana_address":"ｲｽﾞﾐﾏﾁ","pref":"熊本県","city":"熊本市北区","address":"和泉町"},
{"zip_code":"8610142","kana_pref":"ｸﾏﾓﾄｹﾝ","kana_city":"ｸﾏﾓﾄｼｷﾀｸ","kana_address":"ｳｴｷﾏﾁｱﾌﾞﾐﾀﾞ","pref":"熊本県","city":"熊本市北区","address":"植木町鐙田"},
{"zip_code":"8610123","kana_pref":"ｸﾏﾓﾄｹﾝ","kana_city":"ｸﾏﾓﾄｼｷﾀｸ","kana_address":"ｳｴｷﾏﾁｱﾘｽﾞﾐ","pref":"熊本県","city":"熊本市北区","address":"植木町有泉"},
{"zip_code":"8610124","kana_pref":"ｸﾏﾓﾄｹﾝ","kana_city":"ｸﾏﾓﾄｼｷﾀｸ","kana_address":"ｳｴｷﾏﾁｲｼｶﾜ","pref":"熊本県","city":"熊本市北区","address":"植木町石川"},
{"zip_code":"8610113","kana_pref":"ｸﾏﾓﾄｹﾝ","kana_city":"ｸﾏﾓﾄｼｷﾀｸ","kana_address":"ｳｴｷﾏﾁｲﾁﾎﾞｳ","pref":"熊本県","city":"熊本市北区","address":"植木町伊知坊"},
{"zip_code":"8610104","kana_pref":"ｸﾏﾓﾄｹﾝ","kana_city":"ｸﾏﾓﾄｼｷﾀｸ","kana_address":"ｳｴｷﾏﾁｲﾏﾌｼﾞ","pref":"熊本県","city":"熊本市北区","address":"植木町今藤"},
{"zip_code":"8610136","kana_pref":"ｸﾏﾓﾄｹﾝ","kana_city":"ｸﾏﾓﾄｼｷﾀｸ","kana_address":"ｳｴｷﾏﾁｲﾜﾉ","pref":"熊本県","city":"熊本市北区","address":"植木町岩野"},
{"zip_code":"8610132","kana_pref":"ｸﾏﾓﾄｹﾝ","kana_city":"ｸﾏﾓﾄｼｷﾀｸ","kana_address":"ｳｴｷﾏﾁｳｴｷ","pref":"熊本県","city":"熊本市北区","address":"植木町植木"},
{"zip_code":"8610152","kana_pref":"ｸﾏﾓﾄｹﾝ","kana_city":"ｸﾏﾓﾄｼｷﾀｸ","kana_address":"ｳｴｷﾏﾁｳｴｺｶﾞ","pref":"熊本県","city":"熊本市北区","address":"植木町上古閑"},
{"zip_code":"8610156","kana_pref":"ｸﾏﾓﾄｹﾝ","kana_city":"ｸﾏﾓﾄｼｷﾀｸ","kana_address":"ｳｴｷﾏﾁｳｼﾛｺｶﾞ","pref":"熊本県","city":"熊本市北区","address":"植木町後古閑"},
{"zip_code":"8610102","kana_pref":"ｸﾏﾓﾄｹﾝ","kana_city":"ｸﾏﾓﾄｼｷﾀｸ","kana_address":"ｳｴｷﾏﾁｳﾁ","pref":"熊本県","city":"熊本市北区","address":"植木町内"},
{"zip_code":"8610153","kana_pref":"ｸﾏﾓﾄｹﾝ","kana_city":"ｸﾏﾓﾄｼｷﾀｸ","kana_address":"ｳｴｷﾏﾁｴﾝﾀﾞｲｼﾞ","pref":"熊本県","city":"熊本市北区","address":"植木町円台寺"},
{"zip_code":"8610126","kana_pref":"ｸﾏﾓﾄｹﾝ","kana_city":"ｸﾏﾓﾄｼｷﾀｸ","kana_address":"ｳｴｷﾏﾁｵｵｲ","pref":"熊本県","city":"熊本市北区","address":"植木町大井"},
{"zip_code":"8610145","kana_pref":"ｸﾏﾓﾄｹﾝ","kana_city":"ｸﾏﾓﾄｼｷﾀｸ","kana_address":"ｳｴｷﾏﾁｵｷﾞｻｺ","pref":"熊本県","city":"熊本市北区","address":"植木町荻迫"},
{"zip_code":"8610125","kana_pref":"ｸﾏﾓﾄｹﾝ","kana_city":"ｸﾏﾓﾄｼｷﾀｸ","kana_address":"ｳｴｷﾏﾁｵﾉ","pref":"熊本県","city":"熊本市北区","address":"植木町小野"},
{"zip_code":"8610127","kana_pref":"ｸﾏﾓﾄｹﾝ","kana_city":"ｸﾏﾓﾄｼｷﾀｸ","kana_address":"ｳｴｷﾏﾁｶﾒｺｳ","pref":"熊本県","city":"熊本市北区","address":"植木町亀甲"},
{"zip_code":"8610151","kana_pref":"ｸﾏﾓﾄｹﾝ","kana_city":"ｸﾏﾓﾄｼｷﾀｸ","kana_address":"ｳｴｷﾏﾁｷﾄﾒ","pref":"熊本県","city":"熊本市北区","address":"植木町木留"},
{"zip_code":"8610103","kana_pref":"ｸﾏﾓﾄｹﾝ","kana_city":"ｸﾏﾓﾄｼｷﾀｸ","kana_address":"ｳｴｷﾏﾁｷﾖﾐｽﾞ","pref":"熊本県","city":"熊本市北区","address":"植木町清水"},
{"zip_code":"8610161","kana_pref":"ｸﾏﾓﾄｹﾝ","kana_city":"ｸﾏﾓﾄｼｷﾀｸ","kana_address":"ｳｴｷﾏﾁｸﾗｶｹ","pref":"熊本県","city":"熊本市北区","address":"植木町鞍掛"},
{"zip_code":"8610122","kana_pref":"ｸﾏﾓﾄｹﾝ","kana_city":"ｸﾏﾓﾄｼｷﾀｸ","kana_address":"ｳｴｷﾏﾁｺｶﾞ","pref":"熊本県","city":"熊本市北区","address":"植木町古閑"},
{"zip_code":"8610116","kana_pref":"ｸﾏﾓﾄｹﾝ","kana_city":"ｸﾏﾓﾄｼｷﾀｸ","kana_address":"ｳｴｷﾏﾁｼｷﾃﾞ","pref":"熊本県","city":"熊本市北区","address":"植木町色出"},
{"zip_code":"8610117","kana_pref":"ｸﾏﾓﾄｹﾝ","kana_city":"ｸﾏﾓﾄｼｷﾀｸ","kana_address":"ｳｴｷﾏﾁｼｮｳｾｲ","pref":"熊本県","city":"熊本市北区","address":"植木町正清"},
{"zip_code":"8610164","kana_pref":"ｸﾏﾓﾄｹﾝ","kana_city":"ｸﾏﾓﾄｼｷﾀｸ","kana_address":"ｳｴｷﾏﾁｽｽﾞﾑｷﾞ","pref":"熊本県","city":"熊本市北区","address":"植木町鈴麦"},
{"zip_code":"8610143","kana_pref":"ｸﾏﾓﾄｹﾝ","kana_city":"ｸﾏﾓﾄｼｷﾀｸ","kana_address":"ｳｴｷﾏﾁﾀﾞｲﾜ","pref":"熊本県","city":"熊本市北区","address":"植木町大和"},
{"zip_code":"8610112","kana_pref":"ｸﾏﾓﾄｹﾝ","kana_city":"ｸﾏﾓﾄｼｷﾀｸ","kana_address":"ｳｴｷﾏﾁﾀｿｺ","pref":"熊本県","city":"熊本市北区","address":"植木町田底"},
{"zip_code":"8610133","kana_pref":"ｸﾏﾓﾄｹﾝ","kana_city":"ｸﾏﾓﾄｼｷﾀｸ","kana_address":"ｳｴｷﾏﾁﾀﾙﾐｽﾞ","pref":"熊本県","city":"熊本市北区","address":"植木町滴水"},
{"zip_code":"8610155","kana_pref":"ｸﾏﾓﾄｹﾝ","kana_city":"ｸﾏﾓﾄｼｷﾀｸ","kana_address":"ｳｴｷﾏﾁﾄﾄﾞﾛｷ","pref":"熊本県","city":"熊本市北区","address":"植木町轟"},
{"zip_code":"8610162","kana_pref":"ｸﾏﾓﾄｹﾝ","kana_city":"ｸﾏﾓﾄｼｷﾀｸ","kana_address":"ｳｴｷﾏﾁﾄﾐｵｳ","pref":"熊本県","city":"熊本市北区","address":"植木町富応"},
{"zip_code":"8610163","kana_pref":"ｸﾏﾓﾄｹﾝ","kana_city":"ｸﾏﾓﾄｼｷﾀｸ","kana_address":"ｳｴｷﾏﾁﾄﾖｵｶ","pref":"熊本県","city":"熊本市北区","address":"植木町豊岡"},
{"zip_code":"8610106","kana_pref":"ｸﾏﾓﾄｹﾝ","kana_city":"ｸﾏﾓﾄｼｷﾀｸ","kana_address":"ｳｴｷﾏﾁﾄﾖﾀﾞ","pref":"熊本県","city":"熊本市北区","address":"植木町豊田"},
{"zip_code":"8610141","kana_pref":"ｸﾏﾓﾄｹﾝ","kana_city":"ｸﾏﾓﾄｼｷﾀｸ","kana_address":"ｳｴｷﾏﾁﾅﾀﾂｶ","pref":"熊本県","city":"熊本市北区","address":"植木町投刀塚"},
{"zip_code":"8610154","kana_pref":"ｸﾏﾓﾄｹﾝ","kana_city":"ｸﾏﾓﾄｼｷﾀｸ","kana_address":"ｳｴｷﾏﾁﾅﾁ","pref":"熊本県","city":"熊本市北区","address":"植木町那知"},
{"zip_code":"8610135","kana_pref":"ｸﾏﾓﾄｹﾝ","kana_city":"ｸﾏﾓﾄｼｷﾀｸ","kana_address":"ｳｴｷﾏﾁﾋﾄﾂｷﾞ","pref":"熊本県","city":"熊本市北区","address":"植木町一木"},
{"zip_code":"8610121","kana_pref":"ｸﾏﾓﾄｹﾝ","kana_city":"ｸﾏﾓﾄｼｷﾀｸ","kana_address":"ｳｴｷﾏﾁﾋﾗｲ","pref":"熊本県","city":"熊本市北区","address":"植木町平井"},
{"zip_code":"8610144","kana_pref":"ｸﾏﾓﾄｹﾝ","kana_city":"ｸﾏﾓﾄｼｷﾀｸ","kana_address":"ｳｴｷﾏﾁﾋﾗﾉ","pref":"熊本県","city":"熊本市北区","address":"植木町平野"},
{"zip_code":"8610165","kana_pref":"ｸﾏﾓﾄｹﾝ","kana_city":"ｸﾏﾓﾄｼｷﾀｸ","kana_address":"ｳｴｷﾏﾁﾋﾗﾊﾞﾙ","pref":"熊本県","city":"熊本市北区","address":"植木町平原"},
{"zip_code":"8610131","kana_pref":"ｸﾏﾓﾄｹﾝ","kana_city":"ｸﾏﾓﾄｼｷﾀｸ","kana_address":"ｳｴｷﾏﾁﾋﾛｽﾞﾐ","pref":"熊本県","city":"熊本市北区","address":"植木町広住"},
{"zip_code":"8610114","kana_pref":"ｸﾏﾓﾄｹﾝ","kana_city":"ｸﾏﾓﾄｼｷﾀｸ","kana_address":"ｳｴｷﾏﾁﾌﾅｼﾞﾏ","pref":"熊本県","city":"熊本市北区","address":"植木町舟島"},
{"zip_code":"8610146","kana_pref":"ｸﾏﾓﾄｹﾝ","kana_city":"ｸﾏﾓﾄｼｷﾀｸ","kana_address":"ｳｴｷﾏﾁﾍﾀﾉ","pref":"熊本県","city":"熊本市北区","address":"植木町辺田野"},
{"zip_code":"8610105","kana_pref":"ｸﾏﾓﾄｹﾝ","kana_city":"ｸﾏﾓﾄｼｷﾀｸ","kana_address":"ｳｴｷﾏﾁﾐﾄﾘ","pref":"熊本県","city":"熊本市北区","address":"植木町味取"},
{"zip_code":"8610111","kana_pref":"ｸﾏﾓﾄｹﾝ","kana_city":"ｸﾏﾓﾄｼｷﾀｸ","kana_address":"ｳｴｷﾏﾁﾐﾔﾊﾞﾙ","pref":"熊本県","city":"熊本市北区","address":"植木町宮原"},
{"zip_code":"8610134","kana_pref":"ｸﾏﾓﾄｹﾝ","kana_city":"ｸﾏﾓﾄｼｷﾀｸ","kana_address":"ｳｴｷﾏﾁﾓｳﾉ","pref":"熊本県","city":"熊本市北区","address":"植木町舞尾"},
{"zip_code":"8610101","kana_pref":"ｸﾏﾓﾄｹﾝ","kana_city":"ｸﾏﾓﾄｼｷﾀｸ","kana_address":"ｳｴｷﾏﾁﾔﾏﾓﾄ","pref":"熊本県","city":"熊本市北区","address":"植木町山本"},
{"zip_code":"8610115","kana_pref":"ｸﾏﾓﾄｹﾝ","kana_city":"ｸﾏﾓﾄｼｷﾀｸ","kana_address":"ｳｴｷﾏﾁﾖﾈﾂｶ","pref":"熊本県","city":"熊本市北区","address":"植木町米塚"},
{"zip_code":"8618082","kana_pref":"ｸﾏﾓﾄｹﾝ","kana_city":"ｸﾏﾓﾄｼｷﾀｸ","kana_address":"ｳｻｷﾞﾀﾞﾆ","pref":"熊本県","city":"熊本市北区","address":"兎谷"},
{"zip_code":"8615502","kana_pref":"ｸﾏﾓﾄｹﾝ","kana_city":"ｸﾏﾓﾄｼｷﾀｸ","kana_address":"ｵｵﾄﾘｲﾏﾁ","pref":"熊本県","city":"熊本市北区","address":"大鳥居町"},
{"zip_code":"8615512","kana_pref":"ｸﾏﾓﾄｹﾝ","kana_city":"ｸﾏﾓﾄｼｷﾀｸ","kana_address":"ｶｼﾞｵﾏﾁ","pref":"熊本県","city":"熊本市北区","address":"梶尾町"},
{"zip_code":"8615521","kana_pref":"ｸﾏﾓﾄｹﾝ","kana_city":"ｸﾏﾓﾄｼｷﾀｸ","kana_address":"ｶﾉｺｷﾞﾏﾁ","pref":"熊本県","city":"熊本市北区","address":"鹿子木町"},
{"zip_code":"8615534","kana_pref":"ｸﾏﾓﾄｹﾝ","kana_city":"ｸﾏﾓﾄｼｷﾀｸ","kana_address":"ｶﾏｵﾏﾁ","pref":"熊本県","city":"熊本市北区","address":"釜尾町"},
{"zip_code":"8615531","kana_pref":"ｸﾏﾓﾄｹﾝ","kana_city":"ｸﾏﾓﾄｼｷﾀｸ","kana_address":"ｷﾀｻﾞｺﾏﾁ","pref":"熊本県","city":"熊本市北区","address":"北迫町"},
{"zip_code":"8618003","kana_pref":"ｸﾏﾓﾄｹﾝ","kana_city":"ｸﾏﾓﾄｼｷﾀｸ","kana_address":"ｸｽﾉｷ","pref":"熊本県","city":"熊本市北区","address":"楠"},
{"zip_code":"8615511","kana_pref":"ｸﾏﾓﾄｹﾝ","kana_city":"ｸﾏﾓﾄｼｷﾀｸ","kana_address":"ｸｽﾉﾏﾁ","pref":"熊本県","city":"熊本市北区","address":"楠野町"},
{"zip_code":"8615504","kana_pref":"ｸﾏﾓﾄｹﾝ","kana_city":"ｸﾏﾓﾄｼｷﾀｸ","kana_address":"ｺｲﾄﾔﾏﾏﾁ","pref":"熊本県","city":"熊本市北区","address":"小糸山町"},
{"zip_code":"8618084","kana_pref":"ｸﾏﾓﾄｹﾝ","kana_city":"ｸﾏﾓﾄｼｷﾀｸ","kana_address":"ｼﾐｽﾞｲﾜｸﾗ","pref":"熊本県","city":"熊本市北区","address":"清水岩倉"},
{"zip_code":"8618066","kana_pref":"ｸﾏﾓﾄｹﾝ","kana_city":"ｸﾏﾓﾄｼｷﾀｸ","kana_address":"ｼﾐｽﾞｶﾒｲﾏﾁ","pref":"熊本県","city":"熊本市北区","address":"清水亀井町"},
{"zip_code":"8618075","kana_pref":"ｸﾏﾓﾄｹﾝ","kana_city":"ｸﾏﾓﾄｼｷﾀｸ","kana_address":"ｼﾐｽﾞｼﾝﾁ","pref":"熊本県","city":"熊本市北区","address":"清水新地"},
{"zip_code":"8618065","kana_pref":"ｸﾏﾓﾄｹﾝ","kana_city":"ｸﾏﾓﾄｼｷﾀｸ","kana_address":"ｼﾐｽﾞﾋｶﾞｼﾏﾁ","pref":"熊本県","city":"熊本市北区","address":"清水東町"},
{"zip_code":"8618074","kana_pref":"ｸﾏﾓﾄｹﾝ","kana_city":"ｸﾏﾓﾄｼｷﾀｸ","kana_address":"ｼﾐｽﾞﾎﾝﾏﾁ","pref":"熊本県","city":"熊本市北区","address":"清水本町"},
{"zip_code":"8618068","kana_pref":"ｸﾏﾓﾄｹﾝ","kana_city":"ｸﾏﾓﾄｼｷﾀｸ","kana_address":"ｼﾐｽﾞﾏﾝｺﾞｸ","pref":"熊本県","city":"熊本市北区","address":"清水万石"},
{"zip_code":"8618073","kana_pref":"ｸﾏﾓﾄｹﾝ","kana_city":"ｸﾏﾓﾄｼｷﾀｸ","kana_address":"ｼﾐｽﾞﾏﾁﾏﾂｻﾞｷ","pref":"熊本県","city":"熊本市北区","address":"清水町松崎"},
{"zip_code":"8618071","kana_pref":"ｸﾏﾓﾄｹﾝ","kana_city":"ｸﾏﾓﾄｼｷﾀｸ","kana_address":"ｼﾐｽﾞﾏﾁﾑﾛｿﾞﾉ","pref":"熊本県","city":"熊本市北区","address":"清水町室園"},
{"zip_code":"8615526","kana_pref":"ｸﾏﾓﾄｹﾝ","kana_city":"ｸﾏﾓﾄｼｷﾀｸ","kana_address":"ｼﾓｽｽﾞﾘｶﾜ","pref":"熊本県","city":"熊本市北区","address":"下硯川"},
{"zip_code":"8615522","kana_pref":"ｸﾏﾓﾄｹﾝ","kana_city":"ｸﾏﾓﾄｼｷﾀｸ","kana_address":"ｼﾓｽｽﾞﾘｶﾜﾏﾁ","pref":"熊本県","city":"熊本市北区","address":"下硯川町"},
{"zip_code":"8615524","kana_pref":"ｸﾏﾓﾄｹﾝ","kana_city":"ｸﾏﾓﾄｼｷﾀｸ","kana_address":"ｽｽﾞﾘｶﾜﾏﾁ","pref":"熊本県","city":"熊本市北区","address":"硯川町"},
{"zip_code":"8618006","kana_pref":"ｸﾏﾓﾄｹﾝ","kana_city":"ｸﾏﾓﾄｼｷﾀｸ","kana_address":"ﾀﾂﾀﾞ","pref":"熊本県","city":"熊本市北区","address":"龍田"},
{"zip_code":"8618005","kana_pref":"ｸﾏﾓﾄｹﾝ","kana_city":"ｸﾏﾓﾄｼｷﾀｸ","kana_address":"ﾀﾂﾀﾞｼﾞﾝﾅｲ","pref":"熊本県","city":"熊本市北区","address":"龍田陳内"},
{"zip_code":"8618002","kana_pref":"ｸﾏﾓﾄｹﾝ","kana_city":"ｸﾏﾓﾄｼｷﾀｸ","kana_address":"ﾀﾂﾀﾞﾏﾁﾕｹﾞ","pref":"熊本県","city":"熊本市北区","address":"龍田町弓削"},
{"zip_code":"8618007","kana_pref":"ｸﾏﾓﾄｹﾝ","kana_city":"ｸﾏﾓﾄｼｷﾀｸ","kana_address":"ﾀﾂﾀﾞﾕｹﾞ","pref":"熊本県","city":"熊本市北区","address":"龍田弓削"},
{"zip_code":"8615532","kana_pref":"ｸﾏﾓﾄｹﾝ","kana_city":"ｸﾏﾓﾄｼｷﾀｸ","kana_address":"ﾀﾛｳｻﾞｺﾏﾁ","pref":"熊本県","city":"熊本市北区","address":"太郎迫町"},
{"zip_code":"8615517","kana_pref":"ｸﾏﾓﾄｹﾝ","kana_city":"ｸﾏﾓﾄｼｷﾀｸ","kana_address":"ﾂﾙﾊﾀﾞ","pref":"熊本県","city":"熊本市北区","address":"鶴羽田"},
{"zip_code":"8615513","kana_pref":"ｸﾏﾓﾄｹﾝ","kana_city":"ｸﾏﾓﾄｼｷﾀｸ","kana_address":"ﾂﾙﾊﾀﾞﾏﾁ","pref":"熊本県","city":"熊本市北区","address":"鶴羽田町"},
{"zip_code":"8615525","kana_pref":"ｸﾏﾓﾄｹﾝ","kana_city":"ｸﾏﾓﾄｼｷﾀｸ","kana_address":"ﾄｸｵｳ","pref":"熊本県","city":"熊本市北区","address":"徳王"},
{"zip_code":"8615523","kana_pref":"ｸﾏﾓﾄｹﾝ","kana_city":"ｸﾏﾓﾄｼｷﾀｸ","kana_address":"ﾄｸｵｳﾏﾁ","pref":"熊本県","city":"熊本市北区","address":"徳王町"},
{"zip_code":"8615516","kana_pref":"ｸﾏﾓﾄｹﾝ","kana_city":"ｸﾏﾓﾄｼｷﾀｸ","kana_address":"ﾆｼｶｼﾞｵﾏﾁ","pref":"熊本県","city":"熊本市北区","address":"西梶尾町"},
{"zip_code":"8618083","kana_pref":"ｸﾏﾓﾄｹﾝ","kana_city":"ｸﾏﾓﾄｼｷﾀｸ","kana_address":"ﾆﾚﾉｷ","pref":"熊本県","city":"熊本市北区","address":"楡木"},
{"zip_code":"8618064","kana_pref":"ｸﾏﾓﾄｹﾝ","kana_city":"ｸﾏﾓﾄｼｷﾀｸ","kana_address":"ﾊｹﾉﾐﾔ","pref":"熊本県","city":"熊本市北区","address":"八景水谷"},
{"zip_code":"8615514","kana_pref":"ｸﾏﾓﾄｹﾝ","kana_city":"ｸﾏﾓﾄｼｷﾀｸ","kana_address":"ﾋﾀﾞ","pref":"熊本県","city":"熊本市北区","address":"飛田"},
{"zip_code":"8615537","kana_pref":"ｸﾏﾓﾄｹﾝ","kana_city":"ｸﾏﾓﾄｼｷﾀｸ","kana_address":"ﾏﾝﾗｸｼﾞﾏﾁ","pref":"熊本県","city":"熊本市北区","address":"万楽寺町"},
{"zip_code":"8615535","kana_pref":"ｸﾏﾓﾄｹﾝ","kana_city":"ｸﾏﾓﾄｼｷﾀｸ","kana_address":"ﾐﾂｸﾞﾏﾁ","pref":"熊本県","city":"熊本市北区","address":"貢町"},
{"zip_code":"8618001","kana_pref":"ｸﾏﾓﾄｹﾝ","kana_city":"ｸﾏﾓﾄｼｷﾀｸ","kana_address":"ﾑｻｼｶﾞｵｶ","pref":"熊本県","city":"熊本市北区","address":"武蔵ケ丘"},
{"zip_code":"8618072","kana_pref":"ｸﾏﾓﾄｹﾝ","kana_city":"ｸﾏﾓﾄｼｷﾀｸ","kana_address":"ﾑﾛｿﾞﾉﾏﾁ","pref":"熊本県","city":"熊本市北区","address":"室園町"},
{"zip_code":"8615503","kana_pref":"ｸﾏﾓﾄｹﾝ","kana_city":"ｸﾏﾓﾄｼｷﾀｸ","kana_address":"ﾒｲﾄｸﾏﾁ","pref":"熊本県","city":"熊本市北区","address":"明徳町"},
{"zip_code":"8615515","kana_pref":"ｸﾏﾓﾄｹﾝ","kana_city":"ｸﾏﾓﾄｼｷﾀｸ","kana_address":"ﾖﾓｷﾞﾏﾁ","pref":"熊本県","city":"熊本市北区","address":"四方寄町"},
{"zip_code":"8615536","kana_pref":"ｸﾏﾓﾄｹﾝ","kana_city":"ｸﾏﾓﾄｼｷﾀｸ","kana_address":"ﾘｭｳﾌｸｼﾞﾏﾁ","pref":"熊本県","city":"熊本市北区","address":"立福寺町"},
{"zip_code":"8615401","kana_pref":"ｸﾏﾓﾄｹﾝ","kana_city":"ﾀﾏﾅｼ","kana_address":"ﾃﾝｽｲﾏﾁｵｱﾏ","pref":"熊本県","city":"玉名市","address":"天水町小天"},
{"zip_code":"8615406","kana_pref":"ｸﾏﾓﾄｹﾝ","kana_city":"ﾀﾏﾅｼ","kana_address":"ﾃﾝｽｲﾏﾁｵﾀ","pref":"熊本県","city":"玉名市","address":"天水町尾田"},
{"zip_code":"8615404","kana_pref":"ｸﾏﾓﾄｹﾝ","kana_city":"ﾀﾏﾅｼ","kana_address":"ﾃﾝｽｲﾏﾁﾀｹｻﾞｷ","pref":"熊本県","city":"玉名市","address":"天水町竹崎"},
{"zip_code":"8615402","kana_pref":"ｸﾏﾓﾄｹﾝ","kana_city":"ﾀﾏﾅｼ","kana_address":"ﾃﾝｽｲﾏﾁﾀﾁﾊﾞﾅ","pref":"熊本県","city":"玉名市","address":"天水町立花"},
{"zip_code":"8615405","kana_pref":"ｸﾏﾓﾄｹﾝ","kana_city":"ﾀﾏﾅｼ","kana_address":"ﾃﾝｽｲﾏﾁﾉﾍﾞﾀ","pref":"熊本県","city":"玉名市","address":"天水町野部田"},
{"zip_code":"8615403","kana_pref":"ｸﾏﾓﾄｹﾝ","kana_city":"ﾀﾏﾅｼ","kana_address":"ﾃﾝｽｲﾏﾁﾍﾀﾐ","pref":"熊本県","city":"玉名市","address":"天水町部田見"},
{"zip_code":"8610500","kana_pref":"ｸﾏﾓﾄｹﾝ","kana_city":"ﾔﾏｶﾞｼ","kana_address":"","pref":"熊本県","city":"山鹿市","address":""},
{"zip_code":"8610547","kana_pref":"ｸﾏﾓﾄｹﾝ","kana_city":"ﾔﾏｶﾞｼ","kana_address":"ｱｿﾞﾉ","pref":"熊本県","city":"山鹿市","address":"麻生野"},
{"zip_code":"8610553","kana_pref":"ｸﾏﾓﾄｹﾝ","kana_city":"ﾔﾏｶﾞｼ","kana_address":"ｲｼ","pref":"熊本県","city":"山鹿市","address":"石"},
{"zip_code":"8610512","kana_pref":"ｸﾏﾓﾄｹﾝ","kana_city":"ﾔﾏｶﾞｼ","kana_address":"ｲｽﾞﾐﾏﾁ","pref":"熊本県","city":"山鹿市","address":"泉町"},
{"zip_code":"8610517","kana_pref":"ｸﾏﾓﾄｹﾝ","kana_city":"ﾔﾏｶﾞｼ","kana_address":"ｵｵﾊｼﾄﾞｵﾘ","pref":"熊本県","city":"山鹿市","address":"大橋通"},
{"zip_code":"8610521","kana_pref":"ｸﾏﾓﾄｹﾝ","kana_city":"ﾔﾏｶﾞｼ","kana_address":"ｵｻｶ","pref":"熊本県","city":"山鹿市","address":"小坂"},
{"zip_code":"8610543","kana_pref":"ｸﾏﾓﾄｹﾝ","kana_city":"ﾔﾏｶﾞｼ","kana_address":"ｵﾊﾞﾙ","pref":"熊本県","city":"山鹿市","address":"小原"},
{"zip_code":"8610555","kana_pref":"ｸﾏﾓﾄｹﾝ","kana_city":"ﾔﾏｶﾞｼ","kana_address":"ｵﾑﾚ","pref":"熊本県","city":"山鹿市","address":"小群"},
{"zip_code":"8610565","kana_pref":"ｸﾏﾓﾄｹﾝ","kana_city":"ﾔﾏｶﾞｼ","kana_address":"ｶｵｳﾏﾁｱｲｻﾞﾄ","pref":"熊本県","city":"山鹿市","address":"鹿央町合里"},
{"zip_code":"8610561","kana_pref":"ｸﾏﾓﾄｹﾝ","kana_city":"ﾔﾏｶﾞｼ","kana_address":"ｶｵｳﾏﾁｲﾜﾊﾞﾙ","pref":"熊本県","city":"山鹿市","address":"鹿央町岩原"},
{"zip_code":"8610574","kana_pref":"ｸﾏﾓﾄｹﾝ","kana_city":"ﾔﾏｶﾞｼ","kana_address":"ｶｵｳﾏﾁｳﾒﾉｷﾀﾞﾆ","pref":"熊本県","city":"山鹿市","address":"鹿央町梅木谷"},
{"zip_code":"8610576","kana_pref":"ｸﾏﾓﾄｹﾝ","kana_city":"ﾔﾏｶﾞｼ","kana_address":"ｶｵｳﾏﾁｵｵｳﾗ","pref":"熊本県","city":"山鹿市","address":"鹿央町大浦"},
{"zip_code":"8610571","kana_pref":"ｸﾏﾓﾄｹﾝ","kana_city":"ﾔﾏｶﾞｼ","kana_address":"ｶｵｳﾏﾁｷﾀﾀﾞﾆ","pref":"熊本県","city":"山鹿市","address":"鹿央町北谷"},
{"zip_code":"8610573","kana_pref":"ｸﾏﾓﾄｹﾝ","kana_city":"ﾔﾏｶﾞｼ","kana_address":"ｶｵｳﾏﾁｼﾓﾉ","pref":"熊本県","city":"山鹿市","address":"鹿央町霜野"},
{"zip_code":"8610563","kana_pref":"ｸﾏﾓﾄｹﾝ","kana_city":"ﾔﾏｶﾞｼ","kana_address":"ｶｵｳﾏﾁﾁﾀﾞ","pref":"熊本県","city":"山鹿市","address":"鹿央町千田"},
{"zip_code":"8610575","kana_pref":"ｸﾏﾓﾄｹﾝ","kana_city":"ﾔﾏｶﾞｼ","kana_address":"ｶｵｳﾏﾁﾁｭｳﾉｳﾗ","pref":"熊本県","city":"山鹿市","address":"鹿央町中浦"},
{"zip_code":"8610572","kana_pref":"ｸﾏﾓﾄｹﾝ","kana_city":"ﾔﾏｶﾞｼ","kana_address":"ｶｵｳﾏﾁﾆｵｳﾄﾞｳ","pref":"熊本県","city":"山鹿市","address":"鹿央町仁王堂"},
{"zip_code":"8610564","kana_pref":"ｸﾏﾓﾄｹﾝ","kana_city":"ﾔﾏｶﾞｼ","kana_address":"ｶｵｳﾏﾁﾋﾛ","pref":"熊本県","city":"山鹿市","address":"鹿央町広"},
{"zip_code":"8610562","kana_pref":"ｸﾏﾓﾄｹﾝ","kana_city":"ﾔﾏｶﾞｼ","kana_address":"ｶｵｳﾏﾁﾓﾁﾏﾂ","pref":"熊本県","city":"山鹿市","address":"鹿央町持松"},
{"zip_code":"8610532","kana_pref":"ｸﾏﾓﾄｹﾝ","kana_city":"ﾔﾏｶﾞｼ","kana_address":"ｶｺｳﾄｵﾘ","pref":"熊本県","city":"山鹿市","address":"鹿校通"},
{"zip_code":"8610382","kana_pref":"ｸﾏﾓﾄｹﾝ","kana_city":"ﾔﾏｶﾞｼ","kana_address":"ｶﾄｳﾀﾞ","pref":"熊本県","city":"山鹿市","address":"方保田"},
{"zip_code":"8610602","kana_pref":"ｸﾏﾓﾄｹﾝ","kana_city":"ﾔﾏｶﾞｼ","kana_address":"ｶﾎｸﾏﾁｲﾓｳ","pref":"熊本県","city":"山鹿市","address":"鹿北町芋生"},
{"zip_code":"8610603","kana_pref":"ｸﾏﾓﾄｹﾝ","kana_city":"ﾔﾏｶﾞｼ","kana_address":"ｶﾎｸﾏﾁｲﾜﾉ","pref":"熊本県","city":"山鹿市","address":"鹿北町岩野"},
{"zip_code":"8610604","kana_pref":"ｸﾏﾓﾄｹﾝ","kana_city":"ﾔﾏｶﾞｼ","kana_address":"ｶﾎｸﾏﾁｼｲﾓﾁ","pref":"熊本県","city":"山鹿市","address":"鹿北町椎持"},
{"zip_code":"8610601","kana_pref":"ｸﾏﾓﾄｹﾝ","kana_city":"ﾔﾏｶﾞｼ","kana_address":"ｶﾎｸﾏﾁｼﾁｮｳ","pref":"熊本県","city":"山鹿市","address":"鹿北町四丁"},
{"zip_code":"8610605","kana_pref":"ｸﾏﾓﾄｹﾝ","kana_city":"ﾔﾏｶﾞｼ","kana_address":"ｶﾎｸﾏﾁﾀｸ","pref":"熊本県","city":"山鹿市","address":"鹿北町多久"},
{"zip_code":"8610524","kana_pref":"ｸﾏﾓﾄｹﾝ","kana_city":"ﾔﾏｶﾞｼ","kana_address":"ｶﾐﾖｼﾀﾞ","pref":"熊本県","city":"山鹿市","address":"上吉田"},
{"zip_code":"8610523","kana_pref":"ｸﾏﾓﾄｹﾝ","kana_city":"ﾔﾏｶﾞｼ","kana_address":"ｶﾓｳ","pref":"熊本県","city":"山鹿市","address":"蒲生"},
{"zip_code":"8610311","kana_pref":"ｸﾏﾓﾄｹﾝ","kana_city":"ﾔﾏｶﾞｼ","kana_address":"ｶﾓﾄﾏﾁｲｼﾌﾞﾁ","pref":"熊本県","city":"山鹿市","address":"鹿本町石渕"},
{"zip_code":"8610315","kana_pref":"ｸﾏﾓﾄｹﾝ","kana_city":"ﾔﾏｶﾞｼ","kana_address":"ｶﾓﾄﾏﾁｵｼﾏ","pref":"熊本県","city":"山鹿市","address":"鹿本町小嶋"},
{"zip_code":"8610312","kana_pref":"ｸﾏﾓﾄｹﾝ","kana_city":"ﾔﾏｶﾞｼ","kana_address":"ｶﾓﾄﾏﾁｶｼﾞﾔ","pref":"熊本県","city":"山鹿市","address":"鹿本町梶屋"},
{"zip_code":"8610331","kana_pref":"ｸﾏﾓﾄｹﾝ","kana_city":"ﾔﾏｶﾞｼ","kana_address":"ｶﾓﾄﾏﾁｸﾀﾐ","pref":"熊本県","city":"山鹿市","address":"鹿本町来民"},
{"zip_code":"8610324","kana_pref":"ｸﾏﾓﾄｹﾝ","kana_city":"ﾔﾏｶﾞｼ","kana_address":"ｶﾓﾄﾏﾁｺﾔﾅｷﾞ","pref":"熊本県","city":"山鹿市","address":"鹿本町小柳"},
{"zip_code":"8610316","kana_pref":"ｸﾏﾓﾄｹﾝ","kana_city":"ﾔﾏｶﾞｼ","kana_address":"ｶﾓﾄﾏﾁｼﾓﾀｶﾊｼ","pref":"熊本県","city":"山鹿市","address":"鹿本町下高橋"},
{"zip_code":"8610323","kana_pref":"ｸﾏﾓﾄｹﾝ","kana_city":"ﾔﾏｶﾞｼ","kana_address":"ｶﾓﾄﾏﾁｼﾓﾌﾞﾝﾀﾞ","pref":"熊本県","city":"山鹿市","address":"鹿本町下分田"},
{"zip_code":"8610301","kana_pref":"ｸﾏﾓﾄｹﾝ","kana_city":"ﾔﾏｶﾞｼ","kana_address":"ｶﾓﾄﾏﾁｼｮｳ","pref":"熊本県","city":"山鹿市","address":"鹿本町庄"},
{"zip_code":"8610303","kana_pref":"ｸﾏﾓﾄｹﾝ","kana_city":"ﾔﾏｶﾞｼ","kana_address":"ｶﾓﾄﾏﾁﾀｶﾊｼ","pref":"熊本県","city":"山鹿市","address":"鹿本町高橋"},
{"zip_code":"8610302","kana_pref":"ｸﾏﾓﾄｹﾝ","kana_city":"ﾔﾏｶﾞｼ","kana_address":"ｶﾓﾄﾏﾁﾂﾌﾞｸﾛ","pref":"熊本県","city":"山鹿市","address":"鹿本町津袋"},
{"zip_code":"8610314","kana_pref":"ｸﾏﾓﾄｹﾝ","kana_city":"ﾔﾏｶﾞｼ","kana_address":"ｶﾓﾄﾏﾁﾅｶｶﾞﾜ","pref":"熊本県","city":"山鹿市","address":"鹿本町中川"},
{"zip_code":"8610313","kana_pref":"ｸﾏﾓﾄｹﾝ","kana_city":"ﾔﾏｶﾞｼ","kana_address":"ｶﾓﾄﾏﾁﾅｶﾄﾞﾐ","pref":"熊本県","city":"山鹿市","address":"鹿本町中富"},
{"zip_code":"8610322","kana_pref":"ｸﾏﾓﾄｹﾝ","kana_city":"ﾔﾏｶﾞｼ","kana_address":"ｶﾓﾄﾏﾁﾅｶﾌﾞﾝﾀﾞ","pref":"熊本県","city":"山鹿市","address":"鹿本町中分田"},
{"zip_code":"8610321","kana_pref":"ｸﾏﾓﾄｹﾝ","kana_city":"ﾔﾏｶﾞｼ","kana_address":"ｶﾓﾄﾏﾁﾌﾞﾝﾀﾞ","pref":"熊本県","city":"山鹿市","address":"鹿本町分田"},
{"zip_code":"8610304","kana_pref":"ｸﾏﾓﾄｹﾝ","kana_city":"ﾔﾏｶﾞｼ","kana_address":"ｶﾓﾄﾏﾁﾐｳﾀ","pref":"熊本県","city":"山鹿市","address":"鹿本町御宇田"},
{"zip_code":"8610519","kana_pref":"ｸﾏﾓﾄｹﾝ","kana_city":"ﾔﾏｶﾞｼ","kana_address":"ｶﾜﾊﾞﾀﾏﾁ","pref":"熊本県","city":"山鹿市","address":"川端町"},
{"zip_code":"8610412","kana_pref":"ｸﾏﾓﾄｹﾝ","kana_city":"ﾔﾏｶﾞｼ","kana_address":"ｷｸｶﾏﾁｱｲﾗ","pref":"熊本県","city":"山鹿市","address":"菊鹿町相良"},
{"zip_code":"8610421","kana_pref":"ｸﾏﾓﾄｹﾝ","kana_city":"ﾔﾏｶﾞｼ","kana_address":"ｷｸｶﾏﾁｱｻｺﾞ","pref":"熊本県","city":"山鹿市","address":"菊鹿町阿佐古"},
{"zip_code":"8610423","kana_pref":"ｸﾏﾓﾄｹﾝ","kana_city":"ﾔﾏｶﾞｼ","kana_address":"ｷｸｶﾏﾁｲｹﾅｶﾞ","pref":"熊本県","city":"山鹿市","address":"菊鹿町池永"},
{"zip_code":"8610402","kana_pref":"ｸﾏﾓﾄｹﾝ","kana_city":"ﾔﾏｶﾞｼ","kana_address":"ｷｸｶﾏﾁｵｵﾀﾞ","pref":"熊本県","city":"山鹿市","address":"菊鹿町太田"},
{"zip_code":"8610414","kana_pref":"ｸﾏﾓﾄｹﾝ","kana_city":"ﾔﾏｶﾞｼ","kana_address":"ｷｸｶﾏﾁｶﾐｳﾁﾀﾞ","pref":"熊本県","city":"山鹿市","address":"菊鹿町上内田"},
{"zip_code":"8610404","kana_pref":"ｸﾏﾓﾄｹﾝ","kana_city":"ﾔﾏｶﾞｼ","kana_address":"ｷｸｶﾏﾁｶﾐﾅｶﾞﾉ","pref":"熊本県","city":"山鹿市","address":"菊鹿町上永野"},
{"zip_code":"8610426","kana_pref":"ｸﾏﾓﾄｹﾝ","kana_city":"ﾔﾏｶﾞｼ","kana_address":"ｷｸｶﾏﾁｷﾉ","pref":"熊本県","city":"山鹿市","address":"菊鹿町木野"},
{"zip_code":"8610403","kana_pref":"ｸﾏﾓﾄｹﾝ","kana_city":"ﾔﾏｶﾞｼ","kana_address":"ｷｸｶﾏﾁｺﾞﾛｳﾏﾙ","pref":"熊本県","city":"山鹿市","address":"菊鹿町五郎丸"},
{"zip_code":"8610406","kana_pref":"ｸﾏﾓﾄｹﾝ","kana_city":"ﾔﾏｶﾞｼ","kana_address":"ｷｸｶﾏﾁｼﾓｳﾁﾀﾞ","pref":"熊本県","city":"山鹿市","address":"菊鹿町下内田"},
{"zip_code":"8610405","kana_pref":"ｸﾏﾓﾄｹﾝ","kana_city":"ﾔﾏｶﾞｼ","kana_address":"ｷｸｶﾏﾁｼﾓﾅｶﾞﾉ","pref":"熊本県","city":"山鹿市","address":"菊鹿町下永野"},
{"zip_code":"8610401","kana_pref":"ｸﾏﾓﾄｹﾝ","kana_city":"ﾔﾏｶﾞｼ","kana_address":"ｷｸｶﾏﾁﾅｶﾞ","pref":"熊本県","city":"山鹿市","address":"菊鹿町長"},
{"zip_code":"8610424","kana_pref":"ｸﾏﾓﾄｹﾝ","kana_city":"ﾔﾏｶﾞｼ","kana_address":"ｷｸｶﾏﾁﾏﾂｵ","pref":"熊本県","city":"山鹿市","address":"菊鹿町松尾"},
{"zip_code":"8610422","kana_pref":"ｸﾏﾓﾄｹﾝ","kana_city":"ﾔﾏｶﾞｼ","kana_address":"ｷｸｶﾏﾁﾐﾔﾉﾊﾙ","pref":"熊本県","city":"山鹿市","address":"菊鹿町宮原"},
{"zip_code":"8610413","kana_pref":"ｸﾏﾓﾄｹﾝ","kana_city":"ﾔﾏｶﾞｼ","kana_address":"ｷｸｶﾏﾁﾔﾀﾆ","pref":"熊本県","city":"山鹿市","address":"菊鹿町矢谷"},
{"zip_code":"8610411","kana_pref":"ｸﾏﾓﾄｹﾝ","kana_city":"ﾔﾏｶﾞｼ","kana_address":"ｷｸｶﾏﾁﾔﾏｳﾁ","pref":"熊本県","city":"山鹿市","address":"菊鹿町山内"},
{"zip_code":"8610425","kana_pref":"ｸﾏﾓﾄｹﾝ","kana_city":"ﾔﾏｶﾞｼ","kana_address":"ｷｸｶﾏﾁﾖﾅﾊﾞﾙ","pref":"熊本県","city":"山鹿市","address":"菊鹿町米原"},
{"zip_code":"8610522","kana_pref":"ｸﾏﾓﾄｹﾝ","kana_city":"ﾔﾏｶﾞｼ","kana_address":"ｸﾊﾞﾙ","pref":"熊本県","city":"山鹿市","address":"久原"},
{"zip_code":"8610511","kana_pref":"ｸﾏﾓﾄｹﾝ","kana_city":"ﾔﾏｶﾞｼ","kana_address":"ｸﾏｲﾘﾏﾁ","pref":"熊本県","city":"山鹿市","address":"熊入町"},
{"zip_code":"8610533","kana_pref":"ｸﾏﾓﾄｹﾝ","kana_city":"ﾔﾏｶﾞｼ","kana_address":"ｺｶﾞ","pref":"熊本県","city":"山鹿市","address":"古閑"},
{"zip_code":"8610546","kana_pref":"ｸﾏﾓﾄｹﾝ","kana_city":"ﾔﾏｶﾞｼ","kana_address":"ｻｶﾀﾞ","pref":"熊本県","city":"山鹿市","address":"坂田"},
{"zip_code":"8610542","kana_pref":"ｸﾏﾓﾄｹﾝ","kana_city":"ﾔﾏｶﾞｼ","kana_address":"ｼｼﾞｷ","pref":"熊本県","city":"山鹿市","address":"志々岐"},
{"zip_code":"8610526","kana_pref":"ｸﾏﾓﾄｹﾝ","kana_city":"ﾔﾏｶﾞｼ","kana_address":"ｼﾓﾖｼﾀﾞ","pref":"熊本県","city":"山鹿市","address":"下吉田"},
{"zip_code":"8610554","kana_pref":"ｸﾏﾓﾄｹﾝ","kana_city":"ﾔﾏｶﾞｼ","kana_address":"ｼﾞｮｳ","pref":"熊本県","city":"山鹿市","address":"城"},
{"zip_code":"8610515","kana_pref":"ｸﾏﾓﾄｹﾝ","kana_city":"ﾔﾏｶﾞｼ","kana_address":"ｼｮｳﾜﾏﾁ","pref":"熊本県","city":"山鹿市","address":"昭和町"},
{"zip_code":"8610514","kana_pref":"ｸﾏﾓﾄｹﾝ","kana_city":"ﾔﾏｶﾞｼ","kana_address":"ｼﾝﾏﾁ","pref":"熊本県","city":"山鹿市","address":"新町"},
{"zip_code":"8610552","kana_pref":"ｸﾏﾓﾄｹﾝ","kana_city":"ﾔﾏｶﾞｼ","kana_address":"ｽｷﾞ","pref":"熊本県","city":"山鹿市","address":"杉"},
{"zip_code":"8610516","kana_pref":"ｸﾏﾓﾄｹﾝ","kana_city":"ﾔﾏｶﾞｼ","kana_address":"ﾁｭｳｵｳﾄﾞｵﾘ","pref":"熊本県","city":"山鹿市","address":"中央通"},
{"zip_code":"8610548","kana_pref":"ｸﾏﾓﾄｹﾝ","kana_city":"ﾔﾏｶﾞｼ","kana_address":"ﾂﾊﾞｲ","pref":"熊本県","city":"山鹿市","address":"椿井"},
{"zip_code":"8610551","kana_pref":"ｸﾏﾓﾄｹﾝ","kana_city":"ﾔﾏｶﾞｼ","kana_address":"ﾂﾙ","pref":"熊本県","city":"山鹿市","address":"津留"},
{"zip_code":"8610527","kana_pref":"ｸﾏﾓﾄｹﾝ","kana_city":"ﾔﾏｶﾞｼ","kana_address":"ﾃﾗｼﾞﾏ","pref":"熊本県","city":"山鹿市","address":"寺島"},
{"zip_code":"8610531","kana_pref":"ｸﾏﾓﾄｹﾝ","kana_city":"ﾔﾏｶﾞｼ","kana_address":"ﾅｶ","pref":"熊本県","city":"山鹿市","address":"中"},
{"zip_code":"8610534","kana_pref":"ｸﾏﾓﾄｹﾝ","kana_city":"ﾔﾏｶﾞｼ","kana_address":"ﾅｶﾞｻｶ","pref":"熊本県","city":"山鹿市","address":"長坂"},
{"zip_code":"8610525","kana_pref":"ｸﾏﾓﾄｹﾝ","kana_city":"ﾔﾏｶﾞｼ","kana_address":"ﾅﾂﾞｶ","pref":"熊本県","city":"山鹿市","address":"名塚"},
{"zip_code":"8610541","kana_pref":"ｸﾏﾓﾄｹﾝ","kana_city":"ﾔﾏｶﾞｼ","kana_address":"ﾅﾍﾞﾀ","pref":"熊本県","city":"山鹿市","address":"鍋田"},
{"zip_code":"8610545","kana_pref":"ｸﾏﾓﾄｹﾝ","kana_city":"ﾔﾏｶﾞｼ","kana_address":"ﾆｼﾏｷ","pref":"熊本県","city":"山鹿市","address":"西牧"},
{"zip_code":"8610556","kana_pref":"ｸﾏﾓﾄｹﾝ","kana_city":"ﾔﾏｶﾞｼ","kana_address":"ﾋﾗﾔﾏ","pref":"熊本県","city":"山鹿市","address":"平山"},
{"zip_code":"8610381","kana_pref":"ｸﾏﾓﾄｹﾝ","kana_city":"ﾔﾏｶﾞｼ","kana_address":"ﾌｼﾞｲ","pref":"熊本県","city":"山鹿市","address":"藤井"},
{"zip_code":"8610544","kana_pref":"ｸﾏﾓﾄｹﾝ","kana_city":"ﾔﾏｶﾞｼ","kana_address":"ﾎﾀﾞﾀ","pref":"熊本県","city":"山鹿市","address":"保多田"},
{"zip_code":"8610535","kana_pref":"ｸﾏﾓﾄｹﾝ","kana_city":"ﾔﾏｶﾞｼ","kana_address":"ﾐﾅﾐｼﾞﾏ","pref":"熊本県","city":"山鹿市","address":"南島"},
{"zip_code":"8610513","kana_pref":"ｸﾏﾓﾄｹﾝ","kana_city":"ﾔﾏｶﾞｼ","kana_address":"ﾑﾅｶﾀ","pref":"熊本県","city":"山鹿市","address":"宗方"},
{"zip_code":"8610518","kana_pref":"ｸﾏﾓﾄｹﾝ","kana_city":"ﾔﾏｶﾞｼ","kana_address":"ﾑﾅｶﾀﾄﾞｵﾘ","pref":"熊本県","city":"山鹿市","address":"宗方通"},
{"zip_code":"8610501","kana_pref":"ｸﾏﾓﾄｹﾝ","kana_city":"ﾔﾏｶﾞｼ","kana_address":"ﾔﾏｶﾞ","pref":"熊本県","city":"山鹿市","address":"山鹿"},
{"zip_code":"8611300","kana_pref":"ｸﾏﾓﾄｹﾝ","kana_city":"ｷｸﾁｼ","kana_address":"","pref":"熊本県","city":"菊池市","address":""},
{"zip_code":"8611311","kana_pref":"ｸﾏﾓﾄｹﾝ","kana_city":"ｷｸﾁｼ","kana_address":"ｱｶﾎｼ","pref":"熊本県","city":"菊池市","address":"赤星"},
{"zip_code":"8611686","kana_pref":"ｸﾏﾓﾄｹﾝ","kana_city":"ｷｸﾁｼ","kana_address":"ｲﾁﾉｾ","pref":"熊本県","city":"菊池市","address":"市野瀬"},
{"zip_code":"8611313","kana_pref":"ｸﾏﾓﾄｹﾝ","kana_city":"ｷｸﾁｼ","kana_address":"ｲﾃﾞﾀ","pref":"熊本県","city":"菊池市","address":"出田"},
{"zip_code":"8611303","kana_pref":"ｸﾏﾓﾄｹﾝ","kana_city":"ｷｸﾁｼ","kana_address":"ｲﾏ","pref":"熊本県","city":"菊池市","address":"今"},
{"zip_code":"8611683","kana_pref":"ｸﾏﾓﾄｹﾝ","kana_city":"ｷｸﾁｼ","kana_address":"ｵｵﾋﾗ","pref":"熊本県","city":"菊池市","address":"大平"},
{"zip_code":"8611673","kana_pref":"ｸﾏﾓﾄｹﾝ","kana_city":"ｷｸﾁｼ","kana_address":"ｵｷﾞ","pref":"熊本県","city":"菊池市","address":"小木"},
{"zip_code":"8611307","kana_pref":"ｸﾏﾓﾄｹﾝ","kana_city":"ｷｸﾁｼ","kana_address":"ｶﾀｶｸ","pref":"熊本県","city":"菊池市","address":"片角"},
{"zip_code":"8611315","kana_pref":"ｸﾏﾓﾄｹﾝ","kana_city":"ｷｸﾁｼ","kana_address":"ｷｺｳｼﾞ","pref":"熊本県","city":"菊池市","address":"木柑子"},
{"zip_code":"8611305","kana_pref":"ｸﾏﾓﾄｹﾝ","kana_city":"ｷｸﾁｼ","kana_address":"ｷﾀﾐﾔ","pref":"熊本県","city":"菊池市","address":"北宮"},
{"zip_code":"8611326","kana_pref":"ｸﾏﾓﾄｹﾝ","kana_city":"ｷｸﾁｼ","kana_address":"ｷﾉ","pref":"熊本県","city":"菊池市","address":"木野"},
{"zip_code":"8611322","kana_pref":"ｸﾏﾓﾄｹﾝ","kana_city":"ｷｸﾁｼ","kana_address":"ｷﾞｮｸｼｮｳｼﾞ","pref":"熊本県","city":"菊池市","address":"玉祥寺"},
{"zip_code":"8611325","kana_pref":"ｸﾏﾓﾄｹﾝ","kana_city":"ｷｸﾁｼ","kana_address":"ｹｻｵ","pref":"熊本県","city":"菊池市","address":"袈裟尾"},
{"zip_code":"8611301","kana_pref":"ｸﾏﾓﾄｹﾝ","kana_city":"ｷｸﾁｼ","kana_address":"ｺﾊﾞ","pref":"熊本県","city":"菊池市","address":"木庭"},
{"zip_code":"8611682","kana_pref":"ｸﾏﾓﾄｹﾝ","kana_city":"ｷｸﾁｼ","kana_address":"ｼｹﾞﾐ","pref":"熊本県","city":"菊池市","address":"重味"},
{"zip_code":"8611211","kana_pref":"ｸﾏﾓﾄｹﾝ","kana_city":"ｷｸﾁｼ","kana_address":"ｼｽｲﾏﾁｶﾒｵ","pref":"熊本県","city":"菊池市","address":"泗水町亀尾"},
{"zip_code":"8611203","kana_pref":"ｸﾏﾓﾄｹﾝ","kana_city":"ｷｸﾁｼ","kana_address":"ｼｽｲﾏﾁｽﾐﾖｼ","pref":"熊本県","city":"菊池市","address":"泗水町住吉"},
{"zip_code":"8611214","kana_pref":"ｸﾏﾓﾄｹﾝ","kana_city":"ｷｸﾁｼ","kana_address":"ｼｽｲﾏﾁﾀｼﾏ","pref":"熊本県","city":"菊池市","address":"泗水町田島"},
{"zip_code":"8611202","kana_pref":"ｸﾏﾓﾄｹﾝ","kana_city":"ｷｸﾁｼ","kana_address":"ｼｽｲﾏﾁﾄﾐﾉｳ","pref":"熊本県","city":"菊池市","address":"泗水町富納"},
{"zip_code":"8611212","kana_pref":"ｸﾏﾓﾄｹﾝ","kana_city":"ｷｸﾁｼ","kana_address":"ｼｽｲﾏﾁﾄﾖﾐｽﾞ","pref":"熊本県","city":"菊池市","address":"泗水町豊水"},
{"zip_code":"8611204","kana_pref":"ｸﾏﾓﾄｹﾝ","kana_city":"ｷｸﾁｼ","kana_address":"ｼｽｲﾏﾁﾅｶﾞ","pref":"熊本県","city":"菊池市","address":"泗水町永"},
{"zip_code":"8611205","kana_pref":"ｸﾏﾓﾄｹﾝ","kana_city":"ｷｸﾁｼ","kana_address":"ｼｽｲﾏﾁﾌｸﾓﾄ","pref":"熊本県","city":"菊池市","address":"泗水町福本"},
{"zip_code":"8611213","kana_pref":"ｸﾏﾓﾄｹﾝ","kana_city":"ｷｸﾁｼ","kana_address":"ｼｽｲﾏﾁﾐﾅﾐﾀｼﾏ","pref":"熊本県","city":"菊池市","address":"泗水町南田島"},
{"zip_code":"8611201","kana_pref":"ｸﾏﾓﾄｹﾝ","kana_city":"ｷｸﾁｼ","kana_address":"ｼｽｲﾏﾁﾖｼﾄﾐ","pref":"熊本県","city":"菊池市","address":"泗水町吉富"},
{"zip_code":"8611363","kana_pref":"ｸﾏﾓﾄｹﾝ","kana_city":"ｷｸﾁｼ","kana_address":"ｼﾁｼﾞｮｳﾏﾁｱﾗﾏｷ","pref":"熊本県","city":"菊池市","address":"七城町荒牧"},
{"zip_code":"8611365","kana_pref":"ｸﾏﾓﾄｹﾝ","kana_city":"ｷｸﾁｼ","kana_address":"ｼﾁｼﾞｮｳﾏﾁｳﾃﾅ","pref":"熊本県","city":"菊池市","address":"七城町台"},
{"zip_code":"8611368","kana_pref":"ｸﾏﾓﾄｹﾝ","kana_city":"ｷｸﾁｼ","kana_address":"ｼﾁｼﾞｮｳﾏﾁｵｶﾀﾞ","pref":"熊本県","city":"菊池市","address":"七城町岡田"},
{"zip_code":"8611345","kana_pref":"ｸﾏﾓﾄｹﾝ","kana_city":"ｷｸﾁｼ","kana_address":"ｼﾁｼﾞｮｳﾏﾁｵﾉｻﾞｷ","pref":"熊本県","city":"菊池市","address":"七城町小野崎"},
{"zip_code":"8611356","kana_pref":"ｸﾏﾓﾄｹﾝ","kana_city":"ｷｸﾁｼ","kana_address":"ｼﾁｼﾞｮｳﾏﾁｶｴ","pref":"熊本県","city":"菊池市","address":"七城町加恵"},
{"zip_code":"8611342","kana_pref":"ｸﾏﾓﾄｹﾝ","kana_city":"ｷｸﾁｼ","kana_address":"ｼﾁｼﾞｮｳﾏﾁｶﾒｵ","pref":"熊本県","city":"菊池市","address":"七城町亀尾"},
{"zip_code":"8611341","kana_pref":"ｸﾏﾓﾄｹﾝ","kana_city":"ｷｸﾁｼ","kana_address":"ｼﾁｼﾞｮｳﾏﾁｷﾖﾐｽﾞ","pref":"熊本県","city":"菊池市","address":"七城町清水"},
{"zip_code":"8611353","kana_pref":"ｸﾏﾓﾄｹﾝ","kana_city":"ｷｸﾁｼ","kana_address":"ｼﾁｼﾞｮｳﾏﾁｺｳｻﾏﾁ","pref":"熊本県","city":"菊池市","address":"七城町甲佐町"},
{"zip_code":"8611354","kana_pref":"ｸﾏﾓﾄｹﾝ","kana_city":"ｷｸﾁｼ","kana_address":"ｼﾁｼﾞｮｳﾏﾁｺﾓｲﾘ","pref":"熊本県","city":"菊池市","address":"七城町菰入"},
{"zip_code":"8611352","kana_pref":"ｸﾏﾓﾄｹﾝ","kana_city":"ｷｸﾁｼ","kana_address":"ｼﾁｼﾞｮｳﾏﾁｼﾝｺｶﾞ","pref":"熊本県","city":"菊池市","address":"七城町新古閑"},
{"zip_code":"8611351","kana_pref":"ｸﾏﾓﾄｹﾝ","kana_city":"ｷｸﾁｼ","kana_address":"ｼﾁｼﾞｮｳﾏﾁｽﾅﾀﾞ","pref":"熊本県","city":"菊池市","address":"七城町砂田"},
{"zip_code":"8611366","kana_pref":"ｸﾏﾓﾄｹﾝ","kana_city":"ｷｸﾁｼ","kana_address":"ｼﾁｼﾞｮｳﾏﾁｾﾄｸﾞﾁ","pref":"熊本県","city":"菊池市","address":"七城町瀬戸口"},
{"zip_code":"8611344","kana_pref":"ｸﾏﾓﾄｹﾝ","kana_city":"ｷｸﾁｼ","kana_address":"ｼﾁｼﾞｮｳﾏﾁｿｻｷ","pref":"熊本県","city":"菊池市","address":"七城町蘇崎"},
{"zip_code":"8611355","kana_pref":"ｸﾏﾓﾄｹﾝ","kana_city":"ｷｸﾁｼ","kana_address":"ｼﾁｼﾞｮｳﾏﾁﾀｶｼﾞﾏ","pref":"熊本県","city":"菊池市","address":"七城町高島"},
{"zip_code":"8611357","kana_pref":"ｸﾏﾓﾄｹﾝ","kana_city":"ｷｸﾁｼ","kana_address":"ｼﾁｼﾞｮｳﾏﾁﾀｶﾀ","pref":"熊本県","city":"菊池市","address":"七城町高田"},
{"zip_code":"8611367","kana_pref":"ｸﾏﾓﾄｹﾝ","kana_city":"ｷｸﾁｼ","kana_address":"ｼﾁｼﾞｮｳﾏﾁﾅｶﾞﾚｶﾜ","pref":"熊本県","city":"菊池市","address":"七城町流川"},
{"zip_code":"8611346","kana_pref":"ｸﾏﾓﾄｹﾝ","kana_city":"ｷｸﾁｼ","kana_address":"ｼﾁｼﾞｮｳﾏﾁﾊｼﾀ","pref":"熊本県","city":"菊池市","address":"七城町橋田"},
{"zip_code":"8611343","kana_pref":"ｸﾏﾓﾄｹﾝ","kana_city":"ｷｸﾁｼ","kana_address":"ｼﾁｼﾞｮｳﾏﾁﾊﾔｼﾊﾞﾙ","pref":"熊本県","city":"菊池市","address":"七城町林原"},
{"zip_code":"8611364","kana_pref":"ｸﾏﾓﾄｹﾝ","kana_city":"ｷｸﾁｼ","kana_address":"ｼﾁｼﾞｮｳﾏﾁﾍﾀ","pref":"熊本県","city":"菊池市","address":"七城町辺田"},
{"zip_code":"8611361","kana_pref":"ｸﾏﾓﾄｹﾝ","kana_city":"ｷｸﾁｼ","kana_address":"ｼﾁｼﾞｮｳﾏﾁﾐﾂｷﾞ","pref":"熊本県","city":"菊池市","address":"七城町水次"},
{"zip_code":"8611362","kana_pref":"ｸﾏﾓﾄｹﾝ","kana_city":"ｷｸﾁｼ","kana_address":"ｼﾁｼﾞｮｳﾏﾁﾔﾏｻｷ","pref":"熊本県","city":"菊池市","address":"七城町山崎"},
{"zip_code":"8611442","kana_pref":"ｸﾏﾓﾄｹﾝ","kana_city":"ｷｸﾁｼ","kana_address":"ｼﾁｮｳﾌﾞﾝ","pref":"熊本県","city":"菊池市","address":"四町分"},
{"zip_code":"8611302","kana_pref":"ｸﾏﾓﾄｹﾝ","kana_city":"ｷｸﾁｼ","kana_address":"ｼﾓｶﾜﾊﾙ","pref":"熊本県","city":"菊池市","address":"下河原"},
{"zip_code":"8611306","kana_pref":"ｸﾏﾓﾄｹﾝ","kana_city":"ｷｸﾁｼ","kana_address":"ﾀﾞｲﾘﾝｼﾞ","pref":"熊本県","city":"菊池市","address":"大琳寺"},
{"zip_code":"8611684","kana_pref":"ｸﾏﾓﾄｹﾝ","kana_city":"ｷｸﾁｼ","kana_address":"ﾄﾖﾏ","pref":"熊本県","city":"菊池市","address":"豊間"},
{"zip_code":"8611316","kana_pref":"ｸﾏﾓﾄｹﾝ","kana_city":"ｷｸﾁｼ","kana_address":"ﾅｶﾞﾀ","pref":"熊本県","city":"菊池市","address":"長田"},
{"zip_code":"8611323","kana_pref":"ｸﾏﾓﾄｹﾝ","kana_city":"ｷｸﾁｼ","kana_address":"ﾆｼﾃﾞﾗ","pref":"熊本県","city":"菊池市","address":"西寺"},
{"zip_code":"8611685","kana_pref":"ｸﾏﾓﾄｹﾝ","kana_city":"ｷｸﾁｼ","kana_address":"ﾆｼﾊｻﾞﾏ","pref":"熊本県","city":"菊池市","address":"西迫間"},
{"zip_code":"8611324","kana_pref":"ｸﾏﾓﾄｹﾝ","kana_city":"ｷｸﾁｼ","kana_address":"ﾉﾏｸﾞﾁ","pref":"熊本県","city":"菊池市","address":"野間口"},
{"zip_code":"8611441","kana_pref":"ｸﾏﾓﾄｹﾝ","kana_city":"ｷｸﾁｼ","kana_address":"ﾊﾙ","pref":"熊本県","city":"菊池市","address":"原"},
{"zip_code":"8611671","kana_pref":"ｸﾏﾓﾄｹﾝ","kana_city":"ｷｸﾁｼ","kana_address":"ﾊﾝｼﾞｬｸ","pref":"熊本県","city":"菊池市","address":"班蛇口"},
{"zip_code":"8611321","kana_pref":"ｸﾏﾓﾄｹﾝ","kana_city":"ｷｸﾁｼ","kana_address":"ﾋｴｶﾞﾀ","pref":"熊本県","city":"菊池市","address":"稗方"},
{"zip_code":"8611314","kana_pref":"ｸﾏﾓﾄｹﾝ","kana_city":"ｷｸﾁｼ","kana_address":"ﾋﾛｾ","pref":"熊本県","city":"菊池市","address":"広瀬"},
{"zip_code":"8611304","kana_pref":"ｸﾏﾓﾄｹﾝ","kana_city":"ｷｸﾁｼ","kana_address":"ﾌｶｶﾞﾜ","pref":"熊本県","city":"菊池市","address":"深川"},
{"zip_code":"8611309","kana_pref":"ｸﾏﾓﾄｹﾝ","kana_city":"ｷｸﾁｼ","kana_address":"ﾌｼﾞﾀ","pref":"熊本県","city":"菊池市","address":"藤田"},
{"zip_code":"8611317","kana_pref":"ｸﾏﾓﾄｹﾝ","kana_city":"ｷｸﾁｼ","kana_address":"ﾑﾗﾀﾞ","pref":"熊本県","city":"菊池市","address":"村田"},
{"zip_code":"8611312","kana_pref":"ｸﾏﾓﾄｹﾝ","kana_city":"ｷｸﾁｼ","kana_address":"ﾓﾘｷﾀ","pref":"熊本県","city":"菊池市","address":"森北"},
{"zip_code":"8611681","kana_pref":"ｸﾏﾓﾄｹﾝ","kana_city":"ｷｸﾁｼ","kana_address":"ﾕｷﾉ","pref":"熊本県","city":"菊池市","address":"雪野"},
{"zip_code":"8611672","kana_pref":"ｸﾏﾓﾄｹﾝ","kana_city":"ｷｸﾁｼ","kana_address":"ﾘｭｳﾓﾝ","pref":"熊本県","city":"菊池市","address":"龍門"},
{"zip_code":"8611331","kana_pref":"ｸﾏﾓﾄｹﾝ","kana_city":"ｷｸﾁｼ","kana_address":"ﾜｲﾌ","pref":"熊本県","city":"菊池市","address":"隈府"},
{"zip_code":"8611308","kana_pref":"ｸﾏﾓﾄｹﾝ","kana_city":"ｷｸﾁｼ","kana_address":"ﾜﾀﾙ","pref":"熊本県","city":"菊池市","address":"亘"},
{"zip_code":"8616102","kana_pref":"ｸﾏﾓﾄｹﾝ","kana_city":"ｶﾐｱﾏｸｻｼ","kana_address":"ﾏﾂｼﾏﾏﾁｱｲﾂ","pref":"熊本県","city":"上天草市","address":"松島町合津"},
{"zip_code":"8616101","kana_pref":"ｸﾏﾓﾄｹﾝ","kana_city":"ｶﾐｱﾏｸｻｼ","kana_address":"ﾏﾂｼﾏﾏﾁｱﾑﾗ","pref":"熊本県","city":"上天草市","address":"松島町阿村"},
{"zip_code":"8616103","kana_pref":"ｸﾏﾓﾄｹﾝ","kana_city":"ｶﾐｱﾏｸｻｼ","kana_address":"ﾏﾂｼﾏﾏﾁｲﾏｲｽﾞﾐ","pref":"熊本県","city":"上天草市","address":"松島町今泉"},
{"zip_code":"8616104","kana_pref":"ｸﾏﾓﾄｹﾝ","kana_city":"ｶﾐｱﾏｸｻｼ","kana_address":"ﾏﾂｼﾏﾏﾁｳﾁﾉｶﾜｳﾁ","pref":"熊本県","city":"上天草市","address":"松島町内野河内"},
{"zip_code":"8616105","kana_pref":"ｸﾏﾓﾄｹﾝ","kana_city":"ｶﾐｱﾏｸｻｼ","kana_address":"ﾏﾂｼﾏﾏﾁｷｮｳﾗｷﾞ","pref":"熊本県","city":"上天草市","address":"松島町教良木"},
{"zip_code":"8614301","kana_pref":"ｸﾏﾓﾄｹﾝ","kana_city":"ｳｷｼ","kana_address":"ﾄﾖﾉﾏﾁｲﾄｲｼ","pref":"熊本県","city":"宇城市","address":"豊野町糸石"},
{"zip_code":"8614303","kana_pref":"ｸﾏﾓﾄｹﾝ","kana_city":"ｳｷｼ","kana_address":"ﾄﾖﾉﾏﾁｶﾐｺﾞｳ","pref":"熊本県","city":"宇城市","address":"豊野町上郷"},
{"zip_code":"8614304","kana_pref":"ｸﾏﾓﾄｹﾝ","kana_city":"ｳｷｼ","kana_address":"ﾄﾖﾉﾏﾁｼﾓｺﾞｳ","pref":"熊本県","city":"宇城市","address":"豊野町下郷"},
{"zip_code":"8614307","kana_pref":"ｸﾏﾓﾄｹﾝ","kana_city":"ｳｷｼ","kana_address":"ﾄﾖﾉﾏﾁｽﾊﾞﾔｼ","pref":"熊本県","city":"宇城市","address":"豊野町巣林"},
{"zip_code":"8614302","kana_pref":"ｸﾏﾓﾄｹﾝ","kana_city":"ｳｷｼ","kana_address":"ﾄﾖﾉﾏﾁﾅｶﾏ","pref":"熊本県","city":"宇城市","address":"豊野町中間"},
{"zip_code":"8614306","kana_pref":"ｸﾏﾓﾄｹﾝ","kana_city":"ｳｷｼ","kana_address":"ﾄﾖﾉﾏﾁﾔｽﾐ","pref":"熊本県","city":"宇城市","address":"豊野町安見"},
{"zip_code":"8614305","kana_pref":"ｸﾏﾓﾄｹﾝ","kana_city":"ｳｷｼ","kana_address":"ﾄﾖﾉﾏﾁﾔﾏｻｷ","pref":"熊本県","city":"宇城市","address":"豊野町山崎"},
{"zip_code":"8617201","kana_pref":"ｸﾏﾓﾄｹﾝ","kana_city":"ｱﾏｸｻｼ","kana_address":"ｱﾘｱｹﾏﾁｱｶｻｷ","pref":"熊本県","city":"天草市","address":"有明町赤崎"},
{"zip_code":"8617203","kana_pref":"ｸﾏﾓﾄｹﾝ","kana_city":"ｱﾏｸｻｼ","kana_address":"ｱﾘｱｹﾏﾁｵｵｳﾗ","pref":"熊本県","city":"天草市","address":"有明町大浦"},
{"zip_code":"8617314","kana_pref":"ｸﾏﾓﾄｹﾝ","kana_city":"ｱﾏｸｻｼ","kana_address":"ｱﾘｱｹﾏﾁｵｵｼﾏｺﾞ","pref":"熊本県","city":"天草市","address":"有明町大島子"},
{"zip_code":"8617204","kana_pref":"ｸﾏﾓﾄｹﾝ","kana_city":"ｱﾏｸｻｼ","kana_address":"ｱﾘｱｹﾏﾁｸｽﾎﾞ","pref":"熊本県","city":"天草市","address":"有明町楠甫"},
{"zip_code":"8617311","kana_pref":"ｸﾏﾓﾄｹﾝ","kana_city":"ｱﾏｸｻｼ","kana_address":"ｱﾘｱｹﾏﾁｺｳﾂｳﾗ","pref":"熊本県","city":"天草市","address":"有明町上津浦"},
{"zip_code":"8617313","kana_pref":"ｸﾏﾓﾄｹﾝ","kana_city":"ｱﾏｸｻｼ","kana_address":"ｱﾘｱｹﾏﾁｺｼﾏｺﾞ","pref":"熊本県","city":"天草市","address":"有明町小島子"},
{"zip_code":"8617312","kana_pref":"ｸﾏﾓﾄｹﾝ","kana_city":"ｱﾏｸｻｼ","kana_address":"ｱﾘｱｹﾏﾁｼﾓﾂｳﾗ","pref":"熊本県","city":"天草市","address":"有明町下津浦"},
{"zip_code":"8617202","kana_pref":"ｸﾏﾓﾄｹﾝ","kana_city":"ｱﾏｸｻｼ","kana_address":"ｱﾘｱｹﾏﾁｽｼﾞ","pref":"熊本県","city":"天草市","address":"有明町須子"},
{"zip_code":"8616401","kana_pref":"ｸﾏﾓﾄｹﾝ","kana_city":"ｱﾏｸｻｼ","kana_address":"ｸﾗﾀｹﾏﾁｳﾗ","pref":"熊本県","city":"天草市","address":"倉岳町浦"},
{"zip_code":"8616402","kana_pref":"ｸﾏﾓﾄｹﾝ","kana_city":"ｱﾏｸｻｼ","kana_address":"ｸﾗﾀｹﾏﾁﾀﾅｿｺ","pref":"熊本県","city":"天草市","address":"倉岳町棚底"},
{"zip_code":"8616403","kana_pref":"ｸﾏﾓﾄｹﾝ","kana_city":"ｱﾏｸｻｼ","kana_address":"ｸﾗﾀｹﾏﾁﾐﾔﾀﾞ","pref":"熊本県","city":"天草市","address":"倉岳町宮田"},
{"zip_code":"8616551","kana_pref":"ｸﾏﾓﾄｹﾝ","kana_city":"ｱﾏｸｻｼ","kana_address":"ｼﾓｳﾗﾏﾁ","pref":"熊本県","city":"天草市","address":"下浦町"},
{"zip_code":"8616301","kana_pref":"ｸﾏﾓﾄｹﾝ","kana_city":"ｱﾏｸｻｼ","kana_address":"ｽﾓﾄﾏﾁｳﾁﾀﾞ","pref":"熊本県","city":"天草市","address":"栖本町打田"},
{"zip_code":"8616302","kana_pref":"ｸﾏﾓﾄｹﾝ","kana_city":"ｱﾏｸｻｼ","kana_address":"ｽﾓﾄﾏﾁｶﾜﾁ","pref":"熊本県","city":"天草市","address":"栖本町河内"},
{"zip_code":"8616303","kana_pref":"ｸﾏﾓﾄｹﾝ","kana_city":"ｱﾏｸｻｼ","kana_address":"ｽﾓﾄﾏﾁﾊﾞﾊﾞ","pref":"熊本県","city":"天草市","address":"栖本町馬場"},
{"zip_code":"8616304","kana_pref":"ｸﾏﾓﾄｹﾝ","kana_city":"ｱﾏｸｻｼ","kana_address":"ｽﾓﾄﾏﾁﾌﾙｴ","pref":"熊本県","city":"天草市","address":"栖本町古江"},
{"zip_code":"8616305","kana_pref":"ｸﾏﾓﾄｹﾝ","kana_city":"ｱﾏｸｻｼ","kana_address":"ｽﾓﾄﾏﾁﾕﾌﾈﾊﾗ","pref":"熊本県","city":"天草市","address":"栖本町湯船原"},
{"zip_code":"8611100","kana_pref":"ｸﾏﾓﾄｹﾝ","kana_city":"ｺｳｼｼ","kana_address":"","pref":"熊本県","city":"合志市","address":""},
{"zip_code":"8611101","kana_pref":"ｸﾏﾓﾄｹﾝ","kana_city":"ｺｳｼｼ","kana_address":"ｱｲｵｲ","pref":"熊本県","city":"合志市","address":"合生"},
{"zip_code":"8611111","kana_pref":"ｸﾏﾓﾄｹﾝ","kana_city":"ｺｳｼｼ","kana_address":"ｶﾐﾉｼｮｳ","pref":"熊本県","city":"合志市","address":"上庄"},
{"zip_code":"8611112","kana_pref":"ｸﾏﾓﾄｹﾝ","kana_city":"ｺｳｼｼ","kana_address":"ｷｸﾄﾞﾐ","pref":"熊本県","city":"合志市","address":"幾久富"},
{"zip_code":"8611113","kana_pref":"ｸﾏﾓﾄｹﾝ","kana_city":"ｺｳｼｼ","kana_address":"ｻｶｴ","pref":"熊本県","city":"合志市","address":"栄"},
{"zip_code":"8611102","kana_pref":"ｸﾏﾓﾄｹﾝ","kana_city":"ｺｳｼｼ","kana_address":"ｽﾔ","pref":"熊本県","city":"合志市","address":"須屋"},
{"zip_code":"8611114","kana_pref":"ｸﾏﾓﾄｹﾝ","kana_city":"ｺｳｼｼ","kana_address":"ﾀｶﾊﾞ","pref":"熊本県","city":"合志市","address":"竹迫"},
{"zip_code":"8611115","kana_pref":"ｸﾏﾓﾄｹﾝ","kana_city":"ｺｳｼｼ","kana_address":"ﾄﾖｵｶ","pref":"熊本県","city":"合志市","address":"豊岡"},
{"zip_code":"8611103","kana_pref":"ｸﾏﾓﾄｹﾝ","kana_city":"ｺｳｼｼ","kana_address":"ﾉﾉｼﾏ","pref":"熊本県","city":"合志市","address":"野々島"},
{"zip_code":"8611116","kana_pref":"ｸﾏﾓﾄｹﾝ","kana_city":"ｺｳｼｼ","kana_address":"ﾌｸﾊﾗ","pref":"熊本県","city":"合志市","address":"福原"},
{"zip_code":"8611104","kana_pref":"ｸﾏﾓﾄｹﾝ","kana_city":"ｺｳｼｼ","kana_address":"ﾐﾖｼ","pref":"熊本県","city":"合志市","address":"御代志"},
{"zip_code":"8611105","kana_pref":"ｸﾏﾓﾄｹﾝ","kana_city":"ｺｳｼｼ","kana_address":"ﾜﾌﾞ","pref":"熊本県","city":"合志市","address":"上生"},
{"zip_code":"8614700","kana_pref":"ｸﾏﾓﾄｹﾝ","kana_city":"ｼﾓﾏｼｷｸﾞﾝﾐｻﾄﾏﾁ","kana_address":"","pref":"熊本県","city":"下益城郡美里町","address":""},
{"zip_code":"8614714","kana_pref":"ｸﾏﾓﾄｹﾝ","kana_city":"ｼﾓﾏｼｷｸﾞﾝﾐｻﾄﾏﾁ","kana_address":"ｱﾍﾞ","pref":"熊本県","city":"下益城郡美里町","address":"安部"},
{"zip_code":"8614716","kana_pref":"ｸﾏﾓﾄｹﾝ","kana_city":"ｼﾓﾏｼｷｸﾞﾝﾐｻﾄﾏﾁ","kana_address":"ｲｼﾉ","pref":"熊本県","city":"下益城郡美里町","address":"石野"},
{"zip_code":"8614734","kana_pref":"ｸﾏﾓﾄｹﾝ","kana_city":"ｼﾓﾏｼｷｸﾞﾝﾐｻﾄﾏﾁ","kana_address":"ｲﾏ","pref":"熊本県","city":"下益城郡美里町","address":"今"},
{"zip_code":"8614404","kana_pref":"ｸﾏﾓﾄｹﾝ","kana_city":"ｼﾓﾏｼｷｸﾞﾝﾐｻﾄﾏﾁ","kana_address":"ｲﾜｼﾀ","pref":"熊本県","city":"下益城郡美里町","address":"岩下"},
{"zip_code":"8614413","kana_pref":"ｸﾏﾓﾄｹﾝ","kana_city":"ｼﾓﾏｼｷｸﾞﾝﾐｻﾄﾏﾁ","kana_address":"ｲﾜﾉ","pref":"熊本県","city":"下益城郡美里町","address":"岩野"},
{"zip_code":"8614703","kana_pref":"ｸﾏﾓﾄｹﾝ","kana_city":"ｼﾓﾏｼｷｸﾞﾝﾐｻﾄﾏﾁ","kana_address":"ｳﾈﾉ","pref":"熊本県","city":"下益城郡美里町","address":"畝野"},
{"zip_code":"8614701","kana_pref":"ｸﾏﾓﾄｹﾝ","kana_city":"ｼﾓﾏｼｷｸﾞﾝﾐｻﾄﾏﾁ","kana_address":"ｵｵｲｿｳ","pref":"熊本県","city":"下益城郡美里町","address":"大井早"},
{"zip_code":"8614726","kana_pref":"ｸﾏﾓﾄｹﾝ","kana_city":"ｼﾓﾏｼｷｸﾞﾝﾐｻﾄﾏﾁ","kana_address":"ｵｵｸﾎﾞ","pref":"熊本県","city":"下益城郡美里町","address":"大窪"},
{"zip_code":"8614401","kana_pref":"ｸﾏﾓﾄｹﾝ","kana_city":"ｼﾓﾏｼｷｸﾞﾝﾐｻﾄﾏﾁ","kana_address":"ｵｵｿｳｽﾞ","pref":"熊本県","city":"下益城郡美里町","address":"大沢水"},
{"zip_code":"8614712","kana_pref":"ｸﾏﾓﾄｹﾝ","kana_city":"ｼﾓﾏｼｷｸﾞﾝﾐｻﾄﾏﾁ","kana_address":"ｶｼﾜｶﾞﾜ","pref":"熊本県","city":"下益城郡美里町","address":"柏川"},
{"zip_code":"8614402","kana_pref":"ｸﾏﾓﾄｹﾝ","kana_city":"ｼﾓﾏｼｷｸﾞﾝﾐｻﾄﾏﾁ","kana_address":"ｶﾀｼﾀﾞ","pref":"熊本県","city":"下益城郡美里町","address":"堅志田"},
{"zip_code":"8614405","kana_pref":"ｸﾏﾓﾄｹﾝ","kana_city":"ｼﾓﾏｼｷｸﾞﾝﾐｻﾄﾏﾁ","kana_address":"ｶﾔﾉ","pref":"熊本県","city":"下益城郡美里町","address":"萱野"},
{"zip_code":"8614707","kana_pref":"ｸﾏﾓﾄｹﾝ","kana_city":"ｼﾓﾏｼｷｸﾞﾝﾐｻﾄﾏﾁ","kana_address":"ｶﾜｺﾞｼ","pref":"熊本県","city":"下益城郡美里町","address":"川越"},
{"zip_code":"8614425","kana_pref":"ｸﾏﾓﾄｹﾝ","kana_city":"ｼﾓﾏｼｷｸﾞﾝﾐｻﾄﾏﾁ","kana_address":"ｷｿｶﾞﾜﾁ","pref":"熊本県","city":"下益城郡美里町","address":"木早川内"},
{"zip_code":"8614715","kana_pref":"ｸﾏﾓﾄｹﾝ","kana_city":"ｼﾓﾏｼｷｸﾞﾝﾐｻﾄﾏﾁ","kana_address":"ｷﾖﾐｽﾞ","pref":"熊本県","city":"下益城郡美里町","address":"清水"},
{"zip_code":"8614731","kana_pref":"ｸﾏﾓﾄｹﾝ","kana_city":"ｼﾓﾏｼｷｸﾞﾝﾐｻﾄﾏﾁ","kana_address":"ｸﾘｻﾞｷ","pref":"熊本県","city":"下益城郡美里町","address":"栗崎"},
{"zip_code":"8614424","kana_pref":"ｸﾏﾓﾄｹﾝ","kana_city":"ｼﾓﾏｼｷｸﾞﾝﾐｻﾄﾏﾁ","kana_address":"ｺｲﾁﾉ","pref":"熊本県","city":"下益城郡美里町","address":"小市野"},
{"zip_code":"8614706","kana_pref":"ｸﾏﾓﾄｹﾝ","kana_city":"ｼﾓﾏｼｷｸﾞﾝﾐｻﾄﾏﾁ","kana_address":"ｺｳｻﾋﾞﾗ","pref":"熊本県","city":"下益城郡美里町","address":"甲佐平"},
{"zip_code":"8614737","kana_pref":"ｸﾏﾓﾄｹﾝ","kana_city":"ｼﾓﾏｼｷｸﾞﾝﾐｻﾄﾏﾁ","kana_address":"ｺｶﾞ","pref":"熊本県","city":"下益城郡美里町","address":"古閑"},
{"zip_code":"8614411","kana_pref":"ｸﾏﾓﾄｹﾝ","kana_city":"ｼﾓﾏｼｷｸﾞﾝﾐｻﾄﾏﾁ","kana_address":"ｺﾑｼﾛ","pref":"熊本県","city":"下益城郡美里町","address":"小筵"},
{"zip_code":"8614723","kana_pref":"ｸﾏﾓﾄｹﾝ","kana_city":"ｼﾓﾏｼｷｸﾞﾝﾐｻﾄﾏﾁ","kana_address":"ｻｶｲ","pref":"熊本県","city":"下益城郡美里町","address":"境"},
{"zip_code":"8614725","kana_pref":"ｸﾏﾓﾄｹﾝ","kana_city":"ｼﾓﾏｼｷｸﾞﾝﾐｻﾄﾏﾁ","kana_address":"ｻｶﾇｷ","pref":"熊本県","city":"下益城郡美里町","address":"坂貫"},
{"zip_code":"8614415","kana_pref":"ｸﾏﾓﾄｹﾝ","kana_city":"ｼﾓﾏｼｷｸﾞﾝﾐｻﾄﾏﾁ","kana_address":"ｻｶﾓﾄ","pref":"熊本県","city":"下益城郡美里町","address":"坂本"},
{"zip_code":"8614412","kana_pref":"ｸﾏﾓﾄｹﾝ","kana_city":"ｼﾓﾏｼｷｸﾞﾝﾐｻﾄﾏﾁ","kana_address":"ｻﾏﾀ","pref":"熊本県","city":"下益城郡美里町","address":"佐俣"},
{"zip_code":"8614735","kana_pref":"ｸﾏﾓﾄｹﾝ","kana_city":"ｼﾓﾏｼｷｸﾞﾝﾐｻﾄﾏﾁ","kana_address":"ｻﾝｶﾞ","pref":"熊本県","city":"下益城郡美里町","address":"三加"},
{"zip_code":"8614426","kana_pref":"ｸﾏﾓﾄｹﾝ","kana_city":"ｼﾓﾏｼｷｸﾞﾝﾐｻﾄﾏﾁ","kana_address":"ｼﾗｲｼﾉ","pref":"熊本県","city":"下益城郡美里町","address":"白石野"},
{"zip_code":"8614721","kana_pref":"ｸﾏﾓﾄｹﾝ","kana_city":"ｼﾓﾏｼｷｸﾞﾝﾐｻﾄﾏﾁ","kana_address":"ﾂﾁﾊﾞﾐ","pref":"熊本県","city":"下益城郡美里町","address":"土喰"},
{"zip_code":"8614414","kana_pref":"ｸﾏﾓﾄｹﾝ","kana_city":"ｼﾓﾏｼｷｸﾞﾝﾐｻﾄﾏﾁ","kana_address":"ﾂﾊﾞｷ","pref":"熊本県","city":"下益城郡美里町","address":"椿"},
{"zip_code":"8614427","kana_pref":"ｸﾏﾓﾄｹﾝ","kana_city":"ｼﾓﾏｼｷｸﾞﾝﾐｻﾄﾏﾁ","kana_address":"ﾂﾙ","pref":"熊本県","city":"下益城郡美里町","address":"津留"},
{"zip_code":"8614702","kana_pref":"ｸﾏﾓﾄｹﾝ","kana_city":"ｼﾓﾏｼｷｸﾞﾝﾐｻﾄﾏﾁ","kana_address":"ﾄｵﾉ","pref":"熊本県","city":"下益城郡美里町","address":"遠野"},
{"zip_code":"8614705","kana_pref":"ｸﾏﾓﾄｹﾝ","kana_city":"ｼﾓﾏｼｷｸﾞﾝﾐｻﾄﾏﾁ","kana_address":"ﾄﾖﾄﾐ","pref":"熊本県","city":"下益城郡美里町","address":"豊富"},
{"zip_code":"8614417","kana_pref":"ｸﾏﾓﾄｹﾝ","kana_city":"ｼﾓﾏｼｷｸﾞﾝﾐｻﾄﾏﾁ","kana_address":"ﾅｶ","pref":"熊本県","city":"下益城郡美里町","address":"中"},
{"zip_code":"8614422","kana_pref":"ｸﾏﾓﾄｹﾝ","kana_city":"ｼﾓﾏｼｷｸﾞﾝﾐｻﾄﾏﾁ","kana_address":"ﾅｶﾞｵﾉ","pref":"熊本県","city":"下益城郡美里町","address":"長尾野"},
{"zip_code":"8614403","kana_pref":"ｸﾏﾓﾄｹﾝ","kana_city":"ｼﾓﾏｼｷｸﾞﾝﾐｻﾄﾏﾁ","kana_address":"ﾅｶｺﾞｵﾘ","pref":"熊本県","city":"下益城郡美里町","address":"中郡"},
{"zip_code":"8614407","kana_pref":"ｸﾏﾓﾄｹﾝ","kana_city":"ｼﾓﾏｼｷｸﾞﾝﾐｻﾄﾏﾁ","kana_address":"ﾅｶｼｮｳｼﾞ","pref":"熊本県","city":"下益城郡美里町","address":"中小路"},
{"zip_code":"8614722","kana_pref":"ｸﾏﾓﾄｹﾝ","kana_city":"ｼﾓﾏｼｷｸﾞﾝﾐｻﾄﾏﾁ","kana_address":"ﾅｶﾞﾄﾐ","pref":"熊本県","city":"下益城郡美里町","address":"永富"},
{"zip_code":"8614736","kana_pref":"ｸﾏﾓﾄｹﾝ","kana_city":"ｼﾓﾏｼｷｸﾞﾝﾐｻﾄﾏﾁ","kana_address":"ﾅｺﾞｼﾀﾞﾆ","pref":"熊本県","city":"下益城郡美里町","address":"名越谷"},
{"zip_code":"8614733","kana_pref":"ｸﾏﾓﾄｹﾝ","kana_city":"ｼﾓﾏｼｷｸﾞﾝﾐｻﾄﾏﾁ","kana_address":"ﾆﾜﾀﾞ","pref":"熊本県","city":"下益城郡美里町","address":"二和田"},
{"zip_code":"8614406","kana_pref":"ｸﾏﾓﾄｹﾝ","kana_city":"ｼﾓﾏｼｷｸﾞﾝﾐｻﾄﾏﾁ","kana_address":"ﾊﾞﾊﾞ","pref":"熊本県","city":"下益城郡美里町","address":"馬場"},
{"zip_code":"8614713","kana_pref":"ｸﾏﾓﾄｹﾝ","kana_city":"ｼﾓﾏｼｷｸﾞﾝﾐｻﾄﾏﾁ","kana_address":"ﾊﾔｸｽ","pref":"熊本県","city":"下益城郡美里町","address":"早楠"},
{"zip_code":"8614416","kana_pref":"ｸﾏﾓﾄｹﾝ","kana_city":"ｼﾓﾏｼｷｸﾞﾝﾐｻﾄﾏﾁ","kana_address":"ﾊﾗｲｶﾞﾜ","pref":"熊本県","city":"下益城郡美里町","address":"払川"},
{"zip_code":"8614421","kana_pref":"ｸﾏﾓﾄｹﾝ","kana_city":"ｼﾓﾏｼｷｸﾞﾝﾐｻﾄﾏﾁ","kana_address":"ﾊﾗﾀﾞ","pref":"熊本県","city":"下益城郡美里町","address":"原田"},
{"zip_code":"8614727","kana_pref":"ｸﾏﾓﾄｹﾝ","kana_city":"ｼﾓﾏｼｷｸﾞﾝﾐｻﾄﾏﾁ","kana_address":"ﾊﾗﾏﾁ","pref":"熊本県","city":"下益城郡美里町","address":"原町"},
{"zip_code":"8614711","kana_pref":"ｸﾏﾓﾄｹﾝ","kana_city":"ｼﾓﾏｼｷｸﾞﾝﾐｻﾄﾏﾁ","kana_address":"ﾎﾗｵｶ","pref":"熊本県","city":"下益城郡美里町","address":"洞岳"},
{"zip_code":"8614423","kana_pref":"ｸﾏﾓﾄｹﾝ","kana_city":"ｼﾓﾏｼｷｸﾞﾝﾐｻﾄﾏﾁ","kana_address":"ﾏﾂﾉﾊﾗ","pref":"熊本県","city":"下益城郡美里町","address":"松野原"},
{"zip_code":"8614732","kana_pref":"ｸﾏﾓﾄｹﾝ","kana_city":"ｼﾓﾏｼｷｸﾞﾝﾐｻﾄﾏﾁ","kana_address":"ﾐﾂﾜ","pref":"熊本県","city":"下益城郡美里町","address":"三和"},
{"zip_code":"8614704","kana_pref":"ｸﾏﾓﾄｹﾝ","kana_city":"ｼﾓﾏｼｷｸﾞﾝﾐｻﾄﾏﾁ","kana_address":"ﾕｲ","pref":"熊本県","city":"下益城郡美里町","address":"涌井"},
{"zip_code":"8610800","kana_pref":"ｸﾏﾓﾄｹﾝ","kana_city":"ﾀﾏﾅｸﾞﾝﾅﾝｶﾝﾏﾁ","kana_address":"","pref":"熊本県","city":"玉名郡南関町","address":""},
{"zip_code":"8610812","kana_pref":"ｸﾏﾓﾄｹﾝ","kana_city":"ﾀﾏﾅｸﾞﾝﾅﾝｶﾝﾏﾁ","kana_address":"ｱｲﾉﾀﾆ","pref":"熊本県","city":"玉名郡南関町","address":"相谷"},
{"zip_code":"8610832","kana_pref":"ｸﾏﾓﾄｹﾝ","kana_city":"ﾀﾏﾅｸﾞﾝﾅﾝｶﾝﾏﾁ","kana_address":"ｲﾏ","pref":"熊本県","city":"玉名郡南関町","address":"今"},
{"zip_code":"8610822","kana_pref":"ｸﾏﾓﾄｹﾝ","kana_city":"ﾀﾏﾅｸﾞﾝﾅﾝｶﾝﾏﾁ","kana_address":"ｶﾐｻｶｼﾀ","pref":"熊本県","city":"玉名郡南関町","address":"上坂下"},
{"zip_code":"8610837","kana_pref":"ｸﾏﾓﾄｹﾝ","kana_city":"ﾀﾏﾅｸﾞﾝﾅﾝｶﾝﾏﾁ","kana_address":"ｶﾐﾅｶﾞﾀ","pref":"熊本県","city":"玉名郡南関町","address":"上長田"},
{"zip_code":"8610836","kana_pref":"ｸﾏﾓﾄｹﾝ","kana_city":"ﾀﾏﾅｸﾞﾝﾅﾝｶﾝﾏﾁ","kana_address":"ｸｼｹﾞ","pref":"熊本県","city":"玉名郡南関町","address":"久重"},
{"zip_code":"8610814","kana_pref":"ｸﾏﾓﾄｹﾝ","kana_city":"ﾀﾏﾅｸﾞﾝﾅﾝｶﾝﾏﾁ","kana_address":"ｺｴｲ","pref":"熊本県","city":"玉名郡南関町","address":"肥猪"},
{"zip_code":"8610813","kana_pref":"ｸﾏﾓﾄｹﾝ","kana_city":"ﾀﾏﾅｸﾞﾝﾅﾝｶﾝﾏﾁ","kana_address":"ｺｴｲﾏﾁ","pref":"熊本県","city":"玉名郡南関町","address":"肥猪町"},
{"zip_code":"8610811","kana_pref":"ｸﾏﾓﾄｹﾝ","kana_city":"ﾀﾏﾅｸﾞﾝﾅﾝｶﾝﾏﾁ","kana_address":"ｺﾊﾞﾙ","pref":"熊本県","city":"玉名郡南関町","address":"小原"},
{"zip_code":"8610821","kana_pref":"ｸﾏﾓﾄｹﾝ","kana_city":"ﾀﾏﾅｸﾞﾝﾅﾝｶﾝﾏﾁ","kana_address":"ｼﾓｻｶｼﾀ","pref":"熊本県","city":"玉名郡南関町","address":"下坂下"},
{"zip_code":"8610805","kana_pref":"ｸﾏﾓﾄｹﾝ","kana_city":"ﾀﾏﾅｸﾞﾝﾅﾝｶﾝﾏﾁ","kana_address":"ｾｷｼﾓ","pref":"熊本県","city":"玉名郡南関町","address":"関下"},
{"zip_code":"8610801","kana_pref":"ｸﾏﾓﾄｹﾝ","kana_city":"ﾀﾏﾅｸﾞﾝﾅﾝｶﾝﾏﾁ","kana_address":"ｾｷﾎｶﾒ","pref":"熊本県","city":"玉名郡南関町","address":"関外目"},
{"zip_code":"8610803","kana_pref":"ｸﾏﾓﾄｹﾝ","kana_city":"ﾀﾏﾅｸﾞﾝﾅﾝｶﾝﾏﾁ","kana_address":"ｾｷﾏﾁ","pref":"熊本県","city":"玉名郡南関町","address":"関町"},
{"zip_code":"8610804","kana_pref":"ｸﾏﾓﾄｹﾝ","kana_city":"ﾀﾏﾅｸﾞﾝﾅﾝｶﾝﾏﾁ","kana_address":"ｾｷﾑﾗ","pref":"熊本県","city":"玉名郡南関町","address":"関村"},
{"zip_code":"8610802","kana_pref":"ｸﾏﾓﾄｹﾝ","kana_city":"ﾀﾏﾅｸﾞﾝﾅﾝｶﾝﾏﾁ","kana_address":"ｾｷﾋｶﾞｼ","pref":"熊本県","city":"玉名郡南関町","address":"関東"},
{"zip_code":"8610833","kana_pref":"ｸﾏﾓﾄｹﾝ","kana_city":"ﾀﾏﾅｸﾞﾝﾅﾝｶﾝﾏﾁ","kana_address":"ﾀｶｸﾉ","pref":"熊本県","city":"玉名郡南関町","address":"高久野"},
{"zip_code":"8610815","kana_pref":"ｸﾏﾓﾄｹﾝ","kana_city":"ﾀﾏﾅｸﾞﾝﾅﾝｶﾝﾏﾁ","kana_address":"ﾄﾖﾅｶﾞ","pref":"熊本県","city":"玉名郡南関町","address":"豊永"},
{"zip_code":"8610835","kana_pref":"ｸﾏﾓﾄｹﾝ","kana_city":"ﾀﾏﾅｸﾞﾝﾅﾝｶﾝﾏﾁ","kana_address":"ﾅｶﾞﾔﾏ","pref":"熊本県","city":"玉名郡南関町","address":"長山"},
{"zip_code":"8610831","kana_pref":"ｸﾏﾓﾄｹﾝ","kana_city":"ﾀﾏﾅｸﾞﾝﾅﾝｶﾝﾏﾁ","kana_address":"ﾎｿﾅｶﾞ","pref":"熊本県","city":"玉名郡南関町","address":"細永"},
{"zip_code":"8610834","kana_pref":"ｸﾏﾓﾄｹﾝ","kana_city":"ﾀﾏﾅｸﾞﾝﾅﾝｶﾝﾏﾁ","kana_address":"ﾐﾔｵ","pref":"熊本県","city":"玉名郡南関町","address":"宮尾"},
{"zip_code":"8610823","kana_pref":"ｸﾏﾓﾄｹﾝ","kana_city":"ﾀﾏﾅｸﾞﾝﾅﾝｶﾝﾏﾁ","kana_address":"ﾖﾂﾊﾗ","pref":"熊本県","city":"玉名郡南関町","address":"四ツ原"},
{"zip_code":"8610913","kana_pref":"ｸﾏﾓﾄｹﾝ","kana_city":"ﾀﾏﾅｸﾞﾝﾅｺﾞﾐﾏﾁ","kana_address":"ｲﾀｸｽ","pref":"熊本県","city":"玉名郡和水町","address":"板楠"},
{"zip_code":"8610922","kana_pref":"ｸﾏﾓﾄｹﾝ","kana_city":"ﾀﾏﾅｸﾞﾝﾅｺﾞﾐﾏﾁ","kana_address":"ｲﾜ","pref":"熊本県","city":"玉名郡和水町","address":"岩"},
{"zip_code":"8610924","kana_pref":"ｸﾏﾓﾄｹﾝ","kana_city":"ﾀﾏﾅｸﾞﾝﾅｺﾞﾐﾏﾁ","kana_address":"ｵｵﾀｸﾞﾛ","pref":"熊本県","city":"玉名郡和水町","address":"大田黒"},
{"zip_code":"8610914","kana_pref":"ｸﾏﾓﾄｹﾝ","kana_city":"ﾀﾏﾅｸﾞﾝﾅｺﾞﾐﾏﾁ","kana_address":"ｶﾐｲﾀｸｽ","pref":"熊本県","city":"玉名郡和水町","address":"上板楠"},
{"zip_code":"8610911","kana_pref":"ｸﾏﾓﾄｹﾝ","kana_city":"ﾀﾏﾅｸﾞﾝﾅｺﾞﾐﾏﾁ","kana_address":"ｶﾐｼﾞｯﾁｮｳ","pref":"熊本県","city":"玉名郡和水町","address":"上十町"},
{"zip_code":"8610901","kana_pref":"ｸﾏﾓﾄｹﾝ","kana_city":"ﾀﾏﾅｸﾞﾝﾅｺﾞﾐﾏﾁ","kana_address":"ｶﾐﾜﾆ","pref":"熊本県","city":"玉名郡和水町","address":"上和仁"},
{"zip_code":"8610921","kana_pref":"ｸﾏﾓﾄｹﾝ","kana_city":"ﾀﾏﾅｸﾞﾝﾅｺﾞﾐﾏﾁ","kana_address":"ﾂﾀﾞ","pref":"熊本県","city":"玉名郡和水町","address":"津田"},
{"zip_code":"8610912","kana_pref":"ｸﾏﾓﾄｹﾝ","kana_city":"ﾀﾏﾅｸﾞﾝﾅｺﾞﾐﾏﾁ","kana_address":"ﾅｶｼﾞｯﾁｮｳ","pref":"熊本県","city":"玉名郡和水町","address":"中十町"},
{"zip_code":"8610905","kana_pref":"ｸﾏﾓﾄｹﾝ","kana_city":"ﾀﾏﾅｸﾞﾝﾅｺﾞﾐﾏﾁ","kana_address":"ﾅｶﾊﾞﾔｼ","pref":"熊本県","city":"玉名郡和水町","address":"中林"},
{"zip_code":"8610902","kana_pref":"ｸﾏﾓﾄｹﾝ","kana_city":"ﾀﾏﾅｸﾞﾝﾅｺﾞﾐﾏﾁ","kana_address":"ﾅｶﾜﾆ","pref":"熊本県","city":"玉名郡和水町","address":"中和仁"},
{"zip_code":"8610906","kana_pref":"ｸﾏﾓﾄｹﾝ","kana_city":"ﾀﾏﾅｸﾞﾝﾅｺﾞﾐﾏﾁ","kana_address":"ﾆｼﾖｼｼﾞ","pref":"熊本県","city":"玉名郡和水町","address":"西吉地"},
{"zip_code":"8610925","kana_pref":"ｸﾏﾓﾄｹﾝ","kana_city":"ﾀﾏﾅｸﾞﾝﾅｺﾞﾐﾏﾁ","kana_address":"ﾉﾀﾞ","pref":"熊本県","city":"玉名郡和水町","address":"野田"},
{"zip_code":"8610904","kana_pref":"ｸﾏﾓﾄｹﾝ","kana_city":"ﾀﾏﾅｸﾞﾝﾅｺﾞﾐﾏﾁ","kana_address":"ﾋｶﾞｼﾖｼｼﾞ","pref":"熊本県","city":"玉名郡和水町","address":"東吉地"},
{"zip_code":"8610923","kana_pref":"ｸﾏﾓﾄｹﾝ","kana_city":"ﾀﾏﾅｸﾞﾝﾅｺﾞﾐﾏﾁ","kana_address":"ﾋﾗﾉ","pref":"熊本県","city":"玉名郡和水町","address":"平野"},
{"zip_code":"8610915","kana_pref":"ｸﾏﾓﾄｹﾝ","kana_city":"ﾀﾏﾅｸﾞﾝﾅｺﾞﾐﾏﾁ","kana_address":"ﾔﾏｼﾞｯﾁｮｳ","pref":"熊本県","city":"玉名郡和水町","address":"山十町"},
{"zip_code":"8610903","kana_pref":"ｸﾏﾓﾄｹﾝ","kana_city":"ﾀﾏﾅｸﾞﾝﾅｺﾞﾐﾏﾁ","kana_address":"ﾜﾆ","pref":"熊本県","city":"玉名郡和水町","address":"和仁"},
{"zip_code":"8612400","kana_pref":"ｸﾏﾓﾄｹﾝ","kana_city":"ｱｿｸﾞﾝﾆｼﾊﾗﾑﾗ","kana_address":"","pref":"熊本県","city":"阿蘇郡西原村","address":""},
{"zip_code":"8612404","kana_pref":"ｸﾏﾓﾄｹﾝ","kana_city":"ｱｿｸﾞﾝﾆｼﾊﾗﾑﾗ","kana_address":"ｶﾜﾊﾗ","pref":"熊本県","city":"阿蘇郡西原村","address":"河原"},
{"zip_code":"8612402","kana_pref":"ｸﾏﾓﾄｹﾝ","kana_city":"ｱｿｸﾞﾝﾆｼﾊﾗﾑﾗ","kana_address":"ｺﾓﾘ","pref":"熊本県","city":"阿蘇郡西原村","address":"小森"},
{"zip_code":"8612401","kana_pref":"ｸﾏﾓﾄｹﾝ","kana_city":"ｱｿｸﾞﾝﾆｼﾊﾗﾑﾗ","kana_address":"ﾄﾘｺ","pref":"熊本県","city":"阿蘇郡西原村","address":"鳥子"},
{"zip_code":"8612403","kana_pref":"ｸﾏﾓﾄｹﾝ","kana_city":"ｱｿｸﾞﾝﾆｼﾊﾗﾑﾗ","kana_address":"ﾌﾀ","pref":"熊本県","city":"阿蘇郡西原村","address":"布田"},
{"zip_code":"8612405","kana_pref":"ｸﾏﾓﾄｹﾝ","kana_city":"ｱｿｸﾞﾝﾆｼﾊﾗﾑﾗ","kana_address":"ﾐﾔﾔﾏ","pref":"熊本県","city":"阿蘇郡西原村","address":"宮山"},
{"zip_code":"8613200","kana_pref":"ｸﾏﾓﾄｹﾝ","kana_city":"ｶﾐﾏｼｷｸﾞﾝﾐﾌﾈﾏﾁ","kana_address":"","pref":"熊本県","city":"上益城郡御船町","address":""},
{"zip_code":"8613322","kana_pref":"ｸﾏﾓﾄｹﾝ","kana_city":"ｶﾐﾏｼｷｸﾞﾝﾐﾌﾈﾏﾁ","kana_address":"ｳｴﾉ","pref":"熊本県","city":"上益城郡御船町","address":"上野"},
{"zip_code":"8613202","kana_pref":"ｸﾏﾓﾄｹﾝ","kana_city":"ｶﾐﾏｼｷｸﾞﾝﾐﾌﾈﾏﾁ","kana_address":"ｵｻﾞｶ","pref":"熊本県","city":"上益城郡御船町","address":"小坂"},
{"zip_code":"8613204","kana_pref":"ｸﾏﾓﾄｹﾝ","kana_city":"ｶﾐﾏｼｷｸﾞﾝﾐﾌﾈﾏﾁ","kana_address":"ｷﾉｸﾗ","pref":"熊本県","city":"上益城郡御船町","address":"木倉"},
{"zip_code":"8613201","kana_pref":"ｸﾏﾓﾄｹﾝ","kana_city":"ｶﾐﾏｼｷｸﾞﾝﾐﾌﾈﾏﾁ","kana_address":"ｼﾞﾝ","pref":"熊本県","city":"上益城郡御船町","address":"陣"},
{"zip_code":"8613203","kana_pref":"ｸﾏﾓﾄｹﾝ","kana_city":"ｶﾐﾏｼｷｸﾞﾝﾐﾌﾈﾏﾁ","kana_address":"ﾀｶｷ","pref":"熊本県","city":"上益城郡御船町","address":"高木"},
{"zip_code":"8613208","kana_pref":"ｸﾏﾓﾄｹﾝ","kana_city":"ｶﾐﾏｼｷｸﾞﾝﾐﾌﾈﾏﾁ","kana_address":"ﾀｷｵ","pref":"熊本県","city":"上益城郡御船町","address":"滝尾"},
{"zip_code":"8613205","kana_pref":"ｸﾏﾓﾄｹﾝ","kana_city":"ｶﾐﾏｼｷｸﾞﾝﾐﾌﾈﾏﾁ","kana_address":"ﾀｷｶﾞﾜ","pref":"熊本県","city":"上益城郡御船町","address":"滝川"},
{"zip_code":"8613323","kana_pref":"ｸﾏﾓﾄｹﾝ","kana_city":"ｶﾐﾏｼｷｸﾞﾝﾐﾌﾈﾏﾁ","kana_address":"ﾀｼﾛ","pref":"熊本県","city":"上益城郡御船町","address":"田代"},
{"zip_code":"8613131","kana_pref":"ｸﾏﾓﾄｹﾝ","kana_city":"ｶﾐﾏｼｷｸﾞﾝﾐﾌﾈﾏﾁ","kana_address":"ﾄﾖｱｷ","pref":"熊本県","city":"上益城郡御船町","address":"豊秋"},
{"zip_code":"8613421","kana_pref":"ｸﾏﾓﾄｹﾝ","kana_city":"ｶﾐﾏｼｷｸﾞﾝﾐﾌﾈﾏﾁ","kana_address":"ﾅﾅﾀｷ","pref":"熊本県","city":"上益城郡御船町","address":"七滝"},
{"zip_code":"8613321","kana_pref":"ｸﾏﾓﾄｹﾝ","kana_city":"ｶﾐﾏｼｷｸﾞﾝﾐﾌﾈﾏﾁ","kana_address":"ﾅﾅﾀｷ","pref":"熊本県","city":"上益城郡御船町","address":"七滝"},
{"zip_code":"8613206","kana_pref":"ｸﾏﾓﾄｹﾝ","kana_city":"ｶﾐﾏｼｷｸﾞﾝﾐﾌﾈﾏﾁ","kana_address":"ﾍﾀﾐ","pref":"熊本県","city":"上益城郡御船町","address":"辺田見"},
{"zip_code":"8613211","kana_pref":"ｸﾏﾓﾄｹﾝ","kana_city":"ｶﾐﾏｼｷｸﾞﾝﾐﾌﾈﾏﾁ","kana_address":"ﾐｽﾞｺｼ","pref":"熊本県","city":"上益城郡御船町","address":"水越"},
{"zip_code":"8613207","kana_pref":"ｸﾏﾓﾄｹﾝ","kana_city":"ｶﾐﾏｼｷｸﾞﾝﾐﾌﾈﾏﾁ","kana_address":"ﾐﾌﾈ","pref":"熊本県","city":"上益城郡御船町","address":"御船"},
{"zip_code":"8613100","kana_pref":"ｸﾏﾓﾄｹﾝ","kana_city":"ｶﾐﾏｼｷｸﾞﾝｶｼﾏﾏﾁ","kana_address":"","pref":"熊本県","city":"上益城郡嘉島町","address":""},
{"zip_code":"8613103","kana_pref":"ｸﾏﾓﾄｹﾝ","kana_city":"ｶﾐﾏｼｷｸﾞﾝｶｼﾏﾏﾁ","kana_address":"ｲﾃﾗ","pref":"熊本県","city":"上益城郡嘉島町","address":"井寺"},
{"zip_code":"8613109","kana_pref":"ｸﾏﾓﾄｹﾝ","kana_city":"ｶﾐﾏｼｷｸﾞﾝｶｼﾏﾏﾁ","kana_address":"ｲﾇﾌﾞﾁ","pref":"熊本県","city":"上益城郡嘉島町","address":"犬渕"},
{"zip_code":"8613106","kana_pref":"ｸﾏﾓﾄｹﾝ","kana_city":"ｶﾐﾏｼｷｸﾞﾝｶｼﾏﾏﾁ","kana_address":"ｳｴｼﾞﾏ","pref":"熊本県","city":"上益城郡嘉島町","address":"上島"},
{"zip_code":"8613107","kana_pref":"ｸﾏﾓﾄｹﾝ","kana_city":"ｶﾐﾏｼｷｸﾞﾝｶｼﾏﾏﾁ","kana_address":"ｶﾐﾅｶﾏ","pref":"熊本県","city":"上益城郡嘉島町","address":"上仲間"},
{"zip_code":"8613105","kana_pref":"ｸﾏﾓﾄｹﾝ","kana_city":"ｶﾐﾏｼｷｸﾞﾝｶｼﾏﾏﾁ","kana_address":"ｶﾐﾛｯｶ","pref":"熊本県","city":"上益城郡嘉島町","address":"上六嘉"},
{"zip_code":"8613104","kana_pref":"ｸﾏﾓﾄｹﾝ","kana_city":"ｶﾐﾏｼｷｸﾞﾝｶｼﾏﾏﾁ","kana_address":"ｷﾀｱﾏｷﾞ","pref":"熊本県","city":"上益城郡嘉島町","address":"北甘木"},
{"zip_code":"8613108","kana_pref":"ｸﾏﾓﾄｹﾝ","kana_city":"ｶﾐﾏｼｷｸﾞﾝｶｼﾏﾏﾁ","kana_address":"ｼﾓﾅｶﾏ","pref":"熊本県","city":"上益城郡嘉島町","address":"下仲間"},
{"zip_code":"8613102","kana_pref":"ｸﾏﾓﾄｹﾝ","kana_city":"ｶﾐﾏｼｷｸﾞﾝｶｼﾏﾏﾁ","kana_address":"ｼﾓﾛｯｶ","pref":"熊本県","city":"上益城郡嘉島町","address":"下六嘉"},
{"zip_code":"8613101","kana_pref":"ｸﾏﾓﾄｹﾝ","kana_city":"ｶﾐﾏｼｷｸﾞﾝｶｼﾏﾏﾁ","kana_address":"ﾅﾏｽﾞ","pref":"熊本県","city":"上益城郡嘉島町","address":"鯰"},
{"zip_code":"8612200","kana_pref":"ｸﾏﾓﾄｹﾝ","kana_city":"ｶﾐﾏｼｷｸﾞﾝﾏｼｷﾏﾁ","kana_address":"","pref":"熊本県","city":"上益城郡益城町","address":""},
{"zip_code":"8612221","kana_pref":"ｸﾏﾓﾄｹﾝ","kana_city":"ｶﾐﾏｼｷｸﾞﾝﾏｼｷﾏﾁ","kana_address":"ｱｶｲ","pref":"熊本県","city":"上益城郡益城町","address":"赤井"},
{"zip_code":"8612223","kana_pref":"ｸﾏﾓﾄｹﾝ","kana_city":"ｶﾐﾏｼｷｸﾞﾝﾏｼｷﾏﾁ","kana_address":"ｵｲｹ","pref":"熊本県","city":"上益城郡益城町","address":"小池"},
{"zip_code":"8612204","kana_pref":"ｸﾏﾓﾄｹﾝ","kana_city":"ｶﾐﾏｼｷｸﾞﾝﾏｼｷﾏﾁ","kana_address":"ｵﾔﾂ","pref":"熊本県","city":"上益城郡益城町","address":"小谷"},
{"zip_code":"8612203","kana_pref":"ｸﾏﾓﾄｹﾝ","kana_city":"ｶﾐﾏｼｷｸﾞﾝﾏｼｷﾏﾁ","kana_address":"ｶﾐｼﾞﾝ","pref":"熊本県","city":"上益城郡益城町","address":"上陳"},
{"zip_code":"8612242","kana_pref":"ｸﾏﾓﾄｹﾝ","kana_city":"ｶﾐﾏｼｷｸﾞﾝﾏｼｷﾏﾁ","kana_address":"ｷﾔﾏ","pref":"熊本県","city":"上益城郡益城町","address":"木山"},
{"zip_code":"8612234","kana_pref":"ｸﾏﾓﾄｹﾝ","kana_city":"ｶﾐﾏｼｷｸﾞﾝﾏｼｷﾏﾁ","kana_address":"ｺｶﾞ","pref":"熊本県","city":"上益城郡益城町","address":"古閑"},
{"zip_code":"8612201","kana_pref":"ｸﾏﾓﾄｹﾝ","kana_city":"ｶﾐﾏｼｷｸﾞﾝﾏｼｷﾏﾁ","kana_address":"ｼﾞﾁｭｳ","pref":"熊本県","city":"上益城郡益城町","address":"寺中"},
{"zip_code":"8612224","kana_pref":"ｸﾏﾓﾄｹﾝ","kana_city":"ｶﾐﾏｼｷｸﾞﾝﾏｼｷﾏﾁ","kana_address":"ｼﾏﾀﾞ","pref":"熊本県","city":"上益城郡益城町","address":"島田"},
{"zip_code":"8612206","kana_pref":"ｸﾏﾓﾄｹﾝ","kana_city":"ｶﾐﾏｼｷｸﾞﾝﾏｼｷﾏﾁ","kana_address":"ｼﾓｼﾞﾝ","pref":"熊本県","city":"上益城郡益城町","address":"下陳"},
{"zip_code":"8612205","kana_pref":"ｸﾏﾓﾄｹﾝ","kana_city":"ｶﾐﾏｼｷｸﾞﾝﾏｼｷﾏﾁ","kana_address":"ｽｷﾞﾄﾞｳ","pref":"熊本県","city":"上益城郡益城町","address":"杉堂"},
{"zip_code":"8612233","kana_pref":"ｸﾏﾓﾄｹﾝ","kana_city":"ｶﾐﾏｼｷｸﾞﾝﾏｼｷﾏﾁ","kana_address":"ｿｳﾘｮｳ","pref":"熊本県","city":"上益城郡益城町","address":"惣領"},
{"zip_code":"8612202","kana_pref":"ｸﾏﾓﾄｹﾝ","kana_city":"ｶﾐﾏｼｷｸﾞﾝﾏｼｷﾏﾁ","kana_address":"ﾀﾊﾞﾙ","pref":"熊本県","city":"上益城郡益城町","address":"田原"},
{"zip_code":"8612243","kana_pref":"ｸﾏﾓﾄｹﾝ","kana_city":"ｶﾐﾏｼｷｸﾞﾝﾏｼｷﾏﾁ","kana_address":"ﾂｼﾞﾉｼﾛ","pref":"熊本県","city":"上益城郡益城町","address":"辻の城"},
{"zip_code":"8612244","kana_pref":"ｸﾏﾓﾄｹﾝ","kana_city":"ｶﾐﾏｼｷｸﾞﾝﾏｼｷﾏﾁ","kana_address":"ﾃﾗｻｺ","pref":"熊本県","city":"上益城郡益城町","address":"寺迫"},
{"zip_code":"8612222","kana_pref":"ｸﾏﾓﾄｹﾝ","kana_city":"ｶﾐﾏｼｷｸﾞﾝﾏｼｷﾏﾁ","kana_address":"ﾄｶﾞﾜ","pref":"熊本県","city":"上益城郡益城町","address":"砥川"},
{"zip_code":"8612212","kana_pref":"ｸﾏﾓﾄｹﾝ","kana_city":"ｶﾐﾏｼｷｸﾞﾝﾏｼｷﾏﾁ","kana_address":"ﾋﾗﾀ","pref":"熊本県","city":"上益城郡益城町","address":"平田"},
{"zip_code":"8612236","kana_pref":"ｸﾏﾓﾄｹﾝ","kana_city":"ｶﾐﾏｼｷｸﾞﾝﾏｼｷﾏﾁ","kana_address":"ﾋﾛｻｷ","pref":"熊本県","city":"上益城郡益城町","address":"広崎"},
{"zip_code":"8612235","kana_pref":"ｸﾏﾓﾄｹﾝ","kana_city":"ｶﾐﾏｼｷｸﾞﾝﾏｼｷﾏﾁ","kana_address":"ﾌｸﾄﾞﾐ","pref":"熊本県","city":"上益城郡益城町","address":"福富"},
{"zip_code":"8612211","kana_pref":"ｸﾏﾓﾄｹﾝ","kana_city":"ｶﾐﾏｼｷｸﾞﾝﾏｼｷﾏﾁ","kana_address":"ﾌｸﾊﾗ","pref":"熊本県","city":"上益城郡益城町","address":"福原"},
{"zip_code":"8612232","kana_pref":"ｸﾏﾓﾄｹﾝ","kana_city":"ｶﾐﾏｼｷｸﾞﾝﾏｼｷﾏﾁ","kana_address":"ﾏﾐｽﾞ","pref":"熊本県","city":"上益城郡益城町","address":"馬水"},
{"zip_code":"8612241","kana_pref":"ｸﾏﾓﾄｹﾝ","kana_city":"ｶﾐﾏｼｷｸﾞﾝﾏｼｷﾏﾁ","kana_address":"ﾐﾔｿﾞﾉ","pref":"熊本県","city":"上益城郡益城町","address":"宮園"},
{"zip_code":"8612231","kana_pref":"ｸﾏﾓﾄｹﾝ","kana_city":"ｶﾐﾏｼｷｸﾞﾝﾏｼｷﾏﾁ","kana_address":"ﾔｽﾅｶﾞ","pref":"熊本県","city":"上益城郡益城町","address":"安永"},
{"zip_code":"8614600","kana_pref":"ｸﾏﾓﾄｹﾝ","kana_city":"ｶﾐﾏｼｷｸﾞﾝｺｳｻﾏﾁ","kana_address":"","pref":"熊本県","city":"上益城郡甲佐町","address":""},
{"zip_code":"8614618","kana_pref":"ｸﾏﾓﾄｹﾝ","kana_city":"ｶﾐﾏｼｷｸﾞﾝｺｳｻﾏﾁ","kana_address":"ｱｿﾊﾞﾙ","pref":"熊本県","city":"上益城郡甲佐町","address":"麻生原"},
{"zip_code":"8614605","kana_pref":"ｸﾏﾓﾄｹﾝ","kana_city":"ｶﾐﾏｼｷｸﾞﾝｺｳｻﾏﾁ","kana_address":"ｱﾘﾔｽ","pref":"熊本県","city":"上益城郡甲佐町","address":"有安"},
{"zip_code":"8613242","kana_pref":"ｸﾏﾓﾄｹﾝ","kana_city":"ｶﾐﾏｼｷｸﾞﾝｺｳｻﾏﾁ","kana_address":"ｲﾄﾀﾞ","pref":"熊本県","city":"上益城郡甲佐町","address":"糸田"},
{"zip_code":"8614601","kana_pref":"ｸﾏﾓﾄｹﾝ","kana_city":"ｶﾐﾏｼｷｸﾞﾝｺｳｻﾏﾁ","kana_address":"ｲﾜｼﾀ","pref":"熊本県","city":"上益城郡甲佐町","address":"岩下"},
{"zip_code":"8614604","kana_pref":"ｸﾏﾓﾄｹﾝ","kana_city":"ｶﾐﾏｼｷｸﾞﾝｺｳｻﾏﾁ","kana_address":"ｵｵﾏﾁ","pref":"熊本県","city":"上益城郡甲佐町","address":"大町"},
{"zip_code":"8614634","kana_pref":"ｸﾏﾓﾄｹﾝ","kana_city":"ｶﾐﾏｼｷｸﾞﾝｺｳｻﾏﾁ","kana_address":"ｵｶﾞ","pref":"熊本県","city":"上益城郡甲佐町","address":"小鹿"},
{"zip_code":"8614631","kana_pref":"ｸﾏﾓﾄｹﾝ","kana_city":"ｶﾐﾏｼｷｸﾞﾝｺｳｻﾏﾁ","kana_address":"ｶﾐｱｹﾞ","pref":"熊本県","city":"上益城郡甲佐町","address":"上揚"},
{"zip_code":"8614622","kana_pref":"ｸﾏﾓﾄｹﾝ","kana_city":"ｶﾐﾏｼｷｸﾞﾝｺｳｻﾏﾁ","kana_address":"ｶﾐｿｳｶﾞﾜ","pref":"熊本県","city":"上益城郡甲佐町","address":"上早川"},
{"zip_code":"8614632","kana_pref":"ｸﾏﾓﾄｹﾝ","kana_city":"ｶﾐﾏｼｷｸﾞﾝｺｳｻﾏﾁ","kana_address":"ｻｶﾀﾞﾆ","pref":"熊本県","city":"上益城郡甲佐町","address":"坂谷"},
{"zip_code":"8613244","kana_pref":"ｸﾏﾓﾄｹﾝ","kana_city":"ｶﾐﾏｼｷｸﾞﾝｺｳｻﾏﾁ","kana_address":"ｼﾊﾞﾜﾗ","pref":"熊本県","city":"上益城郡甲佐町","address":"芝原"},
{"zip_code":"8614621","kana_pref":"ｸﾏﾓﾄｹﾝ","kana_city":"ｶﾐﾏｼｷｸﾞﾝｺｳｻﾏﾁ","kana_address":"ｼﾓﾖｺﾀ","pref":"熊本県","city":"上益城郡甲佐町","address":"下横田"},
{"zip_code":"8613243","kana_pref":"ｸﾏﾓﾄｹﾝ","kana_city":"ｶﾐﾏｼｷｸﾞﾝｺｳｻﾏﾁ","kana_address":"ｼﾗﾊﾀ","pref":"熊本県","city":"上益城郡甲佐町","address":"白旗"},
{"zip_code":"8613241","kana_pref":"ｸﾏﾓﾄｹﾝ","kana_city":"ｶﾐﾏｼｷｸﾞﾝｺｳｻﾏﾁ","kana_address":"ｿｳｶﾞﾜ","pref":"熊本県","city":"上益城郡甲佐町","address":"早川"},
{"zip_code":"8614616","kana_pref":"ｸﾏﾓﾄｹﾝ","kana_city":"ｶﾐﾏｼｷｸﾞﾝｺｳｻﾏﾁ","kana_address":"ﾀｸﾞﾁ","pref":"熊本県","city":"上益城郡甲佐町","address":"田口"},
{"zip_code":"8614617","kana_pref":"ｸﾏﾓﾄｹﾝ","kana_city":"ｶﾐﾏｼｷｸﾞﾝｺｳｻﾏﾁ","kana_address":"ﾂｼﾀﾞ","pref":"熊本県","city":"上益城郡甲佐町","address":"津志田"},
{"zip_code":"8614607","kana_pref":"ｸﾏﾓﾄｹﾝ","kana_city":"ｶﾐﾏｼｷｸﾞﾝｺｳｻﾏﾁ","kana_address":"ﾄﾖｳﾁ","pref":"熊本県","city":"上益城郡甲佐町","address":"豊内"},
{"zip_code":"8614614","kana_pref":"ｸﾏﾓﾄｹﾝ","kana_city":"ｶﾐﾏｼｷｸﾞﾝｺｳｻﾏﾁ","kana_address":"ﾅｶﾔﾏ","pref":"熊本県","city":"上益城郡甲佐町","address":"中山"},
{"zip_code":"8614623","kana_pref":"ｸﾏﾓﾄｹﾝ","kana_city":"ｶﾐﾏｼｷｸﾞﾝｺｳｻﾏﾁ","kana_address":"ﾅｶﾖｺﾀ","pref":"熊本県","city":"上益城郡甲佐町","address":"中横田"},
{"zip_code":"8614609","kana_pref":"ｸﾏﾓﾄｹﾝ","kana_city":"ｶﾐﾏｼｷｸﾞﾝｺｳｻﾏﾁ","kana_address":"ﾆｼｻﾏﾉ","pref":"熊本県","city":"上益城郡甲佐町","address":"西寒野"},
{"zip_code":"8614633","kana_pref":"ｸﾏﾓﾄｹﾝ","kana_city":"ｶﾐﾏｼｷｸﾞﾝｺｳｻﾏﾁ","kana_address":"ﾆｼﾊﾙ","pref":"熊本県","city":"上益城郡甲佐町","address":"西原"},
{"zip_code":"8614603","kana_pref":"ｸﾏﾓﾄｹﾝ","kana_city":"ｶﾐﾏｼｷｸﾞﾝｺｳｻﾏﾁ","kana_address":"ﾆﾀｺﾞ","pref":"熊本県","city":"上益城郡甲佐町","address":"仁田子"},
{"zip_code":"8614608","kana_pref":"ｸﾏﾓﾄｹﾝ","kana_city":"ｶﾐﾏｼｷｸﾞﾝｺｳｻﾏﾁ","kana_address":"ﾋｶﾞｼｻﾏﾉ","pref":"熊本県","city":"上益城郡甲佐町","address":"東寒野"},
{"zip_code":"8614611","kana_pref":"ｸﾏﾓﾄｹﾝ","kana_city":"ｶﾐﾏｼｷｸﾞﾝｺｳｻﾏﾁ","kana_address":"ﾌﾅﾂ","pref":"熊本県","city":"上益城郡甲佐町","address":"船津"},
{"zip_code":"8614615","kana_pref":"ｸﾏﾓﾄｹﾝ","kana_city":"ｶﾐﾏｼｷｸﾞﾝｺｳｻﾏﾁ","kana_address":"ﾌﾘｮｳ","pref":"熊本県","city":"上益城郡甲佐町","address":"府領"},
{"zip_code":"8614602","kana_pref":"ｸﾏﾓﾄｹﾝ","kana_city":"ｶﾐﾏｼｷｸﾞﾝｺｳｻﾏﾁ","kana_address":"ﾐﾄﾞﾘﾏﾁ","pref":"熊本県","city":"上益城郡甲佐町","address":"緑町"},
{"zip_code":"8614613","kana_pref":"ｸﾏﾓﾄｹﾝ","kana_city":"ｶﾐﾏｼｷｸﾞﾝｺｳｻﾏﾁ","kana_address":"ﾐﾅﾐｻﾝｶﾞ","pref":"熊本県","city":"上益城郡甲佐町","address":"南三箇"},
{"zip_code":"8614635","kana_pref":"ｸﾏﾓﾄｹﾝ","kana_city":"ｶﾐﾏｼｷｸﾞﾝｺｳｻﾏﾁ","kana_address":"ﾔｽﾋﾗ","pref":"熊本県","city":"上益城郡甲佐町","address":"安平"},
{"zip_code":"8614606","kana_pref":"ｸﾏﾓﾄｹﾝ","kana_city":"ｶﾐﾏｼｷｸﾞﾝｺｳｻﾏﾁ","kana_address":"ﾖｺﾀ","pref":"熊本県","city":"上益城郡甲佐町","address":"横田"},
{"zip_code":"8613245","kana_pref":"ｸﾏﾓﾄｹﾝ","kana_city":"ｶﾐﾏｼｷｸﾞﾝｺｳｻﾏﾁ","kana_address":"ﾖｼﾀﾞ","pref":"熊本県","city":"上益城郡甲佐町","address":"吉田"},
{"zip_code":"8614612","kana_pref":"ｸﾏﾓﾄｹﾝ","kana_city":"ｶﾐﾏｼｷｸﾞﾝｺｳｻﾏﾁ","kana_address":"ﾖﾓﾁ","pref":"熊本県","city":"上益城郡甲佐町","address":"世持"},
{"zip_code":"8613500","kana_pref":"ｸﾏﾓﾄｹﾝ","kana_city":"ｶﾐﾏｼｷｸﾞﾝﾔﾏﾄﾁｮｳ","kana_address":"","pref":"熊本県","city":"上益城郡山都町","address":""},
{"zip_code":"8613781","kana_pref":"ｸﾏﾓﾄｹﾝ","kana_city":"ｶﾐﾏｼｷｸﾞﾝﾔﾏﾄﾁｮｳ","kana_address":"ｱｻﾔﾏ","pref":"熊本県","city":"上益城郡山都町","address":"麻山"},
{"zip_code":"8613541","kana_pref":"ｸﾏﾓﾄｹﾝ","kana_city":"ｶﾐﾏｼｷｸﾞﾝﾔﾏﾄﾁｮｳ","kana_address":"ｱｼﾔﾀﾞ","pref":"熊本県","city":"上益城郡山都町","address":"芦屋田"},
{"zip_code":"8613521","kana_pref":"ｸﾏﾓﾄｹﾝ","kana_city":"ｶﾐﾏｼｷｸﾞﾝﾔﾏﾄﾁｮｳ","kana_address":"ｱﾗﾀﾞﾆ","pref":"熊本県","city":"上益城郡山都町","address":"荒谷"},
{"zip_code":"8613937","kana_pref":"ｸﾏﾓﾄｹﾝ","kana_city":"ｶﾐﾏｼｷｸﾞﾝﾔﾏﾄﾁｮｳ","kana_address":"ｲｾ","pref":"熊本県","city":"上益城郡山都町","address":"伊勢"},
{"zip_code":"8613842","kana_pref":"ｸﾏﾓﾄｹﾝ","kana_city":"ｶﾐﾏｼｷｸﾞﾝﾔﾏﾄﾁｮｳ","kana_address":"ｲﾁﾉﾊﾙ","pref":"熊本県","city":"上益城郡山都町","address":"市野原"},
{"zip_code":"8613542","kana_pref":"ｸﾏﾓﾄｹﾝ","kana_city":"ｶﾐﾏｼｷｸﾞﾝﾔﾏﾄﾁｮｳ","kana_address":"ｲﾁﾊﾞﾙ","pref":"熊本県","city":"上益城郡山都町","address":"市原"},
{"zip_code":"8613665","kana_pref":"ｸﾏﾓﾄｹﾝ","kana_city":"ｶﾐﾏｼｷｸﾞﾝﾔﾏﾄﾁｮｳ","kana_address":"ｲﾇｶｲ","pref":"熊本県","city":"上益城郡山都町","address":"犬飼"},
{"zip_code":"8613913","kana_pref":"ｸﾏﾓﾄｹﾝ","kana_city":"ｶﾐﾏｼｷｸﾞﾝﾔﾏﾄﾁｮｳ","kana_address":"ｲﾏ","pref":"熊本県","city":"上益城郡山都町","address":"今"},
{"zip_code":"8613832","kana_pref":"ｸﾏﾓﾄｹﾝ","kana_city":"ｶﾐﾏｼｷｸﾞﾝﾔﾏﾄﾁｮｳ","kana_address":"ｲﾑﾀ","pref":"熊本県","city":"上益城郡山都町","address":"井無田"},
{"zip_code":"8613511","kana_pref":"ｸﾏﾓﾄｹﾝ","kana_city":"ｶﾐﾏｼｷｸﾞﾝﾔﾏﾄﾁｮｳ","kana_address":"ｲﾘｻ","pref":"熊本県","city":"上益城郡山都町","address":"入佐"},
{"zip_code":"8613905","kana_pref":"ｸﾏﾓﾄｹﾝ","kana_city":"ｶﾐﾏｼｷｸﾞﾝﾔﾏﾄﾁｮｳ","kana_address":"ｵｵﾉ","pref":"熊本県","city":"上益城郡山都町","address":"大野"},
{"zip_code":"8613811","kana_pref":"ｸﾏﾓﾄｹﾝ","kana_city":"ｶﾐﾏｼｷｸﾞﾝﾔﾏﾄﾁｮｳ","kana_address":"ｵｵﾋﾗ","pref":"熊本県","city":"上益城郡山都町","address":"大平"},
{"zip_code":"8613926","kana_pref":"ｸﾏﾓﾄｹﾝ","kana_city":"ｶﾐﾏｼｷｸﾞﾝﾔﾏﾄﾁｮｳ","kana_address":"ｵｵﾐｸﾁ","pref":"熊本県","city":"上益城郡山都町","address":"大見口"},
{"zip_code":"8613788","kana_pref":"ｸﾏﾓﾄｹﾝ","kana_city":"ｶﾐﾏｼｷｸﾞﾝﾔﾏﾄﾁｮｳ","kana_address":"ｵｻﾞｻ","pref":"熊本県","city":"上益城郡山都町","address":"小笹"},
{"zip_code":"8613789","kana_pref":"ｸﾏﾓﾄｹﾝ","kana_city":"ｶﾐﾏｼｷｸﾞﾝﾔﾏﾄﾁｮｳ","kana_address":"ｵﾄｺﾅﾘ","pref":"熊本県","city":"上益城郡山都町","address":"男成"},
{"zip_code":"8613844","kana_pref":"ｸﾏﾓﾄｹﾝ","kana_city":"ｶﾐﾏｼｷｸﾞﾝﾔﾏﾄﾁｮｳ","kana_address":"ｵﾉｼﾞﾘ","pref":"熊本県","city":"上益城郡山都町","address":"尾野尻"},
{"zip_code":"8613801","kana_pref":"ｸﾏﾓﾄｹﾝ","kana_city":"ｶﾐﾏｼｷｸﾞﾝﾔﾏﾄﾁｮｳ","kana_address":"ｵﾐﾈ","pref":"熊本県","city":"上益城郡山都町","address":"小峰"},
{"zip_code":"8613923","kana_pref":"ｸﾏﾓﾄｹﾝ","kana_city":"ｶﾐﾏｼｷｸﾞﾝﾔﾏﾄﾁｮｳ","kana_address":"ｶｼﾜ","pref":"熊本県","city":"上益城郡山都町","address":"柏"},
{"zip_code":"8613451","kana_pref":"ｸﾏﾓﾄｹﾝ","kana_city":"ｶﾐﾏｼｷｸﾞﾝﾔﾏﾄﾁｮｳ","kana_address":"ｶﾈｳﾁ","pref":"熊本県","city":"上益城郡山都町","address":"金内"},
{"zip_code":"8613843","kana_pref":"ｸﾏﾓﾄｹﾝ","kana_city":"ｶﾐﾏｼｷｸﾞﾝﾔﾏﾄﾁｮｳ","kana_address":"ｶﾏﾉ","pref":"熊本県","city":"上益城郡山都町","address":"鎌野"},
{"zip_code":"8613782","kana_pref":"ｸﾏﾓﾄｹﾝ","kana_city":"ｶﾐﾏｼｷｸﾞﾝﾔﾏﾄﾁｮｳ","kana_address":"ｶﾐｶﾞﾜｲﾉ","pref":"熊本県","city":"上益城郡山都町","address":"上川井野"},
{"zip_code":"8613925","kana_pref":"ｸﾏﾓﾄｹﾝ","kana_city":"ｶﾐﾏｼｷｸﾞﾝﾔﾏﾄﾁｮｳ","kana_address":"ｶﾐｻﾞｼｵ","pref":"熊本県","city":"上益城郡山都町","address":"上差尾"},
{"zip_code":"8613906","kana_pref":"ｸﾏﾓﾄｹﾝ","kana_city":"ｶﾐﾏｼｷｸﾞﾝﾔﾏﾄﾁｮｳ","kana_address":"ｶﾐﾉﾏｴ","pref":"熊本県","city":"上益城郡山都町","address":"神ノ前"},
{"zip_code":"8613841","kana_pref":"ｸﾏﾓﾄｹﾝ","kana_city":"ｶﾐﾏｼｷｸﾞﾝﾔﾏﾄﾁｮｳ","kana_address":"ｶﾘﾔ","pref":"熊本県","city":"上益城郡山都町","address":"仮屋"},
{"zip_code":"8613813","kana_pref":"ｸﾏﾓﾄｹﾝ","kana_city":"ｶﾐﾏｼｷｸﾞﾝﾔﾏﾄﾁｮｳ","kana_address":"ｶﾜｸﾞﾁ","pref":"熊本県","city":"上益城郡山都町","address":"川口"},
{"zip_code":"8613784","kana_pref":"ｸﾏﾓﾄｹﾝ","kana_city":"ｶﾐﾏｼｷｸﾞﾝﾔﾏﾄﾁｮｳ","kana_address":"ｶﾜﾉ","pref":"熊本県","city":"上益城郡山都町","address":"川野"},
{"zip_code":"8613455","kana_pref":"ｸﾏﾓﾄｹﾝ","kana_city":"ｶﾐﾏｼｷｸﾞﾝﾔﾏﾄﾁｮｳ","kana_address":"ｷﾀﾅｶｼﾏ","pref":"熊本県","city":"上益城郡山都町","address":"北中島"},
{"zip_code":"8613802","kana_pref":"ｸﾏﾓﾄｹﾝ","kana_city":"ｶﾐﾏｼｷｸﾞﾝﾔﾏﾄﾁｮｳ","kana_address":"ｷﾊﾗﾀﾞﾆ","pref":"熊本県","city":"上益城郡山都町","address":"木原谷"},
{"zip_code":"8613531","kana_pref":"ｸﾏﾓﾄｹﾝ","kana_city":"ｶﾐﾏｼｷｸﾞﾝﾔﾏﾄﾁｮｳ","kana_address":"ｸｽﾞﾊﾗ","pref":"熊本県","city":"上益城郡山都町","address":"葛原"},
{"zip_code":"8613501","kana_pref":"ｸﾏﾓﾄｹﾝ","kana_city":"ｶﾐﾏｼｷｸﾞﾝﾔﾏﾄﾁｮｳ","kana_address":"ｸﾛｶﾜ","pref":"熊本県","city":"上益城郡山都町","address":"黒川"},
{"zip_code":"8613512","kana_pref":"ｸﾏﾓﾄｹﾝ","kana_city":"ｶﾐﾏｼｷｸﾞﾝﾔﾏﾄﾁｮｳ","kana_address":"ｹﾞﾊﾞｵ","pref":"熊本県","city":"上益城郡山都町","address":"下馬尾"},
{"zip_code":"8613834","kana_pref":"ｸﾏﾓﾄｹﾝ","kana_city":"ｶﾐﾏｼｷｸﾞﾝﾔﾏﾄﾁｮｳ","kana_address":"ｺｳﾂﾞｷ","pref":"熊本県","city":"上益城郡山都町","address":"高月"},
{"zip_code":"8613831","kana_pref":"ｸﾏﾓﾄｹﾝ","kana_city":"ｶﾐﾏｼｷｸﾞﾝﾔﾏﾄﾁｮｳ","kana_address":"ｺﾞｳﾉﾊﾙ","pref":"熊本県","city":"上益城郡山都町","address":"郷野原"},
{"zip_code":"8613502","kana_pref":"ｸﾏﾓﾄｹﾝ","kana_city":"ｶﾐﾏｼｷｸﾞﾝﾔﾏﾄﾁｮｳ","kana_address":"ｺﾞｼｮ","pref":"熊本県","city":"上益城郡山都町","address":"御所"},
{"zip_code":"8613803","kana_pref":"ｸﾏﾓﾄｹﾝ","kana_city":"ｶﾐﾏｼｷｸﾞﾝﾔﾏﾄﾁｮｳ","kana_address":"ｺﾅｶﾀﾞｹ","pref":"熊本県","city":"上益城郡山都町","address":"小中竹"},
{"zip_code":"8613532","kana_pref":"ｸﾏﾓﾄｹﾝ","kana_city":"ｶﾐﾏｼｷｸﾞﾝﾔﾏﾄﾁｮｳ","kana_address":"ｻﾙﾜﾀﾘ","pref":"熊本県","city":"上益城郡山都町","address":"猿渡"},
{"zip_code":"8613533","kana_pref":"ｸﾏﾓﾄｹﾝ","kana_city":"ｶﾐﾏｼｷｸﾞﾝﾔﾏﾄﾁｮｳ","kana_address":"ｻﾝｶﾞ","pref":"熊本県","city":"上益城郡山都町","address":"三ケ"},
{"zip_code":"8613915","kana_pref":"ｸﾏﾓﾄｹﾝ","kana_city":"ｶﾐﾏｼｷｸﾞﾝﾔﾏﾄﾁｮｳ","kana_address":"ｼｵｲﾃﾞｻｺ","pref":"熊本県","city":"上益城郡山都町","address":"塩出迫"},
{"zip_code":"8613916","kana_pref":"ｸﾏﾓﾄｹﾝ","kana_city":"ｶﾐﾏｼｷｸﾞﾝﾔﾏﾄﾁｮｳ","kana_address":"ｼｵﾊﾞﾙ","pref":"熊本県","city":"上益城郡山都町","address":"塩原"},
{"zip_code":"8613454","kana_pref":"ｸﾏﾓﾄｹﾝ","kana_city":"ｶﾐﾏｼｷｸﾞﾝﾔﾏﾄﾁｮｳ","kana_address":"ｼﾏｷ","pref":"熊本県","city":"上益城郡山都町","address":"島木"},
{"zip_code":"8613513","kana_pref":"ｸﾏﾓﾄｹﾝ","kana_city":"ｶﾐﾏｼｷｸﾞﾝﾔﾏﾄﾁｮｳ","kana_address":"ｼﾓｲﾁ","pref":"熊本県","city":"上益城郡山都町","address":"下市"},
{"zip_code":"8613786","kana_pref":"ｸﾏﾓﾄｹﾝ","kana_city":"ｶﾐﾏｼｷｸﾞﾝﾔﾏﾄﾁｮｳ","kana_address":"ｼﾓｶﾞﾜｲﾉ","pref":"熊本県","city":"上益城郡山都町","address":"下川井野"},
{"zip_code":"8613503","kana_pref":"ｸﾏﾓﾄｹﾝ","kana_city":"ｶﾐﾏｼｷｸﾞﾝﾔﾏﾄﾁｮｳ","kana_address":"ｼﾓﾅﾚｲｼ","pref":"熊本県","city":"上益城郡山都町","address":"下名連石"},
{"zip_code":"8613932","kana_pref":"ｸﾏﾓﾄｹﾝ","kana_city":"ｶﾐﾏｼｷｸﾞﾝﾔﾏﾄﾁｮｳ","kana_address":"ｼﾓﾔﾏ","pref":"熊本県","city":"上益城郡山都町","address":"下山"},
{"zip_code":"8613543","kana_pref":"ｸﾏﾓﾄｹﾝ","kana_city":"ｶﾐﾏｼｷｸﾞﾝﾔﾏﾄﾁｮｳ","kana_address":"ｼﾞｮｳﾃﾗ","pref":"熊本県","city":"上益城郡山都町","address":"上寺"},
{"zip_code":"8613514","kana_pref":"ｸﾏﾓﾄｹﾝ","kana_city":"ｶﾐﾏｼｷｸﾞﾝﾔﾏﾄﾁｮｳ","kana_address":"ｼﾞｮｳﾊﾗ","pref":"熊本県","city":"上益城郡山都町","address":"城原"},
{"zip_code":"8613515","kana_pref":"ｸﾏﾓﾄｹﾝ","kana_city":"ｶﾐﾏｼｷｸﾞﾝﾔﾏﾄﾁｮｳ","kana_address":"ｼﾞｮｳﾋﾗ","pref":"熊本県","city":"上益城郡山都町","address":"城平"},
{"zip_code":"8613907","kana_pref":"ｸﾏﾓﾄｹﾝ","kana_city":"ｶﾐﾏｼｷｸﾞﾝﾔﾏﾄﾁｮｳ","kana_address":"ｼﾗｲｼ","pref":"熊本県","city":"上益城郡山都町","address":"白石"},
{"zip_code":"8613522","kana_pref":"ｸﾏﾓﾄｹﾝ","kana_city":"ｶﾐﾏｼｷｸﾞﾝﾔﾏﾄﾁｮｳ","kana_address":"ｼﾗｵﾉ","pref":"熊本県","city":"上益城郡山都町","address":"白小野"},
{"zip_code":"8613664","kana_pref":"ｸﾏﾓﾄｹﾝ","kana_city":"ｶﾐﾏｼｷｸﾞﾝﾔﾏﾄﾁｮｳ","kana_address":"ｼﾗﾌｼﾞ","pref":"熊本県","city":"上益城郡山都町","address":"白藤"},
{"zip_code":"8613663","kana_pref":"ｸﾏﾓﾄｹﾝ","kana_city":"ｶﾐﾏｼｷｸﾞﾝﾔﾏﾄﾁｮｳ","kana_address":"ｼﾝｺ","pref":"熊本県","city":"上益城郡山都町","address":"新小"},
{"zip_code":"8613544","kana_pref":"ｸﾏﾓﾄｹﾝ","kana_city":"ｶﾐﾏｼｷｸﾞﾝﾔﾏﾄﾁｮｳ","kana_address":"ｽｷﾞｷ","pref":"熊本県","city":"上益城郡山都町","address":"杉木"},
{"zip_code":"8613671","kana_pref":"ｸﾏﾓﾄｹﾝ","kana_city":"ｶﾐﾏｼｷｸﾞﾝﾔﾏﾄﾁｮｳ","kana_address":"ｽｹﾞ","pref":"熊本県","city":"上益城郡山都町","address":"菅"},
{"zip_code":"8613911","kana_pref":"ｸﾏﾓﾄｹﾝ","kana_city":"ｶﾐﾏｼｷｸﾞﾝﾔﾏﾄﾁｮｳ","kana_address":"ｽｹﾞｵ","pref":"熊本県","city":"上益城郡山都町","address":"菅尾"},
{"zip_code":"8613805","kana_pref":"ｸﾏﾓﾄｹﾝ","kana_city":"ｶﾐﾏｼｷｸﾞﾝﾔﾏﾄﾁｮｳ","kana_address":"ｽﾊﾞﾙ","pref":"熊本県","city":"上益城郡山都町","address":"須原"},
{"zip_code":"8613523","kana_pref":"ｸﾏﾓﾄｹﾝ","kana_city":"ｶﾐﾏｼｷｸﾞﾝﾔﾏﾄﾁｮｳ","kana_address":"ｾﾞｲ","pref":"熊本県","city":"上益城郡山都町","address":"勢井"},
{"zip_code":"8613516","kana_pref":"ｸﾏﾓﾄｹﾝ","kana_city":"ｶﾐﾏｼｷｸﾞﾝﾔﾏﾄﾁｮｳ","kana_address":"ｾﾝﾀﾞｷ","pref":"熊本県","city":"上益城郡山都町","address":"千滝"},
{"zip_code":"8613452","kana_pref":"ｸﾏﾓﾄｹﾝ","kana_city":"ｶﾐﾏｼｷｸﾞﾝﾔﾏﾄﾁｮｳ","kana_address":"ﾀｵﾉ","pref":"熊本県","city":"上益城郡山都町","address":"田小野"},
{"zip_code":"8613933","kana_pref":"ｸﾏﾓﾄｹﾝ","kana_city":"ｶﾐﾏｼｷｸﾞﾝﾔﾏﾄﾁｮｳ","kana_address":"ﾀｶﾂｼﾞ","pref":"熊本県","city":"上益城郡山都町","address":"高辻"},
{"zip_code":"8613934","kana_pref":"ｸﾏﾓﾄｹﾝ","kana_city":"ｶﾐﾏｼｷｸﾞﾝﾔﾏﾄﾁｮｳ","kana_address":"ﾀｶﾊﾞﾀ","pref":"熊本県","city":"上益城郡山都町","address":"高畑"},
{"zip_code":"8613902","kana_pref":"ｸﾏﾓﾄｹﾝ","kana_city":"ｶﾐﾏｼｷｸﾞﾝﾔﾏﾄﾁｮｳ","kana_address":"ﾀｷｶﾞﾐ","pref":"熊本県","city":"上益城郡山都町","address":"滝上"},
{"zip_code":"8613931","kana_pref":"ｸﾏﾓﾄｹﾝ","kana_city":"ｶﾐﾏｼｷｸﾞﾝﾔﾏﾄﾁｮｳ","kana_address":"ﾀﾁﾊﾞﾅ","pref":"熊本県","city":"上益城郡山都町","address":"橘"},
{"zip_code":"8613785","kana_pref":"ｸﾏﾓﾄｹﾝ","kana_city":"ｶﾐﾏｼｷｸﾞﾝﾔﾏﾄﾁｮｳ","kana_address":"ﾀﾄﾞｺﾛ","pref":"熊本県","city":"上益城郡山都町","address":"田所"},
{"zip_code":"8613927","kana_pref":"ｸﾏﾓﾄｹﾝ","kana_city":"ｶﾐﾏｼｷｸﾞﾝﾔﾏﾄﾁｮｳ","kana_address":"ﾀﾏﾒ","pref":"熊本県","city":"上益城郡山都町","address":"玉目"},
{"zip_code":"8613662","kana_pref":"ｸﾏﾓﾄｹﾝ","kana_city":"ｶﾐﾏｼｷｸﾞﾝﾔﾏﾄﾁｮｳ","kana_address":"ﾀﾖｼ","pref":"熊本県","city":"上益城郡山都町","address":"田吉"},
{"zip_code":"8613673","kana_pref":"ｸﾏﾓﾄｹﾝ","kana_city":"ｶﾐﾏｼｷｸﾞﾝﾔﾏﾄﾁｮｳ","kana_address":"ﾂﾙ","pref":"熊本県","city":"上益城郡山都町","address":"津留"},
{"zip_code":"8613812","kana_pref":"ｸﾏﾓﾄｹﾝ","kana_city":"ｶﾐﾏｼｷｸﾞﾝﾔﾏﾄﾁｮｳ","kana_address":"ﾂﾙｹﾀ","pref":"熊本県","city":"上益城郡山都町","address":"鶴ケ田"},
{"zip_code":"8613908","kana_pref":"ｸﾏﾓﾄｹﾝ","kana_city":"ｶﾐﾏｼｷｸﾞﾝﾔﾏﾄﾁｮｳ","kana_address":"ﾅｶﾞｻｷ","pref":"熊本県","city":"上益城郡山都町","address":"長崎"},
{"zip_code":"8613545","kana_pref":"ｸﾏﾓﾄｹﾝ","kana_city":"ｶﾐﾏｼｷｸﾞﾝﾔﾏﾄﾁｮｳ","kana_address":"ﾅｶﾞﾀ","pref":"熊本県","city":"上益城郡山都町","address":"長田"},
{"zip_code":"8613928","kana_pref":"ｸﾏﾓﾄｹﾝ","kana_city":"ｶﾐﾏｼｷｸﾞﾝﾔﾏﾄﾁｮｳ","kana_address":"ﾅｶﾞﾀﾆ","pref":"熊本県","city":"上益城郡山都町","address":"長谷"},
{"zip_code":"8613661","kana_pref":"ｸﾏﾓﾄｹﾝ","kana_city":"ｶﾐﾏｼｷｸﾞﾝﾔﾏﾄﾁｮｳ","kana_address":"ﾅｶﾞﾊﾗ","pref":"熊本県","city":"上益城郡山都町","address":"長原"},
{"zip_code":"8613783","kana_pref":"ｸﾏﾓﾄｹﾝ","kana_city":"ｶﾐﾏｼｷｸﾞﾝﾔﾏﾄﾁｮｳ","kana_address":"ﾅﾘｷﾞﾐ","pref":"熊本県","city":"上益城郡山都町","address":"成君"},
{"zip_code":"8613922","kana_pref":"ｸﾏﾓﾄｹﾝ","kana_city":"ｶﾐﾏｼｷｸﾞﾝﾔﾏﾄﾁｮｳ","kana_address":"ﾆｾﾓﾄ","pref":"熊本県","city":"上益城郡山都町","address":"二瀬本"},
{"zip_code":"8613804","kana_pref":"ｸﾏﾓﾄｹﾝ","kana_city":"ｶﾐﾏｼｷｸﾞﾝﾔﾏﾄﾁｮｳ","kana_address":"ﾇｷﾊﾙ","pref":"熊本県","city":"上益城郡山都町","address":"貫原"},
{"zip_code":"8613787","kana_pref":"ｸﾏﾓﾄｹﾝ","kana_city":"ｶﾐﾏｼｷｸﾞﾝﾔﾏﾄﾁｮｳ","kana_address":"ﾉｼﾞﾘ","pref":"熊本県","city":"上益城郡山都町","address":"野尻"},
{"zip_code":"8613517","kana_pref":"ｸﾏﾓﾄｹﾝ","kana_city":"ｶﾐﾏｼｷｸﾞﾝﾔﾏﾄﾁｮｳ","kana_address":"ﾊﾀ","pref":"熊本県","city":"上益城郡山都町","address":"畑"},
{"zip_code":"8613921","kana_pref":"ｸﾏﾓﾄｹﾝ","kana_city":"ｶﾐﾏｼｷｸﾞﾝﾔﾏﾄﾁｮｳ","kana_address":"ﾊﾁﾎﾞｸ","pref":"熊本県","city":"上益城郡山都町","address":"八木"},
{"zip_code":"8613914","kana_pref":"ｸﾏﾓﾄｹﾝ","kana_city":"ｶﾐﾏｼｷｸﾞﾝﾔﾏﾄﾁｮｳ","kana_address":"ﾊﾅｶﾞﾐ","pref":"熊本県","city":"上益城郡山都町","address":"花上"},
{"zip_code":"8613518","kana_pref":"ｸﾏﾓﾄｹﾝ","kana_city":"ｶﾐﾏｼｷｸﾞﾝﾔﾏﾄﾁｮｳ","kana_address":"ﾊﾏﾏﾁ","pref":"熊本県","city":"上益城郡山都町","address":"浜町"},
{"zip_code":"8613453","kana_pref":"ｸﾏﾓﾄｹﾝ","kana_city":"ｶﾐﾏｼｷｸﾞﾝﾔﾏﾄﾁｮｳ","kana_address":"ﾊﾗ","pref":"熊本県","city":"上益城郡山都町","address":"原"},
{"zip_code":"8613935","kana_pref":"ｸﾏﾓﾄｹﾝ","kana_city":"ｶﾐﾏｼｷｸﾞﾝﾔﾏﾄﾁｮｳ","kana_address":"ﾋｶﾞｼﾀｹﾊﾞﾙ","pref":"熊本県","city":"上益城郡山都町","address":"東竹原"},
{"zip_code":"8613524","kana_pref":"ｸﾏﾓﾄｹﾝ","kana_city":"ｶﾐﾏｼｷｸﾞﾝﾔﾏﾄﾁｮｳ","kana_address":"ﾌｼﾞｷ","pref":"熊本県","city":"上益城郡山都町","address":"藤木"},
{"zip_code":"8613924","kana_pref":"ｸﾏﾓﾄｹﾝ","kana_city":"ｶﾐﾏｼｷｸﾞﾝﾔﾏﾄﾁｮｳ","kana_address":"ﾌﾀﾂﾞﾙ","pref":"熊本県","city":"上益城郡山都町","address":"二津留"},
{"zip_code":"8613904","kana_pref":"ｸﾏﾓﾄｹﾝ","kana_city":"ｶﾐﾏｼｷｸﾞﾝﾔﾏﾄﾁｮｳ","kana_address":"ﾎｳｶﾞﾉ","pref":"熊本県","city":"上益城郡山都町","address":"方ケ野"},
{"zip_code":"8613835","kana_pref":"ｸﾏﾓﾄｹﾝ","kana_city":"ｶﾐﾏｼｷｸﾞﾝﾔﾏﾄﾁｮｳ","kana_address":"ﾎﾄｹﾊﾞﾙ","pref":"熊本県","city":"上益城郡山都町","address":"仏原"},
{"zip_code":"8613525","kana_pref":"ｸﾏﾓﾄｹﾝ","kana_city":"ｶﾐﾏｼｷｸﾞﾝﾔﾏﾄﾁｮｳ","kana_address":"ﾏｷﾉ","pref":"熊本県","city":"上益城郡山都町","address":"牧野"},
{"zip_code":"8613901","kana_pref":"ｸﾏﾓﾄｹﾝ","kana_city":"ｶﾐﾏｼｷｸﾞﾝﾔﾏﾄﾁｮｳ","kana_address":"ﾏﾐﾊﾗ","pref":"熊本県","city":"上益城郡山都町","address":"馬見原"},
{"zip_code":"8613526","kana_pref":"ｸﾏﾓﾄｹﾝ","kana_city":"ｶﾐﾏｼｷｸﾞﾝﾔﾏﾄﾁｮｳ","kana_address":"ﾏﾝｻﾞｶ","pref":"熊本県","city":"上益城郡山都町","address":"万坂"},
{"zip_code":"8613845","kana_pref":"ｸﾏﾓﾄｹﾝ","kana_city":"ｶﾐﾏｼｷｸﾞﾝﾔﾏﾄﾁｮｳ","kana_address":"ﾐﾄﾞﾘｶﾜ","pref":"熊本県","city":"上益城郡山都町","address":"緑川"},
{"zip_code":"8613546","kana_pref":"ｸﾏﾓﾄｹﾝ","kana_city":"ｶﾐﾏｼｷｸﾞﾝﾔﾏﾄﾁｮｳ","kana_address":"ﾐﾅﾐﾀﾞ","pref":"熊本県","city":"上益城郡山都町","address":"南田"},
{"zip_code":"8613672","kana_pref":"ｸﾏﾓﾄｹﾝ","kana_city":"ｶﾐﾏｼｷｸﾞﾝﾔﾏﾄﾁｮｳ","kana_address":"ﾒﾏﾙ","pref":"熊本県","city":"上益城郡山都町","address":"目丸"},
{"zip_code":"8613833","kana_pref":"ｸﾏﾓﾄｹﾝ","kana_city":"ｶﾐﾏｼｷｸﾞﾝﾔﾏﾄﾁｮｳ","kana_address":"ﾔｽｶﾀ","pref":"熊本県","city":"上益城郡山都町","address":"安方"},
{"zip_code":"8613903","kana_pref":"ｸﾏﾓﾄｹﾝ","kana_city":"ｶﾐﾏｼｷｸﾞﾝﾔﾏﾄﾁｮｳ","kana_address":"ﾔﾅｲﾊﾞﾙ","pref":"熊本県","city":"上益城郡山都町","address":"柳井原"},
{"zip_code":"8613936","kana_pref":"ｸﾏﾓﾄｹﾝ","kana_city":"ｶﾐﾏｼｷｸﾞﾝﾔﾏﾄﾁｮｳ","kana_address":"ﾔﾅｷﾞ","pref":"熊本県","city":"上益城郡山都町","address":"柳"},
{"zip_code":"8613547","kana_pref":"ｸﾏﾓﾄｹﾝ","kana_city":"ｶﾐﾏｼｷｸﾞﾝﾔﾏﾄﾁｮｳ","kana_address":"ﾔﾏﾀﾞ","pref":"熊本県","city":"上益城郡山都町","address":"山田"},
{"zip_code":"8613534","kana_pref":"ｸﾏﾓﾄｹﾝ","kana_city":"ｶﾐﾏｼｷｸﾞﾝﾔﾏﾄﾁｮｳ","kana_address":"ﾕﾉｷ","pref":"熊本県","city":"上益城郡山都町","address":"柚木"},
{"zip_code":"8613806","kana_pref":"ｸﾏﾓﾄｹﾝ","kana_city":"ｶﾐﾏｼｷｸﾞﾝﾔﾏﾄﾁｮｳ","kana_address":"ﾖﾈｵ","pref":"熊本県","city":"上益城郡山都町","address":"米生"},
{"zip_code":"8613912","kana_pref":"ｸﾏﾓﾄｹﾝ","kana_city":"ｶﾐﾏｼｷｸﾞﾝﾔﾏﾄﾁｮｳ","kana_address":"ﾖﾈｻｺ","pref":"熊本県","city":"上益城郡山都町","address":"米迫"}]}