{"zip_code":[
{"zip_code":"8630000","kana_pref":"ｸﾏﾓﾄｹﾝ","kana_city":"ｱﾏｸｻｼ","kana_address":"","pref":"熊本県","city":"天草市","address":""},
{"zip_code":"8632172","kana_pref":"ｸﾏﾓﾄｹﾝ","kana_city":"ｱﾏｸｻｼ","kana_address":"ｱｻﾋﾏﾁ","pref":"熊本県","city":"天草市","address":"旭町"},
{"zip_code":"8632801","kana_pref":"ｸﾏﾓﾄｹﾝ","kana_city":"ｱﾏｸｻｼ","kana_address":"ｱﾏｸｻﾏﾁｵｵｴ","pref":"熊本県","city":"天草市","address":"天草町大江"},
{"zip_code":"8632801","kana_pref":"ｸﾏﾓﾄｹﾝ","kana_city":"ｱﾏｸｻｼ","kana_address":"ｱﾏｸｻﾏﾁｵｵｴｲｸｻｶﾞｳﾗ","pref":"熊本県","city":"天草市","address":"天草町大江軍浦"},
{"zip_code":"8631401","kana_pref":"ｸﾏﾓﾄｹﾝ","kana_city":"ｱﾏｸｻｼ","kana_address":"ｱﾏｸｻﾏﾁｵｵｴﾑｺｳ","pref":"熊本県","city":"天草市","address":"天草町大江向"},
{"zip_code":"8632803","kana_pref":"ｸﾏﾓﾄｹﾝ","kana_city":"ｱﾏｸｻｼ","kana_address":"ｱﾏｸｻﾏﾁｼﾓﾀﾞｷﾀ","pref":"熊本県","city":"天草市","address":"天草町下田北"},
{"zip_code":"8632802","kana_pref":"ｸﾏﾓﾄｹﾝ","kana_city":"ｱﾏｸｻｼ","kana_address":"ｱﾏｸｻﾏﾁｼﾓﾀﾞﾐﾅﾐ","pref":"熊本県","city":"天草市","address":"天草町下田南"},
{"zip_code":"8631205","kana_pref":"ｸﾏﾓﾄｹﾝ","kana_city":"ｱﾏｸｻｼ","kana_address":"ｱﾏｸｻﾏﾁﾀｶﾊﾏｷﾀ","pref":"熊本県","city":"天草市","address":"天草町高浜北"},
{"zip_code":"8632805","kana_pref":"ｸﾏﾓﾄｹﾝ","kana_city":"ｱﾏｸｻｼ","kana_address":"ｱﾏｸｻﾏﾁﾀｶﾊﾏｷﾀ","pref":"熊本県","city":"天草市","address":"天草町高浜北"},
{"zip_code":"8632804","kana_pref":"ｸﾏﾓﾄｹﾝ","kana_city":"ｱﾏｸｻｼ","kana_address":"ｱﾏｸｻﾏﾁﾀｶﾊﾏﾐﾅﾐ","pref":"熊本県","city":"天草市","address":"天草町高浜南"},
{"zip_code":"8632806","kana_pref":"ｸﾏﾓﾄｹﾝ","kana_city":"ｱﾏｸｻｼ","kana_address":"ｱﾏｸｻﾏﾁﾌｸﾚｷﾞ","pref":"熊本県","city":"天草市","address":"天草町福連木"},
{"zip_code":"8632331","kana_pref":"ｸﾏﾓﾄｹﾝ","kana_city":"ｱﾏｸｻｼ","kana_address":"ｲﾂﾜﾏﾁｵﾆｲｹ","pref":"熊本県","city":"天草市","address":"五和町鬼池"},
{"zip_code":"8632301","kana_pref":"ｸﾏﾓﾄｹﾝ","kana_city":"ｱﾏｸｻｼ","kana_address":"ｲﾂﾜﾏﾁｺﾞﾘｮｳ","pref":"熊本県","city":"天草市","address":"五和町御領"},
{"zip_code":"8632201","kana_pref":"ｸﾏﾓﾄｹﾝ","kana_city":"ｱﾏｸｻｼ","kana_address":"ｲﾂﾜﾏﾁｺﾞﾘｮｳ","pref":"熊本県","city":"天草市","address":"五和町御領"},
{"zip_code":"8632114","kana_pref":"ｸﾏﾓﾄｹﾝ","kana_city":"ｱﾏｸｻｼ","kana_address":"ｲﾂﾜﾏﾁｼﾞｮｳｶﾞﾜﾗ","pref":"熊本県","city":"天草市","address":"五和町城河原"},
{"zip_code":"8632424","kana_pref":"ｸﾏﾓﾄｹﾝ","kana_city":"ｱﾏｸｻｼ","kana_address":"ｲﾂﾜﾏﾁﾃﾉ","pref":"熊本県","city":"天草市","address":"五和町手野"},
{"zip_code":"8632421","kana_pref":"ｸﾏﾓﾄｹﾝ","kana_city":"ｱﾏｸｻｼ","kana_address":"ｲﾂﾜﾏﾁﾌﾀｴ","pref":"熊本県","city":"天草市","address":"五和町二江"},
{"zip_code":"8630013","kana_pref":"ｸﾏﾓﾄｹﾝ","kana_city":"ｱﾏｸｻｼ","kana_address":"ｲﾏｶﾞﾏｼﾝﾏﾁ","pref":"熊本県","city":"天草市","address":"今釜新町"},
{"zip_code":"8630012","kana_pref":"ｸﾏﾓﾄｹﾝ","kana_city":"ｱﾏｸｻｼ","kana_address":"ｲﾏｶﾞﾏﾏﾁ","pref":"熊本県","city":"天草市","address":"今釜町"},
{"zip_code":"8631901","kana_pref":"ｸﾏﾓﾄｹﾝ","kana_city":"ｱﾏｸｻｼ","kana_address":"ｳｼﾌﾞｶﾏﾁ","pref":"熊本県","city":"天草市","address":"牛深町"},
{"zip_code":"8630032","kana_pref":"ｸﾏﾓﾄｹﾝ","kana_city":"ｱﾏｸｻｼ","kana_address":"ｵｵﾀﾏﾁ","pref":"熊本県","city":"天草市","address":"太田町"},
{"zip_code":"8630015","kana_pref":"ｸﾏﾓﾄｹﾝ","kana_city":"ｱﾏｸｻｼ","kana_address":"ｵｵﾊﾏﾏﾁ","pref":"熊本県","city":"天草市","address":"大浜町"},
{"zip_code":"8631721","kana_pref":"ｸﾏﾓﾄｹﾝ","kana_city":"ｱﾏｸｻｼ","kana_address":"ｵﾆｷﾏﾁ","pref":"熊本県","city":"天草市","address":"魚貫町"},
{"zip_code":"8630043","kana_pref":"ｸﾏﾓﾄｹﾝ","kana_city":"ｱﾏｸｻｼ","kana_address":"ｶﾒﾊﾞﾏﾁｶﾒｶﾞﾜ","pref":"熊本県","city":"天草市","address":"亀場町亀川"},
{"zip_code":"8630046","kana_pref":"ｸﾏﾓﾄｹﾝ","kana_city":"ｱﾏｸｻｼ","kana_address":"ｶﾒﾊﾞﾏﾁｼﾞｷﾊﾞ","pref":"熊本県","city":"天草市","address":"亀場町食場"},
{"zip_code":"8631201","kana_pref":"ｸﾏﾓﾄｹﾝ","kana_city":"ｱﾏｸｻｼ","kana_address":"ｶﾜｳﾗﾏﾁｲﾏﾀﾞ","pref":"熊本県","city":"天草市","address":"河浦町今田"},
{"zip_code":"8631403","kana_pref":"ｸﾏﾓﾄｹﾝ","kana_city":"ｱﾏｸｻｼ","kana_address":"ｶﾜｳﾗﾏﾁｲﾏﾄﾐ(1933","pref":"熊本県","city":"天草市","address":"河浦町今富（１９３３"},
{"zip_code":"8631403","kana_pref":"ｸﾏﾓﾄｹﾝ","kana_city":"ｱﾏｸｻｼ","kana_address":"1939","pref":"熊本県","city":"天草市","address":"１９３９"},
{"zip_code":"8631403","kana_pref":"ｸﾏﾓﾄｹﾝ","kana_city":"ｱﾏｸｻｼ","kana_address":"1945","pref":"熊本県","city":"天草市","address":"１９４５"},
{"zip_code":"8631403","kana_pref":"ｸﾏﾓﾄｹﾝ","kana_city":"ｱﾏｸｻｼ","kana_address":"1955-4","pref":"熊本県","city":"天草市","address":"１９５５−４"},
{"zip_code":"8631403","kana_pref":"ｸﾏﾓﾄｹﾝ","kana_city":"ｱﾏｸｻｼ","kana_address":"1960","pref":"熊本県","city":"天草市","address":"１９６０"},
{"zip_code":"8631403","kana_pref":"ｸﾏﾓﾄｹﾝ","kana_city":"ｱﾏｸｻｼ","kana_address":"","pref":"熊本県","city":"天草市","address":""},
{"zip_code":"8631403","kana_pref":"ｸﾏﾓﾄｹﾝ","kana_city":"ｱﾏｸｻｼ","kana_address":"1970","pref":"熊本県","city":"天草市","address":"１９７０"},
{"zip_code":"8631403","kana_pref":"ｸﾏﾓﾄｹﾝ","kana_city":"ｱﾏｸｻｼ","kana_address":"1974","pref":"熊本県","city":"天草市","address":"１９７４"},
{"zip_code":"8631403","kana_pref":"ｸﾏﾓﾄｹﾝ","kana_city":"ｱﾏｸｻｼ","kana_address":"1976","pref":"熊本県","city":"天草市","address":"１９７６"},
{"zip_code":"8631403","kana_pref":"ｸﾏﾓﾄｹﾝ","kana_city":"ｱﾏｸｻｼ","kana_address":"1983","pref":"熊本県","city":"天草市","address":"１９８３"},
{"zip_code":"8631403","kana_pref":"ｸﾏﾓﾄｹﾝ","kana_city":"ｱﾏｸｻｼ","kana_address":"1988-3","pref":"熊本県","city":"天草市","address":"１９８８−３"},
{"zip_code":"8631403","kana_pref":"ｸﾏﾓﾄｹﾝ","kana_city":"ｱﾏｸｻｼ","kana_address":"1990-5","pref":"熊本県","city":"天草市","address":"１９９０−５"},
{"zip_code":"8631403","kana_pref":"ｸﾏﾓﾄｹﾝ","kana_city":"ｱﾏｸｻｼ","kana_address":"","pref":"熊本県","city":"天草市","address":""},
{"zip_code":"8631403","kana_pref":"ｸﾏﾓﾄｹﾝ","kana_city":"ｱﾏｸｻｼ","kana_address":"2003","pref":"熊本県","city":"天草市","address":"２００３"},
{"zip_code":"8631403","kana_pref":"ｸﾏﾓﾄｹﾝ","kana_city":"ｱﾏｸｻｼ","kana_address":"2051)","pref":"熊本県","city":"天草市","address":"２０５１）"},
{"zip_code":"8631203","kana_pref":"ｸﾏﾓﾄｹﾝ","kana_city":"ｱﾏｸｻｼ","kana_address":"ｶﾜｳﾗﾏﾁｲﾏﾄﾐ","pref":"熊本県","city":"天草市","address":"河浦町今富"},
{"zip_code":"8631202","kana_pref":"ｸﾏﾓﾄｹﾝ","kana_city":"ｱﾏｸｻｼ","kana_address":"ｶﾜｳﾗﾏﾁｶﾜｳﾗ","pref":"熊本県","city":"天草市","address":"河浦町河浦"},
{"zip_code":"8631404","kana_pref":"ｸﾏﾓﾄｹﾝ","kana_city":"ｱﾏｸｻｼ","kana_address":"ｶﾜｳﾗﾏﾁｻｷﾂ","pref":"熊本県","city":"天草市","address":"河浦町崎津"},
{"zip_code":"8631204","kana_pref":"ｸﾏﾓﾄｹﾝ","kana_city":"ｱﾏｸｻｼ","kana_address":"ｶﾜｳﾗﾏﾁｻｷﾂ","pref":"熊本県","city":"天草市","address":"河浦町崎津"},
{"zip_code":"8631215","kana_pref":"ｸﾏﾓﾄｹﾝ","kana_city":"ｱﾏｸｻｼ","kana_address":"ｶﾜｳﾗﾏﾁｼﾗｷｶﾜﾁ","pref":"熊本県","city":"天草市","address":"河浦町白木河内"},
{"zip_code":"8631216","kana_pref":"ｸﾏﾓﾄｹﾝ","kana_city":"ｱﾏｸｻｼ","kana_address":"ｶﾜｳﾗﾏﾁｼﾝｺﾞｳ","pref":"熊本県","city":"天草市","address":"河浦町新合"},
{"zip_code":"8631211","kana_pref":"ｸﾏﾓﾄｹﾝ","kana_city":"ｱﾏｸｻｼ","kana_address":"ｶﾜｳﾗﾏﾁﾀﾁﾊﾗ","pref":"熊本県","city":"天草市","address":"河浦町立原"},
{"zip_code":"8631214","kana_pref":"ｸﾏﾓﾄｹﾝ","kana_city":"ｱﾏｸｻｼ","kana_address":"ｶﾜｳﾗﾏﾁﾋｻﾄﾞﾒ","pref":"熊本県","city":"天草市","address":"河浦町久留"},
{"zip_code":"8631212","kana_pref":"ｸﾏﾓﾄｹﾝ","kana_city":"ｱﾏｸｻｼ","kana_address":"ｶﾜｳﾗﾏﾁﾐﾔﾉｶﾜﾁ","pref":"熊本県","city":"天草市","address":"河浦町宮野河内"},
{"zip_code":"8631213","kana_pref":"ｸﾏﾓﾄｹﾝ","kana_city":"ｱﾏｸｻｼ","kana_address":"ｶﾜｳﾗﾏﾁﾛｷﾞ","pref":"熊本県","city":"天草市","address":"河浦町路木"},
{"zip_code":"8630036","kana_pref":"ｸﾏﾓﾄｹﾝ","kana_city":"ｱﾏｸｻｼ","kana_address":"ｶﾜﾗｼﾝﾏﾁ","pref":"熊本県","city":"天草市","address":"川原新町"},
{"zip_code":"8630024","kana_pref":"ｸﾏﾓﾄｹﾝ","kana_city":"ｱﾏｸｻｼ","kana_address":"ｶﾜﾗﾏﾁ","pref":"熊本県","city":"天草市","address":"川原町"},
{"zip_code":"8630011","kana_pref":"ｸﾏﾓﾄｹﾝ","kana_city":"ｱﾏｸｻｼ","kana_address":"ｷﾀﾊﾏﾏﾁ","pref":"熊本県","city":"天草市","address":"北浜町"},
{"zip_code":"8630049","kana_pref":"ｸﾏﾓﾄｹﾝ","kana_city":"ｱﾏｸｻｼ","kana_address":"ｷﾀﾊﾗﾏﾁ","pref":"熊本県","city":"天草市","address":"北原町"},
{"zip_code":"8630044","kana_pref":"ｸﾏﾓﾄｹﾝ","kana_city":"ｱﾏｸｻｼ","kana_address":"ｸｽｳﾗﾏﾁ","pref":"熊本県","city":"天草市","address":"楠浦町"},
{"zip_code":"8631902","kana_pref":"ｸﾏﾓﾄｹﾝ","kana_city":"ｱﾏｸｻｼ","kana_address":"ｸﾀﾏﾏﾁ","pref":"熊本県","city":"天草市","address":"久玉町"},
{"zip_code":"8630019","kana_pref":"ｸﾏﾓﾄｹﾝ","kana_city":"ｱﾏｸｻｼ","kana_address":"ｺﾏﾂﾊﾞﾗﾏﾁ","pref":"熊本県","city":"天草市","address":"小松原町"},
{"zip_code":"8632171","kana_pref":"ｸﾏﾓﾄｹﾝ","kana_city":"ｱﾏｸｻｼ","kana_address":"ｻｲﾂﾏﾁ","pref":"熊本県","city":"天草市","address":"佐伊津町"},
{"zip_code":"8630022","kana_pref":"ｸﾏﾓﾄｹﾝ","kana_city":"ｱﾏｸｻｼ","kana_address":"ｻｶｴﾏﾁ","pref":"熊本県","city":"天草市","address":"栄町"},
{"zip_code":"8630041","kana_pref":"ｸﾏﾓﾄｹﾝ","kana_city":"ｱﾏｸｻｼ","kana_address":"ｼｶｷﾏﾁ","pref":"熊本県","city":"天草市","address":"志柿町"},
{"zip_code":"8630016","kana_pref":"ｸﾏﾓﾄｹﾝ","kana_city":"ｱﾏｸｻｼ","kana_address":"ｼﾞｮｳｶﾏﾁ","pref":"熊本県","city":"天草市","address":"城下町"},
{"zip_code":"8630034","kana_pref":"ｸﾏﾓﾄｹﾝ","kana_city":"ｱﾏｸｻｼ","kana_address":"ｼﾞｮｳﾅﾝﾏﾁ","pref":"熊本県","city":"天草市","address":"浄南町"},
{"zip_code":"8631111","kana_pref":"ｸﾏﾓﾄｹﾝ","kana_city":"ｱﾏｸｻｼ","kana_address":"ｼﾝﾜﾏﾁｲｶﾘｲｼ","pref":"熊本県","city":"天草市","address":"新和町碇石"},
{"zip_code":"8630102","kana_pref":"ｸﾏﾓﾄｹﾝ","kana_city":"ｱﾏｸｻｼ","kana_address":"ｼﾝﾜﾏﾁｵｵﾀｵ","pref":"熊本県","city":"天草市","address":"新和町大多尾"},
{"zip_code":"8630103","kana_pref":"ｸﾏﾓﾄｹﾝ","kana_city":"ｱﾏｸｻｼ","kana_address":"ｼﾝﾜﾏﾁｵｵﾐﾔｼﾞ","pref":"熊本県","city":"天草市","address":"新和町大宮地"},
{"zip_code":"8630101","kana_pref":"ｸﾏﾓﾄｹﾝ","kana_city":"ｱﾏｸｻｼ","kana_address":"ｼﾝﾜﾏﾁｺﾐﾔｼﾞ","pref":"熊本県","city":"天草市","address":"新和町小宮地"},
{"zip_code":"8631112","kana_pref":"ｸﾏﾓﾄｹﾝ","kana_city":"ｱﾏｸｻｼ","kana_address":"ｼﾝﾜﾏﾁﾅｶﾀﾞ","pref":"熊本県","city":"天草市","address":"新和町中田"},
{"zip_code":"8630037","kana_pref":"ｸﾏﾓﾄｹﾝ","kana_city":"ｱﾏｸｻｼ","kana_address":"ｽﾜﾏﾁ","pref":"熊本県","city":"天草市","address":"諏訪町"},
{"zip_code":"8630042","kana_pref":"ｸﾏﾓﾄｹﾝ","kana_city":"ｱﾏｸｻｼ","kana_address":"ｾﾄﾞﾏﾁ","pref":"熊本県","city":"天草市","address":"瀬戸町"},
{"zip_code":"8630023","kana_pref":"ｸﾏﾓﾄｹﾝ","kana_city":"ｱﾏｸｻｼ","kana_address":"ﾁｭｳｵｳｼﾝﾏﾁ","pref":"熊本県","city":"天草市","address":"中央新町"},
{"zip_code":"8630048","kana_pref":"ｸﾏﾓﾄｹﾝ","kana_city":"ｱﾏｸｻｼ","kana_address":"ﾅｶﾑﾗﾏﾁ","pref":"熊本県","city":"天草市","address":"中村町"},
{"zip_code":"8630045","kana_pref":"ｸﾏﾓﾄｹﾝ","kana_city":"ｱﾏｸｻｼ","kana_address":"ﾊｼﾞｳﾄﾏﾁ","pref":"熊本県","city":"天草市","address":"枦宇土町"},
{"zip_code":"8630047","kana_pref":"ｸﾏﾓﾄｹﾝ","kana_city":"ｱﾏｸｻｼ","kana_address":"ﾊﾁﾏﾝﾏﾁ","pref":"熊本県","city":"天草市","address":"八幡町"},
{"zip_code":"8630018","kana_pref":"ｸﾏﾓﾄｹﾝ","kana_city":"ｱﾏｸｻｼ","kana_address":"ﾊﾏｻｷﾏﾁ","pref":"熊本県","city":"天草市","address":"浜崎町"},
{"zip_code":"8630014","kana_pref":"ｸﾏﾓﾄｹﾝ","kana_city":"ｱﾏｸｻｼ","kana_address":"ﾋｶﾞｼﾊﾏﾏﾁ","pref":"熊本県","city":"天草市","address":"東浜町"},
{"zip_code":"8630033","kana_pref":"ｸﾏﾓﾄｹﾝ","kana_city":"ｱﾏｸｻｼ","kana_address":"ﾋｶﾞｼﾏﾁ","pref":"熊本県","city":"天草市","address":"東町"},
{"zip_code":"8631511","kana_pref":"ｸﾏﾓﾄｹﾝ","kana_city":"ｱﾏｸｻｼ","kana_address":"ﾌｶﾐﾏﾁ","pref":"熊本県","city":"天草市","address":"深海町"},
{"zip_code":"8631432","kana_pref":"ｸﾏﾓﾄｹﾝ","kana_city":"ｱﾏｸｻｼ","kana_address":"ﾌﾀｳﾗﾏﾁｶﾒｳﾗ","pref":"熊本県","city":"天草市","address":"二浦町亀浦"},
{"zip_code":"8631431","kana_pref":"ｸﾏﾓﾄｹﾝ","kana_city":"ｱﾏｸｻｼ","kana_address":"ﾌﾀｳﾗﾏﾁﾊﾔｳﾗ","pref":"熊本県","city":"天草市","address":"二浦町早浦"},
{"zip_code":"8630017","kana_pref":"ｸﾏﾓﾄｹﾝ","kana_city":"ｱﾏｸｻｼ","kana_address":"ﾌﾈﾉｵﾏﾁ","pref":"熊本県","city":"天草市","address":"船之尾町"},
{"zip_code":"8630025","kana_pref":"ｸﾏﾓﾄｹﾝ","kana_city":"ｱﾏｸｻｼ","kana_address":"ﾌﾙｶﾜﾏﾁ","pref":"熊本県","city":"天草市","address":"古川町"},
{"zip_code":"8630001","kana_pref":"ｸﾏﾓﾄｹﾝ","kana_city":"ｱﾏｸｻｼ","kana_address":"ﾎﾝﾄﾞﾏﾁﾋﾛｾ","pref":"熊本県","city":"天草市","address":"本渡町広瀬"},
{"zip_code":"8630003","kana_pref":"ｸﾏﾓﾄｹﾝ","kana_city":"ｱﾏｸｻｼ","kana_address":"ﾎﾝﾄﾞﾏﾁﾎﾝﾄﾞ","pref":"熊本県","city":"天草市","address":"本渡町本渡"},
{"zip_code":"8630002","kana_pref":"ｸﾏﾓﾄｹﾝ","kana_city":"ｱﾏｸｻｼ","kana_address":"ﾎﾝﾄﾞﾏﾁﾎﾝﾄﾊﾞﾊﾞ","pref":"熊本県","city":"天草市","address":"本渡町本戸馬場"},
{"zip_code":"8630004","kana_pref":"ｸﾏﾓﾄｹﾝ","kana_city":"ｱﾏｸｻｼ","kana_address":"ﾎﾝﾄﾞﾏﾁﾓﾄｲｽﾞﾐ","pref":"熊本県","city":"天草市","address":"本渡町本泉"},
{"zip_code":"8630006","kana_pref":"ｸﾏﾓﾄｹﾝ","kana_city":"ｱﾏｸｻｼ","kana_address":"ﾎﾝﾏﾁｼﾓｶﾞﾜﾁ","pref":"熊本県","city":"天草市","address":"本町下河内"},
{"zip_code":"8630005","kana_pref":"ｸﾏﾓﾄｹﾝ","kana_city":"ｱﾏｸｻｼ","kana_address":"ﾎﾝﾏﾁｼﾝｷｭｳ","pref":"熊本県","city":"天草市","address":"本町新休"},
{"zip_code":"8630007","kana_pref":"ｸﾏﾓﾄｹﾝ","kana_city":"ｱﾏｸｻｼ","kana_address":"ﾎﾝﾏﾁﾎﾝ","pref":"熊本県","city":"天草市","address":"本町本"},
{"zip_code":"8630050","kana_pref":"ｸﾏﾓﾄｹﾝ","kana_city":"ｱﾏｸｻｼ","kana_address":"ﾏﾙｵﾏﾁ","pref":"熊本県","city":"天草市","address":"丸尾町"},
{"zip_code":"8630021","kana_pref":"ｸﾏﾓﾄｹﾝ","kana_city":"ｱﾏｸｻｼ","kana_address":"ﾐﾅﾄﾏﾁ","pref":"熊本県","city":"天草市","address":"港町"},
{"zip_code":"8630031","kana_pref":"ｸﾏﾓﾄｹﾝ","kana_city":"ｱﾏｸｻｼ","kana_address":"ﾐﾅﾐｼﾝﾏﾁ","pref":"熊本県","city":"天草市","address":"南新町"},
{"zip_code":"8630038","kana_pref":"ｸﾏﾓﾄｹﾝ","kana_city":"ｱﾏｸｻｼ","kana_address":"ﾐﾅﾐﾏﾁ","pref":"熊本県","city":"天草市","address":"南町"},
{"zip_code":"8631161","kana_pref":"ｸﾏﾓﾄｹﾝ","kana_city":"ｱﾏｸｻｼ","kana_address":"ﾐﾔｼﾞﾀﾞｹﾏﾁ","pref":"熊本県","city":"天草市","address":"宮地岳町"},
{"zip_code":"8630035","kana_pref":"ｸﾏﾓﾄｹﾝ","kana_city":"ｱﾏｸｻｼ","kana_address":"ﾔﾏﾉﾃﾏﾁ","pref":"熊本県","city":"天草市","address":"山の手町"},
{"zip_code":"8632500","kana_pref":"ｸﾏﾓﾄｹﾝ","kana_city":"ｱﾏｸｻｸﾞﾝﾚｲﾎｸﾏﾁ","kana_address":"","pref":"熊本県","city":"天草郡苓北町","address":""},
{"zip_code":"8632505","kana_pref":"ｸﾏﾓﾄｹﾝ","kana_city":"ｱﾏｸｻｸﾞﾝﾚｲﾎｸﾏﾁ","kana_address":"ｳﾁﾀﾞ","pref":"熊本県","city":"天草郡苓北町","address":"内田"},
{"zip_code":"8632502","kana_pref":"ｸﾏﾓﾄｹﾝ","kana_city":"ｱﾏｸｻｸﾞﾝﾚｲﾎｸﾏﾁ","kana_address":"ｺｳﾂﾌｶｴ","pref":"熊本県","city":"天草郡苓北町","address":"上津深江"},
{"zip_code":"8632501","kana_pref":"ｸﾏﾓﾄｹﾝ","kana_city":"ｱﾏｸｻｸﾞﾝﾚｲﾎｸﾏﾁ","kana_address":"ｻｶｾｶﾞﾜ","pref":"熊本県","city":"天草郡苓北町","address":"坂瀬川"},
{"zip_code":"8632503","kana_pref":"ｸﾏﾓﾄｹﾝ","kana_city":"ｱﾏｸｻｸﾞﾝﾚｲﾎｸﾏﾁ","kana_address":"ｼｷ","pref":"熊本県","city":"天草郡苓北町","address":"志岐"},
{"zip_code":"8632506","kana_pref":"ｸﾏﾓﾄｹﾝ","kana_city":"ｱﾏｸｻｸﾞﾝﾚｲﾎｸﾏﾁ","kana_address":"ｼﾗｷｵ","pref":"熊本県","city":"天草郡苓北町","address":"白木尾"},
{"zip_code":"8632504","kana_pref":"ｸﾏﾓﾄｹﾝ","kana_city":"ｱﾏｸｻｸﾞﾝﾚｲﾎｸﾏﾁ","kana_address":"ﾄｼｶﾗ","pref":"熊本県","city":"天草郡苓北町","address":"年柄"},
{"zip_code":"8632507","kana_pref":"ｸﾏﾓﾄｹﾝ","kana_city":"ｱﾏｸｻｸﾞﾝﾚｲﾎｸﾏﾁ","kana_address":"ﾄﾐｵｶ","pref":"熊本県","city":"天草郡苓北町","address":"富岡"},
{"zip_code":"8632611","kana_pref":"ｸﾏﾓﾄｹﾝ","kana_city":"ｱﾏｸｻｸﾞﾝﾚｲﾎｸﾏﾁ","kana_address":"ﾄﾛﾛ","pref":"熊本県","city":"天草郡苓北町","address":"都呂々"}]}