{"zip_code":[
{"zip_code":"8640000","kana_pref":"ｸﾏﾓﾄｹﾝ","kana_city":"ｱﾗｵｼ","kana_address":"","pref":"熊本県","city":"荒尾市","address":""},
{"zip_code":"8640041","kana_pref":"ｸﾏﾓﾄｹﾝ","kana_city":"ｱﾗｵｼ","kana_address":"ｱﾗｵ","pref":"熊本県","city":"荒尾市","address":"荒尾"},
{"zip_code":"8640021","kana_pref":"ｸﾏﾓﾄｹﾝ","kana_city":"ｱﾗｵｼ","kana_address":"ｲﾁﾌﾞ","pref":"熊本県","city":"荒尾市","address":"一部"},
{"zip_code":"8640026","kana_pref":"ｸﾏﾓﾄｹﾝ","kana_city":"ｱﾗｵｼ","kana_address":"ｳｼﾉﾐｽﾞ","pref":"熊本県","city":"荒尾市","address":"牛水"},
{"zip_code":"8640057","kana_pref":"ｸﾏﾓﾄｹﾝ","kana_city":"ｱﾗｵｼ","kana_address":"ｵｵｼﾏ","pref":"熊本県","city":"荒尾市","address":"大島"},
{"zip_code":"8640051","kana_pref":"ｸﾏﾓﾄｹﾝ","kana_city":"ｱﾗｵｼ","kana_address":"ｵｵｼﾏﾏﾁ","pref":"熊本県","city":"荒尾市","address":"大島町"},
{"zip_code":"8640005","kana_pref":"ｸﾏﾓﾄｹﾝ","kana_city":"ｱﾗｵｼ","kana_address":"ｵｵﾋﾗﾏﾁ","pref":"熊本県","city":"荒尾市","address":"大平町"},
{"zip_code":"8640162","kana_pref":"ｸﾏﾓﾄｹﾝ","kana_city":"ｱﾗｵｼ","kana_address":"ｶﾅﾔﾏ","pref":"熊本県","city":"荒尾市","address":"金山"},
{"zip_code":"8640165","kana_pref":"ｸﾏﾓﾄｹﾝ","kana_city":"ｱﾗｵｼ","kana_address":"ｶﾊﾞ","pref":"熊本県","city":"荒尾市","address":"樺"},
{"zip_code":"8640013","kana_pref":"ｸﾏﾓﾄｹﾝ","kana_city":"ｱﾗｵｼ","kana_address":"ｶﾐｲﾃﾞ","pref":"熊本県","city":"荒尾市","address":"上井手"},
{"zip_code":"8640014","kana_pref":"ｸﾏﾓﾄｹﾝ","kana_city":"ｱﾗｵｼ","kana_address":"ｶﾐﾋﾗﾔﾏ","pref":"熊本県","city":"荒尾市","address":"上平山"},
{"zip_code":"8640031","kana_pref":"ｸﾏﾓﾄｹﾝ","kana_city":"ｱﾗｵｼ","kana_address":"ｶﾜﾉﾎﾞﾘ","pref":"熊本県","city":"荒尾市","address":"川登"},
{"zip_code":"8640131","kana_pref":"ｸﾏﾓﾄｹﾝ","kana_city":"ｱﾗｵｼ","kana_address":"ｶﾜﾉﾎﾞﾘ","pref":"熊本県","city":"荒尾市","address":"川登"},
{"zip_code":"8640004","kana_pref":"ｸﾏﾓﾄｹﾝ","kana_city":"ｱﾗｵｼ","kana_address":"ｸﾅｲ","pref":"熊本県","city":"荒尾市","address":"宮内"},
{"zip_code":"8640003","kana_pref":"ｸﾏﾓﾄｹﾝ","kana_city":"ｱﾗｵｼ","kana_address":"ｸﾅｲﾃﾞﾒ","pref":"熊本県","city":"荒尾市","address":"宮内出目"},
{"zip_code":"8640027","kana_pref":"ｸﾏﾓﾄｹﾝ","kana_city":"ｱﾗｵｼ","kana_address":"ｸﾗﾐﾂ","pref":"熊本県","city":"荒尾市","address":"蔵満"},
{"zip_code":"8640161","kana_pref":"ｸﾏﾓﾄｹﾝ","kana_city":"ｱﾗｵｼ","kana_address":"ｺﾓﾔ","pref":"熊本県","city":"荒尾市","address":"菰屋"},
{"zip_code":"8640022","kana_pref":"ｸﾏﾓﾄｹﾝ","kana_city":"ｱﾗｵｼ","kana_address":"ｻｸﾗﾔﾏﾏﾁ","pref":"熊本県","city":"荒尾市","address":"桜山町"},
{"zip_code":"8640011","kana_pref":"ｸﾏﾓﾄｹﾝ","kana_city":"ｱﾗｵｼ","kana_address":"ｼﾓｲﾃﾞ","pref":"熊本県","city":"荒尾市","address":"下井手"},
{"zip_code":"8640056","kana_pref":"ｸﾏﾓﾄｹﾝ","kana_city":"ｱﾗｵｼ","kana_address":"ｼｮｳﾜﾏﾁ","pref":"熊本県","city":"荒尾市","address":"昭和町"},
{"zip_code":"8640006","kana_pref":"ｸﾏﾓﾄｹﾝ","kana_city":"ｱﾗｵｼ","kana_address":"ｽﾐﾖｼﾏﾁ","pref":"熊本県","city":"荒尾市","address":"住吉町"},
{"zip_code":"8640054","kana_pref":"ｸﾏﾓﾄｹﾝ","kana_city":"ｱﾗｵｼ","kana_address":"ﾀｲｼｮｳﾏﾁ","pref":"熊本県","city":"荒尾市","address":"大正町"},
{"zip_code":"8640025","kana_pref":"ｸﾏﾓﾄｹﾝ","kana_city":"ｱﾗｵｼ","kana_address":"ﾀｶﾊﾏ","pref":"熊本県","city":"荒尾市","address":"高浜"},
{"zip_code":"8640053","kana_pref":"ｸﾏﾓﾄｹﾝ","kana_city":"ｱﾗｵｼ","kana_address":"ﾆｼﾊﾞﾙﾏﾁ","pref":"熊本県","city":"荒尾市","address":"西原町"},
{"zip_code":"8640163","kana_pref":"ｸﾏﾓﾄｹﾝ","kana_city":"ｱﾗｵｼ","kana_address":"ﾉﾊﾞﾗ","pref":"熊本県","city":"荒尾市","address":"野原"},
{"zip_code":"8640164","kana_pref":"ｸﾏﾓﾄｹﾝ","kana_city":"ｱﾗｵｼ","kana_address":"ﾊﾁﾏﾝﾀﾞｲ","pref":"熊本県","city":"荒尾市","address":"八幡台"},
{"zip_code":"8640001","kana_pref":"ｸﾏﾓﾄｹﾝ","kana_city":"ｱﾗｵｼ","kana_address":"ﾊﾗﾏﾝﾀﾞ","pref":"熊本県","city":"荒尾市","address":"原万田"},
{"zip_code":"8640042","kana_pref":"ｸﾏﾓﾄｹﾝ","kana_city":"ｱﾗｵｼ","kana_address":"ﾋｶﾞｼﾔｶﾀ","pref":"熊本県","city":"荒尾市","address":"東屋形"},
{"zip_code":"8640055","kana_pref":"ｸﾏﾓﾄｹﾝ","kana_city":"ｱﾗｵｼ","kana_address":"ﾋﾉﾃﾞﾏﾁ","pref":"熊本県","city":"荒尾市","address":"日の出町"},
{"zip_code":"8640015","kana_pref":"ｸﾏﾓﾄｹﾝ","kana_city":"ｱﾗｵｼ","kana_address":"ﾋﾗﾔﾏ","pref":"熊本県","city":"荒尾市","address":"平山"},
{"zip_code":"8640166","kana_pref":"ｸﾏﾓﾄｹﾝ","kana_city":"ｱﾗｵｼ","kana_address":"ﾌﾓﾄ","pref":"熊本県","city":"荒尾市","address":"府本"},
{"zip_code":"8640012","kana_pref":"ｸﾏﾓﾄｹﾝ","kana_city":"ｱﾗｵｼ","kana_address":"ﾎﾝｲﾃﾞ","pref":"熊本県","city":"荒尾市","address":"本井手"},
{"zip_code":"8640032","kana_pref":"ｸﾏﾓﾄｹﾝ","kana_city":"ｱﾗｵｼ","kana_address":"ﾏｽﾅｶﾞ","pref":"熊本県","city":"荒尾市","address":"増永"},
{"zip_code":"8640002","kana_pref":"ｸﾏﾓﾄｹﾝ","kana_city":"ｱﾗｵｼ","kana_address":"ﾏﾝﾀﾞ","pref":"熊本県","city":"荒尾市","address":"万田"},
{"zip_code":"8640023","kana_pref":"ｸﾏﾓﾄｹﾝ","kana_city":"ｱﾗｵｼ","kana_address":"ﾐｽﾞﾉ","pref":"熊本県","city":"荒尾市","address":"水野"},
{"zip_code":"8640033","kana_pref":"ｸﾏﾓﾄｹﾝ","kana_city":"ｱﾗｵｼ","kana_address":"ﾐﾄﾞﾘｶﾞｵｶ","pref":"熊本県","city":"荒尾市","address":"緑ケ丘"},
{"zip_code":"8640052","kana_pref":"ｸﾏﾓﾄｹﾝ","kana_city":"ｱﾗｵｼ","kana_address":"ﾖﾂﾔﾏﾏﾁ","pref":"熊本県","city":"荒尾市","address":"四ツ山町"}]}