{"zip_code":[
{"zip_code":"8650000","kana_pref":"ｸﾏﾓﾄｹﾝ","kana_city":"ﾀﾏﾅｼ","kana_address":"","pref":"熊本県","city":"玉名市","address":""},
{"zip_code":"8650004","kana_pref":"ｸﾏﾓﾄｹﾝ","kana_city":"ﾀﾏﾅｼ","kana_address":"ｱｵｷ","pref":"熊本県","city":"玉名市","address":"青木"},
{"zip_code":"8650035","kana_pref":"ｸﾏﾓﾄｹﾝ","kana_city":"ﾀﾏﾅｼ","kana_address":"ｱｵﾉ","pref":"熊本県","city":"玉名市","address":"青野"},
{"zip_code":"8650026","kana_pref":"ｸﾏﾓﾄｹﾝ","kana_city":"ﾀﾏﾅｼ","kana_address":"ｱｷﾏﾙ","pref":"熊本県","city":"玉名市","address":"秋丸"},
{"zip_code":"8650014","kana_pref":"ｸﾏﾓﾄｹﾝ","kana_city":"ﾀﾏﾅｼ","kana_address":"ｱﾝﾗｸｼﾞ","pref":"熊本県","city":"玉名市","address":"安楽寺"},
{"zip_code":"8650045","kana_pref":"ｸﾏﾓﾄｹﾝ","kana_city":"ﾀﾏﾅｼ","kana_address":"ｲｸﾗﾐﾅﾐｶﾀ","pref":"熊本県","city":"玉名市","address":"伊倉南方"},
{"zip_code":"8650041","kana_pref":"ｸﾏﾓﾄｹﾝ","kana_city":"ﾀﾏﾅｼ","kana_address":"ｲｸﾗｷﾀｶﾀ","pref":"熊本県","city":"玉名市","address":"伊倉北方"},
{"zip_code":"8650008","kana_pref":"ｸﾏﾓﾄｹﾝ","kana_city":"ﾀﾏﾅｼ","kana_address":"ｲｼﾇｷ","pref":"熊本県","city":"玉名市","address":"石貫"},
{"zip_code":"8650016","kana_pref":"ｸﾏﾓﾄｹﾝ","kana_city":"ﾀﾏﾅｼ","kana_address":"ｲﾜｻｷ","pref":"熊本県","city":"玉名市","address":"岩崎"},
{"zip_code":"8650024","kana_pref":"ｸﾏﾓﾄｹﾝ","kana_city":"ﾀﾏﾅｼ","kana_address":"ｴｲﾄｸｼﾞ","pref":"熊本県","city":"玉名市","address":"永徳寺"},
{"zip_code":"8650023","kana_pref":"ｸﾏﾓﾄｹﾝ","kana_city":"ﾀﾏﾅｼ","kana_address":"ｵｵｸﾗ","pref":"熊本県","city":"玉名市","address":"大倉"},
{"zip_code":"8650055","kana_pref":"ｸﾏﾓﾄｹﾝ","kana_city":"ﾀﾏﾅｼ","kana_address":"ｵｵﾊﾏﾏﾁ","pref":"熊本県","city":"玉名市","address":"大浜町"},
{"zip_code":"8650054","kana_pref":"ｸﾏﾓﾄｹﾝ","kana_city":"ﾀﾏﾅｼ","kana_address":"ｵｼﾏ","pref":"熊本県","city":"玉名市","address":"小島"},
{"zip_code":"8650048","kana_pref":"ｸﾏﾓﾄｹﾝ","kana_city":"ﾀﾏﾅｼ","kana_address":"ｵﾉｼﾞﾘ","pref":"熊本県","city":"玉名市","address":"小野尻"},
{"zip_code":"8650044","kana_pref":"ｸﾏﾓﾄｹﾝ","kana_city":"ﾀﾏﾅｼ","kana_address":"ｶﾀｽﾜ","pref":"熊本県","city":"玉名市","address":"片諏訪"},
{"zip_code":"8650011","kana_pref":"ｸﾏﾓﾄｹﾝ","kana_city":"ﾀﾏﾅｼ","kana_address":"ｶﾐｵﾀﾞ","pref":"熊本県","city":"玉名市","address":"上小田"},
{"zip_code":"8650015","kana_pref":"ｸﾏﾓﾄｹﾝ","kana_city":"ﾀﾏﾅｼ","kana_address":"ｶﾒﾉｺｳ","pref":"熊本県","city":"玉名市","address":"亀甲"},
{"zip_code":"8650007","kana_pref":"ｸﾏﾓﾄｹﾝ","kana_city":"ﾀﾏﾅｼ","kana_address":"ｶﾜｻｷ","pref":"熊本県","city":"玉名市","address":"河崎"},
{"zip_code":"8650047","kana_pref":"ｸﾏﾓﾄｹﾝ","kana_city":"ﾀﾏﾅｼ","kana_address":"ｶﾜｼﾏ","pref":"熊本県","city":"玉名市","address":"川島"},
{"zip_code":"8650017","kana_pref":"ｸﾏﾓﾄｹﾝ","kana_city":"ﾀﾏﾅｼ","kana_address":"ｶﾜﾍﾞﾀ","pref":"熊本県","city":"玉名市","address":"川部田"},
{"zip_code":"8650032","kana_pref":"ｸﾏﾓﾄｹﾝ","kana_city":"ﾀﾏﾅｼ","kana_address":"ｷﾀｻｶﾓﾝﾀ","pref":"熊本県","city":"玉名市","address":"北坂門田"},
{"zip_code":"8650046","kana_pref":"ｸﾏﾓﾄｹﾝ","kana_city":"ﾀﾏﾅｼ","kana_address":"ｷﾀﾑﾀ","pref":"熊本県","city":"玉名市","address":"北牟田"},
{"zip_code":"8650057","kana_pref":"ｸﾏﾓﾄｹﾝ","kana_city":"ﾀﾏﾅｼ","kana_address":"ｺﾊﾞﾏ","pref":"熊本県","city":"玉名市","address":"小浜"},
{"zip_code":"8650013","kana_pref":"ｸﾏﾓﾄｹﾝ","kana_city":"ﾀﾏﾅｼ","kana_address":"ｼﾓ","pref":"熊本県","city":"玉名市","address":"下"},
{"zip_code":"8650018","kana_pref":"ｸﾏﾓﾄｹﾝ","kana_city":"ﾀﾏﾅｼ","kana_address":"ｼﾓｵﾀﾞ","pref":"熊本県","city":"玉名市","address":"下小田"},
{"zip_code":"8650053","kana_pref":"ｸﾏﾓﾄｹﾝ","kana_city":"ﾀﾏﾅｼ","kana_address":"ｾﾝﾀﾞｶﾞﾜﾗ","pref":"熊本県","city":"玉名市","address":"千田川原"},
{"zip_code":"8650025","kana_pref":"ｸﾏﾓﾄｹﾝ","kana_city":"ﾀﾏﾅｼ","kana_address":"ﾀｶｾ","pref":"熊本県","city":"玉名市","address":"高瀬"},
{"zip_code":"8650031","kana_pref":"ｸﾏﾓﾄｹﾝ","kana_city":"ﾀﾏﾅｼ","kana_address":"ﾀｻｷ","pref":"熊本県","city":"玉名市","address":"田崎"},
{"zip_code":"8650005","kana_pref":"ｸﾏﾓﾄｹﾝ","kana_city":"ﾀﾏﾅｼ","kana_address":"ﾀﾏﾅ","pref":"熊本県","city":"玉名市","address":"玉名"},
{"zip_code":"8650065","kana_pref":"ｸﾏﾓﾄｹﾝ","kana_city":"ﾀﾏﾅｼ","kana_address":"ﾂｲｼﾞ","pref":"熊本県","city":"玉名市","address":"築地"},
{"zip_code":"8650001","kana_pref":"ｸﾏﾓﾄｹﾝ","kana_city":"ﾀﾏﾅｼ","kana_address":"ﾂｷﾀﾞ","pref":"熊本県","city":"玉名市","address":"月田"},
{"zip_code":"8650021","kana_pref":"ｸﾏﾓﾄｹﾝ","kana_city":"ﾀﾏﾅｼ","kana_address":"ﾂﾙ","pref":"熊本県","city":"玉名市","address":"津留"},
{"zip_code":"8650022","kana_pref":"ｸﾏﾓﾄｹﾝ","kana_city":"ﾀﾏﾅｼ","kana_address":"ﾃﾗﾀﾞ","pref":"熊本県","city":"玉名市","address":"寺田"},
{"zip_code":"8650062","kana_pref":"ｸﾏﾓﾄｹﾝ","kana_city":"ﾀﾏﾅｼ","kana_address":"ﾄﾐﾉｵ","pref":"熊本県","city":"玉名市","address":"富尾"},
{"zip_code":"8650064","kana_pref":"ｸﾏﾓﾄｹﾝ","kana_city":"ﾀﾏﾅｼ","kana_address":"ﾅｶ","pref":"熊本県","city":"玉名市","address":"中"},
{"zip_code":"8650063","kana_pref":"ｸﾏﾓﾄｹﾝ","kana_city":"ﾀﾏﾅｼ","kana_address":"ﾅｶｵ","pref":"熊本県","city":"玉名市","address":"中尾"},
{"zip_code":"8650033","kana_pref":"ｸﾏﾓﾄｹﾝ","kana_city":"ﾀﾏﾅｼ","kana_address":"ﾅｶｻｶﾓﾝﾀ","pref":"熊本県","city":"玉名市","address":"中坂門田"},
{"zip_code":"8650056","kana_pref":"ｸﾏﾓﾄｹﾝ","kana_city":"ﾀﾏﾅｼ","kana_address":"ﾅﾒｲｼ","pref":"熊本県","city":"玉名市","address":"滑石"},
{"zip_code":"8650002","kana_pref":"ｸﾏﾓﾄｹﾝ","kana_city":"ﾀﾏﾅｼ","kana_address":"ﾊｺﾀﾞﾆ","pref":"熊本県","city":"玉名市","address":"箱谷"},
{"zip_code":"8650051","kana_pref":"ｸﾏﾓﾄｹﾝ","kana_city":"ﾀﾏﾅｼ","kana_address":"ﾊﾈｷﾞ","pref":"熊本県","city":"玉名市","address":"繁根木"},
{"zip_code":"8650052","kana_pref":"ｸﾏﾓﾄｹﾝ","kana_city":"ﾀﾏﾅｼ","kana_address":"ﾏﾂｷ","pref":"熊本県","city":"玉名市","address":"松木"},
{"zip_code":"8650003","kana_pref":"ｸﾏﾓﾄｹﾝ","kana_city":"ﾀﾏﾅｼ","kana_address":"ﾐｿﾞﾉｳｴ","pref":"熊本県","city":"玉名市","address":"溝上"},
{"zip_code":"8650009","kana_pref":"ｸﾏﾓﾄｹﾝ","kana_city":"ﾀﾏﾅｼ","kana_address":"ﾐﾂｶﾜ","pref":"熊本県","city":"玉名市","address":"三ツ川"},
{"zip_code":"8650034","kana_pref":"ｸﾏﾓﾄｹﾝ","kana_city":"ﾀﾏﾅｼ","kana_address":"ﾐﾅﾐｻｶﾓﾝﾀ","pref":"熊本県","city":"玉名市","address":"南坂門田"},
{"zip_code":"8650042","kana_pref":"ｸﾏﾓﾄｹﾝ","kana_city":"ﾀﾏﾅｼ","kana_address":"ﾐﾔﾊﾞﾗ","pref":"熊本県","city":"玉名市","address":"宮原"},
{"zip_code":"8650027","kana_pref":"ｸﾏﾓﾄｹﾝ","kana_city":"ﾀﾏﾅｼ","kana_address":"ﾑｺｳﾂﾞﾙ","pref":"熊本県","city":"玉名市","address":"向津留"},
{"zip_code":"8650066","kana_pref":"ｸﾏﾓﾄｹﾝ","kana_city":"ﾀﾏﾅｼ","kana_address":"ﾔﾏﾀﾞ","pref":"熊本県","city":"玉名市","address":"山田"},
{"zip_code":"8650012","kana_pref":"ｸﾏﾓﾄｹﾝ","kana_city":"ﾀﾏﾅｼ","kana_address":"ﾔﾏﾍﾞﾀ","pref":"熊本県","city":"玉名市","address":"山部田"},
{"zip_code":"8650071","kana_pref":"ｸﾏﾓﾄｹﾝ","kana_city":"ﾀﾏﾅｼ","kana_address":"ﾖｺｼﾏﾏﾁｵｵｿﾞﾉ","pref":"熊本県","city":"玉名市","address":"横島町大園"},
{"zip_code":"8650073","kana_pref":"ｸﾏﾓﾄｹﾝ","kana_city":"ﾀﾏﾅｼ","kana_address":"ﾖｺｼﾏﾏﾁｷｮｳｴｲ","pref":"熊本県","city":"玉名市","address":"横島町共栄"},
{"zip_code":"8650072","kana_pref":"ｸﾏﾓﾄｹﾝ","kana_city":"ﾀﾏﾅｼ","kana_address":"ﾖｺｼﾏﾏﾁﾖｺｼﾏ","pref":"熊本県","city":"玉名市","address":"横島町横島"},
{"zip_code":"8650043","kana_pref":"ｸﾏﾓﾄｹﾝ","kana_city":"ﾀﾏﾅｼ","kana_address":"ﾖｺﾀ","pref":"熊本県","city":"玉名市","address":"横田"},
{"zip_code":"8650061","kana_pref":"ｸﾏﾓﾄｹﾝ","kana_city":"ﾀﾏﾅｼ","kana_address":"ﾘｭｳｶﾞﾝｼﾞ","pref":"熊本県","city":"玉名市","address":"立願寺"},
{"zip_code":"8650006","kana_pref":"ｸﾏﾓﾄｹﾝ","kana_city":"ﾀﾏﾅｼ","kana_address":"ﾘｮｳﾊｻﾞﾏ","pref":"熊本県","city":"玉名市","address":"両迫間"},
{"zip_code":"8650058","kana_pref":"ｸﾏﾓﾄｹﾝ","kana_city":"ﾀﾏﾅｼ","kana_address":"ﾛｸﾀ","pref":"熊本県","city":"玉名市","address":"六田"},
{"zip_code":"8650100","kana_pref":"ｸﾏﾓﾄｹﾝ","kana_city":"ﾀﾏﾅｸﾞﾝﾅｺﾞﾐﾏﾁ","kana_address":"","pref":"熊本県","city":"玉名郡和水町","address":""},
{"zip_code":"8650114","kana_pref":"ｸﾏﾓﾄｹﾝ","kana_city":"ﾀﾏﾅｸﾞﾝﾅｺﾞﾐﾏﾁ","kana_address":"ｲﾜｼﾘ","pref":"熊本県","city":"玉名郡和水町","address":"岩尻"},
{"zip_code":"8650104","kana_pref":"ｸﾏﾓﾄｹﾝ","kana_city":"ﾀﾏﾅｸﾞﾝﾅｺﾞﾐﾏﾁ","kana_address":"ｳﾁﾀﾞ","pref":"熊本県","city":"玉名郡和水町","address":"内田"},
{"zip_code":"8650101","kana_pref":"ｸﾏﾓﾄｹﾝ","kana_city":"ﾀﾏﾅｸﾞﾝﾅｺﾞﾐﾏﾁ","kana_address":"ｴｸﾞﾘ","pref":"熊本県","city":"玉名郡和水町","address":"江栗"},
{"zip_code":"8650136","kana_pref":"ｸﾏﾓﾄｹﾝ","kana_city":"ﾀﾏﾅｸﾞﾝﾅｺﾞﾐﾏﾁ","kana_address":"ｴﾀ","pref":"熊本県","city":"玉名郡和水町","address":"江田"},
{"zip_code":"8650121","kana_pref":"ｸﾏﾓﾄｹﾝ","kana_city":"ﾀﾏﾅｸﾞﾝﾅｺﾞﾐﾏﾁ","kana_address":"ｴﾉｷﾊﾞﾙ","pref":"熊本県","city":"玉名郡和水町","address":"榎原"},
{"zip_code":"8650112","kana_pref":"ｸﾏﾓﾄｹﾝ","kana_city":"ﾀﾏﾅｸﾞﾝﾅｺﾞﾐﾏﾁ","kana_address":"ｵｵﾔ","pref":"熊本県","city":"玉名郡和水町","address":"大屋"},
{"zip_code":"8650116","kana_pref":"ｸﾏﾓﾄｹﾝ","kana_city":"ﾀﾏﾅｸﾞﾝﾅｺﾞﾐﾏﾁ","kana_address":"ｶﾏﾄﾞ","pref":"熊本県","city":"玉名郡和水町","address":"竈門"},
{"zip_code":"8650115","kana_pref":"ｸﾏﾓﾄｹﾝ","kana_city":"ﾀﾏﾅｸﾞﾝﾅｺﾞﾐﾏﾁ","kana_address":"ｸﾍﾞﾉ","pref":"熊本県","city":"玉名郡和水町","address":"久米野"},
{"zip_code":"8650117","kana_pref":"ｸﾏﾓﾄｹﾝ","kana_city":"ﾀﾏﾅｸﾞﾝﾅｺﾞﾐﾏﾁ","kana_address":"ｼｸﾞﾁﾅｶﾞ","pref":"熊本県","city":"玉名郡和水町","address":"志口永"},
{"zip_code":"8650111","kana_pref":"ｸﾏﾓﾄｹﾝ","kana_city":"ﾀﾏﾅｸﾞﾝﾅｺﾞﾐﾏﾁ","kana_address":"ｼﾓﾂﾜﾗ","pref":"熊本県","city":"玉名郡和水町","address":"下津原"},
{"zip_code":"8650135","kana_pref":"ｸﾏﾓﾄｹﾝ","kana_city":"ﾀﾏﾅｸﾞﾝﾅｺﾞﾐﾏﾁ","kana_address":"ｾｶﾞﾜ","pref":"熊本県","city":"玉名郡和水町","address":"瀬川"},
{"zip_code":"8650122","kana_pref":"ｸﾏﾓﾄｹﾝ","kana_city":"ﾀﾏﾅｸﾞﾝﾅｺﾞﾐﾏﾁ","kana_address":"ﾀｶﾉ","pref":"熊本県","city":"玉名郡和水町","address":"高野"},
{"zip_code":"8650103","kana_pref":"ｸﾏﾓﾄｹﾝ","kana_city":"ﾀﾏﾅｸﾞﾝﾅｺﾞﾐﾏﾁ","kana_address":"ﾅｶﾞｵﾀﾞ","pref":"熊本県","city":"玉名郡和水町","address":"長小田"},
{"zip_code":"8650132","kana_pref":"ｸﾏﾓﾄｹﾝ","kana_city":"ﾀﾏﾅｸﾞﾝﾅｺﾞﾐﾏﾁ","kana_address":"ﾊｷﾞﾜﾗ","pref":"熊本県","city":"玉名郡和水町","address":"萩原"},
{"zip_code":"8650124","kana_pref":"ｸﾏﾓﾄｹﾝ","kana_city":"ﾀﾏﾅｸﾞﾝﾅｺﾞﾐﾏﾁ","kana_address":"ﾊﾙｸﾞﾁ","pref":"熊本県","city":"玉名郡和水町","address":"原口"},
{"zip_code":"8650102","kana_pref":"ｸﾏﾓﾄｹﾝ","kana_city":"ﾀﾏﾅｸﾞﾝﾅｺﾞﾐﾏﾁ","kana_address":"ﾋｻｲﾊﾞﾙ","pref":"熊本県","city":"玉名郡和水町","address":"久井原"},
{"zip_code":"8650134","kana_pref":"ｸﾏﾓﾄｹﾝ","kana_city":"ﾀﾏﾅｸﾞﾝﾅｺﾞﾐﾏﾁ","kana_address":"ﾋﾋﾞﾗ","pref":"熊本県","city":"玉名郡和水町","address":"日平"},
{"zip_code":"8650125","kana_pref":"ｸﾏﾓﾄｹﾝ","kana_city":"ﾀﾏﾅｸﾞﾝﾅｺﾞﾐﾏﾁ","kana_address":"ﾌｼﾞﾀ","pref":"熊本県","city":"玉名郡和水町","address":"藤田"},
{"zip_code":"8650133","kana_pref":"ｸﾏﾓﾄｹﾝ","kana_city":"ﾀﾏﾅｸﾞﾝﾅｺﾞﾐﾏﾁ","kana_address":"ﾍﾎﾞｳﾗ","pref":"熊本県","city":"玉名郡和水町","address":"蜻浦"},
{"zip_code":"8650126","kana_pref":"ｸﾏﾓﾄｹﾝ","kana_city":"ﾀﾏﾅｸﾞﾝﾅｺﾞﾐﾏﾁ","kana_address":"ﾏｴﾊﾞﾙ","pref":"熊本県","city":"玉名郡和水町","address":"前原"},
{"zip_code":"8650123","kana_pref":"ｸﾏﾓﾄｹﾝ","kana_city":"ﾀﾏﾅｸﾞﾝﾅｺﾞﾐﾏﾁ","kana_address":"ﾒﾄﾞｵ","pref":"熊本県","city":"玉名郡和水町","address":"米渡尾"},
{"zip_code":"8650131","kana_pref":"ｸﾏﾓﾄｹﾝ","kana_city":"ﾀﾏﾅｸﾞﾝﾅｺﾞﾐﾏﾁ","kana_address":"ﾓﾃｷﾞ","pref":"熊本県","city":"玉名郡和水町","address":"用木"},
{"zip_code":"8650113","kana_pref":"ｸﾏﾓﾄｹﾝ","kana_city":"ﾀﾏﾅｸﾞﾝﾅｺﾞﾐﾏﾁ","kana_address":"ﾔｲｺﾞﾒ","pref":"熊本県","city":"玉名郡和水町","address":"焼米"}]}