{"zip_code":[
{"zip_code":"8660000","kana_pref":"ｸﾏﾓﾄｹﾝ","kana_city":"ﾔﾂｼﾛｼ","kana_address":"","pref":"熊本県","city":"八代市","address":""},
{"zip_code":"8660844","kana_pref":"ｸﾏﾓﾄｹﾝ","kana_city":"ﾔﾂｼﾛｼ","kana_address":"ｱｻﾋﾁｭｳｵｳﾄﾞｵﾘ","pref":"熊本県","city":"八代市","address":"旭中央通"},
{"zip_code":"8660893","kana_pref":"ｸﾏﾓﾄｹﾝ","kana_city":"ﾔﾂｼﾛｼ","kana_address":"ｱﾏｶﾞｴﾏﾁ","pref":"熊本県","city":"八代市","address":"海士江町"},
{"zip_code":"8660011","kana_pref":"ｸﾏﾓﾄｹﾝ","kana_city":"ﾔﾂｼﾛｼ","kana_address":"ｲｱｹﾞﾏﾁ","pref":"熊本県","city":"八代市","address":"井揚町"},
{"zip_code":"8660825","kana_pref":"ｸﾏﾓﾄｹﾝ","kana_city":"ﾔﾂｼﾛｼ","kana_address":"ｲﾉｳｴﾏﾁ","pref":"熊本県","city":"八代市","address":"井上町"},
{"zip_code":"8660081","kana_pref":"ｸﾏﾓﾄｹﾝ","kana_city":"ﾔﾂｼﾛｼ","kana_address":"ｳﾔﾅｷﾞｶﾐﾏﾁ","pref":"熊本県","city":"八代市","address":"植柳上町"},
{"zip_code":"8660083","kana_pref":"ｸﾏﾓﾄｹﾝ","kana_city":"ﾔﾂｼﾛｼ","kana_address":"ｳﾔﾅｷﾞｼﾓﾏﾁ","pref":"熊本県","city":"八代市","address":"植柳下町"},
{"zip_code":"8660084","kana_pref":"ｸﾏﾓﾄｹﾝ","kana_city":"ﾔﾂｼﾛｼ","kana_address":"ｳﾔﾅｷﾞｼﾝﾏﾁ","pref":"熊本県","city":"八代市","address":"植柳新町"},
{"zip_code":"8660085","kana_pref":"ｸﾏﾓﾄｹﾝ","kana_city":"ﾔﾂｼﾛｼ","kana_address":"ｳﾔﾅｷﾞﾓﾄﾏﾁ","pref":"熊本県","city":"八代市","address":"植柳元町"},
{"zip_code":"8660035","kana_pref":"ｸﾏﾓﾄｹﾝ","kana_city":"ﾔﾂｼﾛｼ","kana_address":"ｵｵｼﾏﾏﾁ","pref":"熊本県","city":"八代市","address":"大島町"},
{"zip_code":"8660852","kana_pref":"ｸﾏﾓﾄｹﾝ","kana_city":"ﾔﾂｼﾛｼ","kana_address":"ｵｵﾃﾏﾁ","pref":"熊本県","city":"八代市","address":"大手町"},
{"zip_code":"8660895","kana_pref":"ｸﾏﾓﾄｹﾝ","kana_city":"ﾔﾂｼﾛｼ","kana_address":"ｵｵﾑﾗﾏﾁ","pref":"熊本県","city":"八代市","address":"大村町"},
{"zip_code":"8660013","kana_pref":"ｸﾏﾓﾄｹﾝ","kana_city":"ﾔﾂｼﾛｼ","kana_address":"ｵｷﾏﾁ","pref":"熊本県","city":"八代市","address":"沖町"},
{"zip_code":"8660813","kana_pref":"ｸﾏﾓﾄｹﾝ","kana_city":"ﾔﾂｼﾛｼ","kana_address":"ｶﾐｶﾀﾏﾁ","pref":"熊本県","city":"八代市","address":"上片町"},
{"zip_code":"8660824","kana_pref":"ｸﾏﾓﾄｹﾝ","kana_city":"ﾔﾂｼﾛｼ","kana_address":"ｶﾐﾋｵｷﾏﾁ","pref":"熊本県","city":"八代市","address":"上日置町"},
{"zip_code":"8660865","kana_pref":"ｸﾏﾓﾄｹﾝ","kana_city":"ﾔﾂｼﾛｼ","kana_address":"ｷﾀﾉﾏﾙﾏﾁ","pref":"熊本県","city":"八代市","address":"北の丸町"},
{"zip_code":"8660024","kana_pref":"ｸﾏﾓﾄｹﾝ","kana_city":"ﾔﾂｼﾛｼ","kana_address":"ｸﾞﾝﾁｸ1ﾊﾞﾝﾁｮｳ","pref":"熊本県","city":"八代市","address":"郡築一番町"},
{"zip_code":"8660023","kana_pref":"ｸﾏﾓﾄｹﾝ","kana_city":"ﾔﾂｼﾛｼ","kana_address":"ｸﾞﾝﾁｸ2ﾊﾞﾝﾁｮｳ","pref":"熊本県","city":"八代市","address":"郡築二番町"},
{"zip_code":"8660022","kana_pref":"ｸﾏﾓﾄｹﾝ","kana_city":"ﾔﾂｼﾛｼ","kana_address":"ｸﾞﾝﾁｸ3ﾊﾞﾝﾁｮｳ","pref":"熊本県","city":"八代市","address":"郡築三番町"},
{"zip_code":"8660021","kana_pref":"ｸﾏﾓﾄｹﾝ","kana_city":"ﾔﾂｼﾛｼ","kana_address":"ｸﾞﾝﾁｸ4ﾊﾞﾝﾁｮｳ","pref":"熊本県","city":"八代市","address":"郡築四番町"},
{"zip_code":"8660008","kana_pref":"ｸﾏﾓﾄｹﾝ","kana_city":"ﾔﾂｼﾛｼ","kana_address":"ｸﾞﾝﾁｸ5ﾊﾞﾝﾁｮｳ","pref":"熊本県","city":"八代市","address":"郡築五番町"},
{"zip_code":"8660007","kana_pref":"ｸﾏﾓﾄｹﾝ","kana_city":"ﾔﾂｼﾛｼ","kana_address":"ｸﾞﾝﾁｸ6ﾊﾞﾝﾁｮｳ","pref":"熊本県","city":"八代市","address":"郡築六番町"},
{"zip_code":"8660006","kana_pref":"ｸﾏﾓﾄｹﾝ","kana_city":"ﾔﾂｼﾛｼ","kana_address":"ｸﾞﾝﾁｸ7ﾊﾞﾝﾁｮｳ","pref":"熊本県","city":"八代市","address":"郡築七番町"},
{"zip_code":"8660005","kana_pref":"ｸﾏﾓﾄｹﾝ","kana_city":"ﾔﾂｼﾛｼ","kana_address":"ｸﾞﾝﾁｸ8ﾊﾞﾝﾁｮｳ","pref":"熊本県","city":"八代市","address":"郡築八番町"},
{"zip_code":"8660004","kana_pref":"ｸﾏﾓﾄｹﾝ","kana_city":"ﾔﾂｼﾛｼ","kana_address":"ｸﾞﾝﾁｸ9ﾊﾞﾝﾁｮｳ","pref":"熊本県","city":"八代市","address":"郡築九番町"},
{"zip_code":"8660003","kana_pref":"ｸﾏﾓﾄｹﾝ","kana_city":"ﾔﾂｼﾛｼ","kana_address":"ｸﾞﾝﾁｸ10ﾊﾞﾝﾁｮｳ","pref":"熊本県","city":"八代市","address":"郡築十番町"},
{"zip_code":"8660002","kana_pref":"ｸﾏﾓﾄｹﾝ","kana_city":"ﾔﾂｼﾛｼ","kana_address":"ｸﾞﾝﾁｸ11ﾊﾞﾝﾁｮｳ","pref":"熊本県","city":"八代市","address":"郡築十一番町"},
{"zip_code":"8660001","kana_pref":"ｸﾏﾓﾄｹﾝ","kana_city":"ﾔﾂｼﾛｼ","kana_address":"ｸﾞﾝﾁｸ12ﾊﾞﾝﾁｮｳ","pref":"熊本県","city":"八代市","address":"郡築十二番町"},
{"zip_code":"8660071","kana_pref":"ｸﾏﾓﾄｹﾝ","kana_city":"ﾔﾂｼﾛｼ","kana_address":"ｺｳｹﾞﾋｶﾞｼﾏﾁ","pref":"熊本県","city":"八代市","address":"高下東町"},
{"zip_code":"8660072","kana_pref":"ｸﾏﾓﾄｹﾝ","kana_city":"ﾔﾂｼﾛｼ","kana_address":"ｺｳｹﾞﾆｼﾏﾁ","pref":"熊本県","city":"八代市","address":"高下西町"},
{"zip_code":"8660881","kana_pref":"ｸﾏﾓﾄｹﾝ","kana_city":"ﾔﾂｼﾛｼ","kana_address":"ｺｳｺｸﾏﾁ","pref":"熊本県","city":"八代市","address":"興国町"},
{"zip_code":"8660012","kana_pref":"ｸﾏﾓﾄｹﾝ","kana_city":"ﾔﾂｼﾛｼ","kana_address":"ｺｳｺﾞﾊﾞﾗﾏﾁ","pref":"熊本県","city":"八代市","address":"高小原町"},
{"zip_code":"8660894","kana_pref":"ｸﾏﾓﾄｹﾝ","kana_city":"ﾔﾂｼﾛｼ","kana_address":"ｺｳｽﾞｹﾏﾁ","pref":"熊本県","city":"八代市","address":"上野町"},
{"zip_code":"8660897","kana_pref":"ｸﾏﾓﾄｹﾝ","kana_city":"ﾔﾂｼﾛｼ","kana_address":"ｺｶﾞｶﾐﾏﾁ","pref":"熊本県","city":"八代市","address":"古閑上町"},
{"zip_code":"8660898","kana_pref":"ｸﾏﾓﾄｹﾝ","kana_city":"ﾔﾂｼﾛｼ","kana_address":"ｺｶﾞﾅｶﾏﾁ","pref":"熊本県","city":"八代市","address":"古閑中町"},
{"zip_code":"8660892","kana_pref":"ｸﾏﾓﾄｹﾝ","kana_city":"ﾔﾂｼﾛｼ","kana_address":"ｺｶﾞｼﾓﾏﾁ","pref":"熊本県","city":"八代市","address":"古閑下町"},
{"zip_code":"8660891","kana_pref":"ｸﾏﾓﾄｹﾝ","kana_city":"ﾔﾂｼﾛｼ","kana_address":"ｺｶﾞﾊﾏﾏﾁ","pref":"熊本県","city":"八代市","address":"古閑浜町"},
{"zip_code":"8660845","kana_pref":"ｸﾏﾓﾄｹﾝ","kana_city":"ﾔﾂｼﾛｼ","kana_address":"ｺｶﾞﾈﾁｮｳ","pref":"熊本県","city":"八代市","address":"黄金町"},
{"zip_code":"8660017","kana_pref":"ｸﾏﾓﾄｹﾝ","kana_city":"ﾔﾂｼﾛｼ","kana_address":"ｻﾝﾗｸﾁｮｳ","pref":"熊本県","city":"八代市","address":"三楽町"},
{"zip_code":"8660864","kana_pref":"ｸﾏﾓﾄｹﾝ","kana_city":"ﾔﾂｼﾛｼ","kana_address":"ｼｵﾔﾏﾁ","pref":"熊本県","city":"八代市","address":"塩屋町"},
{"zip_code":"8660827","kana_pref":"ｸﾏﾓﾄｹﾝ","kana_city":"ﾔﾂｼﾛｼ","kana_address":"ｼﾏﾀﾞﾏﾁ","pref":"熊本県","city":"八代市","address":"島田町"},
{"zip_code":"8660853","kana_pref":"ｸﾏﾓﾄｹﾝ","kana_city":"ﾔﾂｼﾛｼ","kana_address":"ｼﾐｽﾞﾏﾁ","pref":"熊本県","city":"八代市","address":"清水町"},
{"zip_code":"8660042","kana_pref":"ｸﾏﾓﾄｹﾝ","kana_city":"ﾔﾂｼﾛｼ","kana_address":"ｼﾞｬｶｺﾞﾏﾁ","pref":"熊本県","city":"八代市","address":"蛇籠町"},
{"zip_code":"8660823","kana_pref":"ｸﾏﾓﾄｹﾝ","kana_city":"ﾔﾂｼﾛｼ","kana_address":"ｼﾞｭｳｼﾞｮｳﾏﾁ","pref":"熊本県","city":"八代市","address":"十条町"},
{"zip_code":"8660032","kana_pref":"ｸﾏﾓﾄｹﾝ","kana_city":"ﾔﾂｼﾛｼ","kana_address":"ｼﾝｶｲﾏﾁ","pref":"熊本県","city":"八代市","address":"新開町"},
{"zip_code":"8660016","kana_pref":"ｸﾏﾓﾄｹﾝ","kana_city":"ﾔﾂｼﾛｼ","kana_address":"ｼﾝﾁﾏﾁ","pref":"熊本県","city":"八代市","address":"新地町"},
{"zip_code":"8660031","kana_pref":"ｸﾏﾓﾄｹﾝ","kana_city":"ﾔﾂｼﾛｼ","kana_address":"ｼﾝﾊﾏﾏﾁ","pref":"熊本県","city":"八代市","address":"新浜町"},
{"zip_code":"8660854","kana_pref":"ｸﾏﾓﾄｹﾝ","kana_city":"ﾔﾂｼﾛｼ","kana_address":"ｼﾝﾏﾁ","pref":"熊本県","city":"八代市","address":"新町"},
{"zip_code":"8660034","kana_pref":"ｸﾏﾓﾄｹﾝ","kana_city":"ﾔﾂｼﾛｼ","kana_address":"ｼﾝﾐﾅﾄﾏﾁ","pref":"熊本県","city":"八代市","address":"新港町"},
{"zip_code":"8660832","kana_pref":"ｸﾏﾓﾄｹﾝ","kana_city":"ﾔﾂｼﾛｼ","kana_address":"ｽｴﾋﾛﾁｮｳ","pref":"熊本県","city":"八代市","address":"末広町"},
{"zip_code":"8660053","kana_pref":"ｸﾏﾓﾄｹﾝ","kana_city":"ﾔﾂｼﾛｼ","kana_address":"ｾﾝﾀﾞﾝﾏﾁ","pref":"熊本県","city":"八代市","address":"千反町"},
{"zip_code":"8660054","kana_pref":"ｸﾏﾓﾄｹﾝ","kana_city":"ﾔﾂｼﾛｼ","kana_address":"ｾﾝﾀﾞﾝﾏﾁ","pref":"熊本県","city":"八代市","address":"栴檀町"},
{"zip_code":"8660082","kana_pref":"ｸﾏﾓﾄｹﾝ","kana_city":"ﾔﾂｼﾛｼ","kana_address":"ﾀﾞｲﾌｸｼﾞﾏﾁ","pref":"熊本県","city":"八代市","address":"大福寺町"},
{"zip_code":"8660014","kana_pref":"ｸﾏﾓﾄｹﾝ","kana_city":"ﾔﾂｼﾛｼ","kana_address":"ﾀｶｼﾏﾏﾁ","pref":"熊本県","city":"八代市","address":"高島町"},
{"zip_code":"8660866","kana_pref":"ｸﾏﾓﾄｹﾝ","kana_city":"ﾔﾂｼﾛｼ","kana_address":"ﾀｶﾂｼﾞﾏﾁ","pref":"熊本県","city":"八代市","address":"鷹辻町"},
{"zip_code":"8660826","kana_pref":"ｸﾏﾓﾄｹﾝ","kana_city":"ﾔﾂｼﾛｼ","kana_address":"ﾀｹﾊﾗﾏﾁ","pref":"熊本県","city":"八代市","address":"竹原町"},
{"zip_code":"8660045","kana_pref":"ｸﾏﾓﾄｹﾝ","kana_city":"ﾔﾂｼﾛｼ","kana_address":"ﾀﾃｳﾏﾏﾁ","pref":"熊本県","city":"八代市","address":"建馬町"},
{"zip_code":"8660871","kana_pref":"ｸﾏﾓﾄｹﾝ","kana_city":"ﾔﾂｼﾛｼ","kana_address":"ﾀﾅｶﾋｶﾞｼﾏﾁ","pref":"熊本県","city":"八代市","address":"田中東町"},
{"zip_code":"8660876","kana_pref":"ｸﾏﾓﾄｹﾝ","kana_city":"ﾔﾂｼﾛｼ","kana_address":"ﾀﾅｶﾆｼﾏﾁ","pref":"熊本県","city":"八代市","address":"田中西町"},
{"zip_code":"8660877","kana_pref":"ｸﾏﾓﾄｹﾝ","kana_city":"ﾔﾂｼﾛｼ","kana_address":"ﾀﾅｶｷﾀﾏﾁ","pref":"熊本県","city":"八代市","address":"田中北町"},
{"zip_code":"8660872","kana_pref":"ｸﾏﾓﾄｹﾝ","kana_city":"ﾔﾂｼﾛｼ","kana_address":"ﾀﾅｶﾏﾁ","pref":"熊本県","city":"八代市","address":"田中町"},
{"zip_code":"8660015","kana_pref":"ｸﾏﾓﾄｹﾝ","kana_city":"ﾔﾂｼﾛｼ","kana_address":"ﾂｷｿﾞｴﾏﾁ","pref":"熊本県","city":"八代市","address":"築添町"},
{"zip_code":"8660857","kana_pref":"ｸﾏﾓﾄｹﾝ","kana_city":"ﾔﾂｼﾛｼ","kana_address":"ﾃﾞﾏﾁ","pref":"熊本県","city":"八代市","address":"出町"},
{"zip_code":"8660856","kana_pref":"ｸﾏﾓﾄｹﾝ","kana_city":"ﾔﾂｼﾛｼ","kana_address":"ﾄｵﾘﾁｮｳ","pref":"熊本県","city":"八代市","address":"通町"},
{"zip_code":"8660812","kana_pref":"ｸﾏﾓﾄｹﾝ","kana_city":"ﾔﾂｼﾛｼ","kana_address":"ﾅｶｶﾀﾏﾁ","pref":"熊本県","city":"八代市","address":"中片町"},
{"zip_code":"8660044","kana_pref":"ｸﾏﾓﾄｹﾝ","kana_city":"ﾔﾂｼﾛｼ","kana_address":"ﾅｶｷﾀﾏﾁ","pref":"熊本県","city":"八代市","address":"中北町"},
{"zip_code":"8660885","kana_pref":"ｸﾏﾓﾄｹﾝ","kana_city":"ﾔﾂｼﾛｼ","kana_address":"ﾅｶﾞｲｶﾘﾏﾁ","pref":"熊本県","city":"八代市","address":"永碇町"},
{"zip_code":"8660815","kana_pref":"ｸﾏﾓﾄｹﾝ","kana_city":"ﾔﾂｼﾛｼ","kana_address":"ﾅｶﾞﾀﾏﾁ","pref":"熊本県","city":"八代市","address":"長田町"},
{"zip_code":"8660064","kana_pref":"ｸﾏﾓﾄｹﾝ","kana_city":"ﾔﾂｼﾛｼ","kana_address":"ﾅﾗｷﾞﾏﾁ","pref":"熊本県","city":"八代市","address":"奈良木町"},
{"zip_code":"8660811","kana_pref":"ｸﾏﾓﾄｹﾝ","kana_city":"ﾔﾂｼﾛｼ","kana_address":"ﾆｼｶﾀﾏﾁ","pref":"熊本県","city":"八代市","address":"西片町"},
{"zip_code":"8660834","kana_pref":"ｸﾏﾓﾄｹﾝ","kana_city":"ﾔﾂｼﾛｼ","kana_address":"ﾆｼｷﾁｮｳ","pref":"熊本県","city":"八代市","address":"錦町"},
{"zip_code":"8660863","kana_pref":"ｸﾏﾓﾄｹﾝ","kana_city":"ﾔﾂｼﾛｼ","kana_address":"ﾆｼﾏﾂｴｼﾞｮｳﾏﾁ","pref":"熊本県","city":"八代市","address":"西松江城町"},
{"zip_code":"8660804","kana_pref":"ｸﾏﾓﾄｹﾝ","kana_city":"ﾔﾂｼﾛｼ","kana_address":"ﾆｼﾐﾔﾏﾁ","pref":"熊本県","city":"八代市","address":"西宮町"},
{"zip_code":"8660831","kana_pref":"ｸﾏﾓﾄｹﾝ","kana_city":"ﾔﾂｼﾛｼ","kana_address":"ﾊｷﾞﾜﾗﾏﾁ","pref":"熊本県","city":"八代市","address":"萩原町"},
{"zip_code":"8660041","kana_pref":"ｸﾏﾓﾄｹﾝ","kana_city":"ﾔﾂｼﾛｼ","kana_address":"ﾊﾁﾏﾝﾁｮｳ","pref":"熊本県","city":"八代市","address":"八幡町"},
{"zip_code":"8660843","kana_pref":"ｸﾏﾓﾄｹﾝ","kana_city":"ﾔﾂｼﾛｼ","kana_address":"ﾊﾅｿﾞﾉﾁｮｳ","pref":"熊本県","city":"八代市","address":"花園町"},
{"zip_code":"8660896","kana_pref":"ｸﾏﾓﾄｹﾝ","kana_city":"ﾔﾂｼﾛｼ","kana_address":"ﾋｵｷﾏﾁ","pref":"熊本県","city":"八代市","address":"日置町"},
{"zip_code":"8660814","kana_pref":"ｸﾏﾓﾄｹﾝ","kana_city":"ﾔﾂｼﾛｼ","kana_address":"ﾋｶﾞｼｶﾀﾏﾁ","pref":"熊本県","city":"八代市","address":"東片町"},
{"zip_code":"8660801","kana_pref":"ｸﾏﾓﾄｹﾝ","kana_city":"ﾔﾂｼﾛｼ","kana_address":"ﾋｶﾞｼﾏﾁ","pref":"熊本県","city":"八代市","address":"東町"},
{"zip_code":"8660851","kana_pref":"ｸﾏﾓﾄｹﾝ","kana_city":"ﾔﾂｼﾛｼ","kana_address":"ﾋﾞｼｬﾏﾙﾏﾁ","pref":"熊本県","city":"八代市","address":"毘舎丸町"},
{"zip_code":"8660074","kana_pref":"ｸﾏﾓﾄｹﾝ","kana_city":"ﾔﾂｼﾛｼ","kana_address":"ﾋﾗﾔﾏｼﾝﾏﾁ","pref":"熊本県","city":"八代市","address":"平山新町"},
{"zip_code":"8660063","kana_pref":"ｸﾏﾓﾄｹﾝ","kana_city":"ﾔﾂｼﾛｼ","kana_address":"ﾌﾞｲﾜﾗｶﾐﾏﾁ","pref":"熊本県","city":"八代市","address":"豊原上町"},
{"zip_code":"8660062","kana_pref":"ｸﾏﾓﾄｹﾝ","kana_city":"ﾔﾂｼﾛｼ","kana_address":"ﾌﾞｲﾜﾗﾅｶﾏﾁ","pref":"熊本県","city":"八代市","address":"豊原中町"},
{"zip_code":"8660065","kana_pref":"ｸﾏﾓﾄｹﾝ","kana_city":"ﾔﾂｼﾛｼ","kana_address":"ﾌﾞｲﾜﾗｼﾓﾏﾁ","pref":"熊本県","city":"八代市","address":"豊原下町"},
{"zip_code":"8660821","kana_pref":"ｸﾏﾓﾄｹﾝ","kana_city":"ﾔﾂｼﾛｼ","kana_address":"ﾌｸｼｮｳﾏﾁ","pref":"熊本県","city":"八代市","address":"福正町"},
{"zip_code":"8660822","kana_pref":"ｸﾏﾓﾄｹﾝ","kana_city":"ﾔﾂｼﾛｼ","kana_address":"ﾌｸｼｮｳﾓﾄﾏﾁ","pref":"熊本県","city":"八代市","address":"福正元町"},
{"zip_code":"8660855","kana_pref":"ｸﾏﾓﾄｹﾝ","kana_city":"ﾔﾂｼﾛｼ","kana_address":"ﾌｸﾛﾏﾁ","pref":"熊本県","city":"八代市","address":"袋町"},
{"zip_code":"8660043","kana_pref":"ｸﾏﾓﾄｹﾝ","kana_city":"ﾔﾂｼﾛｼ","kana_address":"ﾌﾙｼﾛﾏﾁ","pref":"熊本県","city":"八代市","address":"古城町"},
{"zip_code":"8660803","kana_pref":"ｸﾏﾓﾄｹﾝ","kana_city":"ﾔﾂｼﾛｼ","kana_address":"ﾌﾙﾌﾓﾄﾏﾁ","pref":"熊本県","city":"八代市","address":"古麓町"},
{"zip_code":"8660073","kana_pref":"ｸﾏﾓﾄｹﾝ","kana_city":"ﾔﾂｼﾛｼ","kana_address":"ﾎﾝﾉﾏﾁ","pref":"熊本県","city":"八代市","address":"本野町"},
{"zip_code":"8660861","kana_pref":"ｸﾏﾓﾄｹﾝ","kana_city":"ﾔﾂｼﾛｼ","kana_address":"ﾎﾝﾏﾁ","pref":"熊本県","city":"八代市","address":"本町"},
{"zip_code":"8660862","kana_pref":"ｸﾏﾓﾄｹﾝ","kana_city":"ﾔﾂｼﾛｼ","kana_address":"ﾏﾂｴｼﾞｮｳﾏﾁ","pref":"熊本県","city":"八代市","address":"松江城町"},
{"zip_code":"8660882","kana_pref":"ｸﾏﾓﾄｹﾝ","kana_city":"ﾔﾂｼﾛｼ","kana_address":"ﾏﾂｴﾎﾝﾏﾁ","pref":"熊本県","city":"八代市","address":"松江本町"},
{"zip_code":"8660883","kana_pref":"ｸﾏﾓﾄｹﾝ","kana_city":"ﾔﾂｼﾛｼ","kana_address":"ﾏﾂｴﾏﾁ","pref":"熊本県","city":"八代市","address":"松江町"},
{"zip_code":"8660884","kana_pref":"ｸﾏﾓﾄｹﾝ","kana_city":"ﾔﾂｼﾛｼ","kana_address":"ﾏﾂｻﾞｷﾏﾁ","pref":"熊本県","city":"八代市","address":"松崎町"},
{"zip_code":"8660841","kana_pref":"ｸﾏﾓﾄｹﾝ","kana_city":"ﾔﾂｼﾛｼ","kana_address":"ﾐﾄﾞﾘﾁｮｳ","pref":"熊本県","city":"八代市","address":"緑町"},
{"zip_code":"8660033","kana_pref":"ｸﾏﾓﾄｹﾝ","kana_city":"ﾔﾂｼﾛｼ","kana_address":"ﾐﾅﾄﾏﾁ","pref":"熊本県","city":"八代市","address":"港町"},
{"zip_code":"8660805","kana_pref":"ｸﾏﾓﾄｹﾝ","kana_city":"ﾔﾂｼﾛｼ","kana_address":"ﾐﾔｼﾞﾏﾁ","pref":"熊本県","city":"八代市","address":"宮地町"},
{"zip_code":"8660802","kana_pref":"ｸﾏﾓﾄｹﾝ","kana_city":"ﾔﾂｼﾛｼ","kana_address":"ﾐｮｳｹﾝﾏﾁ","pref":"熊本県","city":"八代市","address":"妙見町"},
{"zip_code":"8660055","kana_pref":"ｸﾏﾓﾄｹﾝ","kana_city":"ﾔﾂｼﾛｼ","kana_address":"ﾑｶｴﾏﾁ","pref":"熊本県","city":"八代市","address":"迎町"},
{"zip_code":"8660051","kana_pref":"ｸﾏﾓﾄｹﾝ","kana_city":"ﾔﾂｼﾛｼ","kana_address":"ﾑｷﾞｼﾏﾋｶﾞｼﾏﾁ","pref":"熊本県","city":"八代市","address":"麦島東町"},
{"zip_code":"8660052","kana_pref":"ｸﾏﾓﾄｹﾝ","kana_city":"ﾔﾂｼﾛｼ","kana_address":"ﾑｷﾞｼﾏﾆｼﾏﾁ","pref":"熊本県","city":"八代市","address":"麦島西町"},
{"zip_code":"8660846","kana_pref":"ｸﾏﾓﾄｹﾝ","kana_city":"ﾔﾂｼﾛｼ","kana_address":"ﾔﾖｲﾁｮｳ","pref":"熊本県","city":"八代市","address":"弥生町"},
{"zip_code":"8660833","kana_pref":"ｸﾏﾓﾄｹﾝ","kana_city":"ﾔﾂｼﾛｼ","kana_address":"ﾕｳﾊﾞﾁｮｳ","pref":"熊本県","city":"八代市","address":"夕葉町"},
{"zip_code":"8660875","kana_pref":"ｸﾏﾓﾄｹﾝ","kana_city":"ﾔﾂｼﾛｼ","kana_address":"ﾖｺﾃｼﾝﾏﾁ","pref":"熊本県","city":"八代市","address":"横手新町"},
{"zip_code":"8660874","kana_pref":"ｸﾏﾓﾄｹﾝ","kana_city":"ﾔﾂｼﾛｼ","kana_address":"ﾖｺﾃﾎﾝﾏﾁ","pref":"熊本県","city":"八代市","address":"横手本町"},
{"zip_code":"8660873","kana_pref":"ｸﾏﾓﾄｹﾝ","kana_city":"ﾔﾂｼﾛｼ","kana_address":"ﾖｺﾃﾏﾁ","pref":"熊本県","city":"八代市","address":"横手町"},
{"zip_code":"8660842","kana_pref":"ｸﾏﾓﾄｹﾝ","kana_city":"ﾔﾂｼﾛｼ","kana_address":"ﾜｶｸｻﾁｮｳ","pref":"熊本県","city":"八代市","address":"若草町"},
{"zip_code":"8660061","kana_pref":"ｸﾏﾓﾄｹﾝ","kana_city":"ﾔﾂｼﾛｼ","kana_address":"ﾜﾀｼﾏﾁ","pref":"熊本県","city":"八代市","address":"渡町"},
{"zip_code":"8660101","kana_pref":"ｸﾏﾓﾄｹﾝ","kana_city":"ｶﾐｱﾏｸｻｼ","kana_address":"ﾋﾒﾄﾞﾏﾁﾋﾒｳﾗ","pref":"熊本県","city":"上天草市","address":"姫戸町姫浦"},
{"zip_code":"8660102","kana_pref":"ｸﾏﾓﾄｹﾝ","kana_city":"ｶﾐｱﾏｸｻｼ","kana_address":"ﾋﾒﾄﾞﾏﾁﾌﾀﾏﾄﾞ","pref":"熊本県","city":"上天草市","address":"姫戸町二間戸"},
{"zip_code":"8660201","kana_pref":"ｸﾏﾓﾄｹﾝ","kana_city":"ｶﾐｱﾏｸｻｼ","kana_address":"ﾘｭｳｶﾞﾀｹﾏﾁｵｵﾄﾞｳ","pref":"熊本県","city":"上天草市","address":"龍ケ岳町大道"},
{"zip_code":"8660202","kana_pref":"ｸﾏﾓﾄｹﾝ","kana_city":"ｶﾐｱﾏｸｻｼ","kana_address":"ﾘｭｳｶﾞﾀｹﾏﾁﾀｶﾄﾞ","pref":"熊本県","city":"上天草市","address":"龍ケ岳町高戸"},
{"zip_code":"8660203","kana_pref":"ｸﾏﾓﾄｹﾝ","kana_city":"ｶﾐｱﾏｸｻｼ","kana_address":"ﾘｭｳｶﾞﾀｹﾏﾁﾋﾉｼﾏ","pref":"熊本県","city":"上天草市","address":"龍ケ岳町樋島"},
{"zip_code":"8660313","kana_pref":"ｸﾏﾓﾄｹﾝ","kana_city":"ｱﾏｸｻｼ","kana_address":"ｺﾞｼｮｳﾗﾏﾁｺﾞｼｮｳﾗ","pref":"熊本県","city":"天草市","address":"御所浦町御所浦"},
{"zip_code":"8660334","kana_pref":"ｸﾏﾓﾄｹﾝ","kana_city":"ｱﾏｸｻｼ","kana_address":"ｺﾞｼｮｳﾗﾏﾁﾏｷｼﾏ","pref":"熊本県","city":"天草市","address":"御所浦町牧島"},
{"zip_code":"8660303","kana_pref":"ｸﾏﾓﾄｹﾝ","kana_city":"ｱﾏｸｻｼ","kana_address":"ｺﾞｼｮｳﾗﾏﾁﾖｺｳﾗ","pref":"熊本県","city":"天草市","address":"御所浦町横浦"}]}