{"zip_code":[
{"zip_code":"8670000","kana_pref":"ｸﾏﾓﾄｹﾝ","kana_city":"ﾐﾅﾏﾀｼ","kana_address":"","pref":"熊本県","city":"水俣市","address":""},
{"zip_code":"8670044","kana_pref":"ｸﾏﾓﾄｹﾝ","kana_city":"ﾐﾅﾏﾀｼ","kana_address":"ｱｻﾋﾏﾁ","pref":"熊本県","city":"水俣市","address":"旭町"},
{"zip_code":"8670063","kana_pref":"ｸﾏﾓﾄｹﾝ","kana_city":"ﾐﾅﾏﾀｼ","kana_address":"ｱﾗｲｷﾘﾏﾁ","pref":"熊本県","city":"水俣市","address":"洗切町"},
{"zip_code":"8670174","kana_pref":"ｸﾏﾓﾄｹﾝ","kana_city":"ﾐﾅﾏﾀｼ","kana_address":"ｲｼｻﾞｶｶﾞﾜ","pref":"熊本県","city":"水俣市","address":"石坂川"},
{"zip_code":"8670172","kana_pref":"ｸﾏﾓﾄｹﾝ","kana_city":"ﾐﾅﾏﾀｼ","kana_address":"ｲﾁﾜﾀｾ","pref":"熊本県","city":"水俣市","address":"市渡瀬"},
{"zip_code":"8670056","kana_pref":"ｸﾏﾓﾄｹﾝ","kana_city":"ﾐﾅﾏﾀｼ","kana_address":"ｳﾒﾄﾞﾁｮｳ","pref":"熊本県","city":"水俣市","address":"梅戸町"},
{"zip_code":"8670036","kana_pref":"ｸﾏﾓﾄｹﾝ","kana_city":"ﾐﾅﾏﾀｼ","kana_address":"ｳﾗｶﾞﾐﾁｮｳ","pref":"熊本県","city":"水俣市","address":"浦上町"},
{"zip_code":"8670032","kana_pref":"ｸﾏﾓﾄｹﾝ","kana_city":"ﾐﾅﾏﾀｼ","kana_address":"ｴｿﾞｴ","pref":"熊本県","city":"水俣市","address":"江添"},
{"zip_code":"8670022","kana_pref":"ｸﾏﾓﾄｹﾝ","kana_city":"ﾐﾅﾏﾀｼ","kana_address":"ｴﾅﾝﾁｮｳ","pref":"熊本県","city":"水俣市","address":"江南町"},
{"zip_code":"8670283","kana_pref":"ｸﾏﾓﾄｹﾝ","kana_city":"ﾐﾅﾏﾀｼ","kana_address":"ｵｵｶﾜ","pref":"熊本県","city":"水俣市","address":"大川"},
{"zip_code":"8670009","kana_pref":"ｸﾏﾓﾄｹﾝ","kana_city":"ﾐﾅﾏﾀｼ","kana_address":"ｵｵｻｺ","pref":"熊本県","city":"水俣市","address":"大迫"},
{"zip_code":"8670042","kana_pref":"ｸﾏﾓﾄｹﾝ","kana_city":"ﾐﾅﾏﾀｼ","kana_address":"ｵｵｿﾞﾉﾁｮｳ","pref":"熊本県","city":"水俣市","address":"大園町"},
{"zip_code":"8670057","kana_pref":"ｸﾏﾓﾄｹﾝ","kana_city":"ﾐﾅﾏﾀｼ","kana_address":"ｷﾞｵﾝﾁｮｳ","pref":"熊本県","city":"水俣市","address":"祇園町"},
{"zip_code":"8670281","kana_pref":"ｸﾏﾓﾄｹﾝ","kana_city":"ﾐﾅﾏﾀｼ","kana_address":"ｸｷﾞﾉ","pref":"熊本県","city":"水俣市","address":"久木野"},
{"zip_code":"8670173","kana_pref":"ｸﾏﾓﾄｹﾝ","kana_city":"ﾐﾅﾏﾀｼ","kana_address":"ｸｽﾞﾜﾀﾘ","pref":"熊本県","city":"水俣市","address":"葛渡"},
{"zip_code":"8670066","kana_pref":"ｸﾏﾓﾄｹﾝ","kana_city":"ﾐﾅﾏﾀｼ","kana_address":"ｺｶﾞﾏﾁ","pref":"熊本県","city":"水俣市","address":"古賀町"},
{"zip_code":"8670284","kana_pref":"ｸﾏﾓﾄｹﾝ","kana_city":"ﾐﾅﾏﾀｼ","kana_address":"ｺｼｺﾊﾞ","pref":"熊本県","city":"水俣市","address":"越小場"},
{"zip_code":"8670012","kana_pref":"ｸﾏﾓﾄｹﾝ","kana_city":"ﾐﾅﾏﾀｼ","kana_address":"ｺｼﾞｮｳ","pref":"熊本県","city":"水俣市","address":"古城"},
{"zip_code":"8670001","kana_pref":"ｸﾏﾓﾄｹﾝ","kana_city":"ﾐﾅﾏﾀｼ","kana_address":"ｺﾂﾅｷﾞ","pref":"熊本県","city":"水俣市","address":"小津奈木"},
{"zip_code":"8670064","kana_pref":"ｸﾏﾓﾄｹﾝ","kana_city":"ﾐﾅﾏﾀｼ","kana_address":"ｻｲﾜｲﾏﾁ","pref":"熊本県","city":"水俣市","address":"幸町"},
{"zip_code":"8670059","kana_pref":"ｸﾏﾓﾄｹﾝ","kana_city":"ﾐﾅﾏﾀｼ","kana_address":"ｻｶｴﾏﾁ","pref":"熊本県","city":"水俣市","address":"栄町"},
{"zip_code":"8670045","kana_pref":"ｸﾏﾓﾄｹﾝ","kana_city":"ﾐﾅﾏﾀｼ","kana_address":"ｻｸﾗｲﾁｮｳ","pref":"熊本県","city":"水俣市","address":"桜井町"},
{"zip_code":"8670007","kana_pref":"ｸﾏﾓﾄｹﾝ","kana_city":"ﾐﾅﾏﾀｼ","kana_address":"ｻｸﾗｶﾞｵｶ","pref":"熊本県","city":"水俣市","address":"桜ケ丘"},
{"zip_code":"8670067","kana_pref":"ｸﾏﾓﾄｹﾝ","kana_city":"ﾐﾅﾏﾀｼ","kana_address":"ｼｵﾊﾏﾁｮｳ","pref":"熊本県","city":"水俣市","address":"塩浜町"},
{"zip_code":"8670054","kana_pref":"ｸﾏﾓﾄｹﾝ","kana_city":"ﾐﾅﾏﾀｼ","kana_address":"ｼｵﾐﾁｮｳ","pref":"熊本県","city":"水俣市","address":"汐見町"},
{"zip_code":"8670051","kana_pref":"ｸﾏﾓﾄｹﾝ","kana_city":"ﾐﾅﾏﾀｼ","kana_address":"ｼｮｳﾜﾏﾁ","pref":"熊本県","city":"水俣市","address":"昭和町"},
{"zip_code":"8670006","kana_pref":"ｸﾏﾓﾄｹﾝ","kana_city":"ﾐﾅﾏﾀｼ","kana_address":"ｼﾗﾊﾏﾁｮｳ","pref":"熊本県","city":"水俣市","address":"白浜町"},
{"zip_code":"8670011","kana_pref":"ｸﾏﾓﾄｹﾝ","kana_city":"ﾐﾅﾏﾀｼ","kana_address":"ｼﾞﾝﾅｲ","pref":"熊本県","city":"水俣市","address":"陣内"},
{"zip_code":"8670016","kana_pref":"ｸﾏﾓﾄｹﾝ","kana_city":"ﾐﾅﾏﾀｼ","kana_address":"ｽｽﾊﾞﾙ","pref":"熊本県","city":"水俣市","address":"薄原"},
{"zip_code":"8670116","kana_pref":"ｸﾏﾓﾄｹﾝ","kana_city":"ﾐﾅﾏﾀｼ","kana_address":"ｽｽﾊﾞﾙ","pref":"熊本県","city":"水俣市","address":"薄原"},
{"zip_code":"8670043","kana_pref":"ｸﾏﾓﾄｹﾝ","kana_city":"ﾐﾅﾏﾀｼ","kana_address":"ﾀﾞｲｺｸﾁｮｳ","pref":"熊本県","city":"水俣市","address":"大黒町"},
{"zip_code":"8670048","kana_pref":"ｸﾏﾓﾄｹﾝ","kana_city":"ﾐﾅﾏﾀｼ","kana_address":"ﾀﾀﾗﾁｮｳ","pref":"熊本県","city":"水俣市","address":"多々良町"},
{"zip_code":"8670062","kana_pref":"ｸﾏﾓﾄｹﾝ","kana_city":"ﾐﾅﾏﾀｼ","kana_address":"ﾂｷｼﾞ","pref":"熊本県","city":"水俣市","address":"築地"},
{"zip_code":"8670035","kana_pref":"ｸﾏﾓﾄｹﾝ","kana_city":"ﾐﾅﾏﾀｼ","kana_address":"ﾂｷﾉｳﾗ","pref":"熊本県","city":"水俣市","address":"月浦"},
{"zip_code":"8670041","kana_pref":"ｸﾏﾓﾄｹﾝ","kana_city":"ﾐﾅﾏﾀｼ","kana_address":"ﾃﾝｼﾞﾝﾁｮｳ","pref":"熊本県","city":"水俣市","address":"天神町"},
{"zip_code":"8670014","kana_pref":"ｸﾏﾓﾄｹﾝ","kana_city":"ﾐﾅﾏﾀｼ","kana_address":"ﾅｶﾂﾞﾙ","pref":"熊本県","city":"水俣市","address":"中鶴"},
{"zip_code":"8670033","kana_pref":"ｸﾏﾓﾄｹﾝ","kana_city":"ﾐﾅﾏﾀｼ","kana_address":"ﾅｶﾞｻｷ","pref":"熊本県","city":"水俣市","address":"長崎"},
{"zip_code":"8670024","kana_pref":"ｸﾏﾓﾄｹﾝ","kana_city":"ﾐﾅﾏﾀｼ","kana_address":"ﾅｶﾞﾉ","pref":"熊本県","city":"水俣市","address":"長野"},
{"zip_code":"8670013","kana_pref":"ｸﾏﾓﾄｹﾝ","kana_city":"ﾐﾅﾏﾀｼ","kana_address":"ﾅｶﾞﾉﾁｮｳ","pref":"熊本県","city":"水俣市","address":"長野町"},
{"zip_code":"8670023","kana_pref":"ｸﾏﾓﾄｹﾝ","kana_city":"ﾐﾅﾏﾀｼ","kana_address":"ﾅﾝﾌﾟｸｼﾞ","pref":"熊本県","city":"水俣市","address":"南福寺"},
{"zip_code":"8670053","kana_pref":"ｸﾏﾓﾄｹﾝ","kana_city":"ﾐﾅﾏﾀｼ","kana_address":"ﾉｸﾞﾁﾁｮｳ","pref":"熊本県","city":"水俣市","address":"野口町"},
{"zip_code":"8670031","kana_pref":"ｸﾏﾓﾄｹﾝ","kana_city":"ﾐﾅﾏﾀｼ","kana_address":"ﾊﾁﾉｸﾎﾞﾁｮｳ","pref":"熊本県","city":"水俣市","address":"八ノ窪町"},
{"zip_code":"8670061","kana_pref":"ｸﾏﾓﾄｹﾝ","kana_city":"ﾐﾅﾏﾀｼ","kana_address":"ﾊﾁﾏﾝﾁｮｳ","pref":"熊本県","city":"水俣市","address":"八幡町"},
{"zip_code":"8670002","kana_pref":"ｸﾏﾓﾄｹﾝ","kana_city":"ﾐﾅﾏﾀｼ","kana_address":"ﾊﾂﾉ","pref":"熊本県","city":"水俣市","address":"初野"},
{"zip_code":"8670008","kana_pref":"ｸﾏﾓﾄｹﾝ","kana_city":"ﾐﾅﾏﾀｼ","kana_address":"ﾊﾏ","pref":"熊本県","city":"水俣市","address":"浜"},
{"zip_code":"8670065","kana_pref":"ｸﾏﾓﾄｹﾝ","kana_city":"ﾐﾅﾏﾀｼ","kana_address":"ﾊﾏﾏﾁ","pref":"熊本県","city":"水俣市","address":"浜町"},
{"zip_code":"8670068","kana_pref":"ｸﾏﾓﾄｹﾝ","kana_city":"ﾐﾅﾏﾀｼ","kana_address":"ﾊﾏﾏﾂﾁｮｳ","pref":"熊本県","city":"水俣市","address":"浜松町"},
{"zip_code":"8670003","kana_pref":"ｸﾏﾓﾄｹﾝ","kana_city":"ﾐﾅﾏﾀｼ","kana_address":"ﾋﾊﾞﾘｶﾞｵｶ","pref":"熊本県","city":"水俣市","address":"ひばりケ丘"},
{"zip_code":"8670049","kana_pref":"ｸﾏﾓﾄｹﾝ","kana_city":"ﾐﾅﾏﾀｼ","kana_address":"ﾋｬｸｹﾝﾁｮｳ","pref":"熊本県","city":"水俣市","address":"百間町"},
{"zip_code":"8670021","kana_pref":"ｸﾏﾓﾄｹﾝ","kana_city":"ﾐﾅﾏﾀｼ","kana_address":"ﾋﾗﾏﾁ","pref":"熊本県","city":"水俣市","address":"平町"},
{"zip_code":"8670015","kana_pref":"ｸﾏﾓﾄｹﾝ","kana_city":"ﾐﾅﾏﾀｼ","kana_address":"ﾌｶｶﾞﾜ","pref":"熊本県","city":"水俣市","address":"深川"},
{"zip_code":"8670034","kana_pref":"ｸﾏﾓﾄｹﾝ","kana_city":"ﾐﾅﾏﾀｼ","kana_address":"ﾌｸﾛ","pref":"熊本県","city":"水俣市","address":"袋"},
{"zip_code":"8670282","kana_pref":"ｸﾏﾓﾄｹﾝ","kana_city":"ﾐﾅﾏﾀｼ","kana_address":"ﾌﾙｻﾄ","pref":"熊本県","city":"水俣市","address":"古里"},
{"zip_code":"8670171","kana_pref":"ｸﾏﾓﾄｹﾝ","kana_city":"ﾐﾅﾏﾀｼ","kana_address":"ﾎｳｶﾞﾜﾁ","pref":"熊本県","city":"水俣市","address":"宝川内"},
{"zip_code":"8670005","kana_pref":"ｸﾏﾓﾄｹﾝ","kana_city":"ﾐﾅﾏﾀｼ","kana_address":"ﾏｷﾉｳﾁ","pref":"熊本県","city":"水俣市","address":"牧ノ内"},
{"zip_code":"8670058","kana_pref":"ｸﾏﾓﾄｹﾝ","kana_city":"ﾐﾅﾏﾀｼ","kana_address":"ﾏﾙｼﾏﾁｮｳ","pref":"熊本県","city":"水俣市","address":"丸島町"},
{"zip_code":"8670047","kana_pref":"ｸﾏﾓﾄｹﾝ","kana_city":"ﾐﾅﾏﾀｼ","kana_address":"ﾐﾄﾞﾘｶﾞｵｶ","pref":"熊本県","city":"水俣市","address":"緑ケ丘"},
{"zip_code":"8670052","kana_pref":"ｸﾏﾓﾄｹﾝ","kana_city":"ﾐﾅﾏﾀｼ","kana_address":"ﾐﾅﾄﾏﾁ","pref":"熊本県","city":"水俣市","address":"港町"},
{"zip_code":"8670055","kana_pref":"ｸﾏﾓﾄｹﾝ","kana_city":"ﾐﾅﾏﾀｼ","kana_address":"ﾐｮｳｼﾞﾝﾁｮｳ","pref":"熊本県","city":"水俣市","address":"明神町"},
{"zip_code":"8670046","kana_pref":"ｸﾏﾓﾄｹﾝ","kana_city":"ﾐﾅﾏﾀｼ","kana_address":"ﾔﾏﾃﾁｮｳ","pref":"熊本県","city":"水俣市","address":"山手町"},
{"zip_code":"8670025","kana_pref":"ｸﾏﾓﾄｹﾝ","kana_city":"ﾐﾅﾏﾀｼ","kana_address":"ﾕﾃﾞ","pref":"熊本県","city":"水俣市","address":"湯出"},
{"zip_code":"8670004","kana_pref":"ｸﾏﾓﾄｹﾝ","kana_city":"ﾐﾅﾏﾀｼ","kana_address":"ﾜﾗﾋﾞﾉ","pref":"熊本県","city":"水俣市","address":"わらび野"}]}