{"zip_code":[
{"zip_code":"8695152","kana_pref":"ｸﾏﾓﾄｹﾝ","kana_city":"ﾔﾂｼﾛｼ","kana_address":"ｱｹﾞﾏﾁ","pref":"熊本県","city":"八代市","address":"揚町"},
{"zip_code":"8694501","kana_pref":"ｸﾏﾓﾄｹﾝ","kana_city":"ﾔﾂｼﾛｼ","kana_address":"ｲｽﾞﾐﾏﾁｶｷｻﾞｺ","pref":"熊本県","city":"八代市","address":"泉町柿迫"},
{"zip_code":"8694401","kana_pref":"ｸﾏﾓﾄｹﾝ","kana_city":"ﾔﾂｼﾛｼ","kana_address":"ｲｽﾞﾐﾏﾁｶｷｻﾞｺ","pref":"熊本県","city":"八代市","address":"泉町柿迫"},
{"zip_code":"8694402","kana_pref":"ｸﾏﾓﾄｹﾝ","kana_city":"ﾔﾂｼﾛｼ","kana_address":"ｲｽﾞﾐﾏﾁｸﾘｷﾞ","pref":"熊本県","city":"八代市","address":"泉町栗木"},
{"zip_code":"8694513","kana_pref":"ｸﾏﾓﾄｹﾝ","kana_city":"ﾔﾂｼﾛｼ","kana_address":"ｲｽﾞﾐﾏﾁｸﾚｺ","pref":"熊本県","city":"八代市","address":"泉町久連子"},
{"zip_code":"8694514","kana_pref":"ｸﾏﾓﾄｹﾝ","kana_city":"ﾔﾂｼﾛｼ","kana_address":"ｲｽﾞﾐﾏﾁｼｲﾊﾞﾙ","pref":"熊本県","city":"八代市","address":"泉町椎原"},
{"zip_code":"8694403","kana_pref":"ｸﾏﾓﾄｹﾝ","kana_city":"ﾔﾂｼﾛｼ","kana_address":"ｲｽﾞﾐﾏﾁｼﾓﾀﾞｹ","pref":"熊本県","city":"八代市","address":"泉町下岳"},
{"zip_code":"8694515","kana_pref":"ｸﾏﾓﾄｹﾝ","kana_city":"ﾔﾂｼﾛｼ","kana_address":"ｲｽﾞﾐﾏﾁﾆﾀｵ","pref":"熊本県","city":"八代市","address":"泉町仁田尾"},
{"zip_code":"8694511","kana_pref":"ｸﾏﾓﾄｹﾝ","kana_city":"ﾔﾂｼﾛｼ","kana_address":"ｲｽﾞﾐﾏﾁﾊｷﾞ","pref":"熊本県","city":"八代市","address":"泉町葉木"},
{"zip_code":"8694512","kana_pref":"ｸﾏﾓﾄｹﾝ","kana_city":"ﾔﾂｼﾛｼ","kana_address":"ｲｽﾞﾐﾏﾁﾓﾐｷﾞ","pref":"熊本県","city":"八代市","address":"泉町樅木"},
{"zip_code":"8694611","kana_pref":"ｸﾏﾓﾄｹﾝ","kana_city":"ﾔﾂｼﾛｼ","kana_address":"ｵｶﾏﾁｼｮｳｼﾞ","pref":"熊本県","city":"八代市","address":"岡町小路"},
{"zip_code":"8694613","kana_pref":"ｸﾏﾓﾄｹﾝ","kana_city":"ﾔﾂｼﾛｼ","kana_address":"ｵｶﾏﾁﾀﾆｶﾞﾜ","pref":"熊本県","city":"八代市","address":"岡町谷川"},
{"zip_code":"8694612","kana_pref":"ｸﾏﾓﾄｹﾝ","kana_city":"ﾔﾂｼﾛｼ","kana_address":"ｵｶﾏﾁﾅｶ","pref":"熊本県","city":"八代市","address":"岡町中"},
{"zip_code":"8694213","kana_pref":"ｸﾏﾓﾄｹﾝ","kana_city":"ﾔﾂｼﾛｼ","kana_address":"ｶｶﾞﾐﾏﾁｱﾘｻ","pref":"熊本県","city":"八代市","address":"鏡町有佐"},
{"zip_code":"8694202","kana_pref":"ｸﾏﾓﾄｹﾝ","kana_city":"ﾔﾂｼﾛｼ","kana_address":"ｶｶﾞﾐﾏﾁｳﾁﾀﾞ","pref":"熊本県","city":"八代市","address":"鏡町内田"},
{"zip_code":"8694223","kana_pref":"ｸﾏﾓﾄｹﾝ","kana_city":"ﾔﾂｼﾛｼ","kana_address":"ｶｶﾞﾐﾏﾁｶｲｽﾞ","pref":"熊本県","city":"八代市","address":"鏡町貝洲"},
{"zip_code":"8694203","kana_pref":"ｸﾏﾓﾄｹﾝ","kana_city":"ﾔﾂｼﾛｼ","kana_address":"ｶｶﾞﾐﾏﾁｶｶﾞﾐ","pref":"熊本県","city":"八代市","address":"鏡町鏡"},
{"zip_code":"8694201","kana_pref":"ｸﾏﾓﾄｹﾝ","kana_city":"ﾔﾂｼﾛｼ","kana_address":"ｶｶﾞﾐﾏﾁｶｶﾞﾐﾑﾗ","pref":"熊本県","city":"八代市","address":"鏡町鏡村"},
{"zip_code":"8694211","kana_pref":"ｸﾏﾓﾄｹﾝ","kana_city":"ﾔﾂｼﾛｼ","kana_address":"ｶｶﾞﾐﾏﾁｶﾐｶｶﾞﾐ","pref":"熊本県","city":"八代市","address":"鏡町上鏡"},
{"zip_code":"8694225","kana_pref":"ｸﾏﾓﾄｹﾝ","kana_city":"ﾔﾂｼﾛｼ","kana_address":"ｶｶﾞﾐﾏﾁｷﾀｼﾝﾁ","pref":"熊本県","city":"八代市","address":"鏡町北新地"},
{"zip_code":"8694224","kana_pref":"ｸﾏﾓﾄｹﾝ","kana_city":"ﾔﾂｼﾛｼ","kana_address":"ｶｶﾞﾐﾏﾁｼｵﾊﾏ","pref":"熊本県","city":"八代市","address":"鏡町塩浜"},
{"zip_code":"8694204","kana_pref":"ｸﾏﾓﾄｹﾝ","kana_city":"ﾔﾂｼﾛｼ","kana_address":"ｶｶﾞﾐﾏﾁｼﾊﾞｸﾁ","pref":"熊本県","city":"八代市","address":"鏡町芝口"},
{"zip_code":"8694212","kana_pref":"ｸﾏﾓﾄｹﾝ","kana_city":"ﾔﾂｼﾛｼ","kana_address":"ｶｶﾞﾐﾏﾁｼﾓｱﾘｻ","pref":"熊本県","city":"八代市","address":"鏡町下有佐"},
{"zip_code":"8694215","kana_pref":"ｸﾏﾓﾄｹﾝ","kana_city":"ﾔﾂｼﾛｼ","kana_address":"ｶｶﾞﾐﾏﾁｼﾓﾑﾗ","pref":"熊本県","city":"八代市","address":"鏡町下村"},
{"zip_code":"8694214","kana_pref":"ｸﾏﾓﾄｹﾝ","kana_city":"ﾔﾂｼﾛｼ","kana_address":"ｶｶﾞﾐﾏﾁﾅｶｼﾏ","pref":"熊本県","city":"八代市","address":"鏡町中島"},
{"zip_code":"8694205","kana_pref":"ｸﾏﾓﾄｹﾝ","kana_city":"ﾔﾂｼﾛｼ","kana_address":"ｶｶﾞﾐﾏﾁﾉｻﾞｷ","pref":"熊本県","city":"八代市","address":"鏡町野崎"},
{"zip_code":"8694221","kana_pref":"ｸﾏﾓﾄｹﾝ","kana_city":"ﾔﾂｼﾛｼ","kana_address":"ｶｶﾞﾐﾏﾁﾎｳﾃﾞ","pref":"熊本県","city":"八代市","address":"鏡町宝出"},
{"zip_code":"8694222","kana_pref":"ｸﾏﾓﾄｹﾝ","kana_city":"ﾔﾂｼﾛｼ","kana_address":"ｶｶﾞﾐﾏﾁﾘｮｳﾃﾞ","pref":"熊本県","city":"八代市","address":"鏡町両出"},
{"zip_code":"8694615","kana_pref":"ｸﾏﾓﾄｹﾝ","kana_city":"ﾔﾂｼﾛｼ","kana_address":"ｶﾜﾀﾏﾁﾋｶﾞｼ","pref":"熊本県","city":"八代市","address":"川田町東"},
{"zip_code":"8694616","kana_pref":"ｸﾏﾓﾄｹﾝ","kana_city":"ﾔﾂｼﾛｼ","kana_address":"ｶﾜﾀﾏﾁﾆｼ","pref":"熊本県","city":"八代市","address":"川田町西"},
{"zip_code":"8695162","kana_pref":"ｸﾏﾓﾄｹﾝ","kana_city":"ﾔﾂｼﾛｼ","kana_address":"ｷﾀﾊﾞﾗﾏﾁ","pref":"熊本県","city":"八代市","address":"北原町"},
{"zip_code":"8695166","kana_pref":"ｸﾏﾓﾄｹﾝ","kana_city":"ﾔﾂｼﾛｼ","kana_address":"ｷﾀﾍｲﾜﾏﾁ","pref":"熊本県","city":"八代市","address":"北平和町"},
{"zip_code":"8694614","kana_pref":"ｸﾏﾓﾄｹﾝ","kana_city":"ﾔﾂｼﾛｼ","kana_address":"ｺｳｾﾞﾝｼﾞﾏﾁ","pref":"熊本県","city":"八代市","address":"興善寺町"},
{"zip_code":"8696104","kana_pref":"ｸﾏﾓﾄｹﾝ","kana_city":"ﾔﾂｼﾛｼ","kana_address":"ｻｶﾓﾄﾏﾁｱﾕｶﾞｴﾘ","pref":"熊本県","city":"八代市","address":"坂本町鮎帰"},
{"zip_code":"8696115","kana_pref":"ｸﾏﾓﾄｹﾝ","kana_city":"ﾔﾂｼﾛｼ","kana_address":"ｻｶﾓﾄﾏﾁｱﾗｾ","pref":"熊本県","city":"八代市","address":"坂本町荒瀬"},
{"zip_code":"8696114","kana_pref":"ｸﾏﾓﾄｹﾝ","kana_city":"ﾔﾂｼﾛｼ","kana_address":"ｻｶﾓﾄﾏﾁｲﾁﾉﾏﾀ","pref":"熊本県","city":"八代市","address":"坂本町市ノ俣"},
{"zip_code":"8696112","kana_pref":"ｸﾏﾓﾄｹﾝ","kana_city":"ﾔﾂｼﾛｼ","kana_address":"ｻｶﾓﾄﾏﾁｶﾏｾ","pref":"熊本県","city":"八代市","address":"坂本町鎌瀬"},
{"zip_code":"8695221","kana_pref":"ｸﾏﾓﾄｹﾝ","kana_city":"ﾔﾂｼﾛｼ","kana_address":"ｻｶﾓﾄﾏﾁｶﾜﾀｹ","pref":"熊本県","city":"八代市","address":"坂本町川嶽"},
{"zip_code":"8695225","kana_pref":"ｸﾏﾓﾄｹﾝ","kana_city":"ﾔﾂｼﾛｼ","kana_address":"ｻｶﾓﾄﾏﾁｸﾀﾞﾗｷﾞｶﾐ","pref":"熊本県","city":"八代市","address":"坂本町百済来上"},
{"zip_code":"8695224","kana_pref":"ｸﾏﾓﾄｹﾝ","kana_city":"ﾔﾂｼﾛｼ","kana_address":"ｻｶﾓﾄﾏﾁｸﾀﾞﾗｷﾞｼﾓ","pref":"熊本県","city":"八代市","address":"坂本町百済来下"},
{"zip_code":"8696101","kana_pref":"ｸﾏﾓﾄｹﾝ","kana_city":"ﾔﾂｼﾛｼ","kana_address":"ｻｶﾓﾄﾏﾁｻｲﾌﾞ","pref":"熊本県","city":"八代市","address":"坂本町西部"},
{"zip_code":"8696105","kana_pref":"ｸﾏﾓﾄｹﾝ","kana_city":"ﾔﾂｼﾛｼ","kana_address":"ｻｶﾓﾄﾏﾁｻｶﾓﾄ","pref":"熊本県","city":"八代市","address":"坂本町坂本"},
{"zip_code":"8695223","kana_pref":"ｸﾏﾓﾄｹﾝ","kana_city":"ﾔﾂｼﾛｼ","kana_address":"ｻｶﾓﾄﾏﾁﾀｶﾞﾐ","pref":"熊本県","city":"八代市","address":"坂本町田上"},
{"zip_code":"8695222","kana_pref":"ｸﾏﾓﾄｹﾝ","kana_city":"ﾔﾂｼﾛｼ","kana_address":"ｻｶﾓﾄﾏﾁﾂﾙﾊﾞﾐ","pref":"熊本県","city":"八代市","address":"坂本町鶴喰"},
{"zip_code":"8696103","kana_pref":"ｸﾏﾓﾄｹﾝ","kana_city":"ﾔﾂｼﾛｼ","kana_address":"ｻｶﾓﾄﾏﾁﾅｶﾀﾆ","pref":"熊本県","city":"八代市","address":"坂本町中谷"},
{"zip_code":"8696113","kana_pref":"ｸﾏﾓﾄｹﾝ","kana_city":"ﾔﾂｼﾛｼ","kana_address":"ｻｶﾓﾄﾏﾁﾅｶﾂﾐﾁ","pref":"熊本県","city":"八代市","address":"坂本町中津道"},
{"zip_code":"8696111","kana_pref":"ｸﾏﾓﾄｹﾝ","kana_city":"ﾔﾂｼﾛｼ","kana_address":"ｻｶﾓﾄﾏﾁﾊｷﾞ","pref":"熊本県","city":"八代市","address":"坂本町葉木"},
{"zip_code":"8696102","kana_pref":"ｸﾏﾓﾄｹﾝ","kana_city":"ﾔﾂｼﾛｼ","kana_address":"ｻｶﾓﾄﾏﾁﾌｶﾐ","pref":"熊本県","city":"八代市","address":"坂本町深水"},
{"zip_code":"8695151","kana_pref":"ｸﾏﾓﾄｹﾝ","kana_city":"ﾔﾂｼﾛｼ","kana_address":"ｼｷｶﾞﾜﾁﾏﾁ","pref":"熊本県","city":"八代市","address":"敷川内町"},
{"zip_code":"8694723","kana_pref":"ｸﾏﾓﾄｹﾝ","kana_city":"ﾔﾂｼﾛｼ","kana_address":"ｼｮｳﾜﾄﾞｳｼﾞﾝﾏﾁ","pref":"熊本県","city":"八代市","address":"昭和同仁町"},
{"zip_code":"8694721","kana_pref":"ｸﾏﾓﾄｹﾝ","kana_city":"ﾔﾂｼﾛｼ","kana_address":"ｼｮｳﾜﾆｯｼﾝﾏﾁ","pref":"熊本県","city":"八代市","address":"昭和日進町"},
{"zip_code":"8694722","kana_pref":"ｸﾏﾓﾄｹﾝ","kana_city":"ﾔﾂｼﾛｼ","kana_address":"ｼｮｳﾜﾒｲﾁｮｳﾏﾁ","pref":"熊本県","city":"八代市","address":"昭和明徴町"},
{"zip_code":"8694701","kana_pref":"ｸﾏﾓﾄｹﾝ","kana_city":"ﾔﾂｼﾛｼ","kana_address":"ｾﾝﾁｮｳﾏﾁｵｵﾑﾀ","pref":"熊本県","city":"八代市","address":"千丁町太牟田"},
{"zip_code":"8694704","kana_pref":"ｸﾏﾓﾄｹﾝ","kana_city":"ﾔﾂｼﾛｼ","kana_address":"ｾﾝﾁｮｳﾏﾁｺｶﾞﾃﾞ","pref":"熊本県","city":"八代市","address":"千丁町古閑出"},
{"zip_code":"8694703","kana_pref":"ｸﾏﾓﾄｹﾝ","kana_city":"ﾔﾂｼﾛｼ","kana_address":"ｾﾝﾁｮｳﾏﾁｼﾝﾑﾀ","pref":"熊本県","city":"八代市","address":"千丁町新牟田"},
{"zip_code":"8694702","kana_pref":"ｸﾏﾓﾄｹﾝ","kana_city":"ﾔﾂｼﾛｼ","kana_address":"ｾﾝﾁｮｳﾏﾁﾖｼｵｳﾏﾙ","pref":"熊本県","city":"八代市","address":"千丁町吉王丸"},
{"zip_code":"8695164","kana_pref":"ｸﾏﾓﾄｹﾝ","kana_city":"ﾔﾂｼﾛｼ","kana_address":"ｿｿﾞｳﾏﾁ","pref":"熊本県","city":"八代市","address":"鼠蔵町"},
{"zip_code":"8695154","kana_pref":"ｸﾏﾓﾄｹﾝ","kana_city":"ﾔﾂｼﾛｼ","kana_address":"ﾀｶｳｴﾎﾝﾏﾁ","pref":"熊本県","city":"八代市","address":"高植本町"},
{"zip_code":"8694303","kana_pref":"ｸﾏﾓﾄｹﾝ","kana_city":"ﾔﾂｼﾛｼ","kana_address":"ﾄｳﾖｳﾏﾁｶﾜﾏﾀ","pref":"熊本県","city":"八代市","address":"東陽町河俣"},
{"zip_code":"8694302","kana_pref":"ｸﾏﾓﾄｹﾝ","kana_city":"ﾔﾂｼﾛｼ","kana_address":"ﾄｳﾖｳﾏﾁｷﾀ","pref":"熊本県","city":"八代市","address":"東陽町北"},
{"zip_code":"8694304","kana_pref":"ｸﾏﾓﾄｹﾝ","kana_city":"ﾔﾂｼﾛｼ","kana_address":"ﾄｳﾖｳﾏﾁｺｳﾗ","pref":"熊本県","city":"八代市","address":"東陽町小浦"},
{"zip_code":"8694301","kana_pref":"ｸﾏﾓﾄｹﾝ","kana_city":"ﾔﾂｼﾛｼ","kana_address":"ﾄｳﾖｳﾏﾁﾐﾅﾐ","pref":"熊本県","city":"八代市","address":"東陽町南"},
{"zip_code":"8695146","kana_pref":"ｸﾏﾓﾄｹﾝ","kana_city":"ﾔﾂｼﾛｼ","kana_address":"ﾋﾅｸﾞｵｵﾂﾎﾞﾏﾁ","pref":"熊本県","city":"八代市","address":"日奈久大坪町"},
{"zip_code":"8695134","kana_pref":"ｸﾏﾓﾄｹﾝ","kana_city":"ﾔﾂｼﾛｼ","kana_address":"ﾋﾅｸﾞｶﾐﾆｼﾏﾁ","pref":"熊本県","city":"八代市","address":"日奈久上西町"},
{"zip_code":"8695133","kana_pref":"ｸﾏﾓﾄｹﾝ","kana_city":"ﾔﾂｼﾛｼ","kana_address":"ﾋﾅｸﾞﾅｶﾆｼﾏﾁ","pref":"熊本県","city":"八代市","address":"日奈久中西町"},
{"zip_code":"8695132","kana_pref":"ｸﾏﾓﾄｹﾝ","kana_city":"ﾔﾂｼﾛｼ","kana_address":"ﾋﾅｸﾞｼﾓﾆｼﾏﾁ","pref":"熊本県","city":"八代市","address":"日奈久下西町"},
{"zip_code":"8695148","kana_pref":"ｸﾏﾓﾄｹﾝ","kana_city":"ﾔﾂｼﾛｼ","kana_address":"ﾋﾅｸﾞｻｶｴﾏﾁ","pref":"熊本県","city":"八代市","address":"日奈久栄町"},
{"zip_code":"8695141","kana_pref":"ｸﾏﾓﾄｹﾝ","kana_city":"ﾔﾂｼﾛｼ","kana_address":"ﾋﾅｸﾞｼｵﾐﾅﾐﾏﾁ","pref":"熊本県","city":"八代市","address":"日奈久塩南町"},
{"zip_code":"8695142","kana_pref":"ｸﾏﾓﾄｹﾝ","kana_city":"ﾔﾂｼﾛｼ","kana_address":"ﾋﾅｸﾞｼｵｷﾀﾏﾁ","pref":"熊本県","city":"八代市","address":"日奈久塩北町"},
{"zip_code":"8695147","kana_pref":"ｸﾏﾓﾄｹﾝ","kana_city":"ﾔﾂｼﾛｼ","kana_address":"ﾋﾅｸﾞｼﾝｶｲﾏﾁ","pref":"熊本県","city":"八代市","address":"日奈久新開町"},
{"zip_code":"8695145","kana_pref":"ｸﾏﾓﾄｹﾝ","kana_city":"ﾔﾂｼﾛｼ","kana_address":"ﾋﾅｸﾞｼﾝﾃﾞﾝﾏﾁ","pref":"熊本県","city":"八代市","address":"日奈久新田町"},
{"zip_code":"8695143","kana_pref":"ｸﾏﾓﾄｹﾝ","kana_city":"ﾔﾂｼﾛｼ","kana_address":"ﾋﾅｸﾞﾀｹﾉｳﾁﾏﾁ","pref":"熊本県","city":"八代市","address":"日奈久竹之内町"},
{"zip_code":"8695135","kana_pref":"ｸﾏﾓﾄｹﾝ","kana_city":"ﾔﾂｼﾛｼ","kana_address":"ﾋﾅｸﾞﾅｶﾏﾁ","pref":"熊本県","city":"八代市","address":"日奈久中町"},
{"zip_code":"8695137","kana_pref":"ｸﾏﾓﾄｹﾝ","kana_city":"ﾔﾂｼﾛｼ","kana_address":"ﾋﾅｸﾞﾊﾏﾏﾁ","pref":"熊本県","city":"八代市","address":"日奈久浜町"},
{"zip_code":"8695136","kana_pref":"ｸﾏﾓﾄｹﾝ","kana_city":"ﾔﾂｼﾛｼ","kana_address":"ﾋﾅｸﾞﾋｶﾞｼﾏﾁ","pref":"熊本県","city":"八代市","address":"日奈久東町"},
{"zip_code":"8695138","kana_pref":"ｸﾏﾓﾄｹﾝ","kana_city":"ﾔﾂｼﾛｼ","kana_address":"ﾋﾅｸﾞﾍｲｾｲﾏﾁ","pref":"熊本県","city":"八代市","address":"日奈久平成町"},
{"zip_code":"8695131","kana_pref":"ｸﾏﾓﾄｹﾝ","kana_city":"ﾔﾂｼﾛｼ","kana_address":"ﾋﾅｸﾞﾏｺﾞｼﾏﾁ","pref":"熊本県","city":"八代市","address":"日奈久馬越町"},
{"zip_code":"8695144","kana_pref":"ｸﾏﾓﾄｹﾝ","kana_city":"ﾔﾂｼﾛｼ","kana_address":"ﾋﾅｸﾞﾔﾏｼﾀﾏﾁ","pref":"熊本県","city":"八代市","address":"日奈久山下町"},
{"zip_code":"8695173","kana_pref":"ｸﾏﾓﾄｹﾝ","kana_city":"ﾔﾂｼﾛｼ","kana_address":"ﾌﾀﾐｱｶﾏﾂﾏﾁ","pref":"熊本県","city":"八代市","address":"二見赤松町"},
{"zip_code":"8695174","kana_pref":"ｸﾏﾓﾄｹﾝ","kana_city":"ﾔﾂｼﾛｼ","kana_address":"ﾌﾀﾐｼﾓｵｵﾉﾏﾁ","pref":"熊本県","city":"八代市","address":"二見下大野町"},
{"zip_code":"8695171","kana_pref":"ｸﾏﾓﾄｹﾝ","kana_city":"ﾔﾂｼﾛｼ","kana_address":"ﾌﾀﾐｽｸﾞﾁﾏﾁ","pref":"熊本県","city":"八代市","address":"二見洲口町"},
{"zip_code":"8695175","kana_pref":"ｸﾏﾓﾄｹﾝ","kana_city":"ﾔﾂｼﾛｼ","kana_address":"ﾌﾀﾐﾉﾀｻﾞｷﾏﾁ","pref":"熊本県","city":"八代市","address":"二見野田崎町"},
{"zip_code":"8695172","kana_pref":"ｸﾏﾓﾄｹﾝ","kana_city":"ﾔﾂｼﾛｼ","kana_address":"ﾌﾀﾐﾎﾝﾏﾁ","pref":"熊本県","city":"八代市","address":"二見本町"},
{"zip_code":"8695155","kana_pref":"ｸﾏﾓﾄｹﾝ","kana_city":"ﾔﾂｼﾛｼ","kana_address":"ﾐｽﾞｼﾏﾏﾁ","pref":"熊本県","city":"八代市","address":"水島町"},
{"zip_code":"8695163","kana_pref":"ｸﾏﾓﾄｹﾝ","kana_city":"ﾔﾂｼﾛｼ","kana_address":"ﾐﾂｴｺﾞﾏﾁ","pref":"熊本県","city":"八代市","address":"三江湖町"},
{"zip_code":"8695165","kana_pref":"ｸﾏﾓﾄｹﾝ","kana_city":"ﾔﾂｼﾛｼ","kana_address":"ﾐﾅﾐﾍｲﾜﾏﾁ","pref":"熊本県","city":"八代市","address":"南平和町"},
{"zip_code":"8695153","kana_pref":"ｸﾏﾓﾄｹﾝ","kana_city":"ﾔﾂｼﾛｼ","kana_address":"ﾓﾔｲﾏﾁ","pref":"熊本県","city":"八代市","address":"催合町"},
{"zip_code":"8695161","kana_pref":"ｸﾏﾓﾄｹﾝ","kana_city":"ﾔﾂｼﾛｼ","kana_address":"ﾖｼﾑﾀﾏﾁ","pref":"熊本県","city":"八代市","address":"葭牟田町"},
{"zip_code":"8690213","kana_pref":"ｸﾏﾓﾄｹﾝ","kana_city":"ﾀﾏﾅｼ","kana_address":"ﾀｲﾒｲﾏﾁｵｳｷﾞｻﾞｷ","pref":"熊本県","city":"玉名市","address":"岱明町扇崎"},
{"zip_code":"8690224","kana_pref":"ｸﾏﾓﾄｹﾝ","kana_city":"ﾀﾏﾅｼ","kana_address":"ﾀｲﾒｲﾏﾁｵｵﾉｼﾓ","pref":"熊本県","city":"玉名市","address":"岱明町大野下"},
{"zip_code":"8690235","kana_pref":"ｸﾏﾓﾄｹﾝ","kana_city":"ﾀﾏﾅｼ","kana_address":"ﾀｲﾒｲﾏﾁｺｶﾞ","pref":"熊本県","city":"玉名市","address":"岱明町古閑"},
{"zip_code":"8690233","kana_pref":"ｸﾏﾓﾄｹﾝ","kana_city":"ﾀﾏﾅｼ","kana_address":"ﾀｲﾒｲﾏﾁｺｶﾞ","pref":"熊本県","city":"玉名市","address":"岱明町古閑"},
{"zip_code":"8690235","kana_pref":"ｸﾏﾓﾄｹﾝ","kana_city":"ﾀﾏﾅｼ","kana_address":"ﾀｲﾒｲﾏﾁｻｲｼｮｳｼﾞ","pref":"熊本県","city":"玉名市","address":"岱明町西照寺"},
{"zip_code":"8690236","kana_pref":"ｸﾏﾓﾄｹﾝ","kana_city":"ﾀﾏﾅｼ","kana_address":"ﾀｲﾒｲﾏﾁｻｲｼｮｳｼﾞ","pref":"熊本県","city":"玉名市","address":"岱明町西照寺"},
{"zip_code":"8690212","kana_pref":"ｸﾏﾓﾄｹﾝ","kana_city":"ﾀﾏﾅｼ","kana_address":"ﾀｲﾒｲﾏﾁｼﾓｵｷﾉｽ","pref":"熊本県","city":"玉名市","address":"岱明町下沖洲"},
{"zip_code":"8690221","kana_pref":"ｸﾏﾓﾄｹﾝ","kana_city":"ﾀﾏﾅｼ","kana_address":"ﾀｲﾒｲﾏﾁｼﾓﾏｴﾊﾗ","pref":"熊本県","city":"玉名市","address":"岱明町下前原"},
{"zip_code":"8690235","kana_pref":"ｸﾏﾓﾄｹﾝ","kana_city":"ﾀﾏﾅｼ","kana_address":"ﾀｲﾒｲﾏﾁｼﾞｮｳ","pref":"熊本県","city":"玉名市","address":"岱明町上"},
{"zip_code":"8690232","kana_pref":"ｸﾏﾓﾄｹﾝ","kana_city":"ﾀﾏﾅｼ","kana_address":"ﾀｲﾒｲﾏﾁｼﾞｮｳ","pref":"熊本県","city":"玉名市","address":"岱明町上"},
{"zip_code":"8690231","kana_pref":"ｸﾏﾓﾄｹﾝ","kana_city":"ﾀﾏﾅｼ","kana_address":"ﾀｲﾒｲﾏﾁｼｮｳﾔﾏ","pref":"熊本県","city":"玉名市","address":"岱明町庄山"},
{"zip_code":"8690202","kana_pref":"ｸﾏﾓﾄｹﾝ","kana_city":"ﾀﾏﾅｼ","kana_address":"ﾀｲﾒｲﾏﾁﾀｶﾐﾁ","pref":"熊本県","city":"玉名市","address":"岱明町高道"},
{"zip_code":"8690223","kana_pref":"ｸﾏﾓﾄｹﾝ","kana_city":"ﾀﾏﾅｼ","kana_address":"ﾀｲﾒｲﾏﾁﾅｶﾄﾞ","pref":"熊本県","city":"玉名市","address":"岱明町中土"},
{"zip_code":"8690211","kana_pref":"ｸﾏﾓﾄｹﾝ","kana_city":"ﾀﾏﾅｼ","kana_address":"ﾀｲﾒｲﾏﾁﾅﾍﾞ","pref":"熊本県","city":"玉名市","address":"岱明町鍋"},
{"zip_code":"8690222","kana_pref":"ｸﾏﾓﾄｹﾝ","kana_city":"ﾀﾏﾅｼ","kana_address":"ﾀｲﾒｲﾏﾁﾉｸﾞﾁ","pref":"熊本県","city":"玉名市","address":"岱明町野口"},
{"zip_code":"8690203","kana_pref":"ｸﾏﾓﾄｹﾝ","kana_city":"ﾀﾏﾅｼ","kana_address":"ﾀｲﾒｲﾏﾁﾊﾏﾀﾞ","pref":"熊本県","city":"玉名市","address":"岱明町浜田"},
{"zip_code":"8690238","kana_pref":"ｸﾏﾓﾄｹﾝ","kana_city":"ﾀﾏﾅｼ","kana_address":"ﾀｲﾒｲﾏﾁﾋﾗｷﾀﾞ","pref":"熊本県","city":"玉名市","address":"岱明町開田"},
{"zip_code":"8690234","kana_pref":"ｸﾏﾓﾄｹﾝ","kana_city":"ﾀﾏﾅｼ","kana_address":"ﾀｲﾒｲﾏﾁﾐｻｷ","pref":"熊本県","city":"玉名市","address":"岱明町三崎"},
{"zip_code":"8690201","kana_pref":"ｸﾏﾓﾄｹﾝ","kana_city":"ﾀﾏﾅｼ","kana_address":"ﾀｲﾒｲﾏﾁﾔﾏｼﾀ","pref":"熊本県","city":"玉名市","address":"岱明町山下"},
{"zip_code":"8691206","kana_pref":"ｸﾏﾓﾄｹﾝ","kana_city":"ｷｸﾁｼ","kana_address":"ｷｮｸｼｲｻｶ","pref":"熊本県","city":"菊池市","address":"旭志伊坂"},
{"zip_code":"8691208","kana_pref":"ｸﾏﾓﾄｹﾝ","kana_city":"ｷｸﾁｼ","kana_address":"ｷｮｸｼｲﾊｷﾞ","pref":"熊本県","city":"菊池市","address":"旭志伊萩"},
{"zip_code":"8691203","kana_pref":"ｸﾏﾓﾄｹﾝ","kana_city":"ｷｸﾁｼ","kana_address":"ｷｮｸｼｵﾀﾙ","pref":"熊本県","city":"菊池市","address":"旭志尾足"},
{"zip_code":"8691204","kana_pref":"ｸﾏﾓﾄｹﾝ","kana_city":"ｷｸﾁｼ","kana_address":"ｷｮｸｼｵﾊﾞﾙ","pref":"熊本県","city":"菊池市","address":"旭志小原"},
{"zip_code":"8691205","kana_pref":"ｸﾏﾓﾄｹﾝ","kana_city":"ｷｸﾁｼ","kana_address":"ｷｮｸｼｶﾜﾍﾞ","pref":"熊本県","city":"菊池市","address":"旭志川辺"},
{"zip_code":"8691207","kana_pref":"ｸﾏﾓﾄｹﾝ","kana_city":"ｷｸﾁｼ","kana_address":"ｷｮｸｼｼﾝﾒｲ","pref":"熊本県","city":"菊池市","address":"旭志新明"},
{"zip_code":"8691202","kana_pref":"ｸﾏﾓﾄｹﾝ","kana_city":"ｷｸﾁｼ","kana_address":"ｷｮｸｼﾌﾓﾄ","pref":"熊本県","city":"菊池市","address":"旭志麓"},
{"zip_code":"8691201","kana_pref":"ｸﾏﾓﾄｹﾝ","kana_city":"ｷｸﾁｼ","kana_address":"ｷｮｸｼﾍﾞﾝﾘ","pref":"熊本県","city":"菊池市","address":"旭志弁利"},
{"zip_code":"8690400","kana_pref":"ｸﾏﾓﾄｹﾝ","kana_city":"ｳﾄｼ","kana_address":"","pref":"熊本県","city":"宇土市","address":""},
{"zip_code":"8693175","kana_pref":"ｸﾏﾓﾄｹﾝ","kana_city":"ｳﾄｼ","kana_address":"ｱｶｾﾏﾁ","pref":"熊本県","city":"宇土市","address":"赤瀬町"},
{"zip_code":"8690432","kana_pref":"ｸﾏﾓﾄｹﾝ","kana_city":"ｳﾄｼ","kana_address":"ｱｻﾋﾏﾁ","pref":"熊本県","city":"宇土市","address":"旭町"},
{"zip_code":"8690465","kana_pref":"ｸﾏﾓﾄｹﾝ","kana_city":"ｳﾄｼ","kana_address":"ｱﾋﾞｷﾏﾁ","pref":"熊本県","city":"宇土市","address":"網引町"},
{"zip_code":"8690461","kana_pref":"ｸﾏﾓﾄｹﾝ","kana_city":"ｳﾄｼ","kana_address":"ｱﾐﾂﾞﾏﾁ","pref":"熊本県","city":"宇土市","address":"網津町"},
{"zip_code":"8690441","kana_pref":"ｸﾏﾓﾄｹﾝ","kana_city":"ｳﾄｼ","kana_address":"ｲｼｺｳｼﾞﾏﾁ","pref":"熊本県","city":"宇土市","address":"石小路町"},
{"zip_code":"8690456","kana_pref":"ｸﾏﾓﾄｹﾝ","kana_city":"ｳﾄｼ","kana_address":"ｲｼﾊﾞｼﾏﾁ","pref":"熊本県","city":"宇土市","address":"石橋町"},
{"zip_code":"8690435","kana_pref":"ｸﾏﾓﾄｹﾝ","kana_city":"ｳﾄｼ","kana_address":"ｲﾁﾘｷﾞﾏﾁ","pref":"熊本県","city":"宇土市","address":"一里木町"},
{"zip_code":"8690423","kana_pref":"ｸﾏﾓﾄｹﾝ","kana_city":"ｳﾄｼ","kana_address":"ｲﾑﾀﾏﾁ","pref":"熊本県","city":"宇土市","address":"伊無田町"},
{"zip_code":"8690422","kana_pref":"ｸﾏﾓﾄｹﾝ","kana_city":"ｳﾄｼ","kana_address":"ｲﾘﾁﾏﾁ","pref":"熊本県","city":"宇土市","address":"入地町"},
{"zip_code":"8690412","kana_pref":"ｸﾏﾓﾄｹﾝ","kana_city":"ｳﾄｼ","kana_address":"ｲﾜｺｿﾏﾁ","pref":"熊本県","city":"宇土市","address":"岩古曽町"},
{"zip_code":"8690405","kana_pref":"ｸﾏﾓﾄｹﾝ","kana_city":"ｳﾄｼ","kana_address":"ｳﾏﾉｾﾏﾁ","pref":"熊本県","city":"宇土市","address":"馬之瀬町"},
{"zip_code":"8690445","kana_pref":"ｸﾏﾓﾄｹﾝ","kana_city":"ｳﾄｼ","kana_address":"ｳﾗﾀﾏﾁ","pref":"熊本県","city":"宇土市","address":"浦田町"},
{"zip_code":"8690464","kana_pref":"ｸﾏﾓﾄｹﾝ","kana_city":"ｳﾄｼ","kana_address":"ｴﾂﾞｶﾏﾁ","pref":"熊本県","city":"宇土市","address":"恵塚町"},
{"zip_code":"8693172","kana_pref":"ｸﾏﾓﾄｹﾝ","kana_city":"ｳﾄｼ","kana_address":"ｶﾐｵｳﾀﾞﾏﾁ","pref":"熊本県","city":"宇土市","address":"上網田町"},
{"zip_code":"8690451","kana_pref":"ｸﾏﾓﾄｹﾝ","kana_city":"ｳﾄｼ","kana_address":"ｷﾀﾀﾞﾝﾊﾞﾗﾏﾁ","pref":"熊本県","city":"宇土市","address":"北段原町"},
{"zip_code":"8690425","kana_pref":"ｸﾏﾓﾄｹﾝ","kana_city":"ｳﾄｼ","kana_address":"ｸﾘｻﾞｷﾏﾁ","pref":"熊本県","city":"宇土市","address":"栗崎町"},
{"zip_code":"8690426","kana_pref":"ｸﾏﾓﾄｹﾝ","kana_city":"ｳﾄｼ","kana_address":"ｺｳｱｲﾏﾁ","pref":"熊本県","city":"宇土市","address":"神合町"},
{"zip_code":"8690415","kana_pref":"ｸﾏﾓﾄｹﾝ","kana_city":"ｳﾄｼ","kana_address":"ｺｵｻﾞﾄﾏﾁ","pref":"熊本県","city":"宇土市","address":"古保里町"},
{"zip_code":"8690454","kana_pref":"ｸﾏﾓﾄｹﾝ","kana_city":"ｳﾄｼ","kana_address":"ｺｼﾞｮｳﾏﾁ","pref":"熊本県","city":"宇土市","address":"古城町"},
{"zip_code":"8690417","kana_pref":"ｸﾏﾓﾄｹﾝ","kana_city":"ｳﾄｼ","kana_address":"ｻｶｲﾒﾏﾁ","pref":"熊本県","city":"宇土市","address":"境目町"},
{"zip_code":"8690453","kana_pref":"ｸﾏﾓﾄｹﾝ","kana_city":"ｳﾄｼ","kana_address":"ｻｶｴﾏﾁ","pref":"熊本県","city":"宇土市","address":"栄町"},
{"zip_code":"8690402","kana_pref":"ｸﾏﾓﾄｹﾝ","kana_city":"ｳﾄｼ","kana_address":"ｻｻﾜﾗﾏﾁ","pref":"熊本県","city":"宇土市","address":"笹原町"},
{"zip_code":"8690406","kana_pref":"ｸﾏﾓﾄｹﾝ","kana_city":"ｳﾄｼ","kana_address":"ｻｼﾞｯﾁｮｳ","pref":"熊本県","city":"宇土市","address":"三拾町"},
{"zip_code":"8693173","kana_pref":"ｸﾏﾓﾄｹﾝ","kana_city":"ｳﾄｼ","kana_address":"ｼﾓｵｳﾀﾞﾏﾁ","pref":"熊本県","city":"宇土市","address":"下網田町"},
{"zip_code":"8690462","kana_pref":"ｸﾏﾓﾄｹﾝ","kana_city":"ｳﾄｼ","kana_address":"ｼﾞｮｳﾂｶﾏﾁ","pref":"熊本県","city":"宇土市","address":"城塚町"},
{"zip_code":"8690442","kana_pref":"ｸﾏﾓﾄｹﾝ","kana_city":"ｳﾄｼ","kana_address":"ｼﾞｮｳﾉｳﾗﾏﾁ","pref":"熊本県","city":"宇土市","address":"城之浦町"},
{"zip_code":"8690436","kana_pref":"ｸﾏﾓﾄｹﾝ","kana_city":"ｳﾄｼ","kana_address":"ｼﾞｮｳﾌﾏﾁ","pref":"熊本県","city":"宇土市","address":"定府町"},
{"zip_code":"8690403","kana_pref":"ｸﾏﾓﾄｹﾝ","kana_city":"ｳﾄｼ","kana_address":"ｼﾝｶﾞｲﾏﾁ","pref":"熊本県","city":"宇土市","address":"新開町"},
{"zip_code":"8690433","kana_pref":"ｸﾏﾓﾄｹﾝ","kana_city":"ｳﾄｼ","kana_address":"ｼﾝｺｳｼﾞﾏﾁ","pref":"熊本県","city":"宇土市","address":"新小路町"},
{"zip_code":"8690444","kana_pref":"ｸﾏﾓﾄｹﾝ","kana_city":"ｳﾄｼ","kana_address":"ｼﾝﾏﾁ","pref":"熊本県","city":"宇土市","address":"新町"},
{"zip_code":"8690419","kana_pref":"ｸﾏﾓﾄｹﾝ","kana_city":"ｳﾄｼ","kana_address":"ｼﾝﾏﾂﾜﾗﾏﾁ","pref":"熊本県","city":"宇土市","address":"新松原町"},
{"zip_code":"8690424","kana_pref":"ｸﾏﾓﾄｹﾝ","kana_city":"ｳﾄｼ","kana_address":"ｼﾝﾒﾏﾁ","pref":"熊本県","city":"宇土市","address":"神馬町"},
{"zip_code":"8690401","kana_pref":"ｸﾏﾓﾄｹﾝ","kana_city":"ｳﾄｼ","kana_address":"ｽﾐﾖｼﾏﾁ","pref":"熊本県","city":"宇土市","address":"住吉町"},
{"zip_code":"8690418","kana_pref":"ｸﾏﾓﾄｹﾝ","kana_city":"ｳﾄｼ","kana_address":"ｾﾞﾝﾄﾞｳｼﾞﾏﾁ","pref":"熊本県","city":"宇土市","address":"善道寺町"},
{"zip_code":"8690443","kana_pref":"ｸﾏﾓﾄｹﾝ","kana_city":"ｳﾄｼ","kana_address":"ｾﾝﾊﾞﾏﾁ","pref":"熊本県","city":"宇土市","address":"船場町"},
{"zip_code":"8690452","kana_pref":"ｸﾏﾓﾄｹﾝ","kana_city":"ｳﾄｼ","kana_address":"ﾀｶﾔﾅｷﾞﾏﾁ","pref":"熊本県","city":"宇土市","address":"高柳町"},
{"zip_code":"8690414","kana_pref":"ｸﾏﾓﾄｹﾝ","kana_city":"ｳﾄｼ","kana_address":"ﾀﾁｵｶﾏﾁ","pref":"熊本県","city":"宇土市","address":"立岡町"},
{"zip_code":"8690408","kana_pref":"ｸﾏﾓﾄｹﾝ","kana_city":"ｳﾄｼ","kana_address":"ﾂｲｺﾞﾒﾏﾁ","pref":"熊本県","city":"宇土市","address":"築籠町"},
{"zip_code":"8690455","kana_pref":"ｸﾏﾓﾄｹﾝ","kana_city":"ｳﾄｼ","kana_address":"ﾂﾊﾞﾜﾗﾏﾁ","pref":"熊本県","city":"宇土市","address":"椿原町"},
{"zip_code":"8693174","kana_pref":"ｸﾏﾓﾄｹﾝ","kana_city":"ｳﾄｼ","kana_address":"ﾄｸﾞﾁﾏﾁ","pref":"熊本県","city":"宇土市","address":"戸口町"},
{"zip_code":"8693171","kana_pref":"ｸﾏﾓﾄｹﾝ","kana_city":"ｳﾄｼ","kana_address":"ﾅｶﾞﾊﾏﾏﾁ","pref":"熊本県","city":"宇土市","address":"長浜町"},
{"zip_code":"8690463","kana_pref":"ｸﾏﾓﾄｹﾝ","kana_city":"ｳﾄｼ","kana_address":"ﾉﾂﾞﾙﾏﾁ","pref":"熊本県","city":"宇土市","address":"野鶴町"},
{"zip_code":"8690404","kana_pref":"ｸﾏﾓﾄｹﾝ","kana_city":"ｳﾄｼ","kana_address":"ﾊｼﾘｶﾞﾀﾏﾁ","pref":"熊本県","city":"宇土市","address":"走潟町"},
{"zip_code":"8690410","kana_pref":"ｸﾏﾓﾄｹﾝ","kana_city":"ｳﾄｼ","kana_address":"ﾊﾅｿﾞﾉﾀﾞｲﾏﾁ","pref":"熊本県","city":"宇土市","address":"花園台町"},
{"zip_code":"8690413","kana_pref":"ｸﾏﾓﾄｹﾝ","kana_city":"ｳﾄｼ","kana_address":"ﾊﾅｿﾞﾉﾏﾁ","pref":"熊本県","city":"宇土市","address":"花園町"},
{"zip_code":"8690431","kana_pref":"ｸﾏﾓﾄｹﾝ","kana_city":"ｳﾄｼ","kana_address":"ﾎﾝﾏﾁ","pref":"熊本県","city":"宇土市","address":"本町"},
{"zip_code":"8690407","kana_pref":"ｸﾏﾓﾄｹﾝ","kana_city":"ｳﾄｼ","kana_address":"ﾏﾂﾜﾗﾏﾁ","pref":"熊本県","city":"宇土市","address":"松原町"},
{"zip_code":"8690416","kana_pref":"ｸﾏﾓﾄｹﾝ","kana_city":"ｳﾄｼ","kana_address":"ﾏﾂﾔﾏﾏﾁ","pref":"熊本県","city":"宇土市","address":"松山町"},
{"zip_code":"8690411","kana_pref":"ｸﾏﾓﾄｹﾝ","kana_city":"ｳﾄｼ","kana_address":"ﾐｽﾞﾏﾁ","pref":"熊本県","city":"宇土市","address":"水町"},
{"zip_code":"8690421","kana_pref":"ｸﾏﾓﾄｹﾝ","kana_city":"ｳﾄｼ","kana_address":"ﾐﾅﾐﾀﾞﾝﾊﾞﾗﾏﾁ","pref":"熊本県","city":"宇土市","address":"南段原町"},
{"zip_code":"8690457","kana_pref":"ｸﾏﾓﾄｹﾝ","kana_city":"ｳﾄｼ","kana_address":"ﾐﾔﾉｼｮｳﾏﾁ","pref":"熊本県","city":"宇土市","address":"宮庄町"},
{"zip_code":"8690434","kana_pref":"ｸﾏﾓﾄｹﾝ","kana_city":"ｳﾄｼ","kana_address":"ﾓﾝﾅｲﾏﾁ","pref":"熊本県","city":"宇土市","address":"門内町"},
{"zip_code":"8693600","kana_pref":"ｸﾏﾓﾄｹﾝ","kana_city":"ｶﾐｱﾏｸｻｼ","kana_address":"","pref":"熊本県","city":"上天草市","address":""},
{"zip_code":"8693604","kana_pref":"ｸﾏﾓﾄｹﾝ","kana_city":"ｶﾐｱﾏｸｻｼ","kana_address":"ｵｵﾔﾉﾏﾁｲﾜ","pref":"熊本県","city":"上天草市","address":"大矢野町維和"},
{"zip_code":"8693602","kana_pref":"ｸﾏﾓﾄｹﾝ","kana_city":"ｶﾐｱﾏｸｻｼ","kana_address":"ｵｵﾔﾉﾏﾁｶﾐ","pref":"熊本県","city":"上天草市","address":"大矢野町上"},
{"zip_code":"8693603","kana_pref":"ｸﾏﾓﾄｹﾝ","kana_city":"ｶﾐｱﾏｸｻｼ","kana_address":"ｵｵﾔﾉﾏﾁﾅｶ","pref":"熊本県","city":"上天草市","address":"大矢野町中"},
{"zip_code":"8693601","kana_pref":"ｸﾏﾓﾄｹﾝ","kana_city":"ｶﾐｱﾏｸｻｼ","kana_address":"ｵｵﾔﾉﾏﾁﾉﾎﾞﾘﾀﾃ","pref":"熊本県","city":"上天草市","address":"大矢野町登立"},
{"zip_code":"8693711","kana_pref":"ｸﾏﾓﾄｹﾝ","kana_city":"ｶﾐｱﾏｸｻｼ","kana_address":"ｵｵﾔﾉﾏﾁﾕｼﾏ","pref":"熊本県","city":"上天草市","address":"大矢野町湯島"},
{"zip_code":"8690500","kana_pref":"ｸﾏﾓﾄｹﾝ","kana_city":"ｳｷｼ","kana_address":"","pref":"熊本県","city":"宇城市","address":""},
{"zip_code":"8690624","kana_pref":"ｸﾏﾓﾄｹﾝ","kana_city":"ｳｷｼ","kana_address":"ｵｶﾞﾜﾏﾁｴｶﾞｼﾗ","pref":"熊本県","city":"宇城市","address":"小川町江頭"},
{"zip_code":"8690621","kana_pref":"ｸﾏﾓﾄｹﾝ","kana_city":"ｳｷｼ","kana_address":"ｵｶﾞﾜﾏﾁｵｶﾞﾜ","pref":"熊本県","city":"宇城市","address":"小川町小川"},
{"zip_code":"8690623","kana_pref":"ｸﾏﾓﾄｹﾝ","kana_city":"ｳｷｼ","kana_address":"ｵｶﾞﾜﾏﾁｶﾜｼﾞﾘ","pref":"熊本県","city":"宇城市","address":"小川町川尻"},
{"zip_code":"8690601","kana_pref":"ｸﾏﾓﾄｹﾝ","kana_city":"ｳｷｼ","kana_address":"ｵｶﾞﾜﾏﾁｷﾀｵﾉ","pref":"熊本県","city":"宇城市","address":"小川町北小野"},
{"zip_code":"8690616","kana_pref":"ｸﾏﾓﾄｹﾝ","kana_city":"ｳｷｼ","kana_address":"ｵｶﾞﾜﾏﾁｷﾀｶｲﾄｳ","pref":"熊本県","city":"宇城市","address":"小川町北海東"},
{"zip_code":"8690631","kana_pref":"ｸﾏﾓﾄｹﾝ","kana_city":"ｳｷｼ","kana_address":"ｵｶﾞﾜﾏﾁｷﾀｼﾝﾃﾞﾝ","pref":"熊本県","city":"宇城市","address":"小川町北新田"},
{"zip_code":"8690604","kana_pref":"ｸﾏﾓﾄｹﾝ","kana_city":"ｳｷｼ","kana_address":"ｵｶﾞﾜﾏﾁｷﾀﾍﾞﾀ","pref":"熊本県","city":"宇城市","address":"小川町北部田"},
{"zip_code":"8690606","kana_pref":"ｸﾏﾓﾄｹﾝ","kana_city":"ｳｷｼ","kana_address":"ｵｶﾞﾜﾏﾁｺﾞｳﾉｴ","pref":"熊本県","city":"宇城市","address":"小川町河江"},
{"zip_code":"8690635","kana_pref":"ｸﾏﾓﾄｹﾝ","kana_city":"ｳｷｼ","kana_address":"ｵｶﾞﾜﾏﾁｼﾗﾇｲ","pref":"熊本県","city":"宇城市","address":"小川町不知火"},
{"zip_code":"8690633","kana_pref":"ｸﾏﾓﾄｹﾝ","kana_city":"ｳｷｼ","kana_address":"ｵｶﾞﾜﾏﾁｼﾝﾃﾞﾝ","pref":"熊本県","city":"宇城市","address":"小川町新田"},
{"zip_code":"8690636","kana_pref":"ｸﾏﾓﾄｹﾝ","kana_city":"ｳｷｼ","kana_address":"ｵｶﾞﾜﾏﾁｼﾝﾃﾞﾝﾃﾞ","pref":"熊本県","city":"宇城市","address":"小川町新田出"},
{"zip_code":"8690634","kana_pref":"ｸﾏﾓﾄｹﾝ","kana_city":"ｳｷｼ","kana_address":"ｵｶﾞﾜﾏﾁｽﾐﾖｼ","pref":"熊本県","city":"宇城市","address":"小川町住吉"},
{"zip_code":"8690602","kana_pref":"ｸﾏﾓﾄｹﾝ","kana_city":"ｳｷｼ","kana_address":"ｵｶﾞﾜﾏﾁﾅｶｵﾉ","pref":"熊本県","city":"宇城市","address":"小川町中小野"},
{"zip_code":"8690615","kana_pref":"ｸﾏﾓﾄｹﾝ","kana_city":"ｳｷｼ","kana_address":"ｵｶﾞﾜﾏﾁﾆｼｶｲﾄｳ","pref":"熊本県","city":"宇城市","address":"小川町西海東"},
{"zip_code":"8690622","kana_pref":"ｸﾏﾓﾄｹﾝ","kana_city":"ｳｷｼ","kana_address":"ｵｶﾞﾜﾏﾁﾆｼｷﾀｵｶﾞﾜ","pref":"熊本県","city":"宇城市","address":"小川町西北小川"},
{"zip_code":"8690613","kana_pref":"ｸﾏﾓﾄｹﾝ","kana_city":"ｳｷｼ","kana_address":"ｵｶﾞﾜﾏﾁﾋｶﾞｼｵｶﾞﾜ","pref":"熊本県","city":"宇城市","address":"小川町東小川"},
{"zip_code":"8690611","kana_pref":"ｸﾏﾓﾄｹﾝ","kana_city":"ｳｷｼ","kana_address":"ｵｶﾞﾜﾏﾁﾋｶﾞｼｶｲﾄｳ","pref":"熊本県","city":"宇城市","address":"小川町東海東"},
{"zip_code":"8690614","kana_pref":"ｸﾏﾓﾄｹﾝ","kana_city":"ｳｷｼ","kana_address":"ｵｶﾞﾜﾏﾁﾐﾅﾐｵｶﾞﾜ","pref":"熊本県","city":"宇城市","address":"小川町南小川"},
{"zip_code":"8690603","kana_pref":"ｸﾏﾓﾄｹﾝ","kana_city":"ｳｷｼ","kana_address":"ｵｶﾞﾜﾏﾁﾐﾅﾐｵﾉ","pref":"熊本県","city":"宇城市","address":"小川町南小野"},
{"zip_code":"8690612","kana_pref":"ｸﾏﾓﾄｹﾝ","kana_city":"ｳｷｼ","kana_address":"ｵｶﾞﾜﾏﾁﾐﾅﾐｶｲﾄｳ","pref":"熊本県","city":"宇城市","address":"小川町南海東"},
{"zip_code":"8690632","kana_pref":"ｸﾏﾓﾄｹﾝ","kana_city":"ｳｷｼ","kana_address":"ｵｶﾞﾜﾏﾁﾐﾅﾐｼﾝﾃﾞﾝ","pref":"熊本県","city":"宇城市","address":"小川町南新田"},
{"zip_code":"8690605","kana_pref":"ｸﾏﾓﾄｹﾝ","kana_city":"ｳｷｼ","kana_address":"ｵｶﾞﾜﾏﾁﾐﾅﾐﾍﾞﾀ","pref":"熊本県","city":"宇城市","address":"小川町南部田"},
{"zip_code":"8690563","kana_pref":"ｸﾏﾓﾄｹﾝ","kana_city":"ｳｷｼ","kana_address":"ｼﾗﾇﾋﾏﾁｳﾗｶﾞﾐ","pref":"熊本県","city":"宇城市","address":"不知火町浦上"},
{"zip_code":"8693471","kana_pref":"ｸﾏﾓﾄｹﾝ","kana_city":"ｳｷｼ","kana_address":"ｼﾗﾇﾋﾏﾁｴｲﾉｵ","pref":"熊本県","city":"宇城市","address":"不知火町永尾"},
{"zip_code":"8693473","kana_pref":"ｸﾏﾓﾄｹﾝ","kana_city":"ｳｷｼ","kana_address":"ｼﾗﾇﾋﾏﾁｵｵﾐ","pref":"熊本県","city":"宇城市","address":"不知火町大見"},
{"zip_code":"8690554","kana_pref":"ｸﾏﾓﾄｹﾝ","kana_city":"ｳｷｼ","kana_address":"ｼﾗﾇﾋﾏﾁｶｼﾜﾊﾗ","pref":"熊本県","city":"宇城市","address":"不知火町柏原"},
{"zip_code":"8690561","kana_pref":"ｸﾏﾓﾄｹﾝ","kana_city":"ｳｷｼ","kana_address":"ｼﾗﾇﾋﾏﾁｶﾒﾏﾂ","pref":"熊本県","city":"宇城市","address":"不知火町亀松"},
{"zip_code":"8690552","kana_pref":"ｸﾏﾓﾄｹﾝ","kana_city":"ｳｷｼ","kana_address":"ｼﾗﾇﾋﾏﾁｺｳﾗ","pref":"熊本県","city":"宇城市","address":"不知火町高良"},
{"zip_code":"8690553","kana_pref":"ｸﾏﾓﾄｹﾝ","kana_city":"ｳｷｼ","kana_address":"ｼﾗﾇﾋﾏﾁｺｿﾌﾞ","pref":"熊本県","city":"宇城市","address":"不知火町小曽部"},
{"zip_code":"8690551","kana_pref":"ｸﾏﾓﾄｹﾝ","kana_city":"ｳｷｼ","kana_address":"ｼﾗﾇﾋﾏﾁｺﾞﾘｮｳ","pref":"熊本県","city":"宇城市","address":"不知火町御領"},
{"zip_code":"8690562","kana_pref":"ｸﾏﾓﾄｹﾝ","kana_city":"ｳｷｼ","kana_address":"ｼﾗﾇﾋﾏﾁﾅｶﾞｻｷ","pref":"熊本県","city":"宇城市","address":"不知火町長崎"},
{"zip_code":"8693472","kana_pref":"ｸﾏﾓﾄｹﾝ","kana_city":"ｳｷｼ","kana_address":"ｼﾗﾇﾋﾏﾁﾏﾂｱｲ","pref":"熊本県","city":"宇城市","address":"不知火町松合"},
{"zip_code":"8690544","kana_pref":"ｸﾏﾓﾄｹﾝ","kana_city":"ｳｷｼ","kana_address":"ﾏﾂﾊﾞｾﾏﾁｱｻｶﾜ","pref":"熊本県","city":"宇城市","address":"松橋町浅川"},
{"zip_code":"8690522","kana_pref":"ｸﾏﾓﾄｹﾝ","kana_city":"ｳｷｼ","kana_address":"ﾏﾂﾊﾞｾﾏﾁｳﾁﾀﾞ","pref":"熊本県","city":"宇城市","address":"松橋町内田"},
{"zip_code":"8690521","kana_pref":"ｸﾏﾓﾄｹﾝ","kana_city":"ｳｷｼ","kana_address":"ﾏﾂﾊﾞｾﾏﾁｳﾗｶﾜﾁ","pref":"熊本県","city":"宇城市","address":"松橋町浦川内"},
{"zip_code":"8690531","kana_pref":"ｸﾏﾓﾄｹﾝ","kana_city":"ｳｷｼ","kana_address":"ﾏﾂﾊﾞｾﾏﾁｵｵﾉ","pref":"熊本県","city":"宇城市","address":"松橋町大野"},
{"zip_code":"8690503","kana_pref":"ｸﾏﾓﾄｹﾝ","kana_city":"ｳｷｼ","kana_address":"ﾏﾂﾊﾞｾﾏﾁｷﾗﾗ","pref":"熊本県","city":"宇城市","address":"松橋町きらら"},
{"zip_code":"8690532","kana_pref":"ｸﾏﾓﾄｹﾝ","kana_city":"ｳｷｼ","kana_address":"ﾏﾂﾊﾞｾﾏﾁｸｸﾞ","pref":"熊本県","city":"宇城市","address":"松橋町久具"},
{"zip_code":"8690512","kana_pref":"ｸﾏﾓﾄｹﾝ","kana_city":"ｳｷｼ","kana_address":"ﾏﾂﾊﾞｾﾏﾁｺｵﾔﾏ","pref":"熊本県","city":"宇城市","address":"松橋町古保山"},
{"zip_code":"8690545","kana_pref":"ｸﾏﾓﾄｹﾝ","kana_city":"ｳｷｼ","kana_address":"ﾏﾂﾊﾞｾﾏﾁｽﾅｶﾞﾜ","pref":"熊本県","city":"宇城市","address":"松橋町砂川"},
{"zip_code":"8690523","kana_pref":"ｸﾏﾓﾄｹﾝ","kana_city":"ｳｷｼ","kana_address":"ﾏﾂﾊﾞｾﾏﾁﾀｹｻﾞｷ","pref":"熊本県","city":"宇城市","address":"松橋町竹崎"},
{"zip_code":"8690542","kana_pref":"ｸﾏﾓﾄｹﾝ","kana_city":"ｳｷｼ","kana_address":"ﾏﾂﾊﾞｾﾏﾁﾄﾖｻﾞｷ","pref":"熊本県","city":"宇城市","address":"松橋町豊崎"},
{"zip_code":"8690524","kana_pref":"ｸﾏﾓﾄｹﾝ","kana_city":"ｳｷｼ","kana_address":"ﾏﾂﾊﾞｾﾏﾁﾄﾖﾌｸ","pref":"熊本県","city":"宇城市","address":"松橋町豊福"},
{"zip_code":"8690534","kana_pref":"ｸﾏﾓﾄｹﾝ","kana_city":"ｳｷｼ","kana_address":"ﾏﾂﾊﾞｾﾏﾁﾆｼｼﾓｺﾞｳ","pref":"熊本県","city":"宇城市","address":"松橋町西下郷"},
{"zip_code":"8690513","kana_pref":"ｸﾏﾓﾄｹﾝ","kana_city":"ｳｷｼ","kana_address":"ﾏﾂﾊﾞｾﾏﾁﾊｷﾞｵ","pref":"熊本県","city":"宇城市","address":"松橋町萩尾"},
{"zip_code":"8690541","kana_pref":"ｸﾏﾓﾄｹﾝ","kana_city":"ｳｷｼ","kana_address":"ﾏﾂﾊﾞｾﾏﾁﾋｶﾞｼﾏﾂｻﾞｷ","pref":"熊本県","city":"宇城市","address":"松橋町東松崎"},
{"zip_code":"8690511","kana_pref":"ｸﾏﾓﾄｹﾝ","kana_city":"ｳｷｼ","kana_address":"ﾏﾂﾊﾞｾﾏﾁﾏｶﾞﾉ","pref":"熊本県","city":"宇城市","address":"松橋町曲野"},
{"zip_code":"8690502","kana_pref":"ｸﾏﾓﾄｹﾝ","kana_city":"ｳｷｼ","kana_address":"ﾏﾂﾊﾞｾﾏﾁﾏﾂﾊﾞｾ","pref":"熊本県","city":"宇城市","address":"松橋町松橋"},
{"zip_code":"8690501","kana_pref":"ｸﾏﾓﾄｹﾝ","kana_city":"ｳｷｼ","kana_address":"ﾏﾂﾊﾞｾﾏﾁﾏﾂﾔﾏ","pref":"熊本県","city":"宇城市","address":"松橋町松山"},
{"zip_code":"8690543","kana_pref":"ｸﾏﾓﾄｹﾝ","kana_city":"ｳｷｼ","kana_address":"ﾏﾂﾊﾞｾﾏﾁﾐﾅﾐﾄﾖｻﾞｷ","pref":"熊本県","city":"宇城市","address":"松橋町南豊崎"},
{"zip_code":"8690546","kana_pref":"ｸﾏﾓﾄｹﾝ","kana_city":"ｳｷｼ","kana_address":"ﾏﾂﾊﾞｾﾏﾁﾐﾌﾈ","pref":"熊本県","city":"宇城市","address":"松橋町御船"},
{"zip_code":"8690533","kana_pref":"ｸﾏﾓﾄｹﾝ","kana_city":"ｳｷｼ","kana_address":"ﾏﾂﾊﾞｾﾏﾁﾘｮｳﾅｶﾏ","pref":"熊本県","city":"宇城市","address":"松橋町両仲間"},
{"zip_code":"8693411","kana_pref":"ｸﾏﾓﾄｹﾝ","kana_city":"ｳｷｼ","kana_address":"ﾐｽﾐﾏﾁｵｵｸﾁ","pref":"熊本県","city":"宇城市","address":"三角町大口"},
{"zip_code":"8693201","kana_pref":"ｸﾏﾓﾄｹﾝ","kana_city":"ｳｷｼ","kana_address":"ﾐｽﾐﾏﾁｵｵﾀｵ","pref":"熊本県","city":"宇城市","address":"三角町大田尾"},
{"zip_code":"8693202","kana_pref":"ｸﾏﾓﾄｹﾝ","kana_city":"ｳｷｼ","kana_address":"ﾐｽﾐﾏﾁｺｵﾉｳﾗ","pref":"熊本県","city":"宇城市","address":"三角町郡浦"},
{"zip_code":"8693413","kana_pref":"ｸﾏﾓﾄｹﾝ","kana_city":"ｳｷｼ","kana_address":"ﾐｽﾐﾏﾁｻﾄﾉｳﾗ","pref":"熊本県","city":"宇城市","address":"三角町里浦"},
{"zip_code":"8693412","kana_pref":"ｸﾏﾓﾄｹﾝ","kana_city":"ｳｷｼ","kana_address":"ﾐｽﾐﾏﾁﾃﾊﾞ","pref":"熊本県","city":"宇城市","address":"三角町手場"},
{"zip_code":"8693203","kana_pref":"ｸﾏﾓﾄｹﾝ","kana_city":"ｳｷｼ","kana_address":"ﾐｽﾐﾏﾁﾄﾊﾞｾ","pref":"熊本県","city":"宇城市","address":"三角町戸馳"},
{"zip_code":"8693204","kana_pref":"ｸﾏﾓﾄｹﾝ","kana_city":"ｳｷｼ","kana_address":"ﾐｽﾐﾏﾁﾅｶﾑﾗ","pref":"熊本県","city":"宇城市","address":"三角町中村"},
{"zip_code":"8693205","kana_pref":"ｸﾏﾓﾄｹﾝ","kana_city":"ｳｷｼ","kana_address":"ﾐｽﾐﾏﾁﾊﾀ","pref":"熊本県","city":"宇城市","address":"三角町波多"},
{"zip_code":"8693206","kana_pref":"ｸﾏﾓﾄｹﾝ","kana_city":"ｳｷｼ","kana_address":"ﾐｽﾐﾏﾁﾏｴｺﾞｼ","pref":"熊本県","city":"宇城市","address":"三角町前越"},
{"zip_code":"8693207","kana_pref":"ｸﾏﾓﾄｹﾝ","kana_city":"ｳｷｼ","kana_address":"ﾐｽﾐﾏﾁﾐｽﾐｳﾗ","pref":"熊本県","city":"宇城市","address":"三角町三角浦"},
{"zip_code":"8692600","kana_pref":"ｸﾏﾓﾄｹﾝ","kana_city":"ｱｿｼ","kana_address":"","pref":"熊本県","city":"阿蘇市","address":""},
{"zip_code":"8692232","kana_pref":"ｸﾏﾓﾄｹﾝ","kana_city":"ｱｿｼ","kana_address":"ｱｶﾐｽﾞ","pref":"熊本県","city":"阿蘇市","address":"赤水"},
{"zip_code":"8692236","kana_pref":"ｸﾏﾓﾄｹﾝ","kana_city":"ｱｿｼ","kana_address":"ｱﾄｶﾞｾ","pref":"熊本県","city":"阿蘇市","address":"跡ケ瀬"},
{"zip_code":"8692621","kana_pref":"ｸﾏﾓﾄｹﾝ","kana_city":"ｱｿｼ","kana_address":"ｲﾁﾉﾐﾔﾏﾁｵｷﾞﾉｸｻ","pref":"熊本県","city":"阿蘇市","address":"一の宮町荻の草"},
{"zip_code":"8692603","kana_pref":"ｸﾏﾓﾄｹﾝ","kana_city":"ｱｿｼ","kana_address":"ｲﾁﾉﾐﾔﾏﾁｷﾀｻｶﾅｼ","pref":"熊本県","city":"阿蘇市","address":"一の宮町北坂梨"},
{"zip_code":"8692611","kana_pref":"ｸﾏﾓﾄｹﾝ","kana_city":"ｱｿｼ","kana_address":"ｲﾁﾉﾐﾔﾏﾁｻｶﾅｼ","pref":"熊本県","city":"阿蘇市","address":"一の宮町坂梨"},
{"zip_code":"8692602","kana_pref":"ｸﾏﾓﾄｹﾝ","kana_city":"ｱｿｼ","kana_address":"ｲﾁﾉﾐﾔﾏﾁｻﾝﾉ","pref":"熊本県","city":"阿蘇市","address":"一の宮町三野"},
{"zip_code":"8692601","kana_pref":"ｸﾏﾓﾄｹﾝ","kana_city":"ｱｿｼ","kana_address":"ｲﾁﾉﾐﾔﾏﾁﾃﾉ","pref":"熊本県","city":"阿蘇市","address":"一の宮町手野"},
{"zip_code":"8692604","kana_pref":"ｸﾏﾓﾄｹﾝ","kana_city":"ｱｿｼ","kana_address":"ｲﾁﾉﾐﾔﾏﾁﾅｶｻｶﾅｼ","pref":"熊本県","city":"阿蘇市","address":"一の宮町中坂梨"},
{"zip_code":"8692613","kana_pref":"ｸﾏﾓﾄｹﾝ","kana_city":"ｱｿｼ","kana_address":"ｲﾁﾉﾐﾔﾏﾁﾅｶﾄﾞｵﾘ","pref":"熊本県","city":"阿蘇市","address":"一の宮町中通"},
{"zip_code":"8692612","kana_pref":"ｸﾏﾓﾄｹﾝ","kana_city":"ｱｿｼ","kana_address":"ｲﾁﾉﾐﾔﾏﾁﾐﾔｼﾞ","pref":"熊本県","city":"阿蘇市","address":"一の宮町宮地"},
{"zip_code":"8692315","kana_pref":"ｸﾏﾓﾄｹﾝ","kana_city":"ｱｿｼ","kana_address":"ｲﾏﾏﾁ","pref":"熊本県","city":"阿蘇市","address":"今町"},
{"zip_code":"8692301","kana_pref":"ｸﾏﾓﾄｹﾝ","kana_city":"ｱｿｼ","kana_address":"ｳﾁﾉﾏｷ","pref":"熊本県","city":"阿蘇市","address":"内牧"},
{"zip_code":"8692312","kana_pref":"ｸﾏﾓﾄｹﾝ","kana_city":"ｱｿｼ","kana_address":"ｵｸﾗ","pref":"熊本県","city":"阿蘇市","address":"小倉"},
{"zip_code":"8692307","kana_pref":"ｸﾏﾓﾄｹﾝ","kana_city":"ｱｿｼ","kana_address":"ｵｻﾞﾄ","pref":"熊本県","city":"阿蘇市","address":"小里"},
{"zip_code":"8692226","kana_pref":"ｸﾏﾓﾄｹﾝ","kana_city":"ｱｿｼ","kana_address":"ｵﾄﾋﾒ","pref":"熊本県","city":"阿蘇市","address":"乙姫"},
{"zip_code":"8692314","kana_pref":"ｸﾏﾓﾄｹﾝ","kana_city":"ｱｿｼ","kana_address":"ｵﾉﾀﾞ","pref":"熊本県","city":"阿蘇市","address":"小野田"},
{"zip_code":"8692235","kana_pref":"ｸﾏﾓﾄｹﾝ","kana_city":"ｱｿｼ","kana_address":"ｶﾘｵ","pref":"熊本県","city":"阿蘇市","address":"狩尾"},
{"zip_code":"8692224","kana_pref":"ｸﾏﾓﾄｹﾝ","kana_city":"ｱｿｼ","kana_address":"ｸﾗﾊﾞﾙ","pref":"熊本県","city":"阿蘇市","address":"蔵原"},
{"zip_code":"8692234","kana_pref":"ｸﾏﾓﾄｹﾝ","kana_city":"ｱｿｼ","kana_address":"ｸﾙﾏｶﾞｴﾘ","pref":"熊本県","city":"阿蘇市","address":"車帰"},
{"zip_code":"8692225","kana_pref":"ｸﾏﾓﾄｹﾝ","kana_city":"ｱｿｼ","kana_address":"ｸﾛｶﾜ","pref":"熊本県","city":"阿蘇市","address":"黒川"},
{"zip_code":"8692316","kana_pref":"ｸﾏﾓﾄｹﾝ","kana_city":"ｱｿｼ","kana_address":"ｸﾛﾅｶﾞﾚﾏﾁ","pref":"熊本県","city":"阿蘇市","address":"黒流町"},
{"zip_code":"8692311","kana_pref":"ｸﾏﾓﾄｹﾝ","kana_city":"ｱｿｼ","kana_address":"ｺｳｼﾞ","pref":"熊本県","city":"阿蘇市","address":"小池"},
{"zip_code":"8692223","kana_pref":"ｸﾏﾓﾄｹﾝ","kana_city":"ｱｿｼ","kana_address":"ﾀｶﾜﾗ","pref":"熊本県","city":"阿蘇市","address":"竹原"},
{"zip_code":"8692231","kana_pref":"ｸﾏﾓﾄｹﾝ","kana_city":"ｱｿｼ","kana_address":"ﾅｶﾞｸｻ","pref":"熊本県","city":"阿蘇市","address":"永草"},
{"zip_code":"8692803","kana_pref":"ｸﾏﾓﾄｹﾝ","kana_city":"ｱｿｼ","kana_address":"ﾅﾐﾉｱｶﾆﾀ","pref":"熊本県","city":"阿蘇市","address":"波野赤仁田"},
{"zip_code":"8692802","kana_pref":"ｸﾏﾓﾄｹﾝ","kana_city":"ｱｿｼ","kana_address":"ﾅﾐﾉｵｿﾞﾉ","pref":"熊本県","city":"阿蘇市","address":"波野小園"},
{"zip_code":"8692801","kana_pref":"ｸﾏﾓﾄｹﾝ","kana_city":"ｱｿｼ","kana_address":"ﾅﾐﾉｼｮｳﾁﾉ","pref":"熊本県","city":"阿蘇市","address":"波野小地野"},
{"zip_code":"8692807","kana_pref":"ｸﾏﾓﾄｹﾝ","kana_city":"ｱｿｼ","kana_address":"ﾅﾐﾉｼﾝﾅﾐﾉ","pref":"熊本県","city":"阿蘇市","address":"波野新波野"},
{"zip_code":"8692804","kana_pref":"ｸﾏﾓﾄｹﾝ","kana_city":"ｱｿｼ","kana_address":"ﾅﾐﾉﾀｷﾐｽﾞ","pref":"熊本県","city":"阿蘇市","address":"波野滝水"},
{"zip_code":"8692805","kana_pref":"ｸﾏﾓﾄｹﾝ","kana_city":"ｱｿｼ","kana_address":"ﾅﾐﾉﾅｶｴ","pref":"熊本県","city":"阿蘇市","address":"波野中江"},
{"zip_code":"8692806","kana_pref":"ｸﾏﾓﾄｹﾝ","kana_city":"ｱｿｼ","kana_address":"ﾅﾐﾉﾅﾐﾉ","pref":"熊本県","city":"阿蘇市","address":"波野波野"},
{"zip_code":"8692303","kana_pref":"ｸﾏﾓﾄｹﾝ","kana_city":"ｱｿｼ","kana_address":"ﾆｼｺｿﾞﾉ","pref":"熊本県","city":"阿蘇市","address":"西小園"},
{"zip_code":"8692222","kana_pref":"ｸﾏﾓﾄｹﾝ","kana_city":"ｱｿｼ","kana_address":"ﾆｼﾏﾁ","pref":"熊本県","city":"阿蘇市","address":"西町"},
{"zip_code":"8692304","kana_pref":"ｸﾏﾓﾄｹﾝ","kana_city":"ｱｿｼ","kana_address":"ﾆｼﾕﾉｳﾗ","pref":"熊本県","city":"阿蘇市","address":"西湯浦"},
{"zip_code":"8692237","kana_pref":"ｸﾏﾓﾄｹﾝ","kana_city":"ｱｿｼ","kana_address":"ﾏﾄｲｼ","pref":"熊本県","city":"阿蘇市","address":"的石"},
{"zip_code":"8692302","kana_pref":"ｸﾏﾓﾄｹﾝ","kana_city":"ｱｿｼ","kana_address":"ﾐｸﾎﾞ","pref":"熊本県","city":"阿蘇市","address":"三久保"},
{"zip_code":"8692306","kana_pref":"ｸﾏﾓﾄｹﾝ","kana_city":"ｱｿｼ","kana_address":"ﾐﾅﾐﾐﾔﾊﾞﾙ","pref":"熊本県","city":"阿蘇市","address":"南宮原"},
{"zip_code":"8692233","kana_pref":"ｸﾏﾓﾄｹﾝ","kana_city":"ｱｿｼ","kana_address":"ﾑﾀ","pref":"熊本県","city":"阿蘇市","address":"無田"},
{"zip_code":"8692221","kana_pref":"ｸﾏﾓﾄｹﾝ","kana_city":"ｱｿｼ","kana_address":"ﾔｸｲﾝﾊﾞﾙ","pref":"熊本県","city":"阿蘇市","address":"役犬原"},
{"zip_code":"8692413","kana_pref":"ｸﾏﾓﾄｹﾝ","kana_city":"ｱｿｼ","kana_address":"ﾔﾏﾀﾞ","pref":"熊本県","city":"阿蘇市","address":"山田"},
{"zip_code":"8692313","kana_pref":"ｸﾏﾓﾄｹﾝ","kana_city":"ｱｿｼ","kana_address":"ﾔﾏﾀﾞ","pref":"熊本県","city":"阿蘇市","address":"山田"},
{"zip_code":"8692305","kana_pref":"ｸﾏﾓﾄｹﾝ","kana_city":"ｱｿｼ","kana_address":"ﾕﾉｳﾗ","pref":"熊本県","city":"阿蘇市","address":"湯浦"},
{"zip_code":"8690300","kana_pref":"ｸﾏﾓﾄｹﾝ","kana_city":"ﾀﾏﾅｸﾞﾝｷﾞｮｸﾄｳﾏﾁ","kana_address":"","pref":"熊本県","city":"玉名郡玉東町","address":""},
{"zip_code":"8690301","kana_pref":"ｸﾏﾓﾄｹﾝ","kana_city":"ﾀﾏﾅｸﾞﾝｷﾞｮｸﾄｳﾏﾁ","kana_address":"ｲﾅｻ","pref":"熊本県","city":"玉名郡玉東町","address":"稲佐"},
{"zip_code":"8690304","kana_pref":"ｸﾏﾓﾄｹﾝ","kana_city":"ﾀﾏﾅｸﾞﾝｷﾞｮｸﾄｳﾏﾁ","kana_address":"ｳﾗﾀ","pref":"熊本県","city":"玉名郡玉東町","address":"浦田"},
{"zip_code":"8690305","kana_pref":"ｸﾏﾓﾄｹﾝ","kana_city":"ﾀﾏﾅｸﾞﾝｷﾞｮｸﾄｳﾏﾁ","kana_address":"ｶﾐｺﾉﾊ","pref":"熊本県","city":"玉名郡玉東町","address":"上木葉"},
{"zip_code":"8690313","kana_pref":"ｸﾏﾓﾄｹﾝ","kana_city":"ﾀﾏﾅｸﾞﾝｷﾞｮｸﾄｳﾏﾁ","kana_address":"ｶﾐｼﾗｷ","pref":"熊本県","city":"玉名郡玉東町","address":"上白木"},
{"zip_code":"8690303","kana_pref":"ｸﾏﾓﾄｹﾝ","kana_city":"ﾀﾏﾅｸﾞﾝｷﾞｮｸﾄｳﾏﾁ","kana_address":"ｺﾉﾊ","pref":"熊本県","city":"玉名郡玉東町","address":"木葉"},
{"zip_code":"8690321","kana_pref":"ｸﾏﾓﾄｹﾝ","kana_city":"ﾀﾏﾅｸﾞﾝｷﾞｮｸﾄｳﾏﾁ","kana_address":"ｻｲｱﾝｼﾞ","pref":"熊本県","city":"玉名郡玉東町","address":"西安寺"},
{"zip_code":"8690312","kana_pref":"ｸﾏﾓﾄｹﾝ","kana_city":"ﾀﾏﾅｸﾞﾝｷﾞｮｸﾄｳﾏﾁ","kana_address":"ｼﾗｷ","pref":"熊本県","city":"玉名郡玉東町","address":"白木"},
{"zip_code":"8690322","kana_pref":"ｸﾏﾓﾄｹﾝ","kana_city":"ﾀﾏﾅｸﾞﾝｷﾞｮｸﾄｳﾏﾁ","kana_address":"ﾊﾗｸﾗ","pref":"熊本県","city":"玉名郡玉東町","address":"原倉"},
{"zip_code":"8690311","kana_pref":"ｸﾏﾓﾄｹﾝ","kana_city":"ﾀﾏﾅｸﾞﾝｷﾞｮｸﾄｳﾏﾁ","kana_address":"ﾌﾀﾏﾀ","pref":"熊本県","city":"玉名郡玉東町","address":"二俣"},
{"zip_code":"8690302","kana_pref":"ｸﾏﾓﾄｹﾝ","kana_city":"ﾀﾏﾅｸﾞﾝｷﾞｮｸﾄｳﾏﾁ","kana_address":"ﾔﾏｸﾞﾁ","pref":"熊本県","city":"玉名郡玉東町","address":"山口"},
{"zip_code":"8690100","kana_pref":"ｸﾏﾓﾄｹﾝ","kana_city":"ﾀﾏﾅｸﾞﾝﾅｶﾞｽﾏﾁ","kana_address":"","pref":"熊本県","city":"玉名郡長洲町","address":""},
{"zip_code":"8690113","kana_pref":"ｸﾏﾓﾄｹﾝ","kana_city":"ﾀﾏﾅｸﾞﾝﾅｶﾞｽﾏﾁ","kana_address":"ｱﾘｱｹ","pref":"熊本県","city":"玉名郡長洲町","address":"有明"},
{"zip_code":"8690122","kana_pref":"ｸﾏﾓﾄｹﾝ","kana_city":"ﾀﾏﾅｸﾞﾝﾅｶﾞｽﾏﾁ","kana_address":"ｳﾒﾀﾞ","pref":"熊本県","city":"玉名郡長洲町","address":"梅田"},
{"zip_code":"8690102","kana_pref":"ｸﾏﾓﾄｹﾝ","kana_city":"ﾀﾏﾅｸﾞﾝﾅｶﾞｽﾏﾁ","kana_address":"ｵﾘｻｷ","pref":"熊本県","city":"玉名郡長洲町","address":"折崎"},
{"zip_code":"8690104","kana_pref":"ｸﾏﾓﾄｹﾝ","kana_city":"ﾀﾏﾅｸﾞﾝﾅｶﾞｽﾏﾁ","kana_address":"ｶﾐｵｷﾉｽ","pref":"熊本県","city":"玉名郡長洲町","address":"上沖洲"},
{"zip_code":"8690105","kana_pref":"ｸﾏﾓﾄｹﾝ","kana_city":"ﾀﾏﾅｸﾞﾝﾅｶﾞｽﾏﾁ","kana_address":"ｾｲｹﾞﾝｼﾞ","pref":"熊本県","city":"玉名郡長洲町","address":"清源寺"},
{"zip_code":"8690121","kana_pref":"ｸﾏﾓﾄｹﾝ","kana_city":"ﾀﾏﾅｸﾞﾝﾅｶﾞｽﾏﾁ","kana_address":"ﾀｶﾊﾏ","pref":"熊本県","city":"玉名郡長洲町","address":"高浜"},
{"zip_code":"8690106","kana_pref":"ｸﾏﾓﾄｹﾝ","kana_city":"ﾀﾏﾅｸﾞﾝﾅｶﾞｽﾏﾁ","kana_address":"ﾅｶﾞｼｵ","pref":"熊本県","city":"玉名郡長洲町","address":"永塩"},
{"zip_code":"8690123","kana_pref":"ｸﾏﾓﾄｹﾝ","kana_city":"ﾀﾏﾅｸﾞﾝﾅｶﾞｽﾏﾁ","kana_address":"ﾅｶﾞｽ","pref":"熊本県","city":"玉名郡長洲町","address":"長洲"},
{"zip_code":"8690103","kana_pref":"ｸﾏﾓﾄｹﾝ","kana_city":"ﾀﾏﾅｸﾞﾝﾅｶﾞｽﾏﾁ","kana_address":"ﾊﾗｶ","pref":"熊本県","city":"玉名郡長洲町","address":"腹赤"},
{"zip_code":"8690112","kana_pref":"ｸﾏﾓﾄｹﾝ","kana_city":"ﾀﾏﾅｸﾞﾝﾅｶﾞｽﾏﾁ","kana_address":"ﾋﾒｶﾞｳﾗ","pref":"熊本県","city":"玉名郡長洲町","address":"姫ケ浦"},
{"zip_code":"8690101","kana_pref":"ｸﾏﾓﾄｹﾝ","kana_city":"ﾀﾏﾅｸﾞﾝﾅｶﾞｽﾏﾁ","kana_address":"ﾐﾔﾉ","pref":"熊本県","city":"玉名郡長洲町","address":"宮野"},
{"zip_code":"8690111","kana_pref":"ｸﾏﾓﾄｹﾝ","kana_city":"ﾀﾏﾅｸﾞﾝﾅｶﾞｽﾏﾁ","kana_address":"ﾒｲｼﾊﾏ","pref":"熊本県","city":"玉名郡長洲町","address":"名石浜"},
{"zip_code":"8691200","kana_pref":"ｸﾏﾓﾄｹﾝ","kana_city":"ｷｸﾁｸﾞﾝｵｵﾂﾞﾏﾁ","kana_address":"","pref":"熊本県","city":"菊池郡大津町","address":""},
{"zip_code":"8691222","kana_pref":"ｸﾏﾓﾄｹﾝ","kana_city":"ｷｸﾁｸﾞﾝｵｵﾂﾞﾏﾁ","kana_address":"ｲﾜｻｶ","pref":"熊本県","city":"菊池郡大津町","address":"岩坂"},
{"zip_code":"8691233","kana_pref":"ｸﾏﾓﾄｹﾝ","kana_city":"ｷｸﾁｸﾞﾝｵｵﾂﾞﾏﾁ","kana_address":"ｵｵﾂﾞ","pref":"熊本県","city":"菊池郡大津町","address":"大津"},
{"zip_code":"8691219","kana_pref":"ｸﾏﾓﾄｹﾝ","kana_city":"ｷｸﾁｸﾞﾝｵｵﾂﾞﾏﾁ","kana_address":"ｵｵﾊﾞﾔｼ","pref":"熊本県","city":"菊池郡大津町","address":"大林"},
{"zip_code":"8691225","kana_pref":"ｸﾏﾓﾄｹﾝ","kana_city":"ｷｸﾁｸﾞﾝｵｵﾂﾞﾏﾁ","kana_address":"ｼﾓﾏﾁ","pref":"熊本県","city":"菊池郡大津町","address":"下町"},
{"zip_code":"8691227","kana_pref":"ｸﾏﾓﾄｹﾝ","kana_city":"ｷｸﾁｸﾞﾝｵｵﾂﾞﾏﾁ","kana_address":"ｼﾝ","pref":"熊本県","city":"菊池郡大津町","address":"新"},
{"zip_code":"8691221","kana_pref":"ｸﾏﾓﾄｹﾝ","kana_city":"ｷｸﾁｸﾞﾝｵｵﾂﾞﾏﾁ","kana_address":"ｼﾞﾝﾅｲ","pref":"熊本県","city":"菊池郡大津町","address":"陣内"},
{"zip_code":"8691236","kana_pref":"ｸﾏﾓﾄｹﾝ","kana_city":"ｷｸﾁｸﾞﾝｵｵﾂﾞﾏﾁ","kana_address":"ｽｷﾞﾐｽﾞ","pref":"熊本県","city":"菊池郡大津町","address":"杉水"},
{"zip_code":"8691214","kana_pref":"ｸﾏﾓﾄｹﾝ","kana_city":"ｷｸﾁｸﾞﾝｵｵﾂﾞﾏﾁ","kana_address":"ｾﾀ","pref":"熊本県","city":"菊池郡大津町","address":"瀬田"},
{"zip_code":"8691232","kana_pref":"ｸﾏﾓﾄｹﾝ","kana_city":"ｷｸﾁｸﾞﾝｵｵﾂﾞﾏﾁ","kana_address":"ﾀｶｵﾉ","pref":"熊本県","city":"菊池郡大津町","address":"高尾野"},
{"zip_code":"8691223","kana_pref":"ｸﾏﾓﾄｹﾝ","kana_city":"ｷｸﾁｸﾞﾝｵｵﾂﾞﾏﾁ","kana_address":"ﾅｶｼﾏ","pref":"熊本県","city":"菊池郡大津町","address":"中島"},
{"zip_code":"8691216","kana_pref":"ｸﾏﾓﾄｹﾝ","kana_city":"ｷｸﾁｸﾞﾝｵｵﾂﾞﾏﾁ","kana_address":"ﾆｼｷﾉ","pref":"熊本県","city":"菊池郡大津町","address":"錦野"},
{"zip_code":"8691226","kana_pref":"ｸﾏﾓﾄｹﾝ","kana_city":"ｷｸﾁｸﾞﾝｵｵﾂﾞﾏﾁ","kana_address":"ﾊｲﾂﾞｶ","pref":"熊本県","city":"菊池郡大津町","address":"灰塚"},
{"zip_code":"8691234","kana_pref":"ｸﾏﾓﾄｹﾝ","kana_city":"ｷｸﾁｸﾞﾝｵｵﾂﾞﾏﾁ","kana_address":"ﾋｷﾉﾐｽﾞ","pref":"熊本県","city":"菊池郡大津町","address":"引水"},
{"zip_code":"8691231","kana_pref":"ｸﾏﾓﾄｹﾝ","kana_city":"ｷｸﾁｸﾞﾝｵｵﾂﾞﾏﾁ","kana_address":"ﾋﾗｶﾜ","pref":"熊本県","city":"菊池郡大津町","address":"平川"},
{"zip_code":"8691218","kana_pref":"ｸﾏﾓﾄｹﾝ","kana_city":"ｷｸﾁｸﾞﾝｵｵﾂﾞﾏﾁ","kana_address":"ﾌｹﾀﾞ","pref":"熊本県","city":"菊池郡大津町","address":"吹田"},
{"zip_code":"8691213","kana_pref":"ｸﾏﾓﾄｹﾝ","kana_city":"ｷｸﾁｸﾞﾝｵｵﾂﾞﾏﾁ","kana_address":"ﾌﾙｼﾞｮｳ","pref":"熊本県","city":"菊池郡大津町","address":"古城"},
{"zip_code":"8691215","kana_pref":"ｸﾏﾓﾄｹﾝ","kana_city":"ｷｸﾁｸﾞﾝｵｵﾂﾞﾏﾁ","kana_address":"ﾎｶﾏｷ","pref":"熊本県","city":"菊池郡大津町","address":"外牧"},
{"zip_code":"8691212","kana_pref":"ｸﾏﾓﾄｹﾝ","kana_city":"ｷｸﾁｸﾞﾝｵｵﾂﾞﾏﾁ","kana_address":"ﾏｷ","pref":"熊本県","city":"菊池郡大津町","address":"真木"},
{"zip_code":"8691224","kana_pref":"ｸﾏﾓﾄｹﾝ","kana_city":"ｷｸﾁｸﾞﾝｵｵﾂﾞﾏﾁ","kana_address":"ﾏﾁ","pref":"熊本県","city":"菊池郡大津町","address":"町"},
{"zip_code":"8691237","kana_pref":"ｸﾏﾓﾄｹﾝ","kana_city":"ｷｸﾁｸﾞﾝｵｵﾂﾞﾏﾁ","kana_address":"ﾐｻｷﾉ","pref":"熊本県","city":"菊池郡大津町","address":"美咲野"},
{"zip_code":"8691235","kana_pref":"ｸﾏﾓﾄｹﾝ","kana_city":"ｷｸﾁｸﾞﾝｵｵﾂﾞﾏﾁ","kana_address":"ﾑﾛ","pref":"熊本県","city":"菊池郡大津町","address":"室"},
{"zip_code":"8691217","kana_pref":"ｸﾏﾓﾄｹﾝ","kana_city":"ｷｸﾁｸﾞﾝｵｵﾂﾞﾏﾁ","kana_address":"ﾓﾘ","pref":"熊本県","city":"菊池郡大津町","address":"森"},
{"zip_code":"8691211","kana_pref":"ｸﾏﾓﾄｹﾝ","kana_city":"ｷｸﾁｸﾞﾝｵｵﾂﾞﾏﾁ","kana_address":"ﾔｺﾞｶﾞﾜ","pref":"熊本県","city":"菊池郡大津町","address":"矢護川"},
{"zip_code":"8691100","kana_pref":"ｸﾏﾓﾄｹﾝ","kana_city":"ｷｸﾁｸﾞﾝｷｸﾖｳﾏﾁ","kana_address":"","pref":"熊本県","city":"菊池郡菊陽町","address":""},
{"zip_code":"8691107","kana_pref":"ｸﾏﾓﾄｹﾝ","kana_city":"ｷｸﾁｸﾞﾝｷｸﾖｳﾏﾁ","kana_address":"ｶﾗｶﾜ","pref":"熊本県","city":"菊池郡菊陽町","address":"辛川"},
{"zip_code":"8691103","kana_pref":"ｸﾏﾓﾄｹﾝ","kana_city":"ｷｸﾁｸﾞﾝｷｸﾖｳﾏﾁ","kana_address":"ｸﾎﾞﾀ","pref":"熊本県","city":"菊池郡菊陽町","address":"久保田"},
{"zip_code":"8691114","kana_pref":"ｸﾏﾓﾄｹﾝ","kana_city":"ｷｸﾁｸﾞﾝｷｸﾖｳﾏﾁ","kana_address":"ｺｳﾖｳﾀﾞｲ","pref":"熊本県","city":"菊池郡菊陽町","address":"向陽台"},
{"zip_code":"8691109","kana_pref":"ｸﾏﾓﾄｹﾝ","kana_city":"ｷｸﾁｸﾞﾝｷｸﾖｳﾏﾁ","kana_address":"ｼﾝﾔﾏ","pref":"熊本県","city":"菊池郡菊陽町","address":"新山"},
{"zip_code":"8691110","kana_pref":"ｸﾏﾓﾄｹﾝ","kana_city":"ｷｸﾁｸﾞﾝｷｸﾖｳﾏﾁ","kana_address":"ｽｷﾞﾅﾐﾀﾞｲ","pref":"熊本県","city":"菊池郡菊陽町","address":"杉並台"},
{"zip_code":"8691101","kana_pref":"ｸﾏﾓﾄｹﾝ","kana_city":"ｷｸﾁｸﾞﾝｷｸﾖｳﾏﾁ","kana_address":"ﾂｸﾚ","pref":"熊本県","city":"菊池郡菊陽町","address":"津久礼"},
{"zip_code":"8691104","kana_pref":"ｸﾏﾓﾄｹﾝ","kana_city":"ｷｸﾁｸﾞﾝｷｸﾖｳﾏﾁ","kana_address":"ﾄﾂｷﾞ","pref":"熊本県","city":"菊池郡菊陽町","address":"戸次"},
{"zip_code":"8691113","kana_pref":"ｸﾏﾓﾄｹﾝ","kana_city":"ｷｸﾁｸﾞﾝｷｸﾖｳﾏﾁ","kana_address":"ﾊﾅﾀﾃ","pref":"熊本県","city":"菊池郡菊陽町","address":"花立"},
{"zip_code":"8691105","kana_pref":"ｸﾏﾓﾄｹﾝ","kana_city":"ｷｸﾁｸﾞﾝｷｸﾖｳﾏﾁ","kana_address":"ﾊﾞﾊﾞｸﾞｽ","pref":"熊本県","city":"菊池郡菊陽町","address":"馬場楠"},
{"zip_code":"8691102","kana_pref":"ｸﾏﾓﾄｹﾝ","kana_city":"ｷｸﾁｸﾞﾝｷｸﾖｳﾏﾁ","kana_address":"ﾊﾗﾐｽﾞ","pref":"熊本県","city":"菊池郡菊陽町","address":"原水"},
{"zip_code":"8691108","kana_pref":"ｸﾏﾓﾄｹﾝ","kana_city":"ｷｸﾁｸﾞﾝｷｸﾖｳﾏﾁ","kana_address":"ﾋｶﾘﾉﾓﾘ","pref":"熊本県","city":"菊池郡菊陽町","address":"光の森"},
{"zip_code":"8691106","kana_pref":"ｸﾏﾓﾄｹﾝ","kana_city":"ｷｸﾁｸﾞﾝｷｸﾖｳﾏﾁ","kana_address":"ﾏｶﾞﾃ","pref":"熊本県","city":"菊池郡菊陽町","address":"曲手"},
{"zip_code":"8691111","kana_pref":"ｸﾏﾓﾄｹﾝ","kana_city":"ｷｸﾁｸﾞﾝｷｸﾖｳﾏﾁ","kana_address":"ﾑｻｼｶﾞｵｶ","pref":"熊本県","city":"菊池郡菊陽町","address":"武蔵ヶ丘"},
{"zip_code":"8691112","kana_pref":"ｸﾏﾓﾄｹﾝ","kana_city":"ｷｸﾁｸﾞﾝｷｸﾖｳﾏﾁ","kana_address":"ﾑｻｼｶﾞｵｶｷﾀ","pref":"熊本県","city":"菊池郡菊陽町","address":"武蔵ヶ丘北"},
{"zip_code":"8692400","kana_pref":"ｸﾏﾓﾄｹﾝ","kana_city":"ｱｿｸﾞﾝﾐﾅﾐｵｸﾞﾆﾏﾁ","kana_address":"","pref":"熊本県","city":"阿蘇郡南小国町","address":""},
{"zip_code":"8692401","kana_pref":"ｸﾏﾓﾄｹﾝ","kana_city":"ｱｿｸﾞﾝﾐﾅﾐｵｸﾞﾆﾏﾁ","kana_address":"ｱｶﾊﾞﾊﾞ","pref":"熊本県","city":"阿蘇郡南小国町","address":"赤馬場"},
{"zip_code":"8692403","kana_pref":"ｸﾏﾓﾄｹﾝ","kana_city":"ｱｿｸﾞﾝﾐﾅﾐｵｸﾞﾆﾏﾁ","kana_address":"ﾅｶﾊﾞﾙ","pref":"熊本県","city":"阿蘇郡南小国町","address":"中原"},
{"zip_code":"8692402","kana_pref":"ｸﾏﾓﾄｹﾝ","kana_city":"ｱｿｸﾞﾝﾐﾅﾐｵｸﾞﾆﾏﾁ","kana_address":"ﾏﾝｶﾞﾝｼﾞ","pref":"熊本県","city":"阿蘇郡南小国町","address":"満願寺"},
{"zip_code":"8692500","kana_pref":"ｸﾏﾓﾄｹﾝ","kana_city":"ｱｿｸﾞﾝｵｸﾞﾆﾏﾁ","kana_address":"","pref":"熊本県","city":"阿蘇郡小国町","address":""},
{"zip_code":"8692506","kana_pref":"ｸﾏﾓﾄｹﾝ","kana_city":"ｱｿｸﾞﾝｵｸﾞﾆﾏﾁ","kana_address":"ｶﾐﾀﾞ","pref":"熊本県","city":"阿蘇郡小国町","address":"上田"},
{"zip_code":"8692505","kana_pref":"ｸﾏﾓﾄｹﾝ","kana_city":"ｱｿｸﾞﾝｵｸﾞﾆﾏﾁ","kana_address":"ｷﾀｻﾞﾄ","pref":"熊本県","city":"阿蘇郡小国町","address":"北里"},
{"zip_code":"8692502","kana_pref":"ｸﾏﾓﾄｹﾝ","kana_city":"ｱｿｸﾞﾝｵｸﾞﾆﾏﾁ","kana_address":"ｸﾛﾌﾞﾁ","pref":"熊本県","city":"阿蘇郡小国町","address":"黒渕"},
{"zip_code":"8692503","kana_pref":"ｸﾏﾓﾄｹﾝ","kana_city":"ｱｿｸﾞﾝｵｸﾞﾆﾏﾁ","kana_address":"ｼﾓｼﾞｮｳ","pref":"熊本県","city":"阿蘇郡小国町","address":"下城"},
{"zip_code":"8692504","kana_pref":"ｸﾏﾓﾄｹﾝ","kana_city":"ｱｿｸﾞﾝｵｸﾞﾆﾏﾁ","kana_address":"ﾆｼｻﾞﾄ","pref":"熊本県","city":"阿蘇郡小国町","address":"西里"},
{"zip_code":"8692501","kana_pref":"ｸﾏﾓﾄｹﾝ","kana_city":"ｱｿｸﾞﾝｵｸﾞﾆﾏﾁ","kana_address":"ﾐﾔﾊﾗ","pref":"熊本県","city":"阿蘇郡小国町","address":"宮原"},
{"zip_code":"8692700","kana_pref":"ｸﾏﾓﾄｹﾝ","kana_city":"ｱｿｸﾞﾝｳﾌﾞﾔﾏﾑﾗ","kana_address":"","pref":"熊本県","city":"阿蘇郡産山村","address":""},
{"zip_code":"8692705","kana_pref":"ｸﾏﾓﾄｹﾝ","kana_city":"ｱｿｸﾞﾝｳﾌﾞﾔﾏﾑﾗ","kana_address":"ｳﾌﾞﾔﾏ","pref":"熊本県","city":"阿蘇郡産山村","address":"産山"},
{"zip_code":"8692702","kana_pref":"ｸﾏﾓﾄｹﾝ","kana_city":"ｱｿｸﾞﾝｳﾌﾞﾔﾏﾑﾗ","kana_address":"ｵｵﾘ","pref":"熊本県","city":"阿蘇郡産山村","address":"大利"},
{"zip_code":"8692701","kana_pref":"ｸﾏﾓﾄｹﾝ","kana_city":"ｱｿｸﾞﾝｳﾌﾞﾔﾏﾑﾗ","kana_address":"ｶﾀﾏﾀ","pref":"熊本県","city":"阿蘇郡産山村","address":"片俣"},
{"zip_code":"8692704","kana_pref":"ｸﾏﾓﾄｹﾝ","kana_city":"ｱｿｸﾞﾝｳﾌﾞﾔﾏﾑﾗ","kana_address":"ﾀｼﾞﾘ","pref":"熊本県","city":"阿蘇郡産山村","address":"田尻"},
{"zip_code":"8692703","kana_pref":"ｸﾏﾓﾄｹﾝ","kana_city":"ｱｿｸﾞﾝｳﾌﾞﾔﾏﾑﾗ","kana_address":"ﾔﾏｶﾞ","pref":"熊本県","city":"阿蘇郡産山村","address":"山鹿"},
{"zip_code":"8691600","kana_pref":"ｸﾏﾓﾄｹﾝ","kana_city":"ｱｿｸﾞﾝﾀｶﾓﾘﾏﾁ","kana_address":"","pref":"熊本県","city":"阿蘇郡高森町","address":""},
{"zip_code":"8691825","kana_pref":"ｸﾏﾓﾄｹﾝ","kana_city":"ｱｿｸﾞﾝﾀｶﾓﾘﾏﾁ","kana_address":"ｵｸﾀﾞﾘ","pref":"熊本県","city":"阿蘇郡高森町","address":"尾下"},
{"zip_code":"8691601","kana_pref":"ｸﾏﾓﾄｹﾝ","kana_city":"ｱｿｸﾞﾝﾀｶﾓﾘﾏﾁ","kana_address":"ｶﾐｼｷﾐ","pref":"熊本県","city":"阿蘇郡高森町","address":"上色見"},
{"zip_code":"8691826","kana_pref":"ｸﾏﾓﾄｹﾝ","kana_city":"ｱｿｸﾞﾝﾀｶﾓﾘﾏﾁ","kana_address":"ｶﾜﾗ","pref":"熊本県","city":"阿蘇郡高森町","address":"河原"},
{"zip_code":"8691811","kana_pref":"ｸﾏﾓﾄｹﾝ","kana_city":"ｱｿｸﾞﾝﾀｶﾓﾘﾏﾁ","kana_address":"ｸｻｶﾍﾞ","pref":"熊本県","city":"阿蘇郡高森町","address":"草部"},
{"zip_code":"8691603","kana_pref":"ｸﾏﾓﾄｹﾝ","kana_city":"ｱｿｸﾞﾝﾀｶﾓﾘﾏﾁ","kana_address":"ｼｷﾐ","pref":"熊本県","city":"阿蘇郡高森町","address":"色見"},
{"zip_code":"8691815","kana_pref":"ｸﾏﾓﾄｹﾝ","kana_city":"ｱｿｸﾞﾝﾀｶﾓﾘﾏﾁ","kana_address":"ｼﾀｷﾞﾘ","pref":"熊本県","city":"阿蘇郡高森町","address":"下切"},
{"zip_code":"8691813","kana_pref":"ｸﾏﾓﾄｹﾝ","kana_city":"ｱｿｸﾞﾝﾀｶﾓﾘﾏﾁ","kana_address":"ｽｶﾞﾔﾏ","pref":"熊本県","city":"阿蘇郡高森町","address":"菅山"},
{"zip_code":"8691812","kana_pref":"ｸﾏﾓﾄｹﾝ","kana_city":"ｱｿｸﾞﾝﾀｶﾓﾘﾏﾁ","kana_address":"ｾﾘｸﾞﾁ","pref":"熊本県","city":"阿蘇郡高森町","address":"芹口"},
{"zip_code":"8691602","kana_pref":"ｸﾏﾓﾄｹﾝ","kana_city":"ｱｿｸﾞﾝﾀｶﾓﾘﾏﾁ","kana_address":"ﾀｶﾓﾘ","pref":"熊本県","city":"阿蘇郡高森町","address":"高森"},
{"zip_code":"8691823","kana_pref":"ｸﾏﾓﾄｹﾝ","kana_city":"ｱｿｸﾞﾝﾀｶﾓﾘﾏﾁ","kana_address":"ﾂﾙ","pref":"熊本県","city":"阿蘇郡高森町","address":"津留"},
{"zip_code":"8691821","kana_pref":"ｸﾏﾓﾄｹﾝ","kana_city":"ｱｿｸﾞﾝﾀｶﾓﾘﾏﾁ","kana_address":"ﾅｶ","pref":"熊本県","city":"阿蘇郡高森町","address":"中"},
{"zip_code":"8691814","kana_pref":"ｸﾏﾓﾄｹﾝ","kana_city":"ｱｿｸﾞﾝﾀｶﾓﾘﾏﾁ","kana_address":"ﾅｶﾞﾉﾊﾙ","pref":"熊本県","city":"阿蘇郡高森町","address":"永野原"},
{"zip_code":"8691824","kana_pref":"ｸﾏﾓﾄｹﾝ","kana_city":"ｱｿｸﾞﾝﾀｶﾓﾘﾏﾁ","kana_address":"ﾉｼﾞﾘ","pref":"熊本県","city":"阿蘇郡高森町","address":"野尻"},
{"zip_code":"8691822","kana_pref":"ｸﾏﾓﾄｹﾝ","kana_city":"ｱｿｸﾞﾝﾀｶﾓﾘﾏﾁ","kana_address":"ﾔﾂﾀﾞ","pref":"熊本県","city":"阿蘇郡高森町","address":"矢津田"},
{"zip_code":"8691400","kana_pref":"ｸﾏﾓﾄｹﾝ","kana_city":"ｱｿｸﾞﾝﾐﾅﾐｱｿﾑﾗ","kana_address":"","pref":"熊本県","city":"阿蘇郡南阿蘇村","address":""},
{"zip_code":"8691504","kana_pref":"ｸﾏﾓﾄｹﾝ","kana_city":"ｱｿｸﾞﾝﾐﾅﾐｱｿﾑﾗ","kana_address":"ｲﾁｾﾞｷ","pref":"熊本県","city":"阿蘇郡南阿蘇村","address":"一関"},
{"zip_code":"8691411","kana_pref":"ｸﾏﾓﾄｹﾝ","kana_city":"ｱｿｸﾞﾝﾐﾅﾐｱｿﾑﾗ","kana_address":"ｶｲﾝ","pref":"熊本県","city":"阿蘇郡南阿蘇村","address":"河陰"},
{"zip_code":"8691404","kana_pref":"ｸﾏﾓﾄｹﾝ","kana_city":"ｱｿｸﾞﾝﾐﾅﾐｱｿﾑﾗ","kana_address":"ｶﾜﾖｳ","pref":"熊本県","city":"阿蘇郡南阿蘇村","address":"河陽"},
{"zip_code":"8691402","kana_pref":"ｸﾏﾓﾄｹﾝ","kana_city":"ｱｿｸﾞﾝﾐﾅﾐｱｿﾑﾗ","kana_address":"ｼﾓﾉ","pref":"熊本県","city":"阿蘇郡南阿蘇村","address":"下野"},
{"zip_code":"8691502","kana_pref":"ｸﾏﾓﾄｹﾝ","kana_city":"ｱｿｸﾞﾝﾐﾅﾐｱｿﾑﾗ","kana_address":"ｼﾗｶﾜ","pref":"熊本県","city":"阿蘇郡南阿蘇村","address":"白川"},
{"zip_code":"8691401","kana_pref":"ｸﾏﾓﾄｹﾝ","kana_city":"ｱｿｸﾞﾝﾐﾅﾐｱｿﾑﾗ","kana_address":"ﾀﾃﾉ","pref":"熊本県","city":"阿蘇郡南阿蘇村","address":"立野"},
{"zip_code":"8691403","kana_pref":"ｸﾏﾓﾄｹﾝ","kana_city":"ｱｿｸﾞﾝﾐﾅﾐｱｿﾑﾗ","kana_address":"ﾅｶﾞﾉ","pref":"熊本県","city":"阿蘇郡南阿蘇村","address":"長野"},
{"zip_code":"8692205","kana_pref":"ｸﾏﾓﾄｹﾝ","kana_city":"ｱｿｸﾞﾝﾐﾅﾐｱｿﾑﾗ","kana_address":"ﾅｶﾏﾂ","pref":"熊本県","city":"阿蘇郡南阿蘇村","address":"中松"},
{"zip_code":"8691505","kana_pref":"ｸﾏﾓﾄｹﾝ","kana_city":"ｱｿｸﾞﾝﾐﾅﾐｱｿﾑﾗ","kana_address":"ﾅｶﾏﾂ","pref":"熊本県","city":"阿蘇郡南阿蘇村","address":"中松"},
{"zip_code":"8691412","kana_pref":"ｸﾏﾓﾄｹﾝ","kana_city":"ｱｿｸﾞﾝﾐﾅﾐｱｿﾑﾗ","kana_address":"ﾋｻｲｼ","pref":"熊本県","city":"阿蘇郡南阿蘇村","address":"久石"},
{"zip_code":"8691503","kana_pref":"ｸﾏﾓﾄｹﾝ","kana_city":"ｱｿｸﾞﾝﾐﾅﾐｱｿﾑﾗ","kana_address":"ﾖｼﾀﾞ","pref":"熊本県","city":"阿蘇郡南阿蘇村","address":"吉田"},
{"zip_code":"8691501","kana_pref":"ｸﾏﾓﾄｹﾝ","kana_city":"ｱｿｸﾞﾝﾐﾅﾐｱｿﾑﾗ","kana_address":"ﾘｮｳﾍｲ","pref":"熊本県","city":"阿蘇郡南阿蘇村","address":"両併"},
{"zip_code":"8694600","kana_pref":"ｸﾏﾓﾄｹﾝ","kana_city":"ﾔﾂｼﾛｸﾞﾝﾋｶﾜﾁｮｳ","kana_address":"","pref":"熊本県","city":"八代郡氷川町","address":""},
{"zip_code":"8694812","kana_pref":"ｸﾏﾓﾄｹﾝ","kana_city":"ﾔﾂｼﾛｸﾞﾝﾋｶﾜﾁｮｳ","kana_address":"ｱﾐﾄﾞｳ","pref":"熊本県","city":"八代郡氷川町","address":"網道"},
{"zip_code":"8694604","kana_pref":"ｸﾏﾓﾄｹﾝ","kana_city":"ﾔﾂｼﾛｸﾞﾝﾋｶﾜﾁｮｳ","kana_address":"ｱﾘｻ","pref":"熊本県","city":"八代郡氷川町","address":"有佐"},
{"zip_code":"8694601","kana_pref":"ｸﾏﾓﾄｹﾝ","kana_city":"ﾔﾂｼﾛｸﾞﾝﾋｶﾜﾁｮｳ","kana_address":"ｲﾏ","pref":"熊本県","city":"八代郡氷川町","address":"今"},
{"zip_code":"8694804","kana_pref":"ｸﾏﾓﾄｹﾝ","kana_city":"ﾔﾂｼﾛｸﾞﾝﾋｶﾜﾁｮｳ","kana_address":"ｵｵﾉ","pref":"熊本県","city":"八代郡氷川町","address":"大野"},
{"zip_code":"8694607","kana_pref":"ｸﾏﾓﾄｹﾝ","kana_city":"ﾔﾂｼﾛｸﾞﾝﾋｶﾜﾁｮｳ","kana_address":"ｶｺｲ","pref":"熊本県","city":"八代郡氷川町","address":"栫"},
{"zip_code":"8694815","kana_pref":"ｸﾏﾓﾄｹﾝ","kana_city":"ﾔﾂｼﾛｸﾞﾝﾋｶﾜﾁｮｳ","kana_address":"ｶｼﾏ","pref":"熊本県","city":"八代郡氷川町","address":"鹿島"},
{"zip_code":"8694811","kana_pref":"ｸﾏﾓﾄｹﾝ","kana_city":"ﾔﾂｼﾛｸﾞﾝﾋｶﾜﾁｮｳ","kana_address":"ｶﾉ","pref":"熊本県","city":"八代郡氷川町","address":"鹿野"},
{"zip_code":"8694806","kana_pref":"ｸﾏﾓﾄｹﾝ","kana_city":"ﾔﾂｼﾛｸﾞﾝﾋｶﾜﾁｮｳ","kana_address":"ｶﾜﾊﾗ","pref":"熊本県","city":"八代郡氷川町","address":"河原"},
{"zip_code":"8694814","kana_pref":"ｸﾏﾓﾄｹﾝ","kana_city":"ﾔﾂｼﾛｸﾞﾝﾋｶﾜﾁｮｳ","kana_address":"ｼﾏﾁ","pref":"熊本県","city":"八代郡氷川町","address":"島地"},
{"zip_code":"8694801","kana_pref":"ｸﾏﾓﾄｹﾝ","kana_city":"ﾔﾂｼﾛｸﾞﾝﾋｶﾜﾁｮｳ","kana_address":"ｼﾝﾃﾞﾝ","pref":"熊本県","city":"八代郡氷川町","address":"新田"},
{"zip_code":"8694802","kana_pref":"ｸﾏﾓﾄｹﾝ","kana_city":"ﾔﾂｼﾛｸﾞﾝﾋｶﾜﾁｮｳ","kana_address":"ﾀｶﾂｶ","pref":"熊本県","city":"八代郡氷川町","address":"高塚"},
{"zip_code":"8694603","kana_pref":"ｸﾏﾓﾄｹﾝ","kana_city":"ﾔﾂｼﾛｸﾞﾝﾋｶﾜﾁｮｳ","kana_address":"ﾀﾃｶﾞﾐ","pref":"熊本県","city":"八代郡氷川町","address":"立神"},
{"zip_code":"8694605","kana_pref":"ｸﾏﾓﾄｹﾝ","kana_city":"ﾔﾂｼﾛｸﾞﾝﾋｶﾜﾁｮｳ","kana_address":"ﾅｶｼﾏ","pref":"熊本県","city":"八代郡氷川町","address":"中島"},
{"zip_code":"8694805","kana_pref":"ｸﾏﾓﾄｹﾝ","kana_city":"ﾔﾂｼﾛｸﾞﾝﾋｶﾜﾁｮｳ","kana_address":"ﾉﾂﾞ","pref":"熊本県","city":"八代郡氷川町","address":"野津"},
{"zip_code":"8694606","kana_pref":"ｸﾏﾓﾄｹﾝ","kana_city":"ﾔﾂｼﾛｸﾞﾝﾋｶﾜﾁｮｳ","kana_address":"ﾊﾔｵ","pref":"熊本県","city":"八代郡氷川町","address":"早尾"},
{"zip_code":"8694602","kana_pref":"ｸﾏﾓﾄｹﾝ","kana_city":"ﾔﾂｼﾛｸﾞﾝﾋｶﾜﾁｮｳ","kana_address":"ﾐﾔﾊﾗ","pref":"熊本県","city":"八代郡氷川町","address":"宮原"},
{"zip_code":"8694608","kana_pref":"ｸﾏﾓﾄｹﾝ","kana_city":"ﾔﾂｼﾛｸﾞﾝﾋｶﾜﾁｮｳ","kana_address":"ﾐﾔﾊﾗｴｲｷｭｳ","pref":"熊本県","city":"八代郡氷川町","address":"宮原栄久"},
{"zip_code":"8694803","kana_pref":"ｸﾏﾓﾄｹﾝ","kana_city":"ﾔﾂｼﾛｸﾞﾝﾋｶﾜﾁｮｳ","kana_address":"ﾖｼﾓﾄ","pref":"熊本県","city":"八代郡氷川町","address":"吉本"},
{"zip_code":"8694813","kana_pref":"ｸﾏﾓﾄｹﾝ","kana_city":"ﾔﾂｼﾛｸﾞﾝﾋｶﾜﾁｮｳ","kana_address":"ﾜｶｽ","pref":"熊本県","city":"八代郡氷川町","address":"若洲"},
{"zip_code":"8695400","kana_pref":"ｸﾏﾓﾄｹﾝ","kana_city":"ｱｼｷﾀｸﾞﾝｱｼｷﾀﾏﾁ","kana_address":"","pref":"熊本県","city":"葦北郡芦北町","address":""},
{"zip_code":"8695561","kana_pref":"ｸﾏﾓﾄｹﾝ","kana_city":"ｱｼｷﾀｸﾞﾝｱｼｷﾀﾏﾁ","kana_address":"ｱｼｷﾀ","pref":"熊本県","city":"葦北郡芦北町","address":"芦北"},
{"zip_code":"8695461","kana_pref":"ｸﾏﾓﾄｹﾝ","kana_city":"ｱｼｷﾀｸﾞﾝｱｼｷﾀﾏﾁ","kana_address":"ｱｼｷﾀ","pref":"熊本県","city":"葦北郡芦北町","address":"芦北"},
{"zip_code":"8696301","kana_pref":"ｸﾏﾓﾄｹﾝ","kana_city":"ｱｼｷﾀｸﾞﾝｱｼｷﾀﾏﾁ","kana_address":"ｱﾏﾂｷ","pref":"熊本県","city":"葦北郡芦北町","address":"天月"},
{"zip_code":"8696306","kana_pref":"ｸﾏﾓﾄｹﾝ","kana_city":"ｱｼｷﾀｸﾞﾝｱｼｷﾀﾏﾁ","kana_address":"ｲﾁﾉｾ","pref":"熊本県","city":"葦北郡芦北町","address":"市野瀬"},
{"zip_code":"8695307","kana_pref":"ｸﾏﾓﾄｹﾝ","kana_city":"ｱｼｷﾀｸﾞﾝｱｼｷﾀﾏﾁ","kana_address":"ｲﾑﾀ","pref":"熊本県","city":"葦北郡芦北町","address":"井牟田"},
{"zip_code":"8695304","kana_pref":"ｸﾏﾓﾄｹﾝ","kana_city":"ｱｼｷﾀｸﾞﾝｱｼｷﾀﾏﾁ","kana_address":"ｳﾐﾉｳﾗ","pref":"熊本県","city":"葦北郡芦北町","address":"海浦"},
{"zip_code":"8696215","kana_pref":"ｸﾏﾓﾄｹﾝ","kana_city":"ｱｼｷﾀｸﾞﾝｱｼｷﾀﾏﾁ","kana_address":"ｳﾜﾊﾞﾙ","pref":"熊本県","city":"葦北郡芦北町","address":"上原"},
{"zip_code":"8696211","kana_pref":"ｸﾏﾓﾄｹﾝ","kana_city":"ｱｼｷﾀｸﾞﾝｱｼｷﾀﾏﾁ","kana_address":"ｴﾋﾞﾗｾ","pref":"熊本県","city":"葦北郡芦北町","address":"箙瀬"},
{"zip_code":"8696213","kana_pref":"ｸﾏﾓﾄｹﾝ","kana_city":"ｱｼｷﾀｸﾞﾝｱｼｷﾀﾏﾁ","kana_address":"ｵｵｲﾜ","pref":"熊本県","city":"葦北郡芦北町","address":"大岩"},
{"zip_code":"8695574","kana_pref":"ｸﾏﾓﾄｹﾝ","kana_city":"ｱｼｷﾀｸﾞﾝｱｼｷﾀﾏﾁ","kana_address":"ｵｵｶﾜﾁ","pref":"熊本県","city":"葦北郡芦北町","address":"大川内"},
{"zip_code":"8695422","kana_pref":"ｸﾏﾓﾄｹﾝ","kana_city":"ｱｼｷﾀｸﾞﾝｱｼｷﾀﾏﾁ","kana_address":"ｵｵﾆﾀ","pref":"熊本県","city":"葦北郡芦北町","address":"大尼田"},
{"zip_code":"8696305","kana_pref":"ｸﾏﾓﾄｹﾝ","kana_city":"ｱｼｷﾀｸﾞﾝｱｼｷﾀﾏﾁ","kana_address":"ｵｵﾉ","pref":"熊本県","city":"葦北郡芦北町","address":"大野"},
{"zip_code":"8695431","kana_pref":"ｸﾏﾓﾄｹﾝ","kana_city":"ｱｼｷﾀｸﾞﾝｱｼｷﾀﾏﾁ","kana_address":"ｵﾄｼﾞﾔ","pref":"熊本県","city":"葦北郡芦北町","address":"乙千屋"},
{"zip_code":"8696216","kana_pref":"ｸﾏﾓﾄｹﾝ","kana_city":"ｱｼｷﾀｸﾞﾝｱｼｷﾀﾏﾁ","kana_address":"ｶｲｼﾞ","pref":"熊本県","city":"葦北郡芦北町","address":"海路"},
{"zip_code":"8696304","kana_pref":"ｸﾏﾓﾄｹﾝ","kana_city":"ｱｼｷﾀｸﾞﾝｱｼｷﾀﾏﾁ","kana_address":"ｸﾆﾐ","pref":"熊本県","city":"葦北郡芦北町","address":"国見"},
{"zip_code":"8696214","kana_pref":"ｸﾏﾓﾄｹﾝ","kana_city":"ｱｼｷﾀｸﾞﾝｱｼｷﾀﾏﾁ","kana_address":"ｸﾛｲﾜ","pref":"熊本県","city":"葦北郡芦北町","address":"黒岩"},
{"zip_code":"8695434","kana_pref":"ｸﾏﾓﾄｹﾝ","kana_city":"ｱｼｷﾀｸﾞﾝｱｼｷﾀﾏﾁ","kana_address":"ｸﾜﾊﾞﾗ","pref":"熊本県","city":"葦北郡芦北町","address":"桑原"},
{"zip_code":"8695303","kana_pref":"ｸﾏﾓﾄｹﾝ","kana_city":"ｱｼｷﾀｸﾞﾝｱｼｷﾀﾏﾁ","kana_address":"ｺﾀﾞﾉｳﾗ","pref":"熊本県","city":"葦北郡芦北町","address":"小田浦"},
{"zip_code":"8695441","kana_pref":"ｸﾏﾓﾄｹﾝ","kana_city":"ｱｼｷﾀｸﾞﾝｱｼｷﾀﾏﾁ","kana_address":"ｻｼｷ","pref":"熊本県","city":"葦北郡芦北町","address":"佐敷"},
{"zip_code":"8696307","kana_pref":"ｸﾏﾓﾄｹﾝ","kana_city":"ｱｼｷﾀｸﾞﾝｱｼｷﾀﾏﾁ","kana_address":"ｼｵﾋﾀｼ","pref":"熊本県","city":"葦北郡芦北町","address":"塩浸"},
{"zip_code":"8696302","kana_pref":"ｸﾏﾓﾄｹﾝ","kana_city":"ｱｼｷﾀｸﾞﾝｱｼｷﾀﾏﾁ","kana_address":"ｼﾗｲｼ","pref":"熊本県","city":"葦北郡芦北町","address":"白石"},
{"zip_code":"8695452","kana_pref":"ｸﾏﾓﾄｹﾝ","kana_city":"ｱｼｷﾀｸﾞﾝｱｼｷﾀﾏﾁ","kana_address":"ｼﾗｲﾜ","pref":"熊本県","city":"葦北郡芦北町","address":"白岩"},
{"zip_code":"8696308","kana_pref":"ｸﾏﾓﾄｹﾝ","kana_city":"ｱｼｷﾀｸﾞﾝｱｼｷﾀﾏﾁ","kana_address":"ｼﾗｷ","pref":"熊本県","city":"葦北郡芦北町","address":"白木"},
{"zip_code":"8695576","kana_pref":"ｸﾏﾓﾄｹﾝ","kana_city":"ｱｼｷﾀｸﾞﾝｱｼｷﾀﾏﾁ","kana_address":"ﾀｶｵｶ","pref":"熊本県","city":"葦北郡芦北町","address":"高岡"},
{"zip_code":"8695443","kana_pref":"ｸﾏﾓﾄｹﾝ","kana_city":"ｱｼｷﾀｸﾞﾝｱｼｷﾀﾏﾁ","kana_address":"ﾀｶﾞﾜ","pref":"熊本県","city":"葦北郡芦北町","address":"田川"},
{"zip_code":"8695421","kana_pref":"ｸﾏﾓﾄｹﾝ","kana_city":"ｱｼｷﾀｸﾞﾝｱｼｷﾀﾏﾁ","kana_address":"ﾀﾁｶﾜ","pref":"熊本県","city":"葦北郡芦北町","address":"立川"},
{"zip_code":"8695302","kana_pref":"ｸﾏﾓﾄｹﾝ","kana_city":"ｱｼｷﾀｸﾞﾝｱｼｷﾀﾏﾁ","kana_address":"ﾀﾉｳﾗ","pref":"熊本県","city":"葦北郡芦北町","address":"田浦"},
{"zip_code":"8695305","kana_pref":"ｸﾏﾓﾄｹﾝ","kana_city":"ｱｼｷﾀｸﾞﾝｱｼｷﾀﾏﾁ","kana_address":"ﾀﾉｳﾗﾏﾁ","pref":"熊本県","city":"葦北郡芦北町","address":"田浦町"},
{"zip_code":"8696303","kana_pref":"ｸﾏﾓﾄｹﾝ","kana_city":"ｱｼｷﾀｸﾞﾝｱｼｷﾀﾏﾁ","kana_address":"ﾂｹﾞ","pref":"熊本県","city":"葦北郡芦北町","address":"告"},
{"zip_code":"8695454","kana_pref":"ｸﾏﾓﾄｹﾝ","kana_city":"ｱｼｷﾀｸﾞﾝｱｼｷﾀﾏﾁ","kana_address":"ﾂﾙｷﾞﾔﾏ","pref":"熊本県","city":"葦北郡芦北町","address":"鶴木山"},
{"zip_code":"8695571","kana_pref":"ｸﾏﾓﾄｹﾝ","kana_city":"ｱｼｷﾀｸﾞﾝｱｼｷﾀﾏﾁ","kana_address":"ﾄﾖｵｶ","pref":"熊本県","city":"葦北郡芦北町","address":"豊岡"},
{"zip_code":"8695453","kana_pref":"ｸﾏﾓﾄｹﾝ","kana_city":"ｱｼｷﾀｸﾞﾝｱｼｷﾀﾏﾁ","kana_address":"ﾊｶﾘｲｼ","pref":"熊本県","city":"葦北郡芦北町","address":"計石"},
{"zip_code":"8695306","kana_pref":"ｸﾏﾓﾄｹﾝ","kana_city":"ｱｼｷﾀｸﾞﾝｱｼｷﾀﾏﾁ","kana_address":"ﾊﾀﾄｳ","pref":"熊本県","city":"葦北郡芦北町","address":"波多島"},
{"zip_code":"8695442","kana_pref":"ｸﾏﾓﾄｹﾝ","kana_city":"ｱｼｷﾀｸﾞﾝｱｼｷﾀﾏﾁ","kana_address":"ﾊﾅｵｶ","pref":"熊本県","city":"葦北郡芦北町","address":"花岡"},
{"zip_code":"8695424","kana_pref":"ｸﾏﾓﾄｹﾝ","kana_city":"ｱｼｷﾀｸﾞﾝｱｼｷﾀﾏﾁ","kana_address":"ﾌｼｷ","pref":"熊本県","city":"葦北郡芦北町","address":"伏木氏"},
{"zip_code":"8695575","kana_pref":"ｸﾏﾓﾄｹﾝ","kana_city":"ｱｼｷﾀｸﾞﾝｱｼｷﾀﾏﾁ","kana_address":"ﾌﾙｲｼ","pref":"熊本県","city":"葦北郡芦北町","address":"古石"},
{"zip_code":"8695423","kana_pref":"ｸﾏﾓﾄｹﾝ","kana_city":"ｱｼｷﾀｸﾞﾝｱｼｷﾀﾏﾁ","kana_address":"ﾏﾂﾊﾞｴ","pref":"熊本県","city":"葦北郡芦北町","address":"松生"},
{"zip_code":"8695572","kana_pref":"ｸﾏﾓﾄｹﾝ","kana_city":"ｱｼｷﾀｸﾞﾝｱｼｷﾀﾏﾁ","kana_address":"ﾏﾙﾔﾏ","pref":"熊本県","city":"葦北郡芦北町","address":"丸山"},
{"zip_code":"8695451","kana_pref":"ｸﾏﾓﾄｹﾝ","kana_city":"ｱｼｷﾀｸﾞﾝｱｼｷﾀﾏﾁ","kana_address":"ﾐﾁｶﾞﾜﾁ","pref":"熊本県","city":"葦北郡芦北町","address":"道川内"},
{"zip_code":"8695562","kana_pref":"ｸﾏﾓﾄｹﾝ","kana_city":"ｱｼｷﾀｸﾞﾝｱｼｷﾀﾏﾁ","kana_address":"ﾐﾔｻﾞｷ","pref":"熊本県","city":"葦北郡芦北町","address":"宮崎"},
{"zip_code":"8695432","kana_pref":"ｸﾏﾓﾄｹﾝ","kana_city":"ｱｼｷﾀｸﾞﾝｱｼｷﾀﾏﾁ","kana_address":"ﾐﾔﾉｳﾗ","pref":"熊本県","city":"葦北郡芦北町","address":"宮浦"},
{"zip_code":"8695564","kana_pref":"ｸﾏﾓﾄｹﾝ","kana_city":"ｱｼｷﾀｸﾞﾝｱｼｷﾀﾏﾁ","kana_address":"ﾒｼﾏ","pref":"熊本県","city":"葦北郡芦北町","address":"女島"},
{"zip_code":"8695433","kana_pref":"ｸﾏﾓﾄｹﾝ","kana_city":"ｱｼｷﾀｸﾞﾝｱｼｷﾀﾏﾁ","kana_address":"ﾔﾊﾀ","pref":"熊本県","city":"葦北郡芦北町","address":"八幡"},
{"zip_code":"8695563","kana_pref":"ｸﾏﾓﾄｹﾝ","kana_city":"ｱｼｷﾀｸﾞﾝｱｼｷﾀﾏﾁ","kana_address":"ﾕﾉｳﾗ","pref":"熊本県","city":"葦北郡芦北町","address":"湯浦"},
{"zip_code":"8695301","kana_pref":"ｸﾏﾓﾄｹﾝ","kana_city":"ｱｼｷﾀｸﾞﾝｱｼｷﾀﾏﾁ","kana_address":"ﾖｺｲｷﾞ","pref":"熊本県","city":"葦北郡芦北町","address":"横居木"},
{"zip_code":"8696212","kana_pref":"ｸﾏﾓﾄｹﾝ","kana_city":"ｱｼｷﾀｸﾞﾝｱｼｷﾀﾏﾁ","kana_address":"ﾖｼｵ","pref":"熊本県","city":"葦北郡芦北町","address":"吉尾"},
{"zip_code":"8695573","kana_pref":"ｸﾏﾓﾄｹﾝ","kana_city":"ｱｼｷﾀｸﾞﾝｱｼｷﾀﾏﾁ","kana_address":"ﾖﾈﾀﾞ","pref":"熊本県","city":"葦北郡芦北町","address":"米田"},
{"zip_code":"8695600","kana_pref":"ｸﾏﾓﾄｹﾝ","kana_city":"ｱｼｷﾀｸﾞﾝﾂﾅｷﾞﾏﾁ","kana_address":"","pref":"熊本県","city":"葦北郡津奈木町","address":""},
{"zip_code":"8695603","kana_pref":"ｸﾏﾓﾄｹﾝ","kana_city":"ｱｼｷﾀｸﾞﾝﾂﾅｷﾞﾏﾁ","kana_address":"ｲﾜｷ","pref":"熊本県","city":"葦北郡津奈木町","address":"岩城"},
{"zip_code":"8695604","kana_pref":"ｸﾏﾓﾄｹﾝ","kana_city":"ｱｼｷﾀｸﾞﾝﾂﾅｷﾞﾏﾁ","kana_address":"ｺﾂﾅｷﾞ","pref":"熊本県","city":"葦北郡津奈木町","address":"小津奈木"},
{"zip_code":"8695601","kana_pref":"ｸﾏﾓﾄｹﾝ","kana_city":"ｱｼｷﾀｸﾞﾝﾂﾅｷﾞﾏﾁ","kana_address":"ﾁﾖ","pref":"熊本県","city":"葦北郡津奈木町","address":"千代"},
{"zip_code":"8695602","kana_pref":"ｸﾏﾓﾄｹﾝ","kana_city":"ｱｼｷﾀｸﾞﾝﾂﾅｷﾞﾏﾁ","kana_address":"ﾂﾅｷﾞ","pref":"熊本県","city":"葦北郡津奈木町","address":"津奈木"},
{"zip_code":"8695605","kana_pref":"ｸﾏﾓﾄｹﾝ","kana_city":"ｱｼｷﾀｸﾞﾝﾂﾅｷﾞﾏﾁ","kana_address":"ﾌｸﾊﾏ","pref":"熊本県","city":"葦北郡津奈木町","address":"福浜"},
{"zip_code":"8696400","kana_pref":"ｸﾏﾓﾄｹﾝ","kana_city":"ｸﾏｸﾞﾝｸﾏﾑﾗ","kana_address":"","pref":"熊本県","city":"球磨郡球磨村","address":""},
{"zip_code":"8696403","kana_pref":"ｸﾏﾓﾄｹﾝ","kana_city":"ｸﾏｸﾞﾝｸﾏﾑﾗ","kana_address":"ｲｯｼｮｳﾁ","pref":"熊本県","city":"球磨郡球磨村","address":"一勝地"},
{"zip_code":"8696405","kana_pref":"ｸﾏﾓﾄｹﾝ","kana_city":"ｸﾏｸﾞﾝｸﾏﾑﾗ","kana_address":"ｵｵｾ","pref":"熊本県","city":"球磨郡球磨村","address":"大瀬"},
{"zip_code":"8696205","kana_pref":"ｸﾏﾓﾄｹﾝ","kana_city":"ｸﾏｸﾞﾝｸﾏﾑﾗ","kana_address":"ｵｵｾ","pref":"熊本県","city":"球磨郡球磨村","address":"大瀬"},
{"zip_code":"8696404","kana_pref":"ｸﾏﾓﾄｹﾝ","kana_city":"ｸﾏｸﾞﾝｸﾏﾑﾗ","kana_address":"ｺｳﾉｾ","pref":"熊本県","city":"球磨郡球磨村","address":"神瀬"},
{"zip_code":"8696204","kana_pref":"ｸﾏﾓﾄｹﾝ","kana_city":"ｸﾏｸﾞﾝｸﾏﾑﾗ","kana_address":"ｺｳﾉｾ","pref":"熊本県","city":"球磨郡球磨村","address":"神瀬"},
{"zip_code":"8696402","kana_pref":"ｸﾏﾓﾄｹﾝ","kana_city":"ｸﾏｸﾞﾝｸﾏﾑﾗ","kana_address":"ｻﾝｶﾞｳﾗ","pref":"熊本県","city":"球磨郡球磨村","address":"三ケ浦"},
{"zip_code":"8696401","kana_pref":"ｸﾏﾓﾄｹﾝ","kana_city":"ｸﾏｸﾞﾝｸﾏﾑﾗ","kana_address":"ﾜﾀﾘ","pref":"熊本県","city":"球磨郡球磨村","address":"渡"}]}