{"zip_code":[
{"zip_code":"8700100","kana_pref":"ｵｵｲﾀｹﾝ","kana_city":"ｵｵｲﾀｼ","kana_address":"","pref":"大分県","city":"大分市","address":""},
{"zip_code":"8700278","kana_pref":"ｵｵｲﾀｹﾝ","kana_city":"ｵｵｲﾀｼ","kana_address":"ｱｵｻｷ","pref":"大分県","city":"大分市","address":"青崎"},
{"zip_code":"8700875","kana_pref":"ｵｵｲﾀｹﾝ","kana_city":"ｵｵｲﾀｼ","kana_address":"ｱｵﾊﾞﾀﾞｲ","pref":"大分県","city":"大分市","address":"青葉台"},
{"zip_code":"8700908","kana_pref":"ｵｵｲﾀｹﾝ","kana_city":"ｵｵｲﾀｼ","kana_address":"ｱｵﾊﾞﾏﾁ","pref":"大分県","city":"大分市","address":"青葉町"},
{"zip_code":"8700317","kana_pref":"ｵｵｲﾀｹﾝ","kana_city":"ｵｵｲﾀｼ","kana_address":"ｱｶｶﾞﾜ","pref":"大分県","city":"大分市","address":"丹川"},
{"zip_code":"8700857","kana_pref":"ｵｵｲﾀｹﾝ","kana_city":"ｵｵｲﾀｼ","kana_address":"ｱｹｶﾞﾜﾗ","pref":"大分県","city":"大分市","address":"明磧"},
{"zip_code":"8700162","kana_pref":"ｵｵｲﾀｹﾝ","kana_city":"ｵｵｲﾀｼ","kana_address":"ｱｹﾉﾀｶｵ","pref":"大分県","city":"大分市","address":"明野高尾"},
{"zip_code":"8700161","kana_pref":"ｵｵｲﾀｹﾝ","kana_city":"ｵｵｲﾀｼ","kana_address":"ｱｹﾉﾋｶﾞｼ","pref":"大分県","city":"大分市","address":"明野東"},
{"zip_code":"8700164","kana_pref":"ｵｵｲﾀｹﾝ","kana_city":"ｵｵｲﾀｼ","kana_address":"ｱｹﾉﾆｼ","pref":"大分県","city":"大分市","address":"明野西"},
{"zip_code":"8700163","kana_pref":"ｵｵｲﾀｹﾝ","kana_city":"ｵｵｲﾀｼ","kana_address":"ｱｹﾉﾐﾅﾐ","pref":"大分県","city":"大分市","address":"明野南"},
{"zip_code":"8700165","kana_pref":"ｵｵｲﾀｹﾝ","kana_city":"ｵｵｲﾀｼ","kana_address":"ｱｹﾉｷﾀ","pref":"大分県","city":"大分市","address":"明野北"},
{"zip_code":"8700166","kana_pref":"ｵｵｲﾀｹﾝ","kana_city":"ｵｵｲﾀｼ","kana_address":"ｱｹﾉｷﾀﾏﾁ","pref":"大分県","city":"大分市","address":"明野北町"},
{"zip_code":"8700167","kana_pref":"ｵｵｲﾀｹﾝ","kana_city":"ｵｵｲﾀｼ","kana_address":"ｱｹﾉｺｳﾖｳﾀﾞｲ","pref":"大分県","city":"大分市","address":"明野紅陽台"},
{"zip_code":"8700168","kana_pref":"ｵｵｲﾀｹﾝ","kana_city":"ｵｵｲﾀｼ","kana_address":"ｱｹﾉﾊｲﾂ","pref":"大分県","city":"大分市","address":"明野ハイツ"},
{"zip_code":"8700273","kana_pref":"ｵｵｲﾀｹﾝ","kana_city":"ｵｵｲﾀｼ","kana_address":"ｱｹﾎﾞﾉﾀﾞｲ","pref":"大分県","city":"大分市","address":"曙台"},
{"zip_code":"8700884","kana_pref":"ｵｵｲﾀｹﾝ","kana_city":"ｵｵｲﾀｼ","kana_address":"ｱｻﾋﾏﾁ","pref":"大分県","city":"大分市","address":"旭町"},
{"zip_code":"8700014","kana_pref":"ｵｵｲﾀｹﾝ","kana_city":"ｵｵｲﾀｼ","kana_address":"ｱｼｻﾞｷ","pref":"大分県","city":"大分市","address":"芦崎"},
{"zip_code":"8700858","kana_pref":"ｵｵｲﾀｹﾝ","kana_city":"ｵｵｲﾀｼ","kana_address":"ｱﾏｶﾞｾ","pref":"大分県","city":"大分市","address":"尼ケ瀬"},
{"zip_code":"8700113","kana_pref":"ｵｵｲﾀｹﾝ","kana_city":"ｵｵｲﾀｼ","kana_address":"ｲｴｼﾞﾏ","pref":"大分県","city":"大分市","address":"家島"},
{"zip_code":"8700003","kana_pref":"ｵｵｲﾀｹﾝ","kana_city":"ｵｵｲﾀｼ","kana_address":"ｲｸｼ","pref":"大分県","city":"大分市","address":"生石"},
{"zip_code":"8700001","kana_pref":"ｵｵｲﾀｹﾝ","kana_city":"ｵｵｲﾀｼ","kana_address":"ｲｸｼﾐﾅﾄﾏﾁ","pref":"大分県","city":"大分市","address":"生石港町"},
{"zip_code":"8700041","kana_pref":"ｵｵｲﾀｹﾝ","kana_city":"ｵｵｲﾀｼ","kana_address":"ｲｽﾞﾐﾏﾁ","pref":"大分県","city":"大分市","address":"泉町"},
{"zip_code":"8701151","kana_pref":"ｵｵｲﾀｹﾝ","kana_city":"ｵｵｲﾀｼ","kana_address":"ｲﾁ","pref":"大分県","city":"大分市","address":"市"},
{"zip_code":"8700316","kana_pref":"ｵｵｲﾀｹﾝ","kana_city":"ｵｵｲﾀｼ","kana_address":"ｲﾁｷﾞ","pref":"大分県","city":"大分市","address":"一木"},
{"zip_code":"8700312","kana_pref":"ｵｵｲﾀｹﾝ","kana_city":"ｵｵｲﾀｼ","kana_address":"ｲﾁﾉｵ","pref":"大分県","city":"大分市","address":"市尾"},
{"zip_code":"8700112","kana_pref":"ｵｵｲﾀｹﾝ","kana_city":"ｵｵｲﾀｼ","kana_address":"ｲﾁﾉｽ","pref":"大分県","city":"大分市","address":"一の洲"},
{"zip_code":"8700134","kana_pref":"ｵｵｲﾀｹﾝ","kana_city":"ｵｵｲﾀｼ","kana_address":"ｲﾉ","pref":"大分県","city":"大分市","address":"猪野"},
{"zip_code":"8701223","kana_pref":"ｵｵｲﾀｹﾝ","kana_city":"ｵｵｲﾀｼ","kana_address":"ｲﾏｲﾁ","pref":"大分県","city":"大分市","address":"今市"},
{"zip_code":"8700938","kana_pref":"ｵｵｲﾀｹﾝ","kana_city":"ｵｵｲﾀｼ","kana_address":"ｲﾏﾂﾞﾙ","pref":"大分県","city":"大分市","address":"今津留"},
{"zip_code":"8701202","kana_pref":"ｵｵｲﾀｹﾝ","kana_city":"ｵｵｲﾀｼ","kana_address":"ｲﾘｸﾗ","pref":"大分県","city":"大分市","address":"入蔵"},
{"zip_code":"8700936","kana_pref":"ｵｵｲﾀｹﾝ","kana_city":"ｵｵｲﾀｼ","kana_address":"ｲﾜﾀﾏﾁ","pref":"大分県","city":"大分市","address":"岩田町"},
{"zip_code":"8700886","kana_pref":"ｵｵｲﾀｹﾝ","kana_city":"ｵｵｲﾀｼ","kana_address":"ｳｴﾀﾞﾏﾁ","pref":"大分県","city":"大分市","address":"上田町"},
{"zip_code":"8700836","kana_pref":"ｵｵｲﾀｹﾝ","kana_city":"ｵｵｲﾀｼ","kana_address":"ｳｴﾉﾐﾅﾐ","pref":"大分県","city":"大分市","address":"上野南"},
{"zip_code":"8700835","kana_pref":"ｵｵｲﾀｹﾝ","kana_city":"ｵｵｲﾀｼ","kana_address":"ｳｴﾉｶﾞｵｶ","pref":"大分県","city":"大分市","address":"上野丘"},
{"zip_code":"8700833","kana_pref":"ｵｵｲﾀｹﾝ","kana_city":"ｵｵｲﾀｼ","kana_address":"ｳｴﾉｶﾞｵｶﾋｶﾞｼ","pref":"大分県","city":"大分市","address":"上野丘東"},
{"zip_code":"8700834","kana_pref":"ｵｵｲﾀｹﾝ","kana_city":"ｵｵｲﾀｼ","kana_address":"ｳｴﾉｶﾞｵｶﾆｼ","pref":"大分県","city":"大分市","address":"上野丘西"},
{"zip_code":"8700832","kana_pref":"ｵｵｲﾀｹﾝ","kana_city":"ｵｵｲﾀｼ","kana_address":"ｳｴﾉﾏﾁ","pref":"大分県","city":"大分市","address":"上野町"},
{"zip_code":"8700956","kana_pref":"ｵｵｲﾀｹﾝ","kana_city":"ｵｵｲﾀｼ","kana_address":"ｳﾗｶﾜﾀﾞﾝﾁ","pref":"大分県","city":"大分市","address":"裏川団地"},
{"zip_code":"8700889","kana_pref":"ｵｵｲﾀｹﾝ","kana_city":"ｵｵｲﾀｼ","kana_address":"ｴﾉｸﾏ","pref":"大分県","city":"大分市","address":"荏隈"},
{"zip_code":"8700322","kana_pref":"ｵｵｲﾀｹﾝ","kana_city":"ｵｵｲﾀｼ","kana_address":"ｴﾋﾞｽﾏﾁ","pref":"大分県","city":"大分市","address":"恵比寿町"},
{"zip_code":"8700819","kana_pref":"ｵｵｲﾀｹﾝ","kana_city":"ｵｵｲﾀｼ","kana_address":"ｵｳｼﾞｼﾝﾏﾁ","pref":"大分県","city":"大分市","address":"王子新町"},
{"zip_code":"8700006","kana_pref":"ｵｵｲﾀｹﾝ","kana_city":"ｵｵｲﾀｼ","kana_address":"ｵｳｼﾞﾅｶﾏﾁ","pref":"大分県","city":"大分市","address":"王子中町"},
{"zip_code":"8700004","kana_pref":"ｵｵｲﾀｹﾝ","kana_city":"ｵｵｲﾀｼ","kana_address":"ｵｳｼﾞﾐﾅﾄﾏﾁ","pref":"大分県","city":"大分市","address":"王子港町"},
{"zip_code":"8700008","kana_pref":"ｵｵｲﾀｹﾝ","kana_city":"ｵｵｲﾀｼ","kana_address":"ｵｳｼﾞﾆｼﾏﾁ","pref":"大分県","city":"大分市","address":"王子西町"},
{"zip_code":"8700007","kana_pref":"ｵｵｲﾀｹﾝ","kana_city":"ｵｵｲﾀｼ","kana_address":"ｵｳｼﾞﾐﾅﾐﾏﾁ","pref":"大分県","city":"大分市","address":"王子南町"},
{"zip_code":"8700005","kana_pref":"ｵｵｲﾀｹﾝ","kana_city":"ｵｵｲﾀｼ","kana_address":"ｵｳｼﾞｷﾀﾏﾁ","pref":"大分県","city":"大分市","address":"王子北町"},
{"zip_code":"8700813","kana_pref":"ｵｵｲﾀｹﾝ","kana_city":"ｵｵｲﾀｼ","kana_address":"ｵｳｼﾞﾔﾏﾉﾃﾏﾁ","pref":"大分県","city":"大分市","address":"王子山の手町"},
{"zip_code":"8700009","kana_pref":"ｵｵｲﾀｹﾝ","kana_city":"ｵｵｲﾀｼ","kana_address":"ｵｳｼﾞﾏﾁ","pref":"大分県","city":"大分市","address":"王子町"},
{"zip_code":"8700321","kana_pref":"ｵｵｲﾀｹﾝ","kana_city":"ｵｵｲﾀｼ","kana_address":"ｵｳﾉｾ","pref":"大分県","city":"大分市","address":"王ノ瀬"},
{"zip_code":"8700851","kana_pref":"ｵｵｲﾀｹﾝ","kana_city":"ｵｵｲﾀｼ","kana_address":"ｵｵｲｼﾏﾁ","pref":"大分県","city":"大分市","address":"大石町"},
{"zip_code":"8700319","kana_pref":"ｵｵｲﾀｹﾝ","kana_city":"ｵｵｲﾀｼ","kana_address":"ｵｵｲﾀﾘｭｳﾂｳｷﾞｮｳﾑﾀﾞﾝﾁ","pref":"大分県","city":"大分市","address":"大分流通業務団地"},
{"zip_code":"8700806","kana_pref":"ｵｵｲﾀｹﾝ","kana_city":"ｵｵｲﾀｼ","kana_address":"ｵｵｸﾎﾞ","pref":"大分県","city":"大分市","address":"大久保"},
{"zip_code":"8700266","kana_pref":"ｵｵｲﾀｹﾝ","kana_city":"ｵｵｲﾀｼ","kana_address":"ｵｵｻﾞｲ","pref":"大分県","city":"大分市","address":"大在"},
{"zip_code":"8700245","kana_pref":"ｵｵｲﾀｹﾝ","kana_city":"ｵｵｲﾀｼ","kana_address":"ｵｵｻﾞｲｷﾀ","pref":"大分県","city":"大分市","address":"大在北"},
{"zip_code":"8700251","kana_pref":"ｵｵｲﾀｹﾝ","kana_city":"ｵｵｲﾀｼ","kana_address":"ｵｵｻﾞｲﾁｭｳｵｳ","pref":"大分県","city":"大分市","address":"大在中央"},
{"zip_code":"8700252","kana_pref":"ｵｵｲﾀｹﾝ","kana_city":"ｵｵｲﾀｼ","kana_address":"ｵｵｻﾞｲﾊﾏ","pref":"大分県","city":"大分市","address":"大在浜"},
{"zip_code":"8700906","kana_pref":"ｵｵｲﾀｹﾝ","kana_city":"ｵｵｲﾀｼ","kana_address":"ｵｵｽﾊﾏ","pref":"大分県","city":"大分市","address":"大州浜"},
{"zip_code":"8701125","kana_pref":"ｵｵｲﾀｹﾝ","kana_city":"ｵｵｲﾀｼ","kana_address":"ｵｵｿﾞﾉﾀﾞﾝﾁ","pref":"大分県","city":"大分市","address":"大園団地"},
{"zip_code":"8701214","kana_pref":"ｵｵｲﾀｹﾝ","kana_city":"ｵｵｲﾀｼ","kana_address":"ｵｵﾀ","pref":"大分県","city":"大分市","address":"太田"},
{"zip_code":"8700907","kana_pref":"ｵｵｲﾀｹﾝ","kana_city":"ｵｵｲﾀｼ","kana_address":"ｵｵﾂﾏﾁ","pref":"大分県","city":"大分市","address":"大津町"},
{"zip_code":"8700123","kana_pref":"ｵｵｲﾀｹﾝ","kana_city":"ｵｵｲﾀｼ","kana_address":"ｵｵﾂﾙ","pref":"大分県","city":"大分市","address":"大津留"},
{"zip_code":"8700022","kana_pref":"ｵｵｲﾀｹﾝ","kana_city":"ｵｵｲﾀｼ","kana_address":"ｵｵﾃﾏﾁ","pref":"大分県","city":"大分市","address":"大手町"},
{"zip_code":"8700822","kana_pref":"ｵｵｲﾀｹﾝ","kana_city":"ｵｵｲﾀｼ","kana_address":"ｵｵﾐﾁﾏﾁ","pref":"大分県","city":"大分市","address":"大道町"},
{"zip_code":"8700158","kana_pref":"ｵｵｲﾀｹﾝ","kana_city":"ｵｵｲﾀｼ","kana_address":"ｵｶ","pref":"大分県","city":"大分市","address":"岡"},
{"zip_code":"8701131","kana_pref":"ｵｵｲﾀｹﾝ","kana_city":"ｵｵｲﾀｼ","kana_address":"ｵｶｶﾞﾜ","pref":"大分県","city":"大分市","address":"岡川"},
{"zip_code":"8700159","kana_pref":"ｵｵｲﾀｹﾝ","kana_city":"ｵｵｲﾀｼ","kana_address":"ｵｶｼﾝﾏﾁ","pref":"大分県","city":"大分市","address":"岡新町"},
{"zip_code":"8701164","kana_pref":"ｵｵｲﾀｹﾝ","kana_city":"ｵｵｲﾀｼ","kana_address":"ｵｷﾞﾉﾀﾞｲｼﾞｭｳﾀｸﾁ","pref":"大分県","city":"大分市","address":"雄城台住宅地"},
{"zip_code":"8701165","kana_pref":"ｵｵｲﾀｹﾝ","kana_city":"ｵｵｲﾀｼ","kana_address":"ｵｷﾞﾉﾀﾞｲﾀﾞﾝﾁ","pref":"大分県","city":"大分市","address":"雄城台団地"},
{"zip_code":"8701121","kana_pref":"ｵｵｲﾀｹﾝ","kana_city":"ｵｵｲﾀｼ","kana_address":"ｵｼﾉ","pref":"大分県","city":"大分市","address":"鴛野"},
{"zip_code":"8700144","kana_pref":"ｵｵｲﾀｹﾝ","kana_city":"ｵｵｲﾀｼ","kana_address":"ｵﾄﾂﾞ","pref":"大分県","city":"大分市","address":"乙津"},
{"zip_code":"8700145","kana_pref":"ｵｵｲﾀｹﾝ","kana_city":"ｵｵｲﾀｼ","kana_address":"ｵﾄﾂﾞﾏﾁ","pref":"大分県","city":"大分市","address":"乙津町"},
{"zip_code":"8700146","kana_pref":"ｵｵｲﾀｹﾝ","kana_city":"ｵｵｲﾀｼ","kana_address":"ｵﾄﾂﾞﾐﾅﾄﾏﾁ","pref":"大分県","city":"大分市","address":"乙津港町"},
{"zip_code":"8700114","kana_pref":"ｵｵｲﾀｹﾝ","kana_city":"ｵｵｲﾀｼ","kana_address":"ｵﾅｶｼﾏ","pref":"大分県","city":"大分市","address":"小中島"},
{"zip_code":"8701171","kana_pref":"ｵｵｲﾀｹﾝ","kana_city":"ｵｵｲﾀｼ","kana_address":"ｵﾆｻﾞｷ","pref":"大分県","city":"大分市","address":"鬼崎"},
{"zip_code":"8701153","kana_pref":"ｵｵｲﾀｹﾝ","kana_city":"ｵｵｲﾀｼ","kana_address":"ｵﾉﾂﾞﾙ","pref":"大分県","city":"大分市","address":"小野鶴"},
{"zip_code":"8701156","kana_pref":"ｵｵｲﾀｹﾝ","kana_city":"ｵｵｲﾀｼ","kana_address":"ｵﾉﾂﾙｼﾝﾏﾁ","pref":"大分県","city":"大分市","address":"小野鶴新町"},
{"zip_code":"8701150","kana_pref":"ｵｵｲﾀｹﾝ","kana_city":"ｵｵｲﾀｼ","kana_address":"ｵﾉﾂﾙﾐﾅﾐ","pref":"大分県","city":"大分市","address":"小野鶴南"},
{"zip_code":"8700107","kana_pref":"ｵｵｲﾀｹﾝ","kana_city":"ｵｵｲﾀｼ","kana_address":"ｶｲﾜﾗ","pref":"大分県","city":"大分市","address":"海原"},
{"zip_code":"8700877","kana_pref":"ｵｵｲﾀｹﾝ","kana_city":"ｵｵｲﾀｼ","kana_address":"ｶｸ","pref":"大分県","city":"大分市","address":"賀来"},
{"zip_code":"8700848","kana_pref":"ｵｵｲﾀｹﾝ","kana_city":"ｵｵｲﾀｼ","kana_address":"ｶｸｷﾀ","pref":"大分県","city":"大分市","address":"賀来北"},
{"zip_code":"8700849","kana_pref":"ｵｵｲﾀｹﾝ","kana_city":"ｵｵｲﾀｼ","kana_address":"ｶｸﾐﾅﾐ","pref":"大分県","city":"大分市","address":"賀来南"},
{"zip_code":"8700011","kana_pref":"ｵｵｲﾀｹﾝ","kana_city":"ｵｵｲﾀｼ","kana_address":"ｶｽｶﾞｳﾗ","pref":"大分県","city":"大分市","address":"春日浦"},
{"zip_code":"8700943","kana_pref":"ｵｵｲﾀｹﾝ","kana_city":"ｵｵｲﾀｼ","kana_address":"ｶﾀｼﾏ","pref":"大分県","city":"大分市","address":"片島"},
{"zip_code":"8700949","kana_pref":"ｵｵｲﾀｹﾝ","kana_city":"ｵｵｲﾀｼ","kana_address":"ｶﾀｼﾏﾀﾞｲ","pref":"大分県","city":"大分市","address":"かたしま台"},
{"zip_code":"8700133","kana_pref":"ｵｵｲﾀｹﾝ","kana_city":"ｵｵｲﾀｼ","kana_address":"ｶﾂﾗｷﾞ","pref":"大分県","city":"大分市","address":"葛木"},
{"zip_code":"8700026","kana_pref":"ｵｵｲﾀｹﾝ","kana_city":"ｵｵｲﾀｼ","kana_address":"ｶﾅｲｹﾏﾁ","pref":"大分県","city":"大分市","address":"金池町"},
{"zip_code":"8700839","kana_pref":"ｵｵｲﾀｹﾝ","kana_city":"ｵｵｲﾀｼ","kana_address":"ｶﾅｲｹﾐﾅﾐ","pref":"大分県","city":"大分市","address":"金池南"},
{"zip_code":"8700831","kana_pref":"ｵｵｲﾀｹﾝ","kana_city":"ｵｵｲﾀｼ","kana_address":"ｶﾅﾒﾏﾁ","pref":"大分県","city":"大分市","address":"要町"},
{"zip_code":"8700879","kana_pref":"ｵｵｲﾀｹﾝ","kana_city":"ｵｵｲﾀｼ","kana_address":"ｶﾅﾔｻﾞｺ","pref":"大分県","city":"大分市","address":"金谷迫"},
{"zip_code":"8700926","kana_pref":"ｵｵｲﾀｹﾝ","kana_city":"ｵｵｲﾀｼ","kana_address":"ｶﾉｳ","pref":"大分県","city":"大分市","address":"加納"},
{"zip_code":"8700817","kana_pref":"ｵｵｲﾀｹﾝ","kana_city":"ｵｵｲﾀｼ","kana_address":"ｶﾐｶｽｶﾞﾏﾁ","pref":"大分県","city":"大分市","address":"上春日町"},
{"zip_code":"8700805","kana_pref":"ｵｵｲﾀｹﾝ","kana_city":"ｵｵｲﾀｼ","kana_address":"ｶﾐｼﾗｷ","pref":"大分県","city":"大分市","address":"上白木"},
{"zip_code":"8701215","kana_pref":"ｵｵｲﾀｹﾝ","kana_city":"ｵｵｲﾀｼ","kana_address":"ｶﾐﾂﾒ","pref":"大分県","city":"大分市","address":"上詰"},
{"zip_code":"8701111","kana_pref":"ｵｵｲﾀｹﾝ","kana_city":"ｵｵｲﾀｼ","kana_address":"ｶﾐﾊﾝﾀﾞ","pref":"大分県","city":"大分市","address":"上判田"},
{"zip_code":"8701152","kana_pref":"ｵｵｲﾀｹﾝ","kana_city":"ｵｵｲﾀｼ","kana_address":"ｶﾐﾑﾅｶﾀ","pref":"大分県","city":"大分市","address":"上宗方"},
{"zip_code":"8700808","kana_pref":"ｵｵｲﾀｹﾝ","kana_city":"ｵｵｲﾀｼ","kana_address":"ｶﾐﾔﾊﾀ","pref":"大分県","city":"大分市","address":"上八幡"},
{"zip_code":"8700927","kana_pref":"ｵｵｲﾀｹﾝ","kana_city":"ｵｵｲﾀｼ","kana_address":"ｷﾀｼﾓｺﾞｵﾘ","pref":"大分県","city":"大分市","address":"北下郡"},
{"zip_code":"8700102","kana_pref":"ｵｵｲﾀｹﾝ","kana_city":"ｵｵｲﾀｼ","kana_address":"ｷﾀﾂﾙｻｷ","pref":"大分県","city":"大分市","address":"北鶴崎"},
{"zip_code":"8700311","kana_pref":"ｵｵｲﾀｹﾝ","kana_city":"ｵｵｲﾀｼ","kana_address":"ｷﾀﾞ","pref":"大分県","city":"大分市","address":"木田"},
{"zip_code":"8700809","kana_pref":"ｵｵｲﾀｹﾝ","kana_city":"ｵｵｲﾀｼ","kana_address":"ｷﾁｮｳﾊﾞﾙ","pref":"大分県","city":"大分市","address":"机張原"},
{"zip_code":"8701161","kana_pref":"ｵｵｲﾀｹﾝ","kana_city":"ｵｵｲﾀｼ","kana_address":"ｷﾉｳｴ","pref":"大分県","city":"大分市","address":"木上"},
{"zip_code":"8700870","kana_pref":"ｵｵｲﾀｹﾝ","kana_city":"ｵｵｲﾀｼ","kana_address":"ｷﾉｻｶ","pref":"大分県","city":"大分市","address":"季の坂"},
{"zip_code":"8700959","kana_pref":"ｵｵｲﾀｹﾝ","kana_city":"ｵｵｲﾀｼ","kana_address":"ｷﾎﾞｳｶﾞｵｶ","pref":"大分県","city":"大分市","address":"希望が丘"},
{"zip_code":"8700129","kana_pref":"ｵｵｲﾀｹﾝ","kana_city":"ｵｵｲﾀｼ","kana_address":"ｷｮｳｶﾞｵｶﾐﾅﾐ","pref":"大分県","city":"大分市","address":"京が丘南"},
{"zip_code":"8701162","kana_pref":"ｵｵｲﾀｹﾝ","kana_city":"ｵｵｲﾀｼ","kana_address":"ｸﾁﾄﾞ","pref":"大分県","city":"大分市","address":"口戸"},
{"zip_code":"8700314","kana_pref":"ｵｵｲﾀｹﾝ","kana_city":"ｵｵｲﾀｼ","kana_address":"ｸﾄﾞ","pref":"大分県","city":"大分市","address":"久土"},
{"zip_code":"8700304","kana_pref":"ｵｵｲﾀｹﾝ","kana_city":"ｵｵｲﾀｼ","kana_address":"ｸﾊﾞﾙ","pref":"大分県","city":"大分市","address":"久原"},
{"zip_code":"8700324","kana_pref":"ｵｵｲﾀｹﾝ","kana_city":"ｵｵｲﾀｼ","kana_address":"ｸﾊﾞﾙｷﾀ","pref":"大分県","city":"大分市","address":"久原北"},
{"zip_code":"8700325","kana_pref":"ｵｵｲﾀｹﾝ","kana_city":"ｵｵｲﾀｼ","kana_address":"ｸﾊﾞﾙﾁｭｳｵｳ","pref":"大分県","city":"大分市","address":"久原中央"},
{"zip_code":"8700326","kana_pref":"ｵｵｲﾀｹﾝ","kana_city":"ｵｵｲﾀｼ","kana_address":"ｸﾊﾞﾙﾐﾅﾐ","pref":"大分県","city":"大分市","address":"久原南"},
{"zip_code":"8700124","kana_pref":"ｵｵｲﾀｹﾝ","kana_city":"ｵｵｲﾀｼ","kana_address":"ｹｲ","pref":"大分県","city":"大分市","address":"毛井"},
{"zip_code":"8700025","kana_pref":"ｵｵｲﾀｹﾝ","kana_city":"ｵｵｲﾀｼ","kana_address":"ｹﾝﾄｸﾏﾁ","pref":"大分県","city":"大分市","address":"顕徳町"},
{"zip_code":"8700147","kana_pref":"ｵｵｲﾀｹﾝ","kana_city":"ｵｵｲﾀｼ","kana_address":"ｺｲｹﾊﾞﾙ","pref":"大分県","city":"大分市","address":"小池原"},
{"zip_code":"8700173","kana_pref":"ｵｵｲﾀｹﾝ","kana_city":"ｵｵｲﾀｼ","kana_address":"ｺｳｴﾝﾄﾞｵﾘ","pref":"大分県","city":"大分市","address":"公園通り"},
{"zip_code":"8700174","kana_pref":"ｵｵｲﾀｹﾝ","kana_city":"ｵｵｲﾀｼ","kana_address":"ｺｳｴﾝﾄﾞｵﾘﾆｼ","pref":"大分県","city":"大分市","address":"公園通り西"},
{"zip_code":"8700935","kana_pref":"ｵｵｲﾀｹﾝ","kana_city":"ｵｵｲﾀｼ","kana_address":"ｺｶﾞﾂﾞﾙ","pref":"大分県","city":"大分市","address":"古ケ鶴"},
{"zip_code":"8700864","kana_pref":"ｵｵｲﾀｹﾝ","kana_city":"ｵｵｲﾀｼ","kana_address":"ｺｸﾌﾞ","pref":"大分県","city":"大分市","address":"国分"},
{"zip_code":"8700869","kana_pref":"ｵｵｲﾀｹﾝ","kana_city":"ｵｵｲﾀｼ","kana_address":"ｺｸﾌﾞｼﾝﾏﾁ","pref":"大分県","city":"大分市","address":"国分新町"},
{"zip_code":"8700863","kana_pref":"ｵｵｲﾀｹﾝ","kana_city":"ｵｵｲﾀｼ","kana_address":"ｺｸﾌﾞﾀﾞｲ","pref":"大分県","city":"大分市","address":"国分台"},
{"zip_code":"8700865","kana_pref":"ｵｵｲﾀｹﾝ","kana_city":"ｵｵｲﾀｼ","kana_address":"ｺｸﾌﾞﾀﾞﾝﾁ","pref":"大分県","city":"大分市","address":"国分団地"},
{"zip_code":"8700327","kana_pref":"ｵｵｲﾀｹﾝ","kana_city":"ｵｵｲﾀｼ","kana_address":"ｺｻﾞｲ","pref":"大分県","city":"大分市","address":"小佐井"},
{"zip_code":"8700036","kana_pref":"ｵｵｲﾀｹﾝ","kana_city":"ｵｵｲﾀｼ","kana_address":"ｺﾄﾌﾞｷﾏﾁ","pref":"大分県","city":"大分市","address":"寿町"},
{"zip_code":"8701134","kana_pref":"ｵｵｲﾀｹﾝ","kana_city":"ｵｵｲﾀｼ","kana_address":"ｺﾊﾞﾙﾀﾞﾝﾁ","pref":"大分県","city":"大分市","address":"小原団地"},
{"zip_code":"8700302","kana_pref":"ｵｵｲﾀｹﾝ","kana_city":"ｵｵｲﾀｼ","kana_address":"ｻｶﾉｲﾁ","pref":"大分県","city":"大分市","address":"坂ノ市"},
{"zip_code":"8700307","kana_pref":"ｵｵｲﾀｹﾝ","kana_city":"ｵｵｲﾀｼ","kana_address":"ｻｶﾉｲﾁﾁｭｳｵｳ","pref":"大分県","city":"大分市","address":"坂ノ市中央"},
{"zip_code":"8700309","kana_pref":"ｵｵｲﾀｹﾝ","kana_city":"ｵｵｲﾀｼ","kana_address":"ｻｶﾉｲﾁﾆｼ","pref":"大分県","city":"大分市","address":"坂ノ市西"},
{"zip_code":"8700308","kana_pref":"ｵｵｲﾀｹﾝ","kana_city":"ｵｵｲﾀｼ","kana_address":"ｻｶﾉｲﾁﾐﾅﾐ","pref":"大分県","city":"大分市","address":"坂ノ市南"},
{"zip_code":"8700838","kana_pref":"ｵｵｲﾀｹﾝ","kana_city":"ｵｵｲﾀｼ","kana_address":"ｻｸﾗｶﾞｵｶ","pref":"大分県","city":"大分市","address":"桜ケ丘"},
{"zip_code":"8700272","kana_pref":"ｵｵｲﾀｹﾝ","kana_city":"ｵｵｲﾀｼ","kana_address":"ｻｺ","pref":"大分県","city":"大分市","address":"迫"},
{"zip_code":"8700303","kana_pref":"ｵｵｲﾀｹﾝ","kana_city":"ｵｵｲﾀｼ","kana_address":"ｻﾄ","pref":"大分県","city":"大分市","address":"里"},
{"zip_code":"8700315","kana_pref":"ｵｵｲﾀｹﾝ","kana_city":"ｵｵｲﾀｼ","kana_address":"ｻﾉ","pref":"大分県","city":"大分市","address":"佐野"},
{"zip_code":"8701212","kana_pref":"ｵｵｲﾀｹﾝ","kana_city":"ｵｵｲﾀｼ","kana_address":"ｻﾜﾀ","pref":"大分県","city":"大分市","address":"沢田"},
{"zip_code":"8701120","kana_pref":"ｵｵｲﾀｹﾝ","kana_city":"ｵｵｲﾀｼ","kana_address":"ｻﾝｼｬｲﾝｼｷﾄﾞ","pref":"大分県","city":"大分市","address":"サンシャインしきど"},
{"zip_code":"8700829","kana_pref":"ｵｵｲﾀｹﾝ","kana_city":"ｵｵｲﾀｼ","kana_address":"ｼｲｻﾞｺ","pref":"大分県","city":"大分市","address":"椎迫"},
{"zip_code":"8700253","kana_pref":"ｵｵｲﾀｹﾝ","kana_city":"ｵｵｲﾀｼ","kana_address":"ｼｵﾐ","pref":"大分県","city":"大分市","address":"汐見"},
{"zip_code":"8701122","kana_pref":"ｵｵｲﾀｹﾝ","kana_city":"ｵｵｲﾀｼ","kana_address":"ｼｷﾄﾞ","pref":"大分県","city":"大分市","address":"敷戸"},
{"zip_code":"8701107","kana_pref":"ｵｵｲﾀｹﾝ","kana_city":"ｵｵｲﾀｼ","kana_address":"ｼｷﾄﾞｴｷｷﾀﾏﾁ","pref":"大分県","city":"大分市","address":"敷戸駅北町"},
{"zip_code":"8701102","kana_pref":"ｵｵｲﾀｹﾝ","kana_city":"ｵｵｲﾀｼ","kana_address":"ｼｷﾄﾞｼﾝﾏﾁ","pref":"大分県","city":"大分市","address":"敷戸新町"},
{"zip_code":"8701106","kana_pref":"ｵｵｲﾀｹﾝ","kana_city":"ｵｵｲﾀｼ","kana_address":"ｼｷﾄﾞﾀﾞｲ","pref":"大分県","city":"大分市","address":"敷戸台"},
{"zip_code":"8701104","kana_pref":"ｵｵｲﾀｹﾝ","kana_city":"ｵｵｲﾀｼ","kana_address":"ｼｷﾄﾞﾋｶﾞｼﾏﾁ","pref":"大分県","city":"大分市","address":"敷戸東町"},
{"zip_code":"8701103","kana_pref":"ｵｵｲﾀｹﾝ","kana_city":"ｵｵｲﾀｼ","kana_address":"ｼｷﾄﾞﾆｼﾏﾁ","pref":"大分県","city":"大分市","address":"敷戸西町"},
{"zip_code":"8701105","kana_pref":"ｵｵｲﾀｹﾝ","kana_city":"ｵｵｲﾀｼ","kana_address":"ｼｷﾄﾞﾐﾅﾐﾏﾁ","pref":"大分県","city":"大分市","address":"敷戸南町"},
{"zip_code":"8701101","kana_pref":"ｵｵｲﾀｹﾝ","kana_city":"ｵｵｲﾀｼ","kana_address":"ｼｷﾄﾞｷﾀﾏﾁ","pref":"大分県","city":"大分市","address":"敷戸北町"},
{"zip_code":"8700821","kana_pref":"ｵｵｲﾀｹﾝ","kana_city":"ｵｵｲﾀｼ","kana_address":"ｼﾃ","pref":"大分県","city":"大分市","address":"志手"},
{"zip_code":"8700261","kana_pref":"ｵｵｲﾀｹﾝ","kana_city":"ｵｵｲﾀｼ","kana_address":"ｼﾑﾗ","pref":"大分県","city":"大分市","address":"志村"},
{"zip_code":"8700951","kana_pref":"ｵｵｲﾀｹﾝ","kana_city":"ｵｵｲﾀｼ","kana_address":"ｼﾓｺﾞｵﾘ","pref":"大分県","city":"大分市","address":"下郡"},
{"zip_code":"8700952","kana_pref":"ｵｵｲﾀｹﾝ","kana_city":"ｵｵｲﾀｼ","kana_address":"ｼﾓｺﾞｵﾘｷﾀ","pref":"大分県","city":"大分市","address":"下郡北"},
{"zip_code":"8700941","kana_pref":"ｵｵｲﾀｹﾝ","kana_city":"ｵｵｲﾀｼ","kana_address":"ｼﾓｺﾞｵﾘｺｳｷﾞｮｳﾀﾞﾝﾁ","pref":"大分県","city":"大分市","address":"下郡工業団地"},
{"zip_code":"8700954","kana_pref":"ｵｵｲﾀｹﾝ","kana_city":"ｵｵｲﾀｼ","kana_address":"ｼﾓｺﾞｵﾘﾁｭｳｵｳ","pref":"大分県","city":"大分市","address":"下郡中央"},
{"zip_code":"8700953","kana_pref":"ｵｵｲﾀｹﾝ","kana_city":"ｵｵｲﾀｼ","kana_address":"ｼﾓｺﾞｵﾘﾋｶﾞｼ","pref":"大分県","city":"大分市","address":"下郡東"},
{"zip_code":"8700955","kana_pref":"ｵｵｲﾀｹﾝ","kana_city":"ｵｵｲﾀｼ","kana_address":"ｼﾓｺﾞｵﾘﾐﾅﾐ","pref":"大分県","city":"大分市","address":"下郡南"},
{"zip_code":"8700803","kana_pref":"ｵｵｲﾀｹﾝ","kana_city":"ｵｵｲﾀｼ","kana_address":"ｼﾓｼﾗｷ","pref":"大分県","city":"大分市","address":"下白木"},
{"zip_code":"8700118","kana_pref":"ｵｵｲﾀｹﾝ","kana_city":"ｵｵｲﾀｼ","kana_address":"ｼﾓﾄｸﾏﾙ","pref":"大分県","city":"大分市","address":"下徳丸"},
{"zip_code":"8701213","kana_pref":"ｵｵｲﾀｹﾝ","kana_city":"ｵｵｲﾀｼ","kana_address":"ｼﾓﾊﾗ","pref":"大分県","city":"大分市","address":"下原"},
{"zip_code":"8701112","kana_pref":"ｵｵｲﾀｹﾝ","kana_city":"ｵｵｲﾀｼ","kana_address":"ｼﾓﾊﾝﾀﾞ","pref":"大分県","city":"大分市","address":"下判田"},
{"zip_code":"8701141","kana_pref":"ｵｵｲﾀｹﾝ","kana_city":"ｵｵｲﾀｼ","kana_address":"ｼﾓﾑﾅｶﾀ","pref":"大分県","city":"大分市","address":"下宗方"},
{"zip_code":"8700807","kana_pref":"ｵｵｲﾀｹﾝ","kana_city":"ｵｵｲﾀｼ","kana_address":"ｼﾓﾔﾊﾀ","pref":"大分県","city":"大分市","address":"下八幡"},
{"zip_code":"8700241","kana_pref":"ｵｵｲﾀｹﾝ","kana_city":"ｵｵｲﾀｼ","kana_address":"ｼｮｳｻﾞｶｲ","pref":"大分県","city":"大分市","address":"庄境"},
{"zip_code":"8700922","kana_pref":"ｵｵｲﾀｹﾝ","kana_city":"ｵｵｲﾀｼ","kana_address":"ｼﾞｮｳﾄｳﾏﾁ","pref":"大分県","city":"大分市","address":"城東町"},
{"zip_code":"8700153","kana_pref":"ｵｵｲﾀｹﾝ","kana_city":"ｵｵｲﾀｼ","kana_address":"ｼﾞｮｳﾄｳﾏﾁ","pref":"大分県","city":"大分市","address":"城東町"},
{"zip_code":"8700824","kana_pref":"ｵｵｲﾀｹﾝ","kana_city":"ｵｵｲﾀｼ","kana_address":"ｼﾞｮｳﾅﾝﾋｶﾞｼﾏﾁ","pref":"大分県","city":"大分市","address":"城南東町"},
{"zip_code":"8700826","kana_pref":"ｵｵｲﾀｹﾝ","kana_city":"ｵｵｲﾀｼ","kana_address":"ｼﾞｮｳﾅﾝﾆｼﾏﾁ","pref":"大分県","city":"大分市","address":"城南西町"},
{"zip_code":"8700825","kana_pref":"ｵｵｲﾀｹﾝ","kana_city":"ｵｵｲﾀｼ","kana_address":"ｼﾞｮｳﾅﾝﾐﾅﾐﾏﾁ","pref":"大分県","city":"大分市","address":"城南南町"},
{"zip_code":"8700827","kana_pref":"ｵｵｲﾀｹﾝ","kana_city":"ｵｵｲﾀｼ","kana_address":"ｼﾞｮｳﾅﾝｷﾀﾏﾁ","pref":"大分県","city":"大分市","address":"城南北町"},
{"zip_code":"8700828","kana_pref":"ｵｵｲﾀｹﾝ","kana_city":"ｵｵｲﾀｼ","kana_address":"ｼﾞｮｳﾅﾝﾔﾏﾃﾀﾞｲ","pref":"大分県","city":"大分市","address":"城南山手台"},
{"zip_code":"8700267","kana_pref":"ｵｵｲﾀｹﾝ","kana_city":"ｵｵｲﾀｼ","kana_address":"ｼﾞｮｳﾊﾙ","pref":"大分県","city":"大分市","address":"城原"},
{"zip_code":"8700876","kana_pref":"ｵｵｲﾀｹﾝ","kana_city":"ｵｵｲﾀｼ","kana_address":"ｼｮｳﾉﾊﾙ","pref":"大分県","city":"大分市","address":"庄の原"},
{"zip_code":"8700045","kana_pref":"ｵｵｲﾀｹﾝ","kana_city":"ｵｵｲﾀｼ","kana_address":"ｼﾛｻｷﾏﾁ","pref":"大分県","city":"大分市","address":"城崎町"},
{"zip_code":"8700818","kana_pref":"ｵｵｲﾀｹﾝ","kana_city":"ｵｵｲﾀｼ","kana_address":"ｼﾝｶｽｶﾞﾏﾁ","pref":"大分県","city":"大分市","address":"新春日町"},
{"zip_code":"8700015","kana_pref":"ｵｵｲﾀｹﾝ","kana_city":"ｵｵｲﾀｼ","kana_address":"ｼﾝｶﾜﾆｼ","pref":"大分県","city":"大分市","address":"新川西"},
{"zip_code":"8700016","kana_pref":"ｵｵｲﾀｹﾝ","kana_city":"ｵｵｲﾀｼ","kana_address":"ｼﾝｶﾜﾏﾁ","pref":"大分県","city":"大分市","address":"新川町"},
{"zip_code":"8700911","kana_pref":"ｵｵｲﾀｹﾝ","kana_city":"ｵｵｲﾀｼ","kana_address":"ｼﾝｶﾞｲ","pref":"大分県","city":"大分市","address":"新貝"},
{"zip_code":"8700919","kana_pref":"ｵｵｲﾀｹﾝ","kana_city":"ｵｵｲﾀｼ","kana_address":"ｼﾝｻｶｴﾏﾁ","pref":"大分県","city":"大分市","address":"新栄町"},
{"zip_code":"8700028","kana_pref":"ｵｵｲﾀｹﾝ","kana_city":"ｵｵｲﾀｼ","kana_address":"ｼﾝﾏﾁ","pref":"大分県","city":"大分市","address":"新町"},
{"zip_code":"8700172","kana_pref":"ｵｵｲﾀｹﾝ","kana_city":"ｵｵｲﾀｼ","kana_address":"ｼﾝﾒｲｼﾞ","pref":"大分県","city":"大分市","address":"新明治"},
{"zip_code":"8700027","kana_pref":"ｵｵｲﾀｹﾝ","kana_city":"ｵｵｲﾀｼ","kana_address":"ｽｴﾋﾛﾏﾁ","pref":"大分県","city":"大分市","address":"末広町"},
{"zip_code":"8700244","kana_pref":"ｵｵｲﾀｹﾝ","kana_city":"ｵｵｲﾀｼ","kana_address":"ｽｶﾞ","pref":"大分県","city":"大分市","address":"須賀"},
{"zip_code":"8700032","kana_pref":"ｵｵｲﾀｹﾝ","kana_city":"ｵｵｲﾀｼ","kana_address":"ｽﾐﾖｼﾏﾁ","pref":"大分県","city":"大分市","address":"住吉町"},
{"zip_code":"8700031","kana_pref":"ｵｵｲﾀｹﾝ","kana_city":"ｵｵｲﾀｼ","kana_address":"ｾｲｹﾏﾁ","pref":"大分県","city":"大分市","address":"勢家町"},
{"zip_code":"8701114","kana_pref":"ｵｵｲﾀｹﾝ","kana_city":"ｵｵｲﾀｼ","kana_address":"ｾｲﾜﾀﾞｲ","pref":"大分県","city":"大分市","address":"星和台"},
{"zip_code":"8700115","kana_pref":"ｵｵｲﾀｹﾝ","kana_city":"ｵｵｲﾀｼ","kana_address":"ｾｷｿﾞﾉ","pref":"大分県","city":"大分市","address":"関園"},
{"zip_code":"8700048","kana_pref":"ｵｵｲﾀｹﾝ","kana_city":"ｵｵｲﾀｼ","kana_address":"ｾｷﾃﾞﾝﾏﾁ","pref":"大分県","city":"大分市","address":"碩田町"},
{"zip_code":"8700132","kana_pref":"ｵｵｲﾀｹﾝ","kana_city":"ｵｵｲﾀｼ","kana_address":"ｾﾝｻﾞｲ","pref":"大分県","city":"大分市","address":"千歳"},
{"zip_code":"8701123","kana_pref":"ｵｵｲﾀｹﾝ","kana_city":"ｵｵｲﾀｼ","kana_address":"ｿｳﾀﾞ","pref":"大分県","city":"大分市","address":"寒田"},
{"zip_code":"8701138","kana_pref":"ｵｵｲﾀｹﾝ","kana_city":"ｵｵｲﾀｼ","kana_address":"ｿｳﾀﾞｷﾀﾏﾁ","pref":"大分県","city":"大分市","address":"寒田北町"},
{"zip_code":"8701139","kana_pref":"ｵｵｲﾀｹﾝ","kana_city":"ｵｵｲﾀｼ","kana_address":"ｿｳﾀﾞﾐﾅﾐﾏﾁ","pref":"大分県","city":"大分市","address":"寒田南町"},
{"zip_code":"8700837","kana_pref":"ｵｵｲﾀｹﾝ","kana_city":"ｵｵｲﾀｼ","kana_address":"ﾀｲﾍｲﾏﾁ","pref":"大分県","city":"大分市","address":"太平町"},
{"zip_code":"8701116","kana_pref":"ｵｵｲﾀｹﾝ","kana_city":"ｵｵｲﾀｼ","kana_address":"ﾀｶｴﾁｭｳｵｳ","pref":"大分県","city":"大分市","address":"高江中央"},
{"zip_code":"8701117","kana_pref":"ｵｵｲﾀｹﾝ","kana_city":"ｵｵｲﾀｼ","kana_address":"ﾀｶｴﾆｼ","pref":"大分県","city":"大分市","address":"高江西"},
{"zip_code":"8701118","kana_pref":"ｵｵｲﾀｹﾝ","kana_city":"ｵｵｲﾀｼ","kana_address":"ﾀｶｴﾐﾅﾐ","pref":"大分県","city":"大分市","address":"高江南"},
{"zip_code":"8701119","kana_pref":"ｵｵｲﾀｹﾝ","kana_city":"ｵｵｲﾀｼ","kana_address":"ﾀｶｴｷﾀ","pref":"大分県","city":"大分市","address":"高江北"},
{"zip_code":"8700873","kana_pref":"ｵｵｲﾀｹﾝ","kana_city":"ｵｵｲﾀｼ","kana_address":"ﾀｶｵﾀﾞｲ","pref":"大分県","city":"大分市","address":"高尾台"},
{"zip_code":"8700872","kana_pref":"ｵｵｲﾀｹﾝ","kana_city":"ｵｵｲﾀｼ","kana_address":"ﾀｶｻｷ","pref":"大分県","city":"大分市","address":"高崎"},
{"zip_code":"8700029","kana_pref":"ｵｵｲﾀｹﾝ","kana_city":"ｵｵｲﾀｼ","kana_address":"ﾀｶｻｺﾞﾏﾁ","pref":"大分県","city":"大分市","address":"高砂町"},
{"zip_code":"8700156","kana_pref":"ｵｵｲﾀｹﾝ","kana_city":"ｵｵｲﾀｼ","kana_address":"ﾀｶｼﾞｮｳｼﾝﾏﾁ","pref":"大分県","city":"大分市","address":"高城新町"},
{"zip_code":"8700148","kana_pref":"ｵｵｲﾀｹﾝ","kana_city":"ｵｵｲﾀｼ","kana_address":"ﾀｶｼﾞｮｳﾀﾞｲ","pref":"大分県","city":"大分市","address":"高城台"},
{"zip_code":"8700149","kana_pref":"ｵｵｲﾀｹﾝ","kana_city":"ｵｵｲﾀｼ","kana_address":"ﾀｶｼﾞｮｳﾀﾞﾝﾁ","pref":"大分県","city":"大分市","address":"高城団地"},
{"zip_code":"8700923","kana_pref":"ｵｵｲﾀｹﾝ","kana_city":"ｵｵｲﾀｼ","kana_address":"ﾀｶｼﾞｮｳﾆｼﾏﾁ","pref":"大分県","city":"大分市","address":"高城西町"},
{"zip_code":"8700154","kana_pref":"ｵｵｲﾀｹﾝ","kana_city":"ｵｵｲﾀｼ","kana_address":"ﾀｶｼﾞｮｳﾆｼﾏﾁ","pref":"大分県","city":"大分市","address":"高城西町"},
{"zip_code":"8700157","kana_pref":"ｵｵｲﾀｹﾝ","kana_city":"ｵｵｲﾀｼ","kana_address":"ﾀｶｼﾞｮｳﾎﾝﾏﾁ","pref":"大分県","city":"大分市","address":"高城本町"},
{"zip_code":"8700155","kana_pref":"ｵｵｲﾀｹﾝ","kana_city":"ｵｵｲﾀｼ","kana_address":"ﾀｶｼﾞｮｳﾐﾅﾐﾏﾁ","pref":"大分県","city":"大分市","address":"高城南町"},
{"zip_code":"8701142","kana_pref":"ｵｵｲﾀｹﾝ","kana_city":"ｵｵｲﾀｼ","kana_address":"ﾀｶｾ","pref":"大分県","city":"大分市","address":"高瀬"},
{"zip_code":"8701222","kana_pref":"ｵｵｲﾀｹﾝ","kana_city":"ｵｵｲﾀｼ","kana_address":"ﾀｶﾊﾗ","pref":"大分県","city":"大分市","address":"高原"},
{"zip_code":"8700917","kana_pref":"ｵｵｲﾀｹﾝ","kana_city":"ｵｵｲﾀｼ","kana_address":"ﾀｶﾏﾂ","pref":"大分県","city":"大分市","address":"高松"},
{"zip_code":"8700916","kana_pref":"ｵｵｲﾀｹﾝ","kana_city":"ｵｵｲﾀｼ","kana_address":"ﾀｶﾏﾂﾋｶﾞｼ","pref":"大分県","city":"大分市","address":"高松東"},
{"zip_code":"8700265","kana_pref":"ｵｵｲﾀｹﾝ","kana_city":"ｵｵｲﾀｼ","kana_address":"ﾀｹｼﾀ","pref":"大分県","city":"大分市","address":"竹下"},
{"zip_code":"8700882","kana_pref":"ｵｵｲﾀｹﾝ","kana_city":"ｵｵｲﾀｼ","kana_address":"ﾀｹﾉｳｴ","pref":"大分県","city":"大分市","address":"竹の上"},
{"zip_code":"8701211","kana_pref":"ｵｵｲﾀｹﾝ","kana_city":"ｵｵｲﾀｼ","kana_address":"ﾀｹﾔ","pref":"大分県","city":"大分市","address":"竹矢"},
{"zip_code":"8701143","kana_pref":"ｵｵｲﾀｹﾝ","kana_city":"ｵｵｲﾀｼ","kana_address":"ﾀｼﾞﾘ","pref":"大分県","city":"大分市","address":"田尻"},
{"zip_code":"8701144","kana_pref":"ｵｵｲﾀｹﾝ","kana_city":"ｵｵｲﾀｼ","kana_address":"ﾀｼﾞﾘｸﾞﾘｰﾝﾊｲﾂ","pref":"大分県","city":"大分市","address":"田尻グリーンハイツ"},
{"zip_code":"8701145","kana_pref":"ｵｵｲﾀｹﾝ","kana_city":"ｵｵｲﾀｼ","kana_address":"ﾀｼﾞﾘﾐﾅﾐ","pref":"大分県","city":"大分市","address":"田尻南"},
{"zip_code":"8700852","kana_pref":"ｵｵｲﾀｹﾝ","kana_city":"ｵｵｲﾀｼ","kana_address":"ﾀﾅｶﾏﾁ","pref":"大分県","city":"大分市","address":"田中町"},
{"zip_code":"8700274","kana_pref":"ｵｵｲﾀｹﾝ","kana_city":"ｵｵｲﾀｼ","kana_address":"ﾀﾈｸﾞ","pref":"大分県","city":"大分市","address":"種具"},
{"zip_code":"8700802","kana_pref":"ｵｵｲﾀｹﾝ","kana_city":"ｵｵｲﾀｼ","kana_address":"ﾀﾉｳﾗ","pref":"大分県","city":"大分市","address":"田ノ浦"},
{"zip_code":"8701154","kana_pref":"ｵｵｲﾀｹﾝ","kana_city":"ｵｵｲﾀｼ","kana_address":"ﾀﾊﾞﾙ","pref":"大分県","city":"大分市","address":"田原"},
{"zip_code":"8701155","kana_pref":"ｵｵｲﾀｹﾝ","kana_city":"ｵｵｲﾀｼ","kana_address":"ﾀﾏｻﾞﾜ","pref":"大分県","city":"大分市","address":"玉沢"},
{"zip_code":"8700816","kana_pref":"ｵｵｲﾀｹﾝ","kana_city":"ｵｵｲﾀｼ","kana_address":"ﾀﾑﾛﾏﾁ","pref":"大分県","city":"大分市","address":"田室町"},
{"zip_code":"8701124","kana_pref":"ｵｵｲﾀｹﾝ","kana_city":"ｵｵｲﾀｼ","kana_address":"ﾀﾞﾝﾉﾊﾙ","pref":"大分県","city":"大分市","address":"旦野原"},
{"zip_code":"8700035","kana_pref":"ｵｵｲﾀｹﾝ","kana_city":"ｵｵｲﾀｼ","kana_address":"ﾁｭｳｵｳﾏﾁ","pref":"大分県","city":"大分市","address":"中央町"},
{"zip_code":"8700033","kana_pref":"ｵｵｲﾀｹﾝ","kana_city":"ｵｵｲﾀｼ","kana_address":"ﾁﾖﾏﾁ","pref":"大分県","city":"大分市","address":"千代町"},
{"zip_code":"8701204","kana_pref":"ｵｵｲﾀｹﾝ","kana_city":"ｵｵｲﾀｼ","kana_address":"ﾂｼﾞﾊﾙ","pref":"大分県","city":"大分市","address":"辻原"},
{"zip_code":"8700116","kana_pref":"ｵｵｲﾀｹﾝ","kana_city":"ｵｵｲﾀｼ","kana_address":"ﾂﾈﾕｷ","pref":"大分県","city":"大分市","address":"常行"},
{"zip_code":"8700271","kana_pref":"ｵｵｲﾀｹﾝ","kana_city":"ｵｵｲﾀｼ","kana_address":"ﾂﾉｺﾊﾞﾙ","pref":"大分県","city":"大分市","address":"角子原"},
{"zip_code":"8700242","kana_pref":"ｵｵｲﾀｹﾝ","kana_city":"ｵｵｲﾀｼ","kana_address":"ﾂﾉｺﾞﾐﾅﾐ","pref":"大分県","city":"大分市","address":"角子南"},
{"zip_code":"8701166","kana_pref":"ｵｵｲﾀｹﾝ","kana_city":"ｵｵｲﾀｼ","kana_address":"ﾂﾊﾞｷｶﾞｵｶ","pref":"大分県","city":"大分市","address":"椿ケ丘"},
{"zip_code":"8700945","kana_pref":"ｵｵｲﾀｹﾝ","kana_city":"ｵｵｲﾀｼ","kana_address":"ﾂﾓﾘ","pref":"大分県","city":"大分市","address":"津守"},
{"zip_code":"8700106","kana_pref":"ｵｵｲﾀｹﾝ","kana_city":"ｵｵｲﾀｼ","kana_address":"ﾂﾙｻｷ","pref":"大分県","city":"大分市","address":"鶴崎"},
{"zip_code":"8700120","kana_pref":"ｵｵｲﾀｹﾝ","kana_city":"ｵｵｲﾀｼ","kana_address":"ﾂﾙｻｷｺｽﾓｽﾀﾞﾝﾁ","pref":"大分県","city":"大分市","address":"鶴崎コスモス団地"},
{"zip_code":"8700279","kana_pref":"ｵｵｲﾀｹﾝ","kana_city":"ｵｵｲﾀｼ","kana_address":"ﾂﾙｻｷﾖｳｺｳﾀﾞｲ","pref":"大分県","city":"大分市","address":"つるさき陽光台"},
{"zip_code":"8700121","kana_pref":"ｵｵｲﾀｹﾝ","kana_city":"ｵｵｲﾀｼ","kana_address":"ﾂﾙｾ","pref":"大分県","city":"大分市","address":"鶴瀬"},
{"zip_code":"8700137","kana_pref":"ｵｵｲﾀｹﾝ","kana_city":"ｵｵｲﾀｼ","kana_address":"ﾃﾗｻｷﾏﾁ","pref":"大分県","city":"大分市","address":"寺崎町"},
{"zip_code":"8701148","kana_pref":"ｵｵｲﾀｹﾝ","kana_city":"ｵｵｲﾀｼ","kana_address":"ﾃﾝﾘｮｳﾊｲﾂ","pref":"大分県","city":"大分市","address":"天領ハイツ"},
{"zip_code":"8700861","kana_pref":"ｵｵｲﾀｹﾝ","kana_city":"ｵｵｲﾀｼ","kana_address":"ﾄｲ","pref":"大分県","city":"大分市","address":"東院"},
{"zip_code":"8700867","kana_pref":"ｵｵｲﾀｹﾝ","kana_city":"ｵｵｲﾀｼ","kana_address":"ﾄｳﾉﾀﾞｲ","pref":"大分県","city":"大分市","address":"東野台"},
{"zip_code":"8700109","kana_pref":"ｵｵｲﾀｹﾝ","kana_city":"ｵｵｲﾀｼ","kana_address":"ﾄｸｼﾏ","pref":"大分県","city":"大分市","address":"徳島"},
{"zip_code":"8700947","kana_pref":"ｵｵｲﾀｹﾝ","kana_city":"ｵｵｲﾀｼ","kana_address":"ﾄﾐｵｶ","pref":"大分県","city":"大分市","address":"富岡"},
{"zip_code":"8700018","kana_pref":"ｵｵｲﾀｹﾝ","kana_city":"ｵｵｲﾀｼ","kana_address":"ﾄﾖﾐ","pref":"大分県","city":"大分市","address":"豊海"},
{"zip_code":"8700862","kana_pref":"ｵｵｲﾀｹﾝ","kana_city":"ｵｵｲﾀｼ","kana_address":"ﾅｶｵ","pref":"大分県","city":"大分市","address":"中尾"},
{"zip_code":"8700039","kana_pref":"ｵｵｲﾀｹﾝ","kana_city":"ｵｵｲﾀｼ","kana_address":"ﾅｶｶｽｶﾞﾏﾁ","pref":"大分県","city":"大分市","address":"中春日町"},
{"zip_code":"8700049","kana_pref":"ｵｵｲﾀｹﾝ","kana_city":"ｵｵｲﾀｼ","kana_address":"ﾅｶｼﾏﾁｭｳｵｳ","pref":"大分県","city":"大分市","address":"中島中央"},
{"zip_code":"8700043","kana_pref":"ｵｵｲﾀｹﾝ","kana_city":"ｵｵｲﾀｼ","kana_address":"ﾅｶｼﾏﾋｶﾞｼ","pref":"大分県","city":"大分市","address":"中島東"},
{"zip_code":"8700047","kana_pref":"ｵｵｲﾀｹﾝ","kana_city":"ｵｵｲﾀｼ","kana_address":"ﾅｶｼﾏﾆｼ","pref":"大分県","city":"大分市","address":"中島西"},
{"zip_code":"8700101","kana_pref":"ｵｵｲﾀｹﾝ","kana_city":"ｵｵｲﾀｼ","kana_address":"ﾅｶﾂﾙｻｷ","pref":"大分県","city":"大分市","address":"中鶴崎"},
{"zip_code":"8700939","kana_pref":"ｵｵｲﾀｹﾝ","kana_city":"ｵｵｲﾀｼ","kana_address":"ﾅｶﾂﾞﾙ","pref":"大分県","city":"大分市","address":"中津留"},
{"zip_code":"8700135","kana_pref":"ｵｵｲﾀｹﾝ","kana_city":"ｵｵｲﾀｼ","kana_address":"ﾅｶﾆｼﾏﾁ","pref":"大分県","city":"大分市","address":"仲西町"},
{"zip_code":"8700111","kana_pref":"ｵｵｲﾀｹﾝ","kana_city":"ｵｵｲﾀｼ","kana_address":"ﾅｶﾉｽ","pref":"大分県","city":"大分市","address":"中ノ洲"},
{"zip_code":"8700859","kana_pref":"ｵｵｲﾀｹﾝ","kana_city":"ｵｵｲﾀｼ","kana_address":"ﾅｶﾉｾﾀﾞﾝﾁ","pref":"大分県","city":"大分市","address":"中の瀬団地"},
{"zip_code":"8701113","kana_pref":"ｵｵｲﾀｹﾝ","kana_city":"ｵｵｲﾀｼ","kana_address":"ﾅｶﾊﾝﾀﾞ","pref":"大分県","city":"大分市","address":"中判田"},
{"zip_code":"8700929","kana_pref":"ｵｵｲﾀｹﾝ","kana_city":"ｵｵｲﾀｼ","kana_address":"ﾅｶﾞﾀﾆﾏﾁ","pref":"大分県","city":"大分市","address":"長谷町"},
{"zip_code":"8700023","kana_pref":"ｵｵｲﾀｹﾝ","kana_city":"ｵｵｲﾀｼ","kana_address":"ﾅｶﾞﾊﾏﾏﾁ","pref":"大分県","city":"大分市","address":"長浜町"},
{"zip_code":"8700801","kana_pref":"ｵｵｲﾀｹﾝ","kana_city":"ｵｵｲﾀｼ","kana_address":"ﾅﾙｶﾜ","pref":"大分県","city":"大分市","address":"鳴川"},
{"zip_code":"8700046","kana_pref":"ｵｵｲﾀｹﾝ","kana_city":"ｵｵｲﾀｼ","kana_address":"ﾆｱｹﾞﾏﾁ","pref":"大分県","city":"大分市","address":"荷揚町"},
{"zip_code":"8701221","kana_pref":"ｵｵｲﾀｹﾝ","kana_city":"ｵｵｲﾀｼ","kana_address":"ﾆｵｷ","pref":"大分県","city":"大分市","address":"荷尾杵"},
{"zip_code":"8700820","kana_pref":"ｵｵｲﾀｹﾝ","kana_city":"ｵｵｲﾀｼ","kana_address":"ﾆｼｵｵﾐﾁ","pref":"大分県","city":"大分市","address":"西大道"},
{"zip_code":"8700038","kana_pref":"ｵｵｲﾀｹﾝ","kana_city":"ｵｵｲﾀｼ","kana_address":"ﾆｼｶｽｶﾞﾏﾁ","pref":"大分県","city":"大分市","address":"西春日町"},
{"zip_code":"8700024","kana_pref":"ｵｵｲﾀｹﾝ","kana_city":"ｵｵｲﾀｼ","kana_address":"ﾆｼｷﾏﾁ","pref":"大分県","city":"大分市","address":"錦町"},
{"zip_code":"8700901","kana_pref":"ｵｵｲﾀｹﾝ","kana_city":"ｵｵｲﾀｼ","kana_address":"ﾆｼｼﾝﾁ","pref":"大分県","city":"大分市","address":"西新地"},
{"zip_code":"8700105","kana_pref":"ｵｵｲﾀｹﾝ","kana_city":"ｵｵｲﾀｼ","kana_address":"ﾆｼﾂﾙｻｷ","pref":"大分県","city":"大分市","address":"西鶴崎"},
{"zip_code":"8700902","kana_pref":"ｵｵｲﾀｹﾝ","kana_city":"ｵｵｲﾀｼ","kana_address":"ﾆｼﾉｽ","pref":"大分県","city":"大分市","address":"西ノ洲"},
{"zip_code":"8700931","kana_pref":"ｵｵｲﾀｹﾝ","kana_city":"ｵｵｲﾀｼ","kana_address":"ﾆｼﾊﾏ","pref":"大分県","city":"大分市","address":"西浜"},
{"zip_code":"8700874","kana_pref":"ｵｵｲﾀｹﾝ","kana_city":"ｵｵｲﾀｼ","kana_address":"ﾆｼﾞｶﾞｵｶ","pref":"大分県","city":"大分市","address":"にじが丘"},
{"zip_code":"8701167","kana_pref":"ｵｵｲﾀｹﾝ","kana_city":"ｵｵｲﾀｼ","kana_address":"ﾆﾎｳﾀﾞﾝﾁ","pref":"大分県","city":"大分市","address":"二豊団地"},
{"zip_code":"8700318","kana_pref":"ｵｵｲﾀｹﾝ","kana_city":"ｵｵｲﾀｼ","kana_address":"ﾆｭｳ","pref":"大分県","city":"大分市","address":"丹生"},
{"zip_code":"8700270","kana_pref":"ｵｵｲﾀｹﾝ","kana_city":"ｵｵｲﾀｼ","kana_address":"ﾉｿﾞﾐｶﾞｵｶ","pref":"大分県","city":"大分市","address":"望みが丘"},
{"zip_code":"8700868","kana_pref":"ｵｵｲﾀｹﾝ","kana_city":"ｵｵｲﾀｼ","kana_address":"ﾉﾀﾞ","pref":"大分県","city":"大分市","address":"野田"},
{"zip_code":"8701203","kana_pref":"ｵｵｲﾀｹﾝ","kana_city":"ｵｵｲﾀｼ","kana_address":"ﾉﾂﾊﾙ","pref":"大分県","city":"大分市","address":"野津原"},
{"zip_code":"8700921","kana_pref":"ｵｵｲﾀｹﾝ","kana_city":"ｵｵｲﾀｼ","kana_address":"ﾊｷﾞﾜﾗ","pref":"大分県","city":"大分市","address":"萩原"},
{"zip_code":"8700856","kana_pref":"ｵｵｲﾀｹﾝ","kana_city":"ｵｵｲﾀｼ","kana_address":"ﾊﾀｹﾅｶ","pref":"大分県","city":"大分市","address":"畑中"},
{"zip_code":"8700942","kana_pref":"ｵｵｲﾀｹﾝ","kana_city":"ｵｵｲﾀｼ","kana_address":"ﾊﾀﾞ","pref":"大分県","city":"大分市","address":"羽田"},
{"zip_code":"8700243","kana_pref":"ｵｵｲﾀｹﾝ","kana_city":"ｵｵｲﾀｼ","kana_address":"ﾊﾅｴｶﾞﾜ","pref":"大分県","city":"大分市","address":"花江川"},
{"zip_code":"8700846","kana_pref":"ｵｵｲﾀｹﾝ","kana_city":"ｵｵｲﾀｼ","kana_address":"ﾊﾅｿﾞﾉ","pref":"大分県","city":"大分市","address":"花園"},
{"zip_code":"8700915","kana_pref":"ｵｵｲﾀｹﾝ","kana_city":"ｵｵｲﾀｼ","kana_address":"ﾊﾅﾀｶﾏﾂ","pref":"大分県","city":"大分市","address":"花高松"},
{"zip_code":"8700933","kana_pref":"ｵｵｲﾀｹﾝ","kana_city":"ｵｵｲﾀｼ","kana_address":"ﾊﾅﾂﾞﾙ","pref":"大分県","city":"大分市","address":"花津留"},
{"zip_code":"8701128","kana_pref":"ｵｵｲﾀｹﾝ","kana_city":"ｵｵｲﾀｼ","kana_address":"ﾊﾅﾉｷｻﾞｶ","pref":"大分県","city":"大分市","address":"花の木坂"},
{"zip_code":"8700880","kana_pref":"ｵｵｲﾀｹﾝ","kana_city":"ｵｵｲﾀｼ","kana_address":"ﾊﾅﾉﾓﾘ","pref":"大分県","city":"大分市","address":"はなの森"},
{"zip_code":"8700323","kana_pref":"ｵｵｲﾀｹﾝ","kana_city":"ｵｵｲﾀｼ","kana_address":"ﾊﾏﾅｶ","pref":"大分県","city":"大分市","address":"浜中"},
{"zip_code":"8700002","kana_pref":"ｵｵｲﾀｹﾝ","kana_city":"ｵｵｲﾀｼ","kana_address":"ﾊﾏﾉｲﾁ","pref":"大分県","city":"大分市","address":"浜の市"},
{"zip_code":"8700013","kana_pref":"ｵｵｲﾀｹﾝ","kana_city":"ｵｵｲﾀｼ","kana_address":"ﾊﾏﾏﾁﾋｶﾞｼ","pref":"大分県","city":"大分市","address":"浜町東"},
{"zip_code":"8700012","kana_pref":"ｵｵｲﾀｹﾝ","kana_city":"ｵｵｲﾀｼ","kana_address":"ﾊﾏﾏﾁｷﾀ","pref":"大分県","city":"大分市","address":"浜町北"},
{"zip_code":"8700854","kana_pref":"ｵｵｲﾀｹﾝ","kana_city":"ｵｵｲﾀｼ","kana_address":"ﾊﾔ","pref":"大分県","city":"大分市","address":"羽屋"},
{"zip_code":"8700853","kana_pref":"ｵｵｲﾀｹﾝ","kana_city":"ｵｵｲﾀｼ","kana_address":"ﾊﾔｼﾝﾏﾁ","pref":"大分県","city":"大分市","address":"羽屋新町"},
{"zip_code":"8700138","kana_pref":"ｵｵｲﾀｹﾝ","kana_city":"ｵｵｲﾀｼ","kana_address":"ﾊﾙｶﾜ","pref":"大分県","city":"大分市","address":"原川"},
{"zip_code":"8700912","kana_pref":"ｵｵｲﾀｹﾝ","kana_city":"ｵｵｲﾀｼ","kana_address":"ﾊﾙｼﾝﾏﾁ","pref":"大分県","city":"大分市","address":"原新町"},
{"zip_code":"8701110","kana_pref":"ｵｵｲﾀｹﾝ","kana_city":"ｵｵｲﾀｼ","kana_address":"ﾊﾝﾀﾞﾀﾞｲ","pref":"大分県","city":"大分市","address":"判田台"},
{"zip_code":"8701126","kana_pref":"ｵｵｲﾀｹﾝ","kana_city":"ｵｵｲﾀｼ","kana_address":"ﾊﾝﾀﾞﾀﾞｲｷﾀ","pref":"大分県","city":"大分市","address":"判田台北"},
{"zip_code":"8701108","kana_pref":"ｵｵｲﾀｹﾝ","kana_city":"ｵｵｲﾀｼ","kana_address":"ﾊﾝﾀﾞﾀﾞｲﾋｶﾞｼ","pref":"大分県","city":"大分市","address":"判田台東"},
{"zip_code":"8701109","kana_pref":"ｵｵｲﾀｹﾝ","kana_city":"ｵｵｲﾀｼ","kana_address":"ﾊﾝﾀﾞﾀﾞｲﾐﾅﾐ","pref":"大分県","city":"大分市","address":"判田台南"},
{"zip_code":"8700914","kana_pref":"ｵｵｲﾀｹﾝ","kana_city":"ｵｵｲﾀｼ","kana_address":"ﾋｵｶ","pref":"大分県","city":"大分市","address":"日岡"},
{"zip_code":"8700151","kana_pref":"ｵｵｲﾀｹﾝ","kana_city":"ｵｵｲﾀｼ","kana_address":"ﾋｶﾞｼｱｹﾉ","pref":"大分県","city":"大分市","address":"東明野"},
{"zip_code":"8700306","kana_pref":"ｵｵｲﾀｹﾝ","kana_city":"ｵｵｲﾀｼ","kana_address":"ﾋｶﾞｼｳｴﾉ","pref":"大分県","city":"大分市","address":"東上野"},
{"zip_code":"8700823","kana_pref":"ｵｵｲﾀｹﾝ","kana_city":"ｵｵｲﾀｼ","kana_address":"ﾋｶﾞｼｵｵﾐﾁ","pref":"大分県","city":"大分市","address":"東大道"},
{"zip_code":"8700037","kana_pref":"ｵｵｲﾀｹﾝ","kana_city":"ｵｵｲﾀｼ","kana_address":"ﾋｶﾞｼｶｽｶﾞﾏﾁ","pref":"大分県","city":"大分市","address":"東春日町"},
{"zip_code":"8700103","kana_pref":"ｵｵｲﾀｹﾝ","kana_city":"ｵｵｲﾀｼ","kana_address":"ﾋｶﾞｼﾂﾙｻｷ","pref":"大分県","city":"大分市","address":"東鶴崎"},
{"zip_code":"8700934","kana_pref":"ｵｵｲﾀｹﾝ","kana_city":"ｵｵｲﾀｼ","kana_address":"ﾋｶﾞｼﾂﾞﾙ","pref":"大分県","city":"大分市","address":"東津留"},
{"zip_code":"8700932","kana_pref":"ｵｵｲﾀｹﾝ","kana_city":"ｵｵｲﾀｼ","kana_address":"ﾋｶﾞｼﾊﾏ","pref":"大分県","city":"大分市","address":"東浜"},
{"zip_code":"8700150","kana_pref":"ｵｵｲﾀｹﾝ","kana_city":"ｵｵｲﾀｼ","kana_address":"ﾋｶﾞｼﾊﾞﾙ","pref":"大分県","city":"大分市","address":"東原"},
{"zip_code":"8700871","kana_pref":"ｵｵｲﾀｹﾝ","kana_city":"ｵｵｲﾀｼ","kana_address":"ﾋｶﾞｼﾔﾊﾀ","pref":"大分県","city":"大分市","address":"東八幡"},
{"zip_code":"8701115","kana_pref":"ｵｵｲﾀｹﾝ","kana_city":"ｵｵｲﾀｼ","kana_address":"ﾋﾊﾞﾘｶﾞｵｶ","pref":"大分県","city":"大分市","address":"ひばりケ丘"},
{"zip_code":"8700301","kana_pref":"ｵｵｲﾀｹﾝ","kana_city":"ｵｵｲﾀｼ","kana_address":"ﾋﾖｼﾊﾞﾙ","pref":"大分県","city":"大分市","address":"日吉原"},
{"zip_code":"8700918","kana_pref":"ｵｵｲﾀｹﾝ","kana_city":"ｵｵｲﾀｼ","kana_address":"ﾋﾖｼﾏﾁ","pref":"大分県","city":"大分市","address":"日吉町"},
{"zip_code":"8700866","kana_pref":"ｵｵｲﾀｹﾝ","kana_city":"ｵｵｲﾀｼ","kana_address":"ﾋﾗﾖｺｾ","pref":"大分県","city":"大分市","address":"平横瀬"},
{"zip_code":"8700277","kana_pref":"ｵｵｲﾀｹﾝ","kana_city":"ｵｵｲﾀｼ","kana_address":"ﾋﾛｳﾁ","pref":"大分県","city":"大分市","address":"広内"},
{"zip_code":"8700847","kana_pref":"ｵｵｲﾀｹﾝ","kana_city":"ｵｵｲﾀｼ","kana_address":"ﾋﾛｾﾏﾁ","pref":"大分県","city":"大分市","address":"広瀬町"},
{"zip_code":"8700881","kana_pref":"ｵｵｲﾀｹﾝ","kana_city":"ｵｵｲﾀｼ","kana_address":"ﾌｶｶﾞﾜｳﾁ","pref":"大分県","city":"大分市","address":"深河内"},
{"zip_code":"8701205","kana_pref":"ｵｵｲﾀｹﾝ","kana_city":"ｵｵｲﾀｼ","kana_address":"ﾌｸﾑﾈ","pref":"大分県","city":"大分市","address":"福宗"},
{"zip_code":"8701147","kana_pref":"ｵｵｲﾀｹﾝ","kana_city":"ｵｵｲﾀｼ","kana_address":"ﾌｼﾞｶﾞｵｶ","pref":"大分県","city":"大分市","address":"ふじが丘"},
{"zip_code":"8700957","kana_pref":"ｵｵｲﾀｹﾝ","kana_city":"ｵｵｲﾀｼ","kana_address":"ﾌｼﾞﾉﾀﾞｲ","pref":"大分県","city":"大分市","address":"藤の台"},
{"zip_code":"8701176","kana_pref":"ｵｵｲﾀｹﾝ","kana_city":"ｵｵｲﾀｼ","kana_address":"ﾌｼﾞﾐｶﾞｵｶﾋｶﾞｼ","pref":"大分県","city":"大分市","address":"富士見が丘東"},
{"zip_code":"8701177","kana_pref":"ｵｵｲﾀｹﾝ","kana_city":"ｵｵｲﾀｼ","kana_address":"ﾌｼﾞﾐｶﾞｵｶﾆｼ","pref":"大分県","city":"大分市","address":"富士見が丘西"},
{"zip_code":"8700887","kana_pref":"ｵｵｲﾀｹﾝ","kana_city":"ｵｵｲﾀｼ","kana_address":"ﾌﾀﾏﾀﾏﾁ","pref":"大分県","city":"大分市","address":"二又町"},
{"zip_code":"8700021","kana_pref":"ｵｵｲﾀｹﾝ","kana_city":"ｵｵｲﾀｼ","kana_address":"ﾌﾅｲﾏﾁ","pref":"大分県","city":"大分市","address":"府内町"},
{"zip_code":"8700855","kana_pref":"ｵｵｲﾀｹﾝ","kana_city":"ｵｵｲﾀｼ","kana_address":"ﾌﾞﾆｮｳ","pref":"大分県","city":"大分市","address":"豊饒"},
{"zip_code":"8700844","kana_pref":"ｵｵｲﾀｹﾝ","kana_city":"ｵｵｲﾀｼ","kana_address":"ﾌﾙｺﾞｳ","pref":"大分県","city":"大分市","address":"古国府"},
{"zip_code":"8700845","kana_pref":"ｵｵｲﾀｹﾝ","kana_city":"ｵｵｲﾀｼ","kana_address":"ﾌﾙｺﾞｳﾋｶﾞｼ","pref":"大分県","city":"大分市","address":"古国府東"},
{"zip_code":"8700017","kana_pref":"ｵｵｲﾀｹﾝ","kana_city":"ｵｵｲﾀｼ","kana_address":"ﾍﾞﾝﾃﾝ","pref":"大分県","city":"大分市","address":"弁天"},
{"zip_code":"8700948","kana_pref":"ｵｵｲﾀｹﾝ","kana_city":"ｵｵｲﾀｼ","kana_address":"ﾎｳｶﾞﾜﾗﾀﾞｲ","pref":"大分県","city":"大分市","address":"芳河原台"},
{"zip_code":"8700171","kana_pref":"ｵｵｲﾀｹﾝ","kana_city":"ｵｵｲﾀｼ","kana_address":"ﾎｳｼｮｳﾀﾞｲ","pref":"大分県","city":"大分市","address":"法勝台"},
{"zip_code":"8700305","kana_pref":"ｵｵｲﾀｹﾝ","kana_city":"ｵｵｲﾀｼ","kana_address":"ﾎｿ","pref":"大分県","city":"大分市","address":"細"},
{"zip_code":"8700044","kana_pref":"ｵｵｲﾀｹﾝ","kana_city":"ｵｵｲﾀｼ","kana_address":"ﾏｲﾂﾞﾙﾏﾁ","pref":"大分県","city":"大分市","address":"舞鶴町"},
{"zip_code":"8701146","kana_pref":"ｵｵｲﾀｹﾝ","kana_city":"ｵｵｲﾀｼ","kana_address":"ﾏｶﾞﾘ(635","pref":"大分県","city":"大分市","address":"曲（６３５"},
{"zip_code":"8701146","kana_pref":"ｵｵｲﾀｹﾝ","kana_city":"ｵｵｲﾀｼ","kana_address":"639","pref":"大分県","city":"大分市","address":"６３９"},
{"zip_code":"8701146","kana_pref":"ｵｵｲﾀｹﾝ","kana_city":"ｵｵｲﾀｼ","kana_address":"650","pref":"大分県","city":"大分市","address":"６５０"},
{"zip_code":"8701146","kana_pref":"ｵｵｲﾀｹﾝ","kana_city":"ｵｵｲﾀｼ","kana_address":"669","pref":"大分県","city":"大分市","address":"６６９"},
{"zip_code":"8701146","kana_pref":"ｵｵｲﾀｹﾝ","kana_city":"ｵｵｲﾀｼ","kana_address":"676","pref":"大分県","city":"大分市","address":"６７６"},
{"zip_code":"8701146","kana_pref":"ｵｵｲﾀｹﾝ","kana_city":"ｵｵｲﾀｼ","kana_address":"678","pref":"大分県","city":"大分市","address":"６７８"},
{"zip_code":"8701146","kana_pref":"ｵｵｲﾀｹﾝ","kana_city":"ｵｵｲﾀｼ","kana_address":"689","pref":"大分県","city":"大分市","address":"６８９"},
{"zip_code":"8701146","kana_pref":"ｵｵｲﾀｹﾝ","kana_city":"ｵｵｲﾀｼ","kana_address":"","pref":"大分県","city":"大分市","address":""},
{"zip_code":"8701146","kana_pref":"ｵｵｲﾀｹﾝ","kana_city":"ｵｵｲﾀｼ","kana_address":"695ﾊﾞﾝﾁ","pref":"大分県","city":"大分市","address":"６９５番地"},
{"zip_code":"8701146","kana_pref":"ｵｵｲﾀｹﾝ","kana_city":"ｵｵｲﾀｼ","kana_address":"718ﾊﾞﾝﾁ","pref":"大分県","city":"大分市","address":"７１８番地"},
{"zip_code":"8701146","kana_pref":"ｵｵｲﾀｹﾝ","kana_city":"ｵｵｲﾀｼ","kana_address":"733ﾊﾞﾝﾁ","pref":"大分県","city":"大分市","address":"７３３番地"},
{"zip_code":"8701146","kana_pref":"ｵｵｲﾀｹﾝ","kana_city":"ｵｵｲﾀｼ","kana_address":"1481ﾊﾞﾝﾁ","pref":"大分県","city":"大分市","address":"１４８１番地"},
{"zip_code":"8701146","kana_pref":"ｵｵｲﾀｹﾝ","kana_city":"ｵｵｲﾀｼ","kana_address":"1555ﾊﾞﾝﾁ","pref":"大分県","city":"大分市","address":"１５５５番地"},
{"zip_code":"8701146","kana_pref":"ｵｵｲﾀｹﾝ","kana_city":"ｵｵｲﾀｼ","kana_address":"1618ﾊﾞﾝﾁ)","pref":"大分県","city":"大分市","address":"１６１８番地）"},
{"zip_code":"8700946","kana_pref":"ｵｵｲﾀｹﾝ","kana_city":"ｵｵｲﾀｼ","kana_address":"ﾏｶﾞﾘ","pref":"大分県","city":"大分市","address":"曲"},
{"zip_code":"8700924","kana_pref":"ｵｵｲﾀｹﾝ","kana_city":"ｵｵｲﾀｼ","kana_address":"ﾏｷ","pref":"大分県","city":"大分市","address":"牧"},
{"zip_code":"8700152","kana_pref":"ｵｵｲﾀｹﾝ","kana_city":"ｵｵｲﾀｼ","kana_address":"ﾏｷ","pref":"大分県","city":"大分市","address":"牧"},
{"zip_code":"8700925","kana_pref":"ｵｵｲﾀｹﾝ","kana_city":"ｵｵｲﾀｼ","kana_address":"ﾏｷｶﾐﾏﾁ","pref":"大分県","city":"大分市","address":"牧上町"},
{"zip_code":"8700125","kana_pref":"ｵｵｲﾀｹﾝ","kana_city":"ｵｵｲﾀｼ","kana_address":"ﾏﾂｵｶ","pref":"大分県","city":"大分市","address":"松岡"},
{"zip_code":"8701168","kana_pref":"ｵｵｲﾀｹﾝ","kana_city":"ｵｵｲﾀｼ","kana_address":"ﾏﾂｶﾞｵｶ","pref":"大分県","city":"大分市","address":"松が丘"},
{"zip_code":"8700913","kana_pref":"ｵｵｲﾀｹﾝ","kana_city":"ｵｵｲﾀｼ","kana_address":"ﾏﾂﾊﾞﾗﾏﾁ","pref":"大分県","city":"大分市","address":"松原町"},
{"zip_code":"8700268","kana_pref":"ｵｵｲﾀｹﾝ","kana_city":"ｵｵｲﾀｼ","kana_address":"ﾏﾄﾞｺﾛ","pref":"大分県","city":"大分市","address":"政所"},
{"zip_code":"8700122","kana_pref":"ｵｵｲﾀｹﾝ","kana_city":"ｵｵｲﾀｼ","kana_address":"ﾏﾙｶﾞﾒ","pref":"大分県","city":"大分市","address":"丸亀"},
{"zip_code":"8700888","kana_pref":"ｵｵｲﾀｹﾝ","kana_city":"ｵｵｲﾀｼ","kana_address":"ﾐｹﾀﾏﾁ","pref":"大分県","city":"大分市","address":"三ケ田町"},
{"zip_code":"8700108","kana_pref":"ｵｵｲﾀｹﾝ","kana_city":"ｵｵｲﾀｼ","kana_address":"ﾐｻ","pref":"大分県","city":"大分市","address":"三佐"},
{"zip_code":"8700143","kana_pref":"ｵｵｲﾀｹﾝ","kana_city":"ｵｵｲﾀｼ","kana_address":"ﾐﾂｶﾞﾜｶﾐ","pref":"大分県","city":"大分市","address":"三川上"},
{"zip_code":"8700142","kana_pref":"ｵｵｲﾀｹﾝ","kana_city":"ｵｵｲﾀｼ","kana_address":"ﾐﾂｶﾞﾜｼﾓ","pref":"大分県","city":"大分市","address":"三川下"},
{"zip_code":"8700141","kana_pref":"ｵｵｲﾀｹﾝ","kana_city":"ｵｵｲﾀｼ","kana_address":"ﾐﾂｶﾞﾜｼﾝﾏﾁ","pref":"大分県","city":"大分市","address":"三川新町"},
{"zip_code":"8701132","kana_pref":"ｵｵｲﾀｹﾝ","kana_city":"ｵｵｲﾀｼ","kana_address":"ﾐﾂﾖｼ","pref":"大分県","city":"大分市","address":"光吉"},
{"zip_code":"8701135","kana_pref":"ｵｵｲﾀｹﾝ","kana_city":"ｵｵｲﾀｼ","kana_address":"ﾐﾂﾖｼｼﾝﾏﾁ","pref":"大分県","city":"大分市","address":"光吉新町"},
{"zip_code":"8701136","kana_pref":"ｵｵｲﾀｹﾝ","kana_city":"ｵｵｲﾀｼ","kana_address":"ﾐﾂﾖｼﾀﾞｲ","pref":"大分県","city":"大分市","address":"光吉台"},
{"zip_code":"8701172","kana_pref":"ｵｵｲﾀｹﾝ","kana_city":"ｵｵｲﾀｼ","kana_address":"ﾐﾄﾞﾘｶﾞｵｶ","pref":"大分県","city":"大分市","address":"緑が丘"},
{"zip_code":"8700131","kana_pref":"ｵｵｲﾀｹﾝ","kana_city":"ｵｵｲﾀｼ","kana_address":"ﾐﾅﾊﾙ","pref":"大分県","city":"大分市","address":"皆春"},
{"zip_code":"8700117","kana_pref":"ｵｵｲﾀｹﾝ","kana_city":"ｵｵｲﾀｼ","kana_address":"ﾐﾅﾐ","pref":"大分県","city":"大分市","address":"南"},
{"zip_code":"8700812","kana_pref":"ｵｵｲﾀｹﾝ","kana_city":"ｵｵｲﾀｼ","kana_address":"ﾐﾅﾐｲｸｼﾋｶﾞｼ","pref":"大分県","city":"大分市","address":"南生石東"},
{"zip_code":"8700811","kana_pref":"ｵｵｲﾀｹﾝ","kana_city":"ｵｵｲﾀｼ","kana_address":"ﾐﾅﾐｲｸｼﾆｼ","pref":"大分県","city":"大分市","address":"南生石西"},
{"zip_code":"8700814","kana_pref":"ｵｵｲﾀｹﾝ","kana_city":"ｵｵｲﾀｼ","kana_address":"ﾐﾅﾐｵｳｼﾞﾏﾁ","pref":"大分県","city":"大分市","address":"南王子町"},
{"zip_code":"8700815","kana_pref":"ｵｵｲﾀｹﾝ","kana_city":"ｵｵｲﾀｼ","kana_address":"ﾐﾅﾐｶｽｶﾞﾏﾁ","pref":"大分県","city":"大分市","address":"南春日町"},
{"zip_code":"8700928","kana_pref":"ｵｵｲﾀｹﾝ","kana_city":"ｵｵｲﾀｼ","kana_address":"ﾐﾅﾐｼﾓｺﾞｵﾘ","pref":"大分県","city":"大分市","address":"南下郡"},
{"zip_code":"8700885","kana_pref":"ｵｵｲﾀｹﾝ","kana_city":"ｵｵｲﾀｼ","kana_address":"ﾐﾅﾐﾀｲﾍｲｼﾞ","pref":"大分県","city":"大分市","address":"南太平寺"},
{"zip_code":"8700104","kana_pref":"ｵｵｲﾀｹﾝ","kana_city":"ｵｵｲﾀｼ","kana_address":"ﾐﾅﾐﾂﾙｻｷ","pref":"大分県","city":"大分市","address":"南鶴崎"},
{"zip_code":"8700937","kana_pref":"ｵｵｲﾀｹﾝ","kana_city":"ｵｵｲﾀｼ","kana_address":"ﾐﾅﾐﾂﾞﾙ","pref":"大分県","city":"大分市","address":"南津留"},
{"zip_code":"8700276","kana_pref":"ｵｵｲﾀｹﾝ","kana_city":"ｵｵｲﾀｼ","kana_address":"ﾐﾔｶﾜｳﾁ","pref":"大分県","city":"大分市","address":"宮河内"},
{"zip_code":"8700275","kana_pref":"ｵｵｲﾀｹﾝ","kana_city":"ｵｵｲﾀｼ","kana_address":"ﾐﾔｶﾜｳﾁﾊｲﾗﾝﾄﾞ","pref":"大分県","city":"大分市","address":"宮河内ハイランド"},
{"zip_code":"8700034","kana_pref":"ｵｵｲﾀｹﾝ","kana_city":"ｵｵｲﾀｼ","kana_address":"ﾐﾔｺﾏﾁ","pref":"大分県","city":"大分市","address":"都町"},
{"zip_code":"8701133","kana_pref":"ｵｵｲﾀｹﾝ","kana_city":"ｵｵｲﾀｼ","kana_address":"ﾐﾔｻﾞｷ","pref":"大分県","city":"大分市","address":"宮崎"},
{"zip_code":"8701137","kana_pref":"ｵｵｲﾀｹﾝ","kana_city":"ｵｵｲﾀｼ","kana_address":"ﾐﾔｻﾞｷﾀﾞｲ","pref":"大分県","city":"大分市","address":"宮崎台"},
{"zip_code":"8700878","kana_pref":"ｵｵｲﾀｹﾝ","kana_city":"ｵｵｲﾀｼ","kana_address":"ﾐﾔｿﾞﾉ","pref":"大分県","city":"大分市","address":"宮苑"},
{"zip_code":"8700804","kana_pref":"ｵｵｲﾀｹﾝ","kana_city":"ｵｵｲﾀｼ","kana_address":"ﾐﾕｷ","pref":"大分県","city":"大分市","address":"御幸町"},
{"zip_code":"8700030","kana_pref":"ｵｵｲﾀｹﾝ","kana_city":"ｵｵｲﾀｼ","kana_address":"ﾐﾖｼ","pref":"大分県","city":"大分市","address":"三芳"},
{"zip_code":"8700903","kana_pref":"ｵｵｲﾀｹﾝ","kana_city":"ｵｵｲﾀｼ","kana_address":"ﾑｶｲﾊﾞﾙｵｷ","pref":"大分県","city":"大分市","address":"向原沖"},
{"zip_code":"8700904","kana_pref":"ｵｵｲﾀｹﾝ","kana_city":"ｵｵｲﾀｼ","kana_address":"ﾑｶｲﾊﾞﾙﾋｶﾞｼ","pref":"大分県","city":"大分市","address":"向原東"},
{"zip_code":"8700905","kana_pref":"ｵｵｲﾀｹﾝ","kana_city":"ｵｵｲﾀｼ","kana_address":"ﾑｶｲﾊﾞﾙﾆｼ","pref":"大分県","city":"大分市","address":"向原西"},
{"zip_code":"8701159","kana_pref":"ｵｵｲﾀｹﾝ","kana_city":"ｵｵｲﾀｼ","kana_address":"ﾑﾅｶﾀﾀﾞｲｷﾀ","pref":"大分県","city":"大分市","address":"宗方台北"},
{"zip_code":"8701158","kana_pref":"ｵｵｲﾀｹﾝ","kana_city":"ｵｵｲﾀｼ","kana_address":"ﾑﾅｶﾀﾀﾞｲﾆｼ","pref":"大分県","city":"大分市","address":"宗方台西"},
{"zip_code":"8701157","kana_pref":"ｵｵｲﾀｹﾝ","kana_city":"ｵｵｲﾀｼ","kana_address":"ﾑﾅｶﾀﾀﾞｲﾋｶﾞｼ","pref":"大分県","city":"大分市","address":"宗方台東"},
{"zip_code":"8701163","kana_pref":"ｵｵｲﾀｹﾝ","kana_city":"ｵｵｲﾀｼ","kana_address":"ﾒｸﾞｽﾉ(1-657","pref":"大分県","city":"大分市","address":"廻栖野（１〜６５７"},
{"zip_code":"8701163","kana_pref":"ｵｵｲﾀｹﾝ","kana_city":"ｵｵｲﾀｼ","kana_address":"776-829","pref":"大分県","city":"大分市","address":"７７６〜８２９"},
{"zip_code":"8701163","kana_pref":"ｵｵｲﾀｹﾝ","kana_city":"ｵｵｲﾀｼ","kana_address":"842-1305","pref":"大分県","city":"大分市","address":"８４２〜１３０５"},
{"zip_code":"8701163","kana_pref":"ｵｵｲﾀｹﾝ","kana_city":"ｵｵｲﾀｼ","kana_address":"2691","pref":"大分県","city":"大分市","address":"２６９１"},
{"zip_code":"8701163","kana_pref":"ｵｵｲﾀｹﾝ","kana_city":"ｵｵｲﾀｼ","kana_address":"","pref":"大分県","city":"大分市","address":""},
{"zip_code":"8701163","kana_pref":"ｵｵｲﾀｹﾝ","kana_city":"ｵｵｲﾀｼ","kana_address":"2925ﾊﾞﾝﾁ)","pref":"大分県","city":"大分市","address":"２９２５番地）"},
{"zip_code":"8701201","kana_pref":"ｵｵｲﾀｹﾝ","kana_city":"ｵｵｲﾀｼ","kana_address":"ﾒｸﾞｽﾉ","pref":"大分県","city":"大分市","address":"廻栖野"},
{"zip_code":"8700944","kana_pref":"ｵｵｲﾀｹﾝ","kana_city":"ｵｵｲﾀｼ","kana_address":"ﾒﾗ","pref":"大分県","city":"大分市","address":"米良"},
{"zip_code":"8701174","kana_pref":"ｵｵｲﾀｹﾝ","kana_city":"ｵｵｲﾀｼ","kana_address":"ﾓｴｷﾞﾀﾞｲ","pref":"大分県","city":"大分市","address":"萌葱台"},
{"zip_code":"8700843","kana_pref":"ｵｵｲﾀｹﾝ","kana_city":"ｵｵｲﾀｼ","kana_address":"ﾓﾄﾏﾁ","pref":"大分県","city":"大分市","address":"元町"},
{"zip_code":"8700139","kana_pref":"ｵｵｲﾀｹﾝ","kana_city":"ｵｵｲﾀｼ","kana_address":"ﾓﾓｿﾞﾉﾀﾞﾝﾁ","pref":"大分県","city":"大分市","address":"桃園団地"},
{"zip_code":"8700128","kana_pref":"ｵｵｲﾀｹﾝ","kana_city":"ｵｵｲﾀｼ","kana_address":"ﾓﾘ","pref":"大分県","city":"大分市","address":"森"},
{"zip_code":"8700127","kana_pref":"ｵｵｲﾀｹﾝ","kana_city":"ｵｵｲﾀｼ","kana_address":"ﾓﾘﾏﾁ","pref":"大分県","city":"大分市","address":"森町"},
{"zip_code":"8700136","kana_pref":"ｵｵｲﾀｹﾝ","kana_city":"ｵｵｲﾀｼ","kana_address":"ﾔﾏﾂﾞﾏﾁ","pref":"大分県","city":"大分市","address":"山津町"},
{"zip_code":"8700313","kana_pref":"ｵｵｲﾀｹﾝ","kana_city":"ｵｵｲﾀｼ","kana_address":"ﾔﾔﾏ","pref":"大分県","city":"大分市","address":"屋山"},
{"zip_code":"8700042","kana_pref":"ｵｵｲﾀｹﾝ","kana_city":"ｵｵｲﾀｼ","kana_address":"ﾕﾀｶﾏﾁ","pref":"大分県","city":"大分市","address":"豊町"},
{"zip_code":"8700958","kana_pref":"ｵｵｲﾀｹﾝ","kana_city":"ｵｵｲﾀｼ","kana_address":"ﾕﾒｶﾞｵｶ","pref":"大分県","city":"大分市","address":"ゆめが丘"},
{"zip_code":"8700126","kana_pref":"ｵｵｲﾀｹﾝ","kana_city":"ｵｵｲﾀｼ","kana_address":"ﾖｺｵ","pref":"大分県","city":"大分市","address":"横尾"},
{"zip_code":"8701173","kana_pref":"ｵｵｲﾀｹﾝ","kana_city":"ｵｵｲﾀｼ","kana_address":"ﾖｺｾ","pref":"大分県","city":"大分市","address":"横瀬"},
{"zip_code":"8700263","kana_pref":"ｵｵｲﾀｹﾝ","kana_city":"ｵｵｲﾀｼ","kana_address":"ﾖｺﾀ","pref":"大分県","city":"大分市","address":"横田"},
{"zip_code":"8700254","kana_pref":"ｵｵｲﾀｹﾝ","kana_city":"ｵｵｲﾀｼ","kana_address":"ﾖｺﾂﾞｶ","pref":"大分県","city":"大分市","address":"横塚"},
{"zip_code":"8700883","kana_pref":"ｵｵｲﾀｹﾝ","kana_city":"ｵｵｲﾀｼ","kana_address":"ﾘｮｳｺﾞ","pref":"大分県","city":"大分市","address":"永興"},
{"zip_code":"8700842","kana_pref":"ｵｵｲﾀｹﾝ","kana_city":"ｵｵｲﾀｼ","kana_address":"ﾛｸﾎﾞｳﾐﾅﾐﾏﾁ","pref":"大分県","city":"大分市","address":"六坊南町"},
{"zip_code":"8700841","kana_pref":"ｵｵｲﾀｹﾝ","kana_city":"ｵｵｲﾀｼ","kana_address":"ﾛｸﾎﾞｳｷﾀﾏﾁ","pref":"大分県","city":"大分市","address":"六坊北町"}]}