{"zip_code":[
{"zip_code":"8710000","kana_pref":"ﾌｸｵｶｹﾝ","kana_city":"ﾁｸｼﾞｮｳｸﾞﾝﾖｼﾄﾐﾏﾁ","kana_address":"","pref":"福岡県","city":"築上郡吉富町","address":""},
{"zip_code":"8710822","kana_pref":"ﾌｸｵｶｹﾝ","kana_city":"ﾁｸｼﾞｮｳｸﾞﾝﾖｼﾄﾐﾏﾁ","kana_address":"ｲﾏﾖｼ","pref":"福岡県","city":"築上郡吉富町","address":"今吉"},
{"zip_code":"8710802","kana_pref":"ﾌｸｵｶｹﾝ","kana_city":"ﾁｸｼﾞｮｳｸﾞﾝﾖｼﾄﾐﾏﾁ","kana_address":"ｺｲﾇﾏﾙ","pref":"福岡県","city":"築上郡吉富町","address":"小犬丸"},
{"zip_code":"8710801","kana_pref":"ﾌｸｵｶｹﾝ","kana_city":"ﾁｸｼﾞｮｳｸﾞﾝﾖｼﾄﾐﾏﾁ","kana_address":"ｺｲﾜｲ","pref":"福岡県","city":"築上郡吉富町","address":"小祝"},
{"zip_code":"8710821","kana_pref":"ﾌｸｵｶｹﾝ","kana_city":"ﾁｸｼﾞｮｳｸﾞﾝﾖｼﾄﾐﾏﾁ","kana_address":"ｺｳｼﾞ","pref":"福岡県","city":"築上郡吉富町","address":"幸子"},
{"zip_code":"8710832","kana_pref":"ﾌｸｵｶｹﾝ","kana_city":"ﾁｸｼﾞｮｳｸﾞﾝﾖｼﾄﾐﾏﾁ","kana_address":"ｽｽﾞｸﾏ","pref":"福岡県","city":"築上郡吉富町","address":"鈴熊"},
{"zip_code":"8710834","kana_pref":"ﾌｸｵｶｹﾝ","kana_city":"ﾁｸｼﾞｮｳｸﾞﾝﾖｼﾄﾐﾏﾁ","kana_address":"ﾂﾁﾔ","pref":"福岡県","city":"築上郡吉富町","address":"土屋"},
{"zip_code":"8710831","kana_pref":"ﾌｸｵｶｹﾝ","kana_city":"ﾁｸｼﾞｮｳｸﾞﾝﾖｼﾄﾐﾏﾁ","kana_address":"ﾅｵｴ","pref":"福岡県","city":"築上郡吉富町","address":"直江"},
{"zip_code":"8710833","kana_pref":"ﾌｸｵｶｹﾝ","kana_city":"ﾁｸｼﾞｮｳｸﾞﾝﾖｼﾄﾐﾏﾁ","kana_address":"ﾆﾘｮｳ","pref":"福岡県","city":"築上郡吉富町","address":"楡生"},
{"zip_code":"8710823","kana_pref":"ﾌｸｵｶｹﾝ","kana_city":"ﾁｸｼﾞｮｳｸﾞﾝﾖｼﾄﾐﾏﾁ","kana_address":"ﾋﾞｮｳ","pref":"福岡県","city":"築上郡吉富町","address":"別府"},
{"zip_code":"8710811","kana_pref":"ﾌｸｵｶｹﾝ","kana_city":"ﾁｸｼﾞｮｳｸﾞﾝﾖｼﾄﾐﾏﾁ","kana_address":"ﾋﾛﾂ","pref":"福岡県","city":"築上郡吉富町","address":"広津"},
{"zip_code":"8710900","kana_pref":"ﾌｸｵｶｹﾝ","kana_city":"ﾁｸｼﾞｮｳｸﾞﾝｺｳｹﾞﾏﾁ","kana_address":"","pref":"福岡県","city":"築上郡上毛町","address":""},
{"zip_code":"8710904","kana_pref":"ﾌｸｵｶｹﾝ","kana_city":"ﾁｸｼﾞｮｳｸﾞﾝｺｳｹﾞﾏﾁ","kana_address":"ｱｸﾓ","pref":"福岡県","city":"築上郡上毛町","address":"安雲"},
{"zip_code":"8710914","kana_pref":"ﾌｸｵｶｹﾝ","kana_city":"ﾁｸｼﾞｮｳｸﾞﾝｺｳｹﾞﾏﾁ","kana_address":"ｳﾉ","pref":"福岡県","city":"築上郡上毛町","address":"宇野"},
{"zip_code":"8710907","kana_pref":"ﾌｸｵｶｹﾝ","kana_city":"ﾁｸｼﾞｮｳｸﾞﾝｺｳｹﾞﾏﾁ","kana_address":"ｵｶﾞﾀ","pref":"福岡県","city":"築上郡上毛町","address":"緒方"},
{"zip_code":"8710924","kana_pref":"ﾌｸｵｶｹﾝ","kana_city":"ﾁｸｼﾞｮｳｸﾞﾝｺｳｹﾞﾏﾁ","kana_address":"ｶﾐﾄｳﾊﾞﾙ","pref":"福岡県","city":"築上郡上毛町","address":"上唐原"},
{"zip_code":"8710905","kana_pref":"ﾌｸｵｶｹﾝ","kana_city":"ﾁｸｼﾞｮｳｸﾞﾝｺｳｹﾞﾏﾁ","kana_address":"ｼﾀﾞｶ","pref":"福岡県","city":"築上郡上毛町","address":"尻高"},
{"zip_code":"8710923","kana_pref":"ﾌｸｵｶｹﾝ","kana_city":"ﾁｸｼﾞｮｳｸﾞﾝｺｳｹﾞﾏﾁ","kana_address":"ｼﾓﾄｳﾊﾞﾙ","pref":"福岡県","city":"築上郡上毛町","address":"下唐原"},
{"zip_code":"8710902","kana_pref":"ﾌｸｵｶｹﾝ","kana_city":"ﾁｸｼﾞｮｳｸﾞﾝｺｳｹﾞﾏﾁ","kana_address":"ﾀﾞｲﾉｾ","pref":"福岡県","city":"築上郡上毛町","address":"大ノ瀬"},
{"zip_code":"8710913","kana_pref":"ﾌｸｵｶｹﾝ","kana_city":"ﾁｸｼﾞｮｳｸﾞﾝｺｳｹﾞﾏﾁ","kana_address":"ﾀﾙﾐ","pref":"福岡県","city":"築上郡上毛町","address":"垂水"},
{"zip_code":"8710921","kana_pref":"ﾌｸｵｶｹﾝ","kana_city":"ﾁｸｼﾞｮｳｸﾞﾝｺｳｹﾞﾏﾁ","kana_address":"ﾂﾁｻｲ","pref":"福岡県","city":"築上郡上毛町","address":"土佐井"},
{"zip_code":"8710911","kana_pref":"ﾌｸｵｶｹﾝ","kana_city":"ﾁｸｼﾞｮｳｸﾞﾝｺｳｹﾞﾏﾁ","kana_address":"ﾅｶﾑﾗ","pref":"福岡県","city":"築上郡上毛町","address":"中村"},
{"zip_code":"8710901","kana_pref":"ﾌｸｵｶｹﾝ","kana_city":"ﾁｸｼﾞｮｳｸﾞﾝｺｳｹﾞﾏﾁ","kana_address":"ﾅﾘﾂﾈ","pref":"福岡県","city":"築上郡上毛町","address":"成恒"},
{"zip_code":"8710928","kana_pref":"ﾌｸｵｶｹﾝ","kana_city":"ﾁｸｼﾞｮｳｸﾞﾝｺｳｹﾞﾏﾁ","kana_address":"ﾆｼﾄﾓｴﾀﾞ","pref":"福岡県","city":"築上郡上毛町","address":"西友枝"},
{"zip_code":"8710226","kana_pref":"ﾌｸｵｶｹﾝ","kana_city":"ﾁｸｼﾞｮｳｸﾞﾝｺｳｹﾞﾏﾁ","kana_address":"ﾊﾗｲ","pref":"福岡県","city":"築上郡上毛町","address":"原井"},
{"zip_code":"8710926","kana_pref":"ﾌｸｵｶｹﾝ","kana_city":"ﾁｸｼﾞｮｳｸﾞﾝｺｳｹﾞﾏﾁ","kana_address":"ﾊﾗｲ","pref":"福岡県","city":"築上郡上毛町","address":"原井"},
{"zip_code":"8710927","kana_pref":"ﾌｸｵｶｹﾝ","kana_city":"ﾁｸｼﾞｮｳｸﾞﾝｺｳｹﾞﾏﾁ","kana_address":"ﾋｶﾞｼｶﾐ","pref":"福岡県","city":"築上郡上毛町","address":"東上"},
{"zip_code":"8710922","kana_pref":"ﾌｸｵｶｹﾝ","kana_city":"ﾁｸｼﾞｮｳｸﾞﾝｺｳｹﾞﾏﾁ","kana_address":"ﾋｶﾞｼｼﾓ","pref":"福岡県","city":"築上郡上毛町","address":"東下"},
{"zip_code":"8710925","kana_pref":"ﾌｸｵｶｹﾝ","kana_city":"ﾁｸｼﾞｮｳｸﾞﾝｺｳｹﾞﾏﾁ","kana_address":"ﾋｬｸﾄﾞﾐ","pref":"福岡県","city":"築上郡上毛町","address":"百留"},
{"zip_code":"8710906","kana_pref":"ﾌｸｵｶｹﾝ","kana_city":"ﾁｸｼﾞｮｳｸﾞﾝｺｳｹﾞﾏﾁ","kana_address":"ﾔｶﾀ","pref":"福岡県","city":"築上郡上毛町","address":"矢方"},
{"zip_code":"8710903","kana_pref":"ﾌｸｵｶｹﾝ","kana_city":"ﾁｸｼﾞｮｳｸﾞﾝｺｳｹﾞﾏﾁ","kana_address":"ﾔﾂﾅﾐ","pref":"福岡県","city":"築上郡上毛町","address":"八ツ並"},
{"zip_code":"8710912","kana_pref":"ﾌｸｵｶｹﾝ","kana_city":"ﾁｸｼﾞｮｳｸﾞﾝｺｳｹﾞﾏﾁ","kana_address":"ﾖｼｵｶ","pref":"福岡県","city":"築上郡上毛町","address":"吉岡"},
{"zip_code":"8710000","kana_pref":"ｵｵｲﾀｹﾝ","kana_city":"ﾅｶﾂｼ","kana_address":"","pref":"大分県","city":"中津市","address":""},
{"zip_code":"8710099","kana_pref":"ｵｵｲﾀｹﾝ","kana_city":"ﾅｶﾂｼ","kana_address":"ﾅｶﾂｼﾉﾂｷﾞﾆﾊﾞﾝﾁｶﾞｸﾙﾊﾞｱｲ","pref":"大分県","city":"中津市","address":"中津市の次に番地がくる場合"},
{"zip_code":"8710122","kana_pref":"ｵｵｲﾀｹﾝ","kana_city":"ﾅｶﾂｼ","kana_address":"ｱｲﾊﾗ(2803-1","pref":"大分県","city":"中津市","address":"相原（２８０３−１"},
{"zip_code":"8710122","kana_pref":"ｵｵｲﾀｹﾝ","kana_city":"ﾅｶﾂｼ","kana_address":"2803-24","pref":"大分県","city":"中津市","address":"２８０３−２４"},
{"zip_code":"8710122","kana_pref":"ｵｵｲﾀｹﾝ","kana_city":"ﾅｶﾂｼ","kana_address":"2803-25","pref":"大分県","city":"中津市","address":"２８０３−２５"},
{"zip_code":"8710122","kana_pref":"ｵｵｲﾀｹﾝ","kana_city":"ﾅｶﾂｼ","kana_address":"2803-27","pref":"大分県","city":"中津市","address":"２８０３−２７"},
{"zip_code":"8710122","kana_pref":"ｵｵｲﾀｹﾝ","kana_city":"ﾅｶﾂｼ","kana_address":"","pref":"大分県","city":"中津市","address":""},
{"zip_code":"8710122","kana_pref":"ｵｵｲﾀｹﾝ","kana_city":"ﾅｶﾂｼ","kana_address":"2803-37","pref":"大分県","city":"中津市","address":"２８０３−３７"},
{"zip_code":"8710122","kana_pref":"ｵｵｲﾀｹﾝ","kana_city":"ﾅｶﾂｼ","kana_address":"2803-38","pref":"大分県","city":"中津市","address":"２８０３−３８"},
{"zip_code":"8710122","kana_pref":"ｵｵｲﾀｹﾝ","kana_city":"ﾅｶﾂｼ","kana_address":"2803-39","pref":"大分県","city":"中津市","address":"２８０３−３９"},
{"zip_code":"8710122","kana_pref":"ｵｵｲﾀｹﾝ","kana_city":"ﾅｶﾂｼ","kana_address":"2803-43","pref":"大分県","city":"中津市","address":"２８０３−４３"},
{"zip_code":"8710122","kana_pref":"ｵｵｲﾀｹﾝ","kana_city":"ﾅｶﾂｼ","kana_address":"","pref":"大分県","city":"中津市","address":""},
{"zip_code":"8710122","kana_pref":"ｵｵｲﾀｹﾝ","kana_city":"ﾅｶﾂｼ","kana_address":"2803-69","pref":"大分県","city":"中津市","address":"２８０３−６９"},
{"zip_code":"8710122","kana_pref":"ｵｵｲﾀｹﾝ","kana_city":"ﾅｶﾂｼ","kana_address":"2803-77","pref":"大分県","city":"中津市","address":"２８０３−７７"},
{"zip_code":"8710122","kana_pref":"ｵｵｲﾀｹﾝ","kana_city":"ﾅｶﾂｼ","kana_address":"2803-91","pref":"大分県","city":"中津市","address":"２８０３−９１"},
{"zip_code":"8710122","kana_pref":"ｵｵｲﾀｹﾝ","kana_city":"ﾅｶﾂｼ","kana_address":"2818","pref":"大分県","city":"中津市","address":"２８１８"},
{"zip_code":"8710122","kana_pref":"ｵｵｲﾀｹﾝ","kana_city":"ﾅｶﾂｼ","kana_address":"2828","pref":"大分県","city":"中津市","address":"２８２８"},
{"zip_code":"8710122","kana_pref":"ｵｵｲﾀｹﾝ","kana_city":"ﾅｶﾂｼ","kana_address":"","pref":"大分県","city":"中津市","address":""},
{"zip_code":"8710122","kana_pref":"ｵｵｲﾀｹﾝ","kana_city":"ﾅｶﾂｼ","kana_address":"2925-7)","pref":"大分県","city":"中津市","address":"２９２５−７）"},
{"zip_code":"8710022","kana_pref":"ｵｵｲﾀｹﾝ","kana_city":"ﾅｶﾂｼ","kana_address":"ｱｲﾊﾗ","pref":"大分県","city":"中津市","address":"相原"},
{"zip_code":"8710098","kana_pref":"ｵｵｲﾀｹﾝ","kana_city":"ﾅｶﾂｼ","kana_address":"ｲﾁﾊﾞ","pref":"大分県","city":"中津市","address":"市場"},
{"zip_code":"8710015","kana_pref":"ｵｵｲﾀｹﾝ","kana_city":"ﾅｶﾂｼ","kana_address":"ｳｼｶﾞﾐ","pref":"大分県","city":"中津市","address":"牛神"},
{"zip_code":"8710016","kana_pref":"ｵｵｲﾀｹﾝ","kana_city":"ﾅｶﾂｼ","kana_address":"ｳｼｶﾞﾐﾏﾁ","pref":"大分県","city":"中津市","address":"牛神町"},
{"zip_code":"8710093","kana_pref":"ｵｵｲﾀｹﾝ","kana_city":"ﾅｶﾂｼ","kana_address":"ｳﾗﾏﾁ","pref":"大分県","city":"中津市","address":"浦町"},
{"zip_code":"8710064","kana_pref":"ｵｵｲﾀｹﾝ","kana_city":"ﾅｶﾂｼ","kana_address":"ｴｻｼﾏﾁ","pref":"大分県","city":"中津市","address":"餌指町"},
{"zip_code":"8710038","kana_pref":"ｵｵｲﾀｹﾝ","kana_city":"ﾅｶﾂｼ","kana_address":"ｴﾀﾞﾏﾁ","pref":"大分県","city":"中津市","address":"枝町"},
{"zip_code":"8710065","kana_pref":"ｵｵｲﾀｹﾝ","kana_city":"ﾅｶﾂｼ","kana_address":"ｴﾋﾞｽﾏﾁ","pref":"大分県","city":"中津市","address":"蛭子町"},
{"zip_code":"8710044","kana_pref":"ｵｵｲﾀｹﾝ","kana_city":"ﾅｶﾂｼ","kana_address":"ｴﾐﾀｹﾏﾁ","pref":"大分県","city":"中津市","address":"江三竹町"},
{"zip_code":"8710005","kana_pref":"ｵｵｲﾀｹﾝ","kana_city":"ﾅｶﾂｼ","kana_address":"ｵｳﾏ","pref":"大分県","city":"中津市","address":"合馬"},
{"zip_code":"8710153","kana_pref":"ｵｵｲﾀｹﾝ","kana_city":"ﾅｶﾂｼ","kana_address":"ｵｵｻﾀﾞ","pref":"大分県","city":"中津市","address":"大貞"},
{"zip_code":"8710001","kana_pref":"ｵｵｲﾀｹﾝ","kana_city":"ﾅｶﾂｼ","kana_address":"ｵｵｼﾝﾃﾞﾝ","pref":"大分県","city":"中津市","address":"大新田"},
{"zip_code":"8710008","kana_pref":"ｵｵｲﾀｹﾝ","kana_city":"ﾅｶﾂｼ","kana_address":"ｵｵﾂｶ","pref":"大分県","city":"中津市","address":"大塚"},
{"zip_code":"8710021","kana_pref":"ｵｵｲﾀｹﾝ","kana_city":"ﾅｶﾂｼ","kana_address":"ｵｷﾀﾞｲﾏﾁ","pref":"大分県","city":"中津市","address":"沖代町"},
{"zip_code":"8710045","kana_pref":"ｵｵｲﾀｹﾝ","kana_city":"ﾅｶﾂｼ","kana_address":"ｶｲﾂﾞﾏﾁ","pref":"大分県","city":"中津市","address":"萱津町"},
{"zip_code":"8710007","kana_pref":"ｵｵｲﾀｹﾝ","kana_city":"ﾅｶﾂｼ","kana_address":"ｶｷｾﾞ","pref":"大分県","city":"中津市","address":"蛎瀬"},
{"zip_code":"8710152","kana_pref":"ｵｵｲﾀｹﾝ","kana_city":"ﾅｶﾂｼ","kana_address":"ｶｸ","pref":"大分県","city":"中津市","address":"加来"},
{"zip_code":"8710082","kana_pref":"ｵｵｲﾀｹﾝ","kana_city":"ﾅｶﾂｼ","kana_address":"ｶｺﾏﾁ","pref":"大分県","city":"中津市","address":"水主町"},
{"zip_code":"8710056","kana_pref":"ｵｵｲﾀｹﾝ","kana_city":"ﾅｶﾂｼ","kana_address":"ｶﾀﾊﾏﾁ","pref":"大分県","city":"中津市","address":"片端町"},
{"zip_code":"8710013","kana_pref":"ｵｵｲﾀｹﾝ","kana_city":"ﾅｶﾂｼ","kana_address":"ｶﾅﾃ","pref":"大分県","city":"中津市","address":"金手"},
{"zip_code":"8710046","kana_pref":"ｵｵｲﾀｹﾝ","kana_city":"ﾅｶﾂｼ","kana_address":"ｶﾅﾔ","pref":"大分県","city":"中津市","address":"金谷"},
{"zip_code":"8710161","kana_pref":"ｵｵｲﾀｹﾝ","kana_city":"ﾅｶﾂｼ","kana_address":"ｶﾐｲｹﾅｶﾞ","pref":"大分県","city":"中津市","address":"上池永"},
{"zip_code":"8710004","kana_pref":"ｵｵｲﾀｹﾝ","kana_city":"ﾅｶﾂｼ","kana_address":"ｶﾐｼﾞｮｽｲ","pref":"大分県","city":"中津市","address":"上如水"},
{"zip_code":"8710042","kana_pref":"ｵｵｲﾀｹﾝ","kana_city":"ﾅｶﾂｼ","kana_address":"ｶﾐﾊｶﾀﾏﾁ","pref":"大分県","city":"中津市","address":"上博多町"},
{"zip_code":"8710027","kana_pref":"ｵｵｲﾀｹﾝ","kana_city":"ﾅｶﾂｼ","kana_address":"ｶﾐﾐﾔﾅｶﾞ","pref":"大分県","city":"中津市","address":"上宮永"},
{"zip_code":"8710060","kana_pref":"ｵｵｲﾀｹﾝ","kana_city":"ﾅｶﾂｼ","kana_address":"ｷﾀｲﾅﾎﾞﾘ","pref":"大分県","city":"中津市","address":"北稲堀"},
{"zip_code":"8710094","kana_pref":"ｵｵｲﾀｹﾝ","kana_city":"ﾅｶﾂｼ","kana_address":"ｷﾀｳﾗﾏﾁ","pref":"大分県","city":"中津市","address":"北浦町"},
{"zip_code":"8710090","kana_pref":"ｵｵｲﾀｹﾝ","kana_city":"ﾅｶﾂｼ","kana_address":"ｷﾀｼﾝﾁ","pref":"大分県","city":"中津市","address":"北新地"},
{"zip_code":"8710081","kana_pref":"ｵｵｲﾀｹﾝ","kana_city":"ﾅｶﾂｼ","kana_address":"ｷﾀﾎﾘｶﾜﾏﾁ","pref":"大分県","city":"中津市","address":"北堀川町"},
{"zip_code":"8710079","kana_pref":"ｵｵｲﾀｹﾝ","kana_city":"ﾅｶﾂｼ","kana_address":"ｷﾀﾓﾝﾄﾞｵﾘ","pref":"大分県","city":"中津市","address":"北門通"},
{"zip_code":"8710054","kana_pref":"ｵｵｲﾀｹﾝ","kana_city":"ﾅｶﾂｼ","kana_address":"ｷｮｳﾏﾁ","pref":"大分県","city":"中津市","address":"京町"},
{"zip_code":"8710091","kana_pref":"ｵｵｲﾀｹﾝ","kana_city":"ﾅｶﾂｼ","kana_address":"ｸﾗﾅｼﾏﾁ","pref":"大分県","city":"中津市","address":"闇無町"},
{"zip_code":"8710078","kana_pref":"ｵｵｲﾀｹﾝ","kana_city":"ﾅｶﾂｼ","kana_address":"ｺｲﾜｲ","pref":"大分県","city":"中津市","address":"小祝"},
{"zip_code":"8710080","kana_pref":"ｵｵｲﾀｹﾝ","kana_city":"ﾅｶﾂｼ","kana_address":"ｺｲﾜｲｼﾝﾏﾁ","pref":"大分県","city":"中津市","address":"小祝新町"},
{"zip_code":"8710154","kana_pref":"ｵｵｲﾀｹﾝ","kana_city":"ﾅｶﾂｼ","kana_address":"ｺｼﾞｮｳ","pref":"大分県","city":"中津市","address":"古城"},
{"zip_code":"8710084","kana_pref":"ｵｵｲﾀｹﾝ","kana_city":"ﾅｶﾂｼ","kana_address":"ｺﾎﾞﾘ","pref":"大分県","city":"中津市","address":"小堀"},
{"zip_code":"8710076","kana_pref":"ｵｵｲﾀｹﾝ","kana_city":"ﾅｶﾂｼ","kana_address":"ｺﾒﾏﾁ","pref":"大分県","city":"中津市","address":"米町"},
{"zip_code":"8710003","kana_pref":"ｵｵｲﾀｹﾝ","kana_city":"ﾅｶﾂｼ","kana_address":"ｺﾚﾉﾘ","pref":"大分県","city":"中津市","address":"是則"},
{"zip_code":"8710043","kana_pref":"ｵｵｲﾀｹﾝ","kana_city":"ﾅｶﾂｼ","kana_address":"ｻｶｴﾏﾁ","pref":"大分県","city":"中津市","address":"栄町"},
{"zip_code":"8710156","kana_pref":"ｵｵｲﾀｹﾝ","kana_city":"ﾅｶﾂｼ","kana_address":"ｻｶｷﾊﾞﾗﾁｮｳ","pref":"大分県","city":"中津市","address":"榊原町"},
{"zip_code":"8710074","kana_pref":"ｵｵｲﾀｹﾝ","kana_city":"ﾅｶﾂｼ","kana_address":"ｻｸﾗﾏﾁ","pref":"大分県","city":"中津市","address":"桜町"},
{"zip_code":"8710104","kana_pref":"ｵｵｲﾀｹﾝ","kana_city":"ﾅｶﾂｼ","kana_address":"ｻﾝｺｳｲｻﾔﾏ","pref":"大分県","city":"中津市","address":"三光諫山"},
{"zip_code":"8710112","kana_pref":"ｵｵｲﾀｹﾝ","kana_city":"ﾅｶﾂｼ","kana_address":"ｻﾝｺｳｳｽｷﾞ","pref":"大分県","city":"中津市","address":"三光臼木"},
{"zip_code":"8710114","kana_pref":"ｵｵｲﾀｹﾝ","kana_city":"ﾅｶﾂｼ","kana_address":"ｻﾝｺｳｵﾌﾞｸﾛ","pref":"大分県","city":"中津市","address":"三光小袋"},
{"zip_code":"8710111","kana_pref":"ｵｵｲﾀｹﾝ","kana_city":"ﾅｶﾂｼ","kana_address":"ｻﾝｺｳｻﾁ","pref":"大分県","city":"中津市","address":"三光佐知"},
{"zip_code":"8710103","kana_pref":"ｵｵｲﾀｹﾝ","kana_city":"ﾅｶﾂｼ","kana_address":"ｻﾝｺｳﾀｸﾞﾁ","pref":"大分県","city":"中津市","address":"三光田口"},
{"zip_code":"8710113","kana_pref":"ｵｵｲﾀｹﾝ","kana_city":"ﾅｶﾂｼ","kana_address":"ｻﾝｺｳﾂﾁﾀﾞ","pref":"大分県","city":"中津市","address":"三光土田"},
{"zip_code":"8710102","kana_pref":"ｵｵｲﾀｹﾝ","kana_city":"ﾅｶﾂｼ","kana_address":"ｻﾝｺｳﾅﾘﾂﾈ","pref":"大分県","city":"中津市","address":"三光成恒"},
{"zip_code":"8710105","kana_pref":"ｵｵｲﾀｹﾝ","kana_city":"ﾅｶﾂｼ","kana_address":"ｻﾝｺｳﾊﾗｸﾞﾁ","pref":"大分県","city":"中津市","address":"三光原口"},
{"zip_code":"8710101","kana_pref":"ｵｵｲﾀｹﾝ","kana_city":"ﾅｶﾂｼ","kana_address":"ｻﾝｺｳﾓﾘﾔﾏ","pref":"大分県","city":"中津市","address":"三光森山"},
{"zip_code":"8710057","kana_pref":"ｵｵｲﾀｹﾝ","kana_city":"ﾅｶﾂｼ","kana_address":"ｻﾝﾉﾁｮｳ","pref":"大分県","city":"中津市","address":"三ノ丁"},
{"zip_code":"8710073","kana_pref":"ｵｵｲﾀｹﾝ","kana_city":"ﾅｶﾂｼ","kana_address":"ｼｵﾏﾁ","pref":"大分県","city":"中津市","address":"塩町"},
{"zip_code":"8710033","kana_pref":"ｵｵｲﾀｹﾝ","kana_city":"ﾅｶﾂｼ","kana_address":"ｼﾏﾀﾞ","pref":"大分県","city":"中津市","address":"島田"},
{"zip_code":"8710035","kana_pref":"ｵｵｲﾀｹﾝ","kana_city":"ﾅｶﾂｼ","kana_address":"ｼﾏﾀﾞﾅｶﾏﾁ","pref":"大分県","city":"中津市","address":"島田仲町"},
{"zip_code":"8710036","kana_pref":"ｵｵｲﾀｹﾝ","kana_city":"ﾅｶﾂｼ","kana_address":"ｼﾏﾀﾞﾎﾝﾏﾁ","pref":"大分県","city":"中津市","address":"島田本町"},
{"zip_code":"8710011","kana_pref":"ｵｵｲﾀｹﾝ","kana_city":"ﾅｶﾂｼ","kana_address":"ｼﾓｲｹﾅｶﾞ","pref":"大分県","city":"中津市","address":"下池永"},
{"zip_code":"8710097","kana_pref":"ｵｵｲﾀｹﾝ","kana_city":"ﾅｶﾂｼ","kana_address":"ｼﾓｼｮｳｼﾞ","pref":"大分県","city":"中津市","address":"下正路"},
{"zip_code":"8710164","kana_pref":"ｵｵｲﾀｹﾝ","kana_city":"ﾅｶﾂｼ","kana_address":"ｼﾓﾅｶﾞｿｲ","pref":"大分県","city":"中津市","address":"下永添"},
{"zip_code":"8710029","kana_pref":"ｵｵｲﾀｹﾝ","kana_city":"ﾅｶﾂｼ","kana_address":"ｼﾓﾐﾔﾅｶﾞ","pref":"大分県","city":"中津市","address":"下宮永"},
{"zip_code":"8710048","kana_pref":"ｵｵｲﾀｹﾝ","kana_city":"ﾅｶﾂｼ","kana_address":"ｼﾝｳｵﾏﾁ","pref":"大分県","city":"中津市","address":"新魚町"},
{"zip_code":"8710009","kana_pref":"ｵｵｲﾀｹﾝ","kana_city":"ﾅｶﾂｼ","kana_address":"ｼﾝｵｵﾂｶﾏﾁ","pref":"大分県","city":"中津市","address":"新大塚町"},
{"zip_code":"8710039","kana_pref":"ｵｵｲﾀｹﾝ","kana_city":"ﾅｶﾂｼ","kana_address":"ｼﾝﾃﾝｼﾞﾝﾏﾁ","pref":"大分県","city":"中津市","address":"新天神町"},
{"zip_code":"8710041","kana_pref":"ｵｵｲﾀｹﾝ","kana_city":"ﾅｶﾂｼ","kana_address":"ｼﾝﾊｶﾀﾏﾁ","pref":"大分県","city":"中津市","address":"新博多町"},
{"zip_code":"8710069","kana_pref":"ｵｵｲﾀｹﾝ","kana_city":"ﾅｶﾂｼ","kana_address":"ｼﾝﾎﾞﾘ","pref":"大分県","city":"中津市","address":"新堀"},
{"zip_code":"8710086","kana_pref":"ｵｵｲﾀｹﾝ","kana_city":"ﾅｶﾂｼ","kana_address":"ｾﾝﾄﾞﾏﾁ","pref":"大分県","city":"中津市","address":"船頭町"},
{"zip_code":"8710002","kana_pref":"ｵｵｲﾀｹﾝ","kana_city":"ﾅｶﾂｼ","kana_address":"ｾﾞﾝﾄｸ","pref":"大分県","city":"中津市","address":"全徳"},
{"zip_code":"8710089","kana_pref":"ｵｵｲﾀｹﾝ","kana_city":"ﾅｶﾂｼ","kana_address":"ｾﾝﾊﾞﾏﾁ","pref":"大分県","city":"中津市","address":"船場町"},
{"zip_code":"8710059","kana_pref":"ｵｵｲﾀｹﾝ","kana_city":"ﾅｶﾂｼ","kana_address":"ｿﾄﾊﾞﾊﾞ","pref":"大分県","city":"中津市","address":"外馬場"},
{"zip_code":"8710151","kana_pref":"ｵｵｲﾀｹﾝ","kana_city":"ﾅｶﾂｼ","kana_address":"ﾀﾞｲｺﾞﾎﾞｳ","pref":"大分県","city":"中津市","address":"大悟法"},
{"zip_code":"8710066","kana_pref":"ｵｵｲﾀｹﾝ","kana_city":"ﾅｶﾂｼ","kana_address":"ﾀｶｼﾞｮｳﾏﾁ","pref":"大分県","city":"中津市","address":"鷹匠町"},
{"zip_code":"8710026","kana_pref":"ｵｵｲﾀｹﾝ","kana_city":"ﾅｶﾂｼ","kana_address":"ﾀｶｾ","pref":"大分県","city":"中津市","address":"高瀬"},
{"zip_code":"8710071","kana_pref":"ｵｵｲﾀｹﾝ","kana_city":"ﾅｶﾂｼ","kana_address":"ﾀｶﾍﾞﾔ","pref":"大分県","city":"中津市","address":"鷹部屋"},
{"zip_code":"8710024","kana_pref":"ｵｵｲﾀｹﾝ","kana_city":"ﾅｶﾂｼ","kana_address":"ﾁｭｳｵｳﾏﾁ","pref":"大分県","city":"中津市","address":"中央町"},
{"zip_code":"8710067","kana_pref":"ｵｵｲﾀｹﾝ","kana_city":"ﾅｶﾂｼ","kana_address":"ﾁｭｳｹﾞﾝﾏﾁ","pref":"大分県","city":"中津市","address":"仲間町"},
{"zip_code":"8710091","kana_pref":"ｵｵｲﾀｹﾝ","kana_city":"ﾅｶﾂｼ","kana_address":"ﾂﾉｷﾞ","pref":"大分県","city":"中津市","address":"角木"},
{"zip_code":"8710095","kana_pref":"ｵｵｲﾀｹﾝ","kana_city":"ﾅｶﾂｼ","kana_address":"ﾂﾉｷﾞｼﾝﾏﾁ","pref":"大分県","city":"中津市","address":"角木新町"},
{"zip_code":"8710028","kana_pref":"ｵｵｲﾀｹﾝ","kana_city":"ﾅｶﾂｼ","kana_address":"ﾂﾉｷﾞﾏﾁ","pref":"大分県","city":"中津市","address":"角木町"},
{"zip_code":"8710075","kana_pref":"ｵｵｲﾀｹﾝ","kana_city":"ﾅｶﾂｼ","kana_address":"ﾃﾗﾏﾁ","pref":"大分県","city":"中津市","address":"寺町"},
{"zip_code":"8710039","kana_pref":"ｵｵｲﾀｹﾝ","kana_city":"ﾅｶﾂｼ","kana_address":"ﾃﾝｼﾞﾝﾏﾁ","pref":"大分県","city":"中津市","address":"天神町"},
{"zip_code":"8710055","kana_pref":"ｵｵｲﾀｹﾝ","kana_city":"ﾅｶﾂｼ","kana_address":"ﾄﾉﾏﾁ","pref":"大分県","city":"中津市","address":"殿町"},
{"zip_code":"8710058","kana_pref":"ｵｵｲﾀｹﾝ","kana_city":"ﾅｶﾂｼ","kana_address":"ﾄﾖﾀﾞﾏﾁ","pref":"大分県","city":"中津市","address":"豊田町"},
{"zip_code":"8710031","kana_pref":"ｵｵｲﾀｹﾝ","kana_city":"ﾅｶﾂｼ","kana_address":"ﾅｶﾄﾞﾉ","pref":"大分県","city":"中津市","address":"中殿"},
{"zip_code":"8710030","kana_pref":"ｵｵｲﾀｹﾝ","kana_city":"ﾅｶﾂｼ","kana_address":"ﾅｶﾄﾞﾉﾏﾁ","pref":"大分県","city":"中津市","address":"中殿町"},
{"zip_code":"8710157","kana_pref":"ｵｵｲﾀｹﾝ","kana_city":"ﾅｶﾂｼ","kana_address":"ﾅｶﾊﾞﾙ","pref":"大分県","city":"中津市","address":"中原"},
{"zip_code":"8710162","kana_pref":"ｵｵｲﾀｹﾝ","kana_city":"ﾅｶﾂｼ","kana_address":"ﾅｶﾞｿｴ","pref":"大分県","city":"中津市","address":"永添"},
{"zip_code":"8710163","kana_pref":"ｵｵｲﾀｹﾝ","kana_city":"ﾅｶﾂｼ","kana_address":"ﾆｼﾅｶﾞｿｲ","pref":"大分県","city":"中津市","address":"西永添"},
{"zip_code":"8710046","kana_pref":"ｵｵｲﾀｹﾝ","kana_city":"ﾅｶﾂｼ","kana_address":"ﾆｼﾎﾘﾊﾞﾀ","pref":"大分県","city":"中津市","address":"西堀端"},
{"zip_code":"8710050","kana_pref":"ｵｵｲﾀｹﾝ","kana_city":"ﾅｶﾂｼ","kana_address":"ﾆﾉﾁｮｳ","pref":"大分県","city":"中津市","address":"二ノ丁"},
{"zip_code":"8710155","kana_pref":"ｵｵｲﾀｹﾝ","kana_city":"ﾅｶﾂｼ","kana_address":"ﾊﾁﾏﾝﾁｮｳ","pref":"大分県","city":"中津市","address":"八幡町"},
{"zip_code":"8710006","kana_pref":"ｵｵｲﾀｹﾝ","kana_city":"ﾅｶﾂｼ","kana_address":"ﾋｶﾞｼﾊﾏ","pref":"大分県","city":"中津市","address":"東浜"},
{"zip_code":"8710046","kana_pref":"ｵｵｲﾀｹﾝ","kana_city":"ﾅｶﾂｼ","kana_address":"ﾋｶﾞｼﾎﾘﾊﾞﾀ","pref":"大分県","city":"中津市","address":"東堀端"},
{"zip_code":"8710032","kana_pref":"ｵｵｲﾀｹﾝ","kana_city":"ﾅｶﾂｼ","kana_address":"ﾋｶﾞｼﾎﾝﾏﾁ","pref":"大分県","city":"中津市","address":"東本町"},
{"zip_code":"8710014","kana_pref":"ｵｵｲﾀｹﾝ","kana_city":"ﾅｶﾂｼ","kana_address":"ﾋﾄﾂﾏﾂ","pref":"大分県","city":"中津市","address":"一ツ松"},
{"zip_code":"8710034","kana_pref":"ｵｵｲﾀｹﾝ","kana_city":"ﾅｶﾂｼ","kana_address":"ﾋﾉﾃﾞﾏﾁ","pref":"大分県","city":"中津市","address":"日ノ出町"},
{"zip_code":"8710077","kana_pref":"ｵｵｲﾀｹﾝ","kana_city":"ﾅｶﾂｼ","kana_address":"ﾋﾒｼﾞﾏﾁ","pref":"大分県","city":"中津市","address":"姫路町"},
{"zip_code":"8710063","kana_pref":"ｵｵｲﾀｹﾝ","kana_city":"ﾅｶﾂｼ","kana_address":"ﾌｸﾛﾏﾁ","pref":"大分県","city":"中津市","address":"袋町"},
{"zip_code":"8710072","kana_pref":"ｵｵｲﾀｹﾝ","kana_city":"ﾅｶﾂｼ","kana_address":"ﾌﾅﾏﾁ","pref":"大分県","city":"中津市","address":"船町"},
{"zip_code":"8710053","kana_pref":"ｵｵｲﾀｹﾝ","kana_city":"ﾅｶﾂｼ","kana_address":"ﾌﾙｳｵﾏﾁ","pref":"大分県","city":"中津市","address":"古魚町"},
{"zip_code":"8710046","kana_pref":"ｵｵｲﾀｹﾝ","kana_city":"ﾅｶﾂｼ","kana_address":"ﾌﾙｶﾅﾔ","pref":"大分県","city":"中津市","address":"古金谷"},
{"zip_code":"8710051","kana_pref":"ｵｵｲﾀｹﾝ","kana_city":"ﾅｶﾂｼ","kana_address":"ﾌﾙﾊｶﾀﾏﾁ","pref":"大分県","city":"中津市","address":"古博多町"},
{"zip_code":"8710068","kana_pref":"ｵｵｲﾀｹﾝ","kana_city":"ﾅｶﾂｼ","kana_address":"ﾌﾞﾝｺﾞﾏﾁ","pref":"大分県","city":"中津市","address":"豊後町"},
{"zip_code":"8710311","kana_pref":"ｵｵｲﾀｹﾝ","kana_city":"ﾅｶﾂｼ","kana_address":"ﾎﾝﾔﾊﾞｹｲﾏﾁｱﾄﾀﾞ","pref":"大分県","city":"中津市","address":"本耶馬渓町跡田"},
{"zip_code":"8710206","kana_pref":"ｵｵｲﾀｹﾝ","kana_city":"ﾅｶﾂｼ","kana_address":"ﾎﾝﾔﾊﾞｹｲﾏﾁｲﾏﾕｸ","pref":"大分県","city":"中津市","address":"本耶馬渓町今行"},
{"zip_code":"8710313","kana_pref":"ｵｵｲﾀｹﾝ","kana_city":"ﾅｶﾂｼ","kana_address":"ﾎﾝﾔﾊﾞｹｲﾏﾁｵﾁｱｲ","pref":"大分県","city":"中津市","address":"本耶馬渓町落合"},
{"zip_code":"8710312","kana_pref":"ｵｵｲﾀｹﾝ","kana_city":"ﾅｶﾂｼ","kana_address":"ﾎﾝﾔﾊﾞｹｲﾏﾁｵﾘﾓﾄ","pref":"大分県","city":"中津市","address":"本耶馬渓町折元"},
{"zip_code":"8710204","kana_pref":"ｵｵｲﾀｹﾝ","kana_city":"ﾅｶﾂｼ","kana_address":"ﾎﾝﾔﾊﾞｹｲﾏﾁｶﾌﾞｼﾉ","pref":"大分県","city":"中津市","address":"本耶馬渓町冠石野"},
{"zip_code":"8710205","kana_pref":"ｵｵｲﾀｹﾝ","kana_city":"ﾅｶﾂｼ","kana_address":"ﾎﾝﾔﾊﾞｹｲﾏﾁｼﾓﾔｶﾀ","pref":"大分県","city":"中津市","address":"本耶馬渓町下屋形"},
{"zip_code":"8710202","kana_pref":"ｵｵｲﾀｹﾝ","kana_city":"ﾅｶﾂｼ","kana_address":"ﾎﾝﾔﾊﾞｹｲﾏﾁｿｷﾞ","pref":"大分県","city":"中津市","address":"本耶馬渓町曽木"},
{"zip_code":"8710203","kana_pref":"ｵｵｲﾀｹﾝ","kana_city":"ﾅｶﾂｼ","kana_address":"ﾎﾝﾔﾊﾞｹｲﾏﾁﾀｼﾀﾞ","pref":"大分県","city":"中津市","address":"本耶馬渓町多志田"},
{"zip_code":"8710314","kana_pref":"ｵｵｲﾀｹﾝ","kana_city":"ﾅｶﾂｼ","kana_address":"ﾎﾝﾔﾊﾞｹｲﾏﾁﾆｼﾀﾆ","pref":"大分県","city":"中津市","address":"本耶馬渓町西谷"},
{"zip_code":"8710208","kana_pref":"ｵｵｲﾀｹﾝ","kana_city":"ﾅｶﾂｼ","kana_address":"ﾎﾝﾔﾊﾞｹｲﾏﾁﾆｼﾔｶﾀ","pref":"大分県","city":"中津市","address":"本耶馬渓町西屋形"},
{"zip_code":"8710315","kana_pref":"ｵｵｲﾀｹﾝ","kana_city":"ﾅｶﾂｼ","kana_address":"ﾎﾝﾔﾊﾞｹｲﾏﾁﾋｶﾞｼﾀﾆ","pref":"大分県","city":"中津市","address":"本耶馬渓町東谷"},
{"zip_code":"8710207","kana_pref":"ｵｵｲﾀｹﾝ","kana_city":"ﾅｶﾂｼ","kana_address":"ﾎﾝﾔﾊﾞｹｲﾏﾁﾋｶﾞｼﾔｶﾀ","pref":"大分県","city":"中津市","address":"本耶馬渓町東屋形"},
{"zip_code":"8710201","kana_pref":"ｵｵｲﾀｹﾝ","kana_city":"ﾅｶﾂｼ","kana_address":"ﾎﾝﾔﾊﾞｹｲﾏﾁﾋﾀﾞ","pref":"大分県","city":"中津市","address":"本耶馬渓町樋田"},
{"zip_code":"8710047","kana_pref":"ｵｵｲﾀｹﾝ","kana_city":"ﾅｶﾂｼ","kana_address":"ﾏﾙﾔﾏﾁｮｳ","pref":"大分県","city":"中津市","address":"丸山町"},
{"zip_code":"8710025","kana_pref":"ｵｵｲﾀｹﾝ","kana_city":"ﾅｶﾂｼ","kana_address":"ﾏﾝﾀﾞ","pref":"大分県","city":"中津市","address":"万田"},
{"zip_code":"8710061","kana_pref":"ｵｵｲﾀｹﾝ","kana_city":"ﾅｶﾂｼ","kana_address":"ﾐﾅﾐｲﾅﾎﾞﾘ","pref":"大分県","city":"中津市","address":"南稲堀"},
{"zip_code":"8710092","kana_pref":"ｵｵｲﾀｹﾝ","kana_city":"ﾅｶﾂｼ","kana_address":"ﾐﾅﾐｼﾝﾁ","pref":"大分県","city":"中津市","address":"南新地"},
{"zip_code":"8710087","kana_pref":"ｵｵｲﾀｹﾝ","kana_city":"ﾅｶﾂｼ","kana_address":"ﾐﾅﾐﾎﾘｶﾜﾏﾁ","pref":"大分県","city":"中津市","address":"南堀川町"},
{"zip_code":"8710037","kana_pref":"ｵｵｲﾀｹﾝ","kana_city":"ﾅｶﾂｼ","kana_address":"ﾐﾔｼﾞﾏﾏﾁ","pref":"大分県","city":"中津市","address":"宮島町"},
{"zip_code":"8710012","kana_pref":"ｵｵｲﾀｹﾝ","kana_city":"ﾅｶﾂｼ","kana_address":"ﾐﾔﾌﾞ","pref":"大分県","city":"中津市","address":"宮夫"},
{"zip_code":"8710049","kana_pref":"ｵｵｲﾀｹﾝ","kana_city":"ﾅｶﾂｼ","kana_address":"ﾓﾛﾏﾁ","pref":"大分県","city":"中津市","address":"諸町"},
{"zip_code":"8710083","kana_pref":"ｵｵｲﾀｹﾝ","kana_city":"ﾅｶﾂｼ","kana_address":"ﾔﾊﾞ","pref":"大分県","city":"中津市","address":"矢場"},
{"zip_code":"8710431","kana_pref":"ｵｵｲﾀｹﾝ","kana_city":"ﾅｶﾂｼ","kana_address":"ﾔﾊﾞｹｲﾏﾁｵｵｼﾏ","pref":"大分県","city":"中津市","address":"耶馬溪町大島"},
{"zip_code":"8710413","kana_pref":"ｵｵｲﾀｹﾝ","kana_city":"ﾅｶﾂｼ","kana_address":"ﾔﾊﾞｹｲﾏﾁｵｵﾉ","pref":"大分県","city":"中津市","address":"耶馬溪町大野"},
{"zip_code":"8710406","kana_pref":"ｵｵｲﾀｹﾝ","kana_city":"ﾅｶﾂｼ","kana_address":"ﾔﾊﾞｹｲﾏﾁｵﾄﾓﾀﾞ","pref":"大分県","city":"中津市","address":"耶馬溪町小友田"},
{"zip_code":"8710405","kana_pref":"ｵｵｲﾀｹﾝ","kana_city":"ﾅｶﾂｼ","kana_address":"ﾔﾊﾞｹｲﾏﾁｶｷｻｶ","pref":"大分県","city":"中津市","address":"耶馬溪町柿坂"},
{"zip_code":"8710432","kana_pref":"ｵｵｲﾀｹﾝ","kana_city":"ﾅｶﾂｼ","kana_address":"ﾔﾊﾞｹｲﾏﾁｶﾅﾖｼ","pref":"大分県","city":"中津市","address":"耶馬溪町金吉"},
{"zip_code":"8710402","kana_pref":"ｵｵｲﾀｹﾝ","kana_city":"ﾅｶﾂｼ","kana_address":"ﾔﾊﾞｹｲﾏﾁｶﾌﾞｼﾉ","pref":"大分県","city":"中津市","address":"耶馬溪町冠石野"},
{"zip_code":"8710414","kana_pref":"ｵｵｲﾀｹﾝ","kana_city":"ﾅｶﾂｼ","kana_address":"ﾔﾊﾞｹｲﾏﾁｶﾜﾗｸﾞﾁ","pref":"大分県","city":"中津市","address":"耶馬溪町川原口"},
{"zip_code":"8710422","kana_pref":"ｵｵｲﾀｹﾝ","kana_city":"ﾅｶﾂｼ","kana_address":"ﾔﾊﾞｹｲﾏﾁｼﾝﾔﾊﾞ","pref":"大分県","city":"中津市","address":"耶馬溪町深耶馬"},
{"zip_code":"8710403","kana_pref":"ｵｵｲﾀｹﾝ","kana_city":"ﾅｶﾂｼ","kana_address":"ﾔﾊﾞｹｲﾏﾁﾀｼﾀﾞ","pref":"大分県","city":"中津市","address":"耶馬溪町多志田"},
{"zip_code":"8710412","kana_pref":"ｵｵｲﾀｹﾝ","kana_city":"ﾅｶﾂｼ","kana_address":"ﾔﾊﾞｹｲﾏﾁﾄﾁｷﾞ","pref":"大分県","city":"中津市","address":"耶馬溪町栃木"},
{"zip_code":"8710404","kana_pref":"ｵｵｲﾀｹﾝ","kana_city":"ﾅｶﾂｼ","kana_address":"ﾔﾊﾞｹｲﾏﾁﾄﾊﾞﾙ","pref":"大分県","city":"中津市","address":"耶馬溪町戸原"},
{"zip_code":"8710411","kana_pref":"ｵｵｲﾀｹﾝ","kana_city":"ﾅｶﾂｼ","kana_address":"ﾔﾊﾞｹｲﾏﾁﾅｶﾊﾀ","pref":"大分県","city":"中津市","address":"耶馬溪町中畑"},
{"zip_code":"8710434","kana_pref":"ｵｵｲﾀｹﾝ","kana_city":"ﾅｶﾂｼ","kana_address":"ﾔﾊﾞｹｲﾏﾁﾋﾔﾏｼﾞ","pref":"大分県","city":"中津市","address":"耶馬溪町樋山路"},
{"zip_code":"8710401","kana_pref":"ｵｵｲﾀｹﾝ","kana_city":"ﾅｶﾂｼ","kana_address":"ﾔﾊﾞｹｲﾏﾁﾋﾗﾀ","pref":"大分県","city":"中津市","address":"耶馬溪町平田"},
{"zip_code":"8710408","kana_pref":"ｵｵｲﾀｹﾝ","kana_city":"ﾅｶﾂｼ","kana_address":"ﾔﾊﾞｹｲﾏﾁﾌｸﾂﾁ","pref":"大分県","city":"中津市","address":"耶馬溪町福土"},
{"zip_code":"8710407","kana_pref":"ｵｵｲﾀｹﾝ","kana_city":"ﾅｶﾂｼ","kana_address":"ﾔﾊﾞｹｲﾏﾁﾐｵﾓ","pref":"大分県","city":"中津市","address":"耶馬溪町三尾母"},
{"zip_code":"8710433","kana_pref":"ｵｵｲﾀｹﾝ","kana_city":"ﾅｶﾂｼ","kana_address":"ﾔﾊﾞｹｲﾏﾁﾐﾔｿﾉ","pref":"大分県","city":"中津市","address":"耶馬溪町宮園"},
{"zip_code":"8710421","kana_pref":"ｵｵｲﾀｹﾝ","kana_city":"ﾅｶﾂｼ","kana_address":"ﾔﾊﾞｹｲﾏﾁﾔﾏｳﾂﾘ","pref":"大分県","city":"中津市","address":"耶馬溪町山移"},
{"zip_code":"8710715","kana_pref":"ｵｵｲﾀｹﾝ","kana_city":"ﾅｶﾂｼ","kana_address":"ﾔﾏｸﾆﾏﾁｳｿ","pref":"大分県","city":"中津市","address":"山国町宇曽"},
{"zip_code":"8710702","kana_pref":"ｵｵｲﾀｹﾝ","kana_city":"ﾅｶﾂｼ","kana_address":"ﾔﾏｸﾆﾏﾁｸｻﾓﾄ","pref":"大分県","city":"中津市","address":"山国町草本"},
{"zip_code":"8710703","kana_pref":"ｵｵｲﾀｹﾝ","kana_city":"ﾅｶﾂｼ","kana_address":"ﾔﾏｸﾆﾏﾁｺﾔｶﾞﾜ","pref":"大分県","city":"中津市","address":"山国町小屋川"},
{"zip_code":"8710701","kana_pref":"ｵｵｲﾀｹﾝ","kana_city":"ﾅｶﾂｼ","kana_address":"ﾔﾏｸﾆﾏﾁﾂｷﾉｷ","pref":"大分県","city":"中津市","address":"山国町槻木"},
{"zip_code":"8710714","kana_pref":"ｵｵｲﾀｹﾝ","kana_city":"ﾅｶﾂｼ","kana_address":"ﾔﾏｸﾆﾏﾁﾅｶﾞｵﾉ","pref":"大分県","city":"中津市","address":"山国町長尾野"},
{"zip_code":"8710716","kana_pref":"ｵｵｲﾀｹﾝ","kana_city":"ﾅｶﾂｼ","kana_address":"ﾔﾏｸﾆﾏﾁﾅｶﾏ","pref":"大分県","city":"中津市","address":"山国町中摩"},
{"zip_code":"8710711","kana_pref":"ｵｵｲﾀｹﾝ","kana_city":"ﾅｶﾂｼ","kana_address":"ﾔﾏｸﾆﾏﾁﾋﾗｵﾉ","pref":"大分県","city":"中津市","address":"山国町平小野"},
{"zip_code":"8710713","kana_pref":"ｵｵｲﾀｹﾝ","kana_city":"ﾅｶﾂｼ","kana_address":"ﾔﾏｸﾆﾏﾁﾌｼﾞﾉｷ","pref":"大分県","city":"中津市","address":"山国町藤野木"},
{"zip_code":"8710712","kana_pref":"ｵｵｲﾀｹﾝ","kana_city":"ﾅｶﾂｼ","kana_address":"ﾔﾏｸﾆﾏﾁﾓﾘｻﾞﾈ","pref":"大分県","city":"中津市","address":"山国町守実"},
{"zip_code":"8710704","kana_pref":"ｵｵｲﾀｹﾝ","kana_city":"ﾅｶﾂｼ","kana_address":"ﾔﾏｸﾆﾏﾁﾖｼﾉ","pref":"大分県","city":"中津市","address":"山国町吉野"},
{"zip_code":"8710062","kana_pref":"ｵｵｲﾀｹﾝ","kana_city":"ﾅｶﾂｼ","kana_address":"ﾔﾏｼﾀ","pref":"大分県","city":"中津市","address":"山下"},
{"zip_code":"8710085","kana_pref":"ｵｵｲﾀｹﾝ","kana_city":"ﾅｶﾂｼ","kana_address":"ﾕﾐﾁｮｳ","pref":"大分県","city":"中津市","address":"弓町"},
{"zip_code":"8710023","kana_pref":"ｵｵｲﾀｹﾝ","kana_city":"ﾅｶﾂｼ","kana_address":"ﾕﾔ","pref":"大分県","city":"中津市","address":"湯屋"},
{"zip_code":"8710096","kana_pref":"ｵｵｲﾀｹﾝ","kana_city":"ﾅｶﾂｼ","kana_address":"ﾘｭｳｵｳﾏﾁ","pref":"大分県","city":"中津市","address":"竜王町"},
{"zip_code":"8710088","kana_pref":"ｵｵｲﾀｹﾝ","kana_city":"ﾅｶﾂｼ","kana_address":"ﾙｽｲﾏﾁ","pref":"大分県","city":"中津市","address":"留守居町"}]}