{"zip_code":[
{"zip_code":"8721107","kana_pref":"ｵｵｲﾀｹﾝ","kana_city":"ﾌﾞﾝｺﾞﾀｶﾀﾞｼ","kana_address":"ｳｽﾉ","pref":"大分県","city":"豊後高田市","address":"臼野"},
{"zip_code":"8721201","kana_pref":"ｵｵｲﾀｹﾝ","kana_city":"ﾌﾞﾝｺﾞﾀｶﾀﾞｼ","kana_address":"ｴﾋﾞｽ","pref":"大分県","city":"豊後高田市","address":"夷"},
{"zip_code":"8721102","kana_pref":"ｵｵｲﾀｹﾝ","kana_city":"ﾌﾞﾝｺﾞﾀｶﾀﾞｼ","kana_address":"ｵｵｲﾜﾔ","pref":"大分県","city":"豊後高田市","address":"大岩屋"},
{"zip_code":"8721106","kana_pref":"ｵｵｲﾀｹﾝ","kana_city":"ﾌﾞﾝｺﾞﾀｶﾀﾞｼ","kana_address":"ｵｵﾋﾗ","pref":"大分県","city":"豊後高田市","address":"大平"},
{"zip_code":"8721202","kana_pref":"ｵｵｲﾀｹﾝ","kana_city":"ﾌﾞﾝｺﾞﾀｶﾀﾞｼ","kana_address":"ｶｶﾁﾞ","pref":"大分県","city":"豊後高田市","address":"香々地"},
{"zip_code":"8721203","kana_pref":"ｵｵｲﾀｹﾝ","kana_city":"ﾌﾞﾝｺﾞﾀｶﾀﾞｼ","kana_address":"ｶﾀｸ","pref":"大分県","city":"豊後高田市","address":"堅来"},
{"zip_code":"8721204","kana_pref":"ｵｵｲﾀｹﾝ","kana_city":"ﾌﾞﾝｺﾞﾀｶﾀﾞｼ","kana_address":"ｶﾐｶｶﾁﾞ","pref":"大分県","city":"豊後高田市","address":"上香々地"},
{"zip_code":"8721103","kana_pref":"ｵｵｲﾀｹﾝ","kana_city":"ﾌﾞﾝｺﾞﾀｶﾀﾞｼ","kana_address":"ｸﾛﾂﾁ","pref":"大分県","city":"豊後高田市","address":"黒土"},
{"zip_code":"8721205","kana_pref":"ｵｵｲﾀｹﾝ","kana_city":"ﾌﾞﾝｺﾞﾀｶﾀﾞｼ","kana_address":"ｺﾊﾞﾀ","pref":"大分県","city":"豊後高田市","address":"小畑"},
{"zip_code":"8721104","kana_pref":"ｵｵｲﾀｹﾝ","kana_city":"ﾌﾞﾝｺﾞﾀｶﾀﾞｼ","kana_address":"ｼﾞｮｳｾﾞﾝ","pref":"大分県","city":"豊後高田市","address":"城前"},
{"zip_code":"8721101","kana_pref":"ｵｵｲﾀｹﾝ","kana_city":"ﾌﾞﾝｺﾞﾀｶﾀﾞｼ","kana_address":"ﾅｶﾏﾀﾏ","pref":"大分県","city":"豊後高田市","address":"中真玉"},
{"zip_code":"8721105","kana_pref":"ｵｵｲﾀｹﾝ","kana_city":"ﾌﾞﾝｺﾞﾀｶﾀﾞｼ","kana_address":"ﾆｼﾏﾀﾏ","pref":"大分県","city":"豊後高田市","address":"西真玉"},
{"zip_code":"8721206","kana_pref":"ｵｵｲﾀｹﾝ","kana_city":"ﾌﾞﾝｺﾞﾀｶﾀﾞｼ","kana_address":"ﾊﾈ","pref":"大分県","city":"豊後高田市","address":"羽根"},
{"zip_code":"8721207","kana_pref":"ｵｵｲﾀｹﾝ","kana_city":"ﾌﾞﾝｺﾞﾀｶﾀﾞｼ","kana_address":"ﾐﾒ","pref":"大分県","city":"豊後高田市","address":"見目"},
{"zip_code":"8720000","kana_pref":"ｵｵｲﾀｹﾝ","kana_city":"ｳｻｼ","kana_address":"","pref":"大分県","city":"宇佐市","address":""},
{"zip_code":"8720732","kana_pref":"ｵｵｲﾀｹﾝ","kana_city":"ｳｻｼ","kana_address":"ｱｼﾞﾑﾏﾁｲﾀﾊﾞ","pref":"大分県","city":"宇佐市","address":"安心院町板場"},
{"zip_code":"8720518","kana_pref":"ｵｵｲﾀｹﾝ","kana_city":"ｳｻｼ","kana_address":"ｱｼﾞﾑﾏﾁｲﾏｲ","pref":"大分県","city":"宇佐市","address":"安心院町今井"},
{"zip_code":"8720843","kana_pref":"ｵｵｲﾀｹﾝ","kana_city":"ｳｻｼ","kana_address":"ｱｼﾞﾑﾏﾁｳｹﾉｸﾁ","pref":"大分県","city":"宇佐市","address":"安心院町筌ノ口"},
{"zip_code":"8720654","kana_pref":"ｵｵｲﾀｹﾝ","kana_city":"ｳｻｼ","kana_address":"ｱｼﾞﾑﾏﾁｳﾁｶﾞﾜﾉ","pref":"大分県","city":"宇佐市","address":"安心院町内川野"},
{"zip_code":"8720510","kana_pref":"ｵｵｲﾀｹﾝ","kana_city":"ｳｻｼ","kana_address":"ｱｼﾞﾑﾏﾁｳｯﾄｸﾊﾞﾙ","pref":"大分県","city":"宇佐市","address":"安心院町有徳原"},
{"zip_code":"8720663","kana_pref":"ｵｵｲﾀｹﾝ","kana_city":"ｳｻｼ","kana_address":"ｱｼﾞﾑﾏﾁｵｵﾐｵ","pref":"大分県","city":"宇佐市","address":"安心院町大見尾"},
{"zip_code":"8720522","kana_pref":"ｵｵｲﾀｹﾝ","kana_city":"ｳｻｼ","kana_address":"ｱｼﾞﾑﾏﾁｵｼｷﾀﾞ","pref":"大分県","city":"宇佐市","address":"安心院町折敷田"},
{"zip_code":"8720703","kana_pref":"ｵｵｲﾀｹﾝ","kana_city":"ｳｻｼ","kana_address":"ｱｼﾞﾑﾏﾁｵﾀﾞﾃ","pref":"大分県","city":"宇佐市","address":"安心院町尾立"},
{"zip_code":"8720671","kana_pref":"ｵｵｲﾀｹﾝ","kana_city":"ｳｻｼ","kana_address":"ｱｼﾞﾑﾏﾁｶﾂｵ","pref":"大分県","city":"宇佐市","address":"安心院町且尾"},
{"zip_code":"8720511","kana_pref":"ｵｵｲﾀｹﾝ","kana_city":"ｳｻｼ","kana_address":"ｱｼﾞﾑﾏﾁｶﾐｲﾁ","pref":"大分県","city":"宇佐市","address":"安心院町上市"},
{"zip_code":"8720852","kana_pref":"ｵｵｲﾀｹﾝ","kana_city":"ｳｻｼ","kana_address":"ｱｼﾞﾑﾏﾁｶﾐｳﾁｶﾞﾜﾉ","pref":"大分県","city":"宇佐市","address":"安心院町上内河野"},
{"zip_code":"8720723","kana_pref":"ｵｵｲﾀｹﾝ","kana_city":"ｳｻｼ","kana_address":"ｱｼﾞﾑﾏﾁｶﾔｺﾞﾓﾘ","pref":"大分県","city":"宇佐市","address":"安心院町萱籠"},
{"zip_code":"8720731","kana_pref":"ｵｵｲﾀｹﾝ","kana_city":"ｳｻｼ","kana_address":"ｱｼﾞﾑﾏﾁｶﾜｻｷ","pref":"大分県","city":"宇佐市","address":"安心院町川崎"},
{"zip_code":"8720862","kana_pref":"ｵｵｲﾀｹﾝ","kana_city":"ｳｻｼ","kana_address":"ｱｼﾞﾑﾏﾁｶﾜｿｺ","pref":"大分県","city":"宇佐市","address":"安心院町川底"},
{"zip_code":"8720507","kana_pref":"ｵｵｲﾀｹﾝ","kana_city":"ｳｻｼ","kana_address":"ｱｼﾞﾑﾏﾁｷﾉﾓ","pref":"大分県","city":"宇佐市","address":"安心院町木裳"},
{"zip_code":"8720674","kana_pref":"ｵｵｲﾀｹﾝ","kana_city":"ｳｻｼ","kana_address":"ｱｼﾞﾑﾏﾁｸｲﾀﾞ","pref":"大分県","city":"宇佐市","address":"安心院町久井田"},
{"zip_code":"8720673","kana_pref":"ｵｵｲﾀｹﾝ","kana_city":"ｳｻｼ","kana_address":"ｱｼﾞﾑﾏﾁｸﾁﾉﾂﾎﾞ","pref":"大分県","city":"宇佐市","address":"安心院町口ノ坪"},
{"zip_code":"8720541","kana_pref":"ｵｵｲﾀｹﾝ","kana_city":"ｳｻｼ","kana_address":"ｱｼﾞﾑﾏﾁｸﾏ","pref":"大分県","city":"宇佐市","address":"安心院町熊"},
{"zip_code":"8720712","kana_pref":"ｵｵｲﾀｹﾝ","kana_city":"ｳｻｼ","kana_address":"ｱｼﾞﾑﾏﾁｺﾞﾛｳﾏﾙ","pref":"大分県","city":"宇佐市","address":"安心院町五郎丸"},
{"zip_code":"8720861","kana_pref":"ｵｵｲﾀｹﾝ","kana_city":"ｳｻｼ","kana_address":"ｱｼﾞﾑﾏﾁｻｶｲﾉﾂﾎﾞ","pref":"大分県","city":"宇佐市","address":"安心院町境ノ坪"},
{"zip_code":"8720661","kana_pref":"ｵｵｲﾀｹﾝ","kana_city":"ｳｻｼ","kana_address":"ｱｼﾞﾑﾏﾁｻｻｶﾞﾋﾗ","pref":"大分県","city":"宇佐市","address":"安心院町笹ケ平"},
{"zip_code":"8720651","kana_pref":"ｵｵｲﾀｹﾝ","kana_city":"ｳｻｼ","kana_address":"ｱｼﾞﾑﾏﾁｻﾀﾞ","pref":"大分県","city":"宇佐市","address":"安心院町佐田"},
{"zip_code":"8720842","kana_pref":"ｵｵｲﾀｹﾝ","kana_city":"ｳｻｼ","kana_address":"ｱｼﾞﾑﾏﾁｼﾓｳﾁｶﾞﾜﾉ","pref":"大分県","city":"宇佐市","address":"安心院町下内河野"},
{"zip_code":"8720521","kana_pref":"ｵｵｲﾀｹﾝ","kana_city":"ｳｻｼ","kana_address":"ｱｼﾞﾑﾏﾁｼﾓｹﾞ","pref":"大分県","city":"宇佐市","address":"安心院町下毛"},
{"zip_code":"8720504","kana_pref":"ｵｵｲﾀｹﾝ","kana_city":"ｳｻｼ","kana_address":"ｱｼﾞﾑﾏﾁｼｮｳ","pref":"大分県","city":"宇佐市","address":"安心院町荘"},
{"zip_code":"8720542","kana_pref":"ｵｵｲﾀｹﾝ","kana_city":"ｳｻｼ","kana_address":"ｱｼﾞﾑﾏﾁｼｮｳｶﾞｸｼﾞ","pref":"大分県","city":"宇佐市","address":"安心院町正覚寺"},
{"zip_code":"8720873","kana_pref":"ｵｵｲﾀｹﾝ","kana_city":"ｳｻｼ","kana_address":"ｱｼﾞﾑﾏﾁｼﾝｶﾞｲ","pref":"大分県","city":"宇佐市","address":"安心院町新貝"},
{"zip_code":"8720854","kana_pref":"ｵｵｲﾀｹﾝ","kana_city":"ｳｻｼ","kana_address":"ｱｼﾞﾑﾏﾁｿｳｽﾞ","pref":"大分県","city":"宇佐市","address":"安心院町寒水"},
{"zip_code":"8720863","kana_pref":"ｵｵｲﾀｹﾝ","kana_city":"ｳｻｼ","kana_address":"ｱｼﾞﾑﾏﾁｿﾍﾞ","pref":"大分県","city":"宇佐市","address":"安心院町村部"},
{"zip_code":"8720517","kana_pref":"ｵｵｲﾀｹﾝ","kana_city":"ｳｻｼ","kana_address":"ｱｼﾞﾑﾏﾁﾀﾞｲ","pref":"大分県","city":"宇佐市","address":"安心院町大"},
{"zip_code":"8720523","kana_pref":"ｵｵｲﾀｹﾝ","kana_city":"ｳｻｼ","kana_address":"ｱｼﾞﾑﾏﾁﾀﾞｲﾌﾞﾂ","pref":"大分県","city":"宇佐市","address":"安心院町大佛"},
{"zip_code":"8720857","kana_pref":"ｵｵｲﾀｹﾝ","kana_city":"ｳｻｼ","kana_address":"ｱｼﾞﾑﾏﾁﾀﾀﾐｲｼ","pref":"大分県","city":"宇佐市","address":"安心院町畳石"},
{"zip_code":"8720526","kana_pref":"ｵｵｲﾀｹﾝ","kana_city":"ｳｻｼ","kana_address":"ｱｼﾞﾑﾏﾁﾀﾉｸﾁ","pref":"大分県","city":"宇佐市","address":"安心院町田ノ口"},
{"zip_code":"8720527","kana_pref":"ｵｵｲﾀｹﾝ","kana_city":"ｳｻｼ","kana_address":"ｱｼﾞﾑﾏﾁﾂｼﾞ","pref":"大分県","city":"宇佐市","address":"安心院町辻"},
{"zip_code":"8720524","kana_pref":"ｵｵｲﾀｹﾝ","kana_city":"ｳｻｼ","kana_address":"ｱｼﾞﾑﾏﾁﾂﾈﾏﾂ","pref":"大分県","city":"宇佐市","address":"安心院町恒松"},
{"zip_code":"8720506","kana_pref":"ｵｵｲﾀｹﾝ","kana_city":"ｳｻｼ","kana_address":"ｱｼﾞﾑﾏﾁﾂﾏｶﾞｹ","pref":"大分県","city":"宇佐市","address":"安心院町妻垣"},
{"zip_code":"8720664","kana_pref":"ｵｵｲﾀｹﾝ","kana_city":"ｳｻｼ","kana_address":"ｱｼﾞﾑﾏﾁﾄｳﾉｵ","pref":"大分県","city":"宇佐市","address":"安心院町塔尾"},
{"zip_code":"8720505","kana_pref":"ｵｵｲﾀｹﾝ","kana_city":"ｳｻｼ","kana_address":"ｱｼﾞﾑﾏﾁﾄｶﾀ","pref":"大分県","city":"宇佐市","address":"安心院町戸方"},
{"zip_code":"8720514","kana_pref":"ｵｵｲﾀｹﾝ","kana_city":"ｳｻｼ","kana_address":"ｱｼﾞﾑﾏﾁﾄﾘｺﾞｴ","pref":"大分県","city":"宇佐市","address":"安心院町鳥越"},
{"zip_code":"8720525","kana_pref":"ｵｵｲﾀｹﾝ","kana_city":"ｳｻｼ","kana_address":"ｱｼﾞﾑﾏﾁﾅｶﾔﾏ","pref":"大分県","city":"宇佐市","address":"安心院町中山"},
{"zip_code":"8720701","kana_pref":"ｵｵｲﾀｹﾝ","kana_city":"ｳｻｼ","kana_address":"ｱｼﾞﾑﾏﾁﾅﾗﾓﾄ","pref":"大分県","city":"宇佐市","address":"安心院町楢本"},
{"zip_code":"8720503","kana_pref":"ｵｵｲﾀｹﾝ","kana_city":"ｳｻｼ","kana_address":"ｱｼﾞﾑﾏﾁﾆｲﾊﾞﾙ","pref":"大分県","city":"宇佐市","address":"安心院町新原"},
{"zip_code":"8720519","kana_pref":"ｵｵｲﾀｹﾝ","kana_city":"ｳｻｼ","kana_address":"ｱｼﾞﾑﾏﾁﾆｼﾉﾄ","pref":"大分県","city":"宇佐市","address":"安心院町西衲"},
{"zip_code":"8720515","kana_pref":"ｵｵｲﾀｹﾝ","kana_city":"ｳｻｼ","kana_address":"ｱｼﾞﾑﾏﾁﾉﾔﾏ","pref":"大分県","city":"宇佐市","address":"安心院町野山"},
{"zip_code":"8720501","kana_pref":"ｵｵｲﾀｹﾝ","kana_city":"ｳｻｼ","kana_address":"ｱｼﾞﾑﾏﾁﾊﾙ","pref":"大分県","city":"宇佐市","address":"安心院町原"},
{"zip_code":"8720864","kana_pref":"ｵｵｲﾀｹﾝ","kana_city":"ｳｻｼ","kana_address":"ｱｼﾞﾑﾏﾁﾊﾞﾝｷﾞ","pref":"大分県","city":"宇佐市","address":"安心院町番木"},
{"zip_code":"8720502","kana_pref":"ｵｵｲﾀｹﾝ","kana_city":"ｳｻｼ","kana_address":"ｱｼﾞﾑﾏﾁﾊﾝﾀﾞ","pref":"大分県","city":"宇佐市","address":"安心院町飯田"},
{"zip_code":"8720702","kana_pref":"ｵｵｲﾀｹﾝ","kana_city":"ｳｻｼ","kana_address":"ｱｼﾞﾑﾏﾁﾋｶﾞｼｴﾗ","pref":"大分県","city":"宇佐市","address":"安心院町東恵良"},
{"zip_code":"8720724","kana_pref":"ｵｵｲﾀｹﾝ","kana_city":"ｳｻｼ","kana_address":"ｱｼﾞﾑﾏﾁﾋｶﾞｼｼｲﾔ","pref":"大分県","city":"宇佐市","address":"安心院町東椎屋"},
{"zip_code":"8720543","kana_pref":"ｵｵｲﾀｹﾝ","kana_city":"ｳｻｼ","kana_address":"ｱｼﾞﾑﾏﾁﾋﾗｶﾞｸﾗ","pref":"大分県","city":"宇佐市","address":"安心院町平ケ倉"},
{"zip_code":"8720871","kana_pref":"ｵｵｲﾀｹﾝ","kana_city":"ｳｻｼ","kana_address":"ｱｼﾞﾑﾏﾁﾋﾗﾔﾏ","pref":"大分県","city":"宇佐市","address":"安心院町平山"},
{"zip_code":"8720672","kana_pref":"ｵｵｲﾀｹﾝ","kana_city":"ｳｻｼ","kana_address":"ｱｼﾞﾑﾏﾁﾋﾛﾀﾆ","pref":"大分県","city":"宇佐市","address":"安心院町広谷"},
{"zip_code":"8720851","kana_pref":"ｵｵｲﾀｹﾝ","kana_city":"ｳｻｼ","kana_address":"ｱｼﾞﾑﾏﾁﾋﾛﾂﾚ","pref":"大分県","city":"宇佐市","address":"安心院町広連"},
{"zip_code":"8720855","kana_pref":"ｵｵｲﾀｹﾝ","kana_city":"ｳｻｼ","kana_address":"ｱｼﾞﾑﾏﾁﾌｷﾉ","pref":"大分県","city":"宇佐市","address":"安心院町福貴野"},
{"zip_code":"8720872","kana_pref":"ｵｵｲﾀｹﾝ","kana_city":"ｳｻｼ","kana_address":"ｱｼﾞﾑﾏﾁﾌﾅｲﾀ","pref":"大分県","city":"宇佐市","address":"安心院町舟板"},
{"zip_code":"8720512","kana_pref":"ｵｵｲﾀｹﾝ","kana_city":"ｳｻｼ","kana_address":"ｱｼﾞﾑﾏﾁﾌﾙｲﾁ","pref":"大分県","city":"宇佐市","address":"安心院町古市"},
{"zip_code":"8720655","kana_pref":"ｵｵｲﾀｹﾝ","kana_city":"ｳｻｼ","kana_address":"ｱｼﾞﾑﾏﾁﾌﾙｶﾜ","pref":"大分県","city":"宇佐市","address":"安心院町古川"},
{"zip_code":"8720653","kana_pref":"ｵｵｲﾀｹﾝ","kana_city":"ｳｻｼ","kana_address":"ｱｼﾞﾑﾏﾁﾎﾞｳｶﾞﾊﾀ","pref":"大分県","city":"宇佐市","address":"安心院町房ケ畑"},
{"zip_code":"8720865","kana_pref":"ｵｵｲﾀｹﾝ","kana_city":"ｳｻｼ","kana_address":"ｱｼﾞﾑﾏﾁﾎﾄｷﾞ","pref":"大分県","city":"宇佐市","address":"安心院町佛木"},
{"zip_code":"8720733","kana_pref":"ｵｵｲﾀｹﾝ","kana_city":"ｳｻｼ","kana_address":"ｱｼﾞﾑﾏﾁﾏﾂﾓﾄ","pref":"大分県","city":"宇佐市","address":"安心院町松本"},
{"zip_code":"8720858","kana_pref":"ｵｵｲﾀｹﾝ","kana_city":"ｳｻｼ","kana_address":"ｱｼﾞﾑﾏﾁﾐｽﾞｸﾙﾏ","pref":"大分県","city":"宇佐市","address":"安心院町水車"},
{"zip_code":"8720722","kana_pref":"ｵｵｲﾀｹﾝ","kana_city":"ｳｻｼ","kana_address":"ｱｼﾞﾑﾏﾁﾐﾅﾐﾊﾀ","pref":"大分県","city":"宇佐市","address":"安心院町南畑"},
{"zip_code":"8720853","kana_pref":"ｵｵｲﾀｹﾝ","kana_city":"ｳｻｼ","kana_address":"ｱｼﾞﾑﾏﾁﾓﾄ","pref":"大分県","city":"宇佐市","address":"安心院町元"},
{"zip_code":"8720516","kana_pref":"ｵｵｲﾀｹﾝ","kana_city":"ｳｻｼ","kana_address":"ｱｼﾞﾑﾏﾁﾓﾘ","pref":"大分県","city":"宇佐市","address":"安心院町森"},
{"zip_code":"8720675","kana_pref":"ｵｵｲﾀｹﾝ","kana_city":"ｳｻｼ","kana_address":"ｱｼﾞﾑﾏﾁﾔｻﾞｷ","pref":"大分県","city":"宇佐市","address":"安心院町矢崎"},
{"zip_code":"8720662","kana_pref":"ｵｵｲﾀｹﾝ","kana_city":"ｳｻｼ","kana_address":"ｱｼﾞﾑﾏﾁﾔﾂﾞ","pref":"大分県","city":"宇佐市","address":"安心院町矢津"},
{"zip_code":"8720841","kana_pref":"ｵｵｲﾀｹﾝ","kana_city":"ｳｻｼ","kana_address":"ｱｼﾞﾑﾏﾁﾔﾊﾀ","pref":"大分県","city":"宇佐市","address":"安心院町矢畑"},
{"zip_code":"8720652","kana_pref":"ｵｵｲﾀｹﾝ","kana_city":"ｳｻｼ","kana_address":"ｱｼﾞﾑﾏﾁﾔﾏｿﾞｳ","pref":"大分県","city":"宇佐市","address":"安心院町山蔵"},
{"zip_code":"8720856","kana_pref":"ｵｵｲﾀｹﾝ","kana_city":"ｳｻｼ","kana_address":"ｱｼﾞﾑﾏﾁﾔﾏﾉｸﾁ","pref":"大分県","city":"宇佐市","address":"安心院町山ノ口"},
{"zip_code":"8720513","kana_pref":"ｵｵｲﾀｹﾝ","kana_city":"ｳｻｼ","kana_address":"ｱｼﾞﾑﾏﾁﾘｭｳｵｳ","pref":"大分県","city":"宇佐市","address":"安心院町龍王"},
{"zip_code":"8720711","kana_pref":"ｵｵｲﾀｹﾝ","kana_city":"ｳｻｼ","kana_address":"ｱｼﾞﾑﾏﾁﾛｸﾛｳﾏﾙ","pref":"大分県","city":"宇佐市","address":"安心院町六郎丸"},
{"zip_code":"8720721","kana_pref":"ｵｵｲﾀｹﾝ","kana_city":"ｳｻｼ","kana_address":"ｱｼﾞﾑﾏﾁﾜｶﾊﾞﾔｼ","pref":"大分県","city":"宇佐市","address":"安心院町若林"},
{"zip_code":"8720011","kana_pref":"ｵｵｲﾀｹﾝ","kana_city":"ｳｻｼ","kana_address":"ｲﾜﾎｼﾝﾃﾞﾝ","pref":"大分県","city":"宇佐市","address":"岩保新田"},
{"zip_code":"8720323","kana_pref":"ｵｵｲﾀｹﾝ","kana_city":"ｳｻｼ","kana_address":"ｲﾝﾅｲﾏﾁｵｵｼｹﾞﾐ","pref":"大分県","city":"宇佐市","address":"院内町大重見"},
{"zip_code":"8720331","kana_pref":"ｵｵｲﾀｹﾝ","kana_city":"ｳｻｼ","kana_address":"ｲﾝﾅｲﾏﾁｵｵｿｲ","pref":"大分県","city":"宇佐市","address":"院内町大副"},
{"zip_code":"8720458","kana_pref":"ｵｵｲﾀｹﾝ","kana_city":"ｳｻｼ","kana_address":"ｲﾝﾅｲﾏﾁｵｵﾂﾎﾞ","pref":"大分県","city":"宇佐市","address":"院内町大坪"},
{"zip_code":"8720457","kana_pref":"ｵｵｲﾀｹﾝ","kana_city":"ｳｻｼ","kana_address":"ｲﾝﾅｲﾏﾁｵｶ","pref":"大分県","city":"宇佐市","address":"院内町岡"},
{"zip_code":"8720314","kana_pref":"ｵｵｲﾀｹﾝ","kana_city":"ｳｻｼ","kana_address":"ｲﾝﾅｲﾏﾁｵｷ","pref":"大分県","city":"宇佐市","address":"院内町沖"},
{"zip_code":"8720482","kana_pref":"ｵｵｲﾀｹﾝ","kana_city":"ｳｻｼ","kana_address":"ｲﾝﾅｲﾏﾁｵｷﾞｻｺ","pref":"大分県","city":"宇佐市","address":"院内町荻迫"},
{"zip_code":"8720316","kana_pref":"ｵｵｲﾀｹﾝ","kana_city":"ｳｻｼ","kana_address":"ｲﾝﾅｲﾏﾁｵｻｶ","pref":"大分県","city":"宇佐市","address":"院内町小坂"},
{"zip_code":"8720334","kana_pref":"ｵｵｲﾀｹﾝ","kana_city":"ｳｻｼ","kana_address":"ｲﾝﾅｲﾏﾁｵﾁｶｸﾗ","pref":"大分県","city":"宇佐市","address":"院内町落狩倉"},
{"zip_code":"8720324","kana_pref":"ｵｵｲﾀｹﾝ","kana_city":"ｳｻｼ","kana_address":"ｲﾝﾅｲﾏﾁｵﾉｺﾞｳﾁ","pref":"大分県","city":"宇佐市","address":"院内町小野川内"},
{"zip_code":"8720342","kana_pref":"ｵｵｲﾀｹﾝ","kana_city":"ｳｻｼ","kana_address":"ｲﾝﾅｲﾏﾁｶｹﾞﾍﾗ","pref":"大分県","city":"宇佐市","address":"院内町景平"},
{"zip_code":"8720459","kana_pref":"ｵｵｲﾀｹﾝ","kana_city":"ｳｻｼ","kana_address":"ｲﾝﾅｲﾏﾁｶﾐｱﾏﾘ","pref":"大分県","city":"宇佐市","address":"院内町上余"},
{"zip_code":"8720484","kana_pref":"ｵｵｲﾀｹﾝ","kana_city":"ｳｻｼ","kana_address":"ｲﾝﾅｲﾏﾁｶﾐｴﾗ","pref":"大分県","city":"宇佐市","address":"院内町上恵良"},
{"zip_code":"8720452","kana_pref":"ｵｵｲﾀｹﾝ","kana_city":"ｳｻｼ","kana_address":"ｲﾝﾅｲﾏﾁｶﾐﾉｳｼﾞ","pref":"大分県","city":"宇佐市","address":"院内町上納持"},
{"zip_code":"8720326","kana_pref":"ｵｵｲﾀｹﾝ","kana_city":"ｳｻｼ","kana_address":"ｲﾝﾅｲﾏﾁｶﾐﾌﾅｷﾞ","pref":"大分県","city":"宇佐市","address":"院内町上船木"},
{"zip_code":"8720315","kana_pref":"ｵｵｲﾀｹﾝ","kana_city":"ｳｻｼ","kana_address":"ｲﾝﾅｲﾏﾁｷﾀﾔﾏ","pref":"大分県","city":"宇佐市","address":"院内町北山"},
{"zip_code":"8720312","kana_pref":"ｵｵｲﾀｹﾝ","kana_city":"ｳｻｼ","kana_address":"ｲﾝﾅｲﾏﾁｸｼﾉ","pref":"大分県","city":"宇佐市","address":"院内町櫛野"},
{"zip_code":"8720466","kana_pref":"ｵｵｲﾀｹﾝ","kana_city":"ｳｻｼ","kana_address":"ｲﾝﾅｲﾏﾁｸﾊﾞﾁ","pref":"大分県","city":"宇佐市","address":"院内町来鉢"},
{"zip_code":"8720456","kana_pref":"ｵｵｲﾀｹﾝ","kana_city":"ｳｻｼ","kana_address":"ｲﾝﾅｲﾏﾁｸﾘﾔﾏ","pref":"大分県","city":"宇佐市","address":"院内町栗山"},
{"zip_code":"8720325","kana_pref":"ｵｵｲﾀｹﾝ","kana_city":"ｳｻｼ","kana_address":"ｲﾝﾅｲﾏﾁｺｲﾈ","pref":"大分県","city":"宇佐市","address":"院内町小稲"},
{"zip_code":"8720311","kana_pref":"ｵｵｲﾀｹﾝ","kana_city":"ｳｻｼ","kana_address":"ｲﾝﾅｲﾏﾁｺｳｼﾀ","pref":"大分県","city":"宇佐市","address":"院内町香下"},
{"zip_code":"8720455","kana_pref":"ｵｵｲﾀｹﾝ","kana_city":"ｳｻｼ","kana_address":"ｲﾝﾅｲﾏﾁｺﾋﾞﾗ","pref":"大分県","city":"宇佐市","address":"院内町小平"},
{"zip_code":"8720321","kana_pref":"ｵｵｲﾀｹﾝ","kana_city":"ｳｻｼ","kana_address":"ｲﾝﾅｲﾏﾁｺﾞﾐｮｳ","pref":"大分県","city":"宇佐市","address":"院内町五名"},
{"zip_code":"8720341","kana_pref":"ｵｵｲﾀｹﾝ","kana_city":"ｳｻｼ","kana_address":"ｲﾝﾅｲﾏﾁｻｲﾄｳ","pref":"大分県","city":"宇佐市","address":"院内町斎藤"},
{"zip_code":"8720451","kana_pref":"ｵｵｲﾀｹﾝ","kana_city":"ｳｻｼ","kana_address":"ｲﾝﾅｲﾏﾁｼﾓｱﾏﾘ","pref":"大分県","city":"宇佐市","address":"院内町下余"},
{"zip_code":"8720481","kana_pref":"ｵｵｲﾀｹﾝ","kana_city":"ｳｻｼ","kana_address":"ｲﾝﾅｲﾏﾁｼﾓｴﾗ","pref":"大分県","city":"宇佐市","address":"院内町下恵良"},
{"zip_code":"8720327","kana_pref":"ｵｵｲﾀｹﾝ","kana_city":"ｳｻｼ","kana_address":"ｲﾝﾅｲﾏﾁｼﾓﾌﾅｷﾞ","pref":"大分県","city":"宇佐市","address":"院内町下船木"},
{"zip_code":"8720346","kana_pref":"ｵｵｲﾀｹﾝ","kana_city":"ｳｻｼ","kana_address":"ｲﾝﾅｲﾏﾁｼﾞｮｳﾍﾞｯﾄｳ","pref":"大分県","city":"宇佐市","address":"院内町定別当"},
{"zip_code":"8720313","kana_pref":"ｵｵｲﾀｹﾝ","kana_city":"ｳｻｼ","kana_address":"ｲﾝﾅｲﾏﾁｼﾝﾄﾞｳ","pref":"大分県","city":"宇佐市","address":"院内町新洞"},
{"zip_code":"8720318","kana_pref":"ｵｵｲﾀｹﾝ","kana_city":"ｳｻｼ","kana_address":"ｲﾝﾅｲﾏﾁｿｲ","pref":"大分県","city":"宇佐市","address":"院内町副"},
{"zip_code":"8720461","kana_pref":"ｵｵｲﾀｹﾝ","kana_city":"ｳｻｼ","kana_address":"ｲﾝﾅｲﾏﾁﾀﾞｲ","pref":"大分県","city":"宇佐市","address":"院内町台"},
{"zip_code":"8720344","kana_pref":"ｵｵｲﾀｹﾝ","kana_city":"ｳｻｼ","kana_address":"ｲﾝﾅｲﾏﾁﾀﾞｲﾓﾝ","pref":"大分県","city":"宇佐市","address":"院内町大門"},
{"zip_code":"8720328","kana_pref":"ｵｵｲﾀｹﾝ","kana_city":"ｳｻｼ","kana_address":"ｲﾝﾅｲﾏﾁﾀｶﾅﾐ","pref":"大分県","city":"宇佐市","address":"院内町高並"},
{"zip_code":"8720454","kana_pref":"ｵｵｲﾀｹﾝ","kana_city":"ｳｻｼ","kana_address":"ｲﾝﾅｲﾏﾁﾀｷｻﾀﾞ","pref":"大分県","city":"宇佐市","address":"院内町滝貞"},
{"zip_code":"8720473","kana_pref":"ｵｵｲﾀｹﾝ","kana_city":"ｳｻｼ","kana_address":"ｲﾝﾅｲﾏﾁﾀﾄﾞｺﾛ","pref":"大分県","city":"宇佐市","address":"院内町田所"},
{"zip_code":"8720465","kana_pref":"ｵｵｲﾀｹﾝ","kana_city":"ｳｻｼ","kana_address":"ｲﾝﾅｲﾏﾁﾀﾋﾞﾗ","pref":"大分県","city":"宇佐市","address":"院内町田平"},
{"zip_code":"8720345","kana_pref":"ｵｵｲﾀｹﾝ","kana_city":"ｳｻｼ","kana_address":"ｲﾝﾅｲﾏﾁﾂｷﾉﾏﾀ","pref":"大分県","city":"宇佐市","address":"院内町月俣"},
{"zip_code":"8720483","kana_pref":"ｵｵｲﾀｹﾝ","kana_city":"ｳｻｼ","kana_address":"ｲﾝﾅｲﾏﾁﾂﾁｲﾜﾔ","pref":"大分県","city":"宇佐市","address":"院内町土岩屋"},
{"zip_code":"8720464","kana_pref":"ｵｵｲﾀｹﾝ","kana_city":"ｳｻｼ","kana_address":"ｲﾝﾅｲﾏﾁﾆｼｼｲﾔ","pref":"大分県","city":"宇佐市","address":"院内町西椎屋"},
{"zip_code":"8720471","kana_pref":"ｵｵｲﾀｹﾝ","kana_city":"ｳｻｼ","kana_address":"ｲﾝﾅｲﾏﾁﾇｸﾐ","pref":"大分県","city":"宇佐市","address":"院内町温見"},
{"zip_code":"8720472","kana_pref":"ｵｵｲﾀｹﾝ","kana_city":"ｳｻｼ","kana_address":"ｲﾝﾅｲﾏﾁﾉｼﾞ","pref":"大分県","city":"宇佐市","address":"院内町野地"},
{"zip_code":"8720462","kana_pref":"ｵｵｲﾀｹﾝ","kana_city":"ｳｻｼ","kana_address":"ｲﾝﾅｲﾏﾁﾊﾊﾞﾚ","pref":"大分県","city":"宇佐市","address":"院内町羽馬礼"},
{"zip_code":"8720333","kana_pref":"ｵｵｲﾀｹﾝ","kana_city":"ｳｻｼ","kana_address":"ｲﾝﾅｲﾏﾁﾊﾙｸﾞﾁ","pref":"大分県","city":"宇佐市","address":"院内町原口"},
{"zip_code":"8720322","kana_pref":"ｵｵｲﾀｹﾝ","kana_city":"ｳｻｼ","kana_address":"ｲﾝﾅｲﾏﾁﾋﾉﾀｹ","pref":"大分県","city":"宇佐市","address":"院内町日岳"},
{"zip_code":"8720453","kana_pref":"ｵｵｲﾀｹﾝ","kana_city":"ｳｻｼ","kana_address":"ｲﾝﾅｲﾏﾁﾋﾗﾊﾞﾙ","pref":"大分県","city":"宇佐市","address":"院内町平原"},
{"zip_code":"8720317","kana_pref":"ｵｵｲﾀｹﾝ","kana_city":"ｳｻｼ","kana_address":"ｲﾝﾅｲﾏﾁﾋﾛｾ","pref":"大分県","city":"宇佐市","address":"院内町広瀬"},
{"zip_code":"8720302","kana_pref":"ｵｵｲﾀｹﾝ","kana_city":"ｳｻｼ","kana_address":"ｲﾝﾅｲﾏﾁﾌﾂｶｲﾁ","pref":"大分県","city":"宇佐市","address":"院内町二日市"},
{"zip_code":"8720301","kana_pref":"ｵｵｲﾀｹﾝ","kana_city":"ｳｻｼ","kana_address":"ｲﾝﾅｲﾏﾁﾐｸﾂ","pref":"大分県","city":"宇佐市","address":"院内町御沓"},
{"zip_code":"8720343","kana_pref":"ｵｵｲﾀｹﾝ","kana_city":"ｳｻｼ","kana_address":"ｲﾝﾅｲﾏﾁﾐﾔﾊﾞﾙ","pref":"大分県","city":"宇佐市","address":"院内町宮原"},
{"zip_code":"8720332","kana_pref":"ｵｵｲﾀｹﾝ","kana_city":"ｳｻｼ","kana_address":"ｲﾝﾅｲﾏﾁﾔﾏｼﾛ","pref":"大分県","city":"宇佐市","address":"院内町山城"},
{"zip_code":"8720463","kana_pref":"ｵｵｲﾀｹﾝ","kana_city":"ｳｻｼ","kana_address":"ｲﾝﾅｲﾏﾁﾜﾀﾞ","pref":"大分県","city":"宇佐市","address":"院内町和田"},
{"zip_code":"8720032","kana_pref":"ｵｵｲﾀｹﾝ","kana_city":"ｳｻｼ","kana_address":"ｴｽｶ","pref":"大分県","city":"宇佐市","address":"江須賀"},
{"zip_code":"8720031","kana_pref":"ｵｵｲﾀｹﾝ","kana_city":"ｳｻｼ","kana_address":"ｵｷｽﾏﾁ","pref":"大分県","city":"宇佐市","address":"沖須町"},
{"zip_code":"8720021","kana_pref":"ｵｵｲﾀｹﾝ","kana_city":"ｳｻｼ","kana_address":"ｶﾅﾔ","pref":"大分県","city":"宇佐市","address":"金屋"},
{"zip_code":"8720366","kana_pref":"ｵｵｲﾀｹﾝ","kana_city":"ｳｻｼ","kana_address":"ｶﾐﾊｲﾀ","pref":"大分県","city":"宇佐市","address":"上拝田"},
{"zip_code":"8720112","kana_pref":"ｵｵｲﾀｹﾝ","kana_city":"ｳｻｼ","kana_address":"ｶﾐﾔﾍﾞ","pref":"大分県","city":"宇佐市","address":"上矢部"},
{"zip_code":"8720103","kana_pref":"ｵｵｲﾀｹﾝ","kana_city":"ｳｻｼ","kana_address":"ｷﾀｳｻ","pref":"大分県","city":"宇佐市","address":"北宇佐"},
{"zip_code":"8720013","kana_pref":"ｵｵｲﾀｹﾝ","kana_city":"ｳｻｼ","kana_address":"ｷﾀﾂﾙﾀﾞｼﾝﾃﾞﾝ","pref":"大分県","city":"宇佐市","address":"北鶴田新田"},
{"zip_code":"8720042","kana_pref":"ｵｵｲﾀｹﾝ","kana_city":"ｳｻｼ","kana_address":"ｷﾌﾈﾏﾁ","pref":"大分県","city":"宇佐市","address":"貴船町"},
{"zip_code":"8720012","kana_pref":"ｵｵｲﾀｹﾝ","kana_city":"ｳｻｼ","kana_address":"ｷｭｳﾍﾞｴｼﾝﾃﾞﾝ","pref":"大分県","city":"宇佐市","address":"久兵衛新田"},
{"zip_code":"8720114","kana_pref":"ｵｵｲﾀｹﾝ","kana_city":"ｳｻｼ","kana_address":"ｸﾏ","pref":"大分県","city":"宇佐市","address":"熊"},
{"zip_code":"8720045","kana_pref":"ｵｵｲﾀｹﾝ","kana_city":"ｳｻｼ","kana_address":"ｸﾞﾝﾁｭｳｼﾝﾃﾞﾝ","pref":"大分県","city":"宇佐市","address":"郡中新田"},
{"zip_code":"8720104","kana_pref":"ｵｵｲﾀｹﾝ","kana_city":"ｳｻｼ","kana_address":"ｺﾑｸﾉ","pref":"大分県","city":"宇佐市","address":"小向野"},
{"zip_code":"8720043","kana_pref":"ｵｵｲﾀｹﾝ","kana_city":"ｳｻｼ","kana_address":"ｺﾔｽﾏﾁ","pref":"大分県","city":"宇佐市","address":"子安町"},
{"zip_code":"8720016","kana_pref":"ｵｵｲﾀｹﾝ","kana_city":"ｳｻｼ","kana_address":"ｻｻﾞﾚ","pref":"大分県","city":"宇佐市","address":"佐々礼"},
{"zip_code":"8720111","kana_pref":"ｵｵｲﾀｹﾝ","kana_city":"ｳｻｼ","kana_address":"ｼﾓﾔﾍﾞ","pref":"大分県","city":"宇佐市","address":"下矢部"},
{"zip_code":"8720047","kana_pref":"ｵｵｲﾀｹﾝ","kana_city":"ｳｻｼ","kana_address":"ｼﾞｭﾝﾌﾟｳｼﾝﾃﾞﾝ","pref":"大分県","city":"宇佐市","address":"順風新田"},
{"zip_code":"8720113","kana_pref":"ｵｵｲﾀｹﾝ","kana_city":"ｳｻｼ","kana_address":"ｼｮｳｶﾞｸｼﾞ","pref":"大分県","city":"宇佐市","address":"正覚寺"},
{"zip_code":"8720044","kana_pref":"ｵｵｲﾀｹﾝ","kana_city":"ｳｻｼ","kana_address":"ｽﾐｴ","pref":"大分県","city":"宇佐市","address":"住江"},
{"zip_code":"8720033","kana_pref":"ｵｵｲﾀｹﾝ","kana_city":"ｳｻｼ","kana_address":"ｽﾐﾖｼﾏﾁ","pref":"大分県","city":"宇佐市","address":"住吉町"},
{"zip_code":"8720046","kana_pref":"ｵｵｲﾀｹﾝ","kana_city":"ｳｻｼ","kana_address":"ﾀｶｻｺﾞｼﾝﾃﾞﾝ","pref":"大分県","city":"宇佐市","address":"高砂新田"},
{"zip_code":"8720101","kana_pref":"ｵｵｲﾀｹﾝ","kana_city":"ｳｻｼ","kana_address":"ﾀｶﾓﾘ","pref":"大分県","city":"宇佐市","address":"高森"},
{"zip_code":"8720001","kana_pref":"ｵｵｲﾀｹﾝ","kana_city":"ｳｻｼ","kana_address":"ﾅｶﾞｽ","pref":"大分県","city":"宇佐市","address":"長洲"},
{"zip_code":"8720022","kana_pref":"ｵｵｲﾀｹﾝ","kana_city":"ｳｻｼ","kana_address":"ﾆｼｵｵﾎﾞﾘ","pref":"大分県","city":"宇佐市","address":"西大堀"},
{"zip_code":"8720023","kana_pref":"ｵｵｲﾀｹﾝ","kana_city":"ｳｻｼ","kana_address":"ﾆﾅｷﾞ","pref":"大分県","city":"宇佐市","address":"蜷木"},
{"zip_code":"8720015","kana_pref":"ｵｵｲﾀｹﾝ","kana_city":"ｳｻｼ","kana_address":"ﾏﾂｻｷ","pref":"大分県","city":"宇佐市","address":"松崎"},
{"zip_code":"8720041","kana_pref":"ｵｵｲﾀｹﾝ","kana_city":"ｳｻｼ","kana_address":"ﾐｺﾔﾏｼﾝﾃﾞﾝ","pref":"大分県","city":"宇佐市","address":"神子山新田"},
{"zip_code":"8720102","kana_pref":"ｵｵｲﾀｹﾝ","kana_city":"ｳｻｼ","kana_address":"ﾐﾅﾐｳｻ","pref":"大分県","city":"宇佐市","address":"南宇佐"},
{"zip_code":"8720014","kana_pref":"ｵｵｲﾀｹﾝ","kana_city":"ｳｻｼ","kana_address":"ﾐﾅﾐﾂﾙﾀﾞｼﾝﾃﾞﾝ","pref":"大分県","city":"宇佐市","address":"南鶴田新田"},
{"zip_code":"8721653","kana_pref":"ｵｵｲﾀｹﾝ","kana_city":"ｸﾆｻｷｼ","kana_address":"ｸﾆｻｷﾏﾁｲﾜﾄﾞｳｼﾞ","pref":"大分県","city":"国東市","address":"国東町岩戸寺"},
{"zip_code":"8721652","kana_pref":"ｵｵｲﾀｹﾝ","kana_city":"ｸﾆｻｷｼ","kana_address":"ｸﾆｻｷﾏﾁｸﾉｳﾗ","pref":"大分県","city":"国東市","address":"国東町来浦"},
{"zip_code":"8721651","kana_pref":"ｵｵｲﾀｹﾝ","kana_city":"ｸﾆｻｷｼ","kana_address":"ｸﾆｻｷﾏﾁﾊﾏ","pref":"大分県","city":"国東市","address":"国東町浜"},
{"zip_code":"8721405","kana_pref":"ｵｵｲﾀｹﾝ","kana_city":"ｸﾆｻｷｼ","kana_address":"ｸﾆﾐﾏﾁｱｶﾈ","pref":"大分県","city":"国東市","address":"国見町赤根"},
{"zip_code":"8721401","kana_pref":"ｵｵｲﾀｹﾝ","kana_city":"ｸﾆｻｷｼ","kana_address":"ｸﾆﾐﾏﾁｲﾐ","pref":"大分県","city":"国東市","address":"国見町伊美"},
{"zip_code":"8721612","kana_pref":"ｵｵｲﾀｹﾝ","kana_city":"ｸﾆｻｷｼ","kana_address":"ｸﾆﾐﾏﾁｵｵｸﾏｹﾞ","pref":"大分県","city":"国東市","address":"国見町大熊毛"},
{"zip_code":"8721323","kana_pref":"ｵｵｲﾀｹﾝ","kana_city":"ｸﾆｻｷｼ","kana_address":"ｸﾆﾐﾏﾁｷｺ","pref":"大分県","city":"国東市","address":"国見町鬼籠"},
{"zip_code":"8721614","kana_pref":"ｵｵｲﾀｹﾝ","kana_city":"ｸﾆｻｷｼ","kana_address":"ｸﾆﾐﾏﾁｷﾍﾞ","pref":"大分県","city":"国東市","address":"国見町岐部"},
{"zip_code":"8721406","kana_pref":"ｵｵｲﾀｹﾝ","kana_city":"ｸﾆｻｷｼ","kana_address":"ｸﾆﾐﾏﾁｸｼｸ","pref":"大分県","city":"国東市","address":"国見町櫛来"},
{"zip_code":"8721324","kana_pref":"ｵｵｲﾀｹﾝ","kana_city":"ｸﾆｻｷｼ","kana_address":"ｸﾆﾐﾏﾁｸｼﾉﾐ","pref":"大分県","city":"国東市","address":"国見町櫛海"},
{"zip_code":"8721613","kana_pref":"ｵｵｲﾀｹﾝ","kana_city":"ｸﾆｻｷｼ","kana_address":"ｸﾆﾐﾏﾁｺｸﾏｹﾞ","pref":"大分県","city":"国東市","address":"国見町小熊毛"},
{"zip_code":"8721322","kana_pref":"ｵｵｲﾀｹﾝ","kana_city":"ｸﾆｻｷｼ","kana_address":"ｸﾆﾐﾏﾁｻｲﾎｳｼﾞ","pref":"大分県","city":"国東市","address":"国見町西方寺"},
{"zip_code":"8721404","kana_pref":"ｵｵｲﾀｹﾝ","kana_city":"ｸﾆｻｷｼ","kana_address":"ｸﾆﾐﾏﾁｾﾝﾄﾞ","pref":"大分県","city":"国東市","address":"国見町千燈"},
{"zip_code":"8721321","kana_pref":"ｵｵｲﾀｹﾝ","kana_city":"ｸﾆｻｷｼ","kana_address":"ｸﾆﾐﾏﾁﾀｹﾀﾂﾞ","pref":"大分県","city":"国東市","address":"国見町竹田津"},
{"zip_code":"8721402","kana_pref":"ｵｵｲﾀｹﾝ","kana_city":"ｸﾆｻｷｼ","kana_address":"ｸﾆﾐﾏﾁﾅｶ","pref":"大分県","city":"国東市","address":"国見町中"},
{"zip_code":"8721403","kana_pref":"ｵｵｲﾀｹﾝ","kana_city":"ｸﾆｻｷｼ","kana_address":"ｸﾆﾐﾏﾁﾉﾀﾞ","pref":"大分県","city":"国東市","address":"国見町野田"},
{"zip_code":"8721611","kana_pref":"ｵｵｲﾀｹﾝ","kana_city":"ｸﾆｻｷｼ","kana_address":"ｸﾆﾐﾏﾁﾑｶﾀ","pref":"大分県","city":"国東市","address":"国見町向田"},
{"zip_code":"8721501","kana_pref":"ｵｵｲﾀｹﾝ","kana_city":"ﾋｶﾞｼｸﾆｻｷｸﾞﾝﾋﾒｼﾏﾑﾗ","kana_address":"ﾋﾒｼﾏﾑﾗｲﾁｴﾝ","pref":"大分県","city":"東国東郡姫島村","address":"姫島村一円"}]}