{"zip_code":[
{"zip_code":"8730000","kana_pref":"ｵｵｲﾀｹﾝ","kana_city":"ｷﾂｷｼ","kana_address":"","pref":"大分県","city":"杵築市","address":""},
{"zip_code":"8730011","kana_pref":"ｵｵｲﾀｹﾝ","kana_city":"ｷﾂｷｼ","kana_address":"ｱｲﾜﾗ","pref":"大分県","city":"杵築市","address":"相原"},
{"zip_code":"8730005","kana_pref":"ｵｵｲﾀｹﾝ","kana_city":"ｷﾂｷｼ","kana_address":"ｲﾉｵ","pref":"大分県","city":"杵築市","address":"猪尾"},
{"zip_code":"8730021","kana_pref":"ｵｵｲﾀｹﾝ","kana_city":"ｷﾂｷｼ","kana_address":"ｲﾜﾔ","pref":"大分県","city":"杵築市","address":"岩谷"},
{"zip_code":"8730006","kana_pref":"ｵｵｲﾀｹﾝ","kana_city":"ｷﾂｷｼ","kana_address":"ｵｵｳﾁ","pref":"大分県","city":"杵築市","address":"大内"},
{"zip_code":"8730022","kana_pref":"ｵｵｲﾀｹﾝ","kana_city":"ｷﾂｷｼ","kana_address":"ｵｵｶﾀﾋﾗ","pref":"大分県","city":"杵築市","address":"大片平"},
{"zip_code":"8730041","kana_pref":"ｵｵｲﾀｹﾝ","kana_city":"ｷﾂｷｼ","kana_address":"ｵｵﾀﾏﾀﾐｽﾞ","pref":"大分県","city":"杵築市","address":"大田俣水"},
{"zip_code":"8730007","kana_pref":"ｵｵｲﾀｹﾝ","kana_city":"ｷﾂｷｼ","kana_address":"ｶﾀﾉ","pref":"大分県","city":"杵築市","address":"片野"},
{"zip_code":"8730023","kana_pref":"ｵｵｲﾀｹﾝ","kana_city":"ｷﾂｷｼ","kana_address":"ｶﾓｶﾞﾜ","pref":"大分県","city":"杵築市","address":"鴨川"},
{"zip_code":"8730031","kana_pref":"ｵｵｲﾀｹﾝ","kana_city":"ｷﾂｷｼ","kana_address":"ｶﾘｼｭｸ","pref":"大分県","city":"杵築市","address":"狩宿"},
{"zip_code":"8730001","kana_pref":"ｵｵｲﾀｹﾝ","kana_city":"ｷﾂｷｼ","kana_address":"ｷﾂｷ","pref":"大分県","city":"杵築市","address":"杵築"},
{"zip_code":"8730008","kana_pref":"ｵｵｲﾀｹﾝ","kana_city":"ｷﾂｷｼ","kana_address":"ｸﾏﾉ","pref":"大分県","city":"杵築市","address":"熊野"},
{"zip_code":"8730012","kana_pref":"ｵｵｲﾀｹﾝ","kana_city":"ｷﾂｷｼ","kana_address":"ﾅｶ","pref":"大分県","city":"杵築市","address":"中"},
{"zip_code":"8730032","kana_pref":"ｵｵｲﾀｹﾝ","kana_city":"ｷﾂｷｼ","kana_address":"ﾅﾀﾞ","pref":"大分県","city":"杵築市","address":"奈多"},
{"zip_code":"8730003","kana_pref":"ｵｵｲﾀｹﾝ","kana_city":"ｷﾂｷｼ","kana_address":"ﾊﾞﾊﾞｵ","pref":"大分県","city":"杵築市","address":"馬場尾"},
{"zip_code":"8730013","kana_pref":"ｵｵｲﾀｹﾝ","kana_city":"ｷﾂｷｼ","kana_address":"ﾋﾉ","pref":"大分県","city":"杵築市","address":"日野"},
{"zip_code":"8730024","kana_pref":"ｵｵｲﾀｹﾝ","kana_city":"ｷﾂｷｼ","kana_address":"ﾌﾅﾍﾞ","pref":"大分県","city":"杵築市","address":"船部"},
{"zip_code":"8730014","kana_pref":"ｵｵｲﾀｹﾝ","kana_city":"ｷﾂｷｼ","kana_address":"ﾎﾝｼﾞｮｳ","pref":"大分県","city":"杵築市","address":"本庄"},
{"zip_code":"8730025","kana_pref":"ｵｵｲﾀｹﾝ","kana_city":"ｷﾂｷｼ","kana_address":"ﾐｿﾞｲ","pref":"大分県","city":"杵築市","address":"溝井"},
{"zip_code":"8730002","kana_pref":"ｵｵｲﾀｹﾝ","kana_city":"ｷﾂｷｼ","kana_address":"ﾐﾅﾐｷﾂｷ","pref":"大分県","city":"杵築市","address":"南杵築"},
{"zip_code":"8730004","kana_pref":"ｵｵｲﾀｹﾝ","kana_city":"ｷﾂｷｼ","kana_address":"ﾐﾔｼﾞ","pref":"大分県","city":"杵築市","address":"宮司"},
{"zip_code":"8730033","kana_pref":"ｵｵｲﾀｹﾝ","kana_city":"ｷﾂｷｼ","kana_address":"ﾓﾘｴ","pref":"大分県","city":"杵築市","address":"守江"},
{"zip_code":"8730015","kana_pref":"ｵｵｲﾀｹﾝ","kana_city":"ｷﾂｷｼ","kana_address":"ﾔｻｶ","pref":"大分県","city":"杵築市","address":"八坂"},
{"zip_code":"8730034","kana_pref":"ｵｵｲﾀｹﾝ","kana_city":"ｷﾂｷｼ","kana_address":"ﾖｺｷﾞ","pref":"大分県","city":"杵築市","address":"横城"},
{"zip_code":"8730500","kana_pref":"ｵｵｲﾀｹﾝ","kana_city":"ｸﾆｻｷｼ","kana_address":"","pref":"大分県","city":"国東市","address":""},
{"zip_code":"8730351","kana_pref":"ｵｵｲﾀｹﾝ","kana_city":"ｸﾆｻｷｼ","kana_address":"ｱｷﾏﾁｱｻｸ","pref":"大分県","city":"国東市","address":"安岐町朝来"},
{"zip_code":"8730354","kana_pref":"ｵｵｲﾀｹﾝ","kana_city":"ｸﾆｻｷｼ","kana_address":"ｱｷﾏﾁｲﾄﾅｶﾞ","pref":"大分県","city":"国東市","address":"安岐町糸永"},
{"zip_code":"8730223","kana_pref":"ｵｵｲﾀｹﾝ","kana_city":"ｸﾆｻｷｼ","kana_address":"ｱｷﾏﾁｵｵｿｴ","pref":"大分県","city":"国東市","address":"安岐町大添"},
{"zip_code":"8730205","kana_pref":"ｵｵｲﾀｹﾝ","kana_city":"ｸﾆｻｷｼ","kana_address":"ｱｷﾏﾁｶｹﾋ","pref":"大分県","city":"国東市","address":"安岐町掛樋"},
{"zip_code":"8730232","kana_pref":"ｵｵｲﾀｹﾝ","kana_city":"ｸﾆｻｷｼ","kana_address":"ｱｷﾏﾁｺｳﾖｳﾀﾞｲ","pref":"大分県","city":"国東市","address":"安岐町向陽台"},
{"zip_code":"8730212","kana_pref":"ｵｵｲﾀｹﾝ","kana_city":"ｸﾆｻｷｼ","kana_address":"ｱｷﾏﾁｼｵﾔ","pref":"大分県","city":"国東市","address":"安岐町塩屋"},
{"zip_code":"8730231","kana_pref":"ｵｵｲﾀｹﾝ","kana_city":"ｸﾆｻｷｼ","kana_address":"ｱｷﾏﾁｼﾓﾊﾞﾙ","pref":"大分県","city":"国東市","address":"安岐町下原"},
{"zip_code":"8730222","kana_pref":"ｵｵｲﾀｹﾝ","kana_city":"ｸﾆｻｷｼ","kana_address":"ｱｷﾏﾁｼﾓﾔﾏｸﾞﾁ","pref":"大分県","city":"国東市","address":"安岐町下山口"},
{"zip_code":"8730202","kana_pref":"ｵｵｲﾀｹﾝ","kana_city":"ｸﾆｻｷｼ","kana_address":"ｱｷﾏﾁｾﾄﾞﾀ","pref":"大分県","city":"国東市","address":"安岐町瀬戸田"},
{"zip_code":"8730355","kana_pref":"ｵｵｲﾀｹﾝ","kana_city":"ｸﾆｻｷｼ","kana_address":"ｱｷﾏﾁﾄﾐｷﾖ","pref":"大分県","city":"国東市","address":"安岐町富清"},
{"zip_code":"8730203","kana_pref":"ｵｵｲﾀｹﾝ","kana_city":"ｸﾆｻｷｼ","kana_address":"ｱｷﾏﾁﾅｶｿﾉ","pref":"大分県","city":"国東市","address":"安岐町中園"},
{"zip_code":"8730204","kana_pref":"ｵｵｲﾀｹﾝ","kana_city":"ｸﾆｻｷｼ","kana_address":"ｱｷﾏﾁﾅﾘﾋｻ","pref":"大分県","city":"国東市","address":"安岐町成久"},
{"zip_code":"8730221","kana_pref":"ｵｵｲﾀｹﾝ","kana_city":"ｸﾆｻｷｼ","kana_address":"ｱｷﾏﾁﾆｼﾓﾄ","pref":"大分県","city":"国東市","address":"安岐町西本"},
{"zip_code":"8730211","kana_pref":"ｵｵｲﾀｹﾝ","kana_city":"ｸﾆｻｷｼ","kana_address":"ｱｷﾏﾁﾊﾞﾊﾞ","pref":"大分県","city":"国東市","address":"安岐町馬場"},
{"zip_code":"8730356","kana_pref":"ｵｵｲﾀｹﾝ","kana_city":"ｸﾆｻｷｼ","kana_address":"ｱｷﾏﾁﾌﾀｺﾞ","pref":"大分県","city":"国東市","address":"安岐町両子"},
{"zip_code":"8730352","kana_pref":"ｵｵｲﾀｹﾝ","kana_city":"ｸﾆｻｷｼ","kana_address":"ｱｷﾏﾁﾒｲｼﾞ","pref":"大分県","city":"国東市","address":"安岐町明治"},
{"zip_code":"8730053","kana_pref":"ｵｵｲﾀｹﾝ","kana_city":"ｸﾆｻｷｼ","kana_address":"ｱｷﾏﾁﾔｶﾞﾜ","pref":"大分県","city":"国東市","address":"安岐町矢川"},
{"zip_code":"8730353","kana_pref":"ｵｵｲﾀｹﾝ","kana_city":"ｸﾆｻｷｼ","kana_address":"ｱｷﾏﾁﾔｶﾞﾜ","pref":"大分県","city":"国東市","address":"安岐町矢川"},
{"zip_code":"8730206","kana_pref":"ｵｵｲﾀｹﾝ","kana_city":"ｸﾆｻｷｼ","kana_address":"ｱｷﾏﾁﾔﾏｳﾗ","pref":"大分県","city":"国東市","address":"安岐町山浦"},
{"zip_code":"8730224","kana_pref":"ｵｵｲﾀｹﾝ","kana_city":"ｸﾆｻｷｼ","kana_address":"ｱｷﾏﾁﾔﾏｸﾞﾁ","pref":"大分県","city":"国東市","address":"安岐町山口"},
{"zip_code":"8730207","kana_pref":"ｵｵｲﾀｹﾝ","kana_city":"ｸﾆｻｷｼ","kana_address":"ｱｷﾏﾁﾕﾙｷﾞ","pref":"大分県","city":"国東市","address":"安岐町油留木"},
{"zip_code":"8730201","kana_pref":"ｵｵｲﾀｹﾝ","kana_city":"ｸﾆｻｷｼ","kana_address":"ｱｷﾏﾁﾖｼﾏﾂ","pref":"大分県","city":"国東市","address":"安岐町吉松"},
{"zip_code":"8730523","kana_pref":"ｵｵｲﾀｹﾝ","kana_city":"ｸﾆｻｷｼ","kana_address":"ｸﾆｻｷﾏﾁｱｶﾏﾂ","pref":"大分県","city":"国東市","address":"国東町赤松"},
{"zip_code":"8730504","kana_pref":"ｵｵｲﾀｹﾝ","kana_city":"ｸﾆｻｷｼ","kana_address":"ｸﾆｻｷﾏﾁｱﾝｺｸｼﾞ","pref":"大分県","city":"国東市","address":"国東町安国寺"},
{"zip_code":"8730522","kana_pref":"ｵｵｲﾀｹﾝ","kana_city":"ｸﾆｻｷｼ","kana_address":"ｸﾆｻｷﾏﾁｲﾜﾔ","pref":"大分県","city":"国東市","address":"国東町岩屋"},
{"zip_code":"8730511","kana_pref":"ｵｵｲﾀｹﾝ","kana_city":"ｸﾆｻｷｼ","kana_address":"ｸﾆｻｷﾏﾁｵﾊﾗ","pref":"大分県","city":"国東市","address":"国東町小原"},
{"zip_code":"8730531","kana_pref":"ｵｵｲﾀｹﾝ","kana_city":"ｸﾆｻｷｼ","kana_address":"ｸﾆｻｷﾏﾁｶﾜﾗ","pref":"大分県","city":"国東市","address":"国東町川原"},
{"zip_code":"8730501","kana_pref":"ｵｵｲﾀｹﾝ","kana_city":"ｸﾆｻｷｼ","kana_address":"ｸﾆｻｷﾏﾁｷﾀｴ","pref":"大分県","city":"国東市","address":"国東町北江"},
{"zip_code":"8730533","kana_pref":"ｵｵｲﾀｹﾝ","kana_city":"ｸﾆｻｷｼ","kana_address":"ｸﾆｻｷﾏﾁｹﾝｼﾞ","pref":"大分県","city":"国東市","address":"国東町見地"},
{"zip_code":"8730514","kana_pref":"ｵｵｲﾀｹﾝ","kana_city":"ｸﾆｻｷｼ","kana_address":"ｸﾆｻｷﾏﾁｼｹﾞﾌｼﾞ","pref":"大分県","city":"国東市","address":"国東町重藤"},
{"zip_code":"8730534","kana_pref":"ｵｵｲﾀｹﾝ","kana_city":"ｸﾆｻｷｼ","kana_address":"ｸﾆｻｷﾏﾁｼﾓｼﾞｮｳﾌﾞﾂ","pref":"大分県","city":"国東市","address":"国東町下成仏"},
{"zip_code":"8730535","kana_pref":"ｵｵｲﾀｹﾝ","kana_city":"ｸﾆｻｷｼ","kana_address":"ｸﾆｻｷﾏﾁｼﾞｮｳﾌﾞﾂ","pref":"大分県","city":"国東市","address":"国東町成仏"},
{"zip_code":"8730512","kana_pref":"ｵｵｲﾀｹﾝ","kana_city":"ｸﾆｻｷｼ","kana_address":"ｸﾆｻｷﾏﾁｼﾞﾛｳﾏﾙ","pref":"大分県","city":"国東市","address":"国東町治郎丸"},
{"zip_code":"8730646","kana_pref":"ｵｵｲﾀｹﾝ","kana_city":"ｸﾆｻｷｼ","kana_address":"ｸﾆｻｷﾏﾁﾀﾞｲｵﾝｼﾞ","pref":"大分県","city":"国東市","address":"国東町大恩寺"},
{"zip_code":"8730502","kana_pref":"ｵｵｲﾀｹﾝ","kana_city":"ｸﾆｻｷｼ","kana_address":"ｸﾆｻｷﾏﾁﾀﾌﾞｶ","pref":"大分県","city":"国東市","address":"国東町田深"},
{"zip_code":"8730513","kana_pref":"ｵｵｲﾀｹﾝ","kana_city":"ｸﾆｻｷｼ","kana_address":"ｸﾆｻｷﾏﾁﾂﾅｲ","pref":"大分県","city":"国東市","address":"国東町綱井"},
{"zip_code":"8730503","kana_pref":"ｵｵｲﾀｹﾝ","kana_city":"ｸﾆｻｷｼ","kana_address":"ｸﾆｻｷﾏﾁﾂﾙｶﾞﾜ","pref":"大分県","city":"国東市","address":"国東町鶴川"},
{"zip_code":"8730645","kana_pref":"ｵｵｲﾀｹﾝ","kana_city":"ｸﾆｻｷｼ","kana_address":"ｸﾆｻｷﾏﾁﾄﾐｸ","pref":"大分県","city":"国東市","address":"国東町富来"},
{"zip_code":"8730643","kana_pref":"ｵｵｲﾀｹﾝ","kana_city":"ｸﾆｻｷｼ","kana_address":"ｸﾆｻｷﾏﾁﾄﾐｸｳﾗ","pref":"大分県","city":"国東市","address":"国東町富来浦"},
{"zip_code":"8730532","kana_pref":"ｵｵｲﾀｹﾝ","kana_city":"ｸﾆｻｷｼ","kana_address":"ｸﾆｻｷﾏﾁﾅｶﾀﾞ","pref":"大分県","city":"国東市","address":"国東町中田"},
{"zip_code":"8730644","kana_pref":"ｵｵｲﾀｹﾝ","kana_city":"ｸﾆｻｷｼ","kana_address":"ｸﾆｻｷﾏﾁﾊﾏｻｷ","pref":"大分県","city":"国東市","address":"国東町浜崎"},
{"zip_code":"8730521","kana_pref":"ｵｵｲﾀｹﾝ","kana_city":"ｸﾆｻｷｼ","kana_address":"ｸﾆｻｷﾏﾁﾊﾙ","pref":"大分県","city":"国東市","address":"国東町原"},
{"zip_code":"8730642","kana_pref":"ｵｵｲﾀｹﾝ","kana_city":"ｸﾆｻｷｼ","kana_address":"ｸﾆｻｷﾏﾁﾋｶﾞｼｶﾀｸ","pref":"大分県","city":"国東市","address":"国東町東堅来"},
{"zip_code":"8730641","kana_pref":"ｵｵｲﾀｹﾝ","kana_city":"ｸﾆｻｷｼ","kana_address":"ｸﾆｻｷﾏﾁﾌｶｴ","pref":"大分県","city":"国東市","address":"国東町深江"},
{"zip_code":"8730524","kana_pref":"ｵｵｲﾀｹﾝ","kana_city":"ｸﾆｻｷｼ","kana_address":"ｸﾆｻｷﾏﾁﾖｺﾃ","pref":"大分県","city":"国東市","address":"国東町横手"},
{"zip_code":"8730405","kana_pref":"ｵｵｲﾀｹﾝ","kana_city":"ｸﾆｻｷｼ","kana_address":"ﾑｻｼﾏﾁｱｻﾀﾞ","pref":"大分県","city":"国東市","address":"武蔵町麻田"},
{"zip_code":"8730401","kana_pref":"ｵｵｲﾀｹﾝ","kana_city":"ｸﾆｻｷｼ","kana_address":"ﾑｻｼﾏﾁｲｹﾉｳﾁ","pref":"大分県","city":"国東市","address":"武蔵町池ノ内"},
{"zip_code":"8730421","kana_pref":"ｵｵｲﾀｹﾝ","kana_city":"ｸﾆｻｷｼ","kana_address":"ﾑｻｼﾏﾁｲﾄﾊﾙ","pref":"大分県","city":"国東市","address":"武蔵町糸原"},
{"zip_code":"8730402","kana_pref":"ｵｵｲﾀｹﾝ","kana_city":"ｸﾆｻｷｼ","kana_address":"ﾑｻｼﾏﾁｳﾁﾀﾞ","pref":"大分県","city":"国東市","address":"武蔵町内田"},
{"zip_code":"8730422","kana_pref":"ｵｵｲﾀｹﾝ","kana_city":"ｸﾆｻｷｼ","kana_address":"ﾑｻｼﾏﾁｵｷﾞ","pref":"大分県","city":"国東市","address":"武蔵町小城"},
{"zip_code":"8730432","kana_pref":"ｵｵｲﾀｹﾝ","kana_city":"ｸﾆｻｷｼ","kana_address":"ﾑｻｼﾏﾁｺｳﾖｳﾀﾞｲ","pref":"大分県","city":"国東市","address":"武蔵町向陽台"},
{"zip_code":"8730424","kana_pref":"ｵｵｲﾀｹﾝ","kana_city":"ｸﾆｻｷｼ","kana_address":"ﾑｻｼﾏﾁｼﾜﾘ","pref":"大分県","city":"国東市","address":"武蔵町志和利"},
{"zip_code":"8730414","kana_pref":"ｵｵｲﾀｹﾝ","kana_city":"ｸﾆｻｷｼ","kana_address":"ﾑｻｼﾏﾁﾃﾉ","pref":"大分県","city":"国東市","address":"武蔵町手野"},
{"zip_code":"8730404","kana_pref":"ｵｵｲﾀｹﾝ","kana_city":"ｸﾆｻｷｼ","kana_address":"ﾑｻｼﾏﾁﾅﾘﾖｼ","pref":"大分県","city":"国東市","address":"武蔵町成吉"},
{"zip_code":"8730407","kana_pref":"ｵｵｲﾀｹﾝ","kana_city":"ｸﾆｻｷｼ","kana_address":"ﾑｻｼﾏﾁﾊｻﾏ","pref":"大分県","city":"国東市","address":"武蔵町狭間"},
{"zip_code":"8730412","kana_pref":"ｵｵｲﾀｹﾝ","kana_city":"ｸﾆｻｷｼ","kana_address":"ﾑｻｼﾏﾁﾌﾙｲﾁ","pref":"大分県","city":"国東市","address":"武蔵町古市"},
{"zip_code":"8730406","kana_pref":"ｵｵｲﾀｹﾝ","kana_city":"ｸﾆｻｷｼ","kana_address":"ﾑｻｼﾏﾁﾏﾙｵﾉ","pref":"大分県","city":"国東市","address":"武蔵町丸小野"},
{"zip_code":"8730423","kana_pref":"ｵｵｲﾀｹﾝ","kana_city":"ｸﾆｻｷｼ","kana_address":"ﾑｻｼﾏﾁﾐｲﾃﾞﾗ","pref":"大分県","city":"国東市","address":"武蔵町三井寺"},
{"zip_code":"8730415","kana_pref":"ｵｵｲﾀｹﾝ","kana_city":"ｸﾆｻｷｼ","kana_address":"ﾑｻｼﾏﾁﾖｼﾋﾛ","pref":"大分県","city":"国東市","address":"武蔵町吉広"}]}