{"zip_code":[
{"zip_code":"8740000","kana_pref":"ｵｵｲﾀｹﾝ","kana_city":"ﾍﾞｯﾌﾟｼ","kana_address":"","pref":"大分県","city":"別府市","address":""},
{"zip_code":"8740902","kana_pref":"ｵｵｲﾀｹﾝ","kana_city":"ﾍﾞｯﾌﾟｼ","kana_address":"ｱｵﾔﾏﾁｮｳ","pref":"大分県","city":"別府市","address":"青山町"},
{"zip_code":"8740819","kana_pref":"ｵｵｲﾀｹﾝ","kana_city":"ﾍﾞｯﾌﾟｼ","kana_address":"ｱｶﾏﾂ","pref":"大分県","city":"別府市","address":"赤松"},
{"zip_code":"8740937","kana_pref":"ｵｵｲﾀｹﾝ","kana_city":"ﾍﾞｯﾌﾟｼ","kana_address":"ｱｷﾊﾞﾁｮｳ","pref":"大分県","city":"別府市","address":"秋葉町"},
{"zip_code":"8740846","kana_pref":"ｵｵｲﾀｹﾝ","kana_city":"ﾍﾞｯﾌﾟｼ","kana_address":"ｱｻﾋｶﾞｵｶﾁｮｳ","pref":"大分県","city":"別府市","address":"朝日ケ丘町"},
{"zip_code":"8740812","kana_pref":"ｵｵｲﾀｹﾝ","kana_city":"ﾍﾞｯﾌﾟｼ","kana_address":"ｱｻﾐ","pref":"大分県","city":"別府市","address":"朝見"},
{"zip_code":"8740005","kana_pref":"ｵｵｲﾀｹﾝ","kana_city":"ﾍﾞｯﾌﾟｼ","kana_address":"ｱﾏﾏ","pref":"大分県","city":"別府市","address":"天間"},
{"zip_code":"8740919","kana_pref":"ｵｵｲﾀｹﾝ","kana_city":"ﾍﾞｯﾌﾟｼ","kana_address":"ｲｼｶﾞｷﾋｶﾞｼ","pref":"大分県","city":"別府市","address":"石垣東"},
{"zip_code":"8740910","kana_pref":"ｵｵｲﾀｹﾝ","kana_city":"ﾍﾞｯﾌﾟｼ","kana_address":"ｲｼｶﾞｷﾆｼ","pref":"大分県","city":"別府市","address":"石垣西"},
{"zip_code":"8740043","kana_pref":"ｵｵｲﾀｹﾝ","kana_city":"ﾍﾞｯﾌﾟｼ","kana_address":"ｲﾀﾞ","pref":"大分県","city":"別府市","address":"井田"},
{"zip_code":"8740011","kana_pref":"ｵｵｲﾀｹﾝ","kana_city":"ﾍﾞｯﾌﾟｼ","kana_address":"ｳﾁｶﾏﾄﾞ","pref":"大分県","city":"別府市","address":"内竈"},
{"zip_code":"8740814","kana_pref":"ｵｵｲﾀｹﾝ","kana_city":"ﾍﾞｯﾌﾟｼ","kana_address":"ｳﾗﾀ","pref":"大分県","city":"別府市","address":"浦田"},
{"zip_code":"8740935","kana_pref":"ｵｵｲﾀｹﾝ","kana_city":"ﾍﾞｯﾌﾟｼ","kana_address":"ｴｷﾏｴﾁｮｳ","pref":"大分県","city":"別府市","address":"駅前町"},
{"zip_code":"8740934","kana_pref":"ｵｵｲﾀｹﾝ","kana_city":"ﾍﾞｯﾌﾟｼ","kana_address":"ｴｷﾏｴﾎﾝﾏﾁ","pref":"大分県","city":"別府市","address":"駅前本町"},
{"zip_code":"8740805","kana_pref":"ｵｵｲﾀｹﾝ","kana_city":"ﾍﾞｯﾌﾟｼ","kana_address":"ｴﾀﾞｺﾞｳ","pref":"大分県","city":"別府市","address":"枝郷"},
{"zip_code":"8740849","kana_pref":"ｵｵｲﾀｹﾝ","kana_city":"ﾍﾞｯﾌﾟｼ","kana_address":"ｵｳｷﾞﾔﾏ","pref":"大分県","city":"別府市","address":"扇山"},
{"zip_code":"8740842","kana_pref":"ｵｵｲﾀｹﾝ","kana_city":"ﾍﾞｯﾌﾟｼ","kana_address":"ｵｸﾞﾗ","pref":"大分県","city":"別府市","address":"小倉"},
{"zip_code":"8740001","kana_pref":"ｵｵｲﾀｹﾝ","kana_city":"ﾍﾞｯﾌﾟｼ","kana_address":"ｵｻｶ","pref":"大分県","city":"別府市","address":"小坂"},
{"zip_code":"8740003","kana_pref":"ｵｵｲﾀｹﾝ","kana_city":"ﾍﾞｯﾌﾟｼ","kana_address":"ｵﾄｺﾛ","pref":"大分県","city":"別府市","address":"大所"},
{"zip_code":"8740821","kana_pref":"ｵｵｲﾀｹﾝ","kana_city":"ﾍﾞｯﾌﾟｼ","kana_address":"ｵﾄﾊﾞﾙ","pref":"大分県","city":"別府市","address":"乙原"},
{"zip_code":"8740848","kana_pref":"ｵｵｲﾀｹﾝ","kana_city":"ﾍﾞｯﾌﾟｼ","kana_address":"ｵﾊﾞﾀｹ","pref":"大分県","city":"別府市","address":"大畑"},
{"zip_code":"8740908","kana_pref":"ｵｵｲﾀｹﾝ","kana_city":"ﾍﾞｯﾌﾟｼ","kana_address":"ｶﾐﾀﾉﾕﾏﾁ","pref":"大分県","city":"別府市","address":"上田の湯町"},
{"zip_code":"8740905","kana_pref":"ｵｵｲﾀｹﾝ","kana_city":"ﾍﾞｯﾌﾟｼ","kana_address":"ｶﾐﾉｸﾞﾁﾁｮｳ","pref":"大分県","city":"別府市","address":"上野口町"},
{"zip_code":"8740829","kana_pref":"ｵｵｲﾀｹﾝ","kana_city":"ﾍﾞｯﾌﾟｼ","kana_address":"ｶﾐﾊﾙﾁｮｳ","pref":"大分県","city":"別府市","address":"上原町"},
{"zip_code":"8740036","kana_pref":"ｵｵｲﾀｹﾝ","kana_city":"ﾍﾞｯﾌﾟｼ","kana_address":"ｶﾐﾋﾗﾀﾁｮｳ","pref":"大分県","city":"別府市","address":"上平田町"},
{"zip_code":"8740025","kana_pref":"ｵｵｲﾀｹﾝ","kana_city":"ﾍﾞｯﾌﾟｼ","kana_address":"ｶﾒｶﾞﾜｼﾉﾕﾏﾁ","pref":"大分県","city":"別府市","address":"亀川四の湯町"},
{"zip_code":"8740021","kana_pref":"ｵｵｲﾀｹﾝ","kana_city":"ﾍﾞｯﾌﾟｼ","kana_address":"ｶﾒｶﾞﾜﾁｭｳｵｳﾏﾁ","pref":"大分県","city":"別府市","address":"亀川中央町"},
{"zip_code":"8740014","kana_pref":"ｵｵｲﾀｹﾝ","kana_city":"ﾍﾞｯﾌﾟｼ","kana_address":"ｶﾒｶﾞﾜﾊﾏﾀﾞﾏﾁ","pref":"大分県","city":"別府市","address":"亀川浜田町"},
{"zip_code":"8740022","kana_pref":"ｵｵｲﾀｹﾝ","kana_city":"ﾍﾞｯﾌﾟｼ","kana_address":"ｶﾒｶﾞﾜﾋｶﾞｼﾏﾁ","pref":"大分県","city":"別府市","address":"亀川東町"},
{"zip_code":"8740822","kana_pref":"ｵｵｲﾀｹﾝ","kana_city":"ﾍﾞｯﾌﾟｼ","kana_address":"ｶﾝｶｲｼﾞ","pref":"大分県","city":"別府市","address":"観海寺"},
{"zip_code":"8740046","kana_pref":"ｵｵｲﾀｹﾝ","kana_city":"ﾍﾞｯﾌﾟｼ","kana_address":"ｶﾝﾅﾜｶﾐ","pref":"大分県","city":"別府市","address":"鉄輪上"},
{"zip_code":"8740042","kana_pref":"ｵｵｲﾀｹﾝ","kana_city":"ﾍﾞｯﾌﾟｼ","kana_address":"ｶﾝﾅﾜﾋｶﾞｼ","pref":"大分県","city":"別府市","address":"鉄輪東"},
{"zip_code":"8740802","kana_pref":"ｵｵｲﾀｹﾝ","kana_city":"ﾍﾞｯﾌﾟｼ","kana_address":"ｷｼﾞﾏ","pref":"大分県","city":"別府市","address":"城島"},
{"zip_code":"8740041","kana_pref":"ｵｵｲﾀｹﾝ","kana_city":"ﾍﾞｯﾌﾟｼ","kana_address":"ｷﾀｶﾝﾅﾜ","pref":"大分県","city":"別府市","address":"北鉄輪"},
{"zip_code":"8740845","kana_pref":"ｵｵｲﾀｹﾝ","kana_city":"ﾍﾞｯﾌﾟｼ","kana_address":"ｷﾀｼﾞｭｳ","pref":"大分県","city":"別府市","address":"北中"},
{"zip_code":"8740920","kana_pref":"ｵｵｲﾀｹﾝ","kana_city":"ﾍﾞｯﾌﾟｼ","kana_address":"ｷﾀﾊﾏ","pref":"大分県","city":"別府市","address":"北浜"},
{"zip_code":"8740928","kana_pref":"ｵｵｲﾀｹﾝ","kana_city":"ﾍﾞｯﾌﾟｼ","kana_address":"ｷﾀﾏﾄｶﾞﾊﾏﾁｮｳ","pref":"大分県","city":"別府市","address":"北的ケ浜町"},
{"zip_code":"8740926","kana_pref":"ｵｵｲﾀｹﾝ","kana_city":"ﾍﾞｯﾌﾟｼ","kana_address":"ｷｮｳﾏﾁ","pref":"大分県","city":"別府市","address":"京町"},
{"zip_code":"8740943","kana_pref":"ｵｵｲﾀｹﾝ","kana_city":"ﾍﾞｯﾌﾟｼ","kana_address":"ｸｽﾉｷﾏﾁ","pref":"大分県","city":"別府市","address":"楠町"},
{"zip_code":"8740015","kana_pref":"ｵｵｲﾀｹﾝ","kana_city":"ﾍﾞｯﾌﾟｼ","kana_address":"ｸﾆﾀﾃ","pref":"大分県","city":"別府市","address":"国立"},
{"zip_code":"8740816","kana_pref":"ｵｵｲﾀｹﾝ","kana_city":"ﾍﾞｯﾌﾟｼ","kana_address":"ｺｳﾁ","pref":"大分県","city":"別府市","address":"河内"},
{"zip_code":"8740907","kana_pref":"ｵｵｲﾀｹﾝ","kana_city":"ﾍﾞｯﾌﾟｼ","kana_address":"ｻｲﾜｲﾁｮｳ","pref":"大分県","city":"別府市","address":"幸町"},
{"zip_code":"8740915","kana_pref":"ｵｵｲﾀｹﾝ","kana_city":"ﾍﾞｯﾌﾟｼ","kana_address":"ｻｸﾗｶﾞｵｶ","pref":"大分県","city":"別府市","address":"桜ケ丘"},
{"zip_code":"8740918","kana_pref":"ｵｵｲﾀｹﾝ","kana_city":"ﾍﾞｯﾌﾟｼ","kana_address":"ｼｵﾐﾁｮｳ","pref":"大分県","city":"別府市","address":"汐見町"},
{"zip_code":"8740835","kana_pref":"ｵｵｲﾀｹﾝ","kana_city":"ﾍﾞｯﾌﾟｼ","kana_address":"ｼﾞｯｿｳｼﾞ","pref":"大分県","city":"別府市","address":"実相寺"},
{"zip_code":"8740034","kana_pref":"ｵｵｲﾀｹﾝ","kana_city":"ﾍﾞｯﾌﾟｼ","kana_address":"ｼｮｳﾆﾝﾅｶﾏﾁ","pref":"大分県","city":"別府市","address":"上人仲町"},
{"zip_code":"8740032","kana_pref":"ｵｵｲﾀｹﾝ","kana_city":"ﾍﾞｯﾌﾟｼ","kana_address":"ｼｮｳﾆﾝﾎﾝﾏﾁ","pref":"大分県","city":"別府市","address":"上人本町"},
{"zip_code":"8740035","kana_pref":"ｵｵｲﾀｹﾝ","kana_city":"ﾍﾞｯﾌﾟｼ","kana_address":"ｼｮｳﾆﾝﾆｼ","pref":"大分県","city":"別府市","address":"上人西"},
{"zip_code":"8740033","kana_pref":"ｵｵｲﾀｹﾝ","kana_city":"ﾍﾞｯﾌﾟｼ","kana_address":"ｼｮｳﾆﾝﾐﾅﾐ","pref":"大分県","city":"別府市","address":"上人南"},
{"zip_code":"8740023","kana_pref":"ｵｵｲﾀｹﾝ","kana_city":"ﾍﾞｯﾌﾟｼ","kana_address":"ｼｮｳﾆﾝｶﾞﾊﾏﾁｮｳ","pref":"大分県","city":"別府市","address":"上人ケ浜町"},
{"zip_code":"8740031","kana_pref":"ｵｵｲﾀｹﾝ","kana_city":"ﾍﾞｯﾌﾟｼ","kana_address":"ｼｮｳﾊｴﾝﾏﾁ","pref":"大分県","city":"別府市","address":"照波園町"},
{"zip_code":"8740834","kana_pref":"ｵｵｲﾀｹﾝ","kana_city":"ﾍﾞｯﾌﾟｼ","kana_address":"ｼﾝﾍﾞｯﾌﾟ","pref":"大分県","city":"別府市","address":"新別府"},
{"zip_code":"8740923","kana_pref":"ｵｵｲﾀｹﾝ","kana_city":"ﾍﾞｯﾌﾟｼ","kana_address":"ｼﾝﾐﾅﾄﾏﾁ","pref":"大分県","city":"別府市","address":"新港町"},
{"zip_code":"8740938","kana_pref":"ｵｵｲﾀｹﾝ","kana_city":"ﾍﾞｯﾌﾟｼ","kana_address":"ｽｴﾋﾛﾁｮｳ","pref":"大分県","city":"別府市","address":"末広町"},
{"zip_code":"8740012","kana_pref":"ｵｵｲﾀｹﾝ","kana_city":"ﾍﾞｯﾌﾟｼ","kana_address":"ｽﾊﾟﾗﾝﾄﾞﾄﾖﾐ","pref":"大分県","city":"別府市","address":"スパランド豊海"},
{"zip_code":"8740002","kana_pref":"ｵｵｲﾀｹﾝ","kana_city":"ﾍﾞｯﾌﾟｼ","kana_address":"ｾｷﾉｴｼﾝﾏﾁ","pref":"大分県","city":"別府市","address":"関の江新町"},
{"zip_code":"8740838","kana_pref":"ｵｵｲﾀｹﾝ","kana_city":"ﾍﾞｯﾌﾟｼ","kana_address":"ｿｳｴﾝ","pref":"大分県","city":"別府市","address":"荘園"},
{"zip_code":"8740837","kana_pref":"ｵｵｲﾀｹﾝ","kana_city":"ﾍﾞｯﾌﾟｼ","kana_address":"ｿｳｴﾝｷﾀﾏﾁ","pref":"大分県","city":"別府市","address":"荘園北町"},
{"zip_code":"8740037","kana_pref":"ｵｵｲﾀｹﾝ","kana_city":"ﾍﾞｯﾌﾟｼ","kana_address":"ﾀﾞｲｶﾝﾔﾏﾁｮｳ","pref":"大分県","city":"別府市","address":"大観山町"},
{"zip_code":"8740841","kana_pref":"ｵｵｲﾀｹﾝ","kana_city":"ﾍﾞｯﾌﾟｼ","kana_address":"ﾀｹﾉｳﾁ","pref":"大分県","city":"別府市","address":"竹の内"},
{"zip_code":"8740939","kana_pref":"ｵｵｲﾀｹﾝ","kana_city":"ﾍﾞｯﾌﾟｼ","kana_address":"ﾀｯﾀﾁｮｳ","pref":"大分県","city":"別府市","address":"立田町"},
{"zip_code":"8740815","kana_pref":"ｵｵｲﾀｹﾝ","kana_city":"ﾍﾞｯﾌﾟｼ","kana_address":"ﾀﾉｸﾁ","pref":"大分県","city":"別府市","address":"田の口"},
{"zip_code":"8740909","kana_pref":"ｵｵｲﾀｹﾝ","kana_city":"ﾍﾞｯﾌﾟｼ","kana_address":"ﾀﾉﾕﾏﾁ","pref":"大分県","city":"別府市","address":"田の湯町"},
{"zip_code":"8740936","kana_pref":"ｵｵｲﾀｹﾝ","kana_city":"ﾍﾞｯﾌﾟｼ","kana_address":"ﾁｭｳｵｳﾏﾁ","pref":"大分県","city":"別府市","address":"中央町"},
{"zip_code":"8740942","kana_pref":"ｵｵｲﾀｹﾝ","kana_city":"ﾍﾞｯﾌﾟｼ","kana_address":"ﾁﾖﾏﾁ","pref":"大分県","city":"別府市","address":"千代町"},
{"zip_code":"8740840","kana_pref":"ｵｵｲﾀｹﾝ","kana_city":"ﾍﾞｯﾌﾟｼ","kana_address":"ﾂﾙﾐ","pref":"大分県","city":"別府市","address":"鶴見"},
{"zip_code":"8740833","kana_pref":"ｵｵｲﾀｹﾝ","kana_city":"ﾍﾞｯﾌﾟｼ","kana_address":"ﾂﾙﾐ","pref":"大分県","city":"別府市","address":"鶴見"},
{"zip_code":"8740826","kana_pref":"ｵｵｲﾀｹﾝ","kana_city":"ﾍﾞｯﾌﾟｼ","kana_address":"ﾂﾙﾐｴﾝﾁｮｳ","pref":"大分県","city":"別府市","address":"鶴見園町"},
{"zip_code":"8740906","kana_pref":"ｵｵｲﾀｹﾝ","kana_city":"ﾍﾞｯﾌﾟｼ","kana_address":"ﾃﾝﾏﾝﾁｮｳ","pref":"大分県","city":"別府市","address":"天満町"},
{"zip_code":"8740817","kana_pref":"ｵｵｲﾀｹﾝ","kana_city":"ﾍﾞｯﾌﾟｼ","kana_address":"ﾄﾘｺﾞｴ","pref":"大分県","city":"別府市","address":"鳥越"},
{"zip_code":"8740901","kana_pref":"ｵｵｲﾀｹﾝ","kana_city":"ﾍﾞｯﾌﾟｼ","kana_address":"ﾅｶｼﾏﾁｮｳ","pref":"大分県","city":"別府市","address":"中島町"},
{"zip_code":"8740917","kana_pref":"ｵｵｲﾀｹﾝ","kana_city":"ﾍﾞｯﾌﾟｼ","kana_address":"ﾅｶｽｶﾋｶﾞｼﾏﾁ","pref":"大分県","city":"別府市","address":"中須賀東町"},
{"zip_code":"8740916","kana_pref":"ｵｵｲﾀｹﾝ","kana_city":"ﾍﾞｯﾌﾟｼ","kana_address":"ﾅｶｽｶﾎﾝﾏﾁ","pref":"大分県","city":"別府市","address":"中須賀本町"},
{"zip_code":"8740914","kana_pref":"ｵｵｲﾀｹﾝ","kana_city":"ﾍﾞｯﾌﾟｼ","kana_address":"ﾅｶｽｶﾓﾄﾏﾁ","pref":"大分県","city":"別府市","address":"中須賀元町"},
{"zip_code":"8740931","kana_pref":"ｵｵｲﾀｹﾝ","kana_city":"ﾍﾞｯﾌﾟｼ","kana_address":"ﾆｼﾉｸﾞﾁﾏﾁ","pref":"大分県","city":"別府市","address":"西野口町"},
{"zip_code":"8740932","kana_pref":"ｵｵｲﾀｹﾝ","kana_city":"ﾍﾞｯﾌﾟｼ","kana_address":"ﾉｸﾞﾁﾅｶﾏﾁ","pref":"大分県","city":"別府市","address":"野口中町"},
{"zip_code":"8740933","kana_pref":"ｵｵｲﾀｹﾝ","kana_city":"ﾍﾞｯﾌﾟｼ","kana_address":"ﾉｸﾞﾁﾓﾄﾏﾁ","pref":"大分県","city":"別府市","address":"野口元町"},
{"zip_code":"8740903","kana_pref":"ｵｵｲﾀｹﾝ","kana_city":"ﾍﾞｯﾌﾟｼ","kana_address":"ﾉｸﾞﾁﾊﾗ","pref":"大分県","city":"別府市","address":"野口原"},
{"zip_code":"8740016","kana_pref":"ｵｵｲﾀｹﾝ","kana_city":"ﾍﾞｯﾌﾟｼ","kana_address":"ﾉﾀﾞ","pref":"大分県","city":"別府市","address":"野田"},
{"zip_code":"8740847","kana_pref":"ｵｵｲﾀｹﾝ","kana_city":"ﾍﾞｯﾌﾟｼ","kana_address":"ﾊﾞﾊﾞ","pref":"大分県","city":"別府市","address":"馬場"},
{"zip_code":"8740945","kana_pref":"ｵｵｲﾀｹﾝ","kana_city":"ﾍﾞｯﾌﾟｼ","kana_address":"ﾊﾏﾏﾁ","pref":"大分県","city":"別府市","address":"浜町"},
{"zip_code":"8740947","kana_pref":"ｵｵｲﾀｹﾝ","kana_city":"ﾍﾞｯﾌﾟｼ","kana_address":"ﾊﾏﾜｷ","pref":"大分県","city":"別府市","address":"浜脇"},
{"zip_code":"8740820","kana_pref":"ｵｵｲﾀｹﾝ","kana_city":"ﾍﾞｯﾌﾟｼ","kana_address":"ﾊﾗﾏﾁ","pref":"大分県","city":"別府市","address":"原町"},
{"zip_code":"8740913","kana_pref":"ｵｵｲﾀｹﾝ","kana_city":"ﾍﾞｯﾌﾟｼ","kana_address":"ﾊﾙｷ","pref":"大分県","city":"別府市","address":"春木"},
{"zip_code":"8740930","kana_pref":"ｵｵｲﾀｹﾝ","kana_city":"ﾍﾞｯﾌﾟｼ","kana_address":"ﾋｶﾘﾏﾁ","pref":"大分県","city":"別府市","address":"光町"},
{"zip_code":"8740836","kana_pref":"ｵｵｲﾀｹﾝ","kana_city":"ﾍﾞｯﾌﾟｼ","kana_address":"ﾋｶﾞｼｿｳｴﾝ","pref":"大分県","city":"別府市","address":"東荘園"},
{"zip_code":"8740803","kana_pref":"ｵｵｲﾀｹﾝ","kana_city":"ﾍﾞｯﾌﾟｼ","kana_address":"ﾋｶﾞｼﾔﾏｲｯｸ","pref":"大分県","city":"別府市","address":"東山一区"},
{"zip_code":"8740804","kana_pref":"ｵｵｲﾀｹﾝ","kana_city":"ﾍﾞｯﾌﾟｼ","kana_address":"ﾋｶﾞｼﾔﾏﾆｸ","pref":"大分県","city":"別府市","address":"東山二区"},
{"zip_code":"8740024","kana_pref":"ｵｵｲﾀｹﾝ","kana_city":"ﾍﾞｯﾌﾟｼ","kana_address":"ﾋﾗﾀﾏﾁ","pref":"大分県","city":"別府市","address":"平田町"},
{"zip_code":"8740921","kana_pref":"ｵｵｲﾀｹﾝ","kana_city":"ﾍﾞｯﾌﾟｼ","kana_address":"ﾌｼﾞﾐﾁｮｳ","pref":"大分県","city":"別府市","address":"富士見町"},
{"zip_code":"8740922","kana_pref":"ｵｵｲﾀｹﾝ","kana_city":"ﾍﾞｯﾌﾟｼ","kana_address":"ﾌﾅｺｳｼﾞﾏﾁ","pref":"大分県","city":"別府市","address":"船小路町"},
{"zip_code":"8740013","kana_pref":"ｵｵｲﾀｹﾝ","kana_city":"ﾍﾞｯﾌﾟｼ","kana_address":"ﾌﾙｲﾁﾏﾁ","pref":"大分県","city":"別府市","address":"古市町"},
{"zip_code":"8740044","kana_pref":"ｵｵｲﾀｹﾝ","kana_city":"ﾍﾞｯﾌﾟｼ","kana_address":"ﾌﾛﾓﾄ","pref":"大分県","city":"別府市","address":"風呂本"},
{"zip_code":"8740844","kana_pref":"ｵｵｲﾀｹﾝ","kana_city":"ﾍﾞｯﾌﾟｼ","kana_address":"ﾎﾉﾒ","pref":"大分県","city":"別府市","address":"火売"},
{"zip_code":"8740831","kana_pref":"ｵｵｲﾀｹﾝ","kana_city":"ﾍﾞｯﾌﾟｼ","kana_address":"ﾎﾘﾀ","pref":"大分県","city":"別府市","address":"堀田"},
{"zip_code":"8740946","kana_pref":"ｵｵｲﾀｹﾝ","kana_city":"ﾍﾞｯﾌﾟｼ","kana_address":"ﾏﾂﾊﾞﾗﾁｮｳ","pref":"大分県","city":"別府市","address":"松原町"},
{"zip_code":"8740911","kana_pref":"ｵｵｲﾀｹﾝ","kana_city":"ﾍﾞｯﾌﾟｼ","kana_address":"ﾐﾄﾞﾘｶﾞｵｶﾁｮｳ","pref":"大分県","city":"別府市","address":"緑丘町"},
{"zip_code":"8740912","kana_pref":"ｵｵｲﾀｹﾝ","kana_city":"ﾍﾞｯﾌﾟｼ","kana_address":"ﾐﾅﾐｽｶ","pref":"大分県","city":"別府市","address":"南須賀"},
{"zip_code":"8740904","kana_pref":"ｵｵｲﾀｹﾝ","kana_city":"ﾍﾞｯﾌﾟｼ","kana_address":"ﾐﾅﾐｿｳｴﾝﾁｮｳ","pref":"大分県","city":"別府市","address":"南荘園町"},
{"zip_code":"8740832","kana_pref":"ｵｵｲﾀｹﾝ","kana_city":"ﾍﾞｯﾌﾟｼ","kana_address":"ﾐﾅﾐﾀﾃｲｼｲｷﾒﾁｮｳ","pref":"大分県","city":"別府市","address":"南立石生目町"},
{"zip_code":"8740824","kana_pref":"ｵｵｲﾀｹﾝ","kana_city":"ﾍﾞｯﾌﾟｼ","kana_address":"ﾐﾅﾐﾀﾃｲｼｲﾀｼﾞﾁｮｳ","pref":"大分県","city":"別府市","address":"南立石板地町"},
{"zip_code":"8740839","kana_pref":"ｵｵｲﾀｹﾝ","kana_city":"ﾍﾞｯﾌﾟｼ","kana_address":"ﾐﾅﾐﾀﾃｲｼｲｯｸ","pref":"大分県","city":"別府市","address":"南立石一区"},
{"zip_code":"8740827","kana_pref":"ｵｵｲﾀｹﾝ","kana_city":"ﾍﾞｯﾌﾟｼ","kana_address":"ﾐﾅﾐﾀﾃｲｼﾆｸ","pref":"大分県","city":"別府市","address":"南立石二区"},
{"zip_code":"8740825","kana_pref":"ｵｵｲﾀｹﾝ","kana_city":"ﾍﾞｯﾌﾟｼ","kana_address":"ﾐﾅﾐﾀﾃｲｼﾊﾁﾏﾝﾁｮｳ","pref":"大分県","city":"別府市","address":"南立石八幡町"},
{"zip_code":"8740823","kana_pref":"ｵｵｲﾀｹﾝ","kana_city":"ﾍﾞｯﾌﾟｼ","kana_address":"ﾐﾅﾐﾀﾃｲｼﾎﾝﾏﾁ","pref":"大分県","city":"別府市","address":"南立石本町"},
{"zip_code":"8740941","kana_pref":"ｵｵｲﾀｹﾝ","kana_city":"ﾍﾞｯﾌﾟｼ","kana_address":"ﾐﾅﾐﾏﾁ","pref":"大分県","city":"別府市","address":"南町"},
{"zip_code":"8740929","kana_pref":"ｵｵｲﾀｹﾝ","kana_city":"ﾍﾞｯﾌﾟｼ","kana_address":"ﾐﾅﾐﾏﾄｶﾞﾊﾏﾁｮｳ","pref":"大分県","city":"別府市","address":"南的ケ浜町"},
{"zip_code":"8740045","kana_pref":"ｵｵｲﾀｹﾝ","kana_city":"ﾍﾞｯﾌﾟｼ","kana_address":"ﾐﾕｷ","pref":"大分県","city":"別府市","address":"御幸"},
{"zip_code":"8740843","kana_pref":"ｵｵｲﾀｹﾝ","kana_city":"ﾍﾞｯﾌﾟｼ","kana_address":"ﾐｮｳﾊﾞﾝ","pref":"大分県","city":"別府市","address":"明礬"},
{"zip_code":"8740924","kana_pref":"ｵｵｲﾀｹﾝ","kana_city":"ﾍﾞｯﾌﾟｼ","kana_address":"ﾓﾁｶﾞﾊﾏﾁｮｳ","pref":"大分県","city":"別府市","address":"餅ケ浜町"},
{"zip_code":"8740944","kana_pref":"ｵｵｲﾀｹﾝ","kana_city":"ﾍﾞｯﾌﾟｼ","kana_address":"ﾓﾄﾏﾁ","pref":"大分県","city":"別府市","address":"元町"},
{"zip_code":"8740811","kana_pref":"ｵｵｲﾀｹﾝ","kana_city":"ﾍﾞｯﾌﾟｼ","kana_address":"ﾔﾅｷﾞ","pref":"大分県","city":"別府市","address":"柳"},
{"zip_code":"8740818","kana_pref":"ｵｵｲﾀｹﾝ","kana_city":"ﾍﾞｯﾌﾟｼ","kana_address":"ﾔﾏｶﾞ","pref":"大分県","city":"別府市","address":"山家"},
{"zip_code":"8740801","kana_pref":"ｵｵｲﾀｹﾝ","kana_city":"ﾍﾞｯﾌﾟｼ","kana_address":"ﾔﾏﾉｸﾁ","pref":"大分県","city":"別府市","address":"山の口"},
{"zip_code":"8740828","kana_pref":"ｵｵｲﾀｹﾝ","kana_city":"ﾍﾞｯﾌﾟｼ","kana_address":"ﾔﾏﾉﾃﾁｮｳ","pref":"大分県","city":"別府市","address":"山の手町"},
{"zip_code":"8740927","kana_pref":"ｵｵｲﾀｹﾝ","kana_city":"ﾍﾞｯﾌﾟｼ","kana_address":"ﾕﾐｶﾞﾊﾏﾁｮｳ","pref":"大分県","city":"別府市","address":"弓ケ浜町"},
{"zip_code":"8740004","kana_pref":"ｵｵｲﾀｹﾝ","kana_city":"ﾍﾞｯﾌﾟｼ","kana_address":"ﾕﾔﾏ","pref":"大分県","city":"別府市","address":"湯山"},
{"zip_code":"8740813","kana_pref":"ｵｵｲﾀｹﾝ","kana_city":"ﾍﾞｯﾌﾟｼ","kana_address":"ﾘｮｳｸﾞﾝﾊﾞｼ","pref":"大分県","city":"別府市","address":"両郡橋"},
{"zip_code":"8740925","kana_pref":"ｵｵｲﾀｹﾝ","kana_city":"ﾍﾞｯﾌﾟｼ","kana_address":"ﾜｶｸｻﾁｮｳ","pref":"大分県","city":"別府市","address":"若草町"}]}