{"zip_code":[
{"zip_code":"8750000","kana_pref":"ｵｵｲﾀｹﾝ","kana_city":"ｳｽｷｼ","kana_address":"","pref":"大分県","city":"臼杵市","address":""},
{"zip_code":"8750065","kana_pref":"ｵｵｲﾀｹﾝ","kana_city":"ｳｽｷｼ","kana_address":"ｲｴﾉ","pref":"大分県","city":"臼杵市","address":"家野"},
{"zip_code":"8750034","kana_pref":"ｵｵｲﾀｹﾝ","kana_city":"ｳｽｷｼ","kana_address":"ｲﾀﾁﾔ","pref":"大分県","city":"臼杵市","address":"板知屋"},
{"zip_code":"8750052","kana_pref":"ｵｵｲﾀｹﾝ","kana_city":"ｳｽｷｼ","kana_address":"ｲﾁﾊﾏ","pref":"大分県","city":"臼杵市","address":"市浜"},
{"zip_code":"8750082","kana_pref":"ｵｵｲﾀｹﾝ","kana_city":"ｳｽｷｼ","kana_address":"ｲﾅﾀﾞ","pref":"大分県","city":"臼杵市","address":"稲田"},
{"zip_code":"8750083","kana_pref":"ｵｵｲﾀｹﾝ","kana_city":"ｳｽｷｼ","kana_address":"ｲﾑﾗ","pref":"大分県","city":"臼杵市","address":"井村"},
{"zip_code":"8750041","kana_pref":"ｵｵｲﾀｹﾝ","kana_city":"ｳｽｷｼ","kana_address":"ｳｽｷ","pref":"大分県","city":"臼杵市","address":"臼杵"},
{"zip_code":"8750023","kana_pref":"ｵｵｲﾀｹﾝ","kana_city":"ｳｽｷｼ","kana_address":"ｴﾑﾀ","pref":"大分県","city":"臼杵市","address":"江無田"},
{"zip_code":"8750033","kana_pref":"ｵｵｲﾀｹﾝ","kana_city":"ｳｽｷｼ","kana_address":"ｵｵﾄﾏﾘ","pref":"大分県","city":"臼杵市","address":"大泊"},
{"zip_code":"8750004","kana_pref":"ｵｵｲﾀｹﾝ","kana_city":"ｳｽｷｼ","kana_address":"ｵｵﾉ","pref":"大分県","city":"臼杵市","address":"大野"},
{"zip_code":"8750012","kana_pref":"ｵｵｲﾀｹﾝ","kana_city":"ｳｽｷｼ","kana_address":"ｵｵﾊﾏ","pref":"大分県","city":"臼杵市","address":"大浜"},
{"zip_code":"8750077","kana_pref":"ｵｵｲﾀｹﾝ","kana_city":"ｳｽｷｼ","kana_address":"ｵﾄﾐ","pref":"大分県","city":"臼杵市","address":"乙見"},
{"zip_code":"8750042","kana_pref":"ｵｵｲﾀｹﾝ","kana_city":"ｳｽｷｼ","kana_address":"ｶｲｿﾞｴ","pref":"大分県","city":"臼杵市","address":"海添"},
{"zip_code":"8750073","kana_pref":"ｵｵｲﾀｹﾝ","kana_city":"ｳｽｷｼ","kana_address":"ｶｷﾀﾞｷ","pref":"大分県","city":"臼杵市","address":"掻懐"},
{"zip_code":"8750032","kana_pref":"ｵｵｲﾀｹﾝ","kana_city":"ｳｽｷｼ","kana_address":"ｶｻﾞﾅｼ","pref":"大分県","city":"臼杵市","address":"風成"},
{"zip_code":"8750070","kana_pref":"ｵｵｲﾀｹﾝ","kana_city":"ｳｽｷｼ","kana_address":"ｸｷﾞｵﾉ","pref":"大分県","city":"臼杵市","address":"久木小野"},
{"zip_code":"8750001","kana_pref":"ｵｵｲﾀｹﾝ","kana_city":"ｳｽｷｼ","kana_address":"ｻｼｳ","pref":"大分県","city":"臼杵市","address":"佐志生"},
{"zip_code":"8750074","kana_pref":"ｵｵｲﾀｹﾝ","kana_city":"ｳｽｷｼ","kana_address":"ｻﾂﾞﾙ","pref":"大分県","city":"臼杵市","address":"左津留"},
{"zip_code":"8750002","kana_pref":"ｵｵｲﾀｹﾝ","kana_city":"ｳｽｷｼ","kana_address":"ｼﾀﾉｴ","pref":"大分県","city":"臼杵市","address":"下ノ江"},
{"zip_code":"8750022","kana_pref":"ｵｵｲﾀｹﾝ","kana_city":"ｳｽｷｼ","kana_address":"ｽｴﾋﾛ","pref":"大分県","city":"臼杵市","address":"末広"},
{"zip_code":"8750011","kana_pref":"ｵｵｲﾀｹﾝ","kana_city":"ｳｽｷｼ","kana_address":"ｽﾜ","pref":"大分県","city":"臼杵市","address":"諏訪"},
{"zip_code":"8750003","kana_pref":"ｵｵｲﾀｹﾝ","kana_city":"ｳｽｷｼ","kana_address":"ﾀｲ","pref":"大分県","city":"臼杵市","address":"田井"},
{"zip_code":"8750078","kana_pref":"ｵｵｲﾀｹﾝ","kana_city":"ｳｽｷｼ","kana_address":"ﾀｶﾔﾏ","pref":"大分県","city":"臼杵市","address":"高山"},
{"zip_code":"8750084","kana_pref":"ｵｵｲﾀｹﾝ","kana_city":"ｳｽｷｼ","kana_address":"ﾀｹﾔ","pref":"大分県","city":"臼杵市","address":"岳谷"},
{"zip_code":"8750079","kana_pref":"ｵｵｲﾀｹﾝ","kana_city":"ｳｽｷｼ","kana_address":"ﾀｹﾔﾏ","pref":"大分県","city":"臼杵市","address":"武山"},
{"zip_code":"8750021","kana_pref":"ｵｵｲﾀｹﾝ","kana_city":"ｳｽｷｼ","kana_address":"ﾀｼﾞﾘ","pref":"大分県","city":"臼杵市","address":"田尻"},
{"zip_code":"8750051","kana_pref":"ｵｵｲﾀｹﾝ","kana_city":"ｳｽｷｼ","kana_address":"ﾄﾑﾛ","pref":"大分県","city":"臼杵市","address":"戸室"},
{"zip_code":"8750072","kana_pref":"ｵｵｲﾀｹﾝ","kana_city":"ｳｽｷｼ","kana_address":"ﾅｶｳｽｷ","pref":"大分県","city":"臼杵市","address":"中臼杵"},
{"zip_code":"8750075","kana_pref":"ｵｵｲﾀｹﾝ","kana_city":"ｳｽｷｼ","kana_address":"ﾅｶｵ","pref":"大分県","city":"臼杵市","address":"中尾"},
{"zip_code":"8750013","kana_pref":"ｵｵｲﾀｹﾝ","kana_city":"ｳｽｷｼ","kana_address":"ﾅｶﾂｳﾗ","pref":"大分県","city":"臼杵市","address":"中津浦"},
{"zip_code":"8750043","kana_pref":"ｵｵｲﾀｹﾝ","kana_city":"ｳｽｷｼ","kana_address":"ﾆｵｳｻﾞ","pref":"大分県","city":"臼杵市","address":"二王座"},
{"zip_code":"8750062","kana_pref":"ｵｵｲﾀｹﾝ","kana_city":"ｳｽｷｼ","kana_address":"ﾉﾀﾞ","pref":"大分県","city":"臼杵市","address":"野田"},
{"zip_code":"8750221","kana_pref":"ｵｵｲﾀｹﾝ","kana_city":"ｳｽｷｼ","kana_address":"ﾉﾂﾏﾁｱｷﾔﾏ","pref":"大分県","city":"臼杵市","address":"野津町秋山"},
{"zip_code":"8750343","kana_pref":"ｵｵｲﾀｹﾝ","kana_city":"ｳｽｷｼ","kana_address":"ﾉﾂﾏﾁｲﾜﾔ","pref":"大分県","city":"臼杵市","address":"野津町岩屋"},
{"zip_code":"8750232","kana_pref":"ｵｵｲﾀｹﾝ","kana_city":"ｳｽｷｼ","kana_address":"ﾉﾂﾏﾁｳｶﾞｸ","pref":"大分県","city":"臼杵市","address":"野津町烏嶽"},
{"zip_code":"8750212","kana_pref":"ｵｵｲﾀｹﾝ","kana_city":"ｳｽｷｼ","kana_address":"ﾉﾂﾏﾁｵｲﾏﾂ","pref":"大分県","city":"臼杵市","address":"野津町老松"},
{"zip_code":"8750215","kana_pref":"ｵｵｲﾀｹﾝ","kana_city":"ｳｽｷｼ","kana_address":"ﾉﾂﾏﾁｵｳｼﾞ","pref":"大分県","city":"臼杵市","address":"野津町王子"},
{"zip_code":"8750342","kana_pref":"ｵｵｲﾀｹﾝ","kana_city":"ｳｽｷｼ","kana_address":"ﾉﾂﾏﾁｵﾁﾀﾞﾆ","pref":"大分県","city":"臼杵市","address":"野津町落谷"},
{"zip_code":"8750352","kana_pref":"ｵｵｲﾀｹﾝ","kana_city":"ｳｽｷｼ","kana_address":"ﾉﾂﾏﾁｶｷｶﾞﾜﾁ","pref":"大分県","city":"臼杵市","address":"野津町垣河内"},
{"zip_code":"8750216","kana_pref":"ｵｵｲﾀｹﾝ","kana_city":"ｳｽｷｼ","kana_address":"ﾉﾂﾏﾁｶﾒｺｳ","pref":"大分県","city":"臼杵市","address":"野津町亀甲"},
{"zip_code":"8750237","kana_pref":"ｵｵｲﾀｹﾝ","kana_city":"ｳｽｷｼ","kana_address":"ﾉﾂﾏﾁｻｻﾑﾀ","pref":"大分県","city":"臼杵市","address":"野津町西寒田"},
{"zip_code":"8750344","kana_pref":"ｵｵｲﾀｹﾝ","kana_city":"ｳｽｷｼ","kana_address":"ﾉﾂﾏﾁｼﾗｲﾜ","pref":"大分県","city":"臼杵市","address":"野津町白岩"},
{"zip_code":"8750341","kana_pref":"ｵｵｲﾀｹﾝ","kana_city":"ｳｽｷｼ","kana_address":"ﾉﾂﾏﾁｿｳｽﾞﾊﾞﾙ","pref":"大分県","city":"臼杵市","address":"野津町清水原"},
{"zip_code":"8750231","kana_pref":"ｵｵｲﾀｹﾝ","kana_city":"ｳｽｷｼ","kana_address":"ﾉﾂﾏﾁﾁﾂﾞｶ","pref":"大分県","city":"臼杵市","address":"野津町千塚"},
{"zip_code":"8750351","kana_pref":"ｵｵｲﾀｹﾝ","kana_city":"ｳｽｷｼ","kana_address":"ﾉﾂﾏﾁﾄﾏﾘ","pref":"大分県","city":"臼杵市","address":"野津町泊"},
{"zip_code":"8750353","kana_pref":"ｵｵｲﾀｹﾝ","kana_city":"ｳｽｷｼ","kana_address":"ﾉﾂﾏﾁﾆｼｺｳﾉ","pref":"大分県","city":"臼杵市","address":"野津町西神野"},
{"zip_code":"8750224","kana_pref":"ｵｵｲﾀｹﾝ","kana_city":"ｳｽｷｼ","kana_address":"ﾉﾂﾏﾁﾆｼﾊﾀ","pref":"大分県","city":"臼杵市","address":"野津町西畑"},
{"zip_code":"8750201","kana_pref":"ｵｵｲﾀｹﾝ","kana_city":"ｳｽｷｼ","kana_address":"ﾉﾂﾏﾁﾉﾂｲﾁ","pref":"大分県","city":"臼杵市","address":"野津町野津市"},
{"zip_code":"8750213","kana_pref":"ｵｵｲﾀｹﾝ","kana_city":"ｳｽｷｼ","kana_address":"ﾉﾂﾏﾁﾊﾁﾘｺﾞｳ","pref":"大分県","city":"臼杵市","address":"野津町八里合"},
{"zip_code":"8750234","kana_pref":"ｵｵｲﾀｹﾝ","kana_city":"ｳｽｷｼ","kana_address":"ﾉﾂﾏﾁﾊﾙ","pref":"大分県","city":"臼杵市","address":"野津町原"},
{"zip_code":"8750323","kana_pref":"ｵｵｲﾀｹﾝ","kana_city":"ｳｽｷｼ","kana_address":"ﾉﾂﾏﾁﾋｶﾞｼﾀﾆ","pref":"大分県","city":"臼杵市","address":"野津町東谷"},
{"zip_code":"8750223","kana_pref":"ｵｵｲﾀｹﾝ","kana_city":"ｳｽｷｼ","kana_address":"ﾉﾂﾏﾁﾋｶﾞｼﾀﾆ","pref":"大分県","city":"臼杵市","address":"野津町東谷"},
{"zip_code":"8750214","kana_pref":"ｵｵｲﾀｹﾝ","kana_city":"ｳｽｷｼ","kana_address":"ﾉﾂﾏﾁﾌｸﾗｷﾞ","pref":"大分県","city":"臼杵市","address":"野津町福良木"},
{"zip_code":"8750235","kana_pref":"ｵｵｲﾀｹﾝ","kana_city":"ｳｽｷｼ","kana_address":"ﾉﾂﾏﾁﾌｼﾞｵﾉ","pref":"大分県","city":"臼杵市","address":"野津町藤小野"},
{"zip_code":"8750203","kana_pref":"ｵｵｲﾀｹﾝ","kana_city":"ｳｽｷｼ","kana_address":"ﾉﾂﾏﾁﾏｴｶﾞﾜﾁ","pref":"大分県","city":"臼杵市","address":"野津町前河内"},
{"zip_code":"8750211","kana_pref":"ｵｵｲﾀｹﾝ","kana_city":"ｳｽｷｼ","kana_address":"ﾉﾂﾏﾁﾐﾔｺﾊﾞﾙ","pref":"大分県","city":"臼杵市","address":"野津町都原"},
{"zip_code":"8750233","kana_pref":"ｵｵｲﾀｹﾝ","kana_city":"ｳｽｷｼ","kana_address":"ﾉﾂﾏﾁﾐﾔﾊﾞﾙ","pref":"大分県","city":"臼杵市","address":"野津町宮原"},
{"zip_code":"8750202","kana_pref":"ｵｵｲﾀｹﾝ","kana_city":"ｳｽｷｼ","kana_address":"ﾉﾂﾏﾁﾔﾏｽﾞ","pref":"大分県","city":"臼杵市","address":"野津町山頭"},
{"zip_code":"8750236","kana_pref":"ｵｵｲﾀｹﾝ","kana_city":"ｳｽｷｼ","kana_address":"ﾉﾂﾏﾁﾕﾉｷ","pref":"大分県","city":"臼杵市","address":"野津町柚野木"},
{"zip_code":"8750222","kana_pref":"ｵｵｲﾀｹﾝ","kana_city":"ｳｽｷｼ","kana_address":"ﾉﾂﾏﾁﾖｼﾀﾞ","pref":"大分県","city":"臼杵市","address":"野津町吉田"},
{"zip_code":"8750076","kana_pref":"ｵｵｲﾀｹﾝ","kana_city":"ｳｽｷｼ","kana_address":"ﾋｶﾞｼｺｳﾉ","pref":"大分県","city":"臼杵市","address":"東神野"},
{"zip_code":"8750031","kana_pref":"ｵｵｲﾀｹﾝ","kana_city":"ｳｽｷｼ","kana_address":"ﾌｶｴ","pref":"大分県","city":"臼杵市","address":"深江"},
{"zip_code":"8750064","kana_pref":"ｵｵｲﾀｹﾝ","kana_city":"ｳｽｷｼ","kana_address":"ﾌｶﾀ","pref":"大分県","city":"臼杵市","address":"深田"},
{"zip_code":"8750053","kana_pref":"ｵｵｲﾀｹﾝ","kana_city":"ｳｽｷｼ","kana_address":"ﾌｸﾗ","pref":"大分県","city":"臼杵市","address":"福良"},
{"zip_code":"8750081","kana_pref":"ｵｵｲﾀｹﾝ","kana_city":"ｳｽｷｼ","kana_address":"ﾌｼﾞｶﾜﾁ","pref":"大分県","city":"臼杵市","address":"藤河内"},
{"zip_code":"8750061","kana_pref":"ｵｵｲﾀｹﾝ","kana_city":"ｳｽｷｼ","kana_address":"ﾏｴﾀﾞ","pref":"大分県","city":"臼杵市","address":"前田"},
{"zip_code":"8750063","kana_pref":"ｵｵｲﾀｹﾝ","kana_city":"ｳｽｷｼ","kana_address":"ﾓﾁﾂﾞｷ","pref":"大分県","city":"臼杵市","address":"望月"},
{"zip_code":"8750071","kana_pref":"ｵｵｲﾀｹﾝ","kana_city":"ｳｽｷｼ","kana_address":"ﾖｼｵﾉ","pref":"大分県","city":"臼杵市","address":"吉小野"}]}