{"zip_code":[
{"zip_code":"8760000","kana_pref":"ｵｵｲﾀｹﾝ","kana_city":"ｻｲｷｼ","kana_address":"","pref":"大分県","city":"佐伯市","address":""},
{"zip_code":"8761513","kana_pref":"ｵｵｲﾀｹﾝ","kana_city":"ｻｲｷｼ","kana_address":"ｱｵﾔﾏ","pref":"大分県","city":"佐伯市","address":"青山"},
{"zip_code":"8760004","kana_pref":"ｵｵｲﾀｹﾝ","kana_city":"ｻｲｷｼ","kana_address":"ｱﾗｼﾞﾛｳﾗ","pref":"大分県","city":"佐伯市","address":"荒網代浦"},
{"zip_code":"8760025","kana_pref":"ｵｵｲﾀｹﾝ","kana_city":"ｻｲｷｼ","kana_address":"ｲｹﾀﾞ","pref":"大分県","city":"佐伯市","address":"池田"},
{"zip_code":"8760833","kana_pref":"ｵｵｲﾀｹﾝ","kana_city":"ｻｲｷｼ","kana_address":"ｲｹﾌﾈﾏﾁ","pref":"大分県","city":"佐伯市","address":"池船町"},
{"zip_code":"8760005","kana_pref":"ｵｵｲﾀｹﾝ","kana_city":"ｻｲｷｼ","kana_address":"ｲｼﾏｳﾗ","pref":"大分県","city":"佐伯市","address":"石間浦"},
{"zip_code":"8760042","kana_pref":"ｵｵｲﾀｹﾝ","kana_city":"ｻｲｷｼ","kana_address":"ｲﾅｶﾞｷ","pref":"大分県","city":"佐伯市","address":"稲垣"},
{"zip_code":"8760849","kana_pref":"ｵｵｲﾀｹﾝ","kana_city":"ｻｲｷｼ","kana_address":"ｳｽﾂﾎﾞ","pref":"大分県","city":"佐伯市","address":"臼坪"},
{"zip_code":"8760845","kana_pref":"ｵｵｲﾀｹﾝ","kana_city":"ｻｲｷｼ","kana_address":"ｳﾁﾏﾁ","pref":"大分県","city":"佐伯市","address":"内町"},
{"zip_code":"8760803","kana_pref":"ｵｵｲﾀｹﾝ","kana_city":"ｻｲｷｼ","kana_address":"ｴｷﾏｴ","pref":"大分県","city":"佐伯市","address":"駅前"},
{"zip_code":"8760016","kana_pref":"ｵｵｲﾀｹﾝ","kana_city":"ｻｲｷｼ","kana_address":"ｵｳｼﾞﾏﾙ","pref":"大分県","city":"佐伯市","address":"王子丸"},
{"zip_code":"8760036","kana_pref":"ｵｵｲﾀｹﾝ","kana_city":"ｻｲｷｼ","kana_address":"ｵｵｺｴ","pref":"大分県","city":"佐伯市","address":"大越"},
{"zip_code":"8760831","kana_pref":"ｵｵｲﾀｹﾝ","kana_city":"ｻｲｷｼ","kana_address":"ｵｵﾃﾏﾁ","pref":"大分県","city":"佐伯市","address":"大手町"},
{"zip_code":"8761105","kana_pref":"ｵｵｲﾀｹﾝ","kana_city":"ｻｲｷｼ","kana_address":"ｶｲｻﾞｷ","pref":"大分県","city":"佐伯市","address":"海崎"},
{"zip_code":"8760043","kana_pref":"ｵｵｲﾀｹﾝ","kana_city":"ｻｲｷｼ","kana_address":"ｶｼﾉ","pref":"大分県","city":"佐伯市","address":"樫野"},
{"zip_code":"8760806","kana_pref":"ｵｵｲﾀｹﾝ","kana_city":"ｻｲｷｼ","kana_address":"ｶｽｶﾞﾏﾁ","pref":"大分県","city":"佐伯市","address":"春日町"},
{"zip_code":"8761104","kana_pref":"ｵｵｲﾀｹﾝ","kana_city":"ｻｲｷｼ","kana_address":"ｶｽﾐｶﾞｳﾗ","pref":"大分県","city":"佐伯市","address":"霞ケ浦"},
{"zip_code":"8760008","kana_pref":"ｵｵｲﾀｹﾝ","kana_city":"ｻｲｷｼ","kana_address":"ｶﾀｶﾞﾐｳﾗ","pref":"大分県","city":"佐伯市","address":"片神浦"},
{"zip_code":"8761512","kana_pref":"ｵｵｲﾀｹﾝ","kana_city":"ｻｲｷｼ","kana_address":"ｶﾀﾀ","pref":"大分県","city":"佐伯市","address":"堅田"},
{"zip_code":"8760801","kana_pref":"ｵｵｲﾀｹﾝ","kana_city":"ｻｲｷｼ","kana_address":"ｶﾂﾞﾗﾐﾅﾄ","pref":"大分県","city":"佐伯市","address":"葛港"},
{"zip_code":"8762402","kana_pref":"ｵｵｲﾀｹﾝ","kana_city":"ｻｲｷｼ","kana_address":"ｶﾏｴｲﾉｸｼｳﾗ","pref":"大分県","city":"佐伯市","address":"蒲江猪串浦"},
{"zip_code":"8762202","kana_pref":"ｵｵｲﾀｹﾝ","kana_city":"ｻｲｷｼ","kana_address":"ｶﾏｴｵｳﾗ","pref":"大分県","city":"佐伯市","address":"蒲江尾浦"},
{"zip_code":"8762406","kana_pref":"ｵｵｲﾀｹﾝ","kana_city":"ｻｲｷｼ","kana_address":"ｶﾏｴｶｽﾞﾗﾊﾗｳﾗ","pref":"大分県","city":"佐伯市","address":"蒲江葛原浦"},
{"zip_code":"8762401","kana_pref":"ｵｵｲﾀｹﾝ","kana_city":"ｻｲｷｼ","kana_address":"ｶﾏｴｶﾏｴｳﾗ","pref":"大分県","city":"佐伯市","address":"蒲江蒲江浦"},
{"zip_code":"8762203","kana_pref":"ｵｵｲﾀｹﾝ","kana_city":"ｻｲｷｼ","kana_address":"ｶﾏｴｸｽﾓﾄｳﾗ","pref":"大分県","city":"佐伯市","address":"蒲江楠本浦"},
{"zip_code":"8762301","kana_pref":"ｵｵｲﾀｹﾝ","kana_city":"ｻｲｷｼ","kana_address":"ｶﾏｴﾀｹﾉｳﾗｺﾞｳﾁ","pref":"大分県","city":"佐伯市","address":"蒲江竹野浦河内"},
{"zip_code":"8762302","kana_pref":"ｵｵｲﾀｹﾝ","kana_city":"ｻｲｷｼ","kana_address":"ｶﾏｴﾆｼﾉｳﾗ","pref":"大分県","city":"佐伯市","address":"蒲江西野浦"},
{"zip_code":"8762403","kana_pref":"ｵｵｲﾀｹﾝ","kana_city":"ｻｲｷｼ","kana_address":"ｶﾏｴﾉﾉｶﾜﾁｳﾗ","pref":"大分県","city":"佐伯市","address":"蒲江野々河内浦"},
{"zip_code":"8762201","kana_pref":"ｵｵｲﾀｹﾝ","kana_city":"ｻｲｷｼ","kana_address":"ｶﾏｴﾊﾀﾉｳﾗ","pref":"大分県","city":"佐伯市","address":"蒲江畑野浦"},
{"zip_code":"8762407","kana_pref":"ｵｵｲﾀｹﾝ","kana_city":"ｻｲｷｼ","kana_address":"ｶﾏｴﾊﾄｳﾂﾞｳﾗ","pref":"大分県","city":"佐伯市","address":"蒲江波当津浦"},
{"zip_code":"8762405","kana_pref":"ｵｵｲﾀｹﾝ","kana_city":"ｻｲｷｼ","kana_address":"ｶﾏｴﾏﾙｲﾁﾋﾞｳﾗ","pref":"大分県","city":"佐伯市","address":"蒲江丸市尾浦"},
{"zip_code":"8762404","kana_pref":"ｵｵｲﾀｹﾝ","kana_city":"ｻｲｷｼ","kana_address":"ｶﾏｴﾓﾘｻﾞｷｳﾗ","pref":"大分県","city":"佐伯市","address":"蒲江森崎浦"},
{"zip_code":"8760045","kana_pref":"ｵｵｲﾀｹﾝ","kana_city":"ｻｲｷｼ","kana_address":"ｶﾐｵｶ","pref":"大分県","city":"佐伯市","address":"上岡"},
{"zip_code":"8760027","kana_pref":"ｵｵｲﾀｹﾝ","kana_city":"ｻｲｷｼ","kana_address":"ｶﾐｸﾍﾞ","pref":"大分県","city":"佐伯市","address":"上久部"},
{"zip_code":"8760034","kana_pref":"ｵｵｲﾀｹﾝ","kana_city":"ｻｲｷｼ","kana_address":"ｶﾐｼﾞｮｳ","pref":"大分県","city":"佐伯市","address":"上城"},
{"zip_code":"8760022","kana_pref":"ｵｵｲﾀｹﾝ","kana_city":"ｻｲｷｼ","kana_address":"ｶﾐﾅﾀﾞ","pref":"大分県","city":"佐伯市","address":"上灘"},
{"zip_code":"8761101","kana_pref":"ｵｵｲﾀｹﾝ","kana_city":"ｻｲｷｼ","kana_address":"ｶﾘｳ","pref":"大分県","city":"佐伯市","address":"狩生"},
{"zip_code":"8760031","kana_pref":"ｵｵｲﾀｹﾝ","kana_city":"ｻｲｷｼ","kana_address":"ｶﾜﾊﾞﾙ","pref":"大分県","city":"佐伯市","address":"川原"},
{"zip_code":"8760804","kana_pref":"ｵｵｲﾀｹﾝ","kana_city":"ｻｲｷｼ","kana_address":"ｶﾞﾝﾀﾞ","pref":"大分県","city":"佐伯市","address":"蟹田"},
{"zip_code":"8760035","kana_pref":"ｵｵｲﾀｹﾝ","kana_city":"ｻｲｷｼ","kana_address":"ｷｼｶﾞﾜﾁ","pref":"大分県","city":"佐伯市","address":"岸河内"},
{"zip_code":"8762121","kana_pref":"ｵｵｲﾀｹﾝ","kana_city":"ｻｲｷｼ","kana_address":"ｷﾀﾁ","pref":"大分県","city":"佐伯市","address":"木立"},
{"zip_code":"8760007","kana_pref":"ｵｵｲﾀｹﾝ","kana_city":"ｻｲｷｼ","kana_address":"ｸﾎﾞｳﾗ","pref":"大分県","city":"佐伯市","address":"久保浦"},
{"zip_code":"8760841","kana_pref":"ｵｵｲﾀｹﾝ","kana_city":"ｻｲｷｼ","kana_address":"ｸﾙｼﾏﾏﾁ","pref":"大分県","city":"佐伯市","address":"来島町"},
{"zip_code":"8760011","kana_pref":"ｵｵｲﾀｹﾝ","kana_city":"ｻｲｷｼ","kana_address":"ｻｶﾉｳﾗ","pref":"大分県","city":"佐伯市","address":"坂の浦"},
{"zip_code":"8760052","kana_pref":"ｵｵｲﾀｹﾝ","kana_city":"ｻｲｷｼ","kana_address":"ｻｶﾔﾏ","pref":"大分県","city":"佐伯市","address":"坂山"},
{"zip_code":"8760003","kana_pref":"ｵｵｲﾀｹﾝ","kana_city":"ｻｲｷｼ","kana_address":"ｼｳﾁｳﾗ","pref":"大分県","city":"佐伯市","address":"塩内浦"},
{"zip_code":"8760024","kana_pref":"ｵｵｲﾀｹﾝ","kana_city":"ｻｲｷｼ","kana_address":"ｼﾓｸﾍﾞ","pref":"大分県","city":"佐伯市","address":"下久部"},
{"zip_code":"8760033","kana_pref":"ｵｵｲﾀｹﾝ","kana_city":"ｻｲｷｼ","kana_address":"ｼﾓｼﾞｮｳ","pref":"大分県","city":"佐伯市","address":"下城"},
{"zip_code":"8760848","kana_pref":"ｵｵｲﾀｹﾝ","kana_city":"ｻｲｷｼ","kana_address":"ｼﾞｮｳｶﾋｶﾞｼﾏﾁ","pref":"大分県","city":"佐伯市","address":"城下東町"},
{"zip_code":"8760847","kana_pref":"ｵｵｲﾀｹﾝ","kana_city":"ｻｲｷｼ","kana_address":"ｼﾞｮｳｶﾆｼﾏﾁ","pref":"大分県","city":"佐伯市","address":"城下西町"},
{"zip_code":"8760063","kana_pref":"ｵｵｲﾀｹﾝ","kana_city":"ｻｲｷｼ","kana_address":"ｼﾞｮｳｾｲｸ","pref":"大分県","city":"佐伯市","address":"城西区"},
{"zip_code":"8760846","kana_pref":"ｵｵｲﾀｹﾝ","kana_city":"ｻｲｷｼ","kana_address":"ｼﾞｮｳﾄｳﾏﾁ","pref":"大分県","city":"佐伯市","address":"城東町"},
{"zip_code":"8760834","kana_pref":"ｵｵｲﾀｹﾝ","kana_city":"ｻｲｷｼ","kana_address":"ｼﾞｮｳﾅﾝﾏﾁ","pref":"大分県","city":"佐伯市","address":"城南町"},
{"zip_code":"8760026","kana_pref":"ｵｵｲﾀｹﾝ","kana_city":"ｻｲｷｼ","kana_address":"ｼｮｳﾅﾝ","pref":"大分県","city":"佐伯市","address":"匠南"},
{"zip_code":"8760014","kana_pref":"ｵｵｲﾀｹﾝ","kana_city":"ｻｲｷｼ","kana_address":"ｼﾗｶﾀ","pref":"大分県","city":"佐伯市","address":"白方"},
{"zip_code":"8760824","kana_pref":"ｵｵｲﾀｹﾝ","kana_city":"ｻｲｷｼ","kana_address":"ｼﾝﾒｼﾞﾏ","pref":"大分県","city":"佐伯市","address":"新女島"},
{"zip_code":"8760832","kana_pref":"ｵｵｲﾀｹﾝ","kana_city":"ｻｲｷｼ","kana_address":"ｾﾝﾄﾞｳﾏﾁ","pref":"大分県","city":"佐伯市","address":"船頭町"},
{"zip_code":"8760044","kana_pref":"ｵｵｲﾀｹﾝ","kana_city":"ｻｲｷｼ","kana_address":"ﾀｶﾊﾞﾀ","pref":"大分県","city":"佐伯市","address":"高畠"},
{"zip_code":"8760053","kana_pref":"ｵｵｲﾀｹﾝ","kana_city":"ｻｲｷｼ","kana_address":"ﾀｶﾊﾞﾀｹ","pref":"大分県","city":"佐伯市","address":"高畑"},
{"zip_code":"8760001","kana_pref":"ｵｵｲﾀｹﾝ","kana_city":"ｻｲｷｼ","kana_address":"ﾀｶﾏﾂｳﾗ","pref":"大分県","city":"佐伯市","address":"高松浦"},
{"zip_code":"8760807","kana_pref":"ｵｵｲﾀｹﾝ","kana_city":"ｻｲｷｼ","kana_address":"ﾀﾉｳﾗﾏﾁ","pref":"大分県","city":"佐伯市","address":"田の浦町"},
{"zip_code":"8760047","kana_pref":"ｵｵｲﾀｹﾝ","kana_city":"ｻｲｷｼ","kana_address":"ﾂﾙｵｶﾆｼﾏﾁ","pref":"大分県","city":"佐伯市","address":"鶴岡西町"},
{"zip_code":"8760835","kana_pref":"ｵｵｲﾀｹﾝ","kana_city":"ｻｲｷｼ","kana_address":"ﾂﾙｵｶﾏﾁ","pref":"大分県","city":"佐伯市","address":"鶴岡町"},
{"zip_code":"8760012","kana_pref":"ｵｵｲﾀｹﾝ","kana_city":"ｻｲｷｼ","kana_address":"ﾂﾙﾐ","pref":"大分県","city":"佐伯市","address":"鶴望"},
{"zip_code":"8761204","kana_pref":"ｵｵｲﾀｹﾝ","kana_city":"ｻｲｷｼ","kana_address":"ﾂﾙﾐｱﾘｱｹｳﾗ","pref":"大分県","city":"佐伯市","address":"鶴見有明浦"},
{"zip_code":"8761313","kana_pref":"ｵｵｲﾀｹﾝ","kana_city":"ｻｲｷｼ","kana_address":"ﾂﾙﾐｵｵｼﾏ","pref":"大分県","city":"佐伯市","address":"鶴見大島"},
{"zip_code":"8761203","kana_pref":"ｵｵｲﾀｹﾝ","kana_city":"ｻｲｷｼ","kana_address":"ﾂﾙﾐｵｷﾏﾂｳﾗ","pref":"大分県","city":"佐伯市","address":"鶴見沖松浦"},
{"zip_code":"8761312","kana_pref":"ｵｵｲﾀｹﾝ","kana_city":"ｻｲｷｼ","kana_address":"ﾂﾙﾐｶｼﾞﾖｾｳﾗ","pref":"大分県","city":"佐伯市","address":"鶴見梶寄浦"},
{"zip_code":"8761202","kana_pref":"ｵｵｲﾀｹﾝ","kana_city":"ｻｲｷｼ","kana_address":"ﾂﾙﾐｼﾞﾏﾂｳﾗ","pref":"大分県","city":"佐伯市","address":"鶴見地松浦"},
{"zip_code":"8761311","kana_pref":"ｵｵｲﾀｹﾝ","kana_city":"ｻｲｷｼ","kana_address":"ﾂﾙﾐﾀﾝｶﾞｳﾗ","pref":"大分県","city":"佐伯市","address":"鶴見丹賀浦"},
{"zip_code":"8761306","kana_pref":"ｵｵｲﾀｹﾝ","kana_city":"ｻｲｷｼ","kana_address":"ﾂﾙﾐﾅｶｺﾞｼｳﾗ","pref":"大分県","city":"佐伯市","address":"鶴見中越浦"},
{"zip_code":"8761206","kana_pref":"ｵｵｲﾀｹﾝ","kana_city":"ｻｲｷｼ","kana_address":"ﾂﾙﾐﾅｶｺﾞｼｳﾗ","pref":"大分県","city":"佐伯市","address":"鶴見中越浦"},
{"zip_code":"8761205","kana_pref":"ｵｵｲﾀｹﾝ","kana_city":"ｻｲｷｼ","kana_address":"ﾂﾙﾐﾊｲﾃﾞｳﾗ","pref":"大分県","city":"佐伯市","address":"鶴見羽出浦"},
{"zip_code":"8761201","kana_pref":"ｵｵｲﾀｹﾝ","kana_city":"ｻｲｷｼ","kana_address":"ﾂﾙﾐﾌｷｳﾗ","pref":"大分県","city":"佐伯市","address":"鶴見吹浦"},
{"zip_code":"8760811","kana_pref":"ｵｵｲﾀｹﾝ","kana_city":"ｻｲｷｼ","kana_address":"ﾂﾙﾔﾏﾁ","pref":"大分県","city":"佐伯市","address":"鶴谷町"},
{"zip_code":"8760051","kana_pref":"ｵｵｲﾀｹﾝ","kana_city":"ｻｲｷｼ","kana_address":"ﾃﾗﾀﾞ","pref":"大分県","city":"佐伯市","address":"寺田"},
{"zip_code":"8760851","kana_pref":"ｵｵｲﾀｹﾝ","kana_city":"ｻｲｷｼ","kana_address":"ﾄｷﾜﾋｶﾞｼﾏﾁ","pref":"大分県","city":"佐伯市","address":"常盤東町"},
{"zip_code":"8760857","kana_pref":"ｵｵｲﾀｹﾝ","kana_city":"ｻｲｷｼ","kana_address":"ﾄｷﾜﾆｼﾏﾁ","pref":"大分県","city":"佐伯市","address":"常盤西町"},
{"zip_code":"8760852","kana_pref":"ｵｵｲﾀｹﾝ","kana_city":"ｻｲｷｼ","kana_address":"ﾄｷﾜﾐﾅﾐﾏﾁ","pref":"大分県","city":"佐伯市","address":"常盤南町"},
{"zip_code":"8760812","kana_pref":"ｵｵｲﾀｹﾝ","kana_city":"ｻｲｷｼ","kana_address":"ﾅｶｴﾏﾁ","pref":"大分県","city":"佐伯市","address":"中江町"},
{"zip_code":"8760843","kana_pref":"ｵｵｲﾀｹﾝ","kana_city":"ｻｲｷｼ","kana_address":"ﾅｶﾉｼﾏ","pref":"大分県","city":"佐伯市","address":"中の島"},
{"zip_code":"8760842","kana_pref":"ｵｵｲﾀｹﾝ","kana_city":"ｻｲｷｼ","kana_address":"ﾅｶﾉｼﾏﾋｶﾞｼﾏﾁ","pref":"大分県","city":"佐伯市","address":"中ノ島東町"},
{"zip_code":"8760853","kana_pref":"ｵｵｲﾀｹﾝ","kana_city":"ｻｲｷｼ","kana_address":"ﾅｶﾑﾗﾋｶﾞｼﾏﾁ","pref":"大分県","city":"佐伯市","address":"中村東町"},
{"zip_code":"8760855","kana_pref":"ｵｵｲﾀｹﾝ","kana_city":"ｻｲｷｼ","kana_address":"ﾅｶﾑﾗﾆｼﾏﾁ","pref":"大分県","city":"佐伯市","address":"中村西町"},
{"zip_code":"8760854","kana_pref":"ｵｵｲﾀｹﾝ","kana_city":"ｻｲｷｼ","kana_address":"ﾅｶﾑﾗﾐﾅﾐﾏﾁ","pref":"大分県","city":"佐伯市","address":"中村南町"},
{"zip_code":"8760856","kana_pref":"ｵｵｲﾀｹﾝ","kana_city":"ｻｲｷｼ","kana_address":"ﾅｶﾑﾗｷﾀﾏﾁ","pref":"大分県","city":"佐伯市","address":"中村北町"},
{"zip_code":"8760032","kana_pref":"ｵｵｲﾀｹﾝ","kana_city":"ｻｲｷｼ","kana_address":"ﾅｶﾔﾏ","pref":"大分県","city":"佐伯市","address":"中山"},
{"zip_code":"8760813","kana_pref":"ｵｵｲﾀｹﾝ","kana_city":"ｻｲｷｼ","kana_address":"ﾅｶﾞｼﾏﾏﾁ","pref":"大分県","city":"佐伯市","address":"長島町"},
{"zip_code":"8760041","kana_pref":"ｵｵｲﾀｹﾝ","kana_city":"ｻｲｷｼ","kana_address":"ﾅｶﾞｾ","pref":"大分県","city":"佐伯市","address":"長瀬"},
{"zip_code":"8761511","kana_pref":"ｵｵｲﾀｹﾝ","kana_city":"ｻｲｷｼ","kana_address":"ﾅｶﾞﾗ","pref":"大分県","city":"佐伯市","address":"長良"},
{"zip_code":"8760836","kana_pref":"ｵｵｲﾀｹﾝ","kana_city":"ｻｲｷｼ","kana_address":"ﾆｼﾀﾞﾆﾏﾁ","pref":"大分県","city":"佐伯市","address":"西谷町"},
{"zip_code":"8760822","kana_pref":"ｵｵｲﾀｹﾝ","kana_city":"ｻｲｷｼ","kana_address":"ﾆｼﾊﾏ","pref":"大分県","city":"佐伯市","address":"西浜"},
{"zip_code":"8760815","kana_pref":"ｵｵｲﾀｹﾝ","kana_city":"ｻｲｷｼ","kana_address":"ﾉｵｶﾏﾁ","pref":"大分県","city":"佐伯市","address":"野岡町"},
{"zip_code":"8760017","kana_pref":"ｵｵｲﾀｹﾝ","kana_city":"ｻｲｷｼ","kana_address":"ﾉｸﾞﾁ","pref":"大分県","city":"佐伯市","address":"野口"},
{"zip_code":"8760037","kana_pref":"ｵｵｲﾀｹﾝ","kana_city":"ｻｲｷｼ","kana_address":"ﾊｾ","pref":"大分県","city":"佐伯市","address":"長谷"},
{"zip_code":"8761106","kana_pref":"ｵｵｲﾀｹﾝ","kana_city":"ｻｲｷｼ","kana_address":"ﾋｱﾅ","pref":"大分県","city":"佐伯市","address":"戸穴"},
{"zip_code":"8760021","kana_pref":"ｵｵｲﾀｹﾝ","kana_city":"ｻｲｷｼ","kana_address":"ﾋｶﾞｼﾅﾀﾞ","pref":"大分県","city":"佐伯市","address":"東灘"},
{"zip_code":"8760821","kana_pref":"ｵｵｲﾀｹﾝ","kana_city":"ｻｲｷｼ","kana_address":"ﾋｶﾞｼﾊﾏ","pref":"大分県","city":"佐伯市","address":"東浜"},
{"zip_code":"8760814","kana_pref":"ｵｵｲﾀｹﾝ","kana_city":"ｻｲｷｼ","kana_address":"ﾋｶﾞｼﾏﾁ","pref":"大分県","city":"佐伯市","address":"東町"},
{"zip_code":"8760802","kana_pref":"ｵｵｲﾀｹﾝ","kana_city":"ｻｲｷｼ","kana_address":"ﾋﾉﾃﾞﾏﾁ","pref":"大分県","city":"佐伯市","address":"日の出町"},
{"zip_code":"8760002","kana_pref":"ｵｵｲﾀｹﾝ","kana_city":"ｻｲｷｼ","kana_address":"ﾋｭｳｶﾞﾄﾞﾏﾘｳﾗ","pref":"大分県","city":"佐伯市","address":"日向泊浦"},
{"zip_code":"8760018","kana_pref":"ｵｵｲﾀｹﾝ","kana_city":"ｻｲｷｼ","kana_address":"ﾋﾗ","pref":"大分県","city":"佐伯市","address":"平"},
{"zip_code":"8760805","kana_pref":"ｵｵｲﾀｹﾝ","kana_city":"ｻｲｷｼ","kana_address":"ﾋﾗﾉﾏﾁ","pref":"大分県","city":"佐伯市","address":"平野町"},
{"zip_code":"8761102","kana_pref":"ｵｵｲﾀｹﾝ","kana_city":"ｻｲｷｼ","kana_address":"ﾌﾀﾊﾞｴ","pref":"大分県","city":"佐伯市","address":"二栄"},
{"zip_code":"8760062","kana_pref":"ｵｵｲﾀｹﾝ","kana_city":"ｻｲｷｼ","kana_address":"ﾌﾙｲﾁ","pref":"大分県","city":"佐伯市","address":"古市"},
{"zip_code":"8760023","kana_pref":"ｵｵｲﾀｹﾝ","kana_city":"ｻｲｷｼ","kana_address":"ﾍﾋﾞｻﾞｷ","pref":"大分県","city":"佐伯市","address":"蛇崎"},
{"zip_code":"8760844","kana_pref":"ｵｵｲﾀｹﾝ","kana_city":"ｻｲｷｼ","kana_address":"ﾎｳｼﾞﾏ","pref":"大分県","city":"佐伯市","address":"向島"},
{"zip_code":"8760211","kana_pref":"ｵｵｲﾀｹﾝ","kana_city":"ｻｲｷｼ","kana_address":"ﾎﾝｼﾞｮｳｲﾉｳｴ","pref":"大分県","city":"佐伯市","address":"本匠井ノ上"},
{"zip_code":"8760212","kana_pref":"ｵｵｲﾀｹﾝ","kana_city":"ｻｲｷｼ","kana_address":"ﾎﾝｼﾞｮｳｲﾝﾋﾞ","pref":"大分県","city":"佐伯市","address":"本匠因尾"},
{"zip_code":"8760204","kana_pref":"ｵｵｲﾀｹﾝ","kana_city":"ｻｲｷｼ","kana_address":"ﾎﾝｼﾞｮｳｳﾂﾂ","pref":"大分県","city":"佐伯市","address":"本匠宇津々"},
{"zip_code":"8760206","kana_pref":"ｵｵｲﾀｹﾝ","kana_city":"ｻｲｷｼ","kana_address":"ﾎﾝｼﾞｮｳｵｶﾞﾜ","pref":"大分県","city":"佐伯市","address":"本匠小川"},
{"zip_code":"8760215","kana_pref":"ｵｵｲﾀｹﾝ","kana_city":"ｻｲｷｼ","kana_address":"ﾎﾝｼﾞｮｳｵﾅｶﾞﾗ","pref":"大分県","city":"佐伯市","address":"本匠小半"},
{"zip_code":"8760202","kana_pref":"ｵｵｲﾀｹﾝ","kana_city":"ｻｲｷｼ","kana_address":"ﾎﾝｼﾞｮｳｶｻｶｹ","pref":"大分県","city":"佐伯市","address":"本匠笠掛"},
{"zip_code":"8760201","kana_pref":"ｵｵｲﾀｹﾝ","kana_city":"ｻｲｷｼ","kana_address":"ﾎﾝｼﾞｮｳｶｻﾞﾄ","pref":"大分県","city":"佐伯市","address":"本匠風戸"},
{"zip_code":"8760214","kana_pref":"ｵｵｲﾀｹﾝ","kana_city":"ｻｲｷｼ","kana_address":"ﾎﾝｼﾞｮｳｺｳﾂﾞｶﾞﾜ","pref":"大分県","city":"佐伯市","address":"本匠上津川"},
{"zip_code":"8760213","kana_pref":"ｵｵｲﾀｹﾝ","kana_city":"ｻｲｷｼ","kana_address":"ﾎﾝｼﾞｮｳﾄﾞｳﾉﾏ","pref":"大分県","city":"佐伯市","address":"本匠堂ノ間"},
{"zip_code":"8760205","kana_pref":"ｵｵｲﾀｹﾝ","kana_city":"ｻｲｷｼ","kana_address":"ﾎﾝｼﾞｮｳﾊｷ","pref":"大分県","city":"佐伯市","address":"本匠波寄"},
{"zip_code":"8760203","kana_pref":"ｵｵｲﾀｹﾝ","kana_city":"ｻｲｷｼ","kana_address":"ﾎﾝｼﾞｮｳﾐﾏﾀ","pref":"大分県","city":"佐伯市","address":"本匠三股"},
{"zip_code":"8760216","kana_pref":"ｵｵｲﾀｹﾝ","kana_city":"ｻｲｷｼ","kana_address":"ﾎﾝｼﾞｮｳﾔﾏﾌﾞ","pref":"大分県","city":"佐伯市","address":"本匠山部"},
{"zip_code":"8760823","kana_pref":"ｵｵｲﾀｹﾝ","kana_city":"ｻｲｷｼ","kana_address":"ﾒｼﾞﾏ","pref":"大分県","city":"佐伯市","address":"女島"},
{"zip_code":"8760825","kana_pref":"ｵｵｲﾀｹﾝ","kana_city":"ｻｲｷｼ","kana_address":"ﾒｼﾞﾏﾀﾞﾝﾁ","pref":"大分県","city":"佐伯市","address":"女島団地"},
{"zip_code":"8760015","kana_pref":"ｵｵｲﾀｹﾝ","kana_city":"ｻｲｷｼ","kana_address":"ﾓﾓﾀﾆ","pref":"大分県","city":"佐伯市","address":"百谷"},
{"zip_code":"8761103","kana_pref":"ｵｵｲﾀｹﾝ","kana_city":"ｻｲｷｼ","kana_address":"ﾓﾘｴ","pref":"大分県","city":"佐伯市","address":"護江"},
{"zip_code":"8760006","kana_pref":"ｵｵｲﾀｹﾝ","kana_city":"ｻｲｷｼ","kana_address":"ﾓﾘｺﾞｳﾗ","pref":"大分県","city":"佐伯市","address":"守後浦"},
{"zip_code":"8760061","kana_pref":"ｵｵｲﾀｹﾝ","kana_city":"ｻｲｷｼ","kana_address":"ﾓﾝｾﾞ","pref":"大分県","city":"佐伯市","address":"門前"},
{"zip_code":"8760064","kana_pref":"ｵｵｲﾀｹﾝ","kana_city":"ｻｲｷｼ","kana_address":"ﾔｻｺｸ","pref":"大分県","city":"佐伯市","address":"八迫区"},
{"zip_code":"8760111","kana_pref":"ｵｵｲﾀｹﾝ","kana_city":"ｻｲｷｼ","kana_address":"ﾔﾖｲｲｻｷ","pref":"大分県","city":"佐伯市","address":"弥生井崎"},
{"zip_code":"8760125","kana_pref":"ｵｵｲﾀｹﾝ","kana_city":"ｻｲｷｼ","kana_address":"ﾔﾖｲｴﾗ","pref":"大分県","city":"佐伯市","address":"弥生江良"},
{"zip_code":"8760101","kana_pref":"ｵｵｲﾀｹﾝ","kana_city":"ｻｲｷｼ","kana_address":"ﾔﾖｲｵｵｻｶﾓﾄ","pref":"大分県","city":"佐伯市","address":"弥生大坂本"},
{"zip_code":"8760112","kana_pref":"ｵｵｲﾀｹﾝ","kana_city":"ｻｲｷｼ","kana_address":"ﾔﾖｲｶﾐｵｸﾞﾗ","pref":"大分県","city":"佐伯市","address":"弥生上小倉"},
{"zip_code":"8760122","kana_pref":"ｵｵｲﾀｹﾝ","kana_city":"ｻｲｷｼ","kana_address":"ﾔﾖｲｶﾝﾀ","pref":"大分県","city":"佐伯市","address":"弥生門田"},
{"zip_code":"8760121","kana_pref":"ｵｵｲﾀｹﾝ","kana_city":"ｻｲｷｼ","kana_address":"ﾔﾖｲｺﾀﾞ","pref":"大分県","city":"佐伯市","address":"弥生小田"},
{"zip_code":"8760124","kana_pref":"ｵｵｲﾀｹﾝ","kana_city":"ｻｲｷｼ","kana_address":"ﾔﾖｲｻｲﾀ","pref":"大分県","city":"佐伯市","address":"弥生細田"},
{"zip_code":"8760102","kana_pref":"ｵｵｲﾀｹﾝ","kana_city":"ｻｲｷｼ","kana_address":"ﾔﾖｲｼｬｸﾏ","pref":"大分県","city":"佐伯市","address":"弥生尺間"},
{"zip_code":"8760126","kana_pref":"ｵｵｲﾀｹﾝ","kana_city":"ｻｲｷｼ","kana_address":"ﾔﾖｲﾋｻｷﾞｳﾁ","pref":"大分県","city":"佐伯市","address":"弥生提内"},
{"zip_code":"8760123","kana_pref":"ｵｵｲﾀｹﾝ","kana_city":"ｻｲｷｼ","kana_address":"ﾔﾖｲﾋﾗｲ","pref":"大分県","city":"佐伯市","address":"弥生平井"},
{"zip_code":"8760113","kana_pref":"ｵｵｲﾀｹﾝ","kana_city":"ｻｲｷｼ","kana_address":"ﾔﾖｲﾔﾏﾅｼ","pref":"大分県","city":"佐伯市","address":"弥生山梨子"},
{"zip_code":"8760103","kana_pref":"ｵｵｲﾀｹﾝ","kana_city":"ｻｲｷｼ","kana_address":"ﾔﾖｲﾕｶｷﾞ","pref":"大分県","city":"佐伯市","address":"弥生床木"},
{"zip_code":"8761402","kana_pref":"ｵｵｲﾀｹﾝ","kana_city":"ｻｲｷｼ","kana_address":"ﾖﾉｳﾂﾞｲﾛﾘｳﾗ","pref":"大分県","city":"佐伯市","address":"米水津色利浦"},
{"zip_code":"8761401","kana_pref":"ｵｵｲﾀｹﾝ","kana_city":"ｻｲｷｼ","kana_address":"ﾖﾉｳﾂﾞｳﾗｼﾛｳﾗ","pref":"大分県","city":"佐伯市","address":"米水津浦代浦"},
{"zip_code":"8761301","kana_pref":"ｵｵｲﾀｹﾝ","kana_city":"ｻｲｷｼ","kana_address":"ﾖﾉｳﾂﾞｳﾗｼﾛｳﾗ","pref":"大分県","city":"佐伯市","address":"米水津浦代浦"},
{"zip_code":"8761404","kana_pref":"ｵｵｲﾀｹﾝ","kana_city":"ｻｲｷｼ","kana_address":"ﾖﾉｳﾂﾞｺｳﾗ","pref":"大分県","city":"佐伯市","address":"米水津小浦"},
{"zip_code":"8761405","kana_pref":"ｵｵｲﾀｹﾝ","kana_city":"ｻｲｷｼ","kana_address":"ﾖﾉｳﾂﾞﾀｹﾉｳﾗ","pref":"大分県","city":"佐伯市","address":"米水津竹野浦"},
{"zip_code":"8761403","kana_pref":"ｵｵｲﾀｹﾝ","kana_city":"ｻｲｷｼ","kana_address":"ﾖﾉｳﾂﾞﾐﾔﾉｳﾗ","pref":"大分県","city":"佐伯市","address":"米水津宮野浦"},
{"zip_code":"8760013","kana_pref":"ｵｵｲﾀｹﾝ","kana_city":"ｻｲｷｼ","kana_address":"ﾜｶﾐﾔﾏﾁ","pref":"大分県","city":"佐伯市","address":"若宮町"},
{"zip_code":"8760046","kana_pref":"ｵｵｲﾀｹﾝ","kana_city":"ｻｲｷｼ","kana_address":"ﾜｷ","pref":"大分県","city":"佐伯市","address":"脇"}]}