{"zip_code":[
{"zip_code":"8780000","kana_pref":"ｵｵｲﾀｹﾝ","kana_city":"ﾀｹﾀｼ","kana_address":"","pref":"大分県","city":"竹田市","address":""},
{"zip_code":"8780011","kana_pref":"ｵｵｲﾀｹﾝ","kana_city":"ﾀｹﾀｼ","kana_address":"ｱｲｱｲ","pref":"大分県","city":"竹田市","address":"会々"},
{"zip_code":"8780021","kana_pref":"ｵｵｲﾀｹﾝ","kana_city":"ﾀｹﾀｼ","kana_address":"ｱﾅｲｻﾞｺ","pref":"大分県","city":"竹田市","address":"穴井迫"},
{"zip_code":"8780153","kana_pref":"ｵｵｲﾀｹﾝ","kana_city":"ﾀｹﾀｼ","kana_address":"ｲﾁﾓﾁ","pref":"大分県","city":"竹田市","address":"市用"},
{"zip_code":"8780022","kana_pref":"ｵｵｲﾀｹﾝ","kana_city":"ﾀｹﾀｼ","kana_address":"ｲﾜｾ","pref":"大分県","city":"竹田市","address":"岩瀬"},
{"zip_code":"8780031","kana_pref":"ｵｵｲﾀｹﾝ","kana_city":"ﾀｹﾀｼ","kana_address":"ｲﾜﾓﾄ","pref":"大分県","city":"竹田市","address":"岩本"},
{"zip_code":"8780001","kana_pref":"ｵｵｲﾀｹﾝ","kana_city":"ﾀｹﾀｼ","kana_address":"ｳｴｷ","pref":"大分県","city":"竹田市","address":"植木"},
{"zip_code":"8780002","kana_pref":"ｵｵｲﾀｹﾝ","kana_city":"ﾀｹﾀｼ","kana_address":"ｴﾀﾞ","pref":"大分県","city":"竹田市","address":"枝"},
{"zip_code":"8780032","kana_pref":"ｵｵｲﾀｹﾝ","kana_city":"ﾀｹﾀｼ","kana_address":"ｵｵﾀ","pref":"大分県","city":"竹田市","address":"太田"},
{"zip_code":"8780141","kana_pref":"ｵｵｲﾀｹﾝ","kana_city":"ﾀｹﾀｼ","kana_address":"ｵｶﾞﾜ","pref":"大分県","city":"竹田市","address":"小川"},
{"zip_code":"8780003","kana_pref":"ｵｵｲﾀｹﾝ","kana_city":"ﾀｹﾀｼ","kana_address":"ｶﾀｶｾ","pref":"大分県","city":"竹田市","address":"片ケ瀬"},
{"zip_code":"8780161","kana_pref":"ｵｵｲﾀｹﾝ","kana_city":"ﾀｹﾀｼ","kana_address":"ｶﾐｻｶﾀﾞ","pref":"大分県","city":"竹田市","address":"上坂田"},
{"zip_code":"8780163","kana_pref":"ｵｵｲﾀｹﾝ","kana_city":"ﾀｹﾀｼ","kana_address":"ｶﾐﾊﾀ","pref":"大分県","city":"竹田市","address":"上畑"},
{"zip_code":"8780164","kana_pref":"ｵｵｲﾀｹﾝ","kana_city":"ﾀｹﾀｼ","kana_address":"ｶﾘｵﾉ","pref":"大分県","city":"竹田市","address":"刈小野"},
{"zip_code":"8780154","kana_pref":"ｵｵｲﾀｹﾝ","kana_city":"ﾀｹﾀｼ","kana_address":"ｶﾜﾄﾞｺ","pref":"大分県","city":"竹田市","address":"川床"},
{"zip_code":"8780143","kana_pref":"ｵｵｲﾀｹﾝ","kana_city":"ﾀｹﾀｼ","kana_address":"ｷﾊﾞﾙ","pref":"大分県","city":"竹田市","address":"城原"},
{"zip_code":"8780023","kana_pref":"ｵｵｲﾀｹﾝ","kana_city":"ﾀｹﾀｼ","kana_address":"ｷﾐｶﾞｿﾉ","pref":"大分県","city":"竹田市","address":"君ケ園"},
{"zip_code":"8780572","kana_pref":"ｵｵｲﾀｹﾝ","kana_city":"ﾀｹﾀｼ","kana_address":"ｸｼﾞｭｳﾉ","pref":"大分県","city":"竹田市","address":"九重野"},
{"zip_code":"8780202","kana_pref":"ｵｵｲﾀｹﾝ","kana_city":"ﾀｹﾀｼ","kana_address":"ｸｼﾞｭｳﾏﾁｱﾘｳｼﾞ","pref":"大分県","city":"竹田市","address":"久住町有氏"},
{"zip_code":"8780204","kana_pref":"ｵｵｲﾀｹﾝ","kana_city":"ﾀｹﾀｼ","kana_address":"ｸｼﾞｭｳﾏﾁｶﾔｷﾞ","pref":"大分県","city":"竹田市","address":"久住町栢木"},
{"zip_code":"8780201","kana_pref":"ｵｵｲﾀｹﾝ","kana_city":"ﾀｹﾀｼ","kana_address":"ｸｼﾞｭｳﾏﾁｸｼﾞｭｳ","pref":"大分県","city":"竹田市","address":"久住町久住"},
{"zip_code":"8780205","kana_pref":"ｵｵｲﾀｹﾝ","kana_city":"ﾀｹﾀｼ","kana_address":"ｸｼﾞｭｳﾏﾁｼﾗﾆ","pref":"大分県","city":"竹田市","address":"久住町白丹"},
{"zip_code":"8780206","kana_pref":"ｵｵｲﾀｹﾝ","kana_city":"ﾀｹﾀｼ","kana_address":"ｸｼﾞｭｳﾏﾁｿｴｶﾞﾂﾙ","pref":"大分県","city":"竹田市","address":"久住町添ケ津留"},
{"zip_code":"8780203","kana_pref":"ｵｵｲﾀｹﾝ","kana_city":"ﾀｹﾀｼ","kana_address":"ｸｼﾞｭｳﾏﾁﾌﾞﾂﾊﾞﾙ","pref":"大分県","city":"竹田市","address":"久住町仏原"},
{"zip_code":"8780256","kana_pref":"ｵｵｲﾀｹﾝ","kana_city":"ﾀｹﾀｼ","kana_address":"ｸﾎﾞ","pref":"大分県","city":"竹田市","address":"久保"},
{"zip_code":"8780156","kana_pref":"ｵｵｲﾀｹﾝ","kana_city":"ﾀｹﾀｼ","kana_address":"ｸﾎﾞ","pref":"大分県","city":"竹田市","address":"久保"},
{"zip_code":"8780576","kana_pref":"ｵｵｲﾀｹﾝ","kana_city":"ﾀｹﾀｼ","kana_address":"ｸﾗｷ","pref":"大分県","city":"竹田市","address":"倉木"},
{"zip_code":"8780574","kana_pref":"ｵｵｲﾀｹﾝ","kana_city":"ﾀｹﾀｼ","kana_address":"ｺｳﾊﾞﾙ","pref":"大分県","city":"竹田市","address":"神原"},
{"zip_code":"8780155","kana_pref":"ｵｵｲﾀｹﾝ","kana_city":"ﾀｹﾀｼ","kana_address":"ｼﾄﾁ","pref":"大分県","city":"竹田市","address":"志土知"},
{"zip_code":"8780151","kana_pref":"ｵｵｲﾀｹﾝ","kana_city":"ﾀｹﾀｼ","kana_address":"ｼﾓｻｶﾀﾞ","pref":"大分県","city":"竹田市","address":"下坂田"},
{"zip_code":"8780152","kana_pref":"ｵｵｲﾀｹﾝ","kana_city":"ﾀｹﾀｼ","kana_address":"ｼﾓｼﾄﾁ","pref":"大分県","city":"竹田市","address":"下志土知"},
{"zip_code":"8780162","kana_pref":"ｵｵｲﾀｹﾝ","kana_city":"ﾀｹﾀｼ","kana_address":"ｽﾐｶﾏﾄﾞ","pref":"大分県","city":"竹田市","address":"炭竈"},
{"zip_code":"8780575","kana_pref":"ｵｵｲﾀｹﾝ","kana_city":"ﾀｹﾀｼ","kana_address":"ﾀｲ","pref":"大分県","city":"竹田市","address":"田井"},
{"zip_code":"8780144","kana_pref":"ｵｵｲﾀｹﾝ","kana_city":"ﾀｹﾀｼ","kana_address":"ﾀｶﾌﾞｼ","pref":"大分県","city":"竹田市","address":"高伏"},
{"zip_code":"8780013","kana_pref":"ｵｵｲﾀｹﾝ","kana_city":"ﾀｹﾀｼ","kana_address":"ﾀｹﾀ","pref":"大分県","city":"竹田市","address":"竹田"},
{"zip_code":"8780012","kana_pref":"ｵｵｲﾀｹﾝ","kana_city":"ﾀｹﾀｼ","kana_address":"ﾀｹﾀﾏﾁ","pref":"大分県","city":"竹田市","address":"竹田町"},
{"zip_code":"8780024","kana_pref":"ｵｵｲﾀｹﾝ","kana_city":"ﾀｹﾀｼ","kana_address":"ﾀﾏﾗｲ","pref":"大分県","city":"竹田市","address":"玉来"},
{"zip_code":"8780571","kana_pref":"ｵｵｲﾀｹﾝ","kana_city":"ﾀｹﾀｼ","kana_address":"ﾂｷﾞｸﾗ","pref":"大分県","city":"竹田市","address":"次倉"},
{"zip_code":"8780403","kana_pref":"ｵｵｲﾀｹﾝ","kana_city":"ﾀｹﾀｼ","kana_address":"ﾅｵｲﾘﾏﾁｶﾐﾀｷﾞﾀ","pref":"大分県","city":"竹田市","address":"直入町上田北"},
{"zip_code":"8780401","kana_pref":"ｵｵｲﾀｹﾝ","kana_city":"ﾀｹﾀｼ","kana_address":"ﾅｵｲﾘﾏﾁｶﾐﾂﾂﾐ","pref":"大分県","city":"竹田市","address":"直入町神堤"},
{"zip_code":"8780404","kana_pref":"ｵｵｲﾀｹﾝ","kana_city":"ﾀｹﾀｼ","kana_address":"ﾅｵｲﾘﾏﾁｼﾓﾀｷﾞﾀ","pref":"大分県","city":"竹田市","address":"直入町下田北"},
{"zip_code":"8780402","kana_pref":"ｵｵｲﾀｹﾝ","kana_city":"ﾀｹﾀｼ","kana_address":"ﾅｵｲﾘﾏﾁﾅｶﾞﾕ","pref":"大分県","city":"竹田市","address":"直入町長湯"},
{"zip_code":"8780004","kana_pref":"ｵｵｲﾀｹﾝ","kana_city":"ﾀｹﾀｼ","kana_address":"ﾅｶ","pref":"大分県","city":"竹田市","address":"中"},
{"zip_code":"8780573","kana_pref":"ｵｵｲﾀｹﾝ","kana_city":"ﾀｹﾀｼ","kana_address":"ﾅｶﾂﾉ","pref":"大分県","city":"竹田市","address":"中角"},
{"zip_code":"8780033","kana_pref":"ｵｵｲﾀｹﾝ","kana_city":"ﾀｹﾀｼ","kana_address":"ﾆｭｳﾀ","pref":"大分県","city":"竹田市","address":"入田"},
{"zip_code":"8780025","kana_pref":"ｵｵｲﾀｹﾝ","kana_city":"ﾀｹﾀｼ","kana_address":"ﾊｲﾀﾊﾞﾙ","pref":"大分県","city":"竹田市","address":"拝田原"},
{"zip_code":"8780005","kana_pref":"ｵｵｲﾀｹﾝ","kana_city":"ﾀｹﾀｼ","kana_address":"ﾊｻﾀﾞ","pref":"大分県","city":"竹田市","address":"挾田"},
{"zip_code":"8780026","kana_pref":"ｵｵｲﾀｹﾝ","kana_city":"ﾀｹﾀｼ","kana_address":"ﾋﾀﾞｶﾞﾜ","pref":"大分県","city":"竹田市","address":"飛田川"},
{"zip_code":"8780006","kana_pref":"ｵｵｲﾀｹﾝ","kana_city":"ﾀｹﾀｼ","kana_address":"ﾋﾗﾀ","pref":"大分県","city":"竹田市","address":"平田"},
{"zip_code":"8780142","kana_pref":"ｵｵｲﾀｹﾝ","kana_city":"ﾀｹﾀｼ","kana_address":"ﾌｸﾊﾗ","pref":"大分県","city":"竹田市","address":"福原"},
{"zip_code":"8780146","kana_pref":"ｵｵｲﾀｹﾝ","kana_city":"ﾀｹﾀｼ","kana_address":"ﾌﾙｿﾞﾉ","pref":"大分県","city":"竹田市","address":"古園"},
{"zip_code":"8780007","kana_pref":"ｵｵｲﾀｹﾝ","kana_city":"ﾀｹﾀｼ","kana_address":"ﾐﾔｹ","pref":"大分県","city":"竹田市","address":"三宅"},
{"zip_code":"8780027","kana_pref":"ｵｵｲﾀｹﾝ","kana_city":"ﾀｹﾀｼ","kana_address":"ﾑｺｳﾔﾏﾀﾞ","pref":"大分県","city":"竹田市","address":"向山田"},
{"zip_code":"8780034","kana_pref":"ｵｵｲﾀｹﾝ","kana_city":"ﾀｹﾀｼ","kana_address":"ﾓﾝﾃﾞﾝ","pref":"大分県","city":"竹田市","address":"門田"},
{"zip_code":"8780035","kana_pref":"ｵｵｲﾀｹﾝ","kana_city":"ﾀｹﾀｼ","kana_address":"ﾖｼﾀﾞ","pref":"大分県","city":"竹田市","address":"吉田"},
{"zip_code":"8780145","kana_pref":"ｵｵｲﾀｹﾝ","kana_city":"ﾀｹﾀｼ","kana_address":"ﾖﾅｲ","pref":"大分県","city":"竹田市","address":"米納"},
{"zip_code":"8780028","kana_pref":"ｵｵｲﾀｹﾝ","kana_city":"ﾀｹﾀｼ","kana_address":"ﾜﾀｾ","pref":"大分県","city":"竹田市","address":"渡瀬"}]}